House number,Street name,Postal code,Latitude,Longitude
1,شارع المخبز الالى,11788,30.1794166,31.4107530
2,شارع المخبز الالى,11788,30.1794202,31.4106068
2,شارع المخبز الالى,11788,30.1794295,31.4102219
1,شارع المخبز الالى,11788,30.1794268,31.4103347
1,شارع مركز العبد الطبي,11788,30.1799628,31.4108172
2,شارع مركز العبد الطبي,11788,30.1800648,31.4108200
1,شارع مركز العبد الطبي,11788,30.1795755,31.4108066
2,شارع مركز العبد الطبي,11788,30.1796799,31.4108095
1,شارع عبد الله النديم,11788,30.1801911,31.4106645
2,شارع عبد الله النديم,11788,30.1801875,31.4108106
2,شارع عبد الله النديم,11788,30.1801977,31.4103924
1,شارع عبد الله النديم,11788,30.1802004,31.4102796
2,شارع المخبز الالى,11788,30.1794798,31.4114457
2,شارع المخبز الالى,11788,30.1794681,31.4118574
1,شارع المخبز الالى,11788,30.1794649,31.4119727
1,شارع المخبز الالى,11788,30.1794766,31.4115610
2,شارع مركز العبد الطبي,11788,30.1799917,31.4111754
1,شارع مركز العبد الطبي,11788,30.1798897,31.4111726
2,شارع مركز العبد الطبي,11788,30.1796068,31.4111649
1,شارع مركز العبد الطبي,11788,30.1795025,31.4111620
2,شارع مساكن اسبيكو,11788,30.1798341,31.4121718
1,شارع مساكن اسبيكو,11788,30.1799361,31.4121746
2,شارع مساكن اسبيكو,11788,30.1794469,31.4121611
1,شارع مساكن اسبيكو,11788,30.1795512,31.4121640
1,شارع عبد الله النديم,11788,30.1801574,31.4120525
2,شارع عبد الله النديم,11788,30.1801546,31.4121678
1,شارع عبد الله النديم,11788,30.1801689,31.4115803
2,شارع عبد الله النديم,11788,30.1801661,31.4116957
2,شارع عبد الله النديم,11788,30.1801761,31.4112839
1,شارع عبد الله النديم,11788,30.1801789,31.4111686
1,شارع مركز العبد الطبي,11788,30.1807152,31.4113109
2,شارع مركز العبد الطبي,11788,30.1809980,31.4113122
1,شارع الجهد 66,11788,30.1809227,31.4086045
2,شارع الجهد 66,11788,30.1810653,31.4086072
2,شارع الحسن ابن الهيثم,11788,30.1811049,31.4090511
3,شارع الحسن ابن الهيثم,11788,30.1811016,31.4092322
1,شارع الحسن ابن الهيثم,11788,30.1811082,31.4088701
1,شارع الحسن ابن الهيثم,11788,30.1810965,31.4095152
2,شارع الحسن ابن الهيثم,11788,30.1810942,31.4096412
2,شارع الحسن ابن الهيثم,11788,30.1810871,31.4100341
1,شارع الحسن ابن الهيثم,11788,30.1810894,31.4099081
1,شارع عبد الله النديم,11788,30.1804867,31.4092617
2,شارع عبد الله النديم,11788,30.1804891,31.4091356
2,شارع عبد الله النديم,11788,30.1804820,31.4095166
1,شارع عبد الله النديم,11788,30.1804798,31.4096345
2,شارع عبد الله النديم,11788,30.1804752,31.4098785
1,شارع عبد الله النديم,11788,30.1804728,31.4100073
3,شارع عبد الله النديم,11788,30.1804601,31.4103815
2,شارع عبد الله النديم,11788,30.1804543,31.4105713
1,شارع عبد الله النديم,11788,30.1804485,31.4107610
2,شارع الحسن ابن الهيثم,11788,30.1810989,31.4107905
1,شارع الحسن ابن الهيثم,11788,30.1811058,31.4105867
1,شارع مركز العبد الطبي,11788,30.1808543,31.4108294
2,شارع مركز العبد الطبي,11788,30.1806896,31.4108187
1,شارع مساكن اسبيكو,11788,30.1874615,31.4128469
2,شارع مساكن اسبيكو,11788,30.1872123,31.4128386
3,شارع مساكن اسبيكو,11788,30.1869654,31.4128303
3,شارع مساكن اسبيكو,11788,30.1848237,31.4127587
2,شارع مساكن اسبيكو,11788,30.1850775,31.4127672
2,شارع مساكن اسبيكو,11788,30.1860500,31.4127997
1,شارع مساكن اسبيكو,11788,30.1862992,31.4128080
1,شارع مساكن اسبيكو,11788,30.1853244,31.4127754
3,شارع مساكن اسبيكو,11788,30.1858031,31.4127914
1,شارع محمد فريد,11788,30.1871723,31.4142036
2,شارع محمد فريد,11788,30.1869219,31.4141956
1,شارع محمد فريد,11788,30.1862530,31.4141740
2,شارع محمد فريد,11788,30.1860038,31.4141660
3,شارع محمد فريد,11788,30.1857569,31.4141580
1,شارع محمد فريد,11788,30.1853024,31.4141433
2,شارع محمد فريد,11788,30.1850554,31.4141354
3,شارع محمد فريد,11788,30.1848016,31.4141272
2,شارع مساكن اسبيكو,11788,30.1843344,31.4128277
1,شارع مساكن اسبيكو,11788,30.1841687,31.4128250
1,شارع محمد فريد,11788,30.1842997,31.4143056
2,شارع محمد فريد,11788,30.1841408,31.4143056
3,شارع مساكن اسبيكو,11788,30.1835867,31.4127244
2,شارع مساكن اسبيكو,11788,30.1833340,31.4127162
1,شارع مساكن اسبيكو,11788,30.1830906,31.4127083
2,شارع مساكن اسبيكو,11788,30.1827289,31.4126966
1,شارع مساكن اسبيكو,11788,30.1824751,31.4126884
3,شارع مساكن اسبيكو,11788,30.1821005,31.4126763
2,شارع مساكن اسبيكو,11788,30.1818501,31.4126681
1,شارع مساكن اسبيكو,11788,30.1815997,31.4126600
1,شارع المدرسه,11788,30.1824031,31.4130262
2,شارع المدرسه,11788,30.1823970,31.4133145
1,شارع المدرسه,11788,30.1823883,31.4137343
2,شارع المدرسه,11788,30.1823822,31.4140226
2,شارع الحسن ابن الهيثم,11788,30.1815545,31.4130047
1,شارع الحسن ابن الهيثم,11788,30.1815474,31.4132890
2,شارع الحسن ابن الهيثم,11788,30.1815373,31.4136980
1,شارع الحسن ابن الهيثم,11788,30.1815301,31.4139891
3,شارع محمد فريد,11788,30.1834986,31.4143994
2,شارع محمد فريد,11788,30.1832529,31.4143925
1,شارع محمد فريد,11788,30.1830014,31.4143853
2,شارع محمد فريد,11788,30.1826512,31.4143754
1,شارع محمد فريد,11788,30.1824031,31.4143683
3,شارع محمد فريد,11788,30.1820577,31.4143585
2,شارع محمد فريد,11788,30.1818101,31.4143515
1,شارع محمد فريد,11788,30.1815626,31.4143445
3,شارع الجهد 66,11788,30.1829920,31.4090297
2,شارع الجهد 66,11788,30.1828517,31.4090149
1,شارع الجهد 66,11788,30.1827115,31.4090002
2,شارع الجهد 66,11788,30.1820889,31.4089304
1,شارع الجهد 66,11788,30.1820936,31.4087950
1,شارع الجهد 66,11788,30.1822790,31.4088634
2,شارع الجهد 66,11788,30.1823961,31.4088647
1,شارع الجهد 66,11788,30.1816530,31.4087132
2,شارع الجهد 66,11788,30.1817730,31.4087239
3,شارع الجهد 66,11788,30.1818930,31.4087346
3,شارع الحسن ابن الهيثم,11788,30.1814150,31.4088066
4,شارع الحسن ابن الهيثم,11788,30.1814165,31.4086461
2,شارع الحسن ابن الهيثم,11788,30.1814134,31.4089671
1,شارع الحسن ابن الهيثم,11788,30.1814119,31.4091276
1,شارع الحسن ابن الهيثم,11788,30.1813957,31.4099215
2,شارع الحسن ابن الهيثم,11788,30.1813976,31.4097977
3,شارع الحسن ابن الهيثم,11788,30.1813995,31.4096738
4,شارع الحسن ابن الهيثم,11788,30.1814015,31.4095500
3,شارع مساكن اسبيكو,11788,30.1813679,31.4122412
1,شارع مساكن اسبيكو,11788,30.1816519,31.4122530
2,شارع مساكن اسبيكو,11788,30.1815099,31.4122471
3,شارع مساكن اسبيكو,11788,30.1819661,31.4122661
2,شارع مساكن اسبيكو,11788,30.1820680,31.4122704
1,شارع مساكن اسبيكو,11788,30.1821700,31.4122746
1,شارع الحسن ابن الهيثم,11788,30.1813647,31.4110907
2,شارع الحسن ابن الهيثم,11788,30.1813679,31.4109707
3,شارع الحسن ابن الهيثم,11788,30.1813712,31.4108506
4,شارع الحسن ابن الهيثم,11788,30.1813744,31.4107306
5,شارع الحسن ابن الهيثم,11788,30.1813777,31.4106105
6,شارع الحسن ابن الهيثم,11788,30.1813810,31.4104905
2,شارع الحسن ابن الهيثم,11788,30.1813432,31.4118835
1,شارع الحسن ابن الهيثم,11788,30.1813399,31.4120036
4,شارع الحسن ابن الهيثم,11788,30.1813497,31.4116434
3,شارع الحسن ابن الهيثم,11788,30.1813464,31.4117635
6,شارع الحسن ابن الهيثم,11788,30.1813562,31.4114033
5,شارع الحسن ابن الهيثم,11788,30.1813530,31.4115234
6,شارع المدرسه,11788,30.1822332,31.4111417
5,شارع المدرسه,11788,30.1822361,31.4110154
4,شارع المدرسه,11788,30.1822390,31.4108891
3,شارع المدرسه,11788,30.1822419,31.4107628
2,شارع المدرسه,11788,30.1822448,31.4106365
1,شارع المدرسه,11788,30.1822477,31.4105102
6,شارع المدرسه,11788,30.1822118,31.4120740
5,شارع المدرسه,11788,30.1822148,31.4119415
4,شارع المدرسه,11788,30.1822179,31.4118090
3,شارع المدرسه,11788,30.1822209,31.4116765
2,شارع المدرسه,11788,30.1822240,31.4115440
1,شارع المدرسه,11788,30.1822270,31.4114115
1,شارع المدرسه,11788,30.1824784,31.4120056
2,شارع المدرسه,11788,30.1824803,31.4118768
3,شارع المدرسه,11788,30.1824821,31.4117481
4,شارع المدرسه,11788,30.1824840,31.4116193
5,شارع المدرسه,11788,30.1824859,31.4114906
6,شارع المدرسه,11788,30.1824877,31.4113618
6,شارع اسبيكو القديم,11788,30.1832681,31.4113773
5,شارع اسبيكو القديم,11788,30.1831558,31.4113745
4,شارع اسبيكو القديم,11788,30.1830436,31.4113717
3,شارع اسبيكو القديم,11788,30.1829313,31.4113688
2,شارع اسبيكو القديم,11788,30.1828191,31.4113660
1,شارع اسبيكو القديم,11788,30.1827068,31.4113632
1,شارع مساكن اسبيكو,11788,30.1829689,31.4122988
2,شارع مساكن اسبيكو,11788,30.1828120,31.4122940
3,شارع مساكن اسبيكو,11788,30.1826551,31.4122893
4,شارع مساكن اسبيكو,11788,30.1824982,31.4122845
1,شارع مساكن اسبيكو,11788,30.1834071,31.4123121
2,شارع مساكن اسبيكو,11788,30.1832437,31.4123071
6,شارع الاداره,11788,30.1842371,31.4120753
5,شارع الاداره,11788,30.1842401,31.4119450
4,شارع الاداره,11788,30.1842431,31.4118146
3,شارع الاداره,11788,30.1842461,31.4116842
2,شارع الاداره,11788,30.1842491,31.4115539
1,شارع الاداره,11788,30.1842521,31.4114235
4,شارع اسبيكو القديم,11788,30.1839849,31.4113954
2,شارع اسبيكو القديم,11788,30.1836612,31.4113872
1,شارع اسبيكو القديم,11788,30.1834993,31.4113831
3,شارع اسبيكو القديم,11788,30.1838230,31.4113913
3,شارع مساكن اسبيكو,11788,30.1838565,31.4123257
1,شارع مساكن اسبيكو,11788,30.1841803,31.4123355
2,شارع مساكن اسبيكو,11788,30.1840184,31.4123306
4,شارع مساكن اسبيكو,11788,30.1836947,31.4123208
1,شارع الجهد 66,11788,30.1838603,31.4093810
2,شارع الجهد 66,11788,30.1840180,31.4093837
2,شارع الاداره,11788,30.1842336,31.4102340
1,شارع الاداره,11788,30.1842371,31.4100154
2,شارع الاداره,11788,30.1842614,31.4096385
1,شارع الاداره,11788,30.1842672,31.4094079
5,شارع الجهد 66,11788,30.1853581,31.4097592
4,شارع الجهد 66,11788,30.1852459,31.4097579
3,شارع الجهد 66,11788,30.1851338,31.4097565
2,شارع الجهد 66,11788,30.1850216,31.4097552
1,شارع الجهد 66,11788,30.1849094,31.4097539
1,شارع الاداره,11788,30.1845512,31.4099523
2,شارع الاداره,11788,30.1845564,31.4097700
3,شارع الاداره,11788,30.1845617,31.4095876
6,شارع الاداره,11788,30.1845126,31.4114840
5,شارع الاداره,11788,30.1845088,31.4116143
2,شارع الاداره,11788,30.1844971,31.4120053
1,شارع الاداره,11788,30.1844933,31.4121357
4,شارع الاداره,11788,30.1845049,31.4117447
3,شارع الاداره,11788,30.1845010,31.4118750
1,شارع الاداره,11788,30.1845203,31.4112276
2,شارع الاداره,11788,30.1845241,31.4110973
3,شارع الاداره,11788,30.1845280,31.4109669
4,شارع الاداره,11788,30.1845319,31.4108366
5,شارع الاداره,11788,30.1845358,31.4107063
6,شارع الاداره,11788,30.1845396,31.4105760
4,شارع مساكن اسبيكو,11788,30.1847136,31.4123649
2,شارع مساكن اسبيكو,11788,30.1849404,31.4123708
6,شارع مساكن اسبيكو,11788,30.1844869,31.4123590
5,شارع مساكن اسبيكو,11788,30.1846003,31.4123619
1,شارع مساكن اسبيكو,11788,30.1850538,31.4123737
3,شارع مساكن اسبيكو,11788,30.1848270,31.4123678
2,شارع الجهد 66,11788,30.1883356,31.4104546
1,شارع الجهد 66,11788,30.1881744,31.4104532
1,شارع الدكتور محمود سليمان,11788,30.1883170,31.4112955
2,شارع الدكتور محمود سليمان,11788,30.1881559,31.4112941
2,شارع الدكتور محمود سليمان,11788,30.1883135,31.4110152
1,شارع الدكتور محمود سليمان,11788,30.1881524,31.4110138
1,شارع الدكتور محمود سليمان,11788,30.1883269,31.4107503
2,شارع الدكتور محمود سليمان,11788,30.1881657,31.4107490
1,شارع الدكتور محمود سليمان,11788,30.1879119,31.4103842
2,شارع الدكتور محمود سليمان,11788,30.1879083,31.4105182
3,شارع الدكتور محمود سليمان,11788,30.1879051,31.4106364
4,شارع الدكتور محمود سليمان,11788,30.1879013,31.4107772
5,شارع الدكتور محمود سليمان,11788,30.1878979,31.4109046
6,شارع الدكتور محمود سليمان,11788,30.1878945,31.4110306
1,شارع الجهد 66,11788,30.1871688,31.4102541
4,شارع الجهد 66,11788,30.1876371,31.4102648
3,شارع الجهد 66,11788,30.1874830,31.4102613
2,شارع الجهد 66,11788,30.1873172,31.4102575
2,شارع الجهد 66,11788,30.1864930,31.4101119
1,شارع الجهد 66,11788,30.1864953,31.4099792
3,شارع الجهد 66,11788,30.1860814,31.4099563
4,شارع الجهد 66,11788,30.1861707,31.4099603
5,شارع الجهد 66,11788,30.1863214,31.4099671
2,شارع الجهد 66,11788,30.1859841,31.4099520
1,شارع الجهد 66,11788,30.1858728,31.4099470
2,شارع الجهد 66,11788,30.1856977,31.4098129
1,شارع الجهد 66,11788,30.1856908,31.4099845
1,شارع الجهد 66,11788,30.1855285,31.4099926
2,شارع الجهد 66,11788,30.1855296,31.4098048
4,شارع مساكن اسبيكو,11788,30.1855378,31.4123797
3,شارع مساكن اسبيكو,11788,30.1857023,31.4123856
2,شارع مساكن اسبيكو,11788,30.1858624,31.4123913
1,شارع مساكن اسبيكو,11788,30.1860271,31.4123972
6,شارع مساكن اسبيكو,11788,30.1862741,31.4124060
5,شارع مساكن اسبيكو,11788,30.1863901,31.4124102
4,شارع مساكن اسبيكو,11788,30.1864934,31.4124139
3,شارع مساكن اسبيكو,11788,30.1865976,31.4124176
2,شارع مساكن اسبيكو,11788,30.1867227,31.4124221
1,شارع مساكن اسبيكو,11788,30.1868317,31.4124260
4,شارع مساكن اسبيكو,11788,30.1870786,31.4124348
3,شارع مساكن اسبيكو,11788,30.1872281,31.4124401
2,شارع مساكن اسبيكو,11788,30.1874007,31.4124463
1,شارع مساكن اسبيكو,11788,30.1875653,31.4124522
2,شارع مساكن اسبيكو,11788,30.1880939,31.4124736
1,شارع مساكن اسبيكو,11788,30.1881982,31.4124736
2,شارع محطه التنقية,11788,30.1884219,31.4123811
1,شارع محطه التنقية,11788,30.1884254,31.4122537
2,شارع محطه التنقية,11788,30.1885494,31.4119130
1,شارع محطه التنقية,11788,30.1885541,31.4117213
2,شارع محطه التنقية,11788,30.1887674,31.4112358
1,شارع محطه التنقية,11788,30.1887767,31.4110453
2,شارع الجهد 66,11788,30.1887836,31.4107355
1,شارع الجهد 66,11788,30.1887871,31.4105243
1,شارع سعد زغلول,11788,30.1718040,31.4103686
2,شارع سعد زغلول,11788,30.1717021,31.4102635
1,شارع سعد زغلول,11788,30.1720896,31.4106631
2,شارع سعد زغلول,11788,30.1719877,31.4105580
2,شارع السد العالي,11788,30.1719932,31.4100649
1,شارع السد العالي,11788,30.1718998,31.4099667
1,شارع السد العالي,11788,30.1721464,31.4102260
2,شارع السد العالي,11788,30.1722398,31.4103242
1,شارع السد العالي,11788,30.1722176,31.4097344
2,شارع السد العالي,11788,30.1723117,31.4098317
1,شارع السد العالي,11788,30.1723959,31.4099187
2,شارع السد العالي,11788,30.1724901,31.4100160
2,شارع علي ابن ابي طالب,11788,30.1726187,31.4096380
1,شارع علي ابن ابي طالب,11788,30.1727104,31.4097384
2,شارع علي ابن ابي طالب,11788,30.1724478,31.4094508
1,شارع علي ابن ابي طالب,11788,30.1725395,31.4095512
2,شارع مدرسه السيدة زينب,11788,30.1726420,31.4086327
1,شارع مدرسه السيدة زينب,11788,30.1725643,31.4087295
2,شارع مدرسه السيدة زينب,11788,30.1715451,31.4100004
1,شارع مدرسه السيدة زينب,11788,30.1714675,31.4100972
2,شارع مدرسه السيدة زينب,11788,30.1717114,31.4097931
1,شارع مدرسه السيدة زينب,11788,30.1716337,31.4098899
1,شارع مدرسه السيدة زينب,11788,30.1718971,31.4095954
2,شارع مدرسه السيدة زينب,11788,30.1720163,31.4094477
1,شارع مدرسه السيدة زينب,11788,30.1721682,31.4092327
2,شارع مدرسه السيدة زينب,11788,30.1722677,31.4091038
1,شارع الحسين ابن علي,11788,30.1729002,31.4089854
2,شارع الحسين ابن علي,11788,30.1727979,31.4088808
1,شارع الحسين ابن علي,11788,30.1731991,31.4092912
2,شارع الحسين ابن علي,11788,30.1730968,31.4091865
1,شارع احمد رشدي,11788,30.1723211,31.4108189
2,شارع احمد رشدي,11788,30.1722431,31.4109153
1,شارع احمد رشدي,11788,30.1724843,31.4106174
2,شارع احمد رشدي,11788,30.1724063,31.4107137
1,شارع احمد رشدي,11788,30.1727874,31.4102431
2,شارع احمد رشدي,11788,30.1726718,31.4103858
1,شارع احمد رشدي,11788,30.1730655,31.4098996
2,شارع احمد رشدي,11788,30.1729499,31.4100424
2,شارع احمد رشدي,11788,30.1731811,31.4097569
1,شارع احمد رشدي,11788,30.1732591,31.4096605
1,شارع احمد رشدي,11788,30.1734246,31.4094561
2,شارع احمد رشدي,11788,30.1733465,31.4095525
1,شارع مدرسه السيدة زينب,11788,30.1724084,31.4089240
2,شارع مدرسه السيدة زينب,11788,30.1724860,31.4088271
1,شارع الحسين ابن علي,11788,30.1752767,31.4106108
1,شارع مركز العبد الطبي,11788,30.1782204,31.4108699
2,شارع مركز العبد الطبي,11788,30.1783310,31.4109883
1,شارع مركز العبد الطبي,11788,30.1779457,31.4105759
2,شارع مركز العبد الطبي,11788,30.1780643,31.4107028
1,شارع مركز العبد الطبي,11788,30.1776783,31.4102896
2,شارع مركز العبد الطبي,11788,30.1777897,31.4104089
1,شارع مساكن اسبيكو,11788,30.1779629,31.4112331
2,شارع مساكن اسبيكو,11788,30.1778523,31.4111147
1,شارع مساكن اسبيكو,11788,30.1776962,31.4109476
2,شارع مساكن اسبيكو,11788,30.1775776,31.4108206
1,شارع مساكن اسبيكو,11788,30.1774216,31.4106537
2,شارع مساكن اسبيكو,11788,30.1773102,31.4105344
1,شارع مساكن اسبيكو,11788,30.1788162,31.4121222
2,شارع مساكن اسبيكو,11788,30.1787350,31.4120365
1,شارع مساكن اسبيكو,11788,30.1785466,31.4118377
2,شارع مساكن اسبيكو,11788,30.1784579,31.4117441
2,شارع مركز العبد الطبي,11788,30.1789356,31.4110292
1,شارع مركز العبد الطبي,11788,30.1788185,31.4110319
2,شارع المخبز الالى,11788,30.1791315,31.4121041
1,شارع المخبز الالى,11788,30.1791338,31.4119768
2,شارع المخبز الالى,11788,30.1791391,31.4116862
1,شارع المخبز الالى,11788,30.1791414,31.4115589
2,شارع المخبز الالى,11788,30.1791467,31.4112652
1,شارع المخبز الالى,11788,30.1791489,31.4111406
3,شارع المخبز الالى,11788,30.1794712,31.4083537
2,شارع المخبز الالى,11788,30.1794683,31.4085279
1,شارع المخبز الالى,11788,30.1794655,31.4086929
58,شارع المخبز الالى,11788,30.1794944,31.4089157
57,شارع المخبز الالى,11788,30.1794874,31.4093381
2,شارع المخبز الالى,11788,30.1794508,31.4095661
1,شارع المخبز الالى,11788,30.1794480,31.4097324
1,شارع عبد الله النديم,11788,30.1802115,31.4095902
3,شارع عبد الله النديم,11788,30.1802016,31.4099329
2,شارع عبد الله النديم,11788,30.1802066,31.4097607
51,شارع عبد الله النديم,11788,30.1801645,31.4093649
50,شارع عبد الله النديم,11788,30.1801749,31.4089385
2,شارع عبد الله النديم,11788,30.1802373,31.4087010
1,شارع عبد الله النديم,11788,30.1802421,31.4085321
2,شارع الحسين ابن علي,11788,30.1751700,31.4104941
3,شارع الحسين ابن علي,11788,30.1750633,31.4103775
1,شارع الحسين ابن علي,11788,30.1755665,31.4111526
2,شارع الحسين ابن علي,11788,30.1754919,31.4110740
3,شارع الحسين ابن علي,11788,30.1754173,31.4109953
4,شارع الحسين ابن علي,11788,30.1753428,31.4109166
1,شارع نجيب محفوظ,11788,30.1758736,31.4108356
2,شارع نجيب محفوظ,11788,30.1757682,31.4109689
2,شارع نجيب محفوظ,11788,30.1762034,31.4104181
1,شارع نجيب محفوظ,11788,30.1762842,31.4103158
1,شارع عثمان ابن عفان,11788,30.1764134,31.4100717
3,شارع عثمان ابن عفان,11788,30.1761937,31.4098435
2,شارع عثمان ابن عفان,11788,30.1763040,31.4099580
3,شارع عثمان ابن عفان,11788,30.1757757,31.4094094
2,شارع عثمان ابن عفان,11788,30.1756686,31.4092981
1,شارع عثمان ابن عفان,11788,30.1755572,31.4091825
3,شارع مسجد الكويتي,11788,30.1752523,31.4092328
2,شارع مسجد الكويتي,11788,30.1753277,31.4091373
1,شارع مسجد الكويتي,11788,30.1754030,31.4090417
4,شارع مسجد الكويتي,11788,30.1751770,31.4093284
5,شارع مسجد الكويتي,11788,30.1751016,31.4094239
4,شارع آل ياسر,11788,30.1748048,31.4103305
3,شارع آل ياسر,11788,30.1748829,31.4102308
2,شارع آل ياسر,11788,30.1749609,31.4101312
1,شارع آل ياسر,11788,30.1750390,31.4100315
1,شارع آل ياسر,11788,30.1749613,31.4097311
2,شارع آل ياسر,11788,30.1748570,31.4098605
3,شارع آل ياسر,11788,30.1747526,31.4099899
2,شارع مدارس السفير,11788,30.1746947,31.4091262
3,شارع مدارس السفير,11788,30.1748129,31.4092449
1,شارع مدارس السفير,11788,30.1745764,31.4090075
1,شارع العبد القديم,11788,30.1749520,31.4090739
2,شارع العبد القديم,11788,30.1748338,31.4089552
3,شارع العبد القديم,11788,30.1747155,31.4088365
2,شارع مسجد الكويتي,11788,30.1744373,31.4094320
1,شارع مسجد الكويتي,11788,30.1745497,31.4092872
3,شارع مسجد الكويتي,11788,30.1743248,31.4095768
4,شارع الحسين ابن علي,11788,30.1743619,31.4098920
1,شارع الحسين ابن علي,11788,30.1745845,31.4101347
2,شارع الحسين ابن علي,11788,30.1745103,31.4100538
3,شارع الحسين ابن علي,11788,30.1744361,31.4099729
3,شارع الحسين ابن علي,11788,30.1741713,31.4096763
2,شارع الحسين ابن علي,11788,30.1740660,31.4095594
1,شارع الحسين ابن علي,11788,30.1739585,31.4094400
3,شارع احمد رشدي,11788,30.1740373,31.4092737
2,شارع احمد رشدي,11788,30.1741486,31.4091328
1,شارع احمد رشدي,11788,30.1742598,31.4089918
2,شارع احمد رشدي,11788,30.1738749,31.4089840
1,شارع مدارس السفير,11788,30.1740129,31.4087279
2,شارع مدارس السفير,11788,30.1738645,31.4085697
2,شارع الحسين ابن علي,11788,30.1734622,31.4089546
1,شارع الحسين ابن علي,11788,30.1736014,31.4091034
1,شارع الحسين ابن علي,11788,30.1730391,31.4084986
2,شارع مدارس السفير,11788,30.1735098,31.4082103
1,شارع الحسين ابن علي,11788,30.1720559,31.4074954
1,شارع مدارس السفير,11788,30.1724280,31.4071038
2,شارع الحسين ابن علي,11788,30.1717452,31.4071347
1,شارع الحسين ابن علي,11788,30.1716397,31.4070167
1,شارع المطحن,11788,30.1718310,31.4067726
2,شارع المطحن,11788,30.1719753,31.4067196
3,شارع المطحن,11788,30.1721196,31.4066666
2,شارع احمد رشدي,11788,30.1743902,31.4088267
1,شارع احمد رشدي,11788,30.1744639,31.4087333
1,شارع مدارس السفير,11788,30.1740663,31.4084356
2,شارع مدارس السفير,11788,30.1735132,31.4078683
1,شارع مدارس السفير,11788,30.1736628,31.4080386
1,شارع احمد رشدي,11788,30.1743642,31.4081499
2,شارع احمد رشدي,11788,30.1743086,31.4083122
1,شارع مسجد الكويتي,11788,30.1751932,31.4087306
1,شارع احمد رشدي,11788,30.1746506,31.4082545
2,شارع احمد رشدي,11788,30.1746077,31.4084758
1,شارع أم المؤمنين,11788,30.1749231,31.4080614
2,شارع احمد رشدي,11788,30.1746842,31.4079984
2,شارع الجهد 66,11788,30.1737573,31.4068738
1,شارع الجهد 66,11788,30.1737863,31.4067142
1,شارع أم المؤمنين,11788,30.1735909,31.4070864
2,شارع أم المؤمنين,11788,30.1734518,31.4070495
3,شارع أم المؤمنين,11788,30.1733127,31.4070126
2,شارع الجهد 66,11788,30.1736037,31.4065298
1,شارع الجهد 66,11788,30.1734553,31.4064923
1,شارع الجهد 66,11788,30.1731933,31.4067431
2,شارع الجهد 66,11788,30.1732222,31.4065835
1,شارع مدارس السفير,11788,30.1725741,31.4069053
1,شارع الجهد 66,11788,30.1725057,31.4065935
2,شارع الجهد 66,11788,30.1726540,31.4065671
2,شارع الجهد 66,11788,30.1730507,31.4064963
1,شارع الجهد 66,11788,30.1729024,31.4065228
2,شارع مسجد الكويتي,11788,30.1754993,31.4083886
1,شارع مسجد الكويتي,11788,30.1755294,31.4082277
3,شارع أم المؤمنين,11788,30.1745289,31.4078428
2,شارع أم المؤمنين,11788,30.1743886,31.4078052
1,شارع أم المؤمنين,11788,30.1742483,31.4077677
2,شارع أم المؤمنين,11788,30.1753555,31.4080641
1,شارع أم المؤمنين,11788,30.1751700,31.4080158
1,شارع أم المؤمنين,11788,30.1741660,31.4073734
1,شارع أم المؤمنين,11788,30.1740906,31.4070944
1,شارع الجهد 66,11788,30.1742031,31.4067096
1,شارع الجهد 66,11788,30.1739828,31.4069308
2,شارع الجهد 66,11788,30.1740141,31.4067511
1,شارع أم المؤمنين,11788,30.1745822,31.4075799
3,شارع أم المؤمنين,11788,30.1743016,31.4075048
2,شارع أم المؤمنين,11788,30.1744419,31.4075424
3,شارع الجهد 66,11788,30.1747352,31.4068370
2,شارع الجهد 66,11788,30.1745950,31.4067994
1,شارع الجهد 66,11788,30.1744547,31.4067619
1,شارع أم المؤمنين,11788,30.1749578,31.4075383
2,شارع الجهد 66,11788,30.1748883,31.4070998
1,شارع الجهد 66,11788,30.1749213,31.4069322
3,شارع الجهد 66,11788,30.1748552,31.4072674
2,شارع الجهد 66,11788,30.1750802,31.4071494
1,شارع الجهد 66,11788,30.1750471,31.4073171
3,شارع الجهد 66,11788,30.1751132,31.4069818
1,شارع أم المؤمنين,11788,30.1754361,31.4078233
3,شارع أم المؤمنين,11788,30.1751636,31.4077523
2,شارع أم المؤمنين,11788,30.1752999,31.4077878
3,شارع الجهد 66,11788,30.1755827,31.4070757
2,شارع الجهد 66,11788,30.1754465,31.4070401
1,شارع الجهد 66,11788,30.1753103,31.4070046
3,شارع مسجد الكويتي,11788,30.1756372,31.4076751
2,شارع مسجد الكويتي,11788,30.1756651,31.4075102
1,شارع مسجد الكويتي,11788,30.1756929,31.4073452
2,شارع مسجد الصالحين,11788,30.1776765,31.4134211
1,شارع مسجد الصالحين,11788,30.1778134,31.4135673
1,شارع مسجد الصالحين,11788,30.1788829,31.4134050
2,شارع مسجد الصالحين,11788,30.1786903,31.4136478
2,شارع مسجد الصالحين,11788,30.1782469,31.4136236
1,شارع مسجد الصالحين,11788,30.1781101,31.4134774
1,شارع مسجد الصالحين,11788,30.1790376,31.4136820
1,شارع المخبز الالى,11788,30.1791176,31.4135358
2,شارع المخبز الالى,11788,30.1789495,31.4131334
2,شارع المخبز الالى,11788,30.1788683,31.4129470
1,شارع المخبز الالى,11788,30.1789901,31.4127888
1,شارع مساكن اسبيكو,11788,30.1788139,31.4127030
1,شارع مساكن اسبيكو,11788,30.1786550,31.4128029
2,شارع مساكن اسبيكو,11788,30.1785240,31.4126607
1,شارع العبد 700,11788,30.1783038,31.4125018
1,شارع العبد 700,11788,30.1782029,31.4126386
1,شارع العبد 700,11788,30.1779534,31.4129792
2,شارع العبد 700,11788,30.1780800,31.4128196
1,شارع العبد 700,11788,30.1777355,31.4132526
1,شارع العبد 700,11788,30.1774480,31.4136130
1,شارع المخبز الالى,11788,30.1789669,31.4144182
2,شارع مسجد الصالحين,11788,30.1782551,31.4138693
1,شارع مسجد الصالحين,11788,30.1778934,31.4138707
1,شارع مسجد الصالحين,11788,30.1773983,31.4138643
2,شارع مسجد الصالحين,11788,30.1788533,31.4138744
1,شارع مسجد الصالحين,11788,30.1786585,31.4138725
2,شارع المخبز الالى,11788,30.1790782,31.4139435
1,شارع المخبز الالى,11788,30.1790759,31.4141607
1,شارع العبد 700,11788,30.1769207,31.4142814
2,شارع العبد 700,11788,30.1770455,31.4141240
2,شارع العبد 700,11788,30.1779409,31.4124066
1,شارع العبد 700,11788,30.1780638,31.4122295
1,شارع الفراعنة,11788,30.1760287,31.4116926
2,شارع الفراعنة,11788,30.1759097,31.4118394
1,شارع الفراعنة,11788,30.1758581,31.4119030
2,شارع الفراعنة,11788,30.1764158,31.4112150
1,شارع الفراعنة,11788,30.1763625,31.4112807
2,شارع الفراعنة,11788,30.1762525,31.4114164
1,شارع الفراعنة,11788,30.1761958,31.4114863
2,شارع الفراعنة,11788,30.1760814,31.4116275
2,شارع نجيب محفوظ,11788,30.1762337,31.4110098
2,شارع نجيب محفوظ,11788,30.1760713,31.4112121
1,شارع نجيب محفوظ,11788,30.1761807,31.4110758
2,شارع نجيب محفوظ,11788,30.1759010,31.4114241
1,شارع نجيب محفوظ,11788,30.1760149,31.4112823
2,شارع نجيب محفوظ,11788,30.1757301,31.4116368
1,شارع نجيب محفوظ,11788,30.1758485,31.4114894
1,شارع نجيب محفوظ,11788,30.1756788,31.4117007
1,شارع الفراعنة,11788,30.1750737,31.4128866
2,شارع الفراعنة,11788,30.1751365,31.4128063
2,شارع الفراعنة,11788,30.1754646,31.4123866
1,شارع الفراعنة,11788,30.1754018,31.4124668
2,شارع الفراعنة,11788,30.1756315,31.4121706
1,شارع الفراعنة,11788,30.1755687,31.4122509
2,شارع نجيب محفوظ,11788,30.1754455,31.4119912
1,شارع نجيب محفوظ,11788,30.1753925,31.4120572
2,شارع نجيب محفوظ,11788,30.1752831,31.4121934
1,شارع نجيب محفوظ,11788,30.1752267,31.4122637
2,شارع نجيب محفوظ,11788,30.1751128,31.4124055
1,شارع نجيب محفوظ,11788,30.1750603,31.4124708
2,شارع نجيب محفوظ,11788,30.1749419,31.4126182
1,شارع نجيب محفوظ,11788,30.1748906,31.4126821
1,شارع الجهد 66,11788,30.1776592,31.4076202
2,شارع الجهد 66,11788,30.1777971,31.4076567
3,شارع الجهد 66,11788,30.1779351,31.4076933
4,شارع الجهد 66,11788,30.1780730,31.4077298
5,شارع الجهد 66,11788,30.1782110,31.4077663
1,شارع سوريا,11788,30.1778041,31.4087668
2,شارع سوريا,11788,30.1776721,31.4087323
3,شارع سوريا,11788,30.1775402,31.4086978
4,شارع سوريا,11788,30.1774083,31.4086633
1,شارع الجهد 66,11788,30.1769120,31.4075457
2,شارع الجهد 66,11788,30.1770430,31.4075802
3,شارع الجهد 66,11788,30.1771740,31.4076146
4,شارع الجهد 66,11788,30.1773050,31.4076490
4,شارع سوريا,11788,30.1767299,31.4084859
2,شارع سوريا,11788,30.1769919,31.4085544
3,شارع سوريا,11788,30.1768609,31.4085201
1,شارع سوريا,11788,30.1771230,31.4085887
5,شارع الجهد 66,11788,30.1766181,31.4073466
4,شارع الجهد 66,11788,30.1764757,31.4073084
3,شارع الجهد 66,11788,30.1763334,31.4072701
2,شارع الجهد 66,11788,30.1761911,31.4072319
1,شارع الجهد 66,11788,30.1760488,31.4071937
3,شارع سوريا,11788,30.1761406,31.4083318
2,شارع سوريا,11788,30.1762823,31.4083688
1,شارع سوريا,11788,30.1764240,31.4084059
4,شارع سوريا,11788,30.1759990,31.4082947
5,شارع مسجد الكويتي,11788,30.1759062,31.4074767
4,شارع مسجد الكويتي,11788,30.1758746,31.4076406
3,شارع مسجد الكويتي,11788,30.1758430,31.4078046
2,شارع مسجد الكويتي,11788,30.1758114,31.4079685
1,شارع مسجد الكويتي,11788,30.1757798,31.4081325
6,شارع سوريا,11788,30.1766575,31.4087534
5,شارع سوريا,11788,30.1765151,31.4087172
4,شارع سوريا,11788,30.1763727,31.4086810
3,شارع سوريا,11788,30.1762304,31.4086448
2,شارع سوريا,11788,30.1760880,31.4086086
1,شارع سوريا,11788,30.1759456,31.4085723
1,شارع مسجد الكويتي,11788,30.1756674,31.4087467
2,شارع مسجد الكويتي,11788,30.1756906,31.4085817
3,شارع عثمان ابن عفان,11788,30.1759688,31.4091383
2,شارع عثمان ابن عفان,11788,30.1760708,31.4092442
1,شارع عثمان ابن عفان,11788,30.1761729,31.4093502
4,شارع عثمان ابن عفان,11788,30.1758668,31.4090323
3,شارع سكة العبد القديم,11788,30.1764430,31.4092228
2,شارع سكة العبد القديم,11788,30.1765415,31.4090967
1,شارع سكة العبد القديم,11788,30.1766401,31.4089707
2,شارع مسجد الصالحين,11788,30.1789379,31.4136457
2,شارع مساكن اسبيكو,11788,30.1787408,31.4126211
2,شارع العبد 700,11788,30.1778087,31.4131603
2,شارع العبد 700,11788,30.1775096,31.4135331
2,شارع مسجد الصالحين,11788,30.1774887,31.4138643
2,شارع مسجد الصالحين,11788,30.1779954,31.4138724
1,شارع مسجد الصالحين,11788,30.1781588,31.4138751
1,شارع المخبز الالى,11788,30.1790272,31.4132193
2,شارع المخبز الالى,11788,30.1791338,31.4134097
2,شارع المخبز الالى,11788,30.1790724,31.4144175
2,شارع أم المؤمنين,11788,30.1749474,31.4079474
1,شارع احمد رشدي,11788,30.1747097,31.4078870
2,شارع أم المؤمنين,11788,30.1748454,31.4075142
2,شارع أم المؤمنين,11788,30.1740756,31.4071722
2,شارع أم المؤمنين,11788,30.1741787,31.4072902
1,شارع احمد رشدي,11788,30.1739190,31.4089277
2,شارع مدارس السفير,11788,30.1739909,31.4083564
1,شارع مدارس السفير,11788,30.1735863,31.4083001
2,شارع مدارس السفير,11788,30.1725220,31.4068490
2,شارع مدارس السفير,11788,30.1723712,31.4070395
1,شارع صفيه زغلول,11788,30.1708002,31.4091665
1,شارع المطحن,11788,30.1707863,31.4081177
2,شارع المطحن,11788,30.1706750,31.4082625
1,شارع المطحن,11788,30.1704628,31.4083993
2,شارع الحجاز,11788,30.1635141,31.4061939
1,شارع الحجاز,11788,30.1645345,31.4071146
2,شارع الحجاز,11788,30.1644394,31.4070354
1,شارع محمد فريد,11788,30.1670761,31.4100409
2,شارع محمد فريد,11788,30.1669856,31.4099537
2,شارع محمد فريد,11788,30.1672964,31.4102085
1,شارع محمد فريد,11788,30.1674170,31.4103265
2,شارع محمد فريد,11788,30.1676454,31.4105451
1,شارع محمد فريد,11788,30.1677694,31.4106658
2,شارع محمد فريد,11788,30.1679144,31.4108495
1,شارع محمد فريد,11788,30.1680083,31.4109394
1,شارع الحجاز,11788,30.1612826,31.4049299
2,شارع الحجاز,11788,30.1613742,31.4047609
1,شارع الحجاز,11788,30.1636243,31.4062724
1,شارع الحجاز,11788,30.1638886,31.4065855
2,شارع الحجاز,11788,30.1637588,31.4064742
1,شارع الحجاز,11788,30.1642469,31.4068933
2,شارع الحجاز,11788,30.1641171,31.4067820
2,شارع محمد فريد,11788,30.1647603,31.4073835
1,شارع محمد فريد,11788,30.1646449,31.4075162
2,شارع محمد فريد,11788,30.1649609,31.4076021
1,شارع محمد فريد,11788,30.1648455,31.4077348
2,شارع محمد فريد,11788,30.1651522,31.4078274
1,شارع محمد فريد,11788,30.1650368,31.4079601
1,شارع محمد فريد,11788,30.1652386,31.4081707
2,شارع محمد فريد,11788,30.1653540,31.4080379
2,شارع محمد فريد,11788,30.1664984,31.4095708
1,شارع محمد فريد,11788,30.1663830,31.4097036
2,شارع محمد فريد,11788,30.1663036,31.4093307
1,شارع محمد فريد,11788,30.1661882,31.4094635
2,شارع محمد فريد,11788,30.1660972,31.4091142
1,شارع محمد فريد,11788,30.1659818,31.4092469
1,شارع محمد فريد,11788,30.1657795,31.4090283
2,شارع محمد فريد,11788,30.1658949,31.4088956
1,شارع محمد فريد,11788,30.1655864,31.4088091
2,شارع محمد فريد,11788,30.1657018,31.4086763
1,شارع محمد فريد,11788,30.1653838,31.4085878
2,شارع محمد فريد,11788,30.1654992,31.4084550
1,شارع محمد العابدي,11788,30.1632109,31.4062402
2,شارع محمد العابدي,11788,30.1633025,31.4060712
1,شارع الحجاز,11788,30.1628920,31.4060149
2,شارع الحجاز,11788,30.1629836,31.4058459
1,شارع الحجاز,11788,30.1626033,31.4058097
2,شارع الحجاز,11788,30.1626949,31.4056407
1,شارع الحجاز,11788,30.1623297,31.4056487
2,شارع الحجاز,11788,30.1624213,31.4054798
1,شارع الحجاز,11788,30.1620665,31.4054865
2,شارع الحجاز,11788,30.1621581,31.4053175
1,شارع الحجاز,11788,30.1617835,31.4052907
2,شارع الحجاز,11788,30.1618751,31.4051217
1,شارع الحجاز,11788,30.1615337,31.4051123
2,شارع الحجاز,11788,30.1616253,31.4049433
1,شارع الحجاز,11788,30.1611348,31.4046362
2,شارع الحجاز,11788,30.1609873,31.4045299
1,شارع الحجاز,11788,30.1607860,31.4043847
2,شارع الحجاز,11788,30.1606389,31.4042787
1,شارع الرحمن,11788,30.1603935,31.4041018
2,شارع الرحمن,11788,30.1602512,31.4039992
1,شارع محمد فريد,11788,30.1643327,31.4074056
2,شارع محمد فريد,11788,30.1641971,31.4073077
1,شارع محمد فريد,11788,30.1639547,31.4071374
2,شارع محمد فريد,11788,30.1638144,31.4070421
1,شارع محمد فريد,11788,30.1635837,31.4068826
2,شارع محمد فريد,11788,30.1634434,31.4067860
1,شارع محمد فريد,11788,30.1631964,31.4066090
2,شارع محمد فريد,11788,30.1630550,31.4065151
1,شارع محمد فريد,11788,30.1627307,31.4063063
2,شارع محمد فريد,11788,30.1625780,31.4062115
1,شارع محمد فريد,11788,30.1623540,31.4060649
2,شارع محمد فريد,11788,30.1622091,31.4059650
1,شارع محمد فريد,11788,30.1619904,31.4058064
2,شارع محمد فريد,11788,30.1618503,31.4056997
1,شارع محمد فريد,11788,30.1616423,31.4055335
2,شارع محمد فريد,11788,30.1615059,31.4054192
1,شارع محمد فريد,11788,30.1612867,31.4052719
2,شارع محمد فريد,11788,30.1611459,31.4051587
1,شارع محمد فريد,11788,30.1609443,31.4049967
2,شارع محمد فريد,11788,30.1608035,31.4048836
1,شارع محمد فريد,11788,30.1605949,31.4047160
2,شارع محمد فريد,11788,30.1604546,31.4046032
1,شارع محمد فريد,11788,30.1602501,31.4044389
2,شارع محمد فريد,11788,30.1601051,31.4043224
1,شارع محمد فريد,11788,30.1598703,31.4041313
2,شارع محمد فريد,11788,30.1599642,31.4039636
1,شارع محمد فريد,11788,30.1716075,31.4133565
1,شارع محمد فريد,11788,30.1718667,31.4135431
1,شارع محمد فريد,11788,30.1721369,31.4137377
1,شارع محمد فريد,11788,30.1724123,31.4139359
1,شارع محمد فريد,11788,30.1726762,31.4141259
1,شارع العريش,11788,30.1717259,31.4131382
1,شارع عمر ابن الخطاب,11788,30.1718512,31.4129071
1,شارع عمر ابن الخطاب,11788,30.1721103,31.4130930
1,شارع عمر ابن الخطاب,11788,30.1723877,31.4132920
1,شارع عمر ابن الخطاب,11788,30.1726585,31.4134862
1,شارع عمر ابن الخطاب,11788,30.1729220,31.4136752
1,شارع صفيه زغلول,11788,30.1701979,31.4103842
1,شارع الغردقة,11788,30.1699909,31.4112639
1,شارع الغردقة,11788,30.1701544,31.4110722
2,شارع الغردقة,11788,30.1702611,31.4108804
1,شارع الغردقة,11788,30.1703423,31.4107825
2,شارع سعد زغلول,11788,30.1708401,31.4099987
2,شارع سعد زغلول,11788,30.1705950,31.4097391
1,شارع صفيه زغلول,11788,30.1700698,31.4099007
2,شارع صفيه زغلول,11788,30.1701904,31.4097626
2,شارع المطحن,11788,30.1692825,31.4099979
1,شارع المطحن,11788,30.1691784,31.4101320
2,شارع المطحن,11788,30.1690394,31.4103110
1,شارع المطحن,11788,30.1689307,31.4104511
2,شارع المطحن,11788,30.1687937,31.4106274
1,شارع المطحن,11788,30.1686787,31.4107755
2,شارع المطحن,11788,30.1685363,31.4109590
1,شارع المطحن,11788,30.1684442,31.4110775
1,شارع محمد فريد,11788,30.1688208,31.4113757
2,شارع محمد فريد,11788,30.1686761,31.4112747
1,شارع محمد فريد,11788,30.1691366,31.4115962
2,شارع محمد فريد,11788,30.1689974,31.4114990
1,شارع محمد فريد,11788,30.1694483,31.4118138
2,شارع محمد فريد,11788,30.1693091,31.4117166
2,شارع الغردقة,11788,30.1696617,31.4115952
1,شارع الغردقة,11788,30.1697660,31.4114624
2,شارع الغردقة,11788,30.1699133,31.4111781
2,شارع الغردقة,11788,30.1700722,31.4109867
1,شارع الغردقة,11788,30.1706043,31.4101844
2,شارع صفيه زغلول,11788,30.1704999,31.4100757
2,شارع صفيه زغلول,11788,30.1701191,31.4104781
1,شارع رأس محمد,11788,30.1698866,31.4101227
2,شارع رأس محمد,11788,30.1697669,31.4100003
1,شارع رأس محمد,11788,30.1695983,31.4098280
2,شارع رأس محمد,11788,30.1694982,31.4097257
1,شارع المطحن,11788,30.1697150,31.4095098
2,شارع المطحن,11788,30.1698356,31.4093716
1,شارع سعد زغلول,11788,30.1709243,31.4100878
1,شارع سعد زغلول,11788,30.1706748,31.4098236
1,شارع سعد زغلول,11788,30.1703921,31.4095621
2,شارع سعد زغلول,11788,30.1702778,31.4094433
1,شارع سعد زغلول,11788,30.1701222,31.4092815
2,شارع سعد زغلول,11788,30.1700037,31.4091584
2,شارع عمر ابن الخطاب,11788,30.1722949,31.4132254
2,شارع عمر ابن الخطاب,11788,30.1725612,31.4134165
2,شارع عمر ابن الخطاب,11788,30.1728262,31.4136065
2,شارع محمد فريد,11788,30.1725764,31.4140540
2,شارع محمد فريد,11788,30.1723137,31.4138649
2,شارع محمد فريد,11788,30.1720394,31.4136674
2,شارع محمد فريد,11788,30.1717661,31.4134707
2,شارع عمر ابن الخطاب,11788,30.1720128,31.4130230
2,شارع عمر ابن الخطاب,11788,30.1717498,31.4128344
2,شارع العريش,11788,30.1716242,31.4130661
2,شارع محمد فريد,11788,30.1715063,31.4132836
1,شارع الحسين ابن علي,11788,30.1723869,31.4082163
2,شارع الحسين ابن علي,11788,30.1722687,31.4080926
2,شارع الحسين ابن علي,11788,30.1719985,31.4078099
1,شارع الحسين ابن علي,11788,30.1721167,31.4079336
2,شارع صفيه زغلول,11788,30.1714199,31.4087579
1,شارع صفيه زغلول,11788,30.1713050,31.4089016
1,شارع صفيه زغلول,11788,30.1709411,31.4093564
2,شارع صفيه زغلول,11788,30.1710561,31.4092127
2,شارع السد العالي,11788,30.1714228,31.4090618
1,شارع السد العالي,11788,30.1715434,31.4091825
2,شارع السد العالي,11788,30.1713347,31.4094535
1,شارع السد العالي,11788,30.1712141,31.4093328
2,شارع صفيه زغلول,11788,30.1708463,31.4091063
2,شارع المطحن,11788,30.1707237,31.4080614
1,شارع المطحن,11788,30.1706182,31.4082089
2,شارع المطحن,11788,30.1705208,31.4083283
2,شارع المطحن,11788,30.1703126,31.4085834
1,شارع المطحن,11788,30.1702217,31.4086997
1,شارع سعد زغلول,11788,30.1706594,31.4092744
2,شارع سعد زغلول,11788,30.1705510,31.4091557
1,شارع سعد زغلول,11788,30.1711515,31.4098129
2,شارع سعد زغلول,11788,30.1710446,31.4096958
3,شارع سعد زغلول,11788,30.1709376,31.4095788
3,شارع مدرسه السيدة زينب,11788,30.1721736,31.4087191
2,شارع مدرسه السيدة زينب,11788,30.1722765,31.4085901
1,شارع مدرسه السيدة زينب,11788,30.1723794,31.4084610
2,شارع مدرسه السيدة زينب,11788,30.1717002,31.4093130
1,شارع مدرسه السيدة زينب,11788,30.1718150,31.4091691
1,شارع مدرسه السيدة زينب,11788,30.1714518,31.4096247
2,شارع مدرسه السيدة زينب,11788,30.1713370,31.4097686
1,شارع عمر ابن الخطاب,11788,30.1735434,31.4138344
2,شارع عمر ابن الخطاب,11788,30.1734367,31.4138353
2,شارع محمد فريد,11788,30.1734448,31.4141451
1,شارع محمد فريد,11788,30.1735515,31.4141442
2,شارع عمر ابن الخطاب,11788,30.1741509,31.4139032
1,شارع عمر ابن الخطاب,11788,30.1740865,31.4138261
2,شارع عمر ابن الخطاب,11788,30.1739765,31.4136946
1,شارع عمر ابن الخطاب,11788,30.1739132,31.4136189
1,شارع محمد فريد,11788,30.1738147,31.4141437
2,شارع محمد فريد,11788,30.1737080,31.4141446
2,شارع محمد فريد,11788,30.1739608,31.4141425
1,شارع محمد فريد,11788,30.1740675,31.4141415
1,شارع محمد فريد,11788,30.1743318,31.4141393
2,شارع محمد فريد,11788,30.1742251,31.4141402
2,شارع السد العالي,11788,30.1758397,31.4140785
1,شارع السد العالي,11788,30.1757594,31.4141839
1,شارع السد العالي,11788,30.1755764,31.4139787
2,شارع السد العالي,11788,30.1756499,31.4138827
1,شارع سعد زغلول,11788,30.1753642,31.4142526
2,شارع سعد زغلول,11788,30.1754365,31.4141561
2,شارع السد العالي,11788,30.1754484,31.4136749
1,شارع السد العالي,11788,30.1753714,31.4137783
2,شارع سعد زغلول,11788,30.1752381,31.4139445
1,شارع سعد زغلول,11788,30.1751616,31.4140463
1,شارع السد العالي,11788,30.1751836,31.4135819
2,شارع السد العالي,11788,30.1752575,31.4134780
1,شارع سعد زغلول,11788,30.1749696,31.4138508
2,شارع سعد زغلول,11788,30.1750485,31.4137423
2,شارع السد العالي,11788,30.1750697,31.4132843
1,شارع السد العالي,11788,30.1749993,31.4133892
2,شارع سعد زغلول,11788,30.1748661,31.4135477
1,شارع سعد زغلول,11788,30.1747808,31.4136585
1,شارع الفراعنة,11788,30.1748116,31.4131930
2,شارع الفراعنة,11788,30.1748854,31.4130943
1,شارع الفراعنة,11788,30.1745955,31.4134698
2,شارع الفراعنة,11788,30.1746847,31.4133542
2,شارع نجيب محفوظ,11788,30.1746958,31.4128987
1,شارع نجيب محفوظ,11788,30.1746259,31.4129988
2,شارع نجيب محفوظ,11788,30.1744979,31.4131550
1,شارع نجيب محفوظ,11788,30.1744048,31.4132756
1,شارع علي ابن ابي طالب,11788,30.1746095,31.4119781
2,شارع علي ابن ابي طالب,11788,30.1744949,31.4118623
1,شارع علي ابن ابي طالب,11788,30.1743389,31.4117046
2,شارع علي ابن ابي طالب,11788,30.1742327,31.4115972
2,شارع السد العالي,11788,30.1743108,31.4120892
1,شارع السد العالي,11788,30.1744419,31.4122255
2,شارع السد العالي,11788,30.1740535,31.4118218
1,شارع السد العالي,11788,30.1741805,31.4119538
1,شارع نجيب محفوظ,11788,30.1746113,31.4123184
2,شارع نجيب محفوظ,11788,30.1745276,31.4124232
1,شارع نجيب محفوظ,11788,30.1747787,31.4121088
2,شارع نجيب محفوظ,11788,30.1746950,31.4122136
2,شارع نجيب محفوظ,11788,30.1741318,31.4129189
1,شارع نجيب محفوظ,11788,30.1742155,31.4128141
2,شارع نجيب محفوظ,11788,30.1742992,31.4127093
1,شارع نجيب محفوظ,11788,30.1743829,31.4126045
1,شارع السد العالي,11788,30.1742292,31.4124777
2,شارع السد العالي,11788,30.1741005,31.4123381
2,شارع سعد زغلول,11788,30.1740153,31.4127431
1,شارع سعد زغلول,11788,30.1739107,31.4126269
2,شارع سعد زغلول,11788,30.1736483,31.4123355
1,شارع سعد زغلول,11788,30.1737665,31.4124668
1,شارع آل ياسر,11788,30.1738709,31.4117199
2,شارع آل ياسر,11788,30.1739548,31.4116153
1,شارع آل ياسر,11788,30.1740386,31.4115107
2,شارع آل ياسر,11788,30.1741225,31.4114061
2,شارع آل ياسر,11788,30.1735351,31.4121169
1,شارع آل ياسر,11788,30.1734512,31.4122215
2,شارع آل ياسر,11788,30.1737028,31.4119077
1,شارع آل ياسر,11788,30.1736189,31.4120123
2,شارع آل ياسر,11788,30.1735927,31.4114302
1,شارع آل ياسر,11788,30.1737167,31.4112827
1,شارع آل ياسر,11788,30.1731915,31.4119506
2,شارع آل ياسر,11788,30.1732754,31.4118460
1,شارع آل ياسر,11788,30.1733592,31.4117414
2,شارع آل ياسر,11788,30.1734431,31.4116368
1,شارع السد العالي,11788,30.1734309,31.4111888
2,شارع السد العالي,11788,30.1733393,31.4110950
1,شارع السد العالي,11788,30.1732477,31.4110011
2,شارع السد العالي,11788,30.1731562,31.4109072
2,شارع السد العالي,11788,30.1731601,31.4113325
1,شارع السد العالي,11788,30.1732890,31.4114717
1,شارع سعد زغلول,11788,30.1731098,31.4117695
2,شارع سعد زغلول,11788,30.1729808,31.4116304
1,شارع سعد زغلول,11788,30.1728195,31.4114563
2,شارع سعد زغلول,11788,30.1726947,31.4113216
1,شارع احمد رشدي,11788,30.1730507,31.4106095
2,شارع احمد رشدي,11788,30.1729266,31.4107570
2,شارع احمد رشدي,11788,30.1727631,31.4109112
1,شارع احمد رشدي,11788,30.1726793,31.4110158
2,شارع احمد رشدي,11788,30.1725954,31.4111204
1,شارع احمد رشدي,11788,30.1725115,31.4112250
1,شارع محمد الدره,11788,30.1854589,31.4064870
20,شارع محمد الدره,11788,30.1855343,31.4058915
3,شارع فاروق قمحاوى,11788,30.1856548,31.4057721
1,شارع فاروق قمحاوى,11788,30.1857360,31.4057735
25,شارع محمد خليفه,11788,30.1860826,31.4054221
23,شارع محمد خليفه,11788,30.1860913,31.4053275
21,شارع محمد خليفه,11788,30.1860994,31.4052399
19,شارع محمد خليفه,11788,30.1861065,31.4051624
17,شارع محمد خليفه,11788,30.1861139,31.4050820
11,شارع محمد خليفه,11788,30.1861290,31.4049176
9L,شارع محمد خليفه,11788,30.1861381,31.4048185
7,شارع محمد خليفه,11788,30.1861762,31.4044045
5,شارع محمد خليفه,11788,30.1861822,31.4043391
3,شارع محمد خليفه,11788,30.1861893,31.4042620
20,شارع محمد خليفه,11788,30.1862855,31.4050908
12,شارع محمد خليفه,11788,30.1863458,31.4046080
9R,شارع محمد خليفه,11788,30.1863852,31.4041400
5,شارع مسجد الايمان,11788,30.1865119,31.4043826
22,شارع مسجد الايمان,11788,30.1864959,31.4045495
20,شارع مسجد الايمان,11788,30.1864844,31.4046695
8,شارع مسجد الايمان,11788,30.1864314,31.4052238
6,شارع مسجد الايمان,11788,30.1864153,31.4053921
4,شارع مسجد الايمان,11788,30.1864026,31.4055254
10,شارع مسجد الايمان,11788,30.1866761,31.4046134
14,شارع التوحيد,11788,30.1867983,31.4047932
2,شارع التوحيد,11788,30.1867179,31.4056058
4,شارع التوحيد,11788,30.1867515,31.4054798
6L,شارع التوحيد,11788,30.1867590,31.4053703
10L,شارع التوحيد,11788,30.1867874,31.4049527
12L,شارع التوحيد,11788,30.1867934,31.4048646
16,شارع التوحيد,11788,30.1868036,31.4047155
18,شارع التوحيد,11788,30.1868083,31.4046461
20,شارع التوحيد,11788,30.1868145,31.4045559
22,شارع التوحيد,11788,30.1868234,31.4043707
23,شارع التوحيد,11788,30.1870378,31.4041883
21,شارع التوحيد,11788,30.1870276,31.4043122
19,شارع التوحيد,11788,30.1870173,31.4044362
17,شارع التوحيد,11788,30.1870071,31.4045602
15,شارع التوحيد,11788,30.1869968,31.4046842
5,شارع التوحيد,11788,30.1869445,31.4053169
7,شارع التوحيد,11788,30.1869529,31.4052152
9,شارع التوحيد,11788,30.1869631,31.4050915
3,شارع التوحيد,11788,30.1869329,31.4054562
1,شارع التوحيد,11788,30.1869242,31.4055616
7,شارع محجوب عبد الحفيظ,11788,30.1876487,31.4061584
1,شارع محجوب عبد الحفيظ,11788,30.1877380,31.4050466
8,شارع محجوب عبد الحفيظ,11788,30.1877693,31.4046697
9,شارع الشيخ عبد الستار,11788,30.1880858,31.4051297
15,شارع كمال حبشي,11788,30.1882047,31.4053807
13,شارع كمال حبشي,11788,30.1882107,31.4053051
11,شارع كمال حبشي,11788,30.1882173,31.4052227
9,شارع كمال حبشي,11788,30.1882243,31.4051362
7,شارع كمال حبشي,11788,30.1882491,31.4048264
5,شارع كمال حبشي,11788,30.1882562,31.4047381
13,شارع سعد ابن معاذ,11788,30.1885923,31.4049876
20,شارع كمال حبشي,11788,30.1883973,31.4052833
16,شارع كمال حبشي,11788,30.1884094,31.4051300
22,شارع كمال حبشي,11788,30.1883891,31.4053878
28,شارع كمال حبشي,11788,30.1883692,31.4056410
30,شارع كمال حبشي,11788,30.1883617,31.4057372
26,شارع كمال حبشي,11788,30.1883767,31.4055455
24,شارع كمال حبشي,11788,30.1883832,31.4054625
18,شارع كمال حبشي,11788,30.1884029,31.4052122
14,شارع كمال حبشي,11788,30.1884159,31.4050472
12,شارع كمال حبشي,11788,30.1884225,31.4049629
10,شارع كمال حبشي,11788,30.1884289,31.4048820
8,شارع كمال حبشي,11788,30.1884339,31.4048178
6,شارع كمال حبشي,11788,30.1884331,31.4047412
10,شارع سعد ابن معاذ,11788,30.1887430,31.4053336
10,شارع حسين شحاته,11788,30.1888346,31.4061329
21,شارع السيد شحاته,11788,30.1888925,31.4053871
25,شارع السيد شحاته,11788,30.1888748,31.4056038
23,شارع السيد شحاته,11788,30.1888831,31.4055020
19,شارع السيد شحاته,11788,30.1888984,31.4053140
17,شارع السيد شحاته,11788,30.1889044,31.4052409
15,شارع السيد شحاته,11788,30.1889104,31.4051678
13,شارع السيد شحاته,11788,30.1889163,31.4050947
11,شارع السيد شحاته,11788,30.1889223,31.4050217
9,شارع السيد شحاته,11788,30.1889354,31.4048608
7,شارع السيد شحاته,11788,30.1889440,31.4047552
5,شارع السيد شحاته,11788,30.1889589,31.4045730
3,شارع السيد شحاته,11788,30.1889681,31.4044599
1,شارع السيد شحاته,11788,30.1889784,31.4043345
9,شارع حسين شحاته,11788,30.1890444,31.4059706
27,شارع الجامع,11788,30.1891638,31.4062496
21,شارع الجامع,11788,30.1892165,31.4057184
19,شارع الجامع,11788,30.1892255,31.4056113
17,شارع الجامع,11788,30.1892324,31.4055286
15,شارع الجامع,11788,30.1892388,31.4054524
13,شارع الجامع,11788,30.1892459,31.4053666
11,شارع الجامع,11788,30.1892532,31.4052795
9,شارع الجامع,11788,30.1892604,31.4051938
7,شارع الجامع,11788,30.1892693,31.4050868
10,شارع الجامع,11788,30.1894528,31.4049747
8,شارع الجامع,11788,30.1894612,31.4048883
6,شارع الجامع,11788,30.1894715,31.4047821
4,شارع الجامع,11788,30.1894820,31.4046734
2,شارع الجامع,11788,30.1894907,31.4045839
12,شارع الجامع,11788,30.1894392,31.4051148
14,شارع الجامع,11788,30.1894233,31.4052780
16,شارع الجامع,11788,30.1894084,31.4054313
18,شارع الجامع,11788,30.1893962,31.4055569
20,شارع الجامع,11788,30.1893876,31.4056461
2,شارع صقر قريش,11788,30.1693092,31.4073660
1,شارع صقر قريش,11788,30.1692367,31.4072902
1,شارع العبد الجديد,11788,30.1695793,31.4076403
2,شارع العبد الجديد,11788,30.1696478,31.4075558
2,شارع مساكن العبد الجديد,11788,30.1691132,31.4079085
1,شارع مساكن العبد الجديد,11788,30.1690332,31.4078186
1,شارع العبد الجديد,11788,30.1692489,31.4080533
2,شارع العبد الجديد,11788,30.1693219,31.4079581
1,شارع العبد الجديد,11788,30.1693811,31.4082800
2,شارع العبد الجديد,11788,30.1694391,31.4081982
1,شارع مساكن العبد الجديد,11788,30.1696118,31.4085495
2,شارع مساكن العبد الجديد,11788,30.1697451,31.4087024
1,شارع المطحن,11788,30.1698425,31.4085107
2,شارع المطحن,11788,30.1699075,31.4085898
1,شارع المطحن,11788,30.1699643,31.4083618
2,شارع المطحن,11788,30.1700280,31.4084369
1,شارع المطحن,11788,30.1701811,31.4082679
2,شارع المطحن,11788,30.1703167,31.4080963
2,شارع لبنان,11788,30.1703921,31.4077798
1,شارع لبنان,11788,30.1702449,31.4076215
2,شارع لبنان,11788,30.1700188,31.4076711
1,شارع لبنان,11788,30.1699469,31.4075920
2,شارع لبنان,11788,30.1697266,31.4073680
1,شارع لبنان,11788,30.1695747,31.4072098
2,شارع صقر قريش,11788,30.1694228,31.4070462
1,شارع صقر قريش,11788,30.1693515,31.4071341
2,شارع صقر قريش,11788,30.1690738,31.4074766
1,شارع صقر قريش,11788,30.1689312,31.4076523
1,شارع صقر قريش,11788,30.1683469,31.4074834
2,شارع صقر قريش,11788,30.1684257,31.4073841
2,شارع التضامن,11788,30.1688118,31.4069644
1,شارع التضامن,11788,30.1686715,31.4068088
2,شارع صقر قريش,11788,30.1687898,31.4072259
1,شارع صقر قريش,11788,30.1687051,31.4071307
2,شارع صقر قريش,11788,30.1686553,31.4073533
1,شارع صقر قريش,11788,30.1685845,31.4072768
1,شارع صقر قريش,11788,30.1684721,31.4076054
2,شارع صقر قريش,11788,30.1685440,31.4075142
1,شارع التضامن,11788,30.1683608,31.4069054
2,شارع التضامن,11788,30.1684350,31.4068021
1,شارع التضامن,11788,30.1679689,31.4065003
2,شارع التضامن,11788,30.1680558,31.4063917
2,شارع احمد بن حنبل,11788,30.1681196,31.4073774
1,شارع احمد بن حنبل,11788,30.1679271,31.4071671
2,شارع احمد بن حنبل,11788,30.1677713,31.4069970
1,شارع احمد بن حنبل,11788,30.1675770,31.4067847
1,شارع احمد بن حنبل,11788,30.1674738,31.4065352
2,شارع احمد بن حنبل,11788,30.1675480,31.4064413
1,شارع عبد الجواد,11788,30.1673520,31.4064038
2,شارع عبد الجواد,11788,30.1674204,31.4063166
2,شارع عبد الجواد,11788,30.1676176,31.4062603
1,شارع عبد الجواد,11788,30.1675364,31.4061677
2,شارع عبد الجواد,11788,30.1677509,31.4061047
1,شارع عبد الجواد,11788,30.1676639,31.4060122
2,شارع التضامن,11788,30.1680234,31.4061302
1,شارع التضامن,11788,30.1678819,31.4059733
2,شارع التضامن,11788,30.1682622,31.4060189
1,شارع التضامن,11788,30.1680825,31.4058325
1,شارع عبد الجواد,11788,30.1682605,31.4052739
2,شارع عبد الجواد,11788,30.1683295,31.4051887
1,شارع عبد الجواد,11788,30.1679538,31.4056528
2,شارع عبد الجواد,11788,30.1681175,31.4054505
2,شارع الضغط العالي,11788,30.1687886,31.4054771
1,شارع الضغط العالي,11788,30.1686796,31.4054449
2,شارع الضغط العالي,11788,30.1690112,31.4053483
1,شارع الضغط العالي,11788,30.1689034,31.4053202
2,شارع الضغط العالي,11788,30.1696454,31.4055173
1,شارع الضغط العالي,11788,30.1695480,31.4054878
2,شارع الضغط العالي,11788,30.1698031,31.4057426
1,شارع الضغط العالي,11788,30.1697034,31.4057145
2,شارع سوريا,11788,30.1695388,31.4063367
1,شارع سوريا,11788,30.1693335,31.4062871
2,شارع صقر قريش,11788,30.1698379,31.4060216
1,شارع صقر قريش,11788,30.1697938,31.4062428
2,شارع الضغط العالي,11788,30.1703614,31.4056996
1,شارع الضغط العالي,11788,30.1702599,31.4056729
1,شارع صقر قريش,11788,30.1700489,31.4061289
2,شارع صقر قريش,11788,30.1700907,31.4059156
1,شارع سوريا,11788,30.1700292,31.4064668
2,شارع الضغط العالي,11788,30.1709428,31.4058526
1,شارع الضغط العالي,11788,30.1707590,31.4058042
2,شارع سوريا,11788,30.1702228,31.4065245
17,شارع ابو بكر الصديق,11788,30.1873577,31.4081620
19L,شارع ابو بكر الصديق,11788,30.1880116,31.4082116
21L,شارع ابو بكر الصديق,11788,30.1879027,31.4081999
17L,شارع ابو بكر الصديق,11788,30.1881229,31.4082230
9,شارع ابو بكر الصديق,11788,30.1884983,31.4082562
7,شارع ابو بكر الصديق,11788,30.1886168,31.4082539
5,شارع ابو بكر الصديق,11788,30.1887280,31.4082599
5,شارع الشيخ كامل,11788,30.1882967,31.4091737
7,شارع الشيخ كامل,11788,30.1883593,31.4091758
3,شارع الشيخ كامل,11788,30.1882272,31.4091713
1,شارع الشيخ كامل,11788,30.1881275,31.4091678
3,شارع عبيد محمد عبد المجيد,11788,30.1881368,31.4090337
8,شارع عبيد محمد عبد المجيد,11788,30.1885344,31.4090659
15,شارع عبيد محمد عبد المجيد,11788,30.1883756,31.4088754
11,شارع عبيد محمد عبد المجيد,11788,30.1883211,31.4088728
20R,شارع سعيد الشعشاعي,11788,30.1881902,31.4087379
22R,شارع سعيد الشعشاعي,11788,30.1881287,31.4087333
16R,شارع سعيد الشعشاعي,11788,30.1883666,31.4087510
14R,شارع سعيد الشعشاعي,11788,30.1884441,31.4087568
12R,شارع سعيد الشعشاعي,11788,30.1886560,31.4087726
8R,شارع سعيد الشعشاعي,11788,30.1888591,31.4087878
4R,شارع سعيد الشعشاعي,11788,30.1890456,31.4088017
6R,شارع سعيد الشعشاعي,11788,30.1889368,31.4087936
10R,شارع سعيد الشعشاعي,11788,30.1887546,31.4087800
18R,شارع سعيد الشعشاعي,11788,30.1882723,31.4087440
21,شارع عبيد محمد عبد المجيد,11788,30.1879213,31.4088417
19,شارع عبيد محمد عبد المجيد,11788,30.1879965,31.4088459
23,شارع عبيد محمد عبد المجيد,11788,30.1878401,31.4088372
25,شارع عبيد محمد عبد المجيد,11788,30.1877646,31.4088330
27,شارع عبيد محمد عبد المجيد,11788,30.1876905,31.4088289
29,شارع عبيد محمد عبد المجيد,11788,30.1876137,31.4088246
31,شارع عبيد محمد عبد المجيد,11788,30.1875154,31.4088191
27`,شارع عبيد محمد عبد المجيد,11788,30.1871990,31.4087963
5R,شارع سعيد الشعشاعي,11788,30.1873369,31.4086716
24,شارع ابو بكر الصديق,11788,30.1879395,31.4084056
22,شارع ابو بكر الصديق,11788,30.1880023,31.4084098
26,شارع ابو بكر الصديق,11788,30.1878596,31.4084002
4,شارع ابو بكر الصديق,11788,30.1889250,31.4084744
6,شارع ابو بكر الصديق,11788,30.1888170,31.4084667
8,شارع ابو بكر الصديق,11788,30.1887141,31.4084593
10,شارع ابو بكر الصديق,11788,30.1885946,31.4084507
12,شارع ابو بكر الصديق,11788,30.1884994,31.4084438
14R,شارع ابو بكر الصديق,11788,30.1884217,31.4084382
16R,شارع ابو بكر الصديق,11788,30.1883476,31.4084329
18R,شارع ابو بكر الصديق,11788,30.1882629,31.4084268
20,شارع ابو بكر الصديق,11788,30.1881679,31.4084200
19,شارع سعيد الشعشاعي,11788,30.1883176,31.4085607
3,شارع سعيد الشعشاعي,11788,30.1890039,31.4086126
5L,شارع سعيد الشعشاعي,11788,30.1889086,31.4086054
7,شارع سعيد الشعشاعي,11788,30.1888265,31.4085992
9,شارع سعيد الشعشاعي,11788,30.1887673,31.4085947
11,شارع سعيد الشعشاعي,11788,30.1886756,31.4085878
13,شارع سعيد الشعشاعي,11788,30.1885829,31.4085808
15,شارع سعيد الشعشاعي,11788,30.1884752,31.4085726
17,شارع سعيد الشعشاعي,11788,30.1883743,31.4085650
21,شارع سعيد الشعشاعي,11788,30.1882585,31.4085563
28,شارع ابو بكر الصديق,11788,30.1877911,31.4083956
30,شارع ابو بكر الصديق,11788,30.1877287,31.4083913
18L,شارع سعيد الشعشاعي,11788,30.1878194,31.4085223
16L,شارع سعيد الشعشاعي,11788,30.1877678,31.4085187
20L,شارع سعيد الشعشاعي,11788,30.1878721,31.4085259
22L,شارع سعيد الشعشاعي,11788,30.1879617,31.4085321
14L,شارع سعيد الشعشاعي,11788,30.1876908,31.4085134
12L,شارع سعيد الشعشاعي,11788,30.1876000,31.4085071
10L,شارع سعيد الشعشاعي,11788,30.1875126,31.4085011
8L,شارع سعيد الشعشاعي,11788,30.1874090,31.4084939
6L,شارع سعيد الشعشاعي,11788,30.1873365,31.4084889
4L,شارع سعيد الشعشاعي,11788,30.1872655,31.4084840
2,شارع سعيد الشعشاعي,11788,30.1872047,31.4084798
19,شارع مدرسه ابيدوس,11788,30.1869748,31.4086425
10,شارع مدرسه ابيدوس,11788,30.1869601,31.4091088
22,شارع مدرسه ابيدوس,11788,30.1869810,31.4084463
10`,شارع ابو بكر الصديق,11788,30.1858565,31.4082612
25,شارع ابو بكر الصديق,11788,30.1867318,31.4083092
21R,شارع ابو بكر الصديق,11788,30.1865330,31.4082983
19R,شارع ابو بكر الصديق,11788,30.1864029,31.4082912
17R,شارع ابو بكر الصديق,11788,30.1863146,31.4082863
15R,شارع ابو بكر الصديق,11788,30.1862298,31.4082817
23,شارع ابو بكر الصديق,11788,30.1866240,31.4083033
27,شارع ابو بكر الصديق,11788,30.1868248,31.4083143
29,شارع ابو بكر الصديق,11788,30.1869578,31.4083216
13R,شارع ابو بكر الصديق,11788,30.1861441,31.4082770
11,شارع ابو بكر الصديق,11788,30.1860490,31.4082718
32,شارع اللواء الاسلامي,11788,30.1845930,31.4087453
5,شارع الجهد 66,11788,30.1848712,31.4089613
6,شارع الجهد 66,11788,30.1849361,31.4089733
13`,شارع اللواء الاسلامي,11788,30.1834534,31.4083470
11`,شارع اللواء الاسلامي,11788,30.1835415,31.4083725
28,شارع اللواء الاسلامي,11788,30.1829120,31.4081659
29,شارع الجهد 66,11788,30.1827856,31.4082585
6,شارع اللواء الاسلامي,11788,30.1823706,31.4080560
4,شارع اللواء الاسلامي,11788,30.1823208,31.4079568
13,شارع اللواء الاسلامي,11788,30.1815722,31.4076661
19,شارع اللواء الاسلامي,11788,30.1819452,31.4078170
17,شارع اللواء الاسلامي,11788,30.1818464,31.4077737
15,شارع اللواء الاسلامي,11788,30.1817047,31.4077181
11,شارع اللواء الاسلامي,11788,30.1814177,31.4076054
18,شارع اللواء الاسلامي,11788,30.1819904,31.4075357
16,شارع اللواء الاسلامي,11788,30.1818819,31.4074964
14,شارع اللواء الاسلامي,11788,30.1818045,31.4074683
12,شارع اللواء الاسلامي,11788,30.1816832,31.4074244
11,شارع المدينه المنوره,11788,30.1821828,31.4073600
9R,شارع المدينه المنوره,11788,30.1821243,31.4073394
7R,شارع المدينه المنوره,11788,30.1820113,31.4072997
5R,شارع المدينه المنوره,11788,30.1818994,31.4072603
3R,شارع المدينه المنوره,11788,30.1818130,31.4072299
8L,شارع المدينه المنوره,11788,30.1818976,31.4069402
6L,شارع المدينه المنوره,11788,30.1817806,31.4068946
4,شارع المدينه المنوره,11788,30.1816878,31.4068584
4L,شارع عمرو ابن العاص,11788,30.1818582,31.4064105
11,شارع عمرو ابن العاص,11788,30.1828506,31.4067136
6L,شارع عمرو ابن العاص,11788,30.1819197,31.4063984
5R,شارع الفاروق عمر,11788,30.1819510,31.4061154
15,شارع سراج الدين,11788,30.1830581,31.4060564
23,شارع الفاروق عمر,11788,30.1829966,31.4062241
4,شارع بلال ابن رباح,11788,30.1813076,31.4070301
13,شارع فتحي ابو العلا,11788,30.1812705,31.4064708
6R,شارع فتحي ابو العلا,11788,30.1810699,31.4071977
6L,شارع فتحي ابو العلا,11788,30.1808775,31.4068742
4,شارع فتحي ابو العلا,11788,30.1808405,31.4069994
2,شارع فتحي ابو العلا,11788,30.1808044,31.4071213
30,شارع فتحي ابو العلا,11788,30.1812113,31.4057466
28,شارع فتحي ابو العلا,11788,30.1811862,31.4058316
26,شارع فتحي ابو العلا,11788,30.1811609,31.4059171
24,شارع فتحي ابو العلا,11788,30.1811360,31.4060010
22,شارع فتحي ابو العلا,11788,30.1811070,31.4060990
20,شارع فتحي ابو العلا,11788,30.1810771,31.4062001
18,شارع فتحي ابو العلا,11788,30.1810480,31.4062984
16,شارع فتحي ابو العلا,11788,30.1810164,31.4064052
14,شارع فتحي ابو العلا,11788,30.1809909,31.4064913
12,شارع فتحي ابو العلا,11788,30.1809692,31.4065647
10,شارع فتحي ابو العلا,11788,30.1809476,31.4066374
8,شارع فتحي ابو العلا,11788,30.1809185,31.4067358
27,شارع صلاح الدين,11788,30.1809737,31.4058933
25,شارع صلاح الدين,11788,30.1809461,31.4059905
23,شارع صلاح الدين,11788,30.1809161,31.4060907
21,شارع صلاح الدين,11788,30.1808875,31.4061865
19,شارع صلاح الدين,11788,30.1808668,31.4062554
17,شارع صلاح الدين,11788,30.1808437,31.4063327
15,شارع صلاح الدين,11788,30.1808200,31.4064121
13,شارع صلاح الدين,11788,30.1808000,31.4064786
11,شارع صلاح الدين,11788,30.1807726,31.4065704
9,شارع صلاح الدين,11788,30.1807448,31.4066634
7,شارع صلاح الدين,11788,30.1807124,31.4067716
5,شارع صلاح الدين,11788,30.1806824,31.4068718
3,شارع صلاح الدين,11788,30.1806386,31.4070180
15,شارع فتحي ابو العلا,11788,30.1818744,31.4045691
13`,شارع فتحي ابو العلا,11788,30.1819030,31.4044750
9,شارع فتحي ابو العلا,11788,30.1819600,31.4042867
7,شارع فتحي ابو العلا,11788,30.1819885,31.4041926
5,شارع فتحي ابو العلا,11788,30.1820170,31.4040984
54,شارع صلاح الدين,11788,30.1812674,31.4040771
44,شارع صلاح الدين,11788,30.1811360,31.4045137
40,شارع صلاح الدين,11788,30.1810834,31.4046884
38,شارع صلاح الدين,11788,30.1810571,31.4047757
42,شارع صلاح الدين,11788,30.1811097,31.4046010
46,شارع صلاح الدين,11788,30.1811623,31.4044264
48,شارع صلاح الدين,11788,30.1811885,31.4043391
50,شارع صلاح الدين,11788,30.1812148,31.4042518
52,شارع صلاح الدين,11788,30.1812411,31.4041644
56,شارع صلاح الدين,11788,30.1812936,31.4039898
73,شارع صلاح الدين,11788,30.1815151,31.4041252
37,شارع صلاح الدين,11788,30.1813450,31.4047048
35,شارع صلاح الدين,11788,30.1813090,31.4048277
33,شارع صلاح الدين,11788,30.1812542,31.4050144
18`,شارع فتحي ابو العلا,11788,30.1814780,31.4051136
11,شارع فتحي ابو العلا,11788,30.1819292,31.4043885
5,شارع بلال ابن رباح,11788,30.1822732,31.4047998
2L,شارع السيدة خديجة,11788,30.1823161,31.4054449
4,شارع السيدة خديجة,11788,30.1823456,31.4053471
6,شارع السيدة خديجة,11788,30.1823676,31.4052740
13,شارع السيدة خديجة,11788,30.1824589,31.4049713
7,شارع السيدة خديجة,11788,30.1825898,31.4045374
1,شارع السيدة خديجة,11788,30.1827776,31.4039147
18`,شارع التروللي,11788,30.1826581,31.4038852
2,شارع بلال ابن رباح,11788,30.1825538,31.4038678
21,شارع محمد عبد المقصود,11788,30.1829109,31.4051498
23,شارع محمد عبد المقصود,11788,30.1828494,31.4052343
5,شارع السيدة خديجة,11788,30.1828486,31.4043659
18,شارع السيدة خديجة,11788,30.1826711,31.4049317
20,شارع السيدة خديجة,11788,30.1826520,31.4049928
2R,شارع السيدة خديجة,11788,30.1825063,31.4054570
17,شارع السيدة خديجة,11788,30.1827256,31.4047581
18`,شارع السيدة خديجة,11788,30.1830024,31.4038758
3,شارع محمد عبد المقصود,11788,30.1832586,31.4040662
1,شارع محمد عبد المقصود,11788,30.1833375,31.4039429
46,شارع سراج الدين,11788,30.1837026,31.4040394
28,شارع التروللي,11788,30.1836679,31.4039496
26,شارع التروللي,11788,30.1837641,31.4039563
40,شارع سراج الدين,11788,30.1836157,31.4043505
8,شارع محمد عبد المقصود,11788,30.1833885,31.4044176
10,شارع محمد عبد المقصود,11788,30.1833471,31.4045403
12,شارع محمد عبد المقصود,11788,30.1833218,31.4046153
14,شارع محمد عبد المقصود,11788,30.1832981,31.4046858
7,شارع سراج الدين,11788,30.1834661,31.4048240
8R,شارع سراج الدين,11788,30.1833386,31.4051941
10,حارة انور,11788,30.1850787,31.4082196
8,حارة انور,11788,30.1849961,31.4082123
6,حارة انور,11788,30.1849115,31.4082048
4,حارة انور,11788,30.1848361,31.4081981
2,حارة انور,11788,30.1847460,31.4081901
9,حارة انور,11788,30.1850323,31.4083242
7,حارة انور,11788,30.1849118,31.4083155
5,حارة انور,11788,30.1848235,31.4083091
3,حارة انور,11788,30.1847355,31.4083028
11,شارع عبد الرحمن محمد,11788,30.1839084,31.4056856
17,شارع عمرو ابن العاص,11788,30.1838128,31.4070864
17,شارع الفاروق عمر,11788,30.1837504,31.4064943
19,شارع الفاروق عمر,11788,30.1834522,31.4063823
3,شارع الفاروق عمر,11788,30.1846196,31.4068209
8L,شارع سراج الدين,11788,30.1830221,31.4068450
22,شارع الفاروق عمر,11788,30.1836910,31.4067833
14R,شارع عمرو ابن العاص,11788,30.1840319,31.4074096
12,شارع عمرو ابن العاص,11788,30.1841385,31.4074418
10,شارع اللواء الاسلامي,11788,30.1836725,31.4081351
10`,شارع المدينه المنوره,11788,30.1829584,31.4076456
13,شارع المدينه المنوره,11788,30.1838188,31.4079509
12,شارع المدينه المنوره,11788,30.1840912,31.4080476
10,شارع المدينه المنوره,11788,30.1841658,31.4080741
8R,شارع المدينه المنوره,11788,30.1842397,31.4081003
6R,شارع المدينه المنوره,11788,30.1843379,31.4081351
7,شارع عمرو ابن العاص,11788,30.1834986,31.4072259
24,شارع المدينه المنوره,11788,30.1831543,31.4073841
22,شارع المدينه المنوره,11788,30.1832646,31.4074229
20,شارع المدينه المنوره,11788,30.1833809,31.4074638
18,شارع المدينه المنوره,11788,30.1835166,31.4075115
16,شارع المدينه المنوره,11788,30.1836419,31.4075556
14,شارع المدينه المنوره,11788,30.1837169,31.4075819
3L,شارع المدينه المنوره,11788,30.1843518,31.4078052
5L,شارع المدينه المنوره,11788,30.1842397,31.4077658
7L,شارع المدينه المنوره,11788,30.1841537,31.4077356
9L,شارع المدينه المنوره,11788,30.1840726,31.4077070
10,شارع عمرو ابن العاص,11788,30.1841907,31.4075169
8,شارع عمرو ابن العاص,11788,30.1842830,31.4075483
6R,شارع عمرو ابن العاص,11788,30.1843871,31.4075837
4R,شارع عمرو ابن العاص,11788,30.1844666,31.4076108
10,شارع سراج الدين,11788,30.1830505,31.4067833
16,شارع عمرو ابن العاص,11788,30.1837335,31.4070569
14L,شارع عمرو ابن العاص,11788,30.1836505,31.4070260
7R,شارع الفاروق عمر,11788,30.1835624,31.4067364
20,شارع الفاروق عمر,11788,30.1838081,31.4068329
18,شارع الفاروق عمر,11788,30.1838823,31.4068571
8R,شارع احمد بن حنبل,11788,30.1840029,31.4063179
3,شارع احمد بن حنبل,11788,30.1840539,31.4059558
12,شارع عبد الرحمن محمد,11788,30.1844237,31.4055696
4,شارع عبد الرحمن محمد,11788,30.1838186,31.4053617
7,شارع العجواني,11788,30.1839496,31.4051150
5,شارع العجواني,11788,30.1838700,31.4050763
3,شارع العجواني,11788,30.1837915,31.4050382
1,شارع العجواني,11788,30.1836957,31.4049916
16,شارع العجواني,11788,30.1846219,31.4050010
14,شارع العجواني,11788,30.1844991,31.4049675
9,شارع العجواني,11788,30.1837664,31.4047891
6,شارع العجواني,11788,30.1840493,31.4048293
5,شارع رياض الصالحين,11788,30.1839565,31.4042553
10,شارع رياض الصالحين,11788,30.1845037,31.4044002
16,شارع التروللي,11788,30.1843629,31.4040091
18,شارع التروللي,11788,30.1841594,31.4039764
22,شارع التروللي,11788,30.1840319,31.4039871
20,شارع التروللي,11788,30.1841086,31.4039676
14,شارع التروللي,11788,30.1844602,31.4040182
12,شارع التروللي,11788,30.1845475,31.4040263
10,شارع التروللي,11788,30.1846584,31.4040365
8,شارع التروللي,11788,30.1847643,31.4040464
6,شارع التروللي,11788,30.1848767,31.4040568
4,شارع التروللي,11788,30.1849929,31.4040676
1,شارع محمود جمعه,11788,30.1845582,31.4079474
2,شارع محمود جمعه,11788,30.1846173,31.4076054
8,شارع محمود جمعه,11788,30.1846486,31.4074297
10,شارع محمود جمعه,11788,30.1846621,31.4073083
12,شارع محمود جمعه,11788,30.1846820,31.4071289
7L,شارع الفاروق عمر,11788,30.1843647,31.4067251
5L,شارع الفاروق عمر,11788,30.1845102,31.4067797
14,شارع محمود جمعه,11788,30.1847075,31.4068994
18,شارع محمود جمعه,11788,30.1847274,31.4067203
16,شارع محمود جمعه,11788,30.1847186,31.4067994
5,شارع محمود جمعه,11788,30.1849639,31.4043251
3,شارع محمود جمعه,11788,30.1849790,31.4041896
25,شارع محمود جمعه,11788,30.1848839,31.4072286
7,شارع محمود جمعه,11788,30.1849987,31.4060819
35,شارع محمود جمعه,11788,30.1850810,31.4054650
7,شارع محمد الدره,11788,30.1854149,31.4044069
5,شارع محمد الدره,11788,30.1854288,31.4042961
6,شارع محمود جمعه,11788,30.1852398,31.4042486
4,شارع محمود جمعه,11788,30.1851332,31.4042352
4`,شارع محمود جمعه,11788,30.1851482,31.4040998
3,شارع محمد الدره,11788,30.1854485,31.4041387
54,شارع امام الدعاه,11788,30.1723596,31.4031398
52,شارع امام الدعاه,11788,30.1723365,31.4032508
50,شارع امام الدعاه,11788,30.1722982,31.4033541
48,شارع امام الدعاه,11788,30.1722785,31.4034292
42,شارع امام الدعاه,11788,30.1722092,31.4037511
40,شارع امام الدعاه,11788,30.1721899,31.4038573
28,شارع امام الدعاه,11788,30.1720976,31.4044781
1,شارع انس ابن مالك,11788,30.1787188,31.4063475
6,شارع انس ابن مالك,11788,30.1786492,31.4063220
19,شارع انس ابن مالك,11788,30.1783455,31.4061758
20,شارع انس ابن مالك,11788,30.1782632,31.4061476
4,شارع زغلول نصر,11788,30.1792892,31.4063810
1L,شارع العشرين,11788,30.1795060,31.4065942
3L,شارع العشرين,11788,30.1795153,31.4065285
5L,شارع العشرين,11788,30.1795234,31.4064132
12,شارع انس ابن مالك,11788,30.1795825,31.4066680
3,شارع انس ابن مالك,11788,30.1798433,31.4067686
10,شارع زغلول نصر,11788,30.1799975,31.4066063
8,شارع زغلول نصر,11788,30.1799157,31.4065781
6,شارع زغلول نصر,11788,30.1798232,31.4065462
4`,شارع زغلول نصر,11788,30.1797362,31.4065162
2,شارع زغلول نصر,11788,30.1796242,31.4064775
3,شارع احمد سعيد,11788,30.1801274,31.4068396
5,شارع احمد سعيد,11788,30.1801448,31.4067484
2`,شارع زغلول نصر,11788,30.1802282,31.4066438
7,شارع السيد احمد البدوي,11788,30.1805289,31.4053812
5,شارع السيد احمد البدوي,11788,30.1805996,31.4054038
3,شارع السيد احمد البدوي,11788,30.1806833,31.4054305
1,شارع السيد احمد البدوي,11788,30.1807662,31.4054570
12,شارع ملاك,11788,30.1790260,31.4054261
10,شارع ملاك,11788,30.1789356,31.4053956
8,شارع ملاك,11788,30.1788452,31.4053651
6,شارع ملاك,11788,30.1787547,31.4053346
4,شارع ملاك,11788,30.1786643,31.4053041
2,شارع ملاك,11788,30.1784869,31.4052933
22,شارع السيد احمد البدوي,11788,30.1799036,31.4054932
20,شارع السيد احمد البدوي,11788,30.1799830,31.4055173
18,شارع السيد احمد البدوي,11788,30.1800624,31.4055414
16,شارع السيد احمد البدوي,11788,30.1801467,31.4055670
11L,شارع العشرين,11788,30.1797309,31.4056353
15R,شارع السيد احمد البدوي,11788,30.1804160,31.4056487
14,شارع اولاد يوسف,11788,30.1805818,31.4059545
26,شارع صلاح الدين,11788,30.1807302,31.4058405
13,شارع ملاك,11788,30.1786898,31.4056166
11,شارع ملاك,11788,30.1786092,31.4055927
9,شارع ملاك,11788,30.1785356,31.4055710
13,شارع زغلول نصر,11788,30.1797319,31.4062231
19,شارع زغلول نصر,11788,30.1788253,31.4059206
21,شارع زغلول نصر,11788,30.1784793,31.4058082
3,شارع الجوهر,11788,30.1783702,31.4057728
15,شارع زغلول نصر,11788,30.1792920,31.4060722
9R,شارع زغلول نصر,11788,30.1799289,31.4062791
7,شارع زغلول نصر,11788,30.1800430,31.4063162
5,شارع زغلول نصر,11788,30.1801961,31.4063660
15,شارع ملاك,11788,30.1789344,31.4056461
7,شارع ملاك,11788,30.1784174,31.4055200
17,شارع زغلول نصر,11788,30.1791620,31.4060300
4,شارع اولاد يوسف,11788,30.1804786,31.4062120
1,شارع اولاد يوسف,11788,30.1806247,31.4062375
3,شارع زغلول نصر,11788,30.1803720,31.4064231
1,شارع زغلول نصر,11788,30.1805355,31.4064762
11,شارع زغلول نصر,11788,30.1798241,31.4062451
9,شارع حسن درويش الموان,11788,30.1779675,31.4054905
25,شارع حسن درويش الموان,11788,30.1780965,31.4048208
27,شارع حسن درويش الموان,11788,30.1781148,31.4047261
42,شارع احمد بن حنبل,11788,30.1783165,31.4044337
1,شارع مدارس الحلم المصري,11788,30.1774145,31.4057533
7,شارع حسن درويش الموان,11788,30.1776696,31.4056689
10,شارع حسن درويش الموان,11788,30.1777195,31.4053875
22,شارع حسن درويش الموان,11788,30.1778131,31.4048596
26,شارع حسن درويش الموان,11788,30.1778444,31.4046828
28,شارع حسن درويش الموان,11788,30.1778748,31.4045115
48,شارع احمد بن حنبل,11788,30.1778447,31.4042768
52,شارع احمد بن حنبل,11788,30.1776777,31.4042231
1,شارع محمد ولي الدين,11788,30.1768070,31.4054234
1`,شارع محمد ولي الدين,11788,30.1768407,31.4051646
1,شارع سيد عباس,11788,30.1769067,31.4046215
3,شارع سيد عباس,11788,30.1769919,31.4046434
5,شارع سيد عباس,11788,30.1770363,31.4046549
7,شارع سيد عباس,11788,30.1771027,31.4046721
9,شارع سيد عباس,11788,30.1771664,31.4046885
3,شارع عثمان ابن عفان,11788,30.1723283,31.4060082
1,شارع عثمان ابن عفان,11788,30.1723017,31.4061329
29R,شارع خالد نصار,11788,30.1684616,31.4030309
25,شارع خالد نصار,11788,30.1684203,31.4033544
17,شارع خالد نصار,11788,30.1683771,31.4036921
27,شارع خالد نصار,11788,30.1684396,31.4032030
21,شارع خالد نصار,11788,30.1684013,31.4035030
19,شارع خالد نصار,11788,30.1683871,31.4036138
15,شارع خالد نصار,11788,30.1683619,31.4038114
13,شارع خالد نصار,11788,30.1683475,31.4039243
11,شارع خالد نصار,11788,30.1683378,31.4039998
9,شارع خالد نصار,11788,30.1683227,31.4041180
7,شارع خالد نصار,11788,30.1683076,31.4042360
5,شارع خالد نصار,11788,30.1682985,31.4043073
3,شارع خالد نصار,11788,30.1682862,31.4044034
1,شارع خالد نصار,11788,30.1682692,31.4045370
72,شارع محمد عويضه,11788,30.1684547,31.4044176
70,شارع محمد عويضه,11788,30.1684678,31.4042928
54,شارع محمد عويضه,11788,30.1685799,31.4032254
56,شارع محمد عويضه,11788,30.1685685,31.4033342
58,شارع محمد عويضه,11788,30.1685613,31.4034026
60,شارع محمد عويضه,11788,30.1685358,31.4036448
62,شارع محمد عويضه,11788,30.1685284,31.4037160
64,شارع محمد عويضه,11788,30.1685173,31.4038219
66,شارع محمد عويضه,11788,30.1685009,31.4039777
68,شارع محمد عويضه,11788,30.1684835,31.4041435
87,شارع محمد عويضه,11788,30.1687129,31.4040126
91,شارع محمد عويضه,11788,30.1686881,31.4042010
85,شارع محمد عويضه,11788,30.1687271,31.4039047
83,شارع محمد عويضه,11788,30.1687519,31.4037162
81,شارع محمد عويضه,11788,30.1687669,31.4036028
78,شارع محمد عويضه,11788,30.1687875,31.4034459
8`,شارع محمد عايد,11788,30.1688559,31.4031798
75,شارع محمد عويضه,11788,30.1688095,31.4032790
89,شارع محمد عويضه,11788,30.1686977,31.4041281
93,شارع محمد عويضه,11788,30.1686506,31.4044860
79,شارع محمد عويضه,11788,30.1687781,31.4035176
77,شارع محمد عويضه,11788,30.1687982,31.4033649
6`,شارع محمد عايد,11788,30.1687770,31.4031462
23L,شارع مكه,11788,30.1687840,31.4045463
21L,شارع مكه,11788,30.1687958,31.4044611
19L,شارع مكه,11788,30.1688097,31.4043607
17L,شارع مكه,11788,30.1688251,31.4042499
15L,شارع مكه,11788,30.1688360,31.4041710
13L,شارع مكه,11788,30.1688678,31.4039415
11L,شارع مكه,11788,30.1688810,31.4038460
9L,شارع مكه,11788,30.1688977,31.4037254
7L,شارع مكه,11788,30.1689130,31.4036152
5L,شارع مكه,11788,30.1689240,31.4035357
3L,شارع مكه,11788,30.1689338,31.4034656
1,شارع مكه,11788,30.1689451,31.4033836
6,شارع مكه,11788,30.1691171,31.4035492
5,شارع مكه,11788,30.1691051,31.4036223
21R,شارع مكه,11788,30.1690879,31.4037047
19R,شارع مكه,11788,30.1690696,31.4037757
17R,شارع مكه,11788,30.1690476,31.4038980
15R,شارع مكه,11788,30.1690356,31.4040059
13R,شارع مكه,11788,30.1690309,31.4040850
13,شارع مكه,11788,30.1690160,31.4041975
11R,شارع مكه,11788,30.1690033,31.4042938
9R,شارع مكه,11788,30.1689920,31.4043788
7R,شارع مكه,11788,30.1689774,31.4044891
5R,شارع مكه,11788,30.1689595,31.4046244
3R,شارع مكه,11788,30.1689451,31.4047328
19,شارع المهندس يحيى,11788,30.1691222,31.4044616
4,شارع مسجد الرحمن,11788,30.1697359,31.4045933
16,شارع مسجد الرحمن,11788,30.1697530,31.4044395
6,شارع مسجد الرحمن,11788,30.1698207,31.4038337
30,شارع محمد عايد,11788,30.1698483,31.4035861
4,شارع عبد الرحمن الخولي,11788,30.1698507,31.4047703
6,شارع عبد الرحمن الخولي,11788,30.1698689,31.4046525
8,شارع عبد الرحمن الخولي,11788,30.1698817,31.4045700
10,شارع عبد الرحمن الخولي,11788,30.1698989,31.4044591
9L,شارع عبد الرحمن الخولي,11788,30.1699228,31.4043044
7L,شارع عبد الرحمن الخولي,11788,30.1699469,31.4041490
5L,شارع عبد الرحمن الخولي,11788,30.1699712,31.4039922
3L,شارع عبد الرحمن الخولي,11788,30.1699928,31.4038529
1,شارع عبد الرحمن الخولي,11788,30.1700246,31.4036478
23,شارع عبد الرحمن الخولي,11788,30.1702124,31.4038409
21,شارع عبد الرحمن الخولي,11788,30.1701967,31.4039358
19,شارع عبد الرحمن الخولي,11788,30.1701770,31.4040545
17,شارع عبد الرحمن الخولي,11788,30.1701569,31.4041760
15,شارع عبد الرحمن الخولي,11788,30.1701415,31.4042686
13,شارع عبد الرحمن الخولي,11788,30.1701252,31.4043672
11,شارع عبد الرحمن الخولي,11788,30.1700990,31.4045251
9R,شارع عبد الرحمن الخولي,11788,30.1700807,31.4046354
7R,شارع عبد الرحمن الخولي,11788,30.1700622,31.4047473
5R,شارع عبد الرحمن الخولي,11788,30.1700436,31.4048594
3R,شارع عبد الرحمن الخولي,11788,30.1700339,31.4049175
1R,شارع عبد الرحمن الخولي,11788,30.1700188,31.4050090
14,شارع محمد عايد,11788,30.1703202,31.4037444
10,شارع محمد عايد,11788,30.1704373,31.4038423
8,شارع محمد عايد,11788,30.1705707,31.4037886
6,شارع محمد عايد,11788,30.1706715,31.4038503
4,شارع محمد عايد,11788,30.1707666,31.4039455
2,شارع علي ماهر,11788,30.1705962,31.4033099
4,شارع علي ماهر,11788,30.1706733,31.4033572
6,شارع علي ماهر,11788,30.1707616,31.4034115
8,شارع علي ماهر,11788,30.1708399,31.4034595
10,شارع علي ماهر,11788,30.1709328,31.4035166
12,شارع علي ماهر,11788,30.1710089,31.4035633
16,شارع علي ماهر,11788,30.1710657,31.4036277
21`,شارع محمد عايد,11788,30.1694182,31.4031328
11,شارع محمد عايد,11788,30.1705881,31.4036237
5,شارع محمد عايد,11788,30.1707778,31.4037386
7,شارع محمد عايد,11788,30.1707034,31.4036935
9,شارع محمد عايد,11788,30.1706451,31.4036582
3,شارع محمد عايد,11788,30.1708912,31.4038072
1,شارع محمد عايد,11788,30.1709823,31.4038624
19,شارع محمد عايد,11788,30.1701303,31.4033934
17,شارع محمد عايد,11788,30.1702427,31.4034299
21,شارع محمد عايد,11788,30.1700400,31.4033641
23,شارع محمد عايد,11788,30.1699820,31.4033453
25,شارع محمد عايد,11788,30.1699017,31.4033192
3`,شارع محمد عايد,11788,30.1698112,31.4033005
15,شارع محمد عايد,11788,30.1703770,31.4034735
13,شارع ابراهيم الخطاط,11788,30.1704663,31.4033608
11,شارع ابراهيم الخطاط,11788,30.1703759,31.4033270
9,شارع ابراهيم الخطاط,11788,30.1703002,31.4032987
7,شارع ابراهيم الخطاط,11788,30.1702060,31.4032635
5,شارع ابراهيم الخطاط,11788,30.1700989,31.4032235
3,شارع ابراهيم الخطاط,11788,30.1699848,31.4031808
1,شارع ابراهيم الخطاط,11788,30.1698899,31.4031454
12,شارع ابراهيم الخطاط,11788,30.1691353,31.4028633
2R,شارع ابراهيم الخطاط,11788,30.1696848,31.4030687
4R,شارع ابراهيم الخطاط,11788,30.1695930,31.4030344
6R,شارع ابراهيم الخطاط,11788,30.1695218,31.4030078
8R,شارع ابراهيم الخطاط,11788,30.1694395,31.4029770
10R,شارع ابراهيم الخطاط,11788,30.1693624,31.4029482
31,شارع ابراهيم الخطاط,11788,30.1691179,31.4026286
29,شارع ابراهيم الخطاط,11788,30.1692402,31.4026748
17,شارع ابراهيم الخطاط,11788,30.1697672,31.4028740
19,شارع ابراهيم الخطاط,11788,30.1696717,31.4028379
21,شارع ابراهيم الخطاط,11788,30.1696052,31.4028127
23,شارع ابراهيم الخطاط,11788,30.1694737,31.4027631
25,شارع ابراهيم الخطاط,11788,30.1693908,31.4027317
27,شارع ابراهيم الخطاط,11788,30.1693263,31.4027073
2L,شارع ابراهيم الخطاط,11788,30.1699770,31.4029451
4L,شارع ابراهيم الخطاط,11788,30.1700849,31.4029813
6L,شارع ابراهيم الخطاط,11788,30.1702124,31.4030269
8L,شارع ابراهيم الخطاط,11788,30.1703028,31.4030644
10L,شارع ابراهيم الخطاط,11788,30.1703736,31.4030966
12L,شارع ابراهيم الخطاط,11788,30.1704617,31.4031234
14,شارع ابراهيم الخطاط,11788,30.1705625,31.4031664
9,شارع حسن ابو جبل,11788,30.1702457,31.4028817
7,شارع حسن ابو جبل,11788,30.1701479,31.4028489
5,شارع حسن ابو جبل,11788,30.1700620,31.4028201
11,شارع حسن ابو جبل,11788,30.1703446,31.4029148
13,شارع حسن ابو جبل,11788,30.1704349,31.4029451
15,شارع حسن ابو جبل,11788,30.1705125,31.4029711
17,شارع حسن ابو جبل,11788,30.1705802,31.4029938
19,شارع حسن ابو جبل,11788,30.1706437,31.4030151
21,شارع حسن ابو جبل,11788,30.1706961,31.4030326
23,شارع حسن ابو جبل,11788,30.1707828,31.4030617
24,شارع حسن ابو جبل,11788,30.1696002,31.4026514
20,شارع حسن ابو جبل,11788,30.1708594,31.4029223
18,شارع حسن ابو جبل,11788,30.1707515,31.4028619
16,شارع حسن ابو جبل,11788,30.1706681,31.4028203
14,شارع حسن ابو جبل,11788,30.1705833,31.4027902
12,شارع حسن ابو جبل,11788,30.1704943,31.4027585
10,شارع حسن ابو جبل,11788,30.1704116,31.4027290
8,شارع حسن ابو جبل,11788,30.1703338,31.4027013
6,شارع حسن ابو جبل,11788,30.1702855,31.4026841
4,شارع حسن ابو جبل,11788,30.1702164,31.4026595
2,شارع حسن ابو جبل,11788,30.1700767,31.4026098
22,شارع مسجد الرحمه,11788,30.1699399,31.4023443
11,شارع ابو بكر الصديق,11788,30.1698043,31.4023349
9,شارع ابو بكر الصديق,11788,30.1696802,31.4022890
7,شارع ابو بكر الصديق,11788,30.1695667,31.4022471
5,شارع ابو بكر الصديق,11788,30.1694896,31.4022186
3R,شارع ابو بكر الصديق,11788,30.1693774,31.4021772
1,شارع ابو بكر الصديق,11788,30.1692779,31.4021404
25,شارع ابو بكر الصديق,11788,30.1707144,31.4026795
23,شارع ابو بكر الصديق,11788,30.1706443,31.4026534
21,شارع ابو بكر الصديق,11788,30.1705431,31.4026157
19,شارع ابو بكر الصديق,11788,30.1704482,31.4025803
17,شارع ابو بكر الصديق,11788,30.1703247,31.4025342
15,شارع ابو بكر الصديق,11788,30.1702113,31.4024920
13,شارع ابو بكر الصديق,11788,30.1701208,31.4024582
3L,شارع ابو بكر الصديق,11788,30.1694738,31.4019728
26,شارع ابو بكر الصديق,11788,30.1707875,31.4024650
24,شارع ابو بكر الصديق,11788,30.1706866,31.4024262
22,شارع ابو بكر الصديق,11788,30.1706194,31.4024004
20,شارع ابو بكر الصديق,11788,30.1705599,31.4023775
18,شارع ابو بكر الصديق,11788,30.1705063,31.4023570
16,شارع ابو بكر الصديق,11788,30.1704172,31.4023227
14,شارع ابو بكر الصديق,11788,30.1703250,31.4022873
12,شارع ابو بكر الصديق,11788,30.1702467,31.4022573
10,شارع ابو بكر الصديق,11788,30.1701730,31.4022289
30,شارع علي مهلل,11788,30.1694077,31.4017582
28,شارع علي مهلل,11788,30.1695318,31.4018038
26,شارع علي مهلل,11788,30.1696300,31.4018399
24,شارع علي مهلل,11788,30.1697310,31.4018770
22,شارع علي مهلل,11788,30.1698057,31.4019044
20,شارع علي مهلل,11788,30.1699211,31.4019468
18,شارع علي مهلل,11788,30.1700501,31.4019942
2,شارع علي مهلل,11788,30.1708454,31.4023013
4,شارع علي مهلل,11788,30.1707643,31.4022718
6,شارع علي مهلل,11788,30.1706727,31.4022477
8,شارع علي مهلل,11788,30.1705834,31.4022115
10,شارع علي مهلل,11788,30.1704965,31.4021726
12,شارع علي مهلل,11788,30.1703724,31.4021176
14,شارع علي مهلل,11788,30.1702507,31.4020707
1,شارع علي مهلل,11788,30.1708918,31.4020814
3,شارع علي مهلل,11788,30.1708087,31.4020494
5,شارع علي مهلل,11788,30.1707214,31.4020158
7,شارع علي مهلل,11788,30.1706208,31.4019772
9,شارع علي مهلل,11788,30.1705526,31.4019509
11,شارع علي مهلل,11788,30.1704969,31.4019295
13,شارع علي مهلل,11788,30.1704211,31.4019003
13,شارع ابو عمر,11788,30.1713997,31.4019312
15,شارع ابو عمر,11788,30.1715168,31.4019325
11,شارع ابو عمر,11788,30.1711121,31.4019527
9,شارع ابو عمر,11788,30.1710298,31.4019594
7,شارع ابو عمر,11788,30.1709440,31.4019352
5,شارع ابو عمر,11788,30.1706576,31.4017998
3,شارع ابو عمر,11788,30.1705254,31.4017233
1,شارع ابو عمر,11788,30.1703956,31.4015973
4,شارع ابو عمر,11788,30.1705771,31.4014680
6,شارع ابو عمر,11788,30.1706775,31.4015270
8,شارع ابو عمر,11788,30.1707797,31.4015871
10,شارع ابو عمر,11788,30.1709452,31.4016844
2,شارع ابو عمر,11788,30.1704617,31.4014001
9,شارع المهندس لطفي,11788,30.1710356,31.4015704
7,شارع المهندس لطفي,11788,30.1709380,31.4015101
5,شارع المهندس لطفي,11788,30.1708273,31.4014417
3,شارع المهندس لطفي,11788,30.1707122,31.4013705
1,شارع المهندس لطفي,11788,30.1706147,31.4013103
2,شارع المهندس لطفي,11788,30.1705637,31.4010555
20,شارع المهندس لطفي,11788,30.1710762,31.4013344
25,شارع مسعد طنطاوي,11788,30.1712118,31.4012164
23,شارع مسعد طنطاوي,11788,30.1710996,31.4011575
21,شارع مسعد طنطاوي,11788,30.1710197,31.4011155
19,شارع مسعد طنطاوي,11788,30.1709528,31.4010805
17,شارع مسعد طنطاوي,11788,30.1708307,31.4010164
15,شارع مسعد طنطاوي,11788,30.1707237,31.4009602
13,شارع مسعد طنطاوي,11788,30.1706252,31.4008610
35,شارع محمد ابراهيم,11788,30.1711217,31.4007764
37,شارع محمد ابراهيم,11788,30.1710831,31.4009066
33,شارع محمد ابراهيم,11788,30.1711634,31.4006359
31,شارع محمد ابراهيم,11788,30.1711898,31.4005468
22,شارع مسعد طنطاوي,11788,30.1709950,31.4008757
20,شارع مسعد طنطاوي,11788,30.1709237,31.4008356
18,شارع مسعد طنطاوي,11788,30.1708416,31.4007895
16,شارع مسعد طنطاوي,11788,30.1707563,31.4007415
14,شارع مسعد طنطاوي,11788,30.1706588,31.4006867
1,شارع الخلفاء الراشدين,11788,30.1698599,31.4017247
25,شارع الخلفاء الراشدين,11788,30.1697312,31.4016469
4,شارع مسعد طنطاوي,11788,30.1699705,31.4003322
6,شارع مسعد طنطاوي,11788,30.1700441,31.4003786
3,شارع مسعد طنطاوي,11788,30.1699689,31.4005029
1,شارع مسعد طنطاوي,11788,30.1698634,31.4004225
2,شارع مسعد طنطاوي,11788,30.1699028,31.4002897
12,شارع مدارس الايمن,11788,30.1700831,31.3997483
4,شارع جابر حسين,11788,30.1703376,31.3997613
6,شارع جابر حسين,11788,30.1702740,31.3997229
8,شارع جابر حسين,11788,30.1702070,31.3996825
10,شارع جابر حسين,11788,30.1701196,31.3996299
8,شارع مدارس الايمن,11788,30.1701834,31.3994475
5,شارع هاشم علي,11788,30.1704338,31.3994461
3,شارع هاشم علي,11788,30.1703292,31.3993909
1,شارع هاشم علي,11788,30.1702205,31.3993335
4,شارع هاشم علي,11788,30.1703654,31.3991967
2,شارع هاشم علي,11788,30.1702831,31.3991564
1,شارع مدارس الايمن,11788,30.1703666,31.3990505
2,شارع مدارس الايمن,11788,30.1704107,31.3989043
27,شارع ابو زيد عامر,11788,30.1706043,31.3986589
20,شارع ابو زيد عامر,11788,30.1703109,31.3998672
18L,شارع ابو زيد عامر,11788,30.1702887,31.3999353
16L,شارع ابو زيد عامر,11788,30.1702638,31.4000112
14,شارع ابو زيد عامر,11788,30.1702295,31.4001162
12L,شارع ابو زيد عامر,11788,30.1701911,31.4002334
10,شارع ابو زيد عامر,11788,30.1701551,31.4003433
8`,شارع ابو زيد عامر,11788,30.1701266,31.4004305
2,شارع ابو زيد عامر,11788,30.1699063,31.4010219
6,شارع ابو زيد عامر,11788,30.1699667,31.4008528
8,شارع ابو زيد عامر,11788,30.1699886,31.4007913
4,شارع ابو زيد عامر,11788,30.1699424,31.4009207
9,شارع ابو زيد عامر,11788,30.1702060,31.4006594
7,شارع ابو زيد عامر,11788,30.1701557,31.4008018
5,شارع ابو زيد عامر,11788,30.1701159,31.4009147
3,شارع ابو زيد عامر,11788,30.1700745,31.4010318
1,شارع ابو زيد عامر,11788,30.1700269,31.4011668
12,شارع مسعد طنطاوي,11788,30.1704788,31.4005854
10,شارع مسعد طنطاوي,11788,30.1703631,31.4005204
11,شارع ابو زيد عامر,11788,30.1702590,31.4005094
13,شارع ابو زيد عامر,11788,30.1702878,31.4004278
1,شارع الامام الحسيني,11788,30.1703133,31.4003246
3,شارع الامام الحسيني,11788,30.1703933,31.4003728
5,شارع الامام الحسيني,11788,30.1704686,31.4004157
7,شارع الامام الحسيني,11788,30.1705579,31.4004613
17`,شارع ابو زيد عامر,11788,30.1707805,31.3989620
16R,شارع ابو زيد عامر,11788,30.1705933,31.3995226
19`,شارع ابو زيد عامر,11788,30.1705737,31.3995812
18R,شارع ابو زيد عامر,11788,30.1705458,31.3996649
17,شارع ابو زيد عامر,11788,30.1705159,31.3997543
23,شارع ابو زيد عامر,11788,30.1704589,31.3999252
19,شارع ابو زيد عامر,11788,30.1704083,31.4000764
4,شارع الامام الحسيني,11788,30.1704037,31.4001784
1L,شارع مسجد بلال,11788,30.1704895,31.4002495
15A,شارع مسجد بلال,11788,30.1709857,31.3994421
13A,شارع مسجد بلال,11788,30.1709376,31.3995788
11A,شارع مسجد بلال,11788,30.1708912,31.3997109
9A,شارع مسجد بلال,11788,30.1708543,31.3998159
7A,شارع مسجد بلال,11788,30.1708169,31.3999225
5A,شارع مسجد بلال,11788,30.1707846,31.4000144
3A,شارع مسجد بلال,11788,30.1707471,31.4001209
1R,شارع مسجد بلال,11788,30.1707191,31.4002007
8,شارع مسجد بلال,11788,30.1706831,31.4003031
12,شارع مهندس عبد الغني رمضان احمد,11788,30.1710356,31.4005096
3,شارع مهندس عبد الغني رمضان احمد,11788,30.1714031,31.3993308
15,شارع محمد ابراهيم,11788,30.1715388,31.3994032
1,شارع محمد يسرى,11788,30.1715121,31.3994837
29,شارع محمد ابراهيم,11788,30.1712106,31.4004769
27,شارع محمد ابراهيم,11788,30.1712327,31.4004023
14,شارع محمد ابراهيم,11788,30.1713092,31.4001609
28,شارع محمد ابراهيم,11788,30.1714345,31.4004244
30,شارع محمد ابراهيم,11788,30.1714103,31.4004937
36,شارع محمد ابراهيم,11788,30.1713318,31.4007186
38,شارع محمد ابراهيم,11788,30.1713125,31.4007738
40,شارع محمد ابراهيم,11788,30.1712886,31.4008421
42,شارع محمد ابراهيم,11788,30.1712513,31.4009490
44,شارع محمد ابراهيم,11788,30.1712165,31.4010487
34,شارع محمد ابراهيم,11788,30.1713565,31.4006479
32,شارع محمد ابراهيم,11788,30.1713846,31.4005673
26,شارع محمد ابراهيم,11788,30.1714645,31.4003385
24,شارع محمد ابراهيم,11788,30.1714980,31.4002424
22,شارع محمد ابراهيم,11788,30.1715481,31.4000992
17,شارع الصحابه,11788,30.1717510,31.3997774
19,شارع الصحابه,11788,30.1717115,31.3999102
27,شارع القاضي,11788,30.1718483,31.4007162
18,شارع محمد متولي الشعراوى,11788,30.1718215,31.4030960
14,شارع محمد متولي الشعراوى,11788,30.1718715,31.4028485
16`,شارع محمد متولي الشعراوى,11788,30.1718550,31.4029304
29,شارع محمد متولي الشعراوى,11788,30.1717753,31.4033246
28,شارع محمد متولي الشعراوى,11788,30.1716387,31.4040274
30,شارع محمد متولي الشعراوى,11788,30.1716281,31.4040971
3,شارع خالد ابن الوليد,11788,30.1714750,31.4045933
15,شارع خالد ابن الوليد,11788,30.1714228,31.4045222
17,شارع خالد ابن الوليد,11788,30.1714634,31.4043693
49,شارع خالد ابن الوليد,11788,30.1718321,31.4022276
47,شارع خالد ابن الوليد,11788,30.1718298,31.4023657
45,شارع خالد ابن الوليد,11788,30.1718182,31.4024609
43,شارع خالد ابن الوليد,11788,30.1718020,31.4025360
41,شارع خالد ابن الوليد,11788,30.1717869,31.4026219
39,شارع خالد ابن الوليد,11788,30.1717776,31.4026970
37,شارع خالد ابن الوليد,11788,30.1717347,31.4028740
35,شارع خالد ابن الوليد,11788,30.1717081,31.4031047
33,شارع خالد ابن الوليد,11788,30.1716895,31.4032549
31,شارع خالد ابن الوليد,11788,30.1715910,31.4037229
29,شارع خالد ابن الوليد,11788,30.1715794,31.4037886
27,شارع خالد ابن الوليد,11788,30.1715678,31.4038543
25,شارع خالد ابن الوليد,11788,30.1715539,31.4039482
23,شارع خالد ابن الوليد,11788,30.1715237,31.4040327
21,شارع خالد ابن الوليد,11788,30.1715133,31.4041105
19,شارع خالد ابن الوليد,11788,30.1714912,31.4042379
16,شارع خالد ابن الوليد,11788,30.1713753,31.4047220
1,شارع خالد ابن الوليد,11788,30.1712107,31.4053658
24,شارع الحريه,11788,30.1718773,31.4042178
22,شارع المحارب اسماعيل علي,11788,30.1718179,31.4045662
20,شارع المحارب اسماعيل علي,11788,30.1717856,31.4047976
18,شارع المحارب اسماعيل علي,11788,30.1717678,31.4049253
16,شارع المحارب اسماعيل علي,11788,30.1717522,31.4050370
14,شارع المحارب اسماعيل علي,11788,30.1717363,31.4051510
12,شارع المحارب اسماعيل علي,11788,30.1717208,31.4052621
10,شارع المحارب اسماعيل علي,11788,30.1717078,31.4053552
8,شارع المحارب اسماعيل علي,11788,30.1716872,31.4055026
60,شارع محمد متولي الشعراوى,11788,30.1720141,31.4029960
39,شارع الحريه,11788,30.1720107,31.4042191
46,شارع امام الدعاه,11788,30.1722514,31.4035033
44,شارع امام الدعاه,11788,30.1722264,31.4036006
56,شارع امام الدعاه,11788,30.1723747,31.4030671
30,شارع امام الدعاه,11788,30.1721202,31.4043023
32,شارع امام الدعاه,11788,30.1721342,31.4041935
34,شارع امام الدعاه,11788,30.1721475,31.4040904
36,شارع امام الدعاه,11788,30.1721632,31.4040039
26,شارع امام الدعاه,11788,30.1720780,31.4046310
8,شارع امام الدعاه,11788,30.1719751,31.4054760
6,شارع امام الدعاه,11788,30.1719653,31.4055563
24,شارع امام الدعاه,11788,30.1720641,31.4047449
22,شارع امام الدعاه,11788,30.1720519,31.4048450
20,شارع امام الدعاه,11788,30.1720423,31.4049236
18,شارع امام الدعاه,11788,30.1720329,31.4050014
16,شارع امام الدعاه,11788,30.1720183,31.4051214
14,شارع امام الدعاه,11788,30.1720032,31.4052455
12,شارع امام الدعاه,11788,30.1719939,31.4053218
10,شارع امام الدعاه,11788,30.1719842,31.4054014
4,شارع امام الدعاه,11788,30.1719548,31.4056427
2,شارع امام الدعاه,11788,30.1719353,31.4058030
47,شارع امام الدعاه,11788,30.1725034,31.4031851
45,شارع امام الدعاه,11788,30.1724856,31.4032582
43`,شارع امام الدعاه,11788,30.1724714,31.4033163
41`,شارع امام الدعاه,11788,30.1724531,31.4033911
39`,شارع امام الدعاه,11788,30.1724390,31.4034487
37`,شارع امام الدعاه,11788,30.1724178,31.4035354
35`,شارع امام الدعاه,11788,30.1723828,31.4036787
31,شارع امام الدعاه,11788,30.1722669,31.4043318
33,شارع امام الدعاه,11788,30.1722773,31.4042218
43,شارع امام الدعاه,11788,30.1723492,31.4038570
35,شارع امام الدعاه,11788,30.1722970,31.4041574
37,شارع امام الدعاه,11788,30.1723063,31.4040850
39,شارع امام الدعاه,11788,30.1723237,31.4040045
41,شارع امام الدعاه,11788,30.1723353,31.4039281
38,شارع امام الدعاه,11788,30.1721766,31.4039301
1,شارع امام الدعاه,11788,30.1720509,31.4059846
3,شارع امام الدعاه,11788,30.1720749,31.4058698
29,شارع امام الدعاه,11788,30.1722425,31.4045356
27,شارع امام الدعاه,11788,30.1722283,31.4046569
25,شارع امام الدعاه,11788,30.1722127,31.4047895
23,شارع امام الدعاه,11788,30.1721957,31.4049340
21,شارع امام الدعاه,11788,30.1721817,31.4050534
19,شارع امام الدعاه,11788,30.1721697,31.4051554
17,شارع امام الدعاه,11788,30.1721565,31.4052675
15,شارع امام الدعاه,11788,30.1721428,31.4053840
13,شارع امام الدعاه,11788,30.1721329,31.4054681
11,شارع امام الدعاه,11788,30.1721202,31.4055709
9,شارع امام الدعاه,11788,30.1721082,31.4056675
7,شارع امام الدعاه,11788,30.1720984,31.4057347
5,شارع امام الدعاه,11788,30.1720868,31.4058050
5`,شارع عثمان ابن عفان,11788,30.1730912,31.4001945
105,شارع عثمان ابن عفان,11788,30.1731805,31.4005110
111,شارع عثمان ابن عفان,11788,30.1732350,31.4002669
17`,شارع عثمان ابن عفان,11788,30.1729915,31.4019969
61,شارع عثمان ابن عفان,11788,30.1729046,31.4025588
27,شارع عثمان ابن عفان,11788,30.1724895,31.4048682
25,شارع عثمان ابن عفان,11788,30.1724785,31.4049605
23,شارع عثمان ابن عفان,11788,30.1724700,31.4050322
21,شارع عثمان ابن عفان,11788,30.1724597,31.4051187
19,شارع عثمان ابن عفان,11788,30.1724472,31.4052233
17,شارع عثمان ابن عفان,11788,30.1724265,31.4053968
15,شارع عثمان ابن عفان,11788,30.1724142,31.4055001
13,شارع عثمان ابن عفان,11788,30.1724037,31.4055884
11,شارع عثمان ابن عفان,11788,30.1723922,31.4056876
9,شارع عثمان ابن عفان,11788,30.1723819,31.4057883
7,شارع عثمان ابن عفان,11788,30.1723680,31.4058651
5,شارع عثمان ابن عفان,11788,30.1723532,31.4059257
3,شارع مسجد الحطيني,11788,30.1727585,31.4038597
2,شارع سلامه عوده,11788,30.1728779,31.4043975
3,شارع الحمد,11788,30.1733996,31.4018172
9,شارع المصطفي,11788,30.1739840,31.4016348
5,شارع الحمد,11788,30.1739840,31.4017287
58,شارع مصطفي السنهوري,11788,30.1740871,31.4026353
60,شارع مصطفي السنهوري,11788,30.1740883,31.4027157
2,شارع ابو بكر الصديق,11788,30.1732593,31.4059532
4,شارع ابو بكر الصديق,11788,30.1732631,31.4058433
6,شارع ابو بكر الصديق,11788,30.1732701,31.4056393
8,شارع ابو بكر الصديق,11788,30.1732733,31.4055468
10,شارع ابو بكر الصديق,11788,30.1733022,31.4053068
12,شارع ابو بكر الصديق,11788,30.1733094,31.4051795
14,شارع ابو بكر الصديق,11788,30.1733146,31.4050882
16,شارع ابو بكر الصديق,11788,30.1733196,31.4049996
18,شارع ابو بكر الصديق,11788,30.1733335,31.4048910
20,شارع ابو بكر الصديق,11788,30.1733322,31.4047704
22,شارع ابو بكر الصديق,11788,30.1733311,31.4046737
24,شارع ابو بكر الصديق,11788,30.1733301,31.4045799
34,شارع الفاروق عمر بن الخطاب,11788,30.1736002,31.4042097
32,شارع الفاروق عمر بن الخطاب,11788,30.1736007,31.4043157
30,شارع الفاروق عمر بن الخطاب,11788,30.1736013,31.4044270
28,شارع الفاروق عمر بن الخطاب,11788,30.1736021,31.4045799
26,شارع الفاروق عمر بن الخطاب,11788,30.1736025,31.4046711
24,شارع الفاروق عمر بن الخطاب,11788,30.1736030,31.4047596
22,شارع الفاروق عمر بن الخطاب,11788,30.1736032,31.4048575
20,شارع الفاروق عمر بن الخطاب,11788,30.1736034,31.4049420
18,شارع الفاروق عمر بن الخطاب,11788,30.1736037,31.4050426
16,شارع الفاروق عمر بن الخطاب,11788,30.1736002,31.4051512
14,شارع الفاروق عمر بن الخطاب,11788,30.1735958,31.4052385
12,شارع الفاروق عمر بن الخطاب,11788,30.1735915,31.4053230
10,شارع الفاروق عمر بن الخطاب,11788,30.1735878,31.4053969
8,شارع الفاروق عمر بن الخطاب,11788,30.1735842,31.4054678
6,شارع الفاروق عمر بن الخطاب,11788,30.1735804,31.4055429
4,شارع الفاروق عمر بن الخطاب,11788,30.1735759,31.4056340
5,شارع المصطفي,11788,30.1738553,31.4037980
18,شارع المصطفي,11788,30.1738460,31.4041226
4,شارع المصطفي,11788,30.1738390,31.4057372
19,شارع الفاروق عمر بن الخطاب,11788,30.1737472,31.4050291
25,شارع الفاروق عمر بن الخطاب,11788,30.1737532,31.4047690
23,شارع الفاروق عمر بن الخطاب,11788,30.1737511,31.4048615
21,شارع الفاروق عمر بن الخطاب,11788,30.1737489,31.4049567
7,شارع الفاروق عمر بن الخطاب,11788,30.1737338,31.4056125
17,شارع الفاروق عمر بن الخطاب,11788,30.1737447,31.4051401
15,شارع الفاروق عمر بن الخطاب,11788,30.1737428,31.4052234
13,شارع الفاروق عمر بن الخطاب,11788,30.1737406,31.4053185
11,شارع الفاروق عمر بن الخطاب,11788,30.1737387,31.4054019
9,شارع الفاروق عمر بن الخطاب,11788,30.1737361,31.4055144
5,شارع الفاروق عمر بن الخطاب,11788,30.1737319,31.4056969
3,شارع الفاروق عمر بن الخطاب,11788,30.1737303,31.4057653
1,شارع الفاروق عمر بن الخطاب,11788,30.1737277,31.4058754
23,شارع المصطفي,11788,30.1739932,31.4035915
15,شارع المصطفي,11788,30.1739909,31.4040877
2,شارع مصطفي السنهوري,11788,30.1741254,31.4057976
23,شارع مصطفي السنهوري,11788,30.1742634,31.4045960
21,شارع مصطفي السنهوري,11788,30.1742673,31.4047247
19,شارع مصطفي السنهوري,11788,30.1742698,31.4048067
17,شارع مصطفي السنهوري,11788,30.1742728,31.4049044
15,شارع مصطفي السنهوري,11788,30.1742753,31.4049833
13,شارع مصطفي السنهوري,11788,30.1742778,31.4050654
11,شارع مصطفي السنهوري,11788,30.1742802,31.4051431
9,شارع مصطفي السنهوري,11788,30.1742826,31.4052220
7,شارع مصطفي السنهوري,11788,30.1742854,31.4053132
5,شارع مصطفي السنهوري,11788,30.1742882,31.4054042
3,شارع مصطفي السنهوري,11788,30.1742924,31.4055422
37,شارع مصطفي السنهوري,11788,30.1742634,31.4019285
35,شارع مصطفي السنهوري,11788,30.1742715,31.4041829
1,شارع مصطفي السنهوري,11788,30.1742982,31.4057292
48,شارع عمار ابن ياسر,11788,30.1743677,31.4033997
46,شارع عمار ابن ياسر,11788,30.1743691,31.4035097
44,شارع عمار ابن ياسر,11788,30.1743702,31.4035969
42,شارع عمار ابن ياسر,11788,30.1743713,31.4036773
40,شارع عمار ابن ياسر,11788,30.1743725,31.4037766
38,شارع عمار ابن ياسر,11788,30.1743739,31.4038839
36,شارع عمار ابن ياسر,11788,30.1743758,31.4040301
34,شارع عمار ابن ياسر,11788,30.1743771,31.4041306
32,شارع عمار ابن ياسر,11788,30.1743784,31.4042366
30,شارع عمار ابن ياسر,11788,30.1743805,31.4043961
17,شارع عمار ابن ياسر,11788,30.1743909,31.4049219
19,شارع عمار ابن ياسر,11788,30.1743886,31.4048106
21,شارع عمار ابن ياسر,11788,30.1743864,31.4047073
23,شارع عمار ابن ياسر,11788,30.1743840,31.4045879
1,شارع عمار ابن ياسر,11788,30.1744071,31.4057064
3,شارع عمار ابن ياسر,11788,30.1744052,31.4056118
5,شارع عمار ابن ياسر,11788,30.1744032,31.4055172
7,شارع عمار ابن ياسر,11788,30.1744013,31.4054225
9,شارع عمار ابن ياسر,11788,30.1743993,31.4053279
11,شارع عمار ابن ياسر,11788,30.1743973,31.4052333
13,شارع عمار ابن ياسر,11788,30.1743954,31.4051387
15L,شارع عمار ابن ياسر,11788,30.1743934,31.4050441
32`,شارع حسين عوده,11788,30.1746494,31.4031033
49,شارع عمار ابن ياسر,11788,30.1745393,31.4031368
15R,شارع عمار ابن ياسر,11788,30.1745486,31.4049084
4,شارع عمار ابن ياسر,11788,30.1745660,31.4055589
2,شارع عمار ابن ياسر,11788,30.1745718,31.4056849
32,شارع حسين عوده,11788,30.1746466,31.4037764
36,شارع حسين عوده,11788,30.1746437,31.4036036
34,شارع حسين عوده,11788,30.1746451,31.4036881
30,شارع حسين عوده,11788,30.1746512,31.4040449
28,شارع حسين عوده,11788,30.1746530,31.4041508
26,شارع حسين عوده,11788,30.1746543,31.4042259
24,شارع حسين عوده,11788,30.1746557,31.4043078
22,شارع حسين عوده,11788,30.1746573,31.4044042
20,شارع حسين عوده,11788,30.1746597,31.4045424
18,شارع حسين عوده,11788,30.1746614,31.4046401
16,شارع حسين عوده,11788,30.1746629,31.4047314
14,شارع حسين عوده,11788,30.1746644,31.4048171
12,شارع حسين عوده,11788,30.1746662,31.4049230
2,شارع حسين عوده,11788,30.1746784,31.4056407
4,شارع حسين عوده,11788,30.1746763,31.4055132
6,شارع حسين عوده,11788,30.1746747,31.4054233
8,شارع حسين عوده,11788,30.1746733,31.4053415
10,شارع حسين عوده,11788,30.1746717,31.4052476
73,شارع حسين عوده,11788,30.1747955,31.4021069
71,شارع حسين عوده,11788,30.1747944,31.4021833
27,شارع حسين عوده,11788,30.1747921,31.4032347
4,شارع سلامه عوده,11788,30.1748976,31.4031288
6,شارع سلامه عوده,11788,30.1748987,31.4030282
53,شارع حسين عوده,11788,30.1747944,31.4035191
51,شارع حسين عوده,11788,30.1747954,31.4035861
49,شارع حسين عوده,11788,30.1747963,31.4036504
47,شارع حسين عوده,11788,30.1747975,31.4037296
45,شارع حسين عوده,11788,30.1747986,31.4038021
43,شارع حسين عوده,11788,30.1747998,31.4038852
41,شارع حسين عوده,11788,30.1748011,31.4039724
39,شارع حسين عوده,11788,30.1748024,31.4040636
37,شارع حسين عوده,11788,30.1748038,31.4041562
35,شارع حسين عوده,11788,30.1748051,31.4042446
29,شارع حسين عوده,11788,30.1748095,31.4045411
31,شارع حسين عوده,11788,30.1748082,31.4044512
33,شارع حسين عوده,11788,30.1748066,31.4043479
16,شارع سلامه عوده,11788,30.1749254,31.4049393
17,شارع حسين عوده,11788,30.1748152,31.4049245
19,شارع حسين عوده,11788,30.1748136,31.4048212
15,شارع حسين عوده,11788,30.1748164,31.4050076
13,شارع حسين عوده,11788,30.1748176,31.4050880
11,شارع حسين عوده,11788,30.1748188,31.4051726
9,شارع حسين عوده,11788,30.1748201,31.4052557
7,شارع حسين عوده,11788,30.1748212,31.4053309
5,شارع حسين عوده,11788,30.1748225,31.4054194
3,شارع حسين عوده,11788,30.1748234,31.4054797
1,شارع حسين عوده,11788,30.1748245,31.4055562
3,شارع سلامه عوده,11788,30.1750622,31.4026970
34,شارع محمد عوده,11788,30.1751649,31.4040482
22,شارع محمد عوده,11788,30.1751663,31.4041326
20,شارع محمد عوده,11788,30.1751678,31.4042273
18,شارع محمد عوده,11788,30.1751700,31.4043588
16,شارع محمد عوده,11788,30.1751717,31.4044647
14,شارع محمد عوده,11788,30.1751730,31.4045397
12,شارع محمد عوده,11788,30.1751746,31.4046402
18,شارع الامل,11788,30.1754426,31.4044416
20,شارع الامل,11788,30.1754408,31.4043288
16,شارع الامل,11788,30.1754436,31.4045058
14,شارع الامل,11788,30.1754452,31.4046050
36,شارع الامل,11788,30.1754262,31.4033943
34,شارع الامل,11788,30.1754278,31.4034922
32,شارع الامل,11788,30.1754289,31.4035673
30,شارع الامل,11788,30.1754304,31.4036639
28,شارع الامل,11788,30.1754318,31.4037483
26,شارع الامل,11788,30.1754336,31.4038624
24,شارع الامل,11788,30.1754353,31.4039763
22,شارع الامل,11788,30.1754373,31.4041010
12,شارع الامل,11788,30.1754485,31.4048159
10,شارع الامل,11788,30.1754505,31.4049473
8L,شارع الامل,11788,30.1754525,31.4050734
6L,شارع الامل,11788,30.1754544,31.4051941
4,شارع الامل,11788,30.1754563,31.4053161
2,شارع الامل,11788,30.1754587,31.4054704
11L,شارع الامل,11788,30.1754348,31.4017865
7L,شارع الامل,11788,30.1754371,31.4014954
9L,شارع الامل,11788,30.1754359,31.4016456
13L,شارع الامل,11788,30.1754334,31.4019540
15L,شارع الامل,11788,30.1754320,31.4021230
5L,شارع الامل,11788,30.1754380,31.4013854
3L,شارع الامل,11788,30.1754389,31.4012754
1L,شارع الامل,11788,30.1754401,31.4011252
6R,شارع الامل,11788,30.1756546,31.4013813
8R,شارع الامل,11788,30.1756477,31.4014940
9,شارع محمد بدوي,11788,30.1757427,31.4040367
18,شارع محمد بدوي,11788,30.1757408,31.4043559
16,شارع محمد بدوي,11788,30.1757404,31.4044270
14,شارع محمد بدوي,11788,30.1757399,31.4044981
43,شارع محمد بدوي,11788,30.1757358,31.4051847
19,شارع الامل,11788,30.1755978,31.4040649
17,شارع الامل,11788,30.1756002,31.4042028
15R,شارع الامل,11788,30.1756026,31.4043437
13R,شارع الامل,11788,30.1756047,31.4044643
3R,شارع الامل,11788,30.1756193,31.4053107
9R,شارع الامل,11788,30.1756128,31.4049339
7R,شارع الامل,11788,30.1756150,31.4050640
5R,شارع الامل,11788,30.1756173,31.4051939
11R,شارع الامل,11788,30.1756072,31.4046064
1R,شارع الامل,11788,30.1756222,31.4054771
10,شارع محمد بدوي,11788,30.1759769,31.4017341
8,شارع محمد بدوي,11788,30.1759740,31.4018173
6,شارع محمد بدوي,11788,30.1759704,31.4019165
4,شارع محمد بدوي,11788,30.1759663,31.4020332
2,شارع محمد بدوي,11788,30.1759619,31.4021565
15,شارع محمود مصطفي,11788,30.1761184,31.4021645
13,شارع محمود مصطفي,11788,30.1761274,31.4020124
11,شارع محمود مصطفي,11788,30.1761350,31.4018860
9,شارع محمود مصطفي,11788,30.1761410,31.4017837
7,شارع محمود مصطفي,11788,30.1761454,31.4017101
5,شارع محمود مصطفي,11788,30.1761509,31.4016188
3,شارع محمود مصطفي,11788,30.1761570,31.4015153
1,شارع محمود مصطفي,11788,30.1761671,31.4013465
12,شارع محمود مصطفي,11788,30.1763085,31.4020908
2,شارع محمد يوسف,11788,30.1768836,31.4024837
4,شارع محمد يوسف,11788,30.1767550,31.4024660
6,شارع محمد يوسف,11788,30.1766695,31.4024542
8,شارع محمد يوسف,11788,30.1765739,31.4024410
10,شارع محمد يوسف,11788,30.1764590,31.4024252
9,شارع محمد يوسف,11788,30.1763224,31.4024063
5,شارع محمد يوسف,11788,30.1761028,31.4023760
7,شارع محمد يوسف,11788,30.1762299,31.4023936
3,شارع محمد يوسف,11788,30.1760278,31.4023657
1,شارع محمد يوسف,11788,30.1759503,31.4023550
18,شارع سيد جمعه,11788,30.1767222,31.4026255
2,شارع سيد جمعه,11788,30.1760581,31.4025441
4,شارع سيد جمعه,11788,30.1761347,31.4025535
6,شارع سيد جمعه,11788,30.1762426,31.4025667
8,شارع سيد جمعه,11788,30.1763307,31.4025775
10,شارع سيد جمعه,11788,30.1764133,31.4025876
12,شارع سيد جمعه,11788,30.1764815,31.4025960
14,شارع سيد جمعه,11788,30.1765647,31.4026062
16,شارع سيد جمعه,11788,30.1766338,31.4026147
20,شارع سيد جمعه,11788,30.1768673,31.4026433
9,شارع سيد جمعه,11788,30.1763560,31.4027922
7,شارع سيد جمعه,11788,30.1762623,31.4027788
5,شارع سيد جمعه,11788,30.1761775,31.4027668
3,شارع سيد جمعه,11788,30.1760999,31.4027557
1,شارع سيد جمعه,11788,30.1759700,31.4027372
1,شارع عبد اللطيف هاشم,11788,30.1767688,31.4033957
9,شارع محمد مصباح,11788,30.1763168,31.4031857
11,شارع محمد مصباح,11788,30.1762204,31.4031744
1,شارع محمد مصباح,11788,30.1768279,31.4032455
3,شارع محمد مصباح,11788,30.1766630,31.4032262
5,شارع محمد مصباح,11788,30.1765493,31.4032129
7,شارع محمد مصباح,11788,30.1764195,31.4031977
13,شارع عبد اللطيف هاشم,11788,30.1761591,31.4033253
15,شارع عبد اللطيف هاشم,11788,30.1760720,31.4033152
11,شارع عبد اللطيف هاشم,11788,30.1762527,31.4033361
9,شارع عبد اللطيف هاشم,11788,30.1763209,31.4033440
7,شارع عبد اللطيف هاشم,11788,30.1764248,31.4033560
5,شارع عبد اللطيف هاشم,11788,30.1765285,31.4033679
3,شارع عبد اللطيف هاشم,11788,30.1766383,31.4033806
13,شارع صلاح الدين مسعود,11788,30.1762447,31.4037001
11,شارع صلاح الدين مسعود,11788,30.1763182,31.4037061
9,شارع صلاح الدين مسعود,11788,30.1764038,31.4037131
7,شارع صلاح الدين مسعود,11788,30.1765068,31.4037216
1,شارع صلاح الدين مسعود,11788,30.1767676,31.4038087
2,شارع صلاح الدين مسعود,11788,30.1767317,31.4039884
4,شارع صلاح الدين مسعود,11788,30.1766206,31.4039732
6,شارع صلاح الدين مسعود,11788,30.1765232,31.4039599
8,شارع صلاح الدين مسعود,11788,30.1764209,31.4039458
10,شارع صلاح الدين مسعود,11788,30.1763317,31.4039336
14,شارع صلاح الدين مسعود,11788,30.1761522,31.4039090
12,شارع صلاح الدين مسعود,11788,30.1762446,31.4039217
16,شارع صلاح الدين مسعود,11788,30.1760861,31.4039000
18,شارع صلاح الدين مسعود,11788,30.1759294,31.4038785
17,شارع عبد العال عبد الرحمن,11788,30.1760164,31.4040542
15,شارع عبد العال عبد الرحمن,11788,30.1760820,31.4040626
13,شارع عبد العال عبد الرحمن,11788,30.1761668,31.4040735
11,شارع عبد العال عبد الرحمن,11788,30.1762361,31.4040825
9,شارع عبد العال عبد الرحمن,11788,30.1763208,31.4040934
7,شارع عبد العال عبد الرحمن,11788,30.1764126,31.4041052
5,شارع عبد العال عبد الرحمن,11788,30.1765045,31.4041170
3,شارع عبد العال عبد الرحمن,11788,30.1765891,31.4041279
16,شارع عبد العال عبد الرحمن,11788,30.1759433,31.4042687
14,شارع عبد العال عبد الرحمن,11788,30.1762065,31.4042915
12,شارع عبد العال عبد الرحمن,11788,30.1763043,31.4043047
10,شارع عبد العال عبد الرحمن,11788,30.1763839,31.4043155
8,شارع عبد العال عبد الرحمن,11788,30.1764500,31.4043244
6,شارع عبد العال عبد الرحمن,11788,30.1765141,31.4043330
4,شارع عبد العال عبد الرحمن,11788,30.1765978,31.4043443
2,شارع عبد العال عبد الرحمن,11788,30.1767236,31.4043613
42,شارع محمد بدوي,11788,30.1759004,31.4051485
5,شارع محمد طلعت,11788,30.1760140,31.4051713
3,شارع محمد طلعت,11788,30.1762042,31.4051351
1,شارع محمد طلعت,11788,30.1761984,31.4052451
4,شارع محمد ولي الدين,11788,30.1766192,31.4053108
12,حارة السكري,11788,30.1818165,31.4080909
10,حارة السكري,11788,30.1816607,31.4080446
8,حارة السكري,11788,30.1815185,31.4080024
6,حارة السكري,11788,30.1813725,31.4080118
4,حارة السكري,11788,30.1812368,31.4079688
5R,شارع صلاح الدين,11788,30.1805447,31.4074646
4,شارع صلاح الدين,11788,30.1805691,31.4073117
9,شارع السيد احمد البدوي,11788,30.1802529,31.4052930
11,شارع السيد احمد البدوي,11788,30.1801635,31.4052645
13,شارع السيد احمد البدوي,11788,30.1800990,31.4052439
15L,شارع السيد احمد البدوي,11788,30.1800235,31.4052198
17,شارع السيد احمد البدوي,11788,30.1799558,31.4051981
31,شارع السيد احمد البدوي,11788,30.1791895,31.4049433
29,شارع السيد احمد البدوي,11788,30.1792637,31.4049648
5A,شارع الجوهر,11788,30.1783954,31.4056377
5,شارع بلال,11788,30.1781948,31.4029008
12,شارع حسن درويش الموان,11788,30.1777330,31.4053115
8,شارع حسن درويش الموان,11788,30.1777019,31.4054864
20,شارع حسن درويش الموان,11788,30.1778010,31.4049278
50,شارع احمد بن حنبل,11788,30.1777658,31.4042514
7,شارع انس ابن مالك,11788,30.1801494,31.4071642
5L,شارع صلاح الدين,11788,30.1803059,31.4073855
2,شارع السد العالى,11788,30.1801746,31.4073542
3,شارع السد العالى,11788,30.1800972,31.4073358
8L,شارع احمد بن حنبل,11788,30.1770748,31.4036988
2,شارع الحج سيد,11788,30.1774342,31.4034641
16,شارع مدارس الحلم المصري,11788,30.1777009,31.4027747
7,شارع محمد عبده,11788,30.1775142,31.4030108
10,شارع محمد عبده,11788,30.1774366,31.4027868
8,شارع محمد عبده,11788,30.1773712,31.4027689
6,شارع محمد عبده,11788,30.1773072,31.4027514
4,شارع محمد عبده,11788,30.1772406,31.4027332
51,شارع احمد بن حنبل,11788,30.1778238,31.4039335
20,شارع بلال,11788,30.1782551,31.4038436
18,شارع بلال,11788,30.1782877,31.4036678
16,شارع بلال,11788,30.1783142,31.4035257
14,شارع بلال,11788,30.1783440,31.4033651
12,شارع بلال,11788,30.1783694,31.4032288
10,شارع بلال,11788,30.1783896,31.4031197
8,شارع بلال,11788,30.1784017,31.4030546
6,شارع بلال,11788,30.1784139,31.4029893
47,شارع احمد بن حنبل,11788,30.1782806,31.4040944
9,شارع الامام الشافعي,11788,30.1789437,31.4037725
11,شارع الامام الشافعي,11788,30.1789209,31.4038987
13,شارع الامام الشافعي,11788,30.1789004,31.4040117
15,شارع الامام الشافعي,11788,30.1788890,31.4040750
17,شارع الامام الشافعي,11788,30.1788765,31.4041440
10,شارع احمد بن حنبل,11788,30.1788023,31.4042392
2,شارع الامام الشافعي,11788,30.1788985,31.4042674
1,شارع الامام الشافعي,11788,30.1790875,31.4043801
2,شارع عمر ابن الخطاب,11788,30.1792463,31.4043707
4,شارع عمر ابن الخطاب,11788,30.1792807,31.4041931
6,شارع عمر ابن الخطاب,11788,30.1792982,31.4041025
8,شارع عمر ابن الخطاب,11788,30.1793144,31.4040186
10,شارع عمر ابن الخطاب,11788,30.1793552,31.4038080
12,شارع عمر ابن الخطاب,11788,30.1793931,31.4036125
14,شارع عمر ابن الخطاب,11788,30.1794050,31.4035509
16,شارع عمر ابن الخطاب,11788,30.1794306,31.4034185
21,شارع عمر ابن الخطاب,11788,30.1796521,31.4034735
19,شارع عمر ابن الخطاب,11788,30.1796342,31.4035722
17,شارع عمر ابن الخطاب,11788,30.1796192,31.4036553
15,شارع عمر ابن الخطاب,11788,30.1796014,31.4037536
13,شارع عمر ابن الخطاب,11788,30.1795776,31.4038851
11,شارع عمر ابن الخطاب,11788,30.1795555,31.4040078
9,شارع عمر ابن الخطاب,11788,30.1795381,31.4041035
7,شارع عمر ابن الخطاب,11788,30.1795241,31.4041810
5,شارع عمر ابن الخطاب,11788,30.1795081,31.4042695
3,شارع عمر ابن الخطاب,11788,30.1794895,31.4043723
1,شارع عمر ابن الخطاب,11788,30.1794666,31.4044994
17,شارع العشرين,11788,30.1796486,31.4043076
15,شارع العشرين,11788,30.1796655,31.4042243
13,شارع العشرين,11788,30.1796818,31.4041436
11R,شارع العشرين,11788,30.1796991,31.4040586
9,شارع العشرين,11788,30.1797172,31.4039693
7,شارع العشرين,11788,30.1797344,31.4038847
5R,شارع العشرين,11788,30.1797502,31.4038064
3R,شارع العشرين,11788,30.1797679,31.4037194
1R,شارع العشرين,11788,30.1797946,31.4035875
11,شارع فام,11788,30.1803569,31.4047998
3,شارع فام,11788,30.1803929,31.4046764
8,شارع فاروق المنشاوي,11788,30.1806630,31.4044511
4,شارع عبيد محمد عبد المجيد,11788,30.1875177,31.4090283
17,شارع محمود جمعه,11788,30.1848492,31.4075786
19,شارع محمود جمعه,11788,30.1848573,31.4075115
12,شارع المعز لدين الله,11788,30.1860675,31.4063247
12,شارع التوحيد,11788,30.1866657,31.4063622
14,شارع فاروق قمحاوى,11788,30.1870158,31.4058204
18,شارع محمود راضي,11788,30.1870378,31.4058968
20,شارع محمود راضي,11788,30.1870314,31.4059921
22,شارع محمود راضي,11788,30.1870251,31.4060873
24,شارع محمود راضي,11788,30.1870187,31.4061825
26,شارع محمود راضي,11788,30.1870123,31.4062777
16,شارع محمود راضي,11788,30.1870761,31.4058231
6R,شارع التوحيد,11788,30.1868802,31.4059988
8,شارع التوحيد,11788,30.1868744,31.4060833
10R,شارع التوحيد,11788,30.1868686,31.4061677
12R,شارع التوحيد,11788,30.1868628,31.4062522
28,شارع المعز لدين الله,11788,30.1870309,31.4063971
30,شارع المعز لدين الله,11788,30.1871398,31.4064065
32,شارع المعز لدين الله,11788,30.1872347,31.4064147
34,شارع المعز لدين الله,11788,30.1873180,31.4064219
36,شارع المعز لدين الله,11788,30.1874177,31.4064305
38,شارع المعز لدين الله,11788,30.1875057,31.4064382
40,شارع المعز لدين الله,11788,30.1876198,31.4064480
18,شارع المعز لدين الله,11788,30.1878226,31.4064561
8,شارع المعز لدين الله,11788,30.1887013,31.4067176
57,شارع المعز لدين الله,11788,30.1882780,31.4066875
51,شارع المعز لدين الله,11788,30.1878644,31.4066581
53,شارع المعز لدين الله,11788,30.1879398,31.4066634
41,شارع المعز لدين الله,11788,30.1874447,31.4066282
1,شارع عمر ابن الخطاب 2,11788,30.1891406,31.4068960
3L,شارع عمر ابن الخطاب 2,11788,30.1890363,31.4068884
5L,شارع عمر ابن الخطاب 2,11788,30.1889610,31.4068830
7L,شارع عمر ابن الخطاب 2,11788,30.1889021,31.4068787
9L,شارع عمر ابن الخطاب 2,11788,30.1888313,31.4068736
11L,شارع عمر ابن الخطاب 2,11788,30.1887628,31.4068687
13L,شارع عمر ابن الخطاب 2,11788,30.1886884,31.4068633
15,شارع عمر ابن الخطاب 2,11788,30.1885751,31.4068551
17,شارع عمر ابن الخطاب 2,11788,30.1884950,31.4068493
19,شارع عمر ابن الخطاب 2,11788,30.1884262,31.4068443
21,شارع عمر ابن الخطاب 2,11788,30.1883523,31.4068390
23,شارع عمر ابن الخطاب 2,11788,30.1882386,31.4068308
25,شارع عمر ابن الخطاب 2,11788,30.1880148,31.4068146
29,شارع عمر ابن الخطاب 2,11788,30.1878469,31.4068025
27,شارع عمر ابن الخطاب 2,11788,30.1879059,31.4068067
31,شارع عمر ابن الخطاب 2,11788,30.1877994,31.4067990
33,شارع عمر ابن الخطاب 2,11788,30.1876988,31.4067918
39,شارع عمر ابن الخطاب 2,11788,30.1875007,31.4067775
37,شارع عمر ابن الخطاب 2,11788,30.1875619,31.4067819
35,شارع عمر ابن الخطاب 2,11788,30.1876360,31.4067872
41,شارع عمر ابن الخطاب 2,11788,30.1874378,31.4067729
43,شارع عمر ابن الخطاب 2,11788,30.1873381,31.4067657
45,شارع عمر ابن الخطاب 2,11788,30.1872412,31.4067587
47,شارع عمر ابن الخطاب 2,11788,30.1870880,31.4067476
49,شارع عمر ابن الخطاب 2,11788,30.1868568,31.4067309
55,شارع عمر ابن الخطاب 2,11788,30.1866073,31.4067129
57,شارع عمر ابن الخطاب 2,11788,30.1865137,31.4067061
59,شارع عمر ابن الخطاب 2,11788,30.1864291,31.4067000
61,شارع عمر ابن الخطاب 2,11788,30.1863676,31.4066956
63,شارع عمر ابن الخطاب 2,11788,30.1862901,31.4066900
51,شارع عمر ابن الخطاب 2,11788,30.1867986,31.4067267
18L,شارع عمر ابن الخطاب 2,11788,30.1860682,31.4066740
16L,شارع عمر ابن الخطاب 2,11788,30.1859640,31.4066664
14L,شارع عمر ابن الخطاب 2,11788,30.1858830,31.4066606
12L,شارع عمر ابن الخطاب 2,11788,30.1858088,31.4066552
10L,شارع عمر ابن الخطاب 2,11788,30.1857011,31.4066474
8L,شارع عمر ابن الخطاب 2,11788,30.1856442,31.4066433
6L,شارع عمر ابن الخطاب 2,11788,30.1855957,31.4066398
4L,شارع عمر ابن الخطاب 2,11788,30.1855401,31.4066358
39,شارع المعز لدين الله,11788,30.1870694,31.4066015
27,شارع المعز لدين الله,11788,30.1866859,31.4065742
21,شارع المعز لدين الله,11788,30.1864857,31.4065600
23,شارع المعز لدين الله,11788,30.1865575,31.4065651
25,شارع المعز لدين الله,11788,30.1866260,31.4065700
29,شارع المعز لدين الله,11788,30.1867415,31.4065782
53,شارع عمر ابن الخطاب 2,11788,30.1867141,31.4067206
31,شارع المعز لدين الله,11788,30.1868030,31.4065826
33,شارع المعز لدين الله,11788,30.1868632,31.4065869
35,شارع المعز لدين الله,11788,30.1869247,31.4065912
37,شارع المعز لدين الله,11788,30.1869976,31.4065964
19,شارع المعز لدين الله,11788,30.1864103,31.4065546
17,شارع المعز لدين الله,11788,30.1863176,31.4065481
15,شارع المعز لدين الله,11788,30.1860263,31.4065273
13,شارع المعز لدين الله,11788,30.1859649,31.4065230
11,شارع المعز لدين الله,11788,30.1858790,31.4065169
9,شارع المعز لدين الله,11788,30.1857806,31.4065099
7,شارع المعز لدين الله,11788,30.1857124,31.4065050
5,شارع المعز لدين الله,11788,30.1856476,31.4065004
3,شارع المعز لدين الله,11788,30.1855551,31.4064938
13R,شارع عمر ابن الخطاب 2,11788,30.1861069,31.4068732
11R,شارع عمر ابن الخطاب 2,11788,30.1860153,31.4068676
9R,شارع عمر ابن الخطاب 2,11788,30.1858853,31.4068598
7R,شارع عمر ابن الخطاب 2,11788,30.1857622,31.4068524
5R,شارع عمر ابن الخطاب 2,11788,30.1856917,31.4068482
3R,شارع عمر ابن الخطاب 2,11788,30.1856166,31.4068437
4,شارع سيف الدين,11788,30.1856201,31.4069939
6,شارع سيف الدين,11788,30.1857000,31.4069985
8,شارع سيف الدين,11788,30.1857917,31.4070039
10,شارع سيف الدين,11788,30.1858961,31.4070099
12,شارع سيف الدين,11788,30.1859936,31.4070156
14,شارع سيف الدين,11788,30.1861293,31.4070235
16,شارع سلسله الانبياء,11788,30.1863146,31.4070343
18,شارع سلسله الانبياء,11788,30.1864083,31.4070398
20L,شارع سلسله الانبياء,11788,30.1865035,31.4070453
22,شارع سلسله الانبياء,11788,30.1865998,31.4070509
24,شارع سلسله الانبياء,11788,30.1866949,31.4070565
26,شارع سلسله الانبياء,11788,30.1867715,31.4070609
28,شارع سلسله الانبياء,11788,30.1868780,31.4070671
30,شارع سلسله الانبياء,11788,30.1869323,31.4070703
60,شارع عمر ابن الخطاب 2,11788,30.1866046,31.4069070
64,شارع عمر ابن الخطاب 2,11788,30.1863805,31.4068906
62,شارع عمر ابن الخطاب 2,11788,30.1864943,31.4068989
58,شارع عمر ابن الخطاب 2,11788,30.1867281,31.4069161
56,شارع عمر ابن الخطاب 2,11788,30.1868007,31.4069214
54,شارع عمر ابن الخطاب 2,11788,30.1868584,31.4069256
52,شارع عمر ابن الخطاب 2,11788,30.1869315,31.4069310
50,شارع عمر ابن الخطاب 2,11788,30.1870497,31.4069397
48,شارع عمر ابن الخطاب 2,11788,30.1872075,31.4069610
44,شارع عمر ابن الخطاب 2,11788,30.1873589,31.4069705
46,شارع عمر ابن الخطاب 2,11788,30.1872815,31.4069657
42,شارع عمر ابن الخطاب 2,11788,30.1874340,31.4069752
29L,شارع سلسله الانبياء,11788,30.1872879,31.4071139
31L,شارع سلسله الانبياء,11788,30.1872198,31.4071092
27L,شارع سلسله الانبياء,11788,30.1873715,31.4071196
19L,شارع سلسله الانبياء,11788,30.1882391,31.4071794
5,شارع سلسله الانبياء,11788,30.1888416,31.4072209
25L,شارع سلسله الانبياء,11788,30.1874908,31.4071279
23L,شارع سلسله الانبياء,11788,30.1879954,31.4071626
21L,شارع سلسله الانبياء,11788,30.1880697,31.4071678
17L,شارع سلسله الانبياء,11788,30.1883134,31.4071845
15,شارع سلسله الانبياء,11788,30.1883848,31.4071895
13,شارع سلسله الانبياء,11788,30.1884922,31.4071969
11,شارع سلسله الانبياء,11788,30.1885884,31.4072035
9,شارع سلسله الانبياء,11788,30.1886496,31.4072077
7,شارع سلسله الانبياء,11788,30.1887643,31.4072156
3,شارع سلسله الانبياء,11788,30.1889134,31.4072259
26,شارع عمر ابن الخطاب 2,11788,30.1880537,31.4070141
16R,شارع عمر ابن الخطاب 2,11788,30.1885477,31.4070495
18R,شارع عمر ابن الخطاب 2,11788,30.1884527,31.4070425
22,شارع عمر ابن الخطاب 2,11788,30.1882836,31.4070320
20,شارع عمر ابن الخطاب 2,11788,30.1883530,31.4070352
14R,شارع عمر ابن الخطاب 2,11788,30.1886494,31.4070569
12R,شارع عمر ابن الخطاب 2,11788,30.1887211,31.4070622
10R,شارع عمر ابن الخطاب 2,11788,30.1887909,31.4070673
8R,شارع عمر ابن الخطاب 2,11788,30.1888742,31.4070734
6R,شارع عمر ابن الخطاب 2,11788,30.1889610,31.4070798
4R,شارع عمر ابن الخطاب 2,11788,30.1890467,31.4070861
2,شارع عمر ابن الخطاب 2,11788,30.1891430,31.4070931
11L,شارع عثمان ابن عفان,11788,30.1861278,31.4073801
1,شارع سيف الدين,11788,30.1854079,31.4071964
3,شارع سيف الدين,11788,30.1855065,31.4072032
5,شارع سيف الدين,11788,30.1856084,31.4072102
7,شارع سيف الدين,11788,30.1857163,31.4072177
9,شارع سيف الدين,11788,30.1858115,31.4072243
11,شارع سيف الدين,11788,30.1859110,31.4072311
13,شارع سيف الدين,11788,30.1859736,31.4072355
15,شارع سيف الدين,11788,30.1860824,31.4072430
33,شارع سلسله الانبياء,11788,30.1869404,31.4073023
31R,شارع سلسله الانبياء,11788,30.1868684,31.4072973
29R,شارع سلسله الانبياء,11788,30.1867999,31.4072926
27R,شارع سلسله الانبياء,11788,30.1867160,31.4072868
25R,شارع سلسله الانبياء,11788,30.1866337,31.4072811
23R,شارع سلسله الانبياء,11788,30.1865691,31.4072766
21R,شارع سلسله الانبياء,11788,30.1865136,31.4072728
19R,شارع سلسله الانبياء,11788,30.1864301,31.4072670
17R,شارع سلسله الانبياء,11788,30.1863410,31.4072609
12A,شارع عثمان ابن عفان,11788,30.1862716,31.4073922
8,شارع عثمان ابن عفان,11788,30.1876862,31.4074922
28,شارع عثمان ابن عفان,11788,30.1875873,31.4074847
57,شارع سلسله الانبياء,11788,30.1879107,31.4073627
41,شارع سلسله الانبياء,11788,30.1875560,31.4073385
20R,شارع سلسله الانبياء,11788,30.1885066,31.4074177
15`,شارع عثمان ابن عفان,11788,30.1878707,31.4077073
11`,شارع عثمان ابن عفان,11788,30.1876732,31.4076932
5`,شارع عثمان ابن عفان,11788,30.1874031,31.4076738
9`,شارع عثمان ابن عفان,11788,30.1875539,31.4076846
7`,شارع عثمان ابن عفان,11788,30.1874705,31.4076787
13`,شارع عثمان ابن عفان,11788,30.1877791,31.4077008
17`,شارع عثمان ابن عفان,11788,30.1879442,31.4077126
20,شارع عثمان ابن عفان,11788,30.1880394,31.4077194
26,شارع عمر ابن الخطاب,11788,30.1868245,31.4077771
24,شارع عمر ابن الخطاب,11788,30.1867434,31.4077717
22,شارع عمر ابن الخطاب,11788,30.1866391,31.4077647
20,شارع عمر ابن الخطاب,11788,30.1865535,31.4077589
18,شارع عمر ابن الخطاب,11788,30.1864768,31.4077537
16,شارع عمر ابن الخطاب,11788,30.1864060,31.4077489
14,شارع عمر ابن الخطاب,11788,30.1863295,31.4077437
21,شارع عثمان ابن عفان,11788,30.1866238,31.4076256
23,شارع عثمان ابن عفان,11788,30.1866992,31.4076309
25,شارع عثمان ابن عفان,11788,30.1868222,31.4076395
27,شارع عثمان ابن عفان,11788,30.1869300,31.4076470
29,شارع عثمان ابن عفان,11788,30.1870355,31.4076577
19,شارع عثمان ابن عفان,11788,30.1865367,31.4076196
17,شارع عثمان ابن عفان,11788,30.1864754,31.4076153
15,شارع عثمان ابن عفان,11788,30.1863783,31.4076085
13,شارع عثمان ابن عفان,11788,30.1862565,31.4076000
11,شارع عثمان ابن عفان,11788,30.1861219,31.4075906
12,شارع عمر ابن الخطاب,11788,30.1859758,31.4077198
10L,شارع عمر ابن الخطاب,11788,30.1858806,31.4077133
8L,شارع عمر ابن الخطاب,11788,30.1857845,31.4077068
6L,شارع عمر ابن الخطاب,11788,30.1856839,31.4077000
4,شارع عمر ابن الخطاب,11788,30.1856073,31.4076948
2,شارع عمر ابن الخطاب,11788,30.1855343,31.4076899
9,شارع عثمان ابن عفان,11788,30.1859712,31.4075801
7,شارع عثمان ابن عفان,11788,30.1858737,31.4075733
5,شارع عثمان ابن عفان,11788,30.1857984,31.4075681
3,شارع عثمان ابن عفان,11788,30.1856790,31.4075598
1,شارع عثمان ابن عفان,11788,30.1855644,31.4075518
9R,شارع عمر ابن الخطاب,11788,30.1858415,31.4079059
37,شارع عمر ابن الخطاب,11788,30.1875305,31.4080332
18L,شارع ابو بكر الصديق,11788,30.1863991,31.4080949
3,شارع ابو بكر الصديق,11788,30.1855691,31.4080453
1,شارع ابو بكر الصديق,11788,30.1854694,31.4080386
13,شارع عمر ابن الخطاب,11788,30.1883790,31.4078978
11,شارع عمر ابن الخطاب,11788,30.1884890,31.4079039
9L,شارع عمر ابن الخطاب,11788,30.1885819,31.4079091
7A,شارع عمر ابن الخطاب,11788,30.1886491,31.4079129
5A,شارع عمر ابن الخطاب,11788,30.1887059,31.4079161
3,شارع عمر ابن الخطاب,11788,30.1887616,31.4079192
14`,شارع خالد نصار,11788,30.1684525,31.4021620
16`,شارع خالد نصار,11788,30.1684759,31.4020816
4`,شارع خالد نصار,11788,30.1683248,31.4026017
23,شارع عياد,11788,30.1680212,31.4034963
21,شارع عياد,11788,30.1679982,31.4036354
19,شارع عياد,11788,30.1679844,31.4037184
17,شارع عياد,11788,30.1679716,31.4037961
15,شارع عياد,11788,30.1679588,31.4038730
13,شارع عياد,11788,30.1679426,31.4039714
11,شارع عياد,11788,30.1679275,31.4040626
9,شارع عياد,11788,30.1679130,31.4041502
7,شارع عياد,11788,30.1679014,31.4042204
5,شارع عياد,11788,30.1678900,31.4042889
3,شارع عياد,11788,30.1678436,31.4043894
1,شارع عياد,11788,30.1678309,31.4044619
32,شارع خالد نصار,11788,30.1682332,31.4031650
30,شارع خالد نصار,11788,30.1682212,31.4032428
28,شارع خالد نصار,11788,30.1682037,31.4033562
26,شارع خالد نصار,11788,30.1681876,31.4034608
24,شارع خالد نصار,11788,30.1681751,31.4035416
22,شارع خالد نصار,11788,30.1681653,31.4036054
20,شارع خالد نصار,11788,30.1681538,31.4036799
18,شارع خالد نصار,11788,30.1681390,31.4037755
16,شارع خالد نصار,11788,30.1681236,31.4038752
14,شارع خالد نصار,11788,30.1681123,31.4039485
12,شارع خالد نصار,11788,30.1681038,31.4040037
10,شارع خالد نصار,11788,30.1680958,31.4040551
8,شارع خالد نصار,11788,30.1680847,31.4041272
6,شارع خالد نصار,11788,30.1680681,31.4042348
4,شارع خالد نصار,11788,30.1680515,31.4043426
2,شارع خالد نصار,11788,30.1680326,31.4044645
7`,شارع خالد نصار,11788,30.1685416,31.4025514
5`,شارع خالد نصار,11788,30.1685199,31.4026421
3`,شارع خالد نصار,11788,30.1685045,31.4027064
15`,شارع خالد نصار,11788,30.1686344,31.4021632
13`,شارع خالد نصار,11788,30.1686137,31.4022499
11`,شارع خالد نصار,11788,30.1685936,31.4023340
9`,شارع خالد نصار,11788,30.1685670,31.4024450
10,شارع المدينه المنوره,11788,30.1671355,31.4007513
8,شارع المدينه المنوره,11788,30.1671617,31.4006643
6,شارع المدينه المنوره,11788,30.1671900,31.4005707
4,شارع المدينه المنوره,11788,30.1672276,31.4004460
2,شارع المدينه المنوره,11788,30.1672558,31.4003527
6,شارع حماد سليمان الفرعان,11788,30.1673451,31.4004332
12,شارع المدينه المنوره,11788,30.1671130,31.4008258
14,شارع المدينه المنوره,11788,30.1670964,31.4008807
16,شارع المدينه المنوره,11788,30.1670827,31.4009262
18,شارع المدينه المنوره,11788,30.1670715,31.4009630
20,شارع المدينه المنوره,11788,30.1670517,31.4010286
5,شارع محمد محمود,11788,30.1655595,31.3992450
2,شارع سعيد بدر,11788,30.1657692,31.3995387
3,شارع سعيد بدر,11788,30.1657172,31.3996486
8,شارع سعيد بدر,11788,30.1659038,31.3992544
16,شارع موسي سليم,11788,30.1657902,31.4010005
14,شارع موسي سليم,11788,30.1657821,31.4009482
7,شارع موسي سليم,11788,30.1656082,31.4006142
23,شارع عرب الفرعان,11788,30.1666842,31.4012191
21,شارع عرب الفرعان,11788,30.1665532,31.4011078
19,شارع عرب الفرعان,11788,30.1664871,31.4010595
17,شارع عرب الفرعان,11788,30.1664418,31.4010233
15,شارع عرب الفرعان,11788,30.1663908,31.4009911
13,شارع عرب الفرعان,11788,30.1663329,31.4009468
11,شارع عرب الفرعان,11788,30.1662227,31.4008462
9,شارع عرب الفرعان,11788,30.1660691,31.4006806
7,شارع عرب الفرعان,11788,30.1660169,31.4006236
5,شارع عرب الفرعان,11788,30.1659717,31.4005753
3,شارع عرب الفرعان,11788,30.1659183,31.4005210
4,شارع عرب الفرعان,11788,30.1657931,31.4003929
8,شارع علي بابا,11788,30.1661118,31.4001896
6,شارع علي بابا,11788,30.1660502,31.4001463
4,شارع علي بابا,11788,30.1660004,31.4000992
1,شارع علي بابا,11788,30.1659479,31.4000331
10,شارع محمد المدني,11788,30.1663514,31.3994984
8,شارع محمد المدني,11788,30.1663835,31.3994097
6,شارع محمد المدني,11788,30.1664058,31.3993478
4,شارع محمد المدني,11788,30.1664265,31.3992904
2,شارع محمد المدني,11788,30.1664546,31.3992128
18,شارع جادو,11788,30.1665091,31.3992517
3,شارع جادو,11788,30.1665172,31.3994488
1,شارع جادو,11788,30.1665416,31.3993885
4L,شارع جادو,11788,30.1663989,31.3998002
3`,شارع جادو,11788,30.1663734,31.3998874
17,شارع جادو,11788,30.1660928,31.4005056
15,شارع جادو,11788,30.1661392,31.4004292
5,شارع جادو,11788,30.1662853,31.4001314
7L,شارع جادو,11788,30.1662621,31.4001797
9,شارع جادو,11788,30.1662111,31.4002240
11,شارع جادو,11788,30.1661844,31.4002763
13,شارع جادو,11788,30.1661844,31.4003648
4`,شارع جادو,11788,30.1662981,31.4003836
18,شارع عرب الفرعان,11788,30.1663960,31.4007689
10,شارع عرب الفرعان,11788,30.1661671,31.4005297
12,شارع عرب الفرعان,11788,30.1662268,31.4005922
14,شارع عرب الفرعان,11788,30.1662835,31.4006514
16,شارع عرب الفرعان,11788,30.1663467,31.4007173
20,شارع عرب الفرعان,11788,30.1664264,31.4008006
22,شارع عرب الفرعان,11788,30.1664801,31.4008567
24,شارع عرب الفرعان,11788,30.1665497,31.4009294
11,شارع القرعان,11788,30.1665694,31.4007913
5,شارع المدينه المنوره,11788,30.1670596,31.4004798
13,شارع المدينه المنوره,11788,30.1669625,31.4007550
7,شارع المدينه المنوره,11788,30.1670316,31.4005592
9,شارع المدينه المنوره,11788,30.1670091,31.4006227
11,شارع المدينه المنوره,11788,30.1669845,31.4006925
3,شارع المدينه المنوره,11788,30.1671088,31.4003403
1,شارع المدينه المنوره,11788,30.1671375,31.4002588
7R,شارع جادو,11788,30.1665914,31.3997103
2,شارع جادو,11788,30.1664766,31.3999262
4R,شارع جادو,11788,30.1664237,31.4000676
6,شارع جادو,11788,30.1663711,31.4002079
6,شارع الامل,11788,30.1670112,31.3997653
8,شارع الامل,11788,30.1670436,31.3996714
7,شارع الامل,11788,30.1670935,31.3995400
7,شارع سليم مرزوق,11788,30.1672164,31.3995454
44,شارع مصطفي الشعراوي,11788,30.1675236,31.3997224
1R,شارع سليم مرزوق,11788,30.1673717,31.3995360
3,شارع سليم مرزوق,11788,30.1674587,31.3995802
4,شارع سليم مرزوق,11788,30.1674923,31.3994783
2,شارع سليم مرزوق,11788,30.1673973,31.3994300
10,شارع عكاشه,11788,30.1671085,31.3990854
13,شارع ابو قطور,11788,30.1669694,31.3984711
9,شارع عكاشه,11788,30.1673926,31.3979803
13,شارع عكاشه,11788,30.1674506,31.3978958
1,شارع عكاشه,11788,30.1675508,31.3971678
6,شارع الصديق,11788,30.1678019,31.3971233
2,شارع عكاشه,11788,30.1676408,31.3969718
13,شارع سليم مرزوق,11788,30.1674738,31.3983907
31,شارع سليم مرزوق,11788,30.1675793,31.3988976
19,شارع سليم مرزوق,11788,30.1676060,31.3986616
28,شارع سليم مرزوق,11788,30.1676941,31.3984752
16,شارع سليم مرزوق,11788,30.1680176,31.3976893
11,شارع شمران,11788,30.1683550,31.3972910
3,شارع الصديق,11788,30.1685242,31.3975766
1,شارع الصديق,11788,30.1686866,31.3976839
10,شارع المطبعه,11788,30.1680071,31.4001288
2,شارع المطبعه,11788,30.1677463,31.4000174
8,شارع المطبعه,11788,30.1679505,31.4001079
6,شارع المطبعه,11788,30.1678989,31.4000850
4,شارع المطبعه,11788,30.1678270,31.4000532
7,شارع المطبعه,11788,30.1679468,31.4002629
5,شارع المطبعه,11788,30.1679100,31.4002505
3,شارع المطبعه,11788,30.1678358,31.4002255
1,شارع المطبعه,11788,30.1677752,31.4002052
18,شارع حسين القرش,11788,30.1685034,31.4005284
6,شارع حسين القرش,11788,30.1678843,31.4003484
4,شارع حسين القرش,11788,30.1677741,31.4003203
2,شارع حسين القرش,11788,30.1676836,31.4002857
8,شارع حسين القرش,11788,30.1679839,31.4003447
10,شارع حسين القرش,11788,30.1681008,31.4003860
12,شارع حسين القرش,11788,30.1682135,31.4004259
14,شارع حسين القرش,11788,30.1683071,31.4004590
16,شارع حسين القرش,11788,30.1684035,31.4004931
13,شارع حسين القرش,11788,30.1682985,31.4006783
15,شارع حسين القرش,11788,30.1683936,31.4007094
17,شارع حسين القرش,11788,30.1684696,31.4007342
19,شارع حسين القرش,11788,30.1685335,31.4007550
11,شارع حسين القرش,11788,30.1681506,31.4006300
9,شارع حسين القرش,11788,30.1680498,31.4005971
7,شارع حسين القرش,11788,30.1679769,31.4005733
5,شارع حسين القرش,11788,30.1678817,31.4005422
3,شارع حسين القرش,11788,30.1677694,31.4005056
7,شارع السيد جمال,11788,30.1681719,31.4008130
5,شارع السيد جمال,11788,30.1682838,31.4008499
3,شارع السيد جمال,11788,30.1683964,31.4008869
1,شارع السيد جمال,11788,30.1685011,31.4009213
9,شارع السيد جمال,11788,30.1680798,31.4007827
11,شارع السيد جمال,11788,30.1680053,31.4007582
13,شارع السيد جمال,11788,30.1679000,31.4007236
15,شارع السيد جمال,11788,30.1678313,31.4007010
17,شارع السيد جمال,11788,30.1677318,31.4006682
19,شارع السيد جمال,11788,30.1675851,31.4006612
2,شارع مصطفي الشعراوي,11788,30.1672059,31.4014591
5,شارع صالح,11788,30.1673434,31.4016306
7,شارع صالح,11788,30.1673924,31.4015629
9,شارع صالح,11788,30.1674297,31.4015114
3,شارع صالح,11788,30.1672872,31.4017082
1,شارع صالح,11788,30.1672199,31.4018011
10,شارع معاذ ابن جبل,11788,30.1676848,31.4011748
8,شارع معاذ ابن جبل,11788,30.1676109,31.4011403
6,شارع معاذ ابن جبل,11788,30.1675332,31.4011041
4,شارع معاذ ابن جبل,11788,30.1674738,31.4010763
2,شارع معاذ ابن جبل,11788,30.1674088,31.4010461
18,شارع السيد جمال,11788,30.1677532,31.4009093
16,شارع السيد جمال,11788,30.1678361,31.4009387
14,شارع السيد جمال,11788,30.1678915,31.4009584
12,شارع السيد جمال,11788,30.1679714,31.4009869
10,شارع السيد جمال,11788,30.1680527,31.4010158
8,شارع السيد جمال,11788,30.1681510,31.4010507
6,شارع السيد جمال,11788,30.1682408,31.4010827
4,شارع السيد جمال,11788,30.1683211,31.4011112
2,شارع السيد جمال,11788,30.1684245,31.4011480
30,شارع ابو حماده,11788,30.1669135,31.4034220
3,شارع عزت خليل,11788,30.1672778,31.4034681
4,شارع عزت خليل,11788,30.1673694,31.4036679
2,شارع عزت خليل,11788,30.1672257,31.4036384
18,شارع عياد,11788,30.1677814,31.4037105
66,شارع عياد,11788,30.1676941,31.4041977
10,شارع عياد,11788,30.1677222,31.4040408
12,شارع عياد,11788,30.1677359,31.4039644
14,شارع عياد,11788,30.1677495,31.4038886
16,شارع عياد,11788,30.1677621,31.4038181
20,شارع عياد,11788,30.1678091,31.4035559
22,شارع عياد,11788,30.1678297,31.4034408
24,شارع عياد,11788,30.1678439,31.4033620
26,شارع عياد,11788,30.1678639,31.4032499
28,شارع عياد,11788,30.1678824,31.4031466
30,شارع عياد,11788,30.1678961,31.4030704
32,شارع عياد,11788,30.1679179,31.4029491
34,شارع عياد,11788,30.1679677,31.4028083
8,شارع عوف الاصيل,11788,30.1678170,31.4024971
19,شارع عوف الاصيل,11788,30.1678282,31.4024247
21,شارع عوف الاصيل,11788,30.1678403,31.4023467
23,شارع عوف الاصيل,11788,30.1678516,31.4022738
25,شارع عوف الاصيل,11788,30.1678634,31.4021981
6,شارع مكه,11788,30.1680350,31.4021002
3,شارع علي بدر,11788,30.1680013,31.4019191
8,شارع علي بدر,11788,30.1682379,31.4018252
6,شارع علي بدر,11788,30.1681590,31.4017582
4,شارع علي بدر,11788,30.1680743,31.4017317
2,شارع علي بدر,11788,30.1680176,31.4017139
9,شارع عوف الاصيل,11788,30.1680384,31.4015222
6,حارة الصحابه,11788,30.1684129,31.3999470
2,شارع محمود صادق,11788,30.1682993,31.3993268
11,شارع اسامه الشاويش,11788,30.1687399,31.3998458
7,شارع اسامه الشاويش,11788,30.1686020,31.3997748
9,شارع اسامه الشاويش,11788,30.1686689,31.3998092
5,شارع اسامه الشاويش,11788,30.1685335,31.3997395
3,شارع اسامه الشاويش,11788,30.1684322,31.3996874
1,شارع اسامه الشاويش,11788,30.1683492,31.3996446
3,شارع محمود صادق,11788,30.1683990,31.3995454
15,شارع محمود صادق,11788,30.1688153,31.3997667
13,شارع محمود صادق,11788,30.1687541,31.3997342
11,شارع محمود صادق,11788,30.1686919,31.3997011
9,شارع محمود صادق,11788,30.1686236,31.3996648
7,شارع محمود صادق,11788,30.1685700,31.3996362
5,شارع محمود صادق,11788,30.1684906,31.3995941
18,شارع محمود صادق,11788,30.1688327,31.3996164
16,شارع محمود صادق,11788,30.1687284,31.3995598
14,شارع محمود صادق,11788,30.1686585,31.3995219
12,شارع محمود صادق,11788,30.1686018,31.3994910
10,شارع محمود صادق,11788,30.1685558,31.3994661
8,شارع محمود صادق,11788,30.1685079,31.3994401
6,شارع محمود صادق,11788,30.1684323,31.3993990
4,شارع محمود صادق,11788,30.1683834,31.3993725
10,شارع محمد صابر,11788,30.1686564,31.3994002
8,شارع محمد صابر,11788,30.1687108,31.3994298
6,شارع محمد صابر,11788,30.1687546,31.3994537
4,شارع محمد صابر,11788,30.1688039,31.3994806
12,شارع محمد صابر,11788,30.1685802,31.3993587
14,شارع محمد صابر,11788,30.1685140,31.3993225
2,شارع محمد صابر,11788,30.1688709,31.3995172
16,شارع محمد صابر,11788,30.1684431,31.3992839
9,شارع محمد صابر,11788,30.1685998,31.3991992
3,شارع محمد صابر,11788,30.1688434,31.3993434
5,شارع محمد صابر,11788,30.1687774,31.3993043
7,شارع محمد صابر,11788,30.1687049,31.3992614
11,شارع محمد صابر,11788,30.1685208,31.3991524
1,شارع محمد صابر,11788,30.1689150,31.3993858
4`,شارع محمود الليثي,11788,30.1687909,31.3991873
8`,شارع محمود الليثي,11788,30.1686732,31.3991220
6`,شارع محمود الليثي,11788,30.1687274,31.3991520
10`,شارع محمود الليثي,11788,30.1686232,31.3990942
20,شارع محمود الليثي,11788,30.1683898,31.3989647
9,شارع محمود الليثي,11788,30.1687786,31.3990146
3,شارع محمود الليثي,11788,30.1689511,31.3991118
5,شارع محمود الليثي,11788,30.1688933,31.3990792
7,شارع محمود الليثي,11788,30.1688383,31.3990482
11,شارع محمود الليثي,11788,30.1687180,31.3989805
13,شارع محمود الليثي,11788,30.1686578,31.3989466
15,شارع محمود الليثي,11788,30.1686043,31.3989164
1,شارع محمود الليثي,11788,30.1690043,31.3991417
19,شارع عبد العزيز,11788,30.1684802,31.3987018
1`,شارع عبد العزيز,11788,30.1688484,31.3989202
1R,شارع عبد العزيز,11788,30.1688918,31.3989459
3R,شارع عبد العزيز,11788,30.1688018,31.3988925
1L,شارع عبد العزيز,11788,30.1690877,31.3988534
11,شارع عبد العزيز,11788,30.1685590,31.3985395
9,شارع عبد العزيز,11788,30.1686495,31.3985932
7,شارع عبد العزيز,11788,30.1687329,31.3986428
5,شارع عبد العزيز,11788,30.1688344,31.3987030
3L,شارع عبد العزيز,11788,30.1689867,31.3987934
13,شارع محمد عبد المنعم,11788,30.1691411,31.3986763
11,شارع محمد عبد المنعم,11788,30.1690678,31.3986262
9,شارع محمد عبد المنعم,11788,30.1690131,31.3985887
7,شارع محمد عبد المنعم,11788,30.1689496,31.3985452
5,شارع محمد عبد المنعم,11788,30.1688870,31.3985023
3,شارع محمد عبد المنعم,11788,30.1687763,31.3984265
1,شارع محمد عبد المنعم,11788,30.1686437,31.3983357
2,شارع محمد عبد المنعم,11788,30.1687225,31.3981640
18,شارع محمد عبد المنعم,11788,30.1692918,31.3985476
16,شارع محمد عبد المنعم,11788,30.1692304,31.3984765
14,شارع محمد عبد المنعم,11788,30.1691598,31.3984331
12,شارع محمد عبد المنعم,11788,30.1691010,31.3983969
10,شارع محمد عبد المنعم,11788,30.1690395,31.3983591
8,شارع محمد عبد المنعم,11788,30.1689559,31.3983076
6,شارع محمد عبد المنعم,11788,30.1688781,31.3982598
4,شارع محمد عبد المنعم,11788,30.1688117,31.3982189
11,شارع الصادق الامين,11788,30.1689066,31.3981093
13,شارع الصادق الامين,11788,30.1687944,31.3980380
9,شارع الصادق الامين,11788,30.1689887,31.3981616
7,شارع الصادق الامين,11788,30.1690508,31.3982011
5,شارع الصادق الامين,11788,30.1691409,31.3982584
3,شارع الصادق الامين,11788,30.1692334,31.3983173
1,شارع الصادق الامين,11788,30.1693382,31.3983840
14,شارع الصادق الامين,11788,30.1689022,31.3978596
12,شارع الصادق الامين,11788,30.1690449,31.3979479
10,شارع الصادق الامين,11788,30.1690990,31.3979814
8,شارع الصادق الامين,11788,30.1691574,31.3980176
6,شارع الصادق الامين,11788,30.1692183,31.3980553
4,شارع الصادق الامين,11788,30.1692964,31.3981037
2,شارع الصادق الامين,11788,30.1694112,31.3981748
20`,شارع خالد نصار,11788,30.1685619,31.4017856
26`,شارع خالد نصار,11788,30.1686518,31.4014761
24`,شارع خالد نصار,11788,30.1686268,31.4015621
22`,شارع خالد نصار,11788,30.1685996,31.4016558
28`,شارع خالد نصار,11788,30.1686703,31.4014122
6`,شارع خالد نصار,11788,30.1683514,31.4025103
8`,شارع خالد نصار,11788,30.1683733,31.4024349
10`,شارع خالد نصار,11788,30.1683882,31.4023834
12`,شارع خالد نصار,11788,30.1684193,31.4022764
1,شارع السيدة عائشة,11788,30.1684547,31.4027922
3,شارع السيدة عائشة,11788,30.1685273,31.4028247
5,شارع السيدة عائشة,11788,30.1685897,31.4028526
7,شارع السيدة عائشة,11788,30.1686494,31.4028793
9,شارع السيدة عائشة,11788,30.1686972,31.4029007
11,شارع السيدة عائشة,11788,30.1687932,31.4029437
18`,شارع خالد نصار,11788,30.1685187,31.4019344
89,شارع شافي الصادق,11788,30.1691411,31.4013626
90,شارع شافي الصادق,11788,30.1690840,31.4013298
91,شارع شافي الصادق,11788,30.1690235,31.4012952
92,شارع شافي الصادق,11788,30.1689585,31.4012580
93,شارع شافي الصادق,11788,30.1688953,31.4012218
29L,شارع خالد نصار,11788,30.1688072,31.4014940
5,شارع شافي الصادق,11788,30.1689387,31.4014347
3,شارع شافي الصادق,11788,30.1688835,31.4014058
1R,شارع شافي الصادق,11788,30.1688164,31.4013706
7,شارع شافي الصادق,11788,30.1690050,31.4014695
9,شارع شافي الصادق,11788,30.1690799,31.4015087
11,شارع شافي الصادق,11788,30.1691402,31.4015403
13,شارع شافي الصادق,11788,30.1692399,31.4015925
1L,شارع شافي الصادق,11788,30.1686576,31.4010273
12,شارع عماد الدين,11788,30.1688918,31.4010258
14,شارع عماد الدين,11788,30.1688031,31.4009814
10,شارع عماد الدين,11788,30.1689809,31.4010762
8,شارع عماد الدين,11788,30.1690972,31.4011513
6,شارع عماد الدين,11788,30.1691409,31.4011825
4,شارع عماد الدين,11788,30.1692002,31.4012218
16,شارع عماد الدين,11788,30.1686906,31.4009328
2,شارع عماد الدين,11788,30.1693185,31.4012901
3,شارع عماد الدين,11788,30.1693075,31.4010682
1,شارع عماد الدين,11788,30.1694072,31.4011265
11,شارع عماد الدين,11788,30.1690083,31.4009032
15,شارع عماد الدين,11788,30.1687851,31.4007859
17,شارع عماد الدين,11788,30.1687040,31.4007470
13,شارع عماد الدين,11788,30.1689556,31.4008744
9,شارع عماد الدين,11788,30.1690901,31.4009495
7,شارع عماد الدين,11788,30.1691608,31.4009871
5,شارع عماد الدين,11788,30.1692338,31.4010233
20,شارع المدينه المنوره,11788,30.1687214,31.4006183
18,شارع المدينه المنوره,11788,30.1688218,31.4006757
16,شارع المدينه المنوره,11788,30.1689068,31.4007243
14,شارع المدينه المنوره,11788,30.1689873,31.4007703
12,شارع المدينه المنوره,11788,30.1690691,31.4008171
10,شارع المدينه المنوره,11788,30.1691318,31.4008529
8,شارع المدينه المنوره,11788,30.1691997,31.4008917
6,شارع المدينه المنوره,11788,30.1692578,31.4009250
4,شارع المدينه المنوره,11788,30.1693279,31.4009651
2,شارع المدينه المنوره,11788,30.1694321,31.4010246
5,شارع المدينه المنوره,11788,30.1693095,31.4007740
9,شارع المدينه المنوره,11788,30.1692164,31.4007247
15,شارع المدينه المنوره,11788,30.1690563,31.4006401
19,شارع المدينه المنوره,11788,30.1689214,31.4005686
17,شارع المدينه المنوره,11788,30.1689908,31.4006054
13,شارع المدينه المنوره,11788,30.1691031,31.4006648
11,شارع المدينه المنوره,11788,30.1691732,31.4007019
7,شارع المدينه المنوره,11788,30.1692574,31.4007464
3,شارع المدينه المنوره,11788,30.1693707,31.4008064
1,شارع المدينه المنوره,11788,30.1694866,31.4008677
10,شارع فاطمه الزهراء,11788,30.1692131,31.4005750
12,شارع فاطمه الزهراء,11788,30.1691464,31.4005376
14,شارع فاطمه الزهراء,11788,30.1690951,31.4005089
16,شارع فاطمه الزهراء,11788,30.1690256,31.4004699
18,شارع فاطمه الزهراء,11788,30.1689718,31.4004399
20,شارع فاطمه الزهراء,11788,30.1688953,31.4003970
8,شارع فاطمه الزهراء,11788,30.1692911,31.4006187
6,شارع فاطمه الزهراء,11788,30.1693359,31.4006437
21R,شارع فاطمه الزهراء,11788,30.1695527,31.4007363
23,شارع فاطمه الزهراء,11788,30.1688477,31.4001448
21L,شارع فاطمه الزهراء,11788,30.1688990,31.4001715
15,شارع فاطمه الزهراء,11788,30.1690949,31.4002733
19,شارع فاطمه الزهراء,11788,30.1689545,31.4002004
17,شارع فاطمه الزهراء,11788,30.1690241,31.4002365
13,شارع فاطمه الزهراء,11788,30.1691712,31.4003130
11,شارع فاطمه الزهراء,11788,30.1692256,31.4003413
9,شارع فاطمه الزهراء,11788,30.1692891,31.4003743
7,شارع فاطمه الزهراء,11788,30.1693519,31.4004069
5,شارع فاطمه الزهراء,11788,30.1694101,31.4004372
14,شارع عبد العزيز متولي,11788,30.1694785,31.4000764
8A,شارع عبد العزيز متولي,11788,30.1692124,31.3999370
6,شارع عبد العزيز متولي,11788,30.1691535,31.3999060
4,شارع عبد العزيز متولي,11788,30.1691023,31.3998792
2,شارع عبد العزيز متولي,11788,30.1690437,31.3998485
12,شارع عبد العزيز متولي,11788,30.1693418,31.4000048
10,شارع عبد العزيز متولي,11788,30.1692888,31.3999770
11,شارع السيدة نفيسة,11788,30.1693440,31.3998297
9,شارع السيدة نفيسة,11788,30.1692913,31.3998041
7,شارع السيدة نفيسة,11788,30.1691958,31.3997579
5,شارع السيدة نفيسة,11788,30.1691337,31.3997278
3,شارع السيدة نفيسة,11788,30.1690733,31.3996986
1,شارع السيدة نفيسة,11788,30.1689869,31.3996567
20,شارع السيدة نفيسة,11788,30.1696810,31.3998149
18,شارع السيدة نفيسة,11788,30.1696137,31.3997794
14,شارع السيدة نفيسة,11788,30.1694903,31.3997143
22,شارع السيدة نفيسة,11788,30.1698159,31.3998860
16,شارع السيدة نفيسة,11788,30.1695482,31.3997449
12,شارع السيدة نفيسة,11788,30.1694485,31.3996923
10,شارع السيدة نفيسة,11788,30.1693837,31.3996581
8,شارع السيدة نفيسة,11788,30.1693322,31.3996309
6,شارع السيدة نفيسة,11788,30.1692055,31.3995641
4,شارع السيدة نفيسة,11788,30.1690964,31.3995066
2,شارع السيدة نفيسة,11788,30.1690275,31.3994703
18,شارع محمود الليثي,11788,30.1692419,31.3994367
16,شارع محمود الليثي,11788,30.1693118,31.3994739
14,شارع محمود الليثي,11788,30.1693788,31.3995095
12,شارع محمود الليثي,11788,30.1694262,31.3995347
10,شارع محمود الليثي,11788,30.1694863,31.3995667
8,شارع محمود الليثي,11788,30.1695341,31.3995922
6,شارع محمود الليثي,11788,30.1696264,31.3996413
4,شارع محمود الليثي,11788,30.1697186,31.3996903
2,شارع محمود الليثي,11788,30.1698495,31.3997599
21,شارع محمود الليثي,11788,30.1691619,31.3992074
19,شارع محمود الليثي,11788,30.1692321,31.3992466
17,شارع محمود الليثي,11788,30.1692839,31.3992756
15`,شارع محمود الليثي,11788,30.1693389,31.3993063
13`,شارع محمود الليثي,11788,30.1694094,31.3993457
11`,شارع محمود الليثي,11788,30.1694819,31.3993862
9`,شارع محمود الليثي,11788,30.1695509,31.3994248
7`,شارع محمود الليثي,11788,30.1696167,31.3994615
5`,شارع محمود الليثي,11788,30.1697002,31.3995082
3`,شارع محمود الليثي,11788,30.1697811,31.3995534
14,شارع ابراهيم العربي,11788,30.1694034,31.3991784
12,شارع ابراهيم العربي,11788,30.1694581,31.3992086
16,شارع ابراهيم العربي,11788,30.1693347,31.3991404
10,شارع ابراهيم العربي,11788,30.1695493,31.3992591
8,شارع ابراهيم العربي,11788,30.1696589,31.3993197
6,شارع ابراهيم العربي,11788,30.1697104,31.3993482
13,شارع الضغط العالي,11788,30.1673022,31.4047019
11,شارع الضغط العالي,11788,30.1672201,31.4046791
9,شارع الضغط العالي,11788,30.1671215,31.4046516
7,شارع الضغط العالي,11788,30.1669938,31.4046161
15,شارع مسجد الرحمه,11788,30.1665254,31.4046938
8,شارع مسجد الرحمه,11788,30.1668395,31.4049916
13,شارع الفرماوي,11788,30.1673509,31.4052960
11,شارع الفرماوي,11788,30.1672480,31.4052695
9,شارع الفرماوي,11788,30.1671159,31.4052355
7,شارع الفرماوي,11788,30.1670330,31.4052141
5,شارع الفرماوي,11788,30.1669555,31.4051941
15,شارع الضغط العالي,11788,30.1682251,31.4049447
13`,شارع الضغط العالي,11788,30.1681646,31.4049282
11`,شارع الضغط العالي,11788,30.1681200,31.4049161
9`,شارع الضغط العالي,11788,30.1680659,31.4049014
7`,شارع الضغط العالي,11788,30.1679999,31.4048835
5,شارع الضغط العالي,11788,30.1678871,31.4048528
3,شارع الضغط العالي,11788,30.1677265,31.4048092
9,شارع كمال صقر,11788,30.1676222,31.4049393
7,شارع كمال صقر,11788,30.1678597,31.4049931
5,شارع كمال صقر,11788,30.1679641,31.4050168
3,شارع كمال صقر,11788,30.1680315,31.4050320
1,شارع كمال صقر,11788,30.1681312,31.4050546
1,شارع عبد الجواد,11788,30.1677497,31.4054462
4,شارع كمال صقر,11788,30.1679107,31.4051831
12,شارع كمال صقر,11788,30.1675584,31.4051029
10,شارع كمال صقر,11788,30.1676691,31.4051281
8,شارع كمال صقر,11788,30.1677182,31.4051393
6,شارع كمال صقر,11788,30.1678041,31.4051589
2,شارع كمال صقر,11788,30.1680060,31.4052048
1,شارع الفرماوي,11788,30.1669938,31.4058378
2,شارع الفرماوي,11788,30.1669683,31.4057225
1,شارع الفرماوي,11788,30.1669914,31.4054288
2,شارع الفرماوي,11788,30.1670884,31.4054550
3,شارع الفرماوي,11788,30.1675433,31.4055777
2,شارع الفرماوي,11788,30.1674142,31.4055428
1,شارع الفرماوي,11788,30.1672851,31.4055080
3,شارع عبد الجواد,11788,30.1672129,31.4061892
2,شارع عبد الجواد,11788,30.1673381,31.4060310
1,شارع عبد الجواد,11788,30.1674633,31.4058727
20,شارع مركز العبد الطبى,11788,30.1670259,31.4063834
18,شارع مركز العبد الطبى,11788,30.1669472,31.4063219
16,شارع مركز العبد الطبى,11788,30.1668605,31.4062540
14,شارع مركز العبد الطبى,11788,30.1667681,31.4061817
12,شارع مركز العبد الطبى,11788,30.1666964,31.4061256
10,شارع مركز العبد الطبى,11788,30.1666285,31.4060725
8,شارع مركز العبد الطبى,11788,30.1665596,31.4060186
6,شارع مركز العبد الطبى,11788,30.1664755,31.4059528
4,شارع مركز العبد الطبى,11788,30.1664060,31.4058984
2A,شارع مركز العبد الطبى,11788,30.1663141,31.4058266
9,شارع سيد عطيه,11788,30.1665911,31.4062368
11,شارع سيد عطيه,11788,30.1664924,31.4061637
13,شارع سيد عطيه,11788,30.1663969,31.4060930
15,شارع سيد عطيه,11788,30.1663007,31.4060217
17,شارع سيد عطيه,11788,30.1662262,31.4059666
9`,شارع سيد عطيه,11788,30.1666658,31.4062921
7,شارع سيد عطيه,11788,30.1667091,31.4063269
5,شارع سيد عطيه,11788,30.1667801,31.4063774
3,شارع سيد عطيه,11788,30.1668425,31.4064377
1,شارع سيد عطيه,11788,30.1669188,31.4065425
154,شارع عبد الجواد,11788,30.1660604,31.4073627
153,شارع عبد الجواد,11788,30.1661183,31.4073009
152,شارع عبد الجواد,11788,30.1661966,31.4072172
151,شارع عبد الجواد,11788,30.1662576,31.4071520
150,شارع عبد الجواد,11788,30.1663081,31.4070980
149,شارع عبد الجواد,11788,30.1663564,31.4070465
148,شارع عبد الجواد,11788,30.1663973,31.4070028
5,شارع عبد الجواد,11788,30.1666969,31.4066827
7,شارع عبد الجواد,11788,30.1666457,31.4067375
145,شارع عبد الجواد,11788,30.1665874,31.4067997
146,شارع عبد الجواد,11788,30.1665168,31.4068751
147,شارع عبد الجواد,11788,30.1664455,31.4069513
12,شارع الشهيد,11788,30.1661854,31.4070338
1,شارع محمد خالد,11788,30.1662241,31.4069902
3,شارع محمد خالد,11788,30.1662692,31.4069392
5,شارع محمد خالد,11788,30.1663150,31.4068875
7,شارع محمد خالد,11788,30.1664377,31.4067491
8,شارع محمد خالد,11788,30.1662552,31.4066827
13,شارع الشهيد,11788,30.1660708,31.4071468
11,شارع الشهيد,11788,30.1660110,31.4070788
9,شارع الشهيد,11788,30.1659421,31.4070004
3,شارع الشهيد,11788,30.1657906,31.4068282
1,شارع الشهيد,11788,30.1657323,31.4067619
14,شارع مجاور الخزان,11788,30.1659734,31.4072914
12,شارع مجاور الخزان,11788,30.1659219,31.4072116
10,شارع مجاور الخزان,11788,30.1658812,31.4071557
8,شارع مجاور الخزان,11788,30.1658318,31.4070947
6,شارع مجاور الخزان,11788,30.1657938,31.4070524
4,شارع مجاور الخزان,11788,30.1657308,31.4069893
2,شارع مجاور الخزان,11788,30.1656672,31.4069335
10,شارع الدكتور فؤاد حته,11788,30.1661655,31.4016535
8,شارع الدكتور فؤاد حته,11788,30.1661718,31.4015847
6,شارع الدكتور فؤاد حته,11788,30.1661853,31.4015194
4,شارع الدكتور فؤاد حته,11788,30.1662125,31.4014405
2,شارع الدكتور فؤاد حته,11788,30.1662623,31.4013489
4,حارة محمد عبد الجليل,11788,30.1660047,31.4011587
5,شارع السفير عز الدين عيسي,11788,30.1660221,31.4016925
7,شارع السفير عز الدين عيسي,11788,30.1658785,31.4016773
9,شارع السفير عز الدين عيسي,11788,30.1656789,31.4016563
16,شارع الطاقة الشمسيه,11788,30.1655769,31.4011909
10,شارع عبد الرحمن بن عوف,11788,30.1651989,31.3988172
5,شارع الخزان,11788,30.1654626,31.4069221
3,شارع الخزان,11788,30.1655116,31.4068293
1,شارع الخزان,11788,30.1655699,31.4067189
7,شارع الخزان,11788,30.1654332,31.4069779
9,شارع الخزان,11788,30.1654009,31.4070391
11,شارع الخزان,11788,30.1653716,31.4070944
17,شارع الدجوى,11788,30.1655055,31.4064841
15,شارع الدجوى,11788,30.1654507,31.4065981
13,شارع الدجوى,11788,30.1654248,31.4066519
25,شارع الدجوى,11788,30.1656893,31.4061020
23,شارع الدجوى,11788,30.1656291,31.4062273
21,شارع الدجوى,11788,30.1655838,31.4063213
19,شارع الدجوى,11788,30.1655492,31.4063932
11,شارع الدجوى,11788,30.1654012,31.4067009
9,شارع الدجوى,11788,30.1653722,31.4067612
7,شارع الدجوى,11788,30.1653308,31.4068472
5,شارع الدجوى,11788,30.1652851,31.4069424
3,شارع الدجوى,11788,30.1652545,31.4070059
100,شارع الحجاز,11788,30.1649357,31.4072138
1,شارع فاروق خلف,11788,30.1647641,31.4070328
3,شارع فاروق خلف,11788,30.1648104,31.4069013
6,حارة مبروك,11788,30.1648925,31.4069842
4,حارة مبروك,11788,30.1649447,31.4070369
2,حارة مبروك,11788,30.1650018,31.4070944
1,شارع الدجوى,11788,30.1650737,31.4069335
10,شارع الدجوى,11788,30.1651177,31.4068383
7,حارة المهندس,11788,30.1652093,31.4066519
14,حارة مسجد بدر,11788,30.1651455,31.4059183
16L,حارة مسجد بدر,11788,30.1652140,31.4059786
18,حارة مسجد بدر,11788,30.1652696,31.4060229
16,حارة المهندس,11788,30.1650609,31.4062750
18,حارة المهندس,11788,30.1651601,31.4063726
20,حارة المهندس,11788,30.1652267,31.4064382
14,حارة المهندس,11788,30.1653090,31.4065191
9M,حارة مسجد بدر,11788,30.1651189,31.4061114
13,حارة مسجد بدر,11788,30.1651936,31.4061850
15,حارة مسجد بدر,11788,30.1652524,31.4062429
17,حارة مسجد بدر,11788,30.1653164,31.4063060
16R,حارة مسجد بدر,11788,30.1653763,31.4063649
22,حارة مسجد بدر,11788,30.1654459,31.4061731
20,حارة مسجد بدر,11788,30.1653415,31.4060752
1,شارع صلاح فهمي,11788,30.1651873,31.4057922
9,شارع مسجد الرحمن,11788,30.1654737,31.4059331
7,شارع صلاح فهمي,11788,30.1653948,31.4059116
5,شارع صلاح فهمي,11788,30.1653400,31.4058801
3,شارع صلاح فهمي,11788,30.1652755,31.4058430
18,شارع الخزان,11788,30.1660064,31.4059880
16,شارع الخزان,11788,30.1659774,31.4060426
22,شارع الخزان,11788,30.1660836,31.4058423
1,شارع مسجد الرحمن,11788,30.1655293,31.4057989
2,شارع صلاح فهمي,11788,30.1653438,31.4056487
4,شارع صلاح فهمي,11788,30.1654053,31.4056890
93,شارع مركز العبد الطبى,11788,30.1653473,31.4053363
102,شارع فاروق خلف,11788,30.1650992,31.4055588
20,شارع فاروق خلف,11788,30.1651272,31.4054778
22,شارع فاروق خلف,11788,30.1651530,31.4054034
24,شارع فاروق خلف,11788,30.1651779,31.4053316
26,شارع فاروق خلف,11788,30.1652012,31.4052645
33,شارع الحجاز,11788,30.1641820,31.4064775
35,شارع الحجاز,11788,30.1642637,31.4065451
37,شارع الحجاز,11788,30.1643445,31.4066119
39,شارع الحجاز,11788,30.1644666,31.4067152
40,شارع الحجاز,11788,30.1645484,31.4067806
41,شارع الحجاز,11788,30.1646180,31.4069188
2,شارع فاروق خلف,11788,30.1646725,31.4068182
2,شارع أولاد سيفين,11788,30.1647165,31.4066546
8,شارع أولاد سيفين,11788,30.1644272,31.4063990
10,شارع أولاد سيفين,11788,30.1643558,31.4063369
12,شارع أولاد سيفين,11788,30.1642910,31.4062804
6R,شارع أولاد سيفين,11788,30.1644974,31.4064601
4,شارع أولاد سيفين,11788,30.1646145,31.4065151
7,شارع أولاد سيفين,11788,30.1645101,31.4062066
5,شارع العليمي,11788,30.1645009,31.4060122
6L,شارع أولاد سيفين,11788,30.1647965,31.4064400
8R,شارع العليمي,11788,30.1648510,31.4063139
14,شارع العليمي,11788,30.1649021,31.4060953
12,شارع العليمي,11788,30.1648334,31.4060349
10,شارع العليمي,11788,30.1647706,31.4059797
8L,شارع العليمي,11788,30.1647198,31.4059350
6,شارع العليمي,11788,30.1646429,31.4058672
4,شارع العليمي,11788,30.1645599,31.4057942
2,شارع العليمي,11788,30.1644754,31.4057198
10,شارع سليمان عمر,11788,30.1649600,31.4056903
8,شارع سليمان عمر,11788,30.1648928,31.4056474
8,شارع انور شاهين,11788,30.1649635,31.4055468
6,شارع انور شاهين,11788,30.1649988,31.4054414
4,شارع انور شاهين,11788,30.1650299,31.4053483
2,شارع انور شاهين,11788,30.1650748,31.4052142
107,شارع سليمان عمر,11788,30.1647351,31.4057359
12,شارع سليمان عمر,11788,30.1649589,31.4059411
15,شارع البطل,11788,30.1641924,31.4054677
13,شارع البطل,11788,30.1641481,31.4055898
11,شارع البطل,11788,30.1641024,31.4057157
9,شارع البطل,11788,30.1640498,31.4058607
7,شارع البطل,11788,30.1640078,31.4059765
5,شارع البطل,11788,30.1639734,31.4060711
3,شارع البطل,11788,30.1639495,31.4061370
1,شارع البطل,11788,30.1639130,31.4062375
6,شارع البطل,11788,30.1638376,31.4058204
13,شارع الحاج موافي,11788,30.1642887,31.4050372
10,شارع الحاج موافي,11788,30.1634956,31.4050895
7A,شارع الحاج موافي,11788,30.1635918,31.4050801
8,شارع الحاج موافي,11788,30.1633912,31.4051042
3,شارع ممدوح السيد,11788,30.1630774,31.4054963
5,شارع ممدوح السيد,11788,30.1630967,31.4053933
1,شارع ممدوح السيد,11788,30.1630513,31.4055955
7,شارع ممدوح السيد,11788,30.1631102,31.4052609
9,شارع ممدوح السيد,11788,30.1631119,31.4051325
55,شارع علي عمر,11788,30.1620502,31.4049145
31,شارع الرحمن,11788,30.1620543,31.4045893
11,شارع علي عمر,11788,30.1623424,31.4048173
9,شارع علي عمر,11788,30.1622317,31.4047822
7,شارع علي عمر,11788,30.1621742,31.4047640
3,شارع علي عمر,11788,30.1620204,31.4047154
1,شارع علي عمر,11788,30.1619482,31.4046925
5,شارع علي عمر,11788,30.1621095,31.4047436
11,شارع محمد حسن,11788,30.1618386,31.4041923
9B,شارع محمد العايدي,11788,30.1627836,31.4044914
7,شارع محمد العايدي,11788,30.1627813,31.4043975
5,شارع محمد العايدي,11788,30.1627744,31.4042902
3,شارع محمد العايدي,11788,30.1627628,31.4041749
67,شارع مدارس جابر الانصاري,11788,30.1643582,31.4045021
57,شارع مدارس جابر الانصاري,11788,30.1642423,31.4044806
53,شارع مدارس جابر الانصاري,11788,30.1639304,31.4044136
26,شارع محمد العايدي,11788,30.1645913,31.4045839
32,شارع محمد العايدي,11788,30.1639037,31.4046335
9`,شارع محمد العايدي,11788,30.1638527,31.4048548
9A,شارع محمد العايدي,11788,30.1635709,31.4048883
25,شارع محمد العايدي,11788,30.1645600,31.4047717
1,شارع الشيخ مطاوع,11788,30.1646933,31.4048052
3,شارع الحاج موافي,11788,30.1646887,31.4050587
143,شارع حسن عطيه,11788,30.1657183,31.4053188
1`,شارع حسن عطيه,11788,30.1664163,31.4044230
1,شارع حسن عطيه,11788,30.1659328,31.4053108
8,شارع حسن عطيه,11788,30.1660337,31.4047891
15,شارع احمد عبد الكريم,11788,30.1658586,31.4044069
13,شارع احمد عبد الكريم,11788,30.1658055,31.4044788
11,شارع احمد عبد الكريم,11788,30.1657442,31.4045619
9,شارع احمد عبد الكريم,11788,30.1656672,31.4046662
3,شارع احمد عبد الكريم,11788,30.1654236,31.4049870
2,شارع احمد عبد الكريم,11788,30.1653305,31.4049125
4,شارع احمد عبد الكريم,11788,30.1653653,31.4048542
2A,شارع مدارس جابر الانصاري,11788,30.1654151,31.4047496
7L,شارع طارق الليثي,11788,30.1651233,31.4046838
5,شارع طارق الليثي,11788,30.1650880,31.4047753
3,شارع طارق الليثي,11788,30.1650597,31.4048487
1,شارع طارق الليثي,11788,30.1650293,31.4049274
11,شارع مدارس جابر الانصاري,11788,30.1648580,31.4043801
9L,شارع مدارس جابر الانصاري,11788,30.1649195,31.4043946
7L,شارع مدارس جابر الانصاري,11788,30.1650101,31.4044162
5L,شارع مدارس جابر الانصاري,11788,30.1650841,31.4044337
23,شارع مسجد اسعاد,11788,30.1643420,31.4039308
7R,شارع مدارس جابر الانصاري,11788,30.1633808,31.4042339
12R,شارع مدارس جابر الانصاري,11788,30.1635686,31.4043009
9R,شارع مدارس جابر الانصاري,11788,30.1634863,31.4042982
6,شارع عاصم ابو زيد,11788,30.1633808,31.4045075
6,شارع محمد العايدي,11788,30.1629494,31.4044994
4,شارع عاصم ابو زيد,11788,30.1632138,31.4046147
5,شارع عاصم ابو زيد,11788,30.1631987,31.4044297
3,شارع عاصم ابو زيد,11788,30.1631929,31.4043356
1,شارع عاصم ابو زيد,11788,30.1631883,31.4042609
5R,شارع مدارس جابر الانصاري,11788,30.1631825,31.4041682
3,شارع مدارس جابر الانصاري,11788,30.1630735,31.4042124
1,شارع مدارس جابر الانصاري,11788,30.1629761,31.4041293
28,شارع مدارس جابر الانصاري,11788,30.1627732,31.4040622
26R,شارع مدارس جابر الانصاري,11788,30.1626700,31.4040649
16,شارع مسجد التوحيد,11788,30.1624404,31.4040622
24,شارع مدارس جابر الانصاري,11788,30.1624543,31.4039724
22,شارع مدارس جابر الانصاري,11788,30.1623944,31.4039629
20,شارع مدارس جابر الانصاري,11788,30.1623218,31.4039515
19,شارع مدارس جابر الانصاري,11788,30.1622097,31.4039338
17,شارع مدارس جابر الانصاري,11788,30.1621022,31.4039168
15,شارع مدارس جابر الانصاري,11788,30.1619864,31.4038985
18,شارع مدارس جابر الانصاري,11788,30.1618421,31.4036209
6A,شارع مدارس جابر الانصاري,11788,30.1611997,31.4036319
8L,شارع مدارس جابر الانصاري,11788,30.1612866,31.4036304
10L,شارع مدارس جابر الانصاري,11788,30.1613909,31.4036286
12L,شارع مدارس جابر الانصاري,11788,30.1614987,31.4036268
14,شارع مدارس جابر الانصاري,11788,30.1616112,31.4036249
16`,شارع مدارس جابر الانصاري,11788,30.1617110,31.4036232
16,شارع الرحمن,11788,30.1609400,31.4039536
10`,شارع مدارس جابر الانصاري,11788,30.1603069,31.4034533
1,شارع عمر ابن الخطاب,11788,30.1600228,31.4032187
6`,شارع عمر ابن الخطاب,11788,30.1601296,31.4032273
10L,شارع عمر ابن الخطاب,11788,30.1604066,31.4030617
14,شارع عمر ابن الخطاب,11788,30.1609562,31.4031114
16,شارع عمر ابن الخطاب,11788,30.1610582,31.4031114
1,شارع مسجد اسعاد,11788,30.1610664,31.4030001
11,شارع عمر ابن الخطاب,11788,30.1608277,31.4032838
13,شارع عمر ابن الخطاب,11788,30.1609435,31.4032932
15,شارع عمر ابن الخطاب,11788,30.1610508,31.4033018
2,شارع مسجد اسعاد,11788,30.1612171,31.4031208
10,شارع مسجد اسعاد,11788,30.1614757,31.4031422
12R,شارع عمر ابن الخطاب,11788,30.1612146,31.4033151
6,شارع عمر ابن الخطاب,11788,30.1616455,31.4033499
8,شارع عمر ابن الخطاب,11788,30.1615378,31.4033412
10R,شارع عمر ابن الخطاب,11788,30.1614070,31.4033306
8,شارع محمد سعد عفيفي,11788,30.1620369,31.4037028
16,شارع مدارس جابر الانصاري,11788,30.1621853,31.4037296
3,شارع محمود مختار,11788,30.1635420,31.4039388
5`,شارع مدارس جابر الانصاري,11788,30.1635709,31.4040917
21,شارع مدارس جابر الانصاري,11788,30.1624937,31.4037336
27,شارع مدارس جابر الانصاري,11788,30.1626317,31.4037591
26L,شارع مدارس جابر الانصاري,11788,30.1627952,31.4038745
3`,شارع محمد العايدي,11788,30.1628103,31.4037323
2,شارع محمد العايدي,11788,30.1630666,31.4037363
16,شارع جابر الانصاري,11788,30.1637065,31.4032339
20,شارع نوران,11788,30.1646748,31.4031905
18,شارع نوران,11788,30.1645794,31.4031842
16,شارع نوران,11788,30.1644932,31.4031784
14,شارع نوران,11788,30.1644028,31.4031724
12,شارع نوران,11788,30.1642689,31.4031635
8,شارع نوران,11788,30.1641603,31.4031563
6,شارع نوران,11788,30.1640931,31.4031519
4,شارع نوران,11788,30.1640138,31.4031466
2,شارع نوران,11788,30.1639072,31.4031395
10,شارع نوران,11788,30.1642165,31.4031601
1,شارع نوران,11788,30.1638991,31.4033139
18,شارع مسجد اسعاد,11788,30.1642910,31.4034533
9,شارع ابو فراج,11788,30.1652864,31.4033072
12,شارع محمد عبد الله,11788,30.1662876,31.4034104
10,شارع محمد عبد الله,11788,30.1663479,31.4034842
8,شارع محمد عبد الله,11788,30.1663989,31.4035486
6,شارع محمد عبد الله,11788,30.1664523,31.4036089
7R,شارع محمد عبد الله,11788,30.1665288,31.4036961
8,شارع ابو حماده,11788,30.1665984,31.4037591
9,شارع محمد عبد الله,11788,30.1664036,31.4034319
7L,شارع محمد عبد الله,11788,30.1664697,31.4034829
3,شارع محمد عبد الله,11788,30.1665230,31.4035338
1,شارع محمد عبد الله,11788,30.1665810,31.4035740
4,شارع ابو حماده,11788,30.1666772,31.4036424
10,شارع ابو فراج,11788,30.1659827,31.4031718
14,شارع محمد عبد الله,11788,30.1662430,31.4033400
15,شارع ابو فراج,11788,30.1661525,31.4032528
13,شارع ابو فراج,11788,30.1661833,31.4031771
14,شارع ابو فراج,11788,30.1662923,31.4032535
2,شارع ابو حماده,11788,30.1667944,31.4033031
1,شارع ابو حماده,11788,30.1668524,31.4031918
9,شارع الحاج سيد مصطفي عيسي,11788,30.1662389,31.4026487
9,شارع الدكتور فؤاد حته,11788,30.1659073,31.4026232
5,شارع صلاح احمد,11788,30.1642539,31.3995883
2,شارع الحاج حسن خليفه,11788,30.1638805,31.4010474
11,شارع الدكتور فؤاد حته,11788,30.1659618,31.4021565
4`,شارع عرب الفرعان,11788,30.1670309,31.4016710
11,شارع بشري,11788,30.1667248,31.4014336
9,شارع بشري,11788,30.1666969,31.4014806
10,شارع بشري,11788,30.1665161,31.4015181
8,شارع بشري,11788,30.1664966,31.4015682
6,شارع بشري,11788,30.1664730,31.4016288
4,شارع بشري,11788,30.1664488,31.4016911
10,شارع المحبه,11788,30.1663560,31.4016455
8,شارع المحبه,11788,30.1663810,31.4015837
6,شارع المحبه,11788,30.1663982,31.4015412
4,شارع المحبه,11788,30.1664221,31.4014819
2,شارع المحبه,11788,30.1664836,31.4013934
9,شارع المحبه,11788,30.1662610,31.4016187
7,شارع المحبه,11788,30.1662830,31.4015543
5,شارع المحبه,11788,30.1663062,31.4014953
3,شارع المحبه,11788,30.1663305,31.4014269
1,شارع المحبه,11788,30.1663792,31.4013425
2,شارع السوق,11788,30.1756298,31.4165824
19,شارع 6 اكتوبر,11788,30.1687589,31.4130513
7,شارع 6 اكتوبر,11788,30.1701730,31.4141518
2,شارع طابا,11788,30.1767406,31.4161532
3,شارع 6 اكتوبر,11788,30.1730333,31.4163548
1,شارع طابا,11788,30.1759371,31.4169105
8,شارع 6 اكتوبر,11788,30.1723863,31.4158344
1,شارع السوق,11788,30.1757439,31.4157698
11,شارع 6 اكتوبر,11788,30.1697573,31.4138283
3,شارع السوق,11788,30.1750678,31.4164883
21,شارع 6 اكتوبر,11788,30.1685370,31.4128786
2,شارع السوق,11788,30.1756465,31.4158755
1,شارع طابا,11788,30.1765501,31.4162942
17,شارع 6 اكتوبر,11788,30.1722704,31.4156279
1,شارع طابا,11788,30.1764219,31.4164842
17,شارع 6 اكتوبر,11788,30.1722402,31.4157191
2,شارع السوق,11788,30.1748647,31.4170266
3,شارع السوق,11788,30.1757650,31.4164429
2,شارع طابا,11788,30.1759642,31.4165983
1,شارع السوق,11788,30.1749949,31.4168982
1,شارع 6 اكتوبر,11788,30.1732164,31.4165050
1,شارع السوق,11788,30.1766509,31.4156172
15,شارع 6 اكتوبر,11788,30.1692163,31.4134072
2,شارع السوق,11788,30.1767568,31.4157727
1,شارع السوق,11788,30.1754973,31.4167077
17,شارع 6 اكتوبر,11788,30.1690075,31.4132448
5,شارع 6 اكتوبر,11788,30.1704180,31.4143425
2,شارع السوق,11788,30.1763303,31.4158855
2,شارع طابا,11788,30.1751936,31.4177034
1,شارع طابا,11788,30.1768711,31.4160253
2,شارع السوق,11788,30.1760629,31.4157852
4,شارع السوق,11788,30.1751665,31.4163843
2,شارع 6 اكتوبر,11788,30.1738553,31.4170012
1,شارع 6 اكتوبر,11788,30.1707979,31.4146382
7,شارع 6 اكتوبر,11788,30.1725741,31.4159551
4,شارع السوق,11788,30.1754517,31.4160868
1,شارع السوق,11788,30.1748704,31.4166964
3,شارع 6 اكتوبر,11788,30.1705860,31.4144733
2,شارع السوق,11788,30.1743179,31.4172552
1,شارع 6 اكتوبر,11788,30.1747007,31.4175857
4,شارع 6 اكتوبر,11788,30.1729127,31.4161295
1,شارع العروبان,11788,30.1779006,31.4156121
2,شارع 6 اكتوبر,11788,30.1745889,31.4174359
3,شارع طابا,11788,30.1756697,31.4171836
1,شارع السوق,11788,30.1744431,31.4171173
1,شارع طابا,11788,30.1760847,31.4167389
13,شارع 6 اكتوبر,11788,30.1695145,31.4136394
3,شارع السوق,11788,30.1755491,31.4159811
3,شارع 6 اكتوبر,11788,30.1737050,31.4168836
1,شارع السوق,11788,30.1764514,31.4157458
9,شارع 6 اكتوبر,11788,30.1700337,31.4140434
2,شارع طابا,11788,30.1764356,31.4161471
1,شارع طابا,11788,30.1753203,31.4175703
1,شارع السوق,11788,30.1759304,31.4159105
2,شارع السوق,11788,30.1749691,31.4165923
1,شارع 6 اكتوبر,11788,30.1740056,31.4171188
6,شارع 6 اكتوبر,11788,30.1727434,31.4160436
2,شارع طابا,11788,30.1763041,31.4166277
17,شارع 6 اكتوبر,11788,30.1720733,31.4155742
2,شارع طابا,11788,30.1758104,31.4170436
3,شارع السوق,11788,30.1747320,31.4171693
20,شارع العروبان,11788,30.1688621,31.4128582
22,شارع العروبان,11788,30.1686402,31.4126855
10,شارع العروبان,11788,30.1701137,31.4137939
14,شارع العروبان,11788,30.1696502,31.4134624
16,شارع العروبان,11788,30.1693195,31.4132141
2,شارع العروبان,11788,30.1709011,31.4144451
12,شارع العروبان,11788,30.1698489,31.4136191
6,شارع العروبان,11788,30.1704934,31.4141118
8,شارع العروبان,11788,30.1703272,31.4139828
4,شارع العروبان,11788,30.1707286,31.4142963
18,شارع العروبان,11788,30.1691107,31.4130517
7,شارع محفوظ,11788,30.1664790,31.3959043
5,شارع محفوظ,11788,30.1665636,31.3956910
3,شارع محفوظ,11788,30.1666645,31.3954858
12,شارع موسي سليم,11788,30.1657479,31.4008556
10,شارع موسي سليم,11788,30.1656986,31.4007054
8,شارع موسي سليم,11788,30.1656957,31.4005512
6,شارع موسي سليم,11788,30.1657311,31.4004862
1,شارع موسي سليم,11788,30.1663050,31.4000402
3,شارع محمد المدني,11788,30.1662668,31.3992771
1,شارع محمد المدني,11788,30.1663166,31.3991551
10`,شارع ابو قطور,11788,30.1674890,31.3973023
10,شارع ابو قطور,11788,30.1674387,31.3974117
24,شارع ابو قطور,11788,30.1671966,31.3979388
8,شارع عبد العزيز متولي,11788,30.1691979,31.4001194
1,شارع الفيروز,11788,30.1682379,31.3995950
8,شارع الفيروز,11788,30.1683596,31.4003259
6,شارع الفيروز,11788,30.1684744,31.4003742
4,شارع الفيروز,11788,30.1685300,31.4004010
9`,شارع مسجد بلال,11788,30.1709713,31.3987724
15,شارع مسجد بلال,11788,30.1708796,31.3990565
13,شارع مسجد بلال,11788,30.1708975,31.3990010
11,شارع مسجد بلال,11788,30.1709263,31.3989118
9,شارع مسجد بلال,11788,30.1710137,31.3986410
7,شارع مسجد بلال,11788,30.1710480,31.3985345
5,شارع مسجد بلال,11788,30.1710806,31.3984337
3,شارع مسجد بلال,11788,30.1711046,31.3983592
28,شارع ابو زيد عامر,11788,30.1707944,31.3988701
12R,شارع ابو زيد عامر,11788,30.1706130,31.3994548
21,شارع الصحابه,11788,30.1715608,31.4004855
24,شارع الصحابه,11788,30.1719550,31.3996446
22,شارع الصحابه,11788,30.1719759,31.3995655
20,شارع الصحابه,11788,30.1719956,31.3995011
18,شارع الصحابه,11788,30.1720199,31.3994099
16,شارع الصحابه,11788,30.1720385,31.3993415
14,شارع الصحابه,11788,30.1720617,31.3992678
12,شارع الصحابه,11788,30.1720860,31.3991900
10,شارع الصحابه,11788,30.1721127,31.3991149
3,شارع الصحابه,11788,30.1720234,31.3989177
15,شارع علي مهلل,11788,30.1702970,31.4018561
25,شارع حسن ابو جبل,11788,30.1695330,31.4024086
11,شارع التحرير,11788,30.1685242,31.4014149
13,شارع التحرير,11788,30.1684964,31.4014859
25`,شارع عوف الاصيل,11788,30.1677254,31.4029625
203,شارع محمد عايد,11788,30.1691712,31.4033206
201,شارع محمد عايد,11788,30.1693138,31.4033608
153,شارع المهندس يحيى,11788,30.1692014,31.4039630
152,شارع المهندس يحيى,11788,30.1691844,31.4040696
151,شارع المهندس يحيى,11788,30.1691611,31.4042167
10,شارع المهندس يحيى,11788,30.1691322,31.4043986
4,شارع المهندس يحيى,11788,30.1691051,31.4045691
5,شارع المهندس يحيى,11788,30.1692883,31.4045168
3,شارع المهندس يحيى,11788,30.1692825,31.4045919
150,شارع المهندس يحيى,11788,30.1693788,31.4039616
154,شارع المهندس يحيى,11788,30.1694796,31.4035298
200,شارع محمد عايد,11788,30.1695121,31.4034238
149,شارع مسجد الرحمن,11788,30.1695214,31.4044578
3,شارع مسجد الرحمن,11788,30.1696315,31.4036773
1,شارع مسجد الرحمن,11788,30.1696593,31.4035057
3,شارع حسن ابو جبل,11788,30.1699666,31.4027882
12,شارع محمد عايد,11788,30.1703886,31.4037779
30,شارع خالد ابن الوليد,11788,30.1712907,31.4044404
16,شارع محمد متولي الشعراوى,11788,30.1715249,31.4048280
19,شارع محمد متولي الشعراوى,11788,30.1716501,31.4048870
17,شارع محمد متولي الشعراوى,11788,30.1716350,31.4050063
55,شارع محمد متولي الشعراوى,11788,30.1718387,31.4030110
32,شارع محمد متولي الشعراوى,11788,30.1716698,31.4038222
30`,شارع محمد متولي الشعراوى,11788,30.1716518,31.4039411
5,شارع المحارب اسماعيل علي,11788,30.1718310,31.4055133
3,شارع المحارب اسماعيل علي,11788,30.1718194,31.4055951
59,شارع عثمان ابن عفان,11788,30.1728849,31.4026527
24,شارع حسن درويش الموان,11788,30.1778255,31.4047897
18,شارع حسن درويش الموان,11788,30.1777808,31.4050419
16,شارع حسن درويش الموان,11788,30.1777650,31.4051306
14,شارع حسن درويش الموان,11788,30.1777457,31.4052396
5,شارع الجوهر,11788,30.1782504,31.4052853
9L,شارع زغلول نصر,11788,30.1789796,31.4062040
8`,شارع زغلول نصر,11788,30.1788440,31.4061584
14,شارع ابو بكر الصديق,11788,30.1865301,31.4081016
16L,شارع ابو بكر الصديق,11788,30.1864594,31.4081016
7,شارع عمر ابن الخطاب,11788,30.1857280,31.4078924
5,شارع عمر ابن الخطاب,11788,30.1856375,31.4078817
14,شارع عثمان ابن عفان,11788,30.1880324,31.4075182
12,شارع عثمان ابن عفان,11788,30.1879436,31.4075115
10,شارع عثمان ابن عفان,11788,30.1878346,31.4075033
3A,شارع عثمان ابن عفان,11788,30.1873091,31.4076671
40,شارع عمر ابن الخطاب 2,11788,30.1874904,31.4069788
38,شارع عمر ابن الخطاب 2,11788,30.1875639,31.4069834
36,شارع عمر ابن الخطاب 2,11788,30.1876255,31.4069872
34,شارع عمر ابن الخطاب 2,11788,30.1876949,31.4069916
32,شارع عمر ابن الخطاب 2,11788,30.1877508,31.4069951
30,شارع عمر ابن الخطاب 2,11788,30.1878471,31.4070011
28,شارع عمر ابن الخطاب 2,11788,30.1879512,31.4070076
49,شارع المعز لدين الله,11788,30.1877983,31.4066438
47,شارع المعز لدين الله,11788,30.1876893,31.4066438
45,شارع المعز لدين الله,11788,30.1876035,31.4066318
43,شارع المعز لدين الله,11788,30.1875154,31.4066251
55,شارع المعز لدين الله,11788,30.1880603,31.4066894
15L,شارع ابو بكر الصديق,11788,30.1882150,31.4082317
13L,شارع ابو بكر الصديق,11788,30.1883280,31.4082357
11,شارع ابو بكر الصديق,11788,30.1884208,31.4082431
10R,شارع عمر ابن الخطاب,11788,30.1884938,31.4081077
8R,شارع عمر ابن الخطاب,11788,30.1885987,31.4081110
6R,شارع عمر ابن الخطاب,11788,30.1887013,31.4081197
24,شارع عمر ابن الخطاب 2,11788,30.1881994,31.4070234
9,شارع مسجد الرحمه,11788,30.1668628,31.4047851
7,شارع مسجد الرحمه,11788,30.1669806,31.4048170
5,شارع مسجد الرحمه,11788,30.1671020,31.4048499
3,شارع مسجد الرحمه,11788,30.1672285,31.4048841
1,شارع مسجد الرحمه,11788,30.1673335,31.4049125
11,شارع مسجد الرحمه,11788,30.1667079,31.4047432
13,شارع مسجد الرحمه,11788,30.1666254,31.4047209
106,شارع سليمان عمر,11788,30.1647917,31.4057878
105,شارع سليمان عمر,11788,30.1648607,31.4058511
47,شارع دهشان,11788,30.1672454,31.4038919
46,شارع دهشان,11788,30.1671039,31.4040475
45,شارع الضغط العالي,11788,30.1670448,31.4042205
44,شارع الضغط العالي,11788,30.1669497,31.4041869
43,شارع الضغط العالي,11788,30.1668743,31.4041628
42,شارع الضغط العالي,11788,30.1667990,31.4041400
41,شارع الضغط العالي,11788,30.1667236,31.4041132
40,شارع الضغط العالي,11788,30.1665926,31.4040729
39,شارع ابو حماده,11788,30.1667120,31.4038636
38,شارع ابو حماده,11788,30.1668626,31.4035248
36,شارع ابو حماده,11788,30.1669503,31.4033394
35,شارع ابو حماده,11788,30.1670293,31.4031626
34,شارع ابو حماده,11788,30.1670819,31.4030483
153,شارع ابو حماده,11788,30.1670158,31.4028123
13,شارع الخزان,11788,30.1658018,31.4063153
10,شارع الخزان,11788,30.1657566,31.4063917
6,شارع الخزان,11788,30.1658215,31.4066143
7,شارع الشهيد,11788,30.1658644,31.4069121
5,شارع الشهيد,11788,30.1658328,31.4068762
5`,شارع محمد خالد,11788,30.1663749,31.4068199
11,شارع محمد خالد,11788,30.1665404,31.4066331
9,شارع محمد خالد,11788,30.1664829,31.4066980
2,شارع سيد عطيه,11788,30.1667584,31.4066197
1,شارع مركز العبد الطبى,11788,30.1665868,31.4057346
2,شارع مركز العبد الطبى,11788,30.1664291,31.4056554
3,شارع مركز العبد الطبى,11788,30.1663097,31.4055857
25,شارع الخزان,11788,30.1662702,31.4057922
90,شارع مركز العبد الطبى,11788,30.1660662,31.4056487
24,شارع الخزان,11788,30.1661485,31.4057198
20,شارع الخزان,11788,30.1660426,31.4059197
14,شارع الخزان,11788,30.1659410,31.4061114
6,شارع مسجد الرحمن,11788,30.1656708,31.4058834
7,شارع رجب شاهين,11788,30.1652951,31.4041333
2,شارع مدارس جابر الانصاري,11788,30.1658134,31.4050654
5,شارع حسن عطيه,11788,30.1660128,31.4051391
3,شارع حسن عطيه,11788,30.1660766,31.4051941
144,شارع حسن عطيه,11788,30.1657647,31.4052276
145,شارع حسن عطيه,11788,30.1659375,31.4049380
13,شارع حسن عطيه,11788,30.1663340,31.4045678
15,شارع حسن عطيه,11788,30.1662158,31.4047556
14,شارع حسن عطيه,11788,30.1660975,31.4046845
5,شارع رجب شاهين,11788,30.1657044,31.4042661
7,شارع احمد عبد الكريم,11788,30.1656111,31.4047423
8R,شارع مدارس جابر الانصاري,11788,30.1652216,31.4047059
6,شارع مدارس جابر الانصاري,11788,30.1653031,31.4047243
4,شارع مدارس جابر الانصاري,11788,30.1653645,31.4047382
5,شارع احمد عبد الكريم,11788,30.1654700,31.4049265
1,شارع احمد عبد الكريم,11788,30.1653867,31.4050352
97,شارع مركز العبد الطبى,11788,30.1653490,31.4051029
96,شارع مركز العبد الطبى,11788,30.1654482,31.4051794
95,شارع مركز العبد الطبى,11788,30.1655276,31.4052223
94,شارع مركز العبد الطبى,11788,30.1656070,31.4052813
91,شارع مركز العبد الطبى,11788,30.1655189,31.4054100
92,شارع مركز العبد الطبى,11788,30.1654238,31.4053658
98,شارع فاروق خلف,11788,30.1652557,31.4056005
104,شارع فاروق خلف,11788,30.1650319,31.4057527
103,شارع فاروق خلف,11788,30.1650749,31.4056288
10R,شارع مدارس جابر الانصاري,11788,30.1648649,31.4046255
11,شارع الحاج موافي,11788,30.1641680,31.4050446
9,شارع الحاج موافي,11788,30.1640579,31.4050514
7,شارع الحاج موافي,11788,30.1639120,31.4050604
5,شارع الحاج موافي,11788,30.1638098,31.4050667
3,شارع الطاقة الشمسيه,11788,30.1650296,31.4034721
1,شارع الطاقة الشمسيه,11788,30.1649797,31.4036733
21,شارع نوران,11788,30.1648197,31.4034145
22,شارع نوران,11788,30.1647536,31.4032012
34,شارع مسجد اسعاد,11788,30.1632022,31.4032321
9,شارع مسجد اسعاد,11788,30.1633158,31.4032575
8,شارع جابر الانصاري,11788,30.1637483,31.4029773
4,شارع جابر الانصاري,11788,30.1637243,31.4031244
2,شارع جابر الانصاري,11788,30.1636857,31.4033608
3,شارع نوران,11788,30.1640058,31.4033259
3,شارع الرحمن,11788,30.1613180,31.4043653
12,شارع مدارس جابر الانصاري,11788,30.1609980,31.4036277
7,شارع مسجد التوحيد,11788,30.1625355,31.4047033
5,شارع مسجد التوحيد,11788,30.1625378,31.4048615
3,شارع مسجد التوحيد,11788,30.1625517,31.4050519
4,شارع عمر ابن الخطاب,11788,30.1617439,31.4033579
2,شارع عمر ابن الخطاب,11788,30.1618630,31.4033675
13,شارع مدارس جابر الانصاري,11788,30.1618514,31.4038771
4A,شارع مدارس جابر الانصاري,11788,30.1611313,31.4036331
11,شارع طارق النجار,11788,30.1608182,31.4033796
12L,شارع عمر ابن الخطاب,11788,30.1605156,31.4030859
25,شارع زايد,11788,30.1630689,31.4010595
23,شارع زايد,11788,30.1630350,31.4011392
21,شارع زايد,11788,30.1629989,31.4012242
19,شارع زايد,11788,30.1629575,31.4013217
17,شارع زايد,11788,30.1629241,31.4014002
15,شارع زايد,11788,30.1628982,31.4014611
13,شارع زايد,11788,30.1627827,31.4017329
11,شارع زايد,11788,30.1627404,31.4018325
9,شارع زايد,11788,30.1627034,31.4019197
7,شارع زايد,11788,30.1626782,31.4019789
5,شارع زايد,11788,30.1626450,31.4020569
3,شارع زايد,11788,30.1626203,31.4021150
1,شارع زايد,11788,30.1626016,31.4021592
10,شارع زايد,11788,30.1626538,31.4016335
8,شارع زايد,11788,30.1626087,31.4017477
6,شارع زايد,11788,30.1625746,31.4018342
4,شارع زايد,11788,30.1625448,31.4019097
2,شارع زايد,11788,30.1625169,31.4019768
21,شارع عثمان ابن عفان,11788,30.1644151,31.3989633
19,شارع عثمان ابن عفان,11788,30.1643433,31.3989228
17,شارع عثمان ابن عفان,11788,30.1642730,31.3988831
15,شارع عثمان ابن عفان,11788,30.1642008,31.3988423
13,شارع عثمان ابن عفان,11788,30.1641118,31.3987920
11,شارع عثمان ابن عفان,11788,30.1639980,31.3987278
9,شارع عثمان ابن عفان,11788,30.1639062,31.3986760
7,شارع عثمان ابن عفان,11788,30.1638531,31.3986460
5,شارع عثمان ابن عفان,11788,30.1637716,31.3985999
3,شارع عثمان ابن عفان,11788,30.1636741,31.3985449
15,شارع عبد الرحمن بن عوف,11788,30.1642643,31.3984899
13,شارع عبد الرحمن بن عوف,11788,30.1641901,31.3984416
11,شارع عبد الرحمن بن عوف,11788,30.1640985,31.3983974
9,شارع عبد الرحمن بن عوف,11788,30.1640301,31.3983625
7,شارع عبد الرحمن بن عوف,11788,30.1639687,31.3983223
5,شارع عبد الرحمن بن عوف,11788,30.1639072,31.3982874
3,شارع عبد الرحمن بن عوف,11788,30.1638179,31.3982418
157,شارع ابو فراج,11788,30.1667062,31.4035472
158,شارع ابو فراج,11788,30.1663584,31.4033286
