House number,Street name,Postal code,Latitude,Longitude
120,Blackstone Road,4304,-27.6211841,152.7880482
203-209,Brisbane Road,4304,-27.6128330,152.7988963
442,Ripley Road,4306,-27.6677317,152.7838782
1,Springfield Lakes Boulevard,4300,-27.6697948,152.9154045
25,Sapphire Street,4300,-27.6518101,152.9172392
24,Sharpless Road,4300,-27.6478254,152.9170989
52,Warwick Road,4305,-27.6228216,152.7607134
2,Smiths Road,4300,-27.6103105,152.8966102
357,Redbank Plains Road,4301,-27.6449769,152.8702287
357,Redbank Plains Road,4301,-27.6458778,152.8687604
357,Redbank Plains Road,4301,-27.6454344,152.8715004
1,Collingwood Drive,4301,-27.6061695,152.8675669
1505,Warrego Highway,4306,-27.5758374,152.7042105
67,Cascade Street,4305,-27.6388682,152.7699209
259,Ash Street,4305,-27.6523631,152.7645178
112,Augusta Parkway,4300,-27.6659540,152.8913231
118,Augusta Parkway,4300,-27.6650190,152.8908854
111,Limestone Street,4305,-27.6158474,152.7532524
111,Limestone Street,4305,-27.6158078,152.7531712
92-98,Pine Mountain Road,4305,-27.5895918,152.7518342
2,Smiths Road,4300,-27.6100271,152.8975991
2,Smiths Road,4300,-27.6094595,152.8966870
2,Smiths Road,4300,-27.6099648,152.8981713
76,Naomai Street,4305,-27.6209528,152.8121827
64,Brisbane Road,4305,-27.6128476,152.7800223
214,Brisbane Road,4304,-27.6121664,152.7964013
85,Leon Capra Drive,4300,-27.6526420,152.8888076
64,Brisbane Road,4305,-27.6129307,152.7800367
9,Old Toowoomba Road,4305,-27.6277223,152.7421024
357,Redbank Plains Road,4301,-27.6459847,152.8699507
357,Redbank Plains Road,4301,-27.6447391,152.8685886
357,Redbank Plains Road,4301,-27.6448166,152.8692723
357,Redbank Plains Road,4301,-27.6448781,152.8698064
260-262,Brisbane Street,4305,-27.6193508,152.7497376
33,Brisbane Road,4304,-27.6026868,152.8247841
357,Redbank Plains Road,4301,-27.6452816,152.8704950
215,Brisbane Road,4304,-27.6123038,152.8007191
4,Brisbane Road,4304,-27.6098934,152.8067824
4,Brisbane Road,4304,-27.6099308,152.8066867
1-3,Queen Street,4306,-27.6053801,152.6642803
1,Springfield Lakes Boulevard,4300,-27.6694216,152.9163891
4,Springfield Lakes Boulevard,4300,-27.6697079,152.9161073
1373,Warrego Highway,4306,-27.5791674,152.7184053
52,Brisbane Road,4304,-27.6015718,152.8253495
65 - 67,Old Logan Road,4300,-27.6108474,152.9156896
1,Springfield Lakes Boulevard,4300,-27.6693269,152.9162923
134,Blackstone Road,4304,-27.6214309,152.7896553
169,Blackstone Road,4304,-27.6220048,152.7902702
632,Redbank Plains Road,4301,-27.6400392,152.8428946
215,Brisbane Street,4305,-27.6140681,152.7563943
50,Homevale Drive,4036,-27.6974843,152.8235366
48,Homevale Drive,4036,-27.6974787,152.8234189
46,Homevale Drive,4036,-27.6974568,152.8232971
52,Homevale Drive,4036,-27.6975027,152.8236805
14,Homevale Drive,4036,-27.6975906,152.8238722
16,Homevale Drive,4036,-27.6974887,152.8238948
18,Homevale Drive,4036,-27.6973569,152.8239196
20,Homevale Drive,4036,-27.6972491,152.8239264
22,Homevale Drive,4036,-27.6971452,152.8239219
24,Homevale Drive,4036,-27.6970514,152.8239106
4,Homevale Drive,4036,-27.6981437,152.8237459
6,Homevale Drive,4036,-27.6980539,152.8237572
8,Homevale Drive,4036,-27.6979720,152.8237865
10,Homevale Drive,4036,-27.6978701,152.8238091
69,Homevale Drive,4036,-27.6979340,152.8235723
67,Homevale Drive,4036,-27.6979101,152.8234415
65,Homevale Drive,4036,-27.6978901,152.8233259
63,Homevale Drive,4036,-27.6978781,152.8232001
61,Homevale Drive,4036,-27.6978640,152.8230608
23,Goulburn Crescent,4306,-27.6994671,152.8154094
6,The Terrace,4305,-27.6099748,152.7598030
44,Brisbane Street,4305,-27.6153849,152.7619307
28,Homevale Drive,4036,-27.6971993,152.8236613
30,Homevale Drive,4036,-27.6971852,152.8234858
32,Homevale Drive,4036,-27.6971795,152.8233327
34,Homevale Drive,4036,-27.6971428,152.8231158
38,Homevale Drive,4036,-27.6972501,152.8231127
40,Homevale Drive,4036,-27.6973659,152.8231095
42,Homevale Drive,4036,-27.6974958,152.8230935
115,Watheroo Street,4036,-27.6983431,152.8218814
59,Homevale Drive,4036,-27.6978234,152.8229436
57,Homevale Drive,4036,-27.6977980,152.8228256
7,Cedarvale Street,4036,-27.6977782,152.8227012
5,Cedarvale Street,4036,-27.6977585,152.8225800
3,Cedarvale Street,4036,-27.6977443,152.8224811
10,Cedarvale Street,4036,-27.6973857,152.8227395
8,Cedarvale Street,4036,-27.6973744,152.8226246
6,Cedarvale Street,4036,-27.6973631,152.8225002
4,Cedarvale Street,4036,-27.6973518,152.8223790
2,Cedarvale Street,4036,-27.6973377,152.8222578
51,Homevale Drive,4036,-27.6971936,152.8226916
49,Homevale Drive,4036,-27.6970637,152.8227139
11,Queen Street,4306,-27.6053784,152.6653406
11,Queen Street,4306,-27.6051245,152.6652693
8,Diamond Way,4301,-27.6627382,152.8660112
14,Diamond Way,4301,-27.6627057,152.8664435
88,Berrigan Street,4301,-27.6621825,152.8652552
86,Berrigan Street,4301,-27.6623345,152.8652287
84,Berrigan Street,4301,-27.6624897,152.8652039
82,Berrigan Street,4301,-27.6626308,152.8651738
80,Berrigan Street,4301,-27.6627828,152.8651526
76,Berrigan Street,4301,-27.6629913,152.8651438
74,Berrigan Street,4301,-27.6631010,152.8649933
72,Berrigan Street,4301,-27.6631637,152.8648164
70,Berrigan Street,4301,-27.6632248,152.8646642
68,Berrigan Street,4301,-27.6630775,152.8644448
66,Berrigan Street,4301,-27.6632906,152.8644607
64,Berrigan Street,4301,-27.6633580,152.8643067
62,Berrigan Street,4301,-27.6634223,152.8641492
51,Berrigan Street,4301,-27.6636016,152.8637754
58,Berrigan Street,4301,-27.6631437,152.8641592
56,Berrigan Street,4301,-27.6630838,152.8639864
54,Berrigan Street,4301,-27.6630259,152.8637762
2,Pine Street,4305,-27.6077800,152.7619373
2,Pine Street,4305,-27.6078856,152.7618917
2,Pine Street,4305,-27.6081901,152.7617725
4,Lowry Street,4305,-27.6062197,152.7591622
11,Downs Street,4305,-27.6074389,152.7603079
7,Lowry Street,4305,-27.6074556,152.7606756
2,The Terrace,4305,-27.6083537,152.7601808
44,Limestone Street,4305,-27.6159564,152.7615838
10,Lawrence Street,4305,-27.6034547,152.7623540
32,Downs Street,4305,-27.6037351,152.7612154
28,Downs Street,4305,-27.6041961,152.7609304
27,Downs Street,4305,-27.6061088,152.7609211
2,Lowry Street,4305,-27.6061032,152.7585443
2,Pine Street,4305,-27.6080009,152.7618523
7,The Terrace,4305,-27.6081174,152.7607302
65,Old Logan Raod,4300,-27.6108883,152.9157438
65,Old Logan Road,4300,-27.6111308,152.9156891
65,Old Logan Road,4300,-27.6111792,152.9156929
83,Old Logan Road,4300,-27.6128495,152.9156576
50,Nicholas Street,4305,-27.6157864,152.7587700
114,Brisbane Street,4305,-27.6146745,152.7594505
116a,Brisbane Street,4305,-27.6143813,152.7590344
164,Brisbane Street,4305,-27.6145589,152.7558703
138-140,Brisbane Street,4305,-27.6142759,152.7571039
88,Limestone Street,4305,-27.6154038,152.7576994
242,Brisbane Street,4305,-27.6176693,152.7503973
242,Brisbane Street,4305,-27.6179464,152.7503833
242,Brisbane Street,4305,-27.6177655,152.7505314
242,Brisbane Street,4305,-27.6182201,152.7503288
256,Brisbane Street,4305,-27.6189124,152.7496037
25,Joyce Street,4305,-27.6094031,152.7774735
2,Joyce Street,4305,-27.6084348,152.7740983
80,Jacaranda Street,4305,-27.6067306,152.7814530
2,East Street,4305,-27.6122518,152.7619047
29,Flint Street,4305,-27.6065861,152.7618985
206-208,Brisbane Road,4304,-27.6128513,152.7953917
170,Brisbane Road,4304,-27.6136187,152.7910442
170,Brisbane Road,4304,-27.6136461,152.7908417
170,Brisbane Road,4304,-27.6133787,152.7911073
170,Brisbane Road,4304,-27.6130982,152.7909157
160,Brisbane Road,4304,-27.6139205,152.7896545
160,Brisbane Road,4304,-27.6137662,152.7896766
160,Brisbane Road,4304,-27.6135782,152.7897146
160,Brisbane Road,4304,-27.6136658,152.7902851
160,Brisbane Road,4304,-27.6134634,152.7900702
77,Brisbane Road,4305,-27.6135316,152.7809898
76,Brisbane Road,4305,-27.6130951,152.7812579
116,Brisbane Road,4304,-27.6135456,152.7861652
116,Brisbane Road,4304,-27.6135298,152.7860223
68,Hunter Street,4305,-27.5980711,152.7460863
8,Gordon Street,4305,-27.6172756,152.7624524
21,Agnes Street,4304,-27.6082059,152.8037505
73,Blackstone Road,4305,-27.6211074,152.7807877
120,Blackstone Road,4304,-27.6209598,152.7881471
87,Brisbane Street,4305,-27.6142944,152.7611750
13,Bell Street,4305,-27.6135403,152.7605678
87,Brisbane Street,4305,-27.6145591,152.7612571
208,Brisbane Road,4304,-27.6127220,152.7954896
16A,Lowry Street,4305,-27.6069281,152.7617766
16A,Lowry Street,4305,-27.6070777,152.7617194
4,Pine Street,4305,-27.6073495,152.7622416
4,Pine Street,4305,-27.6072954,152.7620634
16,Lowry Street,4305,-27.6068787,152.7613123
16,Lowry Street,4305,-27.6067471,152.7613626
228,Brisbane Street,4305,-27.6166612,152.7513123
54,Warwick Road,4305,-27.6230582,152.7606852
54,Limestone Street,4305,-27.6156781,152.7607217
44,Brisbane Street,4305,-27.6155722,152.7624511
44,Brisbane Street,4305,-27.6153153,152.7625198
45,East Street,4305,-27.6152394,152.7604855
10,Churchill Street,4305,-27.6186198,152.7605096
114,Brisbane Street,4305,-27.6147528,152.7594986
242,Brisbane Street,4305,-27.6182821,152.7504596
242,Brisbane Street,4305,-27.6182432,152.7503969
160,Brisbane Street,4305,-27.6147900,152.7561256
57,Limestone Street,4305,-27.6151754,152.7598045
44,Brisbane Street,4305,-27.6155289,152.7615911
43,The Terrace,4305,-27.6098360,152.7644322
1,West Street,4305,-27.6127407,152.7576073
1,Main Street,4300,-27.6786860,152.9011565
150,Toongarra Road,4305,-27.6172531,152.7249732
209A,Westphalen Drive,4303,-27.5895203,152.8298780
209A,Westphalen Drive,4303,-27.5895356,152.8301812
272,Warwick Road,4305,-27.6439528,152.7509122
588,Redbank Plains Road,4301,-27.6411089,152.8473029
264,Warwick Road,4305,-27.6421387,152.7508967
287,Ipswich - Boonah Road,4306,-27.6892458,152.7382235
451,Ipswich - Boonah Road,4306,-27.7037300,152.7374901
570,Ipswich - Boonah Road,4306,-27.7143437,152.7400269
50,Coal Road,4306,-27.5715155,152.7844555
222-224,Mount Crosby Road,4305,-27.5761509,152.7857275
222,Mount Crosby Road,4305,-27.5761690,152.7855937
15,Workshops Street,4305,-27.5974237,152.7486782
30,Downs Street,4305,-27.6039429,152.7611321
30,Downs Street,4305,-27.6039050,152.7611484
30,Downs Street,4305,-27.6038621,152.7611636
34,Downs Street,4305,-27.6035708,152.7613035
32,Downs Street,4305,-27.6037996,152.7611887
44,Brisbane Street,4305,-27.6156541,152.7618301
44,Brisbane Street,4305,-27.6155748,152.7614322
44,Brisbane Street,4305,-27.6148888,152.7616086
44,Brisbane Street,4305,-27.6150006,152.7621191
1,Kerwich Street,4301,-27.6001770,152.8711962
219,Brisbane Road,4304,-27.6138073,152.8017084
214,Brisbane Road,4304,-27.6121400,152.7977243
1-7,Brisbane Road,4304,-27.6102329,152.8082048
47,Gladstone Road,4305,-27.6129136,152.7411896
47,Gladstone Road,4305,-27.6129157,152.7414817
47,Gladstone Road,4305,-27.6133066,152.7413526
20,Main Street,4306,-27.6826580,152.8017541
20,Main Street,4306,-27.6831984,152.8017352
20,Main Street,4306,-27.6829942,152.8013785
11,Salisbury Road,4305,-27.6281381,152.7545806
37,Pine Street,4305,-27.6045008,152.7639173
29-51,Cnr Junctoin And Essex Street,4306,-27.5703739,152.7972228
39-51,Junction Road,4306,-27.5703624,152.7971424
67,Cascade Street,4305,-27.6378797,152.7710852
67,Cascade Street,4305,-27.6377613,152.7710877
67,Cascade Street,4305,-27.6377915,152.7709346
67,Cascade Street,4305,-27.6378345,152.7708155
67,Cascade Street,4305,-27.6378259,152.7706576
67,Cascade Street,4305,-27.6377075,152.7705118
67,Cascade Street,4305,-27.6377054,152.7703855
67,Cascade Street,4305,-27.6376795,152.7702348
67,Cascade Street,4305,-27.6376515,152.7700720
67,Cascade Street,4305,-27.6376279,152.7698752
67,Cascade Street,4305,-27.6381423,152.7698193
67,Cascade Street,4305,-27.6377915,152.7698047
67,Cascade Street,4305,-27.6378948,152.7700550
67,Cascade Street,4305,-27.6378259,152.7702202
67,Cascade Street,4305,-27.6380196,152.7697999
67,Cascade Street,4305,-27.6380821,152.7699821
67,Cascade Street,4305,-27.6378646,152.7703636
67,Cascade Street,4305,-27.6379572,152.7706187
67,Cascade Street,4305,-27.6379916,152.7707572
67,Cascade Street,4305,-27.6380498,152.7709273
67,Cascade Street,4305,-27.6381595,152.7708058
67,Cascade Street,4305,-27.6381208,152.7706722
67,Cascade Street,4305,-27.6380627,152.7704802
67,Cascade Street,4305,-27.6380325,152.7703466
67,Cascade Street,4305,-27.6380325,152.7702129
67,Cascade Street,4305,-27.6381811,152.7701935
67,Cascade Street,4305,-27.6382337,152.7703698
67,Cascade Street,4305,-27.6382585,152.7705566
67,Cascade Street,4305,-27.6383882,152.7706407
67,Cascade Street,4305,-27.6385040,152.7704539
67,Cascade Street,4305,-27.6383661,152.7702328
67,Cascade Street,4305,-27.6383385,152.7700647
67,Cascade Street,4305,-27.6383165,152.7698499
67,Cascade Street,4305,-27.6384737,152.7697160
67,Cascade Street,4305,-27.6385068,152.7700398
67,Cascade Street,4305,-27.6385261,152.7702577
67,Cascade Street,4305,-27.6387164,152.7704072
67,Cascade Street,4305,-27.6387053,152.7702639
67,Cascade Street,4305,-27.6387081,152.7701238
67,Cascade Street,4305,-27.6386722,152.7699526
67,Cascade Street,4305,-27.6386722,152.7696880
67,Cascade Street,4305,-27.6387991,152.7696849
67,Cascade Street,4305,-27.6389177,152.7696849
67,Cascade Street,4305,-27.6388267,152.7699713
67,Cascade Street,4305,-27.6388543,152.7701861
67,Cascade Street,4305,-27.6388901,152.7703885
67,Cascade Street,4305,-27.6390611,152.7703823
67,Cascade Street,4305,-27.6390111,152.7701157
67,Cascade Street,4305,-27.6389576,152.7699086
67,Cascade Street,4305,-27.6378532,152.7715415
67,Cascade Street,4305,-27.6378846,152.7717438
67,Cascade Street,4305,-27.6379092,152.7718854
67,Cascade Street,4305,-27.6379383,152.7720093
67,Cascade Street,4305,-27.6379585,152.7721711
67,Cascade Street,4305,-27.6379742,152.7723153
67,Cascade Street,4305,-27.6379943,152.7724645
67,Cascade Street,4305,-27.6380212,152.7726010
67,Cascade Street,4305,-27.6380772,152.7727932
67,Cascade Street,4305,-27.6380951,152.7716704
67,Cascade Street,4305,-27.6380817,152.7718323
67,Cascade Street,4305,-27.6380817,152.7719714
67,Cascade Street,4305,-27.6381019,152.7721155
67,Cascade Street,4305,-27.6382408,152.7718500
67,Cascade Street,4305,-27.6384043,152.7718196
67,Cascade Street,4305,-27.6384065,152.7719259
67,Cascade Street,4305,-27.6383886,152.7720649
67,Cascade Street,4305,-27.6383080,152.7721686
67,Cascade Street,4305,-27.6382408,152.7722875
67,Cascade Street,4305,-27.6381780,152.7723912
67,Cascade Street,4305,-27.6382385,152.7725682
67,Cascade Street,4305,-27.6384245,152.7715920
67,Cascade Street,4305,-27.6383931,152.7725024
67,Cascade Street,4305,-27.6384536,152.7723001
67,Cascade Street,4305,-27.6385342,152.7721231
67,Cascade Street,4305,-27.6385566,152.7718904
67,Cascade Street,4305,-27.6387022,152.7718753
67,Cascade Street,4305,-27.6387067,152.7721054
67,Cascade Street,4305,-27.6386597,152.7722824
67,Cascade Street,4305,-27.6385880,152.7724872
67,Cascade Street,4305,-27.6387493,152.7724999
67,Cascade Street,4305,-27.6387829,152.7723735
67,Cascade Street,4305,-27.6388277,152.7721964
67,Cascade Street,4305,-27.6388949,152.7719815
67,Cascade Street,4305,-27.6388882,152.7718171
67,Cascade Street,4305,-27.6389485,152.7724375
67,Cascade Street,4305,-27.6388940,152.7722286
67,Cascade Street,4305,-27.6389870,152.7722547
67,Cascade Street,4305,-27.6390254,152.7720344
67,Cascade Street,4305,-27.6390299,152.7718075
67,Cascade Street,4305,-27.6386175,152.7716641
67,Cascade Street,4305,-27.6386929,152.7716624
67,Cascade Street,4305,-27.6387712,152.7716440
67,Cascade Street,4305,-27.6388348,152.7716440
67,Cascade Street,4305,-27.6388998,152.7716207
67,Cascade Street,4305,-27.6389796,152.7716107
67,Cascade Street,4305,-27.6390550,152.7715756
67,Cascade Street,4305,-27.6382164,152.7727867
67,Cascade Street,4305,-27.6383553,152.7727512
67,Cascade Street,4305,-27.6384875,152.7727361
67,Cascade Street,4305,-27.6386779,152.7727184
67,Cascade Street,4305,-27.6388325,152.7726804
67,Cascade Street,4305,-27.6389624,152.7726602
67,Cascade Street,4305,-27.6385330,152.7708274
67,Cascade Street,4305,-27.6385476,152.7708972
67,Cascade Street,4305,-27.6385494,152.7709506
67,Cascade Street,4305,-27.6385676,152.7710533
67,Cascade Street,4305,-27.6385840,152.7711786
67,Cascade Street,4305,-27.6385694,152.7711108
67,Cascade Street,4305,-27.6386040,152.7712341
67,Cascade Street,4305,-27.6386131,152.7713121
67,Cascade Street,4305,-27.6386222,152.7713717
67,Cascade Street,4305,-27.6385258,152.7707781
67,Cascade Street,4305,-27.6387114,152.7712320
67,Cascade Street,4305,-27.6387059,152.7711930
67,Cascade Street,4305,-27.6386895,152.7711355
67,Cascade Street,4305,-27.6386804,152.7710780
67,Cascade Street,4305,-27.6386768,152.7710204
67,Cascade Street,4305,-27.6387860,152.7711560
67,Cascade Street,4305,-27.6387969,152.7712197
67,Cascade Street,4305,-27.6388460,152.7712033
67,Cascade Street,4305,-27.6388387,152.7711314
67,Cascade Street,4305,-27.6387059,152.7713388
67,Cascade Street,4305,-27.6387478,152.7713306
67,Cascade Street,4305,-27.6388115,152.7713224
67,Cascade Street,4305,-27.6388660,152.7713183
67,Cascade Street,4305,-27.6388986,152.7713115
67,Cascade Street,4305,-27.6389388,152.7713039
67,Cascade Street,4305,-27.6389916,152.7712916
67,Cascade Street,4305,-27.6390274,152.7712831
67,Cascade Street,4305,-27.6389470,152.7711881
67,Cascade Street,4305,-27.6389329,152.7711232
67,Cascade Street,4305,-27.6389893,152.7711155
67,Cascade Street,4305,-27.6389967,152.7711651
67,Cascade Street,4305,-27.6389733,152.7710138
67,Cascade Street,4305,-27.6389626,152.7709676
67,Cascade Street,4305,-27.6389577,152.7709158
67,Cascade Street,4305,-27.6389392,152.7708014
67,Cascade Street,4305,-27.6389528,152.7708575
67,Cascade Street,4305,-27.6388738,152.7707199
67,Cascade Street,4305,-27.6388573,152.7706484
67,Cascade Street,4305,-27.6389236,152.7706396
67,Cascade Street,4305,-27.6389314,152.7706979
2,Colvin Street,4305,-27.6042423,152.7584642
114,Eagle Street,4301,-27.6266152,152.8740441
7005,Mount Juillerat Drive,4301,-27.6686392,152.8418796
118,Eagle Street,4301,-27.6263981,152.8731273
116,Eagle Street,4301,-27.6264640,152.8735981
124,Eagle Street,4301,-27.6263213,152.8723275
126,Eagle Street,4301,-27.6262711,152.8720284
136,Eagle Street,4301,-27.6262429,152.8704375
21,Dunlop Street,4301,-27.6111113,152.8587853
326,Old Logan Road,4300,-27.6358625,152.9168616
3,Jacaranda Street,4305,-27.6061444,152.7732938
183,Kruger Parade,4301,-27.6286965,152.8740620
213,Brisbane Terrace,4300,-27.5970295,152.8890252
213,Brisbane Terrace,4300,-27.5969538,152.8888829
213,Brisbane Terrace,4300,-27.5968385,152.8889764
213,Brisbane Terrace,4300,-27.5969070,152.8891146
213,Brisbane Terrace,4300,-27.5967484,152.8891959
213,Brisbane Terrace,4300,-27.5966872,152.8890699
213,Brisbane Terrace,4300,-27.5965467,152.8891472
213,Brisbane Terrace,4300,-27.5966223,152.8892651
213,Brisbane Terrace,4300,-27.5964926,152.8893708
213,Brisbane Terrace,4300,-27.5964098,152.8892488
213,Brisbane Terrace,4300,-27.5962801,152.8893342
213,Brisbane Terrace,4300,-27.5963485,152.8894439
213,Brisbane Terrace,4300,-27.5962044,152.8895334
213,Brisbane Terrace,4300,-27.5961395,152.8894033
213,Brisbane Terrace,4300,-27.5960170,152.8894765
213,Brisbane Terrace,4300,-27.5961143,152.8896066
213,Brisbane Terrace,4300,-27.5972745,152.8893382
213,Brisbane Terrace,4300,-27.5973934,152.8892935
213,Brisbane Terrace,4300,-27.5973249,152.8894887
213,Brisbane Terrace,4300,-27.5974510,152.8894358
213,Brisbane Terrace,4300,-27.5973645,152.8896350
213,Brisbane Terrace,4300,-27.5974726,152.8895700
213,Brisbane Terrace,4300,-27.5974294,152.8897895
213,Brisbane Terrace,4300,-27.5975375,152.8897366
213,Brisbane Terrace,4300,-27.5974654,152.8899237
213,Brisbane Terrace,4300,-27.5975879,152.8898708
213,Brisbane Terrace,4300,-27.5975339,152.8900619
213,Brisbane Terrace,4300,-27.5976420,152.8900212
213,Brisbane Terrace,4300,-27.5975771,152.8901798
213,Brisbane Terrace,4300,-27.5976744,152.8901269
213,Brisbane Terrace,4300,-27.5976312,152.8903424
213,Brisbane Terrace,4300,-27.5977392,152.8902896
213,Brisbane Terrace,4300,-27.5977609,152.8904278
213,Brisbane Terrace,4300,-27.5976492,152.8905741
213,Brisbane Terrace,4300,-27.5974906,152.8905863
213,Brisbane Terrace,4300,-27.5975663,152.8906636
213,Brisbane Terrace,4300,-27.5973970,152.8907124
213,Brisbane Terrace,4300,-27.5970151,152.8893016
213,Brisbane Terrace,4300,-27.5969250,152.8893586
213,Brisbane Terrace,4300,-27.5968241,152.8893911
213,Brisbane Terrace,4300,-27.5966944,152.8894602
213,Brisbane Terrace,4300,-27.5966007,152.8895212
213,Brisbane Terrace,4300,-27.5965106,152.8895822
213,Brisbane Terrace,4300,-27.5970691,152.8894602
213,Brisbane Terrace,4300,-27.5969250,152.8895049
213,Brisbane Terrace,4300,-27.5968169,152.8895903
213,Brisbane Terrace,4300,-27.5966764,152.8896594
213,Brisbane Terrace,4300,-27.5970115,152.8896553
213,Brisbane Terrace,4300,-27.5971231,152.8895984
213,Brisbane Terrace,4300,-27.5970655,152.8897773
213,Brisbane Terrace,4300,-27.5971664,152.8897448
213,Brisbane Terrace,4300,-27.5971268,152.8899399
213,Brisbane Terrace,4300,-27.5972096,152.8898952
213,Brisbane Terrace,4300,-27.5971772,152.8900944
213,Brisbane Terrace,4300,-27.5972817,152.8900212
213,Brisbane Terrace,4300,-27.5973213,152.8901920
213,Brisbane Terrace,4300,-27.5973754,152.8902936
213,Brisbane Terrace,4300,-27.5973429,152.8904522
213,Brisbane Terrace,4300,-27.5972276,152.8903587
213,Brisbane Terrace,4300,-27.5971123,152.8902204
213,Brisbane Terrace,4300,-27.5970079,152.8901432
213,Brisbane Terrace,4300,-27.5969322,152.8902814
213,Brisbane Terrace,4300,-27.5970475,152.8903546
213,Brisbane Terrace,4300,-27.5971664,152.8904644
213,Brisbane Terrace,4300,-27.5972673,152.8905416
213,Brisbane Terrace,4300,-27.5968457,152.8900172
213,Brisbane Terrace,4300,-27.5967304,152.8899481
213,Brisbane Terrace,4300,-27.5966295,152.8898342
213,Brisbane Terrace,4300,-27.5965143,152.8897488
213,Brisbane Terrace,4300,-27.5964062,152.8896513
213,Brisbane Terrace,4300,-27.5963053,152.8897570
213,Brisbane Terrace,4300,-27.5964530,152.8898586
213,Brisbane Terrace,4300,-27.5965647,152.8899603
213,Brisbane Terrace,4300,-27.5966692,152.8900416
213,Brisbane Terrace,4300,-27.5967701,152.8901554
213,Brisbane Terrace,4300,-27.5971736,152.8907733
213,Brisbane Terrace,4300,-27.5970223,152.8906148
213,Brisbane Terrace,4300,-27.5968637,152.8904928
213,Brisbane Terrace,4300,-27.5966908,152.8903587
213,Brisbane Terrace,4300,-27.5965395,152.8902245
213,Brisbane Terrace,4300,-27.5963773,152.8900863
213,Brisbane Terrace,4300,-27.5962224,152.8899643
213,Brisbane Terrace,4300,-27.5960603,152.8898180
213,Brisbane Terrace,4300,-27.5960999,152.8900294
213,Brisbane Terrace,4300,-27.5961792,152.8901066
213,Brisbane Terrace,4300,-27.5962476,152.8901676
213,Brisbane Terrace,4300,-27.5963233,152.8902245
213,Brisbane Terrace,4300,-27.5964062,152.8903017
213,Brisbane Terrace,4300,-27.5964782,152.8903668
213,Brisbane Terrace,4300,-27.5965647,152.8904359
213,Brisbane Terrace,4300,-27.5966440,152.8904928
213,Brisbane Terrace,4300,-27.5967160,152.8905660
213,Brisbane Terrace,4300,-27.5967917,152.8906189
213,Brisbane Terrace,4300,-27.5968854,152.8907042
213,Brisbane Terrace,4300,-27.5969646,152.8907611
213,Brisbane Terrace,4300,-27.5970475,152.8908140
213,Brisbane Terrace,4300,-27.5971268,152.8908872
213,Brisbane Terrace,4300,-27.5960026,152.8899562
213,Brisbane Terrace,4300,-27.5959414,152.8898993
31,Kruger Parade,4301,-27.6179235,152.8746248
31,Kruger Parade,4301,-27.6177951,152.8745685
31,Kruger Parade,4301,-27.6176716,152.8745068
31,Kruger Parade,4301,-27.6175551,152.8744612
31,Kruger Parade,4301,-27.6174315,152.8743620
31,Kruger Parade,4301,-27.6174078,152.8742332
31,Kruger Parade,4301,-27.6173935,152.8740830
31,Kruger Parade,4301,-27.6173769,152.8739301
31,Kruger Parade,4301,-27.6176597,152.8741930
31,Kruger Parade,4301,-27.6176169,152.8739891
31,Kruger Parade,4301,-27.6176098,152.8738228
31,Kruger Parade,4301,-27.6177452,152.8738148
31,Kruger Parade,4301,-27.6178759,152.8737933
31,Kruger Parade,4301,-27.6179948,152.8737665
31,Kruger Parade,4301,-27.6173626,152.8737772
31,Kruger Parade,4301,-27.6173388,152.8736458
31,Kruger Parade,4301,-27.6173174,152.8735198
31,Kruger Parade,4301,-27.6173032,152.8733856
31,Kruger Parade,4301,-27.6175884,152.8736163
31,Kruger Parade,4301,-27.6177333,152.8735841
31,Kruger Parade,4301,-27.6178546,152.8735600
31,Kruger Parade,4301,-27.6179948,152.8735385
31,Kruger Parade,4301,-27.6179663,152.8733454
31,Kruger Parade,4301,-27.6178260,152.8733669
31,Kruger Parade,4301,-27.6177001,152.8733883
31,Kruger Parade,4301,-27.6175646,152.8734098
31,Kruger Parade,4301,-27.6172770,152.8732435
31,Kruger Parade,4301,-27.6172652,152.8730799
31,Kruger Parade,4301,-27.6172509,152.8729645
31,Kruger Parade,4301,-27.6172271,152.8728224
31,Kruger Parade,4301,-27.6171986,152.8726802
31,Kruger Parade,4301,-27.6171820,152.8725488
31,Kruger Parade,4301,-27.6171582,152.8724120
31,Kruger Parade,4301,-27.6171297,152.8722591
31,Kruger Parade,4301,-27.6171012,152.8721036
31,Kruger Parade,4301,-27.6170822,152.8719748
31,Kruger Parade,4301,-27.6173270,152.8719587
31,Kruger Parade,4301,-27.6173507,152.8721411
31,Kruger Parade,4301,-27.6174054,152.8725676
31,Kruger Parade,4301,-27.6175646,152.8725354
31,Kruger Parade,4301,-27.6176858,152.8725166
31,Kruger Parade,4301,-27.6178379,152.8724978
31,Kruger Parade,4301,-27.6178617,152.8726775
31,Kruger Parade,4301,-27.6177215,152.8726829
31,Kruger Parade,4301,-27.6176003,152.8727151
31,Kruger Parade,4301,-27.6174648,152.8727446
31,Kruger Parade,4301,-27.6174957,152.8729833
31,Kruger Parade,4301,-27.6175218,152.8731657
31,Kruger Parade,4301,-27.6176597,152.8731362
31,Kruger Parade,4301,-27.6176383,152.8729619
31,Kruger Parade,4301,-27.6177452,152.8729377
31,Kruger Parade,4301,-27.6177738,152.8731147
31,Kruger Parade,4301,-27.6179045,152.8730772
31,Kruger Parade,4301,-27.6178855,152.8728975
31,Kruger Parade,4301,-27.6173246,152.8718058
31,Kruger Parade,4301,-27.6170584,152.8718353
31,Kruger Parade,4301,-27.6183513,152.8743727
31,Kruger Parade,4301,-27.6183275,152.8742064
31,Kruger Parade,4301,-27.6183085,152.8740696
31,Kruger Parade,4301,-27.6182823,152.8738792
31,Kruger Parade,4301,-27.6182586,152.8737370
31,Kruger Parade,4301,-27.6182491,152.8736110
31,Kruger Parade,4301,-27.6182277,152.8734795
31,Kruger Parade,4301,-27.6182110,152.8733696
31,Kruger Parade,4301,-27.6181897,152.8732596
31,Kruger Parade,4301,-27.6181659,152.8731174
31,Kruger Parade,4301,-27.6181421,152.8729726
31,Kruger Parade,4301,-27.6181207,152.8727929
31,Kruger Parade,4301,-27.6181041,152.8726615
31,Kruger Parade,4301,-27.6180803,152.8725166
31,Kruger Parade,4301,-27.6180613,152.8723932
31,Kruger Parade,4301,-27.6180471,152.8722350
31,Kruger Parade,4301,-27.6180257,152.8720901
31,Kruger Parade,4301,-27.6180019,152.8719560
31,Kruger Parade,4301,-27.6179948,152.8718246
31,Kruger Parade,4301,-27.6179615,152.8716824
31,Kruger Parade,4301,-27.6177262,152.8717361
31,Kruger Parade,4301,-27.6175836,152.8717468
31,Kruger Parade,4301,-27.6174505,152.8717629
31,Kruger Parade,4301,-27.6179449,152.8715108
31,Kruger Parade,4301,-27.6179092,152.8713740
31,Kruger Parade,4301,-27.6178902,152.8712426
31,Kruger Parade,4301,-27.6178664,152.8711192
31,Kruger Parade,4301,-27.6178522,152.8709770
31,Kruger Parade,4301,-27.6178379,152.8708590
31,Kruger Parade,4301,-27.6178237,152.8707329
31,Kruger Parade,4301,-27.6177975,152.8706015
31,Kruger Parade,4301,-27.6177666,152.8703628
31,Kruger Parade,4301,-27.6177405,152.8702287
31,Kruger Parade,4301,-27.6177238,152.8701107
31,Kruger Parade,4301,-27.6177048,152.8699390
31,Kruger Parade,4301,-27.6176763,152.8697834
31,Kruger Parade,4301,-27.6176502,152.8696574
31,Kruger Parade,4301,-27.6176264,152.8694964
31,Kruger Parade,4301,-27.6176193,152.8693757
31,Kruger Parade,4301,-27.6175979,152.8691934
31,Kruger Parade,4301,-27.6173959,152.8693248
31,Kruger Parade,4301,-27.6172200,152.8693543
31,Kruger Parade,4301,-27.6167589,152.8696574
31,Kruger Parade,4301,-27.6167803,152.8698344
31,Kruger Parade,4301,-27.6168112,152.8699792
31,Kruger Parade,4301,-27.6168397,152.8701187
31,Kruger Parade,4301,-27.6168706,152.8704057
31,Kruger Parade,4301,-27.6168968,152.8705666
31,Kruger Parade,4301,-27.6169229,152.8706981
31,Kruger Parade,4301,-27.6169348,152.8708429
31,Kruger Parade,4301,-27.6169491,152.8709529
31,Kruger Parade,4301,-27.6169752,152.8710870
31,Kruger Parade,4301,-27.6169823,152.8712157
31,Kruger Parade,4301,-27.6169918,152.8713525
31,Kruger Parade,4301,-27.6170085,152.8714625
31,Kruger Parade,4301,-27.6170299,152.8715993
31,Kruger Parade,4301,-27.6170346,152.8717093
31,Kruger Parade,4301,-27.6172937,152.8715483
31,Kruger Parade,4301,-27.6174410,152.8715108
31,Kruger Parade,4301,-27.6175646,152.8715001
31,Kruger Parade,4301,-27.6177191,152.8714705
31,Kruger Parade,4301,-27.6176739,152.8712667
31,Kruger Parade,4301,-27.6175242,152.8713069
31,Kruger Parade,4301,-27.6174125,152.8713257
31,Kruger Parade,4301,-27.6172723,152.8713525
31,Kruger Parade,4301,-27.6172343,152.8711138
31,Kruger Parade,4301,-27.6173840,152.8710843
31,Kruger Parade,4301,-27.6175099,152.8710629
31,Kruger Parade,4301,-27.6176335,152.8710441
31,Kruger Parade,4301,-27.6175955,152.8708456
31,Kruger Parade,4301,-27.6174600,152.8708724
31,Kruger Parade,4301,-27.6173388,152.8708885
31,Kruger Parade,4301,-27.6171939,152.8709153
31,Kruger Parade,4301,-27.6173174,152.8706525
31,Kruger Parade,4301,-27.6174482,152.8706364
31,Kruger Parade,4301,-27.6175717,152.8706176
31,Kruger Parade,4301,-27.6174291,152.8704352
31,Kruger Parade,4301,-27.6172675,152.8704701
31,Kruger Parade,4301,-27.6171392,152.8704942
31,Kruger Parade,4301,-27.6172533,152.8702448
31,Kruger Parade,4301,-27.6173816,152.8702233
31,Kruger Parade,4301,-27.6175123,152.8701911
31,Kruger Parade,4301,-27.6174672,152.8700087
31,Kruger Parade,4301,-27.6173270,152.8700248
31,Kruger Parade,4301,-27.6172010,152.8700382
31,Kruger Parade,4301,-27.6170703,152.8700704
31,Kruger Parade,4301,-27.6170275,152.8698371
31,Kruger Parade,4301,-27.6171701,152.8698022
31,Kruger Parade,4301,-27.6173079,152.8697888
31,Kruger Parade,4301,-27.6174363,152.8697700
31,Kruger Parade,4301,-27.6174030,152.8695608
31,Kruger Parade,4301,-27.6172913,152.8695930
31,Kruger Parade,4301,-27.6171725,152.8696118
31,Kruger Parade,4301,-27.6170227,152.8696332
31,Kruger Parade,4301,-27.6170988,152.8702716
254,Redbank Plains Road,4300,-27.6370319,152.8736810
254,Redbank Plains Road,4300,-27.6370445,152.8737785
254,Redbank Plains Road,4300,-27.6370553,152.8738680
254,Redbank Plains Road,4300,-27.6370688,152.8739554
254,Redbank Plains Road,4300,-27.6370805,152.8740550
254,Redbank Plains Road,4300,-27.6370958,152.8741526
252,Redbank Plains Road,4300,-27.6368559,152.8737072
8,Nicholas Street,4305,-27.6127996,152.7596310
8,Nicholas Street,4305,-27.6127964,152.7597018
8,Nicholas Street,4305,-27.6128114,152.7594723
8,Nicholas Street,4305,-27.6128046,152.7595502
44,Nicholas Street,4305,-27.6139433,152.7590827
Cnr,The Terrace and Downs Street,4305,-27.6077984,152.7577915
20,Saleyards Road,4305,-27.6550593,152.7478603
319-321,Redbank Plains Road,4301,-27.6429471,152.8711110
332,Ripley Road,4306,-27.6906577,152.8028276
6,Amity Way,4306,-27.6915653,152.8075304
6,Amity Way,4306,-27.6918060,152.8074267
37,Brisbane Street,4305,-27.6149836,152.7634564
37,Brisbane Road,4304,-27.6084105,152.8117044
171-191,School Road,4301,-27.6640382,152.8496260
171-191,School Road,4301,-27.6638506,152.8493351
171-191,School Road,4301,-27.6638032,152.8495289
171-191,School Road,4301,-27.6637916,152.8494171
171-191,School Road,4301,-27.6637828,152.8496119
171-191,School Road,4301,-27.6637332,152.8498144
171-191,School Road,4301,-27.6634011,152.8498993
171-191,School Road,4301,-27.6633191,152.8498700
171-191,School Road,4301,-27.6631262,152.8498009
171-191,School Road,4301,-27.6629723,152.8497459
171-191,School Road,4301,-27.6639163,152.8499999
116-124,Brisbane Road,4304,-27.6134946,152.7858249
25,Brisbane Road,4303,-27.5983793,152.8313628
25,Brisbane Road,4303,-27.5983805,152.8314908
73,Blackstone Road,4305,-27.6211832,152.7807777
2,The Terrace,4305,-27.6099149,152.7597368
126,Brisbane Street,4305,-27.6141177,152.7576986
76,Grange Road,4305,-27.6270754,152.7784299
76,Grange Road,4305,-27.6269437,152.7784455
244,Redbank Plains Road,4300,-27.6361238,152.8737583
244,Redbank Plains Road,4300,-27.6361380,152.8738656
244,Redbank Plains Road,4300,-27.6361558,152.8739849
244,Redbank Plains Road,4300,-27.6361701,152.8740922
244,Redbank Plains Road,4300,-27.6361844,152.8741942
244,Redbank Plains Road,4300,-27.6361986,152.8743068
246,Redbank Plains Road,4300,-27.6362984,152.8737368
242,Redbank Plains Road,4300,-27.6360084,152.8740603
74,Brisbane Road,4303,-27.5997925,152.8275951
74,Brisbane Road,4303,-27.5999998,152.8273133
74,Brisbane Road,4303,-27.6002000,152.8270243
74,Brisbane Road,4303,-27.5996786,152.8277474
7001,Perseverance Street,4306,-27.5702981,152.7960380
15,Verrall Street,4303,-27.5959023,152.8452109
37,Nicholas Street,4305,-27.6135348,152.7588269
214,Brisbane Road,4304,-27.6118325,152.7977695
214,Brisbane Road,4304,-27.6112704,152.7974555
15,Naomai Street,4304,-27.6148046,152.8116421
214,Brisbane Road,4304,-27.6112210,152.7972177
44,Brisbane Street,4305,-27.6152541,152.7617007
12,Roderick Street,4305,-27.6190114,152.7632329
1,Collingwood Drive,4301,-27.6055338,152.8677740
81,Warwick Road,4305,-27.6286674,152.7582456
61,Workshops Street,4305,-27.5967629,152.7432108
219,Brisbane Road,4305,-27.6151961,152.8050454
1,Spalding Crescent,4300,-27.6133210,152.9012787
3,Spalding Crescent,4300,-27.6129645,152.9013613
264,Warwick Road,4305,-27.6431815,152.7524158
14,Bruce Street,4301,-27.6491131,152.8689854
8,Bruce Street,4301,-27.6491090,152.8699594
10,Bruce Street,4301,-27.6491202,152.8695685
12,Bruce Street,4301,-27.6491764,152.8693003
6,Bruce Street,4301,-27.6491565,152.8703044
339,Redbank Plains Road,4301,-27.6439676,152.8708878
5,Keidges Road,4301,-27.6474720,152.8711848
11,Bruce Street,4301,-27.6483799,152.8694266
3,Lillian Street,4301,-27.6471052,152.8708917
3,Lillian Street,4301,-27.6471223,152.8710610
214,Brisbane Road,4304,-27.6124089,152.7976522
75,Ivan Lane,4306,-27.5499587,152.6747785
22,Hawkins Crescent,4304,-27.5851570,152.8164395
1a,Samford Road,4305,-27.6276388,152.7272234
5,Spalding Crescent,4300,-27.6126218,152.9009499
7,Rex Hills Drive,4306,-27.6576610,152.7807621
9,Keidges Road,4301,-27.6482854,152.8710746
9,Bruce Street,4301,-27.6484730,152.8697778
7,Bruce Street,4301,-27.6483831,152.8701186
1,Bruce Street,4301,-27.6486872,152.8710473
2,Bruce Street,4301,-27.6491256,152.8709480
32,Collingwood Drive,4301,-27.6078791,152.8665437
112,Collingwood Drive,4301,-27.6142715,152.8622355
190-194,Brisbane Road,4304,-27.6130025,152.7936407
214,Brisbane Road,4304,-27.6120831,152.7964150
214,Brisbane Road,4304,-27.6116794,152.7965175
42,Wellness Way,4300,-27.6889256,152.9085595
5,Spalding Crescent,4300,-27.6120855,152.9015334
81,Riverview Road,4303,-27.5896046,152.8405080
227-243,School Road,4301,-27.6695774,152.8500199
1,Chum Street,4303,-27.6059459,152.8318122
68,Chum Street,4303,-27.6061667,152.8349637
100,Chum Street,4303,-27.6128807,152.8355037
40,Grande Avenue,4300,-27.6896000,152.9184526
2,Tournament Drive,4300,-27.6635388,152.8916588
11,Mary Mackenroth Lane,4300,-27.6816680,152.8987033
2,Pound Street,4305,-27.6225762,152.7503714
6,Springfield Parkway,4300,-27.6639723,152.9089295
57,Grande Avenue,4300,-27.6892093,152.9161529
12,Queen Street,4300,-27.6119264,152.8976579
126,Cascade Street,4305,-27.6371160,152.7763791
59,Huxham Street,4305,-27.6363899,152.7564887
4,Brisbane Road,4301,-27.6018991,152.8625422
7,Brisbane Road,4303,-27.5969860,152.8393031
2,Smiths Road,4300,-27.6099752,152.8970436
70,Lakes Entrance Drive,4300,-27.6824174,152.9158494
103,Redbank Plains Road,4300,-27.6280708,152.8837188
1-19,School Road,4305,-27.6451077,152.8520876
5,Union Place,4305,-27.6123426,152.7599870
475,Warwick Road,4305,-27.6584663,152.7414270
3,Salisbury Road,4305,-27.6261848,152.7567904
2,Smiths Road,4300,-27.6099304,152.8974531
346-348,Redbank Plains Road,4300,-27.6445854,152.8727827
2,Smiths Road,4300,-27.6096920,152.8969887
2,Smiths Road,4300,-27.6096333,152.8978412
2,Smiths Road,4300,-27.6098914,152.8985400
2,Smiths Road,4300,-27.6107918,152.8966820
85,Leon Capra Drive,4300,-27.6524757,152.8884005
16,Geraldton Street,4300,-27.6889223,152.9224711
19,Smiths Road,4300,-27.6088157,152.8968426
26,Queen Street,4300,-27.6132319,152.8962522
292,Redbank Plains Road,4300,-27.6406857,152.8730125
296,Redbank Plains Road,4300,-27.6410583,152.8733153
20,Queen Street,4300,-27.6127317,152.8970820
18,Queen Street,4300,-27.6125365,152.8972160
18,Queen Street,4300,-27.6124181,152.8972898
16,Queen Street,4300,-27.6122708,152.8972994
57,Alice Street,4300,-27.6131335,152.8970078
29,Queen Street,4300,-27.6116128,152.8972879
16,Church Street,4300,-27.6130479,152.8988258
85,Leon Capra Drive,4300,-27.6525284,152.8884463
2,Frawley Drive,4301,-27.6441276,152.8562751
497,Redbank Plains Road,4301,-27.6441396,152.8560793
499,Redbank Plains Road,4301,-27.6441631,152.8558385
501,Redbank Plains Road,4301,-27.6440943,152.8556163
503,Redbank Plains Road,4301,-27.6440708,152.8554193
505,Redbank Plains Road,4301,-27.6440273,152.8552066
2,Carol Street,4301,-27.6449396,152.8573014
4,Carol Street,4301,-27.6450637,152.8572093
6,Carol Street,4301,-27.6452275,152.8571964
8,Carol Street,4301,-27.6453744,152.8571281
10,Carol Street,4301,-27.6456800,152.8570872
486,Redbank Plains Road,4301,-27.6449887,152.8576123
484,Redbank Plains Road,4301,-27.6450969,152.8578145
482,Redbank Plains Road,4301,-27.6451343,152.8580660
478,Redbank Plains Road,4301,-27.6451780,152.8583715
474,Redbank Plains Road,4301,-27.6452236,152.8588057
472,Redbank Plains Road,4301,-27.6453030,152.8589994
470,Redbank Plains Road,4301,-27.6453877,152.8591945
468,Redbank Plains Road,4301,-27.6452604,152.8594179
456,Redbank Plains Road,4301,-27.6455610,152.8605970
75,Cedar Road,4301,-27.6455030,152.8610743
461,Redbank Plains Road,4301,-27.6448542,152.8611927
1,Glen Fairlie Avenue,4301,-27.6448518,152.8608122
2,Glen Fairlie Avenue,4301,-27.6447640,152.8603219
469,Redbank Plains Road,4301,-27.6446064,152.8597550
471,Redbank Plains Road,4301,-27.6446232,152.8594257
493,Redbank Plains Road,4301,-27.6441563,152.8567433
491,Redbank Plains Road,4301,-27.6443208,152.8569651
2,Glen Noble Avenue,4301,-27.6443787,152.8573793
1,Glen Noble Avenue,4301,-27.6444435,152.8579082
2,Shirley Street,4301,-27.6446979,152.8557897
1,Shirley Street,4301,-27.6446651,152.8553101
508,Redbank Plains Road,4301,-27.6447441,152.8548833
374,Redbank Plains Road,4301,-27.6467543,152.8707009
376,Redbank Plains Road,4301,-27.6469829,152.8703277
378,Redbank Plains Road,4301,-27.6468699,152.8700866
380,Redbank Plains Road,4301,-27.6467522,152.8697508
3,Keidges Road,4301,-27.6472507,152.8712362
3,Jones Road,4300,-27.6471996,152.8722480
5,Jones Road,4300,-27.6471237,152.8726463
191,Cedar Road,4301,-27.6580255,152.8589033
74,Huntley Crescent,4301,-27.6579859,152.8586093
76,Huntley Crescent,4301,-27.6581088,152.8585886
193,Cedar Road,4301,-27.6581587,152.8588830
70,Huntley Crescent,4301,-27.6579707,152.8582081
72,Alawoona Street,4301,-27.6581158,152.8595118
73,Alawoona Street,4301,-27.6577324,152.8596051
71,Alawoona Street,4301,-27.6577630,152.8598712
70,Alawoona Street,4301,-27.6581337,152.8597284
166,Alawoona Street,4301,-27.6567436,152.8498192
161,Alawoona Street,4301,-27.6564160,152.8508443
169,Alawoona Street,4301,-27.6562560,152.8497165
26,Fernvale Road,4305,-27.5889494,152.7405576
20,Keidges Road,4300,-27.6483717,152.8717694
18,Keidges Road,4300,-27.6480674,152.8717582
24,Keidges Road,4300,-27.6488810,152.8716063
1,South Street,4301,-27.6499334,152.8708267
3,South Street,4301,-27.6496700,152.8708214
2A,Bruce Street,4301,-27.6494352,152.8708561
1,Harry Street,4300,-27.6501310,152.8713194
1A,Harry Street,4300,-27.6501457,152.8715620
3,Harry Street,4300,-27.6501718,152.8718013
5,Harry Street,4300,-27.6502395,152.8720225
7,Harry Street,4300,-27.6502569,152.8722110
34,Keidges Road,4300,-27.6504373,152.8714188
36,Keidges Road,4300,-27.6507110,152.8715042
4,Jones Road,4300,-27.6463268,152.8720685
4,Jones Road,4300,-27.6464668,152.8719535
8,Jones Road,4300,-27.6460605,152.8725093
362,Redbank Plains Road,4300,-27.6461946,152.8720847
362,Redbank Plains Road,4300,-27.6460186,152.8721926
358,Redbank Plains Road,4300,-27.6455507,152.8722670
26,Brian Street,4303,-27.5984131,152.8475365
2,Brian Street,4303,-27.5989498,152.8498248
4,Brian Street,4303,-27.5988973,152.8496563
6,Brian Street,4303,-27.5988911,152.8494988
5,Tessman Street,4303,-27.5989320,152.8501255
3,Tessman Street,4303,-27.5985761,152.8501920
1,Brian Street,4303,-27.5985374,152.8499532
3,Brian Street,4303,-27.5984916,152.8497683
5,Brian Street,4303,-27.5984852,152.8495934
24,Brian Street,4303,-27.5985571,152.8476940
9,Monigold Place,4303,-27.5993108,152.8348173
41,Brisbane Road,4304,-27.6082431,152.8123040
16,Mine Street,4301,-27.6027786,152.8695110
81,Rawlings Road,4306,-27.6732114,152.7500531
13,Hawkins Crescent,4304,-27.5867499,152.8178888
817,Redbank Plains Road,4301,-27.6360319,152.8327336
817,Redbank Plains Road,4301,-27.6359759,152.8329887
116,Albert Street,4300,-27.6183215,152.8896437
116,Albert Street,4300,-27.6182457,152.8896562
116,Albert Street,4300,-27.6181636,152.8896674
116,Albert Street,4300,-27.6181190,152.8896751
116,Albert Street,4300,-27.6180768,152.8896828
116,Albert Street,4300,-27.6180307,152.8896907
116,Albert Street,4300,-27.6178936,152.8897134
116,Albert Street,4300,-27.6179534,152.8897024
23,Curnow Street,4300,-27.6182327,152.8891584
121,Albert Street,4300,-27.6179031,152.8892040
110,Albert Street,4300,-27.6172291,152.8898484
119,Albert Street,4300,-27.6177123,152.8892672
117,Albert Street,4300,-27.6175388,152.8893011
17,Smiths Road,4300,-27.6088332,152.8971762
17,Smiths Road,4300,-27.6088702,152.8973371
27,Smiths Road,4300,-27.6087300,152.8964680
2,Shannon Street,4301,-27.6347981,152.8733770
1,Shannon Street,4301,-27.6340472,152.8735180
13,Church Street,4300,-27.6111965,152.8984566
2,Wolfik Drive,4300,-27.6257266,152.8822330
4,Wolfik Drive,4300,-27.6255532,152.8822608
6,Wolfik Drive,4300,-27.6253742,152.8822912
8,Wolfik Drive,4300,-27.6251718,152.8823339
10,Wolfik Drive,4300,-27.6250247,152.8823637
12,Wolfik Drive,4300,-27.6248449,152.8823663
14,Wolfik Drive,4300,-27.6246623,152.8824447
16,Wolfik Drive,4300,-27.6247308,152.8827016
18,Wolfik Drive,4300,-27.6247650,152.8829043
20,Wolfik Drive,4300,-27.6247922,152.8830622
22,Wolfik Drive,4300,-27.6248080,152.8832663
26,Wolfik Drive,4300,-27.6245758,152.8832476
30,Wolfik Drive,4300,-27.6242265,152.8833182
28,Wolfik Drive,4300,-27.6244077,152.8832866
32,Wolfik Drive,4300,-27.6240689,152.8833404
34,Wolfik Drive,4300,-27.6237804,152.8834646
40,Wolfik Drive,4300,-27.6233467,152.8833417
42,Wolfik Drive,4300,-27.6231824,152.8832601
3,Wolfik Drive,4300,-27.6256528,152.8826983
5,Wolfik Drive,4300,-27.6254533,152.8827381
7,Wolfik Drive,4300,-27.6252696,152.8827736
9,Wolfik Drive,4300,-27.6251285,152.8827990
1,Barker Close,4300,-27.6251903,152.8831550
2,Barker Close,4300,-27.6251840,152.8836215
23,Wolfik Drive,4300,-27.6246377,152.8837266
19,Wolfik Drive,4300,-27.6250391,152.8836310
19,Wolfik Drive,4300,-27.6249786,152.8836422
21,Wolfik Drive,4300,-27.6247928,152.8836787
21,Wolfik Drive,4300,-27.6248549,152.8836670
25,Wolfik Drive,4300,-27.6244505,152.8837686
27,Wolfik Drive,4300,-27.6242978,152.8837970
29,Wolfik Drive,4300,-27.6241103,152.8838024
31,Wolfik Drive,4300,-27.6239477,152.8838650
4,Justin Lemberg Court,4300,-27.6238261,152.8832725
6,Justin Lemberg Court,4300,-27.6238561,152.8830577
10,Justin Lemberg Court,4300,-27.6240129,152.8829783
12,Justin Lemberg Court,4300,-27.6241800,152.8830043
14,Justin Lemberg Court,4300,-27.6243730,152.8830072
3,Barker Close,4300,-27.6253459,152.8830906
5,Barker Close,4300,-27.6256046,152.8830061
7,Barker Close,4300,-27.6256621,152.8832067
8,Barker Close,4300,-27.6256499,152.8834152
6,Barker Close,4300,-27.6256489,152.8836189
4,Barker Close,4300,-27.6253712,152.8835974
2,Bloom Way,4300,-27.6258976,152.8826279
11,Jones Road,4300,-27.6473065,152.8732920
108,Brisbane Terrace,4300,-27.6064909,152.9035593
16,Bertha Street,4300,-27.6113525,152.9037095
67,Cascade Street,4305,-27.6386679,152.7711617
26-34,Oakview Circuit,4300,-27.6603701,152.8932138
14,Church Street,4300,-27.6128011,152.8990121
15,Mill Street,4300,-27.6113615,152.9006865
25,Mill Street,4300,-27.6116872,152.9023306
11,Mill Street,4300,-27.6105435,152.9005107
13,Mill Street,4300,-27.6106152,152.9007418
2,Mill Street,4300,-27.6100815,152.9005019
4,Mill Street,4300,-27.6101170,152.9006673
6,Mill Street,4300,-27.6101380,152.9008308
12,Mill Street,4300,-27.6103007,152.9022025
14,Mill Street,4300,-27.6105197,152.9023113
35,Queen Street,4300,-27.6119532,152.8964710
13,Thomas Street,4300,-27.6114293,152.8924912
19,Byers Court,4301,-27.5973877,152.8795912
13,Monash Road,4301,-27.5956925,152.8797866
15,Monash Road,4301,-27.5960639,152.8797388
2,Colvin Street,4305,-27.6045057,152.7587322
12,Queen Street,4300,-27.6119911,152.8976349
357,Redbank Plains Road,4301,-27.6459311,152.8689553
357,Redbank Plains Road,4301,-27.6460069,152.8695832
1,Moggill Ferry Road,4303,-27.5948702,152.8510668
3,Moggill Ferry Road,4303,-27.5947442,152.8512596
5,Moggill Ferry Road,4303,-27.5947154,152.8517173
7,Moggill Ferry Road,4303,-27.5945349,152.8519599
11,Moggill Ferry Road,4303,-27.5950573,152.8529286
166,Redbank Plains Road,4300,-27.6308909,152.8791698
202,Redbank Plains Road,4300,-27.6325229,152.8755495
152,Marlborough Street,4300,-27.6326513,152.8754090
204,Redbank Plains Road,4300,-27.6327728,152.8750826
208,Redbank Plains Road,4300,-27.6329244,152.8747971
212,Redbank Plains Road,4300,-27.6331288,152.8746972
154,Marlborough Street,4300,-27.6328816,152.8756940
214,Redbank Plains Road,4300,-27.6333154,152.8745603
216,Redbank Plains Road,4300,-27.6334647,152.8743620
218,Redbank Plains Road,4300,-27.6336471,152.8743877
6,Huntley Crescent,4301,-27.6590418,152.8551036
8,Huntley Crescent,4301,-27.6589397,152.8551407
10,Huntley Crescent,4301,-27.6588415,152.8551588
94,Johnston Street,4300,-27.6379079,152.8748840
94a,Johnston Street,4300,-27.6378546,152.8744575
96,Johnston Street,4300,-27.6376642,152.8744928
96a,Johnston Street,4300,-27.6377280,152.8749363
91,Johnston Street,4300,-27.6375602,152.8755363
95,Johnston Street,4300,-27.6374335,152.8758072
97,Johnston Street,4300,-27.6374179,152.8764314
99,Johnston Street,4300,-27.6370603,152.8766043
101,Johnston Street,4300,-27.6369524,152.8756826
100,Johnston Street,4300,-27.6373568,152.8746402
50,Coal Road,4306,-27.5714637,152.7835646
4,Brisbane Road,4304,-27.6098921,152.8067366
2320,Warrego Highway,4306,-27.5686039,152.6220501
80,Leon Capra Drive,4300,-27.6512794,152.8879743
2,Waterview Court,4300,-27.6703903,152.9155221
4,Waterview Court,4300,-27.6703274,152.9157032
6,Waterview Court,4300,-27.6703221,152.9159130
8,Waterview Court,4300,-27.6702524,152.9161197
10,Waterview Court,4300,-27.6702584,152.9163203
12,Waterview Court,4300,-27.6702226,152.9165184
14,Waterview Court,4300,-27.6702003,152.9166920
16,Waterview Court,4300,-27.6701642,152.9169124
18,Waterview Court,4300,-27.6701127,152.9170785
20,Waterview Court,4300,-27.6701115,152.9172969
22,Waterview Court,4300,-27.6699422,152.9173072
3,Waterview Court,4300,-27.6707959,152.9158187
5,Waterview Court,4300,-27.6707361,152.9159394
7,Waterview Court,4300,-27.6707266,152.9160569
9,Waterview Court,4300,-27.6707022,152.9161705
11,Waterview Court,4300,-27.6706832,152.9163129
13,Waterview Court,4300,-27.6706677,152.9165344
15,Waterview Court,4300,-27.6706106,152.9166739
17,Waterview Court,4300,-27.6706015,152.9167729
19,Waterview Court,4300,-27.6705731,152.9168943
21,Waterview Court,4300,-27.6705418,152.9170277
23,Waterview Court,4300,-27.6705502,152.9172006
8,Regents Drive,4301,-27.6626548,152.8441656
4,Sonia Court,4305,-27.6428499,152.7625162
4,Sonia Court,4305,-27.6426791,152.7625467
24,Rice Road,4301,-27.6446351,152.8380059
24a,Rice Road,4301,-27.6452250,152.8378996
7,Jones Road,4301,-27.6470019,152.8724878
326,Old Logan Road,4300,-27.6360522,152.9168681
1,Springfield Lakes Boulevard,4300,-27.6692278,152.9161560
6,Baker Street,4300,-27.6123687,152.9171504
6,Baker Street,4300,-27.6122920,152.9168701
6,Baker Street,4300,-27.6121462,152.9168590
6,Baker Street,4300,-27.6120040,152.9168917
6,Baker Street,4300,-27.6120508,152.9171693
70,Willow Road,4301,-27.6518742,152.8615220
14,Curlew Street,4300,-27.6456775,152.9138262
12,Curlew Street,4300,-27.6459264,152.9138511
10,Curlew Street,4300,-27.6460498,152.9139545
8,Curlew Street,4300,-27.6460406,152.9142329
6,Curlew Street,4300,-27.6460270,152.9144963
4,Curlew Street,4300,-27.6460384,152.9147185
40,Moresby Avenue,4300,-27.6462620,152.9148024
38,Moresby Avenue,4300,-27.6465113,152.9147066
36,Moresby Avenue,4300,-27.6467118,152.9146700
34,Moresby Avenue,4300,-27.6469748,152.9147441
5,Curlew Street,4300,-27.6456264,152.9145623
7,Curlew Street,4300,-27.6456316,152.9143850
37,Moresby Avenue,4300,-27.6465232,152.9152345
39,Moresby Avenue,4300,-27.6464535,152.9154520
41,Moresby Avenue,4300,-27.6464224,152.9156868
43,Moresby Avenue,4300,-27.6463904,152.9159354
57,Sharpless Road,4300,-27.6502844,152.9162174
55,Sharpless Road,4300,-27.6502076,152.9163247
53,Sharpless Road,4300,-27.6500904,152.9164801
51,Sharpless Road,4300,-27.6499896,152.9166753
49,Sharpless Road,4300,-27.6497786,152.9167239
47,Sharpless Road,4300,-27.6495959,152.9167320
45,Sharpless Road,4300,-27.6494378,152.9167206
43,Sharpless Road,4300,-27.6492544,152.9167365
41,Sharpless Road,4300,-27.6490247,152.9166899
39,Sharpless Road,4300,-27.6488071,152.9166628
2,Tourmaline Street,4300,-27.6492311,152.9172934
4,Tourmaline Street,4300,-27.6492162,152.9174780
6,Tourmaline Street,4300,-27.6492046,152.9176322
8,Tourmaline Street,4300,-27.6491944,152.9178012
10,Tourmaline Street,4300,-27.6492308,152.9179527
32,Sharpless Road,4300,-27.6488924,152.9172441
1,Tourmaline Street,4300,-27.6496257,152.9172717
3,Tourmaline Street,4300,-27.6496189,152.9175096
5,Tourmaline Street,4300,-27.6496576,152.9177349
5,Sapphire Street,4300,-27.6500404,152.9176303
6,Sapphire Street,4300,-27.6501620,152.9180731
2,Moonstone Street,4300,-27.6506765,152.9178255
11,Aquamarine Street,4300,-27.6508249,152.9180131
14,Aquamarine Street,4300,-27.6510099,152.9183987
1,Moonstone Street,4300,-27.6509756,152.9174968
3,Moonstone Street,4300,-27.6510841,152.9177057
5,Moonstone Street,4300,-27.6511683,152.9178152
7,Moonstone Street,4300,-27.6512304,152.9179673
9,Moonstone Street,4300,-27.6513169,152.9180798
11,Moonstone Street,4300,-27.6514493,152.9181907
42,Moresby Avenue,4300,-27.6460362,152.9152855
44,Moresby Avenue,4300,-27.6460083,152.9156210
46,Moresby Avenue,4300,-27.6459831,152.9158568
46,Sharpless Road,4300,-27.6505186,152.9166949
44,Sharpless Road,4300,-27.6504321,152.9168846
42,Sharpless Road,4300,-27.6503119,152.9170361
40,Sharpless Road,4300,-27.6500924,152.9172377
38,Sharpless Road,4300,-27.6499314,152.9172617
33,Sapphire Street,4300,-27.6526433,152.9171493
4,Brisbane Road,4301,-27.6019946,152.8625085
37,Sinnathamby Boulevard,4300,-27.6819020,152.9062672
9,Maenporth Street,4305,-27.6246192,152.7328114
5,Maenporth Street,4305,-27.6247340,152.7330859
1,Maenporth Street,4305,-27.6248757,152.7333263
7,Maenporth Street,4305,-27.6246906,152.7329462
3,Maenporth Street,4305,-27.6247260,152.7332722
11,Maenporth Street,4305,-27.6245326,152.7326855
15,Maenporth Street,4305,-27.6244705,152.7323781
13,Maenporth Street,4305,-27.6245279,152.7325296
3,Kynance Street,4305,-27.6248826,152.7339661
1,Kynance Street,4305,-27.6248214,152.7341910
5,Kynance Street,4305,-27.6248531,152.7337237
7,Kynance Street,4305,-27.6250438,152.7334620
34,Toongarra Road,4305,-27.6247083,152.7344653
36,Toongarra Road,4305,-27.6246164,152.7341756
38,Toongarra Road,4305,-27.6245752,152.7339457
40,Toongarra Road,4305,-27.6245155,152.7337666
42,Toongarra Road,4305,-27.6244649,152.7335448
42A,Toongarra Road,4305,-27.6243989,152.7333541
44A,Toongarra Road,4305,-27.6243478,152.7332106
44,Toongarra Road,4305,-27.6242855,152.7331274
46,Toongarra Road,4305,-27.6242426,152.7329566
48,Toongarra Road,4305,-27.6241654,152.7327087
50,Toongarra Road,4305,-27.6240464,152.7322921
52,Toongarra Road,4305,-27.6240808,152.7320923
54,Toongarra Road,4305,-27.6239440,152.7319578
29,Toongarra Road,4305,-27.6236481,152.7327389
27,Toongarra Road,4305,-27.6236904,152.7328963
25,Toongarra Road,4305,-27.6237369,152.7330408
23,Toongarra Road,4305,-27.6237962,152.7332530
21,Toongarra Road,4305,-27.6239160,152.7337218
19A,Toongarra Road,4305,-27.6240962,152.7340784
2,Kynance Street,4305,-27.6250608,152.7347693
2A,Kynance Street,4305,-27.6250036,152.7349059
32,Toongarra Road,4305,-27.6249379,152.7350718
30,Toongarra Road,4305,-27.6250429,152.7352417
28,Toongarra Road,4305,-27.6250218,152.7354165
4,Kynance Street,4305,-27.6250942,152.7346185
6,Kynance Street,4305,-27.6251632,152.7344740
8,Kynance Street,4305,-27.6252112,152.7343407
10,Kynance Street,4305,-27.6252411,152.7341824
12,Kynance Street,4305,-27.6252993,152.7340538
14,Kynance Street,4305,-27.6253417,152.7339065
16,Kynance Street,4305,-27.6254027,152.7337759
18,Kynance Street,4305,-27.6254361,152.7336188
20,Kynance Street,4305,-27.6254817,152.7334656
22,Kynance Street,4305,-27.6255255,152.7333295
24,Kynance Street,4305,-27.6255893,152.7331884
26,Kynance Street,4305,-27.6256388,152.7330684
28,Kynance Street,4305,-27.6256872,152.7329051
30,Kynance Street,4305,-27.6257307,152.7327629
32,Kynance Street,4305,-27.6257486,152.7326124
34,Kynance Street,4305,-27.6257719,152.7324620
36,Kynance Street,4305,-27.6258206,152.7323050
38,Kynance Street,4305,-27.6258671,152.7321300
40,Kynance Street,4305,-27.6259828,152.7319780
40,Kynance Street,4305,-27.6260046,152.7317883
2,Maenporth Street,4305,-27.6251198,152.7329032
4,Maenporth Street,4305,-27.6250254,152.7326405
6,Maenporth Street,4305,-27.6249956,152.7324565
8,Maenporth Street,4305,-27.6249186,152.7322573
10,Maenporth Street,4305,-27.6248323,152.7320838
12,Maenporth Street,4305,-27.6247720,152.7318861
14,Maenporth Street,4305,-27.6247128,152.7317047
16,Maenporth Street,4305,-27.6246725,152.7314823
18,Maenporth Street,4305,-27.6245985,152.7313177
20,Maenporth Street,4305,-27.6245261,152.7311196
22,Maenporth Street,4305,-27.6244876,152.7309197
24,Maenporth Street,4305,-27.6244385,152.7307063
26,Maenporth Street,4305,-27.6243773,152.7305475
28,Maenporth Street,4305,-27.6243108,152.7303225
30,Maenporth Street,4305,-27.6242484,152.7301359
32,Maenporth Street,4305,-27.6242025,152.7299549
34,Maenporth Street,4305,-27.6241468,152.7297555
34,Maenporth Street,4305,-27.6240829,152.7295648
17,Maenporth Street,4305,-27.6244422,152.7322378
19,Maenporth Street,4305,-27.6244135,152.7320385
21,Maenporth Street,4305,-27.6243490,152.7318342
23,Maenporth Street,4305,-27.6242941,152.7316375
25,Maenporth Street,4305,-27.6242390,152.7314617
27,Maenporth Street,4305,-27.6241155,152.7312565
9,Kynance Street,4305,-27.6252533,152.7328049
11,Kynance Street,4305,-27.6253213,152.7325802
1,Main Street,4300,-27.6780712,152.9013009
45,Brisbane Road,4304,-27.6081268,152.8125881
45,Brisbane Road,4304,-27.6080617,152.8127290
38,Parkview Drive,4300,-27.6739386,152.9151893
34,Parkview Drive,4300,-27.6737985,152.9149222
30,Parkview Drive,4300,-27.6737948,152.9146976
28,Parkview Drive,4300,-27.6737560,152.9145414
26,Parkview Drive,4300,-27.6737589,152.9143303
22,Parkview Drive,4300,-27.6737238,152.9140441
20,Parkview Drive,4300,-27.6737227,152.9139219
18,Parkview Drive,4300,-27.6737001,152.9138031
16,Parkview Drive,4300,-27.6737089,152.9136589
14,Parkview Drive,4300,-27.6736949,152.9135004
12,Parkview Drive,4300,-27.6737188,152.9133441
8,Parkview Drive,4300,-27.6736063,152.9131011
6,Parkview Drive,4300,-27.6735561,152.9129943
2,Parkview Drive,4300,-27.6733267,152.9128220
4,Parkview Drive,4300,-27.6734402,152.9128400
28,Treetops Avenue,4300,-27.6713129,152.9152842
15,De Marce Court,4300,-27.6663426,152.9269931
17,De Marce Court,4300,-27.6662178,152.9271748
13,De Marce Court,4300,-27.6664684,152.9268725
11,De Marce Court,4300,-27.6665680,152.9267076
9,De Marce Court,4300,-27.6663478,152.9265095
7,De Marce Court,4300,-27.6662009,152.9264309
5,De Marce Court,4300,-27.6661168,152.9262844
3,De Marce Court,4300,-27.6659959,152.9261564
1,De Marce Court,4300,-27.6658088,152.9259981
14,De Marce Court,4300,-27.6660281,152.9268267
12,De Marce Court,4300,-27.6659151,152.9267235
10,De Marce Court,4300,-27.6658159,152.9265903
8,De Marce Court,4300,-27.6657311,152.9264711
4,De Marce Court,4300,-27.6656022,152.9263383
18,Burlington Terrace,4300,-27.6659315,152.9258678
20,Burlington Terrace,4300,-27.6660818,152.9256754
4,Venison Crescent,4300,-27.6661796,152.9259199
6,Venison Crescent,4300,-27.6663320,152.9260439
8,Venison Crescent,4300,-27.6664630,152.9262165
10,Venison Crescent,4300,-27.6665909,152.9263895
7,Fort Close,4300,-27.6666830,152.9265512
5,Fort Close,4300,-27.6668092,152.9266595
97,Lakeside Avenue,4300,-27.6663447,152.9273397
3,Diana Street,4300,-27.6666068,152.9272233
5,Diana Street,4300,-27.6667428,152.9271165
1,Neptune Street,4300,-27.6668319,152.9270361
3,Neptune Street,4300,-27.6669342,152.9269325
5,Neptune Street,4300,-27.6670283,152.9267992
1,Diana Street,4300,-27.6664667,152.9274201
100,Lakeside Avenue,4300,-27.6661236,152.9278103
6,Heritage Circuit,4300,-27.6658879,152.9279053
8,Heritage Circuit,4300,-27.6656906,152.9280026
10,Heritage Circuit,4300,-27.6655719,152.9280366
12,Heritage Circuit,4300,-27.6654196,152.9280753
14,Heritage Circuit,4300,-27.6652330,152.9281246
16,Heritage Circuit,4300,-27.6650650,152.9281838
18,Heritage Circuit,4300,-27.6648913,152.9282274
20,Heritage Circuit,4300,-27.6647547,152.9283107
22,Heritage Circuit,4300,-27.6646407,152.9283444
24,Heritage Circuit,4300,-27.6644758,152.9283853
26,Heritage Circuit,4300,-27.6643009,152.9286406
7,Piper Place,4300,-27.6642339,152.9285214
5,Piper Place,4300,-27.6641587,152.9283823
98,Lakeside Avenue,4300,-27.6660063,152.9276678
118,James Josey Avenue,4300,-27.6658283,152.9274357
67,Lavender Street,4300,-27.6647911,152.9270615
101,James Josey Avenue,4300,-27.6648945,152.9273639
99,James Josey Avenue,4300,-27.6647525,152.9274135
97,James Josey Avenue,4300,-27.6645827,152.9274552
93,James Josey Avenue,4300,-27.6644350,152.9275109
91,Lavender Street,4300,-27.6642929,152.9272213
71,Lavender Street,4300,-27.6644780,152.9271648
69,Lavender Street,4300,-27.6646487,152.9271210
116,James Josey Avenue,4300,-27.6657020,152.9276187
114,James Josey Avenue,4300,-27.6655031,152.9277679
112,James Josey Avenue,4300,-27.6653545,152.9277848
110,James Josey Avenue,4300,-27.6652200,152.9277751
108,James Josey Avenue,4300,-27.6650701,152.9278493
106,James Josey Avenue,4300,-27.6648962,152.9278549
104,James Josey Avenue,4300,-27.6647654,152.9279116
102,James Josey Avenue,4300,-27.6646476,152.9279434
100,James Josey Avenue,4300,-27.6645433,152.9279889
98,James Josey Avenue,4300,-27.6644027,152.9280058
3,Emma Place,4300,-27.6642528,152.9280931
5,Emma Place,4300,-27.6641543,152.9281146
7,Emma Place,4300,-27.6640652,152.9281391
1,Piper Place,4300,-27.6639534,152.9281894
56,Heritage Circuit,4300,-27.6655039,152.9293525
52,Heritage Circuit,4300,-27.6653744,152.9293922
50,Heritage Circuit,4300,-27.6652580,152.9294276
48,Heritage Circuit,4300,-27.6651454,152.9294743
46,Heritage Circuit,4300,-27.6650015,152.9295363
42,Heritage Circuit,4300,-27.6646906,152.9297483
40,Heritage Circuit,4300,-27.6645942,152.9296547
38,Heritage Circuit,4300,-27.6644828,152.9295690
36,Heritage Circuit,4300,-27.6643451,152.9293860
34,Heritage Circuit,4300,-27.6642316,152.9292483
32,Heritage Circuit,4300,-27.6641534,152.9291179
14,Piper Place,4300,-27.6640912,152.9290141
12,Piper Place,4300,-27.6640239,152.9289048
10,Piper Place,4300,-27.6639381,152.9288045
8,Piper Place,4300,-27.6638346,152.9286749
6,Piper Place,4300,-27.6637441,152.9285231
4,Piper Place,4300,-27.6636168,152.9283645
29,Heritage Circuit,4300,-27.6645140,152.9289566
33,Heritage Circuit,4300,-27.6646650,152.9292151
37,Heritage Circuit,4300,-27.6647984,152.9291118
39,Heritage Circuit,4300,-27.6649813,152.9290644
41,Heritage Circuit,4300,-27.6650823,152.9290287
43,Heritage Circuit,4300,-27.6651967,152.9289698
45,Heritage Circuit,4300,-27.6653308,152.9289021
25,Heritage Circuit,4300,-27.6646545,152.9288140
23,Heritage Circuit,4300,-27.6648167,152.9287517
21,Heritage Circuit,4300,-27.6649669,152.9287101
19,Heritage Circuit,4300,-27.6650599,152.9286463
17,Heritage Circuit,4300,-27.6651500,152.9286041
15,Heritage Circuit,4300,-27.6652631,152.9285954
13,Heritage Circuit,4300,-27.6653998,152.9285858
47,Heritage Circuit,4300,-27.6655164,152.9288078
11,Heritage Circuit,4300,-27.6656532,152.9284343
73,Heritage Circuit,4300,-27.6657906,152.9285797
71,Heritage Circuit,4300,-27.6658645,152.9286647
69,Heritage Circuit,4300,-27.6659445,152.9287703
67,Heritage Circuit,4300,-27.6660139,152.9288610
63,Heritage Circuit,4300,-27.6662372,152.9290273
59,Heritage Circuit,4300,-27.6661202,152.9290703
57,Heritage Circuit,4300,-27.6660123,152.9291066
55,Heritage Circuit,4300,-27.6659055,152.9291553
51,Heritage Circuit,4300,-27.6657989,152.9291989
49,Heritage Circuit,4300,-27.6657418,152.9289847
34,Summit Drive,4300,-27.6710838,152.9204352
6,Greenwood Street,4300,-27.6721128,152.9151452
4,Greenwood Street,4300,-27.6720002,152.9151118
102,Lakeside Avenue,4300,-27.6663847,152.9281087
104,Lakeside Avenue,4300,-27.6664853,152.9282683
106,Lakeside Avenue,4300,-27.6666130,152.9284004
108,Lakeside Avenue,4300,-27.6667195,152.9285612
110,Lakeside Avenue,4300,-27.6668061,152.9286572
112,Lakeside Avenue,4300,-27.6668913,152.9287686
114,Lakeside Avenue,4300,-27.6670403,152.9289251
116,Lakeside Avenue,4300,-27.6671194,152.9290665
68,Heritage Circuit,4300,-27.6667333,152.9290105
7,Heritage Circuit,4300,-27.6661085,152.9283143
78,Heritage Circuit,4300,-27.6662229,152.9284119
76,Heritage Circuit,4300,-27.6662820,152.9285213
74,Heritage Circuit,4300,-27.6663368,152.9286006
72,Heritage Circuit,4300,-27.6664333,152.9286991
70,Heritage Circuit,4300,-27.6665521,152.9288413
35,Burlington Terrace,4300,-27.6666261,152.9240161
33,Burlington Terrace,4300,-27.6666202,152.9242345
29,Burlington Terrace,4300,-27.6665561,152.9244691
27,Burlington Terrace,4300,-27.6664462,152.9246119
25,Burlington Terrace,4300,-27.6663027,152.9247561
23,Burlington Terrace,4300,-27.6661811,152.9249233
21,Burlington Terrace,4300,-27.6660615,152.9250614
1,Venison Crescent,4300,-27.6663594,152.9253902
3,Venison Crescent,4300,-27.6664563,152.9255171
5,Venison Crescent,4300,-27.6665693,152.9256577
24,Burlington Terrace,4300,-27.6665337,152.9252190
9,Venison Crescent,4300,-27.6667234,152.9254446
26,Burlington Terrace,4300,-27.6666615,152.9250662
11,Venison Crescent,4300,-27.6668583,152.9252930
15,Venison Crescent,4300,-27.6669893,152.9251687
28,Burlington Terrace,4300,-27.6667901,152.9249493
30,Burlington Terrace,4300,-27.6669781,152.9248075
21,Venison Crescent,4300,-27.6671247,152.9249580
19,Venison Crescent,4300,-27.6672009,152.9250559
42,Burlington Terrace,4300,-27.6670000,152.9240355
36,Burlington Terrace,4300,-27.6670179,152.9242623
34,Burlington Terrace,4300,-27.6670540,152.9244124
44,Burlington Terrace,4300,-27.6671687,152.9240442
46,Burlington Terrace,4300,-27.6673494,152.9240282
36,Venison Crescent,4300,-27.6672658,152.9243373
34,Venison Crescent,4300,-27.6674181,152.9245851
32,Venison Crescent,4300,-27.6675589,152.9247421
30,Venison Crescent,4300,-27.6676724,152.9250582
28,Venison Crescent,4300,-27.6675897,152.9251579
26,Venison Crescent,4300,-27.6674865,152.9252990
24,Venison Crescent,4300,-27.6673465,152.9254409
22,Venison Crescent,4300,-27.6672306,152.9255756
20,Venison Crescent,4300,-27.6670859,152.9257249
18,Venison Crescent,4300,-27.6669395,152.9258964
14,Venison Crescent,4300,-27.6668393,152.9260043
8,Fort Close,4300,-27.6670462,152.9261477
6,Fort Close,4300,-27.6671205,152.9263104
4,Fort Close,4300,-27.6672132,152.9264002
7,Neptune Street,4300,-27.6672908,152.9265643
10,Neptune Street,4300,-27.6675216,152.9268988
8,Neptune Street,4300,-27.6674484,152.9269852
6,Neptune Street,4300,-27.6673500,152.9271187
7,Diana Street,4300,-27.6671700,152.9272621
6,Diana Street,4300,-27.6668862,152.9275967
101,Lakeside Avenue,4300,-27.6666577,152.9277928
2,Emma Place,4300,-27.6640575,152.9276909
4,Emma Place,4300,-27.6638876,152.9277520
8,Emma Place,4300,-27.6637039,152.9278120
6,Brisbane Road,4304,-27.6096961,152.8071513
18,South Station Road,4304,-27.6107710,152.7899279
622,Ripley Road,4306,-27.6789145,152.7956823
20,Main Street,4306,-27.6828786,152.8017216
2,Taylor Street,4304,-27.6061173,152.8183155
16,Stuart Street,4300,-27.6058680,152.8898291
76,Brisbane Street,4305,-27.6148994,152.7610801
11,Hookes Terrace,4300,-27.6919488,152.9117609
13,Hookes Terrace,4300,-27.6919451,152.9116424
15,Hookes Terrace,4300,-27.6919706,152.9115183
17,Hookes Terrace,4300,-27.6919893,152.9114059
19,Hookes Terrace,4300,-27.6920037,152.9113349
21,Hookes Terrace,4300,-27.6920151,152.9112606
23,Hookes Terrace,4300,-27.6920347,152.9111825
25,Hookes Terrace,4300,-27.6920579,152.9110586
9,Hookes Terrace,4300,-27.6919394,152.9119275
5,Hookes Terrace,4300,-27.6918084,152.9122580
3,Hookes Terrace,4300,-27.6917786,152.9124360
24,Hookes Terrace,4300,-27.6923669,152.9111860
20,Hookes Terrace,4300,-27.6923212,152.9116016
18,Hookes Terrace,4300,-27.6922881,152.9117493
16,Hookes Terrace,4300,-27.6922610,152.9118477
14,Hookes Terrace,4300,-27.6922445,152.9119443
12,Hookes Terrace,4300,-27.6922143,152.9120533
10,Hookes Terrace,4300,-27.6921887,152.9121775
8,Hookes Terrace,4300,-27.6921638,152.9122987
6,Hookes Terrace,4300,-27.6921493,152.9124347
4,Hookes Terrace,4300,-27.6921209,152.9125708
27,O'Reilly Crescent,4300,-27.6924260,152.9113464
25,O'Reilly Crescent,4300,-27.6924579,152.9114163
23,O'Reilly Crescent,4300,-27.6924925,152.9114889
19,O'Reilly Crescent,4300,-27.6925407,152.9116308
17,O'Reilly Crescent,4300,-27.6924970,152.9117959
15,O'Reilly Crescent,4300,-27.6924903,152.9119032
13,O'Reilly Crescent,4300,-27.6924710,152.9119993
11,O'Reilly Crescent,4300,-27.6924798,152.9121176
9,O'Reilly Crescent,4300,-27.6924476,152.9122393
7,O'Reilly Crescent,4300,-27.6924570,152.9123596
5,O'Reilly Crescent,4300,-27.6924080,152.9124513
3,O'Reilly Crescent,4300,-27.6923917,152.9125671
28,Brock Drive,4300,-27.6920921,152.9127058
26,Brock Drive,4300,-27.6922763,152.9126938
24,Brock Drive,4300,-27.6924060,152.9127560
32,Brock Drive,4300,-27.6917514,152.9125742
34,Brock Drive,4300,-27.6915887,152.9125067
36,Brock Drive,4300,-27.6914873,152.9124800
40,Brock Drive,4300,-27.6913052,152.9124362
42,Brock Drive,4300,-27.6912135,152.9124301
44,Brock Drive,4300,-27.6911180,152.9124100
46,Brock Drive,4300,-27.6910305,152.9123912
48,Brock Drive,4300,-27.6909254,152.9123697
50,Brock Drive,4300,-27.6907747,152.9123805
56,Parkland Drive,4300,-27.6908006,152.9122216
58,Parkland Drive,4300,-27.6908179,152.9120474
17,Whitten Street,4300,-27.6909637,152.9120764
15,Whitten Street,4300,-27.6910657,152.9120925
13,Whitten Street,4300,-27.6911550,152.9121152
9,Whitten Street,4300,-27.6913267,152.9121538
7,Whitten Street,4300,-27.6914238,152.9121897
5,Whitten Street,4300,-27.6915423,152.9122254
3,Whitten Street,4300,-27.6916493,152.9122427
11,Whitten Street,4300,-27.6912387,152.9121406
4,Whitten Street,4300,-27.6918369,152.9119075
6,Whitten Street,4300,-27.6917351,152.9118811
8,Whitten Street,4300,-27.6916405,152.9118476
12,Whitten Street,4300,-27.6913796,152.9117352
14,Whitten Street,4300,-27.6912888,152.9117129
16,Whitten Street,4300,-27.6911991,152.9116858
93,Springfield Central Boulevard,4300,-27.6921236,152.9108699
27,Hookes Terrace,4300,-27.6920177,152.9108190
4,McGregor Place,4300,-27.6917201,152.9117172
6,McGregor Place,4300,-27.6917400,152.9116131
8,McGregor Place,4300,-27.6917582,152.9115159
10,McGregor Place,4300,-27.6917828,152.9113951
12,McGregor Place,4300,-27.6918041,152.9112627
14,McGregor Place,4300,-27.6918433,152.9111258
16,McGregor Place,4300,-27.6918457,152.9110053
20,McGregor Place,4300,-27.6919270,152.9106878
22,McGregor Place,4300,-27.6918388,152.9106134
24,McGregor Place,4300,-27.6917800,152.9105688
26,McGregor Place,4300,-27.6917284,152.9105318
28,McGregor Place,4300,-27.6916768,152.9104944
30,McGregor Place,4300,-27.6916207,152.9104519
32,McGregor Place,4300,-27.6915050,152.9103687
34,McGregor Place,4300,-27.6913775,152.9103149
36,McGregor Place,4300,-27.6912188,152.9102990
38,McGregor Place,4300,-27.6911112,152.9103101
40,McGregor Place,4300,-27.6909835,152.9103413
84,Parkland Drive,4300,-27.6906874,152.9104608
5,McGregor Place,4300,-27.6913642,152.9115041
31,McGregor Place,4300,-27.6912033,152.9113302
7,McGregor Place,4300,-27.6914144,152.9113964
9,McGregor Place,4300,-27.6914305,152.9112933
11,McGregor Place,4300,-27.6914438,152.9111865
29,McGregor Place,4300,-27.6911977,152.9111760
27,McGregor Place,4300,-27.6911789,152.9110367
15,McGregor Place,4300,-27.6915389,152.9109653
17,McGregor Place,4300,-27.6914436,152.9108342
19,McGregor Place,4300,-27.6913693,152.9108043
21,McGregor Place,4300,-27.6912901,152.9107372
23,McGregor Place,4300,-27.6911665,152.9107619
62,Parkland Drive,4300,-27.6909103,152.9116504
64,Parkland Drive,4300,-27.6908919,152.9115000
66,Parkland Drive,4300,-27.6908667,152.9113746
68,Parkland Drive,4300,-27.6908438,152.9112550
70,Parkland Drive,4300,-27.6908141,152.9111242
82,Parkland Drive,4300,-27.6907161,152.9106289
80,Parkland Drive,4300,-27.6907305,152.9107011
78,Parkland Drive,4300,-27.6907448,152.9107739
76,Parkland Drive,4300,-27.6907604,152.9108485
74,Parkland Drive,4300,-27.6907768,152.9109280
72,Parkland Drive,4300,-27.6907939,152.9110046
50,Parkland Drive,4300,-27.6906888,152.9127464
51,Brock Drive,4300,-27.6908529,152.9128017
49,Brock Drive,4300,-27.6909568,152.9128233
47,Brock Drive,4300,-27.6910425,152.9128378
45,Brock Drive,4300,-27.6911278,152.9128594
43,Brock Drive,4300,-27.6912159,152.9128849
41,Brock Drive,4300,-27.6913203,152.9129123
39,Brock Drive,4300,-27.6914291,152.9129425
37,Brock Drive,4300,-27.6915299,152.9129650
35,Brock Drive,4300,-27.6916463,152.9130032
48,Parkland Drive,4300,-27.6906598,152.9128981
46,Parkland Drive,4300,-27.6906276,152.9130240
44,Parkland Drive,4300,-27.6906085,152.9131425
18,Lindwall Court,4300,-27.6908141,152.9130238
16,Lindwall Court,4300,-27.6909328,152.9130700
14,Lindwall Court,4300,-27.6910382,152.9131398
12,Lindwall Court,4300,-27.6911234,152.9131676
10,Lindwall Court,4300,-27.6912120,152.9131986
8,Lindwall Court,4300,-27.6913141,152.9132126
6,Lindwall Court,4300,-27.6914316,152.9132312
4,Lindwall Court,4300,-27.6915465,152.9133049
2,Hopman Way,4300,-27.6916139,152.9132059
1420,Warrego Highway,4306,-27.5790901,152.7127567
1420,Warrego Highway,4306,-27.5791100,152.7129714
110,Botany Drive,4306,-27.6956087,152.8126113
588,Redbank Plains Road,4301,-27.6412682,152.8479233
209A,Westphalen Drive,4303,-27.5895089,152.8299946
1,Wood Street,4304,-27.5908260,152.8219028
209A,Westphalen Drive,4303,-27.5895660,152.8299472
4,Steamer Way,4300,-27.6982151,152.9055664
1,Steamer Way,4300,-27.6986975,152.9055636
444,Warwick Road,4305,-27.6575748,152.7454768
45-57,Antimony Street,4300,-27.6189022,152.9356424
45-57,Antimony Street,4300,-27.6200733,152.9363914
45-57,Antimony Street,4300,-27.6210215,152.9369469
50,Vicki Street,4301,-27.6481817,152.8546003
6,Lillian Street,4301,-27.6478297,152.8704743
6,Lillian Street,4301,-27.6479480,152.8704537
6,Lillian Street,4301,-27.6479755,152.8706139
6,Lillian Street,4301,-27.6481601,152.8705855
6,Lillian Street,4301,-27.6480153,152.8704427
6,Lillian Street,4301,-27.6480424,152.8706040
6,Lillian Street,4301,-27.6482238,152.8705754
6,Lillian Street,4301,-27.6481366,152.8704221
6,Lillian Street,4301,-27.6482032,152.8704113
6,Lillian Street,4301,-27.6483172,152.8703947
6,Lillian Street,4301,-27.6483835,152.8703825
6,Lillian Street,4301,-27.6483429,152.8705535
6,Lillian Street,4301,-27.6484103,152.8705426
6,Lillian Street,4301,-27.6485930,152.8705129
6,Lillian Street,4301,-27.6485289,152.8705240
6,Lillian Street,4301,-27.6485017,152.8703642
6,Lillian Street,4301,-27.6485663,152.8703545
6,Lillian Street,4301,-27.6486881,152.8703327
22,Keidges Road,4301,-27.6486617,152.8715694
360,Redbank Plains Road,4300,-27.6457410,152.8723698
360,Redbank Plains Road,4300,-27.6458891,152.8723206
228,Redbank Plains Road,4300,-27.6347009,152.8742847
230,Redbank Plains Road,4300,-27.6349161,152.8742553
51,Parker Street,4300,-27.6188985,152.9036418
17,William Street,4300,-27.6095554,152.8945658
10,Churchill Street,4305,-27.6187725,152.7607284
32,Warrill Street,4301,-27.6635687,152.8460922
61,Summit Drive,4300,-27.6728704,152.9228814
111,Robert Smith Street,4310,-27.5825846,152.8750437
7,Juxgold Avenue,4301,-27.6381565,152.8491993
1,Fairbank Place,4306,-27.6365281,152.8118108
488,Warwick Road,4305,-27.6603100,152.7418255
355,Ipswich - Boonah Road,4306,-27.6936067,152.7366194
16,East Street,4305,-27.6133730,152.7614638
61,Nicholas Street,4305,-27.6152525,152.7582856
242,Brisbane Street,4305,-27.6182575,152.7503949
242,Brisbane Street,4305,-27.6179192,152.7503941
242,Brisbane Street,4305,-27.6177126,152.7505205
242,Brisbane Street,4305,-27.6178883,152.7507825
2,Pine Street,4305,-27.6080279,152.7618230
3,Pine Street,4305,-27.6083024,152.7625273
1,Pine Street,4305,-27.6085201,152.7623881
16,Lowry Street,4305,-27.6068391,152.7613805
16A,Lowry Street,4305,-27.6070065,152.7617538
9,Pine Street,4305,-27.6075142,152.7628773
8,Downs Street,4305,-27.6064811,152.7598537
2,Joyce Street,4305,-27.6084384,152.7741242
80,Jacaranda Street,4305,-27.6067720,152.7814118
6,Pine Street,4305,-27.6072215,152.7622641
8,Pine Street,4305,-27.6071046,152.7623150
11,Pine Street,4305,-27.6072928,152.7628429
15,Pine Street,4305,-27.6071452,152.7629275
17,Pine Street,4305,-27.6069625,152.7630108
19,Pine Street,4305,-27.6067841,152.7630756
30,The Terrace,4305,-27.6091375,152.7640367
27,The Terrace,4305,-27.6089932,152.7636081
25,The Terrace,4305,-27.6088624,152.7632182
24,The Terrace,4305,-27.6086886,152.7631484
34,Downs Street,4305,-27.6035732,152.7613083
33,Lawrence Street,4305,-27.6047691,152.7647515
124,Brisbane Street,4305,-27.6145012,152.7582715
206-208,Brisbane Road,4304,-27.6128162,152.7953853
200,Brisbane Road,4304,-27.6128405,152.7948460
170,Brisbane Road,4304,-27.6134051,152.7909858
14,Cothill Road,4304,-27.6155968,152.7938636
64,Brisbane Road,4305,-27.6130184,152.7801654
8,Gordon Street,4305,-27.6172673,152.7624372
99,Raceview Street,4305,-27.6386257,152.7733365
33A,Robertson Road,4305,-27.6281741,152.7743680
169,Blackstone Road,4304,-27.6222542,152.7901042
114,Holdsworth Road,4305,-27.5818851,152.7638089
114,Holdsworth Road,4305,-27.5817393,152.7637723
102,Holdsworth Road,4305,-27.5823807,152.7637411
106,Holdsworth Road,4305,-27.5822572,152.7641757
108,Holdsworth Road,4305,-27.5821383,152.7643183
110,Holdsworth Road,4305,-27.5820010,152.7644689
112,Holdsworth Road,4305,-27.5819354,152.7646452
92,Holdsworth Road,4305,-27.5824693,152.7627514
94,Holdsworth Road,4305,-27.5824705,152.7629599
96,Holdsworth Road,4305,-27.5824495,152.7631392
98,Holdsworth Road,4305,-27.5823883,152.7633608
129,Wildey Street,4305,-27.6424749,152.7809818
19,East Street,4305,-27.6138438,152.7607435
99,Brisbane Street,4305,-27.6142464,152.7603981
77,East Street,4305,-27.6184038,152.7596162
77,East Street,4305,-27.6181023,152.7596471
6,Ashburn Road,4304,-27.5882740,152.8181008
49,Brisbane Road,4304,-27.6081998,152.8131891
49,Brisbane Road,4304,-27.6079301,152.8130180
47,South Station Road,4304,-27.6137582,152.7887953
203-209,Brisbane Road,4304,-27.6128722,152.7987235
213,Brisbane Road,4304,-27.6128129,152.7993601
222,Brisbane Street,4305,-27.6161054,152.7515737
277,Brisbane Street,4305,-27.6154187,152.7513503
214,Brisbane Street,4305,-27.6153502,152.7523694
31,Omar Street,4305,-27.6194432,152.7508756
347-349,Brisbane Street,4305,-27.6212612,152.7479940
347-349,Brisbane Street,4305,-27.6209048,152.7475175
347-349,Brisbane Street,4305,-27.6207460,152.7469689
70,Warwick Road,4305,-27.6245879,152.7604895
51-55,Warwick Road,4305,-27.6248614,152.7597968
57-63,Warwick Road,4305,-27.6252188,152.7594768
81,Warwick Road,4305,-27.6275514,152.7581613
81,Warwick Road,4305,-27.6285915,152.7583019
81,Warwick Road,4305,-27.6272540,152.7590962
27,Lawrence Street,4305,-27.6045017,152.7641384
31,Lawrence Street,4305,-27.6046433,152.7645309
35,Lawrence Street,4305,-27.6048039,152.7650782
35,Pine Street,4305,-27.6046472,152.7638700
19,Pine Street,4305,-27.6068198,152.7631255
56,South Street,4305,-27.6165064,152.7586385
50,South Street,4305,-27.6165147,152.7592715
82A,Nicholas Street,4305,-27.6168987,152.7584741
30,South Street,4305,-27.6170047,152.7609359
88,Limestone Street,4305,-27.6150721,152.7578562
261-263,Brisbane Street,4305,-27.6148167,152.7530968
259,Brisbane Street,4305,-27.6147422,152.7534020
253,Brisbane Street,4305,-27.6145607,152.7542256
255-257,Brisbane Street,4305,-27.6147191,152.7535644
231,Brisbane Street,4305,-27.6141661,152.7555880
164,Brisbane Street,4305,-27.6145582,152.7558748
160,Brisbane Street,4305,-27.6146401,152.7561086
223,Brisbane Street,4305,-27.6141606,152.7560393
2,Pound Street,4305,-27.6221148,152.7503747
2,Pound Street,4305,-27.6224841,152.7503512
2,Pound Street,4305,-27.6226510,152.7503031
2,Pound Street,4305,-27.6229351,152.7501929
2,Pound Street,4305,-27.6230398,152.7508643
6,Omar Street,4305,-27.6187224,152.7517545
4,Omar Street,4305,-27.6185892,152.7518610
2,Omar Street,4305,-27.6184427,152.7519708
8,Omar Street,4305,-27.6189540,152.7516255
113,Queen Street,4346,-27.5652930,152.5966607
122,Queen Street,4346,-27.5644532,152.5962819
124,Queen Street,4346,-27.5642758,152.5963092
66,Pine Mountain Road,4305,-27.5882435,152.7562555
11,Pine Mountain Road,4305,-27.5948577,152.7617248
7,Pine Mountain Road,4305,-27.5960129,152.7619598
1,West Street,4305,-27.6126975,152.7575091
7,Ellenborough Street,4305,-27.6124348,152.7576406
21,Pine Street,4305,-27.6063794,152.7632228
23,Pine Street,4305,-27.6062421,152.7632775
25,Pine Street,4305,-27.6060986,152.7633325
27,Pine Street,4305,-27.6058766,152.7633831
29,Pine Street,4305,-27.6055903,152.7635109
31,Pine Street,4305,-27.6051832,152.7636390
33,Pine Street,4305,-27.6049888,152.7637038
39,Pine Street,4305,-27.6040300,152.7641607
219,Brisbane Road,4304,-27.6138392,152.8018737
95,Mount Crosby Road,4305,-27.5855516,152.7776168
17,Luafutu Street,4300,-27.6435360,152.8859015
2,East Street,4305,-27.6122316,152.7618857
500,Warwick Road,4305,-27.6603774,152.7402237
4A,Brisbane Road,4304,-27.6097407,152.8069582
29,The Terrace,4305,-27.6090737,152.7638491
31,Flint Street,4305,-27.6065443,152.7622285
1,Nicholas Street,4305,-27.6122124,152.7597212
63,Nicholas Street,4305,-27.6155099,152.7582508
126,Warwick Road,4305,-27.6333557,152.7565728
236,Warwick Road,4305,-27.6388092,152.7529723
274,Warwick Road,4305,-27.6443912,152.7511793
300,Warwick Road,4305,-27.6472799,152.7514158
310,Mount Flinders Road,4306,-27.7768266,152.7761195
83,Brisbane Street,4305,-27.6174869,152.7603831
54,Bognuda Street,4304,-27.5970435,152.8154851
18,Parkway Avenue,4306,-27.6959371,152.8102134
53,Lowry Street,4305,-27.6091825,152.7662873
27,Thorn Street,4305,-27.6166505,152.7644095
26,The Terrace,4305,-27.6087966,152.7634685
62,Coal Street,4306,-27.5707233,152.7794009
15,Workshops Street,4305,-27.5986474,152.7484748
15,Workshops Street,4305,-27.5985609,152.7479019
15,Workshops Street,4305,-27.5984539,152.7471757
15,Workshops Street,4305,-27.5985088,152.7475306
15,Workshops Street,4305,-27.5982503,152.7477356
15,Workshops Street,4305,-27.5983049,152.7481439
15,Workshops Street,4305,-27.5980970,152.7483065
15,Workshops Street,4305,-27.5983559,152.7486040
15,Workshops Street,4305,-27.5977897,152.7487312
15,Workshops Street,4305,-27.5977629,152.7483939
15,Workshops Street,4305,-27.5975253,152.7482271
15,Workshops Street,4305,-27.5977105,152.7479284
15,Workshops Street,4305,-27.5979011,152.7476242
15,Workshops Street,4305,-27.5980826,152.7473276
15,Workshops Street,4305,-27.5979851,152.7480397
15,Workshops Street,4305,-27.5981012,152.7486330
15,Workshops Street,4305,-27.5974251,152.7486415
219,Brisbane Road,4304,-27.6134564,152.8020019
36,Brisbane Road,4304,-27.6021008,152.8243167
15,Burnett Street,4305,-27.6129339,152.7503306
1,Able Street,4305,-27.6154953,152.7419798
47,Gladstone Road,4305,-27.6131093,152.7415053
171-191,School Road,4301,-27.6640745,152.8496328
24,Hawkins Crescent,4304,-27.5883991,152.8193261
100,Queen Street,4346,-27.5665661,152.5961638
111,Queen Street,4346,-27.5656128,152.5966507
116,Queen Street,4346,-27.5651976,152.5961401
114,Queen Street,4346,-27.5653235,152.5959821
118,Queen Street,4346,-27.5649854,152.5961967
120,Queen Street,4346,-27.5647949,152.5961962
130,Queen Street,4346,-27.5637002,152.5963891
128,Queen Street,4346,-27.5639300,152.5963841
126,Queen Street,4346,-27.5640846,152.5963387
5,Poinsettia Street,4305,-27.6513292,152.7781070
1,Poinsettia Street,4305,-27.6513540,152.7784636
38,Hibiscus Street,4305,-27.6493878,152.7780668
10,Nimrod Court,4305,-27.6487578,152.7750533
4,Nimrod Court,4305,-27.6483254,152.7753103
7,Nimrod Court,4305,-27.6484523,152.7748179
10,Discovery Street,4305,-27.6480628,152.7758730
5,Hillcrest Place,4305,-27.6495371,152.7817697
223,Wildey Street,4305,-27.6501379,152.7788915
28,Brisbane Road,4304,-27.6082713,152.8106700
11,Duncan Street,4301,-27.6109351,152.8647497
28,Brigid Boulevard,4300,-27.6491037,152.8792452
73,Cardena Drive,4300,-27.6529318,152.8808161
5,Brigid Boulevard,4301,-27.6480905,152.8810780
66,Cornelius Drive,4300,-27.6489753,152.8820099
68,Cornelius Drive,4300,-27.6489278,152.8817976
18,Brigid Boulevard,4300,-27.6484689,152.8797664
35,Benezet Drive,4300,-27.6582419,152.8789764
115,Benezet Drive,4300,-27.6639146,152.8774719
95,Benezet Drive,4300,-27.6625110,152.8769478
58,Cardena Drive,4300,-27.6517300,152.8821765
22,Brigid Boulevard,4300,-27.6486505,152.8794323
9,Cardena Drive,4300,-27.6478795,152.8824097
43,Brigid Boulevard,4300,-27.6495893,152.8787200
71,Cardena Drive,4300,-27.6528333,152.8810007
55,Benezet Drive,4300,-27.6590894,152.8772057
41,Cardena Drive,4300,-27.6504122,152.8816394
133,Benezet Drive,4300,-27.6651336,152.8771473
29,Cardena Drive,4300,-27.6493748,152.8813018
9,Brigid Boulevard,4300,-27.6480236,152.8806728
36,Brigid Boulevard,4300,-27.6497147,152.8792431
7A,Cardena Drive,4300,-27.6478612,152.8825448
25,Benezet Drive,4300,-27.6585714,152.8797397
47,Cardena Drive,4300,-27.6509157,152.8817451
125,Benezet Drive,4300,-27.6646273,152.8774274
57,Cardena Drive,4300,-27.6525314,152.8812714
53,Brigid Boulevard,4300,-27.6504706,152.8790777
1,Brigid Boulevard,4300,-27.6482622,152.8815282
6,Dillon Avenue,4300,-27.6502798,152.8813141
79,Cardena Drive,4300,-27.6531719,152.8803676
119,Benezet Drive,4300,-27.6642738,152.8775687
64,Cornelius Drive,4300,-27.6490384,152.8821494
12,Brigid Boulevard,4300,-27.6484419,152.8804398
6,Quinn Close,4300,-27.6509521,152.8815546
129,Benezet Drive,4300,-27.6648505,152.8773010
61,Cardena Drive,4300,-27.6521160,152.8815283
33,Benezet Drive,4300,-27.6582921,152.8791564
4,Brigid Boulevard,4300,-27.6486234,152.8811829
7,Cardena Drive,4300,-27.6478566,152.8826873
23,Benezet Drive,4300,-27.6586430,152.8798789
3A,Cardena Drive,4300,-27.6478191,152.8830827
83,Cardena Drive,4300,-27.6532496,152.8800213
13,Brigid Boulevard,4300,-27.6479616,152.8802510
91,Benezet Drive,4300,-27.6623064,152.8768369
105,Benezet Drive,4300,-27.6632760,152.8771064
39,Cardena Drive,4300,-27.6502622,152.8815937
59,Brigid Boulevard,4300,-27.6509349,152.8795217
5A,Cardena Drive,4300,-27.6478335,152.8828195
2,Brigid Boulevard,4300,-27.6486209,152.8813722
57,Cornelius Drive,4300,-27.6491847,152.8827489
65,Cardena Drive,4300,-27.6523890,152.8814131
51,Brigid Boulevard,4300,-27.6503405,152.8789506
6,Brigid Boulevard,4300,-27.6485914,152.8809938
135,Benezet Drive,4300,-27.6652845,152.8770968
44,Brigid Boulevard,4300,-27.6501343,152.8794575
89,Benezet Drive,4300,-27.6621993,152.8767887
62,Cardena Drive,4300,-27.6520075,152.8820989
21,Cardena Drive,4300,-27.6482154,152.8816750
3,Dillon Avenue,4300,-27.6497823,152.8813564
45,Brigid Boulevard,4300,-27.6497977,152.8787329
63,Cardena Drive,4300,-27.6522531,152.8814663
93,Benezet Drive,4300,-27.6624070,152.8768768
30A,Cardena Drive,4300,-27.6494328,152.8819075
85,Benezet Drive,4300,-27.6619716,152.8766719
31,Cardena Drive,4300,-27.6495463,152.8813603
77,Cardena Drive,4300,-27.6531039,152.8805819
3,Brigid Boulevard,4300,-27.6481526,152.8812889
53,Cornelius Drive,4300,-27.6494171,152.8828560
87,Benezet Drive,4300,-27.6620961,152.8767218
85,Cardena Drive,4300,-27.6532492,152.8798701
55,Cornelius Drive,4300,-27.6493084,152.8828124
11,Brigid Boulevard,4300,-27.6479964,152.8804683
47,Brigid Boulevard,4300,-27.6499546,152.8787732
11,Cardena Drive,4300,-27.6479059,152.8822727
40,Cardena Drive,4300,-27.6500656,152.8821416
109,Benezet Drive,4300,-27.6635616,152.8772436
57,Brigid Boulevard,4300,-27.6508068,152.8792777
37,Benezet Drive,4300,-27.6582521,152.8788338
15,Cardena Drive,4300,-27.6480091,152.8819972
127,Benezet Drive,4300,-27.6647331,152.8773604
15,Brigid Boulevard,4300,-27.6479639,152.8799815
7,Quinn Close,4300,-27.6505520,152.8814083
25,Cardena Drive,4300,-27.6489279,152.8812704
55,Brigid Boulevard,4300,-27.6506357,152.8791513
59,Benezet Drive,4300,-27.6593858,152.8769668
20,Brigid Boulevard,4300,-27.6485055,152.8795637
60,Cornelius Drive,4300,-27.6493831,152.8822729
89,Cardena Drive,4300,-27.6532721,152.8794937
39,Benezet Drive,4300,-27.6582326,152.8786707
123,Benezet Drive,4300,-27.6645297,152.8774898
61,Benezet Drive,4300,-27.6595284,152.8768632
101,Benezet Drive,4300,-27.6630081,152.8770555
52,Cornelius Drive,4300,-27.6499239,152.8824652
56,Cornelius Drive,4300,-27.6496560,152.8823654
56,Cardena Drive,4300,-27.6515987,152.8821921
27,Benezet Drive,4300,-27.6585020,152.8795922
28,Cardena Drive,4300,-27.6491947,152.8818160
113,Benezet Drive,4300,-27.6637960,152.8773960
81,Cardena Drive,4300,-27.6532037,152.8801834
14,Brigid Boulevard,4300,-27.6484175,152.8802122
7,Brigid Boulevard,4300,-27.6480414,152.8808844
99,Benezet Drive,4300,-27.6628666,152.8770521
121,Benezet Drive,4300,-27.6644065,152.8775318
1,Dillon Avenue,4300,-27.6497392,152.8815087
53,Benezet Drive,4300,-27.6589790,152.8773221
37,Cardena Drive,4300,-27.6501353,152.8815532
62,Cornelius Drive,4300,-27.6492278,152.8822209
1,Cardena Drive,4300,-27.6477786,152.8833770
30,Cardena Drive,4300,-27.6493250,152.8818743
51,Cornelius Drive,4300,-27.6495123,152.8829258
38,Cardena Drive,4300,-27.6498899,152.8820405
10,Brigid Boulevard,4300,-27.6484938,152.8806147
17,Cardena Drive,4300,-27.6480662,152.8818888
54,Cornelius Drive,4300,-27.6497949,152.8824188
87,Cardena Drive,4300,-27.6532794,152.8796709
30,Brigid Boulevard,4300,-27.6492793,152.8792270
5,Quinn Close,4300,-27.6505298,152.8816731
26,Brigid Boulevard,4300,-27.6489473,152.8792683
46,Brigid Boulevard,4300,-27.6503392,152.8795626
57,Benezet Drive,4300,-27.6591996,152.8770877
131,Benezet Drive,4300,-27.6649516,152.8772077
36,Cardena Drive,4300,-27.6497264,152.8820051
19,Cardena Drive,4300,-27.6481290,152.8817864
1A,Brigid Boulevard,4300,-27.6479877,152.8815869
23,Cardena Drive,4300,-27.6487614,152.8813319
59,Cardena Drive,4300,-27.6519600,152.8815550
19,Brigid Boulevard,4300,-27.6478086,152.8797305
13,Cardena Drive,4300,-27.6479489,152.8821300
75,Cardena Drive,4300,-27.6530223,152.8806967
21,Brigid Boulevard,4300,-27.6480700,152.8795947
63,Benezet Drive,4300,-27.6596854,152.8767906
49,Brigid Boulevard,4300,-27.6501578,152.8788926
40,Brigid Boulevard,4300,-27.6499410,152.8793363
3,Cardena Drive,4300,-27.6478047,152.8832147
24,Brigid Boulevard,4300,-27.6487938,152.8793515
31,Benezet Drive,4300,-27.6583596,152.8793170
60,Cardena Drive,4300,-27.6518661,152.8821310
32,Brigid Boulevard,4300,-27.6494874,152.8792306
103,Benezet Drive,4300,-27.6631161,152.8770630
34,Cardena Drive,4300,-27.6495708,152.8819477
29,Benezet Drive,4300,-27.6584314,152.8794530
27,Cardena Drive,4300,-27.6491481,152.8812653
58,Cornelius Drive,4300,-27.6495103,152.8823228
41,Brigid Boulevard,4300,-27.6494028,152.8787567
48,Brigid Boulevard,4300,-27.6505900,152.8797295
111,Benezet Drive,4300,-27.6636810,152.8773550
5,Cardena Drive,4300,-27.6478197,152.8829527
49,Cornelius Drive,4300,-27.6496168,152.8829852
213,Brisbane Terrace,4300,-27.5971952,152.8888300
213,Brisbane Terrace,4300,-27.5958091,152.8897126
31,Kruger Pde,4301,-27.6170885,152.8693972
31,Kruger Parade,4301,-27.6171582,152.8706901
265,Redbank Plains Road,4301,-27.6382071,152.8727759
263,Redbank Plains Road,4301,-27.6380068,152.8727813
261,Redbank Plains Road,4301,-27.6378190,152.8728424
259,Redbank Plains Road,4301,-27.6376104,152.8728718
257,Redbank Plains Road,4301,-27.6374151,152.8728509
255,Redbank Plains Road,4301,-27.6372037,152.8729474
253,Redbank Plains Road,4301,-27.6369554,152.8729829
251,Redbank Plains Road,4301,-27.6367499,152.8729647
249,Redbank Plains Road,4301,-27.6365647,152.8730036
233,Redbank Plains Road,4301,-27.6350153,152.8733175
235,Redbank Plains Road,4301,-27.6351721,152.8732015
237,Redbank Plains Road,4301,-27.6353790,152.8730840
239,Redbank Plains Road,4301,-27.6355961,152.8731941
241,Redbank Plains Road,4301,-27.6357720,152.8730976
243,Redbank Plains Road,4301,-27.6359787,152.8730984
245,Redbank Plains Road,4301,-27.6361936,152.8730542
247,Redbank Plains Road,4301,-27.6363643,152.8730353
138,Marlborough Street,4300,-27.6344421,152.8742958
3,Shannon Street,4301,-27.6341121,152.8732793
5,Shannon Street,4301,-27.6341620,152.8731131
5,Shannon Street,4301,-27.6341496,152.8730267
7,Shannon Street,4301,-27.6341409,152.8728386
7A,Shannon Street,4301,-27.6339172,152.8729034
8,Shannon Street,4301,-27.6341414,152.8726545
9A,Shannon Street,4301,-27.6338745,152.8726936
468,Warwick Road,4305,-27.6588018,152.7431864
474,Warwick Road,4305,-27.6591970,152.7426835
20,Saleyards Road,4305,-27.6550070,152.7478241
20,Saleyards Road,4305,-27.6552643,152.7477033
405,Warwick Road,4305,-27.6548515,152.7485903
393,Warwick Road,4305,-27.6545204,152.7492483
389-391,Warwick Road,4305,-27.6537600,152.7496176
389-391,Warwick Road,4305,-27.6537010,152.7495566
1,Amity Way,4306,-27.6920463,152.8082865
3,Amity Way,4306,-27.6919141,152.8083580
5,Amity Way,4306,-27.6917664,152.8084471
7,Amity Way,4306,-27.6916519,152.8085250
2,Unity Lane,4306,-27.6920613,152.8085436
4,Unity Lane,4306,-27.6921243,152.8086987
6,Unity Lane,4306,-27.6922301,152.8088250
8,Unity Lane,4306,-27.6923145,152.8089918
10,Unity Lane,4306,-27.6923810,152.8091194
12,Unity Lane,4306,-27.6924530,152.8092825
14,Unity Lane,4306,-27.6925540,152.8094392
16,Unity Lane,4306,-27.6926146,152.8095840
18,Unity Lane,4306,-27.6926905,152.8097070
20,Unity Lane,4306,-27.6927767,152.8098313
22,Unity Lane,4306,-27.6928580,152.8099431
24,Unity Lane,4306,-27.6929207,152.8100793
6,Harmony Crescent,4306,-27.6926430,152.8102589
8,Harmony Crescent,4306,-27.6925777,152.8101365
10,Harmony Crescent,4306,-27.6925086,152.8099911
12,Harmony Crescent,4306,-27.6924335,152.8098767
14,Harmony Crescent,4306,-27.6923527,152.8097276
16,Harmony Crescent,4306,-27.6922576,152.8095937
18,Harmony Crescent,4306,-27.6921880,152.8094574
20,Harmony Crescent,4306,-27.6921256,152.8093140
22,Harmony Crescent,4306,-27.6920420,152.8091897
24,Harmony Crescent,4306,-27.6919551,152.8090497
26,Harmony Crescent,4306,-27.6918810,152.8088974
28,Harmony Crescent,4306,-27.6918120,152.8087352
33,Harmony Crescent,4306,-27.6912721,152.8086409
31,Harmony Crescent,4306,-27.6913419,152.8087936
29,Harmony Crescent,4306,-27.6914392,152.8089538
27,Harmony Crescent,4306,-27.6915121,152.8090965
25,Harmony Crescent,4306,-27.6915919,152.8092636
23,Harmony Crescent,4306,-27.6916827,152.8093972
21,Harmony Crescent,4306,-27.6917180,152.8095293
19,Harmony Crescent,4306,-27.6917862,152.8096483
15,Serenity Street,4306,-27.6915396,152.8097917
13,Serenity Street,4306,-27.6914492,152.8096581
11,Serenity Street,4306,-27.6913575,152.8095167
9,Serenity Street,4306,-27.6912765,152.8093541
7,Serenity Street,4306,-27.6912058,152.8092079
5,Serenity Street,4306,-27.6911234,152.8090836
3,Serenity Street,4306,-27.6910570,152.8089250
1,Serenity Street,4306,-27.6909680,152.8087812
16,Amity Way,4306,-27.6909063,152.8083347
18,Amity Way,4306,-27.6908037,152.8084012
20,Amity Way,4306,-27.6907020,152.8084570
22,Amity Way,4306,-27.6905871,152.8085034
24,Amity Way,4306,-27.6905004,152.8085555
26,Amity Way,4306,-27.6904128,152.8086014
28,Amity Way,4306,-27.6903229,152.8086373
30,Amity Way,4306,-27.6902339,152.8086829
32,Amity Way,4306,-27.6901333,152.8087364
34,Amity Way,4306,-27.6900277,152.8087868
36,Amity Way,4306,-27.6899219,152.8088386
49,Harmony Crescent,4306,-27.6907716,152.8080541
51,Harmony Crescent,4306,-27.6906360,152.8081290
53,Harmony Crescent,4306,-27.6905062,152.8081914
55,Harmony Crescent,4306,-27.6903819,152.8082820
57,Harmony Crescent,4306,-27.6902316,152.8083448
59,Harmony Crescent,4306,-27.6900623,152.8084210
61,Harmony Crescent,4306,-27.6899177,152.8084890
63,Harmony Crescent,4306,-27.6897957,152.8085149
67,Harmony Crescent,4306,-27.6896010,152.8085901
69,Harmony Crescent,4306,-27.6896328,152.8087086
71,Harmony Crescent,4306,-27.6896444,152.8088618
18,Serenity Street,4306,-27.6912122,152.8099916
8,Celebration Way,4306,-27.6911103,152.8100595
16,Serenity Street,4306,-27.6911069,152.8098646
14,Serenity Street,4306,-27.6910230,152.8097369
12,Serenity Street,4306,-27.6909562,152.8095785
10,Serenity Street,4306,-27.6908598,152.8094344
8,Serenity Street,4306,-27.6907839,152.8093060
6,Serenity Street,4306,-27.6907119,152.8091938
4,Serenity Street,4306,-27.6906572,152.8090719
2,Serenity Street,4306,-27.6905849,152.8089628
21,Pleasant Street,4306,-27.6909483,152.8101792
19,Pleasant Street,4306,-27.6908654,152.8100792
17,Pleasant Street,4306,-27.6908198,152.8099497
15,Pleasant Street,4306,-27.6907493,152.8098548
13,Pleasant Street,4306,-27.6906935,152.8097226
11,Pleasant Street,4306,-27.6906308,152.8096173
9,Pleasant Street,4306,-27.6905706,152.8095045
7,Pleasant Street,4306,-27.6905212,152.8094126
5,Pleasant Street,4306,-27.6904623,152.8093200
3,Pleasant Street,4306,-27.6904060,152.8092099
1,Pleasant Street,4306,-27.6903324,152.8090750
6,Amity Way,4306,-27.6916873,152.8074951
2,Pleasant Street,4306,-27.6899573,152.8092468
4,Pleasant Street,4306,-27.6900465,152.8093412
6,Pleasant Street,4306,-27.6901040,152.8094511
8,Pleasant Street,4306,-27.6901585,152.8095619
10,Pleasant Street,4306,-27.6902284,152.8096764
12,Pleasant Street,4306,-27.6902849,152.8097869
14,Pleasant Street,4306,-27.6903354,152.8098878
16,Pleasant Street,4306,-27.6903894,152.8099767
18,Pleasant Street,4306,-27.6904327,152.8100676
20,Pleasant Street,4306,-27.6904730,152.8101398
22,Pleasant Street,4306,-27.6905236,152.8102090
24,Pleasant Street,4306,-27.6905722,152.8103120
26,Pleasant Street,4306,-27.6906265,152.8104267
93,Harmony Crescent,4306,-27.6903846,152.8105656
91,Harmony Crescent,4306,-27.6903068,152.8104308
89,Harmony Crescent,4306,-27.6902351,152.8102750
87,Harmony Crescent,4306,-27.6901275,152.8101415
85,Harmony Crescent,4306,-27.6900581,152.8099895
83,Harmony Crescent,4306,-27.6899788,152.8098585
81,Harmony Crescent,4306,-27.6899003,152.8097047
79,Harmony Crescent,4306,-27.6897850,152.8095371
77,Harmony Crescent,4306,-27.6897197,152.8093689
4,Generosity Street,4306,-27.6913181,152.8107452
6,Generosity Street,4306,-27.6912195,152.8108189
8,Generosity Street,4306,-27.6911283,152.8108982
10,Generosity Street,4306,-27.6910445,152.8109467
12,Generosity Street,4306,-27.6909792,152.8109953
14,Generosity Street,4306,-27.6908938,152.8110384
5,Celebration Way,4306,-27.6911419,152.8104948
7,Celebration Way,4306,-27.6910485,152.8105690
9,Celebration Way,4306,-27.6909523,152.8106367
11,Celebration Way,4306,-27.6908562,152.8106967
13,Celebration Way,4306,-27.6907649,152.8107675
97,Harmony Crescent,4306,-27.6905442,152.8108568
99,Harmony Crescent,4306,-27.6906048,152.8109840
101,Harmony Crescent,4306,-27.6906501,152.8111169
103,Harmony Crescent,4306,-27.6906704,152.8112641
2,Bliss Lane,4306,-27.6914769,152.8107125
2,Generosity Street,4306,-27.6916012,152.8106193
34,Serenity Street,4306,-27.6915365,152.8105620
32,Serenity Street,4306,-27.6915159,152.8105211
30,Serenity Street,4306,-27.6914894,152.8104735
28,Serenity Street,4306,-27.6914690,152.8104352
28,Serenity Street,4306,-27.6914408,152.8103877
24,Serenity Street,4306,-27.6914206,152.8103486
1,Celebration Way,4306,-27.6914062,152.8102520
3,Celebration Way,4306,-27.6913248,152.8103028
16,Bliss Lane,4306,-27.6912703,152.8103373
15,Harmony Crescent,4306,-27.6919455,152.8099059
13,Harmony Crescent,4306,-27.6920269,152.8100349
11,Harmony Crescent,4306,-27.6920813,152.8101472
9,Harmony Crescent,4306,-27.6921501,152.8102794
7,Harmony Crescent,4306,-27.6922501,152.8104108
5,Harmony Crescent,4306,-27.6923115,152.8105628
3,Harmony Crescent,4306,-27.6923985,152.8107180
1,Harmony Crescent,4306,-27.6924774,152.8108614
33,Serenity Street,4306,-27.6922251,152.8110468
31,Serenity Street,4306,-27.6921292,152.8109238
29,Serenity Street,4306,-27.6920694,152.8107458
27,Serenity Street,4306,-27.6919727,152.8105896
25,Serenity Street,4306,-27.6919031,152.8104412
23,Serenity Street,4306,-27.6918197,152.8103541
21,Serenity Street,4306,-27.6917625,152.8102129
19,Serenity Street,4306,-27.6916750,152.8100841
1,Generosity Street,4306,-27.6917659,152.8109500
3,Generosity Street,4306,-27.6916538,152.8110413
5,Generosity Street,4306,-27.6915469,152.8110842
7,Generosity Street,4306,-27.6914546,152.8111655
9,Generosity Street,4306,-27.6913567,152.8112298
11,Generosity Street,4306,-27.6912664,152.8113089
13,Generosity Street,4306,-27.6911678,152.8113583
15,Generosity Street,4306,-27.6910884,152.8114286
17,Generosity Street,4306,-27.6909918,152.8114834
20,Greenview Avenue,4306,-27.6919143,152.8112102
22,Greenview Avenue,4306,-27.6917767,152.8113083
24,Greenview Avenue,4306,-27.6916394,152.8113854
26,Greenview Avenue,4306,-27.6915536,152.8114595
28,Greenview Avenue,4306,-27.6914188,152.8115404
30,Greenview Avenue,4306,-27.6913020,152.8116521
32,Greenview Avenue,4306,-27.6911449,152.8117468
113,Harmony Crescent,4306,-27.6910095,152.8119392
111,Harmony Crescent,4306,-27.6909203,152.8118101
109,Harmony Crescent,4306,-27.6908588,152.8116875
107,Harmony Crescent,4306,-27.6907984,152.8115765
5,Greenview Avenue,4306,-27.6931980,152.8109276
7,Greenview Avenue,4306,-27.6930586,152.8110222
9,Greenview Avenue,4306,-27.6929300,152.8111439
11,Greenview Avenue,4306,-27.6928025,152.8112089
13,Greenview Avenue,4306,-27.6926670,152.8113303
11,Bellthorpe Street,4306,-27.6932587,152.8113609
9,Bellthorpe Street,4306,-27.6931218,152.8114276
7,Bellthorpe Street,4306,-27.6930189,152.8114914
5,Bellthorpe Street,4306,-27.6929312,152.8115682
3,Bellthorpe Street,4306,-27.6928307,152.8116313
1,Bellthorpe Street,4306,-27.6927359,152.8117517
7,Barrams Road,4306,-27.6926279,152.8118256
5,Barrams Road,4306,-27.6925865,152.8116765
3,Barrams Road,4306,-27.6925124,152.8115552
1,Barrams Road,4306,-27.6924695,152.8114395
10,Bellthorpe Street,4306,-27.6932423,152.8117517
12,Bellthorpe Street,4306,-27.6933222,152.8118642
14,Bellthorpe Street,4306,-27.6933960,152.8119532
16,Bellthorpe Street,4306,-27.6934300,152.8120553
18,Bellthorpe Street,4306,-27.6934822,152.8121577
5,Kirrama Street,4306,-27.6932950,152.8122142
3,Kirrama Street,4306,-27.6931847,152.8122770
1,Kirrama Street,4306,-27.6930899,152.8123458
1,Kirrama Street,4306,-27.6930393,152.8123673
1,Kirrama Street,4306,-27.6929869,152.8123850
15,Barrams Road,4306,-27.6929246,152.8124012
13,Barrams Road,4306,-27.6928989,152.8122512
11,Barrams Road,4306,-27.6928343,152.8120868
6,Bellthorpe Street,4306,-27.6931426,152.8119224
4,Bellthorpe Street,4306,-27.6930363,152.8119981
19,Greenview Avenue,4306,-27.6921334,152.8116606
21,Greenview Avenue,4306,-27.6920127,152.8117771
23,Greenview Avenue,4306,-27.6918928,152.8118956
25,Greenview Avenue,4306,-27.6917736,152.8119441
27,Greenview Avenue,4306,-27.6916282,152.8120574
29,Greenview Avenue,4306,-27.6914930,152.8121414
31,Greenview Avenue,4306,-27.6913695,152.8122201
26,Barakula Street,4306,-27.6915702,152.8125046
24,Barakula Street,4306,-27.6916997,152.8124280
22,Barakula Street,4306,-27.6918038,152.8123367
20,Barakula Street,4306,-27.6919575,152.8122259
18,Barakula Street,4306,-27.6920931,152.8121697
16,Barakula Street,4306,-27.6921974,152.8124759
14,Barakula Street,4306,-27.6922647,152.8125887
12,Barakula Street,4306,-27.6923194,152.8127119
8,Barakula Street,4306,-27.6923991,152.8129324
6,Barakula Street,4306,-27.6925178,152.8129161
4,Barakula Street,4306,-27.6926213,152.8128622
2,Barakula Street,4306,-27.6927488,152.8128339
14,Barrams Road,4306,-27.6925820,152.8125883
12,Barrams Road,4306,-27.6925081,152.8124557
10,Barrams Road,4306,-27.6924403,152.8123142
8,Barrams Road,4306,-27.6923892,152.8121787
6,Barrams Road,4306,-27.6923278,152.8120559
19,Barakula Street,4306,-27.6919652,152.8127535
21,Barakula Street,4306,-27.6918508,152.8128414
25,Barakula Street,4306,-27.6916510,152.8129143
27,Barakula Street,4306,-27.6917523,152.8130595
29,Barakula Street,4306,-27.6918355,152.8131560
33,Barakula Street,4306,-27.6920075,152.8130893
15,Barakula Street,4306,-27.6921336,152.8130618
16,Soul Crescent,4306,-27.6935688,152.8096647
18,Soul Crescent,4306,-27.6934973,152.8095444
20,Soul Crescent,4306,-27.6934233,152.8093916
22,Soul Crescent,4306,-27.6933232,152.8092642
24,Soul Crescent,4306,-27.6932613,152.8091287
26,Soul Crescent,4306,-27.6931924,152.8090133
28,Soul Crescent,4306,-27.6931420,152.8088687
30,Soul Crescent,4306,-27.6930444,152.8087306
32,Soul Crescent,4306,-27.6929648,152.8085666
34,Soul Crescent,4306,-27.6928962,152.8084268
36,Soul Crescent,4306,-27.6928101,152.8082908
38,Soul Crescent,4306,-27.6927332,152.8081500
40,Soul Crescent,4306,-27.6926505,152.8079932
42,Soul Crescent,4306,-27.6925786,152.8078805
36,Affinity Way,4306,-27.6938059,152.8094933
34,Affinity Way,4306,-27.6937634,152.8093706
32,Affinity Way,4306,-27.6937001,152.8092499
30,Affinity Way,4306,-27.6936402,152.8091437
28,Affinity Way,4306,-27.6935674,152.8090355
26,Affinity Way,4306,-27.6935138,152.8089160
24,Affinity Way,4306,-27.6934418,152.8088029
22,Affinity Way,4306,-27.6933528,152.8086680
20,Affinity Way,4306,-27.6933039,152.8085514
18,Affinity Way,4306,-27.6932304,152.8084290
16,Affinity Way,4306,-27.6931742,152.8083145
14,Affinity Way,4306,-27.6931130,152.8082187
12,Affinity Way,4306,-27.6930666,152.8081332
10,Affinity Way,4306,-27.6930147,152.8080430
8,Affinity Way,4306,-27.6929593,152.8079439
46,Soul Crescent,4306,-27.6928559,152.8078200
33,Affinity Way,4306,-27.6941326,152.8092741
31,Affinity Way,4306,-27.6940994,152.8091659
29,Affinity Way,4306,-27.6940550,152.8090827
27,Affinity Way,4306,-27.6940047,152.8090128
25,Affinity Way,4306,-27.6939526,152.8089254
23,Affinity Way,4306,-27.6938944,152.8088214
21,Affinity Way,4306,-27.6938262,152.8086980
19,Affinity Way,4306,-27.6937660,152.8085691
42,Splendid Drive,4306,-27.6943479,152.8090649
40,Splendid Drive,4306,-27.6942815,152.8089248
38,Splendid Drive,4306,-27.6942298,152.8087998
36,Splendid Drive,4306,-27.6941637,152.8086950
34,Splendid Drive,4306,-27.6940924,152.8085842
32,Splendid Drive,4306,-27.6940346,152.8084192
1,Joyful Street,4306,-27.6939518,152.8084740
28,Splendid Drive,4306,-27.6938536,152.8081303
26,Splendid Drive,4306,-27.6937980,152.8080169
24,Splendid Drive,4306,-27.6937276,152.8078973
22,Splendid Drive,4306,-27.6936548,152.8077821
20,Splendid Drive,4306,-27.6935825,152.8076688
18,Splendid Drive,4306,-27.6935215,152.8075133
16,Splendid Drive,4306,-27.6933827,152.8074323
14,Splendid Drive,4306,-27.6932181,152.8074376
12,Splendid Drive,4306,-27.6930991,152.8074193
15,Affinity Way,4306,-27.6936180,152.8083170
13,Affinity Way,4306,-27.6935586,152.8082108
11,Affinity Way,4306,-27.6934936,152.8081110
9,Affinity Way,4306,-27.6934382,152.8080190
7,Affinity Way,4306,-27.6933748,152.8079035
5,Affinity Way,4306,-27.6933191,152.8077874
3,Affinity Way,4306,-27.6932363,152.8076837
18,Comfort Street,4306,-27.6948430,152.8083628
16,Comfort Street,4306,-27.6947675,152.8082425
14,Comfort Street,4306,-27.6947281,152.8081190
12,Comfort Street,4306,-27.6946664,152.8080408
10,Comfort Street,4306,-27.6946299,152.8079667
8,Comfort Street,4306,-27.6945845,152.8078824
6,Comfort Street,4306,-27.6945380,152.8077729
4,Comfort Street,4306,-27.6944663,152.8076680
2,Comfort Street,4306,-27.6943981,152.8075451
6,Freedom Crescent,4306,-27.6942654,152.8074405
4,Freedom Crescent,4306,-27.6940820,152.8074544
2,Freedom Crescent,4306,-27.6939473,152.8074211
35,Splendid Drive,4306,-27.6946261,152.8085261
33,Splendid Drive,4306,-27.6945314,152.8083894
31,Splendid Drive,4306,-27.6944704,152.8082758
29,Splendid Drive,4306,-27.6944086,152.8081701
27,Splendid Drive,4306,-27.6943521,152.8080580
25,Splendid Drive,4306,-27.6942864,152.8079148
23,Splendid Drive,4306,-27.6942085,152.8078064
21,Splendid Drive,4306,-27.6941178,152.8076959
106,Toongarra Road,4305,-27.6194203,152.7259406
110,Toongarra Road,4305,-27.6187368,152.7255027
6,Enterprise Street,4305,-27.6185257,152.7233414
2,Soho Drive,4306,-27.6839025,152.7583108
6,Soho Drive,4306,-27.6839933,152.7581646
2,Sunbury Way,4306,-27.6840962,152.7580348
3,Soho Drive,4306,-27.6834902,152.7579790
5,Soho Drive,4306,-27.6833694,152.7578498
7,Soho Drive,4306,-27.6832104,152.7577567
9,Soho Drive,4306,-27.6830610,152.7576566
11,Soho Drive,4306,-27.6828736,152.7575384
15,Soho Drive,4306,-27.6825396,152.7574998
17,Soho Drive,4306,-27.6823482,152.7575172
19,Soho Drive,4306,-27.6821714,152.7574289
21,Soho Drive,4306,-27.6819800,152.7574356
37,Chatswood Court,4306,-27.6824817,152.7564851
37,Chatswood Court,4306,-27.6824520,152.7566051
37,Chatswood Court,4306,-27.6823942,152.7567592
37,Chatswood Court,4306,-27.6822454,152.7565260
37,Chatswood Court,4306,-27.6822407,152.7563528
37,Chatswood Court,4306,-27.6823210,152.7562473
15,Chatswood Court,4306,-27.6840519,152.7573355
17,Chatswood Court,4306,-27.6839134,152.7572420
19,Chatswood Court,4306,-27.6837571,152.7571294
21,Chatswood Court,4306,-27.6836090,152.7570187
23,Chatswood Court,4306,-27.6834617,152.7569213
25,Chatswood Court,4306,-27.6833232,152.7568270
27,Chatswood Court,4306,-27.6831735,152.7567396
29,Chatswood Court,4306,-27.6830300,152.7566730
31,Chatswood Court,4306,-27.6828761,152.7565889
14,Soho Drive,4306,-27.6836404,152.7574227
16,Soho Drive,4306,-27.6834945,152.7573156
18,Soho Drive,4306,-27.6833428,152.7572225
20,Soho Drive,4306,-27.6831950,152.7571112
22,Soho Drive,4306,-27.6830439,152.7570302
24,Soho Drive,4306,-27.6828934,152.7569639
26,Soho Drive,4306,-27.6827450,152.7568854
5,Pelling Place,4306,-27.6817893,152.7564863
4,Pelling Place,4306,-27.6813919,152.7564463
6,Pelling Place,4306,-27.6813422,152.7566346
8,Pelling Place,4306,-27.6813319,152.7568570
10,Pelling Place,4306,-27.6813450,152.7570769
15,Pemswood Close,4306,-27.6811014,152.7562135
17,Pemswood Close,4306,-27.6810765,152.7564110
19,Pemswood Close,4306,-27.6810651,152.7566243
21,Pemswood Close,4306,-27.6810859,152.7568266
25,Pemswood Close,4306,-27.6810790,152.7570535
21,Gloucester Drive,4306,-27.6864385,152.7565703
22,Gloucester Drive,4306,-27.6870173,152.7563444
26,Gloucester Drive,4306,-27.6870077,152.7558537
6,Gabrielle Place,4306,-27.6874285,152.7556680
28,Gloucester Drive,4306,-27.6868888,152.7552054
11,Gabrielle Place,4306,-27.6875144,152.7550341
17,Gabrielle Place,4306,-27.6878160,152.7546630
33,Gabrielle Place,4306,-27.6879650,152.7532207
36,Gloucester Drive,4306,-27.6869765,152.7545281
6,Broadway Court,4306,-27.6869851,152.7541447
10,Broadway Court,4306,-27.6869493,152.7538445
12,Broadway Court,4306,-27.6871287,152.7533541
14,Broadway Court,4306,-27.6867696,152.7532533
18,Broadway Court,4306,-27.6865489,152.7530435
22,Broadway Court,4306,-27.6863229,152.7528632
26,Broadway Court,4306,-27.6860649,152.7526735
28,Broadway Court,4306,-27.6858215,152.7525857
32,Broadway Court,4306,-27.6854996,152.7525560
36,Broadway Court,4306,-27.6852261,152.7526691
3,Broadway Court,4306,-27.6863308,152.7541719
31,Gloucester Drive,4306,-27.6862878,152.7554429
7,Paradise Close,4306,-27.6853947,152.7552860
8,Dannika Way,4306,-27.6680264,152.7535783
2,Windsor Court,4306,-27.6678589,152.7533392
4,Windsor Court,4306,-27.6678185,152.7531101
6,Windsor Court,4306,-27.6677036,152.7528815
8,Windsor Court,4306,-27.6676212,152.7526899
10,Windsor Court,4306,-27.6675080,152.7523968
9,Windsor Court,4306,-27.6672776,152.7524947
7,Windsor Court,4306,-27.6671112,152.7527345
5,Windsor Court,4306,-27.6671641,152.7530241
12,Dannika Way,4306,-27.6673567,152.7533120
14,Dannika Way,4306,-27.6671544,152.7533006
16,Dannika Way,4306,-27.6668824,152.7532804
18,Dannika Way,4306,-27.6666145,152.7532364
4,Harrison Grove,4306,-27.6667185,152.7528848
6,Harrison Grove,4306,-27.6667659,152.7526396
8,Harrison Grove,4306,-27.6668229,152.7523834
10,Harrison Grove,4306,-27.6669970,152.7522016
12,Harrison Grove,4306,-27.6671416,152.7520186
14,Harrison Grove,4306,-27.6670899,152.7517482
16,Harrison Grove,4306,-27.6669983,152.7515516
18,Harrison Grove,4306,-27.6668806,152.7513836
20,Harrison Grove,4306,-27.6667541,152.7511396
22,Harrison Grove,4306,-27.6666598,152.7509243
24,Harrison Grove,4306,-27.6665272,152.7507044
26,Harrison Grove,4306,-27.6664030,152.7504557
30,Harrison Grove,4306,-27.6661487,152.7502365
29,Harrison Grove,4306,-27.6659095,152.7502480
27,Harrison Grove,4306,-27.6657559,152.7504875
25,Harrison Grove,4306,-27.6657788,152.7507356
23,Harrison Grove,4306,-27.6660645,152.7508739
19,Harrison Grove,4306,-27.6663815,152.7513510
17,Harrison Grove,4306,-27.6664929,152.7516377
15,Harrison Grove,4306,-27.6666062,152.7518310
11,Harrison Grove,4306,-27.6664220,152.7520654
9,Harrison Grove,4306,-27.6663607,152.7522902
7,Harrison Grove,4306,-27.6663014,152.7525167
5,Harrison Grove,4306,-27.6662484,152.7527651
3,Harrison Grove,4306,-27.6661938,152.7529773
1,Harrison Grove,4306,-27.6661953,152.7532255
24,Freedom Crescent,4306,-27.6953841,152.8079388
22,Freedom Crescent,4306,-27.6953111,152.8077887
20,Freedom Crescent,4306,-27.6952279,152.8076658
18,Freedom Crescent,4306,-27.6951741,152.8075118
16,Freedom Crescent,4306,-27.6950183,152.8074158
14,Freedom Crescent,4306,-27.6948684,152.8074518
12,Freedom Crescent,4306,-27.6947260,152.8074318
5,Comfort Street,4306,-27.6948993,152.8076755
7,Comfort Street,4306,-27.6949570,152.8077634
9,Comfort Street,4306,-27.6950191,152.8078563
11,Comfort Street,4306,-27.6950958,152.8079807
13,Comfort Street,4306,-27.6951672,152.8080807
512,Warwick Road,4305,-27.6625845,152.7390271
7,Dannika Way,4306,-27.6677170,152.7539837
9,Dannika Way,4306,-27.6675732,152.7539000
11,Dannika Way,4306,-27.6673555,152.7538317
13,Dannika Way,4306,-27.6671657,152.7538206
15,Dannika Way,4306,-27.6669897,152.7537883
17,Dannika Way,4306,-27.6667541,152.7537782
19,Dannika Way,4306,-27.6665922,152.7537616
21,Dannika Way,4306,-27.6663869,152.7537331
23,Dannika Way,4306,-27.6662033,152.7537087
25,Dannika Way,4306,-27.6660320,152.7536786
27,Dannika Way,4306,-27.6658329,152.7536603
38,Lakeview Drive,4306,-27.6655943,152.7536897
36,Lakeview Drive,4306,-27.6655889,152.7541146
32,Lakeview Drive,4306,-27.6657989,152.7541015
30,Lakeview Drive,4306,-27.6659790,152.7541465
28,Lakeview Drive,4306,-27.6661647,152.7541556
26,Lakeview Drive,4306,-27.6663475,152.7541804
24,Lakeview Drive,4306,-27.6665405,152.7542284
22,Lakeview Drive,4306,-27.6667428,152.7542490
20,Lakeview Drive,4306,-27.6669188,152.7542705
18,Lakeview Drive,4306,-27.6671335,152.7542807
16,Lakeview Drive,4306,-27.6673070,152.7543396
14,Lakeview Drive,4306,-27.6675126,152.7543389
12,Lakeview Drive,4306,-27.6677433,152.7543415
15,Lakeview Drive,4306,-27.6673435,152.7550097
17,Lakeview Drive,4306,-27.6671514,152.7549666
19,Lakeview Drive,4306,-27.6669691,152.7549417
21,Lakeview Drive,4306,-27.6667789,152.7548989
1,Piccadilly Court,4306,-27.6664793,152.7548404
3,Piccadilly Court,4306,-27.6664310,152.7550330
5,Piccadilly Court,4306,-27.6663549,152.7552425
7,Piccadilly Court,4306,-27.6661733,152.7553843
9,Piccadilly Court,4306,-27.6660402,152.7555534
11,Piccadilly Court,4306,-27.6658662,152.7556872
13,Piccadilly Court,4306,-27.6656645,152.7557445
15,Piccadilly Court,4306,-27.6654834,152.7557823
17,Piccadilly Court,4306,-27.6652979,152.7558046
19,Piccadilly Court,4306,-27.6651369,152.7558479
21,Piccadilly Court,4306,-27.6651090,152.7561078
23,Piccadilly Court,4306,-27.6650421,152.7563014
25,Piccadilly Court,4306,-27.6649530,152.7565110
27,Piccadilly Court,4306,-27.6649172,152.7566950
29,Piccadilly Court,4306,-27.6648567,152.7568872
31,Piccadilly Court,4306,-27.6647594,152.7570944
2,Piccadilly Court,4306,-27.6660029,152.7547898
6,Piccadilly Court,4306,-27.6658247,152.7550822
10,Piccadilly Court,4306,-27.6656047,152.7552516
2,Fulham Close,4306,-27.6653027,152.7553077
4,Fulham Close,4306,-27.6652493,152.7549176
29,Lakeview Drive,4306,-27.6656778,152.7548013
31,Lakeview Drive,4306,-27.6655088,152.7547698
6,Fulham Close,4306,-27.6650592,152.7548163
5,Fulham Close,4306,-27.6647712,152.7548408
3,Fulham Close,4306,-27.6646841,152.7551608
1,Fulham Close,4306,-27.6647942,152.7554394
20,Piccadilly Court,4306,-27.6646882,152.7556055
22,Piccadilly Court,4306,-27.6646586,152.7558339
24,Piccadilly Court,4306,-27.6646067,152.7560182
26,Piccadilly Court,4306,-27.6645608,152.7562300
28,Piccadilly Court,4306,-27.6645057,152.7564193
30,Piccadilly Court,4306,-27.6644537,152.7566306
32,Piccadilly Court,4306,-27.6643827,152.7568346
34,Piccadilly Court,4306,-27.6642690,152.7570343
36,Piccadilly Court,4306,-27.6641924,152.7571984
38,Piccadilly Court,4306,-27.6641337,152.7574135
56,Lakeview Drive,4306,-27.6661396,152.7515678
54,Lakeview Drive,4306,-27.6660608,152.7517756
52,Lakeview Drive,4306,-27.6660374,152.7519884
50,Lakeview Drive,4306,-27.6659892,152.7522025
48,Lakeview Drive,4306,-27.6659341,152.7524483
46,Lakeview Drive,4306,-27.6658544,152.7526852
44,Lakeview Drive,4306,-27.6658083,152.7528931
42,Lakeview Drive,4306,-27.6657602,152.7531187
75,Lakeview Drive,4306,-27.6659435,152.7510963
73,Lakeview Drive,4306,-27.6657801,152.7512675
71,Lakeview Drive,4306,-27.6656581,152.7514763
69,Lakeview Drive,4306,-27.6656270,152.7516669
67,Lakeview Drive,4306,-27.6655816,152.7518685
65,Lakeview Drive,4306,-27.6655302,152.7520988
63,Lakeview Drive,4306,-27.6654982,152.7522871
61,Lakeview Drive,4306,-27.6654422,152.7524791
59,Lakeview Drive,4306,-27.6653854,152.7527008
57,Lakeview Drive,4306,-27.6653356,152.7528883
55,Lakeview Drive,4306,-27.6652923,152.7530785
53,Lakeview Drive,4306,-27.6652154,152.7533076
51,Lakeview Drive,4306,-27.6651966,152.7535089
49,Lakeview Drive,4306,-27.6651309,152.7537510
47,Lakeview Drive,4306,-27.6651280,152.7539410
45,Lakeview Drive,4306,-27.6651215,152.7541460
17,Danbulla Street,4306,-27.6893052,152.8114849
19,Danbulla Street,4306,-27.6891644,152.8113649
21,Danbulla Street,4306,-27.6890623,152.8112683
23,Danbulla Street,4306,-27.6889488,152.8111809
25,Danbulla Street,4306,-27.6888474,152.8110699
27,Danbulla Street,4306,-27.6887396,152.8109999
29,Danbulla Street,4306,-27.6886406,152.8109303
31,Danbulla Street,4306,-27.6885286,152.8108802
33,Danbulla Street,4306,-27.6884212,152.8108338
35,Danbulla Street,4306,-27.6883004,152.8107330
37,Danbulla Street,4306,-27.6881611,152.8107107
39,Danbulla Street,4306,-27.6879796,152.8106240
41,Danbulla Street,4306,-27.6878532,152.8105712
43,Danbulla Street,4306,-27.6877279,152.8105321
45,Danbulla Street,4306,-27.6876083,152.8105042
47,Danbulla Street,4306,-27.6874767,152.8104960
49,Danbulla Street,4306,-27.6873552,152.8104780
51,Danbulla Street,4306,-27.6872439,152.8104565
53,Danbulla Street,4306,-27.6871121,152.8104484
2,Powells Road,4305,-27.6615685,152.7382192
6,Powells Road,4305,-27.6618318,152.7381065
10,Powells Road,4305,-27.6618033,152.7375827
12,Powells Road,4305,-27.6618895,152.7373981
14,Powells Road,4305,-27.6620342,152.7372578
16,Powells Road,4305,-27.6620975,152.7370629
18,Powells Road,4305,-27.6622000,152.7369049
22,Powells Road,4305,-27.6624295,152.7365236
24,Powells Road,4305,-27.6624758,152.7363646
26,Powells Road,4305,-27.6626276,152.7361603
1,Powells Road,4305,-27.6609055,152.7381319
3,Powells Road,4305,-27.6610197,152.7379590
5,Powells Road,4305,-27.6611163,152.7377646
7,Powells Road,4305,-27.6607755,152.7376362
9,Powells Road,4305,-27.6609293,152.7373874
11,Powells Road,4305,-27.6612135,152.7375555
15,Powells Road,4305,-27.6613145,152.7373667
17,Powells Road,4305,-27.6614068,152.7372080
19,Powells Road,4305,-27.6615208,152.7369653
21,Powells Road,4305,-27.6616105,152.7368035
23,Powells Road,4305,-27.6617044,152.7365870
25,Powells Road,4305,-27.6618206,152.7364324
27,Powells Road,4305,-27.6618794,152.7362517
29,Powells Road,4305,-27.6617233,152.7359752
31,Powells Road,4305,-27.6620675,152.7359072
35,Powells Road,4305,-27.6621822,152.7356114
39,Powells Road,4305,-27.6622753,152.7353046
44,Tulip Street,4305,-27.6623289,152.7350353
42,Tulip Street,4305,-27.6620562,152.7350394
38,Tulip Street,4305,-27.6619084,152.7352184
36,Tulip Street,4305,-27.6618261,152.7354680
34,Tulip Street,4305,-27.6616369,152.7356848
32,Tulip Street,4305,-27.6613831,152.7358449
5,Lilly Court,4305,-27.6614097,152.7361465
7,Lilly Court,4305,-27.6614009,152.7365235
9,Lilly Court,4305,-27.6612576,152.7366867
11,Lilly Court,4305,-27.6610667,152.7370947
12,Lilly Court,4305,-27.6608134,152.7369463
10,Lilly Court,4305,-27.6607019,152.7365206
6,Lilly Court,4305,-27.6609504,152.7364023
2,Lilly Court,4305,-27.6610104,152.7360382
26,Tulip Street,4305,-27.6607972,152.7359975
24,Tulip Street,4305,-27.6605990,152.7360360
24-26,Rose Street,4305,-27.6602717,152.7361150
20-22,Rose Street,4305,-27.6603224,152.7364864
16-18,Rose Street,4305,-27.6603868,152.7368573
12-14,Rose Street,4305,-27.6604677,152.7371615
8-10,Rose Street,4305,-27.6605248,152.7375063
4-6,Rose Street,4305,-27.6605761,152.7379646
2-4,Rose Street,4305,-27.6605353,152.7382591
53,Tulip Street,4305,-27.6621687,152.7345110
17,Petal Place,4305,-27.6621037,152.7340992
13,Petal Place,4305,-27.6620984,152.7337268
9,Petal Place,4305,-27.6620118,152.7334222
5,Petal Place,4305,-27.6619731,152.7331869
1,Petal Place,4305,-27.6618920,152.7327309
51,Tulip Street,4305,-27.6618659,152.7345038
47,Tulip Street,4305,-27.6616177,152.7347861
43,Tulip Street,4305,-27.6614968,152.7350886
39,Tulip Street,4305,-27.6613847,152.7352606
35,Tulip Street,4305,-27.6610851,152.7354187
14,Petal Place,4305,-27.6617887,152.7342196
10,Petal Place,4305,-27.6616486,152.7338674
1,Iris Court,4305,-27.6615860,152.7335705
3,Iris Court,4305,-27.6612840,152.7336029
7,Iris Court,4305,-27.6613087,152.7339315
9,Iris Court,4305,-27.6613675,152.7341728
11,Iris Court,4305,-27.6613874,152.7344190
13,Iris Court,4305,-27.6613630,152.7347825
17,Iris Court,4305,-27.6610653,152.7350740
18,Iris Court,4305,-27.6609710,152.7345596
16,Iris Court,4305,-27.6609088,152.7343079
14,Iris Court,4305,-27.6608481,152.7340475
12,Iris Court,4305,-27.6608349,152.7337966
4,Petal Place,4305,-27.6615597,152.7330649
2,Petal Place,4305,-27.6615199,152.7327603
4,Iris Court,4305,-27.6613124,152.7331819
6,Iris Court,4305,-27.6610624,152.7332011
8,Iris Court,4305,-27.6607532,152.7332694
10,Iris Court,4305,-27.6607897,152.7335219
11,Goddards Road,4305,-27.6612619,152.7327911
15,Goddards Road,4305,-27.6609830,152.7328685
19,Goddards Road,4305,-27.6606561,152.7329008
25,Goddards Road,4305,-27.6602292,152.7333736
25,Goddards Road,4305,-27.6604101,152.7338057
27,Tulip Street,4305,-27.6603122,152.7355648
21,Tulip Street,4305,-27.6599019,152.7356350
17,Tulip Street,4305,-27.6596396,152.7356779
6,Viola Way,4305,-27.6596716,152.7353618
8,Viola Way,4305,-27.6597001,152.7352223
10,Viola Way,4305,-27.6596773,152.7350929
12,Viola Way,4305,-27.6596539,152.7349616
14,Viola Way,4305,-27.6596348,152.7348319
2,Lilly Pilly Court,4305,-27.6595838,152.7346537
4,Lilly Pilly Court,4305,-27.6596949,152.7346001
6,Lilly Pilly Court,4305,-27.6598113,152.7345785
8,Lilly Pilly Court,4305,-27.6599275,152.7345563
10,Lilly Pilly Court,4305,-27.6600516,152.7345476
24,Lilly Pilly Court,4305,-27.6602939,152.7351711
22,Lilly Pilly Court,4305,-27.6601588,152.7351948
20,Lilly Pilly Court,4305,-27.6600299,152.7352186
18,Lilly Pilly Court,4305,-27.6598920,152.7352295
16,Lilly Pilly Court,4305,-27.6599536,152.7349049
14,Lilly Pilly Court,4305,-27.6599354,152.7347750
11,Lilly Pilly Court,4305,-27.6601123,152.7340562
9,Lilly Pilly Court,4305,-27.6599965,152.7340778
7,Lilly Pilly Court,4305,-27.6598799,152.7340977
5,Lilly Pilly Court,4305,-27.6597650,152.7341204
3,Lilly Pilly Court,4305,-27.6596490,152.7341414
1,Lilly Pilly Court,4305,-27.6595297,152.7341455
14,Peach Tree Court,4305,-27.6596183,152.7339225
16,Peach Tree Court,4305,-27.6599426,152.7338544
18,Peach Tree Court,4305,-27.6599959,152.7335979
19,Peach Tree Court,4305,-27.6598703,152.7334149
17,Peach Tree Court,4305,-27.6595536,152.7334746
15,Peach Tree Court,4305,-27.6592962,152.7335349
13,Peach Tree Court,4305,-27.6590424,152.7335818
11,Peach Tree Court,4305,-27.6587895,152.7336295
9,Peach Tree Court,4305,-27.6585546,152.7337071
7,Peach Tree Court,4305,-27.6583411,152.7337783
5,Peach Tree Court,4305,-27.6581840,152.7338395
3,Peach Tree Court,4305,-27.6580210,152.7338606
1,Peach Tree Court,4305,-27.6578369,152.7338567
33-35,Goddards Road,4305,-27.6599275,152.7331066
37-39,Goddards Road,4305,-27.6595868,152.7331581
41-43,Goddards Road,4305,-27.6592531,152.7332552
45-47,Goddards Road,4305,-27.6589193,152.7332935
49-51,Goddards Road,4305,-27.6586613,152.7333726
53-55,Goddards Road,4305,-27.6583182,152.7333687
57-59,Goddards Road,4305,-27.6579396,152.7334101
61,Goddards Road,4305,-27.6577069,152.7335114
22,Frankland Street,4306,-27.6891113,152.8117191
24,Frankland Street,4306,-27.6890101,152.8116301
26,Frankland Street,4306,-27.6889161,152.8115432
28,Frankland Street,4306,-27.6888321,152.8114738
30,Frankland Street,4306,-27.6887619,152.8114093
32,Frankland Street,4306,-27.6886985,152.8113606
34,Frankland Street,4306,-27.6886318,152.8113028
36,Frankland Street,4306,-27.6885271,152.8112466
38,Frankland Street,4306,-27.6884229,152.8111798
40,Frankland Street,4306,-27.6883093,152.8111024
42,Frankland Street,4306,-27.6881929,152.8110453
44,Frankland Street,4306,-27.6880473,152.8109740
46,Frankland Street,4306,-27.6879388,152.8109463
48,Frankland Street,4306,-27.6878255,152.8108965
50,Frankland Street,4306,-27.6877016,152.8108603
52,Frankland Street,4306,-27.6875751,152.8108248
54,Frankland Street,4306,-27.6874554,152.8108093
56,Frankland Street,4306,-27.6873215,152.8107718
58,Frankland Street,4306,-27.6871834,152.8107576
60,Frankland Street,4306,-27.6870131,152.8107515
33,Ipswich - Boonah Road,4306,-27.6645161,152.7354961
21-23,Rose Street,4305,-27.6598107,152.7361869
17-19,Rose Street,4305,-27.6599021,152.7365284
9-11,Rose Street,4305,-27.6599749,152.7373377
5-7,Rose Street,4305,-27.6600554,152.7378182
3,Rose Street,4305,-27.6601101,152.7381372
1,Rose Street,4305,-27.6601083,152.7383314
2-4,Aster Street,4305,-27.6597247,152.7383553
6-8,Aster Street,4305,-27.6596303,152.7378238
10-12,Aster Street,4305,-27.6595790,152.7374913
18-20,Aster Street,4305,-27.6594799,152.7366883
22,Aster Street,4305,-27.6593632,152.7362645
10,Peach Tree Court,4305,-27.6591251,152.7339870
21,Viola Way,4305,-27.6591568,152.7341444
19,Viola Way,4305,-27.6591781,152.7342946
17,Viola Way,4305,-27.6592004,152.7344450
15,Viola Way,4305,-27.6591863,152.7346087
13,Viola Way,4305,-27.6592088,152.7347809
11,Viola Way,4305,-27.6592347,152.7349465
9,Viola Way,4305,-27.6592590,152.7351201
7,Viola Way,4305,-27.6592421,152.7353294
8,Peach Tree Court,4305,-27.6588688,152.7340443
20,Camellia Street,4305,-27.6588922,152.7342412
18,Camellia Street,4305,-27.6589096,152.7344569
16,Camellia Street,4305,-27.6589410,152.7346677
14,Camellia Street,4305,-27.6589844,152.7348718
12,Camellia Street,4305,-27.6590048,152.7350842
10,Camellia Street,4305,-27.6590155,152.7353197
8,Camellia Street,4305,-27.6588507,152.7354224
6,Camellia Street,4305,-27.6586693,152.7354665
4,Camellia Street,4305,-27.6584910,152.7354989
2,Camellia Street,4305,-27.6583092,152.7355283
15,Tulip Street,4305,-27.6593102,152.7357396
9-11,Tulip Street,4305,-27.6591471,152.7357780
5-7,Tulip Street,4305,-27.6588045,152.7358613
1-3,Tulip Street,4305,-27.6584770,152.7359377
15,Camellia Street,4305,-27.6584363,152.7342582
13,Camellia Street,4305,-27.6584655,152.7344562
11,Camellia Street,4305,-27.6584893,152.7346574
9,Camellia Street,4305,-27.6585177,152.7348581
7,Camellia Street,4305,-27.6585506,152.7350359
34,Cypress Street,4305,-27.6583048,152.7350935
36,Cypress Street,4305,-27.6582762,152.7349083
38,Cypress Street,4305,-27.6582500,152.7347107
40,Cypress Street,4305,-27.6582105,152.7345019
42,Cypress Street,4305,-27.6581795,152.7343050
2-36,Goddards Road,4305,-27.6592692,152.7282586
66-78,Goddards Road,4305,-27.6558570,152.7333015
21,Aster Street,4305,-27.6589526,152.7364053
6,Tulip Street,4305,-27.6587957,152.7363658
24,Cypress Street,4305,-27.6584598,152.7363979
17-19,Aster Street,4305,-27.6589379,152.7367470
13-15,Aster Street,4305,-27.6590215,152.7371935
9-11,Aster Street,4305,-27.6590874,152.7375431
5-7,Aster Street,4305,-27.6591207,152.7378974
3,Aster Street,4305,-27.6591855,152.7382674
14-16,Jacaranda Drive,4305,-27.6592180,152.7385206
18,Jacaranda Drive,4305,-27.6589202,152.7385355
2,Cypress Street,4305,-27.6587603,152.7385874
4,Cypress Street,4305,-27.6587325,152.7383507
8,Cypress Street,4305,-27.6588529,152.7380366
6,Cypress Street,4305,-27.6586990,152.7380812
10-12,Cypress Street,4305,-27.6586661,152.7376555
14-16,Cypress Street,4305,-27.6585777,152.7372757
18-20,Cypress Street,4305,-27.6585669,152.7368986
48,Greenview Avenue,4306,-27.6900596,152.8125376
50,Greenview Avenue,4306,-27.6899529,152.8126518
52,Greenview Avenue,4306,-27.6898459,152.8128357
3,Danbulla Street,4306,-27.6899132,152.8123308
5,Danbulla Street,4306,-27.6898280,152.8122044
7,Danbulla Street,4306,-27.6897491,152.8120850
11,Danbulla Street,4306,-27.6896173,152.8118670
13,Danbulla Street,4306,-27.6895221,152.8117376
6,Frankland Street,4306,-27.6897030,152.8126229
8,Frankland Street,4306,-27.6896545,152.8124988
10,Frankland Street,4306,-27.6895822,152.8124011
12,Frankland Street,4306,-27.6895299,152.8122884
14,Frankland Street,4306,-27.6894689,152.8121849
16,Frankland Street,4306,-27.6893903,152.8120744
18,Frankland Street,4306,-27.6893223,152.8119695
509,Warwick Road,4305,-27.6603275,152.7389443
503-507,Warwick Road,4305,-27.6599604,152.7395624
9,Jacaranda Drive,4305,-27.6598863,152.7388295
11,Jacaranda Drive,4305,-27.6597136,152.7388883
15,Jacaranda Drive,4305,-27.6595699,152.7389048
17,Jacaranda Drive,4305,-27.6593957,152.7389154
19,Jacaranda Drive,4305,-27.6592288,152.7389786
3,Hanworth Court,4305,-27.6593122,152.7392894
5,Hanworth Court,4305,-27.6595570,152.7392190
7,Hanworth Court,4305,-27.6598493,152.7391571
21,Frankland Street,4306,-27.6888217,152.8120289
23,Frankland Street,4306,-27.6887249,152.8119067
25,Frankland Street,4306,-27.6886176,152.8118190
27,Frankland Street,4306,-27.6885176,152.8117156
29,Frankland Street,4306,-27.6884040,152.8116538
31,Frankland Street,4306,-27.6882940,152.8115686
33,Frankland Street,4306,-27.6881657,152.8114941
35,Frankland Street,4306,-27.6880320,152.8114265
37,Frankland Street,4306,-27.6878960,152.8113728
39,Frankland Street,4306,-27.6877715,152.8113264
41,Frankland Street,4306,-27.6876519,152.8112825
43,Frankland Street,4306,-27.6875166,152.8112407
45,Frankland Street,4306,-27.6873366,152.8112112
47,Frankland Street,4306,-27.6871991,152.8112024
49,Frankland Street,4306,-27.6870366,152.8111610
51,Frankland Street,4306,-27.6868599,152.8111850
64,Greenview Avenue,4306,-27.6898134,152.8139821
62,Greenview Avenue,4306,-27.6898138,152.8138270
60,Greenview Avenue,4306,-27.6897867,152.8136545
58,Greenview Avenue,4306,-27.6897612,152.8134754
1,Frankland Street,4306,-27.6896939,152.8132708
3,Frankland Street,4306,-27.6895948,152.8131722
5,Frankland Street,4306,-27.6895099,152.8130470
7,Frankland Street,4306,-27.6894462,152.8128820
9,Frankland Street,4306,-27.6893667,152.8127827
11,Frankland Street,4306,-27.6892943,152.8126493
13,Frankland Street,4306,-27.6892141,152.8125163
15,Frankland Street,4306,-27.6891345,152.8123997
17,Frankland Street,4306,-27.6890523,152.8122892
1,Sovereign Drive,4306,-27.6704134,152.7549344
7,Sovereign Drive,4306,-27.6702789,152.7548019
9,Sovereign Drive,4306,-27.6702307,152.7546165
11,Sovereign Drive,4306,-27.6700731,152.7548258
13,Sovereign Drive,4306,-27.6699249,152.7547316
15,Sovereign Drive,4306,-27.6700916,152.7544817
17,Sovereign Drive,4306,-27.6700031,152.7543716
19,Sovereign Drive,4306,-27.6697945,152.7546171
21,Sovereign Drive,4306,-27.6696907,152.7544827
23,Sovereign Drive,4306,-27.6698756,152.7542416
25,Sovereign Drive,4306,-27.6697750,152.7541447
27,Sovereign Drive,4306,-27.6695951,152.7543207
29,Sovereign Drive,4306,-27.6695171,152.7542107
31,Sovereign Drive,4306,-27.6696348,152.7539891
33,Sovereign Drive,4306,-27.6694946,152.7538969
35,Sovereign Drive,4306,-27.6693375,152.7537110
37,Sovereign Drive,4306,-27.6692405,152.7535178
39,Sovereign Drive,4306,-27.6692031,152.7533385
41,Sovereign Drive,4306,-27.6691125,152.7531565
16,Sovereign Drive,4306,-27.6699880,152.7536313
18,Sovereign Drive,4306,-27.6699201,152.7535327
20,Sovereign Drive,4306,-27.6698601,152.7534413
22,Sovereign Drive,4306,-27.6698175,152.7533455
24,Sovereign Drive,4306,-27.6697455,152.7532576
26,Sovereign Drive,4306,-27.6697149,152.7531484
17,Currawong Street,4306,-27.6710943,152.7533388
15,Currawong Street,4306,-27.6709515,152.7534069
13,Currawong Street,4306,-27.6708089,152.7534007
11,Currawong Street,4306,-27.6706707,152.7534424
9,Currawong Street,4306,-27.6705499,152.7534808
7,Currawong Street,4306,-27.6704141,152.7534917
5,Currawong Street,4306,-27.6702648,152.7534872
22,Glasswing Street,4306,-27.6710382,152.7529696
20,Glasswing Street,4306,-27.6708881,152.7530140
18,Glasswing Street,4306,-27.6707540,152.7530470
16,Glasswing Street,4306,-27.6706397,152.7530267
14,Glasswing Street,4306,-27.6705457,152.7530810
12,Glasswing Street,4306,-27.6704526,152.7530881
10,Glasswing Street,4306,-27.6703548,152.7530750
8,Glasswing Street,4306,-27.6702371,152.7531244
6,Glasswing Street,4306,-27.6700685,152.7531483
10,Miskin Way,4306,-27.6707819,152.7538558
8,Miskin Way,4306,-27.6708042,152.7540264
6,Miskin Way,4306,-27.6708248,152.7541803
4,Miskin Way,4306,-27.6708501,152.7543296
2,Miskin Way,4306,-27.6708820,152.7544779
4,Sovereign Drive,4306,-27.6708782,152.7546334
2,Sovereign Drive,4306,-27.6709544,152.7547876
16,Azure Court,4306,-27.6712543,152.7548845
14,Azure Court,4306,-27.6712524,152.7547129
12,Azure Court,4306,-27.6712297,152.7545632
10,Azure Court,4306,-27.6711935,152.7544172
8,Azure Court,4306,-27.6711844,152.7542689
6,Azure Court,4306,-27.6711623,152.7541118
4,Azure Court,4306,-27.6711618,152.7539623
2,Azure Court,4306,-27.6711180,152.7537969
69,Aloe Street,4305,-27.6574477,152.7339917
67,Aloe Street,4305,-27.6573223,152.7340250
65,Aloe Street,4305,-27.6571880,152.7340411
63,Aloe Street,4305,-27.6570558,152.7340736
61,Aloe Street,4305,-27.6569219,152.7340984
59,Aloe Street,4305,-27.6567880,152.7341228
57,Aloe Street,4305,-27.6566544,152.7341475
55,Aloe Street,4305,-27.6565193,152.7341739
53,Aloe Street,4305,-27.6563876,152.7341926
51,Aloe Street,4305,-27.6562540,152.7342211
49,Aloe Street,4305,-27.6561047,152.7342462
47,Aloe Street,4305,-27.6560370,152.7345193
45,Aloe Street,4305,-27.6560437,152.7347428
43,Aloe Street,4305,-27.6560769,152.7349322
41,Aloe Street,4305,-27.6561009,152.7351454
39,Aloe Street,4305,-27.6561334,152.7353676
37,Aloe Street,4305,-27.6561598,152.7355500
35,Aloe Street,4305,-27.6561819,152.7357537
68,Greenview Avenue,4306,-27.6898736,152.8143259
70,Greenview Avenue,4306,-27.6899104,152.8144926
72,Greenview Avenue,4306,-27.6899282,152.8146362
74,Greenview Avenue,4306,-27.6899228,152.8147934
51,Greenview Avenue,4306,-27.6904221,152.8129331
53,Greenview Avenue,4306,-27.6903086,152.8130514
55,Greenview Avenue,4306,-27.6902531,152.8132456
57,Greenview Avenue,4306,-27.6902422,152.8134411
59,Greenview Avenue,4306,-27.6902765,152.8136311
61,Greenview Avenue,4306,-27.6902942,152.8137877
63,Greenview Avenue,4306,-27.6903083,152.8139506
65,Greenview Avenue,4306,-27.6903444,152.8140773
67,Greenview Avenue,4306,-27.6903605,152.8142398
69,Greenview Avenue,4306,-27.6903692,152.8143946
34,Abrahams Road,4306,-27.6903703,152.8146673
32,Abrahams Road,4306,-27.6905072,152.8146151
30,Abrahams Road,4306,-27.6906233,152.8146185
28,Abrahams Road,4306,-27.6907530,152.8145819
5,Mapleton Street,4306,-27.6906973,152.8143315
7,Mapleton Street,4306,-27.6906597,152.8141924
9,Mapleton Street,4306,-27.6906481,152.8140494
11,Mapleton Street,4306,-27.6906201,152.8138821
13,Mapleton Street,4306,-27.6906016,152.8137129
15,Mapleton Street,4306,-27.6905653,152.8135733
17,Mapleton Street,4306,-27.6905591,152.8134193
19,Mapleton Street,4306,-27.6905123,152.8132436
6,Mapleton Street,4306,-27.6910554,152.8142429
8,Mapleton Street,4306,-27.6910337,152.8141230
10,Mapleton Street,4306,-27.6910251,152.8140118
12,Mapleton Street,4306,-27.6910084,152.8138831
14,Mapleton Street,4306,-27.6909739,152.8137526
24,Mapleton Street,4306,-27.6913048,152.8141830
22,Mapleton Street,4306,-27.6913028,152.8140698
20,Mapleton Street,4306,-27.6912902,152.8139604
22,Mapleton Street,4306,-27.6912918,152.8138335
20,Mapleton Street,4306,-27.6912299,152.8137092
503-507,Warwick Road,4305,-27.6601329,152.7394063
30,Sovereign Drive,4306,-27.6696181,152.7528238
32,Sovereign Drive,4306,-27.6696258,152.7527062
34,Sovereign Drive,4306,-27.6696248,152.7526040
36,Sovereign Drive,4306,-27.6695977,152.7525050
38,Sovereign Drive,4306,-27.6696136,152.7524004
40,Sovereign Drive,4306,-27.6696087,152.7522916
44,Sovereign Drive,4306,-27.6696018,152.7519356
46,Sovereign Drive,4306,-27.6696171,152.7518235
48,Sovereign Drive,4306,-27.6696260,152.7517181
50,Sovereign Drive,4306,-27.6696368,152.7516136
52,Sovereign Drive,4306,-27.6696549,152.7515071
54,Sovereign Drive,4306,-27.6696722,152.7513912
58,Sovereign Drive,4306,-27.6697224,152.7510302
60,Sovereign Drive,4306,-27.6697442,152.7509162
62,Sovereign Drive,4306,-27.6697634,152.7508097
64,Sovereign Drive,4306,-27.6697687,152.7507064
66,Sovereign Drive,4306,-27.6698035,152.7505965
68,Sovereign Drive,4306,-27.6698258,152.7504817
5,Glasswing Street,4306,-27.6699269,152.7526861
7,Glasswing Street,4306,-27.6700642,152.7526538
9,Glasswing Street,4306,-27.6702190,152.7526321
11,Glasswing Street,4306,-27.6703756,152.7525864
13,Glasswing Street,4306,-27.6705189,152.7526024
15,Glasswing Street,4306,-27.6706650,152.7525368
17,Glasswing Street,4306,-27.6708185,152.7525144
19,Glasswing Street,4306,-27.6709596,152.7524742
6,Boronia Street,4306,-27.6698730,152.7523146
8,Boronia Street,4306,-27.6700091,152.7522691
10,Boronia Street,4306,-27.6701834,152.7522687
12,Boronia Street,4306,-27.6703181,152.7522457
14,Boronia Street,4306,-27.6704485,152.7521915
16,Boronia Street,4306,-27.6706170,152.7521844
18,Boronia Street,4306,-27.6707579,152.7521330
20,Boronia Street,4306,-27.6709152,152.7520937
5,Boronia Street,4306,-27.6699273,152.7518162
7,Boronia Street,4306,-27.6700584,152.7517847
9,Boronia Street,4306,-27.6701836,152.7517568
11,Boronia Street,4306,-27.6703094,152.7517242
13,Boronia Street,4306,-27.6704505,152.7517017
15,Boronia Street,4306,-27.6705879,152.7516887
17,Boronia Street,4306,-27.6707266,152.7516567
19,Boronia Street,4306,-27.6708702,152.7516493
6,Kinkajou Street,4306,-27.6699739,152.7514345
8,Kinkajou Street,4306,-27.6700720,152.7514068
10,Kinkajou Street,4306,-27.6701749,152.7513752
12,Kinkajou Street,4306,-27.6702887,152.7513469
14,Kinkajou Street,4306,-27.6704105,152.7513456
16,Kinkajou Street,4306,-27.6705190,152.7513388
18,Kinkajou Street,4306,-27.6706394,152.7512832
20,Kinkajou Street,4306,-27.6707979,152.7512455
5,Kinkajou Street,4306,-27.6700308,152.7509519
7,Kinkajou Street,4306,-27.6701425,152.7509236
9,Kinkajou Street,4306,-27.6702339,152.7509011
11,Kinkajou Street,4306,-27.6703389,152.7508714
13,Kinkajou Street,4306,-27.6704402,152.7508350
15,Kinkajou Street,4306,-27.6705666,152.7508212
17,Kinkajou Street,4306,-27.6707282,152.7507883
6,Beaufortia Street,4306,-27.6701191,152.7505349
8,Beaufortia Street,4306,-27.6702445,152.7504905
10,Beaufortia Street,4306,-27.6703713,152.7504845
12,Beaufortia Street,4306,-27.6705099,152.7504167
14,Beaufortia Street,4306,-27.6706626,152.7504088
2,Brushtail Lane,4306,-27.6709085,152.7551252
4,Brushtail Lane,4306,-27.6710673,152.7551901
6,Brushtail Lane,4306,-27.6712109,152.7552292
8,Brushtail Lane,4306,-27.6713711,152.7552829
62,Grampian Drive,4306,-27.6700647,152.7555168
68,Grampian Drive,4306,-27.6711510,152.7563824
22,Currawong Street,4306,-27.6714118,152.7528529
20,Currawong Street,4306,-27.6714402,152.7530385
18,Currawong Street,4306,-27.6714622,152.7531820
16,Currawong Street,4306,-27.6714888,152.7533520
1,Azure Court,4306,-27.6715065,152.7535336
3,Azure Court,4306,-27.6715006,152.7536920
5,Azure Court,4306,-27.6715645,152.7538403
7,Azure Court,4306,-27.6715681,152.7540005
9,Azure Court,4306,-27.6715971,152.7541551
11,Azure Court,4306,-27.6715949,152.7542925
13,Azure Court,4306,-27.6716192,152.7544534
15,Azure Court,4306,-27.6716312,152.7545934
17,Azure Court,4306,-27.6716620,152.7547526
19,Azure Court,4306,-27.6717245,152.7548786
30,Glasswing Street,4306,-27.6718787,152.7528788
4,Wyness Court,4306,-27.6718147,152.7530859
6,Wyness Court,4306,-27.6717666,152.7532757
8,Wyness Court,4306,-27.6717910,152.7534401
10,Wyness Court,4306,-27.6718120,152.7535904
12,Wyness Court,4306,-27.6718195,152.7537344
14,Wyness Court,4306,-27.6718660,152.7538598
16,Wyness Court,4306,-27.6718471,152.7540517
26,Currawong Street,4306,-27.6713553,152.7525116
28,Currawong Street,4306,-27.6713381,152.7523670
30,Currawong Street,4306,-27.6713210,152.7522139
32,Currawong Street,4306,-27.6712950,152.7520672
34,Currawong Street,4306,-27.6712781,152.7518986
36,Currawong Street,4306,-27.6712523,152.7516931
38,Currawong Street,4306,-27.6712030,152.7515107
40,Currawong Street,4306,-27.6711956,152.7513642
42,Currawong Street,4306,-27.6711563,152.7512299
44,Currawong Street,4306,-27.6711354,152.7510893
46,Currawong Street,4306,-27.6711215,152.7509488
48,Currawong Street,4306,-27.6710913,152.7508183
50,Currawong Street,4306,-27.6710870,152.7506863
18,Beaufortia Street,4306,-27.6709768,152.7504401
20,Beaufortia Street,4306,-27.6710942,152.7504308
22,Beaufortia Street,4306,-27.6711869,152.7504554
24,Beaufortia Street,4306,-27.6712925,152.7504883
26,Beaufortia Street,4306,-27.6714146,152.7505064
30,Beaufortia Street,4306,-27.6713967,152.7506935
32,Beaufortia Street,4306,-27.6714125,152.7508304
34,Beaufortia Street,4306,-27.6714376,152.7509622
36,Beaufortia Street,4306,-27.6714586,152.7510865
38,Beaufortia Street,4306,-27.6714617,152.7512170
40,Beaufortia Street,4306,-27.6714914,152.7513375
42,Beaufortia Street,4306,-27.6715146,152.7514723
44,Beaufortia Street,4306,-27.6715499,152.7516083
45,Beaufortia Street,4306,-27.6717679,152.7514713
43,Beaufortia Street,4306,-27.6719342,152.7514498
41,Beaufortia Street,4306,-27.6719489,152.7511978
39,Beaufortia Street,4306,-27.6718879,152.7509994
37,Beaufortia Street,4306,-27.6718393,152.7508889
35,Beaufortia Street,4306,-27.6718144,152.7507631
33,Beaufortia Street,4306,-27.6717780,152.7506499
31,Beaufortia Street,4306,-27.6717754,152.7505483
29,Beaufortia Street,4306,-27.6717655,152.7504325
27,Beaufortia Street,4306,-27.6717401,152.7503092
30,Don Street,4306,-27.6716119,152.7523188
28,Don Street,4306,-27.6716000,152.7520947
26,Don Street,4306,-27.6715712,152.7518298
24,Don Street,4306,-27.6717226,152.7518018
22,Don Street,4306,-27.6718822,152.7517697
20,Don Street,4306,-27.6720165,152.7517494
18,Don Street,4306,-27.6721409,152.7517218
16,Don Street,4306,-27.6722591,152.7516816
14,Don Street,4306,-27.6723687,152.7516809
12,Don Street,4306,-27.6724767,152.7516637
10,Don Street,4306,-27.6725834,152.7516433
8,Don Street,4306,-27.6727066,152.7515958
6,Don Street,4306,-27.6728301,152.7515765
4,Don Street,4306,-27.6729601,152.7515345
2,Don Street,4306,-27.6731040,152.7515082
15,Don Street,4306,-27.6720175,152.7521598
19,Don Street,4306,-27.6720355,152.7523284
29,Glasswing Street,4306,-27.6719992,152.7525089
13,Don Street,4306,-27.6722274,152.7521893
11,Don Street,4306,-27.6723577,152.7521665
9,Don Street,4306,-27.6724898,152.7521435
7,Don Street,4306,-27.6726155,152.7521363
5,Don Street,4306,-27.6727424,152.7520993
3,Don Street,4306,-27.6728757,152.7520862
63,Cowie Street,4306,-27.6731441,152.7520677
57,Cowie Street,4306,-27.6731053,152.7523668
53,Cowie Street,4306,-27.6729626,152.7526159
51,Cowie Street,4306,-27.6729301,152.7527533
65,Don Street,4306,-27.6731489,152.7519226
55,Cowie Street,4306,-27.6730379,152.7524935
49,Cowie Street,4306,-27.6728590,152.7528835
39,Glasswing Street,4306,-27.6726918,152.7527163
37,Glasswing Street,4306,-27.6725825,152.7526408
35,Glasswing Street,4306,-27.6724465,152.7526026
33,Glasswing Street,4306,-27.6723293,152.7525533
31,Glasswing Street,4306,-27.6721970,152.7525225
34,Glasswing Street,4306,-27.6722835,152.7530261
36,Glasswing Street,4306,-27.6724710,152.7531434
45,Cowie Street,4306,-27.6727104,152.7531881
43,Cowie Street,4306,-27.6726306,152.7533380
41,Cowie Street,4306,-27.6725860,152.7535325
39,Cowie Street,4306,-27.6725981,152.7536695
37,Cowie Street,4306,-27.6725971,152.7538435
83-89,Grampian Drive,4306,-27.6721339,152.7548827
3,Wyness Court,4306,-27.6721990,152.7532486
5,Wyness Court,4306,-27.6722206,152.7534116
7,Wyness Court,4306,-27.6722563,152.7535661
9,Wyness Court,4306,-27.6722673,152.7537114
11,Wyness Court,4306,-27.6722949,152.7538642
13,Wyness Court,4306,-27.6723205,152.7540175
60,Cowie Street,4306,-27.6733870,152.7511665
62,Cowie Street,4306,-27.6734838,152.7511221
64,Cowie Street,4306,-27.6735724,152.7511278
66,Cowie Street,4306,-27.6736637,152.7511246
68,Cowie Street,4306,-27.6737480,152.7510820
56,Cowie Street,4306,-27.6735271,152.7514159
54,Cowie Street,4306,-27.6735533,152.7516133
52,Cowie Street,4306,-27.6735827,152.7518333
57,Rawlings Road,4306,-27.6745520,152.7514159
25,Dee Street,4306,-27.6742148,152.7521408
23,Dee Street,4306,-27.6740989,152.7523087
21,Dee Street,4306,-27.6740194,152.7524980
19,Dee Street,4306,-27.6739452,152.7526636
17,Dee Street,4306,-27.6738709,152.7528448
15,Dee Street,4306,-27.6738786,152.7530090
13,Dee Street,4306,-27.6738469,152.7531519
11,Dee Street,4306,-27.6738190,152.7533160
9,Dee Street,4306,-27.6738058,152.7534539
7,Dee Street,4306,-27.6737780,152.7536159
5,Dee Street,4306,-27.6737624,152.7538077
3,Dee Street,4306,-27.6737202,152.7539833
1,Dee Street,4306,-27.6736186,152.7541533
18,Dee Street,4306,-27.6744942,152.7523687
16,Dee Street,4306,-27.6744611,152.7525989
14,Dee Street,4306,-27.6743836,152.7527621
12,Dee Street,4306,-27.6743311,152.7529335
1,Aden Place,4306,-27.6742455,152.7531976
3,Aden Place,4306,-27.6744212,152.7532901
5,Aden Place,4306,-27.6745730,152.7533995
7,Aden Place,4306,-27.6747126,152.7535519
11,Aden Place,4306,-27.6748773,152.7538048
12,Aden Place,4306,-27.6748133,152.7541250
10,Aden Place,4306,-27.6746419,152.7541695
8,Aden Place,4306,-27.6744354,152.7540960
4,Aden Place,4306,-27.6743489,152.7538896
4,Aden Place,4306,-27.6743011,152.7538343
2,Aden Place,4306,-27.6741602,152.7536936
4,Dee Street,4306,-27.6741209,152.7540664
2,Dee Street,4306,-27.6740630,152.7542646
14,Cowie Street,4306,-27.6742282,152.7543179
12,Cowie Street,4306,-27.6743808,152.7543612
10,Cowie Street,4306,-27.6745430,152.7544185
8,Cowie Street,4306,-27.6746945,152.7544733
6,Cowie Street,4306,-27.6748503,152.7545103
4,Cowie Street,4306,-27.6749849,152.7545712
23,Rawlings Road,4306,-27.6751933,152.7545687
25,Rawlings Road,4306,-27.6751210,152.7543315
27,Rawlings Road,4306,-27.6751113,152.7540313
29,Rawlings Road,4306,-27.6750284,152.7536627
31,Rawlings Road,4306,-27.6749587,152.7534182
33,Rawlings Road,4306,-27.6749535,152.7532066
35,Rawlings Road,4306,-27.6748928,152.7530119
37,Rawlings Road,4306,-27.6748777,152.7528073
39,Rawlings Road,4306,-27.6748470,152.7526213
41,Rawlings Road,4306,-27.6748353,152.7524472
43,Rawlings Road,4306,-27.6747954,152.7523003
25,Cowie Street,4306,-27.6734118,152.7545525
23,Cowie Street,4306,-27.6736033,152.7545816
21,Cowie Street,4306,-27.6737407,152.7546296
19,Cowie Street,4306,-27.6739037,152.7546717
17,Cowie Street,4306,-27.6740609,152.7547371
15,Cowie Street,4306,-27.6742140,152.7547669
13,Cowie Street,4306,-27.6743703,152.7548169
11,Cowie Street,4306,-27.6745299,152.7549022
9,Cowie Street,4306,-27.6746571,152.7549438
7,Cowie Street,4306,-27.6747621,152.7550068
5,Cowie Street,4306,-27.6748777,152.7550322
3,Cowie Street,4306,-27.6750238,152.7550699
113-119,Grampian Drive,4306,-27.6747212,152.7556638
14,Jellett Drive,4306,-27.6733862,152.7547422
12,Jellett Drive,4306,-27.6733636,152.7549164
10,Jellett Drive,4306,-27.6733193,152.7550819
8,Jellett Drive,4306,-27.6733079,152.7552555
6,Jellett Drive,4306,-27.6732533,152.7554314
3,Spey Close,4306,-27.6734766,152.7554745
3,Tey Court,4306,-27.6735110,152.7553104
5,Tey Court,4306,-27.6735411,152.7551724
7,Tey Court,4306,-27.6735710,152.7549847
9,Tey Court,4306,-27.6736378,152.7548200
11,Tey Court,4306,-27.6738606,152.7549231
13,Tey Court,4306,-27.6740218,152.7549785
15,Tey Court,4306,-27.6741417,152.7550097
17,Tey Court,4306,-27.6742497,152.7550303
19,Tey Court,4306,-27.6743577,152.7550795
21,Tey Court,4306,-27.6744737,152.7551193
6,Tey Court,4306,-27.6738938,152.7553580
8,Tey Court,4306,-27.6740284,152.7554088
10,Tey Court,4306,-27.6741361,152.7554422
12,Tey Court,4306,-27.6742641,152.7554831
14,Tey Court,4306,-27.6744258,152.7555351
7,Spey Close,4306,-27.6738499,152.7555892
9,Spey Close,4306,-27.6739862,152.7556350
11,Spey Close,4306,-27.6740905,152.7556661
13,Spey Close,4306,-27.6742223,152.7557104
15,Spey Close,4306,-27.6743881,152.7557815
2,Spey Close,4306,-27.6732028,152.7558614
4,Spey Close,4306,-27.6733626,152.7559136
6,Spey Close,4306,-27.6734985,152.7559635
8,Spey Close,4306,-27.6736585,152.7559999
10,Spey Close,4306,-27.6737826,152.7560453
12,Spey Close,4306,-27.6738929,152.7560941
14,Spey Close,4306,-27.6739967,152.7561105
16,Spey Close,4306,-27.6741194,152.7561579
18,Spey Close,4306,-27.6742508,152.7561894
1,Woodward Place,4306,-27.6752657,152.7550394
3,Woodward Place,4306,-27.6752743,152.7552348
5,Woodward Place,4306,-27.6752838,152.7554005
7,Woodward Place,4306,-27.6752947,152.7555421
9,Woodward Place,4306,-27.6753047,152.7556992
11,Woodward Place,4306,-27.6753240,152.7558322
13,Woodward Place,4306,-27.6753232,152.7559649
15,Woodward Place,4306,-27.6753135,152.7560842
17,Woodward Place,4306,-27.6753020,152.7562067
19,Woodward Place,4306,-27.6753205,152.7563368
21,Woodward Place,4306,-27.6753688,152.7564534
23,Woodward Place,4306,-27.6753630,152.7565920
13,Gloucester Drive,4306,-27.6864605,152.7572085
17,Gloucester Drive,4306,-27.6863541,152.7569094
35,Gloucester Drive,4306,-27.6862734,152.7550928
41,Gloucester Drive,4306,-27.6862059,152.7547550
3,Paradise Close,4306,-27.6852697,152.7548951
21,Paradise Close,4306,-27.6855998,152.7564948
27,Paradise Close,4306,-27.6856476,152.7570111
31,Paradise Close,4306,-27.6857660,152.7573919
43,Cypress Street,4305,-27.6576255,152.7345217
41,Cypress Street,4305,-27.6576777,152.7347039
39,Cypress Street,4305,-27.6577514,152.7348953
37,Cypress Street,4305,-27.6577984,152.7350975
35,Cypress Street,4305,-27.6578271,152.7352891
33,Cypress Street,4305,-27.6578590,152.7354943
31,Cypress Street,4305,-27.6578759,152.7356696
29,Cypress Street,4305,-27.6579051,152.7358311
27,Cypress Street,4305,-27.6579284,152.7359890
25,Cypress Street,4305,-27.6579519,152.7361535
21-23,Cypress Street,4305,-27.6580116,152.7364765
17-19,Cypress Street,4305,-27.6580266,152.7368191
13-15,Cypress Street,4305,-27.6581209,152.7372219
9-11,Cypress Street,4305,-27.6581829,152.7375593
7,Cypress Street,4305,-27.6581962,152.7378439
5,Cypress Street,4305,-27.6582447,152.7381705
1-3,Cypress Street,4305,-27.6583022,152.7385966
60,Aloe Street,4305,-27.6569841,152.7346769
48,Aloe Street,4305,-27.6567390,152.7346438
46,Aloe Street,4305,-27.6565016,152.7346424
44,Aloe Street,4305,-27.6565059,152.7348193
42,Aloe Street,4305,-27.6565268,152.7350302
40,Aloe Street,4305,-27.6567919,152.7350094
38,Aloe Street,4305,-27.6565462,152.7353356
36,Aloe Street,4305,-27.6566167,152.7355206
5,Daffodil Close,4305,-27.6568354,152.7354135
9,Daffodil Close,4305,-27.6572122,152.7352865
14,Daffodil Close,4305,-27.6575586,152.7355964
12,Daffodil Close,4305,-27.6575300,152.7358584
10,Daffodil Close,4305,-27.6573342,152.7359723
8,Daffodil Close,4305,-27.6571357,152.7359310
6,Daffodil Close,4305,-27.6569530,152.7359445
32,Aloe Street,4305,-27.6566957,152.7359330
30,Aloe Street,4305,-27.6567081,152.7361426
28,Aloe Street,4305,-27.6567406,152.7363519
5,Gerbera Place,4305,-27.6570153,152.7363055
7,Gerbera Place,4305,-27.6571945,152.7362760
9,Gerbera Place,4305,-27.6573610,152.7362015
11,Gerbera Place,4305,-27.6575797,152.7362012
12,Gerbera Place,4305,-27.6576952,152.7364925
10,Gerbera Place,4305,-27.6576356,152.7367109
8,Gerbera Place,4305,-27.6573993,152.7367547
6,Gerbera Place,4305,-27.6571811,152.7367647
4,Gerbera Place,4305,-27.6569983,152.7367974
2,Gerbera Place,4305,-27.6567846,152.7368365
24,Aloe Street,4305,-27.6567545,152.7370729
22,Aloe Street,4305,-27.6567294,152.7372829
20,Aloe Street,4305,-27.6566929,152.7374820
18,Aloe Street,4305,-27.6566571,152.7376807
16,Aloe Street,4305,-27.6566161,152.7378817
1,Silkwood Close,4305,-27.6568601,152.7379362
3,Silkwood Close,4305,-27.6568992,152.7377377
5,Silkwood Close,4305,-27.6569381,152.7375549
7,Silkwood Close,4305,-27.6569652,152.7373635
9,Silkwood Close,4305,-27.6570242,152.7371582
11,Silkwood Close,4305,-27.6571948,152.7370787
13,Silkwood Close,4305,-27.6574259,152.7370329
15,Silkwood Close,4305,-27.6576663,152.7369817
14,Silkwood Close,4305,-27.6577931,152.7372341
12,Silkwood Close,4305,-27.6577679,152.7374866
10,Silkwood Close,4305,-27.6575157,152.7375493
4,Silkwood Close,4305,-27.6573170,152.7375972
2,Silkwood Close,4305,-27.6573110,152.7378789
15,Raintree Court,4305,-27.6575370,152.7378275
17,Raintree Court,4305,-27.6577839,152.7377919
19,Raintree Court,4305,-27.6578776,152.7378575
20,Raintree Court,4305,-27.6579378,152.7381241
18,Raintree Court,4305,-27.6578527,152.7383123
16,Raintree Court,4305,-27.6576222,152.7383612
14,Raintree Court,4305,-27.6573739,152.7383663
12,Raintree Court,4305,-27.6572080,152.7383856
10,Raintree Court,4305,-27.6570361,152.7384030
8,Raintree Court,4305,-27.6568717,152.7384408
6,Raintree Court,4305,-27.6567153,152.7384263
4,Raintree Court,4305,-27.6565659,152.7384133
2,Raintree Court,4305,-27.6564001,152.7383963
12,Aloe Street,4305,-27.6562502,152.7383630
10,Aloe Street,4305,-27.6560775,152.7383099
6,Aloe Street,4305,-27.6558741,152.7382493
6,Aloe Street,4305,-27.6558497,152.7383961
4,Aloe Street,4305,-27.6558583,152.7386078
52,Jacaranda Drive,4305,-27.6558714,152.7388319
48,Jacaranda Drive,4305,-27.6560742,152.7388606
46A,Jacaranda Drive,4305,-27.6563590,152.7389260
46,Jacaranda Drive,4305,-27.6565061,152.7389448
44,Jacaranda Drive,4305,-27.6566640,152.7389591
42,Jacaranda Drive,4305,-27.6567744,152.7389086
77,Botany Drive,4306,-27.6960174,152.8144317
82,Cascade Street,4305,-27.6368109,152.7727901
19,Kains Avenue,4305,-27.5920557,152.7290646
217,School Road,4301,-27.6669435,152.8502949
18,Ashburn Road,4304,-27.5883558,152.8196054
13,Wildey Street,4305,-27.6306887,152.7836242
82,Grange Road,4305,-27.6272049,152.7784671
76,Grange Road,4305,-27.6270131,152.7784496
510,Warwick Road,4305,-27.6608979,152.7396918
26,Downs Street,4305,-27.6047606,152.7606172
244,Redbank Plains Road,4300,-27.6360853,152.8739370
242,Redbank Plains Road,4300,-27.6358990,152.8739619
59,Hanlon Street,4304,-27.5909904,152.7971008
36,Keith Street,4304,-27.5896449,152.7939071
24,Hart Street,4304,-27.5884664,152.7955105
20,Keith Street,4304,-27.5876275,152.7941909
35,Keith Street,4304,-27.5865893,152.7923136
27,Cornish Street,4304,-27.5862007,152.7948877
15,Cornish Street,4304,-27.5871665,152.7968024
2,White Street,4304,-27.5872148,152.7989316
3,White Street,4304,-27.5876966,152.8015168
11,White Street,4304,-27.5862101,152.8017911
18,White Street,4304,-27.5840460,152.7994125
30,Kirk Street,4304,-27.5986772,152.7967596
34,Kirk Street,4304,-27.5980814,152.7966944
35,Kirk Street,4304,-27.5968123,152.7970699
35,Lamont Street,4304,-27.5927169,152.7950093
5,Hart Street,4304,-27.5905395,152.7971716
138,Old Ipswich Road,4303,-27.6030387,152.8484533
74,Brisbane Road,4305,-27.6000566,152.8272040
9,Ernest Street,4305,-27.6257450,152.7432884
9,Ernest Street,4305,-27.6258515,152.7425792
1,Samford Road,4305,-27.6251600,152.7372429
12,Coal Street,4304,-27.6087321,152.8071413
1,Tournament Drive,4300,-27.6599157,152.8970233
33B,Robertson Road,4305,-27.6285080,152.7751477
114,Brisbane Street,4305,-27.6147559,152.7594273
87,Brisbane Street,4305,-27.6143986,152.7612744
123,Toongarra Road,4305,-27.6145968,152.7230191
2,Enterprise Street,4305,-27.6180488,152.7243914
