House number,Street name,Postal code,Latitude,Longitude
9,Олимпийская улица,625051,57.1124745,65.5876654
11,Институтская улица,625041,57.1636031,65.4405458
72,улица Мельникайте,625027,57.1454089,65.5805852
46,улица Орджоникидзе,625000,57.1535940,65.5473843
63,Советская улица,625000,57.1540095,65.5499624
18; 20,улица Республики,625003,57.1588305,65.5286344
54,улица Мельникайте,625048,57.1487264,65.5875225
78А,улица Пермякова,625016,57.1097773,65.5665871
71/1,улица Пермякова,625051,57.1097712,65.5710067
2 с3,5 км Старый Тобольский тракт,625047,57.1043917,65.7445836
55,Советская улица,625000,57.1545926,65.5473265
90,Червишевский тракт,625032,57.1216187,65.5190617
84,Холодильная улица,625048,57.1455719,65.5685163
17А,Янтарная улица,625000,57.0980054,65.6028018
31,улица Красных Зорь,625048,57.1416897,65.5490601
63/1,улица 50 лет ВЛКСМ,625062,57.1325050,65.5634989
155/3,улица Республики,625000,57.1371375,65.5719723
36,Водопроводная улица,625000,57.1548844,65.5420179
36,Водопроводная улица,625000,57.1549281,65.5420918
1 к1,Профсоюзная улица,625048,57.1601186,65.5695543
19,Алебашевская улица,625022,57.1700460,65.5679330
13,улица Будённого,625047,57.1076093,65.7289259
199,Широтная улица,625053,57.0955885,65.6250316
20,улица Энергостроителей,625053,57.1012345,65.6249762
9/4,Фабричная улица,625048,57.1453775,65.5629710
9/2,Фабричная улица,625048,57.1456036,65.5625850
223,улица Щербакова,625059,57.2013219,65.6011250
62/1,улица Пермякова,625051,57.1150266,65.5733981
13,улица Грибоедова,625000,57.1485620,65.5341670
180,улица 50 лет Октября,625013,57.1288930,65.6119766
49,улица Федюнинского,625000,57.1087664,65.5542756
1А,улица Дмитрия Менделеева,625062,57.1179092,65.5488276
94,улица Герцена,625048,57.1458298,65.5413316
24,Водопроводная улица,625000,57.1568049,65.5440169
24/4,улица Республики,625003,57.1580753,65.5297619
8,улица Прокопия Артамонова,625051,57.1055740,65.5741100
47,улица Хохрякова,625003,57.1556853,65.5423199
1,улица 8 Марта,625000,57.1543365,65.5464947
1,улица 8 Марта,625000,57.1540178,65.5459214
5 к2,улица Свердлова,625002,57.1581659,65.5530753
211,улица Республики,625046,57.0999250,65.5901644
4А к1,Таллинская улица,625053,57.0993915,65.6390847
42,улица Республики,625000,57.1552188,65.5358570
52,улица Орджоникидзе,625000,57.1521424,65.5456366
6,улица Володарского,625003,57.1594359,65.5311269
17/2,Широтная улица,625007,57.1210779,65.5547750
40/1,улица Республики,625000,57.1556338,65.5348925
94,улица Герцена,625048,57.1462700,65.5422102
61,улица Республики,625000,57.1492439,65.5489313
55/1,улица Котовского,625023,57.1410554,65.5821497
87Г,улица 30 лет Победы,625051,57.1205497,65.5883535
64,улица Федюнинского,625000,57.0987810,65.5699213
64,улица Федюнинского,625000,57.0988415,65.5707675
1А,улица 50 лет Октября,625048,57.1538790,65.5663460
74,улица Максима Горького,625048,57.1469013,65.5580551
74,улица Максима Горького,625048,57.1469637,65.5578495
59/1,улица Максима Горького,625048,57.1468791,65.5591048
59/1,улица Максима Горького,625048,57.1468624,65.5590586
164/1,улица 9 Января,625030,57.1292086,65.5014482
164/1,улица 9 Января,625030,57.1291762,65.5019319
164/2,улица 9 Января,625030,57.1292490,65.5012874
164,улица 9 Января,625030,57.1291098,65.5022918
162,улица 9 Января,625030,57.1292362,65.5026032
59/3,улица Максима Горького,625048,57.1461478,65.5584483
6,Фабричная улица,625048,57.1465561,65.5600546
6,Фабричная улица,625048,57.1467302,65.5596015
164,улица 9 Января,625030,57.1291086,65.5024986
164,улица 9 Января,625030,57.1290798,65.5025123
164,улица 9 Января,625030,57.1289896,65.5025579
6,Фабричная улица,625048,57.1465172,65.5601072
1,Фабричная улица,625048,57.1473388,65.5600348
1,Фабричная улица,625048,57.1472281,65.5598287
1,Фабричная улица,625048,57.1471658,65.5597470
1А,улица 50 лет Октября,625006,57.1542088,65.5668918
141 ст1,улица Мельникайте,625062,57.1152750,65.5416500
17,улица Василия Подшибякина,625063,57.1176160,65.4992313
127,Депутатская улица,625007,57.1230202,65.5467377
1,улица Пограничников,625043,57.2089665,65.5473713
126 к2,улица Мельникайте,652007,57.1259475,65.5523867
127,улица Мельникайте,625007,57.1219029,65.5502893
137,улица Мельникайте,625007,57.1213345,65.5493827
137,улица Мельникайте,625007,57.1213875,65.5494491
137,улица Мельникайте,625007,57.1214834,65.5496582
137,улица Мельникайте,625007,57.1215949,65.5508360
137,улица Мельникайте,625007,57.1211089,65.5497789
137,улица Мельникайте,625007,57.1210480,65.5504074
137,улица Мельникайте,625007,57.1210075,65.5503400
137,улица Мельникайте,625007,57.1216813,65.5499204
137,улица Мельникайте,625007,57.1211390,65.5496780
50Б,улица Пермякова,625016,57.1182082,65.5776522
84,Холодильная улица,625048,57.1453690,65.5681240
84,Холодильная улица,625048,57.1451962,65.5674659
84,Холодильная улица,625048,57.1457851,65.5688970
84,Холодильная улица,625048,57.1460299,65.5690880
84,Холодильная улица,625048,57.1454957,65.5683331
84,Холодильная улица,625048,57.1452692,65.5679296
84,Холодильная улица,625048,57.1456801,65.5686091
84,Холодильная улица,625048,57.1453268,65.5680499
1/2,улица Котовского,625048,57.1472907,65.5693275
26,улица Ленина,625003,57.1575748,65.5272097
9,улица Моторостроителей,625028,57.1036608,65.6027810
9/1a,улица Моторостроителей,625028,57.1042387,65.6034094
9,улица Моторостроителей,625028,57.1041181,65.6032997
14/1,улица Моторостроителей,625046,57.1048342,65.6028164
14,улица Моторостроителей,625046,57.1045242,65.6023143
14,улица Моторостроителей,625046,57.1043028,65.6018208
7,улица Моторостроителей,625028,57.1049694,65.6043614
7,улица Моторостроителей,625028,57.1053050,65.6048077
5,улица Моторостроителей,625028,57.1056173,65.6052970
5,улица Моторостроителей,625028,57.1062971,65.6058720
5,улица Моторостроителей,625028,57.1064789,65.6065372
4А,улица Моторостроителей,625046,57.1071281,65.6078339
4А,улица Моторостроителей,625046,57.1071663,65.6082306
4А,улица Моторостроителей,625046,57.1072502,65.6092682
4А,улица Моторостроителей,625046,57.1075554,65.6097946
2 к2,улица Моторостроителей,625046,57.1089205,65.6107443
198,Трактовая улица,625059,57.2117686,65.6219092
190,Трактовая улица,625059,57.2120170,65.6207049
165,Полевая улица,625059,57.2119110,65.6203267
171,Полевая улица,625059,57.2117149,65.6212172
86А,Ямская улица,625001,57.1612473,65.4933916
7,Тульская улица,625035,57.1309210,65.5768404
48,Первомайская улица,625000,57.1501814,65.5279744
38А,Первомайская улица,625000,57.1511011,65.5299013
25,улица Республики,625000,57.1564777,65.5341888
25,улица Республики,625000,57.1565582,65.5340370
25,улица Республики,625000,57.1565917,65.5342273
14,улица 50 лет Октября,625048,57.1520113,65.5660560
109,улица Демьяна Бедного,625007,57.1276019,65.5491016
109,улица Демьяна Бедного,625007,57.1276678,65.5496456
109,улица Демьяна Бедного,625007,57.1276291,65.5489720
64,Инженерная улица,625007,57.1273494,65.5506738
84/1,улица Свободы,625001,57.1652556,65.4988167
84/1,улица Свободы,625001,57.1651012,65.4984589
84/1,улица Свободы,625001,57.1650175,65.4982150
84/1,улица Свободы,625001,57.1648632,65.4977962
1,улица Свердлова,625002,57.1600953,65.5526689
6,улица Станислава Карнацевича,625051,57.1046267,65.5728165
4,улица Станислава Карнацевича,625051,57.1038171,65.5718024
9,улица Прокопия Артамонова,625051,57.1070548,65.5734082
12,улица Станислава Карнацевича,625051,57.1072637,65.5758677
12,улица Станислава Карнацевича,625051,57.1071978,65.5756599
12,улица Фармана Салманова,625049,57.1182470,65.4907922
12,улица Фармана Салманова,625079,57.1181818,65.4905265
21,улица Василия Подшибякина,625063,57.1151284,65.4976958
1,улица Бахарева,625062,57.1123234,65.5340497
1,улица Бахарева,625062,57.1120080,65.5339461
1,улица Бахарева,625062,57.1119447,65.5338579
45 к6,улица Червишевский тракт,625062,57.1142649,65.5262737
10Б,улица Федюнинского,625062,57.1146197,65.5243117
5,улица Бахарева,625062,57.1132061,65.5311272
92,Червишевский тракт,625032,57.1214971,65.5179901
78,Червишевский тракт,625032,57.1243451,65.5206577
12,улица Федюнинского,625062,57.1141040,65.5350715
150,улица Мельникайте,625062,57.1152420,65.5386993
144А,улица Мельникайте,625062,57.1152916,65.5390320
144А,улица Мельникайте,625062,57.1153259,65.5390701
144А,улица Мельникайте,625062,57.1154022,65.5391769
144А,улица Мельникайте,625062,57.1154900,65.5392914
144А,улица Мельникайте,625062,57.1155701,65.5393677
144,улица Мельникайте,625062,57.1157262,65.5395488
144,улица Мельникайте,625062,57.1157963,65.5396684
144,улица Мельникайте,625062,57.1159128,65.5396240
142а к1,улица Мельникайте,625062,57.1160971,65.5400652
142,улица Мельникайте,625062,57.1164079,65.5395630
4,улица Александра Протозанова,625063,57.1206913,65.5062961
4,улица Александра Протозанова,625063,57.1207766,65.5063623
4,улица Александра Протозанова,625063,57.1208724,65.5064422
4,улица Александра Протозанова,625063,57.1209413,65.5064946
4,улица Александра Протозанова,625063,57.1210215,65.5064815
26 к2,улица Фармана Салманова,625063,57.1216121,65.5054173
26 к2,улица Фармана Салманова,625063,57.1216360,65.5053394
26,улица Фармана Салманова,625063,57.1216853,65.5037972
26,улица Фармана Салманова,625063,57.1215026,65.5035570
12,улица Фармана Салманова,625063,57.1179814,65.4898133
12,улица Фармана Салманова,625063,57.1180588,65.4900934
12,улица Фармана Салманова,625063,57.1183340,65.4912254
12,улица Фармана Салманова,625063,57.1177052,65.4916879
12,улица Фармана Салманова,625063,57.1176686,65.4915325
10,улица Фармана Салманова,625063,57.1175842,65.4886315
10,улица Фармана Салманова,625063,57.1176417,65.4882686
10,улица Фармана Салманова,625063,57.1175406,65.4882718
12,улица Василия Подшибякина,625063,57.1173290,65.4977181
15,улица Василия Подшибякина,625063,57.1182727,65.4997061
15,улица Василия Подшибякина,625063,57.1185523,65.4998885
15,улица Василия Подшибякина,625063,57.1183407,65.4997409
15,улица Василия Подшибякина,625063,57.1181678,65.4996473
15,улица Василия Подшибякина,625063,57.1184345,65.4998039
17,улица Василия Подшибякина,625063,57.1178748,65.4994206
17,улица Василия Подшибякина,625063,57.1178269,65.4993792
17,улица Василия Подшибякина,625063,57.1177781,65.4993469
12,улица Василия Подшибякина,625063,57.1172012,65.4976847
12,улица Василия Подшибякина,625063,57.1171251,65.4975427
12,улица Василия Подшибякина,625063,57.1170147,65.4975183
12,улица Василия Подшибякина,625063,57.1168419,65.4974900
12,улица Василия Подшибякина,625063,57.1169032,65.4975126
12,улица Василия Подшибякина,625063,57.1172529,65.4977064
12,улица Василия Подшибякина,625063,57.1167670,65.4973590
12,улица Василия Подшибякина,625063,57.1165670,65.4973369
10,улица Фармана Салманова,625063,57.1177019,65.4885294
10,улица Фармана Салманова,625063,57.1176397,65.4885827
10,улица Фармана Салманова,625063,57.1176407,65.4882511
70,улица Максима Горького,625048,57.1484929,65.5598252
14,улица 50 лет Октября,625048,57.1519974,65.5657982
1А,улица Дмитрия Менделеева,625062,57.1172251,65.5501619
50Б,улица Пермякова,625016,57.1186822,65.5777986
11,Заполярная улица,625063,57.1154126,65.4965142
39,улица Тимофея Чаркова,625055,57.1863303,65.6289682
6,Газопромысловая улица,625059,57.1856461,65.6216147
9,Заполярная улица,625063,57.1157549,65.4952507
9,Заполярная улица,625063,57.1158177,65.4952489
9,Заполярная улица,625063,57.1159473,65.4952735
9,Заполярная улица,625063,57.1159854,65.4953191
9,Заполярная улица,625063,57.1160340,65.4954157
9,Заполярная улица,625063,57.1161255,65.4954174
9,Заполярная улица,625063,57.1162684,65.4954560
9Б,Заполярная улица,625063,57.1165908,65.4957059
11,Заполярная улица,625063,57.1156087,65.4966497
11,Заполярная улица,625063,57.1155458,65.4966111
11,Заполярная улица,625063,57.1154538,65.4965393
11,Заполярная улица,625063,57.1153498,65.4964766
9/13,Заполярная улица,625063,57.1154372,65.4960634
21,улица Василия Подшибякина,625063,57.1149966,65.4977005
21,улица Василия Подшибякина,625063,57.1151865,65.4977123
11,Заполярная улица,625063,57.1155059,65.4965876
21,улица Василия Подшибякина,625063,57.1153529,65.4978632
21,улица Василия Подшибякина,625063,57.1154203,65.4978763
21,улица Василия Подшибякина,625063,57.1154809,65.4978862
14,улица Фармана Салманова,625063,57.1185269,65.4949896
14,улица Фармана Салманова,625063,57.1185582,65.4951146
16,улица Фармана Салманова,625063,57.1191860,65.4973773
8,Вьюжная улица,625063,57.1192017,65.5002881
8,Вьюжная улица,625063,57.1190969,65.5002276
8,Вьюжная улица,625063,57.1189416,65.5001311
8,Вьюжная улица,625063,57.1187800,65.5000281
17,улица Василия Подшибякина,625063,57.1174909,65.4991469
16к1,улица Александра Протозанова,625063,57.1164956,65.5014138
16 к2,улица Александра Протозанова,625063,57.1159132,65.5010410
18,улица Александра Протозанова,625063,57.1151238,65.5018644
18,улица Александра Протозанова,625063,57.1149142,65.5018022
20,улица Александра Протозанова,625063,57.1146442,65.5015310
18 к1,улица Александра Протозанова,625063,57.1146248,65.5000016
1,Обдорская улица,625063,57.1257985,65.4892125
1,Обдорская улица,625063,57.1250346,65.4887360
1 к2,Обдорская улица,625063,57.1256445,65.4899599
1 к2,Обдорская улица,625063,57.1256641,65.4898624
1 к1,Обдорская улица,625063,57.1255346,65.4905784
1 к1,Обдорская улица,625063,57.1255134,65.4906921
1 к1,Обдорская улица,625063,57.1247887,65.4900380
1,Обдорская улица,625063,57.1257832,65.4892975
1 к1,Обдорская улица,625063,57.1247589,65.4901752
2,улица Андрея Бушуева,625063,57.1252501,65.4919926
2,улица Андрея Бушуева,625063,57.1252228,65.4921381
2 к1,улица Андрея Бушуева,625063,57.1254000,65.4911308
26 к3,улица Фармана Салманова,625063,57.1224402,65.5042768
26 к1,улица Фармана Салманова,625063,57.1214382,65.5035003
26 к1,улица Фармана Салманова,625063,57.1213843,65.5034527
6,улица Александра Протозанова,625063,57.1202843,65.5056770
6,улица Александра Протозанова,625063,57.1202273,65.5059378
6,улица Александра Протозанова,625063,57.1200034,65.5058084
6,улица Александра Протозанова,625063,57.1199211,65.5057559
8,улица Александра Протозанова,625063,57.1194467,65.5054400
8,улица Александра Протозанова,625063,57.1193433,65.5053836
8,улица Александра Протозанова,625063,57.1191613,65.5050132
8 к1,улица Александра Протозанова,625063,57.1193325,65.5040703
8,улица Александра Протозанова,625063,57.1194244,65.5050638
8 к1,улица Александра Протозанова,625063,57.1195556,65.5043527
8 к1,улица Александра Протозанова,625063,57.1195808,65.5042334
15,Вьюжная улица,625063,57.1195933,65.5034376
15,Вьюжная улица,625063,57.1195175,65.5031526
15,Вьюжная улица,625063,57.1195033,65.5032476
15,Вьюжная улица,625063,57.1196107,65.5027024
13,Вьюжная улица,625063,57.1196360,65.5025510
13,Вьюжная улица,625063,57.1196664,65.5023764
13,Вьюжная улица,625063,57.1196970,65.5022170
13,Вьюжная улица,625063,57.1197324,65.5020353
13,Вьюжная улица,625063,57.1197754,65.5017932
13,Вьюжная улица,625063,57.1200293,65.5014218
13,Вьюжная улица,625063,57.1200772,65.5014797
22,улица Фармана Салманова,625063,57.1204015,65.5009522
22,улица Фармана Салманова,625063,57.1205165,65.5008530
24,улица Фармана Салманова,625063,57.1207821,65.5017241
24,улица Фармана Салманова,625063,57.1208348,65.5020212
24,улица Фармана Салманова,625063,57.1206658,65.5021668
24,улица Фармана Салманова,625063,57.1205692,65.5018838
10,Вьюжная улица,625063,57.1191785,65.5010846
10,Вьюжная улица,625063,57.1191338,65.5013777
10 к1,улица Александра Протозанова,625063,57.1188910,65.5026969
10 к1,улица Александра Протозанова,625063,57.1188607,65.5028878
10 к1,улица Александра Протозанова,625063,57.1187127,65.5026503
10 к2,улица Александра Протозанова,625063,57.1182239,65.5025263
12 к1,улица Александра Протозанова,625063,57.1178352,65.5020152
1,Ледниковый проезд,625063,57.1172349,65.5006890
1,Ледниковый проезд,625063,57.1172685,65.5005397
1,Ледниковый проезд,625063,57.1173078,65.5003388
1,Ледниковый проезд,625063,57.1173613,65.5000496
12 к1,улица Александра Протозанова,625063,57.1178108,65.5017412
17 к1,улица Василия Подшибякина,625063,57.1179520,65.5009989
17 к1,улица Василия Подшибякина,625063,57.1180569,65.5004912
30,2-я Луговая улица,625005,57.1717490,65.5399916
112Б,Широтная улица,625046,57.1070132,65.5894762
60,улица Тимофея Чаркова,625015,57.1756275,65.6560066
67,улица Федюнинского,625051,57.1029673,65.5700621
20с5,улица Федюнинского,625062,57.1112274,65.5425757
23,улица Пермякова,625016,57.1183445,65.5800107
84/3б,улица Мельникайте,625006,57.1414105,65.5745636
д.12 корп.9,улица Валерии Гнаровской,625007,57.1235423,65.5651840
10,Центральная улица,625059,57.2119473,65.6161907
43,Комсомольская улица,625002,57.1585324,65.5488912
68,Народная улица,625028,57.0988417,65.6078464
47,улица Александра Сазонова,625043,57.2161085,65.5692440
141,улица Республики,625048,57.1412506,65.5642806
138,улица 30 лет Победы,625028,57.1097137,65.6083253
135,улица Мельникайте,625007,57.1225670,65.5517916
3,улица 8 Марта,625000,57.1527231,65.5437046
38,улица Володарского,625000,57.1523847,65.5445288
52,улица Орджоникидзе,625000,57.1521294,65.5453482
54,улица Орджоникидзе,625000,57.1517351,65.5447445
47,улица Республики,625000,57.1520694,65.5432128
59,улица Володарского,625000,57.1507656,65.5501970
49,улица Орджоникидзе,625000,57.1521034,65.5474004
53,улица Володарского,625000,57.1515728,65.5476158
92,улица Республики,625048,57.1436472,65.5568964
5,улица Малыгина,625048,57.1447419,65.5477997
22,улица Шиллера,625048,57.1439284,65.5498380
44/2,улица Мельникайте,625048,57.1513316,65.5921390
11,улица Воровского,625019,57.1229514,65.6100109
17,улица Воровского,625019,57.1228970,65.6123132
28А,проезд Геологоразведчиков,625035,57.1291461,65.5784342
79 к1,улица Ватутина,625031,57.1876477,65.5888308
83,улица Мельникайте,625027,57.1433370,65.5816761
79 к1,улица Ватутина,625031,57.1878457,65.5886250
79 к1,улица Ватутина,625031,57.1883834,65.5885310
79 к1,улица Ватутина,625031,57.1880416,65.5884024
51,улица Луначарского,625001,57.1629073,65.5051320
24,улица Василия Гольцова,625051,57.1102695,65.5757607
10,улица Василия Гольцова,625051,57.1099846,65.5730143
12,улица Станислава Карнацевича,625051,57.1069417,65.5762519
16,улица Евгения Богдановича,625051,57.1063321,65.5779433
1,улица Республики,625003,57.1614529,65.5246217
46,улица Челюскинцев,625000,57.1553644,65.5305415
19,улица Красина,625003,57.1583074,65.5242125
13,улица Восстания,625025,57.1493154,65.4903350
62,Барнаульская улица,625041,57.1687955,65.4580883
29,улица Радищева,625048,57.1419023,65.5449699
127А,улица Мельникайте,625007,57.1245249,65.5571595
125,улица Мельникайте,625007,57.1267037,65.5564530
14,улица 30 лет Победы,625007,57.1271472,65.5630981
125,улица Николая Чаплина,625007,57.1224565,65.5433169
124А/1,улица Мельникайте,625007,57.1232360,65.5478380
26,улица Малышева,625029,57.1808158,65.6144799
14/3,улица Малыгина,625048,57.1421478,65.5496960
14,улица Малыгина,625048,57.1427427,65.5495319
14/2,улица Малыгина,625048,57.1424431,65.5486854
31,улица Красных Зорь,625048,57.1418882,65.5486437
47,улица Шиллера,625048,57.1421530,65.5473954
14/1,улица Малыгина,625048,57.1424069,65.5501220
94,Червишевский тракт,625032,57.1217546,65.5161145
32,Минская улица,625048,57.1510517,65.5828992
5А,Минская улица,625048,57.1526875,65.5883175
3А,Минская улица,625048,57.1522250,65.5874058
3,Минская улица,625048,57.1523526,65.5866350
3Б,Минская улица,625048,57.1518988,65.5856746
25,улица Ленина,625003,57.1581675,65.5271453
15,улица Циолковского,625002,57.1577191,65.5633679
15А,улица Циолковского,625002,57.1576635,65.5646658
9,Загородная улица,625002,57.1580851,65.5640106
9А,Загородная улица,625002,57.1584951,65.5634460
22,улица Циолковского,625002,57.1575372,65.5615595
41,улица Осипенко,625002,57.1587598,65.5544471
14,улица Свердлова,625002,57.1573992,65.5496235
131,Московский тракт,625049,57.1324661,65.4966546
22,Станционная улица,625053,57.0975272,65.6436566
4 к2,"Старый Тобольский тракт, 2-й километр",625014,57.1009245,65.6882983
72,улица Максима Горького,625048,57.1472168,65.5585767
72,улица Максима Горького,625048,57.1474938,65.5582049
53/1,улица Володарского,625000,57.1510763,65.5486866
44/4,улица Максима Горького,625048,57.1515885,65.5655116
7,Минская улица,625048,57.1510329,65.5841863
65,Харьковская улица,625048,57.1475064,65.5885312
75,улица Мельникайте,625000,57.1458466,65.5861055
41,улица 50 лет Октября,625048,57.1481457,65.5795273
57,Харьковская улица,625048,57.1500528,65.5831096
71,улица Мельникайте,625048,57.1477737,65.5878636
57/3,Харьковская улица,625048,57.1496200,65.5839308
59/2,Харьковская улица,625048,57.1496238,65.5857722
59А,Харьковская улица,625048,57.1492214,65.5847876
59,Харьковская улица,625048,57.1487434,65.5856198
9,Минская улица,625048,57.1504485,65.5835519
9Б,Минская улица,625048,57.1507062,65.5840450
54,улица Мельникайте,625048,57.1489071,65.5878084
5,Минская улица,625048,57.1515692,65.5852367
213,улица 50 лет Октября,625014,57.1189694,65.6328082
36 с4,улица Чекистов,625014,57.1151639,65.6556336
14 к2,улица Эрвье,625022,57.1761674,65.5665367
76А,улица Елизарова,625048,57.1493860,65.5710962
41,улица Федюнинского,625000,57.1131313,65.5427381
141,улица Мельникайте,625062,57.1142723,65.5437611
204 к1,улица Республики,625035,57.1225613,65.5920091
2,Камчатская улица,625034,57.1582413,65.6572906
19,улица Константина Заслонова,625034,57.1578607,65.6568268
1,Камчатская улица,625034,57.1596176,65.6567814
4,Северная улица,625006,57.1562258,65.5661330
3А,улица 50 лет Октября,625006,57.1543463,65.5658074
16,Судоремонтная улица,625015,57.1741152,65.6404342
14,Судоремонтная улица,625015,57.1737205,65.6404994
34,улица Володарского,625000,57.1550475,65.5398220
209,улица Республики,625019,57.1239358,65.6034126
1 с3,улица 50 лет Октября,625006,57.1556671,65.5684430
1,проезд Стахановцев,625046,57.1052620,65.6129058
20/1,улица Газовиков,625022,57.1753601,65.5521203
4,улица Мира,625008,57.1421813,65.5227311
6,улица 70 лет Октября,625059,57.2074769,65.6067672
4,улица 70 лет Октября,625059,57.2078626,65.6068632
2,улица 70 лет Октября,625059,57.2083293,65.6068618
3А,улица Мелиораторов,625059,57.2080169,65.6060521
2А,улица 70 лет Октября,625059,57.2083386,65.6060853
6А,улица 70 лет Октября,625059,57.2074901,65.6056672
19,улица Федюнинского,625062,57.1166100,65.5318270
13,Ставропольская улица,625062,57.1240972,65.5217011
7/1,улица Федюнинского,625062,57.1198849,65.5260028
13,Ставропольская улица,625062,57.1243291,65.5224941
51,улица Малыгина,625048,57.1424741,65.5523123
51,улица Малыгина,625048,57.1421548,65.5526360
49 к2 c1,улица Малыгина,625048,57.1434269,65.5507860
79,улица Мельникайте,625027,57.1437048,65.5827248
14,Волгоградская улица,625008,57.1428837,65.5255658
2,Ленинградская улица,625008,57.1426663,65.5219988
6,улица Мира,625008,57.1424975,65.5210365
6А,улица Мира,625008,57.1426328,65.5205178
4,Магнитогорская улица,625049,57.1368104,65.5004631
4,Магнитогорская улица,625049,57.1364038,65.5003738
49,Комсомольская улица,625002,57.1584418,65.5509746
47,улица Хохрякова,625003,57.1556267,65.5423555
38,улица Шиллера,625048,57.1426272,65.5469947
51,улица Малыгина,625048,57.1426724,65.5517345
14,Московский тракт,625008,57.1416425,65.5286064
57/2,Харьковская улица,625048,57.1500972,65.5847448
6А,Малозагородная улица,625006,57.1576806,65.5688123
11,Минская улица,625048,57.1503427,65.5828511
7/1,улица Циолковского,625002,57.1601611,65.5602205
7,Загородная улица,625002,57.1587172,65.5623729
7,Комсомольская улица,625002,57.1592616,65.5425360
27,улица Николая Семёнова,625033,57.1088302,65.5571425
25/1,улица Николая Семёнова,625000,57.1103262,65.5567146
2,улица Домостроителей,625034,57.1514184,65.6445183
2,улица Домостроителей,625034,57.1506348,65.6435836
16,улица Домостроителей,625034,57.1515098,65.6482359
32,улица Домостроителей,625034,57.1524847,65.6528567
26 к2,улица Домостроителей,625034,57.1489649,65.6478079
10,улица Домостроителей,625034,57.1533814,65.6462791
16,улица Домостроителей,625034,57.1512130,65.6473636
12А,улица Домостроителей,625034,57.1521419,65.6467476
4А,улица Домостроителей,625034,57.1524880,65.6409230
22,улица Домостроителей,625034,57.1537979,65.6509756
4,улица Домостроителей,625034,57.1522155,65.6442224
20,улица Домостроителей,625034,57.1534829,65.6515000
4А,улица Домостроителей,625034,57.1521824,65.6408662
6Б,улица Домостроителей,625034,57.1525931,65.6416947
24,улица Домостроителей,625034,57.1512782,65.6457340
2А,улица Домостроителей,625034,57.1497202,65.6449937
12,улица Домостроителей,625034,57.1528043,65.6478611
16 к3,улица Домостроителей,625034,57.1492307,65.6486358
4А,улица Домостроителей,625034,57.1521245,65.6399925
6В,улица Домостроителей,625034,57.1530891,65.6385818
8,улица Домостроителей,625034,57.1530957,65.6445104
12А,улица Домостроителей,625034,57.1525040,65.6476789
18,улица Домостроителей,625034,57.1535209,65.6489591
14,улица Домостроителей,625034,57.1528325,65.6500074
16 к2,улица Домостроителей,625034,57.1501892,65.6483545
10,улица Домостроителей,625034,57.1527739,65.6459310
2,улица Домостроителей,625034,57.1506056,65.6441469
16 к4,улица Домостроителей,625034,57.1490108,65.6486073
2,улица Домостроителей,625034,57.1516690,65.6440584
6,улица Домостроителей,625034,57.1526405,65.6393688
18,улица Домостроителей,625034,57.1538718,65.6482722
2,улица Домостроителей,625034,57.1516088,65.6435317
8,улица Домостроителей,625034,57.1525622,65.6425223
26 к1,улица Домостроителей,625034,57.1491410,65.6470951
10 с2,улица Домостроителей,625034,57.1534994,65.6472129
16 к3,улица Домостроителей,625034,57.1496699,65.6488474
8/1,улица Домостроителей,625034,57.1531332,65.6437310
4,улица Домостроителей,625034,57.1521576,65.6433487
2,улица Домостроителей,625034,57.1511118,65.6434664
6 с1,улица Домостроителей,625034,57.1529730,65.6397398
8,улица Домостроителей,625034,57.1526852,65.6448654
22/2,улица Домостроителей,625034,57.1543522,65.6506766
12А,улица Домостроителей,625034,57.1521984,65.6476224
8,улица Домостроителей,625034,57.1529704,65.6428592
6А,улица Домостроителей,625034,57.1529280,65.6408418
4,улица Домостроителей,625034,57.1525210,65.6442790
14,улица Домостроителей,625034,57.1533360,65.6497419
18В,улица Домостроителей,625034,57.1541589,65.6473031
18,улица Домостроителей,625034,57.1537345,65.6475988
14,улица Домостроителей,625034,57.1523331,65.6493305
171,Камчатская улица,625034,57.1572810,65.6618121
106,Камчатская улица,625034,57.1528137,65.6616569
83,улица Константина Заслонова,625034,57.1567634,65.6561353
82,улица Константина Заслонова,625034,57.1566718,65.6565530
127,улица 30 лет Победы,625046,57.1106232,65.6125988
50,Орловская улица,625003,57.1522885,65.5246266
25,Судоремонтная улица,625015,57.1784338,65.6398512
34Б,улица Ветеранов Труда,625029,57.1857581,65.5958371
1Г к1,улица Мелиораторов,625059,57.2093332,65.6057897
158,проезд Воронинские Горки,625056,57.1835884,65.4725370
9/1,улица Казачьи Луга,625034,57.1516116,65.6505128
3 к2,улица Казачьи Луга,625034,57.1513289,65.6527139
12 к3,Западносибирская улица,625034,57.1485912,65.6533321
4 к1,улица Казачьи Луга,625034,57.1494216,65.6520745
3,улица Казачьи Луга,625034,57.1506928,65.6529283
5,Вересковая улица,625034,57.1491980,65.6497663
11,улица Казачьи Луга,625034,57.1508275,65.6487913
9,улица Казачьи Луга,625034,57.1509561,65.6498895
38,улица Домостроителей,625034,57.1507448,65.6513728
16А,улица Домостроителей,625034,57.1513192,65.6489837
34,улица Домостроителей,625034,57.1513764,65.6518096
70,улица Бабарынка,625000,57.1866894,65.4604318
21А,Изумрудная улица,625000,57.1081137,65.7299700
19,"Старый Тобольский тракт, 7-й километр",625000,57.1037155,65.7758845
83 стр. 3,Закалужская улица,625018,57.1273239,65.4939337
86,Калужская улица,625018,57.1268951,65.4963468
83,Закалужская улица,625018,57.1272565,65.4945860
14,улица Гилёвская Роща,625019,57.1268447,65.6199592
81А/1,улица 30 лет Победы,625051,57.1194557,65.5853702
255 к1,улица Республики,625014,57.1145005,65.6366490
1,Северная улица,625006,57.1569920,65.5688905
5,Минская улица,625048,57.1513723,65.5847881
10,Западносибирская улица,625034,57.1512039,65.6536678
27Б,Набережная улица,625001,57.1819362,65.5235052
27А,Набережная улица,625001,57.1821020,65.5233009
25,Набережная улица,625001,57.1817360,65.5231900
27,Набережная улица,625001,57.1818387,65.5234195
85,улица Малыгина,625026,57.1361707,65.5625206
50,Производственная улица,625061,57.1485755,65.3923760
50/1,Производственная улица,625061,57.1480674,65.3927102
10 к3,улица Сергея Ильюшина,625017,57.1814850,65.3487188
10 к1,улица Сергея Ильюшина,625017,57.1814092,65.3476008
10 к5,улица Сергея Ильюшина,625017,57.1817832,65.3481133
10 к4,улица Сергея Ильюшина,625017,57.1811647,65.3492902
15А,улица Циолковского,625002,57.1575165,65.5646976
15,улица Циолковского,625002,57.1571953,65.5641747
15 к1,Вересковая улица,625034,57.1474750,65.6498545
34/1,улица Шиллера,625048,57.1431905,65.5485227
27,улица Радищева,625048,57.1421270,65.5433138
16 к1,улица Домостроителей,625034,57.1501360,65.6487454
5,Ленская улица,625000,57.1447158,65.5318435
1,улица Осипенко,625002,57.1603388,65.5437750
36,улица Домостроителей,625034,57.1516833,65.6534088
12 к2,Западносибирская улица,625034,57.1490879,65.6533357
7,Вересковая улица,625034,57.1488868,65.6498952
3,Вересковая улица,625034,57.1495924,65.6497653
7/1,Вересковая улица,625034,57.1488284,65.6507701
12 к1,Западносибирская улица,625034,57.1495874,65.6533371
1,Вересковая улица,625034,57.1499216,65.6498576
12 к1,Западносибирская улица,625034,57.1499098,65.6532567
183,улица Дружбы,625029,57.1788547,65.6052279
102,Уездная улица,625032,57.1092705,65.5219665
104,Уездная улица,625032,57.1090389,65.5220064
43,улица Кирова,625003,57.1551297,65.5282730
64,улица Герцена,625000,57.1522549,65.5320498
24 к2,улица Эрвье,625022,57.1719038,65.5633589
19,Вересковая улица,625034,57.1469322,65.6509997
17,Вересковая улица,625034,57.1477628,65.6519710
17 к1,Вересковая улица,625034,57.1473802,65.6519701
18 к1,Западносибирская улица,625034,57.1481524,65.6543884
5,Стартовая улица,625034,57.1462700,65.6538175
15 к2,Вересковая улица,625034,57.1470133,65.6500286
1А,Дивная улица,625055,57.2226856,65.5128271
20,улица Семёна Шахлина,625055,57.2238284,65.5164137
1Б,Любимая улица,625055,57.2223116,65.5141349
4,Дивная улица,625055,57.2235266,65.5105437
26/2,улица Домостроителей,625034,57.1489416,65.6470470
9,Вересковая улица,625034,57.1483841,65.6500658
20/1,улица Домостроителей,625034,57.1532699,65.6526403
11,Вересковая улица,625034,57.1483935,65.6512400
4,Западносибирская улица,625034,57.1537055,65.6532278
22 к1,Западносибирская улица,625034,57.1470295,65.6551216
18В/1,улица Домостроителей,625034,57.1543294,65.6480571
28,Западносибирская улица,625034,57.1460319,65.6560921
26А,Станционная улица,625053,57.0965573,65.6409804
10А с3,улица Федюнинского,625062,57.1154830,65.5293994
84/1,улица Свободы,625001,57.1654745,65.4985296
84,улица Свободы,625001,57.1651073,65.4983563
86,улица Свободы,625001,57.1647626,65.4973924
2В,Счастливая улица,625056,57.2090040,65.4326195
2Б,Счастливая улица,625056,57.2091251,65.4330193
34,улица Шиллера,625048,57.1429606,65.5479161
52,Орловская улица,625003,57.1516714,65.5244619
74,улица Жуковского,625015,57.1712768,65.6544100
103,Тобольский тракт,625015,57.1726798,65.6785498
83 стр. 4,Закалужская улица,625018,57.1271005,65.4950156
66,Народная улица,625028,57.0937379,65.5981880
11,улица Щербакова,625005,57.1674374,65.5215581
22,Западносибирская улица,625034,57.1468550,65.6567244
103,улица Калинина,625030,57.1346362,65.5129338
86/1,Калужская улица,625018,57.1269808,65.4960684
15,Вересковая улица,625034,57.1478930,65.6505066
84,улица Константина Заслонова,625034,57.1569781,65.6561698
31,Колхозная улица,625008,57.1364542,65.5350279
149,улица Калинина,625030,57.1285012,65.5085097
287,улица Республики,625014,57.1048680,65.6564254
291,улица Республики,625014,57.1039973,65.6610945
4,Пароходская улица,625002,57.1608656,65.5538941
101,Тобольский тракт,625015,57.1731000,65.6741090
28,Судоремонтная улица,625015,57.1790509,65.6420576
25/1,Солнечный проезд,625000,57.1798049,65.5672470
25,Солнечный проезд,625000,57.1795496,65.5666483
1/2,Северная улица,625006,57.1564043,65.5688780
75,улица Пермякова,625051,57.1091432,65.5685362
172А,Широтная улица,625046,57.1018808,65.6037503
37,улица Михаила Сперанского,625046,57.0965168,65.5896781
39,Мельзаводская улица,625001,57.1738839,65.4971500
41,Мельзаводская улица,625001,57.1737723,65.4974093
43,Мельзаводская улица,625001,57.1736604,65.4976747
45,Мельзаводская улица,625001,57.1735563,65.4979492
47,Мельзаводская улица,625001,57.1734733,65.4982216
49,Мельзаводская улица,625001,57.1733000,65.4985928
51,Мельзаводская улица,625001,57.1731742,65.4990367
53,Мельзаводская улица,625001,57.1731046,65.4992344
3,улица Бакинских Комиссаров,625041,57.1627651,65.4805388
20/2,улица Энергостроителей,625053,57.1012217,65.6248030
20 к1,улица Энергостроителей,625053,57.1004748,65.6240015
3,улица Ленина,625003,57.1609299,65.5223366
3 к1,Беловежская улица,625047,57.1055936,65.7254435
7 к2,Беловежская улица,625047,57.1057535,65.7231393
7 к1,Беловежская улица,625047,57.1056762,65.7242870
7 к3,Беловежская улица,625047,57.1058265,65.7218826
10,улица Фармана Салманова,625063,57.1175925,65.4884311
68,Народная улица,625028,57.0990408,65.6073992
3 к1,улица Бакинских Комиссаров,625041,57.1627521,65.4817948
79,улица Тимофея Чаркова,625040,57.1785641,65.6552131
20,Черёмуховая улица,625041,57.1702597,65.4145274
5,улица Бахарева,625062,57.1132109,65.5311289
10а ст2,улица Федюнинского,625062,57.1148718,65.5300336
10а ст4,улица Федюнинского,625062,57.1150426,65.5295792
33,улица Энтузиастов,625043,57.1514670,65.6697051
30,Кедровая улица,625034,57.1518377,65.6700151
28,Кедровая улица,625034,57.1520172,65.6696592
26,Кедровая улица,625034,57.1522165,65.6693549
29,улица Энтузиастов,625043,57.1517654,65.6691733
27,улица Энтузиастов,625043,57.1519193,65.6688648
25,улица Энтузиастов,625043,57.1520793,65.6685562
24,Кедровая улица,625034,57.1524897,65.6692158
14,Кедровая улица,625034,57.1530492,65.6690953
23,улица Энтузиастов,625043,57.1524303,65.6681323
21,улица Энтузиастов,625043,57.1525869,65.6681279
11,улица Энтузиастов,625043,57.1527923,65.6680444
9,улица Энтузиастов,625043,57.1529555,65.6680158
7,улица Энтузиастов,625043,57.1532155,65.6679288
10,Кедровая улица,625034,57.1533905,65.6690246
5,улица Энтузиастов,625043,57.1535798,65.6678712
4,Кедровая улица,625034,57.1539802,65.6687130
3 с1,Одесская улица,625023,57.1474762,65.5971063
7,5-й Земской проезд,625000,57.0985158,65.5208368
19 к2,Беловежская улица,625047,57.1056768,65.7165536
19 к1,Беловежская улица,625047,57.1057256,65.7176829
13 к2,Беловежская улица,625047,57.1057997,65.7193190
13 к1,Беловежская улица,625047,57.1058323,65.7205935
86 к1,Ямская улица,625001,57.1620173,65.4944413
2А,Волгоградская улица,625008,57.1413492,65.5355192
1,Ледниковый проезд,625063,57.1172675,65.5002205
79 к1,улица Ватутина,625031,57.1874569,65.5891421
13,Велижанский тракт,625032,57.2232510,65.6333307
15,Велижанский тракт 7 км,625032,57.2236692,65.6334869
14Б,улица Халиуллы Валеева,625043,57.2129780,65.5449063
14В,улица Халиуллы Валеева,625043,57.2129872,65.5454307
12,улица Халиуллы Валеева,625043,57.2130390,65.5459716
27,Малая Заречная улица,625043,57.2130212,65.5463439
31,Малая Заречная улица,625043,57.2134758,65.5460316
21,Клубничная улица,625043,57.2133886,65.5398933
14,Клубничная улица,625043,57.2131983,65.5405062
16,Клубничная улица,625043,57.2133527,65.5407078
21,улица Василия Подшибякина,625032,57.1154718,65.4979979
19,улица Василия Подшибякина,625032,57.1165616,65.4986778
14 к1,улица Домостроителей,625034,57.1523701,65.6513499
4Б,улица 30 лет Победы,625008,57.1308184,65.5532300
2 к1,улица Андрея Бушуева,625063,57.1253442,65.4913007
30 к4,улица Федюнинского,625062,57.1037673,65.5500541
30 к4,улица Федюнинского,625062,57.1034642,65.5508999
30 к4,улица Федюнинского,625062,57.1030598,65.5504804
3,улица Александра Митинского,625000,57.0983446,65.5652286
8,улица Константина Посьета,625033,57.0954011,65.5731987
3,улица Вадима Бованенко,625000,57.1158934,65.4859132
1,улица Вадима Бованенко,625000,57.1161802,65.4843556
7/43,улица 30 лет Победы,625007,57.1317173,65.5607036
2,улица Николая Никитина,625033,57.0958643,65.5760781
4,улица Николая Никитина,625033,57.0955513,65.5769552
6,улица Николая Никитина,625033,57.0952361,65.5778184
5 к1,улица Пожарных и спасателей,625022,57.1651700,65.5967639
5 к1/2,улица Пожарных и спасателей,625022,57.1648254,65.5969800
9,улица Павла Шарова,625000,57.0990826,65.5632493
7,улица Павла Шарова,625000,57.0997281,65.5618009
60 с1,улица Федюнинского,625000,57.1001631,65.5673708
1,улица Бакинских Комиссаров,625041,57.1636503,65.4807508
14,улица Константина Посьета,625033,57.0965505,65.5746984
16,улица Константина Посьета,625033,57.0963339,65.5751877
12,улица Константина Посьета,625033,57.0963861,65.5741776
10,улица Константина Посьета,625033,57.0958829,65.5737074
67,Мельзаводская улица,625001,57.1724097,65.5023255
65,Мельзаводская улица,625001,57.1724607,65.5017622
63А,Мельзаводская улица,625001,57.1724778,65.5015815
63,Мельзаводская улица,625001,57.1725525,65.5013118
59,Мельзаводская улица,625001,57.1727787,65.5004036
61,Мельзаводская улица,625001,57.1726176,65.5006462
55,Мельзаводская улица,625001,57.1730295,65.4996135
2,Родниковая улица,625053,57.0949531,65.6191984
19 к3,Беловежская улица,625047,57.1056061,65.7154497
5 к2,улица Пожарных и спасателей,625022,57.1651008,65.5952860
5,улица Пожарных и спасателей,625022,57.1655304,65.5951154
4 к1,улица Александра Протозанова,625063,57.1214026,65.5059402
26 к1,улица Фармана Салманова,625063,57.1217223,65.5046498
12 к1,улица Василия Подшибякина,625063,57.1174736,65.4965086
12 c1,улица Фармана Салманова,625032,57.1177584,65.4916181
5,улица Вадима Бованенко,625000,57.1155958,65.4874511
4 к1,улица Вадима Бованенко,625000,57.1146973,65.4848559
4,улица Вадима Бованенко,625000,57.1144177,65.4863202
80,улица Гастелло,625032,57.1240082,65.5152618
37,Калужская улица,625030,57.1240453,65.5071473
83 стр. 5,Закалужская улица,625018,57.1274528,65.4940874
12,улица Николая Никитина,625033,57.0944609,65.5792047
10,улица Николая Никитина,625033,57.0947954,65.5793728
8,улица Николая Никитина,625033,57.0949814,65.5788703
4 к1,улица Николая Никитина,625033,57.0947139,65.5771865
2 к1,улица Николая Никитина,625033,57.0954091,65.5753236
5,улица Валентины Трофимовой,625042,57.0946569,65.5726334
7,улица Валентины Трофимовой,625042,57.0940399,65.5739142
11,улица Валентины Трофимовой,625033,57.0942199,65.5764988
13,улица Валентины Трофимовой,625033,57.0933446,65.5759202
9,улица Валентины Трофимовой,625033,57.0942177,65.5752733
22 к3,2-я Луговая улица,625005,57.1681433,65.5415249
24 к2,2-я Луговая улица,625005,57.1688183,65.5414296
24 к1,2-я Луговая улица,625005,57.1687718,65.5405900
24 к3,2-я Луговая улица,625005,57.1692271,65.5410728
3 к1,улица Пожарных и спасателей,625022,57.1638022,65.5964191
11,Клубничная улица,625043,57.2128369,65.5370722
9А,Клубничная улица,625043,57.2128673,65.5367872
9,Клубничная улица,625043,57.2130195,65.5368130
7,Клубничная улица,625043,57.2129801,65.5365061
5,Клубничная улица,625043,57.2130013,65.5360943
3,Клубничная улица,625043,57.2130258,65.5358623
1,Клубничная улица,625043,57.2130904,65.5355607
30 к6,улица Федюнинского,625062,57.1020982,65.5511851
30 к6,улица Федюнинского,625062,57.1024592,65.5516492
30 к6,улица Федюнинского,625062,57.1027396,65.5508901
30 к7,улица Федюнинского,625062,57.1022883,65.5532327
30 к7,улица Федюнинского,625062,57.1023916,65.5524267
30 к7,улица Федюнинского,625062,57.1029362,65.5525462
30 к5,улица Федюнинского,625062,57.1039995,65.5519112
30 к5,улица Федюнинского,625062,57.1034549,65.5517918
30 к5,улица Федюнинского,625062,57.1033516,65.5525978
4,Уездная улица,625000,57.1199268,65.5129337
72 с1,улица Герцена,625000,57.1505901,65.5345559
4А,улица Николая Никитина,625033,57.0955546,65.5775788
2А,улица Николая Никитина,625033,57.0958607,65.5767283
23,улица Героев космоса,625034,57.1579690,65.6496333
36,улица Алексея Леонова,625034,57.1583164,65.6481820
3,Первомайская улица,625000,57.1550518,65.5391811
36,улица Монтажников,625000,57.0927820,65.5770921
12,улица Валентины Трофимовой,625000,57.0921835,65.5756561
42А,улица Монтажников,625000,57.0898466,65.5722598
21,улица Героев космоса,625034,57.1576917,65.6490122
57,Мельзаводская улица,625001,57.1729200,65.5000299
27,Мельзаводская улица,625001,57.1746298,65.4954180
29,Мельзаводская улица,625001,57.1744838,65.4958042
31,Мельзаводская улица,625001,57.1743635,65.4961116
33,Мельзаводская улица,625001,57.1742323,65.4964715
35,Мельзаводская улица,625001,57.1741299,65.4965989
37,Мельзаводская улица,625001,57.1740209,65.4968692
13,Клубничная улица,625043,57.2128759,65.5378869
17,Клубничная улица,625043,57.2125788,65.5383514
19,Клубничная улица,625043,57.2124929,65.5386510
15,Клубничная улица,625043,57.2125966,65.5380492
6,Клубничная улица,625043,57.2125968,65.5397428
2Б,Клубничная улица,625043,57.2121908,65.5405857
8,Клубничная улица,625043,57.2127963,65.5398792
126,улица Мельникайте,652007,57.1256310,65.5527822
24,Судоремонтная улица,625015,57.1784551,65.6427228
84,Холодильная улица,625048,57.1455873,65.5686329
15,Вьюжная улица,625063,57.1196346,65.5028534
18,улица Халиуллы Валеева,625043,57.2127742,65.5441253
2В,1-я Новая улица,625043,57.2128827,65.5437818
16,улица Халиуллы Валеева,625043,57.2127651,65.5444562
196,Трактовая улица,625059,57.2118775,65.6215739
167,Полевая улица,625059,57.2118093,65.6204634
200,Трактовая улица,625059,57.2116519,65.6222592
173,Полевая улица,625059,57.2116365,65.6215806
194,Трактовая улица,625059,57.2119505,65.6212815
192,Трактовая улица,625059,57.2119720,65.6211823
169,Полевая улица,625059,57.2116922,65.6210047
188,Трактовая улица,625059,57.2120609,65.6205171
186,Трактовая улица,625059,57.2121499,65.6200604
184,Трактовая улица,625059,57.2122343,65.6199113
163,Полевая улица,625059,57.2119306,65.6200394
161,Полевая улица,625059,57.2119970,65.6196773
10,Первая улица,625054,57.2578226,65.5070753
9,Первая улица,625054,57.2574292,65.5070942
6,Первая улица,625054,57.2568235,65.5067676
41,Первая улица,625054,57.2581472,65.5079923
42,Первая улица,625054,57.2578095,65.5076600
49,Первая улица,625054,57.2562159,65.5075772
78,Вторая улица,625054,57.2555657,65.5080174
77,Вторая улица,625054,57.2552189,65.5081687
126,Вторая улица,625054,57.2579946,65.5093155
167,Третья улица,625054,57.2561341,65.5096237
164,Третья улица,625054,57.2554662,65.5096896
162,Третья улица,625054,57.2549906,65.5095136
280,Четвёртая улица,625054,57.2597463,65.5114600
212,Третья улица,625054,57.2587979,65.5107460
221,Третья улица,625054,57.2568212,65.5103081
263,Четвёртая улица,625054,57.2563521,65.5116061
224,Третья улица,625054,57.2560850,65.5103178
225,Третья улица,625054,57.2559220,65.5102552
308,Четвёртая улица,625054,57.2595109,65.5129524
381,Пятая улица,625054,57.2593228,65.5138288
312,Четвёртая улица,625054,57.2587493,65.5128115
372,Пятая улица,625054,57.2574973,65.5131028
319,Четвёртая улица,625054,57.2572951,65.5123202
326,Четвёртая улица,625054,57.2557983,65.5122800
336,Четвёртая улица,625054,57.2539496,65.5122391
431,Пятая улица,625054,57.2595865,65.5141452
435,Пятая улица,625054,57.2588057,65.5140714
437,Пятая улица,625054,57.2584782,65.5140952
440,Пятая улица,625054,57.2577735,65.5144408
442,Пятая улица,625054,57.2574013,65.5142318
449,Пятая улица,625054,57.2561031,65.5137917
450,Пятая улица,625054,57.2558830,65.5142747
451,Пятая улица,625054,57.2556233,65.5136710
453,Пятая улица,625054,57.2553151,65.5140391
455,Пятая улица,625054,57.2549029,65.5141333
457,Пятая улица,625054,57.2544998,65.5139258
459,Пятая улица,625054,57.2541037,65.5135199
59,Центральная улица,625054,57.2536731,65.5072165
153,Вишнёвая улица,625054,57.2533367,65.5102159
151,Вишнёвая улица,625054,57.2531430,65.5109067
150,Вишнёвая улица,625054,57.2531480,65.5113831
464,Пятая улица,625054,57.2531047,65.5138836
337,Вишнёвая улица,625054,57.2527489,65.5130484
249,Вишнёвая улица,625054,57.2529145,65.5118059
239,Вишнёвая улица,625054,57.2530115,65.5074393
352,Южная улица,625054,57.2526521,65.5070542
30 к9,улица Федюнинского,625062,57.1012427,65.5531911
30 к9,улица Федюнинского,625062,57.1017265,65.5528202
30 к9,улица Федюнинского,625062,57.1019013,65.5536696
38Д,Боровая улица,625025,57.1393359,65.4428224
38К,Боровая улица,625025,57.1396000,65.4431047
38О,Боровая улица,625025,57.1400340,65.4433087
38Л,Боровая улица,625025,57.1403220,65.4429027
1 к1,Лесопарковая улица,625034,57.1512213,65.6401047
12 с1,Широтная улица,625046,57.1176034,65.5542129
34,улица Алексея Леонова,625034,57.1578377,65.6470539
12,улица Василия Подшибякина,625032,57.1164423,65.4971524
9/1,Заполярная улица,625063,57.1155707,65.4955777
10 к2,улица Сергея Ильюшина,625017,57.1808459,65.3489194
9А,Заполярная улица,625063,57.1166575,65.4955781
96/3,Широтная улица,625051,57.1116288,65.5780151
42,улица Монтажников,625000,57.0900499,65.5736442
40,улица Монтажников,625000,57.0907687,65.5745923
1,улица Пожарных и спасателей,625022,57.1627919,65.5945221
1,улица Пожарных и спасателей,625022,57.1621995,65.5939795
1,улица Пожарных и спасателей,625022,57.1621365,65.5947826
38,улица Монтажников,625000,57.0915232,65.5755742
27,улица Грибоедова,625000,57.1475713,65.5323513
16,Кедровая улица,625034,57.1528794,65.6688172
18,Кедровая улица,625034,57.1526858,65.6689082
12,Кедровая улица,625034,57.1531305,65.6687828
29,Набережная улица,625001,57.1820039,65.5236609
47,Берёзовская улица,625061,57.1548551,65.3623003
47А,Берёзовская улица,625061,57.1550115,65.3625062
45,Берёзовская улица,625061,57.1552343,65.3623652
39,Берёзовская улица,625061,57.1559209,65.3618395
39А,Берёзовская улица,625061,57.1558041,65.3624166
43,Берёзовская улица,625061,57.1554962,65.3619656
3,Новгородская улица,625002,57.1605134,65.5735840
38С,Боровая улица,625025,57.1401675,65.4425606
38Б,Боровая улица,625025,57.1399768,65.4424177
38Т,Боровая улица,625025,57.1398007,65.4431936
38Ф,Боровая улица,625025,57.1404047,65.4435342
38У,Боровая улица,625025,57.1401704,65.4433947
18,улица Фармана Салманова,625063,57.1202467,65.4994968
18,улица Фармана Салманова,625063,57.1198299,65.5001635
2,улица Николая Машарова,625048,57.1483171,65.5532621
4,улица Николая Машарова,625048,57.1487862,65.5548866
12/1,улица Василия Подшибякина,625063,57.1162549,65.4977320
8,Вьюжная улица,625063,57.1186451,65.5000371
26 к3,улица Фармана Салманова,625063,57.1224316,65.5042908
45,улица Михаила Сперанского,625033,57.0949296,65.5949876
3 с2,Одесская улица,625023,57.1477305,65.5972819
2,Зелёная улица,625059,57.2412718,65.5922749
4,Зелёная улица,625059,57.2412003,65.5919318
6,Зелёная улица,625059,57.2411015,65.5913494
8,Зелёная улица,625059,57.2410494,65.5910185
12,Зелёная улица,625059,57.2409540,65.5903206
14,Зелёная улица,625059,57.2409809,65.5897308
16,Зелёная улица,625059,57.2408231,65.5895234
18,Зелёная улица,625059,57.2407344,65.5890911
20,Зелёная улица,625059,57.2407118,65.5888350
22,Зелёная улица,625059,57.2407704,65.5885224
21,Зелёная улица,625059,57.2404914,65.5886559
19,Зелёная улица,625059,57.2403760,65.5889599
17,Зелёная улица,625059,57.2404556,65.5892750
15,Зелёная улица,625059,57.2405487,65.5898864
13,Зелёная улица,625059,57.2405828,65.5900970
11,Зелёная улица,625059,57.2407482,65.5903501
9,Зелёная улица,625059,57.2408911,65.5910511
5,Зелёная улица,625059,57.2410095,65.5916965
7,Зелёная улица,625059,57.2409667,65.5913982
3,Зелёная улица,625059,57.2411059,65.5921901
87,Земляничная улица,625059,57.2110021,65.6161662
85,Земляничная улица,625059,57.2110507,65.6159857
83,Земляничная улица,625059,57.2111314,65.6157325
81,Земляничная улица,625059,57.2112020,65.6154128
79,Земляничная улица,625059,57.2113135,65.6149963
77,Земляничная улица,625059,57.2116163,65.6152436
69,Земляничная улица,625059,57.2112550,65.6163496
14,Центральная улица,625059,57.2116302,65.6170600
16,Центральная улица,625059,57.2115217,65.6174702
18,Центральная улица,625059,57.2114292,65.6177743
20,Центральная улица,625059,57.2113564,65.6182289
22,Центральная улица,625059,57.2111578,65.6186259
55,Земляничная улица,625059,57.2110170,65.6184860
157А,Земляничная улица,625059,57.2108202,65.6182828
59А,Земляничная улица,625059,57.2110178,65.6179255
61А,Земляничная улица,625059,57.2112401,65.6175815
60А,Земляничная улица,625059,57.2111773,65.6173601
12,Центральная улица,625059,57.2117814,65.6165822
8,Центральная улица,625059,57.2120469,65.6159093
6,Центральная улица,625059,57.2121989,65.6155493
89,улица Дружбы,625059,57.2119837,65.6156355
59Б,Земляничная улица,625059,57.2104303,65.6176770
59,Земляничная улица,625059,57.2106363,65.6177637
61,Земляничная улица,625059,57.2108712,65.6174385
64,Земляничная улица,625059,57.2109943,65.6169971
67,Земляничная улица,625059,57.2111405,65.6167458
66,Земляничная улица,625059,57.2111912,65.6170391
68,Земляничная улица,625059,57.2112411,65.6169091
70,Земляничная улица,625059,57.2112865,65.6167856
72,Земляничная улица,625059,57.2113490,65.6166710
74,Земляничная улица,625059,57.2113873,65.6165953
76,Земляничная улица,625059,57.2114480,65.6163588
78,Земляничная улица,625059,57.2115290,65.6162856
80,Земляничная улица,625059,57.2115581,65.6161141
82,Земляничная улица,625059,57.2115595,65.6159252
86,Земляничная улица,625059,57.2116640,65.6156271
94,улица Дружбы,625059,57.2116946,65.6150811
93,улица Дружбы,625059,57.2116271,65.6150212
91,улица Дружбы,625059,57.2114273,65.6148309
92,улица Дружбы,625059,57.2115529,65.6149328
98,улица Дружбы,625059,57.2119868,65.6152870
88,Земляничная улица,625059,57.2117439,65.6153941
1а ст8,улица Тимуровцев,625043,57.1919312,65.5520834
10/2,улица Мельникайте,625022,57.1625602,65.5948493
10/2,улица Мельникайте,625022,57.1621080,65.5943611
1,Полевая улица,625000,57.2086047,65.3545781
1375,Нулевая улица,625000,57.2627151,65.5480536
96А,Ямская улица,625001,57.1612835,65.4880688
34,Призывной проезд,625043,57.2157279,65.5711162
32,Призывной проезд,625043,57.2158964,65.5712986
21,улица Романа Новопашина,625043,57.2163372,65.5686777
19,улица Романа Новопашина,625043,57.2165792,65.5690555
36,улица Петра Бабичева,625043,57.2171426,65.5698341
22,Призывной проезд,625043,57.2166805,65.5698386
24,Призывной проезд,625043,57.2164193,65.5696517
30,Призывной проезд,625043,57.2162043,65.5704457
59,улица Александра Сазонова,625043,57.2154856,65.5709554
57,улица Александра Сазонова,625043,57.2155798,65.5706763
55,улица Александра Сазонова,625043,57.2156839,65.5702742
53,улица Александра Сазонова,625043,57.2157309,65.5700540
51,улица Александра Сазонова,625043,57.2158221,65.5697100
49,улица Александра Сазонова,625043,57.2159552,65.5694603
45,улица Александра Сазонова,625043,57.2161185,65.5687425
13,улица Романа Новопашина,625043,57.2170362,65.5693253
37 корпус 1,Беляева,625040,57.1751793,65.6518617
2,Новая улица,625501,57.1335586,65.3690600
1,Новая улица,625501,57.1333984,65.3691973
3,Новая улица,625501,57.1337027,65.3688571
19А с1,"Ялуторовский тракт, 11-й километр",625019,57.0887997,65.6749581
19А с2,"Ялуторовский тракт, 11-й километр",625019,57.0888677,65.6747985
44,Военная улица,625001,57.1648260,65.4778460
154,Камчатская улица,625034,57.1543152,65.6636113
22А,Игримская улица,625029,57.1833506,65.6153492
12,улица Фармана Салманова,625032,57.1180011,65.4910288
49 к2,улица Малыгина,625048,57.1430124,65.5511907
49 к4,улица Малыгина,625048,57.1427736,65.5508588
49,улица Малыгина,625048,57.1430538,65.5502552
49 к1,улица Малыгина,625048,57.1434001,65.5499946
12,Суходольская улица,625051,57.1078727,65.5814501
1,улица Мелиораторов,625059,57.2093056,65.6054126
135 к2,Московский тракт,625049,57.1332106,65.4963359
135 к3,Московский тракт,625049,57.1330577,65.4957925
135 к1,Московский тракт,625049,57.1332740,65.4951656
73 к4,улица Газовиков,625005,57.1661367,65.5610504
73 к3,улица Газовиков,625005,57.1657312,65.5603074
14,улица Фармана Салманова,625032,57.1188119,65.4943741
29 c10,Нагорная улица,625001,57.1627481,65.5099582
53 к5,Уральская улица,625001,57.1579302,65.4942220
53 к4,Уральская улица,625001,57.1581655,65.4949440
53 к3,Уральская улица,625001,57.1583198,65.4954335
53 к2,Уральская улица,625001,57.1586034,65.4962871
53 к1,Уральская улица,625001,57.1588741,65.4971336
53,Уральская улица,625001,57.1590312,65.4976046
53 к6,Уральская улица,625001,57.1577646,65.4937302
22,улица Василия Гольцова,625051,57.1100866,65.5751245
32 к1,улица Эрвье,625022,57.1691508,65.5636383
26,улица Домостроителей,625034,57.1496179,65.6468768
1 к1,улица Пожарных и спасателей,625031,57.1624057,65.5960199
6А к2,улица Малиновского,625015,57.1762618,65.6455581
92,Червишевский тракт,625032,57.1213783,65.5180680
90,Червишевский тракт,625032,57.1215540,65.5187582
143А,улица Республики,625026,57.1395346,65.5682806
90,улица Республики,625048,57.1452393,65.5544006
90,улица Малыгина,625026,57.1349404,65.5630265
