House number,Street name,Postal code,Latitude,Longitude
8А,улица Киргетова,188309,59.5709809,30.1263659
59,проспект 25 Октября,188300,59.5775715,30.1350645
50,проспект 25 Октября,188300,59.5791469,30.1359228
1А,улица Академика Константинова,188309,59.5741217,30.1199451
26,проспект 25 Октября,188309,59.5715540,30.1224752
42,улица Карла Маркса,188309,59.5661385,30.1272269
15А,Рощинская улица,188300,59.5801263,30.1317198
9,улица Володарского,188309,59.5615072,30.1325871
33/1,проспект 25 Октября,188309,59.5707108,30.1247819
8,улица Хохлова,188309,59.5741047,30.1220370
42,проспект 25 Октября,188309,59.5750658,30.1284660
75,проспект 25 Октября,188306,59.5795513,30.1388406
41,улица Чкалова,188309,59.5600104,30.1245505
7,улица Горького,188300,59.5644053,30.1234442
50,проспект 25 Октября,188306,59.5788107,30.1349822
69/1,проспект 25 Октября,188300,59.5790205,30.1377184
6А,улица Киргетова,188300,59.5701646,30.1249030
18А,улица Радищева,188399,59.5672882,30.1313006
6,улица Киргетова,188300,59.5697250,30.1258625
25,Соборная улица,188300,59.5653258,30.1315665
16А,Ленинградское шоссе,188300,59.5856895,30.1430836
17А,Красная улица,188300,59.5674253,30.1242952
7В,Соборная улица,188304,59.5658014,30.1235239
2А,улица Генерала Кныша,188309,59.5630621,30.0939537
"д. 42, лит. О",проспект 25 Октября,188300,59.5717680,30.1222058
28А,проспект 25 Октября,188300,59.5713387,30.1232307
15,Пушкинское шоссе,188300,59.5816386,30.1487212
14,Соборная улица,188300,59.5659345,30.1254492
"15А, строение 2",Пушкинское шоссе,188354,59.5823831,30.1456496
1,Пушкинское шоссе,188300,59.5803815,30.1401553
2А,улица Генерала Кныша,188309,59.5635195,30.0930193
5,улица Новосёлов,188309,59.5599574,30.0857195
2,улица Слепнёва,188309,59.5584418,30.0848850
4,улица Новосёлов,188309,59.5593973,30.0850330
4 к1,улица Слепнёва,188309,59.5581081,30.0863623
6,улица Новосёлов,188309,59.5605099,30.0863758
10,улица Новосёлов,188309,59.5627077,30.0888591
8,улица Новосёлов,188309,59.5620622,30.0880555
7,улица Новосёлов,188309,59.5612395,30.0884573
9,улица Новосёлов,188309,59.5621957,30.0896438
21,Полевая улица,188307,59.5654727,30.0803801
13 к2,улица Авиатриссы Зверевой,188310,59.5567333,30.0872844
2,улица Красных Военлётов,188309,59.5565779,30.0836722
22,Полевая улица,188307,59.5653589,30.0800557
13,улица Авиатриссы Зверевой,188310,59.5558357,30.0883233
17,улица Авиатриссы Зверевой,188310,59.5555243,30.0865216
15,улица Авиатриссы Зверевой,188310,59.5550592,30.0877981
11,улица Авиатриссы Зверевой,188310,59.5564667,30.0895262
9,улица Авиатриссы Зверевой,188310,59.5566905,30.0898866
48В,Красноармейский проспект,188309,59.5669718,30.0913202
2,улица Генерала Кныша,188309,59.5627584,30.0918528
4,улица Генерала Кныша,188309,59.5621433,30.0927676
1,улица Генерала Кныша,188309,59.5630966,30.0908110
4 к2,улица Слепнёва,188309,59.5577272,30.0860096
4 к3,улица Слепнёва,188309,59.5572846,30.0850109
2 к1,улица Новосёлов,188309,59.5576740,30.0845541
8,улица Слепнёва,188309,59.5575894,30.0893890
10,улица Слепнёва,188309,59.5571273,30.0892394
6,улица Слепнёва,188309,59.5578978,30.0876903
21А,Полевая улица,188307,59.5656180,30.0809330
11,улица Новосёлов,188309,59.5629057,30.0901902
48А,Красноармейский проспект,188309,59.5671310,30.0909926
7,улица Генерала Кныша,188309,59.5607126,30.0932041
5,улица Авиатриссы Зверевой,188309,59.5594423,30.0927008
3,улица Авиатриссы Зверевой,188309,59.5600294,30.0936670
6,улица Генерала Кныша,188309,59.5614985,30.0937692
5,улица Генерала Кныша,188309,59.5618475,30.0932526
3,улица Нестерова,188309,59.5640415,30.0967781
34,Красноармейский проспект,188309,59.5650605,30.0951362
15,Красноармейский проспект,188309,59.5652552,30.0965124
13/7,Красноармейский проспект,188309,59.5651223,30.0975281
32,Красноармейский проспект,188309,59.5646458,30.0964417
3,улица Генерала Кныша,188309,59.5624418,30.0923411
36,Красноармейский проспект,188309,59.5646070,30.0948590
44,Красноармейский проспект,188309,59.5660025,30.0935199
17,Красноармейский проспект,188309,59.5658082,30.0953977
19,Красноармейский проспект,188309,59.5663715,30.0942748
42,Красноармейский проспект,188309,59.5656874,30.0941590
48,Красноармейский проспект,188309,59.5665908,30.0920769
46,Красноармейский проспект,188309,59.5663073,30.0926744
20,Красноармейский проспект,188309,59.5638081,30.0994484
24,Красноармейский проспект,188309,59.5636265,30.0986450
28,Красноармейский проспект,188309,59.5640686,30.0975202
26,Красноармейский проспект,188309,59.5639724,30.0983888
12,Красноармейский проспект,188309,59.5635810,30.1006056
14,Красноармейский проспект,188309,59.5636646,30.1002436
11,Красноармейский проспект,188307,59.5661674,30.0992787
10,улица Нестерова,188307,59.5661600,30.1009860
11,Красноармейский проспект,188307,59.5658525,30.1010175
4 к4,улица Слепнёва,188309,59.5570510,30.0857835
5,улица 7-й Армии,188300,59.5768052,30.1241760
46/1,проспект 25 Октября,188300,59.5789125,30.1338035
20,Рощинская улица,188300,59.5800892,30.1237145
67,проспект 25 Октября,188300,59.5783242,30.1402917
50,проспект 25 Октября,188300,59.5790581,30.1356555
69 к2,проспект 25 Октября,188300,59.5786852,30.1385626
28А,улица Коли Подрядчикова,188300,59.5836660,30.1244006
69 к3,проспект 25 Октября,188300,59.5787471,30.1397182
25,Рощинская улица,188300,59.5821417,30.1246244
18А,Рощинская улица,188300,59.5791089,30.1267892
21,Рощинская улица,188300,59.5815475,30.1244472
48,проспект 25 Октября,188300,59.5792665,30.1325010
5,улица 7-й Армии,188300,59.5767798,30.1234728
4,улица Академика Константинова,188309,59.5769119,30.1167463
16,улица Коли Подрядчикова,188300,59.5772958,30.1178380
11,улица Коли Подрядчикова,188300,59.5780786,30.1215584
15,улица Коли Подрядчикова,188300,59.5780411,30.1218579
9,улица Крупской,188309,59.5772752,30.1158822
14,улица Коли Подрядчикова,188309,59.5768516,30.1178880
29,Рощинская улица,188300,59.5821203,30.1191856
14,улица Профессора Русинова,188300,59.5804737,30.1187970
21,Рощинская улица,188300,59.5812199,30.1237857
38,Рощинская улица,188300,59.5815048,30.1192285
12,улица Профессора Русинова,188300,59.5801792,30.1191243
18,улица Профессора Русинова,188300,59.5806044,30.1181437
16,улица Профессора Русинова,188300,59.5808457,30.1187722
40,Рощинская улица,188300,59.5814319,30.1186935
12,улица Крупской,188300,59.5798625,30.1176565
20,улица Профессора Русинова,188300,59.5809723,30.1181221
8,улица Профессора Русинова,188300,59.5800177,30.1196632
32,Рощинская улица,188300,59.5807312,30.1203135
36,Рощинская улица,188300,59.5809884,30.1195035
26,Рощинская улица,188300,59.5805380,30.1214958
30,Рощинская улица,188300,59.5810443,30.1206895
28,Рощинская улица,188300,59.5808193,30.1214003
4,улица Профессора Русинова,188300,59.5796965,30.1198341
22,улица Коли Подрядчикова,188300,59.5801685,30.1209932
34,Рощинская улица,188300,59.5812655,30.1199816
10,улица Профессора Русинова,188300,59.5805739,30.1195962
2,улица Профессора Русинова,188300,59.5797484,30.1204935
24,Рощинская улица,188300,59.5802229,30.1220214
6,улица Профессора Русинова,188300,59.5803060,30.1204102
27,Рощинская улица,188300,59.5824248,30.1224534
59,проспект 25 Октября,188300,59.5775682,30.1352115
8,Рощинская улица,188300,59.5779754,30.1300482
16,Рощинская улица,188300,59.5779916,30.1289293
10,Рощинская улица,188300,59.5776855,30.1295507
12,Рощинская улица,188300,59.5778377,30.1292536
14 к1,Рощинская улица,188300,59.5782583,30.1293025
4,Рощинская улица,188300,59.5777273,30.1306788
63,проспект 25 Октября,188300,59.5784434,30.1368778
73,проспект 25 Октября,188300,59.5775881,30.1410239
65А,проспект 25 Октября,188300,59.5768493,30.1386837
61,проспект 25 Октября,188300,59.5771215,30.1366855
65,проспект 25 Октября,188300,59.5779303,30.1381193
56,проспект 25 Октября,188300,59.5810051,30.1354889
15 к2,улица Изотова,188300,59.5843006,30.1274547
15,улица Изотова,188300,59.5844133,30.1287188
50/1,проспект 25 Октября,188300,59.5797726,30.1354368
3Б,улица Изотова,188300,59.5816120,30.1257386
17А,Рощинская улица,188300,59.5807443,30.1275256
17Б,Рощинская улица,188300,59.5801851,30.1278909
17,Рощинская улица,188300,59.5803298,30.1270695
18,Рощинская улица,188300,59.5794935,30.1255763
3,улица Изотова,188308,59.5811118,30.1264066
9,улица Изотова,188300,59.5827623,30.1285112
13,улица Изотова,188300,59.5828057,30.1273275
7,улица Изотова,188300,59.5818949,30.1272200
12 к1,улица Изотова,188300,59.5825784,30.1259843
54 к1,проспект 25 Октября,188300,59.5792804,30.1349983
54 к2,проспект 25 Октября,188300,59.5795555,30.1345654
52,проспект 25 Октября,188300,59.5801282,30.1341385
4А,Красносельское шоссе,188300,59.5831990,30.1341791
15Г,Рощинская улица,188300,59.5823240,30.1314933
45Б,Железнодорожная улица,188309,59.5696370,30.1474302
1,улица Киргетова,188309,59.5681054,30.1245106
2А,проспект 25 Октября,188309,59.5678276,30.1197668
27,улица Володарского,188309,59.5678652,30.1381882
1А,улица Киргетова,188309,59.5678635,30.1257368
18,улица Чехова,188309,59.5684330,30.1401142
6,проспект 25 Октября,188309,59.5678995,30.1209086
30,улица Володарского,188309,59.5679146,30.1356015
28,улица Володарского,188309,59.5675900,30.1362088
12,улица Радищева,188309,59.5677462,30.1299764
21,проспект 25 Октября,188309,59.5679293,30.1221710
23А,улица Володарского,188309,59.5678041,30.1371332
16,улица Радищева,188309,59.5677336,30.1309554
20,улица Урицкого,188309,59.5677405,30.1333516
24,улица Чкалова,188309,59.5595556,30.1243235
22,улица Чкалова,188309,59.5593335,30.1246448
41,улица Чкалова,188309,59.5599985,30.1246590
2,улица Чкалова,188309,59.5572390,30.1259919
17А,Красная улица,188309,59.5673927,30.1242995
10А,улица Чкалова,188309,59.5579455,30.1246392
10А,Соборная улица,188309,59.5661443,30.1245690
10,Соборная улица,188309,59.5661856,30.1243094
26,улица Карла Маркса,188309,59.5614441,30.1248303
3,улица Горького,188309,59.5655297,30.1242235
43,улица Чкалова,188309,59.5601908,30.1244890
15,улица Чкалова,188309,59.5568938,30.1283279
8,улица Горького,188309,59.5643328,30.1245360
18,улица Чкалова,188309,59.5589044,30.1247945
11/1,Соборная улица,188309,59.5658382,30.1244217
8/10,улица Горького,188309,59.5647473,30.1246924
58,улица Чкалова,188309,59.5624620,30.1211962
28Б,улица Чкалова,188309,59.5596543,30.1229010
18А,улица Чкалова,188304,59.5586907,30.1239866
50,улица Чкалова,188309,59.5616846,30.1216524
40,улица Чкалова,188309,59.5610221,30.1228013
46А,улица Чкалова,188309,59.5611898,30.1212004
56,улица Чкалова,188309,59.5623120,30.1214130
54А,улица Чкалова,188309,59.5619588,30.1213584
38,улица Чкалова,188309,59.5608158,30.1228901
38Б,улица Чкалова,188309,59.5604371,30.1220659
30 к1,улица Чкалова,188309,59.5601476,30.1236673
36,улица Чкалова,188309,59.5606397,30.1231321
34,улица Чкалова,188309,59.5603692,30.1229813
32,улица Чкалова,188309,59.5603270,30.1235048
30 к2,улица Чкалова,188309,59.5599790,30.1230627
48,улица Чкалова,188309,59.5616948,30.1220972
46,улица Чкалова,188309,59.5614329,30.1219639
59А,улица Чкалова,188309,59.5615228,30.1230335
57,улица Чкалова,188309,59.5613505,30.1232995
55,улица Чкалова,188309,59.5611863,30.1234049
61,улица Чкалова,188309,59.5618275,30.1228390
63,улица Чкалова,188309,59.5619889,30.1225317
61А,улица Чкалова,188309,59.5618670,30.1233929
61Б,улица Чкалова,188309,59.5620766,30.1234072
32,улица Горького,188309,59.5622199,30.1225292
5,проспект 25 Октября,188309,59.5649348,30.1200264
2,проспект 25 Октября,188309,59.5670430,30.1197806
5,Красная улица,188309,59.5652579,30.1220844
5,улица Горького,188309,59.5650527,30.1240616
10,Красная улица,188309,59.5650581,30.1209397
68,улица Чкалова,188309,59.5637176,30.1193434
71,улица Чкалова,188309,59.5631255,30.1217291
67,улица Чкалова,188309,59.5627100,30.1218447
75,улица Чкалова,188309,59.5633298,30.1211597
60,улица Чкалова,188309,59.5627315,30.1209416
73,улица Чкалова,188309,59.5635039,30.1216088
79,улица Чкалова,188309,59.5641291,30.1193340
8,Красная улица,188309,59.5647092,30.1209333
65,улица Чкалова,188309,59.5624673,30.1220752
7,улица Горького,188300,59.5644870,30.1234802
2,улица Достоевского,188300,59.5646660,30.1227723
4/9,Соборная улица,188309,59.5664468,30.1232695
1,Революционный переулок,188309,59.5657332,30.1211393
19,проспект 25 Октября,188309,59.5676823,30.1217336
3,Соборная улица,188309,59.5663872,30.1217457
1,Соборная улица,188309,59.5665228,30.1210566
7,проспект 25 Октября,188309,59.5660679,30.1204189
9,проспект 25 Октября,188309,59.5663377,30.1206750
17,проспект 25 Октября,188309,59.5674990,30.1215820
11,проспект 25 Октября,188309,59.5669349,30.1210937
13,проспект 25 Октября,188309,59.5671676,30.1213671
15,проспект 25 Октября,188309,59.5673521,30.1215151
4,проспект 25 Октября,188309,59.5675693,30.1206641
2,Соборная улица,188309,59.5667426,30.1214036
7Б,Соборная улица,188309,59.5660230,30.1233723
8,Соборная улица,188309,59.5662416,30.1239850
7,Соборная улица,188309,59.5661446,30.1228003
5А,Красная улица,188309,59.5657171,30.1223965
16,Красная улица,188309,59.5660579,30.1219460
9,Соборная улица,188309,59.5659289,30.1239282
5,Соборная улица,188309,59.5662947,30.1221527
17,Красная улица,188309,59.5675815,30.1238489
11,Красная улица,188309,59.5667506,30.1232253
13,Красная улица,188309,59.5669794,30.1234120
18,Красная улица,188309,59.5666741,30.1221536
24,Красная улица,188309,59.5677343,30.1231454
7,улица Чкалова,188309,59.5553286,30.1302524
11,улица Чкалова,188309,59.5563495,30.1293369
13,улица Чкалова,188309,59.5562598,30.1288177
2/2,улица Чкалова,188309,59.5567920,30.1272829
1,улица Чехова,188309,59.5564165,30.1331271
1,улица Чехова,188309,59.5561972,30.1331928
2,улица Солодухина,188309,59.5622910,30.1386671
26А,улица Радищева,188309,59.5664782,30.1353522
17,улица Достоевского,188309,59.5623846,30.1311275
5,улица Урицкого,188309,59.5622658,30.1301246
10,улица Чехова,188309,59.5612957,30.1352284
30,Соборная улица,188309,59.5640867,30.1353281
17,улица Володарского,188309,59.5650804,30.1354289
17А,улица Карла Маркса,188309,59.5601483,30.1295258
1,улица Урицкого,188309,59.5611962,30.1295380
3,улица Урицкого,188309,59.5617082,30.1305729
2,улица Володарского,188309,59.5597072,30.1301165
17/2,улица Чкалова,188309,59.5574158,30.1274843
6А,улица Чкалова,188309,59.5578027,30.1257042
6Б,улица Чкалова,188309,59.5576566,30.1249865
6,улица Чкалова,188309,59.5579219,30.1261539
14,улица Чкалова,188309,59.5584980,30.1252434
20,улица Чкалова,188309,59.5591476,30.1248570
4,улица Урицкого,188309,59.5621470,30.1291207
4А,улица Урицкого,188309,59.5621307,30.1283144
2,улица Урицкого,188309,59.5617513,30.1288416
16,улица Лейтенанта Шмидта,188309,59.5589865,30.1329425
3,улица Володарского,188309,59.5595223,30.1309137
9/5,улица Лейтенанта Шмидта,188309,59.5581895,30.1334507
6,улица Чехова,188309,59.5591997,30.1337592
9,улица Чехова,188309,59.5611133,30.1341774
6,улица Володарского,188309,59.5610487,30.1311283
7,улица Володарского,188309,59.5608002,30.1318065
14,улица Леонова,188309,59.5606526,30.1325992
9,улица Володарского,188309,59.5614741,30.1328115
15А,улица Леонова,188309,59.5598496,30.1325981
5,улица Володарского,188309,59.5600658,30.1312289
10,улица Леонова,188309,59.5608064,30.1305408
5А,улица Урицкого,188309,59.5621543,30.1305429
8А,улица Володарского,188309,59.5616131,30.1316251
8,улица Володарского,188309,59.5613702,30.1314447
10,улица Володарского,188309,59.5619462,30.1318484
16,улица Леонова,188309,59.5605415,30.1331899
17/7,улица Леонова,188309,59.5595670,30.1342601
8А,улица Чехова,188309,59.5601252,30.1344233
21,улица Достоевского,188309,59.5619314,30.1334946
26,Соборная улица,188309,59.5649076,30.1299015
49Б,улица Карла Маркса,188309,59.5667560,30.1297997
41,улица Карла Маркса,188309,59.5649849,30.1274774
4,улица Горького,188309,59.5650544,30.1249064
3,улица Радищева,188309,59.5671985,30.1299609
40,улица Карла Маркса,188309,59.5651259,30.1265639
8,улица Урицкого,188309,59.5635715,30.1301116
17,улица Урицкого,188309,59.5652754,30.1323357
35,улица Карла Маркса,188309,59.5638022,30.1266791
37А,улица Карла Маркса,188309,59.5642532,30.1270417
39,улица Карла Маркса,188309,59.5645596,30.1272469
23,Соборная улица,188309,59.5637371,30.1292447
21,Соборная улица,188309,59.5639094,30.1283284
8,улица Достоевского,188309,59.5642143,30.1254919
12,улица Достоевского,188309,59.5636253,30.1275983
16,улица Достоевского,188309,59.5632818,30.1293852
21А,Соборная улица,188309,59.5650483,30.1280858
37,улица Карла Маркса,188309,59.5642847,30.1275674
18,Соборная улица,188309,59.5659670,30.1267341
47,улица Карла Маркса,188309,59.5664158,30.1284454
44,улица Карла Маркса,188309,59.5665027,30.1273551
14,Соборная улица,188309,59.5659436,30.1254596
2,улица Горького,188309,59.5656162,30.1252201
17,Соборная улица,188309,59.5654382,30.1261680
15,Соборная улица,188309,59.5655293,30.1258489
13,Соборная улица,188309,59.5655955,30.1255905
12,Соборная улица,188309,59.5660814,30.1248466
19,Соборная улица,188309,59.5653237,30.1266824
44А,улица Карла Маркса,188309,59.5667664,30.1259047
45,улица Карла Маркса,188309,59.5660673,30.1282266
20А,Соборная улица,188300,59.5653191,30.1287211
22Б,Соборная улица,188309,59.5658336,30.1294109
20,Соборная улица,188309,59.5654965,30.1279769
53,улица Карла Маркса,188309,59.5673503,30.1291015
49,улица Карла Маркса,188309,59.5667890,30.1286836
49/51,улица Карла Маркса,188309,59.5670921,30.1288774
15,улица Урицкого,188309,59.5647972,30.1320213
16,улица Володарского,188309,59.5636831,30.1329114
20,улица Володарского,188309,59.5629572,30.1323139
14,улица Володарского,188309,59.5631824,30.1324609
9,улица Урицкого,188309,59.5634608,30.1311468
11А,улица Урицкого,188309,59.5637160,30.1317236
18,улица Достоевского,188309,59.5629460,30.1308979
13,улица Урицкого,188309,59.5642730,30.1316072
18,улица Володарского,188309,59.5634518,30.1331590
22М,улица Володарского,188309,59.5648863,30.1342129
28,Соборная улица,188309,59.5643445,30.1336199
29,Соборная улица,188309,59.5639944,30.1335367
15,улица Володарского,188309,59.5646171,30.1347936
17,улица Урицкого,188309,59.5657955,30.1328691
19,улица Урицкого,188309,59.5663585,30.1334008
16,улица Урицкого,188309,59.5663256,30.1320109
14,улица Урицкого,188309,59.5664204,30.1312145
12,улица Урицкого,188309,59.5657411,30.1318289
24Б,Соборная улица,188309,59.5658966,30.1310657
22,Соборная улица,188309,59.5660418,30.1302837
18А,улица Радищева,188309,59.5673723,30.1312749
5,улица Радищева,188309,59.5668101,30.1317894
18,улица Радищева,188309,59.5675170,30.1319936
18А,улица Радищева,188309,59.5674450,30.1306859
5А,улица Радищева,188309,59.5668910,30.1307798
24А,улица Володарского,188309,59.5655972,30.1342528
24,улица Володарского,188309,59.5660214,30.1348993
21А,улица Урицкого,188309,59.5672426,30.1338336
21,улица Урицкого,188309,59.5674528,30.1343932
24,улица Радищева,188309,59.5668057,30.1345188
20/18,улица Радищева,188309,59.5672870,30.1330169
22,улица Радищева,188309,59.5668843,30.1335088
1,улица Солодухина,188309,59.5620320,30.1381417
11,улица Солодухина,188309,59.5611340,30.1392270
3,Средний переулок,188309,59.5605050,30.1381775
13,Железнодорожная улица,188309,59.5609485,30.1377780
2,Средний переулок,188309,59.5602890,30.1374460
1,Средний переулок,188309,59.5605927,30.1375445
15,Железнодорожная улица,188309,59.5612579,30.1379008
17,Железнодорожная улица,188309,59.5617714,30.1382775
15,улица Солодухина,188309,59.5607441,30.1395000
5,Средний переулок,188309,59.5604340,30.1385965
7,Средний переулок,188309,59.5603955,30.1390865
14,улица Солодухина,188309,59.5609415,30.1400500
5,улица Солодухина,188309,59.5613280,30.1390170
3,улица Солодухина,188309,59.5614480,30.1385032
4,улица Солодухина,188309,59.5618358,30.1391955
10,улица Солодухина,188309,59.5612874,30.1397410
8,улица Солодухина,188309,59.5614725,30.1395040
6,улица Солодухина,188309,59.5616678,30.1393600
12,улица Солодухина,188309,59.5611285,30.1398525
6,улица Металлистов,188309,59.5640414,30.1406905
14,улица Чехова,188309,59.5653136,30.1380287
13,улица Радищева,188309,59.5655042,30.1362656
15,улица Радищева,188309,59.5653384,30.1370317
31,Железнодорожная улица,188309,59.5651255,30.1408800
35,Железнодорожная улица,188309,59.5654560,30.1411615
32А,Соборная улица,188309,59.5637220,30.1370767
4,улица Металлистов,188309,59.5640991,30.1403200
2,улица Металлистов,188309,59.5641838,30.1399090
34,Соборная улица,188309,59.5641766,30.1368692
29,Железнодорожная улица,188309,59.5647886,30.1409825
27,Железнодорожная улица,188309,59.5645594,30.1404705
17А,улица Володарского,188309,59.5647106,30.1360645
17,улица Чехова,188309,59.5675848,30.1397830
16,улица Чехова,188309,59.5668377,30.1389507
11,улица Радищева,188309,59.5656434,30.1355615
15/30,улица Чехова,188309,59.5659998,30.1385711
30А,улица Радищева,188309,59.5659607,30.1381772
26,улица Радищева,188309,59.5662876,30.1369704
23,улица Володарского,188309,59.5670707,30.1366169
28,улица Радищева,188309,59.5666224,30.1376656
16А,улица Чехова,188309,59.5671155,30.1398652
25А,улица Володарского,188309,59.5672522,30.1377562
19,улица Металлистов,188309,59.5631135,30.1436725
12,улица Металлистов,188309,59.5637470,30.1422455
10,улица Металлистов,188309,59.5638235,30.1418475
13,улица Металлистов,188309,59.5633545,30.1424530
11,улица Металлистов,188309,59.5634455,30.1420540
17,улица Металлистов,188309,59.5632055,30.1433130
15,улица Металлистов,188309,59.5632775,30.1429140
9,улица Металлистов,188309,59.5635375,30.1415900
14,улица Металлистов,188309,59.5636745,30.1426445
20,улица Металлистов,188309,59.5636745,30.1435315
18,улица Металлистов,188309,59.5634835,30.1434745
16,улица Металлистов,188309,59.5635905,30.1431095
8,улица Металлистов,188309,59.5639571,30.1411780
1,улица Правды,188309,59.5641795,30.1420990
5,улица Правды,188309,59.5640295,30.1430365
4,улица Правды,188309,59.5644030,30.1427605
6,улица Правды,188309,59.5643460,30.1431325
8,улица Правды,188309,59.5642735,30.1435065
3,улица Правды,188309,59.5641170,30.1424635
2,улица Правды,188309,59.5645135,30.1423485
10,улица Правды,188309,59.5642010,30.1439035
37,Железнодорожная улица,188309,59.5656240,30.1413540
41,Железнодорожная улица,188309,59.5661120,30.1419835
39,Железнодорожная улица,188309,59.5658260,30.1415985
35,улица Хохлова,188309,59.5748128,30.1243162
35,проспект 25 Октября,188309,59.5709870,30.1243450
6А,улица Киргетова,188309,59.5701086,30.1247992
5,улица Гагарина,188309,59.5725877,30.1244880
6,улица Гагарина,188309,59.5729412,30.1244917
2А,улица Гагарина,188309,59.5733584,30.1241851
32,проспект 25 Октября,188309,59.5720439,30.1244339
4,улица Крупской,188309,59.5732732,30.1137127
6,улица Хохлова,188309,59.5733008,30.1207425
4,улица Гагарина,188309,59.5733194,30.1230621
3,улица Коли Подрядчикова,188309,59.5733260,30.1188129
15,улица Хохлова,188309,59.5713818,30.1189270
2Б,проспект 25 Октября,188309,59.5680430,30.1191715
22,проспект 25 Октября,188309,59.5705543,30.1229918
4,улица Хохлова,188309,59.5727296,30.1196502
9,улица Хохлова,188309,59.5705071,30.1184295
11,улица Хохлова,188309,59.5705339,30.1168602
17,улица Хохлова,188309,59.5717719,30.1195623
2,Солнечный переулок,188309,59.5708497,30.1216500
1,Солнечный переулок,188309,59.5707223,30.1222845
5,улица Хохлова,188309,59.5694499,30.1192716
9А,улица Хохлова,188309,59.5708346,30.1191191
12Б,Солнечный переулок,188309,59.5704868,30.1201765
7,улица Хохлова,188309,59.5699085,30.1187004
33,проспект 25 Октября,188309,59.5705436,30.1240778
6А,улица Хохлова,188309,59.5700891,30.1162573
2,улица Хохлова,188309,59.5721865,30.1184764
2,улица Крупской,188309,59.5720178,30.1150360
1,улица Крупской,188309,59.5714581,30.1159959
3,улица Крупской,188309,59.5725288,30.1143442
2,улица Коли Подрядчикова,188309,59.5718783,30.1168898
4,улица Коли Подрядчикова,188309,59.5722567,30.1160089
3,улица Филиппова,188309,59.5729074,30.1158769
1,улица Коли Подрядчикова,188309,59.5727349,30.1183377
11,улица Хохлова,188309,59.5708858,30.1173584
27,проспект 25 Октября,188309,59.5696703,30.1242251
25,проспект 25 Октября,188309,59.5694304,30.1230630
14,проспект 25 Октября,188309,59.5692248,30.1218921
3,улица Хохлова,188309,59.5691942,30.1203503
12,проспект 25 Октября,188309,59.5689661,30.1216985
5,Солнечный переулок,188309,59.5702388,30.1217294
8,проспект 25 Октября,188309,59.5681608,30.1211207
10,проспект 25 Октября,188309,59.5685573,30.1213550
7А,улица Хохлова,188309,59.5700985,30.1199029
3А,улица Хохлова,188309,59.5695889,30.1206753
5А,улица Хохлова,188309,59.5698242,30.1197800
16Б,проспект 25 Октября,188309,59.5699666,30.1208950
6,Солнечный переулок,188309,59.5703350,30.1211468
23/2,проспект 25 Октября,188309,59.5691278,30.1231772
29,проспект 25 Октября,188309,59.5697053,30.1232597
20,проспект 25 Октября,188309,59.5703269,30.1227138
18,проспект 25 Октября,188309,59.5699356,30.1223821
16,проспект 25 Октября,188309,59.5694515,30.1219250
31,проспект 25 Октября,188309,59.5701190,30.1235688
24,проспект 25 Октября,188309,59.5717126,30.1221156
19,улица Хохлова,188309,59.5720738,30.1201465
1/25,улица Гагарина,188309,59.5731503,30.1215310
5А,улица Гагарина,188309,59.5724733,30.1232721
21,улица Хохлова,188309,59.5724601,30.1209742
4,Солнечный переулок,188309,59.5712002,30.1202939
23А,улица Хохлова,188309,59.5728599,30.1211350
3,Солнечный переулок,188309,59.5710276,30.1209152
28,проспект 25 Октября,188309,59.5715471,30.1239607
30А,проспект 25 Октября,188309,59.5720393,30.1229448
23,улица Хохлова,188309,59.5726675,30.1218272
24,проспект 25 Октября,188309,59.5709849,30.1233358
3,улица Гагарина,188309,59.5731116,30.1224874
5,улица Коли Подрядчикова,188309,59.5740158,30.1189568
7,улица Крупской,188309,59.5758745,30.1156740
6,улица Академика Константинова,188309,59.5761521,30.1176585
12,улица Коли Подрядчикова,188309,59.5763294,30.1187502
1,улица Академика Константинова,188309,59.5738099,30.1205251
5,улица Академика Константинова,188309,59.5746653,30.1183043
2,улица Филиппова,188309,59.5739399,30.1156259
5,улица Крупской,188309,59.5745216,30.1147931
9,улица Академика Константинова,188309,59.5753582,30.1164610
4,улица Филиппова,188309,59.5743825,30.1165559
1,улица Филиппова,188309,59.5735124,30.1154322
4А,улица Крупской,188309,59.5738858,30.1143032
5А,улица Крупской,188309,59.5747742,30.1156721
6,улица Крупской,188309,59.5754592,30.1146668
6А,улица Крупской,188309,59.5752096,30.1154049
8,улица Коли Подрядчикова,188309,59.5742533,30.1176242
3,улица Академика Константинова,188309,59.5751128,30.1176547
8,улица Крупской,188309,59.5763672,30.1155400
1А,улица Академика Константинова,188309,59.5742216,30.1195307
2,улица Академика Константинова,188309,59.5752504,30.1205753
7А,улица Коли Подрядчикова,188309,59.5752846,30.1193742
7,улица Коли Подрядчикова,188309,59.5755957,30.1201380
10,улица Коли Подрядчикова,188309,59.5749225,30.1199440
31,улица Хохлова,188309,59.5741665,30.1232713
29,улица Хохлова,188309,59.5738032,30.1228478
33,улица Хохлова,188309,59.5745178,30.1238354
27,улица Хохлова,188309,59.5736025,30.1224305
16/1,улица Хохлова,188309,59.5748917,30.1235503
22,улица Киргетова,188309,59.5732758,30.1294387
47,проспект 25 Октября,188309,59.5734057,30.1270349
40,проспект 25 Октября,188309,59.5736182,30.1254187
2,Рощинская улица,188309,59.5745988,30.1361502
23,улица Киргетова,188309,59.5729427,30.1305774
2В,Рощинская улица,188309,59.5740100,30.1356756
32,улица Урицкого,188309,59.5707121,30.1355624
31,улица Урицкого,188309,59.5694346,30.1354138
1А,Рощинская улица,188306,59.5735787,30.1413208
38,проспект 25 Октября,188309,59.5732026,30.1254100
2Б,Рощинская улица,188309,59.5736025,30.1366400
21,улица 7-й Армии,188309,59.5718880,30.1358688
10В,улица 7-й Армии,188309,59.5734861,30.1338546
23,улица Гагарина,188309,59.5706024,30.1318039
8,улица Киргетова,188309,59.5706698,30.1255782
13,улица Киргетова,188309,59.5706860,30.1278847
33/1,проспект 25 Октября,188309,59.5706282,30.1247900
59,улица Карла Маркса,188309,59.5684654,30.1298289
16,улица Гагарина,188309,59.5717276,30.1300216
24,улица Гагарина,188309,59.5705533,30.1345296
15,улица Киргетова,188309,59.5708415,30.1288730
65,улица Карла Маркса,188309,59.5705192,30.1312516
52,улица Карла Маркса,188309,59.5700463,30.1297217
54,улица Карла Маркса,188309,59.5705234,30.1297412
12,улица Киргетова,188309,59.5706953,30.1266113
50,улица Карла Маркса,188309,59.5693814,30.1284020
8,улица Радищева,188309,59.5682192,30.1277746
48,улица Карла Маркса,188309,59.5693478,30.1292688
9,улица Киргетова,188309,59.5695433,30.1275287
5,улица Киргетова,188309,59.5692287,30.1261521
4,улица Киргетова,188306,59.5693075,30.1254146
3,улица Киргетова,188309,59.5689282,30.1257442
6А,улица Радищева,188309,59.5683681,30.1265249
6,улица Радищева,188309,59.5685283,30.1256861
2,улица Киргетова,188309,59.5688452,30.1249068
11,улица Киргетова,188309,59.5701857,30.1271653
6,улица Киргетова,188309,59.5697739,30.1255288
7,улица Киргетова,188309,59.5697981,30.1267366
10,улица Киргетова,188309,59.5701346,30.1259283
55,улица Карла Маркса,188309,59.5681347,30.1296036
10,улица Радищева,188309,59.5687135,30.1279196
46,улица Карла Маркса,188309,59.5684442,30.1287000
11А,улица Киргетова,188309,59.5700303,30.1282048
15А,улица Киргетова,188309,59.5704274,30.1284622
43,проспект 25 Октября,188309,59.5728792,30.1271332
14,улица Киргетова,188309,59.5712402,30.1267209
11,улица Гагарина,188309,59.5720075,30.1265528
37,проспект 25 Октября,188309,59.5715804,30.1249549
13,улица Гагарина,188309,59.5717930,30.1273741
37А,проспект 25 Октября,188309,59.5720284,30.1256585
14,улица Гагарина,188309,59.5718473,30.1290878
12,улица Гагарина,188309,59.5720182,30.1284681
8,улица Гагарина,188309,59.5723360,30.1269055
10,улица Гагарина,188309,59.5721098,30.1276915
35А,проспект 25 Октября,188309,59.5709205,30.1246620
39,проспект 25 Октября,188300,59.5723646,30.1259638
41,проспект 25 Октября,188309,59.5728280,30.1262868
36,проспект 25 Октября,188309,59.5728374,30.1253374
34,проспект 25 Октября,188309,59.5724175,30.1248578
15,улица Гагарина,188309,59.5715381,30.1279655
17,улица Гагарина,188309,59.5713607,30.1285644
19,улица Гагарина,188309,59.5712307,30.1294319
45,проспект 25 Октября,188309,59.5729782,30.1277769
20,улица Киргетова,188309,59.5724812,30.1290712
21,улица Киргетова,188309,59.5723217,30.1296055
20А,улица Киргетова,188309,59.5727846,30.1284450
28,улица Урицкого,188309,59.5695548,30.1346789
61,улица Карла Маркса,188309,59.5691658,30.1303164
20А,улица Урицкого,188300,59.5693591,30.1333817
22,улица Урицкого,188309,59.5681917,30.1325004
14,улица Радищева,188309,59.5681465,30.1308530
57,улица Карла Маркса,188309,59.5685075,30.1303206
61А,улица Карла Маркса,188309,59.5690530,30.1312963
63,улица Карла Маркса,188309,59.5698694,30.1309859
29,Инженерный переулок,188309,59.5690355,30.1352061
24,улица Урицкого,188309,59.5680694,30.1335800
25,улица Урицкого,188309,59.5682600,30.1346887
23,улица Урицкого,188309,59.5679442,30.1343081
26,улица Урицкого,188309,59.5687462,30.1340768
27,улица Урицкого,188309,59.5686070,30.1351247
30,улица Урицкого,188309,59.5700603,30.1346269
25,улица Гагарина,188309,59.5698888,30.1336503
73,улица Карла Маркса,188309,59.5724444,30.1329583
66,улица Карла Маркса,188309,59.5728854,30.1321855
21А,улица Киргетова,188309,59.5721134,30.1305709
69,улица Карла Маркса,188309,59.5714907,30.1328714
64,улица Карла Маркса,188309,59.5721933,30.1315231
15А,улица 7-й Армии,188309,59.5719403,30.1337803
71,улица Карла Маркса,188309,59.5718869,30.1324336
20,улица Гагарина,188309,59.5709649,30.1322485
62,улица Карла Маркса,188309,59.5718411,30.1311589
18,улица Гагарина,188309,59.5714354,30.1306575
67,улица Карла Маркса,188309,59.5713555,30.1318830
21,улица Гагарина,188309,59.5709418,30.1302637
19,улица 7-й Армии,188309,59.5717996,30.1348973
22,улица Гагарина,188309,59.5708433,30.1332875
77,улица Карла Маркса,188309,59.5724149,30.1338207
75,улица Карла Маркса,188309,59.5728249,30.1332783
15,улица 7-й Армии,188309,59.5725605,30.1345067
44,проспект 25 Октября,188300,59.5760150,30.1304983
22А,улица Киргетова,188309,59.5740212,30.1299195
28,улица Киргетова,188309,59.5737733,30.1295260
45А,проспект 25 Октября,188309,59.5736776,30.1283129
42,проспект 25 Октября,188309,59.5746264,30.1277246
49,проспект 25 Октября,188309,59.5740289,30.1278023
53,проспект 25 Октября,188309,59.5749204,30.1295850
51,проспект 25 Октября,188309,59.5745209,30.1287459
10Г,улица 7-й Армии,188309,59.5735893,30.1342351
55,проспект 25 Октября,188309,59.5757331,30.1310948
9,улица 7-й Армии,188309,59.5736655,30.1322661
10А,улица 7-й Армии,188309,59.5740660,30.1339707
25,улица Киргетова,188309,59.5737006,30.1312044
10,улица 7-й Армии,188309,59.5738029,30.1329379
19,улица Чехова,188309,59.5691939,30.1409558
35,улица Урицкого,188309,59.5704730,30.1367327
23/38,улица 7-й Армии,188309,59.5707320,30.1380500
37,улица Володарского,188309,59.5694765,30.1384899
39,улица Володарского,188309,59.5693049,30.1390987
34,улица Володарского,188309,59.5699309,30.1377704
35,улица Володарского,188309,59.5689301,30.1382742
29А,улица Володарского,188309,59.5682946,30.1376942
29,улица Володарского,188309,59.5686093,30.1377200
32,улица Володарского,188309,59.5688129,30.1364297
36,улица Володарского,188309,59.5704127,30.1374389
1,Инженерный переулок,188309,59.5695597,30.1368678
33,улица Володарского,188306,59.5683173,30.1392198
31,улица Володарского,188309,59.5684624,30.1384558
35А,улица Володарского,188309,59.5688366,30.1396025
25/43,улица 7-й Армии,188309,59.5701098,30.1393261
41,улица Володарского,188309,59.5698192,30.1385385
27/20,улица 7-й Армии,188309,59.5695737,30.1403858
34,улица Урицкого,188309,59.5714396,30.1361008
4А,улица Волкова,188309,59.5719831,30.1406765
22,улица 7-й Армии,188309,59.5716454,30.1374153
12А,улица 7-й Армии,188309,59.5721058,30.1366175
37,улица Урицкого,188309,59.5711735,30.1369413
9,Рощинская улица,188309,59.5760599,30.1364135
9,Рощинская улица,188309,59.5755210,30.1366650
1,Рощинская улица,188309,59.5739215,30.1396168
5,Рощинская улица,188309,59.5751319,30.1396639
1 к1,Рощинская улица,188309,59.5744335,30.1385999
2А,Рощинская улица,188309,59.5739041,30.1374653
9Г,Рощинская улица,188309,59.5754544,30.1382465
9,Рощинская улица,188309,59.5751629,30.1377246
35В,проспект 25 Октября,188309,59.5708692,30.1249734
5Б,улица 120-й Гатчинской Дивизии,188300,59.5695377,30.0631313
48,улица Куприна,188300,59.5701049,30.0624775
47А,улица Куприна,188300,59.5703355,30.0631122
15А,Рощинская улица,188300,59.5816054,30.1322074
33А,улица Куприна,188300,59.5711180,30.0635571
6,улица Коли Подрядчикова,188309,59.5731679,30.1170859
9,улица Радищева,188309,59.5663293,30.1342972
4А,улица Филиппова,188309,59.5748653,30.1167823
3А,улица Изотова,188300,59.5815181,30.1264160
10Б,улица 7-й Армии,188309,59.5745983,30.1350088
6А,улица 7-й Армии,188300,59.5771159,30.1254751
13А,Рощинская улица,188300,59.5779223,30.1323305
46,проспект 25 Октября,188300,59.5781772,30.1339769
52Б,проспект 25 Октября,188300,59.5803000,30.1367720
4,улица Чехова,188309,59.5573824,30.1335471
19,улица Чкалова,188309,59.5586880,30.1263504
15,улица Леонова,188309,59.5598044,30.1333836
8,улица Чехова,188309,59.5604304,30.1339426
12 к2,улица Изотова,188300,59.5830933,30.1263460
6,улица Изотова,188300,59.5820811,30.1265067
5,Красносельское шоссе,188300,59.5852892,30.1389277
7/1 Б,Варшавская улица,188300,59.5524207,30.1301575
17Б к1,Рощинская улица,188300,59.5810118,30.1288450
9,Орлова роща,188309,59.5981202,30.1218388
8А,улица Генерала Кныша,188309,59.5622546,30.0948821
8А,улица Генерала Кныша,188309,59.5620132,30.0958561
1,Охотничий переулок,188300,59.5710366,30.0567218
10,Дачный переулок,188300,59.5724988,30.0553353
10,Охотничий переулок,188300,59.5713173,30.0550036
11,Амурский переулок,188300,59.5718530,30.0576317
11,Охотничий переулок,188300,59.5716557,30.0547841
12,Дачный переулок,188300,59.5723458,30.0556636
12,Охотничий переулок,188300,59.5714794,30.0545159
13,Охотничий переулок,188300,59.5717735,30.0543833
14,Охотничий переулок,188300,59.5715528,30.0542738
15,Охотничий переулок,188300,59.5718878,30.0540013
15,улица 120-й Гатчинской Дивизии,188300,59.5706113,30.0561618
16,Охотничий переулок,188300,59.5716922,30.0537743
17,улица 120-й Гатчинской Дивизии,188300,59.5707563,30.0557112
18,Кузнецкий переулок,188300,59.5739057,30.0579908
19,улица 120-й Гатчинской Дивизии,188300,59.5708274,30.0554857
2,Охотничий переулок,188300,59.5708608,30.0564873
20,Кузнецкий переулок,188300,59.5738619,30.0575432
20,улица Бородина,188300,59.5712754,30.0569982
21,улица 120-й Гатчинской Дивизии,188300,59.5709511,30.0550799
22,улица Бородина,188300,59.5714331,30.0565068
23,улица 120-й Гатчинской Дивизии,188300,59.5710639,30.0547240
23,улица Бородина,188300,59.5715297,30.0572861
24,улица Бородина,188300,59.5715462,30.0561781
25,улица 120-й Гатчинской Дивизии,188300,59.5712215,30.0542420
25,улица Бородина,188300,59.5716604,30.0568799
26,улица Бородина,188300,59.5716553,30.0558077
27,улица 120-й Гатчинской Дивизии,188300,59.5712980,30.0539454
27,улица Бородина,188300,59.5717854,30.0565412
28,улица Бородина,188300,59.5717953,30.0554055
29,улица 120-й Гатчинской Дивизии,188300,59.5714591,30.0534941
29,улица Бородина,188300,59.5718939,30.0561845
3,Дачный переулок,188300,59.5728283,30.0564866
3,Охотничий переулок,188300,59.5712103,30.0562239
30,улица Бородина,188300,59.5718968,30.0550436
31,улица Бородина,188300,59.5720208,30.0558049
32,улица Бородина,188300,59.5719783,30.0547601
33,улица Бородина,188300,59.5721324,30.0554361
34,улица Бородина,188300,59.5721239,30.0543265
35,улица Бородина,188300,59.5722678,30.0550166
4,Охотничий переулок,188300,59.5709957,30.0559614
49,Пушкинская улица,188300,59.5736224,30.0580716
5,Дачный переулок,188300,59.5725660,30.0564314
5,Охотничий переулок,188300,59.5712693,30.0559688
50,Пушкинская улица,188300,59.5732876,30.0580722
51,Пушкинская улица,188300,59.5735942,30.0576612
52,Пушкинская улица,188300,59.5732713,30.0576587
53,Пушкинская улица,188300,59.5735658,30.0572444
54,Пушкинская улица,188300,59.5732326,30.0570007
55,Пушкинская улица,188300,59.5735272,30.0562926
56,Пушкинская улица,188300,59.5731772,30.0563862
58,Пушкинская улица,188300,59.5731569,30.0558227
6,Охотничий переулок,188300,59.5710842,30.0557764
7,Охотничий переулок,188300,59.5714057,30.0555561
8,Охотничий переулок,188300,59.5712557,30.0552696
9,Дачный переулок,188300,59.5722114,30.0560689
9,Охотничий переулок,188300,59.5714957,30.0552148
1,Рыбачий переулок,188300,59.5704202,30.0607414
10,Амурский переулок,188300,59.5713478,30.0592796
10,Ангарский переулок,188300,59.5729415,30.0608582
10,Рыбачий переулок,188300,59.5710629,30.0617589
10,улица Бородина,188300,59.5707146,30.0588574
10,улица Глинки,188300,59.5715579,30.0620276
11,Подольская улица,188300,59.5723739,30.0627096
11,улица 120-й Гатчинской Дивизии,188300,59.5702871,30.0572323
11,улица Бородина,188300,59.5708372,30.0594837
11,улица Глинки,188300,59.5716487,30.0606525
11,улица Крылова,188300,59.5725551,30.0606589
12,Амурский переулок,188300,59.5714872,30.0589386
12,Ангарский переулок,188300,59.5729126,30.0605359
12,Рыбачий переулок,188300,59.5712068,30.0620736
12,улица Бородина,188300,59.5707870,30.0586067
12,улица Глинки,188300,59.5711668,30.0630151
13,Подольская улица,188300,59.5722566,30.0628599
13,улица 120-й Гатчинской Дивизии,188300,59.5704582,30.0566704
13,улица Бородина,188300,59.5709465,30.0591794
13,улица Глинки,188300,59.5715603,30.0609457
13,улица Крылова,188300,59.5724944,30.0602502
14,Амурский переулок,188300,59.5715431,30.0586926
14,Ангарский переулок,188300,59.5728880,30.0601231
14,улица Бородина,188300,59.5709231,30.0582021
15,Подольская улица,188300,59.5721049,30.0630636
15,улица Бородина,188300,59.5710419,30.0588127
15,улица Глинки,188300,59.5713942,30.0613978
15,улица Крылова,188300,59.5724716,30.0599603
16,Амурский переулок,188300,59.5716959,30.0582303
16,Ангарский переулок,188300,59.5728578,30.0598625
16,улица Бородина,188300,59.5709971,30.0579320
16,улица Глинки,188300,59.5714430,30.0624015
17,Подольская улица,188300,59.5719707,30.0632170
17,улица Бородина,188300,59.5711363,30.0585571
17,улица Глинки,188300,59.5713318,30.0617314
18,Ангарский переулок,188300,59.5728086,30.0593055
18,Рыбачий переулок,188300,59.5715645,30.0628812
19,Подольская улица,188300,59.5717681,30.0633481
19,улица Бородина,188300,59.5712331,30.0582444
2,Амурский переулок,188300,59.5719383,30.0585820
2,Ангарский переулок,188300,59.5730706,30.0624602
2,Рыбачий переулок,188300,59.5708125,30.0609674
2,улица Бородина,188300,59.5702386,30.0602437
2,улица Крылова,188300,59.5721607,30.0605389
2/5,Рыбачий переулок,188300,59.5705859,30.0603633
20,Ангарский переулок,188300,59.5727655,30.0589153
21,Подольская улица,188300,59.5716068,30.0636022
26/21,улица Гречишкина,188300,59.5713751,30.0578144
28/18,улица Гречишкина,188300,59.5711081,30.0575009
3,Подольская улица,188300,59.5726937,30.0625246
3,Рыбачий переулок,188300,59.5705447,30.0610065
3,улица Глинки,188300,59.5721859,30.0590922
30,улица Гречишкина,188300,59.5708578,30.0571853
32,улица Гречишкина,188300,59.5707281,30.0570338
33,улица Куприна,188300,59.5712741,30.0640013
35,улица Куприна,188300,59.5708080,30.0627308
37,улица Куприна,188300,59.5706783,30.0623808
39,улица Куприна,188300,59.5705555,30.0620700
4,Амурский переулок,188300,59.5710189,30.0603536
4,Амурский переулок,188300,59.5715559,30.0595498
4,Ангарский переулок,188300,59.5730217,30.0619492
4,Рыбачий переулок,188300,59.5707218,30.0607391
4,улица Бородина,188300,59.5703870,30.0598082
4,улица Глинки,188300,59.5721147,30.0613831
4,улица Крылова,188300,59.5722845,30.0611533
41,улица Куприна,188300,59.5704019,30.0616464
43,улица Куприна,188300,59.5702112,30.0611397
45,улица Куприна,188300,59.5700908,30.0605850
47,улица Куприна,188300,59.5699046,30.0602846
49,улица Куприна,188300,59.5698003,30.0599535
5,Амурский переулок,188300,59.5706233,30.0612160
5,улица Глинки,188300,59.5719704,30.0596351
51,улица Куприна,188300,59.5695930,30.0594526
6,Амурский переулок,188300,59.5711521,30.0599321
6,Амурский переулок,188300,59.5713509,30.0601992
6,Ангарский переулок,188300,59.5730077,30.0615853
6,улица Бородина,188300,59.5705251,30.0594296
6,улица Глинки,188300,59.5718831,30.0610578
6,улица Крылова,188300,59.5723388,30.0616512
7,Рыбачий переулок,188300,59.5707530,30.0616227
7,улица Бородина,188300,59.5706611,30.0600820
7,улица Глинки,188300,59.5718695,30.0599432
7,улица Крылова,188300,59.5726456,30.0618842
8,Амурский переулок,188300,59.5712822,30.0595510
8,Амурский переулок,188300,59.5709834,30.0614295
8,Ангарский переулок,188300,59.5729854,30.0612263
8,улица Бородина,188300,59.5705939,30.0591740
8,улица Глинки,188300,59.5716883,30.0616991
8,улица Крылова,188300,59.5723879,30.0622331
9,улица 120-й Гатчинской Дивизии,188300,59.5697502,30.0588972
9,улица Бородина,188300,59.5707545,30.0597962
9,улица Глинки,188300,59.5717796,30.0602386
9,улица Крылова,188300,59.5726042,30.0613428
1/5,Ангарский переулок,188300,59.5732680,30.0623807
10,Кузнецкий переулок,188300,59.5741211,30.0604517
10,улица Островского,188300,59.5745913,30.0598936
11,Ангарский переулок,188300,59.5731853,30.0611161
11,Заводская улица,188300,59.5729578,30.0641168
11,Кузнецкий переулок,188300,59.5742434,30.0594744
12,Кузнецкий переулок,188300,59.5740869,30.0599893
13,Ангарский переулок,188300,59.5731327,30.0604349
13,Заводская улица,188300,59.5731196,30.0639092
13,Кузнецкий переулок,188300,59.5741915,30.0589737
14,Кузнецкий переулок,188300,59.5740214,30.0594196
15,Ангарский переулок,188300,59.5730798,30.0597459
15,Заводская улица,188300,59.5733677,30.0636246
15,Кузнецкий переулок,188300,59.5741397,30.0585258
16,Кузнецкий переулок,188300,59.5739793,30.0589547
17,Ангарский переулок,188300,59.5729818,30.0589064
17,Заводская улица,188300,59.5735894,30.0633044
2,Кузнецкий переулок,188300,59.5742461,30.0620239
2,Подольская улица,188300,59.5731455,30.0630396
2,улица Островского,188300,59.5747714,30.0618255
21,Заводская улица,188300,59.5740810,30.0626914
23,Заводская улица,188300,59.5743218,30.0623580
25,Заводская улица,188300,59.5745314,30.0620453
27,улица Куприна,188300,59.5718312,30.0655062
29,Пушкинская улица,188300,59.5739851,30.0621073
29,улица Куприна,188300,59.5716825,30.0650806
30,Пушкинская улица,188300,59.5736534,30.0622432
31,Пушкинская улица,188300,59.5739429,30.0617596
31,улица Куприна,188300,59.5714771,30.0645222
32,Пушкинская улица,188300,59.5736230,30.0617207
33,Пушкинская улица,188300,59.5739040,30.0611827
34,Пушкинская улица,188300,59.5736186,30.0613898
35,Пушкинская улица,188300,59.5738607,30.0607362
36,Пушкинская улица,188300,59.5735493,30.0609886
37,Пушкинская улица,188300,59.5738217,30.0602729
38,Пушкинская улица,188300,59.5735172,30.0606041
39,Пушкинская улица,188300,59.5738078,30.0599638
4,Кузнецкий переулок,188300,59.5742323,30.0617328
4,Подольская улица,188300,59.5725518,30.0633698
4,улица Островского,188300,59.5746953,30.0611203
40,Пушкинская улица,188300,59.5734826,30.0603005
41,Пушкинская улица,188300,59.5737782,30.0595171
42,Пушкинская улица,188300,59.5734810,30.0600066
43,Пушкинская улица,188300,59.5737291,30.0591764
44,Пушкинская улица,188300,59.5734509,30.0596120
46,Пушкинская улица,188300,59.5734234,30.0593525
47,Пушкинская улица,188300,59.5737273,30.0587133
48,Пушкинская улица,188300,59.5733841,30.0587264
5,Заводская улица,188300,59.5722156,30.0650256
6,Кузнецкий переулок,188300,59.5741977,30.0613340
6,улица Островского,188300,59.5746422,30.0607251
7,Заводская улица,188300,59.5725195,30.0646337
7,Кузнецкий переулок,188300,59.5743552,30.0604432
8,Кузнецкий переулок,188300,59.5741475,30.0608783
8,улица Островского,188300,59.5745836,30.0603580
9,Ангарский переулок,188300,59.5732209,30.0618530
9,Заводская улица,188300,59.5727896,30.0643200
9,Кузнецкий переулок,188300,59.5743165,30.0600544
12,улица Гречишкина,188300,59.5731895,30.0587096
14,Зелёный переулок,188300,59.5741945,30.0640585
16,Зелёный переулок,188300,59.5743884,30.0637994
18,Зелёный переулок,188300,59.5745492,30.0635976
22,Заводская улица,188300,59.5742075,30.0633891
24,Заводская улица,188300,59.5744928,30.0629890
26,Заводская улица,188300,59.5747233,30.0629103
1,Зелёный переулок,188300,59.5732815,30.0657867
10,Заводская улица,188300,59.5727024,30.0653023
10,Зелёный переулок,188300,59.5737153,30.0646883
11,Загородная улица,188300,59.5738220,30.0666079
11,Литейная улица,188300,59.5734779,30.0664390
11,улица Куприна,188300,59.5732239,30.0693090
12,Заводская улица,188300,59.5729618,30.0648780
12,Загородная улица,188300,59.5737443,30.0659695
12,Зелёный переулок,188300,59.5739297,30.0644048
12,Литейная улица,188300,59.5736891,30.0683347
13,Загородная улица,188300,59.5740457,30.0663398
13,Зелёный переулок,188300,59.5745734,30.0640321
13,Литейная улица,188300,59.5730494,30.0651728
13,Литейная улица,188300,59.5733103,30.0661344
13,улица Куприна,188300,59.5731008,30.0689806
14,Заводская улица,188300,59.5731292,30.0647042
15,Загородная улица,188300,59.5742303,30.0661866
15,улица Куприна,188300,59.5730391,30.0687548
16,Заводская улица,188300,59.5733381,30.0644400
16,Литейная улица,188300,59.5734789,30.0675856
16,Пушкинская улица,188300,59.5743514,30.0658650
17,Зелёный переулок,188300,59.5748554,30.0637208
17,улица Куприна,188300,59.5728964,30.0683964
18,Заводская улица,188300,59.5735733,30.0641276
18,Загородная улица,188300,59.5744661,30.0650155
18,Литейная улица,188300,59.5733635,30.0671778
18,Пушкинская улица,188300,59.5741962,30.0653122
19,улица Куприна,188300,59.5725655,30.0675266
2,Загородная улица,188300,59.5728147,30.0671878
2,Зелёный переулок,188300,59.5731327,30.0653987
20,Загородная улица,188300,59.5746565,30.0648580
20,Литейная улица,188300,59.5731754,30.0666409
20,Пушкинская улица,188300,59.5741202,30.0650633
20/28,Пушкинская улица,188300,59.5737011,30.0639549
21,улица Куприна,188300,59.5723842,30.0669687
22,Литейная улица,188300,59.5730222,30.0661942
22,Пушкинская улица,188300,59.5740446,30.0647406
23,улица Куприна,188300,59.5722689,30.0665326
24,Пушкинская улица,188300,59.5739150,30.0640473
25,улица Куприна,188300,59.5720573,30.0660884
26,Пушкинская улица,188300,59.5738362,30.0638563
3,Загородная улица,188300,59.5727740,30.0679710
3,Зелёный переулок,188300,59.5734410,30.0656181
4,Загородная улица,188300,59.5729712,30.0669570
4,Зелёный переулок,188300,59.5732936,30.0651743
5,Загородная улица,188300,59.5729368,30.0677106
5,Зелёный переулок,188300,59.5735806,30.0653367
5,Литейная улица,188300,59.5738985,30.0676648
6,Заводская улица,188300,59.5723058,30.0657810
6,Загородная улица,188300,59.5731403,30.0674628
6,Зелёный переулок,188300,59.5734223,30.0650246
7,Зелёный переулок,188300,59.5737679,30.0651380
7,Литейная улица,188300,59.5735962,30.0668195
7,улица Куприна,188300,59.5739067,30.0704328
8,Заводская улица,188300,59.5724838,30.0655434
8,Зелёный переулок,188300,59.5735511,30.0648439
9,Зелёный переулок,188300,59.5743230,30.0644752
9,улица Куприна,188300,59.5734743,30.0697911
1,улица Куприна,188300,59.5745139,30.0728855
3,Заводская улица,188300,59.5710579,30.0663341
3А,улица 120-й Гатчинской Дивизии,188300,59.5685662,30.0640966
3,улица Куприна,188300,59.5743703,30.0725028
32,улица Беляева,188300,59.5704907,30.0671270
4,Южная улица,188300,59.5749518,30.0723240
40,улица Воскова,188300,59.5748789,30.0736000
42,улица Воскова,188300,59.5752673,30.0730280
40,улица Куприна,188300,59.5710688,30.0650344
42,улица Куприна,188300,59.5706570,30.0639279
48,улица Куприна,188300,59.5696564,30.0620833
5,улица 120-й Гатчинской Дивизии,188300,59.5690010,30.0626873
51,Заводская улица,188300,59.5690192,30.0683648
57,улица Рысева,188300,59.5683368,30.0654226
5А,улица 120-й Гатчинской Дивизии,188300,59.5692752,30.0638767
7,улица 120-й Гатчинской Дивизии,188300,59.5692697,30.0612629
1,улица Кустова,188300,59.5721534,30.0777791
1,улица Рошаля,188300,59.5700898,30.0751913
1,улица Рысева,188300,59.5715086,30.0789091
10,улица Беляева,188300,59.5735281,30.0744335
10,улица Воскова,188300,59.5721820,30.0781364
10,улица Кустова,188300,59.5716333,30.0771228
10,улица Рысева,188300,59.5710446,30.0779369
11,улица Беляева,188300,59.5712867,30.0679954
11,улица Кустова,188300,59.5716742,30.0755192
11,улица Рошаля,188300,59.5728948,30.0727672
11,улица Рыбакова,188300,59.5704281,30.0795227
11,улица Рысева,188300,59.5712077,30.0770547
12,улица Беляева,188300,59.5732264,30.0746527
12,улица Воскова,188300,59.5723619,30.0778995
12,улица Куприна,188300,59.5732729,30.0706516
12,улица Кустова,188300,59.5715663,30.0768114
12,улица Рошаля,188300,59.5718523,30.0727116
12,улица Рысева,188300,59.5710083,30.0776499
12А,улица Рошаля,188300,59.5722086,30.0724636
13,улица Кустова,188300,59.5715837,30.0751342
13,улица Рошаля,188300,59.5732978,30.0723490
13,улица Рыбакова,188300,59.5703636,30.0792194
13,улица Рысева,188300,59.5711142,30.0765938
14,улица Беляева,188300,59.5727277,30.0747421
14,улица Воскова,188300,59.5726752,30.0773875
14,улица Куприна,188300,59.5729287,30.0696778
14,улица Кустова,188300,59.5714564,30.0762747
14,улица Рысева,188300,59.5709378,30.0773315
15,улица Кустова,188300,59.5715367,30.0746869
15,улица Рошаля,188300,59.5737606,30.0719079
15,улица Рыбакова,188300,59.5702546,30.0785498
15,улица Рысева,188300,59.5710179,30.0762289
16,улица Воскова,188300,59.5728015,30.0771963
16,улица Куприна,188300,59.5727997,30.0693757
16,улица Кустова,188300,59.5713891,30.0760958
14,улица Рошаля,188300,59.5726030,30.0717847
16,улица Рысева,188300,59.5708659,30.0770229
17,улица Кустова,188300,59.5715192,30.0741404
17,улица Рыбакова,188300,59.5701831,30.0781260
18,улица Беляева,188300,59.5719078,30.0715153
18,улица Воскова,188300,59.5729496,30.0768698
18,улица Куприна,188300,59.5726251,30.0688838
16,улица Рошаля,188300,59.5731156,30.0714941
18,улица Рысева,188300,59.5706885,30.0765096
19,улица Кустова,188300,59.5713390,30.0733351
19,улица Рыбакова,188300,59.5701115,30.0776819
2,улица Беляева,188300,59.5744093,30.0737760
2А,улица Воскова,188300,59.5708022,30.0805284
2,улица Рысева,188300,59.5713293,30.0795861
2/43,Заводская улица,188300,59.5697436,30.0685971
20,улица Беляева,188300,59.5717915,30.0711597
20,улица Воскова,188300,59.5731619,30.0766911
20,улица Куприна,188300,59.5725115,30.0685330
20,улица Кустова,188300,59.5713554,30.0753591
21,улица Кустова,188300,59.5711886,30.0730559
21,улица Рыбакова,188300,59.5700604,30.0773186
21,улица Рысева,188300,59.5709881,30.0758979
22,улица Беляева,188300,59.5716604,30.0706854
22,улица Воскова,188300,59.5732687,30.0763755
22,улица Рысева,188300,59.5706753,30.0759612
23,улица Кустова,188300,59.5710287,30.0728302
23,улица Рыбакова,188300,59.5700948,30.0770042
23,улица Рысева,188300,59.5709732,30.0752483
24,улица Беляева,188300,59.5711247,30.0695803
24,улица Воскова,188300,59.5734415,30.0761798
24,улица Кустова,188300,59.5713087,30.0747972
24,улица Рысева,188300,59.5706192,30.0755069
25,улица Кустова,188300,59.5708819,30.0724818
25,улица Рыбакова,188300,59.5699766,30.0766470
25,улица Рысева,188300,59.5708829,30.0745965
26,улица Беляева,188300,59.5710806,30.0689753
26,улица Воскова,188300,59.5736111,30.0758968
26,улица Кустова,188300,59.5712854,30.0743827
26,улица Рысева,188300,59.5705958,30.0748282
27,улица Кустова,188300,59.5707807,30.0722236
27,улица Рыбакова,188300,59.5697913,30.0760573
28,улица Беляева,188300,59.5708633,30.0682355
28,улица Воскова,188300,59.5737517,30.0756564
28,улица Кустова,188300,59.5709454,30.0732965
29,улица Кустова,188300,59.5706532,30.0718703
29,улица Рыбакова,188300,59.5698412,30.0754864
29,улица Рысева,188300,59.5705069,30.0735732
3,улица Беляева,188300,59.5734358,30.0733428
3,улица Кустова,188300,59.5719466,30.0771059
3,улица Рыбакова,188300,59.5706683,30.0808131
30,улица Беляева,188300,59.5706831,30.0676493
30,улица Воскова,188300,59.5738494,30.0753901
30,улица Кустова,188300,59.5707442,30.0728699
31,улица Кустова,188300,59.5704165,30.0714011
31,улица Рысева,188300,59.5704684,30.0731940
32,улица Воскова,188300,59.5741165,30.0750489
33,улица Кустова,188300,59.5703040,30.0709024
33,улица Рысева,188300,59.5700941,30.0728399
34,улица Воскова,188300,59.5742324,30.0748478
34,улица Кустова,188300,59.5705415,30.0724696
35,улица Кустова,188300,59.5700791,30.0703556
35,улица Рысева,188300,59.5699651,30.0725779
38,улица Воскова,188300,59.5743842,30.0745958
37,улица Кустова,188300,59.5699345,30.0699806
37,улица Рысева,188300,59.5701249,30.0722091
38А/2А,улица Воскова,188300,59.5746580,30.0742045
39,улица Кустова,188300,59.5698341,30.0696286
39,улица Рысева,188300,59.5698299,30.0720190
4,улица Беляева,188300,59.5742311,30.0740259
2Б,улица Воскова,188300,59.5711402,30.0799718
4,улица Куприна,188300,59.5742050,30.0730151
4,улица Кустова,188300,59.5718192,30.0782047
4,улица Рысева,188300,59.5711914,30.0793545
40,улица Кустова,188300,59.5703820,30.0721072
41,улица Кустова,188300,59.5696919,30.0692345
41,улица Рысева,188300,59.5700223,30.0713466
42,улица Кустова,188300,59.5702114,30.0715983
43,улица Рысева,188300,59.5696490,30.0715881
44,улица Кустова,188300,59.5698305,30.0707984
45,улица Рысева,188300,59.5694252,30.0707076
46,улица Кустова,188300,59.5695827,30.0697739
5,улица Кустова,188300,59.5718503,30.0766002
5,улица Рыбакова,188300,59.5706185,30.0806280
5,улица Рысева,188300,59.5714765,30.0783440
6,улица Беляева,188300,59.5738683,30.0739395
6,улица Воскова,188300,59.5715874,30.0792267
6,улица Куприна,188300,59.5739428,30.0725225
6,улица Рысева,188300,59.5710678,30.0788833
1Б,улица Беляева,188300,59.5727748,30.0731827
7,улица Кустова,188300,59.5719155,30.0760502
7,улица Рыбакова,188300,59.5705636,30.0803009
7,улица Рысева,188300,59.5713784,30.0779766
8,улица Беляева,188300,59.5740145,30.0746634
8,улица Воскова,188300,59.5719534,30.0786193
8,улица Кустова,188300,59.5717334,30.0774323
8,улица Кустова,188300,59.5718140,30.0777968
8,улица Рысева,188300,59.5711612,30.0784924
9,улица Беляева,188300,59.5715790,30.0692909
9,улица Кустова,188300,59.5717829,30.0756147
9,улица Рыбакова,188300,59.5705531,30.0799327
9,улица Рысева,188300,59.5713013,30.0774189
1,улица Беляева,188300,59.5730581,30.0732259
25,улица Комсомольцев Подпольщиков,188300,59.5681142,30.0772819
27,улица Комсомольцев Подпольщиков,188300,59.5679559,30.0767011
29,улица Комсомольцев Подпольщиков,188300,59.5678281,30.0762943
31,улица Комсомольцев Подпольщиков,188300,59.5676742,30.0758263
32,улица Рысева,188300,59.5687951,30.0698625
33,улица Комсомольцев Подпольщиков,188300,59.5675327,30.0753246
35,улица Комсомольцев Подпольщиков,188300,59.5673762,30.0748371
37,улица Комсомольцев Подпольщиков,188300,59.5672125,30.0743640
39,улица Комсомольцев Подпольщиков,188300,59.5670324,30.0739027
40,улица Рысева,188300,59.5679481,30.0673573
38,улица Рысева,188300,59.5678296,30.0681450
69А,проспект 25 Октября,188300,59.5792378,30.1381075
75,проспект 25 Октября,188306,59.5794334,30.1392254
1,улица Комсомольцев Подпольщиков,188300,59.5695807,30.0840319
10,улица Комсомольцев Подпольщиков,188300,59.5687443,30.0821363
11,Покровская улица,188300,59.5682077,30.0816794
11,улица Комсомольцев Подпольщиков,188300,59.5690408,30.0813827
12,улица Комсомольцев Подпольщиков,188300,59.5686163,30.0815453
13,Покровская улица,188300,59.5681574,30.0811727
13,улица Комсомольцев Подпольщиков,188300,59.5689357,30.0808443
14,Покровская улица,188300,59.5677999,30.0807722
14,улица Комсомольцев Подпольщиков,188300,59.5685005,30.0809384
15,Покровская улица,188300,59.5680399,30.0806238
15,улица Комсомольцев Подпольщиков,188300,59.5688179,30.0803326
16,Покровская улица,188300,59.5676973,30.0804063
16,улица Комсомольцев Подпольщиков,188300,59.5683980,30.0804197
17,Покровская улица,188300,59.5679876,30.0803281
17,улица Комсомольцев Подпольщиков,188300,59.5687124,30.0798154
18,Покровская улица,188300,59.5676671,30.0800385
18,улица Комсомольцев Подпольщиков,188300,59.5683407,30.0801243
19,Покровская улица,188300,59.5679384,30.0799528
19,улица Комсомольцев Подпольщиков,188300,59.5686628,30.0795541
2,Покровская улица,188300,59.5677786,30.0832993
2,улица Комсомольцев Подпольщиков,188300,59.5690956,30.0838158
20,улица Комсомольцев Подпольщиков,188300,59.5682382,30.0796766
21,улица Комсомольцев Подпольщиков,188300,59.5686033,30.0792831
22,улица Комсомольцев Подпольщиков,188300,59.5681613,30.0792573
23,улица Комсомольцев Подпольщиков,188300,59.5685164,30.0787399
24,улица Комсомольцев Подпольщиков,188300,59.5681046,30.0789861
10,Покровская улица,188300,59.5678666,30.0812090
3,Покровская улица,188300,59.5679827,30.0834367
1,Северная улица,188300,59.5688659,30.0838726
3,улица Комсомольцев Подпольщиков,188300,59.5694823,30.0834846
4,Круговая улица,188300,59.5684071,30.0816228
4,Покровская улица,188300,59.5678195,30.0827212
4,улица Комсомольцев Подпольщиков,188300,59.5689799,30.0832343
5,Круговая улица,188300,59.5676734,30.0812468
5,Покровская улица,188300,59.5680171,30.0830550
3,Северная улица,188300,59.5686277,30.0837628
5,улица Комсомольцев Подпольщиков,188300,59.5693674,30.0829650
6,Покровская улица,188300,59.5678662,30.0823646
6,улица Комсомольцев Подпольщиков,188300,59.5689001,30.0829429
7,Круговая улица,188300,59.5674026,30.0811141
7,Покровская улица,188300,59.5680853,30.0823275
5,Северная улица,188300,59.5684372,30.0836173
7,улица Комсомольцев Подпольщиков,188300,59.5692560,30.0824303
8,Покровская улица,188300,59.5679157,30.0817338
8,улица Комсомольцев Подпольщиков,188300,59.5687875,30.0825034
9,Покровская улица,188300,59.5681428,30.0820834
9,Северная улица,188300,59.5682066,30.0835398
9,улица Комсомольцев Подпольщиков,188300,59.5691419,30.0819120
10,Круговая улица,188307,59.5677678,30.0817498
14,Круговая улица,188307,59.5674266,30.0817094
16,Круговая улица,188307,59.5672829,30.0816857
20,Круговая улица,188307,59.5669260,30.0816294
18,Круговая улица,188307,59.5671204,30.0816730
12,Круговая улица,188307,59.5675667,30.0817244
21,Покровская улица,188300,59.5676326,30.0785720
22,Покровская улица,188300,59.5674622,30.0790771
22,Сызранская улица,188300,59.5666702,30.0783385
23,Покровская улица,188300,59.5675643,30.0782613
24,Покровская улица,188300,59.5673039,30.0785532
24,Сызранская улица,188300,59.5667285,30.0785568
25,Покровская улица,188300,59.5674111,30.0777425
26,Покровская улица,188300,59.5671291,30.0780232
26,Сызранская улица,188300,59.5668402,30.0788849
26,улица Комсомольцев Подпольщиков,188300,59.5680104,30.0784969
27,Покровская улица,188300,59.5672467,30.0771956
28,Покровская улица,188300,59.5667585,30.0768311
28,Сызранская улица,188300,59.5669663,30.0793118
28,улица Комсомольцев Подпольщиков,188300,59.5679813,30.0781207
29,Покровская улица,188300,59.5671249,30.0768033
30,улица Комсомольцев Подпольщиков,188300,59.5678902,30.0777549
31,Покровская улица,188300,59.5670864,30.0764507
32,улица Комсомольцев Подпольщиков,188300,59.5677847,30.0773938
33,Покровская улица,188300,59.5669057,30.0761664
34,улица Комсомольцев Подпольщиков,188300,59.5677346,30.0771526
36,улица Комсомольцев Подпольщиков,188300,59.5675723,30.0766996
38,улица Комсомольцев Подпольщиков,188300,59.5674724,30.0763494
40,улица Комсомольцев Подпольщиков,188300,59.5673568,30.0760053
42,улица Комсомольцев Подпольщиков,188300,59.5672584,30.0755386
44,улица Комсомольцев Подпольщиков,188300,59.5671414,30.0752641
46,улица Комсомольцев Подпольщиков,188300,59.5670087,30.0749465
48,улица Комсомольцев Подпольщиков,188300,59.5668654,30.0746318
4А,улица Крупской,188309,59.5738893,30.1141346
4,улица Радищева,188306,59.5689617,30.1241689
15Б,Рощинская улица,188300,59.5793487,30.1307915
17А,Соборная улица,188309,59.5653602,30.1253322
17Б,Соборная улица,188309,59.5652208,30.1259846
13 к1,улица Авиатриссы Зверевой,188310,59.5565056,30.0882568
13 к1,улица Слепнёва,188309,59.5597830,30.0901432
11,улица Урицкого,188309,59.5639434,30.1314764
20,Соборная улица,188309,59.5653824,30.1283672
27,Соборная улица,188309,59.5641204,30.1327945
3,улица Авиатриссы Зверевой,188309,59.5597727,30.0934896
5,улица Гагарина,188309,59.5727174,30.1240041
7,улица Новосёлов,188309,59.5607748,30.0887410
9Б,улица Урицкого,188309,59.5631432,30.1314560
30,улица Урицкого,188300,59.5700674,30.1351731
24А,улица Чкалова,188304,59.5594170,30.1244646
4А,улица Красных Военлётов,188309,59.5558567,30.0847098
12А,улица Авиатриссы Зверевой,188309,59.5543844,30.0914142
37,Северная улица,188307,59.5647764,30.0821821
6,Колпанская улица,188307,59.5661843,30.0803152
15,Пушкинское шоссе,188300,59.5820032,30.1477619
2А,улица Красных Военлётов,188309,59.5555475,30.0834798
15А,Пушкинское шоссе,188300,59.5821750,30.1462505
15 стр. 2,Ленинградское шоссе,188306,59.5849451,30.1449910
10,улица Куприна,188300,59.5734465,30.0708741
4,бульвар Авиаторов,188309,59.5556612,30.1004366
14,улица Авиатриссы Зверевой,188310,59.5543930,30.0894079
13 к7,Пушкинское шоссе,188300,59.5804244,30.1431210
62,улица Чкалова,188300,59.5620593,30.1189487
20,улица Хохлова,188300,59.5762057,30.1252547
9,бульвар Авиаторов,188310,59.5537761,30.0941715
2А,улица Слепнёва,188309,59.5585927,30.0839171
1,Пушкинское шоссе,188300,59.5802105,30.1404132
5/18,бульвар Авиаторов,188309,59.5554451,30.0957995
21А,Пушкинское шоссе,188300,59.5825608,30.1472628
41 к3,улица Чехова,188300,59.5791664,30.1461069
41 к1,улица Чехова,188300,59.5793061,30.1468329
16А,улица Чкалова,188304,59.5585620,30.1241692
22Б,улица Чкалова,188304,59.5590982,30.1235457
1 к1,улица Леонова,188304,59.5593373,30.1235373
12А с1,Ленинградское шоссе,188300,59.5841646,30.1412085
9,улица Коли Подрядчикова,188300,59.5768575,30.1209737
7А,улица Генерала Кныша,188309,59.5612330,30.0917094
12,улица Изотова,188300,59.5823732,30.1273143
19,Рощинская улица,188300,59.5806765,30.1252962
13,улица Коли Подрядчикова,188300,59.5792784,30.1211623
22,улица 7-й Армии,188309,59.5713224,30.1391490
11Б,Красноармейский проспект,188307,59.5655950,30.1006685
19/8,улица Авиатриссы Зверевой,188310,59.5545704,30.0872096
7/12,улица Авиатриссы Зверевой,188309,59.5572217,30.0905893
43,улица Чехова,188306,59.5801199,30.1471566
43 к1,улица Чехова,188306,59.5808748,30.1474174
1,Шведский проезд,188300,59.5814170,30.1452498
10,улица Красных Военлётов,188310,59.5532565,30.0919508
26,улица Володарского,188309,59.5668208,30.1355345
20,Красная улица,188330,59.5671550,30.1222446
20А,Красная улица,188330,59.5674226,30.1224523
