House number,Street name,Postal code,Latitude,Longitude
55,Лежневская улица,153008,56.9821952,40.9810933
55,Лежневская улица,153008,56.9830383,40.9816113
95,Шереметевский проспект,153005,57.0071374,40.9898812
40,проспект Ленина,153000,56.9987387,40.9740525
92,проспект Строителей,153040,56.9650874,41.0083327
13 пом50,23-я линия,153031,56.9884832,40.9231730
3/5,улица Красной Армии,153000,56.9947614,40.9773012
55,Лежневская улица,153008,56.9833365,40.9827856
2,улица Шошина,153005,57.0066173,41.0024382
2,площадь Генкиной,153002,57.0164418,40.9845501
5,улица Любимова,153040,56.9539807,41.0296028
19,Аптечный переулок,153000,56.9949997,40.9788374
15,Аптечный переулок,153000,56.9947183,40.9791854
6,площадь Революции,153000,56.9947611,40.9801910
7А,улица Красной Армии,153000,56.9942842,40.9774519
22,Советская улица,153000,56.9968377,40.9829166
2В,Кохомское шоссе,153051,56.9520378,41.0467873
12/5,2-я Варгинская улица,153008,56.9831811,40.9991464
14/26,Гаражная улица,153021,57.0037859,40.9416902
55,Лежневская улица,153008,56.9827745,40.9819892
18,улица Гнедина,153043,57.0313777,40.9749928
18,улица Гнедина,153043,57.0313674,40.9749978
18,улица Гнедина,153043,57.0313873,40.9749890
18,улица Гнедина,153043,57.0313585,40.9750033
31,улица Багаева,153000,56.9925958,40.9733643
7,улица Воронина,153032,56.9716787,40.9704293
7,улица Воронина,153032,56.9716124,40.9705779
9,улица Воронина,153032,56.9717504,40.9697143
9,улица Воронина,153032,56.9717719,40.9694304
9,улица Воронина,153032,56.9717937,40.9691421
1,улица Куликова,153032,56.9718310,40.9686672
3,улица Воронина,153032,56.9716060,40.9717604
1,улица Воронина,153032,56.9715214,40.9726728
1,улица Воронина,153032,56.9715295,40.9725632
130Б,Лежневская улица,153035,56.9723206,40.9733009
2,улица Воронина,153035,56.9719578,40.9718252
128,Лежневская улица,153035,56.9726870,40.9734223
4,улица Воронина,153035,56.9720873,40.9710999
2А,улица Воронина,153035,56.9720993,40.9715729
2А,улица Воронина,153035,56.9720688,40.9714203
1,улица Воронина,153032,56.9715425,40.9723880
130Б,Лежневская улица,153035,56.9723767,40.9733167
126,Лежневская улица,153035,56.9732613,40.9735112
126,Лежневская улица,153035,56.9732777,40.9733039
114,14-е почтовое отделение,153014,57.0383107,40.9847721
4,14-е почтовое отделение,153014,57.0409893,40.9940568
132,Лежневская улица,153032,56.9715034,40.9731323
132,Лежневская улица,153032,56.9714277,40.9732994
132,Лежневская улица,153032,56.9711407,40.9732400
12А,улица Генерала Хлебникова,153035,56.9713262,40.9796271
3,улица Генерала Хлебникова,153035,56.9718274,40.9759384
3,улица Генерала Хлебникова,153035,56.9718077,40.9770011
3,улица Генерала Хлебникова,153035,56.9717996,40.9774336
6,улица Генерала Хлебникова,153035,56.9713480,40.9774839
6,улица Генерала Хлебникова,153035,56.9713779,40.9762223
6,улица Генерала Хлебникова,153035,56.9713564,40.9753725
6,улица Генерала Хлебникова,153035,56.9713039,40.9753683
6,улица Генерала Хлебникова,153035,56.9713609,40.9769406
6,улица Генерала Хлебникова,153035,56.9713838,40.9759724
6,улица Генерала Хлебникова,153035,56.9713597,40.9769897
6,улица Генерала Хлебникова,153035,56.9713530,40.9772714
6,улица Генерала Хлебникова,153035,56.9713666,40.9766970
6,улица Генерала Хлебникова,153035,56.9713903,40.9757008
6,улица Генерала Хлебникова,153035,56.9713885,40.9757749
78,улица Кудряшова,153009,56.9706803,40.9847675
78,улица Кудряшова,153009,56.9701149,40.9847843
159,Лежневская улица,153009,56.9710715,40.9742821
159,Лежневская улица,153009,56.9710492,40.9745914
78,улица Кудряшова,153009,56.9705937,40.9847587
78,улица Кудряшова,153009,56.9705527,40.9847507
78,улица Кудряшова,153009,56.9704942,40.9847480
78,улица Кудряшова,153009,56.9703439,40.9848080
78,улица Кудряшова,153009,56.9701758,40.9847892
253,14-е почтовое отделение,153014,57.0382821,40.9892918
3,улица Генерала Хлебникова,153035,56.9718089,40.9769345
130Б,Лежневская улица,153035,56.9722754,40.9732879
55,Лежневская улица,153008,56.9828405,40.9823620
29А,1-я улица Чайковского,153045,57.0154492,41.0179064
11,Загородное шоссе,153013,56.9728231,41.0763678
13/1,улица Свободы,153045,57.0175781,41.0209682
23,Школьная улица,153005,57.0047899,41.0060873
23,Школьная улица,153005,57.0044071,41.0060800
49,улица Свободы,153045,57.0159394,41.0059052
49,улица Свободы,153045,57.0162662,41.0060563
54А,проспект Текстильщиков,153038,56.9575577,40.9930458
54,проспект Текстильщиков,153038,56.9574661,40.9938747
2,улица Якова Гарелина,153025,57.0215393,40.9674553
8,улица Якова Гарелина,153025,57.0218114,40.9657829
55,Лежневская улица,153008,56.9839213,40.9821701
55,Лежневская улица,153008,56.9829786,40.9816739
7,улица Спартака,153005,57.0113707,40.9915358
25,Пр. Строителей,153040,56.9652114,40.9910138
55,Лежневская улица,153008,56.9833085,40.9823260
32,улица 8 Марта,153037,57.0055748,40.9851165
25,Строителей проспект,153040,56.9651582,40.9894479
141,улица Куконковых,153000,56.9660033,41.0246933
14,улица Багаева,153000,56.9917230,40.9758585
80,проспект Текстильщиков,153032,56.9598515,40.9818699
14,Крутицкая улица,153000,57.0009437,40.9802030
6А,Ленинградская улица,153003,57.0017992,40.9483703
3,улица Генерала Хлебникова,153035,56.9718761,40.9763283
31,5-я Южная улица,153048,56.9784998,40.9977474
38,улица Мархлевского,153003,56.9982712,40.9579519
24,улица Парижской Коммуны,153003,56.9990787,40.9496659
22,улица Парижской Коммуны,153003,56.9985005,40.9518212
20,улица Парижской Коммуны,153003,56.9982399,40.9541557
18,улица Парижской Коммуны,153003,56.9980506,40.9557678
16А,улица Парижской Коммуны,153003,56.9978525,40.9568112
10,Строительная улица,153003,57.0004834,40.9529783
19,Дюковская улица,153023,57.0320885,40.9239027
20,Авдотьинская улица,153023,57.0290111,40.9198460
5,2-я Ключевая улица,153023,57.0321163,40.9280050
14,Авдотьинская улица,153023,57.0278160,40.9230848
14,Революционная улица,153023,57.0309390,40.9256419
16,Авдотьинская улица,153023,57.0278001,40.9225103
46,Дюковская улица,153023,57.0334986,40.9251962
10,2-я Ключевая улица,153023,57.0332088,40.9265905
7,улица Чихачёва,153023,57.0285155,40.9229879
3,2-я Ключевая улица,153023,57.0323291,40.9273960
19,Водонапорная улица,153023,57.0292873,40.9183124
12,Авдотьинская улица,153023,57.0277717,40.9237320
19,Дюковская улица,153023,57.0318474,40.9234967
18,7-й Авдотьинский переулок,153023,57.0282738,40.9210814
9,2-я Ключевая улица,153023,57.0314693,40.9266709
26,Революционная улица,153023,57.0341811,40.9200441
18А,Авдотьинская улица,153023,57.0279207,40.9214132
22,Авдотьинская улица,153023,57.0284306,40.9200693
56,Революционная улица,153023,57.0330273,40.9193691
28,Революционная улица,153023,57.0334515,40.9199699
5,улица Чихачёва,153023,57.0284522,40.9236944
1,2-я Ключевая улица,153023,57.0323564,40.9267181
1,1-я Водопроводная улица,153023,57.0295969,40.9164086
10,Авдотьинская улица,153023,57.0278828,40.9243739
22,Революционная улица,153023,57.0322884,40.9205669
44,Дюковская улица,153023,57.0332657,40.9251171
20А,Революционная улица,153023,57.0321886,40.9216417
13,улица Чихачёва,153023,57.0286562,40.9216241
6,Революционная улица,153023,57.0304564,40.9274148
20,2-я Ключевая улица,153023,57.0334798,40.9235224
8,Революционная улица,153023,57.0299977,40.9259567
22,Авдотьинская улица,153023,57.0288554,40.9204341
28А,Революционная улица,153023,57.0336590,40.9211729
11,улица Чихачёва,153023,57.0286054,40.9220827
26,Авдотьинская улица,153023,57.0287649,40.9182139
20А,Авдотьинская улица,153023,57.0280316,40.9209688
42,Дюковская улица,153023,57.0328193,40.9250726
1Б,2-я Ключевая улица,153023,57.0322715,40.9260048
8,Революционная улица,153023,57.0298523,40.9267353
30,Революционная улица,153023,57.0357161,40.9191728
38,Дюковская улица,153023,57.0324188,40.9249811
7,2-я Ключевая улица,153023,57.0313068,40.9274593
9,улица Чихачёва,153023,57.0285611,40.9225289
18,Авдотьинская улица,153023,57.0278270,40.9218855
12,Революционная улица,153023,57.0306379,40.9260577
16,2-я Ключевая улица,153023,57.0332401,40.9256325
1А,2-я Ключевая улица,153023,57.0328937,40.9259170
10А,Революционная улица,153023,57.0303844,40.9264678
21,Дюковская улица,153023,57.0328060,40.9221091
24,Авдотьинская улица,153023,57.0289617,40.9191314
21,Дюковская улица,153023,57.0327428,40.9233105
18,Революционная улица,153023,57.0323157,40.9226774
36,улица Ермака,153000,57.0192338,40.9601011
4,улица Войкова,153000,57.0176850,40.9631009
17,улица Якова Гарелина,153000,57.0221473,40.9620455
19,улица Якова Гарелина,153000,57.0222548,40.9593801
9,улица Косарева,153000,57.0259983,40.9623745
1А,улица Якова Гарелина,153000,57.0209626,40.9664198
23,улица Дзержинского,153000,57.0159020,40.9622837
31,улица Ермака,153000,57.0185070,40.9607668
41,улица Тимирязева,153000,57.0239387,40.9620326
3,улица Якова Гарелина,153000,57.0209623,40.9656558
20,улица Дзержинского,153000,57.0171463,40.9604873
18,улица Войкова,153000,57.0187405,40.9635303
61,проспект Ленина,153000,57.0201470,40.9679350
69,проспект Ленина,153025,57.0228929,40.9668327
4,улица Шестернина,153000,57.0145335,40.9661397
23,улица Тимирязева,153000,57.0215832,40.9602005
22,улица Академика Мальцева,153000,57.0206922,40.9632640
59,проспект Ленина,153000,57.0195037,40.9681258
9,улица Академика Мальцева,153000,57.0193456,40.9648360
11,улица Косарева,153000,57.0255284,40.9613428
11,улица Гагарина,153000,57.0233214,40.9643351
19,улица Гагарина,153025,57.0244090,40.9605428
33,улица Ермака,153000,57.0187477,40.9597626
2,улица Войкова,153000,57.0169327,40.9626893
16,улица Академика Мальцева,153000,57.0201650,40.9659002
14,улица Якова Гарелина,153000,57.0226024,40.9639818
21,улица Войкова,153000,57.0205401,40.9640215
45/6,улица Дзержинского,153000,57.0169949,40.9581548
19,улица Дзержинского,153000,57.0154768,40.9643197
9,улица Ермака,153025,57.0174452,40.9653879
28,улица Фролова,153025,57.0242423,40.9591426
52,улица Академика Мальцева,153000,57.0213943,40.9595550
12,улица Якова Гарелина,153000,57.0223898,40.9645617
40,улица Тимирязева,153000,57.0229339,40.9624740
6,улица Фролова,153000,57.0221928,40.9572922
22,улица Войкова,153000,57.0205113,40.9648775
4,улица Гагарина,153000,57.0247867,40.9619908
36,улица Академика Мальцева,153000,57.0212551,40.9617472
15,улица Якова Гарелина,153000,57.0218418,40.9634810
16,улица Якова Гарелина,153000,57.0227575,40.9632189
20,улица Войкова,153000,57.0194358,40.9641069
32,улица Ермака,153000,57.0189329,40.9614797
10,улица Якова Гарелина,153025,57.0221820,40.9653054
9,улица Гагарина,153025,57.0230158,40.9654300
2,улица Шестернина,153002,57.0141271,40.9679825
17,улица Гагарина,153000,57.0240628,40.9601998
7,улица Академика Мальцева,153000,57.0190721,40.9653416
35,улица Ермака,153000,57.0187180,40.9591980
43,улица Дзержинского,153000,57.0168081,40.9594934
15,улица Ермака,153000,57.0182535,40.9619786
42,улица Тимирязева,153000,57.0236340,40.9628115
39,улица Тимирязева,153000,57.0232304,40.9613744
11,улица Ермака,153025,57.0176999,40.9642128
1,улица Якова Гарелина,153000,57.0206180,40.9669869
40,улица Войкова,153025,57.0222213,40.9660182
15,улица Гагарина,153000,57.0240126,40.9614252
16,улица Тимирязева,153000,57.0198687,40.9600504
27,улица Войкова,153000,57.0211816,40.9639656
16,улица Дзержинского,153000,57.0164566,40.9636332
4,улица Академика Мальцева,153000,57.0196767,40.9673978
23,улица Академика Мальцева,153000,57.0203180,40.9610625
46,улица Академика Мальцева,153000,57.0215274,40.9586180
4,улица Тимирязева,153000,57.0163517,40.9572974
13,улица Войкова,153000,57.0193500,40.9631536
13,улица Гагарина,153000,57.0234605,40.9635661
39,улица Дзержинского,153000,57.0165076,40.9605133
45,улица Академика Мальцева,153000,57.0212901,40.9571604
25,улица Дзержинского,153000,57.0160364,40.9616435
34,улица Ермака,153000,57.0196184,40.9612206
49,проспект Ленина,153000,57.0143436,40.9689166
54,улица Академика Мальцева,153000,57.0220352,40.9580318
13,улица Якова Гарелина,153000,57.0214831,40.9646616
67,проспект Ленина,153025,57.0221488,40.9671593
33,улица Сакко,153012,56.9995651,40.9954716
4,Свободный переулок,153012,56.9949299,41.0090461
15/16,улица Суворова,153012,56.9947655,41.0056001
7,улица Герцена,153003,56.9987859,40.9542620
14,улица Красных Зорь,153003,57.0024171,40.9518064
15,улица Герцена,153003,56.9988738,40.9528887
5,улица Герцена,153003,56.9986856,40.9558624
3,улица Герцена,153003,56.9984412,40.9566039
17,улица Герцена,153003,56.9991198,40.9520275
6,Поселковая улица,153003,56.9972508,40.9454053
10,улица Красных Зорь,153003,57.0021720,40.9533417
12,улица Красных Зорь,153003,57.0022943,40.9525685
11,Шереметевский проспект,153000,56.9993595,40.9833793
18,Пограничный переулок,153002,57.0047810,40.9778783
17,Товарная улица,153005,57.0052436,41.0031294
2,улица Шошина,153005,57.0067700,41.0022266
13,улица Шошина,153005,57.0078456,40.9973408
2А,улица Шошина,153005,57.0071339,41.0029416
13,улица Шошина,153005,57.0083576,40.9967815
10,улица Шошина,153005,57.0094497,40.9963795
117,улица Шувандиной,153045,57.0173801,41.0065091
56,4-я Деревенская улица,153043,57.0360571,40.9898089
176,14-е почтовое отделение,153014,57.0391025,40.9886127
5,14-е почтовое отделение,153014,57.0403845,40.9938209
54,4-я Деревенская улица,153043,57.0367711,40.9895856
124,14-е почтовое отделение,153014,57.0393326,40.9895299
123,14-е почтовое отделение,153014,57.0396058,40.9905998
1,14-е почтовое отделение,153014,57.0405036,40.9918332
50,4-я Деревенская улица,153043,57.0367098,40.9888417
267,14-е почтовое отделение,153014,57.0387359,40.9907112
2,14-е почтовое отделение,153014,57.0398110,40.9915473
3,14-е почтовое отделение,153014,57.0401650,40.9929872
46,4-я Деревенская улица,153043,57.0366304,40.9878439
260,14-е почтовое отделение,153014,57.0392828,40.9928895
10,14-е почтовое отделение,153014,57.0399484,40.9896927
7,14-е почтовое отделение,153014,57.0396945,40.9959871
200,14-е почтовое отделение,153014,57.0375826,40.9863127
371,14-е почтовое отделение,153014,57.0397143,40.9944443
312,14-е почтовое отделение,153014,57.0412209,40.9902257
217,14-е почтовое отделение,153014,57.0378270,40.9873800
254,14-е почтовое отделение,153014,57.0398645,40.9972534
14,Солнечная улица,153024,57.0281294,40.9897671
48,4-я Деревенская улица,153043,57.0358959,40.9880632
147,14-е почтовое отделение,153014,57.0379686,40.9880045
4,14-е почтовое отделение,153014,57.0410550,40.9940840
52,4-я Деревенская улица,153043,57.0359853,40.9890624
6,14-е почтовое отделение,153014,57.0407134,40.9951415
71,улица Полка Нормандия-Неман,153043,57.0320303,40.9801267
8,Светлая улица,153043,57.0327847,40.9781499
69,улица Полка Нормандия-Неман,153043,57.0311368,40.9798023
56В,Кавалерийская улица,153013,56.9607627,41.0197249
56Б,Кавалерийская улица,153013,56.9607573,41.0181827
37/7,улица Ермака,153025,57.0188202,40.9579227
53,Минская улица,153029,57.0384807,40.9487628
17,улица Фрунзе,153007,57.0318859,40.9686575
11/2,улица Фрунзе,153007,57.0306251,40.9673827
13/1,улица Фрунзе,153007,57.0311140,40.9680662
23,улица Фрунзе,153007,57.0336403,40.9692195
15/2,улица Фрунзе,153007,57.0315391,40.9684187
33,улица Люлина,153043,57.0310419,40.9825111
22,улица Степана Халтурина,153024,57.0306523,40.9849313
14,улица Люлина,153024,57.0307937,40.9859778
17,Спортивная улица,153024,57.0293251,40.9828924
73,улица Полка Нормандия-Неман,153043,57.0325907,40.9804601
75,улица Полка Нормандия-Неман,153043,57.0332542,40.9806379
37,улица Люлина,153043,57.0312988,40.9855713
73А,улица Полка Нормандия-Неман,153043,57.0328495,40.9793675
35,улица Люлина,153043,57.0311783,40.9841235
5,улица Калинина,153002,57.0065623,40.9795665
40,Дюковская улица,153023,57.0317302,40.9256817
14А,Революционная улица,153023,57.0313731,40.9247556
2А,улица Сарментовой,153005,57.0098412,40.9907300
72А,Шереметевский проспект,153005,57.0084612,40.9915227
22,Советская улица,153000,56.9969142,40.9825668
18/17,улица 10 Августа,153000,56.9969971,40.9802123
12,14-е почтовое отделение,153014,57.0397729,40.9886530
215,14-е почтовое отделение,153014,57.0401985,40.9906724
7,проспект Ленина,153000,56.9963506,40.9770242
9,улица Степанова,153000,56.9960260,40.9748216
12,Ульяновский переулок,153045,57.0226903,41.0103302
47,улица Свободы,153000,57.0143301,41.0065899
6,улица Победы,153045,57.0223615,41.0111483
14,Ульяновский переулок,153045,57.0230265,41.0095684
2,2-я Межевая улица,153022,56.9875106,40.9650850
38,улица Богдана Хмельницкого,153022,56.9880053,40.9667467
5/1,4-я Первомайская улица,153022,56.9872016,40.9638017
25,проспект Ленина,153000,57.0064345,40.9724747
11,Пограничный переулок,153002,57.0069081,40.9760471
9,Крутицкая улица,153000,57.0007406,40.9790347
15/12,Пограничный переулок,153002,57.0074954,40.9756673
13,Пограничный переулок,153002,57.0071669,40.9758841
10,Комсомольская улица,153002,57.0078016,40.9751630
8,Комсомольская улица,153002,57.0077059,40.9739230
116,проспект Ленина,153002,57.0206759,40.9690947
136А,проспект Ленина,153002,57.0218259,40.9688292
136,проспект Ленина,153002,57.0216021,40.9684696
80,Пограничный переулок,153002,57.0178148,40.9743279
12,Земляная улица,153002,57.0182742,40.9751871
1,Вокзальная площадь,153002,57.0175536,40.9773294
47,проспект Ленина,153000,57.0132176,40.9701388
15Б,улица Шошина,153005,57.0082034,40.9947181
391,4-я Деревенская улица,153043,57.0360637,40.9916023
58,4-я Деревенская улица,153043,57.0368535,40.9905871
83,улица Полка Нормандия-Неман,153043,57.0359562,40.9819635
24,4-я Деревенская улица,153043,57.0358715,40.9810288
60,4-я Деревенская улица,153043,57.0360632,40.9908320
62,4-я Деревенская улица,153043,57.0369941,40.9913188
5,1-я Деревенская улица,153043,57.0346366,40.9765509
25,1-я Минеевская улица,153043,57.0345716,40.9749461
28,улица Карла Маркса,153002,57.0160273,40.9744978
25,улица Батурина,153002,57.0049578,40.9786342
16,улица 8 Марта,153002,57.0055123,40.9797148
18,улица 8 Марта,153002,57.0052051,40.9794872
21,2-я улица Чайковского,153045,57.0146328,41.0180250
2,улица Сарментовой,153005,57.0102897,40.9915580
74Б,Шереметевский проспект,153005,57.0095211,40.9916437
15,улица Шошина,153005,57.0096056,40.9937631
41,улица Ермака,153000,57.0195605,40.9548965
74А,Шереметевский проспект,153005,57.0093371,40.9907300
16,Сосновая улица,153005,57.0098612,41.0027453
47,улица Ермака,153000,57.0202894,40.9524190
8,улица Шошина,153005,57.0086410,40.9992738
15А,улица Шошина,153005,57.0090007,40.9924285
95,Шереметевский проспект,153005,57.0097392,40.9876079
6,улица Сарментовой,153005,57.0099321,40.9927361
4,улица Сарментовой,153005,57.0101184,40.9921443
72Б,Шереметевский проспект,153005,57.0083484,40.9929033
15,улица Шошина,153005,57.0090749,40.9944360
1,улица Тимирязева,153000,57.0167591,40.9565727
1,улица Лебедева-Кумача,153021,57.0014181,40.9356238
60,улица Парижской Коммуны,153003,57.0003095,40.9356500
106,проспект Ленина,153002,57.0167722,40.9702420
5,улица Калинина,153002,57.0064778,40.9793233
5,улица Калинина,153002,57.0068694,40.9795173
5,улица Калинина,153002,57.0071254,40.9792469
14,улица 8 Марта,153002,57.0054936,40.9786745
2,улица Якова Гарелина,153025,57.0215141,40.9673449
6А,улица Якова Гарелина,153025,57.0220317,40.9664184
14А,улица Дзержинского,153000,57.0171744,40.9638182
56,Рыбинская улица,153005,57.0057875,41.0009685
57,Рыбинская улица,153005,57.0070264,40.9994894
17,улица Шошина,153005,57.0074863,40.9967206
19,улица Шошина,153005,57.0088114,40.9956789
72В,Шереметевский проспект,153005,57.0087401,40.9937255
11 к2,улица Воронина,153032,56.9717330,40.9649631
44,улица Парижской Коммуны,153003,56.9992023,40.9471271
17,проспект Ленина,153000,56.9982457,40.9733654
51,Велижская улица,153022,56.9826051,40.9670349
11,улица Красной Армии,153000,56.9943776,40.9767130
1,улица Красной Армии,153000,56.9948628,40.9783681
8,Педагогический переулок,153003,57.0029634,40.9510272
5,Педагогический переулок,153003,57.0031836,40.9523365
23,улица Герцена,153003,56.9993288,40.9497674
5/16,Амбулаторный переулок,153003,57.0006652,40.9506022
15/1,улица Красных Зорь,153003,57.0014748,40.9512623
3,Амбулаторный переулок,153003,57.0010939,40.9507679
53,1-я Полевая улица,153009,56.9704048,40.9782477
6,улица Генерала Хлебникова,153035,56.9713020,40.9764538
159,Лежневская улица,153009,56.9711956,40.9746345
12,улица Генерала Хлебникова,153035,56.9708988,40.9800125
136,Лежневская улица,153032,56.9703025,40.9729406
138,Лежневская улица,153032,56.9694082,40.9727456
161,Лежневская улица,153009,56.9704654,40.9743259
132,Лежневская улица,153035,56.9711914,40.9731284
5,улица Мякишева,153009,56.9704616,40.9754535
3,улица Мякишева,153009,56.9698376,40.9751651
1,улица Дзержинского,153000,57.0149089,40.9681206
11,улица Куликова,153032,56.9705334,40.9701376
7,улица Воронина,153032,56.9713693,40.9704006
8,улица Кирякиных,153032,56.9696692,40.9698942
1,улица Куликова,153032,56.9715240,40.9685353
134А,Лежневская улица,153032,56.9708330,40.9720496
4,улица Кирякиных,153032,56.9695362,40.9712193
6,улица Кирякиных,153032,56.9695293,40.9705073
3,улица Воронина,153032,56.9712707,40.9717169
5,улица Воронина,153032,56.9714955,40.9710666
1,улица Воронина,153032,56.9714692,40.9725014
134,Лежневская улица,153032,56.9707881,40.9726280
2,улица Кирякиных,153032,56.9692220,40.9719476
136А,Лежневская улица,153032,56.9698702,40.9720512
4,улица Воронина,153035,56.9723648,40.9710675
130,Лежневская улица,153035,56.9721941,40.9728436
128,Лежневская улица,153035,56.9728034,40.9733468
126,Лежневская улица,153035,56.9733635,40.9730395
82,Ташкентская улица,153022,56.9770216,40.9656384
20,улица Кирякиных,153032,56.9700443,40.9643220
18,улица Кирякиных,153032,56.9698561,40.9652205
16,улица Кирякиных,153032,56.9701906,40.9658228
9,Подгорная улица,153000,57.0007375,40.9764854
14,Конспиративный переулок,153012,57.0011095,40.9668154
14,Конспиративный переулок,153012,57.0007338,40.9674360
163,Лежневская улица,153009,56.9692833,40.9741389
8А,улица Диановых,153009,56.9669397,40.9774315
165,Лежневская улица,153009,56.9687835,40.9741758
8,Велижская улица,153022,56.9822239,40.9778408
211,Лежневская улица,153038,56.9544164,40.9793660
25/55,Типографская улица,153008,56.9850936,40.9841371
6/1,улица Красной Армии,153000,56.9950987,40.9771040
19,улица Свободы,153045,57.0172897,41.0190888
21,улица Свободы,153045,57.0171172,41.0180905
6,Светлая улица,153043,57.0316629,40.9789032
28,улица Ермака,153000,57.0187421,40.9624908
39,улица Сакко,153012,56.9989451,40.9974571
3,микрорайон ДСК,153051,56.9553461,41.0432598
13/1,улица Свободы,153045,57.0175665,41.0209678
16,2-я улица Чайковского,153045,57.0151070,41.0178497
31,улица Чайковского,153045,57.0156079,41.0169168
18,2-я улица Чайковского,153045,57.0150900,41.0171602
33,улица Чайковского,153045,57.0155084,41.0163420
29,улица Чайковского,153045,57.0157511,41.0174897
35,улица Чайковского,153045,57.0154308,41.0157854
2,4-я Первомайская улица,153022,56.9887686,40.9666946
5,3-я Первомайская улица,153022,56.9889179,40.9651226
10,4-я Первомайская улица,153022,56.9881092,40.9646313
7,3-я Первомайская улица,153022,56.9887521,40.9645868
9/6,3-я Первомайская улица,153022,56.9885889,40.9640447
3,3-я Первомайская улица,153022,56.9891204,40.9662931
13,улица Маршала Василевского,153038,56.9582693,40.9952366
48А,проспект Текстильщиков,153038,56.9584548,40.9964052
46,проспект Текстильщиков,153038,56.9584926,40.9971146
48,проспект Текстильщиков,153038,56.9576885,40.9960917
141,улица Куконковых,153000,56.9659676,41.0250212
23,Школьная улица,153005,57.0047053,41.0059408
65,улица Полка Нормандия-Неман,153024,57.0296805,40.9800655
63,улица Полка Нормандия-Неман,153024,57.0292726,40.9799560
67,улица Полка Нормандия-Неман,153024,57.0300294,40.9801305
61,улица Полка Нормандия-Неман,153024,57.0288977,40.9798889
57,улица Полка Нормандия-Неман,153024,57.0279130,40.9796795
59,улица Полка Нормандия-Неман,153024,57.0283656,40.9797586
55,улица Полка Нормандия-Неман,153024,57.0274529,40.9795657
91,Ташкентская улица,153032,56.9703716,40.9649437
4А,проспект Строителей,153038,56.9628797,40.9832107
16А к2,Революционная улица,153023,57.0312893,40.9230258
16А к3,Революционная улица,153023,57.0309388,40.9224474
16А к1,Революционная улица,153023,57.0308124,40.9233871
20,Сосновая улица,153005,57.0094947,41.0085385
1к С,Сосновая улица,153005,57.0102225,41.0101100
1Г,Сосновая улица,153005,57.0101080,41.0057620
1К с3,Сосновая улица,153005,57.0104969,41.0058793
20А,улица Спартака,153005,57.0114423,40.9938458
65,улица Беловой,153030,57.0149207,41.0024095
49,улица Ермака,153000,57.0195681,40.9511258
2,улица Фролова,153000,57.0209665,40.9563780
22,улица Спартака,153005,57.0133389,40.9952983
80,проспект Текстильщиков,153038,56.9598204,40.9814445
152,улица Куконковых,153013,56.9599289,41.0265733
154,улица Куконковых,153013,56.9606734,41.0278960
148,улица Куконковых,153013,56.9610969,41.0254726
146,улица Куконковых,153013,56.9617873,41.0246622
7А,улица Красной Армии,153000,56.9943557,40.9774204
14,23-я линия,153031,56.9898988,40.9277651
310,14-е почтовое отделение,153014,57.0414095,40.9929340
60,проспект Строителей,153040,56.9612941,41.0004926
55,Велижская улица,153022,56.9827667,40.9654762
57,Велижская улица,153022,56.9829756,40.9641275
8А,улица Радищева,153022,56.9770408,40.9613232
14А,Революционная улица,153023,57.0306673,40.9249875
20Б,Революционная улица,153023,57.0327843,40.9210664
4,2-я Ключевая улица,153023,57.0334853,40.9287646
48,Дюковская улица,153023,57.0337752,40.9252361
6,2-я Ключевая улица,153023,57.0333916,40.9282548
8,2-я Ключевая улица,153023,57.0333024,40.9275965
39,Революционная улица,153023,57.0310768,40.9211209
30,8-я Ефремковская улица,153021,57.0083265,40.9207782
5,улица Войкова,153000,57.0177723,40.9619924
5А,улица Войкова,153000,57.0172808,40.9616057
23,проспект Строителей,153048,56.9642729,40.9876301
6/1,улица Генерала Хлебникова,153035,56.9709946,40.9778430
41,улица Станкостроителей,153015,56.9713467,40.9196812
29,улица Герцена,153003,56.9998270,40.9464232
11,улица Менделеева,153003,57.0021233,40.9541054
13,улица Менделеева,153003,57.0000204,40.9527535
22,улица Красных Зорь,153003,57.0027610,40.9441408
87,улица Полка Нормандия-Неман,153043,57.0373202,40.9822236
89,улица Полка Нормандия-Неман,153043,57.0377369,40.9823523
91,улица Полка Нормандия-Неман,153043,57.0381315,40.9823915
93,улица Полка Нормандия-Неман,153043,57.0379120,40.9813805
27,4-я Деревенская улица,153043,57.0371675,40.9846397
134,проспект Ленина,153002,57.0209609,40.9687677
27,улица Люлина,153043,57.0305387,40.9771502
2А,Музыкальная улица,153043,57.0323880,40.9880544
34/22,улица Люлина,153043,57.0301338,40.9791297
7,Коллективная улица,153024,57.0281410,40.9779604
31,улица Люлина,153043,57.0306465,40.9784559
28,Коллективная улица,153024,57.0289538,40.9788537
32,Коллективная улица,153043,57.0297324,40.9790395
9,Коллективная улица,153024,57.0284740,40.9780654
25,улица Люлина,153043,57.0304325,40.9763614
17,Аптечный переулок,153000,56.9948202,40.9789007
11,Коллективная улица,153024,57.0290433,40.9781873
2,Музыкальная улица,153043,57.0323417,40.9873112
30,Коллективная улица,153043,57.0293255,40.9789501
23,улица Люлина,153043,57.0303823,40.9756403
15,Аптечный переулок,153000,56.9946688,40.9790625
8,улица Люлина,153043,57.0301399,40.9774851
19,Аптечный переулок,153000,56.9949687,40.9787052
5,Спортивная улица,153043,57.0289829,40.9775608
2,улица Люлина,153043,57.0299479,40.9760724
4,улица Люлина,153043,57.0300880,40.9768872
24,Коллективная улица,153024,57.0277378,40.9786194
26,Коллективная улица,153024,57.0284037,40.9789026
148А,улица Куконковых,153013,56.9609545,41.0246638
39,проспект Текстильщиков,153038,56.9562830,41.0005901
28,Кохомское шоссе,153051,56.9517027,41.0576622
22В,Кохомское шоссе,153051,56.9518431,41.0555674
21,Кохомское шоссе,153051,56.9527796,41.0574860
20,Кохомское шоссе,153051,56.9534895,41.0575231
21,Кохомское шоссе,153051,56.9522175,41.0583489
44 к1,улица Богдана Хмельницкого,153022,56.9862612,40.9630296
86,улица Смирнова,153034,56.9847071,41.0061742
24 к1,Революционная улица,153023,57.0336161,40.9186246
187,14-е почтовое отделение,153014,57.0384211,40.9856580
48,Дюковская улица,153023,57.0338748,40.9266879
34,Революционная улица,153023,57.0351481,40.9191613
35,улица Станкостроителей,153015,56.9743079,40.9220675
34,улица Красных Зорь,153021,57.0045341,40.9279772
183,Лежневская улица,153009,56.9617436,40.9752704
16,улица Менделеева,153003,57.0009487,40.9531605
20/12,улица Менделеева,153003,57.0004596,40.9522897
14,Строительная улица,153003,57.0005221,40.9512767
13/16,улица Красных Зорь,153003,57.0013356,40.9522044
25 .1ст,улица Красных Зорь,153003,57.0018047,40.9457240
20А,улица Парижской Коммуны,153003,56.9983812,40.9554597
18,улица Павленко,153022,56.9792580,40.9574095
11 к1,улица Воронина,153032,56.9714033,40.9672178
118Б,Лежневская улица,153022,56.9782308,40.9765769
89,Ташкентская улица,153032,56.9708018,40.9645901
11,улица Воронина,153032,56.9716086,40.9664618
40,улица Богдана Хмельницкого,153022,56.9876489,40.9658796
10,1-я Межевая улица,153000,56.9905466,40.9659456
23,Футбольная улица,153000,56.9916002,40.9660827
4,Футбольный переулок,153000,56.9906712,40.9663233
44,улица Богдана Хмельницкого,153022,56.9865626,40.9640651
22,1-я Межевая улица,153000,56.9912653,40.9649738
21А,Футбольная улица,153000,56.9913109,40.9657876
17,Футбольная улица,153000,56.9912524,40.9665198
19/14,Владимирская улица,153000,56.9905760,40.9847478
14,1-я Межевая улица,153000,56.9908190,40.9656514
16,1-я Межевая улица,153000,56.9909339,40.9654766
13,Футбольная улица,153000,56.9910361,40.9669063
18,1-я Межевая улица,153000,56.9910288,40.9652351
20,1-я Межевая улица,153000,56.9911518,40.9651039
13А,Футбольная улица,153000,56.9908894,40.9665189
24,1-я Межевая улица,153000,56.9914086,40.9647652
15,Футбольная улица,153000,56.9911682,40.9666883
21,Футбольная улица,153000,56.9914647,40.9662601
28,1-я Межевая улица,153000,56.9916796,40.9644524
12,1-я Межевая улица,153000,56.9906391,40.9657374
27,Футбольная улица,153000,56.9918416,40.9657733
26,1-я Межевая улица,153000,56.9915296,40.9646319
21,Неждановская улица,153021,57.0107673,40.9331320
58А,улица Парижской Коммуны,153021,57.0003906,40.9365854
24/15,улица Красных Зорь,153003,57.0028518,40.9433466
86,улица Кудряшова,153009,56.9668567,40.9841938
84А,улица Кудряшова,153009,56.9676159,40.9843132
82А,улица Кудряшова,153009,56.9684104,40.9844957
84,улица Кудряшова,153009,56.9679277,40.9836544
51,проспект Ленина,153002,57.0152814,40.9693720
28,Авдотьинская улица,153023,57.0292761,40.9165874
32,Авдотьинская улица,153023,57.0299432,40.9153082
30,Авдотьинская улица,153023,57.0293949,40.9146365
2А,1-я Водопроводная улица,153023,57.0297810,40.9180537
17А,Водонапорная улица,153023,57.0295608,40.9193981
1Б,улица Карла Маркса,153002,57.0167932,40.9704634
1,Институтский проезд,153021,57.0008784,40.9373564
3,Институтский проезд,153021,57.0013123,40.9373899
47А,улица Жарова,153000,56.9964398,40.9665081
43,улица Жарова,153000,56.9967911,40.9665846
47,улица Жарова,153000,56.9966006,40.9662549
45,улица Жарова,153000,56.9966774,40.9665325
98,улица Смирнова,153006,56.9828928,41.0132988
96,улица Смирнова,153006,56.9826564,41.0125932
56,улица Тимирязева,153025,57.0246863,40.9637731
73,проспект Ленина,153025,57.0243205,40.9663916
7,улица Косарева,153025,57.0247953,40.9648177
73,проспект Ленина,153025,57.0238638,40.9663903
5,улица Косарева,153025,57.0245440,40.9658742
2,улица Гагарина,153025,57.0240266,40.9648244
102,улица Смирнова,153006,56.9819172,41.0155047
61,2-я Полевая улица,153009,56.9700701,40.9822915
12А,улица Генерала Хлебникова,153035,56.9712850,40.9796222
3,Калужская улица,153003,56.9994755,40.9580454
8,улица Мякишева,153009,56.9693341,40.9763891
6,улица Мякишева,153009,56.9691025,40.9758207
3А,улица Воронина,153032,56.9705560,40.9712371
68А,проспект Строителей,153040,56.9628036,40.9997106
28,улица Шубиных,153038,56.9599084,41.0066132
26,улица Шубиных,153038,56.9600061,41.0064552
24,улица Шубиных,153038,56.9601461,41.0062736
22,улица Шубиных,153038,56.9602508,41.0061123
20,улица Шубиных,153038,56.9604135,41.0058858
18,улица Шубиных,153038,56.9605192,41.0057613
16,улица Шубиных,153038,56.9606797,41.0055133
115Д,проспект Текстильщиков,153038,56.9573525,40.9880120
2А,улица Воронина,153035,56.9721065,40.9714816
130А,Лежневская улица,153035,56.9719947,40.9731021
130Б,Лежневская улица,153035,56.9723452,40.9731941
1,13-я Березниковская улица,15315,56.9772938,40.9338772
38А,улица Богдана Хмельницкого,153022,56.9877522,40.9663383
39,Пролетарская улица,153012,56.9953589,41.0001891
38,улица Колотилова,153012,56.9953443,40.9989985
38,улица Колотилова,153012,56.9955118,40.9994552
38,улица Суворова,153012,56.9942366,41.0021324
38,улица Суворова,153012,56.9942030,41.0017502
38,улица Суворова,153012,56.9940809,41.0013517
38,улица Суворова,153012,56.9936875,41.0011786
29,Школьная улица,153009,56.9509709,40.9803243
144,14-е почтовое отделение,153014,57.0394730,40.9875703
57А,проспект Ленина,153025,57.0179995,40.9683780
1,улица Карла Маркса,153002,57.0164984,40.9707052
108,проспект Ленина,153002,57.0172754,40.9701176
5А,улица Фрунзе,153007,57.0275955,40.9643991
33А,1-я Полевая улица,153035,56.9741685,40.9791149
34,5-я Ефремковская улица,153021,57.0092617,40.9247714
38,5-я Ефремковская улица,153021,57.0095614,40.9243590
36,5-я Ефремковская улица,153021,57.0094242,40.9245532
37,5-я Ефремковская улица,153021,57.0093535,40.9239824
40,5-я Ефремковская улица,153021,57.0097231,40.9241337
32,5-я Ефремковская улица,153021,57.0090828,40.9250193
30,5-я Ефремковская улица,153021,57.0089328,40.9252358
28,5-я Ефремковская улица,153021,57.0087756,40.9254315
42,5-я Ефремковская улица,153021,57.0098569,40.9239407
44,5-я Ефремковская улица,153021,57.0100290,40.9237153
46,5-я Ефремковская улица,153021,57.0102399,40.9234426
39,5-я Ефремковская улица,153021,57.0094748,40.9237950
41,5-я Ефремковская улица,153021,57.0096612,40.9235508
43,5-я Ефремковская улица,153021,57.0098614,40.9232937
45,5-я Ефремковская улица,153021,57.0100183,40.9230743
47,5-я Ефремковская улица,153021,57.0101579,40.9228335
33,5-я Ефремковская улица,153021,57.0090148,40.9243907
35,5-я Ефремковская улица,153021,57.0092398,40.9241401
31,5-я Ефремковская улица,153021,57.0088733,40.9246402
31А,5-я Ефремковская улица,153021,57.0087641,40.9244033
29,5-я Ефремковская улица,153021,57.0087240,40.9248463
27,5-я Ефремковская улица,153021,57.0085736,40.9250548
23,улица Героя Советского Союза Сахарова,153021,57.0097682,40.9344966
20,1-я Районная улица,153021,57.0094273,40.9350472
11,Загородное шоссе,153013,56.9729337,41.0761011
22,11-й Линейный переулок,153021,57.0094512,40.9190817
6,9-я Ефремковская улица,153021,57.0063266,40.9218695
3,20-я линия,153031,56.9911618,40.9282355
18,Коммунальный переулок,153012,56.9956124,41.0053672
22,Коммунальный переулок,153012,56.9961948,41.0054011
24,Коммунальный переулок,153012,56.9964689,41.0054290
10,улица Ермака,153025,57.0179558,40.9664178
14,4-я Первомайская улица,153022,56.9877017,40.9633635
12/3,4-я Первомайская улица,153022,56.9878578,40.9638250
11/5,3-я Первомайская улица,153022,56.9883229,40.9632481
13,3-я Первомайская улица,153022,56.9881770,40.9627845
15,3-я Первомайская улица,153022,56.9880385,40.9623184
3,4-я Первомайская улица,153022,56.9879687,40.9654147
4,улица Танкиста Александрова,153022,56.9812460,40.9760476
24 к3,Революционная улица,153023,57.0339845,40.9190300
26 к1,Революционная улица,153023,57.0344989,40.9207174
4,переулок Менделеева,153003,57.0028932,40.9530434
63,проспект Ленина,153025,57.0206898,40.9677330
37Б,улица Сакко,153012,56.9995050,40.9972023
37А,улица Сакко,153012,56.9988831,40.9966012
37,улица Сакко,153012,56.9984439,40.9971229
34,4-я Деревенская улица,153043,57.0363554,40.9845799
21,Кохомское шоссе,153051,56.9525536,41.0578327
12,Ташкентская улица,153000,56.9882123,40.9738746
10,Ташкентская улица,153000,56.9883966,40.9741379
11,улица Маяковского,153000,56.9888357,40.9752344
6,Ташкентская улица,153000,56.9886304,40.9746249
15,улица Маяковского,153000,56.9887900,40.9745142
19,улица Маяковского,153000,56.9889931,40.9740295
23/2,улица Маяковского,153000,56.9892210,40.9734931
2/10,улица Гоголя,153000,56.9880967,40.9717103
6,улица Гоголя,153000,56.9884068,40.9710468
8/15,улица Добролюбова,153000,56.9876379,40.9714144
10,улица Добролюбова,153000,56.9882721,40.9705599
6,переулок Белинского,153000,56.9901913,40.9749415
5,Тейковский переулок,153000,56.9907841,40.9750605
1/2,1-я Сосневская улица,153020,56.9930117,41.0189246
3,переулок Степанова,153000,56.9943894,40.9780096
1,Новгородская улица,153045,57.0051992,41.0482303
3,Новгородская улица,153045,57.0050501,41.0485452
5,Новгородская улица,153045,57.0049626,41.0486902
7,Новгородская улица,153045,57.0048577,41.0489297
9,Новгородская улица,153045,57.0047755,41.0491226
11,Новгородская улица,153045,57.0046664,41.0493558
13,Новгородская улица,153045,57.0046201,41.0495428
15,Новгородская улица,153045,57.0044846,41.0497247
17,Новгородская улица,153045,57.0043946,41.0499101
19,Новгородская улица,153045,57.0043261,41.0501156
21,Новгородская улица,153045,57.0042224,41.0502927
23,Новгородская улица,153045,57.0040723,41.0506812
9,улица Кутузова,153045,57.0042186,41.0509341
24,Ладожская улица,153045,57.0043779,41.0511121
22,Ладожская улица,153045,57.0045246,41.0507711
20,Ладожская улица,153045,57.0046208,41.0505888
18,Ладожская улица,153045,57.0046945,41.0503632
16,Ладожская улица,153045,57.0048045,41.0501952
14,Ладожская улица,153045,57.0048882,41.0499970
12,Ладожская улица,153045,57.0049529,41.0498273
10,Ладожская улица,153045,57.0050578,41.0496088
8,Ладожская улица,153045,57.0051411,41.0494179
6,Ладожская улица,153045,57.0052803,41.0492288
4,Ладожская улица,153045,57.0053630,41.0490308
10,улица Ползунова,153045,57.0053853,41.0484462
2,Ладожская улица,153045,57.0054943,41.0487115
6А,улица Павловский Овраг,153000,56.9963643,40.9673961
45А,улица Жарова,153000,56.9963495,40.9669300
67,улица Кузнецова,153003,57.0060034,40.9511586
28,Рабфаковская улица,153021,57.0033353,40.9449313
26/1,Рабфаковская улица,153021,57.0036595,40.9453800
1,Ярмарочная улица,153021,57.0039491,40.9450414
9/3,Гаражная улица,153021,57.0040198,40.9443627
11,Гаражная улица,153021,57.0036434,40.9439514
13,Гаражная улица,153021,57.0033174,40.9436347
67А,улица Кузнецова,153003,57.0063349,40.9505361
27,Дюковская улица,153023,57.0353138,40.9228951
12А,Ульяновский переулок,153045,57.0230648,41.0108011
24 к4,Революционная улица,153023,57.0347775,40.9180621
26 к2,Революционная улица,153023,57.0347036,40.9200996
54,проспект Текстильщиков,153038,56.9575006,40.9938762
18,Кохомское шоссе,153051,56.9536432,41.0558549
10,улица Молодых Рабочих,153007,57.0345696,40.9604011
59,улица 10 Августа,153012,56.9947682,40.9881544
15,Станционная улица,153002,57.0173057,40.9761648
72,5-я Коляновская улица,153000,56.9551667,40.9905545
74,5-я Коляновская улица,153038,56.9553067,40.9883172
70,5-я Коляновская улица,153038,56.9550037,40.9928440
28,улица Менделеева,153003,56.9989123,40.9511328
18,улица Менделеева,153003,57.0010219,40.9517265
58,улица Колотилова,153012,56.9967932,41.0061882
56,улица Колотилова,153012,56.9967600,41.0056610
1А,Отрубная улица,153021,57.0059599,40.9301105
1А,6-я Ефремковская улица,153021,57.0060063,40.9278521
1А,6-я Ефремковская улица,153021,57.0059597,40.9281187
45,улица Красных Зорь,153021,57.0035556,40.9294353
45,улица Красных Зорь,153021,57.0036035,40.9303866
41,Водонапорная улица,153023,57.0312105,40.9174204
43,Водонапорная улица,153023,57.0315547,40.9172358
39,Водонапорная улица,153023,57.0311425,40.9182902
37,Водонапорная улица,153023,57.0309924,40.9186582
35,Водонапорная улица,153023,57.0308318,40.9188678
41А,Революционная улица,153023,57.0310488,40.9204001
43А,Революционная улица,153023,57.0311678,40.9200948
49А,Революционная улица,153023,57.0317074,40.9195723
12,1-й Балинский переулок,153021,57.0062060,40.9248329
22,Авдотьинская улица,153023,57.0286081,40.9200667
19,улица Парижской Коммуны,153003,56.9985762,40.9437428
4,9-я Ефремковская улица,153021,57.0061566,40.9220792
116,Шереметевский проспект,153005,57.0150987,40.9876891
78,улица Кудряшова,153009,56.9701386,40.9845887
50,Шереметевский проспект,153012,57.0030158,40.9907789
40,улица Мархлевского,153003,56.9979134,40.9574053
4,Отдельная улица,153032,56.9584059,40.9705867
85,улица 10 Августа,153012,56.9936108,40.9935042
47,проспект Ленина,153000,57.0156570,40.9822875
22,Школьная улица,153002,57.0046125,41.0072677
35,Академическая улица,153045,57.0249362,41.0130424
91,улица Шувандиной,153045,57.0247674,41.0109182
87,улица Шувандиной,153045,57.0248952,41.0123272
89,улица Шувандиной,153045,57.0248456,41.0116223
93,улица Шувандиной,153045,57.0244237,41.0107720
93А,улица Шувандиной,153045,57.0243437,41.0115234
95,улица Шувандиной,153045,57.0236831,41.0111475
33,Академическая улица,153045,57.0245029,41.0133790
33А,Академическая улица,153045,57.0243696,41.0125315
31А,Академическая улица,153045,57.0240821,41.0131203
29,Академическая улица,153045,57.0233638,41.0139973
31,Академическая улица,153045,57.0237884,41.0137200
31Б,Академическая улица,153045,57.0236645,41.0128856
29А,Академическая улица,153045,57.0234930,41.0123142
2А,улица Победы,153045,57.0232013,41.0136374
2,улица Победы,153045,57.0231311,41.0129934
4А,улица Победы,153045,57.0230103,41.0122229
4,улица Победы,153045,57.0227182,41.0117591
4,улица Калинцева,153045,57.0169785,41.0201838
13Б,Пограничный переулок,153002,57.0070983,40.9751756
25,Народная улица,153012,56.9936257,40.9985227
29,Пролетарская улица,153012,56.9932572,41.0003330
17,Запольный переулок,153012,56.9932675,41.0000291
15,Запольный переулок,153012,56.9933054,40.9998554
13,Запольный переулок,153012,56.9933169,40.9996479
32,Народная улица,153012,56.9938634,40.9991973
34,Народная улица,153012,56.9940456,40.9992572
36,Народная улица,153012,56.9941943,40.9994185
12,​Суворова,153012,56.9943454,40.9995148
16,улица Суворова,153012,56.9943485,41.0002343
24,1-я Запрудная улица,153012,56.9935863,40.9942030
26,1-я Запрудная улица,153012,56.9937278,40.9943109
28,1-я Запрудная улица,153012,56.9938325,40.9943572
30,1-я Запрудная улица,153012,56.9940256,40.9945872
58,улица Бубнова,153008,56.9937073,40.9923692
60,улица Бубнова,153012,56.9939515,40.9923642
64,улица Бубнова,153012,56.9941523,40.9924804
62,улица Бубнова,153012,56.9940680,40.9924223
19/68,1-я Запрудная улица,153012,56.9941992,40.9933889
68,улица Бубнова,153012,56.9943169,40.9927805
1,улица Льва Толстого,153021,57.0086533,40.9473881
3,улица Льва Толстого,153021,57.0088083,40.9475560
5,улица Льва Толстого,153021,57.0089837,40.9477719
7,улица Льва Толстого,153021,57.0091345,40.9479366
9,улица Льва Толстого,153021,57.0093035,40.9481172
11,улица Льва Толстого,153021,57.0094501,40.9482967
13,улица Льва Толстого,153021,57.0096147,40.9484898
17,улица Льва Толстого,153021,57.0099318,40.9488747
19,улица Льва Толстого,153021,57.0100902,40.9490745
21,улица Льва Толстого,153021,57.0102655,40.9491868
23,улица Льва Толстого,153021,57.0107330,40.9496424
26,улица Льва Толстого,153021,57.0108637,40.9492404
24,улица Максима Горького,153021,57.0107127,40.9487570
22,улица Максима Горького,153021,57.0105068,40.9485551
18,улица Максима Горького,153021,57.0101914,40.9481500
16,улица Максима Горького,153021,57.0100207,40.9480619
14,улица Максима Горького,153021,57.0098598,40.9477887
12,улица Максима Горького,153021,57.0096818,40.9475896
10,улица Максима Горького,153021,57.0095345,40.9474119
8,улица Максима Горького,153021,57.0093769,40.9472294
6,улица Максима Горького,153021,57.0091909,40.9470357
4,улица Максима Горького,153021,57.0090511,40.9468469
2,улица Максима Горького,153021,57.0088535,40.9467225
литер,Минская улица,123029,57.0314164,40.9421783
71 к2,улица Кудряшова,153048,56.9663361,40.9876781
8,улица Карла Маркса,153002,57.0160940,40.9725357
4А,улица Карла Маркса,153002,57.0158359,40.9718090
71 к1,улица Кудряшова,153048,56.9662832,40.9861073
2А,улица Якова Гарелина,153025,57.0215936,40.9669644
4,улица Якова Гарелина,153025,57.0217107,40.9664678
6,улица Якова Гарелина,153025,57.0217928,40.9662707
8/38,улица Якова Гарелина,153025,57.0218772,40.9658644
27,улица Павла Большевикова,153027,56.9689946,41.0520930
27,улица Павла Большевикова,153027,56.9695177,41.0511834
36,4-я Деревенская улица,153043,57.0365380,40.9853218
38,4-я Деревенская улица,153043,57.0366253,40.9857360
40,4-я Деревенская улица,153043,57.0367084,40.9861322
180,14-е почтовое отделение,153014,57.0386196,40.9867786
147,14-е почтовое отделение,153014,57.0388265,40.9873664
245,14-е почтовое отделение,153014,57.0390492,40.9858214
44,4-я Деревенская улица,153043,57.0372865,40.9884051
33,1-я Деревенская улица,153043,57.0355430,40.9873684
31,1-я Деревенская улица,153043,57.0355579,40.9865514
108,улица Полка Нормандия-Неман,153043,57.0359134,40.9833269
110,улица Полка Нормандия-Неман,153043,57.0361494,40.9833388
106 к2,улица Полка Нормандия-Неман,153043,57.0360510,40.9870643
98,улица Полка Нормандия-Неман,153043,57.0349466,40.9828780
44А,4-я Деревенская улица,153043,57.0364073,40.9863519
112,улица Полка Нормандия-Неман,153043,57.0365003,40.9836136
112,улица Полка Нормандия-Неман,153043,57.0363218,40.9834709
112 с2,улица Полка Нормандия-Неман,153043,57.0362155,40.9833352
83Б,улица Полка Нормандия-Неман,153043,57.0362585,40.9826362
83В,улица Полка Нормандия-Неман,153043,57.0353124,40.9820206
83А,улица Полка Нормандия-Неман,153043,57.0350722,40.9819854
120,улица Полка Нормандия-Неман,153043,57.0388751,40.9840751
114 с2,улица Полка Нормандия-Неман,153043,57.0386367,40.9847906
103,улица Полка Нормандия-Неман,153043,57.0397986,40.9834714
44Б,4-я Деревенская улица,153043,57.0372965,40.9878336
12,улица Люлина,153024,57.0300766,40.9796360
12А,улица Люлина,153024,57.0303715,40.9797867
11,Спортивная улица,153043,57.0289366,40.9793783
10,улица Люлина,153043,57.0302047,40.9782192
13А,Коллективная улица,153024,57.0299213,40.9784148
13,Коллективная улица,153024,57.0295689,40.9783230
6,улица Люлина,153043,57.0295315,40.9773458
12,улица Гнедина,153043,57.0291147,40.9760224
14,улица Гнедина,153043,57.0295055,40.9759528
18,улица Гнедина,153043,57.0316061,40.9750512
20/1,улица Гнедина,153043,57.0322416,40.9745390
3,Спортивная улица,153043,57.0289757,40.9768940
15,улица Гнедина,153043,57.0298124,40.9750216
13/2,улица Гнедина,153043,57.0292454,40.9752770
13,улица Гнедина,153043,57.0295929,40.9751890
11,улица Гнедина,153043,57.0288561,40.9752842
11А,улица Гнедина,153043,57.0287855,40.9745761
3,улица Гнедина,153043,57.0269071,40.9762657
5,улица Гнедина,153043,57.0273777,40.9760921
9,улица Гнедина,153043,57.0282865,40.9757312
4,Спортивная улица,153024,57.0285490,40.9771298
10,улица Гнедина,153043,57.0285454,40.9763081
8,улица Гнедина,153043,57.0281983,40.9764568
6,улица Гнедина,153043,57.0278321,40.9765702
1,Солнечная улица,153043,57.0275529,40.9772601
5,Коллективная улица,153024,57.0277562,40.9779071
55Б,улица Полка Нормандия-Неман,153024,57.0274287,40.9791173
28Г,улица Калашникова,153043,57.0293556,40.9705758
2Б,улица Люлина,153043,57.0296309,40.9725524
1А,Лежневская улица,153035,56.9715359,40.9729184
19,улица Степана Халтурина,153024,57.0302478,40.9846823
215А,14-е почтовое отделение,153014,57.0403326,40.9904324
311,14-е почтовое отделение,153014,57.0414902,40.9921390
2А,улица Люлина,153043,57.0295165,40.9739666
2Г,улица Люлина,153043,57.0293609,40.9734553
2/1,улица Люлина,153043,57.0288915,40.9732454
2В,улица Люлина,153043,57.0296000,40.9710393
28Г с1,улица Калашникова,153043,57.0291024,40.9715303
28Б с1,улица Калашникова,153043,57.0290597,40.9698659
28Г с2,улица Калашникова,153043,57.0289146,40.9707839
3А,улица Наумова,153012,57.0026614,40.9947244
11 с1,улица Воронина,153032,56.9718411,40.9681941
36 к2,2-я Полевая улица,153035,56.9726450,40.9801583
41,улица Жарова,153000,56.9968734,40.9670986
159,Лежневская улица,153009,56.9712181,40.9747531
118,улица Полка Нормандия-Неман,153043,57.0385998,40.9844002
96,улица Полка Нормандия-Неман,153043,57.0345559,40.9828605
96А,улица Полка Нормандия-Неман,153043,57.0345466,40.9830171
42,4-я Деревенская улица,153043,57.0368033,40.9865096
8,14-е почтовое отделение,153014,57.0409594,40.9964959
7,Крутицкая улица,153000,57.0003114,40.9779313
32,улица Генерала Хлебникова,153048,56.9704581,40.9924489
253,14-е почтовое отделение,153014,57.0381665,40.9894940
67Б к1,улица Кузнецова,153003,57.0054832,40.9507742
1/68,3-я Слободская улица,153043,57.0337190,40.9821721
1,2-я Слободская улица,153043,57.0331513,40.9816818
2,3-я Слободская улица,153043,57.0334221,40.9817998
8,3-я Слободская улица,153043,57.0334484,40.9828983
4,3-я Слободская улица,153043,57.0334170,40.9821871
3,2-я Слободская улица,153043,57.0332064,40.9821012
6,3-я Слободская улица,153043,57.0334242,40.9825407
92,улица Полка Нормандия-Неман,153043,57.0340253,40.9824181
94,улица Полка Нормандия-Неман,153043,57.0342359,40.9824847
17,улица Люлина,153043,57.0302111,40.9742026
1,улица Люлина,153043,57.0298771,40.9698175
3,улица Люлина,153043,57.0299094,40.9704630
7,улица Люлина,153043,57.0300390,40.9712660
19,улица Люлина,153043,57.0302214,40.9744920
15,улица Люлина,153043,57.0301903,40.9739980
11,улица Люлина,153043,57.0300812,40.9730394
9,улица Люлина,153043,57.0302320,40.9715518
13,улица Люлина,153043,57.0301554,40.9735087
5,улица Люлина,153043,57.0299347,40.9708400
21,улица Люлина,153043,57.0302467,40.9749004
7,3-я Южная улица,153008,56.9803148,40.9803086
27А,Дюковская улица,153023,57.0347884,40.9229311
14,улица Чихачёва,153023,57.0353818,40.9215040
36 к2,Революционная улица,153023,57.0358980,40.9200318
36 к1,Революционная улица,153023,57.0361638,40.9181899
17,2-я Слободская улица,153043,57.0331881,40.9848820
27/21,2-я Слободская улица,153043,57.0332268,40.9867672
26,3-я Слободская улица,153043,57.0335618,40.9863632
28,3-я Слободская улица,153043,57.0335949,40.9867733
30/19,3-я Слободская улица,153043,57.0335897,40.9871105
25,2-я Слободская улица,153043,57.0331695,40.9863845
4,Музыкальная улица,153043,57.0345465,40.9888371
17,Набережная улица,153005,57.0059953,40.9940990
8А к1,8-й Завокзальный переулок,153030,57.0157534,41.0030640
8А,8-й Завокзальный переулок,153030,57.0158651,41.0032332
35,улица Станкостроителей,153015,56.9748419,40.9217045
185Б,Лежневская улица,153009,56.9606568,40.9746404
3,Педагогический переулок,153003,57.0033691,40.9534223
8,улица Менделеева,153003,57.0029361,40.9541988
10/4,улица Менделеева,153003,57.0026182,40.9539015
25,Зелёная улица,153000,56.9930119,40.9693546
55В,улица Первых Маёвок,153030,57.0249035,41.0002081
7,улица Наумова,153012,57.0012873,40.9980056
116,Шереметевский проспект,153005,57.0153620,40.9874577
116,Шереметевский проспект,153005,57.0148818,40.9882448
2А,улица Фрунзе,153007,57.0303198,40.9685029
2,улица Фрунзе,153007,57.0309082,40.9688671
4,улица Фрунзе,153007,57.0313963,40.9692535
6,улица Фрунзе,153007,57.0319071,40.9695910
19,улица Фрунзе,153007,57.0322237,40.9689567
21,улица Фрунзе,153007,57.0327696,40.9693533
10,улица Фрунзе,153007,57.0324066,40.9699253
5,переулок Свердлова,153005,57.0075362,41.0042702
16Б,Сосновая улица,153005,57.0097308,41.0037703
16А,Сосновая улица,153005,57.0100970,41.0038921
28,Сосновая улица,153005,57.0102316,41.0049283
11/2,улица Фрунзе,153007,57.0309473,40.9667745
2,улица Ермака,153025,57.0172531,40.9685925
97,улица Шувандиной,153045,57.0233492,41.0098957
30,Рабфаковская улица,153021,57.0031178,40.9442842
43,9-я Минеевская улица,153029,57.0447983,40.9601141
50,улица Якова Гарелина,153025,57.0236567,40.9583676
48,улица Якова Гарелина,153025,57.0236082,40.9585430
11,Футбольная улица,153000,56.9909088,40.9671312
19,Футбольная улица,153000,56.9913778,40.9663546
25,Футбольная улица,153000,56.9917164,40.9658747
37,Большая Воробьёвская улица,153000,56.9919199,40.9651691
58,улица Калашникова,153043,57.0338306,40.9780346
58/15,улица Калашникова,153043,57.0338873,40.9782778
56,улица Калашникова,153043,57.0337512,40.9774333
54/16,улица Калашникова,153043,57.0336207,40.9766580
1/14,Светлый переулок,153043,57.0331757,40.9769798
9 с1,улица Тельмана,153043,57.0332358,40.9766238
87,улица 10 Августа,153012,56.9931919,40.9943115
39,улица Станиславского,153045,57.0226232,41.0242950
2,Силикатный проезд,153015,56.9862141,40.9371184
78,улица Куконковых,153048,56.9743610,41.0060245
1А,улица Демьяна Бедного,153008,56.9809723,40.9926626
11,3-я Южная улица,153008,56.9798465,40.9805135
13,3-я Южная улица,153008,56.9798756,40.9808528
15,3-я Южная улица,153008,56.9798489,40.9812795
108/17,2-я Запрудная улица,153008,56.9798479,40.9818365
106,2-я Запрудная улица,153008,56.9801096,40.9817520
10/14,улица Добролюбова,153000,56.9877415,40.9711257
44 к2,улица Богдана Хмельницкого,153022,56.9867416,40.9623933
1А,улица Лебедева-Кумача,153021,57.0014067,40.9365767
63,Минская улица,153029,57.0398937,40.9484375
61,Минская улица,153029,57.0396588,40.9486279
59,Минская улица,153029,57.0393786,40.9488157
57,Минская улица,153029,57.0391030,40.9489861
4 к1,2-й Минский переулок,153029,57.0382025,40.9464511
4 к3,2-й Минский переулок,153029,57.0383842,40.9477596
4 к2,2-й Минский переулок,153029,57.0384579,40.9469869
63А,проспект Ленина,153025,57.0208262,40.9676664
63А,проспект Ленина,153025,57.0207623,40.9674572
1,улица Калашникова,153043,57.0289071,40.9685407
1 стр. 1,улица Калашникова,153043,57.0291462,40.9687265
81,7-я Минеевская улица,153007,57.0412118,40.9697581
82,8-я Минеевская улица,153007,57.0423580,40.9695461
80/74,8-я Минеевская улица,153007,57.0423381,40.9691061
72,Киевская улица,153007,57.0421277,40.9690743
66,Киевская улица,153007,57.0415070,40.9693946
85/11,7-я Минеевская улица,153007,57.0412805,40.9703592
13,Прядильный переулок,153007,57.0415619,40.9702927
19,Прядильный переулок,153007,57.0421299,40.9698545
21,Прядильный переулок,153007,57.0422859,40.9700133
138,проспект Ленина,153002,57.0224982,40.9682014
ст. 1,улица Фрунзе,153007,57.0522096,40.9640787
309,14-е почтовое отделение,153014,57.0413482,40.9914081
11А,улица Сарментовой,153005,57.0114186,40.9974316
15А,улица Громобоя,153002,57.0110252,40.9759594
2/32,2-я Уводьстроевская улица,153023,57.0317469,40.9147212
15,улица Льва Толстого,153021,57.0096988,40.9486326
20,улица Максима Горького,153021,57.0103303,40.9483248
9,улица Фролова,153025,57.0214048,40.9555831
3,1-я Завокзальная улица,153030,57.0200445,40.9785042
5,1-я Завокзальная улица,153030,57.0199516,40.9792054
7,1-я Завокзальная улица,153030,57.0198459,40.9795568
9,1-я Завокзальная улица,153030,57.0197139,40.9800714
11,1-я Завокзальная улица,153030,57.0196572,40.9803604
13,1-я Завокзальная улица,153030,57.0195986,40.9806411
1,1-я Завокзальная улица,153030,57.0195246,40.9809421
3,1-й Завокзальный переулок,153030,57.0197489,40.9810272
20,2-я Завокзальная улица,153030,57.0199183,40.9811010
18,2-я Завокзальная улица,153030,57.0199853,40.9807192
16,2-я Завокзальная улица,153030,57.0200540,40.9803805
14,2-я Завокзальная улица,153030,57.0201890,40.9799614
12,2-я Завокзальная улица,153030,57.0203533,40.9795752
10,2-я Завокзальная улица,153030,57.0205524,40.9791660
3,2-я Стрелочная улица,153030,57.0161550,40.9916028
5,2-я Стрелочная улица,153030,57.0160597,40.9921470
7,2-я Стрелочная улица,153030,57.0159727,40.9927850
9,2-я Стрелочная улица,153030,57.0158192,40.9935201
4А,2-я Стрелочная улица,153030,57.0156681,40.9942749
2А,Стрелочная улица,153030,57.0161774,40.9933537
2Б,Стрелочная улица,153030,57.0162397,40.9930220
2,Стрелочная улица,153030,57.0161000,40.9937614
4,Стрелочная улица,153030,57.0160094,40.9942683
6,Стрелочная улица,153030,57.0159262,40.9947753
8,Стрелочная улица,153030,57.0158299,40.9952929
10,Стрелочная улица,153030,57.0157495,40.9958053
12,Стрелочная улица,153030,57.0156619,40.9963015
14,Стрелочная улица,153030,57.0155728,40.9968191
16,Стрелочная улица,153030,57.0154744,40.9973565
18,Стрелочная улица,153030,57.0153816,40.9978993
5/4,11-я Завокзальная улица,153030,57.0263374,40.9922968
7,11-я Завокзальная улица,153030,57.0261488,40.9926057
9,11-я Завокзальная улица,153030,57.0260677,40.9929068
11,11-я Завокзальная улица,153030,57.0260114,40.9931768
13,11-я Завокзальная улица,153030,57.0258065,40.9934486
15,11-я Завокзальная улица,153030,57.0258393,40.9939302
28/61,улица Разумовой,153030,57.0259526,40.9947883
26,улица Разумовой,153030,57.0261558,40.9946343
24,улица Разумовой,153030,57.0262766,40.9943512
22,улица Разумовой,153030,57.0263497,40.9941552
20,улица Разумовой,153030,57.0265161,40.9937977
18,улица Разумовой,153030,57.0266137,40.9935780
16,улица Разумовой,153030,57.0266601,40.9931622
14/8,улица Разумовой,153030,57.0268933,40.9929607
13Б,улица Спартака,153005,57.0123630,40.9937967
22А,улица Спартака,153005,57.0127966,40.9946444
18  Б,улица Гнедина,153043,57.0307830,40.9756194
56Б,проспект Текстильщиков,153038,56.9589914,40.9917215
56,Типографская улица,153008,56.9826208,40.9908993
57,улица Кузнецова,153003,57.0035034,40.9566497
1,Кохомское шоссе,153051,56.9597302,41.0357456
12,Межсоюзный переулок,153024,57.0288252,40.9885866
10,Межсоюзный переулок,153024,57.0285973,40.9888768
55 В,проспект Ленина,153025,57.0177558,40.9674023
9 с1,площадь Пушкина,153000,57.0001248,40.9713790
10,Строкинская улица,153045,57.0382618,41.0167446
12,Строкинская улица,153045,57.0383375,41.0173001
14,Строкинская улица,153045,57.0383585,41.0175060
16,Строкинская улица,153045,57.0384292,41.0179306
20,Строкинская улица,153045,57.0384468,41.0181224
33,1-я Снежная улица,153045,57.0385076,41.0187191
31,1-я Снежная улица,153045,57.0383445,41.0187798
15,Красносельская улица,153045,57.0382194,41.0188485
11,Красносельская улица,153045,57.0381142,41.0180596
13,Красносельская улица,153045,57.0381233,41.0183245
7,Красносельская улица,153045,57.0380386,41.0174298
5,Красносельская улица,153045,57.0379705,41.0170104
3,Красносельская улица,153045,57.0379313,41.0167810
38,Цветная улица,153045,57.0381831,41.0160328
36,Цветная улица,153045,57.0380085,41.0161170
34,Цветная улица,153045,57.0378855,41.0161837
53,проспект Ленина,153025,57.0161636,40.9680090
34,Рабфаковская улица,153003,57.0012231,40.9427319
5,проспект Ленина,153000,56.9958947,40.9777955
35,Большая Воробьёвская улица,153000,56.9919908,40.9653964
33,Большая Воробьёвская улица,153000,56.9920148,40.9655801
29,Кохомское шоссе,153051,56.9502914,41.0547481
17,Кохомское шоссе,153051,56.9526726,41.0562388
25,Кохомское шоссе,153051,56.9525681,41.0603840
84,улица Смирнова,153034,56.9859511,41.0029890
112,улица Куконковых,153013,56.9651654,41.0192839
110,улица Куконковых,153013,56.9655234,41.0200537
17,улица Багаева,153000,56.9909908,40.9753880
2,5-я Первомайская улица,153022,56.9863573,40.9615316
4,Профсоюзная улица,153012,57.0024086,40.9924276
5,улица Наумова,153012,57.0019979,40.9963680
27,улица Батурина,153002,57.0048928,40.9795711
23,улица Батурина,153002,57.0052794,40.9778334
67Б к2,улица Кузнецова,153003,57.0051525,40.9505456
16,Революционная улица,153023,57.0315460,40.9220979
32,Революционная улица,153023,57.0355278,40.9177099
25,Дюковская улица,153023,57.0348079,40.9243908
24 к2,Революционная улица,153023,57.0344091,40.9175020
14,улица Карла Маркса,153002,57.0161315,40.9737538
102,проспект Ленина,153002,57.0154910,40.9713974
6,улица Карла Маркса,153002,57.0162721,40.9720359
4,улица Карла Маркса,153002,57.0161763,40.9716504
29А,улица Чайковского,153045,57.0154255,41.0177730
18,улица Спартака,153005,57.0110508,40.9929806
7,улица Сарментовой,153005,57.0110983,40.9944056
5,Велижская улица,153022,56.9816367,40.9757433
39,улица Зверева,153003,57.0046070,40.9622687
28,1-я Полевая улица,153035,56.9746971,40.9774233
26,1-я Полевая улица,153035,56.9751572,40.9774679
28,улица Павленко,153022,56.9788582,40.9572788
115,проспект Текстильщиков,153038,56.9572601,40.9892964
43,улица Ермака,153000,57.0195066,40.9535035
11,площадь Пушкина,153000,57.0001833,40.9719901
9,площадь Пушкина,153000,56.9999464,40.9717325
8,Строкинская улица,153045,57.0382424,41.0163886
2,улица Дзержинского,153025,57.0155224,40.9688551
24,проспект Строителей,153038,56.9631829,40.9907381
22,проспект Строителей,153038,56.9632553,40.9897393
18,проспект Строителей,153038,56.9633125,40.9888129
