House number,Street name,Postal code,Latitude,Longitude
39221,Woodward Ave,48304,42.5679213,-83.2534196
380,Lone Pine Road,48304,42.5691998,-83.2454324
39520,Woodward Avenue,48304,42.5827359,-83.2433537
122,Concord Road,48304,42.5826787,-83.2416170
39475,Woodward Ave,48304,42.5811679,-83.2438193
39475,Woodward Avenue,48304,42.5814424,-83.2441861
41000,Woodward Avenue,48304,42.5906235,-83.2484844
39475,Woodward Avenue,48304,42.5811704,-83.2438052
561,Chase Lane,48304,42.5928858,-83.2376575
563,Chase Lane,48304,42.5932667,-83.2372115
583,Chase Lane,48304,42.5920341,-83.2346573
615,Chase Lane,48304,42.5912300,-83.2330360
502,Chase Lane,48304,42.5898583,-83.2392868
115,Bridgeview Drive,48304,42.5920599,-83.2310647
100,Bridgeview Drive,48304,42.5914460,-83.2314561
135,Bridgeview Drive,48304,42.5913721,-83.2298213
145,Bridgeview Drive,48304,42.5909822,-83.2294261
155,Bridgeview Drive,48304,42.5904755,-83.2285205
175,Bridgeview Drive,48304,42.5906365,-83.2272258
170,Bridgeview Drive,48304,42.5899566,-83.2272285
160,Bridgeview Drive,48304,42.5898912,-83.2283073
109,Boulder Lane,48304,42.5705577,-83.2341891
99,Boulder Lane,48304,42.5707137,-83.2343822
87,Boulder Lane,48304,42.5708806,-83.2345189
77,Boulder Lane,48304,42.5710040,-83.2347052
65,Boulder Lane,48304,42.5712300,-83.2348849
55,Boulder Lane,48304,42.5714956,-83.2345846
43,Boulder Lane,48304,42.5713485,-83.2343781
33,Boulder Lane,48304,42.5711787,-83.2343071
21,Boulder Lane,48304,42.5710217,-83.2340618
11,Boulder Lane,48304,42.5708134,-83.2339425
55,Kingsley Manor Court,48304,42.5720346,-83.2356423
45,Kingsley Manor Court,48304,42.5718964,-83.2354211
37,Kingsley Manor Court,48304,42.5716289,-83.2351731
29,Kingsley Manor Court,48304,42.5717957,-83.2349666
21,Kingsley Manor Court,48304,42.5721027,-83.2350859
15,Kingsley Manor Court,48304,42.5722459,-83.2352937
15,Vaughan Ridge Road,48304,42.5800034,-83.2428691
25,Vaughan Ridge Road,48304,42.5797782,-83.2432151
35,Vaughan Ridge Road,48304,42.5796281,-83.2435477
41,Vaughan Ridge Road,48304,42.5794839,-83.2437488
45,Vaughan Ridge Road,48304,42.5793595,-83.2441458
57,Vaughan Ridge Road,48304,42.5792311,-83.2444489
67,Vaughan Ridge Road,48304,42.5790198,-83.2446849
84,Vaughan Ridge Road,48304,42.5788500,-83.2451489
78,Vaughan Ridge Road,48304,42.5792074,-83.2452348
72,Vaughan Ridge Road,48304,42.5793733,-83.2450926
64,Vaughan Ridge Road,48304,42.5796123,-83.2449183
56,Vaughan Ridge Road,48304,42.5796676,-83.2447010
48,Vaughan Ridge Road,48304,42.5798671,-83.2443952
42,Vaughan Ridge Road,48304,42.5799658,-83.2441297
32,Vaughan Ridge Road,48304,42.5801120,-83.2437783
24,Vaughan Ridge Road,48304,42.5801831,-83.2435584
14,Vaughan Ridge Road,48304,42.5803036,-83.2431882
731,Arbor Court,48304,42.5699526,-83.2336435
715,Arbor Court,48304,42.5695863,-83.2330510
705,Arbor Court,48304,42.5698548,-83.2329197
709,Arbor Court,48304,42.5696998,-83.2329572
717,Arbor Court,48304,42.5695745,-83.2332682
723,Arbor Court,48304,42.5697601,-83.2335055
727,Arbor Court,48304,42.5698410,-83.2335591
735,Arbor Court,48304,42.5699930,-83.2337763
739,Arbor Court,48304,42.5702092,-83.2338486
743,Arbor Court,48304,42.5703504,-83.2337709
747,Arbor Court,48304,42.5703573,-83.2335457
751,Arbor Court,48304,42.5703366,-83.2333808
350,West Long Lake Road,48304,42.5852781,-83.2573937
1960,Stonycroft Lane,48304,42.5900386,-83.2434415
2215,Opdyke Road,48304,42.5939103,-83.2486825
40701,Woodward Avenue,48304,42.5848331,-83.2474787
2115,Opdyke Road,48304,42.5922466,-83.2488665
2215,Opdyke Road,48304,42.5925383,-83.2487524
39221,Institute Way,48304,42.5681942,-83.2529090
39221,Woodward Ave,48304,42.5761265,-83.2552676
2480,Opdyke Road,48304,42.5963412,-83.2456133
41190,Woodward Avenue,48304,42.5931908,-83.2524504
41150,Woodward Avenue,48304,42.5922269,-83.2506671
945,Cranbrook Road,48304,42.5748943,-83.2413720
1390,Quarton Road,48304,42.5623347,-83.2274082
1525,Quarton Road,48301,42.5585224,-83.2486861
37425,Woodward Avenue,48304,42.5654215,-83.2295573
38651,Woodward Avenue,48304,42.5688810,-83.2326925
40925,Woodward Avenue,48304,42.5880576,-83.2499129
1250,Kensington Road,48304,42.5799568,-83.2246319
405,East Long Lake Road,48304,42.5891787,-83.2364491
1805,Kensington Road,48304,42.5869949,-83.2367747
1931,Rathmore Road,48304,42.5865259,-83.2599252
1895,Rathmore Road,48304,42.5864677,-83.2575024
1875,Rathmore Road,48304,42.5863842,-83.2562784
1855,Rathmore Road,48304,42.5863254,-83.2553172
1825,Rathmore Road,48304,42.5861250,-83.2543620
1795,Rathmore Road,48304,42.5858379,-83.2535606
1781,Rathmore Road,48304,42.5854578,-83.2527359
40610,Woodward Avenue,48304,42.5842748,-83.2450713
39580,Woodward Avenue,48304,42.5833391,-83.2440058
40800,Woodward Avenue,48304,42.5878453,-83.2476695
40900,Woodward Avenue,48304,42.5890955,-83.2480661
40950,Woodward Avenue,48304,42.5898412,-83.2477942
41000,Woodward Avenue,48304,42.5904868,-83.2487179
39475,Woodward Avenue,48304,42.5810444,-83.2440068
597,Yarboro Drive,48304,42.5605817,-83.2543387
609,Yarboro Drive,48304,42.5605850,-83.2550145
505,Chase Lane,48304,42.5905569,-83.2400389
540,Chase Lane,48304,42.5913573,-83.2374578
552,Chase Lane,48304,42.5917936,-83.2370673
568,Chase Lane,48304,42.5922010,-83.2368168
39400,Woodward Avenue,48304,42.5813288,-83.2406640
33,Bloomfield Hills Parkway,48304,42.5825524,-83.2413243
39520,Woodward Avenue,48304,42.5826549,-83.2433456
39510,Woodward Avenue,48304,42.5820106,-83.2428353
39500,Woodward Avenue,48304,42.5816881,-83.2422864
44,East Long Lake Road,48304,42.5837330,-83.2436030
70,East Long Lake Road,48304,42.5837650,-83.2427396
74,East Long Lake Road,48304,42.5839507,-83.2422817
180,High Oak Road,48304,42.5835152,-83.2416609
200,East Long Lake Road,48304,42.5834734,-83.2376783
39577,Woodward Avenue,48304,42.5830267,-83.2458826
10,Long Lake Road,48304,42.5840920,-83.2465231
74,Long Lake Road,48304,42.5838545,-83.2478837
45,East Long Lake Road,48304,42.5844264,-83.2444305
39533,Woodward Avenue,48304,42.5823194,-83.2451958
39515,Woodward Avenue,48304,42.5819750,-83.2444965
39475,Woodward Avenue,48304,42.5814606,-83.2441942
39475,Woodward Avenue,48304,42.5810503,-83.2435674
25,Long Lake Road,48304,42.5833285,-83.2467543
41,Long Lake Road,48304,42.5832673,-83.2469856
51,Long Lake Road,48304,42.5832796,-83.2472045
71,Long Lake Road,48304,42.5831317,-83.2475523
91,Long Lake Road,48304,42.5830385,-83.2480312
101,Long Lake Road,48304,42.5830888,-83.2484655
121,Long Lake Road,48304,42.5829368,-83.2489157
100,Long Lake Road,48304,42.5837326,-83.2490243
122,Concord Road,48304,42.5829337,-83.2421552
190,East Long Lake Road,48304,42.5841298,-83.2389765
300,East Long Lake Road,48304,42.5848479,-83.2359019
100,Bloomfield Hills Parkway,48304,42.5836206,-83.2350230
45,East Long Lake Road,48304,42.5845252,-83.2438309
71,East Long Lake Road,48304,42.5844951,-83.2429901
77,East Long Lake Road,48304,42.5844869,-83.2426770
40700,Woodward Avenue,48304,42.5849528,-83.2456628
40646,Woodward Avenue,48304,42.5846698,-83.2453803
37425,Woodward Avenue,48304,42.5662057,-83.2300400
38505,Woodward Avenue,48304,42.5671099,-83.2308584
38525,Woodward Avenue,48304,42.5681115,-83.2317264
2,Lone Pine Road,48304,42.5678655,-83.2310679
39315,Woodward Avenue,48304,42.5788548,-83.2430949
15,Cranbrook Lane,48304,42.5780118,-83.2415779
25,Cranbrook Lane,48304,42.5781257,-83.2413218
35,Cranbrook Lane,48304,42.5782363,-83.2410517
10,Cranbrook Lane,48304,42.5776972,-83.2412857
20,Cranbrook Lane,48304,42.5778251,-83.2410499
30,Cranbrook Lane,48304,42.5779504,-83.2407799
191,Concord Road,48304,42.5831910,-83.2406227
231,Concord Road,48304,42.5830821,-83.2395938
130,East Long Lake Road,48304,42.5841437,-83.2410919
55,Kingsbrook Lane,48304,42.5755084,-83.2420166
808,Cranbrook Road,48304,42.5716155,-83.2420729
1620,Rathmore Road,48304,42.5834893,-83.2500042
98,Whysall Lane,48304,42.5767179,-83.2449486
38500,Woodward Avenue,48304,42.5681643,-83.2297684
38710,Woodward Avenue,48304,42.5697864,-83.2313314
1365,Trowbridge Road,48304,42.5815128,-83.2327294
39312,Woodward Avenue,48304,42.5796986,-83.2398262
37357,Woodward Avenue,48304,42.5646240,-83.2284879
3553,Lahser Road,48304,42.5882103,-83.2648641
3601,Lahser Road,48304,42.5875961,-83.2648935
3635,Lahser Road,48304,42.5870271,-83.2649153
3637,Lahser Road,48304,42.5866378,-83.2648466
3645,Lahser Road,48304,42.5861926,-83.2648044
3715,Lahser Road,48304,42.5854023,-83.2648132
3755,Lahser Road,48304,42.5847663,-83.2647696
3805,Lahser Road,48304,42.5836615,-83.2646637
3925,Lahser Road,48304,42.5830094,-83.2647560
3955,Lahser Road,48304,42.5824188,-83.2645644
1915,Rathmore Road,48304,42.5865637,-83.2588413
5045,Charing Cross Road,48304,42.5664282,-83.2259409
5044,Charing Cross Road,48304,42.5671512,-83.2272255
5150,Longmeadow Road,48304,42.5654468,-83.2266985
297,Canterbury Road,48304,42.5736967,-83.2256545
221,Charing Cross Court,48304,42.5692329,-83.2284614
249,Charing Cross Court,48304,42.5691528,-83.2273112
265,Charing Cross Court,48304,42.5690350,-83.2264674
272,Charing Cross Court,48304,42.5685352,-83.2262139
260,Charing Cross Court,48304,42.5684245,-83.2268667
246,Charing Cross Court,48304,42.5685189,-83.2274590
204,Charing Cross Court,48304,42.5690539,-83.2294203
218,Charing Cross Court,48304,42.5686542,-83.2289291
232,Charing Cross Court,48304,42.5685130,-83.2281804
210,Warrington Road,48304,42.5697768,-83.2284278
240,Warrington Road,48304,42.5700326,-83.2276777
250,Warrington Road,48304,42.5701432,-83.2269108
280,Warrington Road,48304,42.5703614,-83.2262095
281,Warrington Road,48304,42.5709059,-83.2261840
265,Warrington Road,48304,42.5709396,-83.2268962
249,Warrington Road,48304,42.5707260,-83.2274920
215,Warrington Road,48304,42.5704771,-83.2288359
233,Warrington Road,48304,42.5706250,-83.2282032
201,Warrington Road,48304,42.5701713,-83.2293390
635,Willow Glen Court,48304,42.5700916,-83.2308475
630,Willow Glen Court,48304,42.5703041,-83.2303201
620,Willow Glen Court,48304,42.5699319,-83.2299168
1301,Trowbridge Road,48304,42.5797015,-83.2337237
1255,Trowbridge Road,48304,42.5794173,-83.2347947
1201,Trowbridge Road,48304,42.5785368,-83.2345825
1181,Trowbridge Road,48304,42.5779001,-83.2347017
1141,Trowbridge Road,48304,42.5769748,-83.2347845
1111,Trowbridge Road,48304,42.5763125,-83.2342730
1185,Eton Cross Road,48304,42.5774063,-83.2334597
1148,Eton Cross Road,48304,42.5784267,-83.2316446
1220,Trowbridge Road,48304,42.5783904,-83.2333298
1162,Eton Cross Road,48304,42.5787369,-83.2326630
1320,Trowbridge Road,48304,42.5797538,-83.2324110
1375,Trowbridge Road,48304,42.5819068,-83.2336960
1335,Trowbridge Road,48304,42.5803379,-83.2335495
1360,Trowbridge Road,48304,42.5803387,-83.2321492
1134,Eton Cross Road,48304,42.5779302,-83.2311677
1125,Eton Cross Road,48304,42.5766244,-83.2319447
1115,Eton Cross Road,48304,42.5762836,-83.2311528
1011,Trowbridge Road,48304,42.5754493,-83.2337750
125,Canterbury Road,48304,42.5750937,-83.2326779
145,Canterbury Road,48304,42.5750426,-83.2317602
161,Canterbury Road,48304,42.5748440,-83.2307423
45,Barbara Lane,48304,42.5733140,-83.2336237
40,Barbara Lane,48304,42.5728739,-83.2341305
95,Barbara Lane,48304,42.5729800,-83.2332191
80,Barbara Lane,48304,42.5724358,-83.2337346
126,Barbara Lane,48304,42.5723858,-83.2329423
925,Trowbridge Road,48304,42.5746391,-83.2353490
920,Trowbridge Road,48304,42.5738941,-83.2347319
120,Canterbury Road,48304,42.5744513,-83.2331764
140,Canterbury Road,48304,42.5739855,-83.2325478
1195,Burnham Road,48304,42.5792459,-83.2310874
1185,Burnham Road,48304,42.5788244,-83.2306291
1177,Burnham Road,48304,42.5781068,-83.2300506
1200,Burnham Road,48304,42.5780963,-83.2292336
1150,Burnham Road,48304,42.5774983,-83.2292912
1131,Burnham Road,48304,42.5772148,-83.2303511
1130,Burnham Road,48304,42.5768725,-83.2292762
1010,Burnham Road,48304,42.5761659,-83.2291374
990,Burnham Road,48304,42.5755291,-83.2288995
950,Burnham Road,48304,42.5748804,-83.2287917
1100,Bretton Lane,48304,42.5763650,-83.2273710
1050,Bretton Lane,48304,42.5757757,-83.2267939
1000,Bretton Lane,48304,42.5753138,-83.2269451
950,Bretton Lane,48304,42.5749537,-83.2260751
181,Canterbury Road,48304,42.5743266,-83.2301585
873,Canterbury Crescent,48304,42.5735294,-83.2307851
240,Canterbury Road,48304,42.5733783,-83.2283568
200,Canterbury Road,48304,42.5734064,-83.2295282
852,Canterbury Crescent,48304,42.5727980,-83.2294306
160,Canterbury Road,48304,42.5731728,-83.2320878
867,Canterbury Crescent,48304,42.5726150,-83.2310735
855,Canterbury Crescent,48304,42.5724084,-83.2304864
841,Canterbury Crescent,48304,42.5720967,-83.2300638
839,Canterbury Crescent,48304,42.5719349,-83.2294507
280,Canterbury Road,48304,42.5729673,-83.2273885
803,Canterbury Crescent,48304,42.5726686,-83.2279058
815,Canterbury Crescent,48304,42.5723249,-83.2282772
827,Canterbury Crescent,48304,42.5720161,-83.2287985
36,Hidden Ridge,48304,42.5803688,-83.2364398
35,Hidden Ridge,48304,42.5804870,-83.2374954
23,Hidden Ridge,48304,42.5798619,-83.2373110
20,Hidden Ridge,48304,42.5798313,-83.2364032
11,Hidden Ridge,48304,42.5794325,-83.2379859
42,Hidden Ridge,48304,42.5809950,-83.2362382
64,Hidden Ridge,48304,42.5816013,-83.2363469
59,Hidden Ridge,48304,42.5816501,-83.2370264
47,Hidden Ridge,48304,42.5811285,-83.2374320
1927,Stonycroft Lane,48304,42.5882256,-83.2398888
1915,Stonycroft Lane,48304,42.5879327,-83.2395260
1860,Huntingwood Lane,48304,42.5877388,-83.2406465
1830,Huntingwood Lane,48304,42.5874945,-83.2400617
1820,Huntingwood Lane,48304,42.5870127,-83.2398139
1800,Tiverton Road,48304,42.5876674,-83.2419427
1770,Tiverton Road,48304,42.5862982,-83.2421990
1865,Huntingwood Lane,48304,42.5872635,-83.2413395
1835,Huntingwood Lane,48304,42.5869617,-83.2408368
1825,Huntingwood Lane,48304,42.5866353,-83.2406099
1790,Huntingwood Lane,48304,42.5866837,-83.2394675
1805,Tiverton Road,48304,42.5860806,-83.2438860
1775,Tiverton Road,48304,42.5862522,-83.2430880
1855,Tiverton Road,48304,42.5867987,-83.2432838
1825,Tiverton Road,48304,42.5865225,-83.2440110
1900,Tiverton Road,48304,42.5890056,-83.2428678
1915,Tiverton Road,48304,42.5875583,-83.2439123
1910,Tiverton Road,48304,42.5882150,-83.2430350
1930,Tiverton Road,48304,42.5884758,-83.2437946
1950,Tiverton Road,48304,42.5886809,-83.2447101
2000,Tiverton Road,48304,42.5885868,-83.2465787
1980,Tiverton Road,48304,42.5881113,-83.2461047
1945,Tiverton Road,48304,42.5880006,-83.2447707
1953,Tiverton Road,48304,42.5874598,-83.2450953
1959,Tiverton Road,48304,42.5873891,-83.2457117
1975,Tiverton Road,48304,42.5873410,-83.2461761
1981,Tiverton Road,48304,42.5872167,-83.2467035
1885,Tiverton Road,48304,42.5870151,-83.2444160
535,Chase Lane,48304,42.5915316,-83.2386206
538,Chase Lane,48304,42.5908712,-83.2378534
526,Chase Lane,48304,42.5905231,-83.2383106
514,Chase Lane,48304,42.5902170,-83.2388360
529,Chase Lane,48304,42.5911191,-83.2389441
517,Chase Lane,48304,42.5908086,-83.2394621
547,Chase Lane,48304,42.5920007,-83.2382481
555,Chase Lane,48304,42.5924306,-83.2378832
569,Chase Lane,48304,42.5928295,-83.2360783
586,Chase Lane,48304,42.5914736,-83.2351483
598,Chase Lane,48304,42.5911724,-83.2346902
597,Chase Lane,48304,42.5918114,-83.2341061
609,Chase Lane,48304,42.5915423,-83.2335941
616,Chase Lane,48304,42.5904559,-83.2336738
1775,Kensington Road,48304,42.5844493,-83.2339528
1755,Kensington Road,48304,42.5842342,-83.2335081
1725,Kensington Road,48304,42.5839413,-83.2330371
1695,Kensington Road,48304,42.5837527,-83.2325578
1685,Kensington Road,48304,42.5835388,-83.2320426
1575,Kensington Road,48304,42.5832839,-83.2313204
1547,Kensington Road,48304,42.5826653,-83.2314210
1533,Kensington Road,48304,42.5827072,-83.2305722
1407,Kensington Road,48304,42.5820243,-83.2302084
1409,Kensington Road,48304,42.5815678,-83.2299176
1411,Kensington Road,48304,42.5812526,-83.2294179
1333,Kensington Road,48304,42.5805659,-83.2290004
1305,Kensington Road,48304,42.5800845,-83.2284106
1275,Kensington Road,48304,42.5796746,-83.2281336
1211,Kensington Road,48304,42.5793223,-83.2274947
1175,Kensington Road,48304,42.5788725,-83.2272531
1125,Kensington Road,48304,42.5780907,-83.2268562
1111,Kensington Road,48304,42.5772595,-83.2265856
97,Whysall Lane,48304,42.5762580,-83.2444801
81,Whysall Lane,48304,42.5765751,-83.2437695
86,Whysall Lane,48304,42.5771798,-83.2441514
74,Whysall Lane,48304,42.5772858,-83.2433452
43,Whysall Lane,48304,42.5774974,-83.2421523
1690,Rathmore Road,48304,42.5854539,-83.2502992
1770,Rathmore Road,48304,42.5856776,-83.2511770
1830,East Valley Road,48304,42.5862574,-83.2515766
1880,East Valley Road,48304,42.5882145,-83.2519556
1900,East Valley Road,48304,42.5887859,-83.2518661
1931,East Valley Road,48304,42.5886967,-83.2534057
1850,East Valley Road,48304,42.5873853,-83.2518524
1700,Rathmore Road,48304,42.5848361,-83.2508732
1650,Rathmore Road,48304,42.5840739,-83.2502989
1800,Rathmore Road,48304,42.5865872,-83.2529725
1820,Rathmore Road,48304,42.5872188,-83.2534668
1940,West Valley Road,48304,42.5877521,-83.2539612
1980,West Valley Road,48304,42.5882841,-83.2545177
1860,Rathmore Road,48304,42.5873910,-83.2551499
1876,Rathmore Road,48304,42.5877871,-83.2560626
1910,Rathmore Road,48304,42.5879096,-83.2583499
1965,Rathmore Road,48304,42.5883233,-83.2596784
456,Wishbone Drive,48304,42.5931990,-83.2457001
442,Wishbone Drive,48304,42.5930623,-83.2463093
474,Wishbone Drive,48304,42.5934584,-83.2449600
485,Wishbone Drive,48304,42.5940164,-83.2439580
473,Wishbone Drive,48304,42.5943197,-83.2444991
431,Wishbone Drive,48304,42.5937432,-83.2466338
454,Wishbone Drive,48304,42.5941240,-83.2457711
428,Wishbone Drive,48304,42.5944181,-83.2466512
461,Wishbone Drive,48304,42.5946808,-83.2449381
427,Wishbone Drive,48304,42.5950554,-83.2468717
455,Wishbone Drive,48304,42.5951259,-83.2458281
2460,Opdyke Road,48304,42.5959083,-83.2462766
1450,Quarton Road,48304,42.5604516,-83.2306359
340,Chesterfield Road,48304,42.5640401,-83.2299331
86,Lone Pine Road,48304,42.5682295,-83.2339965
72,Lone Pine Road,48304,42.5681120,-83.2334191
110,Lone Pine Road,48304,42.5681169,-83.2346495
150,Lone Pine Road,48304,42.5683336,-83.2362471
117,Linda Knoll,48304,42.5700147,-83.2349278
119,Linda Knoll,48304,42.5697858,-83.2343762
121,Linda Knoll,48304,42.5693273,-83.2341859
127,Linda Knoll,48304,42.5689647,-83.2344779
131,Linda Knoll,48304,42.5688389,-83.2350570
132,Linda Court,48304,42.5692038,-83.2374980
140,Linda Court,48304,42.5696602,-83.2379497
100,Linda Lane,48304,42.5700730,-83.2371484
112,Linda Lane,48304,42.5697073,-83.2368216
290,Lone Pine Road,48304,42.5679909,-83.2414218
525,Edgemere Court,48304,42.5679013,-83.2405209
571,Edgemere Court,48304,42.5684650,-83.2405697
131,Guilford Road,48304,42.5775605,-83.2446695
60,Brady Lane,48304,42.5737323,-83.2388740
130,Brady Lane,48304,42.5723409,-83.2401761
104,Brady Lane,48304,42.5729420,-83.2399844
940,Cranbrook Road,48304,42.5738088,-83.2406489
39075,Woodward Avenue,48304,42.5741351,-83.2379988
44,Brady Lane,48304,42.5734949,-83.2380383
15,Brady Lane,48304,42.5725994,-83.2366617
11,Brady Lane,48304,42.5729315,-83.2360934
20,Brady Lane,48304,42.5736247,-83.2368511
640,Edgemere Court,48304,42.5694286,-83.2404599
101,Linda Lane,48304,42.5707958,-83.2358981
99,Linda Lane,48304,42.5704471,-83.2364277
111,Linda Lane,48304,42.5701189,-83.2356847
115,Linda Knoll,48304,42.5696329,-83.2354702
163,Linda Lane,48304,42.5684413,-83.2373147
181,Linda Lane,48304,42.5678857,-83.2375214
232,Lone Pine Road,48304,42.5681557,-83.2394422
210,Lone Pine Road,48304,42.5678367,-83.2384701
172,Linda Lane,48304,42.5683629,-83.2383677
156,Linda Court,48304,42.5688625,-83.2382974
148,Linda Court,48304,42.5693678,-83.2384695
71,Kingsley Manor Drive,48304,42.5707313,-83.2370834
63,Kingsley Manor Drive,48304,42.5713035,-83.2358900
70,Kingsley Manor Drive,48304,42.5712469,-83.2369786
60,Kingsley Manor Drive,48304,42.5716860,-83.2367077
871,Woodlane,48304,42.5716070,-83.2373602
660,Lone Pine Hill,48304,42.5710267,-83.2386276
640,Lone Pine Hill,48304,42.5701320,-83.2385053
625,Lone Pine Hill,48304,42.5698478,-83.2393584
651,Lone Pine Hill,48304,42.5704176,-83.2396371
703,Lone Pine Hill,48304,42.5711130,-83.2398368
33,Brady Lane,48304,42.5722500,-83.2373219
51,Brady Lane,48304,42.5725944,-83.2382369
75,Brady Lane,48304,42.5727095,-83.2389046
990,Cranbrook Road,48304,42.5746076,-83.2403729
240,East Hickory Grove Road,48304,42.5958976,-83.2510945
200,East Hickory Grove Road,48304,42.5959326,-83.2534242
949,Bloomfield Woods Court,48304,42.5882591,-83.2508045
945,Bloomfield Woods Court,48304,42.5880751,-83.2507023
973,Bloomfield Woods Court,48304,42.5888432,-83.2501945
953,Bloomfield Woods Court,48304,42.5884583,-83.2503826
969,Bloomfield Woods Court,48304,42.5887016,-83.2503722
961,Bloomfield Woods Court,48304,42.5887659,-83.2508110
957,Bloomfield Woods Court,48304,42.5885540,-83.2508598
965,Bloomfield Woods Court,48304,42.5889700,-83.2508751
981,Bloomfield Woods Court,48304,42.5894863,-83.2510018
20,Scenic Oaks Drive,48304,42.5868416,-83.2484918
50,Scenic Oaks Drive,48304,42.5866159,-83.2493816
40,Scenic Oaks Drive,48304,42.5866961,-83.2490024
30,Scenic Oaks Drive,48304,42.5867813,-83.2487340
13,Scenic Oaks Drive,48304,42.5862530,-83.2480359
57,Scenic Oaks Drive,48304,42.5862579,-83.2490703
37,Scenic Oaks Drive,48304,42.5863530,-83.2486212
27,Scenic Oaks Drive,48304,42.5865405,-83.2482268
59,Scenic Oaks Drive,48304,42.5863628,-83.2499429
63,Scenic Oaks Drive,48304,42.5864922,-83.2507272
69,Scenic Oaks Drive,48304,42.5874069,-83.2499055
67,Scenic Oaks Drive,48304,42.5871049,-83.2500973
55,Scenic Oaks Drive,48304,42.5868755,-83.2496070
45,Scenic Oaks Drive,48304,42.5870713,-83.2494333
25,Scenic Oaks Drive,48304,42.5873004,-83.2487316
35,Scenic Oaks Drive,48304,42.5872074,-83.2491016
7,Pine Gate Court,48304,42.5899771,-83.2521648
5,Pine Gate Court,48304,42.5902312,-83.2525466
9,Pine Gate Court,48304,42.5902765,-83.2517766
3,Pine Gate Court,48304,42.5905398,-83.2521004
1771,Hammond Court,48304,42.5849449,-83.2325937
1790,Hammond Court,48304,42.5850353,-83.2332759
1770,Hammond Court,48304,42.5856373,-83.2331925
1750,Hammond Court,48304,42.5861797,-83.2325589
1740,Hammond Court,48304,42.5867777,-83.2322420
1730,Hammond Court,48304,42.5866675,-83.2317232
1720,Hammond Court,48304,42.5863353,-83.2311725
1835,Lakeview Court,48304,42.5867697,-83.2302251
1845,Lakeview Court,48304,42.5871305,-83.2302960
1861,Lakeview Court,48304,42.5872986,-83.2298272
1885,Hillwood Drive,48304,42.5875164,-83.2293451
1911,Hillwood Drive,48304,42.5878654,-83.2293897
1925,Hillwood Drive,48304,42.5883967,-83.2292584
1935,Hillwood Drive,48304,42.5887229,-83.2294002
580,East Long Lake Road,48304,42.5892809,-83.2306024
165,Bridgeview Drive,48304,42.5905526,-83.2278230
125,Bridgeview Drive,48304,42.5918742,-83.2304271
130,Bridgeview Drive,48304,42.5911560,-83.2306247
570,East Long Lake Road,48304,42.5906891,-83.2318750
560,East Long Lake Road,48304,42.5901009,-83.2324344
530,East Long Lake Road,48304,42.5894264,-83.2328245
490,East Long Lake Road,48304,42.5886515,-83.2336259
500,East Long Lake Road,48304,42.5889231,-83.2331990
480,East Long Lake Road,48304,42.5881359,-83.2340176
460,East Long Lake Road,48304,42.5875589,-83.2344660
420,East Long Lake Road,48304,42.5871171,-83.2348071
400,East Long Lake Road,48304,42.5867280,-83.2350283
1780,Kensington Road,48304,42.5861900,-83.2350772
1780,Hammond Court,48304,42.5853622,-83.2340222
1700,Hammond Court,48304,42.5858280,-83.2308729
1670,Hammond Court,48304,42.5853143,-83.2306231
1755,Hammond Court,48304,42.5854769,-83.2318326
1655,Hammond Court,48304,42.5849713,-83.2316340
1640,Hammond Court,48304,42.5848079,-83.2303890
1635,Hammond Court,48304,42.5845708,-83.2314233
1620,Kensington Road,48304,42.5844557,-83.2321164
1635,Kensington Road,48304,42.5840163,-83.2314204
1600,Hillwood Drive,48304,42.5836693,-83.2298598
1680,Hillwood Drive,48304,42.5849773,-83.2276869
1530,Surria Court,48304,42.5843620,-83.2275488
1550,Surria Court,48304,42.5841906,-83.2287253
1520,Surria Court,48304,42.5833852,-83.2271116
1521,Surria Court,48304,42.5834074,-83.2282439
1511,Surria Court,48304,42.5830232,-83.2281519
1501,Surria Court,48304,42.5825601,-83.2279265
1510,Surria Court,48304,42.5828888,-83.2269149
1500,Surria Court,48304,42.5826615,-83.2273369
1500,Kensington Road,48304,42.5830495,-83.2297774
1490,Kensington Road,48304,42.5824569,-83.2293144
1438,Kensington Road,48304,42.5820395,-83.2287187
1330,Conge Drive,48304,42.5810180,-83.2278264
1366,Conge Drive,48304,42.5819664,-83.2270707
1406,Kensington Road,48304,42.5816817,-83.2282491
1374,Conge Drive,48304,42.5818930,-83.2276941
1358,Conge Drive,48304,42.5815594,-83.2268493
1350,Conge Drive,48304,42.5812382,-83.2272963
1750,Hillwood Drive,48304,42.5860424,-83.2277974
1645,Hillwood Drive,48304,42.5849025,-83.2297490
1665,Hillwood Drive,48304,42.5851895,-83.2292860
1765,Hillwood Drive,48304,42.5857757,-83.2289243
1769,Hillwood Drive,48304,42.5863426,-83.2289939
1825,Lakeview Court,48304,42.5865985,-83.2295830
1811,Lakeview Court,48304,42.5868603,-83.2290098
1770,Hillwood Drive,48304,42.5865539,-83.2280434
1780,Hillwood Drive,48304,42.5871456,-83.2280581
1900,Hillwood Drive,48304,42.5877059,-83.2282106
1920,Hillwood Drive,48304,42.5882557,-83.2283894
1930,Hillwood Drive,48304,42.5887281,-83.2283778
1950,Hillwood Drive,48304,42.5883727,-83.2272959
1960,Hillwood Court,48304,42.5888462,-83.2270884
1970,Hillwood Court,48304,42.5892401,-83.2272914
1990,Hillwood Court,48304,42.5894438,-83.2282989
1980,Hillwood Court,48304,42.5894612,-83.2277395
2451,Hunters Pond,48304,42.5953243,-83.2423758
2463,Hunters Pond,48304,42.5955489,-83.2427469
2485,Hunters Pond,48304,42.5957790,-83.2431334
2486,Hunters Pond,48304,42.5961635,-83.2431379
2474,Hunters Pond,48304,42.5962300,-83.2425269
2462,Hunters Pond,48304,42.5959834,-83.2421719
2450,Hunters Pond,48304,42.5957262,-83.2418186
539,Hunters Crossing,48304,42.5962070,-83.2412984
551,Hunters Crossing,48304,42.5963606,-83.2405988
550,Hunters Crossing,48304,42.5958850,-83.2405084
534,Hunters Crossing,48304,42.5955888,-83.2409917
528,Hunters Crossing,48304,42.5953270,-83.2413628
522,Hunters Crossing,48304,42.5950397,-83.2416576
510,Hunters Crossing,48304,42.5948243,-83.2420451
578,Kingsley Trail,48304,42.5954823,-83.2376429
601,Kingsley Trail,48304,42.5960919,-83.2370659
589,Kingsley Trail,48304,42.5961037,-83.2375182
581,Kingsley Trail,48304,42.5961088,-83.2380083
521,Kingsley Trail,48304,42.5941179,-83.2416334
535,Kingsley Trail,48304,42.5945432,-83.2408162
543,Kingsley Trail,48304,42.5949540,-83.2402615
549,Kingsley Trail,48304,42.5952622,-83.2398759
555,Kingsley Trail,48304,42.5956206,-83.2393690
558,Kingsley Trail,48304,42.5952514,-83.2385719
552,Kingsley Trail,48304,42.5950239,-83.2391592
546,Kingsley Trail,48304,42.5946827,-83.2395213
538,Kingsley Trail,48304,42.5943969,-83.2399935
532,Kingsley Trail,48304,42.5940655,-83.2403604
524,Kingsley Trail,48304,42.5936867,-83.2405969
518,Kingsley Trail,48304,42.5933579,-83.2408109
510,Kingsley Trail,48304,42.5931612,-83.2412612
504,Kingsley Trail,48304,42.5929563,-83.2416290
515,Kingsley Trail,48304,42.5936811,-83.2417973
563,Kingsley Court,48304,42.5961294,-83.2395377
567,Kingsley Court,48304,42.5963498,-83.2390193
571,Kingsley Court,48304,42.5959990,-83.2385689
563,Whitehall Road,48304,42.5945972,-83.2386722
551,Whitehall Road,48304,42.5941226,-83.2390292
545,Whitehall Road,48304,42.5937756,-83.2393372
539,Whitehall Road,48304,42.5934215,-83.2395790
535,Whitehall Road,48304,42.5930654,-83.2396902
529,Whitehall Road,48304,42.5926964,-83.2399154
523,Whitehall Road,48304,42.5924363,-83.2402646
511,Whitehall Road,48304,42.5921478,-83.2406019
503,Whitehall Road,48304,42.5920218,-83.2410871
572,Whitehall Road,48304,42.5950579,-83.2376281
566,Whitehall Road,48304,42.5946531,-83.2376777
560,Whitehall Road,48304,42.5943387,-83.2378800
554,Whitehall Road,48304,42.5940495,-83.2382731
548,Whitehall Road,48304,42.5936212,-83.2385706
542,Whitehall Road,48304,42.5933517,-83.2387777
536,Whitehall Road,48304,42.5929150,-83.2389476
530,Whitehall Road,48304,42.5924541,-83.2392574
524,Whitehall Road,48304,42.5921336,-83.2395292
518,Whitehall Road,48304,42.5918403,-83.2399379
510,Whitehall Road,48304,42.5916261,-83.2402591
502,Whitehall Road,48304,42.5914952,-83.2406798
604,Chase Lane,48304,42.5908670,-83.2341978
109,Whysall Lane,48304,42.5758713,-83.2463400
110,Whysall Lane,48304,42.5763454,-83.2464317
9,Vaughan Crossing,48304,42.5819958,-83.2499508
5,Vaughan Crossing,48304,42.5822646,-83.2494997
2,Vaughan Crossing,48304,42.5827398,-83.2494850
4,Vaughan Crossing,48304,42.5826759,-83.2497427
6,Vaughan Crossing,48304,42.5825321,-83.2499759
8,Vaughan Crossing,48304,42.5823834,-83.2502212
12,Vaughan Crossing,48304,42.5820679,-83.2505770
11,Vaughan Crossing,48304,42.5818306,-83.2501326
10,Vaughan Crossing,48304,42.5822328,-83.2503997
7,Vaughan Crossing,48304,42.5821502,-83.2497343
3,Vaughan Crossing,48304,42.5823009,-83.2492241
304,Barden Road,48304,42.5760444,-83.2503861
316,Barden Road,48304,42.5756935,-83.2509923
328,Barden Road,48304,42.5757182,-83.2517605
340,Barden Road,48304,42.5759539,-83.2524414
352,Barden Road,48304,42.5759728,-83.2532852
372,Barden Road,48304,42.5763398,-83.2537697
335,Barden Road,48304,42.5751523,-83.2524442
321,Barden Road,48304,42.5749938,-83.2515468
297,Barden Road,48304,42.5760817,-83.2473174
291,Barden Road,48304,42.5769187,-83.2468186
289,Barden Road,48304,42.5771062,-83.2474063
303,Barden Road,48304,42.5760338,-83.2493130
294,Barden Road,48304,42.5767476,-83.2499516
287,Barden Road,48304,42.5769838,-83.2488551
285,Barden Road,48304,42.5773462,-83.2487031
275,Barden Road,48304,42.5780367,-83.2484042
261,Barden Road,48304,42.5784851,-83.2482372
258,Barden Road,48304,42.5787282,-83.2492516
246,Barden Road,48304,42.5793373,-83.2492094
234,Barden Road,48304,42.5800642,-83.2495663
220,Barden Road,48304,42.5804161,-83.2498884
216,Barden Road,48304,42.5808561,-83.2502501
251,Barden Road,48304,42.5788958,-83.2480140
245,Barden Road,48304,42.5792840,-83.2480015
241,Barden Road,48304,42.5796536,-83.2480397
121,Denbar Road,48304,42.5797491,-83.2476540
111,Denbar Road,48304,42.5797885,-83.2472662
95,Denbar Road,48304,42.5797484,-83.2468604
110,Denbar Road,48304,42.5802987,-83.2472899
100,Denbar Road,48304,42.5802822,-83.2469044
120,Denbar Road,48304,42.5802884,-83.2476660
70,Denbar Road,48304,42.5803219,-83.2465272
130,Denbar Road,48304,42.5802283,-83.2481241
95,Guilford Road,48304,42.5797140,-83.2462181
111,Guilford Road,48304,42.5793725,-83.2461979
120,Guilford Road,48304,42.5793360,-83.2470148
125,Guilford Road,48304,42.5789693,-83.2461861
130,Guilford Road,48304,42.5789888,-83.2470487
150,Guilford Road,48304,42.5785872,-83.2474730
219,Guilford Road,48304,42.5772853,-83.2496702
225,Guilford Road,48304,42.5774287,-83.2505034
235,Guilford Road,48304,42.5777945,-83.2512622
218,Guilford Road,48304,42.5780761,-83.2496096
245,Guilford Road,48304,42.5783319,-83.2518061
232,Guilford Road,48304,42.5783610,-83.2503824
246,Guilford Road,48304,42.5789376,-83.2506198
260,Guilford Road,48304,42.5795265,-83.2508026
274,Guilford Road,48304,42.5801041,-83.2508159
275,Guilford Road,48304,42.5795464,-83.2524092
1450,Vaughn Road,48304,42.5807654,-83.2511994
325,Keswick Road,48304,42.5761560,-83.2510437
341,Keswick Road,48304,42.5763953,-83.2517296
351,Keswick Road,48304,42.5766851,-83.2524822
326,Keswick Road,48304,42.5769192,-83.2507866
340,Keswick Road,48304,42.5771029,-83.2514178
350,Keswick Road,48304,42.5774435,-83.2520488
362,Keswick Road,48304,42.5778112,-83.2524326
381,Keswick Road,48304,42.5769195,-83.2531972
1220,Vaughn Road,48304,42.5781971,-83.2533372
1250,Vaughn Road,48304,42.5787893,-83.2529550
620,Kingsley Trail,48304,42.5955662,-83.2355994
622,Kingsley Trail,48304,42.5956178,-83.2351278
630,Kingsley Trail,48304,42.5956794,-83.2345961
638,Kingsley Trail,48304,42.5957092,-83.2341071
644,Kingsley Trail,48304,42.5957893,-83.2335801
652,Kingsley Trail,48304,42.5958598,-83.2330426
658,Kingsley Trail,48304,42.5958859,-83.2322190
664,Kingsley Trail,48304,42.5958487,-83.2316010
672,Kingsley Trail,48304,42.5958395,-83.2310805
678,Kingsley Trail,48304,42.5958240,-83.2305245
679,Kingsley Trail,48304,42.5963616,-83.2304606
673,Kingsley Trail,48304,42.5963666,-83.2309032
667,Kingsley Trail,48304,42.5963771,-83.2313812
661,Kingsley Trail,48304,42.5964332,-83.2319116
655,Kingsley Trail,48304,42.5964334,-83.2323898
649,Kingsley Trail,48304,42.5964327,-83.2331238
643,Kingsley Trail,48304,42.5963445,-83.2336963
637,Kingsley Trail,48304,42.5962845,-83.2341793
631,Kingsley Trail,48304,42.5962047,-83.2346129
625,Kingsley Trail,48304,42.5961410,-83.2350931
619,Kingsley Trail,48304,42.5961396,-83.2356089
613,Kingsley Trail,48304,42.5960690,-83.2360436
607,Kingsley Trail,48304,42.5961377,-83.2366214
2361,Eastways Road,48304,42.5951649,-83.2305581
2343,Eastways Road,48304,42.5948007,-83.2305827
2325,Eastways Road,48304,42.5944798,-83.2305502
2210,Hunt Club Drive,48304,42.5931172,-83.2313836
2226,Hunt Club Drive,48304,42.5933239,-83.2317253
2242,Hunt Club Drive,48304,42.5936290,-83.2320050
2258,Hunt Club Drive,48304,42.5939883,-83.2321553
2274,Hunt Club Drive,48304,42.5943437,-83.2322768
2290,Hunt Club Drive,48304,42.5946652,-83.2323686
2312,Hunt Club Drive,48304,42.5948412,-83.2327053
2328,Hunt Club Drive,48304,42.5948968,-83.2330878
2344,Hunt Club Drive,48304,42.5948930,-83.2336476
2360,Hunt Club Drive,48304,42.5948413,-83.2341414
2376,Hunt Club Drive,48304,42.5946902,-83.2345954
2392,Hunt Club Drive,48304,42.5945183,-83.2351272
2448,Hunt Club Drive,48304,42.5947352,-83.2358818
2476,Hunt Club Drive,48304,42.5951304,-83.2359738
2491,Hunt Club Drive,48304,42.5955146,-83.2367018
2477,Hunt Club Drive,48304,42.5951221,-83.2366316
2463,Hunt Club Drive,48304,42.5947252,-83.2366079
2449,Hunt Club Drive,48304,42.5944058,-83.2365458
2435,Hunt Club Drive,48304,42.5941400,-83.2362406
2427,Hunt Club Drive,48304,42.5939043,-83.2358571
2407,Hunt Club Drive,48304,42.5938550,-83.2354693
2395,Hunt Club Drive,48304,42.5938639,-83.2350737
2385,Hunt Club Drive,48304,42.5940765,-83.2346766
2375,Hunt Club Drive,48304,42.5942084,-83.2342345
2353,Hunt Club Drive,48304,42.5943838,-83.2337486
2321,Hunt Club Drive,48304,42.5943934,-83.2331535
2265,Hunt Club Drive,48304,42.5937945,-83.2327384
2235,Hunt Club Drive,48304,42.5932378,-83.2325144
2225,Hunt Club Drive,48304,42.5928643,-83.2320611
591,East Long Lake Road,48304,42.5924685,-83.2321686
587,East Long Lake Road,48304,42.5922014,-83.2325028
583,East Long Lake Road,48304,42.5919339,-83.2327258
2160,Randall Lane,48304,42.5930373,-83.2330999
2138,Randall Lane,48304,42.5927878,-83.2335123
2118,Randall Lane,48304,42.5925048,-83.2338917
2173,Randall Lane,48304,42.5935940,-83.2332099
2159,Randall Lane,48304,42.5934110,-83.2335806
2145,Randall Lane,48304,42.5932153,-83.2339861
2131,Randall Lane,48304,42.5930191,-83.2342053
2117,Randall Lane,48304,42.5928040,-83.2345222
706,Westview Road,48304,42.5957895,-83.2295815
712,Westview Road,48304,42.5957971,-83.2289894
718,Westview Road,48304,42.5958232,-83.2284228
724,Westview Road,48304,42.5959472,-83.2278824
730,Westview Road,48304,42.5961198,-83.2272966
733,Westview Road,48304,42.5966791,-83.2275064
725,Westview Road,48304,42.5965136,-83.2280295
719,Westview Road,48304,42.5964159,-83.2284879
711,Westview Road,48304,42.5963450,-83.2290404
705,Westview Road,48304,42.5963491,-83.2295869
703,Parkman Drive,48304,42.5949918,-83.2295605
709,Parkman Drive,48304,42.5949942,-83.2290508
715,Parkman Drive,48304,42.5949582,-83.2284064
721,Parkman Drive,48304,42.5951120,-83.2278209
727,Parkman Drive,48304,42.5953794,-83.2273289
722,Parkman Drive,48304,42.5945380,-83.2273563
718,Parkman Drive,48304,42.5944272,-83.2279333
712,Parkman Drive,48304,42.5943819,-83.2284937
708,Parkman Drive,48304,42.5943757,-83.2290328
702,Parkman Drive,48304,42.5943822,-83.2295783
701,East Long Lake Road,48304,42.5929743,-83.2271200
685,East Long Lake Road,48304,42.5930517,-83.2275999
671,East Long Lake Road,48304,42.5931955,-83.2281938
655,East Long Lake Road,48304,42.5932282,-83.2287356
641,East Long Lake Road,48304,42.5933148,-83.2293205
2306,Eastways Road,48304,42.5935132,-83.2298624
36,Pine Gate Drive,48304,42.5901182,-83.2534089
48,Pine Gate Drive,48304,42.5899787,-83.2541210
62,Pine Gate Drive,48304,42.5898424,-83.2550344
59,Pine Gate Drive,48304,42.5893246,-83.2549999
45,Pine Gate Drive,48304,42.5892759,-83.2541486
37,Pine Gate Drive,48304,42.5893903,-83.2533194
23,Pine Gate Drive,48304,42.5893774,-83.2525146
15,Pine Gate Drive,48304,42.5893217,-83.2517448
28,Balfour Drive,48304,42.5914686,-83.2533254
60,Balfour Drive,48304,42.5915779,-83.2538908
82,Balfour Drive,48304,42.5915619,-83.2545169
104,Balfour Drive,48304,42.5912733,-83.2548728
126,Balfour Drive,48304,42.5908908,-83.2551622
148,Balfour Drive,48304,42.5904735,-83.2550700
145,Balfour Drive,48304,42.5904404,-83.2544005
75,Balfour Drive,48304,42.5909518,-83.2541157
49,Balfour Drive,48304,42.5907676,-83.2536808
27,Balfour Drive,48304,42.5907715,-83.2531321
25,Balfour Drive,48304,42.5909180,-83.2525533
17,Manorwood Drive,48304,42.5922468,-83.2554421
11,Manorwood Drive,48304,42.5922353,-83.2549029
9,Manorwood Drive,48304,42.5921353,-83.2543666
7,Manorwood Drive,48304,42.5923225,-83.2543481
5,Manorwood Drive,48304,42.5922599,-83.2541665
548,Barrington Court,48304,42.5952539,-83.2583910
532,Barrington Court,48304,42.5958994,-83.2592822
528,Barrington Court,48304,42.5959047,-83.2581401
524,Barrington Court,48304,42.5956721,-83.2576902
516,Barrington Court,48304,42.5953136,-83.2573219
567,Barrington Park,48304,42.5935754,-83.2580467
562,Barrington Park,48304,42.5939839,-83.2587483
572,Barrington Park,48304,42.5935988,-83.2589904
586,Barrington Park,48304,42.5930369,-83.2588327
592,Barrington Park,48304,42.5928904,-83.2581440
598,Barrington Park,48304,42.5929474,-83.2573881
604,Barrington Park,48304,42.5928392,-83.2565344
2010,West Valley Road,48304,42.5901736,-83.2570441
2006,West Valley Road,48304,42.5901031,-83.2563438
2020,West Valley Road,48304,42.5895618,-83.2561707
2091,West Valley Road,48304,42.5899534,-83.2602378
2080,West Valley Road,48304,42.5900846,-83.2593907
2070,West Valley Road,48304,42.5899608,-83.2588234
2060,West Valley Road,48304,42.5897929,-83.2583625
2081,West Valley Road,48304,42.5893263,-83.2601727
2071,West Valley Road,48304,42.5892227,-83.2593093
2050,West Valley Road,48304,42.5896460,-83.2578554
1155,Vaughn Road,48304,42.5779573,-83.2548568
1233,Vaughn Road,48304,42.5785930,-83.2543070
1255,Vaughn Road,48304,42.5793673,-83.2543650
1415,Epping Lane,48304,42.5799130,-83.2537905
1445,Epping Lane,48304,42.5802341,-83.2546400
1475,Epping Lane,48304,42.5812030,-83.2548927
1450,Epping Lane,48304,42.5805441,-83.2531579
1460,Epping Lane,48304,42.5811714,-83.2528262
4475,Lahser Road,48304,42.5754800,-83.2635053
845,Orchard Ridge Road,48304,42.5725205,-83.2579327
730,Vaughn Road,48304,42.5711663,-83.2609187
780,Vaughn Road,48304,42.5715263,-83.2598457
830,Vaughn Road,48304,42.5719141,-83.2588822
860,Vaughn Road,48304,42.5727496,-83.2588832
841,Vaughn Road,48304,42.5730179,-83.2600966
765,Vaughn Road,48304,42.5720622,-83.2612446
725,Vaughn Road,48304,42.5716408,-83.2619797
695,Vaughn Road,48304,42.5713282,-83.2627312
655,Vaughn Road,48304,42.5702134,-83.2641583
4835,Lahser Road,48304,42.5685659,-83.2640551
630,Vaughn Road,48304,42.5692940,-83.2635613
672,Vaughn Road,48304,42.5696514,-83.2628489
685,Hillcrest Drive,48304,42.5703635,-83.2619619
675,Hillcrest Drive,48304,42.5699728,-83.2611107
635,Hillcrest Drive,48304,42.5700109,-83.2600828
625,Hillcrest Drive,48304,42.5699597,-83.2593188
671,Orchard Ridge Road,48304,42.5702712,-83.2584106
651,Orchard Ridge Road,48304,42.5696449,-83.2581206
601,Orchard Ridge Road,48304,42.5683590,-83.2579566
650,Lone Pine Road,48304,42.5680194,-83.2587190
680,Lone Pine Road,48304,42.5684892,-83.2597212
700,Lone Pine Road,48304,42.5681359,-83.2603918
710,Lone Pine Road,48304,42.5680083,-83.2610105
720,Lone Pine Road,48304,42.5683592,-83.2617058
730,Lone Pine Road,48304,42.5678691,-83.2622176
740,Lone Pine Road,48304,42.5676232,-83.2629857
760,Lone Pine Road,48304,42.5676858,-83.2638192
1111,Pembroke Drive,48304,42.5767983,-83.2564154
1116,Pembroke Drive,48304,42.5773851,-83.2554723
1160,Pembroke Drive,48304,42.5784283,-83.2556850
1161,Pembroke Drive,48304,42.5780949,-83.2569064
431,West Long Lake Road,48304,42.5801046,-83.2618186
1401,Pembroke Drive,48304,42.5803612,-83.2606445
1381,Pembroke Drive,48304,42.5794604,-83.2606629
1377,Pembroke Drive,48304,42.5791196,-83.2599371
1371,Pembroke Drive,48304,42.5783483,-83.2597549
1357,Pembroke Drive,48304,42.5788347,-83.2588113
1325,Pembroke Drive,48304,42.5785913,-83.2578796
1340,Pembroke Drive,48304,42.5799437,-83.2583695
1376,Pembroke Drive,48304,42.5800117,-83.2591265
1400,Pembroke Drive,48304,42.5805298,-83.2596097
1420,Pembroke Drive,48304,42.5811694,-83.2596702
1421,Pembroke Drive,48304,42.5812365,-83.2610129
1318,Country Club Road,48304,42.5789674,-83.2563828
1350,Country Club Road,48304,42.5799953,-83.2556924
1370,Country Club Road,48304,42.5806743,-83.2557924
1295,Country Club Road,48304,42.5811732,-83.2576648
1365,Country Club Road,48304,42.5803942,-83.2576260
1321,Country Club Road,48304,42.5795260,-83.2571734
1045,Country Club Road,48304,42.5756235,-83.2592342
1061,Country Club Road,48304,42.5762239,-83.2593917
1081,Country Club Road,48304,42.5768408,-83.2590215
1115,Country Club Road,48304,42.5774467,-83.2585417
1120,Country Club Road,48304,42.5774065,-83.2573721
1088,Country Club Road,48304,42.5766104,-83.2577846
1040,Country Club Road,48304,42.5760367,-83.2581546
1020,Country Club Road,48304,42.5755294,-83.2576348
1045,Hillcrest Drive,48304,42.5759285,-83.2568949
1025,Country Club Road,48304,42.5749505,-83.2583978
931,Hillcrest Drive,48304,42.5743584,-83.2590033
1010,Ridgewood Road,48304,42.5747798,-83.2604918
1011,Orchard Ridge Road,48304,42.5748002,-83.2611662
965,Orchard Ridge Road,48304,42.5738801,-83.2613578
924,Ridgewood Road,48304,42.5727531,-83.2615986
901,Ridgewood Road,48304,42.5733704,-83.2627423
875,Ridgewood Road,48304,42.5730487,-83.2631234
855,Ridgewood Road,48304,42.5723708,-83.2631637
4501,Lahser Road,48304,42.5744483,-83.2625246
4583,Lahser Road,48304,42.5720941,-83.2641393
1350,Orchard Ridge Road,48304,42.5810620,-83.2634419
1355,Orchard Ridge Road,48304,42.5811038,-83.2645508
1343,Orchard Ridge Road,48304,42.5802193,-83.2644662
1310,Orchard Ridge Road,48304,42.5802718,-83.2631772
1331,Orchard Ridge Road,48304,42.5793602,-83.2641993
1290,Orchard Ridge Road,48304,42.5796496,-83.2626884
1222,Orchard Ridge Road,48304,42.5787287,-83.2620587
1200,Orchard Ridge Road,48304,42.5780481,-83.2604346
1275,Orchard Ridge Road,48304,42.5783343,-83.2641671
1299,Orchard Ridge Road,48304,42.5779618,-83.2634201
1211,Orchard Ridge Road,48304,42.5776343,-83.2627529
1100,Orchard Ridge Road,48304,42.5770634,-83.2608780
1099,Orchard Ridge Road,48304,42.5769802,-83.2625060
1055,Orchard Ridge Road,48304,42.5759100,-83.2621079
1040,Orchard Ridge Road,48304,42.5762560,-83.2607699
4303,Lahser Road,48304,42.5771065,-83.2641435
4305,Lahser Road,48304,42.5767254,-83.2634949
250,Pine Ridge Drive,48304,42.5901081,-83.2638752
264,Pine Ridge Drive,48304,42.5906325,-83.2639636
294,Pine Ridge Drive,48304,42.5910289,-83.2635790
310,Pine Ridge Drive,48304,42.5910425,-83.2629751
316,Pine Ridge Drive,48304,42.5910816,-83.2623650
350,Pine Ridge Drive,48304,42.5903469,-83.2622901
372,Pine Ridge Drive,48304,42.5901987,-83.2629417
251,Pine Ridge Drive,48304,42.5897777,-83.2646157
257,Pine Ridge Drive,48304,42.5902160,-83.2648667
263,Pine Ridge Drive,48304,42.5906948,-83.2648826
275,Pine Ridge Drive,48304,42.5912602,-83.2648336
281,Pine Ridge Drive,48304,42.5917132,-83.2650754
287,Pine Ridge Drive,48304,42.5920845,-83.2646165
293,Pine Ridge Drive,48304,42.5918214,-83.2639823
305,Pine Ridge Drive,48304,42.5919489,-83.2634360
311,Pine Ridge Drive,48304,42.5920100,-83.2628237
317,Pine Ridge Drive,48304,42.5919412,-83.2621804
323,Pine Ridge Drive,48304,42.5920761,-83.2614924
329,Pine Ridge Drive,48304,42.5917613,-83.2610954
335,Pine Ridge Drive,48304,42.5913012,-83.2611710
341,Pine Ridge Drive,48304,42.5908915,-83.2610660
347,Pine Ridge Drive,48304,42.5903792,-83.2611831
355,Pine Ridge Drive,48304,42.5892465,-83.2611960
365,Pine Ridge Drive,48304,42.5892371,-83.2619188
371,Pine Ridge Drive,48304,42.5895320,-83.2627074
377,Pine Ridge Drive,48304,42.5892546,-83.2634785
383,Pine Ridge Drive,48304,42.5890843,-83.2642982
395,Pine Ridge Drive,48304,42.5889806,-83.2650008
2585,Lahser Road,48304,42.5948348,-83.2652762
2565,Lahser Road,48304,42.5953174,-83.2652531
2545,Lahser Road,48304,42.5956450,-83.2652184
2525,Lahser Road,48304,42.5959987,-83.2651797
165,West Hickory Grove Road,48304,42.5958878,-83.2644393
157,West Hickory Grove Road,48304,42.5959712,-83.2636281
145,West Hickory Grove Road,48304,42.5958771,-83.2632043
135,West Hickory Grove Road,48304,42.5958861,-83.2627102
125,West Hickory Grove Road,48304,42.5959079,-83.2622193
115,West Hickory Grove Road,48304,42.5959349,-83.2617519
95,West Hickory Grove Road,48304,42.5959163,-83.2611919
85,West Hickory Grove Road,48304,42.5959811,-83.2605531
192,Woodwind Drive,48304,42.5949792,-83.2606236
186,Woodwind Drive,48304,42.5949002,-83.2602105
180,Woodwind Drive,48304,42.5948240,-83.2597866
2321,Chestnut Drive,48304,42.5939985,-83.2611924
2295,Chestnut Drive,48304,42.5935626,-83.2610624
2400,Chestnut Drive,48304,42.5943791,-83.2602859
2320,Chestnut Drive,48304,42.5940234,-83.2602640
2294,Chestnut Drive,48304,42.5937118,-83.2600618
2270,Chestnut Drive,48304,42.5933612,-83.2600640
2250,Chestnut Drive,48304,42.5930694,-83.2598166
2249,Chestnut Drive,48304,42.5926487,-83.2603192
2225,Chestnut Drive,48304,42.5921746,-83.2601332
2220,Chestnut Drive,48304,42.5923001,-83.2592527
2205,Chestnut Drive,48304,42.5917520,-83.2601264
175,Manorwood Drive,48304,42.5913259,-83.2601187
163,Manorwood Drive,48304,42.5909243,-83.2600148
151,Manorwood Drive,48304,42.5906093,-83.2595999
139,Manorwood Drive,48304,42.5907032,-83.2589751
127,Manorwood Drive,48304,42.5911065,-83.2587537
103,Manorwood Drive,48304,42.5914952,-83.2589465
95,Manorwood Drive,48304,42.5911372,-83.2578185
104,Manorwood Drive,48304,42.5920799,-83.2586607
96,Manorwood Drive,48304,42.5920615,-83.2580748
90,Manorwood Drive,48304,42.5921128,-83.2574738
22,Manorwood Drive,48304,42.5922111,-83.2569049
21,Manorwood Drive,48304,42.5920682,-83.2561083
45,Renton Court,48304,42.5915706,-83.2565197
57,Renton Court,48304,42.5911499,-83.2561149
69,Renton Court,48304,42.5906511,-83.2562777
81,Renton Court,48304,42.5908146,-83.2570166
1900,Rathmore Road,48304,42.5878283,-83.2576052
651,Bennington Drive,48304,42.5653017,-83.2578886
628,Bennington Drive,48304,42.5661548,-83.2569741
639,Bennington Drive,48304,42.5653157,-83.2571724
625,Bennington Drive,48304,42.5656056,-83.2565050
292,Chestnut Circle,48304,42.5937833,-83.2643341
274,Chestnut Circle,48304,42.5933475,-83.2641776
256,Chestnut Circle,48304,42.5933727,-83.2635276
250,Chestnut Circle,48304,42.5933394,-83.2630266
230,Chestnut Circle,48304,42.5936129,-83.2626113
209,Chestnut Circle,48304,42.5939367,-83.2618391
215,Chestnut Circle,48304,42.5935154,-83.2617413
227,Chestnut Circle,48304,42.5930826,-83.2610914
233,Chestnut Circle,48304,42.5927558,-83.2613558
239,Chestnut Circle,48304,42.5928033,-83.2618433
245,Chestnut Circle,48304,42.5927530,-83.2623058
251,Chestnut Circle,48304,42.5926350,-83.2628035
257,Chestnut Circle,48304,42.5926961,-83.2633914
263,Chestnut Circle,48304,42.5926415,-83.2639948
269,Chestnut Circle,48304,42.5925505,-83.2645007
275,Chestnut Circle,48304,42.5926714,-83.2650440
281,Chestnut Circle,48304,42.5931141,-83.2651017
291,Chestnut Circle,48304,42.5935765,-83.2651445
219,Woodwind Drive,48304,42.5944001,-83.2619220
231,Woodwind Drive,48304,42.5941907,-83.2627588
243,Woodwind Drive,48304,42.5941057,-83.2632720
251,Woodwind Drive,48304,42.5940109,-83.2637826
200,Woodwind Drive,48304,42.5950402,-83.2610758
208,Woodwind Drive,48304,42.5950710,-83.2615282
216,Woodwind Drive,48304,42.5950149,-83.2620307
224,Woodwind Drive,48304,42.5949571,-83.2624693
232,Woodwind Drive,48304,42.5948212,-83.2629577
240,Woodwind Drive,48304,42.5947613,-83.2633963
248,Woodwind Drive,48304,42.5946737,-83.2638713
260,Woodwind Drive,48304,42.5944643,-83.2642565
270,Woodwind Drive,48304,42.5943221,-83.2647462
284,Woodwind Drive,48304,42.5942526,-83.2652875
410,Thetford Lane,48304,42.5655302,-83.2640466
424,Thetford Lane,48304,42.5656363,-83.2635162
434,Thetford Lane,48304,42.5657375,-83.2629348
452,Thetford Lane,48304,42.5660563,-83.2624034
480,Thetford Lane,48304,42.5666232,-83.2622366
477,Thetford Lane,48304,42.5665456,-83.2631857
415,Thetford Lane,48304,42.5663332,-83.2638424
781,Lone Pine Road,48304,42.5667102,-83.2639021
559,Bennington Drive,48304,42.5660280,-83.2547149
581,Bennington Drive,48304,42.5658367,-83.2552663
601,Bennington Drive,48304,42.5657526,-83.2559325
554,Bennington Drive,48304,42.5667243,-83.2546187
572,Bennington Drive,48304,42.5666503,-83.2552410
592,Bennington Drive,48304,42.5664822,-83.2558502
612,Bennington Drive,48304,42.5663426,-83.2564670
671,Bennington Drive,48304,42.5656554,-83.2589760
662,Bennington Drive,48304,42.5661338,-83.2585241
684,Falmouth Drive,48304,42.5658133,-83.2601698
676,Bennington Drive,48304,42.5663668,-83.2590692
681,Bennington Drive,48304,42.5662766,-83.2602054
692,Bennington Drive,48304,42.5667136,-83.2594715
699,Bennington Drive,48304,42.5666924,-83.2604882
605,Lone Pine Road,48304,42.5668090,-83.2568964
621,Lone Pine Road,48304,42.5666193,-83.2580528
645,Lone Pine Road,48304,42.5667430,-83.2587925
711,Kennebec Court,48304,42.5645174,-83.2607941
710,Kennebec Court,48304,42.5651721,-83.2605387
720,Kennebec Court,48304,42.5651819,-83.2613216
740,Kennebec Court,48304,42.5649730,-83.2620701
755,Kennebec Court,48304,42.5642341,-83.2626393
750,Kennebec Court,48304,42.5648669,-83.2627859
760,Kennebec Court,48304,42.5646844,-83.2635657
757,Kennebec Court,48304,42.5642496,-83.2634809
761,Falmouth Drive,48304,42.5628876,-83.2621166
710,Falmouth Drive,48304,42.5641259,-83.2610902
730,Falmouth Drive,48304,42.5637846,-83.2615823
770,Falmouth Drive,48304,42.5635246,-83.2624133
790,Falmouth Drive,48304,42.5634154,-83.2631752
800,Falmouth Drive,48304,42.5632801,-83.2638147
19,Merrimac Court,48304,42.5597646,-83.2628030
45,Merrimac Court,48304,42.5602777,-83.2626769
65,Merrimac Court,48304,42.5607579,-83.2622628
50,Merrimac Court,48304,42.5603093,-83.2616947
20,Merrimac Court,48304,42.5597600,-83.2618731
5477,Lahser Road,48304,42.5597538,-83.2637748
5447,Lahser Road,48304,42.5602927,-83.2637975
5437,Lahser Road,48304,42.5606631,-83.2637883
5427,Lahser Road,48304,42.5611964,-83.2638142
737,Sebago Lane,48304,42.5618921,-83.2613907
753,Sebago Lane,48304,42.5619851,-83.2620156
746,Sebago Lane,48304,42.5624695,-83.2612502
300,Nantucket Drive,48304,42.5633458,-83.2607595
281,Nantucket Drive,48304,42.5630235,-83.2614631
246,Nantucket Drive,48304,42.5628857,-83.2604227
198,Nantucket Drive,48304,42.5622754,-83.2601532
160,Nantucket Drive,48304,42.5617550,-83.2597093
159,Nantucket Drive,48304,42.5613856,-83.2602797
70,Nantucket Drive,48304,42.5603369,-83.2595784
87,Nantucket Drive,48304,42.5606338,-83.2603513
41,Nantucket Drive,48304,42.5601288,-83.2607178
19,Nantucket Drive,48304,42.5596841,-83.2608218
30,Nantucket Drive,48304,42.5598337,-83.2596467
275,Marblehead Drive,48304,42.5632746,-83.2598653
270,Marblehead Drive,48304,42.5632557,-83.2589967
253,Marblehead Drive,48304,42.5626049,-83.2595560
240,Marblehead Drive,48304,42.5627515,-83.2587474
220,Marblehead Drive,48304,42.5623699,-83.2581056
231,Marblehead Drive,48304,42.5621333,-83.2590448
191,Marblehead Drive,48304,42.5617469,-83.2585439
190,Marblehead Drive,48304,42.5618473,-83.2577853
170,Marblehead Drive,48304,42.5612341,-83.2576797
150,Marblehead Drive,48304,42.5607048,-83.2580658
130,Marblehead Drive,48304,42.5604728,-83.2587886
149,Marblehead Drive,48304,42.5611907,-83.2587075
117,Marblehead Drive,48304,42.5611366,-83.2594225
3204,Quarton Road,48304,42.5598667,-83.2570487
3324,Quarton Road,48304,42.5598547,-83.2576753
3326,Quarton Road,48304,42.5598452,-83.2583121
3376,Quarton Road,48304,42.5597468,-83.2589281
555,Rudgate Road,48304,42.5666657,-83.2536973
561,Rudgate Road,48304,42.5661881,-83.2537830
570,Rudgate Road,48304,42.5653227,-83.2547191
569,Rudgate Road,48304,42.5654242,-83.2537761
577,Rudgate Road,48304,42.5643391,-83.2538186
578,Rudgate Road,48304,42.5646061,-83.2547376
596,Rudgate Road,48304,42.5644511,-83.2553878
583,Rudgate Road,48304,42.5636566,-83.2540197
591,Rudgate Road,48304,42.5636647,-83.2548099
631,Rudgate Road,48304,42.5635568,-83.2556508
634,Rudgate Road,48304,42.5640096,-83.2562743
657,Rudgate Road,48304,42.5629492,-83.2576060
663,Rudgate Road,48304,42.5631334,-83.2582869
644,Rudgate Road,48304,42.5637225,-83.2567968
654,Rudgate Road,48304,42.5637612,-83.2574020
664,Rudgate Road,48304,42.5638164,-83.2580932
674,Rudgate Road,48304,42.5639617,-83.2587074
684,Rudgate Road,48304,42.5641404,-83.2593099
694,Rudgate Road,48304,42.5643726,-83.2598507
695,Rudgate Road,48304,42.5637369,-83.2602472
298,Lone Pine Court,48304,42.5643364,-83.2514804
255,Lone Pine Court,48304,42.5635259,-83.2530466
295,Lone Pine Court,48304,42.5641205,-83.2531011
352,Lone Pine Court,48304,42.5652584,-83.2520938
351,Lone Pine Court,48304,42.5651898,-83.2530663
401,Lone Pine Court,48304,42.5657645,-83.2529315
412,Lone Pine Court,48304,42.5657790,-83.2520423
456,Lone Pine Court,48304,42.5663911,-83.2521638
465,Lone Pine Court,48304,42.5666286,-83.2529567
415,Church Road,48304,42.5663469,-83.2442200
410,Church Road,48304,42.5656755,-83.2439607
626,Yarboro Drive,48304,42.5618588,-83.2550758
615,Yarboro Drive,48304,42.5610745,-83.2554475
240,Joyce Court,48304,42.5625399,-83.2549834
260,Joyce Court,48304,42.5631391,-83.2552912
232,Harlan Drive,48304,42.5628157,-83.2560885
235,Harlan Drive,48304,42.5629133,-83.2569843
165,Harlan Drive,48304,42.5622839,-83.2569260
140,Harlan Drive,48304,42.5618576,-83.2561708
110,Harlan Drive,48304,42.5613841,-83.2561442
105,Harlan Drive,48304,42.5611220,-83.2570030
80,Harlan Drive,48304,42.5608803,-83.2560202
50,Harlan Drive,48304,42.5603256,-83.2556562
75,Harlan Drive,48304,42.5605019,-83.2568724
35,Harlan Drive,48304,42.5599467,-83.2565427
20,Harlan Drive,48304,42.5598182,-83.2556457
445,Lone Pine Road,48304,42.5667720,-83.2514483
287,Lone Pine Road,48304,42.5670233,-83.2418856
285,Lone Pine Road,48304,42.5669114,-83.2412252
271,Lone Pine Road,48304,42.5667756,-83.2400272
229,Lone Pine Road,48304,42.5670542,-83.2389893
221,Lone Pine Road,48304,42.5670728,-83.2384304
185,Lone Pine Road,48304,42.5669771,-83.2376825
161,Lone Pine Road,48304,42.5668099,-83.2367057
133,Lone Pine Road,48304,42.5671703,-83.2357311
111,Lone Pine Road,48304,42.5670943,-83.2350325
89,Lone Pine Road,48304,42.5671057,-83.2339773
65,Lone Pine Road,48304,42.5671884,-83.2332082
49,Lone Pine Road,48304,42.5671425,-83.2324064
33,Lone Pine Road,48304,42.5666633,-83.2318609
2922,Quarton Road,48304,42.5598635,-83.2521668
2952,Quarton Road,48304,42.5598954,-83.2527853
3000,Quarton Road,48304,42.5597669,-83.2535756
3030,Quarton Road,48304,42.5598327,-83.2542574
3104,Quarton Road,48304,42.5598802,-83.2549896
550,Yarboro Drive,48304,42.5616093,-83.2524515
545,Haverhill Road,48304,42.5623287,-83.2522987
565,Haverhill Road,48304,42.5621668,-83.2529713
520,Haverhill Road,48304,42.5628784,-83.2508981
530,Haverhill Road,48304,42.5630209,-83.2514163
540,Haverhill Road,48304,42.5630911,-83.2522331
550,Haverhill Road,48304,42.5631441,-83.2530596
560,Haverhill Road,48304,42.5630478,-83.2539331
570,Haverhill Road,48304,42.5625638,-83.2540324
580,Haverhill Road,48304,42.5620389,-83.2541171
590,Haverhill Road,48304,42.5615118,-83.2542756
580,Yarboro Drive,48304,42.5616026,-83.2531374
545,Yarboro Drive,48304,42.5607181,-83.2521602
555,Yarboro Drive,48304,42.5607974,-83.2527538
571,Yarboro Drive,48304,42.5602946,-83.2529663
575,Yarboro Drive,48304,42.5605350,-83.2537217
90,Quarton Lane,48304,42.5615014,-83.2448666
95,Quarton Lane,48304,42.5616656,-83.2454748
75,Quarton Lane,48304,42.5610929,-83.2457444
55,Quarton Lane,48304,42.5606343,-83.2457409
60,Quarton Lane,48304,42.5607189,-83.2449730
25,Quarton Lane,48304,42.5601206,-83.2456710
30,Quarton Lane,48304,42.5601145,-83.2448264
51,Cranbrook Road,48304,42.5605987,-83.2417679
45,Orchard Lane,48304,42.5609362,-83.2441261
10,Orchard Lane,48304,42.5602549,-83.2441625
30,Orchard Lane,48304,42.5602184,-83.2432678
120,Lowell Court,48304,42.5612013,-83.2357509
161,Lowell Court,48304,42.5617041,-83.2368743
150,Lowell Court,48304,42.5618031,-83.2360377
180,Lowell Court,48304,42.5623449,-83.2361445
191,Lowell Court,48304,42.5623153,-83.2371640
210,Lowell Court,48304,42.5629217,-83.2362957
211,Lowell Court,48304,42.5628403,-83.2372922
240,Lowell Court,48304,42.5633349,-83.2363332
265,Lowell Court,48304,42.5633351,-83.2373406
285,Lowell Court,48304,42.5637752,-83.2374492
270,Lowell Court,48304,42.5637455,-83.2363318
300,Lowell Court,48304,42.5641384,-83.2364212
330,Lowell Court,48304,42.5646043,-83.2364235
341,Lowell Court,48304,42.5651698,-83.2372436
350,Lowell Court,48304,42.5655604,-83.2361798
300,Cranbrook Court,48304,42.5635954,-83.2391312
320,Cranbrook Court,48304,42.5638454,-83.2384474
325,Lowell Court,48304,42.5642555,-83.2377595
331,Cranbrook Court,48304,42.5642731,-83.2394595
335,Cranbrook Court,48304,42.5647011,-83.2390435
348,Cranbrook Court,48304,42.5647441,-83.2380777
382,Cranbrook Court,48304,42.5651786,-83.2382081
391,Cranbrook Court,48304,42.5653782,-83.2395770
418,Cranbrook Court,48304,42.5656229,-83.2383590
458,Cranbrook Court,48304,42.5664370,-83.2387288
360,Martell Drive,48304,42.5642443,-83.2496654
355,Martell Drive,48304,42.5635360,-83.2500927
345,Martell Drive,48304,42.5635148,-83.2493573
340,Martell Drive,48304,42.5641198,-83.2489726
320,Martell Court,48304,42.5638034,-83.2478221
310,Martell Court,48304,42.5636870,-83.2484506
270,Martell Drive,48304,42.5630384,-83.2485671
255,Martell Drive,48304,42.5630477,-83.2495711
215,Martell Drive,48304,42.5628243,-83.2502444
151,Martell Drive,48304,42.5621155,-83.2513819
125,Martell Drive,48304,42.5614980,-83.2516510
150,Martell Drive,48304,42.5615861,-83.2506073
55,Martell Drive,48304,42.5606511,-83.2515621
100,Martell Drive,48304,42.5611181,-83.2504767
60,Martell Drive,48304,42.5605935,-83.2503447
20,Martell Drive,48304,42.5599761,-83.2503789
25,Martell Drive,48304,42.5599797,-83.2515487
491,Martell Drive,48304,42.5667905,-83.2505145
490,Martell Drive,48304,42.5668247,-83.2497754
459,Martell Drive,48304,42.5662466,-83.2505775
460,Martell Drive,48304,42.5662283,-83.2498662
411,Martell Drive,48304,42.5654191,-83.2505583
393,Martell Drive,48304,42.5648731,-83.2506398
420,Martell Drive,48304,42.5653194,-83.2492230
400,Martell Drive,48304,42.5646122,-83.2494783
371,Martell Drive,48304,42.5643863,-83.2507351
369,Martell Drive,48304,42.5638143,-83.2508094
469,Goodhue Road,48304,42.5646996,-83.2480638
460,Goodhue Road,48304,42.5656477,-83.2463101
475,Goodhue Road,48304,42.5656610,-83.2485537
21,Beresford Court,48304,42.5661344,-83.2478292
35,Beresford Court,48304,42.5662003,-83.2487938
14,Beresford Court,48304,42.5667861,-83.2478184
320,Dunston Road,48304,42.5644525,-83.2433245
325,Dunston Road,48304,42.5636849,-83.2428687
345,Dunston Road,48304,42.5637829,-83.2436010
365,Dunston Road,48304,42.5637573,-83.2445468
375,Dunston Road,48304,42.5630738,-83.2453444
401,Dunston Road,48304,42.5625844,-83.2459423
400,Dunston Road,48304,42.5633157,-83.2464045
417,Dunston Road,48304,42.5625871,-83.2466443
420,Dunston Road,48304,42.5628451,-83.2479254
343,Doningham Lane,48304,42.5620010,-83.2468001
455,Doningham Lane,48304,42.5616588,-83.2476308
471,Dunston Road,48304,42.5615390,-83.2482910
477,Dunston Road,48304,42.5611222,-83.2484519
493,Dunston Road,48304,42.5610916,-83.2476585
495,Dunston Road,48304,42.5609701,-83.2469957
497,Dunston Road,48304,42.5605299,-83.2466230
474,Dunston Road,48304,42.5610647,-83.2495156
478,Dunston Road,48304,42.5605647,-83.2494004
482,Dunston Court,48304,42.5600641,-83.2492706
486,Dunston Court,48304,42.5600723,-83.2487261
490,Dunston Road,48304,42.5605118,-83.2483917
494,Dunston Road,48304,42.5603757,-83.2475468
498,Dunston Road,48304,42.5599546,-83.2475353
499,Dunston Road,48304,42.5600653,-83.2466736
435,Goodhue Road,48304,42.5638074,-83.2469854
311,Woodridge Road,48304,42.5624667,-83.2423180
345,Woodridge Road,48304,42.5623872,-83.2432598
300,Woodridge Road,48304,42.5632245,-83.2425946
330,Woodridge Road,48304,42.5630797,-83.2433425
360,Woodridge Road,48304,42.5627202,-83.2443435
365,Woodridge Road,48304,42.5620962,-83.2448721
355,Cranbrook Road,48304,42.5648027,-83.2433745
381,Cranbrook Road,48304,42.5652663,-83.2434554
411,Goodhue Road,48304,42.5645453,-83.2449468
420,Goodhue Road,48304,42.5650396,-83.2454585
451,Goodhue Road,48304,42.5649350,-83.2470650
230,Woodberry Drive,48304,42.5615555,-83.2375992
242,Woodberry Drive,48304,42.5619399,-83.2381872
254,Woodberry Drive,48304,42.5622669,-83.2387564
266,Woodberry Drive,48304,42.5624771,-83.2394427
278,Woodberry Drive,48304,42.5625917,-83.2401907
210,Woodberry Drive,48304,42.5611399,-83.2367280
205,Woodberry Drive,48304,42.5602679,-83.2365700
215,Woodberry Drive,48304,42.5604635,-83.2373475
225,Woodberry Drive,48304,42.5606908,-83.2380821
85,Cabot Place,48304,42.5613222,-83.2387636
30,Cabot Place,48304,42.5602590,-83.2383653
55,Cabot Place,48304,42.5609071,-83.2393722
25,Cabot Place,48304,42.5603007,-83.2396513
285,Woodberry Drive,48304,42.5616692,-83.2408175
30,Cranbrook Road,48304,42.5604529,-83.2404768
80,Cranbrook Road,48304,42.5610352,-83.2404554
220,Cranbrook Road,48304,42.5626949,-83.2410589
250,Cranbrook Road,48304,42.5632040,-83.2415721
260,Cranbrook Road,48304,42.5633116,-83.2404736
280,Cranbrook Road,48304,42.5637292,-83.2403762
290,Cranbrook Road,48304,42.5640843,-83.2404550
300,Cranbrook Road,48304,42.5640714,-83.2417287
310,Cranbrook Road,48304,42.5644810,-83.2414330
320,Cranbrook Road,48304,42.5651628,-83.2404791
394,Cranbrook Road,48304,42.5653185,-83.2423306
360,Cranbrook Road,48304,42.5656381,-83.2415975
101,Endicott Road,48304,42.5608447,-83.2330664
102,Endicott Road,48304,42.5605378,-83.2323066
116,Endicott Road,48304,42.5608359,-83.2316632
130,Endicott Road,48304,42.5611479,-83.2310696
146,Endicott Road,48304,42.5617922,-83.2306734
162,Endicott Road,48304,42.5624789,-83.2307518
155,Endicott Road,48304,42.5621232,-83.2316630
125,Hilltop Lane,48304,42.5617296,-83.2319477
115,Hilltop Lane,48304,42.5614523,-83.2325465
105,Hilltop Lane,48304,42.5617267,-83.2332787
300,Chesterfield Road,48304,42.5635669,-83.2307825
290,Chesterfield Road,48304,42.5631114,-83.2312424
250,Chesterfield Road,48304,42.5625179,-83.2321621
240,Chesterfield Road,48304,42.5622592,-83.2325859
172,Chesterfield Road,48304,42.5613563,-83.2338148
148,Chesterfield Road,48304,42.5609809,-83.2343682
116,Chesterfield Road,48304,42.5604508,-83.2350858
267,Woodberry Drive,48304,42.5616132,-83.2401045
264,Lakewood Drive,48304,42.5633778,-83.2324043
300,Lakewood Drive,48304,42.5638906,-83.2317426
312,Lakewood Drive,48304,42.5643137,-83.2314274
326,Lakewood Drive,48304,42.5647795,-83.2312504
340,Lakewood Drive,48304,42.5652628,-83.2313228
358,Lakewood Drive,48304,42.5657434,-83.2312508
376,Lakewood Drive,48304,42.5662727,-83.2314403
363,Lakewood Drive,48304,42.5657514,-83.2325887
341,Lakewood Drive,48304,42.5652747,-83.2323993
323,Lakewood Drive,48304,42.5648137,-83.2322603
305,Lakewood Drive,48304,42.5644023,-83.2323708
273,Lakewood Drive,48304,42.5639401,-83.2327560
255,Lakewood Drive,48304,42.5636071,-83.2333248
237,Lakewood Drive,48304,42.5632521,-83.2337823
219,Lakewood Drive,48304,42.5627988,-83.2339228
311,Barden Road,48304,42.5753501,-83.2479151
649,Edgemere Court,48304,42.5696638,-83.2412576
150,Brady Lane,48304,42.5728802,-83.2412796
575,Chase Lane,48304,42.5923298,-83.2351264
567,Chase Lane,48304,42.5931689,-83.2365645
574,Chase Lane,48304,42.5916936,-83.2356707
1790,Tiverton Road,48304,42.5870502,-83.2424520
499,Wishbone Drive,48304,42.5925278,-83.2428991
559,Barrington Park,48304,42.5945806,-83.2565788
2030,West Valley Road,48304,42.5896027,-83.2569360
135,Harlan Drive,48304,42.5616593,-83.2570334
250,Martell Drive,48304,42.5625266,-83.2491172
440,Dunston Road,48304,42.5623144,-83.2484523
977,Bloomfield Woods Court,48304,42.5893033,-83.2508993
39221,Woodward Avenue,48304,42.5724551,-83.2497113
39221,Woodward Ave,48304,42.5729846,-83.2500741
380,East Hickory Grove Road,48304,42.5957640,-83.2483959
37425,Woodward Avenue,48304,42.5655829,-83.2294099
1966,Tiverton Road,48304,42.5888861,-83.2457204
633,Edgemere Court,48304,42.5690539,-83.2413344
173,Lone Pine Road,48304,42.5657705,-83.2374151
330,Martell Drive,48304,42.5642009,-83.2479666
376,Dunston Road,48304,42.5641599,-83.2457540
160,Chesterfield Road,48304,42.5604443,-83.2336054
228,Lakewood Drive,48304,42.5628372,-83.2328770
201,Lakewood Drive,48304,42.5621893,-83.2338007
39312,Woodward Avenue,48304,42.5797736,-83.2396933
