House number,Street name,Postal code,Latitude,Longitude
303,South Main Street,48017,42.5310202,-83.1458996
1331,West Maple Road,48017,42.5475186,-83.1653918
1365,West Maple Road,48017,42.5476254,-83.1660551
1129,West 14 Mile Road,48017,42.5320859,-83.1618958
425 / 429,South Main Street,48017,42.5296995,-83.1457241
107,North Main Street,48017,42.5342433,-83.1466158
22,S Main St,48017,42.5330920,-83.1465340
1377,North Main Street,48017,42.5455723,-83.1471505
7,North Rochester Road,48017,42.5340281,-83.1363182
650,West 14 Mile Road,48017,42.5336695,-83.1559373
1155,West 14 Mile Road,48017,42.5320793,-83.1624282
1402,West 14 Mile Road,48017,42.5337307,-83.1650486
1365,West Maple Road,48017,42.5474449,-83.1659447
1377,North Main Street,48017,42.5455410,-83.1473543
206,West 14 Mile Road,48017,42.5336230,-83.1500231
206,West 14 Mile Road,48017,42.5337614,-83.1500687
110,North Rochester Road,48017,42.5347605,-83.1349169
24,North Rochester Road,48017,42.5339333,-83.1354211
24,North Rochester Road,48017,42.5339292,-83.1350718
150,John M Avenue,48017,42.5365936,-83.1485250
101,John M Avenue,48017,42.5360085,-83.1482944
1185,West 14 Mile Road,48017,42.5320867,-83.1628732
1255,West 14 Mile Road,48017,42.5320593,-83.1639725
1213,West 14 Mile Road,48017,42.5320823,-83.1632651
1139,West 14 Mile Road,48017,42.5320826,-83.1622460
1077,West 14 Mile Road,48017,42.5320883,-83.1617017
1203,West 14 Mile Road,48017,42.5320857,-83.1630398
1207,West 14 Mile Road,48017,42.5320818,-83.1631396
1219,West 14 Mile Road,48017,42.5320796,-83.1634658
1241,West 14 Mile Road,48017,42.5320699,-83.1637011
1249,West 14 Mile Road,48017,42.5320634,-83.1638051
1145,West Maple Road,48017,42.5477207,-83.1625011
27,Tecumseh Street,48017,42.5286147,-83.1466254
935,North Custer Avenue,48017,42.5419478,-83.1531966
926,Grant Street,48017,42.5360070,-83.1312375
469,Parkland Boulevard,48017,42.5312450,-83.1399142
416,North Main Street,48017,42.5368521,-83.1460936
1119,W. Maple Rd,48017,42.5475720,-83.1620389
581,East 14 Mile Road,48017,42.5341728,-83.1386993
1212,West 14 Mile Road,48017,42.5336700,-83.1640659
1402,West 14 Mile Road,48017,42.5336534,-83.1651826
1301,West 14 Mile Road,48017,42.5324543,-83.1645087
1359,West 14 Mile Road,48017,42.5327202,-83.1652806
1035,West 14 Mile Road,48017,42.5319477,-83.1612574
131,South Crooks Road,48017,42.5318829,-83.1650608
240,Nahma Avenue,48017,42.5304367,-83.1543807
1120,West 14 Mile Road,48017,42.5334436,-83.1623833
1200,West 14 Mile Road,48017,42.5334861,-83.1634617
1176,West 14 Mile Road,48017,42.5336938,-83.1629038
1206,West 14 Mile Road,48017,42.5337030,-83.1637756
110,North Rochester Road,48017,42.5346937,-83.1350424
775,East 14 Mile Road,48017,42.5339895,-83.1345741
416,North Main Street,48017,42.5371717,-83.1461177
345,North Main Street,48017,42.5361331,-83.1468374
509,Fisher Court,48017,42.5366279,-83.1397739
425,North Main Street,48017,42.5367710,-83.1470072
940,North Selfridge Boulevard,48017,42.5412086,-83.1577609
1500,Crooks Road,48017,42.5440294,-83.1650573
650,West Elmwood Avenue,48017,42.5408672,-83.1551879
140,North Crooks Road,48017,42.5340385,-83.1651451
1000,N Crooks,48017,42.5412482,-83.1646074
1030,N Crooks,48017,42.5418485,-83.1645091
1421,North Main Street,48017,42.5460624,-83.1473721
1435,North Main Street,48017,42.5463336,-83.1473657
1345,North Main,48017,42.5451307,-83.1473131
303,South Main Street,48017,42.5309817,-83.1457167
629,West Maple Road,48017,42.5475437,-83.1555704
635,West 14 Mile Road,48017,42.5329383,-83.1560518
1068,West 14 Mile Road,48017,42.5334950,-83.1610929
1015,West 14 Mile Road,48017,42.5325435,-83.1607142
1339,West 14 Mile Road,48017,42.5325546,-83.1648957
456,East 14 Mile Road,48017,42.5330709,-83.1403063
511,West 14 Mile Road,48017,42.5329940,-83.1543944
615,West 14 Mile Road,48017,42.5329869,-83.1554936
749,West 14 Mile Road,48017,42.5328368,-83.1572758
844,West 14 Mile Road,48017,42.5334436,-83.1580509
808,West 14 Mile Road,48017,42.5335031,-83.1586015
940,West 14 Mile Road,48017,42.5334966,-83.1590873
1004,West 14 Mile Road,48017,42.5334946,-83.1595442
1060,West 14 Mile Road,48017,42.5336054,-83.1604418
1110,West 14 Mile Road,48017,42.5334756,-83.1616442
220,South Main Street,48017,42.5316008,-83.1465323
208,South Main Street,48017,42.5318236,-83.1463804
17,West Tacoma Street,48017,42.5310382,-83.1463483
870,North Crooks Road,48017,42.5398185,-83.1658081
800,N Crooks,48017,42.5390969,-83.1658329
710,North Crooks Road,48017,42.5382932,-83.1658254
432,North Crooks Road,48017,42.5364955,-83.1654679
205,North Main Street,48017,42.5350497,-83.1469014
839,Crooks Road,48017,42.5265182,-83.1646624
827,South Chocolay Avenue,48017,42.5261394,-83.1610079
69,Church Avenue,48017,42.5324454,-83.1445593
521,East 14 Mile Road,48107,42.5341167,-83.1395768
41,Fisher Court,48017,42.5367213,-83.1456747
340,North Main Street,48017,42.5359744,-83.1455945
235,South Main Street,48017,42.5319472,-83.1457065
552,South Manitou Avenue,48017,42.5285586,-83.1604811
602,South Manitou Avenue,48017,42.5284270,-83.1604871
542,South Manitou Avenue,48017,42.5286889,-83.1605015
532,South Manitou Avenue,48017,42.5288196,-83.1604890
524,South Manitou Avenue,48017,42.5289508,-83.1605040
514,South Manitou Avenue,48017,42.5290800,-83.1604986
506,South Manitou Avenue,48017,42.5292246,-83.1604990
622,South Manitou Avenue,48017,42.5281659,-83.1604854
612,South Manitou Avenue,48017,42.5282969,-83.1604692
630,South Manitou Avenue,48017,42.5280365,-83.1604586
640,South Manitou Avenue,48017,42.5279058,-83.1604667
650,South Manitou Avenue,48017,42.5277743,-83.1604721
660,South Manitou Avenue,48017,42.5276573,-83.1604373
627,South Webik Avenue,48017,42.5280438,-83.1624447
617,South Webik Avenue,48017,42.5281818,-83.1624519
637,South Webik Avenue,48017,42.5279070,-83.1624412
607,South Webik Avenue,48017,42.5283441,-83.1624575
647,South Webik Avenue,48017,42.5277684,-83.1624360
657,South Webik Avenue,48017,42.5276212,-83.1624302
658,South Chocolay Avenue,48017,42.5276625,-83.1617196
646,South Chocolay Avenue,48017,42.5277983,-83.1617179
636,South Chocolay Avenue,48017,42.5279359,-83.1617526
635,South Chocolay Avenue,48017,42.5279253,-83.1612094
626,South Chocolay Avenue,48017,42.5280743,-83.1617182
618,South Chocolay Avenue,48017,42.5282103,-83.1617306
608,South Chocolay Avenue,48017,42.5283478,-83.1617440
558,South Chocolay Avenue,48017,42.5284776,-83.1617348
555,South Chocolay Avenue,48017,42.5285066,-83.1612535
545,South Chocolay Avenue,48017,42.5286480,-83.1612503
538,South Chocolay Avenue,48017,42.5287674,-83.1617411
528,South Chocolay Avenue,48017,42.5289041,-83.1617479
508,South Chocolay Avenue,48017,42.5291884,-83.1617479
518,South Chocolay Avenue,48017,42.5290524,-83.1617440
515,South Chocolay Avenue,48017,42.5290715,-83.1612698
525,South Chocolay Avenue,48017,42.5289301,-83.1612458
505,South Chocolay Avenue,48017,42.5292059,-83.1612538
535,South Chocolay Avenue,48017,42.5287881,-83.1612127
557,South Webik Avenue,48017,42.5284689,-83.1624579
534,South Webik Avenue,48017,42.5287614,-83.1630155
230,South Batchewana Avenue,48017,42.5310080,-83.1643457
235,South Batchewana Avenue,48017,42.5309723,-83.1637740
236,South Webik Avenue,48017,42.5310205,-83.1631177
348,South Webik Avenue,48017,42.5300254,-83.1630647
338,South Webik Avenue,48017,42.5301634,-83.1630639
326,South Webik Avenue,48017,42.5303062,-83.1630559
316,South Webik Avenue,48017,42.5304446,-83.1630624
246,South Webik Avenue,48017,42.5308719,-83.1630964
256,South Webik Avenue,48017,42.5307200,-83.1630729
306,South Webik Avenue,48017,42.5305814,-83.1630608
253,South Webik Avenue,48017,42.5310225,-83.1625608
245,South Webik Avenue,48017,42.5308937,-83.1625799
303,South Webik Avenue,48017,42.5307534,-83.1625186
309,South Webik Avenue,48017,42.5306081,-83.1625552
315,South Webik Avenue,48017,42.5304749,-83.1625617
325,South Webik Avenue,48017,42.5303363,-83.1625501
335,South Webik Avenue,48017,42.5301971,-83.1625396
353,South Webik Avenue,48017,42.5298851,-83.1625189
409,South Webik Avenue,48017,42.5297490,-83.1625343
419,South Webik Avenue,48017,42.5296119,-83.1625200
400,South Batchewana Avenue,48017,42.5297421,-83.1643210
340,South Batchewana Avenue,48017,42.5301368,-83.1644120
350,South Batchewana Avenue,48017,42.5299678,-83.1643615
322,South Batchewana Avenue,48017,42.5303529,-83.1643710
426,South Batchewana Avenue,48017,42.5294990,-83.1644110
423,South Batchewana Avenue,48017,42.5295092,-83.1637354
430,South Webik Avenue,48017,42.5294552,-83.1632322
406,South Webik Avenue,48017,42.5297815,-83.1630560
409,South Batchewana Avenue,48017,42.5296843,-83.1637591
359,South Batchewana Avenue,48017,42.5299075,-83.1637244
339,South Batchewana Avenue,48017,42.5301590,-83.1637831
309,South Batchewana Avenue,48017,42.5305209,-83.1637472
255,South Batchewana Avenue,48017,42.5307856,-83.1638415
325,South Batchewana Avenue,48017,42.5303286,-83.1637775
310,South Batchewana Avenue,48017,42.5305344,-83.1643419
300,South Batchewana Avenue,48017,42.5306722,-83.1643442
250,South Batchewana Avenue,48017,42.5308153,-83.1643675
338,South Chocolay Avenue,48017,42.5302226,-83.1617888
331,South Chocolay Avenue,48017,42.5302914,-83.1613206
309,South Chocolay Avenue,48017,42.5305705,-83.1612911
321,South Chocolay Avenue,48017,42.5304229,-83.1613187
259,South Chocolay Avenue,48017,42.5307262,-83.1613294
249,South Chocolay Avenue,48017,42.5308818,-83.1613359
237,South Chocolay Avenue,48017,42.5310374,-83.1613584
220,South Manitou Avenue,48017,42.5313706,-83.1605875
210,South Manitou Avenue,48017,42.5314933,-83.1605785
200,South Manitou Avenue,48017,42.5316359,-83.1605810
140,South Manitou Avenue,48017,42.5317730,-83.1605866
130,South Manitou Avenue,48017,42.5319104,-83.1606153
120,South Manitou Avenue,48017,42.5320483,-83.1605924
110,South Manitou Avenue,48017,42.5321868,-83.1606039
219,South Chocolay Avenue,48017,42.5313521,-83.1613093
236,South Chocolay Avenue,48017,42.5310435,-83.1618183
328,South Chocolay Avenue,48017,42.5303493,-83.1617943
322,South Chocolay Avenue,48017,42.5304933,-83.1617955
310,South Chocolay Avenue,48017,42.5306317,-83.1618141
246,South Chocolay Avenue,48017,42.5309038,-83.1618046
256,South Chocolay Avenue,48017,42.5307544,-83.1618260
345,South Webik Avenue,48017,42.5300581,-83.1625371
427,South Webik Avenue,48017,42.5294725,-83.1625080
429,South Chocolay Avenue,48017,42.5295030,-83.1612810
419,South Chocolay Avenue,48017,42.5296362,-83.1612869
341,South Chocolay Avenue,48017,42.5301590,-83.1613157
349,South Chocolay Avenue,48017,42.5300273,-83.1613075
359,South Chocolay Avenue,48017,42.5298969,-83.1612958
409,South Chocolay Avenue,48017,42.5297668,-83.1612742
408,South Chocolay Avenue,48017,42.5297687,-83.1617486
358,South Chocolay Avenue,48017,42.5299061,-83.1617526
418,South Chocolay Avenue,48017,42.5296314,-83.1617567
730,South Chocolay Avenue,48017,42.5294899,-83.1617646
348,South Chocolay Avenue,48017,42.5300442,-83.1617816
209,South Manitou Avenue,48017,42.5315308,-83.1599485
219,South Manitou Avenue,48017,42.5313819,-83.1599546
149,South Manitou Avenue,48017,42.5316828,-83.1599531
137,South Manitou Avenue,48017,42.5318333,-83.1599609
127,South Manitou Avenue,48017,42.5319704,-83.1599920
117,South Manitou Avenue,48017,42.5321069,-83.1599959
105,South Manitou Avenue,48017,42.5322453,-83.1600028
47,South Manitou Avenue,48017,42.5323843,-83.1599657
37,South Manitou Avenue,48017,42.5325224,-83.1599871
27,South Manitou Avenue,48017,42.5326575,-83.1600191
17,South Manitou Avenue,48017,42.5327952,-83.1599972
7,South Manitou Avenue,48017,42.5329153,-83.1599236
921,West 14 Mile Road,48017,42.5328825,-83.1595088
116,South Gargantua Avenue,48017,42.5321082,-83.1592777
106,South Gargantua Avenue,48017,42.5322460,-83.1592548
218,South Gargantua Avenue,48017,42.5313972,-83.1592266
907,West 14 Mile Road,48017,42.5328924,-83.1592591
36,South Gargantua Avenue,48017,42.5325211,-83.1592505
46,South Gargantua Avenue,48017,42.5323829,-83.1592682
208,South Gargantua Avenue,48017,42.5315321,-83.1592284
148,South Gargantua Avenue,48017,42.5316849,-83.1592485
138,South Gargantua Avenue,48017,42.5318366,-83.1592826
128,South Gargantua Avenue,48017,42.5319731,-83.1592299
47,South Gargantua Avenue,48017,42.5324083,-83.1587282
37,South Gargantua Avenue,48017,42.5325450,-83.1587304
115,South Gargantua Avenue,48017,42.5321497,-83.1587064
105,South Gargantua Avenue,48017,42.5322711,-83.1587335
259,South Manitou Avenue,48017,42.5307266,-83.1599329
249,South Manitou Avenue,48017,42.5308558,-83.1599321
231,South Manitou Avenue,48017,42.5311076,-83.1599438
330,South Gargantua Avenue,48017,42.5304118,-83.1591799
320,South Gargantua Avenue,48017,42.5305498,-83.1591757
310,South Gargantua Avenue,48017,42.5306865,-83.1591544
250,South Gargantua Avenue,48017,42.5308240,-83.1591698
244,South Gargantua Avenue,48017,42.5309606,-83.1591857
240,South Gargantua Avenue,48017,42.5311049,-83.1592169
201,South Gargantua Avenue,48017,42.5317022,-83.1586796
217,South Gargantua Avenue,48017,42.5314180,-83.1586791
207,South Gargantua Avenue,48017,42.5315652,-83.1586754
125,South Gargantua Avenue,48017,42.5319947,-83.1587109
135,South Gargantua Avenue,48017,42.5318587,-83.1586802
406,South Gargantua Avenue,48017,42.5298623,-83.1591726
910,Nakota Road,48017,42.5296199,-83.1591813
920,Nakota Road,48017,42.5295767,-83.1594160
241,South Manitou Avenue,48017,42.5309875,-83.1599229
409,South Manitou Avenue,48017,42.5298060,-83.1598848
429,South Manitou Avenue,48017,42.5295295,-83.1598794
419,South Manitou Avenue,48017,42.5296755,-83.1598800
359,South Manitou Avenue,48017,42.5299379,-83.1599083
349,South Manitou Avenue,48017,42.5300689,-83.1599217
341,South Manitou Avenue,48017,42.5302006,-83.1599177
331,South Manitou Avenue,48017,42.5303325,-83.1599134
321,South Manitou Avenue,48017,42.5304613,-83.1599293
311,South Manitou Avenue,48017,42.5305944,-83.1599434
336,South Gargantua Avenue,48017,42.5302703,-83.1591868
356,South Gargantua Avenue,48017,42.5299992,-83.1591421
346,South Gargantua Avenue,48017,42.5301417,-83.1591402
200,South Batchewana Avenue,48017,42.5315951,-83.1643650
430,South Manitou Avenue,48017,42.5295175,-83.1605095
420,South Manitou Avenue,48017,42.5296331,-83.1605199
410,South Manitou Avenue,48017,42.5297645,-83.1605382
360,South Manitou Avenue,48017,42.5298977,-83.1605302
350,South Manitou Avenue,48017,42.5300277,-83.1605277
342,South Manitou Avenue,48017,42.5301578,-83.1605500
332,South Manitou Avenue,48017,42.5302892,-83.1605653
322,South Manitou Avenue,48017,42.5304177,-83.1605593
312,South Manitou Avenue,48017,42.5305524,-83.1605491
260,South Manitou Avenue,48017,42.5306838,-83.1605645
250,South Manitou Avenue,48017,42.5308122,-83.1606039
242,South Manitou Avenue,48017,42.5309451,-83.1605922
232,South Manitou Avenue,48017,42.5310910,-83.1605744
238,Tecumseh Street,48017,42.5289215,-83.1501794
230,Tecumseh Street,48017,42.5289264,-83.1500322
222,Tecumseh Street,48017,42.5289290,-83.1498836
212,Tecumseh Street,48017,42.5289337,-83.1497275
204,Tecumseh Street,48017,42.5289380,-83.1495680
304,Tecumseh Street,48017,42.5289095,-83.1513803
294,Tecumseh Street,48017,42.5289028,-83.1512321
286,Tecumseh Street,48017,42.5289107,-83.1510815
270,Tecumseh Street,48017,42.5289207,-83.1507753
260,Tecumseh Street,48017,42.5289161,-83.1506301
246,Tecumseh Street,48017,42.5289111,-83.1503442
276,Massoit Street,48017,42.5281337,-83.1508661
266,Massoit Street,48017,42.5281595,-83.1506795
256,Massoit Street,48017,42.5281594,-83.1504935
246,Massoit Street,48017,42.5281472,-83.1503070
243,Tecumseh Street,48017,42.5285455,-83.1502961
233,Tecumseh Street,48017,42.5285402,-83.1501042
223,Tecumseh Street,48017,42.5285576,-83.1499185
213,Tecumseh Street,48017,42.5285639,-83.1497324
222,Chippewa Avenue,48017,42.5273434,-83.1497978
212,Chippewa Avenue,48017,42.5273496,-83.1496427
204,Chippewa Avenue,48017,42.5273381,-83.1494852
1226,West 14 Mile Road,48017,42.5336647,-83.1645439
1222,West 14 Mile Road,48017,42.5336677,-83.1642710
1216,West 14 Mile Road,48017,42.5336688,-83.1641786
1220,West 14 Mile Road,48017,42.5336670,-83.1643398
1224,West 14 Mile Road,48017,42.5336653,-83.1644824
1228,West 14 Mile Road,48017,42.5336640,-83.1646050
1230,West 14 Mile Road,48017,42.5336631,-83.1646847
1222,West 14 Mile Road,48017,42.5336662,-83.1644139
548,South Chocolay Avenue,48017,42.5286318,-83.1617577
525,South Webik Avenue,48017,42.5288972,-83.1624635
537,South Webik Avenue,48017,42.5287417,-83.1624626
547,South Webik Avenue,48017,42.5286098,-83.1624961
618,South Webik Avenue,48017,42.5281731,-83.1629769
608,South Webik Avenue,48017,42.5283110,-83.1629851
558,South Webik Avenue,48017,42.5284631,-83.1630148
544,South Webik Avenue,48017,42.5286180,-83.1630260
513,South Batchewana Avenue,48017,42.5290856,-83.1637410
526,South Webik Avenue,48017,42.5289104,-83.1630606
514,South Webik Avenue,48017,42.5290394,-83.1629975
506,South Webik Avenue,48017,42.5291586,-83.1630555
625,South Chocolay Avenue,48017,42.5280630,-83.1612124
529,South Batchewana Avenue,48017,42.5288352,-83.1637475
510,South Batchewana Avenue,48017,42.5290635,-83.1643092
530,South Batchewana Avenue,48017,42.5287591,-83.1642837
610,South Batchewana Avenue,48017,42.5283095,-83.1642603
620,South Webik Avenue,48017,42.5279605,-83.1630870
549,South Batchewana Avenue,48017,42.5285363,-83.1637190
609,South Batchewana Avenue,48017,42.5282767,-83.1637236
629,South Batchewana Avenue,48017,42.5280014,-83.1637156
642,South Batchewana Avenue,48017,42.5278249,-83.1642744
829,South Batchewana Avenue,48017,42.5262406,-83.1636118
811,South Batchewana Avenue,48017,42.5264393,-83.1636244
745,South Batchewana Avenue,48017,42.5267652,-83.1636398
1249,Massoit Road,48017,42.5272505,-83.1636269
720,South Batchewana Avenue,48017,42.5272516,-83.1642261
738,South Batchewana Avenue,48017,42.5268830,-83.1642187
744,South Batchewana Avenue,48017,42.5267291,-83.1642328
734,South Webik Avenue,48017,42.5269184,-83.1629393
744,South Webik Avenue,48017,42.5267803,-83.1629325
754,South Webik Avenue,48017,42.5266419,-83.1629304
806,South Webik Avenue,48017,42.5264836,-83.1629151
724,South Webik Avenue,48017,42.5270508,-83.1629260
1209,Massoit Road,48017,42.5272956,-83.1629413
1221,Massoit Road,48017,42.5272904,-83.1631713
1250,Massoit Road,48017,42.5276580,-83.1637595
1238,Massoit Road,48017,42.5276437,-83.1634817
660,South Webik Avenue,48017,42.5276162,-83.1629578
650,South Webik Avenue,48017,42.5277672,-83.1629658
661,South Chocolay Avenue,48017,42.5276501,-83.1612020
651,South Chocolay Avenue,48017,42.5277983,-83.1611980
515,South Webik Avenue,48017,42.5290377,-83.1625008
505,South Webik Avenue,48017,42.5291811,-83.1624933
705,South Chocolay Avenue,48017,42.5273626,-83.1611788
1023,Massoit Road,48017,42.5272786,-83.1606931
1005,Massoit Road,48017,42.5272032,-83.1604310
822,South Manitou Avenue,48017,42.5263510,-83.1603758
832,South Manitou Avenue,48017,42.5262129,-83.1603671
842,South Manitou Avenue,48017,42.5260763,-83.1603554
815,South Manitou Avenue,48017,42.5264455,-83.1597809
825,South Manitou Avenue,48017,42.5263092,-83.1597898
835,South Manitou Avenue,48017,42.5261701,-83.1597694
607,South Chocolay Avenue,48017,42.5283583,-83.1611581
619,South Chocolay Avenue,48017,42.5282012,-83.1612161
755,South Chocolay Avenue,48017,42.5266907,-83.1611829
715,South Chocolay Avenue,48017,42.5272416,-83.1611989
725,South Chocolay Avenue,48017,42.5271045,-83.1611860
735,South Chocolay Avenue,48017,42.5269683,-83.1611481
745,South Chocolay Avenue,48017,42.5268289,-83.1611844
704,South Chocolay Avenue,48017,42.5273512,-83.1616996
714,South Chocolay Avenue,48017,42.5272143,-83.1617014
724,South Chocolay Avenue,48017,42.5270768,-83.1616770
734,South Chocolay Avenue,48017,42.5269397,-83.1616725
754,South Chocolay Avenue,48017,42.5266660,-83.1616458
744,South Chocolay Avenue,48017,42.5268021,-83.1616590
805,South Manitou Avenue,48017,42.5265833,-83.1597961
755,South Manitou Avenue,48017,42.5267228,-83.1597669
725,South Manitou Avenue,48017,42.5271329,-83.1598162
735,South Manitou Avenue,48017,42.5269964,-83.1597836
745,South Manitou Avenue,48017,42.5268589,-83.1597976
705,South Manitou Avenue,48017,42.5273921,-83.1598346
715,South Manitou Avenue,48017,42.5272712,-83.1598284
755,South Webik Avenue,48017,42.5266532,-83.1624212
733,South Webik Avenue,48017,42.5268959,-83.1623857
1131,Massoit Road,48017,42.5272687,-83.1621527
1151,Massoit Road,48017,42.5272605,-83.1624444
742,South Manitou Avenue,48017,42.5268994,-83.1603987
812,South Manitou Avenue,48017,42.5264893,-83.1603793
802,South Manitou Avenue,48017,42.5266246,-83.1604170
752,South Manitou Avenue,48017,42.5267624,-83.1603995
706,South Gargantua Avenue,48017,42.5274172,-83.1590567
724,South Gargantua Avenue,48017,42.5271700,-83.1590543
714,South Gargantua Avenue,48017,42.5272885,-83.1590750
730,South Gargantua Avenue,48017,42.5270594,-83.1590566
742,South Gargantua Avenue,48017,42.5269008,-83.1590597
661,South Manitou Avenue,48017,42.5276717,-83.1598287
651,South Manitou Avenue,48017,42.5278171,-83.1598230
754,South Gargantua Avenue,48017,42.5267492,-83.1590055
804,South Gargantua Avenue,48017,42.5266118,-83.1590067
814,South Gargantua Avenue,48017,42.5264745,-83.1590090
824,South Gargantua Avenue,48017,42.5263370,-83.1589978
834,South Gargantua Avenue,48017,42.5262003,-83.1589850
502,South Gargantua Avenue,48017,42.5292578,-83.1591395
506,South Gargantua Avenue,48017,42.5291336,-83.1591171
526,South Gargantua Avenue,48017,42.5289841,-83.1591004
536,South Gargantua Avenue,48017,42.5288469,-83.1590990
546,South Gargantua Avenue,48017,42.5287146,-83.1591227
556,South Gargantua Avenue,48017,42.5285745,-83.1590846
610,South Gargantua Avenue,48017,42.5284119,-83.1590994
620,South Gargantua Avenue,48017,42.5282728,-83.1591066
660,South Gargantua Avenue,48017,42.5277158,-83.1590556
650,South Gargantua Avenue,48017,42.5278614,-83.1590598
630,South Gargantua Avenue,48017,42.5281379,-83.1590600
640,South Gargantua Avenue,48017,42.5279989,-83.1590643
505,South Manitou Avenue,48017,42.5292347,-83.1598913
513,South Manitou Avenue,48017,42.5291231,-83.1598774
523,South Manitou Avenue,48017,42.5289926,-83.1598621
531,South Manitou Avenue,48017,42.5288619,-83.1598657
541,South Manitou Avenue,48017,42.5287317,-83.1598673
551,South Manitou Avenue,48017,42.5286003,-83.1598566
601,South Manitou Avenue,48017,42.5284695,-83.1598275
611,South Manitou Avenue,48017,42.5283396,-83.1598465
621,South Manitou Avenue,48017,42.5282091,-83.1598215
631,South Manitou Avenue,48017,42.5280774,-83.1598372
641,South Manitou Avenue,48017,42.5279477,-83.1598137
106,South Marias Avenue,48017,42.5322726,-83.1580292
235,South Gargantua Avenue,48017,42.5311487,-83.1586837
38,South Marias Avenue,48017,42.5325467,-83.1581024
48,South Marias Avenue,48017,42.5324095,-83.1580744
116,South Marias Avenue,48017,42.5321520,-83.1580376
126,South Marias Avenue,48017,42.5320124,-83.1579498
136,South Marias Avenue,48017,42.5318779,-83.1579415
148,South Marias Avenue,48017,42.5316732,-83.1580221
220,South Marias Avenue,48017,42.5314221,-83.1579810
236,South Marias Avenue,48017,42.5311409,-83.1579399
254,South Marias Avenue,48017,42.5310029,-83.1579312
310,South Marias Avenue,48017,42.5307227,-83.1579596
328,South Marias Avenue,48017,42.5304162,-83.1579284
426,South Marias Avenue,48017,42.5296008,-83.1578775
245,South Gargantua Avenue,48017,42.5309706,-83.1586555
255,South Gargantua Avenue,48017,42.5308501,-83.1586896
305,South Gargantua Avenue,48017,42.5307102,-83.1586599
315,South Gargantua Avenue,48017,42.5305467,-83.1586562
337,South Gargantua Avenue,48017,42.5303021,-83.1586523
325,South Gargantua Avenue,48017,42.5304125,-83.1586686
345,South Gargantua Avenue,48017,42.5301377,-83.1586561
355,South Gargantua Avenue,48017,42.5300007,-83.1586346
401,South Gargantua Avenue,48017,42.5298815,-83.1586432
356,South Marias Avenue,48017,42.5300399,-83.1579239
256,South Marias Avenue,48017,42.5308622,-83.1579498
419,South Gargantua Avenue,48017,42.5297295,-83.1586478
429,South Gargantua Avenue,48017,42.5295810,-83.1586387
416,South Marias Avenue,48017,42.5297638,-83.1578808
406,South Marias Avenue,48017,42.5299004,-83.1578987
346,South Marias Avenue,48017,42.5301746,-83.1579112
336,South Marias Avenue,48017,42.5303145,-83.1579160
318,South Marias Avenue,48017,42.5305472,-83.1579475
211,South Marias Avenue,48017,42.5315549,-83.1574334
221,South Marias Avenue,48017,42.5314346,-83.1574225
216,South Bywood Avenue,48017,42.5314877,-83.1567066
176,South Bywood Avenue,48017,42.5317218,-83.1567425
119,South Bywood Avenue,48017,42.5320668,-83.1561452
145,South Bywood Avenue,48017,42.5317742,-83.1561576
207,South Bywood Avenue,48017,42.5315973,-83.1561519
137,South Bywood Avenue,48017,42.5318864,-83.1561916
35,South Bywood Avenue,48017,42.5325873,-83.1562107
105,South Bywood Avenue,48017,42.5323096,-83.1562145
45,South Bywood Avenue,48017,42.5324475,-83.1561862
36,Redruth Avenue,48017,42.5326031,-83.1555036
46,Redruth Avenue,48017,42.5324660,-83.1554842
106,Redruth Avenue,48017,42.5323294,-83.1554488
212,Redruth Avenue,48017,42.5315037,-83.1554687
150,Redruth Avenue,48017,42.5317379,-83.1554352
134,Redruth Avenue,48017,42.5319750,-83.1554732
120,Redruth Avenue,48017,42.5321639,-83.1554813
217,South Bywood Avenue,48017,42.5314627,-83.1561546
326,South Bywood Avenue,48017,42.5304412,-83.1566257
256,South Bywood Avenue,48017,42.5308562,-83.1566414
233,South Marias Avenue,48017,42.5311182,-83.1574193
245,South Marias Avenue,48017,42.5310131,-83.1574092
257,South Marias Avenue,48017,42.5308705,-83.1573748
427,South Marias Avenue,48017,42.5295818,-83.1573499
347,South Marias Avenue,48017,42.5301913,-83.1573952
337,South Marias Avenue,48017,42.5303250,-83.1573837
325,South Marias Avenue,48017,42.5304610,-83.1574034
315,South Marias Avenue,48017,42.5305984,-83.1574069
309,South Marias Avenue,48017,42.5307186,-83.1573888
306,South Bywood Avenue,48017,42.5307184,-83.1566548
340,South Bywood Avenue,48017,42.5302471,-83.1566457
358,South Bywood Avenue,48017,42.5300206,-83.1566078
149,South Marias Avenue,48017,42.5317379,-83.1574602
115,South Marias Avenue,48017,42.5321500,-83.1574681
127,South Marias Avenue,48017,42.5320118,-83.1574571
137,South Marias Avenue,48017,42.5318749,-83.1574330
130,South Bywood Avenue,48017,42.5320440,-83.1567194
138,South Bywood Avenue,48017,42.5319182,-83.1567152
104,South Bywood Avenue,48017,42.5323487,-83.1567484
316,South Bywood Avenue,48017,42.5305802,-83.1566627
236,South Bywood Avenue,48017,42.5311471,-83.1567355
246,South Bywood Avenue,48017,42.5309940,-83.1566878
357,South Marias Avenue,48017,42.5300355,-83.1573930
417,South Marias Avenue,48017,42.5298899,-83.1573926
424,South Bywood Avenue,48017,42.5296382,-83.1566778
412,South Bywood Avenue,48017,42.5298696,-83.1566525
123,Redruth Avenue,48017,42.5322461,-83.1548532
167,Redruth Avenue,48017,42.5315212,-83.1548265
155,Redruth Avenue,48017,42.5316761,-83.1547784
126,Nahma Avenue,48017,42.5320759,-83.1541209
136,Nahma Avenue,48017,42.5319389,-83.1541193
214,Nahma Avenue,48017,42.5315049,-83.1541242
200,Nahma Avenue,48017,42.5316312,-83.1541054
146,Nahma Avenue,48017,42.5318084,-83.1541118
106,Nahma Avenue,48017,42.5323459,-83.1541323
116,Nahma Avenue,48017,42.5322136,-83.1541314
48,Nahma Avenue,48017,42.5324825,-83.1541413
36,Nahma Avenue,48017,42.5326265,-83.1541227
28,Nahma Avenue,48017,42.5327501,-83.1541158
133,Redruth Avenue,48017,42.5319744,-83.1548492
147,Redruth Avenue,48017,42.5317953,-83.1548130
238,Redruth Avenue,48017,42.5311866,-83.1554220
248,Redruth Avenue,48017,42.5310682,-83.1554330
237,South Bywood Avenue,48017,42.5311313,-83.1561559
258,Redruth Avenue,48017,42.5309123,-83.1553854
412,Redruth Avenue,48017,42.5299119,-83.1553760
400,Redruth Avenue,48017,42.5300977,-83.1554720
340,Redruth Avenue,48017,42.5303077,-83.1554222
726,South Marias Avenue,48017,42.5271570,-83.1577933
736,South Marias Avenue,48017,42.5270189,-83.1577996
746,South Marias Avenue,48017,42.5268813,-83.1577715
756,South Marias Avenue,48017,42.5267449,-83.1577681
806,South Marias Avenue,48017,42.5266044,-83.1577741
816,South Marias Avenue,48017,42.5264674,-83.1577697
826,South Marias Avenue,48017,42.5263296,-83.1577659
716,South Marias Avenue,48017,42.5272944,-83.1577846
706,South Marias Avenue,48017,42.5274404,-83.1577903
851,Massoit Road,48017,42.5273799,-83.1585157
805,South Gargantua Avenue,48017,42.5266114,-83.1585382
815,South Gargantua Avenue,48017,42.5264740,-83.1585020
825,South Gargantua Avenue,48017,42.5263185,-83.1584886
755,South Gargantua Avenue,48017,42.5267463,-83.1585123
745,South Gargantua Avenue,48017,42.5268832,-83.1585411
735,South Gargantua Avenue,48017,42.5270199,-83.1585473
725,South Gargantua Avenue,48017,42.5271671,-83.1585012
826,Redruth Avenue,48017,42.5265582,-83.1552490
816,Redruth Avenue,48017,42.5266941,-83.1552105
825,South Marias Avenue,48017,42.5263632,-83.1572296
815,South Marias Avenue,48017,42.5265017,-83.1572642
832,South Bywood Avenue,48017,42.5263899,-83.1567467
805,South Marias Avenue,48017,42.5266388,-83.1572838
755,South Marias Avenue,48017,42.5267759,-83.1572858
427,Massoit Street,48017,42.5276918,-83.1531969
419,Massoit Street,48017,42.5276958,-83.1530481
411,Massoit Street,48017,42.5276994,-83.1528998
403,Massoit Street,48017,42.5276925,-83.1527501
406,Chippewa Avenue,48017,42.5272284,-83.1527440
412,Chippewa Avenue,48017,42.5272340,-83.1528855
405,Chippewa Avenue,48017,42.5268600,-83.1527196
415,Chippewa Avenue,48017,42.5268434,-83.1528954
425,Chippewa Avenue,48017,42.5268308,-83.1530684
441,Chippewa Avenue,48017,42.5268389,-83.1533689
433,Chippewa Avenue,48017,42.5268468,-83.1532217
705,Redruth Avenue,48017,42.5275184,-83.1546464
715,Redruth Avenue,48017,42.5273964,-83.1546359
805,Redruth Avenue,48017,42.5268677,-83.1546268
815,Redruth Avenue,48017,42.5267358,-83.1546267
825,Redruth Avenue,48017,42.5266042,-83.1546467
725,Redruth Avenue,48017,42.5272643,-83.1546374
735,Redruth Avenue,48017,42.5271320,-83.1546672
745,Redruth Avenue,48017,42.5269998,-83.1546640
806,Redruth Avenue,48017,42.5268247,-83.1552468
746,Redruth Avenue,48017,42.5269600,-83.1552178
736,Redruth Avenue,48017,42.5270951,-83.1552267
706,Redruth Avenue,48017,42.5274983,-83.1552564
726,Redruth Avenue,48017,42.5272229,-83.1552449
716,Redruth Avenue,48017,42.5273623,-83.1552500
705,South Marias Avenue,48017,42.5274553,-83.1572728
715,South Marias Avenue,48017,42.5273288,-83.1572630
725,South Marias Avenue,48017,42.5271869,-83.1572936
735,South Marias Avenue,48017,42.5270515,-83.1572880
745,South Marias Avenue,48017,42.5269127,-83.1572810
724,South Bywood Avenue,48017,42.5271879,-83.1565699
705,Massoit Road,48017,42.5274254,-83.1564584
750,South Bywood Avenue,48017,42.5269264,-83.1564985
754,South Bywood Avenue,48017,42.5267930,-83.1564796
824,South Bywood Avenue,48017,42.5266414,-83.1564738
807,South Bywood Avenue,48017,42.5267058,-83.1559429
825,South Bywood Avenue,48017,42.5265133,-83.1559917
743,South Bywood Avenue,48017,42.5269062,-83.1559458
707,South Bywood Avenue,48017,42.5274785,-83.1560084
727,South Bywood Avenue,48017,42.5272149,-83.1560056
717,South Bywood Avenue,48017,42.5273508,-83.1560325
625,Massoit Road,48017,42.5274067,-83.1555486
733,South Bywood Avenue,48017,42.5270918,-83.1558567
738,South Bywood Avenue,48017,42.5270576,-83.1565248
357,Chippewa Avenue,48017,42.5268589,-83.1523221
422,Chippewa Avenue,48017,42.5272454,-83.1530654
726,Nahma Avenue,48017,42.5272465,-83.1538369
716,Nahma Avenue,48017,42.5273845,-83.1538632
706,Nahma Avenue,48017,42.5275310,-83.1538703
443,Massoit Street,48017,42.5277054,-83.1534440
440,Chippewa Avenue,48017,42.5272444,-83.1533408
738,Nahma Avenue,48017,42.5270326,-83.1538684
804,Nahma Avenue,48017,42.5268467,-83.1538781
816,Nahma Avenue,48017,42.5266672,-83.1538489
245,Chippewa Avenue,48017,42.5268813,-83.1502152
255,Chippewa Avenue,48017,42.5269045,-83.1503992
265,Chippewa Avenue,48017,42.5269007,-83.1505830
335,Chippewa Avenue,48017,42.5268687,-83.1518561
295,Chippewa Avenue,48017,42.5268916,-83.1511361
325,Chippewa Avenue,48017,42.5268863,-83.1516884
315,Chippewa Avenue,48017,42.5268770,-83.1515044
305,Chippewa Avenue,48017,42.5268859,-83.1513200
343,Chippewa Avenue,48017,42.5268968,-83.1519834
351,Chippewa Avenue,48017,42.5268944,-83.1521602
285,Chippewa Avenue,48017,42.5268736,-83.1509515
275,Chippewa Avenue,48017,42.5268969,-83.1507661
420,Redruth Avenue,48017,42.5297560,-83.1554284
328,Redruth Avenue,48017,42.5304866,-83.1553610
308,Redruth Avenue,48017,42.5307611,-83.1553825
318,Redruth Avenue,48017,42.5306288,-83.1554009
505,South Gargantua Avenue,48017,42.5292616,-83.1586186
515,South Gargantua Avenue,48017,42.5291217,-83.1586318
525,South Gargantua Avenue,48017,42.5289809,-83.1586413
535,South Gargantua Avenue,48017,42.5288418,-83.1586038
545,South Gargantua Avenue,48017,42.5287011,-83.1586154
555,South Gargantua Avenue,48017,42.5285611,-83.1585821
506,South Marias Avenue,48017,42.5292486,-83.1578840
516,South Marias Avenue,48017,42.5291326,-83.1578732
526,South Marias Avenue,48017,42.5289930,-83.1578851
536,South Marias Avenue,48017,42.5288657,-83.1578716
660,Redruth Avenue,48017,42.5277799,-83.1552746
650,Redruth Avenue,48017,42.5278895,-83.1553124
642,Redruth Avenue,48017,42.5280176,-83.1552780
634,Redruth Avenue,48017,42.5281462,-83.1552893
624,Redruth Avenue,48017,42.5282770,-83.1552965
614,Redruth Avenue,48017,42.5284043,-83.1552994
505,South Marias Avenue,48017,42.5292903,-83.1573765
515,South Marias Avenue,48017,42.5291474,-83.1573618
525,South Marias Avenue,48017,42.5290076,-83.1573729
535,South Marias Avenue,48017,42.5288640,-83.1573645
545,South Marias Avenue,48017,42.5287280,-83.1573518
555,South Marias Avenue,48017,42.5285875,-83.1573465
605,South Marias Avenue,48017,42.5284471,-83.1573413
546,South Marias Avenue,48017,42.5287163,-83.1578377
556,South Marias Avenue,48017,42.5285752,-83.1578698
608,South Marias Avenue,48017,42.5284176,-83.1578399
618,South Marias Avenue,48017,42.5282883,-83.1578363
615,South Marias Avenue,48017,42.5283074,-83.1573368
625,South Marias Avenue,48017,42.5281627,-83.1573087
635,South Marias Avenue,48017,42.5280202,-83.1573238
645,South Marias Avenue,48017,42.5278795,-83.1572976
655,South Marias Avenue,48017,42.5277325,-83.1572948
654,South Bywood Avenue,48017,42.5278340,-83.1565778
638,South Bywood Avenue,48017,42.5280591,-83.1565456
512,Redruth Avenue,48017,42.5292721,-83.1553943
599,South Bywood Avenue,48017,42.5281894,-83.1560084
637,South Bywood Avenue,48017,42.5280663,-83.1560280
657,South Bywood Avenue,48017,42.5277626,-83.1560600
647,South Bywood Avenue,48017,42.5279154,-83.1560235
589,South Bywood Avenue,48017,42.5283256,-83.1560121
579,South Bywood Avenue,48017,42.5284710,-83.1560094
604,Redruth Avenue,48017,42.5285338,-83.1553059
556,Redruth Avenue,48017,42.5286630,-83.1553100
546,Redruth Avenue,48017,42.5287941,-83.1553412
536,Redruth Avenue,48017,42.5289236,-83.1553201
526,Redruth Avenue,48017,42.5290524,-83.1553268
505,South Bywood Avenue,48017,42.5291622,-83.1560597
549,South Bywood Avenue,48017,42.5287122,-83.1560391
506,South Bywood Avenue,48017,42.5293059,-83.1566107
516,South Bywood Avenue,48017,42.5291755,-83.1565741
526,South Bywood Avenue,48017,42.5290294,-83.1566033
536,South Bywood Avenue,48017,42.5288862,-83.1566135
546,South Bywood Avenue,48017,42.5287448,-83.1565758
556,South Bywood Avenue,48017,42.5286114,-83.1565690
612,South Bywood Avenue,48017,42.5283749,-83.1566043
628,South Bywood Avenue,48017,42.5281978,-83.1565498
658,South Marias Avenue,48017,42.5277282,-83.1578083
628,South Marias Avenue,48017,42.5281422,-83.1578571
638,South Marias Avenue,48017,42.5280127,-83.1578269
648,South Marias Avenue,48017,42.5278670,-83.1578248
627,South Gargantua Avenue,48017,42.5281330,-83.1585678
637,South Gargantua Avenue,48017,42.5279945,-83.1585945
649,South Gargantua Avenue,48017,42.5278533,-83.1585617
659,South Gargantua Avenue,48017,42.5277226,-83.1585400
607,South Gargantua Avenue,48017,42.5284207,-83.1585752
617,South Gargantua Avenue,48017,42.5282752,-83.1586096
535,Redruth Avenue,48017,42.5289624,-83.1547204
545,Redruth Avenue,48017,42.5288385,-83.1547167
555,Redruth Avenue,48017,42.5287084,-83.1547092
603,Redruth Avenue,48017,42.5285778,-83.1547120
613,Redruth Avenue,48017,42.5284477,-83.1546997
623,Redruth Avenue,48017,42.5283171,-83.1546956
641,Redruth Avenue,48017,42.5280548,-83.1546857
633,Redruth Avenue,48017,42.5281846,-83.1546886
608,Nahma Avenue,48017,42.5284961,-83.1539005
659,Redruth Avenue,48017,42.5277948,-83.1546753
649,Redruth Avenue,48017,42.5279245,-83.1546798
520,Massoit Road,48017,42.5279161,-83.1542276
638,Nahma Avenue,48017,42.5280785,-83.1539159
626,Nahma Avenue,48017,42.5282327,-83.1539060
618,Nahma Avenue,48017,42.5283660,-83.1539336
556,Nahma Avenue,48017,42.5287028,-83.1539502
536,Nahma Avenue,48017,42.5289131,-83.1539415
524,Nahma Avenue,48017,42.5290671,-83.1539479
508,Nahma Avenue,48017,42.5293425,-83.1539705
520,Nahma Avenue,48017,42.5292025,-83.1539597
505,Redruth Avenue,48017,42.5293353,-83.1547373
515,Redruth Avenue,48017,42.5292269,-83.1547274
525,Redruth Avenue,48017,42.5290944,-83.1547245
506,Nahma Avenue,48017,42.5278340,-83.1538823
418,Nakota Road,48017,42.5296336,-83.1531116
408,Nakota Road,48017,42.5296733,-83.1528861
431,Charlevoix Street,48017,42.5300101,-83.1533755
441,Charlevoix Street,48017,42.5300135,-83.1535367
423,Charlevoix Street,48017,42.5300196,-83.1532044
405,Charlevoix Street,48017,42.5300231,-83.1528795
415,Charlevoix Street,48017,42.5300216,-83.1530355
442,Nakota Road,48017,42.5296316,-83.1535300
434,Nakota Road,48017,42.5296284,-83.1533798
405,Madison Avenue,48017,42.5316132,-83.1529704
415,Madison Avenue,48017,42.5316198,-83.1531431
425,Madison Avenue,48017,42.5316013,-83.1533155
431,Madison Avenue,48017,42.5316321,-83.1534828
439,Madison Avenue,48017,42.5316181,-83.1536245
440,West Tacoma Street,48017,42.5311616,-83.1536017
432,West Tacoma Street,48017,42.5311846,-83.1534582
424,West Tacoma Street,48017,42.5311636,-83.1532844
414,West Tacoma Street,48017,42.5311753,-83.1531222
406,West Tacoma Street,48017,42.5311805,-83.1529471
406,Charlevoix Street,48017,42.5304328,-83.1529245
432,Charlevoix Street,48017,42.5304149,-83.1534042
442,Charlevoix Street,48017,42.5303996,-83.1535636
416,Charlevoix Street,48017,42.5304120,-83.1531079
405,West Tacoma Street,48017,42.5308037,-83.1529278
415,West Tacoma Street,48017,42.5308048,-83.1531040
425,West Tacoma Street,48017,42.5307941,-83.1532668
431,West Tacoma Street,48017,42.5307771,-83.1534482
439,West Tacoma Street,48017,42.5307848,-83.1535841
40,South Custer Avenue,48017,42.5326200,-83.1528988
100,South Custer Avenue,48017,42.5324896,-83.1528864
108,South Custer Avenue,48017,42.5323595,-83.1529178
116,South Custer Avenue,48017,42.5322269,-83.1528938
130,South Custer Avenue,48017,42.5321161,-83.1529594
137,Nahma Avenue,48017,42.5319552,-83.1535617
127,Nahma Avenue,48017,42.5320951,-83.1535885
117,Nahma Avenue,48017,42.5322170,-83.1536033
105,Nahma Avenue,48017,42.5323696,-83.1535760
47,Nahma Avenue,48017,42.5325771,-83.1535700
29,Nahma Avenue,48017,42.5327662,-83.1536531
30,South Custer Avenue,48017,42.5327748,-83.1528871
140,South Custer Avenue,48017,42.5319746,-83.1529493
262,Chippewa Avenue,48017,42.5273196,-83.1505490
254,Chippewa Avenue,48017,42.5273335,-83.1504019
246,Chippewa Avenue,48017,42.5273354,-83.1502509
238,Chippewa Avenue,48017,42.5273363,-83.1501055
230,Chippewa Avenue,48017,42.5273423,-83.1499545
253,Massoit Street,48017,42.5277857,-83.1504284
243,Massoit Street,48017,42.5277598,-83.1502710
237,Massoit Street,48017,42.5277754,-83.1501219
229,Massoit Street,48017,42.5277804,-83.1499740
221,Massoit Street,48017,42.5277916,-83.1498249
205,Massoit Street,48017,42.5277827,-83.1495120
211,Massoit Street,48017,42.5277885,-83.1496693
413,Nakota Road,48017,42.5292312,-83.1530365
403,Nakota Road,48017,42.5292656,-83.1528386
431,Nakota Road,48017,42.5292539,-83.1533381
441,Nakota Road,48017,42.5292546,-83.1535281
404,Tecumseh Street,48017,42.5288661,-83.1528080
442,Tecumseh Street,48017,42.5288499,-83.1534848
432,Tecumseh Street,48017,42.5288353,-83.1533481
424,Tecumseh Street,48017,42.5288410,-83.1531803
414,Tecumseh Street,48017,42.5288449,-83.1530049
403,Tecumseh Street,48017,42.5284536,-83.1527889
411,Tecumseh Street,48017,42.5284698,-83.1529370
419,Tecumseh Street,48017,42.5284589,-83.1530876
429,Tecumseh Street,48017,42.5284599,-83.1532835
439,Tecumseh Street,48017,42.5284575,-83.1534465
444,Massoit Street,48017,42.5280556,-83.1534171
422,Massoit Street,48017,42.5280682,-83.1531085
412,Massoit Street,48017,42.5280815,-83.1529179
404,Massoit Street,48017,42.5280854,-83.1527699
98,Jefferson Avenue,48017,42.5327963,-83.1480974
86,Jefferson Avenue,48017,42.5327890,-83.1478272
64,Jefferson Avenue,48017,42.5328209,-83.1474424
76,Jefferson Avenue,48017,42.5327968,-83.1476480
120,Jefferson Avenue,48017,42.5327673,-83.1484268
134,Jefferson Avenue,48017,42.5328826,-83.1487708
160,Jefferson Avenue,48017,42.5327689,-83.1492527
118,South Washington Avenue,48017,42.5322751,-83.1497852
206,Madison Avenue,48017,42.5320563,-83.1497459
216,Madison Avenue,48017,42.5320497,-83.1499129
228,Madison Avenue,48017,42.5320357,-83.1500821
240,Madison Avenue,48017,42.5320442,-83.1503509
250,Madison Avenue,48017,42.5320401,-83.1505508
260,Madison Avenue,48017,42.5320350,-83.1507516
125,Gerald Avenue,48017,42.5321529,-83.1511258
219,Jefferson Avenue,48017,42.5323588,-83.1501512
110,South Washington Avenue,48017,42.5324072,-83.1497957
135,Gerald Avenue,48017,42.5320132,-83.1512116
116,Gerald Avenue,48017,42.5322662,-83.1517051
140,Gerald Avenue,48017,42.5319875,-83.1516789
126,Gerald Avenue,48017,42.5321281,-83.1516884
27,South Custer Avenue,48017,42.5327882,-83.1522664
30,Gerald Avenue,48017,42.5328024,-83.1517439
40,Gerald Avenue,48017,42.5326785,-83.1516970
110,Gerald Avenue,48017,42.5323848,-83.1517424
50,Gerald Avenue,48017,42.5325148,-83.1516850
39,South Custer Avenue,48017,42.5326597,-83.1522586
49,South Custer Avenue,48017,42.5325237,-83.1522998
109,South Custer Avenue,48017,42.5323856,-83.1523213
119,South Custer Avenue,48017,42.5322547,-83.1523045
129,South Custer Avenue,48017,42.5321176,-83.1523590
135,South Custer Avenue,48017,42.5319939,-83.1522982
261,Massoit Street,48017,42.5277634,-83.1505765
269,Massoit Street,48017,42.5277545,-83.1507159
277,Massoit Street,48017,42.5277769,-83.1508770
285,Massoit Street,48017,42.5277806,-83.1510338
293,Massoit Street,48017,42.5277475,-83.1511677
301,Massoit Street,48017,42.5276772,-83.1513129
309,Massoit Street,48017,42.5277358,-83.1514569
359,Massoit Street,48017,42.5277159,-83.1523659
357,Massoit Street,48017,42.5277032,-83.1522197
341,Massoit Street,48017,42.5277082,-83.1520771
333,Massoit Street,48017,42.5277269,-83.1519251
319,Massoit Street,48017,42.5277560,-83.1516259
327,Massoit Street,48017,42.5277147,-83.1517441
344,Chippewa Avenue,48017,42.5272703,-83.1520425
352,Chippewa Avenue,48017,42.5272652,-83.1521955
360,Chippewa Avenue,48017,42.5272793,-83.1523371
336,Chippewa Avenue,48017,42.5272728,-83.1518943
328,Chippewa Avenue,48017,42.5272865,-83.1517475
318,Chippewa Avenue,48017,42.5273056,-83.1516003
310,Chippewa Avenue,48017,42.5272846,-83.1514490
302,Chippewa Avenue,48017,42.5272876,-83.1513005
294,Chippewa Avenue,48017,42.5272921,-83.1511516
286,Chippewa Avenue,48017,42.5273130,-83.1509965
278,Chippewa Avenue,48017,42.5273198,-83.1508477
270,Chippewa Avenue,48017,42.5273201,-83.1506988
79,Madison Avenue,48017,42.5317325,-83.1477044
71,Madison Avenue,48017,42.5317182,-83.1475567
54,West Tacoma Street,48017,42.5313375,-83.1471978
44,West Tacoma Street,48017,42.5313502,-83.1470420
38,West Tacoma Street,48017,42.5313414,-83.1468900
78,West Tacoma Street,48017,42.5313412,-83.1476782
72,West Tacoma Street,48017,42.5313472,-83.1475361
62,West Tacoma Street,48017,42.5313389,-83.1473543
357,Tecumseh Street,48017,42.5284599,-83.1523801
345,Tecumseh Street,48017,42.5284726,-83.1522402
341,Tecumseh Street,48017,42.5284724,-83.1521116
344,Massoit Street,48017,42.5281108,-83.1521017
352,Massoit Street,48017,42.5280980,-83.1522463
358,Massoit Street,48017,42.5281126,-83.1523746
317,Tecumseh Street,48017,42.5283862,-83.1516559
310,Massoit Street,48017,42.5281037,-83.1514629
326,Massoit Street,48017,42.5281281,-83.1517942
336,Massoit Street,48017,42.5281178,-83.1519538
318,Massoit Street,48017,42.5281265,-83.1516399
302,Massoit Street,48017,42.5281256,-83.1513404
294,Massoit Street,48017,42.5281295,-83.1511919
286,Massoit Street,48017,42.5281186,-83.1510544
327,Tecumseh Street,48017,42.5285035,-83.1518142
285,Tecumseh Street,48017,42.5285206,-83.1510629
293,Tecumseh Street,48017,42.5285134,-83.1512082
301,Tecumseh Street,48017,42.5285003,-83.1513636
309,Tecumseh Street,48017,42.5284946,-83.1515124
360,Tecumseh Street,48017,42.5288695,-83.1524140
356,Tecumseh Street,48017,42.5288780,-83.1522541
336,Tecumseh Street,48017,42.5288781,-83.1520412
326,Tecumseh Street,48017,42.5289369,-83.1517899
312,Tecumseh Street,48017,42.5289028,-83.1515727
278,Tecumseh Street,48017,42.5289209,-83.1509283
252,Tecumseh Street,48017,42.5289524,-83.1504734
253,Tecumseh Street,48017,42.5285643,-83.1504499
261,Tecumseh Street,48017,42.5285284,-83.1506093
269,Tecumseh Street,48017,42.5285288,-83.1507565
277,Tecumseh Street,48017,42.5285248,-83.1509045
205,Tecumseh Street,48017,42.5285305,-83.1495659
228,Massoit Street,48017,42.5281634,-83.1499790
220,Massoit Street,48017,42.5281744,-83.1498397
206,Massoit Street,48017,42.5281715,-83.1495266
212,Massoit Street,48017,42.5281717,-83.1496873
238,Massoit Street,48017,42.5281399,-83.1501124
124,Madison Avenue,48017,42.5320879,-83.1485654
94,Madison Avenue,48017,42.5320941,-83.1479900
106,Madison Avenue,48017,42.5320921,-83.1481753
84,Madison Avenue,48017,42.5320830,-83.1477995
37,Madison Avenue,48017,42.5317423,-83.1469373
27,Madison Avenue,48017,42.5317437,-83.1467822
45,Madison Avenue,48017,42.5317510,-83.1470948
55,Madison Avenue,48017,42.5317111,-83.1472452
61,Madison Avenue,48017,42.5317207,-83.1473991
54,Madison Avenue,48017,42.5320974,-83.1472477
62,Madison Avenue,48017,42.5321098,-83.1474229
74,Madison Avenue,48017,42.5320870,-83.1476158
83,Jefferson Avenue,48017,42.5324343,-83.1478108
101,Jefferson Avenue,48017,42.5324178,-83.1482136
113,Jefferson Avenue,48017,42.5324151,-83.1483973
115,South Washington Avenue,48017,42.5322959,-83.1492921
101,South Washington Avenue,48017,42.5324112,-83.1492602
123,Jefferson Avenue,48017,42.5324339,-83.1485706
133,Jefferson Avenue,48017,42.5324252,-83.1487551
145,Jefferson Avenue,48017,42.5323909,-83.1489142
73,Jefferson Avenue,48017,42.5324251,-83.1476346
63,Jefferson Avenue,48017,42.5324305,-83.1474298
51,Jefferson Avenue,48017,42.5324601,-83.1472358
114,Madison Avenue,48017,42.5320938,-83.1483680
134,Madison Avenue,48017,42.5320756,-83.1487313
144,Madison Avenue,48017,42.5320866,-83.1489165
125,South Washington Avenue,48017,42.5321687,-83.1492497
135,South Washington Avenue,48017,42.5320345,-83.1492168
27,West Tacoma Street,48017,42.5309782,-83.1467402
37,West Tacoma Street,48017,42.5309693,-83.1468833
63,West Tacoma Street,48017,42.5309582,-83.1473579
53,West Tacoma Street,48017,42.5309589,-83.1471998
43,West Tacoma Street,48017,42.5309594,-83.1470449
69,West Tacoma Street,48017,42.5309647,-83.1475104
79,West Tacoma Street,48017,42.5309289,-83.1476643
83,West Tacoma Street,48017,42.5309381,-83.1478031
50,Charlevoix Street,48017,42.5305749,-83.1471133
56,Charlevoix Street,48017,42.5305755,-83.1472975
94,Charlevoix Street,48017,42.5305613,-83.1479078
70,Charlevoix Street,48017,42.5305760,-83.1474746
78,Charlevoix Street,48017,42.5305714,-83.1476232
86,Charlevoix Street,48017,42.5305679,-83.1477731
40,Charlevoix Street,48017,42.5305684,-83.1469488
30,Charlevoix Street,48017,42.5305715,-83.1467636
104,Charlevoix Street,48017,42.5305695,-83.1480551
112,Charlevoix Street,48017,42.5305321,-83.1482108
118,Charlevoix Street,48017,42.5305479,-83.1483643
119,West Tacoma Street,48017,42.5309253,-83.1484140
109,West Tacoma Street,48017,42.5309585,-83.1482260
93,West Tacoma Street,48017,42.5309346,-83.1479507
43,Charlevoix Street,48017,42.5302037,-83.1470026
55,Charlevoix Street,48017,42.5301843,-83.1471649
44,Nakota Road,48017,42.5298176,-83.1469696
54,Nakota Road,48017,42.5298126,-83.1471258
62,Nakota Road,48017,42.5297966,-83.1472824
61,Charlevoix Street,48017,42.5301807,-83.1473216
269,Nakota Road,48017,42.5293226,-83.1507796
277,Nakota Road,48017,42.5293126,-83.1509379
285,Nakota Road,48017,42.5293144,-83.1511129
295,Nakota Road,48017,42.5292943,-83.1512570
327,Nakota Road,48017,42.5292855,-83.1518683
309,Nakota Road,48017,42.5292939,-83.1514906
319,Nakota Road,48017,42.5292870,-83.1517020
339,Nakota Road,48017,42.5292718,-83.1520551
349,Nakota Road,48017,42.5292654,-83.1522470
359,Nakota Road,48017,42.5292790,-83.1524201
69,Charlevoix Street,48017,42.5302005,-83.1474666
70,Nakota Road,48017,42.5298340,-83.1474555
89,Nakota Road,48017,42.5294102,-83.1478295
90,Tecumseh Street,48017,42.5290047,-83.1478416
151,Charlevoix Street,48017,42.5301651,-83.1489684
165,Charlevoix Street,48017,42.5301325,-83.1492567
155,Charlevoix Street,48017,42.5301332,-83.1491072
135,Charlevoix Street,48017,42.5301527,-83.1486625
141,Charlevoix Street,48017,42.5301399,-83.1488080
126,Nakota Road,48017,42.5297822,-83.1484943
140,Nakota Road,48017,42.5297676,-83.1486777
150,Nakota Road,48017,42.5297539,-83.1488655
160,Nakota Road,48017,42.5297468,-83.1490500
170,Nakota Road,48017,42.5297514,-83.1492364
207,Nakota Road,48017,42.5293559,-83.1496154
219,Nakota Road,48017,42.5293528,-83.1498123
227,Nakota Road,48017,42.5293411,-83.1500036
239,Nakota Road,48017,42.5293195,-83.1501957
259,Nakota Road,48017,42.5293297,-83.1505864
249,Nakota Road,48017,42.5293342,-83.1503919
127,Charlevoix Street,48017,42.5301488,-83.1485129
119,Charlevoix Street,48017,42.5301691,-83.1483690
109,Charlevoix Street,48017,42.5301526,-83.1482150
87,Charlevoix Street,48017,42.5301688,-83.1477699
93,Charlevoix Street,48017,42.5301654,-83.1479173
101,Charlevoix Street,48017,42.5300097,-83.1480408
77,Charlevoix Street,48017,42.5301723,-83.1476225
110,Nakota Road,48017,42.5297771,-83.1481903
118,Nakota Road,48017,42.5297561,-83.1483488
102,Nakota Road,48017,42.5298799,-83.1480335
92,Nakota Road,48017,42.5297671,-83.1478711
86,Nakota Road,48017,42.5297848,-83.1477541
80,Nakota Road,48017,42.5298081,-83.1476192
163,Nakota Road,48017,42.5293932,-83.1491781
153,Nakota Road,48017,42.5293818,-83.1489711
141,Nakota Road,48017,42.5293857,-83.1487615
129,Nakota Road,48017,42.5293733,-83.1485758
119,Nakota Road,48017,42.5294121,-83.1483889
109,Nakota Road,48017,42.5294033,-83.1482023
99,Nakota Road,48017,42.5294207,-83.1480169
100,Tecumseh Street,48017,42.5290013,-83.1480279
110,Tecumseh Street,48017,42.5290050,-83.1482163
166,Tecumseh Street,48017,42.5289546,-83.1491461
152,Tecumseh Street,48017,42.5289468,-83.1489538
142,Tecumseh Street,48017,42.5289703,-83.1487660
134,Tecumseh Street,48017,42.5289598,-83.1485770
120,Tecumseh Street,48017,42.5289741,-83.1483995
150,Massoit Street,48017,42.5281859,-83.1488327
142,Massoit Street,48017,42.5281741,-83.1487166
158,Massoit Street,48017,42.5281938,-83.1490076
168,Massoit Street,48017,42.5281935,-83.1491402
141,Tecumseh Street,48017,42.5285621,-83.1487273
149,Tecumseh Street,48017,42.5285729,-83.1488842
165,Tecumseh Street,48017,42.5285854,-83.1491843
150,Charlevoix Street,48017,42.5305321,-83.1488950
158,Charlevoix Street,48017,42.5305167,-83.1490963
166,Charlevoix Street,48017,42.5305306,-83.1492592
130,Charlevoix Street,48017,42.5305601,-83.1485242
140,Charlevoix Street,48017,42.5305376,-83.1487111
127,West Tacoma Street,48017,42.5309235,-83.1485431
167,West Tacoma Street,48017,42.5308973,-83.1492772
159,West Tacoma Street,48017,42.5308955,-83.1491411
151,West Tacoma Street,48017,42.5308953,-83.1490050
143,West Tacoma Street,48017,42.5309175,-83.1488539
135,West Tacoma Street,48017,42.5308786,-83.1486991
32,Tecumseh Street,48017,42.5290327,-83.1467114
40,Tecumseh Street,48017,42.5290421,-83.1469130
60,Tecumseh Street,48017,42.5290102,-83.1472842
50,Tecumseh Street,48017,42.5290174,-83.1470985
27,Nakota Road,48017,42.5294475,-83.1467422
80,Tecumseh Street,48017,42.5290109,-83.1476550
70,Tecumseh Street,48017,42.5290126,-83.1474708
39,Nakota Road,48017,42.5294520,-83.1469008
49,Nakota Road,48017,42.5294330,-83.1470873
59,Nakota Road,48017,42.5294423,-83.1472733
69,Nakota Road,48017,42.5294227,-83.1474589
79,Nakota Road,48017,42.5294313,-83.1476457
96,Massoit Street,48017,42.5282140,-83.1478104
102,Massoit Street,48017,42.5282093,-83.1479892
82,Massoit Street,48017,42.5282241,-83.1476398
24,Massoit Street,48017,42.5282498,-83.1465885
34,Massoit Street,48017,42.5282467,-83.1467463
44,Massoit Street,48017,42.5282474,-83.1469020
54,Massoit Street,48017,42.5282366,-83.1470676
62,Massoit Street,48017,42.5282371,-83.1472213
70,Massoit Street,48017,42.5282232,-83.1473790
116,Massoit Street,48017,42.5282131,-83.1481769
122,Massoit Street,48017,42.5281990,-83.1483535
134,Massoit Street,48017,42.5281939,-83.1485323
35,Tecumseh Street,48017,42.5286270,-83.1467736
47,Tecumseh Street,48017,42.5286228,-83.1469293
85,Tecumseh Street,48017,42.5286228,-83.1476951
77,Tecumseh Street,48017,42.5286060,-83.1475349
69,Tecumseh Street,48017,42.5286158,-83.1473859
61,Tecumseh Street,48017,42.5286131,-83.1472363
103,Tecumseh Street,48017,42.5286051,-83.1479857
111,Tecumseh Street,48017,42.5286004,-83.1481424
119,Tecumseh Street,48017,42.5285848,-83.1482822
125,Tecumseh Street,48017,42.5285937,-83.1484304
133,Tecumseh Street,48017,42.5285748,-83.1485782
118,West Tacoma Street,48017,42.5312861,-83.1484186
126,West Tacoma Street,48017,42.5313092,-83.1485487
136,West Tacoma Street,48017,42.5313013,-83.1486991
144,West Tacoma Street,48017,42.5312980,-83.1488459
152,West Tacoma Street,48017,42.5312814,-83.1489967
96,West Tacoma Street,48017,42.5312948,-83.1479822
86,West Tacoma Street,48017,42.5313001,-83.1478338
110,West Tacoma Street,48017,42.5312948,-83.1482778
104,West Tacoma Street,48017,42.5312840,-83.1481170
93,Madison Avenue,48017,42.5317320,-83.1479990
103,Madison Avenue,48017,42.5317289,-83.1481497
113,Madison Avenue,48017,42.5317194,-83.1483801
159,Madison Avenue,48017,42.5317185,-83.1491913
167,Madison Avenue,48017,42.5317080,-83.1493067
160,West Tacoma Street,48017,42.5312894,-83.1491471
166,West Tacoma Street,48017,42.5312969,-83.1493032
151,Madison Avenue,48017,42.5316981,-83.1490439
143,Madison Avenue,48017,42.5316994,-83.1488845
139,Madison Avenue,48017,42.5316957,-83.1486357
343,Madison Avenue,48017,42.5316454,-83.1522590
359,Madison Avenue,48017,42.5316430,-83.1525678
353,Madison Avenue,48017,42.5316458,-83.1524156
337,Madison Avenue,48017,42.5316062,-83.1521172
325,Madison Avenue,48017,42.5316379,-83.1519469
293,West Tacoma Street,48017,42.5308433,-83.1513384
301,West Tacoma Street,48017,42.5308316,-83.1514767
346,Charlevoix Street,48017,42.5304393,-83.1522809
358,Charlevoix Street,48017,42.5304543,-83.1524708
359,West Tacoma Street,48017,42.5308172,-83.1525229
351,West Tacoma Street,48017,42.5308412,-83.1523710
343,West Tacoma Street,48017,42.5308113,-83.1522213
333,West Tacoma Street,48017,42.5308507,-83.1520818
327,West Tacoma Street,48017,42.5308468,-83.1519205
309,West Tacoma Street,48017,42.5308381,-83.1516220
317,West Tacoma Street,48017,42.5308292,-83.1517785
285,West Tacoma Street,48017,42.5308570,-83.1511758
277,West Tacoma Street,48017,42.5308708,-83.1510194
269,West Tacoma Street,48017,42.5308562,-83.1508708
237,West Tacoma Street,48017,42.5308650,-83.1502960
253,West Tacoma Street,48017,42.5308611,-83.1505675
263,West Tacoma Street,48017,42.5308777,-83.1507239
245,West Tacoma Street,48017,42.5308799,-83.1504439
205,West Tacoma Street,48017,42.5308990,-83.1496786
221,West Tacoma Street,48017,42.5308784,-83.1498033
227,West Tacoma Street,48017,42.5309014,-83.1501406
223,West Tacoma Street,48017,42.5308955,-83.1499725
423,South Bywood Avenue,48017,42.5296307,-83.1560396
415,South Bywood Avenue,48017,42.5297873,-83.1561011
335,South Bywood Avenue,48017,42.5303296,-83.1561103
357,South Bywood Avenue,48017,42.5300643,-83.1561052
343,South Bywood Avenue,48017,42.5302086,-83.1561198
327,South Bywood Avenue,48017,42.5304881,-83.1561359
315,South Bywood Avenue,48017,42.5306322,-83.1561658
255,South Bywood Avenue,48017,42.5308915,-83.1559970
305,South Bywood Avenue,48017,42.5307776,-83.1561349
118,South Bywood Avenue,48017,42.5321756,-83.1567018
244,Charlevoix Street,48017,42.5304940,-83.1503417
254,Charlevoix Street,48017,42.5305030,-83.1505554
318,Charlevoix Street,48017,42.5304287,-83.1517678
328,Charlevoix Street,48017,42.5304621,-83.1519007
204,Charlevoix Street,48017,42.5305122,-83.1496249
214,Charlevoix Street,48017,42.5304986,-83.1497883
224,Charlevoix Street,48017,42.5305032,-83.1499532
234,Charlevoix Street,48017,42.5304958,-83.1501442
264,Charlevoix Street,48017,42.5304814,-83.1507200
274,Charlevoix Street,48017,42.5304923,-83.1509185
284,Charlevoix Street,48017,42.5304725,-83.1511168
294,Charlevoix Street,48017,42.5304653,-83.1512930
304,Charlevoix Street,48017,42.5304634,-83.1514395
310,Charlevoix Street,48017,42.5304502,-83.1515893
338,Charlevoix Street,48017,42.5304540,-83.1521071
255,Madison Avenue,48017,42.5316803,-83.1506335
279,Madison Avenue,48017,42.5316734,-83.1510765
326,West Tacoma Street,48017,42.5312182,-83.1519407
311,Madison Avenue,48017,42.5316328,-83.1516685
217,Madison Avenue,48017,42.5316657,-83.1499015
239,Madison Avenue,48017,42.5316983,-83.1503370
256,West Tacoma Street,48017,42.5312341,-83.1506040
246,West Tacoma Street,48017,42.5312275,-83.1504584
222,West Tacoma Street,48017,42.5312471,-83.1500069
360,West Tacoma Street,48017,42.5311730,-83.1525204
352,West Tacoma Street,48017,42.5311850,-83.1523139
338,West Tacoma Street,48017,42.5312078,-83.1521295
316,West Tacoma Street,48017,42.5312010,-83.1517581
308,West Tacoma Street,48017,42.5312012,-83.1515777
298,West Tacoma Street,48017,42.5312080,-83.1513923
286,West Tacoma Street,48017,42.5312157,-83.1511894
278,West Tacoma Street,48017,42.5312327,-83.1510266
270,West Tacoma Street,48017,42.5312413,-83.1508965
266,West Tacoma Street,48017,42.5312548,-83.1507634
240,West Tacoma Street,48017,42.5312338,-83.1503127
214,West Tacoma Street,48017,42.5312520,-83.1498450
206,West Tacoma Street,48017,42.5312620,-83.1496882
205,Madison Avenue,48017,42.5317056,-83.1496941
231,Madison Avenue,48017,42.5317006,-83.1501835
245,Madison Avenue,48017,42.5316504,-83.1504737
263,Madison Avenue,48017,42.5316749,-83.1507824
271,Madison Avenue,48017,42.5316555,-83.1508988
287,Madison Avenue,48017,42.5316514,-83.1512212
295,Madison Avenue,48017,42.5316301,-83.1513780
303,Madison Avenue,48017,42.5316512,-83.1515255
293,Charlevoix Street,48017,42.5300724,-83.1512943
333,Charlevoix Street,48017,42.5300497,-83.1520229
360,Nakota Road,48017,42.5296620,-83.1524628
334,Nakota Road,48017,42.5296498,-83.1520263
300,Nakota Road,48017,42.5297102,-83.1513091
280,Nakota Road,48017,42.5297073,-83.1509411
269,Charlevoix Street,48017,42.5300946,-83.1508398
352,Nakota Road,48017,42.5296652,-83.1523014
326,Nakota Road,48017,42.5296544,-83.1518718
318,Nakota Road,48017,42.5296761,-83.1516807
308,Nakota Road,48017,42.5296813,-83.1514949
288,Nakota Road,48017,42.5296914,-83.1511258
268,Nakota Road,48017,42.5297234,-83.1507525
260,Nakota Road,48017,42.5297054,-83.1505619
246,Nakota Road,48017,42.5297106,-83.1503705
238,Nakota Road,48017,42.5297164,-83.1501828
226,Nakota Road,48017,42.5297214,-83.1499924
216,Nakota Road,48017,42.5297282,-83.1498040
208,Nakota Road,48017,42.5297319,-83.1496263
203,Charlevoix Street,48017,42.5301312,-83.1496434
217,Charlevoix Street,48017,42.5301236,-83.1498005
229,Charlevoix Street,48017,42.5301010,-83.1499723
231,Charlevoix Street,48017,42.5301028,-83.1501545
243,Charlevoix Street,48017,42.5300977,-83.1503401
263,Charlevoix Street,48017,42.5301071,-83.1506967
253,Charlevoix Street,48017,42.5300950,-83.1505073
275,Charlevoix Street,48017,42.5300850,-83.1509853
287,Charlevoix Street,48017,42.5300953,-83.1511444
303,Charlevoix Street,48017,42.5300666,-83.1514641
311,Charlevoix Street,48017,42.5300599,-83.1516495
319,Charlevoix Street,48017,42.5300553,-83.1518349
341,Charlevoix Street,48017,42.5300600,-83.1521797
349,Charlevoix Street,48017,42.5300548,-83.1523368
359,Charlevoix Street,48017,42.5300606,-83.1524871
53,Massoit Street,48017,42.5278603,-83.1470588
69,Massoit Street,48017,42.5278301,-83.1473587
109,Massoit Street,48017,42.5278270,-83.1480936
126,Chippewa Avenue,48017,42.5274654,-83.1484240
164,Chippewa Avenue,48017,42.5273514,-83.1490990
158,Chippewa Avenue,48017,42.5273684,-83.1489477
150,Chippewa Avenue,48017,42.5273590,-83.1488007
142,Chippewa Avenue,48017,42.5273622,-83.1486492
118,Chippewa Avenue,48017,42.5273902,-83.1482241
102,Chippewa Avenue,48017,42.5273916,-83.1479346
94,Chippewa Avenue,48017,42.5273890,-83.1477623
86,Chippewa Avenue,48017,42.5274090,-83.1476129
78,Chippewa Avenue,48017,42.5273967,-83.1474629
70,Chippewa Avenue,48017,42.5274010,-83.1473197
62,Chippewa Avenue,48017,42.5274157,-83.1471542
52,Chippewa Avenue,48017,42.5274080,-83.1470336
44,Chippewa Avenue,48017,42.5274127,-83.1468711
36,Chippewa Avenue,48017,42.5274172,-83.1467192
28,Chippewa Avenue,48017,42.5274223,-83.1465697
35,Massoit Street,48017,42.5278521,-83.1467362
43,Massoit Street,48017,42.5278503,-83.1468892
77,Massoit Street,48017,42.5278448,-83.1475053
85,Massoit Street,48017,42.5278396,-83.1476519
93,Massoit Street,48017,42.5278201,-83.1477980
103,Massoit Street,48017,42.5278208,-83.1479456
117,Massoit Street,48017,42.5278134,-83.1482398
125,Massoit Street,48017,42.5278103,-83.1483933
133,Massoit Street,48017,42.5278179,-83.1485422
141,Massoit Street,48017,42.5278151,-83.1486908
149,Massoit Street,48017,42.5278096,-83.1488393
157,Massoit Street,48017,42.5278069,-83.1489849
165,Massoit Street,48017,42.5278016,-83.1491285
509,Fisher Court,48017,42.5368737,-83.1397588
