House number,Street name,Postal code,Latitude,Longitude
15500,Michigan Avenue,48126,42.3167676,-83.1954665
22425,Morley Avenue,48124,42.3062904,-83.2526895
13534,Colson Street,48126,42.3260383,-83.1753314
23169,Michigan Avenue,48124,42.3011112,-83.2607161
19500,Ford Road,48128,42.3305940,-83.2290214
1331,Monroe Street,48124,42.3029481,-83.2416746
23115,Michigan Avenue,48124,42.3013243,-83.2595878
300,Town Center Drive,48126,42.3204896,-83.2174243
290,Town Center Drive,48126,42.3204750,-83.2182332
4700,Schaefer Road,48126,42.3219063,-83.1755707
22155,Michigan Avenue,48124,42.3051528,-83.2469201
22171,Michigan Avenue,48124,42.3050785,-83.2471683
22070,Michigan Avenue,48124,42.3060674,-83.2455000
22250,Michigan Avenue,48124,42.3052331,-83.2490142
22266,Michigan Avenue,48124,42.3051540,-83.2492854
22439,Michigan Avenue,48124,42.3040516,-83.2518474
22451,Michigan Avenue,48124,42.3033165,-83.2518634
22611,Michigan Avenue,48124,42.3028550,-83.2535616
1041,Howard Street,48124,42.3047438,-83.2475618
22199,Michigan Avenue,48124,42.3049672,-83.2476678
15237,West Warren Avenue,48126,42.3434495,-83.1938219
6456,Greenfield Road,48126,42.3376100,-83.1955435
22431,Michigan Avenue,48124,42.3042474,-83.2519162
16351,Ford Road,48126,42.3281047,-83.2033589
3550,Greenfield Road,48120,42.3086569,-83.1883856
12850,Ford Road,48126,42.3299034,-83.1686193
16201,Ford Road,48126,42.3264113,-83.2017042
16351,Ford Road,48126,42.3277278,-83.2029168
7106,Greenfield Road,48126,42.3429554,-83.1958931
400,North Telegraph Road,48128,42.3142533,-83.2716208
16351,Ford Road,48126,42.3277580,-83.2033570
3560,Greenfield Road,48120,42.3087537,-83.1884612
3440,Wyoming Street,48120,42.3125090,-83.1531950
22727,Michigan Avenue,48124,42.3032499,-83.2560132
14300,West Warren Avenue,48126,42.3440997,-83.1831974
13007,Warren Ave,48126,42.3439493,-83.1711467
5506,Schaefer Rd,48126,42.3282661,-83.1763650
928,North Telegraph Road,48128,42.3185528,-83.2717246
3313,Greenfield Road,48120,42.3058872,-83.1884050
3345,Greenfield Road,48120,42.3063071,-83.1887072
3389,Greenfield Road,48120,42.3068969,-83.1887028
10001,Michigan Avenue,48126,42.3273450,-83.1572445
10437,West Warren Avenue,48126,42.3441953,-83.1629435
22207,Michigan Avenue,48124,42.3050759,-83.2480972
14921,Michigan Avenue,48126,42.3180982,-83.1889256
12921,Michigan Avenue,48126,42.3238791,-83.1693211
15450,Michigan Avenue,48126,42.3172379,-83.1946095
6650,Schaefer Road,48126,42.3400441,-83.1761468
6650,Schaefer Road,48126,42.3400831,-83.1763421
22501,Michigan Avenue,48124,42.3032516,-83.2521923
22001,Michigan Avenue,48124,42.3057564,-83.2440891
22537,Michigan Avenue,48124,42.3031328,-83.2527252
22541,Michigan Avenue,48124,42.3030168,-83.2529951
13121,Prospect Street,48126,42.3164457,-83.1709736
15038,West Warren Avenue,48126,42.3439354,-83.1917210
23211,Michigan Avenue,48124,42.3010555,-83.2609722
23131,Michigan Avenue,48124,42.3012555,-83.2599063
15031,Commerce Street South,48120,42.3069288,-83.1806142
15011,Commerce Drive South,48120,42.3075635,-83.1808824
15238,West Warren Avenue,48126,42.3439885,-83.1938934
12824,Ford Road,48126,42.3299446,-83.1682653
5500,Auto Club Drive,48126,42.3277690,-83.2223200
12921,Michigan Avenue,48126,42.3238243,-83.1688722
12921,Michigan Avenue,48126,42.3237839,-83.1691797
21755,Michigan Avenue,48124,42.3064604,-83.2420343
16351,Ford Road,48126,42.3278825,-83.2033627
5750,Mercury Drive,48126,42.3325626,-83.2042476
21201,Michigan Avenue,48124,42.3070364,-83.2352100
15400,Michigan Avenue,48126,42.3171499,-83.1940611
23100,Michigan Avenue,48124,42.3031258,-83.2603765
23100,Michigan Avenue,48124,42.3030963,-83.2604752
23100,Michigan Avenue,48124,42.3030748,-83.2605927
13234,Michigan Avenue,48126,42.3231889,-83.1730152
13240,Michigan Avenue,48126,42.3231918,-83.1731656
13252,Michigan Avenue,48126,42.3231175,-83.1733167
13254,Michigan Avenue,48126,42.3231186,-83.1733614
13300,Michigan Avenue,48126,42.3230102,-83.1736695
13312,Michigan Avenue,48126,42.3229639,-83.1738094
13218,Michigan Avenue,48126,42.3232660,-83.1727803
13214,Michigan Avenue,48126,42.3232851,-83.1727193
12918,Michigan Avenue,48126,42.3242450,-83.1694240
12841,Oakman Boulevard,48126,42.3240040,-83.1677875
12841,Michigan Avenue,48126,42.3240476,-83.1676391
12841,Michigan Avenue,48126,42.3240912,-83.1674968
14245,Michigan Avenue,48126,42.3224425,-83.1744418
4912,Schaefer Road,48126,42.3230563,-83.1762754
5211,Schaefer Road,48126,42.3258126,-83.1764098
4353,Schaefer Road,48126,42.3204280,-83.1760682
4355,Schaefer Road,48126,42.3204751,-83.1760691
4423,Schaefer Road,48126,42.3205448,-83.1760843
13840,Michigan Avenue,48126,42.3214830,-83.1790231
23351,Michigan Avenue,48126,42.3213924,-83.1792435
19224,Carlysle Street,48124,42.2845373,-83.2310919
18900,Michigan Avenue,48126,42.3245964,-83.1684771
12951,Michigan Avenue,48126,42.3236809,-83.1697123
12951,Michigan Avenue,48126,42.3236327,-83.1696895
23201,Michigan Avenue,48124,42.3011708,-83.2603749
20180,Outer Drive,48124,42.2978526,-83.2631345
23405,Michigan Avenue,48124,42.3013258,-83.2637702
23405,Michigan Avenue,48124,42.3012554,-83.2639137
23785,Michigan Avenue,48124,42.3003592,-83.2680664
23785,Michigan Avenue,48124,42.3002094,-83.2680818
22600,Michigan Avenue,48124,42.3041789,-83.2539010
14402,Michigan Avenue,48126,42.3204304,-83.1828077
14402,Michigan Avenue,48126,42.3205196,-83.1829740
14921,Michigan Avenue,48126,42.3179533,-83.1888856
10000,Michigan Avenue,48126,42.3279815,-83.1569841
10000,Ford Road,48126,42.3301771,-83.1572557
10000,Ford Road,48126,42.3303466,-83.1573401
10419,Ford Road,48126,42.3293363,-83.1618784
10419,Ford Road,48126,42.3293968,-83.1622633
10419,Ford Road,48126,42.3293839,-83.1619093
14545,Ford Road,48126,42.3290934,-83.1855744
14545,Ford Road,48126,42.3289655,-83.1855637
5717,Schaefer Road,48126,42.3306646,-83.1764852
5703,Schaefer Road,48126,42.3304966,-83.1764622
5635,Schaefer Road,48126,42.3300839,-83.1766507
12850,Ford Road,48126,42.3299838,-83.1684177
13250,Ford Road,48126,42.3301434,-83.1729855
10000,West Vernor Highway,48126,42.3047696,-83.1442543
10000,West Vernor Highway,48126,42.3048990,-83.1440786
2731,Monroe Street,48124,42.2926773,-83.2495934
2740,Monroe Street,48124,42.2928807,-83.2500520
2507,Monroe Street,48124,42.2943975,-83.2481852
6412,Schaefer Road,48126,42.3370395,-83.1762122
3300,Greenfield Road,48120,42.3064408,-83.1871039
3300,Greenfield Road,48120,42.3063516,-83.1871334
5016,Greenfield Road,48126,42.3234468,-83.1950480
7000,Greenfield Road,48126,42.3422057,-83.1958821
7000,Greenfield Road,48126,42.3423241,-83.1957742
6200,Greenfield Road,48126,42.3349279,-83.1956099
6200,Greenfield Road,48126,42.3349418,-83.1954087
5074,Greenfield Road,48126,42.3243084,-83.1951311
5074,Greenfield Road,48126,42.3243540,-83.1949769
3525,South Telegraph Road,48124,42.2851066,-83.2704623
3525,South Telegraph Road,48124,42.2851041,-83.2701592
2701,South Telegraph Road,48124,42.2926029,-83.2705830
100,North Telegraph Road,48128,42.3128978,-83.2714118
25011,Ford Road,48128,42.3265245,-83.2825068
23645,Ford Road,48128,42.3267991,-83.2684044
23645,Ford Road,48128,42.3267134,-83.2681932
4220,Wyoming Street,48126,42.3196490,-83.1575748
4220,Wyoming Street,48126,42.3198820,-83.1571148
5000,Wyoming Street,48126,42.3252157,-83.1556222
5000,Wyoming Street,48126,42.3247923,-83.1556624
10001,Tireman Avenue,48126,42.3513523,-83.1579658
8955,West Warren Avenue,48126,42.3441782,-83.1567997
10005,West Warren Avenue,48126,42.3441153,-83.1577579
10005,West Warren Avenue,48126,42.3442555,-83.1577539
10005,West Warren Avenue,48126,42.3440960,-83.1576426
7521,Wyoming Street,48126,42.3474328,-83.1576714
7551,Wyoming Street,48126,42.3479264,-83.1577827
7630,Wyoming Street,48126,42.3488928,-83.1570491
7300,Wyoming Road,48126-1623,42.3456626,-83.1569217
10335,West Warren Avenue,48126,42.3439616,-83.1616625
10830,West Warren Avenue,48126,42.3445098,-83.1666192
13551,West Warren Avenue,48126,42.3437961,-83.1763785
13551,West Warren Avenue,48126,42.3436613,-83.1762980
13734,West Warren Avenue,48126,42.3441495,-83.1788232
13750,West Warren Avenue,48126,42.3441395,-83.1790725
13710,West Warren Avenue,48126,42.3441495,-83.1784722
12922,West Warren Avenue,48126,42.3443859,-83.1702590
14551,West Warren Avenue,48126,42.3435870,-83.1862228
14526,West Warren Avenue,48126,42.3440679,-83.1859966
14519,West Warren Avenue,48126,42.3435856,-83.1856688
14438,West Warren Avenue,48126,42.3440175,-83.1849664
15430,West Warren Avenue,48126,42.3439294,-83.1957407
15430,West Warren Avenue,48126,42.3440509,-83.1956468
7954,Greenfield Road,48126,42.3506734,-83.1961752
7954,Greenfield Road,48126,42.3506020,-83.1958593
22053,Michigan Avenue,48124,42.3044794,-83.2490176
22471,Michigan Avenue,48124,42.3032763,-83.2520860
1033,Howard Street,48124,42.3048498,-83.2476406
22191,Michigan Avenue,48124,42.3050208,-83.2475745
22189,Michigan Avenue,48124,42.3050400,-83.2475064
22137,Michigan Avenue,48124,42.3052256,-83.2467332
1308,Monroe Street,48124,42.3031371,-83.2430025
1922,Monroe Street,48124,42.2989799,-83.2448930
22060,West Outer Drive,48124,42.2847425,-83.2332222
3701,Monroe Street,48124,42.2838365,-83.2509882
3717,Monroe Street,48124,42.2837145,-83.2509851
18181,Oakwood Boulevard,48124,42.2932925,-83.2119635
18181,Oakwood Boulevard,48124,42.2931853,-83.2120494
4917,Schaefer Road,48126,42.3228911,-83.1763155
4937,Schaefer Road,48126,42.3233347,-83.1763305
23852,Schaefer Road,48126,42.3234438,-83.1763416
4953,Schaefer Road,48126,42.3235537,-83.1763585
5005,Schaefer Road,48126,42.3236653,-83.1763562
13661,Colson Street,48126,42.3243404,-83.1768981
15600,Michigan Avenue,48124,42.3165539,-83.1962718
15234,Michigan Avenue,48120,42.3175769,-83.1925708
15244,Michigan Avenue,48126,42.3175415,-83.1927195
15241,Michigan Avenue,48126,42.3168786,-83.1920937
15264,Michigan Avenue,48126,42.3175484,-83.1930611
15450,Michigan Avenue,48126,42.3174303,-83.1946001
4200,Schaefer Road,48126,42.3190244,-83.1754537
4006,Schaefer Road,48126,42.3168928,-83.1752742
4001,Schaefer Road,48126,42.3165120,-83.1760025
14339,Ford Road,48126,42.3292402,-83.1825837
14333,Ford Road,48126,42.3292484,-83.1826714
14301,Ford Road,48126,42.3291615,-83.1820267
15608,Michigan Avenue,48124,42.3165082,-83.1963442
16151,Ford Road,48126,42.3285811,-83.2012305
15901,Ford Road,48126,42.3274797,-83.1989996
5600,Mercury Drive,48126,42.3299783,-83.2028163
5650,Mercury Drive,48126,42.3306960,-83.2031268
3350,Wyoming Street,48120,42.3116354,-83.1525472
5725,Schaefer Road,48126,42.3308160,-83.1764955
6837,Chase Road,48126,42.3407173,-83.1868618
22065,Michigan Avenue,48124,42.3057495,-83.2452700
22001,Michigan Avenue,48124,42.3058591,-83.2447749
20011,Carlysle Street,48124,42.2842152,-83.2332688
3601,Pelham Street,48124,42.2852623,-83.2314216
22361,West Village Drive,48124,42.3039317,-83.2500212
22905,Michigan Avenue,48124,42.3027353,-83.2575985
22713,Michigan Avenue,48124,42.3033476,-83.2557353
22723,Michigan Avenue,48124,42.3032648,-83.2559063
22290,Michigan Avenue,48124,42.3051274,-83.2498275
22087,Michigan Avenue,48124,42.3056706,-83.2455781
22085,Michigan Avenue,48124,42.3056744,-83.2454024
22062,Michigan Avenue,48124,42.3062098,-83.2454005
21938,Michigan Ave,48124,42.3066093,-83.2435397
24355,Ford Road,48128,42.3267484,-83.2758261
24335,Ford Road,48128,42.3267509,-83.2757074
24335,Ford Road,48128,42.3267479,-83.2755961
24335,Ford Road,48128,42.3267405,-83.2754768
24736,Michigan Avenue,48124,42.2987029,-83.2789943
24718,Michigan Avenue,48124,42.2987348,-83.2788494
24714,Michigan Avenue,48124,42.2987544,-83.2787411
24710,Michigan Avenue,48124,42.2987626,-83.2786726
24623,Michigan Avenue,48124,42.2982045,-83.2778455
25300,Michigan Avenue,48124,42.2981530,-83.2848125
5959,Schaefer Road,48126,42.3329852,-83.1766869
13041,West Warren Avenue,48126,42.3439122,-83.1717472
15010,West Warren Avenue,48126,42.3439798,-83.1911578
12930,West Warren Avenue,48126,42.3443426,-83.1704762
6659,Schaefer Road,48126,42.3402804,-83.1769250
2315,Monroe Street,48124,42.2958518,-83.2469944
2311,Monroe Street,48124,42.2959074,-83.2469543
22370,Michigan Avenue,48124,42.3048076,-83.2508153
1911,Monroe Street,48124,42.2989365,-83.2443346
2200,Monroe Street,48124,42.2968421,-83.2468123
2200,Monroe Street,48124,42.2969116,-83.2467520
2532,Monroe Street,48124,42.2942643,-83.2489186
22060,West Outer Drive,48124,42.2847873,-83.2334249
23960,Carlysle Street,48124,42.2840490,-83.2703080
24235,Michigan Avenue,48124,42.2987128,-83.2742377
18900,Michigan Avenue,48126,42.3168325,-83.2228723
6141,Mercury Drive,48126,42.3334274,-83.2129178
16351,Ford Road,48126,42.3279784,-83.2033505
4600,Greenfield Road,48126-2844,42.3180311,-83.1947506
12721,Michigan Avenue,48126,42.3244571,-83.1666424
10120,West Warren Avenue,48126,42.3446860,-83.1586400
8956,Warren,48126,42.3448399,-83.1567693
2144,Salina Street,48120,42.3029151,-83.1455869
22737,Michigan Avenue,48124,42.3032878,-83.2560305
21931,Michigan Avenue,48124,42.3062255,-83.2433008
21931,Michigan Avenue,48124,42.3061600,-83.2435941
1002,South Military Street,48124,42.3042743,-83.2513806
9680,Eagle Street,48120,42.3143810,-83.1492269
20800,Oakwood Boulevard,48124,42.3004335,-83.2316407
600,Town Center Drive,48126,42.3122561,-83.2178670
300,Town Center Drive,48126,42.3203106,-83.2169296
550,Town Center Drive,48126,42.3158339,-83.2171202
500,Town Center Drive,48126,42.3178765,-83.2171512
5851,Mercury Drive,48126,42.3313356,-83.2095946
15575,Lundy Parkway Drive,48126,42.3315002,-83.2009041
5901,Mercury Drive,48126,42.3319110,-83.2118787
9400,West Fort Street,48209,42.3007769,-83.1369993
8850,Dix Avenue,48209,42.3150440,-83.1409125
2300,Woodmere Street,48209,42.3108951,-83.1382428
16301,Ford Road,48126,42.3261442,-83.2027974
16151,Ford Road,48126,42.3285870,-83.2012299
16221,Ford Road,48126,42.3283768,-83.2027331
5600,Mercury Drive,48126,42.3299880,-83.2027955
5650,Mercury Drive,48126,42.3306992,-83.2031029
18601,Hubbard Drive,48126,42.3206949,-83.2211861
210,Town Center Drive,48126,42.3206100,-83.2241547
1,American Road,48124,42.3154100,-83.2104351
23303,Michigan Avenue,48124,42.3008088,-83.2617584
20301,Oakwood Boulevard,48124,42.2968092,-83.2279804
2400,Village Road,48124,42.2936640,-83.2415399
21400,Oakwood Boulevard,48124,42.3025648,-83.2376573
20900,Oakwood Boulevard,48124-5029,42.3036074,-83.2340857
18101,Oakwood Boulevard,48124,42.2906823,-83.2141442
22091,Michigan Avenue,48124,42.3055169,-83.2456995
21400,Michigan Avenue,48124,42.3080202,-83.2378992
22681,Newman Street,48124,42.3025603,-83.2544678
5651,Mercury Drive,48126,42.3297305,-83.2072112
10673,Wren Street,48120,42.3091481,-83.1533688
18900,Michigan Avenue,48126,42.3169092,-83.2229394
21925,Michigan Avenue,48124,42.3034007,-83.2551005
100,Lincoln Lane,48126,42.3123301,-83.2208549
11500,Lincoln Lane,48126,42.3110276,-83.2210216
1600,Lincoln Lane,48126,42.3114080,-83.2200801
11900,Lincoln Lane,48126,42.3114090,-83.2216836
12200,Lincoln Lane,48126,42.3118368,-83.2225085
11300,Lincoln Lane,48126,42.3106720,-83.2207575
12500,Lincoln Lane,48126,42.3120374,-83.2216729
11200,Lincoln Lane,48126,42.3108338,-83.2204501
12000,Lincoln Lane,48126,42.3115766,-83.2219440
12100,Lincoln Lane,48126,42.3116486,-83.2223230
12400,Lincoln Lane,48126,42.3119607,-83.2219522
11400,Lincoln Lane,48126,42.3105014,-83.2210560
12600,Lincoln Lane,48126,42.3121295,-83.2214669
11600,Lincoln Lane,48126,42.3110743,-83.2215157
12300,Lincoln Lane,48126,42.3118652,-83.2221632
10000,Lincoln Lane,48126,42.3113601,-83.2205987
1400,Lincoln Lane,48126,42.3114323,-83.2196489
1900,Lincoln Lane,48126,42.3113458,-83.2209705
11100,Lincoln Lane,48126,42.3109672,-83.2201697
1700,Lincoln Lane,48126,42.3115744,-83.2203638
12800,Lincoln Lane,48126,42.3123491,-83.2212346
11700,Lincoln Lane,48126,42.3112959,-83.2213388
1500,Lincoln Lane,48126,42.3112140,-83.2199176
12700,Lincoln Lane,48126,42.3121517,-83.2211185
1200,Lincoln Lane,48126,42.3121063,-83.2205010
11800,Lincoln Lane,48126,42.3116301,-83.2212968
1800,Lincoln Lane,48126,42.3117004,-83.2208204
1300,Lincoln Lane,48126,42.3116933,-83.2198262
700,Town Center Drive,48126,42.3129467,-83.2245243
720,Town Center Drive,48126,42.3134020,-83.2260026
22976,West Outer Drive,48124,42.2778049,-83.2181763
22990,West Outer Drive,48124,42.2777107,-83.2178915
20800,Oakwood Boulevard,48124,42.2990710,-83.2287179
15255,Michigan Avenue,48126,42.3155232,-83.1922804
16301,Michigan Avenue,48126,42.3131571,-83.2026964
16901,Michigan Avenue,48126,42.3125443,-83.2059373
15544,Michigan Avenue,48124,42.3166310,-83.1959167
15241,Michigan Avenue,48126,42.3168785,-83.1920937
24555,Michigan Avenue,48124,42.2977035,-83.2765117
22266,Michigan Avenue,48124,42.3053267,-83.2493768
22250,Michigan Avenue,48124,42.3053885,-83.2491112
22290,Michigan Avenue,48124,42.3052095,-83.2497804
22184,Michigan Avenue,48124,42.3056430,-83.2477086
22115,Michigan Avenue,48124,42.3053906,-83.2463350
22096,Michigan Avenue,48124,42.3063109,-83.2458809
22096,Michigan Avenue,48124,42.3060694,-83.2459133
22070,Michigan Avenue,48124,42.3061605,-83.2455489
22062,Michigan Avenue,48124,42.3062097,-83.2454005
22048,Michigan Avenue,48124,42.3063138,-83.2451137
22000,Michigan Ave,48124,42.3063990,-83.2443210
10200,Ford Road,48126,42.3303934,-83.1592297
21201,Michigan Avenue,48124,42.3069054,-83.2352358
20061,Michigan Avenue,48124,42.3075762,-83.2319331
21031,Michigan Avenue,48124,42.3075896,-83.2329451
25351,Ford Road,48128,42.3263101,-83.2866647
18575,West Outer Drive,48128,42.3192104,-83.2558525
24755,Ford Road,48128,42.3265232,-83.2806373
23131,Mercury Drive,48126,42.3311515,-83.2081946
5951,Mercury Drive,48126,42.3319454,-83.2134012
5701,Mercury Drive,48126,42.3310916,-83.2068017
24641,Ford Road,48128,42.3265563,-83.2793075
18101,Oakwood Boulevard,48124,42.2898947,-83.2147461
16101,Rotunda Drive,48120,42.3026491,-83.1936825
21731,Morley Avenue,48124,42.3086955,-83.2428838
22087,Michigan Avenue,48124,42.3055595,-83.2455207
22085,Michigan Avenue,48124,42.3056744,-83.2454024
22065,Michigan Avenue,48124,42.3057089,-83.2452205
21730,Michigan Avenue,48124,42.3072498,-83.2417057
21755,Michigan Avenue,48124,42.3063218,-83.2419340
22430,Michigan Avenue,48124,42.3048420,-83.2516476
22513,Garrison Street,48124,42.3047205,-83.2522077
22513,Garrison Street,48124,42.3051286,-83.2526158
15901,Ford Road,48126,42.3274830,-83.1990075
912,South Military Street,48124,42.3054225,-83.2518808
18181,Oakwood Boulevard,48124,42.2932919,-83.2119651
24736,Michigan Avenue,48124,42.2987841,-83.2790035
24706,Michigan Avenue,48124,42.2989238,-83.2780023
24604,Michigan Avenue,48124,42.2989755,-83.2776693
24731,Michigan Avenue,48124,42.2980300,-83.2788910
24718,Michigan Avenue,48124,42.2988168,-83.2788595
23954,Kean Street,48124,42.2992262,-83.2705352
24623,Michigan Avenue,48124,42.2981345,-83.2778403
24706,Michigan Avenue,48124,42.2988889,-83.2785194
22267,Cherry Hill Street,48124,42.3117523,-83.2515459
22223,Cherry Hill Street,48124,42.3118437,-83.2507732
22157,Cherry Hill Street,48124,42.3119916,-83.2495589
22215,Cherry Hill Street,48124,42.3118640,-83.2506289
22239,Cherry Hill Street,48124,42.3117665,-83.2510465
22325,Cherry Hill Street,48124,42.3116790,-83.2522752
22301,Cherry Hill Street,48124,42.3117497,-83.2517981
22313,Cherry Hill Street,48124,42.3116979,-83.2520484
22184,Long Boulevard,48124,42.3115149,-83.2499737
22164,Long Boulevard,48124,42.3114539,-83.2496341
22222,Long Boulevard,48124,42.3114982,-83.2507781
22214,Long Boulevard,48124,42.3114798,-83.2505601
22150,Long Boulevard,48124,42.3115598,-83.2494697
22165,Cherry Hill Street,48124,42.3119796,-83.2497303
22181,Cherry Hill Street,48124,42.3119232,-83.2499676
22262,Long Boulevard,48124,42.3113759,-83.2514224
22315,Cherry Hill Street,48124,42.3116011,-83.2528386
22333,Cherry Hill Street,48124,42.3116474,-83.2524851
22326,Long Boulevard,48124,42.3112729,-83.2522852
22246,Long Boulevard,48124,42.3114359,-83.2511416
22345,Cherry Hill Street,48124,42.3116203,-83.2526922
22316,Long Boulevard,48124,42.3113122,-83.2520832
22344,Long Boulevard,48124,42.3112460,-83.2525946
22304,Long Boulevard,48124,42.3113356,-83.2518592
22336,Long Boulevard,48124,42.3112553,-83.2524452
22238,Long Boulevard,48124,42.3114522,-83.2509924
22352,Long Boulevard,48124,42.3112336,-83.2527704
22374,Long Boulevard,48124,42.3111933,-83.2531679
22364,Long Boulevard,48124,42.3112240,-83.2529795
22270,Long Boulevard,48124,42.3113558,-83.2516124
21930,Michigan Ave,48124,42.3066452,-83.2433835
3601,Schaefer Road,48126,42.3118874,-83.1767906
19309,Carlysle Street,48124,42.2840875,-83.2322451
22100,West Outer Drive,48124,42.2845466,-83.2324917
19335,Carlysle Street,48124,42.2841432,-83.2324367
3736,Pelham Street,48125,42.2838093,-83.2321515
18541,Pine Street,48124,42.2829093,-83.2237609
22054,Michigan Avenue,48124,42.3062858,-83.2452919
13800,Ford Road,48126,42.3313187,-83.1783558
10151,Diversey Avenue,48126,42.3473626,-83.1590263
22723,Michigan Avenue,48124,42.3032511,-83.2559082
22688,Michigan Avenue,48124,42.3039641,-83.2550057
22713,Michigan Avenue,48124,42.3032896,-83.2557105
23001,Michigan Avenue,48124,42.3015585,-83.2588481
23440,Michigan Avenue,48126,42.3018970,-83.2643962
23535,Michigan Avenue,48124,42.3005742,-83.2659730
22700,Garrison Street,48124,42.3050548,-83.2564044
22941,Michigan Avenue,48124,42.3026173,-83.2581129
1211,Nowlin Street,48124,42.3018410,-83.2574630
22667,Michigan Avenue,48124,42.3034740,-83.2548474
21950,Michigan Avenue,48124,42.3066982,-83.2438284
2600,South Telegraph Road,48124,42.2931156,-83.2720499
2480,S Telegraph Road,48124,42.2938159,-83.2718627
2450,S Telegraph Road,48124,42.2939595,-83.2721894
2424,South Telegraph Road,48124,42.2943372,-83.2722070
2245,S Telegraph Road,48128,42.2950551,-83.2707266
2200,S Telegraph Road,48124,42.2953965,-83.2723569
2226,S Telegraph Road,48124,42.2949748,-83.2721322
2431,South Telegraph Road,48124,42.2943846,-83.2706980
2027,S Telegraph Road,48124,42.2965277,-83.2707781
2027,S Telegraph Road,48124,42.2962412,-83.2707673
1847,S Telegraph Road,48124,42.2972503,-83.2707022
2941,S Telegraph Road,48124,42.2903498,-83.2706740
3031,South Telegraph Road,48124,42.2894445,-83.2704838
2701,South Telegraph Road,48124,42.2925751,-83.2706694
23851,Yale Street,48124,42.2879052,-83.2683294
23600,Penn Street,48124,42.2862986,-83.2651408
3850,Monroe Street,48124,42.2824876,-83.2515658
3736,Monroe Street,48124,42.2833598,-83.2514116
3853,Monroe Street,48124,42.2823040,-83.2508792
2645,Monroe Street,48124,42.2932129,-83.2490352
1130,Falcon Street,48128,42.3205812,-83.2558310
21711,Michigan Avenue,48124,42.3064958,-83.2412534
21531,Michigan Avenue,48124,42.3068619,-83.2402817
1200,Elm Street,48124,42.3060481,-83.2370959
1700,North Telegraph Road,48128,42.3236247,-83.2718253
15303,Commerce Drive South,48120,42.3029034,-83.1826000
1200,Oakwood Boulevard,48124,42.3041558,-83.2423290
22324,Michigan Avenue,48124,42.3049860,-83.2502778
18200,Oakwood Boulevard,48124,42.2932786,-83.2131912
2000,Culver Avenue,48124,42.2874731,-83.2241475
15031,Commerce Drive South,48120,42.3069518,-83.1806340
15011,Commerce Drive South,48120,42.3076069,-83.1808231
19224,Carlysle Street,48124,42.2846019,-83.2310675
3544,Pelham Road,48124,42.2850389,-83.2321815
3544,Pelham Road,48124,42.2851103,-83.2321903
9100,John Kronk Street,48210,42.3226104,-83.1470229
8900,Dix Avenue,48209,42.3163864,-83.1468326
3001,Miller Road,48120,42.3055231,-83.1648696
2740,Monroe Street,48124,42.2930382,-83.2502272
2651,Saulino Court,48120,42.3072039,-83.1442017
4001,Schaefer Road,48126,42.3165120,-83.1760025
12745,Prospect Street,48126,42.3211374,-83.1663484
13530,Michigan Avenue,48125,42.3226718,-83.1753059
5203,Schaefer Road,48126,42.3258046,-83.1764002
5141,Oakman Boulevard,48126,42.3255268,-83.1693482
5121,Oakman Boulevard,48126,42.3252595,-83.1693041
14225,West Warren Avenue,48126,42.3409032,-83.1820014
6111,Wyoming Street,48126,42.3340668,-83.1593313
8111,Tireman Avenue,48126,42.3500281,-83.1498044
7601,Central Avenue,48210,42.3492217,-83.1468784
2400,Miller Road,48120,42.3042330,-83.1521498
4401,Wyoming Street,48126,42.3217183,-83.1603384
4343,Wyoming Street,48126,42.3196246,-83.1601444
7735,Central Avenue,48210,42.3505941,-83.1469460
7545,Chase Road,48126,42.3465114,-83.1872780
4951,Ternes Street,48126,42.3228634,-83.1901984
13301-13499,Colson Street,48126,42.3243862,-83.1744843
19401,Hubbard Drive,48126,42.3199128,-83.2272291
6000,Wyoming Street,48210,42.3334102,-83.1550074
6301,Wyoming Street,48126,42.3341153,-83.1616109
6837,Wyoming Street,48216,42.3397101,-83.1596263
7050,Pinehurst Street,48216,42.3432526,-83.1639768
22371,West Village Drive,48124,42.3036032,-83.2504823
22361,West Village Drive,48124,42.3038273,-83.2499931
15555,Lundy Parkway Drive,48126,42.3305354,-83.1993287
7801,Maple Street,48216,42.3497101,-83.1805552
15101,Ford Road,48126,42.3273739,-83.1929997
17000,Rotunda Drive,48120,42.3008375,-83.2040649
6801,Mead Street,48126,42.3408590,-83.1913182
2623,Salina Street,48120,42.3054838,-83.1484060
2700,Ferney Street,48120,42.3069281,-83.1495693
2800,Liberty Avenue,48120,42.3090966,-83.1456149
9543,Dix Avenue,48209,42.3079903,-83.1408202
5845,Auburn Street,48228,42.3314549,-83.2329693
19230,Ford Road,48128,42.3307370,-83.2269342
19310,Ford Road,48128,42.3309027,-83.2279229
9301,Michigan Avenue,48210,42.3279063,-83.1539238
23852,Schaefer Road,48126,42.3234435,-83.1763411
4953,Schaefer Road,48126,42.3235538,-83.1763587
5005,Schaefer Road,48126,42.3236646,-83.1763553
13624,Michigan Avenue,48126,42.3221910,-83.1769163
13624,Michigan Avenue,48126,42.3222648,-83.1766460
4917,Schaefer Road,48126,42.3228934,-83.1763317
20180,Outer Drive,48124,42.2978882,-83.2631485
14749,Alber Street,48126,42.3303597,-83.1871333
4801,Oakman Boulevard,48126,42.3222437,-83.1681873
4824,Lois Street,48126,42.3224673,-83.1701405
13929,Osborn Street,48126,42.3212860,-83.1704462
3651,Wyoming Street,48126,42.3143252,-83.1564791
1001,North Silvery Lane,48128,42.3188418,-83.2838662
25001,Herbert Weier,48128,42.3199230,-83.2845125
4206,Miller Road,48126,42.3198119,-83.1626586
3000,Miller Road,48120,42.3129200,-83.1583363
10335,West Warren Avenue,48126,42.3439551,-83.1614980
21360,Donaldson Street,48124,42.2927669,-83.2451982
2621,Telegraph Road,48124,42.2932132,-83.2705862
23460,Michigan Avenue,48124,42.3019488,-83.2648577
119000,Hubbard Drive,48126,42.3236478,-83.2238069
21203,Michigan Avenue,48124-2339,42.3074842,-83.2368939
21367,Michigan Avenue,48124,42.3072054,-83.2377377
22600,Michigan Avenue,48124,42.3041386,-83.2541029
14860,Michigan Avenue,48126-3445,42.3189366,-83.1883814
14808,Michigan Avenue,48126,42.3190747,-83.1877996
24921,Ford Road,48128,42.3264786,-83.2813082
24041,Michigan Avenue,48124,42.2986653,-83.2731163
24105,Michigan Avenue,48124,42.2981743,-83.2726614
4006,Schaefer Road,48126,42.3168926,-83.1752742
4200,Schaefer Road,48126,42.3190070,-83.1754585
13230,Michigan Avenue,48126,42.3232732,-83.1729444
4937,Schaefer Road,48126,42.3233326,-83.1763460
14551,West Warren Avenue,48126,42.3434398,-83.1861469
25120,Michigan,48124,42.2983197,-83.2829129
24920,Trowbridge Street,48124,42.2971055,-83.2803933
13661,Colson Street,48126,42.3243525,-83.1768623
12720,Ford Road,48126,42.3306471,-83.1670402
5500,Auto Club Drive,48126,42.3276843,-83.2222101
23050,Michigan Avenue,48124,42.3033420,-83.2593780
10400,Ford Road,48126,42.3315655,-83.1598322
4800,Stecker Street,48126,42.3238954,-83.1512932
4900,Stecker Street,48126,42.3246926,-83.1518013
25350,Michigan Avenue,48124-1715,42.2982184,-83.2853534
25350,Michigan Avenue,48124-1715,42.2980989,-83.2853501
25341,Michigan Avenue,48124,42.2970895,-83.2851590
4700,Schaefer Road,48126,42.3213505,-83.1752695
15500,Michigan Avenue,48126,42.3168134,-83.1956510
13841,Ford Road,48126,42.3290473,-83.1792943
13841,Ford Road,48126,42.3290863,-83.1794660
14243,Ford Road,48126,42.3291494,-83.1815359
14339,Ford Road,48126,42.3291332,-83.1825799
14301,Ford Road,48126,42.3291615,-83.1820268
14243,Ford Road,48126,42.3291047,-83.1814513
5524,Schaefer Road,48126,42.3289236,-83.1758592
5468,Schaefer Road,48126,42.3280838,-83.1758938
5650,Schaefer Road,48126,42.3303119,-83.1758693
13158,Ford Road,48126-3325,42.3301547,-83.1723803
600,Town Center Drive,48126,42.3122652,-83.2183993
1300,Southfield Road,48124,42.2899825,-83.2076974
1300,Southfield Road,48124,42.2899690,-83.2078207
15450,Michigan Avenue,48126,42.3174314,-83.1945971
15608,Michigan Avenue,48124,42.3165042,-83.1963439
15600,Michigan Avenue,48124,42.3165401,-83.1962699
15234,Michigan Avenue,48120,42.3175732,-83.1925705
15238,Michigan Avenue,48126,42.3175514,-83.1926433
15244,Michigan Avenue,48126,42.3175377,-83.1927185
15264,Michigan Avenue,48126,42.3175471,-83.1930656
15320,Michigan Avenue,48126,42.3172944,-83.1936525
15234,Michigan Avenue,48126,42.3172654,-83.1937207
15340,Michigan Avenue,48126,42.3172691,-83.1938317
15400,Michigan Avenue,48126,42.3172948,-83.1940345
14300,Mellon Street,82074,42.2898759,-83.1653362
22145,West Outer Drive,48124,42.2847371,-83.2314772
22201,West Outer Drive,48124,42.2842438,-83.2305416
22200,West Outer Drive,48124,42.2836455,-83.2309440
22001,West Outer Drive,48124,42.2856530,-83.2337338
22023,West Outer Drive,48124,42.2855378,-83.2333587
22031,West Outer Drive,48124,42.2854431,-83.2332592
22041,West Outer Drive,48124,42.2854105,-83.2331160
22087,West Outer Drive,48124,42.2851066,-83.2323618
19327,Carlysle Street,48124,42.2842154,-83.2323456
22057,West Outer Drive,48124,42.2853024,-83.2328174
22077,West Outer Drive,48124,42.2851239,-83.2325268
22075,West Outer Drive,48124,42.2851417,-83.2325959
22069,West Outer Drive,48124,42.2851939,-83.2326409
3901,Wyoming Street,48126,42.3159087,-83.1574442
21938,Michigan Ave,48124,42.3066093,-83.2435390
21928,Michigan Ave,48124,42.3066754,-83.2432382
1331,Monroe Street,48124,42.3029344,-83.2417497
22952,West Outer Drive,48124,42.2779105,-83.2184965
22944,West Outer Drive,48124,42.2779695,-83.2186020
23170,Michigan Avenue,48124,42.3029686,-83.2610856
20030,West Outer Drive,48124,42.3009630,-83.2639330
19309,Carlysle Street,48124,42.2841279,-83.2321167
12918,Michigan Avenue,48126,42.3241785,-83.1699610
12900,Michigan Avenue,48126,42.3244278,-83.1691721
12841,Michigan Avenue,48126,42.3242573,-83.1677287
5101,Oakman Boulevard,48126,42.3250213,-83.1693288
5220,Oakman Boulevard,48126,42.3260875,-83.1683615
5221,Oakman Boulevard,48126,42.3261085,-83.1693040
5141,Schaefer Road,48126,42.3254369,-83.1764435
5401,Schaefer Road,48126,42.3272810,-83.1765100
5320,Schaefer Road,48126,42.3271920,-83.1757530
24110,Cherry Hill Street,48124,42.3129385,-83.2735790
500,N Waverly St.,48128,42.3149656,-83.2700428
22561,Beech Street,48124,42.3001880,-83.2504697
25351,Ford Road,48128,42.3263640,-83.2867522
2305,Monroe Street,48124,42.2959477,-83.2468346
2801,Monroe Street,48124,42.2921401,-83.2501092
2807,Monroe Street,48124,42.2920727,-83.2500832
2809,Monroe Street,48124,42.2920355,-83.2501122
2815,Monroe Street,48124,42.2920113,-83.2502155
2823,Monroe Street,48124,42.2918907,-83.2501551
8100,Radcliffe Street,48210,42.3408579,-83.1494972
10001,Michigan Avenue,48126,42.3272045,-83.1571893
10000,Michigan Avenue,48126,42.3280262,-83.1569793
2731,Monroe Street,48124,42.2926459,-83.2494045
4001,Schaefer Road,48126,42.3164728,-83.1761514
22668,Michigan Avenue,48124,42.3040472,-83.2543433
1324,Monroe Street,48124,42.3028005,-83.2431305
1410,Monroe Street,48124,42.3020924,-83.2428307
2012,Monroe Street,48124,42.2982024,-83.2456133
2006,Monroe Street,48124,42.2984682,-83.2452990
6335,Mercury Drive,48126,42.3347514,-83.2143595
22546,Michigan Avenue,48124,42.3044012,-83.2533693
3001,South Telegraph Road,48124,42.2898299,-83.2705853
24455,Ford Road,48128,42.3266272,-83.2768862
555,North Waverly Street,48128,42.3155790,-83.2709440
4206,Miller Road,48126,42.3191609,-83.1628085
4343,Wyoming Street,48126,42.3199242,-83.1598697
1170,Mason Street,48124,42.3041325,-83.2457345
13905,Ford Road,48126,42.3291163,-83.1802759
14333,Ford Road,48126,42.3291693,-83.1826581
22971,West Outer Drive,48124,42.2783106,-83.2177782
22967,West Outer Drive,48124,42.2783395,-83.2178421
22963,West Outer Drive,48124,42.2783715,-83.2178997
4930,Stecker Street,48126,42.3254225,-83.1526269
5200,Stecker Street,48216,42.3275611,-83.1544703
9301,Michigan Avenue,48210,42.3279741,-83.1539195
3350,Wyoming Street,48120,42.3116719,-83.1525922
3760,Wyoming Street,48120,42.3157798,-83.1552628
3740,Wyoming Street,48120,42.3152625,-83.1549788
3900,Wyoming Street,48120,42.3166300,-83.1559696
14225,West Warren Avenue,48126,42.3421030,-83.1821922
2300,Monroe Street,48124,42.2961505,-83.2473093
2314,Monroe Street,48124,42.2960600,-83.2474939
2330,Monroe Street,48124,42.2958105,-83.2475493
2611,Monroe Street,48124,42.2935876,-83.2487328
22851,Michigan Avenue,48124,42.3029690,-83.2570016
24335,Ford Road,48128,42.3266759,-83.2756387
24545,Ford Road,48128,42.3265897,-83.2781337
13741,Tireman Avenue,48228,42.3510049,-83.1792474
24528,Ford Road,48127,42.3265047,-83.2799577
3001,Miller Road,48120,42.2985750,-83.1614501
2451,Monroe Street,48124,42.2946368,-83.2479514
2101,Monroe Street,48124,42.2974965,-83.2455673
2035,Monroe Street,48124,42.2979143,-83.2451935
2021,Monroe Street,48124,42.2980297,-83.2450978
1952,Monroe Street,48124,42.2986872,-83.2451939
1946,Monroe Street,48124,42.2988419,-83.2453073
2120,Monroe Street,48124,42.2974893,-83.2461785
2238,Monroe Street,48124,42.2965520,-83.2469516
240,Town Center Drive,48126,42.3208571,-83.2230646
734,N Highland St,48128,42.3170659,-83.2692389
4801,Oakman Boulevard,48126,42.3221542,-83.1691641
18700,Audette Street,48124,42.2838595,-83.2263782
18500,Oakwood Boulevard,48124,42.2941495,-83.2152436
5200,Mercury Drive,48126,42.3251157,-83.2027464
6601,Jonathan Street,48126,42.3386281,-83.1735950
