House number,Street name,Postal code,Latitude,Longitude
540,Sunnyside Drive,48433,43.0730546,-83.8242100
1467,East Pierson Road,48433,43.0605039,-83.8185114
1552,East Pierson Road,48433,43.0595980,-83.8144607
1537,East Pierson Road,48433,43.0611045,-83.8152747
441,West Main Street,48433,43.0623641,-83.8622095
441,West Main Street,48433,43.0627160,-83.8621884
226,East Main Street,48433,43.0627472,-83.8531107
226,East Main Street,48433,43.0628119,-83.8529334
227,East Main Street,48433,43.0631671,-83.8529995
227,East Main Street,48433,43.0633460,-83.8530822
1413,Flushing Road,48433,43.0597978,-83.8219669
1413,Flushing Road,48433,43.0598717,-83.8221550
120,North Cherry Street,48433,43.0634224,-83.8541561
1420,Flushing Road,48433,43.0592705,-83.8220624
1124,West Main Street,48433,43.0585836,-83.8269174
140,Industrial Drive,48433,43.0668397,-83.8642613
230,South Cherry Street,48433,43.0614979,-83.8546358
1465,Coutant Street,48433,43.0687783,-83.8168721
200,South Cherry Street,48433,43.0618726,-83.8545587
124,South Cherry Street,48433,43.0624011,-83.8545713
300,West Main Street,48433,43.0634863,-83.8606210
250,West Main Street,48433,43.0631716,-83.8589453
120,North Cherry Street,48433,43.0634228,-83.8540474
122,East Main Street,48433,43.0627607,-83.8548461
126;127,South Cherry Street,48433,43.0620385,-83.8537891
124,North Cherry Street,48433,43.0636637,-83.8538244
227,East Main Street,48433,43.0633649,-83.8531093
202,Mill Street,48433,43.0615474,-83.8540438
204,Mill Street,48433,43.0615504,-83.8537696
206,Mill Street,48433,43.0614978,-83.8535248
215,East Main Street,48433,43.0631866,-83.8535813
323,East Main Street,48433,43.0632409,-83.8511649
115,North Maple Street,48433,43.0637010,-83.8562722
112,South McKinley Road,48433,43.0625788,-83.8528102
125,North Maple Street,48433,43.0639228,-83.8563800
134,North Cherry Street,48433,43.0640833,-83.8540854
202,Elm Street,48433,43.0640680,-83.8538503
204,Elm Street,48433,43.0640655,-83.8535813
206,Elm Street,48433,43.0640731,-83.8533499
129,North McKinley Road,48433,43.0640730,-83.8528374
121,North McKinley Road,48433,43.0638998,-83.8528647
310,North Cherry Street,48433,43.0651137,-83.8531777
210,North Cherry Street,48433,43.0648231,-83.8541063
201,Elm Street,48433,43.0644493,-83.8540766
209,North McKinley Road,48433,43.0648145,-83.8528781
205,North McKinley Road,48433,43.0646506,-83.8528941
213,Elm Street,48433,43.0644484,-83.8528328
209,Elm Street,48433,43.0644536,-83.8532394
208,Mill Street,48433,43.0615227,-83.8533527
210,Mill Street,48433,43.0615158,-83.8531330
130,South McKinley Road,48433,43.0618667,-83.8528040
126,South McKinley Road,48433,43.0619909,-83.8528318
122,South McKinley Road,48433,43.0621441,-83.8528611
118,South McKinley Road,48433,43.0622934,-83.8528481
1542,East Pierson Road,48433,43.0590537,-83.8154909
1535,East Pierson Road,48433,43.0605276,-83.8156010
1565,East Pierson Road,48433,43.0607248,-83.8141514
301,West Main Street,48433,43.0628183,-83.8594836
424,Emily Street,48433,43.0620431,-83.8622819
630,South McKinley Road,48433,43.0527511,-83.8530014
631,South McKinley Road,48433,43.0529160,-83.8510451
625,South McKinley Road,48433,43.0533127,-83.8514510
626,South McKinley Road,48433,43.0531441,-83.8530276
622,South McKinley Road,48433,43.0534381,-83.8529825
618,South McKinley Road,48433,43.0537016,-83.8530215
617,South McKinley Road,48433,43.0536969,-83.8519786
611,South McKinley Road,48433,43.0540513,-83.8520093
614,South McKinley Road,48433,43.0539707,-83.8530249
610,South McKinley Road,48433,43.0541680,-83.8529918
605,South McKinley Road,48433,43.0544151,-83.8519749
101,Overbrook Drive,48433,43.0545937,-83.8528793
105,Overbrook Drive,48433,43.0545997,-83.8531636
109,Overbrook Drive,48433,43.0545981,-83.8534504
113,Overbrook Drive,48433,43.0546055,-83.8538580
112,Overbrook Drive,48433,43.0550118,-83.8538801
108,Overbrook Drive,48433,43.0550079,-83.8534546
104,Overbrook Drive,48433,43.0550054,-83.8531627
100,Overbrook Drive,48433,43.0550067,-83.8528660
607,Somerset Drive,48433,43.0544004,-83.8539116
611,Somerset Drive,48433,43.0541962,-83.8539226
624,Morrish Road,48433,43.0532707,-83.8336282
622,Morrish Road,48433,43.0535615,-83.8337608
618,Morrish Road,48433,43.0539151,-83.8338179
615,Morrish Road,48433,43.0540670,-83.8326979
611,Morrish Road,48433,43.0543270,-83.8328600
600,Morrish Road,48433,43.0543487,-83.8339961
526,Morrish Road,48433,43.0554451,-83.8347385
515,Morrish Road,48433,43.0558546,-83.8338802
513,Morrish Road,48433,43.0563400,-83.8336350
506,Morrish Road,48433,43.0566079,-83.8349727
100,South Seymour Road,48433,43.0630922,-83.8627329
312,North Elms Road,48433,43.0558444,-83.8135286
306,North Elms Road,48433,43.0562098,-83.8135604
300,North Elms Road,48433,43.0564740,-83.8135742
230,North Elms Road,48433,43.0567849,-83.8135654
224,North Elms Road,48433,43.0571130,-83.8136205
218,North Elms Road,48433,43.0573708,-83.8136827
212,North Elms Road,48433,43.0576441,-83.8136123
206,North Elms Road,48433,43.0579486,-83.8136133
200,North Elms Road,48433,43.0582091,-83.8136130
124,North Elms Road,48433,43.0587652,-83.8136223
118,North Elms Road,48433,43.0590263,-83.8136837
314,McKinley Road,48433,43.0661633,-83.8523618
218,North Maple Street,48433,43.0651308,-83.8557857
222,North Maple Street,48433,43.0652973,-83.8557843
219,North Maple Street,48433,43.0652641,-83.8563492
302,North Maple Street,48433,43.0655208,-83.8558135
215,North Maple Street,48433,43.0650598,-83.8563594
301,North Maple Street,48433,43.0654459,-83.8563838
305,North Maple Street,48433,43.0656369,-83.8563695
309,North Maple Street,48433,43.0657963,-83.8563793
542,South McKinley Road,48433,43.0554320,-83.8529495
530,South McKinley Road,48433,43.0557996,-83.8529310
512,South McKinley Road,48433,43.0563602,-83.8529056
506,South McKinley Road,48433,43.0566524,-83.8528799
535,South McKinley Road,48433,43.0562998,-83.8520690
539,South McKinley Road,48433,43.0557835,-83.8520210
543,South McKinley Road,48433,43.0554731,-83.8519779
549,South McKinley Road,48433,43.0551424,-83.8519849
601,South McKinley Road,48433,43.0548436,-83.8519852
548,Spring Lane,48433,43.0549968,-83.8558158
544,Spring Lane,48433,43.0551915,-83.8557829
540,Spring Lane,48433,43.0554025,-83.8558136
536,Spring Lane,48433,43.0555946,-83.8558010
436,Carrie Drive,48433,43.0558660,-83.8558478
512,Spring Lane,48433,43.0566919,-83.8557899
506,Spring Lane,48433,43.0568626,-83.8557744
515,Spring Lane,48433,43.0564889,-83.8552489
521,Spring Lane,48433,43.0562792,-83.8552519
527,Spring Lane,48433,43.0560715,-83.8552515
533,Spring Lane,48433,43.0558705,-83.8552515
537,Spring Lane,48433,43.0556878,-83.8552562
541,Spring Lane,48433,43.0554613,-83.8552318
545,Spring Lane,48433,43.0552567,-83.8552536
549,Spring Lane,48433,43.0550419,-83.8552459
553,Spring Lane,48433,43.0548132,-83.8552650
557,Spring Lane,48433,43.0546124,-83.8553725
416,Carrie Drive,48433,43.0564635,-83.8572395
420,Carrie Drive,48433,43.0562876,-83.8568968
424,Carrie Drive,48433,43.0561387,-83.8566756
428,Carrie Drive,48433,43.0560129,-83.8564443
432,Carrie Drive,48433,43.0559169,-83.8561744
433,Carrie Drive,48433,43.0562635,-83.8558538
429,Carrie Drive,48433,43.0563401,-83.8561030
425,Carrie Drive,48433,43.0564887,-83.8563583
421,Carrie Drive,48433,43.0566532,-83.8565507
417,Carrie Drive,48433,43.0567554,-83.8567799
321,Terrace Drive,48433,43.0586154,-83.8572616
325,Terrace Drive,48433,43.0584106,-83.8572887
329,Terrace Drive,48433,43.0581897,-83.8572965
416,Terrace Drive,48433,43.0575534,-83.8572132
405,Terrace Drive,48433,43.0573394,-83.8572791
409,Terrace Drive,48433,43.0571478,-83.8572921
413,Terrace Drive,48433,43.0569209,-83.8572993
505,Terrace Drive,48433,43.0562772,-83.8574406
601,Terrace Drive,48433,43.0556635,-83.8579327
605,Terrace Drive,48433,43.0555077,-83.8581336
609,Autumn Drive,48433,43.0541013,-83.8549085
605,Autumn Drive,48433,43.0542253,-83.8552092
601,Autumn Drive,48433,43.0543938,-83.8554994
552,Spring Lane,48433,43.0547190,-83.8559710
525,Autumn Drive,48433,43.0549217,-83.8563350
521,Autumn Drive,48433,43.0550471,-83.8565470
517,Autumn Drive,48433,43.0551993,-83.8567422
513,Autumn Drive,48433,43.0553854,-83.8569102
509,Autumn Drive,48433,43.0555700,-83.8570740
505,Autumn Drive,48433,43.0557793,-83.8572467
501,Autumn Drive,48433,43.0560141,-83.8574765
506,Autumn Drive,48433,43.0554083,-83.8575668
510,Autumn Drive,48433,43.0552293,-83.8574188
514,Autumn Drive,48433,43.0550384,-83.8572438
518,Autumn Drive,48433,43.0548476,-83.8571122
522,Autumn Drive,48433,43.0546721,-83.8569165
526,Autumn Drive,48433,43.0545810,-83.8566745
530,Autumn Drive,48433,43.0544469,-83.8564570
534,Autumn Drive,48433,43.0543177,-83.8562351
538,Autumn Drive,48433,43.0541764,-83.8560429
600,Autumn Drive,48433,43.0540472,-83.8557965
604,Autumn Drive,48433,43.0539190,-83.8555902
608,Autumn Drive,48433,43.0538020,-83.8553539
612,Autumn Drive,48433,43.0536867,-83.8550786
616,Autumn Drive,48433,43.0536655,-83.8547942
640,Winter Eave Drive,48433,43.0528391,-83.8551774
636,Winter Eave Drive,48433,43.0528571,-83.8554486
632,Winter Eave Drive,48433,43.0529020,-83.8557685
628,Winter Eave Drive,48433,43.0530151,-83.8560037
624,Winter Eave Drive,48433,43.0531499,-83.8562305
616,Winter Eave Drive,48433,43.0535344,-83.8568270
612,Winter Eave Drive,48433,43.0537428,-83.8571637
608,Winter Eave Drive,48433,43.0538841,-83.8574785
604,Winter Eave Drive,48433,43.0540545,-83.8576956
600,Winter Eave Drive,48433,43.0542169,-83.8579228
524,Winter Eave Drive,48433,43.0543582,-83.8581496
520,Winter Eave Drive,48433,43.0545144,-83.8583519
516,Winter Eave Drive,48433,43.0546892,-83.8585174
512,Winter Eave Drive,48433,43.0548487,-83.8587057
508,Winter Eave Drive,48433,43.0550555,-83.8588796
609,Terrace Drive,48433,43.0553645,-83.8583821
513,Winter Eave Drive,48433,43.0550429,-83.8582313
517,Winter Eave Drive,48433,43.0548779,-83.8580505
521,Winter Eave Drive,48433,43.0547136,-83.8578586
525,Winter Eave Drive,48433,43.0545709,-83.8576367
601,Winter Eave Drive,48433,43.0544324,-83.8574012
605,Winter Eave Drive,48433,43.0543232,-83.8572105
609,Winter Eave Drive,48433,43.0541669,-83.8569883
613,Winter Eave Drive,48433,43.0540337,-83.8567717
617,Winter Eave Drive,48433,43.0539047,-83.8565313
621,Winter Eave Drive,48433,43.0537783,-83.8563276
629,Winter Eave Drive,48433,43.0535835,-83.8559405
633,Winter Eave Drive,48433,43.0534080,-83.8556885
637,Winter Eave Drive,48433,43.0532880,-83.8553917
641,Winter Eave Drive,48433,43.0532486,-83.8551031
645,Winter Eave Drive,48433,43.0532239,-83.8548111
616,Somerset Drive,48433,43.0536257,-83.8544751
620,Somerset Drive,48433,43.0533021,-83.8544902
644,Winter Eave Drive,48433,43.0528353,-83.8546630
648,Winter Eave Drive,48433,43.0528080,-83.8543539
635,Somerset Drive,48433,43.0529123,-83.8540387
631,Somerset Drive,48433,43.0531609,-83.8539116
627,Somerset Drive,48433,43.0533688,-83.8539062
623,Somerset Drive,48433,43.0535741,-83.8539140
619,Somerset Drive,48433,43.0537836,-83.8539307
615,Somerset Drive,48433,43.0539711,-83.8539150
608,Somerset Drive,48433,43.0543273,-83.8545096
604,Somerset Drive,48433,43.0545357,-83.8544807
600,Somerset Drive,48433,43.0547384,-83.8545146
550,Somerset Drive,48433,43.0549463,-83.8544966
546,Somerset Drive,48433,43.0551498,-83.8544991
542,Somerset Drive,48433,43.0553560,-83.8545277
538,Somerset Drive,48433,43.0555604,-83.8544887
534,Somerset Drive,48433,43.0557679,-83.8544969
530,Somerset Drive,48433,43.0559782,-83.8544944
526,Somerset Drive,48433,43.0561840,-83.8545216
520,Somerset Drive,48433,43.0563923,-83.8545091
516,Somerset Drive,48433,43.0565907,-83.8546520
508,Somerset Drive,48433,43.0567154,-83.8548752
501,Spring Lane,48433,43.0568308,-83.8551457
442,Somerset Drive,48433,43.0571135,-83.8555986
434,Somerset Drive,48433,43.0572612,-83.8559161
430,Somerset Drive,48433,43.0573890,-83.8561300
426,Somerset Drive,48433,43.0575001,-83.8563602
420,Somerset Drive,48433,43.0575312,-83.8566512
333,Terrace Drive,48433,43.0579790,-83.8572766
419,Somerset Drive,48433,43.0579910,-83.8566885
423,Somerset Drive,48433,43.0579431,-83.8563957
427,Somerset Drive,48433,43.0578392,-83.8561333
431,Somerset Drive,48433,43.0577312,-83.8558781
435,Somerset Drive,48433,43.0576078,-83.8556630
439,Somerset Drive,48433,43.0575082,-83.8554309
443,Somerset Drive,48433,43.0573761,-83.8552036
501,Somerset Drive,48433,43.0572787,-83.8549531
505,Somerset Drive,48433,43.0571682,-83.8547304
509,Somerset Drive,48433,43.0570418,-83.8544739
513,Somerset Drive,48433,43.0569062,-83.8542638
517,Somerset Drive,48433,43.0567323,-83.8540553
521,Somerset Drive,48433,43.0565172,-83.8539476
525,Somerset Drive,48433,43.0562894,-83.8539305
529,Somerset Drive,48433,43.0560711,-83.8539299
533,Somerset Drive,48433,43.0558498,-83.8538895
537,Somerset Drive,48433,43.0556475,-83.8539259
541,Somerset Drive,48433,43.0554314,-83.8538954
545,Somerset Drive,48433,43.0552105,-83.8539289
1559,East Pierson Road,48433,43.0606005,-83.8147083
1012,East River Road,48433,43.0569043,-83.8333617
1009,East River Road,48433,43.0580355,-83.8330702
1005,East River Road,48433,43.0578253,-83.8339893
915,East River Road,48433,43.0576438,-83.8354652
909,East River Road,48433,43.0576310,-83.8359068
918,East River Road,48433,43.0570216,-83.8349099
912,East River Road,48433,43.0569500,-83.8355705
906,East River Road,48433,43.0569291,-83.8360263
900,East River Road,48433,43.0569110,-83.8364058
832,East River Road,48433,43.0569794,-83.8367702
826,East River Road,48433,43.0569794,-83.8371170
820,East River Road,48433,43.0569689,-83.8374814
814,East River Road,48433,43.0569691,-83.8378553
755,East River Road,48433,43.0575904,-83.8387234
743,East River Road,48433,43.0575311,-83.8396863
737,East River Road,48433,43.0575250,-83.8400087
730,East River Road,48433,43.0569151,-83.8406679
726,East River Road,48433,43.0568208,-83.8416214
720,East River Road,48433,43.0567618,-83.8421039
406,East River Road,48433,43.0567354,-83.8428538
360,East River Road,48433,43.0566786,-83.8437884
354,East River Road,48433,43.0566903,-83.8442524
342,East River Road,48433,43.0566743,-83.8445665
336,East River Road,48433,43.0566883,-83.8449653
330,East River Road,48433,43.0566569,-83.8453155
324,East River Road,48433,43.0566548,-83.8456620
318,East River Road,48433,43.0566361,-83.8460808
312,East River Road,48433,43.0566087,-83.8465977
306,East River Road,48433,43.0566114,-83.8470711
300,East River Road,48433,43.0566211,-83.8474417
212,East River Road,48433,43.0566994,-83.8478218
454,Windmill Point Drive,48433,43.0573730,-83.8439020
339,East River Road,48433,43.0573396,-83.8444592
335,East River Road,48433,43.0573610,-83.8447903
331,East River Road,48433,43.0573235,-83.8451185
327,East River Road,48433,43.0573246,-83.8454320
323,East River Road,48433,43.0574125,-83.8458035
311,East River Road,48433,43.0574869,-83.8465002
301,East River Road,48433,43.0574908,-83.8472438
217,East River Road,48433,43.0573650,-83.8478551
211,East River Road,48433,43.0572394,-83.8482036
207,East River Road,48433,43.0572106,-83.8484937
131,East River Road,48433,43.0571911,-83.8496837
127,East River Road,48433,43.0571726,-83.8499719
123,East River Road,48433,43.0571765,-83.8502289
119,East River Road,48433,43.0571801,-83.8505286
115,East River Road,48433,43.0571858,-83.8508126
101,East River Road,48433,43.0574596,-83.8522655
401,West River Road,48433,43.0581045,-83.8531004
389,West River Road,48433,43.0585313,-83.8534260
375,West River Road,48433,43.0583149,-83.8541924
371,West River Road,48433,43.0586512,-83.8544235
359,West River Road,48433,43.0584851,-83.8549078
335,West River Road,48433,43.0590402,-83.8548421
337,West River Road,48433,43.0587986,-83.8551794
333,West River Road,48433,43.0588521,-83.8554152
331,West River Road,48433,43.0588552,-83.8556478
327,West River Road,48433,43.0591188,-83.8556967
321,West River Road,48433,43.0591468,-83.8561826
319,West River Road,48433,43.0594972,-83.8560998
317,West River Road,48433,43.0593408,-83.8565088
315,West River Road,48433,43.0594244,-83.8566916
311,West River Road,48433,43.0595098,-83.8568858
305,West River Road,48433,43.0596364,-83.8570489
310,West River Road,48433,43.0589825,-83.8570512
316,West River Road,48433,43.0588968,-83.8567807
320,West River Road,48433,43.0587669,-83.8565453
328,West River Road,48433,43.0586495,-83.8563201
336,West River Road,48433,43.0585339,-83.8560502
352,West River Road,48433,43.0582826,-83.8555976
360,West River Road,48433,43.0581892,-83.8554099
368,West River Road,48433,43.0580339,-83.8551420
372,West River Road,48433,43.0579455,-83.8549374
376,West River Road,48433,43.0577822,-83.8547150
380,West River Road,48433,43.0577004,-83.8544875
404,West River Road,48433,43.0574021,-83.8539579
412,West River Road,48433,43.0572108,-83.8535149
106,East River Road,48433,43.0565106,-83.8516077
112,East River Road,48433,43.0564968,-83.8510610
118,East River Road,48433,43.0565580,-83.8504876
206,East River Road,48433,43.0567087,-83.8486032
745,East River Road,48433,43.0586225,-83.8381377
605,Morrish Road,48433,43.0548830,-83.8325865
674,Bending Brook Drive,48433,43.0537099,-83.8366149
672,Bending Brook Drive,48433,43.0534439,-83.8368093
668,Bending Brook Drive,48433,43.0528860,-83.8372975
737,Bending Brook Drive,48433,43.0544165,-83.8361090
760,Bending Brook Drive,48433,43.0565635,-83.8356395
739,Bending Brook Drive,48433,43.0546990,-83.8361545
758,Bending Court,48433,43.0563665,-83.8363015
744,Bending Brook Drive,48433,43.0552975,-83.8369680
741,Bending Brook Drive,48433,43.0549960,-83.8361865
673,Bending Brook Drive,48433,43.0538805,-83.8357665
754,Bending Court,48433,43.0564180,-83.8373680
747,Bending Brook Drive,48433,43.0558800,-83.8359130
745,Bending Brook Drive,48433,43.0556150,-83.8361405
675,Bending Brook Drive,48433,43.0541485,-83.8359230
749,Bending Brook Drive,48433,43.0559905,-83.8355615
742,Bending Brook Drive,48433,43.0549935,-83.8369545
669,Bending Brook Drive,48433,43.0532355,-83.8358465
750,Bending Court,48433,43.0557985,-83.8378750
671,Bending Brook Drive,48433,43.0535505,-83.8358315
670,Bending Brook Drive,48433,43.0531585,-83.8371520
743,Bending Brook Drive,48433,43.0553060,-83.8362595
751,Bending Brook Drive,48433,43.0560990,-83.8349435
730,Shady Brook Lane,48433,43.0539065,-83.8395910
514,Misty Morning Drive,48433,43.0547835,-83.8391210
501,Misty Morning Drive,48433,43.0558290,-83.8398025
722,Shady Brook Lane,48433,43.0536070,-83.8403110
505,Misty Morning Drive,48433,43.0554550,-83.8398125
510,Misty Morning Drive,48433,43.0550595,-83.8389785
525,Misty Morning Drive,48433,43.0533640,-83.8391680
714,Shady Brook Lane,48433,43.0532860,-83.8411345
715,Shady Brook Lane,48433,43.0538390,-83.8415500
522,Misty Morning Drive,48433,43.0540650,-83.8388350
718,Shady Brook Lane,48433,43.0534645,-83.8407810
723,Shady Brook Lane,48433,43.0542145,-83.8405605
518,Misty Morning Drive,48433,43.0544020,-83.8389940
710,Shady Brook Lane,48433,43.0531030,-83.8414285
506,Misty Morning Drive,48433,43.0554355,-83.8389285
703,Shady Brook Lane,48433,43.0527940,-83.8422500
727,Shady Brook Lane,48433,43.0543225,-83.8401590
517,Misty Morning Drive,48433,43.0546510,-83.8398605
3264,Misty Morning Drive,48433,43.0526650,-83.8382115
726,Shady Brook Lane,48433,43.0537560,-83.8399390
707,Shady Brook Lane,48433,43.0531730,-83.8421990
711,Shady Brook Lane,48433,43.0535935,-83.8421240
711,Krystal Creek Court,48433,43.0557855,-83.8418155
725,Fountain View Drive,48433,43.0530395,-83.8395550
715,Krystal Creek Court,48433,43.0557710,-83.8414255
509,Shady Brook Court,48433,43.0547950,-83.8417110
513,Shady Brook Court,48433,43.0547015,-83.8412985
707,Krystal Creek Court,48433,43.0556965,-83.8423100
719,Shady Brook Lane,48433,43.0540605,-83.8408415
740,Bending Brook Drive,48433,43.0546470,-83.8370110
703,Krystal Creek Court,48433,43.0551645,-83.8421780
733,Fountain View Drive,48433,43.0538625,-83.8372530
529,Misty Morning Drive,48433,43.0531000,-83.8390115
723,Krystal Creek Court,48433,43.0556115,-83.8405505
736,Fountain View Drive,48433,43.0545260,-83.8374685
530,Misty Morning Drive,48433,43.0530260,-83.8381815
514,Shady Brook Court,48433,43.0541315,-83.8421380
676,Bending Brook Drive,48433,43.0541150,-83.8368250
526,Misty Morning Drive,48433,43.0535245,-83.8384745
510,Shady Brook Court,48433,43.0545335,-83.8421500
717,Fountain View Drive,48433,43.0527460,-83.8403360
732,Fountain View Drive,48433,43.0539620,-83.8379630
721,Fountain View Drive,48433,43.0528895,-83.8399345
719,Krystal Creek Court,48433,43.0557525,-83.8409800
516,Sun Manor Drive,48433,43.0562145,-83.8485175
531,Sun Manor Drive,48433,43.0553505,-83.8478992
330,Sunset Drive,48433,43.0546410,-83.8462695
312,Sunburst Drive,48433,43.0537310,-83.8473065
306,Sunburst Drive,48433,43.0537325,-83.8476065
319,Sunburst Drive,48433,43.0541905,-83.8468415
300,Sunrise Drive,48433,43.0555915,-83.8478295
329,Sun Manor Drive,48433,43.0560340,-83.8463155
320,Sunrise Drive,48433,43.0556075,-83.8467805
510,Sun Manor Drive,48433,43.0564480,-83.8485002
311,Sunrise Drive,48433,43.0560200,-83.8472080
323,Sunset Drive,48433,43.0551085,-83.8466065
306,Sunset Drive,48433,43.0546050,-83.8475305
604,Sun Manor Drive,48433,43.0544625,-83.8484705
307,Sunset Drive,48433,43.0550755,-83.8475515
324,Sunburst Drive,48433,43.0536295,-83.8467110
301,Sunrise Drive,48433,43.0560300,-83.8478470
526,Sun Manor Drive,48433,43.0557885,-83.8484745
300,Sunburst Drive,48433,43.0537380,-83.8479230
616,Sun Manor Drive,48433,43.0537775,-83.8482635
323,Sunrise Drive,48433,43.0560460,-83.8466105
324,Sunset Drive,48433,43.0546355,-83.8465760
324,Sunrise Drive,48433,43.0556255,-83.8464770
306,Sunrise Drive,48433,43.0555615,-83.8474285
528,Sun Manor Drive,48433,43.0555625,-83.8484770
522,Sun Manor Drive,48433,43.0560015,-83.8484835
319,Sunset Drive,48433,43.0550625,-83.8469250
535,Sun Manor Drive,48433,43.0550750,-83.8478735
612,Sun Manor Drive,48433,43.0539710,-83.8484640
601,Sun Manor Drive,48433,43.0545755,-83.8478560
319,Sunrise Drive,48433,43.0560410,-83.8469140
311,Sunburst Drive,48433,43.0542190,-83.8471695
336,Sunset Drive,48433,43.0546035,-83.8459880
329,Sunset Drive,48433,43.0550950,-83.8462845
608,Sun Manor Drive,48433,43.0542225,-83.8485055
534,Sun Manor Drive,48433,43.0553425,-83.8484875
303,Sunburst Drive,48433,43.0541860,-83.8478240
311,Sunset Drive,48433,43.0550638,-83.8472355
542,Sun Manor Drive,48433,43.0549050,-83.8485135
312,Sunrise Drive,48433,43.0555890,-83.8471045
307,Sunburst Drive,48433,43.0541990,-83.8474900
600,Sun Manor Drive,48433,43.0546890,-83.8484705
335,Sunset Drive,48433,43.0551293,-83.8459717
538,Sun Manor Drive,48433,43.0551220,-83.8484585
320,Sunburst Drive,48433,43.0537190,-83.8470010
323,Sunburst Drive,48433,43.0541360,-83.8465445
320,Sunset Drive,48433,43.0546350,-83.8468975
307,Sunrise Drive,48433,43.0560265,-83.8475195
312,Sunset Drive,48433,43.0545920,-83.8472135
515,Sun Manor Drive,48433,43.0564060,-83.8478745
336,Sunrise Drive,48433,43.0555945,-83.8458040
534,Sunnyslope Drive,48433,43.0552460,-83.8438220
354,Sunrise Drive,48433,43.0554360,-83.8448440
543,Sunnyslope Drive,48433,43.0549165,-83.8432080
353,Sunrise Drive,48433,43.0559750,-83.8451080
527,Sunnyslope Drive,48433,43.0557210,-83.8431730
521,Sunnyslope Drive,48433,43.0559880,-83.8431850
359,Sunrise Drive,48433,43.0559815,-83.8448280
124,East River Road,48433,43.0559020,-83.8497400
528,Sun Manor Drive,48433,43.0555470,-83.8438635
400,East River Road,48433,43.0566855,-83.8431920
531,Sunnyslope Drive,48433,43.0554505,-83.8431745
341,Sunrise Drive,48433,43.0560380,-83.8457165
522,Sunnyslope Drive,48433,43.0559825,-83.8438285
360,Sunrise Drive,48433,43.0554545,-83.8445035
335,Sunrise Drive,48433,43.0560645,-83.8459970
330,Sunrise Drive,48433,43.0556180,-83.8461450
342,Sunrise Drive,48433,43.0555625,-83.8454845
540,Sunnyslope Drive,48433,43.0550120,-83.8438125
537,Sunnyslope Drive,48433,43.0551900,-83.8431445
516,Sunnyslope Drive,48433,43.0562460,-83.8438355
365,Sunrise Drive,48433,43.0559835,-83.8445030
515,Sunnyslope Drive,48433,43.0562775,-83.8431755
348,Sunrise Drive,48433,43.0555000,-83.8451685
347,Sunrise Drive,48433,43.0560000,-83.8454095
544,Sunnyslope Drive,48433,43.0547620,-83.8438550
200,East River Road,48433,43.0559170,-83.8489620
621,Morrish Road,48433,43.0536407,-83.8328408
431,Primrose Lane,48433,43.0566090,-83.8662920
329,Primrose Lane,48433,43.0577995,-83.8664640
472,Windy Bluff Street,48433,43.0546005,-83.8655200
495,Windy Bluff Street,48433,43.0534375,-83.8659095
459,Primrose Lane,48433,43.0549985,-83.8659255
451,Primrose Lane,48433,43.0554505,-83.8658815
496,Windy Bluff Street,48433,43.0536735,-83.8664785
435,Primrose Lane,48433,43.0563865,-83.8661795
488,Windy Bluff Street,48433,43.0540005,-83.8660985
333,Primrose Lane,48433,43.0574839,-83.8664980
613,Thornhill Place,48433,43.0574535,-83.8661120
484,Windy Bluff Street,48433,43.0541910,-83.8659155
440,Primrose Lane,48433,43.0561950,-83.8667295
491,Windy Bluff Street,48433,43.0536230,-83.8657380
612,Thornhill Place,48433,43.0570135,-83.8660715
325,Primrose Lane,48433,43.0580365,-83.8664585
460,Primrose Lane,48433,43.0550645,-83.8666740
439,Primrose Lane,48433,43.0561755,-83.8660255
313,Primrose Lane,48433,43.0587654,-83.8662672
448,Primrose Lane,48433,43.0557102,-83.8664998
452,Primrose Lane,48433,43.0555065,-83.8665730
447,Primrose Lane,48433,43.0556760,-83.8658560
317,Primrose Lane,48433,43.0585055,-83.8663275
444,Primrose Lane,48433,43.0559868,-83.8665820
499,Windy Bluff Street,48433,43.0532280,-83.8660197
309,Primrose Lane,48433,43.0590113,-83.8662568
480,Primrose Lane,48433,43.0544525,-83.8663270
321,Primrose Lane,48433,43.0582820,-83.8664015
616,Thornhill Place,48433,43.0569675,-83.8663705
492,Windy Bluff Street,48433,43.0538320,-83.8662820
463,Primrose Lane,48433,43.0547835,-83.8658890
455,Primrose Lane,48433,43.0552240,-83.8659225
443,Primrose Lane,48433,43.0559300,-83.8658890
456,Primrose Lane,48433,43.0552890,-83.8666380
503,Windy Bluff Street,48433,43.0530611,-83.8662520
337,Windy Bluff Street,48433,43.0574280,-83.8651500
320,Windy Bluff Street,48433,43.0583740,-83.8655535
451,Windy Bluff Street,48433,43.0556503,-83.8643273
308,Windy Bluff Street,48433,43.0590210,-83.8653790
427,Windy Bluff Street,48433,43.0569325,-83.8651190
325,Windy Bluff Street,48433,43.0581015,-83.8649710
463,Windy Bluff Street,48433,43.0548986,-83.8643864
321,Windy Bluff Street,48433,43.0583240,-83.8648895
436,Windy Bluff Street,48433,43.0564640,-83.8655712
332,Windy Bluff Street,48433,43.0575020,-83.8657510
431,Windy Bluff Street,48433,43.0567155,-83.8650210
329,Windy Bluff Street,48433,43.0578595,-83.8650320
468,Windy Bluff Street,48433,43.0547555,-83.8653715
428,Windy Bluff Street,48433,43.0569645,-83.8657020
447,Windy Bluff Street,48433,43.0558440,-83.8644625
459,Windy Bluff Street,48433,43.0551352,-83.8642937
312,Windy Bluff Street,48433,43.0588055,-83.8653895
443,Windy Bluff Street,48433,43.0560490,-83.8646325
316,Windy Bluff Street,48433,43.0585950,-83.8654755
333,Windy Bluff Street,48433,43.0576210,-83.8651180
324,Windy Bluff Street,48433,43.0581250,-83.8656095
341,Windy Bluff Street,48433,43.0571720,-83.8651425
309,Windy Bluff Street,48433,43.0591340,-83.8647095
435,Windy Bluff Street,48433,43.0564915,-83.8649270
313,Windy Bluff Street,48433,43.0588260,-83.8647145
328,Windy Bluff Street,48433,43.0578365,-83.8657260
439,Windy Bluff Street,48433,43.0562540,-83.8647095
432,Windy Bluff Street,48433,43.0566835,-83.8656200
467,Windy Bluff Street,48433,43.0546920,-83.8645920
455,Windy Bluff Street,48433,43.0553895,-83.8642975
452,Windy Bluff Street,48433,43.0554980,-83.8649915
317,Windy Bluff Street,48433,43.0585330,-83.8648075
410,Windmill Point Drive,48433,43.0597900,-83.8436280
314,Holland Road,48433,43.0583475,-83.8464955
411,Windmill Point Drive,48433,43.0597970,-83.8429865
318,Holland Road,48433,43.0584010,-83.8462025
426,Windmill Point Drive,48433,43.0589155,-83.8436115
306,Holland Road,48433,43.0585005,-83.8471250
401,Holland Road,48433,43.0603945,-83.8467237
350,Windmill Point Drive,48433,43.0575770,-83.8438325
427,Windmill Point Drive,48433,43.0589225,-83.8429580
347,Holland Road,48433,43.0584140,-83.8436265
343,Holland Road,48433,43.0583815,-83.8439280
402,Holland Road,48433,43.0602830,-83.8473000
310,Holland Road,48433,43.0583775,-83.8468165
334,Holland Road,48433,43.0579875,-83.8445550
338,Holland Road,48433,43.0579350,-83.8442295
422,Holland Road,48433,43.0591805,-83.8473290
430,Windmill Point Drive,48433,43.0586925,-83.8435860
426,Holland Road,48433,43.0589565,-83.8473035
337,Holland Road,48433,43.0584000,-83.8442755
417,Holland Road,48433,43.0595205,-83.8466815
439,Windmill Point Drive,48433,43.0582590,-83.8429470
447,Windmill Point Drive,48433,43.0578225,-83.8430365
419,Windmill Point Drive,48433,43.0593545,-83.8429810
405,Holland Road,48433,43.0601735,-83.8466945
431,Windmill Point Drive,48433,43.0587025,-83.8429510
425,Holland Road,48433,43.0590800,-83.8466575
421,Holland Road,48433,43.0593005,-83.8466980
423,Windmill Point Drive,48433,43.0591440,-83.8429920
435,Windmill Point Drive,48433,43.0584785,-83.8429375
414,Windmill Point Drive,48433,43.0595705,-83.8435820
451,Windmill Point Drive,48433,43.0575820,-83.8431220
410,Holland Road,48433,43.0598395,-83.8473140
407,Windmill Point Drive,48433,43.0600160,-83.8430000
418,Windmill Point Drive,48433,43.0593515,-83.8435915
320,Holland Road,48433,43.0583685,-83.8458855
330,Holland Road,48433,43.0580860,-83.8448610
430,Holland Road,48433,43.0587185,-83.8472935
429,Holland Road,48433,43.0588630,-83.8466780
443,Windmill Point Drive,48433,43.0580380,-83.8429880
414,Holland Road,48433,43.0596145,-83.8473080
409,Holland Road,48433,43.0599530,-83.8466880
327,Holland Road,48433,43.0587690,-83.8450990
342,Holland Road,48433,43.0579035,-83.8439190
418,Holland Road,48433,43.0593955,-83.8472805
324,Holland Road,48433,43.0583640,-83.8455880
422,Windmill Point Drive,48433,43.0591345,-83.8435995
455,Windmill Point Drive,48433,43.0573800,-83.8430780
415,Windmill Point Drive,48433,43.0595805,-83.8429330
406,Holland Road,48433,43.0600525,-83.8473575
430,Sleepy Hollow Drive,48433,43.0588665,-83.8461165
413,Holland Road,48433,43.0597385,-83.8466680
417,Old Mill Drive,48433,43.0594700,-83.8442230
405,Sleepy Hollow Drive,48433,43.0602110,-83.8454745
427,Dutch Mill Court,48433,43.0589215,-83.8417285
402,Old Mill Drive,48433,43.0603221,-83.8448210
415,Dutch Mill Court,48433,43.0595785,-83.8417345
426,Sleepy Hollow Drive,48433,43.0590790,-83.8460680
419,Dutch Mill Court,48433,43.0593580,-83.8417525
418,Old Mill Drive,48433,43.0594525,-83.8448455
422,Dutch Mill Court,48433,43.0591410,-83.8424075
426,Dutch Mill Court,48433,43.0589215,-83.8423750
425,Sleepy Hollow Drive,48433,43.0591140,-83.8454730
402,Sleepy Hollow Drive,48433,43.0604275,-83.8460720
429,Sleepy Hollow Drive,48433,43.0588570,-83.8454375
331,Holland Road,48433,43.0584640,-83.8445655
423,Dutch Mill Court,48433,43.0591395,-83.8417175
326,Old Mill Drive,48433,43.0580237,-83.8455914
414,Dutch Mill Court,48433,43.0595705,-83.8423725
328,Old Mill Drive,48433,43.0578795,-83.8452180
418,Dutch Mill Court,48433,43.0593570,-83.8423710
426,Old Mill Drive,48433,43.0590065,-83.8449190
340,Dutch Mill Drive,48433,43.0601615,-83.8441840
417,Sleepy Hollow Drive,48433,43.0595515,-83.8454250
414,Old Mill Drive,48433,43.0596685,-83.8448560
401,Sleepy Hollow Drive,48433,43.0604305,-83.8454205
438,Dutch Mill Court,48433,43.0581835,-83.8422365
406,Old Mill Drive,48433,43.0600973,-83.8448717
410,Old Mill Drive,48433,43.0598890,-83.8448255
431,Dutch Mill Court,48433,43.0587005,-83.8416980
422,Old Mill Drive,48433,43.0592254,-83.8448405
409,Sleepy Hollow Drive,48433,43.0599925,-83.8454070
413,Old Mill Drive,48433,43.0596895,-83.8441915
435,Dutch Mill Court,48433,43.0584425,-83.8416685
429,Old Mill Drive,48433,43.0587971,-83.8443377
434,Dutch Mill Court,48433,43.0584550,-83.8424180
421,Sleepy Hollow Drive,48433,43.0593335,-83.8454330
413,Sleepy Hollow Drive,48433,43.0597715,-83.8454220
421,Old Mill Drive,48433,43.0592425,-83.8442215
422,Sleepy Hollow Drive,48433,43.0593080,-83.8460590
430,Dutch Mill Court,48433,43.0586830,-83.8423585
439,Dutch Mill Court,48433,43.0581926,-83.8418498
425,Old Mill Drive,48433,43.0590065,-83.8442450
410,Dutch Mill Court,48433,43.0598025,-83.8423955
414,Sleepy Hollow Drive,48433,43.0597510,-83.8460820
409,Old Mill Drive,48433,43.0599060,-83.8442015
411,Dutch Mill Court,48433,43.0598000,-83.8417540
346,Holland Road,48433,43.0579430,-83.8436265
410,Sleepy Hollow Drive,48433,43.0599865,-83.8460860
406,Sleepy Hollow Drive,48433,43.0602120,-83.8460670
418,Sleepy Hollow Drive,48433,43.0595295,-83.8460660
405,Laurie Drive,48433,43.0587280,-83.8484165
401,Laurie Drive,48433,43.0589650,-83.8485420
419,Laurie Drive,48433,43.0576875,-83.8485975
417,Laurie Drive,48433,43.0578410,-83.8484120
425,Laurie Drive,48433,43.0574865,-83.8487300
409,Laurie Drive,48433,43.0582775,-83.8483010
411,Laurie Drive,48433,43.0580575,-83.8483375
407,Laurie Drive,48433,43.0585150,-83.8483320
408,Laurie Drive,48433,43.0583845,-83.8488445
504,Cynthia Drive,48433,43.0586770,-83.8508265
522,Mark Drive,48433,43.0578594,-83.8495700
431,Laurie Drive,48433,43.0572300,-83.8487980
524,Cynthia Drive,48433,43.0589050,-83.8497585
524,Kim Court,48433,43.0582410,-83.8499240
518,Mark Drive,48433,43.0576622,-83.8497056
535,Cynthia Drive,48433,43.0592240,-83.8490430
530,Mark Drive,48433,43.0582115,-83.8493095
420,Laurie Drive,48433,43.0577985,-83.8491000
539,Cynthia Drive,48433,43.0589165,-83.8494270
428,Laurie Drive,48433,43.0574250,-83.8492880
424,Cynthia Drive,48433,43.0575730,-83.8517130
515,Kim Court,48433,43.0583895,-83.8505600
408,Cynthia Drive,48433,43.0583265,-83.8516985
412,Cynthia Drive,48433,43.0581385,-83.8516745
523,Cynthia Drive,48433,43.0592980,-83.8499580
427,Cynthia Drive,48433,43.0574620,-83.8511420
432,Laurie Drive,48433,43.0572505,-83.8493015
420,Cynthia Drive,48433,43.0577385,-83.8516755
416,Laurie Drive,48433,43.0579735,-83.8489830
509,Cynthia Drive,48433,43.0591181,-83.8507710
516,Cynthia Drive,48433,43.0588275,-83.8502810
412,Laurie Drive,48433,43.0581635,-83.8488720
505,Cynthia Drive,48433,43.0590403,-83.8510499
404,Laurie Drive,48433,43.0586105,-83.8489160
519,Cynthia Drive,48433,43.0592495,-83.8502205
407,Cynthia Drive,48433,43.0583220,-83.8511225
419,Cynthia Drive,48433,43.0578790,-83.8511340
416,Cynthia Drive,48433,43.0579690,-83.8517015
424,Laurie Drive,48433,43.0576230,-83.8492210
515,Cynthia Drive,48433,43.0591885,-83.8505015
520,Cynthia Drive,48433,43.0588750,-83.8500130
510,Cynthia Drive,48433,43.0587590,-83.8505510
411,Cynthia Drive,48433,43.0581157,-83.8511263
404,Cynthia Drive,48433,43.0585840,-83.8516710
432,Cynthia Drive,48433,43.0571475,-83.8516369
400,Cynthia Drive,48433,43.0587890,-83.8515485
431,Cynthia Drive,48433,43.0571690,-83.8511190
504,Mark Drive,48433,43.0574870,-83.8508405
501,Cynthia Drive,48433,43.0589740,-83.8513875
428,Cynthia Drive,48433,43.0573475,-83.8516675
213,Dutch Mill Drive,48433,43.0605294,-83.8481195
347,Dutch Mill Drive,48433,43.0604950,-83.8434535
313,Dutch Mill Drive,48433,43.0608935,-83.8465545
305,Dutch Mill Drive,48433,43.0608045,-83.8471945
325,Dutch Mill Drive,48433,43.0609235,-83.8456155
406,Dutch Mill Court,48433,43.0600145,-83.8423860
309,Dutch Mill Drive,48433,43.0608415,-83.8468820
335,Dutch Mill Drive,48433,43.0607610,-83.8446882
428,Dutch Mill Drive,48433,43.0601460,-83.8408455
204,Dutch Mill Drive,48433,43.0600649,-83.8480555
311,Mark Drive,48433,43.0594685,-83.8482730
345,Dutch Mill Drive,48433,43.0605434,-83.8437634
341,Dutch Mill Drive,48433,43.0606037,-83.8440759
321,Dutch Mill Drive,48433,43.0609130,-83.8459295
337,Dutch Mill Drive,48433,43.0606905,-83.8443475
333,Dutch Mill Drive,48433,43.0608500,-83.8449780
406,Windmill Point Drive,48433,43.0600010,-83.8435875
405,Dutch Mill Drive,48433,43.0604540,-83.8428560
409,Dutch Mill Drive,48433,43.0604620,-83.8425360
307,Mark Drive,48433,43.0596740,-83.8483060
329,Dutch Mill Drive,48433,43.0608780,-83.8452920
417,Dutch Mill Drive,48433,43.0604540,-83.8419240
317,Dutch Mill Drive,48433,43.0608900,-83.8462385
205,Dutch Mill Drive,48433,43.0604286,-83.8483380
208,Dutch Mill Drive,48433,43.0601537,-83.8477870
407,Dutch Mill Court,48433,43.0600155,-83.8417500
425,Dutch Mill Drive,48433,43.0605745,-83.8413050
421,Dutch Mill Drive,48433,43.0604892,-83.8416218
217,Dutch Mill Drive,48433,43.0606205,-83.8478450
424,Dutch Mill Drive,48433,43.0600985,-83.8412320
413,Dutch Mill Drive,48433,43.0604761,-83.8422302
429,Dutch Mill Drive,48433,43.0606000,-83.8410040
301,Dutch Mill Drive,48433,43.0607055,-83.8475000
315,Mark Drive,48433,43.0592470,-83.8483235
401,Dutch Mill Drive,48433,43.0604855,-83.8431605
200,Dutch Mill Drive,48433,43.0599201,-83.8483300
401,Cynthia Drive,48433,43.0585260,-83.8510680
201,Dutch Mill Drive,48433,43.0601977,-83.8488042
308,Mark Drive,48433,43.0597865,-83.8489225
312,Mark Drive,48433,43.0595515,-83.8488850
535,Mark Drive,48433,43.0586330,-83.8495960
514,Mark Drive,48433,43.0575623,-83.8499875
534,Mark Drive,48433,43.0584174,-83.8491998
511,Kim Court,48433,43.0581855,-83.8507505
509,Mark Drive,48433,43.0578920,-83.8504485
510,Mark Drive,48433,43.0574835,-83.8502420
526,Mark Drive,48433,43.0580370,-83.8494445
517,Kim Court,48433,43.0583955,-83.8501305
529,Mark Drive,48433,43.0584366,-83.8497787
506,Mark Drive,48433,43.0574680,-83.8505575
304,Mark Drive,48433,43.0599910,-83.8489185
505,Mark Drive,48433,43.0578720,-83.8508145
350,River Woods Drive,48433,43.0617050,-83.8368580
505,Dutch Mill Drive,48433,43.0613250,-83.8395700
333,River Woods Drive,48433,43.0610005,-83.8358550
436,River Woods Drive,48433,43.0588725,-83.8397100
374,River Woods Drive,48433,43.0617400,-83.8380210
422,River Woods Drive,48433,43.0595640,-83.8397880
386,River Woods Drive,48433,43.0616685,-83.8386725
443,River Woods Drive,48433,43.0584345,-83.8390205
440,River Woods Drive,48433,43.0586435,-83.8397165
325,River Woods Drive,48433,43.0614340,-83.8356500
435,River Woods Drive,48433,43.0588790,-83.8390100
402,River Woods Drive,48433,43.0604285,-83.8397605
338,River Woods Drive,48433,43.0617020,-83.8362390
414,River Woods Drive,48433,43.0599605,-83.8397005
432,Dutch Mill Drive,48433,43.0602500,-83.8405605
439,River Woods Drive,48433,43.0586585,-83.8390070
371,River Woods Drive,48433,43.0611175,-83.8378015
357,River Woods Drive,48433,43.0610945,-83.8372095
380,River Woods Drive,48433,43.0616925,-83.8383545
415,River Woods Drive,48433,43.0599735,-83.8390650
432,River Woods Drive,48433,43.0591085,-83.8397585
368,River Woods Drive,48433,43.0617415,-83.8377310
403,River Woods Drive,48433,43.0603945,-83.8390695
409,River Woods Drive,48433,43.0601730,-83.8390505
437,Mark Drive,48433,43.0607785,-83.8404300
431,River Woods Drive,48433,43.0591030,-83.8390295
452,River Woods Drive,48433,43.0579480,-83.8396820
356,River Woods Drive,48433,43.0617185,-83.8371605
326,River Woods Drive,48433,43.0617505,-83.8355335
391,River Woods Drive,48433,43.0607657,-83.8386282
428,River Woods Drive,48433,43.0593250,-83.8398000
363,River Woods Drive,48433,43.0610915,-83.8375095
351,River Woods Drive,48433,43.0609725,-83.8369265
451,River Woods Drive,48433,43.0579665,-83.8390000
436,Dutch Mill Drive,48433,43.0603430,-83.8402605
433,Dutch Mill Drive,48433,43.0606725,-83.8407115
448,River Woods Drive,48433,43.0581845,-83.8396940
362,River Woods Drive,48433,43.0617720,-83.8374340
427,River Woods Drive,48433,43.0593405,-83.8390540
501,Dutch Mill Drive,48433,43.0609880,-83.8400555
423,River Woods Drive,48433,43.0595570,-83.8390200
329,River Woods Drive,48433,43.0612430,-83.8357620
344,River Woods Drive,48433,43.0616995,-83.8365425
397,River Woods Drive,48433,43.0606655,-83.8388560
419,River Woods Drive,48433,43.0597465,-83.8390555
408,River Woods Drive,48433,43.0602305,-83.8397215
379,River Woods Drive,48433,43.0610125,-83.8381125
418,River Woods Drive,48433,43.0597585,-83.8397895
444,River Woods Drive,48433,43.0584100,-83.8396990
447,River Woods Drive,48433,43.0581885,-83.8390505
400,Riverbend Drive,48433,43.0595980,-83.8369150
721,East River Road,48433,43.0575090,-83.8415840
416,Riverbend Drive,48433,43.0583650,-83.8370800
413,Morrish Road,48433,43.0596630,-83.8364205
742,River Edge Court,48433,43.0601900,-83.8382604
825,East River Road,48433,43.0575425,-83.8371030
711,East River Road,48433,43.0574445,-83.8420165
428,Morrish Road,48433,43.0584960,-83.8358475
417,Morrish Road,48433,43.0596075,-83.8357985
337,River Woods Drive,48433,43.0607510,-83.8359995
723,East River Road,48433,43.0575555,-83.8412025
425,Morrish Road,48433,43.0588885,-83.8353905
409,Riverbend Drive,48433,43.0588360,-83.8363460
345,River Woods Drive,48433,43.0601315,-83.8367800
343,River Woods Drive,48433,43.0600530,-83.8359845
404,Riverbend Drive,48433,43.0592070,-83.8370765
731,East River Road,48433,43.0580595,-83.8404610
743,River Edge Court,48433,43.0606141,-83.8375489
750,River Edge Court,48433,43.0601907,-83.8378623
921,East River Road,48433,43.0576420,-83.8350035
736,River Edge Court,48433,43.0603270,-83.8384650
420,Riverbend Drive,48433,43.0580770,-83.8370980
429,Morrish Road,48433,43.0587510,-83.8349360
433,Morrish Road,48433,43.0584960,-83.8346620
437,Morrish Road,48433,43.0582180,-83.8343635
751,River Edge Court,48433,43.0603636,-83.8375906
1001,East River Road,48433,43.0578070,-83.8343430
415,Riverbend Drive,48433,43.0584180,-83.8363735
903,East River Road,48433,43.0576095,-83.8363440
341,River Woods Drive,48433,43.0604735,-83.8360785
408,Riverbend Drive,48433,43.0588780,-83.8371390
419,Riverbend Drive,48433,43.0581005,-83.8363560
432,Morrish Road,48433,43.0581560,-83.8353895
701,East River Road,48433,43.0574080,-83.8423275
421,Morrish Road,48433,43.0591250,-83.8356170
225,Terrace Street,48433,43.0599523,-83.8567419
515,Lynn Street,48433,43.0562705,-83.8611655
216,Terrace Street,48433,43.0606515,-83.8578725
139,Aberdeen Drive,48433,43.0562315,-83.8600935
131,Aberdeen Drive,48433,43.0566950,-83.8601295
218,Terrace Street,48433,43.0604380,-83.8578300
202,Terrace Street,48433,43.0616600,-83.8578540
511,Lynn Street,48433,43.0566020,-83.8610648
317,Arthur Street,48433,43.0577280,-83.8607525
135,Aberdeen Drive,48433,43.0564440,-83.8601100
221,Terrace Street,48433,43.0602215,-83.8572975
214,Terrace Street,48433,43.0608455,-83.8578215
224,Terrace Street,48433,43.0598680,-83.8578890
220,Terrace Street,48433,43.0602590,-83.8578365
211,Terrace Street,48433,43.0607125,-83.8572960
217,Terrace Street,48433,43.0604655,-83.8572950
210,Terrace Street,48433,43.0611742,-83.8579330
208,Terrace Street,48433,43.0613560,-83.8579050
301,Arthur Street,48433,43.0577045,-83.8601865
309,Arthur Street,48433,43.0576965,-83.8604505
227,Terrace Street,48433,43.0598290,-83.8572855
212,Terrace Street,48433,43.0610130,-83.8578130
319,Emily Street,48433,43.0616445,-83.8605630
213,South Seymour Road,48433,43.0613150,-83.8622515
111,South Seymour Road,48433,43.0626053,-83.8621567
431,West Main Street,48433,43.0625981,-83.8617808
215,South Seymour Road,48433,43.0611290,-83.8622140
219,Lynn Street,48433,43.0611150,-83.8605065
123,South McKinley Road,48433,43.0621375,-83.8523572
211,South McKinley Road,48433,43.0611895,-83.8523155
423,Emily Street,48433,43.0616735,-83.8622605
106,Lynn Street,48433,43.0622045,-83.8613795
424,West Main Street,48433,43.0631420,-83.8617230
223,Lynn Street,48433,43.0609455,-83.8605010
400,West Main Street,48433,43.0631415,-83.8608570
403,Emily Street,48433,43.0616955,-83.8611133
406,West Main Street,48433,43.0633078,-83.8611050
215,South McKinley Road,48433,43.0610320,-83.8523315
302,East Main Street,48433,43.0624790,-83.8522418
227,South McKinley Road,48433,43.0606240,-83.8522980
225,South McKinley Road,48433,43.0607655,-83.8522925
226,South McKinley Road,48433,43.0607015,-83.8529550
409,Emily Street,48433,43.0616815,-83.8615115
220,Lynn Street,48433,43.0611410,-83.8612535
216,Lynn Street,48433,43.0613395,-83.8610531
313,Lynn Street,48433,43.0587515,-83.8605215
221,South McKinley Road,48433,43.0608985,-83.8523190
243,South Seymour Road,48433,43.0598135,-83.8618865
213,Lynn Street,48433,43.0613195,-83.8604758
403,West Main Street,48433,43.0627673,-83.8610490
235,South Seymour Road,48433,43.0601315,-83.8620565
415,West Main Street,48433,43.0627340,-83.8614865
241,Lynn Street,48433,43.0600245,-83.8604085
220,Oak Street,48433,43.0607830,-83.8596190
218,Oak Street,48433,43.0608875,-83.8596925
228,Oak Street,48433,43.0604075,-83.8596210
221,Oak Street,48433,43.0602530,-83.8590530
225,Oak Street,48433,43.0598390,-83.8589765
230,Lynn Street,48433,43.0605175,-83.8610120
300,Emily Street,48433,43.0620534,-83.8596227
230,Oak Street,48433,43.0601625,-83.8598203
240,Lynn Street,48433,43.0601496,-83.8610326
237,Lynn Street,48433,43.0602607,-83.8605044
243,Lynn Street,48433,43.0598510,-83.8605185
224,Oak Street,48433,43.0606020,-83.8595735
316,Oak Street,48433,43.0589350,-83.8602345
247,Lynn Street,48433,43.0595590,-83.8604180
219,Oak Street,48433,43.0604431,-83.8589549
236,Lynn Street,48433,43.0603215,-83.8610110
223,Oak Street,48433,43.0600170,-83.8590365
317,Lynn Street,48433,43.0585185,-83.8605160
308,Emily Street,48433,43.0620828,-83.8599235
310,Oak Street,48433,43.0593005,-83.8596365
227,Lynn Street,48433,43.0606243,-83.8605244
209,Oak Street,48433,43.0611645,-83.8589355
217,Oak Street,48433,43.0606609,-83.8588975
215,Oak Street,48433,43.0609810,-83.8588945
309,Lynn Street,48433,43.0592460,-83.8605060
227,Emily Street,48433,43.0616510,-83.8590930
246,Lynn Street,48433,43.0597980,-83.8610845
217,Emily Street,48433,43.0616415,-83.8584800
303,Emily Street,48433,43.0616555,-83.8595790
305,Oak Street,48433,43.0594625,-83.8589315
306,Oak Street,48433,43.0595560,-83.8595560
312,Oak Street,48433,43.0588010,-83.8596335
311,Emily Street,48433,43.0616680,-83.8601160
314,Oak Street,48433,43.0588000,-83.8599340
318,Emily Street,48433,43.0620979,-83.8605203
230,Terrace Street,48433,43.0593800,-83.8577860
205,Oak Street,48433,43.0613890,-83.8589905
124,North Beech Street,48433,43.0640480,-83.8506015
117,North McKinley Road,48433,43.0637300,-83.8529590
306,North McKinley Road,48433,43.0658661,-83.8523577
401,Elm Street,48433,43.0644612,-83.8506398
330,North McKinley Road,48433,43.0667410,-83.8523275
310,East Main Street,48433,43.0626965,-83.8518700
332,North McKinley Road,48433,43.0668971,-83.8523355
400,East Main Street,48433,43.0627585,-83.8505910
401,East Main Street,48433,43.0632085,-83.8506275
309,Elm Street,48433,43.0644160,-83.8515090
412,North McKinley Road,48433,43.0686125,-83.8523820
108,North Beech Street,48433,43.0633929,-83.8506095
118,North Beech Street,48433,43.0638024,-83.8503989
402,Elm Street,48433,43.0640730,-83.8501545
222,North McKinley Road,48433,43.0652880,-83.8523285
404,North McKinley Road,48433,43.0677585,-83.8523940
310,North McKinley Road,48433,43.0660209,-83.8523400
326,North McKinley Road,48433,43.0666000,-83.8523125
303,Elm Street,48433,43.0644380,-83.8519530
413,East Main Street,48433,43.0633655,-83.8497265
302,North McKinley Road,48433,43.0656647,-83.8523325
202,North McKinley Road,48433,43.0644145,-83.8523105
402,East Main Street,48433,43.0627895,-83.8503630
402,North McKinley Road,48433,43.0674792,-83.8523627
406,North McKinley Road,48433,43.0679960,-83.8523715
320,North McKinley Road,48433,43.0664435,-83.8523153
506,North McKinley Road,48433,43.0695180,-83.8523475
318,North McKinley Road,48433,43.0663120,-83.8523490
320,East Main Street,48433,43.0627485,-83.8513510
405,East Main Street,48433,43.0632005,-83.8503705
203,North Hazelton Street,48433,43.0644435,-83.8494330
307,Elm Street,48433,43.0644550,-83.8516805
315,Elm Street,48433,43.0644628,-83.8511350
406,East Main Street,48433,43.0628035,-83.8499740
407,Elm Street,48433,43.0644250,-83.8499385
316,East Main Street,48433,43.0627311,-83.8515704
324,East Main Street,48433,43.0627535,-83.8511620
210,North McKinley Road,48433,43.0647980,-83.8523780
404,East Main Street,48433,43.0627905,-83.8501815
112,North Beech Street,48433,43.0635520,-83.8506175
206,North McKinley Road,48433,43.0645780,-83.8523725
214,North McKinley Road,48433,43.0649880,-83.8523235
510,North McKinley Road,48433,43.0698725,-83.8521745
405,Elm Street,48433,43.0644360,-83.8502825
408,East Main Street,48433,43.0627845,-83.8498220
310,Chamberlain Street,48433,43.0652440,-83.8515604
207,North Hazelton Street,48433,43.0646235,-83.8494210
221,North Beech Street,48433,43.0652766,-83.8511350
210,North Beech Street,48433,43.0648097,-83.8505937
206,North Beech Street,48433,43.0646485,-83.8505960
406,Chamberlain Street,48433,43.0652687,-83.8498700
402,Chamberlain Street,48433,43.0652705,-83.8501345
211,North Hazelton Street,48433,43.0648160,-83.8494210
205,North Beech Street,48433,43.0646250,-83.8511440
306,Chamberlain Street,48433,43.0652425,-83.8519090
222,North Beech Street,48433,43.0652790,-83.8506560
213,North Beech Street,48433,43.0649755,-83.8511405
217,North Beech Street,48433,43.0651295,-83.8511215
214,North Beech Street,48433,43.0649775,-83.8505840
209,North Beech Street,48433,43.0648520,-83.8511511
217,North Hazelton Street,48433,43.0650735,-83.8494400
308,Mill Street,48433,43.0614713,-83.8515325
300,Mill Street,48433,43.0615334,-83.8523634
505,Mill Street,48433,43.0621435,-83.8483771
113,South Beech Street,48433,43.0624380,-83.8505585
124,South Beech Street,48433,43.0618940,-83.8511055
404,Mill Street,48433,43.0615441,-83.8503850
107,South Hazelton Street,48433,43.0625615,-83.8487950
301,Mill Street,48433,43.0618745,-83.8522845
118,South Hazelton Street,48433,43.0621655,-83.8493235
124,South Hazelton Street,48433,43.0619530,-83.8493450
400,Mill Street,48433,43.0615345,-83.8508240
110,South Hazelton Street,48433,43.0624170,-83.8493770
123,South Beech Street,48433,43.0619070,-83.8506047
417,Mill Street,48433,43.0619200,-83.8496840
125,South Hazelton Street,48433,43.0619715,-83.8488000
115,South Hazelton Street,48433,43.0623165,-83.8488230
409,Mill Street,48433,43.0619125,-83.8500990
304,Mill Street,48433,43.0615117,-83.8520900
500,East Main Street,48433,43.0627750,-83.8488245
402,Mill Street,48433,43.0615306,-83.8506567
114,South Hazelton Street,48433,43.0622975,-83.8493445
111,South Hazelton Street,48433,43.0624585,-83.8488585
310,Mill Street,48433,43.0615255,-83.8513751
119,South Beech Street,48433,43.0620725,-83.8505815
118,South Beech Street,48433,43.0621125,-83.8511150
312,Mill Street,48433,43.0615446,-83.8511125
412,East Main Street,48433,43.0628190,-83.8493150
110,South Beech Street,48433,43.0624280,-83.8511660
114,South Beech Street,48433,43.0622720,-83.8511135
119,South Hazelton Street,48433,43.0621315,-83.8487940
406,Mill Street,48433,43.0615438,-83.8501048
515,Mill Street,48433,43.0623980,-83.8476335
415,Mill Street,48433,43.0619115,-83.8498945
509,Mill Street,48433,43.0622515,-83.8481290
410,Mill Street,48433,43.0614665,-83.8498460
115,South Beech Street,48433,43.0622570,-83.8505775
306,Mill Street,48433,43.0615178,-83.8518620
311,Mill Street,48433,43.0619050,-83.8518430
315,Mill Street,48433,43.0619115,-83.8515720
108,South Hazelton Street,48433,43.0625280,-83.8493460
410,East Main Street,48433,43.0628060,-83.8494880
113,Mary Street,48433,43.0643335,-83.8571358
129,North Maple Street,48433,43.0640400,-83.8563695
105,Mary Street,48433,43.0643110,-83.8568040
217,West Main Street,48433,43.0628082,-83.8587715
518,East Main Street,48433,43.0627760,-83.8473690
213,West Main Street,48433,43.0628035,-83.8584950
213,George Street,48433,43.0653760,-83.8583815
105,Terrace Street,48433,43.0624410,-83.8572990
117,Mary Street,48433,43.0643330,-83.8573630
124,Mary Street,48433,43.0647231,-83.8578561
112,Mary Street,48433,43.0647630,-83.8571060
206,George Street,48433,43.0650245,-83.8578340
315,West Main Street,48433,43.0626860,-83.8599625
116,Mary Street,48433,43.0648075,-83.8573355
221,West Main Street,48433,43.0627750,-83.8590220
319,West Main Street,48433,43.0627339,-83.8602183
103,Elm Street,48433,43.0644345,-83.8558156
108,Mary Street,48433,43.0647255,-83.8568160
137,North Maple Street,48433,43.0643710,-83.8563640
520,East Main Street,48433,43.0627925,-83.8471085
204,Mary Street,48433,43.0647240,-83.8583070
209,West Main Street,48433,43.0627911,-83.8582622
508,East Main Street,48433,43.0627477,-83.8481470
131,North Maple Street,48433,43.0641925,-83.8563903
226,Emily Street,48433,43.0622181,-83.8589248
205,West Main Street,48433,43.0628050,-83.8580270
104,Terrace Street,48433,43.0626663,-83.8578195
506,East Main Street,48433,43.0627530,-83.8483523
120,Mary Street,48433,43.0647476,-83.8575672
210,George Street,48433,43.0652206,-83.8578543
114,Terrace Street,48433,43.0622180,-83.8585615
514,East Main Street,48433,43.0627850,-83.8475715
510,East Main Street,48433,43.0627615,-83.8478833
409,Chamberlain Street,48433,43.0660916,-83.8500325
313,Myrtle Street,48433,43.0660125,-83.8517159
193,Coutant Street,48433,43.0674420,-83.8549975
407,Coutant Street,48433,43.0675601,-83.8503524
503,Coutant Street,48433,43.0674795,-83.8490568
189,Coutant Street,48433,43.0674427,-83.8553045
319,Myrtle Street,48433,43.0664030,-83.8517640
296,Coutant Street,48433,43.0669738,-83.8535981
335,North McKinley Road,48433,43.0670450,-83.8530396
181,Coutant Street,48433,43.0674570,-83.8558222
405,Coutant Street,48433,43.0675917,-83.8507490
185,Coutant Street,48433,43.0674558,-83.8555540
310,Myrtle Street,48433,43.0660182,-83.8512508
194,Coutant Street,48433,43.0670140,-83.8552380
415,Coutant Street,48433,43.0675429,-83.8494375
200,Coutant Street,48433,43.0669606,-83.8544343
308,Myrtle Street,48433,43.0658816,-83.8512659
395,Coutant Street,48433,43.0674680,-83.8520605
309,Myrtle Street,48433,43.0658667,-83.8517346
320,Myrtle Street,48433,43.0664159,-83.8512750
299,Coutant Street,48433,43.0674494,-83.8536592
199,Coutant Street,48433,43.0674695,-83.8544610
397,Coutant Street,48433,43.0675485,-83.8517975
288,Coutant Street,48433,43.0669534,-83.8541430
295,Coutant Street,48433,43.0674606,-83.8539210
329,Myrtle Street,48433,43.0666877,-83.8517344
404,Coutant Street,48433,43.0670202,-83.8508680
330,Myrtle Street,48433,43.0668080,-83.8512810
324,Myrtle Street,48433,43.0665470,-83.8512266
318,Coutant Street,48433,43.0670360,-83.8517000
315,Myrtle Street,48433,43.0662651,-83.8517834
505,Coutant Street,48433,43.0675342,-83.8488173
400,Coutant Street,48433,43.0669750,-83.8512745
401,Coutant Street,48433,43.0675320,-83.8511755
197,Coutant Street,48433,43.0674421,-83.8547334
403,North McKinley Road,48433,43.0674713,-83.8532335
336,North McKinley Road,48433,43.0670760,-83.8523855
331,Myrtle Street,48433,43.0668194,-83.8517610
291,Coutant Street,48433,43.0674536,-83.8542020
314,Myrtle Street,48433,43.0662615,-83.8512481
328,Myrtle Street,48433,43.0666825,-83.8512931
399,Coutant Street,48433,43.0675840,-83.8514865
198,Coutant Street,48433,43.0669620,-83.8547170
411,Coutant Street,48433,43.0676050,-83.8500012
338,North Maple Street,48433,43.0670940,-83.8559505
292,Coutant Street,48433,43.0669320,-83.8538695
473,Deland Road,48433,43.0698856,-83.8431138
455,Deland Road,48433,43.0692452,-83.8430808
139,Brookside Drive,48433,43.0623600,-83.8647993
137,Brookside Drive,48433,43.0625584,-83.8650540
135,Brookside Drive,48433,43.0626872,-83.8653364
133,Brookside Drive,48433,43.0628790,-83.8656036
131,Brookside Drive,48433,43.0630787,-83.8657561
227,Brookside Drive,48433,43.0632879,-83.8659905
225,Brookside Drive,48433,43.0634963,-83.8661293
222,Brookside Drive,48433,43.0631120,-83.8667687
226,Brookside Drive,48433,43.0629577,-83.8665444
190,Primrose Lane,48433,43.0626944,-83.8663091
143,Brookside Drive,48433,43.0621314,-83.8645190
201,Brookside Drive,48433,43.0618458,-83.8642209
206,Brookside Drive,48433,43.0616467,-83.8651848
210,Brookside Drive,48433,43.0613011,-83.8652383
215,Brookside Drive,48433,43.0610531,-83.8644918
211,Brookside Drive,48433,43.0613126,-83.8643748
207,Brookside Drive,48433,43.0615756,-83.8643288
214,Brookside Drive,48433,43.0610474,-83.8653166
224,Brookside Drive,48433,43.0605378,-83.8653833
228,Brookside Drive,48433,43.0602285,-83.8654170
232,Brookside Drive,48433,43.0600059,-83.8654128
233,Brookside Drive,48433,43.0599814,-83.8645558
229,Brookside Drive,48433,43.0602607,-83.8645820
223,Brookside Drive,48433,43.0605027,-83.8645438
219,Brookside Drive,48433,43.0607697,-83.8645502
218,Brookside Drive,48433,43.0607844,-83.8653409
142,Brookside Drive,48433,43.0620255,-83.8654981
195,Primrose Lane,48433,43.0622927,-83.8659484
165,Industrial Drive,48433,43.0677642,-83.8656144
425,South Seymour Road,48433,43.0572322,-83.8620349
175,Industrial Drive,48433,43.0683116,-83.8665158
422,Joyce Drive,48433,43.0680606,-83.8446409
392,River Woods Drive,48433,43.0616043,-83.8390253
522,North McKinley Road,48433,43.0704688,-83.8520617
606,North McKinley Road,48433,43.0730897,-83.8522970
104,Mary Street,48433,43.0647412,-83.8565374
315,North Maple Street,48433,43.0660323,-83.8563392
103,West Henry Street,48433,43.0660012,-83.8566839
107,West Henry Street,48433,43.0659864,-83.8569782
115,West Henry Street,48433,43.0659902,-83.8573410
119,West Henry Street,48433,43.0659815,-83.8575176
218,George Street,48433,43.0656432,-83.8578318
214,George Street,48433,43.0654408,-83.8578695
125,West Henry Street,48433,43.0659279,-83.8578429
121,Mary Street,48433,43.0643350,-83.8575830
208,North Maple Street,48433,43.0647579,-83.8557677
214,North Maple Street,48433,43.0649851,-83.8558055
306,North Maple Street,48433,43.0656846,-83.8557742
310,North Maple Street,48433,43.0658537,-83.8557882
316,North Maple Street,48433,43.0660118,-83.8557591
114,East Henry Street,48433,43.0660172,-83.8553925
315,North Cherry Street,48433,43.0660512,-83.8546334
311,North Cherry Street,48433,43.0658748,-83.8546094
307,North Cherry Street,48433,43.0657238,-83.8546159
303,North Cherry Street,48433,43.0655431,-83.8546046
221,North Cherry Street,48433,43.0653544,-83.8546935
217,North Cherry Street,48433,43.0651718,-83.8546130
213,North Cherry Street,48433,43.0649483,-83.8546276
209,North Cherry Street,48433,43.0647904,-83.8546578
207,North Cherry Street,48433,43.0646607,-83.8545949
203,North Cherry Street,48433,43.0644797,-83.8546352
111,Elm Street,48433,43.0644573,-83.8548989
109,Elm Street,48433,43.0644456,-83.8551331
105,Elm Street,48433,43.0644403,-83.8554165
307,Chamberlain Street,48433,43.0656204,-83.8517053
303,Chamberlain Street,48433,43.0656262,-83.8520542
311,Chamberlain Street,48433,43.0656318,-83.8512828
315,Chamberlain Street,48433,43.0656601,-83.8510911
319,Chamberlain Street,48433,43.0657370,-83.8508997
333,North McKinley Road,48433,43.0668177,-83.8530334
215,East Henry Street,48433,43.0664840,-83.8531778
319,North McKinley Road,48433,43.0664674,-83.8529301
211,East Henry Street,48433,43.0665501,-83.8535722
207,East Henry Street,48433,43.0665394,-83.8539717
205,East Henry Street,48433,43.0665519,-83.8543138
115,East Henry Street,48433,43.0665683,-83.8547694
113,East Henry Street,48433,43.0666415,-83.8552607
101,East Henry Street,48433,43.0666449,-83.8558529
335,North Maple Street,48433,43.0670469,-83.8563696
102,West Henry Street,48433,43.0664036,-83.8562764
104,West Henry Street,48433,43.0663832,-83.8565930
106,West Henry Street,48433,43.0664599,-83.8568609
110,West Henry Street,48433,43.0664097,-83.8571718
112,West Henry Street,48433,43.0665143,-83.8574370
116,West Henry Street,48433,43.0663677,-83.8576164
124,West Henry Street,48433,43.0663586,-83.8578857
324,George Street,48433,43.0669354,-83.8579032
217,George Street,48433,43.0655768,-83.8583400
219,George Street,48433,43.0658327,-83.8584526
225,George Street,48433,43.0659774,-83.8583791
213,West Henry Street,48433,43.0659778,-83.8590377
219,West Henry Street,48433,43.0656924,-83.8602531
300,West Henry Street,48433,43.0660457,-83.8617412
216,West Henry Street,48433,43.0664558,-83.8597776
212,West Henry Street,48433,43.0663121,-83.8588426
303,George Street,48433,43.0663522,-83.8583687
307,George Street,48433,43.0665435,-83.8583614
311,George Street,48433,43.0667051,-83.8583962
317,George Street,48433,43.0669661,-83.8584049
401,George Street,48433,43.0672732,-83.8583354
405,George Street,48433,43.0674580,-83.8582089
409,George Street,48433,43.0677876,-83.8582246
419,George Street,48433,43.0680263,-83.8582215
211,West Park Avenue,48433,43.0681041,-83.8584966
217,West Park Avenue,48433,43.0680962,-83.8587696
412,Sharon Drive,48433,43.0680626,-83.8590648
408,Sharon Drive,48433,43.0677825,-83.8590688
404,Sharon Drive,48433,43.0675421,-83.8591876
400,Sharon Drive,48433,43.0674192,-83.8594642
403,Sharon Drive,48433,43.0674673,-83.8598255
407,Sharon Drive,48433,43.0676426,-83.8601422
411,Sharon Drive,48433,43.0678920,-83.8601153
415,Sharon Drive,48433,43.0680902,-83.8598992
419,Sharon Drive,48433,43.0682420,-83.8596944
501,Sharon Drive,48433,43.0684749,-83.8595779
505,Sharon Drive,48433,43.0686707,-83.8595218
402,George Street,48433,43.0672476,-83.8576235
404,George Street,48433,43.0674544,-83.8576221
406,George Street,48433,43.0676417,-83.8576068
410,George Street,48433,43.0679003,-83.8576533
111,West Park Avenue,48433,43.0679197,-83.8573636
107,West Park Avenue,48433,43.0679098,-83.8570875
105,West Park Avenue,48433,43.0679012,-83.8568092
169,Circle Drive,48433,43.0679047,-83.8564796
165,Circle Drive,48433,43.0676444,-83.8564382
161,Circle Drive,48433,43.0673442,-83.8564393
725,East Main Street,48433,43.0642774,-83.8419412
723,East Main Street,48433,43.0644987,-83.8412544
500,Sharon Drive,48433,43.0685375,-83.8589471
220,West Park Avenue,48433,43.0685152,-83.8586875
214,West Park Avenue,48433,43.0685355,-83.8584415
210,West Park Avenue,48433,43.0685457,-83.8581499
206,West Park Avenue,48433,43.0685543,-83.8578744
411,James Connis Street,48433,43.0686175,-83.8575677
415,James Connis Street,48433,43.0688890,-83.8576696
513,James Connis Street,48433,43.0691229,-83.8576489
517,James Connis Street,48433,43.0693249,-83.8576442
521,James Connis Street,48433,43.0695464,-83.8576811
525,James Connis Street,48433,43.0698400,-83.8576587
201,Darcey Lane,48433,43.0700961,-83.8579926
205,Darcey Lane,48433,43.0701373,-83.8584463
209,Darcey Lane,48433,43.0700723,-83.8588538
520,Sharon Drive,48433,43.0697344,-83.8587517
516,Sharon Drive,48433,43.0695103,-83.8587708
512,Sharon Drive,48433,43.0692918,-83.8587325
508,Sharon Drive,48433,43.0690584,-83.8587847
504,Sharon Drive,48433,43.0688280,-83.8587723
509,Sharon Drive,48433,43.0688617,-83.8594860
523,Sharon Drive,48433,43.0690764,-83.8594531
527,Sharon Drive,48433,43.0692858,-83.8594438
531,Sharon Drive,48433,43.0694783,-83.8594717
537,Sharon Drive,48433,43.0697897,-83.8595607
543,Sharon Drive,48433,43.0700765,-83.8597919
547,Sharon Drive,48433,43.0705431,-83.8596168
216,Darcey Lane,48433,43.0706139,-83.8592873
212,Darcey Lane,48433,43.0706201,-83.8588978
208,Darcey Lane,48433,43.0706072,-83.8585016
204,Darcey Lane,48433,43.0705965,-83.8581375
200,Darcey Lane,48433,43.0705301,-83.8576552
101,Auker Court,48433,43.0706814,-83.8570901
109,Auker Court,48433,43.0702632,-83.8568763
532,James Connis Street,48433,43.0700566,-83.8570859
528,James Connis Street,48433,43.0697748,-83.8570266
524,James Connis Street,48433,43.0695417,-83.8570132
520,James Connis Street,48433,43.0693228,-83.8569447
516,James Connis Street,48433,43.0691099,-83.8570192
418,James Connis Street,48433,43.0689074,-83.8570104
416,James Connis Street,48433,43.0687030,-83.8569923
414,James Connis Street,48433,43.0685142,-83.8570043
108,West Park Avenue,48433,43.0683201,-83.8569385
175,Circle Drive,48433,43.0683865,-83.8564752
181,Circle Drive,48433,43.0687130,-83.8564033
185,Circle Drive,48433,43.0689304,-83.8562748
189,Circle Drive,48433,43.0691518,-83.8561292
301,Crescent Place,48433,43.0693309,-83.8564098
305,Crescent Place,48433,43.0695958,-83.8563549
309,Crescent Place,48433,43.0698711,-83.8564073
313,Crescent Place,48433,43.0700743,-83.8564200
317,Crescent Place,48433,43.0703127,-83.8563913
321,Crescent Place,48433,43.0705793,-83.8562931
325,Crescent Place,48433,43.0706493,-83.8559276
329,Crescent Place,48433,43.0706786,-83.8555599
333,Crescent Place,48433,43.0706236,-83.8551815
334,Crescent Place,48433,43.0703453,-83.8551418
330,Crescent Place,48433,43.0701677,-83.8554266
322,Crescent Place,48433,43.0701759,-83.8557931
310,Crescent Place,48433,43.0698954,-83.8557863
304,Crescent Place,48433,43.0696555,-83.8557431
302,Crescent Place,48433,43.0693878,-83.8556443
197,Circle Drive,48433,43.0694445,-83.8553481
513,North McKinley Road,48433,43.0702810,-83.8541554
533,North McKinley Road,48433,43.0707938,-83.8536944
531,North McKinley Road,48433,43.0707477,-83.8531091
527,North McKinley Road,48433,43.0704721,-83.8533373
525,North McKinley Road,48433,43.0701824,-83.8531853
201,Circle Drive,48433,43.0694611,-83.8550813
205,Circle Drive,48433,43.0693883,-83.8547748
301,Schillman Place,48433,43.0696925,-83.8547681
305,Schillman Place,48433,43.0697846,-83.8544245
309,Schillman Place,48433,43.0697367,-83.8540617
313,Schillman Place,48433,43.0695063,-83.8539663
215,Circle Drive,48433,43.0692815,-83.8541602
509,North McKinley Road,48433,43.0698226,-83.8531513
505,North McKinley Road,48433,43.0695964,-83.8531842
501,North McKinley Road,48433,43.0693726,-83.8531412
229,Circle Drive,48433,43.0692002,-83.8532074
225,Circle Drive,48433,43.0692329,-83.8535775
221,Circle Drive,48433,43.0692394,-83.8538722
105,Auker Court,48433,43.0705082,-83.8568232
178,East Park Avenue,48433,43.0678898,-83.8558376
182,East Park Avenue,48433,43.0679369,-83.8555608
186,East Park Avenue,48433,43.0679461,-83.8553226
190,East Park Avenue,48433,43.0679260,-83.8550004
198,East Park Avenue,48433,43.0679047,-83.8547316
216,East Park Avenue,48433,43.0679515,-83.8543222
220,East Park Avenue,48433,43.0679579,-83.8539162
224,East Park Avenue,48433,43.0679335,-83.8536389
407,North McKinley Road,48433,43.0679580,-83.8531795
405,North McKinley Road,48433,43.0677715,-83.8531447
409,North McKinley Road,48433,43.0685227,-83.8531751
411,North McKinley Road,48433,43.0687929,-83.8531287
224,Circle Drive,48433,43.0687696,-83.8536732
220,Circle Drive,48433,43.0688312,-83.8540479
216,Circle Drive,48433,43.0688528,-83.8543698
225,East Park Avenue,48433,43.0683871,-83.8537197
217,East Park Avenue,48433,43.0683932,-83.8541632
207,East Park Avenue,48433,43.0683604,-83.8544987
195,East Park Avenue,48433,43.0683654,-83.8547501
191,East Park Avenue,48433,43.0683526,-83.8550062
189,East Park Avenue,48433,43.0683760,-83.8553070
185,East Park Avenue,48433,43.0683531,-83.8555785
181,East Park Avenue,48433,43.0683613,-83.8558510
188,Circle Drive,48433,43.0686927,-83.8557850
192,Circle Drive,48433,43.0688723,-83.8556037
198,Circle Drive,48433,43.0689836,-83.8553232
204,Circle Drive,48433,43.0690003,-83.8550075
210,Circle Drive,48433,43.0689304,-83.8546964
408,North McKinley Road,48433,43.0682885,-83.8518019
409,Coutant Street,48433,43.0690422,-83.8502432
413,Coutant Street,48433,43.0689507,-83.8496413
401,Hut-West Drive,48433,43.0674913,-83.8483802
409,Hut-West Drive,48433,43.0678771,-83.8484066
485,Hut-West Drive,48433,43.0681674,-83.8487518
489,Hut-West Drive,48433,43.0684472,-83.8484601
493,Hut-West Drive,48433,43.0688126,-83.8488023
492,Hut-West Drive,48433,43.0690359,-83.8481963
496,Hut-West Drive,48433,43.0692763,-83.8483010
497,Hut-West Drive,48433,43.0693320,-83.8490164
500,Hut-West Drive,48433,43.0697248,-83.8482736
501,Hut-West Drive,48433,43.0696969,-83.8489359
504,Hut-West Drive,48433,43.0700726,-83.8482788
507,Hut-West Drive,48433,43.0700593,-83.8489919
509,Hut-West Drive,48433,43.0704428,-83.8489781
513,Hut-West Drive,48433,43.0707960,-83.8490662
517,Hut-West Drive,48433,43.0711051,-83.8489550
521,Hut-West Drive,48433,43.0714560,-83.8489578
525,Hut-West Drive,48433,43.0717805,-83.8489657
331,Hamms Lane,48433,43.0709148,-83.8508425
548,North McKinley Road,48433,43.0711354,-83.8512489
341,Hamms Lane,48433,43.0709032,-83.8517229
538,North McKinley Road,48433,43.0709445,-83.8522596
542,North McKinley Road,48433,43.0711078,-83.8525277
552,North McKinley Road,48433,43.0715955,-83.8500147
546,North McKinley Road,48433,43.0712464,-83.8524319
550,North McKinley Road,48433,43.0714675,-83.8524319
554,North McKinley Road,48433,43.0718423,-83.8524287
558,North McKinley Road,48433,43.0720956,-83.8523828
562,North McKinley Road,48433,43.0722421,-83.8523649
568,North McKinley Road,48433,43.0723673,-83.8523995
620,North McKinley Road,48433,43.0734761,-83.8523823
626,North McKinley Road,48433,43.0737929,-83.8522818
618,South Seymour Road,48433,43.0529493,-83.8632554
320,Highlane Drive,48433,43.0735953,-83.8496384
529,Hut-West Drive,48433,43.0721262,-83.8489692
533,Hut-West Drive,48433,43.0724376,-83.8490124
601,Hut-West Drive,48433,43.0727380,-83.8489936
605,Hut-West Drive,48433,43.0730961,-83.8489650
609,Hut-West Drive,48433,43.0733804,-83.8490084
613,Hut-West Drive,48433,43.0736882,-83.8490512
617,Hut-West Drive,48433,43.0740430,-83.8489049
501,Daniel Avenue,48433,43.0743767,-83.8486484
507,Daniel Avenue,48433,43.0743561,-83.8480256
513,Daniel Avenue,48433,43.0743048,-83.8476999
519,Daniel Avenue,48433,43.0742734,-83.8472484
525,Daniel Avenue,48433,43.0742589,-83.8468238
616,Shawnesee Avenue,48433,43.0740979,-83.8463266
612,Shawnesee Avenue,48433,43.0737683,-83.8461886
608,West Carpenter Road,48433,43.0744691,-83.8459260
612,West Carpenter Road,48433,43.0743515,-83.8455761
616,West Carpenter Road,48433,43.0743542,-83.8452265
620,West Carpenter Road,48433,43.0743550,-83.8449241
624,West Carpenter Road,48433,43.0744298,-83.8445828
628,West Carpenter Road,48433,43.0744445,-83.8442341
632,West Carpenter Road,48433,43.0744867,-83.8438965
639,Deland Road,48433,43.0742706,-83.8433370
628,Northwood Drive,48433,43.0740051,-83.8435453
624,Northwood Drive,48433,43.0740078,-83.8438818
620,Northwood Drive,48433,43.0740000,-83.8441796
616,Northwood Drive,48433,43.0740047,-83.8444777
612,Northwood Drive,48433,43.0739799,-83.8448054
608,Northwood Drive,48433,43.0738382,-83.8450876
600,Northwood Drive,48433,43.0734597,-83.8454404
611,Northwood Drive,48433,43.0734765,-83.8447199
615,Northwood Drive,48433,43.0735500,-83.8443818
619,Northwood Drive,48433,43.0735742,-83.8440768
623,Northwood Drive,48433,43.0735710,-83.8437869
627,Northwood Drive,48433,43.0735689,-83.8434751
631,Northwood Drive,48433,43.0735471,-83.8432071
605,Deland Road,48433,43.0727958,-83.8432619
601,Deland Road,48433,43.0726379,-83.8433710
608,Shawnesee Avenue,48433,43.0734595,-83.8461390
604,Shawnesee Avenue,48433,43.0731999,-83.8461520
600,Shawnesee Avenue,48433,43.0729234,-83.8461663
526,Shawnesee Avenue,48433,43.0724595,-83.8462597
520,Rodney Avenue,48433,43.0723569,-83.8469887
514,Rodney Avenue,48433,43.0724077,-83.8474490
508,Rodney Avenue,48433,43.0723658,-83.8478579
500,Rodney Avenue,48433,43.0723644,-83.8482767
505,Rodney Avenue,48433,43.0729149,-83.8481716
604,Hut-West Drive,48433,43.0731767,-83.8482117
601,Shawnesee Avenue,48433,43.0729204,-83.8471719
605,Shawnesee Avenue,48433,43.0731695,-83.8471668
609,Shawnesee Avenue,48433,43.0734489,-83.8471479
508,Daniel Avenue,48433,43.0737178,-83.8473910
500,Daniel Avenue,48433,43.0737017,-83.8481838
608,Hut-West Drive,48433,43.0734382,-83.8482231
524,Hut-West Drive,48433,43.0718902,-83.8482678
520,Hut-West Drive,48433,43.0715565,-83.8482967
516,Hut-West Drive,48433,43.0711897,-83.8482910
512,Hut-West Drive,48433,43.0708719,-83.8482929
508,Hut-West Drive,48433,43.0704735,-83.8482439
545,Deland Road,48433,43.0724788,-83.8432859
541,Deland Road,48433,43.0723091,-83.8432537
537,Deland Road,48433,43.0721490,-83.8432692
529,Deland Road,48433,43.0715128,-83.8432413
525,Deland Road,48433,43.0713350,-83.8433443
513,Deland Road,48433,43.0709066,-83.8433746
521,Deland Road,48433,43.0710886,-83.8433385
509,Deland Road,48433,43.0706747,-83.8432965
505,Deland Road,48433,43.0704811,-83.8432919
475,Deland Road,48433,43.0701079,-83.8438076
501,Deland Road,48433,43.0702323,-83.8431578
477,Deland Road,48433,43.0701121,-83.8431027
469,Deland Road,48433,43.0697112,-83.8431359
451,Deland Road,48433,43.0690776,-83.8430581
437,Deland Road,48433,43.0686738,-83.8430748
431,Deland Road,48433,43.0684295,-83.8431020
427,Deland Road,48433,43.0682197,-83.8431281
423,Deland Road,48433,43.0679820,-83.8431628
415,Deland Road,48433,43.0676929,-83.8431479
641,Coutant Street,48433,43.0674980,-83.8431052
635,Coutant Street,48433,43.0675588,-83.8436066
631,Coutant Street,48433,43.0674887,-83.8441739
627,Coutant Street,48433,43.0674987,-83.8444044
625,Coutant Street,48433,43.0674881,-83.8446476
621,Coutant Street,48433,43.0675420,-83.8452208
421,Joyce Drive,48433,43.0678471,-83.8452573
423,Joyce Drive,48433,43.0680715,-83.8452548
420,Joyce Drive,48433,43.0678712,-83.8445994
424,Joyce Drive,48433,43.0682480,-83.8445603
426,Joyce Drive,48433,43.0684466,-83.8445142
428,Joyce Drive,48433,43.0687917,-83.8445702
435,Joyce Drive,48433,43.0691104,-83.8451239
429,Joyce Drive,48433,43.0686123,-83.8452593
427,Joyce Drive,48433,43.0684245,-83.8452638
425,Joyce Drive,48433,43.0682389,-83.8452582
208,North Cherry Street,48433,43.0646545,-83.8541285
316,North Seymour Road,48433,43.0671462,-83.8665033
309,North Seymour Road,48433,43.0662293,-83.8665704
301,North Seymour Road,48433,43.0658342,-83.8661551
300,North Seymour Road,48433,43.0661726,-83.8653516
308,North Seymour Road,48433,43.0666009,-83.8659101
312,North Seymour Road,48433,43.0668235,-83.8661656
204,North Seymour Road,48433,43.0653257,-83.8645704
200,North Seymour Road,48433,43.0652615,-83.8641724
131,North Seymour Road,48433,43.0644894,-83.8643659
127,North Seymour Road,48433,43.0642065,-83.8640392
119,North Seymour Road,48433,43.0636875,-83.8634573
115,North Seymour Road,48433,43.0634872,-83.8632297
108,North Seymour Road,48433,43.0635289,-83.8625433
105,North Seymour Road,48433,43.0632956,-83.8630319
110,South Seymour Road,48433,43.0626322,-83.8627407
120,South Seymour Road,48433,43.0621534,-83.8626558
227,South Seymour Road,48433,43.0603201,-83.8621040
305,South Seymour Road,48433,43.0593370,-83.8620121
309,South Seymour Road,48433,43.0591174,-83.8620562
349,South Seymour Road,48433,43.0587162,-83.8618786
312,South Seymour Road,48433,43.0586538,-83.8627190
355,South Seymour Road,48433,43.0580763,-83.8619268
418,South Seymour Road,48433,43.0573131,-83.8627131
429,South Seymour Road,48433,43.0568531,-83.8621409
218,South Cherry Street,48433,43.0615575,-83.8545896
487,Windy Bluff Street,48433,43.0537948,-83.8654961
483,Windy Bluff Street,48433,43.0539639,-83.8652959
479,Windy Bluff Street,48433,43.0541209,-83.8651303
475,Windy Bluff Street,48433,43.0543369,-83.8649413
471,Windy Bluff Street,48433,43.0545140,-83.8647820
460,Windy Bluff Street,48433,43.0551132,-83.8649827
448,Windy Bluff Street,48433,43.0556944,-83.8651110
444,Windy Bluff Street,48433,43.0558886,-83.8652438
440,Windy Bluff Street,48433,43.0560838,-83.8653341
210,Oak Street,48433,43.0613557,-83.8595848
216,Oak Street,48433,43.0610813,-83.8595916
635,South Seymour Road,48433,43.0525935,-83.8618315
625,South Seymour Road,48433,43.0533253,-83.8618918
609,South Seymour Road,48433,43.0537941,-83.8617927
610,South Seymour Road,48433,43.0543234,-83.8626475
617,West Pierson Road,48433,43.0593504,-83.8662342
613,West Pierson Road,48433,43.0593574,-83.8659057
605,West Pierson Road,48433,43.0593545,-83.8656011
601,West Pierson Road,48433,43.0593589,-83.8653018
233,Primrose Lane,48433,43.0600383,-83.8662039
229,Primrose Lane,48433,43.0602524,-83.8662024
223,Primrose Lane,48433,43.0605239,-83.8662633
219,Primrose Lane,48433,43.0607507,-83.8663625
215,Primrose Lane,48433,43.0609968,-83.8663976
211,Primrose Lane,48433,43.0612216,-83.8663532
207,Primrose Lane,48433,43.0614843,-83.8663512
203,Primrose Lane,48433,43.0617235,-83.8663385
199,Primrose Lane,48433,43.0620301,-83.8662796
194,Primrose Lane,48433,43.0625216,-83.8668263
189,Brookside Drive,48433,43.0656480,-83.8667671
193,Brookside Drive,48433,43.0653961,-83.8667368
583,West Pierson Road,48433,43.0593765,-83.8640877
591,West Pierson Road,48433,43.0594071,-83.8643929
599,West Pierson Road,48433,43.0593997,-83.8646821
221,Brookside Drive,48433,43.0636918,-83.8664227
217,Brookside Drive,48433,43.0639865,-83.8664534
213,Brookside Drive,48433,43.0642220,-83.8664428
209,Brookside Drive,48433,43.0644612,-83.8664467
205,Brookside Drive,48433,43.0647131,-83.8664553
199,Brookside Drive,48433,43.0649489,-83.8665127
197,Brookside Drive,48433,43.0651810,-83.8665297
344,West River Road,48433,43.0584144,-83.8558636
100,Aberdeen Drive,48433,43.0578144,-83.8594541
104,Aberdeen Drive,48433,43.0577180,-83.8594511
108,Aberdeen Drive,48433,43.0575225,-83.8594531
112,Aberdeen Drive,48433,43.0574261,-83.8594501
116,Aberdeen Drive,48433,43.0572233,-83.8594450
120,Aberdeen Drive,48433,43.0571269,-83.8594419
124,Aberdeen Drive,48433,43.0569455,-83.8594409
128,Aberdeen Drive,48433,43.0568491,-83.8594379
132,Aberdeen Drive,48433,43.0566429,-83.8594324
136,Aberdeen Drive,48433,43.0565466,-83.8594294
140,Aberdeen Court,48433,43.0563098,-83.8594416
232,Aberdeen Court,48433,43.0562298,-83.8593427
236,Aberdeen Court,48433,43.0563517,-83.8590165
240,Aberdeen Court,48433,43.0564326,-83.8589133
248,Aberdeen Court,48433,43.0567556,-83.8588690
244,Aberdeen Court,48433,43.0566567,-83.8589032
277,Aberdeen Court,48433,43.0567453,-83.8581258
273,Aberdeen Court,48433,43.0566458,-83.8580956
269,Aberdeen Court,48433,43.0564467,-83.8581067
265,Aberdeen Court,48433,43.0563498,-83.8581641
261,Aberdeen Court,48433,43.0561680,-83.8582944
257,Aberdeen Court,48433,43.0560797,-83.8583827
253,Aberdeen Court,48433,43.0559332,-83.8585630
249,Aberdeen Court,48433,43.0558731,-83.8586880
245,Aberdeen Court,48433,43.0557877,-83.8589357
241,Aberdeen Court,48433,43.0557543,-83.8590708
237,Aberdeen Court,48433,43.0557249,-83.8593359
233,Aberdeen Court,48433,43.0557218,-83.8594650
229,Aberdeen Court,48433,43.0557015,-83.8600746
225,Aberdeen Court,48433,43.0556998,-83.8602022
221,Aberdeen Court,48433,43.0556955,-83.8604723
217,Aberdeen Court,48433,43.0556948,-83.8606047
213,Aberdeen Court,48433,43.0556911,-83.8608634
209,Aberdeen Court,48433,43.0556671,-83.8609934
205,Aberdeen Court,48433,43.0556869,-83.8612596
201,Aberdeen Court,48433,43.0556845,-83.8613916
309,Oak Street,48433,43.0592611,-83.8588847
313,Oak Street,48433,43.0591673,-83.8588980
317,Oak Street,48433,43.0590727,-83.8588826
217.5,West Henry Street,48433,43.0658315,-83.8597701
217.5,West Henry Street,48433,43.0658492,-83.8596789
217.5,West Henry Street,48433,43.0658693,-83.8595872
217,West Henry Street,48433,43.0658963,-83.8594011
215,West Henry Street,48433,43.0658796,-83.8592648
205,George Street,48433,43.0650505,-83.8584768
207,George Street,48433,43.0651198,-83.8584151
209,George Street,48433,43.0651813,-83.8584151
211,George Street,48433,43.0652479,-83.8584754
212,Mary Street,48433,43.0648034,-83.8588155
210,Mary Street,48433,43.0648095,-83.8587101
208,Mary Street,48433,43.0648122,-83.8586247
206,Mary Street,48433,43.0648105,-83.8585264
224,Mary Street,48433,43.0649029,-83.8595864
222,Mary Street,48433,43.0648519,-83.8594937
220,Mary Street,48433,43.0648544,-83.8594090
218,Mary Street,48433,43.0649024,-83.8593219
613,Deland Road,48433,43.0731339,-83.8433842
632,Northwood Drive,48433,43.0740027,-83.8432591
634,Northwood Drive,48433,43.0740253,-83.8431600
638,West Carpenter Road,48433,43.0745280,-83.8432854
640,West Carpenter Road,48433,43.0745263,-83.8431409
636,West Carpenter Road,48433,43.0744952,-83.8434888
634,West Carpenter Road,48433,43.0744933,-83.8436145
212,Mill Street,48433,43.0615247,-83.8528353
113,North McKinley Road,48433,43.0635565,-83.8528902
525,Coutant Street,48433,43.0680759,-83.8467290
