House number,Street name,Postal code,Latitude,Longitude
2851,Orchard Lake Road,48320,42.6063839,-83.3405847
2900,Orchard Lake Road,48320,42.6069100,-83.3424681
3377,Orchard Lake Road,48320,42.5993473,-83.3488105
3375,Orchard Lake Road,48320,42.5995825,-83.3487623
3375,Orchard Lake Road,48320,42.5995271,-83.3487725
3375,Orchard Lake Road,48320,42.5994815,-83.3487796
2170,Cass Lake Road,48320,42.6064507,-83.3442383
2907,Orchard Lake Road,48320,42.6059564,-83.3423106
2907,Orchard Lake Road,48320,42.6059663,-83.3420759
2807,Orchard Lake Road,48320,42.6068268,-83.3402697
2812,Orchard Lake Road,48320,42.6074791,-83.3403987
3391,Orchard Lake Road,48320,42.5985824,-83.3488204
3159,Orchard Lake Road,48320,42.6041085,-83.3472566
1537,Cass Lake Road,48320,42.6172775,-83.3497633
3075,Orchard Lake Road,48320,42.6047773,-83.3458423
1999,Cass Lake Road,48320,42.6097708,-83.3437633
3369,Orchard Lake Road,48320,42.5997201,-83.3487186
3371,Orchard Lake Road,48320,42.5996461,-83.3487293
3264,Millwall Avenue,48320,42.5990087,-83.3484223
3200,Rycroft Street,48320,42.5983347,-83.3475832
3235,Millwall Avenue,48320,42.5986485,-83.3476127
3170,Summers Road,48320,42.6013293,-83.3472281
3168,Summers Road,48320,42.6013308,-83.3471683
3166,Summers Road,48320,42.6013326,-83.3470997
3164,Summers Road,48320,42.6013340,-83.3470431
3162,Summers Road,48320,42.6013356,-83.3469805
3160,Summers Road,48320,42.6013371,-83.3469210
3158,Summers Road,48320,42.6013387,-83.3468601
3156,Summers Road,48320,42.6013404,-83.3467897
3154,Summers Road,48320,42.6013418,-83.3467384
3148,Summers Road,48320,42.6013532,-83.3466056
3146,Summers Road,48320,42.6013547,-83.3465432
3144,Summers Road,48320,42.6013562,-83.3464839
3142,Summers Road,48320,42.6013579,-83.3464136
3140,Summers Road,48320,42.6013593,-83.3463569
3138,Summers Road,48320,42.6013608,-83.3462920
3136,Summers Road,48320,42.6013622,-83.3462357
3134,Summers Road,48320,42.6013638,-83.3461707
3132,Summers Road,48320,42.6013654,-83.3461068
3126,Summers Road,48320,42.6013738,-83.3459748
3124,Summers Road,48320,42.6013752,-83.3459092
3122,Summers Road,48320,42.6013764,-83.3458530
3120,Summers Road,48320,42.6013778,-83.3457881
3118,Summers Road,48320,42.6013791,-83.3457272
3116,Summers Road,48320,42.6013805,-83.3456599
3114,Summers Road,48320,42.6013816,-83.3456085
3112,Summers Road,48320,42.6013832,-83.3455347
3110,Summers Road,48320,42.6013839,-83.3454978
2428,Willow Beach Street,48320,42.6031135,-83.3456421
3029,Orchard Lake Road,48320,42.6053907,-83.3443592
3023,Orchard Lake Road,48320,42.6054361,-83.3442332
3011,Orchard Lake Road,48320,42.6054943,-83.3440777
2358,Fordham Street,48320,42.6038890,-83.3446354
3065,Orchard Lake Road,48320,42.6050859,-83.3450711
3073,Orchard Lake Road,48320,42.6050207,-83.3452976
3125,Orchard Lake Road,48320,42.6043808,-83.3467793
3238,Orchard Lake Road,48320,42.6038171,-83.3479407
3041,Orchard Lake Road,48320,42.6052826,-83.3445711
3041,Orchard Lake Road,48320,42.6051823,-83.3444977
2327,Willow Beach Street,48320,42.6046211,-83.3457709
2422,Cass Lake Road,48320,42.6032529,-83.3439741
2986,Pridham Street,48320,42.6038114,-83.3434626
2985,Orchard Lake Road,48320,42.6052195,-83.3435822
2985,Orchard Lake Road,48320,42.6052206,-83.3435350
2985,Orchard Lake Road,48320,42.6052220,-83.3434804
2985,Orchard Lake Road,48320,42.6052240,-83.3433998
2985,Orchard Lake Road,48320,42.6052255,-83.3433406
2985,Orchard Lake Road,48320,42.6052269,-83.3432818
2965,Orchard Lake Road,48320,42.6056912,-83.3433056
2224,Beechmont Street,48320,42.6038015,-83.3404382
3112,Cass Lake Road,48320,42.6073187,-83.3441783
3038,Atlas Street,48320,42.6075150,-83.3446957
3040,Atlas Street,48320,42.6076077,-83.3447011
3065,Andre Street,48320,42.6068971,-83.3451497
3052,Andre Street,48320,42.6068990,-83.3450371
3132,Kenrick Street,48320,42.6072879,-83.3459946
3136,Kenrick Street,48320,42.6072840,-83.3461475
2132,Brock Street,48320,42.6076521,-83.3472481
2138,Brock Street,48320,42.6072881,-83.3472534
2181,Willow Beach Street,48320,42.6066783,-83.3476462
3236,Bulwer Street,48320,42.6061298,-83.3480738
3220,Bulwer Street,48320,42.6061564,-83.3479317
2248,Willow Beach Street,48320,42.6054579,-83.3473009
3084,Grove Street,48320,42.6108468,-83.3456703
3129,Grove Street,48320,42.6105360,-83.3464746
3123,Cass Lake Avenue,48320,42.6098010,-83.3465081
3083,Cass Lake Avenue,48320,42.6098266,-83.3457641
3019,Cass Lake Avenue,48320,42.6099342,-83.3445402
2004,Cass Lake Road,48320,42.6099401,-83.3442869
2012,Cass Lake Road,48320,42.6097822,-83.3442748
2016,Cass Lake Road,48320,42.6096826,-83.3442708
2024,Cass Lake Road,48320,42.6095524,-83.3442601
1938,Cass Lake Road,48320,42.6110703,-83.3443638
1916,Cass Lake Road,48320,42.6113644,-83.3444416
1924,Cass Lake Road,48320,42.6112460,-83.3444282
1946,Cass Lake Road,48320,42.6109321,-83.3443585
1880,Cass Lake Road,48320,42.6119527,-83.3445469
3015,Glenbroke Street,48320,42.6114880,-83.3446341
1730,Cass Lake Front Road,48320,42.6139325,-83.3470434
1514,Wayward Drive,48320,42.6166408,-83.3499829
1512,Wayward Drive,48320,42.6167201,-83.3500544
1524,Wayward Drive,48320,42.6168604,-83.3503527
1522,Wayward Drive,48320,42.6167755,-83.3502770
1520,Wayward Drive,48320,42.6167159,-83.3502239
1532,Wayward Drive,48320,42.6172181,-83.3506263
1534,Wayward Drive,48320,42.6172764,-83.3506568
1645,Stapleton Court,48320,42.6149293,-83.3445972
3070,Stapleton Drive,48320,42.6148879,-83.3461234
1565,Kessler Avenue,48320,42.6167058,-83.3474296
1590,Kessler Avenue,48320,42.6162736,-83.3479661
1540,Cass Lake Road,48320,42.6163260,-83.3498629
2980,Orchard Lake Road,48320,42.6062180,-83.3434767
2904,Orchard Lake Road,48320,42.6065801,-83.3425907
2952,Prynne Street,48320,42.6073672,-83.3426379
2130,Beechmont Street,48320,42.6074368,-83.3421851
2851,Stennett Street,48320,42.6102469,-83.3407533
2871,Stennett Street,48320,42.6102449,-83.3409034
1965,Maddy Lane,48320,42.6102392,-83.3395332
2005,Maddy Lane,48320,42.6095759,-83.3394795
2015,Maddy Lane,48320,42.6094535,-83.3394795
2883,Knowlson Street,48320,42.6086537,-83.3416038
1620,Maddy Lane,48320,42.6140806,-83.3403647
2962,Moss Street,48320,42.6124732,-83.3437834
2928,Glenbroke Street,48320,42.6118412,-83.3430965
2921,Glenbroke Street,48320,42.6115166,-83.3430134
1955,Cass Lake Road,48320,42.6112582,-83.3439330
1665,Rustic Lane,48320,42.6148314,-83.3408498
2920,Hensman Avenue,48320,42.6115620,-83.3424289
1731,Beechcroft Street,48320,42.6141635,-83.3436960
1817,Cass Lake Road,48320,42.6127765,-83.3441327
1808,Beechmont Street,48320,42.6127212,-83.3423820
1677,Beechmont Street,48320,42.6147537,-83.3421698
2065,Harbor Way,48320,42.6006596,-83.3448473
3380,Orchard Lake Road,48324,42.6003365,-83.3511606
2065,Cass Lake Road,48320,42.6088222,-83.3430594
2025,Beechmont Street,48320,42.6092493,-83.3417535
3000,Orchard Lake Road,48320,42.6060192,-83.3445732
2025,Beechmont Street,48320,42.6092645,-83.3410171
2801,Orchard Lake Road,48320,42.6069884,-83.3398477
2705,Orchard Lake Road,48320,42.6072682,-83.3390430
2804,Orchard Lake Road,48320,42.6075682,-83.3402648
1965,Cass Lake Road,48320,42.6110877,-83.3438480
3195,Pridham Street,48320,42.6030804,-83.3468558
1967,Cass Lake Road,48320,42.6107835,-83.3436092
1985,Cass Lake Road,48320,42.6104447,-83.3436948
1999,Cass Lake Road,48320,42.6098638,-83.3437711
2141,Orchard Lake Road,48320,42.6068306,-83.3432914
1528,Beachland Boulevard,48320,42.6173962,-83.3491982
1550,Cass Lake Road,48320,42.6161123,-83.3496003
3040,Stapleton Drive,48320,42.6152182,-83.3457257
3018,Stapleton Drive,48320,42.6153877,-83.3452214
1562,Kessler Avenue,48320,42.6166048,-83.3481241
1551,Kessler Avenue,48320,42.6171017,-83.3474853
1521,Kessler Avenue,48320,42.6175036,-83.3476242
3012,Stapleton Drive,48320,42.6153159,-83.3449868
1540,Kessler Avenue,48320,42.6171135,-83.3481781
1600,Cass Lake Road,48320,42.6156038,-83.3490991
1595,Kessler Avenue,48320,42.6164611,-83.3474184
1554,Kessler Avenue,48320,42.6167300,-83.3481936
3064,Stapleton Drive,48320,42.6149682,-83.3460289
1570,Cass Lake Road,48320,42.6158734,-83.3493438
1665,Stapleton Court,48320,42.6145973,-83.3445518
1711,Cass Lake Road,48320,42.6143858,-83.3445078
1457,Beachland Boulevard,48320,42.6170923,-83.3487644
1550,Kessler Avenue,48320,42.6169272,-83.3481822
3006,Stapleton Drive,48320,42.6152391,-83.3448930
3028,Stapleton Drive,48320,42.6155757,-83.3454668
3048,Stapleton Drive,48320,42.6151536,-83.3458395
1570,Kessler Avenue,48320,42.6164555,-83.3480533
3056,Stapleton Drive,48320,42.6150579,-83.3459101
2091,Cass Lake Road,48320,42.6078050,-83.3433491
1978,Cass Lake Road,48320,42.6105074,-83.3443891
3271,Christopher Lane,48320,42.6001828,-83.3478267
3477,Orchard Lake Road,48320,42.5972100,-83.3492090
3467,Orchard Lake Road,48320,42.5974509,-83.3491833
3435,Orchard Lake Road,48320,42.5977133,-83.3491316
3415,Orchard Lake Road,48320,42.5982597,-83.3490324
3425,Orchard Lake Road,48320,42.5981439,-83.3489929
3399,Orchard Lake Road,48320,42.5985690,-83.3488173
3389,Orchard Lake Road,48320,42.5990423,-83.3487478
3389,Orchard Lake Road,48320,42.5990162,-83.3489590
3361,Orchard Lake Road,48320,42.5998481,-83.3486505
3355,Orchard Lake Road,48320,42.6000121,-83.3485644
3335,Orchard Lake Road,48320,42.6008090,-83.3483231
3325,Orchard Lake Road,48320,42.6014179,-83.3479814
3305,Orchard Lake Road,48320,42.6016775,-83.3481631
3297,Orchard Lake Road,48320,42.6019033,-83.3483018
3295,Orchard Lake Road,48320,42.6022029,-83.3484089
3265,Orchard Lake Road,48320,42.6024055,-83.3484247
3261,Orchard Lake Road,48320,42.6026148,-83.3483752
3251,Orchard Lake Road,48320,42.6029442,-83.3483964
3231,Orchard Lake Road,48320,42.6032761,-83.3483375
3195,Orchard Lake Road,48320,42.6037113,-83.3481757
3187,Orchard Lake Road,48320,42.6040110,-83.3479874
3181,Orchard Lake Road,48320,42.6039451,-83.3477736
3128,Orchard Lake Road,48320,42.6048311,-83.3468300
3101,Orchard Lake Road,48320,42.6045682,-83.3462362
3080,Orchard Lake Road,48320,42.6052908,-83.3458399
3087,Orchard Lake Road,48320,42.6048321,-83.3455070
3064,Orchard Lake Road,48320,42.6055387,-83.3450196
3035,Orchard Lake Road,48320,42.6050852,-83.3442544
2961,Prynne Street,48320,42.6068859,-83.3428608
2897,Orchard Lake Road,48320,42.6063152,-83.3419321
2886,Orchard Lake Road,48320-1453,42.6067937,-83.3418981
2887,Orchard Lake Road,48320,42.6063791,-83.3416821
2881,Orchard Lake Road,48320,42.6064300,-83.3414584
2878,Orchard Lake Road,48320,42.6069109,-83.3417439
2870,Orchard Lake Road,48320,42.6069674,-83.3414214
2850,Orchard Lake Road,48320,42.6071755,-83.3410137
2711,Orchard Lake Road,48320,42.6072564,-83.3393162
2700,Orchard Lake Road,48320,42.6077889,-83.3392284
2111,Cass Lake Road,48320,42.6073757,-83.3432851
2140,Beechmont Street,48320,42.6071110,-83.3419987
2111,Maddy Lane,48320,42.6079497,-83.3394130
2066,Cass Lake Road,48320,42.6084209,-83.3442926
2038,Cass Lake Road,48320,42.6088413,-83.3445643
2965,Orchard Lake Road,48320,42.6054221,-83.3433281
2200,Beechmont Street,48320,42.6061933,-83.3412393
1751,Cass Lake Front Road,48320,42.6134776,-83.3459175
1717,Cass Lake Road,48320,42.6142603,-83.3444789
2041,Pine Lake Trail,48320,42.6001346,-83.3453546
2039,Pine Lake Trail,48320,42.6000462,-83.3454771
2037,Pine Lake Trail,48320,42.5999677,-83.3456009
2035,Pine Lake Trail,48320,42.5998868,-83.3457323
2026,Harbor Village Avenue,48320,42.5995075,-83.3464970
2028,Harbor Village Avenue,48320,42.5993871,-83.3462646
2030,Pine Lake Trail,48320,42.5993776,-83.3460404
2032,Pine Lake Trail,48320,42.5994027,-83.3458333
2034,Pine Lake Trail,48320,42.5994565,-83.3456569
2036,Pine Lake Trail,48320,42.5995594,-83.3455007
2038,Pine Lake Trail,48320,42.5996377,-83.3453789
2040,Pine Lake Trail,48320,42.5997184,-83.3452523
2042,Pine Lake Trail,48320,42.5997996,-83.3451231
2044,Pine Lake Trail,48320,42.5998774,-83.3449915
2046,Pine Lake Trail,48320,42.5999544,-83.3448712
2048,Pine Lake Trail,48320,42.6000288,-83.3447456
2052,Pine Lake Trail,48320,42.6002007,-83.3444717
2050,Pine Lake Trail,48320,42.6001114,-83.3446225
2054,Pine Lake Trail,48320,42.6002772,-83.3443531
2056,Fountain Park Avenue,48320,42.6004721,-83.3441279
2060,Fountain Park Avenue,48320,42.6007552,-83.3440758
2064,Fountain Park Avenue,48320,42.6010029,-83.3440831
2058,Fountain Park Avenue,48320,42.6006269,-83.3440550
2062,Fountain Park Avenue,48320,42.6008760,-83.3440811
2066,Fountain Park Avenue,48320,42.6011284,-83.3440737
2063,Harbor Way,48320,42.6006516,-83.3449978
2053,Harbor Way,48320,42.6006464,-83.3456884
2051,Harbor Way,48320,42.6006488,-83.3458385
2047,Harbor Way,48320,42.6006380,-83.3461381
2049,Harbor Way,48320,42.6006493,-83.3459867
2055,Harbor Way,48320,42.6006536,-83.3455376
2057,Harbor Way,48320,42.6006507,-83.3453981
2059,Harbor Way,48320,42.6006589,-83.3452748
2061,Harbor Way,48320,42.6006502,-83.3451403
2067,Harbor Way,48320,42.6006526,-83.3446967
2069,Harbor Way,48320,42.6006660,-83.3445517
3139,Summers Road,48320,42.6010234,-83.3449538
3133,Summers Road,48320,42.6010343,-83.3445282
3135,Summers Road,48320,42.6010283,-83.3446749
3137,Summers Road,48320,42.6010339,-83.3448177
3141,Summers Road,48320,42.6010215,-83.3450884
3143,Summers Road,48320,42.6010097,-83.3452574
3145,Summers Road,48320,42.6010055,-83.3453884
3147,Summers Road,48320,42.6009971,-83.3455227
3149,Summers Road,48320,42.6010031,-83.3456650
3151,Summers Road,48320,42.6009906,-83.3458148
3153,Summers Road,48320,42.6009916,-83.3459608
3155,Summers Road,48320,42.6009832,-83.3461109
2045,Harbor Way,48320,42.6002852,-83.3458278
2043,Harbor Way,48320,42.6002910,-83.3456616
2015,Harbor Village Avenue,48320,42.6003127,-83.3461337
2017,Harbor Village Avenue,48320,42.6001875,-83.3461272
2019,Harbor Village Avenue,48320,42.6000626,-83.3461168
2021,Harbor Village Avenue,48320,42.5999378,-83.3461075
2023,Harbor Village Avenue,48320,42.5998149,-83.3461044
2025,Harbor Village Avenue,48320,42.5996944,-83.3460885
2024,Harbor Village Avenue,48320,42.5996551,-83.3465738
2022,Harbor Village Avenue,48320,42.5997784,-83.3465832
2020,Harbor Village Avenue,48320,42.5999051,-83.3465850
2018,Harbor Village Avenue,48320,42.6000289,-83.3465892
2016,Harbor Village Avenue,48320,42.6001483,-83.3466153
2014,Harbor Village Avenue,48320,42.6002768,-83.3466200
2012,Harbor Village Avenue,48320,42.6004013,-83.3466143
2010,Harbor Village Avenue,48320,42.6005261,-83.3466363
2008,Harbor Village Avenue,48320,42.6006490,-83.3466304
2006,Harbor Village Avenue,48320,42.6007905,-83.3466385
2004,Harbor Village Avenue,48320,42.6009147,-83.3466522
2002,Harbor Village Avenue,48320,42.6010417,-83.3466572
3200,Millwall Avenue,48320,42.5990257,-83.3464257
3206,Millwall Avenue,48320,42.5990186,-83.3466288
3218,Millwall Avenue,48320,42.5989983,-83.3470765
3246,Millwall Avenue,48320,42.5990194,-83.3477588
3234,Millwall Avenue,48320,42.5990464,-83.3473666
3252,Millwall Avenue,48320,42.5989994,-83.3480041
3262,Millwall Avenue,48320,42.5990015,-83.3482889
3219,Millwall Avenue,48320,42.5986958,-83.3470691
3227,Millwall Avenue,48320,42.5986667,-83.3472720
3245,Millwall Avenue,48320,42.5986394,-83.3478564
3261,Millwall Avenue,48320,42.5986318,-83.3482691
3267,Millwall Avenue,48320,42.5986329,-83.3484130
3273,Millwall Avenue,48320,42.5986188,-83.3485631
3206,Rycroft Street,48320,42.5982347,-83.3478577
3216,Rycroft Street,48320,42.5982889,-83.3480649
3228,Rycroft Street,48320,42.5982222,-83.3482870
3219,Rycroft Street,48320,42.5978600,-83.3480799
3227,Rycroft Street,48320,42.5978364,-83.3483305
3245,Rycroft Street,48320,42.5978085,-83.3486980
3243,Pridham Street,48320,42.6034254,-83.3477570
3227,Pridham Street,48320,42.6034715,-83.3474989
3221,Pridham Street,48320,42.6034856,-83.3473197
3215,Pridham Street,48320,42.6034602,-83.3471495
3195,Pridham Street,48320,42.6034217,-83.3469427
3169,Pridham Street,48320,42.6034690,-83.3464621
3133,Pridham Street,48320,42.6035018,-83.3460180
3119,Pridham Street,48320,42.6035437,-83.3457355
3125,Pridham Street,48320,42.6035045,-83.3458538
3109,Pridham Street,48320,42.6034954,-83.3455535
2408,Willow Beach Street,48320,42.6032444,-83.3456311
2438,Willow Beach Street,48320,42.6029502,-83.3455921
2444,Willow Beach Street,48320,42.6028426,-83.3455872
2452,Willow Beach Street,48320,42.6026798,-83.3455489
2460,Willow Beach Street,48320,42.6025133,-83.3455683
2466,Willow Beach Street,48320,42.6023894,-83.3457623
2472,Willow Beach Street,48320,42.6022466,-83.3455880
2488,Willow Beach Street,48320,42.6018225,-83.3455120
3106,Varjo Court,48320,42.6023399,-83.3464771
3100,Varjo Court,48320,42.6020824,-83.3461882
3105,Varjo Court,48320,42.6018707,-83.3465342
3119,Varjo Court,48320,42.6018962,-83.3467505
3127,Varjo Court,48320,42.6019065,-83.3469246
3149,Varjo Court,48320,42.6018684,-83.3473398
3207,Varjo Court,48320,42.6018708,-83.3474893
3137,Varjo Court,48320,42.6019019,-83.3471320
3126,Varjo Court,48320,42.6022289,-83.3469068
3118,Varjo Court,48320,42.6022646,-83.3466935
3134,Varjo Court,48320,42.6022192,-83.3470773
3142,Varjo Court,48320,42.6022069,-83.3472268
3148,Varjo Court,48320,42.6023888,-83.3473628
3216,Varjo Court,48320,42.6022044,-83.3476153
3240,Varjo Court,48320,42.6022505,-83.3480720
3222,Varjo Court,48320,42.6022109,-83.3478243
2475,Willow Beach Street,48320,42.6021544,-83.3450691
3054,Summers Road,48320,42.6014615,-83.3449037
2485,Willow Beach Street,48320,42.6019576,-83.3450557
2459,Willow Beach Street,48320,42.6024929,-83.3450053
2454,Fordham Street,48320,42.6026748,-83.3446749
2476,Fordham Street,48320,42.6021595,-83.3446061
2433,Willow Beach Street,48320,42.6030729,-83.3451247
3075,Pridham Street,48320,42.6035663,-83.3449622
2436,Fordham Street,48320,42.6030691,-83.3446334
2442,Fordham Street,48320,42.6029459,-83.3446138
2472,Fordham Street,48320,42.6022935,-83.3446470
2484,Fordham Street,48320,42.6019607,-83.3445817
2488,Fordham Street,48320,42.6018614,-83.3445799
2490,Fordham Street,48320,42.6017507,-83.3445927
2481,Willow Beach Street,48320,42.6020407,-83.3450838
2471,Willow Beach Street,48320,42.6022690,-83.3450682
2465,Willow Beach Street,48320,42.6023937,-83.3450112
2451,Willow Beach Street,48320,42.6027139,-83.3451013
2439,Willow Beach Street,48320,42.6029017,-83.3450773
2423,Willow Beach Street,48320,42.6032124,-83.3451290
2418,Fordham Street,48320,42.6033683,-83.3446217
2426,Fordham Street,48320,42.6031722,-83.3446373
2424,Fordham Street,48320,42.6032898,-83.3446390
3061,Pridham Street,48320,42.6035356,-83.3446769
2415,Willow Beach Street,48320,42.6033863,-83.3451689
3081,Pridham Street,48320,42.6035577,-83.3451362
2487,Willow Beach Street,48320,42.6018384,-83.3450144
2340,Fordham Street,48320,42.6040827,-83.3446971
2314,Fordham Street,48320,42.6044534,-83.3446929
2306,Fordham Street,48320,42.6045704,-83.3447245
2332,Fordham Street,48320,42.6042226,-83.3446997
2322,Fordham Street,48320,42.6043538,-83.3446930
3076,Pridham Street,48320,42.6038082,-83.3449554
2391,Willow Beach Street,48320,42.6038958,-83.3452433
2399,Willow Beach Street,48320,42.6037998,-83.3451716
2387,Willow Beach Street,48320,42.6039664,-83.3452836
2375,Willow Beach Street,48320,42.6040891,-83.3453895
2373,Willow Beach Street,48320,42.6041974,-83.3454097
2345,Willow Beach Street,48320,42.6043814,-83.3455315
3126,Pridham Street,48320,42.6037852,-83.3459490
2354,Willow Beach Street,48320,42.6041510,-83.3458814
2344,Willow Beach Street,48320,42.6042403,-83.3459518
2386,Willow Beach Street,48320,42.6038573,-83.3457060
2368,Willow Beach Street,48320,42.6040126,-83.3457902
3148,Pridham Street,48320,42.6038633,-83.3462958
3202,Pridham Street,48320,42.6038303,-83.3469518
3173,Orchard Lake Road,48320,42.6040829,-83.3474916
3177,Orchard Lake Road,48320,42.6040175,-83.3476255
2248,Cass Lake Road,48320,42.6047783,-83.3440851
2301,Fordham Street,48320,42.6046711,-83.3442664
2254,Fordham Street,48320,42.6048208,-83.3444643
2307,Fordham Street,48320,42.6045767,-83.3442765
2314,Cass Lake Road,48320,42.6043395,-83.3440162
2312,Cass Lake Road,48320,42.6044607,-83.3440207
2329,Fordham Street,48320,42.6042521,-83.3442628
2328,Cass Lake Road,48320,42.6041324,-83.3440375
2363,Fordham Street,48320,42.6038384,-83.3442692
2347,Fordham Street,48320,42.6040272,-83.3442748
2334,Cass Lake Road,48320,42.6040420,-83.3439913
2346,Cass Lake Road,48320,42.6038248,-83.3439854
2405,Fordham Street,48320,42.6036152,-83.3442198
2416,Cass Lake Road,48320,42.6033990,-83.3439691
2419,Fordham Street,48320,42.6033946,-83.3442352
2408,Cass Lake Road,48320,42.6035007,-83.3440365
2425,Fordham Street,48320,42.6032219,-83.3442268
2434,Cass Lake Road,48320,42.6030699,-83.3439685
2437,Fordham Street,48320,42.6030513,-83.3441885
2458,Cass Lake Road,48320,42.6026401,-83.3440229
2448,Cass Lake Road,48320,42.6029074,-83.3439877
2447,Fordham Street,48320,42.6028624,-83.3442192
2454,Cass Lake Road,48320,42.6027459,-83.3440262
2468,Cass Lake Road,48320,42.6024036,-83.3440119
2464,Cass Lake Road,48320,42.6025166,-83.3440134
2472,Cass Lake Road,48320,42.6022930,-83.3439779
2476,Cass Lake Road,48320,42.6021729,-83.3439743
2480,Cass Lake Road,48320,42.6020656,-83.3439872
2486,Cass Lake Road,48320,42.6019551,-83.3439243
2491,Fordham Street,48320,42.6017454,-83.3441743
2487,Fordham Street,48320,42.6018508,-83.3441767
2490,Cass Lake Road,48320,42.6018442,-83.3439075
2496,Cass Lake Road,48320,42.6017284,-83.3439008
3024,Summers Road,48320,42.6014747,-83.3440077
2322,Pine Lake Avenue,48320,42.6049251,-83.3432739
2330,Pine Lake Avenue,48320,42.6048061,-83.3432480
2336,Pine Lake Avenue,48320,42.6046745,-83.3432366
2348,Pine Lake Avenue,48320,42.6044998,-83.3434530
2356,Pine Lake Avenue,48320,42.6043730,-83.3432372
2380,Pine Lake Avenue,48320,42.6040400,-83.3431822
2364,Pine Lake Avenue,48320,42.6042661,-83.3432111
2372,Pine Lake Avenue,48320,42.6041482,-83.3432038
2388,Pine Lake Avenue,48320,42.6039172,-83.3432030
2396,Pine Lake Avenue,48320,42.6038195,-83.3431896
2405,Cass Lake Road,48320,42.6035662,-83.3434497
2406,Pine Lake Avenue,48320,42.6035634,-83.3431454
2426,Pine Lake Avenue,48320,42.6031900,-83.3431487
2412,Pine Lake Avenue,48320,42.6034031,-83.3431461
2415,Cass Lake Road,48320,42.6034248,-83.3434993
2423,Cass Lake Road,48320,42.6032892,-83.3434692
2418,Pine Lake Avenue,48320,42.6033000,-83.3431414
2429,Cass Lake Road,48320,42.6031639,-83.3434551
2443,Cass Lake Road,48320,42.6030010,-83.3434376
2436,Pine Lake Avenue,48320,42.6030247,-83.3431260
2444,Pine Lake Avenue,48320,42.6028786,-83.3431756
2459,Cass Lake Road,48320,42.6026167,-83.3433937
2452,Pine Lake Avenue,48320,42.6027114,-83.3431327
2462,Pine Lake Avenue,48320,42.6025200,-83.3431447
2468,Pine Lake Avenue,48320,42.6024075,-83.3431576
2472,Pine Lake Avenue,48320,42.6023089,-83.3431313
2480,Pine Lake Avenue,48320,42.6020735,-83.3431059
2496,Pine Lake Avenue,48320,42.6017755,-83.3430804
2501,Cass Lake Road,48320,42.6015936,-83.3433505
2490,Pine Lake Avenue,48320,42.6018929,-83.3430885
2955,Elam Court,48320,42.6015971,-83.3426502
2965,Elam Court,48320,42.6014756,-83.3428118
2975,Elam Court,48320,42.6014019,-83.3429592
2985,Elam Court,48320,42.6013466,-83.3431365
2995,Elam Court,48320,42.6012760,-83.3432870
3005,Elam Court,48320,42.6011849,-83.3433974
2905,Pridham Street,48320,42.6035427,-83.3416715
2921,Pridham Street,48320,42.6035669,-83.3420320
2436,Hester Court,48320,42.6030863,-83.3416910
2916,Virginia Court,48320,42.6030435,-83.3418096
2924,Virginia Court,48320,42.6030612,-83.3420583
2915,Virginia Court,48320,42.6027850,-83.3418025
2919,Virginia Court,48320,42.6028066,-83.3419209
2923,Virginia Court,48320,42.6028027,-83.3420455
2481,Pine Lake Avenue,48320,42.6020972,-83.3426353
2475,Pine Lake Avenue,48320,42.6022003,-83.3426403
2491,Pine Lake Avenue,48320,42.6018811,-83.3426340
2485,Pine Lake Avenue,48320,42.6019892,-83.3426018
2455,Pine Lake Avenue,48320,42.6026024,-83.3426710
2467,Pine Lake Avenue,48320,42.6024287,-83.3426651
2471,Pine Lake Avenue,48320,42.6023062,-83.3426407
2445,Pine Lake Avenue,48320,42.6028364,-83.3426917
2441,Kleist Court,48320,42.6028268,-83.3424450
2443,Kleist Court,48320,42.6028362,-83.3425576
2439,Kleist Court,48320,42.6029120,-83.3423245
2437,Kleist Court,48320,42.6030069,-83.3423203
2435,Kleist Court,48320,42.6030849,-83.3423217
2433,Kleist Court,48320,42.6031806,-83.3423418
2427,Kleist Court,48320,42.6032411,-83.3427131
2429,Kleist Court,48320,42.6032457,-83.3425797
2431,Kleist Court,48320,42.6032600,-83.3424624
2411,Pine Lake Avenue,48320,42.6034406,-83.3426602
2935,Pridham Street,48320,42.6035936,-83.3423825
2929,Pridham Street,48320,42.6035680,-83.3422426
2405,Pine Lake Avenue,48320,42.6035579,-83.3426748
2415,Hester Court,48320,42.6034854,-83.3412848
2395,Hester Court,48320,42.6037163,-83.3411106
2407,Hester Court,48320,42.6035936,-83.3410495
2355,Hester Court,48320,42.6041480,-83.3413128
2363,Hester Court,48320,42.6040178,-83.3412738
2445,Hester Court,48320,42.6026916,-83.3413183
2433,Hester Court,48320,42.6030856,-83.3412938
2423,Hester Court,48320,42.6032918,-83.3412706
2385,Hester Court,48320,42.6038066,-83.3412902
2373,Hester Court,48320,42.6039083,-83.3413056
2341,Hester Court,48320,42.6043042,-83.3410669
2321,Hester Court,48320,42.6045648,-83.3410876
2315,Hester Court,48320,42.6046937,-83.3412593
2305,Hester Court,48320,42.6048024,-83.3411401
2289,Hester Court,48320,42.6049972,-83.3412010
2259,Hester Court,48320,42.6054492,-83.3413585
2267,Hester Court,48320,42.6053465,-83.3413511
2299,Hester Court,48320,42.6049038,-83.3411883
2279,Hester Court,48320,42.6051382,-83.3413552
2245,Hester Court,48320,42.6056547,-83.3413887
2222,Beechmont Street,48320,42.6057208,-83.3410488
2218,Beechmont Street,48320,42.6059075,-83.3411000
2225,Hester Court,48320,42.6058619,-83.3415461
2217,Hester Court,48320,42.6060859,-83.3416722
2932,Nagle Court,48320,42.6053716,-83.3422141
2241,Pine Lake Avenue,48320,42.6054603,-83.3427493
2251,Pine Lake Avenue,48320,42.6053379,-83.3427413
2918,Nagle Court,48320,42.6052734,-83.3420134
2912,Nagle Court,48320,42.6052854,-83.3418518
2360,Hester Court,48320,42.6042554,-83.3417606
2917,Nagle Court,48320,42.6048816,-83.3420395
2306,Hester Court,48320,42.6047711,-83.3417399
2320,Hester Court,48320,42.6046088,-83.3417392
2340,Hester Court,48320,42.6044302,-83.3417955
2912,Pridham Street,48320,42.6039339,-83.3416936
2920,Pridham Street,48320,42.6039704,-83.3420543
2315,Pine Lake Avenue,48320,42.6050237,-83.3427351
2305,Pine Lake Avenue,48320,42.6051475,-83.3426981
2931,Nagle Court,48320,42.6050330,-83.3423437
2341,Pine Lake Avenue,48320,42.6046084,-83.3426895
2337,Pine Lake Avenue,48320,42.6047327,-83.3426874
2329,Pine Lake Avenue,48320,42.6048675,-83.3426937
2349,Pine Lake Avenue,48320,42.6044938,-83.3426897
2383,Pine Lake Avenue,48320,42.6040549,-83.3423270
2390,Pridham Street,48320,42.6039450,-83.3422571
2367,Pine Lake Avenue,48320,42.6042619,-83.3426728
2373,Pine Lake Avenue,48320,42.6041608,-83.3425817
2391,Pine Lake Avenue,48320,42.6039189,-83.3426869
2169,Maddy Lane,48320,42.6068924,-83.3393022
2189,Maddy Lane,48320,42.6065145,-83.3393330
2201,Maddy Lane,48320,42.6063108,-83.3393444
2215,Maddy Lane,48320,42.6060858,-83.3393551
2227,Maddy Lane,48320,42.6058678,-83.3393638
2235,Maddy Lane,48320,42.6056804,-83.3393572
2249,Maddy Lane,48320,42.6052205,-83.3390943
2243,Maddy Lane,48320,42.6054608,-83.3393545
2255,Maddy Lane,48320,42.6050927,-83.3393531
2285,Maddy Lane,48320,42.6048437,-83.3392861
2297,Maddy Lane,48320,42.6046857,-83.3392894
2265,Maddy Lane,48320,42.6049818,-83.3393303
2304,Maddy Lane,48320,42.6045437,-83.3398524
2340,Maddy Lane,48320,42.6040539,-83.3397734
2313,Maddy Lane,48320,42.6044144,-83.3393169
2330,Maddy Lane,48320,42.6041969,-83.3397647
2320,Maddy Lane,48320,42.6043029,-83.3398196
2312,Maddy Lane,48320,42.6044243,-83.3397619
2266,Maddy Lane,48320,42.6049739,-83.3398082
2256,Maddy Lane,48320,42.6050977,-83.3398222
2290,Maddy Lane,48320,42.6047351,-83.3397988
2270,Maddy Lane,48320,42.6048649,-83.3398055
2250,Maddy Lane,48320,42.6052205,-83.3398129
2238,Maddy Lane,48320,42.6055363,-83.3397854
2234,Maddy Lane,48320,42.6056823,-83.3397827
2220,Maddy Lane,48320,42.6059585,-83.3398277
2212,Maddy Lane,48320,42.6061717,-83.3398155
2202,Maddy Lane,48320,42.6062826,-83.3397760
2190,Maddy Lane,48320,42.6065018,-83.3397767
2170,Maddy Lane,48320,42.6067400,-83.3397794
2180,Maddy Lane,48320,42.6066309,-83.3397881
2080,Cass Lake Road,48320,42.6078825,-83.3444679
2094,Cass Lake Road,48320,42.6076480,-83.3441941
2100,Cass Lake Road,48320,42.6075605,-83.3441515
3042,Atlas Street,48320,42.6077404,-83.3446421
2133,Willow Beach Street,48320,42.6072757,-83.3476887
2141,Willow Beach Street,48320,42.6071761,-83.3477361
2134,Brock Street,48320,42.6075189,-83.3472603
2136,Brock Street,48320,42.6074063,-83.3472354
2140,Brock Street,48320,42.6071968,-83.3472527
2103,Willow Beach Street,48320,42.6075934,-83.3476409
3048,Kenrick Street,48320,42.6075534,-83.3450409
3045,Atlas Street,48320,42.6077227,-83.3450845
3069,Brock Street,48320,42.6076468,-83.3453914
3073,Brock Street,48320,42.6076358,-83.3455764
3103,Brock Street,48320,42.6076056,-83.3462011
3095,Brock Street,48320,42.6076229,-83.3460094
3087,Brock Street,48320,42.6075764,-83.3458356
3119,Brock Street,48320,42.6076013,-83.3465872
3127,Brock Street,48320,42.6075797,-83.3468130
3140,Kenrick Street,48320,42.6073030,-83.3462829
3168,Kenrick Street,48320,42.6072756,-83.3467091
3178,Kenrick Street,48320,42.6072027,-83.3468769
3112,Kenrick Street,48320,42.6072777,-83.3456851
3104,Kenrick Street,48320,42.6072877,-83.3455479
3160,Kenrick Street,48320,42.6072620,-83.3464708
3130,Kenrick Street,48320,42.6073019,-83.3458338
2124,Cass Lake Road,48320,42.6070989,-83.3441667
2170,Cass Lake Road,48320,42.6070066,-83.3441721
2118,Cass Lake Road,48320,42.6072080,-83.3441707
3029,Kenrick Street,48320,42.6072183,-83.3444207
3031,Kenrick Street,48320,42.6072633,-83.3446045
3061,Kenrick Street,48320,42.6071959,-83.3451910
3051,Kenrick Street,48320,42.6072451,-83.3450302
3039,Kenrick Street,48320,42.6072436,-83.3447534
3028,Andre Street,48320,42.6069052,-83.3444913
3040,Andre Street,48320,42.6069260,-83.3447513
3048,Andre Street,48320,42.6069056,-83.3448817
3069,Andre Street,48320,42.6068839,-83.3452630
3109,Kenrick Street,48320,42.6068495,-83.3456140
3119,Kenrick Street,48320,42.6069125,-83.3457685
2189,Willow Beach Street,48320,42.6065608,-83.3475890
2161,Willow Beach Street,48320,42.6069041,-83.3478150
3243,Kenrick Street,48320,42.6069285,-83.3476400
2173,Willow Beach Street,48320,42.6067733,-83.3476930
3201,Kenrick Street,48320,42.6068439,-83.3472381
3185,Kenrick Street,48320,42.6068805,-83.3469511
3165,Kenrick Street,48320,42.6069181,-83.3466569
3175,Kenrick Street,48320,42.6069032,-83.3468084
2104,Park Circle,48320,42.6075027,-83.3479918
2112,Park Circle,48320,42.6074819,-83.3481299
2116,Park Circle,48320,42.6074997,-83.3482607
2120,Park Circle,48320,42.6074609,-83.3483510
2124,Park Circle,48320,42.6074809,-83.3484634
2128,Park Circle,48320,42.6074387,-83.3485857
2132,Park Circle,48320,42.6073961,-83.3487317
2138,Park Circle,48320,42.6073190,-83.3488841
2142,Park Circle,48320,42.6072272,-83.3489474
2146,Park Circle,48320,42.6070872,-83.3490396
2154,Park Circle,48320,42.6069475,-83.3490261
2158,Park Circle,48320,42.6068406,-83.3490599
2162,Park Circle,48320,42.6067478,-83.3489921
2147,Park Circle,48320,42.6069526,-83.3483547
2168,Willow Beach Street,48320,42.6068398,-83.3482315
2166,Park Circle,48320,42.6066302,-83.3488924
22174,Park Circle,48320,42.6065447,-83.3486968
2182,Park Circle,48320,42.6064260,-83.3485107
2184,Park Circle,48320,42.6064559,-83.3483672
2190,Park Circle,48320,42.6065258,-83.3481697
2190,Willow Beach Street,48320,42.6064640,-83.3478836
3252,Bulwer Street,48320,42.6061145,-83.3484686
3206,Bulwer Street,48320,42.6061909,-83.3477589
2211,Willow Beach Street,48320,42.6062137,-83.3472300
2221,Willow Beach Street,48320,42.6060087,-83.3471348
2210,Willow Beach Street,48320,42.6060473,-83.3477001
2216,Willow Beach Street,48320,42.6059492,-83.3476296
2220,Willow Beach Street,48320,42.6058628,-83.3475595
2229,Willow Beach Street,48320,42.6058113,-83.3470147
2243,Willow Beach Street,48320,42.6056730,-83.3469023
2251,Willow Beach Street,48320,42.6056267,-83.3467502
2259,Willow Beach Street,48320,42.6054480,-83.3466301
2276,Willow Beach Street,48320,42.6051054,-83.3471507
2275,Willow Beach Street,48320,42.6052846,-83.3466219
3150,Grove Street,48320,42.6109958,-83.3465709
3140,Grove Street,48320,42.6108879,-83.3465439
3130,Grove Street,48320,42.6107627,-83.3465518
3020,Grove Street,48320,42.6109227,-83.3444865
3022,Grove Street,48320,42.6109144,-83.3446072
3030,Grove Street,48320,42.6109100,-83.3447564
3038,Grove Street,48320,42.6109931,-83.3449538
3070,Grove Street,48320,42.6109183,-83.3454897
3088,Grove Street,48320,42.6108991,-83.3458112
3098,Grove Street,48320,42.6108794,-83.3459828
3039,Grove Street,48320,42.6105391,-83.3448927
3047,Grove Street,48320,42.6105869,-83.3450377
3055,Grove Street,48320,42.6105836,-83.3451759
3063,Grove Street,48320,42.6105800,-83.3453262
3071,Grove Street,48320,42.6105788,-83.3454564
3079,Grove Street,48320,42.6105706,-83.3455898
3087,Grove Street,48320,42.6105534,-83.3457061
3095,Grove Street,48320,42.6105304,-83.3459029
3097,Grove Street,48320,42.6105221,-83.3460859
3123,Grove Street,48320,42.6105655,-83.3463418
1998,Cass Lake Road,48320,42.6101601,-83.3443566
1990,Cass Lake Road,48320,42.6102894,-83.3443746
3018,Cass Lake Avenue,48320,42.6102606,-83.3446243
3102,Cass Lake Avenue,48320,42.6102154,-83.3461388
3070,Cass Lake Avenue,48320,42.6102423,-83.3455282
3116,Cass Lake Avenue,48320,42.6102025,-83.3463168
3094,Cass Lake Avenue,48320,42.6102392,-83.3460012
3026,Cass Lake Avenue,48320,42.6102548,-83.3447896
3036,Cass Lake Avenue,48320,42.6102519,-83.3449495
3054,Cass Lake Avenue,48320,42.6102360,-83.3452333
3064,Cass Lake Avenue,48320,42.6102420,-83.3454129
3080,Cass Lake Avenue,48320,42.6102232,-83.3457138
3086,Cass Lake Avenue,48320,42.6102269,-83.3458552
3091,Cass Lake Avenue,48320,42.6098164,-83.3459255
3059,Cass Lake Avenue,48320,42.6098337,-83.3453009
3041,Cass Lake Avenue,48320,42.6098292,-83.3450034
3115,Cass Lake Avenue,48320,42.6097960,-83.3463400
3033,Cass Lake Avenue,48320,42.6098331,-83.3448720
3051,Cass Lake Avenue,48320,42.6098484,-83.3451589
3067,Cass Lake Avenue,48320,42.6098281,-83.3454417
3103,Cass Lake Avenue,48320,42.6098371,-83.3461627
3025,Portman Street,48320,42.6086935,-83.3448405
3021,Portman Street,48320,42.6084529,-83.3448217
3031,Portman Street,48320,42.6090299,-83.3448548
3029,Portman Street,48320,42.6089183,-83.3448559
3027,Portman Street,48320,42.6088084,-83.3448465
3023,Portman Street,48320,42.6085658,-83.3448351
2030,Cass Lake Road,48320,42.6093225,-83.3443251
3102,Portman Street,48320,42.6093732,-83.3463335
3070,Portman Street,48320,42.6093799,-83.3457174
3024,Portman Street,48320,42.6093827,-83.3448418
3030,Portman Street,48320,42.6093665,-83.3449758
3038,Portman Street,48320,42.6093896,-83.3451401
3046,Portman Street,48320,42.6093797,-83.3452688
3054,Portman Street,48320,42.6093654,-83.3454190
3062,Portman Street,48320,42.6093525,-83.3455657
3076,Portman Street,48320,42.6093738,-83.3458686
3086,Portman Street,48320,42.6093580,-83.3460409
3094,Portman Street,48320,42.6093649,-83.3461683
3109,Portman Street,48320,42.6090142,-83.3464256
3101,Portman Street,48320,42.6090462,-83.3463117
3093,Portman Street,48320,42.6090260,-83.3461596
3073,Portman Street,48320,42.6089688,-83.3458828
3065,Portman Street,48320,42.6089788,-83.3456584
3045,Portman Street,48320,42.6089595,-83.3454015
3037,Portman Street,48320,42.6090616,-83.3451112
1966,Willow Beach Street,48320,42.6105592,-83.3467943
1970,Willow Beach Street,48320,42.6104743,-83.3467984
1978,Willow Beach Street,48320,42.6103829,-83.3468010
1984,Willow Beach Street,48320,42.6102962,-83.3468077
1990,Willow Beach Street,48320,42.6102040,-83.3467930
1996,Willow Beach Street,48320,42.6101077,-83.3467595
2002,Willow Beach Street,48320,42.6098922,-83.3468018
2006,Willow Beach Street,48320,42.6097669,-83.3468855
2014,Willow Beach Street,48320,42.6096402,-83.3468881
2018,Willow Beach Street,48320,42.6095356,-83.3469323
2022,Willow Beach Street,48320,42.6094488,-83.3469811
2026,Willow Beach Street,48320,42.6093402,-83.3469765
2030,Willow Beach Street,48320,42.6092340,-83.3470365
2035,Willow Beach Street,48320,42.6090463,-83.3466245
2045,Willow Beach Street,48320,42.6088045,-83.3468195
2049,Willow Beach Street,48320,42.6087266,-83.3468704
2046,Willow Beach Street,48320,42.6089219,-83.3471730
2050,Willow Beach Street,48320,42.6088252,-83.3472649
2054,Willow Beach Street,48320,42.6087419,-83.3473292
2057,Willow Beach Street,48320,42.6085877,-83.3469030
2061,Willow Beach Street,48320,42.6084656,-83.3469375
2063,Willow Beach Street,48320,42.6083426,-83.3469012
2071,Willow Beach Street,48320,42.6082288,-83.3470187
2058,Willow Beach Street,48320,42.6086635,-83.3473641
2062,Willow Beach Street,48320,42.6086062,-83.3474552
2066,Willow Beach Street,48320,42.6085345,-83.3475021
2070,Willow Beach Street,48320,42.6084050,-83.3476524
2078,Willow Beach Street,48320,42.6083029,-83.3477010
2082,Willow Beach Street,48320,42.6082344,-83.3477606
2086,Willow Beach Street,48320,42.6081419,-83.3479264
2090,Willow Beach Street,48320,42.6080566,-83.3479499
2094,Willow Beach Street,48320,42.6079796,-83.3480004
2098,Willow Beach Street,48320,42.6078916,-83.3480588
2073,Willow Beach Street,48320,42.6080064,-83.3469630
2089,Willow Beach Street,48320,42.6080197,-83.3473144
1754,Cass Lake Road,48320,42.6134057,-83.3450704
1742,Cass Lake Road,48320,42.6136072,-83.3449960
1748,Cass Lake Road,48320,42.6135019,-83.3450006
1764,Cass Lake Road,48320,42.6133009,-83.3450255
3020,Norcott Drive,48320,42.6130908,-83.3450310
3046,Norcott Drive,48320,42.6130823,-83.3456366
3054,Norcott Drive,48320,42.6130544,-83.3457649
3062,Norcott Drive,48320,42.6130552,-83.3459082
3070,Norcott Drive,48320,42.6130468,-83.3460601
3082,Norcott Drive,48320,42.6130468,-83.3462816
3034,Norcott Drive,48320,42.6130951,-83.3453419
3026,Norcott Drive,48320,42.6130674,-83.3451529
3023,Norcott Drive,48320,42.6127788,-83.3451005
3067,Norcott Drive,48320,42.6127745,-83.3460080
3057,Norcott Drive,48320,42.6127449,-83.3458499
3051,Norcott Drive,48320,42.6127616,-83.3457138
3045,Norcott Drive,48320,42.6127666,-83.3455778
3041,Norcott Drive,48320,42.6127377,-83.3454224
3037,Norcott Drive,48320,42.6127740,-83.3452688
3009,Norcott Drive,48320,42.6127640,-83.3448408
3026,Moss Street,48320,42.6124474,-83.3448681
3032,Moss Street,48320,42.6124340,-83.3450356
3086,Moss Street,48320,42.6124105,-83.3460054
3074,Moss Street,48320,42.6124193,-83.3457815
3050,Moss Street,48320,42.6124480,-83.3453043
3058,Moss Street,48320,42.6124141,-83.3454194
3066,Moss Street,48320,42.6124226,-83.3455664
3018,Moss Street,48320,42.6124642,-83.3447030
3033,Moss Street,48320,42.6119877,-83.3449303
3065,Glenbroke Street,48320,42.6119948,-83.3455402
3075,Moss Street,48320,42.6121286,-83.3458588
3073,Moss Street,48320,42.6121263,-83.3457212
3057,Moss Street,48320,42.6120873,-83.3453914
3049,Moss Street,48320,42.6121234,-83.3452232
3041,Moss Street,48320,42.6121290,-83.3450902
3025,Moss Street,48320,42.6121400,-83.3448310
3050,Glenbroke Street,48320,42.6117613,-83.3452565
3066,Glenbroke Street,48320,42.6117376,-83.3455528
3058,Glenbroke Street,48320,42.6117470,-83.3453887
3042,Glenbroke Street,48320,42.6117692,-83.3451093
3030,Glenbroke Street,48320,42.6117593,-83.3449196
3022,Glenbroke Street,48320,42.6117733,-83.3447688
3049,Glenbroke Street,48320,42.6114600,-83.3452044
3041,Glenbroke Street,48320,42.6114804,-83.3450918
3033,Glenbroke Street,48320,42.6114704,-83.3449507
3023,Glenbroke Street,48320,42.6114694,-83.3447556
3009,Glenbroke Street,48320,42.6114958,-83.3444559
1931,Cass Lake Front Road,48320,42.6111237,-83.3450290
1873,Cass Lake Front Road,48320,42.6118881,-83.3456276
1865,Cass Lake Front Road,48320,42.6119888,-83.3457350
1704,Cass Lake Front Road,48320,42.6142842,-83.3471707
1720,Cass Lake Front Road,48320,42.6140486,-83.3470964
1754,Cass Lake Front Road,48320,42.6135889,-83.3469806
1738,Cass Lake Front Road,48320,42.6137882,-83.3470504
1762,Cass Lake Front Road,48320,42.6134820,-83.3469850
1772,Cass Lake Front Road,48320,42.6133714,-83.3469673
1784,Cass Lake Front Road,48320,42.6132676,-83.3468942
1788,Cass Lake Front Road,48320,42.6131531,-83.3469565
1790,Cass Lake Front Road,48320,42.6130536,-83.3468894
1800,Cass Lake Front Road,48320,42.6129441,-83.3468486
1806,Cass Lake Front Road,48320,42.6128336,-83.3468589
1812,Cass Lake Front Road,48320,42.6127341,-83.3467675
1820,Cass Lake Front Road,48320,42.6126142,-83.3467936
1828,Cass Lake Front Road,48320,42.6125072,-83.3466799
1840,Cass Lake Front Road,48320,42.6123488,-83.3465494
1848,Cass Lake Front Road,48320,42.6122013,-83.3465295
1858,Cass Lake Front Road,48320,42.6120934,-83.3465373
1862,Cass Lake Front Road,48320,42.6119737,-83.3465278
1870,Cass Lake Front Road,48320,42.6118039,-83.3465365
1886,Cass Lake Front Road,48320,42.6116607,-83.3466003
1882,Cass Lake Front Road,48320,42.6116723,-83.3461857
1896,Cass Lake Front Road,48320,42.6115692,-83.3464539
1928,Cass Lake Front Road,48320,42.6111999,-83.3464875
1904,Cass Lake Front Road,48320,42.6114553,-83.3464819
1922,Cass Lake Front Road,48320,42.6113163,-83.3464843
1932,Cass Lake Front Road,48320,42.6110988,-83.3465610
1621,Stapleton Court,48320,42.6153957,-83.3444445
1631,Stapleton Court,48320,42.6152378,-83.3444699
1663,Stapleton Court,48320,42.6146996,-83.3445610
1661,Stapleton Court,48320,42.6148063,-83.3445617
1643,Stapleton Court,48320,42.6150248,-83.3444726
1654,Stapleton Court,48320,42.6148732,-83.3450114
1644,Stapleton Court,48320,42.6149818,-83.3450402
3051,Stapleton Drive,48320,42.6149047,-83.3455070
3043,Stapleton Drive,48320,42.6150098,-83.3454270
3082,Stapleton Drive,48320,42.6148366,-83.3462567
3086,Stapleton Drive,48320,42.6147359,-83.3463302
1497,Beachland Boulevard,48320,42.6173462,-83.3485357
1530,Kessler Avenue,48320,42.6174163,-83.3482073
1517,Kessler Avenue,48320,42.6176208,-83.3476533
1561,Kessler Avenue,48320,42.6168914,-83.3473814
1481,Beachland Boulevard,48320,42.6176290,-83.3483629
1968,Maddy Lane,48320,42.6101944,-83.3400194
1954,Maddy Lane,48320,42.6103265,-83.3400817
1980,Maddy Lane,48320,42.6100043,-83.3400348
1990,Maddy Lane,48320,42.6098522,-83.3400314
2824,Schroder Boulevard,48320,42.6098558,-83.3403330
2830,Schroder Boulevard,48320,42.6098819,-83.3404939
2840,Schroder Boulevard,48320,42.6098207,-83.3408920
2836,Schroder Boulevard,48320,42.6098330,-83.3406973
2823,Stennett Street,48320,42.6102925,-83.3403476
2825,Stennett Street,48320,42.6102632,-83.3405073
2881,Stennett Street,48320,42.6101723,-83.3412855
1960,Beechmont Street,48320,42.6102785,-83.3424706
1970,Beechmont Street,48320,42.6100900,-83.3424447
1965,Beechmont Street,48320,42.6101932,-83.3418284
1985,Beechmont Street,48320,42.6098977,-83.3418170
2920,Schroder Boulevard,48320,42.6098789,-83.3426636
1955,Maddy Lane,48320,42.6103728,-83.3394562
1977,Maddy Lane,48320,42.6100720,-83.3395388
1985,Maddy Lane,48320,42.6099238,-83.3395106
1995,Maddy Lane,48320,42.6097452,-83.3395019
2019,Maddy Lane,48320,42.6093121,-83.3394878
2061,Maddy Lane,48320,42.6090237,-83.3394208
2890,Beland Avenue,48320,42.6082308,-83.3417620
2878,Beland Avenue,48320,42.6082639,-83.3412144
2828,Beland Avenue,48320,42.6083718,-83.3404163
2831,Knowlson Street,48320,42.6086641,-83.3405488
2065,Beechmont Street,48320,42.6085184,-83.3419047
2880,Beland Avenue,48320,42.6083723,-83.3415951
2874,Beland Avenue,48320,42.6082708,-83.3414074
2875,Knowlson Street,48320,42.6086540,-83.3414350
2865,Knowlson Street,48320,42.6086412,-83.3411983
2853,Knowlson Street,48320,42.6086501,-83.3410147
2845,Knowlson Street,48320,42.6086871,-83.3408270
2854,Beland Avenue,48320,42.6082654,-83.3410140
2846,Beland Avenue,48320,42.6082683,-83.3407995
2836,Beland Avenue,48320,42.6083610,-83.3406232
2820,Beland Avenue,48320,42.6084000,-83.3402640
2076,Maddy Lane,48320,42.6084074,-83.3399471
2066,Maddy Lane,48320,42.6086664,-83.3399563
2071,Maddy Lane,48320,42.6085036,-83.3394737
2051,Maddy Lane,48320,42.6087498,-83.3394289
2089,Maddy Lane,48320,42.6082189,-83.3392568
2831,Beland Avenue,48320,42.6079398,-83.3405368
2119,Stout Street,48320,42.6078086,-83.3405913
2105,Beechmont Street,48320,42.6078287,-83.3418458
2873,Beland Avenue,48320,42.6078964,-83.3414012
2120,Stout Street,48320,42.6077785,-83.3411286
2130,Stout Street,48320,42.6075916,-83.3411542
2131,Beechmont Street,48320,42.6075199,-83.3416869
2911,Beland Avenue,48320,42.6076704,-83.3422988
2921,Beland Avenue,48320,42.6078113,-83.3424885
2931,Beland Avenue,48320,42.6078333,-83.3426667
2941,Beland Avenue,48320,42.6078571,-83.3428557
2951,Beland Avenue,48320,42.6078371,-83.3430696
2880,Wall Street,48320,42.6114247,-83.3418945
2840,Wall Street,48320,42.6114886,-83.3409650
2850,Wall Street,48320,42.6114334,-83.3411909
2830,Wall Street,48320,42.6114928,-83.3407545
2820,Wall Street,48320,42.6115200,-83.3405103
2830,Stennett Street,48320,42.6106795,-83.3405334
2822,Stennett Street,48320,42.6106396,-83.3403848
2860,Stennett Street,48320,42.6107097,-83.3411414
2839,Wall Street,48320,42.6110246,-83.3415060
2817,Wall Street,48320,42.6110855,-83.3404002
2821,Wall Street,48320,42.6110846,-83.3406253
2825,Wall Street,48320,42.6110796,-83.3408484
2829,Wall Street,48320,42.6110727,-83.3410717
2833,Wall Street,48320,42.6110687,-83.3412948
2898,Stennett Street,48320,42.6106455,-83.3414752
2876,Stennett Street,48320,42.6106810,-83.3413264
2844,Stennett Street,48320,42.6106810,-83.3409376
1935,Beechmont Street,48320,42.6107560,-83.3419277
2910,Stennett Street,48320,42.6106119,-83.3419121
1925,Beechmont Street,48320,42.6109228,-83.3419490
1915,Beechmont Street,48320,42.6110690,-83.3419324
1709,Maddy Lane,48320,42.6126349,-83.3399041
1703,Maddy Lane,48320,42.6127906,-83.3399456
1681,Maddy Lane,48320,42.6129610,-83.3399436
1675,Maddy Lane,48320,42.6131351,-83.3399534
1661,Maddy Lane,48320,42.6133171,-83.3399576
1649,Maddy Lane,48320,42.6134857,-83.3399259
1635,Maddy Lane,48320,42.6136742,-83.3398572
1615,Maddy Lane,48320,42.6138599,-83.3397593
1603,Maddy Lane,48320,42.6140895,-83.3398065
1600,Maddy Lane,48320,42.6141332,-83.3401123
1630,Maddy Lane,48320,42.6138591,-83.3404317
1640,Maddy Lane,48320,42.6136622,-83.3405163
1650,Maddy Lane,48320,42.6134560,-83.3405317
1660,Maddy Lane,48320,42.6132693,-83.3406256
1680,Maddy Lane,48320,42.6130828,-83.3406112
1690,Maddy Lane,48320,42.6129221,-83.3405867
1700,Maddy Lane,48320,42.6127531,-83.3406105
1714,Maddy Lane,48320,42.6124307,-83.3405954
1706,Maddy Lane,48320,42.6125980,-83.3405894
1780,Maddy Lane,48320,42.6122711,-83.3405582
1814,Maddy Lane,48320,42.6120981,-83.3405896
1848,Maddy Lane,48320,42.6119340,-83.3406059
1876,Maddy Lane,48320,42.6117287,-83.3401004
1866,Maddy Lane,48320,42.6118876,-83.3402039
1884,Maddy Lane,48320,42.6116123,-83.3400515
1890,Maddy Lane,48320,42.6114372,-83.3400763
1912,Maddy Lane,48320,42.6111334,-83.3400702
1924,Maddy Lane,48320,42.6109710,-83.3400690
1946,Maddy Lane,48320,42.6106410,-83.3400757
1934,Maddy Lane,48320,42.6108182,-83.3400117
1735,Maddy Lane,48320,42.6124613,-83.3399420
1795,Maddy Lane,48320,42.6122957,-83.3399093
1849,Maddy Lane,48320,42.6121913,-83.3395633
1859,Maddy Lane,48320,42.6119926,-83.3395555
1867,Maddy Lane,48320,42.6118482,-83.3396192
1877,Maddy Lane,48320,42.6117171,-83.3396105
1887,Maddy Lane,48320,42.6115780,-83.3396161
1895,Maddy Lane,48320,42.6112887,-83.3394819
1919,Maddy Lane,48320,42.6110130,-83.3394919
1925,Maddy Lane,48320,42.6109175,-83.3394747
1935,Maddy Lane,48320,42.6107789,-83.3393978
1947,Maddy Lane,48320,42.6106463,-83.3393712
2936,Moss Street,48320,42.6124724,-83.3433484
2952,Moss Street,48320,42.6124777,-83.3436143
2928,Moss Street,48320,42.6124694,-83.3431945
1825,Cass Lake Road,48320,42.6126056,-83.3440766
1833,Cass Lake Road,48320,42.6125138,-83.3440866
2978,Moss Street,48320,42.6124339,-83.3440819
2944,Glenbroke Street,48320,42.6119226,-83.3434772
2952,Glenbroke Street,48320,42.6117934,-83.3435985
2969,Moss Street,48320,42.6120118,-83.3439095
2945,Moss Street,48320,42.6121431,-83.3434841
2961,Moss Street,48320,42.6121313,-83.3437678
2953,Moss Street,48320,42.6121377,-83.3436257
2937,Moss Street,48320,42.6121610,-83.3433478
2927,Moss Street,48320,42.6121682,-83.3431729
2936,Glenbroke Street,48320,42.6118402,-83.3433291
2960,Glenbroke Street,48320,42.6119182,-83.3437587
2968,Glenbroke Street,48320,42.6118338,-83.3439602
2968,Hensman Avenue,48320,42.6112651,-83.3432925
2927,Glenbroke Street,48320,42.6115086,-83.3431600
2986,Hensman Avenue,48320,42.6111831,-83.3435811
2960,Hensman Avenue,48320,42.6112940,-83.3431273
2978,Hensman Avenue,48320,42.6112256,-83.3434430
2959,Glenbroke Street,48320,42.6114971,-83.3437443
2933,Glenbroke Street,48320,42.6115016,-83.3432964
2943,Glenbroke Street,48320,42.6115010,-83.3434559
2951,Glenbroke Street,48320,42.6115023,-83.3436052
2967,Glenbroke Street,48320,42.6114476,-83.3438639
1905,Cass Lake Road,48320,42.6114936,-83.3439960
1653,Rustic Lane,48320,42.6149865,-83.3407807
1747,Rustic Lane,48320,42.6139970,-83.3414105
1725,Rustic Lane,48320,42.6142100,-83.3412833
1701,Rustic Lane,48320,42.6144515,-83.3410783
1713,Rustic Lane,48320,42.6143519,-83.3411602
1681,Rustic Lane,48320,42.6145813,-83.3410036
1677,Rustic Lane,48320,42.6147133,-83.3409149
1632,Rustic Lane,48320,42.6154204,-83.3417755
1644,Rustic Lane,48320,42.6151757,-83.3417496
1662,Rustic Lane,48320,42.6148570,-83.3417458
1656,Rustic Lane,48320,42.6150237,-83.3417526
1674,Rustic Lane,48320,42.6146721,-83.3417514
1716,Rustic Lane,48320,42.6143247,-83.3416850
1684,Rustic Lane,48320,42.6145185,-83.3416970
1759,Rustic Lane,48320,42.6138023,-83.3415111
1763,Rustic Lane,48320,42.6136436,-83.3415074
1775,Rustic Lane,48320,42.6134744,-83.3415154
1789,Rustic Lane,48320,42.6133152,-83.3414698
1807,Rustic Lane,48320,42.6131456,-83.3414691
1831,Rustic Lane,48320,42.6128110,-83.3414328
1839,Rustic Lane,48320,42.6126505,-83.3414360
1815,Rustic Lane,48320,42.6129802,-83.3414389
1845,Rustic Lane,48320,42.6125023,-83.3414195
1903,Rustic Lane,48320,42.6118135,-83.3413923
1879,Rustic Lane,48320,42.6121567,-83.3413786
1867,Rustic Lane,48320,42.6123286,-83.3414557
1885,Rustic Lane,48320,42.6119901,-83.3414175
2900,Hensman Avenue,48320,42.6117554,-83.3418520
2926,Hensman Avenue,48320,42.6115238,-83.3426152
2940,Hensman Avenue,48320,42.6114536,-83.3427640
1653,Sylvan Glen,48320,42.6149024,-83.3428947
1637,Sylvan Glen,48320,42.6151480,-83.3429633
1645,Sylvan Glen,48320,42.6150301,-83.3429249
1636,Sylvan Glen,48320,42.6151781,-83.3432520
2917,Cordell Avenue,48320,42.6144551,-83.3428324
2903,Cordell Avenue,48320,42.6145023,-83.3424691
2914,Cordell Avenue,48320,42.6147657,-83.3427916
2911,Cordell Avenue,48320,42.6144291,-83.3426549
2930,Cordell Avenue,48320,42.6147534,-83.3432840
2935,Cordell Avenue,48320,42.6144723,-83.3433699
2929,Cordell Avenue,48320,42.6144629,-83.3432251
2943,Cordell Avenue,48320,42.6144575,-83.3435891
1801,Beechcroft Street,48320,42.6128370,-83.3436562
1789,Beechcroft Street,48320,42.6131020,-83.3436167
1793,Beechcroft Street,48320,42.6129718,-83.3436473
1775,Beechcroft Street,48320,42.6133735,-83.3435475
1767,Beechcroft Street,48320,42.6135019,-83.3435231
1759,Beechcroft Street,48320,42.6136617,-83.3435961
1747,Beechcroft Street,48320,42.6139189,-83.3437026
1723,Beechcroft Street,48320,42.6144389,-83.3437589
1667,Beechcroft Street,48320,42.6147299,-83.3436978
1653,Beechcroft Street,48320,42.6148929,-83.3437091
1637,Beechcroft Street,48320,42.6150563,-83.3437222
1620,Beechcroft Street,48320,42.6154365,-83.3442405
1630,Beechcroft Street,48320,42.6153138,-83.3441696
1638,Beechcroft Street,48320,42.6151542,-83.3441821
1654,Beechcroft Street,48320,42.6148903,-83.3441531
1664,Beechcroft Street,48320,42.6147552,-83.3441415
1700,Beechcroft Street,48320,42.6146072,-83.3441384
1720,Beechcroft Street,48320,42.6143660,-83.3441765
1728,Beechcroft Street,48320,42.6142121,-83.3441249
1740,Beechcroft Street,48320,42.6140558,-83.3441152
1746,Beechcroft Street,48320,42.6138773,-83.3441351
1770,Beechcroft Street,48320,42.6132957,-83.3440471
1786,Beechcroft Street,48320,42.6131195,-83.3440913
1792,Beechcroft Street,48320,42.6129776,-83.3440313
1762,Beechmont Street,48320,42.6136772,-83.3424090
1664,Beechmont Street,48320,42.6147963,-83.3424812
1660,Beechmont Street,48320,42.6149024,-83.3425247
1654,Beechmont Street,48320,42.6150417,-83.3425938
1638,Beechmont Street,48320,42.6151873,-83.3425170
1628,Beechmont Street,48320,42.6153237,-83.3425107
1632,Beechmont Street,48320,42.6156431,-83.3421587
1621,Beechmont Street,48320,42.6154682,-83.3422069
1629,Beechmont Street,48320,42.6153360,-83.3421829
1641,Beechmont Street,48320,42.6151553,-83.3421990
1663,Beechmont Street,48320,42.6148842,-83.3421883
1721,Beechmont Street,48320,42.6143557,-83.3421045
1701,Beechmont Street,48320,42.6146321,-83.3420875
1711,Beechmont Street,48320,42.6144803,-83.3421125
1747,Beechmont Street,48320,42.6139415,-83.3420737
1741,Beechmont Street,48320,42.6140910,-83.3420971
1754,Beechmont Street,48320,42.6138040,-83.3424483
1748,Beechmont Street,48320,42.6139398,-83.3425012
1742,Beechmont Street,48320,42.6140793,-83.3424604
1732,Beechmont Street,48320,42.6141976,-83.3424571
1731,Beechmont Street,48320,42.6142306,-83.3420891
1755,Beechmont Street,48320,42.6138143,-83.3420603
1775,Beechmont Street,48320,42.6134232,-83.3420015
1769,Beechmont Street,48320,42.6135397,-83.3420064
1763,Beechmont Street,48320,42.6136707,-83.3420181
1768,Beechmont Street,48320,42.6135275,-83.3424383
1776,Beechmont Street,48320,42.6133930,-83.3424416
1802,Beechmont Street,48320,42.6128523,-83.3423827
1796,Beechmont Street,48320,42.6129868,-83.3424336
1788,Beechmont Street,48320,42.6131357,-83.3425382
1787,Beechmont Street,48320,42.6131444,-83.3419751
1795,Beechmont Street,48320,42.6129885,-83.3420194
1781,Beechmont Street,48320,42.6132614,-83.3420369
1780,Beechmont Street,48320,42.6132702,-83.3424202
1811,Beechmont Street,48320,42.6127099,-83.3420153
1814,Beechmont Street,48320,42.6125790,-83.3424239
1824,Beechmont Street,48320,42.6123695,-83.3423706
1817,Beechmont Street,48320,42.6125184,-83.3420180
1831,Beechmont Street,48320,42.6123222,-83.3419195
1837,Beechmont Street,48320,42.6121816,-83.3419818
1851,Beechmont Street,48320,42.6118994,-83.3419497
1845,Beechmont Street,48320,42.6120598,-83.3419410
1844,Beechmont Street,48320,42.6120393,-83.3423324
1852,Beechmont Street,48320,42.6118812,-83.3424644
1860,Beechmont Street,48320,42.6117766,-83.3423518
1786,Sylvan Glen,48320,42.6130924,-83.3432047
1802,Sylvan Glen,48320,42.6128315,-83.3431413
1794,Sylvan Glen,48320,42.6129646,-83.3431461
1780,Sylvan Glen,48320,42.6132302,-83.3432147
1776,Sylvan Glen,48320,42.6133677,-83.3432170
1764,Sylvan Glen,48320,42.6136288,-83.3432405
1774,Sylvan Glen,48320,42.6135050,-83.3432260
1754,Sylvan Glen,48320,42.6137748,-83.3432010
1738,Sylvan Glen,48320,42.6140776,-83.3432546
1732,Sylvan Glen,48320,42.6142010,-83.3432200
1739,Sylvan Glen,48320,42.6140817,-83.3428636
1757,Sylvan Glen,48320,42.6137912,-83.3428529
1747,Sylvan Glen,48320,42.6139213,-83.3427965
1761,Sylvan Glen,48320,42.6136507,-83.3428573
1769,Sylvan Glen,48320,42.6135353,-83.3428285
1775,Sylvan Glen,48320,42.6133950,-83.3428065
1781,Sylvan Glen,48320,42.6132559,-83.3428222
1787,Sylvan Glen,48320,42.6131216,-83.3427869
1795,Sylvan Glen,48320,42.6129732,-83.3428079
1809,Sylvan Glen,48320,42.6127045,-83.3427919
1801,Sylvan Glen,48320,42.6128455,-83.3428106
1827,Sylvan Glen,48320,42.6124516,-83.3427725
1835,Sylvan Glen,48320,42.6123007,-83.3427380
1843,Sylvan Glen,48320,42.6121441,-83.3427432
1851,Sylvan Glen,48320,42.6120304,-83.3427114
1859,Sylvan Glen,48320,42.6118941,-83.3427129
1867,Sylvan Glen,48320,42.6117568,-83.3426859
