House number,Street name,Postal code,Latitude,Longitude
815,Grand River Avenue,48912,42.7423926,-84.5218105
620,Lesher Place,48912,42.7400917,-84.5390753
6821,South Cedar Street,48911,42.6591724,-84.5346202
413,South Cedar Street,48912,42.7294985,-84.5451735
443,Mall Court,48912,42.7385299,-84.5072412
5225,North Grand River Avenue,48917,42.7692557,-84.6012621
2021,East Michigan Avenue,48912,42.7337681,-84.5215153
2033,East Michigan Avenue,48912,42.7337602,-84.5213383
427,Mall Court,48912,42.7380742,-84.5072759
134,Washington Square South,48933,42.7327106,-84.5525261
2809,North East Street,48906,42.7624876,-84.5432137
2015,North Larch Street,48906,42.7557494,-84.5449404
400,South Pennsylvania Avenue,48912,42.7294875,-84.5385406
400,South Pennsylvania Avenue,48912,42.7296481,-84.5383274
5010,Dunckel Road,48910,42.6831500,-84.5137708
2525,East Jolly Road,48912,42.6833137,-84.5149008
300,North Clippert Street,48912,42.7366123,-84.5072969
3525,S Martin Luther King Jr Blvd,48910,42.6957476,-84.5666394
921,West Holmes Street,48910,42.6950376,-84.5652652
310,North Clippert Street,48912,42.7373800,-84.5072767
533,Mall Court,48912-5200,42.7394955,-84.5072505
3301,East Michigan Avenue,48912,42.7354145,-84.5024943
35,Frandor Avenue,48912,42.7367502,-84.5055923
6070,South Martin Luther King Jr Boulevard,48911,42.6708126,-84.5820742
1625,Turner Street,48906,42.7524167,-84.5498098
3000,Dunckel Road,48910,42.6894336,-84.5086339
401,South Pennsylvania Avenue,48912,42.7296797,-84.5374677
120,West Ottawa Street,48933,42.7347527,-84.5533389
500,East Michigan Avenue,48912,42.7332780,-84.5450193
2417,E Kalamazoo St,48912,42.7302944,-84.5168121
414,East Michigan Avenue,48933,42.7333581,-84.5475786
215,North Clippert Street,48912,42.7351391,-84.5086469
2019,East Michigan Avenue,48912,42.7337790,-84.5216395
3315,East Michigan Avenue,48912,42.7347717,-84.5022479
1419,East Michigan Avenue,48912,42.7337684,-84.5304182
1611,East Kalamazoo Street,48912,42.7300805,-84.5265143
1941,Benjamin Drive,48906,42.7551588,-84.5484677
5400,South Cedar Street,48911,42.6796403,-84.5508023
415,Mall Court,48912,42.7376898,-84.5072534
7016,Cedar Street,48911,42.6556877,-84.5344346
6825,South Cedar Street,48911,42.6585977,-84.5361088
6736,South Cedar Street,48911,42.6592959,-84.5376135
6615,South Pennsylvania Avenue,48911,42.6613739,-84.5378067
6440,South Pennsylvania Avenue,48911,42.6639555,-84.5388350
6540,South Cedar Street,48911,42.6622938,-84.5399400
632,American Road,48911,42.6601371,-84.5477377
438,East Edgewood Boulevard,48911,42.6616704,-84.5453282
446,East Edgewood Boulevard,48911,42.6621925,-84.5442350
6541,South Cedar Street,48911,42.6626446,-84.5388635
6827,Cedar Street,48911,42.6575823,-84.5341323
6939,Cedar Street,48911,42.6569883,-84.5338688
7050,Cedar Street,48911,42.6550638,-84.5337552
1820 Sunset Suite 202,Sunset Avenue,48917,42.7553652,-84.5790311
406,Washington Square South,48933,42.7296069,-84.5525290
526,Frandor Avenue,48912,42.7391644,-84.5055270
518,Frandor Avenue,48912,42.7390151,-84.5055159
5100,South Waverly Road,48911,42.6827930,-84.6034586
5058,South Waverly Road,48911,42.6833992,-84.6034824
6724,Cedar Street,48911,42.6596238,-84.5378698
3815,South Cedar Street,48910,42.6932855,-84.5476357
3625,South Cedar Street,48910,42.6948369,-84.5475795
1412,West Mount Hope Avenue,48910,42.7123201,-84.5719978
1625,West Mount Hope Avenue,48910,42.7115531,-84.5746485
1715,West Mount Hope Avenue,48910,42.7114324,-84.5755732
1705,West Mount Hope Avenue,48910,42.7115279,-84.5748757
1609,West Mount Hope Avenue,48910,42.7115194,-84.5739606
637,East Michigan Avenue,48912,42.7344996,-84.5429661
3814,West Jolly Road,48911,42.6834750,-84.6027717
5600,South Cedar Street,48911,42.6761448,-84.5479586
5025,North Grand River Avenue,48906,42.7683715,-84.5978037
1501,West Mount Hope Avenue,48910,42.7116772,-84.5728291
5843,South Martin Luther King Jr Boulevard,48911,42.6736657,-84.5773553
6099,South Martin Luther King Jr Boulevard,48911,42.6694787,-84.5827943
414,East Michigan Avenue,48933,42.7333834,-84.5473709
124,West Michigan Avenue,48933,42.7340573,-84.5534370
3335,East Michigan Avenue,48912,42.7339886,-84.5021287
310,North Clippert Street,48912,42.7373896,-84.5080100
3131,East Michigan Avenue,48912,42.7340552,-84.5070702
1600,South Washington Avenue,48910,42.7157453,-84.5526090
2211,South Cedar Street,48910,42.7088704,-84.5477155
2120,South Cedar Street,48910,42.7095054,-84.5481801
217,South Cedar Street,48910,42.7094330,-84.5476900
2107,South Cedar Street,48910,42.7098823,-84.5477437
1201,North Cedar Street,48906,42.7479132,-84.5467898
510,Frandor Avenue,48912,42.7389060,-84.5055245
1941,Benjamin Drive,48906,42.7552273,-84.5483113
416,South Cedar Street,48912,42.7291993,-84.5458292
2100,North Larch Street,48906,42.7561429,-84.5437136
5010,Dunckel Road,48910,42.6833524,-84.5140837
2600,South Cedar Street,48910,42.7047704,-84.5484261
6099,South Martin Luther King Jr Boulevard,48911,42.6693879,-84.5831102
720,West Jolly Road,48910,42.6832807,-84.5622511
700,North Pine Street,48906,42.7411542,-84.5596522
4221,Aurelius Road,48910,42.6903338,-84.5231561
1000,East Mount Hope Avenue,48910,42.7117126,-84.5377056
1122,West Holmes Road,48910,42.6979696,-84.5690361
1511,South Cedar Street,48910,42.7161387,-84.5461754
1526,South Cedar Street,48910,42.7156725,-84.5468425
500,Baker Street,48910,42.7163337,-84.5469512
2010,East Michigan Avenue,48912,42.7334334,-84.5219704
1629,East Michigan Avenue,48912,42.7337424,-84.5265229
300,North Clippert Street,48912,42.7367416,-84.5069075
115,West Allegan Street,48933,42.7322638,-84.5531747
302,East César E. Chávez Avenue,48906,42.7472459,-84.5487117
304,East César E. Chávez Avenue,48906,42.7472481,-84.5486337
306,East César E. Chávez Avenue,48906,42.7472471,-84.5485499
300,North Clippert Street,48912,42.7367724,-84.5070762
300,North Clippert Street,48912,42.7366126,-84.5074343
400,North Clippert Street,48912,42.7366124,-84.5075737
300,North Clippert Street,48912,42.7366133,-84.5077237
300,North Clippert Street,48912,42.7366181,-84.5079739
300,North Clippert Street,48912,42.7366167,-84.5078485
120,Washington Square North,48933,42.7341703,-84.5517805
500,East Oakland Avenue,48906,42.7434100,-84.5460299
500,West Mount Hope Avenue,48910,42.7121619,-84.5589720
1923,East Michigan Avenue,48912,42.7338026,-84.5228854
1008,South Cedar Street,48912,42.7227976,-84.5457667
1801,North Grand River Avenue,48906,42.7539838,-84.5572451
1700,West Willow Street,48915,42.7484659,-84.5749756
918,South Pennsylvania Avenue,48912,42.7247657,-84.5384374
4019,South Martin Luther King Jr Boulevard,48910,42.6916833,-84.5667835
3612,South Martin Luther King Jr Boulevard,48910,42.6951929,-84.5677471
1800,South Pennsylvania Avenue,48910,42.7135307,-84.5383995
911,Center Street,48906,42.7437846,-84.5483193
1208,Turner Street,48906,42.7477555,-84.5493504
1210,Turner Street,48906,42.7478112,-84.5493527
1212,Turner Street,48906,42.7478661,-84.5493527
1232,Turner Street,48906,42.7484195,-84.5492932
1232,Turner Street,48906,42.7484633,-84.5493667
2024,East Michigan Avenue,48912,42.7334190,-84.5214311
1918,East Kalamazoo Street,48912,42.7297231,-84.5228195
618,East Kalamazoo Street,48912,42.7296701,-84.5430594
6041,South Pennsylvania Avenue,48911,42.6696843,-84.5377414
1425,Rensen Street,48910,42.6861524,-84.5322120
1002,E Saginaw St,48906,42.7404516,-84.5372587
3306,North East Street,48906,42.7670814,-84.5424179
134,East Edgewood Boulevard,48911,42.6603058,-84.5532511
2905,North East Street,48906,42.7630278,-84.5430460
3200,North East Street,48906,42.7657741,-84.5424527
420,Frandor Avenue,48912,42.7378665,-84.5054541
631,North Pennsylvania Avenue,48912,42.7403698,-84.5382163
909,West Holmes Road,48910,42.6971841,-84.5646605
2423,South Cedar Street,48910,42.7063362,-84.5476306
5101,South Pennsylvania Avenue,48911,42.6826031,-84.5377693
1824,South Pennsylvania Avenue,48910,42.7120987,-84.5385946
1415,South Pennsylvania Avenue,48910,42.7166932,-84.5378943
3433,East Michigan Avenue,48912,42.7339352,-84.5011705
6445,Cedar Street,48842,42.6636666,-84.5395662
6441,Cedar Street,48842,42.6638539,-84.5396973
6439,Cedar Street,48842,42.6639585,-84.5397812
6441 C,Cedar Street,48842,42.6639006,-84.5397457
3101,East Saginaw Street,48912,42.7409972,-84.5079518
3431,Beaujardin Drive,48910,42.6853286,-84.5036792
3431,Beaujardin Drive,48910,42.6854056,-84.5036783
3431,Beaujardin Drive,48910,42.6854821,-84.5036774
3431,Beaujardin Drive,48910,42.6855620,-84.5036764
3431,Beaujardin Drive,48910,42.6855581,-84.5035141
3431,Beaujardin Drive,48910,42.6854821,-84.5035151
3431,Beaujardin Drive,48910,42.6854053,-84.5035160
3431,Beaujardin Drive,48910,42.6853273,-84.5035169
3411,Beaujardin Drive,48910,42.6847766,-84.5036860
3411,Beaujardin Drive,48910,42.6848558,-84.5036852
3411,Beaujardin Drive,48910,42.6849310,-84.5036845
3411,Beaujardin Drive,48910,42.6850113,-84.5036837
3411,Beaujardin Drive,48910,42.6850023,-84.5035228
3411,Beaujardin Drive,48910,42.6849271,-84.5035235
3411,Beaujardin Drive,48910,42.6848528,-84.5035242
3411,Beaujardin Drive,48910,42.6847736,-84.5035249
209,W. Mt. Hope Ave,48910,42.7118223,-84.5555552
234,Washington Square South,48933,42.7314187,-84.5526059
600,East Michigan Avenue,48912,42.7332455,-84.5443850
600,East Michigan Avenue,48912,42.7333582,-84.5442127
600,East Michigan Avenue,48912,42.7331808,-84.5442725
557,South Dexter Drive,48910,42.6985998,-84.5449014
600,East Michigan Avenue,48912,42.7333612,-84.5441028
600,East Michigan Avenue,48912,42.7333245,-84.5441580
300,North Clippert Street,48912,42.7363099,-84.5073044
6736,South Cedar Street,48911,42.6592492,-84.5377263
6825,South Cedar Street,48911,42.6586288,-84.5358816
2626,North Grand River Avenue,48906,42.7608793,-84.5686716
1801,North Grand River Avenue,48906,42.7538604,-84.5573741
1201,North Cedar Street,48906,42.7479291,-84.5471187
3306,North East Street,48906,42.7671343,-84.5422585
401,South Pennsylvania Avenue,48912,42.7295357,-84.5374212
6250,South Pennsylvania Avenue,48911,42.6674483,-84.5390426
6041,South Pennsylvania Avenue,48911,42.6696818,-84.5374239
5200,South Pennsylvania Avenue,48911,42.6813504,-84.5384793
5200,South Pennsylvania Avenue,48911,42.6813573,-84.5386771
4221,Aurelius Road,48910,42.6903771,-84.5230110
5402,Aurelius Road,48911,42.6789147,-84.5240892
3814,West Jolly Road,48911,42.6834449,-84.6025278
3400,South Waverly Road,48911,42.6971843,-84.6036369
3400,South Waverly Road,48911,42.6972257,-84.6034437
3000,Dunckel Road,48910,42.6893736,-84.5091292
3612,South Martin Luther King Jr Boulevard,48910,42.6951943,-84.5679206
5600,South Cedar Street,48911,42.6760890,-84.5482881
4600,South Cedar Street,48910,42.6873942,-84.5483606
4600,South Cedar Street,48910,42.6873927,-84.5486187
3625,South Cedar Street,48910,42.6948513,-84.5472555
2701,South Cedar Street,48910,42.7045328,-84.5476270
2712,South Cedar Street,48910,42.7042825,-84.5486999
1008,South Cedar Street,48912,42.7227663,-84.5458433
5640,South Martin Luther King Jr Boulevard,48911,42.6758869,-84.5756896
5852,South Martin Luther King Jr Boulevard,48911,42.6738439,-84.5780016
5843,South Martin Luther King Jr Boulevard,48911,42.6734475,-84.5773405
4019,South Martin Luther King Jr Boulevard,48910,42.6916862,-84.5664977
5016,South Martin Luther King Jr Boulevard,48910,42.6842011,-84.5682143
410,East Jolly Road,48910,42.6824916,-84.5491236
1000,East Mount Hope Avenue,48910,42.7115578,-84.5376505
1600,South Washington Avenue,48910,42.7156811,-84.5527755
500,West Mount Hope Avenue,48910,42.7122786,-84.5588721
1501,West Mount Hope Avenue,48910,42.7115080,-84.5728223
801,South Martin Luther King Jr Boulevard,48915,42.7252195,-84.5670395
801,South Martin Luther King Jr Boulevard,48915,42.7251890,-84.5668007
601,West Saginaw Street,48933,42.7405601,-84.5605230
601,West Saginaw Street,48933,42.7406980,-84.5604774
918,South Pennsylvania Avenue,48912,42.7247634,-84.5386094
918,South Pennsylvania Avenue,48912,42.7246757,-84.5386188
1923,East Michigan Avenue,48912,42.7339665,-84.5229359
1700,West Willow Street,48915,42.7485697,-84.5750003
446,Frandor Avenue,48912,42.7385433,-84.5054945
2345,South Cedar Street,48910,42.7070958,-84.5476805
6527,South Cedar Street,48911,42.6629584,-84.5389429
300,North Clippert Street,48912,42.7363230,-84.5074059
112,Washington Square South,48933,42.7329253,-84.5525564
5025,South Cedar Street,48910,42.6836298,-84.5474171
105,West Allegan Street,48933,42.7323600,-84.5527774
1100,West Saginaw Street,48915,42.7412588,-84.5676643
2010,East Michigan Avenue,48912,42.7334425,-84.5218813
2018,East Michigan Avenue,48912,42.7334438,-84.5216741
6030,South Pennsylvania Avenue,48911,42.6700121,-84.5390864
3220,South Martin Luther King Boulevard,48910,42.6987282,-84.5677126
519,West Ionia Street,48933,42.7358060,-84.5593721
620,South Capitol Avenue,48933,42.7267916,-84.5550245
300,North Clippert Street,48912,42.7363831,-84.5075702
1522,East Michigan Avenue,48912,42.7334127,-84.5274639
2010,East Michigan Avenue,48912,42.7333002,-84.5221817
2727,South Pennsylvania Avenue,48910,42.7038015,-84.5350259
2010,East Michigan Avenue,48912,42.7333575,-84.5217964
900,East Mount Hope Avenue,48910,42.7115770,-84.5396075
2202,Donora Street,48910,42.7090282,-84.5400911
840,East Mount Hope Avenue,48910,42.7115756,-84.5402225
908,East Mount Hope Avenue,48910,42.7116191,-84.5393350
810,East Mount Hope Avenue,48910,42.7115777,-84.5413655
810,East Mount Hope Avenue,48910,42.7111696,-84.5413059
810,East Mount Hope Avenue,48910,42.7110244,-84.5413695
520,East Mount Hope Avenue,48910,42.7117022,-84.5467803
2311,South Cedar Street,48910,42.7079625,-84.5476763
2501,South Cedar Street,48910,42.7057646,-84.5475868
2513,South Cedar Street,48910,42.7055927,-84.5477196
2519,South Cedar Street,48910,42.7053450,-84.5476969
2823,South Cedar Street,48910,42.7030200,-84.5476565
2901,South Cedar Street,48910,42.7025702,-84.5476464
3021,South Cedar Street,48910,42.7015513,-84.5475782
3133,South Cedar Street,48910,42.7001206,-84.5476750
901,East Mount Hope Avenue,48910,42.7121577,-84.5396267
810,East Mount Hope Avenue,48910,42.7113071,-84.5416651
3320,South Pennsylvania Avenue,48910,42.6978042,-84.5384041
2316,South Cedar Street,48911,42.7077961,-84.5488654
727,East Miller Road,48911,42.6695912,-84.5419973
322,West Ottawa Street,48933,42.7347950,-84.5565107
124,West Allegan Street,48933,42.7329416,-84.5534743
6527,South Cedar Street,48911,42.6630289,-84.5389899
325,West Washtenaw Street,48933,42.7309781,-84.5566129
317,East César E. Chávez Avenue,48906,42.7475680,-84.5487589
530,West Ionia Street,48933,42.7363429,-84.5597079
2110,North Larch Street,48906,42.7566414,-84.5434401
505,East Michigan Avenue,48912,42.7347910,-84.5456252
1415,South Pennsylvania Avenue,48910,42.7165361,-84.5366433
920,Townsend St,48359,42.7224110,-84.5647357
500,West Shiawassee Street,48933,42.7379271,-84.5584729
1215,East Michigan Avenue,48912,42.7341660,-84.5352803
420,South Grand Avenue,48933,42.7292825,-84.5511420
100,North Capitol Avenue,48933,42.7336054,-84.5554579
1526,East Mount Hope Avenue,48906,42.7084925,-84.5303910
201,East Shiawassee Street,48933,42.7397066,-84.5493287
525,West Ottawa Street,48933,42.7342993,-84.5583473
611,West Ottawa Street,48933,42.7340283,-84.5592135
530,West Allegan Street,48933,42.7331028,-84.5592567
430,West Allegan Street,48933,42.7329489,-84.5581380
608,West Allegan Street,48915,42.7340906,-84.5607567
608,West Allegan Street,48915,42.7331893,-84.5607595
111,South Capitol Avenue,48933,42.7332768,-84.5533846
315,West Allegan Street,48933-1523,42.7320542,-84.5562030
201,Townsend Street,48933,42.7323478,-84.5550379
205,West Allegan Street,48933,42.7322167,-84.5544162
120,West Michigan Avenue,48933,42.7339789,-84.5533178
320,South Walnut Street,48933,42.7306435,-84.5576449
610,North Capitol Avenue,48912,42.7402230,-84.5533360
219,Seymour Avenue,48933,42.7356288,-84.5560215
218,West Ottawa Street,48933,42.7350043,-84.5549855
221,North Washington Square,48933,42.7354505,-84.5530692
125,West Allegan Street,48933,42.7323333,-84.5535883
323,North Walnut Street,48933,42.7368656,-84.5573036
325,West Washtenaw Street,48933,42.7309798,-84.5565888
101,East Hillsdale,48909,42.7277121,-84.5518435
515,West Ionia Street,48933,42.7357590,-84.5592044
3131,East Michigan Avenue,48912,42.7345963,-84.5068041
3003,East Michigan Avenue,48912,42.7340028,-84.5092789
3125,East Saginaw Street,48912,42.7411641,-84.5073663
600,Frandor Avenue,48912-5208,42.7398064,-84.5059224
3201,East Saginaw Street,48912,42.7410898,-84.5065305
540,Frandor Avenue,48912,42.7394901,-84.5052425
3220,East Saginaw Street,48912-4714,42.7404274,-84.5061510
3420,East Saginaw Street,48912,42.7403301,-84.5052670
3335,East Michigan Avenue,48912,42.7340202,-84.5020956
3121,East Grand River Avenue,48912,42.7421739,-84.5068308
2006,West Willow,48906,42.7487926,-84.5787140
319,West Genesee Street,48933,42.7383650,-84.5566613
530,West Ionia Street,48933,42.7362926,-84.5597062
320,North Sycamore Street,48933,42.7367398,-84.5612184
4000,Woodcreek Lane,48911,42.6958941,-84.6075673
5100,South Waverly Road,48911,42.6829084,-84.6033506
1100,North Washington Avenue,48906,42.7464038,-84.5516968
1212,North Washington Avenue,48906,42.7478431,-84.5517879
201,East Grand River Avenue,48906,42.7476506,-84.5502068
1107,North Washington Avenue,48906,42.7463950,-84.5526225
1320,North Grand River Avenue,48906,42.7494231,-84.5547275
1220,East Grand River Avenue,48906,42.7477864,-84.5514539
314,East César E. Chávez Avenue,48906,42.7472165,-84.5482105
223,North Clippert Street,48912,42.7355275,-84.5087159
1210,West Saginaw Street,48915,42.7419131,-84.5694535
1505,East Michigan Avenue,48912,42.7339036,-84.5287301
637,East Michigan Avenue,48912,42.7344052,-84.5429692
2401,Marcus Street,48912,42.7288154,-84.5176314
1019,West Saginaw Street,48915,42.7406125,-84.5665327
120,West Ottawa Street,48933,42.7347996,-84.5532922
116,West Ottawa Street,48933,42.7348131,-84.5531333
700,North Pine Street,48906,42.7412017,-84.5595780
1016,West Saginaw Street,48915,42.7412517,-84.5665428
335,North Sycamore Street,48933,42.7371130,-84.5618129
331,North Sycamore Street,48933,42.7370031,-84.5618102
325,North Sycamore Street,48933,42.7368568,-84.5618054
319,North Sycamore Street,48933,42.7366573,-84.5618195
227,North Sycamore Street,48933,42.7355869,-84.5619054
725,American Road,48911,42.6607250,-84.5433040
2395,Washington Road,48911,42.6553131,-84.5692947
3800,Hagadorn Road,48864,42.6973163,-84.4550055
2002,West Saginaw Street,48915,42.7414392,-84.5788043
2010,West Saginaw Street,48915,42.7413178,-84.5791807
5500,Pleasant Grove Road,49811,42.6794685,-84.5873488
3825,West Jolly Road,48911,42.6826937,-84.6023434
3135,South Martin Luther King Boulevard,48910-2939,42.7002160,-84.5667588
3229,South Martin Luther King Boulevard,48910,42.6989205,-84.5667670
3311,South Martin Luther King Jr Boulevard,48910,42.6982977,-84.5667464
3015,South Washington Avenue,48910,42.7018133,-84.5604781
307,East César E. Chávez Avenue,48906,42.7475692,-84.5490621
1250,Turner Street,48906,42.7488794,-84.5492379
1214,Turner Street,48906,42.7479252,-84.5492952
1207,Turner Street,48906,42.7477187,-84.5497833
1209,Turner Street,48906,42.7477774,-84.5498111
311,East César E. Chávez Avenue,48906,42.7475779,-84.5489550
1213,Turner Street,48906,42.7479048,-84.5498204
1221,Turner Street,48906,42.7481294,-84.5498268
1224,Turner Street,48906,42.7481373,-84.5492558
1127,North Cedar Street,48906,42.7470792,-84.5471852
319,East César E. Chávez Avenue,48906,42.7475849,-84.5485373
408,East César E. Chávez Avenue,48906,42.7471692,-84.5475474
317,East César E. Chávez Avenue,48906,42.7475835,-84.5487308
327,East César E. Chávez Avenue,48906,42.7475864,-84.5483377
329,East César E. Chávez Avenue,48906,42.7475872,-84.5482276
108,South Hosmer Street,48912,42.7330666,-84.5414004
812,East Michigan Avenue,48912,42.7332932,-84.5404344
900,East Michigan Avenue,48912,42.7331835,-84.5392126
912,East Michigan Avenue,48912,42.7332770,-84.5387999
930,East Michigan Avenue,48912,42.7332366,-84.5382905
2223,Bedford Street,48911,42.7090463,-84.5911764
10933,West Jolly Road,48911-3008,42.6860174,-84.6234484
501,West Cavanaugh Road,49811,42.6890207,-84.5589966
1220,West Kalamazoo Street,48915,42.7308309,-84.5699963
3010,South Martin Luther King Jr Boulevard,48910,42.7020840,-84.5679351
3404,South Martin Luther King Jr Boulevard,48910,42.6970432,-84.5683029
3621,South Martin Luther King Jr Boulevard,48910,42.6950394,-84.5669306
921,West Holmes Road,48910,42.6971751,-84.5655513
5509,South Pennsylvania Avenue,48911,42.6769231,-84.5366413
2919,South Cedar Street,48910,42.7022834,-84.5476668
3340,Ranger Road,48906,42.7674023,-84.5782426
5161,North Grand River Avenue,48906,42.7691230,-84.6002759
1401,David Street,48906,42.7560120,-84.5338450
300,East Oakland Avenue,48906,42.7426261,-84.5490603
523,East Shiawassee Street,48912,42.7374631,-84.5454678
428,North Cedar Street,48912,42.7381092,-84.5460768
3821,South Martin Luther King Jr Boulevard,48910,42.6934062,-84.5668329
3109,South Cedar Street,48910,42.7008993,-84.5476077
313,North Cedar Street,48912,42.7364142,-84.5476546
6727,S Cedar Street,48911,42.6600235,-84.5368133
5505,South Pennsylvania Avenue,48911,42.6777010,-84.5374362
500,East Edgewood Boulevard,48911-5901,42.6631305,-84.5431975
454,East Edgewood Boulevard,48911,42.6636983,-84.5454814
411,North Cedar Street,48912,42.7376814,-84.5476740
401,North Cedar Street,48912,42.7374846,-84.5474149
"421,423,425,427,429,431",North Cedar Street,48912,42.7379645,-84.5473075
505,North Cedar Street,48912,42.7382448,-84.5473808
501,North Cedar Street,48912,42.7381743,-84.5470312
"511,513,515,517,519,521",North Cedar Street,48912,42.7384663,-84.5473066
525,North Cedar Street,48912,42.7387447,-84.5476711
533,North Cedar Street,48912,42.7389458,-84.5474144
6200,South Pennsylvania Avenue,48911,42.6684769,-84.5408672
505,East Saginaw Street,48906,42.7411656,-84.5460230
1001,Attwood Drive,49811,42.6732379,-84.5684779
1220,West Kalamazoo Street,48915,42.7279361,-84.5694713
1800,South Pennsylvania Avenue,48910,42.7135309,-84.5384346
1808,South Pennsylvania Avenue,48910,42.7126665,-84.5385562
6525,South Pennsylvania Avenue,48911,42.6631162,-84.5377224
112,North Larch Street,48912,42.7340670,-84.5443033
727,North Capitol Avenue,48912,42.7419547,-84.5542763
310,North Cedar Street,48912,42.7358747,-84.5455422
427,East Oakland Avenue,48906,42.7440555,-84.5469478
2730,Alpha Access Street,48910,42.7038069,-84.5373839
1105,South Washington Avenue,48910,42.7215983,-84.5519944
1447,South Washington Avenue,48910,42.7204095,-84.5520341
1004,Cleo Street,48915,42.7453024,-84.5762644
1008,Cleo Street,48915,42.7454132,-84.5762639
1014,Cleo Street,48915,42.7455841,-84.5762653
1022,Cleo Street,48915,42.7458303,-84.5762680
1104,Cleo Street,48915,42.7462556,-84.5762644
1108,Cleo Street,48915,42.7463635,-84.5762414
1112,Cleo Street,48915,42.7464744,-84.5762438
1116,Cleo Street,48915,42.7465819,-84.5762314
1118,Cleo Street,48915,42.7466881,-84.5762035
1122,Cleo Street,48915,42.7467908,-84.5762217
1130,Cleo Street,48915,42.7470033,-84.5762371
1132,Cleo Street,48915,42.7471018,-84.5762237
1136,Cleo Street,48915,42.7472348,-84.5762675
1140,Cleo Street,48915,42.7473368,-84.5762238
1204,Cleo Street,48915,42.7477257,-84.5762531
1200,Cleo Street,48915,42.7476145,-84.5762433
1217,Cleo Street,48915,42.7480515,-84.5767369
1215,Cleo Street,48915,42.7479440,-84.5767407
1211,Cleo Street,48915,42.7478383,-84.5767577
1201,Cleo Street,48915,42.7477241,-84.5767406
1201,Cleo Street,48915,42.7476078,-84.5767603
924,North Walnut Street,48906,42.7443651,-84.5565867
928,North Walnut Street,48906,42.7444651,-84.5565659
1220,West Kalamazoo Street,48915,42.7307989,-84.5703870
220,North Pennsylvania Avenue,48912,42.7354726,-84.5365176
1721,North Grand River Avenue,48906,42.7534391,-84.5567287
2110,North Larch Street,48906,42.7564713,-84.5437172
2120,North Larch Street,48906,42.7569876,-84.5432627
2224,North Larch Street,48906,42.7576484,-84.5431436
600,East Thomas Street,48906,42.7578612,-84.5430920
520,East Mount Hope Avenue,48910,42.7116652,-84.5467979
531,Woodrow Avenue,48910,42.7103362,-84.5466985
2416,North East Street,48906,42.7594264,-84.5423460
1445,South Washington Avenue,48910,42.7173673,-84.5515834
403,Edmore Street,48906,42.7503724,-84.5573260
325,Regent Street,48912,42.7302753,-84.5247139
324,Regent Street,48912,42.7301777,-84.5240023
707,Prudden Street,48906,42.7413304,-84.5419507
6270,South Cedar Street,48911,42.6666315,-84.5430917
6310,South Cedar Street,48911,42.6660329,-84.5426468
815,Marshall Street,48912,42.7427265,-84.5267349
200,Edgewood Boulevard,48911,42.6599199,-84.5499818
530,West Willow Street,48906,42.7510633,-84.5598832
626,Marshall Street,48912,42.7394092,-84.5245690
1700,East Cavanaugh Road,48910,42.6896623,-84.5276009
1626,Alpha Street,48910,42.7141011,-84.5371022
1624,Alpha Street,48910,42.7142159,-84.5370736
1618,Alpha Street,48910,42.7143213,-84.5370962
1616,Alpha Street,48910,42.7144456,-84.5370869
1612,Alpha Street,48910,42.7145688,-84.5370849
1608,Alpha Street,48910,42.7146832,-84.5370710
1604,Alpha Street,48910,42.7147918,-84.5371017
1600,Alpha Street,48910,42.7148872,-84.5370779
1613,Alpha Street,48910,42.7145588,-84.5366467
1621,Alpha Street,48910,42.7143387,-84.5366592
1625,Alpha Street,48910,42.7142271,-84.5366446
1627,Alpha Street,48910,42.7141118,-84.5366553
1633,Alpha Street,48910,42.7138759,-84.5366332
106,East Jolly Road,48911,42.6826501,-84.5526222
6450,South Cedar Street,48911,42.6633076,-84.5408688
6606,South Cedar Street,48911,42.6615913,-84.5392068
6620,South Cedar Street,48911,42.6611672,-84.5390400
900,American Road,48911,42.6611870,-84.5403110
910,American Road,48911,42.6603572,-84.5397810
6555,South Pennsylvania Avenue,48911,42.6618748,-84.5376546
6435,South Cedar Street,48911,42.6643055,-84.5399510
6415,South Cedar Street,48911,42.6648296,-84.5401360
1136,Shepard Street,48912,42.7212865,-84.5264711
908,Edison Avenue,48910,42.7074201,-84.5394370
912,Edison Avenue,48910,42.7074166,-84.5392695
916,Edison Avenue,48910,42.7074156,-84.5391118
918,Edison Avenue,48910,42.7074260,-84.5389636
922,Edison Avenue,48910,42.7074081,-84.5388561
2326,South Pennsylvania Avenue,48910,42.7074494,-84.5384193
928,Pacific Avenue,48910,42.7082186,-84.5384581
927,Edison Avenue,48910,42.7077068,-84.5385611
923,Edison Avenue,48910,42.7077515,-84.5388247
921,Edison Avenue,48910,42.7077794,-84.5389890
911,Edison Avenue,48910,42.7077606,-84.5392860
904,Pacific Avenue,48910,42.7082019,-84.5397079
908,Pacific Avenue,48910,42.7081694,-84.5394235
912,Pacific Avenue,48910,42.7081857,-84.5392594
918,Pacific Avenue,48910,42.7081761,-84.5390079
924,Pacific Avenue,48910,42.7081747,-84.5388436
5016,South Martin Luther King Jr Boulevard,48910,42.6838495,-84.5689799
5118,South Martin Luther King Jr Boulevard,48911,42.6826243,-84.5692647
3545,Forest Road,48910,42.7054557,-84.5001999
1625,Sunset Avenue,48917,42.7522185,-84.5824171
3900,Collins Road,48910,42.6932429,-84.5006891
4600,Collins Road,48910,42.6873221,-84.4993990
100,East North Street,48906,42.7511899,-84.5524429
2120,Donora Street,48910,42.7094094,-84.5400862
2116,Donora Street,48910,42.7095042,-84.5401546
2112,Donora Street,48910,42.7096200,-84.5401545
2108,Donora Street,48910,42.7097243,-84.5401060
2104,Donora Street,48910,42.7098278,-84.5400938
2102,Donora Street,48910,42.7099602,-84.5401207
2219,Donora Street,48910,42.7084845,-84.5395482
2217,Donora Street,48910,42.7085895,-84.5396222
2213,Donora Street,48910,42.7086871,-84.5396358
2209,Donora Street,48910,42.7088168,-84.5395901
2205,Donora Street,48910,42.7089074,-84.5396059
2201,Donora Street,48910,42.7090120,-84.5396116
912,Riley Street,48910,42.7089851,-84.5392421
916,Riley Street,48910,42.7089812,-84.5391177
918,Riley Street,48910,42.7089740,-84.5389589
922,Riley Street,48910,42.7089777,-84.5388112
2100,South Pennsylvania Avenue,48910,42.7090090,-84.5384486
2220,South Pennsylvania Avenue,48910,42.7085053,-84.5384242
923,Pacific Avenue,48910,42.7085212,-84.5388131
919,Pacific Avenue,48910,42.7085278,-84.5389761
917,Pacific Avenue,48910,42.7085680,-84.5391044
913,Pacific Avenue,48910,42.7085855,-84.5392772
2117,South Cedar Street,48910,42.7095908,-84.5476642
2107,South Cedar Street,48910,42.7098962,-84.5477429
510,Woodrow Avenue,48910,42.7100226,-84.5475403
512,Woodrow Avenue,48910,42.7100208,-84.5474232
518,Woodrow Avenue,48910,42.7100303,-84.5471667
522,Woodrow Avenue,48910,42.7100393,-84.5470443
2110,Colvin Court,48910,42.7096758,-84.5472285
900,Kenwood Avenue,48910,42.7099487,-84.5395802
2105,Donora Street,48910,42.7098560,-84.5396210
2111,Donora Street,48910,42.7097265,-84.5396580
912,Kenwood Avenue,48910,42.7099042,-84.5392587
914,Kenwood Avenue,48910,42.7099149,-84.5390836
924,Kenwood Avenue,48910,42.7098980,-84.5388034
929,Riley Street,48910,42.7093051,-84.5384849
923,Riley Street,48910,42.7093352,-84.5388042
919,Riley Street,48910,42.7093379,-84.5389581
917,Riley Street,48910,42.7093437,-84.5391192
2125,Donora Street,48910,42.7092969,-84.5396010
2121,Donora Street,48910,42.7094399,-84.5396358
2115,Donora Street,48910,42.7095812,-84.5396436
580,East Mount Hope Avenue,48910,42.7117013,-84.5441313
604,East Mount Hope Avenue,48910,42.7116911,-84.5438066
1912,Roberts Lane,48910,42.7113894,-84.5438008
1916,Roberts Lane,48910,42.7112799,-84.5438287
1920,Roberts Lane,48910,42.7111692,-84.5438113
1924,Roberts Lane,48910,42.7110632,-84.5438262
1928,Roberts Lane,48910,42.7109656,-84.5438002
2000,Roberts Lane,48910,42.7108449,-84.5438308
2004,Roberts Lane,48910,42.7107387,-84.5438187
2008,Roberts Lane,48910,42.7106187,-84.5438154
2012,Roberts Lane,48910,42.7104997,-84.5438167
2016,Roberts Lane,48910,42.7103661,-84.5438025
2020,Roberts Lane,48910,42.7102557,-84.5437926
2100,Roberts Lane,48910,42.7101283,-84.5438287
2104,Roberts Lane,48910,42.7099709,-84.5438838
2110,Roberts Lane,48910,42.7098375,-84.5438028
2114,Roberts Lane,48910,42.7097056,-84.5437898
2118,Roberts Lane,48910,42.7095740,-84.5437854
2124,Roberts Lane,48910,42.7093368,-84.5437835
619,Riley Street,48910,42.7093548,-84.5439244
615,Riley Street,48910,42.7093492,-84.5440856
611,Riley Street,48910,42.7093441,-84.5442379
601,Riley Street,48910,42.7093437,-84.5443970
2119,Grant Street,48910,42.7095326,-84.5445142
2111,Grant Street,48910,42.7098377,-84.5445051
2110,Grant Street,48910,42.7098371,-84.5450403
2114,Grant Street,48910,42.7096954,-84.5450520
2118,Grant Street,48910,42.7095846,-84.5450458
2124,Grant Street,48910,42.7093402,-84.5449991
567,Riley Street,48910,42.7093455,-84.5451719
565,Riley Street,48910,42.7093592,-84.5453304
555,Riley Street,48910,42.7093484,-84.5456214
2125,Ray Street,48910,42.7093790,-84.5457766
2119,Ray Street,48910,42.7095909,-84.5457642
2111,Ray Street,48910,42.7098238,-84.5457622
2109,Ray Street,48910,42.7099171,-84.5457554
2105,Ray Street,48910,42.7100127,-84.5457195
2101,Ray Street,48910,42.7101138,-84.5457334
2017,Ray Street,48910,42.7103617,-84.5456334
2013,Ray Street,48910,42.7105119,-84.5455485
2009,Ray Street,48910,42.7106042,-84.5457395
2005,Ray Street,48910,42.7106964,-84.5457487
2003,Ray Street,48910,42.7107823,-84.5457563
2001,Ray Street,48910,42.7108771,-84.5457390
1927,Ray Street,48910,42.7109727,-84.5457393
2005,Ray Street,48910,42.7110879,-84.5457490
2019,Ray Street,48910,42.7112101,-84.5457488
1915,Ray Street,48910,42.7113412,-84.5457168
1911,Ray Street,48910,42.7114651,-84.5457461
544,East Mount Hope Avenue,48910,42.7116895,-84.5457494
548,East Mount Hope Avenue,48910,42.7117068,-84.5455807
532,East Mount Hope Avenue,48910,42.7117107,-84.5462975
534,East Mount Hope Avenue,48910,42.7117252,-84.5461742
1918,Ray Street,48910,42.7112779,-84.5462108
1920,Ray Street,48910,42.7111783,-84.5462518
1924,Ray Street,48910,42.7110716,-84.5462282
533,Florence Street,48910,42.7111180,-84.5465760
529,Florence Street,48910,42.7111124,-84.5467001
527,Florence Street,48910,42.7111003,-84.5468092
523,Florence Street,48910,42.7111124,-84.5469297
519,Florence Street,48910,42.7110972,-84.5471630
515,Florence Street,48910,42.7111110,-84.5472903
1925,South Cedar Street,48910,42.7111309,-84.5475397
1917,South Cedar Street,48910,42.7113475,-84.5475653
626,Marshall Street,48912,42.7395202,-84.5245189
2000,South Pennsylvania Avenue,48910,42.7107429,-84.5384198
2020,South Pennsylvania Avenue,48910,42.7102035,-84.5384359
923,Kenwood Avenue,48910,42.7102496,-84.5389493
919,Kenwood Avenue,48910,42.7102412,-84.5390861
917,Kenwood Avenue,48910,42.7102543,-84.5392437
2019,Donora Street,48910,42.7102047,-84.5396257
2015,Donora Street,48910,42.7103240,-84.5396027
2009,Donora Street,48910,42.7104677,-84.5396475
2007,Donora Street,48910,42.7105991,-84.5396441
2001,Donora Street,48910,42.7107404,-84.5396258
912,McKim Avenue,48910,42.7106876,-84.5392602
916,McKim Avenue,48910,42.7106967,-84.5391144
918,McKim Avenue,48910,42.7106847,-84.5389673
922,McKim Avenue,48910,42.7106894,-84.5388280
2018,Donora Street,48910,42.7102090,-84.5401299
2016,Donora Street,48910,42.7103049,-84.5401220
2014,Donora Street,48910,42.7104156,-84.5401092
2008,Donora Street,48910,42.7105164,-84.5401102
2004,Donora Street,48910,42.7106354,-84.5401095
2000,Donora Street,48910,42.7107391,-84.5400900
838,McKim Avenue,48910,42.7106801,-84.5404661
2009,South Cedar Street,48910,42.7107275,-84.5475983
514,Florence Street,48910,42.7108013,-84.5472930
520,Florence Street,48910,42.7107891,-84.5470442
522,Florence Street,48910,42.7107999,-84.5468663
528,Florence Street,48910,42.7107925,-84.5466743
532,Florence Street,48910,42.7107738,-84.5465362
534,Florence Street,48910,42.7107184,-84.5464190
540,Florence Street,48910,42.7107723,-84.5462256
2018,Ray Street,48910,42.7104823,-84.5461643
537,Woodrow Avenue,48910,42.7103436,-84.5464380
533,Woodrow Avenue,48910,42.7103585,-84.5465747
529,Woodrow Avenue,48910,42.7103498,-84.5468216
525,Woodrow Avenue,48910,42.7103501,-84.5469449
523,Woodrow Avenue,48910,42.7103537,-84.5470634
519,Woodrow Avenue,48910,42.7103508,-84.5471772
517,Woodrow Avenue,48910,42.7103345,-84.5473076
513,Woodrow Avenue,48910,42.7103537,-84.5474147
822,East Mount Hope Avenue,48910,42.7116397,-84.5409252
840,East Mount Hope Avenue,48910,42.7115625,-84.5402024
1914,Donora Street,48910,42.7113145,-84.5400799
1922,Donora Street,48910,42.7111365,-84.5400773
1926,Donora Street,48910,42.7110112,-84.5401444
900,East Mount Hope Avenue,48910,42.7115834,-84.5396085
1917,Donora Street,48910,42.7113179,-84.5396123
908,East Mount Hope Avenue,48910,42.7116232,-84.5393470
916,East Mount Hope Avenue,48910,42.7116207,-84.5390596
930,East Mount Hope Avenue,48910,42.7116584,-84.5386904
923,McKim Avenue,48910,42.7110614,-84.5387918
919,McKim Avenue,48910,42.7110823,-84.5389551
913,McKim Avenue,48910,42.7110616,-84.5392564
1927,Donora Street,48910,42.7110071,-84.5395782
1925,Donora Street,48910,42.7110953,-84.5395982
1919,Donora Street,48910,42.7112049,-84.5396090
901,East Mount Hope Avenue,48910,42.7121279,-84.5395177
3615,Dunckel Road,48910,42.6898515,-84.4997136
2727,Lyons Avenue,48910,42.7037827,-84.5410117
8175,Millett Hwy.,48921,42.6902466,-84.6759814
5645,South Cedar Street,48911,42.6754793,-84.5466954
5522,South Cedar Street,48911,42.6769199,-84.5483354
1028,West Barnes Avenue,48910,42.7154712,-84.5667009
1902,East Cavanaugh Road,48910,42.6897377,-84.5250420
3400,Franette Road,48906,42.7680672,-84.6022086
3320,South Pennsylvania Avenue,48910,42.6977880,-84.5384456
940,South Dexter Drive,48910,42.6978049,-84.5387951
936,South Dexter Drive,48910,42.6978195,-84.5389878
926,South Dexter Drive,48910,42.6979135,-84.5393782
922,South Dexter Drive,48910,42.6979996,-84.5395861
914,South Dexter Drive,48910,42.6980347,-84.5398050
904,South Dexter Drive,48910,42.6980130,-84.5400190
902,South Dexter Drive,48910,42.6980560,-84.5402052
830,South Dexter Drive,48910,42.6980740,-84.5403865
826,South Dexter Drive,48910,42.6980774,-84.5405778
820,South Dexter Drive,48910,42.6980944,-84.5407656
816,South Dexter Drive,48910,42.6981043,-84.5409496
812,South Dexter Drive,48910,42.6980937,-84.5411426
808,South Dexter Drive,48910,42.6981082,-84.5413329
800,South Dexter Drive,48910,42.6981660,-84.5415346
728,South Dexter Drive,48910,42.6981946,-84.5417586
720,South Dexter Drive,48910,42.6982877,-84.5420303
710,South Dexter Drive,48910,42.6983922,-84.5422766
3231,Cedar Brook Avenue,48910,42.6984480,-84.5425865
630,South Dexter Drive,48910,42.6985628,-84.5430230
624,South Dexter Drive,48910,42.6984661,-84.5431833
618,South Dexter Drive,48910,42.6983506,-84.5433765
3140,South Pennsylvania Avenue,48910,42.6998996,-84.5384887
3300,South Pennsylvania Avenue,48910,42.6982994,-84.5385117
921,South Dexter Drive,48910,42.6982203,-84.5387613
919,South Dexter Drive,48910,42.6982411,-84.5389498
3241,Plymouth Drive,48910,42.6983079,-84.5391552
3227,Alden Drive,48910,42.6984800,-84.5401275
911,South Dexter Drive,48910,42.6984606,-84.5398414
915,South Dexter Drive,48910,42.6985570,-84.5396065
2990,Dunckel Road,48910,42.6894762,-84.5098966
805,South Dexter Drive,48910,42.6985837,-84.5413226
811,South Dexter Drive,48910,42.6985319,-84.5411299
817,South Dexter Drive,48910,42.6985138,-84.5408885
3232,Alden Drive,48910,42.6985290,-84.5406557
914,Hamilton Avenue,48910,42.7009787,-84.5394515
912,Hamilton Avenue,48910,42.7009613,-84.5396476
906,Hamilton Avenue,48910,42.7009561,-84.5398512
900,Hamilton Avenue,48910,42.7009831,-84.5402546
816,Hamilton Avenue,48910,42.7009742,-84.5404484
812,Hamilton Avenue,48910,42.7009715,-84.5406437
810,Hamilton Avenue,48910,42.7009692,-84.5408484
806,Hamilton Avenue,48910,42.7008950,-84.5410513
3107,Sablain Parkway Drive,48910,42.7007719,-84.5412321
917,Hamilton Avenue,48910,42.7013807,-84.5394524
915,Hamilton Avenue,48910,42.7014033,-84.5396259
911,Hamilton Avenue,48910,42.7014161,-84.5398359
907,Hamilton Avenue,48910,42.7013898,-84.5399987
905,Hamilton Avenue,48910,42.7013859,-84.5401800
901,Hamilton Avenue,48910,42.7013865,-84.5403620
817,Hamilton Avenue,48910,42.7013948,-84.5405573
805,Hamilton Avenue,48910,42.7013725,-84.5411103
801,Hamilton Avenue,48910,42.7013656,-84.5412861
727,Hamilton Avenue,48910,42.7013982,-84.5414939
725,Hamilton Avenue,48910,42.7014292,-84.5416602
728,Hamilton Avenue,48910,42.7009790,-84.5417706
3108,Sablain Parkway Drive,48910,42.7008616,-84.5417883
714,Hamilton Avenue,48910,42.7009782,-84.5421951
721,South Dexter Drive,48910,42.6987352,-84.5419151
3215,Cedar Brook Avenue,48910,42.6989969,-84.5424902
614,East Mount Hope Avenue,48910,42.7116532,-84.5433327
620,East Mount Hope Avenue,48910,42.7117068,-84.5430790
1913,Roberts Lane,48910,42.7113933,-84.5433221
1917,Roberts Lane,48910,42.7112870,-84.5433358
1923,Roberts Lane,48910,42.7111593,-84.5433119
1929,Roberts Lane,48910,42.7109265,-84.5433198
2001,Roberts Lane,48910,42.7108365,-84.5433350
2005,Roberts Lane,48910,42.7107343,-84.5433309
2009,Roberts Lane,48910,42.7106031,-84.5433524
2013,Roberts Lane,48910,42.7104792,-84.5433169
2017,Roberts Lane,48910,42.7103672,-84.5432936
2101,Roberts Lane,48910,42.7101098,-84.5433513
2105,Roberts Lane,48910,42.7099780,-84.5433213
2111,Roberts Lane,48910,42.7098602,-84.5433096
2115,Roberts Lane,48910,42.7097501,-84.5432854
2117,Roberts Lane,48910,42.7096540,-84.5433182
2121,Roberts Lane,48910,42.7095516,-84.5433137
633,Riley Street,48910,42.7093407,-84.5433515
635,Riley Street,48910,42.7093360,-84.5432044
641,Riley Street,48910,42.7093352,-84.5430371
701,Riley Street,48910,42.7093503,-84.5428678
709,Riley Street,48910,42.7093382,-84.5426817
711,Riley Street,48910,42.7093455,-84.5425107
2122,Lyons Avenue,48910,42.7092892,-84.5421150
2118,Lyons Avenue,48910,42.7093973,-84.5421508
2116,Lyons Avenue,48910,42.7095200,-84.5421704
2112,Lyons Avenue,48910,42.7096441,-84.5421303
2108,Lyons Avenue,48910,42.7097290,-84.5421568
2104,Lyons Avenue,48910,42.7098536,-84.5423330
2100,Lyons Avenue,48910,42.7099414,-84.5421422
710,Kenwood Avenue,48910,42.7098880,-84.5425122
704,Kenwood Avenue,48910,42.7098356,-84.5426763
700,Kenwood Avenue,48910,42.7098859,-84.5428656
708,Kenwood Avenue,48910,42.7102536,-84.5427509
2020,Lyons Avenue,48910,42.7102158,-84.5421513
2014,Lyons Avenue,48910,42.7103032,-84.5421337
2012,Lyons Avenue,48910,42.7104158,-84.5421850
2008,Lyons Avenue,48910,42.7105297,-84.5421571
2004,Lyons Avenue,48910,42.7106409,-84.5421227
2000,Lyons Avenue,48910,42.7107496,-84.5421865
710,McKim Avenue,48910,42.7107099,-84.5425294
700,McKim Avenue,48910,42.7107535,-84.5428890
701,McKim Avenue,48910,42.7110735,-84.5428820
707,McKim Avenue,48910,42.7110692,-84.5427133
711,McKim Avenue,48910,42.7110725,-84.5425151
1922,Lyons Avenue,48910,42.7109969,-84.5421310
1922,Lyons Avenue,48910,42.7111209,-84.5421317
1918,Lyons Avenue,48910,42.7112152,-84.5421480
1916,Lyons Avenue,48910,42.7113176,-84.5421591
1912,Lyons Avenue,48910,42.7114320,-84.5421758
716,East Mount Hope Avenue,48910,42.7116285,-84.5422588
712,East Mount Hope Avenue,48910,42.7116980,-84.5424492
706,East Mount Hope Avenue,48910,42.7116896,-84.5426719
804,East Mount Hope Avenue,48910,42.7116423,-84.5415915
800,East Mount Hope Avenue,48910,42.7116757,-84.5417401
810,East Mount Hope Avenue,48910,42.7112848,-84.5413879
2001,Lyons Avenue,48910,42.7107437,-84.5416824
2005,Lyons Avenue,48910,42.7106288,-84.5416771
2013,Lyons Avenue,48910,42.7104267,-84.5416957
2017,Lyons Avenue,48910,42.7103073,-84.5416245
2021,Lyons Avenue,48910,42.7102270,-84.5416728
820,Kenwood Avenue,48910,42.7099181,-84.5409801
806,Kenwood Avenue,48910,42.7099199,-84.5411615
812,Kenwood Avenue,48910,42.7099254,-84.5412649
2101,Lyons Avenue,48910,42.7099432,-84.5416773
2107,Lyons Avenue,48910,42.7098196,-84.5416699
2113,Lyons Avenue,48910,42.7096145,-84.5416494
2115,Lyons Avenue,48910,42.7095114,-84.5416891
2119,Lyons Avenue,48910,42.7093969,-84.5416538
2123,Lyons Avenue,48910,42.7092975,-84.5416738
817,Riley Street,48910,42.7093748,-84.5411271
825,Riley Street,48910,42.7093378,-84.5409125
824,Riley Street,48910,42.7090241,-84.5406572
822,Riley Street,48910,42.7089934,-84.5408717
818,Riley Street,48910,42.7089931,-84.5410007
816,Riley Street,48910,42.7090054,-84.5411688
812,Riley Street,48910,42.7089768,-84.5413156
2201,Lyons Avenue,48910,42.7090213,-84.5416754
2205,Lyons Avenue,48910,42.7089129,-84.5416705
2209,Lyons Avenue,48910,42.7088157,-84.5416964
2213,Lyons Avenue,48910,42.7087029,-84.5416699
2217,Lyons Avenue,48910,42.7085962,-84.5416707
2219,Lyons Avenue,48910,42.7084837,-84.5416507
813,Pacific Avenue,48910,42.7085304,-84.5412701
817,Pacific Avenue,48910,42.7085628,-84.5411524
823,Pacific Avenue,48910,42.7085165,-84.5408627
829,Pacific Avenue,48910,42.7085800,-84.5406983
835,Pacific Avenue,48910,42.7085532,-84.5405490
2200,Lyons Avenue,48910,42.7090298,-84.5421408
2204,Lyons Avenue,48910,42.7089448,-84.5421500
2208,Lyons Avenue,48910,42.7088147,-84.5421365
708,Riley Street,48910,42.7089938,-84.5425196
700,Riley Street,48910,42.7089484,-84.5428718
640,Riley Street,48910,42.7089647,-84.5430133
636,Riley Street,48910,42.7089795,-84.5431782
630,Riley Street,48910,42.7089596,-84.5433441
2219,Roberts Lane,48910,42.7086661,-84.5433307
633,Pacific Avenue,48910,42.7085301,-84.5432716
637,Pacific Avenue,48910,42.7085294,-84.5430164
701,Pacific Avenue,48910,42.7085365,-84.5428508
705,Pacific Avenue,48910,42.7085586,-84.5426755
709,Pacific Avenue,48910,42.7085362,-84.5425304
2218,Lyons Avenue,48910,42.7084824,-84.5421427
2216,Lyons Avenue,48910,42.7085895,-84.5421401
2212,Lyons Avenue,48910,42.7086929,-84.5421683
838,Pacific Avenue,48910,42.7081704,-84.5403783
828,Pacific Avenue,48910,42.7081904,-84.5406068
822,Pacific Avenue,48910,42.7082033,-84.5408628
818,Pacific Avenue,48910,42.7081996,-84.5410160
814,Pacific Avenue,48910,42.7081876,-84.5411587
2301,Lyons Avenue,48910,42.7082240,-84.5416527
2305,Lyons Avenue,48910,42.7081297,-84.5416629
2309,Lyons Avenue,48910,42.7080344,-84.5416802
2313,Lyons Avenue,48910,42.7079325,-84.5416399
2315,Lyons Avenue,48910,42.7078288,-84.5416584
2319,Lyons Avenue,48910,42.7077192,-84.5416474
815,Edison Avenue,48910,42.7077824,-84.5411257
843,Edison Avenue,48910,42.7077479,-84.5400867
839,Edison Avenue,48910,42.7077506,-84.5402383
835,Edison Avenue,48910,42.7077644,-84.5404258
827,Edison Avenue,48910,42.7077618,-84.5406910
823,Edison Avenue,48910,42.7077760,-84.5408359
2302,Lyons Avenue,48910,42.7082322,-84.5421732
710,Pacific Avenue,48910,42.7081826,-84.5425359
704,Pacific Avenue,48910,42.7081898,-84.5427074
700,Pacific Avenue,48910,42.7081986,-84.5428419
636,Pacific Avenue,48910,42.7081783,-84.5430351
630,Pacific Avenue,48910,42.7081477,-84.5432127
2305,Roberts Lane,48910,42.7080314,-84.5433323
631,Edison Avenue,48910,42.7078227,-84.5432364
637,Edison Avenue,48910,42.7077741,-84.5430371
701,Edison Avenue,48910,42.7077606,-84.5428678
711,Edison Avenue,48910,42.7077514,-84.5425321
705,Edison Avenue,48910,42.7079277,-84.5426569
2312,Lyons Avenue,48910,42.7079325,-84.5421549
2314,Lyons Avenue,48910,42.7078240,-84.5421441
2318,Lyons Avenue,48910,42.7077030,-84.5421611
516,South Dexter Drive,48910,42.6985122,-84.5465044
526,South Dexter Drive,48910,42.6984031,-84.5461600
530,South Dexter Drive,48910,42.6983468,-84.5459845
534,South Dexter Drive,48910,42.6983206,-84.5458085
540,South Dexter Drive,48910,42.6983072,-84.5456059
542,South Dexter Drive,48910,42.6982973,-84.5454056
550,South Dexter Drive,48910,42.6983017,-84.5451717
849,Tisdale Avenue,48910,42.7069639,-84.5397892
845,Tisdale Avenue,48910,42.7069779,-84.5399511
837,Tisdale Avenue,48910,42.7069615,-84.5402274
835,Tisdale Avenue,48910,42.7069670,-84.5403848
831,Tisdale Avenue,48910,42.7069985,-84.5405343
827,Tisdale Avenue,48910,42.7070692,-84.5406916
823,Tisdale Avenue,48910,42.7069807,-84.5408272
819,Tisdale Avenue,48910,42.7069681,-84.5409789
817,Tisdale Avenue,48910,42.7069719,-84.5411290
813,Tisdale Avenue,48910,42.7069705,-84.5413090
2345,Lyons Avenue,48910,42.7069419,-84.5416042
2341,Lyons Avenue,48910,42.7070538,-84.5416580
2339,Lyons Avenue,48910,42.7071393,-84.5416709
2335,Lyons Avenue,48910,42.7072480,-84.5416628
2325,Lyons Avenue,48910,42.7074535,-84.5416435
812,Edison Avenue,48910,42.7074224,-84.5413130
814,Edison Avenue,48910,42.7074218,-84.5411215
816,Edison Avenue,48910,42.7073994,-84.5409854
822,Edison Avenue,48910,42.7074190,-84.5408280
826,Edison Avenue,48910,42.7074131,-84.5406742
830,Edison Avenue,48910,42.7074074,-84.5405328
834,Edison Avenue,48910,42.7074191,-84.5404051
838,Edison Avenue,48910,42.7074135,-84.5402594
842,Edison Avenue,48910,42.7074025,-84.5401095
641,Brookland Boulevard,48910,42.6992061,-84.5431942
624,Brookland Boulevard,48910,42.6991888,-84.5436873
618,Brookland Boulevard,48910,42.6991811,-84.5439135
614,Brookland Boulevard,48910,42.6991615,-84.5440971
608,Brookland Boulevard,48910,42.6991816,-84.5443048
604,Brookland Boulevard,48910,42.6991777,-84.5444874
600,Brookland Boulevard,48910,42.6991852,-84.5446725
574,Brookland Boulevard,48910,42.6991794,-84.5448564
570,Brookland Boulevard,48910,42.6991912,-84.5450348
564,Brookland Boulevard,48910,42.6991788,-84.5452436
560,Brookland Boulevard,48910,42.6991906,-84.5454096
556,Brookland Boulevard,48910,42.6991868,-84.5456026
550,Brookland Boulevard,48910,42.6992059,-84.5458659
513,South Dexter Drive,48910,42.6990514,-84.5463381
519,South Dexter Drive,48910,42.6989265,-84.5461605
527,South Dexter Drive,48910,42.6988280,-84.5460133
531,South Dexter Drive,48910,42.6987284,-84.5458405
541,South Dexter Drive,48910,42.6987106,-84.5455862
545,South Dexter Drive,48910,42.6987102,-84.5454178
549,South Dexter Drive,48910,42.6987033,-84.5452476
555,South Dexter Drive,48910,42.6987099,-84.5450382
557,South Dexter Drive,48910,42.6987208,-84.5448697
561,South Dexter Drive,48910,42.6987014,-84.5447038
567,South Dexter Drive,48910,42.6987179,-84.5445051
571,South Dexter Drive,48910,42.6987130,-84.5443110
603,South Dexter Drive,48910,42.6987206,-84.5441342
607,South Dexter Drive,48910,42.6987255,-84.5439159
615,South Dexter Drive,48910,42.6987663,-84.5436998
621,South Dexter Drive,48910,42.6988449,-84.5435043
627,South Dexter Drive,48910,42.6989248,-84.5433422
633,South Dexter Drive,48910,42.6990263,-84.5432268
3205,South Cedar Street,48910,42.6991055,-84.5475725
626,Brookland Boulevard,48910,42.6996151,-84.5436141
619,Brookland Boulevard,48910,42.6996545,-84.5439033
615,Brookland Boulevard,48910,42.6996001,-84.5441112
609,Brookland Boulevard,48910,42.6996076,-84.5443150
605,Brookland Boulevard,48910,42.6996255,-84.5444847
601,Brookland Boulevard,48910,42.6996176,-84.5446605
575,Brookland Boulevard,48910,42.6996175,-84.5448538
571,Brookland Boulevard,48910,42.6996076,-84.5450589
565,Brookland Boulevard,48910,42.6996035,-84.5452419
561,Brookland Boulevard,48910,42.6996138,-84.5454277
555,Brookland Boulevard,48910,42.6996135,-84.5456277
551,Brookland Boulevard,48910,42.6996174,-84.5458859
537,Brookland Boulevard,48910,42.6996073,-84.5463757
512,North Dexter Drive,48910,42.6997401,-84.5463203
518,North Dexter Drive,48910,42.6998666,-84.5462076
524,North Dexter Drive,48910,42.6999749,-84.5460307
530,North Dexter Drive,48910,42.7000272,-84.5458335
536,North Dexter Drive,48910,42.7000880,-84.5456248
544,North Dexter Drive,48910,42.7000851,-84.5454368
548,North Dexter Drive,48910,42.7001033,-84.5452452
552,North Dexter Drive,48910,42.7000751,-84.5450596
556,North Dexter Drive,48910,42.7001019,-84.5448732
600,North Dexter Drive,48910,42.7000889,-84.5446994
604,North Dexter Drive,48910,42.7000948,-84.5445109
610,North Dexter Drive,48910,42.7001102,-84.5442759
614,North Dexter Drive,48910,42.7000810,-84.5441045
618,North Dexter Drive,48910,42.7000812,-84.5439335
626,North Dexter Drive,48910,42.7000587,-84.5436911
634,North Dexter Drive,48910,42.6999509,-84.5434682
638,North Dexter Drive,48910,42.6998697,-84.5433384
644,North Dexter Drive,48910,42.6997609,-84.5432342
650,North Dexter Drive,48910,42.6995804,-84.5431014
3110,Ellen Avenue,48910,42.7009311,-84.5470076
3133,South Cedar Street,48910,42.7005193,-84.5475914
3133,South Cedar Street,48910,42.7000979,-84.5476763
517,North Dexter Drive,48910,42.7002787,-84.5465253
525,North Dexter Drive,48910,42.7003864,-84.5462303
529,North Dexter Drive,48910,42.7004635,-84.5460740
535,North Dexter Drive,48910,42.7004887,-84.5459168
537,North Dexter Drive,48910,42.7005176,-84.5457493
539,North Dexter Drive,48910,42.7005168,-84.5455958
545,North Dexter Drive,48910,42.7005319,-84.5454213
549,North Dexter Drive,48910,42.7005164,-84.5452500
553,North Dexter Drive,48910,42.7005145,-84.5450278
557,North Dexter Drive,48910,42.7005207,-84.5448598
601,North Dexter Drive,48910,42.7005128,-84.5446483
605,North Dexter Drive,48910,42.7005480,-84.5444682
611,North Dexter Drive,48910,42.7005149,-84.5442828
615,North Dexter Drive,48910,42.7005075,-84.5440986
619,North Dexter Drive,48910,42.7005347,-84.5439317
623,North Dexter Drive,48910,42.7004881,-84.5437206
629,North Dexter Drive,48910,42.7004531,-84.5434978
631,North Dexter Drive,48910,42.7004115,-84.5433043
641,North Dexter Drive,48910,42.7002667,-84.5430674
600,Hamilton Avenue,48910,42.7010108,-84.5446692
574,Hamilton Avenue,48910,42.7010025,-84.5448689
568,Hamilton Avenue,48910,42.7010088,-84.5450268
564,Hamilton Avenue,48910,42.7010044,-84.5452408
560,Hamilton Avenue,48910,42.7009975,-84.5454225
554,Hamilton Avenue,48910,42.7009960,-84.5456112
552,Hamilton Avenue,48910,42.7010122,-84.5457633
546,Hamilton Avenue,48910,42.7010145,-84.5459738
3105,Ellen Avenue,48910,42.7009858,-84.5464231
717,Hamilton Avenue,48910,42.7014140,-84.5421195
713,Hamilton Avenue,48910,42.7014160,-84.5422708
709,Hamilton Avenue,48910,42.7014149,-84.5424576
703,Hamilton Avenue,48910,42.7014153,-84.5426463
645,Hamilton Avenue,48910,42.7014178,-84.5428352
641,Hamilton Avenue,48910,42.7014208,-84.5430454
637,Hamilton Avenue,48910,42.7014158,-84.5432433
631,Hamilton Avenue,48910,42.7014314,-84.5434374
623,Hamilton Avenue,48910,42.7014704,-84.5437483
617,Hamilton Avenue,48910,42.7014241,-84.5439638
613,Hamilton Avenue,48910,42.7014222,-84.5441518
609,Hamilton Avenue,48910,42.7014240,-84.5443624
603,Hamilton Avenue,48910,42.7014284,-84.5445065
600,Paris Avenue,48910,42.7018333,-84.5445146
612,Paris Avenue,48910,42.7018229,-84.5441385
614,Paris Avenue,48910,42.7018361,-84.5439907
620,Paris Avenue,48910,42.7018205,-84.5438243
624,Paris Avenue,48910,42.7018088,-84.5436299
628,Paris Avenue,48910,42.7017985,-84.5434791
634,Paris Avenue,48910,42.7017991,-84.5432949
636,Paris Avenue,48910,42.7018000,-84.5431738
644,Paris Avenue,48910,42.7017861,-84.5428023
700,Paris Avenue,48910,42.7018149,-84.5426633
706,Paris Avenue,48910,42.7018249,-84.5424666
3000,Lyons Avenue,48910,42.7017773,-84.5421697
2912,Lyons Avenue,48910,42.7022315,-84.5421457
711,Paris Avenue,48910,42.7021930,-84.5422973
707,Paris Avenue,48910,42.7021885,-84.5424979
701,Paris Avenue,48910,42.7021948,-84.5426413
645,Paris Avenue,48910,42.7022030,-84.5427973
643,Paris Avenue,48910,42.7022082,-84.5429670
639,Paris Avenue,48910,42.7023305,-84.5431530
633,Paris Avenue,48910,42.7021851,-84.5433273
629,Paris Avenue,48910,42.7022038,-84.5434690
621,Paris Avenue,48910,42.7021940,-84.5439253
615,Paris Avenue,48910,42.7021813,-84.5441386
609,Paris Avenue,48910,42.7021796,-84.5443257
605,Paris Avenue,48910,42.7022355,-84.5444846
600,Denver Avenue,48910,42.7025180,-84.5444615
608,Denver Avenue,48910,42.7025654,-84.5442897
612,Denver Avenue,48910,42.7025255,-84.5441387
620,Denver Avenue,48910,42.7025146,-84.5438136
628,Denver Avenue,48910,42.7025564,-84.5434602
632,Denver Avenue,48910,42.7025730,-84.5432883
636,Denver Avenue,48910,42.7025864,-84.5431303
642,Denver Avenue,48910,42.7025565,-84.5428286
702,Denver Avenue,48910,42.7024845,-84.5426190
708,Denver Avenue,48910,42.7025893,-84.5424576
710,Denver Avenue,48910,42.7025871,-84.5422897
716,Denver Avenue,48910,42.7025687,-84.5421304
2816,Lyons Avenue,48910,42.7029641,-84.5421430
707,Denver Avenue,48910,42.7029436,-84.5424656
701,Denver Avenue,48910,42.7029182,-84.5426470
645,Denver Avenue,48910,42.7030679,-84.5427694
643,Denver Avenue,48910,42.7029122,-84.5428314
641,Denver Avenue,48910,42.7029115,-84.5429609
637,Denver Avenue,48910,42.7029200,-84.5431403
633,Denver Avenue,48910,42.7029145,-84.5432974
625,Denver Avenue,48910,42.7029323,-84.5436227
621,Denver Avenue,48910,42.7029284,-84.5437941
613,Denver Avenue,48910,42.7029194,-84.5441632
601,Denver Avenue,48910,42.7028986,-84.5445030
608,East Willard Avenue,48910,42.7032784,-84.5442961
612,East Willard Avenue,48910,42.7032864,-84.5441301
616,East Willard Avenue,48910,42.7032897,-84.5439647
622,East Willard Avenue,48910,42.7032943,-84.5437909
626,East Willard Avenue,48910,42.7032689,-84.5435595
632,East Willard Avenue,48910,42.7032972,-84.5432808
636,East Willard Avenue,48910,42.7032777,-84.5431200
640,East Willard Avenue,48910,42.7033162,-84.5429483
644,East Willard Avenue,48910,42.7032851,-84.5427964
700,East Willard Avenue,48910,42.7032948,-84.5426425
704,East Willard Avenue,48910,42.7032914,-84.5424551
712,East Willard Avenue,48910,42.7032911,-84.5422263
573,Hamilton Avenue,48910,42.7014195,-84.5449359
567,Hamilton Avenue,48910,42.7014248,-84.5451212
563,Hamilton Avenue,48910,42.7014273,-84.5453134
559,Hamilton Avenue,48910,42.7014268,-84.5454867
555,Hamilton Avenue,48910,42.7014175,-84.5456703
549,Hamilton Avenue,48910,42.7014276,-84.5458660
545,Hamilton Avenue,48910,42.7014230,-84.5460509
541,Hamilton Avenue,48910,42.7014215,-84.5462338
535,Hamilton Avenue,48910,42.7014185,-84.5464251
531,Hamilton Avenue,48910,42.7014176,-84.5466000
527,Hamilton Avenue,48910,42.7014382,-84.5467998
523,Hamilton Avenue,48910,42.7014126,-84.5469956
517,Hamilton Avenue,48910,42.7014306,-84.5471618
3021,South Cedar Street,48910,42.7015351,-84.5475337
520,Paris Avenue,48910,42.7017762,-84.5470206
526,Paris Avenue,48910,42.7018109,-84.5467450
530,Paris Avenue,48910,42.7018229,-84.5466010
534,Paris Avenue,48910,42.7018080,-84.5464563
540,Paris Avenue,48910,42.7018310,-84.5462742
546,Paris Avenue,48910,42.7017002,-84.5459696
552,Paris Avenue,48910,42.7018230,-84.5457642
560,Paris Avenue,48910,42.7018322,-84.5454185
564,Paris Avenue,48910,42.7016904,-84.5451094
572,Paris Avenue,48910,42.7018087,-84.5449309
2901,South Cedar Street,48910,42.7025340,-84.5476376
516,Denver Avenue,48910,42.7025711,-84.5472304
520,Denver Avenue,48910,42.7025687,-84.5470357
524,Denver Avenue,48910,42.7025856,-84.5469257
526,Denver Avenue,48910,42.7025526,-84.5467753
530,Denver Avenue,48910,42.7025299,-84.5466306
534,Denver Avenue,48910,42.7025405,-84.5464784
538,Denver Avenue,48910,42.7025385,-84.5463012
542,Denver Avenue,48910,42.7025444,-84.5461414
546,Denver Avenue,48910,42.7025315,-84.5459736
550,Denver Avenue,48910,42.7025521,-84.5457289
562,Denver Avenue,48910,42.7025591,-84.5452685
568,Denver Avenue,48910,42.7025469,-84.5451144
570,Denver Avenue,48910,42.7025583,-84.5449402
573,Paris Avenue,48910,42.7021857,-84.5449529
565,Paris Avenue,48910,42.7022094,-84.5451125
561,Paris Avenue,48910,42.7022227,-84.5452825
557,Paris Avenue,48910,42.7022278,-84.5454488
553,Paris Avenue,48910,42.7021674,-84.5455971
551,Paris Avenue,48910,42.7021537,-84.5457806
545,Paris Avenue,48910,42.7021643,-84.5460257
541,Paris Avenue,48910,42.7021764,-84.5462854
535,Paris Avenue,48910,42.7021683,-84.5464683
531,Paris Avenue,48910,42.7021549,-84.5466246
527,Paris Avenue,48910,42.7021673,-84.5468916
622,Riley Street,48910,42.7089852,-84.5437880
618,Riley Street,48910,42.7089764,-84.5439466
614,Riley Street,48910,42.7089778,-84.5441091
610,Riley Street,48910,42.7089691,-84.5442597
606,Riley Street,48910,42.7089745,-84.5444059
600,Riley Street,48910,42.7089642,-84.5445560
2215,Grant Street,48910,42.7086891,-84.5445536
2217,Grant Street,48910,42.7085690,-84.5445175
2221,Grant Street,48910,42.7084135,-84.5445476
601,Pacific Parkway,48910,42.7082067,-84.5445511
607,Pacific Parkway,48910,42.7082142,-84.5443549
611,Pacific Parkway,48910,42.7082052,-84.5441754
619,Pacific Parkway,48910,42.7082295,-84.5439806
627,Pacific Parkway,48910,42.7083494,-84.5438108
2218,Roberts Lane,48910,42.7085440,-84.5437869
2212,Roberts Lane,48910,42.7086703,-84.5437976
2801,Lyons Avenue,48910,42.7023524,-84.5411298
2601,Lyons Avenue,48910,42.7047663,-84.5416733
808,East Greenlawn Avenue,48910,42.7047777,-84.5414745
812,East Greenlawn Avenue,48910,42.7048015,-84.5412834
816,East Greenlawn Avenue,48910,42.7048080,-84.5411011
820,East Greenlawn Avenue,48910,42.7048128,-84.5409142
826,East Greenlawn Avenue,48910,42.7048217,-84.5407307
830,East Greenlawn Avenue,48910,42.7048303,-84.5405736
834,East Greenlawn Avenue,48910,42.7048289,-84.5403582
844,East Greenlawn Avenue,48910,42.7048168,-84.5399890
848,East Greenlawn Avenue,48910,42.7047996,-84.5398042
852,East Greenlawn Avenue,48910,42.7048067,-84.5396189
858,East Greenlawn Avenue,48910,42.7047869,-84.5394346
2525,Linlawn Street,48910,42.7049531,-84.5392446
3515,Linlawn Street,48910,42.7052288,-84.5392293
851,East Greenlawn Avenue,48910,42.7051904,-84.5397148
847,East Greenlawn Avenue,48910,42.7051913,-84.5399025
843,East Greenlawn Avenue,48910,42.7051812,-84.5400799
839,East Greenlawn Avenue,48910,42.7052005,-84.5402587
835,East Greenlawn Avenue,48910,42.7051838,-84.5404350
829,East Greenlawn Avenue,48910,42.7051951,-84.5406115
825,East Greenlawn Avenue,48910,42.7051807,-84.5407919
821,East Greenlawn Avenue,48910,42.7051982,-84.5409716
817,East Greenlawn Avenue,48910,42.7051850,-84.5411462
811,East Greenlawn Avenue,48910,42.7052027,-84.5413234
807,East Greenlawn Avenue,48910,42.7052016,-84.5415050
2525,Lyons Avenue,48910,42.7052017,-84.5416712
2515,Lyons Avenue,48910,42.7054627,-84.5416720
806,Lincoln Avenue,48910,42.7054637,-84.5414840
812,Lincoln Avenue,48910,42.7054685,-84.5412978
816,Lincoln Avenue,48910,42.7054888,-84.5411352
820,Lincoln Avenue,48910,42.7054818,-84.5409434
824,Lincoln Avenue,48910,42.7054866,-84.5407638
828,Lincoln Avenue,48910,42.7055045,-84.5405839
834,Lincoln Avenue,48910,42.7054907,-84.5404082
838,Lincoln Avenue,48910,42.7054926,-84.5402270
842,Lincoln Avenue,48910,42.7054888,-84.5400510
846,Lincoln Avenue,48910,42.7055082,-84.5398779
850,Linlawn Street,48910,42.7055106,-84.5397105
717,East Willard Avenue,48910,42.7036596,-84.5421504
711,East Willard Avenue,48910,42.7036483,-84.5422816
707,East Willard Avenue,48910,42.7036637,-84.5424734
701,East Willard Avenue,48910,42.7036684,-84.5426500
647,East Willard Avenue,48910,42.7036554,-84.5427954
641,East Willard Avenue,48910,42.7036494,-84.5429991
637,East Willard Avenue,48910,42.7036964,-84.5431291
633,East Willard Avenue,48910,42.7036460,-84.5433057
629,East Willard Avenue,48910,42.7036527,-84.5434870
625,East Willard Avenue,48910,42.7036708,-84.5436458
621,East Willard Avenue,48910,42.7036405,-84.5437922
617,East Willard Avenue,48910,42.7036494,-84.5439885
613,East Willard Avenue,48910,42.7036639,-84.5441522
609,East Willard Avenue,48910,42.7036494,-84.5442977
601,East Willard Avenue,48910,42.7036531,-84.5444933
608,South Park Boulevard,48910,42.7040030,-84.5443006
612,South Park Boulevard,48910,42.7040128,-84.5441337
616,South Park Boulevard,48910,42.7039908,-84.5439783
620,South Park Boulevard,48910,42.7040073,-84.5438243
624,South Park Boulevard,48910,42.7040039,-84.5436376
628,South Park Boulevard,48910,42.7039980,-84.5434594
632,South Park Boulevard,48910,42.7040023,-84.5432950
636,South Park Boulevard,48910,42.7040061,-84.5431237
640,South Park Boulevard,48910,42.7040178,-84.5429611
644,South Park Boulevard,48910,42.7040347,-84.5427824
706,South Park Boulevard,48910,42.7040411,-84.5424678
710,South Park Boulevard,48910,42.7040104,-84.5422783
716,South Park Boulevard,48910,42.7040207,-84.5421047
853,Lincoln Avenue,48910,42.7058540,-84.5396489
849,Lincoln Avenue,48910,42.7058658,-84.5398258
845,Lincoln Avenue,48910,42.7058706,-84.5400145
839,Lincoln Avenue,48910,42.7058622,-84.5401985
835,Lincoln Avenue,48910,42.7058636,-84.5403817
831,Lincoln Avenue,48910,42.7058619,-84.5405749
827,Lincoln Avenue,48910,42.7058677,-84.5407604
821,Lincoln Avenue,48910,42.7058768,-84.5409432
817,Lincoln Avenue,48910,42.7058633,-84.5411314
811,Lincoln Avenue,48910,42.7058880,-84.5412993
807,Lincoln Avenue,48910,42.7058857,-84.5414948
2425,Lyons Avenue,48910,42.7058864,-84.5416634
612,Tisdale Avenue,48910,42.7066256,-84.5413023
816,Tisdale Avenue,48910,42.7065818,-84.5411312
818,Tisdale Avenue,48910,42.7065971,-84.5409797
822,Tisdale Avenue,48910,42.7066438,-84.5408185
826,Tisdale Avenue,48910,42.7066632,-84.5406936
838,Tisdale Avenue,48910,42.7066523,-84.5402638
842,Tisdale Avenue,48910,42.7066293,-84.5401074
844,Tisdale Avenue,48910,42.7066319,-84.5399685
571,Denver Avenue,48910,42.7029227,-84.5449309
569,Denver Avenue,48910,42.7029201,-84.5451140
565,Denver Avenue,48910,42.7029168,-84.5452878
5561,Denver Avenue,48910,42.7029237,-84.5454279
557,Denver Avenue,48910,42.7029214,-84.5455865
549,Denver Avenue,48910,42.7029225,-84.5457572
549,Denver Avenue,48910,42.7029023,-84.5459392
543,Denver Avenue,48910,42.7029251,-84.5461120
539,Denver Avenue,48910,42.7029098,-84.5463025
533,Denver Avenue,48910,42.7029091,-84.5466074
527,Denver Avenue,48910,42.7029109,-84.5467651
523,Denver Avenue,48910,42.7029289,-84.5469176
519,Denver Avenue,48910,42.7029334,-84.5470757
2823,South Cedar Street,48910,42.7031065,-84.5475938
512,East Willard Avenue,48910,42.7033669,-84.5474151
518,East Willard Avenue,48910,42.7034374,-84.5472195
520,East Willard Avenue,48910,42.7033856,-84.5470450
530,East Willard Avenue,48910,42.7033391,-84.5466819
536,East Willard Avenue,48910,42.7032938,-84.5463582
542,East Willard Avenue,48910,42.7032729,-84.5461698
546,East Willard Avenue,48910,42.7033007,-84.5459580
550,East Willard Avenue,48910,42.7032901,-84.5457718
558,East Willard Avenue,48910,42.7033010,-84.5455887
562,East Willard Avenue,48910,42.7032295,-84.5454194
566,East Willard Avenue,48910,42.7032862,-84.5450879
574,East Willard Avenue,48910,42.7032980,-84.5449513
2730,Grant Street,48910,42.7036984,-84.5449498
565,East Willard Avenue,48910,42.7036423,-84.5452793
561,East Willard Avenue,48910,42.7036683,-84.5454313
557,East Willard Avenue,48910,42.7036341,-84.5456043
553,East Willard Avenue,48910,42.7036475,-84.5457990
545,East Willard Avenue,48910,42.7036811,-84.5460613
546,South Park Boulevard,48910,42.7039993,-84.5461308
554,South Park Boulevard,48910,42.7040027,-84.5458100
560,South Park Boulevard,48910,42.7039987,-84.5455482
566,South Park Boulevard,48910,42.7040141,-84.5452712
570,South Park Boulevard,48910,42.7040073,-84.5451009
2720,Grant Street,48910,42.7040001,-84.5449187
711,South Park Boulevard,48910,42.7044972,-84.5422957
701,South Park Boulevard,48910,42.7044599,-84.5426154
647,South Park Boulevard,48910,42.7044548,-84.5427906
641,South Park Boulevard,48910,42.7044891,-84.5429442
637,South Park Boulevard,48910,42.7044661,-84.5431201
633,South Park Boulevard,48910,42.7045973,-84.5433424
629,South Park Boulevard,48910,42.7044699,-84.5434615
625,South Park Boulevard,48910,42.7044896,-84.5436321
617,South Park Boulevard,48910,42.7044767,-84.5439765
611,South Park Boulevard,48910,42.7044833,-84.5441269
600,East Greenlawn Avenue,48910,42.7049416,-84.5445197
606,East Greenlawn Avenue,48910,42.7049381,-84.5443004
612,East Greenlawn Avenue,48910,42.7049129,-84.5440722
620,East Greenlawn Avenue,48910,42.7049290,-84.5438220
622,East Greenlawn Avenue,48910,42.7049491,-84.5436356
630,East Greenlawn Avenue,48910,42.7049381,-84.5433578
634,East Greenlawn Avenue,48910,42.7049321,-84.5431464
700,East Greenlawn Avenue,48910,42.7049267,-84.5428767
704,East Greenlawn Avenue,48910,42.7049093,-84.5427137
708,East Greenlawn Avenue,48910,42.7048214,-84.5424881
2608,Lyons Avenue,48910,42.7048094,-84.5422396
2520,Lyons Avenue,48910,42.7052924,-84.5421529
713,East Greenlawn Avenue,48910,42.7052817,-84.5424158
709,East Greenlawn Avenue,48910,42.7053410,-84.5425747
701,East Greenlawn Avenue,48910,42.7054009,-84.5428492
639,East Greenlawn Avenue,48910,42.7052958,-84.5430267
635,East Greenlawn Avenue,48910,42.7052819,-84.5432037
627,East Greenlawn Avenue,48910,42.7052989,-84.5435133
621,East Greenlawn Avenue,48910,42.7052971,-84.5437563
609,East Greenlawn Avenue,48910,42.7052878,-84.5442404
605,East Greenlawn Avenue,48910,42.7052820,-84.5443720
601,East Greenlawn Avenue,48910,42.7053045,-84.5445182
600,Lincoln Avenue,48910,42.7057863,-84.5444857
608,Lincoln Avenue,48910,42.7057834,-84.5441900
616,Lincoln Avenue,48910,42.7057930,-84.5439091
618,Lincoln Avenue,48910,42.7057963,-84.5437568
622,Lincoln Avenue,48910,42.7057798,-84.5436071
628,Lincoln Avenue,48910,42.7057698,-84.5433927
634,Lincoln Avenue,48910,42.7058055,-84.5431722
700,Lincoln Avenue,48910,42.7057885,-84.5428584
708,Lincoln Avenue,48910,42.7057978,-84.5425700
712,Lincoln Avenue,48910,42.7057910,-84.5424116
2500,Lyons Avenue,48910,42.7057801,-84.5421544
2508,Lyons Avenue,48910,42.7055980,-84.5421448
2516,Lyons Avenue,48910,42.7054288,-84.5421293
2420,Lyons Avenue,48910,42.7060967,-84.5421963
711,Lincoln Avenue,48910,42.7061418,-84.5425138
2418,Lyons Avenue,48910,42.7062518,-84.5421682
707,Lincoln Avenue,48910,42.7061419,-84.5426896
701,Lincoln Avenue,48910,42.7061380,-84.5428665
637,Lincoln Avenue,48910,42.7061717,-84.5430351
635,Lincoln Avenue,48910,42.7061449,-84.5431727
633,Lincoln Avenue,48910,42.7061472,-84.5433235
625,Lincoln Avenue,48910,42.7061529,-84.5434900
621,Lincoln Avenue,48910,42.7061472,-84.5437602
617,Lincoln Avenue,48910,42.7061509,-84.5439258
613,Lincoln Avenue,48910,42.7061507,-84.5440809
609,Lincoln Avenue,48910,42.7063438,-84.5442190
605,Lincoln Avenue,48910,42.7061439,-84.5443506
2421,Grant Street,48910,42.7061949,-84.5445148
600,Tisdale Avenue,48910,42.7066147,-84.5445155
604,Tisdale Avenue,48910,42.7066150,-84.5443825
608,Tisdale Avenue,48910,42.7066277,-84.5442367
612,Tisdale Avenue,48910,42.7066137,-84.5440512
616,Tisdale Avenue,48910,42.7066071,-84.5439118
620,Tisdale Avenue,48910,42.7066396,-84.5437569
622,Tisdale Avenue,48910,42.7066323,-84.5436337
626,Tisdale Avenue,48910,42.7066056,-84.5434549
630,Tisdale Avenue,48910,42.7066255,-84.5432975
638,Tisdale Avenue,48910,42.7066162,-84.5430004
634,Tisdale Avenue,48910,42.7065112,-84.5431452
700,Tisdale Avenue,48910,42.7066342,-84.5428611
706,Tisdale Avenue,48910,42.7066372,-84.5426736
710,Tisdale Avenue,48910,42.7066172,-84.5425418
2404,Lyons Avenue,48910,42.7065715,-84.5423569
716,Tisdale Avenue,48910,42.7066673,-84.5421772
2410,Lyons Avenue,48910,42.7064320,-84.5421482
2340,Lyons Avenue,48910,42.7070301,-84.5421606
721,Tisdale Avenue,48910,42.7069460,-84.5422055
711,Tisdale Avenue,48910,42.7069898,-84.5425063
707,Tisdale Avenue,48910,42.7069816,-84.5426707
701,Tisdale Avenue,48910,42.7070066,-84.5428397
637,Tisdale Avenue,48910,42.7070311,-84.5431571
631,Tisdale Avenue,48910,42.7069735,-84.5432986
623,Tisdale Avenue,48910,42.7070127,-84.5435183
619,Tisdale Avenue,48910,42.7070047,-84.5437599
617,Tisdale Avenue,48910,42.7069949,-84.5439129
609,Tisdale Avenue,48910,42.7069827,-84.5442330
603,Tisdale Avenue,48910,42.7069766,-84.5443636
601,Tisdale Avenue,48910,42.7069962,-84.5444969
579,Tisdale Avenue,48910,42.7069881,-84.5447575
571,Tisdale Avenue,48910,42.7069885,-84.5450100
561,Tisdale Avenue,48910,42.7070065,-84.5454680
555,Tisdale Avenue,48910,42.7070040,-84.5456258
551,Tisdale Avenue,48910,42.7070173,-84.5459229
549,Tisdale Avenue,48910,42.7071075,-84.5460530
539,Tisdale Avenue,48910,42.7070160,-84.5463425
533,Tisdale Avenue,48910,42.7070146,-84.5465545
529,Tisdale Avenue,48910,42.7069953,-84.5467052
523,Tisdale Avenue,48910,42.7069987,-84.5468426
521,Tisdale Avenue,48910,42.7070071,-84.5470292
519,Tisdale Avenue,48910,42.7070259,-84.5471754
513,Tisdale Avenue,48910,42.7070108,-84.5473541
2345,South Cedar Street,48910,42.7070998,-84.5476814
2325,South Cedar Street,48910,42.7074225,-84.5475842
516,Edison Avenue,48910,42.7074020,-84.5472229
524,Edison Avenue,48910,42.7074169,-84.5469332
526,Edison Avenue,48910,42.7074161,-84.5467857
530,Edison Avenue,48910,42.7074181,-84.5466375
534,Edison Avenue,48910,42.7074214,-84.5464864
538,Edison Avenue,48910,42.7074177,-84.5463078
548,Pacific Parkway,48910,42.7076030,-84.5457313
554,Pacific Parkway,48910,42.7077146,-84.5455921
560,Pacific Parkway,48910,42.7077300,-84.5453822
564,Pacific Parkway,48910,42.7077335,-84.5451868
2300,Grant Street,48910,42.7077297,-84.5450237
2310,Grant Street,48910,42.7074928,-84.5450771
2318,Grant Street,48910,42.7073018,-84.5450664
2319,Grant Street,48910,42.7073060,-84.5445486
2311,Grant Street,48910,42.7074989,-84.5445581
600,Pacific Parkway,48910,42.7076980,-84.5445534
606,Pacific Parkway,48910,42.7077419,-84.5443673
612,Pacific Parkway,48910,42.7077506,-84.5441939
620,Pacific Parkway,48910,42.7077241,-84.5439875
626,Pacific Parkway,48910,42.7075869,-84.5438206
628,Edison Avenue,48910,42.7073868,-84.5436937
630,Edison Avenue,48910,42.7074218,-84.5433230
638,Edison Avenue,48910,42.7074294,-84.5430055
700,Edison Avenue,48910,42.7074305,-84.5428391
704,Edison Avenue,48910,42.7074376,-84.5426411
2326,Lyons Avenue,48910,42.7074520,-84.5422717
2338,Lyons Avenue,48910,42.7071317,-84.5421622
2701,South Cedar Street,48910,42.7044635,-84.5475725
535,South Park Boulevard,48910,42.7042471,-84.5467730
537,South Park Boulevard,48910,42.7044039,-84.5466548
545,South Park Boulevard,48910,42.7044610,-84.5460621
553,South Park Boulevard,48910,42.7044693,-84.5457136
555,South Park Boulevard,48910,42.7044736,-84.5454753
568,South Park Boulevard,48910,42.7044681,-84.5452708
577,South Park Boulevard,48910,42.7044711,-84.5449542
572,Grant Street,48910,42.7049390,-84.5448548
566,East Greenlawn Avenue,48910,42.7049314,-84.5451503
561,East Greenlawn Avenue,48910,42.7049364,-84.5453299
558,East Greenlawn Avenue,48910,42.7049271,-84.5454843
548,East Greenlawn Avenue,48910,42.7049438,-84.5459005
544,East Greenlawn Avenue,48910,42.7049446,-84.5460485
540,East Greenlawn Avenue,48910,42.7049248,-84.5461951
532,East Greenlawn Avenue,48910,42.7049277,-84.5465429
528,East Greenlawn Avenue,48910,42.7049362,-84.5466910
524,East Greenlawn Avenue,48910,42.7049399,-84.5468572
520,East Greenlawn Avenue,48910,42.7048959,-84.5470260
516,East Greenlawn Avenue,48910,42.7049151,-84.5471797
541,East Greenlawn Avenue,48910,42.7052868,-84.5461938
545,East Greenlawn Avenue,48910,42.7052826,-84.5460486
549,East Greenlawn Avenue,48910,42.7052761,-84.5458972
555,East Greenlawn Avenue,48910,42.7052982,-84.5456028
559,East Greenlawn Avenue,48910,42.7052819,-84.5454502
562,East Greenlawn Avenue,48910,42.7052917,-84.5453036
564,East Greenlawn Avenue,48910,42.7052948,-84.5451636
571,East Greenlawn Avenue,48910,42.7052812,-84.5450304
2520,Grant Street,48910,42.7052956,-84.5448853
572,Lincoln Avenue,48910,42.7057849,-84.5449609
564,Lincoln Avenue,48910,42.7057633,-84.5453237
556,Lincoln Avenue,48910,42.7057707,-84.5454509
554,Lincoln Avenue,48910,42.7057889,-84.5456008
552,Lincoln Avenue,48910,42.7057746,-84.5457653
540,Lincoln Avenue,48910,42.7057731,-84.5461940
2423,South Cedar Street,48910,42.7062994,-84.5475646
529,Lincoln Avenue,48910,42.7061455,-84.5467185
533,Lincoln Avenue,48910,42.7061553,-84.5465720
532,Tisdale Avenue,48910,42.7065740,-84.5465516
528,Tisdale Avenue,48910,42.7066066,-84.5467102
524,Tisdale Avenue,48910,42.7066107,-84.5468498
516,Tisdale Avenue,48910,42.7066204,-84.5470661
2501,South Cedar Street,48910,42.7057588,-84.5475761
2513,South Cedar Street,48910,42.7055952,-84.5477072
2519,South Cedar Street,48910,42.7053504,-84.5476788
521,East Greenlawn Avenue,48910,42.7052724,-84.5468694
529,East Greenlawn Avenue,48910,42.7052873,-84.5467210
533,East Greenlawn Avenue,48910,42.7053045,-84.5465689
532,Lincoln Avenue,48910,42.7057620,-84.5465737
523,Lincoln Avenue,48910,42.7057688,-84.5466874
521,Lincoln Avenue,48910,42.7057772,-84.5468633
541,Garfield Street,48910,42.7061369,-84.5461860
549,Lincoln Avenue,48910,42.7061133,-84.5459182
553,Lincoln Avenue,48910,42.7061220,-84.5457738
555,Lincoln Avenue,48910,42.7061343,-84.5456192
559,Lincoln Avenue,48910,42.7061526,-84.5454441
563,Lincoln Avenue,48910,42.7061676,-84.5453016
571,Lincoln Avenue,48910,42.7061538,-84.5450336
575,Lincoln Avenue,48910,42.7062827,-84.5448890
574,Tisdale Avenue,48910,42.7066025,-84.5448794
566,Tisdale Avenue,48910,42.7065149,-84.5450814
562,Tisdale Avenue,48910,42.7064984,-84.5452949
558,Tisdale Avenue,48910,42.7064990,-84.5454406
554,Tisdale Avenue,48910,42.7066176,-84.5455910
548,Tisdale Avenue,48910,42.7064913,-84.5459163
540,Tisdale Avenue,48910,42.7066035,-84.5461894
573,Pacific Parkway,48910,42.7082283,-84.5450038
567,Pacific Parkway,48910,42.7082082,-84.5451855
561,Pacific Parkway,48910,42.7082058,-84.5453598
533,Pacific Parkway,48910,42.7082394,-84.5456320
2221,Ray Street,48910,42.7083727,-84.5457275
2219,Ray Street,48910,42.7085314,-84.5457289
2215,Ray Street,48910,42.7086774,-84.5457407
570,Riley Street,48910,42.7089917,-84.5450054
566,Riley Street,48910,42.7089848,-84.5451569
562,Riley Street,48910,42.7089871,-84.5453053
558,Riley Street,48910,42.7089809,-84.5454621
554,Riley Street,48910,42.7089671,-84.5456099
550,Riley Street,48910,42.7089972,-84.5457776
2220,Grant Street,48910,42.7085129,-84.5450392
524,Woodrow Avenue,48910,42.7100298,-84.5469205
526,Woodrow Avenue,48910,42.7100293,-84.5468129
534,Woodrow Avenue,48910,42.7100466,-84.5465756
536,Woodrow Avenue,48910,42.7100435,-84.5464366
540,Woodrow Avenue,48910,42.7100486,-84.5463048
542,Woodrow Avenue,48910,42.7100214,-84.5461599
2110,Ray Street,48910,42.7098036,-84.5462045
2114,Ray Street,48910,42.7096879,-84.5462394
2118,Ray Street,48910,42.7095755,-84.5462319
541,Riley Street,48910,42.7093547,-84.5462236
535,Riley Street,48910,42.7093692,-84.5464166
531,Riley Street,48910,42.7093335,-84.5465920
2125,Colvin Court,48910,42.7093954,-84.5467934
2111,Colvin Court,48910,42.7097924,-84.5467455
2211,South Cedar Street,48910,42.7088729,-84.5476886
512,Riley Street,48910,42.7089710,-84.5473563
520,Riley Street,48910,42.7089868,-84.5470543
524,Riley Street,48910,42.7089967,-84.5468977
528,Riley Street,48910,42.7089950,-84.5467359
532,Riley Street,48910,42.7089691,-84.5465650
534,Riley Street,48910,42.7089964,-84.5464059
542,Riley Street,48910,42.7090010,-84.5462261
541,Pacific Avenue,48910,42.7085292,-84.5461963
539,Pacific Avenue,48910,42.7085009,-84.5463210
535,Pacific Avenue,48910,42.7085032,-84.5464778
531,Pacific Avenue,48910,42.7085172,-84.5466340
527,Pacific Avenue,48910,42.7085212,-84.5468081
523,Pacific Avenue,48910,42.7085352,-84.5469613
513,Pacific Avenue,48910,42.7085357,-84.5472530
508,Pacific Avenue,48910,42.7081510,-84.5474989
514,Pacific Avenue,48910,42.7081657,-84.5473560
516,Pacific Avenue,48910,42.7081591,-84.5472197
520,Pacific Avenue,48910,42.7081713,-84.5470443
524,Pacific Avenue,48910,42.7081732,-84.5469005
526,Pacific Avenue,48910,42.7081728,-84.5467527
530,Pacific Avenue,48910,42.7081831,-84.5466043
538,Pacific Avenue,48910,42.7081839,-84.5463236
542,Ray Street,48910,42.7081613,-84.5461737
543,Edison Avenue,48910,42.7077686,-84.5462093
535,Edison Avenue,48910,42.7077793,-84.5464174
531,Edison Avenue,48910,42.7077744,-84.5466013
527,Edison Avenue,48910,42.7077675,-84.5467508
525,Edison Avenue,48910,42.7077747,-84.5469019
521,Edison Avenue,48910,42.7077830,-84.5470548
517,Edison Avenue,48910,42.7077892,-84.5472045
513,Edison Avenue,48910,42.7077539,-84.5473550
2311,South Cedar Street,48910,42.7079583,-84.5476612
6031,South Cedar Street,48911,42.6699307,-84.5438831
3906,South Cedar Street,48910-4504,42.6927073,-84.5483327
4700,South Cedar Street,48910-5470,42.6865148,-84.5485537
410,East Jolly Road,48910,42.6825709,-84.5490289
5634,South Cedar Street,48911,42.6753689,-84.5478313
2901,Wabash Road,48910,42.6997657,-84.5058337
6280,South Pennsylvania Avenue,48911,42.6666376,-84.5386324
3433,East Michigan Avenue,48912,42.7342443,-84.5012508
1309,West Barnes Avenue,48910,42.7147404,-84.5703090
1523,East César E. Chávez Avenue,48906,42.7476568,-84.5264042
2310,Dunlap Street,48911,42.7022562,-84.5845196
3411,Beaujardin Drive,48910,42.6848903,-84.5036044
3431,Beaujardin Drive,48910,42.6854429,-84.5035966
750,Lake Lansing Road,48906,42.7541506,-84.5412891
1600,North Larch Street,48906,42.7507052,-84.5425399
1100,Ramada Drive,48911,42.6666240,-84.5361200
600,East Michigan Avenue,48912,42.7331701,-84.5438314
3131,Michigan Avenue,48912,42.7354570,-84.5072653
5161,North Grand River Avenue,48906,42.7689975,-84.6001471
3201,East Saginaw Street,48912,42.7410847,-84.5063315
2712,Kittansett Drive,48864,42.6932202,-84.4519159
3165,East Michigan Avenue,48912,42.7342728,-84.5056476
111,North Grand Avenue,48933,42.7340674,-84.5510437
503,South Dexter Drive,48910,42.6992085,-84.5463536
2331,Barritt Street,48912,42.7586855,-84.5174560
336,East Michigan Avenue,48933,42.7333045,-84.5483560
1717,North High Street,48906,42.7536974,-84.5396849
1107,East César E. Chávez Avenue,48906,42.7482324,-84.5364766
1245,East César E. Chávez Avenue,48906,42.7475397,-84.5340484
1717,New York Avenue,48906,42.7533574,-84.5374575
3520,Forest Road,48910,42.7026159,-84.5019366
2900,Collins Road,48910,42.7016023,-84.5017377
2521,South Cedar Street,48910,42.7052372,-84.5477014
2517,Linlawn Street,48910,42.7051441,-84.5392251
2827,South Cedar Street,48910,42.7029091,-84.5476473
6285,S Martin Luther King Jr Blvd,48911,42.6668954,-84.5860236
221,Townsend Street,48933,42.7318033,-84.5550413
6264,South Pennsylvania Avenue,48911,42.6670875,-84.5394653
6820,Cedar Street,48911,42.6580751,-84.5377232
2710,Lake Lansing Road,48912,42.7594856,-84.5108518
426,Auditorium Road,48824,42.7024379,-84.4856593
702,West Kalamazoo Street,48915,42.7321243,-84.5631353
124,North Capitol Avenue,48909,42.7345550,-84.5533130
