House number,Street name,Postal code,Latitude,Longitude
1414,West Fair Avenue,49855,46.5574189,-87.4170713
1414,West Fair Avenue,49855,46.5574687,-87.4170660
1414,West Fair Avenue,49855,46.5575240,-87.4170794
1414,West Fair Avenue,49855,46.5575719,-87.4170767
1475,West Washington Street,49855,46.5454875,-87.4251186
1021,West Washington Street,49855,46.5455004,-87.4161406
510,North McClellan Avenue,49855,46.5497394,-87.4199432
1140,West Washington Street,49855,46.5463737,-87.4210107
2025,US 41 West,49855,46.5473154,-87.4346285
105,East Washington Street,49855,46.5431745,-87.3916273
1401,Presque Isle Avenue,49855,46.5585330,-87.4058381
113,South Front Street,49855,46.5427651,-87.3928357
918,West Washington Street,49855,46.5460210,-87.4131344
130,West Washington Street,49855,46.5434568,-87.3940205
119,South Front Street,49855,46.5425512,-87.3928901
105,East Washington Street,49855,46.5431971,-87.3917880
333,West Washington Street,49855,46.5440007,-87.3990238
102,West Washington Street,49855,46.5436445,-87.3929322
137,West Washington Street,49855,46.5433169,-87.3943322
100,Coles Drive,49855,46.5470633,-87.4201339
301,West Fair Avenue,49855,46.5563716,-87.3953784
301,West Fair Avenue,49855,46.5564197,-87.3952018
1440,Presque Isle Road,49855,46.5577697,-87.3959665
327,Washington St.,49855,46.5439593,-87.3987497
1401,South Front Street,49855,46.5313452,-87.3960753
1320,South Front Street,49855,46.5318719,-87.3970169
338,West Washington Street,49855,46.5443639,-87.3988009
501,West Washington Street,49855,46.5443540,-87.4023362
918,West Washington Street,49855,46.5461385,-87.4131218
130,West Washington Street,49855,46.5435142,-87.3939421
130,West Washington Street,49855,46.5435633,-87.3939153
1375,Union Street,49855,46.5674665,-87.4153224
1924,Industrial Parkway,49855,46.5668777,-87.4153685
1910,Industrial Parkway,49855,46.5652162,-87.4157993
1922,Enterprise Street,49855,46.5668043,-87.4126991
130,West Washington Street,49855,46.5435653,-87.3941125
130,West Washington Street,49855,46.5433930,-87.3936573
130,West Washington Street,49855,46.5436172,-87.3940032
128,West Washington Street,49855,46.5436414,-87.3937690
128,West Washington Street,49855,46.5436741,-87.3939466
132,West Washington Street,49855,46.5434667,-87.3941777
128,North 3rd Street,49855,46.5443387,-87.3948499
153,West Washington Street,49855,46.5434299,-87.3951887
153,West Washington Street,49855,46.5434173,-87.3951149
153,West Washington Street,49855,46.5434134,-87.3950451
147,West Washington Street,49855,46.5433826,-87.3947930
149,West Washington Street,49855,46.5433925,-87.3948703
147,West Washington Street,49855,46.5433996,-87.3949539
1115,West Washington Street,49855,46.5452457,-87.4208589
560,Fern Place,49855,46.5477859,-87.3808390
129,East Hewitt Avenue,49855,46.5493640,-87.3906451
1471,West Washington Street,49855,46.5454897,-87.4250221
1467,West Washington Street,49855,46.5454881,-87.4249240
1465,West Washington Street,49855,46.5454930,-87.4247942
1203,West Fair Avenue,49855,46.5551954,-87.4136717
145,West Washington Street,49855,46.5433634,-87.3946278
121,West Washington Street,49855,46.5432418,-87.3937547
131,West Washington Street,49855,46.5432952,-87.3941611
127,West Washington Street,49855,46.5432873,-87.3940609
131,West Washington Street,49855,46.5432110,-87.3941747
412,West Washington Street,49855,46.5445405,-87.4007755
500,North 3rd Street,49855,46.5475817,-87.3945115
425,Fisher Street,49855,46.5394460,-87.4023215
1401,Odovero Drive,49855,46.5422978,-87.4239636
401,North 6th Street,49855,46.5481474,-87.4024558
400,South 3rd Street,49855,46.5416973,-87.3968401
236,West Baraga Avenue,49855,46.5418502,-87.3978800
234,West Baraga Avenue,49855,46.5417447,-87.3973485
300,West Baraga Avenue,49855,46.5419289,-87.3990117
145,West Spring Street,49855,46.5414175,-87.3956425
200,West Spring Street,49855,46.5423206,-87.3968656
112,South 3rd Street,49855,46.5427809,-87.3959026
418,South 3rd Street,49855,46.5404827,-87.3966151
502,West Washington Street,49855,46.5450022,-87.4026251
2025,US 41 West,49855,46.5470273,-87.4314404
1115,West Washington Street,49855,46.5453081,-87.4206545
919,West Baraga Avenue,49855,46.5440881,-87.4189468
1001,West Baraga Avenue,49855,46.5444139,-87.4207201
316,Pine Street,49855,46.5456785,-87.3886548
461,South Lakeshore Boulevard,49855,46.5394277,-87.3918769
114,West Spring Street,49855,46.5419217,-87.3938773
107,Main Street,49855,46.5424583,-87.3943796
100,Genesee Street,49855,46.5343529,-87.3967391
123,Genesee Street,49855,46.5337508,-87.3978782
1202,Division Street,49855,46.5338203,-87.3985290
1105,West Washington,49855-4001,46.5454983,-87.4183929
1100,West Washington Street,49855,46.5460609,-87.4183848
143,Fisher Street,49855,46.5388786,-87.3962946
510,West Washington Street,49855,46.5449647,-87.4037039
519,West Washington Street,49855,46.5445661,-87.4032115
521,West Washington Street,49855,46.5446014,-87.4034364
227,West Washington Street,49855,46.5435541,-87.3966328
200,North 3rd Street,49855,46.5446689,-87.3945212
153,West Washington Street,49855,46.5433326,-87.3951368
147,West Washington Street,49855,46.5432984,-87.3948891
137,West Washington Street,49855,46.5432456,-87.3944691
101,West Washington Street,49855,46.5431058,-87.3933296
600,Altamont Street,49855,46.5399810,-87.4042053
101,South Front Street,49855,46.5430528,-87.3925276
100,North Front Street,49855,46.5433711,-87.3924844
130,West Washington Street,49855,46.5436552,-87.3939773
110,North 3rd Street,49855,46.5439272,-87.3950488
156,West Washington Street,49855,46.5436938,-87.3951011
1200,Tierney Street,49855,46.5334820,-87.4127191
1201,South McClellan Avenue,49855,46.5332295,-87.4158945
611,North Front Street,49855,46.5486671,-87.3928021
401,North 6th Street,49855,46.5482103,-87.4023112
344,West Washington Street,49855,46.5444173,-87.3993470
294,North Lakeshore Boulevard,49855,46.5449937,-87.3793527
294,North Lakeshore Boulevard,49855,46.5448504,-87.3793187
517,North 3rd Street,49855,46.5476027,-87.3949622
1280,Lincoln Avenue,49855,46.5634649,-87.4112295
1924,Industrial Parkway,49855,46.5668924,-87.4153616
700,West Fair Avenue,49855,46.5574116,-87.4234987
1990,US Hwy 41 South,49855,46.5134745,-87.3783148
615,South 4th Street,49855,46.5390238,-87.3988886
1021,West Washington Street,49855,46.5454816,-87.4160912
1300,Lakeshore Boulevard,49855,46.5548118,-87.3830877
311,West Baraga Avenue,49855,46.5410791,-87.3989322
27,West Elder Drive,49855,46.5602264,-87.4177301
26,West Elder Drive,49855,46.5600487,-87.4178016
19,Elder Drive,49855,46.5600188,-87.4172913
16,Elder Drive,49855,46.5599977,-87.4166707
1441,Lynn Avenue,49855,46.5574621,-87.4147739
1145,West Washington Street,49855,46.5453616,-87.4213855
1175,West Washington Street,49855,46.5454858,-87.4219451
1140,West Washington Street,49855,46.5464113,-87.4208384
1120,West Washington Street,49855,46.5464194,-87.4203125
320,Lakeshore Boulevard,49855,46.5458777,-87.3795257
1001,West Washington,49855,46.5454857,-87.4155960
1014,West Washington Street,49855,46.5462664,-87.4169873
260,Lakeshore Boulevard,49855,46.5436304,-87.3850573
501,South Lake Street,49855,46.5312641,-87.3948893
1110,Lincoln Avenue,49855,46.5546295,-87.4119368
1110,Lincoln Avenue,49855,46.5543848,-87.4119371
1375,Union Street,49855,46.5674606,-87.4150480
2051,Enterprise Street,49855,46.5673139,-87.4135716
1923,Enterprise Street,49855,46.5669082,-87.4135515
1922,Enterprise Street,49855,46.5668050,-87.4126144
2050,Enterprise Street,49855,46.5665509,-87.4125693
2050,Enterprise Street,49855,46.5673984,-87.4125331
1221,West Washington Street,49855,46.5456002,-87.4229917
857,West Washington Street,49855,46.5455926,-87.4130600
920,Wright Street,49855,46.5643339,-87.4051836
338,West Washington Street,49855,46.5442739,-87.3985053
1910,Industrial Parkway,49855,46.5652195,-87.4158412
1910,Industrial Parkway,49855,46.5652318,-87.4156035
1517,Garfield Avenue,49855,46.5602337,-87.4160324
25,West Elder Drive,49855,46.5598002,-87.4178035
1,West Elder Drive,49855,46.5602254,-87.4185287
2,West Elder Drive,49855,46.5600028,-87.4183994
3,West Elder Drive,49855,46.5598204,-87.4184243
18,Elder Drive,49855,46.5602367,-87.4172395
20,Elder Drive,49855,46.5597885,-87.4172974
15,Elder Drive,49855,46.5597760,-87.4166493
17,Elder Drive,49855,46.5602258,-87.4166798
14,Elder Drive,49855,46.5595675,-87.4166349
4,West Elder Drive,49855,46.5595930,-87.4183799
5,West Elder Drive,49855,46.5593598,-87.4184094
6,West Elder Drive,49855,46.5590650,-87.4184336
23,West Elder Drive,49855,46.5593657,-87.4178643
23,West Elder Drive,49855,46.5593104,-87.4177317
24,West Elder Drive,49855,46.5596024,-87.4177799
21,Elder Drive,49855,46.5595342,-87.4173219
22,Elder Drive,49855,46.5593324,-87.4172731
13,Elder Drive,49855,46.5593493,-87.4166651
12,Elder Drive,49855,46.5590748,-87.4166656
28,West Elder Drive,49855,46.5606547,-87.4184180
65,West Elder Drive,49855,46.5606772,-87.4178035
54,Elder Drive,49855,46.5606614,-87.4173283
52,Elder Drive,49855,46.5606544,-87.4166044
30,West Elder Drive,49855,46.5610899,-87.4183578
31,West Elder Drive,49855,46.5613054,-87.4183721
29,West Elder Drive,49855,46.5608518,-87.4184222
501,West Washington Street,49855,46.5444570,-87.4023264
32,West Elder Drive,49855,46.5615311,-87.4183287
33,West Elder Drive,49855,46.5617059,-87.4182165
34,West Elder Drive,49855,46.5619587,-87.4182163
35,West Elder Drive,49855,46.5622609,-87.4179380
36,West Elder Drive,49855,46.5623139,-87.4175029
36,Elder Drive,49855,46.5623490,-87.4171674
37,Elder Drive,49855,46.5626213,-87.4172529
38,Elder Drive,49855,46.5627923,-87.4173713
39,Elder Drive,49855,46.5630749,-87.4172655
40,Elder Drive,49855,46.5633342,-87.4169148
41,Elder Drive,49855,46.5631228,-87.4165196
42,Elder Drive,49855,46.5628526,-87.4164669
43,Elder Drive,49855,46.5626044,-87.4166101
44,Elder Drive,49855,46.5623873,-87.4166023
45,Elder Drive,49855,46.5621584,-87.4166059
46,Elder Drive,49855,46.5619511,-87.4166206
47,Elder Drive,49855,46.5617465,-87.4166326
48,Elder Drive,49855,46.5615324,-87.4166261
49,Elder Drive,49855,46.5612838,-87.4166450
51,Elder Drive,49855,46.5608632,-87.4166491
64,West Elder Drive,49855,46.5608765,-87.4178161
63,West Elder Drive,49855,46.5610858,-87.4177698
62,West Elder Drive,49855,46.5613377,-87.4177510
60,West Elder Drive,49855,46.5618692,-87.4176119
59,West Elder Drive,49855,46.5617917,-87.4171809
58,Elder Drive,49855,46.5615054,-87.4172096
55,Elder Drive,49855,46.5609949,-87.4173185
1440,Center Street,49855,46.5607697,-87.4157302
1917,Enterprise Street,49855,46.5657621,-87.4134567
1915,Enterprise Street,49855,46.5653470,-87.4138071
1714,West Avenue,49855,46.5638936,-87.4212151
1712,West Avenue,49855,46.5636779,-87.4211988
1708,West Avenue,49855,46.5632592,-87.4212011
1706,West Avenue,49855,46.5630659,-87.4211995
1704,West Avenue,49855,46.5628491,-87.4212227
1771,West Avenue,49855,46.5638400,-87.4218393
1755,West Avenue,49855,46.5635544,-87.4218353
1707,West Avenue,49855,46.5633514,-87.4218314
1705,West Avenue,49855,46.5631563,-87.4218570
1703,West Avenue,49855,46.5629392,-87.4218795
1700,West Avenue,49855,46.5626094,-87.4218877
2080,U.S. 41 West,49855,46.5483022,-87.4314702
2000,US 41,49855,46.5476288,-87.4302292
2000,US 41,49855,46.5477679,-87.4301255
1950,US-41/M-28,49855,46.5475935,-87.4294990
1404,Waldo Street,49855,46.5584804,-87.4166080
1635,Presque Isle Avenue,49855,46.5602059,-87.3964429
841,West Washington Street,49855,46.5452073,-87.4095860
722,West Washington Street,49855,46.5455934,-87.4071613
805,West Baraga Avenue,49855,46.5438357,-87.4088009
657,West Washington Street,49855,46.5449146,-87.4060347
641,West Washington Street,49855,46.5448903,-87.4057952
511,West Magnetic Street,49855,46.5534789,-87.4014225
1111,North 7th Street,49855,46.5532132,-87.4036926
1110,North 7th Street,49855,46.5534722,-87.4031959
1110,North 7th Street,49855,46.5531869,-87.4031300
975,Lakeshore Boulevard,49855,46.5542454,-87.3841847
312,East Crescent Street,49855,46.5509582,-87.3886552
611,North Front Street,49855,46.5486806,-87.3932429
580,West College Avenue,49855,46.5541612,-87.4003982
850,West Baraga Avenue,49855,46.5439089,-87.4087210
110,North 3rd Street,49855,46.5439833,-87.3950327
1020,North 7th Street,49855,46.5528466,-87.4031538
531,West Magnetic Street,49855,46.5533518,-87.4014963
57,Elder Drive,49855,46.5613483,-87.4173407
56,West Elder Drive,49855,46.5611901,-87.4173177
61,West Elder Drive,49855,46.5615895,-87.4176348
50,Elder Drive,49855,46.5610875,-87.4166529
808,South Lakeshore Boulevard,49855,46.5347835,-87.3952139
575,Forestville Basin Trail,49855,46.5715520,-87.4538506
1203,West Fair Avenue,49855,46.5555806,-87.4144007
200,South 7th Street,49855,46.5440167,-87.4046321
450,West Ohio Street,49855,46.5484129,-87.4010608
101,South Front Street,49855,46.5428469,-87.3933138
101,South Front Street,49855,46.5426771,-87.3933257
700,North 4th Street,49855,46.5495300,-87.3966983
246,West Hewitt Avenue,49855,46.5494075,-87.3965585
824,North 3rd Street,49855,46.5509653,-87.3945001
828,North 3rd Street,49855,46.5510936,-87.3945270
900,North 3rd Street,49855,46.5513825,-87.3944518
1280,Lincoln Avenue,49855,46.5631461,-87.4109665
1200,Tierney Street,49855,46.5336078,-87.4134579
1201,South McClellan Avenue,49855,46.5331427,-87.4164114
1414,West Fair Avenue,49855,46.5576409,-87.4175424
1203,West Fair Avenue,49855,46.5547342,-87.4150384
2401,Lakeshore Boulevard,49855,46.5746982,-87.3931937
2675,Lakeshore Boulevard,49855,46.5762800,-87.3934519
112,South 3rd Street,49855,46.5428639,-87.3963470
