House number,Street name,Postal code,Latitude,Longitude
415,East Main Street,48640,43.6113181,-84.2426464
1601,East Wheeler Street,48642,43.6414928,-84.2083302
5011,Saginaw Road,48642,43.6408678,-84.2910925
5908,Eastman Avenue,48640,43.6513429,-84.2466487
1615,North Saginaw Road,48640,43.6407283,-84.2462100
2106,North Saginaw Road,48640,43.6416837,-84.2522801
2500,North Saginaw Road,48640,43.6416966,-84.2571947
2929,South Saginaw Road,48640,43.6063581,-84.2069598
2029,South Saginaw Road,48640,43.6126676,-84.2113739
2029,South Saginaw Road,48640,43.6129090,-84.2109380
2910,South Jefferson Avenue,48640,43.6250141,-84.2266211
2003,South Saginaw Road,48640-6807,43.6136761,-84.2121190
1815,South Saginaw Road,48640,43.6141975,-84.2128559
1616,North Saginaw Road,48640,43.6418936,-84.2465046
2808,Ashman Street,48640,43.6246701,-84.2281854
5103,Eastman Avenue,48640,43.6442203,-84.2479969
6820,Eastman Avenue,48642,43.6588044,-84.2411978
1900,South Saginaw Road,48640,43.6132921,-84.2147566
301,South Saginaw Road,48640,43.6251073,-84.2249515
7142,Eastman Avenue,48640,43.6629045,-84.2462999
6080,Eastman Avenue,48642,43.6600666,-84.2421297
8040,Eastman Avenue,48642,43.6599264,-84.2447356
2026,North Saginaw Road,48640,43.6425702,-84.2507104
2022,North Saginaw Road,48640,43.6425414,-84.2501161
2018,North Saginaw Road,48640,43.6425430,-84.2499350
2014,North Saginaw Road,48640,43.6425430,-84.2497406
2008,North Saginaw Road,48640,43.6425462,-84.2495793
2006,North Saginaw Road,48640,43.6425830,-84.2494225
2030,North Saginaw Road,48640,43.6425382,-84.2512361
2032,North Saginaw Road,48640,43.6425382,-84.2514261
4951,Eastman Avenue,48640,43.6431724,-84.2473182
4955,Eastman Avenue,48640,43.6431821,-84.2476173
4959,Eastman Avenue,48640,43.6431811,-84.2477608
4963,Eastman Avenue,48640,43.6431811,-84.2479203
4983,Eastman Avenue,48640,43.6435800,-84.2483200
4979,Eastman Avenue,48640,43.6434577,-84.2483254
4975,Eastman Avenue,48640,43.6433102,-84.2483267
4973,Eastman Avenue,48640,43.6432685,-84.2483267
4971,Eastman Avenue,48640,43.6432306,-84.2483240
5027,Eastman Avenue,48640,43.6438798,-84.2473706
5023,Eastman Avenue,48640,43.6438051,-84.2471935
5019,Eastman Avenue,48640,43.6437245,-84.2471962
825,South Saginaw Road,48640,43.6208613,-84.2197485
913,South Saginaw Road,48640,43.6204362,-84.2192878
963,South Saginaw Road,48640,43.6201084,-84.2181905
967,South Saginaw Road,48640,43.6199867,-84.2180600
973,South Saginaw Road,48640,43.6199581,-84.2178939
979,South Saginaw Road,48640,43.6199238,-84.2176507
983,South Saginaw Road,48640,43.6196976,-84.2176072
921,South Saginaw Road,48640,43.6202754,-84.2192696
2525,Washington Street,48642,43.6209651,-84.2183797
2527,Washington Street,48642,43.6209737,-84.2180258
3126,Jefferson Avenue,48640,43.6277775,-84.2264065
3124,Jefferson Avenue,48640,43.6277775,-84.2265026
3114,Jefferson Avenue,48640,43.6274620,-84.2266453
3110,Jefferson Avenue,48640,43.6273225,-84.2266536
3102,Jefferson Avenue,48640,43.6272015,-84.2265981
86,Ashman Circle,48640,43.6269482,-84.2263041
94,Ashman Circle,48640,43.6270514,-84.2264110
111,East Ashman Street,48640,43.6268630,-84.2259342
113,East Ashman Street,48640,43.6268644,-84.2257796
109,East Ashman Street,48640,43.6268619,-84.2260584
84,Ashman Circle,48640,43.6268606,-84.2262134
3114B,Jefferson Avenue,48640,43.6274115,-84.2263985
3128,Jefferson Avenue,48640,43.6277811,-84.2262931
3128,Jefferson Avenue,48640,43.6278448,-84.2260994
7201,Eastman Avenue,48642,43.6626819,-84.2480240
7215,Eastman Avenue,48642,43.6628320,-84.2480268
1018,West Main Street,48640,43.6205408,-84.2532516
5910,Eastman Avenue,48640,43.6513352,-84.2460182
5816,Eastman Avenue,48640,43.6509532,-84.2460283
5912,Eastman Avenue,48640,43.6515846,-84.2460164
6018,Eastman Avenue,48640,43.6524593,-84.2467406
5021,Bay City Road,48642,43.6057397,-84.1657251
5121,Bay City Road,48642,43.6060992,-84.1656296
5115,Bay City Road,48642,43.6056762,-84.1663171
1300,Springfield Drive,48642,43.6124361,-84.1814375
1301,Illinois Drive,48642,43.6124432,-84.1785539
1302,Springfield Drive,48642,43.6124792,-84.1814379
1303,Illinois Drive,48642,43.6124860,-84.1785535
1304,Springfield Drive,48642,43.6125224,-84.1814383
1305,Illinois Drive,48642,43.6125289,-84.1785530
1306,Springfield Drive,48642,43.6125655,-84.1814387
1307,Illinois Drive,48642,43.6125717,-84.1785526
1308,Springfield Drive,48642,43.6126087,-84.1814390
1309,Illinois Drive,48642,43.6126145,-84.1785522
1310,Springfield Drive,48642,43.6126518,-84.1814394
1311,Illinois Drive,48642,43.6126574,-84.1785518
1314,Springfield Drive,48642,43.6127611,-84.1814394
1315,Illinois Drive,48642,43.6127747,-84.1785532
1316,Springfield Drive,48642,43.6128022,-84.1814394
1317,Illinois Drive,48642,43.6128168,-84.1785530
1318,Springfield Drive,48642,43.6128432,-84.1814394
1319,Illinois Drive,48642,43.6128588,-84.1785529
1320,Springfield Drive,48642,43.6128843,-84.1814394
1321,Illinois Drive,48642,43.6129009,-84.1785528
1322,Springfield Drive,48642,43.6129254,-84.1814394
1323,Illinois Drive,48642,43.6129429,-84.1785526
1324,Springfield Drive,48642,43.6129665,-84.1814394
1325,Illinois Drive,48642,43.6129850,-84.1785525
3800,East Patrick Road,48642,43.6130135,-84.1813477
3801,East Patrick Road,48642,43.6123946,-84.1813468
3802,East Patrick Road,48642,43.6130133,-84.1812911
3803,East Patrick Road,48642,43.6123941,-84.1812882
3804,East Patrick Road,48642,43.6130130,-84.1812344
3805,East Patrick Road,48642,43.6123937,-84.1812296
3806,East Patrick Road,48642,43.6130128,-84.1811777
3807,East Patrick Road,48642,43.6123932,-84.1811710
3810,East Patrick Road,48642,43.6129305,-84.1810345
3811,East Patrick Road,48642,43.6124789,-84.1810287
3812,East Patrick Road,48642,43.6129305,-84.1809705
3813,East Patrick Road,48642,43.6124796,-84.1809762
3814,East Patrick Road,48642,43.6129201,-84.1808969
3815,East Patrick Road,48642,43.6124886,-84.1809036
3816,East Patrick Road,48642,43.6129208,-84.1808383
3817,East Patrick Road,48642,43.6124891,-84.1808457
3818,East Patrick Road,48642,43.6129215,-84.1807798
3819,East Patrick Road,48642,43.6124895,-84.1807877
3820,East Patrick Road,48642,43.6129222,-84.1807212
3821,East Patrick Road,48642,43.6124900,-84.1807298
3822,East Patrick Road,48642,43.6129333,-84.1806562
3823,East Patrick Road,48642,43.6124789,-84.1806667
3824,East Patrick Road,48642,43.6129326,-84.1805999
3825,East Patrick Road,48642,43.6124782,-84.1806161
3828,East Patrick Road,48642,43.6130086,-84.1804585
3829,East Patrick Road,48642,43.6124063,-84.1804518
3830,East Patrick Road,48642,43.6130084,-84.1803993
3831,East Patrick Road,48642,43.6124063,-84.1803993
3832,East Patrick Road,48642,43.6130082,-84.1803401
3833,East Patrick Road,48642,43.6124063,-84.1803468
3834,East Patrick Road,48642,43.6130080,-84.1802809
3835,East Patrick Road,48642,43.6124063,-84.1802942
3837,East Patrick Road,48642,43.6124699,-84.1802379
3839,East Patrick Road,48642,43.6125119,-84.1802366
3841,East Patrick Road,48642,43.6125539,-84.1802353
3843,East Patrick Road,48642,43.6125958,-84.1802341
3845,East Patrick Road,48642,43.6126525,-84.1802494
3847,East Patrick Road,48642,43.6126919,-84.1802497
3849,East Patrick Road,48642,43.6127313,-84.1802500
3851,East Patrick Road,48642,43.6127708,-84.1802503
3853,East Patrick Road,48642,43.6128288,-84.1802350
3855,East Patrick Road,48642,43.6128669,-84.1802331
3857,East Patrick Road,48642,43.6129160,-84.1802350
3859,East Patrick Road,48642,43.6129499,-84.1802350
3900,East Patrick Road,48642,43.6130085,-84.1797006
3901,East Patrick Road,48642,43.6129493,-84.1797574
3902,East Patrick Road,48642,43.6130088,-84.1796427
3903,East Patrick Road,48642,43.6129081,-84.1797576
3904,East Patrick Road,48642,43.6130091,-84.1795847
3905,East Patrick Road,48642,43.6128668,-84.1797578
3906,East Patrick Road,48642,43.6130094,-84.1795267
3907,East Patrick Road,48642,43.6128256,-84.1797580
3909,East Patrick Road,48642,43.6127757,-84.1797418
3910,East Patrick Road,48642,43.6129376,-84.1793785
3911,East Patrick Road,48642,43.6127335,-84.1797412
3912,East Patrick Road,48642,43.6129380,-84.1793326
3913,East Patrick Road,48642,43.6126913,-84.1797405
3914,East Patrick Road,48642,43.6129258,-84.1792596
3915,East Patrick Road,48642,43.6126491,-84.1797398
3916,East Patrick Road,48642,43.6129263,-84.1792009
3917,East Patrick Road,48642,43.6125948,-84.1797580
3918,East Patrick Road,48642,43.6129268,-84.1791421
3919,East Patrick Road,48642,43.6125473,-84.1797567
3920,East Patrick Road,48642,43.6129273,-84.1790833
3921,East Patrick Road,48642,43.6125077,-84.1797594
3922,East Patrick Road,48642,43.6129410,-84.1790077
3923,East Patrick Road,48642,43.6124686,-84.1797574
3924,East Patrick Road,48642,43.6129395,-84.1789618
3925,East Patrick Road,48642,43.6124065,-84.1796986
3927,East Patrick Road,48642,43.6124065,-84.1796378
3928,East Patrick Road,48642,43.6130265,-84.1788085
3929,East Patrick Road,48642,43.6124065,-84.1795770
3930,East Patrick Road,48642,43.6130265,-84.1787497
3931,East Patrick Road,48642,43.6124065,-84.1795163
3932,East Patrick Road,48642,43.6130265,-84.1786910
3933,East Patrick Road,48642,43.6124862,-84.1793758
3934,East Patrick Road,48642,43.6130265,-84.1786322
3935,East Patrick Road,48642,43.6124848,-84.1793170
3937,East Patrick Road,48642,43.6124989,-84.1792461
3939,East Patrick Road,48642,43.6124986,-84.1791912
3941,East Patrick Road,48642,43.6124983,-84.1791362
3943,East Patrick Road,48642,43.6124980,-84.1790813
3945,East Patrick Road,48642,43.6124862,-84.1790158
3947,East Patrick Road,48642,43.6124848,-84.1789577
3949,East Patrick Road,48642,43.6124075,-84.1788105
3951,East Patrick Road,48642,43.6124075,-84.1787535
3953,East Patrick Road,48642,43.6124075,-84.1786966
3955,East Patrick Road,48642,43.6124075,-84.1786396
1900,Ridgewood Drive,48642,43.6154706,-84.1838081
1904,Ridgewood Drive,48642,43.6154711,-84.1837388
1904,Ridgewood Drive,48642,43.6154715,-84.1836695
1908,Ridgewood Drive,48642,43.6154719,-84.1836002
1910,Ridgewood Drive,48642,43.6154723,-84.1835309
1914,Ridgewood Drive,48642,43.6154728,-84.1834616
1918,Ridgewood Drive,48642,43.6154732,-84.1833923
1920,Ridgewood Drive,48642,43.6154736,-84.1833230
1924,Ridgewood Drive,48642,43.6154740,-84.1832537
7620,Eastman Avenue,48642,43.6674991,-84.2463580
7600,Commerce Court,48642,43.6665780,-84.2439888
1407,Commerce Drive,48642,43.6679514,-84.2442851
7600,Commerce Court,48642,43.6664773,-84.2439880
1500,Commerce Drive,48642,43.6687669,-84.2458366
7814,Eastman Avenue,48642,43.6690369,-84.2466413
7600,Commerce Court,48642,43.6666787,-84.2439895
1609,Commerce Drive,48642,43.6678597,-84.2465939
7618,Commerce Court,48642,43.6675174,-84.2443307
1610,Commerce Drive,48642,43.6686398,-84.2466040
4900,Hedgewood Drive,48640,43.6424417,-84.2845213
1801,South Saginaw Road,48640,43.6146348,-84.2136332
1711,South Saginaw Road,48640,43.6150817,-84.2137344
1320,Washington Street,48640,43.6132503,-84.2164268
1303,Colorado Court,48642,43.6142048,-84.2114606
1305,Colorado Court,48642,43.6141639,-84.2114160
1307,Colorado Court,48642,43.6141230,-84.2113713
1309,Colorado Court,48642,43.6140820,-84.2113266
1311,Colorado Court,48642,43.6140411,-84.2112820
1313,Colorado Court,48642,43.6139339,-84.2111678
1315,Colorado Court,48642,43.6139013,-84.2111314
1317,Colorado Court,48642,43.6138687,-84.2110950
1319,Colorado Court,48642,43.6138361,-84.2110586
1321,Colorado Court,48642,43.6138036,-84.2110222
1323,Colorado Court,48642,43.6137710,-84.2109858
1327,Colorado Court,48642,43.6136646,-84.2108772
1329,Colorado Court,48642,43.6136234,-84.2108305
1331,Colorado Court,48642,43.6135822,-84.2107838
1333,Colorado Court,48642,43.6135410,-84.2107371
1304,Washington Street,48640,43.6126046,-84.2169275
816,East Haley Street,48640,43.6154945,-84.2177518
3615,East Ashman Street,48642,43.6272808,-84.1830567
1510,South Saginaw Road,48640,43.6161602,-84.2163415
2101,Eastlawn Drive,48642,43.6197733,-84.2026104
2103,Eastlawn Drive,48642,43.6200137,-84.2026111
2105,Eastlawn Drive,48642,43.6202541,-84.2026118
2107,Eastlawn Drive,48642,43.6202511,-84.2019772
2109,Eastlawn Drive,48642,43.6200142,-84.2019849
2111,Eastlawn Drive,48642,43.6197774,-84.2019927
6803,Eastman Avenue,48642,43.6600140,-84.2476551
1200,West Wheeler Street,48640,43.6418447,-84.2410318
2802,North Saginaw Road,48640,43.6416519,-84.2610222
2222,North Saginaw Road,48640,43.6416972,-84.2539824
2400,North Saginaw Road,48640,43.6418102,-84.2559414
2218,North Saginaw Road,48640,43.6417714,-84.2535170
2820,North Saginaw Road,48640,43.6416702,-84.2614214
2112,North Saginaw Road,48640,43.6416015,-84.2528436
2706,North Saginaw Road,48640,43.6416610,-84.2597540
4006,Jefferson Avenue,48640,43.6344166,-84.2264128
4004,Jefferson Avenue,48640,43.6344157,-84.2266141
4015,Jefferson Avenue,48640,43.6344830,-84.2272042
4011,Jefferson Avenue,48640,43.6343290,-84.2272042
4013,Jefferson Avenue,48640,43.6344060,-84.2272042
4007,Jefferson Avenue,48640,43.6343509,-84.2274132
4304,North Saginaw Road,48640,43.6419693,-84.2797158
4306,North Saginaw Road,48640,43.6419690,-84.2797807
4308,North Saginaw Road,48640,43.6419687,-84.2798456
4310,North Saginaw Road,48640,43.6419684,-84.2799105
4312,North Saginaw Road,48640,43.6419681,-84.2799754
4320,North Saginaw Road,48640,43.6419681,-84.2801865
4322,North Saginaw Road,48640,43.6419684,-84.2802438
4324,North Saginaw Road,48640,43.6419686,-84.2803011
4326,North Saginaw Road,48640,43.6419688,-84.2803584
4328,North Saginaw Road,48640,43.6419691,-84.2804157
4406,North Saginaw Road,48640,43.6419693,-84.2804729
4418,North Saginaw Road,48640,43.6416287,-84.2815836
4420,North Saginaw Road,48640,43.6417649,-84.2815858
4424,North Saginaw Road,48640,43.6419010,-84.2815880
4426,North Saginaw Road,48640,43.6420372,-84.2815903
4424,North Saginaw Road,48640,43.6418566,-84.2788816
1118,Joe Mann Boulevard,48642,43.6620023,-84.2409507
1200,Joe Mann Boulevard,48642,43.6620023,-84.2413813
1715,East Ashman Street,48642,43.6268724,-84.2061915
3106,Swede Avenue,48642,43.6270031,-84.2068115
3102,Swede Avenue,48642,43.6268258,-84.2068087
1714,Eastman Avenue,48640,43.6230230,-84.2466465
1709,North Saginaw Road,48640,43.6408764,-84.2473781
1122,Eastman Avenue,48640,43.6222120,-84.2465791
1120,Eastman Avenue,48640,43.6222112,-84.2467671
4617,Eastman Avenue,48640,43.6402606,-84.2486780
1605,Bookness Street,48640,43.6223821,-84.2462100
4615,Eastman Avenue,48640,43.6402551,-84.2473555
2713,Waldo Avenue,48642,43.6233852,-84.1879537
1215,South Saginaw Road,48640,43.6181708,-84.2174684
1115,South Saginaw Road,48640,43.6184553,-84.2176795
1024,South Saginaw Road,48640,43.6189671,-84.2193145
1000,South Saginaw Road,48640,43.6191411,-84.2197151
1214,South Saginaw Road,48640,43.6178426,-84.2182201
305,South Saginaw Road,48640,43.6251651,-84.2248323
413,South Saginaw Road,48640,43.6239260,-84.2238418
415,South Saginaw Road,48640,43.6238852,-84.2237958
417,South Saginaw Road,48640,43.6238043,-84.2236658
418,South Saginaw Road,48640,43.6238829,-84.2234302
419,South Saginaw Road,48640,43.6237469,-84.2235991
420,South Saginaw Road,48640,43.6237522,-84.2233077
421,South Saginaw Road,48640,43.6229531,-84.2243175
421,South Saginaw Road,48640,43.6236775,-84.2235634
423,South Saginaw Road,48640,43.6236329,-84.2235118
425,South Saginaw Road,48640,43.6235882,-84.2234602
430,South Saginaw Road,48640,43.6231252,-84.2240124
613,South Saginaw Road,48640,43.6221168,-84.2218898
617,South Saginaw Road,48640,43.6221696,-84.2217979
619,South Saginaw Road,48640,43.6222484,-84.2216565
621,South Saginaw Road,48640,43.6221518,-84.2216207
623,South Saginaw Road,48640,43.6222029,-84.2215365
700,South Saginaw Road,48640,43.6215697,-84.2220287
702,South Saginaw Road,48640,43.6215082,-84.2221515
704,South Saginaw Road,48640,43.6214390,-84.2222900
706,South Saginaw Road,48640,43.6213370,-84.2221823
708,South Saginaw Road,48640,43.6212384,-84.2220780
200,South Patterson Road,48640,43.5995393,-84.2650368
800,West Larkin Street,48640,43.6182702,-84.2504063
801,West Ellsworth Street,48640,43.6186255,-84.2498937
802,West Larkin Street,48640,43.6183193,-84.2503351
803,West Ellsworth Street,48640,43.6185356,-84.2500178
5820,Countryside Drive,48640,43.6361712,-84.2982793
6501,West Jefferson Road,48640,43.6326507,-84.2780789
225,West Wackerly Street,48640,43.6543725,-84.2285700
220,West Ellsworth Street,48640,43.6152589,-84.2454400
333,West Ellsworth Street,48640,43.6152685,-84.2454253
1710,West Saint Andrews Road,48640,43.6258360,-84.2480696
2727,Rodd Street,48640,43.6240751,-84.2278383
54,Ashman Circle,48640,43.6260996,-84.2258462
28,Ashman Circle,48640,43.6255865,-84.2266594
20,Ashman Circle,48640,43.6256065,-84.2268346
76,Ashman Circle,48640,43.6264948,-84.2258473
22,Ashman Circle,48640,43.6255784,-84.2267564
44,Ashman Circle,48640,43.6259229,-84.2259117
500,Joe Mann Boulevard,48642,43.6592463,-84.2319962
4055,South Saginaw Road,48640,43.5787938,-84.2042022
7007,Shepherd Drive,48640,43.6613611,-84.2478486
140,East Main Street,48640,43.6125858,-84.2451573
6911,Eastman Avenue,48640,43.6609458,-84.2478076
801,East Wackerly Street,48642,43.6553827,-84.2185683
605,East Wackerly Street,48642,43.6552725,-84.2215385
1111,East Wackerly Street,48642,43.6552648,-84.2147668
1111,East Wackerly Street,48642,43.6552661,-84.2142267
405,East Wackerly Street,48642,43.6551593,-84.2232441
601,East Wackerly Street,48642,43.6553349,-84.2222730
7229,Eastman Avenue,48642,43.6629223,-84.2480262
7211,Eastman Avenue,48642,43.6627562,-84.2480313
1625,East Wheeler Street,48642,43.6418688,-84.2076635
405,North Saginaw Road,48640,43.6309592,-84.2325535
337,East Wackerly Street,48642,43.6553328,-84.2240077
111,East Wackerly Street,48642,43.6552697,-84.2263681
111,East Wackerly Street,48642,43.6552726,-84.2260945
830,Joe Mann Boulevard,48642,43.6606071,-84.2369910
6603,Eastman Avenue,48640,43.6577260,-84.2478190
6801,Eastman Avenue,48642,43.6600890,-84.2482214
6841,Eastman Avenue,48642,43.6600890,-84.2484373
6819,Eastman Avenue,48642,43.6598911,-84.2491360
6811,Eastman Avenue,48642,43.6597591,-84.2491388
6805,Eastman Avenue,48642,43.6595729,-84.2491427
6715,Eastman Avenue,48642,43.6592847,-84.2479116
6707,Eastman Avenue,48642,43.6590591,-84.2477661
6711,Eastman Avenue,48642,43.6593681,-84.2479008
601,Waldo Avenue,48642,43.6060528,-84.1880865
312,McDonald Street,48640,43.6141500,-84.2423675
101,East Main Street,48640,43.6131765,-84.2451740
115,Eastlawn Drive,48640,43.6199065,-84.2255741
4925,Eastman Avenue,48640,43.6429437,-84.2475642
6605,Eastman Avenue,48642,43.6569823,-84.2475361
7300,Eastman Avenue,48640,43.6626348,-84.2462835
7300,Eastman Avenue,48640,43.6626290,-84.2465356
900,Joe Mann Boulevard,48642,43.6607817,-84.2401667
1602,East Grove Street,48642,43.6073665,-84.2297798
3001,Bay City Road,48642,43.6057569,-84.1907369
3001,Bay City Road,48642,43.6053998,-84.1908646
309,Jerome Street,48640,43.6167298,-84.2461561
603,East Ellsworth Street,48642,43.6114138,-84.2393647
603,East Ellsworth Street,48642,43.6114070,-84.2391756
3520,Isabella Road,48642,43.6123401,-84.2914478
3520,Isabella Road,48642,43.6125576,-84.2915002
604,South Saginaw Road,48640,43.6222735,-84.2228034
604,South Saginaw Road,48640,43.6221977,-84.2229389
1215,South Saginaw Road,48640,43.6183764,-84.2175503
1801,South Saginaw Road,48640,43.6147651,-84.2136115
2029,South Saginaw Road,48640,43.6128265,-84.2110942
2500,North Saginaw Road,48640,43.6417170,-84.2575394
217,East Larkin Street,48640,43.6132489,-84.2427432
4816,Bay City Road,48642,43.6029363,-84.1699745
5108,Eastman Avenue,48640,43.6443102,-84.2466027
314,Eastman Avenue,48640,43.6176821,-84.2469692
701,Joe Mann Boulevard,48642,43.6576831,-84.2329409
6005,Jefferson Avenue,48640,43.6523199,-84.2273751
6001,Jefferson Avenue,48640,43.6521856,-84.2273775
981,S Saginaw St,48640,43.6198373,-84.2176505
111,West Main Street,48640,43.6135504,-84.2464136
120,East Main Street,48640,43.6128987,-84.2455285
801,Joe Mann Boulevard,48642,43.6589488,-84.2363710
1025,East Wheeler Street,48642,43.6420296,-84.2153669
555,West Wackerly Street,48640,43.6544378,-84.2331250
6800,Eastman Avenue,48642,43.6589264,-84.2428740
800,West Chapel Lane,48640,43.6493056,-84.2356985
130,West Larkin Street,48640,43.6143176,-84.2448787
5700,Siebert Street,48640,43.6499042,-84.2389869
1710,West Saint Andrews Road,48640,43.6257881,-84.2482940
315,Post Street,48640,43.6237974,-84.2536304
1801,West Saint Andrews Road,48640,43.6244362,-84.2501601
1809,Eastman Avenue,48640,43.6234078,-84.2496536
1710,West Saint Andrews Road,48640,43.6255500,-84.2489971
301,West Main Street,48640,43.6138656,-84.2473717
111,West Main Street,48640,43.6131217,-84.2464928
315,West Larkin Street,48640,43.6150822,-84.2470838
333,West Ellsworth Street,48640,43.6156687,-84.2458103
220,West Ellsworth Street,48640,43.6156723,-84.2449581
220,West Main Street,48640,43.6143759,-84.2462402
1305,East Sugnet Road,48640,43.6327202,-84.2113820
1301,Eastlawn Drive,48640,43.6206083,-84.2122867
1005,Adams Drive,48640,43.6460876,-84.2159467
1407,West Carpenter Street,48640,43.6201080,-84.2432519
3900,Chestnut Hill Drive,48640,43.6332004,-84.1961425
1105,East Sugnet Road,48640,43.6339663,-84.2135779
5500,Drake Street,48640,43.6479013,-84.2586439
600,East Carpenter Street,48640,43.6146054,-84.2343358
505,East Carpenter Street,48640,43.6167804,-84.2348626
2205,Jefferson Avenue,48640,43.6182109,-84.2282980
7300,North Eastman Road,48640,43.6631956,-84.2431526
7300,Eastman Avenue,48640,43.6632024,-84.2449012
910,Joe Mann Boulevard,48642,43.6614368,-84.2381266
1100,Joe Mann Boulevard,48642,43.6636772,-84.2403763
910,Joe Mann Boulevard,48642,43.6614334,-84.2396633
1100,Joe Mann Boulevard,48642,43.6629351,-84.2405225
1200,Joe Mann Boulevard,48642,43.6620308,-84.2413772
1118,Joe Mann Boulevard,48642,43.6620777,-84.2409542
815,Joe Mann Boulevard,48642,43.6595174,-84.2369901
815,Joe Mann Boulevard,48642,43.6594736,-84.2369597
800,Joe Mann Boulevard,48642,43.6599151,-84.2350840
800,Joe Mann Boulevard,48642,43.6598879,-84.2350412
901,Joe Mann Boulevard,48642,43.6586186,-84.2381211
905,Joe Mann Boulevard,48642,43.6581644,-84.2383057
909,Joe Mann Boulevard,48642,43.6578861,-84.2383057
913,Joe Mann Boulevard,48642,43.6575948,-84.2383326
917,Joe Mann Boulevard,48642,43.6572508,-84.2382276
921,Joe Mann Boulevard,48642,43.6571300,-84.2395790
1409,Joe Mann Boulevard,48642,43.6613161,-84.2440516
1517,Joe Mann Boulevard,48642,43.6615475,-84.2454063
1511,Joe Mann Boulevard,48642,43.6614970,-84.2448724
7000,Eastman Avenue,48642,43.6616231,-84.2465365
6910,Eastman Avenue,48642,43.6604737,-84.2463586
6910,Eastman Avenue,48642,43.6605096,-84.2466301
6730,Eastman Avenue,48642,43.6591648,-84.2465609
6728,Eastman Avenue,48642,43.6584802,-84.2457945
4509,North Saginaw Road,48640,43.6406836,-84.2826812
810,Cinema Drive,48642,43.6571886,-84.2364093
810,Cinema Drive,48642,43.6571658,-84.2366742
810,Cinema Drive,48642,43.6574914,-84.2360688
810,Cinema Drive,48642,43.6568345,-84.2360773
6540,Cinema Drive,48642,43.6568334,-84.2330688
6641,Cinema Drive,48642,43.6580226,-84.2347496
701,Joe Mann Boulevard,48642,43.6575821,-84.2329594
525,Joe Mann Boulevard,48642,43.6578731,-84.2320285
6711,North Jefferson Road,48642,43.6587565,-84.2279069
3009,North Saginaw Road,48640,43.6405117,-84.2633190
4400,Wellness Drive,48640,43.6380474,-84.2609901
4401,North Campus Ridge Drive,48670,43.6374556,-84.2600340
4500,North Campus Ridge Drive,48640,43.6390531,-84.2575940
2520,McCandless Drive,48670,43.6373361,-84.2575711
2600,McCandless Drive,48670,43.6374251,-84.2585184
4009,Orchard Drive,48640,43.6360221,-84.2596176
4000,Wellness Drive,48670,43.6350332,-84.2603833
4100,Campus Ridge Drive,48640,43.6352808,-84.2579582
2809,Rockwell Drive,48642,43.6254068,-84.1714745
4305,East Ashman Street,48642,43.6280658,-84.1745729
4371,East Ashman Street,48642,43.6270339,-84.1731443
1910,North Saginaw Road,48640,43.6417569,-84.2500137
2038,North Saginaw Road,48640,43.6416004,-84.2515739
1900,North Saginaw Road,48640,43.6422413,-84.2489393
1840,North Saginaw Road,48640,43.6421802,-84.2489399
1832,North Saginaw Road,48640,43.6432124,-84.2485679
1830,North Saginaw Road,48640,43.6434541,-84.2485687
1720,North Saginaw Road,48640,43.6430796,-84.2496414
1902,North Saginaw Road,48640,43.6429469,-84.2496398
1828,North Saginaw Road,48640,43.6444568,-84.2488640
4925,Eastman Avenue,48640,43.6429464,-84.2475657
1700,North Saginaw Road,48640,43.6419902,-84.2475179
1710,North Saginaw Road,48640,43.6417570,-84.2489614
5015,Eastman Avenue,48640,43.6435001,-84.2473351
5103,Eastman Avenue,48640,43.6444738,-84.2479937
5103,Eastman Avenue,48640,43.6442673,-84.2474816
5205,Eastman Avenue,48640,43.6448243,-84.2472966
2607,Bay City Road,48642,43.6057404,-84.1953101
2125,Austin Street,48642,43.6067144,-84.2004357
2727,Rodd Street,48640,43.6241239,-84.2278883
2910,Ashman Street,48640,43.6254124,-84.2276573
2900,Rodd Street,48640,43.6230669,-84.2254006
1717,North Saginaw Road,48640,43.6409042,-84.2485334
1717,North Saginaw Road,48640,43.6407258,-84.2484867
4100,North Saginaw Road,48640,43.6418018,-84.2777112
825,South Saginaw Road,48640,43.6206125,-84.2194525
931,South Saginaw Road,48640,43.6199445,-84.2187756
803,South Saginaw Road,48640,43.6211882,-84.2201520
800,Cambridge Street,48642,43.6214159,-84.2184796
2601,Washington Street,48642,43.6213020,-84.2180465
2501,Washington Street,48642,43.6202813,-84.2175846
821,Cambridge Street,48642,43.6224152,-84.2190796
812,Cambridge Street,48642,43.6221339,-84.2191432
3128,Jefferson Avenue,48640,43.6278542,-84.2262602
109,East Ashman Street,48640,43.6268747,-84.2261161
110,North Saginaw Road,48640,43.6274868,-84.2273098
110,North Saginaw Road,48640,43.6274066,-84.2275958
110,North Saginaw Road,48640,43.6274020,-84.2275017
128,Ashman Circle,48640,43.6269261,-84.2280771
124,Ashman Circle,48640,43.6270231,-84.2282409
132,Ashman Circle,48640,43.6267610,-84.2281915
20,Ashman Circle,48640,43.6256056,-84.2268348
44,Ashman Circle,48640,43.6259211,-84.2259116
6200,Sturgeon Avenue,48640,43.6539871,-84.2652707
6200,Sturgeon Avenue,48640,43.6540336,-84.2658858
6200,Sturgeon Avenue,48640,43.6535593,-84.2655980
6100,Perrine Road,48640,43.6540566,-84.2760831
6100,Perrine Road,48640,43.6547013,-84.2752136
6100,Perrine Road,48640,43.6534702,-84.2762611
6100,Perrine Road,48640,43.6543723,-84.2755743
6100,Perrine Road,48640,43.6545636,-84.2745350
6100,Perrine Road,48640,43.6535387,-84.2757027
6100,Perrine Road,48640,43.6534139,-84.2756655
6100,Perrine Road,48640,43.6539611,-84.2736590
4417,West Wackerly Street,48640,43.6545933,-84.2816403
4405,West Wackerly Street,48640,43.6542955,-84.2812886
4417,West Wackerly Street,48640,43.6545057,-84.2817686
1305,East Sugnet Road,48640,43.6321292,-84.2119399
1105,East Sugnet Road,48640,43.6336200,-84.2139940
1105,East Sugnet Road,48640,43.6332720,-84.2132710
1105,East Sugnet Road,48640,43.6333443,-84.2135979
1305,East Sugnet Road,48640,43.6324374,-84.2100935
1305,East Sugnet Road,48640,43.6330808,-84.2104822
900,East Wackerly Street,48640,43.6534840,-84.2168836
900,East Wackerly Street,48640,43.6544273,-84.2172859
900,East Wackerly Street,48640,43.6543127,-84.2160788
900,East Wackerly Street,48640,43.6542020,-84.2172986
900,East Wackerly Street,48640,43.6542102,-84.2180895
5500,Drake Street,48640,43.6482814,-84.2585519
555,West Wackerly Street,48640,43.6543359,-84.2330709
1515,West Wackerly Street,48640,43.6543839,-84.2460677
6214,Eastman Avenue,48640,43.6545135,-84.2467704
1517,West Wackerly Street,48640,43.6546177,-84.2463867
1716,West Wackerly Street,48640,43.6552666,-84.2484279
6225,Eastman Avenue,48640,43.6545952,-84.2476324
6225,Eastman Avenue,48640,43.6545771,-84.2476306
133,Ashman Street,48640,43.6138294,-84.2450607
102,West Main Street,48640,43.6135989,-84.2453661
118,West Main Street,48640,43.6136062,-84.2455861
122,West Main Street,48640,43.6136838,-84.2456269
128,West Main Street,48640,43.6137382,-84.2456969
140,West Main Street,48640,43.6139788,-84.2457464
201,McDonald Street,48640,43.6135082,-84.2438006
201,McDonald Street,48640,43.6138057,-84.2434833
210,Ashman Street,48640,43.6139098,-84.2439930
318,Ashman Street,48640,43.6145038,-84.2431785
322,Ashman Street,48640,43.6146922,-84.2429852
315,McDonald Street,48640,43.6144310,-84.2426631
212,McDonald Street,48640,43.6133475,-84.2428802
233,East Larkin Street,48640,43.6128511,-84.2430049
233,East Larkin Street,48640,43.6129682,-84.2431703
142,Ashman Street,48640,43.6135615,-84.2446205
140,Ashman Street,48640,43.6135051,-84.2446985
134,Ashman Street,48640,43.6134573,-84.2447612
124,Ashman Street,48640,43.6133980,-84.2448450
101,East Main Street,48640,43.6132826,-84.2450915
113,East Main Street,48640,43.6131965,-84.2449693
121,East Main Street,48640,43.6131125,-84.2449264
131,East Main Street,48640,43.6130256,-84.2448710
133,East Main Street,48640,43.6129703,-84.2447959
139,East Main Street,48640,43.6129028,-84.2447034
147,East Main Street,48640,43.6128922,-84.2445853
121,McDonald Street,48640,43.6130716,-84.2445343
143,McDonald Street,48640,43.6132948,-84.2442566
213,East Main Street,48640,43.6126067,-84.2441706
219,East Main Street,48640,43.6125473,-84.2441424
223,East Main Street,48640,43.6125248,-84.2440621
224,East Larkin Street,48640,43.6127785,-84.2437120
127,Townsend Street,48640,43.6119821,-84.2426884
333,East Main Street,48640,43.6117519,-84.2430285
329,East Main Street,48640,43.6118909,-84.2431839
311,East Main Street,48640,43.6120040,-84.2433502
116,Rodd Street,48640,43.6121002,-84.2434857
128,Rodd Street,48640,43.6122395,-84.2432932
300,Rodd Street,48640,43.6134028,-84.2414058
313,Townsend Street,48640,43.6132532,-84.2411005
301,Townsend Street,48640,43.6128709,-84.2414165
311,Ellsworth Street,48640,43.6130014,-84.2415100
310,Townsend Street,48640,43.6127875,-84.2407173
314,Townsend Street,48640,43.6129030,-84.2406147
402,Ellsworth Street,48640,43.6121517,-84.2414250
416,Ellsworth Street,48640,43.6119765,-84.2412025
402,Ellsworth Street,48640,43.6123062,-84.2414050
405,East Larkin Street,48640,43.6119221,-84.2416021
435,East Main Street,48640,43.6112327,-84.2423579
419,East Main Street,48640,43.6113448,-84.2424383
136,Townsend Street,48640,43.6117749,-84.2422405
130,Townsend Street,48640,43.6116841,-84.2423417
126,Townsend Street,48640,43.6116289,-84.2424209
415,East Main Street,48640,43.6113992,-84.2425299
122,Townsend Street,48640,43.6115560,-84.2425275
405,East Main Street,48640,43.6114317,-84.2426312
400,East Main Street,48640,43.6111754,-84.2433872
244,East Main Street,48640,43.6119175,-84.2443856
238,East Main Street,48640,43.6119869,-84.2444593
228,East Main Street,48640,43.6121025,-84.2445291
222,East Main Street,48640,43.6121361,-84.2446518
220,East Main Street,48640,43.6122212,-84.2446900
200,East Main Street,48640,43.6122579,-84.2448700
124,McDonald Street,48640,43.6123315,-84.2457820
140,East Main Street,48640,43.6125595,-84.2451682
128,East Main Street,48640,43.6126652,-84.2454022
114,East Main Street,48640,43.6127444,-84.2454842
102,East Main Street,48640,43.6129114,-84.2456973
209,Jerome Street,48640,43.6162173,-84.2471489
309,Jerome Street,48640,43.6168858,-84.2463867
309,Jerome Street,48640,43.6167187,-84.2461559
2000,South Saginaw Road,48640,43.6129328,-84.2131144
1908,South Saginaw Road,48640,43.6133511,-84.2136948
1916,South Saginaw Road,48640,43.6134051,-84.2133262
1810,South Saginaw Road,48640,43.6141113,-84.2142127
1616,South Saginaw Road,48640,43.6151336,-84.2152247
1612,South Saginaw Road,48640,43.6152130,-84.2159251
1602,South Saginaw Road,48640,43.6155472,-84.2156942
900,East Haley Street,48640,43.6154317,-84.2167075
1820,South Saginaw Road,48640,43.6140319,-84.2159194
1826,South Saginaw Road,48640,43.6134674,-84.2151830
1900,South Saginaw Road,48640,43.6129840,-84.2148544
2020,South Saginaw Road,48640,43.6124467,-84.2123517
1210,East Patrick Road,48640,43.6120281,-84.2125635
2100,South Saginaw Road,48640,43.6118546,-84.2119226
1509,Washington Street,48640,43.6141188,-84.2193564
603,East Patrick Road,48640,43.6127014,-84.2210583
507,East Patrick Road,48640,43.6126159,-84.2216320
501,East Patrick Road,48640,43.6125368,-84.2219243
1801,West Saint Andrews Road,48640,43.6243458,-84.2482279
1910,West Saint Andrews Road,48640,43.6262157,-84.2509917
407,West Wackerly Street,48640,43.6543520,-84.2297622
301,West Wackerly Street,48640,43.6544426,-84.2292464
6201,Jefferson Avenue,48640,43.6540224,-84.2273780
6118,Merlin Court,48640,43.6540207,-84.2279731
6112,Merlin Court,48640,43.6533003,-84.2279294
314,Northgate Drive,48640,43.6537947,-84.2300420
308,Northgate Drive,48640,43.6535842,-84.2297073
212,Northgate Drive,48640,43.6532115,-84.2292831
200,Northgate Drive,48640,43.6528697,-84.2281968
6105,Jefferson Avenue,48640,43.6527907,-84.2272928
2303,Eastman Avenue,48640,43.6294847,-84.2478072
2203,Eastman Avenue,48640,43.6275951,-84.2489241
600,East Lyon Road,48640,43.6108081,-84.2201330
7500,North Eastman Road,48640,43.6649397,-84.2457162
6603,Eastman Avenue,48640,43.6577299,-84.2478433
6605,Eastman Avenue,48642,43.6569808,-84.2478733
6517,Eastman Avenue,48640,43.6573420,-84.2476104
1725,East Airport Road,48642,43.6567880,-84.2482466
1806,East Airport Road,48640,43.6582303,-84.2489188
1918,Airport Road,48642,43.6577106,-84.2512866
6707,Eastman Avenue,48642,43.6590599,-84.2478060
6701,Eastman Avenue,48642,43.6586893,-84.2488480
6615,Eastman Avenue,48642,43.6583226,-84.2476421
6911,Eastman Avenue,48640,43.6609435,-84.2478064
7007,Shepherd Drive,48640,43.6613686,-84.2478517
7019,Eastman Avenue,48642,43.6618212,-84.2476961
7135,Eastman Avenue,48642,43.6623096,-84.2481493
2205,Abbott Road,48642,43.6166318,-84.1974300
7221,North Jefferson Road,48642,43.6634883,-84.2305037
2300,Airport Road,48642,43.6570684,-84.2533770
2500,Airport Road,48642,43.6570574,-84.2546741
4000,Wellness Drive,48670,43.6376478,-84.2618133
4311,East Ashman Street,48642,43.6302338,-84.1745669
3922,East Ashman Street,48642,43.6211201,-84.1748881
1300,Currie Parkway,48640,43.6167143,-84.2630985
1804,West Wackerly Street,48640,43.6552180,-84.2488185
1804,West Wackerly Street,48640,43.6553361,-84.2491445
1804,West Wackerly Street,48640,43.6551520,-84.2492056
1804,West Wackerly Street,48640,43.6552678,-84.2494485
1912,West Wackerly Street,48640,43.6553500,-84.2503150
1912,West Wackerly Street,48640,43.6552829,-84.2502906
1920,West Wackerly Street,48640,43.6552695,-84.2508208
2004,West Wackerly Street,48640,43.6552415,-84.2513156
2100,West Wackerly Street,48640,43.6554451,-84.2520153
2200,West Wackerly Street,48640,43.6553835,-84.2531676
500,Village West,48642,43.6592855,-84.2214601
510,Village West,48642,43.6589156,-84.2221177
520,Village West,48642,43.6586272,-84.2212859
600,Village West,48642,43.6592062,-84.2206288
610,Village West,48642,43.6588196,-84.2203332
700,Village East,48642,43.6589503,-84.2193010
710,Village East,48642,43.6592912,-84.2189302
715,Village East,48642,43.6585138,-84.2190674
720,Village East,48642,43.6588708,-84.2188247
725,Village East,48642,43.6585078,-84.2180379
800,Village East,48642,43.6592991,-84.2181846
810,Village East,48642,43.6588967,-84.2178233
100,Joseph Drive,48642,43.6587851,-84.2266122
1615,North Saginaw Road,48640,43.6407351,-84.2462053
1601,North Saginaw Road,48640,43.6409645,-84.2453819
1501,North Saginaw Road,48640,43.6405806,-84.2447145
1616,North Saginaw Road,48640,43.6419798,-84.2464581
4900,Eastman Avenue,48640,43.6426454,-84.2461972
1520,North Saginaw Road,48640,43.6416414,-84.2455351
1516,North Saginaw Road,48640,43.6416934,-84.2451451
1709,North Saginaw Road,48640,43.6408247,-84.2473751
2106,North Saginaw Road,48640,43.6417060,-84.2523556
2112,North Saginaw Road,48640,43.6416008,-84.2528377
2200,North Saginaw Road,48640,43.6418755,-84.2528228
2218,North Saginaw Road,48640,43.6417683,-84.2535179
2222,North Saginaw Road,48640,43.6417031,-84.2539632
2400,North Saginaw Road,48640,43.6418019,-84.2559378
2400,North Saginaw Road,48640,43.6419187,-84.2565632
2500,North Saginaw Road,48640,43.6416938,-84.2575399
2600,North Saginaw Road,48640,43.6418720,-84.2579876
2618,North Saginaw Road,48640,43.6418310,-84.2590005
2706,North Saginaw Road,48640,43.6416600,-84.2597002
2726,North Saginaw Road,48640,43.6418300,-84.2603936
2802,North Saginaw Road,48640,43.6416463,-84.2610279
2820,North Saginaw Road,48640,43.6416714,-84.2614200
2828,North Saginaw Road,48640,43.6416058,-84.2616435
2906,North Saginaw Road,48640,43.6416670,-84.2619421
2910,North Saginaw Road,48640,43.6416897,-84.2621102
2918,North Saginaw Road,48640,43.6417007,-84.2625689
3006,North Saginaw Road,48640,43.6416747,-84.2632776
3012,North Saginaw Road,48640,43.6416396,-84.2639300
3220,Orchard Drive,48640,43.6282837,-84.2537243
5220,Hedgewood Drive,48640,43.6457823,-84.2862994
911,West Main Street,48640,43.6216274,-84.2567193
117,Revere Street,48640,43.6189831,-84.2521811
210,Revere Street,48640,43.6186932,-84.2505149
4000,Whiting Drive,48640,43.6305425,-84.2786514
3901,North Saginaw Road,48640,43.6378009,-84.2750393
3610,Airport Road,48640,43.6636034,-84.2573127
315,Post Street,48640,43.6239334,-84.2542451
1018,West Main Street,48640,43.6204266,-84.2532725
1409,Crane Court,48640,43.6241464,-84.2432347
910,Helen Street,48640,43.6256798,-84.2380288
910,Helen Street,48640,43.6254403,-84.2373675
1918,Noeske Street,48640,43.6251560,-84.2360544
308,West Nelson Street,48640,43.6256477,-84.2346197
2610,Manor Drive,48640,43.6253437,-84.2323878
505,West Saint Andrews Road,48640,43.6290451,-84.2324795
4213,Linden Drive,48640,43.6370873,-84.2494315
4112,Chelsea Court,48640,43.6365099,-84.2390614
1020,North Saginaw Road,48640,43.6398848,-84.2381920
204,Graham Street,48640,43.6368985,-84.2285647
4104,Castle Drive,48640,43.6354340,-84.2278998
904,Sylvan Lane,48640,43.6469831,-84.2375125
1005,Sterling Drive,48640,43.6514359,-84.2375060
2306,Lalkwood Drive,48640,43.6530477,-84.2546769
2606,St Marys Drive,48640,43.6462689,-84.2573823
5500,Drake Street,48640,43.6474293,-84.2575188
2930,Joanne Street,48640,43.6436534,-84.2624719
4914,Mac Street,48640,43.6432672,-84.2457474
1005,Adams Drive,48642,43.6468271,-84.2159795
1004,Scenic Drive,48640,43.6493584,-84.2159754
3735,East Ashman Street,48642,43.6299512,-84.1799508
3711,Lawndale Drive,48642,43.6309454,-84.1912650
2101,East Sugnet Road,48642,43.6313798,-84.2022286
1305,East Sugnet Road,48642,43.6333419,-84.2115037
1105,East Sugnet Road,48640,43.6343257,-84.2132294
1508,East Wheeler Road,48640,43.6383420,-84.2101662
4022,Lowell Court,48640,43.6359420,-84.2211891
4120,Oak Court,48640,43.6359855,-84.2231876
613,Chatham Drive,48640,43.6387717,-84.2197438
800,West Chapel Lane,48640,43.6500837,-84.2351869
5700,Siebert Street,48640,43.6498685,-84.2386108
1407,West Carpenter Street,48640,43.6202246,-84.2425638
130,West Nelson Street,48640,43.6240792,-84.2331990
1400,Rodd Street,48640,43.6178591,-84.2328438
3800,Greenfield Court,48642,43.6318541,-84.2195119
3909,Boston Street,48640,43.6332506,-84.2244599
3218,Boston Street,48640,43.6285260,-84.2221959
1408,Corrinne Street,48642,43.6292153,-84.2090238
2810,Gary Street,48642,43.6246838,-84.2001063
1714,Airfield Lane,48642,43.6216427,-84.2060790
803,Airfield Lane,48642,43.6242219,-84.2186172
2818,Dartmouth Drive,48642,43.6232540,-84.2204728
1301,Eastlawn Drive,48640,43.6212666,-84.2133469
1421,Maryland Street,48642,43.6176079,-84.2098120
2115,Virginia Street,48642,43.6174574,-84.2138988
1419,Iowa Street,48642,43.6139882,-84.2103322
217,East Patrick Road,48642,43.6131993,-84.2247025
309,Maple Street,48640,43.6176189,-84.2240296
104,West Wackerly Street,48640,43.6552221,-84.2277350
204,West Wackerly Street,48640,43.6552611,-84.2284512
214,West Wackerly Street,48640,43.6552575,-84.2289363
304,West Wackerly Street,48640,43.6552613,-84.2297191
314,West Wackerly Street,48640,43.6552792,-84.2301959
324,West Wackerly Street,48640,43.6552967,-84.2306824
404,West Wackerly Street,48640,43.6553001,-84.2308432
412,West Wackerly Street,48640,43.6550949,-84.2314214
414,West Wackerly Street,48640,43.6552574,-84.2313265
420,West Wackerly Street,48640,43.6552006,-84.2319382
816,West Wackerly Street,48640,43.6552661,-84.2371632
720,West Wackerly Street,48640,43.6552648,-84.2351235
728,West Wackerly Street,48640,43.6551482,-84.2357356
810,West Wackerly Street,48640,43.6552227,-84.2366505
600,West Wackerly Street,48640,43.6552669,-84.2339020
211,East Wackerly Street,48642,43.6553134,-84.2247310
901,Soccer Drive,48642,43.6578088,-84.2206982
3900,Chestnut Hill Drive,48640,43.6329915,-84.1958316
5500,Perrine Road,48640,43.6476512,-84.2754661
115,Eastlawn Drive,48640,43.6199690,-84.2246214
3200,Cook Road,48640,43.6277778,-84.2664523
3210,Cook Road,48640,43.6279679,-84.2660875
3417,West Main Street,48640,43.6288410,-84.2661830
3100,Cook Road,48640,43.6276277,-84.2658379
3200,Cook Road,48640,43.6280594,-84.2662850
1501,North Saginaw Road,48640,43.6405474,-84.2448973
5700,Jefferson Avenue,48640,43.6499974,-84.2249496
5800,Jefferson Avenue,48640,43.6510417,-84.2257311
5920,Jefferson Avenue,48640,43.6517293,-84.2260474
6220,Jefferson Avenue,48640-2934,43.6541729,-84.2260048
5920,Jefferson Avenue,48640,43.6516757,-84.2257142
5700,Jefferson Avenue,48640,43.6496161,-84.2252354
6220,Jefferson Avenue,48640-2934,43.6542365,-84.2257460
1504,Harcrest Drive,48640,43.6524742,-84.2460042
1618,Denver Street,48640,43.6506191,-84.2460898
5800,Eastman Avenue,48640,43.6507041,-84.2464392
5816,Eastman Avenue,48640,43.6509640,-84.2460373
5820,Eastman Avenue,48640,43.6511597,-84.2466268
5908,Eastman Avenue,48640,43.6513550,-84.2466492
5910,Eastman Avenue,48640,43.6513327,-84.2460238
5912,Eastman Avenue,48640,43.6515852,-84.2460093
5916,Eastman Avenue,48640,43.6518804,-84.2460293
6018,Eastman Avenue,48640,43.6525003,-84.2466814
6024,Eastman Avenue,48640,43.6532672,-84.2460710
5710,Eastman Avenue,48640,43.6499757,-84.2462161
5100,Eastman Avenue,48640,43.6438387,-84.2464669
5110,Eastman Avenue,48640,43.6441980,-84.2465978
5604,Eastman Avenue,48640,43.6488111,-84.2464385
5200,Eastman Avenue,48640,43.6448112,-84.2461522
6200,Sturgeon Avenue,48640,43.6539179,-84.2654948
6100,Perrine Road,48640,43.6538228,-84.2749581
800,Rockwell Drive,48642,43.6070220,-84.1650614
5217,Bay City Road,48642,43.6066011,-84.1646092
5207,Bay City Road,48642,43.6061192,-84.1647095
5221,Bay City Road,48642,43.6068000,-84.1646067
3601,Alpine Drive,48642,43.6638563,-84.2695291
4805,East Patrick Road,48642,43.6124594,-84.1695046
4815,East Patrick Road,48642,43.6124640,-84.1689937
4825,East Patrick Road,48642,43.6128603,-84.1691735
4835,East Patrick Road,48642,43.6133459,-84.1691273
3555,East Patrick Road,48642,43.6132530,-84.1832627
3555,East Patrick Road,48642,43.6136412,-84.1833462
1401,Springfield Drive,48642,43.6132822,-84.1820031
1409,Springfield Drive,48642,43.6135892,-84.1820403
1417,Springfield Drive,48642,43.6139041,-84.1820017
1320,Waldo Avenue,48642,43.6128360,-84.1865864
1525,Ridgewood Drive,48642,43.6136975,-84.1851322
1717,Ridgewood Drive,48642,43.6145516,-84.1854235
2125,Ridgewood Drive,48642,43.6158756,-84.1855762
3320,Waldo Avenue,48642,43.6159949,-84.1867898
3333,East Patrick Road,48642,43.6129813,-84.1855277
2808,Waldo Avenue,48642,43.6236230,-84.1861353
3420,East Ashman Street,48642,43.6257176,-84.1861382
1900,Ridgewood Drive,48642,43.6154672,-84.1835326
2205,Ridgewood Drive,48642,43.6175444,-84.1856285
2220,Ridgewood Drive,48642,43.6177399,-84.1838034
2808,Waldo Avenue,48642,43.6237172,-84.1862377
3301,Ridgecrest Drive,48642,43.6170677,-84.1868434
3305,Ridgecrest Drive,48642,43.6173570,-84.1868408
3420,East Ashman Street,48642,43.6258771,-84.1855454
3562,Ridgecrest Drive,48642,43.6160957,-84.1839368
3712,East Ashman Street,48642,43.6256515,-84.1812828
2202,Ridgewood Drive,48642,43.6174376,-84.1836243
4809,Jefferson Avenue,48640,43.6416652,-84.2275427
4805,Jefferson Avenue,48640,43.6414110,-84.2271782
4901,Jefferson Avenue,48640,43.6419484,-84.2283546
4915,Jefferson Avenue,48640,43.6424400,-84.2273580
4925,Jefferson Avenue,48640,43.6430570,-84.2274831
5009,Jefferson Avenue,48640,43.6437845,-84.2273106
5303,Jefferson Avenue,48640,43.6458528,-84.2273981
5501,Jefferson Avenue,48640,43.6476136,-84.2274592
5501,Jefferson Avenue,48640,43.6471203,-84.2275968
5009,Jefferson Avenue,48640,43.6439204,-84.2276341
5303,Jefferson Avenue,48640,43.6458376,-84.2275173
1407,Commerce Drive,48642,43.6679512,-84.2442944
1500,Commerce Drive,48642,43.6687294,-84.2458410
1515,Commerce Drive,48642,43.6678800,-84.2455724
1609,Commerce Drive,48642,43.6678585,-84.2465961
1610,Commerce Drive,48642,43.6686432,-84.2466229
7600,Commerce Court,48642,43.6665784,-84.2439864
7612,Commerce Court,48642,43.6670219,-84.2442391
7614,Eastman Avenue,48642,43.6668733,-84.2459802
7618,Commerce Court,48642,43.6675162,-84.2443302
7620,Eastman Avenue,48642,43.6674973,-84.2463579
7814,Eastman Avenue,48642,43.6690409,-84.2465742
7221,North Jefferson Road,48642,43.6638100,-84.2323332
4900,Hedgewood Drive,48640,43.6424570,-84.2845910
5221,Bay City Road,48642,43.6076672,-84.1663494
6117,Eastman Avenue,48640,43.6535372,-84.2480928
6121,Eastman Avenue,48640,43.6533270,-84.2480332
6123,Eastman Avenue,48640,43.6535487,-84.2487090
6125,Eastman Avenue,48640,43.6539115,-84.2475892
6127,Eastman Avenue,48640,43.6543463,-84.2486378
2003,South Saginaw Road,48640,43.6136999,-84.2121822
2029,South Saginaw Road,48640,43.6128598,-84.2110243
1711,South Saginaw Road,48640,43.6150471,-84.2137843
1801,South Saginaw Road,48640,43.6147646,-84.2136107
1819,South Saginaw Road,48640,43.6141903,-84.2129232
1917,South Saginaw Road,48640,43.6138879,-84.2125767
1304,Washington Street,48640,43.6126031,-84.2169249
1320,Washington Street,48640,43.6132468,-84.2164458
1510,Bayliss Street,48640,43.6145509,-84.2218817
816,East Haley Street,48640,43.6154413,-84.2177159
2008,Wisconsin Street,48642,43.6162367,-84.2144434
2012,Wisconsin Street,48642,43.6166991,-84.2145121
2100,Wisconsin Street,48642,43.6171072,-84.2146861
2112,Wisconsin Street,48642,43.6176016,-84.2151463
2142,Wisconsin Street,48642,43.6176301,-84.2145563
2200,Wisconsin Street,48642,43.6178939,-84.2153806
2212,Wisconsin Street,48642,43.6181386,-84.2156253
2220,Wisconsin Street,48642,43.6183657,-84.2161935
1024,Eastlawn Drive,48642,43.6191400,-84.2145405
1028,Eastlawn Drive,48642,43.6187805,-84.2145386
1032,Eastlawn Drive,48642,43.6184051,-84.2145512
1036,Eastlawn Drive,48642,43.6180737,-84.2145503
1811,Eastlawn Drive,48642,43.6197038,-84.2045952
1815,Eastlawn Drive,48642,43.6199631,-84.2047911
1819,Eastlawn Drive,48642,43.6202250,-84.2045927
1823,Eastlawn Drive,48642,43.6205845,-84.2047559
1827,Eastlawn Drive,48642,43.6209084,-84.2045834
1901,Eastlawn Drive,48642,43.6196861,-84.2035909
1903,Eastlawn Drive,48642,43.6199347,-84.2040162
1905,Eastlawn Drive,48642,43.6202719,-84.2040406
1907,Eastlawn Drive,48642,43.6207057,-84.2040819
1909,Eastlawn Drive,48642,43.6209308,-84.2036767
1911,Eastlawn Drive,48642,43.6206303,-84.2032706
1913,Eastlawn Drive,48642,43.6203472,-84.2034877
1915,Eastlawn Drive,48642,43.6200345,-84.2033444
1905,Eastlawn Drive,48642,43.6203717,-84.2040309
2201,Eastlawn Drive,48642,43.6199730,-84.2012481
2203,Eastlawn Drive,48642,43.6203800,-84.2012139
2205,Eastlawn Drive,48642,43.6207217,-84.2010792
2207,Eastlawn Drive,48642,43.6207146,-84.2006219
2209,Eastlawn Drive,48642,43.6203713,-84.2004741
2211,Eastlawn Drive,48642,43.6199658,-84.2004784
2213,Eastlawn Drive,48642,43.6196394,-84.2006251
2215,Eastlawn Drive,48642,43.6196439,-84.2010989
821,Cambridge Street,48642,43.6224249,-84.2193159
1200,West Wheeler Street,48640,43.6418353,-84.2409950
1700,Harcrest Drive,48640,43.6523607,-84.2477058
5915,Harcrest Drive,48640,43.6518759,-84.2478067
6021,Eastman Avenue,48640,43.6524127,-84.2474801
5709,Eastman Avenue,48640,43.6501501,-84.2478401
5821,Eastman Avenue,48640,43.6509439,-84.2476934
5821,Eastman Avenue,48640,43.6510857,-84.2477962
5709,Eastman Avenue,48640,43.6501585,-84.2477420
5114,Jefferson Avenue,48640,43.6444362,-84.2260070
1025,East Wheeler Street,48642,43.6419561,-84.2152305
1123,East Wheeler Road,48640,43.6418055,-84.2125069
1601,East Wheeler Road,48640,43.6417850,-84.2080086
5114,Jefferson Avenue,48640,43.6442961,-84.2264840
5220,Jefferson Avenue,48640,43.6447336,-84.2262311
900,East Wackerly Street,48642,43.6536703,-84.2170148
1123,East Wheeler Road,48640,43.6416787,-84.2128253
6100,Swede Avenue,48642,43.6528285,-84.2062642
6100,Swede Avenue,48642,43.6526911,-84.2052982
2990,East Wheeler Street,48642,43.6407162,-84.1909655
2990,East Wheeler Street,48642,43.6407215,-84.1911750
3109,Swede Avenue,48642,43.6275796,-84.2087902
1605,East Ashman Street,48642,43.6270653,-84.2087370
1609,East Ashman Street,48642,43.6269611,-84.2079728
3109,Swede Avenue,48642,43.6276239,-84.2078289
907,Mattes Drive,48642,43.6405934,-84.2158529
907,Mattes Drive,48642,43.6407318,-84.2160306
4611,Swede Avenue,48642,43.6394747,-84.2077786
4611,Swede Avenue,48642,43.6395153,-84.2078374
915,East Sugnet Road,48642,43.6343887,-84.2156832
915,East Sugnet Road,48642,43.6344434,-84.2159441
4004,Jefferson Avenue,48640,43.6344091,-84.2265306
4008,Jefferson Avenue,48640,43.6343940,-84.2261810
4007,Jefferson Avenue,48640,43.6343598,-84.2274492
4011,Jefferson Avenue,48640,43.6344032,-84.2272648
1100,North Saginaw Road,48640,43.6396194,-84.2393893
1100,North Saginaw Road,48640,43.6396094,-84.2393708
4417,West Wackerly Street,48640,43.6543085,-84.2812168
3600,North Saginaw Road,48640,43.6417533,-84.2708645
3622,North Saginaw Road,48640,43.6417478,-84.2713858
4210,North Saginaw Road,48640,43.6418590,-84.2789375
4304,North Saginaw Road,48640,43.6419693,-84.2798314
4320,North Saginaw Road,48640,43.6419670,-84.2803244
4408,North Saginaw Road,48640,43.6416990,-84.2806224
4424,North Saginaw Road,48640,43.6418245,-84.2815719
4604,North Saginaw Road,48640,43.6417483,-84.2837339
4608,North Saginaw Road,48640,43.6416983,-84.2842274
4710,North Saginaw Road,48640,43.6416232,-84.2846088
4800,North Saginaw Road,48640,43.6416733,-84.2855934
4818,North Saginaw Road,48640,43.6417868,-84.2867303
4900,North Saginaw Road,48640,43.6416739,-84.2870913
4906,North Saginaw Road,48640,43.6419046,-84.2877017
4912,North Saginaw Road,48640,43.6416878,-84.2882701
1708,East Ashman Street,48642,43.6263260,-84.2068745
1715,East Ashman Street,48642,43.6268728,-84.2061901
3102,Swede Avenue,48642,43.6268282,-84.2067967
3106,Swede Avenue,48642,43.6270019,-84.2068059
1120,Eastman Avenue,48640,43.6222090,-84.2466734
1605,Bookness Street,48640,43.6223832,-84.2462100
1700,West Sugnet Road,48640,43.6346307,-84.2476689
1714,Eastman Avenue,48640,43.6230621,-84.2466240
4615,Eastman Avenue,48640,43.6402743,-84.2473618
4617,Eastman Avenue,48640,43.6402968,-84.2486783
1700,West Sugnet Road,48640,43.6352235,-84.2481103
3701,Jefferson Avenue,48640,43.6310889,-84.2278930
3917,Jefferson Avenue,48640,43.6330517,-84.2275847
3917,Jefferson Avenue,48640,43.6328620,-84.2278399
3701,Jefferson Avenue,48640,43.6308958,-84.2278361
2713,Waldo Avenue,48642,43.6233839,-84.1879489
1115,South Saginaw Road,48640,43.6184606,-84.2176825
1215,South Saginaw Road,48640,43.6183765,-84.2175428
1000,South Saginaw Road,48640,43.6191242,-84.2197108
1024,South Saginaw Road,48640,43.6189646,-84.2193177
1104,South Saginaw Road,48640,43.6185933,-84.2189692
1112,South Saginaw Road,48640,43.6184754,-84.2187982
1120,South Saginaw Road,48640,43.6182024,-84.2184869
1214,South Saginaw Road,48640,43.6178441,-84.2182171
205,South Saginaw Road,48640,43.6257262,-84.2255406
208,South Saginaw Road,48640,43.6256147,-84.2254325
210,South Saginaw Road,48640,43.6252846,-84.2261772
215,South Saginaw Road,48640,43.6255074,-84.2253152
221,South Saginaw Road,48640,43.6253784,-84.2251784
2412,Damman Drive,48640,43.6200194,-84.2204666
2420,Damman Drive,48640,43.6203449,-84.2209314
2424,Damman Drive,48640,43.6205121,-84.2211154
2500,Damman Drive,48640,43.6209252,-84.2214584
2506,Damman Drive,48640,43.6209226,-84.2217588
2512,Damman Drive,48640,43.6207161,-84.2218438
2816,Jefferson Avenue,48640,43.6238497,-84.2264810
2828,Jefferson Avenue,48640,43.6241126,-84.2266733
2910,South Jefferson Avenue,48640,43.6251108,-84.2266309
301,South Saginaw Road,48640,43.6251314,-84.2248970
313,Bayliss Street,48640,43.6242188,-84.2257785
314,South Saginaw Road,48640,43.6246847,-84.2256368
316,South Saginaw Road,48640,43.6244464,-84.2253404
318,South Saginaw Road,48640,43.6241024,-84.2255519
321,South Saginaw Road,48640,43.6247450,-84.2242298
324,South Saginaw Road,48640,43.6241584,-84.2249689
400,Dartmouth Drive,48640,43.6220158,-84.2233236
401,South Saginaw Road,48640,43.6241615,-84.2238866
402,Bayliss Street,48640,43.6238265,-84.2260988
404,South Saginaw Road,48640,43.6236515,-84.2249492
413,South Saginaw Road,48640,43.6239039,-84.2238170
417,South Saginaw Road,48640,43.6238266,-84.2235286
421,South Saginaw Road,48640,43.6236924,-84.2233954
430,South Saginaw Road,48640,43.6230567,-84.2241546
500,South Saginaw Road,48640,43.6228606,-84.2236836
501,Bayliss Street,48640,43.6228085,-84.2241821
503,South Saginaw Road,48640,43.6234264,-84.2232048
505,South Saginaw Road,48640,43.6233626,-84.2230877
507,South Saginaw Road,48640,43.6232456,-84.2229910
509,South Saginaw Road,48640,43.6232048,-84.2228635
510,South Saginaw Road,48640,43.6227845,-84.2235413
514,South Saginaw Road,48640,43.6226925,-84.2233467
517,South Saginaw Road,48640,43.6230934,-84.2226553
600,Cambridge Street,48640,43.6227955,-84.2217908
601,South Saginaw Road,48640,43.6226216,-84.2220401
604,South Saginaw Road,48640,43.6222710,-84.2228074
604,South Saginaw Road,48640,43.6221969,-84.2229434
607,South Saginaw Road,48640,43.6224923,-84.2219271
608,South Saginaw Road,48640,43.6220158,-84.2226227
609,Eastlawn Drive,48640,43.6198016,-84.2204579
612,South Saginaw Road,48640,43.6217590,-84.2223996
613,South Saginaw Road,48640,43.6221885,-84.2217159
617,Eastlawn Drive,48640,43.6197471,-84.2201755
620,South Saginaw Road,48640,43.6223534,-84.2213508
620,South Saginaw Road,48640,43.6215605,-84.2223877
700,South Saginaw Road,48640,43.6214016,-84.2221670
705,Bayliss Street,48640,43.6213586,-84.2226663
711,Bayliss Street,48640,43.6211309,-84.2223989
715,South Saginaw Road,48640,43.6219755,-84.2210511
721,South Saginaw Road,48640,43.6215582,-84.2211852
725,South Saginaw Road,48640,43.6215723,-84.2208617
200,South Patterson Road,48640,43.5999655,-84.2649131
200,South Patterson Road,48640,43.5995395,-84.2650375
100,River Street,48640,43.6098173,-84.2453893
605,Ellsworth Street,48640,43.6114045,-84.2391734
605,Ellsworth Street,48640,43.6114066,-84.2393987
919,Smith Road,48640,43.6164267,-84.2838614
919,Smith Road,48640,43.6163813,-84.2836717
3407,Isabella Street,48640,43.6112096,-84.2891077
3407,Isabella Street,48640,43.6110906,-84.2898213
2820,East Monroe Road,48640,43.6833790,-84.2561671
2840,East Monroe Road,48640,43.6829171,-84.2543629
109,Ripley Street,48640,43.6160919,-84.2484434
115,Jerome Street,48640,43.6156688,-84.2477090
115,Ripley Street,48640,43.6162317,-84.2482701
116,Hubbard Street,48640,43.6165379,-84.2487634
201,Ripley Street,48640,43.6165271,-84.2478784
202,Hubbard Street,48640,43.6168657,-84.2483376
209,Ripley Street,48640,43.6167106,-84.2477253
210,Hubbard Street,48640,43.6170417,-84.2480591
213,Ripley Street,48640,43.6168453,-84.2476617
302,Hubbard Street,48640,43.6174440,-84.2475077
303,Hubbard Street,48640,43.6177060,-84.2478828
307,Eastman Avenue,48640,43.6173110,-84.2474105
311,Hubbard Street,48640,43.6179199,-84.2476486
316,Auburn Street,48640,43.6182754,-84.2479709
411,West Main Street,48640,43.6151450,-84.2487393
415,West Main Street,48640,43.6152791,-84.2489681
502,West Main Street,48640,43.6159163,-84.2487328
505,West Main Street,48640,43.6156303,-84.2493031
506,West Main Street,48640,43.6160338,-84.2488671
508,West Larkin Street,48640,43.6166439,-84.2480405
509,West Ellsworth Street,48640,43.6170493,-84.2478033
509,West Main Street,48640,43.6157178,-84.2495536
511,West Larkin Street,48640,43.6164422,-84.2486240
512,West Larkin Street,48640,43.6167475,-84.2482043
512,West Main Street,48640,43.6161572,-84.2489963
513,West Ellsworth Street,48640,43.6171697,-84.2479428
515,West Main Street,48640,43.6158617,-84.2497415
516,West Main Street,48640,43.6162847,-84.2491331
601,West Main Street,48640,43.6161123,-84.2500987
605,West Buttles Street,48640,43.6180492,-84.2475480
605,West Main Street,48640,43.6162871,-84.2502248
608,West Ellsworth Street,48640,43.6177940,-84.2480532
611,West Buttles Street,48640,43.6182036,-84.2477975
612,West Ellsworth Street,48640,43.6179268,-84.2482745
614,West Ellsworth Street,48640,43.6179992,-84.2483745
615,West Main Street,48640,43.6164464,-84.2505910
116,Auburn Street,48640,43.6170700,-84.2496093
116,Revere Street,48640,43.6183290,-84.2511771
209,Hubbard Street,48640,43.6173109,-84.2485176
211,Auburn Street,48640,43.6179035,-84.2492773
212,Auburn Street,48640,43.6175990,-84.2489242
213,Hubbard Street,48640,43.6174358,-84.2483274
215,Auburn Street,48640,43.6180042,-84.2491251
301,Saint Nicholas Street,48640,43.6188899,-84.2496012
306,Saint Nicholas Street,48640,43.6187219,-84.2490505
310,Saint Nicholas Street,48640,43.6188042,-84.2488924
311,Saint Nicholas Street,48640,43.6190740,-84.2492989
312,East Park Drive,48640,43.6193911,-84.2497130
315,Saint Nicholas Street,48640,43.6192172,-84.2491220
316,Saint Nicholas Street,48640,43.6189322,-84.2486860
604,West Larkin Street,48640,43.6171291,-84.2487412
608,West Larkin Street,48640,43.6172339,-84.2488905
608,West Main Street,48640,43.6166525,-84.2494786
611,West Ellsworth Street,48640,43.6176039,-84.2486049
612,West Larkin Street,48640,43.6173214,-84.2490533
613,West Ellsworth Street,48640,43.6177257,-84.2487651
614,West Main Street,48640,43.6168514,-84.2499480
616,West Larkin Street,48640,43.6174812,-84.2492292
702,West Ellsworth Street,48640,43.6182834,-84.2487337
702,West Larkin Street,48640,43.6176880,-84.2495708
702,West Main Street,48640,43.6172562,-84.2502679
704,West Buttles Street,48640,43.6188325,-84.2479000
704,West Main Street,48640,43.6174932,-84.2507746
705,West Buttles Street,48640,43.6185627,-84.2482849
706,West Buttles Street,48640,43.6189191,-84.2480211
706,West Ellsworth Street,48640,43.6183937,-84.2488943
707,West Buttles Street,48640,43.6186813,-84.2484578
707,West Ellsworth Street,48640,43.6181074,-84.2493139
708,West Buttles Street,48640,43.6189769,-84.2481796
708,West Larkin Street,48640,43.6178288,-84.2497053
710,West Ellsworth Street,48640,43.6184947,-84.2490226
711,West Ellsworth Street,48640,43.6182326,-84.2494564
711,West Larkin Street,48640,43.6176762,-84.2502868
712,West Larkin Street,48640,43.6179751,-84.2498727
713,Eastman Avenue,48640,43.6185038,-84.2474805
714,West Buttles Street,48640,43.6191553,-84.2483176
715,West Ellsworth Street,48640,43.6183039,-84.2496397
716,West Ellsworth Street,48640,43.6185910,-84.2492352
716,West Larkin Street,48640,43.6180938,-84.2500197
718,West Buttles Street,48640,43.6192705,-84.2484252
719,Eastman Avenue,48640,43.6186530,-84.2474772
801,Eastman Avenue,48640,43.6188619,-84.2474544
802,West Buttles Street,48640,43.6193973,-84.2486069
802,West Larkin Street,48640,43.6182914,-84.2503681
802,West Main Street,48640,43.6178508,-84.2511127
803,West Ellsworth Street,48640,43.6185825,-84.2499559
806,West Buttles Street,48640,43.6195359,-84.2487383
807,Eastman Avenue,48640,43.6189971,-84.2474317
808,West Ellsworth Street,48640,43.6189978,-84.2497400
809,Eastman Avenue,48640,43.6191284,-84.2473938
810,West Ellsworth Street,48640,43.6191035,-84.2498576
811,Eastman Avenue,48640,43.6193327,-84.2474294
812,West Main Street,48640,43.6181251,-84.2514390
816,East Park Drive,48640,43.6195430,-84.2494858
816,West Ellsworth Street,48640,43.6192314,-84.2501016
906,East Park Drive,48640,43.6196676,-84.2492176
906,East Park Drive,48640,43.6198123,-84.2489143
1001,East Park Drive,48640,43.6206619,-84.2492359
1002,East Park Drive,48640,43.6206349,-84.2485712
1002,West Park Drive,48640,43.6206090,-84.2498791
1004,East Park Drive,48640,43.6207962,-84.2486071
1005,East Park Drive,48640,43.6207854,-84.2493130
1005,Eastman Avenue,48640,43.6206463,-84.2473855
1008,East Park Drive,48640,43.6209583,-84.2486079
1009,East Park Drive,48640,43.6209872,-84.2492833
1009,Eastman Avenue,48640,43.6208472,-84.2473721
1011,East Park Drive,48640,43.6211198,-84.2493080
1012,East Park Drive,48640,43.6211347,-84.2485675
1012,West Park Drive,48640,43.6209700,-84.2498575
1015,East Park Drive,48640,43.6212909,-84.2492884
1015,Eastman Avenue,48640,43.6210351,-84.2473896
1016,East Park Drive,48640,43.6212898,-84.2485991
1016,West Park Drive,48640,43.6211229,-84.2498064
1017,West Park Drive,48640,43.6211335,-84.2505676
1019,East Park Drive,48640,43.6214557,-84.2492478
1019,Eastman Avenue,48640,43.6211882,-84.2473943
1020,East Park Drive,48640,43.6214567,-84.2485808
1020,West Park Drive,48640,43.6212819,-84.2498637
1023,West Park Drive,48640,43.6214528,-84.2505017
1024,West Park Drive,48640,43.6214549,-84.2498260
1101,East Park Drive,48640,43.6216229,-84.2492456
1101,West Park Drive,48640,43.6216268,-84.2505073
1103,Eastman Avenue,48640,43.6215562,-84.2473871
1104,West Park Drive,48640,43.6218000,-84.2498543
1105,West Park Drive,48640,43.6217932,-84.2505072
1107,East Park Drive,48640,43.6217790,-84.2492588
1107,Eastman Avenue,48640,43.6216976,-84.2473449
1108,East Park Drive,48640,43.6217811,-84.2485856
1109,West Park Drive,48640,43.6219572,-84.2504857
1110,West Park Drive,48640,43.6219534,-84.2498552
1111,East Park Drive,48640,43.6219524,-84.2492918
1111,Eastman Avenue,48640,43.6218321,-84.2473770
1112,East Park Drive,48640,43.6219663,-84.2485733
1113,West Park Drive,48640,43.6221163,-84.2505118
1115,East Park Drive,48640,43.6221070,-84.2492142
1115,Eastman Avenue,48640,43.6219863,-84.2473614
1116,West Park Drive,48640,43.6221355,-84.2498488
1117,Eastman Avenue,48640,43.6221221,-84.2474150
1205,West Park Drive,48640,43.6225727,-84.2506027
1210,West Park Drive,48640,43.6227128,-84.2497347
1709,Sayre Street,48640,43.6202727,-84.2477684
1710,Sayre Street,48640,43.6206706,-84.2477837
1712,McGregor Street,48640,43.6225176,-84.2477110
1713,McGregor Street,48640,43.6220732,-84.2480942
1713,Sayre Street,48640,43.6202823,-84.2480578
1714,Sayre Street,48640,43.6207282,-84.2481684
1717,Sayre Street,48640,43.6202865,-84.2482421
1718,McGregor Street,48640,43.6225417,-84.2481249
1721,McGregor Street,48640,43.6221125,-84.2485128
1726,McGregor Street,48640,43.6226300,-84.2488959
1800,McGregor Street,48640,43.6227133,-84.2492362
209,Revere Street,48640,43.6191502,-84.2514369
215,Revere Street,48640,43.6193035,-84.2510200
815,Eastman Avenue,48640,43.6194741,-84.2474093
819,Eastman Avenue,48640,43.6195166,-84.2478579
821,Eastman Avenue,48640,43.6198047,-84.2481953
901,West Park Drive,48640,43.6194481,-84.2507433
903,Eastman Avenue,48640,43.6197210,-84.2473885
907,Eastman Avenue,48640,43.6199017,-84.2473991
907,West Park Drive,48640,43.6197656,-84.2507562
910,West Park Drive,48640,43.6199800,-84.2499215
911,Eastman Avenue,48640,43.6200908,-84.2474016
912,East Park Drive,48640,43.6201141,-84.2486142
915,Eastman Avenue,48640,43.6202890,-84.2473852
916,East Park Drive,48640,43.6203033,-84.2486040
916,West Park Drive,48640,43.6201317,-84.2499065
919,East Park Drive,48640,43.6202335,-84.2493945
920,West Park Drive,48640,43.6203042,-84.2498456
921,East Park Drive,48640,43.6204656,-84.2492619
923,West Park Drive,48640,43.6205127,-84.2507812
105,Post Street,48640,43.6230226,-84.2558537
1136,West Main Street,48640,43.6225831,-84.2552790
202,Post Street,48640,43.6227022,-84.2547357
2800,Orchard Drive,48640,43.6239915,-84.2567107
2806,Orchard Drive,48640,43.6246474,-84.2563977
1010,Austin Street,48640,43.6072705,-84.2158736
1010,Austin Street,48640,43.6065168,-84.2161770
2700,South Saginaw Road,48640,43.6071273,-84.2098610
2907,Valley Drive,48640,43.6254736,-84.2575169
2910,Valley Drive,48640,43.6261055,-84.2574972
2911,Valley Drive,48640,43.6255609,-84.2581952
3000,Valley Drive,48640,43.6264329,-84.2581862
3001,Valley Drive,48640,43.6259472,-84.2587492
3100,Applewood Road,48640,43.6270853,-84.2585543
3101,Applewood Road,48640,43.6275550,-84.2593485
3105,Valley Drive,48640,43.6265462,-84.2600174
3108,Applewood Road,48640,43.6274827,-84.2582042
3109,Applewood Road,48640,43.6278704,-84.2590516
3109,Valley Drive,48640,43.6271235,-84.2599665
3113,Valley Drive,48640,43.6275748,-84.2604502
3124,Valley Drive,48640,43.6282531,-84.2599200
3200,Applewood Road,48640,43.6278519,-84.2579468
3201,West Sugnet Road,48640,43.6343207,-84.2655183
3205,Applewood Road,48640,43.6282668,-84.2588275
3206,Applewood Road,48640,43.6281562,-84.2577237
3210,Valley Drive,48640,43.6287883,-84.2607120
3211,Applewood Road,48640,43.6287279,-84.2586180
3211,Valley Drive,48640,43.6281414,-84.2612128
3212,Applewood Road,48640,43.6285077,-84.2575450
3300,Applewood Road,48640,43.6289029,-84.2576334
3303,Applewood Road,48640,43.6291435,-84.2586053
3306,Applewood Road,48640,43.6292378,-84.2576894
3312,Valley Drive,48640,43.6294248,-84.2612634
3315,Valley Drive,48640,43.6293563,-84.2625345
3400,Applewood Road,48640,43.6296738,-84.2577134
3400,Valley Drive,48640,43.6298829,-84.2611332
3401,Applewood Road,48640,43.6295543,-84.2586450
3410,Applewood Road,48640,43.6300239,-84.2577259
3410,Valley Drive,48640,43.6302604,-84.2611085
3411,Applewood Road,48640,43.6299136,-84.2586936
3418,Applewood Road,48640,43.6303917,-84.2578309
3419,Applewood Road,48640,43.6303566,-84.2589450
3600,Applewood Road,48640,43.6307959,-84.2581268
3600,Valley Drive,48640,43.6306644,-84.2610034
3601,Applewood Road,48640,43.6307774,-84.2589527
3603,Orchard Drive,48640,43.6307851,-84.2574537
3603,White Pine Way,48640,43.6312321,-84.2564008
3610,Applewood Road,48640,43.6311123,-84.2581153
3610,Valley Drive,48640,43.6311042,-84.2610036
3611,Applewood Road,48640,43.6311122,-84.2589957
3613,Orchard Drive,48640,43.6311447,-84.2574014
3615,White Pine Way,48640,43.6320626,-84.2564129
3616,White Pine Way,48640,43.6320999,-84.2556548
3701,Valley Drive,48640,43.6315069,-84.2623087
3702,Applewood Road,48640,43.6314930,-84.2581493
3703,Applewood Road,48640,43.6314658,-84.2590092
3703,Orchard Drive,48640,43.6314904,-84.2573941
3706,Applewood Road,48640,43.6318414,-84.2581122
3706,Valley Drive,48640,43.6317346,-84.2607120
3707,Applewood Road,48640,43.6318402,-84.2589425
3707,Orchard Drive,48640,43.6318844,-84.2573934
3710,Applewood Road,48640,43.6321731,-84.2580985
3711,Applewood Road,48640,43.6321941,-84.2589902
3713,Orchard Drive,48640,43.6322335,-84.2574139
3716,Valley Drive,48640,43.6321855,-84.2607623
3800,Applewood Road,48640,43.6325826,-84.2580505
3801,Applewood Road,48640,43.6325626,-84.2590462
3801,Valley Drive,48640,43.6327003,-84.2642742
3802,Valley Drive,48640,43.6326062,-84.2607887
3803,Orchard Drive,48640,43.6325986,-84.2574183
3809,Applewood Road,48640,43.6329046,-84.2590339
3809,Orchard Drive,48640,43.6328977,-84.2574504
3812,Applewood Road,48640,43.6336156,-84.2584617
3812,Valley Drive,48640,43.6329232,-84.2611139
3900,Valley Drive,48640,43.6333251,-84.2613597
3901,Orchard Drive,48640,43.6332829,-84.2573524
3902,Applewood Road,48640,43.6329298,-84.2581590
3909,Orchard Drive,48640,43.6336512,-84.2574666
3909,Valley Drive,48640,43.6336366,-84.2623784
3910,Applewood Road,48640,43.6332791,-84.2583337
3910,Valley Drive,48640,43.6336732,-84.2613880
3911,Applewood Road,48640,43.6336288,-84.2593142
314,Eastman Avenue,48640,43.6176766,-84.2469608
409,West Indian Street,48640,43.6175878,-84.2453410
411,West Indian Street,48640,43.6178049,-84.2456231
412,West Buttles Street,48640,43.6173379,-84.2457453
414,West Buttles Street,48640,43.6174375,-84.2459223
415,Jerome Street,48640,43.6174333,-84.2451284
417,West Buttles Street,48640,43.6172110,-84.2464106
420,West Buttles Street,48640,43.6175696,-84.2461050
421,West Buttles Street,48640,43.6172959,-84.2465457
501,West Buttles Street,48640,43.6173880,-84.2466475
502,West Buttles Street,48640,43.6176563,-84.2462876
506,West Buttles Street,48640,43.6177705,-84.2463901
507,West Buttles Street,48640,43.6175573,-84.2468023
512,West Buttles Street,48640,43.6180562,-84.2466567
710,Eastman Avenue,48640,43.6183942,-84.2467731
716,Eastman Avenue,48640,43.6185634,-84.2467976
7403,Eastman Avenue,48642,43.6610606,-84.2524109
1301,West Union Street,48640,43.6185207,-84.2422627
1307,West Union Street,48640,43.6185131,-84.2424836
1308,West Pine Street,48640,43.6179572,-84.2427909
1311,West Union Street,48640,43.6185384,-84.2427208
1315,West Union Street,48640,43.6185380,-84.2429378
1316,West Pine Street,48640,43.6179643,-84.2432302
1401,West Union Street,48640,43.6184965,-84.2433074
1405,West Pine Street,48640,43.6176658,-84.2435529
1406,West Pine Street,48640,43.6180030,-84.2436396
1407,West Pine Street,48640,43.6176707,-84.2437587
1407,West Union Street,48640,43.6184810,-84.2436344
1410,West Pine Street,48640,43.6179736,-84.2438615
1413,West Union Street,48640,43.6185164,-84.2438426
1414,West Pine Street,48640,43.6179659,-84.2440684
1415,West Union Street,48640,43.6184986,-84.2440822
1418,West Pine Street,48640,43.6179810,-84.2442894
1511,West Union Street,48640,43.6185592,-84.2452228
1601,West Union Street,48640,43.6185110,-84.2455997
1603,West Union Street,48640,43.6185133,-84.2457949
302,West Indian Street,48640,43.6170566,-84.2438248
305,West Grove Street,48640,43.6174871,-84.2434601
410,West Indian Street,48640,43.6179631,-84.2451814
501,Jerome Street,48640,43.6176797,-84.2447657
502,Jerome Street,48640,43.6173669,-84.2443253
507,Fitzhugh Street,48640,43.6171279,-84.2436694
508,Jerome Street,48640,43.6174738,-84.2441232
509,Fitzhugh Street,48640,43.6173124,-84.2435751
512,Jerome Street,48640,43.6176388,-84.2439700
515,Fitzhugh Street,48640,43.6173993,-84.2432909
515,Jerome Street,48640,43.6178186,-84.2447542
601,Fitzhugh Street,48640,43.6175962,-84.2431462
701,Fitzhugh Street,48640,43.6180644,-84.2424867
701,Jerome Street,48640,43.6179698,-84.2447700
703,Fitzhugh Street,48640,43.6182254,-84.2422259
705,Fitzhugh Street,48640,43.6183102,-84.2420480
705,Jerome Street,48640,43.6181128,-84.2447569
706,Iroquois Court,48640,43.6181310,-84.2452201
708,Jerome Street,48640,43.6181723,-84.2443009
709,Fitzhugh Street,48640,43.6184370,-84.2418834
709,Jerome Street,48640,43.6182718,-84.2447793
710,Iroquois Court,48640,43.6182458,-84.2452104
710,Jerome Street,48640,43.6183153,-84.2442836
711,Fitzhugh Street,48640,43.6184988,-84.2417907
711,Jerome Street,48640,43.6183902,-84.2447700
712,Jerome Street,48640,43.6184071,-84.2442628
715,Fitzhugh Street,48640,43.6185603,-84.2416955
716,Iroquois Court,48640,43.6183929,-84.2452430
716,Jerome Street,48640,43.6185475,-84.2442959
717,Jerome Street,48640,43.6185581,-84.2447825
106,West Grove Street,48640,43.6165747,-84.2415580
109,West Grove Street,48640,43.6164469,-84.2420762
114,West Grove Street,48640,43.6167058,-84.2416300
115,West Pine Street,48640,43.6170872,-84.2413343
1201,West Hines Street,48640,43.6192508,-84.2413085
1206,West Union Street,48640,43.6188674,-84.2415762
1207,West Hines Street,48640,43.6193369,-84.2415706
1209,West Hines Street,48640,43.6193702,-84.2417869
1210,West Union Street,48640,43.6188834,-84.2418176
1215,West Hines Street,48640,43.6193574,-84.2420225
1216,West Union Street,48640,43.6188928,-84.2420432
1301,West Hines Street,48640,43.6193377,-84.2422482
1306,West Union Street,48640,43.6189393,-84.2423577
1307,West Hines Street,48640,43.6193526,-84.2424757
1310,West Union Street,48640,43.6189197,-84.2427029
1311,West Hines Street,48640,43.6193359,-84.2427141
1313,West Hines Street,48640,43.6193436,-84.2429063
1316,West Union Street,48640,43.6189105,-84.2429474
1318,West Union Street,48640,43.6189205,-84.2431429
1319,West Hines Street,48640,43.6193107,-84.2431727
1403,West Hines Street,48640,43.6193452,-84.2433797
1405,West Hines Street,48640,43.6193399,-84.2435943
1406,West Union Street,48640,43.6189337,-84.2436328
1410,West Union Street,48640,43.6189187,-84.2438624
1411,West Hines Street,48640,43.6193416,-84.2438710
1414,West Union Street,48640,43.6189144,-84.2441131
1415,West Hines Street,48640,43.6193563,-84.2440551
1419,West Hines Street,48640,43.6193395,-84.2442993
1507,West Hines Street,48640,43.6193770,-84.2450647
1510,West Union Street,48640,43.6188952,-84.2450904
1511,West Hines Street,48640,43.6193749,-84.2452444
1512,West Union Street,48640,43.6189173,-84.2452721
1514,West Union Street,48640,43.6189000,-84.2454478
1515,West Hines Street,48640,43.6193425,-84.2454044
1518,West Union Street,48640,43.6189114,-84.2456188
1519,West Hines Street,48640,43.6193347,-84.2455756
1601,West Hines Street,48640,43.6193700,-84.2457462
1612,West Union Street,48640,43.6189158,-84.2461479
1604,West Union Street,48640,43.6189053,-84.2457940
1605,West Hines Street,48640,43.6193611,-84.2459123
1606,West Union Street,48640,43.6189004,-84.2459423
1609,West Hines Street,48640,43.6193606,-84.2460798
1613,West Hines Street,48640,43.6193526,-84.2462332
1614,West Union Street,48640,43.6189033,-84.2464007
1617,West Hines Street,48640,43.6193480,-84.2463980
1621,West Hines Street,48640,43.6193843,-84.2466035
202,West Indian Street,48640,43.6164225,-84.2430468
204,West Union Street,48640,43.6182557,-84.2405872
206,West Pine Street,48640,43.6177797,-84.2415103
207,West Grove Street,48640,43.6168962,-84.2426814
207,West Pine Street,48640,43.6175948,-84.2420456
208,West Indian Street,48640,43.6165407,-84.2431936
209,West Union Street,48640,43.6180067,-84.2409636
212,West Grove Street,48640,43.6173302,-84.2424391
212,West Indian Street,48640,43.6166620,-84.2433595
212,West Pine Street,48640,43.6178846,-84.2416564
215,West Grove Street,48640,43.6171480,-84.2430344
216,West Indian Street,48640,43.6168029,-84.2435507
216,West Pine Street,48640,43.6179911,-84.2418664
220,West Grove Street,48640,43.6170311,-84.2422212
506,Fitzhugh Street,48640,43.6169006,-84.2433903
507,Ashman Street,48640,43.6159643,-84.2420774
507,Gordon Street,48640,43.6166107,-84.2427684
509,Ashman Street,48640,43.6161087,-84.2419842
510,Gordon Street,48640,43.6163961,-84.2424221
512,Fitzhugh Street,48640,43.6170111,-84.2431404
515,Ashman Street,48640,43.6161977,-84.2417665
515,Gordon Street,48640,43.6167703,-84.2425774
602,Gordon Street,48640,43.6168055,-84.2418140
603,Ashman Street,48640,43.6164390,-84.2413965
607,Ashman Street,48640,43.6165527,-84.2412184
607,Gordon Street,48640,43.6171769,-84.2420707
610,Fitzhugh Street,48640,43.6175879,-84.2424118
610,Gordon Street,48640,43.6169684,-84.2415334
611,Gordon Street,48640,43.6172691,-84.2418889
613,Gordon Street,48640,43.6173798,-84.2417478
701,Gordon Street,48640,43.6176686,-84.2413068
709,Gordon Street,48640,43.6178626,-84.2410451
710,Fitzhugh Street,48640,43.6181838,-84.2414768
716,Fitzhugh Street,48640,43.6182622,-84.2413550
801,Fitzhugh Street,48640,43.6188537,-84.2413337
801,Jerome Street,48640,43.6188403,-84.2447170
802,Fitzhugh Street,48640,43.6185419,-84.2409988
802,Gordon Street,48640,43.6173808,-84.2410017
806,Fitzhugh Street,48640,43.6186484,-84.2408547
806,Jerome Street,48640,43.6189278,-84.2442920
807,Fitzhugh Street,48640,43.6189665,-84.2411638
807,Gordon Street,48640,43.6183728,-84.2403809
807,Jerome Street,48640,43.6190683,-84.2447382
811,Fitzhugh Street,48640,43.6190503,-84.2410127
811,Gordon Street,48640,43.6184374,-84.2402134
811,Jerome Street,48640,43.6192413,-84.2447190
812,Fitzhugh Street,48640,43.6187699,-84.2406720
815,Fitzhugh Street,48640,43.6191621,-84.2408860
815,Gordon Street,48640,43.6185885,-84.2400373
815,Jerome Street,48640,43.6193808,-84.2447471
816,Fitzhugh Street,48640,43.6188823,-84.2405081
113,West Hines Street,48640,43.6182977,-84.2397184
812,Gordon Street,48640,43.6181915,-84.2398930
1009,Gordon Street,48640,43.6190115,-84.2394027
216,West Hines Street,48640,43.6191558,-84.2401771
208,West Hines Street,48640,43.6189590,-84.2398583
107,West Carpenter Street,48640,43.6187537,-84.2387441
1013,Gordon Street,48640,43.6191208,-84.2392554
1008,Gordon Street,48640,43.6187040,-84.2391689
111,West Hines Street,48640,43.6181888,-84.2395552
1003,Gordon Street,48640,43.6188085,-84.2396937
212,West Hines Street,48640,43.6190618,-84.2400420
112,West Hines Street,48640,43.6185217,-84.2392342
213,West Carpenter Street,48640,43.6193588,-84.2396045
215,West Carpenter Street,48640,43.6194343,-84.2397688
1002,Jerome Street,48640,43.6204702,-84.2442885
1004,Eastman Avenue,48640,43.6205242,-84.2467484
1005,Fitzhugh Street,48640,43.6194566,-84.2404488
1006,Eastman Avenue,48640,43.6206524,-84.2467597
1010,Eastman Avenue,48640,43.6207975,-84.2467542
1016,Eastman Avenue,48640,43.6210458,-84.2466687
1107,West Carpenter Street,48640,43.6200680,-84.2407664
1111,West Carpenter Street,48640,43.6200853,-84.2409456
1115,West Carpenter Street,48640,43.6201577,-84.2411747
1119,West Carpenter Street,48640,43.6201970,-84.2413490
115,West Carpenter Street,48640,43.6188979,-84.2389484
1201,West Carpenter Street,48640,43.6202307,-84.2415025
1207,West Carpenter Street,48640,43.6202452,-84.2417283
1209,West Carpenter Street,48640,43.6202993,-84.2418852
1213,West Carpenter Street,48640,43.6203430,-84.2420400
1415,West Carpenter Street,48640,43.6207667,-84.2440525
1419,West Carpenter Street,48640,43.6207983,-84.2442875
1501,Sayre Street,48640,43.6201286,-84.2447182
1501,West Carpenter Street,48640,43.6209498,-84.2447024
1502,Sayre Street,48640,43.6205324,-84.2447240
1502,West Hines Street,48640,43.6197405,-84.2447217
1507,Sayre Street,48640,43.6201487,-84.2450077
1508,Sayre Street,48640,43.6205450,-84.2450008
1508,West Hines Street,48640,43.6199451,-84.2449433
1510,West Hines Street,48640,43.6197419,-84.2451841
1511,Sayre Street,48640,43.6201657,-84.2452372
1511,West Carpenter Street,48640,43.6209760,-84.2450000
1512,Sayre Street,48640,43.6205047,-84.2452621
1514,West Hines Street,48640,43.6197479,-84.2453943
1515,Sayre Street,48640,43.6201459,-84.2454683
1515,West Carpenter Street,48640,43.6210407,-84.2452265
1516,Sayre Street,48640,43.6205005,-84.2454637
1518,West Hines Street,48640,43.6197445,-84.2455668
1519,Sayre Street,48640,43.6201452,-84.2456713
1519,West Carpenter Street,48640,43.6210340,-84.2454616
1520,Sayre Street,48640,43.6205357,-84.2456874
1521,West Carpenter Street,48640,43.6210361,-84.2456489
1601,Sayre Street,48640,43.6201475,-84.2459114
1601,West Carpenter Street,48640,43.6210230,-84.2459247
1602,Sayre Street,48640,43.6205287,-84.2459276
1602,West Hines Street,48640,43.6197543,-84.2457638
1605,Sayre Street,48640,43.6201595,-84.2461583
1606,Sayre Street,48640,43.6205456,-84.2461491
1606,West Hines Street,48640,43.6197551,-84.2459609
1609,Sayre Street,48640,43.6201733,-84.2463756
1610,Sayre Street,48640,43.6205354,-84.2463583
1610,West Hines Street,48640,43.6197294,-84.2461744
1616,West Hines Street,48640,43.6197168,-84.2463851
1620,West Hines Street,48640,43.6197186,-84.2467694
301,West Carpenter Street,48640,43.6197106,-84.2400630
305,West Carpenter Street,48640,43.6198347,-84.2402165
310,West Hines Street,48640,43.6196442,-84.2405572
311,West Carpenter Street,48640,43.6199379,-84.2404073
314,West Hines Street,48640,43.6197287,-84.2409627
902,Jerome Street,48640,43.6197188,-84.2443191
906,Eastman Avenue,48640,43.6198666,-84.2467688
910,Eastman Avenue,48640,43.6200336,-84.2467719
910,Jerome Street,48640,43.6199964,-84.2442889
916,Eastman Avenue,48640,43.6201995,-84.2467746
916,Jerome Street,48640,43.6202219,-84.2442849
10,Brown Court,48640,43.6219759,-84.2426793
1110,Jerome Street,48640,43.6216000,-84.2444230
1111,Suncrist Street,48640,43.6212833,-84.2423065
1115,Jerome Street,48640,43.6217670,-84.2450259
1116,Jerome Street,48640,43.6217809,-84.2444409
1201,Jerome Street,48640,43.6219304,-84.2450291
1202,Jerome Street,48640,43.6219433,-84.2444660
1207,Jerome Street,48640,43.6221014,-84.2450149
1208,Jerome Street,48640,43.6220967,-84.2444030
1211,Jerome Street,48640,43.6222879,-84.2450120
1212,Jerome Street,48640,43.6222757,-84.2444495
1214,Jerome Street,48640,43.6224175,-84.2444036
1301,Bookness Street,48640,43.6223674,-84.2422446
1302,West Carpenter Street,48640,43.6209064,-84.2423030
1305,Bookness Street,48640,43.6223857,-84.2424887
1309,Bookness Street,48640,43.6223672,-84.2427419
1313,Bookness Street,48640,43.6223703,-84.2429602
1316,West Carpenter Street,48640,43.6209329,-84.2427684
1317,Bookness Street,48640,43.6223896,-84.2431975
1320,West Carpenter Street,48640,43.6210080,-84.2430353
1321,Bookness Street,48640,43.6223498,-84.2433998
1325,Bookness Street,48640,43.6223555,-84.2436509
1331,Bookness Street,48640,43.6223825,-84.2438984
14,Brown Court,48640,43.6219795,-84.2429346
1406,West Carpenter Street,48640,43.6211168,-84.2434664
1410,West Carpenter Street,48640,43.6211257,-84.2436739
1416,West Carpenter Street,48640,43.6211854,-84.2439217
1422,West Carpenter Street,48640,43.6212728,-84.2442456
1426,West Carpenter Street,48640,43.6213531,-84.2444424
15,Brown Court,48640,43.6215500,-84.2429501
1501,Suncrist Street,48640,43.6214406,-84.2422778
1508,West Carpenter Street,48640,43.6213858,-84.2449223
1513,Bookness Street,48640,43.6224297,-84.2450652
1515,Bookness Street,48640,43.6223069,-84.2455437
1516,West Carpenter Street,48640,43.6214306,-84.2451836
1520,West Carpenter Street,48640,43.6215097,-84.2453714
1522,West Carpenter Street,48640,43.6215301,-84.2456415
1601,Bookness Street,48640,43.6223325,-84.2457865
1604,West Carpenter Street,48640,43.6215312,-84.2459492
1605,Suncrist Street,48640,43.6220960,-84.2422876
1606,West Carpenter Street,48640,43.6215274,-84.2461621
1610,West Carpenter Street,48640,43.6215490,-84.2464922
17,Brown Court,48640,43.6215558,-84.2431839
18,Brown Court,48640,43.6219837,-84.2431493
22,Brown Court,48640,43.6220216,-84.2434059
23,Brown Court,48640,43.6215402,-84.2435112
26,Brown Court,48640,43.6219438,-84.2436877
30,Brown Court,48640,43.6217607,-84.2437662
4,Brown Court,48640,43.6219506,-84.2423253
7,Brown Court,48640,43.6215812,-84.2423173
9,Brown Court,48640,43.6215669,-84.2427028
4401,North Campus Ridge Drive,48640,43.6370111,-84.2600553
1302,Bookness Street,48640,43.6228488,-84.2422187
1303,Elizabeth Street,48640,43.6233415,-84.2421604
1305,Elizabeth Street,48640,43.6233401,-84.2423154
1308,Bookness Street,48640,43.6228402,-84.2425104
1309,Elizabeth Street,48640,43.6233442,-84.2425045
1310,Bookness Street,48640,43.6228132,-84.2427313
1313,Elizabeth Street,48640,43.6233479,-84.2427043
1314,Bookness Street,48640,43.6228384,-84.2429597
1318,Bookness Street,48640,43.6228620,-84.2431828
1321,Elizabeth Street,48640,43.6233480,-84.2429001
1322,Bookness Street,48640,43.6228514,-84.2433784
1323,Elizabeth Street,48640,43.6233339,-84.2430802
1326,Bookness Street,48640,43.6228435,-84.2436488
1330,Bookness Street,48640,43.6228332,-84.2438174
1401,Elizabeth Street,48640,43.6233479,-84.2433349
1413,Elizabeth Street,48640,43.6233460,-84.2437173
1415,Elizabeth Street,48640,43.6233450,-84.2438647
1419,Elizabeth Street,48640,43.6233464,-84.2440354
1421,Elizabeth Street,48640,43.6233656,-84.2442076
1422,Bookness Street,48640,43.6228149,-84.2440706
1426,Bookness Street,48640,43.6228032,-84.2443792
1430,Bookness Street,48640,43.6227922,-84.2445655
1501,Elizabeth Street,48640,43.6233377,-84.2443870
1505,Elizabeth Street,48640,43.6233317,-84.2446495
1506,Bookness Street,48640,43.6228320,-84.2448507
1510,Bookness Street,48640,43.6228118,-84.2450851
1511,Elizabeth Street,48640,43.6233443,-84.2449174
1514,Bookness Street,48640,43.6228274,-84.2453377
1516,Bookness Street,48640,43.6228107,-84.2455231
1521,Elizabeth Street,48640,43.6233371,-84.2452481
1525,Elizabeth Street,48640,43.6233570,-84.2454135
1601,Elizabeth Street,48640,43.6233575,-84.2456624
1602,Bookness Street,48640,43.6228012,-84.2457676
1603,Elizabeth Street,48640,43.6233650,-84.2457819
1606,Bookness Street,48640,43.6228143,-84.2460464
1607,Elizabeth Street,48640,43.6233482,-84.2459941
1609,Elizabeth Street,48640,43.6233474,-84.2462025
1611,Elizabeth Street,48640,43.6233816,-84.2463705
1709,Suncrist Street,48640,43.6230881,-84.2422537
1001,Helen Street,48640,43.6239838,-84.2386226
1006,Elizabeth Street,48640,43.6236984,-84.2383424
1007,Helen Street,48640,43.6239876,-84.2389913
1009,Helen Street,48640,43.6239974,-84.2393452
1010,Elizabeth Street,48640,43.6237034,-84.2386504
1014,Elizabeth Street,48640,43.6236761,-84.2389871
1018,Elizabeth Street,48640,43.6236783,-84.2392918
1022,Elizabeth Street,48640,43.6236660,-84.2395751
1030,Elizabeth Street,48640,43.6236800,-84.2398511
1101,Helen Street,48640,43.6239854,-84.2397677
1102,Elizabeth Street,48640,43.6236764,-84.2403493
1105,Helen Street,48640,43.6239856,-84.2401410
1107,Helen Street,48640,43.6240138,-84.2405189
1110,Elizabeth Street,48640,43.6236824,-84.2406136
1116,Elizabeth Street,48640,43.6236800,-84.2407888
1201,Helen Street,48640,43.6239914,-84.2408793
1203,Helen Street,48640,43.6240093,-84.2412671
1206,Elizabeth Street,48640,43.6236665,-84.2411676
1209,Helen Street,48640,43.6240284,-84.2416595
1210,Elizabeth Street,48640,43.6236799,-84.2413533
1212,Elizabeth Street,48640,43.6236661,-84.2415697
1214,Elizabeth Street,48640,43.6236696,-84.2417803
1303,Helen Street,48640,43.6241036,-84.2420105
1306,Elizabeth Street,48640,43.6237036,-84.2421888
1307,Helen Street,48640,43.6241556,-84.2424381
1309,Helen Street,48640,43.6243875,-84.2427538
1310,Elizabeth Street,48640,43.6237036,-84.2424798
1313,Helen Street,48640,43.6245449,-84.2430234
1318,Elizabeth Street,48640,43.6237078,-84.2428618
1401,Helen Street,48640,43.6246365,-84.2433130
1402,Elizabeth Street,48640,43.6236892,-84.2431782
1404,Elizabeth Street,48640,43.6236654,-84.2433249
1405,Helen Street,48640,43.6247057,-84.2436037
1408,Crane Court,48640,43.6244083,-84.2437842
1408,Elizabeth Street,48640,43.6237042,-84.2435373
1410,Crane Court,48640,43.6245024,-84.2441061
1411,Crane Court,48640,43.6240316,-84.2440351
1411,West Saint Andrews Road,48640,43.6247988,-84.2439585
1413,Crane Court,48640,43.6240366,-84.2443436
1414,Elizabeth Street,48640,43.6237333,-84.2437886
1415,West Saint Andrews Road,48640,43.6248712,-84.2442561
1416,Crane Court,48640,43.6244882,-84.2443736
1418,Elizabeth Street,48640,43.6237277,-84.2440372
1501,West Saint Andrews Road,48640,43.6248595,-84.2446157
1502,Crane Court,48640,43.6244930,-84.2446616
1502,Elizabeth Street,48640,43.6236808,-84.2444058
1505,Crane Court,48640,43.6240505,-84.2446982
1505,West Saint Andrews Road,48640,43.6248462,-84.2449956
1506,Elizabeth Street,48640,43.6236954,-84.2445982
1508,Crane Court,48640,43.6245342,-84.2450613
1509,Crane Court,48640,43.6240530,-84.2450520
1510,Elizabeth Street,48640,43.6236700,-84.2447654
1511,West Saint Andrews Road,48640,43.6248455,-84.2454009
1512,Crane Court,48640,43.6245161,-84.2454187
1513,Crane Court,48640,43.6240524,-84.2454489
1518,Elizabeth Street,48640,43.6236900,-84.2450647
1522,Elizabeth Street,48640,43.6236688,-84.2452593
1526,Elizabeth Street,48640,43.6236689,-84.2454581
1601,West Saint Andrews Road,48640,43.6248582,-84.2457822
1602,Crane Court,48640,43.6244751,-84.2457102
1602,Elizabeth Street,48640,43.6236995,-84.2456362
1603,Crane Court,48640,43.6240611,-84.2457572
1604,Elizabeth Street,48640,43.6237297,-84.2457762
1605,Crane Court,48640,43.6240774,-84.2459687
1605,West Saint Andrews Road,48640,43.6247870,-84.2461787
1608,Crane Court,48640,43.6244962,-84.2461273
1609,Crane Court,48640,43.6240526,-84.2462234
1610,Crane Court,48640,43.6244984,-84.2465759
1610,Elizabeth Street,48640,43.6236828,-84.2459989
1612,Elizabeth Street,48640,43.6237101,-84.2461891
1616,Elizabeth Street,48640,43.6236945,-84.2463241
1802,Eastman Avenue,48640,43.6237577,-84.2466075
1812,Eastman Avenue,48640,43.6240553,-84.2465658
901,Helen Street,48640,43.6240066,-84.2374163
905,Helen Street,48640,43.6239997,-84.2376904
906,Elizabeth Street,48640,43.6236726,-84.2374319
908,Elizabeth Street,48640,43.6236848,-84.2377236
909,Helen Street,48640,43.6239881,-84.2379397
912,Elizabeth Street,48640,43.6236947,-84.2380252
913,Helen Street,48640,43.6239963,-84.2382822
1504,West Saint Andrews Road,48640,43.6254560,-84.2447896
1510,West Saint Andrews Road,48640,43.6254553,-84.2452064
1602,West Saint Andrews Road,48640,43.6254582,-84.2457471
1608,West Saint Andrews Road,48640,43.6255003,-84.2460726
2006,Eastman Avenue,48640,43.6258250,-84.2464681
2010,Hill Court,48640,43.6260896,-84.2451954
2011,Hill Court,48640,43.6259803,-84.2458667
2016,Eastman Avenue,48640,43.6263038,-84.2463780
1710,West Saint Andrews Road,48640,43.6254625,-84.2480541
3220,Orchard Drive,48640,43.6277275,-84.2524301
111,East Ashman Street,48640,43.6268746,-84.2258609
130,Ashman Circle,48640,43.6268964,-84.2282143
134,Ashman Circle,48640,43.6266559,-84.2281761
142,Ashman Circle,48640,43.6265752,-84.2281744
144,Ashman Circle,48640,43.6264732,-84.2281631
150,Ashman Circle,48640,43.6263382,-84.2281606
160,Ashman Circle,48640,43.6262485,-84.2280575
162,Ashman Circle,48640,43.6261809,-84.2279926
22,Ashman Circle,48640,43.6255400,-84.2267421
28,Ashman Circle,48640,43.6255867,-84.2266570
3102,Jefferson Avenue,48640,43.6272155,-84.2265922
3110,Jefferson Avenue,48640,43.6273388,-84.2266470
3114,Jefferson Avenue,48640,43.6274705,-84.2266460
3114B,Jefferson Avenue,48640,43.6274122,-84.2263943
34,Ashman Circle,48640,43.6255695,-84.2264470
54,Ashman Circle,48640,43.6260881,-84.2258427
66,Ashman Circle,48640,43.6263530,-84.2258294
76,Ashman Circle,48640,43.6264818,-84.2258496
84,Ashman Circle,48640,43.6268884,-84.2261908
86,Ashman Circle,48640,43.6269644,-84.2262740
96,Ashman Circle,48640,43.6270637,-84.2264900
222,Rockwell Drive,48642,43.6010412,-84.1667404
101,Fast Ice Drive,48642,43.5989283,-84.1697279
102,Fast Ice Drive,48642,43.6012702,-84.1685322
118,Waldo Avenue,48642,43.5985464,-84.1866222
120,Waldo Avenue,48642,43.5990436,-84.1868273
124,Waldo Avenue,48642,43.5994818,-84.1868815
215,Fast Ice Drive,48642,43.5985428,-84.1752646
3300,Centennial Drive,48642,43.5997368,-84.1870030
3305,Centennial Drive,48642,43.6006215,-84.1870229
3400,Centennial Drive,48642,43.5997116,-84.1859539
3405,Centennial Drive,48642,43.6004998,-84.1858147
3408,Centennial Drive,48642,43.5990619,-84.1850819
3440,Centennial Drive,48642,43.5996052,-84.1851658
3500,Centennial Drive,48642,43.5994282,-84.1846452
3500,Contractor Drive,48642,43.5953940,-84.1837418
3500,Contractor Drive,48642,43.5958463,-84.1838283
3505,Centennial Drive,48642,43.6005737,-84.1832497
3505,Centennial Drive,48642,43.6010000,-84.1833538
3505,Centennial Drive,48642,43.6006845,-84.1842251
3600,Centennial Drive,48642,43.5991242,-84.1840495
3608,Centennial Drive,48642,43.5989016,-84.1827675
3700,Centennial Drive,48642,43.5986241,-84.1822128
3700,Centennial Drive,48642,43.5989655,-84.1824216
3708,Centennial Drive,48642,43.5985838,-84.1816278
3816,Bay City Road,48642,43.6045745,-84.1810531
3816,Bay City Road,48642,43.6047411,-84.1808936
3816,Bay City Road,48642,43.6045149,-84.1804867
3816,Bay City Road,48642,43.6041268,-84.1810459
3816,Bay City Road,48642,43.6043523,-84.1810513
3816,Bay City Road,48642,43.6041473,-84.1805159
3816,Bay City Road,48642,43.6040688,-84.1807590
3820,Bay City Road,48642,43.6040790,-84.1802143
3820,Bay City Road,48642,43.6042416,-84.1802818
3820,Bay City Road,48642,43.6044658,-84.1802818
3820,Bay City Road,48642,43.6046946,-84.1802814
3900,Centennial Drive,48642,43.5991975,-84.1797206
3904,Bay City Road,48642,43.6040460,-84.1792956
3904,Bay City Road,48642,43.6042388,-84.1794817
3904,Bay City Road,48642,43.6042377,-84.1797971
3904,Bay City Road,48642,43.6047597,-84.1797969
3904,Bay City Road,48642,43.6038582,-84.1794813
3904,Bay City Road,48642,43.6038563,-84.1797918
3904,Bay City Road,48642,43.6043945,-84.1797959
405,Fast Ice Drive,48642,43.6029910,-84.1760636
4653,Bailey Bridge Road,48640,43.5686677,-84.1815247
4653,Bailey Bridge Road,48640,43.5690490,-84.1815414
4055,South Saginaw Road,48640,43.5787972,-84.2041911
4330,South Saginaw Road,48640,43.5710842,-84.1945607
2505,Bay City Road,48640,43.6053174,-84.1973797
2505,Bay City Road,48640,43.6053960,-84.1970894
1701,Bay City Road,48640,43.6053673,-84.2069334
1811,Bay City Road,48640,43.6054079,-84.2059797
1814,Austin Street,48640,43.6056757,-84.2055544
1821,Austin Street,48640,43.6065266,-84.2053941
1825,Bay City Road,48640,43.6054053,-84.2052204
1900,Austin Street,48640,43.6055641,-84.2050635
1900,Bay City Road,48640,43.6056087,-84.2042735
2000,Austin Street,48640,43.6056950,-84.2033171
2007,Austin Street,48640,43.6065155,-84.2034122
2100,Austin Street,48640,43.6057319,-84.2021212
2929,South Saginaw Road,48640,43.6063439,-84.2069547
3001,South Saginaw Road,48640,43.6058667,-84.2070632
2700,James Savage Road,48642,43.6098140,-84.1949643
715,East Main Street,48640,43.6099766,-84.2396319
405,North Saginaw Road,48640,43.6310010,-84.2324145
1711,Adelaide Street,48640,43.6233569,-84.2403262
1709,Adelaide Street,48640,43.6232233,-84.2403030
1705,Adelaide Street,48640,43.6230855,-84.2402907
1609,Adelaide Street,48640,43.6228789,-84.2403070
1607,Adelaide Street,48640,43.6226937,-84.2403147
1603,Adelaide Street,48640,43.6224335,-84.2403465
1104,Elgin Street,48640,43.6222818,-84.2403552
1112,Montrose Street,48640,43.6208599,-84.2408128
1116,Montrose Street,48640,43.6210866,-84.2408209
1120,Montrose Street,48640,43.6212218,-84.2408196
1124,Montrose Street,48640,43.6213618,-84.2408117
1504,Montrose Street,48640,43.6215272,-84.2408354
1510,Montrose Street,48640,43.6216971,-84.2407932
1111,Elgin Street,48640,43.6219072,-84.2407726
1511,Adelaide Street,48640,43.6218846,-84.2403565
1505,Adelaide Street,48640,43.6216370,-84.2403293
1501,Adelaide Street,48640,43.6215055,-84.2403264
1415,Adelaide Street,48640,43.6213645,-84.2403484
1413,Adelaide Street,48640,43.6212424,-84.2403685
1403,Adelaide Street,48640,43.6210813,-84.2403565
1403,Adelaide Street,48640,43.6209593,-84.2403653
1113,Adelaide Street,48640,43.6208268,-84.2403599
1109,Adelaide Street,48640,43.6207049,-84.2403486
1102,West Carpenter Street,48640,43.6203798,-84.2404090
1104,West Carpenter Street,48640,43.6204419,-84.2405581
1108,West Carpenter Street,48640,43.6204653,-84.2407040
1112,West Carpenter Street,48640,43.6205111,-84.2408537
1116,West Carpenter Street,48640,43.6205290,-84.2410113
1506,Suncrist Street,48640,43.6212971,-84.2417302
1116,Suncrist Street,48640,43.6211940,-84.2417645
1114,Suncrist Street,48640,43.6210301,-84.2417572
1110,Suncrist Street,48640,43.6209123,-84.2417254
1215,Elgin Street,48640,43.6219926,-84.2417073
1510,Suncrist Street,48640,43.6215545,-84.2417099
1512,Suncrist Street,48640,43.6217204,-84.2417368
1514,Suncrist Street,48640,43.6218513,-84.2416914
1517,Montrose Street,48640,43.6219540,-84.2413181
1511,Montrose Street,48640,43.6217583,-84.2412466
1505,Montrose Street,48640,43.6215721,-84.2413041
1501,Montrose Street,48640,43.6214016,-84.2413140
1121,Montrose Street,48640,43.6213195,-84.2413346
1117,Montrose Street,48640,43.6211726,-84.2413131
1113,Montrose Street,48640,43.6210354,-84.2413058
1109,Montrose Street,48640,43.6208228,-84.2413588
1202,West Carpenter Street,48640,43.6206007,-84.2414031
1208,West Carpenter Street,48640,43.6206603,-84.2416503
1212,West Carpenter Street,48640,43.6207316,-84.2418313
6503,Winterberry Court,48640,43.6569125,-84.2876909
6507,Winterberry Court,48640,43.6572052,-84.2877400
6511,Winterberry Court,48640,43.6574527,-84.2877254
6605,Winterberry Court,48640,43.6577085,-84.2877179
6609,Winterberry Court,48640,43.6579943,-84.2876567
6613,Winterberry Court,48640,43.6582834,-84.2878156
6617,Winterberry Court,48640,43.6584919,-84.2874882
6614,Winterberry Court,48640,43.6584928,-84.2871368
6610,Winterberry Court,48640,43.6582597,-84.2868266
6604,Winterberry Court,48640,43.6579652,-84.2869741
6600,Winterberry Court,48640,43.6577257,-84.2869963
6508,Winterberry Court,48640,43.6574597,-84.2869757
6504,Winterberry Court,48640,43.6571747,-84.2869459
6500,Winterberry Court,48640,43.6569311,-84.2869439
1209,East Wackerly Street,48642,43.6550034,-84.2128738
1401,East Wackerly Street,48642,43.6550107,-84.2106627
1111,East Wackerly Street,48642,43.6552603,-84.2145365
1007,East Wackerly Street,48642,43.6550553,-84.2154031
801,East Wackerly Street,48642,43.6553442,-84.2186890
605,East Wackerly Street,48642,43.6552719,-84.2215384
111,East Wackerly Street,48642,43.6552777,-84.2263235
601,East Wackerly Street,48642,43.6553333,-84.2222630
405,East Wackerly Street,48642,43.6551477,-84.2232130
850,Joe Mann Boulevard,48642,43.6616884,-84.2365888
830,Joe Mann Boulevard,48642,43.6606066,-84.2369822
6711,Eastman Avenue,48642,43.6593237,-84.2479169
6803,Eastman Avenue,48642,43.6599904,-84.2476534
4525,West Main Street,48640,43.6384377,-84.2723129
7320,Eastman Avenue,48640,43.6636012,-84.2455338
4811,North Saginaw Road,48640,43.6399833,-84.2868046
7001,Eastman Avenue,48642,43.6612663,-84.2478659
305,East Reardon Street,48640,43.6178973,-84.2342909
1400,Rodd Street,48640,43.6185530,-84.2329592
2009,Jefferson Avenue,48640,43.6163083,-84.2279065
5305,Perrine Road,48640,43.6461248,-84.2778235
2211,H.H. Dow Way,48674,43.6149978,-84.1990889
4525,West Main Street,48640,43.6383560,-84.2720767
4100,Chestnut Hill Drive,48642,43.6344495,-84.1963798
4100,Chestnut Hill Drive,48642,43.6344417,-84.1964272
1717,East Sugnet Road,48642,43.6306525,-84.2062564
1717,East Sugnet Road,48642,43.6307647,-84.2063659
2420,East Ashman Street,48642,43.6260897,-84.1978788
2420,East Ashman Street,48642,43.6262491,-84.1978738
2417,Abbott Road,48642,43.6207921,-84.1982556
2417,Abbott Road,48642,43.6206803,-84.1981373
2206,Airfield Lane,48642,43.6219548,-84.2009642
2206,Airfield Lane,48642,43.6219625,-84.2012290
505,East Carpenter Street,48640,43.6167237,-84.2346366
1310,Ashman Street,48640,43.6187659,-84.2357445
1310,Ashman Street,48640,43.6188171,-84.2356122
1014,East Ashman Street,48642,43.6261682,-84.2149900
1014,East Ashman Street,48642,43.6262023,-84.2153604
502,Cherry Street,48640,43.6180993,-84.2214722
502,Cherry Street,48640,43.6182941,-84.2217290
609,Mill Street,48640,43.6119179,-84.2349606
609,Mill Street,48640,43.6120498,-84.2348047
5305,Perrine Road,48640,43.6460210,-84.2776568
6100,Perrine Road,48640,43.6538184,-84.2746518
907,Mattes Drive,48642,43.6405947,-84.2154712
130,West Larkin Street,48640,43.6144161,-84.2450152
207,Ashman Street,48640,43.6146397,-84.2447168
315,West Larkin Street,48640,43.6150255,-84.2471409
505,East Carpenter Street,48640,43.6171335,-84.2352196
2821,Ashman Street,48640,43.6257088,-84.2293780
330,Waldo Avenue,48641,43.6026385,-84.1868221
330,Waldo Avenue,48641,43.6027333,-84.1865673
6225,Eastman Avenue,48640,43.6545868,-84.2478619
205,Post Street,48640,43.6232703,-84.2550782
506,East Buttles Street,48640,43.6118709,-84.2399773
2419,Damman Drive,48640,43.6198813,-84.2218682
2409,Damman Drive,48640,43.6197107,-84.2216870
2405,Damman Drive,48640,43.6197119,-84.2211153
2431,Damman Drive,48640,43.6202660,-84.2218550
702,Jefferson Avenue,48640,43.6074309,-84.2269902
220,Arrow Cove,48642,43.6005633,-84.1940162
4816,Bay City Road,48642,43.6028821,-84.1698870
1612,East Patrick Road,48642,43.6120612,-84.2077436
6902,Eastman Avenue,48642,43.6597481,-84.2465434
7340,Eastman Avenue,48642,43.6640837,-84.2467566
435,East Main Street,48640,43.6114230,-84.2422257
770,Joe Mann Boulevard,48642,43.6590767,-84.2363013
4313,Sherwood Court,48640,43.6378257,-84.2388324
4309,Sherwood Court,48640,43.6375242,-84.2388384
4301,Sherwood Court,48640,43.6372773,-84.2388258
4209,Sherwood Court,48640,43.6370032,-84.2387993
4201,Sherwood Court,48640,43.6366525,-84.2388819
4202,Sherwood Court,48640,43.6365622,-84.2393646
4210,Sherwood Court,48640,43.6369749,-84.2396456
4300,Sherwood Court,48640,43.6371691,-84.2395795
4306,Sherwood Court,48640,43.6374112,-84.2395509
4206,Sherwood Court,48640,43.6367625,-84.2395973
4314,Sherwood Court,48640,43.6376801,-84.2395322
2405,Abbott Rd,48642,43.6197229,-84.1980455
4801,Bay City Road,48642,43.6055790,-84.1685656
309,Jerome Street,48640,43.6167554,-84.2462819
2200,Cleveland Avenue,48640,43.6176243,-84.2254499
7221,North Jefferson Road,48642,43.6633923,-84.2302843
2100,West Wackerly Street,48640,43.6553776,-84.2519363
2200,West Wackerly Street,48640,43.6553670,-84.2533191
101,Joseph Drive,48642,43.6597960,-84.2263961
207,Ashman Street,48640,43.6145181,-84.2444646
5221,Bay City Road,48642,43.6057143,-84.1636340
3615,East Ashman Street,48642,43.6275027,-84.1830287
3302,Valley Drive,48640,43.6289659,-84.2610624
2660,West Sugnet Road,48670,43.6352548,-84.2590548
405,North Saginaw Road,48640,43.6309265,-84.2325455
2821,Ashman Street,48640,43.6254057,-84.2290646
416,Ellsworth Street,48640,43.6120159,-84.2410248
1408,North Saginaw Road,48640,43.6416206,-84.2435586
825,East Main Street,48640,43.6089640,-84.2368133
