House number,Street name,Postal code,Latitude,Longitude
3232,Orchard Lake Road,48324,42.6033098,-83.3495971
4093,Orchard Lake Road,48323,42.5791100,-83.3618466
4093,Orchard Lake Road,48323,42.5792406,-83.3617949
3258,Orchard Lake Road,48324,42.6025258,-83.3490919
3236,Orchard Lake Road,48324,42.6029309,-83.3495821
4100,Orchard Lake Road,48324,42.5784708,-83.3628805
4100,Orchard Lake Road,48324,42.5784480,-83.3630173
5565,Shore Drive,48324,42.5768769,-83.3936173
3329,West Shore Drive,48324,42.5893227,-83.3831459
4060,Orchard Lake Road,48323,42.5817457,-83.3619903
5430,Pontiac Trail,48323,42.5730055,-83.3909565
5172,Deer Run Circle,48323,42.5751683,-83.3849800
4419,Cranbrook Trail,48323,42.5742055,-83.3792463
3655,Wards Point Drive,48324,42.6075120,-83.3549061
4023,Harbor Vista Drive,48323,42.5806472,-83.3597242
4053,Harbor Vista Drive,48323,42.5796957,-83.3605594
3380,Orchard Lake Road,48324,42.6003365,-83.3511606
3340,Orchard Lake Road,48324,42.6006453,-83.3496813
4700,Pontiac Trail,48323,42.5751636,-83.3772380
3951,Orchard Lake Road,48323,42.5828177,-83.3594430
4500,Arline Drive,48323,42.5719624,-83.3765160
4489,Cranbrook Trail,48323,42.5728714,-83.3772457
3535,Commerce Road,48324,42.5950447,-83.3562133
3750,Commerce Road,48324,42.5978164,-83.3571946
3270,Wards Point Drive,48324,42.6049496,-83.3494190
3300,Orchard Lake Road,48324,42.6019047,-83.3492035
4093,Orchard Lake Road,48323,42.5791613,-83.3620248
4105,Orchard Lake Road,48323,42.5787145,-83.3617403
4430,Dow Ridge Road,48324,42.5995051,-83.3717755
3206,Orchard Lake Road,48324,42.6038689,-83.3491677
5171,Commerce Road,48324,42.5941402,-83.3864496
4398,Hickory Court,48323,42.5719971,-83.3710103
4372,Hickory Court,48323,42.5719125,-83.3714519
4099,Pontiac Trail,48323,42.5777884,-83.3642580
4121,Pontiac Trail,48323,42.5775345,-83.3649301
4215,Pontiac Trail,48323,42.5767366,-83.3652884
3500,Seminary Road,48324,42.5932172,-83.3526038
3540,Seminary Road,48324,42.5930563,-83.3535328
5656,Pontiac Trail,48323,42.5725734,-83.3946331
3999,Laplaya Lane,48324,42.5791815,-83.4012324
3955,Orchard Lake Road,48323,42.5818742,-83.3593217
3969,Laplaya Lane,48324,42.5790959,-83.4005867
3937,Laplaya Lane,48324,42.5790951,-83.4000223
3905,Laplaya Lane,48324,42.5792519,-83.3996159
3873,Laplaya Lane,48324,42.5794338,-83.3991084
3841,Laplaya Lane,48324,42.5797775,-83.3979402
3819,Laplaya Lane,48324,42.5794665,-83.3971059
3972,Laplaya Lane,48324,42.5799629,-83.4011014
3940,Laplaya Lane,48324,42.5801930,-83.4005668
3908,Laplaya Lane,48324,42.5802738,-83.4001602
3876,Laplaya Lane,48324,42.5804206,-83.3996340
3830,Laplaya Lane,48324,42.5806034,-83.3991793
5889,Carmen Court West,48324,42.5812418,-83.3991228
5913,Carmen Court West,48324,42.5812255,-83.3995489
5937,Carmen Court West,48324,42.5812003,-83.4000311
5961,Carmen Court West,48324,42.5809622,-83.4004772
5985,Carmen Court West,48324,42.5808062,-83.4010751
6019,Carmen Court West,48324,42.5813594,-83.4013566
5865,Carmen Court East,48324,42.5810051,-83.3982011
5841,Carmen Court East,48324,42.5809653,-83.3975922
5818,Carmen Court East,48324,42.5813416,-83.3972382
5842,Carmen Court East,48324,42.5816743,-83.3977553
5867,Carmen Court East,48324,42.5816279,-83.3982209
5867,Bravo Court,48324,42.5821339,-83.3983180
5843,Bravo Court,48324,42.5820150,-83.3976670
5820,Bravo Court,48324,42.5824129,-83.3973151
5844,Bravo Court,48324,42.5827946,-83.3976479
5868,Bravo Court,48324,42.5827245,-83.3982892
5845,Prado Court,48324,42.5832137,-83.3977019
5822,Prado Court,48324,42.5835910,-83.3973707
5846,Prado Court,48324,42.5839631,-83.3976595
5870,Prado Court,48324,42.5839105,-83.3981820
5869,Prado Court,48324,42.5832460,-83.3982905
5976,Seville Circle,48324,42.5831051,-83.3991609
5968,Seville Circle,48324,42.5830986,-83.3995883
5960,Seville Circle,48324,42.5830752,-83.4000979
5952,Seville Circle,48324,42.5829642,-83.4005610
5944,Seville Circle,48324,42.5830286,-83.4013359
5928,Seville Circle,48324,42.5835940,-83.4015732
5920,Seville Circle,48324,42.5839665,-83.4016174
5912,Seville Circle,48324,42.5843763,-83.4015508
5904,Seville Circle,48324,42.5847481,-83.4017653
5896,Seville Circle,48324,42.5851296,-83.4015185
5888,Seville Circle,48324,42.5852582,-83.4009211
5880,Seville Circle,48324,42.5852060,-83.4004241
5872,Seville Circle,48324,42.5852439,-83.3999736
5864,Seville Circle,48324,42.5852337,-83.3993952
5856,Seville Circle,48324,42.5852033,-83.3988361
5925,Seville Circle,48324,42.5837289,-83.4006965
5913,Seville Circle,48324,42.5842157,-83.4007272
5879,Seville Circle,48324,42.5845300,-83.4003834
5871,Seville Circle,48324,42.5845639,-83.3999176
5863,Seville Circle,48324,42.5845753,-83.3994049
5853,Seville Circle,48324,42.5845113,-83.3989395
5959,Seville Circle,48324,42.5837193,-83.4001449
5967,Seville Circle,48324,42.5837338,-83.3996164
5975,Seville Circle,48324,42.5838481,-83.3991669
3595,Laplaya Lane,48324,42.5843335,-83.3980197
3563,Laplaya Lane,48324,42.5844869,-83.3974420
3580,Laplaya Lane,48324,42.5849848,-83.3981656
5821,Old Orchard Trail,48324,42.5853252,-83.3976443
5751,Shore Drive,48324,42.5792445,-83.3967799
5741,Shore Drive,48324,42.5792237,-83.3965275
5725,Shore Drive,48324,42.5791397,-83.3963651
5709,Shore Drive,48324,42.5789907,-83.3961193
5681,Shore Drive,48324,42.5788527,-83.3958956
5673,Shore Drive,48324,42.5786818,-83.3956630
5669,Shore Drive,48324,42.5784571,-83.3954065
5655,Shore Drive,48324,42.5781312,-83.3950330
5645,Shore Drive,48324,42.5778927,-83.3947977
5615,Shore Drive,48324,42.5773922,-83.3942618
5605,Shore Drive,48324,42.5772200,-83.3940446
5575,Shore Drive,48324,42.5770098,-83.3938078
5549,Shore Drive,48324,42.5767048,-83.3933253
5533,Shore Drive,48324,42.5765883,-83.3931372
5527,Shore Drive,48324,42.5764475,-83.3928680
5515,Shore Drive,48324,42.5764070,-83.3926185
5509,Shore Drive,48324,42.5764160,-83.3924872
5503,Shore Drive,48324,42.5764456,-83.3923051
5540,Shore Drive,48324,42.5769419,-83.3928840
5750,Shore Drive,48324,42.5796495,-83.3965424
5720,Shore Drive,48324,42.5794463,-83.3960205
5696,Woodlawn Avenue,48324,42.5793456,-83.3957542
5684,Shore Drive,48324,42.5789725,-83.3954370
5678,Shore Drive,48324,42.5789236,-83.3952969
5670,Shore Drive,48324,42.5787944,-83.3951388
5662,Shore Drive,48324,42.5787004,-83.3948216
4015,Shady Beach Boulevard,48324,42.5787307,-83.3942394
5563,Park Drive,48324,42.5786139,-83.3936588
5557,Park Drive,48324,42.5785353,-83.3934395
5551,Park Drive,48324,42.5784348,-83.3932798
4020,Beach Drive,48324,42.5783273,-83.3928618
4032,Beach Drive,48324,42.5780745,-83.3930285
4050,Beach Drive,48324,42.5778187,-83.3931022
4073,Beach Drive,48324,42.5772326,-83.3927537
4049,Beach Drive,48324,42.5776199,-83.3926197
4033,Beach Drive,48324,42.5778584,-83.3925435
4025,Beach Drive,48324,42.5779637,-83.3924420
4017,Park Drive,48324,42.5780441,-83.3922908
4009,Park Drive,48324,42.5781171,-83.3921324
4001,Park Drive,48324,42.5781848,-83.3919848
5528,Park Drive,48324,42.5785820,-83.3921677
5534,Park Drive,48324,42.5785952,-83.3925593
5540,Park Drive,48324,42.5785964,-83.3927872
5550,Park Drive,48324,42.5787645,-83.3931892
5568,Park Drive,48324,42.5790188,-83.3937209
3929,Shady Beach Boulevard,48324,42.5792143,-83.3941902
3910,Shady Beach Boulevard,48324,42.5793008,-83.3947646
3897,Sunset Boulevard,48324,42.5796140,-83.3951824
3895,Shady Beach Boulevard,48324,42.5797319,-83.3941737
5570,Bluebird Avenue,48324,42.5796704,-83.3937333
5574,Bluebird Avenue,48324,42.5796790,-83.3935444
3895,Lakeview Boulevard,48324,42.5797051,-83.3930555
3877,Shady Beach Boulevard,48324,42.5800096,-83.3941297
3892,Shady Beach Boulevard,48324,42.5797391,-83.3947364
3884,Shady Beach Boulevard,48324,42.5799287,-83.3947539
3890,Bluebird Avenue,48324,42.5797947,-83.3927592
3881,Lakeview Boulevard,48324,42.5799230,-83.3930390
3870,Lakeview Boulevard,48324,42.5802137,-83.3936233
3863,Lakeview Boulevard,48324,42.5802537,-83.3930162
3885,Bluebird Avenue,48324,42.5799991,-83.3921601
3865,Bluebird Avenue,48324,42.5802475,-83.3922095
3853,Shady Beach Boulevard,48324,42.5804484,-83.3941606
3845,Shady Beach Boulevard,48324,42.5807001,-83.3941817
3825,Shady Beach Boulevard,48324,42.5809607,-83.3941449
3850,Lakeview Boulevard,48324,42.5805983,-83.3936071
3820,Lakeview Boulevard,48324,42.5808740,-83.3936303
3885,Sunset Boulevard,48324,42.5799296,-83.3951766
3870,Shady Beach Boulevard,48324,42.5801362,-83.3947800
3850,Shady Beach Boulevard,48324,42.5806068,-83.3948305
3810,Shady Beach Boulevard,48324,42.5810051,-83.3947770
3861,Sunset Boulevard,48324,42.5805003,-83.3952376
3835,Sunset Boulevard,48324,42.5807727,-83.3952938
3878,Sunset Boulevard,48324,42.5799144,-83.3957396
5738,Woodlawn Avenue,48324,42.5801240,-83.3960813
5744,Woodlawn Avenue,48324,42.5801335,-83.3963433
3850,Arcadia Drive,48324,42.5802157,-83.3967260
3832,Arcadia Drive,48324,42.5805723,-83.3967437
3845,Arcadia Drive,48324,42.5804751,-83.3962796
3835,Arcadia Drive,48324,42.5806985,-83.3962774
3822,Arcadia Drive,48324,42.5809054,-83.3967372
3800,Arcadia Drive,48324,42.5811758,-83.3967981
3824,Sunset Boulevard,48324,42.5810190,-83.3958566
3850,Sunset Boulevard,48324,42.5807576,-83.3958042
3856,Sunset Boulevard,48324,42.5802870,-83.3957960
3835,Lakeview Boulevard,48324,42.5807729,-83.3929461
5518,Sunshine Place,48324,42.5807266,-83.3924340
5510,Sunshine Place,48324,42.5807117,-83.3921417
3815,Lakeview Boulevard,48324,42.5810585,-83.3931333
5521,Ideal Place,48324,42.5811249,-83.3926937
5505,Ideal Place,48324,42.5810874,-83.3921373
3757,Shady Beach Boulevard,48324,42.5815151,-83.3942127
3800,Lakeview Boulevard,48324,42.5814908,-83.3937265
3774,Valley Drive,48324,42.5816832,-83.3937750
3745,Shady Beach Boulevard,48324,42.5818594,-83.3941895
3725,Shady Beach Boulevard,48324,42.5820688,-83.3941563
3801,Lakeview Boulevard,48324,42.5815329,-83.3931721
5530,Ideal Place,48324,42.5814726,-83.3927302
5520,Ideal Place,48324,42.5814992,-83.3924708
5504,Ideal Place,48324,42.5815468,-83.3921743
5595,Birdview Heights,48324,42.5819236,-83.3931550
5585,Birdview Heights,48324,42.5819006,-83.3927331
5575,Birdview Heights,48324,42.5818899,-83.3924531
3731,Lakeview Boulevard,48324,42.5822738,-83.3931580
5588,Birdview Heights,48324,42.5822994,-83.3928030
5574,Birdview Heights,48324,42.5822931,-83.3925199
5518,Birdview Heights,48324,42.5823003,-83.3922014
3715,Lakeview Boulevard,48324,42.5825057,-83.3931486
5507,Garden Terrace,48324,42.5826667,-83.3924521
5502,Garden Terrace,48324,42.5830725,-83.3923302
5520,Garden Terrace,48324,42.5831319,-83.3928345
5556,Garden Terrace,48324,42.5830383,-83.3933775
3671,Shady Beach Boulevard,48324,42.5831166,-83.3938792
3699,Shady Beach Boulevard,48324,42.5826728,-83.3940583
3706,Lakeview Boulevard,48324,42.5826615,-83.3936654
3738,Lakeview Boulevard,48324,42.5822749,-83.3937389
3815,Sunset Boulevard,48324,42.5814087,-83.3953091
3793,Sunset Boulevard,48324,42.5816227,-83.3953282
3788,Sunset Boulevard,48324,42.5814746,-83.3957843
3766,Sunset Boulevard,48324,42.5817213,-83.3958604
3748,Sunset Boulevard,48324,42.5819401,-83.3958700
3781,Arcadia Drive,48324,42.5813675,-83.3962949
3769,Arcadia Drive,48324,42.5816952,-83.3963138
3760,Arcadia Drive,48324,42.5817504,-83.3968025
3747,Arcadia Drive,48324,42.5821142,-83.3963095
3640,Arcadia Drive,48324,42.5822230,-83.3968266
3735,Arcadia Drive,48324,42.5824190,-83.3963316
3720,Arcadia Drive,48324,42.5824629,-83.3968142
3722,Sunset Boulevard,48324,42.5822158,-83.3958973
3700,Sunset Boulevard,48324,42.5824529,-83.3959345
3740,Shady Beach Boulevard,48324,42.5820800,-83.3947565
3748,Shady Beach Boulevard,48324,42.5819776,-83.3948648
3725,Sunset Boulevard,48324,42.5821684,-83.3953540
3705,Sunset Boulevard,48324,42.5824626,-83.3952898
3685,Sunset Boulevard,48324,42.5826795,-83.3951172
3710,Shady Beach Boulevard,48324,42.5824956,-83.3946484
3700,Shady Beach Boulevard,48324,42.5827138,-83.3946000
3682,Sunset Boulevard,48324,42.5829281,-83.3955344
3670,Sunset Boulevard,48324,42.5831485,-83.3955012
3690,Fairlawn Terrace,48324,42.5828779,-83.3960883
3700,Arcadia Drive,48324,42.5828548,-83.3968342
3680,Arcadia Drive,48324,42.5831859,-83.3968782
3685,Arcadia Drive,48324,42.5831528,-83.3964060
3660,Fairlawn Terrace,48324,42.5834696,-83.3961663
3655,Arcadia Drive,48324,42.5836267,-83.3964528
3668,Arcadia Drive,48324,42.5835645,-83.3969031
3650,Arcadia Drive,48324,42.5839597,-83.3969321
5770,Arcadia Drive,48324,42.5841055,-83.3964390
5740,Arcadia Drive,48324,42.5841241,-83.3955201
3659,Fairlawn Terrace,48324,42.5836616,-83.3956599
3650,Sunset Boulevard,48324,42.5835622,-83.3952041
3630,Sunset Boulevard,48324,42.5839536,-83.3949672
3655,Shady Beach Boulevard,48324,42.5838585,-83.3935385
3582,Shady Beach Boulevard,48324,42.5843714,-83.3946136
3559,Shady Beach Boulevard,48324,42.5844002,-83.3938838
3556,Shady Beach Boulevard,48324,42.5845563,-83.3944427
5725,Evergreen Avenue,48324,42.5845761,-83.3950102
5745,Evergreen Avenue,48324,42.5845327,-83.3956317
5769,Evergreen Avenue,48324,42.5845049,-83.3964175
5774,Evergreen Avenue,48324,42.5849194,-83.3966592
5766,Evergreen Avenue,48324,42.5849287,-83.3963411
5754,Evergreen Avenue,48324,42.5849465,-83.3960090
5748,Evergreen Avenue,48324,42.5849503,-83.3956775
5732,Evergreen Avenue,48324,42.5850112,-83.3952346
5771,Old Orchard Trail,48324,42.5853550,-83.3966635
5747,Old Orchard Trail,48324,42.5853594,-83.3960503
5701,Old Orchard Trail,48324,42.5853419,-83.3957781
5657,Old Orchard Trail,48324,42.5853720,-83.3951652
3555,Shady Beach Boulevard,48324,42.5846355,-83.3936911
5587,Evergreen Avenue,48324,42.5846381,-83.3933202
5545,Evergreen Avenue,48324,42.5846674,-83.3928807
5509,Evergreen Avenue,48324,42.5847715,-83.3924098
5532,Evergreen Avenue,48324,42.5851270,-83.3926784
5560,Evergreen Avenue,48324,42.5850103,-83.3932068
3551,Shady Beach Boulevard,48324,42.5849802,-83.3936090
3541,Shady Beach Boulevard,48324,42.5852744,-83.3935174
5595,Old Orchard Trail,48324,42.5855017,-83.3935192
5585,Old Orchard Trail,48324,42.5855198,-83.3929482
5571,Old Orchard Trail,48324,42.5855413,-83.3926192
3880,Vista Lane,48323,42.5833237,-83.3587503
3876,Vista Lane,48323,42.5834788,-83.3582615
3872,Vista Lane,48323,42.5836721,-83.3579625
3868,Vista Lane,48323,42.5838607,-83.3577513
3864,Vista Lane,48323,42.5841202,-83.3576428
3860,Vista Lane,48323,42.5843706,-83.3574541
3856,Vista Lane,48323,42.5846505,-83.3572884
3852,Vista Lane,48323,42.5849863,-83.3569381
3727,Indian Trail,48324,42.5916069,-83.3563264
3751,Indian Trail,48324,42.5913674,-83.3561901
3755,Indian Trail,48324,42.5912177,-83.3557194
3757,Indian Trail,48324,42.5908544,-83.3559208
3761,Indian Trail,48324,42.5906573,-83.3557119
3763,Indian Trail,48324,42.5903876,-83.3557742
3765,Indian Trail,48324,42.5901522,-83.3555835
3773,Indian Trail,48324,42.5899571,-83.3555235
3777,Indian Trail,48324,42.5896663,-83.3554941
3781,Indian Trail,48324,42.5894417,-83.3553945
3785,Indian Trail,48324,42.5892214,-83.3554681
3787,Indian Trail,48324,42.5889497,-83.3555307
3789,Indian Trail,48324,42.5886246,-83.3557064
3791,Indian Trail,48324,42.5882429,-83.3556730
3795,Indian Trail,48324,42.5878917,-83.3559450
3805,Indian Trail,48324,42.5876849,-83.3559854
3815,Indian Trail,48324,42.5874900,-83.3559362
3821,Indian Trail,48324,42.5872330,-83.3558842
3833,Indian Trail,48324,42.5869498,-83.3560101
3845,Indian Trail,48324,42.5866461,-83.3560497
3287,Wards Point Drive,48324,42.6040375,-83.3499062
3365,Wards Point Drive,48324,42.6038499,-83.3519132
3405,Wards Point Drive,48324,42.6039771,-83.3523689
3425,Wards Point Drive,48324,42.6045201,-83.3526473
3455,Wards Point Drive,48324,42.6047565,-83.3533232
3086,Wards Point Drive,48324,42.6052107,-83.3551826
3511,Wards Point Drive,48324,42.6054516,-83.3551723
3521,Wards Point Drive,48324,42.6056023,-83.3551944
3539,Wards Point Drive,48324,42.6057780,-83.3553021
3549,Wards Point Drive,48324,42.6059354,-83.3552459
3585,Wards Point Drive,48324,42.6063919,-83.3552816
3565,Wards Point Drive,48324,42.6061486,-83.3552443
3599,Wards Point Drive,48324,42.6065327,-83.3551942
3609,Wards Point Drive,48324,42.6067545,-83.3552276
3625,Wards Point Drive,48324,42.6069680,-83.3552423
3649,Wards Point Drive,48324,42.6072197,-83.3551329
3675,Wards Point Drive,48324,42.6077003,-83.3546160
3685,Wards Point Drive,48324,42.6077883,-83.3543933
3707,Wards Point Drive,48324,42.6079031,-83.3538401
3699,Wards Point Drive,48324,42.6079300,-83.3540530
3717,Wards Point Drive,48324,42.6079172,-83.3533286
3610,Wards Point Drive,48324,42.6066170,-83.3542309
3590,Wards Point Drive,48324,42.6063713,-83.3542474
3572,Wards Point Drive,48324,42.6061244,-83.3541855
3560,Wards Point Drive,48324,42.6059842,-83.3539476
3540,Wards Point Drive,48324,42.6058142,-83.3538291
3520,Wards Point Drive,48324,42.6056174,-83.3536055
3500,Wards Point Drive,48324,42.6054356,-83.3534201
3470,Wards Point Drive,48324,42.6053876,-83.3530974
3452,Wards Point Drive,48324,42.6052464,-83.3527146
3434,Wards Point Drive,48324,42.6052782,-83.3523861
3418,Wards Point Drive,48324,42.6051329,-83.3521949
3402,Wards Point Drive,48324,42.6052259,-83.3518904
3386,Wards Point Drive,48324,42.6050683,-83.3517228
3370,Wards Point Drive,48324,42.6049685,-83.3514626
3354,Wards Point Drive,48324,42.6049253,-83.3512423
3330,Wards Point Drive,48324,42.6048619,-83.3508619
3308,Wards Point Drive,48324,42.6047413,-83.3505650
3280,Wards Point Drive,48324,42.6048253,-83.3500725
3294,Wards Point Drive,48324,42.6047620,-83.3503540
3432,Arrowvale Drive,48324,42.5998643,-83.3541121
3448,Arrowvale Drive,48324,42.5997097,-83.3544571
3464,Arrowvale Drive,48324,42.5996091,-83.3548421
3480,Arrowvale Drive,48324,42.5994782,-83.3552437
3473,Arrowvale Drive,48324,42.5990082,-83.3546008
3455,Arrowvale Drive,48324,42.5991844,-83.3541834
3496,Arrowvale Drive,48324,42.5992684,-83.3556862
3514,Arrowvale Drive,48324,42.5989592,-83.3559546
3497,Arrowvale Drive,48324,42.5988775,-83.3550027
3535,Arrowvale Drive,48324,42.5985170,-83.3553099
3557,Arrowvale Drive,48324,42.5981414,-83.3551061
3571,Arrowvale Drive,48324,42.5978433,-83.3549652
3450,Commerce Road,48324,42.5981682,-83.3538985
3480,Commerce Road,48324,42.5979741,-83.3544024
3431,Arrowvale Drive,48324,42.5994035,-83.3537170
3356,Indiandale Drive,48324,42.5991357,-83.3536180
3370,Indiandale Drive,48324,42.5988246,-83.3534607
3384,Indiandale Drive,48324,42.5985680,-83.3533273
3400,Commerce Road,48324,42.5982938,-83.3532585
3383,Indiandale Drive,48324,42.5988157,-83.3526188
3397,Indiandale Drive,48324,42.5985829,-83.3524432
3367,Indiandale Drive,48324,42.5991536,-83.3527691
3349,Indiandale Drive,48324,42.5994984,-83.3528929
3329,Indiandale Drive,48324,42.5997256,-83.3529600
3328,Indiandale Drive,48324,42.6000228,-83.3537538
3300,Indiandale Drive,48324,42.6003934,-83.3536524
4025,Summers Ridge Drive,48324,42.5962856,-83.3618424
3975,Summers Ridge Drive,48324,42.5963296,-83.3606626
3925,Summers Ridge Drive,48324,42.5965363,-83.3599705
3875,Summers Ridge Drive,48324,42.5967682,-83.3594983
4020,Summers Ridge Drive,48324,42.5968043,-83.3618274
3988,Summers Ridge Drive,48324,42.5969919,-83.3613744
3956,Summers Ridge Drive,48324,42.5972560,-83.3608539
3928,Summers Ridge Drive,48324,42.5974619,-83.3603770
3850,Summers Ridge Drive,48324,42.5977321,-83.3599515
3752,Erie Drive,48324,42.5979993,-83.3596918
3742,Erie Drive,48324,42.5982425,-83.3594619
3732,Erie Drive,48324,42.5983965,-83.3592241
3720,Erie Drive,48324,42.5986430,-83.3589778
3688,Erie Drive,48324,42.5988300,-83.3587015
3670,Erie Drive,48324,42.5990479,-83.3584400
3652,Erie Drive,48324,42.5992748,-83.3581901
3634,Erie Drive,48324,42.5994814,-83.3580238
3630,Erie Drive,48324,42.5996362,-83.3578274
3600,Erie Drive,48324,42.5998405,-83.3576188
3570,Erie Drive,48324,42.6000055,-83.3574450
3562,Erie Drive,48324,42.6002209,-83.3573125
3540,Erie Drive,48324,42.6004324,-83.3571383
3518,Erie Drive,48324,42.6006551,-83.3571174
3508,Erie Drive,48324,42.6008411,-83.3569748
3498,Erie Drive,48324,42.6011022,-83.3568699
3488,Erie Drive,48324,42.6013314,-83.3566330
3585,Erie Drive,48324,42.5995603,-83.3566618
3535,Erie Drive,48324,42.5999549,-83.3563053
3445,Erie Drive,48324,42.5999682,-83.3558201
3435,Erie Drive,48324,42.6000349,-83.3553259
3393,Erie Drive,48324,42.6001210,-83.3548956
3365,Erie Drive,48324,42.6003039,-83.3543853
3351,Erie Drive,48324,42.6006162,-83.3539885
3438,Erie Drive,48324,42.6006410,-83.3557828
3468,Erie Drive,48324,42.6007206,-83.3561404
3408,Erie Drive,48324,42.6006373,-83.3553945
3378,Erie Drive,48324,42.6007386,-83.3550063
3328,Erie Drive,48324,42.6015041,-83.3547621
3345,Erie Drive,48324,42.6012647,-83.3537147
3325,Erie Drive,48324,42.6017044,-83.3537919
3308,Erie Drive,48324,42.6017645,-83.3548359
3301,Erie Drive,48324,42.6020463,-83.3540704
3272,Erie Drive,48324,42.6019924,-83.3549443
3238,Erie Drive,48324,42.6022047,-83.3552261
3220,Erie Drive,48324,42.6023345,-83.3560366
3212,Erie Drive,48324,42.6025951,-83.3559755
3275,Erie Drive,48324,42.6023665,-83.3543070
3241,Erie Drive,48324,42.6026401,-83.3546164
3208,Erie Drive,48324,42.6028136,-83.3559332
3202,Erie Drive,48324,42.6030562,-83.3558925
3209,Erie Drive,48324,42.6029192,-83.3547196
3183,Erie Drive,48324,42.6032414,-83.3546188
3188,Erie Drive,48324,42.6032639,-83.3557180
3174,Erie Drive,48324,42.6034821,-83.3556777
3160,Erie Drive,48324,42.6037087,-83.3556705
3163,Erie Drive,48324,42.6035442,-83.3544758
3145,Erie Drive,48324,42.6038496,-83.3544050
3131,Erie Drive,48324,42.6041594,-83.3544384
3115,Erie Drive,48324,42.6044904,-83.3544844
3138,Erie Drive,48324,42.6040581,-83.3555896
3118,Erie Drive,48324,42.6045193,-83.3555458
4431,Dow Ridge Road,48324,42.5985965,-83.3716942
4480,Commerce Road,48324,42.5979119,-83.3719101
3360,Three Lakes Lane,48324,42.5969680,-83.3695792
3320,Three Lakes Lane,48324,42.5981347,-83.3684915
4374,Commerce Road,48324,42.5976442,-83.3679710
4350,Commerce Road,48324,42.5975282,-83.3674405
4326,Commerce Road,48324,42.5974545,-83.3668945
4200,Commerce Road,48324,42.5976489,-83.3662528
4116,Commerce Road,48324,42.5971821,-83.3655411
4084,Commerce Road,48324,42.5969125,-83.3649522
4050,Commerce Road,48324,42.5967697,-83.3644417
4000,Commerce Road,48324,42.5966417,-83.3634651
3950,Commerce Road,48324,42.5968213,-83.3627206
4021,Commerce Road,48324,42.5957413,-83.3636169
4695,Commerce Road,48324,42.5969581,-83.3776717
4685,Commerce Road,48324,42.5971563,-83.3771388
4796,Dow Ridge Road,48324,42.6004757,-83.3827530
4864,Dow Ridge Road,48324,42.5969712,-83.3824632
4450,Dow Ridge Road,48324,42.5992608,-83.3723208
4460,Dow Ridge Road,48324,42.5992492,-83.3727609
4470,Dow Ridge Road,48324,42.5993310,-83.3731308
4480,Dow Ridge Road,48324,42.5994379,-83.3736132
4490,Dow Ridge Road,48324,42.5994087,-83.3741040
4500,Dow Ridge Road,48324,42.5994131,-83.3745118
4540,Dow Ridge Road,48324,42.5993841,-83.3748882
4550,Dow Ridge Road,48324,42.5992609,-83.3753933
4560,Dow Ridge Road,48324,42.5991993,-83.3760762
4610,Dow Ridge Road,48324,42.5990975,-83.3766992
4640,Dow Ridge Road,48324,42.5995175,-83.3774423
4660,Dow Ridge Road,48324,42.5997063,-83.3778707
4680,Dow Ridge Road,48324,42.5998709,-83.3782607
4700,Dow Ridge Road,48324,42.5999372,-83.3787390
4716,Dow Ridge Road,48324,42.6000379,-83.3791574
4722,Dow Ridge Road,48324,42.6001115,-83.3797169
4740,Dow Ridge Road,48324,42.6001956,-83.3805987
4764,Dow Ridge Road,48324,42.6002644,-83.3812859
4780,Dow Ridge Road,48324,42.6003393,-83.3816498
4790,Dow Ridge Road,48324,42.6001311,-83.3821440
4798,Dow Ridge Road,48324,42.5988246,-83.3823671
4800,Dow Ridge Road,48324,42.5983236,-83.3821456
4848,Dow Ridge Road,48324,42.5975794,-83.3821721
4880,Dow Ridge Road,48324,42.5977704,-83.3814310
4715,Dow Ridge Road,48324,42.5984082,-83.3798379
4681,Dow Ridge Road,48324,42.5983796,-83.3789237
4633,Dow Ridge Road,48324,42.5981119,-83.3780886
4615,Dow Ridge Road,48324,42.5979267,-83.3772999
4601,Dow Ridge Road,48324,42.5979085,-83.3762622
4567,Dow Ridge Road,48324,42.5981390,-83.3754804
4545,Dow Ridge Road,48324,42.5981971,-83.3748703
4525,Dow Ridge Road,48324,42.5981926,-83.3743089
447,Dow Ridge Road,48324,42.5981077,-83.3734935
4465,Dow Ridge Road,48324,42.5980578,-83.3731022
4455,Dow Ridge Road,48324,42.5981011,-83.3725527
5111,Commerce Road,48324,42.5944027,-83.3850683
5099,Commerce Road,48324,42.5944352,-83.3845190
5091,Commerce Road,48324,42.5944473,-83.3840154
5081,Commerce Road,48324,42.5945272,-83.3836625
5051,Commerce Road,48324,42.5944779,-83.3832361
4945,Pelletier Boulevard,48324,42.5945764,-83.3827833
4925,Pelletier Boulevard,48324,42.5945676,-83.3822690
4905,Pelletier Boulevard,48324,42.5945622,-83.3818152
4885,Pelletier Boulevard,48324,42.5945996,-83.3813433
4900,Pelletier Boulevard,48324,42.5952064,-83.3820357
2945,Orchard Place,48324,42.5958683,-83.3814345
2835,Orchard Place,48324,42.5962717,-83.3815761
2802,Orchard Place,48324,42.5961722,-83.3810815
2824,Orchard Place,48324,42.5959458,-83.3807743
2861,Orchard Place,48324,42.5956687,-83.3810400
2961,Orchard Place,48324,42.5951353,-83.3800719
2956,Orchard Place,48324,42.5952812,-83.3804607
2852,Orchard Place,48324,42.5956416,-83.3801882
2910,Orchard Place,48324,42.5954572,-83.3798240
2975,Orchard Place,48324,42.5952563,-83.3796621
2940,Orchard Place,48324,42.5944628,-83.3802542
2960,Orchard Place,48324,42.5943211,-83.3798561
2966,Orchard Place,48324,42.5944694,-83.3795550
2968,Orchard Place,48324,42.5946366,-83.3791409
2976,Orchard Place,48324,42.5947906,-83.3788657
2972,Orchard Place,48324,42.5950057,-83.3787118
2969,Orchard Place,48324,42.5952089,-83.3786314
2953,Orchard Place,48324,42.5954790,-83.3787965
2921,Orchard Place,48324,42.5957385,-83.3790010
2901,Orchard Place,48324,42.5959178,-83.3792691
2877,Orchard Place,48324,42.5960611,-83.3796181
2829,Orchard Place,48324,42.5962495,-83.3798621
2801,Orchard Place,48324,42.5964304,-83.3801902
2797,Orchard Place,48324,42.5966739,-83.3804908
4851,Commerce Road,48324,42.5969697,-83.3804787
5555,Shore Drive,48324,42.5767753,-83.3934569
5631,Old Orchard Trail,48324,42.5853920,-83.3946694
5724,Evergreen Avenue,48324,42.5849740,-83.3946947
5581,Park Drive,48324,42.5786868,-83.3940028
3041,Bay Shore Drive,48324,42.5931607,-83.3899380
5261,North Bay Drive,48324,42.5934148,-83.3891422
5241,North Bay Drive,48324,42.5936888,-83.3886775
5221,North Bay Drive,48324,42.5938486,-83.3881816
5201,North Bay Drive,48324,42.5940267,-83.3875973
5465,Possum Lane,48324,42.5897476,-83.3921492
5443,Possum Lane,48324,42.5897527,-83.3916464
5425,Possum Lane,48324,42.5897952,-83.3910533
5405,Possum Lane,48324,42.5897867,-83.3905723
5385,Possum Lane,48324,42.5896943,-83.3900800
3164,Bay Shore Drive,48324,42.5911041,-83.3907296
5499,Commerce Road,48324,42.5922559,-83.3926124
5460,Possum Lane,48324,42.5913084,-83.3922050
5446,Possum Lane,48324,42.5913224,-83.3916286
3134,Bay Shore Drive,48324,42.5913938,-83.3911047
3108,Bay Shore Drive,48324,42.5918136,-83.3913889
3080,Bay Shore Drive,48324,42.5921674,-83.3913565
3081,Bay Shore Drive,48324,42.5923842,-83.3902772
3061,Bay Shore Drive,48324,42.5926266,-83.3904353
3020,Bay Shore Drive,48324,42.5925712,-83.3912383
3051,Bay Shore Drive,48324,42.5928488,-83.3905380
3131,Bay Shore Drive,48324,42.5920684,-83.3897584
3147,Bay Shore Drive,48324,42.5918123,-83.3897429
3175,Bay Shore Drive,48324,42.5915423,-83.3894000
3235,Bay Shore Drive,48324,42.5912443,-83.3890244
3245,Bay Shore Drive,48324,42.5910965,-83.3887122
3265,Bay Shore Drive,48324,42.5908546,-83.3884381
3285,Bay Shore Drive,48324,42.5907407,-83.3880902
3305,Bay Shore Drive,48324,42.5905750,-83.3877128
3216,Bay Shore Drive,48324,42.5904786,-83.3895614
3254,Bay Shore Drive,48324,42.5902752,-83.3888129
3292,Bay Shore Drive,48324,42.5900649,-83.3880488
3499,West Shore Drive,48324,42.5867069,-83.3820788
3463,West Shore Drive,48324,42.5870376,-83.3820262
3421,West Shore Drive,48324,42.5875591,-83.3821215
3411,West Shore Drive,48324,42.5879903,-83.3820203
3401,West Shore Drive,48324,42.5884161,-83.3822551
3377,West Shore Drive,48324,42.5886723,-83.3824740
3333,West Shore Drive,48324,42.5890060,-83.3827764
3317,West Shore Drive,48324,42.5895333,-83.3835022
3309,West Shore Drive,48324,42.5897518,-83.3836421
3295,West Shore Drive,48324,42.5900848,-83.3837543
3281,West Shore Drive,48324,42.5903817,-83.3838984
3251,West Shore Drive,48324,42.5909532,-83.3841058
3201,West Shore Drive,48324,42.5898164,-83.3847636
3171,West Shore Drive,48324,42.5898326,-83.3852818
3151,West Shore Drive,48324,42.5897742,-83.3858421
3141,West Shore Drive,48324,42.5898351,-83.3863824
3121,West Shore Drive,48324,42.5901632,-83.3868856
3115,West Shore Drive,48324,42.5905481,-83.3872445
4790,Willow Lane,48324,42.5823519,-83.3779468
4800,Willow Lane,48324,42.5826591,-83.3772977
4812,Willow Lane,48324,42.5828681,-83.3773441
4825,Willow Lane,48324,42.5827163,-83.3781768
4824,Willow Lane,48324,42.5831023,-83.3773554
4840,Willow Lane,48324,42.5832568,-83.3775236
4848,Willow Lane,48324,42.5832043,-83.3778668
4863,Willow Lane,48324,42.5831929,-83.3784092
4875,Willow Lane,48324,42.5832990,-83.3785417
4858,Willow Lane,48324,42.5834677,-83.3778105
4868,Willow Lane,48324,42.5834962,-83.3780248
4876,Willow Lane,48324,42.5836306,-83.3782060
4890,Birchway Drive,48324,42.5836159,-83.3786142
4910,Birchway Drive,48324,42.5839213,-83.3789271
4930,Birchway Drive,48324,42.5840686,-83.3793259
4940,Birchway Drive,48324,42.5842394,-83.3795425
4950,Birchway Drive,48324,42.5845572,-83.3799356
4960,Birchway Drive,48324,42.5847860,-83.3803400
5220,Elmgate Drive,48324,42.5793528,-83.3884437
5236,Elmgate Drive,48324,42.5789339,-83.3883097
5250,Elmgate Drive,48324,42.5788695,-83.3878173
5266,Elmgate Drive,48324,42.5788644,-83.3873390
5282,Elmgate Drive,48324,42.5789611,-83.3868407
5300,Elmgate Drive,48324,42.5791661,-83.3864083
5295,Elmgate Drive,48324,42.5796127,-83.3863828
5271,Elmgate Drive,48324,42.5797680,-83.3869769
5243,Elmgate Drive,48324,42.5798500,-83.3875302
5211,Elmgate Drive,48324,42.5799365,-83.3881041
5150,Elmgate Drive,48324,42.5800816,-83.3891585
5019,Elmgate Drive,48324,42.5809931,-83.3887132
5011,Elmgate Drive,48324,42.5813320,-83.3884144
5003,Elmgate Drive,48324,42.5814966,-83.3880494
4993,Elmgate Drive,48324,42.5817128,-83.3877215
4969,Elmgate Drive,48324,42.5820126,-83.3871592
4951,Elmgate Drive,48324,42.5821348,-83.3864501
4949,Elmgate Drive,48324,42.5821907,-83.3858891
4931,Elmgate Drive,48324,42.5821351,-83.3852155
4923,Elmgate Drive,48324,42.5819457,-83.3846940
4915,Elmgate Drive,48324,42.5819039,-83.3842183
4901,Elmgate Drive,48324,42.5819117,-83.3836675
4940,Elmgate Drive,48324,42.5827630,-83.3840350
4920,Elmgate Drive,48324,42.5832000,-83.3839239
4910,Elmgate Drive,48324,42.5837207,-83.3838750
4904,Elmgate Drive,48324,42.5836602,-83.3828956
4900,Elmgate Drive,48324,42.5824910,-83.3831270
4898,Elmgate Drive,48324,42.5827565,-83.3826562
5025,Old Orchard Trail,48324,42.5841786,-83.3839911
5305,Elmgate Bay Drive,48324,42.5807810,-83.3896362
5325,Elmgate Bay Drive,48324,42.5806962,-83.3902250
5345,Elmgate Bay Drive,48324,42.5806007,-83.3909752
5360,Elmgate Bay Drive,48324,42.5814418,-83.3915937
3,Walnut Lane,48324,42.5819245,-83.3825874
2,Walnut Lane,48324,42.5816633,-83.3833003
1,Walnut Lane,48324,42.5814350,-83.3829427
4875,Old Orchard Trail,48324,42.5814792,-83.3822843
4851,Old Orchard Trail,48324,42.5810307,-83.3817991
4831,Old Orchard Trail,48324,42.5806054,-83.3813125
4825,Old Orchard Trail,48324,42.5804181,-83.3809649
4811,Old Orchard Trail,48324,42.5801909,-83.3806307
4791,Old Orchard Trail,48324,42.5799969,-83.3803767
4765,Old Orchard Trail,48324,42.5799278,-83.3797847
4780,Old Orchard Trail,48324,42.5805857,-83.3791473
4764,Old Orchard Trail,48324,42.5803501,-83.3788702
4754,Old Orchard Trail,48324,42.5802169,-83.3786890
4747,Old Orchard Trail,48324,42.5797275,-83.3789197
4669,Old Orchard Trail,48324,42.5780044,-83.3775236
4657,Twin Fawn Lane,48324,42.5783163,-83.3775038
4685,Old Orchard Trail,48324,42.5785965,-83.3777641
4705,Old Orchard Trail,48324,42.5789460,-83.3779320
4645,Twin Fawn Lane,48324,42.5786356,-83.3796360
4633,Twin Fawn Lane,48324,42.5782129,-83.3794948
4621,Twin Fawn Lane,48324,42.5778225,-83.3792646
4225,Pontiac Trail,48323,42.5765129,-83.3658525
4150,Pontiac Trail,48323,42.5777561,-83.3659370
4130,Pontiac Trail,48323,42.5779891,-83.3654993
4120,Pontiac Trail,48323,42.5782969,-83.3652694
4085,Pontiac Trail,48323,42.5781195,-83.3635197
4595,Old Orchard Trail,48324,42.5758117,-83.3736500
4551,Old Orchard Trail,48324,42.5753135,-83.3735043
4527,Old Orchard Trail,48324,42.5749325,-83.3733204
4505,Old Orchard Trail,48324,42.5745654,-83.3731535
4504,Old Orchard Trail,48324,42.5749941,-83.3722909
4501,Orchard Trail Court,48324,42.5753372,-83.3715995
4529,Orchard Trail Court,48324,42.5751851,-83.3725835
4356,Orchard Trail Court,48324,42.5758694,-83.3728699
4524,Orchard Trail Court,48324,42.5758428,-83.3724993
4512,Orchard Trail Court,48324,42.5759482,-83.3720945
4500,Orchard Trail Court,48324,42.5758060,-83.3715898
4470,Pontiac Trail,48323,42.5757960,-83.3711414
4450,Pontiac Trail,48323,42.5758586,-83.3706782
4400,Pontiac Trail,48323,42.5758979,-83.3702275
4360,Pontiac Trail,48323,42.5760400,-83.3696939
5400,Pontiac Trail,48323,42.5730042,-83.3899633
5460,Pontiac Trail,48323,42.5730407,-83.3915759
5500,Pontiac Trail,48323,42.5730224,-83.3923250
5600,Pontiac Trail,48323,42.5733844,-83.3929571
5652,Pontiac Trail,48323,42.5731497,-83.3935163
5700,Pontiac Trail,48323,42.5726595,-83.3957308
5720,Pontiac Trail,48323,42.5726167,-83.3962527
5752,Pontiac Trail,48323,42.5724973,-83.3967708
5800,Pontiac Trail,48323,42.5712834,-83.3973618
5812,Pontiac Trail,48323,42.5713042,-83.3979040
4415,Sunbeam Street,48323,42.5719285,-83.3971963
4414,Sunbeam Street,48323,42.5719921,-83.3978009
4424,Sunbeam Street,48323,42.5717505,-83.3977752
5780,Lakeview Street,48323,42.5725853,-83.3971833
5790,Lakeview Street,48323,42.5726471,-83.3974180
5808,Lakeview Street,48323,42.5726271,-83.3977262
5820,Lakeview Street,48323,42.5724779,-83.3979486
5844,Lakeview Street,48323,42.5724696,-83.3984999
5836,Lakeview Street,48323,42.5724876,-83.3983449
5828,Lakeview Street,48323,42.5724776,-83.3981842
4416,Pine Tree Lane,48323,42.5715134,-83.3989413
4402,Pine Tree Lane,48323,42.5720235,-83.3989514
4394,Pine Tree Lane,48323,42.5721696,-83.3989541
4380,Pine Tree Lane,48323,42.5723719,-83.3989509
4368,Pine Tree Lane,48323,42.5725726,-83.3990220
4358,Pine Tree Lane,48323,42.5727769,-83.3990374
4300,Pine Tree Lane,48323,42.5733411,-83.3990956
5930,Pontiac Trail,48323,42.5731629,-83.3995252
5940,Pontiac Trail,48323,42.5730058,-83.4000856
5994,Pontiac Trail,48323,42.5715862,-83.4012855
5980,Pontiac Trail,48323,42.5708315,-83.4007344
6000,Pontiac Trail,48323,42.5708434,-83.4013044
4060,Orchard Lake Road,48323,42.5810590,-83.3615135
5244,Trillium Court,48323,42.5725676,-83.3870948
5334,Trillium Court,48323,42.5729489,-83.3874344
5303,Trillium Court,48323,42.5741200,-83.3888976
5321,Trillium Court,48323,42.5742657,-83.3884367
5339,Trillium Court,48323,42.5744501,-83.3879762
5357,Trillium Court,48323,42.5746510,-83.3874896
5375,Trillium Court,48323,42.5747488,-83.3870309
5112,Deer Run Circle,48323,42.5725999,-83.3833530
5106,Deer Run Circle,48323,42.5720697,-83.3832635
5100,Deer Run Circle,48323,42.5721544,-83.3840598
5109,Deer Run Circle,48323,42.5726471,-83.3843663
5117,Deer Run Circle,48323,42.5732165,-83.3839761
5125,Deer Run Circle,48323,42.5736304,-83.3839829
5145,Deer Run Circle,48323,42.5740282,-83.3841383
5185,Deer Run Circle,48323,42.5740011,-83.3847837
5207,Deer Run Circle,48323,42.5735751,-83.3853325
5215,Deer Run Circle,48323,42.5730843,-83.3854310
5241,Deer Run Circle,48323,42.5726659,-83.3850326
5236,Deer Run Circle,48323,42.5722886,-83.3857201
5228,Deer Run Circle,48323,42.5724319,-83.3863923
5220,Deer Run Circle,48323,42.5728919,-83.3862750
5212,Deer Run Circle,48323,42.5734951,-83.3862371
5148,Deer Run Circle,48323,42.5751924,-83.3831531
5156,Deer Run Circle,48323,42.5751738,-83.3837077
5164,Deer Run Circle,48323,42.5750923,-83.3844152
5180,Deer Run Circle,48323,42.5751116,-83.3854440
5188,Deer Run Circle,48323,42.5750153,-83.3859753
5208,Deer Run Circle,48323,42.5749650,-83.3865375
4464,South Bay Drive,48323,42.5730634,-83.3808489
4424,Cranbrook Trail,48323,42.5735551,-83.3789895
4446,Cranbrook Trail,48323,42.5735340,-83.3782913
4480,Cranbrook Trail,48323,42.5730212,-83.3781968
4954,Hickory Pointe Drive,48323,42.5728505,-83.3790452
4479,South Bay Drive,48323,42.5728070,-83.3798492
4455,South Bay Drive,48323,42.5732233,-83.3798594
4427,South Bay Drive,48323,42.5736660,-83.3799512
4925,Hickory Pointe Drive,48323,42.5723419,-83.3782393
4951,Hickory Pointe Drive,48323,42.5722379,-83.3788431
4977,Hickory Pointe Drive,48323,42.5721126,-83.3794532
5003,Hickory Pointe Drive,48323,42.5720948,-83.3801658
5029,Hickory Pointe Drive,48323,42.5722902,-83.3808573
4471,Hidden Valley Drive,48323,42.5723495,-83.3816623
4495,Hidden Valley Drive,48323,42.5719799,-83.3816250
4494,Hidden Valley Drive,48323,42.5718976,-83.3825411
5087,Hickory Pointe Drive,48323,42.5724719,-83.3827767
5080,Hickory Pointe Drive,48323,42.5731126,-83.3822676
5098,Hickory Pointe Drive,48323,42.5736203,-83.3827662
5056,Hickory Pointe Drive,48323,42.5732479,-83.3813745
4430,South Bay Drive,48323,42.5735590,-83.3809235
4406,South Bay Drive,48323,42.5739774,-83.3810905
4382,South Bay Drive,48323,42.5741625,-83.3815800
4358,South Bay Drive,48323,42.5743667,-83.3821686
4334,South Bay Drive,48323,42.5746184,-83.3825893
4310,South Bay Drive,48323,42.5751942,-83.3824117
4339,South Bay Drive,48323,42.5751463,-83.3817923
4381,South Bay Drive,48323,42.5748512,-83.3812449
4401,South Bay Drive,48323,42.5747169,-83.3807724
4415,South Bay Drive,48323,42.5745867,-83.3802793
4405,Cranbrook Trail,48323,42.5743905,-83.3797928
4433,Cranbrook Trail,48323,42.5741661,-83.3786132
4447,Cranbrook Trail,48323,42.5741283,-83.3779221
4461,Cranbrook Trail,48323,42.5738396,-83.3773493
4475,Cranbrook Trail,48323,42.5733012,-83.3773070
4540,Arline Drive,48323,42.5710898,-83.3764295
4585,Arline Drive,48323,42.5710648,-83.3735449
4597,Pontiac Trail,48323,42.5721840,-83.3758826
4475,Arline Drive,48323,42.5722725,-83.3749966
4471,Arline Drive,48323,42.5722193,-83.3753453
4647,Pontiac Trail,48323,42.5726777,-83.3750787
4206,Woodlands Lane,48323,42.5740869,-83.3706105
4200,Woodlands Lane,48323,42.5742989,-83.3709553
4537,Cherry Hill Drive,48323,42.5727509,-83.3745653
4545,Cherry Hill Drive,48323,42.5730716,-83.3744088
4553,Cherry Hill Drive,48323,42.5732864,-83.3740556
4561,Cherry Hill Drive,48323,42.5734759,-83.3736861
4569,Cherry Hill Drive,48323,42.5735969,-83.3731934
4570,Cherry Hill Drive,48323,42.5733480,-83.3727789
4560,Cherry Hill Drive,48323,42.5728592,-83.3736236
4528,Cherry Hill Drive,48323,42.5725377,-83.3738780
4502,Cherry Hill Drive,48323,42.5724754,-83.3734627
4490,Cherry Hill Drive,48323,42.5726147,-83.3730303
4529,Cherry Hill Drive,48323,42.5723977,-83.3745854
4521,Cherry Hill Drive,48323,42.5721091,-83.3744444
4513,Cherry Hill Drive,48323,42.5719645,-83.3740379
4505,Cherry Hill Drive,48323,42.5719364,-83.3735340
4497,Cherry Hill Drive,48323,42.5719961,-83.3730638
4489,Cherry Hill Drive,48323,42.5721080,-83.3726507
4481,Cherry Hill Drive,48323,42.5722717,-83.3723030
4312,Hickory Court,48323,42.5724354,-83.3720105
4340,Hickory Court,48323,42.5722207,-83.3717371
4395,Hickory Court,48323,42.5722143,-83.3707017
4470,Cherry Hill Drive,48323,42.5728570,-83.3725671
4450,Cherry Hill Drive,48323,42.5731255,-83.3723539
4425,Cherry Hill Drive,48323,42.5731227,-83.3712989
4311,Hickory Court,48323,42.5728612,-83.3716019
4341,Hickory Court,48323,42.5727192,-83.3711871
4371,Hickory Court,48323,42.5725735,-83.3707991
4407,Cherry Hill Drive,48323,42.5731087,-83.3708781
4387,Cherry Hill Drive,48323,42.5729937,-83.3703938
4375,Cherry Hill Drive,48323,42.5730583,-83.3698724
4342,Meadow Lane,48323,42.5727545,-83.3698481
4370,Meadow Lane,48323,42.5725146,-83.3695196
4398,Meadow Lane,48323,42.5724784,-83.3690445
4345,Meadow Lane,48323,42.5727576,-83.3687656
4315,Cherry Hill Drive,48323,42.5732744,-83.3690773
4337,Cherry Hill Drive,48323,42.5732457,-83.3686242
4329,Cherry Hill Drive,48323,42.5731078,-83.3682383
4321,Cherry Hill Drive,48323,42.5729503,-83.3678826
4313,Cherry Hill Drive,48323,42.5729855,-83.3675056
4251,Pine Lane,48323,42.5745762,-83.3678958
4250,Pine Lane,48323,42.5743957,-83.3683659
4261,Woodlands Lane,48323,42.5743117,-83.3691822
4275,Woodlands Lane,48323,42.5738946,-83.3690220
4274,Pine Lane,48323,42.5740454,-83.3684702
4334,Cherry Hill Drive,48323,42.5737180,-83.3683735
4254,Cherry Hill Drive,48323,42.5749821,-83.3670167
4266,Cherry Hill Drive,48323,42.5745863,-83.3670079
4276,Cherry Hill Drive,48323,42.5742113,-83.3669315
4265,Pine Lane,48323,42.5742931,-83.3675018
4316,Cherry Hill Drive,48323,42.5735780,-83.3675932
4279,Pine Lane,48323,42.5739174,-83.3675803
4294,Cherry Hill Drive,48323,42.5737582,-83.3671071
4305,Cherry Hill Drive,48323,42.5731306,-83.3671623
4297,Cherry Hill Drive,48323,42.5733430,-83.3666563
4289,Cherry Hill Drive,48323,42.5736280,-83.3663989
4281,Cherry Hill Drive,48323,42.5739607,-83.3662846
4273,Cherry Hill Drive,48323,42.5743143,-83.3662772
4265,Cherry Hill Drive,48323,42.5746526,-83.3662687
4257,Cherry Hill Drive,48323,42.5750190,-83.3663000
4249,Cherry Hill Drive,48323,42.5754413,-83.3663323
4241,Cherry Hill Drive,48323,42.5757191,-83.3665738
4233,Cherry Hill Drive,48323,42.5760059,-83.3668461
4225,Cherry Hill Drive,48323,42.5761346,-83.3672725
4217,Cherry Hill Drive,48323,42.5759920,-83.3676346
4209,Cherry Hill Drive,48323,42.5759338,-83.3680155
4201,Cherry Hill Drive,48323,42.5756499,-83.3683755
4226,Cherry Hill Drive,48323,42.5753983,-83.3674312
4204,Cherry Hill Drive,48323,42.5751800,-83.3678628
4200,Cherry Hill Drive,48323,42.5749669,-83.3686248
4249,Woodlands Lane,48323,42.5747092,-83.3693012
4237,Woodlands Lane,48323,42.5749709,-83.3695241
4225,Woodlands Lane,48323,42.5749901,-83.3700623
4213,Woodlands Lane,48323,42.5748758,-83.3705435
4201,Woodlands Lane,48323,42.5746260,-83.3709725
4230,Woodlands Lane,48323,42.5743979,-83.3699437
4266,Woodlands Lane,48323,42.5740138,-83.3698046
4280,Woodlands Lane,48323,42.5736782,-83.3697095
4382,Cherry Hill Drive,48323,42.5735622,-83.3701044
4394,Cherry Hill Drive,48323,42.5736190,-83.3705298
4410,Cherry Hill Drive,48323,42.5736733,-83.3709610
4460,Cherry Hill Drive,48323,42.5743289,-83.3717395
4440,Cherry Hill Drive,48323,42.5740820,-83.3715308
4420,Cherry Hill Drive,48323,42.5737866,-83.3713746
4434,Cherry Hill Drive,48323,42.5734379,-83.3720412
4441,Cherry Hill Drive,48323,42.5737049,-83.3722008
4461,Cherry Hill Drive,48323,42.5739685,-83.3726234
4062,Harbor Vista Drive,48323,42.5800943,-83.3610733
4040,Harbor Vista Drive,48323,42.5803095,-83.3607875
4032,Harbor Vista Drive,48323,42.5805692,-83.3605473
4024,Harbor Vista Drive,48323,42.5808389,-83.3604394
4016,Harbor Vista Drive,48323,42.5810462,-83.3601823
4008,Harbor Vista Drive,48323,42.5813266,-83.3599402
4000,Harbor Vista Drive,48323,42.5816302,-83.3597589
4001,Harbor Vista Drive,48323,42.5813786,-83.3590615
4009,Harbor Vista Drive,48323,42.5811140,-83.3591716
4015,Harbor Vista Drive,48323,42.5808487,-83.3594641
4031,Harbor Vista Drive,48323,42.5803960,-83.3597780
4033,Harbor Vista Drive,48323,42.5801454,-83.3599447
4045,Harbor Vista Drive,48323,42.5798458,-83.3601666
4061,Harbor Vista Drive,48323,42.5795334,-83.3609756
4069,Harbor Vista Drive,48323,42.5795370,-83.3614893
3535,Commerce Road,48324,42.5946397,-83.3553731
5000,West Shore Drive,48324,42.5854652,-83.3887078
