House number,Street name,Postal code,Latitude,Longitude
637,North Main Street,48307,42.6845141,-83.1349488
345,Diversion Street,48307,42.6767034,-83.1341398
117,South Main Street,48307,42.6774227,-83.1339579
1005,Van Hoosen Road,48307,42.6955176,-83.1149054
607,woodward Avenue,48307,42.6884773,-83.1414531
333,North Hill Circle,48307,42.6913471,-83.1419616
1315,Oak Street,48307,42.6919750,-83.1378279
709,North Main Street,48307,42.6850993,-83.1344365
743,North Main Street,48307,42.6857460,-83.1342112
339,Walnut Boulevard,48307,42.6803121,-83.1355830
124,West 4th Street,48307,42.6808733,-83.1350375
146,South Main Street,48307,42.6779194,-83.1330655
133,South Main Street,48307,42.6779194,-83.1339694
139,South Main Street,48307,42.6781067,-83.1339895
103,South Street,48307,42.6753007,-83.1325612
100,West University Drive,48307,42.6822782,-83.1342845
138,South Main Street,48307,42.6781267,-83.1330681
500,North Main Street,48307,42.6822145,-83.1335856
400,South Main Street,48307,42.6808262,-83.1335355
439,South Main Street,48307,42.6819069,-83.1335537
434,South Main Street,48307,42.6817387,-83.1335509
426,South Main Street,48307,42.6815147,-83.1335471
100,West University Drive,48307,42.6824053,-83.1343670
1031,North Main Street,48307,42.6887122,-83.1343945
1031,North Main Street,48307,42.6886387,-83.1345682
418,South Main Street,48307,42.6813240,-83.1335439
415,South Main Street,48307,42.6811827,-83.1340572
419,South Main Street,48307,42.6812522,-83.1340588
335,South Main Street,48307,42.6804382,-83.1340428
430,South Main Street,48307,42.6816771,-83.1335499
439,South Main Street,48307,42.6818834,-83.1340686
950,West University Drive,48307,42.6823765,-83.1450366
205,South Main Street,48307,42.6784342,-83.1340050
601,Quarter Street,48307,42.6745411,-83.1399819
522,Renshaw Street,48307,42.6757198,-83.1401588
625,Renshaw Street,48307,42.6751984,-83.1411494
215,Hacker Street,48307,42.6751492,-83.1389161
211,Hacker Street,48307,42.6752132,-83.1389269
205,Hacker Street,48307,42.6753689,-83.1389483
201,Hacker Street,48307,42.6754695,-83.1389724
185,Fraser Street,48307,42.6753433,-83.1380529
189,Fraser Street,48307,42.6754123,-83.1380555
235,North Helen Avenue,48307,42.6784980,-83.1460437
923,Roselawn Drive,48307,42.6780604,-83.1452487
505,West 3rd Street,48307,42.6790785,-83.1388424
531,West 3rd Street,48307,42.6790637,-83.1400113
365,South Street,48307,42.6772593,-83.1250182
239,South Street,48307,42.6761534,-83.1294615
234,South Street,48307,42.6754096,-83.1293043
198,South Street,48307,42.6748604,-83.1319307
203,South Street,48307,42.6756676,-83.1311704
210,Diversion Street,48307,42.6747500,-83.1341158
333,South Main Street,48307,42.6803777,-83.1340433
331,South Main Street,48307,42.6803283,-83.1340413
329,South Main Street,48307,42.6802721,-83.1340390
327,South Main Street,48307,42.6801968,-83.1340359
323,South Main Street,48307,42.6800805,-83.1340311
319,South Main Street,48307,42.6799929,-83.1340279
315,South Main Street,48307,42.6799227,-83.1340247
313,South Main Street,48307,42.6798418,-83.1340214
311,South Main Street,48307,42.6797786,-83.1340188
309,South Main Street,48307,42.6797322,-83.1340169
307,South Main Street,48307,42.6796718,-83.1340144
303,South Main Street,48307,42.6796008,-83.1340115
235,South Main Street,48307,42.6791711,-83.1341412
223,South Main Street,48307,42.6789218,-83.1340152
209,South Main Street,48307,42.6787089,-83.1339951
423,South Main Street,48307,42.6808582,-83.1340501
413,South Main Street,48307,42.6811230,-83.1340559
409,South Main Street,48307,42.6810403,-83.1340541
407,South Main Street,48307,42.6809891,-83.1340530
405,South Main Street,48307,42.6809349,-83.1340518
411,South Main Street,48307,42.6810856,-83.1340551
423,South Main Street,48307,42.6813715,-83.1340614
425,South Main Street,48307,42.6814889,-83.1340640
429,South Main Street,48307,42.6815757,-83.1340659
431,South Main Street,48307,42.6816800,-83.1340682
435,South Main Street,48307,42.6817885,-83.1340706
116,West 4th Street,48307,42.6808819,-83.1347874
308,West 3rd Street,48307,42.6795585,-83.1366375
1100,West University Drive,48307,42.6822635,-83.1471255
446,6th Street,48307,42.6832399,-83.1391909
1244,Pine Knoll Lane,48307,42.6917926,-83.1358596
1238,Pine Knoll Lane,48307,42.6917946,-83.1360447
1232,Pine Knoll Lane,48307,42.6917828,-83.1362888
1226,North Pine Street,48307,42.6916369,-83.1366402
1220,North Pine Street,48307,42.6917847,-83.1366429
147,North Lane,48307,42.6922461,-83.1360796
120,East University Drive,48307,42.6818991,-83.1329173
130,East University Drive,48307,42.6819089,-83.1326812
303,East University Drive,48307,42.6816861,-83.1311926
301,East 3rd Street,48307,42.6798109,-83.1308305
339,East 4th Street,48307,42.6806253,-83.1324747
211,East 3rd Street,48307,42.6796591,-83.1317612
200,South Main Street,48307,42.6783876,-83.1334482
204,South Main Street,48307,42.6784748,-83.1334435
220,South Main Street,48307,42.6786271,-83.1334495
120,East 3rd Street,48307,42.6792674,-83.1326697
126,East 3rd Street,48307,42.6792709,-83.1325003
375,East 2nd Street,48307,42.6800337,-83.1281858
333,East 2nd Street,48307,42.6800219,-83.1288054
340,Mill Street,48307,42.6783064,-83.1299293
320,East 2nd Street,48307,42.6791484,-83.1297281
114,East 4th Street,48307,42.6806075,-83.1331801
340,South Main Street,48307,42.6805981,-83.1335206
304,South Main Street,48307,42.6805202,-83.1335193
306,South Main Street,48307,42.6804699,-83.1335185
308,South Main Street,48307,42.6801014,-83.1335124
312,South Main Street,48307,42.6797752,-83.1335071
334,South Main Street,48307,42.6797013,-83.1335059
336,South Main Street,48307,42.6796185,-83.1335045
114,South Main Street,48307,42.6795347,-83.1335032
436,South Main Street,48307,42.6818259,-83.1335524
420,South Main Street,48307,42.6814209,-83.1335455
428,South Main Street,48307,42.6815943,-83.1335485
412,South Main Street,48307,42.6812169,-83.1335421
408,South Main Street,48307,42.6810789,-83.1335398
406,South Main Street,48307,42.6809903,-83.1335383
404,South Main Street,48307,42.6808917,-83.1335366
330,Terry Avenue,48307,42.6885317,-83.1303370
342,Terry Avenue,48307,42.6885436,-83.1299078
737,Elizabeth Street,48307,42.6852099,-83.1276934
824,Miller Avenue,48307,42.6873823,-83.1238246
846,Miller Avenue,48307,42.6879324,-83.1237495
362,South Street,48307,42.6753371,-83.1257875
800,1st Street,48307,42.6775891,-83.1423812
570,East Tienken Road,48306,42.6943217,-83.1221858
451,East Street,48307,42.6812585,-83.1326921
414,Walnut Boulevard,48307,42.6813509,-83.1349730
600,East University Drive,48307,42.6815168,-83.1288289
333,North Hill Circle,48307,42.6922155,-83.1435175
500,East 2nd Street,48307,42.6793176,-83.1252514
400,Water Street,48307,42.6804951,-83.1311824
777,Great Oaks Boulevard,48307,42.6893583,-83.1532031
1101,West University Drive,48307,42.6794271,-83.1491584
1315,North Pine Street,48307,42.6920113,-83.1375863
500,Olde Towne Road,48307,42.6837239,-83.1304419
511,Olde Towne Road,48307,42.6829854,-83.1315691
216,South Street,48307,42.6747963,-83.1302341
228,South Street,48307,42.6750744,-83.1298101
223,South Street,48307,42.6760421,-83.1298595
217,South Street,48307,42.6759069,-83.1303450
202,South Street,48307,42.6751776,-83.1306448
310,South Street,48307,42.6755822,-83.1277693
328,South Street,48307,42.6753513,-83.1271980
300,South Street,48307,42.6749895,-83.1285095
92,Mill Street,48307,42.6770579,-83.1323783
112,Walnut Boulevard,48307,42.6771388,-83.1347958
200,Elizabeth Street,48307,42.6808236,-83.1271364
251,Diversion Street,48307,42.6752784,-83.1340294
101,South Main Street,48307,42.6770554,-83.1340507
511,North Main Street,48307,42.6826492,-83.1342907
613,North Main Street,48307,42.6838519,-83.1341876
621,North Main Street,48307,42.6842007,-83.1341741
118,Walnut Boulevard,48307,42.6774030,-83.1349234
130,Walnut Boulevard,48307,42.6778716,-83.1349010
226,Walnut Boulevard,48307,42.6790336,-83.1349285
234,Walnut Boulevard,48307,42.6792110,-83.1348534
302,Walnut Boulevard,48307,42.6795239,-83.1350020
316,Walnut Boulevard,48307,42.6797882,-83.1349354
326,Walnut Boulevard,48307,42.6801562,-83.1348921
117,West 4th Street,48307,42.6805595,-83.1346792
113,West University Drive,48307,42.6818198,-83.1347783
127,West University Drive,48307,42.6818267,-83.1350475
210,West University Drive,48307,42.6824109,-83.1358556
530,Pine Street,48307,42.6828644,-83.1358855
213,West University Drive,48307,42.6817512,-83.1358294
429,Walnut Boulevard,48307,42.6815956,-83.1357836
425,Walnut Boulevard,48307,42.6814796,-83.1356991
421,Walnut Boulevard,48307,42.6813354,-83.1357121
415,Walnut Boulevard,48307,42.6811618,-83.1356655
401,Walnut Boulevard,48307,42.6808750,-83.1357140
44,Mill Street,48307,42.6768096,-83.1331285
280,Mill Street,48307,42.6771953,-83.1315466
81,Mill Street,48307,42.6775643,-83.1324408
259,Mill Street,48307,42.6776392,-83.1309375
180,East 2nd Street,48307,42.6780892,-83.1315905
200,East 2nd Street,48307,42.6781041,-83.1311802
265,East 2nd Street,48307,42.6787588,-83.1314904
255,East 2nd Street,48307,42.6787253,-83.1321463
194,South Elizabeth Street,48307,42.6785452,-83.1275424
150,South Elizabeth Street,48307,42.6787477,-83.1277283
380,East 2nd Street,48307,42.6792237,-83.1274635
440,East 2nd Street,48307,42.6792435,-83.1269305
480,East 2nd Street,48307,42.6791114,-83.1260558
226,South Main Street,48307,42.6790113,-83.1333111
510,North Main Street,48307,42.6824788,-83.1334202
111,East University Drive,48307,42.6823204,-83.1333374
113,East University Drive,48307,42.6823408,-83.1332033
203,East University Drive,48307,42.6823345,-83.1321660
528,North Main Street,48307,42.6827927,-83.1333953
600,North Main Street,48307,42.6830916,-83.1335214
606,North Main Street,48307,42.6834643,-83.1332837
314,East Street,48307,42.6800856,-83.1319354
330,East 4th Street,48307,42.6805897,-83.1320909
321,East 2nd Street,48307,42.6804777,-83.1292275
417,East 2nd Street,48307,42.6799893,-83.1265370
450,Baldwin Avenue,48307,42.6805322,-83.1254514
111,North Lane,48307,42.6922408,-83.1352569
400,6th Street,48307,42.6833564,-83.1373846
1101,1st Street,48307,42.6750655,-83.1486347
71,Walnut Boulevard,48307,42.6770850,-83.1355976
210,1st Street,48307,42.6769122,-83.1358720
214,1st Street,48307,42.6768685,-83.1360805
220,1st Street,48307,42.6768688,-83.1362958
226,1st Street,48307,42.6768418,-83.1365200
230,1st Street,48307,42.6769086,-83.1366936
119,Walnut Boulevard,48307,42.6773988,-83.1358274
115,Walnut Boulevard,48307,42.6774005,-83.1355734
121,Walnut Boulevard,48307,42.6775527,-83.1355420
125,Walnut Boulevard,48307,42.6777153,-83.1355512
1141,Wilcox Street,48307,42.6904550,-83.1415231
137,North Alice Avenue,48307,42.6771954,-83.1472200
131,North Alice Avenue,48307,42.6770614,-83.1472242
129,North Alice Avenue,48307,42.6769204,-83.1471997
630,North Main Street,48307,42.6845308,-83.1335255
727,North Main Street,48307,42.6854172,-83.1343055
128,North Alice Avenue,48307,42.6769545,-83.1466319
870,Parkdale Avenue,48307,42.6849197,-83.1160596
303,East 3rd Street,48307,42.6805169,-83.1300898
118,West 3rd Street,48307,42.6795393,-83.1346124
114,West 3rd Street,48307,42.6795388,-83.1348030
125,East 3rd Street,48307,42.6796857,-83.1324839
234,South Main Street,48307,42.6792559,-83.1334097
112,East 2nd Street,48307,42.6780060,-83.1324229
203,Walnut Boulevard,48307,42.6783645,-83.1356152
311,Walnut Boulevard,48307,42.6797402,-83.1356805
500,East University Drive,48307,42.6817790,-83.1300536
1385,Mahaffy Avenue,48307,42.6932487,-83.1321126
620,Romeo Street,48307,42.6887854,-83.1247452
1200,Parkdale Avenue,48307,42.6866636,-83.1111948
790,Letica Drive,48307,42.6865675,-83.1202204
650,Woodward Avenue,48307,42.6891777,-83.1417010
432,West University Drive,48307,42.6826588,-83.1389776
177,Albertson Street,48307,42.6856379,-83.1370174
175,Albertson Street,48307,42.6856431,-83.1368628
169,Albertson Street,48307,42.6856507,-83.1366979
165,Albertson Street,48307,42.6856350,-83.1365242
161,Albertson Street,48307,42.6856262,-83.1363445
155,Albertson Street,48307,42.6856205,-83.1361846
151,Albertson Street,48307,42.6856554,-83.1360272
147,Albertson Street,48307,42.6856679,-83.1358749
143,Albertson Street,48307,42.6856641,-83.1357112
139,Albertson Street,48307,42.6856588,-83.1355349
135,Albertson Street,48307,42.6856657,-83.1353759
129,Albertson Street,48307,42.6856873,-83.1352249
125,Albertson Street,48307,42.6857336,-83.1349909
121,Albertson Street,48307,42.6857179,-83.1347832
116,Albertson Street,48307,42.6861066,-83.1348795
122,Albertson Street,48307,42.6860738,-83.1350547
128,Albertson Street,48307,42.6860540,-83.1352325
132,Albertson Street,48307,42.6860693,-83.1354209
140,Albertson Street,48307,42.6860537,-83.1355856
146,Albertson Street,48307,42.6860557,-83.1358085
152,Albertson Street,48307,42.6860408,-83.1359945
156,Albertson Street,48307,42.6860368,-83.1361778
160,Albertson Street,48307,42.6860545,-83.1363627
164,Albertson Street,48307,42.6860363,-83.1365550
803,North Pine Street,48307,42.6860264,-83.1369629
815,North Pine Street,48307,42.6862359,-83.1369876
326,Albertson Street,48307,42.6861523,-83.1377844
312,Albertson Street,48307,42.6860485,-83.1373294
823,North Pine Street,48307,42.6864434,-83.1369592
825,North Pine Street,48307,42.6866418,-83.1369270
311,Griggs Street,48307,42.6866264,-83.1372496
315,Griggs Street,48307,42.6865950,-83.1374468
323,Griggs Street,48307,42.6865903,-83.1376899
329,Griggs Street,48307,42.6865832,-83.1378469
333,Griggs Street,48307,42.6865615,-83.1380606
337,Griggs Street,48307,42.6865657,-83.1382402
341,Griggs Street,48307,42.6865387,-83.1384369
345,Griggs Street,48307,42.6865839,-83.1386299
157,Griggs Street,48307,42.6865844,-83.1365466
153,Griggs Street,48307,42.6866501,-83.1363747
147,Griggs Street,48307,42.6866865,-83.1361876
141,Griggs Street,48307,42.6866514,-83.1359925
137,Griggs Street,48307,42.6866697,-83.1358044
133,Griggs Street,48307,42.6866443,-83.1356387
129,Griggs Street,48307,42.6866791,-83.1354387
125,Griggs Street,48307,42.6867211,-83.1352569
121,Griggs Street,48307,42.6867067,-83.1350799
117,Griggs Street,48307,42.6867172,-83.1349014
348,Griggs Street,48307,42.6869839,-83.1386586
344,Griggs Street,48307,42.6869728,-83.1384130
338,Griggs Street,48307,42.6869834,-83.1382389
332,Griggs Street,48307,42.6869985,-83.1380575
326,Griggs Street,48307,42.6869743,-83.1378450
322,Griggs Street,48307,42.6870582,-83.1376953
318,Griggs Street,48307,42.6870361,-83.1375111
312,Griggs Street,48307,42.6870421,-83.1373099
308,Griggs Street,48307,42.6870113,-83.1371297
302,Griggs Street,48307,42.6870343,-83.1369657
156,Griggs Street,48307,42.6870665,-83.1365809
150,Griggs Street,48307,42.6870593,-83.1364070
146,Griggs Street,48307,42.6870313,-83.1362102
142,Griggs Street,48307,42.6870769,-83.1360098
136,Griggs Street,48307,42.6870861,-83.1358206
132,Griggs Street,48307,42.6870759,-83.1356455
130,Griggs Street,48307,42.6870742,-83.1354619
124,Griggs Street,48307,42.6871314,-83.1352685
120,Griggs Street,48307,42.6871193,-83.1351049
116,Griggs Street,48307,42.6870864,-83.1349202
341,Drace Street,48307,42.6875783,-83.1388064
337,Drace Street,48307,42.6876008,-83.1385240
331,Drace Street,48307,42.6875788,-83.1382732
327,Drace Street,48307,42.6875574,-83.1380836
319,Drace Street,48307,42.6875503,-83.1379276
317,Drace Street,48307,42.6876399,-83.1377217
315,Drace Street,48307,42.6876194,-83.1375568
311,Drace Street,48307,42.6876381,-83.1373320
307,Drace Street,48307,42.6876128,-83.1371764
301,Drace Street,48307,42.6876814,-83.1370067
157,Drace Street,48307,42.6876834,-83.1366029
151,Drace Street,48307,42.6876496,-83.1364349
147,Drace Street,48307,42.6876659,-83.1362294
143,Drace Street,48307,42.6876882,-83.1360596
139,Drace Street,48307,42.6876875,-83.1358491
135,Drace Street,48307,42.6877059,-83.1356698
131,Drace Street,48307,42.6876837,-83.1354879
127,Drace Street,48307,42.6877341,-83.1352990
123,Drace Street,48307,42.6876690,-83.1351376
117,Drace Street,48307,42.6877028,-83.1349432
346,Drace Street,48307,42.6879872,-83.1386678
336,Drace Street,48307,42.6879893,-83.1384951
332,Drace Street,48307,42.6879943,-83.1382974
326,Drace Street,48307,42.6880057,-83.1380834
322,Drace Street,48307,42.6879980,-83.1379211
318,Drace Street,48307,42.6879866,-83.1377155
314,Drace Street,48307,42.6879936,-83.1375211
310,Drace Street,48307,42.6880331,-83.1373556
306,Drace Street,48307,42.6880270,-83.1371769
302,Drace Street,48307,42.6882095,-83.1370150
122,Drace Street,48307,42.6880969,-83.1351564
128,Drace Street,48307,42.6881111,-83.1353347
132,Drace Street,48307,42.6880654,-83.1355326
134,Drace Street,48307,42.6880800,-83.1357002
136,Drace Street,48307,42.6880911,-83.1358393
833,Cumberland Ridge Court,48307,42.6750649,-83.1443559
812,Cumberland Ridge Court,48307,42.6755250,-83.1436810
806,Cumberland Ridge Court,48307,42.6755246,-83.1434891
818,Cumberland Ridge Court,48307,42.6755084,-83.1438734
824,Cumberland Ridge Court,48307,42.6755084,-83.1440644
830,Cumberland Ridge Court,48307,42.6755144,-83.1442521
836,Cumberland Ridge Court,48307,42.6755161,-83.1444489
842,Cumberland Ridge Court,48307,42.6755366,-83.1446375
848,Cumberland Ridge Court,48307,42.6754684,-83.1448922
852,Cumberland Ridge Court,48307,42.6752521,-83.1449202
870,Cumberland Ridge Court,48307,42.6748278,-83.1449323
858,Cumberland Ridge Court,48307,42.6751154,-83.1449120
864,Cumberland Ridge Court,48307,42.6749841,-83.1449270
876,Cumberland Ridge Court,48307,42.6746902,-83.1449516
882,Cumberland Ridge Court,48307,42.6745419,-83.1449100
821,Cumberland Ridge Court,48307,42.6750754,-83.1439511
885,Cumberland Ridge Court,48307,42.6745583,-83.1441052
879,Cumberland Ridge Court,48307,42.6746968,-83.1440751
873,Cumberland Ridge Court,48307,42.6748331,-83.1441061
827,Cumberland Ridge Court,48307,42.6750797,-83.1441535
128,South Castell Avenue,48307,42.6750513,-83.1436160
226,South Castell Avenue,48307,42.6745785,-83.1435371
214,South Castell Avenue,48307,42.6748757,-83.1435192
220,South Castell Avenue,48307,42.6747291,-83.1435516
1021,Fairview Avenue,48307,42.6771631,-83.1466221
266,South Castell Avenue,48307,42.6741260,-83.1435996
260,South Castell Avenue,48307,42.6744164,-83.1435909
264,South Castell Avenue,48307,42.6742749,-83.1435581
838,Harding Avenue,48307,42.6743040,-83.1448649
820,Harding Avenue,48307,42.6742288,-83.1441660
814,Harding Avenue,48307,42.6742390,-83.1439688
832,Harding Avenue,48307,42.6743009,-83.1446253
844,Harding Avenue,48307,42.6742936,-83.1450828
826,Harding Avenue,48307,42.6743006,-83.1443804
1001,1st Street,48307,42.6757272,-83.1459780
1009,1st Street,48307,42.6757292,-83.1463828
1013,1st Street,48307,42.6757445,-83.1466377
107,South Alice Avenue,48307,42.6755685,-83.1466958
1005,1st Street,48307,42.6757410,-83.1461958
101,Helen Street,48307,42.6756861,-83.1455563
909,1st Street,48307,42.6757430,-83.1453218
905,1st Street,48307,42.6757703,-83.1449400
901,1st Street,48307,42.6757617,-83.1445032
819,1st Street,48307,42.6758002,-83.1441516
813,1st Street,48307,42.6758265,-83.1437326
807,1st Street,48307,42.6758154,-83.1434565
210,Campbell Street,48307,42.6750496,-83.1375862
301,Hacker Street,48307,42.6746357,-83.1387673
464,Helmand,48307,42.6739655,-83.1415993
620,Helmand,48307,42.6740244,-83.1410880
629,Quarter Street,48307,42.6743508,-83.1415073
603,Quarter Street,48307,42.6744618,-83.1405634
609,Quarter Street,48307,42.6744204,-83.1407334
611,Quarter Street,48307,42.6744408,-83.1409338
619,Quarter Street,48307,42.6743944,-83.1411289
625,Quarter Street,48307,42.6743843,-83.1412996
633,Quarter Street,48307,42.6743294,-83.1417287
305,South Castell Avenue,48307,42.6741338,-83.1429531
301,South Castell Avenue,48307,42.6742445,-83.1429678
719,Quarter Street,48307,42.6742775,-83.1424967
709,Quarter Street,48307,42.6742927,-83.1423009
703,Quarter Street,48307,42.6742962,-83.1421073
227,South Castell Avenue,48307,42.6745552,-83.1430165
221,South Castell Avenue,48307,42.6747244,-83.1429859
702,Quarter Street,48307,42.6746711,-83.1421033
718,Quarter Street,48307,42.6746805,-83.1425004
708,Quarter Street,48307,42.6746697,-83.1422996
717,Renshaw Street,48307,42.6750831,-83.1424718
729,Renshaw Street,48307,42.6749915,-83.1430500
725,Renshaw Street,48307,42.6750368,-83.1428625
721,Renshaw Street,48307,42.6750418,-83.1426884
709,Renshaw Street,48307,42.6750933,-83.1423130
701,Renshaw Street,48307,42.6750790,-83.1421120
703,1st Street,48307,42.6759416,-83.1420831
730,Renshaw Street,48307,42.6754149,-83.1430285
726,Renshaw Street,48307,42.6754473,-83.1428680
722,Renshaw Street,48307,42.6754239,-83.1426863
716,Renshaw Street,48307,42.6754616,-83.1424651
710,Renshaw Street,48307,42.6754477,-83.1422970
708,Renshaw Street,48307,42.6754645,-83.1420886
709,1st Street,48307,42.6758838,-83.1423076
715,1st Street,48307,42.6759021,-83.1424598
111,South Castell Avenue,48307,42.6757147,-83.1429855
103,South Castell Avenue,48307,42.6758619,-83.1429491
115,South Helen Avenue,48307,42.6753122,-83.1455162
119,South Helen Avenue,48307,42.6751734,-83.1455395
111,South Helen Avenue,48307,42.6754488,-83.1455443
110,South Helen Avenue,48307,42.6754370,-83.1460397
114,South Helen Avenue,48307,42.6753015,-83.1460383
118,South Helen Avenue,48307,42.6751639,-83.1460577
122,South Helen Avenue,48307,42.6750272,-83.1460343
126,South Helen Avenue,48307,42.6748905,-83.1460456
204,South Helen Avenue,48307,42.6747535,-83.1460598
203,South Helen Avenue,48307,42.6747625,-83.1455193
123,South Helen Avenue,48307,42.6750383,-83.1455314
127,South Helen Avenue,48307,42.6748968,-83.1454921
207,South Helen Avenue,48307,42.6746366,-83.1455404
211,South Helen Avenue,48307,42.6744903,-83.1455617
215,South Helen Avenue,48307,42.6743386,-83.1455598
219,South Helen Avenue,48307,42.6741927,-83.1455437
223,South Helen Avenue,48307,42.6740670,-83.1455397
220,South Helen Avenue,48307,42.6741996,-83.1460564
208,South Helen Avenue,48307,42.6746145,-83.1460470
212,South Helen Avenue,48307,42.6744775,-83.1460537
216,South Helen Avenue,48307,42.6743410,-83.1460551
224,South Alice Avenue,48307,42.6740138,-83.1472508
220,South Alice Avenue,48307,42.6741789,-83.1472526
216,South Alice Avenue,48307,42.6743146,-83.1472520
212,South Alice Avenue,48307,42.6744618,-83.1472266
208,South Alice Avenue,48307,42.6746061,-83.1472280
219,South Alice Avenue,48307,42.6741823,-83.1467012
215,South Alice Avenue,48307,42.6743321,-83.1467059
211,South Alice Avenue,48307,42.6744721,-83.1467032
207,South Alice Avenue,48307,42.6746041,-83.1466884
203,South Alice Avenue,48307,42.6747357,-83.1466912
127,South Alice Avenue,48307,42.6748830,-83.1467025
123,South Alice Avenue,48307,42.6750112,-83.1466824
119,South Alice Avenue,48307,42.6751546,-83.1466979
115,South Alice Avenue,48307,42.6752950,-83.1466971
111,South Alice Avenue,48307,42.6754315,-83.1466971
204,South Alice Avenue,48307,42.6747495,-83.1472395
126,South Alice Avenue,48307,42.6748949,-83.1472456
118,South Alice Avenue,48307,42.6751846,-83.1472380
110,South Alice Avenue,48307,42.6754713,-83.1472361
122,South Alice Avenue,48307,42.6750304,-83.1472394
114,South Alice Avenue,48307,42.6753162,-83.1472380
102,South Alice Avenue,48307,42.6757607,-83.1472679
106,South Alice Avenue,48307,42.6756047,-83.1472313
233,1st Street,48307,42.6764705,-83.1364536
120,Campbell Street,48307,42.6762442,-83.1372157
319,1st Street,48307,42.6763777,-83.1376916
329,1st Street,48307,42.6763131,-83.1381207
320,Heil Street,48307,42.6760254,-83.1376677
328,Heil Street,48307,42.6759563,-83.1380583
122,Campbell Street,48307,42.6757597,-83.1372204
329,Heil Street,48307,42.6756547,-83.1376131
197,Fraser Street,48307,42.6756117,-83.1380190
403,1st Street,48307,42.6762575,-83.1386299
409,1st Street,48307,42.6762176,-83.1389063
105,Hacker Street,48307,42.6759297,-83.1389769
102,Fraser Street,48307,42.6760214,-83.1385629
106,Fraser Street,48307,42.6758724,-83.1385416
109,Fraser Street,48307,42.6757276,-83.1385721
109,Hacker Street,48307,42.6756818,-83.1389427
118,Fraser Street,48307,42.6754990,-83.1385301
200,Fraser Street,48307,42.6753068,-83.1385363
214,Fraser Street,48307,42.6750665,-83.1385417
219,Hacker Street,48307,42.6749677,-83.1389109
601,1st Street,48307,42.6760431,-83.1405934
609,1st Street,48307,42.6760168,-83.1407775
615,1st Street,48307,42.6760067,-83.1409558
623,1st Street,48307,42.6759778,-83.1411720
629,1st Street,48307,42.6759701,-83.1415632
625,1st Street,48307,42.6759780,-83.1413431
633,1st Street,48307,42.6759335,-83.1417178
644,Renshaw Street,48307,42.6755510,-83.1417101
634,Renshaw Street,48307,42.6755343,-83.1415038
624,Renshaw Street,48307,42.6755682,-83.1413298
620,Renshaw Street,48307,42.6755742,-83.1411468
614,Renshaw Street,48307,42.6755714,-83.1409567
610,Renshaw Street,48307,42.6756441,-83.1407759
604,Renshaw Street,48307,42.6756587,-83.1405683
516,Renshaw Street,48307,42.6756951,-83.1397221
503,1st Street,48307,42.6761401,-83.1393506
509,1st Street,48307,42.6761530,-83.1395328
513,1st Street,48307,42.6761447,-83.1397044
521,1st Street,48307,42.6760711,-83.1400564
525,1st Street,48307,42.6760865,-83.1402547
518,Renshaw Street,48307,42.6757307,-83.1398846
512,Renshaw Street,48307,42.6756917,-83.1394899
506,Renshaw Street,48307,42.6757755,-83.1393395
517,Renshaw Street,48307,42.6753013,-83.1398540
502,Quarter Street,48307,42.6749889,-83.1392841
504,Quarter Street,48307,42.6749348,-83.1394657
508,Quarter Street,48307,42.6749102,-83.1396246
512,Quarter Street,48307,42.6749023,-83.1398598
522,Quarter Street,48307,42.6748855,-83.1400429
526,Quarter Street,48307,42.6749066,-83.1401951
200,Hacker Street,48307,42.6753424,-83.1393197
509,Renshaw Street,48307,42.6753655,-83.1395000
513,Renshaw Street,48307,42.6753302,-83.1396765
523,Renshaw Street,48307,42.6752996,-83.1400352
527,Renshaw Street,48307,42.6753247,-83.1402413
633,Renshaw Street,48307,42.6751819,-83.1417090
629,Renshaw Street,48307,42.6751295,-83.1415167
624,Quarter Street,48307,42.6748896,-83.1413348
610,Quarter Street,48307,42.6748049,-83.1407468
222,West Street,48307,42.6748099,-83.1405442
620,Quarter Street,48307,42.6747640,-83.1411245
614,Quarter Street,48307,42.6747978,-83.1409577
603,Renshaw Street,48307,42.6752982,-83.1405683
628,Quarter Street,48307,42.6747795,-83.1415281
632,Quarter Street,48307,42.6747382,-83.1416984
627,Renshaw Street,48307,42.6751773,-83.1413498
609,Renshaw Street,48307,42.6752208,-83.1407822
619,Renshaw Street,48307,42.6752220,-83.1409282
211,Walnut Boulevard,48307,42.6785267,-83.1357451
409,West 2nd Street,48307,42.6779708,-83.1376839
403,West 2nd Street,48307,42.6779889,-83.1374261
139,Walnut Boulevard,48307,42.6780382,-83.1356038
217,West 2nd Street,48307,42.6779516,-83.1361214
303,West 2nd Street,48307,42.6780284,-83.1363097
309,West 2nd Street,48307,42.6779466,-83.1365632
327,West 2nd Street,48307,42.6779634,-83.1371937
321,West 2nd Street,48307,42.6779732,-83.1369979
215,West 2nd Street,48307,42.6780235,-83.1359168
133,Walnut Boulevard,48307,42.6778477,-83.1355673
236,1st Street,48307,42.6768145,-83.1369098
211,1st Street,48307,42.6765780,-83.1350857
917,Fairview Avenue,48307,42.6771656,-83.1450681
923,Fairview Avenue,48307,42.6771606,-83.1452690
931,Fairview Avenue,48307,42.6771779,-83.1456000
927,Fairview Avenue,48307,42.6771454,-83.1454491
913,Fairview Avenue,48307,42.6771819,-83.1448968
907,Fairview Avenue,48307,42.6771666,-83.1447038
903,Fairview Avenue,48307,42.6771126,-83.1445262
115,Taylor Avenue,48307,42.6764333,-83.1447182
118,North Helen Avenue,48307,42.6765141,-83.1455647
126,North Helen Avenue,48307,42.6767373,-83.1454805
114,North Helen Avenue,48307,42.6764032,-83.1455759
122,North Helen Avenue,48307,42.6766279,-83.1454130
130,North Helen Avenue,48307,42.6768448,-83.1454230
127,Taylor Avenue,48307,42.6767347,-83.1445784
123,Taylor Avenue,48307,42.6766255,-83.1445705
119,Taylor Avenue,48307,42.6765192,-83.1446679
908,1st Street,48307,42.6761378,-83.1447313
912,1st Street,48307,42.6761350,-83.1449169
904,1st Street,48307,42.6761511,-83.1445365
916,1st Street,48307,42.6761261,-83.1451101
936,1st Street,48307,42.6761636,-83.1456013
930,1st Street,48307,42.6761347,-83.1454538
924,1st Street,48307,42.6761345,-83.1452594
145,North Helen Avenue,48307,42.6771962,-83.1460229
127,North Helen Avenue,48307,42.6769925,-83.1460062
121,North Helen Avenue,48307,42.6768245,-83.1460425
119,North Helen Avenue,48307,42.6766941,-83.1460723
115,North Helen Avenue,48307,42.6765398,-83.1460153
111,North Helen Avenue,48307,42.6764072,-83.1460551
1004,1st Street,48307,42.6761500,-83.1460857
1008,1st Street,48307,42.6761445,-83.1463137
108,North Alice Avenue,48307,42.6762470,-83.1466261
1112,1st Street,48307,42.6760918,-83.1473737
1104,1st Street,48307,42.6760781,-83.1471469
1020,1st Street,48307,42.6760781,-83.1466020
121,North Alice Avenue,48307,42.6766497,-83.1472178
112,North Alice Avenue,48307,42.6764563,-83.1466472
120,North Alice Avenue,48307,42.6766353,-83.1466389
124,North Alice Avenue,48307,42.6767670,-83.1465303
109,North Alice Avenue,48307,42.6763466,-83.1471992
125,North Alice Avenue,48307,42.6767960,-83.1471864
241,North Alice Avenue,48307,42.6788937,-83.1471685
225,North Alice Avenue,48307,42.6783930,-83.1471758
229,North Alice Avenue,48307,42.6785251,-83.1471710
233,North Alice Avenue,48307,42.6786458,-83.1471684
237,North Alice Avenue,48307,42.6787804,-83.1471758
245,North Alice Avenue,48307,42.6790114,-83.1471648
238,North Alice Avenue,48307,42.6789669,-83.1464274
230,North Alice Avenue,48307,42.6787517,-83.1465855
222,North Alice Avenue,48307,42.6784914,-83.1466314
1020,Roselawn Drive,48307,42.6783695,-83.1466192
229,North Helen Avenue,48307,42.6783861,-83.1459947
239,North Helen Avenue,48307,42.6786331,-83.1459737
241,North Helen Avenue,48307,42.6787803,-83.1460061
245,North Helen Avenue,48307,42.6788957,-83.1459827
1005,West 3rd Street,48307,42.6790144,-83.1460578
932,Roselawn Drive,48307,42.6784909,-83.1455839
926,Roselawn Drive,48307,42.6784679,-83.1454364
922,Roselawn Drive,48307,42.6784448,-83.1452364
912,Roselawn Drive,48307,42.6784615,-83.1448656
916,Roselawn Drive,48307,42.6785211,-83.1450513
903,West 3rd Street,48307,42.6789193,-83.1445193
931,West 3rd Street,48307,42.6789767,-83.1452651
933,West 3rd Street,48307,42.6789562,-83.1455185
915,West 3rd Street,48307,42.6789419,-83.1450325
902,Roselawn Drive,48307,42.6784832,-83.1445061
906,Roselawn Drive,48307,42.6784776,-83.1446880
911,West 3rd Street,48307,42.6789661,-83.1448613
907,West 3rd Street,48307,42.6789838,-83.1446823
930,Fairview Avenue,48307,42.6775893,-83.1454815
916,Fairview Avenue,48307,42.6775580,-83.1452333
908,Fairview Avenue,48307,42.6775408,-83.1446955
903,Roselawn Drive,48307,42.6780653,-83.1445077
907,Roselawn Drive,48307,42.6780591,-83.1446817
913,Roselawn Drive,48307,42.6780260,-83.1448868
917,Roselawn Drive,48307,42.6780215,-83.1450523
902,Fairview Avenue,48307,42.6775879,-83.1445081
912,Fairview Avenue,48307,42.6775578,-83.1448989
914,Fairview Avenue,48307,42.6775580,-83.1450913
933,Roselawn Drive,48307,42.6780157,-83.1454720
210,North Alice Avenue,48307,42.6779822,-83.1466351
206,North Alice Avenue,48307,42.6777450,-83.1466290
211,North Helen Avenue,48307,42.6776732,-83.1460163
225,North Helen Avenue,48307,42.6781156,-83.1460076
221,North Helen Avenue,48307,42.6779988,-83.1459974
217,North Helen Avenue,48307,42.6778722,-83.1460012
205,North Helen Avenue,48307,42.6774848,-83.1460115
200,North Alice Avenue,48307,42.6774793,-83.1466535
204,North Alice Avenue,48307,42.6775982,-83.1466400
208,North Alice Avenue,48307,42.6778697,-83.1466291
212,North Alice Avenue,48307,42.6781305,-83.1464974
217,North Alice Avenue,48307,42.6779889,-83.1471499
221,North Alice Avenue,48307,42.6781098,-83.1471818
211,North Alice Avenue,48307,42.6776163,-83.1471855
213,North Alice Avenue,48307,42.6777466,-83.1471864
215,North Alice Avenue,48307,42.6778756,-83.1471777
209,North Alice Avenue,48307,42.6774913,-83.1471879
537,West 3rd Street,48307,42.6790517,-83.1401783
534,West 2nd Street,48307,42.6782741,-83.1401112
540,West 2nd Street,48307,42.6783364,-83.1403368
532,West 2nd Street,48307,42.6782892,-83.1399727
526,West 2nd Street,48307,42.6783137,-83.1397681
500,West 2nd Street,48307,42.6783192,-83.1392519
522,West 2nd Street,48307,42.6783635,-83.1395134
438,West 2nd Street,48307,42.6783159,-83.1389124
434,West 2nd Street,48307,42.6783453,-83.1387399
442,West 2nd Street,48307,42.6783033,-83.1390864
432,West 2nd Street,48307,42.6783270,-83.1385381
426,West 2nd Street,48307,42.6783412,-83.1383364
420,West 2nd Street,48307,42.6783433,-83.1381447
412,West 2nd Street,48307,42.6783674,-83.1379215
408,West 2nd Street,48307,42.6783529,-83.1376902
402,West 2nd Street,48307,42.6783571,-83.1374626
215,Oak Street,48307,42.6786000,-83.1374651
517,West 3rd Street,48307,42.6790331,-83.1394664
527,West 3rd Street,48307,42.6790412,-83.1398085
513,West 3rd Street,48307,42.6790759,-83.1392802
509,West 3rd Street,48307,42.6790573,-83.1390622
541,West 3rd Street,48307,42.6790333,-83.1403399
521,West 3rd Street,48307,42.6790446,-83.1396441
501,West 3rd Street,48307,42.6790029,-83.1386741
425,West 3rd Street,48307,42.6790538,-83.1383464
229,Barnes Court,48307,42.6788503,-83.1383558
403,West 3rd Street,48307,42.6789861,-83.1374557
409,West 3rd Street,48307,42.6790605,-83.1377304
413,West 3rd Street,48307,42.6790513,-83.1379021
415,West 3rd Street,48307,42.6790026,-83.1380422
227,Pine Street,48307,42.6789714,-83.1364176
321,West 3rd Street,48307,42.6791524,-83.1370776
315,West 3rd Street,48307,42.6791367,-83.1368298
235,Pine Street,48307,42.6791513,-83.1364128
215,Pine Street,48307,42.6786689,-83.1364396
205,Pine Street,48307,42.6784241,-83.1363937
211,Pine Street,48307,42.6785280,-83.1363765
322,West 2nd Street,48307,42.6783210,-83.1370475
206,Oak Street,48307,42.6785091,-83.1370381
214,Oak Street,48307,42.6786946,-83.1370366
223,Pine Street,48307,42.6788374,-83.1364044
314,West 2nd Street,48307,42.6783435,-83.1367472
220,Oak Street,48307,42.6788469,-83.1369534
201,Pine Street,48307,42.6783236,-83.1363722
265,South Street,48307,42.6761919,-83.1290821
289,South Street,48307,42.6766475,-83.1279513
305,South Street,48307,42.6765967,-83.1273425
313,South Street,48307,42.6766252,-83.1271736
321,South Street,48307,42.6767963,-83.1269104
341,South Street,48307,42.6768029,-83.1264700
361,South Street,48307,42.6768566,-83.1256432
375,South Street,48307,42.6764170,-83.1247242
399,South Street,48307,42.6763754,-83.1240825
386,South Street,48307,42.6753454,-83.1251918
440,South Street,48307,42.6756198,-83.1236541
410,South Street,48307,42.6756801,-83.1242039
394,South Street,48307,42.6753559,-83.1246939
396,South Street,48307,42.6758055,-83.1246550
390,South Street,48307,42.6757140,-83.1251403
362,South Street,48307,42.6753357,-83.1258054
380,South Street,48307,42.6759306,-83.1255437
360,South Street,48307,42.6759954,-83.1262265
200,South Street,48307,42.6749411,-83.1311177
138,South Street,48307,42.6748372,-83.1313429
200,Diversion Street,48307,42.6742443,-83.1324536
20,South Main Street,48307,42.6743899,-83.1329393
111,South Street,48307,42.6755246,-83.1321785
100,South Street,48307,42.6747170,-83.1360024
323,Walnut Boulevard,48307,42.6800103,-83.1357608
212,West 3rd Street,48307,42.6794948,-83.1359892
301,Walnut Boulevard,48307,42.6795165,-83.1357178
315,North Alice Avenue,48307,42.6792948,-83.1471865
319,North Alice Avenue,48307,42.6794298,-83.1471751
323,North Alice Avenue,48307,42.6795649,-83.1471973
325,North Alice Avenue,48307,42.6796979,-83.1471939
327,North Alice Avenue,48307,42.6799043,-83.1471576
331,North Alice Avenue,48307,42.6801112,-83.1471416
347,North Alice Avenue,48307,42.6804183,-83.1471528
339,North Alice Avenue,48307,42.6802534,-83.1471565
303,North Helen Avenue,48307,42.6793282,-83.1461950
403,North Helen Avenue,48307,42.6805449,-83.1459378
342,North Alice Avenue,48307,42.6804240,-83.1465725
404,North Alice Avenue,48307,42.6805547,-83.1465818
343,North Helen Avenue,48307,42.6803857,-83.1458995
327,North Helen Avenue,48307,42.6799605,-83.1459953
333,North Helen Avenue,48307,42.6801056,-83.1459864
337,North Helen Avenue,48307,42.6802576,-83.1459588
334,North Alice Avenue,48307,42.6802682,-83.1464680
330,North Alice Avenue,48307,42.6801191,-83.1465665
317,North Helen Avenue,48307,42.6797047,-83.1460269
302,North Alice Avenue,48307,42.6793051,-83.1466100
306,North Alice Avenue,48307,42.6794086,-83.1466284
310,North Alice Avenue,48307,42.6795672,-83.1466040
318,North Alice Avenue,48307,42.6796794,-83.1466212
326,North Alice Avenue,48307,42.6798461,-83.1465899
328,North Alice Avenue,48307,42.6799807,-83.1465751
323,North Helen Avenue,48307,42.6798338,-83.1460417
313,North Helen Avenue,48307,42.6795612,-83.1460118
416,North Helen Avenue,48307,42.6808065,-83.1453408
404,North Helen Avenue,48307,42.6805769,-83.1454012
344,North Helen Avenue,48307,42.6803862,-83.1454290
340,North Helen Avenue,48307,42.6802048,-83.1453792
330,North Helen Avenue,48307,42.6800164,-83.1453493
314,North Helen Avenue,48307,42.6796887,-83.1454967
316,North Helen Avenue,48307,42.6798364,-83.1454902
912,West 3rd Street,48307,42.6793833,-83.1450266
920,West 3rd Street,48307,42.6793837,-83.1451710
928,West 3rd Street,48307,42.6793541,-83.1453955
930,West 3rd Street,48307,42.6793453,-83.1455599
311,Taylor Avenue,48307,42.6795278,-83.1445772
305,Taylor Avenue,48307,42.6793066,-83.1445732
307,Taylor Avenue,48307,42.6794047,-83.1445839
315,Taylor Avenue,48307,42.6796490,-83.1446361
321,Taylor Avenue,48307,42.6797709,-83.1445729
323,Taylor Avenue,48307,42.6798998,-83.1445906
325,Taylor Avenue,48307,42.6800191,-83.1445443
333,Taylor Avenue,48307,42.6801325,-83.1445208
341,Taylor Avenue,48307,42.6803494,-83.1445412
345,Taylor Avenue,48307,42.6804905,-83.1445365
403,Taylor Avenue,48307,42.6805966,-83.1445523
407,Taylor Avenue,48307,42.6807078,-83.1445743
411,Taylor Avenue,48307,42.6808362,-83.1446084
415,Taylor Avenue,48307,42.6809509,-83.1445321
421,Taylor Avenue,48307,42.6810785,-83.1445489
425,Taylor Avenue,48307,42.6812263,-83.1445685
435,Taylor Avenue,48307,42.6815244,-83.1445423
919,West University Drive,48307,42.6814281,-83.1450748
929,West University Drive,48307,42.6815372,-83.1453812
432,West 4th Street,48307,42.6809028,-83.1387760
428,West 4th Street,48307,42.6808131,-83.1385964
422,West 4th Street,48307,42.6807996,-83.1384202
415,Oak Street,48307,42.6811205,-83.1375885
402,West 4th Street,48307,42.6808099,-83.1375569
423,Oak Street,48307,42.6812792,-83.1375616
427,Oak Street,48307,42.6814032,-83.1375595
409,Oak Street,48307,42.6809765,-83.1375455
410,West 4th Street,48307,42.6808364,-83.1378935
414,West 4th Street,48307,42.6808700,-83.1380415
420,West 4th Street,48307,42.6809209,-83.1382445
431,Oak Street,48307,42.6815495,-83.1375293
433,Oak Street,48307,42.6816580,-83.1375696
403,West University Drive,48307,42.6818028,-83.1377969
413,West University Drive,48307,42.6817378,-83.1379882
427,West University Drive,48307,42.6817486,-83.1384070
433,West University Drive,48307,42.6817366,-83.1387126
501,West University Drive,48307,42.6811777,-83.1399506
136,Walnut Boulevard,48307,42.6780589,-83.1349142
116,West 2nd Street,48307,42.6783900,-83.1346244
202,Walnut Boulevard,48307,42.6784447,-83.1349261
415,Pine Street,48307,42.6813425,-83.1365060
421,Pine Street,48307,42.6814500,-83.1364875
407,Pine Street,48307,42.6809040,-83.1364040
308,West 4th Street,48307,42.6808909,-83.1366578
324,West 4th Street,48307,42.6808609,-83.1370924
314,West 4th Street,48307,42.6808544,-83.1369123
424,Oak Street,48307,42.6813045,-83.1370760
418,Oak Street,48307,42.6812007,-83.1370596
430,Oak Street,48307,42.6814451,-83.1370944
434,Oak Street,48307,42.6815700,-83.1370924
321,West University Drive,48307,42.6818262,-83.1371356
311,West University Drive,48307,42.6817267,-83.1367961
435,Pine Street,48307,42.6818086,-83.1364878
312,Wilcox Street,48307,42.6797201,-83.1403769
515,Harrison Street,48307,42.6799089,-83.1393364
519,Harrison Street,48307,42.6799113,-83.1395475
527,Harrison Street,48307,42.6799102,-83.1397329
531,Harrison Street,48307,42.6799016,-83.1399235
537,Harrison Street,48307,42.6798664,-83.1401421
543,Harrison Street,48307,42.6799143,-83.1404041
504,West 3rd Street,48307,42.6794551,-83.1388746
510,West 3rd Street,48307,42.6794737,-83.1390817
520,West 3rd Street,48307,42.6794592,-83.1395020
514,West 3rd Street,48307,42.6794861,-83.1392982
536,West 3rd Street,48307,42.6794542,-83.1401622
530,West 3rd Street,48307,42.6794562,-83.1399350
391,Elm Street,48307,42.6799363,-83.1388846
311,Elm Street,48307,42.6797666,-83.1389108
524,West 3rd Street,48307,42.6794879,-83.1397492
528,Harrison Street,48307,42.6802385,-83.1397271
539,West 4th Street,48307,42.6803724,-83.1403246
520,Harrison Street,48307,42.6802548,-83.1395754
514,Harrison Street,48307,42.6802529,-83.1393224
535,West 4th Street,48307,42.6803951,-83.1400918
532,Harrison Street,48307,42.6802394,-83.1399564
503,West 4th Street,48307,42.6804034,-83.1388874
510,Harrison Street,48307,42.6802623,-83.1391256
315,Oak Street,48307,42.6797370,-83.1375886
429,West 4th Street,48307,42.6803527,-83.1384973
423,West 4th Street,48307,42.6803544,-83.1382646
409,West 4th Street,48307,42.6804303,-83.1378116
415,West 4th Street,48307,42.6803397,-83.1380133
339,Oak Street,48307,42.6804710,-83.1375149
331,Oak Street,48307,42.6802230,-83.1375696
325,Oak Street,48307,42.6800580,-83.1376608
320,Elm Street,48307,42.6800467,-83.1384329
310,Elm Street,48307,42.6798462,-83.1384249
426,West 3rd Street,48307,42.6795398,-83.1384724
420,West 3rd Street,48307,42.6795565,-83.1382439
414,West 3rd Street,48307,42.6794993,-83.1379984
404,West 3rd Street,48307,42.6794993,-83.1376808
319,Oak Street,48307,42.6799166,-83.1375568
320,West 3rd Street,48307,42.6795330,-83.1370736
316,West 3rd Street,48307,42.6795140,-83.1369003
302,West 3rd Street,48307,42.6795611,-83.1363826
311,Pine Street,48307,42.6798802,-83.1364487
318,Oak Street,48307,42.6799025,-83.1370407
324,Oak Street,48307,42.6800605,-83.1370505
323,West 4th Street,48307,42.6804480,-83.1371071
315,West 4th Street,48307,42.6803970,-83.1367654
309,West 4th Street,48307,42.6804393,-83.1365724
303,West 4th Street,48307,42.6804438,-83.1364087
330,Oak Street,48307,42.6802325,-83.1370742
323,Pine Street,48307,42.6800861,-83.1364161
403,North Castell Avenue,48307,42.6806180,-83.1433058
407,North Castell Avenue,48307,42.6807360,-83.1433282
406,Taylor Avenue,48307,42.6807424,-83.1440164
402,Taylor Avenue,48307,42.6806136,-83.1440022
416,Taylor Avenue,48307,42.6809809,-83.1440056
412,Taylor Avenue,48307,42.6808642,-83.1439639
420,Taylor Avenue,48307,42.6811110,-83.1439907
424,Taylor Avenue,48307,42.6812253,-83.1439841
428,Taylor Avenue,48307,42.6813303,-83.1440195
421,North Castell Avenue,48307,42.6811169,-83.1433307
411,North Castell Avenue,48307,42.6808449,-83.1433075
429,North Castell Avenue,48307,42.6813484,-83.1433144
415,North Castell Avenue,48307,42.6809805,-83.1433097
425,North Castell Avenue,48307,42.6812195,-83.1433112
811,West University Drive,48307,42.6816678,-83.1435476
434,Taylor Avenue,48307,42.6816383,-83.1440061
807,West University Drive,48307,42.6816446,-83.1433841
819,West University Drive,48307,42.6816683,-83.1437963
803,West University Drive,48307,42.6816257,-83.1432226
707,West University Drive,48307,42.6816901,-83.1423034
717,West University Drive,48307,42.6816782,-83.1426628
723,West University Drive,48307,42.6816791,-83.1428358
713,West University Drive,48307,42.6816958,-83.1424671
443,Wesley Street,48307,42.6817037,-83.1421007
403,Wesley Street,48307,42.6806497,-83.1421126
413,Wesley Street,48307,42.6809009,-83.1421387
416,North Castell Avenue,48307,42.6808956,-83.1428078
418,North Castell Avenue,48307,42.6810189,-83.1427962
402,North Castell Avenue,48307,42.6806282,-83.1428102
426,North Castell Avenue,48307,42.6813026,-83.1427879
422,North Castell Avenue,48307,42.6811667,-83.1427916
408,North Castell Avenue,48307,42.6807459,-83.1428117
409,Wesley Street,48307,42.6807740,-83.1421381
417,Wesley Street,48307,42.6810485,-83.1421153
427,Wesley Street,48307,42.6813194,-83.1421399
423,Wesley Street,48307,42.6811895,-83.1421447
412,Wesley Street,48307,42.6809208,-83.1416195
426,Wesley Street,48307,42.6813317,-83.1416507
402,Wesley Street,48307,42.6806613,-83.1415743
427,Wilcox Street,48307,42.6813494,-83.1409316
415,Wilcox Street,48307,42.6810563,-83.1409115
403,Wilcox Street,48307,42.6807015,-83.1409048
423,Wilcox Street,48307,42.6812135,-83.1409263
411,Wilcox Street,48307,42.6809469,-83.1408900
407,Wilcox Street,48307,42.6808179,-83.1409121
406,Wesley Street,48307,42.6807912,-83.1416320
422,Wesley Street,48307,42.6811807,-83.1416347
416,Wesley Street,48307,42.6810524,-83.1416138
603,West University Drive,48307,42.6817207,-83.1409045
621,West University Drive,48307,42.6816944,-83.1414906
607,West University Drive,48307,42.6816644,-83.1410945
817,West 4th Street,48307,42.6803517,-83.1438332
825,West 4th Street,48307,42.6803461,-83.1440417
330,Taylor Avenue,48307,42.6800138,-83.1440400
334,Taylor Avenue,48307,42.6801286,-83.1438323
326,Taylor Avenue,48307,42.6799062,-83.1440276
322,Taylor Avenue,48307,42.6797802,-83.1439987
318,Taylor Avenue,48307,42.6796778,-83.1439869
312,Taylor Avenue,48307,42.6795536,-83.1440192
306,Taylor Avenue,48307,42.6793711,-83.1439786
311,North Castell Avenue,48307,42.6795542,-83.1433676
307,North Castell Avenue,48307,42.6794302,-83.1433315
303,North Castell Avenue,48307,42.6793223,-83.1433608
313,North Castell Avenue,48307,42.6796528,-83.1433623
319,North Castell Avenue,48307,42.6797829,-83.1433512
323,North Castell Avenue,48307,42.6799295,-83.1433139
329,North Castell Avenue,48307,42.6800261,-83.1433388
333,North Castell Avenue,48307,42.6801492,-83.1433063
337,North Castell Avenue,48307,42.6802694,-83.1433332
339,North Castell Avenue,48307,42.6803674,-83.1434330
315,Wesley Street,48307,42.6796145,-83.1420851
306,North Castell Avenue,48307,42.6794310,-83.1427127
312,North Castell Avenue,48307,42.6796006,-83.1427728
311,Wesley Street,48307,42.6794041,-83.1421109
321,Wesley Street,48307,42.6798807,-83.1420977
317,Wesley Street,48307,42.6797447,-83.1420827
325,Wesley Street,48307,42.6800112,-83.1421173
335,Wesley Street,48307,42.6802591,-83.1421452
316,North Castell Avenue,48307,42.6797333,-83.1428170
320,North Castell Avenue,48307,42.6798501,-83.1427929
324,North Castell Avenue,48307,42.6799762,-83.1427949
330,North Castell Avenue,48307,42.6801191,-83.1427864
334,North Castell Avenue,48307,42.6802447,-83.1427688
338,North Castell Avenue,48307,42.6803566,-83.1427855
329,Wesley Street,48307,42.6801418,-83.1420825
339,Wesley Street,48307,42.6803744,-83.1421260
312,Wesley Street,48307,42.6796337,-83.1415650
302,Wesley Street,48307,42.6793800,-83.1415838
308,Wesley Street,48307,42.6794963,-83.1415865
311,Wilcox Street,48307,42.6796225,-83.1408065
303,Wilcox Street,48307,42.6793929,-83.1408687
307,Wilcox Street,48307,42.6795077,-83.1408083
338,Wesley Street,48307,42.6804064,-83.1415925
330,Wesley Street,48307,42.6801429,-83.1415720
316,Wesley Street,48307,42.6797555,-83.1415711
320,Wesley Street,48307,42.6798964,-83.1415857
334,Wesley Street,48307,42.6802697,-83.1415803
324,Wesley Street,48307,42.6800039,-83.1416039
321,Wilcox Street,48307,42.6798974,-83.1408060
317,Wilcox Street,48307,42.6797663,-83.1407895
325,Wilcox Street,48307,42.6800218,-83.1408311
331,Wilcox Street,48307,42.6802288,-83.1407609
339,Wilcox Street,48307,42.6804199,-83.1408435
444,West University Drive,48307,42.6822294,-83.1391286
431,6th Street,48307,42.6827722,-83.1386588
426,West University Drive,48307,42.6822661,-83.1385222
427,6th Street,48307,42.6827911,-83.1384839
417,6th Street,48307,42.6826404,-83.1382634
420,West University Drive,48307,42.6822511,-83.1382774
410,West University Drive,48307,42.6822349,-83.1378505
511,Oak Street,48307,42.6824525,-83.1376055
517,Oak Street,48307,42.6826165,-83.1377958
407,6th Street,48307,42.6828178,-83.1377401
528,Oak Street,48307,42.6828771,-83.1370696
522,Oak Street,48307,42.6827361,-83.1370609
322,West University Drive,48307,42.6823598,-83.1370910
310,West University Drive,48307,42.6822921,-83.1367029
302,West University Drive,48307,42.6824467,-83.1365294
527,Pine Street,48307,42.6828730,-83.1365468
543,North Main Street,48307,42.6832736,-83.1344635
118,West University Drive,48307,42.6822664,-83.1348338
134,West University Drive,48307,42.6824518,-83.1352337
871,Oakwood Drive,48307,42.6830489,-83.1451799
722,West University Drive,48307,42.6821820,-83.1429294
811,Oakwood Drive,48307,42.6832497,-83.1443502
805,Oakwood Drive,48307,42.6832017,-83.1435914
800,West University Drive,48307,42.6823448,-83.1436830
900,West University Drive,48307,42.6823376,-83.1442299
950,West University Drive,48307,42.6823660,-83.1450220
1000,West University Drive,48307,42.6821759,-83.1461363
1050,West University Drive,48307,42.6822570,-83.1466154
961,Oakwood Drive,48307,42.6831084,-83.1469121
517,Ludlow Avenue,48307,42.6825204,-83.1427616
521,Ludlow Avenue,48307,42.6826796,-83.1427542
525,Ludlow Avenue,48307,42.6828437,-83.1427647
527,Ludlow Avenue,48307,42.6829709,-83.1427875
603,Ludlow Avenue,48307,42.6831105,-83.1428224
609,Ludlow Avenue,48307,42.6832404,-83.1428296
615,Ludlow Avenue,48307,42.6833728,-83.1427930
630,West University Drive,48307,42.6821526,-83.1418470
640,West University Drive,48307,42.6821494,-83.1421162
624,West University Drive,48307,42.6821539,-83.1416626
524,Ludlow Avenue,48307,42.6828330,-83.1420905
516,Ludlow Avenue,48307,42.6825819,-83.1420240
520,Ludlow Avenue,48307,42.6826837,-83.1421706
538,Ludlow Avenue,48307,42.6831197,-83.1420577
528,Ludlow Avenue,48307,42.6829686,-83.1421206
608,Ludlow Avenue,48307,42.6832627,-83.1421562
614,Ludlow Avenue,48307,42.6833756,-83.1420195
615,Wilcox Street,48307,42.6834066,-83.1409759
611,Wilcox Street,48307,42.6832885,-83.1410501
609,Wilcox Street,48307,42.6831652,-83.1409778
608,Wilcox Street,48307,42.6830563,-83.1409993
523,Wilcox Street,48307,42.6826730,-83.1410025
533,Wilcox Street,48307,42.6829238,-83.1411030
519,Wilcox Street,48307,42.6825362,-83.1409561
602,West University Drive,48307,42.6821451,-83.1408804
604,West University Drive,48307,42.6821482,-83.1411188
612,West University Drive,48307,42.6821725,-83.1414525
816,Ludlow Avenue,48307,42.6856861,-83.1411978
515,7th Street,48307,42.6833580,-83.1402365
523,7th Street,48307,42.6833417,-83.1404898
615,Madison Avenue,48307,42.6834498,-83.1397333
603,Madison Avenue,48307,42.6831383,-83.1396775
609,Madison Avenue,48307,42.6832921,-83.1397479
604,Wilcox Street,48307,42.6831149,-83.1404960
529,Madison Avenue,48307,42.6829759,-83.1396788
528,Wilcox Street,48307,42.6829491,-83.1404095
526,Wilcox Street,48307,42.6827823,-83.1404832
524,Wilcox Street,48307,42.6826538,-83.1404243
520,Wilcox Street,48307,42.6825579,-83.1404644
525,Madison Avenue,48307,42.6828190,-83.1396589
513,Madison Avenue,48307,42.6824724,-83.1396112
519,Madison Avenue,48307,42.6826705,-83.1396789
510,Wilcox Street,48307,42.6824273,-83.1404431
524,West University Drive,48307,42.6821322,-83.1404787
520,West University Drive,48307,42.6821620,-83.1402593
516,West University Drive,48307,42.6821600,-83.1401152
510,West University Drive,48307,42.6821478,-83.1399008
750,Wilcox Street,48307,42.6851352,-83.1405978
744,Wilcox Street,48307,42.6848994,-83.1405242
730,Wilcox Street,48307,42.6846901,-83.1404658
726,Wilcox Street,48307,42.6844878,-83.1405846
722,Wilcox Street,48307,42.6842802,-83.1404872
718,Wilcox Street,48307,42.6840589,-83.1404778
514,7th Street,48307,42.6837905,-83.1400914
524,7th Street,48307,42.6837544,-83.1405254
520,7th Street,48307,42.6837738,-83.1403177
508,7th Street,48307,42.6837550,-83.1399014
500,7th Street,48307,42.6837850,-83.1395497
637,North Main Street,48307,42.6845472,-83.1349358
1234,Inglewood Avenue,48307,42.6916483,-83.1275653
833,Ludlow Avenue,48307,42.6869487,-83.1432473
829,Ludlow Avenue,48307,42.6866662,-83.1431783
821,Ludlow Avenue,48307,42.6864704,-83.1431147
815,Ludlow Avenue,48307,42.6862766,-83.1430460
809,Ludlow Avenue,48307,42.6861117,-83.1431214
805,Ludlow Avenue,48307,42.6859465,-83.1430090
801,Ludlow Avenue,48307,42.6857750,-83.1430973
761,Ludlow Avenue,48307,42.6856091,-83.1429385
757,Ludlow Avenue,48307,42.6854347,-83.1430054
747,Ludlow Avenue,48307,42.6851220,-83.1429337
753,Ludlow Avenue,48307,42.6852822,-83.1430081
743,Ludlow Avenue,48307,42.6849772,-83.1429190
737,Ludlow Avenue,48307,42.6847725,-83.1430087
731,Ludlow Avenue,48307,42.6845349,-83.1431233
727,Ludlow Avenue,48307,42.6843899,-83.1429663
725,Ludlow Avenue,48307,42.6842827,-83.1428968
719,Ludlow Avenue,48307,42.6841445,-83.1429181
715,Ludlow Avenue,48307,42.6840129,-83.1429103
711,Ludlow Avenue,48307,42.6838427,-83.1428434
714,7th Street,48307,42.6837193,-83.1432336
705,Ludlow Avenue,48307,42.6836573,-83.1430617
806,Ludlow Avenue,48307,42.6859567,-83.1423482
762,Ludlow Avenue,48307,42.6856183,-83.1423862
800,Ludlow Avenue,48307,42.6857937,-83.1424069
756,Ludlow Avenue,48307,42.6854593,-83.1423364
750,Ludlow Avenue,48307,42.6852994,-83.1423130
746,Ludlow Avenue,48307,42.6851498,-83.1423666
742,Ludlow Avenue,48307,42.6849859,-83.1423063
738,Ludlow Avenue,48307,42.6848174,-83.1423177
736,Ludlow Avenue,48307,42.6846857,-83.1422366
728,Ludlow Avenue,48307,42.6845596,-83.1422552
724,Ludlow Avenue,48307,42.6844364,-83.1422681
718,Ludlow Avenue,48307,42.6842759,-83.1422433
714,Ludlow Avenue,48307,42.6841594,-83.1421280
710,Ludlow Avenue,48307,42.6840178,-83.1422506
632,7th Street,48307,42.6837167,-83.1422336
628,7th Street,48307,42.6837326,-83.1420437
622,7th Street,48307,42.6837390,-83.1418409
616,7th Street,48307,42.6837059,-83.1415841
612,7th Street,48307,42.6837351,-83.1413979
608,7th Street,48307,42.6837517,-83.1411955
604,7th Street,48307,42.6837395,-83.1409627
715,Wilcox Street,48307,42.6839875,-83.1410709
721,Wilcox Street,48307,42.6841389,-83.1410281
729,Wilcox Street,48307,42.6842770,-83.1410915
735,Wilcox Street,48307,42.6845148,-83.1413462
741,Wilcox Street,48307,42.6847135,-83.1414625
743,Wilcox Street,48307,42.6849139,-83.1414752
749,Wilcox Street,48307,42.6851278,-83.1413883
845,Ludlow Avenue,48307,42.6876881,-83.1432739
607,Woodward Avenue,48307,42.6880903,-83.1409776
520,Woodward Avenue,48307,42.6893810,-83.1394706
630,Woodward Avenue,48307,42.6890661,-83.1413766
1117,Wilcox Street,48307,42.6892972,-83.1414498
413,Woodward Avenue,48307,42.6885669,-83.1388752
405,Woodward Avenue,48307,42.6885794,-83.1386899
401,Woodward Avenue,48307,42.6886292,-83.1385160
333,Woodward Avenue,48307,42.6886193,-83.1381541
337,Woodward Avenue,48307,42.6885666,-83.1383107
327,Woodward Avenue,48307,42.6886612,-83.1379732
323,Woodward Avenue,48307,42.6886912,-83.1377928
317,Woodward Avenue,48307,42.6886944,-83.1375970
303,Woodward Avenue,48307,42.6886820,-83.1370337
309,Woodward Avenue,48307,42.6886730,-83.1371936
313,Woodward Avenue,48307,42.6886468,-83.1374336
117,Woodward Avenue,48307,42.6887513,-83.1350044
123,Woodward Avenue,48307,42.6887378,-83.1352122
127,Woodward Avenue,48307,42.6887299,-83.1353893
139,Woodward Avenue,48307,42.6887277,-83.1357281
133,Woodward Avenue,48307,42.6887057,-83.1355319
143,Woodward Avenue,48307,42.6886503,-83.1359195
149,Woodward Avenue,48307,42.6886681,-83.1361066
161,Woodward Avenue,48307,42.6886068,-83.1366338
159,Woodward Avenue,48307,42.6886390,-83.1364503
153,Woodward Avenue,48307,42.6886386,-83.1362814
156,Drace Street,48307,42.6880656,-83.1366219
142,Drace Street,48307,42.6880704,-83.1362466
140,Drace Street,48307,42.6880611,-83.1360729
148,Drace Street,48307,42.6880806,-83.1364603
1129,North Main Street,48307,42.6898239,-83.1347176
1119,North Main Street,48307,42.6893285,-83.1346352
1001,North Main Street,48307,42.6881788,-83.1345329
917,North Main Street,48307,42.6877187,-83.1344838
913,North Main Street,48307,42.6875294,-83.1343603
909,North Main Street,48307,42.6873527,-83.1343673
907,North Main Street,48307,42.6872319,-83.1343993
903,North Main Street,48307,42.6870920,-83.1343898
827,North Main Street,48307,42.6867274,-83.1344620
821,North Main Street,48307,42.6866209,-83.1344335
817,North Main Street,48307,42.6864969,-83.1344375
815,North Main Street,48307,42.6863470,-83.1344342
807,North Main Street,48307,42.6862012,-83.1344013
676,North Main Street,48307,42.6850450,-83.1313779
1214,North Main Street,48307,42.6905670,-83.1337344
1108,North Main Street,48307,42.6891949,-83.1337767
1100,North Main Street,48307,42.6888023,-83.1335420
116,Terry Avenue,48307,42.6884566,-83.1333581
1020,North Main Street,48307,42.6883055,-83.1337256
1002,North Main Street,48307,42.6879033,-83.1336184
912,North Main Street,48307,42.6874289,-83.1336371
828,North Main Street,48307,42.6867267,-83.1336341
900,North Main Street,48307,42.6869217,-83.1337073
908,North Main Street,48307,42.6871261,-83.1336822
804,North Main Street,48307,42.6861710,-83.1335756
1311,North Main Street,48307,42.6914548,-83.1348557
1315,North Main Street,48307,42.6917933,-83.1351540
1209,North Main Street,48307,42.6904771,-83.1345829
1235,North Main Street,48307,42.6907673,-83.1345796
339,Ferndale Avenue,48307,42.6896653,-83.1381849
333,Ferndale Avenue,48307,42.6896535,-83.1379918
327,Ferndale Avenue,48307,42.6896756,-83.1378060
303,Ferndale Avenue,48307,42.6896904,-83.1370759
309,Ferndale Avenue,48307,42.6896841,-83.1372458
315,Ferndale Avenue,48307,42.6896879,-83.1374342
321,Ferndale Avenue,48307,42.6896707,-83.1376265
345,Ferndale Avenue,48307,42.6896047,-83.1383471
300,Woodward Avenue,48307,42.6891887,-83.1370709
306,Woodward Avenue,48307,42.6891523,-83.1372358
330,Woodward Avenue,48307,42.6891381,-83.1379831
318,Woodward Avenue,48307,42.6891480,-83.1376061
324,Woodward Avenue,48307,42.6891292,-83.1377943
336,Woodward Avenue,48307,42.6891134,-83.1381722
342,Woodward Avenue,48307,42.6891318,-83.1383143
312,Woodward Avenue,48307,42.6891485,-83.1374224
157,Ferndale Avenue,48307,42.6897249,-83.1364782
163,Ferndale Avenue,48307,42.6897051,-83.1366690
155,Ferndale Avenue,48307,42.6897312,-83.1362955
149,Ferndale Avenue,48307,42.6897199,-83.1361273
145,Ferndale Avenue,48307,42.6897365,-83.1359486
143,Ferndale Avenue,48307,42.6897422,-83.1357311
135,Ferndale Avenue,48307,42.6897632,-83.1355293
129,Ferndale Avenue,48307,42.6897481,-83.1353652
127,Ferndale Avenue,48307,42.6897118,-83.1351962
162,Woodward Avenue,48307,42.6892273,-83.1365596
140,Woodward Avenue,48307,42.6891798,-83.1359337
148,Woodward Avenue,48307,42.6891982,-83.1363055
144,Woodward Avenue,48307,42.6891775,-83.1361199
136,Woodward Avenue,48307,42.6892017,-83.1357431
132,Woodward Avenue,48307,42.6892316,-83.1355585
128,Woodward Avenue,48307,42.6892084,-83.1353572
124,Woodward Avenue,48307,42.6892745,-83.1351751
121,Glendale Court,48307,42.6907527,-83.1352391
129,Glendale Court,48307,42.6908017,-83.1354128
135,Glendale Court,48307,42.6907600,-83.1355959
139,Glendale Court,48307,42.6907590,-83.1357733
155,Glendale Court,48307,42.6907636,-83.1364189
149,Glendale Court,48307,42.6907782,-83.1361520
163,Glendale Court,48307,42.6907526,-83.1366983
145,Glendale Court,48307,42.6907742,-83.1359664
148,Ferndale Avenue,48307,42.6902147,-83.1360658
138,Ferndale Avenue,48307,42.6902359,-83.1357625
162,Ferndale Avenue,48307,42.6902463,-83.1366639
158,Ferndale Avenue,48307,42.6901821,-83.1364952
154,Ferndale Avenue,48307,42.6902214,-83.1363215
134,Ferndale Avenue,48307,42.6902680,-83.1355532
124,Ferndale Avenue,48307,42.6902535,-83.1353034
1214,North Pine Street,48307,42.6920144,-83.1366321
1208,North Pine Street,48307,42.6921909,-83.1366339
1202,North Pine Street,48307,42.6923828,-83.1366287
164,Glendale Court,48307,42.6913083,-83.1366359
148,Glendale Court,48307,42.6912597,-83.1362565
144,Glendale Court,48307,42.6912669,-83.1359453
138,Glendale Court,48307,42.6912577,-83.1357498
132,Glendale Court,48307,42.6912770,-83.1356077
128,Glendale Court,48307,42.6913105,-83.1354301
124,Glendale Court,48307,42.6913095,-83.1352579
233,North Hill Circle,48307,42.6918600,-83.1392331
1355,North Oak Street,48307,42.6918796,-83.1388665
1339,North Oak Street,48307,42.6914969,-83.1388410
1347,North Oak Street,48307,42.6916821,-83.1388476
326,Glendale Court,48307,42.6911731,-83.1378433
312,Glendale Court,48307,42.6911866,-83.1372847
302,Glendale Court,48307,42.6911790,-83.1370708
316,Glendale Court,48307,42.6911913,-83.1374491
322,Glendale Court,48307,42.6911644,-83.1376545
328,Glendale Court,48307,42.6911742,-83.1380328
332,Glendale Court,48307,42.6911308,-83.1382104
336,Glendale Court,48307,42.6911422,-83.1383839
1330,North Oak Street,48307,42.6913595,-83.1383216
307,Glendale Court,48307,42.6907300,-83.1372492
303,Glendale Court,48307,42.6907235,-83.1370666
319,Glendale Court,48307,42.6906937,-83.1377992
317,Glendale Court,48307,42.6907141,-83.1376453
321,Glendale Court,48307,42.6906930,-83.1380080
337,Glendale Court,48307,42.6906387,-83.1383625
333,Glendale Court,48307,42.6906798,-83.1381681
313,Glendale Court,48307,42.6907021,-83.1374411
312,Ferndale Avenue,48307,42.6901568,-83.1374516
322,Ferndale Avenue,48307,42.6901239,-83.1377948
316,Ferndale Avenue,48307,42.6901309,-83.1376152
336,Ferndale Avenue,48307,42.6900995,-83.1383972
332,Ferndale Avenue,48307,42.6901062,-83.1382097
328,Ferndale Avenue,48307,42.6901303,-83.1380247
306,Ferndale Avenue,48307,42.6901749,-83.1372653
302,Ferndale Avenue,48307,42.6901673,-83.1370602
1103,North Oak Street,48307,42.6890923,-83.1387807
1113,North Oak Street,48307,42.6892606,-83.1388155
1117,North Oak Street,48307,42.6894121,-83.1388310
1121,North Oak Street,48307,42.6895640,-83.1387893
1127,North Oak Street,48307,42.6896837,-83.1388548
1131,North Oak Street,48307,42.6898343,-83.1388358
1135,North Oak Street,48307,42.6899551,-83.1388987
1211,North Oak Street,48307,42.6902515,-83.1388922
1207,North Oak Street,48307,42.6900999,-83.1388443
1305,North Oak Street,48307,42.6905160,-83.1388142
1309,North Oak Street,48307,42.6906363,-83.1388109
1313,North Oak Street,48307,42.6907826,-83.1388606
1327,North Oak Street,48307,42.6912112,-83.1387998
1317,North Oak Street,48307,42.6909383,-83.1388031
1331,North Oak Street,48307,42.6913500,-83.1388369
1321,North Oak Street,48307,42.6910766,-83.1388673
97,Mill Street,48307,42.6776276,-83.1317826
93,Mill Street,48307,42.6776048,-83.1320530
120,South Main Street,48307,42.6776068,-83.1330607
134,South Main Street,48307,42.6777372,-83.1332058
428,East Street,48307,42.6815923,-83.1320879
414,East Street,48307,42.6812706,-83.1320460
420,East Street,48307,42.6814315,-83.1321262
408,East Street,48307,42.6810831,-83.1320688
402,East Street,48307,42.6809149,-83.1320366
209,East 4th Street,48307,42.6809216,-83.1318346
116,East 4th Street,48307,42.6805811,-83.1328810
120,East 4th Street,48307,42.6805841,-83.1327457
128,East 4th Street,48307,42.6805832,-83.1326136
324,East Street,48307,42.6802463,-83.1320793
300,East 3rd Street,48307,42.6795809,-83.1320735
308,East Street,48307,42.6798188,-83.1320520
304,East Street,48307,42.6797196,-83.1320674
600,Elizabeth Street,48307,42.6808818,-83.1290529
100,Romeo Road,48307,42.6854971,-83.1333812
714,North Main Street,48307,42.6850306,-83.1335555
610,North Main Street,48307,42.6838075,-83.1334964
129,East University Drive,48307,42.6823191,-83.1325961
121,East University Drive,48307,42.6823307,-83.1328196
650,Letica Drive,48307,42.6833790,-83.1199720
750,Letica Drive,48307,42.6853011,-83.1201660
801,Plate Street,48307,42.6871929,-83.1260123
810,Plate Street,48307,42.6875613,-83.1250186
805,Plate Street,48307,42.6876497,-83.1256659
803,Plate Street,48307,42.6876305,-83.1262782
400,Miller Avenue,48307,42.6822109,-83.1236517
485,Baldwin Avenue,48307,42.6811468,-83.1239920
345,Lysander Street,48307,42.6880769,-83.1295185
353,Lysander Street,48307,42.6880637,-83.1292844
361,Lysander Street,48307,42.6880872,-83.1290605
1001,Inglewood Avenue,48307,42.6881061,-83.1286928
1009,Inglewood Avenue,48307,42.6882577,-83.1287818
1017,Inglewood Avenue,48307,42.6884472,-83.1288913
376,Terry Avenue,48307,42.6886070,-83.1290173
362,Terry Avenue,48307,42.6885514,-83.1293165
356,Terry Avenue,48307,42.6885937,-83.1295378
322,Terry Avenue,48307,42.6885173,-83.1306229
306,Terry Avenue,48307,42.6884966,-83.1311874
300,Terry Avenue,48307,42.6884926,-83.1313911
312,Terry Avenue,48307,42.6885178,-83.1310272
316,Terry Avenue,48307,42.6885473,-83.1308155
334,Terry Avenue,48307,42.6885494,-83.1300910
339,Lysander Street,48307,42.6881300,-83.1299628
331,Lysander Street,48307,42.6880789,-83.1304153
327,Lysander Street,48307,42.6880912,-83.1307001
155,Lysander Street,48307,42.6880027,-83.1316982
137,Lysander Street,48307,42.6879268,-83.1324348
133,Lysander Street,48307,42.6879148,-83.1326425
123,Lysander Street,48307,42.6878873,-83.1330078
141,Lysander Street,48307,42.6879384,-83.1322257
127,Lysander Street,48307,42.6879123,-83.1328248
122,Terry Avenue,48307,42.6884714,-83.1330501
128,Terry Avenue,48307,42.6884501,-83.1328436
136,Terry Avenue,48307,42.6884745,-83.1325159
142,Terry Avenue,48307,42.6884788,-83.1322559
146,Terry Avenue,48307,42.6884578,-83.1320962
152,Terry Avenue,48307,42.6884551,-83.1318986
156,Terry Avenue,48307,42.6884788,-83.1317330
149,Lysander Street,48307,42.6879570,-83.1318882
147,Lysander Street,48307,42.6879529,-83.1320765
315,Romeo Road,48307,42.6877168,-83.1296933
303,Romeo Road,48307,42.6875885,-83.1302254
313,Romeo Road,48307,42.6876853,-83.1298620
235,Romeo Road,48307,42.6874476,-83.1306470
231,Romeo Road,48307,42.6873768,-83.1308645
227,Romeo Road,48307,42.6873599,-83.1310815
223,Romeo Road,48307,42.6872614,-83.1313233
217,Romeo Road,48307,42.6871715,-83.1315396
215,Romeo Road,48307,42.6870787,-83.1317025
205,Romeo Road,48307,42.6869649,-83.1319704
204,Lysander Street,48307,42.6874852,-83.1317466
202,Lysander Street,48307,42.6875318,-83.1319730
206,Lysander Street,48307,42.6875696,-83.1315400
136,Lysander Street,48307,42.6875067,-83.1324495
132,Lysander Street,48307,42.6874905,-83.1327002
124,Lysander Street,48307,42.6874786,-83.1328976
911,High Street,48307,42.6871517,-83.1324513
903,High Street,48307,42.6869672,-83.1324542
155,Romeo Road,48307,42.6867229,-83.1324375
139,Romeo Road,48307,42.6866193,-83.1326531
135,Romeo Road,48307,42.6864757,-83.1328305
401,Northwood Avenue,48307,42.6924418,-83.1286850
209,Charles Road,48307,42.6858438,-83.1311228
200,William Road,48307,42.6859676,-83.1314368
210,William Road,48307,42.6861318,-83.1311248
300,William Road,48307,42.6861667,-83.1308647
316,William Road,48307,42.6861204,-83.1305203
320,William Road,48307,42.6860307,-83.1301999
326,William Road,48307,42.6859933,-83.1297694
355,Charles Road,48307,42.6857601,-83.1296519
325,Charles Road,48307,42.6855845,-83.1299492
321,Charles Road,48307,42.6856573,-83.1302517
301,Charles Road,48307,42.6856913,-83.1305187
213,Charles Road,48307,42.6857591,-83.1308293
200,Charles Road,48307,42.6857446,-83.1320975
204,Charles Road,48307,42.6856119,-83.1318622
206,Charles Road,48307,42.6855054,-83.1315562
208,Charles Road,48307,42.6854009,-83.1313411
210,Charles Road,48307,42.6853286,-83.1310694
316,Charles Road,48307,42.6852710,-83.1307784
320,Charles Road,48307,42.6852075,-83.1304641
326,Charles Road,48307,42.6851966,-83.1301808
332,Charles Road,48307,42.6851287,-83.1297752
344,Charles Road,48307,42.6851191,-83.1290917
348,Charles Road,48307,42.6853443,-83.1290047
352,Charles Road,48307,42.6856171,-83.1290716
356,Charles Road,48307,42.6858460,-83.1290195
360,Charles Road,48307,42.6860090,-83.1290620
368,Charles Road,48307,42.6864645,-83.1290584
364,Charles Road,48307,42.6862541,-83.1289984
371,Charles Road,48307,42.6863984,-83.1296051
321,William Road,48307,42.6864628,-83.1301230
327,William Road,48307,42.6864884,-83.1298508
315,William Road,48307,42.6865296,-83.1303934
309,William Road,48307,42.6866102,-83.1306569
301,William Road,48307,42.6866486,-83.1309435
215,William Road,48307,42.6866309,-83.1312240
191,Charles Road,48307,42.6862296,-83.1319848
205,William Road,48307,42.6862999,-83.1316750
207,William Road,48307,42.6864871,-83.1314260
124,Charles Road,48307,42.6860346,-83.1324066
402,Parkdale Avenue,48307,42.6864388,-83.1285186
761,Elizabeth Street,48307,42.6855021,-83.1276180
769,Elizabeth Street,48307,42.6860394,-83.1275949
763,Elizabeth Street,48307,42.6856432,-83.1275787
765,Elizabeth Street,48307,42.6857798,-83.1275502
767,Elizabeth Street,48307,42.6859149,-83.1275705
426,Parkdale Avenue,48307,42.6863397,-83.1275033
420,Parkdale Avenue,48307,42.6863879,-83.1277483
416,Parkdale Avenue,48307,42.6863806,-83.1279293
410,Parkdale Avenue,48307,42.6863795,-83.1281250
406,Parkdale Avenue,48307,42.6863700,-83.1283003
747,Delanoy Court,48307,42.6856015,-83.1280926
757,Delanoy Court,48307,42.6856387,-83.1285632
751,Delanoy Court,48307,42.6855835,-83.1282910
745,Delanoy Court,48307,42.6851276,-83.1285773
743,Delanoy Court,48307,42.6851163,-83.1283619
731,Delanoy Court,48307,42.6851446,-83.1280991
335,Parkdale Avenue,48307,42.6869462,-83.1292940
343,Parkdale Avenue,48307,42.6869291,-83.1289500
347,Parkdale Avenue,48307,42.6869144,-83.1287594
339,Parkdale Avenue,48307,42.6869310,-83.1291212
331,Parkdale Avenue,48307,42.6870067,-83.1295661
412,Romeo Road,48307,42.6878797,-83.1279235
408,Romeo Road,48307,42.6876601,-83.1281944
406,Romeo Road,48307,42.6877478,-83.1283996
400,Romeo Road,48307,42.6876391,-83.1286045
356,Romeo Road,48307,42.6875498,-83.1287908
352,Romeo Road,48307,42.6875274,-83.1289647
346,Romeo Road,48307,42.6874922,-83.1291454
334,Romeo Road,48307,42.6874277,-83.1293320
328,Romeo Road,48307,42.6873947,-83.1295264
320,Romeo Road,48307,42.6872995,-83.1297845
325,Parkdale Avenue,48307,42.6870343,-83.1297732
321,Parkdale Avenue,48307,42.6870583,-83.1299670
316,Romeo Road,48307,42.6872333,-83.1300643
315,Parkdale Avenue,48307,42.6871113,-83.1301946
309,Parkdale Avenue,48307,42.6871423,-83.1305005
706,Parkdale Road,48307,42.6862521,-83.1237140
712,Parkdale Road,48307,42.6862603,-83.1235157
702,Parkdale Road,48307,42.6862583,-83.1238920
776,Miller Avenue,48307,42.6858913,-83.1238374
770,Miller Avenue,48307,42.6857529,-83.1238192
762,Miller Avenue,48307,42.6854701,-83.1238036
766,Miller Avenue,48307,42.6856149,-83.1238072
758,Miller Avenue,48307,42.6853334,-83.1238328
754,Miller Avenue,48307,42.6851883,-83.1238113
750,Miller Avenue,48307,42.6850532,-83.1238076
722,Miller Avenue,48307,42.6848940,-83.1237905
718,Miller Avenue,48307,42.6847031,-83.1237790
632,Miller Avenue,48307,42.6845301,-83.1237375
628,Miller Avenue,48307,42.6843329,-83.1237435
624,Miller Avenue,48307,42.6841586,-83.1237415
620,Miller Avenue,48307,42.6839027,-83.1237295
616,Miller Avenue,48307,42.6837367,-83.1237234
536,Miller Avenue,48307,42.6835387,-83.1236885
532,Miller Avenue,48307,42.6833805,-83.1237207
528,Miller Avenue,48307,42.6832043,-83.1237309
524,Miller Avenue,48307,42.6829989,-83.1236772
512,Miller Avenue,48307,42.6824892,-83.1237321
516,Miller Avenue,48307,42.6826665,-83.1236889
520,Miller Avenue,48307,42.6828414,-83.1237252
429,Parkdale Avenue,48307,42.6867666,-83.1274106
433,Parkdale Avenue,48307,42.6867566,-83.1271950
437,Parkdale Avenue,48307,42.6867516,-83.1268803
435,Parkdale Avenue,48307,42.6867665,-83.1270412
439,Parkdale Avenue,48307,42.6867611,-83.1266670
449,Parkdale Avenue,48307,42.6867492,-83.1261639
441,Parkdale Avenue,48307,42.6867702,-83.1264004
501,Parkdale Avenue,48307,42.6867165,-83.1259319
509,Parkdale Avenue,48307,42.6867649,-83.1256895
601,Parkdale Avenue,48307,42.6866892,-83.1252842
603,Parkdale Avenue,48307,42.6867176,-83.1250989
812,Plate Street,48307,42.6878751,-83.1250754
839,Miller Avenue,48307,42.6877679,-83.1243260
845,Miller Avenue,48307,42.6878945,-83.1243133
840,Miller Avenue,48307,42.6877689,-83.1237100
834,Miller Avenue,48307,42.6875175,-83.1237385
836,Miller Avenue,48307,42.6876354,-83.1236993
833,Miller Avenue,48307,42.6876150,-83.1243242
829,Miller Avenue,48307,42.6874911,-83.1243568
825,Miller Avenue,48307,42.6873478,-83.1243086
819,Miller Avenue,48307,42.6870807,-83.1243360
821,Miller Avenue,48307,42.6872163,-83.1243194
830,Miller Avenue,48307,42.6872240,-83.1237938
828,Miller Avenue,48307,42.6870885,-83.1237925
826,Miller Avenue,48307,42.6869328,-83.1237744
711,Parkdale Avenue,48307,42.6866712,-83.1235109
703,Parkdale Avenue,48307,42.6866692,-83.1238434
613,Parkdale Avenue,48307,42.6866835,-83.1245967
615,Parkdale Avenue,48307,42.6867151,-83.1244085
815,Miller Avenue,48307,42.6867259,-83.1242377
760,Lounsbury Avenue,48307,42.6858074,-83.1256617
758,Lounsbury Avenue,48307,42.6855774,-83.1256772
746,Lounsbury Avenue,48307,42.6847167,-83.1258299
529,Hill Street,48307,42.6846763,-83.1256189
533,Hill Street,48307,42.6847133,-83.1253938
629,Hill Street,48307,42.6847245,-83.1246591
625,Hill Street,48307,42.6846901,-83.1249226
537,Hill Street,48307,42.6847021,-83.1251383
719,Miller Avenue,48307,42.6847194,-83.1242989
723,Miller Avenue,48307,42.6848851,-83.1243468
754,Lounsbury Avenue,48307,42.6853485,-83.1256623
750,Lounsbury Avenue,48307,42.6851254,-83.1257030
765,Miller Avenue,48307,42.6851144,-83.1248227
769,Miller Avenue,48307,42.6853774,-83.1243474
775,Miller Avenue,48307,42.6858412,-83.1243378
773,Miller Avenue,48307,42.6856406,-83.1243226
774,Lounsbury Avenue,48307,42.6860304,-83.1257743
500,Parkdale Avenue,48307,42.6862945,-83.1258443
510,Parkdale Avenue,48307,42.6862876,-83.1255728
520,Parkdale Avenue,48307,42.6862882,-83.1251716
518,Parkdale Avenue,48307,42.6862683,-83.1253380
604,Parkdale Avenue,48307,42.6862823,-83.1249615
608,Parkdale Avenue,48307,42.6862097,-83.1247919
612,Parkdale Avenue,48307,42.6862756,-83.1245663
614,Parkdale Avenue,48307,42.6862713,-83.1244154
624,Parkdale Avenue,48307,42.6862587,-83.1242403
627,Miller Avenue,48307,42.6842655,-83.1242898
632,Hill Street,48307,42.6843043,-83.1245189
628,Hill Street,48307,42.6842812,-83.1247409
624,Hill Street,48307,42.6842827,-83.1249667
536,Hill Street,48307,42.6842825,-83.1252214
532,Hill Street,48307,42.6842619,-83.1254544
524,Hill Street,48307,42.6842531,-83.1259343
528,Hill Street,48307,42.6842611,-83.1256692
525,Rewold Drive,48307,42.6838006,-83.1257691
424,Hill Street,48307,42.6842325,-83.1268776
420,Hill Street,48307,42.6841915,-83.1271128
436,Hill Street,48307,42.6842772,-83.1261880
432,Hill Street,48307,42.6842389,-83.1264273
428,Hill Street,48307,42.6842609,-83.1266511
421,Rewold Drive,48307,42.6837982,-83.1268884
419,Rewold Drive,48307,42.6838122,-83.1271505
425,Rewold Drive,48307,42.6837950,-83.1266615
429,Rewold Drive,48307,42.6837932,-83.1264407
433,Rewold Drive,48307,42.6837936,-83.1262148
521,Rewold Drive,48307,42.6837822,-83.1259921
529,Rewold Drive,48307,42.6837871,-83.1255448
533,Rewold Drive,48307,42.6838047,-83.1253173
633,Rewold Drive,48307,42.6837972,-83.1244354
621,Rewold Drive,48307,42.6837978,-83.1250981
625,Rewold Drive,48307,42.6837959,-83.1248700
629,Rewold Drive,48307,42.6838023,-83.1246491
637,Rewold Drive,48307,42.6837820,-83.1242343
432,Rewold Drive,48307,42.6833745,-83.1263709
424,Rewold Drive,48307,42.6834024,-83.1268184
428,Rewold Drive,48307,42.6834018,-83.1265939
436,Rewold Drive,48307,42.6833534,-83.1261473
524,Rewold Drive,48307,42.6833977,-83.1259472
528,Rewold Drive,48307,42.6833290,-83.1257196
624,Rewold Drive,48307,42.6834080,-83.1250505
536,Rewold Drive,48307,42.6833953,-83.1252748
532,Rewold Drive,48307,42.6833864,-83.1254767
632,Rewold Drive,48307,42.6833943,-83.1245827
628,Rewold Drive,48307,42.6833977,-83.1248055
425,Meadow Lane,48307,42.6829004,-83.1268652
429,Meadow Lane,48307,42.6829001,-83.1266337
433,Meadow Lane,48307,42.6829119,-83.1264139
437,Meadow Lane,48307,42.6829149,-83.1261860
525,Meadow Lane,48307,42.6829272,-83.1259708
633,Meadow Lane,48307,42.6829781,-83.1246236
629,Meadow Lane,48307,42.6829459,-83.1248475
625,Meadow Lane,48307,42.6829599,-83.1250680
537,Meadow Lane,48307,42.6829527,-83.1252925
533,Meadow Lane,48307,42.6829400,-83.1255211
529,Meadow Lane,48307,42.6829523,-83.1257427
524,Elizabeth Street,48307,42.6830721,-83.1272314
528,Elizabeth Street,48307,42.6832321,-83.1272360
532,Elizabeth Street,48307,42.6834037,-83.1272034
520,Elizabeth Street,48307,42.6829360,-83.1272556
527,Miller Avenue,48307,42.6831854,-83.1242711
523,Miller Avenue,48307,42.6829759,-83.1243063
531,Miller Avenue,48307,42.6833948,-83.1242389
512,Elizabeth Street,48307,42.6824577,-83.1273828
432,Meadow Lane,48307,42.6825089,-83.1264306
436,Meadow Lane,48307,42.6825039,-83.1261997
420,Meadow Lane,48307,42.6825004,-83.1271122
424,Meadow Lane,48307,42.6825202,-83.1268783
428,Meadow Lane,48307,42.6825305,-83.1266524
524,Meadow Lane,48307,42.6825148,-83.1259782
528,Meadow Lane,48307,42.6825434,-83.1257590
532,Meadow Lane,48307,42.6825295,-83.1255345
536,Meadow Lane,48307,42.6825447,-83.1253126
624,Meadow Lane,48307,42.6825645,-83.1250847
628,Meadow Lane,48307,42.6825700,-83.1248601
632,Meadow Lane,48307,42.6825769,-83.1246363
636,Meadow Lane,48307,42.6825823,-83.1244171
640,Meadow Lane,48307,42.6825226,-83.1242211
515,Elizabeth Street,48307,42.6826811,-83.1278721
511,Elizabeth Street,48307,42.6825337,-83.1278877
519,Elizabeth Street,48307,42.6828372,-83.1277998
523,Elizabeth Street,48307,42.6830046,-83.1277794
527,Elizabeth Street,48307,42.6831750,-83.1277712
531,Elizabeth Street,48307,42.6833342,-83.1277496
535,Elizabeth Street,48307,42.6834938,-83.1277101
623,Elizabeth Street,48307,42.6839875,-83.1276838
615,Elizabeth Street,48307,42.6836722,-83.1277021
619,Elizabeth Street,48307,42.6838220,-83.1276887
631,Elizabeth Street,48307,42.6843162,-83.1276518
719,Elizabeth Street,48307,42.6846463,-83.1276218
627,Elizabeth Street,48307,42.6841520,-83.1276830
715,Elizabeth Street,48307,42.6844807,-83.1276297
725,Elizabeth Street,48307,42.6849024,-83.1276454
433,Hill Street,48307,42.6846492,-83.1263341
429,Hill Street,48307,42.6846520,-83.1265513
425,Hill Street,48307,42.6846291,-83.1268093
421,Hill Street,48307,42.6846527,-83.1270899
734,Elizabeth Street,48307,42.6851523,-83.1271054
722,Elizabeth Street,48307,42.6848803,-83.1270787
745,Lounsbury Avenue,48307,42.6848985,-83.1264496
749,Lounsbury Avenue,48307,42.6850483,-83.1263559
751,Lounsbury Avenue,48307,42.6851988,-83.1263466
753,Lounsbury Avenue,48307,42.6853189,-83.1263237
755,Lounsbury Avenue,48307,42.6854627,-83.1263394
736,Elizabeth Street,48307,42.6853663,-83.1270505
740,Elizabeth Street,48307,42.6854978,-83.1270817
746,Elizabeth Street,48307,42.6856504,-83.1271037
748,Elizabeth Street,48307,42.6857561,-83.1270425
750,Elizabeth Street,48307,42.6859024,-83.1270171
754,Elizabeth Street,48307,42.6860568,-83.1270674
773,Lounsbury Avenue,48307,42.6859972,-83.1262999
761,Lounsbury Avenue,48307,42.6857405,-83.1265211
767,Lounsbury Avenue,48307,42.6858647,-83.1263247
757,Lounsbury Avenue,48307,42.6855898,-83.1263321
456,Parkdale Avenue,48307,42.6863283,-83.1262235
432,Parkdale Avenue,48307,42.6863477,-83.1271813
440,Parkdale Avenue,48307,42.6863431,-83.1268130
448,Parkdale Avenue,48307,42.6863348,-83.1264311
444,Parkdale Avenue,48307,42.6863561,-83.1265827
438,Parkdale Avenue,48307,42.6863727,-83.1269735
353,Highland Avenue,48307,42.6898386,-83.1296217
357,Highland Avenue,48307,42.6898337,-83.1294151
352,Linwood Avenue,48307,42.6902865,-83.1296679
356,Linwood Avenue,48307,42.6903083,-83.1294690
360,Linwood Avenue,48307,42.6903082,-83.1292734
347,Highland Avenue,48307,42.6898293,-83.1298047
363,Highland Avenue,48307,42.6898339,-83.1292450
367,Highland Avenue,48307,42.6898803,-83.1290741
366,Linwood Avenue,48307,42.6903328,-83.1290906
346,Linwood Avenue,48307,42.6902874,-83.1298617
337,Highland Avenue,48307,42.6897938,-83.1301766
336,Linwood Avenue,48307,42.6902934,-83.1302290
332,Linwood Avenue,48307,42.6902568,-83.1303974
323,Highland Avenue,48307,42.6897926,-83.1307350
312,Linwood Avenue,48307,42.6902649,-83.1311700
313,Highland Avenue,48307,42.6897777,-83.1311104
342,Linwood Avenue,48307,42.6902968,-83.1300332
326,Linwood Avenue,48307,42.6902209,-83.1305699
322,Linwood Avenue,48307,42.6902722,-83.1307591
318,Linwood Avenue,48307,42.6902574,-83.1309409
306,Linwood Avenue,48307,42.6902503,-83.1313409
343,Highland Avenue,48307,42.6898150,-83.1300218
333,Highland Avenue,48307,42.6897923,-83.1303409
327,Highland Avenue,48307,42.6897825,-83.1305533
317,Highland Avenue,48307,42.6898017,-83.1309233
307,Highland Avenue,48307,42.6897337,-83.1312852
303,Highland Avenue,48307,42.6897672,-83.1314582
302,Linwood Avenue,48307,42.6902192,-83.1315232
124,Linwood Avenue,48307,42.6901555,-83.1331635
148,Linwood Avenue,48307,42.6901670,-83.1322436
128,Linwood Avenue,48307,42.6901572,-83.1329831
134,Linwood Avenue,48307,42.6901774,-83.1328014
138,Linwood Avenue,48307,42.6901850,-83.1326238
144,Linwood Avenue,48307,42.6901869,-83.1324348
154,Linwood Avenue,48307,42.6902145,-83.1320293
158,Linwood Avenue,48307,42.6902275,-83.1318624
133,Highland Avenue,48307,42.6896851,-83.1329421
147,Highland Avenue,48307,42.6897278,-83.1321957
145,Highland Avenue,48307,42.6897310,-83.1323666
155,Highland Avenue,48307,42.6897160,-83.1320158
159,Highland Avenue,48307,42.6897569,-83.1318369
139,Highland Avenue,48307,42.6896952,-83.1325669
135,Highland Avenue,48307,42.6896968,-83.1327573
125,Highland Avenue,48307,42.6896848,-83.1331009
1120,North Main Street,48307,42.6896218,-83.1337084
1126,North Main Street,48307,42.6897446,-83.1337022
1132,North Main Street,48307,42.6899154,-83.1337200
1136,North Main Street,48307,42.6900663,-83.1336889
1142,North Main Street,48307,42.6901955,-83.1337434
356,Highland Avenue,48307,42.6894083,-83.1292914
366,Highland Avenue,48307,42.6894090,-83.1290530
352,Highland Avenue,48307,42.6894082,-83.1295806
336,Highland Avenue,48307,42.6893859,-83.1301344
346,Highland Avenue,48307,42.6894128,-83.1297718
342,Highland Avenue,48307,42.6894130,-83.1299637
332,Highland Avenue,48307,42.6894044,-83.1303259
306,Highland Avenue,48307,42.6893587,-83.1312726
322,Highland Avenue,48307,42.6893778,-83.1307182
312,Highland Avenue,48307,42.6893600,-83.1310916
326,Highland Avenue,48307,42.6893703,-83.1305119
316,Highland Avenue,48307,42.6893573,-83.1309045
304,Highland Avenue,48307,42.6893499,-83.1314455
303,Terry Avenue,48307,42.6889052,-83.1314341
307,Terry Avenue,48307,42.6889848,-83.1312770
313,Terry Avenue,48307,42.6888762,-83.1310596
317,Terry Avenue,48307,42.6889173,-83.1308916
323,Terry Avenue,48307,42.6889446,-83.1306851
327,Terry Avenue,48307,42.6889400,-83.1303727
333,Terry Avenue,48307,42.6889772,-83.1301110
343,Terry Avenue,48307,42.6889537,-83.1299274
345,Terry Avenue,48307,42.6889592,-83.1297318
357,Terry Avenue,48307,42.6889878,-83.1295140
363,Terry Avenue,48307,42.6889774,-83.1292900
377,Terry Avenue,48307,42.6889910,-83.1290556
123,Terry Avenue,48307,42.6888294,-83.1330453
127,Terry Avenue,48307,42.6888318,-83.1328934
133,Terry Avenue,48307,42.6888127,-83.1326542
137,Terry Avenue,48307,42.6888133,-83.1324748
143,Terry Avenue,48307,42.6888184,-83.1323192
147,Terry Avenue,48307,42.6888334,-83.1321091
153,Terry Avenue,48307,42.6888415,-83.1319166
157,Terry Avenue,48307,42.6890239,-83.1317652
144,Highland Avenue,48307,42.6893274,-83.1323363
124,Highland Avenue,48307,42.6892229,-83.1330923
128,Highland Avenue,48307,42.6893123,-83.1329120
134,Highland Avenue,48307,42.6893174,-83.1327223
140,Highland Avenue,48307,42.6893195,-83.1325193
148,Highland Avenue,48307,42.6892987,-83.1321814
154,Highland Avenue,48307,42.6893080,-83.1319971
158,Highland Avenue,48307,42.6893368,-83.1318055
129,Northwood Avenue,48307,42.6923014,-83.1331191
1404,North Main Street,48307,42.6922506,-83.1337679
1410,North Main Street,48307,42.6924349,-83.1338169
125,Northwood Avenue,48307,42.6923000,-83.1333028
135,Northwood Avenue,48307,42.6923293,-83.1329301
155,Northwood Avenue,48307,42.6923268,-83.1321998
159,Northwood Avenue,48307,42.6923348,-83.1319884
149,Northwood Avenue,48307,42.6923410,-83.1323770
139,Northwood Avenue,48307,42.6923270,-83.1326415
303,Northwood Avenue,48307,42.6923527,-83.1316358
323,Northwood Avenue,48307,42.6923793,-83.1309562
307,Northwood Avenue,48307,42.6923615,-83.1313550
317,Northwood Avenue,48307,42.6923508,-83.1311559
327,Northwood Avenue,48307,42.6923615,-83.1307230
363,Northwood Avenue,48307,42.6924387,-83.1293297
343,Northwood Avenue,48307,42.6923778,-83.1302216
347,Northwood Avenue,48307,42.6924057,-83.1299102
333,Northwood Avenue,48307,42.6923664,-83.1304703
357,Northwood Avenue,48307,42.6923910,-83.1296257
313,Maywood Avenue,48307,42.6915128,-83.1315379
332,Northwood Avenue,48307,42.6919618,-83.1305698
302,Northwood Avenue,48307,42.6919350,-83.1316339
317,Maywood Avenue,48307,42.6915110,-83.1311204
306,Northwood Avenue,48307,42.6919278,-83.1314416
312,Northwood Avenue,48307,42.6919640,-83.1312618
316,Northwood Avenue,48307,42.6919646,-83.1310641
322,Northwood Avenue,48307,42.6919747,-83.1308402
352,Northwood Avenue,48307,42.6919945,-83.1297044
336,Northwood Avenue,48307,42.6919834,-83.1303128
342,Northwood Avenue,48307,42.6920014,-83.1299847
360,Northwood Avenue,48307,42.6919982,-83.1293241
355,Maywood Avenue,48307,42.6915628,-83.1297352
333,Maywood Avenue,48307,42.6915427,-83.1304765
323,Maywood Avenue,48307,42.6915121,-83.1308617
327,Maywood Avenue,48307,42.6915166,-83.1306874
337,Maywood Avenue,48307,42.6915381,-83.1302538
345,Maywood Avenue,48307,42.6915845,-83.1299800
357,Maywood Avenue,48307,42.6915717,-83.1295622
363,Maywood Avenue,48307,42.6916137,-83.1292604
130,Northwood Avenue,48307,42.6918716,-83.1329033
144,Northwood Avenue,48307,42.6919165,-83.1324646
152,Northwood Avenue,48307,42.6919241,-83.1321878
138,Northwood Avenue,48307,42.6918773,-83.1327022
158,Northwood Avenue,48307,42.6919482,-83.1319696
155,Maywood Avenue,48307,42.6914836,-83.1321329
159,Maywood Avenue,48307,42.6914945,-83.1319457
145,Maywood Avenue,48307,42.6914796,-83.1324378
135,Maywood Avenue,48307,42.6914703,-83.1328112
125,Maywood Avenue,48307,42.6914575,-83.1331079
1304,North Main Street,48307,42.6914152,-83.1336070
124,Northwood Avenue,48307,42.6918817,-83.1331982
1318,North Main Street,48307,42.6917394,-83.1337477
1322,North Main Street,48307,42.6919163,-83.1338038
317,Linwood Avenue,48307,42.6906732,-83.1310011
313,Linwood Avenue,48307,42.6906560,-83.1311908
303,Linwood Avenue,48307,42.6906303,-83.1315311
307,Linwood Avenue,48307,42.6906185,-83.1313744
327,Linwood Avenue,48307,42.6906628,-83.1306211
343,Linwood Avenue,48307,42.6906914,-83.1300754
337,Linwood Avenue,48307,42.6906989,-83.1302477
323,Linwood Avenue,48307,42.6906628,-83.1307981
333,Linwood Avenue,48307,42.6906796,-83.1304487
347,Linwood Avenue,48307,42.6906845,-83.1298677
353,Linwood Avenue,48307,42.6907087,-83.1297034
357,Linwood Avenue,48307,42.6907126,-83.1294910
363,Linwood Avenue,48307,42.6907190,-83.1293007
367,Linwood Avenue,48307,42.6907244,-83.1291485
366,Maywood Avenue,48307,42.6911269,-83.1292381
356,Maywood Avenue,48307,42.6911712,-83.1295232
352,Maywood Avenue,48307,42.6911683,-83.1297102
346,Maywood Avenue,48307,42.6911611,-83.1298978
342,Maywood Avenue,48307,42.6911480,-83.1300842
332,Maywood Avenue,48307,42.6911047,-83.1304762
306,Maywood Avenue,48307,42.6910860,-83.1313877
302,Maywood Avenue,48307,42.6910428,-83.1315771
336,Maywood Avenue,48307,42.6911321,-83.1302826
322,Maywood Avenue,48307,42.6911398,-83.1306907
316,Maywood Avenue,48307,42.6911102,-83.1309093
312,Maywood Avenue,48307,42.6911097,-83.1311157
159,Linwood Avenue,48307,42.6906579,-83.1318999
149,Linwood Avenue,48307,42.6905938,-83.1322523
155,Linwood Avenue,48307,42.6905988,-83.1320681
148,Maywood Avenue,48307,42.6910781,-83.1322464
156,Maywood Avenue,48307,42.6910501,-83.1320036
136,Maywood Avenue,48307,42.6910191,-83.1332189
129,Linwood Avenue,48307,42.6905558,-83.1330206
125,Linwood Avenue,48307,42.6905607,-83.1331939
135,Linwood Avenue,48307,42.6905637,-83.1328141
139,Linwood Avenue,48307,42.6905579,-83.1326358
145,Linwood Avenue,48307,42.6906057,-83.1324616
138,Maywood Avenue,48307,42.6910481,-83.1330226
140,Maywood Avenue,48307,42.6910450,-83.1328530
144,Maywood Avenue,48307,42.6910320,-83.1324729
142,Maywood Avenue,48307,42.6910176,-83.1326583
1234,North Main Street,48307,42.6910496,-83.1337623
1228,North Main Street,48307,42.6908541,-83.1337620
1257,Maple Drive,48307,42.6910002,-83.1244037
1247,Maple Drive,48307,42.6909249,-83.1245974
1237,Maple Drive,48307,42.6908486,-83.1247972
1229,Maple Drive,48307,42.6907727,-83.1249989
1219,Maple Drive,48307,42.6906966,-83.1251951
1276,Catalpa Drive,48307,42.6910673,-83.1252505
1288,Catalpa Drive,48307,42.6911548,-83.1249929
1300,Catalpa Drive,48307,42.6912733,-83.1247878
1312,Catalpa Drive,48307,42.6914215,-83.1246252
1324,Catalpa Drive,48307,42.6915780,-83.1245761
1325,Maple Drive,48307,42.6916088,-83.1240759
1309,Maple Drive,48307,42.6914370,-83.1240752
1273,Maple Drive,48307,42.6911214,-83.1242308
1291,Maple Drive,48307,42.6912668,-83.1241216
1230,Maple Drive,48307,42.6904426,-83.1247817
1218,Maple Drive,48307,42.6903382,-83.1250693
1246,Maple Drive,48307,42.6905805,-83.1242402
1236,Maple Drive,48307,42.6904907,-83.1244481
1258,Maple Drive,48307,42.6906540,-83.1241184
1270,Maple Drive,48307,42.6908064,-83.1239398
1282,Maple Drive,48307,42.6909582,-83.1236907
1294,Maple Drive,48307,42.6911185,-83.1236580
1306,Maple Drive,48307,42.6913054,-83.1235889
1318,Maple Drive,48307,42.6914920,-83.1235686
1330,Maple Drive,48307,42.6916649,-83.1235659
1354,Catalpa Drive,48307,42.6921073,-83.1245036
1336,Catalpa Drive,48307,42.6917650,-83.1245354
1346,Catalpa Drive,48307,42.6919452,-83.1245210
1341,Maple Drive,48307,42.6917634,-83.1240921
1342,Maple Drive,48307,42.6918236,-83.1235640
1354,Maple Drive,48307,42.6919974,-83.1235626
1353,Maple Drive,48307,42.6919531,-83.1240592
1365,Maple Drive,48307,42.6921428,-83.1240672
1366,Maple Drive,48307,42.6921645,-83.1235633
1378,Maple Drive,48307,42.6923309,-83.1235579
1406,Maple Drive,48307,42.6926778,-83.1235003
1392,Maple Drive,48307,42.6924980,-83.1235552
1405,Maple Drive,48307,42.6926622,-83.1240701
1391,Maple Drive,48307,42.6924777,-83.1241096
1366,Catalpa Drive,48307,42.6922787,-83.1245197
1377,Maple Drive,48307,42.6923202,-83.1240633
1378,Catalpa Drive,48307,42.6924521,-83.1245244
1390,Catalpa Drive,48307,42.6926321,-83.1245209
1299,Catalpa Drive,48307,42.6915463,-83.1252013
1321,Catalpa Drive,48307,42.6917058,-83.1250669
1353,Catalpa Drive,48307,42.6920895,-83.1250226
1341,Catalpa Drive,48307,42.6918955,-83.1250760
1365,Catalpa Drive,48307,42.6922521,-83.1250022
1377,Catalpa Drive,48307,42.6924310,-83.1250023
1389,Catalpa Drive,48307,42.6926064,-83.1250003
1380,Sycamore Drive,48307,42.6924408,-83.1254345
1390,Sycamore Drive,48307,42.6926335,-83.1254074
1370,Sycamore Drive,48307,42.6922620,-83.1254567
1360,Sycamore Drive,48307,42.6920792,-83.1254581
1348,Sycamore Drive,48307,42.6919019,-83.1254716
1330,Sycamore Drive,48307,42.6916984,-83.1254694
1275,Catalpa Drive,48307,42.6914522,-83.1254136
1238,Sycamore Drive,48307,42.6909673,-83.1254755
1216,Sycamore Drive,48307,42.6906963,-83.1254665
1206,Maple Drive,48307,42.6902323,-83.1253749
1136,Sycamore Drive,48307,42.6897913,-83.1254518
1156,Sycamore Drive,48307,42.6900092,-83.1254718
1389,Sycamore Drive,48307,42.6926127,-83.1259581
1377,Sycamore Drive,48307,42.6924423,-83.1259675
1365,Sycamore Drive,48307,42.6922423,-83.1259634
1353,Sycamore Drive,48307,42.6920472,-83.1259641
1339,Sycamore Drive,48307,42.6918290,-83.1259621
1327,Sycamore Drive,48307,42.6916619,-83.1259648
1315,Sycamore Drive,48307,42.6914885,-83.1260417
1303,Sycamore Drive,48307,42.6913378,-83.1259742
1251,Sycamore Drive,48307,42.6911688,-83.1259749
1239,Sycamore Drive,48307,42.6909954,-83.1259991
1227,Sycamore Drive,48307,42.6908411,-83.1259816
1215,Sycamore Drive,48307,42.6906796,-83.1259836
1203,Sycamore Drive,48307,42.6905229,-83.1259842
1179,Sycamore Drive,48307,42.6903446,-83.1259849
1167,Sycamore Drive,48307,42.6901820,-83.1259816
1155,Sycamore Drive,48307,42.6900174,-83.1259842
1143,Sycamore Drive,48307,42.6898558,-83.1260110
1131,Sycamore Drive,48307,42.6896684,-83.1260070
1119,Sycamore Drive,48307,42.6894994,-83.1260050
697,Romeo Road,48307,42.6905525,-83.1234946
693,Romeo Road,48307,42.6904445,-83.1236722
689,Romeo Road,48307,42.6903227,-83.1239386
685,Romeo Road,48307,42.6901706,-83.1242281
683,Romeo Road,48307,42.6900352,-83.1244665
673,Romeo Road,48307,42.6898024,-83.1249151
677,Romeo Road,48307,42.6898855,-83.1247073
669,Romeo Road,48307,42.6897002,-83.1250780
665,Romeo Road,48307,42.6895557,-83.1253291
597,Romeo Road,48307,42.6892311,-83.1258598
593,Romeo Road,48307,42.6891430,-83.1260443
313,North Hill Circle,48307,42.6914488,-83.1414301
293,North Hill Circle,48307,42.6914610,-83.1408449
303,North Hill Circle,48307,42.6914606,-83.1411541
283,North Hill Circle,48307,42.6914799,-83.1405453
273,North Hill Circle,48307,42.6915255,-83.1403193
263,North Hill Circle,48307,42.6916048,-83.1400403
253,North Hill Circle,48307,42.6917538,-83.1398044
243,North Hill Circle,48307,42.6918012,-83.1395367
1361,Axford Place,48307,42.6921359,-83.1421106
338,North Hill Circle,48307,42.6919539,-83.1416397
328,North Hill Circle,48307,42.6918776,-83.1414195
318,North Hill Circle,48307,42.6918694,-83.1411608
308,North Hill Circle,48307,42.6918782,-83.1409101
298,North Hill Circle,48307,42.6918952,-83.1406172
288,North Hill Circle,48307,42.6919786,-83.1403966
278,North Hill Circle,48307,42.6920715,-83.1401683
268,North Hill Circle,48307,42.6922257,-83.1399389
258,North Hill Circle,48307,42.6922853,-83.1396590
228,North Hill Circle,48307,42.6923213,-83.1388462
248,North Hill Circle,48307,42.6923307,-83.1393753
238,North Hill Circle,48307,42.6923124,-83.1391105
327,Winry Drive,48307,42.6923241,-83.1414099
317,Winry Drive,48307,42.6922625,-83.1411689
307,Winry Drive,48307,42.6922950,-83.1408870
297,Winry Drive,48307,42.6924001,-83.1406127
287,Winry Drive,48307,42.6924576,-83.1403799
345,John R Road,48307,42.6767311,-83.1042693
704,Woodward Avenue,48307,42.6895322,-83.1425972
