House number,Street name,Postal code,Latitude,Longitude
2250,Crooks Road,48309,42.6488000,-83.1726000
1490,North Rochester Road,48307,42.6950910,-83.1333539
6980,North Rochester Road,48306,42.6960660,-83.1348628
1497,North Rochester Road,48307,42.6953216,-83.1347164
2831,Research Drive,48309,42.6406070,-83.1906506
3980,Crooks Road,48309,42.6223687,-83.1703016
1020,West Auburn Road,48309,42.6359335,-83.1525738
1495,North Rochester Road,48307,42.6949872,-83.1359902
201,East Auburn Road,48307,42.6368937,-83.1258952
2137,Auburn Rd,48309,42.6345429,-83.1732141
2021,West Auburn Road,48309,42.6347606,-83.1710681
2985,Crooks Road,48309,42.6357100,-83.1693153
1927,West Auburn Road,48309,42.6348132,-83.1692926
3045,Crooks Road,48309,42.6345330,-83.1699698
1959,West Auburn Road,48309,42.6347968,-83.1696983
2949,Crooks Road,48309,42.6363072,-83.1696326
2544,South Adams Road,48309,42.6415893,-83.2006276
3985,West Auburn Road,48309,42.6338174,-83.2095214
2010,West Auburn Road,48309,42.6354459,-83.1710913
2028,West Auburn Road,48309,42.6354392,-83.1714789
2590,Crooks Road,48309-3603,42.6418391,-83.1713962
2593,Crooks Road,48309-3627,42.6418568,-83.1700088
2500,South Adams Road,48309,42.6432547,-83.1987318
2508,South Adams Road,48309,42.6418195,-83.2000698
2528,South Adams Road,48309,42.6416968,-83.2003445
2552,South Adams Road,48309,42.6414881,-83.2009339
2929,Rochester Road South,48307,42.6366409,-83.1298133
2921,South Rochester Road,48307,42.6369344,-83.1303095
1830,Star-Batt Drive,48309,42.6480159,-83.1656438
6950,Rochester Road,48306,42.6972270,-83.1353624
1950,South Rochester Road,48307,42.6534289,-83.1340898
2011,South Rochester Road,48307,42.6518509,-83.1306554
2025,South Rochester Road,48307,42.6510485,-83.1305789
1549,W Hamlin Rd,48309,42.6513945,-83.1625898
1460,Walton Boulevard,48309,42.6820089,-83.1599290
3044,Walton Boulevard,48309,42.6828730,-83.1950866
1316,South Rochester Road,48307,42.6619619,-83.1347687
2995,Walton Boulevard,48309,42.6800918,-83.1935174
1310,Walton Boulevard,48309,42.6818840,-83.1539315
1295,Walton Boulevard,48307,42.6812640,-83.1529918
532,South Rochester Road,48307,42.6735992,-83.1336848
1010,South Rochester Road,48307,42.6659008,-83.1335441
2020,South Rochester Road,48307,42.6520443,-83.1329015
1015,East Auburn Road,48307,42.6369956,-83.1112516
981,East Auburn Road,48307,42.6371394,-83.1129487
823,East Auburn Road,48307,42.6373283,-83.1143970
934,East Auburn Road,48307,42.6362094,-83.1127416
2955,John R Road,48307,42.6374861,-83.1112347
2675,John R Road,48307,42.6424809,-83.1104831
2633,John R Road,48307,42.6427615,-83.1083540
1982,Star-Batt Drive,48309,42.6491420,-83.1703730
1194,Walton Boulevard,48307,42.6825220,-83.1506957
2887,South Rochester Road,48307-4580,42.6373967,-83.1291507
2651,South Rochester Road,48307,42.6413858,-83.1292032
3058,South Rochester Road,48307,42.6353249,-83.1323665
3088,South Rochester Road,48307,42.6351072,-83.1323583
3014,Rochester Road South,48307,42.6357078,-83.1323973
2972,South Rochester Road,48307,42.6364613,-83.1325628
1360,Walton Boulevard,48309,42.6819667,-83.1557793
1344,Walton Boulevard,48309,42.6819918,-83.1552170
3420,South Rochester Road,48307,42.6309889,-83.1319816
965,East Auburn Road,48307,42.6377569,-83.1124615
861,East Auburn Road,48307,42.6379626,-83.1137090
869,Auburn Road East,48307,42.6379681,-83.1135954
877,East Auburn Road,48307,42.6379710,-83.1134881
893,East Auburn Road,48307,42.6379730,-83.1133929
2668,South Rochester Road,48307,42.6414671,-83.1326545
2650,South Rochester Road,48309,42.6414138,-83.1332604
3760,West Auburn Road,48309,42.6343084,-83.2055478
1106,South Rochester Road,48307,42.6646140,-83.1341618
2636,South Adams Road,48309,42.6411932,-83.2025593
2540,South Adams Road,48309,42.6416151,-83.2005596
6980,North Rochester Road,48306,42.6960778,-83.1351605
65,South Livernois Road,48307,42.6802719,-83.1514895
1431,North Rochester Road,48307,42.6938402,-83.1352462
260,North Adams Road,48309,42.6834808,-83.1933607
3010,Walton Boulevard,48309,42.6814196,-83.1948766
3224,East Walton Boulevard,48309,42.6810644,-83.1966965
84,North Adams Road,48309,42.6816546,-83.1924581
2995,Walton Boulevard,48309,42.6798738,-83.1932339
2995,Walton Boulevard,48309-3600,42.6798487,-83.1934183
2985,Walton Boulevard,48309-1419,42.6800551,-83.1927649
3182,Walton Boulevard,48309,42.6824251,-83.1963974
1288,Walton Boulevard,48307,42.6830812,-83.1521336
1256,Walton Boulevard,48307,42.6830970,-83.1512270
1284,Walton Boulevard,48307,42.6830832,-83.1520800
1282,Walton Boulevard,48307,42.6830792,-83.1519553
1276,Walton Boulevard,48307,42.6830842,-83.1518305
1272,Walton Boulevard,48307,42.6830812,-83.1517393
1270,Walton Boulevard,48307,42.6830832,-83.1516736
1268,Walton Boulevard,48307,42.6830822,-83.1515717
1264,Walton Boulevard,48307,42.6830881,-83.1514832
1260,Walton Boulevard,48307,42.6830861,-83.1513974
1258,Walton Boulevard,48307,42.6830881,-83.1513209
3074,Walton Boulevard,48309,42.6828220,-83.1953482
3985,West Auburn Road,48309,42.6337145,-83.2094320
3420,South Rochester Road,48307,42.6310046,-83.1322099
3841,South Rochester Road,48307,42.6249066,-83.1305254
3841,South Rochester Road,48307,42.6249456,-83.1303290
2020,South Rochester Road,48307,42.6520226,-83.1330889
2050,South Rochester Road,48307,42.6512940,-83.1331889
1010,South Rochester Road,48307,42.6659033,-83.1337503
1378,Walton Boulevard,48309,42.6824472,-83.1569708
1370,Walton Boulevard,48309,42.6824433,-83.1566634
295,South Livernois Road,48307,42.6790715,-83.1516686
1295,Walton Boulevard,48307,42.6812237,-83.1528749
2980,Walton Boulevard,48309,42.6810428,-83.1935298
2980,Walton Boulevard,48309,42.6811207,-83.1935305
1310,Walton Boulevard,48309,42.6820268,-83.1539398
1280,Walton Boulevard,48307,42.6832478,-83.1525993
3980,Crooks Road,48309,42.6224277,-83.1704233
1020,West Auburn Road,48309,42.6359640,-83.1526865
1961,East Auburn Road,48307,42.6388957,-83.0930154
1961,East Auburn Road,48307,42.6390999,-83.0930690
1799,East Auburn Road,48307,42.6383087,-83.0961838
1799,East Auburn Road,48307,42.6384374,-83.0962052
1015,East Auburn Road,48307,42.6371416,-83.1112169
2021,West Auburn Road,48309,42.6346898,-83.1711468
2260,Crooks Road,48309,42.6478546,-83.1713218
2260,Crooks Road,48309,42.6478541,-83.1715103
2255,Crooks Road,48309,42.6479369,-83.1705111
2255,Crooks Road,48309,42.6479428,-83.1701785
1497,North Rochester Road,48307,42.6953101,-83.1348196
1451,North Rochester Road,48307,42.6941012,-83.1361185
606,South Rochester Road,48307,42.6719709,-83.1338675
532,South Rochester Road,48307,42.6734672,-83.1337944
1470,North Rochester Road,48307,42.6947584,-83.1326023
2626,South Adams Road,48309,42.6410729,-83.2019925
2594,South Adams Road,48309,42.6412113,-83.2016161
2590,South Adams Road,48309,42.6412390,-83.2015394
2536,South Adams Road,48309,42.6416393,-83.2004959
2532,South Adams Road,48309,42.6416629,-83.2004338
2516,South Adams Road,48309,42.6417667,-83.2001602
2520,South Adams Road,48309,42.6417431,-83.2002225
298,West Tienken Road,48306,42.6962738,-83.1394409
440,Pioneer Drive,48309-4482,42.6710810,-83.2107416
1122,South Rochester Road,48307,42.6640661,-83.1339022
1673,Star-Batt Drive,48309,42.6465147,-83.1650895
1467,North Rochester Road,48307,42.6944139,-83.1346415
288,West Tienken Road,48306,42.6963665,-83.1388026
1185,Washington Road,48306,42.6989072,-83.1108580
2626,South Adams Road,48309,42.6411098,-83.2019966
2087,Cosimo Drive,48307,42.6501579,-83.1495007
2724,South Adams Road,48309,42.6412043,-83.2037044
"1701, #160/240",East South Boulevard,48307,42.6247654,-83.0960365
694,South Rochester Road,48307,42.6710097,-83.1341037
49,Cloverport Avenue,48307,42.6721313,-83.1346372
31,Childress Avenue,48307,42.6728350,-83.1342927
37,South Livernois Road,48307,42.6812552,-83.1515602
41,South Livernois Road,48307,42.6811373,-83.1515635
45,South Livernois Road,48307,42.6810494,-83.1515660
41,South Livernois Road,48307,42.6809886,-83.1515677
1021,Harding Avenue,48307,42.6723984,-83.1469292
554,Flora Valley Court,48307,42.6727060,-83.1430721
542,Flora Valley Court,48307,42.6728697,-83.1430614
567,Flora Valley Court,48307,42.6725443,-83.1425088
695,Red Oak Lane,48307,42.6928886,-83.1235512
150,East Tienken Road,48307,42.6952978,-83.1315601
144,East Tienken Road,48307,42.6952958,-83.1317666
235,Red Oak Lane,48307,42.6939060,-83.1293741
1154,South Rochester Road,48307,42.6637872,-83.1361494
225,West Avon Road,48307,42.6645737,-83.1387497
3175,South Rochester Road,48307,42.6340124,-83.1287163
201,Meadow Brook Road,48309-4401,42.6667397,-83.2070206
1000,Rochester Hills Drive,48309,42.6633442,-83.1583873
429,Pioneer Drive,48309-4482,42.6723068,-83.2101005
1950,East Avon Road,48307,42.6729380,-83.0945735
6900,North Rochester Road,48306,42.6969921,-83.1366913
333,North Hill Circle,48307,42.6922155,-83.1435175
1400,E Hamlin,48307,42.6493182,-83.1073451
1039,South Rochester Road,48307,42.6650035,-83.1315522
777,Great Oaks Boulevard,48307,42.6893583,-83.1532031
2600,Club Drive,48307,42.6448460,-83.1191786
3600,Pine Trace Boulevard,48309,42.6250122,-83.1920231
200,West Avon Road,48307,42.6679452,-83.1369033
2350,Munster Drive,48309,42.6709056,-83.1812922
500,Old Perch Road,48309,42.6743189,-83.1744158
1101,West University Drive,48307,42.6794271,-83.1491584
750,Barclay Circle,48307,42.6397353,-83.1256678
700,Barclay Circle,48307,42.6401924,-83.1258063
223,East Auburn Road,48307,42.6384448,-83.1265576
200,Barclay Circle,48307,42.6416901,-83.1274098
145,East Auburn Road,48307,42.6369706,-83.1283796
2855,South Rochester Road,48307,42.6380499,-83.1311182
2945,Rochester Road,48307,42.6367517,-83.1310965
3400,Bathurst Avenue,48309,42.6305438,-83.1884005
3600,Crooks Road,48309,42.6263590,-83.1729747
2449,West Auburn Road,48309,42.6344918,-83.1807833
2448,West Auburn Road,48309,42.6350869,-83.1807898
3045,Angara Drive,48309,42.6339437,-83.1811655
3050,Harvey Street,48309,42.6338726,-83.1807274
2433,West Auburn Road,48309,42.6344821,-83.1803661
3040,Devondale Road,48309,42.6344728,-83.1794559
3052,Devondale Road,48309,42.6341624,-83.1794118
2424,West Auburn Road,48309,42.6350986,-83.1801679
2412,West Auburn Road,48309,42.6351109,-83.1799142
2436,West Auburn Road,48309,42.6350918,-83.1804125
2383,West Auburn Road,48309,42.6345106,-83.1788285
2364,West Auburn Road,48309,42.6350973,-83.1784837
2300,West Auburn Road,48309,42.6351890,-83.1773611
2155,West Auburn Road,48309,42.6346916,-83.1736363
2287,West Auburn Road,48309,42.6344937,-83.1764442
3610,Marketplace Circle,48309,42.6434681,-83.2060556
2500,South Adams Road,48309,42.6433828,-83.1981967
3710,John R Road,48307,42.6294712,-83.1063011
1015,South Livernois Road,48307,42.6648217,-83.1519418
234,Festival Drive,48309-4474,42.6762817,-83.2029959
1381,Brewster Road,48306,42.6999658,-83.1882788
218,Festival Drive,48309-4474,42.6771856,-83.2013250
521,East Hamlin Road,48307,42.6549089,-83.1196638
1381,Brewster Road,48306,42.7017675,-83.1852143
1535,Brewster Road,48306,42.7031131,-83.1859906
3200,West Tienken Road,48306,42.6962373,-83.1982853
1339,North Adams Road,48306,42.6985215,-83.1984600
350,Estate Drive,48309-4481,42.6722305,-83.2014602
7000,Meadow Brook Road,48309-4430,42.6794098,-83.2083940
6000,Meadow Brook Road,48309-4429,42.6792568,-83.2090784
5000,Meadow Brook Road,48309-4428,42.6793512,-83.2097916
4000,Meadow Brook Road,48309-4455,42.6792635,-83.2105083
3000,Meadow Brook Road,48309-4427,42.6791829,-83.2112978
2000,Meadow Brook Road,48309-4426,42.6789756,-83.2119784
180,South Livernois Road,48307,42.6788351,-83.1556793
226,Festival Drive,48309-4474,42.6770956,-83.2024157
183,Meadow Brook Road,48309-4451,42.6793537,-83.2002074
429,Golf View Lane,48309-4477,42.6736524,-83.1977513
887,Pioneer Drive,48309-4482,42.6746995,-83.2086688
456,Pioneer Drive,48309-4482,42.6713346,-83.2108478
2754,South Adams Road,48309,42.6407136,-83.2060487
2800,West Hamlin Road,48309,42.6538977,-83.1844267
6875,North Rochester Road,48306,42.6962590,-83.1321980
1430,East Auburn Road,48307,42.6339845,-83.1036088
270,West Hamlin Road,48307,42.6537783,-83.1384822
800,West Avon Road,48307,42.6686900,-83.1441727
855,South Rochester Road,48307,42.6689695,-83.1323957
1111,Horizon Court,48309,42.6580200,-83.1556426
940,South Rochester Road,48307-2742,42.6681626,-83.1337677
808,Roche Ster Road,48307-2740,42.6693001,-83.1340307
744,South Rochester Road,48307,42.6698388,-83.1339972
555,South Rochester Road,48307,42.6732339,-83.1323502
595,South Rochester Road,48307,42.6724244,-83.1321813
725,South Rochester Road,48307,42.6708389,-83.1321899
725,South Rochester Road,48307,42.6717292,-83.1321946
923,South Rochester Road,48307,42.6674268,-83.1321627
1056,Rochester Road,48307,42.6652206,-83.1339293
800,West Avon Road,48307,42.6666969,-83.1425602
530,Hampton Circle,48307,42.6499260,-83.1228462
3277,South Rochester Road,48307,42.6323032,-83.1291496
3035,South Rochester Road,48307,42.6354569,-83.1311362
6,East Auburn Road,48307,42.6358283,-83.1310932
200,East Auburn Road,48307,42.6351603,-83.1266133
981,East Auburn Road,48307,42.6371899,-83.1127973
273,Grizzly Lane,48309-4478,42.6701366,-83.2123859
3512,Marketplace Circle,48309,42.6441468,-83.2010390
2918,Walton Boulevard,48309,42.6822385,-83.1916963
2101,South Rochester Road,48307,42.6510427,-83.1318638
91,West Auburn Road,48307,42.6355966,-83.1337053
609,Lockmoore Court,48307,42.6446399,-83.1199766
621,Lockmoore Court,48307,42.6448620,-83.1201475
633,Lockmoore Court,48307,42.6451275,-83.1202018
645,Lockmoore Court,48307,42.6453616,-83.1200560
657,Lockmoore Court,48307,42.6455747,-83.1198569
669,Lockmoore Court,48307,42.6456994,-83.1195562
681,Lockmoore Court,48307,42.6457537,-83.1192339
693,Lockmoore Court,48307,42.6458207,-83.1188979
705,Lockmoore Court,48307,42.6458788,-83.1185648
717,Lockmoore Court,48307,42.6459289,-83.1182349
729,Lockmoore Court,48307,42.6459744,-83.1178855
741,Lockmoore Court,48307,42.6460081,-83.1175133
753,Lockmoore Court,48307,42.6458294,-83.1172319
597,Lockmoore Court,48307,42.6444409,-83.1197807
585,Lockmoore Court,48307,42.6442411,-83.1195820
573,Lockmoore Court,48307,42.6441473,-83.1192061
561,Lockmoore Court,48307,42.6443392,-83.1189291
549,Lockmoore Court,48307,42.6445775,-83.1187310
537,Lockmoore Court,48307,42.6447888,-83.1185472
525,Lockmoore Court,48307,42.6449835,-83.1183615
513,Lockmoore Court,48307,42.6452349,-83.1181943
501,Lockmoore Court,48307,42.6454838,-83.1181652
732,Lockmoore Court,48307,42.6455225,-83.1177596
744,Lockmoore Court,48307,42.6454085,-83.1174041
756,Lockmoore Court,48307,42.6453565,-83.1170729
768,Lockmoore Court,48307,42.6453476,-83.1167473
778,Lockmoore Court,48307,42.6454475,-83.1163371
788,Lockmoore Court,48307,42.6456653,-83.1161334
798,Lockmoore Court,48307,42.6458068,-83.1159057
769,Lockmoore Court,48307,42.6458488,-83.1167495
789,Lockmoore Court,48307,42.6460571,-83.1165248
793,Lockmoore Court,48307,42.6462068,-83.1162420
799,Lockmoore Court,48307,42.6462923,-83.1158200
668,Lockmoore Court,48307,42.6452802,-83.1193547
630,Lockmoore Court,48307,42.6450574,-83.1195432
574,Lockmoore Court,48307,42.6447627,-83.1193152
538,Lockmoore Court,48307,42.6449634,-83.1190834
526,Lockmoore Court,48307,42.6451467,-83.1188842
690,Lockmoore Court,48307,42.6454131,-83.1187515
1710,School Road,48307,42.6590963,-83.0985912
92,East Auburn Road,48307,42.6357785,-83.1300202
419,Golf View Lane,48309-4477,42.6739453,-83.1976777
2700,Bond St,48309,42.6384568,-83.2007158
500,Old Perch Road,48309,42.6739676,-83.1737764
879,West Auburn Road,48307,42.6348092,-83.1491766
3070,Butler Road,48309-4475,42.6606787,-83.1944989
2754,South Adams Road,48309,42.6405255,-83.2060330
3544,Marketplace Circle,48309,42.6440756,-83.2021785
2748,South Adams Road,48309,42.6404449,-83.2052772
1445,W. Auburn Road,48309,42.6304825,-83.1582329
1730,West Auburn Road,48309,42.6364453,-83.1660125
271,West Auburn Road,48309,42.6354706,-83.1377997
3340,West Tienken Road,48306,42.6951799,-83.2004889
74,West Auburn Road,48307,42.6365415,-83.1334085
54,West Auburn Road,48307,42.6364736,-83.1330050
3140,South Rochester Road,48307,42.6344604,-83.1323062
490,East Auburn Road,48307,42.6349755,-83.1216429
3982,West Auburn Road,48309,42.6343229,-83.2091439
2985,Crooks Road,48309,42.6356383,-83.1694444
3178,South Rochester Road,48307,42.6337709,-83.1322560
3931,West Auburn Road,48309,42.6337673,-83.2087725
3915,West Auburn Road,48309,42.6338339,-83.2083339
3820,West Auburn Road,48309,42.6343536,-83.2070988
3675,West Auburn Road,48309,42.6339144,-83.2045896
1800,West Auburn Road,48309,42.6353926,-83.1673509
1380,West Auburn Road,48309,42.6357644,-83.1577976
1849,South Livernois Road,48307,42.6542387,-83.1509399
900,West Hamlin Road,48307,42.6526645,-83.1508263
400,West Hamlin Road,48307,42.6527587,-83.1403452
55,West Avon Road,48307,42.6658362,-83.1346329
127,East Avon Road,48307,42.6667701,-83.1297389
994,West South Boulevard,48307-4937,42.6229575,-83.1499933
933,West Auburn Road,48307,42.6353305,-83.1506305
600,Croydon Road,48309,42.6683836,-83.1634657
3055,Devondale Road,48309,42.6340147,-83.1787415
3071,Devondale Road,48309,42.6337441,-83.1787000
2369,West Auburn Road,48309,42.6345353,-83.1785168
2359,West Auburn Road,48309,42.6345278,-83.1782609
2341,West Auburn Road,48309,42.6345116,-83.1778416
3050,Grant Road,48309,42.6340620,-83.1746658
2507,West Auburn Road,48309,42.6344031,-83.1822864
2525,West Auburn Road,48309,42.6341773,-83.1827061
2541,West Auburn Road,48309,42.6342966,-83.1830965
2575,West Auburn Road,48309,42.6341667,-83.1838078
2593,West Auburn Road,48309,42.6342774,-83.1842338
2605,West Auburn Road,48309,42.6342644,-83.1845315
3009,Richmond Drive,48309,42.6343364,-83.1850793
2641,West Auburn Road,48309,42.6342383,-83.1856387
2655,West Auburn Road,48309,42.6342432,-83.1860231
3010,Rockhaven Avenue,48309,42.6342693,-83.1865985
3034,Rockhaven Avenue,48309,42.6339092,-83.1866155
3015,Rockhaven Avenue,48309,42.6339505,-83.1859809
3025,Rockhaven Avenue,48309,42.6337322,-83.1859713
2744,South Adams Road,48309,42.6402652,-83.2040669
1892,East Auburn Road,48307,42.6380663,-83.0941753
1672,East Auburn Road,48307,42.6373795,-83.0985921
1700,East Auburn Road,48307,42.6374217,-83.0980012
1756,East Auburn Road,48307,42.6376091,-83.0966811
2050,South Rochester Road,48307,42.6514094,-83.1331978
1101,1st Street,48307,42.6750655,-83.1486347
1280,Walton Boulevard,48307,42.6831438,-83.1526785
771,Old Perch Road,48309,42.6690531,-83.1712877
3499,West Hamlin Road,48309,42.6459610,-83.2009402
1440,John R Road,48307,42.6599734,-83.1152771
3010,Walton Boulevard,48309,42.6813061,-83.1948105
1281,Walton Boulevard,48306,42.6811754,-83.1524885
6970,North Rochester Road,48306,42.6966707,-83.1351906
1490,North Rochester Road,48307,42.6951487,-83.1334720
650,South Rochester Road,48307,42.6715696,-83.1339349
6500,Sheldon Road,48306,42.6996959,-83.1258361
675,East Tienken Road,48306,42.7002063,-83.1215418
1385,Mahaffy Avenue,48307,42.6932487,-83.1321126
89,Mead Road,48306,42.7124303,-83.1332955
450,Allston Drive,48309,42.6870728,-83.1616894
3976,South Livernois Road,48307,42.6237040,-83.1516265
1435,West Auburn Road,48309,42.6335550,-83.1587524
1263,South Adams Road,48309,42.6611030,-83.1921225
3576,Marketplace Circle,48309,42.6440026,-83.2036755
777,Great Oaks Boulevard,48307,42.6852816,-83.1492454
435,South Livernois Road,48307,42.6775044,-83.1520288
441,South Livernois Road,48307,42.6756477,-83.1522394
400,West Tienken Road,48306,42.6960328,-83.1424254
1965,John R Road,48307,42.6536013,-83.1119681
3900,South Rochester Road,48307,42.6244536,-83.1327085
3099,Graham Drive,48307,42.6351794,-83.1149223
1919,Star Batt Drive,49309,42.6460308,-83.1672941
425,Cypress Road,48309,42.6760877,-83.1648992
439,Cypress Court,48309,42.6762677,-83.1645076
445,Cypress Court,48309,42.6762862,-83.1641694
451,Cypress Court,48309,42.6761333,-83.1638702
457,Cypress Court,48309,42.6758441,-83.1638425
463,Cypress Court,48309,42.6756303,-83.1641513
481,Cypress Road,48309,42.6756338,-83.1646320
1565,Scenic Hollow,48306,42.7044777,-83.1621790
1005,Van Hoosen Road,48307,42.6962934,-83.1158565
2290,Crooks Road,48309,42.6471744,-83.1716132
2258,Crooks Road,48309-3600,42.6485705,-83.1717037
1585,East Auburn Road,48307,42.6375179,-83.1009145
464,Helmand,48307,42.6739655,-83.1415993
491,Helmand,48307,42.6739640,-83.1413188
620,Helmand,48307,42.6740244,-83.1410880
416,Helmand,48307,42.6739221,-83.1421710
368,Helmand,48307,42.6738551,-83.1429282
392,Helmand,48307,42.6738974,-83.1424564
200,Diversion Street,48307,42.6742443,-83.1324536
20,South Main Street,48307,42.6743899,-83.1329393
1454,North Rochester Road,48307,42.6946933,-83.1316673
90,East Tienken Road,48307,42.6951768,-83.1327390
1412,North Rochester Road,48307,42.6942218,-83.1333544
160,West Avon Road,48307,42.6668614,-83.1365177
746,South Rochester Road,48307,42.6701862,-83.1339066
730,South Rochester Road,48307,42.6703385,-83.1336888
636,South Rochester Road,48307,42.6717896,-83.1338858
140,Cloverport Avenue,48307,42.6724220,-83.1368160
128,Cloverport Avenue,48307,42.6724088,-83.1365508
208,Cloverport Avenue,48307,42.6723812,-83.1382867
152,Cloverport Avenue,48307,42.6723979,-83.1371364
168,Cloverport Avenue,48307,42.6723836,-83.1373805
180,Cloverport Avenue,48307,42.6723669,-83.1377256
196,Cloverport Avenue,48307,42.6723837,-83.1380428
209,Cloverport Avenue,48307,42.6719525,-83.1381454
117,Cloverport Avenue,48307,42.6720294,-83.1363492
133,Cloverport Avenue,48307,42.6720229,-83.1367878
155,Cloverport Avenue,48307,42.6720196,-83.1370662
173,Cloverport Avenue,48307,42.6719970,-83.1374368
201,Cloverport Avenue,48307,42.6719746,-83.1377861
85,Cloverport Avenue,48307,42.6720573,-83.1355166
69,Cloverport Avenue,48307,42.6720856,-83.1351246
560,South Rochester Road,48307,42.6728351,-83.1338694
586,South Rochester Road,48307,42.6724550,-83.1336874
22,Cloverport Avenue,48307,42.6724780,-83.1340378
30,Cloverport Avenue,48307,42.6724822,-83.1341982
46,Cloverport Avenue,48307,42.6724480,-83.1345624
60,Cloverport Avenue,48307,42.6724653,-83.1349000
74,Cloverport Avenue,48307,42.6724546,-83.1351956
86,Cloverport Avenue,48307,42.6724207,-83.1355439
102,Cloverport Avenue,48307,42.6724125,-83.1358860
99,Childress Avenue,48307,42.6727663,-83.1360622
93,Childress Avenue,48307,42.6729735,-83.1357373
85,Childress Avenue,48307,42.6729878,-83.1355421
77,Childress Avenue,48307,42.6729548,-83.1353288
71,Childress Avenue,48307,42.6728957,-83.1351387
61,Childress Avenue,48307,42.6728641,-83.1348396
546,South Rochester Road,48307,42.6732088,-83.1337125
1205,West University Drive,48307,42.6813942,-83.1509974
1050,Harding Avenue,48307,42.6727468,-83.1479123
1024,Harding Avenue,48307,42.6727789,-83.1473277
1016,Harding Avenue,48307,42.6728404,-83.1470932
1038,Harding Avenue,48307,42.6728755,-83.1476187
227,Quarter Street,48307,42.6737710,-83.1469988
966,Harding Avenue,48307,42.6735685,-83.1461857
890,Harding Avenue,48307,42.6734725,-83.1457702
225,Quarter Street,48307,42.6738506,-83.1458810
870,Harding Avenue,48307,42.6737491,-83.1454103
850,Harding Avenue,48307,42.6738568,-83.1450380
505,Harding Avenue,48307,42.6736018,-83.1435781
549,Harding Avenue,48307,42.6736018,-83.1440776
855,Harding Avenue,48307,42.6731720,-83.1447018
865,Harding Avenue,48307,42.6730315,-83.1451926
1001,Harding Avenue,48307,42.6726351,-83.1458309
614,Flora Valley Court,48307,42.6717939,-83.1430034
627,Flora Valley Court,48307,42.6717513,-83.1427574
615,Flora Valley Court,48307,42.6717904,-83.1424592
603,Flora Valley Court,48307,42.6719464,-83.1422342
501,South Castell Avenue,48307,42.6734569,-83.1430490
518,Flora Valley Court,48307,42.6732031,-83.1429217
530,Flora Valley Court,48307,42.6730399,-83.1430451
590,Flora Valley Court,48307,42.6722121,-83.1431080
566,Flora Valley Court,48307,42.6725423,-83.1430885
578,Flora Valley Court,48307,42.6723806,-83.1431026
602,Flora Valley Court,48307,42.6720485,-83.1431156
591,Flora Valley Court,48307,42.6722031,-83.1422439
579,Flora Valley Court,48307,42.6723662,-83.1423968
543,Flora Valley Court,48307,42.6728634,-83.1424343
555,Flora Valley Court,48307,42.6726951,-83.1424809
531,Flora Valley Court,48307,42.6730295,-83.1423318
519,Flora Valley Court,48307,42.6732023,-83.1422303
507,Flora Valley Court,48307,42.6734671,-83.1421495
475,Helmand,48307,42.6734251,-83.1417101
455,South Livernois Road,48307,42.6746119,-83.1514164
455,South Livernois Road,48307,42.6745933,-83.1521312
455,South Livernois Road,48307,42.6744348,-83.1527897
445,South Livernois Road,48307,42.6751229,-83.1523908
721,South Livernois Road,48307,42.6711624,-83.1530023
1293,Harding Avenue,48307,42.6715178,-83.1529379
1281,Harding Avenue,48307,42.6715731,-83.1526364
1267,Harding Avenue,48307,42.6715799,-83.1521792
1251,Harding Avenue,48307,42.6715793,-83.1517770
1235,Harding Avenue,48307,42.6717613,-83.1514023
1215,Harding Avenue,48307,42.6718104,-83.1510646
1199,Harding Avenue,48307,42.6718553,-83.1506282
1181,Harding Avenue,48307,42.6718253,-83.1500019
1151,Harding Avenue,48307,42.6719519,-83.1493567
1119,Harding Avenue,48307,42.6721701,-83.1487533
531,May Road,48307,42.6737508,-83.1481911
541,May Road,48307,42.6734212,-83.1482092
555,May Road,48307,42.6731434,-83.1482184
1066,Harding Avenue,48307,42.6727281,-83.1482268
575,Utah Road,48307,42.6730187,-83.1493426
595,Utah Road,48307,42.6728868,-83.1493198
565,Utah Road,48307,42.6732951,-83.1493392
549,Utah Road,48307,42.6735223,-83.1493045
521,Utah Road,48307,42.6737395,-83.1493495
501,Utah Road,48307,42.6740088,-83.1493976
1131,Burgoyne Boulevard,48307,42.6740557,-83.1491418
1117,Burgoyne Boulevard,48307,42.6740587,-83.1488058
1105,Burgoyne Boulevard,48307,42.6740629,-83.1485608
520,May Road,48307,42.6737403,-83.1486590
550,May Road,48307,42.6735614,-83.1486544
580,May Road,48307,42.6729694,-83.1486992
566,May Road,48307,42.6733707,-83.1486826
570,May Road,48307,42.6731864,-83.1486644
1100,Harding Avenue,48307,42.6726971,-83.1487535
1144,Harding Avenue,48307,42.6726234,-83.1493000
1122,Harding Avenue,48307,42.6726504,-83.1490357
585,Mary Ellen Road,48307,42.6727899,-83.1506524
575,Mary Ellen Road,48307,42.6730311,-83.1506222
559,Mary Ellen Road,48307,42.6733145,-83.1506108
541,Mary Ellen Road,48307,42.6735471,-83.1506504
535,Mary Ellen Road,48307,42.6737265,-83.1506247
1193,Burgoyne Boulevard,48307,42.6739901,-83.1506818
1187,Burgoyne Boulevard,48307,42.6739918,-83.1504855
1181,Burgoyne Boulevard,48307,42.6740355,-83.1502555
500,Utah Road,48307,42.6739850,-83.1499152
520,Utah Road,48307,42.6737356,-83.1499097
550,Utah Road,48307,42.6735614,-83.1498898
560,Utah Road,48307,42.6733669,-83.1498941
570,Utah Road,48307,42.6732423,-83.1498937
580,Utah Road,48307,42.6729388,-83.1498954
1200,Harding Avenue,48307,42.6724354,-83.1506039
1180,Harding Avenue,48307,42.6725888,-83.1501987
1170,Harding Avenue,48307,42.6725481,-83.1498953
569,Curzon Road,48307,42.6731031,-83.1517537
587,Curzon Road,48307,42.6728563,-83.1517446
599,Curzon Road,48307,42.6726619,-83.1517642
1240,Harding Avenue,48307,42.6723965,-83.1518018
1226,Harding Avenue,48307,42.6723555,-83.1513500
1216,Harding Avenue,48307,42.6723914,-83.1510578
590,Mary Ellen Road,48307,42.6727990,-83.1512317
580,Mary Ellen Road,48307,42.6730518,-83.1512261
560,Mary Ellen Road,48307,42.6732436,-83.1512582
557,Curzon Road,48307,42.6733189,-83.1517924
540,Mary Ellen Road,48307,42.6735432,-83.1512154
541,Curzon Road,48307,42.6735136,-83.1517656
533,Curzon Road,48307,42.6737473,-83.1517685
520,Mary Ellen Road,48307,42.6738929,-83.1513044
1235,Burgoyne Boulevard,48307,42.6740009,-83.1517388
1259,Burgoyne Boulevard,48307,42.6739079,-83.1524334
536,Curzon Road,48307,42.6736242,-83.1524336
554,Curzon Road,48307,42.6734168,-83.1524256
582,Curzon Road,48307,42.6729893,-83.1524560
572,Curzon Road,48307,42.6731539,-83.1524376
1290,Harding Avenue,48307,42.6721201,-83.1528959
1280,Harding Avenue,48307,42.6721338,-83.1527087
1266,Harding Avenue,48307,42.6721483,-83.1524736
588,Curzon Road,48307,42.6727632,-83.1523890
556,Curzon Road,48307,42.6724230,-83.1524856
570,Curzon Road,48307,42.6726202,-83.1529359
579,South Livernois Road,48307,42.6728595,-83.1528631
567,South Livernois Road,48307,42.6730799,-83.1528876
555,South Livernois Road,48307,42.6733004,-83.1528894
543,South Livernois Road,48307,42.6735131,-83.1528891
531,South Livernois Road,48307,42.6737313,-83.1528914
519,South Livernois Road,48307,42.6739292,-83.1528549
1290,Walton Boulevard,48307,42.6823012,-83.1528057
404,East Tienken Road,48307,42.6955303,-83.1263133
432,East Tienken Road,48307,42.6952335,-83.1256621
456,East Tienken Road,48307,42.6952469,-83.1247063
444,East Tienken Road,48307,42.6950419,-83.1250714
482,East Tienken Road,48307,42.6946961,-83.1237479
1437,Catalpa Court,48307,42.6941173,-83.1252007
1443,Catalpa Court,48307,42.6944215,-83.1253621
1442,Catalpa Court,48307,42.6941572,-83.1238912
1436,Catalpa Court,48307,42.6938197,-83.1235311
690,Red Oak Lane,48307,42.6928830,-83.1240847
1404,Catalpa Drive,48307,42.6928969,-83.1245083
1424,Catalpa Drive,48307,42.6931808,-83.1244991
650,Red Oak Lane,48307,42.6931059,-83.1242162
687,Red Oak Lane,48307,42.6931167,-83.1235183
669,Red Oak Lane,48307,42.6933338,-83.1235235
615,Red Oak Lane,48307,42.6936154,-83.1243702
651,Red Oak Lane,48307,42.6935271,-83.1237340
633,Red Oak Lane,48307,42.6935897,-83.1240499
479,Red Oak Lane,48307,42.6936680,-83.1248628
463,Red Oak Lane,48307,42.6937250,-83.1251933
447,Red Oak Lane,48307,42.6938013,-83.1254804
431,Red Oak Lane,48307,42.6938444,-83.1257564
415,Red Oak Lane,48307,42.6938952,-83.1260190
1405,Catalpa Drive,48307,42.6929112,-83.1250077
1425,Catalpa Drive,48307,42.6931925,-83.1250237
1424,Sycamore Drive,48307,42.6933428,-83.1254312
1412,Sycamore Drive,48307,42.6931010,-83.1254288
1400,Sycamore Drive,48307,42.6928497,-83.1254279
1427,Sycamore Drive,48307,42.6934212,-83.1259340
1415,Sycamore Drive,48307,42.6931199,-83.1259796
1401,Sycamore Drive,48307,42.6928433,-83.1259601
288,Red Oak Lane,48307,42.6933431,-83.1283786
274,Red Oak Lane,48307,42.6933322,-83.1285975
220,Red Oak Lane,48307,42.6932212,-83.1294836
180,Red Oak Lane,48307,42.6932270,-83.1299059
200,Red Oak Lane,48307,42.6932424,-83.1296847
240,Red Oak Lane,48307,42.6933123,-83.1292330
262,Red Oak Lane,48307,42.6932827,-83.1288127
310,Red Oak Lane,48307,42.6933383,-83.1280842
320,Red Oak Lane,48307,42.6933552,-83.1277618
330,Red Oak Lane,48307,42.6933736,-83.1275064
390,Red Oak Lane,48307,42.6934083,-83.1265848
350,Red Oak Lane,48307,42.6933791,-83.1270319
400,Red Oak Lane,48307,42.6934053,-83.1263783
335,Red Oak Lane,48307,42.6939391,-83.1275103
353,Red Oak Lane,48307,42.6939281,-83.1271203
403,Red Oak Lane,48307,42.6939415,-83.1262938
373,Red Oak Lane,48307,42.6939377,-83.1268351
391,Red Oak Lane,48307,42.6939182,-83.1266250
259,Red Oak Lane,48307,42.6938502,-83.1287966
315,Red Oak Lane,48307,42.6939131,-83.1279561
325,Red Oak Lane,48307,42.6938941,-83.1277409
295,Red Oak Lane,48307,42.6939312,-83.1281596
269,Red Oak Lane,48307,42.6939281,-83.1284802
245,Red Oak Lane,48307,42.6938715,-83.1290889
223,Red Oak Lane,48307,42.6937320,-83.1298766
1418,Courtland Boulevard,48307,42.6939808,-83.1297300
1434,Courtland Boulevard,48307,42.6942320,-83.1298482
384,East Tienken Road,48307,42.6956009,-83.1265734
374,East Tienken Road,48307,42.6955969,-83.1268535
334,East Tienken Road,48307,42.6955794,-83.1273154
280,East Tienken Road,48307,42.6955310,-83.1286767
324,East Tienken Road,48307,42.6955372,-83.1275763
320,East Tienken Road,48307,42.6955500,-83.1278542
298,East Tienken Road,48307,42.6955386,-83.1281411
290,East Tienken Road,48307,42.6955518,-83.1284260
1421,Courtland Boulevard,48307,42.6937054,-83.1304324
1431,Courtland Boulevard,48307,42.6937975,-83.1304655
1433,Courtland Boulevard,48307,42.6939543,-83.1305480
1435,Courtland Boulevard,48307,42.6942365,-83.1305062
1439,Courtland Boulevard,48307,42.6943493,-83.1305248
1445,Courtland Boulevard,48307,42.6944514,-83.1307283
1451,Courtland Boulevard,48307,42.6945665,-83.1304897
1459,Courtland Boulevard,48307,42.6947327,-83.1305279
1452,Courtland Boulevard,48307,42.6946015,-83.1299335
1440,Courtland Boulevard,48307,42.6943847,-83.1298697
1458,Courtland Boulevard,48307,42.6947035,-83.1298067
1460,Courtland Boulevard,48307,42.6948114,-83.1296908
238,East Tienken Road,48307,42.6955937,-83.1293905
266,East Tienken Road,48307,42.6955078,-83.1289025
250,East Tienken Road,48307,42.6955947,-83.1291418
226,East Tienken Road,48307,42.6955849,-83.1295919
1468,Courtland Boulevard,48307,42.6950099,-83.1298842
204,East Tienken Road,48307,42.6955838,-83.1299723
1471,Courtland Boulevard,48307,42.6951089,-83.1304742
176,East Tienken Road,48307,42.6955761,-83.1308896
1477,Courtland Boulevard,48307,42.6952398,-83.1305211
1480,Courtland Boulevard,48307,42.6952538,-83.1298676
192,East Tienken Road,48307,42.6955794,-83.1304957
228,North Hill Circle,48307,42.6923213,-83.1388462
248,North Hill Circle,48307,42.6923307,-83.1393753
297,Winry Drive,48307,42.6924001,-83.1406127
287,Winry Drive,48307,42.6924576,-83.1403799
277,Winry Drive,48307,42.6925899,-83.1401408
267,Winry Drive,48307,42.6926592,-83.1398899
257,Winry Drive,48307,42.6926996,-83.1396333
247,Winry Drive,48307,42.6927197,-83.1393619
237,Winry Drive,48307,42.6927110,-83.1391219
227,Winry Drive,48307,42.6926912,-83.1388576
207,Winry Drive,48307,42.6926409,-83.1383210
197,Winry Drive,48307,42.6926446,-83.1380046
187,Winry Drive,48307,42.6926199,-83.1377466
177,Winry Drive,48307,42.6926463,-83.1374430
167,Winry Drive,48307,42.6926483,-83.1371996
160,Winry Drive,48307,42.6930684,-83.1370434
1400,North Pine Street,48307,42.6934832,-83.1370576
1410,North Pine Street,48307,42.6936753,-83.1370655
1420,North Pine Street,48307,42.6938602,-83.1370522
1430,North Pine Street,48307,42.6940557,-83.1370756
1440,North Pine Street,48307,42.6942502,-83.1370856
1450,North Pine Street,48307,42.6944362,-83.1370941
1460,North Pine Street,48307,42.6946552,-83.1370970
1470,North Pine Street,48307,42.6948558,-83.1372356
1480,North Pine Street,48307,42.6949237,-83.1375063
1490,North Pine Street,48307,42.6949099,-83.1377607
161,West Tienken Road,48307,42.6953379,-83.1372218
191,West Tienken Road,48307,42.6953212,-83.1377492
175,West Tienken Road,48307,42.6953355,-83.1374845
147,West Tienken Road,48307,42.6953529,-83.1369276
251,East Tienken Road,48306,42.6961478,-83.1289833
998,Brookwood Lane,48309,42.6911786,-83.1744217
175,East Nawakwa Road,48307,42.6305744,-83.1282398
2251,West Auburn Road,48309,42.6340354,-83.1755855
6755,Sheldon Road,48306,42.6995017,-83.1221259
345,John R Road,48307,42.6767311,-83.1042693
