House number,Street name,Postal code,Latitude,Longitude
2777,Hardin Street,48602,43.4286368,-83.9780303
1581,South Washington Ave,48601,43.4149383,-83.9518980
3540,State Street,48602,43.4370139,-83.9917417
101,Johnson Street,48607,43.4360211,-83.9399159
199,Johnson Street,48607,43.4356764,-83.9382633
100,Johnson Street,48607,43.4357723,-83.9400331
198,Johnson Street,48607,43.4354303,-83.9383829
200,Johnson Street,48607,43.4354064,-83.9381642
198,Johnson Street,48607,43.4352175,-83.9371231
499,Johnson Street,48607,43.4350575,-83.9348490
201,Johnson Street,48607,43.4356483,-83.9380776
301,Johnson Street,48607,43.4354501,-83.9369630
303,Johnson Street,48607,43.4353053,-83.9361874
401,Johnson Street,48607,43.4352384,-83.9358346
300,Johnson Street,48607,43.4351669,-83.9370297
400,Johnson Street,48607,43.4349720,-83.9359608
498,Johnson Street,48607,43.4347897,-83.9349773
300,Johnson Street,48607,43.4346234,-83.9365964
101,North Washington Avenue,48607,43.4334920,-83.9392697
501,Johnson Street,48607,43.4350140,-83.9346783
599,Johnson Street,48607,43.4348409,-83.9337249
500,Johnson Street,48607,43.4347613,-83.9347797
598,Johnson Street,48607,43.4345883,-83.9338257
201,South Jefferson Avenue,48607,43.4312613,-83.9363594
612,Millard Street,48607,43.4280565,-83.9341982
507,South Washington Avenue,48607,43.4286112,-83.9411949
500,South Park Avenue,48607,43.4274132,-83.9313499
1824,North Michigan Avenue,48602,43.4332819,-83.9491036
107,West Genesee Avenue,48602,43.4338481,-83.9435956
2621,Davenport Avenue,48602,43.4376366,-83.9750252
1000,Hess Avenue,48601,43.3998796,-83.9522616
2621,Davenport Avenue,48602,43.4375726,-83.9748014
3540,State Street,48602,43.4370014,-83.9915248
1419,Davenport Avenue,48602,43.4371744,-83.9603868
1419,Davenport Avenue,48602,43.4370727,-83.9604063
1824,North Michigan Avenue,48602,43.4332147,-83.9488312
1500,South Michigan Avenue,48601,43.4080795,-83.9756513
1500,South Michigan Avenue,48601,43.4082607,-83.9754032
408,South Michigan Avenue,48602,43.4151018,-83.9666900
308,South Michigan Avenue,48602,43.4159444,-83.9659739
301,South Michigan Avenue,48602,43.4162561,-83.9666350
408,South Michigan Avenue,48602,43.4152596,-83.9668053
301,South Michigan Avenue,48602,43.4162040,-83.9664520
2740,East Holland Avenue,48601,43.4143166,-83.9120762
2740,East Holland Avenue,48601,43.4145864,-83.9121191
2805,South Washington Avenue,48601,43.4010175,-83.9593260
2805,South Washington Avenue,48601,43.4010156,-83.9595889
614,South Washington Avenue,48601,43.4272738,-83.9404459
614,South Washington Avenue,48601,43.4273668,-83.9407517
1944,East Genesee Avenue,48602,43.4151846,-83.9212641
1944,East Genesee Avenue,48602,43.4150745,-83.9213969
107,West Genesee Avenue,48602,43.4337289,-83.9436418
2303,Hess Avenue,48601,43.4007271,-83.9357319
2303,Hess Avenue,48601,43.4007827,-83.9354664
1411,Court Street,48602,43.4230086,-83.9722703
1411,Court Street,48602,43.4230456,-83.9720450
94,West Genesee Avenue,48602,43.4342720,-83.9426533
2000,South Hamilton Street,48602,43.4044549,-83.9782714
400,Florence Street,48602,43.4049067,-83.9789300
203,South Washington Avenue,48607,43.4316897,-83.9402313
1902,Schaefer Street,48602,43.4343915,-83.9494245
1006,State Street,48602,43.4368820,-83.9549491
1730,South Washington Avenue,48601,43.4113082,-83.9523368
1500,Weiss Street,48602,43.4454044,-83.9618610
515,North Michigan Avenue,48602,43.4207256,-83.9605416
1253,South Water Street,48601,43.4209602,-83.9481636
2777,Hardin Street,48602,43.4278791,-83.9776836
618,Cass Street,48602,43.4172953,-83.9672715
203,South Michigan Avenue,48602,43.4169452,-83.9658923
800,South Washington Avenue,48601,43.4242648,-83.9387653
501,Lapeer Avenue,48607,43.4329122,-83.9352075
130,North Jefferson Avenue,48607,43.4335561,-83.9347682
411,East Genesee Avenue,48607,43.4332285,-83.9359698
322,North Jefferson Avenue,48607,43.4355599,-83.9340922
511,Johnson Street,48607,43.4351408,-83.9343890
301,East Genesee Avenue,48607,43.4332667,-83.9375134
126,North Franklin Street,48607,43.4339632,-83.9371804
107,North Franklin Street,48607,43.4335217,-83.9379608
94,West Genesee Avenue,48602,43.4342219,-83.9426378
201,North Washington Avenue,48607,43.4347331,-83.9391068
211,North Washington Avenue,48607,43.4349044,-83.9390164
1,Tuscola Street,48607,43.4346534,-83.9400860
213,North Water Street,48607,43.4352922,-83.9398207
219,North Washington Avenue,48607,43.4351286,-83.9389412
615,Hoyt Avenue,48607-1713,43.4258765,-83.9366168
200,North Washington Avenue,48607,43.4347314,-83.9378259
321,North Washington Avenue,48607,43.4362541,-83.9385671
313,North Water Street,48607,43.4367096,-83.9394047
101,North Washington Avenue,48607,43.4336532,-83.9395291
133,North Washington Avenue,48607,43.4340401,-83.9397942
100,North Washington Avenue,48607,43.4334501,-83.9386276
110,North Washington Avenue,48607,43.4336794,-83.9384451
118,North Washington Avenue,48607,43.4338515,-83.9383834
124,North Washington Avenue,48607,43.4339983,-83.9383338
128,North Washington Avenue,48607,43.4341834,-83.9383238
400,Federal Avenue,48607,43.4309658,-83.9367340
100,South Jefferson Avenue,48607,43.4315536,-83.9355925
119,South Jefferson Avenue,48607,43.4317913,-83.9362226
206,East Genesee Avenue,48607,43.4328975,-83.9385314
107,South Water Street,48607,43.4332680,-83.9406427
801,Federal Avenue,48607,43.4311754,-83.9321013
303,Johnson Street,48607,43.4359937,-83.9369371
303,Johnson Street,48607,43.4356124,-83.9352286
615,Johnson Street,48607,43.4351859,-83.9328206
705,Johnson Street,48607,43.4350709,-83.9321804
800,Cooper Avenue,48602,43.4297773,-83.9551390
800,Cooper Avenue,48602,43.4306826,-83.9534460
900,Cooper Avenue,48602,43.4299873,-83.9540308
1000,Houghton Avenue,48602,43.4297084,-83.9549997
600,Irving Avenue,48602,43.4320973,-83.9516301
700,Cooper Avenue,48602,43.4298405,-83.9528533
1447,North Harrison Street,48602,43.4284829,-83.9566669
1701,North Michigan Avenue,48602,43.4318897,-83.9507521
500,Federal Avenue,48607,43.4309475,-83.9355207
505,Janes Avenue,48607,43.4304459,-83.9357151
310,South Jefferson Avenue,48607,43.4297013,-83.9360995
326,South Jefferson Avenue,48607,43.4294120,-83.9363563
523,Hayden Street,48607,43.4291671,-83.9358385
612,Federal Avenue,48607,43.4305841,-83.9346146
600,Federal Avenue,48607,43.4309360,-83.9347452
520,Hayden Street,48607,43.4288589,-83.9361049
425,South Warren Avenue,48607,43.4280920,-83.9356445
505,Millard Street,48607,43.4281199,-83.9367422
515,Millard Street,48607,43.4280253,-83.9364149
519,Millard Street,48607,43.4280185,-83.9362079
529,Millard Street,48607,43.4279389,-83.9359464
710,East Genesee Avenue,48607,43.4304277,-83.9333825
708,East Genesee Avenue,48607,43.4305264,-83.9334832
700,East Genesee Avenue,48607,43.4305799,-83.9336869
216,South Weadock Avenue,48607,43.4302996,-83.9336129
"800,802",East Genesee Avenue,48607,43.4298971,-83.9327383
915,Federal Avenue,48607,43.4309329,-83.9309333
310,South Baum Street,48607,43.4301171,-83.9373664
303,South Jefferson Avenue,48607,43.4301624,-83.9368262
307,South Jefferson Avenue,48607,43.4300071,-83.9367744
315,South Jefferson Avenue,48607,43.4298350,-83.9368492
321,South Jefferson Avenue,48607,43.4296902,-83.9369488
415,Hayden Street,48607,43.4294402,-83.9370662
411,Hayden Street,48607,43.4294271,-83.9373349
320,South Baum Street,48607,43.4297459,-83.9373683
302,Janes Avenue,48607,43.4303924,-83.9381726
403,South Jefferson Avenue,48607,43.4288665,-83.9374211
405,Millard Street,48607,43.4283066,-83.9379076
429,South Jefferson Avenue,48607,43.4282577,-83.9373694
400,South Franklin Street,48607,43.4289998,-83.9387034
713,East Genesee Avenue,48607,43.4307551,-83.9330734
801,East Genesee Avenue,48607,43.4304508,-83.9325621
205,South 2nd Avenue,48607,43.4304703,-83.9318735
215,South 2nd Avenue,48607,43.4302149,-83.9318826
"817,819",East Genesee Avenue,48607,43.4300642,-83.9319979
324,South Warren Avenue,48607,43.4292845,-83.9352279
618,Janes Avenue,48607,43.4297617,-83.9344612
315,South Weadock Avenue,48607,43.4294349,-83.9346130
420,South Warren Avenue,48607,43.4286740,-83.9345751
319,South Weadock Avenue,48607,43.4292904,-83.9345937
323,South Weadock Avenue,48607,43.4291327,-83.9344852
800,South Washington Avenue,48601,43.4245954,-83.9382041
714,South Franklin Street,48601,43.4260626,-83.9403406
1123,North Oakley Street,48602,43.4290752,-83.9593111
1002,West Remington Street,48602,43.4274719,-83.9583449
1107,North Porter Street,48602,43.4275690,-83.9582288
711,Millard Street,48607,43.4287247,-83.9332382
315,South Park Avenue,48607,43.4291900,-83.9331530
806,Janes Avenue,48607,43.4293842,-83.9325769
915,East Genesee Avenue,48607,43.4284933,-83.9313944
945,East Genesee Avenue,48607,43.4279563,-83.9309644
804,Millard Street,48607,43.4287301,-83.9321170
414,South Park Avenue,48607,43.4284323,-83.9319772
420,South Park Avenue,48607,43.4282646,-83.9318700
424,South Park Avenue,48607,43.4281745,-83.9318097
428,South Park Avenue,48607,43.4281033,-83.9317575
430,South Park Avenue,48607,43.4280125,-83.9316963
1015,South Washington Avenue,48601,43.4235105,-83.9455598
1225,South Water Street,48601,43.4217096,-83.9476567
1435,South Washington Avenue,48601,43.4186611,-83.9490223
406,South Weadock Avenue,48607,43.4282563,-83.9331616
424,South Weadock Avenue,48607,43.4278120,-83.9329080
430,South Weadock Avenue,48607,43.4276677,-83.9328254
440,South Weadock Avenue,48607,43.4274331,-83.9326167
433,South Park Avenue,48607,43.4277698,-83.9321086
923,Thompson Street,48607,43.4275639,-83.9319593
203,South Washington Avenue,48607,43.4317804,-83.9401615
107,South Washington Avenue,48607,43.4328551,-83.9397119
"132,134",South Water Street,48607,43.4324122,-83.9401794
234,South Water Street,48607,43.4313347,-83.9406381
510,South Warren Avenue,48607,43.4278664,-83.9342448
522,South Warren Avenue,48607,43.4274217,-83.9340108
528,South Warren Avenue,48607,43.4272808,-83.9339251
540,South Warren Avenue,48607,43.4269807,-83.9337248
811,Thompson Street,48607,43.4270212,-83.9334651
535,South Warren Avenue,48607,43.4269241,-83.9346165
550,Millard Street,48607,43.4275844,-83.9351650
508,Owen Street,48607,43.4272864,-83.9359359
520,Owen Street,48607,43.4270784,-83.9359876
524,Owen Street,48607,43.4269644,-83.9360310
607,Thompson Street,48607,43.4267489,-83.9358862
1010,Hoyt Avenue,48607,43.4225932,-83.9302167
1000,Hoyt Avenue,48607,43.4233991,-83.9304090
509,Owen Street,48607,43.4274831,-83.9364188
521,Owen Street,48607,43.4271873,-83.9365087
525,Owen Street,48607,43.4270119,-83.9365353
515,Thompson Street,48607,43.4269971,-83.9367424
505,Thompson Street,48607,43.4271117,-83.9370933
520,South Jefferson Avenue,48607,43.4272881,-83.9371000
508,South Jefferson Avenue,48607,43.4275734,-83.9369200
523,South Jefferson Avenue,48607,43.4273401,-83.9377475
503,South Jefferson Avenue,48607,43.4278816,-83.9375935
524,South Franklin Street,48607,43.4279527,-83.9392790
310,Millard Street,48607,43.4277955,-83.9390791
1019,East Genesee Avenue,48607,43.4270662,-83.9306685
1039,East Genesee Avenue,48607,43.4265437,-83.9301753
1109,East Genesee Avenue,48607,43.4258091,-83.9297384
618,South Park Avenue,48607,43.4255504,-83.9300441
1131,East Genesee Avenue,48607,43.4254516,-83.9293169
630,South Park Avenue,48607,43.4252451,-83.9298244
1021,Burt Street,48607,43.4250768,-83.9290043
1011,Burt Street,48607,43.4248913,-83.9292741
644,South Park Avenue,48607,43.4249131,-83.9296287
1203,East Genesee Avenue,48607,43.4246847,-83.9286955
1215,East Genesee Avenue,48607,43.4244197,-83.9285397
1245,East Genesee Avenue,48607,43.4236000,-83.9279311
1227,East Genesee Avenue,48607,43.4240306,-83.9285024
1006,Burt Street,48607,43.4245171,-83.9292570
708,South Park Avenue,48607,43.4243666,-83.9292209
710,South Park Avenue,48607,43.4242783,-83.9291359
728,South Park Avenue,48607,43.4238682,-83.9289087
738,South Park Avenue,48607,43.4236048,-83.9287686
748,South Park Avenue,48607,43.4233904,-83.9284775
1020,Walnut Street,48607,43.4230324,-83.9277885
1422,Merrill Street,48607,43.4211772,-83.9282989
1401,East Genesee Avenue,48607,43.4224806,-83.9272201
1405,East Genesee Avenue,48607,43.4223328,-83.9271402
914,Emily Street,48607,43.4222928,-83.9276460
1411,East Genesee Avenue,48607,43.4222239,-83.9270492
938,Emily Street,48607,43.4217812,-83.9275447
944,Emily Street,48607,43.4216013,-83.9273727
1006,Emily Street,48607,43.4214050,-83.9272874
1503,Mott Street,48607,43.4209723,-83.9270286
1443,East Genesee Avenue,48607,43.4213739,-83.9265468
1122,Hoyt Avenue,48607,43.4227221,-83.9279612
915,Emily Street,48607,43.4224176,-83.9281493
919,Emily Street,48607,43.4223123,-83.9282059
923,Emily Street,48607,43.4222063,-83.9282554
927,Emily Street,48607,43.4220862,-83.9283194
816,South Park Avenue,48607,43.4225538,-83.9288708
820,South Park Avenue,48607,43.4224810,-83.9289108
824,South Park Avenue,48607,43.4224013,-83.9289701
826,South Park Avenue,48607,43.4223035,-83.9290116
900,South Park Avenue,48607,43.4222041,-83.9290450
904,South Park Avenue,48607,43.4221069,-83.9290691
916,South Park Avenue,48607,43.4218062,-83.9292092
1409,Merrill Street,48607,43.4217860,-83.9289787
731,South Park Avenue,48607,43.4237110,-83.9293841
1017,Hoyt Avenue,48607,43.4235920,-83.9296111
723,South Park Avenue,48607,43.4238575,-83.9294606
914,Burt Street,48607,43.4242376,-83.9300351
702,South Weadock Avenue,48607,43.4240901,-83.9303665
1001,Hoyt Avenue,48607,43.4237623,-83.9300711
650,South Weadock Avenue,48607,43.4244022,-83.9306311
915,Burt Street,48607,43.4245465,-83.9302613
919,Burt Street,48607,43.4245824,-83.9301279
655,South Park Avenue,48607,43.4246650,-83.9300075
723,South Park Avenue,48607,43.4252775,-83.9304854
611,South Park Avenue,48607,43.4255938,-83.9306577
922,Cherry Street,48607,43.4257354,-83.9307955
914,Cherry Street,48607,43.4256514,-83.9310167
610,South Weadock Avenue,48607,43.4253678,-83.9312942
636,South Weadock Avenue,48607,43.4246821,-83.9308434
630,South Weadock Avenue,48607,43.4248692,-83.9309221
550,South Weadock Avenue,48607,43.4258576,-83.9315986
923,Cherry Street,48607,43.4261251,-83.9310315
541,South Park Avenue,48607,43.4263107,-83.9311444
530,South Weadock Avenue,48607,43.4262970,-83.9319430
914,Thompson Street,48607,43.4271670,-83.9320192
504,South Weadock Avenue,48607,43.4269798,-83.9323845
508,South Weadock Avenue,48607,43.4268666,-83.9322849
512,South Weadock Avenue,48607,43.4267473,-83.9322129
602,South Warren Avenue,48607,43.4265839,-83.9335253
608,South Warren Avenue,48607,43.4264896,-83.9334422
616,South Warren Avenue,48607,43.4262988,-83.9332788
624,South Warren Avenue,48607,43.4261154,-83.9332000
525,South Weadock Avenue,48607,43.4263584,-83.9325690
531,South Weadock Avenue,48607,43.4261820,-83.9324573
813,Cherry Street,48607,43.4255777,-83.9324503
636,South Warren Avenue,48607,43.4257717,-83.9330004
644,South Warren Avenue,48607,43.4255728,-83.9328606
702,South Warren Avenue,48607,43.4251235,-83.9325598
603,South Weadock Avenue,48607,43.4253766,-83.9319105
716,South Warren Avenue,48607,43.4248392,-83.9322979
722,South Warren Avenue,48607,43.4246569,-83.9322045
617,South Weadock Avenue,48607,43.4250370,-83.9317025
623,South Weadock Avenue,48607,43.4248699,-83.9316285
641,South Weadock Avenue,48607,43.4244325,-83.9312355
732,South Warren Avenue,48607,43.4243967,-83.9319707
1910,Fordney Street,48601,43.4107215,-83.9614869
1781,Fordney Street,48601,43.4126666,-83.9618686
1915,Fordney Street,48601,43.4109205,-83.9628627
723,South Warren Avenue,48607,43.4245046,-83.9326654
644,Sheridan Avenue,48607,43.4251703,-83.9339712
711,Cherry Street,48607,43.4251266,-83.9336134
645,South Warren Avenue,48607,43.4253781,-83.9333007
634,Sheridan Avenue,48607,43.4253851,-83.9341296
611,East Genesee Avenue,48607,43.4319681,-83.9340375
139,North Weadock Avenue,48607,43.4332363,-83.9333757
127,North Weadock Avenue,48607,43.4330768,-83.9333302
128,North Warren Avenue,48607,43.4331085,-83.9338492
630,Sheridan Avenue,48607,43.4255082,-83.9341529
626,Sheridan Avenue,48607,43.4255953,-83.9342036
622,Sheridan Avenue,48607,43.4257147,-83.9343174
631,South Warren Avenue,48607,43.4257331,-83.9335660
627,South Warren Avenue,48607,43.4258284,-83.9336291
623,South Warren Avenue,48607,43.4259055,-83.9336981
608,Sheridan Avenue,48607,43.4260527,-83.9345176
602,Sheridan Avenue,48607,43.4261898,-83.9346259
714,Thompson Street,48607,43.4263476,-83.9342860
603,South Warren Avenue,48607,43.4264061,-83.9339674
609,South Warren Avenue,48607,43.4262598,-83.9339359
632,Thompson Street,48607,43.4260345,-83.9352602
609,Sheridan Avenue,48607,43.4258648,-83.9350292
621,Sheridan Avenue,48607,43.4255862,-83.9348252
315,West Genesee Avenue,48602,43.4343406,-83.9465036
1216,Court Street,48607,43.4223566,-83.9702271
2777,Hardin Street,48602,43.4280690,-83.9776224
2777,Hardin Street,48602,43.4285834,-83.9785193
1300,Malzahn Street,48602,43.4254559,-83.9873994
930,South 20th Street,48601,43.4166563,-83.9087227
3021,Court Street,48602,43.4324073,-83.9864436
510,South Michigan Avenue,48602-1525,43.4144180,-83.9675775
2039,North Michigan Avenue,48602-5637,43.4361205,-83.9495440
2301,N Michigan Ave,48602,43.4383155,-83.9496725
2700,State Street,48602,43.4367820,-83.9756255
3325,Davenport Avenue,48602,43.4372820,-83.9879450
2777,Hardin Street,48602,43.4285914,-83.9777373
1472,North Michigan Avenue,48602,43.4290368,-83.9506462
1454,North Michigan Avenue,48602,43.4285093,-83.9509197
1420,North Michigan Avenue,48602,43.4275480,-83.9515735
1126,North Michigan Avenue,48602,43.4242300,-83.9534157
430,South Washington Avenue,48607,43.4288657,-83.9400596
2905,Court Street,48602,43.4318573,-83.9841871
3795,East Road,48601,43.3860121,-83.9550920
110,Florence Street,48602,43.4041274,-83.9759928
900,Maple Street,48602,43.4076082,-83.9848645
77,W Center St,48602,43.3954281,-83.9726965
303,Johnson Street,48607,43.4358549,-83.9361622
