House number,Street name,Postal code,Latitude,Longitude
400,West Russell Street,48176,42.1666243,-83.7901360
4000,West Russell Street,48176,42.1665450,-83.7908624
777,West Michigan Avenue,48176,42.1613746,-83.7939388
440,West Russell Street,48176,42.1673383,-83.7909427
7847,East Michigan Avenue,48176,42.1721739,-83.7676767
924,East Michigan Avenue,48176,42.1734199,-83.7649365
140,South Industrial Drive,48176,42.1759523,-83.7583947
104,East Michigan Avenue,48176,42.1666273,-83.7810199
101,South Ann Arbor Street,48176,42.1662933,-83.7808421
740,Lambkins Road,48176,42.1751346,-83.7834304
742,Lambkins Road,48176,42.1751165,-83.7835273
744,Lambkins Road,48176,42.1751091,-83.7835673
746,Lambkins Road,48176,42.1750910,-83.7836646
758,Lambkins Road,48176,42.1750338,-83.7840947
760,Lambkins Road,48176,42.1750137,-83.7841956
762,Lambkins Road,48176,42.1750057,-83.7842360
764,Lambkins Road,48176,42.1749924,-83.7843027
766,Lambkins Road,48176,42.1750040,-83.7843500
768,Lambkins Road,48176,42.1750373,-83.7843620
770,Lambkins Road,48176,42.1751153,-83.7843903
1375,E Michigan Ave,48176,42.1774674,-83.7582993
486,Cottonwood Lane,48176,42.1858367,-83.7789035
482,Cottonwood Lane,48176,42.1857509,-83.7788356
478,Cottonwood Lane,48176,42.1857157,-83.7787541
474,Cottonwood Lane,48176,42.1855262,-83.7789439
470,Cottonwood Lane,48176,42.1854253,-83.7789311
466,Cottonwood Lane,48176,42.1854028,-83.7789335
462,Cottonwood Lane,48176,42.1853034,-83.7789627
458,Cottonwood Lane,48176,42.1851253,-83.7790088
454,Cottonwood Lane,48176,42.1850754,-83.7789338
450,Cottonwood Lane,48176,42.1849768,-83.7789420
446,Cottonwood Lane,48176,42.1847870,-83.7790757
442,Cottonwood Lane,48176,42.1847009,-83.7791473
438,Cottonwood Lane,48176,42.1846847,-83.7791666
434,Cottonwood Lane,48176,42.1846186,-83.7792703
430,Cottonwood Lane,48176,42.1845956,-83.7795267
426,Cottonwood Lane,48176,42.1846245,-83.7796102
422,Cottonwood Lane,48176,42.1846403,-83.7797431
418,Cottonwood Lane,48176,42.1846892,-83.7799853
414,Cottonwood Lane,48176,42.1847275,-83.7801181
410,Cottonwood Lane,48176,42.1847529,-83.7801881
421,Cottonwood Lane,48176,42.1849981,-83.7799910
415,Cottonwood Lane,48176,42.1850065,-83.7800842
409,Cottonwood Lane,48176,42.1850349,-83.7802147
425,Cottonwood Lane,48176,42.1849578,-83.7797307
427,Cottonwood Lane,48176,42.1849202,-83.7796060
433,Cottonwood Lane,48176,42.1849084,-83.7795123
471,Cottonwood Lane,48176,42.1855278,-83.7793131
467,Cottonwood Lane,48176,42.1854594,-83.7793486
463,Cottonwood Lane,48176,42.1853632,-83.7793576
459,Cottonwood Lane,48176,42.1852629,-83.7793665
375,Cottonwood Lane,48176,42.1850469,-83.7808426
371,Cottonwood Lane,48176,42.1850531,-83.7809379
367,Cottonwood Lane,48176,42.1850545,-83.7810709
351,Cottonwood Lane,48176,42.1850230,-83.7816151
355,Cottonwood Lane,48176,42.1850473,-83.7814818
359,Cottonwood Lane,48176,42.1850488,-83.7814520
363,Cottonwood Lane,48176,42.1850420,-83.7813174
347,Cottonwood Lane,48176,42.1850009,-83.7818595
343,Cottonwood Lane,48176,42.1849921,-83.7819920
339,Cottonwood Lane,48176,42.1849972,-83.7820872
335,Cottonwood Lane,48176,42.1850040,-83.7823316
331,Cottonwood Lane,48176,42.1849359,-83.7824328
327,Cottonwood Lane,48176,42.1849217,-83.7824489
323,Cottonwood Lane,48176,42.1848314,-83.7825205
319,Cottonwood Lane,48176,42.1846802,-83.7826644
315,Cottonwood Lane,48176,42.1846325,-83.7827334
507,Sycamore Circle,48176,42.1854816,-83.7806310
511,Sycamore Circle,48176,42.1855468,-83.7807393
515,Sycamore Circle,48176,42.1855597,-83.7807545
519,Sycamore Circle,48176,42.1856459,-83.7808319
523,Sycamore Circle,48176,42.1854918,-83.7812096
527,Sycamore Circle,48176,42.1854741,-83.7812916
531,Sycamore Circle,48176,42.1855207,-83.7814125
535,Sycamore Circle,48176,42.1857632,-83.7813468
539,Sycamore Circle,48176,42.1858385,-83.7812529
543,Sycamore Circle,48176,42.1858794,-83.7811632
547,Sycamore Circle,48176,42.1858751,-83.7810869
551,Sycamore Circle,48176,42.1860260,-83.7808715
555,Sycamore Circle,48176,42.1861033,-83.7807782
559,Sycamore Circle,48176,42.1861148,-83.7807588
563,Sycamore Circle,48176,42.1861676,-83.7806397
567,Sycamore Circle,48176,42.1862739,-83.7804237
571,Sycamore Circle,48176,42.1863398,-83.7803144
575,Sycamore Circle,48176,42.1863479,-83.7802953
579,Sycamore Circle,48176,42.1863864,-83.7801659
583,Sycamore Circle,48176,42.1863520,-83.7798472
587,Sycamore Circle,48176,42.1862823,-83.7797388
591,Sycamore Circle,48176,42.1862714,-83.7797258
595,Sycamore Circle,48176,42.1861842,-83.7796526
261,Sheffield Drive,48176,42.1731415,-83.7806883
259,Sheffield Drive,48176,42.1731749,-83.7806983
257,Sheffield Drive,48176,42.1732473,-83.7807076
255,Sheffield Drive,48176,42.1732772,-83.7807114
253,Sheffield Drive,48176,42.1733563,-83.7806702
251,Sheffield Drive,48176,42.1733872,-83.7806741
249,Sheffield Drive,48176,42.1734656,-83.7806841
247,Sheffield Drive,48176,42.1734948,-83.7806938
241,Sheffield Drive,48176,42.1736471,-83.7807447
239,Sheffield Drive,48176,42.1736785,-83.7807468
237,Sheffield Drive,48176,42.1737547,-83.7807518
235,Sheffield Drive,48176,42.1737844,-83.7807537
233,Sheffield Drive,48176,42.1738606,-83.7807645
231,Sheffield Drive,48176,42.1738914,-83.7807665
229,Sheffield Drive,48176,42.1740009,-83.7808855
227,Sheffield Drive,48176,42.1739941,-83.7809541
217,Sheffield Drive,48176,42.1739780,-83.7813027
215,Sheffield Drive,48176,42.1739797,-83.7813743
213,Sheffield Drive,48176,42.1738644,-83.7814726
211,Sheffield Drive,48176,42.1738302,-83.7814704
209,Sheffield Drive,48176,42.1737546,-83.7814712
207,Sheffield Drive,48176,42.1737278,-83.7814695
205,Sheffield Drive,48176,42.1736478,-83.7814643
203,Sheffield Drive,48176,42.1736173,-83.7814624
195,Sheffield Drive,48176,42.1734269,-83.7813950
193,Sheffield Drive,48176,42.1733505,-83.7813951
189,Sheffield Drive,48176,42.1732426,-83.7813838
183,Sheffield Drive,48176,42.1731811,-83.7814613
187,Sheffield Drive,48176,42.1732114,-83.7813820
181,Sheffield Drive,48176,42.1731806,-83.7815675
734,Lambkins Road,48176,42.1749377,-83.7832574
736,Lambkins Road,48176,42.1750173,-83.7832844
738,Lambkins Road,48176,42.1750653,-83.7833007
730,Lambkins Road,48176,42.1748394,-83.7832228
728,Lambkins Road,48176,42.1747658,-83.7831940
726,Lambkins Road,48176,42.1747149,-83.7831741
724,Lambkins Road,48176,42.1746150,-83.7832385
722,Lambkins Road,48176,42.1745941,-83.7833358
720,Lambkins Road,48176,42.1745850,-83.7833781
718,Lambkins Road,48176,42.1745633,-83.7834792
716,Lambkins Road,48176,42.1745489,-83.7835464
714,Lambkins Road,48176,42.1745166,-83.7836193
710,Lambkins Road,48176,42.1745100,-83.7837467
708,Lambkins Road,48176,42.1745204,-83.7838323
706,Lambkins Road,48176,42.1745059,-83.7839016
704,Lambkins Road,48176,42.1744844,-83.7840037
702,Lambkins Road,48176,42.1744765,-83.7840414
700,Lambkins Road,48176,42.1744622,-83.7841094
698,Lambkins Road,48176,42.1744282,-83.7841402
696,Lambkins Road,48176,42.1743955,-83.7841277
694,Lambkins Road,48176,42.1743231,-83.7841000
690,Lambkins Road,48176,42.1742233,-83.7840704
688,Lambkins Road,48176,42.1741560,-83.7840329
684,Lambkins Road,48176,42.1741111,-83.7839723
686,Lambkins Road,48176,42.1741243,-83.7840153
682,Lambkins Road,48176,42.1741327,-83.7839015
680,Lambkins Road,48176,42.1741434,-83.7838666
678,Lambkins Road,48176,42.1741714,-83.7837749
676,Lambkins Road,48176,42.1741907,-83.7837117
674,Lambkins Road,48176,42.1742387,-83.7836504
670,Lambkins Road,48176,42.1742742,-83.7835333
668,Lambkins Road,48176,42.1742737,-83.7834268
664,Lambkins Road,48176,42.1743142,-83.7832958
660,Lambkins Road,48176,42.1743499,-83.7831803
658,Lambkins Road,48176,42.1743139,-83.7830043
656,Lambkins Road,48176,42.1742658,-83.7829772
654,Lambkins Road,48176,42.1741979,-83.7829390
650,Lambkins Road,48176,42.1741018,-83.7828386
648,Lambkins Road,48176,42.1740617,-83.7827894
618,Lambkins Road,48176,42.1735887,-83.7835320
620,Lambkins Road,48176,42.1736127,-83.7835615
622,Lambkins Road,48176,42.1736517,-83.7835566
626,Lambkins Road,48176,42.1737152,-83.7834552
628,Lambkins Road,48176,42.1737398,-83.7834262
630,Lambkins Road,48176,42.1737431,-83.7833657
632,Lambkins Road,48176,42.1737201,-83.7833376
634,Lambkins Road,48176,42.1737215,-83.7832199
636,Lambkins Road,48176,42.1737317,-83.7830620
644,Lambkins Road,48176,42.1739058,-83.7828530
642,Lambkins Road,48176,42.1738560,-83.7829263
640,Lambkins Road,48176,42.1738324,-83.7829519
616,Lambkins Road,48176,42.1734541,-83.7834904
614,Lambkins Road,48176,42.1734029,-83.7834380
612,Lambkins Road,48176,42.1733685,-83.7833486
610,Lambkins Road,48176,42.1733279,-83.7833328
608,Lambkins Road,48176,42.1732948,-83.7832412
606,Lambkins Road,48176,42.1732790,-83.7832037
604,Lambkins Road,48176,42.1732390,-83.7831166
602,Lambkins Road,48176,42.1732478,-83.7830624
600,Lambkins Road,48176,42.1732082,-83.7829770
598,Lambkins Road,48176,42.1732011,-83.7828922
113,Sheffield Drive,48176,42.1734111,-83.7825657
115,Sheffield Drive,48176,42.1734214,-83.7826014
111,Sheffield Drive,48176,42.1733708,-83.7825450
109,Sheffield Drive,48176,42.1733190,-83.7825781
107,Sheffield Drive,48176,42.1732892,-83.7825939
103,Sheffield Drive,48176,42.1732205,-83.7826686
105,Sheffield Drive,48176,42.1732364,-83.7826151
101,Sheffield Drive,48176,42.1732353,-83.7827061
117,Sheffield Drive,48176,42.1735378,-83.7827016
119,Sheffield Drive,48176,42.1736222,-83.7826984
125,Sheffield Drive,48176,42.1737094,-83.7825611
127,Sheffield Drive,48176,42.1737406,-83.7825571
129,Sheffield Drive,48176,42.1738144,-83.7825436
131,Sheffield Drive,48176,42.1738460,-83.7825396
135,Sheffield Drive,48176,42.1738957,-83.7824442
133,Sheffield Drive,48176,42.1739432,-83.7823435
137,Sheffield Drive,48176,42.1739535,-83.7821649
141,Sheffield Drive,48176,42.1739603,-83.7819885
143,Sheffield Drive,48176,42.1738489,-83.7818698
145,Sheffield Drive,48176,42.1738175,-83.7818676
147,Sheffield Drive,48176,42.1737425,-83.7818566
149,Sheffield Drive,48176,42.1737112,-83.7818544
151,Sheffield Drive,48176,42.1736337,-83.7818489
153,Sheffield Drive,48176,42.1736024,-83.7818467
159,Sheffield Drive,48176,42.1734371,-83.7818969
161,Sheffield Drive,48176,42.1734083,-83.7818996
163,Sheffield Drive,48176,42.1733289,-83.7818889
165,Sheffield Drive,48176,42.1732994,-83.7818867
167,Sheffield Drive,48176,42.1732212,-83.7818859
173,Sheffield Drive,48176,42.1731652,-83.7817883
169,Sheffield Drive,48176,42.1731940,-83.7818838
221,East Michigan Avenue,48176,42.1689420,-83.7774761
134,East Michigan Avenue,48176,42.1674319,-83.7789758
134,East Michigan Avenue,48176,42.1672719,-83.7788404
777,West Michigan Avenue,48176,42.1614689,-83.7937143
813,West Michigan Avenue,48176,42.1611806,-83.7944734
413,East Michigan Avenue,48176,42.1713426,-83.7727985
924,East Michigan Avenue,48176,42.1733543,-83.7648793
105,West Michigan Avenue,48176,42.1664329,-83.7814269
912,Savannah Court,48176,42.1772631,-83.7867945
924,Savannah Court,48176,42.1773508,-83.7868661
936,Savannah Court,48176,42.1774154,-83.7868585
948,Savannah Court,48176,42.1775098,-83.7869324
960,Savannah Court,48176,42.1775858,-83.7869622
972,Savannah Court,48176,42.1776565,-83.7869604
980,Savannah Court,48176,42.1778035,-83.7870006
986,Savannah Court,48176,42.1778931,-83.7870748
992,Savannah Court,48176,42.1779711,-83.7871047
998,Savannah Court,48176,42.1780408,-83.7870938
975,Savannah Court,48176,42.1776844,-83.7873255
963,Savannah Court,48176,42.1776157,-83.7872514
951,Savannah Court,48176,42.1775268,-83.7872619
937,Savannah Court,48176,42.1774580,-83.7871875
929,Savannah Court,48176,42.1773791,-83.7871577
915,Savannah Court,48176,42.1772912,-83.7871639
565,East Michigan Avenue,48176,42.1733083,-83.7701652
559,East Michigan Avenue,48176,42.1733031,-83.7707574
559,East Michigan Avenue,48176,42.1733023,-83.7708394
555,East Michigan Avenue,48176,42.1732993,-83.7710935
551,East Michigan Avenue,48176,42.1732983,-83.7712292
501,East Michigan Avenue,48176,42.1723149,-83.7713246
505,East Michigan Avenue,48176,42.1723796,-83.7713252
511,East Michigan Avenue,48176,42.1724669,-83.7713257
515,East Michigan Avenue,48176,42.1725210,-83.7713265
521,East Michigan Avenue,48176,42.1726079,-83.7713238
525,East Michigan Avenue,48176,42.1726772,-83.7713216
529,East Michigan Avenue,48176,42.1727584,-83.7713251
537,East Michigan Avenue,48176,42.1728386,-83.7713254
541,East Michigan Avenue,48176,42.1729182,-83.7713284
549,East Michigan Avenue,48176,42.1730431,-83.7713314
901,West Michigan Avenue,48176,42.1604922,-83.7952489
901,West Michigan Avenue,48176,42.1604859,-83.7955560
703,West Michigan Avenue,48176,42.1616159,-83.7927078
103,East Michigan Avenue,48176,42.1669250,-83.7811934
109,East Michigan Avenue,48176,42.1670121,-83.7809894
1311,E Michigan Ave,48176,42.1774592,-83.7598543
1333,East Michigan Avenue,48176,42.1779196,-83.7598843
1329,East Michigan Avenue,48176,42.1778430,-83.7598818
1323,East Michigan Avenue,48176,42.1777633,-83.7598833
1321,East Michigan Avenue,48176,42.1777010,-83.7598787
1321,East Michigan Avenue,48176,42.1769481,-83.7596199
1363,East Michigan Avenue,48176,42.1785196,-83.7581963
1361,East Michigan Avenue,48176,42.1785215,-83.7582612
1359,East Michigan Avenue,48176,42.1785211,-83.7583310
1365,East Michigan Avenue,48176,42.1785201,-83.7581219
1353,East Michigan Avenue,48176,42.1784895,-83.7586287
1351,East Michigan Avenue,48176,42.1784954,-83.7587011
960,East Michigan Avenue,48176,42.1723801,-83.7633472
754,Lambkins Road,48176,42.1750859,-83.7839816
756,Lambkins Road,48176,42.1750487,-83.7840199
750,Lambkins Road,48176,42.1750903,-83.7838010
748,Lambkins Road,48176,42.1750765,-83.7837426
666,Lambkins Road,48176,42.1742906,-83.7833721
662,Lambkins Road,48176,42.1743271,-83.7832540
646,Lambkins Road,48176,42.1739264,-83.7828227
624,Lambkins Road,48176,42.1736721,-83.7835190
139,Sheffield Drive,48176,42.1739534,-83.7820556
171,Sheffield Drive,48176,42.1731636,-83.7818276
175,Sheffield Drive,48176,42.1731721,-83.7817187
185,Sheffield Drive,48176,42.1731839,-83.7813988
197,Sheffield Drive,48176,42.1734755,-83.7814019
191,Sheffield Drive,48176,42.1733279,-83.7813937
219,Sheffield Drive,48176,42.1739850,-83.7812249
225,Sheffield Drive,48176,42.1739947,-83.7810530
510,North Ann Arbor Street,48176,42.1754312,-83.7852604
460,Park Place,48176,42.1725666,-83.7777560
452,Park Place,48176,42.1724612,-83.7777536
548,Park Place,48176,42.1732311,-83.7773223
552,Park Place,48176,42.1732746,-83.7771927
556,Park Place,48176,42.1733347,-83.7771049
560,Park Place,48176,42.1734273,-83.7770369
564,Park Place,48176,42.1735271,-83.7770133
568,Park Place,48176,42.1736316,-83.7770321
572,Park Place,48176,42.1737386,-83.7770615
576,Park Place,48176,42.1738155,-83.7771587
563,Park Place,48176,42.1739040,-83.7774966
559,Park Place,48176,42.1738745,-83.7776332
555,Park Place,48176,42.1738033,-83.7777031
551,Park Place,48176,42.1737391,-83.7778160
547,Park Place,48176,42.1736718,-83.7778831
543,Park Place,48176,42.1736076,-83.7779960
539,Park Place,48176,42.1735467,-83.7780717
535,Park Place,48176,42.1734797,-83.7781816
531,Park Place,48176,42.1734253,-83.7782778
527,Park Place,48176,42.1733519,-83.7783799
492,Park Place,48176,42.1728983,-83.7777648
484,Park Place,48176,42.1727996,-83.7777623
476,Park Place,48176,42.1727627,-83.7777614
468,Park Place,48176,42.1726623,-83.7777589
540,Park Place,48176,42.1731775,-83.7776238
536,Park Place,48176,42.1731510,-83.7776585
532,Park Place,48176,42.1730789,-83.7777529
544,Park Place,48176,42.1732483,-83.7775310
507,Park Place,48176,42.1731302,-83.7787727
503,Park Place,48176,42.1730492,-83.7788636
511,Park Place,48176,42.1731373,-83.7787190
523,Park Place,48176,42.1733012,-83.7784755
519,Park Place,48176,42.1732202,-83.7785665
595,Park Place,48176,42.1743808,-83.7769081
591,Park Place,48176,42.1743272,-83.7770306
587,Park Place,48176,42.1742811,-83.7770403
583,Park Place,48176,42.1742275,-83.7771627
579,Park Place,48176,42.1741849,-83.7771630
575,Park Place,48176,42.1741315,-83.7772856
571,Park Place,48176,42.1740874,-83.7772963
567,Park Place,48176,42.1740336,-83.7774187
515,Park Place,48176,42.1732173,-83.7786293
235,Clark Street,48176,42.1725509,-83.7773494
201,Clark Street,48176,42.1724750,-83.7799982
203,Clark Street,48176,42.1724370,-83.7799761
219,Clark Street,48176,42.1725273,-83.7788436
221,Clark Street,48176,42.1725294,-83.7787495
356,Detroit Street,48176,42.1701976,-83.7764584
358,Detroit Street,48176,42.1701956,-83.7763604
364,Detroit Street,48176,42.1702045,-83.7761254
366,Detroit Street,48176,42.1702556,-83.7760555
372,Detroit Street,48176,42.1703921,-83.7760080
374,Detroit Street,48176,42.1704647,-83.7760096
276,Clark Street,48176,42.1713821,-83.7769179
278,Clark Street,48176,42.1716551,-83.7770156
274,Clark Street,48176,42.1712606,-83.7773638
272,Clark Street,48176,42.1713102,-83.7777164
268,Clark Street,48176,42.1720331,-83.7774177
266,Clark Street,48176,42.1719586,-83.7777759
262,Clark Street,48176,42.1716367,-83.7780416
260,Clark Street,48176,42.1713696,-83.7780946
340,Arbor Lane,48176,42.1659342,-83.7743408
332,Arbor Lane,48176,42.1660110,-83.7736434
324,Arbor Lane,48176,42.1660174,-83.7733249
320,Arbor Lane,48176,42.1660236,-83.7730164
107,West Michigan Avenue,48176,42.1664107,-83.7815068
101,West Michigan Avenue,48176,42.1664545,-83.7813511
525,Woodland Drive East,48176,42.1841302,-83.7780453
402,North Ann Arbor Street,48176,42.1718408,-83.7833254
1866,Woodland Drive East,48176,42.1955992,-83.7666453
555,N Maple Rd,48176,42.1778524,-83.7754049
400,East Michigan Avenue,48176-1501,42.1701593,-83.7736400
511,Canterbury Drive,48176,42.1617561,-83.7754932
620,Canterbury Drive,48176,42.1599552,-83.7758252
751,West Michigan Avenue,48176,42.1617810,-83.7932005
153,East Bennett Street,48176,42.1714808,-83.7807020
75,East Bennett Street,48176,42.1716155,-83.7836937
101,East Bennett Street,48176,42.1715170,-83.7831286
432,Berkshire Drive,48176,42.1803969,-83.7926420
615,Lexington Drive,48176,42.1771123,-83.7931477
744,Foxboro Court,48176,42.1777309,-83.7948859
379,Berkshire Drive,48176,42.1801545,-83.7912048
716,Foxboro Court,48176,42.1776524,-83.7946008
749,Foxboro Court,48176,42.1770900,-83.7949176
499,Berkshire Drive,48176,42.1791007,-83.7930702
468,Berkshire Drive,48176,42.1799070,-83.7935156
360,Berkshire Drive,48176,42.1807050,-83.7908523
456,Berkshire Drive,48176,42.1800693,-83.7933412
523,Berkshire Drive,48176,42.1786936,-83.7932139
815,Berkshire Drive,48176,42.1805295,-83.7957621
367,Berkshire Drive,48176,42.1802047,-83.7909563
467,Bennington Court,48176,42.1791219,-83.7918336
923,Watson Road,48176,42.1770249,-83.7776865
61,Nichols Drive,48176,42.1778933,-83.7848022
830,North Ann Arbor Street,48176,42.1763589,-83.7856362
265,Nichols Drive,48176,42.1787572,-83.7794934
142,Tower Drive,48176,42.1783411,-83.7832731
153,Tower Drive,48176,42.1787682,-83.7829901
282,Nichols Drive,48176,42.1781872,-83.7792758
185,Pleasant Ridge Drive,48176,42.1633368,-83.7772690
785,Calder Court,48176,42.1756136,-83.7823161
1031,Watson Road,48176,42.1784068,-83.7777576
226,Nichols Drive,48176,42.1784231,-83.7810854
189,Tower Drive,48176,42.1784754,-83.7819709
158,Tower Drive,48176,42.1783711,-83.7828234
732,Calder Court,48176,42.1748938,-83.7816089
842,North Ann Arbor Street,48176,42.1765506,-83.7857057
109,Nichols Drive,48176,42.1779063,-83.7839143
55,Tower Drive,48176,42.1787074,-83.7851723
318,Chandler Drive,48176,42.1783659,-83.7784100
290,Nichols Drive,48176,42.1780401,-83.7790956
524,East Michigan Avenue,48176-1587,42.1711478,-83.7702489
502,East Michigan Avenue,48176,42.1708100,-83.7713954
910,Austin Drive,48176,42.1632673,-83.7977159
910,Austin Drive,48176,42.1626114,-83.7977824
400,North Ann Arbor Street,48176,42.1714589,-83.7841521
107,East Bennett Street,48176,42.1714602,-83.7828754
1234,Tefft Court,48176,42.1897485,-83.7617541
241,South Ann Arbor Street,48176,42.1633271,-83.7786109
1012,Colony Drive,48176,42.1797830,-83.7894496
592,Canterbury Drive,48176,42.1603948,-83.7767200
511,Marlpool Drive,48176,42.1622146,-83.7697072
117,South Ann Arbor Street,48176,42.1659230,-83.7804748
1010,East Michigan Avenue,48176,42.1735448,-83.7640691
760,East Michigan,48176,42.1728119,-83.7661807
401,East Michigan Avenue,48176,42.1703701,-83.7740154
105,West Michigan Avenue,48176,42.1663631,-83.7813793
107,West Michigan Avenue,48176,42.1663317,-83.7814590
141,East Michigan Avenue,48176,42.1672430,-83.7807965
143,East Michigan Avenue,48176,42.1673314,-83.7805911
195,East Michigan Avenue,48176,42.1679419,-83.7794545
423,East Michigan Avenue,48176,42.1722580,-83.7728482
439,East Michigan Avenue,48176,42.1722549,-83.7724116
1020,East Michigan Avenue,48176,42.1737806,-83.7635663
1335,East Michigan Avenue,48176,42.1784681,-83.7595851
108,North Maple Road,48176-9998,42.1718704,-83.7735592
111,Sage Court,48176,42.1772773,-83.7615026
1425,Maplewood Drive,48176,42.1870988,-83.7768456
102,Owen Place,48176,42.1690263,-83.7810796
112,Owen Place,48176,42.1690952,-83.7808259
167,East Michigan Avenue,48176,42.1676066,-83.7800137
100,Hall Street,48176,42.1676509,-83.7804596
102,East McKay Street,48176,42.1679723,-83.7807222
1419,Maplewood Drive,48176,42.1869094,-83.7768636
1413,Maplewood Drive,48176,42.1867117,-83.7767747
1407,Maplewood Drive,48176,42.1865214,-83.7768412
1401,Maplewood Drive,48176,42.1863324,-83.7768066
1395,Maplewood Drive,48176,42.1861341,-83.7768599
1389,Maplewood Drive,48176,42.1859491,-83.7768666
1383,Maplewood Drive,48176,42.1857552,-83.7768777
1377,Maplewood Drive,48176,42.1855482,-83.7768187
1371,Maplewood Drive,48176,42.1853437,-83.7768002
1365,Maplewood Drive,48176,42.1851638,-83.7765674
1359,Maplewood Drive,48176,42.1850807,-83.7763178
1353,Maplewood Drive,48176,42.1850559,-83.7760686
1347,Maplewood Drive,48176,42.1850371,-83.7758104
1341,Maplewood Drive,48176,42.1850303,-83.7755456
1335,Maplewood Drive,48176,42.1850319,-83.7752860
1329,Maplewood Drive,48176,42.1850225,-83.7750301
1323,Maplewood Drive,48176,42.1850706,-83.7747767
1317,Maplewood Drive,48176,42.1850925,-83.7745027
1311,Maplewood Drive,48176,42.1851933,-83.7742865
1305,Maplewood Drive,48176,42.1852810,-83.7740056
1431,Maplewood Drive,48176,42.1872917,-83.7768646
1437,Maplewood Drive,48176,42.1874874,-83.7768686
1443,Maplewood Drive,48176,42.1876870,-83.7768147
1449,Maplewood Drive,48176,42.1878784,-83.7766588
1453,Maplewood Drive,48176,42.1880053,-83.7764627
1461,Maplewood Drive,48176,42.1881174,-83.7762284
1467,Maplewood Drive,48176,42.1881134,-83.7759367
1473,Maplewood Drive,48176,42.1881389,-83.7756842
1479,Maplewood Drive,48176,42.1881287,-83.7754276
1485,Maplewood Drive,48176,42.1881512,-83.7751746
1491,Maplewood Drive,48176,42.1881657,-83.7749214
1497,Maplewood Drive,48176,42.1881753,-83.7746531
1503,Maplewood Drive,48176,42.1882104,-83.7743983
1509,Maplewood Drive,48176,42.1882345,-83.7741388
1515,Maplewood Drive,48176,42.1882499,-83.7738860
1521,Maplewood Drive,48176,42.1882278,-83.7736532
1302,Maplewood Drive,48176,42.1858426,-83.7739882
1306,Maplewood Drive,48176,42.1856554,-83.7744350
1314,Maplewood Drive,48176,42.1855606,-83.7746559
1326,Maplewood Drive,48176,42.1854864,-83.7749421
1332,Maplewood Drive,48176,42.1854842,-83.7752380
1370,Middlewood Drive,48176,42.1857757,-83.7751930
1394,Middlewood Drive,48176,42.1859640,-83.7749846
1406,Middlewood Drive,48176,42.1860430,-83.7747717
1418,Middlewood Drive,48176,42.1861200,-83.7745350
1426,Middlewood Drive,48176,42.1862647,-83.7743044
1434,Middlewood Drive,48176,42.1863783,-83.7740896
1442,Middlewood Drive,48176,42.1865706,-83.7739536
1450,Middlewood Drive,48176,42.1867797,-83.7738985
1462,Middlewood Drive,48176,42.1869897,-83.7738828
1474,Middlewood Drive,48176,42.1871863,-83.7738505
1486,Middlewood Drive,48176,42.1873948,-83.7738511
1498,Middlewood Drive,48176,42.1875915,-83.7738271
1518,Maplewood Drive,48176,42.1877958,-83.7737963
1505,Middlewood Drive,48176,42.1877529,-83.7744374
1495,Middlewood Drive,48176,42.1875508,-83.7744195
1481,Middlewood Drive,48176,42.1873370,-83.7744324
1469,Middlewood Drive,48176,42.1871398,-83.7744888
1455,Middlewood Drive,48176,42.1869168,-83.7744807
1435,Middlewood Drive,48176,42.1867026,-83.7745740
1421,Middlewood Drive,48176,42.1865512,-83.7748019
1409,Middlewood Drive,48176,42.1864557,-83.7750353
1397,Middlewood Drive,48176,42.1863592,-83.7752515
1385,Middlewood Drive,48176,42.1862699,-83.7754781
1373,Middlewood Drive,48176,42.1860738,-83.7756681
1361,Middlewood Drive,48176,42.1858786,-83.7757669
1349,Middlewood Drive,48176,42.1856619,-83.7758046
1337,Middlewood Drive,48176,42.1854654,-83.7758155
1372,Maplewood Drive,48176,42.1856035,-83.7762101
1386,Maplewood Drive,48176,42.1858437,-83.7762501
1392,Maplewood Drive,48176,42.1860332,-83.7762208
1398,Maplewood Drive,48176,42.1862255,-83.7762052
1422,Wood Court,48176,42.1864899,-83.7761886
1444,Wood Court,48176,42.1865052,-83.7759392
1466,Wood Court,48176,42.1866541,-83.7757120
1492,Wood Court,48176,42.1867522,-83.7754840
1510,Wood Court,48176,42.1867783,-83.7752137
1532,Wood Court,48176,42.1869730,-83.7749653
1554,Wood Court,48176,42.1872068,-83.7749571
1533,Wood Court,48176,42.1873582,-83.7752097
1511,Wood Court,48176,42.1873107,-83.7756344
1485,Wood Court,48176,42.1871645,-83.7757578
1420,Maplewood Drive,48176,42.1869584,-83.7761877
1428,Maplewood Drive,48176,42.1871556,-83.7762341
1436,Maplewood Drive,48176,42.1873486,-83.7762647
1450,Maplewood Drive,48176,42.1875585,-83.7762048
1464,Maplewood Drive,48176,42.1876674,-83.7759203
1476,Maplewood Drive,48176,42.1876592,-83.7756628
1482,Maplewood Drive,48176,42.1876922,-83.7753872
1488,Maplewood Drive,48176,42.1877099,-83.7751224
1494,Maplewood Drive,48176,42.1877403,-83.7748471
599,Sycamore Circle,48176,42.1860851,-83.7794663
598,Sycamore Circle,48176,42.1858754,-83.7799146
592,Sycamore Circle,48176,42.1859788,-83.7800163
584,Sycamore Circle,48176,42.1860829,-83.7801430
510,Sycamore Circle,48176,42.1857083,-83.7802899
516,Sycamore Circle,48176,42.1858132,-83.7804109
522,Sycamore Circle,48176,42.1859109,-83.7805183
311,Cottonwood Lane,48176,42.1845012,-83.7829620
318,Cottonwood Lane,48176,42.1845778,-83.7822460
336,Cottonwood Lane,48176,42.1846575,-83.7820827
344,Cottonwood Lane,48176,42.1845955,-83.7819056
348,Cottonwood Lane,48176,42.1846782,-83.7817453
352,Cottonwood Lane,48176,42.1846163,-83.7815684
358,Cottonwood Lane,48176,42.1846972,-83.7814073
364,Cottonwood Lane,48176,42.1847073,-83.7812373
370,Cottonwood Lane,48176,42.1846451,-83.7810603
378,Cottonwood Lane,48176,42.1847267,-83.7808993
2938,Wildwood Court,48176,42.1863855,-83.7781937
2956,Wildwood Court,48176,42.1861855,-83.7781140
2974,Wildwood Court,48176,42.1859474,-83.7780771
2992,Wildwood Court,48176,42.1857517,-83.7780743
3010,Wildwood Court,48176,42.1855532,-83.7782094
3028,Wildwood Court,48176,42.1853731,-83.7782912
3046,Wildwood Court,48176,42.1851600,-83.7782395
3064,Wildwood Court,48176,42.1850400,-83.7780520
3071,Wildwood Court,48176,42.1850118,-83.7777594
3053,Wildwood Court,48176,42.1850897,-83.7775010
3035,Wildwood Court,48176,42.1852890,-83.7773500
3017,Wildwood Court,48176,42.1854778,-83.7773565
2997,Wildwood Court,48176,42.1856901,-83.7774567
2981,Wildwood Court,48176,42.1858813,-83.7774649
2963,Wildwood Court,48176,42.1860838,-83.7774555
2945,Wildwood Court,48176,42.1862874,-83.7774737
2927,Wildwood Court,48176,42.1865046,-83.7775781
1702,Sycamore Court,48176,42.1867626,-83.7777670
1718,Sycamore Court,48176,42.1869198,-83.7776328
1734,Sycamore Court,48176,42.1871407,-83.7775769
1750,Sycamore Court,48176,42.1873221,-83.7774807
1766,Sycamore Court,48176,42.1875448,-83.7774598
1782,Sycamore Court,48176,42.1877423,-83.7775776
1799,Sycamore Court,48176,42.1878189,-83.7778546
1783,Sycamore Court,48176,42.1877932,-83.7781145
1767,Sycamore Court,48176,42.1876407,-83.7783044
1751,Sycamore Court,48176,42.1874613,-83.7783598
1735,Sycamore Court,48176,42.1872735,-83.7782784
1719,Sycamore Court,48176,42.1870826,-83.7782217
2829,Wildwood Trail,48176,42.1871962,-83.7786681
2811,Wildwood Trail,48176,42.1872560,-83.7789154
2804,Wildwood Trail,48176,42.1869156,-83.7793705
2822,Wildwood Trail,48176,42.1868371,-83.7791578
2840,Wildwood Trail,48176,42.1867697,-83.7789160
2858,Wildwood Trail,48176,42.1867156,-83.7786939
7387,North Ann Arbor Street,48176,42.1786539,-83.7865334
15,Tower Drive,48176,42.1786266,-83.7863112
23,Tower Drive,48176,42.1786728,-83.7860858
31,Tower Drive,48176,42.1787011,-83.7858219
39,Tower Drive,48176,42.1787008,-83.7856240
47,Tower Drive,48176,42.1787223,-83.7854046
63,Tower Drive,48176,42.1787422,-83.7849291
71,Tower Drive,48176,42.1787420,-83.7846662
111,Tower Drive,48176,42.1787506,-83.7840642
123,Tower Drive,48176,42.1787602,-83.7836645
121,Tower Drive,48176,42.1787557,-83.7838598
137,Tower Drive,48176,42.1787712,-83.7834419
145,Tower Drive,48176,42.1787729,-83.7832144
161,Tower Drive,48176,42.1787595,-83.7827243
169,Tower Drive,48176,42.1787154,-83.7824474
177,Tower Drive,48176,42.1786278,-83.7822108
211,Nichols Drive,48176,42.1786192,-83.7817664
217,Nichols Drive,48176,42.1787329,-83.7815706
223,Nichols Drive,48176,42.1788035,-83.7813031
229,Nichols Drive,48176,42.1788365,-83.7810521
235,Nichols Drive,48176,42.1788265,-83.7808053
241,Nichols Drive,48176,42.1788456,-83.7805362
247,Nichols Drive,48176,42.1788624,-83.7802729
253,Nichols Drive,48176,42.1788539,-83.7800071
259,Nichols Drive,48176,42.1788121,-83.7797278
271,Nichols Drive,48176,42.1786944,-83.7792762
277,Nichols Drive,48176,42.1785735,-83.7790530
315,Chandler Drive,48176,42.1787102,-83.7787397
327,Chandler Drive,48176,42.1787694,-83.7785231
339,Chandler Drive,48176,42.1788196,-83.7783085
351,Chandler Drive,48176,42.1788650,-83.7780688
363,Chandler Drive,48176,42.1788897,-83.7777755
375,Chandler Drive,48176,42.1788574,-83.7775166
387,Chandler Drive,48176,42.1788678,-83.7772664
399,Chandler Drive,48176,42.1788698,-83.7770137
1032,Watson Road,48176,42.1784529,-83.7772406
1016,Watson Road,48176,42.1782815,-83.7771989
1002,Watson Road,48176,42.1780840,-83.7772207
986,Watson Road,48176,42.1778534,-83.7771575
972,Watson Road,48176,42.1776580,-83.7771788
956,Watson Road,48176,42.1774611,-83.7771753
942,Watson Road,48176,42.1772609,-83.7771393
926,Watson Road,48176,42.1770641,-83.7771656
912,Watson Road,48176,42.1768664,-83.7771195
896,Watson Road,48176,42.1766464,-83.7771069
880,Watson Road,48176,42.1764661,-83.7771382
868,Watson Road,48176,42.1762873,-83.7772272
365,Nichols Drive,48176,42.1758419,-83.7782348
371,Nichols Drive,48176,42.1755233,-83.7783053
377,Nichols Drive,48176,42.1752886,-83.7784042
383,Nichols Drive,48176,42.1750709,-83.7785977
389,Nichols Drive,48176,42.1749148,-83.7788266
395,Nichols Drive,48176,42.1747830,-83.7791050
407,Nichols Drive,48176,42.1746701,-83.7796796
415,Nichols Drive,48176,42.1746215,-83.7799058
423,Nichols Drive,48176,42.1745625,-83.7803411
684,North Harris Street,48176,42.1743117,-83.7803187
670,North Harris Street,48176,42.1741259,-83.7802726
656,North Harris Street,48176,42.1739492,-83.7802168
632,North Harris Street,48176,42.1735711,-83.7801559
618,North Harris Street,48176,42.1733847,-83.7801647
604,North Harris Street,48176,42.1731950,-83.7801195
1015,Watson Road,48176,42.1781988,-83.7777707
999,Watson Road,48176,42.1780076,-83.7777678
983,Watson Road,48176,42.1778227,-83.7777648
969,Watson Road,48176,42.1776440,-83.7777365
953,Watson Road,48176,42.1774109,-83.7777198
939,Watson Road,48176,42.1772190,-83.7776981
891,Watson Road,48176,42.1768360,-83.7776726
887,Watson Road,48176,42.1766451,-83.7777074
851,Watson Road,48176,42.1763903,-83.7778307
351,Nichols Drive,48176,42.1763282,-83.7782486
345,Nichols Drive,48176,42.1765696,-83.7782574
339,Nichols Drive,48176,42.1767685,-83.7782711
333,Nichols Drive,48176,42.1769781,-83.7782815
327,Nichols Drive,48176,42.1771897,-83.7783017
321,Nichols Drive,48176,42.1774281,-83.7783016
315,Nichols Drive,48176,42.1776277,-83.7783422
307,Nichols Drive,48176,42.1778071,-83.7783788
301,Nichols Drive,48176,42.1779807,-83.7784523
291,Nichols Drive,48176,42.1781946,-83.7786051
340,Chandler Drive,48176,42.1784399,-83.7781136
325,Wallace Drive,48176,42.1772420,-83.7789502
320,Nichols Drive,48176,42.1774281,-83.7788552
310,Nichols Drive,48176,42.1776602,-83.7789039
300,Nichols Drive,48176,42.1778641,-83.7789728
274,Nichols Drive,48176,42.1782745,-83.7794837
264,Nichols Drive,48176,42.1783776,-83.7797279
256,Nichols Drive,48176,42.1784336,-83.7799705
248,Nichols Drive,48176,42.1784440,-83.7802161
240,Nichols Drive,48176,42.1784134,-83.7805074
234,Nichols Drive,48176,42.1784195,-83.7807909
214,Nichols Drive,48176,42.1783540,-83.7813292
203,Tower Drive,48176,42.1781887,-83.7815365
211,Tower Drive,48176,42.1780473,-83.7813048
219,Tower Drive,48176,42.1779977,-83.7810541
227,Tower Drive,48176,42.1780222,-83.7807955
235,Tower Drive,48176,42.1780052,-83.7805601
243,Tower Drive,48176,42.1780167,-83.7802912
251,Tower Drive,48176,42.1779821,-83.7800514
259,Tower Drive,48176,42.1779015,-83.7798406
267,Tower Drive,48176,42.1777816,-83.7796522
275,Tower Drive,48176,42.1776308,-83.7795122
283,Tower Drive,48176,42.1774495,-83.7794361
291,Tower Drive,48176,42.1772287,-83.7794193
190,Tower Drive,48176,42.1781970,-83.7823652
174,Tower Drive,48176,42.1783176,-83.7825529
150,Tower Drive,48176,42.1783737,-83.7830515
134,Tower Drive,48176,42.1783325,-83.7834972
126,Tower Drive,48176,42.1783391,-83.7837139
118,Tower Drive,48176,42.1783442,-83.7839181
110,Tower Drive,48176,42.1783362,-83.7841357
102,Tower Drive,48176,42.1783324,-83.7843878
76,Tower Drive,48176,42.1783034,-83.7845790
68,Tower Drive,48176,42.1783164,-83.7848080
56,Tower Drive,48176,42.1782672,-83.7850694
53,Nichols Drive,48176,42.1778786,-83.7850108
69,Nichols Drive,48176,42.1778918,-83.7845714
77,Nichols Drive,48176,42.1779318,-83.7843615
101,Nichols Drive,48176,42.1779062,-83.7841395
117,Nichols Drive,48176,42.1779255,-83.7836956
125,Nichols Drive,48176,42.1779326,-83.7834686
133,Nichols Drive,48176,42.1779335,-83.7832528
141,Nichols Drive,48176,42.1779452,-83.7830311
153,Nichols Drive,48176,42.1779552,-83.7828021
165,Nichols Drive,48176,42.1780185,-83.7825500
962,North Ann Arbor Street,48176,42.1781048,-83.7863033
18,Tower Drive,48176,42.1781556,-83.7861185
950,North Ann Arbor Street,48176,42.1778522,-83.7862310
932,North Ann Arbor Street,48176,42.1776779,-83.7861503
910,North Ann Arbor Street,48176,42.1774815,-83.7860806
888,North Ann Arbor Street,48176,42.1772936,-83.7859919
878,North Ann Arbor Street,48176,42.1771137,-83.7859146
406,North Ann Arbor Street,48176,42.1722490,-83.7841933
601,Lambkins Road,48176,42.1729553,-83.7834863
868,North Ann Arbor Street,48176,42.1769275,-83.7858261
856,North Ann Arbor Street,48176,42.1767378,-83.7857523
816,North Ann Arbor Street,48176,42.1761803,-83.7855538
800,North Ann Arbor Street,48176,42.1759739,-83.7854047
785,Lambkins Road,48176,42.1756170,-83.7847308
790,Lambkins Road,48176,42.1757896,-83.7842218
128,Harper Drive,48176,42.1758662,-83.7838398
140,Harper Drive,48176,42.1758638,-83.7835477
45,Harper Drive,48176,42.1760702,-83.7849660
823,Lambkins Road,48176,42.1762822,-83.7850439
108,East McKay Street,48176,42.1682189,-83.7799514
104,East McKay Street,48176,42.1680695,-83.7805223
106,East McKay Street,48176,42.1681155,-83.7803532
135,East Bennett Street,48176,42.1717093,-83.7814068
833,Lambkins Road,48176,42.1764833,-83.7851651
845,Lambkins Road,48176,42.1766490,-83.7852009
857,Lambkins Road,48176,42.1768405,-83.7852640
871,Lambkins Road,48176,42.1770128,-83.7853293
887,Lambkins Road,48176,42.1774297,-83.7854675
925,Lambkins Road,48176,42.1775801,-83.7855489
939,Lambkins Road,48176,42.1777637,-83.7855365
953,Lambkins Road,48176,42.1779259,-83.7856012
38,Tower Drive,48176,42.1782011,-83.7856608
26,Tower Drive,48176,42.1781714,-83.7858841
416,North Ann Arbor Street,48176,42.1732200,-83.7844203
414,North Ann Arbor Street,48176,42.1730472,-83.7843653
412,North Ann Arbor Street,48176,42.1728935,-83.7843407
410,North Ann Arbor Street,48176,42.1726489,-83.7843180
408,North Ann Arbor Street,48176,42.1724763,-83.7842681
2703,Wildwood Trail,48176,42.1879469,-83.7795405
2663,Wildwood Trail,48176,42.1881493,-83.7795377
2645,Wildwood Trail,48176,42.1883532,-83.7794741
313,Dogwood Court,48176,42.1886340,-83.7792652
327,Dogwood Court,48176,42.1886239,-83.7790162
345,Dogwood Court,48176,42.1886161,-83.7787603
1220,East Michigan Avenue,48176,42.1751195,-83.7605861
437,Willis Road,48176,42.1594302,-83.7712465
451,Willis Road,48176,42.1594254,-83.7709953
465,Willis Road,48176,42.1594293,-83.7707240
479,Willis Road,48176,42.1594302,-83.7704667
495,Willis Road,48176,42.1594369,-83.7701885
511,Willis Road,48176,42.1594498,-83.7699269
423,Willis Road,48176,42.1594213,-83.7715072
409,Willis Road,48176,42.1594101,-83.7717704
348,Willis Road,48176,42.1588694,-83.7723431
360,Willis Road,48176,42.1589090,-83.7720643
467,Springbrook Crescent,48176,42.1603670,-83.7704173
453,Springbrook Crescent,48176,42.1603982,-83.7706929
478,Springbrook Crescent,48176,42.1599234,-83.7703068
464,Springbrook Crescent,48176,42.1599357,-83.7705660
492,Springbrook Crescent,48176,42.1599296,-83.7700519
355,Willis Road,48176,42.1594047,-83.7720568
347,Willis Road,48176,42.1593886,-83.7723809
465,Amherst Circle,48176,42.1582876,-83.7708073
441,Amherst Circle,48176,42.1581553,-83.7711937
423,Amherst Circle,48176,42.1579399,-83.7714405
426,Amherst Circle,48176,42.1576832,-83.7707132
401,Amherst Circle,48176,42.1576119,-83.7715571
564,Amherst Circle,48176,42.1579354,-83.7688407
846,Arboretum Drive,48176,42.1575398,-83.7689801
872,Arboretum Drive,48176,42.1574677,-83.7693787
908,Arboretum Drive,48176,42.1573906,-83.7697299
932,Arboretum Drive,48176,42.1572903,-83.7701468
536,Amherst Circle,48176,42.1581266,-83.7693093
336,Berkshire Drive,48176,42.1807626,-83.7903549
348,Berkshire Drive,48176,42.1807219,-83.7905940
372,Berkshire Drive,48176,42.1806634,-83.7911127
384,Berkshire Drive,48176,42.1806199,-83.7913605
396,Berkshire Drive,48176,42.1805713,-83.7916070
408,Berkshire Drive,48176,42.1805332,-83.7918631
416,Berkshire Drive,48176,42.1805000,-83.7921214
424,Berkshire Drive,48176,42.1804535,-83.7923670
440,Berkshire Drive,48176,42.1802975,-83.7928691
448,Berkshire Drive,48176,42.1802076,-83.7931241
476,Berkshire Drive,48176,42.1797233,-83.7935973
484,Berkshire Drive,48176,42.1795336,-83.7937005
492,Berkshire Drive,48176,42.1793301,-83.7937386
508,Berkshire Drive,48176,42.1791229,-83.7937307
522,Berkshire Drive,48176,42.1789163,-83.7937629
544,Berkshire Drive,48176,42.1787456,-83.7939234
566,Berkshire Drive,48176,42.1786530,-83.7941527
1131,Colony Drive,48176,42.1810651,-83.7905979
331,Berkshire Drive,48176,42.1803117,-83.7902217
343,Berkshire Drive,48176,42.1802669,-83.7904641
355,Berkshire Drive,48176,42.1802357,-83.7907089
391,Berkshire Drive,48176,42.1801409,-83.7914715
403,Berkshire Drive,48176,42.1800810,-83.7917183
415,Berkshire Drive,48176,42.1800522,-83.7919694
427,Berkshire Drive,48176,42.1799874,-83.7922096
439,Berkshire Drive,48176,42.1799308,-83.7924819
451,Berkshire Drive,48176,42.1798447,-83.7927030
463,Berkshire Drive,48176,42.1797095,-83.7929395
475,Berkshire Drive,48176,42.1795084,-83.7930452
487,Berkshire Drive,48176,42.1793383,-83.7931055
511,Berkshire Drive,48176,42.1788986,-83.7931155
535,Berkshire Drive,48176,42.1785213,-83.7933259
547,Berkshire Drive,48176,42.1783554,-83.7935233
559,Berkshire Drive,48176,42.1782142,-83.7937345
571,Berkshire Drive,48176,42.1781174,-83.7939956
330,Bennington Court,48176,42.1798618,-83.7901913
356,Bennington Court,48176,42.1798705,-83.7904891
382,Bennington Court,48176,42.1797887,-83.7907944
408,Bennington Court,48176,42.1797268,-83.7911825
434,Bennington Court,48176,42.1796897,-83.7914868
460,Bennington Court,48176,42.1796595,-83.7918187
486,Bennington Court,48176,42.1796428,-83.7921564
522,Bennington Court,48176,42.1794294,-83.7925883
529,Bennington Court,48176,42.1791331,-83.7925080
493,Bennington Court,48176,42.1790129,-83.7921826
441,Bennington Court,48176,42.1792115,-83.7915234
415,Bennington Court,48176,42.1792527,-83.7911929
389,Bennington Court,48176,42.1793026,-83.7908469
363,Bennington Court,48176,42.1793335,-83.7905732
337,Bennington Court,48176,42.1793987,-83.7901330
1108,Colony Drive,48176,42.1808722,-83.7897557
1120,Colony Drive,48176,42.1810313,-83.7898502
1128,Colony Drive,48176,42.1811972,-83.7899592
1136,Colony Drive,48176,42.1813482,-83.7900773
1144,Colony Drive,48176,42.1814969,-83.7901987
1152,Colony Drive,48176,42.1816072,-83.7903472
1037,Colony Drive,48176,42.1791091,-83.7901401
1019,Colony Drive,48176,42.1788589,-83.7900737
1013,Colony Court,48176,42.1787700,-83.7904538
1009,Colony Court,48176,42.1788118,-83.7908210
1005,Colony Court,48176,42.1788878,-83.7911266
1001,Colony Court,48176,42.1787226,-83.7914789
997,Colony Court,48176,42.1783301,-83.7913908
993,Colony Court,48176,42.1782451,-83.7910121
989,Colony Court,48176,42.1782627,-83.7907091
985,Colony Court,48176,42.1783050,-83.7903785
979,Colony Drive,48176,42.1783190,-83.7898663
988,Colony Drive,48176,42.1785540,-83.7892399
966,Colony Drive,48176,42.1783370,-83.7891677
952,Colony Drive,48176,42.1780914,-83.7891319
938,Colony Drive,48176,42.1777988,-83.7890863
924,Colony Drive,48176,42.1775048,-83.7890561
910,Colony Drive,48176,42.1772489,-83.7890632
957,Colony Drive,48176,42.1780476,-83.7897983
935,Colony Drive,48176,42.1777575,-83.7897283
301,Lexington Drive,48176,42.1772639,-83.7897271
335,Lexington Drive,48176,42.1772738,-83.7900576
369,Lexington Drive,48176,42.1772972,-83.7903680
403,Lexington Drive,48176,42.1773142,-83.7907086
437,Lexington Drive,48176,42.1773020,-83.7910654
465,Lexington Drive,48176,42.1772818,-83.7914039
493,Lexington Drive,48176,42.1772345,-83.7917195
354,Lexington Drive,48176,42.1777643,-83.7902544
382,Lexington Drive,48176,42.1777773,-83.7906266
424,Lexington Drive,48176,42.1777611,-83.7909911
456,Lexington Drive,48176,42.1777601,-83.7913616
492,Lexington Court,48176,42.1777327,-83.7918207
500,Lexington Court,48176,42.1779935,-83.7918730
508,Lexington Court,48176,42.1782573,-83.7918540
516,Lexington Court,48176,42.1785979,-83.7919346
524,Lexington Court,48176,42.1785840,-83.7925872
532,Lexington Court,48176,42.1781977,-83.7926200
540,Lexington Court,48176,42.1779302,-83.7925087
548,Lexington Court,48176,42.1776579,-83.7924530
588,Lexington Drive,48176,42.1775847,-83.7929482
521,Lexington Drive,48176,42.1772104,-83.7920644
549,Lexington Drive,48176,42.1771693,-83.7924058
577,Lexington Drive,48176,42.1771346,-83.7927586
643,Lexington Drive,48176,42.1771244,-83.7935492
671,Lexington Drive,48176,42.1771079,-83.7939128
626,Lexington Drive,48176,42.1775780,-83.7933179
660,Lexington Drive,48176,42.1775942,-83.7936384
698,Lexington Drive,48176,42.1776314,-83.7939642
721,Foxboro Court,48176,42.1771533,-83.7945793
777,Foxboro Court,48176,42.1771549,-83.7952588
810,Foxboro Court,48176,42.1774303,-83.7954047
772,Foxboro Court,48176,42.1777393,-83.7953112
587,Berkshire Drive,48176,42.1780883,-83.7946231
599,Berkshire Drive,48176,42.1780782,-83.7948940
611,Berkshire Drive,48176,42.1780975,-83.7951662
623,Berkshire Drive,48176,42.1781959,-83.7954231
635,Berkshire Drive,48176,42.1783152,-83.7956689
647,Berkshire Drive,48176,42.1784404,-83.7958768
659,Berkshire Drive,48176,42.1785993,-83.7960104
673,Berkshire Drive,48176,42.1787739,-83.7960984
685,Berkshire Drive,48176,42.1789607,-83.7961203
697,Berkshire Drive,48176,42.1791388,-83.7961333
719,Berkshire Drive,48176,42.1793150,-83.7961373
731,Berkshire Drive,48176,42.1794932,-83.7961247
743,Berkshire Drive,48176,42.1796762,-83.7960981
755,Berkshire Drive,48176,42.1798462,-83.7960631
767,Berkshire Drive,48176,42.1800264,-83.7960114
779,Berkshire Drive,48176,42.1802045,-83.7959621
791,Berkshire Drive,48176,42.1803708,-83.7958618
827,Berkshire Drive,48176,42.1806832,-83.7956372
839,Berkshire Drive,48176,42.1808349,-83.7955213
851,Berkshire Drive,48176,42.1809811,-83.7953930
863,Berkshire Drive,48176,42.1811268,-83.7952703
875,Berkshire Drive,48176,42.1812647,-83.7951258
887,Berkshire Drive,48176,42.1813843,-83.7949622
899,Berkshire Drive,48176,42.1815214,-83.7948249
590,Berkshire Drive,48176,42.1785357,-83.7947606
608,Berkshire Drive,48176,42.1785554,-83.7950027
626,Berkshire Drive,48176,42.1786190,-83.7952476
644,Berkshire Drive,48176,42.1787873,-83.7954240
662,Berkshire Drive,48176,42.1789787,-83.7955159
680,Berkshire Drive,48176,42.1791657,-83.7955207
692,Berkshire Drive,48176,42.1793400,-83.7955344
712,Berkshire Drive,48176,42.1795128,-83.7955146
730,Berkshire Drive,48176,42.1796825,-83.7954863
748,Berkshire Drive,48176,42.1798496,-83.7954199
766,Berkshire Drive,48176,42.1800143,-83.7953527
784,Berkshire Drive,48176,42.1801765,-83.7952779
802,Berkshire Drive,48176,42.1803352,-83.7951844
820,Berkshire Drive,48176,42.1804939,-83.7950928
838,Berkshire Drive,48176,42.1806355,-83.7949581
856,Berkshire Drive,48176,42.1807762,-83.7948263
868,Berkshire Drive,48176,42.1809172,-83.7946961
880,Berkshire Drive,48176,42.1810469,-83.7945358
892,Berkshire Drive,48176,42.1811670,-83.7943272
1021,Heritage Drive,48176,42.1788365,-83.7948468
1025,Heritage Drive,48176,42.1790186,-83.7949173
1031,Heritage Drive,48176,42.1792027,-83.7949373
1037,Heritage Drive,48176,42.1793840,-83.7949295
1045,Heritage Drive,48176,42.1795622,-83.7948884
1053,Heritage Drive,48176,42.1797412,-83.7948621
1061,Heritage Drive,48176,42.1799163,-83.7947935
1069,Heritage Drive,48176,42.1800743,-83.7946965
1077,Heritage Drive,48176,42.1802498,-83.7946174
1085,Heritage Drive,48176,42.1804055,-83.7944890
1093,Heritage Drive,48176,42.1805505,-83.7943521
1101,Heritage Drive,48176,42.1806819,-83.7941732
1113,Heritage Drive,48176,42.1808228,-83.7940235
1125,Heritage Drive,48176,42.1809767,-83.7938892
1024,Heritage Drive,48176,42.1789905,-83.7942863
1032,Heritage Drive,48176,42.1792378,-83.7943203
1040,Heritage Drive,48176,42.1794149,-83.7942724
1048,Heritage Drive,48176,42.1795868,-83.7942710
1056,Heritage Drive,48176,42.1797527,-83.7942025
1064,Heritage Drive,48176,42.1799216,-83.7941349
1072,Heritage Drive,48176,42.1800788,-83.7940265
1080,Heritage Drive,48176,42.1802178,-83.7938779
1088,Heritage Drive,48176,42.1803529,-83.7937329
1096,Heritage Drive,48176,42.1804812,-83.7935933
1104,Heritage Drive,48176,42.1806068,-83.7934348
333,Woodland Drive West,48176,42.1813150,-83.7908101
347,Woodland Drive West,48176,42.1811922,-83.7909731
359,Woodland Drive West,48176,42.1811113,-83.7911881
371,Woodland Drive West,48176,42.1810281,-83.7913911
383,Woodland Drive West,48176,42.1809799,-83.7916198
395,Woodland Drive West,48176,42.1809588,-83.7918608
407,Woodland Drive West,48176,42.1808882,-83.7920935
419,Woodland Drive West,48176,42.1808715,-83.7923296
431,Woodland Drive West,48176,42.1808486,-83.7925680
443,Woodland Drive West,48176,42.1808167,-83.7927959
455,Woodland Drive West,48176,42.1808277,-83.7930323
467,Woodland Drive West,48176,42.1808409,-83.7932628
569,Woodland Drive West,48176,42.1827922,-83.7961239
581,Woodland Drive West,48176,42.1830664,-83.7961581
593,Woodland Drive West,48176,42.1832838,-83.7961696
344,Woodland Drive West,48176,42.1816691,-83.7912139
356,Woodland Drive West,48176,42.1815652,-83.7913944
368,Woodland Drive West,48176,42.1814557,-83.7916152
384,Woodland Drive West,48176,42.1814154,-83.7918442
1262,Woodland Court,48176,42.1817465,-83.7919703
1267,Woodland Court,48176,42.1816280,-83.7926213
1285,Woodland Court,48176,42.1818065,-83.7927803
1280,Woodland Court,48176,42.1819505,-83.7921464
1298,Woodland Court,48176,42.1821068,-83.7922819
1316,Woodland Court,48176,42.1823303,-83.7924304
1334,Woodland Court,48176,42.1825243,-83.7924871
1356,Woodland Court,48176,42.1827572,-83.7925414
1372,Woodland Court,48176,42.1829169,-83.7927739
1392,Woodland Court,48176,42.1829187,-83.7930716
1387,Woodland Court,48176,42.1827817,-83.7932912
1375,Woodland Court,48176,42.1825522,-83.7934300
1357,Woodland Court,48176,42.1822980,-83.7931339
1337,Yorkshire Court,48176,42.1822755,-83.7935451
1325,Yorkshire Court,48176,42.1820893,-83.7937480
1311,Yorkshire Court,48176,42.1818851,-83.7937482
1299,Yorkshire Court,48176,42.1816979,-83.7934203
1291,Yorkshire Court,48176,42.1817019,-83.7931212
922,Wiltshire Court,48176,42.1823169,-83.7943312
940,Wiltshire Court,48176,42.1824129,-83.7940016
958,Wiltshire Court,48176,42.1826331,-83.7939091
983,Wiltshire Court,48176,42.1829079,-83.7940316
965,Wiltshire Court,48176,42.1829097,-83.7943782
947,Wiltshire Court,48176,42.1828806,-83.7946058
929,Wiltshire Court,48176,42.1827055,-83.7948647
404,Woodland Drive West,48176,42.1813161,-83.7924252
418,Woodland Drive West,48176,42.1812931,-83.7926549
430,Woodland Drive West,48176,42.1812723,-83.7928862
442,Woodland Drive West,48176,42.1812849,-83.7931303
454,Woodland Drive West,48176,42.1813143,-83.7933604
466,Woodland Drive West,48176,42.1813795,-83.7935850
478,Woodland Drive West,48176,42.1814367,-83.7938116
490,Woodland Drive West,48176,42.1815401,-83.7939794
502,Woodland Drive West,48176,42.1816535,-83.7941890
514,Woodland Drive West,48176,42.1817882,-83.7943281
526,Woodland Drive West,48176,42.1819214,-83.7944816
538,Woodland Drive West,48176,42.1820330,-83.7946313
552,Woodland Drive West,48176,42.1821501,-83.7947623
564,Woodland Drive West,48176,42.1825005,-83.7951728
576,Woodland Drive West,48176,42.1826213,-83.7953404
586,Woodland Drive West,48176,42.1827798,-83.7954516
598,Woodland Drive West,48176,42.1829630,-83.7955098
1214,Colony Drive,48176,42.1819785,-83.7907316
1228,Colony Drive,48176,42.1821028,-83.7908790
1240,Colony Drive,48176,42.1822189,-83.7910421
1252,Colony Drive,48176,42.1823877,-83.7911790
1264,Colony Drive,48176,42.1825479,-83.7913041
1276,Colony Drive,48176,42.1827420,-83.7913916
1288,Colony Drive,48176,42.1829280,-83.7914680
1302,Colony Drive,48176,42.1831278,-83.7915391
1314,Colony Drive,48176,42.1832944,-83.7916714
1326,Colony Drive,48176,42.1834744,-83.7918360
1338,Colony Drive,48176,42.1836043,-83.7920476
1350,Colony Drive,48176,42.1837439,-83.7923488
1362,Colony Drive,48176,42.1838158,-83.7926544
1374,Colony Drive,48176,42.1838362,-83.7930145
1386,Colony Drive,48176,42.1838338,-83.7932697
1398,Colony Drive,48176,42.1838369,-83.7936208
1410,Colony Drive,48176,42.1838265,-83.7938936
1422,Colony Drive,48176,42.1838118,-83.7942452
1434,Colony Drive,48176,42.1838112,-83.7944944
1456,Colony Drive,48176,42.1838008,-83.7948468
1468,Colony Drive,48176,42.1837955,-83.7951249
1480,Colony Drive,48176,42.1837678,-83.7954763
1492,Colony Drive,48176,42.1837718,-83.7957445
1504,Colony Drive,48176,42.1837633,-83.7960904
1516,Colony Drive,48176,42.1837700,-83.7963443
1227,Colony Drive,48176,42.1818987,-83.7915162
1239,Colony Drive,48176,42.1820661,-83.7916319
1251,Colony Drive,48176,42.1822350,-83.7917695
1263,Colony Drive,48176,42.1824057,-83.7919156
1275,Colony Drive,48176,42.1825941,-83.7919993
1287,Colony Drive,48176,42.1827810,-83.7920466
1317,Colony Drive,48176,42.1829689,-83.7921439
1329,Colony Drive,48176,42.1831416,-83.7923048
1347,Colony Drive,48176,42.1832946,-83.7925507
1359,Colony Drive,48176,42.1833733,-83.7928263
1371,Colony Drive,48176,42.1833755,-83.7931234
1383,Colony Drive,48176,42.1833920,-83.7933859
1395,Colony Drive,48176,42.1833655,-83.7937137
1407,Colony Drive,48176,42.1833680,-83.7940440
1419,Colony Drive,48176,42.1833585,-83.7943685
1431,Colony Drive,48176,42.1833434,-83.7946207
1443,Colony Drive,48176,42.1833324,-83.7949363
1455,Colony Drive,48176,42.1833362,-83.7952781
1467,Colony Drive,48176,42.1833212,-83.7955328
412,Breconshire Drive,48176,42.1752209,-83.7915530
454,Breconshire Drive,48176,42.1751942,-83.7918652
496,Breconshire Drive,48176,42.1751824,-83.7921906
538,Breconshire Drive,48176,42.1751835,-83.7925304
572,Breconshire Drive,48176,42.1751640,-83.7928557
614,Breconshire Drive,48176,42.1751646,-83.7932085
656,Breconshire Drive,48176,42.1751430,-83.7935215
698,Breconshire Drive,48176,42.1751401,-83.7938286
712,Breconshire Drive,48176,42.1751219,-83.7944786
724,Breconshire Drive,48176,42.1751052,-83.7947839
736,Breconshire Drive,48176,42.1750925,-83.7951234
748,Breconshire Drive,48176,42.1751393,-83.7954134
760,Breconshire Drive,48176,42.1751125,-83.7959690
772,Breconshire Drive,48176,42.1749066,-83.7961133
775,Breconshire Drive,48176,42.1746260,-83.7960316
763,Breconshire Drive,48176,42.1744698,-83.7956588
751,Breconshire Drive,48176,42.1745650,-83.7953351
739,Breconshire Drive,48176,42.1746069,-83.7950070
411,Breconshire Drive,48176,42.1749707,-83.7909806
717,Coventry Court,48176,42.1746341,-83.7945008
713,Coventry Court,48176,42.1743687,-83.7946185
709,Coventry Court,48176,42.1741488,-83.7944087
705,Coventry Court,48176,42.1740722,-83.7940205
701,Coventry Court,48176,42.1742317,-83.7936854
697,Coventry Court,48176,42.1746466,-83.7937520
619,Cardigan Court,48176,42.1746575,-83.7932711
597,Cardigan Court,48176,42.1743981,-83.7933709
575,Cardigan Court,48176,42.1741638,-83.7925278
553,Cardigan Court,48176,42.1744061,-83.7924413
531,Cardigan Court,48176,42.1746824,-83.7925784
459,Exeter Court,48176,42.1747017,-83.7918930
447,Exeter Court,48176,42.1744962,-83.7919679
435,Exeter Court,48176,42.1745011,-83.7910241
423,Exeter Court,48176,42.1747384,-83.7912278
361,Dogwood Court,48176,42.1886983,-83.7785006
379,Dogwood Court,48176,42.1887713,-83.7782905
393,Dogwood Court,48176,42.1888998,-83.7780559
409,Dogwood Court,48176,42.1890490,-83.7779339
425,Dogwood Court,48176,42.1892235,-83.7777984
445,Dogwood Court,48176,42.1893845,-83.7776887
457,Dogwood Court,48176,42.1895752,-83.7775361
473,Dogwood Court,48176,42.1898243,-83.7775267
489,Dogwood Court,48176,42.1899933,-83.7777360
423,Dogwood Court,48176,42.1900100,-83.7780211
407,Dogwood Court,48176,42.1899357,-83.7782943
395,Dogwood Court,48176,42.1897750,-83.7784342
375,Dogwood Court,48176,42.1895040,-83.7784449
363,Dogwood Court,48176,42.1893006,-83.7784424
347,Dogwood Court,48176,42.1891449,-83.7787074
331,Dogwood Court,48176,42.1890916,-83.7789633
2586,Wildwood Trail,48176,42.1889989,-83.7797187
2604,Wildwood Trail,48176,42.1888327,-83.7798588
2622,Wildwood Trail,48176,42.1886826,-83.7799394
2640,Wildwood Trail,48176,42.1885127,-83.7800711
2658,Wildwood Trail,48176,42.1883390,-83.7801189
2556,Hawthorne Way,48176,42.1881852,-83.7807123
2540,Hawthorne Way,48176,42.1881766,-83.7810029
2524,Hawthorne Way,48176,42.1880314,-83.7812648
2738,Wildwood Trail,48176,42.1876192,-83.7800914
2537,Hawthorne Way,48176,42.1877589,-83.7804071
2551,Hawthorne Way,48176,42.1877408,-83.7806434
2567,Hawthorne Way,48176,42.1876362,-83.7809166
2583,Hawthorne Way,48176,42.1875345,-83.7810891
2553,Wildwood Trail,48176,42.1893666,-83.7789881
2535,Wildwood Trail,48176,42.1895759,-83.7790240
2517,Wildwood Trail,48176,42.1897631,-83.7790613
2599,Hawthorne Way,48176,42.1870777,-83.7816163
2615,Hawthorne Way,48176,42.1869466,-83.7817963
2631,Hawthorne Way,48176,42.1868073,-83.7819128
2647,Hawthorne Way,48176,42.1866634,-83.7821184
2665,Hawthorne Way,48176,42.1865473,-83.7822689
2679,Hawthorne Way,48176,42.1863472,-83.7824471
2695,Hawthorne Way,48176,42.1862463,-83.7826233
2711,Hawthorne Way,48176,42.1860979,-83.7827989
2727,Hawthorne Way,48176,42.1859604,-83.7829040
2743,Hawthorne Way,48176,42.1858323,-83.7831178
2759,Hawthorne Way,48176,42.1857053,-83.7832561
2775,Hawthorne Way,48176,42.1855642,-83.7834285
2791,Hawthorne Way,48176,42.1854279,-83.7835580
2807,Hawthorne Way,48176,42.1852723,-83.7837338
2823,Hawthorne Way,48176,42.1851556,-83.7838653
2839,Hawthorne Way,48176,42.1850079,-83.7840758
2855,Hawthorne Way,48176,42.1849165,-83.7842744
2871,Hawthorne Way,48176,42.1848335,-83.7845041
2887,Hawthorne Way,48176,42.1847994,-83.7847342
2903,Hawthorne Way,48176,42.1847832,-83.7849895
2919,Hawthorne Way,48176,42.1848126,-83.7852292
1408,Wildwood Trail,48176,42.1845940,-83.7854772
1388,Wildwood Trail,48176,42.1843985,-83.7855991
2492,Hawthorne Way,48176,42.1872331,-83.7822590
2476,Hawthorne Way,48176,42.1871165,-83.7824203
2460,Hawthorne Way,48176,42.1869809,-83.7826094
2444,Hawthorne Way,48176,42.1868484,-83.7827203
2428,Hawthorne Way,48176,42.1867092,-83.7829196
2412,Hawthorne Way,48176,42.1865617,-83.7830426
2396,Hawthorne Way,48176,42.1864256,-83.7832086
2380,Hawthorne Way,48176,42.1863033,-83.7833605
2364,Hawthorne Way,48176,42.1861677,-83.7835202
2348,Hawthorne Way,48176,42.1860506,-83.7837011
2332,Hawthorne Way,48176,42.1859101,-83.7838658
2316,Hawthorne Way,48176,42.1857680,-83.7839830
2300,Hawthorne Way,48176,42.1856291,-83.7841772
2284,Hawthorne Way,48176,42.1854974,-83.7843069
2268,Hawthorne Way,48176,42.1853238,-83.7845278
2252,Hawthorne Way,48176,42.1852523,-83.7848384
1395,Wildwood Trail,48176,42.1844727,-83.7862110
1411,Wildwood Trail,48176,42.1846712,-83.7861178
1425,Wildwood Trail,48176,42.1848460,-83.7859955
1439,Wildwood Trail,48176,42.1849692,-83.7858487
1455,Wildwood Trail,48176,42.1851182,-83.7856970
1473,Wildwood Trail,48176,42.1852901,-83.7855910
1587,Wildwood Trail,48176,42.1855061,-83.7855666
1603,Wildwood Trail,48176,42.1856810,-83.7855975
1617,Wildwood Trail,48176,42.1858739,-83.7855995
1631,Wildwood Trail,48176,42.1860624,-83.7855819
1590,Wildwood Trail,48176,42.1855148,-83.7849282
1608,Wildwood Trail,48176,42.1856847,-83.7849835
1626,Wildwood Trail,48176,42.1859928,-83.7849448
1642,Wildwood Trail,48176,42.1861792,-83.7848517
1658,Wildwood Trail,48176,42.1863334,-83.7846986
1674,Wildwood Trail,48176,42.1864319,-83.7845242
1690,Wildwood Trail,48176,42.1865517,-83.7843081
1706,Wildwood Trail,48176,42.1866722,-83.7841315
1722,Wildwood Trail,48176,42.1868170,-83.7839646
1738,Wildwood Trail,48176,42.1869353,-83.7838250
1754,Wildwood Trail,48176,42.1870893,-83.7836764
1770,Wildwood Trail,48176,42.1872082,-83.7835230
1786,Wildwood Trail,48176,42.1873715,-83.7833774
1802,Wildwood Trail,48176,42.1875092,-83.7832376
1918,Wildwood Trail,48176,42.1876508,-83.7830879
1934,Wildwood Trail,48176,42.1877845,-83.7829471
1950,Wildwood Trail,48176,42.1879601,-83.7828067
1966,Wildwood Trail,48176,42.1881502,-83.7827429
1982,Wildwood Trail,48176,42.1883342,-83.7827075
1998,Wildwood Trail,48176,42.1885197,-83.7827058
2014,Wildwood Trail,48176,42.1887157,-83.7828276
2030,Wildwood Trail,48176,42.1888996,-83.7828507
2046,Wildwood Trail,48176,42.1890987,-83.7829201
2062,Wildwood Trail,48176,42.1892786,-83.7829680
2078,Wildwood Trail,48176,42.1895428,-83.7829391
2194,Wildwood Trail,48176,42.1897147,-83.7828693
2210,Wildwood Trail,48176,42.1898808,-83.7827211
2226,Wildwood Trail,48176,42.1900403,-83.7826357
2242,Wildwood Trail,48176,42.1902398,-83.7824886
2258,Wildwood Trail,48176,42.1903896,-83.7824116
2376,Wildwood Trail,48176,42.1905755,-83.7822489
2392,Wildwood Trail,48176,42.1907045,-83.7821392
2408,Wildwood Trail,48176,42.1908561,-83.7819161
2424,Wildwood Trail,48176,42.1909293,-83.7816927
2440,Wildwood Trail,48176,42.1909854,-83.7814154
2456,Wildwood Trail,48176,42.1909846,-83.7811703
2472,Wildwood Trail,48176,42.1909143,-83.7808823
2488,Wildwood Trail,48176,42.1908399,-83.7806731
2499,Wildwood Trail,48176,42.1909900,-83.7799358
1667,Wildwood Trail,48176,42.1866640,-83.7851286
1683,Wildwood Trail,48176,42.1867804,-83.7849532
1699,Wildwood Trail,48176,42.1868952,-83.7847166
1715,Wildwood Trail,48176,42.1870043,-83.7845685
1731,Wildwood Trail,48176,42.1871665,-83.7843748
1747,Wildwood Trail,48176,42.1872898,-83.7842286
1991,Wildwood Trail,48176,42.1884246,-83.7833524
2007,Wildwood Trail,48176,42.1885998,-83.7833893
2023,Wildwood Trail,48176,42.1887773,-83.7834479
2039,Wildwood Trail,48176,42.1889501,-83.7834944
2055,Wildwood Trail,48176,42.1891270,-83.7835722
2071,Wildwood Trail,48176,42.1893139,-83.7835611
2087,Wildwood Trail,48176,42.1895136,-83.7835629
2103,Wildwood Trail,48176,42.1896937,-83.7835257
2399,Wildwood Trail,48176,42.1911401,-83.7824419
2415,Wildwood Trail,48176,42.1912869,-83.7822030
2427,Wildwood Trail,48176,42.1913662,-83.7819657
2435,Wildwood Trail,48176,42.1914290,-83.7816727
2443,Wildwood Trail,48176,42.1914617,-83.7814048
2451,Wildwood Trail,48176,42.1914551,-83.7811195
2467,Wildwood Trail,48176,42.1914246,-83.7808240
2475,Wildwood Trail,48176,42.1913446,-83.7805454
2483,Wildwood Trail,48176,42.1912584,-83.7803301
2491,Wildwood Trail,48176,42.1911156,-83.7801190
292,Rosebud Lane,48176,42.1880064,-83.7834919
308,Rosebud Lane,48176,42.1881230,-83.7836434
324,Rosebud Lane,48176,42.1882355,-83.7838681
340,Rosebud Lane,48176,42.1883276,-83.7840510
356,Rosebud Lane,48176,42.1884529,-83.7842649
372,Rosebud Lane,48176,42.1885096,-83.7844883
388,Rosebud Lane,48176,42.1885533,-83.7847631
404,Rosebud Lane,48176,42.1885227,-83.7851147
420,Rosebud Lane,48176,42.1884954,-83.7853796
436,Rosebud Lane,48176,42.1884115,-83.7855838
399,Rosebud Lane,48176,42.1879311,-83.7853870
383,Rosebud Lane,48176,42.1880674,-83.7851055
367,Rosebud Lane,48176,42.1880805,-83.7848134
351,Rosebud Lane,48176,42.1879966,-83.7845076
335,Rosebud Lane,48176,42.1878728,-83.7842684
319,Rosebud Lane,48176,42.1877622,-83.7840489
303,Rosebud Lane,48176,42.1876643,-83.7838780
546,Ironwood Way,48176,42.1899695,-83.7860291
562,Ironwood Way,48176,42.1899772,-83.7857804
576,Ironwood Way,48176,42.1899495,-83.7855112
592,Ironwood Way,48176,42.1899921,-83.7852619
608,Ironwood Way,48176,42.1899990,-83.7850031
632,Ironwood Way,48176,42.1899854,-83.7846349
648,Ironwood Way,48176,42.1899631,-83.7843467
664,Ironwood Way,48176,42.1899079,-83.7841239
680,Ironwood Way,48176,42.1898128,-83.7838512
565,Ironwood Way,48176,42.1904155,-83.7856507
585,Ironwood Way,48176,42.1904313,-83.7853828
597,Ironwood Way,48176,42.1904392,-83.7851488
619,Ironwood Way,48176,42.1904550,-83.7849115
631,Ironwood Way,48176,42.1904763,-83.7846637
643,Ironwood Way,48176,42.1904460,-83.7844101
665,Ironwood Way,48176,42.1904361,-83.7841617
677,Ironwood Way,48176,42.1903514,-83.7839065
699,Ironwood Way,48176,42.1902855,-83.7837045
711,Ironwood Way,48176,42.1902052,-83.7834696
725,Ironwood Way,48176,42.1901188,-83.7832706
2005,Chestnut Crescent,48176,42.1882994,-83.7863665
2029,Chestnut Crescent,48176,42.1884609,-83.7864757
2047,Chestnut Crescent,48176,42.1886678,-83.7866216
2069,Chestnut Crescent,48176,42.1888754,-83.7866754
2085,Chestnut Crescent,48176,42.1890963,-83.7866639
2109,Chestnut Crescent,48176,42.1892985,-83.7866527
2127,Chestnut Crescent,48176,42.1894992,-83.7866720
2145,Chestnut Crescent,48176,42.1896984,-83.7866698
2163,Chestnut Crescent,48176,42.1898980,-83.7866676
2181,Chestnut Crescent,48176,42.1901004,-83.7866642
2201,Chestnut Crescent,48176,42.1903011,-83.7866879
2217,Chestnut Crescent,48176,42.1905040,-83.7866755
2233,Chestnut Crescent,48176,42.1907182,-83.7866298
2249,Chestnut Crescent,48176,42.1909327,-83.7865920
2265,Chestnut Crescent,48176,42.1911059,-83.7863485
2281,Chestnut Crescent,48176,42.1912227,-83.7861259
2297,Chestnut Crescent,48176,42.1913073,-83.7858657
2313,Chestnut Crescent,48176,42.1913246,-83.7855680
2329,Chestnut Crescent,48176,42.1913338,-83.7852973
2345,Chestnut Crescent,48176,42.1913640,-83.7850258
2361,Chestnut Crescent,48176,42.1913620,-83.7847594
2377,Chestnut Crescent,48176,42.1913713,-83.7844871
2393,Chestnut Crescent,48176,42.1913784,-83.7842046
2409,Chestnut Crescent,48176,42.1913243,-83.7839116
2425,Chestnut Crescent,48176,42.1912929,-83.7836437
2441,Chestnut Crescent,48176,42.1911757,-83.7833998
2457,Chestnut Crescent,48176,42.1911009,-83.7831796
2473,Chestnut Crescent,48176,42.1910011,-83.7829577
2489,Chestnut Crescent,48176,42.1909414,-83.7827444
2040,Chestnut Crescent,48176,42.1886267,-83.7858485
2056,Chestnut Crescent,48176,42.1887900,-83.7859289
2072,Chestnut Crescent,48176,42.1889825,-83.7859617
2088,Chestnut Crescent,48176,42.1891662,-83.7860011
2104,Chestnut Crescent,48176,42.1893511,-83.7859937
2120,Chestnut Crescent,48176,42.1895250,-83.7860184
2136,Chestnut Crescent,48176,42.1897040,-83.7860054
2212,Chestnut Crescent,48176,42.1904925,-83.7860391
2228,Chestnut Crescent,48176,42.1907003,-83.7859245
2244,Chestnut Crescent,48176,42.1908428,-83.7856616
2260,Chestnut Crescent,48176,42.1908746,-83.7854020
2276,Chestnut Crescent,48176,42.1908733,-83.7851482
2292,Chestnut Crescent,48176,42.1908864,-83.7849079
2308,Chestnut Crescent,48176,42.1908870,-83.7846580
2324,Chestnut Crescent,48176,42.1909041,-83.7844094
2340,Chestnut Crescent,48176,42.1908780,-83.7841178
2356,Chestnut Crescent,48176,42.1908237,-83.7839001
2372,Chestnut Crescent,48176,42.1907432,-83.7836535
2388,Chestnut Crescent,48176,42.1906738,-83.7834389
2404,Chestnut Crescent,48176,42.1905814,-83.7832298
2420,Chestnut Crescent,48176,42.1905115,-83.7830289
515,Rosebud Court,48176,42.1878245,-83.7855420
531,Rosebud Court,48176,42.1876395,-83.7857033
547,Rosebud Court,48176,42.1874621,-83.7857219
563,Rosebud Court,48176,42.1872751,-83.7858659
579,Rosebud Court,48176,42.1871642,-83.7861187
595,Rosebud Court,48176,42.1871965,-83.7864335
598,Rosebud Court,48176,42.1874055,-83.7866572
586,Rosebud Court,48176,42.1876386,-83.7866562
574,Rosebud Court,48176,42.1878247,-83.7864694
558,Rosebud Court,48176,42.1879457,-83.7862186
542,Rosebud Court,48176,42.1880934,-83.7860813
1245,Industrial Dr,48176,42.1837733,-83.7583301
290,Tower Drive,48176,42.1772261,-83.7799514
278,Tower Drive,48176,42.1774099,-83.7799770
254,Tower Drive,48176,42.1775758,-83.7801321
238,Tower Drive,48176,42.1776084,-83.7804347
230,Tower Drive,48176,42.1775971,-83.7806780
224,Tower Drive,48176,42.1775927,-83.7808874
218,Tower Drive,48176,42.1776143,-83.7812060
214,Tower Drive,48176,42.1776220,-83.7814523
208,Tower Drive,48176,42.1777267,-83.7817033
204,Tower Drive,48176,42.1778816,-83.7818935
808,Lambkins Road,48176,42.1761990,-83.7843280
820,Lambkins Road,48176,42.1763822,-83.7844885
832,Lambkins Road,48176,42.1765862,-83.7846069
844,Lambkins Road,48176,42.1767372,-83.7846578
856,Lambkins Road,48176,42.1769270,-83.7847412
870,Lambkins Road,48176,42.1771136,-83.7848087
880,Lambkins Road,48176,42.1773129,-83.7849012
890,Lambkins Road,48176,42.1774798,-83.7849075
879,Lambkins Road,48176,42.1771937,-83.7853790
773,Calder Court,48176,42.1754071,-83.7823131
759,Calder Court,48176,42.1751972,-83.7822614
745,Calder Court,48176,42.1749744,-83.7822437
733,Calder Court,48176,42.1747678,-83.7820752
720,Calder Court,48176,42.1747504,-83.7818207
746,Calder Court,48176,42.1750766,-83.7816242
760,Calder Court,48176,42.1753130,-83.7817008
774,Calder Court,48176,42.1755226,-83.7817396
788,Calder Court,48176,42.1757037,-83.7817857
160,Harper Drive,48176,42.1758594,-83.7829422
168,Harper Drive,48176,42.1759079,-83.7826149
176,Harper Drive,48176,42.1759026,-83.7823780
216,Harper Drive,48176,42.1759329,-83.7817070
125,Harper Drive,48176,42.1762475,-83.7840269
133,Harper Drive,48176,42.1762686,-83.7837692
141,Harper Drive,48176,42.1762775,-83.7834926
149,Harper Drive,48176,42.1762919,-83.7832689
157,Harper Drive,48176,42.1762838,-83.7830231
165,Harper Drive,48176,42.1762940,-83.7827470
173,Harper Drive,48176,42.1763115,-83.7825084
181,Harper Drive,48176,42.1763055,-83.7822517
203,Harper Drive,48176,42.1763065,-83.7820101
215,Harper Drive,48176,42.1763459,-83.7817894
223,Harper Drive,48176,42.1763359,-83.7815138
231,Harper Drive,48176,42.1763402,-83.7812930
76,Nichols Drive,48176,42.1775021,-83.7843808
114,Nichols Drive,48176,42.1775274,-83.7837270
122,Nichols Drive,48176,42.1775327,-83.7834989
130,Nichols Drive,48176,42.1775320,-83.7832749
138,Nichols Drive,48176,42.1775020,-83.7830544
146,Nichols Drive,48176,42.1775517,-83.7828319
154,Nichols Drive,48176,42.1775823,-83.7825921
162,Nichols Drive,48176,42.1776178,-83.7823684
170,Nichols Drive,48176,42.1777338,-83.7821617
328,Wallace Drive,48176,42.1768109,-83.7788491
316,Wallace Drive,48176,42.1768010,-83.7791284
308,Wallace Drive,48176,42.1767887,-83.7794153
300,Wallace Drive,48176,42.1767914,-83.7796447
274,Wallace Drive,48176,42.1767955,-83.7799251
266,Wallace Drive,48176,42.1767613,-83.7802019
258,Wallace Drive,48176,42.1767820,-83.7804833
250,Wallace Drive,48176,42.1767692,-83.7807164
224,Wallace Drive,48176,42.1767448,-83.7813039
216,Wallace Drive,48176,42.1767494,-83.7815162
208,Wallace Drive,48176,42.1767304,-83.7817634
200,Wallace Drive,48176,42.1767277,-83.7820105
192,Wallace Drive,48176,42.1767300,-83.7822761
184,Wallace Drive,48176,42.1767370,-83.7824995
176,Wallace Drive,48176,42.1767290,-83.7827845
168,Wallace Drive,48176,42.1766944,-83.7830290
160,Wallace Drive,48176,42.1766992,-83.7832682
152,Wallace Drive,48176,42.1767212,-83.7835264
144,Wallace Drive,48176,42.1767047,-83.7837670
136,Wallace Drive,48176,42.1768575,-83.7839702
128,Wallace Drive,48176,42.1769869,-83.7841334
120,Wallace Drive,48176,42.1771627,-83.7842610
112,Wallace Drive,48176,42.1773252,-83.7843017
131,Wallace Drive,48176,42.1772069,-83.7836606
153,Wallace Drive,48176,42.1771347,-83.7833911
167,Wallace Drive,48176,42.1771124,-83.7831344
173,Wallace Drive,48176,42.1771064,-83.7829091
181,Wallace Drive,48176,42.1771287,-83.7826342
189,Wallace Drive,48176,42.1771341,-83.7824087
197,Wallace Drive,48176,42.1771387,-83.7821561
205,Wallace Drive,48176,42.1771466,-83.7819060
215,Wallace Drive,48176,42.1771806,-83.7816359
223,Wallace Drive,48176,42.1771646,-83.7814028
231,Wallace Drive,48176,42.1771541,-83.7811565
245,Wallace Drive,48176,42.1771847,-83.7808697
253,Wallace Drive,48176,42.1772041,-83.7806159
261,Wallace Drive,48176,42.1771820,-83.7803637
228,Harper Drive,48176,42.1759322,-83.7813172
738,North Harris Street,48176,42.1750041,-83.7805266
705,North Harris Street,48176,42.1743958,-83.7809306
719,North Harris Street,48176,42.1746227,-83.7809754
731,North Harris Street,48176,42.1748092,-83.7810500
743,North Harris Street,48176,42.1750233,-83.7811100
755,North Harris Street,48176,42.1752690,-83.7811806
767,North Harris Street,48176,42.1754949,-83.7812276
779,North Harris Street,48176,42.1757211,-83.7812595
752,North Harris Street,48176,42.1752597,-83.7805994
764,North Harris Street,48176,42.1754679,-83.7806209
776,North Harris Street,48176,42.1756566,-83.7806778
788,North Harris Street,48176,42.1758442,-83.7806745
800,North Harris Street,48176,42.1760272,-83.7806959
812,North Harris Street,48176,42.1762449,-83.7807370
824,North Harris Street,48176,42.1764393,-83.7807363
780,Bassett Drive,48176,42.1756288,-83.7829121
782,Bassett Drive,48176,42.1754003,-83.7828738
774,Bassett Drive,48176,42.1752089,-83.7828381
766,Bassett Drive,48176,42.1749786,-83.7827648
760,Bassett Drive,48176,42.1747944,-83.7826809
752,Bassett Drive,48176,42.1745830,-83.7825462
744,Bassett Drive,48176,42.1744154,-83.7824313
732,Bassett Drive,48176,42.1743370,-83.7820850
724,Bassett Drive,48176,42.1743759,-83.7818283
716,Bassett Drive,48176,42.1743630,-83.7815971
708,Bassett Drive,48176,42.1743745,-83.7813221
707,Whittier Court,48176,42.1750743,-83.7798194
713,Whittier Court,48176,42.1752679,-83.7798764
719,Whittier Court,48176,42.1754540,-83.7799391
731,Whittier Court,48176,42.1756414,-83.7799712
743,Whittier Court,48176,42.1758324,-83.7800151
755,Whittier Court,48176,42.1760203,-83.7801110
767,Whittier Court,48176,42.1762416,-83.7800774
791,Whittier Court,48176,42.1763698,-83.7799516
790,Whittier Court,48176,42.1764482,-83.7796399
778,Whittier Court,48176,42.1763046,-83.7794148
766,Whittier Court,48176,42.1760352,-83.7793588
758,Whittier Court,48176,42.1758376,-83.7793779
736,Whittier Court,48176,42.1756355,-83.7793884
722,Whittier Court,48176,42.1754580,-83.7793435
708,Whittier Court,48176,42.1752114,-83.7792988
422,Nichols Drive,48176,42.1749788,-83.7802293
380,Nichols Drive,48176,42.1754071,-83.7789434
370,Nichols Drive,48176,42.1756307,-83.7788064
364,Nichols Drive,48176,42.1758537,-83.7787950
358,Nichols Drive,48176,42.1760934,-83.7787865
352,Nichols Drive,48176,42.1762936,-83.7788193
346,Nichols Drive,48176,42.1764893,-83.7788408
106,East Bennett Street,48176,42.1710698,-83.7832906
324,North Ann Arbor Street,48176,42.1710303,-83.7840573
322,North Ann Arbor Street,48176,42.1709151,-83.7838704
320,North Ann Arbor Street,48176,42.1707740,-83.7837188
318,North Ann Arbor Street,48176,42.1706019,-83.7836890
316,North Ann Arbor Street,48176,42.1704041,-83.7836028
314,North Ann Arbor Street,48176,42.1702605,-83.7834768
312,North Ann Arbor Street,48176,42.1700568,-83.7833743
310,North Ann Arbor Street,48176,42.1698640,-83.7832736
308,North Ann Arbor Street,48176,42.1697144,-83.7831005
306,North Ann Arbor Street,48176,42.1695311,-83.7830275
304,North Ann Arbor Street,48176,42.1693626,-83.7828533
302,North Ann Arbor Street,48176,42.1691768,-83.7827568
300,North Ann Arbor Street,48176,42.1689609,-83.7826392
214,North Ann Arbor Street,48176,42.1688416,-83.7824970
212,North Ann Arbor Street,48176,42.1687041,-83.7823897
300,Clark Street,48176,42.1720166,-83.7757757
298,Clark Street,48176,42.1717017,-83.7758077
296,Clark Street,48176,42.1713864,-83.7757583
294,Clark Street,48176,42.1710542,-83.7758117
475,North Maple Road,48176,42.1751010,-83.7755545
277,Clark Street,48176,42.1726187,-83.7768120
207,Clark Street,48176,42.1725189,-83.7793369
211,Clark Street,48176,42.1725075,-83.7789777
225,Clark Street,48176,42.1725397,-83.7785818
229,Clark Street,48176,42.1725562,-83.7782948
205,East Michigan Avenue,48176,42.1683832,-83.7787517
213,East Michigan Avenue,48176,42.1688039,-83.7776884
407,North Harris Street,48176,42.1718339,-83.7806366
403,North Harris Street,48176,42.1716262,-83.7806300
408,North Harris Street,48176,42.1718637,-83.7800361
410,North Harris Street,48176,42.1719961,-83.7800482
406,North Harris Street,48176,42.1717307,-83.7800036
404,North Harris Street,48176,42.1715978,-83.7800175
402,North Harris Street,48176,42.1714544,-83.7799888
322,North Harris Street,48176,42.1713158,-83.7800097
318,North Harris Street,48176,42.1711152,-83.7799938
314,North Harris Street,48176,42.1708890,-83.7799622
312,North Harris Street,48176,42.1707505,-83.7799478
310,North Harris Street,48176,42.1705994,-83.7799162
323,North Harris Street,48176,42.1711107,-83.7806243
115,Owen Place,48176,42.1696096,-83.7808858
301,North Harris Street,48176,42.1697114,-83.7805748
303,North Harris Street,48176,42.1699555,-83.7805376
305,North Harris Street,48176,42.1701021,-83.7805545
307,North Harris Street,48176,42.1702830,-83.7805463
309,North Harris Street,48176,42.1704893,-83.7805887
311,North Harris Street,48176,42.1706619,-83.7805802
313,North Harris Street,48176,42.1708137,-83.7806560
315,North Harris Street,48176,42.1709908,-83.7805985
101,East McKay Street,48176,42.1684735,-83.7805843
107,East McKay Street,48176,42.1687952,-83.7797943
103,East McKay Street,48176,42.1686014,-83.7803459
105,East McKay Street,48176,42.1687163,-83.7801700
205,North Harris Street,48176,42.1691619,-83.7800439
207,North Harris Street,48176,42.1692729,-83.7801659
209,North Harris Street,48176,42.1694179,-83.7802548
206,North Harris Street,48176,42.1694186,-83.7795478
208,North Harris Street,48176,42.1695646,-83.7796788
210,North Harris Street,48176,42.1697822,-83.7798018
306,North Harris Street,48176,42.1702326,-83.7799864
302,North Harris Street,48176,42.1699741,-83.7799819
204,Detroit Street,48176,42.1702455,-83.7796674
211,East Michigan Avenue,48176,42.1686993,-83.7779350
209,East Michigan Avenue,48176,42.1686084,-83.7781871
207,East Michigan Avenue,48176,42.1685129,-83.7783616
206,Detroit Street,48176,42.1702632,-83.7794999
208,Detroit Street,48176,42.1702717,-83.7793075
210,Detroit Street,48176,42.1702686,-83.7789944
212,Detroit Street,48176,42.1702527,-83.7786572
220,Detroit Street,48176,42.1702456,-83.7782812
310,Detroit Street,48176,42.1701942,-83.7776587
320,Detroit Street,48176,42.1702521,-83.7774535
330,Detroit Street,48176,42.1702645,-83.7772136
346,Detroit Street,48176,42.1702897,-83.7769291
350,Detroit Street,48176,42.1697646,-83.7769314
377,Detroit Street,48176,42.1706986,-83.7762094
345,Detroit Street,48176,42.1707703,-83.7769518
329,Detroit Street,48176,42.1707583,-83.7772564
321,Detroit Street,48176,42.1707509,-83.7774730
313,Detroit Street,48176,42.1707586,-83.7776539
305,Detroit Street,48176,42.1707483,-83.7779605
217,Detroit Street,48176,42.1707440,-83.7782952
213,Detroit Street,48176,42.1707072,-83.7787801
305,Spring Street,48176,42.1706209,-83.7793054
313,Spring Street,48176,42.1707684,-83.7793324
315,Spring Street,48176,42.1709237,-83.7793139
317,Spring Street,48176,42.1710503,-83.7793080
321,Spring Street,48176,42.1711921,-83.7793717
323,Spring Street,48176,42.1713307,-83.7793560
403,Spring Street,48176,42.1714660,-83.7794265
405,Spring Street,48176,42.1715903,-83.7793390
407,Spring Street,48176,42.1717306,-83.7793451
409,Spring Street,48176,42.1718653,-83.7793544
411,Spring Street,48176,42.1720198,-83.7793951
410,Spring Street,48176,42.1720214,-83.7788077
406,Spring Street,48176,42.1718189,-83.7787532
404,Spring Street,48176,42.1715941,-83.7787610
400,Spring Street,48176,42.1713850,-83.7787512
306,Spring Street,48176,42.1711708,-83.7787208
264,Clark Street,48176,42.1719468,-83.7781359
270,Clark Street,48176,42.1716473,-83.7777334
280,Clark Street,48176,42.1719875,-83.7770144
286,Clark Street,48176,42.1720010,-83.7763903
288,Clark Street,48176,42.1716856,-83.7763561
290,Clark Street,48176,42.1713722,-83.7763741
292,Clark Street,48176,42.1710401,-83.7762846
301,East Michigan Avenue,48176,42.1691897,-83.7770550
352,Glen Lane,48176,42.1576508,-83.7722198
357,Glen Lane,48176,42.1572465,-83.7723425
377,Amherst Circle,48176,42.1572269,-83.7715664
505,Amherst Circle,48176,42.1586724,-83.7699994
527,Amherst Circle,48176,42.1587119,-83.7695318
543,Amherst Circle,48176,42.1586955,-83.7691647
565,Amherst Circle,48176,42.1585298,-83.7688383
583,Amherst Circle,48176,42.1583808,-83.7684311
597,Amherst Circle,48176,42.1582645,-83.7681138
500,Amherst Circle,48176,42.1581397,-83.7697054
478,Amherst Circle,48176,42.1580139,-83.7700666
454,Amherst Circle,48176,42.1578820,-83.7703905
388,Amherst Circle,48176,42.1573769,-83.7708411
960,Arboretum Drive,48176,42.1570936,-83.7707432
818,Arboretum Drive,48176,42.1577463,-83.7684321
767,Arboretum Drive,48176,42.1580228,-83.7672778
789,Arboretum Drive,48176,42.1578132,-83.7674794
807,Arboretum Drive,48176,42.1575732,-83.7676823
831,Arboretum Drive,48176,42.1573664,-83.7679358
849,Arboretum Drive,48176,42.1571815,-83.7682889
867,Arboretum Drive,48176,42.1570750,-83.7686473
885,Arboretum Drive,48176,42.1569887,-83.7689800
905,Arboretum Drive,48176,42.1569057,-83.7693000
929,Arboretum Drive,48176,42.1567797,-83.7696588
953,Arboretum Drive,48176,42.1567177,-83.7699971
975,Arboretum Drive,48176,42.1566187,-83.7703340
1005,Arboretum Drive,48176,42.1565140,-83.7706581
1002,Arboretum Court,48176,42.1568501,-83.7714003
1024,Arboretum Court,48176,42.1566732,-83.7716618
1046,Arboretum Court,48176,42.1565146,-83.7719458
1068,Arboretum Court,48176,42.1561893,-83.7721787
1095,Arboretum Court,48176,42.1558816,-83.7720990
1069,Arboretum Court,48176,42.1557552,-83.7713106
1043,Arboretum Court,48176,42.1559401,-83.7709957
703,Marlpool Drive,48176,42.1622467,-83.7665578
737,Marlpool Drive,48176,42.1622558,-83.7662639
771,Marlpool Drive,48176,42.1622659,-83.7659681
805,Marlpool Drive,48176,42.1622887,-83.7656750
839,Marlpool Drive,48176,42.1622940,-83.7653766
682,Marlpool Drive,48176,42.1617877,-83.7666935
790,Woodhill Drive,48176,42.1584976,-83.7662452
772,Woodhill Drive,48176,42.1587347,-83.7661808
748,Woodhill Drive,48176,42.1589841,-83.7661724
714,Woodhill Drive,48176,42.1591690,-83.7663685
700,Woodhill Drive,48176,42.1593958,-83.7665385
682,Woodhill Drive,48176,42.1596261,-83.7666702
676,Woodhill Drive,48176,42.1599172,-83.7667069
662,Woodhill Drive,48176,42.1602264,-83.7666294
648,Woodhill Drive,48176,42.1604634,-83.7665072
624,Woodhill Drive,48176,42.1606766,-83.7663284
596,Woodhill Drive,48176,42.1608641,-83.7662022
572,Woodhill Drive,48176,42.1610852,-83.7661842
550,Woodhill Drive,48176,42.1613341,-83.7661961
532,Woodhill Drive,48176,42.1615768,-83.7662021
514,Woodhill Drive,48176,42.1617959,-83.7662056
799,Woodhill Drive,48176,42.1584497,-83.7654741
781,Woodhill Drive,48176,42.1586765,-83.7654518
763,Woodhill Drive,48176,42.1588973,-83.7655058
745,Woodhill Drive,48176,42.1591037,-83.7655741
727,Woodhill Drive,48176,42.1593086,-83.7656198
709,Woodhill Drive,48176,42.1595207,-83.7658048
691,Woodhill Drive,48176,42.1597026,-83.7659970
673,Woodhill Drive,48176,42.1599426,-83.7660630
651,Woodhill Drive,48176,42.1601622,-83.7659656
637,Woodhill Drive,48176,42.1603292,-83.7658374
619,Woodhill Drive,48176,42.1605100,-83.7656415
601,Woodhill Drive,48176,42.1607079,-83.7655152
583,Woodhill Drive,48176,42.1609326,-83.7655186
565,Woodhill Drive,48176,42.1611534,-83.7655033
547,Woodhill Drive,48176,42.1613737,-83.7655264
529,Woodhill Drive,48176,42.1615962,-83.7655403
511,Woodhill Drive,48176,42.1618180,-83.7655442
348,Arbor Lane,48176,42.1661390,-83.7745764
336,Arbor Lane,48176,42.1659946,-83.7739679
693,Willis Road,48176,42.1587188,-83.7671936
685,Willis Road,48176,42.1587631,-83.7674845
667,Willis Road,48176,42.1588715,-83.7677586
653,Willis Road,48176,42.1589685,-83.7679912
639,Willis Road,48176,42.1590836,-83.7682363
625,Willis Road,48176,42.1591788,-83.7684835
681,Eastlook Drive,48176,42.1593390,-83.7688468
665,Eastlook Drive,48176,42.1595251,-83.7687726
651,Eastlook Drive,48176,42.1597366,-83.7687205
680,Eastlook Drive,48176,42.1594535,-83.7694685
664,Eastlook Drive,48176,42.1596537,-83.7694042
652,Eastlook Drive,48176,42.1598482,-83.7693673
506,Springbrook Crescent,48176,42.1598783,-83.7697859
450,Springbrook Crescent,48176,42.1598965,-83.7708224
436,Springbrook Crescent,48176,42.1598307,-83.7710900
426,Springbrook Crescent,48176,42.1598612,-83.7713920
416,Springbrook Crescent,48176,42.1600467,-83.7715648
415,Springbrook Crescent,48176,42.1602791,-83.7715056
425,Springbrook Crescent,48176,42.1603927,-83.7712102
439,Springbrook Crescent,48176,42.1603710,-83.7709411
481,Springbrook Crescent,48176,42.1603563,-83.7701623
495,Springbrook Crescent,48176,42.1603405,-83.7699111
509,Springbrook Crescent,48176,42.1603196,-83.7696382
622,Springbrook Court,48176,42.1596667,-83.7683315
634,Springbrook Court,48176,42.1595204,-83.7681366
646,Springbrook Court,48176,42.1594821,-83.7678534
660,Springbrook Court,48176,42.1596175,-83.7675598
663,Springbrook Court,48176,42.1598671,-83.7675536
649,Springbrook Court,48176,42.1600375,-83.7677786
635,Springbrook Court,48176,42.1600867,-83.7680409
621,Springbrook Court,48176,42.1601308,-83.7683071
607,Springbrook Court,48176,42.1601692,-83.7685704
624,Eastlook Drive,48176,42.1603086,-83.7691962
2315,Willis Road,48176,42.1589821,-83.7716980
2275,Willis Road,48176,42.1589051,-83.7708387
617,Eastlook Drive,48176,42.1604206,-83.7686222
567,Eastlook Drive,48176,42.1606239,-83.7686919
559,Forestbrooke Drive,48176,42.1608410,-83.7684055
549,Eastlook Drive,48176,42.1610129,-83.7690537
534,Forestbrook Court,48176,42.1610353,-83.7682181
576,Forestbrook Court,48176,42.1605449,-83.7681567
590,Forestbrook Court,48176,42.1604871,-83.7678278
579,Forestbrook Court,48176,42.1606257,-83.7675682
565,Forestbrook Court,48176,42.1608946,-83.7675391
545,Forestbrook Court,48176,42.1611452,-83.7676010
533,Forestbrook Court,48176,42.1613229,-83.7677537
521,Forestbrook Court,48176,42.1614144,-83.7680136
558,Marlpool Drive,48176,42.1617868,-83.7680888
566,Marlpool Drive,48176,42.1617870,-83.7678306
574,Marlpool Drive,48176,42.1617803,-83.7675297
575,Marlpool Drive,48176,42.1622103,-83.7675464
567,Marlpool Drive,48176,42.1622040,-83.7678025
559,Marlpool Drive,48176,42.1622139,-83.7680601
524,Marlpool Drive,48176,42.1617509,-83.7687071
522,Forestbrooke Drive,48176,42.1615688,-83.7686648
536,Forestbrooke Drive,48176,42.1613614,-83.7686840
550,Forestbrooke Drive,48176,42.1611875,-83.7687952
551,Marlpool Drive,48176,42.1621899,-83.7683058
543,Marlpool Drive,48176,42.1622070,-83.7685916
535,Marlpool Drive,48176,42.1621884,-83.7688505
527,Marlpool Drive,48176,42.1621814,-83.7691165
519,Marlpool Drive,48176,42.1621806,-83.7693866
489,Marlpool Drive,48176,42.1621607,-83.7700482
483,Marlpool Drive,48176,42.1621573,-83.7703223
477,Marlpool Drive,48176,42.1621487,-83.7705851
471,Marlpool Drive,48176,42.1621310,-83.7708522
465,Marlpool Drive,48176,42.1620832,-83.7711005
459,Marlpool Drive,48176,42.1619647,-83.7713409
453,Marlpool Drive,48176,42.1618042,-83.7715486
447,Marlpool Drive,48176,42.1616082,-83.7716159
441,Marlpool Drive,48176,42.1614086,-83.7716616
427,Eastlook Drive,48176,42.1612014,-83.7716916
351,Old Creek Drive,48176,42.1656073,-83.7722423
355,Old Creek Drive,48176,42.1654362,-83.7722554
359,Old Creek Drive,48176,42.1652516,-83.7722720
363,Old Creek Drive,48176,42.1650482,-83.7723082
392,Oakbrook Court,48176,42.1648942,-83.7731699
388,Oakbrook Court,48176,42.1649325,-83.7734640
384,Oakbrook Court,48176,42.1649644,-83.7738063
380,Oakbrook Court,48176,42.1650970,-83.7740029
376,Oakbrook Court,48176,42.1653522,-83.7740158
372,Oakbrook Court,48176,42.1654970,-83.7738346
368,Oakbrook Court,48176,42.1655122,-83.7735410
364,Oakbrook Court,48176,42.1654010,-83.7733023
356,Old Creek Drive,48176,42.1653349,-83.7729554
352,Old Creek Drive,48176,42.1655323,-83.7729395
331,Pleasant Ridge Drive,48176,42.1630563,-83.7740079
343,Pleasant Ridge Drive,48176,42.1630458,-83.7737739
462,Old Creek Drive,48176,42.1626204,-83.7737365
319,Willis Road,48176,42.1593651,-83.7739502
323,Willis Road,48176,42.1593854,-83.7737027
331,Willis Road,48176,42.1593840,-83.7733453
339,Willis Road,48176,42.1593699,-83.7730989
674,Canterbury Drive,48176,42.1597289,-83.7740036
680,Canterbury Drive,48176,42.1597418,-83.7737573
624,Old Creek Drive,48176,42.1598252,-83.7733911
662,Old Creek Drive,48176,42.1596752,-83.7732941
679,Canterbury Drive,48176,42.1601813,-83.7738607
683,Canterbury Drive,48176,42.1602411,-83.7736399
580,Old Creek Drive,48176,42.1605500,-83.7737426
572,Old Creek Drive,48176,42.1607756,-83.7737318
556,Old Creek Drive,48176,42.1611558,-83.7737643
548,Old Creek Drive,48176,42.1613588,-83.7737968
540,Old Creek Drive,48176,42.1615752,-83.7737832
500,Old Creek Drive,48176,42.1617858,-83.7738155
486,Old Creek Drive,48176,42.1619908,-83.7737554
478,Old Creek Drive,48176,42.1622230,-83.7737359
470,Old Creek Drive,48176,42.1624319,-83.7737696
448,Old Creek Drive,48176,42.1633782,-83.7737717
444,Old Creek Drive,48176,42.1635591,-83.7737889
436,Old Creek Drive,48176,42.1637415,-83.7737332
424,Old Creek Drive,48176,42.1639322,-83.7737087
412,Old Creek Drive,48176,42.1641078,-83.7736671
408,Old Creek Drive,48176,42.1642851,-83.7735404
404,Old Creek Drive,48176,42.1644257,-83.7734482
400,Old Creek Drive,48176,42.1645847,-83.7733281
375,Old Creek Drive,48176,42.1648641,-83.7724139
387,Old Creek Drive,48176,42.1646758,-83.7724544
395,Old Creek Drive,48176,42.1645081,-83.7725367
399,Old Creek Drive,48176,42.1643468,-83.7726806
403,Old Creek Drive,48176,42.1641618,-83.7728193
407,Old Creek Drive,48176,42.1639857,-83.7729366
415,Glenbrook Court,48176,42.1640278,-83.7725720
419,Glenbrook Court,48176,42.1639748,-83.7722952
423,Glenbrook Court,48176,42.1637944,-83.7721637
427,Glenbrook Court,48176,42.1636071,-83.7721852
431,Glenbrook Court,48176,42.1634427,-83.7723698
435,Glenbrook Court,48176,42.1634351,-83.7726583
443,Old Creek Drive,48176,42.1635527,-83.7730941
447,Old Creek Drive,48176,42.1633879,-83.7731238
355,Pleasant Ridge Court,48176,42.1630618,-83.7730865
367,Pleasant Ridge Court,48176,42.1630592,-83.7728034
379,Pleasant Ridge Court,48176,42.1630725,-83.7724998
391,Pleasant Ridge Court,48176,42.1629329,-83.7722220
390,Pleasant Ridge Court,48176,42.1626984,-83.7722135
378,Pleasant Ridge Court,48176,42.1625344,-83.7724746
368,Pleasant Ridge Court,48176,42.1625725,-83.7727830
354,Pleasant Ridge Court,48176,42.1626165,-83.7730662
533,Old Creek Court,48176,42.1616935,-83.7730451
527,Old Creek Court,48176,42.1616281,-83.7727736
521,Old Creek Court,48176,42.1616288,-83.7724211
515,Old Creek Court,48176,42.1617468,-83.7722255
507,Old Creek Court,48176,42.1620789,-83.7722349
501,Old Creek Court,48176,42.1621849,-83.7724309
495,Old Creek Court,48176,42.1621736,-83.7727637
489,Old Creek Court,48176,42.1621262,-83.7730390
690,Canterbury Court,48176,42.1597486,-83.7725480
694,Canterbury Court,48176,42.1598561,-83.7723108
698,Canterbury Court,48176,42.1600884,-83.7721639
697,Canterbury Court,48176,42.1603325,-83.7723939
693,Canterbury Court,48176,42.1603297,-83.7726650
689,Canterbury Court,48176,42.1602400,-83.7729234
516,Marlpool Drive,48176,42.1617543,-83.7692052
508,Marlpool Drive,48176,42.1617536,-83.7694675
500,Marlpool Drive,48176,42.1617176,-83.7697266
492,Marlpool Drive,48176,42.1617402,-83.7699905
484,Marlpool Drive,48176,42.1617288,-83.7702492
478,Marlpool Drive,48176,42.1617277,-83.7705111
466,Marlpool Drive,48176,42.1616718,-83.7709090
444,Marlpool Drive,48176,42.1614504,-83.7710759
539,Eastlook Drive,48176,42.1611690,-83.7693408
529,Eastlook Drive,48176,42.1612205,-83.7696165
519,Eastlook Drive,48176,42.1612544,-83.7698765
505,Eastlook Drive,48176,42.1612363,-83.7701321
491,Eastlook Drive,48176,42.1612413,-83.7703857
477,Eastlook Drive,48176,42.1612246,-83.7706443
459,Eastlook Drive,48176,42.1612252,-83.7710093
610,Eastlook Drive,48176,42.1605215,-83.7692848
542,Eastlook Drive,48176,42.1607003,-83.7694604
526,Eastlook Drive,48176,42.1608093,-83.7697887
510,Eastlook Drive,48176,42.1608146,-83.7700475
494,Eastlook Drive,48176,42.1608128,-83.7703480
478,Eastlook Drive,48176,42.1607987,-83.7706481
462,Eastlook Drive,48176,42.1607975,-83.7709213
446,Eastlook Drive,48176,42.1607999,-83.7712109
430,Eastlook Drive,48176,42.1607960,-83.7714998
414,Eastlook Drive,48176,42.1607922,-83.7717844
399,Eastlook Drive,48176,42.1607683,-83.7720475
387,Eastlook Drive,48176,42.1607817,-83.7723314
375,Eastlook Drive,48176,42.1607556,-83.7725702
363,Eastlook Drive,48176,42.1607654,-83.7728271
351,Eastlook Drive,48176,42.1607495,-83.7730645
350,Eastlook Drive,48176,42.1611720,-83.7730725
362,Eastlook Drive,48176,42.1612107,-83.7728570
374,Eastlook Drive,48176,42.1611951,-83.7725909
386,Eastlook Drive,48176,42.1611848,-83.7723217
398,Eastlook Drive,48176,42.1612078,-83.7720788
564,Old Creek Drive,48176,42.1609653,-83.7737279
319,Pleasant Ridge Drive,48176,42.1630547,-83.7742593
287,Pleasant Ridge Drive,48176,42.1630069,-83.7749090
295,Pleasant Ridge Drive,48176,42.1630201,-83.7746797
307,Pleasant Ridge Drive,48176,42.1630411,-83.7744570
634,Rosemont Avenue,48176,42.1603063,-83.7748713
622,Rosemont Avenue,48176,42.1604791,-83.7748687
677,Canterbury Drive,48176,42.1601492,-83.7740790
665,Canterbury Drive,48176,42.1601569,-83.7743049
623,Rosemont Avenue,48176,42.1604600,-83.7743398
611,Rosemont Avenue,48176,42.1606016,-83.7743330
599,Rosemont Avenue,48176,42.1607680,-83.7743100
587,Rosemont Avenue,48176,42.1609478,-83.7743539
575,Rosemont Avenue,48176,42.1610996,-83.7743354
563,Rosemont Avenue,48176,42.1612621,-83.7743626
551,Rosemont Avenue,48176,42.1614432,-83.7743313
539,Rosemont Avenue,48176,42.1615946,-83.7743797
527,Rosemont Avenue,48176,42.1617575,-83.7743743
511,Rosemont Avenue,48176,42.1619307,-83.7743428
501,Rosemont Avenue,48176,42.1620871,-83.7742966
491,Rosemont Avenue,48176,42.1622533,-83.7742644
477,Rosemont Avenue,48176,42.1624481,-83.7742170
465,Rosemont Avenue,48176,42.1626170,-83.7742573
464,Rosemont Avenue,48176,42.1626060,-83.7748544
471,Rosemont Avenue,48176,42.1624419,-83.7748602
492,Rosemont Avenue,48176,42.1622913,-83.7747995
502,Rosemont Avenue,48176,42.1621071,-83.7748750
514,Rosemont Avenue,48176,42.1619448,-83.7748873
526,Rosemont Avenue,48176,42.1617987,-83.7748975
538,Rosemont Avenue,48176,42.1616289,-83.7749043
550,Rosemont Avenue,48176,42.1614561,-83.7749116
562,Rosemont Avenue,48176,42.1612847,-83.7749142
574,Rosemont Avenue,48176,42.1611360,-83.7748959
586,Rosemont Avenue,48176,42.1609544,-83.7749072
598,Rosemont Avenue,48176,42.1608066,-83.7748850
610,Rosemont Avenue,48176,42.1606441,-83.7749074
125,Pleasant Ridge Drive,48176,42.1632928,-83.7781679
137,Pleasant Ridge Drive,48176,42.1633219,-83.7779417
149,Pleasant Ridge Drive,48176,42.1633241,-83.7777182
171,Pleasant Ridge Drive,48176,42.1632759,-83.7774939
110,Pleasant Ridge Drive,48176,42.1627447,-83.7783391
126,Pleasant Ridge Drive,48176,42.1627728,-83.7780609
138,Pleasant Ridge Drive,48176,42.1628218,-83.7778318
150,Pleasant Ridge Drive,48176,42.1628391,-83.7776102
172,Pleasant Ridge Drive,48176,42.1628466,-83.7773874
186,Pleasant Ridge Drive,48176,42.1628505,-83.7771832
210,Pleasant Ridge Drive,48176,42.1628736,-83.7765900
224,Pleasant Ridge Drive,48176,42.1628899,-83.7763191
238,Pleasant Ridge Drive,48176,42.1628659,-83.7760796
254,Pleasant Ridge Drive,48176,42.1627613,-83.7758666
251,Pleasant Ridge Drive,48176,42.1631212,-83.7756293
265,Pleasant Ridge Drive,48176,42.1630455,-83.7754154
275,Pleasant Ridge Drive,48176,42.1630356,-83.7751538
435,South Harris Street,48176,42.1634823,-83.7766966
449,South Harris Street,48176,42.1633051,-83.7766893
673,Rosemont Avenue,48176,42.1593756,-83.7742328
661,Rosemont Avenue,48176,42.1596683,-83.7743101
231,Willis Road,48176,42.1592996,-83.7760764
243,Willis Road,48176,42.1593169,-83.7758494
255,Willis Road,48176,42.1593192,-83.7756108
267,Willis Road,48176,42.1593268,-83.7753703
279,Willis Road,48176,42.1593359,-83.7751317
295,Willis Road,48176,42.1593388,-83.7748596
660,Canterbury Drive,48176,42.1596961,-83.7748823
650,Canterbury Drive,48176,42.1597181,-83.7751365
640,Canterbury Drive,48176,42.1597002,-83.7754068
630,Canterbury Drive,48176,42.1598214,-83.7756681
610,Canterbury Drive,48176,42.1600943,-83.7759594
600,Canterbury Drive,48176,42.1602707,-83.7759875
592,Canterbury Drive,48176,42.1604515,-83.7760372
582,Canterbury Drive,48176,42.1606189,-83.7760072
572,Canterbury Drive,48176,42.1607799,-83.7760053
562,Canterbury Drive,48176,42.1609465,-83.7760182
552,Canterbury Drive,48176,42.1611084,-83.7760349
542,Canterbury Drive,48176,42.1612740,-83.7760332
532,Canterbury Drive,48176,42.1614197,-83.7760286
522,Canterbury Drive,48176,42.1615890,-83.7760331
512,Canterbury Drive,48176,42.1617500,-83.7760556
502,Canterbury Drive,48176,42.1619237,-83.7760310
492,Canterbury Drive,48176,42.1621358,-83.7759791
482,Canterbury Drive,48176,42.1623056,-83.7759463
472,Canterbury Drive,48176,42.1624779,-83.7759310
655,Canterbury Drive,48176,42.1601290,-83.7749045
625,Canterbury Drive,48176,42.1601903,-83.7753637
591,Canterbury Drive,48176,42.1604435,-83.7754128
581,Canterbury Drive,48176,42.1606032,-83.7754527
571,Canterbury Drive,48176,42.1607695,-83.7754683
561,Canterbury Drive,48176,42.1609507,-83.7754527
551,Canterbury Drive,48176,42.1610972,-83.7754831
541,Canterbury Drive,48176,42.1612623,-83.7755013
531,Canterbury Drive,48176,42.1614429,-83.7754841
521,Canterbury Drive,48176,42.1615904,-83.7754768
501,Canterbury Drive,48176,42.1619237,-83.7754807
491,Canterbury Drive,48176,42.1620908,-83.7754090
481,Canterbury Drive,48176,42.1622523,-83.7754172
471,Canterbury Drive,48176,42.1624204,-83.7753780
461,Canterbury Drive,48176,42.1626119,-83.7753140
