House number,Street name,Postal code,Latitude,Longitude
14101,Superior Street,48195,42.2053401,-83.1962581
15100,Northline Road,48195,42.2143402,-83.2078569
14101,Superior Street,48195,42.2060878,-83.1960270
13655,Eureka Road,48195,42.1988997,-83.1911054
16450,Fort Street,48195,42.1887823,-83.1855501
13591,Eureka Road,48195,42.1981469,-83.1891567
13587,Eureka Road,48195,42.1983240,-83.1891773
11125,Allen Road,48195,42.2264786,-83.2284479
11005,Allen Road,48195,42.2269002,-83.2284129
13230,Fort Street,48195,42.2119257,-83.1813172
15001,Allen Road,48195,42.1983525,-83.2283341
18854,Northline Road,48195,42.2136745,-83.2254574
17675,Eureka Road,48195,42.1984002,-83.2217869
16146,Eureka Road,48195,42.1991247,-83.2198830
16765,Fort Street,48195,42.1865955,-83.1874499
13665,Eureka Road,48195,42.1988868,-83.1914439
13667,Eureka Road,48195,42.1989206,-83.1905802
14275,Eureka Road,48195,42.1981170,-83.1971019
14265,Eureka Road,48195,42.1981330,-83.1967029
14185,Eureka Road,48195,42.1982450,-83.1957629
14165,Eureka Road,48195,42.1982334,-83.1956386
16077,Eureka Road,48195,42.1984836,-83.2183346
16083,Eureka Road,48195,42.1984848,-83.2184029
16089,Eureka Road,48195,42.1984832,-83.2184795
13697,Eureka Road,48195,42.1971245,-83.1897918
13735,Eureka Road,48195,42.1971515,-83.1902636
13725,Eureka Road,48195,42.1971474,-83.1901866
13565,Eureka Road,48195,42.1984445,-83.1891783
16258,Fort Street,48195,42.1898723,-83.1828325
16254,Fort Street,48195,42.1899640,-83.1826487
16252,Fort Street,48195,42.1899969,-83.1825623
14100,Pennsylvania Road,48195,42.1852888,-83.1937162
18618,Eureka Road,48195,42.1992327,-83.2218960
13555,Eureka Road,48195,42.1985186,-83.1891812
13777,Eureka Road,48195,42.1971038,-83.1912545
15040,Fort Street,48195,42.1988471,-83.1808039
16256,Fort Street,48195,42.1899191,-83.1827453
15340,Fort Street,48195,42.1960188,-83.1808448
13615,Eureka Road,48195,42.1979391,-83.1891511
13751,Eureka Road,48195,42.1971585,-83.1905857
15060,Dix-Toledo Highway,48195,42.1986599,-83.2143400
15100,Dix-Toledo Highway,48195,42.1982051,-83.2143232
15090,Dix-Toledo Highway,48195,42.1983515,-83.2143339
15200,Dix-Toledo Highway,48195,42.1978604,-83.2143819
15250,Dix-Toledo Highway,48195,42.1975982,-83.2143609
15290,Dix-Toledo Highway,48195,42.1974181,-83.2143463
15300,Dix-Toledo Highway,48195,42.1972207,-83.2143335
15260,Eureka Road,48195,42.1999499,-83.2086067
15250,Eureka Road,48195,42.1999070,-83.2085406
15230,Eureka Road,48195,42.1998654,-83.2084757
15204,Eureka Road,48195,42.1995767,-83.2082669
15200,Eureka Road,48195,42.1995760,-83.2080808
14400,Eureka Road,48195,42.1995173,-83.1986525
14437,Eureka Road,48195,42.1981805,-83.1989422
18605,Eureka Road,48195,42.1976867,-83.2218027
17825,Eureka Road,48195,42.1981984,-83.2217846
16134,Eureka Road,48195,42.1992054,-83.2194056
18700,Eureka Road,48195,42.1991912,-83.2230321
18706,Eureka Road,48195,42.1991908,-83.2231914
18708,Eureka Road,48195,42.1991893,-83.2232676
18710,Eureka Road,48195,42.1991864,-83.2233938
18714,Eureka Road,48195,42.1991869,-83.2235039
13348,Dix-Toledo Highway,48195,42.2110057,-83.1975388
13344,Dix-Toledo Highway,48195,42.2109434,-83.1974396
13754,Fort Street,48195,42.2077044,-83.1812152
13118,Fort Street,48195,42.2127682,-83.1813154
13112,Fort Street,48195,42.2128182,-83.1813199
13736,Fort Street,48195,42.2079082,-83.1812291
13742,Fort Street,48195,42.2078346,-83.1812260
13724,Fort Street,48195,42.2079841,-83.1812343
13700,Fort Street,48195,42.2080790,-83.1812438
13766,Fort Street,48195,42.2076469,-83.1812132
14795,Dix-Toledo Highway,48195,42.2020306,-83.2064914
15455,Dix-Toledo Highway,48195,42.1956865,-83.2142389
15461,Dix-Toledo Highway,48195,42.1956487,-83.2142867
15431,Dix-Toledo Highway,48195,42.1958701,-83.2140185
15341,Dix-Toledo Highway,48195,42.1965651,-83.2132087
15361,Dix-Toledo Highway,48195,42.1963772,-83.2134248
15355,Dix-Toledo Highway,48195,42.1964317,-83.2133729
15351,Dix-Toledo Highway,48195,42.1964850,-83.2133081
15325,Dix-Toledo Highway,48195,42.1966857,-83.2130689
15311,Dix-Toledo Highway,48195,42.1968021,-83.2129398
15301,Dix-Toledo Highway,48195,42.1968706,-83.2128684
15245,Dix-Toledo Highway,48195,42.1971170,-83.2125718
15211,Dix-Toledo Highway,48195,42.1974562,-83.2122114
15265,Dix-Toledo Highway,48195,42.1970141,-83.2126995
16215,Dix-Toledo Highway,48195,42.1908453,-83.2199102
14441,Eureka Road,48195,42.1981800,-83.1991889
1,Heritage Place,48195,42.2105632,-83.2240428
1,Heritage Place,48195,42.2105124,-83.2241310
15032,Fort Street,48195,42.1989486,-83.1807702
15036,Fort Street,48195,42.1988867,-83.1808085
15332,Fort Street,48195,42.1962761,-83.1807511
15070,Dix-Toledo Highway,48195,42.1985184,-83.2143427
15300,Eureka Road,48195,42.2003001,-83.2089448
16096,Eureka Road,48195,42.1992292,-83.2187015
18855,Eureka Road,48195,42.1984137,-83.2244924
16052,Eureka Road,48195,42.1992505,-83.2180925
12984,Dix-Toledo Highway,48195,42.2140008,-83.1944343
12954,Dix-Toledo Highway,48195,42.2141751,-83.1944390
12974,Dix-Toledo Highway,48195,42.2140603,-83.1944336
12964,Dix-Toledo Highway,48195,42.2141257,-83.1944361
16050,Eureka Road,48195,42.1992501,-83.2180292
16054,Eureka Road,48195,42.1992471,-83.2182216
16058,Eureka Road,48195,42.1992448,-83.2183238
16070,Eureka Road,48195,42.1992296,-83.2184607
16080,Eureka Road,48195,42.1992301,-83.2185243
16090,Eureka Road,48195,42.1992316,-83.2186135
16140,Eureka Road,48195,42.1992014,-83.2196075
16144,Eureka Road,48195,42.1991271,-83.2197512
18809,Eureka Road,48195,42.1983746,-83.2239751
18815,Eureka Road,48195,42.1983704,-83.2241228
14255,Eureka Road,48195,42.1981387,-83.1964203
12316,Fort Street,48195,42.2184917,-83.1816249
12316,Fort Street,48195,42.2184004,-83.1816202
11145,Allen Road,48195,42.2262960,-83.2285458
11155,Allen Road,48195,42.2262293,-83.2285423
11165,Allen Road,48195,42.2261685,-83.2285366
11175,Allen Road,48195,42.2261223,-83.2285354
11185,Allen Road,48195,42.2261172,-83.2282615
13101,Allen Road,48195,42.2114241,-83.2284287
13101,Allen Road,48195,42.2114255,-83.2285989
13785,Allen Road,48195,42.2063412,-83.2285247
14703,Allen Road,48195,42.1996542,-83.2283536
14705,Allen Road,48195,42.1996927,-83.2283141
14703,Allen Road,48195,42.1996626,-83.2283084
14703,Allen Road,48195,42.1996241,-83.2283051
14703,Allen Road,48195,42.1995899,-83.2283051
14705,Allen Road,48195,42.1996824,-83.2282539
15185,Allen Road,48195,42.1974266,-83.2276134
15195,Allen Road,48195,42.1972445,-83.2276085
12825,Dix-Toledo Highway,48195,42.2150574,-83.1934853
12837,Dix-Toledo Highway,48195,42.2149747,-83.1933866
12855,Dix-Toledo Highway,48195,42.2148794,-83.1934035
13153,Dix-Toledo Highway,48195,42.2122788,-83.1950113
13157,Dix-Toledo Highway,48195,42.2122388,-83.1950573
13161,Dix-Toledo Highway,48195,42.2121914,-83.1951043
13175,Dix-Toledo Highway,48195,42.2120974,-83.1952170
13353,Dix-Toledo Highway,48195,42.2102576,-83.1971898
13353,Dix-Toledo Highway,48195,42.2102171,-83.1972459
13357,Dix-Toledo Highway,48195,42.2101517,-83.1973170
13359,Dix-Toledo Highway,48195,42.2100938,-83.1973924
13361,Dix-Toledo Highway,48195,42.2100548,-83.1974365
13363,Dix-Toledo Highway,48195,42.2099816,-83.1974906
13535,Dix-Toledo Highway,48195,42.2089572,-83.1990147
13545,Dix-Toledo Highway,48195,42.2089127,-83.1990732
13565,Dix-Toledo Highway,48195,42.2085664,-83.1992306
13567,Dix-Toledo Highway,48195,42.2084771,-83.1992887
13569,Dix-Toledo Highway,48195,42.2084174,-83.1993644
13575,Dix-Toledo Highway,48195,42.2083523,-83.1994296
13585,Dix-Toledo Highway,48195,42.2082970,-83.1994996
13595,Dix-Toledo Highway,48195,42.2082393,-83.1995891
15201,Dix-Toledo Highway,48195,42.1975120,-83.2121405
15225,Dix-Toledo Highway,48195,42.1973697,-83.2123044
15231,Dix-Toledo Highway,48195,42.1972684,-83.2124148
15241,Dix-Toledo Highway,48195,42.1972060,-83.2124846
15251,Dix-Toledo Highway,48195,42.1970811,-83.2126241
15305,Dix-Toledo Highway,48195,42.1968408,-83.2129001
15315,Dix-Toledo Highway,48195,42.1967591,-83.2129923
15375,Dix-Toledo Highway,48195,42.1962571,-83.2135719
15401,Dix-Toledo Highway,48195,42.1960671,-83.2137969
15475,Dix-Toledo Highway,48195,42.1956172,-83.2143285
16045,Dix-Toledo Highway,48195,42.1911504,-83.2189453
16075,Dix-Toledo Highway,48195,42.1910357,-83.2189795
16085,Dix-Toledo Highway,48195,42.1909250,-83.2190011
16115,Dix-Toledo Highway,48195,42.1908976,-83.2191787
16125,Dix-Toledo Highway,48195,42.1908958,-83.2192912
16135,Dix-Toledo Highway,48195,42.1908927,-83.2194016
16165,Dix-Toledo Highway,48195,42.1908645,-83.2195571
16175,Dix-Toledo Highway,48195,42.1908604,-83.2196638
16185,Dix-Toledo Highway,48195,42.1908562,-83.2197958
12136,Dix-Toledo Highway,48195,42.2197678,-83.1943582
12142,Dix-Toledo Highway,48195,42.2197028,-83.1943583
12148,Dix-Toledo Highway,48195,42.2196585,-83.1943552
12154,Dix-Toledo Highway,48195,42.2195857,-83.1943562
12418,Dix-Toledo Highway,48195,42.2176124,-83.1942482
12430,Dix-Toledo Highway,48195,42.2174812,-83.1942170
12552,Dix-Toledo Highway,48195,42.2163906,-83.1942053
12570,Dix-Toledo Highway,48195,42.2162517,-83.1941919
13424,Dix-Toledo Highway,48195,42.2102350,-83.1982821
13450,Dix-Toledo Highway,48195,42.2101036,-83.1985303
13566,Dix-Toledo Highway,48195,42.2091930,-83.1996106
13550,Dix-Toledo Highway,48195,42.2092994,-83.1995407
13636,Dix-Toledo Highway,48195,42.2085958,-83.2005134
13636,Dix-Toledo Highway,48195,42.2084962,-83.2005836
13720,Dix-Toledo Highway,48195,42.2075267,-83.2015173
13740,Dix-Toledo Highway,48195,42.2073436,-83.2018126
13760,Dix-Toledo Highway,48195,42.2071899,-83.2019524
13760,Dix-Toledo Highway,48195,42.2070600,-83.2020857
13200,Eureka Road,48195,42.1996343,-83.1852062
14402,Eureka Road,48195,42.1995187,-83.1987392
14404,Eureka Road,48195,42.1995157,-83.1988202
15202,Eureka Road,48195,42.1995760,-83.2081700
15210,Eureka Road,48195,42.1997840,-83.2083398
15220,Eureka Road,48195,42.1998214,-83.2084051
15270,Eureka Road,48195,42.1999916,-83.2086651
16060,Eureka Road,48195,42.1992302,-83.2184034
16136,Eureka Road,48195,42.1992071,-83.2195090
19170,Eureka Road,48195,42.1991183,-83.2257020
19180,Eureka Road,48195,42.1991183,-83.2258387
19190,Eureka Road,48195,42.1991183,-83.2259774
19218,Eureka Road,48195,42.1989595,-83.2264339
19238,Eureka Road,48195,42.1989558,-83.2265257
19276,Eureka Road,48195,42.1990490,-83.2271301
13757,Eureka Road,48195,42.1971642,-83.1908574
16071,Eureka Road,48195,42.1984827,-83.2182765
17525,Eureka Road,48195,42.1984006,-83.2216543
18825,Eureka Road,48195,42.1983662,-83.2242120
18829,Eureka Road,48195,42.1983662,-83.2242674
18833,Eureka Road,48195,42.1983703,-83.2243339
18865,Eureka Road,48195,42.1984114,-83.2246552
19025,Eureka Road,48195,42.1983229,-83.2254230
19045,Eureka Road,48195,42.1983245,-83.2255717
19065,Eureka Road,48195,42.1983420,-83.2257143
19075,Eureka Road,48195,42.1983395,-83.2258089
19085,Eureka Road,48195,42.1983408,-83.2259207
19095,Eureka Road,48195,42.1983408,-83.2260273
15331,Goddard Road,48195,42.2275545,-83.2106525
15331,Goddard Road,48195,42.2275512,-83.2107557
15331,Goddard Road,48195,42.2275477,-83.2108647
19141,Goddard Road,48195,42.2272982,-83.2293417
13060,Northline Road,48195,42.2140391,-83.1851057
13066,Northline Road,48195,42.2140337,-83.1852078
13076,Northline Road,48195,42.2140343,-83.1853073
13250,Northline Road,48195,42.2140413,-83.1861037
13254,Northline Road,48195,42.2140391,-83.1862157
13536,Northline Road,48195,42.2139883,-83.1896497
13256,Northline Road,48195,42.2140395,-83.1863386
13260,Northline Road,48195,42.2140386,-83.1864708
13262,Northline Road,48195,42.2140340,-83.1865770
13498,Northline Road,48195,42.2139794,-83.1893269
13506,Northline Road,48195,42.2139890,-83.1894266
13516,Northline Road,48195,42.2139890,-83.1894945
13526,Northline Road,48195,42.2139887,-83.1895731
13546,Northline Road,48195,42.2139209,-83.1898793
13560,Northline Road,48195,42.2140220,-83.1900005
14328,Northline Road,48195,42.2139839,-83.1985259
14328,Northline Road,48195,42.2139850,-83.1986765
14500,Northline Road,48195,42.2138822,-83.2008874
14510,Northline Road,48195,42.2138818,-83.2010477
15400,Northline Road,48195,42.2137622,-83.2108466
15400,Northline Road,48195,42.2138800,-83.2108457
15450,Northline Road,48195,42.2138594,-83.2115174
15450,Northline Road,48195,42.2137249,-83.2115174
15570,Northline Road,48195,42.2137828,-83.2128450
15580,Northline Road,48195,42.2137824,-83.2129323
15590,Northline Road,48195,42.2137816,-83.2130248
15600,Northline Road,48195,42.2137824,-83.2131160
15770,Northline Road,48195,42.2145120,-83.2158538
12967,Northline Road,48195,42.2134177,-83.1841524
12985,Northline Road,48195,42.2134185,-83.1842798
13235,Northline Road,48195,42.2134063,-83.1863076
13245,Northline Road,48195,42.2134049,-83.1864373
13255,Northline Road,48195,42.2134002,-83.1865731
13545,Northline Road,48195,42.2134374,-83.1897825
13563,Northline Road,48195,42.2134266,-83.1900456
13605,Northline Road,48195,42.2134831,-83.1907633
13615,Northline Road,48195,42.2134831,-83.1908455
13625,Northline Road,48195,42.2134844,-83.1909277
13635,Northline Road,48195,42.2134802,-83.1911648
13645,Northline Road,48195,42.2134831,-83.1912995
13665,Northline Road,48195,42.2134839,-83.1914382
13703,Northline Road,48195,42.2134502,-83.1917106
13721,Northline Road,48195,42.2134488,-83.1919524
14605,Northline Road,48195,42.2130379,-83.2028079
14615,Northline Road,48195,42.2130373,-83.2029009
14625,Northline Road,48195,42.2130355,-83.2029978
14635,Northline Road,48195,42.2130338,-83.2030888
14645,Northline Road,48195,42.2131768,-83.2031880
14655,Northline Road,48195,42.2131781,-83.2032447
14657,Northline Road,48195,42.2131781,-83.2033528
14665,Northline Road,48195,42.2130888,-83.2033518
14685,Northline Road,48195,42.2130146,-83.2037816
14701,Northline Road,48195,42.2130111,-83.2040171
14709,Northline Road,48195,42.2130102,-83.2041452
14725,Northline Road,48195,42.2131175,-83.2045662
14745,Northline Road,48195,42.2131160,-83.2046966
15105,Northline Road,48195,42.2131572,-83.2076648
15125,Northline Road,48195,42.2131541,-83.2078348
14120,Pennsylvania Road,48195,42.1852894,-83.1937928
14130,Pennsylvania Road,48195,42.1852863,-83.1938904
14140,Pennsylvania Road,48195,42.1852852,-83.1939909
14160,Pennsylvania Road,48195,42.1852821,-83.1940829
15300,Pennsylvania Road,48195,42.1848120,-83.2092513
13301,Reeck Court,48195,42.2106293,-83.2168220
13317,Reeck Court,48195,42.2104797,-83.2168168
13333,Reeck Court,48195,42.2099458,-83.2168068
13349,Reeck Court,48195,42.2098079,-83.2167968
13351,Reeck Court,48195,42.2094498,-83.2167879
13367,Reeck Court,48195,42.2093205,-83.2167811
13210,Trenton Road,48195,42.2117671,-83.1940883
13230,Trenton Road,48195,42.2116328,-83.1940824
13250,Trenton Road,48195,42.2115429,-83.1940797
18150,Walnut Street,48195,42.2089619,-83.2221971
13433,Reeck Court,48195,42.2093984,-83.2167827
14543,Superior Street,48195,42.2063027,-83.2009253
15830,Fort Street,48195,42.1927660,-83.1806783
13936,Eureka Road,48195,42.1995594,-83.1936975
15501,Eureka Road,48195,42.1986970,-83.2121551
16001,Goddard Road,48195,42.2275213,-83.2199550
12961,Dix-Toledo Highway,48195,42.2140539,-83.1934172
13169,Northline Road,48195,42.2135494,-83.1852834
15300,Northline Road,48195,42.2137748,-83.2102601
13551,Allen Road,48195,42.2099496,-83.2286038
15200,Fort Street,48195,42.1973447,-83.1808386
13705,Eureka Road,48195,42.1971319,-83.1899108
14791,Eureka Road,48195,42.1986775,-83.2042507
14791,Eureka Road,48195,42.1986787,-83.2042046
16705,Fort Street,48195-1442,42.1861467,-83.1862947
16300,Fort Street,48195,42.1908253,-83.1839382
13617,Eureka Road,48195,42.1978695,-83.1891477
13621,Eureka Road,48195,42.1977990,-83.1891438
13631,Eureka Road,48195,42.1976258,-83.1891340
13627,Eureka Road,48195,42.1977155,-83.1891366
13721,Eureka Road,48195,42.1971418,-83.1900584
16705,Fort Street,48195,42.1861613,-83.1857165
14245,Eureka Road,48195,42.1981412,-83.1961636
15750,Northline Road,48195,42.2139386,-83.2152312
15750,Northline Road,48195,42.2140134,-83.2153436
11125,Allen Road,48195,42.2264785,-83.2282810
16100,Northline Road,48195,42.2140463,-83.2192185
16100,Northline Road,48195,42.2140465,-83.2193581
14455,Eureka Road,48195,42.1981814,-83.1994356
14521,Eureka Road,48195,42.1981797,-83.1996683
13565,Leroy Street,48195,42.1923088,-83.1908722
15830,Fort Street,48195,42.1925966,-83.1806373
13220,Trenton Road,48195,42.2116958,-83.1940870
15300,Pennsylvania Road,48195,42.1849706,-83.2093416
15300,Pennsylvania Road,48195,42.1849724,-83.2092318
16300,Fort Street,48195,42.1907547,-83.1851947
16705,Fort Street,48195-1442,42.1857482,-83.1857775
16300,Fort Street,48195,42.1912497,-83.1847518
13865,Eureka Road,48195,42.1988329,-83.1925452
15201,Trenton Road,48195,42.1980595,-83.1924478
13545,Eureka Road,48195,42.1988281,-83.1890797
15651,Trenton Road,48195,42.1956927,-83.1902702
12825,Eureka Road,48195,42.1991625,-83.1815115
14900,Fort Street,48195,42.1996682,-83.1807814
13305,Eureka Road,48195,42.1988568,-83.1863804
12755,Eureka Road,48195,42.1991908,-83.1809604
15010,Fort Street,48195,42.1991830,-83.1807345
13311,Eureka Road,48195,42.1976133,-83.1862734
13855,Eureka Road,48195,42.1987469,-83.1920959
13333,Eureka Road,48195,42.1976123,-83.1870809
12820,Eureka Road,48195,42.1997023,-83.1814220
12372,Fort Street,48195,42.2179483,-83.1815980
12250,Fort Street,48195,42.2190189,-83.1821154
12354,Fort Street,48195,42.2180606,-83.1815927
12316,Fort Street,48195,42.2184419,-83.1816395
12140,Fort Street,48195,42.2198208,-83.1815781
12020,Fort Street,48195,42.2207789,-83.1817286
12118,Fort Street,48195,42.2200933,-83.1817026
12554,Fort Street,48195,42.2165246,-83.1815665
12436,Fort Street,48195,42.2174599,-83.1816081
12660,Fort Street,48195,42.2157204,-83.1816367
12170,Fort Street,48195,42.2196261,-83.1816462
12530,Fort Street,48195,42.2166739,-83.1816491
16333,Trenton Road,48195,42.1885647,-83.1910855
16410,Trenton Road,48195,42.1864942,-83.1934044
16225,Fort Street,48195,42.1901400,-83.1801587
16250,Fort Street,48195,42.1903119,-83.1819106
16775,Fort Street,48195,42.1857816,-83.1876629
16350,Fort Street,48195,42.1892421,-83.1844047
16501,Fort Street,48195,42.1876631,-83.1832276
16703,Fort Street,48195,42.1858654,-83.1839460
16399,Fort Street,48195,42.1892742,-83.1818928
16450,Fort Street,48195,42.1888824,-83.1855362
16515,Fort Street,48195,42.1876913,-83.1846926
16600,Fort Street,48195,42.1885461,-83.1869665
16801,Fort Street,48195,42.1853990,-83.1887451
16800,Fort Street,48195,42.1869491,-83.1899960
16795,Fort Street,48195,42.1859855,-83.1884319
15231,Trenton Road,48195,42.1975989,-83.1926097
13459,Eureka Road,48195,42.1988212,-83.1880936
14900,Dix-Toledo Highway,48195,42.2015909,-83.2108130
12859,Eureka Road,48195,42.1991424,-83.1821383
12850,Eureka Road,48195,42.1996565,-83.1819674
12869,Eureka Road,48195,42.1991400,-83.1823320
12863,Eureka Road,48195,42.1991412,-83.1822359
12868,Eureka Road,48195,42.1997081,-83.1823147
13060,Eureka Road,48195,42.1997138,-83.1835485
13019,Eureka Road,48195,42.1991431,-83.1828734
13008,Eureka Road,48195,42.1996403,-83.1826693
13020,Eureka Road,48195,42.1996723,-83.1829484
13046,Eureka Road,48195,42.1996620,-83.1834036
13132,Eureka Road,48195,42.1995901,-83.1847978
13117,Eureka Road,48195,42.1991904,-83.1844392
13123,Eureka Road,48195,42.1991213,-83.1846009
13080,Eureka Road,48195,42.1996515,-83.1837780
13219,Eureka Road,48195,42.1990003,-83.1853881
13240,Eureka Road,48195,42.1996373,-83.1855683
13231,Eureka Road,48195,42.1989741,-83.1855609
13248,Eureka Road,48195,42.1996344,-83.1859329
16270,Fort Street,48195,42.1895908,-83.1837034
14490,Fort Street,48195,42.2028374,-83.1810577
14720,Fort Street,48195,42.2007508,-83.1808453
14550,Fort Street,48195,42.2022279,-83.1808429
14750,Fort Street,48195,42.2006258,-83.1808333
14600,Fort Street,48195,42.2014178,-83.1807979
14820,Fort Street,48195,42.2000273,-83.1807412
14440,Fort Street,48195,42.2032283,-83.1810497
14070,Fort Street,48195,42.2060068,-83.1809565
14244,Fort Street,48195,42.2044838,-83.1810148
14052,Fort Street,48195,42.2062188,-83.1810483
14100,Fort Street,48195,42.2056636,-83.1809831
14056,Fort Street,48195,42.2061195,-83.1810749
14222,Fort Street,48195,42.2048589,-83.1810890
14024,Fort Street,48195,42.2063997,-83.1810915
15700,Northline Road,48195,42.2161739,-83.2149514
15800,Northline Road,48195,42.2148241,-83.2177904
16300,Northline Road,48195,42.2137496,-83.2199471
16200,Northline Road,48195,42.2139279,-83.2196559
16100,Northline Road,48195,42.2140525,-83.2192850
18902,Northline Road,48195,42.2137810,-83.2266288
18950,Northline Road,48195,42.2138383,-83.2271361
18854,Northline Road,48195,42.2136592,-83.2258004
18767,Northline Road,48195,42.2126935,-83.2251012
18787,Northline Road,48195,42.2125271,-83.2258331
14051,Trenton Road,48195,42.2061252,-83.1917546
14000,Dix-Toledo Highway,48195,42.2069690,-83.2034640
15800,Superior Street,48195,42.2071178,-83.2112222
14600,Reaume Parkway,48195,42.2032949,-83.2133612
5,Heritage Place,48195,42.2090702,-83.2259085
13651,Eureka Road,48195,42.1970413,-83.1891508
16335,Barberry Street,48195,42.1890891,-83.1814514
15400,Pennsylvania Road,48195,42.1848469,-83.2098220
14426,Pennsylvania Road,48195,42.1851470,-83.1982213
14600,Pennsylvania Road,48195,42.1851827,-83.2000666
15031,Eureka Road,48195,42.1987694,-83.2060984
12871,Orchard Street,48195,42.1947402,-83.1818615
15644,Fort Street,48195,42.1943615,-83.1807803
15173,Eureka Road,48195,42.1987989,-83.2077756
15830,Fort Street,48195,42.1926815,-83.1806808
14333,Eureka Road,48195,42.1983252,-83.1980264
15310,Trenton Road,48195,42.1978759,-83.1945411
15446,Fort Street,48195,42.1952170,-83.1806291
12762,Peach Street,48195,42.1942476,-83.1809596
12811,Cherry Street,48195,42.1965287,-83.1811795
13424,Eureka Road,48195,42.1995955,-83.1878465
15612,Fort Street,48195,42.1948247,-83.1806471
14195,Eureka Road,48195,42.1994686,-83.1961458
15501,Eureka Road,48195,42.1986356,-83.2123855
16093,Eureka Road,48195,42.1985212,-83.2186581
13470,Eureka Road,48195,42.1996026,-83.1884251
12883,Orchard Street,48195,42.1947427,-83.1820071
14366,Eureka Road,48195,42.1995338,-83.1982436
12859,Orchard Street,48195,42.1947450,-83.1817152
14615,Eureka Road,48195,42.1985519,-83.2025064
15720,Fort Street,48195,42.1938776,-83.1806256
13913,Eureka Road,48195,42.1988738,-83.1936680
13252,Eureka Road,48195,42.1996304,-83.1862618
15200,Trenton Road,48195,42.1982047,-83.1937961
14012,Eureka Road,48195,42.1995183,-83.1944406
15143,Eureka Road,48195,42.1987670,-83.2074509
14226,Eureka Road,48195,42.1994429,-83.1967475
14100,Eureka Road,48195,42.1995536,-83.1956407
14270,Eureka Road,48195,42.1994679,-83.1972192
13678,Eureka Road,48195,42.1995929,-83.1910398
15432,Fort Street,48195,42.1954336,-83.1806941
14845,Eureka Road,48195,42.1986557,-83.2046683
15975,Eureka Road,48195,42.1984450,-83.2174390
14560,Eureka Road,48195,42.1994333,-83.2010944
14048,Eureka Road,48195,42.1995704,-83.1948076
14514,Eureka Road,48195,42.1994580,-83.1999100
13454,Eureka Road,48195,42.1995827,-83.1879977
19363,Eureka Road,48195,42.1983527,-83.2279808
19225,Eureka Road,48195,42.1983493,-83.2265317
15001,Allen Road,48195,42.1982756,-83.2281396
18676,Eureka Road,48195,42.1991781,-83.2223559
19014,Eureka Road,48195,42.1991649,-83.2254164
17820,Eureka Road,48195,42.1991843,-83.2206081
18570,Eureka Road,48195,42.1991714,-83.2211814
16046,Eureka Road,48195,42.1993835,-83.2177903
18618,Eureka Road,48195,42.1991867,-83.2218376
16000,Trenton Road,48195,42.1900418,-83.1936602
14710,Reaume Parkway,48195,42.2031299,-83.2084472
14720,Reaume Parkway,48195,42.2030490,-83.2078357
14680,Dix-Toledo Highway,48195,42.2036943,-83.2074512
14440,Dix-Toledo Highway,48195,42.2040852,-83.2069662
15900,Eureka Road,48195,42.1994033,-83.2160933
15800,Eureka Road,48195,42.1997764,-83.2150494
14600,Reaume Parkway,48195,42.2038532,-83.2108028
14730,Reaume Parkway,48195,42.2026954,-83.2077244
14700,Reaume Parkway,48195,42.2039752,-83.2089232
15600,Eureka Road,48195,42.1995790,-83.2130339
14300,Reaume Parkway,48195,42.2058063,-83.2110665
15601,Northline Road,48195,42.2096673,-83.2132708
14120,Dix-Toledo Highway,48195,42.2054385,-83.2041718
14350,Dix-Toledo Highway,48195,42.2045845,-83.2064697
14200,Dix-Toledo Highway,48195,42.2045733,-83.2079571
14390,Kennebec Street,48195,42.2030530,-83.2030556
13866,Spruce Street,48195,42.1932844,-83.1912420
16305,Fort Street,48195,42.1895869,-83.1811165
16389,Fort Street,48192,42.1895084,-83.1815656
14155,Eureka Road,48195,42.1980209,-83.1952022
13999,Eureka Road,48195,42.1988436,-83.1943205
13330,Eureka Road,48195,42.1996188,-83.1867888
13360,Eureka Road,48195,42.1996094,-83.1872311
13560,Eureka Road,48195,42.1995921,-83.1893713
13568,Eureka Road,48195,42.1995621,-83.1897517
13628,Eureka Road,48195,42.1995431,-83.1902654
13760,Eureka Road,48195,42.1995520,-83.1917454
13818,Eureka Road,48195,42.1995411,-83.1923895
13866,Eureka Road,48195,42.1995601,-83.1926070
13936,Eureka Road,48195,42.1995535,-83.1940087
14050,Dix-Toledo Highway,48195,42.2059968,-83.2035060
14993,Dix-Toledo Highway,48195,42.1992651,-83.2105291
11355,Reeck Road,48195,42.2249381,-83.2188887
13333,Allen Road,48195,42.2107446,-83.2276409
12820,Fort Street,48195,42.2150111,-83.1814753
12872,Fort Street,48195,42.2147313,-83.1814266
12990,Fort Street,48195,42.2142214,-83.1816007
13500,Fort Street,48195,42.2094863,-83.1813054
19400,Northline Road,48195,42.2134370,-83.2284926
13333,Heritage Place,48195,42.2103004,-83.2221196
12054,Fort Street,48195,42.2205854,-83.1817037
12466,Fort Street,48195,42.2171678,-83.1815637
13050,Fort Street,48195,42.2131305,-83.1813618
13136,Fort Street,48195,42.2125958,-83.1814114
13160,Fort Street,48195,42.2124042,-83.1815261
13230,Fort Street,48195,42.2118502,-83.1814869
13248,Fort Street,48195,42.2116894,-83.1813687
13312,Fort Street,48195,42.2112593,-83.1812192
13330,Fort Street,48195,42.2110505,-83.1813202
13350,Fort Street,48195,42.2109444,-83.1813801
13422,Fort Street,48195,42.2103814,-83.1812755
13430,Fort Street,48195,42.2103195,-83.1811788
13400,Fort Street,48195,42.2104640,-83.1814138
13460,Fort Street,48195,42.2099836,-83.1814070
13650,Fort Street,48195,42.2085465,-83.1811600
13672,Fort Street,48195,42.2084050,-83.1811726
13772,Fort Street,48195,42.2075616,-83.1811759
13824,Fort Street,48195,42.2071600,-83.1812518
13838,Fort Street,48195,42.2070556,-83.1811459
13870,Fort Street,48195,42.2068036,-83.1811360
15150,Fort Street,48195,42.1980101,-83.1807984
15320,Fort Street,48195,42.1964195,-83.1807414
15748,Fort Street,48195,42.1933792,-83.1806395
12895,Orchard Street,48195,42.1947424,-83.1821760
12847,Orchard Street,48195,42.1947442,-83.1815730
12835,Orchard Street,48195,42.1947411,-83.1814231
12823,Orchard Street,48195,42.1947464,-83.1812725
12811,Orchard Street,48195,42.1947418,-83.1811272
12799,Orchard Street,48195,42.1947541,-83.1809815
14980,Dix-Toledo Highway,48195,42.1996064,-83.2114663
15555,Eureka Road,48195,42.1985178,-83.2128003
14985,Dix-Toledo Highway,48195,42.1995012,-83.2099214
14951,Dix-Toledo Highway,48195,42.1997133,-83.2096657
15355,Eureka Road,48195,42.1984078,-83.2098891
15300,Eureka Road,48195,42.2002029,-83.2088441
15350,Eureka Road,48195,42.1994015,-83.2089174
15221,Eureka Road,48195,42.1984154,-83.2084076
15100,Eureka Road,48195,42.1996261,-83.2070064
15150,Eureka Road,48195,42.1995815,-83.2074677
14805,Dix-Toledo Highway,48195,42.2006033,-83.2085277
15060,Eureka Road,48195,42.1995886,-83.2063068
15067,Eureka Road,48195,42.1987082,-83.2065608
15125,Eureka Road,48195,42.1988323,-83.2070696
15007,Eureka Road,48195,42.1988141,-83.2058340
14024,Eureka Road,48195,42.1995170,-83.1945272
14350,Eureka Road,48195,42.1994854,-83.1980454
14336,Eureka Road,48195,42.1994652,-83.1978959
14420,Eureka Road,48195,42.1994651,-83.1989788
14561,Eureka Road,48195,42.1985883,-83.2004195
14601,Eureka Road,48195,42.1985728,-83.2011670
14594,Eureka Road,48195,42.1993983,-83.2018694
14701,Eureka Road,48195,42.1986399,-83.2032958
14777,Eureka Road,48195,42.1986117,-83.2036517
14791,Eureka Road,48195,42.1986756,-83.2042283
12880,Northline Road,48195,42.2140396,-83.1829190
12885,Northline Road,48195,42.2134995,-83.1828871
14405,Dix-Toledo Highway,48195,42.2033108,-83.2055232
15761,Eureka Road,48195,42.1986192,-83.2150558
15765,Eureka Road,48195,42.1984430,-83.2156906
15777,Eureka Road,48195,42.1984229,-83.2162074
15783,Eureka Road,48195,42.1984705,-83.2168522
15950,Eureka Road,48195,42.1992696,-83.2171753
16067,Eureka Road,48195,42.1984633,-83.2181330
16121,Eureka Road,48195,42.1983939,-83.2194966
16153,Eureka Road,48195,42.1980056,-83.2202360
17379,Eureka Road,48195,42.1977649,-83.2212192
18800,Eureka Road,48195,42.1991189,-83.2244955
19288,Eureka Road,48195,42.1989384,-83.2274226
13460,Northline Road,48195,42.2139922,-83.1886663
13690,Northline Road,48195,42.2139671,-83.1915933
13354,Dix-Toledo Highway,48195,42.2107035,-83.1976718
12811,Northline Road,48195,42.2134712,-83.1820162
12815,Northline Road,48195,42.2135238,-83.1824369
12931,Northline Road,48195,42.2135399,-83.1834846
13300,Northline Road,48195,42.2140671,-83.1875619
13100,Burns Street,48195,42.2123622,-83.1915110
14795,Dix-Toledo Highway,48195,42.2019666,-83.2064225
16525,Fort Street,48195,42.1876673,-83.1854051
16765,Fort Street,48195,42.1865495,-83.1873336
13680,Pennsylvania Road,48195,42.1851405,-83.1905699
13932,Pennsylvania Road,48195,42.1851247,-83.1924807
12851,Reeck Road,48195,42.2139275,-83.2243302
18700,Northline Road,48195,42.2135844,-83.2242794
1,Heritage Place,48195,42.2103746,-83.2238556
15300,Northline Road,48195,42.2139151,-83.2102610
14515,Northline Road,48195,42.2132316,-83.2006182
17201,Northline Road,48195,42.2120923,-83.2207504
13501,Allen Road,48195,42.2102368,-83.2286594
13551,Allen Road,48195,42.2100839,-83.2283296
13601,Allen Road,48195,42.2098264,-83.2282486
14623,Yorkshire Street,48195,42.2193261,-83.2018124
15100,Northline Road,48195,42.2148033,-83.2080962
11275,Allen Road,48195,42.2247756,-83.2289236
13144,Peach Street,48195,42.1942161,-83.1841665
13132,Peach Street,48195,42.1942185,-83.1840155
13120,Peach Street,48195,42.1942189,-83.1838683
13108,Peach Street,48195,42.1942228,-83.1837225
13096,Peach Street,48195,42.1942254,-83.1835741
13072,Peach Street,48195,42.1942280,-83.1832777
13060,Peach Street,48195,42.1942276,-83.1831328
13048,Peach Street,48195,42.1942310,-83.1829858
13024,Peach Street,48195,42.1942340,-83.1826886
13012,Peach Street,48195,42.1942366,-83.1825398
13168,Peach Street,48195,42.1942112,-83.1844616
13156,Peach Street,48195,42.1942149,-83.1843117
13133,Orchard Street,48195,42.1947102,-83.1840117
13109,Orchard Street,48195,42.1947204,-83.1837165
13085,Orchard Street,48195,42.1947196,-83.1834210
13073,Orchard Street,48195,42.1947223,-83.1832741
13061,Orchard Street,48195,42.1947287,-83.1831263
13049,Orchard Street,48195,42.1947279,-83.1829784
13037,Orchard Street,48195,42.1947268,-83.1828326
13025,Orchard Street,48195,42.1947317,-83.1826842
13013,Orchard Street,48195,42.1947229,-83.1825417
15350,Trenton Road,48195,42.1976207,-83.1940695
14656,Eureka Road,48195,42.1994034,-83.2030689
14646,Eureka Road,48195,42.1994072,-83.2029019
13671,Dix-Toledo Highway,48195,42.2154608,-83.1934570
12625,Dix-Toledo Highway,48195,42.2159602,-83.1934081
12565,Dix-Toledo Highway,48195,42.2162962,-83.1934929
12525,Dix-Toledo Highway,48195,42.2166059,-83.1934742
13045,Northline Road,48195,42.2134100,-83.1847922
13216,Northline Road,48195,42.2139961,-83.1858564
12916,Northline Road,48195,42.2140324,-83.1833584
12998,Northline Road,48195,42.2139739,-83.1843512
13293,Northline Road,48195,42.2134571,-83.1870430
13317,Northline Road,48195,42.2134539,-83.1880115
13479,Northline Road,48195,42.2134187,-83.1891198
13656,Dix-Toledo Highway,48195,42.2083400,-83.2006394
13676,Dix-Toledo Highway,48195,42.2080945,-83.2009301
13697,Dix-Toledo Highway,48195,42.2071978,-83.2008378
13759,Dix-Toledo Highway,48195,42.2068387,-83.2014317
13789,Dix-Toledo Highway,48195,42.2065954,-83.2016525
13300,Reeck Road,48195,42.2104192,-83.2203292
19364,Eureka Road,48195,42.1989928,-83.2279645
13785,Allen Road,48195,42.2061310,-83.2284252
11300,Reeck Road,48195,42.2252962,-83.2212103
11350,Reeck Road,48195,42.2247421,-83.2207772
13024,Orchard Street,48195,42.1951245,-83.1827179
13036,Orchard Street,48195,42.1951230,-83.1828658
13048,Orchard Street,48195,42.1951200,-83.1830126
13060,Orchard Street,48195,42.1951173,-83.1831605
13012,Orchard Street,48195,42.1951265,-83.1825722
13132,Orchard Street,48195,42.1951080,-83.1840459
13144,Orchard Street,48195,42.1951065,-83.1841938
13156,Orchard Street,48195,42.1951046,-83.1843427
13168,Orchard Street,48195,42.1951027,-83.1844895
13180,Orchard Street,48195,42.1951027,-83.1846328
12882,Orchard Street,48195,42.1951324,-83.1820235
12870,Orchard Street,48195,42.1951349,-83.1818756
12858,Orchard Street,48195,42.1951375,-83.1817288
12894,Orchard Street,48195,42.1951316,-83.1821712
12846,Orchard Street,48195,42.1951389,-83.1815811
12834,Orchard Street,48195,42.1951564,-83.1814317
12822,Orchard Street,48195,42.1951409,-83.1812855
12810,Orchard Street,48195,42.1951454,-83.1811378
12798,Orchard Street,48195,42.1951435,-83.1809891
13072,Orchard Street,48195,42.1951370,-83.1833092
13084,Orchard Street,48195,42.1951148,-83.1834564
13096,Orchard Street,48195,42.1951143,-83.1836052
13108,Orchard Street,48195,42.1951276,-83.1837516
13120,Orchard Street,48195,42.1951106,-83.1838985
13169,Orchard Street,48195,42.1947086,-83.1844540
13157,Orchard Street,48195,42.1947136,-83.1843069
13121,Orchard Street,48195,42.1947136,-83.1838633
13145,Orchard Street,48195,42.1947129,-83.1841585
13180,Peach Street,48195,42.1942148,-83.1845978
13108,Spruce Street,48195,42.1932974,-83.1836984
13096,Spruce Street,48195,42.1933046,-83.1835492
13120,Spruce Street,48195,42.1932921,-83.1838439
13084,Spruce Street,48195,42.1932993,-83.1834025
13072,Spruce Street,48195,42.1932961,-83.1832529
13060,Spruce Street,48195,42.1932948,-83.1831078
13048,Spruce Street,48195,42.1932974,-83.1829601
13036,Spruce Street,48195,42.1933026,-83.1828122
13024,Spruce Street,48195,42.1933079,-83.1826521
13012,Spruce Street,48195,42.1933138,-83.1825025
13132,Spruce Street,48195,42.1932872,-83.1839911
13144,Spruce Street,48195,42.1932877,-83.1841380
13156,Spruce Street,48195,42.1932887,-83.1842901
13168,Spruce Street,48195,42.1932862,-83.1844323
13180,Spruce Street,48195,42.1932897,-83.1845819
13168,Leroy Street,48195,42.1924719,-83.1844033
13156,Leroy Street,48195,42.1924689,-83.1842561
13144,Leroy Street,48195,42.1924706,-83.1841085
13132,Leroy Street,48195,42.1924745,-83.1839614
13120,Leroy Street,48195,42.1924715,-83.1838160
13108,Leroy Street,48195,42.1924719,-83.1836671
13096,Leroy Street,48195,42.1924724,-83.1835177
13084,Leroy Street,48195,42.1924728,-83.1833712
13060,Leroy Street,48195,42.1924772,-83.1830761
13048,Leroy Street,48195,42.1924741,-83.1829266
13072,Leroy Street,48195,42.1924754,-83.1832243
13036,Leroy Street,48195,42.1924749,-83.1827774
13024,Leroy Street,48195,42.1924789,-83.1826299
13012,Leroy Street,48195,42.1924759,-83.1824723
12894,Spruce Street,48195,42.1933187,-83.1821291
12882,Spruce Street,48195,42.1933164,-83.1819888
12870,Spruce Street,48195,42.1933151,-83.1818385
12846,Spruce Street,48195,42.1933112,-83.1815448
12834,Spruce Street,48195,42.1933210,-83.1813969
12822,Spruce Street,48195,42.1933210,-83.1812501
12812,Spruce Street,48195,42.1933302,-83.1811041
12800,Spruce Street,48195,42.1933315,-83.1809536
13499,Dix-Toledo Highway,48195,42.2092916,-83.1985868
13238,Dix-Toledo Highway,48195,42.2118454,-83.1964286
15650,Reeck Road,48195,42.1933871,-83.2199310
15500,Reeck Road,48195,42.1950067,-83.2195916
15332,Dix-Toledo Highway,48195,42.1952339,-83.2164716
16700,Pennsylvania Road,48195,42.1864050,-83.2159933
12896,Leroy Street,48195,42.1924321,-83.1820878
12884,Leroy Street,48195,42.1924331,-83.1819366
12872,Leroy Street,48195,42.1924346,-83.1817898
12848,Leroy Street,48195,42.1924355,-83.1814935
12836,Leroy Street,48195,42.1924361,-83.1813461
12824,Leroy Street,48195,42.1924380,-83.1811997
12812,Leroy Street,48195,42.1924380,-83.1810508
12860,Leroy Street,48195,42.1924344,-83.1816409
12859,Spruce Street,48195,42.1929130,-83.1816782
12871,Spruce Street,48195,42.1929125,-83.1818273
12883,Spruce Street,48195,42.1929115,-83.1819748
12895,Spruce Street,48195,42.1929094,-83.1821049
12847,Spruce Street,48195,42.1929170,-83.1815316
12835,Spruce Street,48195,42.1929157,-83.1813829
12823,Spruce Street,48195,42.1929197,-83.1812361
12813,Spruce Street,48195,42.1929197,-83.1810919
13037,Spruce Street,48195,42.1929037,-83.1827976
13049,Spruce Street,48195,42.1929007,-83.1829423
13061,Spruce Street,48195,42.1928996,-83.1830910
13073,Spruce Street,48195,42.1928899,-83.1832366
13085,Spruce Street,48195,42.1928933,-83.1833852
13097,Spruce Street,48195,42.1928853,-83.1835377
13109,Spruce Street,48195,42.1928870,-83.1836841
13097,Peach Street,48195,42.1937726,-83.1835604
12871,Peach Street,48195,42.1938031,-83.1818310
12859,Peach Street,48195,42.1938048,-83.1816875
12835,Peach Street,48195,42.1938107,-83.1813898
12811,Peach Street,48195,42.1938085,-83.1810928
12799,Peach Street,48195,42.1938112,-83.1809511
12823,Peach Street,48195,42.1937953,-83.1812417
12847,Peach Street,48195,42.1938033,-83.1815399
12895,Peach Street,48195,42.1937951,-83.1821259
12883,Peach Street,48195,42.1938004,-83.1819784
12858,Spruce Street,48195,42.1933053,-83.1816964
14606,Eureka Road,48195,42.1994145,-83.2022310
14616,Eureka Road,48195,42.1994025,-83.2023960
14626,Eureka Road,48195,42.1994025,-83.2025660
14636,Eureka Road,48195,42.1994065,-83.2027315
14706,Eureka Road,48195,42.1993738,-83.2034595
14716,Eureka Road,48195,42.1993975,-83.2036268
14726,Eureka Road,48195,42.1993670,-83.2037840
14736,Eureka Road,48195,42.1993794,-83.2039428
14756,Eureka Road,48195,42.1993675,-83.2042570
14806,Eureka Road,48195,42.1993925,-83.2046315
14816,Eureka Road,48195,42.1993875,-83.2047780
14826,Eureka Road,48195,42.1993765,-83.2049280
14836,Eureka Road,48195,42.1993795,-83.2050740
14846,Eureka Road,48195,42.1993695,-83.2052215
14856,Eureka Road,48195,42.1993655,-83.2053450
19295,Eureka Road,48195,42.1983445,-83.2271730
19368,Eureka Road,48195,42.1991110,-83.2282665
12250,Dix-Toledo Highway,48195,42.2186842,-83.1943227
13894,Northline Road,48195,42.2139505,-83.1928095
12961,Dix-Toledo Highway,48195,42.2141120,-83.1932214
13843,Northline Road,48195,42.2132393,-83.1934332
13378,Northline Road,48195,42.2139885,-83.1878665
13280,Northline Road,48195,42.2140480,-83.1870350
13169,Northline Road,48195,42.2133990,-83.1852140
14315,Northline Road,48195,42.2133295,-83.1983235
15418,Devoe Street,48195,42.1957005,-83.2118249
15408,Devoe Street,48195,42.1958777,-83.2118365
15380,Devoe Street,48195,42.1960432,-83.2118442
15340,Devoe Street,48195,42.1962081,-83.2118450
15300,Devoe Street,48195,42.1963724,-83.2118465
15200,Devoe Street,48195,42.1965505,-83.2118588
13097,Orchard Street,48195,42.1947244,-83.1835689
13084,Peach Street,48195,42.1942319,-83.1834313
13036,Peach Street,48195,42.1942369,-83.1828373
14151,Trenton Road,48195,42.2053569,-83.1929132
1,ASC Center Drive,48195,42.2089768,-83.2243134
15760,McCann Street,48195,42.1919501,-83.2093546
15750,McCann Street,48195,42.1920828,-83.2093554
15740,McCann Street,48195,42.1922192,-83.2093605
15730,McCann Street,48195,42.1923549,-83.2093873
15720,McCann Street,48195,42.1924913,-83.2094369
15710,McCann Street,48195,42.1926299,-83.2093783
15700,McCann Street,48195,42.1927657,-83.2093945
15690,McCann Street,48195,42.1929017,-83.2093821
15680,McCann Street,48195,42.1930354,-83.2093879
15670,McCann Street,48195,42.1931727,-83.2093852
15660,McCann Street,48195,42.1933049,-83.2094042
15650,McCann Street,48195,42.1934400,-83.2094207
15640,McCann Street,48195,42.1935728,-83.2094474
15630,McCann Street,48195,42.1937089,-83.2094149
15610,McCann Street,48195,42.1939773,-83.2094204
15600,McCann Street,48195,42.1941106,-83.2094225
15480,McCann Street,48195,42.1942447,-83.2094265
15470,McCann Street,48195,42.1943810,-83.2094356
15460,McCann Street,48195,42.1945135,-83.2094428
15450,McCann Street,48195,42.1946483,-83.2094530
15440,McCann Street,48195,42.1947838,-83.2094570
15430,McCann Street,48195,42.1949193,-83.2094560
15420,McCann Street,48195,42.1950549,-83.2094611
15410,McCann Street,48195,42.1951897,-83.2094580
15411,McCann Street,48195,42.1951981,-83.2087776
15421,McCann Street,48195,42.1950633,-83.2087676
15431,McCann Street,48195,42.1949305,-83.2087584
15441,McCann Street,48195,42.1947952,-83.2087493
15451,McCann Street,48195,42.1946607,-83.2087460
15461,McCann Street,48195,42.1945243,-83.2087493
15471,McCann Street,48195,42.1943922,-83.2087501
15481,McCann Street,48195,42.1942570,-83.2087501
15601,McCann Street,48195,42.1941194,-83.2087443
15611,McCann Street,48195,42.1939904,-83.2087377
15621,McCann Street,48195,42.1938527,-83.2087269
15631,McCann Street,48195,42.1937176,-83.2087203
15641,McCann Street,48195,42.1935855,-83.2087105
15651,McCann Street,48195,42.1934528,-83.2087170
15661,McCann Street,48195,42.1933158,-83.2086939
15671,McCann Street,48195,42.1931812,-83.2086932
15681,McCann Street,48195,42.1930464,-83.2086858
15691,McCann Street,48195,42.1929108,-83.2086997
15701,McCann Street,48195,42.1927757,-83.2086964
15711,McCann Street,48195,42.1926423,-83.2086865
15721,McCann Street,48195,42.1925078,-83.2086799
15731,McCann Street,48195,42.1923720,-83.2086898
15741,McCann Street,48195,42.1922362,-83.2086733
15751,McCann Street,48195,42.1920980,-83.2086807
15761,McCann Street,48195,42.1919638,-83.2086274
15759,Churchill Street,48195,42.1919398,-83.2099037
15749,Churchill Street,48195,42.1920713,-83.2098979
15739,Churchill Street,48195,42.1922088,-83.2099080
15729,Churchill Street,48195,42.1923454,-83.2099187
15719,Churchill Street,48195,42.1926189,-83.2099360
15709,Churchill Street,48195,42.1927561,-83.2099557
15699,Churchill Street,48195,42.1928897,-83.2099717
15689,Churchill Street,48195,42.1930253,-83.2099784
15679,Churchill Street,48195,42.1931609,-83.2099884
15659,Churchill Street,48195,42.1934281,-83.2099912
15649,Churchill Street,48195,42.1935617,-83.2099905
15639,Churchill Street,48195,42.1936973,-83.2099892
15629,Churchill Street,48195,42.1938319,-83.2099905
15619,Churchill Street,48195,42.1939670,-83.2100066
15609,Churchill Street,48195,42.1941015,-83.2100072
15601,Churchill Street,48195,42.1942361,-83.2100206
15479,Churchill Street,48195,42.1943707,-83.2100267
15469,Churchill Street,48195,42.1945043,-83.2100227
15449,Churchill Street,48195,42.1946404,-83.2100247
15439,Churchill Street,48195,42.1947729,-83.2100348
15429,Churchill Street,48195,42.1949061,-83.2100281
15419,Churchill Street,48195,42.1950417,-83.2100401
15409,Churchill Street,48195,42.1951787,-83.2100516
15760,Churchill Street,48195,42.1919293,-83.2105613
15750,Churchill Street,48195,42.1920595,-83.2105673
15740,Churchill Street,48195,42.1921958,-83.2105715
15730,Churchill Street,48195,42.1923336,-83.2105927
15720,Churchill Street,48195,42.1924691,-83.2106181
15710,Churchill Street,48195,42.1926068,-83.2106264
15700,Churchill Street,48195,42.1927438,-83.2106385
15690,Churchill Street,48195,42.1928778,-83.2106457
15680,Churchill Street,48195,42.1930118,-83.2106467
15670,Churchill Street,48195,42.1931473,-83.2106578
15660,Churchill Street,48195,42.1932820,-83.2106639
15650,Churchill Street,48195,42.1934175,-83.2106649
15640,Churchill Street,48195,42.1935482,-83.2106912
15630,Churchill Street,48195,42.1936855,-83.2106659
15620,Churchill Street,48195,42.1938180,-83.2106679
15610,Churchill Street,48195,42.1939534,-83.2106831
15600,Churchill Street,48195,42.1940900,-83.2106844
15480,Churchill Street,48195,42.1942215,-83.2106921
15470,Churchill Street,48195,42.1943573,-83.2107012
15460,Churchill Street,48195,42.1944936,-83.2106954
15450,Churchill Street,48195,42.1946257,-83.2107027
15440,Churchill Street,48195,42.1947639,-83.2106954
15430,Churchill Street,48195,42.1948967,-83.2106913
15420,Churchill Street,48195,42.1950310,-83.2107102
15410,Churchill Street,48195,42.1951637,-83.2107078
15401,Devoe Street,48195,42.1951548,-83.2112848
15411,Devoe Street,48195,42.1950209,-83.2112757
15421,Devoe Street,48195,42.1948834,-83.2112732
15431,Devoe Street,48195,42.1947519,-83.2112633
15441,Devoe Street,48195,42.1946174,-83.2112582
15451,Devoe Street,48195,42.1944841,-83.2112582
15461,Devoe Street,48195,42.1943490,-83.2112582
15471,Devoe Street,48195,42.1942157,-83.2112575
15601,Devoe Street,48195,42.1940793,-83.2112517
15609,Devoe Street,48195,42.1939442,-83.2112402
15619,Devoe Street,48195,42.1938109,-83.2112369
15629,Devoe Street,48195,42.1936764,-83.2112261
15639,Devoe Street,48195,42.1935407,-83.2112203
15649,Devoe Street,48195,42.1934086,-83.2112294
15659,Devoe Street,48195,42.1932716,-83.2112145
15669,Devoe Street,48195,42.1931390,-83.2112105
15679,Devoe Street,48195,42.1930038,-83.2112163
15689,Devoe Street,48195,42.1928681,-83.2112063
15699,Devoe Street,48195,42.1927336,-83.2111997
15709,Devoe Street,48195,42.1925976,-83.2112082
15719,Devoe Street,48195,42.1924615,-83.2111866
15729,Devoe Street,48195,42.1923233,-83.2111775
15739,Devoe Street,48195,42.1921845,-83.2111782
15749,Devoe Street,48195,42.1920469,-83.2111742
15759,Devoe Street,48195,42.1919173,-83.2111799
15677,Noecker Way,48195,42.2207971,-83.2164908
15555,Noecker Way,48195,42.2208025,-83.2153431
12015,Fordline Street,48195,42.2206748,-83.2000755
15341,Devoe Street,48195,42.1960010,-83.2113045
15331,Devoe Street,48195,42.1961384,-83.2113090
15321,Devoe Street,48195,42.1962727,-83.2113143
15311,Devoe Street,48195,42.1964110,-83.2113178
15181,Devoe Street,48195,42.1965474,-83.2113284
15171,Devoe Street,48195,42.1966831,-83.2113320
15161,Devoe Street,48195,42.1968188,-83.2113293
15151,Devoe Street,48195,42.1969544,-83.2113479
15428,Devoe Street,48195,42.1955354,-83.2118218
15438,Devoe Street,48195,42.1953725,-83.2118211
15444,Devoe Street,48195,42.1952051,-83.2118117
15450,Devoe Street,48195,42.1950282,-83.2118037
15460,Devoe Street,48195,42.1948643,-83.2118030
15470,Devoe Street,48195,42.1946978,-83.2117943
15480,Devoe Street,48195,42.1945359,-83.2118128
15490,Devoe Street,48195,42.1943560,-83.2117775
15670,Devoe Street,48195,42.1931910,-83.2117506
15650,Devoe Street,48195,42.1933549,-83.2117487
15640,Devoe Street,48195,42.1935337,-83.2117729
15371,Devoe Street,48195,42.1955896,-83.2113022
15361,Devoe Street,48195,42.1957272,-83.2113003
15351,Devoe Street,48195,42.1958631,-83.2113033
15630,Devoe Street,48195,42.1936964,-83.2117919
15600,Devoe Street,48195,42.1941723,-83.2117989
16333,Allen Road,48195,42.1884432,-83.2268691
16201,Allen Road,48195,42.1897920,-83.2270870
12862,Peach Street,48195,42.1942430,-83.1818282
12882,Peach Street,48195,42.1942315,-83.1820165
12894,Peach Street,48195,42.1942269,-83.1821522
15141,Devoe Street,48195,42.1970878,-83.2113465
15131,Devoe Street,48195,42.1972232,-83.2113349
15121,Devoe Street,48195,42.1973560,-83.2113618
15111,Devoe Street,48195,42.1974917,-83.2113604
15101,Devoe Street,48195,42.1976274,-83.2113664
15091,Devoe Street,48195,42.1977624,-83.2113644
15081,Devoe Street,48195,42.1978970,-83.2113657
15071,Devoe Street,48195,42.1980293,-83.2113812
15061,Devoe Street,48195,42.1981643,-83.2113832
12811,Cherry Street,48195,42.1965315,-83.1810356
14170,Pennsylvania Road,48195,42.1853991,-83.1949809
14312,Pennsylvania Road,48195,42.1851461,-83.1958764
15400,Trenton Road,48195,42.1971112,-83.1943714
15620,Devoe Street,48195,42.1938622,-83.2117699
15610,Devoe Street,48195,42.1940255,-83.2117948
15381,Devoe Street,48195,42.1954592,-83.2112934
13169,Spruce Street,48195,42.1928908,-83.1843971
13181,Spruce Street,48195,42.1928789,-83.1845752
13157,Spruce Street,48195,42.1928906,-83.1842518
13145,Spruce Street,48195,42.1928701,-83.1840498
13121,Spruce Street,48195,42.1928877,-83.1838272
13025,Spruce Street,48195,42.1928848,-83.1826468
13013,Spruce Street,48195,42.1928590,-83.1825062
13180,Leroy Street,48195,42.1924676,-83.1845412
13129,Peach Street,48195,42.1937840,-83.1839313
13145,Peach Street,48195,42.1937709,-83.1841517
13073,Peach Street,48195,42.1937869,-83.1832724
13061,Peach Street,48195,42.1937978,-83.1831182
13013,Peach Street,48195,42.1937851,-83.1825143
13025,Peach Street,48195,42.1937827,-83.1826776
13037,Peach Street,48195,42.1937753,-83.1828146
13109,Peach Street,48195,42.1937556,-83.1837064
13085,Peach Street,48195,42.1937614,-83.1834124
12846,Peach Street,48195,42.1942452,-83.1816112
12810,Peach Street,48195,42.1942564,-83.1811318
14736,Eureka Road,48195,42.1993628,-83.2040978
14799,Dix-Toledo Highway,48195,42.2009286,-83.2067699
14801,Dix-Toledo Highway,48195,42.2014193,-83.2077647
13631,Burns Street,48195,42.2207866,-83.1912132
19200,Northline Road,48195,42.2135412,-83.2278086
15600,Trenton Road,48195,42.1957123,-83.1943079
15300,Trenton Road,48195,42.1978202,-83.1938621
18777,Northline Road,48195,42.2119930,-83.2259131
13181,Orchard Street,48195,42.1947025,-83.1846002
15638,Fort Street,48195,42.1945132,-83.1807511
13659,Irene Street,48195,42.2083174,-83.1975373
14319,Dix-Toledo Highway,48195,42.2039522,-83.2049277
14063,Dix-Toledo Highway,48195,42.2053502,-83.2031529
11205,Allen Road,48195,42.2259095,-83.2294030
11255,Allen Road,48195,42.2253950,-83.2287500
11501,Allen Road,48195,42.2230005,-83.2281750
11511,Allen Road,48195,42.2222425,-83.2290285
12801,Allen Road,48195,42.2144340,-83.2288765
13099,Allen Road,48195,42.2121560,-83.2285020
13101,Allen Road,48195,42.2114309,-83.2285232
15055,Allen Road,48195,42.1978806,-83.2279104
16705,Allen Road,48195,42.1868904,-83.2269400
18635,Bowie Street,48195,42.2252550,-83.2234215
15200,Brest Street,48195,42.2210570,-83.2091080
13300,Burns Street,48195,42.2116624,-83.1917299
12045,Dix-Toledo Highway,48195,42.2206733,-83.1936852
12125,Dix-Toledo Highway,48195,42.2198565,-83.1935810
12219,Dix-Toledo Highway,48195,42.2191684,-83.1935689
12269,Dix-Toledo Highway,48195,42.2187255,-83.1935515
12319,Dix-Toledo Highway,48195,42.2183940,-83.1934560
12357,Dix-Toledo Highway,48195,42.2182250,-83.1935182
12425,Dix-Toledo Highway,48195,42.2175060,-83.1935120
12455,Dix-Toledo Highway,48195,42.2171510,-83.1933730
12649,Dix-Toledo Highway,48195,42.2156561,-83.1934762
12923,Dix-Toledo Highway,48195,42.2143380,-83.1933200
13193,Dix-Toledo Highway,48195,42.2117482,-83.1954121
13247,Dix-Toledo Highway,48195,42.2114060,-83.1960450
13275,Dix-Toledo Highway,48195,42.2108915,-83.1963745
13293,Dix-Toledo Highway,48195,42.2109620,-83.1965930
13337,Dix-Toledo Highway,48195,42.2105567,-83.1970639
13465,Dix-Toledo Highway,48195,42.2095850,-83.1980080
13535,Dix-Toledo Highway,48195,42.2089417,-83.1990621
13667,Dix-Toledo Highway,48195,42.2077295,-83.2002265
14035,Dix-Toledo Highway,48195,42.2057775,-83.2027640
14167,Dix-Toledo Highway,48195,42.2045864,-83.2040470
14725,Dix-Toledo Highway,48195,42.2029170,-83.2061815
14797,Dix-Toledo Highway,48195,42.2017860,-83.2071465
15151,Dix-Toledo Highway,48195,42.1978340,-83.2119985
12100,Dix-Toledo Highway,48195,42.2200240,-83.1943870
12500,Dix-Toledo Highway,48195,42.2168010,-83.1942585
12614,Dix-Toledo Highway,48195,42.2159435,-83.1941920
12642,Dix-Toledo Highway,48195,42.2157050,-83.1941645
12678,Dix-Toledo Highway,48195,42.2154135,-83.1942155
13150,Dix-Toledo Highway,48195,42.2128135,-83.1954565
13206,Dix-Toledo Highway,48195,42.2121905,-83.1961220
13260,Dix-Toledo Highway,48195,42.2116235,-83.1966079
13400,Dix-Toledo Highway,48195,42.2104387,-83.1980576
13414,Dix-Toledo Highway,48195,42.2104065,-83.1982565
13466,Dix-Toledo Highway,48195,42.2098410,-83.1987132
13494,Dix-Toledo Highway,48195,42.2095451,-83.1993382
13720,Dix-Toledo Highway,48195,42.2076598,-83.2015574
15332,Dix-Toledo Highway,48195,42.1953405,-83.2159610
15480,Dix-Toledo Highway,48195,42.1943440,-83.2171695
16020,Dix-Toledo Highway,48195,42.1921155,-83.2196465
16200,Dix-Toledo Highway,48195,42.1910005,-83.2211860
16400,Dix-Toledo Highway,48195,42.1877135,-83.2253360
15255,Goddard Road,48195,42.2274965,-83.2099903
15351,Goddard Road,48195,42.2276625,-83.2112510
15351,Goddard Road,48195,42.2273105,-83.2114255
15361,Goddard Road,48195,42.2275845,-83.2118190
15705,Goddard Road,48195,42.2262518,-83.2174404
16001,Goddard Road,48195,42.2273825,-83.2199630
19001,Goddard Road,48195,42.2254465,-83.2280489
19141,Goddard Road,48195,42.2272158,-83.2292887
13220,Leroy Street,48195,42.1923368,-83.1865246
16000,Leroy Street,48195,42.1943903,-83.2137192
14775,Fordline Street,48195,42.2011897,-83.1991247
12600,Fordline Street,48195,42.2158971,-83.2015397
14290,Northline Road,48195,42.2139835,-83.1976580
14312,Northline Road,48195,42.2139020,-83.1982140
14432,Northline Road,48195,42.2139250,-83.1995287
14560,Northline Road,48195,42.2151291,-83.2022462
14752,Northline Road,48195,42.2142690,-83.2044330
14950,Northline Road,48195,42.2141190,-83.2053753
15750,Northline Road,48195,42.2139560,-83.2153090
1996,Northline Road,48195,42.2134335,-83.1836885
13225,Northline Road,48195,42.2133970,-83.1858755
13571,Northline Road,48195,42.2134487,-83.1902067
13745,Northline Road,48195,42.2134420,-83.1922465
13763,Northline Road,48195,42.2131189,-83.1926898
14085,Northline Road,48195,42.2134245,-83.1956410
14405,Northline Road,48195,42.2132405,-83.1993010
14523,Northline Road,48195,42.2132095,-83.2010290
14535,Northline Road,48195,42.2132115,-83.2015870
14585,Northline Road,48195,42.2133195,-83.2022920
14755,Northline Road,48195,42.2130070,-83.2050390
14951,Northline Road,48195,42.2130330,-83.2058830
15099,Northline Road,48195,42.2131360,-83.2069770
15755,Northline Road,48195,42.2130020,-83.2156538
19275,Northline Road,48195,42.2118280,-83.2273065
14755,Old Goddard Road,48195,42.2225650,-83.2032870
15205,Old Goddard Road,48195,42.2221413,-83.2063163
14222,Pennsylvania Road,48195,42.1868467,-83.1950560
14400,Pennsylvania Road,48195,42.1851183,-83.1979125
3,Heritage Place,48195,42.2114570,-83.2223675
16500,Quarry Road,48195,42.1868046,-83.1808860
11900,Reeck Road,48195,42.2206961,-83.2202379
12600,Reeck Road,48195,42.2162797,-83.2205962
13400,Reeck Road,48195,42.2092640,-83.2202347
13330,Trenton Road,48195,42.2109745,-83.1939805
13330,Trenton Road,48195,42.2109025,-83.1943280
15100,Devoe Street,48195,42.1968933,-83.2118679
15060,Devoe Street,48195,42.1970883,-83.2119034
15051,Devoe Street,48195,42.1982981,-83.2113930
16240,Fort Street,48195,42.1907164,-83.1814252
16230,Fort Street,48195,42.1909756,-83.1812585
13789,Dix-Toledo Highway,48195,42.2065508,-83.2018900
16100,Northline Road,48195,42.2139619,-83.2195388
16100,Fort Street,48195,42.1916714,-83.1817662
15700,Leroy Street,48195,42.1922103,-83.2120437
12828,Peach Street,48195,42.1942310,-83.1814035
13155,Peach Street,48195,42.1937772,-83.1843588
13181,Peach Street,48195,42.1937620,-83.1846055
16300,Dix-Toledo Highway,48195,42.1896604,-83.2230354
15669,Churchill Street,48195,42.1932967,-83.2099989
15160,Devoe Street,48195,42.1967142,-83.2118842
15680,Devoe Street,48195,42.1930124,-83.2117351
13063,Eureka Road,48195,42.1991072,-83.1837795
14640,Brest Street,48195,42.2210662,-83.2024989
14250,Reeck Road,48195,42.2044984,-83.2201050
17201,Northline Road,48195,42.2118602,-83.2204587
16777,Northline Road,48195,42.2124583,-83.2186702
