House number,Street name,Postal code,Latitude,Longitude
42705,Van Dyke Avenue,48314,42.6071945,-83.0329235
2149,E 15 Mile Rd,48310,42.5499232,-83.0862049
2079,E 15 Mile Rd,48310,42.5497590,-83.0868063
3678,15 Mile Road,48310,42.5500706,-83.0704539
4191,15 Mile Road,48310,42.5505543,-83.0672391
38500,Mound Road,48310,42.5764550,-83.0457685
4220,15 Mile Road,48310,42.5494740,-83.0661886
5857,15 Mile Road,48310-5708,42.5509959,-83.0490308
35155,Mound Road,48310-4716,42.5517862,-83.0491381
35537,Ryan Road,48310,42.5540253,-83.0701696
3909,East 14 Mile Road,48310,42.5359296,-83.0692654
33170,Ryan Road,48310-6478,42.5367360,-83.0679565
36950,Dequindre Road,48310,42.5635771,-83.0882273
1925,Metropolitan Parkway,48310,42.5644838,-83.0882259
2210,Metropolitan Parkway,48310-4207,42.5633796,-83.0861065
4050,15 Mile Road,48310,42.5500437,-83.0687440
4147,15 Mile Road,48310,42.5509052,-83.0674492
3875,15 Mile Road,48310,42.5507417,-83.0697793
3602,15 Mile Road,48310,42.5501464,-83.0711775
34075,Ryan Rd,48310,42.5432658,-83.0692194
4051,East 14 Mile Road,48310,42.5357036,-83.0681036
5757,15 Mile Road,48310,42.5508732,-83.0503369
5950,15 Mile Road,48312,42.5501056,-83.0476520
4900,SouthLawn Drive,48310,42.5398209,-83.0602356
2095,Metropolitan Parkway,48310,42.5644768,-83.0868764
40980,Dequindre Road,48310,42.5926000,-83.0892841
40970,Mound Road,48310,42.5937775,-83.0499552
44478,Mound Road,48314,42.6217962,-83.0515568
4018,Lindow Drive,48310,42.5523266,-83.0689722
4117,Lindow Drive,48310,42.5528458,-83.0678162
4034,Lindow Drive,48310,42.5523488,-83.0687143
4046,Lindow Drive,48310,42.5523646,-83.0684909
4131,Lindow Drive,48310,42.5528553,-83.0675928
4104,Lindow Drive,48310,42.5523804,-83.0680612
4058,Lindow Drive,48310,42.5523709,-83.0682846
4143,Lindow Drive,48310,42.5528743,-83.0673435
4116,Lindow Drive,48310,42.5523899,-83.0678076
4130,Lindow Drive,48310,42.5523899,-83.0675928
35297,Vito Drive,48310,42.5529217,-83.0651067
4142,Lindow Drive,48310,42.5523963,-83.0673220
4154,Lindow Drive,48310,42.5524089,-83.0671158
4155,Lindow Drive,48310,42.5528869,-83.0668966
4166,Lindow Drive,48310,42.5523994,-83.0669009
4178,Lindow Drive,48310,42.5524089,-83.0666688
4194,Lindow Drive,48310,42.5524342,-83.0663852
4215,Lindow Drive,48310,42.5528648,-83.0658867
35274,Cavant Drive,48310,42.5526843,-83.0657578
35262,Cavant Drive,48310,42.5524944,-83.0657191
35239,Cavant Drive,48310,42.5521620,-83.0663852
35250,Cavant Drive,48310,42.5523614,-83.0657449
35227,Cavant Drive,48310,42.5519974,-83.0663809
35238,Cavant Drive,48310,42.5521462,-83.0657492
35215,Cavant Drive,48310,42.5518257,-83.0663740
35224,Cavant Drive,48310,42.5519689,-83.0657320
35203,Cavant Drive,48310,42.5516682,-83.0663680
35092,Cavant Drive,48310,42.5515510,-83.0656977
35091,Cavant Drive,48310,42.5515035,-83.0663637
35079,Cavant Drive,48310,42.5513484,-83.0663508
35078,Cavant Drive,48310,42.5513769,-83.0656891
35067,Cavant Drive,48310,42.5511711,-83.0663380
35066,Cavant Drive,48310,42.5512028,-83.0656934
35055,Cavant Drive,48310,42.5510002,-83.0663380
35054,Cavant Drive,48310,42.5510350,-83.0656848
35043,Cavant Drive,48310,42.5508324,-83.0663380
35042,Cavant Drive,48310,42.5508451,-83.0656977
35015,Cavant Drive,48310,42.5503564,-83.0661300
35012,Cavant Drive,48310,42.5503892,-83.0655601
4251,15 Mile Road,48310,42.5504051,-83.0664291
4241,15 Mile Road,48310,42.5503977,-83.0667948
35285,Vito Drive,48310,42.5527298,-83.0651819
35273,Vito Drive,48310,42.5525637,-83.0652169
35261,Vito Drive,48310,42.5524161,-83.0652169
35249,Vito Drive,48310,42.5522612,-83.0651919
4265,Singh Drive,48310,42.5519918,-83.0651368
4253,Singh Drive,48310,42.5520213,-83.0653472
35089,Vito Drive,48310,42.5515121,-83.0651418
35077,Vito Drive,48310,42.5513497,-83.0652219
35065,Vito Drive,48310,42.5511763,-83.0652169
35053,Vito Drive,48310,42.5510029,-83.0651769
35041,Vito Drive,48310,42.5508516,-83.0652019
35029,Vito Drive,48310,42.5506892,-83.0651819
35017,Vito Drive,48310,42.5505269,-83.0651919
35005,Vito Drive,48310,42.5503645,-83.0651769
12235,Brougham Drive,48312,42.5590740,-83.0026001
12901,15 Mile Road,48312,42.5527518,-82.9973149
12901,15 Mile Road,48312,42.5527948,-82.9972760
44835,Schoenherr Road,48313,42.6256126,-82.9960477
6335,Progress Drive,48312,42.5683074,-83.0438577
38500,Mound Road,48310,42.5765244,-83.0446925
33130,Ryan Road,48310,42.5367295,-83.0673007
11651,15 Mile Road,48312,42.5520969,-83.0090343
11743,15 Mile Road,48312,42.5521852,-83.0082943
40901,Hayes Rd,48313,42.5969242,-82.9731579
38500,Mound Road,48310,42.5760378,-83.0455293
5584,Metropolitan Pkwy,48310,42.5646047,-83.0519245
37037,Mound Road,48310,42.5656349,-83.0499687
12050,Hall Road,48313,42.6232379,-83.0083677
37412,Dequindre Road,48310,42.5666944,-83.0882666
14000,Metropolitan Parkway,48312,42.5656118,-82.9839733
13776,Southcove Drive,48313,42.6185047,-82.9899421
33300,Dequindre Road,48310,42.5375233,-83.0864590
33452,Van Dyke Avenue,48312,42.5401368,-83.0283714
33476,Van Dyke Avenue,48312,42.5403696,-83.0283673
33700,Van Dyke Avenue,48312,42.5416820,-83.0282286
33700,Van Dyke Avenue,48312,42.5416559,-83.0285240
5742,15 Mile Road,48310,42.5499216,-83.0503526
15124,Hall Road,48313,42.6264183,-82.9742807
40375,Utica Road,48313,42.5909883,-83.0107259
13630,Hall Road,48313,42.6262575,-82.9923850
13630,Hall Road,48313,42.6264183,-82.9923829
1925,Metropolitan Parkway,48310,42.5645184,-83.0883068
3980,Metropolitan Parkway,48310,42.5640018,-83.0703923
3980,Metropolitan Parkway,48310,42.5640270,-83.0705385
43632,Schoenherr Road,48313,42.6159943,-82.9917701
43611,Schoenherr Road,48313,42.6160831,-82.9934800
13700,Canal Road,48313,42.6142760,-82.9916199
4051,East 14 Mile Road,48310,42.5358356,-83.0680212
13651,14 Mile Road,48312,42.5381915,-82.9885058
13555,East 14 Mile Road,48312,42.5381509,-82.9896404
13135,East 14 Mile Road,48312,42.5380005,-82.9935955
4019,Metropolitan Parkway,48310,42.5653669,-83.0690727
36950,Dequindre Road,48310,42.5633568,-83.0881955
42950,Dequindre Road,48314,42.6070581,-83.0899975
40980,Dequindre Road,48310,42.5926162,-83.0891617
2375,18 Mile Road,48314,42.5935622,-83.0856594
4025,18 Mile Road,48314,42.5943984,-83.0699560
5955,18 Mile Road,48314,42.5947021,-83.0498801
5955,18 Mile Road,48314,42.5947445,-83.0497929
42986,Mound Road,48314,42.6085070,-83.0507223
42986,Mound Road,48314,42.6084793,-83.0504890
44615,Mound Road,48314,42.6214823,-83.0562302
44645,Mound Road,48314,42.6221475,-83.0571958
40970,Mound Road,48310,42.5938762,-83.0499284
38951,Mound Road,48310,42.5792810,-83.0506171
36945,Mound Road,48310,42.5645747,-83.0503133
34611,Mound Road,48310,42.5478362,-83.0488488
5757,15 Mile Road,48310,42.5510451,-83.0502865
4050,15 Mile Road,48310,42.5499095,-83.0687273
5950,15 Mile Road,48312,42.5500651,-83.0473682
3875,15 Mile Road,48310,42.5508921,-83.0698183
35950,Dequindre Road,48310,42.5558524,-83.0878937
2051,18 Mile Road,48314,42.5946890,-83.0886300
34949,Van Dyke Avenue,48312,42.5507794,-83.0295067
43592,Van Dyke Avenue,48314,42.6153222,-83.0301484
42877,Van Dyke Avenue,48314,42.6089087,-83.0323747
42877,Van Dyke Avenue,48314,42.6088850,-83.0320314
42851,Van Dyke Avenue,48314,42.6088051,-83.0323747
43400,Van Dyke Avenue,48314,42.6136384,-83.0313461
43250,Van Dyke Avenue,48314,42.6110644,-83.0306903
40500,Van Dyke Avenue,48313,42.5915432,-83.0303215
13475,15 Mile Road,48312,42.5527167,-82.9907119
34955,Schoenherr Road,48312,42.5518839,-82.9902023
13233,15 Mile Road,48312,42.5533821,-82.9930859
11541,15 Mile Road,48312,42.5519392,-83.0101425
13935,Plumbrook Road,48312,42.5749335,-82.9873134
13927,Plumbrook Road,48312,42.5749194,-82.9876217
14500,Metropolitan Parkway,48312,42.5650865,-82.9853257
40111,Van Dyke Avenue,48313,42.5881862,-83.0314786
37144,Dequindre Road,48310,42.5472202,-83.0876930
34756,Dequindre Road,48310,42.5483107,-83.0874793
37206,Dequindre Road,48310,42.5475122,-83.0873392
33862,Dequindre Road,48310,42.5409588,-83.0869598
33860,Dequindre Road,48310,42.5410465,-83.0869699
33187,Glengary Drive,48310,42.5381766,-83.0650246
33890,Dequindre Road,48310,42.5415991,-83.0869108
25100,Ryan Road,48310,42.5513307,-83.0687598
4051,15 Mile Road,48310,42.5508286,-83.0686262
5717,15 Mile Road,48310,42.5517194,-83.0505627
3843,15 Mile Road,48310,42.5523448,-83.0701474
3815,15 Mile Road,48310,42.5522844,-83.0705957
13975,Lakeside Circle,48313,42.6264201,-82.9878272
13850,Lakeside Circle,48313,42.6203555,-82.9886363
36401,Van Dyke Avenue,48312,42.5618071,-83.0302370
39600,Mitchell Drive,48313,42.5848507,-83.0357192
38111,Van Dyke Avenue,48312,42.5698937,-83.0307069
39111,Mitchell Drive,48313,42.5815615,-83.0388567
42918,Schoenherr Road,48313,42.6097151,-82.9914616
40111,Van Dyke Avenue,48313,42.5881788,-83.0318008
44887,Mound Road,48314,42.6235191,-83.0590130
44100,Schoenherr Road,48313,42.6181141,-82.9916695
44200,Schoenherr Road,48313,42.6194099,-82.9911250
42124,Van Dyke Avenue,48314,42.6029486,-83.0305204
13375,Stonegate Drive,48312,42.5421552,-82.9898502
13375,Stonegate Drive,48312,42.5422220,-82.9899297
13375,Stonegate Drive,48312,42.5421946,-82.9899290
13533,Stonegate Drive,48312,42.5421991,-82.9911627
13545,Stonegate Drive,48312,42.5422456,-82.9908598
13557,Stonegate Drive,48312,42.5422643,-82.9905578
13521,Stonegate Drive,48312,42.5419762,-82.9911325
13359,Stonegate Drive,48312,42.5416291,-82.9916880
13347,Stonegate Drive,48312,42.5418503,-82.9917127
13335,Stonegate Drive,48312,42.5421594,-82.9917280
13323,Stonegate Drive,48312,42.5422233,-82.9920151
13311,Stonegate Drive,48312,42.5422047,-82.9923139
13360,Stonegate Drive,48312,42.5412034,-82.9916829
13348,Stonegate Drive,48312,42.5409817,-82.9916492
13336,Stonegate Drive,48312,42.5407886,-82.9918396
13324,Stonegate Drive,48312,42.5407693,-82.9921280
13312,Stonegate Drive,48312,42.5409408,-82.9923400
13222,Stonegate Drive,48312,42.5412915,-82.9929478
13210,Stonegate Drive,48312,42.5410699,-82.9929266
13186,Stonegate Drive,48312,42.5410295,-82.9935856
13198,Stonegate Drive,48312,42.5408130,-82.9935795
13174,Stonegate Drive,48312,42.5413163,-82.9935974
13162,Stonegate Drive,48312,42.5416202,-82.9936093
13150,Stonegate Drive,48312,42.5418409,-82.9936157
13115,Stonegate Drive,48312,42.5421656,-82.9934859
13127,Stonegate Drive,48312,42.5421842,-82.9931878
13139,Stonegate Drive,48312,42.5419936,-82.9929787
13151,Stonegate Drive,48312,42.5417749,-82.9929575
13469,East 14 Mile Road,48312,42.5387340,-82.9914578
13409,East 14 Mile Road,48312,42.5382360,-82.9917418
35170,Dodge Park Road,48312,42.5530294,-83.0083376
35170,Dodge Park Road,48312,42.5532989,-83.0077932
35204,Dodge Park Road,48312,42.5533350,-83.0083479
35214,Dodge Park Road,48312,42.5536739,-83.0083597
35240,Dodge Park Road,48312,42.5537264,-83.0085069
35240,Dodge Park Road,48312,42.5537277,-83.0084391
35240,Dodge Park Road,48312,42.5537252,-83.0085678
35252,Dodge Park Road,48312,42.5537229,-83.0086818
35254,Dodge Park Road,48312,42.5537220,-83.0087269
35260,Dodge Park Road,48312,42.5537194,-83.0088556
35262,Dodge Park Road,48312,42.5537179,-83.0089313
35264,Dodge Park Road,48312,42.5537138,-83.0091280
12151,15 Mile Road,48312,42.5526450,-83.0052005
12151,15 Mile Road,48312,42.5523972,-83.0056346
14100,Heritage Road,48312,42.5432305,-82.9832788
34486,Moravian Drive,48312,42.5483571,-82.9865899
13800,15 Mile Road,48312,42.5520126,-82.9884680
13800,15 Mile Road,48312,42.5515198,-82.9885574
13727,Plumbrook Road,48312,42.5747992,-82.9889326
13727,Plumbrook Road,48312,42.5746436,-82.9891054
13400,15 Mile Road,48312,42.5515372,-82.9916623
13408,15 Mile Road,48312,42.5515427,-82.9914671
13426,15 Mile Road,48312,42.5515452,-82.9913807
13438,15 Mile Road,48312,42.5515501,-82.9912114
13450,15 Mile Road,48312,42.5515535,-82.9910928
13456,15 Mile Road,48312,42.5515568,-82.9909768
13474,15 Mile Road,48312,42.5515622,-82.9907888
13480,15 Mile Road,48312,42.5515659,-82.9906594
13432,15 Mile Road,48312,42.5515475,-82.9913001
13462,15 Mile Road,48312,42.5515591,-82.9908985
13255,15 Mile Road,48312,42.5533931,-82.9925757
13335,15 Mile Road,48312,42.5533376,-82.9916519
13367,15 Mile Road,48312,42.5533532,-82.9911454
13411,15 Mile Road,48312,42.5534297,-82.9905402
13425,15 Mile Road,48312,42.5536566,-82.9905515
13417,15 Mile Road,48312,42.5535818,-82.9905478
13401,15 Mile Road,48312,42.5533362,-82.9905356
13375,15 Mile Road,48312,42.5533615,-82.9908740
13359,15 Mile Road,48312,42.5533480,-82.9913147
13347,15 Mile Road,48312,42.5533454,-82.9913962
13339,15 Mile Road,48312,42.5533419,-82.9915116
13331,15 Mile Road,48312,42.5533339,-82.9917724
13305,15 Mile Road,48312,42.5533241,-82.9920905
13323,15 Mile Road,48312,42.5533303,-82.9918880
2505,East 14 Mile Road,48310,42.5354475,-83.0809208
37771,Schoenherr Road,48312,42.5678428,-82.9893777
37771,Schoenherr Road,48312,42.5681395,-82.9889834
37771,Schoenherr Road,48312,42.5679156,-82.9891071
38165,Utica Road,48312,42.5752222,-82.9861455
38161,Utica Road,48312,42.5751862,-82.9860514
38149,Utica Road,48312,42.5750442,-82.9856802
38151,Utica Road,48312,42.5751039,-82.9858361
13921,Plumbrook Road,48312,42.5749143,-82.9877337
13951,Plumbrook Road,48312,42.5749396,-82.9871790
13969,Plumbrook Road,48312,42.5749512,-82.9869257
39880,Van Dyke Avenue,48313,42.5863585,-83.0296573
38300,Van Dyke Avenue,48312,42.5756650,-83.0287268
38300,Van Dyke Avenue,48312,42.5756650,-83.0284935
36480,Van Dyke Avenue,48312,42.5619856,-83.0276917
36888,Van Dyke Avenue,48312,42.5643111,-83.0288791
8244,Metropolitan Parkway,48312,42.5653462,-83.0253287
8244,Metropolitan Parkway,48312,42.5651484,-83.0253209
8244,Metropolitan Parkway,48312,42.5652663,-83.0253255
8244,Metropolitan Parkway,48312,42.5650496,-83.0253170
39333,Van Dyke Avenue,48313,42.5824164,-83.0307721
40424,Van Dyke Avenue,48313,42.5901142,-83.0301380
40428,Van Dyke Avenue,48313,42.5904547,-83.0299934
9001,15 Mile Road,48312,42.5519576,-83.0191847
9001,15 Mile Road,48312,42.5518245,-83.0191417
36260,Van Dyke Avenue,48312,42.5602700,-83.0288027
36250,Van Dyke Avenue,48312,42.5595649,-83.0286453
36200,Van Dyke Avenue,48312,42.5579860,-83.0283699
36200,Van Dyke Avenue,48312,42.5579997,-83.0284735
36200,Van Dyke Avenue,48312,42.5582176,-83.0285957
35790,Van Dyke Avenue,48312,42.5565024,-83.0284466
39099,Van Dyke Avenue,48313,42.5811963,-83.0307500
39099,Van Dyke Avenue,48313,42.5812988,-83.0308128
7837,Metropolitan Parkway,48312,42.5659769,-83.0314898
7837,Metropolitan Parkway,48312,42.5659783,-83.0314409
7839,Metropolitan Parkway,48312,42.5659819,-83.0313129
7839,Metropolitan Parkway,48312,42.5659838,-83.0312430
7855,Metropolitan Parkway,48312,42.5659933,-83.0309765
7839,Metropolitan Parkway,48312,42.5659719,-83.0311699
7839,Metropolitan Parkway,48312,42.5659700,-83.0312424
7843,Metropolitan Parkway,48312,42.5659893,-83.0311134
7839,Metropolitan Parkway,48312,42.5659734,-83.0311129
39111,Mitchell Drive,48313,42.5818421,-83.0372663
39111,Mitchell Drive,48313,42.5808747,-83.0382642
39111,Mitchell Drive,48313,42.5808761,-83.0382032
39111,Mitchell Drive,48313,42.5808791,-83.0380760
39111,Mitchell Drive,48313,42.5808804,-83.0380189
39111,Mitchell Drive,48313,42.5808819,-83.0379559
39111,Mitchell Drive,48313,42.5808833,-83.0378950
39111,Mitchell Drive,48313,42.5808776,-83.0381402
39111,Mitchell Drive,48313,42.5808848,-83.0378319
38500,Mound Road,48310,42.5757483,-83.0433954
38500,Mound Road,48310,42.5755409,-83.0433709
38500,Mound Road,48310,42.5754483,-83.0443916
38500,Mound Road,48310,42.5763957,-83.0476406
38500,Mound Road,48310,42.5764120,-83.0469287
7600,18 Mile Road,48314,42.5943645,-83.0333357
40955,Van Dyke Avenue,48313,42.5944858,-83.0312891
7150,18 Mile Road,48314,42.5942125,-83.0382635
7775,18 1/2 Mile Road,48314,42.6026221,-83.0336433
42111,18 1/2 Mile Road,48314,42.6027261,-83.0320347
42250,Yearego Drive,48314,42.6030446,-83.0344855
42250,Yearego Drive,48314,42.6029230,-83.0346405
42288,Yearego Drive,48314,42.6041452,-83.0345187
42268,Yearego Drive,48314,42.6038262,-83.0344258
42258,Yearego Drive,48314,42.6038226,-83.0345612
39485,Mound Road,48310,42.5836422,-83.0508223
7575,18 1/2 Mile Road,48314,42.6024223,-83.0372489
7077,18 1/2 Mile Road,48314,42.6023649,-83.0397957
7255,18 1/2 Mile Road,48314,42.6023636,-83.0384874
42455,Merrill Road,48314,42.6048221,-83.0465419
42455,Merrill Road,48314,42.6050935,-83.0468044
42455,Merrill Road,48314,42.6045204,-83.0467207
42555,Merrill Road,48314,42.6055831,-83.0467030
40111,Van Dyke Avenue,48313,42.5882065,-83.0316183
40111,Van Dyke Avenue,48313,42.5881549,-83.0314774
40111,Van Dyke Avenue,48313,42.5878909,-83.0311610
38700,Van Dyke Avenue,48312,42.5784413,-83.0295677
38700,Van Dyke Avenue,48312,42.5784468,-83.0293931
38700,Van Dyke Avenue,48312,42.5784522,-83.0292211
38700,Van Dyke Avenue,48312,42.5784578,-83.0290437
38800,Van Dyke Avenue,48312,42.5788749,-83.0296059
38800,Van Dyke Avenue,48312,42.5788797,-83.0294857
38800,Van Dyke Avenue,48312,42.5788817,-83.0293510
38800,Van Dyke Avenue,48312,42.5788148,-83.0295414
38800,Van Dyke Avenue,48312,42.5788193,-83.0293910
38850,Van Dyke Avenue,48312,42.5791433,-83.0297389
38850,Van Dyke Avenue,48312,42.5791837,-83.0296138
38850,Van Dyke Avenue,48312,42.5792263,-83.0294820
35100,Tiffany Drive,48312,42.5521974,-83.0232697
35100,Tiffany Drive,48312,42.5521516,-83.0233302
8515,15 Mile Road,48312,42.5522417,-83.0246351
37824,Van Dyke Avenue,48312,42.5721422,-83.0279261
11870,Eldorado Drive,48312,42.5554519,-83.0051323
12901,15 Mile Road,48312,42.5540233,-82.9973711
12901,15 Mile Road,48312,42.5528480,-82.9966031
12901,15 Mile Road,48312,42.5530255,-82.9965778
12901,15 Mile Road,48312,42.5541409,-82.9964570
12901,15 Mile Road,48312,42.5542860,-82.9963861
12901,15 Mile Road,48312,42.5539908,-82.9966064
12901,15 Mile Road,48312,42.5539805,-82.9967046
12901,15 Mile Road,48312,42.5539485,-82.9968410
12901,15 Mile Road,48312,42.5534038,-82.9966310
12901,15 Mile Road,48312,42.5533326,-82.9965949
12901,15 Mile Road,48312,42.5535970,-82.9967465
12901,15 Mile Road,48312,42.5536116,-82.9967473
12901,15 Mile Road,48312,42.5533781,-82.9975959
12901,15 Mile Road,48312,42.5532318,-82.9978635
12901,15 Mile Road,48312,42.5531167,-82.9978703
12901,15 Mile Road,48312,42.5529765,-82.9979045
12901,15 Mile Road,48312,42.5529405,-82.9979025
12901,15 Mile Road,48312,42.5538035,-82.9975843
12901,15 Mile Road,48312,42.5537716,-82.9975825
12901,15 Mile Road,48312,42.5537372,-82.9975806
8900,15 Mile Road,48312,42.5507784,-83.0211979
8900,15 Mile Road,48312,42.5501180,-83.0211635
34600,Dryden Drive,48312,42.5485646,-83.0117955
8220,Irving Road,48312,42.5442227,-83.0266154
8220,Irving Road,48312,42.5441275,-83.0267640
40433,Dodge Park Road,48313,42.5915287,-83.0114179
40111,Dodge Park Road,48313,42.5887525,-83.0123444
40333,Dodge Park Road,48313,42.5912679,-83.0124947
40255,Dodge Park Road,48313,42.5901555,-83.0122695
38901,Dodge Park Road,48313,42.5802526,-83.0120051
38901,Dodge Park Road,48313,42.5804924,-83.0127651
39660,Spalding Drive,48313,42.5842958,-83.0209007
34949,Van Dyke Avenue,48312,42.5507959,-83.0297230
34703,Van Dyke Avenue,48312,42.5489941,-83.0295608
34703,Van Dyke Avenue,48312,42.5490406,-83.0295632
34701,Van Dyke Avenue,48312,42.5489201,-83.0294844
34703,Van Dyke Avenue,48312,42.5490210,-83.0294890
34715,Van Dyke Avenue,48312,42.5488347,-83.0310147
8401,Constitution Boulevard,48313,42.5923850,-83.0245313
38470,Utica Road,48312,42.5777956,-82.9902077
12060,Greenway Drive,48312,42.5692528,-83.0060854
11303,Greendale Drive,48312,42.5635043,-83.0154166
41700,Montroy Drive,48313,42.6016763,-83.0032096
12000,Clinton River Road,48313,42.6009746,-83.0100585
12000,Clinton River Road,48313,42.6014204,-83.0097819
12828,Canal Road,48313,42.6165276,-83.0000826
13500,19 Mile Road,48313,42.6099516,-82.9927722
38500,Mound Road,48310,42.5761676,-83.0460150
38500,Mound Road,48310,42.5759689,-83.0478668
38500,Mound Road,48310,42.5756539,-83.0472502
38500,Mound Road,48310,42.5755980,-83.0459801
38500,Mound Road,48310,42.5792019,-83.0466732
38500,Mound Road,48310,42.5787728,-83.0479879
38500,Mound Road,48310,42.5784266,-83.0476339
38500,Mound Road,48310,42.5752766,-83.0457889
38500,Mound Road,48310,42.5752951,-83.0450118
38500,Mound Road,48310,42.5753035,-83.0446600
38765,Mound Road,48310,42.5776322,-83.0507977
38765,Mound Road,48310,42.5776243,-83.0510242
38765,Mound Road,48310,42.5776375,-83.0509164
38765,Mound Road,48310,42.5776154,-83.0515223
38765,Mound Road,48310,42.5776206,-83.0511430
38765,Mound Road,48310,42.5775921,-83.0506074
38435,Mound Road,48310,42.5754751,-83.0526792
38435,Mound Road,48310,42.5752376,-83.0525151
37717,Mound Road,48310,42.5704801,-83.0503014
34259,Schoenherr Road,48312,42.5469183,-82.9902051
34257,Schoenherr Road,48312,42.5468651,-82.9901677
34255,Schoenherr Road,48312,42.5468378,-82.9901274
14500,Hall Road,48313,42.6262670,-82.9812901
14500,Hall Road,48313,42.6263133,-82.9807205
14500,Hall Road,48313,42.6263929,-82.9811434
14500,Hall Road,48313,42.6263690,-82.9812806
34354,Moravian Drive,48312,42.5472620,-82.9886722
44833,Mound Road,48314,42.6232626,-83.0571100
36350,Van Dyke Avenue,48312,42.5612128,-83.0289278
36324,Van Dyke Avenue,48312,42.5611549,-83.0287454
36324,Van Dyke Avenue,48312,42.5612219,-83.0285998
36350,Van Dyke Avenue,48312,42.5612294,-83.0286469
36553,Van Dyke Avenue,48312,42.5622807,-83.0312287
36599,Van Dyke Avenue,48312,42.5630988,-83.0314723
36480,Van Dyke Avenue,48312,42.5620504,-83.0279055
36480,Van Dyke Avenue,48312,42.5619301,-83.0278936
36910,Van Dyke Avenue,48312,42.5650201,-83.0289403
11095,East 14 Mile Road,48312,42.5375526,-83.0168425
11095,East 14 Mile Road,48312,42.5375052,-83.0169640
11095,East 14 Mile Road,48312,42.5377087,-83.0170965
11095,East 14 Mile Road,48312,42.5374982,-83.0173549
11095,East 14 Mile Road,48312,42.5375138,-83.0165837
11095,East 14 Mile Road,48312,42.5377024,-83.0168628
11095,East 14 Mile Road,48312,42.5377723,-83.0175091
12900,Grand Haven Drive,48313,42.5628905,-82.9970254
42370,Van Dyke Avenue,48314,42.6049736,-83.0305046
42370,Van Dyke Avenue,48314,42.6049484,-83.0302419
42370,Van Dyke Avenue,48314,42.6049727,-83.0306250
42370,Van Dyke Avenue,48314,42.6049717,-83.0307671
43120,Utica Road,48314,42.6104530,-83.0302229
43120,Utica Road,48314,42.6104564,-83.0304201
43120,Utica Road,48314,42.6103515,-83.0303207
43020,Van Dyke Avenue,48314,42.6094318,-83.0310809
7689,19 Mile Road,48314,42.6085354,-83.0345139
43089,Van Dyke Avenue,48314,42.6103386,-83.0322369
43055,Van Dyke Avenue,48314,42.6102217,-83.0322180
11300,17 Mile Road,48313,42.5799480,-83.0154471
38901,Dodge Park Road,48313,42.5801670,-83.0122818
39701,Dodge Park Road,48313,42.5868163,-83.0135285
11311,Plumbrook Road,48312,42.5796295,-83.0150132
38901,Dodge Park Road,48312,42.5791701,-83.0121076
39600,Atkinson Drive,48313,42.5848783,-83.0056406
6600,17 Mile Road,48313,42.5787369,-83.0425689
38600,Van Dyke Avenue,48312,42.5779798,-83.0290102
38700,Van Dyke Avenue,48312,42.5784570,-83.0292971
38800,Van Dyke Avenue,48312,42.5788836,-83.0294890
38850,Van Dyke Avenue,48312,42.5791844,-83.0295926
38400,Van Dyke Avenue,48312,42.5760669,-83.0289796
38222,Van Dyke Avenue,48312,42.5754994,-83.0295075
38550,Van Dyke Avenue,48312,42.5774211,-83.0292896
37700,Van Dyke Avenue,48312,42.5708820,-83.0291040
37600,Van Dyke Avenue,48312,42.5703882,-83.0279168
38100,Van Dyke Avenue,48312,42.5732424,-83.0294004
38110,Van Dyke Avenue,48312,42.5736832,-83.0294416
38300,Van Dyke Avenue,48312,42.5756634,-83.0285876
37160,Van Dyke Avenue,48312,42.5691272,-83.0289254
37402,Van Dyke Avenue,48312,42.5691558,-83.0273642
37586,Van Dyke Avenue,48312,42.5699386,-83.0277237
37000,Van Dyke Avenue,48312,42.5672522,-83.0256087
37002,Van Dyke Avenue,48312,42.5674767,-83.0283305
37010,Van Dyke Avenue,48312,42.5680460,-83.0276180
42354,Van Dyke Road,48314,42.6046689,-83.0306176
2310,Metropolitan Parkway,48310,42.5615180,-83.0846982
2000,Metropolitan Parkway,48310,42.5614641,-83.0868876
2666,Metropolitan Parkway,48310,42.5625783,-83.0816673
36600,Van Dyke Avenue,48312,42.5627740,-83.0262070
36500,Van Dyke Avenue,48312,42.5622425,-83.0284422
36808,Van Dyke Avenue,48312,42.5631423,-83.0287387
36836,Van Dyke Avenue,48312,42.5636260,-83.0287536
8180,Metropolitan Parkway,48312,42.5651484,-83.0276533
33201,Van Dyke Avenue,48312,42.5382685,-83.0327060
33464,Schoenherr Road,48312,42.5420906,-82.9879437
33200,Schoenherr Road,48312,42.5393830,-82.9873069
34804,Van Dyke Avenue,48312,42.5497680,-83.0282486
34918,Van Dyke Avenue,48312-4661,42.5504585,-83.0281889
7000,18 Mile Road,48314,42.5938198,-83.0396321
2899,Fox Hill Drive,48310,42.5725362,-83.0774710
33203,Maple Lane Drive,48312,42.5428001,-83.0118132
13390,Plumbrook Road,48312,42.5706491,-82.9941704
38180,Utica Road,48312,42.5782522,-82.9825546
3678,15 Mile Road,48310,42.5501175,-83.0703856
35955,Ryan Road,48310,42.5566855,-83.0704054
39151,Van Dyke Avenue,48313,42.5815758,-83.0310213
39245,Van Dyke Avenue,48313,42.5819527,-83.0310951
39099,Van Dyke Avenue,48313,42.5812487,-83.0308783
33577,Van Dyke Avenue,48312,42.5410594,-83.0298171
33260,Van Dyke Avenue,48312,42.5387310,-83.0279532
8291,East 14 Mile Road,48312,42.5378692,-83.0271445
8317,Gretchen Drive,48312,42.5401815,-83.0261383
8388,Gretchen Drive,48312,42.5397726,-83.0252127
33547,Avenida Christel Drive,48312,42.5396561,-83.0262953
33561,Avenida Christel Drive,48312,42.5398191,-83.0262943
43030,Schoenherr Road,48313,42.6109797,-82.9914806
39939,Hayes Road,48313,42.5895868,-82.9730709
43893,Schoenherr Road,48313,42.6174772,-82.9945478
13505,Schoenherr Road,48313,42.6109201,-82.9929612
40100,Dodge Park Road,48313,42.5889782,-83.0104104
41233,Ryan Road,48314,42.5952630,-83.0720742
3801,18 Mile Road,48314,42.5941723,-83.0719720
41380,Ryan Road,48314,42.5958813,-83.0697152
40400,Gulliver Drive,48310,42.5889173,-83.0774435
2900,Holly Drive,48310,42.5832269,-83.0800329
3951,Metropolitan Parkway,48314,42.5650799,-83.0705533
3951,Metropolitan Parkway,48314,42.5653015,-83.0705637
4019,Metropolitan Parkway,48310,42.5652549,-83.0692115
40950,Ryan Road,48310,42.5931391,-83.0699710
3900,18 Mile Road,48314,42.5931078,-83.0715095
4025,18 Mile Road,48314,42.5942698,-83.0700625
41122,Ryan Road,48314,42.5947106,-83.0701287
40752,Ryan Road,48310,42.5919712,-83.0698834
40832,Ryan Road,48310,42.5926901,-83.0683343
41460,Ryan Road,48314,42.5969705,-83.0687353
14655,Carmel Drive,48312,42.5597927,-82.9777318
15124,Hall Road,48313,42.6265417,-82.9741832
14924,Hall Road,48313,42.6266244,-82.9771362
14812,Hall Road,48313,42.6266337,-82.9781557
14796,Hall Road,48313,42.6266231,-82.9785657
14500,Hall Road,48313,42.6262007,-82.9811817
14425,Lakeside Circle,48313,42.6264551,-82.9848085
13800,Hall Road,48313,42.6262399,-82.9898763
13835,Lakeside Circle,48313,42.6261918,-82.9906621
13701,Lakeside CR,48313-1315,42.6257607,-82.9914520
44200,Schoenherr Road,48313,42.6192933,-82.9910640
44100,Schoenherr Road,48313,42.6180399,-82.9916713
13640,Southcove Drive,48313-1334,42.6182134,-82.9908872
43103,Schoenherr Road,48313,42.6114849,-82.9930978
13400,Canal Road,48313,42.6148999,-82.9939839
43761,Schoenherr Road,48313,42.6167052,-82.9934182
43611,Schoenherr Road,48313,42.6159595,-82.9934397
44685,Schoenherr Road,48313,42.6237941,-82.9937643
42955,Hayes Road,48313,42.6119168,-82.9731927
43071,Hayes Road,48038,42.6136752,-82.9733727
38750,Ryan Road,48310,42.5771709,-83.0692897
44575,Mound Road,48314,42.6212326,-83.0543016
44905,Mound Road,48314,42.6236413,-83.0553772
44887,Mound Road,48314,42.6234661,-83.0590116
44751,Mound Road,48314,42.6227030,-83.0529693
44603,Mound Road,48314,42.6214795,-83.0526842
3500,15 Mile Road,48310,42.5494865,-83.0727231
6850,17 Mile Road,48313,42.5792344,-83.0407244
8381,Gretchen Drive,48312,42.5402663,-83.0251561
8365,Gretchen Drive,48312,42.5402392,-83.0254113
8349,Gretchen Drive,48312,42.5402187,-83.0256319
8333,Gretchen Drive,48312,42.5402233,-83.0258621
33575,Avenida Christel Drive,48312,42.5400049,-83.0263047
33533,Avenida Christel Drive,48312,42.5394889,-83.0262927
33519,Avenida Christel Drive,48312,42.5393257,-83.0262954
33505,Avenida Christel Drive,48312,42.5391572,-83.0263179
8356,Gretchen Drive,48312,42.5397539,-83.0256566
8372,Gretchen Drive,48312,42.5397639,-83.0254293
8361,Remie Drive,48312,42.5394081,-83.0256790
8377,Remie Drive,48312,42.5394072,-83.0254542
8393,Remie Drive,48312,42.5394242,-83.0252300
33495,Ashton Drive,48312,42.5389538,-83.0254561
33481,Ashton Drive,48312,42.5387537,-83.0254186
33467,Ashton Drive,48312,42.5386254,-83.0251646
33460,Ashton Drive,48312,42.5386375,-83.0248912
33572,Ashton Drive,48312,42.5399369,-83.0245995
33558,Ashton Drive,48312,42.5397800,-83.0245924
33544,Ashton Drive,48312,42.5396139,-83.0245939
33530,Ashton Drive,48312,42.5394508,-83.0246213
33516,Ashton Drive,48312,42.5392858,-83.0246331
33592,Ashton Drive,48312,42.5391164,-83.0246327
33488,Ashton Drive,48312,42.5389569,-83.0246391
33474,Ashton Drive,48312,42.5387865,-83.0246994
33586,Ashton Drive,48312,42.5401159,-83.0245555
33600,Ashton Drive,48312,42.5403262,-83.0245230
8418,Fairfax Drive,48312,42.5406233,-83.0245199
8318,Fairfax Drive,48312,42.5405469,-83.0260248
8334,Fairfax Drive,48312,42.5405463,-83.0257820
8350,Fairfax Drive,48312,42.5405980,-83.0255411
8366,Fairfax Drive,48312,42.5405914,-83.0253259
8382,Fairfax Drive,48312,42.5406075,-83.0250713
8436,Fairfax Drive,48312,42.5406366,-83.0242826
33647,Elford Drive,48312,42.5412154,-83.0262398
33629,Elford Drive,48312,42.5410521,-83.0262036
33623,Elford Drive,48312,42.5408788,-83.0262652
33617,Elford Drive,48312,42.5406347,-83.0262353
40111,Dodge Park Road,48313,42.5886321,-83.0125216
12500,Canal Road,48313,42.6175615,-83.0048000
12828,Canal Road,48313,42.6164688,-83.0000797
14951,East 14 Mile Road,48312,42.5388358,-82.9718650
11651,15 Mile Road,48312,42.5523473,-83.0090807
11650,15 Mile Road,48312,42.5512058,-83.0090985
11541,15 Mile Road,48312,42.5520708,-83.0102129
11743,15 Mile Road,48312,42.5522956,-83.0080710
11255,15 Mile Road,48312,42.5521559,-83.0147303
11331,15 Mile Road,48312,42.5519354,-83.0125247
11307,15 Mile Road,48312,42.5519284,-83.0128169
11453,15 Mile Road,48312,42.5521862,-83.0109281
11449,15 Mile Road,48312,42.5521833,-83.0110973
11445,15 Mile Road,48312,42.5521810,-83.0112256
11441,15 Mile Road,48312,42.5521792,-83.0113234
11437,15 Mile Road,48312,42.5521777,-83.0114095
11429,15 Mile Road,48312,42.5521759,-83.0115129
42370,Van Dyke Avenue,48314,42.6049732,-83.0305198
42490,Van Dyke Avenue,48314,42.6056192,-83.0307107
11570,15 Mile Road,48312,42.5511623,-83.0096807
35777,Van Dyke Avenue,48312,42.5581602,-83.0341175
2000,18 Mile Road,48310,42.5925785,-83.0886412
40211,Mound Road,48310,42.5884879,-83.0511934
40682,Ryan Road,48310,42.5913587,-83.0699465
35201,Davison Street,48310,42.5524102,-83.0567058
38111,Van Dyke Avenue,48312,42.5729748,-83.0349348
6850,17 Mile Road,48313,42.5728071,-83.0402730
14000,Metropolitan Parkway,48312,42.5636745,-82.9838922
15000,Metropolitan Parkway,48312,42.5639476,-82.9764776
12900,Grand Haven Drive,48312,42.5622501,-82.9968476
35748,Ensign Drive,48312,42.5580020,-82.9912312
37651,Dodge Park Road,48312,42.5708440,-83.0129282
4051,15 Mile Road,48310,42.5508231,-83.0686483
12500,19 Mile Road,48313,42.6083174,-83.0036950
41855,Schoenherr Road,48313,42.6023795,-82.9944502
11911,Clinton River Road,48313,42.6057535,-83.0128393
41111,Van Dyke Avenue,48314,42.5982004,-83.0358407
38500,Mound Road,48310,42.5765995,-83.0461505
39000,Mound Road,48310,42.5835876,-83.0451861
12901,15 Mile Road,48312,42.5558385,-82.9971585
12850,15 Mile Road,48312,42.5515777,-82.9966475
8655,Irving Road,48312,42.5465146,-83.0224262
12400,19 Mile Road,48313,42.6085474,-83.0047762
39600,Atkinson Drive,48313,42.5846938,-83.0054170
11400,Delvin Drive,48314,42.6135906,-83.0172607
41875,Saal Road,48313,42.6025016,-82.9846274
37400,Dodge Park Road,48312,42.5684728,-83.0077149
12060,Greenway Drive,48312,42.5688763,-83.0062351
41700,Montroy Drive,48313,42.6012283,-83.0028525
8742,Dill Drive,48312,42.5752801,-83.0211792
39660,Spalding Drive,48313,42.5839601,-83.0203775
8401,Constitution Boulevard,48313,42.5926324,-83.0242569
39400,Dequindre Road,48310,42.5811058,-83.0880234
4141,East 14 Mile Road,48310,42.5359581,-83.0666207
7200,15 Mile Road,48312,42.5491313,-83.0349825
34201,Van Dyke Avenue,48312,42.5462800,-83.0333512
35400,Van Dyke Avenue,48312,42.5542889,-83.0243500
33204,Maple Lane Drive,48312,42.5393272,-83.0027607
6700,18 1/2 Mile Road,48314,42.5996464,-83.0430252
12200,15 Mile Road,48312,42.5508589,-83.0032572
7200,19 Mile Road,48314,42.6078013,-83.0379111
43225,Polo Circle,48313,42.6157762,-82.9895562
13820,Horseshoe Drive,48313,42.6169346,-82.9886214
14602,Brandywine Road,48312,42.5463340,-82.9764829
14115,East 14 Mile Road,48312,42.5387697,-82.9824654
13651,14 Mile Road,48312,42.5383272,-82.9884326
13555,East 14 Mile Road,48312,42.5383261,-82.9896296
33051,Schoenherr Road,48312,42.5382336,-82.9906536
13325,East 14 Mile Road,48312,42.5384221,-82.9920984
13135,East 14 Mile Road,48312,42.5382128,-82.9934943
33111,Schoenherr Road,48312,42.5388234,-82.9896567
7000,15 Mile Road,48312,42.5499693,-83.0373153
7100,15 Mile Road,48312,42.5497843,-83.0358155
7450,15 Mile Road,48312,42.5505926,-83.0335010
7500,15 Mile Road,48312,42.5504821,-83.0325472
33801,Van Dyke Avenue,48312,42.5428716,-83.0324956
13465,Wessel Court,48313,42.6013616,-82.9922672
13427,15 Mile Road,48312,42.5526391,-82.9915420
13475,15 Mile Road,48312,42.5527612,-82.9905246
34955,Schoenherr Road,48312,42.5517651,-82.9902408
13650,15 Mile Road,48312,42.5516364,-82.9890871
13800,15 Mile Road,48312,42.5517427,-82.9885138
13655,15 Mile Road,48312,42.5529733,-82.9889196
34800,Moravian Drive,48312,42.5502628,-82.9828921
34800,Moravian Drive,48312,42.5499442,-82.9825773
34800,Moravian Drive,48312,42.5503003,-82.9821208
34800,Moravian Drive,48312,42.5505282,-82.9815576
34800,Moravian Drive,48312,42.5508493,-82.9818647
34800,Moravian Drive,48312,42.5506269,-82.9843676
34800,Moravian Drive,48312,42.5512272,-82.9843844
34800,Moravian Drive,48312,42.5509819,-82.9837544
34800,Moravian Drive,48312,42.5517046,-82.9820838
34800,Moravian Drive,48312,42.5520904,-82.9826109
34800,Moravian Drive,48312,42.5519362,-82.9843219
34800,Moravian Drive,48312,42.5519602,-82.9837771
33355,Van Dyke Avenue,48312,42.5394286,-83.0299475
34720,Van Dyke Avenue,48312,42.5491768,-83.0277792
34642,Van Dyke Avenue,48312,42.5485913,-83.0280078
34550,Van Dyke Avenue,48312,42.5480021,-83.0277526
34220,Van Dyke Avenue,48312,42.5465317,-83.0282701
34030,Van Dyke Avenue,48312,42.5443510,-83.0276599
33950,Van Dyke Avenue,48312,42.5438386,-83.0278974
33900,Van Dyke Avenue,48312,42.5428908,-83.0281919
35790,Van Dyke Avenue,48312,42.5565706,-83.0282894
35800,Van Dyke Avenue,48312,42.5573924,-83.0287772
35850,Van Dyke Avenue,48312,42.5573399,-83.0273122
33788,Schoenherr Road,48312,42.5432479,-82.9886408
33626,Schoenherr Road,48312,42.5427672,-82.9887881
33350,Schoenherr Road,48312,42.5408489,-82.9884170
33416,Schoenherr Road,48312,42.5413823,-82.9879750
14100,Heritage Road,48312,42.5430352,-82.9830877
14100,Heritage Road,48312,42.5427686,-82.9832752
4936,Chadwick Court,48310,42.5913791,-83.0595048
40105,North Tothill Circle,48310,42.5888602,-83.0570091
36480,Van Dyke Avenue,48312,42.5620000,-83.0278723
40375,Utica Road,48313,42.5908271,-83.0106326
7400,Triangle Drive,48314,42.6160243,-83.0349123
13500,19 Mile Road,48313,42.6097886,-82.9929066
13901,Metro Parkway,48312,42.5679930,-82.9871008
15111,East 14 Mile Road,48312,42.5391199,-82.9702738
37565,Calka Drive,48310,42.5687209,-83.0838165
43034,Dequindre Road,48314,42.6080889,-83.0898184
5810,17 Mile Road,48310,42.5792418,-83.0512213
38951,Mound Road,48310,42.5792682,-83.0508158
35201,Davison,48310,42.5523640,-83.0567251
8900,15 Mile Road,48312,42.5495333,-83.0209127
8100,15 Mile Road,48312,42.5508490,-83.0280652
8100,15 Mile Road,48312,42.5508393,-83.0283055
34949,Van Dyke Avenue,48312,42.5507312,-83.0297183
43280,Van Dyke,48314,42.6124037,-83.0311875
43400,Van Dyke Avenue,48314,42.6136492,-83.0310443
43129,Van Dyke Avenue,48314,42.6106548,-83.0323466
43250,Van Dyke Avenue,48314,42.6111117,-83.0308389
40500,Van Dyke Avenue,48313,42.5915674,-83.0300764
39600,Van Dyke Avenue,48313,42.5850241,-83.0300063
39600,Van Dyke Avenue,48313,42.5849341,-83.0298231
39725,Van Dyke Avenue,48313,42.5853475,-83.0314949
39725,Van Dyke Avenue,48313,42.5853116,-83.0311152
39025,Van Dyke Avenue,48313,42.5808061,-83.0309109
39025,Van Dyke Avenue,48313,42.5807889,-83.0307595
37045,Van Dyke Avenue,48312,42.5661362,-83.0303066
37045,Van Dyke Avenue,48312,42.5661771,-83.0302791
36500,Van Dyke Avenue,48312,42.5622704,-83.0286621
34800,Moravian Drive,48312,42.5513152,-82.9829254
43017,Mound Road,48314-2041,42.6093171,-83.0521574
37316,Schoenherr Road,48312,42.5699098,-82.9884584
13805,PLUMBROOK,48312-1725,42.5748400,-82.9882181
38200,Utica Road,48312,42.5756189,-82.9878882
14900,Metro Pkwy,48312,42.5641432,-82.9761896
40255,Dodge Park Road,48313,42.5902623,-83.0125506
40200,Utica Road,48313,42.5913453,-83.0080780
36840,Schoenherr Road,48312,42.5659652,-82.9873417
36900,Schoenherr Road,48312,42.5666188,-82.9867646
36909,Schoenherr Road,48312,42.5664423,-82.9886441
14515,15 Mile Road,48312,42.5531522,-82.9781488
14380,15 Mile Road,48312,42.5523596,-82.9792207
40552,Van Dyke Avenue,48313,42.5923317,-83.0294468
40755,Van Dyke Avenue,48313,42.5929063,-83.0319222
40445,Van Dyke Avenue,48313,42.5904909,-83.0323183
40333,Van Dyke Avenue,48313,42.5898821,-83.0319274
40333,Van Dyke Ave,48313,42.5898213,-83.0342023
40331,Van Dyke Avenue,48313,42.5890852,-83.0316146
40111,Van Dyke Avenue,48313,42.5881413,-83.0315152
14560,Lakeside Circle,48313,42.6211536,-82.9810667
34834,Van Dyke Avenue,48312,42.5501353,-83.0283325
11474,15 Mile Road,48312,42.5511274,-83.0106763
11492,15 Mile Road,48312,42.5511397,-83.0105937
11528,15 Mile Road,48312,42.5511518,-83.0102025
35394,Van Dyke Avenue,48312,42.5541022,-83.0282566
39900,Van Dyke Avenue,48313,42.5871056,-83.0299223
39990,Van Dyke Avenue,48313,42.5873384,-83.0298680
39850,Van Dyke Avenue,48313,42.5859917,-83.0298361
34400,Dequindre Road,48310,42.5449685,-83.0870001
33896,Dequindre Road,48310,42.5413460,-83.0869185
34756,Dequindre Road,48310,42.5483105,-83.0874790
25100,Ryan Road,48310,42.5513302,-83.0687570
33055,Hayes Road,48312,42.5398350,-82.9702639
12875,East 14 Mile Road,48312,42.5382786,-82.9957768
34480,Van Dyke Avenue,48312,42.5471944,-83.0278883
4900,Southlawn Drive,48310,42.5411143,-83.0604644
38397,Gladstone Drive,48312,42.5777340,-82.9983613
35348,Van Dyke Avenue,48312,42.5535096,-83.0282006
35050,Van Dyke Avenue,48312,42.5519207,-83.0280217
37270,Van Dyke Avenue,48312,42.5690135,-83.0256360
34180,Van Dyke Avenue,48312,42.5453539,-83.0279208
8348,18 Mile Road,48313,42.5932525,-83.0274050
13400,19 Mile Road,48313,42.6095378,-82.9939853
38397,Gladstone Drive,48312,42.5778107,-82.9982998
13375,Stonegate Drive,48312,42.5414935,-82.9918221
11001,Daniel Drive,48312,42.5568648,-83.0193886
34600,Dryden Drive,48312,42.5481388,-83.0116410
9000,15 Mile Road,48312,42.5509018,-83.0191138
35700,Van Dyke Avenue,48312,42.5565124,-83.0267096
11855,15 Mile Road,48312,42.5538498,-83.0078221
12825,19 Mile Road,48313,42.6106361,-83.0001429
40433,Dodge Park Road,48313,42.5915523,-83.0114693
13601,Plumbrook Road,48312,42.5765535,-82.9911052
38227,Schoenherr Road,48312,42.5759307,-82.9903319
11401,Metropolitan Parkway,48312,42.5675875,-83.0132798
11455,Metropolitan Parkway,48312,42.5671420,-83.0122400
34150,Moravian Drive,48312,42.5466153,-82.9928158
33631,Van Dyke Avenue,48312,42.5416020,-83.0324038
34600,Dryden Drive,48312,42.5485836,-83.0116794
35630,Van Dyke,48312,42.5564226,-83.0253374
34255,Schoenherr Road,48312,42.5468133,-82.9902917
34354,Moravian Drive,48312,42.5472215,-82.9886312
40250,Dodge Park Road,48313,42.5900638,-83.0097250
40111,Dodge Park Road,48313,42.5892142,-83.0126116
14800,Lakeside Circle,48313,42.6244952,-82.9803749
34465,Maple Lane Drive,48312,42.5479453,-83.0049140
33400,Maple Lane Drive,48312,42.5404017,-83.0034555
8384,Metropolitan Parkway,48312,42.5635994,-83.0247887
44525,Pine Drive,48313,42.6237054,-82.9769231
13339,Metropolitan Parkway,48312,42.5677817,-82.9929174
34080,Van Dyke Avenue,48312,42.5449589,-83.0280203
8200,Irving Road,48312,42.5452491,-83.0270762
8200,15 Mile Road,48312,42.5508061,-83.0272790
8230,15 Mile Road,48312,42.5507002,-83.0267887
8280,15 Mile Road,48312,42.5507485,-83.0262255
8333,15 Mile Road,48312,42.5520872,-83.0257745
8515,15 Mile Road,48312,42.5523450,-83.0246036
8451,15 Mile Road,48312,42.5518046,-83.0245434
35500,Van Dyke Avenue,48312,42.5551200,-83.0284109
36200,Van Dyke Avenue,48312,42.5581136,-83.0282553
36250,Van Dyke Avenue,48312,42.5594692,-83.0278387
36430,Van Dyke Avenue,48312,42.5611565,-83.0255919
36400,Van Dyke Avenue,48312,42.5611145,-83.0269154
36350,Van Dyke Avenue,48312,42.5612519,-83.0287938
36300,Van Dyke Avenue,48312,42.5609346,-83.0287253
36401,Van Dyke Avenue,48312,42.5617974,-83.0305259
36599,Van Dyke,48312,42.5632322,-83.0312665
36797,Van Dyke Avenue,48312,42.5641831,-83.0304361
36888,Van Dyke Avenue,48312,42.5643286,-83.0287512
36910,Van Dyke Avenue,48312,42.5650895,-83.0288704
7960,Metropolitan Parkway,48312,42.5650447,-83.0302211
7800,Metropolitan Parkway,48312,42.5648898,-83.0311531
7750,Metropolitan Parkway,48312,42.5647677,-83.0315864
7777,Metropolitan Parkway,48312,42.5663000,-83.0319018
7837,Metropolitan Parkway,48312,42.5661844,-83.0314515
7843,Metropolitan Parkway,48312,42.5661958,-83.0310811
37583,Mound Road,48310,42.5692946,-83.0505115
37641,Mound Road,48310,42.5699205,-83.0506995
38900,Van Dyke Avenue,48313,42.5797036,-83.0297767
7887,17 Mile Road,48313,42.5808311,-83.0314142
7575,17 Mile Road,48313,42.5811973,-83.0335226
39393,Van Dyke Avenue,48313,42.5831706,-83.0308915
39111,Mitchell Drive,48313,42.5813279,-83.0378874
39600,Mitchell Drive,48313,42.5842348,-83.0349109
39755,Van Dyke Avenue,48313,42.5860495,-83.0314280
40177,Mitchell Drive,48313,42.5881563,-83.0394552
40033,Mitchell Drive,48313,42.5882118,-83.0368675
42600,Merrill Road,48314,42.6059190,-83.0438561
42555,Merrill Road,48314,42.6058616,-83.0476204
42400,Merrill Road,48314,42.6043185,-83.0438789
42455,Merrill Road,48314,42.6046728,-83.0470569
42376,Mound Road,48314,42.6044555,-83.0496581
6101,18 1/2 Mile Road,48314,42.6028208,-83.0490384
7077,18 1/2 Mile Road,48314,42.6028830,-83.0400670
7255,18 1/2 Mile Road,48314,42.6027479,-83.0384766
42373,Van Dyke Avenue,48314,42.6050046,-83.0327471
42111,Van Dyke Avenue,48314,42.6031147,-83.0324997
7775,18 1/2 Mile Road,48314,42.6030783,-83.0337662
7689,19 Mile Road,48314,42.6087960,-83.0346407
42705,Van Dyke Avenue,48314,42.6071576,-83.0327356
45450,Yearego Drive,48314,42.6056077,-83.0354701
42400,Yearego Drive,48314,42.6059215,-83.0346321
42235,Yearego Drive,48314,42.6032615,-83.0355324
42250,Yearego Dr,48314,42.6031846,-83.0344866
42265,Yearego Drive,48314,42.6039071,-83.0355602
44215,Phoenix Drive,48314,42.6190333,-83.0438659
44215,Phoenix Drive,48314,42.6184090,-83.0438434
44057,Phoenix Drive,48314,42.6175070,-83.0437962
44001,Phoenix Drive,48314,42.6166149,-83.0437278
44035,Phoenix Drive,48314,42.6171672,-83.0437778
44075,Phoenix Drive,48314,42.6178193,-83.0437757
6633,Diplomat Drive,48314,42.6218166,-83.0433679
6600,Dobry Drive,48314,42.6234575,-83.0433925
6500,Dobry Drive,48314,42.6239555,-83.0455179
6450,Dobry Drive,48314,42.6239725,-83.0464864
4203,Lindow Drive,48310,42.5529135,-83.0661465
4191,Lindow Drive,48310,42.5529021,-83.0663934
4179,Lindow Drive,48310,42.5528923,-83.0666339
5819,17 Mile Road,48310,42.5802506,-83.0511958
5789,17 Mile Road,48310,42.5801753,-83.0516603
7200,18 Mile Road,48314,42.5934830,-83.0369994
42500,Mound Road,48314,42.6056055,-83.0498784
42600,Mound Road,48314,42.6061809,-83.0499387
42355,Merrill Road,48314,42.6036725,-83.0473061
11303,Greendale Drive,48312,42.5636199,-83.0148589
35031,Cavant Drive,48310,42.5506838,-83.0662918
35030,Cavant Drive,48310,42.5506879,-83.0656050
42124,Van Dyke Avenue,48314,42.6029446,-83.0303517
8401,Constitution Boulevard,48313,42.5924889,-83.0242462
8350,Plumbrook Road,48313,42.5823192,-83.0264553
39337,Mound Road,48310,42.5824200,-83.0509302
41700,Montroy Drive,48313,42.6015570,-83.0027779
35427,Dodge Park Road,48312,42.5551836,-83.0106552
12151,15 Mile Road,48312,42.5525420,-83.0050971
11870,Eldorado Drive,48312,42.5554761,-83.0053708
39333,Van Dyke Avenue,48313,42.5825551,-83.0309767
7423,17 Mile Road,48313,42.5813005,-83.0348231
7439,17 Mile Road,48313,42.5808679,-83.0348125
7431,17 Mile Road,48313,42.5810824,-83.0348357
41684,Utica Road,48313,42.6014051,-83.0186158
42042,Van Dyke Avenue,48314,42.6022730,-83.0300590
42320,Yearego Drive,48314,42.6045656,-83.0345222
42374,Yearego Drive,48314,42.6051729,-83.0340606
42375,Yearego Drive,48314,42.6050254,-83.0355893
42345,Yearego Drive,48314,42.6045642,-83.0355500
42315,Yearego Drive,48314,42.6042250,-83.0355696
42605,Van Dyke Avenue,48314,42.6064177,-83.0330541
7670,19 Mile Road,48314,42.6077813,-83.0347646
7900,19 Mile Road,48314,42.6078443,-83.0323884
7800,19 Mile Road,48314,42.6078035,-83.0334740
7700,19 Mile Road,48314,42.6077791,-83.0340428
7630,19 Mile Road,48314,42.6076654,-83.0355181
42600,R. Mancini Drive,48314,42.6065715,-83.0380574
6115,18 1/2 Mile Road,48314,42.6021080,-83.0485725
6263,18 1/2 Mile Road,48314,42.6022775,-83.0469913
42355,Merrill Road,48314,42.6030422,-83.0473318
6520,Arrow Drive,48314,42.6191809,-83.0462438
6541,Diplomat Drive,48314,42.6215436,-83.0457874
6505,Diplomat Drive,48314,42.6215208,-83.0464514
44600,Merrill Road,48314,42.6222099,-83.0461586
6611,Diplomat Drive,48314,42.6215906,-83.0441814
6577,Diplomat Drive,48314,42.6215568,-83.0450163
6595,Diplomat Drive,48314,42.6215662,-83.0445864
6559,Diplomat Drive,48314,42.6215450,-83.0453911
13375,Stonegate Drive,48312,42.5422100,-82.9898618
13557,Stonegate Drive,48312,42.5423396,-82.9905908
13545,Stonegate Drive,48312,42.5423209,-82.9908759
13335,Stonegate Drive,48312,42.5421659,-82.9916258
13312,Stonegate Drive,48312,42.5409401,-82.9924425
13323,Stonegate Drive,48312,42.5422991,-82.9920154
13311,Stonegate Drive,48312,42.5422805,-82.9923005
13359,Stonegate Drive,48312,42.5416438,-82.9915855
13347,Stonegate Drive,48312,42.5418538,-82.9916102
13533,Stonegate Drive,48312,42.5421856,-82.9912651
13521,Stonegate Drive,48312,42.5419759,-82.9912351
13115,Stonegate Drive,48312,42.5422414,-82.9934743
13127,Stonegate Drive,48312,42.5422601,-82.9931893
13162,Stonegate Drive,48312,42.5416180,-82.9937118
13150,Stonegate Drive,48312,42.5418305,-82.9937183
13198,Stonegate Drive,48312,42.5408035,-82.9936814
13186,Stonegate Drive,48312,42.5410160,-82.9936880
13174,Stonegate Drive,48312,42.5413159,-82.9937000
13324,Stonegate Drive,48312,42.5406938,-82.9921102
13336,Stonegate Drive,48312,42.5407134,-82.9918252
13348,Stonegate Drive,48312,42.5409897,-82.9915466
13360,Stonegate Drive,48312,42.5411991,-82.9915800
13139,Stonegate Drive,48312,42.5419971,-82.9928761
13151,Stonegate Drive,48312,42.5417868,-82.9928548
13210,Stonegate Drive,48312,42.5410763,-82.9928238
13222,Stonegate Drive,48312,42.5412866,-82.9928450
33433,Schoenherr Road,48312,42.5411203,-82.9906452
13500,Northside Drive,48312,42.5397100,-82.9908110
34114,Birchway Circle,48312,42.5475268,-82.9941125
34110,Birchway Circle,48312,42.5474686,-82.9941081
34106,Birchway Circle,48312,42.5473633,-82.9941020
34102,Birchway Circle,48312,42.5472989,-82.9940985
34278,Birchway Circle,48312,42.5473548,-82.9935394
34274,Birchway Circle,48312,42.5473576,-82.9934605
34270,Birchway Circle,48312,42.5473616,-82.9933175
34266,Birchway Circle,48312,42.5473638,-82.9932305
34262,Birchway Circle,48312,42.5473773,-82.9929600
34258,Birchway Circle,48312,42.5473801,-82.9928812
34254,Birchway Circle,48312,42.5473841,-82.9927380
34250,Birchway Circle,48312,42.5473863,-82.9926511
34246,Birchway Circle,48312,42.5476420,-82.9926297
34242,Birchway Circle,48312,42.5477174,-82.9926058
34238,Birchway Circle,48312,42.5478144,-82.9925594
34234,Birchway Circle,48312,42.5478732,-82.9925277
34230,Birchway Circle,48312,42.5480553,-82.9924570
34226,Birchway Circle,48312,42.5481307,-82.9924331
34222,Birchway Circle,48312,42.5482277,-82.9923867
34218,Birchway Circle,48312,42.5482865,-82.9923550
34219,Birchway Circle,48312,42.5481977,-82.9929561
34223,Birchway Circle,48312,42.5481224,-82.9929798
34227,Birchway Circle,48312,42.5480252,-82.9930256
34231,Birchway Circle,48312,42.5479664,-82.9930570
34133,Birchway Circle,48312,42.5481499,-82.9936254
34137,Birchway Circle,48312,42.5482080,-82.9936269
34141,Birchway Circle,48312,42.5483138,-82.9936292
34145,Birchway Circle,48312,42.5483764,-82.9936304
34214,Birchway Circle,48312,42.5485272,-82.9923644
34210,Birchway Circle,48312,42.5485784,-82.9924140
34206,Birchway Circle,48312,42.5486655,-82.9924841
34202,Birchway Circle,48312,42.5487457,-82.9925237
34194,Birchway Circle,48312,42.5489575,-82.9927661
34190,Birchway Circle,48312,42.5489507,-82.9928446
34186,Birchway Circle,48312,42.5489411,-82.9929863
34182,Birchway Circle,48312,42.5489357,-82.9930777
34178,Birchway Circle,48312,42.5489112,-82.9933373
34174,Birchway Circle,48312,42.5489043,-82.9934158
34170,Birchway Circle,48312,42.5488947,-82.9935575
34166,Birchway Circle,48312,42.5488893,-82.9936489
34146,Birchway Circle,48312,42.5483832,-82.9941553
34142,Birchway Circle,48312,42.5483215,-82.9941538
34138,Birchway Circle,48312,42.5482157,-82.9941515
34134,Birchway Circle,48312,42.5481567,-82.9941503
34130,Birchway Circle,48312,42.5479562,-82.9941321
34126,Birchway Circle,48312,42.5478946,-82.9941275
34122,Birchway Circle,48312,42.5477894,-82.9941208
34118,Birchway Circle,48312,42.5477283,-82.9941174
34150,Birchway Circle,48312,42.5486164,-82.9941465
34154,Birchway Circle,48312,42.5486687,-82.9940909
34158,Birchway Circle,48312,42.5487530,-82.9940093
34162,Birchway Circle,48312,42.5488264,-82.9939673
34195,Birchway Circle,48312,42.5484389,-82.9929384
34191,Birchway Circle,48312,42.5484640,-82.9930176
34187,Birchway Circle,48312,42.5485007,-82.9931478
34183,Birchway Circle,48312,42.5485197,-82.9932517
34121,Birchway Circle,48312,42.5478835,-82.9936005
34117,Birchway Circle,48312,42.5478469,-82.9935268
34271,Birchway Circle,48312,42.5477936,-82.9934085
34267,Birchway Circle,48312,42.5477661,-82.9933039
34097,Moravian Drive,48312,42.5472489,-82.9947186
34540,Manor Run Circle,48312,42.5474299,-82.9913738
34536,Manor Run Circle,48312,42.5474327,-82.9912949
34532,Manor Run Circle,48312,42.5474367,-82.9911518
34528,Manor Run Circle,48312,42.5474389,-82.9910649
34520,Manor Run Circle,48312,42.5474494,-82.9908155
34516,Manor Run Circle,48312,42.5474521,-82.9907367
34512,Manor Run Circle,48312,42.5474561,-82.9905935
34508,Manor Run Circle,48312,42.5474583,-82.9905066
34498,Manor Run Circle,48312,42.5474720,-82.9900585
34494,Manor Run Circle,48312,42.5475301,-82.9900637
34490,Manor Run Circle,48312,42.5476352,-82.9900712
34486,Manor Run Circle,48312,42.5477002,-82.9900754
34476,Manor Run Circle,48312,42.5478930,-82.9900756
34474,Manor Run Circle,48312,42.5479510,-82.9900808
34470,Manor Run Circle,48312,42.5480563,-82.9900883
34446,Manor Run Circle,48312,42.5481212,-82.9900925
34458,Manor Run Circle,48312,42.5483601,-82.9900979
34454,Manor Run Circle,48312,42.5484149,-82.9901326
34450,Manor Run Circle,48312,42.5485105,-82.9901818
34446,Manor Run Circle,48312,42.5485906,-82.9902096
34438,Manor Run Circle,48312,42.5487677,-82.9903892
34434,Manor Run Circle,48312,42.5487997,-82.9904866
34430,Manor Run Circle,48312,42.5488616,-82.9906004
34426,Manor Run Circle,48312,42.5489040,-82.9906703
34418,Manor Run Circle,48312,42.5489362,-82.9909560
34414,Manor Run Circle,48312,42.5489433,-82.9910454
34410,Manor Run Circle,48312,42.5489571,-82.9911858
34406,Manor Run Circle,48312,42.5489666,-82.9912690
34396,Manor Run Circle,48312,42.5489951,-82.9915151
34392,Manor Run Circle,48312,42.5490023,-82.9916045
34388,Manor Run Circle,48312,42.5490161,-82.9917451
34384,Manor Run Circle,48312,42.5490255,-82.9918282
34324,Manor Run Circle,48312,42.5479273,-82.9917071
34328,Manor Run Circle,48312,42.5479367,-82.9917903
34332,Manor Run Circle,48312,42.5479507,-82.9919307
34336,Manor Run Circle,48312,42.5479578,-82.9920202
34364,Manor Run Circle,48312,42.5486087,-82.9915903
34368,Manor Run Circle,48312,42.5486183,-82.9916733
34372,Manor Run Circle,48312,42.5486322,-82.9918138
34376,Manor Run Circle,48312,42.5486393,-82.9919033
34316,Manor Run Circle,48312,42.5476324,-82.9918850
34312,Manor Run Circle,48312,42.5476075,-82.9919596
34308,Manor Run Circle,48312,42.5475723,-82.9920901
34304,Manor Run Circle,48312,42.5475526,-82.9921983
34356,Manor Run Circle,48312,42.5483116,-82.9916376
34352,Manor Run Circle,48312,42.5483187,-82.9917269
34348,Manor Run Circle,48312,42.5483325,-82.9918675
34344,Manor Run Circle,48312,42.5483421,-82.9919505
34511,Manor Run Circle,48312,42.5478409,-82.9906122
34515,Manor Run Circle,48312,42.5478369,-82.9906910
34519,Manor Run Circle,48312,42.5478310,-82.9908337
34523,Manor Run Circle,48312,42.5478279,-82.9909220
34345,Manor Run Circle,48312,42.5481512,-82.9911825
34341,Manor Run Circle,48312,42.5480900,-82.9911961
34337,Manor Run Circle,48312,42.5479867,-82.9912159
34333,Manor Run Circle,48312,42.5479204,-82.9912262
34369,Manor Run Circle,48312,42.5485671,-82.9911261
34365,Manor Run Circle,48312,42.5485059,-82.9911398
34361,Manor Run Circle,48312,42.5484025,-82.9911597
34357,Manor Run Circle,48312,42.5483363,-82.9911698
34463,Manor Run Circle,48312,42.5481279,-82.9906637
34459,Manor Run Circle,48312,42.5481920,-82.9906667
34455,Manor Run Circle,48312,42.5482975,-82.9906720
34451,Manor Run Circle,48312,42.5483555,-82.9906757
13106,Highland Circle,48312,42.5434711,-82.9937816
13112,Highland Circle,48312,42.5433899,-82.9937751
13118,Highland Circle,48312,42.5433081,-82.9937728
13124,Highland Circle,48312,42.5432153,-82.9937695
13130,Highland Circle,48312,42.5431357,-82.9937669
13136,Highland Circle,48312,42.5430540,-82.9937675
13512,Highland Circle,48312,42.5434485,-82.9928176
13518,Highland Circle,48312,42.5434439,-82.9929278
13524,Highland Circle,48312,42.5434424,-82.9930389
13530,Highland Circle,48312,42.5434402,-82.9931647
13536,Highland Circle,48312,42.5434384,-82.9932728
13542,Highland Circle,48312,42.5434391,-82.9933836
13157,Highland Circle,48312,42.5426470,-82.9933489
13163,Highland Circle,48312,42.5426477,-82.9932372
13169,Highland Circle,48312,42.5426506,-82.9931300
13175,Highland Circle,48312,42.5426545,-82.9930033
13181,Highland Circle,48312,42.5426571,-82.9928932
13187,Highland Circle,48312,42.5426633,-82.9927822
13205,Highland Circle,48312,42.5426746,-82.9922022
13211,Highland Circle,48312,42.5426753,-82.9920906
13217,Highland Circle,48312,42.5426782,-82.9919834
13223,Highland Circle,48312,42.5426822,-82.9918567
13229,Highland Circle,48312,42.5426848,-82.9917465
13235,Highland Circle,48312,42.5426908,-82.9916355
13241,Highland Circle,48312,42.5427023,-82.9913519
13247,Highland Circle,48312,42.5427030,-82.9912403
13253,Highland Circle,48312,42.5427059,-82.9911331
13259,Highland Circle,48312,42.5427099,-82.9910064
13265,Highland Circle,48312,42.5427125,-82.9908962
13271,Highland Circle,48312,42.5427186,-82.9907853
13328,Highland Circle,48312,42.5434958,-82.9899305
13322,Highland Circle,48312,42.5434147,-82.9899327
13316,Highland Circle,48312,42.5433345,-82.9899314
13310,Highland Circle,48312,42.5432422,-82.9899300
13304,Highland Circle,48312,42.5431599,-82.9899290
13298,Highland Circle,48312,42.5430791,-82.9899240
13142,Highland Circle,48312,42.5428768,-82.9937498
13148,Highland Circle,48312,42.5427950,-82.9937475
13154,Highland Circle,48312,42.5427022,-82.9937441
13160,Highland Circle,48312,42.5426227,-82.9937416
13166,Highland Circle,48312,42.5425409,-82.9937421
13358,Highland Circle,48312,42.5435164,-82.9907890
13352,Highland Circle,48312,42.5435157,-82.9906793
13346,Highland Circle,48312,42.5435176,-82.9905720
13340,Highland Circle,48312,42.5435200,-82.9904452
13334,Highland Circle,48312,42.5435244,-82.9903247
13450,Highland Circle,48312,42.5434374,-82.9922270
13456,Highland Circle,48312,42.5434329,-82.9923383
13462,Highland Circle,48312,42.5434314,-82.9924407
13468,Highland Circle,48312,42.5434320,-82.9925574
13444,Highland Circle,48312,42.5434771,-82.9919562
13438,Highland Circle,48312,42.5434764,-82.9918395
13432,Highland Circle,48312,42.5434779,-82.9917370
13426,Highland Circle,48312,42.5434825,-82.9916258
13382,Highland Circle,48312,42.5434966,-82.9913616
13376,Highland Circle,48312,42.5434960,-82.9912449
13370,Highland Circle,48312,42.5434975,-82.9911424
13364,Highland Circle,48312,42.5435021,-82.9910312
13363,Highland Circle,48312,42.5431397,-82.9909191
13357,Highland Circle,48312,42.5431443,-82.9908090
13351,Highland Circle,48312,42.5431458,-82.9906979
13345,Highland Circle,48312,42.5431480,-82.9905720
13339,Highland Circle,48312,42.5431497,-82.9904638
13333,Highland Circle,48312,42.5431490,-82.9903531
13383,Highland Circle,48312,42.5432079,-82.9912408
13389,Highland Circle,48312,42.5431218,-82.9912415
13395,Highland Circle,48312,42.5430464,-82.9912393
13401,Highland Circle,48312,42.5429644,-82.9912327
13469,Highland Circle,48312,42.5431449,-82.9922476
13475,Highland Circle,48312,42.5430588,-82.9922481
13481,Highland Circle,48312,42.5429834,-82.9922460
13487,Highland Circle,48312,42.5429014,-82.9922394
13493,Highland Circle,48312,42.5428895,-82.9927390
13499,Highland Circle,48312,42.5429757,-82.9927389
13505,Highland Circle,48312,42.5430509,-82.9927415
13511,Highland Circle,48312,42.5431331,-82.9927484
13133,Highland Circle,48312,42.5431452,-82.9932570
13139,Highland Circle,48312,42.5430591,-82.9932577
13145,Highland Circle,48312,42.5429838,-82.9932554
13151,Highland Circle,48312,42.5429017,-82.9932489
13425,Highland Circle,48312,42.5431838,-82.9917428
13419,Highland Circle,48312,42.5431017,-82.9917358
13413,Highland Circle,48312,42.5430265,-82.9917333
13407,Highland Circle,48312,42.5429403,-82.9917334
13193,Highland Circle,48312,42.5426676,-82.9925507
13199,Highland Circle,48312,42.5426708,-82.9924307
13280,Highland Circle,48312,42.5427044,-82.9900607
13286,Highland Circle,48312,42.5427089,-82.9899506
13292,Highland Circle,48312,42.5427105,-82.9898394
13295,Highland Circle,48312,42.5428822,-82.9904587
13289,Highland Circle,48312,42.5428000,-82.9904518
13283,Highland Circle,48312,42.5427248,-82.9904493
13277,Highland Circle,48312,42.5426387,-82.9904494
34410,Moravian Drive,48312,42.5477097,-82.9877470
34470,Moravian Drive,48312,42.5481616,-82.9868896
34440,Moravian Drive,48312,42.5480469,-82.9872104
34486,Moravian Drive,48312,42.5483100,-82.9866360
34510,Moravian Drive,48312,42.5485585,-82.9862371
34708,San Paulo Drive,48312,42.5510855,-82.9729131
34722,San Paulo Drive,48312,42.5512791,-82.9728514
34736,San Paulo Drive,48312,42.5515000,-82.9728702
34764,San Paulo Drive,48312,42.5516268,-82.9734461
34750,San Paulo Drive,48312,42.5516569,-82.9731371
34778,San Paulo Drive,48312,42.5516147,-82.9737687
34799,Fontana Drive,48312,42.5524269,-82.9747646
34771,Fontana Drive,48312,42.5519656,-82.9747556
34827,Fontana Drive,48312,42.5524944,-82.9741693
34841,Fontana Drive,48312,42.5524752,-82.9738643
34813,Fontana Drive,48312,42.5525023,-82.9744487
34785,Fontana Drive,48312,42.5521771,-82.9748486
34457,Maple Lane Drive,48312,42.5478535,-83.0049081
34441,Maple Lane Drive,48312,42.5476364,-83.0048958
34457,Maple Lane Drive,48312,42.5477282,-83.0049018
34433,Maple Lane Drive,48312,42.5475037,-83.0048896
34425,Maple Lane Drive,48312,42.5474222,-83.0048855
34417,Maple Lane Drive,48312,42.5472816,-83.0048829
34409,Maple Lane Drive,48312,42.5472002,-83.0048786
34401,Maple Lane Drive,48312,42.5470606,-83.0048686
34393,Maple Lane Drive,48312,42.5469792,-83.0048645
34337,Fontana Drive,48312,42.5459298,-82.9745276
14822,Liri Drive,48312,42.5458173,-82.9742451
14836,Liri Drive,48312,42.5458405,-82.9739404
34330,Orsini Drive,48312,42.5467081,-82.9728564
34344,Orsini Drive,48312,42.5468630,-82.9726420
34358,Orsini Drive,48312,42.5470888,-82.9726243
34372,Orsini Drive,48312,42.5472796,-82.9726682
34302,Orsini Drive,48312,42.5467479,-82.9735419
34316,Orsini Drive,48312,42.5467009,-82.9731897
34351,Fontana Drive,48312,42.5461608,-82.9746008
34365,Fontana Drive,48312,42.5463565,-82.9745042
14850,Liri Drive,48312,42.5458861,-82.9736676
33641,Montera Lane,48312,42.5432606,-82.9710155
15029,Kara Lane,48312,42.5427253,-82.9719379
15089,Mill Creek Drive,48312,42.5455221,-82.9714136
15117,Mill Creek Drive,48312,42.5454893,-82.9711533
15145,Mill Creek Drive,48312,42.5455621,-82.9708831
15173,Mill Creek Drive,48312,42.5454863,-82.9705642
33924,Montera Lane,48312,42.5452629,-82.9704308
33896,Montera Lane,48312,42.5450682,-82.9704509
15138,Kara Boulevard,48312,42.5424017,-82.9707868
15166,Kara Boulevard,48312,42.5423396,-82.9705149
15194,Kara Boulevard,48312,42.5423017,-82.9702540
15082,Kara Lane,48312,42.5422609,-82.9713323
14775,East 14 Mile Road,48312,42.5388778,-82.9735852
11855,15 Mile Road,48312,42.5549984,-83.0070960
33424,Dodge Park Road,48312,42.5553630,-83.0090642
33402,Dodge Park Road,48312,42.5551623,-83.0090596
33366,Dodge Park Road,48312,42.5547062,-83.0090451
33344,Dodge Park Road,48312,42.5545111,-83.0090381
11943,15 Mile Road,48312,42.5520942,-83.0071568
11947,15 Mile Road,48312,42.5522398,-83.0070259
11957,15 Mile Road,48312,42.5522556,-83.0065770
11961,15 Mile Road,48312,42.5521143,-83.0064383
35170,Dodge Park Road,48312,42.5530410,-83.0080612
35204,Dodge Park Road,48312,42.5534215,-83.0080909
35214,Dodge Park Road,48312,42.5536661,-83.0080994
25264,Dodge Park Road,48312,42.5538218,-83.0090884
35262,Dodge Park Road,48312,42.5538243,-83.0089625
35260,Dodge Park Road,48312,42.5538264,-83.0088591
35254,Dodge Park Road,48312,42.5538285,-83.0087554
35252,Dodge Park Road,48312,42.5538305,-83.0086547
35240,Dodge Park Road,48312,42.5538335,-83.0085045
39051,Dodge Park Road,48313,42.5813589,-83.0114535
38900,Dodge Park Road,48312,42.5805028,-83.0099363
38900,Dodge Park Road,48312,42.5798602,-83.0089598
37535,Dodge Park Road,48312,42.5703910,-83.0113932
37400,Dodge Park Road,48312,42.5690590,-83.0089098
11555,Metropolitan Parkway,48312,42.5671677,-83.0108637
34467,Moravian Drive,48312,42.5491170,-82.9871658
34441,Moravian Drive,48312,42.5488017,-82.9875387
34415,Moravian Drive,48312,42.5485842,-82.9878815
34355,Moravian Drive,48312,42.5478029,-82.9891178
34365,Moravian Drive,48312,42.5480921,-82.9888127
13777,15 Mile Road,48312,42.5529541,-82.9879931
14151,15 Mile Road,48312,42.5541355,-82.9818414
14445,15 Mile Road,48312,42.5531192,-82.9798426
14437,15 Mile Road,48312,42.5530770,-82.9800691
14439,15 Mile Road,48312,42.5530940,-82.9799587
14447,15 Mile Road,48312,42.5531367,-82.9797283
14701,15 Mile Road,48312,42.5531869,-82.9760798
14735,15 Mile Road,48312,42.5532473,-82.9755658
14765,15 Mile Road,48312,42.5532532,-82.9752338
14815,15 Mile Road,48312,42.5532598,-82.9747510
14853,15 Mile Road,48312,42.5532700,-82.9742830
14891,15 Mile Road,48312,42.5533120,-82.9737623
14939,15 Mile Road,48312,42.5533472,-82.9731393
35330,Moravian Drive,48312,42.5552319,-82.9741593
35370,Moravian Drive,48312,42.5554454,-82.9737873
35386,Moravian Drive,48312,42.5556305,-82.9734122
35410,Moravian Drive,48312,42.5558600,-82.9730036
35212,Moravian Drive,48312,42.5541498,-82.9760905
35238,Moravian Drive,48312,42.5543687,-82.9756512
35262,Moravian Drive,48312,42.5546225,-82.9752742
35290,Moravian Drive,48312,42.5546799,-82.9746871
35500,Moravian Drive,48312,42.5565448,-82.9717769
35530,Moravian Drive,48312,42.5568865,-82.9711902
35550,Moravian Drive,48312,42.5570891,-82.9707914
38470,Utica Road,48312,42.5778051,-82.9901595
33435,Monticello Drive,48312,42.5417061,-82.9731513
14653,East 14 Mile Road,48312,42.5386371,-82.9755235
5005,15 Mile Road,48310,42.5509470,-83.0575322
39209,Mound Road,48310,42.5812834,-83.0506858
39139,Mound Road,48310,42.5806788,-83.0505552
38219,Mound Road,48310,42.5738578,-83.0507827
14300,15 Mile Road,48312,42.5522274,-82.9812520
34580,Moravian Drive,48312,42.5491377,-82.9853052
34600,Moravian Drive,48312,42.5492359,-82.9850960
34620,Moravian Drive,48312,42.5493510,-82.9848810
37308,Schoenherr Road,48312,42.5696476,-82.9882842
37300,Schoenherr Road,48312,42.5697849,-82.9883614
37800,Utica Road,48312,42.5735605,-82.9792753
37250,Utica Road,48312,42.5715500,-82.9719682
37328,Utica Road,48312,42.5710542,-82.9730322
37370,Utica Road,48312,42.5711543,-82.9739793
37420,Utica Road,48312,42.5716262,-82.9749658
37474,Utica Road,48312,42.5720898,-82.9755721
37508,Utica Road,48312,42.5727289,-82.9760618
37510,Utica Road,48312,42.5720844,-82.9762427
37600,Utica Road,48312,42.5727225,-82.9769513
38000,Utica Road,48312,42.5754259,-82.9829665
37986,Utica Road,48312,42.5748672,-82.9824923
37950,Utica Road,48312,42.5747001,-82.9821112
38100,Utica Road,48312,42.5762349,-82.9851198
13395,Denver Circle South,48312,42.5749328,-82.9922871
38301,Dodge Park Road,48312,42.5757776,-83.0110896
38341,Dodge Park Road,48312,42.5762845,-83.0111605
8207,Clay Court,48313,42.5874552,-83.0278164
8205,Clay Court,48313,42.5875121,-83.0278191
8233,Clay Court,48313,42.5874836,-83.0269558
8235,Clay Court,48313,42.5875386,-83.0269804
40048,Van Dyke Avenue,48313,42.5876765,-83.0300391
40058,Van Dyke Avenue,48313,42.5877850,-83.0300691
8096,Independence Drive,48313,42.5877261,-83.0293114
40100,Van Dyke Avenue,48313,42.5883897,-83.0300557
8051,Independence Drive,48313,42.5883499,-83.0293518
8051,Independence Drive,48313,42.5883421,-83.0295956
40150,Van Dyke Avenue,48313,42.5886679,-83.0300516
40300,Van Dyke Avenue,48313,42.5893518,-83.0300549
40200,Van Dyke Avenue,48313,42.5889431,-83.0298722
40422,Van Dyke Avenue,48313-3735,42.5896750,-83.0299130
40424,Van Dyke Avenue,48313,42.5901226,-83.0300157
12500,Plumbrook Road,48312,42.5738832,-83.0020626
11433,16 1/2 Mile Road,48312,42.5738224,-83.0135216
11333,16 1/2 Mile Road,48312,42.5738419,-83.0149143
37845,Dodge Park Road,48312,42.5724340,-83.0110642
8500,Plumbrook Road,48313,42.5814831,-83.0243830
39200,Van Dyke Avenue,48313,42.5828668,-83.0292418
39126,Van Dyke Avenue,48313-4615,42.5824475,-83.0285628
39120,Van Dyke Avenue,48313,42.5822721,-83.0285550
39110,Van Dyke Avenue,48313,42.5821931,-83.0285516
39090,Van Dyke Avenue,48313,42.5820419,-83.0285449
39080,Van Dyke Avenue,48313,42.5818211,-83.0285351
39072,Van Dyke Avenue,48313,42.5816663,-83.0285283
39070,Van Dyke Avenue,48313,42.5815803,-83.0285244
3900,Van Dyke Avenue,48313,42.5808452,-83.0284919
39056,Van Dyke Avenue,48313,42.5813618,-83.0285148
39054,Van Dyke Avenue,48313,42.5812787,-83.0285111
39050,Van Dyke Avenue,48313,42.5811824,-83.0285069
39028,Van Dyke Avenue,48313,42.5810731,-83.0285021
38200,Van Dyke Avenue,48312,42.5748496,-83.0294135
38190,Van Dyke Avenue,48312,42.5746248,-83.0295119
38170,Van Dyke Avenue,48312,42.5743430,-83.0294072
38120,Van Dyke Avenue,48312,42.5740500,-83.0294897
39540,Van Dyke Avenue,48313,42.5842129,-83.0296831
8202,Metropolitan Parkway,48312,42.5650952,-83.0260765
11063,16 1/2 Mile Road,48312,42.5739508,-83.0194748
11091,16 1/2 Mile Road,48312,42.5737982,-83.0186899
11111,16 1/2 Mile Road,48312,42.5754068,-83.0188208
11119,16 1/2 Mile Road,48312,42.5761136,-83.0188162
11123,16 1/2 Mile Road,48312,42.5766002,-83.0188740
11125,16 1/2 Mile Road,48312,42.5768602,-83.0188581
39850,Van Dyke Avenue,48313,42.5859973,-83.0295501
39890,Van Dyke Avenue,48313,42.5866893,-83.0298449
40428,Van Dyke Avenue,48313,42.5905030,-83.0300247
8130,Constitution Boulevard,48313,42.5908636,-83.0295591
40490,Van Dyke Avenue,48313,42.5907937,-83.0300820
8104,Independence Drive,48313,42.5909309,-83.0289039
8108,Independence Drive,48313,42.5907350,-83.0287721
8112,Independence Drive,48313,42.5905373,-83.0288830
8116,Independence Drive,48313,42.5903440,-83.0287579
8120,Independence Drive,48313,42.5900468,-83.0286957
8124,Independence Drive,48313,42.5898613,-83.0288570
8128,Independence Drive,48313,42.5896837,-83.0286956
8147,Independence Drive,48313,42.5886331,-83.0281533
8151,Independence Drive,48313,42.5885439,-83.0279157
8115,Independence Drive,48313,42.5888282,-83.0286168
8111,Independence Drive,48313,42.5886439,-83.0287721
8107,Independence Drive,48313,42.5885218,-83.0285435
8127,Independence Drive,48313,42.5894243,-83.0286809
8123,Independence Drive,48313,42.5892406,-83.0288363
8119,Independence Drive,48313,42.5890923,-83.0286145
39660,Spalding Drive,48313,42.5844032,-83.0201579
8045,Constitution Boulevard,48313,42.5916055,-83.0295071
40950,Van Dyke Avenue,48313,42.5946822,-83.0292490
8390,18 Mile Road,48313,42.5947494,-83.0274639
8396,18 Mile Road,48313,42.5946097,-83.0272100
8402,18 Mile Road,48313,42.5947953,-83.0270017
39601,Van Dyke Avenue,48313,42.5848386,-83.0309267
35364,Van Dyke Avenue,48312,42.5536041,-83.0282039
35382,Van Dyke Avenue,48312,42.5540320,-83.0282533
35376,Van Dyke Avenue,48312,42.5539652,-83.0282498
35374,Van Dyke Avenue,48312,42.5538990,-83.0282464
8771,15 Mile Road,48312,42.5520030,-83.0217121
35653,Dodge Park Road,48312,42.5568646,-83.0102749
11700,15 Mile Road,48312,42.5512402,-83.0085953
11600,15 Mile Road,48312,42.5512016,-83.0094007
11500,15 Mile Road,48312,42.5511411,-83.0105132
11508,15 Mile Road,48312,42.5511424,-83.0104345
11516,15 Mile Road,48312,42.5511437,-83.0103551
11540,15 Mile Road,48312,42.5511562,-83.0099839
11558,15 Mile Road,48312,42.5511592,-83.0098379
11564,15 Mile Road,48312,42.5511608,-83.0097592
11425,15 Mile Road,48312,42.5521742,-83.0116189
35117,Dodge Park Road,48312,42.5524527,-83.0101080
35129,Dodge Park Road,48312,42.5526059,-83.0101124
35135,Dodge Park Road,48312,42.5527059,-83.0101169
35145,Dodge Park Road,48312,42.5528480,-83.0100484
35147,Dodge Park Road,48312,42.5528460,-83.0101322
35285,Dodge Park Road,48312,42.5538246,-83.0102825
35279,Dodge Park Road,48312,42.5538258,-83.0102117
35265,Dodge Park Road,48312,42.5538282,-83.0100683
35275,Dodge Park Road,48312,42.5538270,-83.0101399
35197,Dodge Park Road,48312,42.5532701,-83.0101242
35215,Dodge Park Road,48312,42.5534589,-83.0101090
35353,Dodge Park Road,48312,42.5543661,-83.0101961
36260,Van Dyke Avenue,48312,42.5603146,-83.0287720
36250,Van Dyke,48312,42.5596025,-83.0255400
36200,Van Dyke Avenue,48312,42.5576244,-83.0283112
35804,Van Dyke Avenue,48312,42.5573969,-83.0286585
35806,Van Dyke Avenue,48312,42.5574006,-83.0285545
35812,Van Dyke Avenue,48312,42.5574039,-83.0284683
35818,Van Dyke Avenue,48312,42.5574067,-83.0283926
824,Van Dyke Avenue,48312,42.5574092,-83.0283241
35836,Van Dyke Avenue,48312,42.5574197,-83.0280379
35830,Van Dyke Avenue,48312,42.5574112,-83.0282685
35834,Van Dyke Avenue,48312,42.5574137,-83.0282004
35756,Van Dyke Avenue,48312,42.5561434,-83.0283185
35752,Van Dyke Avenue,48312,42.5560280,-83.0283311
35748,Van Dyke Avenue,48312,42.5559526,-83.0283278
35720,Van Dyke Avenue,48312,42.5554812,-83.0282911
35724,Van Dyke Avenue,48312,42.5555779,-83.0282954
35728,Van Dyke Avenue,48312,42.5556586,-83.0283147
35732,Van Dyke Avenue,48312,42.5557356,-83.0283180
35740,Van Dyke Avenue,48312,42.5558128,-83.0283215
35744,Van Dyke Avenue,48312,42.5558805,-83.0283245
36324,Van Dyke Avenue,48312,42.5611863,-83.0287499
37125,Van Dyke Avenue,48312,42.5666267,-83.0302722
7839,Metropolitan Parkway,48312,42.5661886,-83.0313049
7855,Metropolitan Parkway,48312,42.5662001,-83.0309333
40955,Van Dyke Avenue,48313,42.5945996,-83.0313675
40825,Van Dyke Avenue,48313,42.5940890,-83.0316211
7600,18 Mile Road,48314,42.5942077,-83.0332643
40800,Enterprise Drive,48314,42.5941384,-83.0346980
40750,Enterprise Drive,48314,42.5931150,-83.0349395
40700,Enterprise Drive,48314,42.5922722,-83.0348855
40600,Enterprise Drive,48314,42.5913951,-83.0348422
7150,18 Mile Road,48314,42.5942877,-83.0382678
42288,Yearego Drive,48314,42.6041406,-83.0345047
42255,Van Dyke Avenue,48314,42.6040875,-83.0325665
42450,Yearego Drive,48314,42.6044329,-83.0355247
42557,Van Dyke Avenue,48314,42.6059979,-83.0319608
5823,17 Mile Road,48310,42.5801316,-83.0512162
5831,17 Mile Road,48310,42.5801355,-83.0510981
5835,17 Mile Road,48310,42.5801396,-83.0509787
5818,17 Mile Road,48310,42.5803401,-83.0512004
5555,17 Mile Road,48310,42.5802459,-83.0538478
5555,17 Mile Road,48310,42.5807961,-83.0535565
39239,Mound Road,48310,42.5817266,-83.0508406
40333,Dodge Park Road,48313,42.5910843,-83.0126248
39473,Mound Road,48310,42.5832379,-83.0507768
39485,Mound Road,48310,42.5835758,-83.0510685
39525,Mound Road,48310,42.5837438,-83.0511876
39533,Mound Road,48310,42.5838574,-83.0511906
39549,Mound Road,48310,42.5839344,-83.0511932
39565,Mound Road,48310,42.5840111,-83.0511958
40940,Ryan Road,48310,42.5931121,-83.0684557
40824,Ryan Road,48310,42.5922885,-83.0683178
40828,Ryan Road,48310,42.5919758,-83.0695325
40768,Ryan Road,48310,42.5920686,-83.0692920
49792,Ryan Road,48310,42.5920722,-83.0690833
40800,Ryan Road,48310,42.5920738,-83.0689866
40808,Ryan Road,48310,42.5920749,-83.0689174
40816,Ryan Road,48310,42.5920760,-83.0688478
40820,Ryan Road,48310,42.5920771,-83.0687781
3912,18 Mile Road,48314,42.5931109,-83.0713693
3916,18 Mile Road,48314,42.5931130,-83.0712674
3920,18 Mile Road,48314,42.5931146,-83.0711927
7575,18 1/2 Mile Road,48314,42.6026038,-83.0372775
7575,18 1/2 Mile Road,48314,42.6040069,-83.0368748
42130,Mound Road,48314,42.6022753,-83.0500683
5959,18 1/2 Mile Road,48314,42.6019907,-83.0499651
42200,Mound Road,48314,42.6030616,-83.0500410
42150,Mound Road,48314,42.6026430,-83.0500172
42355,Merrill Road,48314,42.6031244,-83.0474422
42700-42892,Mound Road,48314,42.6069940,-83.0485920
42376-42498,Mound Road,48314,42.6043904,-83.0496946
39909,Van Dyke Avenue,48313,42.5868907,-83.0313909
3999,Van Dyke Avenue,48313,42.5872414,-83.0315839
8617,15 Mile Road,48312,42.5516645,-83.0231762
35100,Tiffany Drive,48312,42.5520661,-83.0233086
35100,Tiffany Drive,48312,42.5521928,-83.0231479
8491,15 Mile Road,48312,42.5518125,-83.0242065
34120,Jewell Drive,48312,42.5453015,-82.9995294
34224,Maple Lane Drive,48312,42.5463203,-83.0035460
34310,Maple Lane Drive,48312,42.5468277,-83.0037701
34294,Maple Lane Drive,48312,42.5466140,-83.0037365
34140,Maple Lane Drive,48312,42.5457989,-83.0037173
34073,Maple Lane Drive,48312,42.5451834,-83.0046452
34111,Maple Lane Drive,48312,42.5454010,-83.0047042
34143,Maple Lane Drive,48312,42.5456388,-83.0053364
34191,Maple Lane Drive,48312,42.5460449,-83.0047957
34023,Maple Lane Drive,48312,42.5449015,-83.0046150
44231,Phoenix Drive,48314,42.6193449,-83.0438588
6592,Arrow Drive,48314,42.6192403,-83.0447076
6556,Arrow Drive,48314sales@arborplastic.com,42.6191990,-83.0452427
6538,Arrow Drive,48314sales@arborplastic.com,42.6191862,-83.0456078
44019,Phoenix Drive,48314,42.6169478,-83.0437266
44231,Phoenix Drive,48314,42.6186769,-83.0438443
44122,Van Dyke Avenue,48317,42.6199292,-83.0317558
44122,Van Dyke Avenue,48317,42.6199902,-83.0317628
7486,Triangle Drive,48314,42.6164268,-83.0333859
7510,Triangle Drive,48314,42.6164957,-83.0331197
43805,Van Dyke Avenue,48314,42.6164238,-83.0327176
7454,Triangle Drive,48314,42.6162338,-83.0340193
7325,Triangle Drive,48314,42.6163170,-83.0362713
7341,Triangle Drive,48314,42.6164194,-83.0363168
7385,Triangle Drive,48314,42.6165781,-83.0353558
7358,Triangle Drive,48314,42.6158129,-83.0357229
7370,Triangle Drive,48314,42.6158463,-83.0355403
7382,Triangle Drive,48314,42.6158630,-83.0354586
7376,Triangle Drive,48314,42.6158793,-83.0353769
7400,Triangle Drive,48314,42.6161384,-83.0347152
7400,Triangle Drive,48314,42.6160135,-83.0346617
43807,Van Dyke Avenue,48314,42.6165429,-83.0327665
43600,Utica Road,48314,42.6144420,-83.0341910
43560,Utica Road,48314,42.6142164,-83.0339915
43540,Utica Road,48314,42.6138557,-83.0336625
43525,Van Dyke Avenue,48314,42.6140178,-83.0323561
43500,Utica Road,48314,42.6134273,-83.0333207
43491,Van Dyke Avenue,48314,42.6134112,-83.0323757
43555,Van Dyke Avenue,48314,42.6136899,-83.0324534
43715,Van Dyke Avenue,48314,42.6151041,-83.0328789
43719,Van Dyke Avenue,48314,42.6151488,-83.0328918
43727,Van Dyke Avenue,48314,42.6152857,-83.0329057
43735,Van Dyke Avenue,48314,42.6153954,-83.0329205
43743,Van Dyke Avenue,48314,42.6154777,-83.0329356
43743,Van Dyke Avenue,48314,42.6155321,-83.0329383
43751,Van Dyke Avenue,48314,42.6155886,-83.0329309
43755,Van Dyke Avenue,48314,42.6156437,-83.0329336
43759,Van Dyke Avenue,48314,42.6156992,-83.0329258
43763,Van Dyke Avenue,48314,42.6157546,-83.0329286
43767,Van Dyke Avenue,48314,42.6158088,-83.0329215
43771,Van Dyke Avenue,48314,42.6158627,-83.0329241
43779,Van Dyke Avenue,48314,42.6160287,-83.0328964
8111,Riverland Drive,48314,42.6137958,-83.0306542
14370,15 Mile Road,48312,42.5522464,-82.9791732
14444,15 Mile Road,48312,42.5523039,-82.9781604
14432,15 Mile Road,48312,42.5522981,-82.9782982
14426,15 Mile Road,48312,42.5522948,-82.9783806
14420,15 Mile Road,48312,42.5522908,-82.9784738
14408,15 Mile Road,48312,42.5522873,-82.9785589
14408,15 Mile Road,48312,42.5522838,-82.9786436
14402,15 Mile Road,48312,42.5522795,-82.9787422
13990,15 Mile Road,48312,42.5518737,-82.9850548
13930,15 Mile Road,48312,42.5520241,-82.9857706
13801,15 Mile Road,48312,42.5527956,-82.9874900
13801,15 Mile Road,48312,42.5527143,-82.9874845
13801,15 Mile Road,48312,42.5526334,-82.9874790
13801,15 Mile Road,48312,42.5529585,-82.9875012
13801,15 Mile Road,48312,42.5528770,-82.9874956
35505,Schoenherr Road,48312,42.5560331,-82.9893040
35429,Schoenherr Road,48312,42.5555322,-82.9892500
35413,Schoenherr Road,48312,42.5553757,-82.9893455
35409,Schoenherr Road,48312,42.5552114,-82.9894463
33250,Schoenherr Road,48312,42.5398320,-82.9873261
33100,Schoenherr Road,48312,42.5387560,-82.9873889
37150,Van Dyke Avenue,48312,42.5691367,-83.0286251
37130,Van Dyke Avenue,48312,42.5691474,-83.0282825
37048,Van Dyke Avenue,48312,42.5691535,-83.0276105
37060,Van Dyke Avenue,48312,42.5691293,-83.0278081
37090,Van Dyke Avenue,48312,42.5691219,-83.0280453
37070,Van Dyke Avenue,48312,42.5691256,-83.0279280
37348,Van Dyke Avenue,48312,42.5691833,-83.0265485
37360,Van Dyke Avenue,48312,42.5691757,-83.0267736
37372,Van Dyke Avenue,48312,42.5691687,-83.0269804
37378,Van Dyke Avenue,48312,42.5691663,-83.0270504
37390,Van Dyke Avenue,48312,42.5691633,-83.0271399
37396,Van Dyke Avenue,48312,42.5691596,-83.0272513
37578,Van Dyke Avenue,48312,42.5697114,-83.0277389
37562,Van Dyke Avenue,48312,42.5696841,-83.0279143
37554,Van Dyke Avenue,48312,42.5696817,-83.0279947
37550,Van Dyke Avenue,48312,42.5696767,-83.0281701
37526,Van Dyke Avenue,48312,42.5696666,-83.0285292
37514,Van Dyke Avenue,48312,42.5696592,-83.0287924
37502,Van Dyke Avenue,48312,42.5696530,-83.0290132
37900,Van Dyke Avenue,48312,42.5725455,-83.0290634
37880,Van Dyke Avenue,48312,42.5725518,-83.0287844
37876,Van Dyke Avenue,48312,42.5725534,-83.0287185
37872,Van Dyke Avenue,48312,42.5725544,-83.0286742
37860,Van Dyke Avenue,48312,42.5725629,-83.0283394
37864,Van Dyke Avenue,48312,42.5725577,-83.0285434
37852,Van Dyke Avenue,48312,42.5724285,-83.0280530
37840,Van Dyke Avenue,48312,42.5723547,-83.0280499
37836,Van Dyke Avenue,48312,42.5722817,-83.0280462
37832,Van Dyke Avenue,48312,42.5722082,-83.0280425
37824,Van Dyke Avenue,48312,42.5721341,-83.0280388
37804,Van Dyke Avenue,48312,42.5719108,-83.0280275
37770,Van Dyke Avenue,48312,42.5718327,-83.0280236
37808,Van Dyke Avenue,48312,42.5719830,-83.0280312
37820,Van Dyke Avenue,48312,42.5720582,-83.0280350
37750,Van Dyke Avenue,48312,42.5717344,-83.0280187
37742,Van Dyke Avenue,48312,42.5716349,-83.0280135
37734,Van Dyke Avenue,48312,42.5715241,-83.0280082
37730,Van Dyke Avenue,48312,42.5713886,-83.0280016
37722,Van Dyke Avenue,48312,42.5712551,-83.0279951
37710,Van Dyke Avenue,48312,42.5711192,-83.0279890
37702,Van Dyke Avenue,48312,42.5709819,-83.0279810
37680,Van Dyke Avenue,48312,42.5708459,-83.0279739
37676,Van Dyke Avenue,48312,42.5707047,-83.0279666
8100,Clay Court,48313,42.5865697,-83.0287809
8102,Clay Court,48313,42.5865158,-83.0287769
8104,Clay Court,48313,42.5864628,-83.0287745
8106,Clay Court,48313,42.5863998,-83.0287710
8110,Clay Court,48313,42.5863376,-83.0286674
8112,Clay Court,48313,42.5863397,-83.0285952
8114,Clay Court,48313,42.5863474,-83.0285263
8116,Clay Court,48313,42.5863497,-83.0284540
8118,Clay Court,48313,42.5863514,-83.0283775
8120,Clay Court,48313,42.5863535,-83.0282979
8124,Clay Court,48313,42.5863574,-83.0282227
8126,Clay Court,48313,42.5863592,-83.0281479
8128,Clay Court,48313,42.5864224,-83.0280591
8130,Clay Court,48313,42.5864805,-83.0280616
8132,Clay Court,48313,42.5865401,-83.0280669
8134,Clay Court,48313,42.5865948,-83.0280694
8234,Clay Court,48313,42.5866173,-83.0270380
8232,Clay Court,48313,42.5865144,-83.0271322
8238,Clay Court,48313,42.5867736,-83.0269847
8222,Clay Court,48313,42.5864989,-83.0275631
8224,Clay Court,48313,42.5864808,-83.0275051
8226,Clay Court,48313,42.5864649,-83.0274282
8254,Clay Court,48313,42.5869979,-83.0272616
8252,Clay Court,48313,42.5869719,-83.0271617
8250,Clay Court,48313,42.5869519,-83.0271052
8215,Clay Court,48313,42.5873526,-83.0276189
8217,Clay Court,48313,42.5873522,-83.0275190
8219,Clay Court,48313,42.5873557,-83.0274043
8221,Clay Court,48313,42.5873578,-83.0273198
8223,Clay Court,48313,42.5873575,-83.0272198
8225,Clay Court,48313,42.5873611,-83.0271128
8202,Clay Court,48313,42.5870339,-83.0275265
8204,Clay Court,48313,42.5869960,-83.0275476
8206,Clay Court,48313,42.5869358,-83.0275902
8208,Clay Court,48313,42.5869001,-83.0276552
8210,Clay Court,48313,42.5868599,-83.0276794
8212,Clay Court,48313,42.5868016,-83.0277065
8214,Clay Court,48313,42.5867606,-83.0277336
8218,Clay Court,48313,42.5866781,-83.0277264
8216,Clay Court,48313,42.5866238,-83.0277509
8236,Clay Court,48313,42.5866602,-83.0270134
8365,Clay Court,48313,42.5873876,-83.0264708
8363,Clay Court,48313,42.5874199,-83.0263932
8319,Clay Court,48313,42.5868937,-83.0264176
8317,Clay Court,48313,42.5869505,-83.0264650
8313,Clay Court,48313,42.5870136,-83.0265538
8311,Clay Court,48313,42.5870520,-83.0265833
8309,Clay Court,48313,42.5871382,-83.0266247
8307,Clay Court,48313,42.5871956,-83.0266685
8325,Clay Court,48313,42.5869590,-83.0260693
8323,Clay Court,48313,42.5869262,-83.0261451
8341,Clay Court,48313,42.5874493,-83.0261660
8339,Clay Court,48313,42.5873835,-83.0261052
8337,Clay Court,48313,42.5873192,-83.0260055
8335,Clay Court,48313,42.5872818,-83.0259717
8333,Clay Court,48313,42.5871984,-83.0259229
8331,Clay Court,48313,42.5871433,-83.0258736
8308,Clay Court,48313,42.5864572,-83.0266157
8310,Clay Court,48313,42.5864666,-83.0265253
8312,Clay Court,48313,42.5864999,-83.0263826
8314,Clay Court,48313,42.5864983,-83.0262912
8320,Clay Court,48313,42.5865606,-83.0260795
8322,Clay Court,48313,42.5865699,-83.0259890
8324,Clay Court,48313,42.5866096,-83.0258465
8326,Clay Court,48313,42.5866080,-83.0257546
8111,Clay Court,48313,42.5869579,-83.0283543
8113,Clay Court,48313,42.5869203,-83.0283161
8115,Clay Court,48313,42.5868675,-83.0282775
8117,Clay Court,48313,42.5868229,-83.0282424
8151,Clay Court,48313,42.5870991,-83.0286790
8153,Clay Court,48313,42.5870977,-83.0287396
8155,Clay Court,48313,42.5871007,-83.0288207
8157,Clay Court,48313,42.5870995,-83.0288984
8131,Clay Court,48313,42.5872333,-83.0283399
8133,Clay Court,48313,42.5872883,-83.0283110
8135,Clay Court,48313,42.5873325,-83.0282714
8137,Clay Court,48313,42.5873809,-83.0282448
8107,Clay Court,48313,42.5869526,-83.0285468
8105,Clay Court,48313,42.5869128,-83.0285788
8103,Clay Court,48313,42.5868574,-83.0286100
8101,Clay Court,48313,42.5868093,-83.0286393
8127,Clay Court,48313,42.5871116,-83.0282379
8125,Clay Court,48313,42.5871133,-83.0281770
8123,Clay Court,48313,42.5871147,-83.0280944
8121,Clay Court,48313,42.5871168,-83.0280161
8147,Clay Court,48313,42.5872197,-83.0285741
8145,Clay Court,48313,42.5872669,-83.0286005
8143,Clay Court,48313,42.5873155,-83.0286489
8141,Clay Court,48313,42.5873608,-83.0286834
11050,Windmill Court,48313,42.5958058,-83.0202513
40850,Van Dyke Avenue,48313,42.5945399,-83.0287976
40860,Van Dyke Avenue,48313,42.5945442,-83.0286162
40846,Van Dyke Avenue,48313,42.5944323,-83.0287038
40840,Van Dyke Avenue,48313,42.5943776,-83.0287014
40742,Van Dyke Avenue,48313,42.5939281,-83.0286822
40688,Van Dyke Avenue,48313,42.5933828,-83.0287029
40700,Van Dyke Avenue,48313,42.5936398,-83.0287139
40732,Van Dyke Avenue,48313,42.5938439,-83.0286787
40748,Van Dyke Avenue,48313,42.5941313,-83.0286909
40825,Van Dyke Avenue,48313,42.5943221,-83.0286991
11101,Walnut Lane,48313,42.6028425,-83.0208569
11125,Walnut Lane,48313,42.6028000,-83.0200446
11161,Walnut Lane,48313,42.6026193,-83.0195822
11191,Walnut Lane,48313,42.6024283,-83.0190394
11200,Walnut Lane,48313,42.6019080,-83.0190826
41726,Utica Road,48313,42.6012268,-83.0199932
41760,Utica Road,48313,42.6008803,-83.0207683
11042,Walnut Lane,48313,42.6022227,-83.0207892
11050,Walnut Lane,48313,42.6020968,-83.0202060
41930,Utica Road,48313,42.6021209,-83.0220997
41900,Utica Road,48313,42.6020309,-83.0216858
41880,Utica Road,48313,42.6017161,-83.0216185
41850,Utica Road,48313,42.6015018,-83.0214148
41820,Utica Road,48313,42.6013141,-83.0212048
41742,Utica Road,48313,42.6011122,-83.0209911
41240,Utica Road,48313,42.5974181,-83.0173993
8989,18 Mile Road,48313,42.5957837,-83.0211417
11101,18 Mile Road,48313,42.5957299,-83.0208815
8917,18 Mile Road,48313,42.5956922,-83.0218460
8855,18 Mile Road,48313,42.5956293,-83.0223100
8811,18 Mile Road,48313,42.5960982,-83.0226016
8777,18 Mile Road,48313,42.5957957,-83.0228072
8735,18 Mile Road,48313,42.5956812,-83.0232384
8695,18 Mile Road,48313,42.5957004,-83.0238728
8633,18 Mile Road,48313,42.5956951,-83.0243586
11113,18 Mile Road,48313,42.5957466,-83.0205483
12443,15 Mile Road,48312,42.5527371,-83.0010880
12441,15 Mile Road,48312,42.5531560,-83.0014065
12445,15 Mile Road,48312,42.5523780,-83.0011979
12383,15 Mile Road,48312,42.5523527,-83.0017957
12317,15 Mile Road,48312,42.5524026,-83.0023632
12567,15 Mile Road,48312,42.5524059,-82.9999971
12505,15 Mile Road,48312,42.5523958,-83.0005231
12550,15 Mile Road,48312,42.5481487,-83.0000570
11323,15 Mile Road,48312,42.5519323,-83.0126523
35427,Dodge Park Road,48312,42.5553283,-83.0106612
8600,15 Mile Road,48312,42.5499757,-83.0229338
34750,Van Dyke Avenue,48312,42.5495744,-83.0275296
34758,Van Dyke Avenue,48312,42.5496503,-83.0275340
34762,Van Dyke Avenue,48312,42.5497771,-83.0275546
34780,Van Dyke Avenue,48312,42.5497779,-83.0278510
34788,Van Dyke Avenue,48312,42.5497744,-83.0279920
34796,Van Dyke Avenue,48312,42.5497711,-83.0281259
34766,Van Dyke Avenue,48312,42.5497806,-83.0277401
34708,Van Dyke Avenue,48312,42.5490633,-83.0277745
34732,Van Dyke Avenue,48312,42.5492896,-83.0277838
34726,Van Dyke Avenue,48312,42.5492342,-83.0277816
34714,Van Dyke Avenue,48312,42.5491193,-83.0277768
34510,Van Dyke Avenue,48312,42.5476514,-83.0281634
34208,Van Dyke Avenue,48312,42.5461958,-83.0271705
34224,Van Dyke Avenue,48312,42.5465340,-83.0281753
34228,Van Dyke Avenue,48312,42.5465369,-83.0280503
34244,Van Dyke Avenue,48312,42.5465523,-83.0273806
34240,Van Dyke Avenue,48312,42.5465493,-83.0275078
34234,Van Dyke Avenue,48312,42.5465403,-83.0279029
34236,Van Dyke Avenue,48312,42.5465425,-83.0278105
34238,Van Dyke Avenue,48312,42.5465471,-83.0276088
34238,Van Dyke Avenue,48312,42.5465446,-83.0277184
33772,Schoenherr Road,48312,42.5431944,-82.9886371
33756,Schoenherr Road,48312,42.5431411,-82.9886333
33740,Schoenherr Road,48312,42.5430872,-82.9886295
33804,Schoenherr Road,48312,42.5433013,-82.9886446
33416,Schoenherr Road,48312,42.5414208,-82.9881108
13205,East 14 Mile Road,48312,42.5385311,-82.9934175
13221,East 14 Mile Road,48312,42.5385645,-82.9932346
13225,East 14 Mile Road,48312,42.5385661,-82.9931646
13229,East 14 Mile Road,48312,42.5385677,-82.9930969
13245,East 14 Mile Road,48312,42.5385752,-82.9928040
13237,East 14 Mile Road,48312,42.5385691,-82.9930285
13241,East 14 Mile Road,48312,42.5385709,-82.9929618
13245,East 14 Mile Road,48312,42.5385728,-82.9928950
13253,East 14 Mile Road,48312,42.5385775,-82.9927127
13257,East 14 Mile Road,48312,42.5385792,-82.9926433
33889,Stonecrest Drive,48312,42.5448004,-82.9732726
33917,Stonecrest Drive,48312,42.5449994,-82.9732466
14945,Mill Creek Drive,48312,42.5451947,-82.9733024
14921,Mill Creek Drive,48312,42.5454291,-82.9731814
14949,Mill Creek Drive,48312,42.5455032,-82.9728664
14977,Mill Creek Drive,48312,42.5454537,-82.9725759
14715,East 14 Mile Road,48312,42.5388690,-82.9741829
35885,Dodge Park Road,48312,42.5588682,-83.0103368
11525,Brougham Drive,48312,42.5588585,-83.0107359
11525,Brougham Drive,48312,42.5588558,-83.0108251
11525,Brougham Drive,48312,42.5588531,-83.0109122
11425,Plumbrook Road,48313,42.5785274,-83.0135279
38721,Dodge Park Road,48313,42.5801118,-83.0111057
8280,Chateau Rouge Boulevard,48313,42.5845631,-83.0268738
38405,Dodge Park Road,48312,42.5770403,-83.0111798
38397,Dodge Park Road,48312,42.5768868,-83.0111763
38389,Dodge Park Road,48312,42.5767996,-83.0111656
38381,Dodge Park Road,48312,42.5767125,-83.0111635
38357,Dodge Park Road,48312,42.5764021,-83.0111561
38365,Dodge Park Road,48312,42.5765030,-83.0111585
38373,Dodge Park Road,48312,42.5766152,-83.0111611
38329,Dodge Park Road,48312,42.5761706,-83.0111579
38325,Dodge Park Road,48312,42.5760940,-83.0111562
34715,Van Dyke Avenue,48312,42.5489034,-83.0308802
34701,Van Dyke Avenue,48312,42.5489663,-83.0296902
34703,Van Dyke Avenue,48312,42.5490193,-83.0295589
34911,Van Dyke Avenue,48312-4662,42.5500519,-83.0314388
12060,Greenway Drive,48312,42.5690019,-83.0062812
11303,Greendale Drive,48312,42.5636052,-83.0152858
35428,Burgundy Court,48312,42.5562277,-82.9718142
35400,Burgundy Court,48312,42.5560320,-82.9718194
35423,Burgundy Court,48312,42.5561607,-82.9725053
35395,Burgundy Court,48312,42.5559722,-82.9724857
35339,Burgundy Court,48312,42.5555803,-82.9725236
35311,Burgundy Court,48312,42.5553585,-82.9724958
35283,Burgundy Court,48312,42.5552351,-82.9722523
35288,Burgundy Court,48312,42.5552586,-82.9719128
35316,Burgundy Court,48312,42.5554408,-82.9717332
35367,Burgundy Court,48312,42.5557773,-82.9724410
35372,Burgundy Court,48312,42.5558396,-82.9718177
35344,Burgundy Court,48312,42.5556526,-82.9717119
35385,Hayes Road,48312,42.5561543,-82.9707588
35347,Hayes Road,48312,42.5557801,-82.9707216
35323,Hayes Road,48312,42.5553468,-82.9707190
35425,Hayes Road,48312,42.5564959,-82.9708195
15177,Peggy Court,48312,42.5548856,-82.9710583
15153,Peggy Court,48312,42.5548760,-82.9713060
15129,Peggy Court,48312,42.5548548,-82.9715786
15105,Peggy Court,48312,42.5548572,-82.9718328
15081,Peggy Court,48312,42.5548832,-82.9720999
35273,Nan Marie Drive,48312,42.5547639,-82.9724097
35239,Nan Marie Drive,48312,42.5545086,-82.9724827
35205,Nan Marie Drive,48312,42.5542823,-82.9724621
35171,Nan Marie Drive,48312,42.5540925,-82.9724622
35137,Nan Marie Drive,48312,42.5539019,-82.9724437
35103,Nan Marie Drive,48312,42.5537101,-82.9724443
35069,Nan Marie Drive,48312,42.5535177,-82.9724350
35035,Nan Marie Drive,48312,42.5533352,-82.9724136
15074,Sylvia Court,48312,42.5534483,-82.9717878
15098,Sylvia Court,48312,42.5534535,-82.9715314
15122,Sylvia Court,48312,42.5533936,-82.9712411
15146,Sylvia Court,48312,42.5534969,-82.9708828
15167,Sylvia Court,48312,42.5537187,-82.9707815
15143,Sylvia Court,48312,42.5539493,-82.9708996
15119,Sylvia Court,48312,42.5540022,-82.9712445
15095,Sylvia Court,48312,42.5539485,-82.9715327
15701,Sylvia Court,48312,42.5539368,-82.9717929
15180,Peggy Court,48312,42.5543565,-82.9707799
15156,Peggy Court,48312,42.5544020,-82.9710442
15132,Peggy Court,48312,42.5543839,-82.9712944
15108,Peggy Court,48312,42.5543725,-82.9715710
15084,Peggy Court,48312,42.5543596,-82.9718076
15201,Peggy Court,48312,42.5549552,-82.9707875
12260,Clinton River Road,48313,42.6002697,-83.0068570
12651,Clinton River Road,48313,42.5957790,-83.0032207
13707,Clinton River Road,48313,42.5883631,-82.9894094
13735,Southgate Drive,48313,42.5823086,-82.9881921
39074,Marne Avenue,48313,42.5824370,-82.9885311
13815,Southgate Drive,48313,42.5818895,-82.9876159
12311,19 Mile Road,48313,42.6107346,-83.0050520
42825,Schoenherr Road,48313,42.6091332,-82.9928208
11600,Clinton River Road,48313,42.6027804,-83.0147160
38731,Mound Road,48310,42.5775264,-83.0515168
38765,Mound Road,48310,42.5775496,-83.0507781
38765,Mound Road,48310,42.5775485,-83.0509565
38765,Mound Road,48310,42.5775378,-83.0511410
38765,Mound Road,48310,42.5775532,-83.0506629
38639,Mound Road,48310,42.5766775,-83.0505414
38555,Mound Road,48310,42.5761384,-83.0509780
38555,Mound Road,48310,42.5761523,-83.0505716
38555,Mound Road,48310,42.5761454,-83.0507753
38435,Mound Road,48310,42.5753904,-83.0525253
38093,Mound Road,48310,42.5732706,-83.0507255
38069,Mound Road,48310,42.5731396,-83.0507195
37771,Mound Road,48310,42.5730037,-83.0507133
38045,Mound Road,48310,42.5729192,-83.0507094
38037,Mound Road,48310,42.5728621,-83.0507066
38021,Mound Road,48310,42.5727785,-83.0507027
38013,Mound Road,48310,42.5726936,-83.0506987
37730,Geraldine Court,48310,42.5703190,-83.0512442
37732,Geraldine Court,48310,42.5704046,-83.0512516
37736,Geraldine Court,48310,42.5705534,-83.0512556
37734,Geraldine Court,48310,42.5704805,-83.0512622
37722,Geraldine Court,48310,42.5704598,-83.0517718
37720,Geraldine Court,48310,42.5703864,-83.0517743
37718,Geraldine Court,48310,42.5703008,-83.0517732
37717,Mound Road,48310,42.5703806,-83.0503773
38951,Mound Road,48310,42.5789738,-83.0506539
34257,Schoenherr Road,48312,42.5468771,-82.9903022
34259,Schoenherr Road,48312,42.5469313,-82.9903350
34534,Schoenherr Road,48312,42.5489567,-82.9891075
34490,Schoenherr Road,48312,42.5486880,-82.9890904
34440,Schoenherr Road,48312,42.5484440,-82.9890970
34501,Moravian Drive,48312,42.5492637,-82.9868002
34525,Moravian Drive,48312,42.5494597,-82.9864777
34545,Moravian Drive,48312,42.5495496,-82.9860796
34575,Moravian Drive,48312,42.5497945,-82.9856935
34601,Moravian Drive,48312,42.5499816,-82.9853481
34623,Moravian Drive,48312,42.5502287,-82.9849344
14764,Hall Road,48313,42.6266199,-82.9787008
14908,Hall Road,48313,42.6266214,-82.9772844
14844,Hall Road,48313,42.6266159,-82.9775734
14876,Hall Road,48313,42.6266187,-82.9774324
14828,Hall Road,48313,42.6266133,-82.9777069
36543,Van Dyke Avenue,48312,42.5624727,-83.0303128
36553,Van Dyke Avenue,48312,42.5623544,-83.0312444
36717,Van Dyke Avenue,48312,42.5635085,-83.0304108
36729,Van Dyke Avenue,48312,42.5635692,-83.0304134
36741,Van Dyke Avenue,48312,42.5636304,-83.0304159
36765,Van Dyke Avenue,48312,42.5637263,-83.0304199
36693,Van Dyke Avenue,48312,42.5632356,-83.0303997
36681,Van Dyke Avenue,48312,42.5631743,-83.0303971
36669,Van Dyke Avenue,48312,42.5631129,-83.0303946
36657,Van Dyke Avenue,48312,42.5630517,-83.0303920
36900,Van Dyke Avenue,48312,42.5646103,-83.0278347
11290,Metropolitan Parkway,48312,42.5657735,-83.0152514
37933,Durham Drive,48312,42.5726174,-83.0266147
11095,East 14 Mile Road,48312,42.5376507,-83.0169848
12900,Grand Haven Drive,48313,42.5627941,-82.9968166
42046,Van Dyke Avenue,48314,42.6023888,-83.0300647
42050,Van Dyke Avenue,48314,42.6025047,-83.0300705
42066,Van Dyke Avenue,48314,42.6026214,-83.0300755
42300,Van Dyke Avenue,48314,42.6042652,-83.0303805
42770,Van Dyke Avenue,48314,42.6080001,-83.0309733
42770,Van Dyke Avenue,48314,42.6080020,-83.0308852
42700,Van Dyke Avenue,48314,42.6073744,-83.0306813
42712,Van Dyke Avenue,48314,42.6074237,-83.0310495
42732,Van Dyke Avenue,48314,42.6075862,-83.0310133
43126,Van Dyke Avenue,48314,42.6104836,-83.0313053
43070,Van Dyke Avenue,48314,42.6098203,-83.0309867
43020,Van Dyke Avenue,48314,42.6094942,-83.0309755
42947,Utica Road,48314,42.6089581,-83.0300817
42919,Utica Road,48314,42.6086887,-83.0299173
8061,Dawn Drive,48314,42.6086690,-83.0302747
8049,Dawn Drive,48314,42.6086708,-83.0304968
8035,Dawn Drive,48314,42.6086442,-83.0307265
42922,Van Dyke Avenue,48314,42.6088452,-83.0309141
7314,19 Mile Road,48314,42.6079855,-83.0372184
7322,19 Mile Road,48314,42.6078780,-83.0372132
7354,19 Mile Road,48314,42.6073964,-83.0371898
7330,19 Mile Road,48314,42.6077682,-83.0372079
7346,19 Mile Road,48314,42.6075450,-83.0371970
7338,19 Mile Road,48314,42.6076566,-83.0372024
7362,19 Mile Road,48314,42.6073915,-83.0369082
7370,19 Mile Road,48314,42.6073954,-83.0367305
7472,19 Mile Road,48314,42.6080023,-83.0364586
7464,19 Mile Road,48314,42.6078991,-83.0364536
7456,19 Mile Road,48314,42.6077899,-83.0364483
7448,19 Mile Road,48314,42.6076778,-83.0364429
7440,19 Mile Road,48314,42.6075656,-83.0364374
7416,19 Mile Road,48314,42.6074163,-83.0364303
43169,Van Dyke Avenue,48314,42.6111757,-83.0324003
43167,Van Dyke Avenue,48314,42.6110384,-83.0323925
43055,Van Dyke Avenue,48314,42.6100895,-83.0323622
43089,Van Dyke Avenue,48314,42.6103091,-83.0323447
14700,Lakeside Circle,48313,42.6187807,-82.9797000
12000,Clinton River Road,48313,42.6012042,-83.0099978
