House number,Street name,Postal code,Latitude,Longitude
2360,Orchard Lake Road,48320,42.6109977,-83.3304868
2495,Orchard Lake Road,48320,42.6088514,-83.3346243
2555,Orchard Lake Road,48320,42.6084221,-83.3350973
2330,Ferndale,48320,42.6194659,-83.3325400
2330,Ferndale,48320,42.6192749,-83.3324740
328,South Telegraph Road,48320,42.6252372,-83.3256716
328,South Telegraph Road,48320,42.6252199,-83.3255348
2451,Orchard Lake Road,48320,42.6093923,-83.3336082
2540,Orchard Lake Road,48320,42.6091483,-83.3359440
2534,Orchard Lake Road,48320,42.6092171,-83.3357525
2465,Orchard Lake Road,48320,42.6089954,-83.3346737
2655,Orchard Lake Road,48320,42.6076564,-83.3374142
2645,Orchard Lake Road,48320,42.6079922,-83.3369039
2629,Orchard Lake Road,48320,42.6077291,-83.3361252
2678,Orchard Lake Road,48320,42.6081551,-83.3382135
2674,Orchard Lake Road,48320,42.6081835,-83.3381457
2542,Orchard Lake Road,48320,42.6089341,-83.3364415
2544,Orchard Lake Road,48320,42.6089149,-83.3365044
2546,Orchard Lake Road,48320,42.6088786,-83.3366082
2548,Orchard Lake Road,48320,42.6088514,-83.3367023
2532,Orchard Lake Road,48320,42.6092458,-83.3356767
2530,Orchard Lake Road,48320,42.6092181,-83.3355708
2486,Orchard Lake Road,48320,42.6095088,-83.3348425
2482,Orchard Lake Road,48320,42.6095461,-83.3347557
2478,Orchard Lake Road,48320,42.6096241,-83.3346537
2476,Orchard Lake Road,48320,42.6096263,-83.3345912
2474,Orchard Lake Road,48320,42.6096297,-83.3345166
2440,Orchard Lake Road,48320,42.6103209,-83.3328080
2442,Orchard Lake Road,48320,42.6102473,-83.3329157
2444,Orchard Lake Road,48320,42.6102252,-83.3329860
2446,Orchard Lake Road,48320,42.6102033,-83.3330555
2448,Orchard Lake Road,48320,42.6101833,-83.3331189
2450,Orchard Lake Road,48320,42.6101536,-83.3332131
2452,Orchard Lake Road,48320,42.6101380,-83.3332626
2454,Orchard Lake Road,48320,42.6101136,-83.3333398
2456,Orchard Lake Road,48320,42.6100882,-83.3334206
2458,Orchard Lake Road,48320,42.6100635,-83.3334989
2000,Orchard Lake Road,48320,42.6145367,-83.3255256
2490,Garland Street,48320,42.6142494,-83.3350400
2500,Garland Street,48320,42.6140747,-83.3353859
1539,Lakeview Avenue,48320,42.6177164,-83.3337450
3300,Pine Lake Road,48324,42.5970366,-83.3426257
2340,Orchard Lake Road,48320,42.6111784,-83.3300130
2360,Orchard Lake Road,48320,42.6110210,-83.3306075
2400,Orchard Lake Road,48320,42.6104619,-83.3317707
2310,Orchard Lake Road,48320,42.6114535,-83.3291088
2380,Orchard Lake Road,48320,42.6108070,-83.3312179
2266,Orchard Lake Road,48320,42.6119976,-83.3283859
2400,Orchard Lake Road,48320,42.6105817,-83.3316120
1900,Inverness,48320,42.6117906,-83.3292052
2234,Orchard Lake Road,48320-1750,42.6123137,-83.3281769
2210,Orchard Lake Road,48320,42.6127532,-83.3275754
2190,Orchard Lake Road,48320,42.6131165,-83.3272709
1820,Inverness,48320,42.6124141,-83.3293636
2140,Orchard Lake Road,48320,42.6134157,-83.3269945
2190,Orchard Lake Road,48320,42.6136805,-83.3266621
2694,Orchard Lake Road,48320,42.6080831,-83.3388572
2466,Orchard Lake Road,48320,42.6099412,-83.3342901
2451,Orchard Lake Road,48320,42.6092569,-83.3339394
2595,Orchard Lake Road,48320,42.6085398,-83.3356955
2615,Orchard Lake Road,48320,42.6084818,-83.3360919
2635,Orchard Lake Road,48320,42.6083249,-83.3364240
2705,Orchard Lake Road,48320,42.6072682,-83.3390430
2650,Orchard Lake Road,48320,42.6085688,-83.3375353
2662,Orchard Lake Road,48320,42.6083215,-83.3378930
1970,Orchard Lake Road,48320,42.6165597,-83.3245236
2294,Woodrow Wilson Boulevard,48324,42.6056845,-83.3368764
2456,Pontiac Drive,48320,42.6195027,-83.3341729
2700,Orchard Lake Road,48320,42.6077889,-83.3392284
2695,Orchard Lake Road,48320,42.6075747,-83.3385260
2685,Orchard Lake Road,48320,42.6077135,-83.3380369
2322,Orchard Lake Road,48320,42.6112803,-83.3293470
1819,Inverness,48320,42.6129753,-83.3285830
2240,Greer Boulevard,48320,42.6056043,-83.3387163
2630,Orchard Lake Road,48320,42.6087248,-83.3369522
2685,Littletell Avenue,48324,42.6026622,-83.3377313
2733,Littletell Avenue,48324,42.6026369,-83.3388531
2721,Littletell Avenue,48324,42.6026438,-83.3385709
2709,Littletell Avenue,48324,42.6026418,-83.3383162
2697,Littletell Avenue,48324,42.6026616,-83.3380097
2673,Littletell Avenue,48324,42.6026685,-83.3374556
2655,Penna Drive,48324,42.6037972,-83.3375950
2665,Penna Drive,48324,42.6039329,-83.3377894
2674,Littletell Avenue,48324,42.6031445,-83.3375561
2698,Littletell Avenue,48324,42.6031466,-83.3380709
2686,Littletell Avenue,48324,42.6031442,-83.3378180
2710,Littletell Avenue,48324,42.6031387,-83.3383297
2722,Littletell Avenue,48324,42.6031214,-83.3385923
2181,Greer Boulevard,48320,42.6062840,-83.3380528
2131,Greer Boulevard,48320,42.6072288,-83.3382653
2141,Greer Boulevard,48320,42.6070792,-83.3382484
2157,Greer Boulevard,48320,42.6068135,-83.3382204
2149,Greer Boulevard,48320,42.6069437,-83.3381962
2165,Greer Boulevard,48320,42.6066971,-83.3382495
2166,Greer Boulevard,48320,42.6066725,-83.3387197
2158,Greer Boulevard,48320,42.6067959,-83.3387154
2150,Greer Boulevard,48320,42.6069255,-83.3387485
2120,Greer Boulevard,48320,42.6070740,-83.3388437
2249,Maddy Lane,48320,42.6052205,-83.3390943
2650,Island Court,48320,42.6140700,-83.3381064
2694,Island Court,48320,42.6142828,-83.3388484
2680,Island Court,48320,42.6141851,-83.3385503
2714,Island Court,48320,42.6142579,-83.3391058
1630,Beverly Street,48320,42.6139616,-83.3390462
1638,Beverly Street,48320,42.6137631,-83.3390361
1674,Beverly Street,48320,42.6131544,-83.3390653
1666,Beverly Street,48320,42.6133511,-83.3390492
1656,Beverly Street,48320,42.6135539,-83.3390270
1692,Beverly Street,48320,42.6128057,-83.3390267
1682,Beverly Street,48320,42.6129755,-83.3390242
1729,Beverly Street,48320,42.6122954,-83.3384543
1715,Beverly Street,48320,42.6124739,-83.3384389
1701,Beverly Street,48320,42.6126620,-83.3384569
1702,Beverly Street,48320,42.6126248,-83.3390313
1714,Beverly Street,48320,42.6124459,-83.3390367
1728,Beverly Street,48320,42.6122679,-83.3390026
1756,Beverly Street,48320,42.6119075,-83.3389985
1742,Beverly Street,48320,42.6120845,-83.3390014
1743,Beverly Street,48320,42.6121180,-83.3384388
1767,Beverly Street,48320,42.6117570,-83.3384266
1784,Beverly Street,48320,42.6115300,-83.3389753
1770,Beverly Street,48320,42.6117291,-83.3390093
1757,Beverly Street,48320,42.6119611,-83.3384435
1781,Beverly Street,48320,42.6116009,-83.3384214
1795,Beverly Street,48320,42.6114199,-83.3384114
1798,Beverly Street,48320,42.6113495,-83.3389369
1812,Beverly Street,48320,42.6111995,-83.3389878
1809,Beverly Street,48320,42.6112419,-83.3384020
1823,Beverly Street,48320,42.6110451,-83.3383695
1826,Beverly Street,48320,42.6109987,-83.3389275
1840,Beverly Street,48320,42.6108448,-83.3389583
1854,Beverly Street,48320,42.6106410,-83.3389349
1837,Beverly Street,48320,42.6107511,-83.3383793
1851,Beverly Street,48320,42.6106142,-83.3383343
1868,Beverly Street,48320,42.6104882,-83.3389362
1865,Beverly Street,48320,42.6104625,-83.3383659
1879,Beverly Street,48320,42.6103047,-83.3383669
1910,Beverly Street,48320,42.6099524,-83.3389409
1907,Beverly Street,48320,42.6099618,-83.3383497
1893,Beverly Street,48320,42.6101493,-83.3383477
1882,Beverly Street,48320,42.6102819,-83.3388987
1896,Beverly Street,48320,42.6101058,-83.3388886
1952,Beverly Street,48320,42.6093870,-83.3388920
1949,Beverly Street,48320,42.6094202,-83.3382860
1935,Beverly Street,48320,42.6096249,-83.3383089
1921,Beverly Street,48320,42.6098054,-83.3383363
1924,Beverly Street,48320,42.6097472,-83.3388765
1938,Beverly Street,48320,42.6095950,-83.3389710
2025,Beverly Street,48320,42.6088867,-83.3383075
1966,Beverly Street,48320,42.6092110,-83.3388511
1980,Beverly Street,48320,42.6090775,-83.3389048
1963,Beverly Street,48320,42.6092647,-83.3383061
1977,Beverly Street,48320,42.6090911,-83.3383041
2040,Beverly Street,48320,42.6087555,-83.3388886
2035,Beverly Street,48320,42.6086722,-83.3382800
2050,Beverly Street,48320,42.6085860,-83.3388216
2060,Beverly Street,48320,42.6084453,-83.3388146
1690,Warwick Street,48320,42.6128534,-83.3378942
1691,Warwick Street,48320,42.6128744,-83.3372387
1701,Warwick Street,48320,42.6126819,-83.3372757
1702,Warwick Street,48320,42.6126585,-83.3378380
1714,Warwick Street,48320,42.6124805,-83.3378578
1729,Warwick Street,48320,42.6123220,-83.3372813
1715,Warwick Street,48320,42.6125288,-83.3372481
1743,Warwick Street,48320,42.6121533,-83.3372630
1728,Warwick Street,48320,42.6122951,-83.3378001
1742,Warwick Street,48320,42.6121095,-83.3378008
1757,Warwick Street,48320,42.6119666,-83.3372711
1756,Warwick Street,48320,42.6119398,-83.3377934
1795,Warwick Street,48320,42.6114224,-83.3371877
1770,Warwick Street,48320,42.6117575,-83.3377693
1781,Warwick Street,48320,42.6116148,-83.3372237
1767,Warwick Street,48320,42.6117821,-83.3372083
1784,Warwick Street,48320,42.6115581,-83.3378126
1798,Warwick Street,48320,42.6114014,-83.3377996
1826,Warwick Street,48320,42.6110573,-83.3377431
1812,Warwick Street,48320,42.6112203,-83.3377922
1809,Warwick Street,48320,42.6112572,-83.3372311
1823,Warwick Street,48320,42.6110761,-83.3372197
1859,Warwick Street,48320,42.6105821,-83.3371908
1862,Warwick Street,48320,42.6105399,-83.3377452
1844,Warwick Street,48320,42.6107382,-83.3377451
1841,Warwick Street,48320,42.6107674,-83.3371326
1878,Warwick Street,48320,42.6103422,-83.3377057
1875,Warwick Street,48320,42.6103840,-83.3371500
1893,Warwick Street,48320,42.6101848,-83.3371499
1938,Warwick Street,48320,42.6096041,-83.3376880
1896,Warwick Street,48320,42.6101434,-83.3377224
1935,Warwick Street,48320,42.6096313,-83.3371145
1921,Warwick Street,48320,42.6098138,-83.3371367
1907,Warwick Street,48320,42.6099904,-83.3371191
1910,Warwick Street,48320,42.6099628,-83.3377036
1924,Warwick Street,48320,42.6097713,-83.3377213
1952,Warwick Street,48320,42.6094248,-83.3376739
1977,Warwick Street,48320,42.6090957,-83.3371089
1949,Warwick Street,48320,42.6094567,-83.3371105
1963,Warwick Street,48320,42.6092776,-83.3371124
1991,Warwick Street,48320,42.6089154,-83.3370729
1966,Warwick Street,48320,42.6092472,-83.3376666
1980,Warwick Street,48320,42.6090646,-83.3376564
2010,Warwick Street,48320,42.6088908,-83.3376420
1739,Woodland Avenue,48320,42.6130007,-83.3362219
1746,Woodland Avenue,48320,42.6128712,-83.3366171
1765,Woodland Avenue,48320,42.6126917,-83.3361560
1760,Woodland Avenue,48320,42.6125495,-83.3366453
1786,Woodland Avenue,48320,42.6123930,-83.3366807
1775,Woodland Avenue,48320,42.6125781,-83.3361191
1785,Woodland Avenue,48320,42.6124505,-83.3361315
1805,Woodland Avenue,48320,42.6122187,-83.3360903
1815,Woodland Avenue,48320,42.6119974,-83.3360811
1814,Woodland Avenue,48320,42.6120770,-83.3366171
1802,Woodland Avenue,48320,42.6122545,-83.3366131
1825,Woodland Avenue,48320,42.6118109,-83.3361026
1835,Woodland Avenue,48320,42.6116955,-83.3360749
1845,Woodland Avenue,48320,42.6115315,-83.3360864
1834,Woodland Avenue,48320,42.6117772,-83.3366358
1846,Woodland Avenue,48320,42.6115171,-83.3366139
1895,Woodland Avenue,48320,42.6110882,-83.3360627
1875,Woodland Avenue,48320,42.6112935,-83.3360239
1876,Woodland Avenue,48320,42.6113258,-83.3365722
1896,Woodland Avenue,48320,42.6110672,-83.3366600
1886,Woodland Avenue,48320,42.6111980,-83.3365712
1916,Woodland Avenue,48320,42.6107930,-83.3365635
1915,Woodland Avenue,48320,42.6108241,-83.3360487
1954,Woodland Avenue,48320,42.6102424,-83.3365434
1926,Woodland Avenue,48320,42.6106098,-83.3365327
1937,Woodland Avenue,48320,42.6105666,-83.3360018
1927,Woodland Avenue,48320,42.6107045,-83.3360501
1946,Woodland Avenue,48320,42.6104444,-83.3365266
1947,Woodland Avenue,48320,42.6103923,-83.3360246
1959,Woodland Avenue,48320,42.6102227,-83.3359683
1969,Woodland Avenue,48320,42.6100908,-83.3360186
1980,Woodland Avenue,48320,42.6098475,-83.3365394
1970,Woodland Avenue,48320,42.6100672,-83.3365183
1990,Woodland Avenue,48320,42.6096852,-83.3365086
1975,Woodland Avenue,48320,42.6099599,-83.3360106
1981,Woodland Avenue,48320,42.6098281,-83.3360019
2018,Woodland Avenue,48320,42.6092899,-83.3364964
2000,Woodland Avenue,48320,42.6095140,-83.3365485
1987,Woodland Avenue,48320,42.6096524,-83.3359562
2011,Woodland Avenue,48320,42.6094129,-83.3359483
2304,Avondale Street West,48320,42.6135053,-83.3301445
2347,Avondale Street West,48320,42.6131154,-83.3298755
2364,Avondale Street West,48320,42.6129730,-83.3308416
2358,Avondale Street West,48320,42.6131395,-83.3306721
2355,Avondale Street West,48320,42.6129486,-83.3301545
2375,Avondale Street West,48320,42.6126636,-83.3304077
2374,Avondale Street West,48320,42.6127712,-83.3310234
2381,Avondale Street West,48320,42.6123700,-83.3306212
2385,Avondale Street West,48320,42.6121343,-83.3308837
2389,Avondale Street West,48320,42.6119130,-83.3310875
2398,Avondale Street West,48320,42.6120068,-83.3318146
2404,Avondale Street West,48320,42.6118388,-83.3320178
2401,Avondale Street West,48320,42.6115709,-83.3314458
2399,Avondale Street West,48320,42.6117533,-83.3312768
2410,Avondale Street West,48320,42.6116219,-83.3322095
2407,Avondale Street West,48320,42.6114093,-83.3316389
2413,Avondale Street West,48320,42.6112256,-83.3318295
2416,Avondale Street West,48320,42.6114680,-83.3324070
2420,Avondale Street West,48320,42.6113067,-83.3325865
2419,Avondale Street West,48320,42.6110693,-83.3320039
2325,Avondale Street West,48320,42.6109067,-83.3321782
2429,Avondale Street West,48320,42.6107447,-83.3323607
1792,Briarcliff Street,48320,42.6131743,-83.3315078
1740,Briarcliff Street,48320,42.6131563,-83.3321337
1750,Briarcliff Street,48320,42.6127276,-83.3321203
1766,Briarcliff Street,48320,42.6129099,-83.3320882
1749,Briarcliff Street,48320,42.6129824,-83.3314964
1765,Briarcliff Street,48320,42.6128045,-83.3314773
1779,Briarcliff Street,48320,42.6125734,-83.3314513
1821,Briarcliff Street,48320,42.6123552,-83.3313945
1780,Briarcliff Street,48320,42.6124983,-83.3320865
1796,Briarcliff Street,48320,42.6122814,-83.3320916
1721,Stratford Street,48320,42.6131319,-83.3326117
1756,Stratford Street,48320,42.6126110,-83.3332492
1759,Stratford Street,48320,42.6126822,-83.3325916
1733,Stratford Street,48320,42.6129144,-83.3326262
1740,Stratford Street,48320,42.6128271,-83.3331961
1781,Stratford Street,48320,42.6124440,-83.3326042
1780,Stratford Street,48320,42.6123969,-83.3332269
1797,Stratford Street,48320,42.6122108,-83.3325892
1855,Stratford Street,48320,42.6117624,-83.3326056
1840,Stratford Street,48320,42.6117208,-83.3332033
1814,Stratford Street,48320,42.6119458,-83.3331861
1815,Stratford Street,48320,42.6119828,-83.3325875
1860,Stratford Street,48320,42.6114807,-83.3331553
1908,Stratford Street,48320,42.6110136,-83.3331553
1880,Stratford Street,48320,42.6112438,-83.3331525
1920,Stratford Street,48320,42.6107998,-83.3331452
1771,Sherwood Street,48320,42.6126398,-83.3337068
1781,Sherwood Street,48320,42.6124109,-83.3337174
1817,Sherwood Street,48320,42.6117144,-83.3336612
1803,Sherwood Street,48320,42.6119477,-83.3336929
1791,Sherwood Street,48320,42.6121796,-83.3337024
1831,Sherwood Street,48320,42.6114857,-83.3336772
1859,Sherwood Street,48320,42.6112647,-83.3336699
1905,Sherwood Street,48320,42.6110489,-83.3336499
1919,Sherwood Street,48320,42.6108249,-83.3336238
1935,Sherwood Street,48320,42.6105981,-83.3336425
1964,Sherwood Street,48320,42.6102227,-83.3342162
1950,Sherwood Street,48320,42.6104278,-83.3342210
1926,Sherwood Street,48320,42.6106339,-83.3342316
1912,Sherwood Street,48320,42.6108329,-83.3342504
1856,Sherwood Street,48320,42.6112097,-83.3342958
1842,Sherwood Street,48320,42.6113923,-83.3342709
1828,Sherwood Street,48320,42.6115960,-83.3342825
1814,Sherwood Street,48320,42.6117994,-83.3342993
1800,Sherwood Street,48320,42.6120099,-83.3342927
1788,Sherwood Street,48320,42.6122106,-83.3343142
1760,Sherwood Street,48320,42.6128870,-83.3343696
1780,Sherwood Street,48320,42.6124198,-83.3343392
1770,Sherwood Street,48320,42.6126552,-83.3343359
1750,Sherwood Street,48320,42.6131144,-83.3343586
1740,Sherwood Street,48320,42.6133148,-83.3343664
1720,Sherwood Street,48320,42.6135944,-83.3343416
1730,Lakeland Avenue,48320,42.6132810,-83.3354187
1735,Lakeland Avenue,48320,42.6132199,-83.3350226
1741,Lakeland Avenue,48320,42.6130843,-83.3349589
1761,Lakeland Avenue,48320,42.6127306,-83.3349575
1754,Lakeland Avenue,48320,42.6128401,-83.3354854
1762,Lakeland Avenue,48320,42.6126919,-83.3354783
1755,Lakeland Avenue,48320,42.6128511,-83.3349757
1777,Lakeland Avenue,48320,42.6125259,-83.3349408
1845,Lakeland Avenue,48320,42.6118812,-83.3349052
1844,Lakeland Avenue,48320,42.6118955,-83.3354485
1786,Lakeland Avenue,48320,42.6124929,-83.3354606
1796,Lakeland Avenue,48320,42.6123640,-83.3354368
1810,Lakeland Avenue,48320,42.6122285,-83.3354515
1824,Lakeland Avenue,48320,42.6120866,-83.3354506
1815,Lakeland Avenue,48320,42.6121844,-83.3348711
1795,Lakeland Avenue,48320,42.6123702,-83.3349169
1859,Lakeland Avenue,48320,42.6116219,-83.3348926
1870,Lakeland Avenue,48320,42.6114451,-83.3354090
1850,Lakeland Avenue,48320,42.6117213,-83.3354981
1860,Lakeland Avenue,48320,42.6116143,-83.3354053
1890,Lakeland Avenue,48320,42.6112473,-83.3353718
1896,Lakeland Avenue,48320,42.6111195,-83.3354101
1879,Lakeland Avenue,48320,42.6113874,-83.3348664
1887,Lakeland Avenue,48320,42.6112497,-83.3348778
1895,Lakeland Avenue,48320,42.6111477,-83.3349053
1905,Lakeland Avenue,48320,42.6108645,-83.3348577
1917,Lakeland Avenue,48320,42.6106393,-83.3348262
1936,Lakeland Avenue,48320,42.6104135,-83.3353587
1910,Lakeland Avenue,48320,42.6107269,-83.3353674
1904,Lakeland Avenue,48320,42.6108541,-83.3354006
1916,Lakeland Avenue,48320,42.6106203,-83.3353564
1947,Lakeland Avenue,48320,42.6103913,-83.3348384
1986,Lakeland Avenue,48320,42.6099924,-83.3353450
1966,Lakeland Avenue,48320,42.6102297,-83.3353979
1965,Lakeland Avenue,48320,42.6102458,-83.3348302
1991,Lakeland Avenue,48320,42.6099179,-83.3347993
1996,Lakeland Avenue,48320,42.6098773,-83.3353605
2006,Lakeland Avenue,48320,42.6097214,-83.3353195
2495,Garland Street,48320,42.6133966,-83.3349446
2477,Garland Street,48320,42.6135736,-83.3345312
2485,Garland Street,48320,42.6135074,-83.3347296
2505,Garland Street,48320,42.6132283,-83.3356413
2523,Garland Street,48320,42.6130689,-83.3360232
2496,Garland Street,48320,42.6141739,-83.3352173
2506,Garland Street,48320,42.6140331,-83.3355247
2510,Garland Street,48320,42.6139570,-83.3357317
2550,Garland Street,48320,42.6137136,-83.3362564
2520,Garland Street,48320,42.6137726,-83.3359870
2620,Garland Street,48320,42.6135631,-83.3371131
2600,Garland Street,48320,42.6137154,-83.3365260
2610,Garland Street,48320,42.6137053,-83.3367248
2616,Garland Street,48320,42.6136984,-83.3369153
2630,Garland Street,48320,42.6134926,-83.3373924
2640,Garland Street,48320,42.6135066,-83.3376960
2650,Garland Street,48320,42.6134153,-83.3379586
2670,Garland Street,48320,42.6133248,-83.3382418
2680,Garland Street,48320,42.6132175,-83.3385166
2385,Cheltingham Street,48320,42.6145988,-83.3330330
2375,Cheltingham Street,48320,42.6144570,-83.3327459
2365,Cheltingham Street,48320,42.6144002,-83.3324347
2355,Cheltingham Street,48320,42.6143345,-83.3321309
2345,Cheltingham Street,48320,42.6142818,-83.3317890
2335,Cheltingham Street,48320,42.6142662,-83.3314798
2325,Cheltingham Street,48320,42.6142715,-83.3311541
2315,Cheltingham Street,48320,42.6143012,-83.3308249
2305,Cheltingham Street,48320,42.6143025,-83.3305048
1710,Inverness Street,48320,42.6141413,-83.3303926
1720,Inverness Street,48320,42.6139226,-83.3302793
1730,Inverness Street,48320,42.6137641,-83.3301767
1740,Inverness Street,48320,42.6132692,-83.3298132
1665,Lakeview Avenue,48320,42.6145681,-83.3342708
1655,Lakeview Avenue,48320,42.6147989,-83.3342731
1645,Lakeview Avenue,48320,42.6150322,-83.3341344
1637,Lakeview Avenue,48320,42.6151517,-83.3341130
1633,Lakeview Avenue,48320,42.6152563,-83.3340798
2420,Garland Street,48320,42.6148269,-83.3336587
2434,Garland Street,48320,42.6146361,-83.3337051
2440,Garland Street,48320,42.6144406,-83.3338590
2450,Garland Street,48320,42.6142629,-83.3339983
2460,Garland Street,48320,42.6141847,-83.3342636
2435,Garland Street,48320,42.6144231,-83.3331790
2443,Garland Street,48320,42.6141793,-83.3332850
2451,Garland Street,48320,42.6140008,-83.3335107
2459,Garland Street,48320,42.6137828,-83.3337496
2460,Renfrew Street,48320,42.6134353,-83.3337651
2448,Renfrew Street,48320,42.6135485,-83.3334707
2424,Renfrew Street,48320,42.6137106,-83.3331932
2412,Renfrew Street,48320,42.6138365,-83.3329130
2400,Renfrew Street,48320,42.6139386,-83.3326149
2388,Renfrew Street,48320,42.6140057,-83.3322807
2376,Renfrew Street,48320,42.6139792,-83.3319246
2364,Renfrew Street,48320,42.6139391,-83.3315563
2352,Renfrew Street,48320,42.6139405,-83.3312557
2340,Renfrew Street,48320,42.6139090,-83.3309574
2328,Renfrew Street,48320,42.6138894,-83.3306665
2327,Renfrew Street,48320,42.6134513,-83.3307018
2341,Renfrew Street,48320,42.6133937,-83.3309631
2365,Renfrew Street,48320,42.6134853,-83.3315731
2353,Renfrew Street,48320,42.6134884,-83.3313026
2395,Renfrew Street,48320,42.6134250,-83.3323270
2449,Renfrew Street,48320,42.6130106,-83.3334877
2435,Renfrew Street,48320,42.6131377,-83.3331935
2461,Renfrew Street,48320,42.6129141,-83.3337851
2408,Garland Street,48320,42.6155690,-83.3335115
1517,Lakeview Avenue,48320,42.6182297,-83.3340411
1523,Lakeview Avenue,48320,42.6181182,-83.3339127
1529,Lakeview Avenue,48320,42.6180037,-83.3338184
1535,Lakeview Avenue,48320,42.6178878,-83.3337207
2365,Pontiac Drive,48320,42.6176512,-83.3332408
1545,Lakeview Avenue,48320,42.6175566,-83.3337038
1549,Lakeview Avenue,48320,42.6174174,-83.3336918
1555,Lakeview Avenue,48320,42.6172697,-83.3336856
2346,Garland Street,48320,42.6171734,-83.3329789
2358,Garland Street,48320,42.6170284,-83.3330069
1559,Lakeview Avenue,48320,42.6171249,-83.3336412
1565,Lakeview Avenue,48320,42.6169767,-83.3336915
1569,Lakeview Avenue,48320,42.6168538,-83.3336417
1575,Lakeview Avenue,48320,42.6166899,-83.3336397
2362,Garland Street,48320,42.6168933,-83.3330313
2366,Garland Street,48320,42.6167751,-83.3331379
2380,Garland Street,48320,42.6165157,-83.3331637
1581,Lakeview Avenue,48320,42.6165493,-83.3336567
1589,Lakeview Avenue,48320,42.6164005,-83.3336907
1599,Lakeview Avenue,48320,42.6162562,-83.3337821
2392,Garland Street,48320,42.6162016,-83.3332290
2396,Garland Street,48320,42.6160636,-83.3333042
1605,Lakeview Avenue,48320,42.6161039,-83.3337747
1609,Lakeview Avenue,48320,42.6159722,-83.3337827
1615,Lakeview Avenue,48320,42.6157955,-83.3336866
1619,Lakeview Avenue,48320,42.6156764,-83.3338810
1625,Lakeview Avenue,48320,42.6155698,-83.3339418
2410,Cheltingham Street,48320,42.6154766,-83.3337056
2404,Cheltingham Street,48320,42.6153731,-83.3334870
2400,Maplewood Street,48320,42.6158712,-83.3327467
2389,Garland Street,48320,42.6161499,-83.3326480
2385,Garland Street,48320,42.6162829,-83.3326237
2375,Garland Street,48320,42.6164356,-83.3325245
2369,Garland Street,48320,42.6166022,-83.3324711
2363,Garland Street,48320,42.6167520,-83.3323657
2357,Garland Street,48320,42.6169115,-83.3322997
2335,Pontiac Drive,48320,42.6171882,-83.3321538
2325,Pontiac Drive,48320,42.6171036,-83.3319640
2305,Pontiac Drive,48320,42.6170024,-83.3316641
1550,Inverness Street,48320,42.6168016,-83.3313358
1600,Inverness Street,48320,42.6166061,-83.3310814
1604,Parkway Street,48320,42.6165917,-83.3314012
1608,Parkway Street,48320,42.6165196,-83.3318101
1612,Parkway Street,48320,42.6163271,-83.3320174
1620,Parkway Street,48320,42.6160857,-83.3320920
2378,Maplewood Street,48320,42.6156359,-83.3322908
1630,Parkway Street,48320,42.6158379,-83.3321877
1609,Parkway Street,48320,42.6162293,-83.3314327
1617,Parkway Street,48320,42.6160275,-83.3315844
1631,Parkway Street,48320,42.6157233,-83.3317002
2340,Maplewood Street,48320,42.6155679,-83.3316342
1634,Inverness Street,48320,42.6156216,-83.3308780
1646,Inverness Street,48320,42.6154830,-83.3308723
1616,Inverness Street,48320,42.6159033,-83.3309649
1620,Inverness Street,48320,42.6157659,-83.3309658
1608,Inverness Street,48320,42.6160360,-83.3309125
1602,Inverness Street,48320,42.6161889,-83.3309483
1668,Inverness Street,48320,42.6148562,-83.3306913
1660,Inverness Street,48320,42.6149967,-83.3307081
2321,Maplewood Street,48320,42.6151204,-83.3310310
2327,Maplewood Street,48320,42.6151131,-83.3312174
2335,Maplewood Street,48320,42.6151046,-83.3313720
2341,Maplewood Street,48320,42.6151194,-83.3316348
2349,Maplewood Street,48320,42.6151682,-83.3319022
2357,Maplewood Street,48320,42.6151905,-83.3320520
2367,Maplewood Street,48320,42.6152345,-83.3322721
2385,Maplewood Street,48320,42.6153247,-83.3325775
2405,Garland Street,48320,42.6154553,-83.3329257
2415,Garland Street,48320,42.6151700,-83.3330210
2390,Cheltingham Street,48320,42.6149899,-83.3327641
2370,Cheltingham Street,48320,42.6148711,-83.3324354
2360,Cheltingham Street,48320,42.6148081,-83.3321948
2350,Cheltingham Street,48320,42.6147876,-83.3319943
2342,Cheltingham Street,48320,42.6147467,-83.3317065
2332,Cheltingham Street,48320,42.6147294,-83.3313864
2320,Cheltingham Street,48320,42.6147323,-83.3309669
2600,Pontiac Drive,48320,42.6212506,-83.3365018
2524,Pontiac Drive,48320,42.6210705,-83.3363914
2518,Pontiac Drive,48320,42.6208885,-83.3360078
2500,Pontiac Drive,48320,42.6205939,-83.3359511
2496,Pontiac Drive,48320,42.6205438,-83.3357677
2490,Pontiac Drive,48320,42.6203699,-83.3354578
2484,Pontiac Drive,48320,42.6202455,-83.3353539
2474,Pontiac Drive,48320,42.6201859,-83.3351753
2468,Pontiac Drive,48320,42.6199737,-83.3351749
2499,Pontiac Drive,48320,42.6203426,-83.3362663
2495,Pontiac Drive,48320,42.6201958,-83.3361507
2487,Pontiac Drive,48320,42.6200900,-83.3359732
2483,Pontiac Drive,48320,42.6199649,-83.3358822
2475,Pontiac Drive,48320,42.6198802,-83.3357523
2469,Pontiac Drive,48320,42.6197885,-83.3356452
2456,Pontiac Drive,48320,42.6196906,-83.3355695
2459,Pontiac Drive,48320,42.6195808,-83.3355173
2455,Pontiac Drive,48320,42.6194054,-83.3354341
2085,Pontiac Drive,48320,42.6174910,-83.3264526
2091,Pontiac Drive,48320,42.6174318,-83.3266947
2099,Pontiac Drive,48320,42.6173583,-83.3269873
2129,Pontiac Drive,48320,42.6172764,-83.3272384
2135,Pontiac Drive,48320,42.6172331,-83.3274346
2149,Pontiac Drive,48320,42.6171432,-83.3277562
2155,Pontiac Drive,48320,42.6170846,-83.3279457
2159,Pontiac Drive,48320,42.6170624,-83.3281410
1535,Maplewood Street,48320,42.6167651,-83.3278476
1549,Maplewood Street,48320,42.6166589,-83.3280010
1575,Maplewood Street,48320,42.6164442,-83.3282061
1595,Maplewood Street,48320,42.6162140,-83.3283982
1585,Maplewood Street,48320,42.6163361,-83.3283298
1605,Maplewood Street,48320,42.6159713,-83.3286658
1615,Maplewood Street,48320,42.6157412,-83.3288623
1611,Maplewood Street,48320,42.6158757,-83.3287785
1625,Maplewood Street,48320,42.6155437,-83.3290780
1635,Maplewood Street,48320,42.6153116,-83.3292543
1641,Maplewood Street,48320,42.6152058,-83.3293750
1645,Maplewood Street,48320,42.6150614,-83.3294842
1651,Maplewood Street,48320,42.6149449,-83.3296285
2665,Inverness Street,48320,42.6149376,-83.3301532
2687,Inverness Street,48320,42.6147194,-83.3300398
2707,Inverness Street,48320,42.6145749,-83.3298006
1709,Inverness Street,48320,42.6144103,-83.3298991
1711,Inverness Street,48320,42.6142917,-83.3298591
1725,Inverness Street,48320,42.6140966,-83.3298195
2220,Avondale Street,48320,42.6143638,-83.3294780
2214,Avondale Street,48320,42.6144927,-83.3293690
2208,Avondale Street,48320,42.6145956,-83.3292752
2204,Avondale Street,48320,42.6147215,-83.3291569
2200,Avondale Street,48320,42.6148270,-83.3290658
2186,Avondale Street,48320,42.6151614,-83.3287223
2190,Avondale Street,48320,42.6150349,-83.3288253
2170,Avondale Street,48320,42.6155062,-83.3284056
2174,Avondale Street,48320,42.6153878,-83.3284903
2164,Avondale Street,48320,42.6156151,-83.3283033
2160,Avondale Street,48320,42.6157240,-83.3281973
2154,Avondale Street,48320,42.6159531,-83.3279298
2150,Avondale Street,48320,42.6160611,-83.3278579
2144,Avondale Street,48320,42.6163026,-83.3276471
2134,Avondale Street,48320,42.6164542,-83.3276102
2100,Avondale Street,48320,42.6171004,-83.3267989
2128,Avondale Street,48320,42.6165404,-83.3274413
2124,Avondale Street,48320,42.6166293,-83.3273200
2120,Avondale Street,48320,42.6167228,-83.3272214
2116,Avondale Street,48320,42.6168710,-83.3270954
2110,Avondale Street,48320,42.6169504,-83.3269875
2043,Pontiac Drive,48320,42.6177451,-83.3254135
2085,Avondale Street,48320,42.6172019,-83.3259870
2075,Avondale Street,48320,42.6173541,-83.3258387
2063,Avondale Street,48320,42.6174985,-83.3256979
2051,Avondale Street,48320,42.6176306,-83.3256779
2101,Avondale Street,48320,42.6169692,-83.3262211
2105,Avondale Street,48320,42.6167526,-83.3264694
2115,Avondale Street,48320,42.6165384,-83.3267087
2125,Avondale Street,48320,42.6163504,-83.3269042
2135,Avondale Street,48320,42.6161895,-83.3271001
2149,Avondale Street,48320,42.6159638,-83.3273012
2145,Avondale Street,48320,42.6160793,-83.3272128
2151,Avondale Street,48320,42.6158628,-83.3274078
2155,Avondale Street,48320,42.6157128,-83.3274768
2169,Avondale Street,48320,42.6152525,-83.3279104
2159,Avondale Street,48320,42.6154932,-83.3277465
2163,Avondale Street,48320,42.6153957,-83.3278682
2175,Avondale Street,48320,42.6151883,-83.3280647
2179,Avondale Street,48320,42.6150697,-83.3281325
2185,Avondale Street,48320,42.6149334,-83.3282832
2191,Avondale Street,48320,42.6147893,-83.3283447
2197,Avondale Street,48320,42.6145679,-83.3285633
2205,Avondale Street,48320,42.6145059,-83.3286666
2215,Avondale Street,48320,42.6143831,-83.3288307
2221,Avondale Street,48320,42.6142824,-83.3289104
2237,Avondale Street,48320,42.6140205,-83.3291224
2225,Avondale Street,48320,42.6141615,-83.3290332
2249,Avondale Street,48320,42.6137988,-83.3293134
2261,Avondale Street,48320,42.6136591,-83.3294768
2380,Pontiac Drive,48320,42.6184439,-83.3337151
2340,Ferndale Street,48320,42.6189002,-83.3328613
2356,Ferndale Street,48320,42.6188641,-83.3332293
2358,Ferndale Street,48320,42.6185560,-83.3332592
2360,Ferndale Street,48320,42.6183029,-83.3334124
2370,Pontiac Drive,48320,42.6183847,-83.3335309
2390,Pontiac Drive,48320,42.6186104,-83.3338107
2398,Pontiac Drive,48320,42.6187270,-83.3340574
2225,Pontiac Drive,48320,42.6168661,-83.3294231
2239,Pontiac Drive,48320,42.6168254,-83.3296307
2195,Pontiac Drive,48320,42.6169444,-83.3288575
2219,Pontiac Drive,48320,42.6168793,-83.3292317
2207,Pontiac Drive,48320,42.6169098,-83.3290394
2185,Pontiac Drive,48320,42.6169682,-83.3286879
1560,Maplewood Street,48320,42.6169753,-83.3284943
1585,Benvenue Street,48320,42.6165741,-83.3290038
1570,Maplewood Street,48320,42.6165672,-83.3287194
1649,Inverness Street,48320,42.6153301,-83.3302098
1633,Inverness Street,48320,42.6155937,-83.3303042
1625,Inverness Street,48320,42.6157187,-83.3303207
1617,Inverness Street,48320,42.6158718,-83.3303787
1611,Inverness Street,48320,42.6160024,-83.3303442
1609,Inverness Street,48320,42.6161627,-83.3304102
1595,Inverness Street,48320,42.6162862,-83.3304298
1585,Inverness Street,48320,42.6165031,-83.3305003
2285,Pontiac Drive,48320,42.6168849,-83.3307928
2255,Pontiac Drive,48320,42.6168113,-83.3302459
1520,Benvenue Street,48320,42.6167094,-83.3301076
1560,Benvenue Street,48320,42.6165090,-83.3299097
1570,Benvenue Street,48320,42.6163872,-83.3296582
1590,Benvenue Street,48320,42.6161999,-83.3290992
1606,Maplewood Street,48320,42.6160898,-83.3291594
1580,Benvenue Street,48320,42.6161048,-83.3296141
1644,Maplewood Street,48320,42.6154134,-83.3298204
1616,Maplewood Street,48320,42.6159591,-83.3292797
1626,Maplewood Street,48320,42.6157390,-83.3294748
1632,Maplewood Street,48320,42.6156213,-83.3296261
1638,Maplewood Street,48320,42.6155096,-83.3297067
2050,Pontiac Drive,48320,42.6180830,-83.3259623
2060,Pontiac Drive,48320,42.6180498,-83.3261463
2110,Pontiac Drive,48320,42.6177945,-83.3271714
2130,Pontiac Drive,48320,42.6176941,-83.3274263
2136,Pontiac Drive,48320,42.6176351,-83.3275935
2148,Pontiac Drive,48320,42.6176138,-83.3277582
2156,Pontiac Drive,48320,42.6174685,-83.3281829
2162,Pontiac Drive,48320,42.6174437,-83.3284041
2174,Pontiac Drive,48320,42.6173907,-83.3286834
2190,Pontiac Drive,48320,42.6173440,-83.3288980
2222,Pontiac Drive,48320,42.6173372,-83.3292953
2230,Pontiac Drive,48320,42.6172922,-83.3295164
2240,Pontiac Drive,48320,42.6173256,-83.3297896
2035,Garland Street,48320,42.6214406,-83.3254037
2065,Garland Street,48320,42.6210558,-83.3260842
2079,Garland Street,48320,42.6208641,-83.3264318
2075,Garland Street,48320,42.6209622,-83.3263058
2085,Garland Street,48320,42.6207053,-83.3267247
2095,Garland Street,48320,42.6206507,-83.3268990
2105,Garland Street,48320,42.6204680,-83.3272420
2115,Garland Street,48320,42.6204117,-83.3273983
2125,Garland Street,48320,42.6203141,-83.3275635
2135,Garland Street,48320,42.6202456,-83.3276519
2139,Garland Street,48320,42.6201387,-83.3278205
2143,Garland Street,48320,42.6200708,-83.3279592
1402,Rosedale Avenue,48320,42.6198718,-83.3283131
2165,Garland Street,48320,42.6198172,-83.3285246
2181,Garland Street,48320,42.6196415,-83.3287438
2195,Garland Street,48320,42.6195018,-83.3290918
2205,Garland Street,48320,42.6193270,-83.3294241
2215,Garland Street,48320,42.6192410,-83.3295616
2221,Garland Street,48320,42.6191563,-83.3297118
2231,Garland Street,48320,42.6190673,-83.3298551
2245,Garland Street,48320,42.6188766,-83.3300964
2070,Ferndale Street,48320,42.6221077,-83.3261275
2095,Ferndale Street,48320,42.6213111,-83.3277126
2105,Ferndale Street,48320,42.6211830,-83.3279148
2147,Ferndale Street,48320,42.6210648,-83.3283479
2155,Ferndale Street,48320,42.6209562,-83.3285688
2163,Ferndale Street,48320,42.6208524,-83.3287139
2167,Ferndale Street,48320,42.6207694,-83.3288782
2171,Ferndale Street,48320,42.6206689,-83.3290371
2177,Ferndale Street,48320,42.6205016,-83.3293179
2181,Ferndale Street,48320,42.6204087,-83.3294395
2189,Ferndale Street,48320,42.6203013,-83.3295784
2195,Ferndale Street,48320,42.6201903,-83.3297009
2024,Garland Street,48320,42.6222708,-83.3254612
2030,Garland Street,48320,42.6220874,-83.3256658
2040,Garland Street,48320,42.6218696,-83.3258548
2068,Garland Street,48320,42.6216376,-83.3264033
2070,Garland Street,48320,42.6215786,-83.3266521
2072,Garland Street,48320,42.6215998,-83.3269169
2074,Garland Street,48320,42.6215474,-83.3271173
2076,Garland Street,48320,42.6213916,-83.3272561
2120,Garland Street,48320,42.6208298,-83.3278035
2128,Garland Street,48320,42.6207691,-83.3280103
2136,Garland Street,48320,42.6207107,-83.3281456
2140,Garland Street,48320,42.6205963,-83.3282578
2144,Garland Street,48320,42.6205318,-83.3284168
2150,Garland Street,48320,42.6204847,-83.3286000
2156,Garland Street,48320,42.6203731,-83.3288116
2172,Garland Street,48320,42.6202246,-83.3290261
2180,Garland Street,48320,42.6201802,-83.3292632
2186,Garland Street,48320,42.6200789,-83.3293678
2196,Garland Street,48320,42.6200160,-83.3295066
2208,Garland Street,48320,42.6198824,-83.3299008
2214,Garland Street,48320,42.6197703,-83.3301195
2222,Garland Street,48320,42.6196529,-83.3302185
2234,Garland Street,48320,42.6195495,-83.3304482
2242,Garland Street,48320,42.6194505,-83.3306153
2250,Garland Street,48320,42.6193502,-83.3307600
2256,Garland Street,48320,42.6192682,-83.3308592
2260,Garland Street,48320,42.6191074,-83.3309570
2268,Garland Street,48320,42.6189586,-83.3311382
2276,Garland Street,48320,42.6188350,-83.3313286
2286,Garland Street,48320,42.6186300,-83.3316103
2319,Ferndale Street,48320,42.6190239,-83.3317627
2325,Ferndale Street,48320,42.6189405,-83.3318704
2331,Ferndale Street,48320,42.6188806,-83.3319944
2339,Ferndale Street,48320,42.6186888,-83.3319683
2345,Ferndale Street,48320,42.6186066,-83.3321459
2282,Garland Street,48320,42.6187447,-83.3314977
2306,Garland Street,48320,42.6183709,-83.3318340
2296,Garland Street,48320,42.6184965,-83.3316870
2310,Garland Street,48320,42.6182787,-83.3319798
2316,Garland Street,48320,42.6182096,-83.3320983
2351,Ferndale Street,48320,42.6185455,-83.3323664
2357,Ferndale Street,48320,42.6183310,-83.3324784
2359,Ferndale Street,48320,42.6182857,-83.3328386
2326,Garland Street,48320,42.6180543,-83.3322187
2350,Pontiac Drive,48320,42.6178363,-83.3325856
2358,Pontiac Drive,48320,42.6178968,-83.3327124
2366,Pontiac Drive,48320,42.6180385,-83.3329716
1430,Benvenue Street,48320,42.6186934,-83.3304608
2265,Garland Street,48320,42.6185991,-83.3305538
2271,Garland Street,48320,42.6184848,-83.3306947
2277,Garland Street,48320,42.6184071,-83.3308081
2285,Garland Street,48320,42.6182903,-83.3309493
2291,Garland Street,48320,42.6182116,-83.3310745
2297,Garland Street,48320,42.6181296,-83.3311673
1474,Benvenue Street,48320,42.6180661,-83.3304962
1464,Benvenue Street,48320,42.6182726,-83.3304420
1490,Benvenue Street,48320,42.6176171,-83.3304790
2285,Central Street,48320,42.6177517,-83.3308756
2291,Central Street,48320,42.6177721,-83.3312484
2319,Garland Street,48320,42.6178083,-83.3315566
2335,Garland Street,48320,42.6175327,-83.3318447
2304,Pontiac Drive,48320,42.6173997,-83.3314153
2298,Pontiac Drive,48320,42.6173589,-83.3312031
2288,Pontiac Drive,48320,42.6172974,-83.3310222
2280,Pontiac Drive,48320,42.6172730,-83.3308167
2272,Pontiac Drive,48320,42.6172867,-83.3306045
2260,Pontiac Drive,48320,42.6172251,-83.3301859
2266,Pontiac Drive,48320,42.6172301,-83.3303764
1411,Rosedale Avenue,48320,42.6198790,-83.3276396
1471,Benvenue Street,48320,42.6181801,-83.3299385
1465,Benvenue Street,48320,42.6183248,-83.3299722
1449,Benvenue Street,48320,42.6187149,-83.3299594
1459,Benvenue Street,48320,42.6184720,-83.3299646
1455,Benvenue Street,48320,42.6185930,-83.3298947
1481,Benvenue Street,48320,42.6179501,-83.3299561
1483,Benvenue Street,48320,42.6177484,-83.3299547
1485,Benvenue Street,48320,42.6176168,-83.3298697
1463,Oakwood Street,48320,42.6179440,-83.3286020
1420,Oakwood Street,48320,42.6189512,-83.3293810
1430,Oakwood Street,48320,42.6187309,-83.3293766
1438,Oakwood Street,48320,42.6185672,-83.3293728
1446,Oakwood Street,48320,42.6183487,-83.3293698
1460,Oakwood Street,48320,42.6180380,-83.3293623
1466,Oakwood Street,48320,42.6178809,-83.3293711
1480,Oakwood Street,48320,42.6175994,-83.3293783
1473,Oakwood Street,48320,42.6177766,-83.3288274
1449,Oakwood Street,48320,42.6183250,-83.3288663
1461,Oakwood Street,48320,42.6180697,-83.3288442
1455,Oakwood Street,48320,42.6181998,-83.3288530
1443,Oakwood Street,48320,42.6184789,-83.3288462
1439,Oakwood Street,48320,42.6185790,-83.3288299
1433,Oakwood Street,48320,42.6187525,-83.3288509
1429,Oakwood Street,48320,42.6188819,-83.3288062
1425,Oakwood Street,48320,42.6190075,-83.3288169
1415,Oakwood Street,48320,42.6192384,-83.3288490
1490,Rosedale Avenue,48320,42.6177165,-83.3282603
1478,Rosedale Avenue,48320,42.6179561,-83.3282980
1470,Rosedale Avenue,48320,42.6180755,-83.3282885
1466,Rosedale Avenue,48320,42.6182097,-83.3282617
1460,Rosedale Avenue,48320,42.6183398,-83.3282436
1450,Rosedale Avenue,48320,42.6185988,-83.3282477
1456,Rosedale Avenue,48320,42.6185050,-83.3282798
1436,Rosedale Avenue,48320,42.6190240,-83.3282744
1444,Rosedale Avenue,48320,42.6187616,-83.3282598
1440,Rosedale Avenue,48320,42.6188982,-83.3282684
1430,Rosedale Avenue,48320,42.6191669,-83.3282722
1424,Rosedale Avenue,48320,42.6193263,-83.3282845
1420,Rosedale Avenue,48320,42.6194294,-83.3282925
1410,Rosedale Avenue,48320,42.6195798,-83.3282812
1413,Rosedale Avenue,48320,42.6197356,-83.3277047
1417,Rosedale Avenue,48320,42.6195804,-83.3277362
1421,Rosedale Avenue,48320,42.6194467,-83.3277858
1425,Rosedale Avenue,48320,42.6193162,-83.3277555
1435,Rosedale Avenue,48320,42.6190321,-83.3277153
1429,Rosedale Avenue,48320,42.6191853,-83.3277394
1439,Rosedale Avenue,48320,42.6189195,-83.3277387
1445,Rosedale Avenue,48320,42.6187645,-83.3276772
1449,Rosedale Avenue,48320,42.6186195,-83.3277403
1455,Rosedale Avenue,48320,42.6184917,-83.3277304
1483,Rosedale Avenue,48320,42.6179038,-83.3277147
1465,Rosedale Avenue,48320,42.6182353,-83.3277227
1459,Rosedale Avenue,48320,42.6183404,-83.3277456
1438,Glenwood Drive,48320,42.6194450,-83.3271769
1432,Glenwood Drive,48320,42.6195855,-83.3271826
1426,Glenwood Drive,48320,42.6197557,-83.3271966
1420,Glenwood Drive,48320,42.6199376,-83.3272201
1403,Glenwood Drive,48320,42.6202751,-83.3266653
1425,Glenwood Drive,48320,42.6197586,-83.3266387
1409,Glenwood Drive,48320,42.6201569,-83.3266718
1413,Glenwood Drive,48320,42.6200108,-83.3266175
1417,Glenwood Drive,48320,42.6198831,-83.3266129
1429,Glenwood Drive,48320,42.6196051,-83.3265919
1437,Glenwood Drive,48320,42.6194781,-83.3265786
1445,Glenwood Drive,48320,42.6193508,-83.3265963
1444,Glenwood Drive,48320,42.6193492,-83.3271603
1448,Glenwood Drive,48320,42.6191934,-83.3271747
1454,Glenwood Drive,48320,42.6190544,-83.3271769
1449,Glenwood Drive,48320,42.6191922,-83.3266240
1451,Glenwood Drive,48320,42.6190643,-83.3265807
1455,Glenwood Drive,48320,42.6189213,-83.3266003
1458,Glenwood Drive,48320,42.6189201,-83.3271656
1466,Glenwood Drive,48320,42.6186563,-83.3271476
1470,Glenwood Drive,48320,42.6185084,-83.3271538
1465,Glenwood Drive,48320,42.6186719,-83.3266249
1479,Glenwood Drive,48320,42.6182608,-83.3266069
1480,Glenwood Drive,48320,42.6182430,-83.3271156
1486,Glenwood Drive,48320,42.6181182,-83.3271019
1471,Glenwood Drive,48320,42.6185292,-83.3266168
1475,Glenwood Drive,48320,42.6184040,-83.3266379
1476,Glenwood Drive,48320,42.6183583,-83.3271907
1489,Glenwood Drive,48320,42.6180175,-83.3266357
1491,Glenwood Drive,48320,42.6178897,-83.3265999
1490,Avondale Street,48320,42.6183944,-83.3260713
1476,Avondale Street,48320,42.6185203,-83.3260164
1464,Avondale Street,48320,42.6186973,-83.3260237
1452,Avondale Street,48320,42.6188951,-83.3260706
1440,Avondale Street,48320,42.6190754,-83.3260706
1428,Avondale Street,48320,42.6193095,-83.3260661
1416,Avondale Street,48320,42.6194716,-83.3260562
1408,Avondale Street,48320,42.6196104,-83.3260451
1398,Avondale Street,48320,42.6197543,-83.3261289
1386,Avondale Street,48320,42.6199633,-83.3260633
1374,Avondale Street,48320,42.6201598,-83.3260666
1364,Avondale Street,48320,42.6203058,-83.3260538
1338,Avondale Street,48320,42.6206663,-83.3260853
1356,Avondale Street,48320,42.6204576,-83.3260880
1301,Avondale Street,48320,42.6212627,-83.3254886
1315,Avondale Street,48320,42.6210073,-83.3254704
1331,Avondale Street,48320,42.6208469,-83.3253307
1349,Avondale Street,48320,42.6205896,-83.3255385
1359,Avondale Street,48320,42.6204302,-83.3255228
1369,Avondale Street,48320,42.6202574,-83.3255239
1379,Avondale Street,48320,42.6201016,-83.3255458
1385,Avondale Street,48320,42.6199159,-83.3255348
1407,Avondale Street,48320,42.6197498,-83.3255183
1409,Avondale Street,48320,42.6196137,-83.3254960
1415,Avondale Street,48320,42.6194757,-83.3255019
1427,Avondale Street,48320,42.6193032,-83.3254759
1439,Avondale Street,48320,42.6190992,-83.3254556
1453,Avondale Street,48320,42.6189272,-83.3254647
1465,Avondale Street,48320,42.6187945,-83.3254855
1475,Avondale Street,48320,42.6186012,-83.3253746
1483,Avondale Street,48320,42.6183812,-83.3254468
1497,Avondale Street,48320,42.6182345,-83.3254805
1501,Avondale Street,48320,42.6181087,-83.3254072
362,South Telegraph Road,48320,42.6248195,-83.3255489
