House number,Street name,Postal code,Latitude,Longitude
37635,Dequindre Road,48083,42.5683678,-83.0904827
2825,Livernois Road,48083,42.5600961,-83.1486297
3149,Crooks Rd,48084,42.5638377,-83.1681738
1835,East Big Beaver Road,48083,42.5643527,-83.1115154
3119,Crooks Rd,48084,42.5633127,-83.1680468
3877,Rochester Road,48083,42.5756782,-83.1290001
1430,West Maple Road,48084,42.5483070,-83.1670368
1650,Crooks Road,48084,42.5485913,-83.1660531
1446,West Maple Road,48084,42.5483041,-83.1672254
1470,West Maple Road,48084,42.5482967,-83.1674163
3111,Crooks Road,48084,42.5630120,-83.1680384
2891,Crooks Road,48084-4704,42.5602675,-83.1677877
730,East Big Beaver Road,48083,42.5624769,-83.1328911
1634,John R Road,48083,42.5495742,-83.1072920
1845,East Big Beaver Road,48083,42.5643753,-83.1112629
1853,East Big Beaver Road,48083,42.5644319,-83.1111338
1885,East Big Beaver Road,48083,42.5645247,-83.1106022
1889,East Big Beaver Road,48083,42.5645232,-83.1104180
1901,East Big Beaver Road,48083,42.5645247,-83.1103275
1873,East Big Beaver Road,48083,42.5645224,-83.1108111
1913,East Big Beaver Road,48083,42.5645241,-83.1101851
1925,East Big Beaver Road,48083,42.5645677,-83.1097662
1917,East Big Beaver Road,48083,42.5645271,-83.1100837
1921,East Big Beaver Road,48083,42.5645352,-83.1099121
823,East Big Beaver Road,48084,42.5639735,-83.1313590
6854,Rochester Road,48085,42.6208642,-83.1298510
4052,Rochester Road,48085,42.5783950,-83.1272517
3642,Rochester Road,48083,42.5718859,-83.1269260
880,East Maple Road,48083,42.5482742,-83.1328268
1654,Livernois Road,48083,42.5486783,-83.1467221
1350,West Maple Road,48084,42.5482131,-83.1659917
1919,East Big Beaver Road,48083,42.5645336,-83.1099713
1434,West Big Beaver Road,48084,42.5621747,-83.1676843
5377,Crooks Road,48098,42.5965045,-83.1695153
1825,East Square Lake,48085,42.6084954,-83.1137979
5015,Livernois Road,48098,42.5919293,-83.1496032
31,East Long Lake Road,48098,42.5930168,-83.1482562
125,East Long Lake Road,48085,42.5922942,-83.1470224
2989,Crooks Road,48084,42.5614026,-83.1678096
3331,Rochester Road,48083-5454,42.5678555,-83.1285903
5977,Livernois Road,48098,42.6060966,-83.1500883
3990,Rochester Road,48084,42.5773739,-83.1278645
5600,Crooks Rd,48098,42.6012453,-83.1681225
5399,Crooks Rd,48098,42.5967407,-83.1698162
1484,Coolidge Highway,48084,42.5461640,-83.1854486
2105,West South Boulevard,48098,42.6211020,-83.1720733
2105,West South Boulevard,48098,42.6216837,-83.1707607
2045,West South Boulevard,48098,42.6206381,-83.1705686
4054,Rochester Road,48085,42.5785661,-83.1273377
5151,Corporate Dr,48098,42.5937101,-83.1761795
5365,Crooks Road,48098,42.5963127,-83.1695124
4600,Investment Drive,48098,42.5892052,-83.1710597
4550,Investment Drive,48098,42.5891655,-83.1699259
100,West Big Beaver Road,48084,42.5629048,-83.1500834
1380,Coolidge Highway,48084,42.5453248,-83.1854274
1111,East Long Lake Road,48085,42.5929480,-83.1266113
755,West Big Beaver Road,48084,42.5602285,-83.1614585
900,"Wilshire Drive, Suite 202",48084,42.5653643,-83.1648238
1495,Equity Drive,48084,42.5442921,-83.1749396
61,West Long Lake Road,48098,42.5909775,-83.1503368
2594,Athena Drive,48083,42.5594517,-83.0949050
3879,Rochester Road,48083,42.5757745,-83.1289635
500,West 14 Mile Road,48083,42.5371700,-83.1133971
2938,East Maple Road,48083,42.5492861,-83.0883630
1339,Coolidge Highway,48084,42.5453416,-83.1873704
174,West Maple,48084,42.5488848,-83.1496072
34,West Square Lake Road,48098,42.6070902,-83.1509154
900,Tower Drive,48098,42.5970395,-83.1673681
201,West Big Beaver Road,48084,42.5606833,-83.1509180
2565,West Maple Road,48084,42.5589500,-83.1878102
3331,West Big Beaver Road,48084,42.5594738,-83.1931470
1953,West South Boulevard,48098,42.6217310,-83.1682258
1407H,Allen Drive,48083,42.5452384,-83.1261630
1945,West Maple Road,48084,42.5465350,-83.1717752
4060,Rochester Road,48085,42.5785660,-83.1277422
4058,Rochester Road,48085,42.5785581,-83.1275450
4050,Rochester Road,48085,42.5783033,-83.1270783
4050,Rochester Road,48085,42.5783705,-83.1270435
4048,Rochester Road,48085,42.5782421,-83.1270448
4700,Rochester Road,48085,42.5877927,-83.1283441
5069,Livernois Road,48098,42.5924639,-83.1498047
201,West Big Beaver Road,48084,42.5608121,-83.1510691
645,East Big Beaver Road,48083,42.5632503,-83.1356271
2919,Crooks Road,48084,42.5609931,-83.1675461
198,East Big Beaver Road,48083,42.5622365,-83.1432695
5017,Rochester Road,48085,42.5924014,-83.1295733
1047,East Long Lake Road,48085,42.5925004,-83.1281080
699,West Big Beaver Road,48084,42.5616346,-83.1611132
812,East Big Beaver Road,48083,42.5624825,-83.1316953
6951,Rochester Road,48084,42.6227061,-83.1310872
3995,Rochester Road,48083,42.5772376,-83.1290869
3268,Rochester Road,48083,42.5671103,-83.1270998
2129,West South Boulevard,48098,42.6215573,-83.1723001
1291,Torpey Drive,48083,42.5680416,-83.1202680
1359,Torpey Drive,48083,42.5679389,-83.1213650
1980,East Big Beaver Road,48083,42.5627115,-83.1091532
1201,Doyle Drive,48084,42.5425797,-83.1909496
636,West Big Beaver Road,48084,42.5624026,-83.1619544
644,West Big Beaver Road,48084,42.5624056,-83.1621207
398,West 14 Mile Road,48083,42.5345516,-83.1107413
708,West Big Beaver Road,48084,42.5624702,-83.1633791
4101,John R Road,48085,42.5803304,-83.1095590
780,East Big Beaver Road,48083,42.5623916,-83.1322661
42889,Dequindre Road,48085,42.6067163,-83.0913153
2912,East Long Lake Road,48085,42.5923700,-83.0917498
2904,East Long Lake Road,48085,42.5923692,-83.0920682
2932,East Long Lake Road,48085,42.5923735,-83.0914034
1654,Livernois Road,48083,42.5488943,-83.1465939
3688,Rochester Road,48084,42.5723508,-83.1272122
3688,Rochester Road,48084,42.5724397,-83.1272149
3688,Rochester Road,48084,42.5725522,-83.1272914
3785,Rochester Road,48084,42.5738964,-83.1289161
3785,Rochester Road,48084,42.5739996,-83.1289168
3410,Rochester Road,48083,42.5691834,-83.1275475
3410,Rochester Road,48083,42.5691439,-83.1272967
5012,Rochester Road,48085,42.5924624,-83.1286687
5012,Rochester Road,48085,42.5925187,-83.1284742
4889,Rochester Road,48085,42.5904325,-83.1294183
4889,Rochester Road,48085,42.5904206,-83.1298193
3990,Rochester Road,48084,42.5773608,-83.1276374
4819,Rochester Road,48098-4962,42.5894965,-83.1296638
5060,Rochester Road,48085,42.5927744,-83.1285828
6951,Rochester Road,48084,42.6225886,-83.1312262
5977,Livernois Road,48098,42.6060985,-83.1503577
5015,Livernois Road,48098,42.5919727,-83.1497247
2017,Livernois Road,48084,42.5524381,-83.1477526
2017,Livernois Road,48084,42.5524431,-83.1476091
25,East 14 Mile Road,48083,42.5346004,-83.1065357
25,East 14 Mile Road,48083,42.5346582,-83.1064539
1881,East 14 Mile Road,48083,42.5351681,-83.0873687
1881,East 14 Mile Road,48083,42.5352313,-83.0873720
2670,West Maple Road,48084,42.5480970,-83.1816383
1350,West Maple Road,48084,42.5483598,-83.1659587
1350,West Maple Road,48084,42.5483608,-83.1660727
1965,East Big Beaver Road,48083,42.5644730,-83.1089645
2039,East Big Beaver Road,48083,42.5640256,-83.1077930
2039,East Big Beaver Road,48083,42.5640335,-83.1075315
2980,John R Road,48083,42.5630753,-83.1076348
2980,John r Road,48083,42.5628392,-83.1075919
880,East Maple Road,48083,42.5483242,-83.1330708
2558,East Maple Road,48083,42.5489921,-83.0961978
1660,John R Road,48083,42.5498517,-83.1071111
1634,John R Road,48083,42.5495780,-83.1070568
1980,East Maple Road,48083,42.5489467,-83.1081323
1980,East Maple Road,48083,42.5488113,-83.1081980
1489,East Maple Road,48083,42.5492292,-83.1226230
1490,East Maple Road,48083,42.5486137,-83.1222059
1490,East Maple Road,48083,42.5484327,-83.1220895
1489,East Maple Road,48083,42.5493214,-83.1227568
2989,Crooks Road,48084,42.5613788,-83.1681052
2967,East Big Beaver Road,48083,42.5655980,-83.0899000
4880,Rochester Road,48085,42.5903092,-83.1284754
2601,W Big Beaver Rd,48084-3390,42.5599108,-83.1805553
1495,Equity Drive,48084,42.5445276,-83.1748509
1937,West Maple Road,48084,42.5467749,-83.1719527
2915,Coolidge Highway,48084,42.5604921,-83.1875221
5725,Rochester Road,48084,42.6026635,-83.1300811
2100,West Big Beaver Road,48084,42.5619936,-83.1761214
1000,West Big Beaver Road,48084,42.5626773,-83.1668094
888,West Big Beaver Road,48084,42.5627285,-83.1651973
539,East Big Beaver Road,48083,42.5634502,-83.1371414
888,West Big Beaver Road,48084,42.5626750,-83.1647941
1515,East Maple Road,48083,42.5495971,-83.1210930
110,West Maple Road,48084,42.5487835,-83.1486925
5947,John R Road,48085,42.6068068,-83.1108931
1710,Livernois Road,48083,42.5493071,-83.1467910
4916,John R Road,48085,42.5919285,-83.1086456
2891,West Maple Road,48084,42.5468258,-83.1847648
34781,Dequindre Road,48083,42.5483993,-83.0884513
2495,Livernois Road,48083,42.5574487,-83.1483738
3651,Rochester Road,48084,42.5720969,-83.1288190
823,East Big Beaver Road,48084,42.5641112,-83.1314481
1961,West Maple Road,48084,42.5446366,-83.1725622
2989,East Big Beaver Road,48083,42.5656165,-83.0904457
1701,Rochester Road,48083,42.5502546,-83.1324904
89,East Long Lake Road,48098,42.5931329,-83.1470975
5385,Crooks Road,48098,42.5967564,-83.1695301
5531,Crooks Road,48098,42.5991164,-83.1695395
5569,Crooks Road,48098,42.5996293,-83.1696461
5322,Crooks Road,48098,42.5955949,-83.1681314
5373,Crooks Road,48098,42.5964005,-83.1695175
5389,Crooks Road,48098,42.5966671,-83.1695191
5381,Crooks Road,48098,42.5965956,-83.1695200
5393,Crooks Road,48098,42.5967696,-83.1696964
778,West Big Beaver Road,48084,42.5623449,-83.1642641
766,West Big Beaver Road,48084,42.5623659,-83.1640766
850,West Big Beaver Road,48084,42.5623511,-83.1645349
736,West Big Beaver Road,48084,42.5624860,-83.1638478
724,West Big Beaver Road,48084,42.5624743,-83.1635438
716,West Big Beaver Road,48084,42.5624669,-83.1634452
700,West Big Beaver Road,48084,42.5624339,-83.1632393
660,West Big Beaver Road,48084,42.5625009,-83.1624150
624,West Big Beaver Road,48084,42.5624298,-83.1618097
600,West Big Beaver Road,48084,42.5624798,-83.1614961
732,West Big Beaver Road,48084,42.5624774,-83.1636852
1903,Barrett Drive,48084,42.5498452,-83.1600090
5055,Rochester Road,48085,42.5932237,-83.1306279
3668,Livernois Road,48083,42.5721448,-83.1463718
1285,Coolidge Highway,48084,42.5442640,-83.1897317
1265,Coolidge Highway,48084,42.5435373,-83.1896906
1221,Coolidge Highway,48084,42.5418975,-83.1897172
1217,Coolidge Highway,48084,42.5416997,-83.1897099
1213,Coolidge Highway,48084,42.5413926,-83.1895660
1205,Coolidge Highway,48084,42.5410556,-83.1893258
1333,Coolidge Highway,48084,42.5453312,-83.1877221
1361,Coolidge Highway,48084,42.5453708,-83.1869379
1349,Coolidge Highway,48084,42.5452224,-83.1869242
3520,Adams Road,48084,42.5684275,-83.2056451
2855,Coolidge Highway,48084,42.5589497,-83.1882623
3001,West Big Beaver Road,48084,42.5601962,-83.1887458
3155,West Big Beaver Road,48084,42.5594921,-83.1900776
3221,West Big Beaver Road,48084,42.5594260,-83.1920873
3331,West Big Beaver Road,48084,42.5601173,-83.1932304
2830,West Maple Road,48084,42.5487225,-83.1839964
2879,West Maple Road,48084-7014,42.5468694,-83.1844294
498,West 14 Mile Road,48083,42.5369001,-83.1111219
2969,East Big Beaver Road,48083,42.5643152,-83.0903888
3843,Rochester Road,48083,42.5749819,-83.1291269
3110,Rochester Road,48083,42.5644512,-83.1278501
3083,Rochester Road,48083,42.5640754,-83.1294235
3129,Crooks Road,48084,42.5635665,-83.1681460
2016,West Big Beaver Road,48084,42.5621539,-83.1749735
3658,Rochester Road,48083,42.5720480,-83.1270831
1699,Crooks Road,48084,42.5489865,-83.1672544
1782,Boulan Drive,48084,42.5697483,-83.1738692
3115,Crooks Road,48084,42.5631724,-83.1680429
3117,Crooks Road,48084,42.5632460,-83.1680449
3113,Crooks Road,48084,42.5631057,-83.1680410
3137,Crooks Road,48084,42.5636302,-83.1681525
3141,Crooks Road,48084,42.5636996,-83.1681597
3145,Crooks Road,48084,42.5637657,-83.1681664
3065,Crooks Road,48084,42.5626568,-83.1680812
3075,Crooks Road,48084,42.5627134,-83.1680843
3085,Crooks Road,48084,42.5627653,-83.1680886
3095,Crooks Road,48084,42.5628093,-83.1680439
3045,Crooks Road,48084,42.5625035,-83.1679897
3043,Crooks Road,48084,42.5624232,-83.1679841
2008,West Big Beaver Road,48084,42.5621581,-83.1748168
2036,West Big Beaver Road,48084,42.5621586,-83.1753706
2220,West Big Beaver Road,48084,42.5622201,-83.1773424
987,Wilshire Drive,48084,42.5638660,-83.1668682
987,Wilshire Drive,48084,42.5634712,-83.1668379
950,West Big Beaver Road,48084,42.5626734,-83.1663721
900,Wilshire Drive,48084,42.5654341,-83.1651853
1319,West Wattles Road,48084,42.5761382,-83.1742287
2795,Bolingbroke Drive,48084,42.5697107,-83.2028654
839,West Wattles Road,48098,42.5765213,-83.1651360
2927,East Big Beaver Road,48083,42.5650789,-83.0909367
200,E Big Beaver Rd,48083,42.5620527,-83.1426315
200,E Big Beaver Rd,48083,42.5618893,-83.1427381
44201,Dequindre Road,48085,42.6188418,-83.0936476
3500,Civic Center Drive,48084,42.5704296,-83.1551970
2880,W Maple Rd,48084,42.5486229,-83.1851619
640,Robinwood Drive,48083,42.5535158,-83.1373639
3439,Rochester Rd,48083,42.5694950,-83.1286419
1177,Coolidge Highway,48084,42.5403207,-83.1876865
1819,East Big Beaver Road,48083,42.5653302,-83.1118438
1965,East Big Beaver Road,48083,42.5643580,-83.1090143
3125,John R Road,48083,42.5652872,-83.1100349
2537,Rochester Court,48083,42.5572742,-83.1317620
500,W Big Beaver Rd,48084,42.5637920,-83.1552481
520,Big Beaver,48084,42.5652713,-83.1564470
350,West Big Beaver Road,48084,42.5629395,-83.1529581
200,West Big Beaver Road,48084,42.5632667,-83.1517304
510,Big Beaver,48084,42.5645407,-83.1547039
1301,Coolidge Highway,48084-7017,42.5449747,-83.1902007
1237,Coolidge Highway,48084,42.5424168,-83.1898302
750,Redwood Drive,48083,42.5416120,-83.1227854
2601,John R Road,48083,42.5593153,-83.1090062
734,East Big Beaver Road,48083,42.5609111,-83.1328915
766,E Big Beaver Rd,48083,42.5609607,-83.1323335
950,East Big Beaver Road,48083,42.5622721,-83.1297126
3039,Rochester Road,48083,42.5635560,-83.1295311
805,East Big Beaver Road,48083,42.5641221,-83.1320190
2910,JOHN,48083-2354,42.5621687,-83.1075674
301,West Big Beaver Road,48084,42.5611931,-83.1526150
621,West Long Lake Road,48098,42.5856439,-83.1638880
2400,West Big Beaver Road,48084,42.5621384,-83.1783103
510,Big Beaver,48084,42.5644652,-83.1556752
36895,Dequindre Road,48083,42.5623465,-83.0893726
6835,Rochester Road,48085,42.6206482,-83.1316835
1019,East Big Beaver Road,48083,42.5636269,-83.1271174
1800,East Maple Road,48083,42.5488072,-83.1127606
1980,East Big Beaver Road,48083,42.5628306,-83.1090840
575,West Big Beaver Road,48084,42.5609427,-83.1540740
591,West Big Beaver Road,48084,42.5612491,-83.1546676
2800,West Big Beaver Road,48084,42.5598398,-83.1839112
5460,Corporate Drive,48098,42.5966391,-83.1707748
900,Tower Drive,48098,42.5970610,-83.1673777
850,Tower Drive,48098,42.5974038,-83.1632773
500,West Long Lake Road,48098,42.5935062,-83.1584306
1317,Coolidge Highway,48084,42.5440889,-83.1873146
5705,Rochester Road,48085,42.6000078,-83.1346042
5725,Rochester Road,48085,42.6034611,-83.1348335
1755,East Long Lake Road,48085,42.5963615,-83.1170324
3755,John R Road,48083,42.5733770,-83.1133861
2844,Livernois Road,48099,42.5609853,-83.1466764
1981,West South Boulevard,48098,42.6215097,-83.1692477
1349,West Wattles Road,48098,42.5750780,-83.1748823
3830,Crooks Road,48084,42.5742444,-83.1669314
4685,Investment Drive,48098,42.5875386,-83.1722518
2067,Harned Drive,48085,42.6227250,-83.1090679
3671,Crooks Road,48084,42.5722181,-83.1728926
4333,John R Road,48085,42.5813887,-83.1120588
150,Stephenson Highway,48083,42.5347177,-83.1184049
1450,East South Boulevard,48085,42.6189972,-83.1009159
2405,Golfview Drive,48084,42.5567222,-83.1790448
1340,East Square Lake Road,48085,42.6053321,-83.1217752
5835,Donaldson Drive,48085,42.6035342,-83.1463662
5666,Livernois Road,48098,42.6014911,-83.1469369
4777,Northfield Parkway,48098,42.5877280,-83.1799734
1285,East Wattles Road,48085,42.5784835,-83.1233523
1333,Hamman Drive,48085,42.5869129,-83.1203248
2222,East Long Lake Road,48085,42.5887849,-83.1056105
4571,John R Road,48085,42.5862079,-83.1119413
4700,Investment Drive,48098,42.5893678,-83.1727085
2350,Rochester Court,48083,42.5557831,-83.1297884
3900,Northfield Parkway,48098,42.5744092,-83.1773133
44201,Dequindre Road,48085,42.6171798,-83.0936924
35,East 14 Mile Road,48083-4517,42.5347494,-83.1059712
6685,Coolidge Highway,48098,42.6166436,-83.1943415
4073,Glencastle,48098,42.5775791,-83.1761742
1800,West Square Lake Road,48098,42.6090428,-83.1820618
1250,West Maple Road,48084,42.5486848,-83.1640180
2600,Troy Center Drive,48084,42.5577687,-83.1606116
396,John R Road,48083,42.5377287,-83.1052251
574,Robbins Drive,48083,42.5406131,-83.1013815
1199,East Square Lake Road,48085,42.6077493,-83.1259940
3701,Crooks Road,48084,42.5728414,-83.1683157
102,East Long Lake Road,48085,42.5910981,-83.1477128
1950,East Square Lake Road,48085,42.6064304,-83.1117390
1825,East Square Lake Road,48085,42.6089391,-83.1137809
4401,Tallman Drive,48085,42.5836627,-83.1410365
4400,Livernois Road,48098,42.5834378,-83.1466517
4420,Livernois Rd,48098,42.5841951,-83.1436236
1650,West Big Beaver Road,48084,42.5625399,-83.1707481
3250,West Big Beaver Road,48084,42.5621446,-83.1937145
3270,West Big Beaver Road,48084,42.5628297,-83.1930723
3290,West Big Beaver Road,48084,42.5634201,-83.1942133
3310,West Big Beaver Road,48084,42.5645052,-83.1938702
3541,Jack Drive,48084,42.5677312,-83.1936802
3077,Glouchester Avenue,48084,42.5556011,-83.1886531
811,West Square Lake Road,48098,42.6041198,-83.1662142
124,John R. Road,48083,42.5351230,-83.1064616
208,West 14 Mile Road,48083,42.5346122,-83.1090679
2075,John R Road,48085,42.5950329,-83.1088076
1975,East Long Lake Road,48085,42.5930743,-83.1108359
1850,East Square Lake Road,48085,42.6065658,-83.1131027
2672,Industrial Row,48084,42.5425933,-83.1777636
42693,Dequindre Road,48085,42.6050214,-83.0916819
2784,East Square Lake Road,48085,42.6068603,-83.0950208
1743,Maplelawn Road,48084,42.5525145,-83.1691536
635,Executive Drive,48083,42.5407927,-83.1001429
627,Executive Drive,48083,42.5405542,-83.0999192
1070,Villa Park Drive,48085,42.6120150,-83.1284473
6600,Rochester Road,48085,42.6163438,-83.1266248
300,East Big Beaver Road,48083,42.5615563,-83.1407774
320,East Big Beaver Road,48083,42.5609392,-83.1403099
340,East Big Beaver Road,48083,42.5603027,-83.1407153
710,E Big Beaver Rd,48083,42.5609222,-83.1334268
2164,Adrienne Drive,48085,42.6008631,-83.1050386
2156,Adrienne Drive,48085,42.6007318,-83.1052293
1400,Stephenson Highway,48083,42.5460604,-83.1192651
6700,Rochester Road,48085,42.6187028,-83.1295437
885,Norwich Drive,48084,42.5556077,-83.2037003
868,Norwich Drive,48084,42.5558265,-83.2030159
855,Norwich Drive,48084,42.5552980,-83.2032477
865,Norwich Drive,48084,42.5553991,-83.2034078
890,Norwich Drive,48084,42.5559187,-83.2031532
1510,Wrenwood Drive,48084,42.5600214,-83.2005574
858,Norwich Drive,48084,42.5557213,-83.2028490
921,Nampa Court,48084,42.5576637,-83.1993023
4701,Beach Road,48098,42.5858332,-83.1994720
1648,Rochester Road,48083,42.5493464,-83.1317447
1025,East Maple Road,48083,42.5489604,-83.1311803
1095,East Maple Road,48083,42.5489429,-83.1299789
1770,Rochester Road,48083,42.5508059,-83.1312752
1145,Rochester Road,48083,42.5439896,-83.1342099
350,West Big Beaver Road,48084,42.5634674,-83.1531398
41,West 14 Mile Road,48083,42.5377885,-83.1109686
390,West 14 Mile Road,48083,42.5345078,-83.1101120
2175,Stephenson Highway,48083,42.5548149,-83.1276177
2001,West Maple Road,48084,42.5442819,-83.1725373
955,North Eton Street,48084,42.5561426,-83.1976256
3595,North Adams Road,48304,42.5829799,-83.2052283
6465,Livernois Road,48098,42.6121495,-83.1518866
1350,West Maple Road,48084,42.5483834,-83.1659965
900,Wilshire Drive,48084,42.5653074,-83.1647667
1685,E Big Beaver Road,48083,42.5643170,-83.1139435
120,Hart Drive,48098,42.5839096,-83.1518922
2932,East Long Lake Road,48085,42.5924574,-83.0912295
2925,East Long Lake Road,48085,42.5934605,-83.0915653
"60, 4699",West Wattles Road,48098,42.5775838,-83.1505462
"60, 4699",West Wattles Road,48098,42.5778358,-83.1502913
"60, 4699",West Wattles Road,48098,42.5778980,-83.1493852
"60, 4699",West Wattles Road,48098,42.5782402,-83.1499051
"60, 4699",West Wattles Road,48098,42.5777544,-83.1496621
"60, 4699",West Wattles Road,48098,42.5782332,-83.1496647
"60, 4699",West Wattles Road,48098,42.5781435,-83.1495217
"60, 4699",West Wattles Road,48098,42.5781935,-83.1501683
"60, 4699",West Wattles Road,48098,42.5781729,-83.1493670
1755,E Waddles Rd,48085,42.5801120,-83.1130718
3753,John R Road,48083,42.5747439,-83.1097654
205,West Long Lake Road,48098,42.5908674,-83.1527747
3150,Livernois Road,48083,42.5634579,-83.1471983
3982,Crooks Road,48084,42.5765107,-83.1675500
760,West Wattles Road,48098,42.5779124,-83.1631265
4700,Rochester Road,48085,42.5877750,-83.1283464
2922,Quail Run Drive,48098,42.5871357,-83.2055544
2934,Quail Run Drive,48098,42.5870857,-83.2059448
2910,Quail Run Drive,48098,42.5871328,-83.2051692
2898,Quail Run Drive,48098,42.5871232,-83.2047654
2874,Quail Run Drive,48098,42.5871337,-83.2040308
2862,Quail Run Drive,48098,42.5871327,-83.2036146
2946,Quail Run Drive,48098,42.5870920,-83.2063918
4867,Valley Vista Road,48098,42.5876880,-83.2050222
2842,Shadywood Drive,48098,42.5861038,-83.2030031
2830,Shadywood Drive,48098,42.5860182,-83.2026595
4805,Orchard Ridge Drive,48098,42.5871546,-83.2019765
4817,Valley Vista Lane,48098,42.5871906,-83.2029065
4804,Orchard Ridge Drive,48098,42.5871566,-83.2012793
4792,Orchard Ridge Drive,48098,42.5868742,-83.2012648
4768,Orchard Ridge Drive,48098,42.5862494,-83.2012531
4744,Orchard Ridge Drive,48098,42.5856734,-83.2013763
100,East Maple Road,48083,42.5466259,-83.1457061
412,West 14 Mile Road,48083,42.5378692,-83.1114968
3571,Northfield Parkway,48084,42.5703942,-83.1817695
3570,Northfield Parkway,48084,42.5709431,-83.1775648
1201,Doyle Drive,48084,42.5425173,-83.1911028
1710,East Square Lake Road,48085,42.6226127,-83.0983924
500,Kirts Boulevard,48084,42.5569422,-83.1531772
1522,East Big Beaver Road,48083,42.5625577,-83.1172510
6465,Livernois Road,48098,42.6139366,-83.1517393
2340,Willard Drive,48085,42.5979382,-83.0989703
6840,Crooks Road,48098,42.6194398,-83.1686995
400,East Long Lake Road,48085,42.5910514,-83.1407527
925,West South Boulevard,48085,42.6218523,-83.1491861
5625,Northfield Parkway,48098,42.6010814,-83.1767176
6950,Crooks Road,48098,42.6208369,-83.1692356
6710,Crooks Road,48098,42.6183123,-83.1681454
6970,Crooks Road,48098,42.6201648,-83.1688111
2072,Sachin Way,48084,42.5635003,-83.1756619
2056,Sachin Way,48084,42.5635235,-83.1753945
2040,Sachin Way,48084,42.5635301,-83.1751336
2024,Sachin Way,48084,42.5635345,-83.1748737
2008,Sachin Way,48084,42.5635271,-83.1746139
1992,Sachin Way,48084,42.5635176,-83.1743529
1976,Sachin Way,48084,42.5635389,-83.1740941
1960,Sachin Way,48084,42.5635559,-83.1738232
1977,Sachin Way,48084,42.5630376,-83.1740631
1993,Sachin Way,48084,42.5630213,-83.1743220
2009,Sachin Way,48084,42.5630095,-83.1745829
2025,Sachin Way,48084,42.5629993,-83.1748428
2041,Sachin Way,48084,42.5630295,-83.1751057
2057,Sachin Way,48084,42.5630199,-83.1753625
2073,Sachin Way,48084,42.5630029,-83.1756314
1961,Sachin Way,48084,42.5630557,-83.1737762
3500,Beach Road,48084,42.5670911,-83.1960089
2155,West Big Beaver Road,48084,42.5610189,-83.1767287
2075,West Big Beaver Road,48084,42.5609599,-83.1749435
2777,Crooks Road,48084-4705,42.5589234,-83.1696593
2089,West Big Beaver Road,48084,42.5609608,-83.1755849
1701,West Big Beaver Road,48084,42.5609865,-83.1719806
705,Minnesota Road,48083,42.5413470,-83.0970155
3601,Forge Drive,48083,42.5730994,-83.1056399
4600,Forsyth Drive,48085,42.5865926,-83.0957646
475,Cherry Avenue,48083,42.5560172,-83.1355273
3555,Ellenboro Drive,48083,42.5720002,-83.1399598
1738,Maplelawn Road,48084,42.5535563,-83.1686771
1815,Maplelawn Drive,48084,42.5516940,-83.1737762
1815,Maplelawn Road,48084,42.5517443,-83.1743021
325,Stephenson Highway,48083,42.5359960,-83.1209626
225,Stephenson Highway,48083,42.5352947,-83.1209837
100,Wilshire Drive,48084,42.5638974,-83.1619472
200,Wilshire Drive,48084,42.5643736,-83.1607347
600,Wilshire Drive,48084,42.5661256,-83.1605530
200,East Wattles Road,48085,42.5765340,-83.1447310
1525,Equity Drive,48083,42.5442062,-83.1784818
79,Crossroads Lane,48038,42.5457113,-83.1453982
41,Crossroads Lane,48038,42.5455866,-83.1464522
117,Crossroads Lane,48038,42.5458472,-83.1443740
1300,Livernois Road,48038,42.5451391,-83.1456855
20,East Maple Road,48083,42.5479143,-83.1463422
1150,Livernois Road,48084,42.5447755,-83.1462671
2800,Big Beaver Road,48084,42.5630457,-83.1836730
2800,West Big Beaver Road,48084,42.5625147,-83.1843658
2800,West Big Beaver Road,48084,42.5626603,-83.1837344
2901,West Big Beaver Road,48084,42.5597346,-83.1853589
400,Lowery Road,48084,42.5586598,-83.1543770
353,Lowery Road,48084,42.5582295,-83.1529848
357,Lowery Road,48084,42.5582130,-83.1527684
646,Lowery Road,48084,42.5585592,-83.1570405
850,West Big Beaver Road,48084,42.5623494,-83.1645191
901,Wilshire Drive,48084,42.5639729,-83.1651269
33475,Dequindre Road,48083,42.5382814,-83.0879565
1850,East South Boulevard,48085,42.6229853,-83.0942754
740,Palermo Drive,48084,42.5734025,-83.1624753
756,Palermo Drive,48084,42.5732560,-83.1627604
772,Palermo Drive,48084,42.5732453,-83.1630589
724,Palermo Drive,48084,42.5734379,-83.1621819
707,Palermo Drive,48084,42.5731378,-83.1618631
723,Palermo Drive,48084,42.5729247,-83.1621069
739,Palermo Drive,48084,42.5729031,-83.1624402
755,Palermo Drive,48084,42.5728939,-83.1627353
771,Palermo Drive,48084,42.5728895,-83.1630358
788,Palermo Drive,48084,42.5732383,-83.1633588
787,Palermo Drive,48084,42.5728836,-83.1633311
3815,Finch Drive,48084,42.5738334,-83.1640958
3825,Finch Drive,48084,42.5740271,-83.1641020
3832,Finch Drive,48084,42.5741860,-83.1633365
3812,Finch Drive,48084,42.5737714,-83.1633467
3776,Finch Drive,48084,42.5735218,-83.1633209
808,Superior Drive,48084,42.5735198,-83.1640455
826,Superior Drive,48084,42.5735023,-83.1644027
3837,Finch Drive,48084,42.5742927,-83.1641120
1820,East Big Beaver Road,48083,42.5621011,-83.1116852
400,Stephenson Highway,48083,42.5374848,-83.1188646
41167,Dequindre Road,48085,42.5942014,-83.0905870
2835,West Maple Road,48084,42.5469670,-83.1835890
2855,West Maple Road,48084,42.5470763,-83.1840941
1670,Axtell Road,48084,42.5492140,-83.1822432
151,East Big Beaver Road,48083,42.5629926,-83.1447324
1850,West Maple Road,48084,42.5486695,-83.1738131
995,Coolidge Highway,48084,42.5387408,-83.1872800
1050,Wilshire Drive,48084,42.5646425,-83.1702230
2240,Cunningham Drive,48084,42.5650751,-83.1919023
3842,Edgemont Drive,48084,42.5740332,-83.1824017
3810,Edgemont Drive,48084,42.5735488,-83.1825680
1111,West Long Lake Road,48098,42.5904799,-83.1714575
2025,West Long Lake Road,48009,42.5896546,-83.1889404
4935,Park Manor Drive,48098,42.5895453,-83.1999602
4927,Park Manor Drive,48098,42.5893223,-83.1999503
4919,Park Manor Drive,48098,42.5891011,-83.1999429
4928,Park Manor Drive,48098,42.5893164,-83.1994577
4958,Park Manor Drive,48098,42.5895792,-83.1991712
4959,Park Manor Drive,48098,42.5899323,-83.1992276
4951,Park Manor Drive,48098,42.5899256,-83.1995236
3838,Livernois Road,48083,42.5741249,-83.1448645
3500,John R Road,48083,42.5715180,-83.1060603
3301,John R Rd,48083,42.5683359,-83.1093451
231,Crossroads Lane,48038,42.5457791,-83.1416478
193,Crossroads Lane,48038,42.5458660,-83.1425143
155,Crossroads Lane,48038,42.5458522,-83.1434584
175,Crossroads Lane,48038,42.5451586,-83.1428414
154,Crossroads Lane,48038,42.5451408,-83.1434235
132,Crossroads Lane,48038,42.5451290,-83.1439077
110,Crossroads Lane,48038,42.5451241,-83.1445178
4943,Park Manor Drive,48098,42.5897980,-83.1999110
4966,Park Manor Drive,48098,42.5895778,-83.1988539
4896,Park Manor Drive,48098,42.5890701,-83.1994397
4888,Park Manor Drive,48098,42.5890798,-83.1991705
4880,Park Manor Drive,48098,42.5891132,-83.1988564
4911,Park Manor Drive,48098,42.5888525,-83.1998892
4903,Park Manor Drive,48098,42.5887053,-83.1995790
4895,Park Manor Drive,48098,42.5887148,-83.1992937
4887,Park Manor Drive,48098,42.5887168,-83.1989949
4879,Park Manor Drive,48098,42.5887263,-83.1986818
4871,Park Manor Drive,48098,42.5887319,-83.1983822
3955,West Big Beaver Road,48084,42.5598403,-83.2052733
3633,West Big Beaver Road,48084,42.5596237,-83.1996960
3325,West South Boulevard,48098,42.6199219,-83.1968363
5901,Coolidge Highway,48098,42.6038564,-83.1896776
205,West Square Lake Road,48098,42.6051250,-83.1535854
280,East Square Lake Road,48085,42.6058014,-83.1453771
5475,Livernois Road,48098,42.5981267,-83.1507941
3458,Pasadena Drive,48083,42.5694876,-83.0986970
4050,Coolidge Highway,48084,42.5772611,-83.1864940
3333,Coolidge Highway,48084,42.5661717,-83.1879510
3603,Livernois Road,48083,42.5712680,-83.1488755
3615,Livernois Road,48083,42.5713986,-83.1520731
3668,Livernois Road,48083,42.5723105,-83.1461354
3668,Livernois Road,48083,42.5706012,-83.1460316
2200,Castleton Drive,48083,42.5557776,-83.0933341
2601,John R Road,48083,42.5593557,-83.1097902
3690,Crooks Road,48084,42.5760505,-83.1675171
4016,Coolidge Highway,48098,42.5766383,-83.1871187
4300,Brandywyne Drive,48098,42.5795839,-83.1920965
4296,Sugargrove Court,48098,42.5793809,-83.1920866
4282,Sugargrove Court,48098,42.5791032,-83.1920707
4268,Sugargrove Court,48098,42.5788287,-83.1920159
4252,Sugargrove Court,48098,42.5785403,-83.1920003
4230,Sugargrove Court,48098,42.5781989,-83.1919090
4204,Sugargrove Court,48098,42.5779338,-83.1920238
4203,Sugargrove Court,48098,42.5778716,-83.1924245
4221,Sugargrove Court,48098,42.5779962,-83.1927717
4239,Sugargrove Court,48098,42.5783569,-83.1927436
4257,Sugargrove Court,48098,42.5786001,-83.1927358
4275,Sugargrove Court,48098,42.5788833,-83.1927620
4293,Sugargrove Court,48098,42.5792057,-83.1927812
4306,Brandywyne Drive,48098,42.5799135,-83.1919656
4007,Brandywyne Drive,48098,42.5764522,-83.1939731
4025,Brandywyne Drive,48098,42.5766982,-83.1939814
4043,Brandywyne Drive,48098,42.5769821,-83.1940225
4061,Brandywyne Drive,48098,42.5772487,-83.1939749
4101,Brandywyne Drive,48098,42.5775225,-83.1940159
4119,Brandywyne Drive,48098,42.5778046,-83.1940174
4137,Brandywyne Drive,48098,42.5780770,-83.1940446
4155,Brandywyne Drive,48098,42.5783793,-83.1940115
4173,Brandywyne Drive,48098,42.5786255,-83.1940881
4191,Brandywyne Drive,48098,42.5789385,-83.1940527
4207,Brandywyne Drive,48098,42.5791683,-83.1940708
4031,Coolidge Highway,48098,42.5768321,-83.1880407
1401,Frostwood Court,48098,42.5782018,-83.1912441
4217,Frostwood Court,48098,42.5784426,-83.1913670
4243,Frostwood Court,48098,42.5787034,-83.1914057
4259,Frostwood Court,48098,42.5790241,-83.1914108
4275,Frostwood Court,48098,42.5793269,-83.1914511
4291,Frostwood Court,48098,42.5795747,-83.1913879
4298,Frostwood Court,48098,42.5797210,-83.1910290
4290,Frostwood Court,48098,42.5796250,-83.1906567
4276,Frostwood Court,48098,42.5792957,-83.1905693
4260,Frostwood Court,48098,42.5790744,-83.1906778
4242,Frostwood Court,48098,42.5787902,-83.1906854
4210,Frostwood Court,48098,42.5785165,-83.1906419
4437,Cherrywood Drive,48098,42.5814124,-83.1905439
4395,Stonehenge Court,48098,42.5816510,-83.1911940
4381,Stonehenge Court,48098,42.5813408,-83.1913095
4367,Stonehenge Court,48098,42.5810626,-83.1912704
4252,Stonehenge Court,48098,42.5807948,-83.1912508
4329,Stonehenge Court,48098,42.5805230,-83.1912854
4315,Stonehenge Court,48098,42.5802186,-83.1913187
4301,Stonehenge Court,48098,42.5800327,-83.1910376
4302,Stonehenge Court,48098,42.5800251,-83.1905730
4314,Stonehenge Court,48098,42.5802472,-83.1903212
4326,Stonehenge Court,48098,42.5805570,-83.1902916
4350,Stonehenge Court,48098,42.5807987,-83.1905212
4364,Stonehenge Court,48098,42.5810590,-83.1905705
4020,Chatfield Lane,48098,42.5765963,-83.1890949
4034,Chatfield Lane,48098,42.5767950,-83.1891525
4048,Chatfield Lane,48098,42.5769808,-83.1892074
4019,Chatfield Lane,48098,42.5765825,-83.1897233
4033,Chatfield Lane,48098,42.5767730,-83.1897777
4047,Chatfield Lane,48098,42.5769599,-83.1897862
4062,Chatfield Lane,48098,42.5771803,-83.1892093
4061,Chatfield Lane,48098,42.5771643,-83.1897970
4075,Chatfield Lane,48098,42.5773615,-83.1898057
4089,Chatfield Lane,48098,42.5775702,-83.1898076
4103,Chatfield Lane,48098,42.5777768,-83.1896479
4117,Chatfield Lane,48098,42.5778078,-83.1893321
4131,Chatfield Lane,48098,42.5778139,-83.1890664
4145,Chatfield Lane,48098,42.5778177,-83.1888067
4159,Chatfield Lane,48098,42.5778003,-83.1885097
4173,Chatfield Lane,48098,42.5776567,-83.1882453
4188,Chatfield Lane,48098,42.5774393,-83.1881879
4174,Chatfield Lane,48098,42.5772111,-83.1882380
4160,Chatfield Lane,48098,42.5770475,-83.1884795
4173,Chatfield Lane,48098,42.5770141,-83.1888192
4137,Coolidge Highway,48098,42.5781858,-83.1885072
4155,Coolidge Highway,48098,42.5784523,-83.1885512
4173,Coolidge Highway,48098,42.5786983,-83.1885855
4191,Coolidge Highway,48098,42.5789759,-83.1885486
4215,Coolidge Highway,48098,42.5793233,-83.1884330
4235,Coolidge Highway,48098,42.5796736,-83.1884687
4490,Brandywyne Drive,48098,42.5817256,-83.1916173
4414,Brandywyne Drive,48098,42.5815908,-83.1918850
4394,Brandywyne Drive,48098,42.5812944,-83.1919460
4376,Brandywyne Drive,48098,42.5810171,-83.1918883
4358,Brandywyne Drive,48098,42.5807475,-83.1918863
4340,Brandywyne Drive,48098,42.5804497,-83.1919113
4322,Brandywyne Drive,48098,42.5801311,-83.1918561
4324,Brandywyne Drive,48098,42.5790869,-83.1932598
4188,Brandywyne Drive,48098,42.5788542,-83.1933626
4170,Brandywyne Drive,48098,42.5785346,-83.1933766
4152,Brandywyne Drive,48098,42.5783014,-83.1933312
4134,Brandywyne Drive,48098,42.5780186,-83.1933512
4110,Brandywyne Drive,48098,42.5777371,-83.1933005
4101,Cherrywood Drive,48098,42.5774512,-83.1930181
4115,Cherrywood Drive,48098,42.5774670,-83.1927070
4121,Cherrywood Drive,48098,42.5774770,-83.1923265
4129,Cherrywood Drive,48098,42.5774881,-83.1919678
4137,Cherrywood Drive,48098,42.5775055,-83.1915898
4169,Cherrywood Drive,48098,42.5776198,-83.1912168
4185,Cherrywood Drive,48098,42.5778835,-83.1911203
60,West Wattles Road,48098,42.5779167,-83.1496934
4009,Livernois Road,48098,42.5775918,-83.1488149
2869,Troy Center Drive,48084,42.5595564,-83.1636040
2701,Troy Center Drive,48084,42.5588330,-83.1638636
2550,Troy Center Drive,48084,42.5573857,-83.1602464
1080,Kirts Boulevard,48084,42.5574925,-83.1623281
1500,West Big Beaver Road,48084,42.5627489,-83.1693069
1740,West Big Beaver Road,48084,42.5621892,-83.1723996
1700,West Big Beaver Road,48084,42.5621982,-83.1717248
1800,West Big Beaver Road,48084,42.5622506,-83.1730725
1900,West Big Beaver Road,48084,42.5622111,-83.1740544
2050,West Big Beaver Road,48084,42.5620146,-83.1755524
1035,Wilshire Drive,48084,42.5637896,-83.1695634
3305,Crooks Road,48084,42.5658398,-83.1681479
3215,West Big Beaver Road,48084,42.5605712,-83.1913033
4217,Brandywyne Drive,48098,42.5795051,-83.1942102
4235,Brandywyne Drive,48098,42.5797843,-83.1940506
4253,Brandywyne Drive,48098,42.5797809,-83.1935558
4271,Brandywyne Drive,48098,42.5796900,-83.1932481
4289,Brandywyne Drive,48098,42.5797647,-83.1928485
4309,Brandywyne Drive,48098,42.5800266,-83.1926312
4235,Brandywyne Drive,48098,42.5802985,-83.1926028
4343,Brandywyne Drive,48098,42.5805766,-83.1925780
4361,Brandywyne Drive,48098,42.5808481,-83.1925911
4379,Brandywyne Drive,48098,42.5811649,-83.1926021
4397,Brandywyne Drive,48098,42.5813950,-83.1926534
4415,Brandywyne Drive,48098,42.5816669,-83.1926027
4433,Brandywyne Drive,48098,42.5819515,-83.1927417
4451,Brandywyne Drive,48098,42.5822439,-83.1925817
4469,Brandywyne Drive,48098,42.5822979,-83.1921831
4487,Brandywyne Drive,48098,42.5822332,-83.1917720
4474,Cherrywood Drive,48098,42.5822180,-83.1911602
4456,Cherrywood Drive,48098,42.5821369,-83.1908102
4438,Cherrywood Drive,48098,42.5819672,-83.1905158
4420,Cherrywood Drive,48098,42.5818093,-83.1901278
4402,Cherrywood Drive,48098,42.5816959,-83.1896378
2038,Briargrove Lane,48098,42.5817953,-83.1893524
2024,Briargrove Lane,48098,42.5818773,-83.1889644
4405,Coolidge Highway,48098,42.5819307,-83.1883475
2003,Briargrove Lane,48098,42.5813983,-83.1883634
2021,Briargrove Lane,48098,42.5813713,-83.1886937
4382,Cherrywood Drive,48098,42.5811866,-83.1891117
4419,Cherrywood Drive,48098,42.5812929,-83.1902213
4377,Cherrywood Drive,48098,42.5811069,-83.1898872
4307,Coolidge Highway,48098,42.5799789,-83.1882253
4325,Coolidge Highway,48098,42.5802488,-83.1882540
4343,Coolidge Highway,48098,42.5805187,-83.1882524
4361,Coolidge Highway,48098,42.5807899,-83.1882888
4379,Coolidge Highway,48098,42.5811098,-83.1883059
2278,West Wattles Road,48098,42.5764597,-83.1931725
2260,West Wattles Road,48098,42.5764586,-83.1928796
2242,West Wattles Road,48098,42.5764723,-83.1925146
2224,West Wattles Road,48098,42.5764793,-83.1921392
2206,West Wattles Road,48098,42.5764891,-83.1917706
2188,West Wattles Road,48098,42.5765213,-83.1913661
2134,West Wattles Road,48098,42.5765215,-83.1902679
2152,West Wattles Road,48098,42.5765364,-83.1906105
2170,West Wattles Road,48098,42.5765128,-83.1909935
4368,Cherrywood Drive,48098,42.5809791,-83.1889598
4354,Cherrywood Drive,48098,42.5806487,-83.1888963
4340,Cherrywood Drive,48098,42.5804186,-83.1888761
4326,Cherrywood Drive,48098,42.5801288,-83.1889470
4312,Cherrywood Drive,48098,42.5797978,-83.1892431
4298,Cherrywood Drive,48098,42.5795624,-83.1892982
4284,Cherrywood Drive,48098,42.5792679,-83.1893002
4274,Cherrywood Drive,48098,42.5790131,-83.1892516
4256,Cherrywood Drive,48098,42.5787240,-83.1892598
4242,Cherrywood Drive,48098,42.5784522,-83.1891942
4228,Cherrywood Drive,48098,42.5782108,-83.1895308
4214,Cherrywood Drive,48098,42.5782113,-83.1898661
4200,Cherrywood Drive,48098,42.5780595,-83.1903080
5051,Coolidge Highway,48098,42.5909390,-83.1887455
4182,Cherrywood Drive,48098,42.5777924,-83.1904169
4174,Cherrywood Drive,48098,42.5774909,-83.1903618
4166,Cherrywood Drive,48098,42.5771969,-83.1903461
4158,Cherrywood Drive,48098,42.5769525,-83.1905597
4150,Cherrywood Drive,48098,42.5769180,-83.1910520
4142,Cherrywood Drive,48098,42.5769759,-83.1914292
4134,Cherrywood Drive,48098,42.5769587,-83.1917140
4126,Cherrywood Drive,48098,42.5769801,-83.1920939
4118,Cherrywood Drive,48098,42.5769528,-83.1924555
4110,Cherrywood Drive,48098,42.5769306,-83.1928357
4102,Cherrywood Drive,48098,42.5769326,-83.1931804
4377,Cherrywood Drive,48098,42.5808417,-83.1896846
4351,Cherrywood Drive,48098,42.5805761,-83.1895960
4333,Cherrywood Drive,48098,42.5802653,-83.1896121
4311,Cherrywood Drive,48098,42.5800263,-83.1898458
4303,Cherrywood Drive,48098,42.5797656,-83.1899830
4295,Cherrywood Drive,48098,42.5794599,-83.1900163
4283,Cherrywood Drive,48098,42.5791934,-83.1899680
4261,Cherrywood Drive,48098,42.5789171,-83.1899912
4215,Cherrywood Drive,48098,42.5786654,-83.1902051
3965,Westcreek Drive,48084,42.5757477,-83.1664269
1575,East Maple Road,48083,42.5495057,-83.1180212
570,Kirts Boulevard,48084,42.5574963,-83.1558115
70,West Maple,48084,42.5488042,-83.1482910
4010,Beach Road,48098,42.5765012,-83.1966962
4090,Beach Road,48098,42.5770459,-83.1966407
4100,Beach Road,48098,42.5772951,-83.1968571
4120,Beach Road,48098,42.5776540,-83.1968048
4140,Beach Road,48098,42.5779823,-83.1968684
4160,Ravenwood Court,48098,42.5783464,-83.1970344
4172,Ravenwood Court,48098,42.5783388,-83.1966181
4221,Ravenwood Court,48098,42.5794532,-83.1970924
4209,Ravenwood Court,48098,42.5791737,-83.1970380
4197,Ravenwood Court,48098,42.5789066,-83.1970451
4184,Ravenwood Court,48098,42.5785289,-83.1962457
4196,Ravenwood Court,48098,42.5788584,-83.1962354
4208,Ravenwood Court,48098,42.5791449,-83.1962591
4220,Ravenwood Court,48098,42.5794085,-83.1962842
4232,Ravenwood Court,48098,42.5796934,-83.1962821
4254,Beach Road,48098,42.5801316,-83.1964481
4256,Beach Road,48098,42.5801781,-83.1971214
4298,Beach Road,48098,42.5804674,-83.1969571
4342,Beach Road,48098,42.5807930,-83.1964637
2395,Kingsbury Drive,48098,42.5817705,-83.1947644
2325,Kingsbury Drive,48098,42.5823490,-83.1937910
2345,Prestwick Drive,48098,42.5801591,-83.1944662
2337,Prestwick Drive,48098,42.5802203,-83.1940163
2329,Prestwick Drive,48098,42.5802025,-83.1936240
2321,Prestwick Drive,48098,42.5803730,-83.1932714
2336,Prestwick Drive,48098,42.5807316,-83.1940427
2344,Prestwick Drive,48098,42.5806940,-83.1944555
4280,Wentworth Drive,48098,42.5809201,-83.1948930
4296,Wentworth Drive,48098,42.5812299,-83.1950298
4269,Wentworth Drive,48098,42.5807679,-83.1957719
4213,Wentworth Drive,48098,42.5796948,-83.1956633
4197,Wentworth Drive,48098,42.5794444,-83.1956093
4196,Wentworth Drive,48098,42.5794032,-83.1948480
4164,Wentworth Drive,48098,42.5788986,-83.1947502
4117,Wentworth Drive,48098,42.5782365,-83.1955243
4085,Wentworth Drive,48098,42.5776916,-83.1955575
4005,Wentworth Drive,48098,42.5764378,-83.1953817
4004,Wentworth Drive,48098,42.5764260,-83.1946161
4021,Wentworth Drive,48098,42.5766826,-83.1953626
4052,Wentworth Drive,48098,42.5771974,-83.1947935
4133,Wentworth Drive,48098,42.5784876,-83.1954625
4181,Wentworth Drive,48098,42.5792024,-83.1954953
4285,Wentworth Drive,48098,42.5810692,-83.1957434
4264,Wentworth Drive,48098,42.5806647,-83.1950506
2296,Prestwick Drive,48098,42.5811301,-83.1940117
2288,Prestwick Drive,48098,42.5813702,-83.1940520
4165,Wentworth Drive,48098,42.5789654,-83.1954383
4149,Wentworth Drive,48098,42.5787193,-83.1954110
4116,Wentworth Drive,48098,42.5781484,-83.1948754
4100,Wentworth Drive,48098,42.5779137,-83.1948869
4084,Wentworth Drive,48098,42.5776819,-83.1948807
4068,Wentworth Drive,48098,42.5774449,-83.1948339
4037,Wentworth Drive,48098,42.5769135,-83.1954228
4069,Wentworth Drive,48098,42.5774140,-83.1955345
4212,Wentworth Drive,48098,42.5796370,-83.1949376
4228,Wentworth Drive,48098,42.5798848,-83.1949925
4301,Wentworth Drive,48098,42.5812458,-83.1954202
4257,Wentworth Drive,48098,42.5804959,-83.1956830
4245,Wentworth Drive,48098,42.5802453,-83.1956718
4020,Wentworth Drive,48098,42.5767020,-83.1946055
4036,Wentworth Drive,48098,42.5769671,-83.1946579
4053,Wentworth Drive,48098,42.5771590,-83.1955057
4101,Wentworth Drive,48098,42.5779750,-83.1955780
4132,Wentworth Drive,48098,42.5784117,-83.1947558
4148,Wentworth Drive,48098,42.5786476,-83.1947636
4180,Wentworth Drive,48098,42.5791518,-83.1947669
4244,Wentworth Drive,48098,42.5801112,-83.1950150
2313,Prestwick Drive,48098,42.5806562,-83.1932667
2305,Prestwick Drive,48098,42.5809140,-83.1933313
2297,Prestwick Drive,48098,42.5811652,-83.1933229
2289,Prestwick Drive,48098,42.5814043,-83.1933662
2281,Prestwick Drive,48098,42.5816830,-83.1933159
2273,Prestwick Drive,48098,42.5819188,-83.1934124
2272,Prestwick Drive,48098,42.5819137,-83.1942140
2280,Prestwick Drive,48098,42.5816655,-83.1942140
4386,Beach Road,48098,42.5815755,-83.1973153
4408,Beach Road,48098,42.5817957,-83.1973204
2477,Kingsbury Drive,48098,42.5818419,-83.1968122
2461,Kingsbury Drive,48098,42.5819995,-83.1964881
2445,Kingsbury Drive,48098,42.5821682,-83.1961643
2358,Kingsbury Drive,48098,42.5828921,-83.1948050
2390,Kingsbury Drive,48098,42.5828815,-83.1955509
2374,Kingsbury Drive,48098,42.5828864,-83.1951783
2408,Kingsbury Drive,48098,42.5828970,-83.1959177
2422,Kingsbury Drive,48098,42.5829468,-83.1962569
2438,Kingsbury Drive,48098,42.5828787,-83.1966267
2454,Kingsbury Drive,48098,42.5825916,-83.1967997
2470,Kingsbury Drive,48098,42.5823276,-83.1970227
2496,Kingsbury Drive,48098,42.5823001,-83.1973344
4466,Beach Road,48098,42.5826644,-83.1973695
4488,Beach Road,48098,42.5829496,-83.1973819
2626,West Wattles Road,48098,42.5763442,-83.1992115
4025,Beach Road,48098,42.5763412,-83.1981973
4065,Beach Road,48098,42.5768144,-83.1980679
4105,Beach Road,48098,42.5772669,-83.1980114
4153,Beach Road,48098,42.5780284,-83.1980851
4177,Beach Road,48098,42.5784030,-83.1978867
2555,Amherst Court,48098,42.5784068,-83.1984773
2556,Amherst Court,48098,42.5788807,-83.1987708
4201,Beach Road,48098,42.5789029,-83.1979083
4219,Beach Road,48098,42.5791724,-83.1983613
4235,Beach Road,48098,42.5796264,-83.1984279
4255,Beach Road,48098,42.5805549,-83.1986145
2015,Sundew Drive,48098,42.5822794,-83.1887565
2009,Sundew Drive,48098,42.5822738,-83.1884220
2021,Sundew Drive,48098,42.5823790,-83.1890809
2027,Sundew Drive,48098,42.5823560,-83.1894617
2039,Sundew Drive,48098,42.5823362,-83.1901750
2033,Sundew Drive,48098,42.5822275,-83.1898333
2022,Sundew Drive,48098,42.5829245,-83.1891213
2016,Sundew Drive,48098,42.5829715,-83.1888166
2010,Sundew Drive,48098,42.5829666,-83.1884530
2048,Sundew Drive,48098,42.5828764,-83.1896737
2045,Sundew Drive,48098,42.5826105,-83.1904174
2051,Sundew Drive,48098,42.5828503,-83.1905302
2057,Sundew Drive,48098,42.5830816,-83.1906783
2056,Sundew Drive,48098,42.5830988,-83.1898098
2133,Sundew Drive,48098,42.5835426,-83.1910626
2115,Sundew Drive,48098,42.5835158,-83.1907466
2070,Sundew Drive,48098,42.5836884,-83.1899473
2029,Kingsway Court,48098,42.5836161,-83.1893731
2025,Kingsway Court,48098,42.5834493,-83.1890041
2021,Kingsway Court,48098,42.5836168,-83.1885296
2017,Kingsway Court,48098,42.5839577,-83.1885218
2035,Kingsway Drive,48098,42.5840695,-83.1892869
2053,Kingsway Drive,48098,42.5842475,-83.1896052
2088,Sundew Drive,48098,42.5839807,-83.1901040
2114,Sundew Drive,48098,42.5840545,-83.1905787
2132,Sundew Drive,48098,42.5840859,-83.1909414
2150,Sundew Drive,48098,42.5841276,-83.1912971
4534,Riverchase Drive,48098,42.5835933,-83.1915456
4512,Riverchase Drive,48098,42.5833072,-83.1915519
4498,Riverchase Drive,48098,42.5830794,-83.1913744
4490,Riverchase Drive,48098,42.5828501,-83.1912486
4482,Riverchase Drive,48098,42.5826303,-83.1911051
4485,Riverchase Drive,48098,42.5826129,-83.1919388
4493,Riverchase Drive,48098,42.5828259,-83.1921697
4501,Riverchase Drive,48098,42.5830412,-83.1922456
4513,Riverchase Drive,48098,42.5833444,-83.1923221
4527,Riverchase Drive,48098,42.5835807,-83.1923087
4541,Riverchase Drive,48098,42.5838987,-83.1921191
4555,Riverchase Drive,48098,42.5841330,-83.1920500
4569,Riverchase Drive,48098,42.5844964,-83.1920920
4583,Riverchase Drive,48098,42.5847449,-83.1920794
2151,Kingsway Drive,48098,42.5845299,-83.1913455
2133,Kingsway Drive,48098,42.5845361,-83.1910391
2115,Kingsway Drive,48098,42.5845377,-83.1906554
2097,Kingsway Drive,48098,42.5845410,-83.1902589
2079,Kingsway Drive,48098,42.5844386,-83.1899096
2062,Sundew Drive,48098,42.5833948,-83.1899873
2018,Kingsway Drive,48098,42.5844742,-83.1885434
2036,Kingsway Drive,48098,42.5845442,-83.1888887
1054,Kingsway Drive,48098,42.5847303,-83.1891790
1072,Kingsway Drive,48098,42.5848878,-83.1895432
1090,Kingsway Drive,48098,42.5850365,-83.1898132
4601,Pier Drive,48098,42.5851116,-83.1905820
2144,Kingsway Drive,48098,42.5850199,-83.1911793
4605,Riverchase Drive,48098,42.5851020,-83.1919904
4619,Riverchase Drive,48098,42.5853459,-83.1919376
4633,Riverchase Court,48098,42.5856893,-83.1918975
4727,Riverchase Drive,48098,42.5862867,-83.1915047
4713,Riverchase Court,48098,42.5862721,-83.1919600
4689,Riverchase Court,48098,42.5862448,-83.1923818
4675,Riverchase Court,48098,42.5860222,-83.1927977
4661,Riverchase Court,48098,42.5857664,-83.1928491
4647,Riverchase Court,48098,42.5854894,-83.1924773
4618,Riverchase Drive,48098,42.5853417,-83.1911855
4634,Riverchase Drive,48098,42.5856284,-83.1911547
4625,Pier Drive,48098,42.5853964,-83.1904722
4649,Pier Drive,48098,42.5856226,-83.1903600
4673,Pier Drive,48098,42.5858367,-83.1900778
4697,Pier Drive,48098,42.5860490,-83.1898044
4726,Riverchase Drive,48098,42.5858793,-83.1909582
4740,Riverchase Drive,48098,42.5860653,-83.1906700
4754,Riverchase Drive,48098,42.5862573,-83.1904081
4741,Riverchase Drive,48098,42.5864861,-83.1912308
4755,Riverchase Drive,48098,42.5866745,-83.1909510
4769,Riverchase Drive,48098,42.5868860,-83.1906892
4783,Riverchase Drive,48098,42.5870769,-83.1904169
4797,Riverchase Drive,48098,42.5872769,-83.1901715
4811,Riverchase Drive,48098,42.5875259,-83.1899390
4825,Riverchase Drive,48098,42.5877679,-83.1897923
4839,Riverchase Drive,48098,42.5879977,-83.1896172
4867,Riverchase Drive,48098,42.5883701,-83.1895165
4881,Riverchase Drive,48098,42.5888945,-83.1894851
4882,Riverchase Drive,48098,42.5889587,-83.1890265
4874,Riverchase Drive,48098,42.5886643,-83.1887251
4866,Riverchase Drive,48098,42.5883556,-83.1887428
4852,Riverchase Drive,48098,42.5880654,-83.1888136
2052,Pondway Drive,48098,42.5876801,-83.1889917
2026,Pondway Drive,48098,42.5876205,-83.1886584
2055,Pondway Drive,48098,42.5871895,-83.1893400
2019,Pondway Drive,48098,42.5870711,-83.1886234
2037,Pondway Drive,48098,42.5870992,-83.1890189
4794,Riverchase Drive,48098,42.5869362,-83.1896194
4782,Riverchase Drive,48098,42.5866902,-83.1898962
4768,Riverchase Drive,48098,42.5864836,-83.1901551
4721,Pier Drive,48098,42.5863012,-83.1895926
4745,Pier Drive,48098,42.5865638,-83.1893371
4769,Pier Drive,48098,42.5866368,-83.1889403
4744,Pier Drive,48098,42.5863895,-83.1886189
4720,Pier Drive,48098,42.5860687,-83.1887124
4712,Pier Drive,48098,42.5858623,-83.1890188
4704,Pier Court,48098,42.5856666,-83.1886094
4696,Pier Court,48098,42.5849364,-83.1885721
4688,Pier Court,48098,42.5851201,-83.1889475
4680,Pier Court,48098,42.5853209,-83.1892948
4672,Pier Court,48098,42.5854481,-83.1895241
1886,Brentwood Drive,48098,42.5915789,-83.1854612
1902,Brentwood Drive,48098,42.5912926,-83.1855137
5075,Bayside Drive,48098,42.5918130,-83.1857532
5070,Bayside Drive,48098,42.5920452,-83.1851205
5089,Bayside Drive,48098,42.5920746,-83.1859263
5103,Bayside Drive,48098,42.5923205,-83.1859858
5096,Bayside Drive,48098,42.5922968,-83.1853196
5117,Bayside Drive,48098,42.5925798,-83.1858940
5124,Bayside Drive,48098,42.5925423,-83.1852148
5131,Bayside Drive,48098,42.5928263,-83.1857989
5145,Bayside Drive,48098,42.5930385,-83.1856673
5166,Bayside Drive,48098,42.5931865,-83.1847162
5152,Bayside Drive,48098,42.5929728,-83.1848581
5138,Bayside Drive,48098,42.5927486,-83.1850594
3805,Old Creek Road,48084,42.5729856,-83.1606656
926,West Wattles Road,48098,42.5771206,-83.1663665
2323,Rivers Edge Drive,48098,42.5834361,-83.1956929
2324,Rivers Edge Drive,48098,42.5833429,-83.1953709
3751,Finch Drive,48084,42.5729668,-83.1640486
827,Superior Drive,48084,42.5729493,-83.1644172
845,Superior Drive,48084,42.5728697,-83.1647059
863,Superior Drive,48084,42.5728452,-83.1651203
3772,Huron Drive,48084,42.5729982,-83.1653777
3788,Huron Drive,48084,42.5732713,-83.1654486
844,Superior Drive,48084,42.5734629,-83.1647263
3819,Huron Drive,48084,42.5738136,-83.1647511
3827,Huron Drive,48084,42.5740824,-83.1647473
3835,Huron Drive,48084,42.5743263,-83.1647263
3852,Huron Drive,48084,42.5745462,-83.1652113
3836,Huron Drive,48084,42.5744126,-83.1655780
3853,Finch Drive,48084,42.5745857,-83.1644632
3848,Finch Drive,48084,42.5746476,-83.1631694
3866,Finch Drive,48084,42.5751103,-83.1633931
3867,Finch Drive,48084,42.5750469,-83.1640685
3893,Finch Drive,48084,42.5753930,-83.1640709
3916,Finch Drive,48084,42.5758876,-83.1633115
3911,Finch Drive,48084,42.5757411,-83.1640951
3929,Finch Drive,48084,42.5761372,-83.1641113
3892,Finch Drive,48084,42.5754329,-83.1633399
811,West Wattles Road,48098,42.5764352,-83.1645468
855,West Wattles Road,48098,42.5765122,-83.1655596
850,Barilaine Drive,48084,42.5749607,-83.1652558
968,Cricket Cove Drive,48084,42.5732824,-83.1671674
950,Cricket Cove Drive,48084,42.5732915,-83.1668012
932,Cricket Cove Drive,48084,42.5733043,-83.1664969
914,Cricket Cove Drive,48084,42.5733095,-83.1660094
915,Cricket Cove Drive,48084,42.5728130,-83.1659535
933,Cricket Cove Drive,48084,42.5727907,-83.1664406
951,Cricket Cove Drive,48084,42.5727835,-83.1667791
969,Cricket Cove Drive,48084,42.5727679,-83.1671564
3941,Crooks Road,48084,42.5758701,-83.1682529
3991,Crooks Road,48084,42.5765335,-83.1682851
3820,Huron Drive,48084,42.5738852,-83.1654812
3109,Alpine Road,48084,42.5632167,-83.1763971
3129,Alpine Road,48084,42.5636087,-83.1763945
3147,Alpine Road,48084,42.5638767,-83.1764792
3165,Alpine Road,48084,42.5642226,-83.1764522
3185,Alpine Road,48084,42.5645446,-83.1764762
3205,Alpine Road,48084,42.5648606,-83.1764510
3225,Alpine Road,48084,42.5651988,-83.1764791
3243,Alpine Road,48084,42.5655565,-83.1765299
3257,Alpine Road,48084,42.5658263,-83.1765795
3353,Alpine Road,48084,42.5661507,-83.1765848
3373,Alpine Road,48084,42.5664733,-83.1766290
3393,Alpine Road,48084,42.5668937,-83.1765487
3423,Alpine Road,48084,42.5672560,-83.1766069
3437,Alpine Road,48084,42.5677089,-83.1767276
3453,Alpine Road,48084,42.5679921,-83.1766554
3477,Alpine Road,48084,42.5687099,-83.1766033
3086,McClure Drive,48084,42.5630258,-83.1730413
3114,McClure Drive,48084,42.5633235,-83.1730874
3162,McClure Drive,48084,42.5639977,-83.1730683
3182,McClure Drive,48084,42.5643306,-83.1731156
3204,McClure Drive,48084,42.5646636,-83.1731027
3226,McClure Drive,48084,42.5650407,-83.1731233
3300,McClure Drive,48084,42.5655453,-83.1731262
3322,McClure Drive,48084,42.5659281,-83.1732112
1885,Banmoor Drive,48084,42.5659242,-83.1728629
1734,Banmoor Drive,48084,42.5664526,-83.1732765
1720,Banmoor Drive,48084,42.5664559,-83.1727857
1710,Banmoor Drive,48084,42.5666595,-83.1724514
1692,Banmoor Drive,48084,42.5664922,-83.1719144
1680,Banmoor Drive,48084,42.5665667,-83.1714152
1576,Banmoor Drive,48084,42.5665342,-83.1710463
1556,Banmoor Drive,48084,42.5665868,-83.1705769
1506,Banmoor Drive,48084,42.5665595,-83.1697358
1478,Banmoor Drive,48084,42.5665885,-83.1693272
1454,Banmoor Drive,48084,42.5665887,-83.1688150
3365,Crooks Road,48084,42.5665465,-83.1679351
3379,Crooks Road,48084,42.5668115,-83.1679019
1725,Banmoor Drive,48084,42.5659143,-83.1723449
1705,Banmoor Drive,48084,42.5658858,-83.1718281
1681,Banmoor Drive,48084,42.5659049,-83.1714869
1575,Banmoor Drive,48084,42.5658897,-83.1710193
1563,Banmoor Drive,48084,42.5658858,-83.1705499
1535,Banmoor Drive,48084,42.5659181,-83.1701633
1507,Banmoor Drive,48084,42.5658871,-83.1696706
1491,Banmoor Drive,48084,42.5659072,-83.1692039
1455,Banmoor Drive,48084,42.5658945,-83.1687694
3163,McClure Drive,48084,42.5639609,-83.1739944
3183,McClure Drive,48084,42.5642440,-83.1739143
3201,McClure Drive,48084,42.5644860,-83.1739304
3205,McClure Drive,48084,42.5647338,-83.1739398
3227,McClure Drive,48084,42.5650017,-83.1739704
3229,McClure Drive,48084,42.5652953,-83.1740439
3317,McClure Drive,48084,42.5656687,-83.1740399
3381,McClure Drive,48084,42.5662652,-83.1741311
3425,McClure Drive,48084,42.5665946,-83.1742281
3463,McClure Drive,48084,42.5669044,-83.1741071
3481,McClure Drive,48084,42.5672962,-83.1740304
1915,Muer Drive,48084,42.5677202,-83.1740986
1927,Muer Drive,48084,42.5676337,-83.1744888
1937,Muer Drive,48084,42.5674196,-83.1749546
1965,Muer Drive,48084,42.5676308,-83.1753921
1975,Muer Drive,48084,42.5676871,-83.1757935
3424,Alpine Road,48084,42.5672706,-83.1758391
3396,Alpine Road,48084,42.5669276,-83.1757020
3376,Alpine Road,48084,42.5665637,-83.1756367
3356,Alpine Road,48084,42.5662155,-83.1756844
3268,Alpine Road,48084,42.5659040,-83.1756663
3244,Alpine Road,48084,42.5655906,-83.1756213
3224,Alpine Road,48084,42.5652217,-83.1755639
3204,Alpine Road,48084,42.5648987,-83.1755910
3184,Alpine Road,48084,42.5645720,-83.1755807
3164,Alpine Road,48084,42.5642328,-83.1755740
1920,West Wattles Road,48098,42.5766544,-83.1858374
1900,West Wattles Road,48098,42.5766397,-83.1852275
1880,West Wattles Road,48098,42.5767037,-83.1846425
1070,West Wattles Road,48098,42.5771469,-83.1695590
1285,West Wattles Road,48084,42.5760966,-83.1736268
1265,West Wattles Road,48084,42.5761195,-83.1730177
1247,West Wattles Road,48084,42.5761123,-83.1724038
1177,West Wattles Road,48084,42.5762354,-83.1714822
1145,West Wattles Road,48084,42.5763087,-83.1709622
3905,Crooks Road,48084,42.5752023,-83.1682678
4800,Beach Road,48098,42.5875202,-83.1973861
4751,Beach Road,48098,42.5867837,-83.1987484
4802,Valley Vista Lane,48098,42.5868170,-83.2006307
2681,West Long Lake Road,48098,42.5898912,-83.2007338
4930,Big Oak Trail,48098,42.5892618,-83.2005237
4929,Big Oak Trail,48098,42.5888715,-83.2011191
4955,Big Oak Trail,48098,42.5895371,-83.2019203
4901,Big Oak Trail,48098,42.5880482,-83.2004755
4855,Beach Road,48098,42.5882905,-83.1989992
2532,Beachview Court,48098,42.5877834,-83.1988601
2544,Beachview Court,48098,42.5878090,-83.1992932
2520,Beachview Court,48098,42.5877893,-83.1984135
2533,Beachview Court,48098,42.5872481,-83.1988106
2545,Beachview Court,48098,42.5872077,-83.1992492
2557,Beachview Court,48098,42.5874532,-83.1999143
2955,Quail Run Drive,48098,42.5862751,-83.2065651
4219,Crooks Road,48098,42.5800122,-83.1689111
4205,Crooks Road,48098,42.5797070,-83.1688975
4179,Crooks Road,48098,42.5794477,-83.1689602
4165,Crooks Road,48098,42.5791914,-83.1685598
4115,Crooks Road,48098,42.5787622,-83.1688046
4095,Crooks Road,48098,42.5782132,-83.1687214
295,Kirts Boulevard,48084,42.5555744,-83.1520746
2600,Livernois Road,48083,42.5582089,-83.1458089
1466,Muer Drive,48084,42.5683262,-83.1685387
3463,Crooks Road,48084,42.5683826,-83.1680542
3475,Crooks Road,48084,42.5686322,-83.1680126
1516,Muer Drive,48084,42.5683664,-83.1688401
1564,Muer Drive,48084,42.5683863,-83.1707444
1558,Muer Drive,48084,42.5684061,-83.1703180
1526,Muer Drive,48084,42.5683705,-83.1693980
1540,Muer Drive,48084,42.5683735,-83.1698526
1580,Muer Drive,48084,42.5682830,-83.1711223
1612,Muer Drive,48084,42.5683798,-83.1716287
1650,Muer Drive,48084,42.5683755,-83.1720816
1708,Muer Drive,48084,42.5683779,-83.1724978
1732,Muer Drive,48084,42.5684706,-83.1728935
1754,Muer Drive,48084,42.5683251,-83.1733613
1900,Muer Drive,48084,42.5683391,-83.1737628
1918,Muer Drive,48084,42.5684308,-83.1742272
3470,Alpine Road,48084,42.5686843,-83.1758895
1984,Muer Drive,48084,42.5683083,-83.1757703
1940,Muer Drive,48084,42.5683956,-83.1747610
1673,Muer Drive,48084,42.5676745,-83.1719779
1711,Muer Drive,48084,42.5676438,-83.1724015
1755,Muer Drive,48084,42.5676859,-83.1733861
1731,Muer Drive,48084,42.5676213,-83.1728472
1538,Banmoor Drive,48084,42.5665882,-83.1701575
1605,Muer Drive,48084,42.5676977,-83.1715737
1581,Muer Drive,48084,42.5676838,-83.1710963
1565,Muer Drive,48084,42.5675637,-83.1706362
1535,Muer Drive,48084,42.5676846,-83.1697877
1555,Muer Drive,48084,42.5676852,-83.1702532
3397,Crooks Road,48084,42.5671430,-83.1682622
1465,Muer Drive,48084,42.5677876,-83.1684403
1515,Muer Drive,48084,42.5677067,-83.1693773
3431,Crooks Road,48084,42.5677994,-83.1679721
3415,Crooks Road,48084,42.5674415,-83.1682782
848,Norwich Drive,48084,42.5556149,-83.2026826
838,Norwich Drive,48084,42.5555118,-83.2024947
828,Norwich Drive,48084,42.5554051,-83.2023511
818,Norwich Drive,48084,42.5553053,-83.2021865
845,Norwich Drive,48084,42.5551949,-83.2030788
835,Norwich Drive,48084,42.5550843,-83.2029170
3861,West Big Beaver Road,48084,42.5602976,-83.2037154
2215,Brooklawn Road,48084,42.5595987,-83.2036384
2263,Brooklawn Road,48084,42.5598156,-83.2036035
2067,Brooklawn Road,48084,42.5593766,-83.2036539
2511,Brooklawn Road,48084,42.5600351,-83.2035857
3856,Roseglen Lane,48084,42.5593435,-83.2040564
3912,Roseglen Lane,48084,42.5593042,-83.2049478
3898,Roseglen Lane,48084,42.5593098,-83.2046499
3870,Roseglen Lane,48084,42.5593210,-83.2043574
3926,Roseglen Lane,48084,42.5592870,-83.2052367
3940,Roseglen Lane,48084,42.5592767,-83.2055471
1725,Brooklawn Road,48084,42.5588827,-83.2036067
3841,Roseglen Court,48084,42.5588614,-83.2041324
3855,Roseglen Court,48084,42.5586373,-83.2041073
3869,Roseglen Court,48084,42.5584016,-83.2040865
1577,Brooklawn Road,48084,42.5586384,-83.2035624
1429,Brooklawn Road,48084,42.5584204,-83.2034908
1281,Brooklawn Road,48084,42.5582156,-83.2034346
3883,Roseglen Court,48084,42.5582364,-83.2043163
2730,Amberly Lane,48084,42.5577429,-83.2045141
2744,Amberly Lane,48084,42.5578620,-83.2047779
3897,Roseglen Court,48084,42.5588430,-83.2047898
2870,Amberly Lane,48084,42.5588053,-83.2052032
2883,Amberly Lane,48084,42.5590884,-83.2058218
2856,Amberly Lane,48084,42.5585782,-83.2052001
2869,Amberly Lane,48084,42.5588448,-83.2058485
2799,Amberly Lane,48084,42.5577051,-83.2058111
2758,Amberly Lane,48084,42.5578320,-83.2051327
2813,Amberly Lane,48084,42.5579140,-83.2057707
2841,Amberly Lane,48084,42.5583502,-83.2058198
2827,Amberly Lane,48084,42.5581309,-83.2057888
2842,Amberly Lane,48084,42.5583689,-83.2051766
2828,Amberly Lane,48084,42.5581488,-83.2051690
2771,Amberly Lane,48084,42.5573136,-83.2055239
2785,Amberly Lane,48084,42.5574816,-83.2057783
2702,Amberly Lane,48084,42.5572598,-83.2045169
2757,Amberly Lane,48084,42.5573435,-83.2051743
2716,Amberly Lane,48084,42.5574690,-83.2045041
2687,Amberly Lane,48084,42.5570352,-83.2052949
2688,Amberly Lane,48084,42.5570467,-83.2044706
2674,Amberly Lane,48084,42.5568076,-83.2045142
2660,Amberly Lane,48084,42.5566730,-83.2048567
961,Nampa Court,48084,42.5574338,-83.1997809
920,Nampa Court,48084,42.5579151,-83.1993338
981,Nampa Court,48084,42.5574969,-83.2000744
941,Nampa Court,48084,42.5574835,-83.1995111
940,Nampa Court,48084,42.5580920,-83.1995630
960,Nampa Court,48084,42.5580934,-83.1998519
980,Nampa Court,48084,42.5580235,-83.2000929
1216,Wrenwood Drive,48084,42.5572462,-83.2005445
1240,Wrenwood Drive,48084,42.5575815,-83.2004919
1228,Wrenwood Drive,48084,42.5574101,-83.2005339
1215,Wrenwood Drive,48084,42.5572297,-83.2012098
1227,Wrenwood Drive,48084,42.5574017,-83.2011897
1251,Wrenwood Drive,48084,42.5577433,-83.2012201
1262,Wrenwood Drive,48084,42.5579316,-83.2004544
1302,Wrenwood Drive,48084,42.5580937,-83.2005070
1239,Wrenwood Drive,48084,42.5575706,-83.2011904
1263,Wrenwood Drive,48084,42.5578969,-83.2011931
1301,Wrenwood Drive,48084,42.5580542,-83.2011804
1328,Wrenwood Drive,48084,42.5584776,-83.2004868
1316,Wrenwood Drive,48084,42.5582729,-83.2004618
1341,Wrenwood Drive,48084,42.5586112,-83.2012118
1315,Wrenwood Drive,48084,42.5582321,-83.2012230
1344,Wrenwood Drive,48084,42.5586809,-83.2004712
1327,Wrenwood Drive,48084,42.5584167,-83.2012614
1360,Wrenwood Drive,48084,42.5588990,-83.2005321
1357,Wrenwood Drive,48084,42.5588278,-83.2012346
1418,Wrenwood Drive,48084,42.5593563,-83.2005822
1410,Wrenwood Drive,48084,42.5591484,-83.2005449
1407,Wrenwood Drive,48084,42.5590530,-83.2012273
1415,Wrenwood Drive,48084,42.5592651,-83.2012393
1451,Wrenwood Drive,48084,42.5597440,-83.2012642
1509,Wrenwood Drive,48084,42.5599908,-83.2012943
1433,Wrenwood Drive,48084,42.5595063,-83.2012554
1452,Wrenwood Drive,48084,42.5597677,-83.2005667
1538,Wrenwood Drive,48084,42.5605038,-83.2006099
1528,Wrenwood Drive,48084,42.5602557,-83.2006200
1527,Wrenwood Drive,48084,42.5602378,-83.2012862
1537,Wrenwood Drive,48084,42.5604881,-83.2013439
3775,Village Court,48084,42.5584559,-83.2017891
3826,Village Court,48084,42.5589105,-83.2029563
3812,Village Court,48084,42.5589228,-83.2026345
3770,Village Court,48084,42.5587577,-83.2017735
3784,Village Court,48084,42.5589132,-83.2020028
3798,Village Court,48084,42.5589302,-83.2023534
3803,Village Court,48084,42.5583307,-83.2024062
1430,Brooklawn Road,48084,42.5584318,-83.2028449
3789,Village Court,48084,42.5583136,-83.2021094
3777,Poppleton Court,48084,42.5595872,-83.2028271
3769,Poppleton Court,48084,42.5593549,-83.2026232
3768,Poppleton Court,48084,42.5593459,-83.2022393
3784,Poppleton Court,48084,42.5597408,-83.2018710
3792,Poppleton Court,48084,42.5599919,-83.2018866
3776,Dorothea Court,48084,42.5594229,-83.2017987
3800,Poppleton Court,48084,42.5603113,-83.2020761
3824,Poppleton Court,48084,42.5603204,-83.2029518
3808,Poppleton Court,48084,42.5603577,-83.2023751
3816,Poppleton Court,48084,42.5603323,-83.2026596
1517,Witherbee Drive,48084,42.5567338,-83.2031268
1565,Witherbee Drive,48084,42.5562337,-83.2019758
1559,Witherbee Drive,48084,42.5563241,-83.2021079
1551,Witherbee Drive,48084,42.5564573,-83.2022769
1527,Witherbee Drive,48084,42.5566915,-83.2028719
1535,Witherbee Drive,48084,42.5566314,-83.2026700
1543,Witherbee Drive,48084,42.5565676,-83.2024813
1625,Witherbee Drive,48084,42.5559962,-83.2011371
1635,Witherbee Drive,48084,42.5559892,-83.2009200
1641,Witherbee Drive,48084,42.5559797,-83.2006987
1581,Witherbee Drive,48084,42.5561034,-83.2017725
1599,Witherbee Drive,48084,42.5560292,-83.2015681
1611,Witherbee Drive,48084,42.5560042,-83.2013422
1659,Witherbee Drive,48084,42.5558815,-83.2002762
1689,Witherbee Drive,48084,42.5556642,-83.1996475
1651,Witherbee Drive,48084,42.5559401,-83.2004753
1679,Witherbee Drive,48084,42.5557660,-83.1998170
1669,Witherbee Drive,48084,42.5558393,-83.2000749
1023,Brooklawn Road,48084,42.5566318,-83.2019337
1017,Brooklawn Road,48084,42.5565436,-83.2017493
1095,Brooklawn Road,48084,42.5574372,-83.2030323
1064,Norwich Drive,48084,42.5572700,-83.2032698
1027,Brooklawn Road,48084,42.5567377,-83.2021010
1039,Brooklawn Road,48084,42.5569944,-83.2024277
1085,Brooklawn Road,48084,42.5573445,-83.2029116
1055,Brooklawn Road,48084,42.5572233,-83.2027387
1051,Brooklawn Road,48084,42.5571109,-83.2025872
1033,Brooklawn Road,48084,42.5568876,-83.2022788
1020,Brooklawn Road,48084,42.5570003,-83.2015100
998,Brooklawn Road,48084,42.5569904,-83.2010839
1006,Brooklawn Road,48084,42.5569493,-83.2013027
1028,Brooklawn Road,48084,42.5571623,-83.2017046
1036,Brooklawn Road,48084,42.5572899,-83.2018037
1112,Brooklawn Road,48084,42.5579965,-83.2027837
1100,Brooklawn Road,48084,42.5578445,-83.2027146
1064,Brooklawn Court,48084,42.5576171,-83.2016751
1080,Brooklawn Court,48084,42.5578219,-83.2023600
1072,Brooklawn Court,48084,42.5580149,-83.2018474
1076,Brooklawn Court,48084,42.5580241,-83.2021783
1060,Brooklawn Court,48084,42.5575099,-83.2019150
1050,Brooklawn Road,48084,42.5574035,-83.2020362
1068,Brooklawn Court,48084,42.5578831,-83.2016327
1092,Brooklawn Road,48084,42.5577231,-83.2024900
918,Brooklawn Road,48084,42.5567829,-83.1990159
926,Brooklawn Road,48084,42.5569475,-83.1991338
934,Brooklawn Road,48084,42.5570229,-83.1993412
942,Brooklawn Road,48084,42.5570307,-83.1995620
1011,Brooklawn Road,48084,42.5565003,-83.2015459
1005,Brooklawn Road,48084,42.5564868,-83.2013068
991,Brooklawn Road,48084,42.5564825,-83.2008620
999,Brooklawn Road,48084,42.5564754,-83.2010917
902,Brooklawn Road,48084,42.5564544,-83.1990014
862,Brooklawn Road,48084,42.5556565,-83.1989259
910,Brooklawn Road,48084,42.5566162,-83.1990294
854,Brooklawn Road,48084,42.5554760,-83.1989202
886,Brooklawn Road,48084,42.5561363,-83.1989795
870,Brooklawn Road,48084,42.5558149,-83.1989640
878,Brooklawn Road,48084,42.5559762,-83.1989479
894,Brooklawn Road,48084,42.5562938,-83.1989887
966,Brooklawn Road,48084,42.5570273,-83.2002351
974,Brooklawn Road,48084,42.5570228,-83.2004484
982,Brooklawn Road,48084,42.5569969,-83.2006521
950,Brooklawn Road,48084,42.5570206,-83.1997817
958,Brooklawn Road,48084,42.5570175,-83.2000181
967,Brooklawn Road,48084,42.5565196,-83.2002185
983,Brooklawn Road,48084,42.5565059,-83.2006474
975,Brooklawn Road,48084,42.5565127,-83.2004337
891,Brooklawn Road,48084,42.5561966,-83.1996534
931,Brooklawn Road,48084,42.5565289,-83.1997110
875,Brooklawn Road,48084,42.5558944,-83.1995941
881,Brooklawn Road,48084,42.5560351,-83.1996408
901,Brooklawn Road,48084,42.5563698,-83.1996633
961,Brooklawn Road,48084,42.5565257,-83.1999985
1081,Norwich Drive,48084,42.5578451,-83.2035152
1071,Norwich Drive,48084,42.5576669,-83.2036569
1091,Norwich Drive,48084,42.5579501,-83.2034149
1040,Norwich Drive,48084,42.5571138,-83.2033614
1041,Norwich Drive,48084,42.5572393,-83.2039724
1061,Norwich Drive,48084,42.5575692,-83.2037931
1051,Norwich Drive,48084,42.5574066,-83.2039064
1021,Norwich Drive,48084,42.5569029,-83.2040180
1024,Norwich Drive,48084,42.5569596,-83.2033335
1031,Norwich Drive,48084,42.5570593,-83.2040019
925,Norwich Drive,48084,42.5562451,-83.2040061
1501,Witherbee Drive,48084,42.5567420,-83.2033493
935,Norwich Drive,48084,42.5564251,-83.2039841
1001,Norwich Drive,48084,42.5565811,-83.2039827
1011,Norwich Drive,48084,42.5567423,-83.2039900
915,Norwich Drive,48084,42.5560772,-83.2040233
895,Norwich Drive,48084,42.5557654,-83.2038558
905,Norwich Drive,48084,42.5559253,-83.2039511
1544,Witherbee Drive,48084,42.5561061,-83.2027995
1530,Witherbee Drive,48084,42.5561635,-83.2029591
904,Norwich Drive,48084,42.5560952,-83.2032771
926,Norwich Drive,48084,42.5562578,-83.2033065
1584,Witherbee Drive,48084,42.5556771,-83.2021126
1564,Witherbee Drive,48084,42.5558640,-83.2024785
1554,Witherbee Drive,48084,42.5559961,-83.2026238
1574,Witherbee Drive,48084,42.5557664,-83.2023091
1594,Witherbee Drive,48084,42.5555881,-83.2019126
1634,Witherbee Drive,48084,42.5554886,-83.2010232
1614,Witherbee Drive,48084,42.5555322,-83.2014708
1604,Witherbee Drive,48084,42.5555185,-83.2017111
1624,Witherbee Drive,48084,42.5554970,-83.2012552
1644,Witherbee Drive,48084,42.5554690,-83.2008121
1654,Witherbee Drive,48084,42.5554313,-83.2006010
1664,Witherbee Drive,48084,42.5553743,-83.2003937
1694,Witherbee Drive,48084,42.5552218,-83.1997652
1674,Witherbee Drive,48084,42.5553269,-83.2001749
1684,Witherbee Drive,48084,42.5552780,-83.1999685
1740,Witherbee Drive,48084,42.5550027,-83.1989377
1726,Witherbee Drive,48084,42.5550471,-83.1991357
1704,Witherbee Drive,48084,42.5551636,-83.1995421
1714,Witherbee Drive,48084,42.5551060,-83.1993424
1814,Witherbee Drive,48084,42.5548184,-83.1982412
1826,Witherbee Drive,48084,42.5547723,-83.1980348
1810,Witherbee Drive,48084,42.5549063,-83.1984146
1842,Witherbee Drive,48084,42.5547174,-83.1978281
1856,Witherbee Drive,48084,42.5546783,-83.1976270
1870,Witherbee Drive,48084,42.5546576,-83.1973866
1900,Witherbee Drive,48084,42.5546639,-83.1969402
1914,Witherbee Drive,48084,42.5547263,-83.1967271
1884,Witherbee Drive,48084,42.5546795,-83.1971531
875,Norwich Drive,48084,42.5554689,-83.2035511
3451,Dorothea Court,48084,42.5594768,-83.1982267
3435,Dorothea Court,48084,42.5594885,-83.1979324
2776,Cedar Ridge Drive,48084,42.5581509,-83.1968712
2808,Cedar Ridge Drive,48084,42.5586057,-83.1969341
2862,Cedar Ridge Drive,48084,42.5589645,-83.1973231
2792,Cedar Ridge Drive,48084,42.5583830,-83.1968840
2824,Cedar Ridge Drive,48084,42.5588164,-83.1970721
2817,Cedar Ridge Drive,48084,42.5584518,-83.1975718
2920,Cedar Ridge Drive,48084,42.5596362,-83.1970610
2888,Cedar Ridge Drive,48084,42.5592191,-83.1972986
2904,Cedar Ridge Drive,48084,42.5594308,-83.1971968
3440,Dorothea Court,48084,42.5599546,-83.1980556
3476,Dorothea Court,48084,42.5598052,-83.1989019
3464,Dorothea Court,48084,42.5599893,-83.1987016
3452,Dorothea Court,48084,42.5599971,-83.1983346
2945,Cedar Ridge Drive,48084,42.5599517,-83.1976751
3463,Dorothea Court,48084,42.5594263,-83.1985428
3438,Oak Leaf Drive,48084,42.5588601,-83.1980609
3488,Oak Leaf Drive,48084,42.5588482,-83.1989557
2887,Cedar Ridge Drive,48084,42.5591655,-83.1981839
3454,Oak Leaf Drive,48084,42.5588581,-83.1983613
2787,Cedar Ridge Drive,48084,42.5581349,-83.1975609
3467,Oak Leaf Drive,48084,42.5583842,-83.1986246
3455,Oak Leaf Drive,48084,42.5584027,-83.1983273
3443,Oak Leaf Drive,48084,42.5584016,-83.1980300
3441,Roxbury Drive,48084,42.5575362,-83.1982580
3443,Roxbury Drive,48084,42.5578902,-83.1981462
3445,Roxbury Drive,48084,42.5581062,-83.1982640
3399,Roxbury Drive,48084,42.5576402,-83.1967446
3423,Roxbury Drive,48084,42.5575622,-83.1973385
3435,Roxbury Drive,48084,42.5574896,-83.1976387
3411,Roxbury Drive,48084,42.5575953,-83.1970379
3466,Oak Leaf Drive,48084,42.5588578,-83.1986575
2952,Cedar Ridge Drive,48084,42.5600867,-83.1970610
2936,Cedar Ridge Drive,48084,42.5598666,-83.1970046
3581,West Big Beaver Road,48084,42.5605878,-83.1982009
2959,Cedar Ridge Drive,48084,42.5601877,-83.1977177
2593,West Big Beaver Road,48084,42.5605135,-83.1985699
3611,West Big Beaver Road,48084,42.5605413,-83.1990478
2975,Cedar Ridge Drive,48084,42.5604039,-83.1977251
2968,Cedar Ridge Drive,48084,42.5602987,-83.1970513
2984,Cedar Ridge Drive,48084,42.5605325,-83.1970750
2970,Quail Run Drive,48098,42.5868284,-83.2071203
2958,Quail Run Drive,48098,42.5870856,-83.2067781
2886,Quail Run Drive,48098,42.5871469,-83.2043985
4815,Valley Vista Lane,48098,42.5871775,-83.2024776
4732,Orchard Ridge Drive,48098,42.5856058,-83.2017767
4720,Orchard Ridge Drive,48098,42.5855736,-83.2021974
2841,Shadywood Drive,48098,42.5855503,-83.2030271
2853,Shadywood Drive,48098,42.5856026,-83.2033279
2865,Shadywood Drive,48098,42.5855935,-83.2037194
2877,Shadywood Drive,48098,42.5855605,-83.2040879
2889,Shadywood Drive,48098,42.5855234,-83.2044618
2901,Shadywood Drive,48098,42.5855717,-83.2048224
2913,Strawberry Drive,48098,42.5856339,-83.2052625
2925,Strawberry Drive,48098,42.5855298,-83.2056208
2937,Strawberry Drive,48098,42.5854822,-83.2060186
2949,Strawberry Drive,48098,42.5855016,-83.2063589
2961,Strawberry Drive,48098,42.5855030,-83.2067229
2973,Strawberry Drive,48098,42.5855040,-83.2071054
4780,Orchard Ridge Drive,48098,42.5865621,-83.2012611
4793,Orchard Ridge Drive,48098,42.5868174,-83.2019523
4781,Orchard Ridge Drive,48098,42.5865540,-83.2019386
4769,Orchard Ridge Drive,48098,42.5862676,-83.2019780
4735,Orchard Ridge Drive,48098,42.5860670,-83.2022531
2971,Quail Run Drive,48098,42.5865537,-83.2069884
2972,Strawberry Drive,48098,42.5860000,-83.2071207
2944,Strawberry Drive,48098,42.5860087,-83.2059913
2918,Strawberry Drive,48098,42.5861018,-83.2056425
2906,Strawberry Drive,48098,42.5862866,-83.2053920
2882,Strawberry Drive,48098,42.5865907,-83.2052826
2929,Quail Run Drive,48098,42.5865990,-83.2057495
2895,Strawberry Drive,48098,42.5863104,-83.2046549
2883,Strawberry Drive,48098,42.5866118,-83.2045844
2907,Strawberry Drive,48098,42.5860852,-83.2048000
2025,Derby Road,48084,42.5542920,-83.1960542
2105,Derby Road,48084,42.5542703,-83.1951722
2051,Derby Road,48084,42.5542868,-83.1957774
2075,Derby Road,48084,42.5543339,-83.1954254
2239,Derby Road,48084,42.5543092,-83.1937733
2199,Derby Road,48084,42.5542967,-83.1941762
2215,Derby Road,48084,42.5542983,-83.1939704
2257,Derby Road,48084,42.5543195,-83.1935709
2171,Derby Road,48084,42.5542901,-83.1945730
2185,Derby Road,48084,42.5542909,-83.1943759
2125,Derby Road,48084,42.5542898,-83.1949731
2151,Derby Road,48084,42.5542964,-83.1947733
2375,Derby Road,48084,42.5543438,-83.1923490
2351,Derby Road,48084,42.5543324,-83.1925346
2305,Derby Road,48084,42.5543340,-83.1929120
2327,Derby Road,48084,42.5543357,-83.1927217
2287,Derby Road,48084,42.5543268,-83.1933645
2577,Derby Road,48084,42.5543857,-83.1902918
2489,Derby Road,48084,42.5543690,-83.1912250
2447,Derby Road,48084,42.5543518,-83.1916010
2401,Derby Road,48084,42.5543508,-83.1919771
2425,Derby Road,48084,42.5543508,-83.1917860
2529,Derby Road,48084,42.5543757,-83.1906627
2463,Derby Road,48084,42.5543581,-83.1914120
2393,Derby Road,48084,42.5543523,-83.1921634
2503,Derby Road,48084,42.5543790,-83.1908550
2551,Derby Road,48084,42.5543759,-83.1904837
2495,Derby Road,48084,42.5543885,-83.1910414
2595,Derby Road,48084,42.5543952,-83.1901053
2605,Derby Road,48084,42.5544080,-83.1896483
2623,Derby Road,48084,42.5544113,-83.1894597
2649,Derby Road,48084,42.5544185,-83.1892553
2665,Derby Road,48084,42.5544202,-83.1890574
2689,Derby Road,48084,42.5544302,-83.1888557
2771,Derby Road,48084,42.5544454,-83.1880559
2741,Derby Road,48084,42.5544457,-83.1884549
2711,Derby Road,48084,42.5544358,-83.1886549
2761,Derby Road,48084,42.5544450,-83.1882585
2785,Derby Road,48084,42.5544463,-83.1878555
2801,Derby Road,48084,42.5544741,-83.1873206
2793,Derby Road,48084,42.5544684,-83.1876043
2809,Derby Road,48084,42.5544814,-83.1870448
2476,Kingston Drive,48084,42.5560697,-83.1924901
2496,Kingston Drive,48084,42.5562915,-83.1925112
2599,Kingston Drive,48084,42.5563529,-83.1931888
2524,Kingston Drive,48084,42.5567133,-83.1925327
2508,Kingston Drive,48084,42.5565045,-83.1925373
2521,Kingston Drive,48084,42.5566149,-83.1932192
2531,Kingston Drive,48084,42.5568586,-83.1932284
3361,Essex Court,48084,42.5565821,-83.1941256
3373,Essex Court,48084,42.5567738,-83.1944460
3341,Essex Drive,48084,42.5568697,-83.1936339
3355,Essex Court,48084,42.5566143,-83.1937945
3216,Essex Drive,48084,42.5574240,-83.1909502
3200,Essex Drive,48084,42.5574685,-83.1906683
3232,Essex Drive,48084,42.5574353,-83.1912358
3298,Essex Drive,48084,42.5573890,-83.1926392
3248,Essex Drive,48084,42.5574247,-83.1915243
3270,Essex Drive,48084,42.5574343,-83.1920779
2540,Kingston Drive,48084,42.5569184,-83.1925833
3254,Essex Drive,48084,42.5574313,-83.1917954
3284,Essex Drive,48084,42.5574017,-83.1923772
3352,Essex Drive,48084,42.5573656,-83.1938062
3320,Essex Drive,48084,42.5573849,-83.1931989
3336,Essex Drive,48084,42.5573957,-83.1935152
3368,Essex Drive,48084,42.5573589,-83.1941042
3384,Essex Drive,48084,42.5573529,-83.1944289
3403,Essex Drive,48084,42.5568244,-83.1947593
3419,Essex Drive,48084,42.5568288,-83.1950508
3402,Essex Drive,48084,42.5573562,-83.1947237
3418,Essex Drive,48084,42.5573502,-83.1950577
3434,Essex Drive,48084,42.5573261,-83.1953750
3450,Essex Drive,48084,42.5573051,-83.1956856
3457,Essex Drive,48084,42.5567597,-83.1954373
3466,Essex Drive,48084,42.5572903,-83.1960380
2549,Dartmoor Drive,48084,42.5570642,-83.1962456
2517,Dartmoor Drive,48084,42.5565968,-83.1962881
2533,Dartmoor Drive,48084,42.5568171,-83.1962506
2496,Dartmoor Drive,48084,42.5565180,-83.1956051
2491,Dartmoor Drive,48084,42.5563534,-83.1962546
2459,Dartmoor Drive,48084,42.5558988,-83.1962606
2464,Dartmoor Drive,48084,42.5560372,-83.1955575
2480,Dartmoor Drive,48084,42.5562646,-83.1955602
2467,Dartmoor Drive,48084,42.5561363,-83.1962472
2443,Dartmoor Drive,48084,42.5556689,-83.1962378
2427,Dartmoor Drive,48084,42.5554251,-83.1962278
2411,Dartmoor Drive,48084,42.5552175,-83.1962224
3380,Medford Court,48084,42.5563200,-83.1943315
3386,Medford Court,48084,42.5564461,-83.1946624
3392,Medford Court,48084,42.5563496,-83.1950153
3421,Medford Drive,48084,42.5555691,-83.1949852
3445,Medford Drive,48084,42.5555690,-83.1954080
3311,Medford Drive,48084,42.5555983,-83.1928760
3301,Medford Drive,48084,42.5557510,-83.1925085
3340,Medford Drive,48084,42.5561472,-83.1935162
3374,Medford Drive,48084,42.5561111,-83.1942232
3355,Medford Drive,48084,42.5556130,-83.1938168
3339,Medford Drive,48084,42.5556150,-83.1934972
3356,Medford Drive,48084,42.5560914,-83.1938487
2477,Kingston Drive,48084,42.5561227,-83.1931754
3325,Medford Drive,48084,42.5556100,-83.1931770
3371,Medford Drive,48084,42.5555906,-83.1941294
3387,Medford Drive,48084,42.5555935,-83.1944237
3398,Medford Drive,48084,42.5560870,-83.1951934
3405,Medford Drive,48084,42.5555920,-83.1947184
2542,Warwick Drive,48084,42.5569480,-83.1914187
2526,Warwick Drive,48084,42.5567438,-83.1914105
2525,Warwick Drive,48084,42.5567306,-83.1920595
2541,Warwick Drive,48084,42.5569362,-83.1920762
2510,Warwick Drive,48084,42.5565362,-83.1913885
2478,Warwick Drive,48084,42.5561141,-83.1913645
2479,Warwick Drive,48084,42.5560959,-83.1920273
2509,Warwick Drive,48084,42.5565139,-83.1920574
2495,Warwick Drive,48084,42.5563080,-83.1920576
2494,Warwick Drive,48084,42.5563269,-83.1913785
2431,Warwick Drive,48084,42.5554642,-83.1919938
2462,Warwick Drive,48084,42.5559075,-83.1913517
2463,Warwick Drive,48084,42.5558858,-83.1920239
2415,Warwick Drive,48084,42.5552618,-83.1919978
2447,Warwick Drive,48084,42.5556687,-83.1920032
2446,Warwick Drive,48084,42.5556878,-83.1913208
2430,Warwick Drive,48084,42.5554803,-83.1913390
2414,Warwick Drive,48084,42.5552817,-83.1913209
2542,Wexford Drive,48084,42.5569520,-83.1902600
2574,Wexford Drive,48084,42.5574019,-83.1903358
2558,Wexford Drive,48084,42.5571487,-83.1902430
2543,Wexford Drive,48084,42.5569601,-83.1909495
2496,Wexford Drive,48084,42.5564192,-83.1902424
2527,Wexford Drive,48084,42.5567599,-83.1909177
2511,Wexford Drive,48084,42.5565464,-83.1909201
2497,Wexford Drive,48084,42.5563365,-83.1909214
2526,Wexford Drive,48084,42.5566864,-83.1902545
2481,Wexford Drive,48084,42.5561309,-83.1908792
2465,Wexford Drive,48084,42.5559077,-83.1909017
2464,Wexford Drive,48084,42.5559099,-83.1902082
2432,Wexford Drive,48084,42.5554798,-83.1901802
2448,Wexford Drive,48084,42.5557030,-83.1901935
2449,Wexford Drive,48084,42.5557019,-83.1908993
2433,Wexford Drive,48084,42.5554856,-83.1909006
2416,Wexford Drive,48084,42.5552670,-83.1901639
2417,Wexford Drive,48084,42.5552905,-83.1908767
2400,Wexford Drive,48084,42.5549911,-83.1901568
3362,Witherbee Drive,48084,42.5552488,-83.1938297
3334,Witherbee Drive,48084,42.5552363,-83.1932520
3350,Witherbee Drive,48084,42.5552577,-83.1935386
3390,Witherbee Drive,48084,42.5552467,-83.1944091
3454,Witherbee Drive,48084,42.5552328,-83.1955362
3438,Witherbee Drive,48084,42.5552175,-83.1952580
3422,Witherbee Drive,48084,42.5552208,-83.1949748
3406,Witherbee Drive,48084,42.5552483,-83.1947117
3376,Witherbee Drive,48084,42.5552354,-83.1941218
3318,Witherbee Drive,48084,42.5552464,-83.1929600
3304,Witherbee Drive,48084,42.5552658,-83.1926653
3286,Witherbee Drive,48084,42.5552652,-83.1923633
3245,Witherbee Drive,48084,42.5548008,-83.1913205
3229,Witherbee Drive,48084,42.5548102,-83.1910145
3201,Witherbee Drive,48084,42.5548284,-83.1903373
3215,Witherbee Drive,48084,42.5548046,-83.1907026
3261,Witherbee Drive,48084,42.5548003,-83.1916097
3273,Witherbee Drive,48084,42.5547899,-83.1919234
3285,Witherbee Drive,48084,42.5547934,-83.1922417
3299,Witherbee Drive,48084,42.5547785,-83.1925374
3315,Witherbee Drive,48084,42.5547687,-83.1928511
3345,Witherbee Drive,48084,42.5547542,-83.1934538
3375,Witherbee Drive,48084,42.5547483,-83.1940347
3387,Witherbee Drive,48084,42.5547501,-83.1943276
3359,Witherbee Drive,48084,42.5547525,-83.1937403
3401,Witherbee Drive,48084,42.5547435,-83.1946075
3419,Witherbee Drive,48084,42.5547399,-83.1948921
3435,Witherbee Drive,48084,42.5547409,-83.1951834
3451,Witherbee Drive,48084,42.5546889,-83.1954615
3467,Witherbee Drive,48084,42.5547004,-83.1957656
3481,Witherbee Drive,48084,42.5546551,-83.1960479
203,Lowery Road,48084,42.5580805,-83.1517296
2810,Waterloo Drive,48084,42.5586984,-83.1957999
2775,Waterloo Drive,48084,42.5581785,-83.1963833
2774,Waterloo Drive,48084,42.5582030,-83.1957834
2793,Waterloo Drive,48084,42.5584210,-83.1964007
2792,Waterloo Drive,48084,42.5584488,-83.1957893
2811,Waterloo Drive,48084,42.5586493,-83.1964126
2847,Waterloo Drive,48084,42.5591113,-83.1964329
2829,Waterloo Drive,48084,42.5588718,-83.1964430
2828,Waterloo Drive,48084,42.5589698,-83.1958236
2850,Waterloo Drive,48084,42.5591989,-83.1958410
2869,Waterloo Drive,48084,42.5593329,-83.1964631
2916,Waterloo Drive,48084,42.5599568,-83.1958849
2894,Waterloo Drive,48084,42.5597267,-83.1958674
2883,Waterloo Drive,48084,42.5595654,-83.1964599
2919,Waterloo Drive,48084,42.5600038,-83.1965160
2872,Waterloo Drive,48084,42.5594497,-83.1958485
2901,Waterloo Drive,48084,42.5597779,-83.1964584
2937,Waterloo Drive,48084,42.5602345,-83.1964876
3306,York Drive,48084,42.5604195,-83.1961945
3218,York Drive,48084,42.5604173,-83.1955773
3262,York Drive,48084,42.5604052,-83.1958745
3174,York Drive,48084,42.5604858,-83.1952708
3130,York Drive,48084,42.5604655,-83.1949724
2852,Mayfair Drive,48084,42.5592179,-83.1947269
2896,Mayfair Drive,48084,42.5597004,-83.1947553
2899,Mayfair Drive,48084,42.5596934,-83.1953672
2927,Mayfair Drive,48084,42.5599697,-83.1953762
2940,Mayfair Drive,48084,42.5601719,-83.1947238
2918,Mayfair Drive,48084,42.5599553,-83.1947749
2873,Mayfair Drive,48084,42.5594615,-83.1953264
2851,Mayfair Drive,48084,42.5592161,-83.1953203
2826,Mayfair Drive,48084,42.5589897,-83.1947110
2809,Mayfair Drive,48084,42.5587122,-83.1953022
2825,Mayfair Drive,48084,42.5589637,-83.1953080
2808,Mayfair Drive,48084,42.5587170,-83.1946969
2773,Mayfair Drive,48084,42.5581989,-83.1952725
2791,Mayfair Drive,48084,42.5584614,-83.1952813
2790,Mayfair Drive,48084,42.5584676,-83.1946741
2772,Mayfair Drive,48084,42.5582218,-83.1946488
3066,Roxbury Drive,48084,42.5582111,-83.1941945
3000,Roxbury Drive,48084,42.5582424,-83.1939127
2601,Roxbury Drive,48084,42.5579935,-83.1909671
2645,Roxbury Drive,48084,42.5578141,-83.1912061
2689,Roxbury Drive,48084,42.5578016,-83.1916667
2733,Roxbury Drive,48084,42.5577982,-83.1919453
2777,Roxbury Drive,48084,42.5578274,-83.1922474
2821,Roxbury Drive,48084,42.5578080,-83.1925501
2953,Roxbury Drive,48084,42.5577967,-83.1934763
2909,Roxbury Drive,48084,42.5577874,-83.1931794
2865,Roxbury Drive,48084,42.5578105,-83.1928444
2997,Roxbury Drive,48084,42.5577912,-83.1937572
3041,Roxbury Drive,48084,42.5577758,-83.1940714
3129,Roxbury Drive,48084,42.5577488,-83.1946619
3085,Roxbury Drive,48084,42.5577705,-83.1943691
3173,Roxbury Drive,48084,42.5577357,-83.1949644
3303,Roxbury Drive,48084,42.5577119,-83.1958642
3347,Roxbury Drive,48084,42.5577153,-83.1961446
3391,Roxbury Drive,48084,42.5577080,-83.1964399
3217,Roxbury Drive,48084,42.5577229,-83.1952584
3261,Roxbury Drive,48084,42.5577409,-83.1955555
3475,Dorothea Court,48084,42.5595426,-83.1988368
3489,Oak Leaf Drive,48084,42.5583815,-83.1989219
5135,Coolidge Highway,48098,42.5925285,-83.1889561
4950,Park Manor Drive,48098,42.5895655,-83.1994528
4967,Park Manor Drive,48098,42.5899653,-83.1989298
2521,Beachview Court,48098,42.5872555,-83.1983959
2556,Beachview Court,48098,42.5877973,-83.1998023
3945,Meadowbrook Drive,48084,42.5759750,-83.1577726
3929,Meadowbrook Drive,48084,42.5757373,-83.1578539
3913,Meadowbrook Drive,48084,42.5754747,-83.1578535
3897,Meadowbrook Drive,48084,42.5752382,-83.1579168
3881,Meadowbrook Drive,48084,42.5750022,-83.1578180
3865,Meadowbrook Drive,48084,42.5747492,-83.1578191
3849,Meadowbrook Drive,48084,42.5744998,-83.1577990
3833,Meadowbrook Drive,48084,42.5742464,-83.1578215
3817,Meadowbrook Drive,48084,42.5739956,-83.1577804
3801,Meadowbrook Drive,48084,42.5737548,-83.1577674
3785,Meadowbrook Drive,48084,42.5735157,-83.1577566
3769,Meadowbrook Drive,48084,42.5732825,-83.1577481
3667,Boulder Drive,48084,42.5709516,-83.1881513
3691,Boulder Drive,48084,42.5709450,-83.1888167
3705,Boulder Drive,48084,42.5709164,-83.1891529
3717,Boulder Drive,48084,42.5709073,-83.1894864
3461,Alpine Road,48084,42.5683525,-83.1766082
1958,Muer Drive,48084,42.5683906,-83.1752998
3665,Crooks Road,48084,42.5715958,-83.1683538
1516,McManus Drive,48084,42.5709423,-83.1694611
1526,McManus Drive,48084,42.5709806,-83.1699203
1550,McManus Drive,48084,42.5709744,-83.1703244
1600,McManus Drive,48084,42.5709618,-83.1707782
1640,McManus Drive,48084,42.5709546,-83.1712204
1670,McManus Drive,48084,42.5709161,-83.1716569
1750,McManus Drive,48084,42.5709492,-83.1725744
1710,McManus Drive,48084,42.5709141,-83.1721160
1760,McManus Drive,48084,42.5708934,-83.1730019
1770,McManus Drive,48084,42.5708846,-83.1734090
1790,McManus Drive,48084,42.5708919,-83.1739166
1800,McManus Drive,48084,42.5708902,-83.1743252
1835,McManus Drive,48084,42.5703346,-83.1747844
1805,McManus Drive,48084,42.5703460,-83.1743104
1785,McManus Drive,48084,42.5703452,-83.1738583
1765,McManus Drive,48084,42.5703493,-83.1733981
1755,McManus Drive,48084,42.5703576,-83.1729627
1745,McManus Drive,48084,42.5703427,-83.1725074
1725,McManus Drive,48084,42.5703697,-83.1720563
1695,McManus Drive,48084,42.5703617,-83.1716227
1635,McManus Drive,48084,42.5703794,-83.1712171
1595,McManus Drive,48084,42.5703915,-83.1707621
1511,McManus Drive,48084,42.5703767,-83.1694425
1525,McManus Drive,48084,42.5703946,-83.1698631
1545,McManus Drive,48084,42.5704126,-83.1703069
1505,McManus Drive,48084,42.5704013,-83.1689873
1506,McManus Drive,48084,42.5709718,-83.1689786
3625,Crooks Road,48084,42.5709936,-83.1682929
3645,Crooks Road,48084,42.5712154,-83.1683381
3595,Crooks Road,48084,42.5703978,-83.1682352
3581,Crooks Road,48084,42.5701415,-83.1682430
3565,Crooks Road,48084,42.5698557,-83.1682493
1480,Boulan Drive,48084,42.5697857,-83.1689584
1510,Boulan Drive,48084,42.5697983,-83.1694082
1540,Boulan Drive,48084,42.5697981,-83.1698430
1588,Boulan Drive,48084,42.5697842,-83.1707564
1570,Boulan Drive,48084,42.5697865,-83.1703136
1630,Boulan Drive,48084,42.5697854,-83.1712017
1660,Boulan Drive,48084,42.5698030,-83.1716451
1680,Boulan Drive,48084,42.5697704,-83.1720677
1734,Boulan Drive,48084,42.5697464,-83.1729411
1710,Boulan Drive,48084,42.5697647,-83.1725121
1756,Boulan Drive,48084,42.5697464,-83.1733171
1808,Boulan Drive,48084,42.5697397,-83.1743158
1834,Boulan Drive,48084,42.5697391,-83.1747702
1860,Boulan Drive,48084,42.5697608,-83.1753001
1876,Boulan Drive,48084,42.5697363,-83.1757760
1900,Boulan Drive,48084,42.5697087,-83.1762853
1952,Boulan Drive,48084,42.5696973,-83.1772810
1926,Boulan Drive,48084,42.5697719,-83.1768133
3547,Crooks Road,48084,42.5693613,-83.1680717
3519,Crooks Road,48084,42.5690946,-83.1680589
1475,Boulan Drive,48084,42.5692516,-83.1689390
1451,Boulan Drive,48084,42.5692657,-83.1685303
1505,Boulan Drive,48084,42.5692588,-83.1694047
1535,Boulan Drive,48084,42.5692667,-83.1698565
1595,Boulan Drive,48084,42.5692186,-83.1707629
1565,Boulan Drive,48084,42.5692081,-83.1702805
1625,Boulan Drive,48084,42.5692475,-83.1711886
1657,Boulan Drive,48084,42.5692211,-83.1716656
1685,Boulan Drive,48084,42.5692128,-83.1720665
1709,Boulan Drive,48084,42.5692381,-83.1725248
1731,Boulan Drive,48084,42.5692127,-83.1729732
1755,Boulan Drive,48084,42.5691575,-83.1734042
1855,Boulan Drive,48084,42.5691855,-83.1753520
1805,Boulan Drive,48084,42.5692040,-83.1742906
1781,Boulan Drive,48084,42.5692025,-83.1738305
1833,Boulan Drive,48084,42.5691765,-83.1748587
1881,Boulan Drive,48084,42.5691796,-83.1759237
1915,Boulan Drive,48084,42.5691436,-83.1767026
1945,Boulan Drive,48084,42.5691110,-83.1772182
1120,Jefferson Drive,48084,42.5763485,-83.1702831
3949,Fadi Drive,48084,42.5761203,-83.1705540
1084,Jefferson Drive,48084,42.5762571,-83.1696010
1102,Jefferson Drive,48084,42.5763544,-83.1698916
3931,Fadi Drive,48084,42.5757411,-83.1705071
3930,Fadi Drive,48084,42.5757105,-83.1697974
3912,Fadi Drive,48084,42.5754465,-83.1697812
3876,Fadi Drive,48084,42.5749432,-83.1696376
3894,Fadi Drive,48084,42.5751989,-83.1696903
3858,Fadi Drive,48084,42.5746934,-83.1696269
3840,Fadi Drive,48084,42.5744509,-83.1696005
1030,Salma Drive,48084,42.5744511,-83.1684466
1048,Salma Drive,48084,42.5744518,-83.1687947
1066,Salma Drive,48084,42.5744485,-83.1691129
1165,Provincial Drive,48084,42.5740739,-83.1709220
1173,Provincial Drive,48084,42.5739215,-83.1712366
1227,Provincial Drive,48084,42.5739175,-83.1723143
1209,Provincial Drive,48084,42.5739176,-83.1719667
1191,Provincial Drive,48084,42.5739224,-83.1715821
1246,Provincial Drive,48084,42.5744497,-83.1727521
1192,Provincial Drive,48084,42.5744643,-83.1717159
1228,Provincial Drive,48084,42.5744540,-83.1724064
1282,Provincial Drive,48084,42.5744445,-83.1734401
1264,Provincial Drive,48084,42.5744546,-83.1730552
1210,Provincial Drive,48084,42.5744579,-83.1720603
1261,Rothwell Drive,48084,42.5748933,-83.1734675
1253,Rothwell Drive,48084,42.5748964,-83.1730903
1245,Rothwell Drive,48084,42.5749102,-83.1727789
1237,Rothwell Drive,48084,42.5748884,-83.1724262
1229,Rothwell Drive,48084,42.5748890,-83.1720641
1236,Rothwell Drive,48084,42.5754428,-83.1724851
1228,Rothwell Drive,48084,42.5754228,-83.1721233
1212,Rothwell Drive,48084,42.5754405,-83.1714087
1221,Rothwell Drive,48084,42.5748930,-83.1717288
1220,Rothwell Drive,48084,42.5754405,-83.1717788
1204,Rothwell Drive,48084,42.5754535,-83.1710156
3913,Fadi Drive,48084,42.5754696,-83.1705257
1141,Provincial Drive,48084,42.5749177,-83.1709869
3877,Fadi Drive,48084,42.5749197,-83.1703807
1149,Provincial Drive,48084,42.5746564,-83.1709667
3859,Fadi Drive,48084,42.5746704,-83.1703505
3841,Fadi Drive,48084,42.5744243,-83.1703365
1157,Provincial Drive,48084,42.5743890,-83.1709624
3823,Fadi Drive,48084,42.5741688,-83.1703210
1111,Salma Drive,48084,42.5739359,-83.1701476
1075,Salma Drive,48084,42.5739118,-83.1692878
1057,Salma Drive,48084,42.5739183,-83.1689313
1093,Salma Drive,48084,42.5739073,-83.1696923
1434,Lockmoor Drive,48084,42.5754849,-83.1764052
1452,Lockmoor Drive,48084,42.5754573,-83.1767526
3970,Stonehaven Drive,48084,42.5761241,-83.1758165
3952,Stonehaven Drive,48084,42.5758498,-83.1757615
3934,Stonehaven Drive,48084,42.5755762,-83.1756618
3916,Stonehaven Drive,48084,42.5753074,-83.1756529
3880,Stonehaven Drive,48084,42.5747575,-83.1756203
3898,Stonehaven Drive,48084,42.5750373,-83.1756345
1451,Lockmoor Drive,48084,42.5749500,-83.1767043
1433,Lockmoor Drive,48084,42.5749466,-83.1763502
3862,Stonehaven Drive,48084,42.5744744,-83.1756012
1431,Provincial Drive,48084,42.5739339,-83.1762519
1449,Provincial Drive,48084,42.5739334,-83.1766410
1413,Provincial Drive,48084,42.5739319,-83.1758759
1395,Provincial Drive,48084,42.5739286,-83.1755685
1281,Provincial Drive,48084,42.5739359,-83.1734814
1299,Provincial Drive,48084,42.5739275,-83.1738692
1317,Provincial Drive,48084,42.5739227,-83.1741718
1369,Provincial Drive,48084,42.5739289,-83.1750839
1343,Provincial Drive,48084,42.5739380,-83.1746371
1370,Provincial Drive,48084,42.5744633,-83.1750627
1344,Provincial Drive,48084,42.5744632,-83.1746256
1300,Rothwell Drive,48084,42.5744711,-83.1741709
1244,Rothwell Drive,48084,42.5754211,-83.1728034
1292,Rothwell Drive,48084,42.5746884,-83.1741844
1284,Rothwell Drive,48084,42.5750054,-83.1741898
1276,Rothwell Drive,48084,42.5752998,-83.1741965
1268,Rothwell Drive,48084,42.5755827,-83.1739905
1260,Rothwell Drive,48084,42.5756546,-83.1735187
1252,Rothwell Drive,48084,42.5754966,-83.1731733
955,Huntsford Court,48084,42.5714543,-83.1656120
937,Huntsford Court,48084,42.5716152,-83.1646525
949,Huntsford Court,48084,42.5712308,-83.1652289
943,Huntsford Court,48084,42.5712960,-83.1647883
3679,Finch Road,48084,42.5716220,-83.1638470
3659,Finch Road,48084,42.5713932,-83.1638390
3641,Finch Road,48084,42.5711304,-83.1638424
902,Durham Court,48084,42.5707970,-83.1638319
918,Durham Court,48084,42.5707886,-83.1642022
934,Durham Court,48084,42.5707769,-83.1645273
950,Durham Court,48084,42.5707858,-83.1648490
966,Durham Court,48084,42.5708526,-83.1651921
982,Durham Court,48084,42.5707968,-83.1656221
965,Durham Court,48084,42.5702089,-83.1651720
997,Durham Court,48084,42.5704757,-83.1657809
981,Durham Court,48084,42.5702297,-83.1654568
949,Durham Court,48084,42.5702561,-83.1648034
933,Durham Court,48084,42.5702867,-83.1644657
917,Durham Court,48084,42.5702961,-83.1641310
901,Durham Court,48084,42.5702983,-83.1638079
3680,Oriole Drive,48084,42.5717368,-83.1618115
3698,Oriole Drive,48084,42.5719960,-83.1618001
3640,Oriole Drive,48084,42.5712350,-83.1617947
3660,Oriole Drive,48084,42.5714852,-83.1618215
3620,Oriole Drive,48084,42.5709953,-83.1617793
3588,Oriole Drive,48084,42.5704837,-83.1617646
3600,Oriole Drive,48084,42.5707530,-83.1617766
3699,Oriole Drive,48084,42.5719741,-83.1625173
3698,Finch Drive,48084,42.5719550,-83.1631728
3681,Oriole Drive,48084,42.5716879,-83.1625283
3660,Finch Drive,48084,42.5714359,-83.1631497
3680,Finch Drive,48084,42.5717226,-83.1631244
3661,Oriole Drive,48084,42.5714478,-83.1624944
3620,Finch Drive,48084,42.5708993,-83.1631238
3640,Finch Drive,48084,42.5711682,-83.1631332
3641,Oriole Drive,48084,42.5711563,-83.1624750
3621,Oriole Drive,48084,42.5709210,-83.1624631
3586,Finch Drive,48084,42.5703985,-83.1630995
3598,Finch Drive,48084,42.5706560,-83.1631292
3599,Oriole Drive,48084,42.5706337,-83.1624516
3581,Oriole Drive,48084,42.5703889,-83.1624189
3544,Oriole Drive,48084,42.5699802,-83.1617402
3558,Finch Drive,48084,42.5701220,-83.1631091
3559,Oriole Drive,48084,42.5701118,-83.1624201
3566,Oriole Drive,48084,42.5701919,-83.1617672
3522,Oriole Drive,48084,42.5696995,-83.1616637
3537,Oriole Drive,48084,42.5698721,-83.1624128
835,Portsmouth Road,48084,42.5693294,-83.1625066
847,Portsmouth Road,48084,42.5693528,-83.1628375
859,Portsmouth Road,48084,42.5693390,-83.1631964
871,Portsmouth Road,48084,42.5693192,-83.1635166
3536,Finch Drive,48084,42.5698617,-83.1630435
883,Portsmouth Road,48084,42.5693045,-83.1638803
878,Portsmouth Road,48084,42.5698055,-83.1637720
895,Portsmouth Road,48084,42.5692950,-83.1642193
888,Portsmouth Road,48084,42.5698098,-83.1641317
898,Portsmouth Road,48084,42.5697914,-83.1644706
901,Portsmouth Road,48084,42.5693050,-83.1645807
908,Portsmouth Road,48084,42.5697921,-83.1648170
924,Portsmouth Road,48084,42.5697936,-83.1651403
915,Portsmouth Road,48084,42.5692899,-83.1649252
929,Portsmouth Road,48084,42.5692602,-83.1653007
938,Portsmouth Road,48084,42.5698019,-83.1654791
952,Portsmouth Road,48084,42.5698635,-83.1658582
943,Portsmouth Road,48084,42.5693072,-83.1656092
957,Portsmouth Road,48084,42.5693453,-83.1659451
971,Portsmouth Road,48084,42.5693884,-83.1663156
3503,Delaware Drive,48084,42.5696339,-83.1669879
3500,Crooks Road,48084,42.5693875,-83.1670857
3490,Crooks Road,48084,42.5691403,-83.1670552
3521,Delaware Drive,48084,42.5698851,-83.1669798
3518,Delaware Drive,48084,42.5699296,-83.1663276
3542,Delaware Drive,48084,42.5702056,-83.1663162
3539,Delaware Drive,48084,42.5701242,-83.1670040
3556,Delaware Drive,48084,42.5704520,-83.1663430
3557,Delaware Drive,48084,42.5703833,-83.1670503
3606,Delaware Drive,48084,42.5709590,-83.1663564
3607,Delaware Drive,48084,42.5710113,-83.1670692
3643,Delaware Drive,48084,42.5715083,-83.1670837
3622,Delaware Drive,48084,42.5712356,-83.1663516
3625,Delaware Drive,48084,42.5712645,-83.1670710
3640,Delaware Drive,48084,42.5714889,-83.1663594
3661,Delaware Drive,48084,42.5717542,-83.1671132
3679,Delaware Drive,48084,42.5719840,-83.1671943
983,Huntsford Drive,48084,42.5718756,-83.1660535
975,Huntsford Drive,48084,42.5718732,-83.1656734
967,Huntsford Drive,48084,42.5719013,-83.1653613
991,Huntsford Drive,48084,42.5718436,-83.1663894
915,Huntsford Drive,48084,42.5719452,-83.1642829
925,Huntsford Drive,48084,42.5719266,-83.1646250
907,Huntsford Drive,48084,42.5719467,-83.1638833
800,Huntsford Drive,48084,42.5725140,-83.1617462
820,Huntsford Drive,48084,42.5725306,-83.1621018
840,Huntsford Drive,48084,42.5724959,-83.1625333
880,Huntsford Drive,48084,42.5724639,-83.1632555
860,Huntsford Drive,48084,42.5724975,-83.1628966
916,Huntsford Drive,48084,42.5724359,-83.1643131
908,Huntsford Drive,48084,42.5724555,-83.1640029
924,Huntsford Drive,48084,42.5724138,-83.1646558
932,Huntsford Drive,48084,42.5724226,-83.1649922
974,Huntsford Drive,48084,42.5723910,-83.1656848
966,Huntsford Drive,48084,42.5724048,-83.1653515
982,Huntsford Drive,48084,42.5724007,-83.1660193
990,Huntsford Drive,48084,42.5723997,-83.1663285
998,Huntsford Drive,48084,42.5724337,-83.1667219
3697,Delaware Drive,48084,42.5723414,-83.1670679
830,Muer Drive,48084,42.5687501,-83.1629751
829,Muer Drive,48084,42.5682154,-83.1629276
874,Muer Drive,48084,42.5686320,-83.1637837
852,Muer Drive,48084,42.5686809,-83.1633616
853,Muer Drive,48084,42.5682178,-83.1632885
877,Muer Drive,48084,42.5681374,-83.1635841
896,Muer Drive,48084,42.5685962,-83.1642739
3385,Muerknoll Drive,48084,42.5678197,-83.1642043
903,Muer Drive,48084,42.5680857,-83.1646151
914,Muer Drive,48084,42.5686647,-83.1647097
927,Muer Drive,48084,42.5681202,-83.1651084
928,Muer Drive,48084,42.5687098,-83.1651065
939,Muer Drive,48084,42.5681400,-83.1655226
940,Muer Drive,48084,42.5686440,-83.1655468
967,Muer Drive,48084,42.5681099,-83.1663165
953,Muer Drive,48084,42.5681000,-83.1659085
979,Muer Drive,48084,42.5680910,-83.1667271
995,Muer Drive,48084,42.5680858,-83.1671286
954,Muer Drive,48084,42.5686267,-83.1659599
968,Muer Drive,48084,42.5686125,-83.1663511
980,Muer Drive,48084,42.5686627,-83.1667539
990,Muer Drive,48084,42.5686064,-83.1671548
3330,Muerknoll Drive,48084,42.5663647,-83.1630354
887,Emerson Drive,48084,42.5662394,-83.1638215
873,Emerson Drive,48084,42.5662523,-83.1634400
901,Emerson Drive,48084,42.5662263,-83.1642128
915,Emerson Drive,48084,42.5662099,-83.1645803
3370,Muerknoll Drive,48084,42.5676804,-83.1631593
3362,Muerknoll Drive,48084,42.5674367,-83.1630381
3354,Muerknoll Drive,48084,42.5671923,-83.1629535
3346,Muerknoll Drive,48084,42.5669131,-83.1629750
3338,Muerknoll Drive,48084,42.5666550,-83.1629563
3343,Muerknoll Drive,48084,42.5667787,-83.1636553
3367,Muerknoll Drive,48084,42.5673305,-83.1637588
3351,Muerknoll Drive,48084,42.5670505,-83.1636810
893,Banmoor Drive,48084,42.5671734,-83.1641681
921,Banmoor Drive,48084,42.5670837,-83.1649320
908,Emerson Drive,48084,42.5667150,-83.1645152
894,Emerson Drive,48084,42.5667407,-83.1641574
909,Banmoor Drive,48084,42.5670930,-83.1645477
983,Emerson Drive,48084,42.5663708,-83.1669544
979,Emerson Drive,48084,42.5660773,-83.1668082
975,Emerson Drive,48084,42.5660199,-83.1664183
971,Emerson Drive,48084,42.5661194,-83.1660926
929,Emerson Drive,48084,42.5661985,-83.1649623
943,Emerson Drive,48084,42.5661841,-83.1653407
957,Emerson Drive,48084,42.5661866,-83.1657325
950,Emerson Drive,48084,42.5666819,-83.1657345
922,Emerson Drive,48084,42.5667055,-83.1648947
936,Emerson Drive,48084,42.5667017,-83.1653498
964,Emerson Drive,48084,42.5666758,-83.1661237
987,Emerson Drive,48084,42.5666643,-83.1668759
991,Emerson Drive,48084,42.5670090,-83.1669048
963,Banmoor Drive,48084,42.5670436,-83.1660964
935,Banmoor Drive,48084,42.5670795,-83.1653168
949,Banmoor Drive,48084,42.5670752,-83.1657117
910,Banmoor Drive,48084,42.5675805,-83.1647838
952,Banmoor Drive,48084,42.5675693,-83.1659231
924,Banmoor Drive,48084,42.5675816,-83.1651555
938,Banmoor Drive,48084,42.5675712,-83.1655368
966,Banmoor Drive,48084,42.5675422,-83.1663190
980,Banmoor Drive,48084,42.5675460,-83.1667096
994,Banmoor Drive,48084,42.5675384,-83.1670183
3425,Balfour Drive,48084,42.5682828,-83.1865226
3417,Balfour Drive,48084,42.5679699,-83.1866272
3433,Balfour Drive,48084,42.5684388,-83.1858149
3429,Balfour Drive,48084,42.5684333,-83.1861756
3437,Balfour Drive,48084,42.5684509,-83.1854839
3441,Balfour Drive,48084,42.5684894,-83.1851489
3449,Balfour Drive,48084,42.5684825,-83.1844540
3445,Balfour Drive,48084,42.5684909,-83.1848133
3480,Balfour Drive,48084,42.5683997,-83.1835822
3492,Balfour Drive,48084,42.5686384,-83.1836913
3485,Gresham Drive,48084,42.5686287,-83.1830367
3468,Balfour Drive,48084,42.5681191,-83.1835546
3460,Balfour Drive,48084,42.5679218,-83.1837766
3456,Balfour Drive,48084,42.5679172,-83.1842068
3452,Balfour Drive,48084,42.5679301,-83.1845720
3448,Balfour Drive,48084,42.5679066,-83.1848957
3444,Balfour Drive,48084,42.5679097,-83.1852382
3440,Balfour Drive,48084,42.5679018,-83.1855794
3436,Balfour Drive,48084,42.5678818,-83.1858837
3409,Balfour Drive,48084,42.5677027,-83.1866177
3401,Balfour Drive,48084,42.5674317,-83.1865928
1912,Lexington Drive,48084,42.5674653,-83.1855553
1930,Lexington Drive,48084,42.5674569,-83.1858481
1876,Lexington Drive,48084,42.5674691,-83.1848797
1894,Lexington Drive,48084,42.5674714,-83.1852227
1858,Lexington Drive,48084,42.5674831,-83.1845560
1840,Lexington Drive,48084,42.5674898,-83.1842089
1822,Lexington Drive,48084,42.5674971,-83.1838760
1804,Lexington Drive,48084,42.5675095,-83.1835462
1786,Lexington Drive,48084,42.5675128,-83.1832068
1768,Lexington Drive,48084,42.5675299,-83.1828548
3453,Gresham Drive,48084,42.5681252,-83.1828752
3437,Gresham Drive,48084,42.5678834,-83.1828579
3469,Gresham Drive,48084,42.5683811,-83.1828859
3501,Gresham Drive,48084,42.5689592,-83.1830712
1760,Picadilly Drive,48084,42.5690973,-83.1826898
1744,Picadilly Drive,48084,42.5690946,-83.1823452
1728,Picadilly Drive,48084,42.5689939,-83.1819989
1712,Picadilly Drive,48084,42.5689957,-83.1816530
1696,Picadilly Drive,48084,42.5690688,-83.1813133
1682,Picadilly Drive,48084,42.5690380,-83.1808907
1678,Picadilly Drive,48084,42.5687373,-83.1807220
1674,Picadilly Drive,48084,42.5684657,-83.1807582
3426,Gresham Drive,48084,42.5676778,-83.1821128
3442,Gresham Drive,48084,42.5679205,-83.1821082
1675,Picadilly Drive,48084,42.5684585,-83.1815026
3458,Gresham Drive,48084,42.5681729,-83.1821417
3474,Gresham Drive,48084,42.5684410,-83.1821286
1670,Picadilly Drive,48084,42.5682102,-83.1807429
1666,Picadilly Drive,48084,42.5679842,-83.1807342
1667,Picadilly Drive,48084,42.5679469,-83.1814855
3492,Shakespeare Drive,48084,42.5690888,-83.1781968
3486,Shakespeare Drive,48084,42.5688383,-83.1779261
3513,Shakespeare Drive,48084,42.5684856,-83.1800585
3517,Shakespeare Drive,48084,42.5686792,-83.1802158
3521,Shakespeare Drive,48084,42.5689641,-83.1802060
3525,Shakespeare Drive,48084,42.5692102,-83.1801655
3504,Shakespeare Drive,48084,42.5691075,-83.1793555
3500,Shakespeare Drive,48084,42.5690881,-83.1789483
3496,Shakespeare Drive,48084,42.5691006,-83.1786206
1638,Picadilly Drive,48084,42.5680076,-83.1802566
1622,Picadilly Drive,48084,42.5680190,-83.1799159
3497,Shakespeare Drive,48084,42.5685437,-83.1786530
3501,Shakespeare Drive,48084,42.5685417,-83.1790189
3509,Shakespeare Drive,48084,42.5684495,-83.1796818
3505,Shakespeare Drive,48084,42.5685208,-83.1793507
3454,Shakespeare Drive,48084,42.5682898,-83.1778527
3470,Shakespeare Drive,48084,42.5685342,-83.1779287
3438,Shakespeare Drive,48084,42.5680411,-83.1778410
3422,Shakespeare Drive,48084,42.5678031,-83.1778575
3406,Shakespeare Drive,48084,42.5675575,-83.1778379
1558,Picadilly Drive,48084,42.5680588,-83.1786307
1606,Picadilly Drive,48084,42.5680256,-83.1795780
1574,Picadilly Drive,48084,42.5680299,-83.1789298
1590,Picadilly Drive,48084,42.5680122,-83.1792636
1659,Picadilly Drive,48084,42.5674578,-83.1810814
1663,Picadilly Drive,48084,42.5676548,-83.1814022
1653,Picadilly Drive,48084,42.5674382,-83.1806799
1645,Picadilly Drive,48084,42.5674475,-83.1803391
1597,Picadilly Drive,48084,42.5674817,-83.1793689
1613,Picadilly Drive,48084,42.5674657,-83.1796710
1629,Picadilly Drive,48084,42.5674573,-83.1800014
1581,Picadilly Drive,48084,42.5674874,-83.1790239
3405,Shakespeare Drive,48084,42.5675042,-83.1785953
3389,Shakespeare Drive,48084,42.5672880,-83.1785519
3390,Shakespeare Drive,48084,42.5673064,-83.1778228
3374,Shakespeare Drive,48084,42.5670648,-83.1778110
3373,Shakespeare Drive,48084,42.5670176,-83.1785541
1748,Lexington Drive,48084,42.5673872,-83.1820532
1722,Lexington Drive,48084,42.5672122,-83.1817164
1686,Lexington Drive,48084,42.5669463,-83.1810722
1706,Lexington Drive,48084,42.5670240,-83.1814091
1668,Lexington Drive,48084,42.5669593,-83.1807034
1596,Lexington Drive,48084,42.5670012,-83.1793927
1632,Lexington Drive,48084,42.5669834,-83.1800375
1650,Lexington Drive,48084,42.5669589,-83.1803683
1614,Lexington Drive,48084,42.5669795,-83.1797296
1578,Lexington Drive,48084,42.5670155,-83.1790516
3358,Shakespeare Drive,48084,42.5667368,-83.1777062
1523,Lexington Drive,48084,42.5665521,-83.1779005
1945,Lexington Drive,48084,42.5668969,-83.1861512
1963,Lexington Drive,48084,42.5668575,-83.1864945
1927,Lexington Drive,48084,42.5668904,-83.1857959
1855,Lexington Drive,48084,42.5669252,-83.1843857
1909,Lexington Drive,48084,42.5669042,-83.1854583
1873,Lexington Drive,48084,42.5669403,-83.1848030
1891,Lexington Drive,48084,42.5669136,-83.1851196
1819,Lexington Drive,48084,42.5669360,-83.1837215
1801,Lexington Drive,48084,42.5669520,-83.1833803
1837,Lexington Drive,48084,42.5669399,-83.1840453
1783,Lexington Drive,48084,42.5669554,-83.1830489
1765,Lexington Drive,48084,42.5669654,-83.1826641
1717,Lexington Drive,48084,42.5665187,-83.1817896
1749,Lexington Drive,48084,42.5668393,-83.1823390
1733,Lexington Drive,48084,42.5667102,-83.1820685
1701,Lexington Drive,48084,42.5664096,-83.1814335
1669,Lexington Drive,48084,42.5663865,-83.1807154
1685,Lexington Drive,48084,42.5663554,-83.1810766
1651,Hamlet Drive,48084,42.5653753,-83.1806118
1528,Hamlet Drive,48084,42.5659521,-83.1778873
1512,Hamlet Drive,48084,42.5656714,-83.1776392
1525,Hamlet Drive,48084,42.5654007,-83.1777201
1559,Lexington Drive,48084,42.5664596,-83.1786322
1541,Lexington Drive,48084,42.5664577,-83.1782957
1577,Lexington Drive,48084,42.5664362,-83.1789612
1631,Lexington Drive,48084,42.5664118,-83.1799824
1595,Lexington Drive,48084,42.5664538,-83.1793008
1613,Lexington Drive,48084,42.5664444,-83.1796291
1663,Hamlet Drive,48084,42.5659769,-83.1806885
1657,Hamlet Drive,48084,42.5657109,-83.1807643
1634,Hamlet Drive,48084,42.5659342,-83.1799693
1616,Hamlet Drive,48084,42.5659373,-83.1796135
1598,Hamlet Drive,48084,42.5659536,-83.1792763
1580,Hamlet Drive,48084,42.5659428,-83.1789299
1562,Hamlet Drive,48084,42.5659716,-83.1786132
1544,Hamlet Drive,48084,42.5659868,-83.1782649
1543,Hamlet Drive,48084,42.5652779,-83.1781302
1561,Hamlet Drive,48084,42.5654174,-83.1785672
1615,Hamlet Drive,48084,42.5653872,-83.1795609
1579,Hamlet Drive,48084,42.5654057,-83.1788893
1643,Hamlet Drive,48084,42.5652705,-83.1802268
1633,Hamlet Drive,48084,42.5653734,-83.1798984
1597,Hamlet Drive,48084,42.5654092,-83.1792296
1981,Kristin Drive,48084,42.5690097,-83.1867879
1965,Kristin Drive,48084,42.5690177,-83.1864525
1949,Kristin Drive,48084,42.5690240,-83.1861458
1933,Kristin Drive,48084,42.5690305,-83.1858151
1917,Kristin Drive,48084,42.5690202,-83.1854547
1867,Kristin Drive,48084,42.5690495,-83.1844614
1901,Kristin Drive,48084,42.5690406,-83.1851632
1885,Kristin Drive,48084,42.5690518,-83.1848281
1849,Kristin Drive,48084,42.5691075,-83.1837207
2183,Babcock Drive,48084,42.5662040,-83.1918142
2207,Babcock Drive,48084,42.5661530,-83.1924202
2195,Babcock Drive,48084,42.5661655,-83.1921162
2172,Babcock Drive,48084,42.5662030,-83.1915219
2159,Babcock Drive,48084,42.5662118,-83.1912168
2147,Babcock Drive,48084,42.5662212,-83.1909115
2137,Babcock Drive,48084,42.5662205,-83.1906258
2123,Babcock Drive,48084,42.5662392,-83.1903272
2117,Babcock Drive,48084,42.5662578,-83.1900288
2190,Babcock Drive,48084,42.5667184,-83.1919890
2154,Babcock Drive,48084,42.5667201,-83.1910913
2142,Babcock Drive,48084,42.5667109,-83.1907920
2178,Babcock Drive,48084,42.5666876,-83.1916827
2166,Babcock Drive,48084,42.5666934,-83.1913880
2130,Babcock Drive,48084,42.5667173,-83.1904859
2187,Lancer Drive,48084,42.5671548,-83.1920087
2175,Lancer Drive,48084,42.5671976,-83.1917056
2163,Lancer Drive,48084,42.5672118,-83.1914064
2115,Lancer Drive,48084,42.5672263,-83.1902156
2127,Lancer Drive,48084,42.5672238,-83.1905114
2103,Lancer Drive,48084,42.5672443,-83.1899160
2091,Lancer Drive,48084,42.5672423,-83.1896204
2151,Lancer Drive,48084,42.5672148,-83.1911086
2139,Lancer Drive,48084,42.5672115,-83.1908131
2188,Lancer Drive,48084,42.5676768,-83.1920215
2176,Lancer Drive,48084,42.5676775,-83.1917212
2164,Lancer Drive,48084,42.5676835,-83.1914303
2152,Lancer Drive,48084,42.5676907,-83.1911300
2140,Lancer Drive,48084,42.5677008,-83.1908366
2128,Lancer Drive,48084,42.5677150,-83.1905381
2092,Lancer Drive,48084,42.5677494,-83.1896474
2080,Lancer Drive,48084,42.5677374,-83.1893460
2104,Lancer Drive,48084,42.5677247,-83.1899384
2116,Lancer Drive,48084,42.5677164,-83.1902393
2105,Babcock Drive,48084,42.5662086,-83.1893133
2111,Babcock Drive,48084,42.5662220,-83.1897183
2099,Babcock Drive,48084,42.5664326,-83.1891448
2095,Babcock Drive,48084,42.5666694,-83.1891778
2106,Babcock Drive,48084,42.5668889,-83.1898926
2118,Babcock Drive,48084,42.5667675,-83.1901641
2068,Babcock Drive,48084,42.5680199,-83.1890647
2056,Babcock Drive,48084,42.5682085,-83.1888788
2044,Babcock Drive,48084,42.5683447,-83.1886061
2032,Babcock Drive,48084,42.5684332,-83.1883233
2020,Babcock Drive,48084,42.5684706,-83.1879990
2008,Babcock Drive,48084,42.5684737,-83.1877070
2081,Babcock Drive,48084,42.5675542,-83.1886662
2009,Babcock Drive,48084,42.5680077,-83.1876955
2021,Babcock Drive,48084,42.5679796,-83.1879852
2043,Babcock Drive,48084,42.5679027,-83.1882741
2069,Babcock Drive,48084,42.5677453,-83.1885104
2043,Lancer Court,48084,42.5669632,-83.1885053
2087,Babcock Drive,48084,42.5671045,-83.1889412
2091,Babcock Drive,48084,42.5668988,-83.1890902
2030,Lancer Court,48084,42.5675073,-83.1879541
2018,Lancer Court,48084,42.5675702,-83.1876586
2042,Lancer Court,48084,42.5674131,-83.1882411
2019,Lancer Court,48084,42.5669218,-83.1876968
2031,Lancer Court,48084,42.5669326,-83.1880394
2752,Orchard Trail Drive,48098,42.5851076,-83.2012067
2850,Orchard Trail Drive,48098,42.5851241,-83.2036412
2828,Orchard Trail Drive,48098,42.5851539,-83.2030923
2796,Orchard Trail Drive,48098,42.5851756,-83.2022092
2774,Orchard Trail Drive,48098,42.5852368,-83.2017340
2755,Orchard Trail Drive,48098,42.5846913,-83.2011229
2777,Orchard Trail Drive,48098,42.5846366,-83.2018559
2799,Orchard Trail Drive,48098,42.5846514,-83.2024148
2827,Orchard Trail Drive,48098,42.5846339,-83.2029967
2849,Orchard Trail Drive,48098,42.5846289,-83.2035551
2893,Orchard Trail Drive,48098,42.5845958,-83.2047018
2871,Orchard Trail Drive,48098,42.5846170,-83.2040751
2915,Orchard Trail Drive,48098,42.5845766,-83.2052957
2937,Orchard Trail Drive,48098,42.5845719,-83.2058627
2961,Orchard Trail Drive,48098,42.5845210,-83.2063926
2987,Orchard Trail Drive,48098,42.5845133,-83.2070424
2988,Orchard Trail Drive,48098,42.5850501,-83.2070672
2962,Orchard Trail Drive,48098,42.5850624,-83.2065156
2938,Orchard Trail Drive,48098,42.5850918,-83.2059661
2916,Orchard Trail Drive,48098,42.5850756,-83.2053755
2894,Orchard Trail Drive,48098,42.5850974,-83.2048037
2872,Orchard Trail Drive,48098,42.5851006,-83.2041894
4830,Adams Pointe Court,48098,42.5875398,-83.2067497
4812,Adams Pointe Court,48098,42.5875235,-83.2071892
4848,Adams Pointe Court,48098,42.5876061,-83.2062511
4866,Adams Pointe Court,48098,42.5879894,-83.2061614
4875,Adams Pointe Court,48098,42.5881848,-83.2069057
4893,Adams Pointe Court,48098,42.5885366,-83.2070004
4902,Adams Pointe Court,48098,42.5886965,-83.2062513
4884,Adams Pointe Court,48098,42.5883352,-83.2061858
4947,Adams Pointe Court,48098,42.5894535,-83.2072323
4911,Adams Pointe Court,48098,42.5888442,-83.2070853
4929,Adams Pointe Court,48098,42.5891387,-83.2071751
4938,Adams Pointe Court,48098,42.5893164,-83.2062361
4920,Adams Pointe Court,48098,42.5890067,-83.2063114
4956,Adams Pointe Court,48098,42.5896997,-83.2063409
4965,Adams Pointe Court,48098,42.5897597,-83.2068812
4985,Valley Vista Road,48098,42.5895946,-83.2055955
4949,Valley Vista Road,48098,42.5891244,-83.2054251
4911,Valley Vista Road,48098,42.5886557,-83.2052537
4966,Valley Vista Circle,48098,42.5898276,-83.2044559
4910,Valley Vista Circle,48098,42.5897544,-83.2034849
4880,Valley Vista Circle,48098,42.5891618,-83.2028397
4861,Valley Vista Circle,48098,42.5890157,-83.2040387
4901,Valley Vista Circle,48098,42.5886402,-83.2037141
4860,Valley Vista Circle,48098,42.5887207,-83.2026783
4840,Valley Vista Circle,48098,42.5882133,-83.2024677
4879,Valley Vista Road,48098,42.5880709,-83.2054363
4851,Valley Vista Road,48098,42.5878600,-83.2043830
4821,Valley Vista Road,48098,42.5876123,-83.2037188
4820,Valley Vista Lane,48098,42.5877607,-83.2023980
4810,Valley Vista Lane,48098,42.5878238,-83.2016579
4732,White Oaks Drive,48098,42.5869504,-83.1959183
4727,White Oaks Court,48098,42.5868946,-83.1967147
4699,White Oaks Court,48098,42.5869488,-83.1974674
4713,White Oaks Court,48098,42.5869724,-83.1971314
4765,White Oaks Drive,48098,42.5872323,-83.1966367
4783,White Oaks Drive,48098,42.5874951,-83.1966849
4760,White Oaks Drive,48098,42.5872313,-83.1959336
2381,Hidden Pine Drive,48098,42.5876026,-83.1955370
2399,Hidden Pine Drive,48098,42.5875503,-83.1959521
2378,Hidden Pine Drive,48098,42.5881405,-83.1953716
4864,Deepwood Drive,48098,42.5885464,-83.1953620
4882,Deepwood Drive,48098,42.5888235,-83.1954879
4900,Deepwood Drive,48098,42.5891349,-83.1954557
4918,Deepwood Drive,48098,42.5894355,-83.1954657
4936,Deepwood Drive,48098,42.5897698,-83.1954503
4953,Moonglow Drive,48098,42.5900135,-83.1958123
4937,Moonglow Drive,48098,42.5897916,-83.1975114
4915,Moonglow Drive,48098,42.5892022,-83.1975073
4933,Moonglow Drive,48098,42.5894670,-83.1975067
4897,Moonglow Drive,48098,42.5889281,-83.1975020
4879,Moonglow Drive,48098,42.5886605,-83.1975073
4861,Moonglow Drive,48098,42.5884284,-83.1974612
4837,Moonglow Drive,48098,42.5881435,-83.1974379
4855,Deepwood Drive,48098,42.5883477,-83.1961293
4825,Deepwood Drive,48098,42.5881244,-83.1961177
4858,Moonglow Drive,48098,42.5883880,-83.1967450
4826,Moonglow Drive,48098,42.5881055,-83.1967380
4876,Moonglow Drive,48098,42.5886680,-83.1967593
4875,Deepwood Drive,48098,42.5886269,-83.1961825
4912,Moonglow Drive,48098,42.5891619,-83.1967426
4894,Moonglow Drive,48098,42.5888938,-83.1967862
4911,Deepwood Drive,48098,42.5891857,-83.1961816
4893,Deepwood Drive,48098,42.5889083,-83.1961836
4929,Deepwood Drive,48098,42.5894541,-83.1961702
4930,Moonglow Drive,48098,42.5894415,-83.1968039
4949,Moonglow Drive,48098,42.5900057,-83.1962344
4945,Moonglow Drive,48098,42.5899980,-83.1966633
4941,Moonglow Drive,48098,42.5900132,-83.1970858
4912,Oak River Drive,48098,42.5893191,-83.1922903
4964,Oak River Drive,48098,42.5901029,-83.1922631
4950,Oak River Drive,48098,42.5898973,-83.1922713
4926,Oak River Drive,48098,42.5896101,-83.1923436
2320,Deer Path Court,48098,42.5889143,-83.1941749
2319,Deer Path Court,48098,42.5882876,-83.1939433
2301,Deer Path Court,48098,42.5883514,-83.1935032
2283,Deer Path Court,48098,42.5884317,-83.1930763
2265,Deer Path Court,48098,42.5885703,-83.1926567
2302,Deer Path Court,48098,42.5889985,-83.1937691
2266,Deer Path Court,48098,42.5890696,-83.1929813
2284,Deer Path Court,48098,42.5890040,-83.1933415
2340,Oak River Court,48098,42.5899142,-83.1947974
2339,Oak River Court,48098,42.5895366,-83.1947857
2321,Oak River Court,48098,42.5893777,-83.1942527
2303,Oak River Court,48098,42.5895243,-83.1938464
2265,Oak River Court,48098,42.5894949,-83.1931086
2285,Oak River Court,48098,42.5895352,-83.1934288
2268,Oak River Court,48098,42.5900546,-83.1931407
2304,Oak River Court,48098,42.5900718,-83.1938960
2286,Oak River Court,48098,42.5900843,-83.1935400
2322,Oak River Court,48098,42.5900855,-83.1942781
4621,White Oaks Drive,48098,42.5852603,-83.1969135
2345,Hidden Pine Drive,48098,42.5874175,-83.1947448
2363,Hidden Pine Drive,48098,42.5875686,-83.1950922
2360,Hidden Pine Drive,48098,42.5880937,-83.1949747
2354,Hidden Pine Drive,48098,42.5879791,-83.1945791
2340,Hidden Pine Drive,48098,42.5878151,-83.1942452
2497,Tranquil Drive,48098,42.5852735,-83.1974012
4657,White Oaks Drive,48098,42.5860713,-83.1969557
2498,Tranquil Drive,48098,42.5858276,-83.1974259
4635,White Oaks Drive,48098,42.5858377,-83.1969755
4685,White Oaks Court,48098,42.5862561,-83.1974678
4671,White Oaks Court,48098,42.5864131,-83.1970027
4555,Odette Court,48098,42.5836030,-83.1972825
4541,Odette Court,48098,42.5833397,-83.1969848
4540,Odette Court,48098,42.5833726,-83.1964859
4554,Odette Court,48098,42.5837173,-83.1963631
4568,Odette Court,48098,42.5839940,-83.1965129
4582,Odette Court,48098,42.5842734,-83.1965341
4567,Odette Court,48098,42.5838938,-83.1972754
4575,Odette Court,48098,42.5841572,-83.1972777
4583,Odette Court,48098,42.5844678,-83.1972230
4591,Odette Court,48098,42.5847452,-83.1970532
4599,Odette Court,48098,42.5849860,-83.1968052
4573,White Oaks Drive,48098,42.5842921,-83.1959586
4559,White Oaks Drive,48098,42.5841695,-83.1956400
4598,White Oaks Drive,48098,42.5845040,-83.1963149
4600,White Oaks Drive,48098,42.5849449,-83.1959466
4614,White Oaks Drive,48098,42.5852555,-83.1960686
4628,White Oaks Drive,48098,42.5855496,-83.1961755
4642,White Oaks Drive,48098,42.5858154,-83.1962211
4658,White Oaks Drive,48098,42.5860893,-83.1962232
4676,White Oaks Drive,48098,42.5863664,-83.1961835
4700,White Oaks Drive,48098,42.5866264,-83.1960544
4558,Rivers Edge Drive,48098,42.5840040,-83.1949433
4541,Rivers Edge Drive,48098,42.5837992,-83.1958206
177,Wilshire Drive,48084,42.5636673,-83.1632185
3574,Delaware Drive,48084,42.5707140,-83.1663226
4897,Rivers Edge Drive,48098,42.5890419,-83.1917846
4949,Rivers Edge Drive,48098,42.5898696,-83.1915132
4963,Rivers Edge Drive,48098,42.5901451,-83.1916465
4962,Rivers Edge Drive,48098,42.5901665,-83.1906857
4948,Rivers Edge Drive,48098,42.5898805,-83.1907466
4927,Rivers Edge Drive,48098,42.5895991,-83.1915503
4934,Rivers Edge Drive,48098,42.5896004,-83.1907539
4920,Rivers Edge Drive,48098,42.5893271,-83.1908585
4906,Rivers Edge Drive,48098,42.5890797,-83.1910154
4913,Rivers Edge Drive,48098,42.5893249,-83.1916680
4892,Rivers Edge Drive,48098,42.5887859,-83.1911171
4857,Rivers Edge Drive,48098,42.5882979,-83.1922256
4871,Rivers Edge Drive,48098,42.5885373,-83.1920674
4878,Rivers Edge Drive,48098,42.5884894,-83.1912823
4850,Rivers Edge Drive,48098,42.5879634,-83.1915681
4864,Rivers Edge Drive,48098,42.5882240,-83.1914493
4821,Rivers Edge Drive,48098,42.5880158,-83.1925090
4836,Rivers Edge Drive,48098,42.5876838,-83.1918928
4822,Rivers Edge Drive,48098,42.5874946,-83.1922092
4787,Rivers Edge Drive,48098,42.5878753,-83.1933818
4773,Rivers Edge Drive,48098,42.5878319,-83.1938026
4797,Rivers Edge Drive,48098,42.5879482,-83.1929632
4808,Rivers Edge Drive,48098,42.5874247,-83.1926081
4794,Rivers Edge Drive,48098,42.5873538,-83.1930158
4780,Rivers Edge Drive,48098,42.5872748,-83.1934114
4766,Rivers Edge Drive,48098,42.5872152,-83.1938376
4752,Rivers Edge Drive,48098,42.5870465,-83.1941658
4739,Rivers Edge Drive,48098,42.5870990,-83.1950133
4738,Rivers Edge Drive,48098,42.5867925,-83.1943893
4727,Rivers Edge Drive,48098,42.5868646,-83.1951903
4720,Rivers Edge Drive,48098,42.5864900,-83.1946566
4702,Rivers Edge Drive,48098,42.5861921,-83.1948199
4713,Rivers Edge Drive,48098,42.5866434,-83.1954510
4705,Rivers Edge Drive,48098,42.5863622,-83.1955756
4697,Rivers Edge Drive,48098,42.5860698,-83.1955860
4679,Rivers Edge Drive,48098,42.5857914,-83.1955784
4684,Rivers Edge Drive,48098,42.5859281,-83.1948223
4666,Rivers Edge Drive,48098,42.5856549,-83.1948089
4661,Rivers Edge Drive,48098,42.5855167,-83.1955344
4647,Rivers Edge Drive,48098,42.5852255,-83.1954641
4648,Rivers Edge Drive,48098,42.5853723,-83.1947348
4630,Rivers Edge Drive,48098,42.5851156,-83.1946266
4605,Rivers Edge Drive,48098,42.5849523,-83.1953570
4559,Rivers Edge Drive,48098,42.5846594,-83.1953237
4612,Rivers Edge Drive,48098,42.5848254,-83.1945390
4594,Rivers Edge Drive,48098,42.5845237,-83.1945898
4576,Rivers Edge Drive,48098,42.5842412,-83.1947503
2725,Pine Hill Drive,48098,42.5795592,-83.2013230
2747,Pine Hill Drive,48098,42.5796039,-83.2019535
2775,Pine Hill Drive,48098,42.5796416,-83.2025685
2805,Pine Hill Drive,48098,42.5797223,-83.2031764
2835,Pine Hill Drive,48098,42.5797371,-83.2037571
2720,Pine Hill Drive,48098,42.5802757,-83.2012517
2740,Pine Hill Drive,48098,42.5801537,-83.2017157
2758,Pine Hill Drive,48098,42.5801917,-83.2021971
2778,Pine Hill Drive,48098,42.5802530,-83.2025966
2800,Pine Hill Drive,48098,42.5802564,-83.2030218
2822,Pine Hill Drive,48098,42.5803072,-83.2035192
2846,Pine Hill Drive,48098,42.5803696,-83.2039698
2874,Pine Hill Drive,48098,42.5804464,-83.2045848
2900,Pine Hill Drive,48098,42.5804024,-83.2050042
2922,Pine Hill Drive,48098,42.5804035,-83.2055189
2944,Pine Hill Drive,48098,42.5803796,-83.2060211
2966,Pine Hill Drive,48098,42.5803531,-83.2064960
2988,Pine Hill Drive,48098,42.5803245,-83.2069435
4061,Rouge Circle Drive,48098,42.5770321,-83.2024092
4074,Butternut Hill Drive,48098,42.5775630,-83.2027409
4100,Butternut Hill Drive,48098,42.5779373,-83.2029185
4120,Butternut Hill Drive,48098,42.5783044,-83.2031896
4142,Butternut Hill Drive,48098,42.5786440,-83.2035513
4166,Butternut Hill Drive,48098,42.5789723,-83.2039378
4188,Butternut Hill Drive,48098,42.5792510,-83.2043491
4204,Butternut Hill Drive,48098,42.5794592,-83.2047567
4222,Butternut Hill Drive,48098,42.5796751,-83.2051508
4250,Butternut Hill Drive,48098,42.5798499,-83.2055335
2999,Pine Hill Drive,48098,42.5797134,-83.2069050
4265,Butternut Hill Drive,48098,42.5795891,-83.2063237
4241,Butternut Hill Drive,48098,42.5794031,-83.2058896
4215,Butternut Hill Drive,48098,42.5791701,-83.2054701
4195,Butternut Hill Drive,48098,42.5789563,-83.2050182
4171,Butternut Hill Drive,48098,42.5786499,-83.2046003
4145,Butternut Hill Drive,48098,42.5784152,-83.2042598
4125,Butternut Hill Drive,48098,42.5780993,-83.2039456
4105,Butternut Hill Drive,48098,42.5777401,-83.2036504
477,Butternut Hill Drive,48098,42.5774180,-83.2034542
4055,Butternut Hill Drive,48098,42.5770456,-83.2032497
4031,Butternut Hill Drive,48098,42.5766605,-83.2031596
4011,Butternut Hill Drive,48098,42.5762540,-83.2030828
4138,Walnut Hill Drive,48098,42.5785228,-83.2055421
4120,Walnut Hill Drive,48098,42.5782277,-83.2051778
4100,Walnut Hill Drive,48098,42.5779670,-83.2048312
4090,Walnut Hill Drive,48098,42.5776453,-83.2045200
4080,Walnut Hill Drive,48098,42.5773102,-83.2042797
4054,Walnut Hill Drive,48098,42.5769915,-83.2040931
4030,Walnut Hill Drive,48098,42.5765914,-83.2039230
4010,Walnut Hill Drive,48098,42.5762151,-83.2038347
4021,Walnut Hill Drive,48098,42.5763422,-83.2047142
4053,Walnut Hill Drive,48098,42.5767544,-83.2048575
4085,Walnut Hill Drive,48098,42.5771466,-83.2049525
4099,Walnut Hill Drive,48098,42.5774478,-83.2052798
411,Walnut Hill Drive,48098,42.5777824,-83.2055706
4135,Walnut Hill Drive,48098,42.5780434,-83.2059861
4185,Walnut Hill Drive,48098,42.5783785,-83.2068012
4159,Walnut Hill Drive,48098,42.5782685,-83.2064254
4158,Walnut Hill Drive,48098,42.5787516,-83.2059687
4174,Walnut Hill Drive,48098,42.5788448,-83.2063699
4190,Walnut Hill Drive,48098,42.5789825,-83.2068929
4110,Chestnut Hill Drive,48098,42.5776158,-83.2068426
4096,Chestnut Hill Drive,48098,42.5773966,-83.2064850
4076,Chestnut Hill Drive,48098,42.5771399,-83.2061183
4056,Chestnut Hill Drive,48098,42.5768839,-83.2058909
4036,Chestnut Hill Drive,48098,42.5765506,-83.2057111
4016,Chestnut Hill Drive,48098,42.5761896,-83.2055076
4015,Chestnut Hill Drive,48098,42.5761578,-83.2063259
4045,Chestnut Hill Drive,48098,42.5765037,-83.2064679
4075,Chestnut Hill Drive,48098,42.5768033,-83.2066967
2705,Hylane Drive,48098,42.5810716,-83.2015993
2733,Hylane Drive,48098,42.5810728,-83.2020825
2765,Hylane Drive,48098,42.5811155,-83.2026683
2801,Hylane Drive,48098,42.5811003,-83.2031401
2825,Hylane Drive,48098,42.5811276,-83.2036995
2851,Hylane Drive,48098,42.5811205,-83.2042240
2875,Hylane Drive,48098,42.5810951,-83.2047822
2901,Hylane Drive,48098,42.5810616,-83.2052834
2925,Hylane Drive,48098,42.5810690,-83.2058661
2975,Hylane Drive,48098,42.5810073,-83.2068848
2951,Hylane Drive,48098,42.5810203,-83.2062901
2730,Hylane Drive,48098,42.5817907,-83.2018870
2748,Hylane Drive,48098,42.5817239,-83.2024597
2782,Hylane Drive,48098,42.5817270,-83.2030189
2818,Hylane Drive,48098,42.5817335,-83.2035897
2840,Hylane Drive,48098,42.5817381,-83.2041152
2900,Hylane Drive,48098,42.5817058,-83.2053872
2870,Hylane Drive,48098,42.5817288,-83.2047274
2976,Hylane Drive,48098,42.5815729,-83.2069137
2950,Hylane Drive,48098,42.5816296,-83.2064321
2926,Hylane Drive,48098,42.5816731,-83.2059028
4294,Rouge Circle Drive,48098,42.5803157,-83.2005752
4278,Rouge Circle Drive,48098,42.5800973,-83.2001745
4260,Rouge Circle Drive,48098,42.5797575,-83.2001666
4244,Rouge Circle Drive,48098,42.5794287,-83.2002672
4222,Rouge Circle Drive,48098,42.5790038,-83.2002523
4192,Rouge Circle Drive,48098,42.5786163,-83.2002397
4166,Rouge Circle Drive,48098,42.5781250,-83.2002139
4144,Rouge Circle Drive,48098,42.5777470,-83.2004192
4120,Rouge Circle Drive,48098,42.5772484,-83.2007028
4094,Rouge Circle Drive,48098,42.5769616,-83.2010652
4074,Rouge Circle Drive,48098,42.5766968,-83.2014913
4060,Rouge Circle Drive,48098,42.5765485,-83.2018861
4032,Rouge Circle Drive,48098,42.5764450,-83.2023174
2720,Juniper Court,48098,42.5789723,-83.2013020
2750,Juniper Court,48098,42.5790456,-83.2019045
2776,Juniper Court,48098,42.5789548,-83.2024795
2777,Juniper Court,48098,42.5784093,-83.2024409
2755,Juniper Court,48098,42.5783490,-83.2018989
2725,Juniper Court,48098,42.5783622,-83.2012058
4105,Rouge Circle Drive,48098,42.5774687,-83.2016237
4135,Rouge Circle Drive,48098,42.5779796,-83.2012781
2595,Tarragona Way,48098,42.5819207,-83.2003730
2583,Tarragona Way,48098,42.5815562,-83.2003368
2571,Tarragona Way,48098,42.5811912,-83.2003979
2559,Tarragona Way,48098,42.5809574,-83.1999903
2547,Tarragona Way,48098,42.5810682,-83.1994583
2535,Tarragona Way,48098,42.5811061,-83.1990060
2523,Tarragona Way,48098,42.5810960,-83.1985014
2511,Tarragona Way,48098,42.5811281,-83.1980015
2508,Tarragona Way,48098,42.5816352,-83.1980420
2520,Tarragona Way,48098,42.5816301,-83.1985053
2532,Tarragona Way,48098,42.5815945,-83.1989913
2580,Tarragona Way,48098,42.5815934,-83.1996669
2592,Tarragona Way,48098,42.5819006,-83.1996166
2597,Red Fox Trail Drive,48098,42.5822464,-83.1995929
2565,Red Fox Trail Drive,48098,42.5821213,-83.1989946
2541,Red Fox Trail Drive,48098,42.5821338,-83.1985350
2515,Red Fox Trail Drive,48098,42.5822053,-83.1980822
2611,Tarragona Way,48098,42.5823597,-83.2003416
2663,Red Fox Trail Drive,48098,42.5824035,-83.2007665
2695,Red Fox Trail Drive,48098,42.5824395,-83.2011725
2709,Red Fox Trail Drive,48098,42.5824216,-83.2018513
2729,Red Fox Trail Drive,48098,42.5824190,-83.2023154
2741,Red Fox Trail Drive,48098,42.5824016,-83.2027748
2759,Red Fox Trail Drive,48098,42.5824023,-83.2032263
2775,Red Fox Trail Drive,48098,42.5823939,-83.2036708
2512,Red Fox Trail Drive,48098,42.5826931,-83.1980690
2538,Red Fox Trail Drive,48098,42.5827154,-83.1985398
2564,Red Fox Trail Drive,48098,42.5826598,-83.1990050
2598,Red Fox Trail Drive,48098,42.5827470,-83.1994298
2620,Red Fox Trail Drive,48098,42.5828636,-83.1998551
2642,Red Fox Trail Drive,48098,42.5829528,-83.2003275
2664,Red Fox Trail Drive,48098,42.5829259,-83.2007958
2696,Red Fox Trail Drive,48098,42.5829650,-83.2012389
2704,Red Fox Trail Drive,48098,42.5829230,-83.2016948
2718,Red Fox Trail Drive,48098,42.5829239,-83.2021628
2734,Red Fox Trail Drive,48098,42.5829116,-83.2025541
2750,Red Fox Trail Drive,48098,42.5829100,-83.2030414
2794,Red Fox Trail Drive,48098,42.5829523,-83.2034883
2818,Red Fox Trail Drive,48098,42.5834098,-83.2035072
2801,Timberwyck Trail Drive,48098,42.5835740,-83.2030502
2783,Timberwyck Trail Drive,48098,42.5835724,-83.2026314
2761,Timberwyck Trail Drive,48098,42.5835408,-83.2021449
2743,Timberwyck Trail Drive,48098,42.5835666,-83.2017376
2721,Timberwyck Trail Drive,48098,42.5835883,-83.2012807
2685,Timberwyck Trail Drive,48098,42.5835659,-83.2008218
2667,Timberwyck Trail Drive,48098,42.5835840,-83.2003983
2607,Timberwyck Trail Drive,48098,42.5834433,-83.1999479
2587,Timberwyck Trail Drive,48098,42.5833144,-83.1995134
2565,Timberwyck Trail Drive,48098,42.5831974,-83.1990145
2541,Timberwyck Trail Drive,48098,42.5831560,-83.1986120
2525,Timberwyck Trail Drive,48098,42.5832894,-83.1981391
2524,Timberwyck Trail Drive,48098,42.5837128,-83.1981665
2540,Timberwyck Trail Drive,48098,42.5838309,-83.1986616
2572,Timberwyck Trail Drive,48098,42.5837762,-83.1991321
2610,Timberwyck Trail Drive,48098,42.5839112,-83.1996522
2595,Black Pine Trail Drive,48098,42.5842609,-83.1995383
2539,Black Pine Trail Drive,48098,42.5842957,-83.1985911
2561,Black Pine Trail Drive,48098,42.5842933,-83.1990300
2515,Black Pine Trail Drive,48098,42.5843081,-83.1981431
2516,Black Pine Trail Drive,48098,42.5848174,-83.1981621
2538,Black Pine Trail Drive,48098,42.5848149,-83.1986092
2560,Black Pine Trail Drive,48098,42.5848149,-83.1990416
2582,Black Pine Trail Drive,48098,42.5848007,-83.1994076
2600,Black Pine Trail Drive,48098,42.5848811,-83.1998716
2610,Black Pine Trail Drive,48098,42.5847025,-83.2003177
2620,Black Pine Trail Drive,48098,42.5844140,-83.2004343
2642,Timberwyck Trail Drive,48098,42.5841067,-83.2005286
2710,Timberwyck Trail Drive,48098,42.5840989,-83.2011076
2732,Timberwyck Trail Drive,48098,42.5840927,-83.2015402
2772,Timberwyck Trail Drive,48098,42.5840710,-83.2024106
2750,Timberwyck Trail Drive,48098,42.5840885,-83.2020052
2794,Timberwyck Trail Drive,48098,42.5840781,-83.2028977
2808,Timberwyck Trail Drive,48098,42.5840575,-83.2033240
2832,Timberwyck Trail Drive,48098,42.5840861,-83.2037611
2856,Timberwyck Trail Drive,48098,42.5841671,-83.2042152
2880,Timberwyck Trail Drive,48098,42.5841758,-83.2048271
2906,Timberwyck Trail Drive,48098,42.5841695,-83.2054022
2934,Timberwyck Trail Drive,48098,42.5841579,-83.2059626
2960,Timberwyck Trail Drive,48098,42.5841351,-83.2065149
2984,Timberwyck Trail Drive,48098,42.5841158,-83.2070304
901,Wilshire Drive,48084,42.5638712,-83.1652342
2508,Oxford Drive,48084,42.5742651,-83.1973763
2526,Oxford Drive,48084,42.5742161,-83.1977727
2544,Oxford Drive,48084,42.5742109,-83.1981614
2552,Oxford Drive,48084,42.5741930,-83.1985399
2580,Oxford Drive,48084,42.5741941,-83.1989021
2600,Oxford Drive,48084,42.5742189,-83.1992972
2610,Oxford Drive,48084,42.5741534,-83.1996683
2620,Oxford Drive,48084,42.5741802,-83.2000889
2650,Oxford Drive,48084,42.5742291,-83.2006310
2961,Binbrooke Drive,48084,42.5744154,-83.2011239
2951,Binbrooke Drive,48084,42.5746415,-83.2006033
2625,Binbrooke Drive,48084,42.5746627,-83.2002304
2509,Binbrooke Drive,48084,42.5747492,-83.1976362
2605,Binbrooke Drive,48084,42.5746922,-83.1997842
2587,Binbrooke Drive,48084,42.5747028,-83.1993532
2567,Binbrooke Drive,48084,42.5746946,-83.1989537
2529,Binbrooke Drive,48084,42.5747068,-83.1980493
2549,Binbrooke Drive,48084,42.5746996,-83.1985352
3775,Kent Drive,48084,42.5725188,-83.2046912
2900,Townhill Drive,48084,42.5720941,-83.2047149
2940,Townhill Drive,48084,42.5720903,-83.2055337
2920,Townhill Drive,48084,42.5720812,-83.2050931
2960,Townhill Drive,48084,42.5720681,-83.2060115
2980,Townhill Drive,48084,42.5720247,-83.2064874
3730,Adams Road,48084,42.5723707,-83.2064978
2971,Binbrooke Drive,48084,42.5728568,-83.2065288
3801,Kent Drive,48084,42.5728746,-83.2047534
3825,Kent Drive,48084,42.5732088,-83.2047794
2935,Binbrooke Drive,48084,42.5729704,-83.2054035
2945,Binbrooke Drive,48084,42.5729197,-83.2060895
2625,West Wattles Road,48084,42.5756536,-83.1995254
2653,West Wattles Road,48084,42.5756422,-83.1999852
2511,West Wattles Road,48084,42.5756971,-83.1977332
2601,West Wattles Road,48084,42.5756693,-83.1990492
2551,West Wattles Road,48084,42.5756758,-83.1986273
2537,West Wattles Road,48084,42.5756916,-83.1981340
2510,Binbrooke Drive,48084,42.5752394,-83.1976595
2530,Binbrooke Drive,48084,42.5752064,-83.1981099
2550,Binbrooke Drive,48084,42.5751807,-83.1985563
2570,Binbrooke Drive,48084,42.5751993,-83.1990234
2590,Binbrooke Drive,48084,42.5751832,-83.1995049
2610,Binbrooke Drive,48084,42.5751925,-83.1999556
2630,Binbrooke Drive,48084,42.5751525,-83.2004015
2650,Binbrooke Drive,48084,42.5751146,-83.2007634
2670,Binbrooke Drive,48084,42.5750150,-83.2011912
2690,Binbrooke Drive,48084,42.5747883,-83.2016019
2710,Binbrooke Drive,48084,42.5746733,-83.2019488
2730,Binbrooke Drive,48084,42.5744027,-83.2021513
2750,Binbrooke Drive,48084,42.5742710,-83.2025946
2760,Binbrooke Drive,48084,42.5741821,-83.2029504
2770,Binbrooke Drive,48084,42.5740648,-83.2033222
2800,Binbrooke Drive,48084,42.5740393,-83.2037509
2844,Binbrooke Drive,48084,42.5739485,-83.2041581
2866,Binbrooke Drive,48084,42.5738477,-83.2045465
2888,Binbrooke Drive,48084,42.5738106,-83.2049267
2910,Binbrooke Drive,48084,42.5737295,-83.2052834
2930,Binbrooke Drive,48084,42.5736654,-83.2056496
2940,Binbrooke Drive,48084,42.5736440,-83.2060252
2970,Binbrooke Drive,48084,42.5734037,-83.2064845
3880,Adams Road,48084,42.5739334,-83.2066498
2701,West Wattles Road,48084,42.5756059,-83.2010241
2731,West Wattles Road,48084,42.5756012,-83.2014250
2779,West Wattles Road,48084,42.5755711,-83.2021973
2801,West Wattles Road,48084,42.5755708,-83.2025650
2825,West Wattles Road,48084,42.5755501,-83.2029147
2849,West Wattles Road,48084,42.5755630,-83.2032769
2875,West Wattles Road,48084,42.5755164,-83.2036368
2897,West Wattles Road,48084,42.5754811,-83.2040128
3920,Chestnut Hill Court,48084,42.5748436,-83.2051618
3940,Chestnut Hill Court,48084,42.5751927,-83.2055437
2919,West Wattles Road,48084,42.5755203,-83.2043962
2941,West Wattles Road,48084,42.5754966,-83.2047712
2963,West Wattles Road,48084,42.5755277,-83.2051175
3960,Chestnut Hill Court,48084,42.5755295,-83.2055450
3965,Chestnut Hill Court,48084,42.5755180,-83.2062151
3941,Chestnut Hill Court,48084,42.5751619,-83.2061795
3921,Chestnut Hill Court,48084,42.5748850,-83.2060855
3901,Chestnut Hill Court,48084,42.5745718,-83.2059150
3900,Adams Road,48084,42.5744379,-83.2067031
3940,Adams Road,48084,42.5750943,-83.2067113
3920,Adams Road,48084,42.5747693,-83.2066899
3980,Adams Road,48084,42.5754251,-83.2067057
1976,Warbler Court,48084,42.5756483,-83.1868966
1977,Warbler Court,48084,42.5753682,-83.1869325
1961,Warbler Court,48084,42.5752044,-83.1866351
1897,Warbler Court,48084,42.5753323,-83.1856390
1945,Warbler Court,48084,42.5752236,-83.1862617
1929,Warbler Court,48084,42.5753272,-83.1859822
1960,Warbler Court,48084,42.5758317,-83.1866021
1944,Warbler Court,48084,42.5758471,-83.1862155
1928,Warbler Court,48084,42.5758531,-83.1858886
1912,Warbler Court,48084,42.5758584,-83.1855446
1896,Warbler Court,48084,42.5758019,-83.1851960
1880,Warbler Court,48084,42.5756993,-83.1848970
1864,Warbler Court,48084,42.5755322,-83.1846170
1872,Chatham Drive,48084,42.5751432,-83.1851329
1894,Chatham Drive,48084,42.5750075,-83.1853897
1912,Chatham Drive,48084,42.5748861,-83.1857246
1930,Chatham Drive,48084,42.5747675,-83.1860314
1948,Chatham Drive,48084,42.5747485,-83.1863962
1964,Chatham Drive,48084,42.5747334,-83.1867283
1980,Chatham Drive,48084,42.5747180,-83.1870493
1835,Chatham Drive,48084,42.5751082,-83.1841506
1851,Chatham Drive,48084,42.5749067,-83.1844074
1867,Chatham Drive,48084,42.5747787,-83.1846915
1883,Chatham Drive,48084,42.5746243,-83.1849334
1899,Chatham Drive,48084,42.5744334,-83.1852932
1915,Chatham Drive,48084,42.5743411,-83.1856340
1931,Chatham Drive,48084,42.5742736,-83.1859885
1947,Chatham Drive,48084,42.5742312,-83.1863436
1963,Chatham Drive,48084,42.5742226,-83.1866739
1979,Chatham Drive,48084,42.5742162,-83.1870109
1681,Chatham Drive,48084,42.5732486,-83.1820297
1676,Chatham Drive,48084,42.5725093,-83.1818463
1783,Lark Drive,48084,42.5725914,-83.1822126
1791,Lark Drive,48084,42.5727927,-83.1824621
1803,Lark Drive,48084,42.5729160,-83.1826863
1821,Lark Drive,48084,42.5730861,-83.1829643
1803,Chatham Drive,48084,42.5753338,-83.1834599
3928,Edgemont Drive,48084,42.5749871,-83.1829470
3896,Edgemont Drive,48084,42.5747853,-83.1826812
3878,Edgemont Drive,48084,42.5745523,-83.1825137
3860,Edgemont Drive,48084,42.5742965,-83.1824105
3826,Edgemont Drive,48084,42.5737819,-83.1824601
3939,Edgemont Drive,48084,42.5748371,-83.1837684
3915,Edgemont Drive,48084,42.5746535,-83.1835215
3897,Edgemont Drive,48084,42.5744554,-83.1832119
3859,Edgemont Drive,48084,42.5742337,-83.1831086
3831,Edgemont Drive,48084,42.5739686,-83.1831309
3803,Edgemont Drive,48084,42.5737182,-83.1832409
3781,Edgemont Drive,48084,42.5735023,-83.1834192
3767,Edgemont Drive,48084,42.5733136,-83.1836435
1879,Pelican Court,48084,42.5737143,-83.1842756
1865,Pelican Court,48084,42.5738309,-83.1838919
1833,Pelican Court,48084,42.5741106,-83.1837051
1832,Pelican Court,48084,42.5743436,-83.1838748
1848,Pelican Court,48084,42.5744131,-83.1842853
1864,Pelican Court,48084,42.5742676,-83.1845713
1880,Pelican Court,48084,42.5740663,-83.1847961
1896,Pelican Court,48084,42.5738958,-83.1850429
1912,Pelican Court,48084,42.5737714,-83.1853419
1918,Pelican Court,48084,42.5737108,-83.1856789
1966,Pelican Court,48084,42.5736679,-83.1866866
1950,Pelican Court,48084,42.5736658,-83.1863513
1934,Pelican Court,48084,42.5736663,-83.1860204
1982,Pelican Court,48084,42.5737302,-83.1870278
1983,Pelican Court,48084,42.5730618,-83.1869933
1965,Pelican Court,48084,42.5731346,-83.1866496
1949,Pelican Court,48084,42.5731452,-83.1863192
1933,Pelican Court,48084,42.5731345,-83.1859949
1917,Pelican Court,48084,42.5732005,-83.1856466
1901,Pelican Court,48084,42.5731887,-83.1852830
1870,Parrot Drive,48084,42.5733312,-83.1843095
3755,Edgemont Drive,48084,42.5731118,-83.1839399
1886,Parrot Drive,48084,42.5734887,-83.1845952
1877,Parrot Drive,48084,42.5730174,-83.1848510
1853,Parrot Drive,48084,42.5727378,-83.1844013
1824,Parrot Drive,48084,42.5727382,-83.1833814
1816,Parrot Drive,48084,42.5725442,-83.1831067
1800,Parrot Drive,48084,42.5723969,-83.1828227
1784,Parrot Drive,48084,42.5722241,-83.1825309
3730,Balfour Drive,48084,42.5719841,-83.1825168
3714,Balfour Drive,48084,42.5717235,-83.1827696
3698,Balfour Drive,48084,42.5715602,-83.1830485
3680,Balfour Drive,48084,42.5713705,-83.1832603
3652,Balfour Drive,48084,42.5711874,-83.1834776
3634,Balfour Drive,48084,42.5710053,-83.1836588
3616,Balfour Drive,48084,42.5707730,-83.1837764
3598,Balfour Drive,48084,42.5704882,-83.1838302
3572,Balfour Drive,48084,42.5702461,-83.1838054
3556,Balfour Drive,48084,42.5700081,-83.1837948
3551,Balfour Drive,48084,42.5698627,-83.1844628
3567,Balfour Drive,48084,42.5701234,-83.1844761
3583,Balfour Drive,48084,42.5703880,-83.1845025
3601,Balfour Drive,48084,42.5706547,-83.1845385
3617,Balfour Drive,48084,42.5709259,-83.1844229
3633,Balfour Drive,48084,42.5712042,-83.1843114
3649,Balfour Drive,48084,42.5714509,-83.1840767
3665,Balfour Drive,48084,42.5716313,-83.1838541
3683,Balfour Drive,48084,42.5718297,-83.1836277
3705,Balfour Drive,48084,42.5720374,-83.1833914
3728,Edgemont Drive,48084,42.5723402,-83.1838799
3712,Edgemont Drive,48084,42.5721853,-83.1840881
3696,Edgemont Drive,48084,42.5719964,-83.1843056
3680,Edgemont Drive,48084,42.5717781,-83.1845227
3664,Edgemont Drive,48084,42.5715702,-83.1847422
3648,Edgemont Drive,48084,42.5713437,-83.1849037
3632,Edgemont Drive,48084,42.5711024,-83.1850301
3616,Edgemont Drive,48084,42.5708544,-83.1851099
3600,Edgemont Drive,48084,42.5705639,-83.1851317
3584,Edgemont Drive,48084,42.5703084,-83.1851358
3568,Edgemont Drive,48084,42.5700622,-83.1851187
3552,Edgemont Drive,48084,42.5698529,-83.1851103
1902,Condor Drive,48084,42.5724051,-83.1847535
1910,Condor Drive,48084,42.5725446,-83.1851357
1901,Condor Drive,48084,42.5720460,-83.1852215
1917,Condor Drive,48084,42.5721299,-83.1855855
1918,Condor Drive,48084,42.5726097,-83.1854905
1926,Condor Drive,48084,42.5726307,-83.1858929
1980,Condor Drive,48084,42.5726708,-83.1869626
1942,Condor Drive,48084,42.5726137,-83.1862491
1964,Condor Drive,48084,42.5726434,-83.1866272
1933,Condor Drive,48084,42.5721229,-83.1859455
1949,Condor Drive,48084,42.5721195,-83.1862706
1965,Condor Drive,48084,42.5720858,-83.1866123
1981,Condor Drive,48084,42.5720732,-83.1869458
1962,Canary Court,48084,42.5716213,-83.1865841
1976,Canary Court,48084,42.5716532,-83.1869230
1946,Canary Court,48084,42.5715839,-83.1862819
1938,Canary Court,48084,42.5715944,-83.1859489
3655,Edgemont Drive,48084,42.5716259,-83.1854929
1931,Canary Court,48084,42.5710356,-83.1858456
1977,Canary Court,48084,42.5710128,-83.1868858
1965,Canary Court,48084,42.5710492,-83.1865691
1949,Canary Court,48084,42.5710692,-83.1862397
1978,Sparrow Court,48084,42.5706074,-83.1868746
1979,Sparrow Court,48084,42.5699421,-83.1868549
1947,Sparrow Court,48084,42.5700299,-83.1862115
1930,Sparrow Court,48084,42.5705602,-83.1858795
1946,Sparrow Court,48084,42.5705555,-83.1862135
1962,Sparrow Court,48084,42.5705615,-83.1865432
1927,Sparrow Court,48084,42.5700343,-83.1858652
1963,Sparrow Court,48084,42.5700151,-83.1865386
1850,Kristin Drive,48084,42.5696146,-83.1837451
3535,Balfour Drive,48084,42.5696123,-83.1844545
3536,Edgemont Drive,48084,42.5695923,-83.1851092
1928,Kristin Drive,48084,42.5695654,-83.1858399
1948,Kristin Drive,48084,42.5695419,-83.1861404
1964,Kristin Drive,48084,42.5695161,-83.1864985
1980,Kristin Drive,48084,42.5695084,-83.1868300
3796,Burkoff Drive,48084,42.5730613,-83.1799076
3778,Burkoff Drive,48084,42.5728211,-83.1800818
3760,Burkoff Drive,48084,42.5725663,-83.1802557
3740,Burkoff Drive,48084,42.5722946,-83.1803561
3714,Burkoff Drive,48084,42.5720126,-83.1803781
3713,Burkoff Drive,48084,42.5719922,-83.1810823
3729,Burkoff Drive,48084,42.5722753,-83.1811045
3745,Burkoff Drive,48084,42.5725260,-83.1809569
3761,Burkoff Drive,48084,42.5727756,-83.1808670
3777,Burkoff Drive,48084,42.5729986,-83.1807203
3793,Burkoff Drive,48084,42.5732122,-83.1805711
3809,Burkoff Drive,48084,42.5734353,-83.1804406
3825,Burkoff Drive,48084,42.5737176,-83.1804281
3843,Burkoff Drive,48084,42.5739909,-83.1804432
3859,Burkoff Drive,48084,42.5742568,-83.1804272
3875,Burkoff Drive,48084,42.5744869,-83.1804487
3842,Burkoff Drive,48084,42.5739638,-83.1797916
3858,Burkoff Drive,48084,42.5742491,-83.1797821
3874,Burkoff Drive,48084,42.5744830,-83.1798063
1561,Martinique Drive,48084,42.5743166,-83.1783624
1573,Martinique Drive,48084,42.5744088,-83.1786618
1585,Martinique Drive,48084,42.5745221,-83.1789713
1615,Martinique Drive,48084,42.5745108,-83.1793288
1576,Martinique Drive,48084,42.5750056,-83.1786945
1680,Martinique Drive,48084,42.5750065,-83.1811166
1562,Martinique Drive,48084,42.5749995,-83.1783633
1590,Martinique Drive,48084,42.5750192,-83.1789909
1612,Martinique Drive,48084,42.5750094,-83.1793423
1630,Martinique Drive,48084,42.5750034,-83.1796682
1638,Martinique Drive,48084,42.5750173,-83.1799840
1646,Martinique Drive,48084,42.5750192,-83.1803325
1662,Martinique Drive,48084,42.5750034,-83.1806874
1701,Caliper Drive,48084,42.5754326,-83.1814175
1647,Caliper Drive,48084,42.5754686,-83.1804117
1663,Caliper Drive,48084,42.5754639,-83.1807522
1677,Caliper Drive,48084,42.5754409,-83.1810941
1639,Caliper Drive,48084,42.5754862,-83.1800559
1631,Caliper Drive,48084,42.5754969,-83.1797375
1613,Caliper Drive,48084,42.5755005,-83.1793936
1591,Caliper Drive,48084,42.5754864,-83.1790558
1577,Caliper Drive,48084,42.5754704,-83.1787173
1561,Caliper Drive,48084,42.5754056,-83.1783755
1596,Caliper Drive,48084,42.5760219,-83.1790921
1560,Caliper Drive,48084,42.5760833,-83.1783822
1578,Caliper Drive,48084,42.5760143,-83.1787449
1614,Caliper Drive,48084,42.5759970,-83.1794714
1632,Caliper Drive,48084,42.5760016,-83.1797978
1640,Caliper Drive,48084,42.5759968,-83.1801945
1676,Caliper Drive,48084,42.5759847,-83.1810960
1694,Caliper Drive,48084,42.5759459,-83.1814419
1712,Caliper Drive,48084,42.5759259,-83.1817517
1730,Chatham Drive,48084,42.5758840,-83.1820989
1748,Chatham Drive,48084,42.5759280,-83.1824741
1766,Chatham Drive,48084,42.5759221,-83.1827731
1784,Chatham Drive,48084,42.5759130,-83.1831129
1802,Chatham Drive,48084,42.5759080,-83.1834644
1818,Chatham Drive,48084,42.5758151,-83.1838488
1826,Chatham Drive,48084,42.5757073,-83.1841755
1779,Chatham Drive,48084,42.5754156,-83.1830287
1755,Chatham Drive,48084,42.5754041,-83.1826973
1737,Chatham Drive,48084,42.5753570,-83.1823655
1731,Chatham Drive,48084,42.5751614,-83.1820896
1725,Chatham Drive,48084,42.5749663,-83.1819211
1719,Chatham Drive,48084,42.5747242,-83.1818320
1695,Chatham Drive,48084,42.5737216,-83.1817804
1689,Chatham Drive,48084,42.5734900,-83.1818830
1707,Chatham Drive,48084,42.5742350,-83.1817899
1713,Chatham Drive,48084,42.5744823,-83.1817900
1701,Chatham Drive,48084,42.5739847,-83.1817846
1712,Chatham Drive,48084,42.5744756,-83.1810821
1706,Chatham Drive,48084,42.5742109,-83.1810900
1700,Chatham Drive,48084,42.5739802,-83.1810786
1696,Chatham Drive,48084,42.5737011,-83.1810609
1690,Chatham Drive,48084,42.5734536,-83.1811779
1684,Chatham Drive,48084,42.5732261,-83.1812951
1680,Chatham Drive,48084,42.5730203,-83.1813964
1678,Chatham Drive,48084,42.5727799,-83.1814825
1616,Cranbrook Drive,48084,42.5739743,-83.1793124
1590,Cranbrook Drive,48084,42.5740021,-83.1789452
1570,Cranbrook Drive,48084,42.5739006,-83.1786556
1601,Cranbrook Drive,48084,42.5734238,-83.1793459
1633,Cranbrook Drive,48084,42.5734193,-83.1797295
1692,Ross Drive,48084,42.5720835,-83.1816144
1710,Ross Drive,48084,42.5719088,-83.1819319
1711,Ross Drive,48084,42.5715799,-83.1819775
1693,Ross Drive,48084,42.5713834,-83.1816477
1667,Ross Drive,48084,42.5714667,-83.1806739
1685,Ross Drive,48084,42.5714181,-83.1813387
1651,Ross Drive,48084,42.5714756,-83.1803391
1675,Ross Drive,48084,42.5714447,-83.1810029
3951,Boulder Drive,48084,42.5754102,-83.1881238
3937,Boulder Drive,48084,42.5754028,-83.1884950
3929,Boulder Drive,48084,42.5753934,-83.1888704
3923,Boulder Drive,48084,42.5753838,-83.1892295
3915,Boulder Drive,48084,42.5752796,-83.1895812
3911,Boulder Drive,48084,42.5751124,-83.1899161
3916,Sunset Drive,48084,42.5748555,-83.1902970
3932,Sunset Drive,48084,42.5750756,-83.1905602
3948,Sunset Drive,48084,42.5752877,-83.1908144
3962,Estates Drive,48084,42.5755987,-83.1908248
3974,Estates Drive,48084,42.5758159,-83.1908362
2155,West Wattles Road,48084,42.5758618,-83.1902813
2133,West Wattles Road,48084,42.5758731,-83.1899092
2109,West Wattles Road,48084,42.5758826,-83.1895353
2091,West Wattles Road,48084,42.5758885,-83.1891619
2069,West Wattles Road,48084,42.5758973,-83.1887919
2047,West Wattles Road,48084,42.5759097,-83.1884206
2025,West Wattles Road,48084,42.5759148,-83.1880542
3780,Boulder Drive,48084,42.5721360,-83.1906327
3762,Boulder Drive,48084,42.5717811,-83.1901941
3774,Boulder Drive,48084,42.5719558,-83.1904211
3728,Boulder Drive,48084,42.5714685,-83.1896641
3750,Boulder Drive,48084,42.5715929,-83.1899847
3755,Ledge Court,48084,42.5719956,-83.1895777
3759,Ledge Court,48084,42.5721739,-83.1899021
3763,Ledge Court,48084,42.5724535,-83.1899104
3767,Ledge Court,48084,42.5726610,-83.1895799
3715,Ledge Drive,48084,42.5714575,-83.1891686
3727,Ledge Drive,48084,42.5717375,-83.1891873
3745,Ledge Court,48084,42.5720462,-83.1892356
3771,Ledge Court,48084,42.5725897,-83.1892558
3815,Ledge Drive,48084,42.5729443,-83.1892517
2109,Joanne Drive,48084,42.5733891,-83.1894421
2141,Joanne Drive,48084,42.5730478,-83.1899463
2125,Joanne Drive,48084,42.5732340,-83.1896830
2157,Joanne Drive,48084,42.5728841,-83.1901842
2173,Joanne Drive,48084,42.5727364,-83.1904275
2185,Joanne Drive,48084,42.5725602,-83.1906913
2199,Joanne Drive,48084,42.5724067,-83.1909616
3753,Boulder Drive,48084,42.5712456,-83.1904561
3741,Boulder Drive,48084,42.5710887,-83.1901707
3655,Boulder Drive,48084,42.5709477,-83.1878564
3679,Boulder Drive,48084,42.5709471,-83.1885142
3729,Boulder Drive,48084,42.5709832,-83.1898401
3870,Ledge Drive,48084,42.5737295,-83.1889083
3852,Ledge Drive,48084,42.5735668,-83.1887520
3834,Ledge Drive,48084,42.5733291,-83.1885575
3745,Coolidge Highway,48084,42.5720706,-83.1878677
3761,Coolidge Highway,48084,42.5723176,-83.1878771
3816,Ledge Drive,48084,42.5730446,-83.1885783
3798,Ledge Drive,48084,42.5728288,-83.1885543
3782,Ledge Drive,48084,42.5725579,-83.1885425
3766,Ledge Drive,48084,42.5722990,-83.1885386
3748,Ledge Drive,48084,42.5720599,-83.1885218
3730,Ledge Drive,48084,42.5718274,-83.1884752
3678,Boulder Drive,48084,42.5714382,-83.1884672
3666,Boulder Drive,48084,42.5714524,-83.1881493
3654,Boulder Drive,48084,42.5714599,-83.1878623
3729,Coolidge Highway,48084,42.5718191,-83.1878597
3777,Coolidge Highway,48084,42.5725500,-83.1878959
3847,Coolidge Highway,48084,42.5735472,-83.1879267
3793,Coolidge Highway,48084,42.5727984,-83.1878956
3811,Coolidge Highway,48084,42.5730616,-83.1878972
3829,Coolidge Highway,48084,42.5733013,-83.1878918
2019,Joanne Drive,48084,42.5739329,-83.1879701
2035,Joanne Drive,48084,42.5739371,-83.1883094
3880,Boulder Drive,48084,42.5739631,-83.1905994
2092,Joanne Drive,48084,42.5740418,-83.1895977
2136,Joanne Drive,48084,42.5735160,-83.1903087
3952,Boulder Drive,48084,42.5749003,-83.1880022
2012,Joanne Drive,48084,42.5744353,-83.1880110
2028,Joanne Drive,48084,42.5744048,-83.1883377
2044,Joanne Drive,48084,42.5744142,-83.1886458
2060,Joanne Drive,48084,42.5743140,-83.1890245
2076,Joanne Drive,48084,42.5741733,-83.1893131
2106,Joanne Drive,48084,42.5738372,-83.1898040
2122,Joanne Drive,48084,42.5736773,-83.1900487
2150,Joanne Drive,48084,42.5733386,-83.1905487
2166,Joanne Drive,48084,42.5731834,-83.1908007
2182,Joanne Drive,48084,42.5730194,-83.1910486
3806,Boulder Drive,48084,42.5727833,-83.1914283
3820,Boulder Drive,48084,42.5730178,-83.1916549
3842,Boulder Drive,48084,42.5732890,-83.1916024
3856,Boulder Drive,48084,42.5734872,-83.1913723
3864,Boulder Drive,48084,42.5736244,-83.1910982
3872,Boulder Drive,48084,42.5738095,-83.1908337
3888,Boulder Drive,48084,42.5741131,-83.1903327
3896,Boulder Drive,48084,42.5743120,-83.1901190
3904,Boulder Drive,48084,42.5744995,-83.1898693
3910,Boulder Drive,48084,42.5746308,-83.1896406
3914,Boulder Drive,48084,42.5748077,-83.1893386
3928,Boulder Drive,48084,42.5748936,-83.1889977
3936,Boulder Drive,48084,42.5749063,-83.1886526
3944,Boulder Drive,48084,42.5749146,-83.1883222
1433,West Wattles Road,48084,42.5761040,-83.1767428
2411,Hampton Lane,48084,42.5642105,-83.1972550
2433,Hampton Lane,48084,42.5642610,-83.1976506
2455,Hampton Lane,48084,42.5642052,-83.1980053
3163,Kingsley Drive,48084,42.5638404,-83.1970877
3145,Kingsley Drive,48084,42.5637876,-83.1975054
3152,Caswell Drive,48084,42.5638646,-83.1979479
3130,Caswell Drive,48084,42.5636001,-83.1979946
3121,Kingsley Drive,48084,42.5633277,-83.1978843
3142,Kingsley Drive,48084,42.5631219,-83.1971025
3118,Kingsley Drive,48084,42.5629350,-83.1975544
3084,Caswell Drive,48084,42.5626365,-83.1973623
3070,Caswell Drive,48084,42.5623846,-83.1972051
3056,Caswell Drive,48084,42.5620914,-83.1971896
3042,Caswell Drive,48084,42.5618193,-83.1971863
3028,Caswell Drive,48084,42.5615401,-83.1971722
3014,Caswell Drive,48084,42.5612701,-83.1971693
3560,West Big Beaver Road,48084,42.5611661,-83.1979872
3039,Caswell Drive,48084,42.5617267,-83.1978271
3025,Caswell Drive,48084,42.5614410,-83.1978271
3055,Caswell Drive,48084,42.5620162,-83.1978491
3077,Caswell Drive,48084,42.5623277,-83.1978926
3097,Caswell Drive,48084,42.5625847,-83.1980676
3062,Kingsley Drive,48084,42.5624212,-83.1984413
3099,Caswell Drive,48084,42.5630644,-83.1985032
3075,Kingsley Drive,48084,42.5630192,-83.1990059
3063,Kingsley Drive,48084,42.5627266,-83.1991686
3051,Kingsley Drive,48084,42.5624302,-83.1991435
3030,Kingsley Drive,48084,42.5618568,-83.1984383
3023,Kingsley Drive,48084,42.5615745,-83.1991155
3031,Kingsley Drive,48084,42.5618494,-83.1991501
3043,Kingsley Drive,48084,42.5621390,-83.1991199
3042,Kingsley Drive,48084,42.5621550,-83.1984396
3022,Kingsley Drive,48084,42.5615860,-83.1984193
3012,Kingsley Drive,48084,42.5612252,-83.1985433
3011,Kingsley Drive,48084,42.5612723,-83.1992125
3640,West Big Beaver Road,48084,42.5612969,-83.1997071
3650,West Big Beaver Road,48084,42.5613078,-83.2002026
3670,West Big Beaver Road,48084,42.5612594,-83.2008351
3680,West Big Beaver Road,48084,42.5613421,-83.2013884
2317,Chelsea Court,48084,42.5661130,-83.1952042
2331,Chelsea Court,48084,42.5658354,-83.1952493
2345,Chelsea Court,48084,42.5656807,-83.1955322
2359,Chelsea Court,48084,42.5656190,-83.1958316
2373,Chelsea Court,48084,42.5655101,-83.1960943
2387,Chelsea Court,48084,42.5653652,-83.1963301
2401,Chelsea Court,48084,42.5653429,-83.1966872
2392,Hampton Lane,48084,42.5647986,-83.1966762
2386,Hampton Lane,48084,42.5649477,-83.1963444
2372,Hampton Lane,48084,42.5648877,-83.1960027
3180,Newport Court,48084,42.5646224,-83.1958570
3156,Newport Court,48084,42.5641559,-83.1959215
3168,Newport Court,48084,42.5643807,-83.1959127
3167,Newport Court,48084,42.5642990,-83.1965780
3155,Newport Court,48084,42.5640832,-83.1965877
3119,Newport Court,48084,42.5634212,-83.1965400
3131,Newport Court,48084,42.5636359,-83.1965607
3143,Newport Court,48084,42.5638630,-83.1965649
3144,Newport Court,48084,42.5639234,-83.1959162
3132,Newport Court,48084,42.5637023,-83.1959068
3120,Newport Court,48084,42.5634745,-83.1959007
3084,Newport Court,48084,42.5627992,-83.1958511
3083,Newport Court,48084,42.5627648,-83.1965194
3095,Newport Court,48084,42.5629835,-83.1965314
3107,Newport Court,48084,42.5632029,-83.1965354
3108,Newport Court,48084,42.5632504,-83.1958920
3096,Newport Court,48084,42.5630230,-83.1958859
3071,Newport Court,48084,42.5625548,-83.1965126
3059,Newport Court,48084,42.5623320,-83.1965039
3072,Newport Court,48084,42.5625886,-83.1958713
3060,Newport Court,48084,42.5623572,-83.1958619
3047,Newport Court,48084,42.5621054,-83.1965728
3035,Newport Court,48084,42.5618449,-83.1965991
3048,Newport Court,48084,42.5621175,-83.1957870
3036,Newport Court,48084,42.5618824,-83.1957421
3023,Newport Court,48084,42.5616421,-83.1963953
3024,Newport Court,48084,42.5616424,-83.1959090
2942,Stoneyridge Drive,48084,42.5642414,-83.2047890
2920,Stoneyridge Drive,48084,42.5641830,-83.2043098
2898,Stoneyridge Drive,48084,42.5642388,-83.2037467
2876,Stoneyridge Drive,48084,42.5642659,-83.2032605
2854,Stoneyridge Drive,48084,42.5642431,-83.2028064
3210,Oakhill Drive,48084,42.5643809,-83.2021869
3190,Oakhill Drive,48084,42.5640051,-83.2021408
3172,Oakhill Drive,48084,42.5636515,-83.2020931
3154,Oakhill Drive,48084,42.5633104,-83.2020751
3136,Oakhill Drive,48084,42.5626823,-83.2021391
3118,Oakhill Drive,48084,42.5623711,-83.2022563
3088,Henhawk Drive,48084,42.5621053,-83.2022865
3066,Henhawk Drive,48084,42.5617922,-83.2022487
3040,Henhawk Drive,48084,42.5614370,-83.2021769
3018,Henhawk Drive,48084,42.5611094,-83.2022136
3071,Oakhill Drive,48084,42.5621083,-83.2042897
3083,Oakhill Drive,48084,42.5621975,-83.2038741
3095,Oakhill Drive,48084,42.5622651,-83.2032900
3127,Oakhill Drive,48084,42.5624611,-83.2028690
3145,Oakhill Drive,48084,42.5628879,-83.2027484
3157,Oakhill Drive,48084,42.5632037,-83.2027352
3165,Oakhill Drive,48084,42.5634875,-83.2027382
3183,Oakhill Drive,48084,42.5637639,-83.2027897
3182,Weathervane Drive,48084,42.5637462,-83.2034165
3164,Weathervane Drive,48084,42.5634833,-83.2034391
3156,Weathervane Drive,48084,42.5631622,-83.2033514
3138,Weathervane Drive,48084,42.5628952,-83.2034297
3139,Weathervane Drive,48084,42.5627783,-83.2038847
3157,Weathervane Drive,48084,42.5631392,-83.2041904
3165,Weathervane Drive,48084,42.5634255,-83.2040625
3183,Weathervane Drive,48084,42.5637245,-83.2040818
3180,Upton Drive,48084,42.5637199,-83.2047740
3162,Upton Drive,48084,42.5633928,-83.2047595
3144,Upton Drive,48084,42.5630410,-83.2047751
3126,Upton Drive,48084,42.5627463,-83.2047930
3059,Oakhill Drive,48084,42.5620450,-83.2047831
3108,Upton Drive,48084,42.5624484,-83.2048149
3107,Upton Drive,48084,42.5622946,-83.2054816
3125,Upton Drive,48084,42.5626566,-83.2054506
3124,Adams Road,48084,42.5626736,-83.2061037
3102,Adams Road,48084,42.5623827,-83.2060853
3050,Adams Road,48084,42.5618149,-83.2060499
3076,Adams Road,48084,42.5621099,-83.2060484
3047,Oakhill Drive,48084,42.5618913,-83.2054450
3052,Oakhill Drive,48084,42.5615501,-83.2046835
3066,Oakhill Drive,48084,42.5616356,-83.2042507
3078,Oakhill Drive,48084,42.5616953,-83.2038500
3090,Oakhill Drive,48084,42.5617723,-83.2033914
3096,Oakhill Drive,48084,42.5618289,-83.2029937
3045,Henhawk Drive,48084,42.5615026,-83.2028147
3021,Henhawk Drive,48084,42.5611543,-83.2028685
3842,West Big Beaver Road,48084,42.5610736,-83.2033993
3876,West Big Beaver Road,48084,42.5610876,-83.2038218
3900,West Big Beaver Road,48084,42.5610152,-83.2043007
3924,West Big Beaver Road,48084,42.5610131,-83.2047317
3016,Oakhill Drive,48084,42.5610840,-83.2052019
3036,Oakhill Drive,48084,42.5613752,-83.2050225
3035,Oakhill Drive,48084,42.5615703,-83.2055975
3023,Oakhill Drive,48084,42.5613133,-83.2058490
3011,Oakhill Drive,48084,42.5609932,-83.2059341
3437,Upton Drive,48084,42.5678387,-83.2056065
2953,Palmerston Drive,48084,42.5678719,-83.2062066
3415,Upton Drive,48084,42.5674387,-83.2055786
3405,Upton Drive,48084,42.5671467,-83.2055926
3404,Adams Road,48084,42.5671479,-83.2061858
3414,Adams Road,48084,42.5675083,-83.2062581
3360,Adams Road,48084,42.5665576,-83.2062435
3463,Wendover Road,48084,42.5665792,-83.2056343
3350,Adams Road,48084,42.5662800,-83.2062596
3340,Adams Road,48084,42.5659654,-83.2062012
3371,Upton Drive,48084,42.5662597,-83.2055303
3355,Upton Drive,48084,42.5659848,-83.2055553
3339,Upton Drive,48084,42.5657031,-83.2054258
3251,Newgate Drive,48084,42.5652572,-83.2054740
3224,Adams Road,48084,42.5652418,-83.2063098
3330,Adams Road,48084,42.5656467,-83.2062276
3216,Adams Road,48084,42.5646834,-83.2056717
3308,Newgate Drive,48084,42.5647516,-83.2047095
3316,Newgate Drive,48084,42.5647052,-83.2042417
3324,Newgate Drive,48084,42.5646881,-83.2039094
3330,Newgate Drive,48084,42.5646904,-83.2035630
3336,Newgate Drive,48084,42.5647323,-83.2032330
3275,Oakhill Drive,48084,42.5646358,-83.2028322
3262,Oakhill Drive,48084,42.5647631,-83.2022462
3282,Oakhill Drive,48084,42.5650059,-83.2023167
3291,Myddleton Drive,48084,42.5652206,-83.2019009
3271,Myddleton Drive,48084,42.5649763,-83.2016719
3253,Myddleton Drive,48084,42.5647442,-83.2015121
3235,Myddleton Drive,48084,42.5644743,-83.2014503
3217,Myddleton Drive,48084,42.5642129,-83.2014371
3155,Myddleton Drive,48084,42.5638823,-83.2014276
3133,Myddleton Drive,48084,42.5636526,-83.2013867
3111,Myddleton Drive,48084,42.5633496,-83.2013673
3101,Caswell Drive,48084,42.5634314,-83.1986451
3133,Caswell Drive,48084,42.5637024,-83.1986359
3155,Caswell Drive,48084,42.5640068,-83.1986720
2529,Hampton Lane,48084,42.5642469,-83.1987515
3174,Wendover Road,48084,42.5642491,-83.1992917
3154,Wendover Road,48084,42.5639644,-83.1992767
3134,Wendover Road,48084,42.5637209,-83.1992664
3100,Wendover Road,48084,42.5634098,-83.1992295
3081,Myddleton Court,48084,42.5622424,-83.2013838
3075,Myddleton Court,48084,42.5619441,-83.2013394
3069,Myddleton Court,48084,42.5619184,-83.2007267
3061,Myddleton Court,48084,42.5619817,-83.2002989
3053,Myddleton Court,48084,42.5619585,-83.1998763
3045,Myddleton Court,48084,42.5623435,-83.1996252
3052,Myddleton Court,48084,42.5625668,-83.1999144
3086,Myddleton Drive,48084,42.5625495,-83.2006787
3062,Myddleton Court,48084,42.5625324,-83.2003399
3084,Wendover Road,48084,42.5630423,-83.1997037
3072,Wendover Road,48084,42.5631740,-83.2001261
3096,Myddleton Drive,48084,42.5632069,-83.2006461
3090,Myddleton Drive,48084,42.5629522,-83.2006261
3087,Myddleton Drive,48084,42.5625237,-83.2013598
3093,Myddleton Drive,48084,42.5628170,-83.2013441
2851,Sunridge Drive,48084,42.5689115,-83.2033868
2833,Sunridge Drive,48084,42.5687549,-83.2031804
2811,Sunridge Drive,48084,42.5685596,-83.2029749
2840,Palmerston Drive,48084,42.5685289,-83.2034453
3416,Wendover Road,48084,42.5675215,-83.2027497
3424,Wendover Road,48084,42.5675090,-83.2031946
3432,Wendover Road,48084,42.5674702,-83.2036773
3440,Wendover Road,48084,42.5673731,-83.2040772
3448,Wendover Road,48084,42.5672729,-83.2045450
3406,Upton Drive,48084,42.5672396,-83.2049607
3416,Upton Drive,48084,42.5675972,-83.2048420
3428,Upton Drive,48084,42.5678708,-83.2048245
2881,Palmerston Drive,48084,42.5679098,-83.2044999
2845,Palmerston Drive,48084,42.5679684,-83.2034938
2857,Palmerston Drive,48084,42.5679510,-83.2038175
2869,Palmerston Drive,48084,42.5679218,-83.2041579
2833,Palmerston Drive,48084,42.5679846,-83.2031678
2821,Palmerston Drive,48084,42.5680028,-83.2028316
2801,Palmerston Drive,48084,42.5679961,-83.2025505
2783,Palmerston Drive,48084,42.5680181,-83.2022727
3463,Paddington Drive,48084,42.5680117,-83.2017481
3445,Paddington Drive,48084,42.5676850,-83.2018983
3419,Paddington Drive,48084,42.5674217,-83.2021189
3472,Paddington Drive,48084,42.5680428,-83.2009411
3454,Paddington Drive,48084,42.5677570,-83.2010747
3436,Paddington Drive,48084,42.5673867,-83.2012925
3418,Paddington Drive,48084,42.5671836,-83.2015145
3405,Newgate Drive,48084,42.5668913,-83.2010224
3413,Newgate Drive,48084,42.5670369,-83.2008785
3429,Newgate Drive,48084,42.5672152,-83.2007244
3445,Newgate Drive,48084,42.5674001,-83.2005921
3459,Newgate Drive,48084,42.5676135,-83.2004496
3477,Newgate Drive,48084,42.5678349,-83.2003445
3493,Newgate Drive,48084,42.5681206,-83.2002206
3343,Tothill Drive,48084,42.5663048,-83.1997225
3369,Tothill Drive,48084,42.5665667,-83.1994949
3417,Tothill Drive,48084,42.5668600,-83.1993065
3431,Tothill Drive,48084,42.5671186,-83.1991407
3445,Tothill Drive,48084,42.5674726,-83.1989677
3459,Tothill Drive,48084,42.5677584,-83.1988563
3473,Tothill Drive,48084,42.5680989,-83.1987793
2537,Palmerston Drive,48084,42.5681133,-83.1991836
2559,Palmerston Drive,48084,42.5680548,-83.1995529
3476,Newgate Drive,48084,42.5676146,-83.1996917
3460,Newgate Drive,48084,42.5673927,-83.1997869
3446,Newgate Drive,48084,42.5671500,-83.1999799
3430,Newgate Drive,48084,42.5668385,-83.2002179
3294,Wendover Road,48084,42.5664881,-83.2004401
3278,Wendover Road,48084,42.5660163,-83.2000075
3286,Wendover Road,48084,42.5662614,-83.2002369
3420,Tothill Drive,48084,42.5668081,-83.1986156
3434,Tothill Drive,48084,42.5672122,-83.1983831
3448,Tothill Drive,48084,42.5675234,-83.1982326
3474,Tothill Drive,48084,42.5681285,-83.1980530
3462,Tothill Drive,48084,42.5677983,-83.1981607
3481,Beach Road,48084,42.5681675,-83.1974322
3465,Beach Road,48084,42.5679092,-83.1974698
3449,Beach Road,48084,42.5675268,-83.1974222
3433,Beach Road,48084,42.5672295,-83.1974191
2412,Wembly Lane,48084,42.5667868,-83.1973814
2434,Wembly Lane,48084,42.5668029,-83.1978471
2456,Wembly Lane,48084,42.5668048,-83.1982433
2411,Wembly Lane,48084,42.5663079,-83.1973334
2509,Wembly Lane,48084,42.5662361,-83.1985927
2433,Wembly Lane,48084,42.5662811,-83.1977915
2455,Wembly Lane,48084,42.5662938,-83.1981809
3344,Tothill Drive,48084,42.5662425,-83.1989980
2538,Chelsea Drive,48084,42.5657731,-83.1989517
3318,Tothill Drive,48084,42.5657888,-83.1993813
2508,Chelsea Drive,48084,42.5658292,-83.1985739
2436,Chelsea Drive,48084,42.5658059,-83.1977674
2458,Chelsea Drive,48084,42.5658119,-83.1981635
2410,Chelsea Drive,48084,42.5658227,-83.1973504
2528,Hampton Lane,48084,42.5647853,-83.1988753
2506,Hampton Lane,48084,42.5648082,-83.1984819
2456,Hampton Lane,48084,42.5647996,-83.1981090
2434,Hampton Lane,48084,42.5647961,-83.1977120
2400,Hampton Lane,48084,42.5648827,-83.1973009
2415,Chelsea Drive,48084,42.5652907,-83.1973605
2437,Chelsea Drive,48084,42.5652750,-83.1977962
2459,Chelsea Drive,48084,42.5652862,-83.1982012
2509,Chelsea Drive,48084,42.5652613,-83.1986289
2531,Chelsea Drive,48084,42.5652686,-83.1990313
3226,Wendover Road,48084,42.5652752,-83.1994585
3204,Wendover Road,48084,42.5648657,-83.1993056
3449,Wendover Road,48084,42.5667043,-83.2044599
3457,Wendover Road,48084,42.5666576,-83.2048535
3441,Wendover Road,48084,42.5667978,-83.2039539
3433,Wendover Road,48084,42.5668748,-83.2034992
3421,Wendover Road,48084,42.5669642,-83.2030518
3393,Paddington Drive,48084,42.5669020,-83.2026120
3375,Paddington Drive,48084,42.5666336,-83.2029246
3361,Paddington Drive,48084,42.5664713,-83.2032758
3345,Paddington Drive,48084,42.5663413,-83.2036308
3333,Paddington Drive,48084,42.5662899,-83.2039967
3321,Paddington Drive,48084,42.5662630,-83.2044264
3309,Paddington Drive,48084,42.5662847,-83.2048286
3396,Paddington Drive,48084,42.5666872,-83.2019317
3389,Newgate Drive,48084,42.5663834,-83.2014468
3384,Paddington Drive,48084,42.5664302,-83.2022497
3376,Paddington Drive,48084,42.5662571,-83.2025035
3381,Newgate Drive,48084,42.5661701,-83.2017206
3373,Newgate Drive,48084,42.5659783,-83.2018787
3365,Newgate Drive,48084,42.5658376,-83.2021208
3357,Newgate Drive,48084,42.5656271,-83.2023520
3349,Newgate Drive,48084,42.5654848,-83.2025984
3345,Newgate Drive,48084,42.5653454,-83.2028912
3341,Newgate Drive,48084,42.5652759,-83.2031938
3364,Paddington Drive,48084,42.5661037,-83.2027524
3352,Paddington Drive,48084,42.5659647,-83.2030331
3344,Paddington Drive,48084,42.5658425,-83.2032603
3336,Paddington Drive,48084,42.5657896,-83.2035884
3333,Newgate Drive,48084,42.5652009,-83.2034388
3325,Newgate Drive,48084,42.5651784,-83.2038034
3315,Newgate Drive,48084,42.5652152,-83.2041122
3309,Newgate Drive,48084,42.5652486,-83.2046875
3328,Paddington Drive,48084,42.5657500,-83.2039570
3320,Paddington Drive,48084,42.5657359,-83.2043125
3340,Upton Drive,48084,42.5657032,-83.2047482
3293,Wendover Road,48084,42.5659728,-83.2009280
3382,Newgate Drive,48084,42.5658164,-83.2011876
3374,Newgate Drive,48084,42.5655560,-83.2013841
3279,Wendover Road,48084,42.5656570,-83.2006435
3257,Wendover Road,48084,42.5653707,-83.2003257
3237,Wendover Road,48084,42.5651491,-83.2001434
3215,Wendover Road,48084,42.5648335,-83.2000330
3272,Myddleton Drive,48084,42.5652034,-83.2010518
3254,Myddleton Drive,48084,42.5649447,-83.2009022
3236,Myddleton Drive,48084,42.5645828,-83.2007334
3218,Myddleton Drive,48084,42.5642717,-83.2007421
3156,Myddleton Drive,48084,42.5639554,-83.2007155
3134,Myddleton Drive,48084,42.5637159,-83.2006432
3195,Wendover Road,48084,42.5645470,-83.2000223
3175,Wendover Road,48084,42.5642744,-83.2000047
3155,Wendover Road,48084,42.5640094,-83.1999752
3135,Wendover Road,48084,42.5637326,-83.1999852
2641,Townhill Drive,48084,42.5719220,-83.2002560
2661,Townhill Drive,48084,42.5718771,-83.2007165
2681,Townhill Drive,48084,42.5718436,-83.2011307
2670,Cheswick Drive,48084,42.5714990,-83.2011342
2662,Cheswick Drive,48084,42.5714970,-83.2006620
2644,Cheswick Drive,48084,42.5715129,-83.2001883
2622,Cheswick Drive,48084,42.5715198,-83.1998030
2621,Townhill Drive,48084,42.5719176,-83.1997686
2597,Townhill Drive,48084,42.5719720,-83.1993878
2596,Cheswick Drive,48084,42.5715393,-83.1993304
2543,Townhill Drive,48084,42.5719981,-83.1981170
2566,Cheswick Drive,48084,42.5715551,-83.1984912
2561,Townhill Drive,48084,42.5719515,-83.1985382
2579,Townhill Drive,48084,42.5719538,-83.1989611
2586,Cheswick Drive,48084,42.5715459,-83.1989404
2546,Cheswick Drive,48084,42.5715836,-83.1980643
2526,Cheswick Drive,48084,42.5715989,-83.1976419
2525,Townhill Drive,48084,42.5719595,-83.1976950
2505,Townhill Drive,48084,42.5720120,-83.1972344
2506,Cheswick Drive,48084,42.5715963,-83.1972543
2669,Cheswick Drive,48084,42.5709875,-83.2010574
2661,Cheswick Drive,48084,42.5710163,-83.2006150
2641,Cheswick Drive,48084,42.5710352,-83.2001595
2619,Cheswick Drive,48084,42.5710175,-83.1996119
2595,Cheswick Drive,48084,42.5710179,-83.1992207
2561,Cheswick Drive,48084,42.5710863,-83.1982929
2581,Cheswick Drive,48084,42.5710641,-83.1987754
2541,Cheswick Drive,48084,42.5711056,-83.1978438
2521,Cheswick Drive,48084,42.5711171,-83.1973440
2981,Townhill Drive,48084,42.5714976,-83.2065149
2961,Townhill Drive,48084,42.5715599,-83.2060458
2941,Townhill Drive,48084,42.5715581,-83.2055840
2921,Townhill Drive,48084,42.5715924,-83.2051230
2901,Townhill Drive,48084,42.5715821,-83.2046382
2865,Townhill Drive,48084,42.5716203,-83.2042092
2815,Townhill Drive,48084,42.5716272,-83.2033328
2835,Townhill Drive,48084,42.5716253,-83.2037708
2755,Townhill Drive,48084,42.5716750,-83.2027918
2735,Townhill Drive,48084,42.5716915,-83.2023878
2715,Townhill Drive,48084,42.5717253,-83.2019079
2640,Lanergan Drive,48084,42.5706054,-83.1996046
2620,Lanergan Drive,48084,42.5705760,-83.1992427
2592,Lanergan Drive,48084,42.5705830,-83.1988518
2580,Lanergan Drive,48084,42.5705890,-83.1984703
2564,Lanergan Drive,48084,42.5706310,-83.1981101
2544,Lanergan Drive,48084,42.5706110,-83.1977481
2518,Lanergan Drive,48084,42.5706249,-83.1974030
3556,Tothill Drive,48084,42.5695535,-83.1980707
3540,Tothill Drive,48084,42.5692634,-83.1980019
3524,Tothill Drive,48084,42.5689932,-83.1980316
3508,Tothill Drive,48084,42.5687349,-83.1980469
3511,Beach Road,48084,42.5687563,-83.1974648
3527,Beach Road,48084,42.5690291,-83.1974832
3543,Beach Road,48084,42.5693203,-83.1974827
3559,Beach Road,48084,42.5695719,-83.1974531
3575,Beach Road,48084,42.5698877,-83.1974143
2521,Lanergan Drive,48084,42.5701558,-83.1974539
3572,Tothill Drive,48084,42.5698302,-83.1980731
2561,Lanergan Drive,48084,42.5701269,-83.1981004
2700,Lanergan Drive,48084,42.5705930,-83.2000304
2720,Lanergan Drive,48084,42.5705754,-83.2004759
3509,Tothill Drive,48084,42.5687104,-83.1987106
3525,Tothill Drive,48084,42.5689966,-83.1986938
3541,Tothill Drive,48084,42.5692724,-83.1986572
3557,Tothill Drive,48084,42.5695421,-83.1987071
3573,Tothill Drive,48084,42.5698376,-83.1987379
2591,Lanergan Drive,48084,42.5701259,-83.1988681
3592,Newgate Drive,48084,42.5700965,-83.1994271
3580,Newgate Drive,48084,42.5697555,-83.1993540
3560,Newgate Drive,48084,42.5695146,-83.1993320
3540,Newgate Drive,48084,42.5692620,-83.1992957
3530,Newgate Drive,48084,42.5689998,-83.1993215
3550,Newgate Drive,48084,42.5687202,-83.1993095
3510,Paddington Drive,48084,42.5686372,-83.2006617
3511,Newgate Drive,48084,42.5686932,-83.2000358
3531,Newgate Drive,48084,42.5690401,-83.1999453
3534,Paddington Drive,48084,42.5690311,-83.2005977
3582,Paddington Drive,48084,42.5699787,-83.2006177
3570,Paddington Drive,48084,42.5697067,-83.2005891
3552,Paddington Drive,48084,42.5693768,-83.2005737
3551,Newgate Drive,48084,42.5693839,-83.1999532
3571,Newgate Drive,48084,42.5697761,-83.2000653
2615,Lanergan Drive,48084,42.5701182,-83.2001316
2743,Lanergan Drive,48084,42.5701467,-83.2006731
2744,Lanergan Drive,48084,42.5706000,-83.2011120
3711,Paddington Drive,48084,42.5713389,-83.2017608
3655,Paddington Drive,48084,42.5709952,-83.2017661
2790,Lanergan Drive,48084,42.5710079,-83.2022159
2800,Lanergan Drive,48084,42.5711237,-83.2025761
2810,Lanergan Drive,48084,42.5712123,-83.2029313
2830,Lanergan Drive,48084,42.5712829,-83.2034037
2844,Lanergan Drive,48084,42.5712512,-83.2037799
2856,Lanergan Drive,48084,42.5712490,-83.2040373
2880,Lanergan Drive,48084,42.5712257,-83.2043937
2910,Lanergan Drive,48084,42.5711980,-83.2048870
2932,Lanergan Drive,48084,42.5711924,-83.2054671
3666,Adams Road,48084,42.5711862,-83.2065061
2966,Lanergan Drive,48084,42.5711707,-83.2059362
2770,Bolingbroke Drive,48084,42.5697806,-83.2019632
2784,Bolingbroke Drive,48084,42.5700182,-83.2022886
2810,Bolingbroke Drive,48084,42.5702006,-83.2026902
2795,Lanergan Drive,48084,42.5705478,-83.2024825
2777,Lanergan Drive,48084,42.5703931,-83.2020834
2755,Lanergan Drive,48084,42.5702243,-83.2016947
3591,Paddington Drive,48084,42.5700013,-83.2014242
2756,Bolingbroke Drive,48084,42.5696172,-83.2015771
3565,Paddington Drive,48084,42.5695065,-83.2011825
2741,Bolingbroke Drive,48084,42.5690048,-83.2012764
2751,Bolingbroke Drive,48084,42.5691212,-83.2016971
2765,Bolingbroke Drive,48084,42.5693049,-83.2021169
2777,Bolingbroke Drive,48084,42.5694970,-83.2024719
2825,Bolingbroke Drive,48084,42.5698153,-83.2032219
3576,Upton Drive,48084,42.5696255,-83.2035896
3550,Upton Drive,48084,42.5694203,-83.2038434
2862,Sunridge Drive,48084,42.5693726,-83.2034934
2848,Sunridge Drive,48084,42.5692706,-83.2031087
2828,Sunridge Drive,48084,42.5690962,-83.2027569
2812,Sunridge Drive,48084,42.5688803,-83.2025035
2794,Sunridge Drive,48084,42.5686381,-83.2022209
2754,Palmerston Drive,48084,42.5686523,-83.2014105
2774,Palmerston Drive,48084,42.5685767,-83.2018370
2860,Bolingbroke Drive,48084,42.5702986,-83.2040698
2840,Bolingbroke Drive,48084,42.5703036,-83.2036144
3645,Upton Drive,48084,42.5707004,-83.2031054
2839,Lanergan Drive,48084,42.5707728,-83.2036021
2861,Lanergan Drive,48084,42.5707574,-83.2040892
2891,Lanergan Drive,48084,42.5707399,-83.2045907
2921,Lanergan Drive,48084,42.5707061,-83.2050196
2939,Lanergan Drive,48084,42.5706913,-83.2054572
2965,Lanergan Drive,48084,42.5706887,-83.2059486
2991,Lanergan Drive,48084,42.5706600,-83.2064497
3600,Adams Road,48084,42.5702547,-83.2064678
2918,Bolingbroke Drive,48084,42.5702747,-83.2052636
2966,Bolingbroke Drive,48084,42.5702534,-83.2060491
2950,Bolingbroke Drive,48084,42.5702478,-83.2057669
2934,Bolingbroke Drive,48084,42.5702638,-83.2055309
2902,Bolingbroke Drive,48084,42.5702725,-83.2050189
2888,Bolingbroke Drive,48084,42.5702773,-83.2045294
2855,Bolingbroke Drive,48084,42.5698163,-83.2041883
2902,Sunridge Drive,48084,42.5694048,-83.2046295
2909,Bolingbroke Drive,48084,42.5698126,-83.2050697
2944,Sunridge Drive,48084,42.5693263,-83.2055069
2922,Sunridge Drive,48084,42.5693451,-83.2050363
2881,Bolingbroke Drive,48084,42.5698479,-83.2045416
2935,Bolingbroke Drive,48084,42.5698038,-83.2055211
2951,Bolingbroke Drive,48084,42.5697798,-83.2059444
2964,Sunridge Drive,48084,42.5693395,-83.2059751
2990,Sunridge Drive,48084,42.5692990,-83.2064076
3586,Adams Road,48084,42.5696960,-83.2064379
3918,Estates Drive,48084,42.5745410,-83.1917793
3940,Estates Drive,48084,42.5748728,-83.1912679
3926,Estates Drive,48084,42.5747040,-83.1915280
3891,Boulder Drive,48084,42.5745048,-83.1908282
3879,Boulder Drive,48084,42.5743485,-83.1910541
3871,Boulder Drive,48084,42.5741808,-83.1913330
3847,Boulder Drive,48084,42.5736541,-83.1920865
3855,Boulder Drive,48084,42.5738481,-83.1918165
3863,Boulder Drive,48084,42.5740225,-83.1915527
3906,Estates Drive,48084,42.5743768,-83.1920280
3856,Estates Drive,48084,42.5742073,-83.1922995
3848,Estates Drive,48084,42.5740413,-83.1925280
3840,Estates Drive,48084,42.5738401,-83.1927237
3828,Estates Drive,48084,42.5736355,-83.1929188
3814,Estates Drive,48084,42.5733660,-83.1929228
3804,Estates Drive,48084,42.5731224,-83.1929397
3839,Boulder Drive,48084,42.5734158,-83.1922914
3831,Boulder Drive,48084,42.5731604,-83.1923368
3815,Boulder Drive,48084,42.5726697,-83.1921481
3823,Boulder Drive,48084,42.5728917,-83.1923212
3790,Estates Drive,48084,42.5728511,-83.1929154
3768,Estates Drive,48084,42.5725925,-83.1929003
3760,Estates Drive,48084,42.5723544,-83.1927251
3807,Boulder Drive,48084,42.5724532,-83.1919395
3752,Estates Drive,48084,42.5721558,-83.1924737
3744,Estates Drive,48084,42.5719602,-83.1922244
3736,Estates Drive,48084,42.5717507,-83.1919725
3799,Boulder Drive,48084,42.5722528,-83.1916787
3787,Boulder Drive,48084,42.5720785,-83.1914627
3765,Boulder Drive,48084,42.5714804,-83.1907971
3777,Boulder Drive,48084,42.5716734,-83.1909796
3716,Estates Drive,48084,42.5713411,-83.1914777
3708,Estates Drive,48084,42.5711483,-83.1912430
3696,Estates Drive,48084,42.5709225,-83.1909682
3688,Estates Drive,48084,42.5707644,-83.1907676
3680,Estates Drive,48084,42.5706099,-83.1905251
3666,Estates Drive,48084,42.5704489,-83.1902334
3654,Estates Drive,48084,42.5704057,-83.1898609
3646,Estates Drive,48084,42.5704130,-83.1895205
3638,Estates Drive,48084,42.5704303,-83.1891469
3622,Estates Drive,48084,42.5705005,-83.1885104
3630,Estates Drive,48084,42.5704683,-83.1888204
3614,Estates Drive,48084,42.5704611,-83.1881859
3604,Estates Drive,48084,42.5704815,-83.1878313
3745,Estates Drive,48084,42.5715616,-83.1926881
3674,Scott Drive,48084,42.5713807,-83.1929509
3731,Estates Drive,48084,42.5712938,-83.1923745
3711,Estates Drive,48084,42.5708886,-83.1918828
3723,Estates Drive,48084,42.5711240,-83.1921129
3658,Scott Drive,48084,42.5711071,-83.1928859
3642,Scott Drive,48084,42.5708496,-83.1928712
3606,Scott Drive,48084,42.5703613,-83.1928278
3624,Scott Drive,48084,42.5706105,-83.1928360
3627,Kerry Drive,48084,42.5706232,-83.1921226
3609,Kerry Drive,48084,42.5703854,-83.1921399
3570,Scott Drive,48084,42.5698711,-83.1928099
3588,Scott Drive,48084,42.5701035,-83.1928162
3587,Kerry Drive,48084,42.5701115,-83.1921546
3569,Kerry Drive,48084,42.5698671,-83.1922311
3534,Scott Drive,48084,42.5693299,-83.1927934
3552,Scott Drive,48084,42.5696001,-83.1928014
3553,Kerry Drive,48084,42.5696346,-83.1921674
3535,Kerry Drive,48084,42.5693766,-83.1921674
3603,Estates Drive,48084,42.5699149,-83.1878060
3615,Estates Drive,48084,42.5699081,-83.1881293
3625,Estates Drive,48084,42.5699034,-83.1885226
3633,Estates Drive,48084,42.5698894,-83.1888657
3641,Estates Drive,48084,42.5698799,-83.1892748
3649,Estates Drive,48084,42.5698879,-83.1896211
3657,Estates Drive,48084,42.5698843,-83.1899755
3665,Estates Drive,48084,42.5699530,-83.1903090
3673,Estates Drive,48084,42.5700495,-83.1906250
3681,Estates Drive,48084,42.5701846,-83.1909438
3695,Estates Drive,48084,42.5704677,-83.1913926
3608,Kerry Drive,48084,42.5701844,-83.1915107
3572,Kerry Drive,48084,42.5699239,-83.1914809
3554,Kerry Drive,48084,42.5696564,-83.1914911
3536,Kerry Drive,48084,42.5694022,-83.1914831
2156,Kristin Drive,48084,42.5694061,-83.1910018
2140,Kristin Drive,48084,42.5693960,-83.1906325
2126,Kristin Drive,48084,42.5694213,-83.1903128
2112,Kristin Drive,48084,42.5694148,-83.1899381
2016,Kristin Drive,48084,42.5694642,-83.1877798
2064,Kristin Drive,48084,42.5694688,-83.1888728
2100,Kristin Drive,48084,42.5694328,-83.1895822
2084,Kristin Drive,48084,42.5694291,-83.1892096
2048,Kristin Drive,48084,42.5694575,-83.1884998
2032,Kristin Drive,48084,42.5694518,-83.1881458
3971,Estates Drive,48084,42.5758533,-83.1916612
3959,Estates Drive,48084,42.5755238,-83.1916466
3947,Estates Drive,48084,42.5752473,-83.1917289
3917,Estates Drive,48084,42.5748977,-83.1922599
3925,Estates Drive,48084,42.5750465,-83.1920092
3885,Estates Court,48084,42.5746410,-83.1926469
3881,Estates Court,48084,42.5748023,-83.1928571
3877,Estates Court,48084,42.5750692,-83.1930602
3873,Estates Court,48084,42.5750945,-83.1934256
3869,Estates Court,48084,42.5749093,-83.1937165
3865,Estates Court,48084,42.5746060,-83.1936735
3861,Estates Court,48084,42.5744507,-83.1934211
3857,Estates Court,48084,42.5742994,-83.1931647
3833,Estates Drive,48084,42.5739466,-83.1934791
3825,Estates Drive,48084,42.5736990,-83.1935828
3817,Estates Drive,48084,42.5734418,-83.1936326
3809,Estates Drive,48084,42.5731888,-83.1936513
3801,Estates Drive,48084,42.5729497,-83.1936452
3783,Estates Drive,48084,42.5726958,-83.1936206
3771,Estates Drive,48084,42.5724534,-83.1935314
3763,Estates Drive,48084,42.5722188,-83.1934086
3755,Estates Drive,48084,42.5719826,-83.1932187
2300,Cheswick Drive,48084,42.5717508,-83.1936318
3671,Scott Drive,48084,42.5712086,-83.1936067
3653,Scott Drive,48084,42.5710105,-83.1935312
3635,Scott Drive,48084,42.5707297,-83.1935396
3617,Scott Drive,48084,42.5704848,-83.1935740
3601,Scott Drive,48084,42.5702563,-83.1935541
3585,Scott Drive,48084,42.5699834,-83.1934959
3531,Scott Drive,48084,42.5692768,-83.1935132
3565,Scott Drive,48084,42.5697356,-83.1934913
3547,Scott Drive,48084,42.5694987,-83.1935374
2323,Kristin Drive,48084,42.5687788,-83.1935689
2293,Kristin Drive,48084,42.5687860,-83.1932116
2261,Kristin Drive,48084,42.5687841,-83.1927920
2219,Kristin Drive,48084,42.5688508,-83.1921077
2203,Kristin Drive,48084,42.5688710,-83.1917525
2181,Kristin Drive,48084,42.5688854,-83.1914211
2117,Kristin Drive,48084,42.5689187,-83.1901291
2165,Kristin Drive,48084,42.5688854,-83.1911050
2149,Kristin Drive,48084,42.5689050,-83.1907954
2133,Kristin Drive,48084,42.5688949,-83.1904374
2047,Kristin Drive,48084,42.5689470,-83.1883741
2079,Kristin Drive,48084,42.5689540,-83.1890663
2031,Kristin Drive,48084,42.5689512,-83.1880333
2015,Kristin Drive,48084,42.5689515,-83.1877568
2095,Kristin Drive,48084,42.5689146,-83.1893913
2063,Kristin Drive,48084,42.5689732,-83.1887531
3512,Eastbourne Drive,48084,42.5686795,-83.1954745
3528,Eastbourne Drive,48084,42.5689384,-83.1955083
3544,Eastbourne Drive,48084,42.5692123,-83.1954808
3560,Eastbourne Drive,48084,42.5695024,-83.1953927
3576,Eastbourne Drive,48084,42.5698410,-83.1954413
3592,Eastbourne Drive,48084,42.5701711,-83.1953719
3603,Salem Road,48084,42.5702176,-83.1948142
3587,Salem Road,48084,42.5699767,-83.1948551
3571,Salem Road,48084,42.5696853,-83.1948450
3555,Salem Road,48084,42.5694008,-83.1948140
3539,Salem Road,48084,42.5691507,-83.1948697
3523,Salem Road,48084,42.5688808,-83.1948746
2349,Kristin Drive,48084,42.5687445,-83.1945130
2333,Kristin Drive,48084,42.5687732,-83.1940254
3540,Salem Road,48084,42.5692873,-83.1941041
3556,Salem Road,48084,42.5695909,-83.1941331
3572,Salem Road,48084,42.5698585,-83.1941387
3588,Salem Road,48084,42.5701348,-83.1940790
3604,Salem Road,48084,42.5704252,-83.1941150
2336,Lanergan Drive,48084,42.5707513,-83.1943897
2352,Lanergan Drive,48084,42.5707762,-83.1948384
2368,Lanergan Drive,48084,42.5707440,-83.1952471
2428,Lanergan Drive,48084,42.5707083,-83.1956096
2448,Lanergan Drive,48084,42.5706897,-83.1959839
2468,Lanergan Drive,48084,42.5706704,-83.1962974
2488,Lanergan Drive,48084,42.5706752,-83.1966587
3559,Eastbourne Drive,48084,42.5696229,-83.1960693
3528,Beach Road,48084,42.5690412,-83.1967298
3510,Beach Road,48084,42.5687638,-83.1967016
3511,Eastbourne Drive,48084,42.5687892,-83.1960868
3527,Eastbourne Drive,48084,42.5691145,-83.1961272
3543,Eastbourne Drive,48084,42.5693662,-83.1960880
3544,Beach Road,48084,42.5693380,-83.1967219
3560,Beach Road,48084,42.5696370,-83.1966982
3576,Beach Road,48084,42.5699043,-83.1966286
3575,Eastbourne Drive,48084,42.5699096,-83.1960350
2449,Lanergan Drive,48084,42.5702206,-83.1961007
2485,Lanergan Drive,48084,42.5701787,-83.1965756
2445,Cheswick Drive,48084,42.5711560,-83.1965654
2425,Cheswick Drive,48084,42.5711517,-83.1961442
2401,Cheswick Drive,48084,42.5711422,-83.1957022
2371,Cheswick Drive,48084,42.5711786,-83.1952175
2351,Cheswick Drive,48084,42.5711520,-83.1946581
2331,Cheswick Drive,48084,42.5711124,-83.1941427
2420,Cheswick Drive,48084,42.5716507,-83.1959832
2440,Cheswick Drive,48084,42.5716393,-83.1964104
3730,Beach Road,48084,42.5719768,-83.1964251
3731,Eastbourne Drive,48084,42.5719921,-83.1959425
3751,Eastbourne Drive,48084,42.5723120,-83.1959610
3750,Beach Road,48084,42.5722842,-83.1964185
3770,Beach Road,48084,42.5726363,-83.1964684
3771,Eastbourne Drive,48084,42.5726104,-83.1959731
3791,Eastbourne Drive,48084,42.5729388,-83.1960098
3790,Beach Road,48084,42.5729556,-83.1964627
3811,Eastbourne Drive,48084,42.5732720,-83.1960187
3810,Beach Road,48084,42.5732759,-83.1964999
3830,Beach Road,48084,42.5735742,-83.1965362
3851,Eastbourne Drive,48084,42.5739210,-83.1960711
3831,Eastbourne Drive,48084,42.5735780,-83.1960267
3850,Beach Road,48084,42.5739117,-83.1965804
3870,Beach Road,48084,42.5742867,-83.1965776
3871,Eastbourne Drive,48084,42.5743062,-83.1960872
3891,Eastbourne Drive,48084,42.5746973,-83.1961081
3943,Woodman Drive,48084,42.5746999,-83.1967480
3890,Eastbourne Drive,48084,42.5746514,-83.1954188
3899,Woodman Drive,48084,42.5745764,-83.1949664
3871,Woodman Drive,48084,42.5743375,-83.1949389
3870,Eastbourne Drive,48084,42.5742880,-83.1954329
3850,Eastbourne Drive,48084,42.5739361,-83.1954233
3851,Woodman Drive,48084,42.5739961,-83.1949295
3830,Eastbourne Drive,48084,42.5736037,-83.1953985
3810,Eastbourne Drive,48084,42.5732826,-83.1953806
3831,Woodman Drive,48084,42.5736792,-83.1948967
3811,Woodman Drive,48084,42.5733455,-83.1948819
3770,Eastbourne Drive,48084,42.5726427,-83.1953451
3790,Eastbourne Drive,48084,42.5729494,-83.1953643
3791,Woodman Drive,48084,42.5729673,-83.1948551
3771,Woodman Drive,48084,42.5726589,-83.1948358
3750,Eastbourne Drive,48084,42.5722898,-83.1953411
3751,Woodman Drive,48084,42.5723589,-83.1948324
3731,Woodman Drive,48084,42.5719831,-83.1948307
3710,Eastbourne Drive,48084,42.5716999,-83.1953149
3730,Eastbourne Drive,48084,42.5719617,-83.1953129
3711,Woodman Drive,48084,42.5717097,-83.1948127
3710,Woodman Drive,48084,42.5717027,-83.1941800
3730,Woodman Drive,48084,42.5720555,-83.1941666
3750,Woodman Drive,48084,42.5723394,-83.1941791
3770,Woodman Drive,48084,42.5726650,-83.1941973
3790,Woodman Drive,48084,42.5730680,-83.1941975
3810,Woodman Drive,48084,42.5733558,-83.1942356
3830,Woodman Drive,48084,42.5736795,-83.1942466
3850,Woodman Drive,48084,42.5740280,-83.1942748
3870,Woodman Drive,48084,42.5744232,-83.1942623
3890,Woodman Drive,48084,42.5746776,-83.1943271
3900,Woodman Drive,48084,42.5750158,-83.1945793
3908,Woodman Drive,48084,42.5751704,-83.1951059
3920,Woodman Drive,48084,42.5751957,-83.1954780
3928,Woodman Drive,48084,42.5752301,-83.1959212
3936,Woodman Drive,48084,42.5752276,-83.1963790
3944,Woodman Drive,48084,42.5752394,-83.1968842
2241,West Wattles Road,48084,42.5757583,-83.1922157
2265,West Wattles Road,48084,42.5757149,-83.1927010
2291,West Wattles Road,48084,42.5756738,-83.1931910
2321,West Wattles Road,48084,42.5756511,-83.1938993
2355,West Wattles Road,48084,42.5755982,-83.1945856
2375,West Wattles Road,48084,42.5757393,-83.1950367
2449,West Wattles Road,48084,42.5757324,-83.1964059
2465,West Wattles Road,48084,42.5757088,-83.1968956
2401,West Wattles Road,48084,42.5757307,-83.1954972
2425,West Wattles Road,48084,42.5757374,-83.1960227
2505,Oxford Drive,48084,42.5737794,-83.1972995
2523,Oxford Drive,48084,42.5737557,-83.1978065
2541,Oxford Drive,48084,42.5737425,-83.1982254
2559,Oxford Drive,48084,42.5737266,-83.1986688
2577,Oxford Drive,48084,42.5737197,-83.1991134
2595,Oxford Drive,48084,42.5736768,-83.1995416
2613,Oxford Drive,48084,42.5736797,-83.1999784
2631,Oxford Drive,48084,42.5736822,-83.2003831
2649,Oxford Drive,48084,42.5737876,-83.2008297
2667,Oxford Drive,48084,42.5739106,-83.2012259
2685,Oxford Drive,48084,42.5739505,-83.2016296
2741,Binbrooke Drive,48084,42.5738519,-83.2021022
2761,Binbrooke Drive,48084,42.5737434,-83.2025279
2796,Avonhurst Drive,48084,42.5736500,-83.2029534
2778,Avonhurst Drive,48084,42.5733251,-83.2028883
2730,Avonhurst Drive,48084,42.5730557,-83.2026052
2702,Avonhurst Drive,48084,42.5730930,-83.2021726
2684,Avonhurst Drive,48084,42.5731456,-83.2016945
2666,Avonhurst Drive,48084,42.5732004,-83.2012932
2648,Avonhurst Drive,48084,42.5732195,-83.2008714
2630,Avonhurst Drive,48084,42.5732790,-83.2004711
2612,Avonhurst Drive,48084,42.5732734,-83.1999980
2576,Avonhurst Drive,48084,42.5733166,-83.1990931
2594,Avonhurst Drive,48084,42.5732955,-83.1995716
2558,Avonhurst Drive,48084,42.5733396,-83.1986065
2540,Avonhurst Drive,48084,42.5733496,-83.1981776
2522,Avonhurst Drive,48084,42.5733569,-83.1977902
2504,Avonhurst Drive,48084,42.5733566,-83.1973117
2842,Townhill Drive,48084,42.5721022,-83.2040018
3770,Kent Drive,48084,42.5724802,-83.2040343
3790,Kent Drive,48084,42.5727684,-83.2040611
3810,Kent Drive,48084,42.5730647,-83.2040537
2845,Binbrooke Drive,48084,42.5733903,-83.2040718
2785,Avonhurst Drive,48084,42.5734504,-83.2035960
2777,Avonhurst Drive,48084,42.5731504,-83.2034762
2759,Avonhurst Drive,48084,42.5728317,-83.2033434
2741,Avonhurst Drive,48084,42.5726360,-83.2030841
2820,Townhill Drive,48084,42.5721500,-83.2035427
2800,Townhill Drive,48084,42.5721521,-83.2031096
2746,Townhill Drive,48084,42.5721985,-83.2026007
2723,Avonhurst Drive,48084,42.5725735,-83.2026715
2705,Avonhurst Drive,48084,42.5726121,-83.2022750
2726,Townhill Drive,48084,42.5722114,-83.2021754
2706,Townhill Drive,48084,42.5722933,-83.2017442
2687,Avonhurst Drive,48084,42.5726368,-83.2017454
2669,Avonhurst Drive,48084,42.5727108,-83.2012898
2686,Townhill Drive,48084,42.5723045,-83.2012273
2666,Townhill Drive,48084,42.5723643,-83.2007813
2651,Avonhurst Drive,48084,42.5727448,-83.2008068
2631,Avonhurst Drive,48084,42.5727688,-83.2003486
2646,Townhill Drive,48084,42.5723926,-83.2003133
2606,Townhill Drive,48084,42.5724256,-83.1994343
2586,Townhill Drive,48084,42.5724393,-83.1989858
2626,Townhill Drive,48084,42.5724119,-83.1998773
2577,Avonhurst Drive,48084,42.5728256,-83.1991127
2613,Avonhurst Drive,48084,42.5728166,-83.1999714
2595,Avonhurst Drive,48084,42.5728078,-83.1995184
2506,Townhill Drive,48084,42.5724905,-83.1972768
2546,Townhill Drive,48084,42.5724561,-83.1981863
2526,Townhill Drive,48084,42.5724897,-83.1976695
2566,Townhill Drive,48084,42.5724462,-83.1985420
2541,Avonhurst Drive,48084,42.5728670,-83.1981970
2559,Avonhurst Drive,48084,42.5728405,-83.1986635
2523,Avonhurst Drive,48084,42.5728791,-83.1977513
2505,Avonhurst Drive,48084,42.5728599,-83.1972802
795,West Wattles Road,48098,42.5765124,-83.1641984
4083,Ledgestone Drive,48098,42.5774737,-83.1855789
1978,Sutton Place Drive,48098,42.5795671,-83.1872512
1960,Sutton Place Drive,48098,42.5795710,-83.1868757
1942,Sutton Place Drive,48098,42.5795585,-83.1865113
1924,Sutton Place Drive,48098,42.5795700,-83.1861283
1906,Sutton Place Drive,48098,42.5795732,-83.1857686
1836,Sutton Place Drive,48098,42.5796328,-83.1846228
1878,Sutton Place Drive,48098,42.5795880,-83.1854061
1866,Sutton Place Drive,48098,42.5795918,-83.1850118
1977,Sutton Place Drive,48098,42.5790484,-83.1871961
1953,Sutton Place Drive,48098,42.5790337,-83.1867735
1935,Sutton Place Drive,48098,42.5790043,-83.1863444
1917,Sutton Place Drive,48098,42.5790138,-83.1858886
1899,Sutton Place Drive,48098,42.5790395,-83.1855083
1845,Sutton Place Drive,48098,42.5791086,-83.1846821
4166,Ledgestone Drive,48098,42.5787644,-83.1847123
4148,Ledgestone Drive,48098,42.5784931,-83.1847094
4130,Ledgestone Drive,48098,42.5782213,-83.1846992
4112,Ledgestone Drive,48098,42.5779415,-83.1846666
4094,Ledgestone Drive,48098,42.5776667,-83.1846395
4078,Ledgestone Drive,48098,42.5773576,-83.1846248
4064,Ledgestone Drive,48098,42.5771503,-83.1849389
4065,Ledgestone Drive,48098,42.5771932,-83.1853944
1941,Club Drive,48098,42.5780138,-83.1864145
1975,Club Drive,48098,42.5779648,-83.1871680
1959,Club Drive,48098,42.5780010,-83.1867886
4103,Ledgestone Drive,48098,42.5777734,-83.1854237
1923,Club Drive,48098,42.5780211,-83.1860198
4121,Ledgestone Drive,48098,42.5780386,-83.1854316
1898,Club Drive,48098,42.5785995,-83.1854700
1916,Club Drive,48098,42.5785925,-83.1858824
1934,Club Drive,48098,42.5785821,-83.1863059
1952,Club Drive,48098,42.5785709,-83.1867677
1976,Club Drive,48098,42.5786548,-83.1871702
1042,Paddock Court,48098,42.5831385,-83.1789275
1064,Paddock Court,48098,42.5830602,-83.1793277
1086,Paddock Court,48098,42.5827482,-83.1794986
1063,Paddock Court,48098,42.5824770,-83.1793099
1041,Paddock Court,48098,42.5824238,-83.1788538
1019,Paddock Court,48098,42.5825366,-83.1785057
1020,Paddock Court,48098,42.5831599,-83.1785510
1638,Greenwich Drive,48098,42.5796769,-83.1809265
1654,Greenwich Drive,48098,42.5796532,-83.1812854
1606,Greenwich Drive,48098,42.5797089,-83.1802555
1590,Greenwich Drive,48098,42.5797020,-83.1799254
1622,Greenwich Drive,48098,42.5796980,-83.1805934
1574,Greenwich Drive,48098,42.5797012,-83.1796066
1558,Greenwich Drive,48098,42.5796224,-83.1792827
4395,Devonshire Drive,48098,42.5817652,-83.1794506
4407,Devonshire Drive,48098,42.5820044,-83.1791913
4406,Devonshire Drive,48098,42.5819483,-83.1787115
4394,Devonshire Drive,48098,42.5817420,-83.1784976
4383,Devonshire Drive,48098,42.5814794,-83.1793909
4371,Devonshire Drive,48098,42.5812286,-83.1793373
4370,Devonshire Drive,48098,42.5812107,-83.1785183
4382,Devonshire Drive,48098,42.5814600,-83.1785330
4346,Devonshire Drive,48098,42.5806840,-83.1785230
4359,Devonshire Drive,48098,42.5809873,-83.1792863
4347,Devonshire Drive,48098,42.5807147,-83.1793015
4358,Devonshire Drive,48098,42.5809247,-83.1785809
4334,Devonshire Drive,48098,42.5804367,-83.1785043
4322,Devonshire Drive,48098,42.5801824,-83.1785324
4311,Devonshire Drive,48098,42.5799395,-83.1792273
4327,Devonshire Drive,48098,42.5801659,-83.1792831
4310,Devonshire Drive,48098,42.5799394,-83.1784782
4298,Devonshire Drive,48098,42.5796887,-83.1785263
1526,Greenwich Drive,48098,42.5793302,-83.1786568
1510,Greenwich Drive,48098,42.5792475,-83.1783507
1717,Greenwich Drive,48098,42.5789211,-83.1821814
1695,Greenwich Drive,48098,42.5790613,-83.1819253
1733,Greenwich Drive,48098,42.5787124,-83.1823756
1741,Greenwich Drive,48098,42.5785364,-83.1826398
1749,Greenwich Drive,48098,42.5783742,-83.1829212
4210,Drexel Drive,48098,42.5782986,-83.1833845
4178,Drexel Drive,48098,42.5780310,-83.1833447
4144,Drexel Drive,48098,42.5777937,-83.1833462
4112,Drexel Drive,48098,42.5775517,-83.1832435
4063,Seymour Drive,48098,42.5773755,-83.1828166
4071,Seymour Drive,48098,42.5776690,-83.1827470
4083,Seymour Drive,48098,42.5779254,-83.1826122
4091,Seymour Drive,48098,42.5781330,-83.1823535
4103,Seymour Drive,48098,42.5782778,-83.1820774
4111,Seymour Drive,48098,42.5784609,-83.1818673
4133,Seymour Drive,48098,42.5786622,-83.1815838
4177,Seymour Drive,48098,42.5784543,-83.1809129
4155,Seymour Drive,48098,42.5787007,-83.1811719
4231,Seymour Drive,48098,42.5786460,-83.1806059
1631,Greenwich Drive,48098,42.5791453,-83.1808722
1679,Greenwich Drive,48098,42.5791437,-83.1815772
4265,Seymour Drive,48098,42.5789233,-83.1804708
4285,Seymour Drive,48098,42.5791545,-83.1804633
1647,Greenwich Drive,48098,42.5791563,-83.1812250
1583,Greenwich Drive,48098,42.5791883,-83.1797703
1551,Greenwich Drive,48098,42.5790817,-83.1794412
1525,Greenwich Drive,48098,42.5788895,-83.1791705
4264,Seymour Drive,48098,42.5787687,-83.1797690
4242,Seymour Drive,48098,42.5785388,-83.1798447
1526,Devonshire Drive,48098,42.5785948,-83.1790869
1546,Devonshire Drive,48098,42.5783661,-83.1792449
1560,Devonshire Drive,48098,42.5781726,-83.1794393
4220,Seymour Drive,48098,42.5783019,-83.1800126
1574,Devonshire Drive,48098,42.5779460,-83.1795769
1588,Devonshire Drive,48098,42.5777368,-83.1797730
1610,Devonshire Drive,48098,42.5775272,-83.1799965
1640,Devonshire Drive,48098,42.5774183,-83.1802831
4198,Seymour Drive,48098,42.5781065,-83.1802660
4176,Seymour Drive,48098,42.5779629,-83.1805723
4154,Seymour Drive,48098,42.5778641,-83.1809036
4132,Seymour Drive,48098,42.5778327,-83.1812649
4110,Seymour Drive,48098,42.5778165,-83.1816203
4088,Seymour Drive,48098,42.5776929,-83.1819324
1658,Devonshire Drive,48098,42.5774082,-83.1805967
1672,Devonshire Drive,48098,42.5774034,-83.1809420
4034,Drexel Drive,48098,42.5773660,-83.1816299
1686,Devonshire Drive,48098,42.5773940,-83.1812896
4038,Drexel Drive,48098,42.5773485,-83.1820542
1686,Greenwich Drive,48098,42.5796365,-83.1820527
1702,Greenwich Drive,48098,42.5795227,-83.1824009
1718,Greenwich Drive,48098,42.5793277,-83.1826774
1734,Greenwich Drive,48098,42.5791504,-83.1828670
1750,Greenwich Drive,48098,42.5789162,-83.1830820
1766,Greenwich Drive,48098,42.5788308,-83.1834359
4300,Drexel Drive,48098,42.5794484,-83.1835465
4288,Drexel Drive,48098,42.5791919,-83.1834465
4312,Drexel Drive,48098,42.5797051,-83.1836569
1511,Devonshire Drive,48098,42.5786965,-83.1783644
1525,Devonshire Drive,48098,42.5784352,-83.1784232
1539,Devonshire Drive,48098,42.5781988,-83.1785016
1553,Devonshire Drive,48098,42.5779807,-83.1786915
1567,Devonshire Drive,48098,42.5777783,-83.1788989
1581,Devonshire Drive,48098,42.5775665,-83.1790613
1595,Devonshire Drive,48098,42.5773609,-83.1792599
1609,Devonshire Drive,48098,42.5771589,-83.1794838
1623,Devonshire Drive,48098,42.5770235,-83.1797531
1637,Devonshire Drive,48098,42.5768988,-83.1800815
1665,Devonshire Drive,48098,42.5768766,-83.1807907
1651,Devonshire Drive,48098,42.5768623,-83.1804361
1679,Devonshire Drive,48098,42.5768328,-83.1811533
4293,Drexel Drive,48098,42.5791917,-83.1842180
4285,Drexel Drive,48098,42.5789087,-83.1841675
4253,Drexel Drive,48098,42.5786729,-83.1841465
4221,Drexel Drive,48098,42.5783765,-83.1840840
4157,Drexel Drive,48098,42.5778628,-83.1840754
4189,Drexel Drive,48098,42.5781209,-83.1840945
4061,Drexel Drive,48098,42.5771240,-83.1840477
4125,Drexel Drive,48098,42.5776384,-83.1840430
4093,Drexel Drive,48098,42.5773893,-83.1839627
4057,Drexel Drive,48098,42.5768200,-83.1838274
4053,Drexel Drive,48098,42.5768134,-83.1834170
4049,Drexel Drive,48098,42.5768514,-83.1830709
4045,Drexel Drive,48098,42.5768382,-83.1827216
4041,Drexel Drive,48098,42.5768080,-83.1823729
4037,Drexel Drive,48098,42.5768421,-83.1820767
3995,West South Boulevard,48098,42.6206788,-83.2088644
3100,West Big Beaver Road,48084,42.5628594,-83.1890420
3150,Adams Road,48084,42.5638464,-83.2059048
2337,Deer Path Court,48098,42.5885521,-83.1944030
1525,East Maple Road,48083,42.5498418,-83.1199429
5500,North Adams Road,48098,42.5969566,-83.2073807
