House number,Street name,Postal code,Latitude,Longitude
7550,Auburn Road,48317,42.6257723,-83.0363629
11229,Hall Road,48317,42.6263718,-83.0191800
11335,Hall Road,48317,42.6264986,-83.0172718
13449,Hall Road,48315,42.6309209,-82.9951515
45100,Sterritt Street,48317,42.6270627,-83.0172820
11229,Hall Road,48317,42.6265086,-83.0192318
11335,Hall Road,48317,42.6266683,-83.0171476
45310,Van Dyke Avenue,48317,42.6288112,-83.0322070
45310,Van Dyke Avenue,48317,42.6288161,-83.0318677
45525,Van Dyke Avenue,48317,42.6304254,-83.0328132
45331,Utica Park Boulevard,48315,42.6286464,-83.0096966
45160,Utica Park Boulevard,48315,42.6281471,-83.0052575
45150,Utica Park Boulevard,48315,42.6275985,-83.0052361
45050,Northpointe Boulevard,48315,42.6279675,-82.9987586
45230,Northpointe Boulevard,48315,42.6294299,-82.9986888
13361,Hall Road,48315,42.6304225,-82.9956418
13477,Hall Road,48315,42.6315024,-82.9951132
44895,Utica Road,48317,42.6243412,-83.0417315
8100,Hall Road,48317,42.6253082,-83.0317269
45015,Van Dyke Avenue,48317,42.6260147,-83.0327851
45015,Van Dyke Avenue,48317,42.6259654,-83.0330747
7171,Auburn Road,48317,42.6259904,-83.0402073
7550,Auburn Road,48317,42.6257439,-83.0361365
8791,Hall Road,48317,42.6266391,-83.0237627
7715,Auburn Road,48317,42.6261659,-83.0344054
7636,Auburn Road,48317,42.6258891,-83.0354016
7616,Auburn Road,48317,42.6258832,-83.0355693
44633,Utica Road,48317,42.6217583,-83.0396720
44053,Van Dyke Avenue,48317,42.6189307,-83.0323815
8255,Hall Road,48317,42.6263336,-83.0298103
45461,Brownell Street,48317,42.6291131,-83.0382683
45400,Vanker Avenue,48317,42.6290646,-83.0232689
45400,Vanker Avenue,48317,42.6295307,-83.0233532
45520,Utica Park Boulevard,48315,42.6310436,-83.0061520
45600,Utica Park Boulevard,48315,42.6291129,-83.0086694
45600,Utica Park Boulevard,48315,42.6310427,-83.0077252
8243,Hahn Street,48317,42.6322863,-83.0298344
45001,Schoenherr Road,48315,42.6277317,-82.9939291
13221,Hall Road,48315,42.6281368,-82.9971793
45201,Schoenherr Road,48315,42.6287752,-82.9938891
44633,Utica Road,48317,42.6214449,-83.0410576
45010,Utica Park Boulevard,48315-5911,42.6276948,-83.0072905
45301,Northpointe Boulevard,48315,42.6320869,-83.0006109
45400,Park Avenue,48315,42.6293126,-83.0105571
45221,Utica Park Boulevard,48315,42.6280222,-83.0091449
45311,Park Avenue,48315,42.6283158,-83.0108675
8100,Hall Road,48317,42.6250531,-83.0318647
44800,Van Dyke Avenue,48317,42.6249629,-83.0312188
7530,Auburn Road,48317,42.6254418,-83.0368094
7505,Hahn Street,48317,42.6308257,-83.0384526
45525,Van Dyke Avenue,48317,42.6305633,-83.0329614
44895,Utica Road,48317,42.6241032,-83.0418072
7609,Auburn Road,48317,42.6262830,-83.0355845
46000,Utica Park Boulevard,48315,42.6321002,-83.0122700
8061,Hahn Street,48317,42.6317064,-83.0314970
44841,Van Dyke Avenue,48317,42.6251464,-83.0329551
44825,Van Dyke Avenue,48317,42.6248360,-83.0328160
6600,Dobry Drive,48314,42.6234575,-83.0433925
8230,Hall Road,48317,42.6252066,-83.0305030
11401,Hall Road,48317-5900,42.6274847,-83.0160523
6991,Auburn Road,48317,42.6258656,-83.0411378
6993,Moscone Drive,48317,42.6265661,-83.0410221
7001,Moscone Drive,48317,42.6273077,-83.0405267
6995,Moscone Drive,48317,42.6274093,-83.0410095
6981,Auburn Road,48317,42.6262736,-83.0416627
6985,Auburn Road,48317,42.6258020,-83.0415310
45437,Brownell Street,48317,42.6283825,-83.0369242
45415,Brownell Street,48317,42.6306632,-83.0365238
7505,Hahn Street,48317,42.6309646,-83.0391669
45835,Van Dyke Avenue,48317,42.6328749,-83.0332377
6833,Auburn Road,48317,42.6258845,-83.0426183
6805,Auburn Road,48317,42.6259055,-83.0429678
6644,Auburn Road,48317,42.6264902,-83.0450831
6676,Auburn Road,48317,42.6262196,-83.0446535
6625,Auburn Road,48317,42.6270963,-83.0447728
6665,Auburn Road,48317,42.6267373,-83.0442993
44425,Utica Road,48317,42.6205889,-83.0394244
44633,Utica Road,48317,42.6216210,-83.0396147
44429,Utica Road,48317,42.6210724,-83.0397461
6901,Greeley Street,48317,42.6229055,-83.0419406
6957,Greeley Street,48317,42.6228764,-83.0410967
6900,Greeley Street,48317,42.6222956,-83.0418862
6983,Greeley Street,48317,42.6228437,-83.0406086
44761,Utica Road,48317,42.6231250,-83.0396951
7021,Greeley Street,48317,42.6228989,-83.0398796
7007,Greeley Street,48317,42.6228632,-83.0401153
6995,Greeley Street,48317,42.6228891,-83.0403875
7043,Greeley Street,48317,42.6229241,-83.0394334
44865,Utica Road,48317,42.6237989,-83.0413430
44805,Utica Road,48317,42.6235478,-83.0403228
44812,Utica Road,48317,42.6239473,-83.0401242
44800,Utica Road,48317,42.6239207,-83.0397151
44778,Utica Road,48317,42.6238179,-83.0391897
44764,Utica Road,48317,42.6235098,-83.0393892
44752,Utica Road,48317,42.6233371,-83.0391557
44732,Utica Road,48317,42.6232095,-83.0389194
7315,Greeley Street,48317,42.6230296,-83.0385543
7331,Greeley Street,48317,42.6231502,-83.0382153
44761,Davis Drive,48317,42.6239522,-83.0375587
44741,Davis Drive,48317,42.6237582,-83.0375983
44727,Davis Drive,48317,42.6235292,-83.0376424
7351,Greeley Street,48317,42.6231853,-83.0379879
44711,Davis Drive,48317,42.6232760,-83.0376317
44828,Utica Road,48317,42.6241005,-83.0402911
44900,Utica Road,48317,42.6244852,-83.0406699
44860,Utica Road,48317,42.6244215,-83.0404685
44850,Utica Road,48317,42.6243729,-83.0403926
44840,Utica Road,48317,42.6243236,-83.0403158
44790,Utica Road,48317,42.6236937,-83.0397717
7529,Nichols Street,48317,42.6226515,-83.0368074
7553,Nichols Street,48317,42.6227919,-83.0361712
7579,Nichols Street,48317,42.6229314,-83.0357625
7593,Nichols Street,48317,42.6230289,-83.0355402
7514,Nichols Street,48317,42.6221834,-83.0367390
7528,Nichols Street,48317,42.6222659,-83.0364402
7540,Nichols Street,48317,42.6223412,-83.0362311
7556,Nichols Street,48317,42.6224109,-83.0359481
7590,Nichols Street,48317,42.6224929,-83.0356288
7650,Greeley Street,48317,42.6232485,-83.0351937
7677,Greeley Street,48317,42.6239253,-83.0360707
7827,Greeley Street,48317,42.6246458,-83.0333577
44750,Van Dyke Avenue,48317,42.6244446,-83.0313579
44755,Van Dyke Avenue,48317,42.6243639,-83.0327353
44725,Van Dyke Avenue,48317,42.6239649,-83.0326417
7838,Greeley Street,48317,42.6243015,-83.0329013
7650,Greeley Street,48317,42.6235492,-83.0355905
44776,Davis Drive,48317,42.6241275,-83.0369573
44770,Davis Drive,48317,42.6238783,-83.0369247
7557,Greeley Street,48317,42.6235995,-83.0364896
44720,Davis Drive,48317,42.6234793,-83.0370228
7572,Greeley Street,48317,42.6233085,-83.0359354
7536,Greeley Street,48317,42.6231559,-83.0365968
44686,Davis Drive,48317,42.6230388,-83.0370328
7524,Greeley Street,48317,42.6230628,-83.0367738
7584,Greeley Street,48317,42.6233733,-83.0357356
7556,Greeley Street,48317,42.6231789,-83.0363495
7546,Greeley Street,48317,42.6231531,-83.0364316
44115,Van Dyke Avenue,48317,42.6199357,-83.0325534
44089,Van Dyke Avenue,48317,42.6195067,-83.0325694
44075,Van Dyke Avenue,48317,42.6193006,-83.0325905
44053,Van Dyke Avenue,48317,42.6189923,-83.0325352
44033,Van Dyke Avenue,48317,42.6187229,-83.0325160
44011,Van Dyke Avenue,48317,42.6184695,-83.0324927
7531,Davis Drive,48317,42.6198383,-83.0344561
7533,Davis Drive,48317,42.6198467,-83.0343624
43961,Van Dyke Avenue,48317,42.6179063,-83.0324270
43933,Van Dyke Avenue,48317,42.6177341,-83.0324765
8255,Hall Rd,48317,42.6262818,-83.0298255
8243,Hall Road,48317,42.6261626,-83.0301328
45850,Van Dyke Avenue,48317,42.6329620,-83.0315475
45676,Van Dyke Avenue,48317,42.6322729,-83.0322949
45437,Deshon Street,48317,42.6298232,-83.0314537
45840,Van Dyke Avenue,48317,42.6329805,-83.0322684
45631,Harry Street,48317,42.6325854,-83.0280896
8317,Hahn Street,48317,42.6317273,-83.0281676
45814,Van Dyke Avenue,48317,42.6325580,-83.0323486
45828,Van Dyke Avenue,48317,42.6326916,-83.0324232
45810,Cass Avenue,48317,42.6319534,-83.0353131
45882,Cass Avenue,48317,42.6330586,-83.0355767
45884,Cass Avenue,48317,42.6330631,-83.0351310
45886,Cass Avenue,48317,42.6330683,-83.0348536
45888,Cass Avenue,48317,42.6330803,-83.0342997
4590,Cass Avenue,48317,42.6330900,-83.0340273
45814,Cass Avenue,48317,42.6320016,-83.0353309
45822,Cass Avenue,48317,42.6320979,-83.0353666
45818,Cass Avenue,48317,42.6320497,-83.0353487
45838,Cass Avenue,48317,42.6322908,-83.0354380
45834,Cass Avenue,48317,42.6322426,-83.0354203
45830,Cass Avenue,48317,42.6321944,-83.0354024
45826,Cass Avenue,48317,42.6321461,-83.0353845
45569,Van Dyke Avenue,48317,42.6310498,-83.0329366
45563,Van Dyke Avenue,48317,42.6308763,-83.0329585
45555,Van Dyke Avenue,48317,42.6307466,-83.0329564
