House number,Street name,Postal code,Latitude,Longitude
317,West Cross Avenue,48197,42.2455775,-83.6172733
312,North River Street,48198,42.2451535,-83.6083654
173,East Michigan Avenue,48198,42.2413002,-83.6074888
953,Washtenaw Avenue,48197,42.2458193,-83.6276130
735,West Cross Street,48197,42.2455786,-83.6231678
701,West Cross Street,48197,42.2456099,-83.6221745
720,Norris Street,48197,42.2501580,-83.6099915
1425,LeForge Road,48198,42.2579408,-83.6232272
130,West Michigan Avenue,48197,42.2411901,-83.6143592
1455,Roosevelt,48197,42.2492466,-83.6381821
122,North Normal Street,48197,42.2431343,-83.6229367
124,Pearl Street,48197,42.2423587,-83.6144112
111,Pearl Street,48197-2611,42.2421457,-83.6138103
317,North Washington Street,48197,42.2456243,-83.6149813
317,North Washington Street,48197,42.2455786,-83.6151932
819,North Huron River Drive,48198,42.2536365,-83.6211705
819,North Huron River Drive,48198,42.2538191,-83.6211477
1645,Washtenaw Avenue,48197,42.2472831,-83.6393664
1645,Washtenaw Avenue,48197,42.2472658,-83.6391419
1465,Washtenaw Avenue,48197,42.2470152,-83.6364020
1465,Washtenaw Avenue,48197,42.2468802,-83.6364681
1420,Washtenaw Avenue,48197,42.2474899,-83.6355987
745,South Grove Street,48198,42.2305502,-83.5982351
753,South Grove Street,48198,42.2303780,-83.5972445
745,South Grove Street,48198,42.2306308,-83.5980359
173,East Michigan Avenue,48198,42.2414414,-83.6075893
2170,Washtenaw Avenue,48197,42.2492256,-83.6469776
705,West Cross Street,48197,42.2455739,-83.6224101
733,West Cross Street,48197,42.2455860,-83.6230766
619,Emmet Street,48197,42.2446664,-83.6217692
135,South Prospect Street,48198,42.2375420,-83.6008777
105,West Michigan Avenue,48197,42.2408799,-83.6134249
900,Oakwood Street,48176,42.2520523,-83.6270978
900,Oakwood Street,48176,42.2520175,-83.6272771
900,Oakwood Street,48176,42.2520201,-83.6274407
900,Oakwood Street,48176,42.2519802,-83.6276478
900,oak,48176,42.2517676,-83.6274142
900,oak,48176,42.2518558,-83.6272663
900,Oakwood Street,48176,42.2515662,-83.6276237
900,Oakwood Street,48176,42.2514412,-83.6276187
878,West Cross Street,48197,42.2464025,-83.6252205
100,Olds/Robb,48197,42.2507179,-83.6247638
209,Pearl Street,48197,42.2421323,-83.6153097
25,North Washington Street,48197,42.2418869,-83.6147471
209,Pearl Street,48197,42.2419122,-83.6152992
27,North Washington Street,48197,42.2419616,-83.6147483
11,South Washington Street,48197,42.2404761,-83.6144093
9,South Washington Street,48197,42.2405233,-83.6144112
100,West Michigan Avenue,48197,42.2411977,-83.6132613
2,West Forest Avenue,48197,42.2494525,-83.6136046
2170,Washtenaw Avenue,48197,42.2492253,-83.6469767
90,Maple Street,48197,42.2466142,-83.6093308
1015,North Congress Street,48197,42.2406750,-83.6285845
591,Armstrong Court,48197,42.2324091,-83.6235818
7,West Michigan Avenue,48197,42.2407669,-83.6124711
306,North Adams Street,48197,42.2451186,-83.6157283
226,West Michigan Avenue,48197,42.2412375,-83.6156259
501,East Michigan Avenue,48197,42.2417423,-83.6017669
510,Emerick Street,48198,42.2331495,-83.5978823
520,North Hamilton Street,48197,42.2482873,-83.6172917
516,North Hamilton Street,48197,42.2481610,-83.6173122
424,South Mansfield Street,48197,42.2327569,-83.6330071
213,Pearl Street,48197,42.2420693,-83.6154661
10,North Adams Street,48197,42.2414494,-83.6158061
22,Center Street,48198,42.2403921,-83.6006043
1420,Washtenaw Avenue,48197,42.2473126,-83.6355039
510,Emerick Street,48198,42.2336976,-83.5994118
135,South Prospect Street,48198,42.2378673,-83.6007586
503,Oak Street,48198,42.2486747,-83.6020308
866,Monroe Avenue,48197,42.2309772,-83.6220839
128,West Michigan Avenue,48197,42.2412848,-83.6143536
100,West Michigan Avenue,48197,42.2412990,-83.6132602
102,West Michigan Avenue,48197,42.2412929,-83.6133399
120,West Michigan Avenue,48197,42.2412874,-83.6139681
122,West Michigan Avenue,48197,42.2412955,-83.6140531
124,West Michigan Avenue,48197,42.2412864,-83.6141376
126,West Michigan Avenue,48197,42.2412857,-83.6142221
114,West Michigan Avenue,48197,42.2412884,-83.6138091
228,West Michigan Avenue,48197,42.2412710,-83.6156989
230,West Michigan Avenue,48197,42.2412707,-83.6157737
234,West Michigan Avenue,48197,42.2412545,-83.6158559
214,West Michigan Avenue,48197,42.2412189,-83.6152195
220,West Michigan Avenue,48197,42.2413232,-83.6153506
224,West Michigan Avenue,48197,42.2412379,-83.6155334
204,West Michigan Avenue,48197,42.2412721,-83.6148836
206,West Michigan Avenue,48197,42.2412717,-83.6149620
212,West Michigan Avenue,48197,42.2412490,-83.6151676
210,West Michigan Avenue,48197,42.2412714,-83.6150349
208,West Michigan Avenue,48197,42.2412562,-83.6151034
200,West Michigan Avenue,48197,42.2412726,-83.6147633
419,East Michigan Avenue,48198,42.2417799,-83.6026884
39,East Michigan Avenue,48198,42.2413628,-83.6091231
76,North Huron Street,48197,42.2422049,-83.6127421
701,West Cross Street,48197,42.2455340,-83.6222169
218,North Adams Street,48197,42.2444957,-83.6157395
101,Michigan Avenue East,48198-5611,42.2412675,-83.6083376
16,Ecorse Road,48198-5711,42.2409270,-83.5995684
505,South Huron Street,48197,42.2332483,-83.6139077
505,South Huron Street,48197,42.2333172,-83.6136841
511,West Forest Avenue,48197,42.2474483,-83.6202319
500,West Cross Street,48197,42.2460060,-83.6194477
2095,Packard Road,48197,42.2414246,-83.6425886
409,North Adams Street,48197,42.2463422,-83.6163848
411,North Adams Street,48197,42.2464909,-83.6163686
1555,West Cross Street,48197,42.2441822,-83.6389387
105,North Mansfield Street,48197,42.2407407,-83.6375527
405,North Prospect Road,48198,42.2464024,-83.6032027
405,North Prospect Road,48198,42.2463338,-83.6029751
501,East Michigan Avenue,48197,42.2415774,-83.6017514
445,South Huron Street,48197,42.2340092,-83.6135068
445,South Huron Street,48197,42.2340555,-83.6133460
1,South Prospect Street,48198,42.2406952,-83.6017743
1258,North Huron River Drive,48197,42.2576035,-83.6325758
1250,North Huron River Drive,48197,42.2571834,-83.6326310
1234,North Huron River Drive,48197,42.2568078,-83.6323087
1234,North Huron River Drive,48197,42.2568865,-83.6321749
715,East Forest Avenue,48198,42.2501476,-83.5983212
308,North Wallace Boulevard,48197,42.2442267,-83.6322452
730,Cambridge Road,48197,42.2508538,-83.6311283
728,Cambridge Road,48197,42.2506883,-83.6313494
724,Cambridge Road,48197,42.2505625,-83.6315065
722,Cambridge Road,48197,42.2504401,-83.6316796
720,Cambridge Road,48197,42.2503079,-83.6318823
718,Cambridge Road,48197,42.2502142,-83.6319795
716,Cambridge Road,48197,42.2500850,-83.6321255
714,Cambridge Road,48197,42.2499528,-83.6323301
712,Cambridge Road,48197,42.2497862,-83.6325779
708,Cambridge Road,48197,42.2495593,-83.6328824
704,Cambridge Road,48197,42.2492984,-83.6331074
700,Cambridge Road,48197,42.2490166,-83.6332493
1301,Kingwood Street,48197,42.2510176,-83.6317880
723,Cambridge Road,48197,42.2506414,-83.6323572
721,Cambridge Road,48197,42.2505166,-83.6325460
719,Cambridge Road,48197,42.2503862,-83.6327364
715,Cambridge Road,48197,42.2502426,-83.6330340
711,Cambridge Road,48197,42.2500024,-83.6333034
709,Cambridge Road,48197,42.2497848,-83.6336153
703,Cambridge Road,48197,42.2493942,-83.6338084
550,Perry Street,48197,42.2328042,-83.6204202
200,Arnet Street,48198,42.2375612,-83.6001728
