House number,Street name,Postal code,Latitude,Longitude
12,Piața Unirii,410072,47.0537025,21.9281679
35,Strada Fluturilor,410506,47.0423980,21.9509395
102,Strada Louis Pasteur,410154,47.0660802,21.9602627
8,Strada Vasile Alecsandri,410072,47.0542060,21.9301913
1,Piața Ion Creangă,410009,47.0662532,21.9295173
27,Strada Primăriei,410209,47.0570222,21.9227090
234A,Strada Matei Corvin,410133,47.1033301,21.8876023
62,Calea Aradului,410223,47.0433041,21.9057511
17,Strada Podului,410365,47.0760615,21.9086748
7,Strada Nufărului,410533,47.0368411,21.9435500
12,Strada Gheorghe Doja,410163,47.0599752,21.9412255
63,Strada Ogorului,410554,47.0280956,21.9650707
144,Strada George Emil Palade,410092,47.0441325,21.9115545
146,Strada George Emil Palade,410092,47.0442572,21.9113818
148,Strada George Emil Palade,410092,47.0443643,21.9113369
150,Strada George Emil Palade,410092,47.0445224,21.9114192
151,Strada George Emil Palade,410092,47.0440541,21.9119149
152,Strada George Emil Palade,410092,47.0445657,21.9115351
153,Strada George Emil Palade,410092,47.0441655,21.9121262
154,Strada George Emil Palade,410092,47.0445069,21.9117928
155,Strada George Emil Palade,410092,47.0441655,21.9122384
156,Strada George Emil Palade,410092,47.0445020,21.9119205
157,Strada George Emil Palade,410092,47.0441578,21.9123395
158,Strada George Emil Palade,410092,47.0444612,21.9121038
159,Strada George Emil Palade,410092,47.0441425,21.9124554
160,Strada George Emil Palade,410092,47.0444318,21.9122214
162,Strada George Emil Palade,410092,47.0444255,21.9123843
164,Strada George Emil Palade,410092,47.0443700,21.9125036
166,Strada George Emil Palade,410092,47.0443686,21.9126114
168,Strada George Emil Palade,410092,47.0443632,21.9127320
74,Strada Ștefan Odobleja,410093,47.0443324,21.9129156
76,Strada Ștefan Odobleja,410093,47.0443204,21.9130623
78,Strada Ștefan Odobleja,410093,47.0443154,21.9131736
80,Strada Ștefan Odobleja,410093,47.0443145,21.9132905
82,Strada Ștefan Odobleja,410093,47.0442929,21.9133794
84,Strada Ștefan Odobleja,410093,47.0442721,21.9134975
86,Strada Ștefan Odobleja,410093,47.0442601,21.9136442
88,Strada Ștefan Odobleja,410093,47.0442120,21.9137872
90,Strada Ștefan Odobleja,410093,47.0441645,21.9139535
92,Strada Ștefan Odobleja,410093,47.0440994,21.9140566
1,Strada Bajor Andor,410139,47.0527775,21.8881844
11,Strada Bajor Andor,410139,47.0523932,21.8888966
13,Strada Bajor Andor,410139,47.0523190,21.8890619
15,Strada Bajor Andor,410139,47.0522595,21.8891881
17,Strada Bajor Andor,410139,47.0521695,21.8893466
19,Strada Bajor Andor,410139,47.0520949,21.8894966
21,Strada Bajor Andor,410139,47.0520306,21.8896383
23,Strada Bajor Andor,410139,47.0519506,21.8897810
25,Strada Bajor Andor,410139,47.0518764,21.8899463
27,Strada Bajor Andor,410139,47.0518127,21.8901109
29,Strada Bajor Andor,410139,47.0517537,21.8902524
3,Strada Bajor Andor,410139,47.0526866,21.8883123
31,Strada Bajor Andor,410139,47.0517055,21.8904085
33,Strada Bajor Andor,410139,47.0516635,21.8906026
35,Strada Bajor Andor,410139,47.0516210,21.8907737
5,Strada Bajor Andor,410139,47.0526114,21.8884393
7,Strada Bajor Andor,410139,47.0525419,21.8885814
9,Strada Bajor Andor,410139,47.0524681,21.8887620
10,Strada Bajor Andor,410139,47.0527499,21.8892978
12,Strada Bajor Andor,410139,47.0526673,21.8895403
14,Strada Bajor Andor,410139,47.0525779,21.8897218
16,Strada Bajor Andor,410139,47.0524838,21.8899266
18,Strada Bajor Andor,410139,47.0524503,21.8901156
2,Strada Bajor Andor,410139,47.0531055,21.8884952
20,Strada Bajor Andor,410139,47.0523166,21.8903349
22,Strada Bajor Andor,410139,47.0522387,21.8905541
24,Strada Bajor Andor,410139,47.0521549,21.8907506
26,Strada Bajor Andor,410139,47.0520556,21.8909557
28,Strada Bajor Andor,410139,47.0519720,21.8911599
30,Strada Bajor Andor,410139,47.0518937,21.8913638
32,Strada Bajor Andor,410139,47.0520508,21.8915541
34,Strada Bajor Andor,410139,47.0521712,21.8913554
36,Strada Bajor Andor,410139,47.0522807,21.8911421
38,Strada Bajor Andor,410139,47.0523492,21.8909618
39,Strada Bajor Andor,410139,47.0517518,21.8917400
4,Strada Bajor Andor,410139,47.0530217,21.8886917
40,Strada Bajor Andor,410139,47.0524431,21.8907493
41,Strada Bajor Andor,410139,47.0519071,21.8918614
42,Strada Bajor Andor,410139,47.0525317,21.8905372
43,Strada Bajor Andor,410139,47.0520740,21.8920281
44,Strada Bajor Andor,410139,47.0526098,21.8903257
46,Strada Bajor Andor,410139,47.0527095,21.8901359
48,Strada Bajor Andor,410139,47.0527823,21.8899170
50,Strada Bajor Andor,410139,47.0528713,21.8897202
52,Strada Bajor Andor,410139,47.0529553,21.8895313
54,Strada Bajor Andor,410139,47.0530487,21.8893036
56,Strada Bajor Andor,410139,47.0531323,21.8890994
58,Strada Bajor Andor,410139,47.0532312,21.8888790
6,Strada Bajor Andor,410139,47.0529331,21.8889038
60,Strada Bajor Andor,410139,47.0532999,21.8887063
8,Strada Bajor Andor,410139,47.0528443,21.8891083
100,Strada Meșteșugarilor,410284,47.0654178,21.9018589
102,Strada Meșteșugarilor,410284,47.0655348,21.9015572
104,Strada Meșteșugarilor,410284,47.0656193,21.9012100
104A,Strada Meșteșugarilor,410284,47.0655681,21.9013373
106,Strada Meșteșugarilor,410284,47.0665381,21.8992687
108,Strada Meșteșugarilor,410284,47.0657682,21.9009607
110,Strada Meșteșugarilor,410284,47.0658564,21.9007035
110A,Strada Meșteșugarilor,410284,47.0659326,21.9005442
112,Strada Meșteșugarilor,410284,47.0660464,21.9002092
112A,Strada Meșteșugarilor,410284,47.0659986,21.9003360
114,Strada Meșteșugarilor,410284,47.0661007,21.9000761
114A,Strada Meșteșugarilor,410284,47.0661675,21.8999059
116,Strada Meșteșugarilor,410284,47.0662402,21.8997290
49,Strada Arțarilor,410286,47.0648537,21.9014265
49A,Strada Arțarilor,410286,47.0648598,21.9012598
51,Strada Arțarilor,410286,47.0649076,21.9011399
53,Strada Arțarilor,410286,47.0649671,21.9009936
55,Strada Arțarilor,410286,47.0650328,21.9007282
55A,Strada Arțarilor,410286,47.0650103,21.9008363
57,Strada Arțarilor,410286,47.0650986,21.9005446
59,Strada Arțarilor,410286,47.0652435,21.9003725
59A,Strada Arțarilor,410286,47.0652198,21.9002361
6,Strada Ovid Densușianu,410286,47.0658293,21.8995480
61,Strada Arțarilor,410286,47.0654442,21.9002253
61A,Strada Arțarilor,410286,47.0653738,21.8999776
63,Strada Arțarilor,410286,47.0653958,21.8998329
63A,Strada Arțarilor,410286,47.0654911,21.8997278
65,Strada Arțarilor,410286,47.0654790,21.8996190
65A,Strada Arțarilor,410286,47.0655156,21.8994853
8,Strada Ovid Densușianu,410286,47.0657209,21.8993466
98,Strada Meșteșugarilor,410284,47.0653177,21.9020304
11A,Strada Ovid Densușianu,410277,47.0666714,21.9003867
11B,Strada Ovid Densușianu,410277,47.0665442,21.9002678
5,Strada Ovid Densușianu,410277,47.0675796,21.9012055
5A,Strada Ovid Densușianu,410277,47.0677849,21.9013685
7,Strada Ovid Densușianu,410277,47.0673452,21.9010036
79A,Strada Meșteșugarilor,410278,47.0657086,21.9019990
79B,Strada Meșteșugarilor,410278,47.0658198,21.9017031
7A,Strada Ovid Densușianu,410277,47.0681985,21.9018533
81A,Strada Meșteșugarilor,410278,47.0659243,21.9021693
81B,Strada Meșteșugarilor,410278,47.0660251,21.9018931
85A,Strada Meșteșugarilor,410278,47.0662550,21.9019611
85B,Strada Meșteșugarilor,410278,47.0664443,21.9021195
87A,Strada Meșteșugarilor,410278,47.0662479,21.9015742
87B,Strada Meșteșugarilor,410278,47.0664355,21.9017348
89A,Strada Meșteșugarilor,410278,47.0660181,21.9012138
89B,Strada Meșteșugarilor,410278,47.0661556,21.9009023
9,Strada Ovid Densușianu,410277,47.0670882,21.9007505
91A,Strada Meșteșugarilor,410278,47.0662818,21.9012324
91B,Strada Meșteșugarilor,410278,47.0664107,21.9009550
93,Strada Meșteșugarilor,410278,47.0665631,21.9013964
95,Strada Meșteșugarilor,410278,47.0671641,21.9015163
97A,Strada Meșteșugarilor,410278,47.0665553,21.9006998
97B,Strada Meșteșugarilor,410278,47.0667732,21.9008879
99,Strada Meșteșugarilor,410278,47.0663191,21.9003993
1,Strada Ovid Densușianu,410277,47.0682649,21.9019044
3,Strada Ovid Densușianu,410277,47.0680903,21.9016408
44,Strada Lăpușului,410264,47.0652911,21.9052393
71A,Strada Meșteșugarilor,410284,47.0648742,21.9056296
71B,Strada Meșteșugarilor,410284,47.0649369,21.9054223
71C,Strada Meșteșugarilor,410284,47.0645905,21.9059589
71D,Strada Meșteșugarilor,410284,47.0649807,21.9047334
71E,Strada Meșteșugarilor,410284,47.0650963,21.9045508
73,Strada Meșteșugarilor,410284,47.0652645,21.9041676
75,Strada Meșteșugarilor,410284,47.0656764,21.9033864
75B,Strada Meșteșugarilor,410284,47.0655680,21.9036858
75C,Strada Meșteșugarilor,410284,47.0654607,21.9039615
76,Strada Meșteșugarilor,410284,47.0643026,21.9045882
77,Strada Meșteșugarilor,410284,47.0653047,21.9029544
78,Strada Meșteșugarilor,410284,47.0643954,21.9042758
78A,Strada Meșteșugarilor,410284,47.0643489,21.9043961
80,Strada Meșteșugarilor,410284,47.0644824,21.9040740
82,Strada Meșteșugarilor,410284,47.0645163,21.9039968
82A,Strada Meșteșugarilor,410284,47.0645886,21.9038746
84,Strada Meșteșugarilor,410284,47.0646772,21.9036944
86,Strada Meșteșugarilor,410284,47.0647465,21.9035223
86A,Strada Meșteșugarilor,410284,47.0647597,21.9033642
88,Strada Meșteșugarilor,410284,47.0648125,21.9032427
90,Strada Meșteșugarilor,410284,47.0648616,21.9031149
92,Strada Meșteșugarilor,410284,47.0648885,21.9029437
92A,Strada Meșteșugarilor,410284,47.0649799,21.9028561
94,Strada Meșteșugarilor,410284,47.0650729,21.9026952
96,Strada Meșteșugarilor,410284,47.0651784,21.9023993
19,Splaiul Crișanei,410269,47.0630924,21.9124576
21,Strada Verii,410266,47.0633114,21.9059563
22,Strada Lăpușului,410264,47.0637642,21.9079590
24,Strada Lăpușului,410264,47.0638296,21.9077515
26,Strada Lăpușului,410264,47.0639031,21.9074006
27,Strada Poieniței,410192,47.0646383,21.9135497
28,Strada Lăpușului,410264,47.0639379,21.9072207
30,Strada Lăpușului,410264,47.0640251,21.9069493
30A,Strada Lăpușului,410264,47.0640000,21.9070569
32,Strada Lăpușului,410264,47.0640621,21.9067846
34,Strada Lăpușului,410264,47.0641291,21.9066003
36,Strada Lăpușului,410264,47.0642117,21.9064082
38,Strada Lăpușului,410264,47.0642665,21.9061530
41,Strada Lăpușului,410271,47.0654205,21.9068530
42,Strada Lăpușului,410264,47.0643852,21.9057626
1,Strada Barcăului,410266,47.0617893,21.9113975
1,Strada Meziadului,410265,47.0628087,21.9071878
1,Strada Verii,410266,47.0629200,21.9080193
10,Strada Lăpușului,410264,47.0632276,21.9094893
10,Strada Meziadului,410265,47.0621481,21.9107961
101,Strada Barcăului,410266,47.0619292,21.9005018
101A,Strada Barcăului,410266,47.0619613,21.9002679
102,Strada Barcăului,410257,47.0617338,21.8962381
103,Strada Barcăului,410266,47.0620822,21.8992786
103A,Strada Barcăului,410266,47.0619552,21.8997236
103B,Strada Barcăului,410266,47.0619575,21.8994138
105,Strada Barcăului,410266,47.0620042,21.8991309
107,Strada Barcăului,410266,47.0619811,21.8987890
107A,Strada Barcăului,410266,47.0619553,21.8988808
107C,Strada Barcăului,410266,47.0619898,21.8989937
109A,Strada Barcăului,410266,47.0619415,21.8984262
11,Strada Barcăului,410266,47.0618042,21.9103789
11,Strada Meziadului,410265,47.0629140,21.9049174
11,Strada Verii,410266,47.0630532,21.9070369
111,Strada Barcăului,410266,47.0620295,21.8982773
111A,Strada Barcăului,410266,47.0619651,21.8981015
113,Strada Barcăului,410266,47.0620046,21.8979670
115,Strada Barcăului,410266,47.0619452,21.8977494
117,Strada Barcăului,410266,47.0619658,21.8976009
117A,Strada Barcăului,410266,47.0620077,21.8975694
119,Strada Barcăului,410266,47.0619612,21.8972803
12,Strada Meziadului,410265,47.0622002,21.9105024
12,Strada Ovid Densușianu,410286,47.0652528,21.8989624
12A,Strada Meziadului,410265,47.0621752,21.9106436
12A,Strada Ovid Densușianu,410286,47.0651850,21.8989034
13,Strada Meziadului,410265,47.0628904,21.9047508
13,Strada Verii,410266,47.0631848,21.9067876
13A,Strada Barcăului,410266,47.0618147,21.9101101
14,Strada Meziadului,410265,47.0622394,21.9102818
14,Strada Ovid Densușianu,410286,47.0650269,21.8988270
15,Strada Barcăului,410266,47.0620407,21.9099323
15,Strada Meziadului,410265,47.0629196,21.9045631
15,Strada Verii,410266,47.0631471,21.9064849
16,Strada Meziadului,410265,47.0622876,21.9100105
16,Strada Ovid Densușianu,410286,47.0649098,21.8986465
16A,Strada Meziadului,410265,47.0622683,21.9101193
17,Strada Arțarilor,410286,47.0620373,21.9036735
17,Strada Barcăului,410266,47.0618613,21.9097411
17,Strada Meziadului,410265,47.0628713,21.9043381
17,Strada Verii,410266,47.0632018,21.9063746
17A,Strada Verii,410266,47.0632367,21.9062129
18,Strada Furnicii,410286,47.0619561,21.8998716
18,Strada Meziadului,410265,47.0623066,21.9099036
19,Strada Arțarilor,410286,47.0621093,21.9036702
19,Strada Barcăului,410266,47.0618925,21.9095942
19,Strada Greierului,410286,47.0621409,21.9015447
19,Strada Meziadului,410265,47.0628423,21.9041196
19,Strada Verii,410266,47.0632495,21.9061307
1A,Strada Meziadului,410265,47.0623914,21.9117544
1B,Strada Meziadului,410265,47.0632061,21.9084320
2,Strada Meziadului,410265,47.0620091,21.9115789
2,Strada Verii,410266,47.0629890,21.9064989
20,Strada Furnicii,410286,47.0620470,21.8997717
20,Strada Meziadului,410265,47.0623285,21.9097800
21,Strada Argeșului,410259,47.0622476,21.8987365
21,Strada Arțarilor,410286,47.0622200,21.9036650
21,Strada Barcăului,410266,47.0618949,21.9094294
21,Strada Furnicii,410286,47.0621916,21.9001672
21,Strada Greierului,410286,47.0623738,21.9014584
21,Strada Meziadului,410265,47.0628740,21.9039554
21A,Strada Argeșului,410259,47.0623533,21.8986704
21A,Strada Meziadului,410265,47.0628502,21.9038345
21B,Strada Meziadului,410265,47.0628800,21.9037168
22,Strada Argeșului,410259,47.0623416,21.8983146
22,Strada Furnicii,410286,47.0622025,21.8997907
22,Strada Meziadului,410265,47.0623945,21.9094087
23,Strada Arțarilor,410286,47.0623153,21.9036791
23,Strada Barcăului,410266,47.0618475,21.9092629
23,Strada Furnicii,410286,47.0623047,21.9000397
23,Strada Greierului,410286,47.0626676,21.9013811
23,Strada Meziadului,410265,47.0628510,21.9032521
23,Strada Verii,410266,47.0633440,21.9056934
23A,Strada Arțarilor,410286,47.0624208,21.9036734
23A,Strada Greierului,410286,47.0625393,21.9014205
23B,Strada Greierului,410286,47.0629319,21.9012453
24,Strada Arțarilor,410286,47.0619038,21.9034623
24,Strada Furnicii,410286,47.0623037,21.8997146
24,Strada Greierului,410286,47.0623044,21.9010985
24,Strada Meziadului,410265,47.0624290,21.9092144
24,Strada Ovid Densușianu,410286,47.0644235,21.8981945
24A,Strada Arțarilor,410286,47.0622508,21.9033628
25,Strada Arțarilor,410286,47.0625396,21.9035965
25,Strada Barcăului,410266,47.0618987,21.9091020
25,Strada Furnicii,410286,47.0624114,21.8999984
25,Strada Greierului,410286,47.0631755,21.9011499
25,Strada Meziadului,410265,47.0628655,21.9029639
25A,Strada Greierului,410286,47.0631123,21.9013325
26,Strada Arțarilor,410286,47.0623982,21.9033380
26,Strada Tabéry Géza,410286,47.0623799,21.8977391
26,Strada Greierului,410286,47.0623690,21.9011143
26,Strada Meziadului,410265,47.0624647,21.9090132
26,Strada Ovid Densușianu,410286,47.0642499,21.8981088
26A,Strada Arțarilor,410286,47.0625061,21.9033304
26A,Strada Furnicii,410286,47.0623755,21.8994586
27,Strada Arțarilor,410286,47.0631386,21.9035156
27,Strada Barcăului,410266,47.0618196,21.9089448
27,Strada Furnicii,410286,47.0625183,21.8999121
27,Strada Meziadului,410265,47.0628678,21.9026945
27A,Strada Arțarilor,410286,47.0630413,21.9035241
27B,Strada Arțarilor,410286,47.0629527,21.9035309
27C,Strada Arțarilor,410286,47.0628529,21.9035614
28,Strada Arțarilor,410286,47.0626238,21.9033220
28,Strada Furnicii,410286,47.0627539,21.8995218
28,Strada Greierului,410286,47.0624374,21.9009262
28,Strada Meziadului,410265,47.0625294,21.9086492
28,Strada Ovid Densușianu,410286,47.0641385,21.8979382
28A,Strada Furnicii,410286,47.0628828,21.8994888
28A,Strada Ovid Densușianu,410286,47.0640170,21.8978444
28B,Strada Furnicii,410286,47.0626384,21.8995889
28B,Strada Ovid Densușianu,410286,47.0639541,21.8977818
28C,Strada Furnicii,410286,47.0631593,21.8988841
29,Strada Arțarilor,410286,47.0633300,21.9034958
29,Strada Barcăului,410266,47.0618222,21.9087574
29,Strada Furnicii,410286,47.0627240,21.8998452
29,Strada Greierului,410286,47.0637032,21.9007832
29,Strada Meziadului,410265,47.0628551,21.9023295
29A,Strada Arțarilor,410286,47.0632373,21.9035087
29A,Strada Furnicii,410286,47.0626164,21.8998817
2A,Strada Verii,410266,47.0629981,21.9063065
3,Strada Barcăului,410266,47.0617756,21.9111312
3,Strada Meziadului,410265,47.0628167,21.9068419
3,Strada Verii,410266,47.0628831,21.9078098
30,Strada Arțarilor,410286,47.0631305,21.9032653
30,Strada Furnicii,410286,47.0632257,21.8987408
30,Strada Greierului,410286,47.0625331,21.9009842
30,Strada Meziadului,410265,47.0625150,21.9082469
30,Strada Ovid Densușianu,410286,47.0635245,21.8974283
30A,Strada Greierului,410286,47.0625492,21.9006094
30B,Strada Greierului,410286,47.0626101,21.9006010
30C,Strada Greierului,410286,47.0627103,21.9009020
30D,Strada Greierului,410286,47.0627491,21.9007655
31,Strada Arțarilor,410286,47.0634285,21.9034948
31,Strada Barcăului,410266,47.0618246,21.9085894
31,Strada Greierului,410286,47.0638591,21.9005113
31,Strada Meziadului,410265,47.0628865,21.9021680
31A,Strada Furnicii,410286,47.0629553,21.8997938
31A,Strada Meziadului,410265,47.0628864,21.9020335
32,Strada Arțarilor,410286,47.0632917,21.9032338
32,Strada Furnicii,410286,47.0632034,21.8985338
32,Strada Greierului,410286,47.0628046,21.9008580
32,Strada Meziadului,410265,47.0625606,21.9080592
32,Strada Ovid Densușianu,410286,47.0634116,21.8973493
33,Strada Barcăului,410266,47.0618758,21.9081886
33,Strada Furnicii,410286,47.0633192,21.8992320
33,Strada Greierului,410286,47.0638613,21.9003739
33,Strada Meziadului,410265,47.0628846,21.9017565
33A,Strada Greierului,410286,47.0639314,21.9002208
33A,Strada Meziadului,410265,47.0628869,21.9018972
34,Strada Arțarilor,410286,47.0634077,21.9031801
34,Strada Furnicii,410286,47.0632979,21.8981402
34,Strada Greierului,410286,47.0629189,21.9008421
34,Strada Meziadului,410265,47.0625770,21.9079247
34,Strada Ovid Densușianu,410286,47.0633411,21.8972819
34A,Strada Greierului,410286,47.0629740,21.9007706
35,Strada Arțarilor,410286,47.0640530,21.9031392
35,Strada Barcăului,410266,47.0618787,21.9079728
35,Strada Furnicii,410286,47.0633897,21.8989522
35,Strada Greierului,410286,47.0639892,21.9001009
35,Strada Meziadului,410265,47.0628876,21.9015981
35A,Strada Furnicii,410286,47.0633525,21.8990966
36,Strada Arțarilor,410286,47.0634944,21.9031793
36,Strada Furnicii,410286,47.0634328,21.8981138
36,Strada Greierului,410286,47.0631209,21.9007694
36,Strada Mangaliei,410266,47.0622687,21.9083623
36,Strada Meziadului,410265,47.0626189,21.9076533
36,Strada Ovid Densușianu,410286,47.0632159,21.8972022
36A,Strada Meziadului,410265,47.0625837,21.9077853
37,Strada Barcăului,410266,47.0618806,21.9078318
37,Strada Furnicii,410286,47.0634392,21.8987283
37,Strada Greierului,410286,47.0641373,21.8999932
37-37A,Strada Arțarilor,410286,47.0642476,21.9030133
37A,Strada Greierului,410286,47.0640315,21.9000004
38,Strada Furnicii,410286,47.0634950,21.8980272
38,Strada Greierului,410286,47.0632278,21.9007166
38,Strada Meziadului,410265,47.0626189,21.9075137
38,Strada Ovid Densușianu,410286,47.0631188,21.8971210
39,Strada Arțarilor,410286,47.0642861,21.9026554
39,Strada Barcăului,410266,47.0618825,21.9076926
39,Strada Greierului,410286,47.0641711,21.8996193
39,Strada Mangaliei,410257,47.0621850,21.9086370
39A,Strada Barcăului,410266,47.0618839,21.9075909
39A,Strada Furnicii,410286,47.0635016,21.8985679
39A,Strada Greierului,410286,47.0641881,21.8998749
3A,Strada Meziadului,410265,47.0628286,21.9064934
4,Strada Meziadului,410265,47.0620494,21.9113516
4,Strada Verii,410266,47.0630704,21.9060999
40,Strada Arțarilor,410286,47.0640687,21.9024230
40,Strada Furnicii,410286,47.0636502,21.8976785
40,Strada Greierului,410286,47.0636536,21.9002918
40,Strada Meziadului,410265,47.0626200,21.9073725
40,Strada Ovid Densușianu,410286,47.0630225,21.8970091
40A,Strada Greierului,410286,47.0635619,21.9005929
41,Strada Arțarilor,410286,47.0644245,21.9024000
41,Strada Barcăului,410266,47.0618858,21.9074510
41,Strada Furnicii,410286,47.0636753,21.8984263
41,Strada Greierului,410286,47.0643681,21.8996302
41A,Strada Arțarilor,410286,47.0643749,21.9025277
41A,Strada Barcăului,410266,47.0618878,21.9073066
41A,Strada Furnicii,410286,47.0636473,21.8982215
42,Strada Arțarilor,410286,47.0641611,21.9023088
42,Strada Greierului,410286,47.0637582,21.8999806
42,Strada Meziadului,410265,47.0626204,21.9072362
42,Strada Ovid Densușianu,410286,47.0629254,21.8968961
43,Strada Arțarilor,410286,47.0644754,21.9022743
43,Strada Barcăului,410266,47.0618896,21.9071696
43,Strada Furnicii,410286,47.0637327,21.8979607
43,Strada Greierului,410286,47.0643074,21.8993238
43A,Strada Arțarilor,410286,47.0645245,21.9021473
44,Strada Arțarilor,410286,47.0642317,21.9021075
44,Strada Greierului,410286,47.0638668,21.8997585
44,Strada Meziadului,410265,47.0626036,21.9070962
44,Strada Ovid Densușianu,410286,47.0627214,21.8968990
45,Strada Arțarilor,410286,47.0645834,21.9018876
45,Strada Barcăului,410266,47.0618915,21.9070311
45,Strada Furnicii,410286,47.0638193,21.8976786
45,Strada Greierului,410286,47.0643877,21.8991109
45A,Strada Greierului,410286,47.0643695,21.8992541
46,Strada Greierului,410286,47.0638229,21.8994981
46,Strada Meziadului,410265,47.0626058,21.9068094
46,Strada Ovid Densușianu,410237,47.0626754,21.8967122
46A,Strada Meziadului,410265,47.0626048,21.9069537
47,Strada Barcăului,410266,47.0618929,21.9069269
47,Strada Greierului,410286,47.0644334,21.8990000
48,Strada Arțarilor,410286,47.0645058,21.9012070
48,Strada Greierului,410286,47.0639786,21.8994336
48,Strada Meziadului,410265,47.0626072,21.9066686
48A,Strada Arțarilor,410286,47.0645480,21.9011038
49,Strada Barcăului,410266,47.0618948,21.9067887
49,Strada Greierului,410286,47.0645403,21.8986549
49A,Strada Greierului,410286,47.0644916,21.8987878
5,Strada Barcăului,410266,47.0617874,21.9109126
5,Strada Meziadului,410265,47.0628455,21.9061881
5,Strada Verii,410266,47.0629317,21.9076502
50,Strada Arțarilor,410286,47.0645889,21.9010057
50,Strada Greierului,410286,47.0640135,21.8993515
50,Strada Meziadului,410265,47.0625983,21.9064884
50A,Strada Arțarilor,410286,47.0646278,21.9009052
51,Strada Barcăului,410266,47.0618967,21.9066478
51,Strada Greierului,410286,47.0646415,21.8984582
51,Strada Meșteșugarilor,410266,47.0620715,21.9058640
51A,Strada Meșteșugarilor,410266,47.0619688,21.9058978
51B,Strada Meșteșugarilor,410266,47.0621600,21.9058053
52,Strada Arțarilor,410286,47.0647500,21.9008459
52,Strada Greierului,410286,47.0640633,21.8992322
52,Strada Meziadului,410265,47.0626188,21.9062127
53,Strada Barcăului,410266,47.0618989,21.9064820
53,Strada Meșteșugarilor,410266,47.0623386,21.9058138
54,Strada Greierului,410286,47.0641109,21.8991041
54,Strada Meziadului,410265,47.0626345,21.9059507
54A,Strada Greierului,410286,47.0641355,21.8989356
55,Strada Barcăului,410266,47.0619011,21.9063203
55,Strada Meșteșugarilor,410266,47.0631102,21.9056860
56,Strada Arțarilor,410286,47.0648711,21.9004556
56,Strada Greierului,410286,47.0642095,21.8988612
56,Strada Meșteșugarilor,410266,47.0631892,21.9051630
56,Strada Meziadului,410265,47.0626222,21.9057299
56A,Strada Arțarilor,410286,47.0649129,21.9003518
56A,Strada Greierului,410286,47.0642206,21.8986585
56A,Strada Meșteșugarilor,410266,47.0621105,21.9050937
56B,Strada Arțarilor,410286,47.0649583,21.9001685
57,Strada Barcăului,410266,47.0619022,21.9062396
57,Strada Meșteșugarilor,410266,47.0634456,21.9055483
57A,Strada Meșteșugarilor,410266,47.0635557,21.9055638
58,Strada Arțarilor,410286,47.0650533,21.8999141
58,Strada Greierului,410286,47.0642806,21.8985581
58,Strada Meșteșugarilor,410266,47.0623110,21.9051782
58,Strada Meziadului,410265,47.0625655,21.9048740
58A,Strada Arțarilor,410286,47.0650504,21.9000482
58A,Strada Meziadului,410265,47.0625676,21.9049737
59,Strada Barcăului,410266,47.0619047,21.9060547
59,Strada Meșteșugarilor,410266,47.0637804,21.9055366
59A,Strada Meșteșugarilor,410266,47.0636710,21.9055836
6,Strada Lăpușului,410264,47.0630427,21.9104779
6,Strada Meziadului,410265,47.0620655,21.9112611
6,Strada Verii,410266,47.0631162,21.9058864
60,Strada Arțarilor,410286,47.0651363,21.8998602
60,Strada Greierului,410286,47.0643316,21.8984216
60,Strada Meșteșugarilor,410266,47.0625843,21.9052259
60,Strada Meziadului,410265,47.0626226,21.9046479
60A,Strada Arțarilor,410286,47.0651674,21.8997465
60A,Strada Greierului,410286,47.0643762,21.8983092
61,Strada Barcăului,410266,47.0619070,21.9058877
61,Strada Meșteșugarilor,410266,47.0639137,21.9055060
62,Strada Arțarilor,410286,47.0649580,21.8994460
62,Strada Meșteșugarilor,410284,47.0628806,21.9051782
62,Strada Meziadului,410265,47.0626248,21.9044391
62A,Strada Meșteșugarilor,410284,47.0629745,21.9051777
63,Strada Barcăului,410266,47.0618942,21.9049984
63,Strada Meșteșugarilor,410266,47.0640984,21.9054910
63A,Strada Barcăului,410266,47.0620090,21.9052232
64,Strada Arțarilor,410286,47.0653251,21.8994371
64,Strada Meșteșugarilor,410284,47.0630918,21.9050216
64,Strada Meziadului,410265,47.0626523,21.9043053
64A,Strada Arțarilor,410286,47.0653793,21.8992660
64A,Strada Meșteșugarilor,410284,47.0632187,21.9051383
64B,Strada Arțarilor,410286,47.0654540,21.8991069
65,Strada Barcăului,410266,47.0619055,21.9048612
65,Strada Meșteșugarilor,410266,47.0642615,21.9054708
66,Strada Meșteșugarilor,410284,47.0632985,21.9050050
66,Strada Meziadului,410265,47.0626426,21.9040283
66A,Strada Meșteșugarilor,410284,47.0633502,21.9051110
66A,Strada Meziadului,410265,47.0626326,21.9039022
67,Strada Barcăului,410266,47.0619072,21.9047243
68,Strada Meșteșugarilor,410284,47.0634442,21.9050919
68,Strada Meziadului,410265,47.0626598,21.9030746
69,Strada Barcăului,410266,47.0619082,21.9045918
7,Strada Barcăului,410266,47.0617885,21.9107026
7,Strada Meziadului,410265,47.0628381,21.9059371
7,Strada Verii,410266,47.0629503,21.9074868
70,Strada Meșteșugarilor,410284,47.0635703,21.9050777
70,Strada Meziadului,410265,47.0626424,21.9029559
71,Strada Barcăului,410266,47.0619087,21.9044321
72,Strada Meșteșugarilor,410284,47.0636886,21.9050508
72,Strada Meziadului,410265,47.0626449,21.9028158
73,Strada Barcăului,410266,47.0619104,21.9043239
73A,Strada Barcăului,410266,47.0619323,21.9041873
74,Strada Meșteșugarilor,410284,47.0638689,21.9050086
74,Strada Meziadului,410265,47.0626481,21.9026041
75,Strada Barcăului,410266,47.0619128,21.9040458
75,Strada Oneștilor,410232,47.0614875,21.9113457
76,Strada Meziadului,410265,47.0626420,21.9023754
77,Strada Barcăului,410266,47.0619288,21.9038389
78,Strada Meziadului,410265,47.0626438,21.9022369
79,Strada Barcăului,410266,47.0619392,21.9037181
7A,Strada Meziadului,410265,47.0628413,21.9060705
7A,Strada Verii,410266,47.0629658,21.9073631
8,Strada Lăpușului,410264,47.0631888,21.9088940
8,Strada Meziadului,410265,47.0621224,21.9109405
80,Strada Meziadului,410265,47.0626016,21.9019475
80A,Strada Meziadului,410265,47.0626445,21.9020965
81,Strada Barcăului,410266,47.0619221,21.9032387
83,Strada Barcăului,410266,47.0619188,21.9030687
85,Strada Barcăului,410266,47.0619611,21.9027939
85A,Strada Barcăului,410266,47.0620512,21.9029695
87,Strada Barcăului,410266,47.0619545,21.9026789
89,Strada Barcăului,410266,47.0619375,21.9024832
89A,Strada Barcăului,410266,47.0619232,21.9023309
9,Strada Barcăului,410266,47.0617914,21.9105299
9,Strada Meziadului,410265,47.0628472,21.9057057
9,Strada Verii,410266,47.0629978,21.9071926
91,Strada Barcăului,410266,47.0619371,21.9022112
93,Strada Barcăului,410266,47.0619445,21.9020486
95,Strada Barcăului,410266,47.0619648,21.9012316
95B,Strada Barcăului,410266,47.0613973,21.9011785
97,Strada Barcăului,410266,47.0619529,21.9010876
99,Strada Barcăului,410266,47.0619212,21.9006875
99A,Strada Barcăului,410266,47.0619806,21.9008923
17,Strada Corneliu Baba,410606,47.0695377,21.8921172
1A,Strada Corneliu Baba,410606,47.0697807,21.9004101
1B,Strada Corneliu Baba,410606,47.0705259,21.9009153
26,Strada Corneliu Baba,410606,47.0666781,21.8929788
28,Strada Corneliu Baba,410606,47.0691928,21.8883420
34,Strada Corneliu Baba,410606,47.0678467,21.8913509
36,Strada Corneliu Baba,410606,47.0694042,21.8874292
3D,Strada Corneliu Baba,410606,47.0745650,21.9051500
115,Strada Coriolan Hora,410238,47.0568017,21.8893424
117,Strada Coriolan Hora,410238,47.0566592,21.8892057
119,Strada Coriolan Hora,410238,47.0565826,21.8891402
121,Strada Coriolan Hora,410238,47.0565197,21.8890765
123,Strada Coriolan Hora,410238,47.0564201,21.8889829
125,Strada Coriolan Hora,410238,47.0563283,21.8889618
127,Strada Coriolan Hora,410238,47.0562368,21.8888673
129,Strada Coriolan Hora,410238,47.0561315,21.8888014
131,Strada Coriolan Hora,410238,47.0560368,21.8887234
133,Strada Coriolan Hora,410238,47.0559942,21.8885640
135,Strada Coriolan Hora,410238,47.0558793,21.8886357
137,Strada Coriolan Hora,410238,47.0557970,21.8884958
139,Strada Coriolan Hora,410238,47.0556355,21.8884088
141,Strada Coriolan Hora,410238,47.0555474,21.8882918
145,Strada Coriolan Hora,410238,47.0553925,21.8881291
147,Strada Coriolan Hora,410238,47.0551448,21.8880180
149,Strada Coriolan Hora,410238,47.0550675,21.8879367
169,Strada Coriolan Hora,410238,47.0548238,21.8878819
171,Strada Coriolan Hora,410238,47.0547001,21.8880167
111,Strada Coriolan Hora,410238,47.0568674,21.8894543
5,Strada Coriolan Hora,410238,47.0573348,21.8906627
6,Strada Coriolan Hora,410238,47.0572723,21.8908463
87,Strada Coriolan Hora,410238,47.0582043,21.8906005
93,Strada Coriolan Hora,410238,47.0579572,21.8903778
49,Strada Coriolan Hora,410238,47.0604326,21.8924163
51,Strada Coriolan Hora,410238,47.0603356,21.8923325
53,Strada Coriolan Hora,410238,47.0601780,21.8923229
55,Strada Coriolan Hora,410238,47.0600676,21.8922525
57,Strada Coriolan Hora,410238,47.0599547,21.8920908
59,Strada Coriolan Hora,410238,47.0598307,21.8920134
61,Strada Coriolan Hora,410238,47.0600403,21.8910401
63,Strada Coriolan Hora,410238,47.0597821,21.8913044
65,Strada Coriolan Hora,410238,47.0597402,21.8914643
66,Strada Coriolan Hora,410238,47.0586712,21.8905620
67,Strada Coriolan Hora,410238,47.0596614,21.8916321
69,Strada Coriolan Hora,410238,47.0594511,21.8917041
71,Strada Coriolan Hora,410238,47.0593572,21.8916095
73,Strada Coriolan Hora,410238,47.0592347,21.8915336
75,Strada Coriolan Hora,410238,47.0591182,21.8914378
77,Strada Coriolan Hora,410238,47.0590363,21.8912946
79,Strada Coriolan Hora,410238,47.0589360,21.8913010
81,Strada Coriolan Hora,410238,47.0588810,21.8911474
83,Strada Coriolan Hora,410238,47.0587775,21.8911178
13,Strada Coriolan Hora,410238,47.0623612,21.8947115
15,Strada Coriolan Hora,410238,47.0623188,21.8945604
37,Strada Coriolan Hora,410238,47.0610689,21.8934835
37B,Strada Coriolan Hora,410238,47.0607691,21.8933182
39,Strada Coriolan Hora,410238,47.0610598,21.8928567
43,Strada Coriolan Hora,410238,47.0608567,21.8926776
45,Strada Coriolan Hora,410238,47.0607221,21.8926105
47,Strada Coriolan Hora,410238,47.0606038,21.8925335
28,Strada Barcăului,410257,47.0611981,21.9081799
30,Strada Barcăului,410257,47.0611997,21.9080495
30A,Strada Barcăului,410257,47.0612010,21.9079421
30B,Strada Barcăului,410257,47.0612027,21.9078011
32,Strada Barcăului,410257,47.0612042,21.9076795
34,Strada Barcăului,410257,47.0612060,21.9075384
36,Strada Barcăului,410257,47.0612085,21.9073372
38,Strada Barcăului,410257,47.0612120,21.9070504
40,Strada Barcăului,410257,47.0612133,21.9069442
42,Strada Barcăului,410257,47.0612156,21.9067601
44,Strada Barcăului,410257,47.0612179,21.9065749
46,Strada Barcăului,410257,47.0612198,21.9064207
48,Strada Barcăului,410257,47.0612221,21.9062337
78,Strada Ovid Densușianu,410237,47.0515555,21.8875390
17,Strada Alexandru Sahia,410257,47.0602937,21.9082191
19,Strada Alexandru Sahia,410257,47.0603036,21.9079317
21,Strada Alexandru Sahia,410257,47.0603053,21.9077436
21A,Strada Alexandru Sahia,410257,47.0603070,21.9076195
23,Strada Alexandru Sahia,410257,47.0602891,21.9074531
25,Strada Alexandru Sahia,410257,47.0603136,21.9071844
27,Strada Alexandru Sahia,410257,47.0603214,21.9069113
31,Strada Alexandru Sahia,410257,47.0603115,21.9066739
31A,Strada Alexandru Sahia,410257,47.0603275,21.9065452
33,Strada Alexandru Sahia,410257,47.0603298,21.9064207
35,Strada Alexandru Sahia,410257,47.0603282,21.9062722
28,Strada Mangaliei,410257,47.0604220,21.9083146
28A,Strada Mangaliei,410257,47.0604997,21.9083097
30,Strada Mangaliei,410257,47.0606357,21.9083255
32,Strada Mangaliei,410257,47.0607525,21.9083263
34,Strada Mangaliei,410257,47.0608694,21.9082327
34A,Strada Mangaliei,410257,47.0609874,21.9081923
41,Strada Meșteșugarilor,410256,47.0603256,21.9061033
41B,Strada Meșteșugarilor,410256,47.0605427,21.9060558
43,Strada Meșteșugarilor,410256,47.0606789,21.9061574
43BIS,Strada Meșteșugarilor,410256,47.0608862,21.9061428
1,Strada Alexandru Sahia,410257,47.0603135,21.9102179
10,Strada Barcăului,410257,47.0608014,21.9100525
11,Strada Alexandru Sahia,410257,47.0605563,21.9092035
11A,Strada Alexandru Sahia,410257,47.0602912,21.9091807
12,Strada Barcăului,410257,47.0608844,21.9099404
13,Strada Alexandru Sahia,410257,47.0602892,21.9090581
14,Strada Barcăului,410257,47.0610477,21.9096285
15,Strada Alexandru Sahia,410257,47.0602868,21.9088216
15A,Strada Alexandru Sahia,410257,47.0602862,21.9089452
16,Strada Barcăului,410257,47.0609717,21.9093255
18,Strada Barcăului,410257,47.0610746,21.9092135
2,Strada Barcăului,410257,47.0603592,21.9104714
20,Strada Barcăului,410257,47.0610884,21.9090687
22,Strada Barcăului,410257,47.0610900,21.9089440
24,Strada Barcăului,410257,47.0610921,21.9088202
26,Strada Barcăului,410257,47.0611211,21.9085994
27,Strada Mangaliei,410257,47.0602683,21.9085661
29,Strada Mangaliei,410257,47.0603871,21.9085782
3,Strada Alexandru Sahia,410257,47.0602681,21.9098072
31,Strada Mangaliei,410257,47.0606135,21.9085686
33,Strada Mangaliei,410257,47.0607183,21.9085409
35,Strada Mangaliei,410257,47.0608745,21.9086424
37,Strada Mangaliei,410257,47.0609843,21.9086434
3A,Strada Alexandru Sahia,410257,47.0602595,21.9100106
4,Strada Barcăului,410257,47.0605169,21.9103513
5,Strada Alexandru Sahia,410257,47.0603059,21.9095508
5A,Strada Alexandru Sahia,410257,47.0602876,21.9096955
7,Strada Alexandru Sahia,410257,47.0602999,21.9094029
78,Strada Oneștilor,410256,47.0609517,21.9107646
8,Strada Barcăului,410257,47.0606882,21.9101187
9,Strada Alexandru Sahia,410257,47.0603009,21.9093255
1,Strada Hațegului,410257,47.0592162,21.9099570
10,Strada Alexandru Sahia,410257,47.0600691,21.9088300
11,Strada Hațegului,410257,47.0593069,21.9092052
12,Strada Alexandru Sahia,410257,47.0600655,21.9086161
13,Strada Hațegului,410257,47.0591985,21.9090088
15,Strada Hațegului,410257,47.0592001,21.9088393
17,Strada Hațegului,410257,47.0592240,21.9085787
19,Strada Mangaliei,410257,47.0593414,21.9085306
2,Strada Alexandru Sahia,410257,47.0599530,21.9102496
21,Strada Mangaliei,410257,47.0594718,21.9085467
23,Strada Mangaliei,410257,47.0595838,21.9085478
25,Strada Mangaliei,410257,47.0597944,21.9086023
25A,Strada Mangaliei,410257,47.0599362,21.9085809
25B,Strada Mangaliei,410257,47.0596739,21.9086006
2A,Strada Alexandru Sahia,410257,47.0600508,21.9099073
3,Strada Hațegului,410257,47.0591911,21.9097045
4,Strada Alexandru Sahia,410257,47.0599825,21.9096632
5,Strada Hațegului,410257,47.0591926,21.9095740
6,Strada Alexandru Sahia,410257,47.0599816,21.9094700
68,Strada Oneștilor,410256,47.0591756,21.9098591
6A,Strada Alexandru Sahia,410257,47.0599829,21.9093392
7,Strada Hațegului,410257,47.0591928,21.9094399
70,Strada Oneștilor,410256,47.0594369,21.9100430
72,Strada Oneștilor,410256,47.0595247,21.9101681
74,Strada Oneștilor,410256,47.0596149,21.9101987
76,Strada Oneștilor,410256,47.0598417,21.9103571
76A,Strada Oneștilor,410256,47.0597597,21.9102440
8,Strada Alexandru Sahia,410257,47.0598001,21.9092321
8A,Strada Alexandru Sahia,410257,47.0598719,21.9090837
9,Strada Hațegului,410257,47.0591967,21.9093085
14,Strada Alexandru Sahia,410257,47.0600809,21.9082038
16,Strada Alexandru Sahia,410257,47.0600640,21.9080081
16A,Strada Alexandru Sahia,410257,47.0600500,21.9078483
18,Strada Alexandru Sahia,410257,47.0600539,21.9076743
19,Strada Hațegului,410257,47.0592097,21.9081831
20,Strada Alexandru Sahia,410257,47.0600436,21.9073243
20A,Strada Alexandru Sahia,410257,47.0600428,21.9074733
21,Strada Hațegului,410257,47.0592234,21.9079479
22,Strada Alexandru Sahia,410257,47.0600476,21.9071264
22A,Strada Mangaliei,410257,47.0596046,21.9081727
22B,Strada Mangaliei,410257,47.0595153,21.9081890
22C,Strada Mangaliei,410257,47.0594007,21.9082019
23,Strada Hațegului,410257,47.0592425,21.9076882
24,Strada Alexandru Sahia,410257,47.0600611,21.9069114
24,Strada Mangaliei,410257,47.0596680,21.9082096
25,Strada Hațegului,410257,47.0592323,21.9074862
26,Strada Alexandru Sahia,410257,47.0600853,21.9066918
26,Strada Mangaliei,410257,47.0597424,21.9082686
26A,Strada Alexandru Sahia,410257,47.0600830,21.9065413
26A,Strada Mangaliei,410257,47.0598424,21.9081849
29,Strada Hațegului,410257,47.0592627,21.9071559
31,Strada Hațegului,410257,47.0592648,21.9069597
31A,Strada Hațegului,410257,47.0592659,21.9068280
31A,Strada Meșteșugarilor,410256,47.0592977,21.9063347
33,Strada Hațegului,410257,47.0592269,21.9066194
33,Strada Meșteșugarilor,410256,47.0595222,21.9062315
35,Strada Meșteșugarilor,410256,47.0596297,21.9062756
35A,Strada Meșteșugarilor,410256,47.0597213,21.9062696
37,Strada Meșteșugarilor,410256,47.0598102,21.9062224
37A,Strada Meșteșugarilor,410256,47.0615557,21.9061765
37B,Strada Meșteșugarilor,410256,47.0599924,21.9061754
39,Strada Meșteșugarilor,410256,47.0601082,21.9062108
1,Strada 9 Mai,410236,47.0598124,21.8959123
1,Strada Arțarilor,410258,47.0593513,21.9031018
1,Piața Devei,410258,47.0592130,21.9022323
1,Strada Furnicii,410259,47.0593577,21.9012839
1,Strada Greierului,410258,47.0596867,21.9025471
10,Strada 9 Mai,410236,47.0597841,21.8954180
10,Strada Argeșului,410259,47.0596607,21.8994588
10,Strada Arțarilor,410258,47.0602752,21.9037058
10,Strada Carașului,410259,47.0593330,21.8981883
10,Strada Furnicii,410259,47.0599218,21.9007091
10,Strada Greierului,410258,47.0600501,21.9019822
100,Strada Barcăului,410257,47.0611923,21.8967813
100A,Strada Barcăului,410257,47.0611518,21.8966181
100B,Strada Barcăului,410257,47.0611271,21.8963971
10A,Strada Carașului,410259,47.0592400,21.8982579
10A,Strada Furnicii,410259,47.0598231,21.9007496
11,Strada Argeșului,410259,47.0597388,21.8996915
11,Strada Arțarilor,410258,47.0607777,21.9039146
11,Strada Furnicii,410259,47.0600818,21.9009381
11,Strada Greierului,410258,47.0605378,21.9022496
11A,Strada Argeșului,410259,47.0596491,21.8998698
12,Strada 9 Mai,410236,47.0598850,21.8951833
12,Strada Argeșului,410259,47.0599541,21.8992736
12,Strada Arțarilor,410258,47.0604494,21.9036717
12,Strada Carașului,410259,47.0595625,21.8981147
12,Strada Copacilor,410236,47.0590744,21.8946117
12,Strada Furnicii,410259,47.0600190,21.9006700
12,Strada Greierului,410258,47.0601966,21.9019231
12A,Strada Argeșului,410259,47.0600549,21.8992566
12A,Strada Arțarilor,410258,47.0605318,21.9036668
12A,Strada Copacilor,410236,47.0590747,21.8944726
12A,Strada Furnicii,410259,47.0601196,21.9006284
12A,Strada Zărandului,410236,47.0590617,21.8962606
13,Strada Argeșului,410259,47.0598447,21.8996655
13,Strada Arțarilor,410258,47.0609768,21.9038897
13,Strada Carașului,410259,47.0603894,21.8980783
13,Strada Furnicii,410259,47.0602436,21.9008840
13,Strada Greierului,410258,47.0606472,21.9021886
13A,Strada Arțarilor,410258,47.0608776,21.9038981
14,Strada 9 Mai,410236,47.0599033,21.8949707
14,Strada Argeșului,410259,47.0606714,21.8990153
14,Strada Arțarilor,410258,47.0606589,21.9036287
14,Strada Carașului,410259,47.0599665,21.8979332
14,Strada Copacilor,410236,47.0592208,21.8942368
14,Strada Furnicii,410259,47.0602162,21.9005897
14,Strada Greierului,410258,47.0603347,21.9019094
14,Strada Zărandului,410236,47.0591824,21.8963704
14A,Strada Furnicii,410259,47.0603070,21.9004779
15,Strada Argeșului,410259,47.0601260,21.8995632
15,Strada Carașului,410259,47.0606132,21.8980643
15,Strada Furnicii,410259,47.0603914,21.9008215
15,Strada Greierului,410258,47.0607647,21.9021471
15,Strada Zărandului,410259,47.0594212,21.8973764
15A,Strada Argeșului,410259,47.0600082,21.8996147
15A,Strada Carașului,410259,47.0605170,21.8980945
15A,Strada Furnicii,410259,47.0604696,21.9007663
16,Strada 9 Mai,410236,47.0600147,21.8948223
16,Strada Argeșului,410259,47.0607808,21.8989537
16,Strada Arțarilor,410258,47.0607745,21.9036219
16,Strada Furnicii,410259,47.0604514,21.9005262
16,Strada Greierului,410258,47.0604580,21.9018359
16,Strada Zărandului,410236,47.0592260,21.8965597
17,Strada Argeșului,410259,47.0602944,21.8995378
17,Strada Carașului,410259,47.0607011,21.8979980
17,Strada Furnicii,410259,47.0606822,21.9007369
17,Strada Greierului,410258,47.0609350,21.9020831
17-17A,Strada Zărandului,410259,47.0595110,21.8976459
17A,Strada Furnicii,410259,47.0605871,21.9007853
18,Strada Argeșului,410259,47.0609771,21.8988605
18,Strada Arțarilor,410258,47.0608699,21.9035111
18,Strada Carașului,410259,47.0601320,21.8978903
18,Strada Greierului,410258,47.0606399,21.9017846
18A,Strada Argeșului,410259,47.0608846,21.8989326
18A,Strada Carașului,410259,47.0602578,21.8978184
19,Strada Argeșului,410259,47.0608794,21.8992614
19,Strada Carașului,410259,47.0609604,21.8978808
19,Strada Zărandului,410259,47.0596441,21.8979089
1A,Strada 9 Mai,410236,47.0597395,21.8961062
1A,Strada Arțarilor,410258,47.0594797,21.9031755
1A,Strada Greierului,410258,47.0595437,21.9027277
2,Strada 9 Mai,410236,47.0594971,21.8962092
2,Strada Argeșului,410259,47.0591804,21.8996519
2,Strada Arțarilor,410258,47.0596018,21.9029072
2,Strada Furnicii,410259,47.0591205,21.9009460
2,Strada Greierului,410258,47.0595482,21.9022376
20,Strada Arțarilor,410258,47.0609927,21.9036047
20,Strada Carașului,410259,47.0603209,21.8976913
20,Strada Greierului,410258,47.0608368,21.9017067
20,Strada Zărandului,410259,47.0597483,21.8973682
20A,Strada Argeșului,410259,47.0610907,21.8988513
20A,Strada Carașului,410259,47.0604185,21.8977075
21,Strada Zărandului,410259,47.0598510,21.8983502
22,Strada Arțarilor,410258,47.0611291,21.9035215
22,Strada Carașului,410259,47.0605221,21.8976973
22,Strada Zărandului,410259,47.0598009,21.8975294
22A,Strada Carașului,410259,47.0606207,21.8976581
23,Strada Zărandului,410259,47.0598575,21.8985499
24,Strada Carașului,410259,47.0607222,21.8976329
24,Strada Zărandului,410259,47.0598591,21.8977202
24A,Strada Carașului,410259,47.0608299,21.8975256
25,Strada Zărandului,410259,47.0599779,21.8988230
26,Strada Carașului,410259,47.0609407,21.8975792
26,Strada Zărandului,410259,47.0601536,21.8982411
26A,Strada Carașului,410259,47.0610203,21.8975567
27,Strada Zărandului,410259,47.0600931,21.8988829
27A,Strada Zărandului,410259,47.0601417,21.8989749
28,Strada Alexandru Sahia,410257,47.0601019,21.9056312
28,Strada Zărandului,410259,47.0602008,21.8983549
29,Strada Lipovei,410259,47.0590526,21.8972911
29,Strada Zărandului,410259,47.0602092,21.8991141
2A,Strada Argeșului,410259,47.0590300,21.8997025
2A,Strada Arțarilor,410258,47.0597390,21.9031108
3,Strada 9 Mai,410236,47.0599240,21.8957727
3,Strada Argeșului,410259,47.0590320,21.9000776
3,Strada Arțarilor,410258,47.0596075,21.9032509
3,Strada Copacilor,410236,47.0590391,21.8953015
3,Strada Furnicii,410259,47.0594785,21.9012342
3,Strada Greierului,410258,47.0598658,21.9025085
30,Strada Alexandru Sahia,410257,47.0601084,21.9053983
30,Strada Zărandului,410259,47.0602700,21.8984718
30A,Strada Alexandru Sahia,410257,47.0600859,21.9052606
31,Strada Lipovei,410259,47.0591459,21.8972824
31,Strada Zărandului,410259,47.0604145,21.8997302
31A,Strada Lipovei,410259,47.0595836,21.8970496
32,Strada Alexandru Sahia,410257,47.0601088,21.9050677
32,Strada Zărandului,410259,47.0603241,21.8986666
33,Strada Lipovei,410259,47.0597228,21.8970130
33,Strada Zărandului,410259,47.0604761,21.8998921
33A,Strada Lipovei,410259,47.0598624,21.8969772
33A,Strada Zărandului,410259,47.0605200,21.9000474
34,Strada Alexandru Sahia,410257,47.0601077,21.9048924
34,Strada Zărandului,410259,47.0603680,21.8987960
34A,Strada Alexandru Sahia,410257,47.0601086,21.9047697
34A,Strada Zărandului,410259,47.0604786,21.8990140
34B,Strada Zărandului,410259,47.0606576,21.8993390
35,Strada Hațegului,410257,47.0593772,21.9053534
35,Strada Lipovei,410259,47.0600705,21.8968423
35,Strada Zărandului,410259,47.0605979,21.9002323
35A,Strada Lipovei,410259,47.0599649,21.8969488
36,Strada Alexandru Sahia,410257,47.0601109,21.9045809
36,Strada Lipovei,410236,47.0597494,21.8964103
36,Strada Zărandului,410259,47.0607089,21.8994937
37,Strada Alexandru Sahia,410257,47.0603340,21.9052755
37,Strada Hațegului,410257,47.0593001,21.9052734
37,Strada Lipovei,410259,47.0602216,21.8967634
37,Strada Zărandului,410259,47.0606415,21.9004008
37A,Strada Alexandru Sahia,410257,47.0603338,21.9051490
38,Strada Alexandru Sahia,410257,47.0601129,21.9043354
38,Strada Lipovei,410236,47.0598813,21.8963931
38,Strada Zărandului,410259,47.0607994,21.8995782
38A,Strada Zărandului,410259,47.0608656,21.8998004
38B,Strada Zărandului,410259,47.0609003,21.8998855
39,Strada Alexandru Sahia,410257,47.0603350,21.9050213
39,Strada Hațegului,410257,47.0593561,21.9050577
39,Strada Lipovei,410259,47.0603401,21.8967055
39,Strada Zărandului,410259,47.0607802,21.9006878
39A,Strada Alexandru Sahia,410257,47.0603718,21.9049021
39A,Strada Lipovei,410259,47.0604771,21.8966947
39A,Strada Zărandului,410259,47.0609664,21.9011236
3A,Strada Argeșului,410259,47.0591622,21.8999856
4,Strada Argeșului,410259,47.0592908,21.8996048
4,Strada Arțarilor,410258,47.0599264,21.9033212
4,Strada Furnicii,410259,47.0593159,21.9009385
4,Strada Greierului,410258,47.0596560,21.9021694
40,Strada Alexandru Sahia,410257,47.0600734,21.9038868
40,Strada Lipovei,410236,47.0600183,21.8963084
40,Strada Meșteșugarilor,410256,47.0593507,21.9055998
40,Strada Zărandului,410259,47.0608925,21.9000643
40A,Strada Alexandru Sahia,410257,47.0600708,21.9041888
41,Strada Alexandru Sahia,410257,47.0603820,21.9047648
41,Strada Hațegului,410257,47.0593154,21.9048503
41,Strada Lipovei,410259,47.0606399,21.8965864
41,Strada Zărandului,410259,47.0610183,21.9012732
41A,Strada Lipovei,410259,47.0605391,21.8966198
42,Strada Lipovei,410236,47.0601537,21.8962620
42,Strada Meșteșugarilor,410256,47.0594312,21.9056617
42,Strada Zărandului,410259,47.0609763,21.9001886
43,Strada Alexandru Sahia,410257,47.0603419,21.9046429
43,Strada Hațegului,410257,47.0593163,21.9046593
43,Strada Lipovei,410259,47.0608316,21.8964976
43,Strada Zărandului,410259,47.0610582,21.9014186
43A,Strada Hațegului,410257,47.0593179,21.9045364
43A,Strada Lipovei,410259,47.0607567,21.8965848
44,Strada Lipovei,410236,47.0603548,21.8961417
44,Strada Meșteșugarilor,410256,47.0595570,21.9057477
44A,Strada Lipovei,410236,47.0602710,21.8961256
44A,Strada Meșteșugarilor,410256,47.0596599,21.9056513
45,Strada Alexandru Sahia,410257,47.0603456,21.9044157
45,Strada Hațegului,410257,47.0593206,21.9042957
45,Strada Lipovei,410259,47.0609746,21.8964709
45,Strada Zărandului,410259,47.0610327,21.9016105
45A,Strada Alexandru Sahia,410257,47.0603415,21.9045430
45A,Strada Hațegului,410257,47.0593195,21.9044193
46,Strada Lipovei,410236,47.0604173,21.8961359
46,Strada Meșteșugarilor,410256,47.0598023,21.9056352
46A,Strada Ovid Densușianu,410237,47.0608332,21.8957463
46B,Strada Lipovei,410236,47.0605562,21.8961076
46B,Strada Ovid Densușianu,410237,47.0613824,21.8968444
46C,Strada Ovid Densușianu,410237,47.0606978,21.8955559
46D,Strada Ovid Densușianu,410237,47.0606279,21.8954297
46E,Strada Ovid Densușianu,410237,47.0605665,21.8953282
46F,Strada Ovid Densușianu,410237,47.0604599,21.8952239
47,Strada Alexandru Sahia,410257,47.0603407,21.9041962
47,Strada Hațegului,410257,47.0592877,21.9040802
48,Strada Meșteșugarilor,410256,47.0599447,21.9055431
48,Strada Ovid Densușianu,410237,47.0603899,21.8950546
48-48A,Strada Lipovei,410236,47.0606953,21.8960629
48B,Strada Ovid Densușianu,410237,47.0600879,21.8946545
48C,Strada Ovid Densușianu,410237,47.0597427,21.8943526
49,Strada Alexandru Sahia,410257,47.0603370,21.9040363
49,Strada Hațegului,410257,47.0592700,21.9037093
5,Strada 9 Mai,410236,47.0600361,21.8954062
5,Strada Argeșului,410259,47.0592450,21.8999367
5,Strada Arțarilor,410258,47.0598044,21.9035170
5,Strada Carașului,410259,47.0590914,21.8986104
5,Piața Devei,410258,47.0592540,21.9017556
5,Strada Furnicii,410259,47.0596891,21.9010835
5,Strada Greierului,410258,47.0600829,21.9024220
50,Strada Barcăului,410257,47.0611628,21.9054547
50,Strada Meșteșugarilor,410256,47.0603766,21.9055450
50,Strada Ovid Densușianu,410237,47.0595373,21.8941954
51,Strada Hațegului,410257,47.0593032,21.9034630
52,Strada Barcăului,410257,47.0611354,21.9052078
52,Strada Meșteșugarilor,410256,47.0606099,21.9055402
52A,Strada Barcăului,410257,47.0611688,21.9053079
52A,Strada Meșteșugarilor,410256,47.0605011,21.9055815
53,Strada Hațegului,410257,47.0592857,21.9033246
53A,Strada Hațegului,410257,47.0593232,21.9032245
54,Strada Barcăului,410257,47.0611575,21.9049466
54,Strada Meșteșugarilor,410256,47.0607682,21.9055205
54A,Strada Meșteșugarilor,410256,47.0608658,21.9054925
55,Strada Hațegului,410257,47.0592298,21.9016026
56,Strada Barcăului,410257,47.0611611,21.9046945
56,Strada Ovid Densușianu,410237,47.0590266,21.8937885
57,Strada Hațegului,410257,47.0591778,21.9014256
58,Strada Barcăului,410257,47.0611516,21.9044124
5A,Strada Arțarilor,410258,47.0598625,21.9036085
5A,Strada Furnicii,410259,47.0595752,21.9013001
5A,Strada Greierului,410258,47.0599793,21.9024934
6,Strada Argeșului,410259,47.0593936,21.8995679
6,Strada Arțarilor,410258,47.0600556,21.9034702
6,Strada Furnicii,410259,47.0594185,21.9009325
6,Strada Greierului,410258,47.0598515,21.9020634
60,Strada Barcăului,410257,47.0611565,21.9041613
62,Strada Barcăului,410257,47.0611644,21.9038811
64,Strada Barcăului,410257,47.0611873,21.9033106
66,Strada Barcăului,410257,47.0611818,21.9031814
68,Strada Barcăului,410257,47.0611751,21.9030341
68A,Strada Barcăului,410257,47.0611728,21.9028659
6A,Strada 9 Mai,410236,47.0595721,21.8958982
6A,Strada Carașului,410259,47.0590345,21.8982330
6A,Strada Furnicii,410259,47.0595175,21.9008924
6A,Strada Greierului,410258,47.0597493,21.9021050
7,Strada 9 Mai,410236,47.0601505,21.8952326
7,Strada Argeșului,410259,47.0593677,21.8999402
7,Strada Arțarilor,410258,47.0600023,21.9037618
7,Strada Carașului,410259,47.0592049,21.8985411
7,Strada Copacilor,410236,47.0592356,21.8950028
7,Piața Devei,410258,47.0594221,21.9018336
7,Strada Furnicii,410259,47.0597609,21.9010985
7,Strada Greierului,410258,47.0601832,21.9023878
70,Strada Barcăului,410257,47.0611844,21.9026832
72A,Strada Barcăului,410257,47.0611630,21.9024985
72B,Strada Barcăului,410257,47.0611774,21.9023509
76,Strada Barcăului,410257,47.0612359,21.9001085
76A,Strada Barcăului,410257,47.0611216,21.9002212
78,Strada Barcăului,410257,47.0612447,21.8997826
78A,Strada Barcăului,410257,47.0612510,21.8999294
7A,Strada 9 Mai,410236,47.0601523,21.8953606
7A,Strada Copacilor,410236,47.0593403,21.8946848
7A,Strada Furnicii,410259,47.0598785,21.9010349
7A,Strada Greierului,410258,47.0602547,21.9023331
8,Strada 9 Mai,410236,47.0596821,21.8956064
8,Strada Argeșului,410259,47.0594919,21.8995184
8,Strada Arțarilor,410258,47.0601838,21.9036863
8,Strada Carașului,410259,47.0591584,21.8982883
8,Strada Furnicii,410259,47.0597256,21.9007918
8,Strada Greierului,410258,47.0599510,21.9020225
80,Strada Barcăului,410257,47.0612341,21.8996399
82,Strada Barcăului,410257,47.0612298,21.8994972
84,Strada Barcăului,410257,47.0612279,21.8991406
84A,Strada Barcăului,410257,47.0612561,21.8993403
86,Strada Barcăului,410257,47.0612505,21.8986323
88,Strada Barcăului,410257,47.0612474,21.8985008
88A,Strada Barcăului,410257,47.0612517,21.8983012
8A,Strada 9 Mai,410236,47.0596311,21.8957343
8A,Strada Furnicii,410259,47.0596264,21.9008326
9,Strada 9 Mai,410236,47.0601817,21.8950623
9,Strada Argeșului,410259,47.0594597,21.8999002
9,Strada Arțarilor,410258,47.0606348,21.9039261
9,Strada Carașului,410259,47.0594916,21.8984660
9,Strada Furnicii,410259,47.0599850,21.9009786
9,Strada Greierului,410258,47.0603973,21.9022846
90,Strada Barcăului,410257,47.0612273,21.8980346
90A,Strada Barcăului,410257,47.0612386,21.8982180
92,Strada Barcăului,410257,47.0612581,21.8979064
94,Strada Barcăului,410257,47.0611996,21.8973708
96,Strada Barcăului,410257,47.0612171,21.8972125
98,Strada Barcăului,410257,47.0612117,21.8970252
9A,Strada Argeșului,410259,47.0595485,21.8998688
9A,Strada Carașului,410259,47.0593936,21.8985065
1,Strada Aurel Vlaicu,410243,47.0543820,21.8980175
1,Strada Belșugului,410235,47.0556894,21.8935479
1,Strada Copacilor,410236,47.0589879,21.8954212
1,Strada Ecaterina Varga,410244,47.0555922,21.8970339
1,Strada Gheorghe Țițeica,410243,47.0547432,21.8960038
1,Strada Govorei,410236,47.0580808,21.8950053
1,Strada Iacobinilor,410251,47.0545543,21.9022721
1,Strada Lipovei,410250,47.0551404,21.8988388
1,Strada Munteniei,410251,47.0549178,21.9015915
1,Strada Pionierilor,410244,47.0562529,21.8960520
1,Strada Sirenei,410251,47.0552910,21.8994616
1,Strada Zambilelor,410243,47.0555461,21.8949908
1,Strada Zărandului,410236,47.0565353,21.8945943
10,Strada Belșugului,410235,47.0550604,21.8933658
10,Strada Copacilor,410236,47.0590212,21.8947380
10,Strada Ecaterina Varga,410244,47.0564482,21.8974387
10,Strada Govorei,410236,47.0583232,21.8937931
10,Strada Iacobinilor,410251,47.0555658,21.9024873
10,Strada Lipovei,410244,47.0556772,21.8980923
10,Strada Munteniei,410251,47.0555800,21.9008854
10,Strada Oașului,410252,47.0575494,21.9029748
10,Strada Pionierilor,410244,47.0568534,21.8960752
10,Strada Sirenei,410251,47.0558688,21.8996324
10,Strada Zambilelor,410243,47.0543621,21.8946106
10,Strada Zărandului,410236,47.0587976,21.8958981
101,Strada Aviatorilor,410243,47.0554288,21.8962824
101,Strada Hațegului,410236,47.0577625,21.8942992
102,Strada Aviatorilor,410243,47.0548919,21.8972836
103,Strada Aviatorilor,410243,47.0553451,21.8964556
103,Strada Hațegului,410236,47.0577967,21.8941740
104,Strada Aviatorilor,410243,47.0548326,21.8974600
104A,Strada Aviatorilor,410243,47.0547908,21.8975744
105,Strada Aviatorilor,410243,47.0552006,21.8968472
105,Strada Hațegului,410236,47.0576979,21.8940187
106,Strada Aviatorilor,410243,47.0547172,21.8977142
107,Strada Aviatorilor,410243,47.0551515,21.8969802
107,Strada Hațegului,410236,47.0575767,21.8935874
108,Strada Aviatorilor,410243,47.0546302,21.8979523
109,Strada Aviatorilor,410243,47.0550916,21.8971611
109A,Strada Aviatorilor,410243,47.0550532,21.8972549
10A,Strada Govorei,410236,47.0583981,21.8936570
10A,Strada Pionierilor,410244,47.0569572,21.8961725
10A,Strada Zărandului,410236,47.0588542,21.8959970
10B,Strada Govorei,410236,47.0584558,21.8935248
10C,Strada Govorei,410236,47.0585267,21.8934010
11,Strada Govorei,410236,47.0585502,21.8941671
11,Strada Iacobinilor,410251,47.0553771,21.9029546
11,Strada Lipovei,410250,47.0560716,21.8985380
11,Strada Munteniei,410251,47.0556633,21.9012714
11,Strada Oașului,410252,47.0576951,21.9026968
11,Strada Pionierilor,410244,47.0570467,21.8966558
11,Strada Zambilelor,410243,47.0545309,21.8941417
11,Strada Zărandului,410259,47.0579466,21.8953196
110,Strada Aviatorilor,410243,47.0545766,21.8980952
111,Strada Aviatorilor,410243,47.0550090,21.8973749
113,Strada Aviatorilor,410243,47.0548871,21.8976365
115,Strada Aviatorilor,410243,47.0548411,21.8977749
117,Strada Aviatorilor,410243,47.0547691,21.8979477
119,Strada Aviatorilor,410243,47.0547231,21.8980742
11A,Strada Govorei,410236,47.0585908,21.8939515
11A,Strada Zărandului,410259,47.0581872,21.8956550
11B,Strada Zărandului,410259,47.0582393,21.8958150
12,Strada Belșugului,410235,47.0548845,21.8932390
12,Strada Ecaterina Varga,410244,47.0565475,21.8975332
12,Strada Iacobinilor,410251,47.0556719,21.9025465
12,Strada Lipovei,410244,47.0557872,21.8980751
12,Strada Oașului,410252,47.0574317,21.9028926
12,Strada Pionierilor,410244,47.0571424,21.8962966
12,Strada Zărandului,410236,47.0589290,21.8961239
121,Strada Aviatorilor,410243,47.0546556,21.8982343
12A,Strada Lipovei,410244,47.0559046,21.8979785
12A,Strada Pionierilor,410244,47.0570284,21.8962221
12B,Strada Lipovei,410244,47.0560743,21.8979443
13,Strada Govorei,410236,47.0586052,21.8938204
13,Strada Lipovei,410250,47.0562045,21.8984678
13,Strada Munteniei,410251,47.0558111,21.9012134
13,Strada Oașului,410252,47.0576486,21.9026278
13,Strada Zambilelor,410243,47.0543886,21.8940676
13,Strada Zărandului,410259,47.0583724,21.8958987
13A,Strada Munteniei,410251,47.0559514,21.9011622
13A,Strada Oașului,410252,47.0575577,21.9025538
13A,Strada Zărandului,410259,47.0584632,21.8960006
13B,Strada Oașului,410252,47.0574678,21.9024787
13B,Strada Zărandului,410259,47.0585308,21.8961423
13C,Strada Zărandului,410259,47.0587350,21.8963737
13D,Strada Zărandului,410259,47.0588146,21.8964953
13E,Strada Zărandului,410259,47.0589195,21.8966613
14,Strada Lipovei,410244,47.0562198,21.8978955
14,Strada Munteniei,410251,47.0556892,21.9008095
14,Strada Oașului,410252,47.0572901,21.9027791
14,Strada Pionierilor,410244,47.0573905,21.8963908
14A,Strada Lipovei,410244,47.0563191,21.8978925
14B,Strada Lipovei,410244,47.0564306,21.8978231
15,Strada Lipovei,410250,47.0562803,21.8983851
15,Strada Munteniei,410251,47.0560734,21.9010742
15,Strada Oașului,410252,47.0573537,21.9024210
15,Strada Pionierilor,410244,47.0572985,21.8968748
15A,Strada Pionierilor,410244,47.0573571,21.8970447
16,Strada Iacobinilor,410258,47.0562022,21.9029474
16,Strada Lipovei,410244,47.0569775,21.8975621
16,Strada Munteniei,410251,47.0557773,21.9007705
16,Strada Oașului,410252,47.0572057,21.9026932
16,Strada Pionierilor,410244,47.0574965,21.8966226
16A,Strada Iacobinilor,410258,47.0561130,21.9028725
16A,Strada Lipovei,410244,47.0566755,21.8976708
17,Strada Lipovei,410250,47.0564259,21.8983367
17,Strada Munteniei,410251,47.0563715,21.9009603
17,Strada Oașului,410252,47.0572612,21.9023466
17,Strada Pionierilor,410244,47.0574849,21.8970567
17A,Strada Oașului,410252,47.0571699,21.9022734
18,Strada Iacobinilor,410258,47.0563465,21.9030200
18,Strada Lipovei,410244,47.0571835,21.8975006
18,Strada Munteniei,410251,47.0559420,21.9007293
18,Strada Oașului,410252,47.0571060,21.9025374
18,Strada Pionierilor,410244,47.0576140,21.8967443
19,Strada Lipovei,410250,47.0569403,21.8980763
19,Strada Munteniei,410251,47.0565007,21.9009131
19,Strada Oașului,410252,47.0570886,21.9022048
19A,Strada Lipovei,410250,47.0571769,21.8980708
19A,Strada Oașului,410252,47.0569980,21.9021289
1A,Strada Belșugului,410235,47.0558271,21.8935453
1A,Strada Copacilor,410236,47.0588811,21.8956937
1A,Strada Ecaterina Varga,410244,47.0556354,21.8971344
1A,Strada Gheorghe Țițeica,410243,47.0546577,21.8959392
1A,Strada Pelinului,410235,47.0548896,21.8921716
1A,Strada Zambilelor,410243,47.0553243,21.8948669
1A,Strada Zărandului,410236,47.0566121,21.8946464
1B,Strada Belșugului,410235,47.0558598,21.8937031
1B,Strada Zambilelor,410243,47.0552647,21.8946131
1B,Strada Zărandului,410236,47.0567109,21.8947769
1C,Strada Zărandului,410236,47.0568019,21.8948404
2,Strada Belșugului,410235,47.0557083,21.8939466
2,Strada Copacilor,410236,47.0586283,21.8956838
2,Strada Gheorghe Țițeica,410243,47.0546937,21.8962757
2,Strada Iacobinilor,410251,47.0550304,21.9020136
2,Strada Lipovei,410244,47.0551200,21.8983054
2,Strada Munteniei,410251,47.0549267,21.9010670
2,Strada Pionierilor,410244,47.0561100,21.8954453
2,Strada Zambilelor,410243,47.0554149,21.8953526
2,Strada Zărandului,410236,47.0566485,21.8943944
20,Strada Munteniei,410251,47.0560243,21.9006875
20,Strada Oașului,410252,47.0569923,21.9025339
21,Strada Lipovei,410250,47.0573179,21.8980153
21,Strada Munteniei,410251,47.0566444,21.9008760
21,Strada Oașului,410252,47.0568938,21.9020367
21A,Strada Lipovei,410250,47.0574557,21.8979173
22,Strada Lipovei,410244,47.0574322,21.8973899
22,Strada Munteniei,410251,47.0563985,21.9005509
22,Strada Oașului,410252,47.0568955,21.9024175
23,Strada Lipovei,410250,47.0575739,21.8979146
23,Strada Oașului,410252,47.0568015,21.9019675
24,Strada Lipovei,410244,47.0575555,21.8973466
24,Strada Oașului,410252,47.0568319,21.9023849
24A,Strada Lipovei,410244,47.0576711,21.8973204
24A,Strada Oașului,410252,47.0567187,21.9023166
25,Strada Lipovei,410259,47.0586232,21.8974721
25,Strada Oașului,410252,47.0566993,21.9018581
25A,Strada Lipovei,410259,47.0585443,21.8975717
25A,Strada Oașului,410252,47.0565569,21.9017691
25B,Strada Lipovei,410259,47.0587383,21.8973736
26,Strada Oașului,410252,47.0564527,21.9020513
26A,Strada Oașului,410252,47.0566465,21.9021796
26B,Strada Oașului,410252,47.0565625,21.9021138
27A,Strada Lipovei,410259,47.0589312,21.8973178
29,Strada Înfrățirii,410251,47.0563484,21.9023655
29A,Strada Înfrățirii,410251,47.0561702,21.9026545
29B,Strada Înfrățirii,410251,47.0562838,21.9025286
2A,Strada Belșugului,410235,47.0556422,21.8938813
2A,Strada Copacilor,410236,47.0587288,21.8954658
2A,Strada Gheorghe Țițeica,410243,47.0545804,21.8961957
2A,Strada Lipovei,410244,47.0549445,21.8983764
2A,Strada Pelinului,410235,47.0546015,21.8922805
2A,Strada Pionierilor,410244,47.0562646,21.8956481
2A,Strada Zambilelor,410243,47.0553397,21.8952896
2A,Strada Zărandului,410236,47.0567791,21.8945069
2B,Strada Zambilelor,410243,47.0552618,21.8952126
2B,Strada Zărandului,410236,47.0569141,21.8945760
2C,Strada Zambilelor,410243,47.0551677,21.8951387
2D,Strada Zambilelor,410243,47.0550676,21.8950744
3,Strada Belșugului,410235,47.0555350,21.8934658
3,Strada Ecaterina Varga,410244,47.0557437,21.8971938
3,Strada Gheorghe Țițeica,410243,47.0545743,21.8958646
3,Strada Govorei,410236,47.0581892,21.8948790
3,Strada Iacobinilor,410251,47.0548370,21.9024890
3,Strada Munteniei,410251,47.0550671,21.9015264
3,Strada Oașului,410252,47.0582022,21.9030235
3,Strada Pelinului,410235,47.0549561,21.8919890
3,Strada Pionierilor,410244,47.0563383,21.8961175
3,Strada Sirenei,410251,47.0554541,21.8996779
3,Strada Zambilelor,410243,47.0551972,21.8944242
3,Strada Zărandului,410236,47.0568863,21.8949059
31,Strada Înfrățirii,410251,47.0563947,21.9021962
32,Strada Hațegului,410244,47.0584022,21.9000011
32,Strada Lipovei,410236,47.0586375,21.8968741
32,Strada Înfrățirii,410251,47.0560578,21.9024265
32A,Strada Hațegului,410244,47.0578195,21.8967880
32B,Strada Hațegului,410244,47.0577895,21.8966067
32C,Strada Hațegului,410244,47.0578024,21.8964812
34,Strada Hațegului,410244,47.0577214,21.8962274
34,Strada Lipovei,410236,47.0588189,21.8968068
34,Strada Înfrățirii,410251,47.0561301,21.9022314
34A,Strada Hațegului,410244,47.0577654,21.8963454
34B,Strada Hațegului,410244,47.0577191,21.8961219
34C,Strada Hațegului,410244,47.0575297,21.8960509
34D,Strada Hațegului,410244,47.0575131,21.8959891
34E,Strada Hațegului,410244,47.0576679,21.8958775
35,Strada Jimboliei,410251,47.0545901,21.9029874
36,Strada Hațegului,410244,47.0576390,21.8956864
36,Strada Înfrățirii,410251,47.0561935,21.9020224
37,Strada Aviatorilor,410250,47.0543298,21.9007383
37,Strada Jimboliei,410251,47.0545630,21.9027218
37A,Strada Jimboliei,410251,47.0546047,21.9028345
37A,Strada Înfrățirii,410251,47.0564389,21.9015117
38,Strada Înfrățirii,410251,47.0562568,21.9019157
38A,Strada Înfrățirii,410251,47.0562930,21.9017049
39,Strada Aviatorilor,410250,47.0544679,21.9006197
3A,Strada Gheorghe Țițeica,410243,47.0544878,21.8958007
3A,Strada Govorei,410236,47.0583515,21.8947952
3A,Strada Oașului,410252,47.0580848,21.9029900
3A,Strada Zambilelor,410243,47.0550389,21.8945262
3A,Strada Zărandului,410236,47.0569695,21.8949774
3B,Strada Zambilelor,410243,47.0549542,21.8944062
4,Strada Belșugului,410235,47.0555534,21.8938308
4,Strada Copacilor,410236,47.0587452,21.8953815
4,Strada Ecaterina Varga,410244,47.0559279,21.8970047
4,Strada Gheorghe Țițeica,410243,47.0545150,21.8961319
4,Strada Govorei,410236,47.0580736,21.8944952
4,Strada Iacobinilor,410251,47.0551488,21.9021061
4,Strada Lipovei,410244,47.0553100,21.8982540
4,Strada Munteniei,410251,47.0550771,21.9009646
4,Strada Pionierilor,410244,47.0563968,21.8956417
4,Strada Zambilelor,410243,47.0548788,21.8949623
4,Strada Zărandului,410236,47.0569979,21.8946950
4-4A,Strada Carașului,410259,47.0588830,21.8984124
40,Strada Hațegului,410236,47.0574817,21.8949183
40,Strada Piteștilor,410258,47.0587467,21.9029323
40,Strada Înfrățirii,410251,47.0562667,21.9015966
40A,Strada Hațegului,410236,47.0574337,21.8946727
40A,Strada Înfrățirii,410251,47.0562446,21.9014886
41,Strada Aviatorilor,410250,47.0544796,21.9003992
41A,Strada Aviatorilor,410250,47.0545555,21.9002017
42,Strada Hațegului,410236,47.0573050,21.8944119
42,Strada Înfrățirii,410251,47.0562224,21.9013772
42A,Strada Hațegului,410236,47.0573948,21.8945382
43,Strada Aviatorilor,410250,47.0546531,21.9000524
43A,Strada Aviatorilor,410250,47.0547329,21.8999603
44,Strada Înfrățirii,410251,47.0561991,21.9012668
44A,Strada Înfrățirii,410251,47.0560679,21.9005254
45,Strada Aviatorilor,410250,47.0547253,21.8997900
46,Strada Hațegului,410236,47.0573011,21.8941085
46,Strada Înfrățirii,410251,47.0560374,21.9004051
46A,Strada Hațegului,410236,47.0572581,21.8937960
47,Strada Aviatorilor,410250,47.0547750,21.8995835
47,Strada Înfrățirii,410251,47.0561995,21.8999387
47A,Strada Înfrățirii,410251,47.0562807,21.8997945
47B,Strada Înfrățirii,410251,47.0562825,21.8996189
48,Strada Aviatorilor,410250,47.0543482,21.8997362
48,Strada Înfrățirii,410251,47.0560227,21.9002723
48A,Strada Înfrățirii,410251,47.0560763,21.8994378
48B,Strada Înfrățirii,410251,47.0561891,21.8992494
48C,Strada Înfrățirii,410251,47.0562555,21.8990787
49,Strada Aviatorilor,410250,47.0548734,21.8993715
49,Strada Înfrățirii,410251,47.0563741,21.8993741
49A,Strada Înfrățirii,410251,47.0563272,21.8994962
4A,Strada Belșugului,410235,47.0554784,21.8937611
4A,Strada Copacilor,410236,47.0588068,21.8952400
4A,Strada Munteniei,410251,47.0551639,21.9009036
4A,Strada Zărandului,410236,47.0571516,21.8947718
4B,Strada Belșugului,410235,47.0553938,21.8936829
5,Strada Belșugului,410235,47.0553617,21.8932975
5,Strada Gheorghe Țițeica,410243,47.0543854,21.8955444
5,Strada Govorei,410236,47.0583438,21.8944523
5,Strada Iacobinilor,410251,47.0549611,21.9025716
5,Strada Lipovei,410250,47.0555994,21.8987167
5,Strada Munteniei,410251,47.0552036,21.9014493
5,Strada Pionierilor,410244,47.0564620,21.8962247
5,Strada Sirenei,410251,47.0556462,21.8998269
5,Strada Zambilelor,410243,47.0548865,21.8943484
5,Strada Zărandului,410236,47.0570967,21.8950525
5-7,Strada Oașului,410252,47.0580479,21.9026723
50,Strada Aviatorilor,410250,47.0544957,21.8993147
50,Strada Înfrățirii,410251,47.0563362,21.8988472
51,Strada Aviatorilor,410243,47.0549653,21.8993173
51,Strada Înfrățirii,410251,47.0564270,21.8992602
51A,Strada Aviatorilor,410243,47.0549949,21.8981094
51A,Strada Înfrățirii,410251,47.0564728,21.8991371
52,Strada Aviatorilor,410250,47.0544017,21.8992380
52,Strada Înfrățirii,410251,47.0564195,21.8985969
53,Strada Aviatorilor,410235,47.0551444,21.8978349
53A,Strada Înfrățirii,410251,47.0565207,21.8990155
53B,Strada Înfrățirii,410251,47.0565660,21.8988912
55,Strada Aviatorilor,410235,47.0551988,21.8976404
55,Strada Înfrățirii,410251,47.0566135,21.8987689
57,Strada Înfrățirii,410251,47.0566616,21.8986452
57A,Strada Aviatorilor,410235,47.0552238,21.8974643
57B,Strada Aviatorilor,410235,47.0552957,21.8972565
58,Strada Ovid Densușianu,410237,47.0589921,21.8936501
58A,Strada Aviatorilor,410243,47.0546006,21.8974672
58A,Strada Ovid Densușianu,410237,47.0588864,21.8935973
58B,Strada Aviatorilor,410243,47.0546199,21.8973176
58C,Strada Aviatorilor,410243,47.0547296,21.8971192
58D,Strada Aviatorilor,410243,47.0548141,21.8968441
58E,Strada Aviatorilor,410243,47.0548993,21.8967049
58F,Strada Aviatorilor,410243,47.0549562,21.8965516
58H,Strada Aviatorilor,410243,47.0550761,21.8962589
58I,Strada Aviatorilor,410243,47.0551578,21.8959796
58J,Strada Aviatorilor,410243,47.0552101,21.8958518
58L,Strada Aviatorilor,410243,47.0552635,21.8957182
59,Strada Aviatorilor,410235,47.0554271,21.8969275
59,Strada Hațegului,410257,47.0590220,21.9009861
59,Strada Înfrățirii,410251,47.0567512,21.8983911
59A,Strada Înfrățirii,410251,47.0567030,21.8985463
5A,Strada Govorei,410236,47.0583226,21.8946117
5A,Strada Zărandului,410236,47.0572139,21.8951652
6,Strada Belșugului,410235,47.0553152,21.8935996
6,Strada Carașului,410259,47.0589935,21.8983522
6,Strada Copacilor,410236,47.0588452,21.8951277
6,Strada Ecaterina Varga,410244,47.0561169,21.8971831
6,Strada Gheorghe Țițeica,410243,47.0543749,21.8960694
6,Strada Govorei,410236,47.0581808,21.8942629
6,Strada Iacobinilor,410251,47.0553296,21.9022307
6,Strada Lipovei,410244,47.0554392,21.8981210
6,Strada Munteniei,410251,47.0552549,21.9008874
6,Strada Pionierilor,410244,47.0564930,21.8957810
6,Strada Sirenei,410251,47.0555414,21.8993461
6,Strada Zambilelor,410243,47.0547173,21.8947729
6,Strada Zărandului,410236,47.0582789,21.8953221
60,Strada Ovid Densușianu,410237,47.0588074,21.8935428
60A,Strada Aviatorilor,410235,47.0555828,21.8948251
60A,Strada Ovid Densușianu,410237,47.0587038,21.8934814
61,Strada Aviatorilor,410235,47.0555557,21.8966131
61,Strada Hațegului,410257,47.0589680,21.9007648
61A,Strada Hațegului,410257,47.0589414,21.9006238
62,Strada Ovid Densușianu,410237,47.0586156,21.8932626
62A,Strada Aviatorilor,410235,47.0556315,21.8946934
62A,Strada Ovid Densușianu,410237,47.0583894,21.8931193
62B,Strada Aviatorilor,410235,47.0556821,21.8945646
62B,Strada Ovid Densușianu,410237,47.0583374,21.8930873
62C,Strada Ovid Densușianu,410237,47.0582786,21.8930096
63,Strada Aviatorilor,410235,47.0556830,21.8962817
63,Strada Hațegului,410257,47.0589569,21.9004750
63A,Strada Aviatorilor,410235,47.0556311,21.8964134
63A,Strada Hațegului,410257,47.0588882,21.9003465
64,Strada Aviatorilor,410235,47.0557839,21.8943010
64,Strada Ovid Densușianu,410237,47.0582050,21.8929468
64A,Strada Aviatorilor,410235,47.0557330,21.8944335
65,Strada Aviatorilor,410235,47.0558124,21.8960067
65,Strada Hațegului,410257,47.0588756,21.9001502
65A,Strada Aviatorilor,410235,47.0558108,21.8962262
66,Strada Aviatorilor,410235,47.0558752,21.8941029
67,Strada Aviatorilor,410235,47.0558905,21.8958017
67,Strada Hațegului,410257,47.0588272,21.8997948
67A,Strada Hațegului,410257,47.0587944,21.8996118
68,Strada Aviatorilor,410235,47.0559827,21.8938288
68B,Strada Aviatorilor,410235,47.0560652,21.8936925
69,Strada Aviatorilor,410235,47.0560915,21.8952621
69,Strada Hațegului,410257,47.0587229,21.8993616
6A,Strada Copacilor,410236,47.0588938,21.8950000
6A,Strada Ecaterina Varga,410244,47.0560239,21.8970724
6A,Strada Pionierilor,410244,47.0566053,21.8958714
6A,Strada Zambilelor,410243,47.0545435,21.8947288
6A,Strada Zărandului,410236,47.0572587,21.8948717
7,Strada Belșugului,410235,47.0544472,21.8923346
7,Strada Govorei,410236,47.0584297,21.8943508
7,Strada Lipovei,410250,47.0557772,21.8986168
7,Strada Munteniei,410251,47.0553498,21.9013834
7;58M,Strada Pionierilor;Strada Aviatorilor,410244;410243,47.0566092,21.8963170
7,Strada Sirenei,410251,47.0557437,21.8998348
7,Strada Zambilelor,410243,47.0548121,21.8943343
7,Strada Zărandului,410236,47.0573042,21.8952198
70,Strada Aviatorilor,410235,47.0563479,21.8934846
71,Strada Aviatorilor,410235,47.0561459,21.8951103
71,Strada Hațegului,410257,47.0586821,21.8992337
72,Strada Aviatorilor,410235,47.0562671,21.8936995
73,Strada Aviatorilor,410235,47.0562685,21.8947460
73,Strada Hațegului,410257,47.0586875,21.8989605
73A,Strada Aviatorilor,410235,47.0563705,21.8944570
74,Strada Aviatorilor,410235,47.0561884,21.8938796
75,Strada Aviatorilor,410235,47.0564597,21.8941991
75,Strada Hațegului,410257,47.0586517,21.8987782
76,Strada Aviatorilor,410235,47.0560546,21.8942708
77,Strada Aviatorilor,410235,47.0566709,21.8936704
77,Strada Hațegului,410257,47.0585777,21.8985227
78,Strada Aviatorilor,410235,47.0559772,21.8944238
79,Strada Aviatorilor,410235,47.0564499,21.8935638
79,Strada Hațegului,410257,47.0585238,21.8983693
7A,Strada Clopoțeilor,410236,47.0545371,21.8916966
7A,Strada Iacobinilor,410251,47.0551296,21.9027214
7A,Strada Sirenei,410251,47.0559843,21.8997166
7A,Strada Zărandului,410236,47.0573898,21.8952769
8,Strada Belșugului,410235,47.0551889,21.8934968
8,Strada Copacilor,410236,47.0589689,21.8948704
8,Strada Ecaterina Varga,410244,47.0562177,21.8972069
8,Strada Govorei,410236,47.0582554,21.8939775
8,Strada Iacobinilor,410251,47.0554410,21.9023609
8,Strada Munteniei,410251,47.0554368,21.9008841
8,Strada Pionierilor,410244,47.0567798,21.8960290
8,Strada Sirenei,410251,47.0557218,21.8994728
8,Strada Zambilelor,410243,47.0544805,21.8945991
8,Strada Zărandului,410236,47.0583968,21.8954470
80,Strada Aviatorilor,410235,47.0559125,21.8946444
81,Strada Aviatorilor,410235,47.0563655,21.8937817
81,Strada Hațegului,410257,47.0585207,21.8982276
82,Strada Aviatorilor,410235,47.0557924,21.8949062
83,Strada Aviatorilor,410235,47.0562991,21.8939467
83,Strada Hațegului,410257,47.0584906,21.8980724
84,Strada Aviatorilor,410235,47.0557376,21.8951029
85,Strada Aviatorilor,410235,47.0561478,21.8943436
85,Strada Hațegului,410257,47.0586503,21.8978611
85A,Strada Hațegului,410257,47.0585013,21.8977824
86,Strada Aviatorilor,410243,47.0555662,21.8954968
86A,Strada Aviatorilor,410243,47.0555217,21.8956055
87,Strada Aviatorilor,410235,47.0560888,21.8945044
87,Strada Hațegului,410244,47.0581375,21.8962235
87A,Strada Aviatorilor,410235,47.0560366,21.8946436
88,Strada Aviatorilor,410243,47.0554799,21.8957759
89,Strada Hațegului,410244,47.0581067,21.8961426
8A,Strada Ecaterina Varga,410244,47.0562853,21.8972978
8A,Strada Munteniei,410251,47.0553114,21.9008758
8A,Strada Oașului,410252,47.0576161,21.9030398
9,Strada Govorei,410236,47.0584776,21.8941934
9,Strada Iacobinilor,410251,47.0552735,21.9028584
9,Strada Lipovei,410250,47.0559552,21.8986062
9,Strada Munteniei,410251,47.0555879,21.9013882
9,Strada Oașului,410252,47.0578188,21.9027569
9,Strada Pionierilor,410244,47.0568524,21.8965690
9,Strada Sirenei,410251,47.0558804,21.8999704
9,Strada Zambilelor,410243,47.0546907,21.8942254
9,Strada Zărandului,410236,47.0574782,21.8953473
90,Strada Aviatorilor,410243,47.0554005,21.8959492
91,Strada Aviatorilor,410235,47.0559180,21.8949832
91,Strada Hațegului,410244,47.0580673,21.8959401
92,Strada Aviatorilor,410243,47.0553307,21.8961705
93,Strada Aviatorilor,410235,47.0558514,21.8951479
93,Strada Hațegului,410244,47.0580500,21.8957793
94,Strada Aviatorilor,410243,47.0552402,21.8963527
95,Strada Hațegului,410244,47.0579833,21.8955643
95A,Strada Hațegului,410244,47.0579324,21.8954285
96,Strada Aviatorilor,410243,47.0551064,21.8967681
97,Strada Hațegului,410236,47.0577973,21.8946274
97A,Strada Hațegului,410236,47.0578527,21.8949872
98,Strada Aviatorilor,410243,47.0550451,21.8969030
99,Strada Hațegului,410236,47.0577834,21.8945006
9A,Strada Belșugului,410235,47.0543985,21.8922553
9A,Strada Munteniei,410251,47.0554844,21.9013636
9A,Strada Pionierilor,410244,47.0569071,21.8966379
1,Piața Bobâlnei,410243,47.0528617,21.8937596
1,Strada Clopoțeilor,410236,47.0540589,21.8910054
1,Strada George Washington,410242,47.0533004,21.8959047
1,Strada Salciei,410242,47.0531724,21.8961622
1,Strada Trotușului,410242,47.0525243,21.8999516
1,Strada Vasile Pârvan,410242,47.0532241,21.8990020
10,Strada Aurel Vlaicu,410243,47.0538421,21.8971235
10,Strada Clopoțeilor,410236,47.0548473,21.8911715
10,Strada Constantin Mille,410242,47.0532249,21.8977674
10,Strada George Washington,410242,47.0527497,21.8976018
10,Strada Gheorghe Țițeica,410243,47.0534689,21.8954686
10,Strada Oltețului,410242,47.0515951,21.9013750
10,Strada Salciei,410242,47.0523085,21.8957969
10,Strada Trotușului,410242,47.0515593,21.8998799
10,Strada Vasile Pârvan,410242,47.0526153,21.8988554
100,Strada Henrik Ibsen,410234,47.0533525,21.8910574
102,Strada Henrik Ibsen,410234,47.0534190,21.8908870
104,Strada Henrik Ibsen,410234,47.0535287,21.8906649
106,Strada Henrik Ibsen,410234,47.0535919,21.8905070
108,Strada Henrik Ibsen,410234,47.0536820,21.8902756
108A,Strada Henrik Ibsen,410234,47.0537025,21.8901524
10A,Strada Aurel Vlaicu,410243,47.0537942,21.8969813
10A,Strada Gheorghe Țițeica,410243,47.0533567,21.8953833
10A,Strada Oltețului,410242,47.0515264,21.9012867
10A,Strada Vasile Pârvan,410242,47.0525284,21.8987840
10A,Strada Zambilelor,410243,47.0542356,21.8946331
11,Strada Aurel Vlaicu,410243,47.0540702,21.8963660
11,Strada Belșugului,410235,47.0542208,21.8921009
11,Piața Bobâlnei,410243,47.0535162,21.8928109
11,Strada Constantin Mille,410242,47.0531185,21.8972406
11,Strada George Washington,410242,47.0518486,21.8976733
11,Strada Gheorghe Țițeica,410243,47.0539802,21.8953751
11,Strada Oltețului,410242,47.0515420,21.9009727
11,Strada Salciei,410242,47.0524416,21.8955215
11,Strada Trotușului,410242,47.0515205,21.8991370
11,Strada Vasile Pârvan,410242,47.0521337,21.8980902
110,Strada Henrik Ibsen,410234,47.0537851,21.8900088
110A,Strada Henrik Ibsen,410234,47.0537330,21.8900884
112,Strada Henrik Ibsen,410234,47.0538414,21.8898593
114,Strada Henrik Ibsen,410234,47.0538914,21.8896967
116,Strada Henrik Ibsen,410234,47.0539510,21.8895723
118,Strada Henrik Ibsen,410234,47.0540149,21.8894370
11A,Strada Aurel Vlaicu,410243,47.0540302,21.8962516
11A,Strada George Washington,410242,47.0517875,21.8977266
12,Strada Aurel Vlaicu,410243,47.0537610,21.8967123
12,Strada Constantin Mille,410242,47.0531365,21.8976915
12,Strada George Washington,410242,47.0526594,21.8976926
12,Strada Gheorghe Țițeica,410243,47.0532576,21.8952878
12,Strada Oltețului,410242,47.0514404,21.9012131
12,Strada Trotușului,410242,47.0514064,21.8997262
12,Strada Vasile Pârvan,410242,47.0524576,21.8986783
12,Strada Zambilelor,410243,47.0542247,21.8943787
120,Strada Henrik Ibsen,410234,47.0540795,21.8893018
12A,Strada Oltețului,410242,47.0513550,21.9011353
12A,Strada Trotușului,410242,47.0513150,21.8996109
12A,Strada Vasile Pârvan,410242,47.0523255,21.8986318
13,Strada Aurel Vlaicu,410243,47.0539970,21.8961023
13,Strada Belșugului,410235,47.0541166,21.8920528
13,Piața Bobâlnei,410243,47.0534260,21.8927343
13,Strada Oltețului,410242,47.0513689,21.9008563
13,Strada Trotușului,410242,47.0514470,21.8990696
13,Strada Vasile Pârvan,410242,47.0520104,21.8980140
13A,Strada Aurel Vlaicu,410243,47.0539522,21.8957283
13A,Strada Constantin Mille,410242,47.0527234,21.8970285
13A,Strada Gheorghe Țițeica,410243,47.0531026,21.8948291
13A,Strada Trotușului,410242,47.0513606,21.8990221
13B,Strada Aurel Vlaicu,410243,47.0539809,21.8958863
14,Strada Aurel Vlaicu,410243,47.0536838,21.8965326
14,Strada Belșugului,410235,47.0539038,21.8922272
14,Strada Constantin Mille,410242,47.0530409,21.8976263
14,Strada George Washington,410242,47.0525563,21.8976725
14,Strada Gheorghe Țițeica,410243,47.0531441,21.8951943
14,Strada Oltețului,410242,47.0511717,21.9010075
14,Strada Trotușului,410242,47.0512229,21.8995065
14,Strada Vasile Pârvan,410242,47.0522470,21.8985611
14,Strada Zambilelor,410243,47.0540955,21.8943137
14A,Strada Trotușului,410242,47.0511445,21.8994838
14A,Strada Vasile Pârvan,410242,47.0521206,21.8986082
15,Strada Belșugului,410235,47.0540190,21.8919768
15,Strada Constantin Mille,410242,47.0526161,21.8969550
15,Strada Gheorghe Țițeica,410243,47.0530095,21.8947750
15,Strada Oltețului,410242,47.0512133,21.9006893
15,Strada Trotușului,410242,47.0512900,21.8989564
15,Strada Zambilelor,410243,47.0542369,21.8938917
15A,Strada Aurel Vlaicu,410243,47.0538202,21.8951325
15A,Strada Constantin Mille,410242,47.0525071,21.8968358
15A,Strada Oltețului,410242,47.0511173,21.9006459
15A,Strada Trotușului,410242,47.0511701,21.8988485
15A,Strada Vasile Pârvan,410242,47.0517121,21.8977352
15B,Strada Aurel Vlaicu,410243,47.0540004,21.8949445
15C,Strada Aurel Vlaicu,410243,47.0537822,21.8949518
16,Strada Aurel Vlaicu,410243,47.0536792,21.8963298
16,Strada Belșugului,410235,47.0536451,21.8920523
16,Strada Constantin Mille,410242,47.0526619,21.8973000
16,Strada George Washington,410242,47.0521391,21.8978666
16,Strada Gheorghe Țițeica,410243,47.0530317,21.8950938
16,Strada Oltețului,410242,47.0510917,21.9009098
16,Strada Vasile Pârvan,410242,47.0520744,21.8984542
16,Strada Zambilelor,410243,47.0539568,21.8943096
16A,Strada Aurel Vlaicu,410243,47.0536503,21.8961594
16A,Strada Belșugului,410235,47.0535488,21.8920151
16A,Strada Vasile Pârvan,410242,47.0519327,21.8982741
16B,Strada Aurel Vlaicu,410243,47.0536082,21.8959137
16B,Strada Vasile Pârvan,410242,47.0518429,21.8982065
16C,Strada Aurel Vlaicu,410243,47.0534626,21.8951186
16D,Strada Aurel Vlaicu,410243,47.0533868,21.8947685
17,Strada Aurel Vlaicu,410243,47.0537432,21.8948334
17,Strada Belșugului,410235,47.0539182,21.8918967
17,Strada Constantin Mille,410242,47.0524111,21.8966849
17,Strada Gheorghe Țițeica,410243,47.0529145,21.8945755
17,Strada Vasile Pârvan,410242,47.0514953,21.8975795
17,Strada Zambilelor,410243,47.0539721,21.8936655
17A,Strada Zambilelor,410243,47.0541017,21.8938096
18,Strada Aurel Vlaicu,410243,47.0533743,21.8946106
18,Strada Constantin Mille,410242,47.0524560,21.8971492
18,Strada George Washington,410242,47.0520469,21.8979008
18,Strada Gheorghe Țițeica,410243,47.0529117,21.8949987
18,Strada Vasile Pârvan,410242,47.0517726,21.8981259
18,Strada Zambilelor,410243,47.0539068,21.8941650
18A,Strada Aurel Vlaicu,410243,47.0533323,21.8944821
18A,Strada Vasile Pârvan,410242,47.0516847,21.8980548
19,Strada Aurel Vlaicu,410243,47.0537061,21.8946679
19,Strada Belșugului,410235,47.0538167,21.8917783
19,Strada Constantin Mille,410242,47.0522783,21.8966554
19,Strada Gheorghe Țițeica,410243,47.0528047,21.8945968
19,Strada Zambilelor,410243,47.0538649,21.8936077
19A,Strada Belșugului,410235,47.0537275,21.8916789
1A,Strada Vasile Pârvan,410242,47.0530895,21.8988550
1B,Strada Vasile Pârvan,410242,47.0529870,21.8987957
1C,Strada Vasile Pârvan,410242,47.0528856,21.8987229
2,Strada Aurel Vlaicu,410243,47.0539748,21.8980571
2,Piața Bobâlnei,410243,47.0529136,21.8934919
2,Strada Constantin Mille,410242,47.0537927,21.8982295
2,Strada George Washington,410242,47.0534221,21.8961714
2,Strada Pelinului,410235,47.0548721,21.8916253
2,Strada Salciei,410242,47.0531220,21.8964471
2,Strada Trotușului,410242,47.0522006,21.9002910
2,Strada Vasile Pârvan,410242,47.0531480,21.8992788
20,Strada Aurel Vlaicu,410243,47.0532694,21.8943789
20,Strada Constantin Mille,410242,47.0522644,21.8970869
20,Strada Gheorghe Țițeica,410243,47.0528000,21.8949054
20,Strada Vasile Pârvan,410242,47.0515942,21.8979853
20A,Strada Aurel Vlaicu,410243,47.0532683,21.8942681
20A,Strada Vasile Pârvan,410242,47.0515081,21.8979089
21,Strada Aurel Vlaicu,410243,47.0537028,21.8944326
21,Strada Constantin Mille,410242,47.0521649,21.8965629
21,Strada Gheorghe Țițeica,410243,47.0527224,21.8945311
22,Strada Aurel Vlaicu,410243,47.0532482,21.8940831
22,Strada Constantin Mille,410242,47.0521789,21.8969379
22,Strada Gheorghe Țițeica,410243,47.0526863,21.8948224
22,Strada Vasile Pârvan,410242,47.0514184,21.8978901
23,Strada Aurel Vlaicu,410243,47.0536665,21.8942509
23,Strada Constantin Mille,410242,47.0520534,21.8965193
23,Strada Gheorghe Țițeica,410243,47.0525758,21.8944257
23A,Strada Aurel Vlaicu,410243,47.0535924,21.8940579
24,Strada Constantin Mille,410242,47.0520548,21.8968812
24,Strada Gheorghe Țițeica,410243,47.0524629,21.8947322
25,Strada Gheorghe Țițeica,410243,47.0524498,21.8943014
26,Strada Constantin Mille,410242,47.0518730,21.8969212
28,Strada Aurel Vlaicu,410243,47.0532393,21.8931759
28,Strada Constantin Mille,410242,47.0518462,21.8967338
28A,Strada Constantin Mille,410242,47.0516341,21.8964469
2A,Strada Clopoțeilor,410236,47.0541846,21.8906954
2A,Strada Constantin Mille,410242,47.0537126,21.8981947
2A,Strada George Washington,410242,47.0533701,21.8962966
2A,Strada Salciei,410242,47.0530034,21.8963713
2A,Strada Vasile Pârvan,410242,47.0530483,21.8992061
2B,Strada Clopoțeilor,410236,47.0542759,21.8907562
2B,Strada Constantin Mille,410242,47.0536325,21.8981286
2C,Strada Clopoțeilor,410236,47.0544030,21.8908443
3,Strada Aurel Vlaicu,410243,47.0542772,21.8974412
3,Piața Bobâlnei,410243,47.0529439,21.8938519
3,Strada Clopoțeilor,410236,47.0542121,21.8910815
3,Strada Constantin Mille,410242,47.0535329,21.8977549
3,Strada George Washington,410242,47.0529436,21.8968789
3,Strada Salciei,410242,47.0529368,21.8959900
3,Strada Trotușului,410242,47.0523232,21.8997950
3,Strada Vasile Pârvan,410242,47.0528303,21.8985841
30,Strada Nicolae Bolcaș,410249,47.0529925,21.9006510
31,Strada Henrik Ibsen,410241,47.0511167,21.8977285
32,Strada Nicolae Bolcaș,410249,47.0533308,21.8998039
33,Strada Henrik Ibsen,410241,47.0512928,21.8973005
34,Strada Aurel Vlaicu,410243,47.0533007,21.8929841
34,Strada Nicolae Bolcaș,410249,47.0533829,21.8996511
35,Strada Henrik Ibsen,410241,47.0514037,21.8970977
35A,Strada Henrik Ibsen,410241,47.0513953,21.8969085
36,Strada Nicolae Bolcaș,410249,47.0534559,21.8994960
37,Strada Henrik Ibsen,410241,47.0514446,21.8968456
37A,Strada Henrik Ibsen,410241,47.0515418,21.8967080
38,Strada Nicolae Bolcaș,410249,47.0535216,21.8992119
3A,Strada George Washington,410242,47.0528720,21.8970881
3A,Strada Trotușului,410242,47.0521860,21.8996956
4,Strada Aurel Vlaicu,410243,47.0539351,21.8977153
4,Piața Bobâlnei,410243,47.0530523,21.8936190
4,Strada Clopoțeilor,410236,47.0544703,21.8909029
4,Strada Constantin Mille,410242,47.0535738,21.8980541
4,Strada George Washington,410242,47.0533373,21.8964568
4,Strada Pelinului,410235,47.0550667,21.8911238
4,Strada Salciei,410242,47.0528936,21.8962638
4,Strada Trotușului,410242,47.0520959,21.9002398
4,Strada Vasile Pârvan,410242,47.0529515,21.8991253
40,Strada Henrik Ibsen,410234,47.0510831,21.8968482
40,Strada Nicolae Bolcaș,410249,47.0536446,21.8988487
41,Strada Henrik Ibsen,410241,47.0517141,21.8961111
41,Strada Nicolae Bolcaș,410249,47.0537032,21.8997984
41A,Strada Nicolae Bolcaș,410249,47.0535997,21.9000254
41B,Strada Nicolae Bolcaș,410249,47.0535231,21.9001993
42,Strada Aviatorilor,410250,47.0541757,21.9001819
42,Strada Henrik Ibsen,410234,47.0511922,21.8965815
42,Strada Nicolae Bolcaș,410249,47.0537256,21.8987149
42A,Strada Henrik Ibsen,410234,47.0511098,21.8967019
42A,Strada Nicolae Bolcaș,410249,47.0537684,21.8985284
43,Strada Henrik Ibsen,410241,47.0518181,21.8958418
43,Strada Nicolae Bolcaș,410249,47.0537599,21.8996464
44,Strada Aviatorilor,410250,47.0542332,21.9000331
44,Strada Henrik Ibsen,410234,47.0512618,21.8963978
44,Strada Nicolae Bolcaș,410249,47.0538859,21.8983549
45,Strada Henrik Ibsen,410241,47.0519033,21.8956744
45,Strada Nicolae Bolcaș,410249,47.0538178,21.8994975
45A,Strada Henrik Ibsen,410241,47.0519820,21.8954880
46,Strada Aviatorilor,410250,47.0542899,21.8998843
46,Strada Henrik Ibsen,410234,47.0513523,21.8961875
47,Strada Henrik Ibsen,410241,47.0520906,21.8951628
47,Strada Nicolae Bolcaș,410249,47.0538757,21.8993497
48,Strada Henrik Ibsen,410234,47.0514850,21.8958724
49,Strada Henrik Ibsen,410241,47.0521684,21.8949621
49,Strada Nicolae Bolcaș,410249,47.0540244,21.8989267
4A,Strada Aurel Vlaicu,410243,47.0539610,21.8978349
4A,Strada Salciei,410242,47.0527723,21.8961499
5,Strada Aurel Vlaicu,410243,47.0542659,21.8972629
5,Piața Bobâlnei,410243,47.0530690,21.8938847
5,Strada Constantin Mille,410242,47.0534641,21.8975691
5,Strada George Washington,410242,47.0523104,21.8974808
5,Strada Oltețului,410242,47.0519911,21.9012480
5,Strada Pelinului,410235,47.0550808,21.8915717
5,Strada Salciei,410242,47.0527948,21.8957724
5,Strada Trotușului,410242,47.0520931,21.8995925
5,Strada Vasile Pârvan,410242,47.0527148,21.8985911
50,Strada Henrik Ibsen,410234,47.0515557,21.8956507
51,Strada Henrik Ibsen,410241,47.0522221,21.8948312
52,Strada Henrik Ibsen,410234,47.0515827,21.8954666
52A,Strada Henrik Ibsen,410234,47.0515960,21.8953249
53,Strada Henrik Ibsen,410241,47.0522787,21.8946962
54,Strada Aviatorilor,410250,47.0543072,21.8991645
54,Strada Henrik Ibsen,410234,47.0517057,21.8953013
55,Strada Henrik Ibsen,410241,47.0523347,21.8945270
56,Strada Aviatorilor,410250,47.0542128,21.8990834
56,Strada Henrik Ibsen,410234,47.0517656,21.8951021
58,Strada Aviatorilor,410243,47.0541186,21.8990072
58,Strada Henrik Ibsen,410234,47.0518281,21.8949564
59,Strada Henrik Ibsen,410241,47.0526094,21.8939120
59A,Strada Henrik Ibsen,410241,47.0526027,21.8941302
5A,Strada Aurel Vlaicu,410243,47.0542412,21.8971459
5A,Strada Constantin Mille,410242,47.0533603,21.8975191
5A,Strada George Washington,410242,47.0521874,21.8975840
5A,Strada Pelinului,410235,47.0551806,21.8914050
5A,Strada Vasile Pârvan,410242,47.0525850,21.8984725
5B,Strada Aurel Vlaicu,410243,47.0542311,21.8970355
5C,Strada Aurel Vlaicu,410243,47.0542298,21.8969064
6,Strada Aurel Vlaicu,410243,47.0539281,21.8975764
6,Piața Bobâlnei,410243,47.0531267,21.8936795
6,Strada Clopoțeilor,410236,47.0545517,21.8909582
6,Strada Constantin Mille,410242,47.0534684,21.8979928
6,Strada George Washington,410242,47.0532826,21.8966068
6,Strada Oltețului,410242,47.0517382,21.9014996
6,Strada Pelinului,410235,47.0551147,21.8908020
6,Strada Salciei,410242,47.0526570,21.8960627
6,Strada Trotușului,410242,47.0519167,21.9000625
6,Strada Vasile Pârvan,410242,47.0528525,21.8990518
60,Strada Henrik Ibsen,410234,47.0518863,21.8948023
61,Strada Henrik Ibsen,410241,47.0526846,21.8936669
61A,Strada Henrik Ibsen,410241,47.0526604,21.8938260
62,Strada Henrik Ibsen,410234,47.0519650,21.8946515
63,Strada Henrik Ibsen,410241,47.0528587,21.8934498
63A,Strada Henrik Ibsen,410241,47.0531478,21.8925181
63B,Strada Henrik Ibsen,410241,47.0529186,21.8931673
63C,Strada Henrik Ibsen,410241,47.0530167,21.8929234
64,Strada Henrik Ibsen,410234,47.0520274,21.8944768
65,Strada Henrik Ibsen,410234,47.0532575,21.8922360
65A,Strada Henrik Ibsen,410234,47.0533110,21.8921125
66,Strada Henrik Ibsen,410234,47.0521042,21.8942862
66,Strada Ovid Densușianu,410237,47.0556415,21.8907409
67,Strada Henrik Ibsen,410234,47.0533696,21.8919524
68,Strada Henrik Ibsen,410234,47.0521902,21.8940707
69,Strada Henrik Ibsen,410234,47.0535206,21.8915809
69B,Strada Henrik Ibsen,410234,47.0537538,21.8910412
6A,Strada Gheorghe Țițeica,410243,47.0543126,21.8959892
6A,Strada Salciei,410242,47.0525139,21.8960155
6A,Strada Trotușului,410242,47.0518441,21.9000259
7,Strada Aurel Vlaicu,410243,47.0541116,21.8966715
7,Piața Bobâlnei,410243,47.0531620,21.8939733
7,Strada Clopoțeilor,410236,47.0545590,21.8914099
7,Strada Constantin Mille,410242,47.0532696,21.8974115
7,Strada George Washington,410242,47.0520257,21.8975722
7,Strada Gheorghe Țițeica,410243,47.0542049,21.8956120
7,Strada Oltețului,410242,47.0518825,21.9012382
7,Strada Pelinului,410235,47.0552731,21.8912209
7,Strada Salciei,410242,47.0526628,21.8957224
7,Strada Trotușului,410242,47.0519640,21.8995032
7,Strada Vasile Pârvan,410242,47.0525512,21.8983494
70,Strada Henrik Ibsen,410234,47.0522725,21.8938546
70,Strada Ovid Densușianu,410237,47.0550754,21.8903200
70A,Strada Henrik Ibsen,410234,47.0523380,21.8936956
71,Strada Henrik Ibsen,410234,47.0536141,21.8913565
72,Strada Henrik Ibsen,410234,47.0523948,21.8935535
72,Strada Ovid Densușianu,410237,47.0548757,21.8901193
73,Strada Henrik Ibsen,410234,47.0536637,21.8912360
74,Strada Henrik Ibsen,410234,47.0524685,21.8933494
74,Strada Ovid Densușianu,410237,47.0547515,21.8900626
74A,Strada Ovid Densușianu,410237,47.0546524,21.8900104
75,Strada Henrik Ibsen,410234,47.0537100,21.8911201
75B,Strada Henrik Ibsen,410234,47.0538392,21.8908685
75D,Strada Henrik Ibsen,410234,47.0540469,21.8903258
75E,Strada Henrik Ibsen,410234,47.0541282,21.8901134
76,Strada Henrik Ibsen,410234,47.0525305,21.8930799
76,Strada Ovid Densușianu,410237,47.0545482,21.8900709
76A,Strada Henrik Ibsen,410234,47.0524129,21.8931643
77,Strada Henrik Ibsen,410234,47.0542187,21.8899072
77B,Strada Henrik Ibsen,410234,47.0541919,21.8900094
78,Strada Henrik Ibsen,410234,47.0526295,21.8929150
79,Strada Henrik Ibsen,410234,47.0543029,21.8898038
7A,Strada Pelinului,410235,47.0553240,21.8910281
7A,Strada Trotușului,410242,47.0517620,21.8993293
7C,Strada Clopoțeilor,410236,47.0546778,21.8914649
8,Strada Aurel Vlaicu,410243,47.0538482,21.8972585
8,Strada Clopoțeilor,410236,47.0547612,21.8911422
8,Strada Constantin Mille,410242,47.0533413,21.8978846
8,Strada George Washington,410242,47.0528317,21.8975574
8,Strada Gheorghe Țițeica,410243,47.0542387,21.8959006
8,Strada Oltețului,410242,47.0516823,21.9014446
8,Strada Pelinului,410235,47.0552064,21.8905624
8,Strada Salciei,410242,47.0524311,21.8959333
8,Strada Trotușului,410242,47.0516030,21.9000760
8,Strada Vasile Pârvan,410242,47.0527600,21.8989624
80,Strada Henrik Ibsen,410234,47.0526580,21.8927099
82,Strada Henrik Ibsen,410234,47.0527587,21.8925664
84,Strada Henrik Ibsen,410234,47.0528252,21.8924691
86,Strada Henrik Ibsen,410234,47.0528797,21.8922984
88,Strada Henrik Ibsen,410234,47.0529335,21.8920955
8A,Strada Clopoțeilor,410236,47.0546684,21.8910428
8A,Strada Salciei,410242,47.0523791,21.8958850
9,Strada Aurel Vlaicu,410243,47.0541032,21.8965292
9,Strada Belșugului,410235,47.0543064,21.8921827
9,Piața Bobâlnei,410243,47.0536392,21.8929647
9,Strada Clopoțeilor,410236,47.0547737,21.8915253
9,Strada Constantin Mille,410242,47.0532016,21.8973199
9,Strada George Washington,410242,47.0519148,21.8976754
9,Strada Gheorghe Țițeica,410243,47.0541014,21.8954620
9,Strada Oltețului,410242,47.0517516,21.9011375
9,Strada Pelinului,410235,47.0553922,21.8909164
9,Strada Salciei,410242,47.0525512,21.8956338
9,Strada Trotușului,410242,47.0516750,21.8992594
9,Strada Vasile Pârvan,410242,47.0523595,21.8982842
90,Strada Henrik Ibsen,410234,47.0530017,21.8918718
92,Strada Henrik Ibsen,410234,47.0530482,21.8918083
94,Strada Henrik Ibsen,410234,47.0531523,21.8915734
96,Strada Henrik Ibsen,410234,47.0532069,21.8914060
98,Strada Henrik Ibsen,410234,47.0532807,21.8912610
9A,Strada Oltețului,410242,47.0516675,21.9010651
9A,Strada Pelinului,410235,47.0554536,21.8906812
1,Strada Mangaliei,410257,47.0574715,21.9077659
10,Strada Hațegului,410257,47.0588279,21.9085105
10,Strada Mangaliei,410257,47.0580188,21.9076940
11,Strada Mangaliei,410257,47.0581512,21.9081524
11,Strada Piteștilor,410258,47.0572515,21.9076195
12,Strada Hațegului,410257,47.0588446,21.9082103
12,Strada Mangaliei,410257,47.0581390,21.9077684
13,Strada Mangaliei,410257,47.0584277,21.9083798
13,Strada Piteștilor,410258,47.0574473,21.9071823
13A,Strada Mangaliei,410257,47.0583282,21.9082070
14,Strada Hațegului,410257,47.0588429,21.9078427
14,Strada Mangaliei,410257,47.0582518,21.9078848
15,Strada Mangaliei,410257,47.0585680,21.9083718
15,Strada Piteștilor,410258,47.0574991,21.9070208
16,Strada Hațegului,410257,47.0588299,21.9076637
16,Strada Mangaliei,410257,47.0584815,21.9080002
16A,Strada Piteștilor,410258,47.0569937,21.9073960
17,Strada Mangaliei,410257,47.0587540,21.9084148
17,Strada Piteștilor,410258,47.0575883,21.9067883
18,Strada Hațegului,410257,47.0588729,21.9074423
18,Strada Mangaliei,410257,47.0585722,21.9079532
18,Strada Piteștilor,410258,47.0576687,21.9055266
19,Strada Piteștilor,410258,47.0576786,21.9065577
19B,Strada Piteștilor,410258,47.0577784,21.9065396
1A,Strada Oașului,410252,47.0583463,21.9030971
2,Strada Hațegului,410257,47.0588448,21.9095664
2,Strada Mangaliei,410257,47.0574171,21.9073465
2,Strada Oașului,410252,47.0584060,21.9035949
20,Strada Hațegului,410257,47.0588181,21.9071790
20,Strada Mangaliei,410257,47.0586611,21.9080738
20,Strada Piteștilor,410258,47.0578100,21.9054233
21,Strada Meșteșugarilor,410256,47.0579160,21.9065825
21,Strada Piteștilor,410258,47.0580739,21.9057301
21B,Strada Meșteșugarilor,410256,47.0580001,21.9065455
22,Strada Hațegului,410257,47.0588234,21.9069544
22,Strada Mangaliei,410257,47.0587609,21.9080851
22,Strada Piteștilor,410258,47.0578471,21.9052687
22A,Strada Abraham Lincoln,410252,47.0570544,21.9055027
23,Strada Meșteșugarilor,410256,47.0581140,21.9065053
23,Strada Piteștilor,410258,47.0581024,21.9055799
23A,Strada Piteștilor,410258,47.0581366,21.9054605
24,Strada Abraham Lincoln,410252,47.0571543,21.9055837
24,Strada Hațegului,410257,47.0588537,21.9068624
24,Strada Piteștilor,410258,47.0578758,21.9051575
24A,Strada Hațegului,410257,47.0588531,21.9067511
24A,Strada Piteștilor,410258,47.0579455,21.9050379
25,Strada Meșteșugarilor,410256,47.0582589,21.9066053
25,Strada Piteștilor,410258,47.0581865,21.9052355
26,Strada Abraham Lincoln,410252,47.0572485,21.9056511
26,Strada Hațegului,410257,47.0588574,21.9065547
26,Strada Piteștilor,410258,47.0582000,21.9044121
26A,Strada Piteștilor,410258,47.0581403,21.9045632
27,Strada Meșteșugarilor,410256,47.0583123,21.9064897
27,Strada Piteștilor,410258,47.0584477,21.9046106
27A,Strada Meșteșugarilor,410256,47.0584483,21.9064173
27B,Strada Meșteșugarilor,410256,47.0585433,21.9064037
28,Strada Abraham Lincoln,410252,47.0574337,21.9058277
28,Strada Iacobinilor,410258,47.0569966,21.9036376
28,Strada Piteștilor,410258,47.0582423,21.9042863
28A,Strada Abraham Lincoln,410252,47.0573183,21.9057110
29,Strada Abraham Lincoln,410252,47.0569829,21.9072049
29,Strada Piteștilor,410258,47.0584725,21.9045122
2A,Strada Oașului,410252,47.0583201,21.9035230
2B,Strada Oașului,410252,47.0582102,21.9034400
2C,Strada Oașului,410252,47.0581002,21.9034370
3,Strada Mangaliei,410257,47.0575414,21.9078736
30,Strada Abraham Lincoln,410252,47.0575052,21.9058789
30,Strada Hațegului,410257,47.0589040,21.9048839
30,Strada Iacobinilor,410258,47.0571702,21.9037678
30,Strada Piteștilor,410258,47.0582917,21.9041562
30A,Strada Hațegului,410257,47.0588973,21.9045688
30B,Strada Hațegului,410257,47.0588939,21.9046884
30C,Strada Hațegului,410257,47.0589031,21.9044652
30D,Strada Hațegului,410257,47.0589113,21.9043119
30E,Strada Hațegului,410257,47.0588849,21.9039901
31,Strada Iacobinilor,410258,47.0570513,21.9042803
31,Strada Meșteșugarilor,410256,47.0588645,21.9063269
31,Strada Piteștilor,410258,47.0585034,21.9044164
32,Strada Iacobinilor,410258,47.0573840,21.9039668
32,Strada Piteștilor,410258,47.0582237,21.9038808
33,Strada Iacobinilor,410258,47.0572148,21.9045003
33,Strada Piteștilor,410258,47.0585485,21.9043148
33A,Strada Iacobinilor,410258,47.0570174,21.9046874
33B,Strada Iacobinilor,410258,47.0571137,21.9047356
33C,Strada Iacobinilor,410258,47.0571054,21.9044132
34,Strada Iacobinilor,410258,47.0575175,21.9040268
34,Strada Meșteșugarilor,410256,47.0579948,21.9059660
34,Strada Piteștilor,410258,47.0584572,21.9037335
34A,Strada Meșteșugarilor,410256,47.0582261,21.9058782
34B,Strada Meșteșugarilor,410256,47.0581336,21.9059611
35,Strada Iacobinilor,410258,47.0572906,21.9045917
35,Strada Piteștilor,410258,47.0585779,21.9042019
36,Strada Iacobinilor,410258,47.0576223,21.9041131
36,Strada Meșteșugarilor,410256,47.0584615,21.9058297
36,Strada Piteștilor,410258,47.0586036,21.9034107
37,Strada Iacobinilor,410258,47.0574285,21.9045979
37,Strada Piteștilor,410258,47.0586201,21.9040957
38,Strada Iacobinilor,410258,47.0576814,21.9041586
38,Strada Meșteșugarilor,410256,47.0588939,21.9058018
38,Strada Piteștilor,410258,47.0586798,21.9031521
38A,Strada Iacobinilor,410258,47.0577919,21.9042524
38A,Strada Meșteșugarilor,410256,47.0586499,21.9058033
39,Strada Iacobinilor,410258,47.0574765,21.9046837
39,Strada Piteștilor,410258,47.0586833,21.9039720
39A,Strada Iacobinilor,410258,47.0575675,21.9047669
4,Strada Hațegului,410257,47.0588020,21.9093584
4,Strada Mangaliei,410257,47.0575755,21.9074540
4,Strada Oașului,410252,47.0580111,21.9033545
41,Strada Iacobinilor,410258,47.0576762,21.9048409
41,Strada Piteștilor,410258,47.0587847,21.9034842
41A,Strada Iacobinilor,410258,47.0577913,21.9048748
42,Strada Iacobinilor,410258,47.0579564,21.9044190
42A,Strada Iacobinilor,410258,47.0578556,21.9043184
43,Strada Iacobinilor,410258,47.0583477,21.9053853
44,Strada Iacobinilor,410258,47.0580373,21.9044619
44,Strada Oneștilor,410256,47.0570565,21.9087704
45,Strada Iacobinilor,410258,47.0584362,21.9054073
46,Strada Oneștilor,410256,47.0572399,21.9088137
47,Strada Iacobinilor,410258,47.0585082,21.9054978
48,Strada Iacobinilor,410258,47.0583781,21.9048040
48,Strada Oneștilor,410256,47.0573979,21.9088982
4A,Strada Oașului,410252,47.0579168,21.9033055
4B,Strada Hațegului,410257,47.0586749,21.9091962
4C,Strada Hațegului,410257,47.0588237,21.9091114
5,Strada Mangaliei,410257,47.0577239,21.9078801
5-5A,Strada Piteștilor,410258,47.0570278,21.9083030
50,Strada Iacobinilor,410258,47.0584750,21.9048832
50,Strada Oneștilor,410256,47.0575433,21.9090336
52,Strada Iacobinilor,410258,47.0585723,21.9049600
52,Strada Oneștilor,410256,47.0577803,21.9091870
52A,Strada Oneștilor,410256,47.0576827,21.9090937
54,Strada Iacobinilor,410258,47.0586731,21.9050436
54,Strada Oneștilor,410256,47.0578817,21.9092351
56,Strada Iacobinilor,410258,47.0587824,21.9051227
56,Strada Oneștilor,410256,47.0580562,21.9092196
58,Strada Iacobinilor,410258,47.0588730,21.9051961
58,Strada Oneștilor,410256,47.0581668,21.9092285
6,Strada Hațegului,410257,47.0588619,21.9089879
6,Strada Mangaliei,410257,47.0577703,21.9074300
6,Strada Oașului,410252,47.0578426,21.9031562
60,Strada Oneștilor,410256,47.0582708,21.9094655
62,Strada Oneștilor,410256,47.0583622,21.9094408
62A,Strada Oneștilor,410256,47.0584727,21.9095462
64,Strada Oneștilor,410256,47.0585248,21.9096039
64A,Strada Oneștilor,410256,47.0586542,21.9096980
66,Strada Oneștilor,410256,47.0588243,21.9098204
7,Strada Mangaliei,410257,47.0578306,21.9080045
7,Strada Piteștilor,410258,47.0570820,21.9081712
7A- 9,Strada Piteștilor,410252,47.0571724,21.9078907
8,Strada Hațegului,410257,47.0588681,21.9086839
8,Strada Mangaliei,410257,47.0579091,21.9076222
8,Strada Oașului,410252,47.0577324,21.9031308
8A,Strada Mangaliei,410257,47.0578369,21.9076387
9,Strada Mangaliei,410257,47.0579824,21.9080387
1,Strada Abraham Lincoln,410252,47.0554595,21.9044787
1,Strada Jimboliei,410256,47.0554602,21.9074640
1,Strada Piteștilor,410258,47.0569168,21.9086149
10,Strada Abraham Lincoln,410252,47.0561536,21.9047530
10,Strada Piteștilor,410258,47.0566496,21.9078241
10A,Strada Abraham Lincoln,410252,47.0560351,21.9046471
11,Strada Abraham Lincoln,410252,47.0560885,21.9050983
11,Strada Jimboliei,410251,47.0551891,21.9060762
11A,Strada Jimboliei,410251,47.0552114,21.9059391
11A,Strada Meșteșugarilor,410256,47.0559313,21.9069570
12,Strada Abraham Lincoln,410252,47.0563381,21.9048954
12,Strada Piteștilor,410258,47.0568443,21.9078216
13,Strada Abraham Lincoln,410252,47.0562365,21.9051132
13,Strada Jimboliei,410251,47.0551965,21.9058475
13,Strada Meșteșugarilor,410256,47.0560893,21.9068462
13A,Strada Meșteșugarilor,410256,47.0562567,21.9068481
14,Strada Abraham Lincoln,410252,47.0565238,21.9050727
14,Strada Piteștilor,410258,47.0568738,21.9077334
14A,Strada Abraham Lincoln,410252,47.0564230,21.9050109
14A,Strada Piteștilor,410258,47.0569284,21.9075991
15,Strada Abraham Lincoln,410252,47.0563665,21.9052161
15,Strada Iacobinilor,410258,47.0560326,21.9035210
15,Strada Jimboliei,410251,47.0551739,21.9057316
15,Strada Meșteșugarilor,410256,47.0563547,21.9068296
15A,Strada Iacobinilor,410258,47.0561319,21.9035568
16,Strada Abraham Lincoln,410252,47.0565899,21.9051370
16,Strada Piteștilor,410258,47.0568957,21.9074705
17,Strada Abraham Lincoln,410252,47.0564620,21.9053731
17,Strada Jimboliei,410251,47.0551402,21.9055583
17,Strada Meșteșugarilor,410256,47.0564853,21.9067360
17A,Strada Abraham Lincoln,410252,47.0565638,21.9054428
17A,Strada Jimboliei,410251,47.0550853,21.9053858
18,Strada Meșteșugarilor,410248,47.0553798,21.9063994
18A,Strada Abraham Lincoln,410252,47.0567684,21.9052668
18A,Strada Meșteșugarilor,410248,47.0554816,21.9064415
19,Strada Abraham Lincoln,410252,47.0566262,21.9054947
19,Strada Iacobinilor,410258,47.0563264,21.9036609
19,Strada Meșteșugarilor,410256,47.0566348,21.9068230
19,Strada Înfrățirii,410251,47.0552523,21.9045679
19A,Strada Meșteșugarilor,410256,47.0567057,21.9068025
1A,Strada Abraham Lincoln,410252,47.0555452,21.9046363
1A,Strada Jimboliei,410256,47.0555121,21.9077141
2,Strada Abraham Lincoln,410252,47.0556487,21.9043605
20,Strada Abraham Lincoln,410252,47.0568601,21.9053418
20,Strada Iacobinilor,410258,47.0564238,21.9031317
20,Strada Meșteșugarilor,410248,47.0556246,21.9063827
20,Strada Înfrățirii,410251,47.0552320,21.9042626
21,Strada Abraham Lincoln,410252,47.0567209,21.9058081
21,Strada Iacobinilor,410258,47.0563945,21.9037262
22,Strada Abraham Lincoln,410252,47.0569639,21.9054249
22,Strada Iacobinilor,410258,47.0565169,21.9032020
22,Strada Meșteșugarilor,410248,47.0557885,21.9063510
22,Strada Înfrățirii,410251,47.0554717,21.9040076
22A,Strada Înfrățirii,410251,47.0553211,21.9042339
23,Strada Iacobinilor,410258,47.0564955,21.9038417
24,Strada Iacobinilor,410258,47.0566077,21.9032888
24,Strada Înfrățirii,410251,47.0555532,21.9037800
24A,Strada Iacobinilor,410258,47.0567456,21.9031609
24A,Strada Meșteșugarilor,410248,47.0559392,21.9063662
24B,Strada Meșteșugarilor,410248,47.0560572,21.9062982
25,Strada Abraham Lincoln,410252,47.0569077,21.9068669
25,Strada Iacobinilor,410258,47.0565852,21.9039203
26,Strada Iacobinilor,410258,47.0567840,21.9034412
26,Strada Meșteșugarilor,410248,47.0561476,21.9059656
26,Strada Oneștilor,410256,47.0556310,21.9079014
26,Strada Înfrățirii,410251,47.0556668,21.9034755
26A,Strada Iacobinilor,410258,47.0568763,21.9035210
26A,Strada Meșteșugarilor,410248,47.0561921,21.9062788
27,Strada Abraham Lincoln,410252,47.0569615,21.9070440
27,Strada Iacobinilor,410258,47.0566776,21.9039845
27,Strada Înfrățirii,410251,47.0558430,21.9037833
27A,Strada Iacobinilor,410258,47.0567663,21.9040650
27A,Strada Înfrățirii,410251,47.0557367,21.9039717
27B,Strada Înfrățirii,410251,47.0559001,21.9034693
28,Strada Meșteșugarilor,410248,47.0563045,21.9062673
28,Strada Oneștilor,410256,47.0557772,21.9079767
28,Strada Înfrățirii,410251,47.0557607,21.9032177
29,Strada Iacobinilor,410258,47.0568697,21.9041268
29A,Strada Iacobinilor,410258,47.0569596,21.9042104
2A,Strada Jimboliei,410256,47.0552415,21.9077315
3,Strada Abraham Lincoln,410252,47.0556097,21.9047356
3,Strada Jimboliei,410256,47.0554120,21.9070917
3,Strada Piteștilor,410258,47.0569558,21.9084444
30,Strada Meșteșugarilor,410248,47.0564060,21.9062717
30,Strada Oneștilor,410256,47.0558813,21.9080002
30A,Strada Meșteșugarilor,410248,47.0565650,21.9062593
32,Strada Meșteșugarilor,410248,47.0566817,21.9062500
32,Strada Oneștilor,410256,47.0560525,21.9081001
34,Strada Oneștilor,410256,47.0561938,21.9080377
36,Strada Oneștilor,410256,47.0562149,21.9083171
38,Strada Oneștilor,410256,47.0563951,21.9084506
3A,Strada Abraham Lincoln,410252,47.0556773,21.9048015
4,Strada Abraham Lincoln,410252,47.0557256,21.9044108
4,Strada Jimboliei,410251,47.0551366,21.9071452
40,Strada Oneștilor,410256,47.0564783,21.9084923
40A,Strada Oneștilor,410256,47.0566047,21.9085548
4A,Strada Jimboliei,410251,47.0551009,21.9073206
5,Strada Abraham Lincoln,410252,47.0557822,21.9048335
5,Strada Jimboliei,410256,47.0553720,21.9069499
5,Strada Meșteșugarilor,410256,47.0556187,21.9068745
6,Strada Piteștilor,410258,47.0566797,21.9083776
6-8,Strada Abraham Lincoln,410252,47.0559492,21.9045009
7,Strada Abraham Lincoln,410252,47.0558721,21.9049458
7,Strada Meșteșugarilor,410256,47.0557816,21.9068626
8,Strada Piteștilor,410258,47.0567905,21.9080986
8A,Strada Piteștilor,410258,47.0566456,21.9082383
9,Strada Abraham Lincoln,410252,47.0559990,21.9049946
9,Strada Jimboliei,410251,47.0552360,21.9061955
1,Strada Gheorghinelor,410251,47.0532892,21.9043193
1,Strada Meșteșugarilor,410256,47.0529751,21.9071832
10,Strada Gheorghinelor,410251,47.0540502,21.9046087
10,Strada Jimboliei,410251,47.0548220,21.9056478
10,Strada Meșteșugarilor,410256,47.0544114,21.9065643
10,Strada Înfrățirii,410251,47.0537804,21.9055896
10A,Strada Gheorghinelor,410251,47.0539389,21.9044852
11,Strada Gheorghinelor,410251,47.0538783,21.9048984
11,Strada Înfrățirii,410251,47.0541173,21.9053175
11A,Strada Înfrățirii,410251,47.0541826,21.9052185
12,Strada Jimboliei,410251,47.0548009,21.9054596
12,Strada Meșteșugarilor,410256,47.0545513,21.9065574
12,Strada Oneștilor,410248,47.0533100,21.9064952
12,Strada Înfrățirii,410251,47.0538338,21.9054556
13,Strada Gheorghinelor,410251,47.0540116,21.9049098
14,Strada Jimboliei,410251,47.0547433,21.9052097
14,Strada Meșteșugarilor,410256,47.0546572,21.9065624
14,Strada Oneștilor,410256,47.0545791,21.9073742
15,Strada Înfrățirii,410251,47.0543872,21.9049441
16,Strada Jimboliei,410251,47.0547088,21.9049843
16,Strada Meșteșugarilor,410256,47.0548012,21.9065556
16,Strada Oneștilor,410256,47.0542828,21.9072465
16,Strada Înfrățirii,410251,47.0543652,21.9046441
16A,Strada Meșteșugarilor,410256,47.0549691,21.9065042
16A,Strada Oneștilor,410256,47.0543981,21.9072592
16B,Strada Oneștilor,410256,47.0544976,21.9073069
17,Strada Înfrățirii,410251,47.0544720,21.9049146
18,Strada Jimboliei,410251,47.0546825,21.9048563
18,Strada Înfrățirii,410251,47.0550733,21.9041978
19,Strada Jimboliei,410251,47.0550610,21.9052493
1A,Strada Meșteșugarilor,410256,47.0542977,21.9070988
2,Strada Gheorghinelor,410251,47.0534659,21.9041329
2,Strada Meșteșugarilor,410256,47.0536904,21.9066280
2,Strada Înfrățirii,410251,47.0534346,21.9061329
20,Strada Oneștilor,410256,47.0546476,21.9073947
20A,Strada Oneștilor,410256,47.0547281,21.9074180
21,Strada Aviatorilor,410250,47.0532290,21.9036748
21,Strada Jimboliei,410251,47.0549917,21.9050092
21A,Strada Aviatorilor,410250,47.0532673,21.9035792
22,Strada Jimboliei,410251,47.0545965,21.9044231
22,Strada Oneștilor,410256,47.0548421,21.9074967
23,Strada Aviatorilor,410250,47.0533449,21.9033828
23,Strada Jimboliei,410251,47.0549519,21.9047975
24,Strada Jimboliei,410251,47.0545002,21.9039445
24,Strada Oneștilor,410256,47.0550158,21.9075850
24A,Strada Jimboliei,410251,47.0545320,21.9040951
25,Strada Aviatorilor,410250,47.0534199,21.9031863
25,Strada Jimboliei,410251,47.0548705,21.9044392
25A,Strada Jimboliei,410251,47.0548417,21.9042234
26,Strada Jimboliei,410251,47.0544434,21.9036765
26A,Strada Jimboliei,410251,47.0544663,21.9038084
27,Strada Aviatorilor,410250,47.0534718,21.9031115
27,Strada Jimboliei,410251,47.0547673,21.9039282
27A,Strada Jimboliei,410251,47.0548195,21.9040273
28,Strada Jimboliei,410251,47.0544281,21.9035519
29,Strada Aviatorilor,410250,47.0535906,21.9028121
29,Strada Jimboliei,410251,47.0547359,21.9036571
3,Strada Gheorghinelor,410251,47.0534991,21.9044651
3,Strada Meșteșugarilor,410256,47.0550134,21.9070960
3,Strada Oneștilor,410232,47.0533548,21.9072214
3,Strada Înfrățirii,410251,47.0537959,21.9061058
30,Strada Jimboliei,410251,47.0542925,21.9033154
31,Strada Aviatorilor,410250,47.0536396,21.9026972
31,Strada Jimboliei,410251,47.0546659,21.9033999
31A,Strada Aviatorilor,410250,47.0536916,21.9024868
32,Strada Jimboliei,410251,47.0542666,21.9030830
33,Strada Aviatorilor,410250,47.0537841,21.9022220
33,Strada Jimboliei,410251,47.0546582,21.9031642
34,Strada Jimboliei,410251,47.0542948,21.9029401
36,Strada Jimboliei,410251,47.0542802,21.9027095
38,Strada Aviatorilor,410250,47.0532733,21.9025245
3A,Strada Meșteșugarilor,410256,47.0545985,21.9070757
3B,Strada Meșteșugarilor,410256,47.0548271,21.9071089
4,Strada Gheorghinelor,410251,47.0536190,21.9042703
4,Strada Meșteșugarilor,410256,47.0538968,21.9066856
4,Strada Înfrățirii,410251,47.0534940,21.9059809
40,Strada Aviatorilor,410250,47.0533322,21.9023705
5,Strada Gheorghinelor,410251,47.0535893,21.9046000
5,Strada Oneștilor,410232,47.0535967,21.9073398
5,Strada Înfrățirii,410251,47.0538829,21.9058809
6,Strada Gheorghinelor,410251,47.0537383,21.9043698
6,Strada Jimboliei,410251,47.0549319,21.9061377
6,Strada Meșteșugarilor,410256,47.0540293,21.9066295
6,Strada Înfrățirii,410251,47.0536255,21.9058655
7,Strada Gheorghinelor,410251,47.0536906,21.9046960
7,Strada Înfrățirii,410251,47.0539743,21.9056217
8,Strada Gheorghinelor,410251,47.0538725,21.9044236
8,Strada Jimboliei,410251,47.0548828,21.9059942
8,Strada Meșteșugarilor,410256,47.0543126,21.9065932
8,Strada Înfrățirii,410251,47.0536387,21.9056317
8A,Strada Jimboliei,410251,47.0548817,21.9058284
8A,Strada Meșteșugarilor,410256,47.0542210,21.9066515
8B,Strada Jimboliei,410251,47.0547649,21.9059143
9,Strada Gheorghinelor,410251,47.0537623,21.9047500
9,Strada Înfrățirii,410251,47.0540641,21.9054631
1,Strada Aviatorilor,410250,47.0524530,21.9057506
1,Strada Oneștilor,410256,47.0530723,21.9070257
10,Strada Aviatorilor,410250,47.0524147,21.9047848
10,Strada Oneștilor,410248,47.0531397,21.9064485
11,Strada Aviatorilor,410250,47.0528534,21.9047708
12,Strada Aviatorilor,410250,47.0523277,21.9045112
13,Strada Aviatorilor,410250,47.0529256,21.9045807
14,Strada Aviatorilor,410250,47.0525224,21.9044729
15,Strada Aviatorilor,410250,47.0529405,21.9043146
16,Strada Aviatorilor,410250,47.0525624,21.9043283
17,Strada Aviatorilor,410250,47.0530237,21.9041355
18,Strada Nicolae Bolcaș,410249,47.0521521,21.9029361
19,Strada Aviatorilor,410250,47.0531827,21.9037828
2,Strada Oltețului,410242,47.0521820,21.9019291
2,Strada Oneștilor,410248,47.0525188,21.9059477
20,Strada Aviatorilor,410250,47.0526697,21.9041486
20,Strada Nicolae Bolcaș,410249,47.0521919,21.9027296
20A,Strada Nicolae Bolcaș,410249,47.0522430,21.9025885
20B,Strada Aviatorilor,410250,47.0524841,21.9039350
22,Strada Aviatorilor,410250,47.0527431,21.9039165
22,Strada Nicolae Bolcaș,410249,47.0522939,21.9024527
22A,Strada Nicolae Bolcaș,410249,47.0523181,21.9023038
23,Strada Nicolae Bolcaș,410249,47.0523923,21.9031833
24,Strada Aviatorilor,410250,47.0528660,21.9035963
24,Strada Nicolae Bolcaș,410249,47.0524456,21.9021112
25,Strada Nicolae Bolcaș,410249,47.0524295,21.9030548
26,Strada Aviatorilor,410250,47.0529234,21.9034409
26,Strada Nicolae Bolcaș,410249,47.0525758,21.9018302
27,Strada Nicolae Bolcaș,410249,47.0525302,21.9029010
28,Strada Aviatorilor,410250,47.0529833,21.9032872
28,Strada Nicolae Bolcaș,410249,47.0526876,21.9015313
29,Strada Nicolae Bolcaș,410249,47.0525886,21.9027487
2A,Strada Oltețului,410242,47.0520948,21.9018088
3,Strada Aviatorilor,410250,47.0526488,21.9054613
3,Strada Oltețului,410242,47.0522379,21.9015431
30,Strada Aviatorilor,410250,47.0530405,21.9031378
31,Strada Nicolae Bolcaș,410249,47.0526456,21.9025938
32,Strada Aviatorilor,410250,47.0530984,21.9029842
33,Strada Nicolae Bolcaș,410249,47.0526758,21.9024696
34,Strada Aviatorilor,410250,47.0531563,21.9028277
35,Strada Nicolae Bolcaș,410249,47.0527475,21.9022866
36,Strada Aviatorilor,410250,47.0532154,21.9026772
37,Strada Nicolae Bolcaș,410249,47.0527981,21.9021623
39,Strada Nicolae Bolcaș,410249,47.0528490,21.9019763
4,Strada Aviatorilor,410250,47.0521600,21.9051842
4,Strada Oneștilor,410248,47.0526675,21.9060192
5,Strada Aviatorilor,410250,47.0526269,21.9052351
5A,Strada Nicolae Bolcaș,410249,47.0522488,21.9035450
6,Strada Aviatorilor,410250,47.0523199,21.9050636
6,Strada Oneștilor,410248,47.0527783,21.9061614
7,Strada Aviatorilor,410250,47.0527732,21.9051415
8,Strada Aviatorilor,410250,47.0523569,21.9049051
8,Strada Oneștilor,410248,47.0529598,21.9063640
9,Strada Aviatorilor,410250,47.0527895,21.9049380
1,Strada Buzăului,410249,47.0516783,21.9025953
1,Strada Cornițelului,410249,47.0513882,21.9039763
1,Strada Nicolae Bolcaș,410249,47.0517244,21.9050182
10,Strada Nicolae Bolcaș,410249,47.0516385,21.9040618
115,Calea Aradului,410224,47.0512541,21.9052918
12,Strada Nicolae Bolcaș,410249,47.0517383,21.9039098
14,Strada Nicolae Bolcaș,410249,47.0518776,21.9034782
16,Strada Nicolae Bolcaș,410249,47.0519471,21.9032796
1A,Strada Buzăului,410249,47.0519752,21.9028736
1B,Strada Buzăului,410249,47.0518735,21.9027815
1C,Strada Buzăului,410249,47.0518127,21.9026315
2,Strada Buzăului,410249,47.0516722,21.9029790
2,Strada Cornițelului,410249,47.0511972,21.9041742
2A,Strada Buzăului,410249,47.0515828,21.9028954
2A,Strada Cornițelului,410249,47.0513081,21.9042715
3,Strada Buzăului,410249,47.0516081,21.9025691
3,Strada Cornițelului,410249,47.0512940,21.9038883
3,Strada Nicolae Bolcaș,410249,47.0517714,21.9048591
3A,Strada Buzăului,410249,47.0515116,21.9024922
4,Strada Buzăului,410249,47.0514911,21.9028097
4,Strada Oltețului,410242,47.0518964,21.9017528
4A,Strada Buzăului,410249,47.0514000,21.9027409
4A,Strada Oltețului,410242,47.0518140,21.9015586
5,Strada Buzăului,410249,47.0514365,21.9024271
5,Strada Cornițelului,410249,47.0511631,21.9037315
5,Strada Nicolae Bolcaș,410249,47.0519013,21.9044839
5A,Strada Buzăului,410249,47.0513496,21.9023544
6,Strada Buzăului,410249,47.0512610,21.9026544
6,Strada Nicolae Bolcaș,410249,47.0514906,21.9046372
7,Strada Buzăului,410249,47.0512649,21.9022267
8,Strada Buzăului,410249,47.0511439,21.9026021
8,Strada Nicolae Bolcaș,410249,47.0515560,21.9044987
1,Strada Henrik Ibsen,410241,47.0501074,21.9041246
1,Strada Lalelelor,410249,47.0505612,21.9044454
10,Strada Buzăului,410249,47.0509396,21.9024499
10,Strada Cornițelului,410249,47.0504629,21.9034964
10,Strada Henrik Ibsen,410234,47.0499020,21.9011608
10A,Strada Buzăului,410249,47.0508547,21.9023747
10A,Strada Henrik Ibsen,410234,47.0500722,21.9010334
10B,Strada Henrik Ibsen,410234,47.0500474,21.9012928
11,Strada Buzăului,410249,47.0508712,21.9019797
11,Strada Cornițelului,410249,47.0505995,21.9032555
12,Strada Cornițelului,410249,47.0501824,21.9034808
12,Strada Henrik Ibsen,410234,47.0501343,21.9008135
121,Calea Aradului,410224,47.0507906,21.9047933
123,Calea Aradului,410224,47.0503619,21.9045647
13,Strada Buzăului,410249,47.0507229,21.9018195
13,Strada Cornițelului,410249,47.0504938,21.9031121
13,Strada Henrik Ibsen,410241,47.0504499,21.9012371
14,Strada Buzăului,410249,47.0506478,21.9020772
14,Strada Henrik Ibsen,410234,47.0500765,21.9006456
15,Strada Buzăului,410249,47.0505199,21.9016778
15,Strada Cornițelului,410249,47.0501673,21.9029048
15,Strada Henrik Ibsen,410241,47.0504494,21.9007953
15A,Strada Henrik Ibsen,410241,47.0503958,21.9010176
16,Strada Henrik Ibsen,410234,47.0501891,21.9002439
16,Strada Trotușului,410242,47.0510337,21.8994293
16A,Strada Henrik Ibsen,410234,47.0501527,21.9003834
16A,Strada Oltețului,410242,47.0510086,21.9008284
17,Strada Henrik Ibsen,410241,47.0504452,21.9004913
17,Strada Oltețului,410242,47.0510223,21.9005372
17,Strada Trotușului,410242,47.0510887,21.8988035
17A,Strada Trotușului,410242,47.0509880,21.8987291
18,Strada Henrik Ibsen,410234,47.0502000,21.9000475
18,Strada Oltețului,410242,47.0508299,21.9007044
19,Strada Oltețului,410242,47.0509049,21.9004458
19,Strada Trotușului,410242,47.0508665,21.8986322
2,Strada Lalelelor,410249,47.0503702,21.9042113
2,Strada Nicolae Bolcaș,410249,47.0509232,21.9043620
20,Strada Henrik Ibsen,410234,47.0502576,21.8996302
21,Strada Henrik Ibsen,410241,47.0506142,21.8993489
21,Strada Oltețului,410242,47.0508386,21.9002610
21,Strada Trotușului,410234,47.0507701,21.8985551
21-23,Aleea Călinului,410241,47.0496958,21.8999899
21A,Strada Henrik Ibsen,410241,47.0505942,21.8995382
21A,Strada Trotușului,410234,47.0500859,21.8986122
21B,Strada Trotușului,410234,47.0501473,21.8984336
22,Strada Henrik Ibsen,410234,47.0503340,21.8990988
22,Strada Trotușului,410234,47.0499421,21.8986621
22A,Strada Trotușului,410234,47.0499192,21.8989614
22C,Strada Trotușului,410234,47.0499222,21.8988086
23,Strada Buzăului,410249,47.0503462,21.9014979
23,Strada Henrik Ibsen,410241,47.0506562,21.8990397
23,Strada Oltețului,410242,47.0507589,21.9001689
23A,Strada Henrik Ibsen,410241,47.0506413,21.8992405
23A,Strada Oltețului,410242,47.0506418,21.9002231
24,Strada Henrik Ibsen,410234,47.0503701,21.8988676
24,Strada Trotușului,410234,47.0499354,21.8985232
24A,Strada Henrik Ibsen,410234,47.0504156,21.8986320
24A,Strada Trotușului,410234,47.0499205,21.8980120
24B,Strada Trotușului,410234,47.0499171,21.8978117
24BIS,Strada Trotușului,410234,47.0499200,21.8982852
24C,Strada Trotușului,410234,47.0499329,21.8975895
25,Strada Oltețului,410242,47.0505747,21.9000386
26,Strada Henrik Ibsen,410234,47.0504505,21.8983887
26,Strada Trotușului,410234,47.0501761,21.8973249
26A,Strada Trotușului,410234,47.0503248,21.8968432
26B,Strada Trotușului,410234,47.0507564,21.8958127
26C,Strada Trotușului,410234,47.0505321,21.8962675
26D,Strada Trotușului,410234,47.0506696,21.8960632
26E,Strada Trotușului,410234,47.0507060,21.8959512
27,Strada Henrik Ibsen,410241,47.0509912,21.8980622
28,Strada Henrik Ibsen,410234,47.0505005,21.8982372
29,Strada Henrik Ibsen,410241,47.0510769,21.8978206
29A,Strada Henrik Ibsen,410241,47.0510363,21.8979215
2A,Strada Henrik Ibsen,410234,47.0498766,21.9027371
2B,Strada Cornițelului,410249,47.0510872,21.9040889
2B,Strada Henrik Ibsen,410234,47.0498836,21.9024190
2C,Strada Cornițelului,410249,47.0509578,21.9039827
3,Strada Henrik Ibsen,410241,47.0502573,21.9025937
3,Strada Lalelelor,410249,47.0506192,21.9042117
30,Strada Henrik Ibsen,410234,47.0505611,21.8981307
32,Strada Henrik Ibsen,410234,47.0506442,21.8978130
34,Strada Henrik Ibsen,410234,47.0507370,21.8975845
36,Strada Henrik Ibsen,410234,47.0508275,21.8974823
37,Strada Trotușului,410234,47.0503838,21.8974814
38,Strada Henrik Ibsen,410234,47.0509790,21.8971061
4,Strada Henrik Ibsen,410234,47.0499514,21.9021805
4,Strada Lalelelor,410249,47.0504822,21.9039381
41,Strada Trotușului,410234,47.0506172,21.8969299
4A,Strada Henrik Ibsen,410234,47.0499136,21.9023112
5,Strada Henrik Ibsen,410241,47.0501444,21.9037986
5,Strada Lalelelor,410249,47.0506955,21.9040139
5A,Strada Cornițelului,410249,47.0510272,21.9036484
5A,Strada Henrik Ibsen,410241,47.0502683,21.9024338
6,Strada Cornițelului,410249,47.0505951,21.9036126
6,Strada Henrik Ibsen,410234,47.0499722,21.9019495
7,Strada Cornițelului,410249,47.0509549,21.9036021
7,Strada Henrik Ibsen,410241,47.0502363,21.9021641
7,Strada Lalelelor,410249,47.0507749,21.9037765
7A,Strada Cornițelului,410249,47.0508613,21.9033559
8 A,Strada Buzăului,410249,47.0510007,21.9025468
8,Strada Henrik Ibsen,410234,47.0500080,21.9016502
8A,Strada Henrik Ibsen,410234,47.0500502,21.9013947
9,Strada Buzăului,410249,47.0510625,21.9020037
9,Strada Cornițelului,410249,47.0507315,21.9033243
9,Strada Henrik Ibsen,410241,47.0502506,21.9018943
9A,Strada Cornițelului,410249,47.0507791,21.9031475
1,Strada Păunului,410229,47.0572565,21.9133734
1,Strada Potârnichilor,410230,47.0568918,21.9119355
10,Strada Fluierașului,410230,47.0568682,21.9124794
10,Strada Sturzului,410230,47.0566333,21.9125482
10A,Strada Chimiei,410230,47.0566828,21.9108276
10B,Strada Fluierașului,410230,47.0567797,21.9126723
11,Strada Fluierașului,410230,47.0568931,21.9122100
12,Strada Chimiei,410230,47.0565238,21.9105825
12,Strada Fluierașului,410230,47.0566532,21.9123466
12A,Strada Chimiei,410230,47.0565960,21.9106637
12A,Strada Fluierașului,410230,47.0566742,21.9124587
12C,Strada Fluierașului,410230,47.0565040,21.9125695
14,Strada Fluierașului,410230,47.0564926,21.9122330
15,Strada Fluierașului,410230,47.0566809,21.9119502
15,Strada Ștefan Octavian Iosif,410230,47.0576576,21.9110834
15A,Strada Fluierașului,410230,47.0567329,21.9119816
17,Strada Fluierașului,410230,47.0565666,21.9119034
18,Strada Ștefan Octavian Iosif,410230,47.0573176,21.9123542
1A,Strada Henri Coandă,410228,47.0559109,21.9138508
1A,Strada Potârnichilor,410230,47.0569636,21.9120018
2,Strada Chimiei,410230,47.0571090,21.9113038
2,Strada Fluierașului,410230,47.0572452,21.9129484
2,Strada Potârnichilor,410230,47.0567947,21.9117795
2,Strada Sturzului,410230,47.0564031,21.9129301
20,Strada Ștefan Octavian Iosif,410230,47.0572815,21.9121639
22,Strada Ștefan Octavian Iosif,410230,47.0573033,21.9119480
24,Strada Ștefan Octavian Iosif,410230,47.0573100,21.9117429
3,Strada Fluierașului,410230,47.0572777,21.9125336
3,Strada Potârnichilor,410230,47.0570911,21.9120124
3,Strada Sintezei,410229,47.0561608,21.9102386
3,Strada Sturzului,410230,47.0568184,21.9125642
4,Strada Chimiei,410230,47.0569846,21.9111619
4,Strada Fluierașului,410230,47.0570671,21.9127713
4,Strada Potârnichilor,410230,47.0569028,21.9116080
4,Strada Sturzului,410230,47.0564441,21.9128151
43,Strada Lebedei,410230,47.0562281,21.9124724
43A,Strada Lebedei,410230,47.0562804,21.9123267
45,Strada Lebedei,410230,47.0563934,21.9121410
47,Strada Lebedei,410230,47.0566349,21.9118089
49,Strada Lebedei,410230,47.0566923,21.9116775
4A,Strada Chimiei,410230,47.0570402,21.9112089
5,Strada Fluierașului,410230,47.0571579,21.9124632
51,Strada Lebedei,410230,47.0567645,21.9115630
53,Strada Lebedei,410230,47.0568424,21.9114318
55,Strada Lebedei,410230,47.0569329,21.9113040
55A,Strada Lebedei,410230,47.0568865,21.9113796
58,Strada Lebedei,410230,47.0566021,21.9113763
6,Strada Chimiei,410230,47.0568666,21.9110300
6,Strada Fluierașului,410230,47.0569280,21.9127396
6,Strada Potârnichilor,410230,47.0570179,21.9115646
6,Strada Sintezei,410229,47.0558843,21.9099113
60,Strada Lebedei,410230,47.0567886,21.9111676
7,Strada Fluierașului,410230,47.0570586,21.9122527
8,Strada Chimiei,410230,47.0567952,21.9109394
8,Strada Fluierașului,410230,47.0568796,21.9127091
8,Strada Potârnichilor,410230,47.0571160,21.9117148
8,Strada Sturzului,410230,47.0565372,21.9126985
9,Strada Fluierașului,410230,47.0569718,21.9122602
9,Strada Ștefan Octavian Iosif,410230,47.0578170,21.9123293
1,Strada Henri Coandă,410228,47.0557417,21.9135400
1,Strada Măgurei,410231,47.0537888,21.9087083
1,Strada Petre Ispirescu,410227,47.0563772,21.9147728
1,Strada Richard Wagner,410229,47.0554261,21.9117002
10,Strada Henri Coandă,410228,47.0549865,21.9123642
10,Strada Petre Ispirescu,410227,47.0572242,21.9148547
10,Strada Ștefan Octavian Iosif,410230,47.0575852,21.9148513
11,Strada Henri Coandă,410228,47.0551877,21.9119013
12,Strada Henri Coandă,410228,47.0546756,21.9117139
12,Strada Petre Ispirescu,410227,47.0571761,21.9153737
13,Strada Henri Coandă,410228,47.0549750,21.9113240
14,Strada Henri Coandă,410228,47.0546941,21.9115506
14,Strada Petre Ispirescu,410227,47.0573633,21.9152253
15,Strada Henri Coandă,410228,47.0548875,21.9110735
16,Strada Henri Coandă,410228,47.0546137,21.9112855
16,Strada Petre Ispirescu,410227,47.0573175,21.9157552
17,Strada Henri Coandă,410228,47.0546948,21.9101468
18,Strada Henri Coandă,410228,47.0544593,21.9108316
18,Strada Petre Ispirescu,410227,47.0575060,21.9156034
19,Strada Henri Coandă,410228,47.0545838,21.9098360
2,Strada Henri Coandă,410228,47.0556211,21.9142092
2,Strada Petre Ispirescu,410227,47.0566439,21.9143758
2,Strada Porumbelului,410231,47.0558325,21.9154362
2,Strada Richard Wagner,410229,47.0551572,21.9112944
2,Strada Sintezei,410229,47.0556762,21.9102170
20,Strada Henri Coandă,410228,47.0543733,21.9105799
2A,Strada Porumbelului,410231,47.0559388,21.9155496
3,Strada Henri Coandă,410228,47.0557057,21.9130450
3,Strada Măgurei,410231,47.0540757,21.9085323
3,Strada Petre Ispirescu,410227,47.0568196,21.9156418
4,Strada Henri Coandă,410228,47.0555427,21.9139869
4,Strada Petre Ispirescu,410227,47.0568527,21.9146823
4,Strada Sintezei,410229,47.0557843,21.9100529
4A,Strada Traian Blajovici,410209,47.0538854,21.9144138
5,Calea Aradului,410224,47.0552991,21.9142842
5,Strada Henri Coandă,410228,47.0555969,21.9127301
5,Strada Măgurei,410231,47.0542680,21.9084234
6,Strada Henri Coandă,410228,47.0556805,21.9150195
6,Strada Petre Ispirescu,410227,47.0570041,21.9144570
7,Strada Henri Coandă,410228,47.0553438,21.9123576
7A,Calea Aradului,410224,47.0560598,21.9159141
8,Strada Henri Coandă,410228,47.0550967,21.9126800
8,Strada Petre Ispirescu,410227,47.0570360,21.9150079
89,Calea Aradului,410224,47.0544176,21.9117455
9,Strada Henri Coandă,410228,47.0552604,21.9121132
91,Calea Aradului,410224,47.0542761,21.9114331
1,Strada Alexandru Roman,410222,47.0529779,21.9093113
1,Strada Lucian Blaga,410222,47.0525342,21.9081558
1,Strada Traian Blajovici,410209,47.0519953,21.9113344
1,Strada Ursului,410220,47.0510592,21.9140154
1,Strada Zaharia Stancu,410220,47.0508034,21.9130956
10,Strada Fagurelui,410222,47.0507613,21.9065791
10,Strada Lucian Blaga,410222,47.0518665,21.9088136
10,Strada Padișului,410222,47.0516289,21.9078627
100,Calea Aradului,410223,47.0506070,21.9055305
102,Calea Aradului,410223,47.0504205,21.9054683
105A,Calea Aradului,410224,47.0530135,21.9077356
106,Calea Aradului,410223,47.0496550,21.9051824
108,Calea Aradului,410223,47.0493953,21.9052956
10A,Strada Fagurelui,410222,47.0505866,21.9066234
11,Strada Alexandru Roman,410222,47.0520376,21.9095679
11,Strada Lucian Blaga,410222,47.0518045,21.9083787
11,Strada Padișului,410222,47.0512324,21.9072642
11,Strada Vlădeasa,410222,47.0506205,21.9095999
114,Calea Aradului,410223,47.0487249,21.9049679
119,Calea Aradului,410224,47.0509448,21.9049300
12,Strada Fagurelui,410222,47.0505265,21.9066870
12,Strada Lucian Blaga,410222,47.0517278,21.9088846
12,Strada Padișului,410222,47.0515674,21.9079492
13,Strada Alexandru Roman,410222,47.0519259,21.9096405
13,Strada Lucian Blaga,410222,47.0516476,21.9084950
13,Strada Padișului,410222,47.0511341,21.9072906
13,Strada Vlădeasa,410222,47.0504900,21.9086804
14,Strada Fagurelui,410222,47.0503811,21.9067848
14,Strada Lucian Blaga,410222,47.0515815,21.9088952
14,Strada Octavian Goga,410221,47.0488594,21.9079771
14,Strada Padișului,410222,47.0514098,21.9079930
14A,Strada Padișului,410222,47.0513625,21.9079923
15,Strada Alexandru Roman,410222,47.0518201,21.9096822
15,Strada Fagurelui,410222,47.0494400,21.9066990
15,Strada Lucian Blaga,410222,47.0514909,21.9085527
15,Strada Octavian Goga,410221,47.0509333,21.9163496
15,Strada Padișului,410222,47.0509801,21.9072954
15,Strada Vlădeasa,410222,47.0504398,21.9084899
15A,Strada Lucian Blaga,410222,47.0514478,21.9085675
16,Strada Fagurelui,410222,47.0501742,21.9067867
16,Strada Lucian Blaga,410222,47.0514395,21.9089093
16,Strada Padișului,410222,47.0512265,21.9081171
17,Strada Alexandru Roman,410222,47.0516553,21.9095761
17,Strada Fagurelui,410222,47.0492409,21.9067875
17,Strada Lucian Blaga,410222,47.0513212,21.9085824
17,Strada Octavian Goga,410221,47.0508633,21.9161798
17,Strada Padișului,410222,47.0508790,21.9074240
17,Strada Vlădeasa,410222,47.0504492,21.9083346
18,Strada Fagurelui,410222,47.0499088,21.9069027
18,Strada Lucian Blaga,410222,47.0512932,21.9089501
18,Strada Padișului,410222,47.0510971,21.9081747
18,Strada Vlădeasa,410222,47.0514580,21.9164891
18A,Strada Padișului,410222,47.0510110,21.9081056
19,Strada Alexandru Roman,410222,47.0515858,21.9097742
19,Strada Lucian Blaga,410222,47.0511981,21.9086031
19,Strada Octavian Goga,410221,47.0508278,21.9159919
19,Strada Padișului,410222,47.0506766,21.9075341
19,Strada Vlădeasa,410222,47.0503198,21.9076835
2,Strada Alexandru Roman,410222,47.0504862,21.9105561
2,Strada Herbert Spencer,410220,47.0513016,21.9166920
2,Strada Lucian Blaga,410222,47.0525330,21.9085402
2,Strada Octavian Goga,410221,47.0499993,21.9137829
2,Strada Padișului,410222,47.0522990,21.9076318
2,Strada Traian Blajovici,410209,47.0524480,21.9134491
2,Strada Ursului,410220,47.0507060,21.9145506
2,Strada Zaharia Stancu,410220,47.0509688,21.9134758
20,Strada Fagurelui,410222,47.0497090,21.9069578
20,Strada Lucian Blaga,410222,47.0511514,21.9090544
20,Strada Padișului,410222,47.0509494,21.9081913
20,Strada Vlădeasa,410222,47.0514254,21.9162077
20A,Strada Fagurelui,410222,47.0496147,21.9070278
20A,Strada Lucian Blaga,410222,47.0509965,21.9090901
21,Strada Alexandru Roman,410222,47.0514664,21.9098363
21,Strada Octavian Goga,410221,47.0508758,21.9158649
21,Strada Padișului,410222,47.0504364,21.9076384
21,Strada Vlădeasa,410222,47.0502744,21.9072622
21A,Strada Alexandru Roman,410222,47.0513637,21.9099063
22,Strada Fagurelui,410222,47.0495164,21.9071149
22,Strada Lucian Blaga,410222,47.0508958,21.9091047
22,Strada Padișului,410222,47.0507812,21.9082185
22,Strada Vlădeasa,410222,47.0513722,21.9159716
22A,Strada Fagurelui,410222,47.0493783,21.9071107
23,Strada Alexandru Roman,410222,47.0513005,21.9099354
23,Strada Lucian Blaga,410222,47.0509030,21.9087202
23,Strada Octavian Goga,410221,47.0507733,21.9157414
23,Strada Vlădeasa,410222,47.0501088,21.9064718
24,Strada Fagurelui,410222,47.0493052,21.9070764
24,Strada Lucian Blaga,410222,47.0505879,21.9092251
24,Strada Padișului,410222,47.0506222,21.9082663
24,Strada Vlădeasa,410222,47.0513653,21.9158578
24A,Strada Fagurelui,410222,47.0492127,21.9071764
24C,Strada Lucian Blaga,410222,47.0500836,21.9094057
25,Strada Alexandru Roman,410222,47.0511644,21.9098824
25,Strada Lucian Blaga,410222,47.0507276,21.9088516
25,Strada Octavian Goga,410221,47.0506989,21.9155494
25,Strada Padișului,410222,47.0500088,21.9077343
25,Strada Vlădeasa,410222,47.0500956,21.9062908
26,Strada Fagurelui,410222,47.0491121,21.9072008
26,Strada Lucian Blaga,410222,47.0498542,21.9094605
26,Strada Padișului,410222,47.0500176,21.9084938
26,Strada Vlădeasa,410222,47.0512991,21.9156598
26A,Strada Padișului,410222,47.0497907,21.9085653
27,Strada Alexandru Roman,410222,47.0510690,21.9100141
27,Strada Lucian Blaga,410222,47.0505255,21.9088748
27,Strada Octavian Goga,410221,47.0506742,21.9152784
27,Strada Padișului,410222,47.0498403,21.9078711
27,Strada Vlădeasa,410222,47.0500473,21.9060320
27A,Strada Alexandru Roman,410222,47.0509270,21.9100368
27A,Strada Padișului,410222,47.0497332,21.9078619
28,Strada Lucian Blaga,410222,47.0497395,21.9094853
28,Strada Padișului,410222,47.0497038,21.9085898
28,Strada Vlădeasa,410222,47.0512478,21.9154858
28A,Strada Padișului,410222,47.0496143,21.9086660
29,Strada Alexandru Roman,410222,47.0504038,21.9102116
29,Strada Lucian Blaga,410222,47.0501124,21.9090596
29,Strada Octavian Goga,410221,47.0506884,21.9151090
29,Strada Padișului,410222,47.0496452,21.9079177
29,Strada Vlădeasa,410222,47.0500532,21.9057500
29A,Strada Lucian Blaga,410222,47.0500104,21.9090431
29A,Strada Octavian Goga,410221,47.0506191,21.9150356
29A,Strada Padișului,410222,47.0495498,21.9079717
2A,Strada Alexandru Roman,410222,47.0504064,21.9106113
2A,Strada Octavian Goga,410221,47.0498109,21.9139986
2A,Strada Padișului,410222,47.0524028,21.9075494
2A,Strada Zaharia Stancu,410220,47.0510088,21.9136774
2B,Strada Octavian Goga,410221,47.0495966,21.9135950
2C,Strada Alexandru Roman,410222,47.0513892,21.9104814
2G,Strada Alexandru Roman,410222,47.0520037,21.9100099
3,Strada Alexandru Roman,410222,47.0527234,21.9094002
3,Strada Herbert Spencer,410220,47.0512226,21.9162778
3,Strada Lucian Blaga,410222,47.0523220,21.9082735
3,Strada Ursului,410220,47.0509358,21.9141360
3,Strada Zaharia Stancu,410220,47.0506586,21.9131877
30,Strada Lucian Blaga,410222,47.0495317,21.9096366
30,Strada Padișului,410222,47.0495220,21.9087388
30,Strada Vlădeasa,410222,47.0512826,21.9153270
30A,Strada Padișului,410222,47.0493425,21.9087472
31,Strada Alexandru Roman,410222,47.0502199,21.9102482
31,Strada Lucian Blaga,410222,47.0498494,21.9090185
31,Strada Octavian Goga,410221,47.0505900,21.9149104
31A,Strada Alexandru Roman,410222,47.0501354,21.9103144
31A,Strada Padișului,410222,47.0493782,21.9080380
32,Strada Vlădeasa,410222,47.0512492,21.9151567
33,Strada Alexandru Roman,410222,47.0499203,21.9103408
33,Strada Lucian Blaga,410222,47.0497129,21.9092050
33,Strada Octavian Goga,410221,47.0505753,21.9148198
33,Strada Padișului,410222,47.0492807,21.9080840
34,Strada Vlădeasa,410222,47.0511275,21.9150130
35,Strada Alexandru Roman,410222,47.0498056,21.9103691
35,Strada Lucian Blaga,410222,47.0496006,21.9092477
35,Strada Octavian Goga,410221,47.0505167,21.9145978
35A,Strada Octavian Goga,410221,47.0502119,21.9130378
36,Strada Vlădeasa,410222,47.0511677,21.9148679
37,Strada Lucian Blaga,410222,47.0494120,21.9092899
37,Strada Octavian Goga,410221,47.0500437,21.9121743
38,Strada Vlădeasa,410222,47.0511534,21.9146981
39,Strada Octavian Goga,410221,47.0500531,21.9120348
4,Strada Alexandru Roman,410222,47.0501985,21.9105945
4,Strada Herbert Spencer,410220,47.0511571,21.9165887
4,Strada Lucian Blaga,410222,47.0524458,21.9085604
4,Strada Octavian Goga,410221,47.0491657,21.9108035
4,Strada Padișului,410222,47.0521721,21.9076876
4,Strada Zaharia Stancu,410220,47.0507948,21.9134960
40,Strada Vlădeasa,410222,47.0511441,21.9145786
41,Strada Octavian Goga,410221,47.0500407,21.9118690
42,Strada Vlădeasa,410222,47.0511107,21.9144199
43,Strada Octavian Goga,410221,47.0499749,21.9117388
44,Strada Vlădeasa,410222,47.0506563,21.9119904
45,Strada Octavian Goga,410221,47.0499151,21.9115398
47,Strada Octavian Goga,410221,47.0499121,21.9114259
48,Strada Vlădeasa,410222,47.0506542,21.9116303
49,Strada Octavian Goga,410221,47.0498432,21.9112331
5,Strada Alexandru Roman,410222,47.0524635,21.9095293
5,Strada Herbert Spencer,410220,47.0511193,21.9163208
5,Strada Lucian Blaga,410222,47.0522550,21.9082538
5,Strada Traian Blajovici,410209,47.0509920,21.9118802
5,Strada Ursului,410220,47.0507048,21.9140028
50,Strada Vlădeasa,410222,47.0506403,21.9115082
51,Strada Octavian Goga,410221,47.0498232,21.9111163
52,Strada Vlădeasa,410222,47.0505568,21.9113425
53,Strada Octavian Goga,410221,47.0498195,21.9108717
54,Strada Vlădeasa,410222,47.0505796,21.9111946
55,Strada Octavian Goga,410221,47.0498068,21.9108184
56,Strada Vlădeasa,410222,47.0505552,21.9109942
57,Strada Octavian Goga,410221,47.0496734,21.9103751
58,Strada Vlădeasa,410222,47.0504672,21.9108632
59,Strada Octavian Goga,410221,47.0496684,21.9102933
59A,Strada Octavian Goga,410221,47.0497597,21.9100001
5A,Strada Alexandru Roman,410222,47.0526104,21.9093997
5A,Strada Fagurelui,410222,47.0506290,21.9062864
6,Strada Alexandru Roman,410222,47.0500795,21.9106533
6,Strada Herbert Spencer,410220,47.0510491,21.9166518
6,Strada Lucian Blaga,410222,47.0522798,21.9086856
6,Strada Padișului,410222,47.0519396,21.9077424
6,Strada Zaharia Stancu,410220,47.0505452,21.9135404
60,Strada Vlădeasa,410222,47.0504884,21.9106723
61,Strada Octavian Goga,410221,47.0493498,21.9090197
62,Strada Vlădeasa,410222,47.0504253,21.9100916
63,Strada Octavian Goga,410221,47.0490934,21.9077164
63A,Strada Octavian Goga,410221,47.0491187,21.9074685
64,Strada Vlădeasa,410222,47.0503939,21.9099419
64A,Strada Vlădeasa,410222,47.0503857,21.9097662
65,Strada Octavian Goga,410221,47.0489193,21.9068239
65A,Strada Octavian Goga,410221,47.0488697,21.9065067
66,Strada Vlădeasa,410222,47.0503705,21.9096781
67,Strada Octavian Goga,410221,47.0492804,21.9063966
68,Strada Vlădeasa,410222,47.0503129,21.9093091
69,Strada Octavian Goga,410221,47.0492382,21.9061467
6A,Strada Lucian Blaga,410222,47.0521605,21.9087386
7,Strada Alexandru Roman,410222,47.0523853,21.9094891
7,Strada Fagurelui,410222,47.0504045,21.9062408
7,Strada Lucian Blaga,410222,47.0521075,21.9083415
7,Strada Ursului,410220,47.0505526,21.9142549
70,Strada Vlădeasa,410222,47.0501875,21.9090367
70A,Strada Vlădeasa,410222,47.0501583,21.9085382
71,Strada Octavian Goga,410221,47.0487878,21.9060532
72,Strada Vlădeasa,410222,47.0500014,21.9074554
72A,Strada Vlădeasa,410222,47.0499209,21.9071919
73,Strada Octavian Goga,410221,47.0487118,21.9055730
74,Strada Vlădeasa,410222,47.0497421,21.9063083
75,Strada Octavian Goga,410221,47.0486573,21.9054328
76,Strada Vlădeasa,410222,47.0497755,21.9056111
78,Calea Aradului,410223,47.0529904,21.9091697
78A,Calea Aradului,410223,47.0529684,21.9091151
78B,Calea Aradului,410223,47.0529320,21.9089863
8,Strada Fagurelui,410222,47.0509818,21.9065030
8,Strada Lucian Blaga,410222,47.0520084,21.9086799
8,Strada Padișului,410222,47.0518370,21.9077987
8,Strada Zaharia Stancu,410220,47.0503228,21.9136270
80,Calea Aradului,410223,47.0527446,21.9087399
82,Calea Aradului,410223,47.0527990,21.9084508
84,Calea Aradului,410223,47.0526468,21.9079385
84A,Calea Aradului,410223,47.0525965,21.9078339
86,Calea Aradului,410223,47.0525148,21.9075321
88,Calea Aradului,410223,47.0519275,21.9069500
9,Strada Alexandru Roman,410222,47.0522805,21.9095621
9,Strada Fagurelui,410222,47.0497711,21.9065229
9,Strada Lucian Blaga,410222,47.0519416,21.9082458
9,Strada Padișului,410222,47.0514624,21.9072232
9,Strada Vlădeasa,410222,47.0506592,21.9097208
90,Calea Aradului,410223,47.0518720,21.9066649
92,Calea Aradului,410223,47.0516580,21.9064611
94,Calea Aradului,410223,47.0513772,21.9062399
32,Calea Aradului,410223,47.0511266,21.9059035
98,Calea Aradului,410223,47.0509589,21.9057730
10,Strada Vlădeasa,410222,47.0516337,21.9174948
10A,Strada Vlădeasa,410222,47.0514704,21.9174859
11,Strada Octavian Goga,410221,47.0510249,21.9170457
11A,Strada Octavian Goga,410221,47.0510003,21.9169034
12,Strada Vlădeasa,410222,47.0515879,21.9172366
14,Strada Vlădeasa,410222,47.0515598,21.9170604
16,Strada Vlădeasa,410222,47.0515305,21.9168516
3,Strada Octavian Goga,410221,47.0512267,21.9179504
4B,Strada Vlădeasa,410222,47.0517876,21.9180327
5,Strada Octavian Goga,410221,47.0512100,21.9177961
6,Strada Vlădeasa,410222,47.0516654,21.9177883
7,Strada Octavian Goga,410221,47.0511432,21.9176705
71,Bulevardul Decebal,410219,47.0512652,21.9183576
7A,Strada Octavian Goga,410221,47.0511049,21.9173902
8,Strada Vlădeasa,410222,47.0516108,21.9176163
9,Strada Octavian Goga,410221,47.0510527,21.9172331
100,Strada Valea Frumoasă,410141,47.1114316,21.9045105
26,Strada Valea Frumoasă,410141,47.1115063,21.9038087
28C,Strada Valea Frumoasă,410141,47.1118988,21.9035124
30,Strada Valea Frumoasă,410141,47.1121057,21.9032593
30A,Strada Valea Frumoasă,410141,47.1123499,21.9029062
34,Strada Valea Frumoasă,410141,47.1125706,21.9026719
40,Strada Valea Frumoasă,410141,47.1128051,21.9021239
48,Strada Valea Frumoasă,410141,47.1130481,21.9017253
50,Strada Valea Frumoasă,410141,47.1132218,21.9015653
211,Strada Nufărului,410597,47.0178505,21.9628870
121;117,Strada Apateului,410505,47.0262006,21.9351053
1,Strada Radu Enescu,410238,47.0481730,21.9032784
10,Strada Balogh István,410238,47.0474451,21.9021872
10,Strada Coriolan Pop,410238,47.0474466,21.9002675
10,Strada Nicolae Firu,410238,47.0477498,21.8981159
10,Strada Radu Enescu,410238,47.0481328,21.9013835
11,Strada General Eremia Grigorescu,410238,47.0483913,21.8972483
11,Strada Radu Enescu,410238,47.0485408,21.9017864
12,Strada Balogh István,410238,47.0473336,21.9019288
12,Strada Coriolan Pop,410238,47.0475001,21.9000114
12,Strada Radu Enescu,410238,47.0481821,21.9012238
13,Strada Balogh István,410238,47.0471501,21.9005609
13,Strada Coriolan Pop,410238,47.0478136,21.9012334
14,Strada Balogh István,410238,47.0471613,21.9015032
14,Aleea Călinului,410241,47.0494445,21.8998986
15,Strada Balogh István,410238,47.0470684,21.9003656
16,Strada Balogh István,410238,47.0469972,21.9010825
16,Strada Coriolan Pop,410238,47.0475552,21.8995198
16,Strada Nicolae Firu,410238,47.0473609,21.8979624
16,Strada Radu Enescu,410238,47.0482472,21.9008516
17,Strada Balogh István,410238,47.0474222,21.8966738
17,Strada Coriolan Pop,410238,47.0479192,21.9008350
18,Strada Balogh István,410238,47.0467869,21.9006429
18,Strada Radu Enescu,410238,47.0483058,21.9005950
19,Strada Balogh István,410238,47.0471307,21.8998383
19,Strada Coriolan Pop,410238,47.0479562,21.9006609
2,Strada General Eremia Grigorescu,410238,47.0489768,21.8979424
2,Strada Nicolae Firu,410238,47.0485619,21.8995505
20,Strada Balogh István,410238,47.0467760,21.9001582
20,Strada Radu Enescu,410238,47.0483330,21.9004547
21,Strada Radu Enescu,410238,47.0488721,21.9001523
22,Strada Balogh István,410238,47.0468094,21.8999033
23,Strada Balogh István,410238,47.0471146,21.8995208
24,Strada Balogh István,410238,47.0468496,21.8995958
25,Strada Balogh István,410238,47.0472286,21.8993231
25,Strada Radu Enescu,410238,47.0490213,21.8995244
26,Strada Balogh István,410238,47.0469897,21.8990814
27,Strada Coriolan Pop,410238,47.0481798,21.8998900
27,Strada Radu Enescu,410238,47.0491897,21.8988091
28,Strada Balogh István,410238,47.0470510,21.8986308
29,Strada Balogh István,410238,47.0472648,21.8989536
29,Strada Coriolan Pop,410238,47.0482450,21.8995872
29,Strada Radu Enescu,410238,47.0492559,21.8984839
3,Strada Nicolae Firu,410238,47.0486949,21.8985645
3,Strada Radu Enescu,410238,47.0482286,21.9029538
30,Strada Balogh István,410238,47.0471243,21.8979762
4,Strada Balogh István,410238,47.0477708,21.9035168
4,Strada Radu Enescu,410238,47.0479725,21.9019963
5,Strada General Eremia Grigorescu,410238,47.0486484,21.8971571
5,Strada Nicolae Firu,410238,47.0485647,21.8984601
5,Strada Radu Enescu,410238,47.0475376,21.9031422
5A,Strada General Eremia Grigorescu,410238,47.0487802,21.8971634
6,Strada Balogh István,410238,47.0476942,21.9031064
6,Strada General Eremia Grigorescu,410238,47.0486962,21.8979853
6,Strada Nicolae Firu,410238,47.0483871,21.8991958
6,Strada Radu Enescu,410238,47.0480207,21.9017976
7,Strada Radu Enescu,410238,47.0483831,21.9023695
8,Strada Balogh István,410238,47.0475553,21.9027260
8,Strada Coriolan Pop,410238,47.0473982,21.9004732
8,Strada General Eremia Grigorescu,410238,47.0485255,21.8980478
9,Aleea Călinului,410241,47.0492771,21.9023318
9,Strada General Eremia Grigorescu,410238,47.0484950,21.8972111
9,Strada Radu Enescu,410238,47.0484696,21.9020525
10,Strada Czárán Gyula,410240,47.0448557,21.8958790
12,Strada Czárán Gyula,410240,47.0446365,21.8957965
14A,Strada Czárán Gyula,410240,47.0442478,21.8959821
14B,Strada Czárán Gyula,410240,47.0440572,21.8967065
1A,Strada Czárán Gyula,410240,47.0464333,21.8953844
2,Strada Balogh István,410238,47.0479006,21.9038566
2,Strada Czárán Gyula,410240,47.0465137,21.8961405
4,Strada Czárán Gyula,410240,47.0462291,21.8960802
6,Strada Czárán Gyula,410240,47.0458919,21.8960153
62,Calea Aradului,410223,47.0447939,21.9049294
7A,Strada Czárán Gyula,410240,47.0443115,21.8945222
8,Strada Czárán Gyula,410240,47.0453340,21.8959247
8D,Strada Czárán Gyula,410240,47.0450424,21.8982615
8F,Strada Czárán Gyula,410240,47.0447126,21.9006066
8I,Strada Czárán Gyula,410240,47.0442141,21.9010162
195,Calea Clujului,410546,47.0444600,21.9686765
38,Strada Republicii,410159,47.0634276,21.9373609
55A,Strada Republicii,410167,47.0648284,21.9375820
"3, cam 1",Strada George Enescu,410034,47.0578673,21.9371441
1,Strada Parcul Traian,410033,47.0579320,21.9351420
13,Strada Aurel Lazăr,410043,47.0564604,21.9345448
14,Strada Iosif Vulcan,410041,47.0560046,21.9334563
127,Calea Aradului,410223,47.0500871,21.9044616
11,Strada Piatra Craiului,410183,47.0555670,21.9524534
10,Calea Borșului,410605,47.0758718,21.9002433
54,Strada Cloșca,410081,47.0444391,21.9323715
62,Strada Ogorului,410554,47.0277053,21.9680552
259,Calea Clujului,410429,47.0360270,21.9950655
7,Strada George Enescu,410034,47.0580899,21.9374292
4,Strada Aluminei,410307,47.0686386,21.9180085
3,Piața București,410730,47.0692593,21.9362066
8,Bulevardul Ștefan cel Mare,410115,47.0728694,21.9330273
3,Strada Ogorului,410000,47.0301683,21.9957740
171a,Strada Ogorului,410554,47.0454608,21.9097209
1,Strada George Bacaloglu,410544,47.0398763,21.9987614
1,Strada Moților,410089,47.0471088,21.9259805
10,Strada George Bacaloglu,410544,47.0404752,22.0038056
101,Strada George Bacaloglu,410544,47.0414307,22.0025639
10A,Strada George Bacaloglu,410544,47.0405849,22.0037938
11,Strada George Bacaloglu,410544,47.0399430,21.9996605
11,Strada Moților,410089,47.0467530,21.9268833
12,Strada George Bacaloglu,410544,47.0404698,22.0040532
13,Strada George Bacaloglu,410544,47.0399600,21.9998608
13,Strada Moților,410089,47.0467052,21.9271060
14,Strada George Bacaloglu,410544,47.0406033,22.0040458
15,Strada George Bacaloglu,410544,47.0399655,22.0000732
15,Strada Bacăului,410087,47.0465885,21.9272113
16,Strada George Bacaloglu,410544,47.0407029,22.0037930
17,Strada George Bacaloglu,410544,47.0399618,22.0002016
18,Strada George Bacaloglu,410544,47.0406658,22.0034355
18A,Strada George Bacaloglu,410544,47.0407967,22.0034219
19,Strada George Bacaloglu,410544,47.0399906,22.0004341
2,Strada George Bacaloglu,410544,47.0403951,22.0025393
20,Strada George Bacaloglu,410544,47.0408113,22.0031855
20A,Strada George Bacaloglu,410544,47.0406708,22.0031795
21,Strada George Bacaloglu,410544,47.0400029,22.0006059
22,Strada George Bacaloglu,410544,47.0411061,22.0027853
22A,Strada George Bacaloglu,410544,47.0409474,22.0028237
22B,Strada George Bacaloglu,410544,47.0407790,22.0027882
23,Strada George Bacaloglu,410544,47.0400226,22.0007601
24,Strada George Bacaloglu,410544,47.0410128,22.0025567
24A,Strada George Bacaloglu,410544,47.0408588,22.0025658
24B,Strada George Bacaloglu,410544,47.0407470,22.0025614
25,Strada George Bacaloglu,410544,47.0400283,22.0009783
25,Strada Virgil Maxim,410551,47.0404639,22.0006763
27,Strada George Bacaloglu,410544,47.0400332,22.0011678
27,Strada Virgil Maxim,410551,47.0404961,22.0008768
29,Strada George Bacaloglu,410544,47.0400536,22.0013449
2A,Strada George Bacaloglu,410544,47.0405168,22.0025325
2B,Strada George Bacaloglu,410544,47.0406393,22.0025544
3,Strada George Bacaloglu,410544,47.0399429,21.9989457
3,Strada Moților,410089,47.0470325,21.9261652
31,Strada George Bacaloglu,410544,47.0400620,22.0015170
32,Strada Virgil Maxim,410551,47.0407560,22.0011270
33,Strada George Bacaloglu,410544,47.0400826,22.0017056
33,Strada Virgil Maxim,410551,47.0405232,22.0014346
35,Strada George Bacaloglu,410544,47.0400910,22.0018776
37,Strada George Bacaloglu,410544,47.0401098,22.0020641
39,Strada George Bacaloglu,410544,47.0401202,22.0022440
4 A,Strada George Bacaloglu,410544,47.0405231,22.0028233
4,Strada George Bacaloglu,410544,47.0404014,22.0027804
40,Strada Virgil Maxim,410551,47.0408357,22.0018479
41,Strada George Bacaloglu,410544,47.0401369,22.0024328
43,Strada George Bacaloglu,410544,47.0401458,22.0026279
45,Strada George Bacaloglu,410544,47.0401659,22.0027935
47,Strada George Bacaloglu,410544,47.0401548,22.0030051
49,Strada George Bacaloglu,410544,47.0401674,22.0031557
4B,Strada George Bacaloglu,410544,47.0406493,22.0027896
5,Strada George Bacaloglu,410544,47.0399063,21.9991565
5,Strada Moților,410089,47.0469619,21.9263479
51,Strada George Bacaloglu,410544,47.0401802,22.0033447
53,Strada George Bacaloglu,410544,47.0402014,22.0035563
55,Strada George Bacaloglu,410544,47.0402054,22.0037114
57,Strada George Bacaloglu,410544,47.0402336,22.0038881
59,Strada George Bacaloglu,410544,47.0402432,22.0041334
6,Strada George Bacaloglu,410544,47.0404718,22.0031830
61,Strada George Bacaloglu,410544,47.0402511,22.0043365
63,Strada George Bacaloglu,410544,47.0402531,22.0045285
65,Strada George Bacaloglu,410544,47.0403300,22.0046857
6A,Strada George Bacaloglu,410544,47.0405331,22.0031780
7,Strada George Bacaloglu,410544,47.0399107,21.9993287
7,Strada Moților,410089,47.0469322,21.9265255
73,Strada George Bacaloglu,410544,47.0406954,22.0046954
75,Strada George Bacaloglu,410544,47.0407626,22.0045896
77,Strada George Bacaloglu,410544,47.0408035,22.0043939
79,Strada George Bacaloglu,410544,47.0408951,22.0042387
8,Strada George Bacaloglu,410544,47.0405028,22.0034059
81,Strada George Bacaloglu,410544,47.0409607,22.0041166
83,Strada Denis Diderot,410552,47.0409569,22.0016910
83,Strada George Bacaloglu,410544,47.0409840,22.0039516
85,Strada George Bacaloglu,410544,47.0410382,22.0037632
87,Strada George Bacaloglu,410544,47.0410969,22.0036088
89,Strada George Bacaloglu,410544,47.0411865,22.0034173
8A,Strada George Bacaloglu,410544,47.0405357,22.0034208
9,Strada George Bacaloglu,410544,47.0399269,21.9994946
9,Strada Moților,410089,47.0468377,21.9267804
91,Strada George Bacaloglu,410544,47.0411671,22.0032037
93,Strada George Bacaloglu,410544,47.0412380,22.0030560
95,Strada George Bacaloglu,410544,47.0412883,22.0028749
97,Strada George Bacaloglu,410544,47.0413721,22.0027148
10,Strada Moților,410089,47.0471350,21.9271852
12,Strada Moților,410089,47.0470397,21.9273276
14,Strada Moților,410089,47.0469770,21.9274878
16,Strada Moților,410089,47.0468771,21.9276065
2,Strada Moților,410089,47.0473973,21.9263489
4,Strada Moților,410089,47.0472578,21.9266916
6,Strada Moților,410089,47.0471935,21.9268612
8,Strada Moților,410089,47.0471434,21.9270066
14,Strada Bacăului,410087,47.0469092,21.9258231
16,Strada Bacăului,410087,47.0468366,21.9260021
18,Strada Bacăului,410087,47.0467639,21.9261742
20,Strada Bacăului,410087,47.0466714,21.9263311
22,Strada Bacăului,410087,47.0465852,21.9264977
24,Strada Bacăului,410087,47.0465138,21.9266717
26,Strada Bacăului,410087,47.0464322,21.9268892
28,Strada Bacăului,410087,47.0463838,21.9270284
30,Strada Bacăului,410087,47.0462659,21.9271930
23,Strada Ion Vidu,410089,47.0472301,21.9280393
25,Strada Ion Vidu,410089,47.0471006,21.9279904
25A,Strada Ion Vidu,410089,47.0470463,21.9278467
27,Strada Ion Vidu,410089,47.0469364,21.9278393
29,Strada Ion Vidu,410089,47.0468153,21.9277671
31,Strada Ion Vidu,410089,47.0465587,21.9276109
33,Strada Ion Vidu,410089,47.0464390,21.9275373
35,Strada Ion Vidu,410089,47.0462821,21.9274461
37,Strada Ion Vidu,410089,47.0462035,21.9273822
11A,Strada Mărășești,410505,47.0476693,21.9263650
13,Strada Mărășești,410505,47.0477144,21.9265765
15,Strada Mărășești,410505,47.0476513,21.9267550
17,Strada Mărășești,410505,47.0475567,21.9268572
19,Strada Mărășești,410505,47.0475215,21.9270357
21,Strada Mărășești,410505,47.0475030,21.9271921
23,Strada Mărășești,410505,47.0473913,21.9273289
25,Strada Mărășești,410505,47.0474140,21.9275386
27,Strada Mărășești,410505,47.0473613,21.9276758
29,Strada Mărășești,410505,47.0473115,21.9278163
1,Strada Crișan,410081,47.0466722,21.9283714
10,Strada Ion Vidu,410089,47.0477278,21.9287517
10A,Strada Ion Vidu,410089,47.0475725,21.9286914
11,Strada Crișan,410081,47.0460669,21.9289312
12,Strada Ion Vidu,410089,47.0474526,21.9286164
13,Strada Crișan,410081,47.0459810,21.9290506
14,Strada Ion Vidu,410089,47.0472978,21.9285483
16,Strada Ion Vidu,410089,47.0471054,21.9284388
18,Strada Ion Vidu,410089,47.0468333,21.9282198
2,Strada Crișan,410081,47.0469593,21.9285436
20,Strada Ion Vidu,410089,47.0467195,21.9281731
22,Strada Ion Vidu,410089,47.0465709,21.9281283
24,Strada Ion Vidu,410089,47.0464812,21.9280382
26,Strada Ion Vidu,410089,47.0462861,21.9280333
28,Strada Ion Vidu,410089,47.0461760,21.9279561
3,Strada Cloșca,410081,47.0475658,21.9289924
3,Strada Crișan,410081,47.0465536,21.9284567
30,Strada Ion Vidu,410089,47.0460853,21.9277873
34,Strada Bacăului,410087,47.0460160,21.9279509
36,Strada Bacăului,410087,47.0460076,21.9281190
36A,Strada Bacăului,410087,47.0460140,21.9282641
38,Strada Bacăului,410087,47.0459207,21.9283178
38A,Strada Bacăului,410087,47.0457723,21.9284007
4,Strada Crișan,410081,47.0467858,21.9287187
40,Strada Bacăului,410087,47.0458012,21.9285400
42,Strada Crișan,410081,47.0456950,21.9287070
5,Strada Cloșca,410081,47.0474743,21.9290401
5,Strada Crișan,410081,47.0464607,21.9285840
5A,Strada Crișan,410081,47.0463650,21.9286678
6,Strada Crișan,410081,47.0465609,21.9289366
7,Strada Crișan,410081,47.0462785,21.9287716
9,Strada Crișan,410081,47.0461805,21.9288549
2,Strada Cloșca,410081,47.0479757,21.9290703
8,Strada Ion Vidu,410089,47.0481333,21.9289987
63,Strada George Emil Palade,410092,47.0412583,21.9136973
19,Strada Nojoridului,410542,47.0363513,21.9391870
53,Strada Depoului,410110,47.0750629,21.9358037
36,Strada Leonardo Da Vinci,410598,47.0324593,21.9485450
32,Strada Leonardo Da Vinci,410598,47.0326321,21.9481493
30,Strada Leonardo Da Vinci,410535,47.0331987,21.9471827
28 A,Strada Leonardo Da Vinci,410535,47.0333559,21.9468984
26,Strada Leonardo Da Vinci,410535,47.0334912,21.9466356
24,Strada Leonardo Da Vinci,410535,47.0341091,21.9455842
22,Strada Leonardo Da Vinci,410540,47.0342443,21.9453535
20,Strada Leonardo Da Vinci,410540,47.0344271,21.9450370
18,Strada Leonardo Da Vinci,410540,47.0345332,21.9448653
16,Strada Leonardo Da Vinci,410540,47.0350323,21.9440445
14,Strada Leonardo Da Vinci,410540,47.0352076,21.9437403
4,Strada Leonardo Da Vinci,410540,47.0364782,21.9421839
6,Strada Leonardo Da Vinci,410540,47.0362738,21.9423286
8,Strada Leonardo Da Vinci,410540,47.0360547,21.9424839
12,Strada Leonardo Da Vinci,410540,47.0356531,21.9430410
10,Strada Leonardo Da Vinci,410540,47.0359269,21.9426446
2,Strada Leonardo Da Vinci,410540,47.0366644,21.9420446
1,Strada Leonardo Da Vinci,410540,47.0367776,21.9414875
24,Tudor Vladimirescu,410203,47.0574448,21.9260503
46,Strada Mircea Eliade,410505,47.0429066,21.9485698
131,Strada Louis Pasteur,410154,47.0644926,21.9514266
102,Strada Gheorghe Doja,410169,47.0645726,21.9534217
2,Strada Gheorghe Marinescu,410155,47.0656799,21.9529822
80,Strada Oneștilor,410273,47.0634652,21.9120891
17,Strada Lăpușului,410271,47.0641244,21.9098155
19,Strada Lăpușului,410271,47.0642809,21.9090248
1A,Strada Grigore Irofte,410265,47.0644159,21.9086604
1,Strada Primăriei,410660,47.0562352,21.9248242
86,Strada Dimitrie Cantemir,410700,47.0401156,21.9424848
12,Strada Roman Ciorogariu,410610,47.0595173,21.9321763
10,Strada Vasile Alecsandri,410039,47.0540884,21.9307700
16,Strada Episcop Sulyok István,410202,47.0577828,21.9223764
28,Strada Mihai Eminescu,410101,47.0622358,21.9313387
3A,Calea Sântandrei,410123,47.0480934,21.8950550
8,Strada Gheorghe Costaforu,410474,47.0481402,21.9388832
22,Piața Nucetului,410491,47.0360530,21.9587155
1,Strada Santaului,410144,47.1074504,21.8920001
4,Strada Malului,410001,47.0590325,21.9273724
9,Strada Vasile Alecsandri,410072,47.0539757,21.9303432
12,Piața Unirii,410072,47.0535120,21.9287720
5,Piața 1 Decembrie,410072,47.0532046,21.9324932
30,Strada Nufărului,410583,47.0358853,21.9502456
7,Strada Ștefan Octavian Iosif,410230,47.0583022,21.9132878
11,Strada Parcul Traian,410033,47.0571258,21.9362582
22/A,Strada General Gheorghe Magheru,410057,47.0594818,21.9401818
404 (km3),Matei Corvin,410133,47.1104234,21.8515334
87A,Calea Aradului,410240,47.0423716,21.9004540
24P,Piața Episcop Ignațiu Darabant,410235,47.0577316,21.8928170
87A,Calea Aradului,410240,47.0431015,21.8988102
14,Aleea Peneș Curcanul,410585,47.0326341,21.9516601
43,Strada Borsului,410605,47.1103945,21.8531354
5,Strada Transilvaniei,410354,47.0761705,21.9152640
16,Strada Corneliu Coposu,410354,47.0765679,21.9160968
9,Strada Transilvaniei,410354,47.0771841,21.9164654
9,Aleea Ștrandului,410051,47.0543018,21.9485601
82,Bulevardul Ștefan cel Mare,410437,47.0780759,21.9260222
87A,Calea Aradului,410240,47.0429168,21.8997814
87A,Calea Aradului,410240,47.0427802,21.9005844
1,Strada Aurel Lazăr,410043,47.0574579,21.9328346
25B,Strada Oneștilor,410252,47.0591498,21.9120034
2A,Strada Mihai Eminescu,410019,47.0589755,21.9344828
15,Strada Vasile Pârvan,410242,47.0516018,21.8976599
13,Strada Gheorghe Țițeica,410243,47.0531802,21.8948963
2,Strada General Gheorghe Magheru,410159,47.0613316,21.9392845
62D,Strada Ovid Densușianu,410237,47.0584666,21.8931837
85,Strada Războieni,410508,47.0428768,21.9603224
26,Strada Episcop Mihai Pavel,410660,47.0552584,21.9244512
87A,Calea Aradului,410223,47.0425128,21.9004408
9,Strada Avram Iancu,410072,47.0517733,21.9267385
40,Strada Tudor Vladimirescu,410203,47.0587523,21.9234140
24/A,Calea Borșului,410605,47.0803002,21.8926086
30,Calea Republicii,410159,47.0621848,21.9375266
11,Strada Crișului,410195,47.0608970,21.9236632
100A,Strada Gheorghe Doja,410169,47.0640162,21.9514633
117,Calea Aradului,410224,47.0511232,21.9050263
3,Piața Unirii,410100,47.0549599,21.9274178
81,Strada Războieni,410508,47.0430647,21.9583554
87A,Calea Aradului,410240,47.0428496,21.8992766
3,Splaiul Crișanei,410190,47.0643875,21.9195645
9,Strada Iza,410465,47.0726879,21.9192382
33,Calea Sântandrei,410123,47.0484495,21.8933849
175,Calea Clujului,410546,47.0448708,21.9653035
15,Strada Vasile Alecsandri,410072,47.0538170,21.9310522
69,Bulevardul Decebal,410219,47.0515668,21.9183450
51,Bulevardul Decebal,410219,47.0516065,21.9189890
7,Strada Iuliu Maniu,410104,47.0544973,21.9259044
8,Bulevardul Decebal,410197,47.0671001,21.9243622
10,Bulevardul Decebal,410197,47.0669341,21.9242556
12,Bulevardul Decebal,410197,47.0667841,21.9241886
14,Bulevardul Decebal,410197,47.0666186,21.9241547
31,Strada Vasile Conta,410320,47.0666087,21.9257030
19,Strada Doina,410318,47.0669165,21.9251692
24,Strada Sfântul Apostol Andrei,410005,47.0651039,21.9219307
3,Strada Alexandru Cazaban,410272,47.0667914,21.9092939
25,Splaiul Crișanei,410269,47.0669429,21.9116612
49 E,Strada Cazaban,410282,47.0671287,21.9061645
37,Strada Alexandru Cazaban,410272,47.0661082,21.9095492
45,Bulevardul Decebal,410231,47.0565524,21.9159579
45,Bulevardul Decebal,410231,47.0574062,21.9164790
49,Strada Alexandru Cazaban,410282,47.0666716,21.9079666
1-3,Bulevardul Dacia,410464,47.0679882,21.9311091
2,Strada Șirul Canonicilor,410161,47.0690105,21.9318817
49 E,Strada Cazaban,410282,47.0672303,21.9068220
87,Strada Nufărului,410597,47.0261311,21.9558014
87,Strada Nufărului,410597,47.0267237,21.9569057
9,Strada Primăriei,410209,47.0555433,21.9287875
49D,Strada Alexandru Cazaban,410282,47.0681532,21.9048273
16,Bulevardul Decebal,410197,47.0664640,21.9240905
43,Bulevardul Decebal,410231,47.0576408,21.9166981
4,Strada Iuliu Maniu,410104,47.0541255,21.9275188
1,Piața 1 Decembrie,410068,47.0527504,21.9372964
30,Calea Matei Basarab,410095,47.0497374,21.9165170
44,Strada Olimpiadei,410151,47.0711015,21.9271676
4,Strada Aluminei,410307,47.0685588,21.9180480
1,Strada Moscovei,410001,47.0584872,21.9318267
87,Strada Tudor Vladimirescu,410270,47.0631596,21.9135191
9,Calea Aradului,401223,47.0556610,21.9150346
89,Strada Tudor Vladimirescu,410270,47.0627967,21.9140693
80,Strada Graurilor,410169,47.0588408,21.9510103
83/A,Bulevardul Ștefan cel Mare,410437,47.0819385,21.9215064
83,Bulevardul Ștefan cel Mare,410437,47.0817826,21.9213057
24,Strada Italiană,410370,47.0793448,21.9124205
9,Strada Nicolae Bălcescu,410327,47.0676350,21.9214110
1A,Strada Nicolae Bălcescu,410327,47.0696536,21.9202523
2,Strada Locomotivei,410431,47.0746893,21.9247785
40,Strada Locomotivei,410431,47.0746717,21.9252831
16,Strada Parcul Petőfi Sándor,410160,47.0650138,21.9348444
12,Strada Gheorghe Doja,410163,47.0599552,21.9412408
1,Strada Gheorghe Marinescu,410155,47.0654651,21.9529808
163A,Strada Louis Pasteur,410154,47.0652853,21.9549003
72,Strada Louis Pasteur,410154,47.0656846,21.9553453
141,Strada Louis Pasteur,410154,47.0647845,21.9524942
82,Strada Louis Pasteur,410154,47.0659928,21.9560510
4,Strada Gheorghe Marinescu,410155,47.0656912,21.9532888
76,Strada Louis Pasteur,410154,47.0659291,21.9555698
48,Strada Louis Pasteur,410154,47.0651479,21.9528845
70,Strada Louis Pasteur,410154,47.0656446,21.9552162
54,Strada Louis Pasteur,410154,47.0652549,21.9534782
56,Strada Louis Pasteur,410154,47.0652486,21.9536641
58,Strada Louis Pasteur,410154,47.0652999,21.9537972
5,Strada Gheorghe Marinescu,410155,47.0655438,21.9537528
46,Strada Louis Pasteur,410154,47.0650924,21.9527379
60,Strada Louis Pasteur,410154,47.0653662,21.9539301
59B,Strada Gheorghe Doja,410169,47.0636479,21.9518697
59,Strada Gheorghe Doja,410169,47.0637017,21.9512851
98,Strada Gheorghe Doja,410169,47.0639350,21.9510056
75,Strada Gheorghe Doja,410169,47.0646694,21.9558011
75A,Strada Gheorghe Doja,410169,47.0646148,21.9555594
59C,Strada Gheorghe Doja,410169,47.0639260,21.9520859
100A,Strada Gheorghe Doja,410154,47.0640494,21.9514594
59A,Strada Gheorghe Doja,410169,47.0637550,21.9515262
61,Strada Gheorghe Doja,410169,47.0640949,21.9527341
75C,Strada Gheorghe Doja,410169,47.0643056,21.9559182
61A,Strada Gheorghe Doja,410169,47.0642554,21.9528463
77B,Strada Gheorghe Doja,410169,47.0647468,21.9561225
59E,Strada Gheorghe Doja,410169,47.0639728,21.9525214
57B,Strada Gheorghe Doja,410169,47.0635397,21.9511263
17,Strada Feldioarei,417498,47.0431159,21.9305623
6,Strada Feldioarei,410475,47.0432388,21.9316954
4,Strada Feldioarei,410475,47.0432799,21.9320574
13,Strada Feldioarei,417498,47.0435416,21.9301634
59D,Strada Gheorghe Doja,410169,47.0639529,21.9521692
61B,Strada Gheorghe Doja,410169,47.0642845,21.9530899
50,Strada Stelian Vasilescu,410538,47.0269014,21.9262474
85,Calea Aradului,410240,47.0438558,21.9017598
52,Strada Louis Pasteur,410154,47.0651706,21.9533803
161,Strada Louis Pasteur,410154,47.0650925,21.9548082
74,Strada Louis Pasteur,410154,47.0657615,21.9554188
27,Strada Constantin Noica,410586,47.0338486,21.9510810
8,Strada Eforiei,410491,47.0361795,21.9549750
10,Strada Eforiei,410491,47.0363550,21.9546853
1,Strada Theodor Aman,410504,47.0412654,21.9435479
30,Muzicii,410514,47.0402920,21.9464207
16A,Strada Eforiei,410491,47.0372849,21.9541698
18,Strada Eforiei,410491,47.0375399,21.9538792
16,Strada Eforiei,410491,47.0371032,21.9542850
14,Strada Eforiei,410491,47.0369613,21.9542620
9,Strada Eforiei,410491,47.0372476,21.9547275
12,Strada Eforiei,410491,47.0367215,21.9545546
18A,Strada Eforiei,410491,47.0374105,21.9540109
14A,Strada Eforiei,410491,47.0367825,21.9544054
5,Strada Eforiei,410491,47.0369057,21.9548887
36,Strada Micsandrelor,410546,47.0401664,21.9677923
67,Strada George Bacaloglu,410544,47.0404347,22.0048013
69,Strada George Bacaloglu,410544,47.0405600,22.0047702
26,Strada General Gheorghe Magheru,410057,47.0587154,21.9406282
6,Strada Vasile Alecsandri,410072,47.0543720,21.9299606
1,Strada General Gheorghe Magheru,410035,47.0608698,21.9382984
4,Strada Snagovului,410057,47.0599878,21.9386984
5,Strada General Gheorghe Magheru,410035,47.0599479,21.9393775
1,Strada General Gheorghe Magheru,410035,47.0607162,21.9389217
9,Aleea Ștrandului,410051,47.0541757,21.9485920
17,Splaiul Crișanei,410269,47.0653803,21.9130233
16,Splaiul Crișanei,410269,47.0652630,21.9133844
2,Strada Corneliu Coposu,410354,47.0759891,21.9162861
1,Strada Cosminului,410406,47.0816571,21.9180850
29,Strada Podului,410370,47.0787150,21.9105434
7,Strada Milcovului,410437,47.0816011,21.9224131
108,Bulevardul Ștefan cel Mare,410438,47.0788084,21.9247271
7,Strada Corneliu Coposu,410445,47.0740098,21.9234666
18,Strada Galileo Galilei,410445,47.0750530,21.9224933
69,Bulevardul Ștefan cel Mare,410437,47.0801397,21.9240458
3A,Calea Sântandrei,410238,47.0485021,21.8959023
36,Strada Primăriei,410209,47.0562788,21.9229078
25,Strada Poeniței,410191,47.0642902,21.9146720
37K,Strada Borșului,410605,47.0943333,21.8840041
56,Calea Aradului,410223,47.0547069,21.9126667
2,Piața Unirii,410072,47.0536957,21.9290046
129,Calea Aradului,410224,47.0487336,21.9041025
25B,Strada Oneștilor,410252,47.0591684,21.9118320
12B,strada Gheorghe Tutuianu,905504,47.0699378,21.9287343
85,Bulevardul Ștefan cel Mare,410437,47.0820295,21.9209885
85,Bulevardul Ștefan cel Mare,410437,47.0822229,21.9209930
85,Bulevardul Ștefan cel Mare,410437,47.0823747,21.9210432
28,Strada Muzicii,410514,47.0404206,21.9464658
26,Strada Muzicii,410514,47.0405151,21.9463985
FN,Strada Uzinelor,410370,47.0798035,21.9099131
110,Bulevardul Ștefan cel Mare,410438,47.0789582,21.9244940
4,Strada Vasile Alecsandri,410072,47.0544015,21.9296967
11,Strada Nicolae Bălcescu,410327,47.0679485,21.9212208
3-7,Strada Partenie Cosma,410003,47.0647189,21.9273966
1,Aleea Ștrandului,410051,47.0554671,21.9421739
10,Strada Doina,410326,47.0675117,21.9222968
11,Strada Mărășești,410505,47.0478338,21.9264558
11,Strada Iza,410465,47.0728297,21.9189085
19,Strada Iza,410465,47.0732460,21.9176220
17,Strada Iza,410465,47.0731055,21.9179550
7,Strada Corneliu Coposu,410445,47.0739328,21.9236816
18,Splaiul Crișanei,410269,47.0655040,21.9126834
20,Splaiul Crișanei,410269,47.0661291,21.9127444
19,Splaiul Crișanei,410269,47.0658184,21.9127058
4A,Strada Vlădeasa,410222,47.0517401,21.9183952
2,Strada Vlădeasa,410222,47.0518549,21.9185267
3,Strada General Gheorghe Magheru,410035,47.0601803,21.9390818
5,Strada General Gheorghe Magheru,410035,47.0597639,21.9394769
5,Strada General Gheorghe Magheru,410035,47.0595279,21.9395139
4,Strada Snagovului,410057,47.0598500,21.9385349
26,Strada General Gheorghe Magheru,410057,47.0586100,21.9407973
42/A,Strada Louis Pasteur,410169,47.0645127,21.9504585
42/A,Strada Louis Pasteur,410169,47.0644827,21.9502642
2,Strada Aviatorilor,410250,47.0520627,21.9056834
45,Bulevardul Decebal,410231,47.0569364,21.9164511
1,Piața Unirii,410100,47.0559942,21.9276436
2,Strada Vasile Alecsandri,410072,47.0544686,21.9293830
1,Strada Vasile Alecsandri,410072,47.0540479,21.9292116
4-6,Piața Regele Ferdinand I,410021,47.0573301,21.9310888
