House number,Street name,Postal code,Latitude,Longitude
9,Rua José Azevedo (Peter),9900-027,38.5296084,-28.6267605
9,Rua Serpa Pinto,9900-095,38.5377891,-28.6256106
30,Rua Vasco da Gama,9900-017,38.5305036,-28.6269447
26,Rua Serpa Pinto,9900-095,38.5388474,-28.6252048
4,Praça Infante Dom Henrique,9900-016,38.5322800,-28.6267393
3,Rua José Fialho,9900-079,38.5424351,-28.6221112
17,Rua Conselheiro Miguel da Silveira,9900-114,38.5396485,-28.6239251
4,Rua Almeida Garrett,9900-075,38.5416878,-28.6230468
5-A,Rua da Areinha Velha,9900-011,38.5263672,-28.6275885
31,Rua Dom Pedro IV,9900-111,38.5395803,-28.6259267
19,Rua Conselheiro Medeiros,9900-144,38.5347509,-28.6269630
22,Rua Serpa Pinto,9900-095,38.5385365,-28.6253326
9,Travessa de São Francisco,9900-124,38.5353369,-28.6276578
1RC,Rua Conde de Ávila,9900-019,38.5265380,-28.6284697
11,Largo Bispo Dom Alexandre,9900-102,38.5404645,-28.6239799
3,Largo Bispo Dom Alexandre,9900-102,38.5402482,-28.6241801
17 R/C,Rua de Serpa Pinto,9900-095,38.5383042,-28.6253261
9,Rua do Conselheiro Medeiros,9900-144,38.5336778,-28.6267411
9,Rua José Azevedo (Peter),9900-027,38.5296512,-28.6267634
22RC,Rua da Conceição,9900-080,38.5425985,-28.6237350
11A,Rua Ilha do Pico,9900-157,38.5351692,-28.6316176
1,Rua Cônsul Dabney,9900-014,38.5326248,-28.6268291
16,Praça Infante Dom Henrique,9900-016,38.5327986,-28.6267128
46,Rua de São João,9900-129,38.5393757,-28.6267712
12,Rua Conselheiro Medeiros,9900-144,38.5336018,-28.6268248
10B,Rua do Conselheiro Medeiros,9900-144,38.5333597,-28.6267403
4A,Rua do Conselheiro Medeiros,9900-144,38.5332940,-28.6267193
7,Rua Nova,9900-023,38.5264015,-28.6270764
42,Rua Vasco da Gama,9900-017,38.5311834,-28.6269043
1,Rua Advogado Graça,9900-140,38.5410852,-28.6271331
38-B 1º,Rua de São João,9900-129,38.5383706,-28.6271578
30,Rua Serpa Pinto,9900-095,38.5389879,-28.6251440
23,Rua Conselheiro Medeiros,9900-144,38.5349004,-28.6269352
31,Alameda do Barão de Roches,9900-104,38.5411404,-28.6245330
2,Rua Conselheiro Medeiros,9900-144,38.5330962,-28.6266900
11,Rua Nova,9900-023,38.5264783,-28.6270184
22,Rua da Conceição,9900-080,38.5427447,-28.6240129
9,Rua José Azevedo (Peter),9900-027,38.5297802,-28.6267857
36RC,Rua Doutor Serpa Pinto,9900-095,38.5393573,-28.6249360
4A/RC,Antiga Canada de Porto Pim,9900-038,38.5294134,-28.6329526
1,Rua Manuel Greaves,9900-064,38.5248094,-28.6309250
11,Rua Nova,9900-023,38.5265472,-28.6269846
32,Rua Vasco da Gama,9900-017,38.5306304,-28.6269206
3,Rua Conselheiro Miguel da Silveira,9900-144,38.5348471,-28.6265231
20,Rua Vasco da Gama,9900-017,38.5300567,-28.6269656
6,Rua Vasco da Gama,9900-017,38.5294789,-28.6269910
4,Rua Vasco da Gama,9900-017,38.5294114,-28.6270087
9,Avenida Gago Coutinho e Sacadura Cabral,9900-602,38.5258244,-28.6317826
31/RC,Canada das Dutras,9900-148,38.5384093,-28.6404361
7,Rua da Vista Alegre,9900-071,38.5420828,-28.6292613
24,Rua da Conceição,9900-080,38.5429207,-28.6240921
5,Rua Conselheiro Medeiros,9900-144,38.5334120,-28.6264920
13,Rua Conselheiro Medeiros,9900-144,38.5341548,-28.6266768
17,Caminho Fundo,9900-166,38.5416536,-28.6475922
15,Caminho Fundo,9900-166,38.5417446,-28.6474301
13,Caminho Fundo,9900-166,38.5419706,-28.6472135
24,Rua Capitão João Bettencourt,9900-031,38.5331770,-28.6284878
20,Rua Capitão João Bettencourt,9900-031,38.5334752,-28.6284861
22,Rua Capitão João Bettencourt,9900-031,38.5333238,-28.6284870
19A,Rua Major Horácio Saloio,9900-031,38.5331176,-28.6277257
19,Rua Major Horácio Saloio,9900-031,38.5332693,-28.6277253
14,Rua da Santa Casa,9900-031,38.5335721,-28.6282406
10,Rua da Santa Casa,9900-031,38.5335160,-28.6278934
12,Rua da Santa Casa,9900-031,38.5335440,-28.6280666
12,Rua de Serpa Pinto,9900-095,38.5380538,-28.6256480
25,Ladeira de Santo António,9900-135,38.5415214,-28.6285551
3,Bairro da Marinha,9900-014,38.5326843,-28.6323287
2,Bairro da Marinha,9900-014,38.5329720,-28.6322559
1,Bairro da Marinha,9900-014,38.5332753,-28.6321852
6,Bairro da Marinha,9900-014,38.5322831,-28.6327102
5,Bairro da Marinha,9900-014,38.5325801,-28.6327033
4,Bairro da Marinha,9900-014,38.5328770,-28.6326369
18,Rua Jaime Lopes (Feijó),9900-038,38.5324061,-28.6346207
17,Rua Jaime Lopes (Feijó),9900-038,38.5321387,-28.6345710
14,Rua Jaime Lopes (Feijó),9900-038,38.5321919,-28.6342405
5,Estrada do Observatório Meteorológico Príncipe Alberto de Mónaco,9900-014,38.5331707,-28.6326001
1,Estrada do Observatório Meteorológico Príncipe Alberto de Mónaco,9900-170,38.5295329,-28.6310139
7,Estrada Príncipe Alberto do Mónaco,9900-038,38.5287417,-28.6304368
14,Avenida Gago Coutinho e Sacadura Cabral (Parque Farias),9900-062,38.5263214,-28.6313046
12,Avenida Gago Coutinho e Sacadura Cabral,9900-062,38.5261916,-28.6314833
9,Rua Luís Moura,9900-063,38.5251361,-28.6305524
1,Loteamento da Vista Alegre,9900-093,38.5435191,-28.6311740
2,Loteamento da Vista Alegre,9900-093,38.5433227,-28.6310091
3,Loteamento da Vista Alegre,9900-093,38.5431274,-28.6310052
4,Loteamento da Vista Alegre,9900-093,38.5429480,-28.6310503
5,Loteamento da Vista Alegre,9900-093,38.5428204,-28.6305195
6,Loteamento da Vista Alegre,9900-093,38.5427224,-28.6302941
7,Loteamento da Vista Alegre,9900-093,38.5427013,-28.6300539
9,Loteamento da Vista Alegre,9900-093,38.5424464,-28.6300231
11,Loteamento da Vista Alegre,9900-093,38.5424801,-28.6304280
12,Loteamento da Vista Alegre,9900-093,38.5425104,-28.6306487
4,Rua da Vista Alegre,9900-071,38.5423499,-28.6291036
10,Loteamento da Vista Alegre,9900-093,38.5424323,-28.6302622
8,Loteamento da Vista Alegre,9900-093,38.5425298,-28.6296941
14,Loteamento da Vista Alegre,9900-093,38.5426382,-28.6311253
13,Loteamento da Vista Alegre,9900-093,38.5426398,-28.6308675
1,Estrada 5 de Outubro,9900-093,38.5422834,-28.6312092
6A,Rua da Vista Alegre,9900-071,38.5421392,-28.6310562
7,Ladeira de Santo António,9900-135,38.5417865,-28.6302321
4,Largo Padre José Silvestre Machado,9900-085,38.5435340,-28.6241920
4A,Largo Padre José Silvestre Machado,9900-085,38.5437170,-28.6242189
6,Calçada da Conceição,9900-082,38.5437596,-28.6240146
10,Calçada da Conceição,9900-082,38.5438906,-28.6240113
12,Calçada da Conceição,9900-082,38.5440007,-28.6239733
2A,Largo Padre José Silvestre Machado,9900-085,38.5438070,-28.6247748
14,Calçada da Conceição,9900-082,38.5440971,-28.6239962
16,Calçada Conceição,9900-082,38.5442194,-28.6239634
18A,Calçada da Conceição,9900-082,38.5445656,-28.6243726
2,Travessa de São Francisco,9900-124,38.5347335,-28.6279422
38B,Rua de São João,9900-129,38.5391123,-28.6269380
22,Rua Doutor Manuel Inácio de Sousa,9900-152,38.5348264,-28.6362685
20,Rua Doutor Manuel Inácio de Sousa,9900-152,38.5350082,-28.6361422
24,Rua Manuel Alves (Mestre Simão),9900-152,38.5346471,-28.6352184
1A,Rua do Moinho,9900-152,38.5341724,-28.6356038
25,Rua Cônsul Dabney,9900-014,38.5336340,-28.6327501
46,Rua Vasco da Gama,9900-017,38.5314492,-28.6270623
6,Rua Doutor Alexandre de Lacerda Goulart da Silva,9900-014,38.5313404,-28.6296723
1,Ramal do Monte da Guia,9900,38.5212229,-28.6218724
6,Rua do Mirante,9900-086,38.5430516,-28.6258852
6A,Rua do Mirante,9900-086,38.5428979,-28.6261274
9,Rua do Mirante,9900-086,38.5431825,-28.6262729
2D,Rua do Paiol,9900-146,38.5397155,-28.6343633
21,Rua Doutor Alberto Campos de Medeiros,9900-146,38.5396351,-28.6349073
23,Rua do Paiol,9900-146,38.5398519,-28.6348421
19,Rua Doutor Alberto Campos de Medeiros,9900-146,38.5394402,-28.6349946
18,Rua Rogério Gonçalves,9900-146,38.5393659,-28.6345115
14,Rua Walter Bensaúde,9900-142,38.5363071,-28.6267299
38A,Rua de São João,9900,38.5385383,-28.6272440
4,Travessa do Mirante,9900-108,38.5420188,-28.6257065
1,Rua da Vista Alegre,9900-071,38.5419965,-28.6258914
31,Alameda do Barão de Roches,9900-104,38.5410207,-28.6244372
21B,Rua Cônsul Dabney,9900-014,38.5336493,-28.6316045
21A,Rua Cônsul Dabney,9900-014,38.5336734,-28.6311990
16,Rua Manuel Alves (Mestre Simão),9900-152,38.5353139,-28.6343890
1,Bairro da Vista Alegre,9900-139,38.5422420,-28.6263389
5,Bairro da Vista Alegre,9900-139,38.5423378,-28.6264057
11,Bairro da Vista Alegre,9900-139,38.5426241,-28.6265570
13,Bairro da Vista Alegre,9900-139,38.5426719,-28.6267071
2A,Rua da Vista Alegre,9900-071,38.5422678,-28.6269993
2,Bairro da Vista Alegre,9900-139,38.5421901,-28.6266214
4,Bairro da Vista Alegre,9900-139,38.5422814,-28.6266616
6,Bairro da Vista Alegre,9900-139,38.5423436,-28.6267723
8,Bairro da Vista Alegre,9900-139,38.5424553,-28.6267741
10,Bairro da Vista Alegre,9900-139,38.5425360,-28.6268205
12,Bairro da Vista Alegre,9900-139,38.5426257,-28.6268434
14,Bairro da Vista Alegre,9900-139,38.5426735,-28.6269360
42,Ladeira de Santo António,9900-135,38.5416607,-28.6309392
10,Canada das Dutras,9900-148,38.5370923,-28.6328260
12,Canada das Dutras,9900-148,38.5371549,-28.6330593
14,Canada das Dutras,9900-148,38.5372267,-28.6332581
16,Canada das Dutras,9900-148,38.5374773,-28.6334593
1,Bairro do Loteamento da Boavista,9900-156,38.5379648,-28.6319401
1A,Bairro do Loteamento da Boavista,9900-156,38.5381309,-28.6319307
3,Bairro do Loteamento da Boavista,9900-156,38.5382239,-28.6319132
7,Bairro do Loteamento da Boavista,9900-156,38.5385736,-28.6318560
9,Bairro do Loteamento da Boavista,9900-156,38.5387602,-28.6318283
2,Bairro do Loteamento da Boavista,9900-156,38.5383609,-28.6322351
4,Bairro do Loteamento da Boavista,9900-156,38.5384523,-28.6322181
6,Bairro do Loteamento da Boavista,9900-156,38.5386139,-28.6321935
8,Bairro do Loteamento da Boavista,9900-156,38.5387781,-28.6321732
13,Rua Doutor Tomás da Rosa,9900-175,38.5386254,-28.6330163
11,Rua Doutor Tomás da Rosa,9900-175,38.5384509,-28.6331410
9,Rua Doutor Tomás da Rosa,9900-175,38.5383074,-28.6332253
7,Rua Doutor Tomás da Rosa,9900-175,38.5381444,-28.6333230
5,Rua Doutor Tomás da Rosa,9900-175,38.5379767,-28.6333880
3,Rua Doutor Tomás da Rosa,9900-175,38.5378130,-28.6334647
1,Rua Doutor Tomás da Rosa,9900-175,38.5376664,-28.6335980
18,Canada das Dutras,9900-148,38.5373677,-28.6337207
24,Canada das Dutras,9900-148,38.5376541,-28.6347036
22,Canada das Dutras,9900-148,38.5375756,-28.6344220
20,Canada das Dutras,9900-148,38.5374826,-28.6341200
4,Rua Doutor Tomás da Rosa,9900-175,38.5379024,-28.6338895
2,Rua Doutor Tomás da Rosa,9900-175,38.5377308,-28.6340548
3,Rua Rogério Gonçalves,9900-146,38.5380617,-28.6344935
5,Rua Rogério Gonçalves,9900-146,38.5382518,-28.6344318
7,Rua Rogério Gonçalves,9900-146,38.5384304,-28.6343662
8,Rua Doutor Tomás da Rosa,9900-175,38.5382812,-28.6337508
10,Rua Doutor Tomás da Rosa,9900-175,38.5384938,-28.6336498
12,Rua Doutor Tomás da Rosa,9900-175,38.5386571,-28.6335572
16,Rua Doutor Tomás da Rosa,9900-175,38.5389873,-28.6334326
14,Rua Doutor Tomás da Rosa,9900-175,38.5388192,-28.6334929
13,Rua Rogério Gonçalves,9900-146,38.5389381,-28.6341451
15,Rua Rogério Gonçalves,9900-146,38.5390959,-28.6340914
4,Rua do Paiol,9900-146,38.5399507,-28.6352745
6,Rua do Paiol,9900-146,38.5399703,-28.6354060
13,Rua Doutor Alberto Campos de Medeiros,9900-146,38.5387728,-28.6352475
5,Rua do Paiol,9900-146,38.5401866,-28.6361959
6C,Rua do Paiol,9900-146,38.5399481,-28.6362284
17,Rua Doutor Humberto dos Santos Freitas,9900-146,38.5399701,-28.6365056
15,Rua Doutor Humberto dos Santos Freitas,9900-146,38.5397304,-28.6365390
13,Rua Doutor Humberto dos Santos Freitas,9900-146,38.5394911,-28.6366371
9,Rua Doutor Humberto dos Santos Freitas,9900-146,38.5390477,-28.6366439
12,Rua Doutor Alberto Campos de Medeiros,9900-146,38.5390980,-28.6356125
10,Rua Doutor Alberto Campos de Medeiros,9900-146,38.5388894,-28.6357032
15,Rua Doutor Alberto Campos de Medeiros,9900-146,38.5390376,-28.6351058
14,Rua Rogério Gonçalves,9900-146,38.5388927,-28.6346452
16,Rua Rogério Gonçalves,9900-146,38.5391520,-28.6345518
17,Rua Doutor Alberto Campos de Medeiros,9900-146,38.5392038,-28.6350521
2,Rua do Paiol,9900-146,38.5396355,-28.6331379
2A,Rua do Paiol,9900-146,38.5396542,-28.6335398
2B,Rua do Paiol,9900-146,38.5395166,-28.6338384
3,Rua do Paiol,9900-146,38.5401863,-28.6346026
36,Ladeira de Santo António,9900-135,38.5412796,-28.6300605
1A,Rua do Paiol,9900-146,38.5397551,-28.6326344
1B,Rua do Paiol,9900-146,38.5398457,-28.6329128
1,Rua do Paiol,9900-146,38.5393618,-28.6317569
2,Rua Manuel Joaquim Dias,9900-145,38.5398660,-28.6312195
19,Rua Ilha do Pico,9900-157,38.5355572,-28.6311899
18,Rua Ilha do Pico,9900-157,38.5355000,-28.6312711
17,Rua Ilha do Pico,9900-157,38.5354537,-28.6313553
15,Rua Ilha do Pico,9900-157,38.5354148,-28.6314107
13C,Rua Ilha do Pico,9900-157,38.5353473,-28.6314869
13B,Rua Ilha do Pico,9900-157,38.5352870,-28.6316076
7,Rua Ilha do Pico,9900-157,38.5352726,-28.6319764
4A,Rua Ilha do Pico,9900-157,38.5348369,-28.6325011
4B,Rua Ilha do Pico,9900-157,38.5349132,-28.6323573
3,Rua Ilha do Pico,9900-157,38.5345102,-28.6331873
23,Rua Ilha do Pico,9900-157,38.5360693,-28.6304067
21,Rua Ilha do Pico,9900-157,38.5360840,-28.6305767
2,Canada das Dutras,9900-148,38.5362277,-28.6306654
1B,Canada das Dutras,9900-148,38.5362853,-28.6312024
1A,Canada das Dutras,9900-148,38.5363158,-28.6313801
3,Canada das Dutras,9900-148,38.5364390,-28.6321570
3A,Canada das Dutras,9900-148,38.5364581,-28.6323879
3B,Canada das Dutras,9900-148,38.5365104,-28.6325866
5,Canada das Dutras,9900-148,38.5366250,-28.6331580
4D,Rua Ilha do Pico,9900-157,38.5352459,-28.6330079
2A,Rua Ilha do Pico,9900-157,38.5344285,-28.6338132
22,Rua António Duarte,9900-157,38.5345361,-28.6341406
24,Rua António Duarte,9900-157,38.5343734,-28.6343337
2,Rua Ilha do Pico,9900-157,38.5342242,-28.6341379
1,Rua do Moinho,9900-152,38.5340896,-28.6351567
22,Rua Conselheiro Terra Pinheiro,9900-152,38.5337258,-28.6347141
25,Rua António Duarte,9900-157,38.5339520,-28.6346229
23,Rua António Duarte,9900-157,38.5341324,-28.6347539
21,Rua António Duarte,9900-157,38.5343933,-28.6348560
19,Rua António Duarte,9900-157,38.5346569,-28.6346218
28,Rua Manuel Alves (Mestre Simão),9900-152,38.5343163,-28.6354531
26,Rua Manuel Alves (Mestre Simão),9900-152,38.5344788,-28.6353368
22,Rua Manuel Alves (Mestre Simão),9900-152,38.5348151,-28.6350754
21,Rua Manuel Alves (Mestre Simão),9900-152,38.5349048,-28.6355210
23,Rua Manuel Alves (Mestre Simão),9900-152,38.5347254,-28.6356554
25,Rua Manuel Alves (Mestre Simão),9900-152,38.5345130,-28.6358337
27,Rua Manuel Alves (Mestre Simão),9900-152,38.5343469,-28.6359995
24,Rua Doutor Manuel Inácio de Sousa,9900-152,38.5346471,-28.6363923
17,Rua Doutor Manuel Inácio de Sousa,9900-152,38.5357552,-28.6361625
19,Rua Doutor Manuel Inácio de Sousa,9900-152,38.5354940,-28.6362936
21,Rua Doutor Manuel Inácio de Sousa,9900-152,38.5353519,-28.6364229
23,Rua Doutor Manuel Inácio de Sousa,9900-152,38.5351854,-28.6365109
25,Rua Doutor Manuel Inácio de Sousa,9900-152,38.5350808,-28.6370011
5,Rua Doutor Manuel Inácio de Sousa,9900-152,38.5346782,-28.6369080
11,Rua do Moinho,9900-152,38.5347577,-28.6371350
13,Rua do Moinho,9900-152,38.5359833,-28.6379381
13A,Rua do Moinho,9900-152,38.5356477,-28.6381683
12,Rua Francisca Cordélia de Sousa,9900-153,38.5358251,-28.6343695
10,Rua Francisca Cordélia de Sousa,9900-153,38.5361782,-28.6342121
4,Rua Francisca Cordélia de Sousa,9900-153,38.5366625,-28.6340034
2,Rua Francisca Cordélia de Sousa,9900-153,38.5368424,-28.6338791
2A,Rua Francisca Cordélia de Sousa,9900-153,38.5370286,-28.6338127
1,Rua Francisca Cordélia de Sousa,9900-153,38.5370225,-28.6343178
3,Rua Francisca Cordélia de Sousa,9900-153,38.5368637,-28.6343928
5,Rua Francisca Cordélia de Sousa,9900-153,38.5366969,-28.6344691
7,Rua Francisca Cordélia de Sousa,9900-153,38.5364784,-28.6345463
9,Rua Francisca Cordélia de Sousa,9900-153,38.5363134,-28.6346165
11,Rua Francisca Cordélia de Sousa,9900-153,38.5361394,-28.6347043
13,Rua Francisca Cordélia de Sousa,9900-153,38.5359801,-28.6348064
8,Rua Doutor Manuel Inácio de Sousa,9900-152,38.5366966,-28.6351731
6,Rua Doutor Manuel Inácio de Sousa,9900-152,38.5368641,-28.6350931
4,Rua Doutor Manuel Inácio de Sousa,9900-152,38.5370189,-28.6349783
2,Rua Doutor Manuel Inácio de Sousa,9900-152,38.5372014,-28.6349340
173,Agrupamento Pré-Fabricados Matriz Horta,9900-152,38.5365930,-28.6347770
10,Rua Doutor Manuel Inácio de Sousa,9900-152,38.5364845,-28.6352594
12,Rua Doutor Manuel Inácio de Sousa,9900-152,38.5363162,-28.6353422
14,Rua Doutor Manuel Inácio de Sousa,9900-152,38.5361501,-28.6354240
15,Rua Doutor Manuel Inácio de Sousa,9900-152,38.5364142,-28.6362349
13,Rua Doutor Manuel Inácio de Sousa,9900-152,38.5362056,-28.6358190
13A,Rua Doutor Manuel Inácio de Sousa,9900-152,38.5362099,-28.6360847
11,Rua Doutor Manuel Inácio de Sousa,9900-152,38.5364789,-28.6357200
9,Rua Doutor Manuel Inácio de Sousa,9900-152,38.5367424,-28.6355914
7,Rua Doutor Manuel Inácio de Sousa,9900-152,38.5368965,-28.6355254
5,Rua Doutor Manuel Inácio de Sousa,9900-152,38.5370549,-28.6354118
3,Rua Doutor Manuel Inácio de Sousa,9900-152,38.5372418,-28.6353859
1,Rua Doutor Manuel Inácio de Sousa,9900-152,38.5374160,-28.6352427
7,Canada das Dutras,9900-148,38.5374529,-28.6357028
11,Canada das Dutras,9900-148,38.5379001,-28.6366815
2,Rua Doutor Manuel Garcia Monteiro,9900-150,38.5380085,-28.6370086
10,Rua Doutor Manuel Garcia Monteiro,9900-150,38.5373622,-28.6373558
14,Rua Doutor Manuel Garcia Monteiro,9900-150,38.5371016,-28.6376123
16,Rua Doutor Manuel Garcia Monteiro,9900-150,38.5369559,-28.6376804
1,Rua Doutor Manuel Garcia Monteiro,9900-150,38.5376636,-28.6377596
3,Rua Doutor Manuel Garcia Monteiro,9900-150,38.5374949,-28.6378616
5,Rua Doutor Manuel Garcia Monteiro,9900-150,38.5373253,-28.6379420
7,Rua Doutor Manuel Garcia Monteiro,9900-150,38.5371545,-28.6380626
9,Rua Doutor Manuel Garcia Monteiro,9900-150,38.5369990,-28.6381967
10,Rua Doutor Manuel Garcia Monteiro,9900-150,38.5367217,-28.6387631
13,Canada das Dutras,9900-148,38.5380297,-28.6375701
2,Travessa das Dutras,9900-149,38.5382719,-28.6383341
17,Canada das Dutras,9900-148,38.5383656,-28.6383004
9,Travessa das Dutras,9900-149,38.5376009,-28.6389563
7,Travessa das Dutras,9900-149,38.5377718,-28.6388369
5,Travessa das Dutras,9900-149,38.5379336,-28.6387346
3,Travessa das Dutras,9900-149,38.5380720,-28.6386465
6,Travessa das Dutras,9900-149,38.5379734,-28.6385673
25,Canada das Dutras,9900-148,38.5386116,-28.6395366
29,Canada das Dutras,9900-148,38.5386958,-28.6400120
27,Canada das Dutras,9900-148,38.5382888,-28.6399070
41,Calço das Figueiras,9900-408,38.5411229,-28.6478166
31,Canada das Dutras,9900-148,38.5383264,-28.6404974
33,Canada das Dutras,9900-148,38.5388917,-28.6403935
4,Caminho do Monte Carneiro,9900-148,38.5392499,-28.6411930
12,Caminho do Monte Carneiro,9900-148,38.5394130,-28.6428939
40,Canada das Dutras,9900-148,38.5390410,-28.6399578
30,Canada das Dutras,9900-148,38.5388212,-28.6389195
11,Rua do Paiol,9900-146,38.5405784,-28.6398697
7J,Rua do Paiol,9900-146,38.5406913,-28.6393173
7I,Rua do Paiol,9900-146,38.5406620,-28.6391249
7H,Rua do Paiol,9900-146,38.5406323,-28.6389377
7G,Rua do Paiol,9900-146,38.5406096,-28.6387571
7F,Rua do Paiol,9900-146,38.5406385,-28.6385577
7A,Rua do Paiol,9900-146,38.5404144,-28.6371951
7,Rua do Paiol,9900-146,38.5403360,-28.6368888
21,Rua do Paiol,9900-146,38.5400690,-28.6386109
14,Rua do Paiol,9900-146,38.5401984,-28.6383588
12,Rua do Paiol,9900-146,38.5401963,-28.6381399
1,Rua Euclides Silveira da Rosa,9900-147,38.5399545,-28.6380186
2,Rua Euclides Silveira da Rosa,9900-147,38.5398747,-28.6376320
10,Rua do Paiol,9900-146,38.5401028,-28.6372923
8,Rua do Paiol,9900-146,38.5400984,-28.6369827
14,Rua Doutor Humberto dos Santos Freitas,9900-146,38.5397723,-28.6370134
14,Canada das Dutras,9900-148,38.5384689,-28.6377259
8B,Bairro da Boavista,9900-155,38.5368269,-28.6320273
8C,Bairro da Boavista,9900-155,38.5366675,-28.6320647
9B,Bairro da Boavista,9900-155,38.5368117,-28.6323730
9A,Bairro da Boavista,9900-155,38.5370226,-28.6323209
2,Bairro da Boavista,9900-155,38.5369405,-28.6325065
3,Bairro da Boavista,9900-155,38.5370305,-28.6324824
8A,Bairro da Boavista,9900-155,38.5370150,-28.6319729
1,Bairro da Boavista,9900-155,38.5376711,-28.6319563
20,Bairro da Boavista,9900-155,38.5372172,-28.6324812
45,Estrada Príncipe Alberto do Mónaco,9900-038,38.5307559,-28.6375491
26,Rua Manuel Greaves,9900-064,38.5248390,-28.6313601
25,Bairro da Boavista,9900-155,38.5374879,-28.6326978
5,Bairro do Loteamento da Boavista,9900-156,38.5384052,-28.6319069
14,Rua Médico Avelar,9900-117,38.5373358,-28.6282514
6,Travessa de Santo António,9900-134,38.5401991,-28.6289150
10,Travessa de Santo António,9900-134,38.5396669,-28.6292229
11A,Rua Ilha do Pico,9900-157,38.5351533,-28.6316054
16,Rua Ilha do Pico,9900-157,38.5353117,-28.6312583
12,Rua Ilha do Pico,9900-157,38.5352577,-28.6313870
5,Rua Ilha do Pico,9900-157,38.5348145,-28.6319478
7,Rua Alberto Romão Madruga da Costa,9900-015,38.5345930,-28.6320559
31,Rua Ilha do Pico,9900-157,38.5359831,-28.6298325
29,Rua Ilha do Pico,9900-157,38.5358409,-28.6301148
22,Rua Ilha do Pico,9900-157,38.5358748,-28.6304065
21A,Rua Ilha do Pico,9900-157,38.5357258,-28.6307266
17,Rua Walter Bensaúde,9900-142,38.5360868,-28.6264913
2,Rua do Commendador Ernesto Rebello,9900-112,38.5377689,-28.6265441
2,Rua de São Pedro,9900-131,38.5392875,-28.6275684
3,Largo Bispo Dom Alexandre,9900-102,38.5402201,-28.6241348
38,Rua Serpa Pinto,9900-095,38.5393649,-28.6250251
28,Rua Serpa Pinto,9900-095,38.5389394,-28.6252240
4,Rua Professor Doutor Frederico Machado,9901-862,38.5418270,-28.6272441
32,Ladeira de Santo António,9900-135,38.5409197,-28.6287869
1,Travessa de Santo António,9900-134,38.5405805,-28.6286208
3,Travessa de Santo António,9900-134,38.5406372,-28.6285850
5,Travessa de Santo António,9900-134,38.5406833,-28.6285861
7,Travessa de Santo António,9900-134,38.5407277,-28.6285556
11,Travessa de Santo António,9900-134,38.5409497,-28.6285007
26,Rua Advogado Graça,9900-140,38.5409741,-28.6281296
13,Rua do Bom Jesus,9900-074,38.5415120,-28.6226615
1,Calçada da Conceição,9900-082,38.5463144,-28.6247265
45,Calçada da Conceição,9900-082,38.5463042,-28.6243456
41,Calçada da Conceição,9900-082,38.5459787,-28.6243100
39,Calçada da Conceição,9900-082,38.5458850,-28.6243227
37,Calçada da Conceição,9900-082,38.5458241,-28.6243094
33,Calçada da Conceição,9900-082,38.5453342,-28.6241066
36,Calçada da Conceição,9900-082,38.5455425,-28.6244568
32,Calçada da Conceição,9900-082,38.5453714,-28.6243475
30,Calçada da Conceição,9900-082,38.5453094,-28.6243158
28,Calçada da Conceição,9900-082,38.5452369,-28.6242776
19A,Calçada da Conceição,9900-082,38.5446871,-28.6256121
35,Calçada da Conceição,9900-082,38.5456165,-28.6241163
26,Calçada da Conceição,9900-082,38.5451734,-28.6242483
24,Calçada da Conceição,9900-082,38.5451233,-28.6242251
22A,Calçada da Conceição,9900-082,38.5450607,-28.6242007
22,Calçada da Conceição,9900-082,38.5449439,-28.6241698
20,Calçada da Conceição,9900-082,38.5447502,-28.6241113
12,Rua Conselheiro Medeiros,9900-144,38.5336210,-28.6269031
8,Rua Conselheiro Medeiros,9900-144,38.5334231,-28.6268495
6,Rua Conselheiro Medeiros,9900-144,38.5333293,-28.6268120
4,Rua Conselheiro Medeiros,9900-144,38.5331747,-28.6267689
20,Praça Infante Dom Henrique,9900-016,38.5329797,-28.6268220
4A,Rua Conselheiro Medeiros,9900-144,38.5332598,-28.6268239
2,Rua Conselheiro Medeiros,9900-144,38.5330884,-28.6267467
18,Praça Infante Dom Henrique,9900-016,38.5328717,-28.6268093
16,Praça Infante Dom Henrique,9900-016,38.5327987,-28.6267913
14,Praça Infante Dom Henrique,9900-016,38.5327412,-28.6267383
12,Praça Infante Dom Henrique,9900-016,38.5326891,-28.6267727
1,Rua Cônsul Dabney,9900-014,38.5326585,-28.6268966
3,Rua Cônsul Dabney,9900-014,38.5327410,-28.6269707
5,Rua Cônsul Dabney,9900-014,38.5327159,-28.6270710
7,Rua Cônsul Dabney,9900-014,38.5326999,-28.6271480
9,Rua Cônsul Dabney,9900-014,38.5327396,-28.6271946
11,Rua Cônsul Dabney,9900-014,38.5327432,-28.6272422
13,Rua Cônsul Dabney,9900-014,38.5327616,-28.6272957
17,Rua Cônsul Dabney,9900-014,38.5328229,-28.6274732
6,Praça Infante Dom Henrique,9900-016,38.5323622,-28.6268406
4,Praça Infante Dom Henrique,9900-016,38.5322896,-28.6267916
2,Praça Infante Dom Henrique,9900-016,38.5322245,-28.6268629
6,Estrada Príncipe Alberto do Mónaco,9900-038,38.5296072,-28.6336827
3,Rua Antiga Canada do Porto Pim,9900-038,38.5297243,-28.6331112
7,Rua Jaime Lopes (Feijó),9900-038,38.5314697,-28.6341516
5,Rua Jaime Lopes (Feijó),9900-038,38.5312926,-28.6342651
10,Estrada do Observatório Meteorológico Príncipe Alberto de Mónaco,9900-170,38.5305066,-28.6315640
12,Estrada do Observatório Meteorológico Príncipe Alberto de Mónaco,9900-170,38.5306489,-28.6314864
10,Rua Cônsul Dabney,9900-014,38.5333817,-28.6318706
8D,Rua Cônsul Dabney,9900-014,38.5333137,-28.6315899
8C,Rua Cônsul Dabney,9900-014,38.5333342,-28.6312742
8B,Rua Cônsul Dabney,9900-014,38.5332403,-28.6310102
8A,Rua Cônsul Dabney,9900-014,38.5332210,-28.6307823
8,Rua Cônsul Dabney,9900-014,38.5330670,-28.6302213
2,Companhia Inglesa,9900-014,38.5327964,-28.6299944
4,Companhia Inglesa,9900-014,38.5324879,-28.6300069
6,Companhia Inglesa,9900-014,38.5321993,-28.6299905
5,Companhia Inglesa,9900-014,38.5322347,-28.6296168
3,Companhia Inglesa,9900-014,38.5325277,-28.6295640
1,Companhia Inglesa,9900-014,38.5328373,-28.6294921
6,Rua Cônsul Dabney,9900-014,38.5325876,-28.6286204
27,Rua Cônsul Dabney,9900-014,38.5338229,-28.6331613
1B,Rua Ilha do Pico,9900-157,38.5342459,-28.6336516
1C,Rua Ilha do Pico,9900-157,38.5342905,-28.6332766
2,Rua Alberto Romão Madruga da Costa,9900-015,38.5338420,-28.6327359
6,Rua Alberto Romão Madruga da Costa,9900-015,38.5341466,-28.6325565
4,Rua Ilha do Pico,9900-157,38.5344890,-28.6327522
5,Rua Alberto Romão Madruga da Costa,9900-015,38.5344056,-28.6320951
3,Rua Alberto Romão Madruga da Costa,9900-015,38.5339251,-28.6322318
23,Rua Cônsul Dabney,9900-014,38.5335504,-28.6320707
1,Rua Alberto Romão Madruga da Costa,9900-015,38.5336437,-28.6323175
21,Rua Cônsul Dabney,9900-014,38.5336323,-28.6318336
17A,Rua Cônsul Dabney,9900-014,38.5334992,-28.6299053
1,Rua Silvina Furtado de Sousa (Iracema),9900-014,38.5337014,-28.6273025
16,Rua Conselheiro Medeiros,9900-144,38.5337949,-28.6270558
14,Rua Conselheiro Medeiros,9900-144,38.5336886,-28.6269705
10,Rua Conselheiro Medeiros,9900-144,38.5335383,-28.6269163
9,Rua de Dentro,9900-028,38.5292225,-28.6272875
2,Rua da Ladeira,9900-029,38.5293430,-28.6273013
1,Rua Vasco da Gama,9900-017,38.5294564,-28.6268462
3,Rua Vasco da Gama,9900-017,38.5295063,-28.6268497
5,Rua Vasco da Gama,9900-017,38.5295651,-28.6268540
9,Rua Vasco da Gama,9900-017,38.5296333,-28.6268204
4,Rua da Ladeira,9900-029,38.5295622,-28.6272360
2,Rua Vasco da Gama,9900-017,38.5292941,-28.6270824
4,Rua Vasco da Gama,9900-017,38.5294158,-28.6270554
1C,Rua da Ladeira,9900-029,38.5294854,-28.6270762
3A,Rua da Ladeira,9900-029,38.5295355,-28.6270255
3B,Rua da Ladeira,9900-029,38.5296297,-28.6270327
3C,Rua da Ladeira,9900-029,38.5297398,-28.6270472
14,Rua Vasco da Gama,9900-017,38.5298193,-28.6270005
16,Rua Vasco da Gama,9900-017,38.5298827,-28.6270185
7,Rua da Ladeira,9900-029,38.5297449,-28.6272295
8,Rua da Ladeira,9900-029,38.5298030,-28.6272425
9,Rua da Ladeira,9900-029,38.5298738,-28.6272456
10,Rua da Ladeira,9900-029,38.5299398,-28.6272278
10A,Rua da Ladeira,9900-029,38.5299765,-28.6272350
11,Rua da Ladeira,9900-029,38.5300137,-28.6272455
12,Rua da Ladeira,9900-029,38.5300465,-28.6272425
14,Rua da Ladeira,9900-029,38.5301481,-28.6272188
18,Rua Vasco da Gama,9900-017,38.5299506,-28.6269750
20,Rua Vasco da Gama,9900-017,38.5300273,-28.6270252
15A,Rua da Ladeira,9900-029,38.5301616,-28.6270584
24,Rua Vasco da Gama,9900-017,38.5301963,-28.6269629
26,Rua Vasco da Gama,9900-017,38.5302946,-28.6269841
28,Rua Vasco da Gama,9900-017,38.5303870,-28.6269957
32,Rua Vasco da Gama,9900-017,38.5306292,-28.6269786
14,Rua Jaime Lopes (Feijó),9900-038,38.5329447,-28.6339523
12,Rua Jaime Lopes (Feijó),9900-038,38.5327848,-28.6341883
4,Estrada Príncipe Alberto do Mónaco,9900-038,38.5293856,-28.6327243
4A,Rua Antiga Canada do Porto Pim,9900-038,38.5294327,-28.6329433
4B,Estrada Príncipe Alberto do Mónaco,9900-038,38.5294526,-28.6331918
2,Estrada Príncipe Alberto do Mónaco,9900-038,38.5288896,-28.6319782
4,Estrada Príncipe Alberto do Mónaco,9900-038,38.5289477,-28.6321541
2,Rua Professor Manuel Ávila Coelho,9900-050,38.5289407,-28.6325005
3,Rua Professor Manuel Ávila Coelho,9900-050,38.5287881,-28.6325645
4,Rua Professor Manuel Ávila Coelho,9900-050,38.5286362,-28.6326218
6,Rua Professor Manuel Ávila Coelho,9900-050,38.5290191,-28.6327760
5,Rua Professor Manuel Ávila Coelho,9900-050,38.5287818,-28.6328692
5,Rua C,9900-046,38.5284310,-28.6333221
3,Rua C,9900-046,38.5283704,-28.6333306
1,Rua C,9900-046,38.5283180,-28.6333674
7,Rua C,9900-046,38.5284697,-28.6332391
9,Rua C,9900-046,38.5285992,-28.6332092
11,Rua C,9900-046,38.5286443,-28.6331865
13,Rua C,9900-046,38.5286988,-28.6331365
15,Rua C,9900-046,38.5287542,-28.6331003
23,Rua C,9900-046,38.5290501,-28.6330340
19,Rua C,9900-046,38.5289315,-28.6330577
21,Rua C,9900-046,38.5289937,-28.6330172
17,Rua C,9900-046,38.5288897,-28.6331386
6,Rua C,9900-046,38.5284819,-28.6335438
8,Rua C,9900-046,38.5285375,-28.6335415
4,Rua C,9900-046,38.5284156,-28.6335582
1,Rua B,9900-046,38.5285658,-28.6338150
3,Rua B,9900-046,38.5286230,-28.6338228
2,Rua C,9900-046,38.5283656,-28.6335808
2,Rua Jaime da Silva Alexandre,9900-046,38.5284618,-28.6338616
5,Rua B,9900-046,38.5287485,-28.6337952
9,Rua B,9900-046,38.5288560,-28.6337485
17,Rua B,9900-046,38.5291462,-28.6336255
7,Rua B,9900-046,38.5287897,-28.6337532
10,Rua C,9900-046,38.5286558,-28.6334679
12,Rua C,9900-046,38.5287155,-28.6334815
14,Rua C,9900-046,38.5287820,-28.6334688
16,Rua C,9900-046,38.5288308,-28.6334446
11,Rua B,9900-046,38.5289182,-28.6337475
18,Rua C,9900-046,38.5289419,-28.6333629
20,Rua C,9900-046,38.5289913,-28.6333380
22,Rua C,9900-046,38.5290454,-28.6333171
19,Rua B,9900-046,38.5292115,-28.6336152
15,Rua B,9900-046,38.5290962,-28.6336637
24,Rua C,9900-046,38.5291034,-28.6332945
13,Rua B,9900-046,38.5290320,-28.6336863
4,Rua B,9900-046,38.5286877,-28.6340898
10,Rua B,9900-046,38.5289343,-28.6340519
8,Rua B,9900-046,38.5288728,-28.6340460
6,Rua B,9900-046,38.5288046,-28.6340383
14,Rua B,9900-046,38.5291033,-28.6339663
16,Rua B,9900-046,38.5291562,-28.6339429
21,Rua A,9900-046,38.5292997,-28.6341864
23,Rua A,9900-046,38.5293474,-28.6341642
19,Rua A,9900-046,38.5292394,-28.6342253
17,Rua A,9900-046,38.5291913,-28.6342397
18,Rua A,9900-046,38.5292477,-28.6345105
22,Rua A,9900-046,38.5293578,-28.6344638
20,Rua A,9900-046,38.5292994,-28.6344792
3,Rua A,9900-046,38.5286644,-28.6344346
5,Rua A,9900-046,38.5287407,-28.6344720
1,Rua A,9900-046,38.5286133,-28.6344561
11,Rua A,9900-046,38.5289456,-28.6343046
13,Rua A,9900-046,38.5290136,-28.6342935
9,Rua A,9900-046,38.5289019,-28.6343723
10,Rua A,9900-046,38.5289534,-28.6346137
4,Rua A,9900-046,38.5287251,-28.6347370
2,Rua A,9900-046,38.5286809,-28.6347559
6,Rua Filipe de Carvalho,9900-052,38.5283394,-28.6286286
78A,Rua do Castelo,9900-069,38.5260854,-28.6291345
78,Rua do Castelo,9900-069,38.5260365,-28.6291845
66,Rua do Castelo,9900-069,38.5255320,-28.6295306
16,Rua Monsenhor António Silveira Medeiros,9900-021,38.5271126,-28.6278101
6,Rua Monsenhor António Silveira Medeiros,9900-021,38.5267398,-28.6278483
25A,Rua da Rosa,9900-024,38.5276943,-28.6259530
22,Rua da Rosa,9900-024,38.5274823,-28.6261199
16,Rua da Rosa,9900-024,38.5272005,-28.6262954
13A,Rua da Rosa,9900-024,38.5269529,-28.6264151
21,Rua Nova,9900-023,38.5271290,-28.6266789
1,Rua Silvina Furtado de Sousa (Iracema),9900-033,38.5340947,-28.6281545
16,Rua Doutor Manuel Inácio de Sousa,9900-152,38.5353752,-28.6358482
18,Rua Doutor Manuel Inácio de Sousa,9900-152,38.5351836,-28.6359990
6,Rua Francisca Cordélia de Sousa,9900-153,38.5364687,-28.6340488
8,Rua Francisca Cordélia de Sousa,9900-153,38.5363734,-28.6341031
1,Rua Rogério Gonçalves,9900-146,38.5378858,-28.6345883
9,Rua do Paiol,9900-146,38.5406694,-28.6397846
4,Rua do Mirante,9900-086,38.5429086,-28.6253644
43,Estrada Príncipe Alberto do Mónaco,9900-038,38.5300917,-28.6352512
41,Estrada Príncipe Alberto do Mónaco,9900-038,38.5300735,-28.6351800
39,Estrada Príncipe Alberto do Mónaco,9900-038,38.5300553,-28.6351091
37,Estrada Príncipe Alberto do Mónaco,9900-038,38.5300372,-28.6350380
13,Estrada Príncipe Alberto do Mónaco,9900-038,38.5298028,-28.6341195
15,Estrada Príncipe Alberto do Mónaco,9900-038,38.5298210,-28.6341907
17,Estrada Príncipe Alberto do Mónaco,9900-038,38.5298391,-28.6342619
19,Estrada Príncipe Alberto do Mónaco,9900-038,38.5298572,-28.6343328
21,Estrada Príncipe Alberto do Mónaco,9900-038,38.5298839,-28.6344367
23,Estrada Príncipe Alberto do Mónaco,9900-038,38.5299021,-28.6345079
25,Estrada Príncipe Alberto do Mónaco,9900-038,38.5299202,-28.6345790
27,Estrada Príncipe Alberto do Mónaco,9900-038,38.5299384,-28.6346500
29,Estrada Príncipe Alberto do Mónaco,9900-038,38.5299565,-28.6347210
31,Estrada Príncipe Alberto do Mónaco,9900-038,38.5299745,-28.6347922
33,Estrada Príncipe Alberto do Mónaco,9900-038,38.5299927,-28.6348632
35,Estrada Príncipe Alberto do Mónaco,9900-038,38.5300108,-28.6349342
7,Avenida Gago Coutinho e Sacadura Cabral,9900-062,38.5267867,-28.6302817
7,Avenida Gago Coutinho e Sacadura Cabral,9900-062,38.5265088,-28.6302648
25,Ladeira de Santo António,9900-135,38.5413511,-28.6285653
1,Ramal do Monte da Guia,9900,38.5211994,-28.6218532
25A,Rua da Rosa,9900-024,38.5277135,-28.6259082
14,Avenida Gago Coutinho e Sacadura Cabral,9900-062,38.5263044,-28.6312948
2,Rua de São Pedro,9900-131,38.5392311,-28.6274750
26,Rua Manuel Greaves,9900-064,38.5248287,-28.6313427
11,Rua Cônsul Dabney,9900-014,38.5328159,-28.6272369
2,Rua da Rosa,9900-024,38.5262469,-28.6266628
2,Rua da Rosa,9900-024,38.5262469,-28.6267071
16,Rua da Rosa,9900-024,38.5271794,-28.6262388
66,Rua do Castelo,9900-069,38.5255433,-28.6295772
11,Rua Ilha do Pico,9900-157,38.5352153,-28.6315039
14,Rua Ilha do Pico,9900-157,38.5352907,-28.6313261
23,Rua Dom Pedro IV,9900-111,38.5390301,-28.6259125
10,Rua de Dentro,9900-028,38.5291309,-28.6273478
20,Rua B,9900-046,38.5292927,-28.6338876
18,Rua B,9900-046,38.5292287,-28.6339094
24,Rua A,9900-046,38.5294025,-28.6344333
12,Rua B,9900-046,38.5289726,-28.6339820
2,Rua B,9900-046,38.5286196,-28.6341009
15,Rua A,9900-046,38.5290636,-28.6342701
7,Rua A,9900-046,38.5287932,-28.6344498
16,Rua A,9900-046,38.5291338,-28.6345654
14,Rua A,9900-046,38.5290740,-28.6345882
12,Rua A,9900-046,38.5290042,-28.6345917
8,Rua A,9900-046,38.5288376,-28.6346664
6,Rua A,9900-046,38.5287944,-28.6347103
11,Rua C,9900-046,38.5286417,-28.6331732
6,Rua B,9900-046,38.5288103,-28.6340956
7,Rua Ilha do Pico,9900-157,38.5358143,-28.6319833
22,Rua da Rosa,9900-024,38.5274619,-28.6260804
13A,Rua da Rosa,9900-024,38.5269383,-28.6263688
7,Bairro da Vista Alegre,9900-139,38.5423822,-28.6264022
3,Bairro da Vista Alegre,9900-139,38.5422987,-28.6264087
18,Calçada da Conceição,9900-082,38.5442702,-28.6238987
8,Calçada da Conceição,9900-082,38.5438111,-28.6240078
34,Calçada da Conceição,9900-082,38.5454212,-28.6243870
35A,Calçada da Conceição,9900-082,38.5457292,-28.6241172
22,Rua Vasco da Gama,9900-017,38.5300970,-28.6269653
9,Rua Luís Moura,9900-063,38.5251380,-28.6305259
6,Rua Vasco da Gama,9900-017,38.5294800,-28.6270088
3,Rua da Ladeira,9900-029,38.5294986,-28.6271865
5,Rua da Ladeira,9900-029,38.5296341,-28.6272455
17,Canada das Dutras,9900-148,38.5383256,-28.6381663
18,Rua Doutor Manuel Inácio de Sousa,9900-152,38.5351675,-28.6359665
1A,Rua Doutor Tomás da Rosa,9900-175,38.5374705,-28.6336496
5,Bairro da Boavista,9900-155,38.5371047,-28.6324632
10,Bairro da Boavista,9900-155,38.5372762,-28.6322158
12,Bairro da Boavista,9900-155,38.5374004,-28.6322481
11,Bairro da Boavista,9900-155,38.5373370,-28.6322505
9,Bairro da Boavista,9900-155,38.5372161,-28.6322186
19,Bairro da Boavista,9900-155,38.5372774,-28.6324785
18,Bairro da Boavista,9900-155,38.5373387,-28.6325027
17,Bairro da Boavista,9900-155,38.5373985,-28.6324470
23,Bairro da Boavista,9900-155,38.5373353,-28.6327086
22,Bairro da Boavista,9900-155,38.5372741,-28.6327097
21,Bairro da Boavista,9900-155,38.5372131,-28.6327114
24,Bairro da Boavista,9900-155,38.5373964,-28.6327070
27,Bairro da Boavista,9900-155,38.5376100,-28.6326975
26,Bairro da Boavista,9900-155,38.5375490,-28.6326950
28,Bairro da Boavista,9900-155,38.5376707,-28.6327302
14,Bairro da Boavista,9900-155,38.5376340,-28.6323054
16,Bairro da Boavista,9900-155,38.5376787,-28.6324759
15,Bairro da Boavista,9900-155,38.5376780,-28.6323903
13,Bairro da Boavista,9900-155,38.5376085,-28.6322207
6,Bairro da Boavista,9900-155,38.5373412,-28.6320312
7,Bairro da Boavista,9900-155,38.5372799,-28.6320317
5,Bairro da Boavista,9900-155,38.5374028,-28.6320301
8,Bairro da Boavista,9900-155,38.5372186,-28.6320329
2,Bairro da Boavista,9900-155,38.5376122,-28.6319695
3,Bairro da Boavista,9900-155,38.5375527,-28.6319705
4,Bairro da Boavista,9900-155,38.5374942,-28.6319729
32,Bairro da Boavista,9900-155,38.5381153,-28.6322125
31,Bairro da Boavista,9900-155,38.5381231,-28.6322946
30,Bairro da Boavista,9900-155,38.5380829,-28.6323794
29,Bairro da Boavista,9900-155,38.5380841,-28.6324634
9,Travessa de Santo António,9900-134,38.5408118,-28.6285609
34A,Ladeira de Santo António,9900-135,38.5412595,-28.6299517
13,Rua Ilha do Pico,9900-157,38.5352431,-28.6317405
13A,Rua Ilha do Pico,9900-157,38.5352611,-28.6316580
4C,Rua Ilha do Pico,9900-157,38.5349691,-28.6322766
1A,Rua Ilha do Pico,9900-157,38.5341693,-28.6337627
8,Rua Conselheiro Medeiros,9900-144,38.5334472,-28.6271474
10,Rua do Doutor Mello e Simas,9900-127,38.5355151,-28.6291145
14,Rua Walter Bensaúde,9900-142,38.5363734,-28.6270499
21B,Rua Cônsul Dabney,9900-014,38.5338070,-28.6316710
15,Rua da Conceição,9900-080,38.5419697,-28.6236974
15,Rua da Conceição,9900-080,38.5419782,-28.6237599
14,Rua do Moinho,9900-152,38.5353666,-28.6385418
3,Largo Bispo Dom Alexandre,9900-102,38.5401226,-28.6239890
14,Rua do Commendador Ernesto Rebello,9900-112,38.5386349,-28.6263764
9,Rua da Ladeira,9900-029,38.5298730,-28.6272674
5,Rua Ilha do Pico,9900-157,38.5346979,-28.6316153
38,Rua Serpa Pinto,9900-095,38.5393649,-28.6250251
21,Rua Nova,9900-023,38.5271111,-28.6265942
9,Rua de Dentro,9900-028,38.5292636,-28.6274258
10,Rua de Dentro,9900-028,38.5291768,-28.6274797
2,Rua da Ladeira,9900-029,38.5293385,-28.6273023
6,Rua Monsenhor António Silveira Medeiros,9900-021,38.5267396,-28.6278847
20,Rua Vasco da Gama,9900-017,38.5300273,-28.6270252
