House number,Street name,Postal code,Latitude,Longitude
702,Southeast 24th Avenue,33990,26.6394937,-81.9248000
1100,Cultural Park Boulevard,33990,26.6310603,-81.9606629
544,Cultural Park Boulevard,33990,26.6406379,-81.9592429
1119,Winding Pines Cir,33909,26.6713113,-81.9210889
1333,Santa Barbara Blvd,33991,26.6271706,-81.9740015
505,Southwest Pine Island Road,33991,26.6495910,-81.9846580
1631,Del Prado Boulevard,33990,26.6195256,-81.9394741
1631,Del Prado Boulevard South,33990,26.6198223,-81.9393308
1338,Del Prado Boulevard,33990,26.6269211,-81.9414089
814,Cape Coral Parkway East,33904,26.5624330,-81.9570729
1890,Northeast Pine Island Road,33909,26.6707497,-81.9332571
1616,West Cape Coral Parkway,33914,26.5616321,-82.0079378
2481,Del Prado Boulevard North,33909-4002,26.6976815,-81.9400642
2481,Del Prado Boulevard North,33909,26.6981906,-81.9405281
115,Southeast 20th Street,33990,26.6153773,-81.9730401
219,Southeast 20th Street,33990,26.6153663,-81.9683569
301,Southeast 20th Street,33990,26.6153663,-81.9678948
431,Southeast 20th Street,33990,26.6153663,-81.9647274
503,Southeast 20th Street,33990,26.6154930,-81.9635135
118,Southeast 20th Street,33990,26.6149071,-81.9729087
222,Southeast 20th Street,33990,26.6149127,-81.9682563
304,Southeast 20th Street,33990,26.6149183,-81.9677523
522,Southeast 20th Street,33990,26.6151442,-81.9630506
503,Southeast 20th Street,33990,26.6153828,-81.9642961
622,Southeast 20th Street,33990,26.6148978,-81.9600223
602,Southeast 20th Street,33990,26.6149033,-81.9612855
601,Southeast 20th Street,33990,26.6153773,-81.9613013
627,Southeast 20th Street,33990,26.6153608,-81.9597053
908,Southeast 20th Street,33990,26.6148925,-81.9557801
928,Southeast 20th Street,33990,26.6148980,-81.9545230
901,Southeast 20th Street,33990,26.6153773,-81.9561683
923,Southeast 20th Street,33990,26.6153828,-81.9547572
1002,Southeast 20th Street,33990,26.6150466,-81.9525555
1226,Southeast 20th Street,33990,26.6149088,-81.9477267
1103,Southeast 20th Street,33990,26.6153780,-81.9510763
1223,Southeast 20th Street,33990,26.6153821,-81.9478960
1303,Southeast 20th Street,33990,26.6153452,-81.9475088
1304,Southeast 20th Street,33990,26.6149187,-81.9474570
1516,Southeast 20th Street,33990,26.6149148,-81.9419760
1509,Southeast 20th Street,33990,26.6153447,-81.9423105
1622,Southeast 20th Street,33990,26.6151553,-81.9394702
1617,Southeast 20th Street,33990,26.6156358,-81.9397007
1711,Southeast 20th Street,33990,26.6157312,-81.9377856
1714,Southeast 20th Street,33990,26.6152945,-81.9376935
1807,Southeast 20th Street,33990,26.6158443,-81.9358151
1915,Southeast 20th Street,33990,26.6156995,-81.9333191
1802,Southeast 20th Street,33990,26.6154147,-81.9358390
1914,Southeast 20th Street,33990,26.6152819,-81.9336730
1840,Southeast 1st Terrace,33990,26.6497243,-81.9346884
5,Del Prado Boulevard South,33990-1721,26.6513118,-81.9405061
205,Del Prado Boulevard South,33990,26.6483296,-81.9406671
1631,Del Prado Boulevard South,33990,26.6192563,-81.9395448
728,Southwest Pine Island Road,33991,26.6439832,-81.9915001
5819,Driftwood Parkway,33904,26.5417202,-81.9503630
4304,NE 20th CT,33909,26.7376665,-81.9350485
2522,Santa Barbara Boulevard,33914,26.6049139,-81.9773790
2023,Del Prado Boulevard South,33990,26.6138902,-81.9404154
2220,Del Prado Boulevard South,33904,26.6102942,-81.9418914
2023,Del Prado Boulevard South,33990,26.6137634,-81.9404174
2015,Del Prado Boulevard South,33990,26.6143596,-81.9404878
4306,Del Prado Boulevard South,33904,26.5717058,-81.9442728
1701,Southeast 1st Terrace,33990,26.6500540,-81.9386214
1705,Southeast 1st Terrace,33990,26.6500636,-81.9383639
1706,Southeast 1st Terrace,33990,26.6496129,-81.9383639
1709,Southeast 1st Terrace,33990,26.6501115,-81.9381278
1710,Southeast 1st Terrace,33990,26.6496321,-81.9380956
1713,Southeast 1st Terrace,33990,26.6500923,-81.9378703
1714,Southeast 1st Terrace,33990,26.6496608,-81.9379025
1717,Southeast 1st Terrace,33990,26.6501019,-81.9376129
1721,Southeast 1st Terrace,33990,26.6500923,-81.9373661
1801,Southeast 1st Terrace,33990,26.6501307,-81.9371193
1800,Southeast 1st Terrace,33990,26.6496704,-81.9371086
1805,Southeast 1st Terrace,33990,26.6501211,-81.9368726
1804,Southeast 1st Terrace,33990,26.6496704,-81.9368833
1809,Southeast 1st Terrace,33990,26.6501211,-81.9366580
1813,Southeast 1st Terrace,33990,26.6501019,-81.9363898
1812,Southeast 1st Terrace,33990,26.6496704,-81.9364327
1817,Southeast 1st Terrace,33990,26.6501499,-81.9361645
1821,Southeast 1st Terrace,33990,26.6501690,-81.9359177
1820,Southeast 1st Terrace,33990,26.6496800,-81.9359499
1825,Southeast 1st Terrace,33990,26.6501307,-81.9356495
1824,Southeast 1st Terrace,33990,26.6496896,-81.9356280
1828,Southeast 1st Terrace,33990,26.6496704,-81.9353920
1829,Southeast 1st Terrace,33990,26.6501690,-81.9351774
1832,Southeast 1st Terrace,33990,26.6496800,-81.9351667
1829,Southeast 1st Terrace,33990,26.6501882,-81.9349843
1836,Southeast 1st Terrace,33990,26.6497088,-81.9349306
1837,Southeast 1st Terrace,33990,26.6501595,-81.9346839
1841,Southeast 1st Terrace,33990,26.6501786,-81.9344371
1844,Southeast 1st Terrace,33990,26.6497184,-81.9344478
1845,Southeast 1st Terrace,33990,26.6501690,-81.9341689
1850,Southeast 1st Terrace,33990,26.6497375,-81.9341474
1905,Southeast 1st Terrace,33990,26.6501786,-81.9339436
1908,Southeast 1st Terrace,33990,26.6497375,-81.9338363
1909,Southeast 1st Terrace,33990,26.6501980,-81.9336871
1912,Southeast 1st Terrace,33990,26.6497375,-81.9335895
1916,Southeast 1st Terrace,33990,26.6497567,-81.9333535
1917,Southeast 1st Terrace,33990,26.6502171,-81.9332365
1920,Southeast 1st Terrace,33990,26.6497663,-81.9331175
1921,Southeast 1st Terrace,33990,26.6502267,-81.9329897
1924,Southeast 1st Terrace,33990,26.6497855,-81.9328492
1925,Southeast 1st Terrace,33990,26.6502171,-81.9327537
1928,Southeast 1st Terrace,33990,26.6497951,-81.9325810
1929,Southeast 1st Terrace,33990,26.6502207,-81.9325177
1932,Southeast 1st Terrace,33990,26.6497951,-81.9323665
1939,Southeast 1st Terrace,33990,26.6502553,-81.9319695
1942,Southeast 1st Terrace,33990,26.6498142,-81.9319051
1944,Southeast 1st Terrace,33990,26.6498047,-81.9316154
1913,Southeast 1st Terrace,33990,26.6502075,-81.9334618
825,Del Prado Boulevard South,33990,26.6365405,-81.9403824
909,Del Prado Boulevard South,33990,26.6355719,-81.9402429
3120,Del Prado Boulevard South,33904,26.5933146,-81.9421217
521,Del Prado Boulevard South,33990,26.6424646,-81.9405758
3010,Northeast Pine Island Road,33903,26.6816428,-81.9057853
3010,Northeast Pine Island Road,33903,26.6817889,-81.9058390
5848,Cape Harbour Drive,33914,26.5439572,-82.0075044
5961,Silver King Boulevard,33914,26.5400551,-81.9987377
4643,Coronado Parkway,33904,26.5649547,-81.9574862
814,Southeast 47th Street,33904,26.5643513,-81.9570076
1715,Cape Coral Parkway West,33914,26.5633959,-82.0093449
3816,Chiquita Boulevard South,33914,26.5802334,-82.0073333
1224,Southeast 46th Lane,33904,26.5652035,-81.9489070
1507,Southeast 47th Street,33904,26.5649367,-81.9452332
4521,Del Prado Boulevard South,33904,26.5678764,-81.9434043
1604,Southeast 46th Street,33904,26.5664943,-81.9433157
3034,Del Prado Boulevard South,33904,26.5958224,-81.9420352
231,Del Prado Boulevard South,33990,26.6468132,-81.9402854
1918,Del Prado Boulevard South,33990,26.6164562,-81.9413636
2301,Del Prado Boulevard South,33990,26.6086240,-81.9389400
2301,Del Prado Boulevard South,33904,26.6086120,-81.9393370
2002,Del Prado Boulevard South,33990,26.6146947,-81.9414313
1722,Del Prado Boulevard South,33990,26.6193269,-81.9412614
1631,Del Prado Boulevard South,33990-6739,26.6183240,-81.9392726
2481,Del Prado Boulevard North,33909-4475,26.6972533,-81.9399039
720,Northeast 25th Avenue,33909,26.6665465,-81.9226267
1708,Cape Coral Parkway West,33914,26.5618621,-82.0089790
1843,Northeast Pine Island Road,33909,26.6726935,-81.9347609
1622,Northeast Pine Island Road,33909,26.6676168,-81.9406456
5212,Southwest 9th Place,33914,26.5545211,-81.9944593
1311,Cape Coral Parkway East,33904,26.5630582,-81.9483705
231,Del Prado Boulevard South,33990,26.6466072,-81.9403112
5208,Southwest 22nd Avenue,33914,26.5550154,-82.0195973
4524,Southeast 16th Place,33904,26.5676735,-81.9429698
801,Cape Coral Parkway West,33914,26.5630638,-81.9910674
13,Southeast 21st Place,33990,26.6520122,-81.9285371
513,Southwest Pine Island Road,33991,26.6499279,-81.9858062
3903,Palm Tree Boulevard,33904,26.5799022,-81.9651115
4001,Palm Tree Boulevard,33904,26.5779429,-81.9649620
4812,Cape Coral Street,33904,26.5619874,-81.9458121
4821,Coronado Parkway,33904,26.5615601,-81.9575358
79,Mid Cape Terrace,33991,26.6466227,-81.9779842
4210,Del Prado Blvd,33904,26.5733442,-81.9440655
810,Lafayette Street,33904,26.5615082,-81.9569941
706,SW 9th Ct,33991,26.6359490,-81.9965447
4802,Chester Street,33904,26.5624136,-81.9561625
810,Lafayette Street,33904,26.5615319,-81.9570248
901,Southeast 32nd Street,33904,26.5928259,-81.9561304
1039,Northeast 16th Terrace,33909,26.6846362,-81.9509429
1629,Southeast 41st Street,33904,26.5752235,-81.9415412
738,Southwest Pine Island Road,33991,26.6435557,-81.9925841
110,NE 2nd Pl,33909,26.6526822,-81.9698029
1242,Southwest Pine Island Road,33991,26.6398377,-82.0008904
1242,Southwest Pine Island Road,33991,26.6393694,-82.0021206
900,Southwest Pine Island Road,33991,26.6410795,-81.9980174
900,Southwest Pine Island Road,33991,26.6416285,-81.9967110
290,Nicholas Parkway Northwest,33991-3804,26.6483720,-81.9879770
101,Southwest Pine Island Road,33991,26.6522310,-81.9758776
837,Southeast 47th Terrace,33904,26.5638991,-81.9561985
1112,Southeast 47th Terrace,33904,26.5633924,-81.9505537
1003,Santa Barbara Boulevard,33991,26.6330217,-81.9735004
1021,Santa Barbara Boulevard,33991,26.6320141,-81.9737941
1021,Santa Barbara Boulevard,33991,26.6320167,-81.9735063
1020,Santa Barbara Boulevard,33991,26.6320843,-81.9750223
1020,Santa Barbara Boulevard,33991,26.6320897,-81.9747282
1006,Del Prado Boulevard South,33990,26.6337949,-81.9412136
1006,Del Prado Boulevard South,33990,26.6335097,-81.9412267
1423,Southeast 10th Street,33990,26.6342268,-81.9431627
1222,Southeast 47th Street,33904,26.5643360,-81.9492731
2430,Santa Barbara Boulevard,33914,26.6069037,-81.9768855
2430,Santa Barbara Boulevard,33914,26.6067660,-81.9771420
3724,Southwest 1st Place,33914,26.5677524,-81.9772557
857,Southeast 47th Street,33904,26.5647147,-81.9552049
1031,Cape Coral Parkway East,33904,26.5630106,-81.9518651
202,Southeast 24th Avenue,33904,26.6488380,-81.9237378
3807,NWE 14th St,33993,26.6779386,-82.0525624
2139,Santa Barbara Boulevard,33991,26.6116874,-81.9738432
422,SW 2nd Ter Unit 204,33991,26.6450376,-81.9848389
1037,Southwest Pine Island Road,33991,26.6441944,-81.9960597
3420,SW 3rd Terrace,33991,26.6457017,-82.0464706
1404,Del Prado Blvd S,33990,26.6262457,-81.9421620
1703,Cornwallis Pkwy,33904,26.5963078,-81.9389375
1800,Northeast Pine Island Road,33909,26.6686110,-81.9345564
1616,Cape Coral Parkway West,33914-6979,26.5609072,-82.0078910
2615,Santa Barbara Boulevard,33914,26.6031375,-81.9729980
2301,Del Prado Boulevard South,33990,26.6112050,-81.9390302
931,NE 7th St Suite B,33909,26.6652731,-81.9540377
1922,SW 20th Ave,33991,26.6165161,-82.0157724
2301,Del Prado Boulevard South,33990,26.6083185,-81.9397684
127,Cape Coral Parkway West,33914-8353,26.5633407,-81.9760150
3920,Skyline Boulevard,33914,26.5789179,-81.9919243
1800,Northwest 28th Avenue,33993,26.6846534,-82.0315224
2127,SW 52nd St,33914,26.5556612,-82.0191769
1321,Santa Barbara Boulevard,33991,26.6281295,-81.9734058
1319,Santa Barbara Boulevard,33991,26.6277458,-81.9738009
2489,Diplomat Parkway East,33909,26.6854929,-81.9198923
152,SE 13th St,33990,26.6284860,-81.9708422
2541,Del Prado North,33909,26.7001030,-81.9412505
516,Cultural Park Boulevard,33990,26.6422157,-81.9593230
528,Cultural Park Boulevard,33990,26.6413894,-81.9593632
2981,NE Pine Island Road,33909,26.6844886,-81.9098542
3300,SW 20th Avenue,33914,26.5913214,-82.0158965
1030,NW 16th Place,33991,26.6722106,-82.0100993
1044,Northeast 4th Street,33909,26.6591300,-81.9518925
2101,SW Pine Island Road,33991,26.6394588,-82.0166439
1502,Northeast 3rd Terrace,33909,26.6586645,-81.9433955
610,Del Prado Boulevard South,33990,26.6439783,-81.9431077
815,Nicholas Street East,33915,26.6306224,-81.9588517
528,Cultural Park Boulevard,33990,26.6413950,-81.9596655
170,SE 4th Terrace,33990,26.6430796,-81.9694038
2328,Hancock Bridge Parkway,33990,26.6522342,-81.9243788
2404,Santa Barbara Boulevard,33914,26.6073021,-81.9748234
2420,Santa Barbara Boulevard,33914-4485,26.6068649,-81.9758873
1619,Del Prado Boulevard South,33990,26.6206973,-81.9370206
1715,Del Prado Boulevard,33904,26.6194212,-81.9404748
1601,Del Prado Boulevard South,33990,26.6224891,-81.9403346
1616,Del Prado Boulevard South,33990,26.6218893,-81.9411882
2430,Santa Barbara Boulevard,33914,26.6069355,-81.9771571
4833,Coronado Parkway,33904-9516,26.5610829,-81.9575437
904,Cape Coral Parkway East,33904,26.5623134,-81.9536543
1427,Cape Coral Parkway East,33904,26.5629116,-81.9459539
1016,Cape Coral Parkway,33904,26.5612024,-81.9517092
1222,Cape Coral Parkway East,33904,26.5622691,-81.9492123
1734,Cape Coral Parkway East,33904,26.5623809,-81.9399709
1003,Santa Barbara Boulevard,33991,26.6329453,-81.9736331
8,Northeast Pine Island Road,33909,26.6519945,-81.9729811
41,Hancock Bridge Parkway West,33991,26.6509718,-81.9750203
47,Hancock Bridge Parkway,33991,26.6507439,-81.9755572
20,Hancock Bridge Parkway,33991,26.6501790,-81.9746915
100,Hancock Bridge Parkway West,33991-2088,26.6484004,-81.9768950
22,Pine Island Road Northeast,33909-2560,26.6530301,-81.9710132
1726,Northeast Pine Island Road,33909,26.6698152,-81.9381169
1731,Northeast Pine Island Road,33909,26.6700712,-81.9374896
1735,Northeast Pine Island Road,33909-1731,26.6712677,-81.9378670
1851,Northeast Pine Island Road,33909,26.6720399,-81.9336712
1890,Northeast Pine Island Road,33909-1733,26.6690463,-81.9328662
1651,Northeast Pine Island Road,33909,26.6706001,-81.9395913
1790,Northeast Pine Island Road,33909,26.6697448,-81.9354920
2508,Skyline Boulevard,33914,26.6046770,-81.9931122
1013,Del Prado Boulevard South,33990,26.6332850,-81.9402987
3015,Southwest Pine Island Road,33991-1703,26.6394824,-82.0376964
1419,Northeast PiNE Island Road,33909-2106,26.6668872,-81.9439351
1006,Southeast 4th Place,33990,26.6344462,-81.9684281
1009,Southeast 20th Street,33990,26.6154145,-81.9520294
1019,Southeast 20th Street,33990,26.6153856,-81.9515019
1015,Southeast 20th Street,33990,26.6153694,-81.9517499
410,Andalusia Boulevard,33909,26.6604509,-81.9578210
1717,Corbett Road,33909,26.6865087,-81.9174756
2002,Southeast 6th Avenue,33990,26.6150042,-81.9618148
2505,Santa Barbara Boulevard,33914,26.6060665,-81.9738181
301,Southwest Pine Island Road,33991,26.6525053,-81.9797963
2101,Southwest Pine Island Road,33991,26.6385274,-82.0174450
2708,Santa Barbara Boulevard,33914,26.6023534,-81.9748994
2221,Santa Barbara Boulevard,33991,26.6101758,-81.9735848
2612,Santa Barbara Boulevard,33914,26.6029340,-81.9747603
2311,Santa Barbara Boulevard,33991,26.6091124,-81.9735706
285,Southwest 25th Lane,33914,26.6066256,-81.9795300
2311,Santa Barbara Boulevard,33991,26.6088312,-81.9735927
2708,Santa Barbara Boulevard,33914,26.6021412,-81.9748942
4016,Santa Barbara Blvd,33914,26.5770291,-81.9749893
1834,Everest Parkway,33904,26.6060461,-81.9346938
1327,SE 8th Terrace,33990,26.6376397,-81.9445091
4701,SE 8th Ct,33904,26.5641954,-81.9555606
2331,Hancock Bridge Parkway,33990,26.6541181,-81.9234778
3310,SW 20th Ave,33914,26.5913023,-82.0143783
2210,South Del Prado Boulevard,33990,26.6109234,-81.9414671
1800,Northwest 28th Avenue,33993,26.6852007,-82.0309609
2614,Skyline Boulevard,33914-4648,26.6029231,-81.9914187
1801,Four Mile Cove Parkway,33990,26.6206340,-81.9286560
1759,Four Mile Cove Parkway,33990,26.6187582,-81.9352809
1761,Four Mile Cove Parkway,33990,26.6179406,-81.9344459
1765,Four Mile Cove Parkway,33990,26.6189388,-81.9344585
1755,Four Mile Cove Parkway,33990,26.6183531,-81.9361603
1771,Four Mile Cove Parkway,33990,26.6201123,-81.9350759
1773,Four Mile Cove Parkway,33990,26.6197485,-81.9358467
1775,Four Mile Cove Parkway,33990,26.6202609,-81.9358314
1763,Four Mile Cove Parkway,33990,26.6184332,-81.9344311
1757,Four Mile Cove Parkway,33990,26.6188868,-81.9361155
1753,Four Mile Cove Parkway,33990,26.6178413,-81.9361794
1769,Four Mile Cove Parkway,33990,26.6197895,-81.9343619
1767,Four Mile Cove Parkway,33990,26.6194096,-81.9347248
1797,Four Mile Cove Parkway,33990,26.6203618,-81.9295832
1793,Four Mile Cove Parkway,33990,26.6208152,-81.9307326
1795,Four Mile Cove Parkway,33990,26.6203624,-81.9305547
1799,Four Mile Cove Parkway,33990,26.6208150,-81.9296044
1791,Four Mile Cove Parkway,33990,26.6203598,-81.9316998
1783,Four Mile Cove Parkway,33990,26.6202533,-81.9338079
1789,Four Mile Cove Parkway,33990,26.6208036,-81.9322475
1787,Four Mile Cove Parkway,33990,26.6203172,-81.9327537
1785,Four Mile Cove Parkway,33990,26.6207403,-81.9334097
1781,Four Mile Cove Parkway,33990,26.6206775,-81.9344517
4525,Southwest 1st Place,33914,26.5672058,-81.9767431
762,Southwest Pine Island Road,33991,26.6430321,-81.9939168
1719,Cape Coral Parkway East,33904,26.5630282,-81.9409042
1227,Miramar Street,33904,26.5610405,-81.9488051
1751,Four Mile Cove Parkway,33990,26.6182259,-81.9352371
1806,Del Prado Boulevard South,33990,26.6190545,-81.9412871
1661,Crooked Arrow Court,33990,26.6184674,-81.9385094
2127,Southeast 14th Street,33990,26.6275062,-81.9281883
4215,Southeast 20th Place,33904,26.5733340,-81.9314399
4140,Coronado Parkway,33904,26.5750582,-81.9473971
4818,Tarpon Court,33904,26.5613818,-81.9625389
5505,Rose Garden Road,33914,26.5465387,-81.9816612
1538,Cape Coral Parkway East,33904,26.5621691,-81.9447336
3444,Ceitus Parkway,33991,26.6423725,-82.0464934
531,Southwest Pine Island RD,33993,26.6497970,-81.9875483
531,SW Pine Islane RD,33993,26.6499312,-81.9872223
1607,Cape Coral Parkway East,33904,26.5630379,-81.9431670
636,Del Prado Boulevard South,33990,26.6395173,-81.9432762
1910,Pine Island Road NE,33909,26.6711576,-81.9324105
3753,Southwest Santa Barbara Place,33914,26.5822175,-81.9749029
1010,Northeast 8th Street,33909,26.6664927,-81.9528073
4524,Southeast 16th Place,33904,26.5676609,-81.9429799
5404,Southwest 6th Avenue,33914,26.5513092,-81.9870117
5401,Southwest 6th Avenue,33914,26.5513792,-81.9867484
5403,Southwest 6th Avenue,33914,26.5513174,-81.9864587
5408,Southwest 6th Avenue,33914,26.5510401,-81.9870572
5407,Southwest 6th Avenue,33914,26.5510196,-81.9864491
5411,Southwest 6th Avenue,33914,26.5507951,-81.9864735
5412,Southwest 6th Avenue,33914,26.5507959,-81.9870456
5416,Southwest 6th Avenue,33914,26.5505684,-81.9870210
5420,Southwest 6th Avenue,33914,26.5503673,-81.9870157
5415,Southwest 6th Avenue,33914,26.5505853,-81.9864467
5423,Southwest 6th Avenue,33914,26.5501281,-81.9864556
5427,Southwest 6th Avenue,33914,26.5498931,-81.9864626
5431,Southwest 6th Avenue,33914,26.5496606,-81.9864539
5430,Southwest 6th Avenue,33914,26.5498008,-81.9870047
601,El Dorado Parkway West,33914,26.5494850,-81.9870493
533,El Dorado Parkway West,33914,26.5494271,-81.9864347
607,El Dorado Parkway West,33914,26.5494721,-81.9873929
613,El Dorado Parkway West,33914,26.5494811,-81.9877238
621,El Dorado Parkway West,33914,26.5494998,-81.9882176
703,El Dorado Parkway West,33914,26.5494884,-81.9887723
709,El Dorado Parkway West,33914,26.5494969,-81.9891353
5501,Southwest 6th Avenue,33914,26.5488993,-81.9864256
520,El Dorado Parkway West,33914,26.5488405,-81.9857949
5504,Southwest 5th Avenue,33914,26.5488275,-81.9854104
5508,Southwest 5th Avenue,33914,26.5485792,-81.9853943
5512,Southwest 5th Avenue,33914,26.5482900,-81.9854064
5602,Southwest 5th Avenue,33914,26.5480369,-81.9854628
5606,Southwest 5th Avenue,33914,26.5478219,-81.9855814
5610,Southwest 5th Avenue,33914,26.5476528,-81.9857055
5614,Southwest 5th Avenue,33914,26.5474533,-81.9858595
5509,Southwest 6th Avenue,33914,26.5481212,-81.9865736
602,Southwest 56th Street,33914,26.5480163,-81.9868194
604,Southwest 56th Street,33914,26.5479927,-81.9870930
608,Southwest 56th Street,33914,26.5479988,-81.9873463
612,Southwest 56th Street,33914,26.5479927,-81.9875842
616,Southwest 56th Street,33914,26.5479928,-81.9878331
620,Southwest 56th Street,33914,26.5479973,-81.9880773
624,Southwest 56th Street,33914,26.5480037,-81.9883245
628,Southwest 56th Street,33914,26.5480238,-81.9885630
702,Southwest 56th Street,33914,26.5480154,-81.9888106
706,Southwest 56th Street,33914,26.5480267,-81.9890568
710,Southwest 56th Street,33914,26.5480306,-81.9892981
5618,Southwest 5th Avenue,33914,26.5472732,-81.9859909
5622,Southwest 5th Avenue,33914,26.5471400,-81.9861449
527,Southwest 57th Street,33914,26.5470232,-81.9863663
531,Southwest 57th Street,33914,26.5470423,-81.9866327
603,Southwest 57th Street,33914,26.5470083,-81.9868779
607,Southwest 57th Street,33914,26.5470123,-81.9871282
611,Southwest 57th Street,33914,26.5470178,-81.9873928
615,Southwest 57th Street,33914,26.5470193,-81.9876467
619,Southwest 57th Street,33914,26.5470360,-81.9879131
623,Southwest 57th Street,33914,26.5470376,-81.9881785
627,Southwest 57th Street,33914,26.5470400,-81.9884210
631,Southwest 57th Street,33914,26.5470400,-81.9887068
5786,Southwest 57th Street,33914,26.5469387,-81.9889687
5788,Southwest 6th Court,33914,26.5467035,-81.9891394
5793,Southwest 7th Court,33914,26.5467241,-81.9899516
5791,Southwest 9th Court,33914,26.5469583,-81.9901282
5787,Southwest 9th Court,33914,26.5470685,-81.9904268
5783,Southwest 9th Court,33914,26.5470495,-81.9907099
5779,Southwest 9th Court,33914,26.5470423,-81.9909576
5775,Southwest 9th Court,33914,26.5469917,-81.9912063
5771,Southwest 9th Court,33914,26.5469228,-81.9914293
714,Southwest 56th Street,33914,26.5480261,-81.9895466
720,Southwest 56th Street,33914,26.5480479,-81.9898505
728,Southwest 56th Street,33914,26.5480243,-81.9904073
802,Southwest 56th Street,33914,26.5480290,-81.9906601
806,Southwest 56th Street,33914,26.5480316,-81.9909234
810,Southwest 56th Street,33914,26.5480228,-81.9911726
818,Southwest 56th Street,33914,26.5480164,-81.9916640
715,El Dorado Parkway West,33914,26.5495142,-81.9894957
719,El Dorado Parkway West,33914,26.5495030,-81.9898094
5429,Skyline Boulevard,33914,26.5497036,-81.9901581
5425,Skyline Boulevard,33914,26.5499849,-81.9901372
5419,Skyline Boulevard,33914,26.5503352,-81.9901463
5413,Skyline Boulevard,33914,26.5505974,-81.9901533
519,El Dorado Parkway West,33914,26.5494626,-81.9856133
515,El Dorado Parkway West,33914,26.5494521,-81.9853715
511,El Dorado Parkway West,33914,26.5494412,-81.9851231
507,El Dorado Parkway West,33914,26.5494530,-81.9848817
715,Cape Coral Parkway West,33914,26.5631110,-81.9894937
627,Cape Coral Parkway West,33914,26.5634045,-81.9885000
833,Cape Coral Parkway West,33914,26.5630649,-81.9928724
703,Cape Coral Parkway West,33914,26.5633698,-81.9888573
616,Southwest 47th Terrace,33914,26.5633945,-81.9876821
2600,Southeast 26th Place,33904,26.6068684,-81.9135306
1030,Northwest 16th Place,33991,26.6730028,-82.0117648
1030,Northwest 16th Place,33991,26.6713607,-82.0098077
1030,Northwest 16th Place,33991,26.6721689,-82.0090876
230,Burnt Store Road,33991,26.6469999,-82.0419166
230,Burnt Store Road,33991,26.6473382,-82.0417930
1044,Northeast 4th Street,33909,26.6589711,-81.9515376
1044,Northeast 4th Street,33909,26.6587866,-81.9517906
1502,Northeast 3rd Terrace,33909,26.6589929,-81.9439086
1502,Northeast 3rd Terrace,33909,26.6590135,-81.9424674
610,Del Prado Boulevard South,33990,26.6445390,-81.9416127
315,Southwest 2nd Avenue,33991,26.6441776,-81.9773509
315,Southwest 2nd Avenue,33991,26.6445099,-81.9766808
315,Southwest 2nd Avenue,33991,26.6439825,-81.9772401
400,Santa Barbara Boulevard,33991,26.6416231,-81.9779622
400,Santa Barbara Boulevard,33991,26.6404349,-81.9776994
1410,Southwest 6th Place,33991,26.6263360,-81.9890070
1410,Sports Boulevard,33991,26.6277095,-82.0214985
2602,South Chiquita Boulevard,33914,26.6030840,-82.0082820
301,Southwest 30th Terrace,33914,26.5965320,-81.9810005
801,Southeast 27th Street,33904,26.6036579,-81.9584234
4140,Coronado Parkway,33904,26.5749953,-81.9468629
4533,Coronado Parkway,33904,26.5674902,-81.9571953
4533,Coronado Parkway,33904,26.5671416,-81.9573544
4533,Coronado Parkway,33904,26.5675134,-81.9569425
4818,Tarpon Court,33904,26.5611123,-81.9621578
5819,Driftwood Parkway,33904,26.5433399,-81.9514384
4107,Pelican Boulevard,33914,26.5760365,-81.9819888
4128,Pelican Boulevard,33914,26.5747185,-81.9837209
1718,Southwest 52nd Terrace,33914,26.5531720,-82.0099625
2817,Southwest 3rd Lane,33991,26.6464358,-82.0309054
2051,Cape Coral Parkway E,33904,26.5627392,-81.9346932
251,Cape Coral Parkway E,33904,26.5630641,-81.9363822
2310,Southeast 3rd Street,33990,26.6464588,-81.9257967
929,Southeast 46th Lane,33904,26.5658102,-81.9527064
180,Hunter Boulevard,33909,26.6543038,-81.9255972
2307,Hancock Bridge Parkway,33909,26.6531007,-81.9258478
2714,Southeast 8th Place,33904,26.6018159,-81.9577290
133,Southeast 44th Terrace,33904,26.5695711,-81.9719037
2204,Southeast 1st Street,33990,26.6503373,-81.9278836
4610,Coronado Parkway,33904,26.5665969,-81.9584620
1627,Everest Parkway,33904,26.6068906,-81.9390974
1297,Parkview Court,33903,26.6730429,-81.9000930
5505,Rose Garden Road,33914,26.5481900,-81.9812757
3336,Del Prado Boulevard South,33904,26.5889343,-81.9422758
2525,Skyline Boulevard,33914-7713,26.6048737,-81.9904778
2925,Southwest Pine Island Road,33991,26.6381141,-82.0363277
81,Hancock Bridge Parkway West,33991,26.6503712,-81.9766135
11,Hancock Bridge Parkway West,33990,26.6511709,-81.9746483
3831,Southeast 4th Avenue,33904,26.5804218,-81.9662026
3901,Palm Tree Boulevard,33904,26.5794753,-81.9633056
3901,Palm Tree Boulevard,33904,26.5796398,-81.9635376
4001,Palm Tree Boulevard,33904,26.5779165,-81.9649677
4001,Palm Tree Boulevard,33904,26.5772693,-81.9646272
312,Southeast 24th Avenue,33990,26.6463495,-81.9245053
406,Southeast 24th Avenue,33990,26.6451225,-81.9247543
1604,West Cape Coral Parkway,33914,26.5621833,-82.0070820
4706,South Chiquita Boulevard,33914,26.5640520,-82.0088981
1630,Southwest Pine Island Road,33991,26.6360148,-82.0084868
2020,Northeast Pine Island Road,33909,26.6719309,-81.9285898
309,Southwest Pine Island Road,33991,26.6503131,-81.9803249
1628,Southeast 28th Street,33904,26.6002433,-81.9390858
424,Southwest 33rd Street,33914,26.5906147,-81.9841834
3305,Grant Cove Circle,33991,26.6361540,-82.0311201
4722,Southeast 17th Avenue,33904,26.5634126,-81.9420521
302,NE 18TH AVE,33909,26.6580815,-81.9372098
5951,Silver King Blvd,33914,26.5397561,-81.9988541
915,Cape Coral Parkway East,33904,26.5628883,-81.9532315
1415,Southeast 47th Terrace,33904,26.5640333,-81.9464207
1415,SE 47th Terrace,33904,26.5640331,-81.9464575
1481,Southwest Pine Island Road,33991,26.6403444,-82.0040384
1242,Southwest 4th Street,33991,26.6388076,-82.0017174
1011,Southwest Pine Island Road,33991,26.6443262,-81.9939417
58,Nicholas Parkway,33991,26.6459757,-81.9868860
311,Southwest Pine Island Road,33991,26.6500895,-81.9808311
307,Southwest Pine Island Road,33991,26.6505246,-81.9796557
305,Southwest Pine Island Road,33991,26.6507981,-81.9787415
136,Hancock Bridge Parkway,33990,26.6512793,-81.9719648
1701,Old Pondella Road,33909,26.6668113,-81.9383402
3422,Del Prado Boulevard South,33904,26.5877871,-81.9422570
4820,Candia Street,33904,26.5614571,-81.9543785
250,Santa Barbara Boulevard,33993,26.6565897,-81.9761546
519,North Chiquita Boulevard,33993,26.6619838,-82.0062997
425,Chiquita Boulevard North,33993,26.6614444,-82.0056043
3519,Oasis Boulevard,33914,26.5866752,-82.0227007
2728,Southwest 2nd Lane,33991,26.6481644,-82.0315944
2731,Southwest 2nd Lane,33991,26.6486588,-82.0314642
2733,Southwest 3rd Street,33991,26.6478008,-82.0318424
1810,Northeast Pine Island Road,33909,26.6686136,-81.9340000
1830,Northeast Pine Island Road,33909,26.6702891,-81.9343537
3601,Northwest 1st Terrace,33993,26.6549588,-82.0483330
3613,Northwest 1st Terrace,33993,26.6549399,-82.0491345
3617,Northwest 1st Terrace,33993,26.6549289,-82.0493731
3621,Northwest 1st Terrace,33993,26.6549216,-82.0496191
3625,Northwest 1st Terrace,33993,26.6549047,-82.0498642
3612,Northwest 1st Terrace,33993,26.6544528,-82.0491260
3616,Northwest 1st Terrace,33993,26.6544424,-82.0493781
3620,Northwest 1st Terrace,33993,26.6544607,-82.0496238
917,Northeast 14th Terrace,33909,26.6792056,-81.9536580
1300,Ceitus Terrace,33991,26.6418998,-82.0008966
1401,Southwest Pine Island Road,33991,26.6415351,-82.0022074
1703,Southwest 12th Terrace,33991,26.6301071,-82.0096811
1609,Southwest 14th Terrace,33991,26.6258573,-82.0079824
1518,South Chiquita Boulevard,33991,26.6232895,-82.0075221
1526,South Chiquita Boulevard,33991,26.6233050,-82.0078283
339,Southwest 24th Place,33991,26.6434208,-82.0250499
201,Southwest 24th Place,33991,26.6482073,-82.0243864
2243,Southwest 4th Street,33991,26.6455076,-82.0212736
2721,Southwest 3rd Street,33991,26.6477624,-82.0311053
2704,Southwest 2nd Lane,33991,26.6481784,-82.0301208
231,Southwest 24th Place,33991,26.6465374,-82.0244672
209,Southwest 25th Avenue,33991,26.6477544,-82.0253527
342,Southwest 28th Place,33991,26.6449218,-82.0338866
346,Southwest 25th Avenue,33991,26.6437157,-82.0268396
2050,Southwest Pine Island Road,33991,26.6365142,-82.0158454
1100,Cultural Park Boulevard,33990,26.6307545,-81.9608895
1030,Southeast 9th Avenue,33990,26.6329323,-81.9572513
2934,Miracle Parkway,33914,26.6065389,-82.0370124
2930,Miracle Parkway,33914,26.6065315,-82.0367667
2922,Miracle Parkway,33914,26.6065398,-82.0362797
2918,Miracle Parkway,33914,26.6065420,-82.0360418
2914,Miracle Parkway,33914,26.6065412,-82.0357926
2902,Miracle Parkway,33914,26.6065555,-82.0350586
2826,Miracle Parkway,33914,26.6065457,-82.0343213
2814,Miracle Parkway,33914,26.6065322,-82.0335802
3310,Del Prado Boulevard South,33904,26.5903167,-81.9421559
4920,South Chiquita Boulevard,33914,26.5593853,-82.0071592
5420,South Chiquita Boulevard,33914,26.5499240,-82.0071817
5368,Bayshore Avenue,33991,26.5472075,-81.9710883
826,Cape Coral Parkway East,33904,26.5623618,-81.9567028
619,Southeast 47th Terrace,33904,26.5639855,-81.9604574
3003,Southwest 9th Avenue,33914,26.5963753,-81.9935982
3002,Southwest 9th Avenue,33914,26.5963188,-81.9941532
3519,Country Club Boulevard,33904,26.5862899,-81.9560934
908,Southeast 35th Terrace,33904,26.5863187,-81.9557760
928,Southeast 35th Terrace,33904,26.5863422,-81.9545357
909,Southeast 35th Terrace,33904,26.5867890,-81.9556520
905,Southeast 35th Terrace,33904,26.5867817,-81.9558840
227 se,Southeast 29th Street,33904,26.5987213,-81.9695720
5451,Bayshore Avenue,33991,26.5465452,-81.9705479
5407,Bayshore Avenue,33991,26.5467784,-81.9705370
252,Bayshore Drive,33904,26.5453495,-81.9722591
242,Bayshore Drive,33904,26.5450205,-81.9728743
232,Bayshore Drive,33904,26.5445982,-81.9734851
224,Bayshore Drive,33904,26.5444072,-81.9739785
222,Bayshore Drive,33904,26.5443742,-81.9742301
5406,Bayshore Avenue,33991,26.5467687,-81.9710482
5410,Bayshore Avenue,33991,26.5465375,-81.9710266
253,Bayshore Drive,33904,26.5459163,-81.9721153
249,Bayshore Drive,33904,26.5457811,-81.9723518
245,Bayshore Drive,33904,26.5456931,-81.9726007
241,Bayshore Drive,33904,26.5456163,-81.9728451
237,Bayshore Drive,33904,26.5454562,-81.9730914
233,Bayshore Drive,33904,26.5453317,-81.9733421
1015,Cultural Park Boulevard,33990,26.6327429,-81.9584541
2281,Cape Heather Circle,33991,26.6122755,-82.0157675
2285,Cape Heather Circle,33991,26.6124265,-82.0157495
2289,Cape Heather Circle,33991,26.6125688,-82.0157025
2293,Cape Heather Circle,33991,26.6127241,-82.0156740
2297,Cape Heather Circle,33991,26.6128666,-82.0156353
2301,Cape Heather Circle,33991,26.6130235,-82.0156140
2305,Cape Heather Circle,33991,26.6131612,-82.0155678
1209,Del Prado Boulevard South,33990,26.6300849,-81.9402371
811,Del Prado Boulevard South,33990,26.6373089,-81.9404835
2526,Skyline Boulevard,33914,26.6050329,-81.9913586
3608,Southwest 4th Lane,33991,26.6436530,-82.0490937
3612,Southwest 4th Lane,33991,26.6436099,-82.0493388
3616,Southwest 4th Lane,33991,26.6436161,-82.0495719
3702,Southwest 4th Lane,33991,26.6436469,-82.0500786
3504,Southwest 6th Street,33991,26.6410769,-82.0468877
3714,Southwest 4th Lane,33991,26.6436485,-82.0508100
3607,Southwest 4th Lane,33991,26.6441280,-82.0490826
3619,Southwest 4th Lane,33991,26.6441347,-82.0498207
3718,Southwest 4th Lane,33991,26.6436465,-82.0510575
517,Southwest 23rd Street,33991,26.6094747,-81.9864191
527,Southwest 23rd Street,33991,26.6094466,-81.9870416
607,Southwest 23rd Street,33991,26.6094544,-81.9872864
611,Southwest 23rd Street,33991,26.6094540,-81.9875315
615,Southwest 23rd Street,33991,26.6094553,-81.9877752
623,Southwest 23rd Street,33991,26.6094666,-81.9882692
631,Southwest 23rd Street,33991,26.6094465,-81.9887802
627,Southwest 23rd Street,33991,26.6094243,-81.9885149
705,Southwest 23rd Street,33991,26.6094401,-81.9890413
709,Southwest 23rd Street,33991,26.6094344,-81.9893005
713,Southwest 23rd Street,33991,26.6094395,-81.9895214
2315,Southwest 19th Street,33991,26.6175503,-82.0212353
2314,Southwest 19th Street,33991,26.6170894,-82.0212920
2322,Southwest 19th Street,33991,26.6170867,-82.0217870
2318,Southwest 19th Street,33991,26.6170521,-82.0215411
2310,Southwest 19th Street,33991,26.6170608,-82.0210448
2306,Southwest 19th Street,33991,26.6170870,-82.0207792
2220,Southwest 19th Street,33991,26.6170723,-82.0201263
1824,Southwest 19th Street,33991,26.6175833,-82.0200028
2303,Southwest 19th Street,33991,26.6175614,-82.0204997
2307,Southwest 19th Street,33991,26.6175608,-82.0207324
2311,Southwest 19th Street,33991,26.6175594,-82.0209859
2321,Southwest 19th Street,33991,26.6175591,-82.0215421
2325,Southwest 19th Street,33991,26.6175622,-82.0218542
3908,Southwest 2nd Street,33991,26.6487863,-82.0552727
3904,Southwest 2nd Street,33991,26.6487854,-82.0549915
151,Southwest 39th Place,33991,26.6489420,-82.0547284
142,Southwest 39th Place,33991,26.6494528,-82.0552305
146,Southwest 39th Place,33991,26.6492267,-82.0552420
2910,Southwest 30th Street,33994,26.5970118,-82.0326380
2922,Surfside Boulevard,33994,26.5973168,-82.0339444
2927,Surfside Boulevard,33914,26.5976630,-82.0346891
2920,Southwest 29th Court,33914,26.5978809,-82.0348264
3015,Southwest 29th Court,33914,26.5978761,-82.0342025
3011,Southwest 29th Court,33914,26.5980877,-82.0342893
3007,Southwest 29th Court,33914,26.5983029,-82.0344415
3003,Southwest 29th Court,33914,26.5984932,-82.0345445
2913,Southwest 29th Court,33914,26.5986889,-82.0346475
2909,Southwest 29th Court,33914,26.5988749,-82.0348065
2905,Southwest 29th Court,33914,26.5990726,-82.0348915
2901,Southwest 29th Court,33914,26.5992753,-82.0350180
2807,Southwest 29th Court,33914,26.6002954,-82.0356297
2819,Southwest 29th Court,33914,26.5996681,-82.0352595
2815,Southwest 29th Court,33914,26.5998401,-82.0353658
2907,Southwest 29th Terrace,33914,26.5992660,-82.0359940
2824,Southwest 29th Terrace,33914,26.5994076,-82.0357618
2816,Southwest 29th Court,33914,26.5996525,-82.0358715
2812,Southwest 29th Court,33914,26.5998325,-82.0359773
2806,Southwest 29th Court,33914,26.6000193,-82.0360915
2801,Southwest 29th Court,33914,26.6005834,-82.0358041
2711,Southwest 29th Court,33914,26.6013116,-82.0362682
2703,Southwest 29th Court,33914,26.6016497,-82.0367346
2906,Southwest 29th Terrace,33914,26.5988144,-82.0356365
2900,Southwest 29th Terrace,33914,26.5989510,-82.0354184
2909,Southwest 29th Lane,33914,26.5985868,-82.0354888
2905,Southwest 29th Lane,33914,26.5986784,-82.0352271
2904,Southwest 29th Lane,33914,26.5981071,-82.0352459
4030,Southwest 30th Avenue,33914,26.5756885,-82.0372451
4104,Southwest 30th Avenue,33914,26.5752575,-82.0373091
1602,Southwest 13th Street,33991,26.6279330,-82.0074941
1601,Southwest 13th Street,33991,26.6284062,-82.0074874
1601,Southwest 12th Lane,33991,26.6292661,-82.0074872
1602,Southwest 12th Terrace,33991,26.6296764,-82.0074779
1506,South Chiquita Boulevard,33991,26.6244776,-82.0076942
1605,Southwest 15th Street,33991,26.6250096,-82.0077382
1606,Southwest 14th Terrace,33991,26.6254128,-82.0077385
1610,Southwest 14th Terrace,33991,26.6253930,-82.0079835
1618,Southwest 14th Terrace,33991,26.6253893,-82.0084764
1628,Southwest 14th Terrace,33991,26.6253842,-82.0091118
1617,Southwest 15th Street,33991,26.6250075,-82.0085162
1502,Southwest 16th Court,33991,26.6246392,-82.0089004
1427,Southwest 17th Avenue,33991,26.6248582,-82.0092968
1431,Southwest 17th Avenue,33991,26.6246365,-82.0093212
1501,Southwest 17th Avenue,33991,26.6244097,-82.0092969
1505,Southwest 17th Avenue,33991,26.6241698,-82.0092878
1506,Southwest 16th Court,33991,26.6244098,-82.0088785
1510,Southwest 16th Court,33991,26.6241723,-82.0089147
1514,Southwest 16th Court,33991,26.6239460,-82.0089155
1518,Southwest 16th Court,33991,26.6237069,-82.0088837
1522,Southwest 16th Court,33991,26.6234717,-82.0088377
1517,Southwest 17th Avenue,33991,26.6234842,-82.0093076
1526,Southwest 16th Court,33991,26.6232381,-82.0088820
1521,Southwest 17th Avenue,33991,26.6232384,-82.0092929
1530,Southwest 16th Court,33991,26.6230172,-82.0088593
1514,Southwest 17th Place,33991,26.6237062,-82.0098099
1420,Southwest 17th Place,33991,26.6252980,-82.0098264
1408,Southwest 17th Place,33991,26.6259505,-82.0098254
1631,Southwest 14th Terrace,33991,26.6258635,-82.0093456
1627,Southwest 14th Terrace,33991,26.6258772,-82.0090263
1621,Southwest 14th Terrace,33991,26.6258525,-82.0087220
1617,Southwest 14th Terrace,33991,26.6258331,-82.0084751
1605,Southwest 14th Terrace,33991,26.6258538,-82.0077381
1606,Southwest 14th Street,33991,26.6262494,-82.0077390
1324,Southwest 17th Place,33991,26.6268374,-82.0098254
1632,Southwest 13th Terrace,33991,26.6270939,-82.0093470
1310,Southwest 17th Place,33991,26.6277151,-82.0098301
1631,Southwest 13th Terrace,33991,26.6275713,-82.0093559
1627,Southwest 13th Terrace,33991,26.6275572,-82.0091022
1623,Southwest 13th Terrace,33991,26.6275575,-82.0088571
1316,Southwest 17th Place,33991,26.6272760,-82.0098694
1312,Southwest 17th Place,33991,26.6274941,-82.0098300
1712,Southwest 13th Street,33991,26.6279360,-82.0101806
1604,Southwest 13th Terrace,33991,26.6270885,-82.0075380
1608,Southwest 13th Terrace,33991,26.6270740,-82.0078612
1616,Southwest 13th Terrace,33991,26.6270612,-82.0083488
1620,Southwest 13th Terrace,33991,26.6270759,-82.0085963
1624,Southwest 13th Terrace,33991,26.6270928,-82.0088413
1619,Southwest 13th Terrace,33991,26.6275615,-82.0086123
1615,Southwest 13th Terrace,33991,26.6275954,-82.0083661
1611,Southwest 13th Terrace,33991,26.6275916,-82.0081216
1607,Southwest 13th Terrace,33991,26.6275667,-82.0078065
1612,Southwest 13th Street,33991,26.6279479,-82.0081275
1616,Southwest 13th Street,33991,26.6279535,-82.0083661
1620,Southwest 13th Street,33991,26.6279452,-82.0086089
1624,Southwest 13th Street,33991,26.6279537,-82.0088567
1628,Southwest 13th Street,33991,26.6279205,-82.0091018
1632,Southwest 13th Street,33991,26.6279394,-82.0093545
1631,Southwest 13th Street,33991,26.6284446,-82.0093189
1627,Southwest 13th Street,33991,26.6284331,-82.0090716
1713,Southwest 13th Street,33991,26.6284269,-82.0102995
1709,Southwest 13th Street,33991,26.6284185,-82.0100538
1717,Southwest 13th Street,33991,26.6284469,-82.0105450
1718,Southwest 12th Lane,33991,26.6287789,-82.0105504
1710,Southwest 12th Lane,33991,26.6288024,-82.0100547
1706,Southwest 12th Lane,33991,26.6288010,-82.0098092
1702,Southwest 12th Lane,33991,26.6287964,-82.0095626
1628,Southwest 12th Lane,33991,26.6287970,-82.0090670
1632,Southwest 12th Lane,33991,26.6287838,-82.0093109
1620,Southwest 12th Lane,33991,26.6287966,-82.0085814
1616,Southwest 12th Lane,33991,26.6287944,-82.0083359
1612,Southwest 12th Lane,33991,26.6287993,-82.0080907
1607,Southwest 13th Street,33991,26.6284376,-82.0077845
1611,Southwest 13th Street,33991,26.6284202,-82.0080900
1619,Southwest 13th Street,33991,26.6284336,-82.0085816
1623,Southwest 13th Street,33991,26.6284345,-82.0088277
1605,Southwest 12th Lane,33991,26.6292833,-82.0077225
1609,Southwest 12th Lane,33991,26.6292993,-82.0079673
1613,Southwest 12th Lane,33991,26.6292802,-82.0082134
1617,Southwest 12th Lane,33991,26.6292876,-82.0084492
1621,Southwest 12th Lane,33991,26.6293090,-82.0087043
1625,Southwest 12th Lane,33991,26.6292791,-82.0089503
1629,Southwest 12th Lane,33991,26.6293010,-82.0091944
1633,Southwest 12th Lane,33991,26.6292931,-82.0094408
1703,Southwest 12th Lane,33991,26.6292653,-82.0096860
1718,Southwest 12th Terrace,33991,26.6296394,-82.0105486
1714,Southwest 12th Terrace,33991,26.6296619,-82.0102366
1708,Southwest 12th Terrace,33991,26.6296567,-82.0099246
1704,Southwest 12th Terrace,33991,26.6296469,-82.0096841
1634,Southwest 12th Terrace,33991,26.6296679,-82.0094389
1630,Southwest 12th Terrace,33991,26.6296301,-82.0091942
1626,Southwest 12th Terrace,33991,26.6296530,-82.0089488
1622,Southwest 12th Terrace,33991,26.6296255,-82.0087042
1606,Southwest 12th Terrace,33991,26.6296518,-82.0077223
1605,Southwest 12th Terrace,33991,26.6301286,-82.0077216
1609,Southwest 12th Terrace,33991,26.6301293,-82.0079670
1617,Southwest 12th Terrace,33991,26.6301066,-82.0084574
1613,Southwest 12th Terrace,33991,26.6301100,-82.0082053
1621,Southwest 12th Terrace,33991,26.6301231,-82.0087030
1625,Southwest 12th Terrace,33991,26.6301436,-82.0089458
1633,Southwest 12th Terrace,33991,26.6301283,-82.0094352
1707,Southwest 12th Terrace,33991,26.6301560,-82.0099278
1711,Southwest 12th Terrace,33991,26.6301234,-82.0101718
1715,Southwest 12th Terrace,33991,26.6301185,-82.0104163
1719,Southwest 12th Terrace,33991,26.6301291,-82.0107113
2649,Malaita Court,33991,26.6331462,-82.0312359
2647,Malaita Court,33991,26.6331718,-82.0310525
2645,Malaita Court,33991,26.6332160,-82.0308641
2643,Malaita Court,33991,26.6332446,-82.0307048
2641,Malaita Court,33991,26.6332807,-82.0305506
2639,Malaita Court,33991,26.6332789,-82.0303973
2637,Malaita Court,33991,26.6333375,-82.0302546
2635,Malaita Court,33991,26.6333368,-82.0300985
2633,Malaita Court,33991,26.6333936,-82.0299523
2631,Malaita Court,33991,26.6333986,-82.0297899
2627,Malaita Court,33991,26.6335103,-82.0294175
2629,Malaita Court,33991,26.6334830,-82.0295574
2625,Malaita Court,33991,26.6335263,-82.0292797
2623,Malaita Court,33991,26.6335423,-82.0291351
2621,Malaita Court,33991,26.6335504,-82.0289870
2619,Malaita Court,33991,26.6335499,-82.0288481
2617,Malaita Court,33991,26.6335510,-82.0287106
2615,Malaita Court,33991,26.6335498,-82.0285760
2613,Malaita Court,33991,26.6335468,-82.0284441
2611,Malaita Court,33991,26.6335517,-82.0283077
2609,Malaita Court,33991,26.6335457,-82.0281721
2607,Malaita Court,33991,26.6335452,-82.0280370
2605,Malaita Court,33991,26.6335283,-82.0279014
2608,Malaita Court,33991,26.6329117,-82.0279159
2610,Malaita Court,33991,26.6329080,-82.0280915
2612,Malaita Court,33991,26.6329725,-82.0282600
2814,Malaita Court,33991,26.6330955,-82.0284336
2816,Malaita Court,33991,26.6330987,-82.0286315
2818,Malaita Court,33991,26.6331243,-82.0287996
2820,Malaita Court,33991,26.6331084,-82.0289684
2822,Malaita Court,33991,26.6330930,-82.0291407
2824,Malaita Court,33991,26.6330674,-82.0293045
2826,Malaita Court,33991,26.6330612,-82.0294721
2828,Malaita Court,33991,26.6330112,-82.0296131
2830,Malaita Court,33991,26.6329739,-82.0297584
2832,Malaita Court,33991,26.6329528,-82.0299124
2834,Malaita Court,33991,26.6329069,-82.0300707
2836,Malaita Court,33991,26.6328788,-82.0302345
2838,Malaita Court,33991,26.6328386,-82.0303960
2842,Malaita Court,33991,26.6327890,-82.0306973
2840,Malaita Court,33991,26.6328178,-82.0305411
2844,Malaita Court,33991,26.6327543,-82.0308565
2846,Malaita Court,33991,26.6327241,-82.0310457
2848,Malaita Court,33991,26.6327172,-82.0312254
2773,Lambay Court,33991,26.6319191,-82.0311813
2769,Lambay Court,33991,26.6319197,-82.0309690
2765,Lambay Court,33991,26.6319455,-82.0307614
2761,Lambay Court,33991,26.6319873,-82.0305731
2757,Lambay Court,33991,26.6320294,-82.0303846
2753,Lambay Court,33991,26.6320619,-82.0302131
2749,Lambay Court,33991,26.6320923,-82.0300206
2745,Lambay Court,33991,26.6321335,-82.0298075
2741,Lambay Court,33991,26.6321618,-82.0296139
2737,Lambay Court,33991,26.6321688,-82.0294058
2733,Lambay Court,33991,26.6321770,-82.0292144
2729,Lambay Court,33991,26.6321729,-82.0290294
2725,Lambay Court,33991,26.6321753,-82.0288460
2721,Lambay Court,33991,26.6321733,-82.0286632
2717,Lambay Court,33991,26.6321679,-82.0284560
2713,Lambay Court,33991,26.6321672,-82.0282701
2709,Lambay Court,33991,26.6321630,-82.0280898
2705,Lambay Court,33991,26.6321126,-82.0279058
1832,Southwest 10th Terrace,33991,26.6333134,-82.0137390
1900,Southwest 10th Terrace,33991,26.6333183,-82.0139770
1904,Southwest 10th Terrace,33991,26.6333212,-82.0142495
1908,Southwest 10th Terrace,33991,26.6333137,-82.0145099
1912,Southwest 10th Terrace,33991,26.6332898,-82.0147707
1916,Southwest 10th Terrace,33991,26.6332416,-82.0150151
1905,Southwest 10th Terrace,33991,26.6337866,-82.0142891
1909,Southwest 10th Terrace,33991,26.6337615,-82.0145344
1913,Southwest 10th Terrace,33991,26.6337506,-82.0147781
2017,Southwest 19th Place,33991,26.6144359,-82.0140023
3307,Southwest 7th Lane,33991,26.6402342,-82.0431891
3235,Southwest 7th Lane,33991,26.6402473,-82.0424579
3231,Southwest 7th Lane,33991,26.6402357,-82.0422120
424,Southwest 29th Avenue,33991,26.6430145,-82.0348872
427,Southwest 29th Place,33991,26.6432327,-82.0352505
423,Southwest 29th Place,33991,26.6434662,-82.0352970
431,Southwest 29th Place,33991,26.6430340,-82.0352750
416,Southwest 29th Avenue,33991,26.6434640,-82.0348700
408,Southwest 29th Avenue,33991,26.6439039,-82.0348867
415,Southwest 29th Place,33991,26.6439067,-82.0352779
403,Southwest 29th Place,33991,26.6445689,-82.0352920
400,Southwest 29th Avenue,33991,26.6443512,-82.0348613
340,Southwest 29th Avenue,33991,26.6450126,-82.0348599
337,Southwest 29th Place,33991,26.6454413,-82.0352794
341,Southwest 29th Place,33991,26.6452318,-82.0352585
324,Southwest 29th Place,33991,26.6461209,-82.0358530
328,Southwest 29th Place,33991,26.6458852,-82.0358360
3314,Southwest 7th Lane,33991,26.6397412,-82.0436922
3307,Southwest 8th Street,33991,26.6387732,-82.0433163
3311,Southwest 8th Street,33991,26.6387813,-82.0435607
3310,Southwest 8th Street,33991,26.6382627,-82.0434586
614,Southwest 18th Court,33991,26.6407213,-82.0120764
610,Southwest 18th Court,33991,26.6409398,-82.0120735
644,Southwest 18th Court,33991,26.6390631,-82.0121014
435,Southwest 19th Avenue,33991,26.6431335,-82.0124924
437,Southwest 19th Avenue,33991,26.6429130,-82.0124921
440,Southwest 19th Avenue,33991,26.6429158,-82.0130630
418,Southwest 19th Avenue,33991,26.6441276,-82.0130677
418,Southwest 18th Court,33991,26.6439486,-82.0120999
415,Southwest 18th Court,33991,26.6442019,-82.0115311
408,Southwest 18th Court,33991,26.6446201,-82.0120747
1812,Southwest 4th Street,33991,26.6449707,-82.0124838
313,El Dorado Boulevard South,33991,26.6447093,-82.0237765
2412,Southwest 4th Street,33991,26.6450270,-82.0233608
310,Southwest 24th Avenue,33991,26.6454886,-82.0227647
306,Southwest 24th Avenue,33991,26.6457017,-82.0227460
236,Southwest 24th Avenue,33991,26.6465809,-82.0227639
210,Southwest 24th Avenue,33991,26.6475739,-82.0227727
2258,Southwest 3rd Terrace,33991,26.6458860,-82.0222079
2251,Southwest 4th Street,33991,26.6455015,-82.0217600
2247,Southwest 4th Street,33991,26.6455044,-82.0215194
2240,Southwest 3rd Terrace,33991,26.6458959,-82.0211492
2236,Southwest 3rd Terrace,33991,26.6458949,-82.0209024
2232,Southwest 3rd Terrace,33991,26.6458940,-82.0206576
2233,Southwest 4th Street,33991,26.6455196,-82.0205952
2240,Southwest 4th Street,33991,26.6449836,-82.0208908
2254,Southwest 4th Street,33991,26.6450046,-82.0219332
2226,Southwest 4th Street,33991,26.6449931,-82.0200346
2221,Southwest 4th Street,33991,26.6455244,-82.0199219
2217,Southwest 4th Street,33991,26.6455370,-82.0196778
2227,Southwest 4th Street,33991,26.6455200,-82.0202282
2213,Southwest 4th Street,33991,26.6454990,-82.0194355
2212,Southwest 3rd Terrace,33991,26.6458686,-82.0194360
2205,Southwest 4th Street,33991,26.6455287,-82.0189438
2209,Southwest 4th Street,33991,26.6455220,-82.0191868
2201,Southwest 4th Street,33991,26.6454983,-82.0186826
2204,Southwest 4th Street,33991,26.6450078,-82.0188720
2115,Southwest 4th Street,33991,26.6455316,-82.0178465
2240,Southwest 2nd Terrace,33991,26.6481929,-82.0220072
2236,Southwest 2nd Terrace,33991,26.6481923,-82.0217461
2220,Southwest 2nd Terrace,33991,26.6481808,-82.0207645
2227,Southwest 2nd Lane,33991,26.6478154,-82.0210150
2202,Southwest 2nd Terrace,33991,26.6480612,-82.0196445
2239,Southwest 2nd Terrace,33991,26.6486864,-82.0215339
3011,Ceitus Parkway,33991,26.6419791,-82.0371990
507,Southwest 29th Avenue,33991,26.6423889,-82.0343061
514,Southwest 28th Place,33991,26.6419293,-82.0339148
510,Southwest 28th Place,33991,26.6421647,-82.0339168
506,Southwest 28th Place,33991,26.6423840,-82.0339001
502,Southwest 28th Place,33991,26.6426061,-82.0339071
420,Southwest 28th Place,33991,26.6432670,-82.0339120
417,Southwest 29th Avenue,33991,26.6434896,-82.0342990
525,Southwest 29th Avenue,33991,26.6430484,-82.0343280
421,Southwest 29th Avenue,33991,26.6432817,-82.0343170
408,Southwest 28th Place,33991,26.6439274,-82.0338936
405,Southwest 29th Avenue,33991,26.6441506,-82.0342776
337,Southwest 29th Avenue,33991,26.6451571,-82.0343078
325,Southwest 30th Avenue,33991,26.6461173,-82.0361920
329,Southwest 30th Avenue,33991,26.6458852,-82.0362420
333,Southwest 30th Avenue,33991,26.6456666,-82.0362201
332,Southwest 29th Place,33991,26.6456655,-82.0358187
336,Southwest 29th Place,33991,26.6454405,-82.0358210
340,Southwest 29th Place,33991,26.6452221,-82.0358207
341,Southwest 30th Avenue,33991,26.6452260,-82.0362432
348,Southwest 29th Place,33991,26.6447905,-82.0358150
402,Southwest 29th Place,33991,26.6445703,-82.0358213
403,Southwest 30th Avenue,33991,26.6445741,-82.0362208
407,Southwest 30th Avenue,33991,26.6443532,-82.0362191
410,Southwest 29th Place,33991,26.6441295,-82.0358409
414,Southwest 29th Place,33991,26.6439110,-82.0358308
406,Southwest 30th Avenue,33991,26.6443414,-82.0368046
402,Southwest 30th Avenue,33991,26.6445628,-82.0367956
323,Southwest 30th Avenue,33991,26.6456594,-82.0367710
320,Southwest 30th Avenue,33991,26.6464141,-82.0366834
2931,Southwest 3rd Terrace,33991,26.6465793,-82.0362408
304,Southwest 29th Avenue,33991,26.6471981,-82.0348690
312,Southwest 29th Avenue,33991,26.6467536,-82.0348697
316,Southwest 29th Avenue,33991,26.6465357,-82.0348692
320,Southwest 29th Avenue,33991,26.6461137,-82.0348911
2817,Southwest 3rd Lane,33991,26.6463300,-82.0338844
323,Southwest 31st Place,33991,26.6461052,-82.0383543
322,Southwest 31st Avenue,33991,26.6461024,-82.0379828
325,Southwest 31st Avenue,33991,26.6461985,-82.0374252
321,Southwest 31st Avenue,33991,26.6464189,-82.0373954
309,Southwest 31st Avenue,33991,26.6470817,-82.0373946
227,Southwest 31st Avenue,33991,26.6477433,-82.0373806
303,Southwest 31st Place,33991,26.6474062,-82.0383549
229,Southwest 31st Place,33991,26.6476264,-82.0383560
306,Southwest 31st Place,33991,26.6471874,-82.0389253
208,Southwest 31st Place,33991,26.6487301,-82.0389036
341,Southwest 28th Place,33991,26.6449169,-82.0333436
345,Southwest 28th Place,33991,26.6446967,-82.0333561
349,Southwest 28th Place,33991,26.6444758,-82.0333631
403,Southwest 28th Place,33991,26.6442553,-82.0333498
407,Southwest 28th Place,33991,26.6440297,-82.0333289
411,Southwest 28th Place,33991,26.6438156,-82.0333419
346,Southwest 28th Avenue,33991,26.6446955,-82.0329515
400,Southwest 28th Avenue,33991,26.6444201,-82.0329798
420,Southwest 28th Avenue,33991,26.6432625,-82.0329759
2800,Southwest 3rd Lane,33991,26.6450846,-82.0321840
2725,Southwest 4th Terrace,33991,26.6447176,-82.0321873
2713,Southwest 4th Terrace,33991,26.6447344,-82.0314245
2718,Southwest 3rd Lane,33991,26.6450729,-82.0309325
2710,Southwest 3rd Lane,33991,26.6450740,-82.0304366
2700,Southwest 3rd Lane,33991,26.6450930,-82.0297953
2620,Southwest 3rd Lane,33991,26.6450688,-82.0294679
2623,Southwest 4th Terrace,33991,26.6447338,-82.0294571
2626,Southwest 4th Terrace,33991,26.6442193,-82.0297073
2627,Southwest 4th Lane,33991,26.6439056,-82.0296914
2635,Southwest 4th Lane,33991,26.6438785,-82.0301980
2639,Southwest 4th Lane,33991,26.6438851,-82.0304488
2701,Southwest 4th Lane,33991,26.6439103,-82.0306699
2700,Southwest 4th Terrace,33991,26.6442438,-82.0306918
2713,Southwest 4th Lane,33991,26.6439057,-82.0314270
2716,Southwest 4th Terrace,33991,26.6442436,-82.0316758
2728,Southwest 4th Terrace,33991,26.6442654,-82.0324346
2729,Southwest 4th Lane,33991,26.6438946,-82.0324529
2729,Southwest 5th Street,33991,26.6430390,-82.0324427
2720,Southwest 4th Lane,33991,26.6433862,-82.0319290
2717,Southwest 5th Street,33991,26.6430342,-82.0316825
2710,Southwest 4th Lane,33991,26.6433856,-82.0313080
2713,Southwest 5th Street,33991,26.6430280,-82.0314319
2705,Southwest 5th Street,33991,26.6430359,-82.0309483
2701,Southwest 5th Street,33991,26.6430505,-82.0306945
2639,Southwest 5th Street,33991,26.6430415,-82.0304626
2635,Southwest 5th Street,33991,26.6430266,-82.0302013
2631,Southwest 5th Street,33991,26.6430233,-82.0299613
2622,Southwest 4th Lane,33991,26.6433944,-82.0294775
505,Southwest 28th Avenue,33991,26.6422532,-82.0324125
2633,Ceitus Parkway,33991,26.6419607,-82.0300952
2613,Ceitus Parkway,33991,26.6419488,-82.0288753
508,Southwest 26th Avenue,33991,26.6422979,-82.0283218
424,Southwest 26th Avenue,33991,26.6428094,-82.0283377
404,Southwest 26th Avenue,33991,26.6436919,-82.0283018
408,Southwest 26th Avenue,33991,26.6439137,-82.0283017
413,Southwest 26th Avenue,33991,26.6436763,-82.0277742
421,Southwest 26th Avenue,33991,26.6432402,-82.0277720
344,Southwest 24th Place,33991,26.6431684,-82.0258911
340,Southwest 24th Place,33991,26.6433692,-82.0256937
360,Southwest 24th Place,33991,26.6428332,-82.0268566
510,Southwest 25th Place,33991,26.6421232,-82.0273429
515,Southwest 26th Avenue,33991,26.6419115,-82.0277770
429,Southwest 26th Avenue,33991,26.6427928,-82.0277448
425,Southwest 26th Avenue,33991,26.6430192,-82.0277660
338,Southwest 25th Avenue,33991,26.6437614,-82.0265426
330,Southwest 25th Avenue,33991,26.6442555,-82.0264018
333,Southwest 25th Place,33991,26.6442562,-82.0267948
325,Southwest 25th Place,33991,26.6446958,-82.0268057
322,Southwest 25th Avenue,33991,26.6446969,-82.0264154
318,Southwest 25th Avenue,33991,26.6449267,-82.0264012
321,Southwest 25th Place,33991,26.6449245,-82.0267972
317,Southwest 25th Place,33991,26.6451458,-82.0267822
314,Southwest 25th Avenue,33991,26.6451488,-82.0263864
313,Southwest 24th Place,33991,26.6453739,-82.0267763
309,Southwest 24th Place,33991,26.6455905,-82.0267506
300,Southwest 25th Avenue,33991,26.6459243,-82.0262668
306,Southwest 25th Avenue,33991,26.6456603,-82.0263224
310,Southwest 25th Avenue,33991,26.6453664,-82.0263765
305,Southwest 25th Avenue,33991,26.6455554,-82.0257816
300,Southwest 24th Place,33991,26.6456380,-82.0253280
304,Southwest 24th Place,33991,26.6454031,-82.0254139
313,Southwest 25th Avenue,33991,26.6451067,-82.0258323
301,Southwest 24th Place,33991,26.6454860,-82.0248081
311,Southwest 24th Place,33991,26.6448772,-82.0248926
315,Southwest 24th Place,33991,26.6446503,-82.0249147
321,Southwest 24th Place,33991,26.6443144,-82.0248959
312,Southwest 24th Place,33991,26.6449254,-82.0254595
317,Southwest 25th Avenue,33991,26.6448753,-82.0258483
321,Southwest 25th Avenue,33991,26.6446535,-82.0258664
325,Southwest 25th Avenue,33991,26.6444357,-82.0258291
402,Southwest 25th Place,33991,26.6442150,-82.0273426
342,Southwest 25th Place,33991,26.6448788,-82.0273428
401,Southwest 26th Avenue,33991,26.6443275,-82.0277707
341,Southwest 26th Avenue,33991,26.6449955,-82.0277662
325,Southwest 26th Avenue,33991,26.6458809,-82.0276315
329,Southwest 26th Avenue,33991,26.6456662,-82.0277015
313,Southwest 26th Avenue,33991,26.6467365,-82.0273295
309,Southwest 26th Avenue,33991,26.6469685,-82.0272686
305,Southwest 26th Avenue,33991,26.6471852,-82.0272047
310,Southwest 25th Place,33991,26.6468473,-82.0268882
231,Southwest 25th Place,33991,26.6466717,-82.0263813
237,Southwest 25th Place,33991,26.6464544,-82.0264490
226,Southwest 25th Avenue,33991,26.6467703,-82.0259675
219,Southwest 25th Place,33991,26.6473396,-82.0263113
213,Southwest 25th Avenue,33991,26.6475213,-82.0253283
222,Southwest 24th Place,33991,26.6469450,-82.0249467
226,Southwest 24th Place,33991,26.6467221,-82.0249912
233,Southwest 25th Avenue,33991,26.6464017,-82.0254630
229,Southwest 25th Avenue,33991,26.6466146,-82.0254139
208,Southwest 24th Place,33991,26.6477480,-82.0249332
201,Southwest 25th Avenue,33991,26.6482254,-82.0253177
207,Southwest 24th Place,33991,26.6479383,-82.0243647
213,Southwest 24th Place,33991,26.6474335,-82.0243809
232,El Dorado Boulevard South,33991,26.6463959,-82.0240114
215,Southwest 25th Place,33991,26.6475652,-82.0262770
201,Southwest 25th Place,33991,26.6482134,-82.0262389
208,Southwest 25th Place,33991,26.6477645,-82.0268052
201,Southwest 26th Avenue,33991,26.6482319,-82.0272336
211,Southwest 26th Avenue,33991,26.6476540,-82.0272059
210,Southwest 26th Avenue,33991,26.6477614,-82.0277902
206,Southwest 26th Avenue,33991,26.6480362,-82.0277557
2535,Southwest 2nd Terrace,33991,26.6485681,-82.0276468
2531,Southwest 2nd Terrace,33991,26.6486914,-82.0273628
2517,Southwest 2nd Terrace,33991,26.6486647,-82.0266165
2509,Southwest 2nd Terrace,33991,26.6486939,-82.0261238
2505,Southwest 2nd Terrace,33991,26.6486706,-82.0258840
2433,Southwest 2nd Terrace,33991,26.6486752,-82.0249089
2429,Southwest 2nd Terrace,33991,26.6486801,-82.0246564
2430,Southwest 1st Terrace,33991,26.6493210,-82.0246024
2446,Southwest 1st Terrace,33991,26.6493282,-82.0255783
2502,Southwest 1st Terrace,33991,26.6493175,-82.0258228
2507,Southwest 1st Terrace,33991,26.6498291,-82.0261188
2513,Southwest 1st Terrace,33991,26.6497895,-82.0264231
2517,Southwest 1st Terrace,33991,26.6498139,-82.0267304
2512,Southwest 1st Street,33991,26.6501721,-82.0264858
2516,Southwest 1st Street,33991,26.6501658,-82.0267305
2520,Southwest 1st Street,33991,26.6501725,-82.0270146
2603,Southwest 1st Terrace,33991,26.6501161,-82.0277062
2607,Southwest 1st Terrace,33991,26.6502751,-82.0278574
2528,Southwest 1st Street,33991,26.6504746,-82.0275358
2600,Southwest 1st Street,33991,26.6506051,-82.0277425
2521,Southwest 1st Street,33991,26.6507421,-82.0270243
2509,Southwest 1st Street,33991,26.6506440,-82.0262392
2505,Southwest 1st Street,33991,26.6506527,-82.0259901
431,Southwest 26th Place,33991,26.6427560,-82.0289961
427,Southwest 26th Place,33991,26.6430615,-82.0289679
421,Southwest 26th Place,33991,26.6433405,-82.0289535
353,Southwest 26th Place,33991,26.6446034,-82.0289248
347,Southwest 26th Place,33991,26.6448848,-82.0289476
339,Southwest 26th Place,33991,26.6453727,-82.0289217
326,Southwest 26th Place,33991,26.6460021,-82.0293796
322,Southwest 26th Place,33991,26.6462207,-82.0293534
314,Southwest 26th Place,33991,26.6466796,-82.0292381
311,Southwest 26th Place,33991,26.6468538,-82.0285514
307,Southwest 26th Place,33991,26.6470550,-82.0284977
303,Southwest 26th Place,33991,26.6472979,-82.0284197
211,Southwest 27th Avenue,33991,26.6477456,-82.0293619
207,Southwest 27th Avenue,33991,26.6480483,-82.0293472
225,Southwest 26th Place,33991,26.6477362,-82.0284014
221,Southwest 26th Place,33991,26.6479585,-82.0284193
207,Southwest 26th Place,33991,26.6487277,-82.0284079
2619,Southwest 2nd Terrace,33991,26.6494321,-82.0288581
2711,Southwest 2nd Terrace,33991,26.6495003,-82.0303577
2715,Southwest 2nd Terrace,33991,26.6494673,-82.0305999
2727,Southwest 2nd Terrace,33991,26.6494912,-82.0312724
2735,Southwest 2nd Terrace,33991,26.6494863,-82.0318272
2823,Southwest 2nd Terrace,33991,26.6495098,-82.0334150
2836,Southwest 2nd Terrace,33991,26.6490145,-82.0344079
2909,Southwest 2nd Lane,33991,26.6486470,-82.0350246
2925,Southwest 2nd Lane,33991,26.6486630,-82.0360023
2929,Southwest 2nd Lane,33991,26.6486666,-82.0362657
2824,Southwest 2nd Terrace,33991,26.6490040,-82.0336708
2820,Southwest 2nd Terrace,33991,26.6490333,-82.0334230
2823,Southwest 2nd Lane,33991,26.6486593,-82.0335493
2812,Southwest 2nd Terrace,33991,26.6490213,-82.0329463
2808,Southwest 2nd Terrace,33991,26.6490140,-82.0326927
2804,Southwest 2nd Terrace,33991,26.6490223,-82.0324456
2800,Southwest 2nd Terrace,33991,26.6489902,-82.0321852
2801,Southwest 2nd Lane,33991,26.6486544,-82.0321933
2815,Southwest 2nd Lane,33991,26.6486679,-82.0330630
2728,Southwest 2nd Terrace,33991,26.6490180,-82.0314613
2724,Southwest 2nd Terrace,33991,26.6489949,-82.0312058
2720,Southwest 2nd Terrace,33991,26.6489944,-82.0309491
2716,Southwest 2nd Terrace,33991,26.6489939,-82.0307020
2708,Southwest 2nd Terrace,33991,26.6489915,-82.0302102
2711,Southwest 2nd Lane,33991,26.6486166,-82.0301969
2719,Southwest 2nd Lane,33991,26.6486318,-82.0307025
2716,Southwest 2nd Lane,33991,26.6481627,-82.0308685
2708,Southwest 2nd Lane,33991,26.6481583,-82.0303622
2713,Southwest 3rd Street,33991,26.6477985,-82.0306142
2709,Southwest 3rd Street,33991,26.6477876,-82.0303718
2705,Southwest 3rd Street,33991,26.6477905,-82.0301256
2804,Southwest 2nd Lane,33991,26.6481511,-82.0323276
2808,Southwest 2nd Lane,33991,26.6481606,-82.0325736
2932,Southwest 2nd Lane,33991,26.6482085,-82.0365178
214,Southwest 30th Avenue,33991,26.6485072,-82.0367667
208,Southwest 30th Avenue,33991,26.6488262,-82.0367655
200,Southwest 30th Avenue,33991,26.6492949,-82.0367315
2921,Southwest 2nd Terrace,33991,26.6495525,-82.0357436
2917,Southwest 2nd Terrace,33991,26.6495017,-82.0354981
2913,Southwest 2nd Terrace,33991,26.6495007,-82.0352515
2914,Southwest 2nd Lane,33991,26.6481735,-82.0354272
2837,Southwest 3rd Street,33991,26.6478274,-82.0343157
2832,Southwest 2nd Lane,33991,26.6481453,-82.0340686
2829,Southwest 3rd Street,33991,26.6477930,-82.0338014
2824,Southwest 2nd Lane,33991,26.6481694,-82.0335603
2809,Southwest 3rd Street,33991,26.6478038,-82.0325747
2820,Southwest 2nd Lane,33991,26.6481535,-82.0333090
2703,Southwest 2nd Terrace,33991,26.6494748,-82.0298662
217,Southwest 31st Place,33991,26.6482862,-82.0383484
213,Southwest 31st Place,33991,26.6485058,-82.0383497
127,Southwest 31st Avenue,33991,26.6495063,-82.0373976
207,Southwest 31st Avenue,33991,26.6488427,-82.0373966
2912,Southwest 1st Terrace,33991,26.6502247,-82.0352759
2900,Southwest 1st Terrace,33991,26.6501814,-82.0345460
106,Southwest 29th Place,33991,26.6509040,-82.0358069
2828,Southwest 1st Terrace,33991,26.6501772,-82.0338071
2812,Southwest 1st Terrace,33991,26.6502127,-82.0328248
2708,Southwest 1st Terrace,33991,26.6501721,-82.0302301
2724,Southwest 1st Terrace,33991,26.6501875,-82.0312419
2626,Southwest Embers Terrace,33991,26.6509996,-82.0294768
2624,Southwest 1st Terrace,33991,26.6501564,-82.0290048
2614,Southwest 1st Terrace,33991,26.6499876,-82.0284094
2606,Southwest 1st Terrace,33991,26.6496971,-82.0280161
2615,Southwest 1st Terrace,33991,26.6505954,-82.0285784
2610,Southwest Embers Terrace,33991,26.6509208,-82.0283974
2616,Southwest Embers Terrace,33991,26.6509875,-82.0287942
2621,Southwest 1st Terrace,33991,26.6506305,-82.0288832
2625,Southwest 1st Terrace,33991,26.6506518,-82.0292073
2622,Southwest Embers Terrace,33991,26.6510488,-82.0292083
2704,Southwest Embers Terrace,33991,26.6510188,-82.0299464
2705,Southwest 1st Terrace,33991,26.6507016,-82.0299591
2709,Southwest 1st Terrace,33991,26.6506844,-82.0301933
2708,Southwest Embers Terrace,33991,26.6510275,-82.0301879
2712,Southwest Embers Terrace,33991,26.6510104,-82.0304418
2713,Southwest 1st Terrace,33991,26.6506749,-82.0304452
2724,Southwest Embers Terrace,33991,26.6510334,-82.0312217
2728,Southwest Embers Terrace,33991,26.6510084,-82.0315045
2732,Southwest Embers Terrace,33991,26.6510366,-82.0317544
2733,Southwest 1st Terrace,33991,26.6506812,-82.0317471
2447,Southwest 1st Terrace,33991,26.6498066,-82.0256257
2443,Southwest 1st Terrace,33991,26.6498002,-82.0253826
14,El Dorado Boulevard South,33991,26.6512964,-82.0238942
21,Southwest 24th Place,33991,26.6508575,-82.0243880
25,Southwest 24th Place,33991,26.6506396,-82.0243761
29,Southwest 24th Place,33991,26.6504184,-82.0243643
103,Southwest 24th Place,33991,26.6502009,-82.0243636
111,Southwest 24th Place,33991,26.6497467,-82.0243522
2435,Southwest 1st Terrace,33991,26.6498005,-82.0248789
2440,Southwest 1st Street,33991,26.6501578,-82.0252124
2444,Southwest 1st Street,33991,26.6501550,-82.0255041
2445,Southwest 1st Street,33991,26.6506640,-82.0255083
2501,Southwest 1st Street,33991,26.6506708,-82.0257487
2446,Southwest Embers Terrace,33991,26.6510079,-82.0256275
2502,Southwest Embers Terrace,33991,26.6510328,-82.0258717
2442,Southwest Embers Terrace,33991,26.6510168,-82.0253799
2435,Southwest 1st Street,33991,26.6506729,-82.0248812
2435,Southwest Embers Terrace,33991,26.6515034,-82.0248724
2439,Southwest Embers Terrace,33991,26.6515241,-82.0251196
2443,Southwest Embers Terrace,33991,26.6515057,-82.0253620
2442,Embers Parkway,33991,26.6519439,-82.0253578
2438,Embers Parkway,33991,26.6519053,-82.0251145
2510,Embers Parkway,33991,26.6519394,-82.0263494
2511,Southwest Embers Terrace,33991,26.6515072,-82.0263530
2515,Southwest Embers Terrace,33991,26.6515513,-82.0265925
8,Southwest 25th Place,33991,26.6516681,-82.0271042
9,Southwest 26th Place,33991,26.6514595,-82.0275570
14,Southwest 26th Place,33991,26.6513565,-82.0281894
2613,Southwest Embers Terrace,33991,26.6514466,-82.0285446
8,Southwest 26th Place,33991,26.6515515,-82.0281269
2614,Embers Parkway,33991,26.6519219,-82.0282624
2618,Embers Parkway,33991,26.6519289,-82.0285200
2622,Embers Parkway,33991,26.6519271,-82.0287729
2703,Southwest Embers Terrace,33991,26.6515254,-82.0298203
2709,Southwest Embers Terrace,33991,26.6515318,-82.0302077
2728,Embers Parkway,33991,26.6519560,-82.0314972
2806,Embers Parkway,33991,26.6519732,-82.0325272
2817,Southwest Embers Terrace,33991,26.6515346,-82.0332083
2813,Southwest Embers Terrace,33991,26.6515567,-82.0329604
2810,Southwest Embers Terrace,33991,26.6510403,-82.0328384
2806,Southwest Embers Terrace,33991,26.6510473,-82.0325338
2800,Southwest Embers Terrace,33991,26.6510123,-82.0322170
2801,Southwest 1st Terrace,33991,26.6506996,-82.0322092
2813,Southwest 1st Terrace,33991,26.6506714,-82.0329620
2819,Southwest 1st Terrace,33991,26.6506848,-82.0332688
2822,Southwest Embers Terrace,33991,26.6510491,-82.0335731
2825,Southwest Embers Terrace,33991,26.6515384,-82.0336951
2833,Southwest Embers Terrace,33991,26.6515441,-82.0341872
2903,Southwest Embers Terrace,33991,26.6515522,-82.0346728
2909,Southwest Embers Terrace,33991,26.6515682,-82.0349806
2906,Embers Parkway,33991,26.6519770,-82.0347905
2830,Southwest Embers Terrace,33991,26.6510295,-82.0340778
2834,Southwest Embers Terrace,33991,26.6510437,-82.0343059
2900,Southwest Embers Terrace,33991,26.6510407,-82.0345569
2904,Southwest Embers Terrace,33991,26.6510443,-82.0348021
2912,Southwest Embers Terrace,33991,26.6510511,-82.0352928
2909,Southwest 1st Terrace,33991,26.6507030,-82.0349818
2837,Southwest 1st Terrace,33991,26.6506812,-82.0344344
2833,Southwest 1st Terrace,33991,26.6507000,-82.0341900
2846,Northwest Embers Terrace,33993,26.6529105,-82.0345321
2834,Northwest Embers Terrace,33993,26.6529121,-82.0337866
2814,Northwest Embers Terrace,33993,26.6529302,-82.0325720
2806,Northwest Embers Terrace,33993,26.6529288,-82.0320799
2802,Northwest Embers Terrace,33993,26.6529290,-82.0318347
2808,Northwest 1st Street,33993,26.6537642,-82.0321891
2812,Northwest 1st Street,33993,26.6537792,-82.0324348
2816,Northwest 1st Street,33993,26.6537759,-82.0326802
2827,Northwest Embers Terrace,33993,26.6534123,-82.0333056
2823,Northwest Embers Terrace,33993,26.6534073,-82.0330505
2819,Northwest Embers Terrace,33993,26.6534314,-82.0328114
2811,Northwest Embers Terrace,33993,26.6534028,-82.0323164
2843,Northwest Embers Terrace,33993,26.6534221,-82.0343420
19,Northwest 29th Avenue,33993,26.6537156,-82.0342730
23,Northwest 29th Avenue,33993,26.6539517,-82.0343267
100,Northwest 28th Court,33993,26.6540045,-82.0339697
105,Northwest 29th Avenue,33993,26.6544020,-82.0344468
109,Northwest 29th Avenue,33993,26.6546226,-82.0345334
117,Northwest 29th Avenue,33993,26.6550576,-82.0347690
112,Northwest 29th Avenue,33993,26.6547176,-82.0351769
108,Northwest 29th Avenue,33993,26.6544422,-82.0350270
22,Northwest 29th Avenue,33993,26.6537815,-82.0348538
21,Northwest 29th Place,33993,26.6538387,-82.0352740
25,Northwest 29th Place,33993,26.6540579,-82.0353059
26,Northwest 29th Place,33993,26.6539127,-82.0358552
18,Northwest 29th Place,33993,26.6534682,-82.0357949
2906,Northwest Embers Terrace,33993,26.6529140,-82.0350305
2907,Embers Parkway,33993,26.6525622,-82.0350310
2,Northwest 29th Place,33993,26.6525273,-82.0358209
114,Northwest 29th Place,33993,26.6547770,-82.0363479
118,Northwest 29th Place,33993,26.6549057,-82.0365187
140,Northwest 29th Place,33993,26.6559279,-82.0373460
204,Northwest 29th Place,33993,26.6563599,-82.0375090
220,Northwest 29th Place,33993,26.6572574,-82.0376175
3114,Northwest Embers Terrace,33993,26.6529600,-82.0386146
3103,Northwest 31st Place,33993,26.6542909,-82.0380941
100,Northwest 30th Place,33993,26.6544718,-82.0378264
2867,Northwest 3rd Terrace,33993,26.6589335,-82.0358173
2871,Northwest 3rd Terrace,33993,26.6589250,-82.0360608
2875,Northwest 3rd Terrace,33993,26.6589118,-82.0363072
2909,Northwest 3rd Terrace,33993,26.6589029,-82.0370400
312,Northwest 29th Place,33993,26.6585837,-82.0375953
2911,Northwest 3rd Street,33993,26.6580805,-82.0371221
2907,Northwest 3rd Street,33993,26.6580673,-82.0368639
2873,Northwest 3rd Street,33993,26.6580767,-82.0363737
2869,Northwest 3rd Street,33993,26.6580818,-82.0361278
2865,Northwest 3rd Street,33993,26.6580854,-82.0358836
2857,Northwest 3rd Street,33993,26.6580805,-82.0353928
2852,Northwest 3rd Terrace,33993,26.6584491,-82.0351462
2860,Northwest 3rd Terrace,33993,26.6584636,-82.0356360
249,Northwest 29th Place,33993,26.6576132,-82.0370571
241,Northwest 29th Place,33993,26.6571562,-82.0370717
237,Northwest 29th Place,33993,26.6569278,-82.0370729
234,Northwest 29th Avenue,33993,26.6568360,-82.0366567
229,Northwest 29th Place,33993,26.6564785,-82.0369697
221,Northwest 29th Place,33993,26.6560511,-82.0367601
216,Northwest 29th Avenue,33993,26.6559596,-82.0362772
212,Northwest 29th Avenue,33993,26.6557768,-82.0361376
209,Northwest 29th Place,33993,26.6554812,-82.0363679
202,Northwest 29th Avenue,33993,26.6553306,-82.0356717
115,Northwest 29th Place,33993,26.6548772,-82.0357368
111,Northwest 29th Place,33993,26.6546850,-82.0356384
205,Northwest 29th Avenue,33993,26.6557747,-82.0353919
209,Northwest 29th Avenue,33993,26.6559544,-82.0355645
221,Northwest 29th Avenue,33993,26.6565647,-82.0359955
225,Northwest 29th Avenue,33993,26.6567951,-82.0360936
222,Northwest 28th Court,33993,26.6569203,-82.0356571
239,Northwest 29th Avenue,33993,26.6576145,-82.0360989
2846,Northwest 3rd Street,33993,26.6576196,-82.0346085
2842,Northwest 3rd Street,33993,26.6575858,-82.0343589
2838,Northwest 3rd Street,33993,26.6575897,-82.0341178
2845,Northwest 2nd Terrace,33993,26.6572212,-82.0345107
2841,Northwest 2nd Terrace,33993,26.6572561,-82.0342414
2837,Northwest 2nd Terrace,33993,26.6572528,-82.0339737
2833,Northwest 2nd Terrace,33993,26.6572586,-82.0337517
2825,Northwest 2nd Terrace,33993,26.6572480,-82.0332621
2829,Northwest 2nd Terrace,33993,26.6572328,-82.0335048
2840,Northwest 2nd Terrace,33993,26.6567447,-82.0342915
2848,Northwest 2nd Terrace,33993,26.6565809,-82.0345577
2833,Northwest 2nd Street,33993,26.6563932,-82.0337591
2829,Northwest 2nd Street,33993,26.6564034,-82.0335137
2812,Northwest 2nd Terrace,33993,26.6567680,-82.0325321
2804,Northwest 2nd Terrace,33993,26.6567561,-82.0320405
2800,Northwest 2nd Terrace,33993,26.6567801,-82.0317784
2805,Northwest 2nd Street,33993,26.6564115,-82.0320440
2809,Northwest 2nd Street,33993,26.6564148,-82.0322868
2801,Northwest 2nd Terrace,33993,26.6572891,-82.0317758
2805,Northwest 2nd Terrace,33993,26.6572719,-82.0320310
2809,Northwest 2nd Terrace,33993,26.6572795,-82.0322804
2813,Northwest 2nd Terrace,33993,26.6572502,-82.0325186
2800,Northwest 3rd Street,33993,26.6576343,-82.0317783
2830,Northwest 3rd Street,33993,26.6576211,-82.0336255
228,Northwest 27th Place,33993,26.6576842,-82.0308644
221,Northwest 28th Avenue,33993,26.6573388,-82.0313101
218,Northwest 27th Place,33993,26.6572264,-82.0308707
206,Northwest 27th Place,33993,26.6565685,-82.0308807
202,Northwest 27th Place,33993,26.6563450,-82.0308750
133,Northwest 28th Avenue,33993,26.6560204,-82.0312769
129,Northwest 28th Avenue,33993,26.6557948,-82.0312887
125,Northwest 28th Avenue,33993,26.6555742,-82.0313153
126,Northwest 27th Place,33993,26.6556833,-82.0308854
113,Northwest 28th Avenue,33993,26.6549133,-82.0312891
109,Northwest 28th Avenue,33993,26.6546878,-82.0313091
103,Northwest 28th Avenue,33993,26.6544518,-82.0312872
107,Northwest 27th Place,33993,26.6545386,-82.0303171
100,Northwest 27th Place,33993,26.6542102,-82.0308821
101,Northwest 28th Avenue,33993,26.6542243,-82.0312780
2709,Northwest Embers Terrace,33993,26.6534138,-82.0303490
2705,Northwest Embers Terrace,33993,26.6534066,-82.0300896
2633,Northwest Embers Terrace,33993,26.6534044,-82.0295677
121,Northwest 27th Place,33993,26.6555109,-82.0302974
124,Northwest 26th Place,33993,26.6557352,-82.0289717
125,Northwest 27th Place,33993,26.6557589,-82.0303360
305,Northwest 26th Place,33993,26.6582286,-82.0283958
217,Northwest 26th Place,33993,26.6571257,-82.0284209
311,Northwest 27th Avenue,33993,26.6585309,-82.0293377
307,Northwest 27th Avenue,33993,26.6583237,-82.0293159
227,Northwest 27th Avenue,33993,26.6576596,-82.0293413
220,Northwest 26th Place,33993,26.6573306,-82.0289477
208,Northwest 26th Place,33993,26.6566686,-82.0289313
204,Northwest 26th Place,33993,26.6564486,-82.0289683
133,Northwest 26th Place,33993,26.6560225,-82.0284057
206,Northwest 27th Avenue,33993,26.6565465,-82.0299088
210,Northwest 27th Avenue,33993,26.6567688,-82.0299107
209,Northwest 27th Place,33993,26.6566602,-82.0303119
217,Northwest 27th Place,33993,26.6571010,-82.0302719
231,Northwest 27th Place,33993,26.6578717,-82.0302707
303,Northwest 27th Place,33993,26.6580941,-82.0303053
232,Northwest 27th Avenue,33993,26.6578696,-82.0298921
2715,Northwest 3rd Terrace,33993,26.6590006,-82.0304843
2735,Northwest 3rd Terrace,33993,26.6590154,-82.0316806
2732,Northwest 3rd Terrace,33993,26.6584881,-82.0314598
2727,Northwest 3rd Street,33993,26.6581454,-82.0311557
2731,Northwest 3rd Street,33993,26.6581526,-82.0314615
2804,Northwest 3rd Terrace,33993,26.6584709,-82.0319487
2809,Northwest 3rd Street,33993,26.6581179,-82.0321942
2813,Northwest 3rd Street,33993,26.6581303,-82.0324389
2815,Northwest 3rd Terrace,33993,26.6589752,-82.0326348
2828,Northwest 3rd Terrace,33993,26.6584638,-82.0334193
2832,Northwest 3rd Terrace,33993,26.6584625,-82.0336680
2836,Northwest 3rd Terrace,33993,26.6584607,-82.0341381
2847,Northwest 3rd Terrace,33993,26.6589630,-82.0345949
2844,Northwest 3rd Terrace,33993,26.6584560,-82.0346617
2607,Northwest 1st Street,33993,26.6542435,-82.0279475
2611,Northwest 1st Street,33993,26.6542480,-82.0281890
2615,Northwest 1st Street,33993,26.6542365,-82.0284368
2619,Northwest 1st Street,33993,26.6542564,-82.0286940
2630,Northwest 1st Street,33993,26.6537667,-82.0293056
2624,Northwest 1st Street,33993,26.6537408,-82.0290545
216,Northwest 26th Avenue,33993,26.6567114,-82.0277364
212,Northwest 26th Avenue,33993,26.6564864,-82.0277615
204,Northwest 26th Avenue,33993,26.6560369,-82.0277651
128,Northwest 26th Avenue,33993,26.6555994,-82.0277500
227,Northwest 26th Avenue,33993,26.6573072,-82.0272054
215,Northwest 26th Avenue,33993,26.6566565,-82.0271858
211,Northwest 26th Avenue,33993,26.6564280,-82.0272040
119,Northwest 26th Avenue,33993,26.6552707,-82.0272023
123,Northwest 26th Avenue,33993,26.6555098,-82.0272152
206,Northwest 25th Avenue,33993,26.6562168,-82.0258254
214,Northwest 25th Avenue,33993,26.6566583,-82.0258634
212,Northwest 24th Place,33993,26.6564458,-82.0249060
207,Northwest 25th Avenue,33993,26.6561168,-82.0253014
203,Northwest 25th Avenue,33993,26.6558971,-82.0253401
101,Northwest 25th Avenue,33993,26.6542026,-82.0253319
100,Northwest 25th Avenue,33993,26.6542130,-82.0258747
2507,Northwest 1st Street,33993,26.6542242,-82.0262269
2620,Northwest 1st Street,33993,26.6537493,-82.0288135
2518,Northwest 1st Street,33993,26.6537378,-82.0268479
240,El Dorado Boulevard South,33991,26.6459539,-82.0241892
17,Southwest 16th Place,33991,26.6506617,-82.0079659
1624,Southwest Embers Terrace,33991,26.6508976,-82.0090732
2107,Southwest 4th Street,33991,26.6455120,-82.0173228
318,Southwest 21st Avenue,33991,26.6458043,-82.0169666
210,Southwest 21st Avenue,33991,26.6475762,-82.0169651
2017,Southwest 2nd Terrace,33991,26.6480787,-82.0164695
1915,Southwest 2nd Terrace,33991,26.6480458,-82.0137666
1907,Southwest 2nd Terrace,33991,26.6480565,-82.0132791
1815,Southwest 2nd Terrace,33991,26.6480617,-82.0127298
1739,Southwest 2nd Terrace,33991,26.6480457,-82.0116913
1617,Southwest 4th Street,33991,26.6455120,-82.0085216
1621,Southwest 4th Street,33991,26.6454618,-82.0087357
1622,Southwest 3rd Terrace,33991,26.6458388,-82.0088089
1626,Southwest 3rd Terrace,33991,26.6458417,-82.0091152
1704,Southwest 3rd Terrace,33991,26.6458524,-82.0096052
1707,Southwest 4th Street,33991,26.6454892,-82.0097304
1719,Southwest 4th Street,33991,26.6454578,-82.0104661
1223,Southwest 4th Street,33991,26.6454725,-82.0107089
1735,Southwest 4th Street,33991,26.6454698,-82.0114425
1810,Southwest 3rd Terrace,33991,26.6458746,-82.0125589
1736,Southwest 3rd Street,33991,26.6467045,-82.0115686
1731,Southwest 3rd Terrace,33991,26.6463245,-82.0111877
1716,Southwest 3rd Street,33991,26.6466840,-82.0103419
1712,Southwest 3rd Street,33991,26.6466931,-82.0100976
1715,Southwest 3rd Terrace,33991,26.6463482,-82.0102188
1711,Southwest 3rd Terrace,33991,26.6463433,-82.0099730
1707,Southwest 3rd Terrace,33991,26.6463273,-82.0097291
1703,Southwest 3rd Terrace,33991,26.6463523,-82.0094831
1625,Southwest 3rd Terrace,33991,26.6463431,-82.0089923
1616,Southwest 3rd Street,33991,26.6466952,-82.0084857
1621,Southwest 3rd Terrace,33991,26.6463197,-82.0087458
1810,Southwest 2nd Terrace,33991,26.6475399,-82.0125603
1806,Southwest 2nd Terrace,33991,26.6475784,-82.0123044
1807,Southwest 3rd Street,33991,26.6472034,-82.0122430
1801,Southwest 3rd Street,33991,26.6472073,-82.0119355
1732,Southwest 2nd Terrace,33991,26.6475608,-82.0113231
1727,Southwest 3rd Street,33991,26.6471812,-82.0109554
1723,Southwest 3rd Street,33991,26.6471776,-82.0107118
1720,Southwest 2nd Terrace,33991,26.6475488,-82.0105867
1707,Southwest 3rd Street,33991,26.6472190,-82.0097294
1702,Southwest 2nd Terrace,33991,26.6475395,-82.0094826
1628,Southwest 2nd Terrace,33991,26.6475622,-82.0092384
1625,Southwest 3rd Street,33991,26.6471955,-82.0089928
1617,Southwest 2nd Terrace,33991,26.6480220,-82.0084732
1621,Southwest 2nd Terrace,33991,26.6480329,-82.0087352
1625,Southwest 2nd Terrace,33991,26.6480319,-82.0089922
1629,Southwest 2nd Terrace,33991,26.6480417,-82.0092370
1703,Southwest 2nd Terrace,33991,26.6480705,-82.0094835
1707,Southwest 2nd Terrace,33991,26.6480439,-82.0097273
1711,Southwest 2nd Terrace,33991,26.6480435,-82.0099798
1715,Southwest 2nd Terrace,33991,26.6480349,-82.0102140
2013,Southwest 4th Street,33991,26.6454911,-82.0162220
2005,Southwest 4th Street,33991,26.6454786,-82.0157328
1937,Southwest 4th Street,33991,26.6454878,-82.0152407
1925,Southwest 4th Street,33991,26.6454999,-82.0144969
1913,Southwest 4th Street,33991,26.6454937,-82.0137672
1909,Southwest 4th Street,33991,26.6454780,-82.0135224
1901,Southwest 4th Street,33991,26.6454780,-82.0130330
1900,Southwest 3rd Terrace,33991,26.6458484,-82.0130407
1904,Southwest 3rd Terrace,33991,26.6458887,-82.0132772
1908,Southwest 3rd Terrace,33991,26.6458759,-82.0135219
1932,Southwest 3rd Terrace,33991,26.6458759,-82.0149918
2000,Southwest 3rd Terrace,33991,26.6458500,-82.0154858
2004,Southwest 3rd Terrace,33991,26.6458576,-82.0157305
2008,Southwest 3rd Terrace,33991,26.6458737,-82.0159770
2012,Southwest 3rd Terrace,33991,26.6459000,-82.0162218
2016,Southwest 3rd Terrace,33991,26.6458393,-82.0164822
2013,Southwest 3rd Terrace,33991,26.6463870,-82.0162197
2009,Southwest 3rd Terrace,33991,26.6463342,-82.0159755
2005,Southwest 3rd Terrace,33991,26.6463534,-82.0157284
1929,Southwest 3rd Terrace,33991,26.6463652,-82.0147489
1933,Southwest 3rd Terrace,33991,26.6463347,-82.0149953
1928,Southwest 3rd Street,33991,26.6467182,-82.0147631
1924,Southwest 3rd Street,33991,26.6467245,-82.0145035
1920,Southwest 3rd Street,33991,26.6467178,-82.0142544
1916,Southwest 3rd Street,33991,26.6467111,-82.0140116
1912,Southwest 3rd Street,33991,26.6467160,-82.0137662
1905,Southwest 3rd Terrace,33991,26.6463317,-82.0132765
1904,Southwest 3rd Street,33991,26.6466984,-82.0132763
1900,Southwest 2nd Terrace,33991,26.6475749,-82.0130141
1904,Southwest 2nd Terrace,33991,26.6475611,-82.0132760
1909,Southwest 3rd Street,33991,26.6472121,-82.0135216
1912,Southwest 2nd Terrace,33991,26.6475560,-82.0137575
1917,Southwest 3rd Street,33991,26.6472001,-82.0140123
2000,Southwest 2nd Terrace,33991,26.6475770,-82.0154839
1939,Southwest 3rd Street,33991,26.6472208,-82.0152389
2013,Southwest 3rd Street,33991,26.6472054,-82.0162206
2008,Southwest 2nd Terrace,33991,26.6475806,-82.0159759
1027,Northeast 14th Terrace,33909,26.6791784,-81.9513042
1023,Northeast 14th Terrace,33909,26.6791605,-81.9515451
1031,Northeast 14th Terrace,33909,26.6791938,-81.9510618
1101,Northeast 14th Terrace,33909,26.6791711,-81.9508250
1105,Northeast 14th Terrace,33909,26.6791605,-81.9505703
1109,Northeast 14th Terrace,33909,26.6791811,-81.9503231
1124,Northeast 15th Street,33909,26.6795428,-81.9493326
1212,Northeast 15th Street,33909,26.6795698,-81.9500785
1108,Northeast 15th Street,33909,26.6795523,-81.9503309
1104,Northeast 15th Street,33909,26.6795390,-81.9505665
1100,Northeast 15th Street,33909,26.6795473,-81.9508162
1032,Northeast 15th Street,33909,26.6795598,-81.9510575
1028,Northeast 15th Street,33909,26.6795445,-81.9513060
1009,Northeast 14th Terrace,33909,26.6791690,-81.9524157
1014,Northeast 15th Street,33909,26.6795727,-81.9521599
1010,Northeast 15th Street,33909,26.6795445,-81.9524087
1006,Northeast 15th Street,33909,26.6795551,-81.9526540
1002,Northeast 15th Street,33909,26.6795626,-81.9529121
926,Northeast 15th Street,33909,26.6795748,-81.9531425
925,Northeast 14th Terrace,33909,26.6791937,-81.9531467
921,Northeast 14th Terrace,33909,26.6791982,-81.9533898
1326,Northeast 10th Avenue,33909,26.6778713,-81.9532673
1026,Northeast 10th Avenue,33909,26.6774332,-81.9532499
1310,Northeast 10th Avenue,33909,26.6769913,-81.9532574
1309,Northeast 9th Place,33909,26.6765464,-81.9536401
1307,Northeast 9th Place,33909,26.6767932,-81.9536755
1311,Northeast 9th Place,33909,26.6769937,-81.9536477
1323,Northeast 9th Place,33909,26.6776543,-81.9536643
1331,Northeast 9th Place,33909,26.6780956,-81.9536173
1409,Northeast 9th Place,33909,26.6787471,-81.9536426
1420,Northeast 9th Place,33909,26.6793566,-81.9541321
1412,Northeast 9th Place,33909,26.6789245,-81.9541067
1332,Northeast 9th Place,33909,26.6781526,-81.9541638
1320,Northeast 9th Place,33909,26.6774907,-81.9541476
1312,Northeast 9th Place,33909,26.6770539,-81.9541294
1308,Northeast 9th Place,33909,26.6768315,-81.9541904
1300,Northeast 9th Place,33909,26.6763894,-81.9541594
1220,Northeast 9th Place,33909,26.6759759,-81.9541428
1421,Northeast 9th Avenue,33909,26.6793664,-81.9545520
1417,Northeast 9th Avenue,33909,26.6791461,-81.9545555
1413,Northeast 9th Avenue,33909,26.6789260,-81.9545821
1405,Northeast 9th Avenue,33909,26.6783720,-81.9545676
1333,Northeast 9th Avenue,33909,26.6781683,-81.9545479
1325,Northeast 9th Avenue,33909,26.6777154,-81.9545705
1321,Northeast 9th Avenue,33909,26.6774804,-81.9545477
1313,Northeast 9th Avenue,33909,26.6770544,-81.9545597
1305,Northeast 9th Avenue,33909,26.6766158,-81.9545696
1301,Northeast 9th Avenue,33909,26.6763927,-81.9545743
1221,Northeast 9th Avenue,33909,26.6759530,-81.9545603
918,Northeast 13th Street,33909,26.6760763,-81.9536655
922,Northeast 13th Street,33909,26.6761083,-81.9533992
926,Northeast 13th Street,33909,26.6760910,-81.9531632
1000,Northeast 13th Street,33909,26.6761006,-81.9529224
1004,Northeast 13th Street,33909,26.6761012,-81.9526681
1008,Northeast 13th Street,33909,26.6760869,-81.9524195
1012,Northeast 13th Street,33909,26.6760892,-81.9521759
1030,Northeast 13th Street,33909,26.6761030,-81.9510729
1102,Northeast 13th Street,33909,26.6760706,-81.9508268
1106,Northeast 13th Street,33909,26.6761092,-81.9505812
1110,Northeast 13th Street,33909,26.6760658,-81.9503365
1114,Northeast 13th Street,33909,26.6760693,-81.9500927
1118,Northeast 13th Street,33909,26.6760576,-81.9498500
1005,Northeast 12th Terrace,33909,26.6757286,-81.9526651
1017,Northeast 12th Terrace,33909,26.6757076,-81.9518694
1027,Northeast 12th Terrace,33909,26.6757086,-81.9513178
1101,Northeast 12th Terrace,33909,26.6756911,-81.9508270
1109,Northeast 12th Terrace,33909,26.6757116,-81.9503390
1117,Northeast 12th Terrace,33909,26.6756943,-81.9498482
1125,Northeast 12th Terrace,33909,26.6756613,-81.9493618
1017,Northeast 15th Terrace,33909,26.6808186,-81.9518800
2555,Northeast Pine Island Road,33909,26.6800111,-81.9219079
107,Northwest 24th Place,33993,26.6544560,-82.0243613
103,Northwest 24th Place,33993,26.6542357,-82.0243537
7,Northwest 24th Place,33993,26.6527464,-82.0243642
1,Northwest 24th Place,33993,26.6524874,-82.0243677
2425,Embers Parkway,33993,26.6525382,-82.0248865
2428,Northwest Embers Terrace,33993,26.6528654,-82.0251358
2436,Northwest Embers Terrace,33993,26.6528760,-82.0256228
2502,Northwest Embers Terrace,33993,26.6528750,-82.0258647
2506,Northwest Embers Terrace,33993,26.6529061,-82.0261123
2510,Northwest Embers Terrace,33993,26.6529012,-82.0263576
2514,Northwest Embers Terrace,33993,26.6529021,-82.0266041
2523,Northwest Embers Terrace,33993,26.6533886,-82.0270943
2601,Northwest Embers Terrace,33993,26.6534052,-82.0275842
2613,Northwest Embers Terrace,33993,26.6533714,-82.0283168
2511,Northwest Embers Terrace,33993,26.6533766,-82.0263466
2519,Northwest Embers Terrace,33993,26.6534024,-82.0268479
2526,Northwest Embers Terrace,33993,26.6528945,-82.0273400
2529,Embers Parkway,33993,26.6525663,-82.0273275
2612,Northwest Embers Terrace,33993,26.6529119,-82.0283187
2617,Embers Parkway,33993,26.6525685,-82.0285430
2621,Northwest Embers Terrace,33991,26.6533897,-82.0288070
2624,Northwest Embers Terrace,33993,26.6528953,-82.0290543
2507,Embers Parkway,33993,26.6525267,-82.0261151
2503,Embers Parkway,33993,26.6525175,-82.0258685
2437,Embers Parkway,33993,26.6525209,-82.0256230
328,Northwest 26th Avenue,33993,26.6591313,-82.0277851
316,Northwest 26th Avenue,33993,26.6589109,-82.0277584
304,Northwest 26th Avenue,33993,26.6582501,-82.0277536
300,Northwest 26th Avenue,33993,26.6580293,-82.0277613
231,Northwest 26th Avenue,33993,26.6575303,-82.0272151
2603,Northwest 1st Street,33993,26.6542233,-82.0277000
2600,Northwest 1st Street,33993,26.6537724,-82.0275842
235,Northwest 26th Avenue,33993,26.6577459,-82.0271941
419,Southwest Pine Island Road,33991,26.6503875,-81.9837676
2438,Southwest Embers Terrace,33991,26.6510335,-82.0251346
2635,Southwest 4th Terrace,33991,26.6447123,-82.0301991
337,Southwest 26th Avenue,33991,26.6452154,-82.0277563
328,Southwest 26th Avenue,33991,26.6459590,-82.0281686
2623,Southwest 5th Street,33991,26.6429961,-82.0294608
2640,Southwest 5th Street,33991,26.6425494,-82.0304632
2622,Southwest 5th Street,33991,26.6425392,-82.0295042
2724,Southwest 5th Street,33991,26.6425441,-82.0322938
425,Southwest Pine Island Road,33991,26.6493598,-81.9835411
309,Southwest 25th Avenue,33991,26.6453311,-82.0258414
334,Southwest 25th Avenue,33991,26.6440168,-82.0264026
2705,Southwest 4th Lane,33991,26.6438753,-82.0309376
2630,Southwest 4th Lane,33991,26.6433973,-82.0299559
2634,Southwest 4th Lane,33991,26.6433979,-82.0302025
406,Southwest 25th Place,33991,26.6439947,-82.0273476
425,Southwest 28th Place,33991,26.6430442,-82.0333746
424,Southwest 28th Place,33991,26.6430462,-82.0338872
505,Southwest 28th Place,33991,26.6425475,-82.0333920
511,Southwest 29th Avenue,33991,26.6421646,-82.0343256
2722,Southwest 3rd Lane,33991,26.6450999,-82.0311775
348,Southwest 24th Place,33991,26.6430154,-82.0260774
308,El Dorado Boulevard South,33991,26.6448873,-82.0244316
320,Southwest 24th Place,33991,26.6444573,-82.0254409
326,Southwest 24th Place,33991,26.6442377,-82.0254464
328,Southwest 24th Place,33991,26.6440219,-82.0254441
332,Southwest 24th Place,33991,26.6437821,-82.0254707
216,Southwest 29th Avenue,33991,26.6477498,-82.0348585
212,Southwest 29th Avenue,33991,26.6479785,-82.0348590
406,Southwest 29th Place,33991,26.6443515,-82.0358165
426,Southwest 30th Avenue,33991,26.6432375,-82.0367746
328,Southwest 30th Avenue,33991,26.6458773,-82.0367650
416,Southwest 28th Place,33991,26.6434883,-82.0338933
416,Southwest 28th Avenue,33991,26.6434694,-82.0329407
2913,Southwest 5th Street,33991,26.6430271,-82.0358393
427,Southwest 30th Avenue,33991,26.6432528,-82.0362589
411,Southwest 30th Avenue,33991,26.6441349,-82.0362462
1601,Southwest 15th Street,33991,26.6249888,-82.0074781
1609,Southwest 15th Street,33991,26.6249892,-82.0079839
1500,Southwest 16th Court,33991,26.6248799,-82.0087597
1404,Southwest 17th Place,33991,26.6261706,-82.0098292
1424,Southwest 17th Place,33991,26.6250782,-82.0098253
1526,Southwest 17th Place,33991,26.6230110,-82.0098066
1428,Southwest 17th Place,33991,26.6248575,-82.0098267
1525,Southwest 17th Avenue,33991,26.6230021,-82.0093242
1601,Southwest 13th Terrace,33991,26.6275615,-82.0074898
1602,Southwest 12th Lane,33991,26.6288024,-82.0074686
1714,Southwest 12th Lane,33991,26.6287968,-82.0102999
1717,Southwest 12th Lane,33991,26.6292814,-82.0105567
2701,Southwest 3rd Street,33991,26.6477637,-82.0298629
2735,Southwest 2nd Lane,33991,26.6486368,-82.0317307
2723,Southwest 2nd Lane,33991,26.6486457,-82.0309556
2703,Southwest 2nd Lane,33991,26.6486277,-82.0297214
2700,Southwest 2nd Lane,33991,26.6481584,-82.0298760
2800,Southwest 2nd Lane,33991,26.6481673,-82.0320857
2732,Southwest 2nd Lane,33991,26.6481640,-82.0318400
407,Southwest 18th Court,33991,26.6446799,-82.0115176
423,Southwest 18th Court,33991,26.6437504,-82.0115220
431,Southwest 18th Court,33991,26.6433108,-82.0115258
435,Southwest 18th Court,33991,26.6430893,-82.0115175
441,Southwest 18th Court,33991,26.6428136,-82.0115177
449,Southwest 18th Court,33991,26.6423158,-82.0115469
461,Southwest 18th Court,33991,26.6416564,-82.0115300
603,Southwest 18th Court,33991,26.6414345,-82.0115313
640,Southwest 18th Court,33991,26.6393417,-82.0120848
412,Southwest 29th Avenue,33991,26.6436866,-82.0348671
349,Southwest 29th Place,33991,26.6447913,-82.0352903
2913,Southwest 3rd Terrace,33991,26.6465735,-82.0353578
342,Southwest 28th Avenue,33991,26.6449175,-82.0329398
2906,Miracle Parkway,33914,26.6065391,-82.0353046
2822,Miracle Parkway,33914,26.6065558,-82.0340771
327,Southwest 31st Place,33991,26.6458835,-82.0383817
331,Southwest 31st Place,33991,26.6456760,-82.0383829
343,Southwest 31st Place,33991,26.6450008,-82.0383923
402,Southwest 31st Avenue,33991,26.6445697,-82.0379563
406,Southwest 31st Avenue,33991,26.6443532,-82.0379554
414,Southwest 31st Avenue,33991,26.6439096,-82.0379591
418,Southwest 31st Avenue,33991,26.6436864,-82.0379615
421,Southwest 31st Avenue,33991,26.6435658,-82.0374529
423,Southwest 31st Place,33991,26.6434703,-82.0383956
2639,Southwest 4th Terrace,33991,26.6447165,-82.0304411
2704,Southwest 5th Street,33991,26.6442614,-82.0309336
2708,Southwest 5th Street,33991,26.6442648,-82.0311848
2712,Southwest 5th Street,33991,26.6442776,-82.0314263
2705,Southwest 4th Terrace,33991,26.6447186,-82.0309345
2701,Southwest 4th Terrace,33991,26.6447061,-82.0306866
2712,Embers Parkway,33991,26.6519379,-82.0305003
2713,Southwest Embers Terrace,33991,26.6515212,-82.0305265
2717,Southwest Embers Terrace,33991,26.6515216,-82.0307721
2721,Southwest Embers Terrace,33991,26.6515229,-82.0310181
2725,Southwest Embers Terrace,33991,26.6515240,-82.0312644
2729,Southwest Embers Terrace,33991,26.6515250,-82.0315096
2733,Southwest Embers Terrace,33991,26.6515175,-82.0317549
2908,Southwest Embers Terrace,33991,26.6510397,-82.0350467
2837,Southwest Embers Terrace,33991,26.6515407,-82.0344312
2829,Southwest Embers Terrace,33991,26.6515620,-82.0339538
2800,Embers Parkway,33991,26.6519422,-82.0322149
2814,Embers Parkway,33991,26.6519245,-82.0330893
2830,Embers Parkway,33991,26.6519318,-82.0340500
429,Southwest 28th Place,33991,26.6428232,-82.0333763
428,Southwest 28th Place,33991,26.6428248,-82.0338969
515,Southwest 28th Place,33991,26.6419269,-82.0333785
415,Southwest 30th Avenue,33991,26.6439140,-82.0362570
419,Southwest 30th Avenue,33991,26.6436931,-82.0362303
423,Southwest 30th Avenue,33991,26.6434731,-82.0362392
2634,Embers Parkway,33991,26.6519527,-82.0295093
2630,Embers Parkway,33991,26.6519460,-82.0292640
2507,Southwest Embers Terrace,33991,26.6515041,-82.0260989
2514,Southwest Embers Terrace,33991,26.6510348,-82.0266172
2510,Southwest Embers Terrace,33991,26.6510151,-82.0263606
2447,Southwest Embers Terrace,33991,26.6515020,-82.0256069
2441,Southwest 1st Street,33991,26.6506538,-82.0251831
2513,Southwest 1st Street,33991,26.6506512,-82.0264864
2517,Southwest 1st Street,33991,26.6506505,-82.0267248
2525,Southwest 1st Street,33991,26.6508812,-82.0272463
2601,Southwest 1st Street,33991,26.6510671,-82.0274929
2524,Southwest 1st Street,33991,26.6502456,-82.0273241
2604,Southwest 1st Street,33991,26.6507455,-82.0279213
2702,Southwest 1st Terrace,33991,26.6501796,-82.0298313
2725,Southwest 1st Terrace,33991,26.6506870,-82.0312261
2809,Southwest 1st Terrace,33991,26.6506643,-82.0327178
1601,Southwest 14th Terrace,33991,26.6258531,-82.0074780
1613,Southwest 14th Terrace,33991,26.6258404,-82.0082292
1622,Southwest 14th Terrace,33991,26.6254085,-82.0087195
1613,Southwest 15th Street,33991,26.6250062,-82.0082283
219,El Dorado Boulevard South,33991,26.6475656,-82.0232190
235,El Dorado Boulevard South,33991,26.6466771,-82.0232912
228,El Dorado Boulevard South,33991,26.6466190,-82.0239608
224,El Dorado Boulevard South,33991,26.6468469,-82.0239472
216,El Dorado Boulevard South,33991,26.6472915,-82.0239017
212,El Dorado Boulevard South,33991,26.6475216,-82.0239135
208,El Dorado Boulevard South,33991,26.6477551,-82.0239015
204,El Dorado Boulevard South,33991,26.6479989,-82.0239018
200,El Dorado Boulevard South,33991,26.6481953,-82.0238998
2515,Southwest 2nd Terrace,33991,26.6486786,-82.0263723
2437,Southwest 2nd Terrace,33991,26.6486686,-82.0251522
2421,Southwest 2nd Terrace,33991,26.6486630,-82.0241346
222,Southwest 24th Avenue,33991,26.6473529,-82.0227563
226,Southwest 24th Avenue,33991,26.6471295,-82.0227630
234,Southwest 24th Avenue,33991,26.6468567,-82.0227652
240,Southwest 24th Avenue,33991,26.6463603,-82.0227756
244,Southwest 24th Avenue,33991,26.6461382,-82.0227759
1708,Southwest 4th Street,33991,26.6449487,-82.0098200
1703,Southwest 4th Street,33991,26.6454632,-82.0094750
1711,Southwest 4th Street,33991,26.6454746,-82.0099767
1727,Southwest 4th Street,33991,26.6454790,-82.0109559
1724,Southwest 4th Street,33991,26.6449564,-82.0108017
1728,Southwest 4th Street,33991,26.6449751,-82.0110484
1732,Southwest 4th Street,33991,26.6449748,-82.0113003
402,Southwest 18th Court,33991,26.6449943,-82.0120848
1807,Southwest 4th Street,33991,26.6454923,-82.0122401
1914,Southwest 4th Street,33991,26.6450002,-82.0139635
1917,Southwest 4th Street,33991,26.6454822,-82.0140117
1921,Southwest 4th Street,33991,26.6454819,-82.0142573
1934,Southwest 4th Street,33991,26.6450035,-82.0151982
2009,Southwest 4th Street,33991,26.6454794,-82.0159774
2113,Southwest 4th Street,33991,26.6454977,-82.0175861
2102,Southwest 4th Street,33991,26.6449913,-82.0169104
2106,Southwest 4th Street,33991,26.6449918,-82.0171559
2110,Southwest 4th Street,33991,26.6449947,-82.0174028
2121,Southwest 4th Street,33991,26.6455007,-82.0181855
2126,Southwest 4th Street,33991,26.6450116,-82.0183555
2200,Southwest 4th Street,33991,26.6450119,-82.0186268
2210,Southwest 4th Street,33991,26.6450269,-82.0191799
2214,Southwest 4th Street,33991,26.6450150,-82.0194848
2218,Southwest 4th Street,33991,26.6450142,-82.0197353
2239,Southwest 4th Street,33991,26.6455046,-82.0209690
2259,Southwest 4th Street,33991,26.6455106,-82.0222658
2252,Southwest 4th Street,33991,26.6450208,-82.0216873
2258,Southwest 4th Street,33991,26.6450215,-82.0221805
2260,Southwest 4th Street,33991,26.6450150,-82.0224221
2418,Southwest 4th Street,33991,26.6450547,-82.0237318
2409,Southwest 4th Street,33991,26.6455132,-82.0231773
2415,Southwest 4th Street,33991,26.6456140,-82.0235069
303,El Dorado Boulevard South,33991,26.6460283,-82.0234027
317,Southwest 26th Avenue,33991,26.6463366,-82.0275202
322,Southwest 26th Avenue,33991,26.6462260,-82.0280899
333,Southwest 26th Avenue,33991,26.6454460,-82.0277443
344,Southwest 26th Avenue,33991,26.6450049,-82.0282882
345,Southwest 26th Avenue,33991,26.6447681,-82.0277704
349,Southwest 26th Avenue,33991,26.6445469,-82.0277413
354,Southwest 26th Avenue,33991,26.6445204,-82.0282919
409,Southwest 26th Avenue,33991,26.6438959,-82.0277670
417,Southwest 26th Avenue,33991,26.6434484,-82.0277842
420,Southwest 26th Avenue,33991,26.6430269,-82.0282909
502,Southwest 26th Avenue,33991,26.6425886,-82.0282906
511,Southwest 26th Avenue,33991,26.6421318,-82.0277751
223,Southwest 25th Place,33991,26.6471211,-82.0263174
205,Southwest 25th Place,33991,26.6480086,-82.0262692
204,Southwest 25th Place,33991,26.6479891,-82.0268114
209,Southwest 25th Place,33991,26.6477875,-82.0262845
212,Southwest 25th Place,33991,26.6475398,-82.0268076
302,Southwest 25th Place,33991,26.6473102,-82.0267996
227,Southwest 25th Place,33991,26.6469011,-82.0263164
314,Southwest 25th Place,33991,26.6466139,-82.0269644
305,Southwest 25th Place,33991,26.6458333,-82.0266787
301,Southwest 25th Place,33991,26.6460512,-82.0266262
318,Southwest 25th Place,33991,26.6462171,-82.0271211
322,Southwest 25th Place,33991,26.6459877,-82.0271829
326,Southwest 25th Place,33991,26.6457696,-82.0272384
330,Southwest 25th Place,33991,26.6455488,-82.0272814
338,Southwest 25th Place,33991,26.6451053,-82.0273495
329,Southwest 25th Place,33991,26.6444752,-82.0268291
346,Southwest 25th Place,33991,26.6446558,-82.0273364
502,Southwest 25th Place,33991,26.6425698,-82.0273416
506,Southwest 25th Place,33991,26.6423492,-82.0273412
214,Southwest 26th Avenue,33991,26.6475392,-82.0277512
301,Southwest 26th Avenue,33991,26.6474311,-82.0272468
218,Southwest 24th Place,33991,26.6472378,-82.0249231
211,Southwest 24th Place,33991,26.6476560,-82.0244036
204,Southwest 24th Place,33991,26.6479811,-82.0249051
223,Southwest 24th Place,33991,26.6469820,-82.0243966
235,Southwest 24th Place,33991,26.6463237,-82.0245286
230,Southwest 24th Place,33991,26.6465024,-82.0250204
234,Southwest 24th Place,33991,26.6462776,-82.0251027
307,Southwest 24th Place,33991,26.6451838,-82.0248840
316,Southwest 24th Place,33991,26.6446859,-82.0254394
335,Southwest 24th Place,33991,26.6436343,-82.0249732
336,Southwest 24th Place,33991,26.6435530,-82.0255738
343,Southwest 24th Place,33991,26.6432149,-82.0251284
347,Southwest 24th Place,33991,26.6429991,-82.0253096
355,Southwest 24th Place,33991,26.6426943,-82.0256586
301,Southwest 25th Avenue,33991,26.6457643,-82.0257285
237,Southwest 25th Avenue,33991,26.6461902,-82.0255667
234,Southwest 25th Avenue,33991,26.6463436,-82.0260790
230,Southwest 25th Avenue,33991,26.6465569,-82.0259907
225,Southwest 25th Avenue,33991,26.6468420,-82.0253862
221,Southwest 25th Avenue,33991,26.6470704,-82.0253502
217,Southwest 25th Avenue,33991,26.6472913,-82.0253363
218,Southwest 25th Avenue,33991,26.6472515,-82.0258619
205,Southwest 25th Avenue,33991,26.6479834,-82.0253344
212,Southwest 25th Avenue,33991,26.6475652,-82.0258586
208,Southwest 25th Avenue,33991,26.6477857,-82.0258503
204,Southwest 25th Avenue,33991,26.6480069,-82.0258592
200,Southwest 25th Avenue,33991,26.6482333,-82.0258437
333,Southwest 25th Avenue,33991,26.6439957,-82.0258722
329,Southwest 25th Avenue,33991,26.6442121,-82.0258707
345,Southwest 25th Avenue,33991,26.6433862,-82.0262209
351,Southwest 25th Avenue,33991,26.6432333,-82.0265309
355,Southwest 25th Avenue,33991,26.6432244,-82.0268604
2527,Northwest Embers Terrace,33993,26.6534078,-82.0273463
2600,Northwest Embers Terrace,33993,26.6529012,-82.0275875
2616,Northwest Embers Terrace,33993,26.6528844,-82.0285643
2700,Northwest Embers Terrace,33993,26.6528966,-82.0298300
2701,Northwest Embers Terrace,33993,26.6534187,-82.0298197
2721,Northwest Embers Terrace,33993,26.6533928,-82.0313333
2725,Northwest Embers Terrace,33993,26.6534035,-82.0315852
2807,Northwest Embers Terrace,33993,26.6534215,-82.0320689
2810,Northwest Embers Terrace,33993,26.6529316,-82.0323189
2826,Northwest Embers Terrace,33993,26.6529125,-82.0332954
2835,Northwest Embers Terrace,33993,26.6533978,-82.0338228
2902,Northwest Embers Terrace,33993,26.6529241,-82.0347786
2807,Embers Parkway,33993,26.6525574,-82.0320696
2709,Embers Parkway,33993,26.6525837,-82.0303425
2633,Embers Parkway,33993,26.6525415,-82.0295696
2515,Embers Parkway,33993,26.6525308,-82.0266048
2731,Southwest 2nd Terrace,33991,26.6494738,-82.0315822
2707,Southwest 2nd Terrace,33991,26.6494815,-82.0301112
2704,Southwest 2nd Terrace,33991,26.6490233,-82.0299463
2700,Southwest 2nd Terrace,33991,26.6490133,-82.0297197
210,Southwest 26th Place,33991,26.6485562,-82.0289515
213,Southwest 26th Place,33991,26.6484536,-82.0283996
224,Southwest 26th Place,33991,26.6477430,-82.0289533
229,Southwest 26th Place,33991,26.6475162,-82.0284259
310,Southwest 26th Place,33991,26.6468574,-82.0291318
306,Southwest 26th Place,33991,26.6470752,-82.0290697
300,Southwest 26th Place,33991,26.6473021,-82.0289836
313,Southwest 26th Place,33991,26.6466335,-82.0286654
319,Southwest 26th Place,33991,26.6464196,-82.0287168
318,Southwest 26th Place,33991,26.6464352,-82.0292662
2804,Southwest 3rd Lane,33991,26.6451049,-82.0324505
2714,Southwest 3rd Lane,33991,26.6450822,-82.0306859
411,Southwest 26th Place,33991,26.6438874,-82.0289575
407,Southwest 26th Place,33991,26.6441126,-82.0289551
2706,Southwest 3rd Lane,33991,26.6450883,-82.0300795
2724,Southwest 4th Terrace,33991,26.6442567,-82.0321857
2709,Southwest 4th Terrace,33991,26.6447257,-82.0311780
2627,Southwest 4th Terrace,33991,26.6447138,-82.0297064
2622,Southwest 4th Terrace,33991,26.6442348,-82.0294487
2623,Southwest 4th Lane,33991,26.6438696,-82.0294584
2626,Southwest 4th Lane,33991,26.6433943,-82.0297120
2700,Southwest 4th Lane,33991,26.6434137,-82.0307006
2704,Southwest 4th Lane,33991,26.6433918,-82.0309389
2721,Southwest 4th Lane,33991,26.6438811,-82.0319266
2728,Southwest 4th Lane,33991,26.6434032,-82.0324576
2721,Southwest 5th Street,33991,26.6430423,-82.0319297
2725,Southwest 5th Street,33991,26.6430101,-82.0321918
2709,Southwest 5th Street,33991,26.6430223,-82.0311851
2627,Southwest 5th Street,33991,26.6430301,-82.0297087
2235,Southwest 24th Avenue,33991,26.6463649,-82.0221001
2208,Southwest 3rd Terrace,33991,26.6459083,-82.0191899
2220,Southwest 3rd Terrace,33991,26.6458951,-82.0199219
2224,Southwest 3rd Terrace,33991,26.6458865,-82.0201678
2228,Southwest 3rd Terrace,33991,26.6458921,-82.0204133
2244,Southwest 3rd Terrace,33991,26.6459071,-82.0213945
2248,Southwest 3rd Terrace,33991,26.6459040,-82.0216396
2252,Southwest 3rd Terrace,33991,26.6458934,-82.0218853
333,Southwest 29th Place,33991,26.6456488,-82.0352874
329,Southwest 29th Place,33991,26.6458812,-82.0352699
324,Southwest 29th Avenue,33991,26.6458778,-82.0348582
332,Southwest 29th Avenue,33991,26.6454584,-82.0348619
413,Southwest 29th Avenue,33991,26.6437108,-82.0343219
409,Southwest 29th Avenue,33991,26.6439316,-82.0343232
420,Southwest 29th Avenue,33991,26.6432233,-82.0348619
429,Southwest 29th Avenue,33991,26.6428278,-82.0343153
515,Southwest 29th Avenue,33991,26.6419352,-82.0343313
2805,Southwest 3rd Street,33991,26.6477970,-82.0323274
2801,Southwest 3rd Street,33991,26.6477837,-82.0320880
2725,Southwest 3rd Street,33991,26.6477939,-82.0313502
2817,Southwest 3rd Street,33991,26.6477855,-82.0330645
2825,Southwest 3rd Street,33991,26.6477889,-82.0335553
2712,Southwest 2nd Lane,33991,26.6481603,-82.0306124
2720,Southwest 2nd Lane,33991,26.6481491,-82.0311023
2724,Southwest 2nd Lane,33991,26.6481677,-82.0313485
2807,Southwest 2nd Lane,33991,26.6486651,-82.0325493
2812,Southwest 2nd Lane,33991,26.6481707,-82.0328176
2816,Southwest 2nd Lane,33991,26.6481657,-82.0330630
2811,Southwest 2nd Lane,33991,26.6486182,-82.0328142
2819,Southwest 2nd Lane,33991,26.6486437,-82.0333063
2828,Southwest 2nd Lane,33991,26.6481717,-82.0337990
2831,Southwest 2nd Lane,33991,26.6486308,-82.0340413
2835,Southwest 2nd Lane,33991,26.6486519,-82.0342840
2905,Southwest 2nd Lane,33991,26.6486444,-82.0347756
2913,Southwest 2nd Lane,33991,26.6486491,-82.0352668
2917,Southwest 2nd Lane,33991,26.6486277,-82.0355124
2921,Southwest 2nd Lane,33991,26.6486620,-82.0357585
2816,Southwest 2nd Terrace,33991,26.6490107,-82.0331819
2809,Southwest 2nd Terrace,33991,26.6494944,-82.0325558
2828,Southwest 2nd Terrace,33991,26.6490494,-82.0339149
2831,Southwest 2nd Terrace,33991,26.6494926,-82.0339008
2835,Southwest 2nd Terrace,33991,26.6494841,-82.0341470
2910,Southwest 2nd Terrace,33991,26.6490267,-82.0351426
2906,Southwest 2nd Terrace,33991,26.6490465,-82.0348971
2909,Southwest 2nd Terrace,33991,26.6495250,-82.0350066
2933,Southwest 2nd Terrace,33991,26.6490487,-82.0362366
421,Southwest 28th Place,33991,26.6433198,-82.0333719
338,Southwest 28th Place,33991,26.6451525,-82.0339039
337,Southwest 28th Place,33991,26.6451438,-82.0333596
412,Southwest 28th Avenue,33991,26.6437034,-82.0329371
424,Southwest 28th Avenue,33991,26.6430415,-82.0329370
2922,Southwest 5th Street,33991,26.6425972,-82.0362230
414,Southwest 30th Avenue,33991,26.6439015,-82.0367792
349,Southwest 30th Avenue,33991,26.6447973,-82.0362421
344,Southwest 30th Avenue,33991,26.6449917,-82.0367737
345,Southwest 30th Avenue,33991,26.6449974,-82.0362538
337,Southwest 30th Avenue,33991,26.6454449,-82.0362403
324,Southwest 30th Avenue,33991,26.6460922,-82.0367632
329,Southwest 31st Avenue,33991,26.6459785,-82.0374401
337,Southwest 31st Avenue,33991,26.6455359,-82.0374369
333,Southwest 31st Avenue,33991,26.6457577,-82.0374354
328,Southwest 31st Avenue,33991,26.6458260,-82.0379731
123,Southwest 31st Place,33991,26.6496082,-82.0383661
124,Southwest 31st Place,33991,26.6496136,-82.0388785
128,Southwest 31st Place,33991,26.6493929,-82.0388789
200,Southwest 31st Place,33991,26.6491728,-82.0389053
204,Southwest 31st Place,33991,26.6489516,-82.0388896
205,Southwest 31st Place,33991,26.6489491,-82.0383544
209,Southwest 31st Place,33991,26.6487287,-82.0383592
212,Southwest 31st Place,33991,26.6485099,-82.0388908
221,Southwest 31st Place,33991,26.6480671,-82.0383779
225,Southwest 31st Place,33991,26.6478459,-82.0383528
228,Southwest 31st Place,33991,26.6476271,-82.0389034
302,Southwest 31st Place,33991,26.6474065,-82.0389034
310,Southwest 31st Place,33991,26.6469656,-82.0388972
316,Southwest 31st Place,33991,26.6467245,-82.0388977
315,Southwest 31st Place,33991,26.6467424,-82.0383956
319,Southwest 31st Place,33991,26.6465219,-82.0383858
320,Southwest 31st Place,33991,26.6464141,-82.0388973
324,Southwest 31st Place,33991,26.6461929,-82.0388991
328,Southwest 31st Place,33991,26.6459637,-82.0389002
332,Southwest 31st Place,33991,26.6455705,-82.0389024
204,Southwest 31st Avenue,33991,26.6490015,-82.0379636
130,Southwest 31st Avenue,33991,26.6493326,-82.0379731
223,Southwest 31st Avenue,33991,26.6480187,-82.0374063
301,Southwest 31st Avenue,33991,26.6475236,-82.0373889
305,Southwest 31st Avenue,33991,26.6473019,-82.0373921
307,Southwest 31st Place,33991,26.6471848,-82.0383480
340,Southwest 31st Place,33991,26.6451212,-82.0389039
346,Southwest 31st Place,33991,26.6449022,-82.0389073
410,Southwest 31st Avenue,33991,26.6441301,-82.0379703
403,Southwest 31st Place,33991,26.6445724,-82.0384026
407,Southwest 31st Place,33991,26.6443529,-82.0384068
411,Southwest 31st Place,33991,26.6441309,-82.0384106
415,Southwest 31st Place,33991,26.6439076,-82.0384020
416,Southwest 31st Place,33991,26.6439292,-82.0389119
420,Southwest 31st Place,33991,26.6437081,-82.0389140
424,Southwest 31st Place,33991,26.6434861,-82.0389153
427,Southwest 31st Place,33991,26.6432502,-82.0383803
431,Southwest 31st Place,33991,26.6430286,-82.0384055
426,Southwest 31st Place,33991,26.6432654,-82.0389274
430,Southwest 31st Place,33991,26.6430445,-82.0389034
434,Southwest 31st Place,33991,26.6428240,-82.0389048
502,Southwest 31st Place,33991,26.6426018,-82.0389046
508,Southwest 31st Place,33991,26.6423279,-82.0389124
2913,Ceitus Parkway,33991,26.6419672,-82.0356254
2637,Ceitus Parkway,33991,26.6419393,-82.0303415
2803,Ceitus Parkway,33991,26.6419414,-82.0282577
345,Southwest 29th Place,33991,26.6450125,-82.0352838
344,Southwest 29th Place,33991,26.6450011,-82.0358159
344,Southwest 29th Avenue,33991,26.6447885,-82.0348469
16,Northwest 29th Avenue,33993,26.6534241,-82.0348355
3303,Southwest 8th Street,33991,26.6387810,-82.0430688
320,Southwest 31st Avenue,33991,26.6465133,-82.0379435
314,Southwest 31st Avenue,33991,26.6467371,-82.0379556
201,Southwest 31st Avenue,33991,26.6491770,-82.0374058
3117,Southwest 1st Terrace,33991,26.6500390,-82.0387315
2437,Northwest Embers Terrace,33993,26.6534109,-82.0256200
2433,Northwest Embers Terrace,33993,26.6533742,-82.0253757
2432,Northwest Embers Terrace,33993,26.6528839,-82.0253768
3004,Northwest 31st Place,33993,26.6541086,-82.0374858
28,Northwest 31st Place,33993,26.6540093,-82.0388822
22,Northwest 31st Place,33993,26.6537200,-82.0389033
18,Northwest 31st Place,33993,26.6534999,-82.0388945
3111,Northwest Embers Terrace,33993,26.6534487,-82.0383726
3103,Northwest Embers Terrace,33993,26.6534480,-82.0378894
3107,Northwest Embers Terrace,33993,26.6534547,-82.0381551
3013,Northwest Embers Terrace,33993,26.6534463,-82.0376639
3103,Northwest 1st Terrace,33993,26.6551317,-82.0379804
41,Northwest 30th Place,33993,26.6545403,-82.0371269
35,Northwest 30th Place,33993,26.6543474,-82.0369044
5,Northwest 30th Place,33993,26.6527506,-82.0365274
121,Northwest 29th Avenue,33993,26.6552510,-82.0349011
122,Northwest 29th Avenue,33993,26.6550862,-82.0354421
118,Northwest 29th Avenue,33993,26.6549013,-82.0352970
102,Northwest 29th Avenue,33993,26.6541289,-82.0349408
2804,Northwest 1st Street,33993,26.6537575,-82.0300798
2708,Northwest 1st Street,33993,26.6537645,-82.0303345
2637,Northwest 1st Street,33993,26.6542655,-82.0296876
2631,Northwest 1st Street,33993,26.6542503,-82.0294294
2616,Northwest 1st Street,33993,26.6537483,-82.0285622
2511,Northwest 1st Street,33993,26.6542381,-82.0264788
2522,Northwest 1st Street,33993,26.6537293,-82.0270814
2514,Northwest 1st Street,33993,26.6537516,-82.0266040
2432,Northwest 1st Street,33993,26.6537462,-82.0253981
2428,Northwest 1st Street,33993,26.6537380,-82.0251067
103,Northwest 29th Place,33993,26.6542780,-82.0354231
13,Northwest 29th Place,33993,26.6533848,-82.0352541
210,Northwest 25th Avenue,33993,26.6564366,-82.0258522
123,Northwest 25th Avenue,33993,26.6554545,-82.0252872
120,Northwest 25th Avenue,33993,26.6552869,-82.0258703
115,Northwest 25th Avenue,33993,26.6549524,-82.0253078
108,Northwest 25th Avenue,33993,26.6545259,-82.0258702
13,Northwest 24th Place,33993,26.6530775,-82.0243683
209,Northwest 24th Place,33993,26.6564114,-82.0243581
205,Northwest 24th Place,33993,26.6561761,-82.0243803
204,Northwest 24th Place,33993,26.6560064,-82.0249048
200,Northwest 24th Place,33993,26.6558075,-82.0249108
201,Northwest 24th Place,33993,26.6559545,-82.0243627
123,Northwest 24th Place,33993,26.6553272,-82.0243560
119,Northwest 24th Place,33993,26.6551075,-82.0243540
114,Northwest 24th Place,33993,26.6550117,-82.0248967
111,Northwest 24th Place,33993,26.6546784,-82.0243816
104,Northwest 24th Place,33993,26.6544255,-82.0249013
2828,Northwest 1st Street,33993,26.6537594,-82.0334144
2800,Northwest 1st Street,33993,26.6537651,-82.0316993
2722,Northwest 1st Street,33993,26.6537664,-82.0314542
116,Northwest 26th Place,33993,26.6552788,-82.0289639
128,Northwest 26th Place,33993,26.6559857,-82.0289493
200,Northwest 26th Place,33993,26.6562161,-82.0289613
212,Northwest 26th Place,33993,26.6568895,-82.0289420
2617,Northwest 3rd Terrace,33993,26.6589806,-82.0286813
2728,Northwest 3rd Terrace,33993,26.6585037,-82.0311578
2820,Northwest 3rd Terrace,33993,26.6584861,-82.0329287
2840,Northwest 3rd Terrace,33993,26.6584726,-82.0344069
2902,Northwest 3rd Terrace,33993,26.6584224,-82.0366319
228,Northwest 29th Place,33993,26.6576989,-82.0376262
136,Northwest 29th Place,33993,26.6557090,-82.0372315
132,Northwest 29th Place,33993,26.6554629,-82.0370225
213,Northwest 29th Place,33993,26.6556392,-82.0365197
126,Northwest 29th Place,33993,26.6552309,-82.0368992
110,Northwest 29th Place,33993,26.6545528,-82.0361582
117,Northwest 27th Place,33993,26.6552852,-82.0302813
114,Northwest 27th Place,33993,26.6550252,-82.0309150
106,Northwest 27th Place,33993,26.6545108,-82.0308950
2857,Northwest 2nd Terrace,33993,26.6568075,-82.0351040
2832,Northwest 2nd Terrace,33993,26.6567467,-82.0337571
2820,Northwest 2nd Terrace,33993,26.6567763,-82.0330218
2817,Northwest 2nd Terrace,33993,26.6572525,-82.0327698
2850,Northwest 3rd Street,33993,26.6576009,-82.0348544
2826,Northwest 3rd Street,33993,26.6575871,-82.0333939
2801,Northwest 3rd Street,33993,26.6581345,-82.0317032
2817,Northwest 3rd Street,33993,26.6581099,-82.0326845
2821,Northwest 3rd Street,33993,26.6581055,-82.0329361
2849,Northwest 3rd Street,33993,26.6580746,-82.0349061
102,Northwest 27th Avenue,33993,26.6556097,-82.0298974
130,Northwest 27th Avenue,33993,26.6561069,-82.0299004
131,Northwest 27th Avenue,33993,26.6561026,-82.0293646
202,Northwest 27th Avenue,33993,26.6563273,-82.0298736
215,Northwest 27th Avenue,33993,26.6570003,-82.0293432
219,Northwest 27th Avenue,33993,26.6572209,-82.0293459
310,Northwest 27th Avenue,33993,26.6585406,-82.0298848
2632,Northwest 1st Terrace,33993,26.6548320,-82.0296618
2618,Northwest 1st Terrace,33993,26.6548371,-82.0286590
124,Northwest 28th Court,33993,26.6552790,-82.0344685
120,Northwest 28th Court,33993,26.6550767,-82.0343211
112,Northwest 28th Court,33993,26.6546620,-82.0341203
108,Northwest 28th Court,33993,26.6544373,-82.0340800
104,Northwest 28th Court,33993,26.6542130,-82.0339739
2801,Northwest 2nd Street,33993,26.6564165,-82.0317871
134,Northwest 27th Place,33993,26.6561234,-82.0308696
214,Northwest 27th Place,33993,26.6570082,-82.0308591
223,Northwest 27th Place,33993,26.6573288,-82.0302825
213,Northwest 28th Avenue,33993,26.6569049,-82.0312819
205,Northwest 28th Avenue,33993,26.6564674,-82.0312892
121,Northwest 28th Avenue,33993,26.6553518,-82.0312905
324,Northwest 26th Avenue,33993,26.6594623,-82.0277702
311,Northwest 26th Avenue,33993,26.6586354,-82.0272048
308,Northwest 26th Avenue,33993,26.6584827,-82.0277788
228,Northwest 26th Avenue,33993,26.6573572,-82.0277720
127,Northwest 26th Avenue,33993,26.6557309,-82.0272157
231,Northwest 28th Court,33993,26.6576277,-82.0351608
210,Northwest 28th Court,33993,26.6562400,-82.0353435
4752,Northwest 40th Avenue,33993,26.7516145,-82.0540498
224,Northwest 29th Avenue,33993,26.6563669,-82.0364991
228,Northwest 29th Avenue,33993,26.6565996,-82.0365816
235,Northwest 29th Avenue,33993,26.6573311,-82.0361145
246,Northwest 29th Avenue,33993,26.6575187,-82.0366930
217,Northwest 29th Avenue,33993,26.6563407,-82.0359225
213,Northwest 29th Avenue,33993,26.6561385,-82.0357271
2821,Northwest 2nd Street,33993,26.6563786,-82.0330247
433,Southwest 31st Avenue,33991,26.6428860,-82.0374611
3018,Southwest 5th Street,33991,26.6426039,-82.0376777
3302,Southwest 7th Lane,33991,26.6397404,-82.0429071
3315,Southwest 7th Lane,33991,26.6402461,-82.0436952
3311,Southwest 7th Lane,33991,26.6402335,-82.0434338
3303,Southwest 7th Lane,33991,26.6402315,-82.0429449
3227,Southwest 7th Lane,33991,26.6402323,-82.0419678
3219,Southwest 7th Lane,33991,26.6402241,-82.0414655
716,Southwest 32nd Court,33991,26.6391462,-82.0424740
710,Southwest 32nd Court,33991,26.6393875,-82.0424842
704,Southwest 32nd Court,33991,26.6396874,-82.0424801
3426,Southwest 7th Lane,33991,26.6408319,-82.0460031
3433,Southwest 7th Lane,33991,26.6414558,-82.0458177
3429,Southwest 7th Lane,33991,26.6412712,-82.0456622
3420,Southwest 7th Lane,33991,26.6405449,-82.0457016
3417,Southwest 7th Lane,33991,26.6407793,-82.0451369
3413,Southwest 7th Lane,33991,26.6406358,-82.0449197
3405,Southwest 7th Lane,33991,26.6404100,-82.0444153
3409,Southwest 7th Lane,33991,26.6405259,-82.0446899
3410,Southwest 7th Lane,33991,26.6400755,-82.0449095
3406,Southwest 7th Lane,33991,26.6399539,-82.0446735
3402,Southwest 7th Lane,33991,26.6398651,-82.0444404
3322,Southwest 7th Lane,33991,26.6398315,-82.0441888
3318,Southwest 7th Lane,33991,26.6397930,-82.0439394
3310,Southwest 7th Lane,33991,26.6397418,-82.0434393
3306,Southwest 7th Lane,33991,26.6397447,-82.0431923
3319,Southwest 7th Lane,33991,26.6402834,-82.0440243
3227,Ceitus Parkway,33991,26.6411852,-82.0418854
3223,Ceitus Parkway,33991,26.6412046,-82.0416445
3219,Ceitus Parkway,33991,26.6411948,-82.0413987
3215,Ceitus Parkway,33991,26.6412094,-82.0411531
3211,Ceitus Parkway,33991,26.6411958,-82.0409038
3434,Southwest 7th Lane,33991,26.6411795,-82.0462882
3430,Southwest 7th Lane,33991,26.6409933,-82.0461270
3719,Ceitus Parkway,33991,26.6450938,-82.0511026
3715,Ceitus Parkway,33991,26.6451037,-82.0508545
3727,Ceitus Parkway,33991,26.6450780,-82.0515936
3731,Ceitus Parkway,33991,26.6451065,-82.0518377
3801,Ceitus Parkway,33991,26.6450895,-82.0520829
3805,Ceitus Parkway,33991,26.6451069,-82.0523359
3427,Ceitus Parkway,33991,26.6419119,-82.0448339
3421,Ceitus Parkway,33991,26.6416762,-82.0446391
3415,Ceitus Parkway,33991,26.6415571,-82.0444786
3407,Ceitus Parkway,33991,26.6414058,-82.0442584
3403,Ceitus Parkway,33991,26.6413462,-82.0440527
3317,Ceitus Parkway,33991,26.6412501,-82.0438100
3313,Ceitus Parkway,33991,26.6412062,-82.0435733
3309,Ceitus Parkway,33991,26.6412098,-82.0433249
3305,Ceitus Parkway,33991,26.6412090,-82.0430775
3239,Ceitus Parkway,33991,26.6412007,-82.0425853
3233,Ceitus Parkway,33991,26.6412023,-82.0421678
4103,Southwest 30th Avenue,33914,26.5753444,-82.0367399
4031,Southwest 30th Avenue,33914,26.5755606,-82.0367117
4100,Southwest 30th Avenue,33914,26.5754746,-82.0372966
4026,Southwest 30th Avenue,33914,26.5759031,-82.0372491
4022,Southwest 30th Avenue,33914,26.5761635,-82.0371724
3007,Southwest 40th Lane,33914,26.5763680,-82.0369486
3006,Southwest 40th Lane,33914,26.5759069,-82.0366350
3004,Southwest 40th Lane,33914,26.5758340,-82.0363254
3000,Southwest 40th Lane,33914,26.5758423,-82.0359634
3005,Southwest 40th Lane,33914,26.5763977,-82.0366554
600,Southwest 18th Court,33991,26.6414891,-82.0120745
606,Southwest 18th Court,33991,26.6412166,-82.0120515
607,Southwest 18th Court,33991,26.6412140,-82.0115346
613,Southwest 18th Court,33991,26.6409725,-82.0115375
617,Southwest 18th Court,33991,26.6406556,-82.0115380
621,Southwest 18th Court,33991,26.6404423,-82.0115378
620,Southwest 18th Court,33991,26.6404464,-82.0120708
625,Southwest 18th Court,33991,26.6402217,-82.0115326
624,Southwest 18th Court,33991,26.6401684,-82.0120709
629,Southwest 18th Court,33991,26.6400014,-82.0115379
633,Southwest 18th Court,33991,26.6397803,-82.0115472
628,Southwest 18th Court,33991,26.6399464,-82.0120640
643,Southwest 18th Court,33991,26.6392285,-82.0115196
3436,Southwest 6th Street,33991,26.6410980,-82.0465923
243,Southwest 22nd Place,33991,26.6468476,-82.0181923
247,Southwest 22nd Place,33991,26.6466242,-82.0181816
251,Southwest 22nd Place,33991,26.6464061,-82.0181946
255,Southwest 22nd Place,33991,26.6461786,-82.0181796
305,Southwest 22nd Place,33991,26.6458648,-82.0181817
244,Southwest 22nd Place,33991,26.6463337,-82.0187107
236,Southwest 22nd Place,33991,26.6467868,-82.0187275
232,Southwest 22nd Place,33991,26.6470064,-82.0187040
235,Southwest 22nd Place,33991,26.6472940,-82.0182170
229,Southwest 22nd Place,33991,26.6475293,-82.0182439
225,Southwest 22nd Place,33991,26.6477703,-82.0183695
219,Southwest 22nd Place,33991,26.6480264,-82.0186035
228,Southwest 22nd Place,33991,26.6472397,-82.0187389
224,Southwest 22nd Place,33991,26.6474927,-82.0188050
218,Southwest 22nd Place,33991,26.6476664,-82.0190164
214,Southwest 22nd Place,33991,26.6478095,-82.0192448
212,Southwest 22nd Place,33991,26.6479536,-82.0194082
211,Southwest 22nd Place,33991,26.6482861,-82.0190204
2201,Southwest 2nd Terrace,33991,26.6484101,-82.0192273
2208,Southwest 2nd Terrace,33991,26.6481462,-82.0199339
2205,Southwest 2nd Terrace,33991,26.6485248,-82.0194465
2209,Southwest 2nd Terrace,33991,26.6486071,-82.0196770
2219,Southwest 2nd Terrace,33991,26.6486593,-82.0203035
2227,Southwest 2nd Terrace,33991,26.6486674,-82.0207993
2223,Southwest 2nd Terrace,33991,26.6486813,-82.0205488
2224,Southwest 2nd Terrace,33991,26.6482048,-82.0210109
2228,Southwest 2nd Terrace,33991,26.6481675,-82.0212547
2232,Southwest 2nd Terrace,33991,26.6481863,-82.0215005
2244,Southwest 2nd Terrace,33991,26.6481983,-82.0222670
2247,Southwest 2nd Terrace,33991,26.6486654,-82.0220164
2257,Southwest 2nd Terrace,33991,26.6486604,-82.0225128
2231,Southwest 2nd Lane,33991,26.6477891,-82.0212559
2235,Southwest 2nd Lane,33991,26.6478019,-82.0214981
2239,Southwest 2nd Lane,33991,26.6478046,-82.0217394
2247,Southwest 2nd Lane,33991,26.6478058,-82.0222673
1328,Southwest 17th Avenue,33991,26.6266117,-82.0098417
1509,Southwest 17th Avenue,33991,26.6239406,-82.0093042
2926,Miracle Parkway,33914,26.6065453,-82.0365311
1708,Southwest 3rd Terrace,33991,26.6458618,-82.0098523
1712,Southwest 3rd Terrace,33991,26.6458641,-82.0100973
1720,Southwest 3rd Terrace,33991,26.6458594,-82.0105870
1716,Southwest 3rd Terrace,33991,26.6458469,-82.0103423
1723,Southwest 3rd Terrace,33991,26.6463188,-82.0107105
1727,Southwest 3rd Terrace,33991,26.6463241,-82.0109550
1801,Southwest 3rd Terrace,33991,26.6463526,-82.0119331
1739,Southwest 3rd Terrace,33991,26.6463550,-82.0116913
1728,Southwest 3rd Terrace,33991,26.6458641,-82.0110785
1732,Southwest 3rd Terrace,33991,26.6458649,-82.0113244
1736,Southwest 3rd Terrace,33991,26.6458844,-82.0115693
1807,Southwest 3rd Terrace,33991,26.6463349,-82.0122401
1811,Southwest 3rd Terrace,33991,26.6463224,-82.0125623
1901,Southwest 3rd Terrace,33991,26.6463533,-82.0130338
1913,Southwest 3rd Terrace,33991,26.6463411,-82.0137666
1917,Southwest 3rd Terrace,33991,26.6463196,-82.0140123
1920,Southwest 3rd Terrace,33991,26.6458710,-82.0142569
1921,Southwest 3rd Terrace,33991,26.6463360,-82.0142751
1928,Southwest 3rd Terrace,33991,26.6458977,-82.0147481
1924,Southwest 3rd Terrace,33991,26.6458745,-82.0145022
1923,Southwest 3rd Terrace,33991,26.6463417,-82.0145033
2001,Southwest 3rd Terrace,33991,26.6463529,-82.0154842
2017,Southwest 3rd Terrace,33991,26.6463398,-82.0164666
214,Southwest 21st Avenue,33991,26.6473548,-82.0169946
206,Southwest 21st Avenue,33991,26.6478214,-82.0169569
227,Southwest 22nd Court,33991,26.6469955,-82.0191344
231,Southwest 22nd Court,33991,26.6467748,-82.0191554
239,Southwest 22nd Court,33991,26.6463366,-82.0191141
235,Southwest 22nd Court,33991,26.6465448,-82.0191434
221,Southwest 22nd Court,33991,26.6474454,-82.0193405
2203,Southwest 2nd Lane,33991,26.6476032,-82.0195516
2207,Southwest 2nd Lane,33991,26.6476913,-82.0197534
2215,Southwest 2nd Lane,33991,26.6478074,-82.0202722
2223,Southwest 2nd Lane,33991,26.6478190,-82.0207638
1917,Southwest 10th Terrace,33991,26.6337697,-82.0150335
1629,Southwest 12th Terrace,33991,26.6301429,-82.0091905
1618,Southwest 12th Terrace,33991,26.6296433,-82.0084569
1614,Southwest 12th Terrace,33991,26.6296618,-82.0082095
1610,Southwest 12th Terrace,33991,26.6296561,-82.0079673
1601,Southwest 12th Terrace,33991,26.6301048,-82.0074676
1624,Southwest 12th Lane,33991,26.6287953,-82.0088250
1608,Southwest 12th Lane,33991,26.6288020,-82.0077954
1707,Southwest 12th Lane,33991,26.6292600,-82.0099321
1612,Southwest 13th Terrace,33991,26.6270992,-82.0081046
1908,Southwest 3rd Street,33991,26.6467459,-82.0135198
1901,Southwest 3rd Street,33991,26.6472080,-82.0130204
1905,Southwest 3rd Street,33991,26.6471878,-82.0132756
1900,Southwest 3rd Street,33991,26.6467221,-82.0130154
1810,Southwest 3rd Street,33991,26.6467303,-82.0125472
1735,Southwest 3rd Street,33991,26.6471836,-82.0114462
1724,Southwest 3rd Street,33991,26.6466955,-82.0108327
1732,Southwest 3rd Street,33991,26.6467336,-82.0113237
1728,Southwest 3rd Street,33991,26.6467277,-82.0110792
1715,Southwest 3rd Street,33991,26.6471857,-82.0102153
1629,Southwest 3rd Street,33991,26.6472133,-82.0092382
1704,Southwest 3rd Street,33991,26.6466995,-82.0096063
1700,Southwest 3rd Street,33991,26.6467140,-82.0093608
1626,Southwest 3rd Street,33991,26.6467198,-82.0091153
1617,Southwest 3rd Street,33991,26.6471734,-82.0084964
1621,Southwest 3rd Street,33991,26.6471789,-82.0087387
1615,Southwest 3rd Terrace,33991,26.6463168,-82.0085026
1629,Southwest 3rd Terrace,33991,26.6463497,-82.0092367
1616,Southwest 3rd Terrace,33991,26.6458608,-82.0085025
1622,Southwest 3rd Street,33991,26.6466949,-82.0088095
1920,Southwest 2nd Terrace,33991,26.6475806,-82.0142570
1924,Southwest 2nd Terrace,33991,26.6475809,-82.0145024
1928,Southwest 2nd Terrace,33991,26.6475706,-82.0147477
1936,Southwest 2nd Terrace,33991,26.6475964,-82.0152393
2001,Southwest 2nd Terrace,33991,26.6480812,-82.0154432
2005,Southwest 2nd Terrace,33991,26.6480522,-82.0157320
2012,Southwest 2nd Terrace,33991,26.6475894,-82.0162208
2016,Southwest 2nd Terrace,33991,26.6475859,-82.0164659
450,Southwest 18th Court,33991,26.6422503,-82.0120582
446,Southwest 18th Court,33991,26.6425409,-82.0120680
456,Southwest 18th Court,33991,26.6419995,-82.0120622
434,Southwest 18th Court,33991,26.6431987,-82.0120654
1921,Southwest 3rd Street,33991,26.6471756,-82.0142624
1927,Southwest 3rd Street,33991,26.6471974,-82.0145031
2001,Southwest 3rd Street,33991,26.6472367,-82.0154835
1931,Southwest 3rd Street,33991,26.6472034,-82.0147480
1935,Southwest 3rd Street,33991,26.6471930,-82.0149960
2009,Southwest 3rd Street,33991,26.6471998,-82.0159757
2017,Southwest 3rd Street,33991,26.6472101,-82.0164678
1932,Southwest 3rd Street,33991,26.6467425,-82.0149955
1952,Southwest 3rd Street,33991,26.6467437,-82.0152035
2000,Southwest 3rd Street,33991,26.6467305,-82.0154840
2004,Southwest 3rd Street,33991,26.6467293,-82.0157310
2016,Southwest 3rd Street,33991,26.6467254,-82.0164818
449,Southwest 19th Avenue,33991,26.6423622,-82.0125133
445,Southwest 19th Avenue,33991,26.6425859,-82.0125034
436,Southwest 19th Avenue,33991,26.6431378,-82.0130752
432,Southwest 19th Avenue,33991,26.6433601,-82.0130771
431,Southwest 19th Avenue,33991,26.6434232,-82.0124853
428,Southwest 19th Avenue,33991,26.6435515,-82.0130616
425,Southwest 19th Avenue,33991,26.6436748,-82.0125097
411,Southwest 19th Avenue,33991,26.6444572,-82.0125150
414,Southwest 19th Avenue,33991,26.6443480,-82.0130616
408,Southwest 19th Avenue,33991,26.6446343,-82.0130489
26,Southwest 16th Place,33991,26.6501536,-82.0085238
22,Southwest 16th Place,33991,26.6503971,-82.0085270
1620,Southwest Embers Terrace,33991,26.6507728,-82.0087891
1619,Southwest Embers Terrace,33991,26.6512612,-82.0086916
1611,Southwest Embers Terrace,33991,26.6511643,-82.0081724
13,Southwest 16th Place,33991,26.6509134,-82.0079774
1616,Southwest 2nd Terrace,33991,26.6475705,-82.0084786
1620,Southwest 2nd Terrace,33991,26.6475723,-82.0087310
1624,Southwest 2nd Terrace,33991,26.6475789,-82.0089912
1716,Southwest 2nd Terrace,33991,26.6475625,-82.0103409
1727,Southwest 2nd Terrace,33991,26.6480530,-82.0109560
1724,Southwest 2nd Terrace,33991,26.6475640,-82.0108316
1736,Southwest 2nd Terrace,33991,26.6475815,-82.0115673
1740,Southwest 2nd Terrace,33991,26.6475884,-82.0118138
1802,Southwest 2nd Terrace,33991,26.6475730,-82.0120591
1911,Southwest 2nd Terrace,33991,26.6480425,-82.0135260
1916,Southwest 2nd Terrace,33991,26.6475804,-82.0140110
1919,Southwest 2nd Terrace,33991,26.6480441,-82.0140167
1923,Southwest 2nd Terrace,33991,26.6480628,-82.0142624
1333,Santa Barbara Boulevard,33991,26.6273986,-81.9720021
1321,Northeast 24th Avenue,33909,26.6797728,-81.9236639
1701,Four Mile Cove Parkway,33990,26.6183219,-81.9374181
2489,Diplomat Pkwy E,33909,26.6858321,-81.9202546
