House number,Street name,Postal code,Latitude,Longitude
1857,High Street,33916,26.6436833,-81.8511967
2182,Mitchell Court,33916,26.6382730,-81.8392380
2210,Widman Way,33901,26.6395205,-81.8682054
10091a,McGregor Boulevard,33919,26.5960984,-81.8903018
1815-1,Fowler Street,33901,26.6428511,-81.8632453
3800,Michigan Ave,33916,26.6472083,-81.8389124
2189,Ortiz Avenue,33905,26.6194669,-81.8089089
2635,Cortez Boulevard,33901,26.6284401,-81.8774328
2776,Cleveland Avenue,33901,26.6277980,-81.8740854
1840,Maravilla Avenue,33901,26.6151230,-81.8752472
1700,Mathew Dr,33907,26.5891907,-81.8770523
1618,South Drive,33907,26.5886771,-81.8791819
1750,Mathew Dr,33907,26.5892098,-81.8764139
4125,Cleveland Avenue,33901,26.6011009,-81.8694356
3265,Doctor Martin Luther King Junior Boulevard,33916,26.6413538,-81.8471997
1035,Terry Avenue,33916,26.6575940,-81.8444904
2980,Edison Avenue,33916,26.6334031,-81.8526798
1589,Colonial Boulevard,33907,26.5972501,-81.8818422
4308,Yale Court,33901,26.6007336,-81.8795078
4101,Princeton Street,33901,26.6018693,-81.8782161
3150,Winkler Avenue,33916,26.6043679,-81.8482082
3300,Marion Street,33916,26.6554186,-81.8442111
2201,Edison Avenue,33901,26.6335525,-81.8673924
4312,Michigan Ave,33905,26.6486715,-81.8253852
3150,Hanson Street,33916,26.6227677,-81.8484515
2002,West First Street,33901,26.6420548,-81.8744844
2250,Widman Way,33901,26.6392263,-81.8672495
5264,Clayton Court Suite 4,33907,26.5830485,-81.8753866
4724,South Cleveland Avenue,33907,26.5928624,-81.8724915
3566,Fowler Street,33901,26.6121843,-81.8624390
3251,King Street,33916,26.6544264,-81.8470918
3247,King Street,33916,26.6542036,-81.8471296
3239,King Street,33916,26.6541939,-81.8473387
3232,King Street,33916,26.6533643,-81.8477043
3226,King Street,33916,26.6537816,-81.8479280
3230,King Street,33916,26.6537470,-81.8477383
3210,King Street,33916,26.6537606,-81.8483042
4202,Glenwood Avenue,33905,26.6670277,-81.8277275
3850,Colonial Boulevard,33966,26.5991082,-81.8324143
11041,Colonial Boulevard,33905,26.6181989,-81.7694938
1793,Fowler Street,33901,26.6430459,-81.8633947
8081,Dani Drive,33912,26.6095956,-81.8105091
9371,Ben C Pratt Six Mile Cypress Pkwy,33966-6536,26.6060607,-81.8078430
3236,Forum Boulevard,33905,26.6176833,-81.7985016
3254,Forum Boulevard,33905,26.6168920,-81.7988664
10580,Colonial Boulevard,33913,26.6111183,-81.7834340
1514,First Street,33901,26.6437043,-81.8707623
1520,Hendry Street,33901,26.6438978,-81.8696971
1508,Hendry Street,33901,26.6441385,-81.8698048
1801,Boy Scout Drive,33907,26.5826950,-81.8761779
2248,First Street,33901,26.6440918,-81.8694749
2250,First Street,33901,26.6443450,-81.8695316
2252,First Street,33901,26.6443678,-81.8694897
2256,First Street,33901,26.6444125,-81.8694124
2262,First Street,33901,26.6444840,-81.8692660
2266,First Street,33901,26.6445231,-81.8691996
2270,First Street,33901,26.6445531,-81.8691459
2272,First Street,33901,26.6445800,-81.8691022
2278,First Street,33901,26.6446263,-81.8689921
2282,First Street,33901,26.6446995,-81.8688875
1500,Jackson Street,33901,26.6445897,-81.8686792
1516,Jackson Street,33901,26.6444393,-81.8685819
1524,Jackson Street,33901,26.6443352,-81.8685282
1528,Jackson Street,33901,26.6442751,-81.8685009
1532,Jackson Street,33901,26.6441954,-81.8684709
1534,Jackson Street,33901,26.6441450,-81.8684418
2277,Main Street,33901,26.6439198,-81.8684927
2261,Main Street,33901,26.6437807,-81.8687893
2265,Main Street,33901,26.6438076,-81.8687329
2207,First Street,33901,26.6441563,-81.8705536
1415,Dean Street,33901,26.6443044,-81.8707020
2206,Bay Street,33901,26.6445023,-81.8707984
2235,First Street,33901,26.6445191,-81.8700436
2231,First Street,33901,26.6443501,-81.8701071
2229,First Street,33901,26.6443556,-81.8701798
2225,First Street,33901,26.6442670,-81.8703140
2247,First Street,33901,26.6445702,-81.8697359
2263,First Street,33901,26.6447211,-81.8694401
2265,First Street,33901,26.6447655,-81.8693697
2269,First Street,33901,26.6448092,-81.8692785
2273,First Street,33901,26.6448548,-81.8691867
2277,First Street,33901,26.6448830,-81.8691310
2281,First Street,33901,26.6449567,-81.8690130
2285,First Street,33901,26.6450479,-81.8689455
2268,Bay Street,33901,26.6451900,-81.8693895
1545,Jackson Street,33901,26.6441131,-81.8681320
1415,Hendry Street,33901,26.6448458,-81.8697243
2400,First Street,33901,26.6451257,-81.8678442
2400,First Street,33901,26.6450022,-81.8677664
1651,Lee Street,33901,26.6443226,-81.8670724
2401,First Street,33901,26.6455605,-81.8680588
2401,First Street,33901,26.6455950,-81.8679596
2401,First Street,33901,26.6456299,-81.8678960
2423,First Street,33901,26.6457035,-81.8677541
2425,First Street,33901,26.6457264,-81.8677097
2429,First Street,33901,26.6457384,-81.8676520
2439,First Street,33901,26.6458809,-81.8674506
2443,First Street,33901,26.6459012,-81.8674091
2449,First Street,33901,26.6459294,-81.8673507
2451,First Street,33901,26.6459753,-81.8672533
1401,Lee Street,33901,26.6458539,-81.8682453
2402,Bay Street,33901,26.6458815,-81.8681353
2401,First Street,33901,26.6459234,-81.8680468
2242,Main Street,33901,26.6435015,-81.8688773
1601,Hendry Street,33901,26.6434177,-81.8690489
1617,Hendry Street,33901,26.6431645,-81.8689176
1617,Hendry Street,33901,26.6431353,-81.8689003
1617,Hendry Street,33901,26.6431043,-81.8688811
1631,Hendry Street,33901,26.6428640,-81.8687448
1635,Hendry Street,33901,26.6428186,-81.8687209
1637,Hendry Street,33901,26.6427828,-81.8687009
2233,Second Street,33901,26.6427064,-81.8685291
3114,Cleveland Avenue,33901,26.6193463,-81.8730644
2315,Dr Martin Luther King Boulevard,33901,26.6412165,-81.8663632
9390,Dynasty Drive,33905,26.6137862,-81.8013533
1716,Fowler Street,33901,26.6442083,-81.8646599
1716,Fowler Street,33901,26.6441960,-81.8646832
2011,Bayside Parkway,33901,26.6400123,-81.8757333
2360,West First Street,33901,26.6360575,-81.8810102
1901,Altamont Avenue,33901,26.6392839,-81.8788757
2220,West First Street,33901,26.6384702,-81.8791503
2301,West First Street,33901,26.6364092,-81.8800075
4568,Watercolor Way,33966,26.6001724,-81.8244058
4408,Waterscape Lane,33966,26.6005417,-81.8239552
4404,Waterscape Lane,33966,26.6004506,-81.8239498
4568,Watercolor Way,33966,26.6000620,-81.8244004
3910,Cleveland Avenue,33901,26.6051721,-81.8721439
3707,Cleveland Avenue,33901,26.6086449,-81.8715951
2829,Ford Street,33916,26.6244587,-81.8475978
2220,Dr Martin Luther King Jr Blvd,33901,26.6406179,-81.8679520
2270,1st St,33901,26.6444462,-81.8690636
3581,Fowler Street,33901,26.6109970,-81.8610596
1533,Hendry Street,33901,26.6437105,-81.8690882
3525,Fowler Street,33901,26.6129460,-81.8611952
4383,Colonial Boulevard,33966,26.6084483,-81.8250713
3398,Forum Boulevard,33905,26.6148829,-81.7974131
3398,Forum Boulevard,33905,26.6149375,-81.7974295
3398,Forum Boulevard,33905,26.6149883,-81.7974527
3398,Forum Boulevard,33905,26.6150399,-81.7974665
3398,Forum Boulevard,33905,26.6151437,-81.7975044
3398,Forum Boulevard,33905,26.6151953,-81.7975250
3398,Forum Boulevard,33905,26.6153360,-81.7973063
3398,Forum Boulevard,33905,26.6152337,-81.7972553
3398,Forum Boulevard,33905,26.6151738,-81.7972349
3398,Forum Boulevard,33905,26.6150721,-81.7971897
3398,Forum Boulevard,33905,26.6150167,-81.7971715
10580,Colonial Boulevard,33913,26.6111885,-81.7839957
9350,Dynasty Drive,33905-5574,26.6155611,-81.8017894
9380,Dynasty Drive,33905,26.6143612,-81.8015266
3350,Forum Boulevard,33905,26.6155446,-81.7963272
8293,Dani Drive,33966,26.6114910,-81.8107022
8291,Dani Drive,33966,26.6121816,-81.8105695
2776,Cleveland Avenue,33901,26.6282139,-81.8740593
201,Cleveland Avenue,33901,26.6423928,-81.8737045
2200,Dr. Martin Luther King Jr. Boulevard,33901,26.6405320,-81.8686076
3268,Forum Boulevard,33905,26.6160171,-81.7995255
3260,Forum Boulevard,33905,26.6162377,-81.7992439
3065,Cranford Avenue,33901,26.6206788,-81.8576378
5781,Lee Blvd,33971,26.6184470,-81.7651921
1617,Hendry St,33901,26.6431642,-81.8687659
10650,Metro Parkway,33966,26.5884863,-81.8543618
2531,Katherine Street,33901,26.6275500,-81.8613273
2161,McGregor Boulevard,33901,26.6372217,-81.8765775
5781 #201,Lee Boulevard,33971,26.6190555,-81.7653482
2464,Second Street,33901,26.6443640,-81.8650908
1811,Royal Palm Avenue,33901,26.6428130,-81.8645195
2158,Colonial Boulevard,33907,26.5959430,-81.8689434
1400,Colonial Boulevard,33907,26.5954583,-81.8865840
2031,Jackson Street,33901,26.6400440,-81.8661146
4985,Eastwood Greens Street,33905,26.6302641,-81.8125519
33,Patio De Leon,33901,26.6436879,-81.8701379
8947,Colonial Center Drive,33905,26.6142897,-81.8077645
4650,South Cleveland Avenue,33907,26.5940878,-81.8746402
4004,Cleveland Avenue,33901-9002,26.6039305,-81.8724493
9345,Ben C Pratt Six Mile Cypress Parkway,33966,26.6074501,-81.8095735
1412,Dean Street,33901-2804,26.6442710,-81.8708941
34,Barkley Circle,33907,26.5873708,-81.8832863
3049,Cleveland Avenue,33901,26.6212615,-81.8713472
3236,Forum Boulevard,33913,26.6176881,-81.7986111
2420,Concorde Drive,33901,26.6033884,-81.8636329
2325,East Mall Drive,33901,26.6003557,-81.8652416
3033,Winkler Avenue,33916,26.6054820,-81.8496621
1924,Commercial Drive,33901,26.6027869,-81.8735445
3817,Kelly Street,33901,26.6064196,-81.8732861
4020,Evans Avenue,33901,26.6040490,-81.8602194
5237,Summerlin Commons Boulevard Suite 114,33907,26.5796165,-81.8782204
3268,Forum Boulevard,33905,26.6159774,-81.7995868
5313,Dr. Martin Luther King Jr. Boulevard,33905,26.6378240,-81.8064549
2655,Meadow Ln,33901,26.6210965,-81.8586288
2267,First Street,33901,26.6448285,-81.8693443
3050,Champion Ring Road,33905,26.6304105,-81.8029506
3677,Central Ave Suite B,33901,26.6091749,-81.8634289
2101,Edwards Drive,33901,26.6453792,-81.8728662
2000,West First Street,33901,26.6430525,-81.8739881
4600,"Summerlin Road, Suite C-2-463",33919,26.5952470,-81.8851799
1400,Colonial Boulevard,33907,26.5955775,-81.8871086
1567,Hayley Lane,33907,26.5832705,-81.8806508
2835,Powell Street,33901,26.6257753,-81.8608796
1550,Matthew Drive,33907,26.5894985,-81.8820923
10461,Six Mile Cypress Parkway,33966,26.5940208,-81.8106878
2151,Johnson Street,33901,26.6400222,-81.8733381
2840,Winkler Avenue,33916,26.6040749,-81.8528646
11145,Sierra Palm Ct,33966,26.5799015,-81.8256788
2855,Colonial Blvd,33966,26.5996895,-81.8535743
10300,Botanica Lakes Boulevard,33913,26.5803101,-81.7868615
4125,Cleveland Avenue,33901,26.6018789,-81.8683606
3402,Forum Boulevard,33905,26.6140813,-81.7985544
9350,Dynasty Drive,33905,26.6155797,-81.8017744
3398,Forum Boulevard,33905,26.6151135,-81.7973676
3427,Forum Boulevard,33905,26.6142750,-81.7957966
4770,Colonial Boulevard,33966,26.6106888,-81.8140884
10654,Colonial Boulevard,33913,26.6120145,-81.7815703
10672,Colonial Boulevard,33913,26.6121479,-81.7804531
5781,Lee Boulevard,33971-6337,26.6183272,-81.7650982
11533,State Road 82,33913-2600,26.6161154,-81.7641639
11300,SR 82,33905,26.6186946,-81.7690985
1618,South Dr,33907,26.5879118,-81.8788036
1501,Raleigh St,33916,26.6517778,-81.8494241
3708,Nelson Tillis Boulevard,33916,26.6436676,-81.8375022
3702,Nelson Tillis Boulevard,33916,26.6440608,-81.8357480
3706,Nelson Tillis Boulevard,33916,26.6432883,-81.8368125
3710,Nelson Tillis Boulevard,33916,26.6440707,-81.8376089
3703,Nelson Tillis Boulevard,33916,26.6433283,-81.8388771
3705,Nelson Tillis Boulevard,33916,26.6435148,-81.8393054
3707,Nelson Tillis Boulevard,33916,26.6442780,-81.8397027
3706,Nelson Tillis Boulevard,33916,26.6433543,-81.8365319
3711,Nelson Tillis Boulevard,33916,26.6450015,-81.8388891
3702,Nelson Tillis Boulevard,33916,26.6440537,-81.8363188
3709,Nelson Tillis Boulevard,33916,26.6450592,-81.8393361
3702,Nelson Tillis Boulevard,33916,26.6441124,-81.8360383
3704,Nelson Tillis Boulevard,33916,26.6437097,-81.8356712
3701,Nelson Tillis Boulevard,33916,26.6437682,-81.8388661
3704,Nelson Tillis Boulevard,33916,26.6437004,-81.8362396
3704,Nelson Tillis Boulevard,33916,26.6436491,-81.8359543
3706,Nelson Tillis Boulevard,33916,26.6433482,-81.8371011
2000,Cranford ave,33916,26.6404396,-81.8593708
1815-4,Fowler Street,33901,26.6425320,-81.8628668
1815-2,Fowler Street,33901,26.6427191,-81.8631651
1815,Fowler Street,33901,26.6427496,-81.8629950
1815-3,Fowler Street,33901,26.6426011,-81.8630606
2264,Winkler Avenue,33901,26.6037785,-81.8663541
2244,Winkler Avenue,33901,26.6037865,-81.8671917
2201,Edison Avenue,33901,26.6343115,-81.8677169
10350,Botanica Lakes Boulevard,33913,26.5809969,-81.7845954
2909,Blount St,33916,26.6436480,-81.8537570
1700,Matthew Dr,33907,26.5893697,-81.8770172
1750,Matthew Dr,33907,26.5894317,-81.8763751
5170,South Cleveland Avenue,33907,26.5852411,-81.8750134
2665,Ortiz Ave,33905,26.6298650,-81.8103323
3710,Metro Parkway,33916,26.6089360,-81.8519599
3003,Palmetto Oak Drive,33916,26.6106330,-81.8506393
3621,Pine Oak Circle,33916,26.6094788,-81.8488105
3709,Metro Parkway,33916,26.6087822,-81.8500484
3643,Pine Oak Circle,33916,26.6113356,-81.8501138
3629,Pine Oak Circle,33916,26.6100218,-81.8485259
3646,Pine Oak Circle,33916,26.6116595,-81.8511613
3636,Pine Oak Circle,33916,26.6108959,-81.8494123
3617,Pine Oak Circle,33916,26.6096006,-81.8502801
3809,Metro Parkway,33916,26.6066798,-81.8485620
3739,Metro Parkway,33916,26.6077670,-81.8503525
3701,Metro Parkway,33916,26.6086433,-81.8505860
3612,Pine Oak Circle,33916,26.6098560,-81.8511101
3616,Pine Oak Circle,33916,26.6092611,-81.8504744
3730,Metro Parkway,33916,26.6089848,-81.8528520
3637,Pine Oak Circle,33916,26.6110077,-81.8498973
3635,Pine Oak Circle,33916,26.6104805,-81.8495420
3771,Metro Pkwy,33916,26.6071915,-81.8483294
3610,Pine Oak Circle,33916,26.6103781,-81.8511510
3720,Metro Parkway,33916,26.6092299,-81.8522835
3779,Metro Pkwy,33916,26.6073788,-81.8475274
3810,Metro Parkway,33916,26.6077218,-81.8522540
3736,Metro Parkway,33916,26.6086044,-81.8538076
3790,Metro Parkway,33916,26.6069929,-81.8514553
3800,Metro Parkway,33916,26.6073953,-81.8517396
3605,Cedar Oak Drive,33916,26.6099747,-81.8489389
3747,Metro Pkwy,33916,26.6079510,-81.8493148
3008,Palmetto Oak Drive,33916,26.6099984,-81.8501391
3627,Pine Oak Circle,33916,26.6095492,-81.8483973
3750,Metro Parkway,33916,26.6078875,-81.8529939
3717,Metro Parkway,33916,26.6086310,-81.8497101
3647,Pine Oak Circle,33916,26.6113255,-81.8506596
3740,Metro Parkway,33916,26.6084617,-81.8530382
3769,Metro Parkway,33916,26.6074157,-81.8489986
3766,Metro Parkway,33916,26.6067743,-81.8537717
3638,Pine Oak Circle,33916,26.6114655,-81.8495145
3700,Metro Parkway,33916,26.6084264,-81.8519430
3650,Pine Oak Circle,33916,26.6111762,-81.8512121
3033,Winkler Avenue,33916,26.6054458,-81.8494841
3632,Pine Oak Circle,33916,26.6105522,-81.8489925
3002,Palmetto Oak Drive,33916,26.6102895,-81.8505797
3614,Pine Oak Circle,33916,26.6094171,-81.8509619
3618,Pine Oak Circle,33916,26.6092602,-81.8499206
3746,Metro Parkway,33916,26.6079934,-81.8537896
3756,Metro Parkway,33916,26.6073940,-81.8537899
3644,Pine Oak Circle,33916,26.6116735,-81.8505952
3620,Pine Oak Circle,33916,26.6092565,-81.8493641
3642,Pine Oak Circle,33916,26.6116828,-81.8500298
3005,Palmetto Oak Drive,33916,26.6106385,-81.8500873
3604,Cedar Oak Drive,33916,26.6099967,-81.8493285
3721,Metro Parkway,33916,26.6086054,-81.8491484
3624,Pine Oak Circle,33916,26.6089601,-81.8485257
3781,Metro Parkway,33916,26.6068373,-81.8494160
3630,Pine Oak Circle,33916,26.6103625,-81.8484802
3811,Metro Pkwy,33916,26.6066928,-81.8474541
3760,Metro Parkway,33916,26.6073139,-81.8529822
3770,Metro Parkway,33916,26.6068853,-81.8526588
3009,Palmetto Oak Drive,33916,26.6100196,-81.8497574
3613,Pine Oak Circle,33916,26.6098878,-81.8507255
3751,Metro Parkway,33916,26.6073154,-81.8499029
3655,Pine Oak Circle,33916,26.6109420,-81.8507855
3780,Metro Parkway,33916,26.6069018,-81.8519922
4820,South Cleveland Avenue,33907,26.5904928,-81.8725124
2789,Ortiz Avenue,33905,26.6198200,-81.8078080
2789,Ortiz Avenue,33905,26.6196119,-81.8079199
2789,Ortiz Avenue,33905,26.6196398,-81.8092393
4712,Colonial Blvd,33966,26.6119575,-81.8148959
4690,Colonial Boulevard,33966,26.6112456,-81.8161317
4738,Colonial Boulevard,33966,26.6121523,-81.8143398
4752,Colonial Boulevard,33966,26.6120135,-81.8137802
9250,Ben C Pratt Six Mile Cypress Pkwy,33966,26.6095486,-81.8119906
8393,Dani Drive,33966,26.6117135,-81.8107020
8389,Dani Drive,33966,26.6121308,-81.8092393
9310,Ben C Pratt Six Mile Cypress Pkwy,33912,26.6085369,-81.8119857
9001,Rolfes Rd,33966,26.6118325,-81.8086842
8341,Dani Drive,33966,26.6120747,-81.8099251
9330,Six Mile Parkway,33912,26.6080040,-81.8119843
9002,Rolfes Rd,33966,26.6120253,-81.8074854
8291,Dani Drive,33966,26.6114817,-81.8107017
9002,Rolfes Rd,33966,26.6120509,-81.8077009
8041,Dani Dr,33966,26.6073354,-81.8104148
8081,Dani Dr,33966,26.6096102,-81.8105084
8243,Dani Dr,33966,26.6110397,-81.8104579
8177,Dani Drive,33966,26.6101824,-81.8105483
9660,SR 82,33905,26.6328524,-81.7993362
9160,Forum Corporate Pkwy,33905,26.6265302,-81.8040881
2600,Champion Ring Road,33905,26.6328557,-81.8016798
4300,Solomon Boulevard,33901,26.5993351,-81.8667257
2675,Ortiz Ave,33905,26.6280327,-81.8101374
1300,Lee St,33901,26.6476629,-81.8695954
2423,Edwards Drive,33901,26.6473627,-81.8685804
9800,Buckingham Rd,33905,26.6348744,-81.7574158
2805,Colonial Blvd,33966,26.5996520,-81.8551877
2200,Jacksonville Street,33916,26.6378297,-81.8274738
4301,Edison Ave,33916,26.6350518,-81.8262050
3040,Oasis Grand Boulevard,33916,26.6549189,-81.8547631
3000,Oasis Grand Boulevard,33916,26.6543268,-81.8541795
4750,Winkler Ave,33966,26.5994797,-81.8161565
4600,Challenger Blvd,33966,26.6026060,-81.8166811
3265,Doctor Martin Luther King Boulevard,33901,26.6419745,-81.8472481
3406,Palm Beach Boulevard,33916,26.6575578,-81.8436154
3405,Marion Street,33916,26.6559763,-81.8441534
3410,Palm Beach Boulevard,33916,26.6580698,-81.8433144
4427,Cleveland Avenue,33901,26.5982309,-81.8711195
2035,Colonial Boulevard,33901,26.5975470,-81.8710189
4400,Solomon Blvd,33901,26.5983332,-81.8664493
4003,Cleveland Avenue,33901,26.6038762,-81.8710515
4429,Cleveland Ave,33901,26.5980852,-81.8694138
4455,Cleveland Avenue,33901,26.5975041,-81.8711931
4411,Cleveland Ave,33901,26.5984447,-81.8711068
4329,Cleveland Avenue,33901,26.5989925,-81.8708360
2235,Colonial Blvd,33901,26.5981740,-81.8671155
2265,Colonial Blvd,33901,26.5976911,-81.8664694
4450,Fowler Street,33901,26.5975756,-81.8632652
4350,Fowler St,33901,26.5993597,-81.8628434
2980,Edison Avenue,33916,26.6329283,-81.8527625
4166,Castilla Circle,33916,26.6039320,-81.8501872
3150,Winkler Ave,33916,26.6041804,-81.8481637
4160,Castilla Circle,33916,26.6040600,-81.8496247
4175,Castilla Circle,33916,26.6034893,-81.8496127
4103,Castilla Cir,33916,26.6031559,-81.8497502
4154,Castilla Circle,33916,26.6039346,-81.8490635
4172,Castilla Cir,33916,26.6034340,-81.8501746
4167,Castilla Circle,33916,26.6038645,-81.8496248
4110,Castilla Cir,33916,26.6025632,-81.8501610
3120,Winkler Ave,33916,26.6030174,-81.8484627
8040,Dani Drive,33966,26.6103375,-81.8086652
9357,Ben C Pratt/6 Mile Cypress Parkway,33966,26.6070471,-81.8070972
7950,Dani Drive,33966,26.6040852,-81.8084981
7950,Dani Drive,33966,26.6046284,-81.8086907
7950,Dani Drive,33966,26.6034015,-81.8086644
9550,Six Mile Cypress Parkway,33966,26.6035379,-81.8126585
8424,Bernwood Cove Loop,33966,26.6010683,-81.8141624
8358,Bernwood Cove Loop,33966,26.6006230,-81.8142919
8546,Bernwood Cove Loop,33966,26.6011570,-81.8128468
9841,Bernwood Place Dr,33966,26.5993260,-81.8117879
8407,Bernwood Cove Loop,33966,26.6015049,-81.8148639
8313,Bernwood Cove Loop,33966,26.6007640,-81.8128479
8416,Bernwood Cove Loop,33966,26.6010672,-81.8145739
8326,Bernwood Cove Loop,33966,26.6003975,-81.8131908
8513,Bernwood Cove Loop,33966,26.6015163,-81.8132201
8408,Bernwood Cove Loop,33966,26.6010581,-81.8148391
8331,Bernwood Cove Loop,33966,26.6007598,-81.8134694
8342,Bernwood Cove Loop,33966,26.6003872,-81.8137440
9861,Bernwood Place Dr,33966,26.5986799,-81.8117828
8555,Bernwood Cove Loop,33966,26.6015258,-81.8126678
8423,Bernwood Cove Loop,33966,26.6015117,-81.8143133
8312,Bernwood Cove Loop,33966,26.6004039,-81.8126457
8484,Bernwood Cove Loop,33966,26.6011446,-81.8134694
8461,Bernwood Cove Loop,33966,26.6015153,-81.8137647
8380,Bernwood Cove Loop,33966,26.6006153,-81.8148555
9804,Bernwood Place Dr,33966,26.5992866,-81.8129541
8600,Bernwood Cove Loop,33966,26.6009650,-81.8126889
3280,Marion Street,33916,26.6549682,-81.8457350
3200,Michigan AVe,33916,26.6480291,-81.8481649
4420,Woodside Ave,33905,26.6613945,-81.8233411
2250,Broadway,33901,26.6357357,-81.8691780
2277,Grand Avenue,33901,26.6347515,-81.8702990
4353,Michigan Ave Link,33916,26.6424678,-81.8247892
4325,Michigan Avenue Link,33916,26.6432528,-81.8252644
4375,Michigan Avenue Link,33916,26.6420863,-81.8245397
2719,Colonial Blvd,33907,26.5980882,-81.8566498
10990,Plantation Gardens Dr,33913,26.5662624,-81.7750876
2000,West First Street,33901,26.6431815,-81.8738663
2101,Edwards Drive,33901,26.6451425,-81.8727628
2254,Edwards Dr,33901,26.6458821,-81.8700412
2310,Edwards Dr,33901,26.6464517,-81.8691425
2425,Edwards Dr,33901,26.6469613,-81.8681140
4760,South Cleveland Avenue,33907,26.5919739,-81.8732338
4610,South Cleveland Avenue,33907-1316,26.5948670,-81.8747728
4770,South Cleveland Avenue,33907,26.5919353,-81.8724965
2427,East Mall Dr,33901,26.6004447,-81.8634192
3150,Hanson Street,33916,26.6221829,-81.8483941
2044,W First St,33901,26.6410793,-81.8757742
2104,West First Street,33901,26.6406704,-81.8774064
2090,W First St,33901,26.6405904,-81.8766644
3601,Colonial Ct,33913,26.6120193,-81.7983251
10401,Treeline Ave,33913,26.5953698,-81.7849533
1350,Monroe Street,33901,26.6439676,-81.8726820
1375,Monroe Street,33901,26.6447035,-81.8718478
1375,Jackson Street,33901,26.6460511,-81.8687937
2313,Edwards Drive,33901,26.6468689,-81.8693497
1520,Broadway,33901,26.6429497,-81.8705241
1915,Jefferson Avenue,33901,26.6073199,-81.8734504
2350,McGregor Boulevard,33901,26.6343407,-81.8792528
2376,McGregor Boulevard,33901,26.6336419,-81.8812653
13001,North Cleveland Ave,33903,26.6563118,-81.8820226
3850,Michigan Avenue,33916,26.6480333,-81.8343257
3650,Michigan Avenue,33916,26.6469340,-81.8390050
3920,Michigan Avenue,33916,26.6476284,-81.8334766
3800,Michigan Avenue,33916,26.6471255,-81.8365409
2505,First Street,33901,26.6472308,-81.8660440
2115,Second Street,33901,26.6420800,-81.8699459
2200,Second Street,33901,26.6419443,-81.8688980
1500,Monroe Street,33901,26.6428134,-81.8717414
4790,South Cleveland Avenue,33907,26.5910027,-81.8752572
4790,South Cleveland Avenue,33907,26.5913738,-81.8740569
4790,South Cleveland Avenue,33907,26.5905446,-81.8740490
4790,South Cleveland Avenue,33907,26.5911821,-81.8746679
4790,South Cleveland Avenue,33907,26.5914215,-81.8748231
4790,South Cleveland Avenue,33907,26.5906495,-81.8749138
4790,South Cleveland Avenue,33907,26.5902828,-81.8740471
4790,South Cleveland Avenue,33907,26.5904757,-81.8746713
4790,South Cleveland Avenue,33907,26.5914154,-81.8751455
4790,South Cleveland Avenue,33907,26.5913665,-81.8743987
4790,South Cleveland Avenue,33907,26.5908304,-81.8742230
4790,South Cleveland Avenue,33907,26.5906481,-81.8752556
4790,South Cleveland Avenue,33907,26.5902771,-81.8743883
4790,South Cleveland Avenue,33907,26.5902253,-81.8751356
4790,South Cleveland Avenue,33907,26.5906745,-81.8744677
4790,South Cleveland Avenue,33907,26.5912360,-81.8753961
4790,South Cleveland Avenue,33907,26.5903998,-81.8753950
4790,South Cleveland Avenue,33907,26.5911059,-81.8740497
4790,South Cleveland Avenue,33907,26.5910052,-81.8749126
4850,Cleveland Avenue,33907,26.5903021,-81.8729637
4790,South Cleveland Avenue,33907,26.5909845,-81.8744671
4790,South Cleveland Avenue,33907,26.5902259,-81.8748097
2414,Edwards Drive,33901,26.6467061,-81.8685851
3819,Broadway,33901,26.6072118,-81.8677610
2920,Valencia Way,33901,26.6236548,-81.8870677
2550,Cleveland Avenue,33901,26.6314566,-81.8729943
1825,Hendry Street,33901,26.6414513,-81.8677892
2360,West First Street,33901,26.6360811,-81.8810764
2160,McGregor Boulevard,33901,26.6378841,-81.8766602
4600,Summerlin Road,33919-3005,26.5951473,-81.8852451
1530,Colonial Boulevard,33919,26.5962860,-81.8845187
3645,Cleveland Avenue,33901,26.6095376,-81.8714600
3783,Cleveland Avenue,33901,26.6074856,-81.8715756
3801,Cleveland Avenue,33901,26.6070015,-81.8713667
2717,Colonial Boulevard,33907,26.5979279,-81.8573966
2955,Colonial Boulevard,33912,26.5980866,-81.8524686
2475,Cleveland Avenue,33901,26.6318473,-81.8721489
1793,Fowler Street,33901,26.6430593,-81.8633752
4561,Colonial Boulevard,33912,26.6118830,-81.8200059
3251,Colonial Boulevard,33966-1033,26.5981281,-81.8459266
2915,Colonial Boulevard,33966,26.5981104,-81.8530675
2330,Dr. Martin Luther King Jr. Boulevard,33901,26.6406008,-81.8658993
3401,Metro Parkway,33901,26.6171923,-81.8583050
2442,Dr Martin Luther King Boulevard,33901,26.6403018,-81.8639055
39,Patio De Leon,33901,26.6438530,-81.8701922
1416,Dean Street,33901,26.6441851,-81.8708979
4440,Colonial Blvd,33966,26.6085294,-81.8212654
2767,Doctor Ella Piper Way,33916,26.6453300,-81.8566424
2701,Orange Street,33916,26.6435085,-81.8579941
1765,Henderson Avenue,33916,26.6460682,-81.8452636
3840,Van Buren Street,33916,26.6177341,-81.8367475
3841,Van Buren Street,33916,26.6177553,-81.8347330
8021,Dani Drive,33966,26.6065397,-81.8103893
2215,First Street,33901,26.6442405,-81.8704290
2214,Bay Street,33901,26.6446384,-81.8705301
2271,First Street,33901,26.6448568,-81.8693059
1533,Hendry Street,33901,26.6436813,-81.8690908
2248,First Street,33901,26.6442487,-81.8695667
1520,Jackson Street,33901,26.6443379,-81.8686026
1525,Hendry Street,33901,26.6440015,-81.8692495
2224,Bay Street,33901,26.6447232,-81.8703476
1412,Jackson Street,33901,26.6450794,-81.8689873
1527,Hendry Street,33901,26.6438840,-81.8691905
2301,First Street,33901,26.6453885,-81.8685434
2024,West First Street,33901,26.6418868,-81.8751941
4615,Deleon Street,33907,26.5947476,-81.8759757
4645,Deleon Street,33907,26.5942723,-81.8759753
4650,Deleon Street,33907,26.5918197,-81.8770507
4640,Deleon Street,33907,26.5929064,-81.8772876
4648,Deleon Street,33907,26.5919664,-81.8772864
4636,Deleon Street,33907,26.5932614,-81.8776885
4775,Deleon Street,33907,26.5916742,-81.8759626
4644,Deleon Street,33907,26.5924380,-81.8772900
4658,Deleon Street,33907,26.5922194,-81.8767324
4654,Deleon Street,33907,26.5918030,-81.8766816
4636,Deleon Street,33907,26.5931862,-81.8774098
4635,Deleon Street,33907,26.5946813,-81.8766381
4628,Deleon Street,33907,26.5935479,-81.8770095
4675,Deleon Street,33907,26.5935434,-81.8759670
4735,Deleon Street,33907,26.5925875,-81.8760933
4666,Deleon Street,33907,26.5931302,-81.8769279
4626,Deleon Street,33907,26.5937516,-81.8770964
4610,Deleon Street,33907,26.5950808,-81.8771857
4705,Deleon Street,33907,26.5931394,-81.8763445
4655,Deleon Street,33907,26.5942594,-81.8765840
4625,Deleon Street,33907,26.5948125,-81.8763108
4662,Deleon Street,33907,26.5926744,-81.8768319
4755,Deleon Street,33907,26.5922172,-81.8759611
4622,Deleon Street,33907,26.5943367,-81.8772797
4632,Deleon Street,33907,26.5936743,-81.8775236
4624,Deleon Street,33907,26.5940127,-81.8772762
4715,Deleon Street,33907,26.5930419,-81.8759592
4620,Deleon Street,33907,26.5946020,-81.8771828
4665,Deleon Street,33907,26.5936243,-81.8764486
4632,Deleon Street,33907,26.5935786,-81.8777024
1801,Boy Scout Drive,33907,26.5827583,-81.8762992
5247,Red Cedar Drive,33907,26.5852238,-81.8804591
5235,Red Cedar Drive,33907,26.5859072,-81.8815920
5251,Red Cedar Drive,33907,26.5847846,-81.8805460
5245,Red Cedar Drive,33907,26.5857647,-81.8804647
5249,Red Cedar Drive,33907,26.5850310,-81.8810486
5237,Red Cedar Drive,33907,26.5852569,-81.8817478
5239,Red Cedar Drive,33907,26.5855363,-81.8814619
5241,Red Cedar Drive,33907,26.5859160,-81.8808863
5243,Red Cedar Drive,33907,26.5855323,-81.8810141
5233,Red Cedar Drive,33907,26.5857518,-81.8820218
1601,Red Cedar Drive,33907,26.5841070,-81.8792627
1765,Red Cedar Drive,33907,26.5848230,-81.8766222
1721,Red Cedar Drive,33907,26.5842659,-81.8775539
1751,Red Cedar Drive,33907,26.5859458,-81.8766695
1609,Red Cedar Drive,33907,26.5853855,-81.8796886
1629,Red Cedar Drive,33907,26.5840285,-81.8783367
1623,Red Cedar Drive,33907,26.5852287,-81.8786049
1619,Red Cedar Drive,33907,26.5857908,-81.8781812
1725,Red Cedar Drive,33907,26.5846465,-81.8776116
1775,Red Cedar Drive,33907,26.5841810,-81.8762639
1735,Red Cedar Drive,33907,26.5853598,-81.8771270
1621,Red Cedar Drive,33907,26.5852730,-81.8781708
1627,Red Cedar Drive,33907,26.5844974,-81.8782944
1625,Red Cedar Drive,33907,26.5845823,-81.8788049
1607,Red Cedar Drive,33907,26.5848466,-81.8796862
1617,Red Cedar Drive,33907,26.5859081,-81.8786470
1761,Red Cedar Drive,33907,26.5853919,-81.8765028
1611,Red Cedar Drive,33907,26.5853482,-81.8790725
1779,Red Cedar Drive,33907,26.5837002,-81.8762711
1715,Red Cedar Drive,33907,26.5842648,-81.8770894
1603,Red Cedar Drive,33907,26.5843661,-81.8796929
1771,Red Cedar Drive,33907,26.5846401,-81.8762631
1631,Red Cedar Drive,33907,26.5839160,-81.8788447
1613,Red Cedar Drive,33907,26.5858600,-81.8797040
1615,Red Cedar Drive,33907,26.5857865,-81.8790739
1731,Red Cedar Drive,33907,26.5847767,-81.8771715
1755,Red Cedar Drive,33907,26.5857964,-81.8763209
1745,Red Cedar Drive,33907,26.5859382,-81.8773201
1741,Red Cedar Drive,33907,26.5855002,-81.8774955
1605,Red Cedar Drive,33907,26.5845045,-81.8792277
1701,Red Cedar Drive,33907,26.5842600,-81.8765944
2425,Thompson Street,33901,26.6420056,-81.8654407
2201,Second Street,33901,26.6424884,-81.8693898
1619,Jackson Street,33901,26.6435873,-81.8678603
2320,First Street,33901,26.6450503,-81.8681535
2031,Jackson Street,33901,26.6399971,-81.8660677
3511,Dale Street,33916,26.6440681,-81.8419136
3513,Dale Street,33916,26.6440064,-81.8411551
3509,Dale Street,33916,26.6440639,-81.8425922
3501,Dale Street,33916,26.6437310,-81.8421295
3515,Dale Street,33916,26.6433811,-81.8411438
2400,First Street,33901,26.6448342,-81.8674821
2450,First Street,33901,26.6447025,-81.8670159
2466,First Street,33901,26.6456954,-81.8665628
2466,First Street,33901,26.6453587,-81.8659211
2438,Second Street,33901,26.6434208,-81.8660814
1625,Hendry Street,33901,26.6430352,-81.8687265
1617,Hendry Street,33901,26.6431826,-81.8687973
1611,Hendry Street,33901,26.6432810,-81.8688413
1609,Hendry Street,33901,26.6433396,-81.8688769
1605,Hendry Street,33901,26.6433950,-81.8689106
2286,Main Street,33901,26.6433273,-81.8682946
2500,Edwards Drive,33901,26.6473018,-81.8671400
2500,Edwards Drive,33901,26.6474040,-81.8674027
1300,Hendry Street,33901,26.6467756,-81.8712944
3853,Cleveland Ave,33901,26.6050179,-81.8703425
1735,Jackson Street,33901,26.6425174,-81.8669632
1857,Jackson Street,33901,26.6411363,-81.8666460
2315,Dr Martin Luther King Boulevard,33901,26.6411528,-81.8663681
11041,Colonial Boulevard,33905,26.6181945,-81.7694934
4213,Capulet Lane,33916,26.6466260,-81.8314589
4240,Capulet Lane,33916,26.6461468,-81.8288540
1621,Shakespeare Drive,33916,26.6469316,-81.8318095
4220,Romeo Lane,33916,26.6469436,-81.8311128
4221,Othello Lane,33916,26.6477039,-81.8296514
4236,Capulet Lane,33916,26.6461439,-81.8291591
4209,Capulet Lane,33916,26.6466290,-81.8317746
4221,Capulet Lane,33916,26.6466230,-81.8306320
1693,Joust Street,33916,26.6461199,-81.8283861
4216,Othello Lane,33916,26.6472221,-81.8311493
4211,Romeo Lane,33916,26.6482541,-81.8316042
4210,Romeo Lane,33916,26.6477627,-81.8317971
4214,Machiavelli Lane,33916,26.6449652,-81.8311289
4218,Capulet Lane,33916,26.6461246,-81.8311366
4232,Capulet Lane,33916,26.6461355,-81.8294796
1637,Joust Street,33916,26.6451080,-81.8284412
4229,Capulet Lane,33916,26.6466493,-81.8300010
4224,Renaissance Preserve Way,33916,26.6471081,-81.8284369
4223,Romeo Lane,33916,26.6469257,-81.8306702
4214,Capulet Lane,33916,26.6461204,-81.8314525
4210,Machiavelli Lane,33916,26.6449547,-81.8314390
4206,Machiavelli Lane,33916,26.6449811,-81.8317509
4225,Capulet Lane,33916,26.6466485,-81.8303226
4211,Machiavelli Lane,33916,26.6454690,-81.8314424
4210,Capulet Lane,33916,26.6461121,-81.8317669
4208,Othello Lane,33916,26.6472127,-81.8317828
4226,Othello Lane,33916,26.6469352,-81.8299715
4207,Machiavelli Lane,33916,26.6454710,-81.8317533
4217,Capulet Lane,33916,26.6466368,-81.8311450
4218,Romeo Lane,33916,26.6477443,-81.8311711
4214,Romeo Lane,33916,26.6477081,-81.8314773
4212,Othello Lane,33916,26.6472103,-81.8314636
4215,Machiavelli Lane,33916,26.6454774,-81.8311286
4222,Capulet Lane,33916,26.6462532,-81.8305076
4218,Machiavelli Lane,33916,26.6449904,-81.8306001
4232,Machiavelli Lane,33916,26.6449810,-81.8294366
4231,Machiavelli Lane,33916,26.6454734,-81.8294588
4222,Machiavelli Lane,33916,26.6449640,-81.8302882
4236,Machiavelli Lane,33916,26.6449785,-81.8291541
4235,Machiavelli Lane,33916,26.6454714,-81.8291479
4226,Machiavelli Lane,33916,26.6449746,-81.8299782
4239,Machiavelli Lane,33916,26.6454797,-81.8288341
4240,Machiavelli Lane,33916,26.6449872,-81.8288119
2885,Winkler Avenue,33916,26.6048285,-81.8533944
2937,Winkler Avenue,33916,26.6059471,-81.8521187
2825,Winkler Avenue,33916,26.6048540,-81.8544202
2905,Winkler Avenue,33916,26.6049995,-81.8529526
2935,Winkler Avenue,33916,26.6051288,-81.8522269
2929,Winkler Avenue,33916,26.6048379,-81.8524420
2915,Winkler Avenue,33916,26.6058858,-81.8529357
2845,Winkler Avenue,33916,26.6056673,-81.8541100
2865,Winkler Avenue,33916,26.6055850,-81.8536921
2875,Winkler Avenue,33916,26.6056726,-81.8534066
2925,Winkler Avenue,33916,26.6057749,-81.8524752
2855,Winkler Avenue,33916,26.6049111,-81.8538679
2835,Winkler Avenue,33916,26.6054537,-81.8544882
1013,Marsh Avenue,33905,26.6592200,-81.8277868
1005,Marsh Avenue,33905,26.6592137,-81.8281034
1019,Marsh Avenue,33905,26.6592832,-81.8267911
1007,Marsh Avenue,33905,26.6586525,-81.8280487
1017,Marsh Avenue,33905,26.6592254,-81.8271692
1021,Marsh Avenue,33905,26.6593949,-81.8262805
1011,Marsh Avenue,33905,26.6589538,-81.8280139
1015,Marsh Avenue,33905,26.6592221,-81.8274822
1009,Marsh Avenue,33905,26.6587836,-81.8276527
4751,Watermark Boulevard,33966,26.6003628,-81.8223216
1615,Marsh Avenue,33905,26.6484654,-81.8274899
1675,Marsh Avenue,33905,26.6474159,-81.8274322
1695,Marsh Avenue,33905,26.6474573,-81.8265116
1691,Marsh Avenue,33905,26.6473414,-81.8268653
1631,Marsh Avenue,33905,26.6483056,-81.8269631
1635,Marsh Avenue,33905,26.6480557,-81.8265071
1651,Marsh Avenue,33905,26.6477465,-81.8271966
1685,Marsh Avenue,33905,26.6474563,-81.8271850
1625,Marsh Avenue,33905,26.6479057,-81.8280224
1665,Marsh Avenue,33905,26.6474123,-81.8276876
1655,Marsh Avenue,33905,26.6477430,-81.8265864
1605,Marsh Avenue,33905,26.6483863,-81.8278414
1645,Marsh Avenue,33905,26.6477164,-81.8279782
1621,Marsh Avenue,33905,26.6482139,-81.8272961
1625,Marsh Avenue,33905,26.6479035,-81.8272884
2266,Second Street,33901,26.6425527,-81.8679621
2222,Second Street,33901,26.6424664,-81.8683821
1810,Jackson Street,33901,26.6416015,-81.8674009
1833,Hendry Street,33901,26.6411093,-81.8675823
1813,Lee Street,33901,26.6422888,-81.8659267
2100,Second Street,33901,26.6415404,-81.8698114
1715,Monroe Street,33901,26.6412758,-81.8695745
2112,Second Street,33901,26.6417059,-81.8697618
2122,Second Street,33901,26.6417068,-81.8694873
1822,Broadway,33901,26.6409884,-81.8691433
1700,Monroe Street,33901,26.6415430,-81.8707348
2464,Second Street,33901,26.6443076,-81.8650507
1702,Fowler Street,33901,26.6444620,-81.8648614
1704,Fowler Street,33901,26.6442735,-81.8647908
1716,Fowler Street,33901,26.6442025,-81.8646710
1724,Fowler Street,33901,26.6440503,-81.8645813
1732,Fowler Street,33901,26.6439094,-81.8644858
1750,Fowler Street,33901,26.6435388,-81.8643016
1762,Fowler Street,33901,26.6433382,-81.8641360
1788,Fowler Street,33901,26.6428583,-81.8639075
1811,Royal Palm Avenue,33901,26.6429228,-81.8643498
2440,Thompson Street,33901,26.6413321,-81.8640335
2480,Thompson Street,33901,26.6413534,-81.8631554
3380,Oritz Avenue,33916,26.6177238,-81.8176349
3450,Ortiz Avenue,33905,26.6156670,-81.8124607
2145,Dr Martin Luther King Boulevard,33901,26.6404962,-81.8690223
4501,Colonial Boulevard,33912,26.6113367,-81.8222947
4501,Colonial Boulevard,33912,26.6109483,-81.8213568
4571,Colonial Boulevard,33912,26.6123627,-81.8191005
4100,Dutchess Park Road,33916,26.6170119,-81.8324659
2011,Bayside Parkway,33901,26.6400907,-81.8756331
1910,West First Street,33901,26.6372518,-81.8814018
2352,West First Street,33901,26.6365049,-81.8807733
1900,West First Street,33901,26.6376145,-81.8810498
1920,West First Street,33901,26.6368323,-81.8812442
1925,Virginia Avenue,33901,26.6379465,-81.8804215
2390,West First Street,33901,26.6352809,-81.8797471
2023,Altamont Avenue,33901,26.6381249,-81.8776588
2165,West First Street,33901,26.6387595,-81.8774399
2059,Altamont Avenue,33901,26.6376401,-81.8770152
1900,Clifford Street,33901,26.6397705,-81.8785929
2180,West First Street,33901,26.6385946,-81.8782059
2150,West First Street,33901,26.6390113,-81.8776836
2164,West First Street,33901,26.6388854,-81.8778698
1901,Clifford Street,33901,26.6404442,-81.8778667
1925,Clifford Street,33901,26.6401852,-81.8781570
2120,West First Street,33901,26.6393729,-81.8773231
2240,West First Street,33901,26.6377422,-81.8793930
2286,West First Street,33901,26.6371805,-81.8797623
2369,West First Street,33901,26.6360501,-81.8798728
2052,Virginia Avenue,33901,26.6360314,-81.8789718
2300,McGregor Boulevard,33901,26.6359439,-81.8788767
2389,West First Street,33901,26.6357783,-81.8794661
2040,Virginia Avenue,33901,26.6360723,-81.8793286
2030,Virginia Avenue,33901,26.6362918,-81.8793659
2110,West First Street,33901,26.6398451,-81.8766758
2080,West First Street,33901,26.6401722,-81.8763070
2075,West First Street,33901,26.6396609,-81.8763286
2121,West First Street,33901,26.6391282,-81.8769844
2037,West First Street,33901,26.6410372,-81.8748340
2039,West First Street,33901,26.6408207,-81.8748440
2701,Dr Martin Luther King Jr. Boulevard,33913,26.6410871,-81.8579865
2825,Palm Beach Boulevard,33916,26.6526873,-81.8566067
2010,Arcadia Street,33916,26.6402616,-81.8263729
11080,Sparkleberry Drive,33913,26.5830226,-81.7902725
9802,Pelican Preserve Boulevard,33913,26.5986176,-81.7766420
1533,Matthew Drive,33907,26.5908216,-81.8830423
1511,Matthew Drive,33907,26.5900429,-81.8830898
3350,Old Metro Parkway,33916,26.6188236,-81.8531322
1671,Lowell Court,33907,26.5924021,-81.8778178
3101,Indian Street,33916,26.6451373,-81.8493614
2479,Aztec Drive,33916,26.6325326,-81.8366118
1000,Freemont Street,33916,26.6575318,-81.8474889
1803,Golfview Avenue,33901,26.6110275,-81.8745010
1865,Golfview Avenue,33901,26.6108820,-81.8748289
1803,Golfview Avenue,33901,26.6106372,-81.8756336
2108,Hale Court,33916,26.6394063,-81.8399562
1317,Bougainvillea Street,33901,26.6177525,-81.8852581
1625,Lake Avenue,33901,26.5998258,-81.8784251
2777,Cortez Boulevard,33901,26.6269505,-81.8798224
2277,Grand Avenue,33901,26.6349627,-81.8701673
3061,East Riverside Drive,33916,26.6575056,-81.8529994
3061,East Riverside Drive,33916,26.6573020,-81.8531448
1936,Henderson Avenue,33916,26.6421834,-81.8472417
1412,Steele Street,33901,26.6060130,-81.8854167
8930,Colonial Center Drive,33905,26.6135991,-81.8085765
8940,Colonial Center Drive,33905,26.6135860,-81.8079499
8950,Colonial Center Drive,33905,26.6135660,-81.8073643
4350,Executive Circle,33916,26.5991148,-81.8444439
2776,Cleveland Avenue,33901,26.6279283,-81.8740254
8960,Colonial Center Drive,33905,26.6138409,-81.8055836
9340,Six Mile Cypress Parkway,33966,26.6073472,-81.8118902
2161,McGregor Boulevard,33901,26.6373004,-81.8764097
2645,Forum Boulevard,33905,26.6282317,-81.7926513
3136,Champion Ring Road,33905,26.6238461,-81.8046071
3114,Champion Ring Road,33905,26.6235825,-81.8024598
3122,Champion Ring Road,33905,26.6235487,-81.8038656
3130,Champion Ring Road,33905,26.6235318,-81.8046140
3146,Champion Ring Road,33905,26.6241718,-81.8030703
3118,Champion Ring Road,33905,26.6235513,-81.8031417
3142,Champion Ring Road,33905,26.6240416,-81.8037900
3150,Champion Ring Road,33905,26.6242862,-81.8024798
3100,Champion Ring Road,33905,26.6239007,-81.8026521
3106,Champion Ring Road,33905,26.6236305,-81.8018422
3094,Champion Ring Road,33905,26.6244279,-81.8017920
3126,Champion Ring Road,33905,26.6236923,-81.8043486
4784,Colonial Boulevard,33966,26.6118531,-81.8129172
8931,Colonial Center Drive,33905,26.6147290,-81.8085090
8925,Colonial Center Drive,33905,26.6148206,-81.8090313
3405,Forum Boulevard,33905,26.6155869,-81.7962950
3409,Forum Boulevard,33905,26.6156348,-81.7960352
3415,Forum Boulevard,33905,26.6158541,-81.7954620
3220,Forum Boulevard,33905,26.6184102,-81.7982033
5015,Mina Circle,33905,26.6170054,-81.8093091
4550,Winkler Avenue,33966,26.6063211,-81.8225697
4566,Winkler Avenue,33966,26.6057935,-81.8218159
4584,Winkler Avenue,33966,26.6054573,-81.8195002
4570,Winkler Avenue,33966,26.6057989,-81.8213130
4554,Winkler Avenue,33966,26.6058720,-81.8229451
4578,Winkler Avenue,33966,26.6052905,-81.8204171
4574,Winkler Avenue,33966,26.6053065,-81.8210591
4562,Winkler Avenue,33966,26.6053157,-81.8221567
4538,Winkler Avenue,33966,26.6061994,-81.8208812
4558,Winkler Avenue,33966,26.6053433,-81.8228082
4546,Winkler Avenue,33966,26.6064357,-81.8220346
4540,Winkler Avenue,33966,26.6068319,-81.8214734
4530,Winkler Avenue,33966,26.6068594,-81.8197789
4536,Winkler Avenue,33966,26.6062659,-81.8202619
4590,Winkler Avenue,33966,26.6060424,-81.8197440
4550,Colonial Boulevard,33966,26.6097113,-81.8200482
3430,Forum Boulevard,33905,26.6135181,-81.7973142
3426,Forum Boulevard,33905,26.6136071,-81.7968878
11031,Colonial Boulevard,33913,26.6178182,-81.7703593
10997,Colionial Boulvard,33913,26.6162489,-81.7715894
10993,Colonial Boulevard,33913,26.6159058,-81.7719209
11158,Yellow Poplar Drive,33913,26.5811424,-81.7864368
11213,Tulip Poplar Lane,33913,26.5804842,-81.7891462
9777,Stella Palm Way,33966,26.6011274,-81.8064841
5122,Pimlico Lane,33966,26.5999218,-81.8087003
5166,Pimlico Lane,33966,26.5999241,-81.8078843
9851,Decorum Drive,33966,26.5994112,-81.8083064
9885,Stella Palm Way,33966,26.5999533,-81.8065440
9993,Stella Palm Way,33966,26.5988949,-81.8069383
5050,Soleado Way,33966,26.5997183,-81.8098939
3431,Cleveland Avenue,33901,26.6145801,-81.8715950
4945,Eastwood Greens Street,33905,26.6306443,-81.8147739
4939,Eastwood Greens Street,33905,26.6311271,-81.8151074
4933,Eastwood Greens Street,33905,26.6316279,-81.8151197
4925,Eastwood Greens Street,33905,26.6323120,-81.8146804
4921,Eastwood Greens Street,33905,26.6324834,-81.8140094
4917,Eastwood Greens Street,33905,26.6325171,-81.8133415
4913,Eastwood Greens Street,33905,26.6325183,-81.8126689
4909,Eastwood Greens Street,33905,26.6321784,-81.8121933
4905,Eastwood Greens Street,33905,26.6317028,-81.8121698
4901,Eastwood Greens Street,33905,26.6312263,-81.8121663
4951,Eastwood Greens Street,33905,26.6309150,-81.8142641
4957,Eastwood Greens Street,33905,26.6314981,-81.8141948
4965,Eastwood Greens Street,33905,26.6318712,-81.8136619
4973,Eastwood Greens Street,33905,26.6313766,-81.8131530
4979,Eastwood Greens Street,33905,26.6307480,-81.8131087
9820,Skip Jack Lane,33966,26.5998727,-81.8092053
5065,Soleado Way,33966,26.6001704,-81.8096402
9784,Stella Palm Way,33966,26.6006545,-81.8069461
5115,Pimlico Lane,33966,26.6004495,-81.8087982
9893,Stella Palm Way,33966,26.5995684,-81.8068650
9760,Stella Palm Way,33966,26.6013432,-81.8069572
5027,Pimlico Lane,33966,26.6004455,-81.8102477
5169,Pimlico Lane,33966,26.6004612,-81.8077304
9789,Stella Palm Way,33966,26.6005697,-81.8065970
9899,Stella Palm Way,33966,26.5994076,-81.8066080
5174,Pimlico Lane,33966,26.6001707,-81.8073559
5061,Pimlico Lane,33966,26.6004381,-81.8096707
5173,Pimlico Lane,33966,26.6004660,-81.8074132
9996,Stella Palm Way,33966,26.5983556,-81.8070922
9880,Stella Palm Way,33966,26.6001825,-81.8070370
4804,Vince Smith Drive,33916,26.6224895,-81.8143356
4600,Bruce Herd Lane,33916,26.6193403,-81.8203879
4602,Bruce Herd Lane,33916,26.6195094,-81.8196841
3380,Oritz Avenue,33916,26.6262821,-81.8133534
4820,Windsor Landing Drive,33966,26.6026920,-81.8082211
4800,Windsor Landing Drive,33966,26.6022767,-81.8096326
4810,Windsor Landing Drive,33966,26.6023817,-81.8087950
4830,Windsor Landing Drive,33966,26.6029876,-81.8076131
7922,Dani Drive,33966,26.6019875,-81.8089528
4850,Windsor Landing Drive,33966,26.6043128,-81.8073998
4840,Windsor Landing Drive,33966,26.6036533,-81.8074240
4880,Windsor Landing Drive,33966,26.6036634,-81.8064161
4920,Windsor Landing Drive,33966,26.6021402,-81.8064427
7910,McLaren Lake Way,33966,26.6023138,-81.8056994
7921,McLaren Lake Way,33966,26.6028442,-81.8066622
4911,Windsor Landing Drive,33966,26.6029275,-81.8059572
4889,Windsor Landing Drive,33966,26.6032290,-81.8058002
4881,Windsor Landing Drive,33966,26.6036058,-81.8057279
4871,Windsor Landing Drive,33966,26.6043295,-81.8057006
4870,Windsor Landing Drive,33966,26.6044195,-81.8061967
8900,Colonial Center Drive,33905,26.6139216,-81.8102057
8920,Colonial Center Drive,33905,26.6136493,-81.8095047
8970,Colonial Center Drive,33905,26.6141871,-81.8052854
9380,Dynasty Drive,33905,26.6140627,-81.8015028
9370,Dynasty Drive,33905,26.6144147,-81.8015937
9390,Dynasty Drive,33905,26.6137813,-81.8013476
9360,Dynasty Drive,33905,26.6147974,-81.8015083
10458,Winged Elm Lane,33913,26.5775278,-81.7818527
3358,Cleveland Avenue,33901,26.6159027,-81.8724175
22,Patio De Leon,33901,26.6437243,-81.8696713
2960,Colonial Boulevard,33966,26.5963201,-81.8517100
4400,Ford Street Extension,33916-9420,26.5985349,-81.8467727
4455,Metro Parkway,33916,26.5983115,-81.8494806
2200,Edwards Drive,33901,26.6451583,-81.8710282
5179,Mina Circle,33905,26.6176995,-81.8085726
5167,Mina Circle,33905,26.6181343,-81.8086614
5151,Mina Circle,33905,26.6183231,-81.8085308
7977,Dani Drive,33966,26.6046031,-81.8103931
7949,Dani Drive,33966,26.6036580,-81.8103782
8061,Dani Drive,33966,26.6084814,-81.8104584
9321,Dani Drive,33966,26.6085486,-81.8096286
9374,Ben C Pratt Six Mile Cypress Parkway,33912,26.6068063,-81.8119673
3893,Palm Beach Boulevard,33916,26.6645200,-81.8343650
4280,Palm Beach Boulevard,33905,26.6677728,-81.8268853
4336,Palm Beach Boulevard,33905,26.6686428,-81.8257620
3604,Seminole Avenue,33916,26.6629720,-81.8398191
521,Van Buren Street,33916,26.6678409,-81.8316636
10900,Treeline Ave,33913,26.5855631,-81.7853889
2635,Cortez Blvd,33901,26.6277199,-81.8777460
3800,East Edison Avenue,33916,26.6303921,-81.8342306
10610,Colonial Boulevard,33913,26.6122732,-81.7831503
10698,Colonial Boulevard,33913,26.6108250,-81.7793767
10688,Colonial Boulevard,33913,26.6115021,-81.7794964
10680,Colonial Boulevard,33913,26.6123065,-81.7794453
11290,SR 82,33913,26.6190372,-81.7694373
2021,Topgolf Way,33966,26.6096287,-81.8040253
3200,Champion Ring Road,33905,26.6220659,-81.8032978
4520,Glenford Boulevard,33966,26.6083286,-81.8190704
4560,Colonial Boulevard,33966,26.6103300,-81.8190145
3095,Blount St,33916-4100,26.6431845,-81.8510940
4290,Colonial Boulevard,33913,26.6056662,-81.8242018
4333,Ford Street,33916,26.5992788,-81.8457085
10091,McGregor Boulevard,33919,26.5948710,-81.8906330
1567,Hayley Lane,33907,26.5832980,-81.8806710
279,Cortez Boulevard,33901,26.6226375,-81.8799854
2977,Magnolia Street,33901,26.6226634,-81.8792703
1643,Magnolia Street,33901,26.6225957,-81.8789397
2950,Magnolia Street,33901,26.6234454,-81.8789518
3118,Palm Beach Boulevard,33916,26.6544895,-81.8510785
2675,Winkler Avenue,33901,26.6049647,-81.8580758
2668,Winkler Avenue,33901,26.6038799,-81.8581276
2634,Winkler Avenue,33901,26.6041216,-81.8589295
1480,Manuels Drive,33901,26.6282331,-81.8810371
1758,Woodlawn Avenue,33901,26.6301598,-81.8785034
1452,Sandra Drive,33901,26.6292252,-81.8805703
4572,Watercolor Way,33966,26.6001703,-81.8242518
2245,Winkler Avenue,33901,26.6054745,-81.8668986
4501,Colonial Boulevard,33966,26.6113124,-81.8217528
2010,Arcadia Street,33916,26.6403841,-81.8264857
5019,Willowgate Loop,33905,26.6247168,-81.8098098
5025,Willowgate Loop,33905,26.6251509,-81.8098125
5049,Willowgate Loop,33905,26.6269335,-81.8096934
5031,Willowgate Loop,33905,26.6249857,-81.8089016
5037,Willowgate Loop,33905,26.6258006,-81.8089145
5043,Willowgate Loop,33905,26.6266157,-81.8089279
5013,Willowgate Loop,33905,26.6249137,-81.8107389
5007,Willowgate Loop,33905,26.6257310,-81.8107543
5003,Willowgate Loop,33905,26.6263055,-81.8105781
5001,Willowgate Loop,33905,26.6267864,-81.8106657
5044,Willowgate Loop,33905,26.6265230,-81.8085940
5038,Willowgate Loop,33905,26.6256937,-81.8085835
5032,Willowgate Loop,33905,26.6249367,-81.8085712
5027,Willowgate Loop,33905,26.6251609,-81.8092525
5023,Willowgate Loop,33905,26.6251486,-81.8103974
5014,Willowgate Loop,33905,26.6244179,-81.8107389
5018,Willowgate Loop,33905,26.6244281,-81.8099356
5028,Willowgate Loop,33905,26.6244365,-81.8090845
5001,Willowgate Loop,33905,26.6257825,-81.8097810
2366,East Mall Drive,33901,26.5993483,-81.8642261
11360,Championship Drive,33913,26.5768391,-81.7569041
10500,Dartington Drive,33913,26.5591881,-81.7769413
9802,Pelican Preserve Boulevard,33913,26.5969754,-81.7743931
9181,Independence Way,33913,26.5985233,-81.7930218
2110,First Street,33901,26.6431104,-81.8710717
2350,McGregor Boulevard,33901,26.6341993,-81.8797231
1601,Jackson Street,33901,26.6443266,-81.8680508
2438,Second Street,33901,26.6435939,-81.8658774
1735,Jackson Street,33901,26.6425239,-81.8670234
2200,Second Street,33901,26.6419443,-81.8688980
2008,Arcadia Street,33916,26.6407759,-81.8264803
2980,Edison Avenue,33916,26.6323203,-81.8538063
1610,Jefferson Avenue,33901,26.6072858,-81.8791312
3245,Forum Boulevard,33905,26.6147454,-81.7940795
