House number,Street name,Postal code,Latitude,Longitude
2930,SW 23rd St,32608,29.6240388,-82.3563138
419,Northeast 1st Street,32601,29.6553766,-82.3236371
4451,Northwest 19th Street,32605,29.6952778,-82.3469444
1522,W University Avenue,32603,29.6524460,-82.3424240
5129,Northwest 53rd Avenue,32653,29.7022400,-82.3980240
2564,Northwest 13th Street,32609,29.6760151,-82.3411893
433,South Main Street,32601,29.6473728,-82.3248258
3930,Southwest Archer Road,32608,29.6216324,-82.3822264
5200,Northwest 43rd Street,32606-4483,29.7019274,-82.3906124
2700,Northeast Waldo Road,32609,29.6766242,-82.2956014
210,SW 2nd Ave,32601,29.6505057,-82.3269449
210,Southwest 2nd Avenue,32601,29.6507015,-82.3269530
48,SW 2nd St,32601,29.6511513,-82.3266928
619,West University Avenue,32601,29.6519230,-82.3313798
60,Inner Road,32611,29.6470255,-82.3414993
1005,NW 13th St,32601,29.6614396,-82.3388473
3445,West University Avenue,32607,29.6510575,-82.3745789
1202,NE 8th Ave,32601,29.6595606,-82.3099351
30,N Main St.,32601,29.6525633,-82.3251915
3412,West University Avenue,32607,29.6523745,-82.3730019
3443,Archer Road,32608,29.6253994,-82.3736441
3443,Archer Road,32608,29.6251892,-82.3738522
3310,Southwest 35 Boulevard,32608,29.6231135,-82.3757832
3611,Southwest Archer Road,32608,29.6219949,-82.3771434
3445,W University Ave,32607,29.6511205,-82.3744797
1130,Northeast 16th Avenue,32601,29.6677732,-82.3111614
2815,NW 13th Street,32609,29.6784124,-82.3384118
3970,Southwest Archer Road,32608,29.6212761,-82.3836390
1765,Stadium Road,32611,29.6482553,-82.3454479
3424,Southwest Williston Road,32608,29.6036513,-82.3723534
649,Newell Drive,32611,29.6463319,-82.3432213
1387,Museum Road,32612,29.6442834,-82.3406763
2087,Stadium Road,32612,29.6480431,-82.3511326
2204,Southwest 13th Street,32606,29.6315994,-82.3397166
6869,West Newberry Road,32605-4314,29.6571620,-82.4155670
105,Northwest 16th Street,32611,29.6529760,-82.3430971
4401 Suite G,Northwest 25th Place,32606,29.6756744,-82.3904301
201,Southeast First Street,32601,29.6497812,-82.3237286
4780,Northwest 39th Avenue,32606,29.6890101,-82.3944427
444,Newell Drive,32611,29.6479585,-82.3441883
2880,Northwest 13th Street,32609,29.6793889,-82.3396003
3711,Northwest 26th Terrace,32605,29.6868371,-82.3610639
3207,Northwest 25th Terrace,32605,29.6821975,-82.3587295
3608,Northwest 25th Terrace,32605,29.6857578,-82.3597078
4222,Northwest 16th Boulevard,32605,29.6749472,-82.3882852
4234,Southwest 20th Avenue,32607,29.6359839,-82.3883851
1459,Northwest 23rd Avenue,32605,29.6729119,-82.3405992
1606,Northwest 13th Street,32609,29.6669713,-82.3394060
3724,Southwest Archer Road,32608,29.6232552,-82.3798985
4626,Northwest 8th Avenue,32605,29.6599198,-82.3925980
6110,Northwest 4th Place,32605,29.6565193,-82.4084727
2643,Northwest 13th Street,32609,29.6768626,-82.3366552
7011,West Newberry Road,32605,29.6591455,-82.4171837
4200,SW 34th St,32608,29.6139226,-82.3724796
528,Northwest 8th Avenue,32601,29.6596337,-82.3305616
3964,Plaza Boulevard,32608,29.6284734,-82.3832050
3101,Clark Butler Boulevard,32608,29.6251600,-82.3812580
4001,Southwest 30th Place,32608,29.6241298,-82.3840552
3205,Clark Butler Boulevard,32608,29.6244347,-82.3822356
3525,Southwest Archer Road,32608,29.6228782,-82.3762156
3411,Southwest Archer Road,32608,29.6259087,-82.3728977
3333,Southwest Archer Road,32608,29.6266179,-82.3720975
4620,Northwest 39th Place,32606,29.6891902,-82.3930127
1102,Northwest 23rd Avenue,32609,29.6742254,-82.3361803
1510,NW 13th St,32605,29.6660910,-82.3397258
3773,Northwest 13th Street,32609,29.6877097,-82.3382855
1250,West University Avenue,32601,29.6524919,-82.3387276
2002,SW 34th St,32608,29.6336288,-82.3738483
3317,Northwest 26th Street,32605,29.6835283,-82.3601372
4115,Northwest 16th Boulevard,32605,29.6721758,-82.3873321
4217,Northwest 16th Boulevard,32605,29.6731859,-82.3886635
4113,Northwest 16th Boulevard,32605,29.6721582,-82.3869806
2201,Northwest 43rd Street,32605,29.6726163,-82.3884811
4100,Northwest 16th Boulevard,32605,29.6735206,-82.3866765
4039,Newberry Road,32607,29.6535398,-82.3864526
3842,West Newberry Road,32607,29.6539141,-82.3817713
1221,Northwest 13th Street,32601,29.6639610,-82.3386428
1015,Northwest 13th Street,32601,29.6618669,-82.3380835
1206,West University Avenue,32601,29.6522698,-82.3373722
1223,Northwest 23rd Avenue,32609,29.6735588,-82.3380453
2225,Northwest 13th Street,32609,29.6737040,-82.3388044
1405,Southwest 13th Street,32608,29.6376523,-82.3389351
3904,Southwest Archer Road,32608,29.6211730,-82.3812101
2711,Clark Butler Boulevard,32608,29.6278912,-82.3863149
439,South Main Street,32601,29.6472363,-82.3247732
607,West University Avenue,32601,29.6519158,-82.3311482
3443,Archer Road,32608,29.6253379,-82.3737102
150,Northwest 6th Street,32601,29.6534001,-82.3314032
112,Northwest 6th Street,32601,29.6528990,-82.3314112
1765,Stadium Road,32611,29.6483345,-82.3451544
3524,Archer Road,32608,29.6244019,-82.3759969
1131,Northwest 64th Terrace,32605,29.6634586,-82.4112076
3524,Southwest Archer Road,32608,29.6242530,-82.3760623
1050,Nw 8th ave,32601,29.6606968,-82.3428005
114,Southwest 34th Street,32607,29.6507364,-82.3728128
2610,NW 43rd St,32606,29.6941654,-82.3885595
6,East University Avenue,32601,29.6521330,-82.3246475
309,Northeast 1st Street,32601,29.6543201,-82.3237702
1805,Southwest 13th Street,32608,29.6349498,-82.3389973
2426,SW 13th St,32608,29.6297234,-82.3397944
4045,Northwest 43rd Street,32606,29.6905828,-82.3875628
635,NW 13th St,32601,29.6573995,-82.3388824
901,Northwest 8th Avenue,32601,29.6588755,-82.3346107
5931,Northwest 1st Place,32607,29.6531218,-82.4060109
1720,Northwest 53rd Avenue,32653,29.7037519,-82.3453215
5310,Northwest 13th Street,32653,29.7037263,-82.3448065
2800,Southwest Williston Road,32608,29.6105646,-82.3639747
1340,West University Avenue,32603,29.6522545,-82.3395473
203,Northwest 13th Street,32601,29.6532908,-82.3390250
3720,Northwest 13th Street,32609-5910,29.6874469,-82.3407689
3501,Southwest 2nd Avenue,32607,29.6494549,-82.3759080
6605,Northwest 9th Boulevard,32605,29.6629052,-82.4126369
10,Southwest 2nd Avenue,32601,29.6504369,-82.3253504
5210,ML King Memorial Highway,32609,29.7026207,-82.3435292
4703,Northwest 53rd Avenue,32653,29.7027401,-82.3928783
4410,West Newberry Road,32607,29.6567500,-82.3907932
4111,Northwest 16th Boulevard,32605,29.6721640,-82.3866841
3424,Southwest Williston Road,32608,29.6034911,-82.3720363
3841,Archer Road,32608,29.6194617,-82.3813233
14,Northwest 7th Avenue,32601,29.6582340,-82.3255553
1717,Northwest 1st Avenue,32603,29.6526739,-82.3454448
4515,SW 29th Ave,32608,29.6271672,-82.3919599
2018,SW 34th St,32608,29.6332580,-82.3738556
2022,SW 34th St,32608,29.6331041,-82.3738061
1901,Northwest 30 Terrace,32605,29.6700554,-82.3663466
157,Gale Lemerand Drive,32611,29.6489688,-82.3491513
1949,Stadium Road,32611,29.6483856,-82.3479900
1949,Stadium Road,32611,29.6483903,-82.3489381
1949,Stadium Road,32611,29.6483914,-82.3487323
1949,Stadium Road,32611,29.6483891,-82.3483031
2074,Stadium Road,32611,29.6485743,-82.3511199
1885,Stadium Road,32611,29.6479241,-82.3475073
1864,Stadium Road,32611,29.6491479,-82.3472725
205,Fletcher Drive,32611,29.6502626,-82.3457115
205,Fletcher Drive,32611,29.6499260,-82.3457073
1728,West University Avenue,32603,29.6523133,-82.3456167
1724,West University Avenue,32603,29.6522752,-82.3454886
1728,West University Avenue,32603,29.6522192,-82.3455492
1720,West University Avenue,32603,29.6522767,-82.3453944
1716,West University Avenue,32603,29.6522305,-82.3453015
1730,West University Avenue,32603,29.6522526,-82.3457510
1712,West University Avenue,32603,29.6522339,-82.3452172
162,Fletcher Drive,32611,29.6504502,-82.3468141
549,Gale Lemerand Drive,32611,29.6476896,-82.3490366
3721,West University Avenue,32607,29.6512452,-82.3790033
3345,Southwest 34th Street,32608,29.6239180,-82.3710036
3550,Southwest 34th Street,32608,29.6212475,-82.3736425
1001,Northwest 4th Street,32601,29.6614456,-82.3279935
619,South Main Street,32601,29.6460704,-82.3243336
3490,Southwest Archer Road,32608,29.6256978,-82.3761159
1920,Northeast 23rd Avenue,32609,29.6738911,-82.3007202
230,Newell Drive,32611,29.6501860,-82.3437619
165,Buckman Drive,32611,29.6505053,-82.3442753
1765,Stadium Road,32611,29.6476572,-82.3464780
1507,West University Avenue,32611,29.6515780,-82.3420731
1507,West University Avenue,32611,29.6515767,-82.3418258
300,Southwest 13th Street,32611,29.6491562,-82.3399087
1400,Stadium Road,32611,29.6488717,-82.3407362
2070,Northeast Waldo Road,32609,29.6721991,-82.3008906
102,Southwest 6th Street,32601,29.6506440,-82.3306240
309,Village Drive,32611,29.6498492,-82.3588989
571,Gale Lemerand Drive,32611,29.6475246,-82.3495065
716,Gale Lemerand Drive,32611,29.6458893,-82.3509805
1900,McCarty Drive,32611,29.6463880,-82.3468327
686,Museum Road,32611,29.6464527,-82.3477896
1745,McCarty Drive,32611,29.6454145,-82.3457288
1368,Union Road,32611,29.6507629,-82.3401647
1404,Union Road,32611,29.6504115,-82.3407217
435,Newell Drive,32611,29.6482123,-82.3429210
1556,Inner Road,32611,29.6476256,-82.3426565
1881,Natural Area Drive,32611,29.6345885,-82.3667952
1953,Museum Road,32611,29.6446016,-82.3487929
2001,Museum Road,32611,29.6440542,-82.3497306
573,Newell Drive,32611,29.6469281,-82.3432114
1221,Southwest 5th Avenue,32611,29.6467058,-82.3381666
624,Southwest 12th Street,32611,29.6462783,-82.3379894
2129,Museum Road,32612,29.6444749,-82.3524792
596,Broward Drive,32611,29.6470262,-82.3411450
968,Center Drive,32611,29.6431204,-82.3472457
1355,Museum Drive,32611,29.6399630,-82.3627937
1275,Center Drive,32611,29.6406433,-82.3456799
510,Waldo Road,32601,29.6559569,-82.3093870
309,Northwest 48th Boulevard,32607,29.6554035,-82.3941715
3205,Clark Butler Boulevard,32608,29.6240870,-82.3819570
3970,Southwest Archer Road,32608,29.6212107,-82.3840762
3205,Clark Butler Boulevard,32608,29.6242881,-82.3821119
3205,Clark Butler Boulevard,32608,29.6241612,-82.3819898
3205,Clark Butler Boulevard,32608,29.6242181,-82.3820438
3970,Southwest Archer Road,32608,29.6209600,-82.3843819
3205,Clark Butler Boulevard,32608,29.6243616,-82.3821718
3942,Southwest Archer Road,32608,29.6216861,-82.3827578
3964,Southwest Archer Road,32608,29.6214786,-82.3833373
3926,Southwest Archer Road,32608,29.6215953,-82.3815385
3946,Southwest Archer Road,32608,29.6216579,-82.3829477
3906,Southwest Archer Road,32608,29.6212120,-82.3812998
3912,Southwest Archer Road,32608,29.6214506,-82.3814485
3958,Southwest Archer Road,32608,29.6215361,-82.3832136
3968,SW Archer Rd,32608,29.6214039,-82.3834487
3916,Southwest Archer Road,32608,29.6215274,-82.3814983
3910,Southwest Archer Road,32608,29.6212813,-82.3813395
3948,Southwest Archer Road,32608,29.6215988,-82.3830707
3914,Southwest Archer Road,32608,29.6214860,-82.3814653
115,Southeast 1st Street,32601,29.6505652,-82.3237887
3210,Southwest Archer Road,32608,29.6242874,-82.3789109
3728,Southwest Archer Road,32608,29.6231693,-82.3800964
3634,Southwest Archer Road,32608,29.6230029,-82.3780616
3630,Southwest Archer Road,32608,29.6231161,-82.3780282
3638,Southwest Archer Road,32608,29.6230133,-82.3782816
3230,Southwest Archer Road,32608,29.6239578,-82.3783080
3254,Southwest Archer Road,32608,29.6236372,-82.3776997
3214,Southwest Archer Road,32608,29.6242042,-82.3787680
3236,Southwest Archer Road,32608,29.6239194,-82.3782265
3720,Southwest Archer Road,32608,29.6234120,-82.3796435
3204,Southwest Archer Road,32608,29.6243738,-82.3790996
3650,Southwest Archer Road,32608,29.6234331,-82.3791167
3242,Southwest Archer Road,32608,29.6238001,-82.3780277
3218,Southwest Archer Road,32608,29.6241496,-82.3786683
3212,Southwest Archer Road,32608,29.6242402,-82.3788267
3202,Southwest Archer Road,32608,29.6244788,-82.3793932
3222,Southwest Archer Road,32608,29.6240752,-82.3785581
3226,Southwest Archer Road,32608,29.6240368,-82.3784428
3206,Southwest Archer Road,32608,29.6243254,-82.3790030
3256,Southwest Archer Road,32608,29.6236033,-82.3776318
3252,Southwest Archer Road,32608,29.6236742,-82.3777619
3240,Southwest Archer Road,32608,29.6238578,-82.3781116
3228,Southwest 35 Boulevard,32608,29.6239897,-82.3783750
3262,Southwest Archer Road,32608,29.6235524,-82.3775745
3736,Southwest 35 Boulevard,32608,29.6230189,-82.3804519
3644,Southwest Archer Road,32608,29.6232683,-82.3787917
3246,Southwest Archer Road,32608,29.6237161,-82.3778460
3642,Southwest Archer Road,32608,29.6231302,-82.3785168
1007,East University Avenue,32601,29.6515619,-82.3129165
3550,Southwest 34th Street,32608,29.6211316,-82.3736341
3443,Archer Road,32608,29.6252606,-82.3737946
1228,West University Avenue,32601,29.6522386,-82.3380530
3550,Southwest 34th Street,32608,29.6210766,-82.3736319
6401,West Newberry Road,32605,29.6580589,-82.4119609
3832,West Newberry Road,32607,29.6537242,-82.3813057
3822,West Newberry Road,32607,29.6529537,-82.3816253
3822,West Newberry Road,32607,29.6528818,-82.3815761
3822,West Newberry Road,32607,29.6529779,-82.3817341
3822,West Newberry Road,32607,29.6530413,-82.3819586
5237,Southwest 20th Avenue,32607,29.6394044,-82.3986305
2406,Northwest 43rd Street,32606,29.6756252,-82.3894516
1900,Southwest 13th Street,32608,29.6342828,-82.3404884
1712,Southwest 13th Street,32608,29.6351228,-82.3398456
1710,Southwest 13th Street,32608,29.6352336,-82.3398613
1624,Southwest 13th Street,32608,29.6356789,-82.3396925
3960,Southwest Archer Road,32608-2398,29.6194810,-82.3834942
3960,Southwest Archer Road,32608,29.6194659,-82.3835513
1249,Center Drive,32610,29.6409353,-82.3448944
2441,Northwest 43rd Street,32606,29.6761398,-82.3871464
3965,Plaza Boulevard,32608,29.6277165,-82.3827998
150,Northwest 13th Street,32601,29.6532554,-82.3394406
1412,West University Avenue,32603,29.6522167,-82.3411158
1412,West University Avenue,32603,29.6522167,-82.3411682
3820,Archer Road,32608,29.6206554,-82.3809297
3820,Archer Road,32608,29.6205843,-82.3810668
113,Northwest 8th Avenue,32601,29.6589132,-82.3263735
3501,Southwest 2nd Avenue,32607,29.6501673,-82.3759716
220,Northwest 8th Avenue,32601,29.6595403,-82.3274511
3820,Archer Road,32608,29.6207240,-82.3807871
3744,Archer Road,32608,29.6215622,-82.3792850
3744,Archer Road,32608,29.6216768,-82.3791099
3615,Southwest 42nd Avenue,32608,29.6135160,-82.3757701
3345,Southwest 34th Street,32608,29.6240326,-82.3707627
4780,Northwest 39th Avenue,32608,29.6890027,-82.3940795
101,Southeast 2nd Street,32601,29.6492452,-82.3234297
18,East University Avenue,32601,29.6521448,-82.3243652
3812,Newberry Road,32607,29.6527171,-82.3810794
3232,Southwest 35 Boulevard,32608,29.6239381,-82.3782702
3265,Southwest 34th Street,32608,29.6242673,-82.3719891
3333,Southwest 34th Street,32608,29.6238737,-82.3720631
3045,Southwest 34th Street,32608,29.6256200,-82.3705965
619,Northwest 5th Avenue,32601,29.6553113,-82.3313954
201,Southeast Depot Avenue,32601,29.6448415,-82.3234350
201,Southeast Depot Avenue,32601,29.6449572,-82.3229425
3500,Southwest 13th Street,32601,29.6212197,-82.3404088
1310,Southwest 13th Street,32601,29.6381321,-82.3395091
1310,Southwest 13th Street,32601,29.6307493,-82.3397466
5150,Southwest 34th Street,32608,29.6057137,-82.3726655
5162,Southwest 34th Street,32608,29.6055652,-82.3726360
5156,Southwest 34th Street,32608,29.6056531,-82.3726566
3045,Southwest 34th Street,32608,29.6254230,-82.3703711
3045,Southwest 34th Street,32608,29.6254402,-82.3703866
3045,Southwest 34th Street,32608,29.6252742,-82.3703425
3033,Southwest 34th Street,32608,29.6259135,-82.3711038
4,East University Avenue,32601,29.6521135,-82.3247383
6419,West Newberry Road,32605,29.6571790,-82.4105619
6257,West Newberry Road,32605,29.6567580,-82.4110456
5248,Southwest 34th Street,32608,29.6043218,-82.3724843
806,Nortwest 16th Avenue,32601,29.6673603,-82.3328550
1615,Northwest 3rd Place,32603,29.6545056,-82.3437364
1613,Northwest 3rd Place,32603,29.6545047,-82.3436509
1619,Northwest 3rd Place,32603,29.6545067,-82.3438460
1617,Northwest 3rd Place,32603,29.6545058,-82.3437604
4731,Northwest 53rd Avenue,32653,29.7016964,-82.3927303
22,Northeast 11th Street,32601,29.6523960,-82.3119164
3302,Northwest 13th Street,32609,29.6833358,-82.3395211
6815,West Newberry Road,32605,29.6590729,-82.4146990
716,E University Avenue,32601,29.6522040,-82.3171335
4780,Northwest 39th Avenue,32606,29.6889796,-82.3943817
1233,Northwest 10th Avenue,32601,29.6609145,-82.3382699
571,Gale Lemerand Drive,32611,29.6469854,-82.3495497
3333,Northeast 39th Avenue,32609-2639,29.6777210,-82.2795620
2632,Northwest 43rd Street,32606,29.6776698,-82.3901394
1349,Northwest 23rd Avenue,32605,29.6727541,-82.3397608
605,Woodlawn Drive,32611,29.6466853,-82.3532649
250,Gale Lemerand Drive,32611,29.6494300,-82.3511151
157,Gale Lemerand Drive,32611,29.6500337,-82.3488406
1864,Stadium Road,32611,29.6493515,-82.3472708
3760,Archer Road,32608,29.6211571,-82.3800500
3100,Southwest 35th Boulevard,32608-2415,29.6250806,-82.3791757
3501,Southwest Archer Road,32608,29.6236891,-82.3734683
3443,Archer Road,32608,29.6252123,-82.3736651
1692,McCarty Drive,32611,29.6469489,-82.3455117
1900,Northwest 13th Street,32609,29.6691555,-82.3412153
101,Northeast 23rd Avenue,32609-3640,29.6735286,-82.3233811
330,Newell Drive,32611,29.6491455,-82.3441159
2063,Stadium Road,32612,29.6479018,-82.3507343
2069,Stadium Road,32612,29.6474817,-82.3511821
1604,McCarty Drive,32611,29.6464877,-82.3443633
2087,Stadium Road,32612,29.6479753,-82.3514085
1688,McCarty Drive,32611,29.6466636,-82.3453601
1676,McCarty Drive,32611,29.6467474,-82.3449222
562,Gale Lemerand Drive,32612,29.6470163,-82.3507518
1048,Gale Lemerand Drive,32611,29.6427065,-82.3522248
684,Gale Lemerand Drive,32612,29.6461816,-82.3507513
2080,Museum Road,32612,29.6454322,-82.3514910
2088,Museum Road,32612,29.6458231,-82.3517794
528,Gale Lemerand Drive,32612,29.6473118,-82.3502230
2021,Gale Lemerand Drive,32611,29.6480453,-82.3501790
946,Center Drive,32611,29.6433325,-82.3475723
1800,McCarty Drive,32611,29.6461335,-82.3466371
968,Center Drive,32611,29.6431843,-82.3474374
939,Sweetwater Drive,32611,29.6433214,-82.3482393
1041,Center Drive,32611,29.6427387,-82.3461235
1745,McCarty Drive,32611,29.6453765,-82.3457262
945,Center Drive,32611,29.6433932,-82.3463192
1900,Museum Road,32611,29.6453780,-82.3480385
1156,Center Drive,32611,29.6416262,-82.3483762
1817,Museum Road,32611,29.6443354,-82.3461726
1103,Gale Lemerand Drive,32611,29.6422125,-82.3499696
1103,Gale Lemerand Drive,32611,29.6429068,-82.3499372
1103,Gale Lemerand Drive,32611,29.6419790,-82.3499755
1103,Gale Lemerand Drive,32611,29.6420189,-82.3502151
1817,Museum Road,32611,29.6442229,-82.3461384
1817,Museum Road,32611,29.6442167,-82.3462744
1103,Gale Lemerand Drive,32611,29.6421345,-82.3497309
1103,Gale Lemerand Drive,32611,29.6425178,-82.3501429
1103,Gale Lemerand Drive,32611,29.6425101,-82.3497474
651,Newell Drive,32612,29.6462401,-82.3429555
573,Newell Drive,32611,29.6469422,-82.3431990
759,Newell Drive,32611,29.6452673,-82.3429804
1367,Inner Road,32612,29.6467884,-82.3403045
1316,Museum Road,32612,29.6464575,-82.3398417
341,Buckman Drive,32611,29.6492170,-82.3444594
1885,Stadium Road,32611,29.6478617,-82.3473312
1843,Stadium Road,32611,29.6479777,-82.3464928
1358,Museum,32612,29.6462193,-82.3403612
503,Gale Lemerand Drive,32611,29.6475966,-82.3485494
1819,Stadium Road,32611,29.6480530,-82.3464400
586,Newell Drive,32611,29.6469041,-82.3439861
1702,McCarty Drive,32611,29.6460497,-82.3450297
1740,McCarty Drive,32611,29.6460300,-82.3456659
601,Gale Lemerand Drive,32611,29.6466821,-82.3491915
1762,McCarty Drive,32611,29.6462284,-82.3459653
633,Gale Lemerand Drive,32611,29.6464071,-82.3493924
2074,Stadium Road,32611,29.6485579,-82.3511327
1746,McCarty Drive,32611,29.6458141,-82.3457618
876,Newell Drive,32611,29.6439175,-82.3445363
882,Newell Drive,32611,29.6438615,-82.3448963
1741,Museum Road,32611,29.6444354,-82.3455064
904,Newell Drive,32611,29.6436224,-82.3448805
1475,Union Road,32611,29.6490990,-82.3416780
432,Newell Drive,32611,29.6482940,-82.3443415
1389,Inner Road,32611,29.6481821,-82.3406056
1523,Union Road,32611,29.6492770,-82.3420770
444,Newell Drive,32611,29.6479581,-82.3439546
435,Newell Drive,32611,29.6482278,-82.3429036
680,Broward Drive,32612,29.6465466,-82.3420847
1370,Inner Road,32611,29.6477280,-82.3404543
1357,Stadium Road,32611,29.6483944,-82.3401676
2129,Museum Road,32612,29.6445516,-82.3524837
2325,Southwest 2nd Avenue,32611,29.6500464,-82.3563872
2103,Museum Road,32612,29.6444819,-82.3517328
2107,Museum Road,32612,29.6443150,-82.3519625
2165,Museum Road,32612,29.6445171,-82.3532365
2422,West Fraternity Drive,32611,29.6481106,-82.3580863
1772,Stadium Road,32611,29.6489620,-82.3456858
110,Fletcher Drive,32612,29.6512532,-82.3467605
1700,Stadium Road,32611,29.6490569,-82.3451778
244,Fletcher Drive,32611,29.6501284,-82.3467761
1765,Stadium Road,32611,29.6481551,-82.3455186
162,Fletcher Drive,32611,29.6504481,-82.3468947
150,Fletcher Drive,32611,29.6502055,-82.3472670
571,Gale Lemerand Drive,32611,29.6473536,-82.3494979
1929,Stadium Road,32611,29.6473770,-82.3480551
549,Gale Lemerand Drive,32611,29.6474274,-82.3490459
1394,Diamond Road,32612,29.6431949,-82.3412428
1382,Diamond Road,32612,29.6428714,-82.3407404
1452,Diamond Road,32612,29.6428480,-82.3413469
1344,Diamond Road,32612,29.6429698,-82.3400818
1376,Diamond Road,32612,29.6426815,-82.3402097
1336,Diamond Road,32612,29.6432355,-82.3406010
1402,Diamond Road,32612,29.6424026,-82.3404750
1322,Diamond Road,32612,29.6432655,-82.3400554
1482,Diamond Road,32612,29.6419135,-82.3418525
1444,Diamond Road,32612,29.6425353,-82.3411608
1436,Diamond Road,32612,29.6422383,-82.3411115
1498,Diamond Road,32612,29.6422445,-82.3419551
1407,Museum Road,32612,29.6440964,-82.3407689
1304,Diamond Road,32612,29.6441620,-82.3398074
1308,Diamond Road,32612,29.6439892,-82.3404288
1405,West University Avenue,32611,29.6516201,-82.3410266
1508,Union Road,32611,29.6508683,-82.3418329
296,Buckman Drive,32611,29.6493871,-82.3455543
333,Newell Drive,32611,29.6490228,-82.3429198
1384,Union Road,32611,29.6512119,-82.3402707
1489,Union Road,32611,29.6494424,-82.3416282
1368,Union Road,32611,29.6507143,-82.3401722
280,Fletcher Drive,32611,29.6495139,-82.3465589
1404,Union Road,32611,29.6504006,-82.3407490
300,Southwest 13th Street,32611,29.6494368,-82.3399112
230,Newell Drive,32611,29.6501154,-82.3437851
1680,Union Road,32611,29.6500531,-82.3442719
80,Newell Drive,32611,29.6513959,-82.3439227
205,Fletcher Drive,32611,29.6500443,-82.3456988
1400,Stadium Road,32611,29.6488502,-82.3407286
1507,West University Avenue,32611,29.6515767,-82.3418860
1659,Museum Road,32611,29.6442782,-82.3443544
1006,Center Drive,32611,29.6426778,-82.3480275
1275,Center Drive,32611,29.6404268,-82.3457020
309,Village Drive,32611,29.6497274,-82.3591045
3150,Hull Road,32611,29.6384125,-82.3683814
1509,Museum Road,32612,29.6443641,-82.3417261
1064,Center Drive,32611,29.6422930,-82.3471658
1535,Gale Lemerand Drive,32611,29.6377613,-82.3496247
916,Newell Drive,32611,29.6435349,-82.3439113
1225,Center Drive,32611,29.6416705,-82.3452624
1180,Center Drive,32611,29.6414572,-82.3478236
1128,Center Drive,32611,29.6419457,-82.3478898
411,Village Drive,32611,29.6487760,-82.3594035
433,South Main Street,32601,29.6474577,-82.3245936
1800,Northeast 12th Avenue,32641,29.6640338,-82.3011478
6419,West Newberry Road,32605,29.6561334,-82.4114650
2101,Southwest 2nd Avenue,32611,29.6505919,-82.3526143
2151,West University Avenue,32603,29.6516406,-82.3539746
1500,Union Road,32611,29.6500967,-82.3420167
1478,Union Road,32611,29.6502164,-82.3416527
10,Fraternity Row,32603,29.6474633,-82.3571769
3315,West University Avenue,32607-2539,29.6509411,-82.3712816
14,Fraternity Row,32603,29.6481916,-82.3559267
596,Broward Drive,32611,29.6469438,-82.3413057
4202,Southwest 40th Boulevard,32608-2306,29.6158103,-82.3835943
1556,Inner Road,32611,29.6477002,-82.3426692
1456,Stadium Road,32611,29.6487316,-82.3413756
1250,West University Avenue,32601,29.6527407,-82.3386231
622,Southwest 11th Lane,32601,29.6409228,-82.3315514
1515,Southwest Archer Road,32608,29.6388494,-82.3424088
1938,West University Avenue,32603,29.6524870,-82.3490694
105,Northwest 16th Street,32611,29.6529758,-82.3429455
15,Fraternity Row,32603,29.6480459,-82.3555511
2209,Stadium Road,32612,29.6479080,-82.3539304
703,Corry Circle,32612,29.6459658,-82.3620305
21,West Fraternity Drive,32603,29.6473710,-82.3584120
2191,Stadium Road,32612,29.6477294,-82.3533824
2255,Stadium Road,32612,29.6480259,-82.3546495
561,Corry Circle,32612,29.6473195,-82.3615173
2211,Stadium Road,32612,29.6475868,-82.3537577
771,Corry Circle,32612,29.6455737,-82.3620260
2189,Stadium Road,32612,29.6480694,-82.3534657
661,Corry Circle,32612,29.6463712,-82.3620361
653,Corry Circle,32612,29.6465270,-82.3615104
2223,Stadium Road,32612,29.6475537,-82.3541285
629,Corry Circle,32612,29.6469264,-82.3615147
2249,Stadium Road,32612,29.6475938,-82.3545090
2263,Stadium Road,32612,29.6476491,-82.3548832
5A,Fraternity Row,32603,29.6457845,-82.3566713
523,Corry Circle,32612,29.6470316,-82.3607568
637,Corry Circle,32612,29.6467646,-82.3620364
2263,Stadium Road,32612,29.6473698,-82.3535049
2237,Stadium Road,32612,29.6478808,-82.3543135
677,Corry Circle,32612,29.6461320,-82.3615085
587,Corry Circle,32612,29.6471724,-82.3620156
739,Corry Circle,32612,29.6457301,-82.3615041
1505,Museum Drive,32611,29.6382682,-82.3636508
2550,Hull Road,32611,29.6383927,-82.3611442
1390,Date Palm Drive,32611,29.6393524,-82.3572552
2464,Hull Road,32611,29.6386950,-82.3598865
1505,Museum Drive,32611,29.6381481,-82.3632878
1505,Museum Drive,32611,29.6382793,-82.3639234
1355,Museum Drive,32611,29.6399644,-82.3632487
2350,Mowry Road,32611,29.6391018,-82.3596376
2448,Hull Road,32611,29.6384852,-82.3596116
1425,Museum Drive,32611,29.6391841,-82.3637669
3041,Radio Road,32612,29.6411361,-82.3668344
3025,Radio Road,32612,29.6415217,-82.3669047
2955,Radio Road,32612,29.6418261,-82.3661829
3621,Southwest Archer Road,32608,29.6213878,-82.3779045
3408,Southwest Archer Road,32608,29.6268265,-82.3736099
3418,Southwest Williston Road,32608,29.6040052,-82.3715812
1302,North Main Street,32601,29.6639297,-82.3257679
1140,North Main Street,32601,29.6629612,-82.3250209
20,Northwest 16th Avenue,32601,29.6669230,-82.3253577
228,Buckman Drive,32612,29.6500073,-82.3451691
125,Buckman Drive,32611,29.6508777,-82.3441351
4000,SW 37th Boulevard,32608,29.6162808,-82.3787445
5200,Southwest 34th Street,32608-5010,29.6049972,-82.3728507
1515,Museum Road,32612,29.6443974,-82.3421965
1387,Museum Road,32612,29.6443755,-82.3405974
1411,Museum Road,32612,29.6440830,-82.3410769
1310,Museum Road,32612,29.6459603,-82.3398710
1577,Museum Road,32611,29.6439328,-82.3430859
649,Newell Drive,32612,29.6462582,-82.3431896
711,Newell Drive,32611,29.6456825,-82.3432148
1149,Newell Drive,32610,29.6418174,-82.3432451
410,Fraternity Drive,32612,29.6487081,-82.3571115
716,Gale Lemerand Drive,32611,29.6458712,-82.3510336
2096,Museum Road,32612,29.6461488,-82.3519765
2166,Museum Road,32611,29.6455524,-82.3532299
414,Fraternity Drive,32612,29.6490405,-82.3576664
412,Fraternity Drive,32612,29.6491831,-82.3574975
408,Fraternity Drive,32612,29.6491117,-82.3570718
406,Fraternity Drive,32612,29.6491058,-82.3567738
404,Fraternity Drive,32612,29.6490102,-82.3563532
402,Fraternity Drive,32612,29.6488506,-82.3561774
324,Woodlawn Drive,32611,29.6492425,-82.3561351
290,Woodlawn Drive,32611,29.6496210,-82.3561945
2351,Southwest 2nd Avenue,32611,29.6496907,-82.3577119
517,Corry Circle,32612,29.6472946,-82.3607836
658,Corry Circle,32612,29.6460796,-82.3606791
620,Corry Circle,32612,29.6463918,-82.3608927
793,Corry Circle,32612,29.6453759,-82.3605103
2853,Radio Road,32612,29.6415223,-82.3650014
2907,Radio Road,32612,29.6418124,-82.3655566
3009,Radio Road,32612,29.6418124,-82.3668172
2943,Radio Road,32612,29.6413409,-82.3660649
2886,Hull Road,32611,29.6388538,-82.3653068
2894,Hull Road,32611,29.6390628,-82.3653097
2942,Hull Road,32611,29.6387980,-82.3659577
1788,Natural Area Drive,32611,29.6360474,-82.3659363
2960,Hull Road,32611,29.6394990,-82.3659958
133,Fletcher Drive,32612,29.6511959,-82.3460017
191,Fletcher Drive,32612,29.6507741,-82.3455749
72,Buckman Drive,32612,29.6512940,-82.3451999
132,Buckman Drive,32612,29.6508850,-82.3450021
54,Buckman Drive,32612,29.6514128,-82.3456864
572,Newell Drive,32611,29.6469099,-82.3443934
520,Newell Drive,32611,29.6473574,-82.3440520
2203,Surge Area Drive,32608,29.6324224,-82.3663604
2227,Surge Area Drive,32608,29.6318262,-82.3664206
2269,Surge Area Drive,32608,29.6312826,-82.3663188
1537,Blue Circle,32612,29.6380257,-82.3718223
1529,Blue Circle,32612,29.6382883,-82.3719052
1551,Blue Circle,32612,29.6381166,-82.3715073
1499,Blue Circle,32612,29.6384875,-82.3716072
1563,Blue Circle,32612,29.6380224,-82.3711902
1544,Orange Drive,32612,29.6381630,-82.3708689
1520,Orange Drive,32612,29.6384029,-82.3711866
1483,Blue Circle,32612,29.6386868,-82.3719836
1465,Blue Circle,32612,29.6388806,-82.3716815
1427,Blue Circle,32612,29.6392030,-82.3719010
1488,Orange Drive,32612,29.6386809,-82.3713204
1476,Orange Drive,32612,29.6387437,-82.3710097
1458,Orange Drive,32612,29.6389608,-82.3710957
1434,Orange Drive,32612,29.6391339,-82.3714027
1422,Orange Drive,32612,29.6392438,-82.3708595
1406,Orange Drive,32612,29.6393883,-82.3711493
1383,Blue Circle,32612,29.6393917,-82.3715958
1378,Orange Drive,32612,29.6399222,-82.3708906
1386,Blue Circle,32612,29.6400415,-82.3711641
1360,Orange Drive,32612,29.6400974,-82.3706026
1309,Blue Circle,32612,29.6403057,-82.3715272
1303,Blue Circle,32612,29.6402363,-82.3718704
1255,Blue Circle,32612,29.6406491,-82.3716474
1271,Blue Circle,32612,29.6404993,-82.3712469
1372,Orange Drive,32612,29.6403485,-82.3708264
1296,Orange Drive,32612,29.6405290,-82.3705906
1247,Blue Circle,32612,29.6407636,-82.3710540
1214,Orange Drive,32612,29.6411383,-82.3708022
1318,Orange Drive,32612,29.6402688,-82.3703110
1229,Blue Circle,32612,29.6408996,-82.3715032
1292,Orange Drive,32612,29.6404506,-82.3700266
1270,Orange Drive,32612,29.6407062,-82.3697950
1274,Orange Drive,32612,29.6407894,-82.3701436
1201,Blue Circle,32612,29.6411732,-82.3718980
1197,Blue Circle,32612,29.6412875,-82.3715992
1215,Blue Circle,32612,29.6411536,-82.3713030
1163,Blue Circle,32612,29.6415448,-82.3714126
1135,Blue Circle,32612,29.6417028,-82.3711397
1129,Blue Circle,32612,29.6414497,-82.3709451
1119,Blue Circle,32612,29.6417522,-82.3707109
1172,Orange Drive,32612,29.6414689,-82.3705441
1206,Orange Drive,32612,29.6412848,-82.3704368
1112,Blue Circle,32612,29.6418751,-82.3704218
1158,Blue Circle,32612,29.6416029,-82.3700306
1194,Blue Circle,32612,29.6413637,-82.3698513
1202,Orange Drive,32612,29.6411943,-82.3701382
2903,Southwest 13th Street,32601,29.6231088,-82.3388188
2905,Southwest 13th Street,32601,29.6230535,-82.3383884
2915,Southwest 13th Street,32601,29.6226929,-82.3386149
2907,Southwest 13th Street,32601,29.6231822,-82.3380973
2909,Southwest 13th Street,32601,29.6230988,-82.3377594
2911,Southwest 13th Street,32601,29.6230442,-82.3374410
2915,Southwest 13th Street,32601,29.6227898,-82.3379181
2919,Southwest 13th Street,32601,29.6227216,-82.3390332
1786,IFAS Research Drive,32611,29.6354502,-82.3646567
1786,IFAS Research Drive,32611,29.6356591,-82.3646188
1786,IFAS Research Drive,32611,29.6356466,-82.3639497
1786,IFAS Research Drive,32611,29.6355954,-82.3642422
1711,Southwest 37th Street,32607,29.6364499,-82.3776989
1733,Southwest 37th Street,32607,29.6360289,-82.3777013
2100,Northeast 39th Avenue,32609,29.6949997,-82.2975798
2800,Southwest 2nd Avenue,32607,29.6475468,-82.3682256
3300,Southwest Williston Road,32608,29.6064242,-82.3697963
978,Southwest 2nd Avenue,32601,29.6507155,-82.3346707
1220,Southwest 5th Avenue,32601,29.6477883,-82.3381989
3745,Northwest 16th Boulevard,32605,29.6694677,-82.3800437
1001,Northwest 31st Drive,32605,29.6613675,-82.3708802
2528,Northwest 38th Place,32605,29.6882447,-82.3592723
2200,Northwest 45th Avenue,32605,29.6972787,-82.3545558
4732,Millhopper Road,32653,29.7072581,-82.3951017
4009,Northwest 53rd Avenue,32653,29.7022016,-82.3825350
104,N Main St,32601,29.6530494,-82.3253576
303,West University Avenue,32601,29.6516444,-82.3283122
12,Southeast 1st Street,32601,29.6514788,-82.3244322
400,Southwest 2nd Avenue,32601,29.6507504,-82.3289264
102,Southwest 6th Street,32601,29.6506403,-82.3306224
210,Southwest 2nd Avenue,32601,29.6505766,-82.3269025
401,East University Avenue,32601,29.6515285,-82.3214167
100,NE First Street,32601,29.6530133,-82.3243582
3145,Northwest 43rd Street,32606,29.6819500,-82.3879230
3215,Hull Road,32611,29.6359398,-82.3703895
3163,Hull Road,32611,29.6363085,-82.3684627
3201,Hull Road,32611,29.6352836,-82.3692990
232,1/2 SE 1st St,32601,29.6493218,-82.3244017
212,Southeast 1st Street,32601,29.6499454,-82.3244735
5,Southeast Second Avenue,32601,29.6500674,-82.3247501
101,Southeast 1st Avenue,32601,29.6506472,-82.3236776
112,Southeast 1st Street,32601,29.6504949,-82.3242124
7,Southeast 1st Avenue,32601,29.6508034,-82.3245719
15,Southeast 1st Avenue,32601,29.6508029,-82.3243852
5700,Northwest 23rd Street,32653,29.7084656,-82.3564118
2363,Southwest 2nd Avenue,32611,29.6500688,-82.3577399
2801,Southwest 2nd Avenue,32611,29.6499182,-82.3649463
3252,Radio Road,32611,29.6426572,-82.3700852
3030,Radio Road,32611,29.6428311,-82.3670390
3274,Radio Road,32611,29.6436363,-82.3702063
3701,Northwest 26th Street,32605,29.6867608,-82.3600933
3712,Northwest 26th Street,32605,29.6868398,-82.3605717
3713,Northwest 26th Street,32605,29.6868594,-82.3601109
3721,Northwest 27th Street,32605,29.6869798,-82.3619311
3722,Northwest 27th Street,32605,29.6870259,-82.3623989
3723,Northwest 26th Terrace,32605,29.6869577,-82.3610470
3724,Northwest 26th Street,32605,29.6869434,-82.3605605
3725,Northwest 26th Street,32605,29.6869574,-82.3600953
3726,Northwest 26th Terrace,32605,29.6870029,-82.3615469
3730,Northwest 26th Street,32605,29.6870476,-82.3605640
3733,Northwest 27th Street,32605,29.6870941,-82.3619196
3735,Northwest 26th Terrace,32605,29.6870592,-82.3610402
3736,Northwest 27th Street,32605,29.6871298,-82.3623939
3737,Northwest 26th Street,32605,29.6870574,-82.3600964
3741,Northwest 26th Street,32605,29.6871575,-82.3600932
3742,Northwest 26th Terrace,32605,29.6871412,-82.3615422
3744,Northwest 26th Street,32605,29.6871440,-82.3605703
3745,Northwest 27th Street,32605,29.6872016,-82.3619203
3747,Northwest 26th Terrace,32605,29.6871621,-82.3610391
3748,Northwest 27th Street,32605,29.6872391,-82.3623918
3750,Northwest 26th Terrace,32605,29.6872503,-82.3615411
3753,Northwest 26th Terrace,32605,29.6872767,-82.3610262
3756,Northwest 26th Street,32605,29.6872423,-82.3605524
3757,Northwest 27th Street,32605,29.6873120,-82.3619217
3759,Northwest 26th Street,32605,29.6872562,-82.3601088
3760,Northwest 27th Street,32605,29.6873431,-82.3623882
3761,Northwest 26th Terrace,32605,29.6873753,-82.3610458
3764,Northwest 26th Terrace,32605,29.6873606,-82.3615445
3765,Northwest 27th Street,32605,29.6874237,-82.3619198
3767,Northwest 26th Street,32605,29.6873543,-82.3600967
3768,Northwest 26th Street,32605,29.6873424,-82.3605537
3772,Northwest 26th Street,32605,29.6874419,-82.3605544
3773,Northwest 26th Terrace,32605,29.6874861,-82.3610219
3774,Northwest 27th Street,32605,29.6874489,-82.3623872
3775,Northwest 26th Street,32605,29.6874511,-82.3600934
3776,Northwest 26th Terrace,32605,29.6874698,-82.3615184
3779,Northwest 27th Street,32605,29.6875312,-82.3619316
3780,Northwest 26th Street,32605,29.6875428,-82.3605651
3783,Northwest 26th Street,32605,29.6875508,-82.3601093
3785,Northwest 26th Terrace,32605,29.6875946,-82.3610428
3786,Northwest 27th Street,32605,29.6875528,-82.3623705
3788,Northwest 26th Terrace,32605,29.6875817,-82.3615308
3802,Northwest 26th Street,32605,29.6876460,-82.3605670
3803,Northwest 26th Street,32605,29.6876530,-82.3600937
3805,Northwest 27th Street,32605,29.6876424,-82.3619151
3806,Northwest 26th Terrace,32605,29.6876893,-82.3615350
3808,Northwest 27th Street,32605,29.6876618,-82.3623843
3809,Northwest 26th Terrace,32605,29.6876887,-82.3610324
3813,Northwest 27th Street,32605,29.6877547,-82.3619097
3814,Northwest 26th Street,32605,29.6877464,-82.3605656
3815,Northwest 26th Street,32605,29.6877513,-82.3600920
3816,Northwest 27th Street,32605,29.6877687,-82.3623813
3817,Northwest 26th Terrace,32605,29.6877926,-82.3610154
3818,Northwest 26th Terrace,32605,29.6878016,-82.3615327
3821,Northwest 27th Street,32605,29.6878623,-82.3619148
3822,Northwest 26th Terrace,32605,29.6879108,-82.3615274
3824,Northwest 27th Street,32605,29.6878721,-82.3623830
3825,Northwest 26th Terrace,32605,29.6878976,-82.3609986
3826,Northwest 26th Street,32605,29.6878443,-82.3605638
3827,Northwest 26th Street,32605,29.6878494,-82.3600934
3830,Northwest 26th Terrace,32605,29.6880212,-82.3615297
3831,Northwest 27th Street,32605,29.6879818,-82.3619267
3832,Northwest 27th Street,32605,29.6879859,-82.3623675
3833,Northwest 26th Terrace,32605,29.6880024,-82.3609792
3838,Northwest 26th Street,32605,29.6879449,-82.3605632
3839,Northwest 26th Street,32605,29.6879479,-82.3600904
3841,Northwest 26th Terrace,32605,29.6881089,-82.3609777
3844,Northwest 26th Street,32605,29.6880455,-82.3605622
3845,Northwest 26th Street,32605,29.6880472,-82.3600901
3850,Northwest 26th Street,32605,29.6881614,-82.3605631
3853,Northwest 26th Street,32605,29.6881591,-82.3600888
3857,Northwest 26th Terrace,32605,29.6882272,-82.3609770
3644,Northwest 25th Terrace,32605,29.6866482,-82.3596950
2509,Northwest 37th Place,32605,29.6869442,-82.3587902
3621,Northwest 25th Terrace,32605,29.6860426,-82.3592941
3315,Northwest 25th Terrace,32605,29.6832752,-82.3586654
2517,Northwest 35th Place,32605,29.6854251,-82.3586676
2505,Northwest 35th Place,32605,29.6860450,-82.3586781
2525,Northwest 36th Lane,32605,29.6863657,-82.3591070
3520,Northwest 25th Terrace,32605,29.6847809,-82.3592983
3650,Northwest 25th Terrace,32605,29.6868012,-82.3596955
2503,Northwest 37th Place,32605,29.6869876,-82.3586169
3615,Northwest 25th Terrace,32605,29.6859008,-82.3592967
3223,Northwest 25th Terrace,32605,29.6825100,-82.3586764
3626,Northwest 25th Terrace,32605,29.6861953,-82.3597075
2527,Northwest 37th Place,32605,29.6870120,-82.3592938
2507,Northwest 35th Place,32605,29.6858848,-82.3586643
2513,Northwest 36th Lane,32605,29.6862296,-82.3587760
2540,Northwest 34th Place,32605,29.6847140,-82.3596411
2543,Northwest 34th Place,32605,29.6842723,-82.3594919
3830,Northwest 25th Terrace,32605,29.6880315,-82.3596988
3632,Northwest 25th Terrace,32605,29.6863427,-82.3596807
2547,Northwest 34th Place,32605,29.6843553,-82.3596846
3836,Northwest 25th Terrace,32605,29.6881963,-82.3596964
3448,Northwest 25th Terrace,32605,29.6844825,-82.3591117
3556,Northwest 25th Terrace,32605,29.6855822,-82.3597151
3728,Northwest 25th Terrace,32605,29.6874035,-82.3596713
3542,Northwest 25th Terrace,32605,29.6851212,-82.3596265
2518,Northwest 35th Place,32605,29.6855202,-82.3590632
3812,Northwest 25th Terrace,32605,29.6875576,-82.3596808
2511,Northwest 38th Place,32605,29.6876633,-82.3587626
3523,Northwest 25th Terrace,32605,29.6849470,-82.3588968
3710,Northwest 25th Terrace,32605,29.6869509,-82.3597041
2528,Northwest 37th Place,32605,29.6873770,-82.3592737
3609,Northwest 25th Terrace,32605,29.6857645,-82.3592871
3532,Northwest 25th Terrace,32605,29.6848844,-82.3594248
2539,Northwest 38th Place,32605,29.6877040,-82.3592672
2508,Northwest 36th Lane,32605,29.6867260,-82.3586225
2516,Northwest 37th Place,32605,29.6874378,-82.3589300
3211,Northwest 25th Terrace,32605,29.6823543,-82.3586627
3334,Northwest 25th Terrace,32605,29.6834955,-82.3590785
3260,Northwest 25th Terrace,32605,29.6830336,-82.3590766
3349,Northwest 25th Terrace,32605,29.6837391,-82.3586701
3212,Northwest 25th Terrace,32605,29.6824115,-82.3592355
2518,Northwest 38th Place,32605,29.6881478,-82.3589498
3437,Northwest 25th Terrace,32605,29.6843473,-82.3586634
3546,Northwest 25th Terrace,32605,29.6852708,-82.3596644
3220,Northwest 25th Terrace,32605,29.6825746,-82.3590960
2526,Northwest 36th Lane,32605,29.6867280,-82.3591251
3429,Northwest 25th Terrace,32605,29.6841957,-82.3586641
3201,Northwest 25th Terrace,32605,29.6821234,-82.3589167
2505,Northwest 38th Place,32605,29.6877236,-82.3585934
3550,Northwest 25th Terrace,32605,29.6854210,-82.3596931
3507,Northwest 25th Terrace,32605,29.6848046,-82.3588011
3204,Northwest 25th Terrace,32605,29.6821271,-82.3591013
2506,Northwest 38th Place,32605,29.6881005,-82.3585997
3453,Northwest 25th Terrace,32605,29.6846624,-82.3587268
2523,Northwest 38th Place,32605,29.6877280,-82.3590973
2521,Northwest 35th Place,32605,29.6852512,-82.3586889
2514,Northwest 36th Lane,32605,29.6867257,-82.3587875
2534,Northwest 33rd Place,32605,29.6840419,-82.3592981
2545,Northwest 33rd Place,32605,29.6836446,-82.3596900
2517,Northwest 38th Place,32605,29.6876639,-82.3589276
3531,Northwest 25th Terrace,32605,29.6850626,-82.3590137
2520,Northwest 36th Lane,32605,29.6867260,-82.3589568
2522,Northwest 37th Place,32605,29.6873758,-82.3590996
3255,Northwest 25th Terrace,32605,29.6829585,-82.3586672
2548,Northwest 33rd Place,32605,29.6838163,-82.3597255
3346,Northwest 25th Terrace,32605,29.6836478,-82.3590925
2504,Northwest 37th Place,32605,29.6873786,-82.3586054
3243,Northwest 25th Terrace,32605,29.6828029,-82.3586685
3304,Northwest 25th Terrace,32605,29.6831859,-82.3590766
2521,Northwest 37th Place,32605,29.6869897,-82.3591244
3337,Northwest 25th Terrace,32605,29.6835910,-82.3586668
2537,Northwest 33rd Place,32605,29.6835572,-82.3593209
2509,Northwest 35th Place,32605,29.6857301,-82.3586628
2519,Northwest 36th Lane,32605,29.6863668,-82.3589518
3638,Northwest 25th Terrace,32605,29.6865030,-82.3596806
3322,Northwest 25th Terrace,32605,29.6833403,-82.3590748
2515,Northwest 37th Place,32605,29.6869503,-82.3589544
3627,Northwest 25th Terrace,32605,29.6861892,-82.3592829
3325,Northwest 25th Terrace,32605,29.6834367,-82.3586676
3614,Northwest 25th Terrace,32605,29.6858918,-82.3597008
3236,Northwest 25th Terrace,32605,29.6827244,-82.3590781
2532,Northwest 36th Lane,32605,29.6867277,-82.3593179
3411,Northwest 25th Terrace,32605,29.6840399,-82.3586661
2501,Northwest 35th Place,32605,29.6861473,-82.3589424
2531,Northwest 36th Lane,32605,29.6863674,-82.3592941
2542,Northwest 34th Place,32605,29.6845341,-82.3597095
3434,Northwest 25th Terrace,32605,29.6842990,-82.3590785
3620,Northwest 25th Terrace,32605,29.6860432,-82.3597068
3248,Northwest 25th Terrace,32605,29.6828777,-82.3590772
3353,Northwest 25th Terrace,32605,29.6838932,-82.3586675
3208,Northwest 25th Terrace,32605,29.6821672,-82.3592905
2512,Northwest 38th Place,32605,29.6881569,-82.3587720
3447,Northwest 25th Terrace,32605,29.6845078,-82.3586856
2539,Northwest 34th Place,32605,29.6842789,-82.3593050
3824,Northwest 25th Terrace,32605,29.6878684,-82.3597008
3402,Northwest 25th Terrace,32605,29.6839675,-82.3590776
3426,Northwest 25th Terrace,32605,29.6841475,-82.3590793
2544,Northwest 33rd Place,32605,29.6840098,-82.3596908
3818,Northwest 25th Terrace,32605,29.6877083,-82.3596821
3716,Northwest 25th Terrace,32605,29.6871029,-82.3597015
2510,Northwest 37th Place,32605,29.6874390,-82.3587624
3557,Northwest 25th Terrace,32605,29.6855472,-82.3592885
3235,Northwest 25th Terrace,32605,29.6826511,-82.3586770
2538,Northwest 33rd Place,32605,29.6840515,-82.3594705
2541,Northwest 33rd Place,32605,29.6835590,-82.3595029
2511,Northwest 35th Place,32605,29.6855757,-82.3586614
2507,Northwest 36th Lane,32605,29.6862267,-82.3586061
3538,Northwest 25th Terrace,32605,29.6850062,-82.3595277
3722,Northwest 25th Terrace,32605,29.6872527,-82.3596988
3549,Northwest 25th Terrace,32605,29.6853611,-82.3592407
3780,Northwest 16th Boulevard,32605,29.6707710,-82.3803527
6519,West Newberry Road,32607,29.6539796,-82.4129879
6123,West Newberry Road,32605,29.6591729,-82.4084832
3500,Windmeadows Boulevard,32608,29.6293193,-82.3741199
2055,Mowry Road,32610,29.6372408,-82.3519309
2033,Mowry Road,32610,29.6380311,-82.3515671
2199,Mowry Road,32611,29.6375160,-82.3539259
2173,Mowry Road,32611,29.6372656,-82.3529984
2187,Mowry Road,32611,29.6367731,-82.3530744
1062,Museum Road,32611,29.6440297,-82.3640654
1953,Museum Road,32611,29.6445304,-82.3488648
2004,Mowry Road,32610,29.6398038,-82.3497676
1101,Museum Road,32611,29.6422312,-82.3635647
2023,Mowry Road,32610,29.6390593,-82.3493702
1101,Museum Road,32611,29.6420156,-82.3636184
1901,Northeast 9th Street,32609,29.6690558,-82.3125265
1250,Northeast 18th Avenue,32609,29.6691777,-82.3080540
507,Northwest 5th Avenue,32601,29.6554880,-82.3299270
2046,Northeast Waldo Road,32609,29.6720062,-82.2994514
2060,Northeast Waldo Road,32609,29.6725909,-82.2999288
1912,Northwest 5th Avenue,32603,29.6567428,-82.3505136
2900,Southwest 42nd Street,32608,29.6272371,-82.3883957
3447,SW 42nd Avenue,32608,29.6138499,-82.3730963
1412,North Main Street,32601,29.6650619,-82.3248662
515,Northwest 23rd Avenue,32609,29.6735104,-82.3298310
3826,Southwest 40th Boulevard,32608,29.6189348,-82.3841900
2092,Stadium Road,32611,29.6486185,-82.3515709
3654,Archer Road,32608,29.6222897,-82.3780490
513,East University Avenue,32601,29.6516236,-82.3202791
3404,Southwest Archer Road,32608,29.6270957,-82.3733348
3520,Southwest 34th Street,32608,29.6218618,-82.3735971
1949,Stadium Road,32611,29.6483131,-82.3484553
1901,Stadium Road,32611,29.6479536,-82.3480852
1917,Stadium Road,32611,29.6476412,-82.3480897
3816,Northwest 14th Place,32605,29.6660433,-82.3810859
1549,Gale Lemerand Drive,32611,29.6378590,-82.3489715
747,Southwest 2nd Avenue,32601,29.6498988,-82.3330342
2220,Southwest Archer Road,32608,29.6352550,-82.3555580
1400,Northeast 8th Avenue,32601,29.6618786,-82.3064365
2214,Stadium Road,32611,29.6488072,-82.3537991
2132,Stadium Road,32611,29.6499346,-82.3522042
13,Fraternity Row,32603,29.6481185,-82.3563881
11,Fraternity Row,32603,29.6478234,-82.3571385
9,Fraternity Row,32603,29.6471021,-82.3571870
6,Fraternity Row,32603,29.6460660,-82.3569041
4,Fraternity Row,32603,29.6454466,-82.3557543
1,Fraternity Row,32603,29.6452488,-82.3544706
2024,Natural Area Drive,32611,29.6334972,-82.3674426
3710,Northwest 13th Street,32609,29.6864583,-82.3395618
3831,Northwest 13th Street,32609,29.6882294,-82.3385123
5150,Northwest 13th Street,32609,29.7012719,-82.3440095
3500,Northeast 15th Street,32609,29.6845424,-82.3075473
3800,Northwest 6th Street,32609,29.6875624,-82.3328010
2142,Shealy Drive,32608,29.6325316,-82.3512608
2337,SW Archer Road,32608,29.6333051,-82.3569107
2401,SW Archer Rd,32608,29.6318697,-82.3597131
2409,SW Archer Road,32608,29.6318724,-82.3603111
532,Southeast 2nd Avenue,32601,29.6506644,-82.3201722
219,NW 19 ST,32611,29.6537431,-82.3474863
1645,West University Avenue,32611,29.6514416,-82.3444246
1325,West University Avenue,32611,29.6515170,-82.3400099
1104,Newell Drive,32610,29.6420050,-82.3444568
82,Mowry Road,32611,29.6404396,-82.3485625
939,Sweetwater Drive,32611,29.6429524,-82.3486408
998,Sweetwater Drive,32611,29.6430040,-82.3490474
896,Sweetwater Drive,32611,29.6438866,-82.3489318
1714,McCarty Drive,32611,29.6459290,-82.3453097
2020,West University Avenue,32603,29.6523591,-82.3504523
2489,West Fraternity Drive,32603,29.6473001,-82.3595155
1814,West University Avenue,32603,29.6524569,-82.3468874
1904,West University Avenue,32603,29.6525171,-82.3481069
100,Northwest 20th Terrace,32603,29.6524922,-82.3495947
100,Northwest 20th Street,32603,29.6528173,-82.3496079
1237,Southwest 2nd Avenue,32601,29.6499237,-82.3384317
1108,Northwest 7th Avenue,32601,29.6584220,-82.3360611
3055,Northeast 28th Drive,32609,29.6797594,-82.2870795
1621,Northeast Waldo Road,32609,29.6712992,-82.2957008
1245,Southeast 7th Avenue,32641,29.6450456,-82.3083499
1001,Southeast 12th Street,32641,29.6428471,-82.3086791
300,Southwest 16th Avenue,32601,29.6374416,-82.3290808
2777,Southwest Archer Road,32608,29.6282048,-82.3634924
2330,Southwest Williston Road,32608,29.6158613,-82.3582243
2800,Southwest 35th Place,32608,29.6221556,-82.3633573
3000,Southwest 35th Place,32608,29.6235595,-82.3676798
2708,Southwest Archer Road,32608,29.6322782,-82.3639661
1600,Southwest Archer Road,32608,29.6404308,-82.3430986
1601,Southwest Archer Road,32608,29.6368176,-82.3465355
6500,West Newberry Road,32605,29.6613796,-82.4112006
2930,Southwest 23rd Terrace,32608,29.6246867,-82.3598028
2900,Southwest 23rd Terrace,32608,29.6256838,-82.3575412
3006,Southwest 23rd Terrace,32608,29.6226820,-82.3572446
3009,Southwest Archer Road,32608,29.6275687,-82.3680757
3001,Southwest Archer Road,32608,29.6284100,-82.3670788
2601,Southwest Archer Road,32608,29.6301274,-82.3626931
317,Southwest 4th Avenue,32601,29.6512263,-82.3237066
185,East University Avenue,32601,29.6517291,-82.3232505
5410,NW 83 Place,32653,29.7322669,-82.4016448
1000,Southwest 62nd Boulevard,33178,29.6426603,-82.4007756
1120,Southeast Veitch Street,32601,29.6398086,-82.3247441
3101,Southwest 35th Boulevard,32608,29.6270790,-82.3772812
4036,Southwest 30th Place,32608,29.6256927,-82.3844446
3003,Clark Butler Boulevard,32608,29.6262721,-82.3818140
3205,Clark Butler Boulevard,32608,29.6242076,-82.3820556
3275,Southwest 40th Boulevard,32608,29.6237686,-82.3892825
716,Southwest 16th Avenue,32601,29.6378084,-82.3334873
929,Southwest 13th Street,32608,29.6428012,-82.3390369
903,Southwest 13th Street,32601,29.6433886,-82.3390041
3600,Southwest 47th Avenue,32608,29.6093341,-82.3763974
11,Southeast Second Avenue,32601,29.6500779,-82.3245570
308,Northwest 5th Avenue,32601,29.6557230,-82.3281794
508,Southwest 34th Street,32607,29.6474353,-82.3739964
510,Southwest 34th Street,32607,29.6470358,-82.3740923
500,Southwest 34th Street,32607,29.6475870,-82.3728873
502,Southwest 34th Street,32607,29.6471046,-82.3728739
504,Southwest 34th Street,32607,29.6471371,-82.3732032
506,Southwest 34th Street,32607,29.6471534,-82.3736028
512,Southwest 34th Street,32607,29.6466564,-82.3738483
514,Southwest 34th Street,32607,29.6466779,-82.3730248
720,Southwest 34th Street,32607,29.6456347,-82.3735291
1222,West University Avenue,32601,29.6522779,-82.3378590
1120,East University Avenue,32641,29.6524701,-82.3103498
3500,Windmeadows Boulevard,32608,29.6289342,-82.3745024
1037,Magnolia Drive,32611,29.6427568,-82.3678498
994,Elmore Drive,32611,29.6433211,-82.3671127
3190,Radio Road,32611,29.6424698,-82.3693184
1026,Magnolia Drive,32611,29.6429599,-82.3692548
2390,Mowry Road,32611,29.6384475,-82.3590971
971,Elmore Drive,32611,29.6434287,-82.3661552
3450,Hull Road,32611,29.6384422,-82.3737427
1600,Southwest 23rd Drive,32608,29.6349195,-82.3595065
958,Elmore Drive,32611,29.6434409,-82.3680421
970,Magnolia Drive,32611,29.6434536,-82.3687953
954,Magnolia Drive,32611,29.6435045,-82.3692228
902,Magnolia Drive,32611,29.6440303,-82.3692324
906,Elmore Drive,32611,29.6441594,-82.3678735
918,Elmore Drive,32611,29.6439073,-82.3680816
902,Magnolia Drive,32611,29.6440917,-82.3683241
902,Magnolia Drive,32611,29.6438542,-82.3683242
807,West Panhellenic Drive,32601,29.6446345,-82.3380273
203,Northwest 13th Street,32601,29.6535108,-82.3388322
2162,Northwest 39th Avenue,32605,29.6889429,-82.3542121
3430,Northwest 31st Terrace,32605,29.6854963,-82.3709640
3510,Northwest 31st Terrace,32605,29.6857988,-82.3702856
3612,Northwest 31st Terrace,32605,29.6861667,-82.3702485
3645,Northwest 31st Terrace,32605,29.6871004,-82.3691731
412,Southwest 4th Avenue,32601,29.6485055,-82.3293872
2048,Stadium Road,32611,29.6487037,-82.3507844
10,Southwest 2nd Avenue,32601,29.6504365,-82.3252883
503,Southwest 3rd Street,32601,29.6470262,-82.3277928
2700,Archer Road,32608,29.6325661,-82.3627244
4410,West Newberry Road,32607,29.6566327,-82.3908062
2224,Northwest 13th Street,32605,29.6736536,-82.3396016
6003,Newberry Road,32605,29.6591805,-82.4072587
710,Northwest 60th Street,32607,29.6591711,-82.4068007
1001,Northwest 4th Street,32601,29.6614101,-82.3284259
210,Northwest 10th Avenue,32601,29.6614080,-82.3272537
1504,Northwest 13th Street,32601,29.6658861,-82.3396137
5480,Northwest 43rd Street,32653,29.7043994,-82.3893454
2435,Southwest 13th Street,32608,29.6294927,-82.3386585
1901,Southwest 13th Street,32608,29.6342284,-82.3386807
2610,Southwest 23rd Terrace,32611,29.6270836,-82.3606666
2610,Southwest 23rd Terrace,32611,29.6274442,-82.3605146
2610,Southwest 23rd Terrace,32611,29.6280954,-82.3614766
2610,Southwest 23rd Terrace,32611,29.6289739,-82.3613226
2115,Southwest 13th Street,32608,29.6319606,-82.3389406
1614,Northwest 13th Street,32609,29.6672508,-82.3395465
1000,Northeast 16th Avenue,32601,29.6670757,-82.3136879
2851,SW 35th Dr,32608,29.6267199,-82.3753996
5110,Northwest 43rd Street,32606,29.7011890,-82.3896375
4340,West Newberry Rd,32607,29.6566689,-82.3895266
105,Gale Lemerand Drive,32611,29.6511078,-82.3486199
207,Southwest 13th Street,32601,29.6498753,-82.3388518
121,Southwest 13th Street,32601,29.6505720,-82.3388513
1152,East Panhellenic Drive,32601,29.6439680,-82.3375746
1142,East Panhellenic Drive,32601,29.6443798,-82.3374470
1134,East Panhellenic Drive,32601,29.6445879,-82.3370699
1122,East Panhellenic Drive,32601,29.6446279,-82.3365630
1108,East Panhellenic Drive,32601,29.6445540,-82.3361147
1115,Southwest 9th Avenue,32601,29.6433824,-82.3362099
1120,Southwest 9th Road,32601,29.6431516,-82.3368869
832,West Panhellenic Drive,32601,29.6439067,-82.3388519
820,West Panhellenic Drive,32601,29.6442973,-82.3389060
808,West Panhellenic Drive,32601,29.6446560,-82.3389165
819,West Panhellenic Drive,32601,29.6442711,-82.3380279
831,West Panhellenic Drive,32601,29.6439016,-82.3381251
715,Southwest 10th Street,32601,29.6452464,-82.3347076
401,Southwest 13th Street,32601,29.6481468,-82.3389485
1235,Southwest 9th Avenue,32601,29.6433599,-82.3385907
450,Village Drive,32611,29.6481918,-82.3608225
157,Gale Lemerand Drive,32611,29.6509095,-82.3479235
121,Gale Lemerand Drive,32611,29.6509160,-82.3493213
1738,West University Avenue,32603,29.6524833,-82.3459500
222,Fletcher Drive,32611,29.6501365,-82.3463499
357,Fletcher Drive,32611,29.6490668,-82.3455647
343,Fletcher Drive,32611,29.6492043,-82.3455322
331,Fletcher Drive,32611,29.6493000,-82.3455245
527,Gale Lemerand Drive,32611,29.6471314,-82.3479672
1788,Natural Area Drive,32611,29.6366432,-82.3661774
325,Northwest 10th Avenue,32601,29.6607138,-82.3285108
300,Northwest 8th Avenue,32601,29.6599568,-82.3282817
418,Northwest 8th Avenue,32601,29.6599078,-82.3292726
325,Woodlawn Drive,32611,29.6493482,-82.3546533
2261,Southwest 2nd Avenue,32611,29.6502428,-82.3552469
1384,Union Road,32611,29.6510801,-82.3404728
2070,Northeast Waldo Road,32609,29.6723229,-82.3007793
2100,Northeast Waldo Road,32609,29.6720990,-82.2988175
2140,Northeast Waldo Road,32609,29.6721682,-82.2984850
351,Village Drive,32611,29.6492151,-82.3590598
2237,Southwest 2nd Avenue,32611,29.6497904,-82.3570801
1441,Bledsoe Drive,32611,29.6391543,-82.3690066
1554,Bledsoe Drive,32611,29.6381627,-82.3700143
1341,Bledsoe Drive,32611,29.6399720,-82.3676428
1237,Bledsoe Drive,32611,29.6408707,-82.3687511
686,Museum Road,32611,29.6462237,-82.3478750
686,Reitz Union Drive,32611,29.6453860,-82.3482465
1788,Natural Area Drive,32611,29.6373070,-82.3668553
2976,Hull Road,32611,29.6399576,-82.3662127
3091,Radio Road,32611,29.6419761,-82.3679105
3089,Radio Road,32611,29.6418563,-82.3679514
3065,Radio Road,32611,29.6417777,-82.3674987
3073,Radio Road,32611,29.6417935,-82.3677423
3097,Radio Road,32611,29.6414587,-82.3677634
3097,Radio Road,32611,29.6415436,-82.3678903
3067,Radio Road,32611,29.6417696,-82.3675552
3480,Hull Road,32611,29.6390154,-82.3752854
1786,IFAS Research Drive,32611,29.6355853,-82.3635719
1786,IFAS Research Drive,32611,29.6354323,-82.3640294
1786,IFAS Research Drive,32611,29.6354261,-82.3638988
3063,Long Leaf Road,32611,29.6306426,-82.3677410
2320,Surge Area Drive,32611,29.6307440,-82.3672210
2230,Surge Area Drive,32611,29.6309249,-82.3672739
3023,Long Leaf Road,32611,29.6310984,-82.3670475
3051,Long Leaf Road,32611,29.6311047,-82.3674958
2230,Surge Area Drive,32611,29.6307934,-82.3674650
3047,Long Leaf Road,32611,29.6311127,-82.3673307
3075,Long Leaf Road,32611,29.6311751,-82.3679477
3071,Long Leaf Road,32611,29.6309209,-82.3679494
3076,Long Leaf Road,32611,29.6317456,-82.3681535
2230,Surge Area Drive,32611,29.6318454,-82.3671862
2230,Surge Area Drive,32611,29.6317120,-82.3674965
2230,Surge Area Drive,32611,29.6319599,-82.3675226
2230,Surge Area Drive,32611,29.6317637,-82.3675654
2104,Natural Area Drive,32611,29.6329045,-82.3674192
2104,Natural Area Drive,32611,29.6330115,-82.3674228
1786,IFAS Research Drive,32611,29.6349115,-82.3635936
2024,IFAS Research Drive,32611,29.6336589,-82.3617112
2043,IFAS Research Drive,32611,29.6331642,-82.3611502
2047,IFAS Research Drive,32611,29.6331565,-82.3609152
2039,IFAS Research Drive,32611,29.6334925,-82.3610185
3113,Hull Road,32611,29.6355935,-82.3683779
3109,Hull Road,32611,29.6356220,-82.3681158
2027,Natural Area Drive,32611,29.6336606,-82.3667642
2027,Natural Area Drive,32611,29.6338539,-82.3667533
2027,Natural Area Drive,32611,29.6338619,-82.3670666
2027,Natural Area Drive,32611,29.6338617,-82.3670134
2027,Natural Area Drive,32611,29.6338590,-82.3669075
2027,Natural Area Drive,32611,29.6338592,-82.3669608
2027,Natural Area Drive,32611,29.6337450,-82.3669129
2027,Natural Area Drive,32611,29.6337452,-82.3669661
2027,Natural Area Drive,32611,29.6337477,-82.3670187
2027,Natural Area Drive,32611,29.6337479,-82.3670720
2027,Natural Area Drive,32611,29.6336496,-82.3669642
2027,Natural Area Drive,32611,29.6336480,-82.3669052
2027,Natural Area Drive,32611,29.6336499,-82.3670235
2027,Natural Area Drive,32611,29.6335843,-82.3669667
2027,Natural Area Drive,32611,29.6335165,-82.3669106
2027,Natural Area Drive,32611,29.6335818,-82.3669072
2027,Natural Area Drive,32611,29.6334678,-82.3667391
2027,Natural Area Drive,32611,29.6337871,-82.3662165
2027,Natural Area Drive,32611,29.6336313,-82.3664634
2027,Natural Area Drive,32611,29.6337965,-82.3664835
2027,Natural Area Drive,32611,29.6337456,-82.3666081
2027,Natural Area Drive,32611,29.6336994,-82.3666094
2027,Natural Area Drive,32611,29.6336325,-82.3666113
2027,Natural Area Drive,32611,29.6335802,-82.3666133
2027,Natural Area Drive,32611,29.6338748,-82.3666111
2027,Natural Area Drive,32611,29.6338269,-82.3666122
2027,Natural Area Drive,32611,29.6340378,-82.3656837
2027,Natural Area Drive,32611,29.6342080,-82.3655332
1881,Natural Area Drive,32611,29.6346055,-82.3656682
564,Newell Drive,32611,29.6470822,-82.3447525
573,Newell Drive,32611,29.6470801,-82.3429547
2100,Northeast Waldo Road,32609,29.6729583,-82.3001889
624,Southwest 12th Street,32611,29.6462322,-82.3379916
2183,Museum Road,32612,29.6441822,-82.3533734
2291,Museum Road,32611,29.6446609,-82.3556030
1365,Museum Road,32612,29.6442039,-82.3402452
899,Newell Drive,32611,29.6436825,-82.3431612
1509,Museum Road,32612,29.6437914,-82.3425065
1509,Museum Road,32612,29.6440238,-82.3419969
2801,Southwest 2nd Avenue,32611,29.6500812,-82.3653512
2466,Museum Road,32611,29.6451053,-82.3592016
1062,Museum Road,32611,29.6444129,-82.3641469
1062,Museum Road,32611,29.6447648,-82.3635830
2656,Museum Road,32611,29.6445374,-82.3627531
1425,Museum Drive,32611,29.6392133,-82.3632716
1425,Museum Drive,32611,29.6391050,-82.3632760
1388,Orchard Drive,32611,29.6396600,-82.3604384
2668,Hull Road,32611,29.6380523,-82.3628216
2550,Hull Road,32611,29.6384539,-82.3602757
1388,Orchard Drive,32611,29.6393736,-82.3603390
1388,Orchard Drive,32611,29.6394082,-82.3605991
1388,Orchard Drive,32611,29.6394085,-82.3605342
1388,Orchard Drive,32611,29.6393340,-82.3605341
1388,Orchard Drive,32611,29.6393337,-82.3605990
1388,Orchard Drive,32611,29.6395165,-82.3602176
2570,Hull Road,32611,29.6390705,-82.3607442
2475,Memorial Road,32611,29.6394774,-82.3596019
2350,Mowry Road,32611,29.6391323,-82.3594726
1397,Orchard Drive,32611,29.6395013,-82.3599671
2475,Memorial Road,32611,29.6406023,-82.3586237
2475,Memorial Road,32611,29.6406055,-82.3584502
2475,Memorial Road,32611,29.6406063,-82.3582794
2475,Memorial Road,32611,29.6403807,-82.3586210
2475,Memorial Road,32611,29.6403805,-82.3584493
2475,Memorial Road,32611,29.6403805,-82.3582766
2475,Memorial Road,32611,29.6403798,-82.3581023
1276,Date Palm Drive,32611,29.6403616,-82.3579286
2475,Memorial Road,32611,29.6404290,-82.3599503
1273,Gale Lemerand Drive,32611,29.6403833,-82.3501938
2306,Mowry Road,32611,29.6386280,-82.3560397
1445,Date Palm Drive,32611,29.6387467,-82.3567155
1501,Date Palm Drive,32611,29.6385052,-82.3569415
2322,Mowry Road,32611,29.6383789,-82.3565968
1502,Date Palm Drive,32611,29.6384513,-82.3573424
2343,Mowry Road,32611,29.6387589,-82.3573308
2296,Mowry Road,32611,29.6391084,-82.3558118
3280,Radio Road,32611,29.6443126,-82.3705317
976,Elmore Drive,32611,29.6434832,-82.3676447
942,Magnolia Drive,32611,29.6434047,-82.3699101
1103,Gale Lemerand Drive,32611,29.6418820,-82.3497578
1103,Gale Lemerand Drive,32611,29.6425364,-82.3499433
1030,Center Drive,32611,29.6424269,-82.3478300
2908,Radio Road,32611,29.6425774,-82.3652893
2908,Radio Road,32611,29.6425371,-82.3651446
2908,Radio Road,32611,29.6425317,-82.3649718
2908,Radio Road,32611,29.6427065,-82.3652134
2908,Radio Road,32611,29.6427065,-82.3649784
2908,Radio Road,32611,29.6430780,-82.3651933
1063,Elmore Drive,32611,29.6426794,-82.3665348
902,Magnolia Drive,32611,29.6444185,-82.3681538
902,Magnolia Drive,32611,29.6446810,-82.3692875
902,Magnolia Drive,32611,29.6446614,-82.3687441
902,Magnolia Drive,32611,29.6444769,-82.3686746
908,Magnolia Drive,32611,29.6444442,-82.3700016
2197,Mowry Road,32611,29.6371625,-82.3541888
2163,Mowry Road,32611,29.6380782,-82.3531123
2197,Mowry Road,32611,29.6365908,-82.3536398
2173,Mowry Road,32611,29.6370602,-82.3537307
2195,Mowry Road,32611,29.6372312,-82.3536628
1545,West University Avenue,32603,29.6511833,-82.3427926
1510,West University Avenue,32603,29.6523759,-82.3421723
1605,Northwest 3rd Place,32603,29.6547887,-82.3435040
315,Northwest 17th Street,32603,29.6544369,-82.3443145
303,Northwest 17th Street,32603,29.6542332,-82.3443982
303,Northwest 17th Street,32603,29.6541660,-82.3442691
1823,Northwest 5th Avenue,32603,29.6555118,-82.3466222
1810,Northwest 1st Avenue,32603,29.6530098,-82.3466320
18,SW 1 Ave,32601,29.6512520,-82.3256489
2441,Northwest 43rd Street,32606,29.6759725,-82.3880761
920,Northwest 2nd Street,32601,29.6607154,-82.3268078
1800,Northeast 23rd Avenue,32601,29.6742343,-82.3019422
120,Southwest 1st Avenue,32601,29.6512543,-82.3264354
811,S Main St,32601,29.6436353,-82.3249180
3700,Southwest 42nd Street,32608,29.6200797,-82.3862462
436,Southeast 2nd Street,32601,29.6473328,-82.3232675
3902,Archer Road,32608,29.6178959,-82.3836286
6025,West Newberry Road,32605,29.6589407,-82.4076376
6017,West Newberry Road,32605,29.6592578,-82.4076510
1030,East University Avenue,32601,29.6522740,-82.3126795
622,Northeast 1st Street,32601,29.6573484,-82.3242697
3744,Archer Road,32608,29.6212503,-82.3796872
3490,Southwest Archer Road,32608,29.6258431,-82.3760166
3726,Southwest 40th Boulevard,32608,29.6193642,-82.3851600
3440,Southwest 40th Boulevard,32608,29.6215725,-82.3880373
2917,Southwest 35th Drive,32608,29.6260309,-82.3747854
3275,Southwest 34th Street,32608,29.6244873,-82.3711798
3330,Southwest Archer Road,32608,29.6276699,-82.3721559
1900,Southwest 13th Street,32608,29.6338734,-82.3406569
404,Northwest 10th Avenue,32601,29.6613304,-82.3291059
6707,Newberry Road,32605,29.6591788,-82.4142304
6611,West Newberry Road,32605,29.6592741,-82.4130137
1800,Northeast 23rd Avenue,32609,29.6739976,-82.3019197
3822,West Newberry Road,32607,29.6529553,-82.3817739
3842,West Newberry Road,32607,29.6538538,-82.3820157
5221,NW 43rd Street,32606,29.7027801,-82.3885076
4145,Northwest 53rd Avenue,32653,29.7028235,-82.3876140
5115,Northwest 43rd Street,32606,29.7011138,-82.3885932
4388,NW 53rd Ave,32606,29.7037153,-82.3895657
4075,Southwest 33rd Place,32608,29.6225352,-82.3852573
4225,Southwest 40th Boulevard,32608,29.6149914,-82.3825655
3936,Newberry Road,32607,29.6538834,-82.3841738
627,North Main Street,32601,29.6577939,-82.3245974
1432,West University Avenue,32603,29.6523039,-82.3415135
104,Northwest 17th Street,32603,29.6531590,-82.3455198
3710,Southwest 37th Street,32608,29.6198813,-82.3802577
3744,Archer Road,32608,29.6216729,-82.3791910
3938,Archer Road,32608,29.6200918,-82.3820351
491,Northeast 1st Street,32601,29.6556723,-82.3235826
2801,East University Avenue;E University Ave,32641;32641-6034,29.6513268,-82.2882717
3710,Archer Road,32608,29.6219570,-82.3785388
910,Northwest 4th Street,32601,29.6605310,-82.3290165
912,Ne 16Th Avenue,32601-3765,29.6668715,-82.3144120
3650,Southwest 42nd Avenue,32608,29.6147672,-82.3768234
5542,Northwest 43rd Street,32653,29.7053490,-82.3893025
2632,Northwest 43rd Street,32606,29.6776725,-82.3900895
1249,Center Drive,32610,29.6408565,-82.3449341
60,Southwest 2nd Street,32601,29.6509522,-82.3268411
2603,Southwest 13th Street,32608,29.6283102,-82.3389103
5505,Southwest 41st Boulevard,32608,29.6029033,-82.3757499
309,Northwest 5th Avenue,32601,29.6554822,-82.3282889
3820,Archer Road,32608,29.6206449,-82.3809277
2621,Southeast Hawthorne Road,32641,29.6423157,-82.2908478
2221,Northwest 22nd Street,32605,29.6737750,-82.3516625
1520,Museum Road,32611,29.6453701,-82.3423712
1512,Museum Road,32611,29.6450477,-82.3417588
920,Northwest 4th Street,32601,29.6609120,-82.3291299
620,South Main Street,32601,29.6457802,-82.3251617
5120,Southwest 13th Place,32607,29.6411729,-82.3951826
329,Northwest 17th Street,32603,29.6547906,-82.3444656
329,Northwest 17th Street,32603,29.6547923,-82.3441920
329,Northwest 17th Street,32603,29.6547935,-82.3439481
1614,Northwest 3rd Place,32603,29.6548001,-82.3437399
1620,Northwest 3rd Place,32603,29.6548967,-82.3438527
1605,Northwest 3rd Place,32603,29.6544436,-82.3434955
306,Northwest 16th Street,32603,29.6541881,-82.3435079
7107,Northwest 4th Boulevard,32607,29.6547528,-82.4184012
457,SE 20th St,32641,29.6474763,-82.2990465
3750,Southwest Archer Road,32608,29.6227966,-82.3810273
1214,Orange Drive,32612,29.6408407,-82.3708312
1476,Orange Drive,32612,29.6387573,-82.3713952
1402,Diamond Road,32612,29.6426180,-82.3410367
309,Village Drive,32612,29.6490289,-82.3591295
1949,Stadium Road,32612,29.6472512,-82.3488488
620,Corry Circle,32612,29.6462186,-82.3613838
410,Fraternity Drive,32612,29.6486540,-82.3568832
2955,Radio Road,32612,29.6411438,-82.3658199
165,Buckman Drive,32611,29.6504165,-82.3442730
1480,Inner Road,32611,29.6477413,-82.3416820
1720,Southwest 37th Street,32607,29.6362468,-82.3794896
2901,Southwest 13th Street,32601,29.6238304,-82.3381844
2001,Museum Road,32611,29.6439335,-82.3497724
2900,Southwest 13th Street,32608,29.6233912,-82.3403225
1911,Southwest 34th Street,32608,29.6347187,-82.3715435
1454,Union Road,32611,29.6509594,-82.3410372
1881,Natural Area Drive,32611,29.6347591,-82.3664651
3401,Northwest 34th Street,32605,29.6838234,-82.3715836
2004-2170,Northeast Waldo Road,32609,29.6722623,-82.2995575
2,Fraternity Row,32603,29.6453434,-82.3550703
5,Fraternity Row,32603,29.6455391,-82.3561902
7,Fraternity Row,32603,29.6463949,-82.3570485
8,Fraternity Row,32603,29.6467115,-82.3571706
2880,Hull Road,32611,29.6386088,-82.3648798
2800,Citrus Road,32611,29.6366240,-82.3634921
2024,Natural Area Drive,32611,29.6330917,-82.3684680
400,Southwest 13th Street,32611,29.6481752,-82.3397939
3259,Hull Road,32611,29.6369265,-82.3704188
1221,Southwest 5th Avenue,32611,29.6466882,-82.3378234
1103,Gale Lemerand Drive,32611,29.6419703,-82.3496904
1545,West University Avenue,32611,29.6514011,-82.3429114
1926,West University Avenue,32603,29.6525198,-82.3486774
