House number,Street name,Postal code,Latitude,Longitude
700,North Palmetto Street,34748,28.8182169,-81.8744146
2301,South Street,34748,28.8022222,-81.9003625
10301,US 441 (FL),34788,28.8235894,-81.7866797
10601,US 441,34788,28.8236551,-81.7811709
2241,Citrus Boulevard,34748,28.8404268,-81.8969802
716,N 14th St,34748,28.8191378,-81.8869610
707,Park Dr,34748,28.8051831,-81.8835271
700,North Boulevard,34748,28.8146890,-81.8688411
748,Carpenter Avenue,34748,28.8039582,-81.8902602
2212,Citrus Blvd,34748,28.8416610,-81.8946774
2307,South Street,34748,28.8021736,-81.9007353
306 1/2,S 6th Street,34748,28.8089888,-81.8772339
27615,US Highway 27,34748,28.7492431,-81.8790758
27422,US Highway 27,34748,28.7468208,-81.8759788
27345,US Highway 27,34748,28.7458589,-81.8771026
27345,US Highway 27,34748,28.7460466,-81.8771340
27405,US Highway 27,34748,28.7464490,-81.8787150
717,North 14th Street,34748-4205,28.8192113,-81.8888087
2020,Tally Road,34748,28.8369041,-81.8954830
1321,North 14th Street,34748,28.8296879,-81.8882109
1130,North Boulevard,34748,28.8134122,-81.8583974
238,Eagles Watch Street,34748,28.8050096,-81.8644687
29388,Caspian Street,34748,28.7725563,-81.8929350
4169,Scoter Place,34748,28.7751384,-81.8933563
3661,Caspian Street,34748,28.7743122,-81.8970801
176,Park Center Street,34748,28.8140003,-81.9131493
29507,Caspian Street,34748,28.7720240,-81.8958853
30494,Pintail Drive,34748,28.7748880,-81.8956287
3901,Brant Place,34748,28.7740986,-81.8952975
4510,Hidden Harbor Drive,34748,28.7699578,-81.8813040
29546,Caspian Street,34748,28.7727185,-81.8965074
914,Stinson Street,34748,28.8225795,-81.9008312
414,West Main Street,34748,28.8113495,-81.8773609
2333,Montclair Road,34748,28.8175352,-81.9028124
4311,Hidden Harbor Drive,34748,28.7688196,-81.8826391
1766,Waterview Drive,34748,28.8228256,-81.8435763
30112,Armenia Road,34748,28.7767144,-81.8990595
30244,Armenia Road,34748,28.7757359,-81.8955213
652,Mills Street,34748,28.8197982,-81.8601478
2008,Griffin Road,34748,28.8293350,-81.8949609
29026,Cutter Lane,34748,28.7693063,-81.8816399
29006,Cutter Lane,34748,28.7690589,-81.8815051
5925,Windsong Oak Drive,34748,28.7271905,-81.8572218
329,Pine Street,34748,28.8089226,-81.8713507
3835,Shoveler Avenue,34748,28.7738446,-81.8961812
3454,Forster Avenue,34748,28.7762216,-81.8985088
30262,Armenia Road,34748,28.7755976,-81.8951748
29453,Caspian Street,34748,28.7717977,-81.8943080
3959,Gadwall Place,34748,28.7736589,-81.8943830
3654,Caspian Street,34748,28.7742049,-81.8975898
3747,Caspian Street,34748,28.7759066,-81.8971154
349,Ashton Woods Lane,34748,28.8096430,-81.8439820
3953,Gadwall Place,34748,28.7737601,-81.8943903
4103,Scoter Place,34748,28.7735618,-81.8934701
914,Stinson Street,34748,28.8225029,-81.9004914
1321,North 14th Street,34748,28.8292603,-81.8881807
4145,Scoter Place,34748,28.7746464,-81.8934673
27806,US Highway 27,34748,28.7522705,-81.8772223
925,East Line Street,34748,28.8143276,-81.8641429
603,West North Boulevard,34748,28.8170340,-81.8781706
3852,Shoveler Avenue,34748,28.7735544,-81.8965537
3702,Caspian Street,34748,28.7750916,-81.8976150
3618,Caspian Street,34748,28.7737497,-81.8974560
4082,Sandhill Place,34748,28.7729483,-81.8912935
29903,Anahid Drive,34748,28.7730560,-81.8963066
29743,Anahid Drive,34748,28.7730533,-81.8922087
3574,Forster Avenue,34748,28.7743057,-81.8985024
30136,Armenia Road,34748,28.7767110,-81.8983177
3638,Caspian Street,34748,28.7739782,-81.8975879
13,Landing Drive,34748,28.8357056,-81.9040854
30164,Armenia Road,34748,28.7767010,-81.8974575
3907,Brant Place,34748,28.7742060,-81.8952985
1712,Connell Road,34748,28.7747558,-81.8892235
520,Great Winds Drive,34748,28.8073571,-81.9167926
3547,Forster Avenue,34748,28.7748672,-81.8979746
1353,West North Boulevard,34748,28.8249844,-81.8861785
3830,Shoveler Avenue,34748,28.7739780,-81.8966844
1775,Connell Road,34748,28.7739545,-81.8878408
30208,Armenia Road,34748,28.7761318,-81.8961872
32511,Quiet Harbor Avenue,34788,28.8228747,-81.7957751
30427,Pintail Drive,34748,28.7741165,-81.8940744
9605,Seaview Drive,34788,28.8237823,-81.7962625
30339,Armenia Road,34748,28.7749968,-81.8937695
29230,Cutter Lane,34748,28.7704607,-81.8821590
3641,Caspian Street,34748,28.7739684,-81.8970771
110,South 3rd Street,34748,28.8105542,-81.8765052
943,North 14th Street,34748,28.8234474,-81.8887411
3421,Sailing Winds Way,34748,28.8067332,-81.9187509
345,Ashton Woods Lane,34748,28.8098705,-81.8439906
3705,Caspian Street,34748,28.7751429,-81.8970872
3904,Brant Place,34748,28.7741877,-81.8957851
30360,Armenia Road,34748,28.7755973,-81.8934772
2308,Waitman Avenue,34748,28.8236302,-81.9007658
29971,Anahid Drive,34748,28.7736951,-81.8990377
29220,US Highway 27,34748,28.7731446,-81.8852709
1750,Connell Road,34748,28.7749392,-81.8876770
3760,Caspian Street,34748,28.7761301,-81.8975994
3761,Shoveler Avenue,34748,28.7752130,-81.8961827
3397,Curlew Avenue,34748,28.7757241,-81.8989098
30446,Pintail Drive,34748,28.7745667,-81.8942582
713,Hegstrom Road,34748,28.8194996,-81.8704310
30333,Armenia Road,34748,28.7749656,-81.8938975
2203,Karl Street,34748,28.8041759,-81.8988310
601,East Dixie Avenue,34748,28.8062621,-81.8693176
1118,East North Boulevard,34748,28.8134543,-81.8587082
29463,Caspian Street,34748,28.7718027,-81.8945655
1105,West North Boulevard,34748,28.8191439,-81.8828782
3436,Harbor Winds Way,34748,28.8072822,-81.9188168
813,Chandler Drive,34762,28.7532203,-81.9179311
20079,Royal Tern Court,34748,28.7702568,-81.8948132
1321,North 14th Street,34748,28.8294002,-81.8881817
3865,Brant Place,34748,28.7733024,-81.8954068
158,Park Center Street,34748,28.8139177,-81.9138565
424,Euclid Avenue,34748,28.8072278,-81.8810697
136,Park Center Street,34748,28.8135471,-81.9135381
6842,Silver Charm Court,34748,28.8042362,-81.8376434
3881,Brant Place,34748,28.7737799,-81.8952908
414,Ashton Woods Lane,34748,28.8089279,-81.8434050
30490,Pintail Drive,34748,28.7748373,-81.8955069
30498,Pintail Drive,34748,28.7749350,-81.8957462
29343,Caspian Street,34748,28.7721488,-81.8919082
1321,North 14th Street,34748,28.8293559,-81.8881814
302,South 12th Street,34748,28.8093635,-81.8837260
337,Ashton Woods Lane,34748,28.8102891,-81.8439861
30319,Armenia Road,34748,28.7749263,-81.8942994
1309,Marlene Street,34748,28.7908847,-81.8867278
4136,Scoter Place,34748,28.7744336,-81.8929708
32424,Quiet Harbor Avenue,34788,28.8217631,-81.7966865
20003,Royal Tern Court,34748,28.7702973,-81.8934493
29837,Anahid Drive,34748,28.7727182,-81.8943277
29369,Caspian Street,34748,28.7720852,-81.8925450
27626,Stoney Brook Drive,34748,28.7479574,-81.8528522
107,West Main Street,34748,28.8107985,-81.8752756
30253,Armenia Road,34748,28.7753079,-81.8956228
29855,Anahid Drive,34748,28.7727447,-81.8947762
1739,Tally Box Road,34748,28.8339864,-81.8990955
1321,North 14th Street,34748,28.8291183,-81.8880320
19962,Royal Tern Court,34748,28.7708420,-81.8928382
4154,Scoter Place,34748,28.7748832,-81.8929747
3355,Curlew Avenue,34748,28.7749741,-81.8989045
29789,Anahid Drive,34748,28.7728750,-81.8933057
29493,Caspian Street,34748,28.7720515,-81.8954223
3676,Caspian Street,34748,28.7745298,-81.8975981
3932,Gadwall Place,34748,28.7741190,-81.8948762
601,East Dixie Avenue,34748,28.8055615,-81.8690159
3503,Forster Avenue,34748,28.7755776,-81.8979963
3733,Caspian Street,34748,28.7756892,-81.8970956
172,Park Center Street,34748,28.8139779,-81.9133104
1717,Connell Road,34748,28.7756193,-81.8879106
29450,Caspian Street,34748,28.7723242,-81.8943255
4056,Sandhill Place,34748,28.7722455,-81.8912933
20058,Royal Tern Court,34748,28.7706984,-81.8946402
20022,Royal Tern Court,34748,28.7707026,-81.8939697
30144,Armenia Road,34748,28.7767039,-81.8980598
2010,Vine Street,34748,28.8105796,-81.8964725
2113,Amor Way,34748,28.8397739,-81.8859971
3750,Caspian Street,34748,28.7759058,-81.8975921
29518,Caspian Street,34748,28.7725745,-81.8958893
3621,Caspian Street,34748,28.7736170,-81.8971930
3756,Caspian Street,34748,28.7760155,-81.8976039
9631,Seaview Drive,34788,28.8234300,-81.7962145
31641,Progress Road,34748,28.8095046,-81.9281916
4052,Sandhill Place,34748,28.7720952,-81.8912932
2049,Angel Fish Loop,34748,28.8135311,-81.8434663
2040,High Street,34748,28.8129026,-81.8972013
110,Sleepy Hollow Road,34748,28.8238721,-81.8320057
29933,Anahid Drive,34748,28.7732635,-81.8977114
30236,Armenia Road,34748,28.7757971,-81.8956452
4163,Scoter Place,34748,28.7750497,-81.8934770
3738,Shoveler Avenue,34748,28.7755734,-81.8967004
1102,Carlton Court,34748,28.8080353,-81.8829334
30299,Armenia Road,34748,28.7750116,-81.8948173
913,Talladega Street,34748,28.8228401,-81.8976698
3589,Forster Avenue,34748,28.7740841,-81.8979788
8113,Centralia Court,34788,28.8322377,-81.8226615
152,Landing Drive,34748,28.8374007,-81.9030928
3871,Brant Place,34748,28.7735400,-81.8952887
29034,Cutter Lane,34748,28.7694082,-81.8816945
31621,Progress Road,34748,28.8089565,-81.9283220
400,South 11th Street,34748,28.8084742,-81.8824042
3450,Harbor Winds Way,34748,28.8077000,-81.9188382
1119,Baker Street,34748,28.8100988,-81.8591487
2204,Griffin Road,34748,28.8291084,-81.8988748
2237,Angel Fish Loop,34748,28.8094914,-81.8449979
2323,South 14th Street,34748,28.7785632,-81.8882381
20025,Royal Tern Court,34748,28.7702509,-81.8939244
30148,Armenia Road,34748,28.7767063,-81.8979384
785,Chandler Drive,34762,28.7523850,-81.9172170
513,North 14th Street,34748,28.8184613,-81.8892032
4110,Scoter Place,34748,28.7737245,-81.8929709
29379,Caspian Street,34748,28.7720639,-81.8926709
912,Shore Acres Drive,34748,28.8187096,-81.8642541
29017,Cutter Lane,34748,28.7690654,-81.8819766
30346,Armenia Road,34748,28.7755050,-81.8937340
1909,Greenleaf Lane,34748,28.8386293,-81.8985399
231,South 14th Street,34748,28.8087074,-81.8878062
413,Great Winds Drive,34748,28.8079746,-81.9187694
2156,Waseca Lane,34748,28.8422364,-81.8866699
2033,Citrus Boulevard,34748,28.8394083,-81.8934577
20046,Royal Tern Court,34748,28.7706916,-81.8944167
3566,Forster Avenue,34748,28.7744350,-81.8985018
4088,Sandhill Place,34748,28.7731249,-81.8914587
3836,Shoveler Avenue,34748,28.7738706,-81.8966862
111,Lee Street,34748,28.8122332,-81.8801498
3582,Forster Avenue,34748,28.7741649,-81.8985049
3479,Forster Avenue,34748,28.7759081,-81.8980019
111,West Main Street,34748,28.8109109,-81.8755716
1450,Sterns Drive,34748,28.8429325,-81.8870348
29755,Anahid Drive,34748,28.7730254,-81.8924862
29203,Cutter Lane,34748,28.7701018,-81.8825890
1730,Connell Road,34748,28.7752040,-81.8881900
29543,Caspian Street,34748,28.7722285,-81.8966699
29397,Caspian Street,34748,28.7719831,-81.8930445
29524,Caspian Street,34748,28.7726016,-81.8960136
30273,Armenia Road,34748,28.7751738,-81.8952994
30364,Armenia Road,34748,28.7756397,-81.8933620
30474,Pintail Drive,34748,28.7746845,-81.8950227
29714,Anahid Drive,34748,28.7735245,-81.8916094
30408,Pintail Drive,34748,28.7745815,-81.8937555
30433,Pintail Drive,34748,28.7741178,-81.8941961
29929,Caspian Street,34748,28.7732200,-81.8975165
2225,Angel Fish Loop,34748,28.8100690,-81.8449572
4550,Hidden Harbor Drive,34748,28.7705658,-81.8814148
3938,Gadwall Place,34748,28.7740044,-81.8948712
20035,Royal Tern Court,34748,28.7702407,-81.8941470
2139,Waseca Lane,34748,28.8414708,-81.8871374
114,County Road 468,34748,28.8131652,-81.9162067
216,South 9th Street,34748,28.8095912,-81.8790411
3493,Forster Avenue,34748,28.7756922,-81.8979899
138,Park Center Street,34748,28.8135644,-81.9134636
3732,Shoveler Avenue,34748,28.7756808,-81.8967040
29967,Anahid Drive,34748,28.7736710,-81.8989009
3627,Caspian Street,34748,28.7737106,-81.8970695
3372,Curlew Avenue,34748,28.7752326,-81.8994149
902,Kolb Street,34748,28.8099121,-81.8796638
3560,Forster Avenue,34748,28.7745728,-81.8985064
3752,Shoveler Avenue,34748,28.7753634,-81.8966904
1461,Neely Drive,34748,28.7974230,-81.8993407
3348,Curlew Avenue,34748,28.7746882,-81.8994105
304,South 12th Street,34748,28.8092036,-81.8837349
29121,Cutter Lane,34748,28.7695714,-81.8822865
29470,Caspian Street,34748,28.7723391,-81.8946905
2700,Westside Drive,34748,28.8150802,-81.9080680
5322,Pond Crossing Place,34748,28.7367938,-81.8654304
1026,Georgia Avenue,34748,28.8247927,-81.8980902
30486,Pintail Drive,34748,28.7747998,-81.8954004
29891,Anahid Drive,34748,28.7729815,-81.8959106
1520,Center Street,34748,28.8168451,-81.8908298
2612,Industrial Street,34748,28.8253429,-81.9086631
1309,Vine Street,34748,28.8099428,-81.8862892
29366,Caspian Street,34748,28.7726390,-81.8924260
29211,Cutter Lane,34748,28.7702186,-81.8826198
3330,Curlew Avenue,34748,28.7743603,-81.8994022
30002,Anahid Drive,34748,28.7742373,-81.8999275
900,Lake Port Boulevard,34748,28.8028885,-81.8607889
3753,Caspian Street,34748,28.7760068,-81.8971217
3384,Curlew Avenue,34748,28.7755224,-81.8994140
3679,Caspian Street,34748,28.7746383,-81.8970978
1321,North 14th Street,34748,28.8299262,-81.8880708
3980,Gadwall Place,34748,28.7732361,-81.8947557
1618,Center Street,34748,28.8154064,-81.8918394
3490,Forster Avenue,34748,28.7755846,-81.8985034
717,Lynch Avenue,34748,28.8039205,-81.8885845
3418,Southwinds Cove Way,34748,28.8073316,-81.9182112
29746,Anahid Drive,34748,28.7735097,-81.8923868
2121,Amor Way,34748,28.8397779,-81.8863586
29943,Anahid Drive,34748,28.7733781,-81.8980728
29779,Anahid Drive,34748,28.7729362,-81.8930353
1202,Bonaire Drive,34748,28.8093421,-81.8843758
30413,Pintail Drive,34748,28.7741192,-81.8937776
20088,Royal Tern Court,34748,28.7706131,-81.8949630
3724,Shoveler Avenue,34748,28.7758309,-81.8964313
1443,Sterns Drive,34748,28.8425453,-81.8866960
29895,Anahid Drive,34748,28.7730082,-81.8960423
3476,Forster Avenue,34748,28.7758698,-81.8985112
3462,Forster Avenue,34748,28.7761264,-81.8985092
110,North 4th Street,34748,28.8113729,-81.8769744
29385,Caspian Street,34748,28.7720398,-81.8927962
3538,Forster Avenue,34748,28.7749904,-81.8985020
29118,Cutter Lane,34748,28.7696536,-81.8818271
29801,Anahid Drive,34748,28.7728073,-81.8935552
1721,Tally Box Road,34748,28.8328446,-81.8991390
108,North East Street,34748,28.8121446,-81.8625425
29142,Cutter Lane,34748,28.7699457,-81.8819971
29718,Anahid Drive,34748,28.7735274,-81.8917648
3526,Forster Avenue,34748,28.7751245,-81.8985030
2163,Waseca Lane,34748,28.8425327,-81.8870528
29710,Anahid Drive,34748,28.7735294,-81.8914594
998,Commerce Street,34748,28.8228682,-81.9068268
29508,Caspian Street,34748,28.7725116,-81.8956424
3806,Shoveler Avenue,34748,28.7743122,-81.8966927
4424,Hidden Harbor Drive,34748,28.7692077,-81.8809613
1321,North 14th Street,34748,28.8298083,-81.8881732
3646,Caspian Street,34748,28.7740856,-81.8975888
30452,Pintail Drive,34748,28.7745697,-81.8943818
29549,Caspian Street,34748,28.7723042,-81.8968166
5935,Tumbleweed Trail,34748,28.7495761,-81.8573513
4542,Hidden Harbor Drive,34748,28.7704607,-81.8814302
1321,North 14th Street,34748,28.8293119,-81.8881810
400,South 11th Street,34748,28.8085430,-81.8824021
20049,Royal Tern Court,34748,28.7702392,-81.8944813
29786,Anahid Drive,34748,28.7732056,-81.8934033
168,Park Center Street,34748,28.8139624,-81.9134769
3615,Forster Avenue,34748,28.7738617,-81.8981237
933,North 14th Street,34748,28.8226400,-81.8888461
4432,Hidden Harbor Drive,34748,28.7693861,-81.8810576
30140,Armenia Road,34748,28.7767070,-81.8981985
2339,South 14th Street,34748,28.7793600,-81.8884008
302,South 12th Street,34748,28.8092924,-81.8835028
2105,Angel Fish Loop,34748,28.8135454,-81.8439272
3360,Curlew Avenue,34748,28.7749764,-81.8994109
1790,Connell Road,34748,28.7739493,-81.8880634
29530,Caspian Street,34748,28.7726270,-81.8961383
4518,Hidden Harbor Drive,34748,28.7700746,-81.8813321
26736,US Highway 27,34748,28.7369105,-81.8691153
113,South East Street,34748,28.8107948,-81.8629076
20082,Royal Tern Court,34748,28.7707206,-81.8948662
304,Euclid Avenue,34748,28.8089279,-81.8811490
166,Park Center Street,34748,28.8139512,-81.9135460
30132,Armenia Road,34748,28.7767054,-81.8984423
2147,Waseca Lane,34748,28.8418212,-81.8871345
29101,Cutter Lane,34748,28.7693169,-81.8821408
20014,Royal Tern Court,34748,28.7707104,-81.8938582
29939,Anahid Drive,34748,28.7733383,-81.8979559
29460,Caspian Street,34748,28.7723263,-81.8944743
30405,Pintail Drive,34748,28.7741205,-81.8936513
27530,Briar Patch Place,34748,28.7478320,-81.8506744
29899,Anahid Drive,34748,28.7730331,-81.8961744
20085,Royal Tern Court,34748,28.7702626,-81.8949212
27214,Stoney Brook Drive,34748,28.7428381,-81.8513332
30256,Armenia Road,34748,28.7756341,-81.8952924
3776,Shoveler Avenue,34748,28.7749194,-81.8966866
30336,Armenia Road,34748,28.7754430,-81.8938538
29418,Caspian Street,34748,28.7723957,-81.8935870
1641,Timber Ridge Circle,34748,28.8352522,-81.8946000
3658,Caspian Street,34748,28.7743123,-81.8975975
3352,Curlew Avenue,34748,28.7748458,-81.8994065
3446,Forster Avenue,34748,28.7763288,-81.8983589
441,Sunnyside Drive,34748,28.8074028,-81.8404742
3757,Caspian Street,34748,28.7761269,-81.8971069
3557,Forster Avenue,34748,28.7746475,-81.8979782
2508,West Main Street,34748,28.8134022,-81.9066545
113,Lee Street,34748,28.8123946,-81.8802884
29991,Anahid Drive,34748,28.7737366,-81.8996802
3711,Caspian Street,34748,28.7752384,-81.8970772
164,Park Center Street,34748,28.8139400,-81.9136231
902,Beecher Street,34748,28.8224302,-81.8955056
29482,Caspian Street,34748,28.7723762,-81.8949800
30270,Armenia Road,34748,28.7755597,-81.8950507
29440,Caspian Street,34748,28.7723365,-81.8940282
3400,Curlew Avenue,34748,28.7757861,-81.8994190
3529,Forster Avenue,34748,28.7751919,-81.8979720
29562,Caspian Street,34748,28.7727588,-81.8966279
250,Ball Park Road,34748,28.8041159,-81.8718240
29415,Caspian Street,34748,28.7718900,-81.8934143
3770,Caspian Street,34748,28.7763239,-81.8974563
712,East Main Street,34748,28.8118512,-81.8676046
29363,Caspian Street,34748,28.7721037,-81.8924185
26044,Meadow Breeze Lane,34748,28.7269163,-81.8583934
3968,Gadwall Place,34748,28.7734638,-81.8948584
100,Lee Road,34748,28.8368853,-81.8920287
3790,Shoveler Avenue,34748,28.7745341,-81.8967000
30422,Pintail Drive,34748,28.7745703,-81.8940003
1801,South Street,34748,28.8024940,-81.8932519
2470,Silver Pointe Circle,34748,28.8423426,-81.9031209
30416,Pintail Drive,34748,28.7745768,-81.8938898
3956,Gadwall Place,34748,28.7736786,-81.8948603
29424,Caspian Street,34748,28.7723705,-81.8937330
3473,Forster Avenue,34748,28.7760179,-81.8980041
902,Beecher Street,34748,28.8224666,-81.8955067
9628,Seaview Drive,34788,28.8229220,-81.7961284
29521,Caspian Street,34748,28.7720937,-81.8961927
27849,US Highway 27,34748,28.7534075,-81.8785570
29775,Anahid Drive,34748,28.7729627,-81.8928989
19991,Royal Tern Court,34748,28.7703291,-81.8932049
32515,Quiet Harbor Avenue,34788,28.8236096,-81.7958549
30216,Armenia Road,34748,28.7759687,-81.8959658
9729,US Highway 441,34788,28.8290433,-81.7944775
1765,Connell Road,34748,28.7740777,-81.8871095
7525,US Highway 441,34788,28.8239336,-81.8343319
90,Dockside Drive,34748,28.8372061,-81.9040258
29879,Anahid Drive,34748,28.7728898,-81.8955235
3868,Brant Place,34748,28.7735253,-81.8957672
1321,North 14th Street,34748,28.8291152,-81.8880847
6817,Silver Charm Court,34748,28.8047107,-81.8406918
3328,Curlew Avenue,34748,28.7742506,-81.8993932
3849,Shoveler Avenue,34748,28.7736012,-81.8961764
29376,Caspian Street,34748,28.7726028,-81.8926816
29537,Caspian Street,34748,28.7721670,-81.8965149
2154,Waseca Lane,34748,28.8420821,-81.8866277
32511,Quiet Harbor Avenue,34788,28.8227055,-81.7956920
30279,Armenia Road,34748,28.7751213,-81.8951831
3319,Curlew Avenue,34748,28.7741694,-81.8990113
3423,Curlew Avenue,34748,28.7762282,-81.8989166
30128,Armenia Road,34748,28.7767069,-81.8985724
32428,Quiet Harbor Avenue,34788,28.8221118,-81.7962927
29499,Caspian Street,34748,28.7719495,-81.8955796
29014,Cutter Lane,34748,28.7691632,-81.8815570
1818,Greenleaf Lane,34748,28.8372764,-81.8996157
4091,Sandhill Place,34748,28.7730899,-81.8917238
4166,Scoter Place,34748,28.7751670,-81.8929726
27630,Stoney Brook Drive,34748,28.7479609,-81.8530835
30458,Pintail Drive,34748,28.7745726,-81.8945206
3405,Curlew Avenue,34748,28.7758600,-81.8989103
110,West Main Street,34748,28.8126120,-81.9154111
3725,Caspian Street,34748,28.7755773,-81.8970963
30380,Armenia Road,34748,28.7757072,-81.8927647
1710,Connell Road,34748,28.7761323,-81.8883892
3857,Shoveler Avenue,34748,28.7735076,-81.8963000
305,South 11th Street,34748,28.8090224,-81.8828805
5939,Tumbleweed Trail,34748,28.7495756,-81.8571977
20010,Royal Tern Court,34748,28.7707202,-81.8937469
29391,Caspian Street,34748,28.7720129,-81.8929208
517,Great Winds Drive,34748,28.8076917,-81.9174045
30282,Armenia Road,34748,28.7754881,-81.8948123
625,North 14th Street,34748,28.8177603,-81.8890646
3649,Caspian Street,34748,28.7740926,-81.8970728
89,Dockside Drive,34748,28.8372038,-81.9043029
32901,Wilco Drive,34788,28.8292754,-81.8114008
312,East Main Street,34748,28.8110779,-81.8715039
716,East Main Street,34748,28.8114160,-81.8672145
2155,Waseca Lane,34748,28.8421767,-81.8871259
601,East Dixie Avenue,34748,28.8062569,-81.8694542
1446,Fernleaf Drive,34748,28.8137936,-81.8548709
30285,Armenia Road,34748,28.7750921,-81.8950593
29749,Anahid Drive,34748,28.7730407,-81.8923477
3510,Forster Avenue,34748,28.7753992,-81.8985054
414,West Main Street,34748,28.8113345,-81.8773070
658,Mills Street,34748,28.8197726,-81.8610521
1209,West Main Street,34748,28.8108940,-81.8844542
306,South 12th Street,34748,28.8090390,-81.8837208
3971,Gadwall Place,34748,28.7734355,-81.8943854
3517,Forster Avenue,34748,28.7753972,-81.8979683
3426,Curlew Avenue,34748,28.7763202,-81.8992650
27443,US Highway 27,34748,28.7472552,-81.8772592
4148,Scoter Place,34748,28.7747342,-81.8929680
2313,Angel Fish Loop,34748,28.8087106,-81.8439445
5926,Whisper Pine Drive,34748,28.7257663,-81.8546490
3690,Caspian Street,34748,28.7748493,-81.8976156
2150,Waseca Lane,34748,28.8419120,-81.8866321
4502,Hidden Harbor Drive,34748,28.7698549,-81.8812810
4456,Hidden Harbor Drive,34748,28.7696691,-81.8812198
304,South 12th Street,34748,28.8091371,-81.8834936
29959,Anahid Drive,34748,28.7735850,-81.8986666
3485,Forster Avenue,34748,28.7758005,-81.8979996
2146,Waseca Lane,34748,28.8417678,-81.8866367
29818,Anahid Drive,34748,28.7731882,-81.8940640
720,Hood Avenue,34748,28.8038841,-81.8887600
29821,Anahid Drive,34748,28.7727414,-81.8939382
29923,Anahid Drive,34748,28.7731408,-81.8969496
10837,US Highway 441,34788,28.8218911,-81.7761285
721,Park Drive,34748,28.8039086,-81.8835856
29863,Anahid Drive,34748,28.7727847,-81.8950289
2113,Angel Fish Loop,34748,28.8135367,-81.8444140
1,Weston Road,34748,28.8164803,-81.8588539
29937,Anahid Drive,34748,28.7732984,-81.8978418
1735,Connell Road,34748,28.7753734,-81.8877390
29740,Anahid Drive,34748,28.7735168,-81.8922281
400,Hope Street,34748,28.8085742,-81.8776857
29798,Anahid Drive,34748,28.7732537,-81.8936534
30356,Armenia Road,34748,28.7755562,-81.8936105
2330,Harlem Avenue,34748,28.8252569,-81.9015282
912,Stinson Street,34748,28.8223563,-81.9008195
29430,Caspian Street,34748,28.7723508,-81.8938802
30239,Armenia Road,34748,28.7754107,-81.8958678
1915,Greenleaf Lane,34748,28.8391101,-81.8993265
29702,Anahid Drive,34748,28.7735202,-81.8911463
3766,Caspian Street,34748,28.7762303,-81.8976057
29473,Caspian Street,34748,28.7718272,-81.8948700
9609,Seaview Drive,34788,28.8233027,-81.7966288
507,Goss Avenue,34748,28.8164827,-81.8628660
1716,Connell Road,34748,28.7756194,-81.8883644
3886,Brant Place,34748,28.7738546,-81.8957903
2202,South Street,34748,28.8033538,-81.8989496
25903,Quiet Laurel Lane,34748,28.7255260,-81.8556893
20074,Royal Tern Court,34748,28.7707048,-81.8947518
29810,Anahid Drive,34748,28.7732217,-81.8938929
3878,Brant Place,34748,28.7737544,-81.8957814
1129,Tuskegee Street,34748,28.8269785,-81.8981305
29927,Anahid Drive,34748,28.7731841,-81.8971219
2102,Angel Fish Loop,34748,28.8130149,-81.8437477
5812,Windsong Oak Drive,34748,28.7268557,-81.8549317
30482,Pintail Drive,34748,28.7747600,-81.8952648
20061,Royal Tern Court,34748,28.7702474,-81.8947040
29953,Anahid Drive,34748,28.7734959,-81.8984220
3782,Shoveler Avenue,34748,28.7746463,-81.8966983
601,East Dixie Avenue,34748,28.8062714,-81.8689974
1809,West Main Street,34748,28.8110590,-81.8935638
30466,Pintail Drive,34748,28.7746164,-81.8947730
29760,Anahid Drive,34748,28.7734604,-81.8926969
29975,Anahid Drive,34748,28.7737215,-81.8991631
4526,Hidden Harbor Drive,34748,28.7701814,-81.8813650
29222,Cutter Lane,34748,28.7703462,-81.8821499
29129,Cutter Lane,34748,28.7696575,-81.8823229
3714,Caspian Street,34748,28.7753017,-81.8976168
1119,East Main Street,34748,28.8113303,-81.8596402
29214,Cutter Lane,34748,28.7702318,-81.8821245
4400,Hidden Harbor Drive,34748,28.7688687,-81.8810239
29382,Caspian Street,34748,28.7725808,-81.8928086
29227,Cutter Lane,34748,28.7704088,-81.8827325
1011,West North Boulevard,34748,28.8189736,-81.8811289
29994,Anahid Drive,34748,28.7742372,-81.8997244
1006,West Line Street,34748,28.8141948,-81.8804476
502,Boyle Street,34748,28.8266573,-81.8758707
612,Thomas Avenue,34748,28.8182132,-81.9037812
20032,Royal Tern Court,34748,28.7706930,-81.8941931
3569,Forster Avenue,34748,28.7744231,-81.8979817
1321,North 14th Street,34748,28.8295511,-81.8881801
1317,Griffin Road,34748,28.8286978,-81.8845192
29447,Caspian Street,34748,28.7718004,-81.8941793
2329,Montclair Road,34748,28.8175270,-81.9024219
6013,Windsong Oak Drive,34748,28.7286846,-81.8577441
601,East Dixie Avenue,34748,28.8056481,-81.8690135
405,Crestrun Loop,34748,28.8144407,-81.8352211
2159,Waseca Lane,34748,28.8423674,-81.8871216
5709,Celebration Way,34748,28.7402716,-81.8604585
3633,Caspian Street,34748,28.7738585,-81.8970870
1416,Wild Harbor Lane,34748,28.7922596,-81.8896662
27321,Pine Straw Road,34748,28.7462385,-81.8566314
3429,Curlew Avenue,34748,28.7763232,-81.8990395
1446,Sterns Drive,34748,28.8429357,-81.8868485
404,Euclid Avenue,34748,28.8084173,-81.8811396
205,East Main Street,34748,28.8106585,-81.8730033
30393,Pintail Drive,34748,28.7742521,-81.8934319
32432,Quiet Harbor Avenue,34788,28.8221376,-81.7957595
29911,Anahid Drive,34748,28.7730958,-81.8965699
236,Crestrun Loop,34748,28.8155081,-81.8361311
3708,Caspian Street,34748,28.7752014,-81.8976160
302,South Nursery Road,34748,28.8102514,-81.9081080
29009,Cutter Lane,34748,28.7689721,-81.8819401
29579,Caspian Street,34748,28.7726784,-81.8973127
3541,Forster Avenue,34748,28.7749770,-81.8979756
30180,Armenia Road,34748,28.7766570,-81.8969043
29219,Cutter Lane,34748,28.7703112,-81.8826883
29883,Anahid Drive,34748,28.7729224,-81.8956487
8113,Centralia Court,34788,28.8322396,-81.8227300
30322,Armenia Road,34748,28.7753759,-81.8941366
4124,Scoter Place,34748,28.7740234,-81.8929742
1721,Leesburg Commons Court,34748,28.8355989,-81.8996032
27869,US Highway 27,34748,28.7538518,-81.8787712
30376,Armenia Road,34748,28.7757049,-81.8928917
115,Harold Street,34748,28.8137018,-81.9062887
2142,Waseca Lane,34748,28.8416080,-81.8866412
2212,Anoka Way,34748,28.8425301,-81.8899184
2301,Owens Road,34748,28.7785334,-81.9003357
3322,Curlew Avenue,34748,28.7741638,-81.8992611
3742,Shoveler Avenue,34748,28.7754684,-81.8966995
29502,Caspian Street,34748,28.7724794,-81.8955142
6012,Windsong Oak Drive,34748,28.7287114,-81.8571819
3655,Caspian Street,34748,28.7742071,-81.8970846
4139,Scoter Place,34748,28.7745441,-81.8933410
3470,Forster Avenue,34748,28.7760106,-81.8985030
29008,US Highway 27,34748,28.7690260,-81.8829610
614,North Palmetto Street,34748,28.8171378,-81.8747090
3544,Forster Avenue,34748,28.7748578,-81.8984915
1100,West Main Street,34748,28.8114449,-81.8819963
3684,Caspian Street,34748,28.7747599,-81.8976000
2129,Amor Way,34748,28.8398892,-81.8866964
3673,Caspian Street,34748,28.7745285,-81.8970969
29575,Caspian Street,34748,28.7725858,-81.8971865
20007,Royal Tern Court,34748,28.7702835,-81.8935598
30330,Armenia Road,34748,28.7754018,-81.8939968
29403,Caspian Street,34748,28.7719480,-81.8931660
308,Waters Edge Drive,34748,28.8216433,-81.8439357
4128,Scoter Place,34748,28.7741540,-81.8929732
29828,Anahid Drive,34748,28.7731784,-81.8941926
30156,Armenia Road,34748,28.7767042,-81.8976986
310,Michigan Avenue,34748,28.8144815,-81.8484988
31641,Executive Boulevard,34748,28.8079052,-81.9309704
29772,Anahid Drive,34748,28.7733119,-81.8929688
406,Newell Hill Road,34748,28.8147031,-81.8552396
3833,Shoveler Avenue,34748,28.7739473,-81.8961820
3378,Curlew Avenue,34748,28.7753730,-81.8994134
29145,Cutter Lane,34748,28.7698502,-81.8824329
3798,Shoveler Avenue,34748,28.7744220,-81.8966909
29867,Anahid Drive,34748,28.7728075,-81.8951536
1321,North 14th Street,34748,28.8294913,-81.8881768
2333,Mispah Avenue,34748,28.8260800,-81.9021468
29947,Anahid Drive,34748,28.7734080,-81.8981839
3764,Shoveler Avenue,34748,28.7751343,-81.8966858
4070,Sandhill Place,34748,28.7726734,-81.8912934
3726,Shoveler Avenue,34748,28.7757978,-81.8967077
32511,Quiet Harbor Avenue,34788,28.8227065,-81.7957984
2218,Angel Fish Loop,34748,28.8104898,-81.8443959
548,South 14th Street,34748,28.8084752,-81.8861328
29792,Anahid Drive,34748,28.7732997,-81.8935111
3336,Curlew Avenue,34748,28.7744542,-81.8994139
4060,Sandhill Place,34748,28.7723939,-81.8912933
32511,Quiet Harbor Avenue,34788,28.8227069,-81.7957281
944,Belle Oak Drive,34748,28.8005172,-81.8850588
156,Park Center Street,34748,28.8139173,-81.9139540
4085,Sandhill Place,34748,28.7729835,-81.8917479
3409,Curlew Avenue,34748,28.7760134,-81.8989066
3419,Southwinds Cove Way,34748,28.8073147,-81.9175889
1205,Crosby Street,34748,28.8106832,-81.8583119
2344,Harlem Avenue,34748,28.8257072,-81.9015255
2309,Owens Road,34748,28.7780212,-81.8999607
30104,Armenia Road,34748,28.7767186,-81.8993305
3874,Brant Place,34748,28.7736506,-81.8957764
300,South 12th Street,34748,28.8094276,-81.8834989
29457,Caspian Street,34748,28.7717984,-81.8944368
839,Douglas Street,34748,28.8072279,-81.8648943
2151,Waseca Lane,34748,28.8419963,-81.8871360
20054,Royal Tern Court,34748,28.7706940,-81.8945285
29734,Anahid Drive,34748,28.7735240,-81.8920725
3898,Brant Place,34748,28.7740838,-81.8957842
8875,Airport Boulevard,34788,28.8291955,-81.8085568
942,Belle Oak Drive,34748,28.8005798,-81.8848699
29825,Anahid Drive,34748,28.7727289,-81.8940676
9617,Seaview Drive,34788,28.8232890,-81.7969796
1305,Vine Street,34748,28.8099454,-81.8861082
3867,Brant Place,34748,28.7734040,-81.8952835
29433,Caspian Street,34748,28.7718295,-81.8937944
3717,Caspian Street,34748,28.7753577,-81.8970836
30120,Armenia Road,34748,28.7767071,-81.8988190
406,Ashton Woods Lane,34748,28.8093290,-81.8434219
29357,Caspian Street,34748,28.7721192,-81.8922914
1321,North 14th Street,34748,28.8299229,-81.8881510
29859,Anahid Drive,34748,28.7727637,-81.8949035
1321,North 14th Street,34748,28.8291221,-81.8881795
30188,Armenia Road,34748,28.7764914,-81.8966780
3366,Curlew Avenue,34748,28.7751156,-81.8994084
30224,Armenia Road,34748,28.7759171,-81.8958643
3415,Curlew Avenue,34748,28.7761256,-81.8989076
1441,Neely Drive,34748,28.7974195,-81.8987191
721,Park Drive,34748,28.8038499,-81.8837895
29490,Caspian Street,34748,28.7724234,-81.8952487
1311,Vine Street,34748,28.8099375,-81.8863824
29437,Caspian Street,34748,28.7718163,-81.8939223
3325,Curlew Avenue,34748,28.7742674,-81.8989100
29238,Cutter Lane,34748,28.7705707,-81.8821274
5824,Windsong Oak Drive,34748,28.7269839,-81.8554342
1321,North 14th Street,34748,28.8299329,-81.8877851
220,Crestrun Loop,34748,28.8163399,-81.8360347
2204,Harlem Avenue,34748,28.8252321,-81.8985300
935,Floyd Lane,34748,28.8107841,-81.8637415
3839,Shoveler Avenue,34748,28.7737348,-81.8961775
3590,Forster Avenue,34748,28.7740326,-81.8983630
29134,Cutter Lane,34748,28.7698535,-81.8819290
3720,Caspian Street,34748,28.7754067,-81.8976177
336,Ashton Woods Lane,34748,28.8103771,-81.8434303
1736,Connell Road,34748,28.7752756,-81.8879541
160,Park Center Street,34748,28.8139280,-81.9138019
1442,Sterns Drive,34748,28.8429409,-81.8866511
1113,Thomas Avenue,34748,28.8277106,-81.9047559
125,Orange Avenue,34748,28.8125971,-81.8790792
29409,Caspian Street,34748,28.7719171,-81.8932893
29412,Caspian Street,34748,28.7724262,-81.8934422
603,West North Boulevard,34748,28.8169282,-81.8779467
9602,Seaview Drive,34788,28.8242556,-81.7957623
3342,Curlew Avenue,34748,28.7745760,-81.8994096
3682,Caspian Street,34748,28.7746406,-81.8975965
27816,US Highway 27,34748,28.7523557,-81.8772407
29706,Anahid Drive,34748,28.7735267,-81.8912978
4408,Hidden Harbor Drive,34748,28.7689883,-81.8809789
3699,Caspian Street,34748,28.7750140,-81.8970861
3339,Sailing Winds Way,34748,28.8067241,-81.9176271
29476,Caspian Street,34748,28.7723546,-81.8948383
2133,Angel Fish Loop,34748,28.8125157,-81.8449574
3895,Brant Place,34748,28.7739876,-81.8953007
27315,US Highway 27,34748,28.7449214,-81.8767083
3846,Shoveler Avenue,34748,28.7736557,-81.8966817
29527,Caspian Street,34748,28.7721207,-81.8963538
341,Ashton Woods Lane,34748,28.8100622,-81.8439922
29769,Anahid Drive,34748,28.7729864,-81.8927619
141,Landing Drive,34748,28.8376109,-81.9039284
20041,Royal Tern Court,34748,28.7702384,-81.8942584
306,South 12th Street,34748,28.8089837,-81.8835107
1203,West Main Street,34748,28.8107653,-81.8849538
3767,Shoveler Avenue,34748,28.7750679,-81.8961811
30152,Armenia Road,34748,28.7767105,-81.8978288
421,North Palmetto Street,34748,28.8148712,-81.8753844
27229,US Highway 27,34748,28.7428283,-81.8758226
27201,Stoney Brook Drive,34748,28.7428114,-81.8520160
1307,Vine Street,34748,28.8099452,-81.8861881
3401,Sailing Winds Way,34748,28.8067305,-81.9182072
3585,Forster Avenue,34748,28.7741892,-81.8979797
30192,Armenia Road,34748,28.7764108,-81.8965906
29907,Anahid Drive,34748,28.7730769,-81.8964385
3426,Sailing Winds Way,34748,28.8072714,-81.9185216
9620,Seaview Drive,34788,28.8228679,-81.7971512
29887,Anahid Drive,34748,28.7729529,-81.8957794
902,Kolb Street,34748,28.8099074,-81.8797537
30184,Armenia Road,34748,28.7765790,-81.8967817
29763,Anahid Drive,34748,28.7730073,-81.8926243
223,Indiana Street,34748,28.8088368,-81.8652059
2125,Angel Fish Loop,34748,28.8129444,-81.8449674
170,Park Center Street,34748,28.8139738,-81.9133835
20013,Royal Tern Court,34748,28.7702684,-81.8937024
30368,Armenia Road,34748,28.7756736,-81.8932157
407,North Oakland Street,34748,28.8161739,-81.8930819
1321,North 14th Street,34748,28.8292208,-81.8881801
1321,North 14th Street,34748,28.8291155,-81.8879903
30313,Armenia Road,34748,28.7749405,-81.8944372
30306,Armenia Road,34748,28.7753832,-81.8944252
29840,Anahid Drive,34748,28.7730790,-81.8944178
3814,Shoveler Avenue,34748,28.7742047,-81.8966972
669,Mills Street,34748,28.8203495,-81.8610373
3349,Curlew Avenue,34748,28.7748300,-81.8988936
9614,Seaview Drive,34788,28.8237847,-81.7970685
300,South 11th Street,34748,28.8093283,-81.8823299
29752,Anahid Drive,34748,28.7734805,-81.8925489
1321,North 14th Street,34748,28.8299319,-81.8879385
30200,Armenia Road,34748,28.7762641,-81.8963862
162,Park Center Street,34748,28.8139357,-81.9137166
3758,Shoveler Avenue,34748,28.7752345,-81.8966866
29025,Cutter Lane,34748,28.7691652,-81.8820478
20028,Royal Tern Court,34748,28.7706968,-81.8940813
414,West Main Street,34748,28.8113626,-81.8773605
7519,US Highway 441,34788,28.8243828,-81.8335323
3553,Forster Avenue,34748,28.7747573,-81.8979791
2010,Edgewood Avenue,34748,28.8069777,-81.8965545
29394,Caspian Street,34748,28.7725292,-81.8930607
30470,Pintail Drive,34748,28.7746509,-81.8948957
1806,Greenleaf Lane,34748,28.8364544,-81.8993959
1321,North 14th Street,34748,28.8298602,-81.8881799
300,South 12th Street,34748,28.8095209,-81.8837274
32511,Quiet Harbor Avenue,34788,28.8227115,-81.7957642
3965,Gadwall Place,34748,28.7735539,-81.8943886
3449,Forster Avenue,34748,28.7763395,-81.8981253
310,North 13th Street,34748,28.8146756,-81.8847159
3389,Curlew Avenue,34748,28.7755921,-81.8989075
3317,Sailing Winds Way,34748,28.8067249,-81.9170730
2010,Vine Street,34748,28.8105457,-81.8963290
4160,Scoter Place,34748,28.7750142,-81.8929715
9624,Seaview Drive,34788,28.8227912,-81.7966526
30250,Armenia Road,34748,28.7756850,-81.8954069
30430,Pintail Drive,34748,28.7745694,-81.8941347
4448,Hidden Harbor Drive,34748,28.7695791,-81.8811654
3687,Caspian Street,34748,28.7747992,-81.8970788
33025,Airport View,34788,28.8309539,-81.8162486
401,North 3rd Street,34748,28.8141319,-81.8767227
29875,Anahid Drive,34748,28.7728598,-81.8954015
3739,Caspian Street,34748,28.7758005,-81.8970911
3363,Curlew Avenue,34748,28.7751143,-81.8989059
2341,Carver Drive,34748,28.8207289,-81.9028835
4533,Hidden Harbor Drive,34748,28.7702180,-81.8818255
29845,Anahid Drive,34748,28.7727200,-81.8944578
414,West Main Street,34748,28.8112770,-81.8773632
23,Ginger Circle,34748,28.7906428,-81.8844140
300,South 11th Street,34748,28.8092426,-81.8823456
3809,Shoveler Avenue,34748,28.7742791,-81.8961876
232,Crestrun Loop,34748,28.8156897,-81.8361283
3630,Caspian Street,34748,28.7738590,-81.8975807
4044,Sandhill Place,34748,28.7718105,-81.8914776
30372,Armenia Road,34748,28.7756991,-81.8930563
1115,East Dixie Avenue,34748,28.8082506,-81.8586612
210,South College Street,34748,28.8092233,-81.8906982
402,North Oakland Street,34748,28.8155136,-81.8929430
1001,East Dixie Avenue,34748,28.8067284,-81.8604749
3723,Caspian Street,34748,28.7754723,-81.8970846
26709,Wetlands Way,34748,28.7374642,-81.8651278
4073,Sandhill Place,34748,28.7726926,-81.8918950
4534,Hidden Harbor Drive,34748,28.7703578,-81.8814126
30172,Armenia Road,34748,28.7767004,-81.8971892
3455,Forster Avenue,34748,28.7762349,-81.8980006
32420,Quiet Harbor Avenue,34788,28.8215218,-81.7971120
1922,Angel Fish Loop,34748,28.8126351,-81.8432254
146,Landing Drive,34748,28.8374057,-81.9035168
2207,Mispah Avenue,34748,28.8260574,-81.8985716
4142,Scoter Place,34748,28.7745924,-81.8929658
1335,Citizens Boulevard,34748,28.8219071,-81.8862834
4064,Sandhill Place,34748,28.7725359,-81.8912934
29783,Anahid Drive,34748,28.7729070,-81.8931709
3825,Shoveler Avenue,34748,28.7740595,-81.8961830
3612,Parkway Boulevard,34748,28.8108760,-81.9227486
29515,Caspian Street,34748,28.7720604,-81.8960383
30502,Pintail Drive,34748,28.7749741,-81.8958896
19966,Royal Tern Court,34748,28.7708353,-81.8929427
104,North 4th Street,34748,28.8112490,-81.8769832
3962,Gadwall Place,34748,28.7735677,-81.8948512
601,East Dixie Avenue,34748,28.8057488,-81.8690142
3523,Forster Avenue,34748,28.7752873,-81.8979728
29360,Caspian Street,34748,28.7726532,-81.8922976
29587,Caspian Street,34748,28.7729319,-81.8975252
4113,Scoter Place,34748,28.7737786,-81.8934770
3915,Brant Place,34748,28.7743276,-81.8953834
3337,Curlew Avenue,34748,28.7745368,-81.8989041
107,North 6th Street,34748,28.8114548,-81.8781067
30397,Pintail Drive,34748,28.7741155,-81.8935243
305,South 11th Street,34748,28.8090803,-81.8828745
29372,Caspian Street,34748,28.7726222,-81.8925541
1321,North 14th Street,34748,28.8299290,-81.8880123
30309,Armenia Road,34748,28.7749496,-81.8945674
4132,Scoter Place,34748,28.7742993,-81.8929718
29949,Anahid Drive,34748,28.7734538,-81.8983022
29831,Anahid Drive,34748,28.7727211,-81.8941975
1415,South Street,34748,28.8027030,-81.8889709
30204,Armenia Road,34748,28.7762051,-81.8962854
805,Georgia Avenue,34748,28.8215156,-81.8985729
1321,North 14th Street,34748,28.8299327,-81.8878737
30462,Pintail Drive,34748,28.7745923,-81.8946428
306,Crestrun Loop,34748,28.8146258,-81.8363062
3423,Harbor Winds Way,34748,28.8073854,-81.9194718
30124,Armenia Road,34748,28.7767061,-81.8986889
29337,Caspian Street,34748,28.7721511,-81.8917647
29400,Caspian Street,34748,28.7724995,-81.8931857
3944,Gadwall Place,34748,28.7739042,-81.8948662
1439,Sterns Drive,34748,28.8425124,-81.8864656
3375,Curlew Avenue,34748,28.7754047,-81.8988960
3842,Shoveler Avenue,34748,28.7737584,-81.8966853
174,Park Center Street,34748,28.8139891,-81.9132332
1760,Connell Road,34748,28.7747640,-81.8874192
29443,Caspian Street,34748,28.7718066,-81.8940507
2301,Harlem Avenue,34748,28.8247833,-81.9000093
30108,Armenia Road,34748,28.7767165,-81.8991882
739,North 14th Street,34748,28.8194504,-81.8906126
601,East Main Street,34748,28.8052456,-81.8680475
3408,Curlew Avenue,34748,28.7759327,-81.8994143
3793,Shoveler Avenue,34748,28.7744987,-81.8961922
29931,Anahid Drive,34748,28.7733546,-81.8975799
29997,Anahid Drive,34748,28.7737621,-81.8998796
30327,Armenia Road,34748,28.7749413,-81.8940308
3394,Curlew Avenue,34748,28.7756716,-81.8994099
3920,Brant Place,34748,28.7744786,-81.8956499
27131,Stoney Brook Drive,34748,28.7423115,-81.8524772
1702,US Highway 441,34748,28.8160347,-81.8486825
29421,Caspian Street,34748,28.7718664,-81.8935403
3773,Shoveler Avenue,34748,28.7749575,-81.8963191
1724,Connell Road,34748,28.7751645,-81.8884676
29851,Anahid Drive,34748,28.7727312,-81.8946469
30293,Armenia Road,34748,28.7750401,-81.8949385
4116,Scoter Place,34748,28.7738680,-81.8929714
2305,Angel Fish Loop,34748,28.8085632,-81.8444063
29486,Caspian Street,34748,28.7723990,-81.8951151
27891,US Highway 27,34748,28.7542421,-81.8787942
29109,Cutter Lane,34748,28.7694174,-81.8821773
8859,Airport Boulevard,34788,28.8284755,-81.8096380
29427,Caspian Street,34748,28.7718462,-81.8936670
1321,North 14th Street,34748,28.8294442,-81.8881790
2106,Angel Fish Loop,34748,28.8130136,-81.8439489
4048,Sandhill Place,34748,28.7719449,-81.8912932
3535,Forster Avenue,34748,28.7750725,-81.8979764
31570,Progress Road,34748,28.8077422,-81.9272917
2117,Amor Way,34748,28.8397727,-81.8861760
29512,Caspian Street,34748,28.7725456,-81.8957655
28079,US Highway 27,34748,28.7560979,-81.8792811
29534,Caspian Street,34748,28.7726533,-81.8962625
30259,Armenia Road,34748,28.7752699,-81.8955117
29766,Anahid Drive,34748,28.7734425,-81.8928514
601,East Dixie Avenue,34748,28.8062747,-81.8685450
2202,Harlem Avenue,34748,28.8252296,-81.8984209
19972,Royal Tern Court,34748,28.7708251,-81.8930535
29353,Caspian Street,34748,28.7721319,-81.8921640
1440,Sterns Drive,34748,28.8429676,-81.8864428
30196,Armenia Road,34748,28.7763374,-81.8964898
29109,US Highway 27,34748,28.7711041,-81.8854776
3693,Caspian Street,34748,28.7749090,-81.8970798
3875,Brant Place,34748,28.7736725,-81.8952898
3735,Shoveler Avenue,34748,28.7756020,-81.8962848
29983,Anahid Drive,34748,28.7737311,-81.8994314
3728,Caspian Street,34748,28.7755767,-81.8975922
3601,Forster Avenue,34748,28.7739599,-81.8979885
1321,North 14th Street,34748,28.8297536,-81.8881762
4440,Hidden Harbor Drive,34748,28.7694792,-81.8811130
516,Great Winds Drive,34748,28.8078336,-81.9167853
32421,Quiet Harbor Avenue,34788,28.8220883,-81.7970515
708,East Main Street,34748,28.8120022,-81.8682197
3755,Shoveler Avenue,34748,28.7753490,-81.8961904
1205,Crosby Street,34748,28.8106958,-81.8581913
805,Chandler Drive,34762,28.7532640,-81.9175300
308,South 12th Street,34748,28.8089355,-81.8837423
19997,Royal Tern Court,34748,28.7703131,-81.8933392
29496,Caspian Street,34748,28.7724502,-81.8953818
29571,Caspian Street,34748,28.7724930,-81.8970707
30449,Pintail Drive,34748,28.7741232,-81.8943266
29446,Caspian Street,34748,28.7723276,-81.8941767
1011,Sumter Street,34748,28.8051423,-81.8816291
1720,Connell Road,34748,28.7751017,-81.8887419
3778,Shoveler Avenue,34748,28.7748144,-81.8966830
403,Ashton Woods Lane,34748,28.8094333,-81.8439939
3822,Shoveler Avenue,34748,28.7740973,-81.8966909
27820,US Highway 27,34748,28.7524442,-81.8772564
29153,Cutter Lane,34748,28.7699596,-81.8824934
103,West Main Street,34748,28.8108541,-81.8752885
3577,Forster Avenue,34748,28.7743038,-81.8979752
2333,Montclair Road,34748,28.8179642,-81.9023588
661,Mills Street,34748,28.8199592,-81.8610431
4119,Scoter Place,34748,28.7738930,-81.8934859
19988,Royal Tern Court,34748,28.7707852,-81.8932732
3457,Forster Avenue,34748,28.7761254,-81.8980064
30288,Armenia Road,34748,28.7754444,-81.8946925
81,Dockside Drive,34748,28.8366119,-81.9036541
308,South 12th Street,34748,28.8088534,-81.8835069
3785,Shoveler Avenue,34748,28.7745997,-81.8963254
1321,North 14th Street,34748,28.8291689,-81.8881799
1110,Carlton Court,34748,28.8082300,-81.8833179
29813,Anahid Drive,34748,28.7727587,-81.8938095
29540,Caspian Street,34748,28.7726836,-81.8963856
30455,Pintail Drive,34748,28.7742532,-81.8944192
29871,Anahid Drive,34748,28.7728325,-81.8952779
306,South 11th Street,34748,28.8088263,-81.8823536
6809,Silver Charm Court,34748,28.8047103,-81.8416018
2499,Industrial Street,34748,28.8239439,-81.9058827
29807,Anahid Drive,34748,28.7727807,-81.8936818
144,Park Center Street,34748,28.8135871,-81.9132337
20038,Royal Tern Court,34748,28.7706913,-81.8943049
2304,Queen Palm Court,34748,28.8145624,-81.8335317
912,Stinson Street,34748,28.8223296,-81.9004947
30316,Armenia Road,34748,28.7753727,-81.8942825
420,South Canal Street,34748,28.8076134,-81.8734196
3926,Gadwall Place,34748,28.7742173,-81.8947406
20043,Royal Tern Court,34748,28.7702379,-81.8943699
27461,US Highway 27,34748,28.7472865,-81.8792249
1340,Shelfer Street,34748,28.8236958,-81.8871694
3696,Caspian Street,34748,28.7749722,-81.8976194
30296,Armenia Road,34748,28.7754122,-81.8945641
29583,Caspian Street,34748,28.7727938,-81.8974312
29919,Anahid Drive,34748,28.7731255,-81.8968240
3550,Forster Avenue,34748,28.7747087,-81.8984984
29728,Anahid Drive,34748,28.7735263,-81.8919166
3369,Curlew Avenue,34748,28.7752505,-81.8988995
1211,West North Boulevard,34748,28.8221638,-81.8838766
2614,Industrial Street,34748,28.8253990,-81.9086725
3345,Curlew Avenue,34748,28.7746842,-81.8989025
1210,Waterford Drive,34748,28.8026646,-81.8851965
3412,Curlew Avenue,34748,28.7760842,-81.8994156
105,County Road 468,34748,28.8132257,-81.9174079
4105,Scoter Place,34748,28.7736729,-81.8934732
3736,Caspian Street,34748,28.7756909,-81.8975902
30160,Armenia Road,34748,28.7767050,-81.8975849
1417,South Street,34748,28.8027876,-81.8893132
3331,Curlew Avenue,34748,28.7744083,-81.8989085
402,Newell Hill Road,34748,28.8147754,-81.8558523
5635,Windsong Oak Drive,34748,28.7253758,-81.8568480
29797,Anahid Drive,34748,28.7728400,-81.8934325
3950,Gadwall Place,34748,28.7737932,-81.8948653
213,Pine Street,34748,28.8086332,-81.8728635
1803,Bradford Avenue,34748,28.8203493,-81.8934180
30230,Armenia Road,34748,28.7758426,-81.8957588
3889,Brant Place,34748,28.7738838,-81.8952957
19994,Royal Tern Court,34748,28.7707668,-81.8933830
3817,Arlington Ridge Boulevard,34748,28.7292287,-81.8926686
306,South 11th Street,34748,28.8088831,-81.8823379
3974,Gadwall Place,34748,28.7733493,-81.8948493
29137,Cutter Lane,34748,28.7697599,-81.8823725
29804,Anahid Drive,34748,28.7732344,-81.8937711
2305,Vine Street,34748,28.8101862,-81.9006146
3415,Southwinds Cove Way,34748,28.8077458,-81.9175880
1321,North 14th Street,34748,28.8296526,-81.8881749
20019,Royal Tern Court,34748,28.7702587,-81.8938133
29834,Anahid Drive,34748,28.7731809,-81.8943192
601,East Dixie Avenue,34748,28.8062649,-81.8678715
3518,Forster Avenue,34748,28.7752536,-81.8985004
3420,Curlew Avenue,34748,28.7761987,-81.8994220
3744,Caspian Street,34748,28.7757959,-81.8975911
29347,Caspian Street,34748,28.7721418,-81.8920362
29467,Caspian Street,34748,28.7718119,-81.8947100
125,Orange Avenue,34748,28.8125342,-81.8790794
3770,Shoveler Avenue,34748,28.7750364,-81.8966822
3916,Brant Place,34748,28.7743990,-81.8957787
2202,South Street,34748,28.8037138,-81.8989624
30276,Armenia Road,34748,28.7755260,-81.8949299
1506,Akron Drive,34748,28.8324485,-81.8903445
655,Mills Street,34748,28.8195798,-81.8610924
3669,Caspian Street,34748,28.7744235,-81.8970906
29406,Caspian Street,34748,28.7724629,-81.8933089
9606,Seaview Drive,34788,28.8242391,-81.7963376
4079,Sandhill Place,34748,28.7728387,-81.8919015
539,Great Winds Drive,34748,28.8073131,-81.9174124
3767,Caspian Street,34748,28.7762321,-81.8972217
1338,Citizens Boulevard,34748,28.8224014,-81.8864510
29126,Cutter Lane,34748,28.7697535,-81.8818848
29957,Anahid Drive,34748,28.7735404,-81.8985443
809,West North Boulevard,34748,28.8178873,-81.8792948
2328,Montclair Road,34748,28.8190042,-81.9017407
307,Rambo Street,34748,28.8085515,-81.8697475
5,Landing Drive,34748,28.8361877,-81.9035703
3482,Forster Avenue,34748,28.7757317,-81.8985046
27010,Meandering Trails Boulevard,34748,28.7406814,-81.8658292
4151,Scoter Place,34748,28.7747883,-81.8934650
30116,Armenia Road,34748,28.7767092,-81.8989511
30168,Armenia Road,34748,28.7766996,-81.8973193
19978,Royal Tern Court,34748,28.7708057,-81.8931638
1321,North 14th Street,34748,28.8291176,-81.8881379
1513,High Street,34748,28.8125929,-81.8905864
30247,Armenia Road,34748,28.7753516,-81.8957506
30303,Armenia Road,34748,28.7749842,-81.8946896
3666,Caspian Street,34748,28.7744256,-81.8976052
3910,Brant Place,34748,28.7742951,-81.8957860
20000,Royal Tern Court,34748,28.7707503,-81.8934933
4416,Hidden Harbor Drive,34748,28.7690978,-81.8809685
29505,Caspian Street,34748,28.7719847,-81.8957333
4067,Sandhill Place,34748,28.7725499,-81.8917328
29206,Cutter Lane,34748,28.7701318,-81.8820831
1321,North 14th Street,34748,28.8299366,-81.8876464
4076,Sandhill Place,34748,28.7728109,-81.8912934
3803,Shoveler Avenue,34748,28.7743936,-81.8961913
29979,Anahid Drive,34748,28.7737277,-81.8993013
29987,Anahid Drive,34748,28.7737360,-81.8995550
3892,Brant Place,34748,28.7739633,-81.8957888
5941,Sage Leaf Place,34748,28.7504532,-81.8546988
1321,North 14th Street,34748,28.8299337,-81.8877228
5951,Tumbleweed Trail,34748,28.7495747,-81.8565964
2109,Amor Way,34748,28.8399146,-81.8857925
3749,Shoveler Avenue,34748,28.7754714,-81.8962028
29915,Anahid Drive,34748,28.7731126,-81.8966983
3817,Shoveler Avenue,34748,28.7741645,-81.8961893
29963,Anahid Drive,34748,28.7736297,-81.8987779
7,Weston Road,34748,28.8178778,-81.8593325
29110,Cutter Lane,34748,28.7695485,-81.8817770
30176,Armenia Road,34748,28.7766991,-81.8970348
29567,Caspian Street,34748,28.7723933,-81.8969532
3947,Gadwall Place,34748,28.7738766,-81.8943848
20029,Royal Tern Court,34748,28.7702448,-81.8940356
3862,Brant Place,34748,28.7734228,-81.8956372
30212,Armenia Road,34748,28.7760544,-81.8960413
3401,Harbor Winds Way,34748,28.8069076,-81.9194607
2203,Karl Street,34748,28.8042375,-81.8988285
3563,Forster Avenue,34748,28.7745377,-81.8979772
2109,Angel Fish Loop,34748,28.8135497,-81.8441544
30478,Pintail Drive,34748,28.7747276,-81.8951377
29479,Caspian Street,34748,28.7719765,-81.8950145
4174,Scoter Place,34748,28.7752723,-81.8931017
30419,Pintail Drive,34748,28.7741194,-81.8939431
4157,Scoter Place,34748,28.7749178,-81.8934643
665,Mills Street,34748,28.8201549,-81.8610507
30325,Armenia Road,34748,28.7749277,-81.8941670
20055,Royal Tern Court,34748,28.7702424,-81.8945927
30267,Armenia Road,34748,28.7752218,-81.8954122
29235,Cutter Lane,34748,28.7705586,-81.8827376
30102,Armenia Road,34748,28.7767112,-81.8995141
1742,Connell Road,34748,28.7750584,-81.8878621
20004,Royal Tern Court,34748,28.7707359,-81.8936039
27413,Black Kite Avenue,34737,28.7456673,-81.8386787
27468,Black Kite Avenue,34737,28.7455058,-81.8409387
27472,Black Kite Avenue,34737,28.7455067,-81.8410947
6945,Broad Wing Loop,34737,28.7448271,-81.8395589
7000,Broad Wing Loop,34737,28.7469264,-81.8396417
6888,Spanish Imperial Street,34737,28.7414484,-81.8413332
27461,Black Kite Avenue,34737,28.7456760,-81.8407320
6850,Spanish Imperial Street,34737,28.7426285,-81.8413523
6821,Spotted Eagle Loop,34737,28.7389519,-81.8429545
27513,Stellar Sea Way,34737,28.7465938,-81.8408927
27305,African Fish Court,34737,28.7448223,-81.8384930
27517,Stellar Sea Way,34737,28.7465946,-81.8410487
27325,African Fish Court,34737,28.7448257,-81.8391326
6808,Spotted Eagle Loop,34737,28.7392047,-81.8424589
6720,Spotted Eagle Loop,34737,28.7420333,-81.8422490
6825,Spotted Eagle Loop,34737,28.7387946,-81.8430226
6941,Broad Wing Loop,34737,28.7446896,-81.8395600
27408,Black Kite Avenue,34737,28.7454823,-81.8384992
27424,Black Kite Avenue,34737,28.7454850,-81.8390141
6744,Spotted Eagle Loop,34737,28.7413090,-81.8422284
6808,Serpent Hawk Lane,34737,28.7424069,-81.8404463
27464,Black Kite Avenue,34737,28.7455048,-81.8407827
6828,Spotted Eagle Loop,34737,28.7385899,-81.8427481
6828,Serpent Hawk Lane,34737,28.7417211,-81.8404392
6845,Serpent Hawk Lane,34737,28.7411358,-81.8407365
6712,Spotted Eagle Loop,34737,28.7422700,-81.8422552
6816,Broad Wing Loop,34737,28.7460890,-81.8402361
27425,Black Kite Avenue,34737,28.7456695,-81.8390999
6829,Spotted Eagle Loop,34737,28.7386130,-81.8430902
27320,African Fish Court,34737,28.7446612,-81.8390184
6804,Spotted Eagle Loop,34737,28.7394020,-81.8424866
6808,Broad Wing Loop,34737,28.7458690,-81.8402376
6712,Golden Eagle Boulevard,34737,28.7460056,-81.8413529
6784,Spotted Eagle Loop,34737,28.7400445,-81.8422769
6887,Spanish Imperial Street,34737,28.7415823,-81.8416327
6953,Broad Wing Loop,34737,28.7451021,-81.8395568
27304,African Fish Court,34737,28.7446585,-81.8385035
27476,Black Kite Avenue,34737,28.7455076,-81.8412507
6737,Spotted Eagle Loop,34737,28.7416253,-81.8425325
6732,Spotted Eagle Loop,34737,28.7417030,-81.8422432
6992,Broad Wing Loop,34737,28.7466992,-81.8392828
6996,Broad Wing Loop,34737,28.7468517,-81.8394605
6896,Spanish Imperial Street,34737,28.7411336,-81.8413288
6813,Serpent Hawk Lane,34737,28.7422705,-81.8407456
27328,African Fish Court,34737,28.7446619,-81.8392833
6891,Spanish Imperial Street,34737,28.7414456,-81.8416348
27312,African Fish Court,34737,28.7446599,-81.8387688
6788,Spotted Eagle Loop,34737,28.7399264,-81.8422862
6789,Broad Wing Loop,34737,28.7429621,-81.8410905
27405,Black Kite Avenue,34737,28.7456656,-81.8383510
6748,Spotted Eagle Loop,34737,28.7411659,-81.8422198
6817,Serpent Hawk Lane,34737,28.7421331,-81.8407428
27521,Stellar Sea Way,34737,28.7465962,-81.8412668
7012,Broad Wing Loop,34737,28.7470120,-81.8401158
27429,Black Kite Avenue,34737,28.7456710,-81.8392673
6961,Broad Wing Loop,34737,28.7454053,-81.8395552
6866,Spanish Imperial Street,34737,28.7421344,-81.8413451
6721,Spotted Eagle Loop,34737,28.7420661,-81.8425349
27508,Stellar Sea Way,34737,28.7463912,-81.8406873
6812,Broad Wing Loop,34737,28.7459790,-81.8402369
27316,African Fish Court,34737,28.7446605,-81.8388936
27416,Black Kite Avenue,34737,28.7454837,-81.8387644
27421,Black Kite Avenue,34737,28.7456688,-81.8389595
7004,Broad Wing Loop,34737,28.7469954,-81.8397767
6776,Spotted Eagle Loop,34737,28.7402649,-81.8422732
6785,Broad Wing Loop,34737,28.7429618,-81.8412511
27428,Black Kite Avenue,34737,28.7454856,-81.8391389
6768,Spotted Eagle Loop,34737,28.7404794,-81.8422661
6880,Spanish Imperial Street,34737,28.7417208,-81.8413386
6884,Spanish Imperial Street,34737,28.7415888,-81.8413386
6867,Spanish Imperial Street,34737,28.7421531,-81.8416511
6949,Broad Wing Loop,34737,28.7449646,-81.8395579
6805,Serpent Hawk Lane,34737,28.7424943,-81.8407374
6836,Spotted Eagle Loop,34737,28.7383371,-81.8429096
6883,Spanish Imperial Street,34737,28.7417086,-81.8416390
6876,Spanish Imperial Street,34737,28.7418565,-81.8413365
6825,Serpent Hawk Lane,34737,28.7418524,-81.8407372
6709,Golden Eagle Boulevard,34737,28.7459410,-81.8415976
6858,Spanish Imperial Street,34737,28.7423862,-81.8413365
6729,Spotted Eagle Loop,34737,28.7418490,-81.8425417
27432,Black Kite Avenue,34737,28.7454857,-81.8392790
6832,Spotted Eagle Loop,34737,28.7384610,-81.8428511
6705,Golden Eagle Boulevard,34737,28.7458031,-81.8415496
27457,Black Kite Avenue,34737,28.7456757,-81.8405763
27309,African Fish Court,34737,28.7448230,-81.8386334
6833,Spotted Eagle Loop,34737,28.7384628,-81.8431665
6809,Spotted Eagle Loop,34737,28.7392973,-81.8427976
6871,Spanish Imperial Street,34737,28.7420398,-81.8416481
27465,Black Kite Avenue,34737,28.7456766,-81.8408569
6929,Broad Wing Loop,34737,28.7442771,-81.8395632
6728,Spotted Eagle Loop,34737,28.7418152,-81.8422526
6713,Golden Eagle Boulevard,34737,28.7460785,-81.8415967
6777,Spotted Eagle Loop,34737,28.7402230,-81.8425549
6840,Serpent Hawk Lane,34737,28.7413088,-81.8404293
6892,Spanish Imperial Street,34737,28.7413034,-81.8413310
6988,Broad Wing Loop,34737,28.7465390,-81.8392775
6773,Spotted Eagle Loop,34737,28.7403314,-81.8425585
6824,Broad Wing Loop,34737,28.7463090,-81.8402346
6904,Broad Wing Loop,34737,28.7433903,-81.8392924
6817,Spotted Eagle Loop,34737,28.7390769,-81.8428957
6875,Spanish Imperial Street,34737,28.7419248,-81.8416418
6833,Serpent Hawk Lane,34737,28.7415862,-81.8407351
6957,Broad Wing Loop,34737,28.7452396,-81.8395558
6736,Spotted Eagle Loop,34737,28.7415739,-81.8422305
6924,Broad Wing Loop,34737,28.7441012,-81.8391833
6724,Golden Eagle Boulevard,34737,28.7463594,-81.8413498
27512,Stellar Sea Way,34737,28.7463918,-81.8408121
27313,African Fish Court,34737,28.7448237,-81.8387582
6764,Spotted Eagle Loop,34737,28.7405884,-81.8422711
27317,African Fish Court,34737,28.7448244,-81.8388830
6820,Serpent Hawk Lane,34737,28.7419960,-81.8404447
6969,Broad Wing Loop,34737,28.7458740,-81.8395294
6980,Broad Wing Loop,34737,28.7462160,-81.8392924
6708,Golden Eagle Boulevard,34737,28.7458956,-81.8413537
6708,Spotted Eagle Loop,34737,28.7423907,-81.8422646
6793,Broad Wing Loop,34737,28.7429642,-81.8409232
6740,Spotted Eagle Loop,34737,28.7414448,-81.8422273
6773,Broad Wing Loop,34737,28.7429579,-81.8417222
6769,Broad Wing Loop,34737,28.7429549,-81.8418794
27448,Black Kite Avenue,34737,28.7455012,-81.8401586
6976,Broad Wing Loop,34737,28.7460716,-81.8392934
6824,Serpent Hawk Lane,34737,28.7418601,-81.8404337
27160,Long Crested Avenue,34737,28.7408965,-81.8426455
6820,Broad Wing Loop,34737,28.7461990,-81.8402354
6716,Golden Eagle Boulevard,34737,28.7461156,-81.8413522
6973,Broad Wing Loop,34737,28.7459840,-81.8395287
6704,Golden Eagle Boulevard,34737,28.7457618,-81.8413539
6733,Spotted Eagle Loop,34737,28.7417348,-81.8425355
6985,Broad Wing Loop,34737,28.7463140,-81.8395265
6797,Broad Wing Loop,34737,28.7429652,-81.8407619
27420,Black Kite Avenue,34737,28.7454843,-81.8388892
6725,Golden Eagle Boulevard,34737,28.7464910,-81.8415939
6937,Broad Wing Loop,34737,28.7445521,-81.8395611
27321,African Fish Court,34737,28.7448250,-81.8390078
6859,Spanish Imperial Street,34737,28.7423955,-81.8416435
6916,Broad Wing Loop,34737,28.7438675,-81.8391849
6816,Serpent Hawk Lane,34737,28.7421335,-81.8404475
6895,Spanish Imperial Street,34737,28.7413053,-81.8416337
27456,Black Kite Avenue,34737,28.7455030,-81.8404706
6796,Spotted Eagle Loop,34737,28.7397277,-81.8423566
27469,Black Kite Avenue,34737,28.7456774,-81.8409973
6801,Serpent Hawk Lane,34737,28.7426220,-81.8406428
6879,Spanish Imperial Street,34737,28.7418199,-81.8416410
6804,Serpent Hawk Lane,34737,28.7425386,-81.8404374
6745,Spotted Eagle Loop,34737,28.7414120,-81.8425329
6777,Broad Wing Loop,34737,28.7429590,-81.8415628
6984,Broad Wing Loop,34737,28.7463535,-81.8392915
6851,Spanish Imperial Street,34737,28.7426223,-81.8415440
6761,Broad Wing Loop,34737,28.7429457,-81.8421883
6705,Spotted Eagle Loop,34737,28.7425032,-81.8425384
6862,Spanish Imperial Street,34737,28.7422766,-81.8413462
27329,African Fish Court,34737,28.7448271,-81.8392727
6933,Broad Wing Loop,34737,28.7444146,-81.8395621
6757,Broad Wing Loop,34737,28.7429414,-81.8423329
6965,Broad Wing Loop,34737,28.7457506,-81.8395311
6725,Spotted Eagle Loop,34737,28.7419575,-81.8425436
6797,Spotted Eagle Loop,34737,28.7396078,-81.8426635
27480,Black Kite Avenue,34737,28.7455085,-81.8414067
27492,Black Kite Avenue,34737,28.7455106,-81.8418997
6829,Serpent Hawk Lane,34737,28.7417149,-81.8407328
6729,Golden Eagle Boulevard,34737,28.7466285,-81.8415929
6717,Golden Eagle Boulevard,34737,28.7462160,-81.8415957
6804,Broad Wing Loop,34737,28.7457455,-81.8402377
6700,Spotted Eagle Loop,34737,28.7426208,-81.8422813
27484,Black Kite Avenue,34737,28.7455094,-81.8415628
6772,Spotted Eagle Loop,34737,28.7403727,-81.8422721
27412,Black Kite Avenue,34737,28.7454830,-81.8386396
6780,Spotted Eagle Loop,34737,28.7401517,-81.8422710
7008,Broad Wing Loop,34737,28.7470603,-81.8399156
6837,Spotted Eagle Loop,34737,28.7383287,-81.8432164
27505,Stellar Sea Way,34737,28.7466027,-81.8405364
6844,Serpent Hawk Lane,34737,28.7411392,-81.8404296
6789,Spotted Eagle Loop,34737,28.7398515,-81.8425846
6981,Broad Wing Loop,34737,28.7462040,-81.8395272
6932,Broad Wing Loop,34737,28.7443212,-81.8391818
6721,Golden Eagle Boulevard,34737,28.7463535,-81.8415948
6925,Broad Wing Loop,34737,28.7441396,-81.8395642
6870,Spanish Imperial Street,34737,28.7420006,-81.8413398
6792,Spotted Eagle Loop,34737,28.7398269,-81.8422996
27488,Black Kite Avenue,34737,28.7455103,-81.8417188
27460,Black Kite Avenue,34737,28.7455039,-81.8406267
6921,Broad Wing Loop,34737,28.7440021,-81.8395653
6977,Broad Wing Loop,34737,28.7460940,-81.8395279
6928,Broad Wing Loop,34737,28.7442112,-81.8391826
27504,Stellar Sea Way,34737,28.7463898,-81.8405315
27308,African Fish Court,34737,28.7446592,-81.8386439
6820,Spotted Eagle Loop,34737,28.7388516,-81.8426451
6844,Spotted Eagle Loop,34737,28.7381126,-81.8430501
6840,Spotted Eagle Loop,34737,28.7382103,-81.8429797
6841,Serpent Hawk Lane,34737,28.7412982,-81.8407328
6765,Broad Wing Loop,34737,28.7429510,-81.8420328
6793,Spotted Eagle Loop,34737,28.7397249,-81.8426216
6832,Serpent Hawk Lane,34737,28.7415837,-81.8404364
6713,Spotted Eagle Loop,34737,28.7422814,-81.8425367
6717,Spotted Eagle Loop,34737,28.7421746,-81.8425432
6812,Spotted Eagle Loop,34737,28.7390985,-81.8425302
6716,Spotted Eagle Loop,34737,28.7421493,-81.8422500
6749,Spotted Eagle Loop,34737,28.7413034,-81.8425373
6920,Broad Wing Loop,34737,28.7439912,-81.8391841
27417,Black Kite Avenue,34737,28.7456681,-81.8388191
6805,Spotted Eagle Loop,34737,28.7393988,-81.8427576
27409,Black Kite Avenue,34737,28.7456665,-81.8385227
6824,Spotted Eagle Loop,34737,28.7387109,-81.8427045
6756,Spotted Eagle Loop,34737,28.7407973,-81.8422857
6912,Broad Wing Loop,34737,28.7437298,-81.8391863
6741,Spotted Eagle Loop,34737,28.7415224,-81.8425348
6821,Serpent Hawk Lane,34737,28.7419898,-81.8407383
6704,Spotted Eagle Loop,34737,28.7424927,-81.8422729
6720,Golden Eagle Boulevard,34737,28.7462256,-81.8413514
27444,Black Kite Avenue,34737,28.7455003,-81.8400026
6908,Broad Wing Loop,34737,28.7435908,-81.8392024
6781,Spotted Eagle Loop,34737,28.7401056,-81.8425540
6724,Spotted Eagle Loop,34737,28.7419266,-81.8422471
6837,Serpent Hawk Lane,34737,28.7414459,-81.8407224
27516,Stellar Sea Way,34737,28.7463926,-81.8409525
27404,Black Kite Avenue,34737,28.7454814,-81.8383432
6855,Spanish Imperial Street,34737,28.7425022,-81.8416475
6854,Spanish Imperial Street,34737,28.7425022,-81.8413417
6836,Serpent Hawk Lane,34737,28.7414478,-81.8404287
6813,Spotted Eagle Loop,34737,28.7391994,-81.8428451
27509,Stellar Sea Way,34737,28.7465930,-81.8407367
6863,Spanish Imperial Street,34737,28.7422738,-81.8416446
6809,Serpent Hawk Lane,34737,28.7423861,-81.8407415
27324,African Fish Court,34737,28.7446619,-81.8391432
6709,Spotted Eagle Loop,34737,28.7423965,-81.8425376
6899,Spanish Imperial Street,34737,28.7411415,-81.8416239
6917,Broad Wing Loop,34737,28.7438646,-81.8395663
6760,Spotted Eagle Loop,34737,28.7406950,-81.8422747
6812,Serpent Hawk Lane,34737,28.7422695,-81.8404436
6781,Broad Wing Loop,34737,28.7429580,-81.8414070
6785,Spotted Eagle Loop,34737,28.7399744,-81.8425618
27452,Black Kite Avenue,34737,28.7455016,-81.8403147
6816,Spotted Eagle Loop,34737,28.7389840,-81.8425739
6801,Spotted Eagle Loop,34737,28.7394986,-81.8427027
28042,Poppy Court,34748,28.7534382,-81.8761201
28000,Poppy Court,34748,28.7547861,-81.8767331
4724,Jasmine Circle,34748,28.7543773,-81.8755463
4701,Jasmine Circle,34748,28.7546231,-81.8763994
28070,Poppy Court,34748,28.7523939,-81.8759180
28050,Poppy Court,34748,28.7531707,-81.8760355
28074,Poppy Court,34748,28.7522406,-81.8759556
4717,Jasmine Circle,34748,28.7545983,-81.8757720
28046,Poppy Court,34748,28.7532987,-81.8761080
4705,Jasmine Circle,34748,28.7545865,-81.8762459
28090,Poppy Court,34748,28.7517395,-81.8762762
28041,Poppy Court,34748,28.7534770,-81.8765900
28045,Poppy Court,34748,28.7533408,-81.8765746
28013,Poppy Court,34748,28.7544177,-81.8768309
28009,Poppy Court,34748,28.7545437,-81.8768788
4710,Jasmine Circle,34748,28.7541777,-81.8759848
4748,Jasmine Circle,34748,28.7534906,-81.8758595
4728,Jasmine Circle,34748,28.7542212,-81.8754865
28066,Poppy Court,34748,28.7525489,-81.8759298
28005,Poppy Court,34748,28.7546997,-81.8768612
28025,Poppy Court,34748,28.7540170,-81.8767187
4755,Jasmine Circle,34748,28.7538589,-81.8762127
4736,Jasmine Circle,34748,28.7539274,-81.8755318
28037,Poppy Court,34748,28.7536108,-81.8766254
28054,Poppy Court,34748,28.7530353,-81.8760102
28017,Poppy Court,34748,28.7542808,-81.8767975
28086,Poppy Court,34748,28.7518691,-81.8761804
4732,Jasmine Circle,34748,28.7540656,-81.8755042
4721,Jasmine Circle,34748,28.7545579,-81.8756082
4751,Jasmine Circle,34748,28.7538643,-81.8760546
28061,Poppy Court,34748,28.7526833,-81.8763960
4702,Jasmine Circle,34748,28.7541789,-81.8762965
28033,Poppy Court,34748,28.7537443,-81.8766668
4706,Jasmine Circle,34748,28.7541818,-81.8761417
28078,Poppy Court,34748,28.7520962,-81.8759908
28053,Poppy Court,34748,28.7530670,-81.8765254
4709,Jasmine Circle,34748,28.7546171,-81.8760896
28058,Poppy Court,34748,28.7529010,-81.8759811
4713,Jasmine Circle,34748,28.7546145,-81.8759318
28082,Poppy Court,34748,28.7519715,-81.8760513
28049,Poppy Court,34748,28.7532079,-81.8765390
28021,Poppy Court,34748,28.7541486,-81.8767376
28029,Poppy Court,34748,28.7538839,-81.8766553
28065,Poppy Court,34748,28.7525654,-81.8763892
1920,County Road 25A,34748,28.7809902,-81.8916889
1928,County Road 25A,34748,28.7810474,-81.8910204
29217,Armoyan Boulevard,34748,28.7710122,-81.8941070
29207,Armoyan Boulevard,34748,28.7710074,-81.8943306
29230,Armoyan Boulevard,34748,28.7715107,-81.8936806
29245,Armoyan Boulevard,34748,28.7710975,-81.8933306
29255,Armoyan Boulevard,34748,28.7711412,-81.8931125
29310,Armoyan Boulevard,34748,28.7717996,-81.8921166
29220,Armoyan Boulevard,34748,28.7714925,-81.8938401
29260,Armoyan Boulevard,34748,28.7716325,-81.8930564
29113,Armoyan Boulevard,34748,28.7710112,-81.8945543
29237,Armoyan Boulevard,34748,28.7710624,-81.8935508
29280,Armoyan Boulevard,34748,28.7717367,-81.8925930
29110,Armoyan Boulevard,34748,28.7714766,-81.8946428
29300,Armoyan Boulevard,34748,28.7717831,-81.8922761
29274,Armoyan Boulevard,34748,28.7717069,-81.8927500
29251,Armoyan Boulevard,34748,28.7711183,-81.8932213
29203,Armoyan Boulevard,34748,28.7710082,-81.8944425
29214,Armoyan Boulevard,34748,28.7714793,-81.8940002
29099,Armoyan Boulevard,34748,28.7710400,-81.8948920
29266,Armoyan Boulevard,34748,28.7716728,-81.8929057
29211,Armoyan Boulevard,34748,28.7710087,-81.8942188
29290,Armoyan Boulevard,34748,28.7717621,-81.8924350
29269,Armoyan Boulevard,34748,28.7711942,-81.8929000
29091,Armoyan Boulevard,34748,28.7711715,-81.8949993
29200,Armoyan Boulevard,34748,28.7714679,-81.8943214
29101,Armoyan Boulevard,34748,28.7710238,-81.8947776
29219,Armoyan Boulevard,34748,28.7710179,-81.8939953
29330,Armoyan Boulevard,34748,28.7716969,-81.8918228
29116,Armoyan Boulevard,34748,28.7714697,-81.8944822
29208,Armoyan Boulevard,34748,28.7714712,-81.8941607
29242,Armoyan Boulevard,34748,28.7715620,-81.8933644
29233,Armoyan Boulevard,34748,28.7710480,-81.8936615
29229,Armoyan Boulevard,34748,28.7710358,-81.8937725
29263,Armoyan Boulevard,34748,28.7711672,-81.8930051
29096,Armoyan Boulevard,34748,28.7713695,-81.8949696
29107,Armoyan Boulevard,34748,28.7710164,-81.8946660
29248,Armoyan Boulevard,34748,28.7715950,-81.8932081
29234,Armoyan Boulevard,34748,28.7715339,-81.8935220
29320,Armoyan Boulevard,34748,28.7718117,-81.8919566
29239,Armoyan Boulevard,34748,28.7710789,-81.8934405
29104,Armoyan Boulevard,34748,28.7714878,-81.8948032
29225,Armoyan Boulevard,34748,28.7710258,-81.8938838
23,McHale Drive,34748,28.8356009,-81.9044428
2501,Citrus Boulevard,34748,28.8425934,-81.8992902
10401,US Highway 441,34788,28.8257876,-81.7845331
9450,Highway 441,34788,28.8263108,-81.8005110
600,East Dixie Avenue,34748,28.8078175,-81.8689517
201,Mills Street,34748,28.8129437,-81.8610345
700,North Boulevard,34748,28.8149052,-81.8683604
100,East Main Street,34748;34748-5225,28.8114905,-81.8747542
111,South 6th Street,34748,28.8107324,-81.8781689
114,S 5th St,34748,28.8105566,-81.8773583
209,West Main Street,34748,28.8108561,-81.8763976
2775,Hollow Ln,34748,28.8158437,-81.8265541
8130,CR 44 Leg A,34788,28.8326164,-81.8212692
122,East Main Street,34748,28.8113117,-81.8738598
118,East Main Street,34748,28.8112579,-81.8741597
115,East Magnolia Street,34748,28.8096896,-81.8746437
425,North 3rd Street,34748,28.8152757,-81.8770827
212,East Main Street,34748,28.8114576,-81.8726548
10670,US Highway 441,34788,28.8206772,-81.7809170
2121,Johns Avenue,34748,28.8204556,-81.8971930
940,Susan Street,34748,28.8231783,-81.8912008
1851,Griffin Road,34748,28.8269345,-81.8926523
510,West Main Street,34748,28.8119664,-81.8777406
1,Dozier Circle,34748,28.8057553,-81.8746153
1321,North 14th Street,34748,28.8296051,-81.8882578
113 N,14th Street,34748,28.8120316,-81.8879564
201 S,14th Street,34748,28.8101019,-81.8879570
1392 W,North Boulevard,34748,28.8269786,-81.8862927
1115,North Boulevard West,34748,28.8210019,-81.8829822
2476 N,Citrus Boulevard,34748,28.8427758,-81.8956971
9700,US Highway 441,34788,28.8250293,-81.7959111
10401,US Highway 441,34788,28.8232169,-81.7851412
10315,US 441 (FL),34788,28.8233921,-81.7856741
10420,US Highway 441,34788,28.8220133,-81.7846511
10530,US Highway 441,34788,28.8214368,-81.7828932
10401,US Highway 441,34788,28.8215309,-81.7831425
9934,US Highway 441,34788,28.8241138,-81.7916166
9630,US Highway 441,34788,28.8251398,-81.7964156
9532,US Highway 441,34788,28.8262554,-81.7988021
9532,US Highway 441,34788,28.8259550,-81.7988518
9540,US Highway 441,34788,28.8236755,-81.7985081
8319,US Highway 441,34788,28.8331401,-81.8185965
10135,Highway 441,34788,28.8242217,-81.7885299
10601,US Highway 441,34788,28.8220412,-81.7809900
11101,US Highway 441,32778,28.8193872,-81.7728831
201,Lake Harris Drive,34748,28.8009264,-81.8749142
1306,14th Street,34748,28.7979136,-81.8873272
225,North 1st Street,34748,28.8123549,-81.8758290
31739,Progress Rd,34748,28.8106996,-81.9272601
429,West Magnolia Street,34748,28.8101333,-81.8773232
220,Mike Street,34748,28.8094105,-81.8701588
10700,US Highway 441,34788,28.8203306,-81.7801814
2115,US Highway 441,34748,28.8182008,-81.8394201
1012,North 14th Street,34748,28.8243247,-81.8870303
4463,Arlington Ridge Boulevard,34748,28.7343086,-81.8819518
10401,US-441,34788,28.8260334,-81.7843614
