House number,Street name,Postal code,Latitude,Longitude
5,Southeast 17th Street,34471,29.1727621,-82.1352456
3001,SW College Rd,34474,29.1646988,-82.1739821
1330,Southwest 33rd Avenue,34474,29.1743076,-82.1787683
5200,Southwest College Avenue,34474,29.1292257,-82.2055561
3130,Southwest 27th Avenue,34471,29.1555480,-82.1705238
1109,Northeast 8th Avenue,34470,29.1975549,-82.1294185
3733,Southwest 80th Avenue,34481,29.1548279,-82.2496670
307,Southeast 3rd Street,34471,29.1843949,-82.0998523
303,Southeast 17th Street,34471-4470,29.1733226,-82.1325325
2696,South West College Road,34471-1652,29.1660828,-82.1682713
2499,Southwest 27th Avenue,34471,29.1638312,-82.1681069
2377,Southwest College Road,34471,29.1704734,-82.1642286
2401,Southwest 19th Avenue Road,34474,29.1636574,-82.1654074
3510,Southwest 36th Avenue,34474,29.1517665,-82.1825961
29,Northeast 1st Avenue,34470,29.1876657,-82.1357946
2501,SW 57th Ave #503,34474,29.1639118,-82.2128711
20740,9th St.,32664,29.2030173,-82.0829265
1847,Southwest 1st Avenue,34471,29.1688267,-82.1369755
1427,Northeast 25th Avenue,34470,29.2009752,-82.1029932
1400,Southeast 17th Street,34471,29.1713753,-82.1201706
1500,SE MAGNOLIA EXTENSION,34471,29.1735879,-82.1307100
1014,Southwest 7th Road,34471,29.1784236,-82.1479219
1009,Northeast 28th Avenue,34470,29.1973237,-82.0986123
907,Southwest 3rd Street,34471,29.1840763,-82.1479740
514,S Magnolia Ave,34471,29.1822258,-82.1374349
3201,"SW 34th Ave, #204",34474,29.1553257,-82.1771945
2510,Southeast 17th Street,34471,29.1711734,-82.1025936
2131,N Magnolia Ave,34475,29.2094716,-82.1398101
2502,Northeast Jacksonville Road,34470,29.2128658,-82.1272682
2403,Southwest 27th Street,34471,29.1658415,-82.1665694
1157,NE 14th St,34470,29.2009169,-82.1240507
3101,Southwest 34th Avenue,34474,29.1559066,-82.1766307
1400,Southeast Magnolia Extension,34471,29.1751741,-82.1339147
5400,Southwest College Road,34474,29.1252266,-82.2080755
2575,Southwest 42nd Street,34471,29.1476941,-82.1674374
1429,Northeast 25th Avenue,34470,29.2013716,-82.1029464
2436,East Silver Springs Boulevard,34470,29.1864996,-82.1040799
2426,East Silver Springs Boulevard,34470,29.1865892,-82.1043577
3100,Southwest College Road,34474,29.1590999,-82.1735259
4747,Southwest College Road,34471,29.1732416,-82.1590778
500,Southwest 10th Street,34471,29.1785433,-82.1420964
304,Southwest Broadway Street,34471,29.1861782,-82.1396608
3391,East Silver Springs Boulevard,34470,29.1960290,-82.0899906
112,East Fort King Street,34471,29.1842866,-82.1351122
2500,Northwest 6th Street,34475,29.1919774,-82.1654870
610,Southeast 17th Street,34471,29.1714255,-82.1313221
2606,Southwest 19th Avenue Road,34471,29.1596717,-82.1663900
3501,Northeast 10th Street,34470,29.1977240,-82.0881489
3055,Southwest College Road,34474,29.1613030,-82.1746783
2050,East Silver Springs Boulevard,34470,29.1866294,-82.1101657
1007,E Silver Springs Blvd,34470,29.1871831,-82.1263070
116,South Magnolia Avenue,34471,29.1851448,-82.1370853
701,Northeast Sanchez Avenue,34470,29.1943637,-82.1306898
2455,Northwest 44th Avenue,34482,29.2124368,-82.1935920
4039,Northwest Blitchton Road,34475,29.2124919,-82.1860013
2275,Southwest 22nd Lane,34471,29.1658755,-82.1623349
1630,Southeast 18th Street,34471,29.1694217,-82.1163818
110,North Magnolia Avenue,34475,29.1883585,-82.1373055
3450,East Silver Springs Boulevard,34470-6406,29.1944737,-82.0880766
3420,West Silver Springs Boulevard,34475,29.1859074,-82.1800387
2115,NorthE. 49th Court Road,34470,29.2084842,-82.0667827
3811,Northwest Blitchton Road,34482,29.2087692,-82.1855186
3835,West Silver Springs Boulevard,34482,29.1876230,-82.1861823
3924,West Silver Springs Boulevard,34482-4051,29.1850176,-82.1865045
2497,SW 27th Ave,34471,29.1637233,-82.1678644
737,North Magnolia Avenue,34475,29.1940925,-82.1362213
3223,Southeast Maricamp Road,34471,29.1636585,-82.0940538
3215,East Silver Springs Boulevard,34470,29.1949133,-82.0917409
3101,Southwest 34th Avenue,34474,29.1564663,-82.1760677
4980,East Silver Springs Boulevard,34470,29.2090857,-82.0637955
2615,Southwest 19th Avenue Road,34474,29.1604456,-82.1671258
2000,Southwest College Road,34474,29.1653542,-82.1683324
2830,Southwest 27th Avenue,34474,29.1601571,-82.1698631
2827,Southwest 27th Avenue,34474,29.1599123,-82.1683340
2600,Southwest 19th Avenue Road,34471,29.1578129,-82.1662730
4600,East Silver Springs Boulevard,34470,29.2044702,-82.0725747
2900,Northeast 36th Avenue,34479,29.2173104,-82.0895488
36,Southeast Magnolia,34471,29.1861245,-82.1371816
110,Southwest Broadway Street,34471,29.1861380,-82.1379814
80,NW Pine Ave,34475,29.1876088,-82.1408663
3200,Southeast 17th Street,34471,29.1691472,-82.0922804
2201,Northwest 21st Street,34475,29.2136990,-82.1642687
3130,East Silver Springs Boulevard,34470,29.1900087,-82.0927995
2370,College Road,34471,29.1693120,-82.1625168
3630,West Silver Springs Boulevard,34475,29.1859418,-82.1831906
4414,Southwest College Road,34474,29.1423196,-82.1909955
4414,Southwest College Road,34474,29.1383801,-82.1938558
4600,Southwest 46th Court,34474,29.1409053,-82.2002847
4600,Southwest 46th Court,34474,29.1413354,-82.1999018
3100,SW College Road,34474,29.1586150,-82.1732109
1212,South Pine Avenue,34474,29.1764510,-82.1412709
1713,South Pine Avenue,34471,29.1713375,-82.1395478
3733,Southwest 80th Avenue,34481,29.1535076,-82.2497473
1531,Northeast 8th Avenue,34470,29.2023900,-82.1291214
30,South Magnolia Avenue,34471,29.1864093,-82.1372587
3720,Southwest College Road,34474,29.1506592,-82.1837823
3535,Southwest 36th Avenue,34474,29.1505642,-82.1809159
3710,Southwest College Road,34474,29.1510437,-82.1833664
3530,Southwest 36th Avenue,34474,29.1502633,-82.1834023
3600,Southwest 36th Avenue,34474,29.1489481,-82.1832825
3402,Southwest 36th Terrace,34474,29.1538004,-82.1840380
3500,Southwest College Road,34474,29.1535451,-82.1804561
3558,Southwest College Road,34474,29.1526106,-82.1818581
3801,Southwest College Road,34474,29.1499506,-82.1865100
4333,East Silver Springs Boulevard,34470-5001,29.2066292,-82.0771294
3001,Southwest College Road,34474,29.1650115,-82.1782854
20,Southwest 1st Avenue,34471,29.1860416,-82.1376923
501,Southeast 25th Avenue,34471,29.1825912,-82.1017444
1500,Southwest 1st Avenue,34471,29.1749967,-82.1387038
1431,Southwest 1st Avenue,34471,29.1754143,-82.1360746
3200,Southwest 38th Avenue,34474,29.1563584,-82.1876850
18,South Magnolia Avenue,34471,29.1866410,-82.1372275
10,South Magnolia Avenue,34471,29.1868453,-82.1372218
2801,Southwest 27th Avenue,34471,29.1626635,-82.1671073
2450,Southwest 19th Avenue Road,34471,29.1628488,-82.1640493
2701,Southwest College Road,34474,29.1675130,-82.1697446
2701,Southwest College Road,34474,29.1675365,-82.1692963
2701,Southwest College Road,34474,29.1674349,-82.1711213
2701,Southwest College Road,34474,29.1671882,-82.1713307
2701,Southwest College Road,34474,29.1669974,-82.1715060
2701,Southwest College Road,34474,29.1654961,-82.1708765
2701,Southwest College Road,34474,29.1657024,-82.1711635
4976,East Silver Springs Boulevard,34470-3268,29.2105644,-82.0652500
3100,Northwest 35th Avenue Road,34475,29.2159353,-82.1812688
3101,Southwest 34th Avenue,34474,29.1561272,-82.1766618
2015,East Silver Springs Boulevard,34470-6916,29.1880107,-82.1111335
2000,Southwest College Road,34471,29.1743160,-82.1567014
3211,West Silver Springs Boulevard,34475,29.1866735,-82.1763671
3211,West Silver Springs Boulevard,34475,29.1869697,-82.1763054
3232,West Silver Springs Boulevard,34475,29.1860419,-82.1766410
3232,West Silver Springs Boulevard,34475,29.1857562,-82.1766399
3312,West Silver Springs Boulevard,34475,29.1859346,-82.1775329
3312,West Silver Springs Boulevard,34475,29.1856012,-82.1775538
3617,West Silver Springs Boulevard,34475,29.1867012,-82.1824250
3630,West Silver Springs Boulevard,34475,29.1856430,-82.1832469
101,East Silver Springs Boulevard,34471,29.1872456,-82.1357281
5400,SW College Road,34474,29.1258832,-82.2076310
2710,Southwest College Road,34474,29.1649301,-82.1695920
600,Southeast 25th Avenue,34471,29.1811167,-82.1038752
412,Southeast 25th Avenue,34471,29.1831670,-82.1039364
521,Southeast 26th Court,34471,29.1822813,-82.1004520
307,Southeast 26th Terrace,34471,29.1844034,-82.0998622
111,Southeast 25th Avenue,34471,29.1850140,-82.1028715
2710,East Silver Springs Boulevard,34471,29.1867503,-82.0997351
1901,East Silversprings Boulevard,34470,29.1878798,-82.1125641
2210,East Silver Springs Boulevard,34470,29.1865637,-82.1072534
500,Northeast 9th Street,34470,29.1954172,-82.1316313
7,Northeast 28th Street,34475,29.2171952,-82.1358020
4747,Southwest College Road,34471,29.1732627,-82.1588802
2380,South West College Road,34474,29.1696855,-82.1635824
2701,Southwest College Road,34474,29.1663622,-82.1692606
2701,Southwest College Road,34474,29.1666179,-82.1692157
2750,Southwest College Road,34474,29.1646059,-82.1696601
4850,S Pine Ave,34480,29.1383553,-82.1107028
3825,Northwest Blitchton Road,34475,29.2086837,-82.1865169
3600,Southwest 38th Avenue,34474,29.1526804,-82.1868545
20,West Silver Springs Boulevard,34471,29.1868222,-82.1375548
35,Southeast 1st Avenue,34471,29.1859735,-82.1357778
104,Southeast 1st Avenue,34471,29.1851873,-82.1362505
402,South Pine Ave,34471,29.1833574,-82.1416972
700,Northwest 30th Avenue,34475,29.1963015,-82.1780340
2445,Northwest 42nd Street,34475,29.2319975,-82.1657430
5001,Southwest 20th Street,34474,29.1689310,-82.2043679
1811,Southwest 42nd Avenue,34474,29.1705118,-82.1908261
2701,Southwest College Road,34474,29.1659971,-82.1696493
2701,Southwest College Road,34474,29.1675142,-82.1701360
2701,Southwest College Road,34474,29.1662957,-82.1713624
2701,Southwest College Road,34474,29.1653358,-82.1706198
108,North Magnolia Avenue,34475,29.1880679,-82.1372487
110,Northwest 1st Avenue,34475,29.1882292,-82.1384892
3921,Southwest College Road,34474,29.1484457,-82.1902555
3921,Southwest College Road,34474,29.1491420,-82.1890959
2686,West Silver Springs Boulevard,34475,29.1858852,-82.1683388
3871,Southwest College Road,34474,29.1483400,-82.1881383
3873,Southwest College Road,34474,29.1480960,-82.1883226
4100,Southwest 40th Street,34474,29.1495831,-82.1898389
3701,Southwest 38th Avenue,34474-4383,29.1508792,-82.1862042
3601,Southwest 38th Avenue,34474,29.1518834,-82.1859897
3580,Southwest 38th Avenue,34474,29.1535363,-82.1862833
3810,Southwest College Road,34474,29.1479493,-82.1865797
4110,Southwest 38th Court,34474,29.1473494,-82.1871675
3910,Southwest College Road,34474,29.1469473,-82.1877128
2701,SW College Avenue,34474,29.1663803,-82.1709194
2841,Southwest 20th Street,34474,29.1684788,-82.1716992
304,Southwest Broadway Street,34471,29.1860627,-82.1396361
3300,Southwest 35th Terrace,34474,29.1549711,-82.1837025
3535,Southwest College Road,34474,29.1541543,-82.1818658
3451,Southwest College Road,34474,29.1545584,-82.1815342
3445,Southwest College Road,34474,29.1548120,-82.1812280
110,Northwest 1st Avenue,34475,29.1882260,-82.1393182
1431,Southwest 1st Avenue,34471,29.1754187,-82.1362696
1500,Southwest 1st Avenue,34471,29.1753575,-82.1387332
1534,Southwest 1st Avenue,34471,29.1733700,-82.1381411
2525,Southwest 42nd Street,34471,29.1467256,-82.1661644
2600,Southwest 42nd Street,34471,29.1443437,-82.1657922
4405,Southwest College Road,34474,29.1424091,-82.1938138
2999,Northwest 10th Street,34475,29.1989851,-82.1702648
1401,Northwest 27th Avenue,34475,29.2012843,-82.1674959
1401,Northwest 27th Avenue,34475,29.2016106,-82.1666442
1401,Northwest 27th Avenue,34475,29.2015626,-82.1657573
1401,Northwest 27th Avenue,34475,29.2014906,-82.1662794
692,Northwest 30th Avenue,34475,29.1920273,-82.1749961
317,Northeast 3rd Street,34470,29.1890684,-82.1337003
317,Northeast 3rd Street,34470,29.1890347,-82.1339180
317,Northeast 3rd Street,34470,29.1887387,-82.1338102
700,Northwest 30th Avenue,34475,29.1938593,-82.1761493
3040,Northwest 10th Street,34475,29.1966038,-82.1748705
120,East Silver Springs Boulevard,34470,29.1866242,-82.1357042
108,North Magnolia Avenue,34475,29.1880679,-82.1372487
3380,Northwest 35th Avenue Road,34475,29.2238446,-82.1813345
3400,Northwest 35th Street Road,34475,29.2271388,-82.1820408
3321,Northwest 35th Avenue Road,34475,29.2219213,-82.1737568
1107,E Silver Springs Blvd,34470,29.1874910,-82.1249186
4475,Southwest 40th Avenue,34474,29.1434962,-82.1878370
4031,Southwest 43rd Street Road,34474,29.1432759,-82.1862933
4039,Southwest 43rd Street Road,34474,29.1434347,-82.1872402
3990,Southwest College Road,34474,29.1447829,-82.1896036
4025,Southwest College Road,34474,29.1448550,-82.1918358
4065,Southwest College Road,34474,29.1441339,-82.1924664
4828,Southwest College Road,34474,29.1347729,-82.1998667
4836,Southwest College Road,34471,29.1344329,-82.2001635
3435,Southwest College Road,34474,29.1551207,-82.1807687
4433,Southeast Maricamp Road,34480,29.1503983,-82.0735622
3102,West Silver Springs Boulevard,37775,29.1857615,-82.1749410
3595,West Silver Springs Boulevard,34475,29.1868065,-82.1807020
3501,West Silver Springs Boulevard,34475,29.1867710,-82.1792790
1750,South Pine Avenue,34471,29.1702165,-82.1401325
2015,South Pine Street,34474,29.1685265,-82.1378395
2,West Fort King Street,34471,29.1853480,-82.1372311
320,Northeast 8th Avenue,34471,29.1902991,-82.1303192
350,Northeast 8th Avenue,34471,29.1906798,-82.1301705
505,Northwest Martin Luther King Jr Avenue,34475,29.1920255,-82.1519900
615,Northwest Martin Luther King Jr Avenue,34475,29.1926124,-82.1521817
625,Northwest Martin Luther King Jr Avenue,34475,29.1930242,-82.1521823
3741,Southwest 7th Street,34474,29.1809791,-82.1835842
40,South Magnolia Avenue,34471,29.1860444,-82.1371826
42,South Magnolia Avenue,34471,29.1859812,-82.1371825
16,Southwest Broadway Street,34471,29.1860894,-82.1374158
18,Southwest Broadway Street,34471,29.1860432,-82.1375371
24,South Magnolia Avenue,34471,29.1864990,-82.1372743
22,South Magnolia Avenue,34471,29.1865576,-82.1372275
11,Southwest 1st Avenue,34471,29.1868184,-82.1376880
23,Southwest Broadway Street,34471,29.1864243,-82.1376689
36,Southwest 1st Avenue,34471,29.1860526,-82.1379559
128,Southwest Broadway Street,34471,29.1860337,-82.1385431
53,South Pine Avenue,34471,29.1857056,-82.1401766
306,Southwest Broadway Street,34471,29.1861382,-82.1397764
4414,Southwest College Rd,34474,29.1386214,-82.1905713
53,South Magnolia Avenue,34471,29.1856176,-82.1367020
601,Southeast 25th Avenue,34744,29.1816962,-82.1025338
4755,Southwest 46th Court,34474,29.1401336,-82.1970348
922,Southeast 12th Place,34471,29.1760179,-82.1275430
3035,Southeast Maricamp Road,34471-6201,29.1654922,-82.0942735
3015,Southeast Maricamp Road,34471,29.1658448,-82.0960458
1626,South Pine Avenue,34471,29.1722081,-82.1413067
3409,Southwest 34th Avenue Circle,34474,29.1568248,-82.1836436
3409,Southwest 34th Avenue Circle,34474,29.1569674,-82.1838185
3409,Southwest 34th Terrace,34474,29.1568650,-82.1842380
3409,Southwest 34th Avenue Circle,34474,29.1566684,-82.1842389
4610,Southwest 46th Court,34474,29.1374988,-82.1952032
