House number,Street name,Postal code,Latitude,Longitude
4668,Millenia Plaza Way,32839,28.4943076,-81.4294536
5698,L.B. McLeod Road,32811,28.5042356,-81.4582377
5620,L.B. McLeod Road,32811,28.5041520,-81.4572411
3789,Kirkman Road,32811,28.5037060,-81.4580425
2655,South Kirkman Road,32811,28.5145396,-81.4585620
2972,Kirkman Road,32811,28.5111173,-81.4595957
2944,South Kirkman Road,32811,28.5114301,-81.4596807
2751,Wilshire Drive,32835,28.5133974,-81.4616661
2500,South Kirkman Road,32811,28.5153893,-81.4626163
6309,Pershing Avenue,32822,28.4986480,-81.2954570
2860,Delaney Avenue,32806,28.5112780,-81.3726399
440,South Orange Blossom Trail,32805,28.5367896,-81.3975733
2501,North Orange Avenue,32804,28.5753182,-81.3724209
5575,South Semoran Boulevard,32822,28.4810985,-81.3073663
1616,East Colonial Drive,32803,28.5529264,-81.3592488
6996,Piazza Grande Avenue,32835,28.5161995,-81.4818894
4155,Millenia Boulevard,32839,28.4911387,-81.4311893
101 West,Livingston Street,32801,28.5484138,-81.3808615
99 West,South Street,32801,28.5385903,-81.3807649
500,East Rollins Street,32803,28.5727670,-81.3714848
830,South Orange Blossom Trail,32805,28.5318526,-81.3976952
2701,East Colonial Drive,32803,28.5538192,-81.3487712
3005,West Colonial Drive,32808,28.5533242,-81.4150553
3838,South Semaron Boulevard,32822,28.5045668,-81.3124260
3838,South Semoran Boulevard,32822,28.5049889,-81.3127831
4066,South Semoran Boulevard,32822,28.5031665,-81.3108816
1411,South Hiawassee Road,32835,28.5243793,-81.4706360
2500,South Kirkman Road,32811,28.5154070,-81.4622063
2222,South Semoran Boulevard,32822-2704,28.5187772,-81.3110387
2201,East Colonial,32803,28.5534678,-81.3536707
325,South Orange Avenue,32801,28.5388893,-81.3788289
25 E,Church Street,32801,28.5405179,-81.3785540
120,South Orange Avenue,32801,28.5408542,-81.3792585
2,South Orange Avenue,32801,28.5418234,-81.3791713
13,South Orange Avenue,32801,28.5417511,-81.3789258
5991,South Goldenrod Road,32822,28.4738291,-81.2869368
92,West Miller Street,32806,28.5236030,-81.3796750
4402,Curry Ford Road,32812-2709,28.5214160,-81.3304402
1501,Meeting Place,32814-6602,28.5667094,-81.3270643
6485,South Chickasaw Trail,32829-8366,28.4704455,-81.2661692
7015,Narcoossee Road,32822,28.4650916,-81.2744768
2850,Kirkman Road,32835,28.5120997,-81.4597718
2900,Kirkman Road,32811,28.5118241,-81.4597765
104,Gore Street,32801,28.5315100,-81.3779600
5725,T.G. Lee Boulevard,32822,28.4607928,-81.3092272
5425,International Drive,32819,28.4633152,-81.4528926
5439,International Drive,32819,28.4633150,-81.4532698
5443,International Drive,32819,28.4633149,-81.4533862
5447,International Drive,32819,28.4633149,-81.4534616
5740,International Drive,32819,28.4616150,-81.4580200
6301,International Drive,32819-8213,28.4610103,-81.4680522
6731,Kirkman Road,32819,28.4640873,-81.4570580
6837,Kirkman Road,32819,28.4636367,-81.4570511
5435,International Drive,32819,28.4633151,-81.4530522
5449,International Drive,32819,28.4633148,-81.4535221
5451,International Drive,32819,28.4633147,-81.4536530
1401,South Hiawassee Road,32835,28.5250008,-81.4700814
1655,Peel Avenue,32806,28.5226437,-81.3464100
1,Jeff Fuqua Boulevard,32827-4392,28.4268853,-81.3009555
9333,Airport Boulevard,32827,28.4274917,-81.3012391
4001,Grant Boulevard,32804,28.5841699,-81.3956582
9302,Randel Park Boulevard,32832,28.4323302,-81.2365898
9254,Randel Park Boulevard,32832,28.4327761,-81.2388244
9685,Lake Nona Village Place,32827,28.4250837,-81.2526452
2903,East Colonial Drive,32803,28.5536465,-81.3468764
3011,East Colonial Drive,32803,28.5536425,-81.3462559
80 s,Semoran Boulevard,32807,28.5437758,-81.3109932
1000,Universal Boulevard,32819,28.4771859,-81.4690145
400,Central Boulevard,32801,28.5421039,-81.3727188
4241,North John Young Pkwy,32804,28.5909131,-81.4168478
100,South Eola Drive,32801,28.5411166,-81.3701216
819,E Washington Street,32801,28.5438008,-81.3667949
1501,North Mills Avenue,32803,28.5649515,-81.3640371
2816,Robinson Street,32803,28.5456302,-81.3470825
5463,Gateway Village Circle,32812,28.4573385,-81.3109267
7031,Narcoossee Road,32822,28.4643273,-81.2736231
2274,Semoran Boulevard,32822,28.5179776,-81.3114966
5700,Lake Underhill Road,32807,28.5387130,-81.3101342
35 West,Michigan Street,32806,28.5133049,-81.3776508
5401 South,Kirkman Road,32819,28.4842122,-81.4577731
2112,East Colonial Drive,32803,28.5528911,-81.3547936
9333,Airport Boulevard,32827,28.4310216,-81.3077127
9303,Jeff Fuqua Boulevard,32827,28.4313801,-81.3077449
705,East Colonial Drive,32803,28.5529177,-81.3683053
1827,North Orange Avenue,32804,28.5684825,-81.3725443
1945,East Michigan Street,32806,28.5133415,-81.3563136
8184,Lee Vista Boulevard,32829,28.4654004,-81.2734817
8255,Lee Vista Boulevard,32822,28.4664212,-81.2736799
6000,Universal Boulevard,32819,28.4735533,-81.4653053
6000,Universal Boulevard,32819,28.4734861,-81.4653818
100,Universal Studios Plaza,32819,28.4734552,-81.4654458
13900,Narcoossee Road,32832-6960,28.3645999,-81.2466350
1106,East Colonial Drive,32803,28.5529286,-81.3653211
2112,North Orange Avenue,32804,28.5710592,-81.3731065
2106,North Orange Avenue,32804,28.5708321,-81.3730524
2400,Bedford Road,32803,28.5729519,-81.3702981
2201,Alden Road,32803,28.5719267,-81.3705239
615,Princeton Street,32803,28.5721943,-81.3697030
2501,North Orange Avenue,32804,28.5749050,-81.3719126
37,North Orange Ave,32801,28.5427650,-81.3788942
9333,Airport Boulevard,32827,28.4352879,-81.3011986
250,Columbia Street,32806,28.5259051,-81.3816526
6000,Universal Boulevard,32819,28.4732819,-81.4649096
175,Drennen Road,32806,28.5032926,-81.3791255
5295,International Drive,32819,28.4656078,-81.4523719
411,Magnolia Avenue,32801,28.5480799,-81.3765471
3300,West Colonial Drive,32808,28.5519577,-81.4169092
1,Jeff Fuqua Boulevard,32827,28.4304218,-81.3092700
2823,South Orange Avenue,32806,28.5114129,-81.3749303
121,South Orange Avenue,32801,28.5410567,-81.3787112
3721,Vineland Road,32811,28.5023822,-81.4292119
3162,E Colonial Dr,32803,28.5530769,-81.3432114
3164,East Colonial Drive,32803,28.5530742,-81.3433913
6236,Kingspointe Parkway,32819,28.4525026,-81.4378788
634 north Mills,Mills Avenue,32803,28.5525024,-81.3647071
634 Nort,Mills Avenue,32803,28.5523654,-81.3647820
312,Bunker Place,32804,28.5882436,-81.3810776
1510,East Colonial Drive,32803,28.5528626,-81.3611028
2014,E Robinson St,32803,28.5456833,-81.3553889
2500,Lynx Lane,32804,28.5722428,-81.4145551
7603,Turkey Lake Road,32819,28.4560731,-81.4759119
5689,Vineland Road,32819,28.4835202,-81.4567249
2856,Curry Ford Rd,32806,28.5233765,-81.3459858
2121,S Division Ave,32805,28.5178153,-81.3821996
One,Airport Boulevard,32827,28.4279152,-81.3140676
90,East Livingston Street,32801,28.5360157,-81.3740558
5695-A,Vineland Road,32819,28.4835768,-81.4567250
2950,Curry Ford Road,32806,28.5236071,-81.3453270
2120,Edgewater Drive,32804,28.5709301,-81.3896357
4700,Millenia Boulevard,32839,28.4846415,-81.4400838
111,North Orange Avenue,32801,28.5439034,-81.3786131
4615,Millenia Plaza Way,32839,28.4968792,-81.4276422
4661,Millenia Plaza Way,32839,28.4957334,-81.4275743
100,Livingston Street,32801,28.5471215,-81.3814908
390,North Orange Avenue,32801,28.5471666,-81.3799390
500,East Central Boulevard,32801,28.5421880,-81.3712756
37,North Orange Avenue,32801,28.5427856,-81.3788908
2603,East South Street,32803,28.5389242,-81.3493583
9607,Lake Nona Village Place,32827,28.4268544,-81.2546119
9650,Lake Nona Village Place,32827,28.4257717,-81.2543567
1101,South Goldwyn,32805,28.5278490,-81.4168550
4520,South Semoran Boulevard,32822,28.4980120,-81.3119250
4048,Eastgate Drive,32839,28.4847666,-81.4270840
6900,Tavistock Lakes Boulevard,32827,28.3723819,-81.2787171
2415,North Orange Avenue,32804,28.5740055,-81.3726510
5032,East Colonial Drive,32803,28.5528738,-81.3243453
37,North Orange Avenue,32801,28.5428195,-81.3789214
200,S Orange Ave,32801,28.5399484,-81.3794893
4520,Parkway Commerce Boulevard,32808,28.5976283,-81.4201848
401,North Magnolia Avenue,32801,28.5478637,-81.3765420
1900,Alden Road,32803,28.5686788,-81.3719896
496,Delaney Avenue,32801,28.5359934,-81.3749892
647,East Colonial Drive,32803,28.5534759,-81.3689332
795,South Semoran Avenue,32807,28.5334955,-81.3101395
4601,East Colonial Drive,32803,28.5551492,-81.3284591
1837,Edgewater Drive,32804,28.5685638,-81.3892655
6607,South Semoran Boulevard,32822,28.4676305,-81.3086475
6651,Semoran Boulevard,32822,28.4671018,-81.3086007
6651,Semoran Boulevard,32822,28.4669341,-81.3086281
6605,South Semoran Boulevard,32822,28.4679794,-81.3092309
2701,East south street,32803,28.5389305,-81.3507883
5360,Curry Ford Rd,32812,28.5238346,-81.3193853
555,John Young Parkway,32805,28.5478223,-81.4130990
6725,Adventure Way,32819,28.4652434,-81.4713997
5895,Carrier Drive,32819,28.4565388,-81.4613583
4965,international drive,32819,28.4755488,-81.4514970
845,North Garland Avenue,32801,28.5564402,-81.3807014
56 E,Pine Street,32801,28.5417473,-81.3781224
4124,W Colonial Dr,32808,28.5520851,-81.4311377
4967,International Drive,32819,28.4757773,-81.4513983
601,East Rollins Street,32803,28.5751700,-81.3700142
601,East Rollins Street,32803,28.5735429,-81.3692095
601,East Rollins Street,32803,28.5744230,-81.3698757
5575,S Semoran Blvd,32822,28.4824567,-81.3071804
2505,East Colonial Drive,32803,28.5536093,-81.3506966
110,West Church Street,32801,28.5402066,-81.3809819
4664,Millenia Plaza Way,32839,28.4944398,-81.4308725
4604,Millenia Plaza Way,32839,28.4963893,-81.4294027
8255,Lee Vista Blvd,32829,28.4664898,-81.2735225
3120 S,Kirkman Road,32811,28.5098921,-81.4596502
9500,Armed Forces Reserve Drive,32827,28.4283775,-81.3477012
3682,Wiley Drive,32824,28.4119098,-81.3326200
2312 S,Kirkman Road,32811,28.5166043,-81.4598775
2316 S,Kirkman Road,32811,28.5164900,-81.4599688
2451 S,Hiawassee Road,32835,28.5147381,-81.4846890
1510,East Colonial Drive,32803,28.5528688,-81.3609714
6550,Adventure Way,32819,28.4653980,-81.4736814
6000,Universal Boulevard,32819,28.4726324,-81.4661377
9145,Narcoossee Road,32827,28.4348906,-81.2563064
30,N Summerlin Ave,32801,28.5432303,-81.3687447
6965,Piazza Grande Avenue,32835,28.5170178,-81.4815375
5401,Kirkman Road,32819,28.4841472,-81.4577393
5401,Kirkman Road,32819,28.4843238,-81.4577393
5401,Kirkman Road,32819,28.4841527,-81.4575694
5401,Kirkman Road,32819,28.4843347,-81.4575747
5401,Kirkman Road,32819,28.4841255,-81.4576172
5401,Kirkman Road,32819,28.4842857,-81.4575880
5401,Kirkman Road,32819,28.4842686,-81.4577526
5401,Kirkman Road,32819,28.4842654,-81.4574650
5389,Kirkman Road,32819,28.4847596,-81.4582933
5389,Kirkman Road,32819,28.4845795,-81.4582933
5389,Kirkman Road,32819,28.4846377,-81.4582933
5389,Kirkman Road,32819,28.4846946,-81.4582933
5389,Kirkman Road,32819,28.4848097,-81.4582910
5389,Kirkman Road,32819,28.4848652,-81.4582910
5389,Kirkman Road,32819,28.4848449,-81.4581824
5389,Kirkman Road,32819,28.4847907,-81.4581808
5389,Kirkman Road,32819,28.4847271,-81.4581777
5389,Kirkman Road,32819,28.4846668,-81.4581801
6001,Vineland Road,32819,28.4833280,-81.4630383
6001,Vineland Road,32819,28.4834164,-81.4628827
6001,Vineland Road,32819,28.4834953,-81.4633641
6001,Vineland Road,32819,28.4836297,-81.4633628
6001,Vineland Road,32819,28.4834765,-81.4630141
6001,Vineland Road,32819,28.4835613,-81.4633628
6001,Vineland Road,32819,28.4832879,-81.4629793
5728,Major Boulevard,32819,28.4793628,-81.4538350
5728,Major Boulevard,32819,28.4792815,-81.4538350
5728,Major Boulevard,32819,28.4792395,-81.4538365
4466,John Young Parkway,32804,28.5933890,-81.4200152
5385,Conroy Road,32811,28.4948142,-81.4522226
5385,Conroy Road,32811,28.4947815,-81.4522209
5385,Conroy Road,32811,28.4947372,-81.4521970
5385,Conroy Road,32811,28.4947147,-81.4521961
5385,Conroy Road,32811,28.4948131,-81.4521056
5353,Conroy Road,32811,28.4954042,-81.4517699
5301,Conroy Road,32811,28.4951725,-81.4512417
5367,Conroy Road,32811,28.4950877,-81.4518920
5301,Conroy Road,32811,28.4953000,-81.4513133
5301,Conroy Road,32811,28.4950356,-81.4511620
4625,Middlebrook Road,32811,28.4957751,-81.4525720
4629,Middlebrook Road,32811,28.4958587,-81.4521443
4625,Middlebrook Road,32811,28.4957926,-81.4524136
4607,Millenia Plaza Way,32839,28.4975274,-81.4276821
4625,Millenia Plaza Way,32839,28.4964734,-81.4277105
4616,Millenia Plaza Way,32839-2434,28.4961161,-81.4298083
4957,International Drive,32819,28.4738741,-81.4521480
9682,Lake Nona Village Place,32827,28.4250583,-81.2540164
2121,Hiawassee Road,32835,28.5186050,-81.4789973
4750,Millenia Plaza Way,32839,28.4938468,-81.4302756
419,East Michigan Street,32806,28.5132783,-81.3712160
9985,Tagore Place,32832,28.3901204,-81.2449345
4194,Conroy Road,32839,28.4886252,-81.4297107
4976,Millenia Boulevard,32839,28.4793972,-81.4418390
3501,Millenia Boulevard,32839,28.4936991,-81.4186248
120,West Grant Street,32806,28.5156680,-81.3801491
25,Park Lake Street,32803,28.5552091,-81.3786125
1617,Hillcrest Street,32803,28.5524403,-81.3595219
1505,South Semoran Boulevard,32807-2919,28.5247264,-81.3100910
718,Maguire Boulevard,32803,28.5553660,-81.3450891
3001,East Colonial Market Place,32803,28.5551032,-81.3458629
7055,Narcoossee Road,32829,28.4620341,-81.2725241
4656,Millenia Plaza,32839-2434,28.4948700,-81.4306083
3107,South Orange Avenue,32806,28.5090091,-81.3760010
306,East Michigan Street,32806,28.5118855,-81.3733163
4580,South Semoran Boulevard,32822,28.4967785,-81.3108502
1915,Edgewater Drive,32804,28.5693786,-81.3891763
2448,East Colonial Drive,32803,28.5527217,-81.3503562
6699,South Semoran Boulevard,32822,28.4664395,-81.3090159
# 11 Orlando,6557 Hazeltine National Dr,32822,28.4621813,-81.2935736
11930,Narcoossee Road,32832,28.3899768,-81.2480961
5265,South John Young Parkway,32839-5025,28.4877188,-81.4151147
2774,East Colonial Drive,32803,28.5498301,-81.3485047
1140,South Rio Grande Avenue,32805,28.5276140,-81.4017263
1500,East Colonial Drive,32803-4704,28.5527401,-81.3615853
2655,East Colonial Drive,32803,28.5536873,-81.3491693
2712,East Colonial Drive,32803,28.5527675,-81.3485958
2654,East Colonial Drive,32803,28.5491016,-81.3493736
2560,East Colonial Dr,32803,28.5497189,-81.3509025
2544,East Colonial Drive,32803,28.5500581,-81.3509239
2410,East Colonial Drive,32803-5019,28.5517969,-81.3516320
4965,International Drive,32819,28.4744661,-81.4514407
545,Delaney Avenue,32801,28.5348344,-81.3738538
4969,International Drive,32819,28.4755151,-81.4508817
6817,Eagle Watch Drive,32822,28.4650145,-81.3063378
3009,West Colonial Drive,32808,28.5532657,-81.4158127
12278,Narcoossee Road,32832,28.3865549,-81.2450165
12278,Narcoossee Road,32832,28.3868688,-81.2450138
9985,Tagore Place,32827,28.3898349,-81.2449199
11926,Narcoossee Road,32832,28.3916706,-81.2475485
11768,Narcoossee Road,32832-6971,28.3946535,-81.2448127
1030,N Orange Ave,32801,28.5596190,-81.3773335
1231,East Colonial Drive,32803,28.5533009,-81.3632383
2655,South Kirkman Road,32811,28.5145305,-81.4582643
400,Pittman Street,32801,28.5463461,-81.3831679
6314,Kingspointe Parkway,32819,28.4535074,-81.4382796
444,North Bumby Avenue,32803,28.5492396,-81.3522638
431,East Central Blvd,32801,28.5429645,-81.3716162
60,N Court Ave,32801,28.5432193,-81.3784646
9202,Jeff Fuqua Boulevard,32827,28.4356465,-81.3014232
421,West Robinson Street,32801,28.5458806,-81.3844237
3000,Corrine Drive,32803,28.5675344,-81.3457165
3022,Corrine Drive,32803,28.5676127,-81.3451847
3114,Corrine Drive,32803,28.5676222,-81.3446885
3122,Corrine Drive,32803,28.5676245,-81.3444525
7125,Hoffner Avenue,32809,28.4803594,-81.2889642
3191,West Colonial Drive,32808,28.5548909,-81.4154016
111,North Orange Avenue,32801,28.5439354,-81.3784949
2512,Semoran Boulevard,32822,28.5153244,-81.3111611
5833,South Goldenrod Road,32822,28.4778737,-81.2881386
21,Park Lake Street,32803,28.5553761,-81.3788438
407,East Central Boulevard,32801,28.5424166,-81.3725204
6700,Conroy Windermere Road,32835,28.4928573,-81.4742530
6700,Conroy Windermere Road,32835,28.4928642,-81.4740020
390,North Orange Avenue,32801,28.5470765,-81.3814484
121,Drennen Rd,32806,28.5034750,-81.3784589
3201,Curry Ford Road,32806,28.5248430,-81.3431459
2960,Curry Ford Road,32806,28.5236089,-81.3445674
5449,Orlando Gateway Circle,32812,28.4583162,-81.3109138
7222,Augusta National Drive,32822,28.4585217,-81.3093429
458,S Magnolia Ave,32801,28.5376920,-81.3772494
6688,Semoran Boulevard,32822,28.4664073,-81.3111588
5685,Semoran Boulevard,32822,28.4815944,-81.3095556
450,South Orange Avenue,32801,28.5372058,-81.3790784
9101,Narcoossee Road,32827,28.4360308,-81.2566431
3011,North John Young Parkway,32804,28.5782810,-81.4161874
464,S Magnolia Ave #34,32801,28.5375959,-81.3768257
2909,Old Winter Garden Road,32805,28.5465052,-81.4150449
118,Jefferson Street,32801,28.5444885,-81.3770644
132,East Colonial Drive,32801,28.5528495,-81.3755842
20,North Orange Avenue,32801,28.5422984,-81.3793441
111,North Orange Avenue,32801,28.5439548,-81.3786729
9301,Lake Nona Boulevard,32827,28.3982753,-81.2624261
4984,East Colonial Drive,32803,28.5528415,-81.3251469
629,20th Street,32805,28.5212715,-81.3879408
7525,Westpointe Boulevard,32835,28.5199856,-81.4936519
2433,s hiawassee rd,32835,28.5154592,-81.4831167
5920,Metropolis Way,32811,28.5172668,-81.4621189
4495,Semoran Boulevard,32807,28.4991861,-81.3097754
2653,South Orange Avenue,32806,28.5131419,-81.3760761
4886,New Broad Street,32814,28.5678267,-81.3264971
1,Jeff Fuqua Boulevard,32827-4392,28.4346451,-81.3137208
6760,Eagle Watch Drive,32822,28.4659607,-81.3068809
3773,Silver Star Road,32808,28.5785002,-81.4282446
2076,Hoffner Avenue,32822,28.4810712,-81.3094160
9333,Airport Boulevard,32827,28.4348203,-81.3144024
7125,Universal Boulevard,32819,28.4599830,-81.4623806
300,South Orange Avenue,32801,28.5388665,-81.3799829
333,South Norton Avenue,32805,28.5383120,-81.3978527
618,North Thornton Avenue,32803,28.5520296,-81.3656643
14374,Narcoossee Road,32832,28.3603176,-81.2441204
28,West Central Boulevard,32801,28.5417535,-81.3797800
131,North Orange Avenue,32801,28.5444695,-81.3789593
12,N Summerlin Avenue,32801,28.5428777,-81.3686257
20,North Orange Avenue,32801,28.5425427,-81.3793741
621,E Central Boulevard,32801,28.5424620,-81.3691196
2415,East Colonial Drive,32803,28.5538408,-81.3516162
609,Irvington Avenue,32803,28.5520325,-81.3467430
3807,East Colonial Drive,32803,28.5537995,-81.3372094
4012,Eastgate Drive,32839,28.4863657,-81.4261601
3562,East Colonial Drive,32803,28.5519221,-81.3398037
4696,Millenia Plaza Way,32839,28.4944409,-81.4290086
4104,Millenia Boulevard,32839,28.4888835,-81.4303591
4680,Millenia Plaza Way,32839,28.4944374,-81.4292460
3138,South Orange Avenue,32806,28.5078761,-81.3768397
1101,South Orange Avenue,32806,28.5288076,-81.3761409
115,Granada Court,32803,28.5561594,-81.3762033
5520,Gatlin Avenue,32812,28.4948912,-81.3133873
5828 South,Semoran Boulevard,32822,28.4785751,-81.3115285
1479 East,Michigan Street,32806,28.5133742,-81.3612165
6680,Corporate Centre Boulevard,32822,28.4666660,-81.2978037
419,East Michigan Street,32806,28.5132811,-81.3711541
6700,Lake Nona Boulevard,32827,28.3674088,-81.2856300
241,Highway 98,32328,28.4642462,-81.4598347
241,Highway 98,32328,28.4642450,-81.4597894
8734,Lee Vista Boulevard,32829,28.4701980,-81.2646074
6050,Wooden Pine Drive,32829,28.4783139,-81.2376278
815,N Magnolia Ave,32803,28.5556202,-81.3765913
6481,Chickasaw Trail,32829,28.4706249,-81.2666579
8103,Lee Vista Boulevard,32829,28.4665933,-81.2749883
8734,Lee Vista Boulevard,32829,28.4703650,-81.2643968
54,West Church Street,32801,28.5400240,-81.3803294
145,South Orange Avenue,32801,28.5407450,-81.3783816
55,West Church Street,32801,28.5404505,-81.3801358
222,South Orange Avenue,32801,28.5400676,-81.3791943
320,East South Street,32801,28.5388059,-81.3729968
320,East South Street,32801,28.5388778,-81.3732596
100,South Eola Drive,32801,28.5411671,-81.3705012
639,North Mills Avenue,32803,28.5527843,-81.3643278
101,South Eola Drive,32801,28.5410841,-81.3696643
629,East Central Boulevard,32801,28.5424937,-81.3686536
8,North Summerlin Avenue,32801,28.5427212,-81.3686280
1101,East Colonial Drive,32803,28.5533203,-81.3652899
610,North Mills Avenue,32803,28.5518189,-81.3646504
728,North Thornton Avenue,32803,28.5542532,-81.3659059
1800,East Colonial Drive,32803,28.5528126,-81.3580282
816,North Mills Avenue,32803,28.5555667,-81.3647668
1233,East Colonial Drive,32803,28.5533063,-81.3631474
1235,East Colonial Drive,32803,28.5533051,-81.3630871
1241,East Colonial Drive,32803,28.5532927,-81.3628081
20,N Orange Ave,32801,28.5425156,-81.3795175
3103,West Colonial Drive,32808,28.5550870,-81.4156701
10705,Jeff Fuqua Boulevard,32827,28.4117198,-81.3083918
722,West Smith Street,32804,28.5718318,-81.3904582
1042,Mills Avenue,32803,28.5598904,-81.3646316
4759,Raleigh Street,32811,28.5284540,-81.4417200
4200,Conroy Road,32839,28.4855085,-81.4312483
60,Columbia Street,32806,28.5282765,-81.3797461
1021,West Pine Street,32805,28.5413412,-81.3941561
2430,Robinson Street,32803,28.5457787,-81.3502273
1225,Mount Vernon Street,32803,28.5506114,-81.3633590
822,Menendez Court,32801-3631,28.5316609,-81.3809784
23,West Church Street,32801,28.5404594,-81.3795913
320,East South Street,32801,28.5381117,-81.3737760
320,East South Street,32801,28.5381670,-81.3740590
1114,East Colonial Drive,32803,28.5529784,-81.3648881
1018,East Colonial Drive,32803,28.5529739,-81.3664692
1212,East Colonial Drive,32803,28.5529926,-81.3639443
720,North Mills Avenue,32803,28.5540480,-81.3647861
807,North Mills Avenue,32803,28.5553385,-81.3642926
813,North Mills Avenue,32803,28.5554875,-81.3642956
1525,East Colonial Drive,32803,28.5532912,-81.3606505
1830,Altaloma Avenue,32803,28.5529855,-81.3577484
1638,East Colonial Drive,32803,28.5529714,-81.3587247
1915,East Colonial Drive,32803,28.5533047,-81.3565025
2008,East Colonial Drive,32803,28.5529466,-81.3563603
2728,East Colonial Drive,32803,28.5515701,-81.3486409
2212,East Colonial Drive,32803,28.5528989,-81.3534635
2530,East Colonial Drive,32803,28.5505005,-81.3508725
2301,East Colonial Drive,32803,28.5535256,-81.3524496
2523,East Colonial Drive,32803,28.5536199,-81.3504165
203,North Bumby Avenue,32803,28.5452841,-81.3515685
2756,East Colonial Drive,32803,28.5508586,-81.3486892
700,Maguire Boulevard,32803,28.5539603,-81.3449616
3214,East Colonial Drive,32803,28.5522286,-81.3431517
67,North Bumby Avenue,32803,28.5436183,-81.3515122
3440,Edgewater Drive,32804,28.5830093,-81.3912486
401,North Magnolia Avenue,32801,28.5478106,-81.3765398
2600,Robinson Street,32803,28.5457527,-81.3495738
16,North Parramore Avenue,32801,28.5425739,-81.3893466
1405,East Colonial Drive,32803,28.5533130,-81.3619916
2406,West Church Street,32805,28.5396380,-81.4129232
2155,West Colonial Drive,32804,28.5545145,-81.4090992
2900,Curry Ford Road,32806,28.5234161,-81.3457043
3401,Curry Ford Road,32806,28.5249549,-81.3412957
29,West Sturtevant Street,32806,28.5249903,-81.3771828
4056,Millenia Boulevard,32839,28.4913702,-81.4275064
7751,Kingspointe Parkway,32819,28.4527561,-81.4393137
2555,Sourth Kirkman Road,32811,28.5154555,-81.4583112
2323,South Orange Avenue,32806,28.5158305,-81.3761272
409,East Michigan Street,32806,28.5131286,-81.3717590
259,East Michigan Street,32806,28.5132097,-81.3745775
120,West Grant Street,32806,28.5155352,-81.3802307
1200,Kuhl Avenue,32806,28.5277513,-81.3783626
2873,South Orange Ave,32806,28.5100145,-81.3732738
2715,South Orange Avenue,32806,28.5121215,-81.3750364
2702,South Orange Avenue,32806,28.5123546,-81.3768205
400,East Central Boulevard,32801,28.5420145,-81.3727099
1500,East Colonial Drive,32803,28.5526921,-81.3615819
1021,East Colonial Drive,32803,28.5533355,-81.3656231
636,Mills Avenue,32803,28.5526827,-81.3646213
1768,North John Young Parkway,32808,28.5675124,-81.4161146
4104,Millenia Blvd,32839,28.4888360,-81.4303150
6457,South Chickasaw Trail,32829,28.4708996,-81.2668959
8132,Lee Vista Boulevard,32829,28.4655223,-81.2738539
7067,Narcoossee Road,32822,28.4612904,-81.2721211
7157,Narcoossee Road,32822,28.4629264,-81.2709109
7153,Narcoosse Road,32822,28.4625623,-81.2706274
6811,Visitors Circle,32819,28.4639837,-81.4658638
121,South Orange Avenue,32801,28.5411058,-81.3787715
1814,Edgewater Drive,32804,28.5682180,-81.3895849
5401,"S Kirkman Rd, #310",32819,28.4842536,-81.4576165
5058,Millenia Place Drive,32839,28.4804617,-81.4440108
5403,Millenia Lakes Boulevard,32839,28.4844988,-81.4348620
3551,Millennia Boulevard,32839,28.4937104,-81.4197567
2335,North Orange Blossom Trail,32804,28.5729578,-81.4046461
2447,South Orange Avenue,32806,28.5149352,-81.3761402
4625,Halder Lane,32814,28.5583747,-81.3285122
10039,Orange Avenue,32824,28.4200356,-81.3709095
10039,South Orange Avenue,32824,28.4201030,-81.3709182
211,East Michigan Street,32806,28.5132318,-81.3757936
2323,South Orange Avenue,32806,28.5160143,-81.3761372
9326,Narcoossee Road,32827,28.4314126,-81.2575000
9442,Narcoossee Road,32827,28.4297276,-81.2572286
10505,Jeff Fuqua Boulevard,32827,28.4158734,-81.3034227
9303,Jeff Fuqua Boulevard,32827,28.4311821,-81.3066681
9333,Airport Boulevard,32827,28.4311710,-81.3076850
1,Jeff Fuqua Boulevard,32827,28.4312110,-81.3079450
9333,Orlando International Airport Tram,32827,28.4346071,-81.3141773
6125,South Semoran Boulevard,32822,28.4742676,-81.3091598
5297,South Semoran Boulevard,32822,28.4863695,-81.3094677
1627,Conway Road,32812,28.5231054,-81.3305784
2610,South Semoran Boulevard,32822,28.5141910,-81.3110647
2520,South Semoran Avenue,32822,28.5151087,-81.3112153
2510,South Semoran Boulevard,32822,28.5154281,-81.3112548
1131,South Semoran Boulevard,32807,28.5287849,-81.3099833
436,South Semoran Boulevard,32807,28.5379263,-81.3108223
3800,East Colonial Drive,32803,28.5529916,-81.3372673
3463,East Colonial Drive,32803,28.5545540,-81.3415210
2911,East Colonial Drive,32803,28.5535466,-81.3471112
700,East Colonial Drive,32803,28.5529128,-81.3683627
255,South Orange Avenue,32801,28.5393961,-81.3784877
486,North Orange Avenue,32801,28.5490609,-81.3793482
410,North Terry,32801,28.5479570,-81.3873404
3981,Columbia Street,32805,28.5273120,-81.4258160
2328,South Kirkman Road,32811,28.5163914,-81.4600193
1800,South Kirkman Road,32811,28.5210160,-81.4656470
6401,Raleigh Street,32835,28.5274037,-81.4708807
7032,South Kirkman Road,32819,28.4609349,-81.4590904
4200,Conroy Road,32839,28.4854660,-81.4320030
4200,Conroy Road,32839,28.4851216,-81.4315412
4060,Conroy Road,32839,28.4867118,-81.4284630
4724,Millenia Plaza Way,32839,28.4929653,-81.4286499
4698,Gardens Park Boulevard,32839,28.4946234,-81.4246492
5131,South John Young Parkway,32839,28.4883526,-81.4159474
390,North Orange Avenue,32801,28.5473262,-81.3796351
5143,South John Young Parkway,32839,28.4883557,-81.4158234
2704,South Ferncreek Avenue,32806,28.5126509,-81.3600790
424,East Central Boulevard,32801,28.5421453,-81.3719654
3208,East Colonial Drive,32803,28.5524047,-81.3431534
2021,East Colonial Drive,32803,28.5534531,-81.3552394
4693,Gardens Park Boulevard,32839,28.4946198,-81.4236722
4693,Gardens Park Boulevard,32839,28.4946233,-81.4234509
1315,South Orange Avenue,32806,28.5258270,-81.3760007
5787,Vineland Road,32819,28.4834328,-81.4611394
1315,South Orange Avenue,32806,28.5258635,-81.3762086
2716,East Colonial Drive,32803,28.5522252,-81.3486723
3201,Corrine Drive,32803,28.5682922,-81.3436577
3201,Corrine Drive,32803,28.5682433,-81.3437710
4104,Millenia Boulevard,32839,28.4887837,-81.4306639
4192,Conroy Road,32839,28.4885291,-81.4296071
4192,Conroy Road,32839,28.4881778,-81.4295373
4700,Millenia Boulevard,32839,28.4847694,-81.4401353
1,Airport Boulevard,32827,28.4307039,-81.3080647
20,North Summerlin Ave,32801,28.5430625,-81.3686374
30,North Summerlin Ave,32801,28.5434580,-81.3687432
100,North Summerlin Ave,32801,28.5438090,-81.3686594
112,North Summerlin Ave,32801,28.5442092,-81.3687607
211,Eola Pkwy,32801,28.5449036,-81.3750338
195,North Rosalind Ave,32801,28.5438176,-81.3751847
430,East Central Blvd,32801,28.5421404,-81.3715638
404,East Central Blvd,32801,28.5421387,-81.3723995
404,East Central Blvd,32801,28.5421411,-81.3721735
1200,West Colonial Drive,32805-7116,28.5525086,-81.3965388
845,Garland Avenue,32801,28.5564230,-81.3808160
6941,Lake Nona Boulevard,32827,28.3724391,-81.2784264
7004,Tavistock Lakes Boulevard,32827,28.3721200,-81.2772527
1010,Virginia Drive,32803,28.5639725,-81.3659643
1010,Virginia Drive,32803,28.5639722,-81.3658335
28,Michigan Street,32806,28.5127011,-81.3775594
6004,Artist Avenue,32827,28.3743768,-81.2818056
6982,Lake Nona Boulevard,32827,28.3716236,-81.2776692
4700,Millenia Boulevard,32839,28.4845026,-81.4401457
6900,Tavistock Lakes Boulevard,32827,28.3725307,-81.2785949
7004,Tavistock Lakes Boulevard,32827,28.3718076,-81.2766053
6900,Tavistock Lakes Boulevard,32827,28.3726412,-81.2787539
7004,Tavistock Lakes Boulevard,32827,28.3719670,-81.2767742
7004,Tavistock Lakes Boulevard,32827,28.3719954,-81.2768533
7004,Tavistock Lakes Boulevard,32827,28.3719364,-81.2766742
13630,Sachs Avenue,32827,28.3703046,-81.2617462
9971,Tagore Place,32827,28.3889741,-81.2458848
62,West Colonial Drive,32801,28.5528754,-81.3806177
317,North Orange Avenue,32801,28.5461198,-81.3789513
2380,South Orange Avenue,32806,28.5159795,-81.3767028
5250,International Drive,32819,28.4687179,-81.4476281
4200,Conroy Road,32839,28.4855696,-81.4316251
2173,Lake Debra Drive,32835,28.5160155,-81.4763272
2207,Lake Debra Drive,32835,28.5160503,-81.4769982
2179,Lake Debra Drive,32835,28.5155633,-81.4764553
2185,Lake Debra Drive,32835,28.5150156,-81.4766255
2191,Lake Debra Drive,32835,28.5147775,-81.4771146
2109,Lake Debra Drive,32835,28.5169172,-81.4776428
2215,Lake Debra Drive,32835,28.5163816,-81.4768931
2161,Lake Debra Drive,32835,28.5169839,-81.4766079
2137,Lake Debra Drive,32835,28.5174134,-81.4767982
2113,Lake Debra Drive,32835,28.5169237,-81.4771484
2149,Lake Debra Drive,32835,28.5174295,-81.4759810
2143,Lake Debra Drive,32835,28.5178704,-81.4762975
2131,Lake Debra Drive,32835,28.5180520,-81.4769185
2125,Lake Debra Drive,32835,28.5179844,-81.4775280
2119,Lake Debra Drive,32835,28.5174458,-81.4776692
2197,Lake Debra Drive,32835,28.5150413,-81.4775667
2203,Lake Debra Drive,32835,28.5156093,-81.4775785
2101,Lake Debra Drive,32835,28.5164188,-81.4775799
2167,Lake Debra Drive,32835,28.5165045,-81.4762480
2155,Lake Debra Drive,32835,28.5169652,-81.4761205
101 E,Central Boulevard,32801,28.5425546,-81.3766816
65 E,Central Boulevard,32801,28.5430912,-81.3778461
2403,Hiawassee Road,32811,28.5159705,-81.4844119
2435,Hiawassee Road,32835,28.5149589,-81.4835097
6965,Piazza Grande Avenue,32835,28.5170670,-81.4814550
7065,Westpointe Boulevard,32835,28.5167115,-81.4823051
6996,Piazza Grande Avenue,32835,28.5163283,-81.4818962
5618,Vineland Road,32819-7827,28.4811642,-81.4567066
4405,Vineland Road,32811,28.4981002,-81.4304656
4000,Millenia Boulevard,32839,28.4923568,-81.4272187
4750,Millenia Plaza Way,32839-2434,28.4932649,-81.4306846
4655,Vineland Road,32811,28.4955163,-81.4330684
1400,Sligh Boulevard,32806,28.5259078,-81.3816500
2411,Elizabeth Avenue,32804,28.5732948,-81.3845283
1400,Gaston Foster Road,32812,28.5253498,-81.3252480
77,E Jackson Street,32801,28.5393209,-81.3777951
401,W Livingston Street,32801,28.5480119,-81.3841185
301,Amelia Street,32801,28.5503004,-81.3837374
111,North Orange Avenue,32801,28.5438076,-81.3787666
215,North Orange Avenue,32801,28.5450916,-81.3786882
63,Amelia Street,32801,28.5498090,-81.3805359
50 E,Robinson Street,32801,28.5451541,-81.3778815
47 E,Robinson Street,32801,28.5459575,-81.3777493
191,East Pine Street,32801,28.5417512,-81.3755161
37,West Pine Street,32801,28.5415394,-81.3799809
36,Pine Street,32801,28.5410311,-81.3797626
92,West Miller Street,32806,28.5229302,-81.3798753
4403,Millenia Plaza Way,32839,28.4988765,-81.4264261
7299,Universal Boulevard,32819,28.4579482,-81.4633498
304,West Colonial Drive,32801,28.5523357,-81.3836188
7100,Augusta National Drive,32822,28.4609889,-81.3069469
5767,T.G. Lee Boulevard,32822,28.4608663,-81.3076634
6949,South Semoran Boulevard,32812,28.4626588,-81.3091403
7024,Augusta National Drive,32822,28.4618168,-81.3066594
5828,Hazeltine National Drive,32822,28.4624494,-81.3068421
4092,Eastgate Drive,32839,28.4825992,-81.4275258
6362,International Drive,32819,28.4596491,-81.4683555
5877,American Way,32819,28.4656935,-81.4610545
6217,International Drive,32819,28.4625733,-81.4655350
5900,American Way,32819,28.4641574,-81.4609928
5515,International Drive,32819,28.4627411,-81.4548722
6855,Grandnational Drive,32819,28.4627219,-81.4559577
5365,International Drive,32819,28.4632564,-81.4511710
5365,International Drive,32819,28.4634416,-81.4514279
5545,International Drive,32819,28.4633581,-81.4553371
5399,International Drive,32819,28.4628433,-81.4520519
6877,Kirkman Road,32819,28.4629434,-81.4578101
5209,International Drive,32819,28.4685372,-81.4511060
5253,International Drive,32819,28.4680869,-81.4535150
5259,International Drive,32819,28.4676868,-81.4510812
5285,International Drive,32819,28.4664395,-81.4510778
5401,Altamira Drive,32819,28.4693320,-81.4510188
5109,International Drive,32819,28.4715652,-81.4509569
5942,International Drive,32819-8206,28.4617563,-81.4620556
7825,Universal Boulevard,32819,28.4514007,-81.4645230
7701,Universal Boulevard,32819,28.4524653,-81.4643023
7800,Universal Boulevard,32819,28.4518049,-81.4659946
7110,Kirkman Road,32819,28.4592755,-81.4594185
7100,Municipal Drive,32819,28.4586547,-81.4530811
5920,Metropolis Way,32811,28.5172666,-81.4615348
4951,Interstate Drive,32819,28.4729143,-81.4535668
5605,Major Boulevard,32819,28.4820528,-81.4545926
5635,Windhover Drive,32819,28.4863461,-81.4565359
5916,Caravan Court,32819,28.4764406,-81.4547640
5621,Windhover Drive,32819,28.4856999,-81.4560072
5173,Kirkman Road,32819,28.4868288,-81.4581577
5617,Major Boulevard,32819,28.4814226,-81.4530366
5503,Major Boulevard,32819,28.4823717,-81.4547900
5701,Vineland Road,32819,28.4833685,-81.4572903
5976,Caravan Court,32819,28.4750745,-81.4567757
5147,Kirkman Road,32819,28.4872686,-81.4581495
5401,Kirkman Road,32819,28.4842338,-81.4576955
5203,Kirkman Road,32819,28.4863336,-81.4580430
5620,Major Boulevard,32819,28.4802211,-81.4542665
5389,Kirkman Road,32819,28.4847300,-81.4581782
5614,Vineland Road,32819-7827,28.4820060,-81.4565988
5621,Major Boulevard,32819,28.4812322,-81.4528241
5916,Caravan Court,32819,28.4771445,-81.4548131
5661,Windhover Drive,32819,28.4863314,-81.4572527
5601,Windhover Drive,32819,28.4847819,-81.4563033
4639,Kirkman Road,32811,28.4947006,-81.4583766
4845,Kirkman Road,32811,28.4916755,-81.4581821
4064,Millenia Boulevard,32839,28.4904800,-81.4280455
5200,South John Young Parkway,32839,28.4880486,-81.4182496
4080,Millenia Boulevard,32839,28.4900965,-81.4282325
4075,Millenia Boulevard,32839,28.4915586,-81.4295509
4051,Millenia Boulevard,32839,28.4913557,-81.4287786
4801,Kirkman Road,32811,28.4922117,-81.4582267
5389,Conroy Road,32811,28.4948273,-81.4524555
5385,Conroy Road,32811,28.4947744,-81.4521062
1901,East Robinson Street,32803,28.5463276,-81.3569695
7500,Augusta National Drive,32822,28.4561313,-81.3088327
7222,Augusta National Drive,32822,28.4585291,-81.3093729
7300,Augusta National Drive,32822,28.4582630,-81.3079772
7499,Augusta National Drive,32822,28.4561571,-81.3056489
7450,Augusta National Drive,32822,28.4571694,-81.3083885
5850,TG Lee Boulevard,32822,28.4583982,-81.3057529
5750,TG Lee Boulevard,32822,28.4594399,-81.3088422
5835,T. G. Lee Boulevard,32822,28.4607123,-81.3055743
7155,North Frontage Road,32812,28.4591591,-81.3113441
5449,Orlando Gateway Circle,32812,28.4583108,-81.3109305
2295,South Hiawassee Road,32835,28.5178001,-81.4818380
225,East Robinson Street,32801,28.5461660,-81.3743864
5624,Vineland Road,32819-7827,28.4823412,-81.4573988
4622,Kirkman Road,32811-2892,28.4947131,-81.4596287
4752,Kirkman Road,32811,28.4926270,-81.4596361
5605 S,Kirkman Road,32819-7827,28.4812325,-81.4578767
4606,South Kirkman Road,32811-2891,28.4953110,-81.4612231
5501 S,Kirkman Road,32819-7827,28.4823014,-81.4579005
5816,Conroy Windermere Road,32835,28.4932656,-81.4608736
5886,Conroy Road,32835,28.4932410,-81.4615757
5573 S,Kirkman Road,32819-7827,28.4815036,-81.4578992
60,South Ivanhoe Boulevard,32804,28.5589606,-81.3787011
6850,Lake Nona Boulevard,32827,28.3674644,-81.2803966
6900,Lake Nona Boulevard,32827-7401,28.3678033,-81.2795887
6000,Universal BLvd,32819,28.4788643,-81.4690653
415,East Pine Street,32801,28.5417869,-81.3721461
414,East Pine Street,32801,28.5410836,-81.3718310
2424,McRae Avenue,32804,28.5734172,-81.3718323
2328,Alden Road,32803,28.5731048,-81.3709881
700,East Washington Street,32801,28.5434705,-81.3682817
777,E. Princeton St.,32803,28.5722847,-81.3683651
1001 E,Princeton Street,32803,28.5710204,-81.3654406
950,South Orange Blossom Trail,32839,28.5303718,-81.3975465
843,South Orange Blossom Trail,32839,28.5314038,-81.3968156
720,South Orange Blossom Trail,32839,28.5342512,-81.3981314
1234,West Church Street,32805,28.5398045,-81.3969144
104,South Orange Blossom Trail,32818,28.5408056,-81.3976849
1140,South Rio Grande Avenue,32805,28.5276108,-81.4017774
45,North Orange Blossom Trail,32805,28.5436641,-81.3969937
6515,International Drive,32819,28.4588962,-81.4712027
6500,International Drive,32819,28.4576958,-81.4684698
9245,Tradeport Drive,32827,28.4326996,-81.3323080
9101,Randall Park Boulevard,32832,28.4345888,-81.2338927
8185,Lee Vista Blvd,32829,28.4665155,-81.2744240
2416,North Mills Avenue,32803,28.5727975,-81.3651730
6000,Universal Studios Plaza,32819,28.4723033,-81.4664595
1203,West Robinson Street,32805,28.5462638,-81.3958382
902,Princeton Street,32803,28.5700011,-81.3673192
2300,North Orange Avenue,32803,28.5724228,-81.3730705
2415,North Orange Avenue,32804,28.5737476,-81.3725218
7389,Universal Boulevard,32819,28.4567385,-81.4627997
6000,Universal Blvd,32819,28.4613980,-81.4727180
10019,Madison Banks Street,32827,28.4209667,-81.2746656
200,South Orange Avenue,32801,28.5399458,-81.3794971
201,South Rosalind Avenue,32801,28.5399810,-81.3751424
2600,South Orange Avenue,32806,28.5136039,-81.3767555
2520,South Orange Avenue,32806,28.5140914,-81.3765802
1919,South Orange,32806,28.5195508,-81.3761146
2873,South Orange Avenue,32806-5403,28.5101215,-81.3732449
2474,South Orange Avenue,32806,28.5150174,-81.3765934
2885,South Orange Avenue,32806,28.5101994,-81.3757735
2211,South Orange Avenue,32806,28.5167962,-81.3761413
2504,South Orange Avenue,32806,28.5145058,-81.3765978
2715,South Orange Avenue,32806,28.5118927,-81.3749055
2892,South Orange Avenue,32806-5430,28.5096376,-81.3766729
120,West Grant Street,32806,28.5156121,-81.3801378
426,East Michigan Street,32806,28.5124484,-81.3710810
408 East,East Michigan Street,32806,28.5124219,-81.3715469
5259,International Drive,32819,28.4680552,-81.4523168
1222,South Orange Avenue,32806,28.5273753,-81.3767840
425,North Bumby Avenue,32803,28.5487508,-81.3513185
1400,South Orange Avenue,32806,28.5261906,-81.3771064
2200,South Orange Avenue,32806,28.5173038,-81.3766851
2000,South Orange Avenue,32806,28.5191203,-81.3766260
1912,South Orange Avenue,32806,28.5196070,-81.3767738
2010,South Orange Avenue,32806,28.5188940,-81.3766325
1901,South Orange Avenue,32806,28.5200459,-81.3761598
4401,Curry Ford Road,32812,28.5245379,-81.3306568
6699,South Semoran Boulevard,32822,28.4664427,-81.3090093
4407,Vineland Road,32811,28.4985562,-81.4302696
10775,Central Port Drive,32824,28.4110149,-81.3623601
3303,Parkway Center Court,32808,28.5999021,-81.4196061
6000,Univesal Boulevard,32819,28.4752510,-81.4689379
1000,Universal Studios Plaza,32819,28.4772385,-81.4692370
6050,Lake Champlain Drive,32829,28.4743533,-81.2717200
2333,Lake Debra Drive,32835,28.5121957,-81.4778383
6555,Sanger Road,32827,28.3666788,-81.2900485
5107,South John Young Parkway,32839,28.4881433,-81.4168568
5800,Universal Boulevard,32819,28.4768249,-81.4645466
90,East Livingston Street,32801,28.5469235,-81.3771082
431,East Central Boulevard,32801,28.5426955,-81.3720950
490,East South Street,32801,28.5379791,-81.3704924
530,East Central Blvd,32801,28.5418094,-81.3702387
1742,South Orange Avenue,32806,28.5214221,-81.3767164
4098,South Orange Avenue,32806,28.4987251,-81.3764446
525,East Jackson Street,32801,28.5394007,-81.3704367
5555,Hazeltine National Drive,32812,28.4637939,-81.3111395
5440,Forbes Place,32812,28.4598150,-81.3139077
83,West Miller Street,32806,28.5244349,-81.3790549
433,North Mills Avenue,32803,28.5487374,-81.3635924
620,E Marks Street,32803,28.5565736,-81.3697529
7855,North Frontage Road,32812,28.4522083,-81.3146593
9607,Lake Nona Village Place,32827,28.4268544,-81.2546059
4001,Edgewater Drive,32804,28.5888301,-81.3932328
6372,Semoran Boulevard,32812,28.4709644,-81.3107658
10000,USTA Blvd,32827,28.4005256,-81.2791781
5269,International Drive,32819,28.4703588,-81.4512138
227,North Eola Drive,32801,28.5455606,-81.3695864
4696,Gardens Park Boulevard,32839-2171,28.4960774,-81.4256883
5901,Hazeltine National Drive,32822,28.4638870,-81.3050440
7007,Narcoossee Road,32822,28.4639108,-81.2712913
363,N Parramore Ave,32801,28.5471746,-81.3885406
680,North Orange Avenue,32801,28.5527168,-81.3796721
445,Magnolia Avenue,32801,28.5376947,-81.3766655
4115,East Colonial Drive,32803,28.5537658,-81.3338509
4025,East Colonial Drive,32803,28.5538123,-81.3344790
3900,East Colonial Drive,32803-5210,28.5531248,-81.3364060
5000,Millenia Palms Dr,32839,28.4789991,-81.4441958
11920,Narcoossee Road,32832,28.3930924,-81.2483309
11930,Narcoossee Road,32832,28.3899270,-81.2481405
13615,Sachs Avenue,32827,28.3710413,-81.2615421
13535,Nemours Parkway,32827,28.3767531,-81.2727249
5601,Universal Boulevard,32819,28.4802875,-81.4617502
2055,Lake Baldwin Lane,32814,28.5696624,-81.3167172
5601,Universal Blvd,32819,28.4810302,-81.4608807
1314,Terre Cia Avenue,32807,28.5269628,-81.3125124
5435,Forbes Place,32812,28.4610794,-81.3137977
5445,Forbes Place,32812,28.4614903,-81.3115593
1801,South Semoran Boulevard,32822,28.5213025,-81.3123543
1890,South Semoran Boulevard,32822,28.5207684,-81.3124198
1900,South Semoran Boulevard,32822,28.5199501,-81.3123910
2050,South Semoran Boulevard,32822,28.5200646,-81.3109586
324,Livingston Street,32801,28.5473552,-81.3728925
820,N Fern Creek Avenue,32803,28.5557188,-81.3606055
650,Santiago Ave,32807,28.5322823,-81.3189890
1411,Greenwood Street,32801,28.5356318,-81.3615707
510,Shady Lane Drive,32804,28.5645825,-81.3870137
822,Dartmouth Street,32804,28.5677095,-81.3918950
1320,Guernsey Street,32804,28.5652317,-81.3981685
6850,Merryvale Lane,32822,28.4559756,-81.2886807
4700,Millenia Boulevard,32839,28.4837966,-81.4388633
741,Mills Avenue,32803,28.5545061,-81.3641822
118,Fernwood Street,32806,28.5255724,-81.3756571
6021,S Conway Road,32812,28.4687139,-81.3289890
1,Jeff Fuqua Boulevard,32827,28.4129881,-81.3098741
110,George DeSalvia Way,32807,28.5451723,-81.3208192
3440,Edgewater Drive,32804,28.5830117,-81.3912560
2503,North John Young Parkway,32804,28.5767258,-81.4156551
935,Lake Baldwin Lane,32814,28.5585693,-81.3268941
101,Lake Avenue,32801,28.5409328,-81.3725695
100,South Eola Drive,32801,28.5409332,-81.3704264
101,South Eola Drive,32801,28.5409322,-81.3695507
618,East South Street,32801,28.5379662,-81.3688231
12242,Narcoossee Road,32832,28.3877033,-81.2450126
12276,Andric Lane,32827,28.3877178,-81.2480822
5894,Conroy Road,32835,28.4932757,-81.4622399
6101,Westgate Drive,32835,28.5331002,-81.4671695
1010,Virginia Drive,32803,28.5638213,-81.3659459
2420,East Colonial Drive,32803,28.5526256,-81.3515097
2434,East Colonial Drive,32803,28.5527222,-81.3507860
2855,McRae Avenue,32804,28.5772046,-81.3718460
2416,North Orange Avenue,32804,28.5738416,-81.3734814
2400,North Orange Avenue,32804,28.5733499,-81.3730278
2885,North Orange Avenue,32804,28.5775499,-81.3725941
2710,North Orange Avenue,32804,28.5762464,-81.3731595
235,East Princeton Street,32804,28.5715841,-81.3746816
301,East Princeton Street,32804,28.5718132,-81.3738464
415,E Princeton St,32803,28.5716618,-81.3719887
2310,North Orange Avenue,32803,28.5726056,-81.3730780
2320,North Orange Avenue,32804,28.5729494,-81.3731232
2512,North Orange Avenue,32804,28.5744693,-81.3731133
2512,North Orange Avenue,32804,28.5744133,-81.3731138
701,W Livingston Street,32805,28.5484488,-81.3911945
626,East Concord Street,32803,28.5505677,-81.3695391
1201,East Colonial Drive,32803,28.5534015,-81.3640980
318,Livingston Street,32801,28.5473753,-81.3732052
5910,American Way,32819,28.4640498,-81.4620661
4591,Power Center Lane,32839,28.4946278,-81.4219795
2108,Bruton Boulevard,32805,28.5185796,-81.4268256
11915,Gennaro Ln,32827,28.3944907,-81.2568869
8524,Insular Lane,32827,28.3932253,-81.2665306
5801,Conroy Road,32835,28.4943691,-81.4601497
4666,Kirkman Road,32835,28.4941981,-81.4612766
4664,Kirkman Road,32835,28.4942971,-81.4612651
4662,Kirkman Road,32835,28.4943517,-81.4612477
4646,Kirkman Road,32811,28.4945498,-81.4612491
4626,Kirkman Road,32811,28.4948111,-81.4611262
4618,South Kirkman Road,32811,28.4948612,-81.4610998
4550,Kirkman Road,32811,28.4964764,-81.4605875
4898,Kirkman Road,32811,28.4914528,-81.4600010
4900,s Kirkman Road,32811,28.4913278,-81.4598134
14902,Narcoossee Road,32832,28.3492954,-81.2339577
5400,South Kirkman Road,32819,28.4839926,-81.4594157
5380 S,Kirkman Road,32819,28.4844202,-81.4595825
5320 S,Kirkman Road,32819,28.4848793,-81.4593320
6001,Vineland Road,32819,28.4834670,-81.4630407
5555 S,Kirkman Road,32819-7827,28.4816257,-81.4578869
5555,Kirkman Road,32819-7827,28.4817022,-81.4578869
5535 S,Kirkman Road,32819-7827,28.4819308,-81.4578884
5780,Major Boulevard,32819-7827,28.4793324,-81.4570583
5614,Major Boulevard,32819,28.4805632,-81.4554804
4844,Cason Cove Drive,32811,28.4986429,-81.4429442
4800,Cason Cove Drive,32811,28.4989549,-81.4440719
4840,Cason Cove Drive,32811,28.4986990,-81.4434635
4814,Cason Cove Drive,32811,28.4984632,-81.4440388
4956,Cason Cove Drive,32811,28.4986162,-81.4453787
4828,Cason Cove Drive,32811,28.4991443,-81.4434657
4900,Cason Cove Drive,32811,28.4976991,-81.4446181
4928,Cason Cove Drive,32811,28.4979384,-81.4441729
4850,Cason Cove Drive,32811,28.4983046,-81.4434601
4894,Cason Cove Drive,32811,28.4977073,-81.4439215
4868,Cason Cove Drive,32811,28.4980221,-81.4434946
4822,Cason Cove Drive,32811,28.4984741,-81.4437409
4948,Cason Cove Drive,32811,28.4979984,-81.4453156
4936,Cason Cove Drive,32811,28.4982525,-81.4443078
4964,Cason Cove Drive,32811,28.4982743,-81.4457164
4978,Cason Cove Drive,32811,28.4984476,-81.4448762
5367,Conroy Road,32811,28.4949489,-81.4518592
5301,Conroy Road,32811,28.4951691,-81.4512497
5353,Conroy Road,32811,28.4954048,-81.4517691
4625,Middlebrook Road,32811,28.4957681,-81.4524598
4629,Middlebrook Road,32811,28.4958439,-81.4520659
4901,Cason Cove Drive,32811,28.4991003,-81.4452936
4700,Cason Cove Drive,32811,28.4984115,-81.4411869
9301,Lake Nona Boulevard,32827,28.3988288,-81.2628054
4056,Middlebrook Road,32811,28.4986346,-81.4495213
4084,Middlebrook Road,32811,28.4994493,-81.4501689
4238,Middlebrook Road,32811,28.5000708,-81.4525908
4266,Middlebrook Road,32811,28.4999846,-81.4537691
4280,Middlebrook Road,32811,28.4999783,-81.4542344
4252,Middlebrook Road,32811,28.4999756,-81.4532458
4210,Middlebrook Road,32811,28.4997892,-81.4520691
4154,Middlebrook Road,32811,28.4998186,-81.4511123
4028,Middlebrook Road,32811,28.4976840,-81.4488544
4042,Middlebrook Road,32811,28.4980566,-81.4491249
4070,Middlebrook Road,32811,28.4988967,-81.4497367
4140,Middlebrook Road,32811,28.5003965,-81.4508795
4098,Middlebrook Road,32811,28.4997124,-81.4504576
4224,Middlebrook Road,32811,28.4995516,-81.4526488
4196,Middlebrook Road,32811,28.5003115,-81.4516520
4014,Middlebrook Road,32811,28.4971597,-81.4483944
4000,Middlebrook Road,32811,28.4968177,-81.4480996
13738,Walcott Avenue,32827,28.3689655,-81.2634765
11978,Narcoossee Road,32832,28.3906714,-81.2449630
901,Kirkman Road,32811,28.5308518,-81.4587032
913,Kirkman Road,32811,28.5310101,-81.4580670
919,Kirkman Road,32811,28.5307618,-81.4574663
925,Kirkman Road,32811,28.5307234,-81.4569787
931,Kirkman Road,32811,28.5307441,-81.4564935
937,Kirkman Road,32811,28.5307889,-81.4560251
943,Kirkman Road,32811,28.5309690,-81.4555502
949,Kirkman Road,32811,28.5303590,-81.4556169
955,Kirkman Road,32811,28.5302651,-81.4561259
961,Kirkman Road,32811,28.5298200,-81.4565425
1081,Kirkman Road,32811,28.5297486,-81.4558910
1073,Kirkman Road,32811,28.5294202,-81.4557683
967,Kirkman Road,32811,28.5296748,-81.4570269
973,Kirkman Road,32811,28.5296644,-81.4576859
979,Kirkman Road,32811,28.5300411,-81.4581346
985,Kirkman Road,32811,28.5300585,-81.4586149
1001,Kirkman Road,32811,28.5294516,-81.4584760
1025,Kirkman Road,32811,28.5290340,-81.4574698
1009,Kirkman Road,32811,28.5289079,-81.4581224
1017,Kirkman Road,32811,28.5285982,-81.4576330
1033,Kirkman Road,32811,28.5288849,-81.4569412
1041,Kirkman Road,32811,28.5284148,-81.4571174
1089,Kirkman Road,32811,28.5288677,-81.4554530
1097,Kirkman Road,32811,28.5282542,-81.4554466
1065,Kirkman Road,32811,28.5288283,-81.4558135
1057,Kirkman Road,32811,28.5282454,-81.4560769
1209,Kirkman Road,32811,28.5265796,-81.4584593
1225,Kirkman Road,32811,28.5266525,-81.4580280
1241,Kirkman Road,32811,28.5265935,-81.4574780
1257,Kirkman Rd,32811,28.5268715,-81.4569770
1273,Kirkman Rd,32811,28.5265215,-81.4568360
1289,Kirkman Rd,32811,28.5260600,-81.4568685
1305,Kirkman Road,32811,28.5261035,-81.4575420
1329,Kirkman Road,32811,28.5261085,-81.4584270
1417,Kirkman Road,32811,28.5254810,-81.4584650
1417,Kirkman Road,32811,28.5251790,-81.4579295
1449,Kirkman Road,32811,28.5252190,-81.4575175
1433,Kirkman Road,32811,28.5255410,-81.4570255
1441,Kirkman Road,32811,28.5251310,-81.4570635
1465,Kirkman Road,32811,28.5247290,-81.4568800
1457,Kirkman Road,32811,28.5246510,-81.4575880
1409,Kirkman Road,32811,28.5248890,-81.4582775
1505,Kirkman Road,32811,28.5243165,-81.4579340
1473,Kirkman Road,32811,28.5242800,-81.4568625
1481,Kirkman Rd,32811,28.5238670,-81.4569190
1489,Kirkman Road,32811,28.5234310,-81.4569720
1497,Kirkman Road,32811,28.5234855,-81.4575900
1513,Kirkman Road,32811,28.5237655,-81.4580550
1505,Kirkman Road,32811,28.5234435,-81.4585755
1609,Kirkman Road,32811,28.5229345,-81.4581695
1257,Kirkman Road,32811,28.5259410,-81.4580160
1505,Kirkman Road,32811,28.5244680,-81.4583765
1641,Kirkman Road,32811,28.5228264,-81.4557566
1649,Kirkman Road,32811,28.5219479,-81.4556891
1657,Kirkman Road,32811,28.5213425,-81.4557272
1673,Kirkman Road,32811,28.5212420,-81.4574177
1689,Kirkman Road,32811,28.5217352,-81.4577870
1665,Kirkman Road,32811,28.5211880,-81.4564452
1633,Kirkman Road,32811,28.5223406,-81.4560448
1705,Kirkman Road,32811,28.5217886,-81.4583468
1681,Kirkman Road,32811,28.5217432,-81.4570506
1713,Kirkman Road,32811,28.5212422,-81.4582727
1697,Kirkman Road,32811,28.5222519,-81.4579703
1617,Kirkman Road,32811,28.5228184,-81.4571531
1625,Kirkman Road,32811,28.5226689,-81.4566507
1601,Kirkman Road,32811,28.5223559,-81.4570376
4882,Cason Cove Drive,32811,28.4977267,-81.4434298
4874,Cason Cove Drive,32811,28.4977791,-81.4430800
4862,Cason Cove Drive,32811,28.4983039,-81.4429409
4832,Cason Cove Drive,32811,28.4991593,-81.4430225
5403,Millenia Lakes Boulevard,32839,28.4843766,-81.4346838
2177,S. Summerlin Avenue,32806,28.5169728,-81.3673218
4056,Millennia Boulevard,32839,28.4913699,-81.4275971
10705,Jeff Fuqua Blvd,32827,28.4121227,-81.3083194
10546,Jeff Fuqua Blvd S,32827,28.4165666,-81.3031385
3444,McCrory Place,32803,28.5598289,-81.3404223
9888,Red Clover Avenue,32824,28.4238262,-81.3559903
11906,Narcoossee Road,32832,28.3923020,-81.2449105
9285,Lake Nona Boulevard,32827,28.3989576,-81.2600918
5043,Wellington Park Circle,32839,28.4918209,-81.4154456
5037,Wellington Park Circle,32839,28.4916377,-81.4154585
5025,Wellington Park Circle,32839,28.4915043,-81.4156356
5225,Wellington Park Circle,32839,28.4914976,-81.4159638
5233,Wellington Park Circle,32839,28.4915371,-81.4162854
5241,Wellington Park Circle,32839,28.4916894,-81.4164401
5201,Wellington Park Circle,32839,28.4918717,-81.4164281
5249,Wellington Park Circle,32839,28.4912343,-81.4162983
5269,Wellington Park Circle,32839,28.4909609,-81.4162750
5277,Wellington Park Circle,32839,28.4909633,-81.4159960
5001,Wellington Park Circle,32839,28.4909325,-81.4157000
5013,Wellington Park Circle,32839,28.4912019,-81.4156560
5284,Wellington Park Circle,32839,28.4905270,-81.4158311
5009,Park Central Drive,32839,28.4919872,-81.4130900
3724,Vineland Road,32811,28.5029325,-81.4306025
4319,35th Street,32811,28.5046519,-81.4327249
114,Ernestine Street,32801,28.5323240,-81.3807295
2113,Division Avenue,32805,28.5178280,-81.3840240
2702,South Orange Avenue,32806,28.5124115,-81.3768900
2447,South Orange Avenue,32806,28.5149390,-81.3761390
2021,South Orange Avenue,32806,28.5185295,-81.3761335
1740,Gurtler Court,32804,28.5673640,-81.3748880
1720,Gurtler Court,32804,28.5670325,-81.3752420
1710,Gurtler Court,32804,28.5666815,-81.3754045
1700,Gurtler Court,32804,28.5663095,-81.3754100
1719,Gurtler Court,32804,28.5665660,-81.3747415
1701,Gurtler Court,32804,28.5662585,-81.3749650
1725,Gurtler Court,32804,28.5668015,-81.3744555
1735,Gurtler Court,32804,28.5670870,-81.3741795
1741,Gurtler Court,32804,28.5673720,-81.3741945
1600,North Orange Avenue,32804,28.5654700,-81.3729800
1800,North Orange Avenue,32804,28.5678545,-81.3730670
6401,Westgate Drive,32835,28.5299996,-81.4682025
4042,Semoran Boulevard,32822,28.5031688,-81.3116706
3500,Semoran Boulevard,32822,28.5071066,-81.3130388
1239,South Crystal Lake Drive,32806,28.5263145,-81.3431305
3728,East Curry Ford Road,32806-2601,28.5238275,-81.3373325
4315,Curry Ford Road,32806,28.5247125,-81.3316555
4440,Curry Ford Road,32812,28.5227785,-81.3300555
4400A,Curry Ford Road,32812,28.5215150,-81.3307422
4434,Curry Ford Road,32812-2709,28.5220513,-81.3287851
1125,Semoran Boulevard,32807,28.5290599,-81.3100101
242,South Semoran Boulevard,32807,28.5410935,-81.3111405
611-625,Mariposa Street,32801,28.5400556,-81.3691055
610-624,East Church Street,32801,28.5403199,-81.3691123
202-212,South Summerlin Avenue,32801,28.5402394,-81.3686627
1,South Eola Drive,32801,28.5418484,-81.3696920
520,Broadway Avenue,32803,28.5502554,-81.3729809
105,North Eola Drive,32801,28.5439423,-81.3696801
617-637,East Pine Street,32801,28.5415842,-81.3689681
629,East Church Street,32801,28.5407827,-81.3687180
520,East Church Street,32801,28.5401587,-81.3706298
6041,South Goldenrod Road,32822,28.4753393,-81.2891758
6077,South Goldenrod Road,32822,28.4743295,-81.2893913
8517,Lake Windham Avenue,32829,28.4680290,-81.2676110
8493,Lake Windham Avenue,32829,28.4676310,-81.2682195
8487,Lake Windham Avenue,32829,28.4675230,-81.2683605
8481,Lake Windham Avenue,32829,28.4674155,-81.2685015
8475,Lake Windham Avenue,32829,28.4673305,-81.2686510
8469,Lake Windham Avenue,32829,28.4672100,-81.2687940
8463,Lake Windham Avenue,32829,28.4670970,-81.2689440
8457,Lake Windham Avenue,32829,28.4669910,-81.2690740
8451,Lake Windham Avenue,32829,28.4668870,-81.2692200
8445,Lake Windham Avenue,32829,28.4667851,-81.2693809
8439,Lake Windham Avenue,32829,28.4666995,-81.2695265
8433,Lake Windham Avenue,32829,28.4665325,-81.2696545
8427,Lake Windham Avenue,32829,28.4663730,-81.2694865
8421,Lake Windham Avenue,32829,28.4662110,-81.2693545
8415,Lake Windham Avenue,32829,28.4660535,-81.2692335
8397,Dover View Lane,32829,28.4658470,-81.2691895
8391,Dover View Lane,32829,28.4656725,-81.2692625
8385,Dover View Lane,32829,28.4655045,-81.2692525
8379,Dover View Lane,32829,28.4653410,-81.2692185
8384,Dover View Lane,32829,28.4654890,-81.2687550
8378,Dover View Lane,32829,28.4653300,-81.2687100
8373,Dover View Lane,32829,28.4651410,-81.2691910
8367,Dover View Lane,32829,28.4649850,-81.2691360
8412,Dover View Lane,32829,28.4648350,-81.2690475
8418,Dover View Lane,32829,28.4649285,-81.2687200
8424,Dover View Lane,32829,28.4649630,-81.2685215
8430,Dover View Lane,32829,28.4649759,-81.2683302
8436,Dover View Lane,32829,28.4650665,-81.2681020
8442,Dover View Lane,32829,28.4651765,-81.2679495
8448,Dover View Lane,32829,28.4652665,-81.2677920
8454,Dover View Lane,32829,28.4653795,-81.2676445
8437,Dover View Lane,32829,28.4654710,-81.2683210
8443,Dover View Lane,32829,28.4656065,-81.2681520
8449,Dover View Lane,32829,28.4656840,-81.2679935
8455,Dover View Lane,32829,28.4657950,-81.2678505
8461,Dover View Lane,32829,28.4659080,-81.2676405
8396,Lake Waverly Lane,32829,28.4657240,-81.2686100
8410,Lake Waverly Lane,32829,28.4658400,-81.2684590
8418,Lake Waverly Lane,32829,28.4659485,-81.2683180
8424,Lake Waverly Lane,32829,28.4660565,-81.2681755
8430,Lake Waverly Lane,32829,28.4661640,-81.2680475
8442,Lake Waverly Lane,32829,28.4662740,-81.2678745
8411,Lake Waverly Lane,32829,28.4661815,-81.2687780
8417,Lake Waverly Lane,32829,28.4662740,-81.2686400
8423,Lake Waverly Lane,32829,28.4663890,-81.2685010
8429,Lake Waverly Lane,32829,28.4664910,-81.2683575
8435,Lake Waverly Lane,32829,28.4665920,-81.2682095
8434,Lake Windham Avenue,32829,28.4664710,-81.2689925
8452,Lake Windham Avenue,32829,28.4665805,-81.2688750
8458,Lake Windham Avenue,32829,28.4666805,-81.2687280
8464,Lake Windham Avenue,32829,28.4667905,-81.2685880
8470,Lake Windham Avenue,32829,28.4668985,-81.2684455
8476,Lake Windham Avenue,32829,28.4670055,-81.2683165
8482,Lake Windham Avenue,32829,28.4671050,-81.2681550
8488,Lake Windham Avenue,32829,28.4672105,-81.2680130
8502,Lake Windham Avenue,32829,28.4673240,-81.2678530
8528,Lake Windham Avenue,32829,28.4673295,-81.2675725
8534,Lake Windham Avenue,32829,28.4672455,-81.2673970
8540,Lake Windham Avenue,32829,28.4671785,-81.2672265
8546,Lake Windham Avenue,32829,28.4671120,-81.2670645
8552,Lake Windham Avenue,32829,28.4670585,-81.2668765
8507,Lake Waverly Lane,32829,28.4664395,-81.2660575
8501,Lake Waverly Lane,32829,28.4664700,-81.2662275
8495,Lake Waverly Lane,32829,28.4665105,-81.2664065
8489,Lake Waverly Lane,32829,28.4665525,-81.2665880
8483,Lake Waverly Lane,32829,28.4666005,-81.2667670
8477,Lake Waverly Lane,32829,28.4666290,-81.2669500
8471,Lake Waverly Lane,32829,28.4666770,-81.2671295
8465,Lake Waverly Lane,32829,28.4667240,-81.2673085
8459,Lake Waverly Lane,32829,28.4667660,-81.2674895
8453,Lake Waverly Lane,32829,28.4669115,-81.2676565
8447,Lake Waverly Lane,32829,28.4668150,-81.2678745
8441,Lake Waverly Lane,32829,28.4667010,-81.2680650
8458,Lake Waverly Lane,32829,28.4663235,-81.2675925
8464,Lake Waverly Lane,32829,28.4662950,-81.2673990
8470,Lake Waverly Lane,32829,28.4662465,-81.2672275
8476,Lake Waverly Lane,32829,28.4662130,-81.2670360
8482,Lake Waverly Lane,32829,28.4661700,-81.2668580
8488,Lake Waverly Lane,32829,28.4661210,-81.2666780
8494,Lake Waverly Lane,32829,28.4660830,-81.2664970
8502,Lake Waverly Lane,32829,28.4660475,-81.2663130
8508,Lake Waverly Lane,32829,28.4659715,-81.2661575
8491,Dover View Lane,32829,28.4656685,-81.2662935
8485,Dover View Lane,32829,28.4657010,-81.2664655
8479,Dover View Lane,32829,28.4657475,-81.2666460
8473,Dover View Lane,32829,28.4657927,-81.2668302
8467,Dover View Lane,32829,28.4658415,-81.2669995
8465,Dover View Lane,32829,28.4658645,-81.2671965
8463,Dover View Lane,32829,28.4659260,-81.2673925
6647,Lake Carlisle Boulevard,32829,28.4659285,-81.2657000
6659,Lake Carlisle Boulevard,32829,28.4657425,-81.2657405
6671,Lake Carlisle Boulevard,32829,28.4655407,-81.2658385
6683,Lake Carlisle Boulevard,32829,28.4653735,-81.2659445
6695,Lake Carlisle Boulevard,32829,28.4651790,-81.2660190
8490,Dover View Lane,32829,28.4652485,-81.2664715
8484,Dover View Lane,32829,28.4652925,-81.2666340
8478,Dover View Lane,32829,28.4653370,-81.2668160
8472,Dover View Lane,32829,28.4653685,-81.2669980
8466,Dover View Lane,32829,28.4654115,-81.2671800
8460,Dover View Lane,32829,28.4654695,-81.2673885
8533,Corinth Pointe Court,32829,28.4649045,-81.2665855
8529,Corinth Pointe Court,32829,28.4649545,-81.2667810
8525,Corinth Pointe Court,32829,28.4650190,-81.2669920
8521,Corinth Pointe Court,32829,28.4650590,-81.2672260
8517,Corinth Pointe Court,32829,28.4650020,-81.2675090
8513,Corinth Pointe Court,32829,28.4648605,-81.2677175
8509,Corinth Pointe Court,32829,28.4645825,-81.2677685
8516,Corinth Pointe Court,32829,28.4643920,-81.2675105
8520,Corinth Pointe Court,32829,28.4644400,-81.2672415
8524,Corinth Pointe Court,32829,28.4645230,-81.2669950
8532,Corinth Pointe Court,32829,28.4644500,-81.2667010
6749,Lake Carlisle Boulevard,32829,28.4641690,-81.2661735
6737,Lake Carlisle Boulevard,32829,28.4643530,-81.2661475
6725,Lake Carlisle Boulevard,32829,28.4645475,-81.2661430
6713,Lake Carlisle Boulevard,32829,28.4647545,-81.2661480
6701,Lake Carlisle Boulevard,32829,28.4649705,-81.2660760
8553,Keswick Pointe Drive,32829,28.4632775,-81.2671410
8549,Keswick Pointe Drive,32829,28.4633225,-81.2673670
8545,Keswick Pointe Drive,32829,28.4633995,-81.2676095
8541,Keswick Pointe Drive,32829,28.4634065,-81.2678615
6889,Remington View Court,32829,28.4632770,-81.2681635
6885,Remington View Court,32829,28.4634650,-81.2682625
6879,Remington View Court,32829,28.4636055,-81.2683600
6873,Remington View Court,32829,28.4637760,-81.2684650
6867,Remington View Court,32829,28.4639510,-81.2685950
6861,Remington View Court,32829,28.4641370,-81.2686830
6855,Remington View Court,32829,28.4644070,-81.2686655
6849,Remington View Court,32829,28.4645420,-81.2688765
6842,Remington View Court,32829,28.4644955,-81.2691625
6848,Remington View Court,32829,28.4642885,-81.2693000
6854,Remington View Court,32829,28.4640830,-81.2692500
6866,Remington View Court,32829,28.4637235,-81.2690600
6872,Remington View Court,32829,28.4635760,-81.2689550
6878,Remington View Court,32829,28.4633960,-81.2688810
6884,Remington View Court,32829,28.4632400,-81.2687230
6888,Remington View Court,32829,28.4630740,-81.2686170
6896,Remington View Court,32829,28.4629095,-81.2685010
6906,Remington View Court,32829,28.4627430,-81.2683935
6912,Remington View Court,32829,28.4625657,-81.2683265
6918,Remington View Court,32829,28.4624110,-81.2681860
6924,Remington View Court,32829,28.4622455,-81.2680370
6930,Remington View Court,32829,28.4620945,-81.2679260
6936,Remington View Court,32829,28.4619430,-81.2677850
6942,Remington View Court,32829,28.4620635,-81.2674885
6948,Remington View Court,32829,28.4620235,-81.2672780
6954,Remington View Court,32829,28.4619730,-81.2670670
8573,Brunswick Court,32829,28.4615990,-81.2670560
8569,Brunswick Court,32829,28.4615995,-81.2672775
8565,Brunswick Court,32829,28.4617045,-81.2675140
8561,Brunswick Court,32829,28.4615940,-81.2677460
8566,Brunswick Court,32829,28.4611370,-81.2673500
8574,Brunswick Court,32829,28.4611440,-81.2670970
6953,Remington View Court,32829,28.4624375,-81.2670115
6947,Remington View Court,32829,28.4624581,-81.2672150
6939,Remington View Court,32829,28.4625009,-81.2674285
6925,Remington View Court,32829,28.4625645,-81.2676435
8552,Keswick Pointe Drive,32829,28.4628515,-81.2673865
8556,Keswick Pointe Drive,32829,28.4628200,-81.2671635
8560,Keswick Pointe Drive,32829,28.4627760,-81.2669325
8548,Keswick Pointe Drive,32829,28.4629010,-81.2676280
8536,Keswick Pointe Drive,32829,28.4629100,-81.2679225
7172,Vista Park Boulevard,32829,28.4597190,-81.2656440
7138,Vista Park Boulevard,32829,28.4600006,-81.2659461
7150,Vista Park Boulevard,32829,28.4598690,-81.2657960
6424,South Semoran Boulevard,32822,28.4704140,-81.3109015
6350,South Semoran Boulevard,32822,28.4715090,-81.3109155
4510,South Semoran Boulevard,32822,28.4985338,-81.3108351
4547,South Semoran Boulevard,32822,28.4978025,-81.3094670
4650,East Michigan Street,32812,28.5120058,-81.3286357
6688,Semoran Boulevard,32822,28.4664227,-81.3111983
5445,Hazeltine National Drive,32812,28.4639478,-81.3149187
4020,Golfside Drive,32808,28.5902435,-81.4279788
10201,Narcoossee Road,32832-6933,28.4180445,-81.2429160
7285,Corner Drive,32827,28.3813683,-81.2816353
5540,Oak Ridge Road,32819,28.4716670,-81.4530712
5460,Oak Ridge Road,32819,28.4716910,-81.4516379
5620,Oak Ridge Road,32819,28.4716922,-81.4537401
535,Vern Drive,32805,28.5506190,-81.4033675
545,Vern Drive,32805,28.5508910,-81.4033375
531,Vern Drive,32805,28.5504100,-81.4033270
525,Vern Drive,32805,28.5502045,-81.4033470
519,Vern Drive,32805,28.5499815,-81.4033650
511,Vern Drive,32805,28.5497765,-81.4033535
333,South Garland Avenue,32801,28.5388945,-81.3810247
1250,West South Street,32805,28.5376483,-81.3964809
6751,Eagle Watch Drive,32822,28.4648942,-81.3047313
6733,Eagle Watch Drive,32822,28.4651499,-81.3044521
6719,Eagle Watch Drive,32822,28.4654414,-81.3042834
6677,Eagle Watch Drive,32822,28.4657842,-81.3040592
2855,South Orange Avenue,52806,28.5109713,-81.3758332
600,Wilkinson Street,32708,28.5787790,-81.3721730
1080,Woodcock Rd,32803,28.5604665,-81.3443010
2633,East Colonial Drive,32803,28.5537365,-81.3495125
2655,East Colonial Drive,32803,28.5536895,-81.3491675
5940,Caravan Court,32819,28.4751676,-81.4576112
6735,Conroy Road,32819,28.4943580,-81.4743810
5151,Raleigh Street,32811-3926,28.5283295,-81.4482130
5530,Butler National Drive,32812,28.4655136,-81.3118611
51,Columbia Street,32806,28.5283234,-81.3787812
5433,Altamira Drive,32819,28.4698145,-81.4521836
4618,Middlebrook Road,32811,28.4956034,-81.4539623
4616,Middlebrook Road,32811,28.4956778,-81.4533101
4610,Middlebrook Road,32811,28.4961038,-81.4533934
4614,Middlebrook Road,32811,28.4958148,-81.4533602
4612,Middlebrook Road,32811,28.4959565,-81.4533888
4606,Middlebrook Road,32811,28.4960629,-81.4538157
4604,Middlebrook Road,32811,28.4960836,-81.4536386
4608,Middlebrook Road,32811,28.4960624,-81.4540016
4648,Middlebrook Road,32811,28.4951638,-81.4538544
4646,Middlebrook Road,32811,28.4952343,-81.4539995
4644,Middlebrook Road,32811,28.4953628,-81.4540197
4650,Middlebrook Road,32811,28.4951898,-81.4537095
4652,Middlebrook Road,32811,28.4952068,-81.4535666
4600,Middlebrook Road,32811,28.4962453,-81.4544138
4598,Middlebrook Road,32811,28.4963677,-81.4544147
4602,Middlebrook Road,32811,28.4961329,-81.4544131
4596,Middlebrook Road,32811,28.4964984,-81.4544160
4594,Middlebrook Road,32811,28.4966290,-81.4544179
4592,Middlebrook Road,32811,28.4962740,-81.4540798
4590,Middlebrook Road,32811,28.4964145,-81.4541071
4586,Middlebrook Road,32811,28.4965598,-81.4538891
4584,Middlebrook Road,32811,28.4965853,-81.4537286
4588,Middlebrook Road,32811,28.4965498,-81.4540427
4582,Middlebrook Road,32811,28.4964681,-81.4534791
4580,Middlebrook Road,32811,28.4965952,-81.4534984
4576,Middlebrook Road,32811,28.4968572,-81.4534969
4578,Middlebrook Road,32811,28.4967302,-81.4534777
4572,Middlebrook Road,32811,28.4968283,-81.4538554
4570,Middlebrook Road,32811,28.4968281,-81.4539939
4574,Middlebrook Road,32811,28.4968297,-81.4537222
4568,Middlebrook Road,32811,28.4968282,-81.4541773
4566,Middlebrook Road,32811,28.4968268,-81.4543106
4564,Middlebrook Road,32811,28.4968267,-81.4544490
4550,Middlebrook Road,32811,28.4971818,-81.4534573
4552,Middlebrook Road,32811,28.4971809,-81.4535942
4556,Middlebrook Road,32811,28.4971787,-81.4538699
4554,Middlebrook Road,32811,28.4971796,-81.4537313
4558,Middlebrook Road,32811,28.4971784,-81.4540706
4560,Middlebrook Road,32811,28.4971782,-81.4542518
4562,Middlebrook Road,32811,28.4971776,-81.4544307
2931,Blakely Drive,32835,28.5112467,-81.4868288
6752,Conroy Windermere Road,32835,28.4925715,-81.4746960
6758,Conroy Road,32835,28.4931525,-81.4746930
337,N Shine Ave,32803,28.5472325,-81.3621179
14086,Centerline Drive,32827,28.3619113,-81.2693110
9300,Jeff Fuqua Boulevard,32827,28.4311859,-81.3062800
43,Columbia Street,32806,28.5283832,-81.3783096
6955,Lake Nona Boulevard,32827,28.3713656,-81.2790171
730,North Magnolia Avenue,32803,28.5542695,-81.3774387
4225,East Colonial Drive,32803,28.5537630,-81.3327590
851,Outer Road,32814,28.5574630,-81.3285645
855,Outer Road,32814,28.5574490,-81.3287815
859,Outer Road,32814,28.5574570,-81.3290605
863,Outer Road,32814,28.5576490,-81.3290335
867,Outer Road,32814,28.5578035,-81.3290220
871,Outer Road,32814,28.5579565,-81.3290120
875,Outer Road,32814,28.5581095,-81.3290050
4606,Halder Lane,32814,28.5582760,-81.3289875
4624,Halder Lane,32814,28.5581360,-81.3287440
934,Lake Baldwin Lane,32814,28.5582390,-81.3276735
938,Lake Baldwin Lane,32814,28.5583585,-81.3276370
942,Lake Baldwin Lane,32814,28.5584785,-81.3275980
946,Lake Baldwin Lane,32814,28.5586075,-81.3275501
950,Lake Baldwin Lane,32814,28.5587420,-81.3274810
954,Lake Baldwin Lane,32814,28.5588840,-81.3274010
960,Lake Baldwin Lane,32814,28.5590375,-81.3273165
4625,Halder Lane,32814,28.5584620,-81.3285415
891,Outer Road,32814,28.5585775,-81.3288242
895,Outer Road,32814,28.5587605,-81.3286785
899,Outer Road,32814,28.5589000,-81.3285885
903,Outer Road,32814,28.5590040,-81.3284260
907,Outer Road,32814,28.5592610,-81.3282615
911,Outer Road,32814,28.5594050,-81.3281540
915,Outer Road,32814,28.5595315,-81.3280460
919,Outer Road,32814,28.5597240,-81.3279530
964,Lake Baldwin Lane,32814,28.5593730,-81.3271990
968,Lake Baldwin Lane,32814,28.5596620,-81.3272295
976,Lake Baldwin Lane,32814,28.5601020,-81.3273680
3111,East Colonial Drive,32803,28.5537737,-81.3425288
1840,East Colonial Drive,32803,28.5527577,-81.3571193
250,West Ivanhoe Boulevard,32804,28.5596605,-81.3823180
609,Irvington Avenue,32803,28.5520224,-81.3467424
2015,Edgewater Drive,32804-5311,28.5699875,-81.3883780
711,West Smith Street,32804,28.5722620,-81.3899980
1308,Edgewater Drive,32804,28.5631065,-81.3895725
712,Maxwell Street,32804,28.5627580,-81.3899840
714,Maxwell Street,32804,28.5625850,-81.3901520
726,Maxwell Street,32804,28.5627015,-81.3905010
730,Maxwell Street,32804,28.5627410,-81.3907895
750,Maxwell Street,32804,28.5627260,-81.3910370
754,Maxwell Street,32804,28.5627545,-81.3912155
1317,Edgewater Drive,32804,28.5634698,-81.3891338
803,Maxwell Street,32804,28.5631995,-81.3908845
731,Maxwell Street,32804,28.5632240,-81.3906885
727,Maxwell Street,32804,28.5632230,-81.3905005
719,Maxwell Street,32804,28.5632435,-81.3901585
715,Maxwell Street,32804,28.5632125,-81.3899870
813,Maxwell Street,32804,28.5631995,-81.3912385
723,Maxwell Street,32804,28.5632176,-81.3903189
2014,West Colonial Drive,32804,28.5522561,-81.4065575
3956,West Colonial Drive,32808,28.5517225,-81.4280754
5810,Raleigh Street,32835,28.5274327,-81.4599109
1174,South Kirkman Road,32835,28.5270592,-81.4600049
444,Michigan Street,32806,28.5127625,-81.3704510
2301,South Summerlin Avenue,32806,28.5164690,-81.3686980
901,Highland Avenue,32803,28.5581296,-81.3727248
901,Highland Avenue,32803,28.5582635,-81.3733313
901,Highland Avenue,32803,28.5585631,-81.3721509
901,Highland Avenue,32803,28.5588136,-81.3718346
901,Highland Avenue,32803,28.5586658,-81.3709802
901,Highland Avenue,32803,28.5584983,-81.3715132
901,Highland Avenue,32803,28.5581358,-81.3719215
13901,Medical City Drive,32827,28.3652210,-81.2850859
1901,North Orange Avenue,32804,28.5689643,-81.3724840
1800,North Orange Avenue,32804,28.5678444,-81.3729108
1800,North Orange Avenue,32804,28.5678441,-81.3730687
1427,North Orange Avenue,32804,28.5654473,-81.3726232
1420,North Orange Avenue,32804,28.5652150,-81.3726329
2000,North Orange Avenue,32804,28.5698212,-81.3731958
1235,North Orange Avenue,32804,28.5626381,-81.3728372
1231,North Orange Avenue,32804,28.5624493,-81.3728976
2401,Edgewater Drive,32804,28.5728994,-81.3892350
516,Virginia Drive,32803,28.5638979,-81.3710640
520,Virginia Drive,32803,28.5639048,-81.3707345
1018,Mills Avenue,32803,28.5591926,-81.3647017
54,North Orange Avenue,32801,28.5431336,-81.3793764
618,Thornton Avenue,32803,28.5520265,-81.3657320
14031,Centerline Drive,32827,28.3628293,-81.2675881
626,North Fern Creek Avenue,32803,28.5529350,-81.3605811
5803,Precision Drive,32819,28.4586907,-81.4592618
2315,Central Boulevard,32803,28.5425980,-81.3522842
8465,Hangar Boulevard,32827,28.4464387,-81.2897572
8265,Hangar Boulevard,32827,28.4474401,-81.2897751
3025,Curry Ford Road,32806,28.5247302,-81.3449668
7200,North Frontage Road,32812,28.4575677,-81.3136080
7284,North Frontage Road,32812,28.4568182,-81.3143680
7296,North Frontage Road,32812,28.4565376,-81.3140267
7308,North Frontage Road,32812,28.4565407,-81.3132551
7320,North Frontage Road,32812,28.4568242,-81.3129096
7332,North Frontage Road,32812,28.4572864,-81.3127686
7212,North Frontage Road,32812,28.4577141,-81.3127676
7224,North Frontage Road,32812,28.4582110,-81.3128839
7236,North Frontage Road,32812,28.4581124,-81.3136157
7248,North Frontage Road,32812,28.4582045,-81.3143523
7260,North Frontage Road,32812,28.4577086,-81.3144655
7272,North Frontage Road,32812,28.4572786,-81.3144602
7200,North Frontage Road,32812,28.4575598,-81.3136154
7344,North Frontage Road,32812,28.4573122,-81.3133833
7356,North Frontage Road,32812,28.4573116,-81.3138436
7380,North Frontage Road,32812,28.4568899,-81.3133235
7368,North Frontage Road,32812,28.4568883,-81.3139047
3017,Raven Road,32803,28.5671289,-81.3453924
3017,Raven Road,32803,28.5672833,-81.3454607
6100,Wave Hotel Drive,32827,28.3740621,-81.2815920
5854,Raleigh Street,32835,28.5274390,-81.4612720
420,East Church Street,32801,28.5401219,-81.3721090
1519,W Church Street,32805,28.5408483,-81.4007945
13635,Walcott Avenue,32827,28.3698895,-81.2627954
505,Vern Drive,32805,28.5495028,-81.4033307
1414,North Orange Avenue,32804,28.5646955,-81.3732534
671,Winyah Drive,32803,28.5764827,-81.3674905
3201,Corrine Drive,32803,28.5682959,-81.3437352
3101,Corrine Drive,32803,28.5681269,-81.3448064
5855,American Way,32819,28.4644147,-81.4597642
5825,International Drive,32819,28.4634401,-81.4596609
8650,Lee Vista Boulevard,32829,28.4691403,-81.2661475
741,Mills Avenue,32803,28.5547080,-81.3635661
741,Mills Avenue,32803,28.5545075,-81.3637538
7091,Narcoossee Road,32822,28.4603380,-81.2715222
6100,Wave Hotel Drive,32827,28.3737033,-81.2818534
4181,Millenia Boulevard,32839,28.4895986,-81.4310380
2450,East Gore Street,32806,28.5303702,-81.3504169
6480,Nemours Parkway,32827,28.3757596,-81.2789673
10105,Selten Way,32827,28.3611614,-81.2460461
7215,Corner Drive,32827,28.3826994,-81.2799607
12253,Lake Nona Gateway Road,32827,28.3872251,-81.2751719
5981,Turkey Lake Road,32819,28.4748970,-81.4745619
5981,Turkey Lake Road,32819,28.4748307,-81.4744175
1010,Virginia Drive,32803,28.5639124,-81.3659768
7800,Laureate Boulevard,32827,28.3654699,-81.2685506
12500,Narcoossee Road,32832,28.3806416,-81.2471153
1211,Illinois Street,32803,28.5564780,-81.3639812
455,North Garland Avenue,32801,28.5484696,-81.3812530
6500,Turkey Lake Road,32819,28.4716088,-81.4780003
5100,Turkey Lake Road,32819,28.4899641,-81.4794408
6000,Universal Blvd,32819,28.4718744,-81.4709461
1800,South Kirkman Road,32811,28.5219171,-81.4634181
4951,International Drive,32819,28.4751414,-81.4503663
8335,Narcoossee Road,32827,28.4457022,-81.2617502
5201,Raymond Street,32812,28.5804919,-81.3217415
5165,Metrowest Blvd,32811,28.5172225,-81.4484570
2393,Elizabeth Avenue,32804,28.5730791,-81.3843983
5353,Metrowest Boulevard,32811,28.5167936,-81.4531674
455 North,Garland Avenue,32801,28.5484030,-81.3816015
601,East Rollins Street,32803,28.5751302,-81.3705820
52,West Underwood Street,32806,28.5258961,-81.3782726
1655,Peel Avenue,32803,28.5226374,-81.3464126
1400,Gaston Foster Road,32812,28.5252738,-81.3259540
2121,South Hiawassee Road,32835,28.5181392,-81.4786245
5201,Curry Ford Road,32812,28.5253258,-81.3214033
440,South Kirkman Road,32811,28.5365271,-81.4588507
5100,Millenia Waters Dr,32839,28.4772083,-81.4439408
3437,Barnstable Place,32827,28.4418685,-81.3414830
4875,Cason Cove Drive,32811,28.5004272,-81.4435089
2601,Woodgate Blvd,32822,28.5104238,-81.2963217
3920,Rosewood Way,32808,28.6074339,-81.4279575
950,South Ranger Boulevard,32792,28.5804313,-81.3121548
4401,Curry Ford Road,32812,28.5245713,-81.3305471
549,W Par St,32804,28.5837329,-81.3851175
3101,West Princeton Street,32808,28.5713579,-81.4178366
1517,Mercy Drive,32808,28.5623206,-81.4294650
1730,Gurtler Court,32804,28.5667932,-81.3746993
6550,Adventure Way,32819,28.4655849,-81.4736441
13800,Veterans Way,32827,28.3648121,-81.2750333
6967,Lake Nona Boulevard,32827,28.3720670,-81.2783480
6955,Lake Nona Boulevard,32827,28.3716078,-81.2786679
6021,S Conway Road,32812,28.4682605,-81.3289284
601,East Rollins Street,32803,28.5746398,-81.3699185
2501,North Orange Avenue,32804,28.5749470,-81.3721153
655,West Church Street,32805,28.5410866,-81.3891493
505,Chatham Avenue,32801,28.5491021,-81.3857609
1036,Mills Avenue,32803,28.5597708,-81.3646874
901,Highland Avenue,32803,28.5581610,-81.3721190
6000,Universal Boulevard,32819,28.4571143,-81.4540705
6500,Turkey Lake Road,32819,28.4696765,-81.4768485
