House number,Street name,Postal code,Latitude,Longitude
2250,North Federal Highway,33062,26.2582250,-80.0993789
40 B,SW 15th ST,33060,26.2107268,-80.1238698
118,E McNab RD,33060,26.2103754,-80.1217347
124,SW 15th ST,33060,26.2107482,-80.1243284
1405,South Federal Highway,33062,26.2126351,-80.1078028
1199,South Federal Highway,33062,26.2160328,-80.1082105
1203,Federal Highway,33062,26.2152051,-80.1064670
40A,SW 15th St,33060,26.2107205,-80.1237603
108,SW 15th St,33060,26.2107073,-80.1241041
132,SW 15th ST,33060,26.2107650,-80.1244153
140,SW 15th ST,33060,26.2108033,-80.1245033
3421,Beacon Street,33062,26.2576539,-80.0846940
3030,Northwest 33rd Street,33069,26.2706111,-80.1635849
1800,North Federal Highway,33062,26.2548613,-80.0998007
1851,North Federal Highway,33062,26.2557069,-80.1020683
1420,Northeast 23rd Street,33062,26.2574200,-80.1033069
2201,North Federal Highway,33062,26.2566353,-80.1025367
3559,North Federal Highway,33064,26.2735241,-80.0993024
1490,Northwest 31st Avenue,33069,26.2438355,-80.1644377
40,North Federal Highway,33062,26.2329888,-80.1025330
2411,North Federal Highway,33062,26.2613723,-80.1012628
2341,North Federal Highway,33062,26.2609729,-80.0999615
2700,Dr. Martin Luther King Boulevard,33069,26.2448651,-80.1598921
2500,West Atlantic Boulevard,33069,26.2305550,-80.1560833
1,Southwest 26th Avenue,33069,26.2304780,-80.1572420
21,South Pompano Parkway,33069,26.2299198,-80.1571830
25,South Pompano Parkway,33069-3001,26.2298140,-80.1581916
2300,West Atlantic Boulevard,33069,26.2279100,-80.1550190
2801,West Atlantic Boulevard,33069,26.2315270,-80.1617980
300,East Atlantic Boulevard,33060,26.2311912,-80.1211969
1400,North Federal Highway,33062,26.2504466,-80.1004057
2500,Northwest 29th Manor,33069,26.2667450,-80.1571320
560,West Sample Road,33064,26.2746788,-80.1315162
2001,North Federal Highway,33062,26.2568044,-80.1016800
119,S Federal Hwy,33062,26.2302606,-80.1031098
3129,Northwest 25th Avenue,33069,26.2701687,-80.1575720
548,South Dixie Highway East,33060,26.2231805,-80.1285896
1296,S Federal Hwy #A,33062,26.2140673,-80.1059146
904,Southwest 2nd Place,33069,26.2271297,-80.1374353
1246,Southwest 6th Street,33069,26.2220774,-80.1404515
1750,South Dixie Highway,33060,26.2084827,-80.1325478
320,Northwest 24th Street,33060,26.2601371,-80.1276060
1360,North Federal Highway,33062,26.2498209,-80.1004765
2350,North Powerline Road,33069,26.2596481,-80.1512960
630,West Sample Road,33064,26.2745414,-80.1323354
1050,West Sample Road,33064,26.2742816,-80.1370226
5001,North Federal Highway,33064,26.2932450,-80.0959300
2900,West Sample Road,33073,26.2726448,-80.1643273
2431,North Federal Highway,33064,26.2620691,-80.1012164
1937,East Atlantic Boulevard,33060,26.2319792,-80.1030279
1000,East Atlantic Boulevard,33060,26.2315371,-80.1127980
2710,West Atlantic Boulevard,33069,26.2299791,-80.1604524
100,Southeast 13th Street,33060,26.2128067,-80.1221533
2033,W McNab Rd,33069,26.2114527,-80.1508170
3773,N Federal Hwy,33064,26.2773408,-80.0975975
1808,NE 50th St,33064,26.2928154,-80.0998538
2001,Federal Highway,33062,26.2574560,-80.1040501
1325,Powerline Road,33069,26.2137766,-80.1569944
2001,N Federal Hwy,33062,26.2566839,-80.1018088
3745,Park Central Boulevard North,33064,26.2670690,-80.1435390
2350,North Powerline Road,33069,26.2596186,-80.1510237
2201,East Atlantic Boulevard,33062,26.2319411,-80.1017523
2209,East Atlantic Boulevard,33062,26.2319419,-80.1016383
2219,East Atlantic Boulevard,33062,26.2319470,-80.1013610
1491,E. Sample Road,33064,26.2756903,-80.1045400
2201,N Andrews Ave Ext,33069,26.2587053,-80.1410997
1322,Northwest 14th Ave,33069,26.2443385,-80.1418323
2380,Hammondville Rd,33069,26.2446810,-80.1552591
1404,Northwest 6th Avenue,33060,26.2455284,-80.1303851
2099,West Atlantic Boulevard,33069,26.2325035,-80.1506851
11,Northeast 3rd Street,33060,26.2344443,-80.1244194
321,Northwest 3rd Avenue,33060,26.2347118,-80.1269608
2319,Northeast 5th Avenue,33064,26.2605600,-80.1164163
3931,Federal Highway,33064,26.2800295,-80.0974643
800,Northwest 31st Avenue,33069,26.2394051,-80.1645419
350,West Copans Road,33064,26.2577191,-80.1304466
880,North Federal Highway,33062,26.2393130,-80.1019848
4301,N Federal Hwy,33064,26.2847066,-80.0967917
138,South Cypress Road,33060,26.2297825,-80.1225055
1472,S Dixie Hwy E,33060,26.2114536,-80.1319215
411,South Cypress Road,33060-7135,26.2251390,-80.1244700
960,North Federal Highway,33062,26.2421927,-80.1008216
200,North Ocean Boulevard,33062,26.2352409,-80.0903534
14,Federal Highway,32062,26.2326031,-80.1024807
3635,Park Central Blvd N,33064,26.2680921,-80.1433364
50,East Atlantic Boulevard,33060-6002,26.2307075,-80.1238813
1955 Suite 209,Federal Highway,33062,26.2569648,-80.1029498
3701,Oaks Clubhouse Drive,33069,26.2240170,-80.1774598
3701,Oaks Clubhouse Drive,33069,26.2199868,-80.1631077
1011,Cypress Village Blvd,33573,26.2143455,-80.1799949
1937,E. Atlantic Blvd,33060,26.2320956,-80.1030688
801,Northeast 25th Street,33064,26.2626922,-80.1140268
851,Southwest 3rd Avenue,33060,26.2186963,-80.1285368
310,Northeast 6th Street,33060,26.2360940,-80.1204572
1501,Northwest 15th Avenue,33069,26.2466005,-80.1444275
1151,West Copans Road,33064,26.2616843,-80.1383711
1800,West Sample Road,33064-1324,26.2734132,-80.1500319
317,West Atlantic Boulevard,33060,26.2320176,-80.1273753
3300,Southeast 5th Street,33062,26.2279753,-80.0924120
1924,East Atlantic Boulevard,33060,26.2315080,-80.1041015
1950,Northeast 6th Street,33060,26.2368814,-80.1040811
3749,Federal Highway,33064,26.2771534,-80.0976807
1955,North Federal Highway,33062,26.2567403,-80.1032065
2901,Federal Highway,33064,26.2676619,-80.0989630
3091,North Federal Highway,33064,26.2689049,-80.0989561
1717,East Sample Road,33064,26.2757748,-80.0995659
1390,South Ocean Boulevard,33062,26.2172009,-80.0915358
2511,East Atlantic Boulevard,33062-5217,26.2331387,-80.0984811
2025,East Atlantic Boulevard,33060,26.2320210,-80.1036108
125,North Riverside Drive,33062,26.2329333,-80.0931312
3051,West Atlantic Boulevard,33069,26.2317276,-80.1650338
2350,West Atlantic Boulevard,33069-2655,26.2305596,-80.1546942
1840,East Atlantic Boulevard,33060,26.2314941,-80.1051721
2500,Northwest 29th Manor,33069,26.2667816,-80.1567942
150,Southwest 6th Street,33060,26.2223215,-80.1247857
2500,NW 29th Manor,33069,26.2675501,-80.1564216
2800,West Sample Road,33069,26.2730968,-80.1629183
3951,Northeast 16th Avenue,33064,26.2802655,-80.1011556
1806,Northeast 6th Street,33060,26.2383178,-80.1051467
2001,Northeast 10th Street,33060,26.2433281,-80.1038377
3220,Northwest 2nd Street,33069,26.2330948,-80.1678888
1190,Northeast 23rd Street,33062,26.2586322,-80.1058393
1140,Southwest 36th Avenue,33069-4835,26.2153009,-80.1714826
259,South Cypress Road,33060,26.2289630,-80.1238591
800,Northwest 31st Avenue,33069,26.2391881,-80.1642283
800,Northwest 31st Avenue,33069,26.2391852,-80.1644613
1230,North Federal Highway,33062,26.2471311,-80.1008576
2315,Federal Highway,33062,26.2604156,-80.1012438
900,South Federal Highway,33062,26.2186793,-80.1045675
3501,Northeast 3rd Avenue,33064,26.2737237,-80.1198490
2880,Center Port Circle,33064,26.2643227,-80.1312706
1350,North Ocean Boulevard,33062,26.2500425,-80.0857783
1201,Northwest 31st Avenue,33069,26.2429416,-80.1662563
1790,Southwest 13th Court,33069,26.2123185,-80.1457565
1401,West McNab Road,33069,26.2114705,-80.1424510
1100,Park Central Boulevard South,33064,26.2650975,-80.1421845
2300,Northeast 10th Street,33062,26.2429302,-80.1008873
1500,Northwest 6th Avenue,33060,26.2461043,-80.1304643
200,North Ocean Boulevard,33062,26.2352382,-80.0901400
870,Southwest 12th Avenue,33069,26.2188841,-80.1372522
1010,Northwest 31st ave,33069,26.2425822,-80.1624858
1000,Northwest 31st Avenue,33069,26.2409113,-80.1627329
951,Northwest 27th Avenue,33069,26.2408500,-80.1600198
930,Northwest 31st Avenue,33069,26.2401495,-80.1649833
800,Northwest 31st Avenue,33069,26.2393668,-80.1647032
800,Northwest 31st Avenue,33069,26.2391576,-80.1650473
1599,North Dixie Highway,33060,26.2495149,-80.1213839
1585,North Dixie Highway,33060,26.2489817,-80.1215040
212,Northwest 16th Street,33060,26.2492939,-80.1255498
1580,Northwest 3rd Avenue,33060,26.2487925,-80.1266949
2600,Northwest 9th Court,33069,26.2406694,-80.1566088
1801,Northeast 6th Street,33060,26.2377905,-80.1053429
600,Northeast 13th Avenue,33060,26.2369388,-80.1101608
600,Northeast 13th Avenue,33060,26.2374634,-80.1096799
2391,Northeast 6th Avenue,33064,26.2606138,-80.1147555
2381,Northeast 6th Avenue,33064,26.2604184,-80.1147457
2371,Northeast 6th Avenue,33064,26.2601976,-80.1147284
2361,Northeast 6th Avenue,33064,26.2600055,-80.1147459
2351,Northeast 6th Avenue,33064,26.2597993,-80.1147220
2341,Northeast 6th Avenue,33064,26.2595792,-80.1147568
2331,Northeast 6th Avenue,33064,26.2593844,-80.1147529
2301,Northeast 6th Avenue,33064,26.2591562,-80.1147476
600,Northeast 23rd Court,33064,26.2591812,-80.1142639
610,Northeast 23rd Court,33064,26.2592681,-80.1140090
620,Northeast 23rd Court,33064,26.2592761,-80.1137848
630,Northeast 23rd Court,33064,26.2592692,-80.1135642
640,Northeast 23rd Court,33064,26.2592932,-80.1133292
650,Northeast 23rd Court,33064,26.2592688,-80.1130956
700,Northeast 23rd Court,33064,26.2592492,-80.1128705
710,Northeast 23rd Court,33064,26.2593006,-80.1126412
720,Northeast 23rd Court,33064,26.2592924,-80.1124108
730,Northeast 23rd Court,33064,26.2592942,-80.1121737
740,Northeast 23rd Court,33064,26.2592768,-80.1119465
2345,Northeast 8th Avenue,33064,26.2597306,-80.1119441
740,Northeast 23rd Place,33064,26.2599793,-80.1119521
730,Northeast 23rd Place,33064,26.2600158,-80.1122080
720,Northeast 23rd Place,33064,26.2599773,-80.1124205
710,Northeast 23rd Place,33064,26.2599832,-80.1126443
700,Northeast 23rd Place,33064,26.2599845,-80.1128929
650,Northeast 23rd Place,33064,26.2599677,-80.1131094
640,Northeast 23rd Place,33064,26.2599690,-80.1133492
630,Northeast 23rd Place,33064,26.2599755,-80.1135783
620,Northeast 23rd Place,33064,26.2599517,-80.1138059
610,Northeast 23rd Place,33064,26.2599674,-80.1140325
600,Northeast 23rd Place,33064,26.2599458,-80.1142900
601,Northeast 23rd Court,33064,26.2596925,-80.1142985
611,Northeast 23rd Court,33064,26.2596687,-80.1140345
621,Northeast 23rd Court,33064,26.2596713,-80.1137896
631,Northeast 23rd Court,33064,26.2596795,-80.1135754
641,Northeast 23rd Court,33064,26.2596946,-80.1133342
651,Northeast 23rd Court,33064,26.2597099,-80.1131166
701,Northeast 23rd Court,33064,26.2596889,-80.1128748
711,Northeast 23rd Court,33064,26.2596878,-80.1126651
721,Northeast 23rd Court,33064,26.2597033,-80.1124008
731,Northeast 23rd Court,33064,26.2596902,-80.1122012
2381,Northeast 8th Avenue,33064,26.2604165,-80.1119286
731,Northeast 23rd Place,33064,26.2603754,-80.1122113
721,Northeast 23rd Place,33064,26.2603748,-80.1124288
711,Northeast 23rd Place,33064,26.2603702,-80.1126689
701,Northeast 23rd Place,33064,26.2603768,-80.1128845
651,Northeast 23rd Place,33064,26.2603655,-80.1131252
641,Northeast 23rd Place,33064,26.2603894,-80.1133428
631,Northeast 23rd Place,33064,26.2603482,-80.1135831
621,Northeast 23rd Place,33064,26.2603431,-80.1137934
611,Northeast 23rd Place,33064,26.2603714,-80.1140420
600,Northeast 24th Street,33064,26.2606156,-80.1142544
601,Northeast 23rd Place,33064,26.2603686,-80.1142788
610,Northeast 24th Street,33064,26.2606513,-80.1140262
620,Northeast 24th Street,33064,26.2606455,-80.1138174
630,Northeast 24th Street,33064,26.2606632,-80.1135871
640,Northeast 24th Street,33064,26.2606732,-80.1133586
650,Northeast 24th Street,33064,26.2606588,-80.1131154
700,Northeast 24th Street,33064,26.2606654,-80.1129004
710,Northeast 24th Street,33064,26.2606846,-80.1126570
720,Northeast 24th Street,33064,26.2606853,-80.1124265
730,Northeast 24th Street,33064,26.2606647,-80.1121783
740,Northeast 24th Street,33064,26.2606738,-80.1119634
800,Northeast 24th Street,33064,26.2607213,-80.1114765
2380,Northeast 8th Avenue,33064,26.2604722,-80.1115182
2370,Northeast 8th Avenue,33064,26.2602613,-80.1115091
2360,Northeast 8th Avenue,33064,26.2600712,-80.1114980
2330,Northeast 8th Avenue,33064,26.2594408,-80.1114889
2300,Northeast 8th Avenue,33064,26.2592279,-80.1115099
2340,Northeast 8th Avenue,33064,26.2596597,-80.1115121
2350,Northeast 8th Avenue,33064,26.2598662,-80.1115191
2351,Northeast 9th Avenue,33064,26.2598718,-80.1111947
2341,Northeast 9th Avenue,33064,26.2596669,-80.1111634
2331,Northeast 9th Avenue,33064,26.2594611,-80.1111715
2301,Northeast 9th Avenue,33064,26.2592331,-80.1111889
2361,Northeast 9th Avenue,33064,26.2600660,-80.1112171
2371,Northeast 9th Avenue,33064,26.2602870,-80.1111777
2381,Northeast 9th Avenue,33064,26.2604808,-80.1111682
811,Northeast 24th Street,33064,26.2611621,-80.1116325
801,Northeast 24th Street,33064,26.2611429,-80.1118309
731,Northeast 24th Street,33064,26.2611862,-80.1122517
711,Northeast 24th Street,33064,26.2611190,-80.1126593
721,Northeast 24th Street,33064,26.2611467,-80.1124364
651,Northeast 24th Street,33064,26.2611481,-80.1130582
701,Northeast 24th Street,33064,26.2611389,-80.1128701
631,Northeast 24th Street,33064,26.2611485,-80.1134845
641,Northeast 24th Street,33064,26.2611345,-80.1132883
611,Northeast 24th Street,33064,26.2611381,-80.1138720
2410,Northeast 6th Avenue,33064,26.2612474,-80.1140922
2420,Northeast 6th Avenue,33064,26.2614283,-80.1140252
2430,Northeast 6th Avenue,33064,26.2615942,-80.1139804
2400,Northeast 6th Avenue,33064,26.2610779,-80.1141391
621,Northeast 24th Street,33064,26.2611563,-80.1136671
741,Northeast 24th Street,33064,26.2611677,-80.1120379
2421,Northeast 6th Avenue,33064,26.2613064,-80.1146149
2410,Northeast 8th Terrace,33064,26.2613458,-80.1112240
2420,Northeast 8th Terrace,33064,26.2615341,-80.1111960
2430,Northeast 8th Terrace,33064,26.2617433,-80.1112242
2431,Northeast 9th Avenue,33064,26.2617608,-80.1108459
2421,Northeast 9th Avenue,33064,26.2615698,-80.1108450
2411,Northeast 9th Avenue,33064,26.2613755,-80.1108559
2401,Northeast 9th Avenue,33064,26.2611785,-80.1108483
2400,Northeast 8th Terrace,33064,26.2611507,-80.1112098
2410,Northeast 8th Terrace,33064,26.2613590,-80.1110720
2440,Northeast 8th Terrace,33064,26.2619891,-80.1111203
2500,Northeast 8th Terrace,33064,26.2621672,-80.1111325
2510,Northeast 8th Terrace,33064,26.2623579,-80.1111257
2520,Northeast 8th Terrace,33064,26.2625424,-80.1111112
2521,Northeast 9th Avenue,33064,26.2625406,-80.1108761
2511,Northeast 9th Avenue,33064,26.2623407,-80.1108602
2501,Northeast 9th Avenue,33064,26.2621446,-80.1108569
2441,Northeast 9th Avenue,33064,26.2619550,-80.1108436
1319,East Sample Road,33064,26.2756907,-80.1049534
1624,Northeast 31st Court,33064,26.2695311,-80.1011655
1636,Northeast 31st Court,33064,26.2695345,-80.1009713
1648,Northeast 31st Court,33064,26.2695478,-80.1007684
1660,Northeast 31st Court,33064,26.2695444,-80.1005690
1672,Northeast 31st Court,33064,26.2695393,-80.1003863
1684,Northeast 31st Court,33064,26.2695535,-80.1001622
1651,Northeast 31st Court,33064,26.2699371,-80.1001792
1641,Northeast 31st Court,33064,26.2699351,-80.1003995
1631,Northeast 31st Court,33064,26.2699108,-80.1006136
1611,Northeast 31st Court,33064,26.2699247,-80.1010402
1621,Northeast 31st Court,33064,26.2699186,-80.1008245
2520,Northeast 10th Avenue,33064,26.2625794,-80.1090923
2521,Northeast 10th Terrace,33064,26.2625735,-80.1088455
2510,Northeast 10th Avenue,33064,26.2623711,-80.1091005
2511,Northeast 10th Terrace,33064,26.2623789,-80.1088163
2500,Northeast 10th Avenue,33064,26.2621867,-80.1090700
2501,Northeast 10th Terrace,33064,26.2621839,-80.1088339
2440,Northeast 10th Avenue,33064,26.2619952,-80.1090883
2441,Northeast 10th Terrace,33064,26.2619910,-80.1088186
2430,Northeast 10th Avenue,33064,26.2617976,-80.1090382
2431,Northeast 10th Terrace,33064,26.2617994,-80.1088037
2430,Northeast 10th Terrace,33064,26.2618070,-80.1083850
2440,Northeast 10th Terrace,33064,26.2619992,-80.1083874
2500,Northeast 10th Terrace,33064,26.2621909,-80.1083972
2520,Northeast 10th Terrace,33064,26.2625849,-80.1083804
2510,Northeast 10th Terrace,33064,26.2623841,-80.1084020
2420,Northeast 10th Terrace,33064,26.2616165,-80.1083786
2410,Northeast 10th Terrace,33064,26.2614192,-80.1083837
2400,Northeast 10th Terrace,33064,26.2612210,-80.1083620
2420,Northeast 10th Avenue,33064,26.2616053,-80.1090694
2410,Northeast 10th Avenue,33064,26.2614090,-80.1090598
2400,Northeast 10th Avenue,33064,26.2612156,-80.1090450
2401,Northeast 10th Terrace,33064,26.2612150,-80.1088127
2411,Northeast 10th Terrace,33064,26.2614116,-80.1088039
2421,Northeast 10th Terrace,33064,26.2616090,-80.1088066
2431,Northeast 10th Avenue,33064,26.2617847,-80.1094895
2421,Northeast 10th Avenue,33064,26.2615953,-80.1094859
2411,Northeast 10th Avenue,33064,26.2614028,-80.1094806
2401,Northeast 10th Avenue,33064,26.2612008,-80.1094929
2400,Northeast 9th Terrace,33064,26.2611979,-80.1097246
2410,Northeast 9th Terrace,33064,26.2613931,-80.1097482
2420,Northeast 9th Terrace,33064,26.2615926,-80.1097587
2430,Northeast 9th Terrace,33064,26.2617837,-80.1097573
2440,Northeast 9th Terrace,33064,26.2619748,-80.1097573
2500,Northeast 9th Terrace,33064,26.2621652,-80.1097610
2510,Northeast 9th Terrace,33064,26.2623598,-80.1097543
2511,Northeast 10th Avenue,33064,26.2623660,-80.1095111
2501,Northeast 10th Avenue,33064,26.2621738,-80.1095181
2441,Northeast 10th Avenue,33064,26.2619777,-80.1094919
2521,Northeast 10th Avenue,33064,26.2625671,-80.1095318
2520,Northeast 9th Terrace,33064,26.2625566,-80.1097501
2520,Northeast 9th Avenue,33064,26.2625461,-80.1104330
2521,Northeast 9th Terrace,33064,26.2625540,-80.1102053
2510,Northeast 9th Avenue,33064,26.2623487,-80.1104429
2511,Northeast 9th Terrace,33064,26.2623520,-80.1101709
2500,Northeast 9th Avenue,33064,26.2621542,-80.1104388
2501,Northeast 9th Terrace,33064,26.2621574,-80.1101789
2441,Northeast 9th Terrace,33064,26.2619666,-80.1101759
2440,Northeast 9th Avenue,33064,26.2619628,-80.1104421
2431,Northeast 9th Terrace,33064,26.2617783,-80.1101733
2421,Northeast 9th Terrace,33064,26.2615785,-80.1101563
2420,Northeast 9th Avenue,33064,26.2615788,-80.1104222
2410,Northeast 9th Avenue,33064,26.2613819,-80.1104070
2411,Northeast 9th Terrace,33064,26.2613904,-80.1101489
2401,Northeast 9th Terrace,33064,26.2611888,-80.1101726
2400,Northeast 9th Avenue,33064,26.2611972,-80.1103973
2430,Northeast 9th Avenue,33064,26.2617663,-80.1104319
1251,East Sample Road,33064,26.2756729,-80.1066262
3170,Northeast 12th Terrace,33064,26.2712269,-80.1058638
3171,Northeast 13th Avenue,33064,26.2712165,-80.1056561
3151,Northeast 13th Avenue,33064,26.2707994,-80.1056167
3161,Northeast 13th Avenue,33064,26.2710244,-80.1056222
3141,Northeast 13th Avenue,33064,26.2706309,-80.1056167
3131,Northeast 13th Avenue,33064,26.2704095,-80.1056381
3121,Northeast 13th Avenue,33064,26.2702250,-80.1056420
3111,Northeast 13th Avenue,33064,26.2700285,-80.1056204
3081,Northeast 13th Avenue,33064,26.2698106,-80.1056066
3071,Northeast 13th Avenue,33064,26.2696129,-80.1055941
3061,Northeast 13th Avenue,33064,26.2694256,-80.1056066
3051,Northeast 13th Avenue,33064,26.2692402,-80.1055947
3041,Northeast 13th Avenue,33064,26.2690526,-80.1056113
3031,Northeast 13th Avenue,33064,26.2688230,-80.1055773
3021,Northeast 13th Avenue,33064,26.2686299,-80.1055832
3011,Northeast 13th Avenue,33064,26.2684498,-80.1055782
3160,Northeast 12th Terrace,33064,26.2709967,-80.1058810
3150,Northeast 12th Terrace,33064,26.2708052,-80.1058849
3140,Northeast 12th Terrace,33064,26.2705984,-80.1058389
3130,Northeast 12th Terrace,33064,26.2704243,-80.1058594
3120,Northeast 12th Terrace,33064,26.2702040,-80.1058791
3110,Northeast 12th Terrace,33064,26.2700213,-80.1058564
3080,Northeast 12th Terrace,33064,26.2698250,-80.1058623
3070,Northeast 12th Terrace,33064,26.2696198,-80.1058394
3190,Northeast 13th Avenue,33064,26.2714730,-80.1051633
3090,Northeast 13th Avenue,33064,26.2698272,-80.1051893
3080,Northeast 13th Avenue,33064,26.2696495,-80.1051635
3070,Northeast 13th Avenue,33064,26.2694764,-80.1051533
3060,Northeast 13th Avenue,33064,26.2693084,-80.1051559
3050,Northeast 13th Avenue,33064,26.2691359,-80.1051676
3040,Northeast 13th Avenue,33064,26.2689553,-80.1051562
3030,Northeast 13th Avenue,33064,26.2687679,-80.1051562
3020,Northeast 13th Avenue,33064,26.2685601,-80.1051400
3010,Northeast 13th Avenue,33064,26.2684100,-80.1051524
3110,Northeast 13th Avenue,33064,26.2700065,-80.1051783
3120,Northeast 13th Avenue,33064,26.2701853,-80.1051764
3130,Northeast 13th Avenue,33064,26.2703723,-80.1051881
3140,Northeast 13th Avenue,33064,26.2705501,-80.1051795
3150,Northeast 13th Avenue,33064,26.2707428,-80.1052124
3160,Northeast 13th Avenue,33064,26.2709092,-80.1052034
3170,Northeast 13th Avenue,33064,26.2710820,-80.1052002
3180,Northeast 13th Avenue,33064,26.2712594,-80.1052189
1612,Northeast 31st Court,33064,26.2695372,-80.1013677
1584,Northeast 31st Court,33064,26.2695271,-80.1015557
1572,Northeast 31st Court,33064,26.2695405,-80.1017567
1560,Northeast 31st Court,33064,26.2695363,-80.1019556
1548,Northeast 31st Court,33064,26.2695040,-80.1021617
1536,Northeast 31st Court,33064,26.2695256,-80.1023462
1524,Northeast 31st Court,33064,26.2695341,-80.1025527
1512,Northeast 31st Court,33064,26.2695230,-80.1027441
1501,Northeast 31st Court,33064,26.2699128,-80.1027451
1511,Northeast 31st Court,33064,26.2698995,-80.1025360
1521,Northeast 31st Court,33064,26.2699073,-80.1023232
1531,Northeast 31st Court,33064,26.2699128,-80.1021147
1541,Northeast 31st Court,33064,26.2699060,-80.1018933
1551,Northeast 31st Court,33064,26.2699054,-80.1016807
1561,Northeast 31st Court,33064,26.2699020,-80.1014660
1601,Northeast 31st Court,33064,26.2699261,-80.1012521
3060,Northeast 12th Terrace,33064,26.2694286,-80.1058350
3050,Northeast 12th Terrace,33064,26.2692229,-80.1058310
3040,Northeast 12th Terrace,33064,26.2690528,-80.1058263
3030,Northeast 12th Terrace,33064,26.2688147,-80.1058350
3020,Northeast 12th Terrace,33064,26.2686193,-80.1058196
3010,Northeast 12th Terrace,33064,26.2684358,-80.1058209
3010,Northeast 12th Avenue,33064,26.2684196,-80.1064928
3020,Northeast 12th Avenue,33064,26.2686190,-80.1065036
3030,Northeast 12th Avenue,33064,26.2688096,-80.1065150
3040,Northeast 12th Avenue,33064,26.2689849,-80.1065123
3050,Northeast 12th Avenue,33064,26.2691863,-80.1065113
3060,Northeast 12th Avenue,33064,26.2694193,-80.1065297
3070,Northeast 12th Avenue,33064,26.2695952,-80.1065193
3080,Northeast 12th Avenue,33064,26.2698045,-80.1065036
3110,Northeast 12th Avenue,33064,26.2699918,-80.1065100
3120,Northeast 12th Avenue,33064,26.2702163,-80.1065455
3130,Northeast 12th Avenue,33064,26.2703892,-80.1065230
3140,Northeast 12th Avenue,33064,26.2705939,-80.1065408
3150,Northeast 12th Avenue,33064,26.2708122,-80.1065274
3160,Northeast 12th Avenue,33064,26.2710067,-80.1065737
3170,Northeast 12th Avenue,33064,26.2712037,-80.1065391
3171,Northeast 12th Terrace,33064,26.2712084,-80.1063051
3161,Northeast 12th Terrace,33064,26.2709914,-80.1063209
3151,Northeast 12th Terrace,33064,26.2708098,-80.1062826
3141,Northeast 12th Terrace,33064,26.2705906,-80.1063158
3131,Northeast 12th Terrace,33064,26.2704016,-80.1063047
3121,Northeast 12th Terrace,33064,26.2701944,-80.1062675
3111,Northeast 12th Terrace,33064,26.2700257,-80.1062823
3081,Northeast 12th Terrace,33064,26.2697996,-80.1062773
3071,Northeast 12th Terrace,33064,26.2696313,-80.1062903
3061,Northeast 12th Terrace,33064,26.2694022,-80.1062541
3051,Northeast 12th Terrace,33064,26.2691881,-80.1062595
3041,Northeast 12th Terrace,33064,26.2690155,-80.1062611
3031,Northeast 12th Terrace,33064,26.2688246,-80.1062591
3021,Northeast 12th Terrace,33064,26.2686112,-80.1062575
3011,Northeast 12th Terrace,33064,26.2684254,-80.1062528
3011,Northeast 12th Avenue,33064,26.2683665,-80.1069193
3021,Northeast 12th Avenue,33064,26.2685405,-80.1069572
3031,Northeast 12th Avenue,33064,26.2687321,-80.1069156
3041,Northeast 12th Avenue,33064,26.2689227,-80.1069445
3051,Northeast 12th Avenue,33064,26.2691201,-80.1069559
3061,Northeast 12th Avenue,33064,26.2693138,-80.1069327
3071,Northeast 12th Avenue,33064,26.2694818,-80.1069519
3081,Northeast 12th Avenue,33064,26.2697077,-80.1069542
3111,Northeast 12th Avenue,33064,26.2698886,-80.1069509
3121,Northeast 12th Avenue,33064,26.2700964,-80.1069686
3131,Northeast 12th Avenue,33064,26.2702822,-80.1069438
3141,Northeast 12th Avenue,33064,26.2704674,-80.1069536
3151,Northeast 12th Avenue,33064,26.2706700,-80.1069659
3161,Northeast 12th Avenue,33064,26.2708561,-80.1069660
3171,Northeast 12th Avenue,33064,26.2710467,-80.1069673
3181,Northeast 12th Avenue,33064,26.2712551,-80.1069951
1290,Northeast 33rd Street,33064,26.2716656,-80.1052461
1280,Northeast 33rd Street,33064,26.2716707,-80.1054748
1270,Northeast 33rd Street,33064,26.2716400,-80.1056549
1260,Northeast 33rd Street,33064,26.2716292,-80.1058654
1240,Northeast 33rd Street,33064,26.2716328,-80.1062922
1231,Northeast 33rd Street,33064,26.2716325,-80.1064833
1221,Northeast 33rd Street,33064,26.2716400,-80.1066814
1211,Northeast 33rd Street,33064,26.2716334,-80.1068859
1250,Northeast 33rd Street,33064,26.2716587,-80.1060803
3191,Northeast 11th Terrace,33064,26.2716337,-80.1073195
3181,Northeast 11th Terrace,33064,26.2715087,-80.1075780
3171,Northeast 11th Terrace,33064,26.2712603,-80.1076430
3161,Northeast 11th Terrace,33064,26.2710526,-80.1076494
3151,Northeast 11th Terrace,33064,26.2708569,-80.1076319
3141,Northeast 11th Terrace,33064,26.2706693,-80.1076250
3131,Northeast 11th Terrace,33064,26.2704727,-80.1076289
3121,Northeast 11th Terrace,33064,26.2702790,-80.1076226
3111,Northeast 11th Terrace,33064,26.2700911,-80.1076199
3101,Northeast 11th Terrace,33064,26.2698981,-80.1076139
3071,Northeast 11th Terrace,33064,26.2697110,-80.1076290
3061,Northeast 11th Terrace,33064,26.2695006,-80.1076252
3051,Northeast 11th Terrace,33064,26.2693182,-80.1076092
3041,Northeast 11th Terrace,33064,26.2691296,-80.1076145
3031,Northeast 11th Terrace,33064,26.2689331,-80.1075931
3021,Northeast 11th Terrace,33064,26.2687403,-80.1075853
3011,Northeast 11th Terrace,33064,26.2685458,-80.1075860
3001,Northeast 11th Terrace,33064,26.2683674,-80.1075763
3170,Northeast 11th Terrace,33064,26.2712411,-80.1072314
3160,Northeast 11th Terrace,33064,26.2710814,-80.1072437
3150,Northeast 11th Terrace,33064,26.2708569,-80.1072350
3140,Northeast 11th Terrace,33064,26.2706731,-80.1072162
3130,Northeast 11th Terrace,33064,26.2704799,-80.1072022
3120,Northeast 11th Terrace,33064,26.2702887,-80.1072095
3110,Northeast 11th Terrace,33064,26.2700971,-80.1072025
3100,Northeast 11th Terrace,33064,26.2699035,-80.1072072
3070,Northeast 11th Terrace,33064,26.2697187,-80.1071877
3060,Northeast 11th Terrace,33064,26.2695220,-80.1071834
3050,Northeast 11th Terrace,33064,26.2693226,-80.1071821
3040,Northeast 11th Terrace,33064,26.2691338,-80.1071981
3030,Northeast 11th Terrace,33064,26.2689400,-80.1071924
3020,Northeast 11th Terrace,33064,26.2687521,-80.1071766
3000,Northeast 11th Terrace,33064,26.2683741,-80.1071770
3010,Northeast 11th Terrace,33064,26.2685548,-80.1071904
1101,Northeast 33rd Street,33064,26.2722756,-80.1075608
1117,Northeast 3rd Avenue,33060,26.2425900,-80.1215285
2600,N Palm Aire Dr,33069,26.2200110,-80.1722210
