House number,Street name,Postal code,Latitude,Longitude
260,1st Avenue North,33701,27.7719014,-82.6366239
1997,54th Avenue North,33702,27.8216920,-82.6595430
1344,22nd Street South,33712,27.7568972,-82.6625174
6280,Central Avenue,33707,27.7705827,-82.7217671
2901,54th Avenue South,33712,27.7207545,-82.6722826
845,87th Avenue North,33702,27.8519370,-82.6461040
500,7th Avenue South,33701,27.7625907,-82.6405328
603,7th Street South,33701,27.7637550,-82.6435869
603,7th Street South,33701,27.7635737,-82.6435787
2401,53rd Street South,33707,27.7470560,-82.7056923
2401,53rd Street South,33707,27.7464409,-82.7057011
1126,62nd Avenue North,33702,27.8280340,-82.6476730
200,37th Avenue North,33704-1416,27.8063451,-82.6352988
212,37th Avenue Northeast,33704,27.8057301,-82.6353331
294,37th Avenue North,33704,27.8056540,-82.6367840
1900,4th Street North,33704,27.7897595,-82.6390159
1908,4th Street North,33704,27.7899500,-82.6390360
104,2nd Street South,33701,27.7701500,-82.6353500
535,16th Street North,33705,27.7781027,-82.6545216
332,Beach Drive Northeast,33701:33704,27.7758430,-82.6320370
2808,4th Street North,33704,27.7978651,-82.6387412
3030,54th Avenue South,33712-4614,27.7182970,-82.6738521
95,Central Avenue,33701,27.7714160,-82.6337400
10,Beach Drive Southeast,33701,27.7714200,-82.6335180
277,Central Avenue,33701,27.7713863,-82.6368671
265,Central Avenue,33701,27.7713890,-82.6367474
208,1st Avenue North,33701,27.7719190,-82.6358310
210,1st Avenue North,33701,27.7719190,-82.6359170
216,1st Avenue North,33701,27.7719138,-82.6362210
270,1st Avenue North,33701,27.7719076,-82.6368400
7999,9th Street North,33702,27.8454410,-82.6437820
111,2nd Avenue Northeast,33701,27.7739180,-82.6336130
3169,4th Street North,33704,27.8010410,-82.6377190
4301,4th Street North,33703,27.8114120,-82.6382340
3463,4th Street North,33704,27.8036250,-82.6380870
114,7th Street North,33701,27.7723987,-82.6441723
4946,4th Street North,33703,27.8171860,-82.6389170
4946,4th Street North,33703,27.8174370,-82.6389060
4946,4th Street North,33703,27.8172640,-82.6389110
6151,4th Street North,33703,27.8278260,-82.6383320
2030,Central Avenue,33713,27.7708630,-82.6605830
1752,Central Avenue,33712,27.7708850,-82.6574210
5020,4th Street North,33703,27.8181870,-82.6391500
5032,4th Street North,33703,27.8183970,-82.6391530
5028,4th Street North,33703,27.8183000,-82.6391520
2220,4th Street North,33704,27.7925170,-82.6388820
1951,4th Street North,33704,27.7902280,-82.6382640
204,2nd Avenue South,33701,27.7692800,-82.6358600
237,2nd Avenue South,33701,27.7696431,-82.6364876
260,1st Avenue South,33701,27.7700989,-82.6364093
129,2nd Street North,33701,27.7725410,-82.6353380
280,2nd Avenue South,33701,27.7686093,-82.6357893
154,Beach Drive,33701,27.7729330,-82.6331890
251,Central Avenue,33701,27.7713880,-82.6364550
103,2nd Avenue North,33701,27.7737724,-82.6343324
304,2nd Avenue South,33701,27.7684524,-82.6357909
201,Central Avenue,33701,27.7713910,-82.6357610
101,1st Avenue North,33701,27.7723381,-82.6368860
263,Central Avenue,33701,27.7713890,-82.6365938
211,2nd Street South,33701,27.7690960,-82.6357610
300,2nd Avenue South,33701,27.7685220,-82.6357874
264,2nd Avenue South,33701,27.7688101,-82.6357918
239,2nd Avenue South,33701,27.7696429,-82.6365988
233,Central Avenue,33701,27.7713897,-82.6361810
200,1st Avenue South,33701,27.7701070,-82.6357450
146,2nd Street North,33701,27.7730953,-82.6358536
308,2nd Avenue South,33701,27.7683890,-82.6357870
330,1st Avenue South,33701,27.7700960,-82.6375400
109,1st Avenue North,33701:33704,27.7723390,-82.6353390
235,2nd Avenue South,33701,27.7696448,-82.6363566
200,Central Avenue,33701,27.7709737,-82.6357920
300,1st Avenue South,33701,27.7700990,-82.6372790
5048,4th Street North,33703,27.8185910,-82.6391040
701,1st Avenue North,33701,27.7721980,-82.6440690
5242,4th Street North,33703,27.8198601,-82.6391616
1,Valpak  Avenue North,33716,27.8636963,-82.6663568
1,HSN Drive,33729,27.8828450,-82.6666900
4650,4th Street North,33703,27.8146245,-82.6390027
4600,4th Street North,33703,27.8143790,-82.6389955
4200,4th Street North,33703,27.8106790,-82.6389410
4301,4th Street North,33704,27.8115120,-82.6381520
4401,4th Street North,33704,27.8124020,-82.6383050
4601,4th Street North,33703,27.8141773,-82.6382269
4601,4th Street North,33703,27.8143652,-82.6383487
231,Central Avenue,33701,27.7713910,-82.6361170
900,Carillon Pkwy,33716,27.8928592,-82.6674511
150,Ulmerton Rd,33716,27.8926731,-82.6606276
10515,Gandy Boulevard,33716,27.8670321,-82.6285338
10496,Roosevelt Boulevard North,33716,27.8670123,-82.6462155
1049,62nd Avenue North,33702,27.8298740,-82.6487840
1051,62nd Avenue North,33702,27.8299090,-82.6494090
1050,62nd Avenue North,33702,27.8281064,-82.6491741
1018,62nd Avenue North,33703,27.8281130,-82.6483320
6161,Jefferson Circle Southeast,33703,27.8281750,-82.6378970
7043,4th Street North,33702,27.8364554,-82.6382560
8501,4th Street North,33702,27.8501322,-82.6384017
1742,Central Avenue,33713,27.7708740,-82.6572230
1750,Central Avenue,33713,27.7708860,-82.6573270
1052,4th Street North,33701,27.7831350,-82.6387720
4193,34th Street South,33711,27.7300308,-82.6797329
4195,34th Street South,33711,27.7299521,-82.6797353
4199,34th Street South,33711,27.7298559,-82.6797378
2201,66th Street North,33710,27.7910948,-82.7278333
11018,4th St N,33716,27.8724203,-82.6398805
11140,4th Street North,33716,27.8736905,-82.6403159
11100,4th Street North,33716,27.8732006,-82.6404030
11012,4th Street North,33716,27.8723971,-82.6397924
11002,4th Street North,33716,27.8724032,-82.6394823
11006,4th Street North,33716,27.8723971,-82.6395843
2462,Central Avenue,33712,27.7708133,-82.6669930
2435,Central Avenue,33713,27.7712283,-82.6665422
150,Fountain Parkway North,33716,27.8928276,-82.6606242
10300,Roosevelt Boulevard North,33716,27.8657290,-82.6423640
2659,Ulmerton Road,33729,27.8944309,-82.6696018
5355,9th Street North,33702,27.8210092,-82.6465720
881,Lake Carillon Drive,33729,27.8911187,-82.6683726
720,Central Avenue,33701,27.7708005,-82.6442679
919,1st Avenue North,33701,27.7722870,-82.6474044
300,3rd Street South,33705,27.7699560,-82.6374270
1418,66th Street North,33710,27.7857070,-82.7289056
1410,66th Street,33710,27.7856151,-82.7289083
6690,Crosswinds Drive North,33710,27.7883527,-82.7314914
2420,66th Street North,33710,27.7942274,-82.7289280
2755,Tyrone Boulevard North,33709,27.7969468,-82.7335768
2805,Tyrone Boulevard North,33709,27.7971145,-82.7338600
3993,Tyrone Boulevard,33709,27.8096332,-82.7527432
10454,Roosevelt Boulevard North,33716,27.8668949,-82.6447735
9099,4th Street North,33702,27.8547540,-82.6383020
477,90th Avenue North,33702,27.8546405,-82.6404161
8801,4th Street North,33702,27.8527900,-82.6383570
101,2nd Avenue Northeast,33701,27.7738300,-82.6334080
120,6th Avenue South,33701,27.7634415,-82.6344608
121,7th Avenue South,33701,27.7633277,-82.6344608
244,2nd Avenue North,33701,27.7732826,-82.6368618
2408,Tyrone Boulevard,33710,27.7931267,-82.7312786
2424,Tyrone Boulevard,33710,27.7932418,-82.7316042
700,Carillon Parkway,33729,27.8878300,-82.6685840
56,9th Street North,33705,27.7718257,-82.6468726
900,1st Avenue North,33705,27.7718611,-82.6468745
1011,1st Avenue North,33705,27.7722730,-82.6488690
1011,1st Avenue North,33705,27.7722170,-82.6489060
1001,1st Avenue North,33705,27.7722110,-82.6482830
915,1st Avenue North,33701,27.7722350,-82.6473386
917,1st Avenue North,33701,27.7722868,-82.6473564
190,37th Avenue Northeast,33704,27.8071010,-82.6352920
1305,Snell Isle Boulevard NE,33704,27.7997190,-82.6101480
1376,Snell Isle Boulevard NE,33704,27.8023805,-82.6100240
204,Beach Drive,33701,27.7737000,-82.6329190
170,Beach Drive,33701,27.7733130,-82.6331050
5811,4th Street North,33703,27.8249042,-82.6382222
575,Central Avenue,33701,27.7713577,-82.6415165
242,1st Avenue North,33701,27.7718990,-82.6363814
5511,9th Street North,33703,27.8223100,-82.6465970
1597,62nd Avenue North,33703,27.8288150,-82.6546810
4301,4th Street North,33704,27.8116180,-82.6381490
101,1st Avenue North,33701:33704,27.7722930,-82.6353100
129,2nd Street North,33701,27.7726180,-82.6353350
3239,4th Street North,33704,27.8032590,-82.6381710
4946,4th Street North,33703,27.8173510,-82.6389100
2232,4th Street North,33704,27.7929238,-82.6388090
221,1st Street North,33701,27.7741640,-82.6338160
128,3rd Street South,33701,27.7696597,-82.6368612
149,1st Avenue North,33701,27.7723009,-82.6348209
915,Central Avenue,33701,27.7713227,-82.6473269
933,Central Avenue,33701,27.7713044,-82.6476253
905,Central Avenue,33701,27.7713200,-82.6469860
10466,Roosevelt Boulevard North,33716,27.8668929,-82.6450904
2227,22nd Avenue North,33710,27.7925740,-82.6708210
2842,9th Street North,33704,27.7984008,-82.6470163
2747,38th Avenue North,33714,27.8067650,-82.6711100
3934,49th Street,33709,27.8079201,-82.7003709
3000,49th Street,33710-2726,27.7993661,-82.7004640
6575,Central Avenue,33710,27.7711760,-82.7280970
370,53rd Avenue North,33703,27.8204070,-82.6384390
3501,49th Street North,33710,27.8042516,-82.6988228
898,49th Street North,33710,27.7805213,-82.7005315
3431,49th Street North,33710,27.8033739,-82.6995456
3187,4th Street North,33704,27.8014601,-82.6377903
1054,4th Street North,33701,27.7832390,-82.6387699
900,4th Street North,33701,27.7813520,-82.6387400
6030,1st Street North,33703,27.8274310,-82.6348810
175,62nd Avenue North,33702,27.8289700,-82.6353940
215,1st Street North,33701,27.7739530,-82.6338118
100,1st Avenue North,33701,27.7737600,-82.6336670
600,4th Street South,33701-4846,27.7640420,-82.6375350
1507,4th Street North,33704,27.7869540,-82.6382600
780,4th Street North,33701,27.7801320,-82.6387630
750,4th Street North,33701,27.7800341,-82.6387617
740,4th Street North,33701,27.7799114,-82.6387560
1116,9th St N,33705,27.7832850,-82.6469430
676,2nd Avenue South,33701,27.7691429,-82.6430509
653,Central Avenue,33701,27.7713542,-82.6426904
651,Central Avenue,33701,27.7713544,-82.6426345
655,Central Avenue,33701,27.7713539,-82.6427548
649,Central Avenue,33701,27.7713547,-82.6425800
645,Central Avenue,33701,27.7713550,-82.6425149
645,Central Avenue,33701,27.7713552,-82.6424662
635,Central Avenue,33701,27.7713555,-82.6423965
633,Central Avenue,33701,27.7713557,-82.6423669
627,Central Avenue,33701,27.7713533,-82.6422876
2820,1st Avenue North,33713,27.7716961,-82.6717589
621,Central Avenue,33701,27.7713532,-82.6421733
615,Central Avenue,33701,27.7713569,-82.6420928
611,Central Avenue,33701,27.7713581,-82.6420382
3100,1st Avenue North,33713,27.7715869,-82.6756257
660,Central Avenue,33701,27.7709983,-82.6428325
540,1st Street Southeast,33701,27.7646902,-82.6333298
2000,4th Street North,33704,27.7906020,-82.6387360
3185,4th Street North,33704,27.8014580,-82.6377230
4949,4th Street North,33703,27.8169860,-82.6381180
5931,4th Street North,33703,27.8258080,-82.6381330
9346,4th Street North,33702,27.8571900,-82.6391480
1,Beach Drive Southeast,33701,27.7704970,-82.6335290
2600,9th Street North,33704,27.7961910,-82.6470120
2339,9th Street North,33704,27.7937310,-82.6465030
126,11th Avenue Northeast,33701,27.7827770,-82.6337270
1100,Central Avenue,33705,27.7709480,-82.6499770
1437,Central Avenue,33705,27.7712825,-82.6539520
1626,Central Avenue,33712,27.7709383,-82.6555050
284,Beach Drive Northeast,33701,27.7747580,-82.6325590
2040,16th Street North,33704,27.7908502,-82.6553398
2050,16th Street North,33704,27.7909249,-82.6553414
1120,Central Avenue,33705,27.7709470,-82.6506231
310,Central Avenue,33701,27.7710100,-82.6374950
8051,Drive Martin Luther King Jr Street North,33702,27.8457450,-82.6437750
8151,9th Street North,33702-4111,27.8464090,-82.6435640
7777,Doctor Martin Luther King Junior Street North,33702,27.8439020,-82.6441670
7711,Drive MLK Jr Street North,33702,27.8434510,-82.6442210
196,37th Avenue North,33704,27.8069770,-82.6353080
169,1st Avenue North,33701,27.7722990,-82.6349436
194,37th Avenue North,33704,27.8070380,-82.6352990
2325,Ulmerton Road,33762,27.8943870,-82.6672750
2312,4th Street North,33704,27.7933320,-82.6387280
2200,4th Street North,33704,27.7923080,-82.6388260
3440,4th Street North,33704,27.8038350,-82.6388310
1,Dali Boulevard,33701,27.7661460,-82.6312500
937,Central Avenue,33705,27.7713569,-82.6478135
3173,4th Street North,33704,27.8013290,-82.6375070
3183,4th Street North,33704,27.8014620,-82.6376570
3179,4th Street North,33704,27.8014550,-82.6375940
3177,4th Street North,33704,27.8013820,-82.6375050
236,37th Avenue North,33704,27.8055330,-82.6362350
6400,4th Street North,33702,27.8312450,-82.6390010
441,Central Avenue,33701,27.7713710,-82.6393732
6920,4th Street North,33702,27.8352990,-82.6390250
12225,28th Street North,33716,27.8830210,-82.6710660
203,1st Street Northeast,33701,27.7737520,-82.6338190
10304,Roosevelt Boulevard North,33716,27.8657730,-82.6424490
695,Central Avenue,33701,27.7713630,-82.6437140
920,16th Street North,33705,27.7815444,-82.6551524
7601,9th Street North,33702,27.8419690,-82.6465020
2900,34th Street North,33713,27.7983858,-82.6804764
29,3rd Street North,33701,27.7718446,-82.6369131
16,2nd Street North,33701,27.7715780,-82.6357260
5901,Sun Boulevard,33715,27.7133720,-82.7138840
10478,Roosevelt Boulevard North,33716,27.8668721,-82.6454199
3514,4th Street North,33704,27.8042550,-82.6388670
1831,34th Street North,33713,27.7895024,-82.6780506
360,Central Avenue,33701,27.7708810,-82.6382390
1104,Central Avenue,33705,27.7709531,-82.6500974
1445,Central Avenue,33705,27.7712884,-82.6540972
3441,Central Avenue,33713,27.7712144,-82.6803488
909,Central Avenue,33701,27.7713277,-82.6470750
659,Central Avenue,33701,27.7713537,-82.6428009
209,1st Street North,33701,27.7739851,-82.6338217
200,Central Avenue,33701,27.7710393,-82.6362964
300,Beach Drive Northeast,33701,27.7751972,-82.6324662
121,2nd Avenue North,33701,27.7741587,-82.6344214
425,Central Avenue,33701,27.7713780,-82.6390956
1310,34th Street North,33713,27.7850739,-82.6801037
669,Central Avenue,33701,27.7713527,-82.6430144
683,Central Avenue,33701,27.7713519,-82.6431857
685,Central Avenue,33701,27.7713517,-82.6432324
10,6th Street North,33701,27.7715456,-82.6419223
681,Central Avenue,33701,27.7713521,-82.6431393
5700,4th Street North,33703,27.8235667,-82.6390538
2701,4th Street North,33703,27.7971165,-82.6384744
1110,3rd Street South,33701,27.7592073,-82.6367513
116,1st Street North,33701,27.7726120,-82.6342140
220,4th Street North,33701,27.7740739,-82.6386979
2001,4th Street North,33704,27.7908801,-82.6382443
415,3rd Street South,33701,27.7667545,-82.6372141
4350,6th Street South,33705,27.7290020,-82.6388871
10464,Roosevelt Boulevard North,33716,27.8668485,-82.6451546
911,Central Avenue,33701,27.7713203,-82.6471859
965,Central Avenue,33705,27.7713383,-82.6483103
923,Central Avenue,33701,27.7713109,-82.6474471
6465,Central Avenue,33710,27.7711240,-82.7255858
2200,34th Street South,33711,27.7480614,-82.6789368
4855,34th Street South,33711,27.7242897,-82.6801387
2050,Tyrone Boulevard North,33710,27.7877676,-82.7263511
6974,22nd Avenue North,33710,27.7906815,-82.7356930
218,Pasadena Avenue South,33707,27.7684481,-82.7314220
928,18th Street North,33713,27.7816977,-82.6582531
3131,66th Street North,33710,27.8007411,-82.7279801
2004,66th Street North Store,33710,27.7883414,-82.7288321
710,94th Avenue North,33702,27.8570204,-82.6431969
502,Pasadena Avenue South,33707,27.7655937,-82.7333893
725,1st Avenue South,33701,27.7705198,-82.6442718
360,Central Avenue,33701,27.7706860,-82.6382255
1551,34th Street North,33713,27.7870107,-82.6788373
218,5th Avenue North,33701,27.7774216,-82.6373585
3501,34th Street South,33711,27.7362520,-82.6823310
400,Carillon Parkway,33716,27.8859493,-82.6607985
6400,4th Street North,33702,27.8313639,-82.6390402
211,14th Street North,33705,27.7741598,-82.6524707
200,Central Avenue,33701,27.7707595,-82.6365175
3000,22nd Avenue North,33713,27.7914997,-82.6743186
6158,Palma del Mar Boulevard South,33715,27.7108357,-82.7123888
341,8th Avenue Southeast,33701,27.7627237,-82.6326291
465,Central Avenue,33701,27.7715142,-82.6397406
327,11th Avenue North,33705,27.7833570,-82.6381647
6715,4th Street North,33702,27.8337014,-82.6383202
3730,16th Street North,33704,27.8061209,-82.6552460
405,6th Street South,33701,27.7669292,-82.6419442
1451,34th Street North,33713,27.7861355,-82.6789205
540,Mirror Lake Drive North,33701,27.7761287,-82.6411517
536,Mirror Lake Drive North,33701,27.7760394,-82.6408623
7901,4th Street North,33702,27.8443639,-82.6381584
513,Doctor Martin Luther King Junior Street North,33701,27.7778720,-82.6464579
515,Doctor Martin Luther King Junior Street North,33701,27.7779384,-82.6464579
517,Doctor Martin Luther King Junior Street North,33701,27.7779960,-82.6464579
399,11th Avenue North,33701,27.7833999,-82.6382976
1325,4th Street North,33701,27.7854495,-82.6382665
1335,4th Street North,33701,27.7855482,-82.6382665
227,70th Street South,33707,27.7685702,-82.7343655
2902,Beach Boulevard South,33707,27.7409199,-82.7073375
401,49th Street South,33707,27.7671539,-82.7001411
4846,4th Street North,33703,27.8163431,-82.6390000
4912,4th Street North,33703,27.8168761,-82.6389891
1192,Gandy Crest Drive Northeast,33702,27.8640425,-82.6143843
111,2nd Avenue Northeast,33701,27.7726060,-82.6337228
420,22nd Street South,33712,27.7670133,-82.6627282
6449,38th Avenue North,33710,27.8067019,-82.7258057
400,23rd Street South,33712,27.7671030,-82.6639642
2300,4th Avenue South,33712,27.7671199,-82.6645915
420,22nd Street South,33712,27.7671536,-82.6625190
8950,9th Street North,33702,27.8538115,-82.6476878
260,1st Avenue South,33701,27.7700936,-82.6365039
7035,Central Avenue,33710,27.7710844,-82.7364479
330,3rd Street South,33701,27.7679991,-82.6368531
2895,21st Avenue North,33713,27.7912615,-82.6731840
360,Central Avenue,33701,27.7708995,-82.6380320
111,2nd Avenue Southeast,33701,27.7692760,-82.6342464
5295,34th Street South,33711-4517,27.7206884,-82.6801041
1960,Tyrone Boulevard,33710,27.7879451,-82.7256399
2201,Tyrone Boulevard North,33710,27.7916936,-82.7271478
501,49th Street South,33707,27.7661569,-82.7000833
140,Fountain Parkway,33716,27.8920575,-82.6562638
2149,3rd Avenue South,22712,27.7685222,-82.6628553
222,22nd Street South,33712,27.7685661,-82.6625790
2300,4th Avenue South,33712,27.7672163,-82.6645189
116,18th Street South,33712,27.7695006,-82.6575666
1700,1st Avenue South,33712,27.7699468,-82.6564481
1700,1st Avenue South,33712,27.7698613,-82.6576353
16,18th Street South,33712,27.7707007,-82.6576423
2201,1st Avenue South,33712,27.7703356,-82.6631973
2036,Central Avenue,33712,27.7708128,-82.6610266
2036,Central Avenue,33712,27.7708781,-82.6610217
107,2nd Avenue North,33701,27.7738784,-82.6344702
101,7th Street South,33701,27.7701116,-82.6435054
1592,Central Avenue,33705,27.7708960,-82.6546221
1113,Central Avenue,33705,27.7713149,-82.6505292
361,8th Street South,33701,27.7676297,-82.6452662
850,3rd Avenue South,33701,27.7678434,-82.6455020
800,3rd Avenue South,33701,27.7678138,-82.6452774
365,8th Street South,33701,27.7674858,-82.6452615
1975,3rd Avenue South,33712,27.7684785,-82.6598678
1975,3rd Avenue South,33712,27.7686357,-82.6598280
1975,3rd Avenue South,33701,27.7684793,-82.6599592
890,3rd Avenue South,33701,27.7678476,-82.6464285
880,3rd Avenue South,33701,27.7678538,-82.6463459
870,3rd Avenue South,33701,27.7678529,-82.6462572
860,3rd Avenue South,33701,27.7678535,-82.6461501
854,3rd Avenue South,33701,27.7678474,-82.6460325
850,3rd Avenue South,33701,27.7678478,-82.6458948
840,3rd Avenue South,33701,27.7678467,-82.6457397
830,3rd Avenue South,33701,27.7678463,-82.6456288
20,18th Street South,33712,27.7705068,-82.6575759
1043,Central Avenue,33712,27.7713442,-82.6492388
1022,Central Avenue,33712,27.7709688,-82.6495521
1128,Central Avenue,33705,27.7709856,-82.6507418
1928,2nd Avenue South,33712,27.7691960,-82.6592878
14,18th Street South,33712,27.7707765,-82.6576419
2450,5th Avenue South,33712-1633,27.7660161,-82.6666378
720,2nd Avenue South,33712,27.7691141,-82.6436899
25,1st Avenue South,33701,27.7704633,-82.6468476
18,22nd Street South,33712,27.7704859,-82.6629179
2161,1st Avenue South,33712,27.7704276,-82.6627926
2161,1st Avenue South,33712,27.7703077,-82.6628738
155,17th Street South,33712,27.7695653,-82.6564465
240,Doctor Martin Luther King Junior Street North,33705,27.7742364,-82.6468497
230,19th Street South,33712,27.7687870,-82.6586176
2057,Central Avenue,33713,27.7712421,-82.6613222
1942,2nd Avenue South,33712,27.7689768,-82.6600841
111,2nd Avenue Northeast,33701,27.7739587,-82.6333998
689,Doctor Martin Luther King Junior Street North,33701,27.7792348,-82.6465054
21,Doctor Martin Luther King Junior Street South,33705,27.7705239,-82.6468414
1628,Central Avenue,33712,27.7709386,-82.6555664
1610,Central Avenue,33712,27.7709406,-82.6551906
1620,Central Avenue,33712,27.7709405,-82.6553882
1618,Central Avenue,33712,27.7709417,-82.6553243
1614,Central Avenue,33712,27.7709382,-82.6552689
11,Doctor Martin Luther King Junior Street South,33705,27.7707680,-82.6468480
15,Doctor Martin Luther King Junior Street South,33705,27.7706858,-82.6468440
19,Doctor Martin Luther King Junior Street South,33705,27.7705762,-82.6468429
104,2nd Avenue Northeast,33701,27.7733541,-82.6335353
180,Central Avenue,33701,27.7709981,-82.6352810
614,3rd Avenue South,33701,27.7683694,-82.6422395
616,3rd Avenue South,33701,27.7683676,-82.6422921
618,3rd Avenue South,33701,27.7683569,-82.6423852
620,3rd Avenue South,33701,27.7683569,-82.6424389
111,2nd Avenue Northeast,33701,27.7741826,-82.6336807
111,2nd Avenue Northeast,33701,27.7741944,-82.6337285
1239,1st Avenue North,33712,27.7721655,-82.6514365
1237,1st Avenue North,33712,27.7721684,-82.6513898
1165,62nd Avenue North,33702,27.8296553,-82.6503127
689,Doctor Martin Luther King Junior Street North,33701,27.7791379,-82.6465080
689,Doctor Martin Luther King Junior Street North,33701,27.7790826,-82.6465050
689,Doctor Martin Luther King Junior Street North,33701,27.7790325,-82.6465040
1421,34th Street North,33713,27.7857606,-82.6789682
1411,34th Street North,33713,27.7857061,-82.6789655
855,Central Avenue,33701,27.7713289,-82.6458187
3138,23rd Avenue North,33713,27.7925015,-82.6762859
2036,Central Avenue,33712,27.7707530,-82.6610216
3510,Central Avenue,33711,27.7706916,-82.6811177
951,Central Avenue,33705,27.7713628,-82.6479740
2323,Central Avenue,33713,27.7712104,-82.6647578
4905,34th Street South,33711,27.7240266,-82.6800577
625,Central Avenue,33701,27.7713529,-82.6422279
760,Central Avenue,33701,27.7709422,-82.6444739
163,2nd Avenue North,33701,27.7737339,-82.6351540
111,2nd Avenue North,33701,27.7739882,-82.6344673
117,2nd Avenue North,33701,27.7740653,-82.6346717
113,2nd Avenue North,33701,27.7740539,-82.6344637
109,2nd Avenue North,33701,27.7739500,-82.6344691
441,3rd Street South,33701,27.7599839,-82.6370936
701,4th Avenue South,33701,27.7672471,-82.6434379
150,Central Avenue,33701,27.7710227,-82.6347560
730,3rd Avenue South,33701,27.7683253,-82.6441004
730,3rd Avenue South,33701,27.7683237,-82.6441526
2153,1st Avenue South,33712,27.7703402,-82.6626874
1344,22nd Street South,33712,27.7568235,-82.6620843
640,1st Avenue South,33701,27.7700826,-82.6425360
33,6th Street South,33701,27.7706180,-82.6422368
5625,Central Avenue,33710,27.7712415,-82.7099728
1000,31st Street South,33712,27.7601095,-82.6742268
600,5th Street South,33701,27.7640138,-82.6397658
3491,34th Street South,33711,27.7367502,-82.6816850
600,8th Avenue Southeast,33701,27.7582331,-82.6294678
600,8th Avenue Southeast,33701,27.7582318,-82.6302143
600,8th Avenue Southeast,33701,27.7620114,-82.6285930
600,8th Avenue Southeast,33701,27.7620114,-82.6282025
600,8th Avenue Southeast,33701,27.7617196,-82.6273726
600,8th Avenue Southeast,33701,27.7613685,-82.6271400
600,8th Avenue Southeast,33701,27.7619335,-82.6275139
600,8th Avenue Southeast,33701,27.7582267,-82.6321716
600,8th Avenue Southeast,33701,27.7582267,-82.6311520
2201,Tyrone Boulevard North,33710,27.7916987,-82.7269079
3540,4th Street North,33704,27.8046988,-82.6388493
7901,4th Street North,33702,27.8443962,-82.6382350
1647,18th Avenue North,33713,27.7896744,-82.6562713
1647,18th Avenue North,33713,27.7895321,-82.6563292
1647,18th Avenue North,33713,27.7896091,-82.6563356
1647,18th Avenue North,33713,27.7894847,-82.6562547
2458,4th Street North,33704,27.7947290,-82.6388055
901,Central Avenue,33701,27.7713362,-82.6468377
919,Central Avenue,33701,27.7713160,-82.6473920
6393,Doctor Martin Luther King Junior Street North,33702,27.8304777,-82.6456983
3001,66th Street North,33710,27.7995295,-82.7280852
3001,66th Street North,33710,27.7995346,-82.7278012
3225,34th Street North,33713,27.8015408,-82.6791079
3225,34th Street North,33713,27.8015074,-82.6788259
730,4th Street North,33701,27.7798145,-82.6387538
2370,Doctor Martin Luther King Junior Street North,33704,27.7934822,-82.6470055
2394,Doctor Martin Luther King Junior Street North,33704,27.7937518,-82.6469976
2382,Doctor Martin Luther King Junior Street North,33704,27.7936512,-82.6470022
1045,9th Avenue North,33705,27.7814495,-82.6490485
3021,Central Avenue,33713,27.7712416,-82.6744159
3023,Central Avenue,33713,27.7712397,-82.6744931
3010,Central Avenue,33713,27.7707865,-82.6743117
3006,Central Avenue,33713,27.7707851,-82.6742504
3022,Central Avenue,33713,27.7707875,-82.6745089
3020,Central Avenue,33713,27.7707890,-82.6744644
3018,Central Avenue,33713,27.7707848,-82.6744076
3004,Central Avenue,33713,27.7707791,-82.6741982
3032,Central Avenue,33713,27.7707895,-82.6747908
3030,Central Avenue,33713,27.7707895,-82.6747057
3028,Central Avenue,33713,27.7707885,-82.6746452
3026,Central Avenue,33713,27.7707914,-82.6745545
2206,62nd Terrace South,33712,27.7114111,-82.6631463
2210,62nd Terrace South,33712,27.7113134,-82.6631463
5029,Central Avenue,33710,27.7712697,-82.7017676
2231,34th Street South,33711,27.7479442,-82.6804676
433,Central Avenue,33701,27.7713819,-82.6394610
737,3rd Avenue North,33701,27.7754978,-82.6437708
4951,Bacopa Lane South,33715,27.7171475,-82.7026811
4953,Bacopa Lane South,33715,27.7173019,-82.7024061
4961,Bacopa Lane South,33715,27.7173794,-82.7021133
4963,Bacopa Lane South,33715,27.7173876,-82.7017949
4971,Bacopa Lane South,33715,27.7174963,-82.7012954
4973,Bacopa Lane South,33715,27.7176424,-82.7010095
4981,Bacopa Lane South,33715,27.7177324,-82.7006764
4983,Bacopa Lane South,33715,27.7178619,-82.7003839
4991,Bacopa Lane South,33715,27.7179272,-82.7000663
4993,Bacopa Lane South,33715,27.7179275,-82.6997542
5001,Bacopa Lane South,33715,27.7169349,-82.7022694
5281,Isla Key Boulevard South,33715,27.7161904,-82.7060335
5279,Isla Key Boulevard South,33715,27.7165767,-82.7058564
5277,Isla Key Boulevard South,33715,27.7165933,-82.7053775
7044,22nd Avenue North,33710,27.7911714,-82.7363299
2241,2nd Avenue South,33712,27.7694671,-82.6639568
111,3rd Street North,33701,27.7724834,-82.6368433
218,37th Avenue North,33704,27.8055468,-82.6357308
1211,1st Avenue North,33705,27.7722226,-82.6512956
111,2nd Ave NE,33701,27.7746331,-82.6335952
3775,66th Street North,33710,27.8058687,-82.7282025
3800,66th Street North,33710,27.8067565,-82.7290936
119,1st Avenue North,33701,27.7722773,-82.6344390
3110,1st Ave N #2J,33713,27.7715317,-82.6756744
3935,16th St N Suite 200,33703,27.8078398,-82.6546926
217,18th Street North,33713,27.7732234,-82.6576443
407,Central Avenue,33701,27.7713445,-82.6387808
3398,34th Ave N,33713,27.8026846,-82.6800756
685,Central Avenue,33701,27.7713410,-82.6432361
4301,16th Street North,33703,27.8108290,-82.6542711
701,37th Street South,33711,27.7625986,-82.6836496
200,1st Avenue North,33701,27.7719217,-82.6360699
6802,Stonethrow Circle North,33710,27.7884797,-82.7343981
7901,4th Street North,33702,27.8443812,-82.6381715
2150,62nd Terrace South,33712,27.7111478,-82.6618463
115,112th Avenue North,33716,27.8747133,-82.6341122
11601,4th Street North,33716,27.8782745,-82.6345092
3700,9th Avenue North,33713,27.7802211,-82.6840791
3901,38th Avenue South,33711,27.7350239,-82.6867908
10501,3rd Street North,33716,27.8684347,-82.6375616
6986,22nd Avenue North,33710,27.7907074,-82.7358174
1755,9th Street South,33705,27.7524128,-82.6469304
2869,20th Avenue North,33713,27.7904515,-82.6727091
2257,Tyrone Square,33710,27.7928549,-82.7337264
6765,22nd Avenue,33710,27.7921362,-82.7305026
1050,58 Street North,33710,27.7830690,-82.7127698
2325,Ulmerton Road,33762,27.8949627,-82.6675094
3118,3rd Avenue North,33713,27.7743778,-82.6759669
253,33rd Avenue North,33704,27.8023573,-82.6368546
2539,Doctor Martin Luther King Junior Street North,33704,27.7955037,-82.6464402
7468,Mobile Hwy,32526,27.7955093,-82.6464778
201,17th Street South,33712,27.7690688,-82.6569410
1700,66th Street North,33710,27.7869282,-82.7294190
7901,4th Street North,33702,27.8443290,-82.6382634
401,Pasadena Avenue South,33707,27.7668404,-82.7338125
2126,1st Ave. S.,33712,27.7699732,-82.6610241
10600,Roosevelt Boulevard North,33716,27.8686930,-82.6464515
6499,38th Avenue North,33710,27.8071475,-82.7258010
3001,Executive Drive,33762,27.8952117,-82.6737666
180,2nd Avenue South,33701,27.7682999,-82.6330842
151,2nd Street North,33701,27.7745485,-82.6347981
153,2nd Avenue North,33701,27.7739418,-82.6347769
525,Mirror Lake Drive North,33701,27.7740149,-82.6408310
280,5th Street North,33701,27.7748340,-82.6402954
875,62nd Ave NE,33702,27.8333889,-82.6222976
107,8th Avenue Southeast,33701,27.7643738,-82.6284868
4200,54th Avenue South,33711,27.7142895,-82.6863115
925,62nd Avenue North,33702,27.8289251,-82.6478496
6398,9th Street North,33703,27.8298911,-82.6473309
6201,9th Street North,33703,27.8289124,-82.6465403
1135,62nd Avenue North,33702,27.8288676,-82.6500542
6291,9th Street North,33702,27.8291312,-82.6463567
300,38th Avenue North,33704,27.8064616,-82.6381027
3851,4th Street North,33703,27.8073259,-82.6373348
1,Beach Drive Southeast,33701,27.7707881,-82.6336568
150,Central Avenue,33701,27.7707824,-82.6347830
570,Carillon Parkway,33716,27.8873628,-82.6642508
200,Carillon Parkway,33716,27.8908365,-82.6629650
95,Central Avenue,33701,27.7714305,-82.6336845
333,1st Street Southeast,33701,27.7675270,-82.6347434
901,North Shore Drive Northeast,33701,27.7803456,-82.6273334
1320,Central Avenue,33705,27.7708501,-82.6524082
924,58th Street South,33707,27.7614765,-82.7100499
500,2nd Street South,33701,27.7653043,-82.6350197
140,7th Avenue South,33701,27.7627206,-82.6350915
1,Dali Boulevard,33701,27.7659779,-82.6314771
120,Carillon Parkway,33716-1201,27.8931355,-82.6621429
691,43rd Street South,33711;33711-1907,27.7631504,-82.6922224
559,Mirror Lake Drive North,33701,27.7758670,-82.6415010
490,48th Avenue North,33703,27.8155418,-82.6404999
4100,4th Street North,33703,27.8099281,-82.6389820
4241,4th Street North,33703,27.8109252,-82.6382110
4301,4th Street N,33704,27.8115134,-82.6381612
4351,4th Street North,33703,27.8118112,-82.6381158
3590,34th St N,33713,27.8043150,-82.6799187
4001,4th Street North,33703,27.8088257,-82.6382549
3946,4th Street North,33704,27.8082402,-82.6389220
3811,4th Street North,33703,27.8070646,-82.6379578
3800,4th Street North,33703,27.8072516,-82.6389962
3700,4th Street North,33704,27.8058827,-82.6400000
3600,4th Street North,33704,27.8050996,-82.6389456
3637,4th Street North,33704,27.8054607,-82.6380634
3500,4th Street North,33704,27.8041855,-82.6389007
3535,4th Street North,33704,27.8045850,-82.6380595
3338,4th Street North,33704,27.8027321,-82.6389384
3039,4th Street North,33704,27.7998667,-82.6382479
2742,4th Street North,33704,27.7973759,-82.6389311
2701,4th Street North,33704,27.7969493,-82.6382460
12033,Gandy Boulevard,33702,27.8719901,-82.6137582
4700,4th Street North,33703,27.8151470,-82.6389628
550,50th Avenue North,33703,27.8172813,-82.6414321
5415,4th Street North,33703,27.8215008,-82.6383192
5400,54th Avenue North,33703,27.8217497,-82.6392541
5900,4th Street North,33703,27.8256426,-82.6390264
4526,4th Street North,33703,27.8136621,-82.6391694
4551,4th Street North,33714,27.8137470,-82.6383041
830,1st Street South,33701,27.7606062,-82.6325243
450,8th Avenue Southeast,33701,27.7622146,-82.6296525
301,3rd Street South,33701,27.7681089,-82.6374735
1343,Beach Drive Southeast,33701,27.7570403,-82.6311773
344,1st Avenue North,33701,27.7699926,-82.6382173
601,14th Street South,33705,27.7637852,-82.6535667
4201,4th Street North,33703,27.8106009,-82.6383016
4125,4th Street North,33704,27.8099364,-82.6382282
950,Lake Carillon Drive,33716,27.8905470,-82.6658266
165,13th Street North,33705,27.7731213,-82.6515582
1000,3rd Street South,33701,27.7603036,-82.6366666
263,13th Avenue South,33701,27.7581679,-82.6363502
253,5th Avenue North,33701,27.7778779,-82.6367975
2000,7th Street South,33705,27.7502997,-82.6405037
2145,1st Avenue South,33712,27.7704521,-82.6624653
6132,9th Street North,33703,27.8278513,-82.6471450
2260,54th Avenue,33714,27.8201535,-82.6636951
5420,9th Street North,33703,27.8216753,-82.6476991
2900,4th Street North,33704,27.7988139,-82.6390062
2390,4th Street North,33704,27.7937796,-82.6388448
425,22nd Avenue North,33704,27.7924308,-82.6393494
2001,4th Street North,33704,27.7909073,-82.6382229
2201,4th Street North,33704,27.7923215,-82.6381897
1925,4th Street North,33704,27.7903578,-82.6379044
518,3rd Avenue South,33701,27.7681370,-82.6409678
900,Central Avenue,33705,27.7709420,-82.6469775
300,3rd Street North,33701,27.7718762,-82.6373648
100,7th Street South,33701,27.7700838,-82.6429923
620,1st Avenue South,33701,27.7700191,-82.6422264
550,1st Avenue South,33701,27.7699644,-82.6411276
129,6th Street South,33701,27.7696911,-82.6419655
646,1st Avenue South,33701,27.7700358,-82.6427126
4845,4th Street North,33714,27.8164754,-82.6381425
4635,4th Street North,33703,27.8146323,-82.6383129
6605,5th Avenue North,33710,27.7776726,-82.7294791
6700,8th Avenue North,33710,27.7789920,-82.7315153
6445,4th Street North,33703,27.8314954,-82.6383477
6331,4th Street North,33702,27.8304339,-82.6383153
2195,66th Street North,33710,27.7900949,-82.7277721
2028,66th Street North,33764,27.7888112,-82.7289297
5821,32nd Way South,33712,27.7136989,-82.6779452
460,46th Avenue North,33703,27.8133958,-82.6401209
750,4th Avenue South,33701,27.7668378,-82.6443180
600,4th Street South,33701-4846,27.7636688,-82.6380207
116,5th Street South,33711,27.7697080,-82.6397621
600,4th Street South,33701-4846,27.7639638,-82.6381180
559,Mirror Lake Drive North,33701,27.7756022,-82.6412655
220,5th Avenue North,33701,27.7773177,-82.6361454
226,5th Avenue North,33701,27.7772793,-82.6364200
300,4th Street North,33701,27.7753465,-82.6388475
419,3rd Avenue North,33701,27.7752762,-82.6391544
430,Bay Street Northeast,33702,27.7770295,-82.6328328
425,2nd Street North,33701,27.7769452,-82.6353157
9700,4th Street North,33702,27.8604258,-82.6395750
9600,4th Street North,33702,27.8593518,-82.6393671
4000,3rd Street North,33703,27.8088256,-82.6371774
6300,Doctor Martin Luther King Junior Street North,33702,27.8293034,-82.6474186
3737,1st Street Northeast,33704,27.8062564,-82.6339251
4900,Brittany Drive South,33715,27.7153715,-82.6990639
5401,Leeland Street South,33715,27.7161311,-82.7013285
5055,Brittany Drive South,33715,27.7159646,-82.7019554
5003,Brittany Drive South,33715,27.7160690,-82.7016657
4950,Bacopa Lane South,33715,27.7167870,-82.7026920
465,2nd Avenue North,33701,27.7737551,-82.6399871
253,2nd Avenue North,33701,27.7737953,-82.6367178
500,4th Street North,33701,27.7777488,-82.6388405
150,2nd Avenue North,33701,27.7731290,-82.6350851
470,3rd Street South,33701,27.7661011,-82.6362814
342,3rd Avenue North,33701,27.7746632,-82.6381139
200,4th Street North,33701,27.7737737,-82.6388173
603,7th Street South,33701,27.7636053,-82.6439110
276,Doctor Martin Luther King Junior Street North,33705,27.7747085,-82.6469829
226,Doctor Martin Luther King Junior Street North,33705,27.7740450,-82.6469619
251,10th Street North,33705,27.7745375,-82.6474239
890,3rd Avenue South,33701,27.7676057,-82.6458391
305,Doctor Martin Luther King Junior Street South,33705,27.7679537,-82.6474790
324,7th Street South,33701,27.7679116,-82.6430202
317,7th Street South,33701,27.7680540,-82.6435851
703,Charles Court South,33701,27.7679003,-82.6435199
309,7th Street South,33701,27.7681728,-82.6435471
332,7th Street South,33701,27.7677089,-82.6430022
1235,Central Avenue,33705,27.7713281,-82.6514226
1246,Central Avenue,33705,27.7707343,-82.6515945
340,7th Street South,33701,27.7675754,-82.6430022
632,Charles Court South,33701,27.7676322,-82.6425439
1926,Central Avenue,33705,27.7708644,-82.6507031
642,Charles Court South,33701,27.7676212,-82.6427152
956,1st Avenue North,33705,27.7717360,-82.6482759
1101,1st Avenue South,33705,27.7705057,-82.6500343
652,Charles Court South,33701,27.7677020,-82.6428312
913,1st Avenue North,33705,27.7722932,-82.6468913
936,1st Avenue North,33701,27.7717280,-82.6476878
660,3rd Avenue South,33701,27.7682651,-82.6430080
1100,1st Avenue North,33712,27.7717063,-82.6500452
1124,Central Avenue,33705,27.7708550,-82.6500928
1059,18th Avenue South,33705,27.7525974,-82.6494665
1010,Central Avenue,33705,27.7706925,-82.6490745
1005,1st Avenue North,33705,27.7722285,-82.6484535
300,8th Street North,33701,27.7755468,-82.6450472
770,4th Avenue North,33701,27.7763644,-82.6442727
5815,5th Avenue North,33710,27.7778363,-82.7135826
2315,Tyrone Boulevard North,33709,27.7938874,-82.7296363
2471,Tyrone Boulevard North,33709,27.7940727,-82.7298543
2601,Tyrone Boulevard North,33709,27.7958351,-82.7317972
2190,Tyrone Boulevard North,33710,27.7905375,-82.7268498
6666,22nd Avenue North,33710,27.7910696,-82.7308943
2301,66th Street North,33710,27.7932507,-82.7287847
2501,Tyrone Boulevard North,33710,27.7950254,-82.7309305
2901,Tyrone Boulevard North,33710,27.7975911,-82.7342854
2701,Tyrone Boulevard North,33709,27.7967549,-82.7331008
2800,Tyrone Boulevard North,33710,27.7966924,-82.7346278
6600,22nd Avenue North,33710,27.7904033,-82.7308445
1600,66th Street North,33710-5535,27.7862498,-82.7297559
2186,Tyrone Boulevard North,33710,27.7901777,-82.7265160
2143,Tyrone Boulevard North,33710,27.7910848,-82.7262846
2300,22nd Avenue North,33713,27.7898381,-82.6640325
2365,25th Street North,33713,27.7929527,-82.6652183
2200,34th Street North,33710,27.7924486,-82.6801674
1133,Baum Avenue North,33705,27.7717127,-82.6506718
1123,1st Avenue North,33705,27.7723113,-82.6502924
3800,34th Street North,33710,27.8073502,-82.6805540
3701,34th Street North,33713,27.8058565,-82.6790817
3501,34th Street North,33713,27.8041288,-82.6791579
3795,38th Avenue North,33710,27.8062315,-82.6789386
3601,34th Street North,33713,27.8052058,-82.6790294
3135,34th Street North,33713,27.8008434,-82.6791518
1725,34th Street North,33713,27.7889330,-82.6765755
6600,Central Avenue,33707,27.7705021,-82.7287400
6001,Central Avenue,33710,27.7713364,-82.7165606
3535,34th Street North,33713,27.8043756,-82.6792210
3350,1st Avenue South,33713,27.7705080,-82.6788016
201,34th Street North,33713,27.7727246,-82.6776067
1200,34th Street North,33713,27.7835130,-82.6803202
650,34th Street North,33713,27.7788334,-82.6800108
770,34th Street North,33713,27.7796885,-82.6798392
571,34th Street North,33713,27.7778798,-82.6790280
600,34th Street North,33713,27.7785150,-82.6798055
3401,5th Avenue North,33713,27.7775869,-82.6798827
2001,34th Street North,33713,27.7898813,-82.6788140
3355,5th Avenue North,33713,27.7776175,-82.6790793
1020,34th Street North,33713-6544,27.7823404,-82.6799153
3443,1st Avenue North,33713,27.7721666,-82.6805311
180,34th Street North,33713,27.7725479,-82.6798878
2894,22nd Avenue North,33710,27.7916855,-82.6732049
2323,9th Avenue North,33713,27.7817873,-82.6645874
2191,9th Avenue North,33713,27.7816325,-82.6624984
3125,Doctor Martin Luther King Junior Street North,33704,27.8013268,-82.6464430
3327,33rd Avenue North,33704,27.8025183,-82.6455965
1492,4th Street North,33704,27.7866519,-82.6388319
845,4th Street North,33701,27.7809187,-82.6382663
1631,4th Street North,33704,27.7878704,-82.6382409
901,4th Street North,33701,27.7815459,-82.6382412
1006,4th Street North,33701,27.7821413,-82.6387994
2451,Central Avenue,33713,27.7712581,-82.6669481
456,5th Avenue North,33701,27.7771269,-82.6469994
2171,54th Avenue North,33714,27.8224271,-82.6624566
2755,Ulmerton Road,33729,27.8944306,-82.6710801
2575,Ulmerton Road,33762,27.8948917,-82.6686138
2285,Ulmerton Road,33762,27.8944450,-82.6648136
2577,Ulmerton Road,33762,27.8943284,-82.6686139
2325,Ulmerton Road,33762,27.8943256,-82.6678123
3131,Executive Drive,33762,27.8954094,-82.6762299
3211,Ulmerton Road,33762,27.8948323,-82.6773326
1701,1st Avenue South,33712,27.7705768,-82.6564817
275,4th Street North,33701,27.7747215,-82.6382959
2042,Central Avenue,33712,27.7708447,-82.6611691
2060,Central Avenue,33712,27.7707560,-82.6614333
1663,1st Avenue South,33712,27.7705507,-82.6561229
1852,Central Avenue,33712,27.7708040,-82.6585655
2036,Central Avenue,33712,27.7708048,-82.6610241
1901,Central Avenue,33713,27.7713274,-82.6595377
2125,1st Avenue South,33712,27.7704508,-82.6620127
1846,1st Avenue South,33712,27.7699240,-82.6587322
128,19th Street South,33712,27.7695464,-82.6586556
1920,1st Avenue South,33712,27.7699755,-82.6593799
1962,1st Avenue South,33712,27.7699369,-82.6601069
2010,1st Avenue South,33712,27.7699030,-82.6605153
2001,1st Avenue South,33712,27.7704663,-82.6605090
201,4th Avenue South,33701,27.7673565,-82.6358077
110,Fountain Parkway North,33716,27.8931563,-82.6602266
140,Ulmerton Road,33716,27.8931621,-82.6612628
130,Ulmerton Road,33716,27.8931549,-82.6608365
150,Ulmerton Road,33716,27.8927332,-82.6606233
2400,9th Street North,33704,27.7940591,-82.6469881
2210,9th Street North,33704,27.7924040,-82.6470413
2401,9th Street North,33704,27.7942161,-82.6463957
2739,9th Street North,33704-2721,27.7972889,-82.6464225
3001,Doctor Martin Luther King Junior Street North,33704,27.7997014,-82.6464699
1701,4th Street South,33705,27.7538774,-82.6388134
2900,1st Avenue North,33713,27.7715952,-82.6727986
8300,4th Street North,33702,27.8478775,-82.6390090
8123,4th Street North,33702,27.8464075,-82.6384585
2200,16th Street North,33703,27.7913238,-82.6552599
1900,Gandy Boulevard,33702,27.8529532,-82.6585111
901,North Shore Drive Northeast,33701,27.7813097,-82.6261686
9597,4th Street North,33702,27.8591178,-82.6382273
9246,4th Street North,33702,27.8563661,-82.6391533
9401,4th Street North,33702,27.8582757,-82.6375127
9211,4th Street North,33702,27.8559563,-82.6383802
9000,4th Street North,33702,27.8546085,-82.6391625
2510,Central Avenue,33713,27.7707553,-82.6674074
2501,Central Avenue,33713,27.7712730,-82.6674482
2323,Central Avenue,33713,27.7712502,-82.6648950
2599,Central Avenue,33713,27.7713017,-82.6683116
689,Central Avenue,33701,27.7714577,-82.6435205
695,Central Avenue,33701,27.7714568,-82.6437049
642,22nd Street South,33712,27.7634963,-82.6628039
687,Central Avenue,33701,27.7714584,-82.6433674
230,19th Street South,33712,27.7686087,-82.6586214
645,Central Avenue,33701,27.7714544,-82.6425204
302,15th Street North,33705,27.7752106,-82.6540655
401,15th Street North,33705,27.7767785,-82.6535484
1046,4th Street North,33704,27.7829637,-82.6387757
610,4th Street North,33701,27.7788799,-82.6389375
480,Bayshore Drive Southeast,33701,27.7665157,-82.6291456
548,Central Avenue,33710,27.7709050,-82.6411097
550,Central Avenue,33701,27.7709047,-82.6411739
449,Central Avenue,33701,27.7714624,-82.6395992
515,Central Avenue,33701,27.7714607,-82.6406445
5801,22nd Avenue North,33710,27.7925186,-82.7140834
5801,22nd Avenue North,33710,27.7936490,-82.7143940
5801,22nd Avenue North,33710,27.7927458,-82.7155548
5801,22nd Avenue North,33710,27.7942989,-82.7139987
5801,22nd Avenue North,33710,27.7931128,-82.7135847
5801,22nd Avenue North,33710,27.7931616,-82.7155255
5801,22nd Avenue North,33710,27.7925749,-82.7158887
7595,4th Street North,33702,27.8408707,-82.6383989
7491,4th Street North,33702,27.8405329,-82.6372324
5901,9th Avenue North,33710,27.7812877,-82.7154220
1450,16th Street North,33704,27.7865512,-82.6569840
1000,28th Street South,33712,27.7597247,-82.6696234
1000,28th Street South,33712,27.7596507,-82.6705117
1025,26th Street South,33712,27.7596738,-82.6696225
3956,39th Avenue South,33705-4231,27.7337550,-82.6333860
1,HSN Drive,33729,27.8809030,-82.6681004
2205,118th Avenue North,33716,27.8796156,-82.6645054
801,62nd Avenue North,33702,27.8287555,-82.6460021
4142,Shore Acres Boulevard Northeast,33704,27.8107905,-82.6094641
1680,74th Street North,33710,27.7877158,-82.7417052
7855,22nd Avenue North,33710,27.7938708,-82.7465055
5800,22nd Street South,33712,27.7165015,-82.6612968
2151,62nd Avenue South,33712,27.7138367,-82.6612951
5900,9th Street South,33705,27.7148682,-82.6453461
350,61st Street South,33707,27.7672400,-82.7171908
4151,6th Street South,33705,27.7311975,-82.6416037
1000,3rd Street S,33701,27.7616231,-82.6366759
2110,9th Street North,33704,27.7916470,-82.6471199
1200,37th Street South,33711,27.7582895,-82.6821177
2501,5th Avenue North,33710,27.7792278,-82.6692494
901,34th Street South,33711,27.7607329,-82.6815999
420,22nd Street South,33712,27.7673141,-82.6623036
3101,66th Street North,33710-3115,27.8001215,-82.7280438
2300,Roy Hanna Drive South,33712;33705-5369,27.7109505,-82.6650162
2250,62nd Avenue South,33712,27.7114961,-82.6645003
1344,22nd Street South,33712,27.7568922,-82.6625400
432,3rd Street North,33701,27.7772048,-82.6373941
344,1st Avenue South,33701,27.7700614,-82.6379107
1401,4th Street North,33704,27.7860733,-82.6381246
875,94th Avenue North,33702,27.8581433,-82.6462554
8841,4th Street North,33702,27.8530758,-82.6383327
599,2nd Street South,33701,27.7646895,-82.6359863
2014,52nd Street South,33707,27.7500147,-82.7027546
4850,31st Street South,33712,27.7244872,-82.6731700
2200,1st Avenue South,33712,27.7698909,-82.6632065
222,22nd Street South,33712,27.7685413,-82.6626243
201,16th Street South,33712,27.7690390,-82.6555029
405,22nd Street South,33712,27.7671801,-82.6632846
2221,5th Avenue South,33712,27.7667371,-82.6632028
131,22nd Street South,33712,27.7694034,-82.6632092
2430,Terminal Drive South,33712,27.7646858,-82.6665684
2200,2nd Avenue South,33712,27.7690033,-82.6637928
2060,1st Avenue South,33701,27.7698938,-82.6614690
429,22nd Street South,33712,27.7669075,-82.6632570
2233,3rd Avenue South,33712,27.7686128,-82.6635209
2133,2nd Avenue South,33712,27.7695027,-82.6623280
400,23rd Street South,33712,27.7671919,-82.6640702
601,24th Street South,33712,27.7642012,-82.6660031
222,22nd Street South,33712,27.7690477,-82.6625983
250,Doctor Martin Luther King Junior Street North,33705,27.7743745,-82.6469795
1027,Central Avenue,33705,27.7713494,-82.6489045
2801,Central Avenue,33714,27.7712561,-82.6715152
3011,Central Avenue,33713,27.7712703,-82.6743038
3001,Central Avenue,33713,27.7712723,-82.6741435
2927,Central Avenue,33713,27.7712790,-82.6731979
2950,Central Avenue,33713,27.7707567,-82.6736059
3063,Central Avenue,33713,27.7712552,-82.6746846
2729,Central Avenue,33713,27.7712444,-82.6705125
2710,Central Avenue,33712,27.7707934,-82.6703712
6300,Pasadena Point Blvd S,33707,27.7508681,-82.7216947
1401,61st Street South,33707,27.7564416,-82.7186785
1700,34th Street North,33713,27.7887199,-82.6808703
779,4th Avenue North,33701,27.7767776,-82.6444593
220,3rd Street South,33701,27.7691529,-82.6368337
250,3rd Street South,33701,27.7691397,-82.6363520
610,3rd Avenue South,33701,27.7682752,-82.6420995
638,3rd Avenue South,33701,27.7682548,-82.6425577
101,Pompano Drive Southeast,33705,27.7366753,-82.6365351
200,6th Avenue South,33705,27.7638925,-82.6361773
1720,16th Street North,33704,27.7888493,-82.6553153
340,Beach Drive Northeast,33701,27.7759936,-82.6322275
501,Doctor Martin Luther King Junior Street South,33705-1903,27.7654020,-82.6469258
719,Central Avenue,33701,27.7714580,-82.6442047
714,1st Avenue North,33701,27.7717899,-82.6442538
770,1st Avenue North,33701,27.7718420,-82.6445767
1800,Weedon Drive Northeast,33702,27.8476711,-82.6070605
467,1st Avenue North,33701,27.7724063,-82.6398092
501,1st Avenue North,33701,27.7723460,-82.6405112
661,Central Avenue,33701,27.7714281,-82.6428990
360,Central Avenue,33701,27.7707921,-82.6381211
2139,34th Street North,33713,27.7905194,-82.6779717
6603,14th Street North,33702,27.8322519,-82.6523769
6605,14th Street North,33702,27.8324506,-82.6523686
6611,14th Street North,33702,27.8326406,-82.6522372
6610,14th Street North,33702,27.8326656,-82.6527849
6618,14th Street North,33702,27.8328819,-82.6525812
6617,14th Street North,33702,27.8327638,-82.6520929
6635,14th Street North,33702,27.8330887,-82.6517022
1600,16th Street North,33704,27.7874868,-82.6559759
3560,58th Street North,33710,27.8036996,-82.7134358
2338,Fairway Avenue South,33712,27.7339768,-82.6651406
1638,20th Avenue North,33713,27.7899173,-82.6560060
1647,18th Avenue North,33713,27.7895775,-82.6563127
1648,20th Avenue North,33713,27.7899139,-82.6563223
1627,18th Avenue North,33713,27.7895823,-82.6557011
1637,18th Avenue North,33713,27.7895801,-82.6560058
1628,20th Avenue North,33713,27.7899215,-82.6556939
1687,18th Avenue North,33713,27.7895891,-82.6569367
1667,18th Avenue North,33713,27.7895909,-82.6566244
1668,20th Avenue North,33713,27.7898994,-82.6566278
1688,20th Avenue North,33713,27.7898950,-82.6569358
1747,18th Avenue North,33713,27.7895676,-82.6578620
1748,20th Avenue North,33713,27.7899056,-82.6578675
1807,18th Avenue North,33713,27.7895652,-82.6581724
1808,20th Avenue North,33713,27.7899007,-82.6581791
928,Addison Drive Northeast,33716,27.8767082,-82.6257159
932,Addison Drive Northeast,33716,27.8767589,-82.6258616
1051,7th Avenue South,33705-1903,27.7637308,-82.6494254
435,5th Avenue North,33701,27.7777508,-82.6393196
331,8th Street South,33701,27.7677396,-82.6445185
2500,54th Avenue North,33714,27.8205790,-82.6669198
991,Water Lily Court,33703,27.8146829,-82.6221161
991,Water Lily Court,33703,27.8146333,-82.6222010
1825,4th Street North,33704,27.7900433,-82.6372039
1000,24th Street North,33713,27.7821990,-82.6655884
1700,3rd Street South,33701,27.7534515,-82.6367223
6701,Sunshine Skyway Lane South,33711,27.7074959,-82.6805545
1625,4th Street South,33701,27.7544240,-82.6388858
1599,66th Street North,33710,27.7862083,-82.7281406
1008,25th Street North,33701,27.7823402,-82.6675005
355,15th Avenue Northeast,33704,27.7867301,-82.6304867
6500,38th Avenue North,33710,27.8052007,-82.7262381
3030,6th Street South,33705,27.7407783,-82.6395617
701,6th Street South,33701,27.7635425,-82.6427786
1200,7th Avenue North,33713,27.7781779,-82.6502057
2632,Park Street North,33710-2838,27.7966036,-82.7542103
2121,Beach Drive Southeast,33705,27.7492229,-82.6308154
3455,26th Avenue South,33711,27.7451612,-82.6807704
3491,34th Street South,33711,27.7368718,-82.6817433
4344,21st Street North,33714,27.8117208,-82.6614151
1601,38th Avenue North,33703,27.8074806,-82.6554467
1590,34th Street South,33711,27.7546165,-82.6789818
760,Alamanda Way South,33705,27.7292297,-82.6436484
927,22nd Street South,33712,27.7604824,-82.6631612
901,22nd Street South,33712,27.7609657,-82.6631649
2900,31st Street South,33712,27.7379975,-82.6739704
3300,Tyrone Boulevard North,33709,27.8014371,-82.7425738
3200,66th Street North,33710,27.8011921,-82.7288559
3268,66th Street North,33710,27.8017209,-82.7289324
701,16th Street South,33705-2135,27.7633016,-82.6568971
2201,49th Street North,33710,27.7920625,-82.6996330
5111,Gulfport Boulevard South,33707,27.7486250,-82.7023028
6000,38th Avenue North,33710,27.8056541,-82.7168853
5500,Shore Boulevard South,33707,27.7374895,-82.7078596
5200,Brittany Drive South,33715,27.7143034,-82.7049337
5155,Isla Key Boulevard South,33715,27.7168001,-82.7046404
5151,Isla Key Boulevard South,33715,27.7171220,-82.7033917
5101,Brittany Drive South,33715,27.7158927,-82.7023914
5220,Brittany Drive South,33715,27.7147326,-82.7057582
5010,Brittany Drive South,33715,27.7153079,-82.7012124
5001,Bacopa Lane South,33715,27.7168606,-82.7022440
5108,Brittany Drive South,33715,27.7150537,-82.7030494
5130,Brittany Drive South,33715,27.7147766,-82.7040741
5153,Isla Key Boulevard South,33715,27.7173080,-82.7041287
5020,Brittany Drive South,33715,27.7151789,-82.7020909
3850,34th Street South,33711,27.7329984,-82.6788527
4102,34th Street South,33711,27.7304519,-82.6786077
4600,34th Street South,33711,27.7256935,-82.6786408
4400,34th Street South,33711,27.7274957,-82.6785832
4300,34th Street South,33711,27.7280355,-82.6786977
4570,"34th Street, South",33711-4551,27.7268982,-82.6787571
4595,34 Street South,33711-4550,27.7268207,-82.6798947
5813,24th Avenue South,33707,27.7466652,-82.7125039
2514,59th Street South,33707,27.7450002,-82.7136435
1414,59th Street South,33707,27.7560380,-82.7136782
5949,19th Avenue South,33707,27.7511939,-82.7157503
1245,TyRon Lewis Avenue,33705,27.7523184,-82.6520649
1755,9th Street South,33705,27.7523944,-82.6470000
2166,Blossom Way South,33712,27.7022626,-82.6621728
2158,Blossom Way South,33712,27.7022715,-82.6619106
2165,Blossom Way South,33712,27.7026509,-82.6620854
2240,62nd Avenue South,33712,27.7113977,-82.6640747
4301,31st Street South,33712,27.7286601,-82.6760910
5517,Pershing Street Northeast,33703,27.8221994,-82.6311138
6812,Onyx Drive North,33702,27.8340469,-82.6538306
7473,16th Street North,33702,27.8396958,-82.6547576
7485,16th Street North,33702,27.8398832,-82.6547829
3315,58th Avenue South,33712,27.7160953,-82.6781548
3200,58th Avenue South,33712,27.7147979,-82.6763584
2932,10th Avenue South,33707,27.7616612,-82.7512753
7944,10th Avenue South,33707,27.7617931,-82.7514776
7988,10th Avenue South,33707,27.7618971,-82.7523985
7925,10th Avenue South,33707,27.7618250,-82.7507302
7956,10th Avenue South,33707,27.7618925,-82.7516567
7980,10th Avenue South,33707,27.7620004,-82.7521578
7968,10th Avenue South,33707,27.7619914,-82.7518903
7933,10th Avenue South,33707,27.7620364,-82.7508817
7996,10th Avenue South,33707,27.7620490,-82.7528200
7949,10th Avenue South,33707,27.7622002,-82.7512153
7999,10th Avenue South,33707,27.7623596,-82.7528317
7957,10th Avenue South,33707,27.7623735,-82.7514803
7965,10th Avenue South,33707,27.7624124,-82.7516924
7973,10th Avenue South,33707,27.7624816,-82.7519282
7993,10th Avenue South,33707,27.7624944,-82.7526905
7989,10th Avenue South,33707,27.7625066,-82.7524116
7981,10th Avenue South,33707,27.7625508,-82.7521659
7900,9th Avenue South,33707,27.7616681,-82.7489321
7901,10th Avenue South,33707,27.7613518,-82.7503463
931,79th Street South,33707,27.7613678,-82.7498729
915,79th Street South,33707,27.7614215,-82.7496190
1055,79th Street South,33707,27.7606090,-82.7513168
1034,79th Street South,33707,27.7607367,-82.7511338
1019,79th Street South,33707,27.7608349,-82.7509521
7900,10th Avenue South,33707,27.7610624,-82.7508074
957,79th Street South,33707,27.7612527,-82.7500853
7912,10th Avenue South,33707,27.7613190,-82.7509673
7924,10th Avenue South,33707,27.7614965,-82.7510754
7909,10th Avenue South,33707,27.7615510,-82.7504406
907,79th Street South,33707,27.7615140,-82.7493663
903,79th Street South,33707,27.7615633,-82.7492075
7917,10th Avenue South,33707,27.7616834,-82.7505434
7501,38th Avenue North,33710,27.8069005,-82.7424654
3900,66th Street North,33709-4912,27.8075959,-82.7298563
6127,4th Avenue South,33707,27.7674587,-82.7188546
1951,42nd Way North,33713,27.7899391,-82.6907326
2190,34th Street North,33713,27.7914879,-82.6798481
4760,1st Avenue South,33711,27.7698063,-82.6983107
2201,Doctor Martin Luther King Junior Street North,33704,27.7924205,-82.6463750
425,23rd Avenue North,33704,27.7932611,-82.6393160
4411,Burlington Avenue North,33713,27.7739140,-82.6933966
4400,Burlington Avenue North,33713,27.7734404,-82.6932380
4445,2nd Avenue North,33713,27.7729981,-82.6939449
4435,2nd Avenue North,33713,27.7730301,-82.6938054
4421,2nd Avenue North,33713,27.7729796,-82.6935534
4401,2nd Avenue North,33713,27.7729882,-82.6932468
4425,2nd Avenue North,33713,27.7730234,-82.6936687
4410,Burlington Avenue North,33713,27.7734712,-82.6934086
4420,Burlington Avenue North,33713,27.7734826,-82.6935328
4440,Burlington Avenue North,33713,27.7734945,-82.6939564
4430,Burlington Avenue North,33713,27.7735002,-82.6936808
4438,Burlington Avenue North,33713,27.7734910,-82.6938283
4535,2nd Avenue North,33713,27.7730313,-82.6951801
4463,2nd Avenue North,33713,27.7730585,-82.6942457
1531,84th Avenue North,33702,27.8484822,-82.6538408
9100,Doctor Martin Luther King Junior Street North,33702,27.8552518,-82.6476450
899,34th Street North,33713,27.7806438,-82.6789850
1101,34th Street North,33713,27.7830223,-82.6791117
951,34th Street North,33713,27.7816063,-82.6791153
1115,34th Street North,33713,27.7834403,-82.6789226
1001,34th Street North,33713,27.7821660,-82.6790592
649,34th Street North,33713,27.7788111,-82.6790138
701,34th Street North,33713,27.7794738,-82.6789840
5500,18th Street North,33703,27.8234029,-82.6573541
1225,Doctor Martin Luther King Junior Street North,33701,27.7844494,-82.6464299
2135,Doctor Martin Luther King Junior Street North,33704,27.7919379,-82.6464208
2018,4th Street North,33704,27.7910606,-82.6388673
1033,Dr. Martin Luther King Jr Street N,33705,27.7825508,-82.6463555
3000,1st Avenue North,33713,27.7716113,-82.6743091
2700,3rd Avenue North,33713,27.7744464,-82.6700853
2227,Central Avenue,33713,27.7712967,-82.6636768
2226,16th Avenue North,33713,27.7869902,-82.6637451
600,8th Avenue Southeast,33701,27.7622056,-82.6278367
1110,3rd Street South,33701,27.7591961,-82.6362610
1745,1st Avenue South,33712,27.7704267,-82.6571814
32,18th Street South,33712,27.7704045,-82.6575424
1848,20th Avenue North,33713,27.7899567,-82.6587619
1847,18th Avenue North,33713,27.7895197,-82.6587660
1615,17th Avenue North,33713,27.7886760,-82.6556969
1646,18th Avenue North,33713,27.7890085,-82.6563153
1665,17th Avenue North,33713,27.7886866,-82.6566183
1686,18th Avenue North,33713,27.7889890,-82.6569345
1705,17th Avenue North,33713,27.7886660,-82.6572357
1725,17th Avenue North,33713,27.7886613,-82.6575514
1685,17th Avenue North,33713,27.7886813,-82.6569313
1825,17th Avenue North,33713,27.7886714,-82.6584752
1845,17th Avenue North,33713,27.7886148,-82.6587570
1728,20th Avenue North,33713,27.7899098,-82.6575688
1708,20th Avenue North,33713,27.7899079,-82.6572472
1745,17th Avenue North,33713,27.7886611,-82.6578597
1805,17th Avenue North,33713,27.7886617,-82.6581705
1645,17th Avenue North,33713,27.7886803,-82.6563151
1635,17th Avenue North,33713,27.7886779,-82.6560000
1826,18th Avenue North,33713,27.7889778,-82.6584769
1666,18th Avenue North,33713,27.7889918,-82.6566087
1846,18th Avenue North,33713,27.7890318,-82.6587649
1806,18th Avenue North,33713,27.7889940,-82.6581743
1746,18th Avenue North,33713,27.7889969,-82.6578622
1706,18th Avenue North,33713,27.7890007,-82.6572416
1726,18th Avenue North,33713,27.7889999,-82.6575559
1636,18th Avenue North,33713,27.7890120,-82.6560061
1626,18th Avenue North,33713,27.7890360,-82.6557045
1827,18th Avenue North,33713,27.7895777,-82.6584810
1727,18th Avenue North,33713,27.7895704,-82.6575558
1707,18th Avenue North,33713,27.7895741,-82.6572466
1828,20th Avenue North,33713,27.7898852,-82.6584857
11600,Roosevelt Boulevard North,33716,27.8748907,-82.6548471
170,47th Avenue Northeast,33703,27.8141241,-82.6328139
701,1st Avenue North,33701,27.7722001,-82.6440530
3153,22nd Avenue North,33713,27.7921440,-82.6764804
635,Bay Street Northeast,33701,27.7787409,-82.6323167
11400,4th Street North,33716,27.8766917,-82.6405083
6730,4th Street North,33702,27.8340460,-82.6390514
7530,4th Street North,33702,27.8413399,-82.6390795
861,70th Avenue North,33702,27.8359393,-82.6458536
7610,4th Street North,33702,27.8420502,-82.6391976
7100,72nd Avenue North,33702,27.8366824,-82.6392796
815,Jennings Avenue North,33704,27.8055067,-82.6456659
849,Jennings Avenue North,33704,27.8054561,-82.6460438
3045,Doctor Martin Luther King Junior Street North,33704,27.8001396,-82.6464761
861,Jennings Avenue North,33704,27.8054011,-82.6464409
3531,Doctor Martin Luther King Junior Street North,33704,27.8042793,-82.6463251
842,36th Avenue North,33704,27.8043695,-82.6458146
2161,1st Avenue South,33712,27.7704395,-82.6627860
2955,Central Avenue,33713,27.7713004,-82.6737264
2025,Central Avenue,33713,27.7713427,-82.6609555
331,4th Avenue South,33712,27.7675695,-82.6672911
2417,4th Avenue South,33712,27.7676165,-82.6662085
2401,4th Avenue South,33712,27.7676236,-82.6659565
2363,4th Avenue South,33712,27.7676570,-82.6655978
2343,4th Avenue South,33712,27.7676506,-82.6652301
2945,Central Avenue,33713,27.7712537,-82.6735216
2400,4th Avenue South,33712,27.7672256,-82.6659502
2462,4th Avenue South,33712,27.7672408,-82.6669370
2454,4th Avenue South,33712,27.7672342,-82.6668085
2446,4th Avenue South,33712,27.7672385,-82.6666632
2408,4th Avenue South,33712,27.7672456,-82.6660697
2416,4th Avenue South,33712,27.7672492,-82.6662526
2346,4th Avenue South,33712,27.7672745,-82.6652806
326,4th Avenue South,33712,27.7676183,-82.6669287
2451,4th Avenue South,33712,27.7676028,-82.6667811
2425,4th Avenue South,33712,27.7675997,-82.6663887
2351,4th Avenue South,33712,27.7676828,-82.6654284
2448,3rd Avenue South,33712,27.7680796,-82.6667781
2446,3rd Avenue South,33712,27.7681582,-82.6666566
2500,3rd Avenue South,33712,27.7681420,-82.6672872
2525,3rd Avenue South,33712,27.7684938,-82.6677650
2463,3rd Avenue South,33712,27.7685599,-82.6669499
2820,1st Avenue North,33713,27.7716285,-82.6717613
25,2nd Street North,33701,27.7716514,-82.6351610
358,22nd Avenue South,33705,27.7483110,-82.6383324
1301,Beach Drive Southeast,33716,27.7574900,-82.6315060
136,4th Avenue Northeast,33701,27.7761895,-82.6333360
255,Beach Drive Northeast,33701,27.7744863,-82.6318628
300,2nd Avenue Northeast,33701,27.7732364,-82.6314363
9046,4th Street North,33702,27.8549421,-82.6392386
2938,Tyrone Boulevard North,33710,27.7971245,-82.7351192
201,17th Street South,33712,27.7688544,-82.6570163
300,Beach Drive Northeast,33701,27.7754988,-82.6323683
333,7th Street South,33701,27.7677149,-82.6435637
316,7th Street South,33701,27.7680590,-82.6430185
341,7th Street South,33701,27.7675968,-82.6435509
120,2nd Street North,33701,27.7731119,-82.6334363
120,2nd Street North,33701,27.7731096,-82.6334359
501,5th Avenue Northeast,33701,27.7784251,-82.6300267
701,Charles Court South,33701,27.7679003,-82.6434628
1650,Central Avenue,33712,27.7708326,-82.6559085
690,Central Avenue,33701,27.7707040,-82.6477707
730,3rd Avenue South,33712,27.7682656,-82.6441269
709,Charles Court South,33701,27.7679003,-82.6436918
707,Charles Court South,33701,27.7679004,-82.6436342
705,Charles Court South,33701,27.7679003,-82.6435771
299,Doctor Martin Luther King Junior Street North,33701,27.7750316,-82.6461409
1211,1st Avenue North,33712,27.7722739,-82.6509491
2063,1st Avenue South,33712,27.7704410,-82.6613505
2358,24th Street South,33712,27.7672513,-82.6655723
2350,4th Avenue South,33712,27.7672563,-82.6654209
2998,Tyrone Boulevard North,33710,27.7972479,-82.7366226
11200,4th Street North,33716,27.8741939,-82.6392674
720,Central Avenue,33701,27.7707263,-82.6442841
100,8th Avenue Southeast,33701,27.7614480,-82.6336289
100,1st Avenue North,33701,27.7716568,-82.6345822
2930,Beach Boulevard South,33707,27.7403555,-82.7075749
2342,Emerson Avenue South,33712,27.7651925,-82.6653524
330,3rd Street South,33701,27.7677413,-82.6363127
600,8th Avenue Southeast,33701,27.7613370,-82.6270938
1301,Beach Drive Southeast,33701,27.7576503,-82.6304569
1036,7th Street South,33701,27.7600985,-82.6428226
600,58th Street South,33707,27.7641239,-82.7100574
95,Central Avenue,33701,27.7717406,-82.6336914
234,3rd Avenue North,33701,27.7745684,-82.6364123
626,7th Avenue North,33701,27.7793380,-82.6421890
1351,34th Street North,33713,27.7850331,-82.6786873
1400,54th Avenue South,33705,27.7175406,-82.6524967
5125,11th Avenue South,33707,27.7601022,-82.7028445
575,41st Street South,33711,27.7652529,-82.6902207
2401,66th Street North,33710,27.7936414,-82.7272580
1111,Central Avenue,33705,27.7713441,-82.6503707
2760,Central Avenue,33712,27.7706885,-82.6710714
2340,Central Avenue,33712,27.7707875,-82.6652596
801,7th Avenue North,33701,27.7792334,-82.6448037
600,27th Street South,33712,27.7645355,-82.6696125
2724,6th Avenue South,33712,27.7645136,-82.6705444
601,Central Avenue,33701,27.7713849,-82.6419478
10410,Roosevelt Boulevard North,33716,27.8712502,-82.6477748
4970,Bacopa Lane South,33715,27.7170325,-82.7013388
4955,Bacopa Lane South,33715,27.7176558,-82.7023786
4986,Bacopa Lane South,33715,27.7176532,-82.7002203
400,1st Street Southeast,33701,27.7670871,-82.6321263
871,Ibis Walk Place North,33716,27.8657302,-82.6454464
5850,13th Avenue South,33707,27.7564473,-82.7136148
2900,Central Avenue,33712,27.7707311,-82.6717283
6901,22nd Avenue North,33710,27.7932556,-82.7328780
301,1st Street Southeast,33701,27.7684527,-82.6347533
1100,Tyrone Boulevard North,33710,27.7829508,-82.7174293
501,116th Avenue North,33716,27.8784951,-82.6407161
2900,34th Street South,33711-3832,27.7419690,-82.6781790
801,3rd Street South,33701,27.7619980,-82.6373880
2131,4th Street North,33704,27.7917243,-82.6381766
105,4th Street North,33702,27.7770503,-82.6335746
1400,54th Avenue South,33705,27.7183832,-82.6533510
3201,1st Street Northeast,33703,27.8020752,-82.6332590
1600,72nd Avenue North,33710,27.7881412,-82.7392183
2909,22nd Avenue N,33713,27.7923431,-82.6737750
2324,Central Avenue,33712,27.7707568,-82.6649844
6162,9th Street North,33703,27.8281234,-82.6472175
4201,31st Street South,33712,27.7297087,-82.6760657
5000,10th Street North,33703,27.8178735,-82.6482580
421,4th Street North,33701,27.7767867,-82.6389378
125,19th Street South,33712,27.7695667,-82.6595890
151,7th Street South,33701,27.7698440,-82.6440667
6000,Sun Boulevard,33715,27.7108224,-82.7146332
501,6th Avenue South,33701,27.7629909,-82.6407407
