House number,Street name,Postal code,Latitude,Longitude
457,Sebastian Boulevard,32958,27.8010626,-80.4770217
1542,Quiescent Ln,32958,27.7595663,-80.4879392
735,Commerce Center Drive,32958,27.7930314,-80.4831633
482,US-1,32958,27.8077546,-80.4648169
1140,US Highway 1,32958,27.8158065,-80.4678891
1701,US 1,32958,27.8264646,-80.4771253
745,Commerce Center Drive,32958,27.7927640,-80.4827071
9220,Sebastian Boulevard,32958,27.7675049,-80.5145636
725,Commerce Center Drive,32958,27.7930110,-80.4836400
482,US-1,32958,27.8073871,-80.4646628
726,South Fleming Street,32958,27.7903302,-80.4859415
621,Sebastian Boulevard,32958,27.7974578,-80.4801767
482,US-1,32958,27.8076304,-80.4647614
482,US-1,32958,27.8075696,-80.4647382
482,US-1,32958,27.8076951,-80.4647901
482,US-1,32958,27.8074380,-80.4646845
484,US-1,32958,27.8076479,-80.4654292
484,US-1,32958,27.8076882,-80.4652899
709,Commerce Center Drive,32958,27.7926678,-80.4844824
709,Commerce Center Drive,32958,27.7927366,-80.4844207
709,Commerce Center Drive,32958,27.7928571,-80.4843077
709,Commerce Center Drive,32958,27.7929610,-80.4842191
709,Commerce Center Drive,32958,27.7930484,-80.4841380
705,Commerce Center Drive,32958,27.7932370,-80.4839694
705,Commerce Center Drive,32958,27.7933412,-80.4838797
705,Commerce Center Drive,32958,27.7934458,-80.4837877
701,Commerce Center Drive,32958,27.7937372,-80.4835251
720,Commerce Center Drive,32958,27.7934715,-80.4832699
720,Commerce Center Drive,32958,27.7937088,-80.4830491
720,Commerce Center Drive,32958,27.7937908,-80.4829735
735,Commerce Center Drive,32958,27.7928649,-80.4832682
735,Commerce Center Drive,32958,27.7927781,-80.4833552
735,Commerce Center Drive,32958,27.7926715,-80.4834447
967,Sebastian Boulevard,32958,27.7829983,-80.4930895
967,Sebastian Boulevard,32958,27.7829546,-80.4931310
967,Sebastian Boulevard,32958,27.7829055,-80.4931773
967,Sebastian Boulevard,32958,27.7828651,-80.4932113
967,Sebastian Boulevard,32958,27.7828256,-80.4932532
967,Sebastian Boulevard,32958,27.7827795,-80.4932978
971,Sebastian Boulevard,32958,27.7824620,-80.4935657
971,Sebastian Boulevard,32958,27.7823696,-80.4936346
971,Sebastian Boulevard,32958,27.7822556,-80.4937444
971,Sebastian Boulevard,32958,27.7822106,-80.4937950
971,Sebastian Boulevard,32958,27.7821664,-80.4938376
727,Sebastian Boulevard,32958,27.7920389,-80.4849443
727,Sebastian Boulevard,32958,27.7922161,-80.4847905
728,South Fleming Street,32958,27.7902405,-80.4858139
732,South Fleming Street,32958,27.7900627,-80.4851985
736,South Fleming Street,32958,27.7900394,-80.4851109
738,South Fleming Street,32958,27.7900232,-80.4850454
740,South Fleming Street,32958,27.7900090,-80.4849852
661,Sebastian Boulevard,32958,27.7958495,-80.4816202
661,Sebastian Boulevard,32958,27.7958890,-80.4815825
661,Sebastian Boulevard,32958,27.7959421,-80.4815390
661,Sebastian Boulevard,32958,27.7959823,-80.4814994
661,Sebastian Boulevard,32958,27.7960156,-80.4814717
661,Sebastian Boulevard,32958,27.7960479,-80.4814446
645,Sebastian Boulevard,32958,27.7965562,-80.4809707
645,Sebastian Boulevard,32958,27.7967334,-80.4808247
637,Sebastian Boulevard,32958,27.7970481,-80.4805329
633,Sebastian Boulevard,32958,27.7971958,-80.4803984
633,Sebastian Boulevard,32958,27.7972955,-80.4803166
621,Sebastian Boulevard,32958,27.7975478,-80.4800513
621,Sebastian Boulevard,32958,27.7976230,-80.4799631
621,Sebastian Boulevard,32958,27.7977255,-80.4799031
519,South Easy Street,32958,27.7985813,-80.4793720
945,Sebastian Boulevard,32958,27.7840940,-80.4921642
945,Sebastian Boulevard,32958,27.7840098,-80.4922433
945,Sebastian Boulevard,32958,27.7839194,-80.4923199
867,Sebastian Boulevard,32958,27.7860223,-80.4903885
741,Sebastian Boulevard,32958,27.7898565,-80.4869821
457,Sebastian Boulevard,32958,27.8009844,-80.4771007
401,Sebastian Boulevard,32958,27.8024872,-80.4756933
401,Sebastian Boulevard,32958,27.8025632,-80.4756327
389,Sebastian Boulevard,32958,27.8027667,-80.4754748
245,Sebastian Boulevard,32958,27.8049425,-80.4724937
245,Sebastian Boulevard,32958,27.8049699,-80.4723798
245,Sebastian Boulevard,32958,27.8050372,-80.4723471
229,Sebastian Boulevard,32958,27.8053894,-80.4717654
229,Sebastian Boulevard,32958,27.8053346,-80.4718508
250,Sebastian Boulevard,32958,27.8057797,-80.4731113
250,Sebastian Boulevard,32958,27.8058674,-80.4729770
250,Sebastian Boulevard,32958,27.8058236,-80.4728559
250,Sebastian Boulevard,32958,27.8057592,-80.4728031
250,Sebastian Boulevard,32958,27.8056945,-80.4727573
300,Sebastian Boulevard,32958,27.8053532,-80.4736340
189,Sebastian Boulevard,32958,27.8062920,-80.4708199
1101,US Highway 1,32958,27.8145653,-80.4687056
930,Village Square,32958,27.8143101,-80.4691729
925,Village Square,32958,27.8145632,-80.4691320
905,Village Square,32958,27.8149412,-80.4691777
905,Village Square,32958,27.8149401,-80.4692511
910,Village Square,32958,27.8150425,-80.4695338
900,Village Square,32958,27.8151790,-80.4692042
1101,US Highway 1,32958,27.8149102,-80.4688265
1101,US Highway 1,32958,27.8149637,-80.4688455
1105,US Highway 1,32958,27.8152402,-80.4689057
1132,US Highway 1,32958,27.8156535,-80.4679235
1108,US Highway 1,32958,27.8155126,-80.4685002
1110,US Highway 1,32958,27.8155306,-80.4684301
1116,US Highway 1,32958,27.8155460,-80.4683630
1120,US Highway 1,32958,27.8155641,-80.4682905
1122,US Highway 1,32958,27.8155823,-80.4682158
1126,US Highway 1,32958,27.8156172,-80.4680613
1124,US Highway 1,32958,27.8155986,-80.4681378
1128,US Highway 1,32958,27.8156338,-80.4679894
1136,US Highway 1,32958,27.8156753,-80.4678589
10725,US Highway 1,32958,27.7896855,-80.4565792
10729,US Highway 1,32958,27.7896139,-80.4565413
1451,Sebastian Boulevard,32958-8200,27.7657515,-80.5098966
9400,Fellsmere Road,32958,27.7700261,-80.5178234
100,Brushfoot Drive,32958,27.8130491,-80.4943432
281,Delaware Avenue,32958,27.8007210,-80.4767208
433,Sebastian Boulevard,32958,27.8021519,-80.4759872
345,Sebastian Boulevard,32958,27.8037301,-80.4746003
435,Sebastian Boulevard,32958,27.8017975,-80.4763064
171,Sebastian Boulevard,32958,27.8070363,-80.4696044
401,Sebastian Boulevard,32958,27.8025357,-80.4756564
441,Sebastian Boulevard,32958,27.8015703,-80.4765362
457,Sebastian Boulevard,32958,27.8010464,-80.4770318
389,Sebastian Boulevard,32958,27.8027647,-80.4754740
223,Sebastian Boulevard,32958,27.8065245,-80.4724964
181,Sebastian Boulevard,32958,27.8065979,-80.4699889
373,Sebastian Boulevard,32958,27.8032223,-80.4750804
250,Sebastian Boulevard,32958,27.8057860,-80.4729101
245,Sebastian Boulevard,32958,27.8049693,-80.4723819
229,Sebastian Boulevard,32958,27.8053570,-80.4718059
971,Sebastian Boulevard,32958,27.7823200,-80.4936934
957,Sebastian Boulevard,32958,27.7831787,-80.4929229
945,Sebastian Boulevard,32958,27.7839960,-80.4922396
935,Sebastian Boulevard,32958,27.7843343,-80.4918735
957,Sebastian Boulevard,32958,27.7834867,-80.4927579
967,Sebastian Boulevard,32958,27.7828813,-80.4931960
1001,Sebastian Boulevard,32958,27.7779401,-80.4972536
1110,Roseland Road,32958,27.7783873,-80.4961218
995,Sebastian Boulevard,32958,27.7792615,-80.4953391
9621,North US Highway 1,32958-6363,27.7694675,-80.4473751
2001,Us Highway,32958,27.8293222,-80.4817086
482,US-1,32958,27.8075718,-80.4647153
900,Highway 1,32958,27.8110408,-80.4666945
480,US Highway 1,32958,27.8072175,-80.4650784
484,US-1,32958,27.8076813,-80.4653108
700,US Highway 1,32958,27.8096242,-80.4661650
700,US Highway 1,32958,27.8093575,-80.4660769
1625,US Highway 1,32958,27.8236595,-80.4747167
9240,Sebastian Boulevard,32958,27.7676788,-80.5153055
9200,Sebastian Boulevard,32958,27.7676549,-80.5139801
993,Sebastian Boulevard,32958,27.7808687,-80.4950000
735,Commerce Center Drive,32958,27.7928627,-80.4833067
725,Commerce Center Drive,32958,27.7929827,-80.4836991
735,South Fleming Street,32958,27.7912103,-80.4838976
731,South Fleming Street,32958,27.7916453,-80.4842324
727,Sebastian Boulevard,32958,27.7920800,-80.4849054
710,South Fleming Street,32958,27.7913376,-80.4855842
989,Sebastian Boulevard,32958,27.7819251,-80.4940376
1251,Sebastian Boulevard,32958,27.7730052,-80.5017496
999,Sebastian Boulevard,32958,27.7787411,-80.4966821
1415,Friendship Lane,32958,27.8185713,-80.4752625
1235,Main Street,32958,27.8174959,-80.4756529
1225,Main Street,32958,27.8175492,-80.4750159
1201,Main Street,32958,27.8175819,-80.4742744
478,US-1,32958,27.8069381,-80.4647521
1255,Main Street,32958,27.8178764,-80.4760131
1809,US Highway 1,32958,27.8279876,-80.4783924
730,Commerce Center Drive,32958,27.7933931,-80.4828325
701,Commerce Center Drive,32958,27.7938284,-80.4834435
705,Commerce Center Drive,32958,27.7933302,-80.4838821
709,Commerce Center Drive,32958,27.7928538,-80.4843147
9100,Fellsmere Road,32958-6459,27.7676358,-80.5121336
9390,90th Avenue,32958,27.7646251,-80.5105870
1245,Main Street,32958,27.8176423,-80.4760626
995,Sebastian Boulevard,32958,27.7790475,-80.4957923
995,Sebastian Boulevard,32958,27.7791102,-80.4957358
712,Cleveland Street,32958,27.8106907,-80.4658924
9595,North US Highway 1,32958,27.7685703,-80.4454148
1115,Barber Street,32958,27.7779533,-80.4869266
1677,US 1,32958,27.8258984,-80.4766412
1807,US 1,32958,27.8273540,-80.4779737
1801,US 1,32958,27.8270307,-80.4778294
1137,US Highway 1,32958,27.8166005,-80.4695145
661,Sebastian Boulevard,32958,27.7959649,-80.4815368
1301,Sebastian Boulevard,32958,27.7713419,-80.5031848
1623,North Central Avenue,32958,27.8249468,-80.4747618
1029,Main Street,32958,27.8174310,-80.4717572
1045,Main Street,32958,27.8174868,-80.4731913
915,US Highway 1,32958,27.8115392,-80.4676906
911,US Highway 1,32958,27.8113636,-80.4675812
825,US Highway 1,32958,27.8100825,-80.4672295
821,US Highway 1,32958,27.8098163,-80.4670781
645,Sebastian Boulevard,32958,27.7966441,-80.4809055
637,Sebastian Boulevard,32958,27.7969967,-80.4805618
1205,Sebastian Boulevard,32958,27.7737395,-80.5008470
921,Sebastian Boulevard,32958,27.7849439,-80.4913930
861,Sebastian Boulevard,32958,27.7863803,-80.4900777
867,Biscayne Lane,32958,27.7860205,-80.4903875
847,Sebastian Boulevard,32958,27.7869037,-80.4896609
1074,Laconia Street,32958,27.7772925,-80.4943575
875,Rosebush Terrace,32958,27.7770335,-80.4943350
824,Rosebush Terrace,32958,27.7765620,-80.4938715
797,Rosebush Terrace,32958,27.7770695,-80.4933365
723,Rosebush Terrace,32958,27.7782445,-80.4912695
741,Rosebush Terrace,32958,27.7780635,-80.4916045
757,Rosebush Terrace,32958,27.7777270,-80.4920735
765,Rosebush Terrace,32958,27.7776395,-80.4923050
773,Rosebush Terrace,32958,27.7774965,-80.4924970
789,Rosebush Terrace,32958,27.7772690,-80.4929350
750,Rosebush Terrace,32958,27.7773790,-80.4917925
742,Rosebush Terrace,32958,27.7775270,-80.4916230
1019,Croquet Lane,32958,27.7776480,-80.4909765
1012,Croquet Lane,32958,27.7778175,-80.4904745
1022,Croquet Lane,32958,27.7776085,-80.4903785
1032,Croquet Lane,32958,27.7774420,-80.4902145
1042,Croquet Lane,32958,27.7772455,-80.4900970
1052,Croquet Lane,32958,27.7770650,-80.4899700
1062,Croquet Lane,32958,27.7768860,-80.4897995
1072,Croquet Lane,32958,27.7767125,-80.4896395
773,Tulip Drive,32958,27.7741670,-80.4930535
761,Tulip Drive,32958,27.7745970,-80.4924020
757,Tulip Drive,32958,27.7747075,-80.4921585
753,Tulip Drive,32958,27.7748490,-80.4919610
749,Tulip Drive,32958,27.7749740,-80.4917575
745,Tulip Drive,32958,27.7751170,-80.4914965
737,Tulip Drive,32958,27.7753235,-80.4911515
733,Tulip Drive,32958,27.7754545,-80.4909395
729,Tulip Drive,32958,27.7756125,-80.4907610
725,Tulip Drive,32958,27.7757170,-80.4905310
721,Tulip Drive,32958,27.7758300,-80.4903480
717,Tulip Drive,32958,27.7759590,-80.4901005
713,Tulip Drive,32958,27.7760640,-80.4898235
702,Media Terrace,32958,27.7763600,-80.4901065
1082,Croquet Lane,32958,27.7764065,-80.4894105
641,Tulip Drive,32958,27.7765510,-80.4890605
654,Tulip Drive,32958,27.7765176,-80.4881219
674,Tulip Drive,32958,27.7762115,-80.4886240
501,Albatross Terrace,32958,27.7762540,-80.4876520
698,Tulip Drive,32958,27.7753620,-80.4900285
708,Tulip Drive,32958,27.7750630,-80.4904790
714,Tulip Drive,32958,27.7747805,-80.4909875
726,Tulip Drive,32958,27.7745945,-80.4912970
732,Tulip Drive,32958,27.7743175,-80.4917085
762,Tulip Drive,32958,27.7738350,-80.4925335
768,Tulip Drive,32958,27.7737390,-80.4927120
750,Tulip Drive,32958,27.7741332,-80.4921337
774,Tulip Drive,32958,27.7734785,-80.4931320
780,Tulip Drive,32958,27.7733575,-80.4934280
786,Tulip Drive,32958,27.7732715,-80.4936640
792,Tulip Drive,32958,27.7732130,-80.4939200
798,Tulip Drive,32958,27.7731745,-80.4943440
827,Sebastian Boulevard,32958,27.7877277,-80.4888600
825,Sebastian Boulevard,32958,27.7879950,-80.4886350
281,Sebastian Boulevard,32958,27.8044295,-80.4734452
1094,Barber Street,32958,27.7785375,-80.4863865
497,Tulip Drive,32958,27.7782710,-80.4862180
1110,Barber Street,32958,27.7773815,-80.4855855
1146,Barber Street,32958,27.7764930,-80.4848800
1150,Barber Street,32958,27.7763280,-80.4847290
1158,Barber Street,32958,27.7761445,-80.4845920
1166,Barber Street,32958,27.7759445,-80.4844640
530,Atlantus Terrace,32958,27.7759655,-80.4854955
510,Atlantus Terrace,32958,27.7761065,-80.4852920
1141,Barber Street,32958,27.7758825,-80.4850940
1161,Barber Street,32958,27.7754780,-80.4848580
1151,Barber Street,32958,27.7756805,-80.4849520
619,Benedictine Terrace,32958,27.7698405,-80.4881860
613,Benedictine Terrace,32958,27.7699310,-80.4879575
607,Benedictine Terrace,32958,27.7700840,-80.4877905
601,Benedictine Terrace,32958,27.7702250,-80.4875630
579,Benedictine Terrace,32958,27.7708250,-80.4866005
1301,Dewitt Lane,32958,27.7693755,-80.4880250
601,Breakwater Terrace,32958,27.7690640,-80.4878090
602,Breakwater Terrace,32958,27.7686640,-80.4875050
608,Benedictine Terrace,32958,27.7696705,-80.4876605
1306,Dewitt Lane,32958,27.7694505,-80.4875685
1310,Dewitt Lane,32958,27.7693070,-80.4873480
1314,Dewitt Lane,32958,27.7690915,-80.4872570
1318,Dewitt Lane,32958,27.7689050,-80.4870760
1322,Dewitt Lane,32958,27.7687740,-80.4869405
1330,Dewitt Lane,32958,27.7684825,-80.4867315
1334,Dewitt Lane,32958,27.7682085,-80.4865525
1338,Dewitt Lane,32958,27.7680130,-80.4863915
1342,Dewitt Lane,32958,27.7678160,-80.4862995
1346,Dewitt Lane,32958,27.7676480,-80.4861535
1350,Dewitt Lane,32958,27.7675085,-80.4859855
1362,Dewitt Lane,32958,27.7669310,-80.4855780
1366,Dewitt Lane,32958,27.7667239,-80.4854529
1370,Dewitt Lane,32958,27.7665605,-80.4853255
1375,Dewitt Lane,32958,27.7663490,-80.4857585
601,Browning Terrace,32958,27.7670438,-80.4862636
1354,Dewitt Lane,32958,27.7672888,-80.4858167
602,Belfast Terrace,32958,27.7679935,-80.4869845
602,Brookedge Terrace,32958,27.7673245,-80.4864590
598,Rolling Hill Drive,32958,27.7659895,-80.4854020
592,Rolling Hill Drive,32958,27.7661055,-80.4852070
586,Rolling Hill Drive,32958,27.7662325,-80.4849920
574,Rolling Hill Drive,32958,27.7664135,-80.4846990
609,Caravan Terrace,32958,27.7650815,-80.4860140
625,Caravan Terrace,32958,27.7647778,-80.4865276
649,Caravan Terrace,32958,27.7643830,-80.4871455
657,Caravan Terrace,32958,27.7642680,-80.4873505
665,Caravan Terrace,32958,27.7641640,-80.4875695
693,Caravan Terrace,32958,27.7635990,-80.4884765
697,Caravan Terrace,32958,27.7635045,-80.4887515
741,Sebastian Boulevard,32958,27.7898897,-80.4869432
805,Sebastian Boulevard,32958,27.7887695,-80.4878600
1174,Barber Street,32958,27.7757570,-80.4843445
281,Watercrest Street,32958,27.7746570,-80.4828800
273,Watercrest Street,32958,27.7744595,-80.4827710
257,Watercrest Street,32958,27.7741260,-80.4824620
249,Watercrest Street,32958,27.7739350,-80.4823495
209,Watercrest Street,32958,27.7730355,-80.4816155
201,Watercrest Street,32958,27.7728460,-80.4815240
225,Watercrest Street,32958,27.7733825,-80.4819470
392,Benedictine Terrace,32958,27.7734090,-80.4813420
382,Benedictine Terrace,32958,27.7735300,-80.4811505
373,Breakwater Terrace,32958,27.7730635,-80.4811110
349,Breakwater Terrace,32958,27.7734290,-80.4804400
362,Benedictine Terrace,32958,27.7737645,-80.4807390
352,Benedictine Terrace,32958,27.7738715,-80.4804895
342,Benedictine Terrace,32958,27.7740145,-80.4803010
240,Watercrest Street,32958,27.7741065,-80.4818090
374,Bayharbor Terrace,32958,27.7743770,-80.4813455
366,Bayharbor Terrace,32958,27.7745820,-80.4810430
357,Benedictine Terrace,32958,27.7742545,-80.4807950
349,Benedictine Terrace,32958,27.7744675,-80.4805220
333,Benedictine Terrace,32958,27.7746190,-80.4801835
325,Benedictine Terrace,32958,27.7747365,-80.4799845
317,Benedictine Terrace,32958,27.7748650,-80.4797640
309,Benedictine Terrace,32958,27.7750510,-80.4795815
358,Bayharbor Terrace,32958,27.7747045,-80.4808195
385,Bayharbor Terrace,32958,27.7744405,-80.4821545
367,Bayharbor Terrace,32958,27.7747160,-80.4816825
386,Bayfront Terrace,32958,27.7747730,-80.4823725
380,Bayfront Terrace,32958,27.7749300,-80.4820880
374,Bayfront Terrace,32958,27.7750695,-80.4818665
368,Bayfront Terrace,32958,27.7751850,-80.4816830
362,Bayfront Terrace,32958,27.7753115,-80.4814660
356,Bayfront Terrace,32958,27.7754390,-80.4812780
349,Bayharbor Terrace,32958,27.7752030,-80.4809360
361,Bayharbor Terrace,32958,27.7749470,-80.4813570
343,Bayharbor Terrace,32958,27.7752840,-80.4807130
337,Bayharbor Terrace,32958,27.7754725,-80.4804065
338,Bayfront Terrace,32958,27.7757885,-80.4806435
332,Bayfront Terrace,32958,27.7759365,-80.4804275
325,Bayharbor Terrace,32958,27.7757145,-80.4801175
319,Bayharbor Terrace,32958,27.7758195,-80.4799165
313,Bayharbor Terrace,32958,27.7759095,-80.4796805
307,Bayharbor Terrace,32958,27.7760535,-80.4794665
320,Bayfront Terrace,32958,27.7761725,-80.4800285
308,Bayfront Terrace,32958,27.7764217,-80.4796018
391,Bayfront Terrace,32958,27.7753210,-80.4823800
373,Bayfront Terrace,32958,27.7756380,-80.4818565
367,Bayfront Terrace,32958,27.7757485,-80.4816385
361,Bayfront Terrace,32958,27.7758735,-80.4814200
349,Bayfront Terrace,32958,27.7761165,-80.4810150
331,Bayfront Terrace,32958,27.7765010,-80.4804010
325,Bayfront Terrace,32958,27.7765885,-80.4801720
319,Bayfront Terrace,32958,27.7767220,-80.4799785
313,Bayfront Terrace,32958,27.7768405,-80.4797925
307,Bayfront Terrace,32958,27.7770135,-80.4795360
301,Bayfront Terrace,32958,27.7770920,-80.4792175
1108,George Street,32958,27.7773805,-80.4792270
302,Bayfront Terrace,32958,27.7765770,-80.4792235
1148,George Street,32958,27.7756315,-80.4792730
1161,George Street,32958,27.7753860,-80.4787065
1155,George Street,32958,27.7756220,-80.4787225
301,Benedictine Terrace,32958,27.7750680,-80.4792525
326,Bayharbor Terrace,32958,27.7751775,-80.4800375
1173,George Street,32958,27.7749525,-80.4786960
312,Benedictine Terrace,32958,27.7743695,-80.4796050
322,Benedictine Terrace,32958,27.7742605,-80.4799070
332,Benedictine Terrace,32958,27.7741640,-80.4801330
317,Breakwater Terrace,32958,27.7740395,-80.4795735
325,Breakwater Terrace,32958,27.7738215,-80.4798915
1200,George Street,32958,27.7736515,-80.4792590
1206,George Street,32958,27.7733975,-80.4792230
1212,George Street,32958,27.7731315,-80.4792130
1209,George Street,32958,27.7734095,-80.4787520
1302,Coverbrook Lane,32958,27.7723620,-80.4830850
420,Benedictine Terrace,32958,27.7725880,-80.4827270
1314,Coverbrook Lane,32958,27.7719980,-80.4828245
1320,Coverbrook Lane,32958,27.7718275,-80.4826935
1307,Barber Street,32958,27.7719010,-80.4821155
1306,Barber Street,32958,27.7721890,-80.4816490
1314,Barber Street,32958,27.7718845,-80.4814415
391,Belfast Terrace,32958,27.7720020,-80.4812320
381,Belfast Terrace,32958,27.7721300,-80.4810195
371,Belfast Terrace,32958,27.7722370,-80.4808160
350,Breakwater Terrace,32958,27.7728295,-80.4806490
351,Belfast Terrace,32958,27.7725329,-80.4804218
331,Belfast Terrace,32958,27.7727635,-80.4800140
321,Belfast Terrace,32958,27.7728840,-80.4798050
311,Belfast Terrace,32958,27.7729775,-80.4795355
326,Breakwater Terrace,32958,27.7731730,-80.4799955
318,Breakwater Terrace,32958,27.7733080,-80.4798185
314,Belfast Terrace,32958,27.7724000,-80.4796875
326,Belfast Terrace,32958,27.7722775,-80.4799130
338,Belfast Terrace,32958,27.7721415,-80.4801215
337,Brookedge Terrace,32958,27.7718609,-80.4798828
313,Brookedge Terrace,32958,27.7720415,-80.4794940
301,Brookedge Terrace,32958,27.7721605,-80.4792545
398,Belfast Terrace,32958,27.7715260,-80.4811240
386,Belfast Terrace,32958,27.7716305,-80.4809210
374,Belfast Terrace,32958,27.7717460,-80.4807280
362,Belfast Terrace,32958,27.7719020,-80.4805195
349,Brookedge Terrace,32958,27.7717295,-80.4801200
361,Brookedge Terrace,32958,27.7715914,-80.4803146
1340,Barber Street,32958,27.7712065,-80.4809335
373,Brookedge Terrace,32958,27.7714665,-80.4805245
1331,Barber Street,32958,27.7711730,-80.4815730
1319,Barber Street,32958,27.7715185,-80.4818420
1326,Coverbrook Lane,32958,27.7715380,-80.4824720
1344,Coverbrook Lane,32958,27.7712980,-80.4822860
1350,Coverbrook Lane,32958,27.7711040,-80.4821525
1356,Coverbrook Lane,32958,27.7709170,-80.4820180
1337,Barber Street,32958,27.7709890,-80.4814140
1343,Barber Street,32958,27.7707980,-80.4813135
1349,Barber Street,32958,27.7705865,-80.4811840
1355,Barber Street,32958,27.7704390,-80.4810325
1361,Barber Street,32958,27.7702525,-80.4808950
1367,Barber Street,32958,27.7700730,-80.4807590
1368,Coverbrook Lane,32958,27.7703840,-80.4815825
1374,Coverbrook Lane,32958,27.7701665,-80.4814615
1380,Coverbrook Lane,32958,27.7699925,-80.4812955
382,Brookedge Terrace,32958,27.7709660,-80.4804555
350,Brookedge Terrace,32958,27.7712075,-80.4800075
334,Breakwater Terrace,32958,27.7730306,-80.4802025
333,Breakwater Terrace,32958,27.7736992,-80.4800899
1225,George Street,32958,27.7725320,-80.4787655
1229,George Street,32958,27.7723100,-80.4787630
1241,George Street,32958,27.7716550,-80.4787560
1245,George Street,32958,27.7714250,-80.4787565
1249,George Street,32958,27.7712105,-80.4787630
1253,George Street,32958,27.7709915,-80.4787590
399,Browning Terrace,32958,27.7704990,-80.4804070
334,Brookedge Terrace,32958,27.7712880,-80.4798305
302,Brookedge Terrace,32958,27.7716400,-80.4792960
1257,George Street,32958,27.7707700,-80.4787510
1273,George Street,32958,27.7698600,-80.4789685
1281,George Street,32958,27.7695655,-80.4793850
1385,Barber Street,32958,27.7695505,-80.4803595
1373,Barber Street,32958,27.7698715,-80.4806175
1384,Coverbrook Lane,32958,27.7698015,-80.4811900
1392,Coverbrook Lane,32958,27.7694575,-80.4809020
1398,Coverbrook Lane,32958,27.7692860,-80.4807820
1391,Barber Street,32958,27.7691485,-80.4800740
405,Rolling Hill Drive,32958,27.7690750,-80.4812350
502,Browning Terrace,32958,27.7693505,-80.4814440
510,Browning Terrace,32958,27.7691995,-80.4816855
526,Browning Terrace,32958,27.7689510,-80.4821025
534,Browning Terrace,32958,27.7688210,-80.4822890
518,Browning Terrace,32958,27.7690825,-80.4818755
437,Rolling Hill Drive,32958,27.7687205,-80.4817960
461,Rolling Hill Drive,32958,27.7685005,-80.4820985
473,Rolling Hill Drive,32958,27.7683515,-80.4823760
485,Rolling Hill Drive,32958,27.7681965,-80.4826435
497,Rolling Hill Drive,32958,27.7680225,-80.4829025
501,Rolling Hill Drive,32958,27.7678715,-80.4831655
574,Browning Terrace,32958,27.7682455,-80.4833460
566,Browning Terrace,32958,27.7683430,-80.4831450
550,Browning Terrace,32958,27.7685855,-80.4827210
590,Browning Terrace,32958,27.7679910,-80.4837320
582,Browning Terrace,32958,27.7680969,-80.4835465
1386,Haverford Lane,32958,27.7674904,-80.4837618
1368,Haverford Lane,32958,27.7681690,-80.4842880
1356,Haverford Lane,32958,27.7685200,-80.4845535
590,Brookedge Terrace,32958,27.7686795,-80.4842785
582,Brookedge Terrace,32958,27.7687965,-80.4840550
574,Brookedge Terrace,32958,27.7688890,-80.4838360
1338,Haverford Lane,32958,27.7691815,-80.4850540
590,Belfast Terrace,32958,27.7693430,-80.4847835
581,Brookedge Terrace,32958,27.7691375,-80.4843510
582,Belfast Terrace,32958,27.7694920,-80.4845975
566,Belfast Terrace,32958,27.7696965,-80.4841650
558,Belfast Terrace,32958,27.7698070,-80.4839565
550,Belfast Terrace,32958,27.7699105,-80.4837370
549,Brookedge Terrace,32958,27.7696435,-80.4835305
541,Brookedge Terrace,32958,27.7697685,-80.4833010
542,Belfast Terrace,32958,27.7700700,-80.4835420
502,Belfast Terrace,32958,27.7707190,-80.4824555
510,Belfast Terrace,32958,27.7705855,-80.4827520
518,Belfast Terrace,32958,27.7704577,-80.4829266
501,Brookedge Terrace,32958,27.7703915,-80.4822305
510,Brookedge Terrace,32958,27.7698875,-80.4822100
518,Brookedge Terrace,32958,27.7697580,-80.4824175
526,Brookedge Terrace,32958,27.7696160,-80.4826225
525,Browning Terrace,32958,27.7693680,-80.4823910
517,Browning Terrace,32958,27.7694430,-80.4821670
509,Browning Terrace,32958,27.7696180,-80.4819905
501,Browning Terrace,32958,27.7697350,-80.4817420
542,Brookedge Terrace,32958,27.7693920,-80.4830145
550,Brookedge Terrace,32958,27.7692695,-80.4832185
558,Brookedge Terrace,32958,27.7690830,-80.4835440
565,Browning Terrace,32958,27.7687130,-80.4834120
557,Browning Terrace,32958,27.7688500,-80.4832105
549,Browning Terrace,32958,27.7689775,-80.4830255
533,Browning Terrace,32958,27.7691903,-80.4825847
573,Browning Terrace,32958,27.7686135,-80.4836360
581,Browning Terrace,32958,27.7684630,-80.4838315
1373,Haverford Lane,32958,27.7682360,-80.4849405
1381,Haverford Lane,32958,27.7677440,-80.4846115
1385,Haverford Lane,32958,27.7675890,-80.4845135
568,Rolling Hill Drive,32958,27.7666065,-80.4843720
562,Rolling Hill Drive,32958,27.7667195,-80.4841735
550,Rolling Hill Drive,32958,27.7669465,-80.4837770
544,Rolling Hill Drive,32958,27.7670980,-80.4835665
538,Rolling Hill Drive,32958,27.7672395,-80.4833495
532,Rolling Hill Drive,32958,27.7673785,-80.4831605
556,Rolling Hill Drive,32958,27.7668618,-80.4839349
525,Caravan Terrace,32958,27.7665225,-80.4835780
509,Caravan Terrace,32958,27.7668540,-80.4830795
501,Caravan Terrace,32958,27.7669725,-80.4828885
549,Caravan Terrace,32958,27.7662675,-80.4840565
557,Caravan Terrace,32958,27.7660910,-80.4842870
565,Caravan Terrace,32958,27.7659770,-80.4845110
573,Caravan Terrace,32958,27.7658685,-80.4847160
581,Caravan Terrace,32958,27.7656935,-80.4848845
599,Caravan Terrace,32958,27.7653535,-80.4855380
572,Caravan Terrace,32958,27.7651970,-80.4848680
1502,Dewitt Lane,32958,27.7654720,-80.4844585
1510,Dewitt Lane,32958,27.7652995,-80.4843200
1518,Dewitt Lane,32958,27.7651115,-80.4842295
1517,Damask Lane,32958,27.7653115,-80.4838570
1526,Dewitt Lane,32958,27.7649235,-80.4840860
1533,Damask Lane,32958,27.7649230,-80.4835725
1534,Dewitt Lane,32958,27.7647365,-80.4839600
1525,Damask Lane,32958,27.7651353,-80.4837188
597,Caravan Terrace,32958,27.7654835,-80.4853207
542,Caravan Terrace,32958,27.7658780,-80.4837160
1509,Haverford Lane,32958,27.7658720,-80.4832085
522,Caravan Terrace,32958,27.7661085,-80.4833260
1525,Haverford Lane,32958,27.7656010,-80.4829880
1533,Haverford Lane,32958,27.7653180,-80.4827660
1526,Damask Lane,32958,27.7653290,-80.4832400
1542,Damask Lane,32958,27.7649525,-80.4829730
1549,Haverford Lane,32958,27.7649645,-80.4824935
1550,Damask Lane,32958,27.7647345,-80.4828425
1558,Damask Lane,32958,27.7645895,-80.4826880
1574,Damask Lane,32958,27.7641845,-80.4824405
1582,Damask Lane,32958,27.7639490,-80.4822575
421,Chaloupe Terrace,32958,27.7641960,-80.4819550
1581,Damask Lane,32958,27.7638660,-80.4827525
1573,Damask Lane,32958,27.7640515,-80.4829100
1557,Damask Lane,32958,27.7643815,-80.4831865
1549,Damask Lane,32958,27.7645790,-80.4833505
1542,Dewitt Lane,32958,27.7645605,-80.4838130
1558,Dewitt Lane,32958,27.7642175,-80.4834735
1566,Dewitt Lane,32958,27.7640140,-80.4833865
1549,Dewitt Lane,32958,27.7640290,-80.4840335
1541,Dewitt Lane,32958,27.7642155,-80.4841495
1533,Dewitt Lane,32958,27.7643815,-80.4843090
1525,Dewitt Lane,32958,27.7645865,-80.4844335
1517,Dewitt Lane,32958,27.7648575,-80.4846835
1540,Glentry Lane,32958,27.7640235,-80.4844960
1520,Glentry Lane,32958,27.7644875,-80.4848205
1528,Glentry Lane,32958,27.7641845,-80.4846325
1565,Dewitt Lane,32958,27.7636589,-80.4837670
1573,Dewitt Lane,32958,27.7635116,-80.4835759
1581,Dewitt Lane,32958,27.7633050,-80.4834635
1590,Dewitt Lane,32958,27.7634620,-80.4829485
1572,Glentry Lane,32958,27.7632915,-80.4839255
461,Chaloupe Terrace,32958,27.7630545,-80.4833320
1537,Glentry Lane,32958,27.7628500,-80.4842260
1533,Glentry Lane,32958,27.7630080,-80.4843725
1529,Glentry Lane,32958,27.7632190,-80.4845005
1525,Glentry Lane,32958,27.7633695,-80.4846535
502,Carnival Terrace,32958,27.7640550,-80.4851650
508,Carnival Terrace,32958,27.7639380,-80.4853540
501,Cavern Terrace,32958,27.7637130,-80.4849835
525,Carnival Terrace,32958,27.7641616,-80.4858980
513,Carnival Terrace,32958,27.7642670,-80.4857040
501,Carnival Terrace,32958,27.7644360,-80.4854630
602,Caravan Terrace,32958,27.7647360,-80.4856705
614,Caravan Terrace,32958,27.7645410,-80.4859475
638,Caravan Terrace,32958,27.7643505,-80.4863760
626,Caravan Terrace,32958,27.7644525,-80.4861245
549,Carnival Terrace,32958,27.7638980,-80.4863310
561,Carnival Terrace,32958,27.7637640,-80.4865265
662,Caravan Terrace,32958,27.7640910,-80.4867714
686,Caravan Terrace,32958,27.7638390,-80.4871670
597,Carnival Terrace,32958,27.7634085,-80.4871485
520,Carnival Terrace,32958,27.7636710,-80.4857620
550,Carnival Terrace,32958,27.7630610,-80.4867900
556,Carnival Terrace,32958,27.7629360,-80.4870015
580,Carnival Terrace,32958,27.7624375,-80.4878105
574,Carnival Terrace,32958,27.7625590,-80.4875955
568,Carnival Terrace,32958,27.7626730,-80.4873925
562,Carnival Terrace,32958,27.7628306,-80.4871584
1543,Glentry Lane,32958,27.7624850,-80.4839860
438,Chaloupe Terrace,32958,27.7635215,-80.4820595
426,Chaloupe Terrace,32958,27.7636710,-80.4818345
420,Chaloupe Terrace,32958,27.7639561,-80.4814684
401,Concha Drive,32958,27.7630340,-80.4798375
386,Concha Drive,32958,27.7631930,-80.4796775
380,Concha Drive,32958,27.7633330,-80.4794880
374,Concha Drive,32958,27.7635000,-80.4793000
368,Concha Drive,32958,27.7636090,-80.4791100
356,Concha Drive,32958,27.7637925,-80.4788065
1589,Damask Lane,32958,27.7636761,-80.4826569
1542,Haverford Lane,32958,27.7654730,-80.4823075
1550,Haverford Lane,32958,27.7652845,-80.4821570
1549,Crowberry Lane,32958,27.7654875,-80.4817750
1526,Haverford Lane,32958,27.7658710,-80.4825325
1534,Haverford Lane,32958,27.7656630,-80.4823890
1525,Crowberry Lane,32958,27.7659505,-80.4821285
1557,Crowberry Lane,32958,27.7652270,-80.4815650
1581,Crowberry Lane,32958,27.7648100,-80.4812720
1582,Haverford Lane,32958,27.7646415,-80.4816430
1514,Crowberry Lane,32958,27.7661635,-80.4816765
1517,Crowberry Lane,32958,27.7662210,-80.4823840
491,Carnival Terrace,32958,27.7665645,-80.4818610
1506,Crowberry Lane,32958,27.7668190,-80.4821695
490,Caravan Terrace,32958,27.7669375,-80.4819900
482,Caravan Terrace,32958,27.7670580,-80.4817820
461,Carnival Terrace,32958,27.7668875,-80.4813580
451,Carnival Terrace,32958,27.7670055,-80.4811335
441,Carnival Terrace,32958,27.7671150,-80.4809305
462,Carnival Terrace,32958,27.7666235,-80.4808820
450,Carnival Terrace,32958,27.7667025,-80.4807030
1510,Esterbrook Lane,32958,27.7663610,-80.4807090
474,Carnival Terrace,32958,27.7663330,-80.4812405
1509,Esterbrook Lane,32958,27.7660950,-80.4810990
1525,Esterbrook Lane,32958,27.7658550,-80.4809120
1520,Crowberry Lane,32958,27.7659095,-80.4814755
1526,Crowberry Lane,32958,27.7657200,-80.4813310
1532,Crowberry Lane,32958,27.7655275,-80.4811675
1541,Esterbrook Lane,32958,27.7652980,-80.4804855
1544,Crowberry Lane,32958,27.7651725,-80.4809220
1556,Crowberry Lane,32958,27.7648075,-80.4806140
1557,Esterbrook Lane,32958,27.7649920,-80.4802800
1565,Esterbrook Lane,32958,27.7648165,-80.4801670
1562,Crowberry Lane,32958,27.7646100,-80.4805124
1568,Crowberry Lane,32958,27.7644170,-80.4803160
1573,Esterbrook Lane,32958,27.7646405,-80.4800285
1581,Esterbrook Lane,32958,27.7644413,-80.4798784
1589,Esterbrook Lane,32958,27.7642735,-80.4797320
1580,Crowberry Lane,32958,27.7641690,-80.4801130
1593,Esterbrook Lane,32958,27.7640895,-80.4796045
1591,Esterbrook Lane,32958,27.7639240,-80.4794640
1592,Crowberry Lane,32958,27.7637260,-80.4798195
1518,Haverford Lane,32958,27.7660444,-80.4826480
1502,Haverford Lane,32958,27.7664113,-80.4828885
1505,Crowberry Lane,32958,27.7665832,-80.4826054
1504,Crowberry Lane,32958,27.7672095,-80.4824425
520,Rolling Hill Drive,32958,27.7677070,-80.4825130
473,Caravan Terrace,32958,27.7673125,-80.4822385
467,Caravan Terrace,32958,27.7674460,-80.4820330
461,Caravan Terrace,32958,27.7675680,-80.4818495
455,Caravan Terrace,32958,27.7677150,-80.4816390
508,Rolling Hill Drive,32958,27.7679355,-80.4821270
502,Rolling Hill Drive,32958,27.7680658,-80.4819236
472,Rolling Hill Drive,32958,27.7683025,-80.4814995
458,Rolling Hill Drive,32958,27.7684420,-80.4812710
444,Rolling Hill Drive,32958,27.7685600,-80.4810925
434,Rolling Hill Drive,32958,27.7686560,-80.4808725
443,Caravan Terrace,32958,27.7679305,-80.4812330
437,Caravan Terrace,32958,27.7680625,-80.4810260
431,Caravan Terrace,32958,27.7682095,-80.4808270
428,Caravan Terrace,32958,27.7683155,-80.4806090
419,Caravan Terrace,32958,27.7684560,-80.4803995
413,Caravan Terrace,32958,27.7685450,-80.4802075
407,Caravan Terrace,32958,27.7686990,-80.4799870
401,Caravan Terrace,32958,27.7688375,-80.4797945
424,Rolling Hill Drive,32958,27.7687890,-80.4806560
414,Rolling Hill Drive,32958,27.7689690,-80.4804675
1401,Barber Street,32958,27.7684130,-80.4795080
1413,Barber Street,32958,27.7682480,-80.4793805
1425,Barber Street,32958,27.7680395,-80.4792435
1437,Barber Street,32958,27.7678850,-80.4790875
1512,Eastlake Lane,32958,27.7679535,-80.4796540
1502,Eastlake Lane,32958,27.7681990,-80.4798725
1507,Eastlake Lane,32958,27.7678210,-80.4801770
1501,Eastlake Lane,32958,27.7679980,-80.4802630
450,Caravan Terrace,32958,27.7676660,-80.4807570
460,Caravan Terrace,32958,27.7674210,-80.4811760
466,Caravan Terrace,32958,27.7673200,-80.4813645
474,Caravan Terrace,32958,27.7671905,-80.4815840
431,Carnival Terrace,32958,27.7672425,-80.4807350
421,Carnival Terrace,32958,27.7673455,-80.4805135
1518,Eastlake Lane,32958,27.7676460,-80.4794650
1461,Barber Street,32958,27.7675960,-80.4788450
1473,Barber Street,32958,27.7673190,-80.4786750
1526,Esterbrook Lane,32958,27.7660030,-80.4804010
1534,Esterbrook Lane,32958,27.7658170,-80.4802770
1542,Esterbrook Lane,32958,27.7655440,-80.4800405
1558,Esterbrook Lane,32958,27.7653115,-80.4798640
1566,Esterbrook Lane,32958,27.7651065,-80.4797000
1574,Esterbrook Lane,32958,27.7649360,-80.4795635
1590,Esterbrook Lane,32958,27.7645440,-80.4793040
1598,Esterbrook Lane,32958,27.7641760,-80.4790100
1585,Barber Street,32958,27.7655115,-80.4773210
10719,US Highway 1,32958,27.7892075,-80.4562210
10795,US Highway 1,32958,27.7906635,-80.4569375
170,Englar Drive,32958,27.7779575,-80.4697165
166,Englar Drive,32958,27.7780080,-80.4694355
162,Englar Drive,32958,27.7780605,-80.4691795
158,Englar Drive,32958,27.7780700,-80.4689230
154,Englar Drive,32958,27.7781100,-80.4686715
152,Englar Drive,32958,27.7780785,-80.4684085
148,Englar Drive,32958,27.7781020,-80.4681415
144,Englar Drive,32958,27.7781130,-80.4678840
140,Englar Drive,32958,27.7781410,-80.4676045
130,Englar Drive,32958,27.7780985,-80.4668500
120,Englar Drive,32958,27.7780815,-80.4663480
116,Englar Drive,32958,27.7781030,-80.4661085
115,Englar Drive,32958,27.7776250,-80.4661325
123,Englar Drive,32958,27.7776250,-80.4666660
135,Englar Drive,32958,27.7776335,-80.4669125
139,Englar Drive,32958,27.7776135,-80.4671845
143,Englar Drive,32958,27.7776215,-80.4679655
147,Englar Drive,32958,27.7776010,-80.4682435
151,Englar Drive,32958,27.7776225,-80.4684950
171,Englar Drive,32958,27.7774540,-80.4710235
173,Englar Drive,32958,27.7774330,-80.4713425
1156,Schumann Drive,32958,27.7753515,-80.4661460
1160,Schumann Drive,32958,27.7751340,-80.4661295
1164,Schumann Drive,32958,27.7749050,-80.4661270
1168,Schumann Drive,32958,27.7746880,-80.4661875
1172,Schumann Drive,32958,27.7744695,-80.4661770
1176,Schumann Drive,32958,27.7742670,-80.4660905
1171,Schumann Drive,32958,27.7744675,-80.4655840
1163,Schumann Drive,32958,27.7749075,-80.4655580
1159,Schumann Drive,32958,27.7751270,-80.4655410
1155,Schumann Drive,32958,27.7753480,-80.4655610
1151,Schumann Drive,32958,27.7755720,-80.4655545
164,Empress Avenue,32958,27.7729925,-80.4655515
1246,Schumann Drive,32958,27.7691015,-80.4661510
1247,Schumann Drive,32958,27.7689070,-80.4656065
1251,Schumann Drive,32958,27.7686865,-80.4656120
1255,Schumann Drive,32958,27.7684665,-80.4656130
1237,Schumann Drive,32958,27.7702585,-80.4656265
1229,Schumann Drive,32958,27.7709825,-80.4655880
1225,Schumann Drive,32958,27.7711995,-80.4655970
1221,Schumann Drive,32958,27.7714225,-80.4655905
1217,Schumann Drive,32958,27.7716420,-80.4655840
1213,Schumann Drive,32958,27.7718640,-80.4655545
1209,Schumann Drive,32958,27.7720765,-80.4655850
1201,Schumann Drive,32958,27.7725260,-80.4655770
1205,Schumann Drive,32958,27.7722970,-80.4655760
1536,Barber Street,32958,27.7667325,-80.4774684
1426,Barber Street,32958,27.7683845,-80.4787513
1545,Barber Street,32958,27.7662387,-80.4778785
1438,Barber Street,32958,27.7681904,-80.4785710
1610,Barber Street,32958,27.7643682,-80.4757186
1450,Barber Street,32958,27.7679982,-80.4784557
1521,Barber Street,32958,27.7666044,-80.4781373
1557,Barber Street,32958,27.7660603,-80.4777241
1497,Barber Street,32958,27.7669767,-80.4783951
1510,Barber Street,32958,27.7671035,-80.4778113
1485,Barber Street,32958,27.7671385,-80.4785600
1498,Barber Street,32958,27.7672589,-80.4779192
1614,Barber Street,32958,27.7641722,-80.4755801
1486,Barber Street,32958,27.7674826,-80.4780187
1572,Barber Street,32958,27.7661809,-80.4770850
1598,Barber Street,32958,27.7656396,-80.4766615
1561,Barber Street,32958,27.7658960,-80.4775679
1402,Barber Street,32958,27.7687210,-80.4790199
1622,Barber Street,32958,27.7637975,-80.4752933
1414,Barber Street,32958,27.7685490,-80.4788738
1548,Barber Street,32958,27.7665332,-80.4773841
1560,Barber Street,32958,27.7663602,-80.4772154
1711,Skyline Lane,32958,27.7599173,-80.4725566
1685,Barber Street,32958,27.7609831,-80.4738840
1771,Barber Street,32958,27.7599164,-80.4710333
1781,Barber Street,32958,27.7599005,-80.4707840
1791,Barber Street,32958,27.7598998,-80.4705029
1801,Barber Street,32958,27.7599360,-80.4697284
137,Filbert Street,32958,27.7604178,-80.4696986
1699,Barber Street,32958,27.7603907,-80.4734534
1811,Barber Street,32958,27.7599029,-80.4689263
1691,Barber Street,32958,27.7608021,-80.4737667
1812,Barber Street,32958,27.7604467,-80.4689194
1751,Barber Street,32958,27.7599000,-80.4715272
1695,Barber Street,32958,27.7606283,-80.4736462
1761,Barber Street,32958,27.7599279,-80.4712802
1785,Skyline Lane,32958,27.7599256,-80.4730502
1787,Skyline Lane,32958,27.7599247,-80.4727682
1661,Barber Street,32958,27.7617268,-80.4744390
1637,Barber Street,32958,27.7624848,-80.4749704
1679,Barber Street,32958,27.7611799,-80.4740351
1649,Barber Street,32958,27.7620736,-80.4747314
1660,Barber Street,32958,27.7621672,-80.4740283
1667,Barber Street,32958,27.7615482,-80.4743093
1656,Barber Street,32958,27.7623704,-80.4741831
1673,Barber Street,32958,27.7613742,-80.4741896
1670,Barber Street,32958,27.7616466,-80.4736410
1686,Barber Street,32958,27.7612762,-80.4733956
1664,Barber Street,32958,27.7619859,-80.4738946
1652,Barber Street,32958,27.7625422,-80.4743116
1655,Barber Street,32958,27.7619028,-80.4745743
1261,George Street,32958,27.7705592,-80.4787892
318,Brookedge Terrace,32958,27.7714492,-80.4796398
366,Brookedge Terrace,32958,27.7710759,-80.4802329
1859,Barber Street,32958,27.7598635,-80.4653957
1338,Schumann Drive,32958,27.7632463,-80.4649519
1899,Barber Street,32958,27.7603436,-80.4625967
1816,Barber Street,32958,27.7604553,-80.4686588
1835,Barber Street,32958,27.7598936,-80.4672202
1847,Barber Street,32958,27.7598591,-80.4661392
1815,Barber Street,32958,27.7599013,-80.4686838
102,Curtis Circle,32958,27.7603941,-80.4643940
1867,Barber Street,32958,27.7598596,-80.4649024
1840,Barber Street,32958,27.7604192,-80.4668931
1823,Barber Street,32958,27.7598953,-80.4679689
1828,Barber Street,32958,27.7604411,-80.4676406
1827,Barber Street,32958,27.7598790,-80.4677161
1386,Schumann Drive,32958,27.7611711,-80.4631835
1382,Schumann Drive,32958,27.7613591,-80.4632529
1883,Barber Street,32958,27.7598839,-80.4638955
122,Curtis Circle,32958,27.7604338,-80.4647928
1326,Schumann Drive,32958,27.7637665,-80.4653958
1820,Barber Street,32958,27.7604373,-80.4681729
1334,Schumann Drive,32958,27.7634112,-80.4651004
1831,Barber Street,32958,27.7598907,-80.4674715
1832,Barber Street,32958,27.7604349,-80.4673802
1863,Barber Street,32958,27.7598529,-80.4651492
1819,Barber Street,32958,27.7598871,-80.4682042
1879,Barber Street,32958,27.7598723,-80.4641660
1322,Schumann Drive,32958,27.7639631,-80.4655666
1836,Barber Street,32958,27.7604163,-80.4671693
1271,Schumann Drive,32958,27.7675913,-80.4656089
1625,Barber Street,32958,27.7632184,-80.4755716
1295,Schumann Drive,32958,27.7662830,-80.4656743
1314,Schumann Drive,32958,27.7642920,-80.4658508
1286,Schumann Drive,32958,27.7668213,-80.4662402
1274,Schumann Drive,32958,27.7674930,-80.4661790
1282,Schumann Drive,32958,27.7670514,-80.4662016
1283,Schumann Drive,32958,27.7669267,-80.4656145
1640,Barber Street,32958,27.7631359,-80.4747831
1631,Barber Street,32958,27.7626369,-80.4751301
1291,Schumann Drive,32958,27.7664918,-80.4656371
1306,Schumann Drive,32958,27.7647344,-80.4661488
1626,Barber Street,32958,27.7636201,-80.4751547
190,Day Drive,32958,27.7640784,-80.4641667
1279,Schumann Drive,32958,27.7671505,-80.4656265
1290,Schumann Drive,32958,27.7666083,-80.4662508
1648,Barber Street,32958,27.7627237,-80.4744725
1275,Schumann Drive,32958,27.7673716,-80.4656242
1354,Schumann Drive,32958,27.7625656,-80.4643418
1101,US Highway 1,32958,27.8147813,-80.4691348
705a,Cleveland Street,32958,27.8110796,-80.4663087
695,Sebastian Boulevard,32958,27.7944225,-80.4829113
160,Airport Drive East,32958,27.8123473,-80.4881629
633,Sebastian Boulevard,32958,27.7972396,-80.4803542
220,Sebastian Boulevard,32958,27.8060740,-80.4720684
219,Englar Drive,32958,27.7772556,-80.4738529
291,Englar Drive,32958,27.7776574,-80.4775579
237,Englar Drive,32958,27.7774688,-80.4746588
268,Englar Drive,32958,27.7781107,-80.4767054
279,Englar Drive,32958,27.7776602,-80.4770823
285,Englar Drive,32958,27.7776636,-80.4773354
226,Englar Drive,32958,27.7781029,-80.4744633
255,Englar Drive,32958,27.7776135,-80.4761111
250,Englar Drive,32958,27.7781741,-80.4755076
232,Englar Drive,32958,27.7780977,-80.4747163
243,Englar Drive,32958,27.7775649,-80.4750881
274,Englar Drive,32958,27.7781900,-80.4769429
256,Englar Drive,32958,27.7782110,-80.4761271
123,Thunderbird Drive,32958,27.7677530,-80.4676825
13085,US 1,32958,27.8331012,-80.4832526
