House number,Street name,Postal code,Latitude,Longitude
220,East Madison Street,33602,27.9485379,-82.4585068
401,North Ashley Drive,33602,27.9473718,-82.4595414
805,East Drive M.L.K. Jr Boulevard,33603,27.9807363,-82.4526041
2302,North 21st Street,33605-3928,27.9640600,-82.4358295
2101,East 13th Avenue,33605,27.9642764,-82.4353229
1600,East 8th Avenue,33605,27.9614582,-82.4416202
101,South 12th Street,33602,27.9469069,-82.4468377
212,E Madison Street,33602,27.9484644,-82.4586879
1609,North Tampa Street,33602,27.9575908,-82.4605695
620,E Twiggs Street,33602,27.9504126,-82.4554185
1600,East 8th Avenue,33605,27.9613506,-82.4416215
1727,East 7th Avenue,33605,27.9601291,-82.4396789
501,East Drive M L K Jr Drive,33603,27.9811245,-82.4549159
10110,N. Central Ave,33612,28.0405736,-82.4573166
16541,Tampa Palms Boulevard West,33647,28.1138410,-82.3921630
2501,West Kennedy Boulevard,33609,27.9450692,-82.4854173
5802,North 30th Street,33610,28.0007750,-82.4274570
5802,North 30th Street,33610,28.0001830,-82.4273460
209,East Davis Boulevard,33606,27.9272350,-82.4534624
17410,Commerce Park Boulevard,33647,28.1342744,-82.3849091
2305,North Willow Avenue,33607,27.9629707,-82.4737902
442,West Kennedy Boulevard,33606,27.9447757,-82.4651799
513,North Tampa Street,33602,27.9485920,-82.4591121
719,N Franklin St,33602,27.9505815,-82.4590187
614,West Platt Street,33606,27.9413728,-82.4664184
5525,West Gray Street,33609,27.9484487,-82.5369225
1602,W Snow Ave,33606,27.9358529,-82.4765011
1702,East 7th Avenue,33605,27.9603819,-82.4403506
16041,Tampa Palms Boulevard West,33647-2001,28.1003017,-82.3989778
519,North Franklin Street,33602,27.9490784,-82.4583802
18055,Highwoods Preserve Parkway,33647,28.1318715,-82.3660768
232,East Davis Boulevard,33606,27.9266019,-82.4535954
18003,Highwoods Preserve Parkway,33647,28.1306637,-82.3669206
1702,North 50th Street,33619,27.9598682,-82.4023296
2006,North 50th Street,33619,27.9620945,-82.4023134
2016,North 50th Street,33619,27.9627342,-82.4022808
1733,East Broadway Avenue,33619,27.9617228,-82.4014503
4616,West Kennedy Boulevard,33609,27.9445624,-82.5227903
5340,Kennedy Boulevard,33609,27.9444425,-82.5137079
3843,West Kennedy Boulevard,33609,27.9451628,-82.5076044
1544,Dale Mabry Highway,33607,27.9568860,-82.5083720
305 West,Hillsborough Avenue,33604,27.9968874,-82.4638423
6001,North Nebraska Avenue,33604-6855,28.0021566,-82.4508314
1908,East Hillsborough Avenue,33610,27.9965335,-82.4385794
500,S Howard Ave,33606,27.9396570,-82.4827490
4202,East Fowler Avenue,33620,28.0597001,-82.4105439
5003,East Fowler Avenue,33617,28.0540112,-82.4011585
5001,East Fowler Avenue,33617,28.0536870,-82.4015064
1605,W Kennedy Boulevard,33606,27.9448979,-82.4761580
4201,North Himes Avenue,33607,27.9777010,-82.5010880
100,South Edison Avenue,33606,27.9445810,-82.4769190
401,East Yukon Street,33604,28.0294280,-82.4564560
5006,East Fowler,33617,28.0549471,-82.4005167
2576,East Fowler Avenue,33612,28.0548772,-82.4298511
2301,E Fowler Ave,33612,28.0536610,-82.4323133
2301,E Fowler Ave,33612,28.0534006,-82.4325601
2301,E Fowler Avenue,33612,28.0533341,-82.4329791
208,East Cass Street,33602,27.9513554,-82.4601686
10960,B-Cross Creek,33647,28.1446460,-82.2822058
10928,Cross Creek Boulevard,33647-4034,28.1455541,-82.2834382
1609,W Swann Ave,33606,27.9375690,-82.4764630
16047,Tampa Palms Boulevard,33647,28.1000977,-82.3994584
10865,Cross Creek Boulevard,33647,28.1432169,-82.2910844
1409,W Swann Ave,33606,27.9375235,-82.4745825
1209,W Swann Ave,33606,27.9374951,-82.4724152
930,E Fowler Ave,33612,28.0551519,-82.4486548
1031,E Fowler Ave,33612,28.0540749,-82.4486763
1248,E Fowler Ave,33612,28.0549686,-82.4452873
16350,Bruce B Downs Boulevard,33647,28.1125021,-82.3853464
3629,West Kennedy Boulevard,33609,27.9450130,-82.5027917
4415,North Florida Avenue,33603,27.9857726,-82.4593004
123,S Hyde Park Ave,33606,27.9448246,-82.4640512
502,East Hillsborough Avenue,33604,27.9966233,-82.4549431
200,East Madison Street,33602,27.9483499,-82.4589880
1241,E Fowler Ave,33612,28.0538616,-82.4467561
715,W Platt St,33606,27.9419036,-82.4674405
1235,E Fowler Ave,33612,28.0531309,-82.4474857
502,North Tampa Street,33602,27.9483493,-82.4593619
5150,North Florida Avenue,33603,27.9940240,-82.4597000
5137,North Florida Avenue,33603,27.9941350,-82.4592710
18011,Highwoods Preserve Parkway,33645,28.1320730,-82.3658546
2702,East Fowler Avenue,33612,28.0550022,-82.4293652
6112,North Florida Avenue,33604,28.0030909,-82.4597496
7137,N Armenia Ave,33604-5263,28.0142387,-82.4849107
2140,Dr MLK Jr Blvd W,33604,27.9810328,-82.4822570
6821,North Armenia Avenue,33604,28.0106019,-82.4841290
2001,North Armenia Avenue,33607,27.9576914,-82.4852672
4202,East Fowler Avenue,33620,28.0633842,-82.4139311
3320,East Hillsborough Avenue,33610,27.9964909,-82.4228024
3409,Bay to Bay Boulevard,33629,27.9199272,-82.4992532
210,East Davis Boulevard,33606,27.9271493,-82.4539027
220,East Davis Boulevard,33606,27.9268082,-82.4538173
238,East Davis Boulevard,33606,27.9263423,-82.4534532
304,East Davis Boulevard,33606,27.9256628,-82.4531051
304,East Davis Boulevard,33606,27.9256223,-82.4530835
304,East Davis Boulevard,33606,27.9254626,-82.4529928
227,East Davis Boulevard,33606,27.9267772,-82.4532186
223,East Davis Boulevard,33606,27.9268371,-82.4532506
19080,Bruce B Downs Boulevard,33647,28.1461217,-82.3538165
19090,Bruce B Downs Boulevard,33647,28.1468958,-82.3542027
7001,South Trask St,33616,27.8645997,-82.5228284
601,N Morgan St,33602,27.9503390,-82.4559033
111,South 22nd St,33605,27.9481643,-82.4350361
2100,West Swann Avenue,33606,27.9360233,-82.4814286
701,South Howard Avenue 105,33609,27.9371692,-82.4832707
2208,W Azeele St,33606,27.9408734,-82.4828093
710,Harbour Post Dr,33602,27.9396236,-82.4515285
700,Harbour Post Dr,33602,27.9399629,-82.4514682
4860,West Kennedy Boulevard,33609,27.9439869,-82.5252651
4890,West Kennedy Boulevard,33609,27.9443635,-82.5257277
609,South Dale Mabry Highway,33609,27.9388204,-82.5062176
200,North Ashley Drive,33602,27.9459457,-82.4594841
1010,N MacInnes Place,33602,27.9511862,-82.4635356
5035,West Hillsborough Avenue,33614,27.9968293,-82.5305613
4201,West Hillsborough Avenue,33614,27.9965879,-82.5139556
3920,West Hillsborough Avenue,33614,27.9955680,-82.5096980
2724,West Hillsborough Avenue,33614-6053,27.9947749,-82.4873464
1831,East 7th Avenue,33605,27.9601637,-82.4381293
4408,West Hillsborough Avenue,33614,27.9957263,-82.5188607
202,North Morgan Street,33602,27.9472650,-82.4550292
9390,North Florida Avenue,33604,28.0366980,-82.4599320
9312,North Florida Avenue,33612,28.0346160,-82.4598430
3841,West Kennedy Blvd,33609,27.9451616,-82.5074214
3841,West Kennedy Boulevard,33609,27.9451610,-82.5073440
3839,West Kennedy Boulevard,33609,27.9451512,-82.5072530
102,South Dale Mabry Highway,33609,27.9443540,-82.5051990
10103,North Florida Avenue,33604,28.0431220,-82.4589040
4400,North Dale Mabry Highway,33614,27.9824200,-82.5063130
711,Harbour Post Dr,33602,27.9396470,-82.4517780
700,Harbour Post Dr,33602,27.9400430,-82.4513710
3327,Gandy Boulevard,33611,27.8941820,-82.4999620
347,North Plaza Lane,33609,27.9470900,-82.5258470
211,North Dale Mabry Highway,33609,27.9464430,-82.5041560
4100,George J Bean Parkway,33607,27.9795136,-82.5382647
3804,Dale Mabry Highway,33611,27.9077728,-82.5050837
7627,West Courtney Campbell Causeway,33607,27.9679480,-82.5658080
1609,W Snow Ave,33606,27.9362730,-82.4760400
802,South Village Circle,33606,27.9363030,-82.4752290
727,South Dakota Avenue,33606,27.9363120,-82.4759530
701,Harbour Post Drive,33602,27.9398450,-82.4520930
301-399,Harbour Place Drive,33602,27.9388980,-82.4516610
513,South Florida Avenue,33602,27.9419540,-82.4551440
704,Harbour Post Drive,33602,27.9398349,-82.4516030
450,Knights Run Avenue,33602,27.9380280,-82.4512100
3225,South Macdill Avenue,33629-8171,27.9162245,-82.4943336
3801,West Gandy Boulevard,33611,27.8940500,-82.5068350
3801,West Gandy Boulevard,33611,27.8941729,-82.5068117
3801,West Gandy Boulevard Northwest,33611,27.8944586,-82.5068020
500,S Howard Ave,33606,27.9394350,-82.4827670
500,S Howard Ave,33606,27.9395810,-82.4827690
3635,West Kennedy Boulevard,33609,27.9450108,-82.5030350
301,West Platt Street,33606,27.9420200,-82.4629650
3217D,South Macdill Avenue,33629,27.9167070,-82.4942770
3217E,South Macdill Avenue,33629,27.9167280,-82.4943230
3215,South Macdill Avenue,33629,27.9168000,-82.4942790
3215,South Macdill Avenue,33629,27.9168990,-82.4942450
3215,South Macdill Avenue,33629,27.9169720,-82.4942120
4100,George J Bean Parkway,33607,27.9830460,-82.5316940
401,Channelside Walk Way,33602,27.9400520,-82.4512170
101,North Howard Avenue,33606,27.9450430,-82.4826470
813,North Franklin Street,33602,27.9510434,-82.4601452
1512,East 7th Avenue,33605,27.9603989,-82.4425033
1430,East 7th Avenue,33605,27.9604031,-82.4431119
533,South Howard Avenue,33606,27.9392220,-82.4833730
1600,East 7th Avenue,33605,27.9604010,-82.4414820
1722,East 7th Avenue,33605,27.9603770,-82.4397865
2104,East 7th Avenue,33605,27.9603760,-82.4353170
2102,East 7th Avenue,33605,27.9603720,-82.4353950
3813,South Dale Mabry Highway,33611,27.9080790,-82.5066300
3212,North 40th Street,33605,27.9708496,-82.4144038
1205,East 8th Avenue,30605,27.9607570,-82.4460300
4062,Henderson Boulevard,33629,27.9286882,-82.5113445
203,East Twiggs Street,33602,27.9488016,-82.4591923
2348,West Columbus Drive,33607,27.9664794,-82.4846409
1600,East 8th Avenue,33605,27.9604990,-82.4415880
1616,East 7th Avenue,33605,27.9603790,-82.4411890
1612,East 7th Avenue,33605,27.9603900,-82.4412890
1618,East 7th Avenue,33605,27.9603640,-82.4411110
1704,East 7th Avenue,33605,27.9603804,-82.4402414
1730,East 7th Avenue,33605,27.9603742,-82.4395551
1728,East 7th Avenue,33605,27.9603754,-82.4396368
1714,East 7th Avenue,33605,27.9603770,-82.4398696
1701,East 8th Avenue,33605,27.9607550,-82.4403010
211,North Tampa Street,33602,27.9461812,-82.4579840
200,North Tampa Street,33602,27.9464261,-82.4585193
400,North Tampa Street,33602,27.9475170,-82.4589833
305,East Madison Street,33602,27.9484074,-82.4579199
400,North Ashley Drive,33602,27.9474806,-82.4596140
1207,South Druid Lane,33629,27.9321020,-82.5226171
1208,South Druid Lane,33629,27.9316841,-82.5221683
619,South Dale Mabry Highway,33609,27.9378730,-82.5061590
533,South Howard Avenue,33606,27.9390620,-82.4833770
420,West Kennedy Boulevard,33606,27.9449537,-82.4646007
81,Columbia Drive,33606,27.9321220,-82.4550475
1208,East Kennedy Boulevard,33602,27.9512365,-82.4475185
1413,South Howard Avenue,33606,27.9284095,-82.4833436
2301,"S. MacDill Ave, Suite C",33629,27.9243006,-82.4937134
2601,East Hillsborough Avenue,33610-4409,27.9957974,-82.4304739
2201,East Hillsborough Avenue,33610,27.9958015,-82.4343780
10909,North Florida Avenue,33612,28.0477775,-82.4591299
241,Westshore Plaza,33609,27.9468155,-82.5271899
118,South Westshore Boulevard,33609,27.9466958,-82.5267556
2231,East Hillsborough Avenue,33610,27.9947318,-82.4339063
714,South Howard Avenue,33606,27.9366030,-82.4829070
1715,North Westshore Boulevard,33607,27.9574722,-82.5235309
1350,South Howard Avenue,33606,27.9292490,-82.4830560
Suite 101C,International Plaza,33607,27.9643370,-82.5224070
2223,North West Shore Boulevard,33607,27.9648540,-82.5218280
Suite 108,International Plaza,33607,27.9645760,-82.5218440
Suite 183,International Plaza,33607,27.9643750,-82.5215760
Suite 186,International Plaza,33607,27.9642380,-82.5217850
Suite 185,International Plaza,33607,27.9642830,-82.5217150
Suite 101A,International Plaza,33607,27.9641860,-82.5221660
Suite 109,International Plaza,33607,27.9646590,-82.5217960
Suite 107,International Plaza,33607,27.9647380,-82.5218630
Suite 184,International Plaza,33607,27.9643510,-82.5216370
Suite 103,International Plaza,33607,27.9644860,-82.5221630
2223,North West Shore Boulevard,33607,27.9656340,-82.5208360
2223,International Plaza,33607,27.9640510,-82.5196970
2223,North West Shore Boulevard,33607,27.9661290,-82.5208250
4142,West Boy Scout Boulevard,33607,27.9647540,-82.5124820
2223,North West Shore Boulevard,33607,27.9660720,-82.5207280
Suite C203,International Plaza,33607,27.9650300,-82.5210160
Suite C201,International Plaza,33607,27.9651360,-82.5211400
2223,North West Shore Boulevard,33607,27.9661580,-82.5211090
Suite C202,International Plaza,33607,27.9650640,-82.5210860
Suite C204,International Plaza,33607,27.9650010,-82.5209610
Suite C208,International Plaza,33607,27.9641876,-82.5219653
Suite 207,International Plaza,33607,27.9649650,-82.5207710
Suite C206,International Plaza,33607,27.9649730,-82.5208490
Suite C205,International Plaza,33607,27.9649890,-82.5209110
4112,West Boy Scout Boulevard,33607,27.9652040,-82.5128900
2223,North West Shore Boulevard,33607,27.9658480,-82.5211240
2223,North West Shore Boulevard,33607,27.9654480,-82.5206020
2223,North West Shore Boulevard,33607,27.9657170,-82.5209750
6116,North Central Avenue,33604,28.0032693,-82.4555594
1811,North 15th Street,33605,27.9608858,-82.4428079
1510,East 7th Avenue,33605,27.9603991,-82.4425749
1524,East 7th Avenue,33605,27.9603980,-82.4421145
1518,East 7th Avenue,33605,27.9603983,-82.4422542
1514,East 7th Avenue,33605,27.9603987,-82.4424008
4144,North Armenia Avenue Suite,33607,27.9772329,-82.4849653
6505,South Dale Mabry Drive,33611,27.8718473,-82.5068485
1413,South Howard Avenue,33606,27.9283254,-82.4837261
4103,USF Cedar Circle,33620,28.0639515,-82.4138511
4107,N. Himes Avenue,33607,27.9768840,-82.5006688
3411,East Busch Boulevard,33612,28.0322543,-82.4222892
3009,East Busch Boulevard,33612,28.0322022,-82.4254650
404,Tampa Street North,33602,27.9476001,-82.4589852
1211,North Marion Street,33602,27.9550972,-82.4584292
401,East Yukon Street,33604,28.0299167,-82.4564540
1540,North Dale Mabry Highway,33607,27.9562442,-82.5083764
401,East Jackson Street,33602,27.9472264,-82.4560543
601 North,Nebraska Avenue,33602,27.9529744,-82.4508736
5518,North Armenia Avenue,33603,27.9974524,-82.4846560
160,West Kennedy Boulevard,33609,27.9443249,-82.5298732
220,West 7th Avenue,33602,27.9602337,-82.4632704
1601,West Snow Avenue,33606,27.9362960,-82.4759560
1713,East 9th Avenue,33605,27.9615727,-82.4393760
210,North Pierce Street,33602,27.9476614,-82.4543771
3911,W Paxton Ave,33611,27.8886579,-82.5094648
3420,West Drive Martin Luther King Jr Boulevard,33607,27.9808615,-82.4990980
3216,West Bay To Bay Boulevard,33629,27.9195934,-82.4965477
4111,Henderson Blvd,33629,27.9281299,-82.5128546
11126,North 30th Street,33612,28.0494967,-82.4266819
2021,E Fowler Ave,33612,28.0532182,-82.4368589
4800,us Highway 301,33610,27.9672515,-82.3898268
17501,North Palms Village Place,33647,28.1260017,-82.3673820
3014,West Palmira Avenue,33629,27.9222591,-82.4928638
400,Tampa Street North,33602,27.9477032,-82.4594207
915,West Waters Avenue,33604,28.0254913,-82.4684553
1810,South Macdill Avenue,33629,27.9274381,-82.4932490
6306,N Nebraska Ave,33604,28.0049592,-82.4516549
2410,South Harold Avenue,33629,27.9231140,-82.5068881
3709,West Jetton Avenue,33629,27.9332400,-82.5045869
3302,West Cypress Street,33607,27.9517826,-82.4977439
4600,Kennedy Boulevard,33609,27.9445254,-82.5224413
4546,Kennedy Boulevard,33609,27.9445677,-82.5220308
5507,N Nebraska Ave,33604,27.9974559,-82.4525188
4056,North Armenia Avenue,33607,27.9756201,-82.4859997
4046,Fiesta Plaza,33607,27.9755467,-82.4862867
3921,West Dr Martin Luther King Jr Boulevard,33614,27.9819992,-82.5091102
505,East Jackson Street,33602,27.9474950,-82.4553292
304,East Davis Boulevard,33606,27.9255676,-82.4530492
245,East Davis Boulevard,33606,27.9263912,-82.4530344
258,Westshore Plaza,33609,27.9466934,-82.5292541
7410,Nebraska Avenue,33604,28.0159725,-82.4515088
3912,West South Avenue,33614,27.9910517,-82.5078694
8885,North Florida Avenue,33604,28.0320760,-82.4576790
3914,West Hillsborough Avenue,33614,27.9948995,-82.5095322
1155,Dale Mabry Highway,33629,27.9325645,-82.5062255
601,Bayshore Boulevard,33606,27.9377999,-82.4652927
3115,Nebraska Avenue,33603,27.9725630,-82.4508915
1248,East Fowler Avenue,33612,28.0548704,-82.4453018
6403,County Line Road,33647,28.1707910,-82.3565050
4526,South Dale Mabry Highway,33611,27.9010900,-82.5056400
3501,East Busch Boulevard,33612,28.0321833,-82.4203788
101,Kennedy Blvd,33602,27.9468743,-82.4592171
117,East Whiting Street,33602,27.9451441,-82.4574036
310,South Macdill Avenue,33609,27.9418763,-82.4928978
2835,West De Leon Street,33609,27.9395687,-82.4909316
550,North Reo Street,33609,27.9494372,-82.5364964
4015,W Osborne Ave,33614,27.9893045,-82.5112590
2420,Kennedy Boulevard,33609,27.9445502,-82.4847243
212,East Cass Street,33602,27.9513819,-82.4600734
4830,West Kennedy Boulevard,33609,27.9438291,-82.5252077
5102,Pointe of Tampa Way,33647,28.1185107,-82.3786940
6920,Commerce Palms Drive,33647,28.1151571,-82.3747303
3431,south westshore blvd,33629,27.9122147,-82.5268403
3838,Britton Plaza,33611,27.9070462,-82.5029614
714,Dale Mabry Hwy,33609,27.9368416,-82.5053278
6710,West Linebaugh Avenue,33625,28.0399542,-82.4806390
1005,North Marion Street,33602,27.9532450,-82.4582260
5540,Executive Drive,33609,27.9466169,-82.5376217
17419,Bridge Hill Ct,33647,28.1282700,-82.3809538
201,North Franklin Street,33602,27.9468574,-82.4569979
3401,Henderson Boulvard,33609,27.9396816,-82.5006757
6818,S Manhattan Ave,33616,27.8671760,-82.5179729
7601,North Nebraska Avenue,33604,28.0171392,-82.4509745
5913,North Armenia Avenue,33603,28.0010968,-82.4841979
1209,N Tampa St,33602,27.9540853,-82.4606212
4111,W Kennedy Blvd,33609,27.9451695,-82.5124818
4108,Henderson Boulevard,33629,27.9278993,-82.5123029
1605,West Kennedy Boulevard,33606,27.9448994,-82.4762656
18003,Bruce B Downs Boulevard,33647,28.1306693,-82.3668699
2801,South Macdill Avenue,33629,27.9209238,-82.4938134
2610,North 40th Street,33605,27.9663985,-82.4145783
11028,North Florida Avenue,33612,28.0506022,-82.4601316
19456,Paddock View Drive,33647,28.1666458,-82.2970127
16606,Palm Royal Drive,33647,28.1166182,-82.3849385
1802,East 7th Avenue,33605,27.9604800,-82.4390217
701,West 115th Avenue,33612,28.0531018,-82.4643361
9708,Hidden Oak Circle,33612,28.0390945,-82.4654474
9607,Hidden Oak Circle,33612,28.0382055,-82.4642589
206,West Floriland Avenue,33612,28.0368552,-82.4619981
10109,Ashley Street,33612,28.0415260,-82.4610065
9624,Hidden Oak Circle,33612,28.0379049,-82.4654301
715,West Bougainvillea Avenue,33612,28.0438446,-82.4654063
4248,South Dale Mabry Highway,33611,27.9027440,-82.5054061
4535,South Dale Mabry Highway,33611,27.9005490,-82.5069841
10960,B-Cross Creek,33647,28.1446393,-82.2822061
505,East Jackson Street,33602,27.9474386,-82.4553555
1703,State Street,33606,27.9514157,-82.4771506
11158,North 30th Street,33612,28.0502416,-82.4267250
5001,Nebraska Avenue,33603,27.9905009,-82.4507784
6206,Commerce Palms Drive,33647,28.1159299,-82.3787826
2543,North Dale Mabry Highway,33607,27.9641359,-82.5043048
3050,North Rocky Point Drive West,33607,27.9703367,-82.5693111
533,South Howard Avenue,33606,27.9396633,-82.4833652
5001,N Nebraska Ave,33603,27.9904764,-82.4507751
6250,Commerce Palms Drive,33647,28.1171977,-82.3744417
401,West Kennedy Boulevard,33606,27.9461953,-82.4657563
401,West Kennedy Boulevard,33606,27.9456906,-82.4656115
200,UT Poe Parkway,33606,27.9461314,-82.4654237
500,UT University Drive,33606,27.9484764,-82.4667693
820,West North A Street,33606,27.9451281,-82.4680038
915,North Franklin Street,33602,27.9517895,-82.4589894
6278,Commerce Palms Drive,33647,28.1167409,-82.3743252
6270,Commerce Palms Drive,33647,28.1169335,-82.3743384
6206,Commerce Palms Drive,33647,28.1159812,-82.3788164
8402,North Armenia Avenue,33604,28.0257169,-82.4847329
500,East Kennedy Boulevard,33602,27.9485334,-82.4561262
225,South Franklin Street,33602,27.9426665,-82.4561156
304,East Davis Boulevard,33606,27.9255299,-82.4530306
238,East Davis Boulevard,33606,27.9263884,-82.4534701
236,East Davis Boulevard,33606,27.9264822,-82.4535509
232,East Davis Boulevard,33606,27.9266564,-82.4536223
218,East Davis Boulevard,33606,27.9269121,-82.4538699
235,East Davis Boulevard,33606,27.9265918,-82.4531263
221,East Davis Boulevard,33606,27.9268908,-82.4532833
214,East Davis Boulevard,33606,27.9270488,-82.4538351
214,East Davis Boulevard,33606,27.9270191,-82.4538236
215,East Davis Boulevard,33606,27.9269841,-82.4533403
215,East Davis Boulevard,33606,27.9269571,-82.4533251
241,East Davis Boulevard,33606,27.9264578,-82.4530588
225,East Davis Boulevard,33606,27.9268090,-82.4532356
233,East Davis Boulevard,33606,27.9266410,-82.4531482
231,East Davis Boulevard,33606,27.9266985,-82.4531757
2814,East Hillsborough Avenue,33610,27.9973494,-82.4277668
2814,East Hillsborough Avenue,33610,27.9974630,-82.4275809
310,North Boulevard,33606,27.9467233,-82.4686919
442,West Kennedy Boulevard,33606,27.9447609,-82.4655400
113,South Hyde Park Avenue,33606,27.9450180,-82.4640394
117,South Hyde Park Avenue,33606,27.9449354,-82.4640426
403,West Grand Central Avenue,33606,27.9447275,-82.4642755
615,Channelside Drive,33602,27.9429132,-82.4470033
615,Channelside Drive,33602,27.9432017,-82.4470180
229,East Davis Boulevard,33606,27.9267408,-82.4531959
920,West Kennedy Boulevard,33606,27.9444735,-82.4693957
103,South Boulevard,33606,27.9442265,-82.4687685
301,West Platt Street,33606,27.9423174,-82.4629694
300,West Kennedy Boulevard,33606,27.9466580,-82.4640380
903,North Franklin Street,33602,27.9517198,-82.4594849
202,East Cass Street,33602,27.9512998,-82.4603288
803,North Tampa Street,33602,27.9506636,-82.4599867
811,North Tampa Street,33602,27.9509697,-82.4601107
808,North Franklin Street,33602,27.9507901,-82.4595242
713,North Franklin Street,33602,27.9504663,-82.4589669
514,North Franklin Street,33602,27.9489246,-82.4589494
514,North Franklin Street,33602,27.9489827,-82.4586946
512,North Franklin Street,33602,27.9487872,-82.4585752
500,North Tampa Street,33602,27.9482376,-82.4593201
110,East Madison Street,33602,27.9481565,-82.4595135
100,East Madison Street,33602,27.9480463,-82.4598108
400,North Tampa Street,33602,27.9477115,-82.4590567
501,North Franklin Street,33602,27.9486079,-82.4581953
611,North Franklin Street,33602,27.9494011,-82.4584871
633,North Franklin Street,33602,27.9495223,-82.4585603
2223,N Westshore Blvd,33607,27.9654237,-82.5212090
203,North Meridian Avenue,33602,27.9488903,-82.4484810
1155,East Kennedy Boulevard,33602,27.9503827,-82.4486475
1120,East Kennedy Boulevard,33602,27.9510968,-82.4486695
290,South Meridian Avenue,33602,27.9440039,-82.4487279
4210,Usf Holly Drive,33620,28.0659465,-82.4124359
4210,USF Holly Drive,33620,28.0659438,-82.4127769
4201,West Watrous Avenue,33629,27.9323181,-82.5142557
428,West Kennedy Boulevard,33606,27.9448823,-82.4648557
1120,West Kennedy Boulevard,33606,27.9444628,-82.4713121
1118,West Kennedy Boulevard,33606,27.9444936,-82.4711833
1108,West Kennedy Boulevard,33606,27.9444637,-82.4710035
1104,West Kennedy Boulevard,33606,27.9444564,-82.4707746
1607,North Franklin Street,33602,27.9585783,-82.4600779
4401,West el Prado Boulevard,33629,27.9119505,-82.5182369
411,West Grand Central Avenue,33606,27.9447499,-82.4644663
8680,Hunters Village Road,33647,28.1388995,-82.3580491
8620,Hunters Village Road,33647,28.1395448,-82.3581305
8500,Hunters Village Rd,33647,28.1413884,-82.3604404
1609,W Snow Circle,33606,27.9364398,-82.4763740
4103,Cedar Circle,33620,28.0637352,-82.4135698
3650,Midtown Drive,33607,27.9529249,-82.5029163
2625,East 32nd Avenue,33610,27.9791047,-82.4291904
2625,East 32nd Avenue,33610,27.9791040,-82.4292716
4636,North Dale Mabry Highway,33614,27.9859216,-82.5064542
601,South Harbour Island Boulevard,33602,27.9393940,-82.4544058
2800,North Mac Dill Avenue,33607,27.9664927,-82.4936856
3650,Midtown Drive,33607,27.9529324,-82.5025933
3402,South Dale Mabry Highway,33629,27.9129625,-82.5057062
3950,South Dale Mabry,33611-1404,27.9059190,-82.5054662
5615,South Dale Mabry Highway,33611,27.8842136,-82.5068931
6301,South West Shore Boulevard,33616,27.8767836,-82.5285529
601,South Harbour Island Boulevard,33602,27.9394582,-82.4541778
5001,North West Shore Boulevard,33614,27.9919957,-82.5234277
3401,South Macdill Avenue,33629,27.9126749,-82.4939003
3655,Midtown Drive,33607,27.9532262,-82.5032646
3740,West Cypress Street,33607,27.9524766,-82.5048321
1152,Assembly Drive,33607,27.9533377,-82.5044902
4001,West Tampa Bay Boulevard,33614,27.9754066,-82.5101102
8102,Condor Street,33621,27.8504674,-82.4892193
4001,West Tampa Bay Boulevard,33614,27.9763295,-82.5096526
18061,Highwoods Preserve Parkway,33647,28.1317631,-82.3664907
18081,Highwoods Preserve Parkway,33647-1761,28.1315345,-82.3674942
4100,George J Bean Parkway,33607,27.9766656,-82.5323318
401,North Ashley Drive,33601,27.9475141,-82.4592353
18029,Highwoods Preserve Parkway,33647,28.1319030,-82.3652745
18025,Highwoods Preserve Parkway,33647,28.1318626,-82.3652070
18031,Highwoods Preserve Parkway,33647,28.1319539,-82.3653235
18061,Highwoods Preserve Parkway,33647,28.1317133,-82.3662706
1801141,Highwoods Preserve Parkway,33647,28.1321499,-82.3657434
18027,Highwoods Preserve Parkway,33647,28.1318005,-82.3651313
18047,Highwoods Preserve Parkway,33647,28.1320137,-82.3659013
18043,Highwoods Preserve Parkway,33647,28.1320963,-82.3658055
18035,Highwoods Preserve Parkway,33647,28.1319911,-82.3653647
18059,Highwoods Preserve Parkway,33647,28.1317499,-82.3662061
17501,Preserve Walk Lane,33647,28.1275198,-82.3696478
17509,Preserve Walk Lane,33647,28.1279968,-82.3689761
17504,Preserve Walk Lane,33647,28.1280378,-82.3705005
17512,Dona Michelle Drive,33647,28.1259065,-82.3713371
17501,Preserve Walk Lane,33647,28.1276995,-82.3698790
17501,Preserve Walk Lane,33647,28.1274553,-82.3695649
17525,Preserve Walk Lane,33647,28.1283990,-82.3685730
17521,Preserve Walk Lane,33647,28.1282704,-82.3687018
17516,Preserve Walk Lane,33647,28.1283485,-82.3701051
17505,Preserve Walk Lane,33647,28.1279123,-82.3693573
17502,Preserve Walk Lane,33647,28.1279851,-82.3705590
17518,Preserve Walk Lane,33647,28.1284199,-82.3700324
17514,Preserve Walk Lane,33647,28.1282930,-82.3701516
17506,Preserve Walk Lane,33647,28.1281648,-82.3703621
17501,Preserve Walk Lane,33647,28.1276628,-82.3698318
17503,Preserve Walk Lane,33647,28.1280556,-82.3695391
17515,Preserve Walk Lane,33647,28.1282253,-82.3687469
17501,Preserve Walk Lane,33647,28.1276203,-82.3697772
17503,Preserve Walk Lane,33647,28.1279731,-82.3694344
17503,Preserve Walk Lane,33647,28.1280180,-82.3694914
17501,Preserve Walk Lane,33647,28.1275632,-82.3697037
17508,Preserve Walk Lane,33647,28.1282495,-82.3702943
17503,Preserve Walk Lane,33647,28.1280970,-82.3695916
17507,Preserve Walk Lane,33647,28.1279032,-82.3690685
501,North Morgan Street,33602,27.9496318,-82.4556067
1502,East 7th Avenue,33605,27.9604043,-82.4428391
3696,West Gandy Boulevard,33611,27.8933881,-82.5058751
5135,West Cypress Street,33607,27.9526415,-82.5318298
500,North West Shore Boulevard,33609,27.9491102,-82.5246748
3030,North Rocky Point Drive West,33607,27.9688487,-82.5697717
4340,Hillsborough Avenue,33614,27.9956093,-82.5160294
4113,Henderson Boulevard,33629,27.9280109,-82.5129322
512,East Hillsborough Avenue,33604,27.9965978,-82.4545155
130,South West Shore Boulevard,33609,27.9436615,-82.5235073
4011,West Kennedy Boulevard,33609,27.9451960,-82.5102612
2202,North West Shore Boulevard,33607,27.9604486,-82.5245417
942,South Howard Avenue,33606,27.9339075,-82.4829046
105,East Jackson Street,33602,27.9464232,-82.4586946
505,Water Street,33602,27.9409532,-82.4544921
100,South Edison Avenue,33606,27.9442473,-82.4691830
7006,Adamo Drive,33619,27.9527932,-82.3752666
201,"East Kennedy Boulevard, Suite 1400",33602,27.9472846,-82.4583919
5007,West Nassau Street,33607,27.9544625,-82.5290807
17427,Bridge Hill Ct,33647,28.1286348,-82.3808772
555,Channelside Drive,33602,27.9432569,-82.4497168
625,East Twiggs Street,33602,27.9500658,-82.4553397
5201,West Laurel Street,33607,27.9565794,-82.5304752
7801,North 13th Street,33604,28.0184032,-82.4463283
3123,East 4th Avenue,33605,27.9578787,-82.4242033
15311,Amberly Drive,33647,28.0886479,-82.4050740
15309,Amberly Drive,33647,28.0887319,-82.4051520
15307,Amberly Drive,33647,28.0887533,-82.4052004
15305,Amberly Drive,33647,28.0888006,-82.4052445
201,North Franklin Street,33602,27.9467836,-82.4572477
8612,Interbay Boulevard,33616,27.8658328,-82.5266489
17631,Highwoods Preserve Parkway,33647,28.1303574,-82.3650530
17631,Highwoods Preserve Parkway,33647,28.1302606,-82.3651454
17631,Highwoods Preserve Parkway,33647,28.1302122,-82.3651897
17631,Highwoods Preserve Parkway,33647,28.1304432,-82.3649649
17631,Highwoods Preserve Parkway,33647,28.1304001,-82.3650070
17631,Highwoods Preserve Parkway,33647,28.1303079,-82.3651049
2129,North Albany Avenue,33607,27.9572465,-82.4820912
2139,North Albany Avenue,33607,27.9572669,-82.4823545
902,North Rome Avenue,33606,27.9515387,-82.4769139
2908,West Azeele Street,33609,27.9408050,-82.4909744
3705,N Himes Ave West,33607,27.9724883,-82.5012301
2106,West Main Street,33607,27.9570512,-82.4811882
2104,West Main Street,33607,27.9570372,-82.4810524
2100,West Main Street,33607,27.9570374,-82.4809519
2110,West Main Street,33607,27.9570411,-82.4813074
1724,East 7th Avenue,33605,27.9603772,-82.4397102
1712,East 7th Avenue,33605,27.9603786,-82.4399889
103,East Jackson Street,33602,27.9463471,-82.4588051
1829,East 7th Avenue,33605,27.9601641,-82.4383436
1815,East 7th Avenue,33605,27.9601646,-82.4386451
1813,East 7th Avenue,33605,27.9601647,-82.4386981
1821,East 7th Avenue,33605,27.9601644,-82.4385469
1823,East 7th Avenue,33605,27.9601642,-82.4384463
1817,East 7th Avenue,33605,27.9601645,-82.4386057
5100,West Kennedy Boulevard,33609,27.9443308,-82.5299297
401,East Jackson Street,33602,27.9468246,-82.4561688
1607,North Franklin Street,33602,27.9585787,-82.4600452
1015,Gramercy Lane,33607,27.9525875,-82.5031750
206,South Trask Street,33609,27.9423610,-82.5219848
401,East Jackson Street,33602,27.9475597,-82.4594352
418,North Dale Mabry Highway,33609,27.9489876,-82.5060644
911,North Dale Mabry Highway,33609,27.9517257,-82.5052489
601,South Harbour Island Boulevard,33602,27.9392203,-82.4543529
5125,Palm Springs Boulevard,33647,28.1137640,-82.3871385
504,West Grand Central Avenue,33606,27.9443407,-82.4652748
3322,East Hillsborough Avenue,33610,27.9964893,-82.4226846
19090,Bruce B Downs Boulevard,33647,28.1468033,-82.3541963
10002,North Florida Avenue,33612,28.0403725,-82.4598430
5088,North Dale Mabry Highway,33614,27.9925368,-82.5063439
5088,North Dale Mabry Highway,33614,27.9928177,-82.5062616
4142,West Boy Scout Boulevard,33607,27.9649207,-82.5126422
4146,West Boy Scout Boulevard,33607,27.9645881,-82.5123438
4110,West Boy Scout Boulevard,33607,27.9656483,-82.5121777
4142,West Boy Scout Boulevard,33607,27.9647863,-82.5123250
2017,East 7th Avenue,33605,27.9601329,-82.4359746
2025,East 7th Avenue,33605,27.9601318,-82.4358600
2211,East 7th Avenue,33605,27.9601353,-82.4339623
1801,North 22nd Street,33605,27.9604660,-82.4346655
4104,West Gandy Boulevard,33611,27.8940563,-82.5125772
4104,West Gandy Boulevard,33611,27.8940567,-82.5124594
65,Channelside Drive,33602,27.9416852,-82.4578194
3050,North Rocky Point Drive West,33607,27.9706453,-82.5693922
4918,Habana Avenue,33607,27.9916800,-82.4898185
5120,North Florida Avenue,33603,27.9931006,-82.4597166
6425,County Line Road,33647,28.1690890,-82.3566310
1930,North Dale Mabry Highway,33607,27.9589734,-82.5062208
101,South 12th Street,33602,27.9466540,-82.4495505
1901,North Howard Avenue,33607,27.9587816,-82.4827497
400,North Ashley Drive,33602,27.9476445,-82.4606050
120,South Fremont Avenue,33606,27.9434287,-82.4786096
1517,West La Salle Street,33607,27.9551299,-82.4753030
1519,West La Salle Street,33607,27.9551313,-82.4754601
1515,West La Salle Street,33607,27.9551294,-82.4752566
151 ½5,West La Salle Street,33607,27.9551666,-82.4752573
1519 ½,West La Salle Street,33607,27.9551684,-82.4754604
1517 ½,West La Salle Street,33607,27.9551670,-82.4753050
1905,East 7th Avenue,33605,27.9601527,-82.4378309
1903,East 7th Avenue,33605,27.9601508,-82.4377520
1920,East 7th Avenue,33605,27.9603798,-82.4372275
1901,East 7th Avenue,33605,27.9601587,-82.4378953
1930,East 7th Avenue,33605,27.9603812,-82.4368774
1544,North Dale Mabry Highway,33607,27.9567545,-82.5083529
1500,North Dale Mabry Highway,33607,27.9566968,-82.5083580
2013,North Dale Mabry Highway,33607,27.9602523,-82.5050116
2011,North Dale Mabry Highway,33607,27.9601575,-82.5050098
1500,North Dale Mabry Highway,33607,27.9568206,-82.5069714
1702,Dale Mabry Highway,33607,27.9574584,-82.5079445
1548,North Dale Mabry Highway,33607,27.9568726,-82.5083483
1702,Dale Mabry Highway,33607,27.9576540,-82.5079174
1526,North Dale Mabry Highway,33607,27.9562908,-82.5069343
5114,East Fowler Avenue,33617,28.0549058,-82.3992532
1622,East 7th Avenue,33605,27.9603660,-82.4409491
1520,East 7th Avenue,33605,27.9603988,-82.4421859
1630,East 7th Avenue,33605,27.9603568,-82.4407395
1620,East 7th Avenue,33605,27.9603680,-82.4410235
1624,East 7th Avenue,33605,27.9603581,-82.4408520
1010,Gramercy Lane,33607,27.9524316,-82.5036142
1021,Gramercy Lane,33607,27.9528324,-82.5031795
3620,Midtown Drive,33607,27.9530140,-82.5021518
3648,Midtown Drive,33607,27.9529618,-82.5027766
3640,Midtown Drive,33607,27.9529557,-82.5023639
625,North Dale Mabry Highway,33609,27.9499082,-82.5053108
3601,West Kennedy Boulevard,33609,27.9450490,-82.5018088
3601,West Kennedy Boulevard,33609,27.9450496,-82.5018618
3601,West Kennedy Boulevard,33609,27.9450501,-82.5019131
3601,West Kennedy Boulevard,33609,27.9450481,-82.5017177
3601,West Kennedy Boulevard,33609,27.9450485,-82.5017596
3601,West Kennedy Boulevard,33609,27.9450506,-82.5019629
3601,West Kennedy Boulevard,33609,27.9450510,-82.5019977
3623,West Kennedy Boulevard,33609,27.9450115,-82.5025670
2109,West Kennedy Boulevard,33606,27.9448611,-82.4813111
2109,West Kennedy Boulevard,33606,27.9448603,-82.4812440
2105,West Kennedy Boulevard,33606,27.9448594,-82.4811566
2101,West Kennedy Boulevard,33606,27.9448582,-82.4810480
2019,West Kennedy Boulevard,33606,27.9448636,-82.4806962
2009,West Kennedy Boulevard,33606,27.9449070,-82.4804180
411,North Trask Street,33609,27.9483855,-82.5219819
413,North Trask Street,33609,27.9483377,-82.5219813
415,North Trask Street,33609,27.9482523,-82.5219800
417,North Trask Street,33609,27.9481982,-82.5219793
2320,North Dale Mabry Highway,33607,27.9624749,-82.5059554
2316,North Dale Mabry Highway,33607,27.9622349,-82.5059490
2310,North Dale Mabry Highway,33607,27.9620035,-82.5059709
4730,West Cypress Street,33607,27.9520042,-82.5238907
4720,West Cypress Street,33607,27.9520264,-82.5236636
3225,South MacDill Avenue,33629,27.9157463,-82.4946717
450,Knights Run Avenue,33602,27.9388409,-82.4516190
708,Harbour Post Drive,33602,27.9397459,-82.4515813
800,Harbour Post Drive,33602,27.9394036,-82.4514120
1050,Water Street,33602,27.9441471,-82.4505893
1001,Water Street,33602,27.9436924,-82.4501953
1001,Water Street,33602,27.9437681,-82.4501970
615,Channelside Drive,33602,27.9436195,-82.4471678
615,Channelside Drive,33602,27.9431825,-82.4471254
560,Channelside Drive,33602,27.9438337,-82.4493424
210,East Madison Street,33602,27.9484442,-82.4587519
2314,North Dale Mabry Highway,33607,27.9621657,-82.5059533
2537,Dale Mabry Highway,33607,27.9639478,-82.5043065
4200,George J Bean Parkway,33607,27.9800280,-82.5382803
1054,Water Street,33602,27.9448554,-82.4505722
1042,Water Street,33602,27.9444291,-82.4505721
1048,Water Street,33602,27.9445629,-82.4505813
1050,Water Street,33602,27.9446884,-82.4505768
5401,West Kennedy Boulevard,33609,27.9455870,-82.5346431
1313,South Dale Mabry Highway,33629-5010,27.9308020,-82.5071279
4900,West Kennedy Boulevard,33609,27.9442932,-82.5268730
2618,West Kennedy Boulevard,33609,27.9445494,-82.4873577
4625,North Manhattan Avenue,33614,27.9860178,-82.5169328
1501,East 9th Avenue,33605,27.9615957,-82.4428229
1911,North 15th Street,33605,27.9615147,-82.4428164
2220,West Kennedy Boulevard,33606,27.9444750,-82.4825250
210,West Platt Street,33606-2314,27.9415021,-82.4620057
4408,W Dr Martin Luther King Jr Blvd,33614,27.9814226,-82.5185403
2307,East Busch Boulevard,33612,28.0321243,-82.4332620
5222,West Laurel Street,33607,27.9549319,-82.5341104
1523,South Dale Mabry Highway,33629,27.9292745,-82.5064314
101,West 7th Avenue,33602,27.9605932,-82.4611242
1105,North Tampa Street,33602,27.9530502,-82.4607489
301,Harbour Place Drive,33602,27.9378905,-82.4520877
4025,West Osborne Avenue,33614,27.9892338,-82.5122721
5801,East Broadway Avenue,33619,27.9639087,-82.3906489
4402,West Gandy Boulevard,33611,27.8931316,-82.5188242
4314,Gandy Boulevard,33611,27.8932350,-82.5179136
5156,South Dale Mabry Highway,33611,27.8895180,-82.5059300
410,South 50th Street,33619,27.9479176,-82.4009564
1702,North 50th Street,33619,27.9599716,-82.4023825
222,West Waters Avenue,33604,28.0250800,-82.4614900
1507,East Fowler,33612,28.0540407,-82.4420071
1911,East Fowler Avenue,33612,28.0539574,-82.4374732
3509,East Busch Boulevard,33612,28.0322796,-82.4199486
2701,East Busch Boulevard,33612,28.0321650,-82.4286070
2115,East Hillsborough,33610,27.9955093,-82.4353880
2300,West Hillsborough Avenue,33603,27.9955354,-82.4826652
4302,North Armenia Avenue,33607,27.9802231,-82.4849366
2506,West Martin Luther King Boulevard,33607-2606,27.9809964,-82.4859024
4115,West Kennedy Boulevard,33609,27.9450344,-82.5017197
107,South Dale Mabry Highway,33609,27.9443430,-82.5061480
112,Westshore Boulevard,33609,27.9444959,-82.5233563
4427,West Kennedy Boulevard,33609,27.9451720,-82.5193440
4325,Hillsborough Plaza,33614,27.9966506,-82.5164748
18071,Highwoods Preserve Parkway,33647,28.1316318,-82.3670364
5135,South Dale Mabry Highway,33611,27.8899598,-82.5096016
3702,West Spruce Street,33607,27.9589127,-82.5038008
5405,Airport Service Road,33607,27.9639431,-82.5351752
2920,Busch Boulevard,33612,28.0329895,-82.4265405
7320,East Fletcher Avenue,33637,28.0698160,-82.3667064
5402,West Laurel Street,33607,27.9556070,-82.5359212
4016,Henderson Boulevard,33629,27.9294483,-82.5103546
3300,South Dale Mabry Highway,33629,27.9153479,-82.5056245
8512,North Florida Avenue,33604,28.0277249,-82.4599258
4901,North Armenia Avenue,33603,27.9908142,-82.4841175
104,West Seneca Avenue,33612,28.0452537,-82.4604472
701,North Dale Mabry Highway,33609,27.9505832,-82.5050470
4300,West Cypress Street,33607,27.9515858,-82.5164567
2507,West Hiawatha Street,33614,28.0092306,-82.4850743
17425,Bridge Hill Ct,33647,28.1286080,-82.3810650
4230,South Macdill Avenue,33611,27.9038778,-82.4935741
1202,North Franklin Street,33602,27.9536107,-82.4604292
5328,Prime Rose Circle,33647,28.1309597,-82.3785358
4711,West Gandy Boulevard,33611,27.8936536,-82.5256016
4405,N Hubert Ave,33614,27.9819904,-82.5154437
144,South West Shore Boulevard,33609,27.9432652,-82.5235906
5524,South Dale Mabry Highway,33611,27.8848335,-82.5060988
5023,North Florida Avenue,33603,27.9921074,-82.4590532
802,North 12th Street,33602,27.9552357,-82.4470086
802,North 12th Street,33602,27.9552665,-82.4473217
2601,East 2nd Avenue,33605,27.9561707,-82.4298454
202,North Dale Mabry Highway,33609,27.9460383,-82.5060361
3104,N Armenia Ave,33607,27.9677161,-82.4858503
6323,South Dale Mabry Highway,33611,27.8741874,-82.5066041
400,North Tampa Street,33602,27.9477448,-82.4597117
701,E Twiggs St,33602-4006,27.9502707,-82.4548788
625,East Twiggs Street,33602,27.9500943,-82.4553555
711,South Dakota Avenue,33606,27.9367419,-82.4759807
601,North Nebraska Avenue,33602,27.9526914,-82.4505337
615,Channelside Drive,33602,27.9433104,-82.4469057
802,East Washington Street,33602,27.9482971,-82.4524764
325,North Florida Avenue,33602,27.9477522,-82.4565082
901,East Twiggs Street,33602,27.9509779,-82.4521340
800,East Twiggs Street,33602,27.9512361,-82.4540161
906,East Cass Street,33602,27.9527965,-82.4567906
534,East Cass Street,33602,27.9525135,-82.4575728
401,North Jefferson Street,33602,27.9497476,-82.4544685
1101,Channelside Drive,33602,27.9500245,-82.4451872
401,West Kennedy Boulevard,33606,27.9474347,-82.4632907
300,West Kennedy Boulevard,33606,27.9467134,-82.4642572
403,UT University Drive,33606,27.9480856,-82.4639002
405,UT University Drive,33606,27.9484873,-82.4648490
200,UT Poe Parkway,33606,27.9458935,-82.4656018
203,North Brevard Avenue,33606,27.9460227,-82.4662497
110,UT Poe Parkway,33606,27.9452750,-82.4660399
601,Frederic H Spaulding Drive,33606,27.9466889,-82.4662459
521,North Boulevard,33606,27.9486390,-82.4681399
202,North Brevard Avenue,33606,27.9459733,-82.4671544
404,West Kennedy Boulevard,33606,27.9451541,-82.4641887
1818,East 9th Avenue,33605,27.9619192,-82.4383459
2204,North 15th Street,33605,27.9633607,-82.4440070
1411,East 11th Avenue,33605,27.9628491,-82.4438247
2112,North 15th Street,33605,27.9629790,-82.4432188
2001,North 14th Street,33605,27.9620859,-82.4438832
1700,East 9th Avenue,33605,27.9620879,-82.4398390
513,South Florida Avenue,33602,27.9422899,-82.4550540
505,Water Street,33602,27.9409109,-82.4538657
200,North Ashley Drive,33602,27.9461227,-82.4594953
400,North Ashley Drive,33602,27.9473992,-82.4602091
100,West Kennedy Boulevard,33602,27.9466791,-82.4600965
111,West Fortune Street,33602,27.9529430,-82.4639660
901,Kennedy Boulevard,33602,27.9492012,-82.4523004
905,North Florida Avenue,33602,27.9520320,-82.4585671
101,East Tyler Street,33602,27.9515372,-82.4610712
1700,North Tampa Street,33602,27.9583435,-82.4617052
411,North Franklin Street,33602,27.9483818,-82.4577496
1301,N Boulevard Street,33607,27.9542673,-82.4678125
2200,North Oregon Avenue,33607,27.9614370,-82.4756134
721,North Jefferson Street,33602,27.9522958,-82.4556214
1211,North Marion Street,33602,27.9551676,-82.4584287
1119,North Florida Avenue,33602,27.9541590,-82.4591457
1313,North Tampa Street,33602,27.9549770,-82.4604990
606,East Tyler Street,33602,27.9535765,-82.4570099
39,Columbia Drive,33606,27.9348328,-82.4562894
1315,Severn Avenue,33606,27.9077611,-82.4499825
240,South Plant Avenue,33606,27.9423266,-82.4618777
208,North 22nd Street,33605,27.9503393,-82.4348981
801,North Florida Avenue,33602,27.9514894,-82.4581063
4202,East Fowler Avenue,33620,28.0617722,-82.4138333
13565,Cypress Glenn Lane,33637,28.0697924,-82.3619607
13510,Cypress Glenn Lane,33637,28.0697904,-82.3628068
17601,Bruce B Downs Boulevard,33647,28.1282805,-82.3647229
17605,Bruce B Downs Boulevard,33647,28.1291236,-82.3642974
2415,South Himes Avenue,33629,27.9243055,-82.5038671
705,West De Leon Street,33606,27.9392789,-82.4676764
9211,North Florida Avenue,33612,28.0338449,-82.4589896
1005,West Swann Avenue,33606,27.9380967,-82.4698504
3111,West Morrison Avenue,33629,27.9343305,-82.4942858
3751,East Fowler Avenue,33612,28.0538733,-82.4174308
11402,North 30th Street,33612,28.0522396,-82.4266676
11302,North 30th Street,33612,28.0511179,-82.4264903
18002,Highwoods Preserve Parkway,33647,28.1305593,-82.3706233
17621,Bruce B Downs Boulevard,33647,28.1294509,-82.3660252
1607,North 22nd Street,33605,27.9593268,-82.4345907
11201,N McKinley Dr,33612,28.0506729,-82.4146516
17635,Highwoods Preserve Parkway,33647,28.1308718,-82.3645600
17641,Highwoods Preserve Parkway,33647,28.1312779,-82.3639218
17631,Highwoods Preserve Parkway,33647,28.1302687,-82.3650346
2904,Melbourne Boulevard,33605,27.9699238,-82.4032222
1201,Orient Road,33619,27.9581820,-82.3711098
727,West Cass Street,33606,27.9511045,-82.4669397
17513,Bruce B Downs Boulevard,33647,28.1271083,-82.3681225
700,North Armenia Avenue,33606,27.9499188,-82.4861181
3821,USF Holly Drive,33620,28.0634958,-82.4155503
4103,USF Cedar Circle,33620,28.0637326,-82.4134265
13127,USF Magnolia Drive,33612,28.0650279,-82.4194354
3301,USF Alumni Drive,33612,28.0572114,-82.4212381
3705,Spectrum Boulevard,33612,28.0557262,-82.4174752
6290,Commerce Palms Drive,33647,28.1159049,-82.3738714
6201,Commerce Palms Drive,33647,28.1138113,-82.3797447
801,Water Street,33602,27.9422446,-82.4499013
9401,North Boulevard,33612,28.0347151,-82.4656736
4100,George J. Bean Parkway,33607,27.9779847,-82.5277681
1412,E 7th Ave,33605,27.9606394,-82.4438290
2004,North 16th Street,33605,27.9619238,-82.4418931
4001,West Tampa Bay Boulevard,33614,27.9778194,-82.5096426
1320,East Palm Avenue,33605,27.9627273,-82.4447492
4716,West Montgomery Avenue,33616,27.8767817,-82.5243894
1000,N Ashley Drive,33602,27.9521862,-82.4623854
920,East Fowler Avenue,33612,28.0550646,-82.4500997
1102,E Fowler Ave,33612,28.0549971,-82.4479647
4810,North Himes Avenue,33614,27.9886743,-82.5031140
5620,West Cypress Street,33607,27.9512152,-82.5416129
10865,Cross Creek Boulevard,33647,28.1434778,-82.2910589
1309,West Swann Avenue,33606,27.9376799,-82.4733447
5000,North Central Avenue,33603,27.9906292,-82.4563344
4702,North Central Avenue,33603,27.9878613,-82.4571419
910,E Fowler Ave,33612,28.0550631,-82.4506692
2011,East Sligh Avenue,33610,28.0091515,-82.4367243
6201,North Central Avenue,33604,28.0041389,-82.4543604
2008,East 8th Avenue,33605,27.9616929,-82.4359238
2900,Bayport Drive,33607,27.9651848,-82.5501494
4151,Dana Shores Drive,33634,27.9778908,-82.5547703
10201,North Boulevard,33612,28.0422702,-82.4656564
501,East Polk Street,33602,27.9511910,-82.4570593
601,North Florida Avenue,33602,27.9500481,-82.4574196
500,East Zack Street,33602,27.9508820,-82.4569142
610,East Polk Street,33602,27.9518765,-82.4563921
603,East Cass Street,33602,27.9522226,-82.4564792
400,North Tampa Street,33602,27.9476364,-82.4593545
13801,Tampa Street North,33613,27.9467310,-82.4569805
107,South Franklin Street,33602,27.9448482,-82.4569848
1302,North Marion Street,33602,27.9555016,-82.4589685
1305,North Marion Street,33602,27.9557432,-82.4590114
4444,West Bay View Avenue,33611,27.9056093,-82.5211128
2802,West Ballast Point Boulevard,33611,27.8888070,-82.4885078
6001,South Himes Avenue,33611,27.8825025,-82.5032077
3910,West Fair Oaks Avenue,33611,27.8990157,-82.5093486
700,East Twiggs Street,33602,27.9507276,-82.4549069
610,East Zack Street,33602,27.9512662,-82.4562701
501,East Kennedy Boulevard,33602,27.9480455,-82.4556591
4801,North 22nd Street,33610,27.9906343,-82.4319431
400,West Osborne Avenue,33603,27.9876887,-82.4644335
302,West Kennedy Boulevard,33606,27.9454808,-82.4630740
401,South Florida Avenue,33602,27.9432720,-82.4553329
243,Bayshore Boulevard,33606,27.9422684,-82.4604999
215,West Grand Central Avenue,33606,27.9445149,-82.4621553
201,West Platt Street,33606,27.9418984,-82.4612016
205,West Platt Street,33606,27.9419008,-82.4615974
203,West Platt Street,33606,27.9418120,-82.4614566
6402,North 40th Street,33610,28.0059641,-82.4151920
606,West Kennedy Boulevard,33606,27.9440906,-82.4660591
110,South Boulevard,33606,27.9435230,-82.4682329
1103,North 22nd Street,33605,27.9539589,-82.4318113
350,South Cedar Avenue,33606,27.9411049,-82.4647066
601,W Platt St,33606,27.9420354,-82.4660538
3224,East Cayuga Street,33610,27.9873031,-82.4238151
19910,Bruce B Downs Boulevard,33647,28.1554032,-82.3567451
19034,Bruce B. Downs Boulevard,33647-2434,28.1452515,-82.3551626
8412,N. 13th Street,33604,28.0263651,-82.4468499
4411,South Himes Avenue,33611,27.9010886,-82.5034417
6315,North Armenia Avenue,33604,28.0043354,-82.4823005
2700,West Cherry Street,33607,27.9608720,-82.4880682
4201,West Estrella Street,33629,27.9293900,-82.5161673
3809,West Morrison Avenue,33629,27.9352815,-82.5068422
1190,East Washington Street,33602,27.9490994,-82.4481945
5223,North Himes Avenue,33614,27.9941363,-82.4999027
4701,North Himes Avenue,33614,27.9860930,-82.4991678
1001,North Boulevard,33607,27.9537252,-82.4668752
1300,N Boulevard Street,33607,27.9544777,-82.4690356
306,East Jackson Street,33602,27.9476587,-82.4572373
601,East Kennedy Boulevard,33602,27.9483182,-82.4548205
851,East Zack Street,33602,27.9520774,-82.4519245
608,North Nebraska Avenue,33602,27.9522277,-82.4514895
815,Channelside Drive,33602,27.9453740,-82.4442058
1,Buccaneer Place,33603,27.9798841,-82.4948576
900,West Kennedy Boulevard,33606,27.9443725,-82.4689152
1120,East Kennedy Boulevard,33602,27.9510026,-82.4482636
902,East Kennedy Boulevard,33602,27.9498539,-82.4525853
1001,Grace Street,33607,27.9528681,-82.4697997
1005,Grace Street,33607-5616,27.9528952,-82.4700308
1103,North Willow Avenue,33607,27.9530046,-82.4723653
1113,West Grace Street,33607,27.9529199,-82.4714621
1115,West Grace Street,33607,27.9529013,-82.4716199
1119,West Grace Street,33607,27.9529172,-82.4719311
1105,West Grace Street,33607,27.9528775,-82.4710037
1111,West Grace Street,33607,27.9529267,-82.4712198
1117,West Grace Street,33607,27.9529128,-82.4717719
1101,North Willow Avenue,33607,27.9528712,-82.4723718
1103,West Grace Street,33607,27.9528514,-82.4708603
1121,West Grace Street,33607,27.9529393,-82.4720732
1114,West Nassau Street,33607,27.9532419,-82.4714632
1112,West Nassau Street,33607,27.9532486,-82.4713273
1116,West Nassau Street,33607,27.9532342,-82.4716082
1106,West Nassau Street,33607,27.9532543,-82.4708373
1110,West Nassau Street,33607,27.9532401,-82.4711574
1120,West Nassau Street,33607,27.9532547,-82.4718184
1124,West Nassau Street,33607,27.9532123,-82.4723108
1102,West Nassau Street,33607,27.9532115,-82.4706810
1108,West Nassau Street,33607,27.9532663,-82.4709925
1122,West Nassau Street,33607,27.9532491,-82.4720601
1123,West Nassau Street,33607,27.9536350,-82.4723862
1119,West Nassau Street,33607,27.9536510,-82.4720736
1113,West Nassau Street,33607,27.9536418,-82.4716065
1115,West Nassau Street,33607,27.9536252,-82.4717808
1117,West Nassau Street,33607,27.9536286,-82.4719242
4830,West Kennedy Boulevard,33609,27.9442558,-82.5248751
4890,West Kennedy Boulevard,33609,27.9442577,-82.5257775
4860,West Kennedy Boulevard,33609,27.9442600,-82.5253251
204,North Westshore Boulevard,33609,27.9463753,-82.5247914
705,Channelside Drive,33602,27.9436838,-82.4441252
201,West Laurel Street,33602,27.9549338,-82.4631451
1501,Doyle Carlton Drive,33602,27.9553115,-82.4638118
1108,North Franklin Street,33602,27.9532791,-82.4605871
1202,North Franklin Street,33602,27.9536107,-82.4604292
8214,North Florida Avenue,33604,28.0230806,-82.4598661
1207,North Jefferson Street,33602,27.9550695,-82.4562580
1101,North Jefferson Street,33602,27.9543390,-82.4562081
711,N Franklin St,33602,27.9503814,-82.4588074
719,North Franklin Street,33602,27.9505581,-82.4588850
702,North Florida Avenue,33602,27.9506298,-82.4585640
5210,W Tyson Ave,33611,27.8855246,-82.5345611
412,East Zack Street,33602,27.9508185,-82.4576422
124,South Franklin Street,33602,27.9444023,-82.4559560
625,East Twiggs Street,33602,27.9500440,-82.4553905
501,North Morgan Street,33602,27.9496227,-82.4556071
610,North Morgan Street,33602,27.9501494,-82.4565808
801,East Washington Street,33602,27.9475751,-82.4527124
802,East Whiting Street,33602,27.9472947,-82.4524187
817,East Washington Street,33602,27.9476337,-82.4523318
603,East Jackson Street,33602,27.9477900,-82.4545683
200,North Pierce Street,33602,27.9475723,-82.4542967
210,North Pierce Street,33602,27.9476770,-82.4543204
5229,North Florida Avenue,33603,27.9950244,-82.4591623
5135,North Florida Avenue,33603,27.9939860,-82.4592042
5320,North Florida Avenue,33603,27.9957527,-82.4599586
108,West Hillsborough Avenue,33603,27.9957466,-82.4603371
5016,North Florida Avenue,33603,27.9919737,-82.4596518
1155,East Cass Street,33602,27.9530479,-82.4517549
1145,East Cass Street,33602,27.9530187,-82.4518626
1147,East Cass Street,33602,27.9530316,-82.4521501
215,North Dale Mabry Highway;N Dale Mabry Highway,33609,27.9470068,-82.5053430
401,North Dale Mabry Highway,33609,27.9489935,-82.5048183
4620,Gandy Boulevard,33611,27.8930345,-82.5235957
4403,Gandy Boulevard,33611-3301,27.8937677,-82.5193227
4404,W Gandy Boulevard,33611,27.8930047,-82.5191511
4818,S Manhattan Avenue,33611,27.8945306,-82.5179134
4420,Gandy Boulevard,33611,27.8928693,-82.5199054
4302,West Gandy Boulevard,33611,27.8912137,-82.5162491
5300,Interbay Boulevard,33611,27.8892124,-82.4806741
5314,Interbay Boulevard,33611,27.8892162,-82.4807962
5212,Interbay Boulevard,33611,27.8899229,-82.4820077
2109,Bayshore Blvd,33606,27.9264410,-82.4827400
1101,West Sligh Avenue,33767,28.0139772,-82.4699280
3325,Bayshore Boulevard,33629,27.9138110,-82.4925851
3435,Bayshore Boulevard,33629,27.9118048,-82.4915328
3333,Gandy Boulevard,33611,27.8939653,-82.5001014
3699,West Gandy Boulevard,33611,27.8939887,-82.5058516
3699,West Gandy Boulevard,33611,27.8942262,-82.5058433
3619,W Gandy Boulevard,33611,27.8940834,-82.5036769
3617,Gandy Boulevard,33611,27.8950847,-82.5032402
3625,Gandy Boulevard,33611-2607,27.8950526,-82.5051007
3699,West Gandy Boulevard,33611,27.8942098,-82.5054751
4104,West Gandy Boulevard,33611,27.8939366,-82.5124385
302,Knights Run Avenue,33602,27.9376765,-82.4529321
900,South Harbour Island Boulevard,33602,27.9364409,-82.4521347
1700,Dale Mabry Highway,33607,27.9579685,-82.4952916
2616,South Macdill Avenue,33609,27.9219614,-82.4932256
2301,South Macdill Avenue,33629,27.9243435,-82.4937851
2602,South Macdill Avenue,33629,27.9222652,-82.4933295
912,Kennedy Boulevard,33606,27.9444380,-82.4691752
1010,West Kennedy Boulevard,33606,27.9443948,-82.4703664
107,South Willow Avenue,33606,27.9441117,-82.4729511
1302,Kennedy Boulevard,33606,27.9438899,-82.4736137
1520,W Kennedy Boulevard,33606,27.9442207,-82.4754053
1506,Kennedy Boulevard,33606,27.9442790,-82.4750480
107,South Oregon Avenue,33606,27.9440580,-82.4749300
1501,West Cleveland Street,33606,27.9434780,-82.4753843
1600,Kennedy Boulevard,33606,27.9444250,-82.4759738
1700,West Kennedy Boulevard,33606,27.9440743,-82.4772976
6206,Commerce Palms Drive,33647,28.1159621,-82.3789575
17050,Palm Pointe Dr.,33647,28.1184132,-82.3802687
5101,Pointe Of Tampa Way,33647,28.1179678,-82.3792772
3035,North Rocky Point Drive East,33607,27.9696773,-82.5644927
3025,North Rocky Point Drive East,33607,27.9692737,-82.5636702
10420,McKinley Drive,33612,28.0457795,-82.4177226
1,Steinbrenner Drive,33614,27.9801422,-82.5067081
723,West Columbus Drive,33602,27.9671492,-82.4682707
2601,North Tampa Street,33602,27.9671290,-82.4606414
1238,East Kennedy Boulevard,33602,27.9510059,-82.4460646
10001,North McKinley Drive,33612,28.0419120,-82.4131039
3809,North Armenia Avenue,33607,27.9729855,-82.4844858
3709,North Armenia Avenue,33607,27.9722234,-82.4842644
3202,East Hillsborough Avenue,33610,27.9964778,-82.4239719
1501,Hillsboro Avenue,33610,27.9957450,-82.4426680
3024,West Hillsborough Avenue,33614,27.9956056,-82.4923342
3601,West Hillsborough Avenue,33614,27.9965168,-82.5013543
210,East Fowler Avenue,33612,28.0552198,-82.4575855
1412,East 7th Avenue,33605,27.9600681,-82.4440512
1301,East 7th Avenue,33605,27.9599258,-82.4450480
1812,North 15th Street,33605,27.9607044,-82.4431714
1909,North 15th Street,33605,27.9614210,-82.4427666
900,West Platt Street,33606,27.9415606,-82.4688738
1910,North Ola Avenue,33602,27.9611555,-82.4640258
1810,North Highland Avenue,33602,27.9599605,-82.4628208
4145,North Armenia Avenue,33607,27.9780730,-82.4844485
5041,West Cypress Street,33607,27.9527025,-82.5295201
901,West Platt Street,33606,27.9419272,-82.4687880
601,West Swann Avenue,33606,27.9374264,-82.4661893
611,South Magnolia Avenue,33606,27.9378624,-82.4662296
613,South Magnolia Avenue,33606,27.9377079,-82.4661734
612,West Bay Street,33606-2704,27.9378293,-82.4668505
500,UT University Drive,33606,27.9486341,-82.4667561
220,West 7th Avenue,33602,27.9602199,-82.4630829
202,West 7th Avenue,33602,27.9602211,-82.4626418
5201,West Kennedy Boulevard,33609,27.9452085,-82.5314526
4202,East Fowler Avenue,33620,28.0592448,-82.4065656
406,West Azeele Street,33606,27.9403331,-82.4643957
4210,South Dale Mabry Highway,33611,27.9041655,-82.5044291
3909,West Neptune Street,33629-5815;33629,27.9308218,-82.5086764
3910,West Morrison Avenue,33629,27.9329829,-82.5094257
35,Columbia Drive,33606,27.9355209,-82.4573642
309,North Hubert Avenue,33609,27.9471687,-82.5153257
4201,W Mango Ave,33616,27.8773265,-82.5165511
7409,Picnic Island Boulevard,33616,27.8527770,-82.5521441
6203,South Martindale Avenue,33611,27.8771078,-82.4955580
4525,W Pearl Ave,33611,27.8879504,-82.5217603
3702,W Corona St,33629,27.9139281,-82.5045233
2900,Bayport Drive,33607,27.9622677,-82.5493286
4500,North Nebraska Avenue,33603,27.9862585,-82.4514722
5119,Nebraska Avenue,33603,27.9936117,-82.4509282
12902,USF Magnolia Drive,33612,28.0640661,-82.4216869
931,East 11th Avenue,33605,27.9632016,-82.4489740
929,East 11th Avenue,33605,27.9631900,-82.4491031
935,East 11th Avenue,33605,27.9632113,-82.4487731
913,East 11th Avenue,33605,27.9631658,-82.4502922
917,East 11th Avenue,33605,27.9631925,-82.4500076
915,East 11th Avenue,33605,27.9632111,-82.4501501
909,East 11th Avenue,33605,27.9631744,-82.4505859
2105,Nebraska Avenue,33605,27.9635599,-82.4509563
907,East 11th Avenue,33605,27.9635239,-82.4506758
912,East 11th Avenue,33605,27.9635163,-82.4503110
4200,George J. Bean Parkway,33634,27.9816175,-82.5346450
13515,Lake Terrace Lane,33637,28.0703490,-82.3574577
12502,USF Pine Drive,33612,28.0616284,-82.4225467
4555,South Manhattan Avenue,33611,27.8982121,-82.5190589
2901,West Swann Avenue,33609,27.9380715,-82.4891640
3030,West Dr. Martin Luther King Jr Boulevard,33603,27.9800422,-82.4919766
3001,West Dr. Martin Luther King Jr Boulevard,33603,27.9827721,-82.4914940
4004,North Riverside Drive,33603,27.9823609,-82.4735905
4801,North Howard Avenue,33603,27.9896906,-82.4815080
4813,North Grady Avenue,33614,27.9902484,-82.5086196
4750,North Dale Mabry Highway,33614,27.9876199,-82.5069411
4800,North Dale Mabry Highway,33614,27.9892956,-82.5057803
4703,Hillsborough Avenue,33614,27.9967788,-82.5232252
4600,North Dale Mabry Highway,33614,27.9844855,-82.5062641
4150,Hillsborough Avenue,33614,27.9955211,-82.5128050
4333,West Hillsborough Avenue,33614,27.9966709,-82.5171991
4301,West Hillsborough Avenue,33614,27.9965967,-82.5150716
4301,West Hillsborough Avenue,33614,27.9968827,-82.5150977
4301,West Hillsborough Avenue,33614,27.9968433,-82.5153909
4818,North Lauber Way,33614,27.9907336,-82.5186739
5405,North Church Avenue,33614,27.9977683,-82.5068495
6402,Dale Mabry Highway,33614,27.9990026,-82.5058243
4703,Hillsborough Avenue,33614,27.9965654,-82.5232627
4414,North Grady Avenue,33614,27.9829036,-82.5105017
3508,North Mac Dill Avenue,33607,27.9709011,-82.4932742
3118,West Dewey Street,33607,27.9709196,-82.4945981
3108,West Dewey Street,33607,27.9709360,-82.4937407
3112,West Dewey Street,33607,27.9709015,-82.4940962
3101,West Dewey Street,33607,27.9713531,-82.4932802
3103,West Dewey Street,33607,27.9713635,-82.4934436
3507,North Matanzas Avenue,33607,27.9709165,-82.4949431
3105,West Dewey Street,33607,27.9713080,-82.4936007
3107,West Dewey Street,33607,27.9713132,-82.4937541
3124,West Abdella Street,33607,27.9701857,-82.4949672
3101,West Abdella Street,33607,27.9706275,-82.4933062
3119,West Abdella Street,33607,27.9706629,-82.4946922
3105,West Abdella Street,33607,27.9706268,-82.4935099
3116,West Dewey Street,33607,27.9708975,-82.4943365
3123,West Abdella Street,33607,27.9706531,-82.4949399
3109,West Abdella Street,33607,27.9706048,-82.4940335
3107,West Abdella Street,33607,27.9706009,-82.4938020
3115,West Abdella Street,33607,27.9705897,-82.4943250
3117,West Abdella Street,33607,27.9706142,-82.4945367
3104,West Dewey Street,33607,27.9709039,-82.4934506
3106,West Dewey Street,33607,27.9709144,-82.4935933
2727,West Dr. Martin Luther King Jr Boulevard,33607,27.9820476,-82.4874865
3101,West Martin Luther King Jr. Blvd,33607,27.9834102,-82.4948829
2511,West Dr. Martin Luther King Jr Boulevard,33607,27.9814873,-82.4861910
3024,West Hillsborough Avenue,33614,27.9958159,-82.4923520
302,East Davis Boulevard,33606,27.9257363,-82.4533069
302,East Davis Boulevard,33606,27.9258569,-82.4533834
311,East Davis Boulevard,33606,27.9258138,-82.4525303
311,East Davis Boulevard,33606,27.9260175,-82.4527316
97,Biscayne Avenue,33606,27.9259963,-82.4547458
201,East Davis Boulevard,33606,27.9275685,-82.4535534
141,East Davis Boulevard,33606,27.9289254,-82.4547826
121,East Davis Boulevard,33606,27.9292977,-82.4552594
114,Columbia Drive,33606,27.9295658,-82.4549996
59,Columbia Drive,33606,27.9336978,-82.4554191
236,East Davis Boulevard,33606,27.9264767,-82.4536337
230,East Davis Boulevard,33606,27.9266773,-82.4537640
212,East Davis Boulevard,33606,27.9270651,-82.4539330
202,East Davis Boulevard,33606,27.9272024,-82.4541201
1516,East 15th Avenue,33605,27.9662051,-82.4421519
1514,East 15th Avenue,33605,27.9662080,-82.4422640
934,East Giddens Avenue,33603,27.9954342,-82.4484316
1411,East Hillsborough Avenue,33604,27.9958110,-82.4431475
5315,North Taliaferro Avenue,33604,27.9956881,-82.4530141
1411,East Hillsborough Avenue,33604,27.9957385,-82.4434442
3401,North Nebraska Avenue,33603,27.9743641,-82.4509952
3815,North Nebraska Avenue,33603,27.9799645,-82.4496763
3800,North Nebraska Avenue,33603,27.9791256,-82.4517137
3415,North Nebraska Avenue,33603,27.9753418,-82.4507675
1011,East 14th Avenue,33605,27.9654162,-82.4481136
1013,East 14th Avenue,33605,27.9654190,-82.4479694
1005,East 14th Avenue,33605,27.9654188,-82.4485954
1008,East 14th Avenue,33605,27.9657464,-82.4484415
1002,East 14th Avenue,33605,27.9657741,-82.4488855
1006,East 14th Avenue,33605,27.9657619,-82.4485883
1022,East 14th Avenue,33605,27.9657537,-82.4474611
1004,East 14th Avenue,33605,27.9657700,-82.4487429
1016,East 14th Avenue,33605,27.9657779,-82.4478127
1012,East 14th Avenue,33605,27.9657818,-82.4481399
1014,East 14th Avenue,33605,27.9657760,-82.4479665
1018,East 14th Avenue,33605,27.9657681,-82.4476813
1010,East 14th Avenue,33605,27.9658071,-82.4482819
2512,North 15th Street,33629,27.9658149,-82.4433236
4511,East Hillsborough Avenue,33610,27.9956132,-82.4061770
4511,East Hillsborough Avenue,33610,27.9957767,-82.4063587
2115,East Hillsborough Avenue,33610,27.9956373,-82.4360497
1509,East Hillsborough Avenue,33610,27.9957570,-82.4422777
2607,"E. Dr. Mlk, Jr. Blvd.",33610-7770,27.9811981,-82.4303517
3512,East Hillsborough Avenue,33610,27.9964810,-82.4207258
4100,East Hillsborough Avenue,33610,27.9963895,-82.4118387
2014,East Diana Street,33610,28.0078187,-82.4367247
5121,North Armenia Avenue,33603,27.9931399,-82.4833381
1705,West Hillsborough Avenue,33603,27.9965648,-82.4765416
1705,West Hillsborough Avenue,33603,27.9963106,-82.4766043
5407,N Lee Place,33603,27.9965896,-82.4697633
6500,North Florida Avenue,33604,28.0068421,-82.4597282
5210,North Florida Avenue,33603,27.9945563,-82.4597458
501,East Hillsborough Avenue,33604,27.9958255,-82.4549460
4315,North Florida Avenue,33603,27.9849416,-82.4591530
4101,North Florida Avenue,33604,27.9826197,-82.4586457
4711,North Central Avenue,33603,27.9884885,-82.4549061
5801,North Florida Avenue,33604,27.9998836,-82.4592869
6401,North Florida Avenue,33604,28.0051374,-82.4592909
6809,North Nebraska Avenue,33604,28.0100478,-82.4504291
6408,North Nebraska Avenue,33604,28.0063206,-82.4515429
1410,East Hillsborough Avenue,33604,27.9962749,-82.4434410
1410,East Hillsborough Avenue,33604,27.9964404,-82.4432427
1042,East Hillsborough Avenue,33604,27.9964036,-82.4483150
5320,Interbay Boulevard,33611,27.8873623,-82.4811617
5813,Interbay Boulevard,33611,27.8825223,-82.4896034
5809,Interbay Boulevard,33611,27.8826356,-82.4893244
5811,Interbay Boulevard,33611,27.8826936,-82.4895252
3102,North Kinyon Avenue,33603,27.9725017,-82.4760644
3104,North Kinyon Avenue,33603,27.9726988,-82.4760143
1012,West Adalee Street,33603,27.9727238,-82.4750529
1010,West Adalee Street,33603,27.9727534,-82.4748035
2705,North Riverside Drive,33602,27.9673323,-82.4744039
2713,North Ridgewood Avenue,33602,27.9685919,-82.4744205
2717,North Riverside Drive,33602,27.9679303,-82.4749876
2719,North Riverside Drive,33602,27.9680817,-82.4751269
2712,North Ridgewood Avenue,33602,27.9682819,-82.4746310
2725,North Riverside Drive,33602,27.9683922,-82.4753413
2714,North Ridgewood Avenue,33602,27.9683930,-82.4747420
2729,North Riverside Drive,33602,27.9685483,-82.4754351
2715,North Ridgewood Avenue,33602,27.9686791,-82.4745126
2727,North Ridgewood Avenue,33602,27.9691647,-82.4753202
2729,North Ridgewood Avenue,33602,27.9692596,-82.4754232
2808,North Kinyon Avenue,33602,27.9698868,-82.4761126
2901,North Kinyon Avenue,33602,27.9704315,-82.4755868
2707,North Riverside Drive,33602,27.9674257,-82.4745262
2715,North Riverside Drive,33602,27.9677485,-82.4748970
3907,North Tampa Street,33603,27.9805442,-82.4608903
3909,North Tampa Street,33603,27.9806991,-82.4608996
1011,West Columbus Drive,33602,27.9671634,-82.4743026
2706,North Ridgewood Avenue,33602,27.9679334,-82.4743325
2711,North Ridgewood Avenue,33602,27.9684870,-82.4743084
3205,North Boulevard,33603,27.9739343,-82.4669367
3102,North Oakdale Avenue,33603,27.9713881,-82.4739358
1002,West Adalee Street,33603,27.9726872,-82.4739331
1004,West Adalee Street,33603,27.9727109,-82.4741235
2702,North Munro Street,33602,27.9670490,-82.4689255
2701,North Poplar Avenue,33602,27.9671060,-82.4714216
1003,West Columbus Drive,33602,27.9671207,-82.4737348
905,West Columbus Drive,33602,27.9671523,-82.4721256
903,West Columbus Drive,33602,27.9671333,-82.4719559
909,West Columbus Drive,33602,27.9671179,-82.4724417
815,West Columbus Drive,33602,27.9671217,-82.4708566
1009,West Columbus Drive,33602,27.9671527,-82.4740554
901,West Columbus Drive,33602,27.9671349,-82.4718077
907,West Columbus Drive,33602,27.9671597,-82.4723116
2606,North Ridgewood Avenue,33602,27.9675001,-82.4737324
2702,North Ridgewood Avenue,33602,27.9677381,-82.4740614
2703,North Oakdale Avenue,33602,27.9679182,-82.4732796
2705,North Oakdale Avenue,33602,27.9681019,-82.4733339
2703,North Ridgewood Avenue,33602,27.9681855,-82.4739022
2707,North Oakdale Avenue,33602,27.9682989,-82.4733301
2707,North Ridgewood Avenue,33602,27.9683123,-82.4740878
2709,North Ridgewood Avenue,33602,27.9683824,-82.4741819
2701,North Ridgewood Avenue,33602,27.9679738,-82.4737369
8532,Marina Bay Drive,33621,27.8436650,-82.4825022
6801,South Dale Mabry Highway,33621-5129,27.8628308,-82.4997520
2505,SOCOM Memorial Way,33621,27.8582090,-82.4878004
5125,South Dale Mabry Highway,33611,27.8895429,-82.5078362
6231,South Dale Mabry Highway,33611,27.8763928,-82.5069693
4029,South West Shore Boulevard,33611,27.9042647,-82.5270457
4704,West Montgomery Avenue,33616,27.8767401,-82.5217853
6401,S West Shore Blvd,33616,27.8752002,-82.5291874
6401,S West Shore Blvd,33616,27.8747523,-82.5294927
3251,W Bay to Bay Blvd,33629,27.9199518,-82.4968916
6231,South Dale Mabry Highway,33611,27.9145049,-82.5052745
3440,South Dale Mabry Highway,33611,27.9118225,-82.5057202
3802,South Dale Mabry Highway,33611,27.9072167,-82.5057099
3820,South Dale Mabry Highway,33611,27.9067764,-82.5057063
3826,S Himes Ave,33611,27.9068053,-82.5017740
2914,West Bay Court Avenue,33611,27.9069460,-82.4915155
3910,South Manhattan Avenue,33611,27.9073815,-82.5173991
4506,La Carmen Court,33611,27.8979628,-82.5162799
4504,La Carmen Court,33611,27.8979978,-82.5162804
4505,South Dale Mabry Highway,33611,27.9026493,-82.5070464
3801,South Dale Mabry Highway,33629,27.9084278,-82.5066938
3801,South Dale Mabry Highway,33629,27.9084232,-82.5064469
3307,South Dale Mabry Highway,33629,27.9150042,-82.5063232
3515,South Dale Mabry Highway,33629,27.9109148,-82.5067261
2307,South Dale Mabry Highway,33629,27.9244196,-82.5063670
4155,Henderson Boulevard,33629,27.9271898,-82.5138843
2101,South Dale Mabry Highway,33629,27.9263348,-82.5063473
4016,Henderson Boulevard,33619,27.9294447,-82.5103716
4002,West San Miguel Street,33629,27.9243042,-82.5102766
1001,South Howard Avenue,33606,27.9333938,-82.4834436
2208,West Morrison Avenue,33606,27.9334115,-82.4827241
1208,S Howard Ave,33606,27.9315858,-82.4828467
902,S Orleans Ave,33606,27.9334799,-82.4734754
1002,South Rome Avenue,33606,27.9316361,-82.4765436
3107,West De Leon Street,33609,27.9391995,-82.4939877
3107,West De Leon Street,33609,27.9388698,-82.4938842
3107,West De Leon Street,33609,27.9390689,-82.4938831
3107,West De Leon Street,33609,27.9390182,-82.4938834
3107,West De Leon Street,33609,27.9389691,-82.4938837
3107,West De Leon Street,33609,27.9389188,-82.4938839
1200,South Dale Mabry Highway,33629,27.9318522,-82.5054846
7207,North Taliaferro Avenue,33603,28.0139239,-82.4536068
10902,North Armenia Avenue,33612,28.0484862,-82.4802997
9301,North 12th Street,33612,28.0335638,-82.4468650
10015,North 9th Street,33612,28.0410284,-82.4500871
9813,North 10th Street,33612,28.0394469,-82.4485425
917,East Wilma Street,33612,28.0343115,-82.4497234
10004,North 11th Street,33612,28.0404137,-82.4481770
9506,North 11th Street,33612,28.0357805,-82.4483034
10016,North 10th Street,33612,28.0412542,-82.4489304
10115,Jasmine Avenue,33612,28.0428565,-82.4493236
920,East Linebaugh Avenue,33612,28.0401311,-82.4497598
2801,East Busch Boulevard,33612,28.0321983,-82.4281142
2009,East Seward Street,33604,28.0281460,-82.4360206
3701,East Busch Boulevard,33612,28.0323927,-82.4178490
2003,East Seward Street,33604,28.0280738,-82.4363996
2007,East Seward Street,33604,28.0281541,-82.4362382
2001,East Busch Boulevard,33612,28.0321584,-82.4364075
2001,East Seward Street,33604,28.0280799,-82.4365409
3701,East Busch Boulevard,33612,28.0321861,-82.4177385
2807,East Busch Boulevard,33612,28.0317412,-82.4277709
3003,East Busch Boulevard,33612,28.0323014,-82.4259976
11505,Ravine Road,33612,28.0530551,-82.4622298
11503,North Ola Avenue,33612,28.0532132,-82.4632905
11511,Ravine Road,33612,28.0534411,-82.4622055
11505,North Ola Avenue,33612,28.0534275,-82.4632828
11512,Ravine Road,33612,28.0536449,-82.4627020
318,Country Club Drive,33612,28.0543555,-82.4629807
812(b),West Linebaugh Avenue,33612,28.0394062,-82.4659369
818(a),West Linebaugh Avenue,33612,28.0394053,-82.4664923
9721,Hidden Oak Circle,33612,28.0388301,-82.4642834
9725,Hidden Oak Circle,33612,28.0388409,-82.4638587
721,101st Avenue,33612,28.0410373,-82.4651858
814 (c),West Linebaugh Avenue,33612,28.0384704,-82.4662182
420,West Floriland Avenue,33612,28.0366249,-82.4655874
415,West Floriland Avenue,33612,28.0370536,-82.4651830
409,West Floriland Avenue,33612,28.0370582,-82.4645843
817,Patbur Avenue,33612,28.0370444,-82.4668732
819,Patbur Avenue,33612,28.0370676,-82.4670702
411,West Floriland Avenue,33612,28.0370445,-82.4647800
9618,Hidden Oak Circle,33612,28.0377570,-82.4647363
11333,North Florida Avenue,33612,28.0526563,-82.4588683
704,West 115th Avenue,33612,28.0525879,-82.4642988
11332,Marjory Avenue,33612,28.0534369,-82.4658483
11335,Marjory Avenue,33612,28.0536002,-82.4650716
712,116th Avenue,33612,28.0538392,-82.4648741
11338,Marjory Avenue,33612,28.0541666,-82.4658043
711,116th Avenue,33612,28.0542009,-82.4648636
713,116th Avenue,33612,28.0542277,-82.4651210
11340,Marjory Avenue,33612,28.0543096,-82.4657897
806,Country Club Drive,33612,28.0544242,-82.4661962
802,West 114th Avenue,33612,28.0522684,-82.4657914
10419,Otis Avenue,33612,28.0452803,-82.4657804
10501,North Hamner Avenue,33612,28.0456524,-82.4665845
10515,North Hamner Avenue,33612,28.0469485,-82.4665966
713,West 109th Avenue,33612,28.0475184,-82.4648098
817,West 109th Avenue,33612,28.0475952,-82.4670125
10906,Marjory Avenue,33612,28.0477194,-82.4658788
10917,Marjory Avenue,33612,28.0490360,-82.4651793
10926,Marjory Avenue,33612,28.0492611,-82.4659243
10923,Marjory Avenue,33612,28.0494908,-82.4653527
11118,North Dixon Avenue,33612,28.0508197,-82.4570913
11111,North Florida Avenue,33612,28.0515031,-82.4587676
11000,North Florida Avenue,33612,28.0495000,-82.4603005
219,West Bougainvillea Avenue,33612,28.0438385,-82.4633462
220,West 109th Avenue,33612,28.0471083,-82.4633328
819,West Bougainvillea Avenue,33612,28.0438425,-82.4671446
10409,Otis Avenue,33612,28.0442986,-82.4658134
10415,Otis Avenue,33612,28.0449256,-82.4657923
202,West Seneca Avenue,33612,28.0452449,-82.4613786
305,East Seneca Avenue,33612,28.0452704,-82.4568169
204,West Seneca Avenue,33612,28.0452899,-82.4615616
213,West Seneca Avenue,33612,28.0456756,-82.4626826
204,West 108th Avenue,33612,28.0461764,-82.4615833
10710,North Dixon Avenue,33612,28.0463892,-82.4571404
215,West 108th Avenue,33612,28.0465761,-82.4628828
213,West 108th Avenue,33612,28.0466069,-82.4626776
10715,Seminole Avenue,33612,28.0469574,-82.4558824
10917 (Apt# 28),Brittany Lane,33612,28.0477629,-82.4605717
10911,North Dixon Avenue,33612,28.0484863,-82.4566032
303,East Bougainvillea Avenue,33612,28.0434291,-82.4570325
210,West Azalea Avenue,33612,28.0443304,-82.4622571
208,West Azalea Avenue,33612,28.0443192,-82.4620176
307,East Azalea Avenue,33612,28.0443348,-82.4566873
10410,North Central Avenue,33612,28.0443714,-82.4555420
310,East Azalea Avenue,33612,28.0447376,-82.4565097
306,East Azalea Avenue,33612,28.0447538,-82.4568422
9516,Dartmouth Avenue,33612,28.0382102,-82.4633625
127,A Avenue,33612,28.0390058,-82.4575339
9817,6th Street,33612,28.0392758,-82.4572713
214,B Avenue,33612,28.0395638,-82.4565151
131,East Linebaugh Avenue,33612,28.0398028,-82.4580208
203,West Linebaugh Avenue,33612,28.0402076,-82.4616301
207,West Linebaugh Avenue,33612,28.0402281,-82.4620334
211,West Linebaugh Avenue,33612,28.0402360,-82.4624941
10001,North Florida Avenue,33612,28.0403499,-82.4590803
9305,Ashley Street,33612,28.0344062,-82.4611967
9306,North Tampa Street,33612,28.0344436,-82.4607501
9313,Highland Avenue,33612,28.0350473,-82.4620480
9313,Dartmouth Avenue,33612,28.0350546,-82.4628667
9317,Highland Avenue,33612,28.0353823,-82.4620368
9320,Highland Avenue,33612,28.0355472,-82.4625147
9322,North Tampa Street,33612,28.0357214,-82.4607458
9321,Highland Avenue,33612,28.0357125,-82.4620580
9330,Highland Avenue,33612,28.0363788,-82.4624786
9332,Dartmouth Avenue,33612,28.0364536,-82.4633731
9332,Highland Avenue,33612,28.0365361,-82.4624701
207,West Floriland Avenue,33612,28.0371666,-82.4616799
303,West Floriland Avenue,33612,28.0372106,-82.4628046
9505,Highland Avenue,33612,28.0373791,-82.4619990
9508,Highland Avenue,33612,28.0375698,-82.4624992
9514,Highland Avenue,33612,28.0380740,-82.4624607
10105,North Ola Avenue,33612,28.0413198,-82.4633368
225,West Busch Boulevard,33612,28.0333378,-82.4618981
10002,North Florida Avenue,33612,28.0403771,-82.4598425
214,101st Avenue,33612,28.0405693,-82.4627055
10101,Highland Avenue,33612,28.0409516,-82.4617474
10103,Dartmouth Avenue,33612,28.0411239,-82.4625425
10106,Highland Avenue,33612,28.0413325,-82.4622114
10109,Highland Avenue,33612,28.0417171,-82.4617449
10118,Highland Avenue,33612,28.0424711,-82.4621841
10120,Dartmouth Avenue,33612,28.0426904,-82.4630193
805,West 114th Avenue,33612,28.0526603,-82.4662311
812,116th Avenue,33612,28.0533791,-82.4666493
11504,North Ola Avenue,33612,28.0532570,-82.4637210
704,Country Club Drive,33612,28.0544595,-82.4639222
11301,North Florida Avenue,33612,28.0535318,-82.4589825
10901,Marjory Avenue,33612,28.0474909,-82.4653848
10935,Marjory Avenue,33612,28.0499001,-82.4651520
705,West 113th Avenue,33612,28.0512708,-82.4643424
10508,North Hamner Avenue,33612,28.0462002,-82.4670636
10417,Otis Avenue,33612,28.0451029,-82.4658204
815,West 109th Avenue,33612,28.0475966,-82.4666740
805,West 109th Avenue,33612,28.0475255,-82.4660312
10936,Marjory Avenue,33612,28.0500946,-82.4657730
10712,North Central Avenue,33612,28.0465617,-82.4555374
10714,North Central Avenue,33612,28.0467612,-82.4555479
10109,North Florida Avenue,33612,28.0478509,-82.4587014
202,West Bougainvillea Avenue,33612,28.0433566,-82.4613966
209,West Bougainvillea Avenue,33612,28.0438847,-82.4622705
210,West Seneca Avenue,33612,28.0452564,-82.4622623
209,West Seneca Avenue,33612,28.0456718,-82.4622367
10121,Ashley Street,33612,28.0426545,-82.4609421
9560,North Florida Avenue,33612,28.0382756,-82.4600861
9309,Ashley Street,33612,28.0347390,-82.4611598
304,West Hamiller Avenue,33612,28.0337447,-82.4626678
10110,North Central Avenue,33612,28.0412102,-82.4568315
10110,N. Central Ave,33612,28.0412386,-82.4579467
10001,North Florida Avenue,33612,28.0405598,-82.4589025
1110,North West Shore Boulevard,33607,27.9531707,-82.5245458
1010,North Westshore Boulevard,33607,27.9529777,-82.5246457
4900,West Lemon Street,33609,27.9497700,-82.5275200
700,North West Shore Boulevard,33609,27.9517300,-82.5250437
1700,North Westshore Boulevard,33607,27.9573767,-82.5247200
1502,North West Shore Boulevard,33607,27.9561485,-82.5244344
4805,W Laurel St.,33607,27.9562283,-82.5248814
1508,North Westshore Boulevard,33607,27.9566072,-82.5245929
5303,West Kennedy Boulevard,33609,27.9457665,-82.5329569
5301,Avion Park Drive,33607,27.9581750,-82.5321914
5312,Avion Park Drive,33607,27.9577602,-82.5333944
5325,Avion Park Drive,33607,27.9586642,-82.5335771
309,Country Club Drive,33612,28.0549941,-82.4623502
313,Country Club Drive,33612,28.0549007,-82.4626632
11704,Country Club Place,33612,28.0550822,-82.4648523
8330,North Florida Avenue,33604,28.0248600,-82.4599266
7401,East Broadway Avenue,33619,27.9663755,-82.3726849
10201,E Poinsettia Avenue,33612,28.0418571,-82.4370394
1912,E Poinsettia Avenue,33612,28.0418978,-82.4362495
1910,East Poinsettia Avenue,33612,28.0419167,-82.4364611
1908,E Poinsettia Avenue,33612,28.0419308,-82.4366998
1906,E Poinsettia Avenue,33612,28.0419304,-82.4368489
806,East Annie Street,33612,28.0365734,-82.4525519
816,Orchid Avenue,33612,28.0394294,-82.4519605
805,Castle Court North,33612,28.0376167,-82.4527535
706,Richmere Street East,33612,28.0358424,-82.4538494
9906,Nebraska Avenue,33612,28.0395134,-82.4514796
802,Orchid Avenue,33612,28.0394299,-82.4531220
701,Castle Court North,33612,28.0375959,-82.4543906
808,East Annie Street,33612,28.0365651,-82.4523545
10314 (apt1506),Nebraska Avenue,33612,28.0432900,-82.4518629
9902,Nebraska Avenue,33612,28.0393718,-82.4514362
10011,Florence Avenue,33612,28.0407826,-82.4543101
8916,North Blvd.,33604-1209,28.0323878,-82.4683749
8201,East Bird Street,33604,28.0229689,-82.4591093
8815,North Florida Avenue,33604,28.0302011,-82.4577758
810,East Skagway Avenue,33604,28.0324343,-82.4524538
202,S Dale Mabry Hwy,33609,27.9427160,-82.5053811
3808,West Swann Avenue,33609,27.9372786,-82.5063425
611,South Dale Mabry Highway,33609-3965,27.9382320,-82.5060469
734,Dale Mabry Highway,33609,27.9359161,-82.5051647
301,South Dale Mabry Highway,33609,27.9416579,-82.5063016
601,South Dale Mabry Highway,33609,27.9391552,-82.5069900
3665,Henderson Boulevard,33609,27.9359633,-82.5039955
115,North Mac Dill Avenue,33609,27.9457153,-82.4930555
3309,West Kennedy Boulevard,33609,27.9451138,-82.4979065
3425,West Kennedy Boulevard,33609,27.9450812,-82.5005558
3636,West Kennedy Boulevard,33609,27.9450603,-82.5010195
3407,West Kennedy Boulevard,33609,27.9451896,-82.4998521
3601,West Kennedy Boulevard,33609,27.9450494,-82.5018656
3339,West Kennedy Boulevard,33609,27.9450462,-82.4992128
3621,West Kennedy Boulevard,33609,27.9450884,-82.5024539
3437,West Kennedy Boulevard,33609,27.9450603,-82.5008955
5602,South Dale Mabry Highway,33611,27.8842980,-82.5058332
5602,South Dale Mabry Highway,33611,27.8843396,-82.5061293
1202,E Fowler Ave,33612,28.0549958,-82.4467021
922,E Fowler Ave,33612,28.0549684,-82.4496944
1212,E Fowler Ave,33612,28.0549523,-82.4463594
1430,E Fowler Ave,33612,28.0550550,-82.4438717
1450,E Fowler Ave,33612,28.0550083,-82.4432190
1402,E Fowler Ave,33612,28.0550784,-82.4447524
926,E Fowler Ave,33612,28.0550020,-82.4491398
1248,E Fowler Ave,33612,28.0550131,-82.4452883
1700,East Fowler Avenue,33612,28.0550361,-82.4403656
2110,E Fowler Ave,33612,28.0550899,-82.4363362
2208,E Fowler Ave,33612,28.0549697,-82.4337104
2928,East Fowler Avenue,33612,28.0551215,-82.4266748
901,East Fowler Avenue,33612,28.0540082,-82.4506216
1406,E Fowler Ave,33612,28.0549174,-82.4442539
10603 (apt# 11),Nebraska Avenue,33612,28.0456636,-82.4502457
10405,Jasmine Avenue,33612,28.0440242,-82.4493149
1013,East Holland Street,33612,28.0441315,-82.4485949
909,East Holland Street,33612,28.0441590,-82.4503515
1013,East Chilkoot Avenue,33612,28.0448623,-82.4485596
11408,North 30th Street,33612,28.0523320,-82.4277929
2901,East Fowler Avenue,33612,28.0532546,-82.4265736
2102,E Fowler Ave,33612,28.0549282,-82.4332756
2214,East Fowler Avenue,33612,28.0549409,-82.4324452
2901,East Fowler Avenue,33612,28.0532309,-82.4269628
2911,East Fowler Avenue,33612,28.0538486,-82.4269116
2928,East Fowler Avenue,33612,28.0548730,-82.4266091
1018 (apt# A),East 108th Avenue,33612,28.0466791,-82.4481918
4810,East Busch Boulevard,33617,28.0331207,-82.4075739
10165,McKinley Dr,33613,28.0344150,-82.4191962
3304,West Iowa Avenue,33611,27.8807918,-82.4984425
2905,North 50th Street,33619-2317,27.9700202,-82.4004196
2513,North 50 Street,33619,27.9655483,-82.4012130
2602,North 50th Street,33619,27.9662273,-82.4022235
6915,E Adamo Drive,33619,27.9515729,-82.3797113
2900,Courtney Campbell Cswy,33634,27.9665072,-82.5690133
7627,W Courtney Campbell Cswy,33607,27.9682555,-82.5656580
2425,North Rocky Point Drive,33607,27.9621712,-82.5698103
2506,North Rocky Point Drive,33607,27.9635152,-82.5721280
3001,N Rocky Point Dr E,33607,27.9679947,-82.5675411
4211,North Hubert Avenue,33614,27.9787163,-82.5154473
2223,North Westshore Boulevard,33607,27.9645475,-82.5207263
2223,N. Westshore BLVD #1002,33607,27.9637922,-82.5207152
4202,North Hubert Avenue,33614,27.9779699,-82.5160413
4450,West Ohio Avenue,33614,27.9771711,-82.5179712
3901,West Cass Street,33609,27.9502249,-82.5079796
3905,West Cypress Street,33607,27.9525568,-82.5079927
4103,West Kennedy Boulevard,33609,27.9451336,-82.5121670
309,North Westshore Boulevard,33609,27.9474714,-82.5239332
4427,West Kennedy Boulevard,33609,27.9451664,-82.5193399
4401,West Kennedy Boulevard,33609,27.9451533,-82.5186523
700,North Dale Mabry Highway,33609,27.9502503,-82.5060740
1102,North Dale Mabry Highway,33607,27.9530283,-82.5062877
3935,West Cypress Street,33607,27.9525430,-82.5087431
3911,West Cypress Street,33607,27.9526074,-82.5083800
4651,West Kennedy Boulevard,33609,27.9454218,-82.5236481
4503,West Kennedy Boulevard,33609,27.9451661,-82.5206693
701,North West Shore Boulevard,33607,27.9514208,-82.5238973
4444,West Cypress Street,33607,27.9514805,-82.5195787
4600,West Cypress Street,33607,27.9517586,-82.5226264
4401,West Cypress Street,33607,27.9538525,-82.5200665
4322,Boy Scout Road,33607,27.9622066,-82.5158870
1712,Dale Mabry Highway,33607,27.9584262,-82.5083135
4040,West Boy Scout Boulevard,33607,27.9637457,-82.5118712
1510,North Manhattan Avenue,33607,27.9561965,-82.5189409
4400,West Boy Scout Boulevard,33607,27.9602751,-82.5182662
4200,West Cypress Street,33607,27.9518076,-82.5146692
4300,West Cypress Street,33607,27.9516543,-82.5162880
4350,West Cypress Street,33607,27.9516136,-82.5177239
4219,West Cypress Street,33607,27.9524222,-82.5154529
2502,West Columbus Drive,33607,27.9665133,-82.4850498
2730,West Columbus Drive,33607,27.9664596,-82.4886118
2551,North Dale Mabry Highway,33607,27.9645207,-82.5050037
1505,North Dale Mabry Highway,33607,27.9572805,-82.5023887
1725,North Dale Mabry Highway,33607,27.9581484,-82.5036735
2301,North Dale Mabry Highway,33607,27.9618431,-82.5050484
3701,North Dale Mabry Highway,33607,27.9618542,-82.5037044
2309,Dale Mabry Highway,33607,27.9621214,-82.5050381
2965,North Dale Mabry Highway,33607,27.9664450,-82.5048768
1801,North Lincoln Avenue,33607,27.9583454,-82.4966436
1905,North Dale Mabry Highway,33607,27.9589557,-82.5049815
2001,North Dale Mabry Highway,33607,27.9596396,-82.5050585
3420,West Main Street,33607,27.9569886,-82.5006259
4012,North Armenia Avenue,33607,27.9747073,-82.4852059
4009,North Armenia,33607,27.9747704,-82.4844436
3607,North Armenia Avenue,33607,27.9714866,-82.4842267
2312,West Union Street,33607,27.9577226,-82.4832862
1912,North Howard Avenue,33607,27.9590557,-82.4830811
2135,West Green Street,33607,27.9567452,-82.4825142
2337,West Green Street,33607,27.9567059,-82.4846090
2117,North Albany Avenue,33607,27.9573699,-82.4815948
2113,North Albany Avenue,33607,27.9573406,-82.4814395
2502,North Albany Avenue,33607,27.9631577,-82.4810384
2121,North Albany Avenue,33607,27.9573721,-82.4817441
2123,North Albany Avenue,33607,27.9573731,-82.4818287
2412,North Ridgewood Avenue,33602,27.9653633,-82.4719824
2404,North Boulevard,33602,27.9653984,-82.4678971
2420,North Ridgewood Avenue,33602,27.9655411,-82.4721000
2406,North Boulevard,33602,27.9655498,-82.4679044
2408,North Boulevard,33602,27.9657155,-82.4679002
2422,North Ridgewood Avenue,33602,27.9656848,-82.4722895
2410,North Boulevard,33602,27.9658570,-82.4679747
2504,North Ridgewood Avenue,33602,27.9660763,-82.4726146
2508,North Ridgewood Avenue,33602,27.9662927,-82.4728224
2510,North Ridgewood Avenue,33602,27.9664037,-82.4729045
708,West Park Avenue,33602,27.9639308,-82.4685343
2208,North Boulevard,33602,27.9639989,-82.4678608
806,West Park Avenue,33602,27.9639989,-82.4699393
710,West Park Avenue,33602,27.9640084,-82.4688308
2304,North Ridgewood Avenue,33602,27.9642777,-82.4709303
2308,North Ridgewood Avenue,33602,27.9644483,-82.4711376
2310,North Ridgewood Avenue,33602,27.9645593,-82.4712175
2306,North Boulevard,33602,27.9646124,-82.4678765
2314,North Ridgewood Avenue,33602,27.9646785,-82.4715304
2308,North Boulevard,33602,27.9647890,-82.4678673
2402,North Ridgewood Avenue,33602,27.9650117,-82.4715921
2404,North Ridgewood Avenue,33602,27.9651513,-82.4717678
2402,North Boulevard,33602,27.9652198,-82.4678860
2512,North Ridgewood Avenue,33602,27.9664913,-82.4730224
456,West Columbus Drive,33602,27.9667428,-82.4674542
1420,North Florida Avenue,33602,27.9574640,-82.4597653
1610,North Tampa Street,33602,27.9576589,-82.4612092
1631,North Franklin Street,33602,27.9593274,-82.4599624
1617,North Franklin Street,33602,27.9590885,-82.4599561
1701,North Franklin Street,33602,27.9597525,-82.4599677
804,West Park Avenue,33602,27.9639705,-82.4697466
706,West Park Avenue,33602,27.9639720,-82.4683120
3102,East Lake Avenue,33610,27.9782165,-82.4254169
3810,East 7th Avenue,33605,27.9604332,-82.4165086
1108,East Palm Avenue,33605,27.9626132,-82.4477684
1108,East Palm Avenue,33605,27.9626136,-82.4478287
905,East 11th Avenue,33605,27.9630938,-82.4507735
933,East 11th Avenue,33605,27.9632086,-82.4488612
937,East 11th Avenue,33605,27.9631871,-82.4486826
1110,East Palm Avenue,33605,27.9626124,-82.4476343
2021,North 11th Street,33605,27.9629370,-82.4481099
2019,North 11th Street,33605,27.9628170,-82.4480648
2022,North 11th Street,33605,27.9630253,-82.4484228
953,East 11th Avenue,33605,27.9630934,-82.4476468
923,East 11th Avenue,33605,27.9631846,-82.4495035
905,East 11th Avenue,33605,27.9632055,-82.4506918
921,East 11th Avenue,33605,27.9631771,-82.4496343
927,East 11th Avenue,33605,27.9631779,-82.4492464
925,East 11th Avenue,33605,27.9631798,-82.4493696
919,East 11th Avenue,33605,27.9632384,-82.4498138
1234,East 5th Avenue,33605,27.9590775,-82.4459762
1913,North Nebraska Avenue,33602,27.9619891,-82.4508352
1002,East Palm Avenue,33605,27.9627263,-82.4495002
1202,East Palm Avenue,33605,27.9628893,-82.4457449
1951,Adamo Drive,33605,27.9552839,-82.4368388
2001,E Adamo Dr,33605,27.9552928,-82.4360445
2601,East 2nd Avenue,33605,27.9563308,-82.4300056
2670,East 5th Avenue,33605,27.9591244,-82.4288700
2209,East 7th Avenue,33605,27.9600379,-82.4342827
2209,East 7th Avenue,33605,27.9600371,-82.4341240
1805,North 22nd Street,33605,27.9605684,-82.4345934
1615,West Kennedy Boulevard,33606,27.9450119,-82.4750885
1601,West Kennedy Boulevard,33606,27.9456206,-82.4762113
1704,West North B Street,33606,27.9466913,-82.4773968
403,North Howard Avenue,33606,27.9479694,-82.4826786
407,North Howard Avenue,33606,27.9481976,-82.4827818
206,North Oregon Avenue,33606,27.9464798,-82.4748711
1001,West Cass Street,33606,27.9501658,-82.4696412
1500,West La Salle Street,33607,27.9546931,-82.4748312
1722,West La Salle Street,33607,27.9547218,-82.4777182
1512,West La Salle Street,33607,27.9547216,-82.4752998
1506,West La Salle Street,33607,27.9547200,-82.4751438
1504,West La Salle Street,33607,27.9547224,-82.4749867
1532,West La Salle Street,33607,27.9547453,-82.4759228
1522,West La Salle Street,33607,27.9547449,-82.4756096
1730,West La Salle Street,33607,27.9547363,-82.4780112
1726,West La Salle Street,33607,27.9547345,-82.4778611
1738,West La Salle Street,33607,27.9547386,-82.4783211
1734,West La Salle Street,33607,27.9547393,-82.4781650
1744,West La Salle Street,33607,27.9547406,-82.4784749
1914,West La Salle Street,33607,27.9547582,-82.4796198
1524,West La Salle Street,33607,27.9547570,-82.4757684
1916,West La Salle Street,33607,27.9547613,-82.4798539
1938,West La Salle Street,33607,27.9547712,-82.4803874
2110,West La Salle Street,33607,27.9547774,-82.4816776
2106,West La Salle Street,33607,27.9547842,-82.4813840
2108,West La Salle Street,33607,27.9547835,-82.4815227
2102,West La Salle Street,33607,27.9547590,-82.4810962
2132,West La Salle Street,33607,27.9547930,-82.4821654
2126,West La Salle Street,33607,27.9547808,-82.4818377
1503,West La Salle Street,33607,27.9551048,-82.4749772
1541,West La Salle Street,33607,27.9551115,-82.4763799
1747,West La Salle Street,33607,27.9551293,-82.4784714
1719,West La Salle Street,33607,27.9551122,-82.4775502
1919,West La Salle Street,33607,27.9551539,-82.4800800
1539,West La Salle Street,33607,27.9551248,-82.4762001
1727,West La Salle Street,33607,27.9551284,-82.4780116
1505,West La Salle Street,33607,27.9551265,-82.4751414
1743,West La Salle Street,33607,27.9551337,-82.4783123
1523,West La Salle Street,33607,27.9551375,-82.4756038
1909,West La Salle Street,33607,27.9551410,-82.4793017
1907,West La Salle Street,33607,27.9551327,-82.4791441
1729,West La Salle Street,33607,27.9551419,-82.4781666
1725,West La Salle Street,33607,27.9551480,-82.4778602
1723,West La Salle Street,33607,27.9551471,-82.4776890
1911,West La Salle Street,33607,27.9551469,-82.4794669
1901,West La Salle Street,33607,27.9551451,-82.4789754
1917,West La Salle Street,33607,27.9551540,-82.4799266
1943,West La Salle Street,33607,27.9551659,-82.4803912
1913,West La Salle Street,33607,27.9551753,-82.4796225
1921,West La Salle Street,33607,27.9551634,-82.4802447
1543,West La Salle Street,33607,27.9551362,-82.4765388
1915,West La Salle Street,33607,27.9551571,-82.4797684
2105,West La Salle Street,33607,27.9551820,-82.4813703
2101,West La Salle Street,33607,27.9551743,-82.4810360
1501,West La Salle Street,33607,27.9551460,-82.4748144
2103,West La Salle Street,33607,27.9551752,-82.4812070
1536,West La Salle Street,33607,27.9547646,-82.4761067
1520,West La Salle Street,33607,27.9547240,-82.4754348
1534,West La Salle Street,33607,27.9547643,-82.4760284
1709,West La Salle Street,33607,27.9551201,-82.4772136
1940,West La Salle Street,33607,27.9547650,-82.4805483
1715,West La Salle Street,33607,27.9551723,-82.4773841
1934,West La Salle Street,33607,27.9547811,-82.4800730
1936,West La Salle Street,33607,27.9547759,-82.4802434
1881,West Kennedy Boulevard,33606,27.9450057,-82.4785431
1719,West Kennedy Boulevard,33606,27.9449948,-82.4778966
2001,West Kennedy Boulevard,33606,27.9449986,-82.4799694
1907,West Kennedy Boulevard,33606,27.9450425,-82.4795346
1917,West Kennedy Boulevard,33606,27.9449844,-82.4798223
122,South Howard Avenue,33609,27.9435838,-82.4828095
410,South Howard Avenue,33606,27.9401941,-82.4826776
2015,East 7th Avenue,33605,27.9600788,-82.4360683
2021,East 7th Avenue,33605,27.9600783,-82.4359183
2018,East 7th Avenue,33605,27.9604399,-82.4359520
1907,East 7th Avenue,33605,27.9600482,-82.4376479
1915,East 7th Avenue,33605,27.9600463,-82.4373911
1919,East 7th Avenue,33605,27.9600459,-82.4372268
1923,East 7th Avenue,33605,27.9600949,-82.4371104
1902,East 7th Avenue,33605,27.9604777,-82.4378120
1822,East 7th Avenue,33605,27.9604762,-82.4381805
2003,East 7th Avenue,33605,27.9600666,-82.4363683
1929,East 7th Avenue,33605,27.9600805,-82.4368867
2014,East 7th Avenue,33605,27.9604528,-82.4361086
2117,East 7th Avenue,33602,27.9599557,-82.4351326
1512,East 9th Avenue,33605,27.9620604,-82.4422971
1503,East 7th Avenue,33605,27.9600685,-82.4427668
1812,North 17th Street,33605,27.9607811,-82.4406176
1604,North 17th Street,33605,27.9590860,-82.4405977
1603,East 6th Avenue,33605,27.9593487,-82.4413662
1403,East 5th Avenue,33605,27.9586339,-82.4438752
1313,East 8th Avenue,33605,27.9607852,-82.4448029
1001,West Kennedy Boulevard,33606,27.9448049,-82.4695817
1250,North Marion Street,33602,27.9548012,-82.4591679
915,North Franklin Street,33602,27.9519382,-82.4593193
205,North Brush Street,33602,27.9489383,-82.4502259
207,North 11th Street,33602,27.9491921,-82.4473841
912,Channelside Drive,33602,27.9479492,-82.4462334
163,North Ashley Drive,33602,27.9427551,-82.4581538
443,South 12th Street,33602,27.9443829,-82.4478397
333,South Franklin Street,33602,27.9419599,-82.4567992
802,North 12th Street,33602,27.9547634,-82.4472789
606,East Madison Street,33602,27.9498933,-82.4557721
1724,South Manhattan Avenue,33629,27.9275644,-82.5174635
19440,Bruce B Downs Boulevard,33647,28.1510878,-82.3540679
19430,Bruce B Downs Boulevard,33647,28.1506491,-82.3539792
36750,U.S. Highway 19 North Palm,34684,27.8282955,-82.4770678
4110,George Road,33634,27.9797415,-82.5531639
2502,North 50th Street,33619,27.9653287,-82.4023634
2502,North 50th Street,33619,27.9656687,-82.4023548
2520,North 50th Street,33619,27.9661827,-82.4029794
5329,Avion Park Drive,33607,27.9593594,-82.5338511
5311,Avion Park Drive,33607,27.9594161,-82.5328452
17501,Preserve Walk Lane,33647,28.1276067,-82.3696896
17511,Preserve Walk Lane,33647,28.1283867,-82.3689542
17011,Palm Pointe Drive,33647,28.1175109,-82.3811227
503,East Tyler Street,33602,27.9526004,-82.4578429
8126,North River Shore Drive,33604,28.0218231,-82.4622571
19090,Bruce B Downs Boulevard,33647,28.1469127,-82.3539705
6202,Commerce Palms Drive,33647,28.1164371,-82.3788403
6012,North Ola Avenue,33604,28.0025664,-82.4637248
6014,North Ola Avenue,33604,28.0026911,-82.4637217
6016,North Ola Avenue,33604,28.0028227,-82.4637211
6018,North Ola Avenue,33604,28.0029664,-82.4637198
409,West Paris Street,33604,28.0023654,-82.4642622
305,West Fern Street,33604,28.0060731,-82.4662616
6009,Lynn Avenue,33604,28.0029854,-82.4645993
6011,Lynn Avenue,33604,28.0027521,-82.4646046
6023,Lynn Avenue,33604,28.0025675,-82.4646046
1720,East Hillsborough Avenue,33610,27.9968882,-82.4396580
250,Westshore plaza,33609,27.9472247,-82.5274155
211,North Tampa Street,33602,27.9464238,-82.4579437
4007,West Palmetto Street,33609,27.9617613,-82.5102224
1615,North Hubert Avenue,33607,27.9572640,-82.5150716
1508,North Clark Avenue,33607,27.9565028,-82.5104396
20590,Bruce B Downs Boulevard,33647,28.1678683,-82.3542471
401,East 7th Avenue,33602,27.9592565,-82.4567038
21,Westshore Plaza,33609,27.9467341,-82.5267989
1601,West Swann Avenue,33606,27.9375363,-82.4760094
3302,West Iowa Avenue,33611,27.8808514,-82.4982886
3306,West Iowa Avenue,33611,27.8808352,-82.4985975
4207,South Dale Mabry Highway,33611,27.9038869,-82.5082883
2522,N Dale Mabry Highway,33607,27.9637349,-82.5065364
730,West North A Street,33606,27.9450922,-82.4673601
1701,North Boulevard,33607,27.9583344,-82.4662497
1622,West Kennedy Boulevard,33606,27.9444668,-82.4765103
402,West Laurel Street,33607,27.9542456,-82.4658170
6234,Commerce Palms Drive,33647,28.1179599,-82.3755573
6210,Commerce Palms Drive,33647,28.1179025,-82.3764405
6248,Commerce Palms Drive,33647,28.1179239,-82.3751193
1115,Twiggs Street,33602,27.9518404,-82.4483148
1105,Twiggs Street,33602,27.9518404,-82.4486094
651,Channelside Drive,33602,27.9433543,-82.4458064
202,South Parker Street,33606,27.9440962,-82.4602072
401,North Rome Avenue,33606,27.9479479,-82.4760857
1702,West Cleveland Street,33606,27.9425782,-82.4772832
1101,West Kennedy Boulevard,33606,27.9449338,-82.4703075
1155,East Kennedy Boulevard,33602,27.9500752,-82.4484566
1211,East Kennedy Boulevard,33602,27.9499448,-82.4471585
104,South Cedar Avenue,33606,27.9442795,-82.4646080
103,South Newport Avenue,33606,27.9443278,-82.4719747
3440,West Dr. Martin Luther King Jr Boulevard,33607,27.9808270,-82.5003239
4425,East Fletcher Avenue,33613,28.0684572,-82.4118649
8500,Hunters Village Rd,33647,28.1413697,-82.3601475
2545,Guy N Verger Boulevard,33605,27.9262356,-82.4371551
1002,South Rome Avenue,33606,27.9316421,-82.4765673
906,South Orleans Avenue,33606,27.9331162,-82.4734888
906,South Orleans Avenue,33606,27.9332076,-82.4735290
601,South Harbour Island Boulevard,33602,27.9393879,-82.4544793
2545,North Rocky Point Drive,33607,27.9623815,-82.5689450
7700,West Courtney Campbell Causeway,33607,27.9663580,-82.5706104
3333,East Busch Boulevard,33612,28.0323306,-82.4232709
702,North Ashley Drive,33602,27.9484394,-82.4610906
600,North Ashley Drive,33602,27.9489569,-82.4622385
514,North Franklin Street,33602,27.9488292,-82.4587312
509,East Twiggs Street,33602,27.9493206,-82.4564163
214,North Boulevard,33606,27.9460456,-82.4689333
102,East Cass Street,33602,27.9512151,-82.4609368
13575,Cypress Glen Lane,33637,28.0698772,-82.3609895
1207,South Howard Avenue,33606,27.9308029,-82.4834536
5396,Primrose Lake Circle,33647,28.1274152,-82.3775967
8310,Galbraith Road,33647,28.1330499,-82.3693817
510,Water Street,33602,27.9419273,-82.4536586
1108,Scott Street,33602,27.9568827,-82.4544409
2739,North Florida Avenue,33602,27.9680020,-82.4591119
1020,South Dale Mabry,33629,27.9334211,-82.5052318
2520,"North 50th Street,",33619,27.9655610,-82.4031416
4010,North Lois Avenue,33614,27.9750664,-82.5147348
4732,North Dale Mabry Highway,33614,27.9869079,-82.5072013
11606,McKinley Drive,33612,28.0534907,-82.4168590
11701,USF Bull Run Drive,33617,28.0554237,-82.4034381
5415,W Tyson Avenue,33611,27.8870864,-82.5410671
39,Columbia Drive,33606,27.9347649,-82.4565275
1402,East 9th Avenue,33605,27.9615058,-82.4433558
1412,East Palm Avenue,33605,27.9628194,-82.4433764
2010,North 13th Street,30605,27.9613724,-82.4460689
2001,North 14th Street,33605,27.9619441,-82.4433774
3901,West Tampa Bay Boulevard,33614,27.9774417,-82.5077999
18002,Preserve Walk Lane,33647,28.1297697,-82.3680747
1760,West Hillsborough Avenue,33603,27.9952802,-82.4776920
18019,Highwoods Preserve Parkway,33647,28.1312531,-82.3657990
18011,Highwoods Preserve Parkway,33647,28.1311194,-82.3659330
2356,West Hillsborough Avenue,33614,27.9958033,-82.4838685
2356,West Hillsborough Avenue,33614,27.9955323,-82.4837402
2600,West Nassau Street,33607,27.9533717,-82.4862918
1803,North 22nd Street,33605,27.9604943,-82.4345939
2202,East 7th Avenue,33605,27.9603963,-82.4346158
2206,East 7th Avenue,33605,27.9603961,-82.4345329
3678,West Gandy Boulevard,33611,27.8932548,-82.5050727
4315,Gandy Boulevard,33611,27.8950112,-82.5166274
4100,West Dr Martin Luther King Jr Boulevard,33614,27.9802970,-82.5129071
1760,West Hillsborough Avenue,33603,27.9955772,-82.4777124
3100,West Dewey Street,33607,27.9709011,-82.4933312
15215,Amberly Drive,33647,28.0917370,-82.4077135
820,West North A Street,33606,27.9452735,-82.4681127
3671,West Hillsborough Avenue,33614,27.9973071,-82.5030569
4202,West Spruce Street,33607,27.9591160,-82.5143299
3107,West De Leon Street,33609,27.9391871,-82.4939015
801,East Scott Street,33602,27.9560780,-82.4561284
154,Columbia Drive,33606,27.9292805,-82.4547141
3104,North Armenia Avenue,33607,27.9654620,-82.4865022
218,South Matanzas Avenue,33609,27.9413650,-82.4950805
8401,New Tampa Boulevard,33647,28.1464371,-82.3717604
10001,North McKinley Drive,33612,28.0417586,-82.4130688
8350,Parkedge Drive,33637,28.0738698,-82.3683619
7110,South West Shore Boulevard,33616,27.8621610,-82.5265965
102,East Euclid Avenue,33602,27.9681446,-82.4606694
102,East Euclid Avenue,33602,27.9680047,-82.4606701
2703,North 9th Street,33605,27.9671543,-82.4499702
1200,North West Shore Boulevard,33607,27.9539312,-82.5251889
5010,West Kennedy Boulevard,33609,27.9441837,-82.5289142
1730,Union Street,33607,27.9575085,-82.4777506
1001,Water Street,33602,27.9439230,-82.4500197
1077,Water Street,33602,27.9446154,-82.4500044
1010,Water Street,33602,27.9444910,-82.4508688
18002,Richmond Place Drive,33647,28.1339320,-82.3658671
18311,Highwoods Preserve Parkway,33647,28.1366272,-82.3719751
2110,North Ola Avenue,33602,27.9628045,-82.4645844
1407,East Estelle Street,33605,27.9582244,-82.4496219
1720,North Nebraska Avenue,33602,27.9602992,-82.4514256
1718,North Nebraska Avenue,33602,27.9601738,-82.4514277
701,East Bird Street,33604,28.0209672,-82.4531977
1721,North Mac Dill Avenue,33607,27.9579989,-82.4926466
4150,Hillsborough Avenue,33614,27.9956197,-82.5124429
19090,Bruce B Downs Boulevard,33647,28.1471640,-82.3540823
5811,Tampa Palms Blvd,33647,28.0898154,-82.3838846
10002,North Florida Avenue,33612,28.0403898,-82.4601227
4155,Henderson Boulevard,33629,27.9270068,-82.5139073
3003,East Busch Boulevard,33612,28.0322831,-82.4260095
501,East Hillsborough Avenue,33604,27.9958064,-82.4549446
4206,West Zelar Street,33629,27.9309341,-82.5146738
1315,West Spruce Street,33607,27.9597681,-82.4737493
1125,West Spruce Street,33607,27.9611325,-82.4715080
1545,Spruce Terrace,33607,27.9598035,-82.4756235
2002,North Rome Avenue,33607,27.9595307,-82.4771925
1803,North Howard Avenue,33607,27.9581232,-82.4825765
1906,North Rome Avenue,33607,27.9590932,-82.4774092
2200,North Gomez Avenue,33607,27.9609076,-82.4921753
2001,North Albany Avenue,33607,27.9595304,-82.4804150
19912,Bruce B Downs Boulevard,33647,28.1551020,-82.3539344
19912,Bruce B Downs Boulevard,33647,28.1551274,-82.3542526
2012,West Walnut Street,33607,27.9599219,-82.4872874
2310,North Armenia Avenue,33607,27.9620831,-82.4851846
12260,USF Genshaft Drive,33620,28.0596015,-82.4094010
12530,USF Bull Run Drive,33620,28.0592535,-82.4082451
2005,North Dale Mabry Highway,33607,27.9610297,-82.5044259
2523,North Dale Mabry Highway,33607,27.9627444,-82.5049904
2901,North Dale Mabry Highway,33607,27.9641838,-82.5026835
1700,West La Salle Street,33607,27.9551447,-82.4770009
1704,West La Salle Street,33607,27.9547424,-82.4770715
1902,West La Salle Street,33607,27.9547240,-82.4791934
801,East Hillsborough Avenue,33604,27.9958688,-82.4526505
1403,North Howard Avenue,33607,27.9552212,-82.4821471
1710,West La Salle Street,33607,27.9547250,-82.4774003
1712,West La Salle Street,33607,27.9547119,-82.4775506
2138,West Arch Street,33607,27.9540713,-82.4827040
1101,North Armenia Avenue,33607,27.9530424,-82.4847151
2333,West Cypress Street,33609,27.9523271,-82.4848118
1006,North Armenia Avenue,33607,27.9526505,-82.4853375
2909,West Cypress Street,33609,27.9523729,-82.4901185
2923,West Cypress Street,33609,27.9522916,-82.4907367
3105,West Cypress Street,33607,27.9522492,-82.4938055
1006,West Cypress Street,33606,27.9514258,-82.4705044
801,North Rome Avenue,33606,27.9512717,-82.4759677
701,North Howard Avenue,33606,27.9502611,-82.4827305
800,North Howard Avenue,33606,27.9509901,-82.4840233
522,North Howard Avenue,33606,27.9490619,-82.4840232
3220,West Cypress Street,33607,27.9518209,-82.4968211
3330,West Cypress Street,33607,27.9517960,-82.4989698
4505,North Rome Avenue,33603,27.9826119,-82.4756041
400,North Rome Avenue,33606,27.9480096,-82.4778084
3421,West Kennedy Boulevard,33609,27.9451142,-82.5002602
110,North Mac Dill Avenue,33609,27.9455901,-82.4934719
3023,West Kennedy Boulevard,33609,27.9451140,-82.4924933
3015,West Kennedy Boulevard,33609,27.9451135,-82.4917503
2811,West Kennedy Boulevard,33609,27.9451100,-82.4893265
204,North Mac Dill Avenue,33609,27.9460942,-82.4935805
2419,West Kennedy Boulevard,33609,27.9450874,-82.4847150
2307,Kennedy Boulevard,33609,27.9452992,-82.4835102
301,North Howard Avenue,33606,27.9472625,-82.4826740
2205,West Kennedy Boulevard,33606,27.9450691,-82.4823042
1719,West Green Street,33607,27.9566017,-82.4775158
3805,West Cypress Street,33607,27.9529831,-82.5070298
3940,West Cypress Street,33607,27.9519413,-82.5090713
4002,State Street,33607,27.9512770,-82.5099690
700,North Dale Mabry Highway,33609,27.9503850,-82.5067241
13755,North Dale Mabry Highway,33618,27.9496407,-82.5063476
4601,West Gray Street,33609,27.9492799,-82.5226692
555,North West Shore Boulevard,33609,27.9492832,-82.5236094
324,North Dale Mabry Highway,33609,27.9482833,-82.5061781
302,North Dale Mabry Highway,33609,27.9478697,-82.5061781
405,North Westshore Boulevard,33609,27.9480956,-82.5238362
236,North Dale Mabry Highway,33609,27.9473331,-82.5062603
232,North Dale Mabry Highway,33609,27.9469263,-82.5062175
218,North Dale Mabry Highway,33609,27.9464173,-82.5060554
3813,West Kennedy Boulevard,33609,27.9451159,-82.5068303
302,North Hubert Avenue,33609,27.9471594,-82.5163757
305,North Manhattan Avenue,33609,27.9471590,-82.5173600
4114,West North B Street,33609,27.9464049,-82.5132346
201,North Westshore Boulevard,33609,27.9462755,-82.5238852
4443,West Kennedy Boulevard,33607,27.9453731,-82.5198158
4565,West Kennedy Boulevard,33609-2013,27.9453545,-82.5218154
4643,West Kennedy Boulevard,33609,27.9451603,-82.5228416
4601,West Kennedy Boulevard,33609,27.9453390,-82.5226185
4647,West Kennedy Boulevard,33609,27.9453399,-82.5231388
2502,North Dale Mabry Highway,33607,27.9629650,-82.5059659
3860,West Columbus Drive,33607,27.9660803,-82.5093378
2615,North Grady Avenue,33607,27.9649590,-82.5088070
2225,North Lois Avenue,33607,27.9624940,-82.5127739
2215,North Lois Avenue,33607,27.9616525,-82.5127750
4009,West Spruce Street,33609,27.9601170,-82.5112541
2004,North Dale Mabry Highway,33607,27.9598058,-82.5062839
2040,North Dale Mabry Highway,33607,27.9608868,-82.5060924
2230,North Dale Mabry Highway,33607,27.9613317,-82.5059873
2202,North Lois Avenue,33607,27.9613931,-82.5148444
4312,West Boy Scout Boulevard,33607,27.9620820,-82.5144411
2002,North Lois Avenue,33607,27.9601691,-82.5144957
1720,North Dale Mabry Highway,33607,27.9580721,-82.5062578
3924,West Spruce Street,33607,27.9586875,-82.5093702
1406,West Laurel Street,33607,27.9555703,-82.5073953
1701,North Lois Avenue,33607,27.9579633,-82.5132722
4120,West Cypress Street,33607,27.9519823,-82.5130999
4310,West Spruce Street,33607,27.9587000,-82.5164197
4400,West Spruce Street,33607,27.9587778,-82.5189652
4202,West Nassau Street,33607,27.9534512,-82.5141311
4201,West Cypress Street,33607,27.9524313,-82.5143011
4400,West Cypress Street,33607,27.9515623,-82.5185508
1001,North West Shore Boulevard,33607,27.9530074,-82.5230665
1801,North West Shore Boulevard,33607,27.9580881,-82.5236326
4504,West Spruce Street,33607,27.9591085,-82.5210228
4920,West Cypress Street,33607,27.9516662,-82.5277372
4910,West Cypress Street,33607,27.9518820,-82.5270546
5002,West Lemon Street,33607,27.9499482,-82.5286041
4835,West Cypress Street,33607,27.9529645,-82.5256242
1300,North West Shore Boulevard,33607,27.9546093,-82.5250409
5302,Avion Park Drive,33607,27.9576114,-82.5324136
5308,Avion Park Drive,33607,27.9568585,-82.5324786
4811,West Main Street,33607,27.9573682,-82.5260147
4817,West Laurel Street,33607,27.9564438,-82.5256164
3075,North Rocky Point Drive East,33607,27.9703813,-82.5623297
3030,North Rocky Point Drive West,33607,27.9687170,-82.5693212
3050,North Rocky Point Drive West,33607,27.9702924,-82.5694377
7616,Courtney Campbell Causeway Trail,33607,27.9663205,-82.5667044
7650,Courtney Campbell Causeway Trail,33607,27.9666312,-82.5676099
2701,North Rocky Point Drive,33607,27.9645606,-82.5683861
2811,East Fowler Avenue,33612,28.0538338,-82.4282824
501,Knights Run Avenue,33602,27.9367346,-82.4507493
3451,East Busch Boulevard,33612,28.0323158,-82.4213754
2450,East 2nd Avenue,33605,27.9570072,-82.4308465
4813,North Grady Avenue,33614,27.9903793,-82.5086069
700,South Harbour Island Boulevard,33602,27.9389718,-82.4534599
10630,Plantation Bay Drive,33647,28.1486535,-82.3001374
2701,East Fowler Avenue,33612,28.0536533,-82.4296005
4801,East Fowler Avenue,33617,28.0536228,-82.4043114
1005,West Swann Avenue,33606,27.9380153,-82.4699864
120,West Gasparilla Plaza,33602,27.9494700,-82.4626004
1,Tampa General Circle,33606,27.9374686,-82.4589389
401,Kennedy Boulevard,33606,27.9473987,-82.4670037
2501,East Fowler Avenue,33612,28.0536035,-82.4310708
401,Channelside Drive,33602,27.9427343,-82.4517439
110,West Gasparilla Plaza,33602,27.9495806,-82.4615063
802,East Washington Street,33602,27.9482891,-82.4525321
124,South Morgan Street,33602,27.9457116,-82.4533636
109,West Fortune Street,33602,27.9536982,-82.4629701
2112,North 15th Street,33605,27.9625361,-82.4435626
310,North Boulevard,33606,27.9467362,-82.4689319
11310,North 30th Street,33612,28.0518116,-82.4268737
2135,West Green Street,33607,27.9566466,-82.4824096
2602,North 50th Street,33619,27.9663601,-82.4020633
3320,East Hillsborough Avenue,33610,27.9963361,-82.4228094
7401,East Broadway Avenue,33619,27.9665403,-82.3725588
5149,Adamo Drive,33619,27.9514901,-82.4008639
2401,West Azeele Street,33609-3317,27.9415049,-82.4846225
4410,West Main Street,33607,27.9574034,-82.5191981
406,North Hubert Avenue,33606,27.9480889,-82.5159350
