House number,Street name,Postal code,Latitude,Longitude
215,South Congress Avenue,33409,26.7134662,-80.0845224
4500,South Dixie Highway,33405,26.6732571,-80.0543793
310,North Olive Avenue,33401,26.7154974,-80.0515368
1041,45th Street,33407,26.7542310,-80.0673117
6302,3196 N. Jog Rd.,33411,26.7240583,-80.1480290
8264,Northlake Boulevard,33412,26.8082349,-80.1692240
3125,Jog Road,33411,26.7275560,-80.1509636
4123,Parker Avenue,33406,26.6747244,-80.0630769
525,Okeechobee Boulevard,33401,26.7057014,-80.0564282
505,South Flagler Drive,33401,26.7093804,-80.0509985
2481,Okeechobee Boulevard,33409-4001,26.7076314,-80.0894139
319,Clematis Street,33401,26.7134363,-80.0527151
6901,Okeechobee Boulevard,33411,26.7095380,-80.1499500
2491,Okeechobee Boulevard,33409-4058,26.7075024,-80.0900476
701,Village Boulevard,33409,26.7139364,-80.0999995
971,Village Boulevard,33409,26.7163012,-80.1021722
1840,Palm Beach Lakes Boulevard,33401,26.7203808,-80.0873172
1751,Palm Beach Lakes Boulevard,33401,26.7252155,-80.0870785
1840,Palm Beach Lakes Boulevard,33401,26.7204815,-80.0876230
1875,Palm Beach Lakes Boulevard,33401,26.7242236,-80.0904420
1815,Palm Beach Lakes Boulevard,33401,26.7219573,-80.0875694
1760,Palm Beach Lakes Boulevard,33401-2008,26.7221633,-80.0855577
2201,Palm Beach Lakes Boulevard,33409,26.7117509,-80.0967449
1451,Olive Avenue,33401,26.7006521,-80.0531238
6209,South Dixie Highway,33405,26.6591742,-80.0560349
5100,South Dixie Highway,33405,26.6671532,-80.0549802
315,3rd Street,33401,26.7163046,-80.0532380
501,Clematis Street,33401,26.7147363,-80.0609470
1101,South Flagler Drive,33401,26.7038164,-80.0511406
8993,Okeechobee Blvd,33411,26.7104656,-80.1847384
300,Pembroke Place,33401,26.7043486,-80.0524688
7915,South Dixie Highway,33405,26.6467999,-80.0578406
2015,Okeechobee Boulevard,33409,26.7073982,-80.0810911
818,Southern Boulevard,33405,26.6747075,-80.0615361
4207,Lake Avenue,33405,26.6744899,-80.0611454
4203,Lake Avenue,33405,26.6746927,-80.0611374
4205,Lake Avenue,33405,26.6746061,-80.0611431
804,Southern Boulevard,33405,26.6747097,-80.0613288
3501,Parker Avenue,33405,26.6806303,-80.0635202
846,Southern Boulevard,33405,26.6747416,-80.0624461
828,Southern Boulevard,33405,26.6747314,-80.0619370
4209,Lake Avenue,33405,26.6743726,-80.0611465
700,South Rosemary Avenue,33401,26.7080228,-80.0564689
600,South Rosemary Avenue,33401,26.7080123,-80.0568822
120,South Dixie Highway,33401,26.7124697,-80.0534429
2995,45th Street,33407,26.7597399,-80.0956789
700,South Rosemary Avenue,33401,26.7066944,-80.0570256
998,Clematis Street,33401,26.7134863,-80.0615203
319,Belvedere Road,33405,26.6905205,-80.0530290
235,Courtney Lakes Circle,33401,26.7148175,-80.0831455
700,South Rosemary Avenue,33401,26.7068922,-80.0570562
700,South Rosemary Avenue,33401,26.7071590,-80.0570720
114,South Clematis Street,33401,26.7129006,-80.0502267
501,Evernia Street,33401,26.7120147,-80.0553588
313,Datura Street,33401,26.7126183,-80.0525953
714,Executive Dr.,33401,26.7111395,-80.0747186
319,Clematis Street,33401,26.7135850,-80.0549119
1649,Forum Place,33401,26.7259933,-80.0827539
215,Southern Boulevard,33405,26.6758300,-80.0510615
1011,North Dixie Highway,33401,26.7222365,-80.0535161
250,South Australian Avenue,33401,26.7128653,-80.0645680
225,Clematis Street,33401,26.7134665,-80.0517509
5500,Village Blvd,33407,26.7622482,-80.0988289
1500,Elizabeth Avenue,33401,26.6981692,-80.0645393
330,Clematis Street,33401,26.7132487,-80.0532173
301,Clematis Street,33401,26.7134329,-80.0519803
309,Clematis Street,33401,26.7134593,-80.0523273
114,South Olive Avenue,33401,26.7126740,-80.0517134
1142,Old Okeechobee Road,33401,26.6999994,-80.0642961
1210,Roebuck Court,33401,26.6991733,-80.0642998
2800,South Dixie Highway,33405,26.6894579,-80.0553952
1610,Palm Beach Lakes Boulevard,33401,26.7237994,-80.0822383
600,South Rosemary Avenue,33401,26.7081437,-80.0567599
460,South Rosemary Avenue,33401,26.7098532,-80.0569977
700,South Rosemary Avenue,33401,26.7073118,-80.0570681
700,South Rosemary Avenue,33401,26.7079127,-80.0564724
3,Harvard Circle,33409,26.7115789,-80.1019943
700,South Rosemary Avenue,33401,26.7080455,-80.0569875
2708,North Australian Avenue,33407,26.7379792,-80.0678356
700,S. Rosemary Ave,33401,26.7083921,-80.0569719
1301,North Dixie Highway,33401,26.7250414,-80.0536346
700,South Rosemary Avenue,33401,26.7069725,-80.0570879
1909,South Dixie Highway,33401,26.6966455,-80.0544719
4801,Dreher Trail North,33405,26.6693047,-80.0697957
2200,North Florida Mango Road,33409,26.6948218,-80.0784068
1855,Palm Beach Lakes Boulevard,33401,26.7230422,-80.0902093
1855,Palm Beach Lakes Boulevard,33401,26.7217462,-80.0896986
1855,Palm Beach Lakes Boulevard,33401,26.7221537,-80.0898558
401,North Rosemary Avenue,33401,26.7163639,-80.0571222
1645,Palm Beach Lakes Boulevard,33401,26.7254887,-80.0817491
5001,South Dixie Highway,33405,26.6681432,-80.0554722
701,South Olive Avenue,33401,26.7063799,-80.0523329
321,15th Street,33401,26.7271591,-80.0521786
1700,Palm Beach Lakes Blvd,33401,26.7236854,-80.0836019
1016,Clare Avenue,33401,26.7020493,-80.0623079
2001,Palm Beach Lakes Boulevard,33049,26.7163077,-80.0928921
1751,Palm Beach Lakes Blvd,33401,26.7248474,-80.0887913
1751,Palm Beach Lakes Blvd,33401,26.7252054,-80.0886435
250,S Australian Ave #1302,33401,26.7128557,-80.0646358
1751,Palm Beach Lakes Blvd,33401,26.7254048,-80.0886398
632,Hibiscus Street,33401,26.7084430,-80.0578633
651,Okeechobee Boulevard,33401,26.7066514,-80.0586486
1649,Forum Place,33401,26.7265995,-80.0833489
1921,Okeechobee Boulevard,33409,26.7067984,-80.0796002
700,South Rosemary Avenue,33401,26.7070734,-80.0570510
2200,South Dixie Highway,33401,26.6942964,-80.0540589
316,Vallette Way,33401,26.6978032,-80.0537674
7116,South Dixie Highway,33405,26.6523214,-80.0557927
110,Southern Boulevard,33405,26.6752353,-80.0492004
500,Belvedere Road,33405-1229,26.6895120,-80.0565370
831,Village Boulevard,33409-1901,26.7141100,-80.1020630
4075,North Haverhill Road,33417-7434,26.7375327,-80.1196384
8989,Okeechobee Boulevard,33411-1826,26.7104791,-80.1839610
1109,Old Okeechobee Road,33401,26.7009700,-80.0639815
1800,Palm Beach Lakes Boulevard,33401,26.7210810,-80.0869752
105,South Narcissus Avenue,33401,26.7130629,-80.0508322
4295,45th Street,33407,26.7622958,-80.1051647
2020,Banyan Resort Way,33401,26.7365721,-80.0847138
480,Hibiscus Street,33401,26.7077083,-80.0543763
425,Kanuga Drive,33401,26.6972139,-80.0553743
9835,Okeechobee Boulevard,33411,26.7098461,-80.1982724
200,Broadway,33404,26.7645535,-80.0526783
1301,South Dixie Highway,33402,26.7024686,-80.0546743
3505,Shiloh Drive,33405,26.7558748,-80.1064317
401,45th Street,33407,26.7563860,-80.0634369
500,Banyan Boulevard,33401,26.7139460,-80.0556165
3505,Shenandoah Road,33409,26.7342524,-80.1078674
4111,North Terrace Drive,33407,26.7501131,-80.0638137
501,South Sapodilla Avenue,33401,26.7090736,-80.0604326
1610,Palm Beach Lakes Boulevard,33401,26.7238046,-80.0822327
701,Okeechobee Boulevard,33401,26.7068949,-80.0600529
650,Okeechobee Boulevard,33401,26.7047663,-80.0588621
525,Okeechobee Boulevard,33401,26.7066459,-80.0562147
645,Banyan Boulevard,33401,26.7139886,-80.0582630
600,Banyan Boulevard,33401,26.7139969,-80.0575156
1100,Banyan Boulevard,33401,26.7137972,-80.0648768
501,South Sapodilla Avenue,33401,26.7086598,-80.0596661
501,South Sapodilla Avenue,33401,26.7080703,-80.0594763
1001,Okeechobee Boulevard,33401,26.7071363,-80.0634512
812,Fern Street,33401,26.7098085,-80.0601901
810,Datura Street,33401,26.7122086,-80.0602348
8983,Okeechobee Boulevard,33411,26.7101505,-80.1839212
275,South Rosemary Avenue,33401,26.7107500,-80.0575052
600,South Rosemary Avenue,33401,26.7082003,-80.0568830
1805,Belvedere Road,33406-1507,26.6915812,-80.0784702
8264,Northlake Boulevard,33412,26.8082790,-80.1692096
8537,Northlake Boulevard,33412,26.8124853,-80.1735941
4275,45th Street,33409,26.7600606,-80.1046752
2411,Metrocentre Boulevard,33407,26.7578878,-80.0928594
332,Evernia Street,33401,26.7110654,-80.0531434
1901,Okeechobee Boulevard,33409,26.7074705,-80.0791677
1301,Old Okeechobee Road,33401,26.6998376,-80.0683125
2600,North Military Trail,33409,26.7142092,-80.1065840
1601,Belvedere Road,33406,26.6921577,-80.0759408
2421,Okeechobee Boulevard,33409,26.7068746,-80.0891051
1309,North Flagler Drive,33401,26.7253667,-80.0514994
300,North Dixie Highway,33401,26.7156858,-80.0529825
195,North Narcissus Avenue,33401,26.7140465,-80.0512655
6901,Okeechobee Boulevard,33411,26.7103438,-80.1502579
6903,Okeechobee Boulevard,33411-2509,26.7085743,-80.1500058
4225,45th Street,33407,26.7621313,-80.1031340
1720,Palm Beach Lakes Boulevard,33401,26.7234040,-80.0842738
1880,Palm Beach Lakes Boulevard,33401,26.7191780,-80.0878039
1550,Palm Beach Lakes Boulevard,33401,26.7222554,-80.0787985
2301,Okeechobee Boulevard,33409,26.7069368,-80.0870232
333,Evernia Street,33401,26.7116391,-80.0528906
423,Fern Street,33401,26.7106820,-80.0541284
411,Clematis Street,33401;33401-5319,26.7136152,-80.0544024
521,Clematis Street,33401,26.7136015,-80.0563560
5803,Churchill Circle West,33405,26.6627439,-80.0685412
5807,Churchill Circle West,33405,26.6625781,-80.0685056
1751,Palm Beach Lakes Blvd,33401,26.7236390,-80.0874154
1421,Oglethorpe Road,33405,26.6869076,-80.0717090
2380,Palm Beach Lakes Boulevard,33409,26.7082044,-80.0985677
2260,Palm Beach Lakes Boulevard,33409,26.7094209,-80.0968877
1675,Palm Beach Lakes Boulevard,33401,26.7250009,-80.0834148
3915,Southern Boulevard,33405,26.6758346,-80.0491622
3915,Southern Boulevard,33405,26.6758471,-80.0496658
650,Belvedere Road,33405,26.6900397,-80.0580777
401,Clematis Street,33401,26.7140359,-80.0544330
125,North Dixie Highway,33401,26.7140359,-80.0538140
1501,South Flagler Drive,33401,26.7002269,-80.0509904
201,Arkona Court,33401,26.7002896,-80.0517834
203,Arkona Court,33401,26.7002573,-80.0520775
201,5th Street,33401,26.7181329,-80.0507076
802,Southern Boulevard,33405,26.6755436,-80.0611670
324,North Olive Avenue,33401,26.7156557,-80.0514105
205,Southern Boulevard,33405,26.6758254,-80.0504296
213,Southern Boulevard,33405,26.6757835,-80.0508620
215,Southern Boulevard,33405,26.6759025,-80.0511281
251,Southern Boulevard,33405,26.6758851,-80.0521066
301,Southern Boulevard,33405,26.6759002,-80.0527968
333,Southern Boulevard,33405,26.6759169,-80.0536388
3929,South Dixie Highway,33405,26.6760338,-80.0550694
4000,South Dixie Highway,33405,26.6752457,-80.0545228
4001,South Dixie Highway,33405,26.6753938,-80.0550748
515,North Olive Avenue,33401,26.7174482,-80.0523508
807,North Flagler Drive,33401,26.7200212,-80.0505105
4355,South Olive Avenue,33405,26.6727262,-80.0536539
110,Southern Boulevard,33405,26.6752952,-80.0499286
104,South Clematis Street,33401,26.7125019,-80.0497041
211,Trinity Place,33401,26.7072372,-80.0515022
529,South Flagler Drive,33401,26.7084423,-80.0513620
525,South Flagler Drive,33401,26.7079997,-80.0515504
201,Lakeview Avenue,33401,26.7066377,-80.0511264
295,Lakeview Avenue,33401,26.7064720,-80.0515008
101,South Flagler Drive,33401,26.7127400,-80.0493697
325,Gardenia Street,33401,26.7096239,-80.0532015
1200,South Flagler Drive,33401,26.7027748,-80.0497550
900,South Olive Avenue,33401,26.7048768,-80.0508114
6000,Okeechobee Boulevard,33401,26.7051046,-80.0575237
1301,North Dixie Highway,33401,26.7249338,-80.0535300
403,South Sapodilla Avenue,33401,26.7100357,-80.0591039
620,North Dixie Highway,33401,26.7187595,-80.0529537
622,North Flagler Drive,33401,26.7189899,-80.0491318
625,North Flagler Drive,33401,26.7186885,-80.0510280
300,Pembroke Place,33401,26.7042571,-80.0524645
513,South Dixie Highway,33401,26.7087195,-80.0534946
2247,Palm Beach Lakes Boulevard,33409,26.7105777,-80.0980632
1910,Palm Beach Lakes Boulevard,33409,26.7165623,-80.0906391
2070,Palm Beach Lakes Boulevard,33409,26.7143928,-80.0929083
600,Northpoint Parkway,33407,26.7609784,-80.0936119
2437,Metrocentre Boulevard East,33407,26.7581055,-80.0942230
2485,Metrocentre Boulevard,33407,26.7584637,-80.0961949
2461,Metrocentre Boulevard East,33407,26.7583469,-80.0955195
2410,Metrocentre Boulevard,33407,26.7560536,-80.0925535
4101,Parker Avenue,33405,26.6751513,-80.0631978
2201,45th Street,33407,26.7617685,-80.0883549
209,6th Street,33401,26.7190767,-80.0511740
217,Edmor Road,33405,26.6716895,-80.0500584
1845,Palm Beach Lakes Boulevard,33401,26.7207019,-80.0893218
1751,Palm Beach Lakes Blvd,33401,26.7257801,-80.0887314
149,Gregory Place,33405,26.6467832,-80.0488801
2001,Summit Boulevard,33406,26.6673416,-80.0721006
1301,Summit Boulevard,33405,26.6677514,-80.0687074
1808,South Australian Avenue,33409,26.6971498,-80.0710304
6110,Parker Avenue,33405,26.6587881,-80.0636226
6110,Parker Avenue,33405,26.6586471,-80.0636387
6110,Parker Avenue,33405,26.6585119,-80.0636847
1241,Roebuck Court,33401,26.6992664,-80.0656897
1253,Roebuck Court,33401,26.6990069,-80.0660883
1518,Wilkins Avenue,33401,26.7002452,-80.0664316
7925,Dixie Highway,33405,26.6466870,-80.0565936
1901,Palm Beach Lakes Boulevard,33049,26.7171558,-80.0924825
501,Evernia Street,33401,26.7119810,-80.0554782
550,Okeechobee Boulevard,33401,26.7050796,-80.0562483
333,Fern Street,33401,26.7106609,-80.0531703
499,Evernia Street,33401,26.7118865,-80.0542633
400,Datura Street,33401,26.7121485,-80.0537786
633,5th Street,33401,26.7182891,-80.0583011
629,5th Street,33401,26.7182883,-80.0579535
607,5th Street,33401,26.7182105,-80.0573641
601,5th Street,33401,26.7182006,-80.0572106
3114,Tuxedo Avenue,33405,26.6863321,-80.0713473
3101,Tuxedo Avenue,33405,26.6861097,-80.0724326
105,Evernia Street,33401,26.7114097,-80.0503485
345,Summa Street,33405,26.6515580,-80.0544233
830,Colonial Road,33405,26.6595391,-80.0632284
826,Colonial Road,33405,26.6595216,-80.0630955
824,Colonial Road,33405,26.6595286,-80.0629344
816,Colonial Road,33405,26.6595334,-80.0626896
814,Colonial Road,33405,26.6595207,-80.0625467
810,Colonial Road,33405,26.6595442,-80.0623996
6201,Lake Avenue,33405,26.6595453,-80.0621604
829,Nathan Hale Road,33405,26.6591732,-80.0632484
827,Nathan Hale Road,33405,26.6591778,-80.0631046
825,Nathan Hale Road,33405,26.6592123,-80.0629347
815,Nathan Hale Road,33405,26.6591615,-80.0625488
809,Nathan Hale Road,33405,26.6591587,-80.0624160
6217,Lake Avenue,33405,26.6591390,-80.0621823
6211,Lake Avenue,33405,26.6592623,-80.0621581
3710,Paseo Andalusia,33405,26.6781206,-80.0658117
8020,Dixie Highway,33405,26.6451819,-80.0560285
701,3rd Street,33401,26.7165263,-80.0589261
412,Erie Place,33409,26.7099221,-80.0835710
2000,Pinehurst Drive,33407,26.7518775,-80.0847976
4601,Pinewood Avenue,33407,26.7547999,-80.0587343
401,North Flagler Drive,33401,26.7166378,-80.0509994
301,North Flagler Drive,33401,26.7156426,-80.0507741
4401,Garden Avenue,33405,26.6728479,-80.0598734
315,Marlborough Road,33405,26.6837235,-80.0532109
3220,South Olive Avenue,33405,26.6825025,-80.0522958
202,Greenwood Drive,33405,26.6819279,-80.0508201
700,South Rosemary Avenue,33401,26.7086038,-80.0571637
518,Clematis Street,33401,26.7132301,-80.0561512
945,Hansen Street,33405,26.6669399,-80.0652574
939,Hansen Street,33405,26.6669255,-80.0650742
1345,North Congress Avenue,33401,26.7260170,-80.0849520
1800,Centrepark Drive East,33401,26.6948676,-80.0699005
215,North Narcissus Avenue,33401,26.7147795,-80.0508401
1301,Belvedere Road,33405,26.6911958,-80.0693093
1601,Worthington Road,33409,26.6963014,-80.0747090
1611,Worthington Road,33409,26.6968211,-80.0742951
455,Hibiscus Street,33401,26.7088500,-80.0543325
3507,Broadway,33047,26.7445279,-80.0568766
2500,Okeechobee Boulevard,33409,26.7061605,-80.0904685
7900,South Dixie Highway,33405-4822,26.6466845,-80.0559665
301,Lamberton Drive,33401,26.7161089,-80.0850779
8264,Northlake Blvd,33412,26.8096394,-80.1696406
10130,Northlake Boulevard,33412,26.8102333,-80.1979820
10130,Northlake Boulevard,33412,26.8102418,-80.1984450
10130,Northlake Boulevard,33412,26.8101045,-80.1989700
10130,Northlake Boulevard,33412,26.8102760,-80.1998444
10130,Northlake Boulevard,33412,26.8102779,-80.1999854
8535,Northlake Blvd,33412,26.8139858,-80.1739764
185,Banyan Blvd,33401,26.7145230,-80.0502872
6501,North Jog Road,33412,26.7759920,-80.1417774
6501,North Jog Road,33412,26.7729943,-80.1419174
1801,North Flagler Drive,33407,26.7292100,-80.0506330
221,Essex Lane,33405,26.6659512,-80.0505781
360,South Rosemary Avenue,33401,26.7110703,-80.0567335
345,Banyan Boulevard,33401,26.7146710,-80.0529655
575,South Rosemary Avenue,33401,26.7091984,-80.0577525
1751,Palm Beach Lakes Boulevard,33401,26.7243780,-80.0865151
3000,North Australian Avenue,33407,26.7410036,-80.0687382
901,South Flagler Drive,33401,26.7034019,-80.0516437
205,Pilgrim Road,33405,26.6676164,-80.0500502
201,Puritan Road,33405,26.6683546,-80.0498184
248,East Lakewood Road,33405,26.6686640,-80.0514131
3777,North Jog Road,33411,26.7340581,-80.1382376
3151,North Military Trail,33409,26.7250714,-80.1125026
3200,North Military Trail,33409,26.7229623,-80.1089178
2450,Presidential Way,33401,26.7349986,-80.0870169
2427,Presidential Way,33401,26.7330379,-80.0869705
575,South Rosemary Avenue,33401,26.7090392,-80.0574590
701,South Rosemary Avenue,33401,26.7084230,-80.0574940
700,South Rosemary Avenue,33401,26.7079574,-80.0574625
701,South Rosemary Avenue,33401,26.7074841,-80.0574711
1701,N Flagler Drive,33407,26.7285350,-80.0512265
8225,Ibis Boulevard,33412,26.7936272,-80.2055708
