House number,Street name,Postal code,Latitude,Longitude
2000,Quail Drive,70808,30.3987300,-91.1284600
4555,Fairfields Avenue,70802,30.4678686,-91.1445588
4444,Fairfields Avenue,70802,30.4674563,-91.1450313
10915,Florida Boulevard,70815,30.4593570,-91.0628819
10925,Florida Boulevard,70815,30.4590792,-91.0617708
5414,Brittany Drive,70808,30.4014536,-91.1099884
3554,Drusilla Lane,70809,30.4190081,-91.0901275
3613 Ste. J1,Perkins Road,70808,30.4220064,-91.1519149
11271,Florida Boulevard,70815,30.4599376,-91.0594591
530,Lakeland Drive,70802,30.4555932,-91.1854051
3739,Perkins Road,70808,30.4210819,-91.1504207
4485,Perkins Road,70808,30.4174312,-91.1433664
7529,Corporate Boulevard,70809,30.4322474,-91.1113975
11616,Southfork Avenue,70816,30.4203935,-91.0532385
11700,Haymarket Avenue,70816,30.4035476,-91.0511384
3730,Harding Boulevard,70807,30.5211393,-91.1523817
3131,College Drive,70808,30.4184973,-91.1413945
644,Lonita Street,70815,30.4485115,-91.0737572
246,Apartment Court Drive,70806,30.4461208,-91.1232019
8382,Airline Highway,70815,30.4593763,-91.1015910
959,North 3rd Street,70802,30.4555158,-91.1893373
6401,Bluebonnet Blvd Ste B420,70836,30.3883290,-91.0873445
9000,Airline Highway,70815,30.4436926,-91.0906731
2824,Fellsway Drive,70814,30.4745490,-91.0857848
422,Colonial Drive,70806,30.4468761,-91.0989524
119,Foster Hall,70803,30.4153402,-91.1797760
3347,Highland Road,70802,30.4176371,-91.1762399
4415,North Boulevard,70806,30.4486983,-91.1441070
11831,Coursey Boulevard,70816,30.4115144,-91.0493463
8211,Goodwood Boulevard,70806,30.4430450,-91.1016044
5255,Highland Road,70808,30.3957410,-91.1600180
6401,Bluebonnet Boulevard,70836,30.3889860,-91.0891687
3732,Westervelt Avenue,70820,30.3821018,-91.2061061
7680,Perkins Road,70810,30.3937400,-91.1087180
5751,Evangeline Street,70805,30.4935791,-91.1330048
9681,Airline Highway,70815,30.4326759,-91.0800085
11360,Catalpa Street,70815,30.4654042,-91.0574070
4250,Burbank Ave,70808,30.4008899,-91.1762339
3535,Perkins Road,70808,30.4227420,-91.1535477
9110,Airline Highway,70815,30.4424461,-91.0893443
8888,Airline Highway,70815,30.4479592,-91.0934138
8754,Goodwood Boulevard,70806,30.4424435,-91.0933969
8646,Goodwood Boulevard,70806,30.4422053,-91.0947300
9630,Florida Boulevard,70815,30.4538432,-91.0787584
12228,Sherbrook Dr,70815,30.4504074,-91.0477563
320,Lee Drive,70808,30.3964315,-91.1567677
257,Lee Drive,70808,30.3957543,-91.1585090
216,West Lee Drive,70808,30.3955102,-91.1577557
222,Lee Drive,70808,30.3958399,-91.1574372
300,Lee Drive,70808,30.3962306,-91.1571930
300,Lee Drive,70808,30.3960871,-91.1569771
257,Lee Drive,70808,30.3958296,-91.1585544
257,Lee Drive,70808,30.3959314,-91.1585338
257,Lee Drive,70808,30.3959868,-91.1584523
257,Lee Drive,70808,30.3960273,-91.1584067
257,Lee Drive,70808,30.3960944,-91.1583597
257,Lee Drive,70808,30.3961534,-91.1583007
257,Lee Drive,70808,30.3962020,-91.1582605
15805,Elderwood Ave,70816,30.4362335,-91.0105923
15049,Florida Boulevard,70819,30.4658064,-91.0186424
2943,Perkins Road,70808,30.4252660,-91.1582640
2363,Hollydale Avenue,70808,30.4253245,-91.1579758
1733,Wooddale Boulevard,70806,30.4639149,-91.1127358
5689,River Road,70820,30.3932870,-91.2063053
660,Jefferson Highway,70806,30.4436778,-91.1308752
5215,Plank Road,70805,30.4970151,-91.1545964
9414,Florida Boulevard,70815,30.4543562,-91.0834624
343,3rd Street,70801,30.4500906,-91.1884522
2236,North Foster Drive,70805,30.4689177,-91.1396874
8894,Airline Highway,70815,30.4471364,-91.0939947
5745,Creek Centre Drive,70820,30.3916903,-91.1613268
3676,Harding Boulevard,70807,30.5211353,-91.1538403
3676,Harding Boulevard,70807,30.5211371,-91.1535991
900,North 3rd Street,70802,30.4569870,-91.1873732
2151,North 3rd Street,70802,30.4661418,-91.1887352
3132,College Drive,70808,30.4198807,-91.1428470
3132,College Drive,70808,30.4201682,-91.1435620
2700,North Acadian Thruway West,70805,30.4723569,-91.1563232
2912,Valley Street,70808,30.4220335,-91.1473916
2873,Valley Street,70808,30.4226047,-91.1470573
2874,Valley Street,70808,30.4227920,-91.1474763
2862,Valley Street,70808,30.4228943,-91.1473161
2864,Valley Street,70808,30.4229209,-91.1473854
3651,Perkins Road,70808,30.4215697,-91.1514579
3653,Perkins Road,70808,30.4214781,-91.1513022
3655,Perkins Road,70808,30.4214293,-91.1511925
3731,Perkins Road,70808,30.4213102,-91.1508739
3735,Perkins Road,70808,30.4212278,-91.1506828
3737,Perkins Road,70808,30.4211821,-91.1505766
2021,Rue Cremieux,70808,30.4096172,-91.1383785
2025,Rue Cremieux,70808,30.4097723,-91.1382921
2029,Rue Cremieux,70808,30.4099072,-91.1382197
2037,Rue Cremieux,70808,30.4100119,-91.1381147
2045,Rue Cremieux,70808,30.4101388,-91.1380680
2053,Rue Cremieux,70808,30.4103220,-91.1379932
2222,Mignon Street,70808,30.4109604,-91.1367323
2216,Mignon Street,70808,30.4108577,-91.1367464
2218,Belfleur Street,70808,30.4107128,-91.1362706
2206,Belfleur Street,70808,30.4104993,-91.1363593
2212,Belfleur Street,70808,30.4106060,-91.1363173
2230,Belfleur Street,70808,30.4109383,-91.1361562
2224,Belfleur Street,70808,30.4108276,-91.1362146
2236,Belfleur Street,70808,30.4110511,-91.1361002
4865,Whitehaven Street,70808,30.4061962,-91.1443257
1119,Eddie Robinson Senior Drive,70802,30.4380122,-91.1753585
7376,Boyce Drive,70809,30.4242364,-91.1127814
9309,Artist Court,70809,30.4144214,-91.0809425
9305,Artist Court,70809,30.4144476,-91.0810441
9115,Southlawn Drive,70810,30.3791578,-91.1131961
9116,Southlawn Drive,70810,30.3788694,-91.1133040
9126,Southlawn Drive,70810,30.3788176,-91.1131807
9136,Southlawn Drive,70810,30.3787711,-91.1130637
9217,Southlawn Drive,70810,30.3788296,-91.1124505
9139,Stonecroft Avenue,70810,30.3792695,-91.1124043
9149,Stonecroft Avenue,70810,30.3791671,-91.1123735
9159,Stonecroft Avenue,70810,30.3790263,-91.1123473
8860,Southlawn Drive,70810,30.3799778,-91.1147800
9053,Southlawn Drive,70810,30.3792615,-91.1134349
9105,Southlawn Drive,70810,30.3792057,-91.1133240
9043,Southlawn Drive,70810,30.3793107,-91.1135443
9013,Southlawn Drive,70810,30.3794848,-91.1139680
9023,Southlawn Drive,70810,30.3794157,-91.1138047
9033,Southlawn Drive,70810,30.3793625,-91.1136691
2616,Oak Villa,70814,30.4733720,-91.0886798
7701,Plank Road,70811,30.5186394,-91.1467189
3486,Drusilla Lane,70809,30.4189978,-91.0907508
9616,Airline Highway,70815-5505,30.4338441,-91.0837016
9632,Airline Highway,70815,30.4318973,-91.0855650
8869,Jefferson Highway,70809,30.4179655,-91.0905057
7877,Jefferson Highway,70809,30.4272578,-91.1062838
3535,Perkins Road,70808,30.4229329,-91.1539395
9750,Florida Boulevard,70815,30.4552057,-91.0772959
9688,Florida Boulevard,70815,30.4550515,-91.0783286
9638,Florida Boulevard,70815,30.4547887,-91.0794791
9600,Florida Boulevard,70815,30.4547081,-91.0810768
7445,Corporate Boulevard,70809,30.4331713,-91.1136019
7350,Jefferson Highway,70806,30.4333782,-91.1123191
3642,Nicholson Drive,70802,30.4133078,-91.1873073
4857,Government Street,70806,30.4454210,-91.1402926
9650,Airline Highway,70815,30.4321429,-91.0828531
5621,Government Street,70806,30.4449765,-91.1322083
5643,Government Street,70806,30.4453565,-91.1320897
4631,Perkins Road,70808,30.4161797,-91.1420080
275,South River Road,70802,30.4438537,-91.1888733
7515,Perkins Road,70808,30.3966574,-91.1100090
3535,Perkins Road,70808,30.4228392,-91.1537447
3535,Perkins Road,70808,30.4226551,-91.1533796
3535,Perkins Road,70808,30.4225891,-91.1532544
3535,Perkins Road,70808,30.4225334,-91.1531462
3535,Perkins Road,70808,30.4224410,-91.1529350
3535,Perkins Road,70808,30.4222848,-91.1526499
11228,Florida Boulevard,70815,30.4580630,-91.0595631
1274,Perkins Road,70806,30.4369760,-91.1679469
2060,Myrtle Avenue,70806,30.4383890,-91.1670424
1910,Myrtle Avenue,70806,30.4383992,-91.1685794
1272,Perkins Road,70806,30.4370235,-91.1679525
2058,Myrtle Avenue,70806,30.4383227,-91.1670404
1103,Park Boulevard,70806,30.4383660,-91.1686079
1912,Myrtle Avenue,70806,30.4384052,-91.1684737
7732,Goodwood Boulevard,70806,30.4418615,-91.1071142
2171,Quail Run Drive,70808,30.4054612,-91.1268252
5000,Hennessy Boulevard,70808,30.4037402,-91.1062235
452,Terrace Street,70802,30.4361514,-91.1860009
428,Terrace Street,70802,30.4361471,-91.1861967
414,Terrace Street,70802,30.4361454,-91.1862746
406,Terrace Street,70802,30.4361447,-91.1863730
1327,Nicholson Drive,70802,30.4360810,-91.1869210
1341,Duane Street,70802,30.4358582,-91.1863002
1357,Duane Street,70802,30.4357345,-91.1862938
1382,Duane Street,70802,30.4351449,-91.1865857
1381,Duane Street,70802,30.4352973,-91.1862792
1385,Duane Street,70802,30.4351994,-91.1862805
1389,Duane Street,70802,30.4350737,-91.1862890
208,Oklahoma Street,70802,30.4351268,-91.1857164
124,Oklahoma Street,70802,30.4351366,-91.1853842
1326,Glacier Street,70802,30.4359242,-91.1857581
1334,Glacier Street,70802,30.4358330,-91.1857558
1342,Glacier Street,70802,30.4357498,-91.1857512
1320,Highland Road,70802,30.4359974,-91.1853157
617,North 3rd Street,70802,30.4528345,-91.1889122
617,North 3rd Street,70802,30.4528451,-91.1887125
617,North 3rd Street,70802,30.4528277,-91.1890903
617,North 3rd Street,70802,30.4528198,-91.1892683
627,North 4th Street,70802,30.4529171,-91.1879832
1702,North 3rd Street,70802,30.4624065,-91.1861369
1885,North 3rd Street,70802,30.4636707,-91.1866986
1201,North 3rd Street,70802,30.4598027,-91.1884711
9380,Cortana Place,70815,30.4613500,-91.0918053
2222,Florida Street,70802,30.4494741,-91.1656511
1124,Napoleon Street,70802,30.4377127,-91.1838376
1122,Napoleon Street,70802,30.4377250,-91.1837104
1126,Napoleon Street,70802,30.4376405,-91.1838316
1128,Napoleon Street,70802,30.4376315,-91.1837037
1116,Napoleon Street,70802,30.4377941,-91.1835833
1114,Napoleon Street,70802,30.4378338,-91.1835844
350,3rd Street,70801,30.4501286,-91.1882215
344,3rd Street,70801,30.4500537,-91.1882189
447,3rd Street,70801,30.4511251,-91.1884637
1305,Myrtle Street,70802,30.4386104,-91.1752425
3825,Government Street,70806,30.4445829,-91.1501601
3723,Government Street,70806,30.4445448,-91.1512898
3897,Government Street,70806,30.4444110,-91.1496549
2023,Government Street,70806,30.4440577,-91.1672386
3313,Government Street,70806,30.4443458,-91.1555249
2714,Government Street,70806,30.4437840,-91.1603239
545,South 16th Street,70802,30.4428548,-91.1719211
1515,Oleander Street,70802,30.4419138,-91.1722904
1708,Government Street,70802,30.4436090,-91.1709852
650,South 16th Street,70802,30.4420439,-91.1722664
11903,Coursey Boulevard,70816,30.4114983,-91.0483813
11903,Coursey Boulevard,70816,30.4114977,-91.0484911
11903,Coursey Boulevard,70816,30.4114968,-91.0482574
11821,Coursey Boulevard,70816,30.4115584,-91.0496911
11821,Coursey Boulevard,70816,30.4113774,-91.0496920
11821,Coursey Boulevard,70816,30.4114549,-91.0496936
4592,South Sherwood Forest Boulevard,70816,30.4116351,-91.0527553
4592,South Sherwood Forest Boulevard,70816,30.4116351,-91.0528872
4592,South Sherwood Forest Boulevard,70816,30.4116328,-91.0529830
11818,Coursey Boulevard,70816,30.4107691,-91.0494769
11822,Coursey Boulevard,70816,30.4107691,-91.0493445
11802,Coursey Boulevard,70816,30.4107691,-91.0497520
11810,Coursey Boulevard,70816,30.4107717,-91.0496284
11814,Coursey Boulevard,70816,30.4107730,-91.0495578
11806,Coursey Boulevard,70816,30.4107717,-91.0496946
11826,Coursey Boulevard,70816,30.4107717,-91.0492636
11830,Coursey Boulevard,70816,30.4107723,-91.0492077
11834,Coursey Boulevard,70816,30.4107723,-91.0491400
11848,Coursey Boulevard,70816,30.4107730,-91.0490620
11850,Coursey Boulevard,70816,30.4107730,-91.0489881
11852,Coursey Boulevard,70816,30.4107745,-91.0489156
11854,Coursey Boulevard,70816,30.4107749,-91.0488531
4111,South Sherwood Forest Boulevard,70816,30.4158225,-91.0511568
4479,Perkins Road,70808,30.4174583,-91.1439309
4463,Perkins Road,70808,30.4174096,-91.1437827
4433,Perkins Road,70808,30.4173701,-91.1444681
4433,Perkins Road,70808,30.4172501,-91.1441776
4433,Perkins Road,70808,30.4173196,-91.1443478
4229,Perkins Road,70808,30.4186961,-91.1459462
4221,Perkins Road,70808,30.4187551,-91.1460748
4233,Perkins Road,70808,30.4186147,-91.1458070
4207,Perkins Road,70808,30.4180424,-91.1461124
4237,Perkins Road,70808,30.4179733,-91.1459656
4201,Perkins Road,70808,30.4181479,-91.1463571
7667,Independence Boulevard,70806,30.4497929,-91.1087679
4316,Government Street,70806,30.4441365,-91.1452175
4378,Government Street,70806,30.4441675,-91.1449358
4384,Government Street,70806,30.4442151,-91.1447641
527,Ingleside Drive,70806,30.4439308,-91.1453314
543,Ingleside Drive,70806,30.4437928,-91.1453460
538,Wiltz Drive,70806,30.4437873,-91.1450183
536,Wiltz Drive,70806,30.4438056,-91.1448063
514,Wiltz Drive,70806,30.4439452,-91.1448129
548,Wiltz Drive,70806,30.4436955,-91.1447695
554,Wiltz Drive,70806,30.4435758,-91.1448171
564,Wiltz Drive,70806,30.4434758,-91.1448505
606,Wiltz Drive,70806,30.4433673,-91.1448368
614,Wiltz Drive,70806,30.4432525,-91.1448402
620,Wiltz Drive,70806,30.4431543,-91.1448343
630,Wiltz Drive,70806,30.4430255,-91.1448120
640,Wiltz Drive,70806,30.4429231,-91.1447706
4365,Capital Heights Avenue,70806,30.4427466,-91.1449645
4377,Capital Heights Avenue,70806,30.4427328,-91.1448421
4387,Capital Heights Avenue,70806,30.4427136,-91.1447109
4331,Capital Heights Avenue,70806,30.4426568,-91.1451288
4325,Capital Heights Avenue,70806,30.4426977,-91.1452476
4305,Capital Heights Avenue,70806,30.4426042,-91.1453911
641,Ingleside Drive,70806,30.4429230,-91.1453169
625,Ingleside Drive,70806,30.4430265,-91.1452899
619,Ingleside Drive,70806,30.4431483,-91.1453488
605,Ingleside Drive,70806,30.4433488,-91.1453215
559,Ingleside Drive,70806,30.4434771,-91.1453515
555,Ingleside Drive,70806,30.4435734,-91.1453217
544,Wiltz Drive,70806,30.4436927,-91.1450604
4242,Government Street,70806,30.4441154,-91.1458869
528,Ingleside Drive,70806,30.4437905,-91.1458697
538,Ingleside Drive,70806,30.4436918,-91.1458302
548,Ingleside Drive,70806,30.4435805,-91.1458285
558,Ingleside Drive,70806,30.4434698,-91.1458140
600,Ingleside Drive,70806,30.4433537,-91.1457849
606,Ingleside Drive,70806,30.4432171,-91.1457850
620,Ingleside Drive,70806,30.4431260,-91.1458548
630,Ingleside Drive,70806,30.4430099,-91.1458474
646,Ingleside Drive,70806,30.4427756,-91.1458434
4275,Capital Heights Avenue,70806,30.4426134,-91.1458655
4205,Capital Heights Avenue,70806,30.4426104,-91.1463672
639,Glenmore Avenue,70806,30.4427999,-91.1463420
623,Glenmore Avenue,70806,30.4430056,-91.1462794
621,Glenmore Avenue,70806,30.4431288,-91.1463471
557,Glenmore Avenue,70806,30.4432814,-91.1463381
553,Glenmore Avenue,70806,30.4435587,-91.1462880
551,Glenmore Avenue,70806,30.4436697,-91.1463474
527,Glenmore Avenue,70806,30.4438426,-91.1462975
6060,Winchester Avenue,70805,30.5055290,-91.1376187
5666,Airline Highway,70805,30.5045087,-91.1339622
5620,Airline Highway,70805,30.5047120,-91.1344654
5445,Greenwell Street,70805,30.5024623,-91.1359228
5289,Tolbert Drive,70805,30.5042030,-91.1375732
5327,Tolbert Drive,70805,30.5041891,-91.1372005
5361,Tolbert Drive,70805,30.5041974,-91.1368181
5889,Airline Highway,70805,30.5029401,-91.1305760
5955,Airline Highway,70805,30.5018042,-91.1299380
5944,Airline Highway,70805,30.5008545,-91.1324371
9820,Old Hammond Highway,70816,30.4311859,-91.0792146
7855,Howell Place Boulevard,70807,30.5181756,-91.1569298
4363,Convention Street,70806,30.4496451,-91.1449121
8416,Cumberland,70806,30.4447976,-91.0975624
100,Lafayette Street,70801,30.4476983,-91.1887878
250,North Boulevard,70802,30.4466678,-91.1879228
8910,Greenwell Springs Road,70814,30.4828594,-91.0914940
10985,North Harrells Ferry Road,70816,30.4335739,-91.0625343
5201,Nicholson Drive,70808,30.3896377,-91.1723432
5745,Creek Centre Drive,70820,30.3904931,-91.1616260
5851,Creek Centre Drive,70820,30.3892626,-91.1597146
5939,Creek Centre Drive,70820,30.3881217,-91.1582669
5947,Creek Centre Drive,70820,30.3879659,-91.1580509
6224,Plank Road,70805,30.5072290,-91.1497019
3930,Burbank Drive,70808,30.4023200,-91.1801584
3930,Burbank Drive,70808,30.4023354,-91.1802819
3930,Burbank Drive,70808,30.4022618,-91.1797625
4250,Burbank Drive,70808,30.4009492,-91.1763107
4250,Burbank Drive,70808,30.4008450,-91.1761737
4250,Burbank Drive,70808,30.4008042,-91.1761203
4250,Burbank Drive,70808,30.4006189,-91.1758008
5078,Capital Heights Avenue,70806,30.4424562,-91.1377862
7520,Perkins Road,70808,30.3954190,-91.1106712
2000,Quail Drive,70808,30.3991347,-91.1290416
11230,Florida Boulevard,70815,30.4579152,-91.0595664
1509,Government Street,70802,30.4442544,-91.1724807
3617,Perkins Road,70808,30.4216391,-91.1516886
12643,Jefferson Highway,70817,30.3953100,-91.0426775
12637,Jefferson Highway,70817,30.3949597,-91.0427325
12333,Jefferson Highway,70816,30.3952148,-91.0459850
5525,South Sherwood Forest Boulevard,70816,30.4046453,-91.0513845
5515,South Sherwood Forest Boulevard,70816,30.4050845,-91.0511505
4625,South Sherwood Forest Boulevard,70816,30.4119978,-91.0510068
4623,South Sherwood Forest Boulevard,70816,30.4120550,-91.0510068
4621,South Sherwood Forest Boulevard,70816,30.4121298,-91.0510068
4615,South Sherwood Forest Boulevard,70816,30.4122530,-91.0510068
4611,South Sherwood Forest Boulevard,70816,30.4123234,-91.0510030
4215,South Sherwood Forest Boulevard,70816,30.4146646,-91.0511356
4215,South Sherwood Forest Boulevard,70816,30.4148702,-91.0511906
3999,South Sherwood Forest Boulevard,70816,30.4163468,-91.0510864
3939,South Sherwood Forest Boulevard,70816,30.4165269,-91.0512082
3939,South Sherwood Forest Boulevard,70816,30.4165257,-91.0510728
3535,South Sherwood Forest Boulevard,70816,30.4206898,-91.0510580
3535,South Sherwood Forest Boulevard,70816,30.4212268,-91.0509777
1817,South Sherwood Forest Boulevard,70816,30.4362447,-91.0563769
1815,South Sherwood Forest Boulevard,70816,30.4363199,-91.0563759
1807,South Sherwood Forest Boulevard,70816,30.4363806,-91.0563755
11297,Florida Boulevard,70815,30.4595512,-91.0589703
11244,Florida Boulevard,70815,30.4576741,-91.0591481
2340,South Sherwood Forest Boulevard,70816,30.4313529,-91.0574592
4314,South Sherwood Forest Boulevard,70816,30.4145409,-91.0519593
4324,South Sherwood Forest Boulevard,70816,30.4140977,-91.0519378
4334,South Sherwood Forest Boulevard,70816,30.4134434,-91.0519539
4520,South Sherwood Forest Boulevard,70816,30.4130523,-91.0519862
4520,South Sherwood Forest Boulevard,70816,30.4129428,-91.0519862
4520,South Sherwood Forest Boulevard,70816,30.4127030,-91.0519756
7685,Airline Highway,70814,30.4726868,-91.1076187
8261,Airline Highway,70815,30.4622092,-91.1015080
7271,Airline Highway,70805,30.4817869,-91.1158814
7171,Airline Highway,70812,30.4835631,-91.1171396
7171,Airline Highway,70812,30.4836788,-91.1172152
7171,Airline Highway,70812,30.4836255,-91.1171781
7171,Airline Highway,70812,30.4837443,-91.1172559
7171,Airline Highway,70812,30.4838007,-91.1172908
7171,Airline Highway,70812,30.4838582,-91.1173270
6507,Airline Highway,70805,30.4941286,-91.1247877
6375,Airline Highway,70805,30.4960077,-91.1260943
5035,Airline Highway,70811,30.5089077,-91.1401643
5035,Airline Highway,70811,30.5089308,-91.1402376
5035,Airline Highway,70811,30.5089548,-91.1403144
5035,Airline Highway,70811,30.5089749,-91.1403836
1447,Airline Highway,70805,30.5086450,-91.1773685
6180,Airline Highway,70805,30.4984705,-91.1291885
6180,Airline Highway,70805,30.4985743,-91.1292608
6180,Airline Highway,70805,30.4986951,-91.1293440
6288,Airline Highway,70805,30.4973461,-91.1282195
6894,Airline Highway,70805,30.4887869,-91.1219851
3655,Perkins Road,70808,30.4216189,-91.1512463
2313,South Acadian Thruway,70808,30.4263141,-91.1502200
3550,Government Street,70806,30.4437624,-91.1533201
4841,Rouzan Square Avenue,70808,30.4141177,-91.1387389
1963,North Acadian Thruway East,70802,30.4662523,-91.1555386
9541,Brookline Avenue,70809,30.4286254,-91.0816084
1733,North Acadian Thruway West,70802-1661,30.4636410,-91.1563788
4000,South Sherwood Forest Boulevard,70816,30.4173217,-91.0520286
8750,Florida Boulevard,70815,30.4525127,-91.0933590
9632,Florida Boulevard,70815,30.4548485,-91.0800953
9700,Florida Boulevard,70815,30.4551383,-91.0777000
155,Marilyn Drive,70815,30.4549677,-91.0766878
10432,South Choctaw Drive,70815,30.4718623,-91.0683123
10070,Florida Boulevard,70815,30.4556324,-91.0715935
1080,Florida Boulevard,70815,30.4556605,-91.0714752
10080,Florida Boulevard,70815,30.4556602,-91.0714128
10082,Florida Boulevard,70815,30.4556602,-91.0713516
10086,Florida Boulevard,70815,30.4556598,-91.0712870
10090,Florida Boulevard,70815,30.4556602,-91.0712259
100120,Florida Boulevard,70815,30.4559114,-91.0705263
10130,Florida Boulevard,70815,30.4554986,-91.0704014
11698,Florida Boulevard,70815,30.4591440,-91.0532622
11756,Florida Boulevard,70815,30.4593279,-91.0523264
11674,Florida Boulevard,70815,30.4589503,-91.0532596
11690,Florida Boulevard,70815,30.4587746,-91.0532633
12132,Florida Boulevard,70815,30.4594179,-91.0468961
12152,Florida Boulevard,70815,30.4594444,-91.0466859
12444,Florida Boulevard,70815,30.4593541,-91.0472442
8915,Florida Boulevard,70815,30.4540359,-91.0914969
8345,Florida Boulevard,70806,30.4528346,-91.0996499
8345,Florida Boulevard,70806,30.4528175,-91.1000415
451,Florida Street,70801,30.4495553,-91.1864730
641,East Airport Avenue,70806,30.4449540,-91.1017096
1509,Government Street,70802,30.4445753,-91.1724079
2552,CitiPlace Court,70808,30.4230715,-91.1305347
150,3rd Street,70801,30.4480169,-91.1878925
3132,College Drive,70808,30.4204124,-91.1426792
8775,Jefferson Highway,70809,30.4184638,-91.0914339
515,Mouton Street,70806,30.4442852,-91.1421268
515,Mouton Street,70806,30.4442782,-91.1423390
4965,Government Street,70806,30.4447713,-91.1390385
3546,Drusilla Lane,70809,30.4188909,-91.0898979
3540,Drusilla Lane,70809,30.4190324,-91.0896680
3488,Drusilla Lane,70809,30.4191106,-91.0907087
3490,Drusilla Lane,70809,30.4192585,-91.0906205
3550,Drusilla Lane,70809,30.4191690,-91.0900457
2811,Calanne Avenue,70820,30.3802121,-91.1935783
11010,Coursey Boulevard,70816,30.4144269,-91.0582235
222,Saint Louis Street,70802,30.4460504,-91.1878106
1544,Harding Boulevard,70807-5440,30.5202161,-91.1772580
720,Government Street,70802-6027,30.4430981,-91.1832974
8009,Florida Boulevard,70806,30.4526481,-91.1053335
9470,Greenwell Springs Road,70814-2911,30.4851793,-91.0825372
1031,West Lee Drive,70820,30.3884560,-91.1695123
373,Elmer Avenue,70807,30.5383857,-91.1959245
377,Elmer Avenue,70807,30.5383899,-91.1958447
375,Elmer Avenue,70807,30.5383148,-91.1958399
9986,I,70807,30.5352320,-91.1976842
9942,G,70807,30.5346780,-91.1955498
10362,D,70807,30.5386427,-91.1931441
9729,F,70807,30.5330458,-91.1952850
10120,G,70807,30.5364603,-91.1958136
10300-10600,C,70807,30.5388612,-91.1921692
10300-10600,H,70807,30.5396197,-91.1969652
10002,I,70807,30.5353364,-91.1976838
555,Elmer Avenue,70807,30.5384870,-91.1926460
9713,I,70807,30.5329107,-91.1981437
10004,I,70807,30.5353295,-91.1977230
10006,I,70807,30.5354491,-91.1977315
10075,C,70807,30.5361240,-91.1926439
531,Elmer Avenue,70807,30.5384800,-91.1928390
10553,C,70807,30.5396478,-91.1927847
9981,H,70807,30.5351146,-91.1972834
9987,H,70807,30.5352324,-91.1972875
10003,H,70807,30.5353500,-91.1972919
10008,I,70807,30.5354532,-91.1976892
9984,I,70807,30.5352187,-91.1976794
9990,A,70807,30.5353564,-91.1902664
9983,H,70807,30.5351074,-91.1973060
9985,H,70807,30.5352428,-91.1973131
10005,H,70807,30.5353462,-91.1973142
10263,I,70807,30.5373220,-91.1982213
9985,G,70807,30.5352247,-91.1963240
T 10230,M,70807,30.5370289,-91.2014619
T 262,Elmer Avenue,70807,30.5376430,-91.1991043
T 258,Elmer Avenue,70807,30.5376390,-91.1991995
349,Blount Avenue,70807,30.5400562,-91.1968891
373,Blount Avenue,70807,30.5400768,-91.1963178
385,Blount Avenue,70807,30.5400905,-91.1959370
9731,F,70807,30.5331282,-91.1952890
9739,F,70807,30.5332106,-91.1952930
T 10215,L,70807,30.5370398,-91.2010718
9910,E,70807,30.5348540,-91.1938974
10422,E,70807,30.5390037,-91.1940596
355,Rivercrest Avenue,70807,30.5417660,-91.1967992
361,Rivercrest Avenue,70807,30.5417722,-91.1966097
348,Rivercrest Avenue,70807,30.5412685,-91.1970312
10088,F,70807,30.5361016,-91.1948768
10100-10300,F,70807,30.5360974,-91.1954061
9988,A,70807,30.5353146,-91.1902449
9775,F,70807,30.5335266,-91.1953083
9865,F,70807,30.5340968,-91.1953309
9887,F,70807,30.5343448,-91.1953404
9853,G,70807,30.5342052,-91.1957347
9846,G,70807,30.5339579,-91.1957240
9834,G,70807,30.5338412,-91.1957189
10101,I,70807,30.5362523,-91.1982867
10107,I,70807,30.5363691,-91.1982910
10081,F,70807,30.5358775,-91.1953966
10011,F,70807,30.5356090,-91.1953860
10164,J,70807,30.5367109,-91.1986949
10280,J,70807,30.5374530,-91.1987207
675,Mills Avenue,70807,30.5331137,-91.1895119
659,Mills Avenue,70807,30.5331105,-91.1896071
657,Mills Avenue,70807,30.5331073,-91.1897024
635,Mills Avenue,70807,30.5331041,-91.1897976
425,Blount Avenue,70807,30.5401554,-91.1946142
500-600,Blount Avenue,70807,30.5401628,-91.1943920
453,Blount Avenue,70807,30.5401707,-91.1939234
10005,G,70807,30.5353515,-91.1963855
9997,G,70807,30.5352691,-91.1963820
9975,G,70807,30.5351042,-91.1963754
339,Rivercrest Avenue,70807,30.5417534,-91.1971801
341,Rivercrest Avenue,70807,30.5417597,-91.1969896
9900-10000,F,70807,30.5349020,-91.1953582
10121,I,70807,30.5367229,-91.1983043
10127,I,70807,30.5368466,-91.1983090
10205,I,70807,30.5370939,-91.1983180
201,Lakecrest Avenue,70807,30.5425292,-91.1999117
165,Elmer Avenue,70807,30.5380997,-91.2003177
9925,Merganzer Avenue,70807,30.5348139,-91.1900079
600-700,Woodpecker Street,70807,30.5347321,-91.1899850
9920,C,70807,30.5348253,-91.1920499
525,Elmer Avenue,70807,30.5383824,-91.1932556
10340,E,70807,30.5387441,-91.1940487
415,Woodpecker Street,70807,30.5346728,-91.1948233
335,Hillcrest Avenue,70807,30.5409085,-91.1971609
9974,G,70807,30.5351386,-91.1957585
550-580,Elmer Avenue,70807,30.5385128,-91.1923107
10125,B,70807,30.5367796,-91.1917499
10134,C,70807,30.5366842,-91.1921275
10491,D,70807,30.5391558,-91.1936847
330,Woodpecker Street,70807,30.5341657,-91.1972536
9800-9900,I,70807,30.5335176,-91.1981723
9717,I,70807,30.5330549,-91.1981505
9894,A,70807,30.5344621,-91.1901872
9898,A,70807,30.5345384,-91.1901902
9925,A,70807,30.5348743,-91.1907454
611,Mills Avenue,70807,30.5331009,-91.1898928
10242,C,70807,30.5373409,-91.1921529
550,Elmer Avenue,70807,30.5378603,-91.1925751
526-550,Elmer Avenue,70807,30.5378475,-91.1929592
10083,J,70807,30.5359222,-91.1991953
395,Blount Avenue,70807,30.5401055,-91.1955141
10024,D,70807,30.5356219,-91.1930053
9747,J,70807,30.5329722,-91.1990650
308,Hillcrest Avenue,70807,30.5403869,-91.1980772
10034,B,70807,30.5359326,-91.1911732
9709,F,70807,30.5327986,-91.1952731
9715,F,70807,30.5328810,-91.1952771
9723,F,70807,30.5329634,-91.1952811
9822,G,70807,30.5337313,-91.1957142
10003,F,70807,30.5355066,-91.1953820
10023,F,70807,30.5356783,-91.1953887
10025,G,70807,30.5355164,-91.1963918
9788,G,70807,30.5334012,-91.1956998
355,Hillcrest Avenue,70807,30.5409341,-91.1963832
312,Crestview Avenue,70807,30.5429463,-91.1980161
142,Elmer Avenue,70807,30.5375781,-91.2009571
9716,J,70807,30.5327172,-91.1985352
9838,J,70807,30.5337023,-91.1985762
304,Flicker Street,70807,30.5334124,-91.1975692
321,Flicker Street,70807,30.5338532,-91.1974012
9904,E,70807,30.5346054,-91.1938869
10082,E,70807,30.5360906,-91.1939442
10098,E,70807,30.5361662,-91.1939470
9960,H,70807,30.5349388,-91.1967865
394,Lakecrest Avenue,70807,30.5421357,-91.1963763
382,Lakecrest Avenue,70807,30.5421297,-91.1966225
9956,I,70807,30.5348592,-91.1973036
10032,I,70807,30.5357108,-91.1976869
10207,J,70807,30.5371124,-91.1992339
10269,J,70807,30.5374398,-91.1992460
10272,K,70807,30.5367664,-91.1996081
10169,C,70807,30.5369964,-91.1926815
10110,D,70807,30.5366549,-91.1930491
500-600,Williams Street,70807,30.5440414,-91.1940806
549,Crane Street,70807,30.5390764,-91.1910348
10833,Scenic Highway,70807,30.5423822,-91.1924930
10771,Kingfisher Avenue,70807,30.5415469,-91.1927305
586,Blount Avenue,70807,30.5400540,-91.1915955
566,Blount Avenue,70807,30.5400066,-91.1917272
11043,Scenic Highway,70807,30.5443117,-91.1938221
641,Dove Street,70807,30.5376460,-91.1903621
10823,Scenic Highway,70807,30.5423291,-91.1924476
576,Blount Avenue,70807,30.5400883,-91.1916103
556,Blount Avenue,70807,30.5400320,-91.1917377
10913,Scenic Highway,70807,30.5430468,-91.1929445
10797,Kingfisher Avenue,70807,30.5416798,-91.1928070
602,Scaup Street,70807,30.5358033,-91.1898246
10838,Kingfisher Avenue,70807,30.5421215,-91.1927911
10948,Kingfisher Avenue,70807,30.5432079,-91.1934073
10950,Kingfisher Avenue,70807,30.5433066,-91.1934636
10717,Scenic Highway,70807,30.5409457,-91.1915544
531,Crane Street,70807,30.5389737,-91.1912595
519,Crane Street,70807,30.5389071,-91.1913964
538,Crane Street,70807,30.5386442,-91.1910601
548,Crane Street,70807,30.5386955,-91.1909477
560,Crane Street,70807,30.5387468,-91.1908354
50,Woodpecker Street,70807,30.5330816,-91.2023293
800-1200,Central Road,70807,30.5348732,-91.1837577
9240,Gassie Street,70807,30.5301129,-91.1803064
781,Avocet Street,70807,30.5323680,-91.1867931
9623,Gassie Street,70807,30.5325590,-91.1805577
755,Cormorant Street,70807,30.5302012,-91.1860893
9426,Gassie Street,70807,30.5317013,-91.1801142
1188,Rosenwald Road,70807,30.5312308,-91.1815939
729,Mills Avenue,70807,30.5330535,-91.1880238
9335,Gassie Street,70807,30.5309382,-91.1806674
763,W.K. Gordon Street,70807,30.5309659,-91.1862175
9424,Gassie Street,70807,30.5316616,-91.1800985
9215,Southern Avenue,70807,30.5300319,-91.1800491
761,W.K. Gordon Street,70807,30.5309444,-91.1862707
9548,Gassie Street,70807,30.5322756,-91.1800088
728,Avocet Street,70807,30.5317303,-91.1872149
1283,Rosenwald Road,70807,30.5316941,-91.1804003
1200,Rosenwald Road,70807,30.5316753,-91.1809112
1124,Rosenwald Road,70807,30.5311685,-91.1821442
788,W.K. Gordon Street,70807,30.5308218,-91.1856234
757,Mills Avenue,70807,30.5331362,-91.1874975
745,Mills Avenue,70807,30.5331210,-91.1876345
737,Mills Avenue,70807,30.5331114,-91.1877760
9327,Southern Avenue,70807,30.5309531,-91.1798800
773,Cormorant Street,70807,30.5303023,-91.1858284
9565,Gassie Street,70807,30.5323430,-91.1805513
756,Curlew Street,70807,30.5333798,-91.1877894
9500-9600,Chinn Street,70807,30.5324707,-91.1817639
1270,Rosenwald Road,70807,30.5312750,-91.1807300
1084,Rosenwald Road,70807,30.5311214,-91.1828067
9324,Chinn Street,70807,30.5308152,-91.1819767
1246,Rosenwald Road,70807,30.5312568,-91.1810715
754,W.K. Gordon Street,70807,30.5305018,-91.1862467
731,W.K. Gordon Street,70807,30.5308404,-91.1865396
757,W.K. Gordon Street,70807,30.5308778,-91.1864428
633,Egret Street,70807,30.5349594,-91.1890235
825,Mallard Street,70807,30.5294329,-91.1859799
9012,Scenic Highway,70807,30.5284240,-91.1834267
881,Goose Street,70807,30.5281920,-91.1847805
913,Goose Street,70807,30.5282656,-91.1845575
830,Pintail Street,70807,30.5284046,-91.1853595
820,Pintail Street,70807,30.5283612,-91.1854875
925,Baranco Street,70807,30.5296518,-91.1840174
9086,Scenic Highway,70807,30.5290294,-91.1838668
1035,Baranco Street,70807,30.5296650,-91.1835267
800-900,Mallard Street,70807,30.5297670,-91.1851085
9243,Scenic Highway,70807,30.5298694,-91.1849591
8957,Scenic Highway,70807,30.5281060,-91.1839156
9053,Scenic Highway,70807,30.5286843,-91.1842973
900-1000,Baranco Street,70807,30.5296683,-91.1833996
847,Mallard Street,70807,30.5295332,-91.1857184
1148,Oriole Street,70807,30.5280956,-91.1819880
1136,Oriole Street,70807,30.5280894,-91.1821097
9024,Scenic Highway,70807,30.5284879,-91.1835445
1151,Jordan Street,70807,30.5293089,-91.1819727
1139,Jordan Street,70807,30.5292979,-91.1823716
1131,Jordan Street,70807,30.5292939,-91.1824890
9100-9200,Scenic Highway,70807,30.5297309,-91.1842692
750,Cormorant Street,70807,30.5298329,-91.1858759
856,Pintail Street,70807,30.5285811,-91.1849095
1302,Wall Street,70807,30.5296368,-91.1820271
8955,Scenic Highway,70807,30.5279673,-91.1837965
1047,Cardinal Street,70807,30.5277753,-91.1827039
1149,Jordan Street,70807,30.5293313,-91.1820935
1141,Jordan Street,70807,30.5292921,-91.1822260
8781,Scenic Highway,70807,30.5268815,-91.1831618
1287,Stilt Street,70807,30.5270820,-91.1804381
1280,Cardinal Street,70807,30.5273734,-91.1806047
1274,Cardinal Street,70807,30.5273704,-91.1807278
8609,Scenic Highway,70807,30.5258646,-91.1824972
1217,Stilt Street,70807,30.5270094,-91.1813082
1229,Stilt Street,70807,30.5269493,-91.1811832
1276,Cardinal Street,70807,30.5274161,-91.1807036
964,Marsh Street,70807,30.5258525,-91.1836432
1018,Grebe Street,70807,30.5265648,-91.1838005
8607,Scenic Highway,70807,30.5257461,-91.1825752
1265,Stilt Street,70807,30.5269788,-91.1807916
978,Grebe Street,70807,30.5264998,-91.1840618
928,Kitty Street,70807,30.5272476,-91.1841137
8675,Scenic Highway,70807,30.5259210,-91.1825616
8773,Scenic Highway,70807,30.5268199,-91.1830619
940,Grebe Street,70807,30.5263113,-91.1844476
1285,Stilt Street,70807,30.5270188,-91.1804387
1045,Sparrow Street,70807,30.5256704,-91.1828509
8679,Scenic Highway,70807,30.5259592,-91.1827161
912,Grebe Street,70807,30.5262906,-91.1845289
8745,Scenic Highway,70807,30.5267044,-91.1831266
8800-8900,Scenic Highway,70807,30.5270736,-91.1833408
1292,Cardinal Street,70807,30.5273585,-91.1804123
1054,Marsh Street,70807,30.5260495,-91.1830629
923,Marsh Street,70807,30.5259889,-91.1843711
954,Marsh Street,70807,30.5258084,-91.1836771
976,Grebe Street,70807,30.5264607,-91.1840949
1454,Cardinal Street,70807,30.5274868,-91.1787200
8832,Thelma Street,70807,30.5274541,-91.1759903
1679,Rosenwald Road,70807,30.5318544,-91.1761393
9264,Helene Street,70807,30.5306753,-91.1758781
1870,Rosenwald Road,70807,30.5314078,-91.1733614
1675,Rosenwald Road,70807,30.5318477,-91.1760364
1334,Stilt Street,70807,30.5266262,-91.1796271
1351,Oriole Street,70807,30.5285085,-91.1794896
1622,Fraternity Street,70807,30.5299937,-91.1768711
1332,Stilt Street,70807,30.5266083,-91.1796019
1586,Fraternity Street,70807,30.5299842,-91.1772462
8824,Thelma Street,70807,30.5273603,-91.1759221
8840,Thelma Street,70807,30.5275146,-91.1760993
1677,Rosenwald Road,70807,30.5319213,-91.1760306
8751,Thelma Street,70807,30.5266368,-91.1757089
8954,Thelma Street,70807,30.5281825,-91.1767619
1662,Rosenwald Road,70807,30.5313726,-91.1763904
9162,Scotland Avenue,70807,30.5296064,-91.1789647
1556,Fraternity Street,70807,30.5299712,-91.1777306
1595,Fraternity Street,70807,30.5302211,-91.1771076
1431,Stilt Street,70807,30.5270916,-91.1790020
9440,Jones Street,70807,30.5321029,-91.1719958
1642,Fraternity Street,70807,30.5300146,-91.1765663
1600-1700,Fraternity Street,70807,30.5303976,-91.1763742
1625,Fraternity Street,70807,30.5304174,-91.1770113
1636,Rosenwald Road,70807,30.5313406,-91.1766644
1492,Stilt Street,70807,30.5266681,-91.1783199
9455,Elm Grove Garden Drive,70807,30.5312567,-91.1702280
1590,Oriole Street,70807,30.5282631,-91.1774585
8848,Thelma Street,70807,30.5276703,-91.1761179
1624,Rosenwald Road,70807,30.5313370,-91.1767929
1800,Rosenwald Road,70807,30.5307341,-91.1743380
9148,Scotland Avenue,70807,30.5295229,-91.1789690
1357,Teal Street,70807,30.5262948,-91.1796115
9166,Helene Street,70807,30.5301255,-91.1758611
9260,Helene Street,70807,30.5305378,-91.1758738
1467,Stilt Street,70807,30.5270998,-91.1787547
1442,City Park Avenue,70808,30.4346765,-91.1692752
3057,Government Street,70806,30.4445075,-91.1571148
900,North 3rd Street,70802,30.4570873,-91.1873736
3304,Engineering Lane,70803,30.4076951,-91.1798927
4161,Gourrier Avenue,70808,30.4037086,-91.1752394
3235,Dalrymple Drive,70802,30.4188307,-91.1711843
4003,Gourrier Avenue,70803,30.4047914,-91.1808131
4023,Highland Road,70808,30.4109804,-91.1755615
3828,West Lakeshore Drive,70808,30.4142998,-91.1692021
150,Mayflower Street,70802,30.4402173,-91.1895502
745,Saint Philip Street,70802,30.4412654,-91.1881100
9460,Cortana Place,70815,30.4622956,-91.0930561
9350,Cortana Place,70815,30.4626452,-91.0910009
1928,North 3rd Street,70802,30.4637751,-91.1875673
1201,North 3rd Street,70802,30.4598070,-91.1886713
1800,North 3rd Street,70802,30.4628618,-91.1875439
7389,Florida Blvd,70806,30.4543843,-91.1144970
9430,Jackie Cochran Drive,70811,30.5320727,-91.1509725
6735,Airline Highway,70805,30.4910117,-91.1218632
2374,College Drive,70808,30.4263822,-91.1379142
8750,Florida Boulevard,70815,30.4524543,-91.0934265
7809,Jefferson Highway,70809,30.4271901,-91.1055032
9683,Mammoth Avenue,70814,30.4742755,-91.0791398
749,East Boulevard,70802,30.4413721,-91.1797893
1600,North 3rd Street,70802,30.4610058,-91.1869782
627,North 4th Street,70802,30.4529120,-91.1878377
628,North 4th Street,70802,30.4529431,-91.1865485
602,North 5th Street,70802,30.4532811,-91.1852866
101,North Street,70802,30.4528503,-91.1899614
1051,North 3rd Street,70802,30.4568369,-91.1891211
1885,North 3rd Street,70802,30.4637655,-91.1865566
602,North River Road,70802,30.4534516,-91.1899193
1702,North 3rd Street,70802,30.4622625,-91.1860784
617,North 3rd Street,70802,30.4529832,-91.1889817
660,North 4th Street,70802,30.4539074,-91.1864062
2222,Florida Street,70802,30.4494640,-91.1654944
701,North 4th Street,70802,30.4538470,-91.1879914
521,3rd Street,70802,30.4519618,-91.1889594
700,South River Road,70802,30.4421252,-91.1902652
301,Main Street,70802,30.4520644,-91.1877812
504,North 5th Street,70802,30.4520338,-91.1853778
200,Convention Street,70801,30.4484075,-91.1891294
201,Lafayette Street,70801,30.4487455,-91.1897625
103,France Street,70802,30.4425425,-91.1889511
300,Capitol Access Road,70802,30.4576558,-91.1845919
222,Saint Louis Street,70802,30.4459670,-91.1879593
6125,Winbourne Avenue,70805,30.4804149,-91.1291870
3125,College Drive,70808,30.4192544,-91.1409182
4646,Constitution Avenue,70808,30.4219851,-91.1376906
4030,T. B. Herndon Avenue,70807,30.5237260,-91.1540941
3843,Harding Boulevard,70807,30.5225243,-91.1538258
3465,Harding Boulevard,70807,30.5220360,-91.1555587
3445,Harding Boulevard,70807,30.5218708,-91.1560394
3530,Harding Boulevard,70807,30.5210419,-91.1549385
8326,Merle Gustafson Drive,70807,30.5239767,-91.1489587
3676,Harding Boulevard,70807,30.5210969,-91.1537257
3330,Harding Boulevard,70807,30.5202467,-91.1572302
3680,Harding Boulevard,70807,30.5210296,-91.1531074
3444,Harding Boulevard,70807,30.5207516,-91.1558657
8274,Merle Gustafson Drive,70807,30.5231239,-91.1490715
3836,Harding Boulevard,70807,30.5210170,-91.1518436
7980,Howell Boulevard,70807,30.5200903,-91.1555434
3454,Harding Boulevard,70807,30.5209508,-91.1554957
340,East Parker Blvd,70803,30.4074447,-91.1724018
422,North 19th Street,70802,30.4509796,-91.1676750
1222,East Buchanan Street,70802,30.4240317,-91.1721524
800,East McKinley Street,70802,30.4226217,-91.1734832
10351,Plaza Americana Drive,70816,30.4273060,-91.0727130
577,Oak Villa Boulevard,70815,30.4550183,-91.0878980
9830,Florida Boulevard,70815,30.4554723,-91.0756846
10425,Plaza Americana Drive,70816,30.4272570,-91.0708540
9836,Florida Boulevard,70815,30.4554783,-91.0754372
8055,Airline Highway,70815,30.4657452,-91.1041399
9919,Gwenadelle Drive,70816,30.4274025,-91.0765996
9842,Florida Boulevard,70815,30.4554732,-91.0752832
9820,Florida Boulevard,70815,30.4554035,-91.0760238
9911,Gwenadelle Drive,70816,30.4278239,-91.0769425
11705,Coursey Boulevard,70816,30.4116728,-91.0509335
9808,Florida Boulevard,70815,30.4553604,-91.0764908
10414,Plaza Americana Drive,70816,30.4263812,-91.0711976
10250,Plaza Americana Drive,70816,30.4262211,-91.0735887
2161,Nicholson Drive,70802,30.4262658,-91.1872354
2278,O'Neal Lane,70816,30.4361185,-91.0080674
9050,Airline Highway,70815,30.4439513,-91.0909171
275,South River Road,70802,30.4448248,-91.1890752
100,South River Road,70801,30.4462143,-91.1903756
12248,Parklawn Avenue,70816,30.4048726,-91.0464868
1011,West Roosevelt Street,70802,30.4209990,-91.1899990
6201,Florida Boulevard,70806,30.4528334,-91.1257597
6025,Sevenoaks Avenue,70806,30.4430605,-91.1286324
17000,Medical Center Drive,70816,30.4416712,-91.0012067
7777,Hennessy Boulevard,70808,30.4034706,-91.1089313
8585,Picardy Avenue,70809,30.3943747,-91.0952334
3600,Florida Boulevard,70806,30.4493285,-91.1529568
1300,Spanish Town Road,70802,30.4544416,-91.1764736
111,Lobdell Avenue,70806,30.4497096,-91.1110315
201,Community College Drive,70806,30.4483734,-91.1360820
1253,Florida Boulevard,70802,30.4499079,-91.1763986
750,Florida Street,70801,30.4489400,-91.1823947
777,Florida Street,70801,30.4500274,-91.1824476
720,Terrace Avenue,70802,30.4359509,-91.1827017
5100,Greenwell Springs Road,70806,30.4633568,-91.1362159
12720,Old Hammond Highway,70816,30.4431174,-91.0363412
240,Saint Louis Street,70802,30.4449521,-91.1879155
455,3rd Street,70801,30.4509934,-91.1885187
462,Lafayette Street,70801,30.4511950,-91.1891695
423,Main Street,70802,30.4518078,-91.1865796
9829,Airline Highway,70816,30.4298035,-91.0776006
400,North Boulevard,70802,30.4467074,-91.1863389
100,North Boulevard,70801,30.4465938,-91.1890731
214,3rd Street,70801,30.4486235,-91.1879450
352,Florida Street,70801,30.4490699,-91.1872647
340,Florida Street,70801,30.4490834,-91.1874648
860,Saint Louis Street,70802,30.4398696,-91.1875624
252,South Boulevard,70802,30.4393614,-91.1875458
305,South River Road,70802-6220,30.4432992,-91.1902444
130,Main Street,70801,30.4512196,-91.1899769
427,Laurel Street,70801,30.4506861,-91.1865124
358,3rd Street,70801,30.4502268,-91.1880208
136,3rd Street,70801,30.4478128,-91.1879043
315,North Boulevard,70801,30.4473919,-91.1877577
501,Government Street,70802,30.4436646,-91.1851591
504,Mayflower Street,70802,30.4406457,-91.1848033
707,Florida Street,70801,30.4497955,-91.1830615
174,South Boulevard,70802,30.4393765,-91.1890068
433,Government Street,70802,30.4436855,-91.1855158
760,Saint Philip Street,70802,30.4409564,-91.1887004
1100,Laurel Street,70802,30.4503283,-91.1787334
555,Government Street,70802,30.4436661,-91.1844990
721,Government Street,70802,30.4437419,-91.1833498
404,Mayflower Street,70802,30.4405694,-91.1858172
1225,Nicholson Drive,70802,30.4367064,-91.1868640
1175,Nicholson Drive,70802,30.4371636,-91.1868795
1849,South River Road,70802,30.4300627,-91.1902992
1801,South River Road,70802,30.4313362,-91.1903248
1565,South River Road,70802,30.4322533,-91.1903478
555,Julia Street,70802,30.4375888,-91.1851125
1119,Napoleon Street,70802,30.4376714,-91.1833234
1113,Napoleon Street,70802,30.4378333,-91.1833118
1038,Napoleon Street,70802,30.4383644,-91.1836934
956,Saint Joseph Street,70802,30.4385544,-91.1825663
715,Myrtle Street,70802,30.4383817,-91.1825166
285,East Airport Avenue,70806,30.4492363,-91.1008717
4592,South Sherwood Forest Boulevard,70816,30.4123495,-91.0526166
4415,South Sherwood Forest Boulevard,70816,30.4133673,-91.0510192
6402,River Road,70820,30.3834395,-91.2113423
4800,Riverbend Lakes Dr,70820,30.3861206,-91.2003802
4800,Menlo Drive,70810,30.3932831,-91.1527199
201,Amherst Avenue,70808,30.4051829,-91.1714918
755,North 3rd Street,70802,30.4545001,-91.1892201
10000,Dawnadele Avenue,70809-2591,30.4196248,-91.0750715
225,South River Road,70802,30.4456830,-91.1893221
935,South 11th Street,70802,30.4390226,-91.1789238
945,East Boulevard,70802,30.4385504,-91.1798885
731,Saint Louis Street,70802,30.4413160,-91.1872149
735,Saint Louis Street,70802,30.4412398,-91.1872265
741,Saint Louis Street,70802,30.4411626,-91.1872231
1109,Highland Road,70802,30.4375650,-91.1858673
805,Saint Louis Street,70802,30.4407388,-91.1870996
855,Saint Ferdinand Street,70802,30.4397534,-91.1861113
444,Terrace Street,70802,30.4361496,-91.1860930
319,Mayflower Street,70802,30.4412022,-91.1870284
2265,Highland Road,70802,30.4261769,-91.1799354
700,Terrace Avenue,70802,30.4364351,-91.1832393
330,South 19th Street,70806,30.4448458,-91.1685097
1233,Government Street,70802,30.4438954,-91.1764648
466,Terrace Street,70802,30.4362038,-91.1857986
458,Terrace Street,70802,30.4361381,-91.1858871
474,Terrace Street,70802,30.4361935,-91.1857000
990,Myrtle Street,70802,30.4380032,-91.1790816
802,North 30th Street,70802,30.4558016,-91.1583945
101,West State Street,70802,30.4179307,-91.1767723
3322,Lake Street,70802,30.4180038,-91.1792291
250,West State Street,70802,30.4184508,-91.1792104
962,Royal Street,70802,30.4385091,-91.1847729
627,Julia Street,70802,30.4373565,-91.1839780
714,Julia Street,70802,30.4370360,-91.1831483
1515,Dalrymple Drive,70808,30.4314149,-91.1673843
1900,Dalrymple Drive,70808,30.4300739,-91.1698438
3332,Lake Street,70802,30.4175504,-91.1794638
4451,Fairfields Avenue,70802,30.4683007,-91.1458397
4390,Fairfields Avenue,70802,30.4673436,-91.1460982
1401,North Foster Drive,70806,30.4614067,-91.1403882
1645,North Foster Drive,70806,30.4639821,-91.1403881
1801,Laurel Street,70802,30.4511108,-91.1697664
127,West State Street,70802,30.4178828,-91.1772756
3186,Highland Road,70802,30.4195958,-91.1776517
3209,Ivanhoe Street,70802,30.4192346,-91.1726274
3100,Highland Road,70802,30.4203093,-91.1778468
3255,Highland Road,70802,30.4190115,-91.1765214
3930,Burbank Drive,70808,30.4022561,-91.1801574
3960,Burbank Drive,70808,30.4023795,-91.1793864
3838,Burbank Drive,70808,30.4025047,-91.1810164
3433,Government Street,70806,30.4448846,-91.1543347
3550,Government Street,70806,30.4439059,-91.1532750
7501,Lobdell Avenue,70806,30.4460677,-91.1110011
8065,Florida Boulevard,70806,30.4524750,-91.1049515
7903,Florida Boulevard,70806,30.4526340,-91.1066184
7640,Florida Boulevard,70806,30.4512443,-91.1101784
7787,Florida Boulevard,70806,30.4525280,-91.1083336
7744,Florida Boulevard,70806,30.4511117,-91.1086022
7740,Florida Boulevard,70806,30.4512877,-91.1088537
7660,Florida Boulevard,70806,30.4512553,-91.1097586
7710,Florida Boulevard,70806,30.4512048,-91.1093231
7754,Florida Boulevard,70806,30.4512351,-91.1081339
7836,Florida Boulevard,70806,30.4513478,-91.1075864
7920,Florida Boulevard,70806,30.4512687,-91.1067868
8129,Florida Boulevard,70806,30.4525900,-91.1034835
7675,Florida Boulevard,70806,30.4523178,-91.1094897
8121,Florida Boulevard,70806,30.4524456,-91.1038870
7791,Florida Boulevard,70806,30.4528160,-91.1075723
7777,Florida Boulevard,70806,30.4525695,-91.1091669
7643,Florida Boulevard,70806,30.4528013,-91.1102830
8894,Airline Highway,70815,30.4473862,-91.0935785
260,Third Street,70801,30.4491568,-91.1878323
2323,South Acadian Thruway,70808,30.4256429,-91.1500825
3555,Perkins Road,70808,30.4216543,-91.1529291
3535,Perkins Road,70808,30.4218933,-91.1537877
3535,Perkins Road,70808,30.4228330,-91.1533946
8308,Airline Highway,70815,30.4606710,-91.1020646
5445,Government St,70806,30.4466593,-91.1338913
333,Kernan Ave,70802,30.4513228,-91.1564096
16040,Hatteras Avenue,70816,30.4400078,-91.0105416
9168,Mall of Louisiana Boulevard,70836,30.3857550,-91.0843720
10770,North Mall Drive,70809,30.3767570,-91.0600552
10606,North Mall Drive,70809,30.3774254,-91.0616323
10444,North Mall Drive,70809,30.3786224,-91.0634064
9598,Cortana Place,70815,30.4615059,-91.0976464
9530,Cortana Place,70815,30.4596220,-91.0977946
9526,Cortana Place,70815,30.4591105,-91.0978183
9001,Summa Avenue,70809,30.3927809,-91.0919095
3861,Scenic Highway,70805,30.4842031,-91.1696354
9656,Airline Highway,70815,30.4332090,-91.0823719
9650,Airline Highway,70815,30.4321778,-91.0832558
8300,Constantin Blvd,70809,30.4004448,-91.0982713
305,South River Road,70802-6220,30.4443350,-91.1914961
3132,College Drive,70808,30.4208380,-91.1429608
4615,Perkins Road,70808,30.4164695,-91.1421594
3110,College Drive,70808,30.4194283,-91.1417725
3131,College Drive,70808,30.4186846,-91.1412708
4469,Perkins Road,70808,30.4171451,-91.1440811
4485,Perkins Road,70808,30.4173332,-91.1433418
2708,North Acadian Thruway West,70805,30.4725755,-91.1562747
2727,North Acadian Thruway West,70805,30.4724309,-91.1568336
3124,Amarillo Street,70805,30.5003699,-91.1583968
3132,Amarillo Street,70805,30.5002179,-91.1581681
3136,Amarillo Street,70805,30.5002588,-91.1579566
3140,Amarillo Street,70805,30.5003893,-91.1576976
3148,Amarillo Street,70805,30.5007232,-91.1580602
2895,Valley Street,70808,30.4223963,-91.1470463
2844,Valley Street,70808,30.4229779,-91.1472686
3030,Valley Street,70808,30.4214430,-91.1477794
3050,Valley Street,70808,30.4212835,-91.1478472
3060,Valley Street,70808,30.4211773,-91.1478791
3655,Perkins Road,70808,30.4207460,-91.1516095
3664,Perkins Road,70808,30.4203327,-91.1518916
3650,Perkins Road,70808,30.4204342,-91.1520667
901,Stanford Avenue,70808,30.4088072,-91.1640223
745,Mayflower Street,70802,30.4410969,-91.1828160
7312,Boyce Drive,70809,30.4242315,-91.1135546
7362,Boyce Drive,70809,30.4241541,-91.1131400
9313,Artist Court,70809,30.4142957,-91.0808531
9317,Artist Court,70809,30.4142704,-91.0807411
9321,Artist Court,70809,30.4142310,-91.0806434
9325,Artist Court,70809,30.4142127,-91.0805298
9046,Stonecroft Avenue,70810,30.3794487,-91.1131790
12621,Humphreys Drive,70816,30.4174164,-91.0389828
12621,Humphreys Drive,70816,30.4175586,-91.0387474
7724,Plank Road,70811,30.5188069,-91.1459866
2727,Greenwell Street,70805,30.5032624,-91.1628893
12300,Old Hammond Highway,70816,30.4377334,-91.0422137
3510,Drusilla Lane,70809,30.4186429,-91.0902707
1650,North Acadian Thruway East,70802,30.4635854,-91.1547379
710,East Boyd Drive,70808,30.3996657,-91.1773216
2585,Brightside Drive,70820,30.3882650,-91.1881546
4546,North Street,70806,30.4527175,-91.1431341
4550,West Brookstown Drive,70805,30.4920046,-91.1306442
6071,Bluebonnet Boulevard,70809,30.3929090,-91.0878776
6051,Bluebonnet Boulevard,70809,30.3932391,-91.0869730
5377,Highland Road,70808,30.3939572,-91.1591797
2313,South Acadian Thruway,70808,30.4262856,-91.1503400
4066,Burbank Drive,70808,30.4025022,-91.1781706
4092,Burbank Drive,70808,30.4022827,-91.1779147
4118,Burbank Drive,70808,30.4022925,-91.1777346
4176,Burbank Drive,70808,30.4020000,-91.1772988
4194,Burbank Drive,70808,30.4017739,-91.1769953
4433,Perkins Road,70808,30.4173563,-91.1443022
4253-4263,Perkins Road,70808,30.4181437,-91.1460026
4321,Perkins Road,70808,30.4176603,-91.1452656
4395,Perkins Road,70808,30.4175140,-91.1450057
4225,Perkins Road,70808,30.4189225,-91.1457575
4221-4233,Perkins Road,70808,30.4187052,-91.1459179
3116,College Drive,70808,30.4192838,-91.1435499
4250,Burbank Drive,70808,30.4007229,-91.1760754
27,Dalrymple Drive,70803,30.4166954,-91.1722149
4857,Government Street,70806,30.4450736,-91.1405285
3888,South Sherwood Forest Boulevard,70816,30.4178359,-91.0520400
1820,Madison Avenue,70802,30.4670794,-91.1699330
2112,Scenic Highway,70805,30.4667825,-91.1676716
424,Woodpecker Street,70807,30.5335881,-91.1945554
5575,Government Street,70806,30.4449078,-91.1326598
4220,Burbank Drive,70808,30.4012546,-91.1764285
5131,Nicholson Drive,70820,30.3899884,-91.1723757
5224,Florida Boulevard,70806-4127,30.4504584,-91.1355863
2950,College Drive,70808,30.4220874,-91.1413614
3009,College Drive,70808,30.4203718,-91.1403257
3023,College Drive,70808,30.4199583,-91.1405142
3010,Valley Creek Drive,70808,30.4195115,-91.1376729
4914,Constitution Avenue,70808,30.4210316,-91.1331085
4924,Constitution Avenue,70808,30.4215262,-91.1323156
4964,Constitution Avenue,70808,30.4213727,-91.1314327
6315,Scenic Highway,70805,30.5065676,-91.1715784
6274,Scenic Highway,70805,30.5063514,-91.1700652
2310,Ben Hur Road,70820,30.3682917,-91.1715228
3030,Mcllhenny Drive,70809,30.4228988,-91.0990274
7541,Perkins Road,70808,30.3958557,-91.1102207
2421,South Acadian Thruway,70808,30.4231356,-91.1495071
11444,Reulet Avenue,70815,30.4315144,-91.0558009
10332,Plaza Americana Drive,70816,30.4260418,-91.0726243
10311,Plaza Americana Drive,70816,30.4271544,-91.0737316
2949,Varsity Street,70807-4059,30.5299450,-91.1623248
7979,Howell Boulevard,70807,30.5196969,-91.1569788
4001,Nicholson Drive,70808,30.4009774,-91.1800619
9990,Airline Highway,70809,30.4258964,-91.0781411
528,East State Street,70802,30.4192946,-91.1724600
5464,Essen Lane,70809-3546,30.3990128,-91.1077763
5322,Essen Lane,70809,30.4002860,-91.1070730
4161,Perkins Road,70808,30.4185114,-91.1468524
11255,Boardwalk Drive,70816,30.4320906,-91.0589521
6505,Florida Boulevard,70806,30.4524361,-91.1236057
456,North Donmoor Avenue,70806,30.4541192,-91.1178681
13146,Florida Avenue,70819,30.4618217,-91.0357279
11677,Coursey Boulevard,70816,30.4117022,-91.0521471
2527,Broussard Street,70806,30.4360970,-91.1611638
2549,Broussard Street,70806,30.4361210,-91.1607975
2620,Terrace Avenue,70806,30.4365466,-91.1602223
2608,Terrace Avenue,70806,30.4365854,-91.1604526
2557,Broussard Street,70806,30.4361161,-91.1606103
1411,Letitia Street,70808,30.4357720,-91.1603995
4842,Alvin Dark Avenue,70820,30.3908411,-91.1813272
4840,Alvin Dark Avenue,70820,30.3909253,-91.1812979
6910,Airline Highway,70805,30.4881016,-91.1218184
6894,Airline Highway,70805,30.4887849,-91.1223077
6888,Airline Highway,70805,30.4890122,-91.1222069
4412,Lake Larto Circle,70816,30.4131213,-91.0486261
12,Campus Lake Road,70808,30.4126140,-91.1726254
2560,Government Street,70806,30.4437959,-91.1614813
2812,Kalurah Street,70808,30.4258623,-91.1601615
3043,Perkins Road,70808,30.4244128,-91.1574286
3375,Perkins Road,70808,30.4222254,-91.1546083
523,Park Boulevard,70806,30.4434301,-91.1687689
527,Park Boulevard,70806,30.4432845,-91.1686911
539,Park Boulevard,70806,30.4431296,-91.1687590
601,Park Boulevard,70806,30.4427459,-91.1686835
617,Park Boulevard,70806,30.4425660,-91.1687260
621,Park Boulevard,70806,30.4424471,-91.1687290
627,Park Boulevard,70806,30.4423260,-91.1687116
715,Park Boulevard,70806,30.4416387,-91.1686876
735,Park Boulevard,70806,30.4414935,-91.1687049
759,Park Boulevard,70806,30.4413353,-91.1686727
803,Park Boulevard,70806,30.4408745,-91.1686524
811,Park Boulevard,70806,30.4407667,-91.1686464
939,Park Boulevard,70806,30.4395819,-91.1685924
1001,Park Boulevard,70806,30.4392671,-91.1685809
1007,Park Boulevard,70806,30.4391606,-91.1685704
1015,Park Boulevard,70806,30.4390277,-91.1685938
1047,Park Boulevard,70806,30.4386655,-91.1685416
1107,Park Boulevard,70806,30.4381497,-91.1685577
1121,Park Boulevard,70806,30.4377089,-91.1685996
1201,Park Boulevard,70806,30.4364152,-91.1685574
1231,Park Boulevard,70806,30.4362453,-91.1684945
1233,Park Boulevard,70806,30.4361226,-91.1685175
1235,Park Boulevard,70806,30.4360024,-91.1685213
1901,Magnolia Drive,70806,30.4358948,-91.1685159
1179,Park Boulevard,70806,30.4368452,-91.1684810
1125,Park Boulevard,70806,30.4375460,-91.1685862
1129,Park Boulevard,70806,30.4374463,-91.1685124
1137,Park Boulevard,70806,30.4373376,-91.1685341
1147,Park Boulevard,70806,30.4372260,-91.1685795
1157,Park Boulevard,70806,30.4371059,-91.1685582
1031,Park Boulevard,70806,30.4388013,-91.1685934
1023,Park Boulevard,70806,30.4389223,-91.1685953
927,Park Boulevard,70806,30.4397546,-91.1686232
921,Park Boulevard,70806,30.4398840,-91.1686456
909,Park Boulevard,70806,30.4400790,-91.1686464
839,Park Boulevard,70806,30.4404163,-91.1686507
829,Park Boulevard,70806,30.4405406,-91.1686641
817,Park Boulevard,70806,30.4406552,-91.1686620
801,Park Boulevard,70806,30.4409923,-91.1686123
709,Park Boulevard,70806,30.4418079,-91.1686843
1920,Oleander Street,70806,30.4419098,-91.1687090
1911,Oleander Street,70806,30.4422089,-91.1686606
1948,Government Street,70806,30.4435822,-91.1688022
5321,Corporate Boulevard,70808,30.4255144,-91.1347985
4710,South Sherwood Forest Boulevard,70816,30.4108021,-91.0519330
5860,Corporate Boulevard,70808,30.4242422,-91.1305368
2562,Citiplace Court,70808,30.4229463,-91.1299029
1503,Government Street,70802,30.4440660,-91.1729774
1600,Government Street,70802,30.4434827,-91.1720098
520,South 17th Street,70802,30.4433490,-91.1716821
1531,Wisteria Street,70802,30.4429242,-91.1724747
534,South 16th Street,70802,30.4428773,-91.1722707
521,South 15th Street,70802,30.4432372,-91.1727278
539,South 15th Street,70802,30.4429392,-91.1727292
1500,Government Street,70802,30.4435245,-91.1727860
546,South 15th Street,70802,30.4430248,-91.1731235
604,South 15th Street,70802,30.4426185,-91.1731145
610,South 15th Street,70802,30.4425200,-91.1731080
618,South 15th Street,70802,30.4424206,-91.1731104
624,South 15th Street,70802,30.4423224,-91.1731070
632,South 15th Street,70802,30.4422240,-91.1730890
638,South 15th Street,70802,30.4421245,-91.1730900
639,South 15th Street,70802,30.4421013,-91.1726857
633,South 15th Street,70802,30.4422090,-91.1727290
631,South 15th Street,70802,30.4422985,-91.1727310
606,South 16th Street,70802,30.4426290,-91.1723025
1617,Blanche Court,70802,30.4425025,-91.1717465
1618,Blanche Court,70802,30.4422275,-91.1717355
1758,Government Street,70802,30.4435605,-91.1704400
1771,Wisteria Street,70802,30.4431205,-91.1706065
535,Brice Street,70802,30.4432193,-91.1706453
524,Brice Street,70802,30.4433065,-91.1709855
528,Brice Street,70802,30.4432005,-91.1710110
538,Brice Street,70802,30.4431120,-91.1709580
1700,Government Street,70802,30.4435523,-91.1713185
1641,Blanche Court,70802,30.4425058,-91.1714527
1635,Blanche Court,70802,30.4425080,-91.1713635
1653,Blanche Court,70802,30.4425113,-91.1712607
1647,Blanche Court,70802,30.4425130,-91.1711691
1659,Blanche Court,70802,30.4425160,-91.1710720
1665,Blanche Court,70802,30.4425190,-91.1709830
1671,Blanche Court,70802,30.4425488,-91.1708823
1681,Blanche Court,70802,30.4425505,-91.1707890
626,South 18th Street,70802,30.4425770,-91.1704705
636,South 18th Street,70802,30.4424103,-91.1704438
658,South 18th Street,70802,30.4422087,-91.1704478
612,South 18th Street,70802,30.4427442,-91.1704258
602,South 18th Street,70802,30.4428600,-91.1704390
538,South 18th Street,70802,30.4431623,-91.1703970
668,South 18th Street,70802,30.4419978,-91.1704512
3285,Nicholson Drive,70802,30.4190821,-91.1871035
2030,Kleinert Avenue,70806,30.4373110,-91.1674413
1280,Perkins Road,70806,30.4368714,-91.1679761
1941,Terrace Street,70806,30.4368100,-91.1681735
2255,Kleinert Avenue,70806,30.4379573,-91.1643764
1115,Camelia Avenue,70806,30.4382974,-91.1663360
2132,Myrtle Avenue,70806,30.4383152,-91.1658857
2006,Myrtle Avenue,70806,30.4383287,-91.1679668
1250,Perkins Road,70806,30.4372425,-91.1680383
2277,Kleinert Avenue,70806,30.4380288,-91.1641026
2215,Kleinert Avenue,70806,30.4379486,-91.1648778
1939,Terrace Street,70806,30.4368190,-91.1682871
2138,Myrtle Avenue,70806,30.4383700,-91.1657520
1236,Camelia Avenue,70806,30.4372940,-91.1667808
2040,Kleinert Avenue,70806,30.4372593,-91.1672135
2225,Kleinert Avenue,70806,30.4379984,-91.1646165
2001,Kleinert Avenue,70806,30.4379285,-91.1679740
2240,Myrtle Avenue,70806,30.4383429,-91.1643119
1248,Perkins Road,70806,30.4373349,-91.1680980
2230,Myrtle Avenue,70806,30.4383776,-91.1644886
2135,Kleinert Avenue,70806,30.4379852,-91.1657681
2005,Kleinert Avenue,70806,30.4379074,-91.1677723
1233,Perkins Road,70806,30.4379892,-91.1683383
2250,Myrtle Avenue,70806,30.4384100,-91.1641211
2125,Kleinert Avenue,70806,30.4379454,-91.1660158
2216,Myrtle Avenue,70806,30.4384108,-91.1649510
2047,Terrace Avenue,70806,30.4369444,-91.1668676
2260,Myrtle Avenue,70806,30.4383908,-91.1638740
2127,Terrace Avenue,70806,30.4369869,-91.1660068
2035,Kleinert Avenue,70806,30.4379225,-91.1671423
1237,Perkins Road,70806,30.4379170,-91.1681156
2154,Myrtle Avenue,70806,30.4383671,-91.1655797
2003,Terrace Avenue,70806,30.4369714,-91.1675652
1118,Camelia Avenue,70806,30.4382504,-91.1668732
2021,Kleinert Avenue,70806,30.4378972,-91.1673306
2010,Myrtle Avenue,70806,30.4383215,-91.1678142
2035,Terrace Avenue,70806,30.4369472,-91.1671428
2030,Myrtle Avenue,70806,30.4383243,-91.1674963
2050,Kleinert Avenue,70806,30.4373660,-91.1669756
1246,Perkins Road,70806,30.4374435,-91.1681167
2157,Kleinert Avenue,70806,30.4379210,-91.1655315
2017,Kleinert Avenue,70806,30.4378934,-91.1674926
2181,Kleinert Avenue,70806,30.4379234,-91.1652797
2133,Terrace Avenue,70806,30.4369876,-91.1657914
2021,Terrace Avenue,70806,30.4369265,-91.1673382
2105,Kleinert Avenue,70806,30.4379811,-91.1662240
2048,Myrtle Avenue,70806,30.4383378,-91.1671827
2195,Kleinert Avenue,70806,30.4379644,-91.1650935
2020,Myrtle Avenue,70806,30.4383244,-91.1676525
2000,Myrtle Avenue,70806,30.4383253,-91.1681872
2010,Kleinert Avenue,70806,30.4373522,-91.1676515
2220,Myrtle Avenue,70806,30.4384167,-91.1646947
2172,Myrtle Avenue,70806,30.4383788,-91.1654028
2151,Terrace Avenue,70806,30.4369582,-91.1655620
1264,Perkins Road,70806,30.4371365,-91.1680244
2126,Myrtle Avenue,70806,30.4383280,-91.1660763
2121,Terrace Avenue,70806,30.4370030,-91.1662603
2045,Kleinert Avenue,70806,30.4379165,-91.1668754
1284,Perkins Road,70806,30.4367642,-91.1679197
2178,Myrtle Avenue,70806,30.4384168,-91.1651627
2285,Kleinert Avenue,70806,30.4379859,-91.1638261
1930,O'Neal Lane,70816,30.4407706,-91.0081619
2020,O'Neal Lane,70816,30.4394597,-91.0080102
2040,O'Neal Lane,70816,30.4389844,-91.0079894
3362,Byron Avenue,70805,30.4932856,-91.1563643
465,South Flannery Road,70815,30.4575227,-91.0331690
2434,O'Neal Lane,70816,30.4335587,-91.0081429
4412,Lake Larto Circle,70816,30.4133528,-91.0486895
10270,Airline Highway,70809,30.4177776,-91.0715593
10174,Airline Highway,70809,30.4184070,-91.0718975
10330,Airline Highway,70809,30.4167613,-91.0714433
10330,Airline Highway,70809,30.4165779,-91.0707035
12112,Scotland Avenue,70807,30.5559284,-91.1737955
10130,Coursey Boulevard,70816,30.4167588,-91.0683955
401,Main Street,70802,30.4519519,-91.1869297
102,River House Plaza,70802,30.4337274,-91.1877022
1624,Wyoming Street,70802,30.4326946,-91.1891373
955,Mc Clung Street,70802,30.4320911,-91.1884395
1644,Nicholson Drive,70802,30.4320894,-91.1881343
1720,Nicholson Drive,70802,30.4314522,-91.1881997
1720,Nicholson Drive,70802,30.4312338,-91.1881885
1720,Nicholson Drive,70802,30.4314308,-91.1889062
1720,Nicholson Drive,70802,30.4312141,-91.1888982
1720,Nicholson Drive,70802,30.4313170,-91.1892941
1515,South River Road,70802,30.4328022,-91.1906750
11,West Fraternity Lane,70802,30.4162546,-91.1759091
2305,Choctaw Drive,70805,30.4705925,-91.1659949
1565,Curtis Street,70807,30.5216428,-91.1771847
1650,Highland Road,70802,30.4326341,-91.1851037
1351,Nicholson Drive,70802,30.4355707,-91.1869819
307,Oklahoma Street,70802,30.4348062,-91.1866287
5354,Plank Road,70805,30.4976932,-91.1530615
2250,Main Street,70802,30.4514807,-91.1654387
11441,Goodwood Boulevard,70815,30.4495096,-91.0556581
9150,Highland Road,70810,30.3663598,-91.1204051
12424,Brogdon Lane,70816,30.4037352,-91.0423369
2025,Stuart Avenue,70808,30.4155375,-91.1498133
1120,Myrtle Walk,70802,30.4379355,-91.1774509
3912,Gus Young Avenue,70802,30.4612261,-91.1512724
445,Marquette Avenue,70806,30.4456358,-91.1244001
827,Saint Louis Street,70802,30.4403483,-91.1871163
701,Terrace Avenue,70802,30.4364853,-91.1830752
1383,Napoleon Street,70802,30.4355249,-91.1823392
513,Myrtle Street,70802,30.4383239,-91.1854860
515,Myrtle Street,70802,30.4383132,-91.1853080
517,Myrtle Street,70802,30.4383283,-91.1852067
521,Myrtle Street,70802,30.4383264,-91.1850252
525,Myrtle Street,70802,30.4383086,-91.1847614
958,Royal Street,70802,30.4385847,-91.1847930
931,Royal Street,70802,30.4388396,-91.1843063
941,Royal Street,70802,30.4387548,-91.1843780
953,Royal Street,70802,30.4386452,-91.1844114
605,Myrtle Street,70802,30.4383538,-91.1842353
607,Myrtle Street,70802,30.4383309,-91.1840991
609,Myrtle Street,70802,30.4383360,-91.1839968
932,Napoleon Street,70802,30.4386631,-91.1837158
928,Napoleon Street,70802,30.4388551,-91.1837271
921,Napoleon Street,70802,30.4387138,-91.1833086
923,Napoleon Street,70802,30.4386418,-91.1832816
933,Napoleon Street,70802,30.4385383,-91.1833338
701,Myrtle Street,70802,30.4383091,-91.1833199
705,Myrtle Street,70802,30.4383905,-91.1831372
709,Myrtle Street,70802,30.4383630,-91.1827982
713,Myrtle Street,70802,30.4383649,-91.1827031
952,Saint Joseph Street,70802,30.4386528,-91.1826327
940,Saint Joseph Street,70802,30.4388151,-91.1826177
964,Maximillian Street,70802,30.4383876,-91.1813796
958,Maximillian Street,70802,30.4385754,-91.1814013
944,Maximillian Street,70802,30.4388262,-91.1814129
943,Maximillian Street,70802,30.4387866,-91.1809976
963,Maximillian Street,70802,30.4386917,-91.1810209
965,Maximillian Street,70802,30.4385930,-91.1810184
969,Maximillian Street,70802,30.4385008,-91.1810074
991,Myrtle Street,70802,30.4384105,-91.1810091
915,Myrtle Street,70802,30.4384776,-91.1808702
917,Myrtle Street,70802,30.4385384,-91.1807618
926,East Boulevard,70802,30.4387016,-91.1803892
928,East Boulevard,70802,30.4385891,-91.1804031
940,East Boulevard,70802,30.4385122,-91.1803927
1847,Glendale Avenue,70808,30.4179504,-91.1591186
1847,Glendale Avenue,70808,30.4178141,-91.1590370
982,Myrtle Street,70802,30.4380675,-91.1794178
972,Myrtle Street,70802,30.4380303,-91.1796235
1103,Thomas H Delpit Drive,70802,30.4380764,-91.1799772
1105,Thomas H Delpit Drive,70802,30.4380120,-91.1799738
1107,Thomas H Delpit Drive,70802,30.4379470,-91.1799623
1109,Thomas H Delpit Drive,70802,30.4378848,-91.1799680
1111,Thomas H Delpit Drive,70802,30.4377853,-91.1798919
1131,Thomas H Delpit Drive,70802,30.4374441,-91.1799750
967,Julia Street,70802,30.4374631,-91.1797729
981,Julia Street,70802,30.4374893,-91.1794353
991,Julia Street,70802,30.4374541,-91.1792572
1150,South 10th Street,70802,30.4375557,-91.1791054
1002,Julia Street,70802,30.4371745,-91.1787662
1004,Julia Street,70802,30.4371763,-91.1786957
1006,Julia Street,70802,30.4371782,-91.1786266
1010,Julia Street,70802,30.4370373,-91.1785446
1215,South 10th Street,70802,30.4370290,-91.1786865
1239,South 10th Street,70802,30.4366615,-91.1786887
1234,South 10th Street,70802,30.4365525,-91.1790163
1232,South 10th Street,70802,30.4366292,-91.1790400
1230,South 10th Street,70802,30.4367959,-91.1790913
1203,Thomas H Delpit Drive,70802,30.4371132,-91.1799318
1219,Thomas H Delpit Drive,70802,30.4365169,-91.1799425
963,Terrace Avenue,70802,30.4365423,-91.1797587
975,Terrace Avenue,70802,30.4365491,-91.1792953
979,Terrace Avenue,70802,30.4365176,-91.1791630
1101,Maximillian Street,70802,30.4381238,-91.1810085
1107,Maximillian Street,70802,30.4379844,-91.1810000
1113,Maximillian Street,70802,30.4378759,-91.1809878
1119,Maximillian Street,70802,30.4377919,-91.1809162
1121,Maximillian Street,70802,30.4377092,-91.1809512
1123,Maximillian Street,70802,30.4376229,-91.1809181
1133,Maximillian Street,70802,30.4374581,-91.1809475
913,Julia Street,70802,30.4374303,-91.1807103
915,Julia Street,70802,30.4374710,-91.1805535
953,Julia Street,70802,30.4374986,-91.1804034
1102,Maximillian Street,70802,30.4380778,-91.1813470
840,Myrtle Street,70802,30.4380841,-91.1814959
836,Myrtle Street,70802,30.4380777,-91.1816125
820,Myrtle Street,70802,30.4380098,-91.1818234
814,Myrtle Street,70802,30.4380338,-91.1819273
1105,Saint Joseph Street,70802,30.4378599,-91.1821646
1107,Saint Joseph Street,70802,30.4377529,-91.1821365
1119,Saint Joseph Street,70802,30.4375932,-91.1821511
1121,Saint Joseph Street,70802,30.4375064,-91.1821456
1127,Saint Joseph Street,70802,30.4373987,-91.1821349
815,Julia Street,70802,30.4374198,-91.1819583
821,Julia Street,70802,30.4374066,-91.1817866
823,Julia Street,70802,30.4374086,-91.1816965
1128,Maximillian Street,70802,30.4375233,-91.1814308
1124,Maximillian Street,70802,30.4376138,-91.1814126
1122,Maximillian Street,70802,30.4376944,-91.1814071
1118,Maximillian Street,70802,30.4377856,-91.1814095
1106,Maximillian Street,70802,30.4379168,-91.1814106
722,Myrtle Street,70802,30.4380261,-91.1825488
1108,Saint Joseph Street,70802,30.4378904,-91.1825271
1110,Saint Joseph Street,70802,30.4378210,-91.1825224
1112,Saint Joseph Street,70802,30.4377391,-91.1825832
1114,Saint Joseph Street,70802,30.4376762,-91.1825741
1120,Saint Joseph Street,70802,30.4375850,-91.1825397
1122,Saint Joseph Street,70802,30.4374708,-91.1825459
1126,Julia Street,70802,30.4373169,-91.1825377
725,Julia Street,70802,30.4373480,-91.1827291
715,Julia Street,70802,30.4374082,-91.1828263
713,Julia Street,70802,30.4374037,-91.1829365
707,Julia Street,70802,30.4374003,-91.1830781
1145,Julia Street,70802,30.4373103,-91.1832820
1129,Napoleon Street,70802,30.4374798,-91.1832711
1123,Napoleon Street,70802,30.4375772,-91.1832929
1111,Napoleon Street,70802,30.4379143,-91.1833041
704,Napoleon Street,70802,30.4380202,-91.1833332
706,Myrtle Street,70802,30.4380245,-91.1832392
708,Myrtle Street,70802,30.4379747,-91.1831696
714,Myrtle Street,70802,30.4379761,-91.1828725
616,Myrtle Street,70802,30.4380116,-91.1836821
618,Myrtle Street,70802,30.4380166,-91.1835975
614,Myrtle Street,70802,30.4380009,-91.1837697
1110,Napoleon Street,70802,30.4379053,-91.1836221
1130,Napoleon Street,70802,30.4375572,-91.1836232
1136,Napoleon Street,70802,30.4374853,-91.1836155
1140,Napoleon Street,70802,30.4374192,-91.1836156
1142,Napoleon Street,70802,30.4373733,-91.1836159
1144,Napoleon Street,70802,30.4373344,-91.1836057
1146,Julia Street,70802,30.4372874,-91.1836091
635,Julia Street,70802,30.4373611,-91.1838237
601,Julia Street,70802,30.4373650,-91.1843848
1129,Royal Street,70802,30.4375257,-91.1843960
1125,Royal Street,70802,30.4376196,-91.1841425
1123,Royal Street,70802,30.4377157,-91.1841455
1121,Royal Street,70802,30.4377112,-91.1843421
1127,Royal Street,70802,30.4376150,-91.1843388
606,Myrtle Street,70802,30.4379811,-91.1841658
608,Myrtle Street,70802,30.4379967,-91.1839976
610,Myrtle Street,70802,30.4379925,-91.1839264
606,Julia Street,70802,30.4369629,-91.1842155
612,Julia Street,70802,30.4369236,-91.1840746
622,Julia Street,70802,30.4369548,-91.1839631
644,Julia Street,70802,30.4369967,-91.1837938
654,Julia Street,70802,30.4369416,-91.1836222
651,Terrace Avenue,70802,30.4364122,-91.1836474
645,Terrace Avenue,70802,30.4364227,-91.1837780
635,Terrace Avenue,70802,30.4364347,-91.1839020
629,Terrace Avenue,70802,30.4364379,-91.1840459
619,Terrace Avenue,70802,30.4364271,-91.1841726
1237,Napoleon Street,70802,30.4367110,-91.1831634
724,Julia Street,70802,30.4370283,-91.1829914
1204,Saint Joseph Street,70802,30.4369161,-91.1826095
1210,Saint Joseph Street,70802,30.4367697,-91.1825434
1242,Saint Joseph Street,70802,30.4365833,-91.1825593
765,Terrace Avenue,70802,30.4364244,-91.1825013
806,Julia Street,70802,30.4370761,-91.1819814
810,Julia Street,70802,30.4370471,-91.1818875
814,Julia Street,70802,30.4370689,-91.1818104
816,Julia Street,70802,30.4370715,-91.1817444
818,Julia Street,70802,30.4370731,-91.1816793
820,Julia Street,70802,30.4370957,-91.1815986
1202,Maximillian Street,70802,30.4371218,-91.1813456
1210,Maximillian Street,70802,30.4369355,-91.1813776
1212,Maximillian Street,70802,30.4368332,-91.1813847
1214,Maximillian Street,70802,30.4367363,-91.1813513
835,Terrace Avenue,70802,30.4364214,-91.1812935
827,Terrace Avenue,70802,30.4365209,-91.1815570
817,Terrace Avenue,70802,30.4364093,-91.1820240
813,Terrace Avenue,70802,30.4364013,-91.1820922
1243,Saint Joseph Street,70802,30.4363994,-91.1821758
1245,Saint Joseph Street,70802,30.4366352,-91.1821164
1227,Saint Joseph Street,70802,30.4367718,-91.1821084
802,Julia Street,70802,30.4369071,-91.1821406
908,Julia Street,70802,30.4370614,-91.1807840
1205,Maximillian Street,70802,30.4370354,-91.1809540
1215,Maximillian Street,70802,30.4367797,-91.1809289
1217,Maximillian Street,70802,30.4366346,-91.1809764
901,Terrace Avenue,70802,30.4364559,-91.1809573
905,Terrace Avenue,70802,30.4364771,-91.1808044
1206,Thomas H Delpit Drive,70802,30.4371226,-91.1803811
1214,Thomas H Delpit Drive,70802,30.4369154,-91.1803565
1220,Thomas H Delpit Drive,70802,30.4366920,-91.1803465
1234,Thomas H Delpit Drive,70802,30.4364876,-91.1803542
220,North 19th Street,70806,30.4490029,-91.1691263
4743,Florida Boulevard,70806,30.4514769,-91.1418984
411,North 48th Street,70806,30.4525523,-91.1424855
575,North 48th Street,70806,30.4536058,-91.1418106
4512,Highland Road,70808,30.4016008,-91.1704332
447,3rd Street,70801,30.4511186,-91.1885233
1985,Longwood Drive,70808,30.4306162,-91.1428743
1500,Main Street,70802,30.4515697,-91.1724317
1305,Myrtle Street,70802,30.4385870,-91.1752359
15417,River Road,70810,30.3415610,-91.1409146
2250,Kleinert Avenue,70806,30.4374050,-91.1640164
950,East Washington Street,70802,30.4309184,-91.1758080
840,Saint Louis Street,70802,30.4400521,-91.1878849
813,Saint Philip Street,70802,30.4405166,-91.1879010
528,South 16th Street,70802,30.4429787,-91.1722750
1672,Blanche Court,70802,30.4422393,-91.1706831
603,South 16th Street,70802,30.4427720,-91.1719423
647,South 15th Street,70802,30.4419844,-91.1727208
574,South 15th Street,70802,30.4427178,-91.1732588
1608,Government Street,70802,30.4435821,-91.1717600
1510,Government Street,70802,30.4433624,-91.1725951
538,South 17th Street,70802,30.4430764,-91.1716645
618,South 16th Street,70802,30.4423824,-91.1722958
1740,Wisteria Street,70802,30.4428640,-91.1709757
524,South 16th Street,70802,30.4431149,-91.1722903
519,South 16th Street,70802,30.4433515,-91.1719739
1629,Blanche Court,70802,30.4425048,-91.1716494
1623,Blanche Court,70802,30.4425032,-91.1715585
1728,Wisteria Street,70802,30.4428426,-91.1711613
562,South 17th Street,70802,30.4426648,-91.1716531
1633,Oleander Street,70802,30.4419920,-91.1712823
634,South 16th Street,70802,30.4421588,-91.1722965
1717,Oleander Street,70802,30.4419804,-91.1707720
1650,Blanche Court,70802,30.4422499,-91.1711650
1642,Blanche Court,70802,30.4422456,-91.1713577
1630,Blanche Court,70802,30.4422413,-91.1715505
1648,Blanche Court,70802,30.4422482,-91.1712587
1676,Blanche Court,70802,30.4422363,-91.1707783
1706,Government Street,70802,30.4435842,-91.1711694
514,South 16th Street,70802,30.4432770,-91.1723305
1611,Oleander Street,70802,30.4419703,-91.1717330
625,South 15th Street,70802,30.4424060,-91.1726966
520,South 16th Street,70802,30.4431836,-91.1723266
525,South 17th Street,70802,30.4432876,-91.1713221
508,South 16th Street,70802,30.4434330,-91.1723201
546,South 17th Street,70802,30.4429619,-91.1716594
541,South 16th Street,70802,30.4429665,-91.1719286
628,South 16th Street,70802,30.4422521,-91.1722993
1705,Oleander Street,70802,30.4419956,-91.1710393
1675,Blanche Court,70802,30.4425723,-91.1707011
1639,Oleander Street,70802,30.4420007,-91.1711878
1666,Blanche Court,70802,30.4422334,-91.1708758
1654,Blanche Court,70802,30.4422576,-91.1710637
638,South 16th Street,70802,30.4420936,-91.1723005
1734,Wisteria Street,70802,30.4428441,-91.1710693
624,South 16th Street,70802,30.4423146,-91.1723205
608,South 16th Street,70802,30.4425337,-91.1723042
1660,Blanche Court,70802,30.4422600,-91.1709762
1623,Oleander Street,70802,30.4419810,-91.1714998
1636,Blanche Court,70802,30.4422456,-91.1714504
526,South 16th Street,70802,30.4430658,-91.1722645
1629,Oleander Street,70802,30.4419731,-91.1713808
576,South 15th Street,70802,30.4427130,-91.1734055
510,South 16th Street,70802,30.4433506,-91.1723070
1713,Oleander Street,70802,30.4419872,-91.1708802
1723,Oleander Street,70802,30.4420105,-91.1706750
1709,Oleander Street,70802,30.4419877,-91.1709696
1724,Wisteria Street,70802,30.4428368,-91.1713471
3601,Thomas Road,70807,30.5634971,-91.1616680
2301,Thomas Road,70807,30.5609666,-91.1694464
12891,Coursey Boulevard,70816,30.4106149,-91.0361965
12301,Coursey Boulevard,70816,30.4114566,-91.0419513
12177,Coursey Boulevard,70816,30.4119788,-91.0438752
4101,Stumberg Lane,70817,30.4141861,-91.0346773
12167,Coursey Boulevard,70816,30.4119539,-91.0441493
12147,Coursey Boulevard,70816,30.4120158,-91.0444393
12137,Coursey Boulevard,70816,30.4119789,-91.0448654
12117,Coursey Boulevard,70816,30.4120134,-91.0452159
12055,Coursey Boulevard,70816,30.4120058,-91.0454462
12045,Coursey Boulevard,70816,30.4119842,-91.0458179
12035,Coursey Boulevard,70816,30.4120692,-91.0460294
12021,Coursey Boulevard,70816,30.4120555,-91.0462638
12015,Coursey Boulevard,70816,30.4118983,-91.0466310
12005,Coursey Boulevard,70816,30.4117731,-91.0467498
11953,Coursey Boulevard,70816,30.4116883,-91.0472830
11943,Coursey Boulevard,70816,30.4115838,-91.0476727
11923,Coursey Boulevard,70816,30.4114851,-91.0478880
11913,Coursey Boulevard,70816,30.4114467,-91.0480448
11903,Coursey Boulevard,70816,30.4115505,-91.0483814
11861,Coursey Boulevard,70816,30.4115667,-91.0486682
11851,Coursey Boulevard,70816,30.4115621,-91.0488883
11841,Coursey Boulevard,70816,30.4114829,-91.0491016
11831,Coursey Boulevard,70816,30.4115560,-91.0493486
11821,Coursey Boulevard,70816,30.4114575,-91.0496947
11811,Coursey Boulevard,70816,30.4115579,-91.0498861
11777,Coursey Boulevard,70816,30.4115230,-91.0502602
11677,Coursey Boulevard,70816,30.4114244,-91.0521295
8223,Airline Highway,70815,30.4624967,-91.1019185
4747,South Sherwood Forest Boulevard,70816,30.4106599,-91.0508984
11740,Coursey Boulevard,70816,30.4107846,-91.0505104
11748,Coursey Boulevard,70816,30.4107093,-91.0501929
11872,Coursey Boulevard,70816,30.4106661,-91.0485221
1904,Coursey Boulevard,70816,30.4106812,-91.0483253
11914,Coursey Boulevard,70816,30.4106745,-91.0481027
4105,Perkins Road,70808,30.4190111,-91.1473454
4105,Perkins Road,70808,30.4188225,-91.1475256
3111,Valley Street,70808,30.4197380,-91.1473669
4427,Perkins Road,70808,30.4173801,-91.1447125
4205,Perkins Road,70808,30.4184667,-91.1463583
208,Staring Lane,70810,30.3700878,-91.1217323
566,Lobdell Avenue,70806,30.4441029,-91.1113281
5790,Parkview Church Road,70816,30.3974672,-91.0502600
11455,Airline Highway,70816,30.3990251,-91.0531876
10011,Dawnadele Avenue,70809,30.4194219,-91.0727223
1165,Green Oak Drive,70815,30.4599201,-91.0643793
9352,Interline Avenue,70809,30.4221102,-91.0808847
7380,Exchange Place,70806,30.4637654,-91.1141560
4902,Airline Highway,70805,30.5081975,-91.1409871
5068,Airline Highway,70805,30.5079667,-91.1404036
5180,Airline Highway,70805,30.5074504,-91.1390825
5429,Airline Highway,70811,30.5092437,-91.1364112
5334,Airline Highway,70805,30.5067087,-91.1372316
5440,Airline Highway,70805,30.5060020,-91.1364061
5460,Airline Highway,70805,30.5058141,-91.1357660
6015,Mc Clelland Drive,70805,30.5050434,-91.1358640
5959,Mc Clelland Drive,70805,30.5046419,-91.1358299
5640,Airline Highway,70805,30.5052253,-91.1350546
5930,Mc Clelland Drive,70805,30.5047141,-91.1350772
5810,Airline Highway,70805,30.5037873,-91.1337572
5910,Mc Clelland Drive,70805,30.5042569,-91.1351653
5880,Mc Clelland Drive,70805,30.5040361,-91.1351435
5846,Mc Clelland Drive,70805,30.5037157,-91.1351141
5820,Mc Clelland Drive,70805,30.5033620,-91.1350843
5788,Mc Clelland Drive,70805,30.5031830,-91.1350642
5635,Greenwell Street,70805,30.5025592,-91.1344895
5655,Greenwell Street,70805,30.5026808,-91.1338566
5888,Airline Highway,70805,30.5026904,-91.1324807
5848,Airline Highway,70805,30.5033227,-91.1330880
5780,Mc Clelland Drive,70805,30.5029894,-91.1350888
5712,Mc Clelland Drive,70805,30.5028212,-91.1348938
5243,Greenwell Street,70805,30.5024229,-91.1376517
5333,Greenwell Street,70805,30.5024818,-91.1368280
5345,Greenwell Street,70805,30.5024497,-91.1364899
5455,Greenwell Street,70805,30.5024438,-91.1361790
5465,Greenwell Street,70805,30.5023902,-91.1356053
5721,Mc Clelland Drive,70805,30.5025854,-91.1356780
5765,Mc Clelland Drive,70805,30.5028447,-91.1356653
5811,Mc Clelland Drive,70805,30.5034382,-91.1361121
5857,Mc Clelland Drive,70805,30.5037570,-91.1357766
5905,Mc Clelland Drive,70805,30.5042659,-91.1357044
5211,Tolbert Drive,70805,30.5041773,-91.1383430
5223,Tolbert Drive,70805,30.5041741,-91.1381320
5245,Tolbert Drive,70805,30.5041690,-91.1379316
5267,Tolbert Drive,70805,30.5041792,-91.1377656
5309,Tolbert Drive,70805,30.5041928,-91.1373733
5349,Tolbert Drive,70805,30.5041876,-91.1370137
5389,Tolbert Drive,70805,30.5042074,-91.1366256
5413,Tolbert Drive,70805,30.5042126,-91.1364463
5210,Tolbert Drive,70805,30.5037428,-91.1383073
5222,Tolbert Drive,70805,30.5037563,-91.1380836
5244,Tolbert Drive,70805,30.5037395,-91.1378944
5266,Tolbert Drive,70805,30.5037492,-91.1376849
5288,Tolbert Drive,70805,30.5037750,-91.1374881
5312,Tolbert Drive,70805,30.5037770,-91.1372910
5324,Tolbert Drive,70805,30.5037881,-91.1370955
5346,Tolbert Drive,70805,30.5037722,-91.1369056
5368,Tolbert Drive,70805,30.5037983,-91.1367088
5414,Tolbert Drive,70805,30.5038103,-91.1363203
5426,Tolbert Drive,70805,30.5038178,-91.1361248
5390,Tolbert Drive,70805,30.5038006,-91.1365135
6012,North Foster Drive,70805,30.5050088,-91.1408190
5889,Airline Highway,70805,30.5028520,-91.1307527
6025,Greenwell Street,70805,30.5027454,-91.1299899
6055,Greenwell Street,70805,30.5028497,-91.1294852
5955,Airline Highway,70805,30.5018706,-91.1300885
5910,Airline Highway,70805,30.5018673,-91.1326776
5906,Airline Highway,70805,30.5019374,-91.1323010
5900,Airline Highway,70805,30.5020574,-91.1317650
5946,Airline Highway,70805,30.5014997,-91.1313524
6030,Airline Highway,70805,30.5008233,-91.1308670
5627,Hollywood-Greenwell Crossover,70805,30.5010579,-91.1340690
5687,Hollywood-Greenwell Crossover,70805,30.5014509,-91.1337996
5656,Autumn Blossom Avenue,70805,30.5004464,-91.1349841
5509,Hollywood-Greenwell Crossover,70805,30.5001312,-91.1349014
9820,Old Hammond Highway,70816,30.4312674,-91.0793621
9830,Old Hammond Highway,70816,30.4310184,-91.0778862
9745,Airline Highway,70816,30.4306208,-91.0792770
9755,Airline Highway,70816,30.4302522,-91.0788836
9945,Airline Highway,70816,30.4290517,-91.0778909
9977,Airline Highway,70816,30.4284856,-91.0775636
9901,Gwenadelle Drive,70816,30.4286357,-91.0768772
9999,Gwenadelle Drive,70816,30.4279982,-91.0759745
10045,Gwenadelle Drive,70816,30.4269685,-91.0759945
10111,Gwenadelle Drive,70816,30.4270324,-91.0750239
10333,Plaza Americana Drive,70816,30.4272436,-91.0732437
10352,Plaza Americana Drive,70816,30.4258894,-91.0719758
10424,Plaza Americana Drive,70816,30.4264345,-91.0707297
10434,Plaza Americana Drive,70816,30.4265160,-91.0702090
10415,Plaza Americana Drive,70816,30.4273131,-91.0714305
10525,Plaza Americana Drive,70816,30.4273137,-91.0697129
10611,Plaza Americana Drive,70816,30.4274756,-91.0686065
10621,Plaza Americana Drive,70816,30.4276975,-91.0681580
9970,Airline Highway,70809,30.4264413,-91.0785820
5435,Government Street,70806,30.4450731,-91.1337248
2978,Government Street,70806,30.4437856,-91.1582489
2678,Government Street,70806,30.4437022,-91.1605593
3808,Government Street,70806,30.4440291,-91.1503852
9376,Greenwell Springs Road,70814,30.4845142,-91.0846605
13730,Millerville Greens Boulevard,70816,30.4400428,-91.0250759
13770,Millerville Greens Boulevard,70816,30.4403867,-91.0249864
13636,Millerville Greens Boulevard,70816,30.4396170,-91.0252173
13606,Millerville Greens Boulevard,70816,30.4389164,-91.0252201
14522,Chimneywood Avenue,70816,30.4364762,-91.0235931
14532,Chimneywood Avenue,70816,30.4364493,-91.0233312
14532,Chimneywood Avenue,70816,30.4364314,-91.0230717
14614,Chimneywood Avenue,70816,30.4363887,-91.0227556
14624,Chimneywood Avenue,70816,30.4362576,-91.0225440
14634,Chimneywood Avenue,70816,30.4361442,-91.0222409
14643,Chimneywood Avenue,70816,30.4365769,-91.0219481
14633,Chimneywood Avenue,70816,30.4367277,-91.0222268
14623,Chimneywood Avenue,70816,30.4368202,-91.0224934
14613,Chimneywood Avenue,70816,30.4369035,-91.0228102
14541,Chimneywood Avenue,70816,30.4369305,-91.0230886
14531,Chimneywood Avenue,70816,30.4369607,-91.0233051
14521,Chimneywood Avenue,70816,30.4369740,-91.0235621
1822,Palmwood Drive,70816,30.4367528,-91.0217218
1812,Palmwood Drive,70816,30.4369582,-91.0215839
1817,Stonewood Drive,70816,30.4370874,-91.0212443
9681,Airline Highway,70815,30.4326471,-91.0802665
505,East Boyd Drive,70808,30.4003381,-91.1752567
5909,Creek Centre Drive,70820,30.3889092,-91.1591259
5919,Creek Centre Drive,70820,30.3885727,-91.1589808
5455,Airline Highway,70811,30.5071940,-91.1358905
6006,Plank Road,70805-1324,30.5047928,-91.1507353
4005,Nicholson Drive,70808,30.4004232,-91.1788813
4154,Burbank Drive,70808,30.4021495,-91.1774873
11244,Florida Boulevard,70815,30.4575624,-91.0589538
13520,Florida Boulevard,70819,30.4621578,-91.0346711
12102,Florida Boulevard,70815,30.4597460,-91.0486372
2000,Quail Drive,70808,30.3985992,-91.1272738
2806,Government Street,70806,30.4437688,-91.1597383
2008,Perkins Road,70808,30.4311711,-91.1619136
12333,Jefferson Highway,70816,30.3952623,-91.0457424
12245,Jefferson Highway,70816,30.3953798,-91.0465670
5959,South Sherwood Forest Boulevard,70816,30.4009626,-91.0504416
5841,South Sherwood Forest Boulevard,70816,30.4032281,-91.0516737
5721,South Sherwood Forest Boulevard,70816,30.4034481,-91.0515599
5711,South Sherwood Forest Boulevard,70816,30.4037153,-91.0515776
5627,South Sherwood Forest Boulevard,70816,30.4041512,-91.0513657
5525,South Sherwood Forest Boulevard,70816,30.4047571,-91.0512614
5515,South Sherwood Forest Boulevard,70816,30.4050908,-91.0511607
5235,South Sherwood Forest Boulevard,70816,30.4070839,-91.0510125
5151,South Sherwood Forest Boulevard,70816,30.4078396,-91.0508205
5055,South Sherwood Forest Boulevard,70816,30.4083767,-91.0509823
4545,South Sherwood Forest Boulevard,70816,30.4127744,-91.0511879
4343,South Sherwood Forest Boulevard,70816,30.4139895,-91.0509268
4137,South Sherwood Forest Boulevard,70816,30.4153035,-91.0510809
4111,South Sherwood Forest Boulevard,70816,30.4157304,-91.0510791
3999,South Sherwood Forest Boulevard,70816,30.4162514,-91.0511128
3939,South Sherwood Forest Boulevard,70816,30.4165175,-91.0511224
3907,South Sherwood Forest Boulevard,70816,30.4170958,-91.0511954
3851,South Sherwood Forest Boulevard,70816,30.4180226,-91.0510919
3803,South Sherwood Forest Boulevard,70816,30.4186636,-91.0510564
3535,South Sherwood Forest Boulevard,70816,30.4209308,-91.0507254
3425,South Sherwood Forest Boulevard,70816,30.4217371,-91.0511932
3425,South Sherwood Forest Boulevard,70816,30.4216931,-91.0508652
3203,South Sherwood Forest Boulevard,70816,30.4238430,-91.0508933
3121,South Sherwood Forest Boulevard,70816,30.4243872,-91.0511018
3111,South Sherwood Forest Boulevard,70816,30.4247232,-91.0510536
3049,South Sherwood Forest Boulevard,70816,30.4249292,-91.0512582
2925,South Sherwood Forest Boulevard,70816,30.4264213,-91.0523953
2915,South Sherwood Forest Boulevard,70816,30.4266786,-91.0525097
2843,South Sherwood Forest Boulevard,70816,30.4267277,-91.0529120
2525,South Sherwood Forest Boulevard,70816,30.4282895,-91.0554757
2313,South Sherwood Forest Boulevard,70816,30.4314371,-91.0565718
11413,Reulet Avenue,70816,30.4320774,-91.0566913
11442,North Harrells Ferry Road,70816,30.4324709,-91.0566179
2205,South Sherwood Forest Boulevard,70816,30.4324396,-91.0570600
2205,South Sherwood Forest Boulevard,70816,30.4324541,-91.0569826
2181,South Sherwood Forest Boulevard,70816,30.4331588,-91.0569878
1939,South Sherwood Forest Boulevard,70816,30.4349953,-91.0570270
1654,North Sherwood Forest Drive,70815,30.4639485,-91.0576729
11297,Florida Boulevard,70815,30.4594021,-91.0588914
1850,South Sherwood Forest Boulevard,70816,30.4356387,-91.0577699
2192,South Sherwood Forest Boulevard,70816,30.4330713,-91.0577865
2220,South Sherwood Forest Boulevard,70816,30.4321389,-91.0577465
2320,South Sherwood Forest Boulevard,70816,30.4319019,-91.0575932
2340,South Sherwood Forest Boulevard,70816,30.4313518,-91.0574452
2340,South Sherwood Forest Boulevard,70816,30.4310839,-91.0573689
2510,South Sherwood Forest Boulevard,70816,30.4280106,-91.0562590
2510,South Sherwood Forest Boulevard,70816,30.4279843,-91.0563638
2648,South Sherwood Forest Boulevard,70816,30.4270928,-91.0556986
2698,South Sherwood Forest Boulevard,70816,30.4268495,-91.0551738
3120,South Sherwood Forest Boulevard,70816,30.4241806,-91.0520439
3202,South Sherwood Forest Boulevard,70816,30.4237991,-91.0523226
3332,South Sherwood Forest Boulevard,70816,30.4226755,-91.0525759
3232,South Sherwood Forest Boulevard,70816,30.4232551,-91.0527033
3030,South Sherwood Forest Boulevard,70816,30.4251128,-91.0525219
3444,South Sherwood Forest Boulevard,70816,30.4219469,-91.0520242
3524,South Sherwood Forest Boulevard,70816,30.4213881,-91.0520747
3554,South Sherwood Forest Boulevard,70816,30.4206044,-91.0521352
3888,South Sherwood Forest Boulevard,70816,30.4187349,-91.0521705
4150,South Sherwood Forest Boulevard,70816,30.4154523,-91.0528353
4314,South Sherwood Forest Boulevard,70816,30.4145406,-91.0521626
4334,South Sherwood Forest Boulevard,70816,30.4134802,-91.0521552
4324,South Sherwood Forest Boulevard,70816,30.4140120,-91.0521607
5871,South Sherwood Forest Boulevard,70816,30.4026093,-91.0509913
12228,Parklawn Avenue,70816,30.4043650,-91.0450463
9679,Airline Highway,70815,30.4321297,-91.0799588
9679,Airline Highway,70815,30.4321054,-91.0802927
9671,Airline Highway,70815,30.4332823,-91.0811053
9611,Airline Highway,70815,30.4338233,-91.0816113
9611,Airline Highway,70815,30.4338347,-91.0813524
9611,Airline Highway,70815,30.4342915,-91.0814321
9603,Airline Highway,70815,30.4346020,-91.0819817
9555,Airline Highway,70815,30.4363003,-91.0829787
9545,Airline Highway,70815,30.4367918,-91.0835494
9535,Airline Highway,70815,30.4374438,-91.0841540
9525,Airline Highway,70815,30.4376630,-91.0842386
9449,Airline Highway,70815,30.4387667,-91.0849901
9325,Airline Highway,70815,30.4397527,-91.0852929
9325,Airline Highway,70815,30.4402073,-91.0856871
9245,Airline Highway,70815,30.4406810,-91.0864792
9611,Airline Highway,70815,30.4341552,-91.0814228
9535,Airline Highway,70815,30.4374394,-91.0837372
8455,Airline Highway,70815,30.4582077,-91.0988343
8441,Airline Highway,70815,30.4583223,-91.0991308
8431,Airline Highway,70815,30.4586976,-91.0990389
8383,Airline Highway,70815,30.4593516,-91.0999365
8353,Airline Highway,70815,30.4600851,-91.1000340
8329,Airline Highway,70815,30.4605821,-91.1005344
8287,Airline Highway,70815,30.4615897,-91.1014870
8271,Airline Highway,70815,30.4621868,-91.1018035
8181,Airline Highway,70815,30.4640565,-91.1008965
8213,Airline Highway,70815,30.4630201,-91.1023703
8183,Airline Highway,70815,30.4634572,-91.1025668
8151,Airline Highway,70815,30.4641008,-91.1027667
8067,Airline Highway,70815,30.4652782,-91.1032838
8031,Airline Highway,70815,30.4664712,-91.1044353
8065,Tom Drive,70815,30.4675972,-91.1046692
7979,Airline Highway,70815,30.4669269,-91.1051436
7941,Airline Highway,70815,30.4671834,-91.1054233
7965,Airline Highway,70815,30.4673135,-91.1055222
7945,Airline Highway,70815,30.4676884,-91.1056617
7855,Airline Highway,70815,30.4686513,-91.1062737
7835,Airline Highway,70815,30.4696591,-91.1059929
7821,Airline Highway,70815,30.4697119,-91.1070271
7811,Airline Highway,70815,30.4699522,-91.1072840
7777,Airline Highway,70815,30.4703590,-91.1076216
7785,Airline Highway,70815,30.4701839,-91.1073449
7725,Airline Highway,70815,30.4708004,-91.1078898
7695,Airline Highway,70814,30.4717408,-91.1085857
7665,Airline Highway,70814,30.4735687,-91.1099873
7659,Airline Highway,70814,30.4740969,-91.1099228
7657,Airline Highway,70814,30.4745737,-91.1104402
7655,Airline Highway,70814,30.4748014,-91.1105317
7979,Airline Highway,70815,30.4668493,-91.1052822
8125,Airline Highway,70815,30.4643758,-91.1034267
8317,Airline Highway,70815,30.4610028,-91.1010404
8367,Airline Highway,70815,30.4601203,-91.0994691
8405,Airline Highway,70815,30.4591918,-91.0993766
8423,Airline Highway,70815,30.4587633,-91.0993953
7375,Airline Highway,70805,30.4794196,-91.1143639
7361,Airline Highway,70805,30.4800228,-91.1138054
7315,Airline Highway,70805,30.4810244,-91.1153561
7269,Airline Highway,70805,30.4820737,-91.1160585
7221,Airline Highway,70812,30.4832141,-91.1165349
7225,Airline Highway,70812,30.4828082,-91.1161352
7171,Airline Highway,70812,30.4837295,-91.1171928
7111,Airline Highway,70805,30.4848286,-91.1180188
7111,Airline Highway,70805,30.4847363,-91.1181101
7075,Airline Highway,70812,30.4855650,-91.1183217
7035,Airline Highway,70812,30.4860155,-91.1186352
7015,Airline Highway,70812,30.4865500,-91.1192282
7883,Airline Highway,70805,30.4890456,-91.1209029
6895,Airline Highway,70805,30.4887795,-91.1207489
6983,Airline Highway,70812,30.4876134,-91.1198552
6755,Airline Highway,70805,30.4905954,-91.1220661
6637,Airline Highway,70805,30.4922922,-91.1230520
6545,Airline Highway,70805,30.4938955,-91.1239761
6487,Airline Highway,70805,30.4944546,-91.1249812
6413,Airline Highway,70805,30.4953937,-91.1255059
6325,Airline Highway,70805,30.4968924,-91.1263543
6305,Airline Highway,70805,30.4975637,-91.1273008
6215,Airline Highway,70805,30.4983515,-91.1278118
6165,Airline Highway,70805,30.4988611,-91.1280382
6153,Airline Highway,70805,30.4991211,-91.1281721
5755,Airline Highway,70812,30.5047002,-91.1327731
5681,Airline Highway,70812,30.5049327,-91.1330433
5663,Airline Highway,70812,30.5051346,-91.1333281
5645,Airline Highway,70812,30.5052747,-91.1331991
5637,Airline Highway,70812,30.5053662,-91.1336308
5521,Airline Highway,70812,30.5058780,-91.1338516
5505,Airline Highway,70812,30.5065108,-91.1349313
5445,Airline Highway,70811,30.5071389,-91.1361270
5439,Airline Highway,70812,30.5081782,-91.1365339
5255,Airline Highway,70811,30.5087007,-91.1385030
5035,Airline Highway,70811,30.5089745,-91.1402603
4919,Airline Highway,70811,30.5090427,-91.1409617
5265,Airline Highway,70811,30.5083022,-91.1381356
4887,Airline Highway,70811,30.5092394,-91.1417452
4887,Airline Highway,70811,30.5093142,-91.1417223
4775,Airline Highway,70811,30.5095909,-91.1427863
4763,Airline Highway,70811,30.5096468,-91.1433166
4743,Airline Highway,70811,30.5097107,-91.1435095
4719,Airline Highway,70811,30.5097868,-91.1439536
1447,Airline Highway,70805,30.5086451,-91.1773790
1468,Monte Sano Avenue,70805,30.5087837,-91.1770312
1549,Airline Highway,70805,30.5086714,-91.1764041
4520,Airline Highway,70805,30.5088531,-91.1453346
4650,Airline Highway,70805,30.5087713,-91.1439879
4650,Airline Highway,70805,30.5088962,-91.1440133
4718,Airline Highway,70805,30.5085212,-91.1433813
4748,Airline Highway,70805,30.5085523,-91.1431460
4750,Airline Highway,70805,30.5084738,-91.1423372
4886,Airline Highway,70805,30.5082928,-91.1416753
4474,Airline Highway,70805,30.5088641,-91.1463385
4388,Airline Highway,70805,30.5082945,-91.1471795
4760,Airline Highway,70805,30.5082224,-91.1420050
6074,Airline Highway,70805,30.5000420,-91.1302868
6120,Airline Highway,70805,30.4997256,-91.1300694
6160,Airline Highway,70805,30.4993738,-91.1296874
6180,Airline Highway,70805,30.4985390,-91.1293693
6244,Airline Highway,70805,30.4982105,-91.1289265
6276,Airline Highway,70805,30.4977647,-91.1285379
6288,Airline Highway,70805,30.4973790,-91.1282657
6288,Airline Highway,70805,30.4974147,-91.1280979
6500,Airline Highway,70805,30.4939966,-91.1260371
6556,Airline Highway,70805,30.4930676,-91.1251479
6556,Airline Highway,70805,30.4930945,-91.1254232
6600,Airline Highway,70805,30.4923661,-91.1247043
6632,Airline Highway,70805,30.4920351,-91.1248466
6632,Airline Highway,70805,30.4918332,-91.1245249
6764,Airline Highway,70805,30.4903724,-91.1233171
6766,Airline Highway,70805,30.4900885,-91.1231298
6866,Airline Highway,70805,30.4896231,-91.1228787
6878,Airline Highway,70805,30.4892875,-91.1226786
6800,Airline Highway,70805,30.4898637,-91.1236104
6454,Airline Highway,70805,30.4945768,-91.1262761
4300,East Brookstown Drive,70805,30.4960623,-91.1282050
6952,Airline Highway,70805,30.4872479,-91.1213282
7026,Airline Highway,70805,30.4861806,-91.1203986
7046,Airline Highway,70805,30.4857104,-91.1198863
7174,Airline Highway,70805,30.4837851,-91.1185008
7174,Airline Highway,70805,30.4836702,-91.1187679
7234,Airline Highway,70805,30.4820194,-91.1173321
7234,Airline Highway,70805,30.4819835,-91.1174033
7300,Airline Highway,70805,30.4809834,-91.1168509
7344,Airline Highway,70805,30.4802889,-91.1161015
7201,Winbourne Avenue,70805,30.4801650,-91.1168241
7682,Airline Highway,70814,30.4736817,-91.1115560
7650,Airline Highway,70814,30.4731849,-91.1111079
7664,Airline Highway,70805,30.4726179,-91.1106587
7676,Airline Highway,70805,30.4715665,-91.1103295
7700,Airline Highway,70806,30.4706034,-91.1097702
7808,Airline Highway,70806,30.4690582,-91.1091184
7600,Airline Highway,70814,30.4743275,-91.1119429
7186,Airline Highway,70805,30.4832137,-91.1186183
6996,Airline Highway,70805,30.4867050,-91.1206155
2237,South Acadian Thruway,70808,30.4267608,-91.1504431
2085,South Acadian Thruway,70808,30.4287526,-91.1520000
1737,South Acadian Thruway,70808,30.4329378,-91.1522911
1657,South Acadian Thruway,70808,30.4334326,-91.1520877
1635,South Acadian Thruway,70808,30.4337269,-91.1521136
1613,South Acadian Thruway,70808,30.4340605,-91.1520303
1589,South Acadian Thruway,70808,30.4343865,-91.1523097
1551,South Acadian Thruway,70808,30.4347087,-91.1522903
1513,South Acadian Thruway,70808,30.4350678,-91.1521480
777,South Acadian Thruway,70806,30.4414137,-91.1524705
813,South Acadian Thruway,70806,30.4410911,-91.1522959
839,South Acadian Thruway,70806,30.4407604,-91.1522119
825,South Acadian Thruway,70806,30.4408943,-91.1522389
869,South Acadian Thruway,70806,30.4404162,-91.1521155
3609,Clay Cut Road,70806,30.4402628,-91.1519927
759,South Acadian Thruway,70806,30.4416876,-91.1525792
729,South Acadian Thruway,70806,30.4418245,-91.1526525
707,South Acadian Thruway,70806,30.4419553,-91.1527166
701,South Acadian Thruway,70806,30.4421322,-91.1527559
3515,Capital Heights Avenue,70806,30.4424480,-91.1528647
635,South Acadian Thruway,70806,30.4427881,-91.1531011
625,South Acadian Thruway,70806,30.4430158,-91.1532274
363,South Acadian Thruway,70806,30.4452720,-91.1544157
339,South Acadian Thruway,70806,30.4455198,-91.1544476
337,South Acadian Thruway,70806,30.4456470,-91.1544595
335,South Acadian Thruway,70806,30.4457405,-91.1544612
331,South Acadian Thruway,70806,30.4458429,-91.1544630
3408,Wilshire Drive,70806,30.4460828,-91.1545054
323,South Acadian Thruway,70806,30.4459710,-91.1544825
3445,Wilshire Drive,70806,30.4463568,-91.1544546
253,South Acadian Thruway,70806,30.4464728,-91.1544972
235,South Acadian Thruway,70806,30.4466488,-91.1544572
223,South Acadian Thruway,70806,30.4468533,-91.1544763
213,South Acadian Thruway,70806,30.4471189,-91.1544771
3434,North Boulevard,70806,30.4475006,-91.1542710
420,North Acadian Thruway,70806,30.4518866,-91.1544093
430,North Acadian Thruway,70806,30.4522607,-91.1545881
3420,Main Street,70806,30.4526213,-91.1546165
3450,North Street,70806,30.4532380,-91.1544795
540,North Acadian Thruway,70806,30.4531486,-91.1546167
648,North Acadian Thruway East,70802,30.4542560,-91.1548302
656,North Acadian Thruway East,70802,30.4543467,-91.1548010
664,North Acadian Thruway East,70802,30.4544437,-91.1547761
724,North Acadian Thruway East,70802,30.4549218,-91.1548264
730,North Acadian Thruway East,70802,30.4550153,-91.1548145
762,North Acadian Thruway East,70802,30.4554034,-91.1548431
765,North Acadian Thruway East,70802,30.4554886,-91.1552643
808,North Acadian Thruway East,70802,30.4558969,-91.1548881
854,North Acadian Thruway East,70802,30.4563078,-91.1548961
928,North Acadian Thruway East,70802,30.4568581,-91.1549156
1038,North Acadian Thruway East,70802,30.4574853,-91.1548901
1048,North Acadian Thruway East,70802,30.4576215,-91.1549568
1083,North Acadian Thruway East,70802,30.4578987,-91.1553342
1071,North Acadian Thruway East,70802,30.4577971,-91.1553768
3352,Zion Street,70802,30.4578717,-91.1554996
1072,North Acadian Thruway East,70802,30.4578141,-91.1549613
1084,North Acadian Thruway East,70802,30.4579052,-91.1549910
1100,North Acadian Thruway East,70802,30.4580994,-91.1549012
3375,Zion Street,70802,30.4580861,-91.1553895
1111,North Acadian Thruway East,70802,30.4582705,-91.1553913
1119,North Acadian Thruway East,70802,30.4583593,-91.1553675
1163,North Acadian Thruway East,70802,30.4587607,-91.1553917
1169,North Acadian Thruway East,70802,30.4588526,-91.1554149
1177,North Acadian Thruway East,70802,30.4589567,-91.1553987
1185,North Acadian Thruway East,70802,30.4590420,-91.1554144
1193,North Acadian Thruway East,70802,30.4591394,-91.1554378
1197,North Acadian Thruway East,70802,30.4592386,-91.1554152
1209,North Acadian Thruway East,70802,30.4594210,-91.1554439
1170,North Acadian Thruway East,70802,30.4591176,-91.1549506
1162,North Acadian Thruway East,70802,30.4589280,-91.1550399
1305,North Acadian Thruway East,70802,30.4604380,-91.1554771
3415,Cain Street,70802,30.4605022,-91.1551036
1431,North Acadian Thruway East,70802,30.4612908,-91.1555141
1545,North Acadian Thruway East,70802,30.4621033,-91.1555369
1533,North Acadian Thruway East,70802,30.4619968,-91.1555150
1479,North Acadian Thruway East,70802,30.4616925,-91.1555199
1408,North Acadian Thruway East,70802,30.4611389,-91.1551063
1420,North Acadian Thruway East,70802,30.4612429,-91.1551211
1432,North Acadian Thruway East,70802,30.4613365,-91.1551178
1444,North Acadian Thruway East,70802,30.4614399,-91.1550750
1510,North Acadian Thruway East,70802,30.4618133,-91.1551457
1534,North Acadian Thruway East,70802,30.4620020,-91.1550999
1546,North Acadian Thruway East,70802,30.4622076,-91.1551410
1570,North Acadian Thruway East,70802,30.4623009,-91.1551391
1582,North Acadian Thruway East,70802,30.4623925,-91.1551258
1755,North Acadian Thruway East,70802,30.4641237,-91.1556059
1723,North Acadian Thruway East,70802,30.4637541,-91.1555858
1715,North Acadian Thruway East,70802,30.4636515,-91.1556021
1701,North Acadian Thruway East,70802,30.4634582,-91.1555718
1659,North Acadian Thruway East,70802,30.4633543,-91.1555924
1651,North Acadian Thruway East,70802,30.4631762,-91.1556006
1643,North Acadian Thruway East,70802,30.4630704,-91.1555853
1627,North Acadian Thruway East,70802,30.4628819,-91.1555854
1625,North Acadian Thruway East,70802,30.4627823,-91.1555820
1615,North Acadian Thruway East,70802,30.4626679,-91.1555427
3334,Washington Avenue,70802,30.4649361,-91.1554316
3406,Washington Avenue,70802,30.4649680,-91.1550611
1913,North Acadian Thruway East,70802,30.4654095,-91.1555254
1923,North Acadian Thruway East,70802,30.4655745,-91.1555367
1933,North Acadian Thruway East,70802,30.4657352,-91.1556068
1943,North Acadian Thruway East,70802,30.4659229,-91.1555239
1953,North Acadian Thruway East,70802,30.4660885,-91.1555291
2005,North Acadian Thruway East,70802,30.4664287,-91.1555434
2015,North Acadian Thruway East,70802,30.4665830,-91.1555510
2035,North Acadian Thruway East,70802,30.4667362,-91.1556087
3406,Fairfields Avenue,70802,30.4668827,-91.1551863
3403,Jackson Avenue,70802,30.4662982,-91.1551472
2406,Jackson Avenue,70802,30.4659040,-91.1551491
3405,Washington Avenue,70802,30.4653242,-91.1551268
1903,North Acadian Thruway East,70802,30.4652676,-91.1554951
2502,North Acadian Thruway East,70805,30.4705543,-91.1552028
3333,Choctaw Drive,70805,30.4705186,-91.1559094
2526,North Acadian Thruway East,70805,30.4709105,-91.1552826
2574,North Acadian Thruway East,70805,30.4712648,-91.1553458
2906,Government Street,70806,30.4437741,-91.1588634
2223,North Acadian Thruway,70802,30.4681945,-91.1567066
2166,North Acadian Thruway,70802,30.4675957,-91.1565849
3373,Florida Street,70806,30.4507696,-91.1552935
8419,Florida Boulevard,70806,30.4532005,-91.0987909
8618,Florida Boulevard,70815,30.4512954,-91.0937529
8676,Florida Boulevard,70815,30.4515622,-91.0936579
8676,Florida Boulevard,70815,30.4516458,-91.0935700
8700,Florida Boulevard,70815,30.4519697,-91.0935506
8740,Florida Boulevard,70815,30.4521682,-91.0935588
8878,Florida Boulevard,70815,30.4522056,-91.0926721
10188,Florida Boulevard,70815,30.4563508,-91.0703973
10134,Florida Boulevard,70815,30.4550076,-91.0703364
10234,Florida Boulevard,70815,30.4553830,-91.0697909
10330,Florida Boulevard,70815,30.4566699,-91.0689735
10418,Florida Boulevard,70815,30.4566975,-91.0685717
9888,Florida Boulevard,70815,30.4561426,-91.0724770
9980,Florida Boulevard,70815,30.4559929,-91.0731165
140,Sharp Road,70815,30.4557261,-91.0726557
235,Marilyn Drive,70815,30.4542742,-91.0764396
975,Monterrey Boulevard,70815,30.4579151,-91.0861785
10060,Florida Boulevard,70815,30.4562200,-91.0713784
10020,Florida Boulevard,70815,30.4561370,-91.0717817
10064,Florida Boulevard,70815,30.4562645,-91.0711841
10440,Florida Boulevard,70815,30.4566516,-91.0682508
10450,Florida Boulevard,70815,30.4567223,-91.0680457
10610,Florida Boulevard,70815,30.4570090,-91.0667427
10706,Florida Boulevard,70815,30.4571151,-91.0662788
10732,Florida Boulevard,70815,30.4564566,-91.0658531
10764,Florida Boulevard,70815,30.4570485,-91.0654138
10770,Florida Boulevard,70815,30.4571773,-91.0650906
10828,Florida Boulevard,70815,30.4573931,-91.0641064
10820,Florida Boulevard,70815,30.4573559,-91.0636072
10932,Florida Boulevard,70815,30.4575829,-91.0634076
10912,Florida Boulevard,70815,30.4574918,-91.0630701
10960,Florida Boulevard,70815,30.4574527,-91.0625450
10970,Florida Boulevard,70815,30.4576437,-91.0622595
11522,Florida Boulevard,70815,30.4582540,-91.0559748
11650,Florida Boulevard,70815,30.4586023,-91.0540737
11672,Florida Boulevard,70815,30.4588401,-91.0537455
11712,Florida Boulevard,70815,30.4590193,-91.0530538
11756,Florida Boulevard,70815,30.4592364,-91.0523046
11760,Florida Boulevard,70815,30.4592484,-91.0520574
11472,Florida Boulevard,70815,30.4583017,-91.0564461
11546,Florida Boulevard,70815,30.4583036,-91.0552646
11990,Florida Boulevard,70815,30.4596260,-91.0501668
12020,Florida Boulevard,70815,30.4592517,-91.0497520
8924,Florida Boulevard,70815,30.4529298,-91.0914449
135,Broadmoor Avenue,70815,30.4526438,-91.0914219
145,Broadmoor Avenue,70815,30.4523862,-91.0914052
223,Broadmoor Avenue,70815,30.4521100,-91.0914510
277,Broadmoor Avenue,70815,30.4518240,-91.0914103
136,Broadmoor Avenue,70815,30.4525849,-91.0919933
146,Broadmoor Avenue,70815,30.4522856,-91.0920574
222,Broadmoor Avenue,70815,30.4520177,-91.0920208
252,Broadmoor Avenue,70815,30.4516701,-91.0921251
8898,Florida Boulevard,70815,30.4528870,-91.0921080
262,Broadmoor Avenue,70815,30.4513898,-91.0919547
320,Broadmoor Avenue,70815,30.4510841,-91.0917782
8825,Meadowood Street,70815,30.4510178,-91.0933171
8855,Meadowood Street,70815,30.4510985,-91.0929883
8875,Meadowood Street,70815,30.4511244,-91.0925733
8973,Meadowood Street,70815,30.4520816,-91.0908283
8983,Meadowood Street,70815,30.4522387,-91.0906228
9025,Meadowood Street,70815,30.4524630,-91.0903847
8935,Meadowood Street,70815,30.4518844,-91.0910504
10915,Florida Boulevard,70815,30.4590011,-91.0630606
10925,Florida Boulevard,70815,30.4591167,-91.0619305
4835,Adams Avenue,70802,30.4695645,-91.1417065
12910,Old Hammond Highway,70816,30.4442379,-91.0349397
3404,J.H. Cooney Drive,70805,30.5048962,-91.1541968
2255,Scenic Gardens Avenue,70807,30.5097802,-91.1687704
2265,Scenic Gardens Avenue,70807,30.5097854,-91.1686665
7732,Goodwood Boulevard,70806,30.4418537,-91.1072155
8899,Florida Boulevard,70815,30.4539450,-91.0923995
7921,Florida Boulevard,70806,30.4530444,-91.1070827
4808,Government Street,70806,30.4442461,-91.1403685
10587,F,70807,30.5397378,-91.1954847
9774,G,70807,30.5332865,-91.1957256
9962,G,70807,30.5350488,-91.1957703
9858,J,70807,30.5339456,-91.1985748
9726,J,70807,30.5328490,-91.1985136
263,Crestview Avenue,70807,30.5433472,-91.1987921
361,Elmer Avenue,70807,30.5382459,-91.1965379
10020,E,70807,30.5357924,-91.1939432
383,Rivercrest Avenue,70807,30.5417787,-91.1961666
277,Elmer Avenue,70807,30.5381711,-91.1984379
10009,H,70807,30.5354768,-91.1973636
352,Rivercrest Avenue,70807,30.5412727,-91.1968828
354,Lakecrest Avenue,70807,30.5421159,-91.1971867
10091,B,70807,30.5361436,-91.1916853
9927,C,70807,30.5349893,-91.1925427
10294,D,70807,30.5375513,-91.1931080
9914,C,70807,30.5347135,-91.1920414
9869,A,70807,30.5342785,-91.1906385
9770,K,70807,30.5332160,-91.1994787
205,Hillcrest Avenue,70807,30.5408310,-91.1997196
10099,B,70807,30.5362454,-91.1916337
284,Bon Crest Avenue,70807,30.5437900,-91.1984301
9740,E,70807,30.5331685,-91.1938297
213,Bon Crest Avenue,70807,30.5441172,-91.1998262
9796,J,70807,30.5334545,-91.1985849
10087,B,70807,30.5359563,-91.1917141
9821,F,70807,30.5336382,-91.1952325
283,Crestview Avenue,70807,30.5434049,-91.1984116
268,Lakecrest Avenue,70807,30.5420991,-91.1987111
10444,F,70807,30.5389062,-91.1950335
10125,C,70807,30.5364900,-91.1926285
10108,K,70807,30.5362113,-91.1995916
10185,B,70807,30.5371492,-91.1917246
10256,F,70807,30.5372241,-91.1949718
216,Bon Crest Avenue,70807,30.5437496,-91.1997652
9734,A,70807,30.5334642,-91.1901629
375,Rivercrest Avenue,70807,30.5417937,-91.1963916
275,Crestview Avenue,70807,30.5433545,-91.1986017
9826,E,70807,30.5337534,-91.1938482
9710,K,70807,30.5327013,-91.1994740
221,Rivercrest Avenue,70807,30.5417136,-91.1992106
10442,H,70807,30.5389592,-91.1969597
324,Crestview Avenue,70807,30.5429719,-91.1978266
10528,E,70807,30.5394450,-91.1940886
222,Blount Avenue,70807,30.5388858,-91.1995266
420,Woodcock Street,70807,30.5361186,-91.1945646
389,Elmer Avenue,70807,30.5383067,-91.1954319
10096,K,70807,30.5359838,-91.1996089
9740,A,70807,30.5335498,-91.1901419
10355,C,70807,30.5387743,-91.1926599
368,Crestview Avenue,70807,30.5430351,-91.1970628
223,Crestview Avenue,70807,30.5433212,-91.1995542
10162,C,70807,30.5367691,-91.1921683
9878,J,70807,30.5340675,-91.1986096
9809,J,70807,30.5334549,-91.1990018
376,Rivercrest Avenue,70807,30.5413146,-91.1961572
9924,A,70807,30.5349423,-91.1902874
10117,I,70807,30.5366196,-91.1983027
9936,K,70807,30.5348595,-91.1995701
9707,C,70807,30.5330498,-91.1924317
225,Hillcrest Avenue,70807,30.5408263,-91.1990869
9710,B,70807,30.5336128,-91.1911029
10033,J,70807,30.5354969,-91.1990884
388,Hillcrest Avenue,70807,30.5404724,-91.1959668
358,Bon Crest Avenue,70807,30.5438143,-91.1972872
318,Bon Crest Avenue,70807,30.5437938,-91.1980490
9735,A,70807,30.5335275,-91.1905972
10370,H,70807,30.5386026,-91.1969488
249,Hillcrest Avenue,70807,30.5408774,-91.1982852
10330,E,70807,30.5386038,-91.1940763
10094,B,70807,30.5362025,-91.1912960
9822,A,70807,30.5338864,-91.1901940
9721,D,70807,30.5330763,-91.1933694
10721,K,70807,30.5404301,-91.2002832
365,Woodpecker Street,70807,30.5346368,-91.1964515
9966,C,70807,30.5353644,-91.1920630
10095,E,70807,30.5361232,-91.1943691
350,Woodpecker Street,70807,30.5342290,-91.1967412
229,Blount Avenue,70807,30.5399610,-91.1987790
10065,G,70807,30.5359740,-91.1963403
10110,J,70807,30.5362488,-91.1987200
322,Bon Crest Avenue,70807,30.5437970,-91.1978583
10251,M,70807,30.5372932,-91.2019299
10558,I,70807,30.5393816,-91.1978782
10145,C,70807,30.5366798,-91.1925695
226,Rivercrest Avenue,70807,30.5412027,-91.1990710
356,Woodpecker Street,70807,30.5342447,-91.1965760
9875,Merganzer Avenue,70807,30.5341952,-91.1896072
10095,A,70807,30.5362490,-91.1908604
9881,I,70807,30.5340728,-91.1980873
10034,E,70807,30.5359751,-91.1939270
10120,J,70807,30.5363731,-91.1987014
243,Bon Crest Avenue,70807,30.5441312,-91.1992207
609,Mills Avenue,70807,30.5330570,-91.1899893
9822,C,70807,30.5338341,-91.1920807
349,Hillcrest Avenue,70807,30.5408979,-91.1967738
9972,K,70807,30.5351109,-91.1995809
9832,D,70807,30.5338813,-91.1929948
321,Blount Avenue,70807,30.5399866,-91.1976380
9834,C,70807,30.5339106,-91.1920746
10465,G,70807,30.5392040,-91.1965284
9916,D,70807,30.5346665,-91.1929964
9948,K,70807,30.5349863,-91.1995728
601,Mills Avenue,70807,30.5329759,-91.1911652
558,Elmer Avenue,70807,30.5379069,-91.1922448
9915,A,70807,30.5348009,-91.1906339
9775,Merganzer Avenue,70807,30.5334083,-91.1892629
10535,G,70807,30.5395351,-91.1964812
9975,F,70807,30.5352629,-91.1953303
9861,I,70807,30.5336603,-91.1980780
10421,F,70807,30.5387736,-91.1954223
10070,K,70807,30.5356068,-91.1996015
10198,D,70807,30.5373049,-91.1931345
10445,G,70807,30.5388499,-91.1964637
10054,K,70807,30.5353560,-91.1995921
10385,E,70807,30.5387001,-91.1945480
10025,D,70807,30.5354760,-91.1934497
9910,B,70807,30.5348635,-91.1911237
10010,F,70807,30.5355028,-91.1948577
123,Elmer Avenue,70807,30.5381821,-91.2010039
9756,A,70807,30.5333483,-91.1901367
335,Lakecrest Avenue,70807,30.5425766,-91.1976177
9824,K,70807,30.5336213,-91.1995086
10070,D,70807,30.5361900,-91.1930231
9934,D,70807,30.5348272,-91.1929772
9945,Merganzer Avenue,70807,30.5349876,-91.1900228
396,Hillcrest Avenue,70807,30.5404834,-91.1955378
10425,K,70807,30.5384818,-91.2001960
9962,D,70807,30.5351335,-91.1930249
9818,J,70807,30.5335773,-91.1985908
338,Crestview Avenue,70807,30.5430274,-91.1976358
209,Blount Avenue,70807,30.5400810,-91.1995142
10204,J,70807,30.5370330,-91.1986799
9831,F,70807,30.5337484,-91.1952639
9727,J,70807,30.5328383,-91.1989746
10041,J,70807,30.5355984,-91.1991014
223,Lakecrest Avenue,70807,30.5425276,-91.1995204
9765,F,70807,30.5334166,-91.1952129
10201,C,70807,30.5372705,-91.1926546
370,Woodpecker Street,70807,30.5342448,-91.1962642
9982,I,70807,30.5350952,-91.1976171
9722,B,70807,30.5331190,-91.1911046
303,Rivercrest Avenue,70807,30.5417165,-91.1981348
305,Crestview Avenue,70807,30.5433692,-91.1982248
10113,I,70807,30.5365051,-91.1982152
344,Woodpecker Street,70807,30.5342188,-91.1969024
205,Rivercrest Avenue,70807,30.5416324,-91.1998528
303,Blount Avenue,70807,30.5399917,-91.1980159
9858,G,70807,30.5340713,-91.1957505
373,Bon Crest Avenue,70807,30.5442131,-91.1969387
231,Crestview Avenue,70807,30.5433302,-91.1993647
10389,E,70807,30.5388029,-91.1945472
10005,E,70807,30.5353894,-91.1943988
351,Woodpecker Street,70807,30.5346019,-91.1967598
10210,K,70807,30.5373917,-91.1995166
10087,D,70807,30.5361333,-91.1935486
242,Lakecrest Avenue,70807,30.5420326,-91.1990880
241,Hillcrest Avenue,70807,30.5408135,-91.1984731
608,Woodpecker Street,70807,30.5344647,-91.1906673
10268,M,70807,30.5371580,-91.2014296
9901,B,70807,30.5347284,-91.1916248
342,Flicker Street,70807,30.5334761,-91.1968778
10229,L,70807,30.5371363,-91.2010153
10736,K,70807,30.5403788,-91.1997944
10245,B,70807,30.5372750,-91.1917521
9709,C,70807,30.5332193,-91.1925057
219,Blount Avenue,70807,30.5399605,-91.1991599
10374,F,70807,30.5386944,-91.1949592
9984,D,70807,30.5352871,-91.1930523
597,Elmer Avenue,70807,30.5383535,-91.1920940
211,Crestview Avenue,70807,30.5433387,-91.1997396
390,Hillcrest Avenue,70807,30.5404522,-91.1957406
306,Lakecrest Avenue,70807,30.5421006,-91.1981373
9915,B,70807,30.5350429,-91.1915941
373,Hillcrest Avenue,70807,30.5409389,-91.1961717
9854,A,70807,30.5341203,-91.1901903
9761,I,70807,30.5334317,-91.1980588
10526,H,70807,30.5394204,-91.1969704
356,Hillcrest Avenue,70807,30.5404883,-91.1967595
239,Rivercrest Avenue,70807,30.5416477,-91.1986994
237,Hillcrest Avenue,70807,30.5408032,-91.1986639
361,Flicker Street,70807,30.5338590,-91.1964042
564,Elmer Avenue,70807,30.5379357,-91.1919692
313,Hillcrest Avenue,70807,30.5408827,-91.1980186
223,Blount Avenue,70807,30.5399940,-91.1989858
9956,H,70807,30.5348220,-91.1967562
316,Bon Crest Avenue,70807,30.5437883,-91.1982378
226,Lakecrest Avenue,70807,30.5420651,-91.1994854
9873,I,70807,30.5339231,-91.1980999
10443,F,70807,30.5388905,-91.1954276
288,Crestview Avenue,70807,30.5429563,-91.1983947
9855,Merganzer Avenue,70807,30.5340321,-91.1895113
243,Rivercrest Avenue,70807,30.5416454,-91.1985069
10115,Merganzer Avenue,70807,30.5365053,-91.1910084
241,Lakecrest Avenue,70807,30.5425622,-91.1991199
10184,C,70807,30.5369641,-91.1921579
10128,K,70807,30.5363501,-91.1995817
388,Crestview Avenue,70807,30.5430193,-91.1966895
10060,D,70807,30.5360681,-91.1930277
10516,E,70807,30.5393046,-91.1940717
271,Lakecrest Avenue,70807,30.5425007,-91.1985657
10012,E,70807,30.5356460,-91.1939225
308,Crestview Avenue,70807,30.5430080,-91.1982045
9859,J,70807,30.5339499,-91.1990335
10191,C,70807,30.5371080,-91.1925828
318,Blount Avenue,70807,30.5396010,-91.1978261
9850,A,70807,30.5339582,-91.1902168
334,Flicker Street,70807,30.5334603,-91.1970324
9803,Merganzer Avenue,70807,30.5338858,-91.1895181
351,Elmer Avenue,70807,30.5382778,-91.1966805
9776,J,70807,30.5333330,-91.1985933
10077,D,70807,30.5360129,-91.1935136
284,Lakecrest Avenue,70807,30.5421001,-91.1983264
393,Bon Crest Avenue,70807,30.5442339,-91.1965552
323,Lakecrest Avenue,70807,30.5425396,-91.1977974
250,Hillcrest Avenue,70807,30.5403870,-91.1983519
237,Blount Avenue,70807,30.5399702,-91.1983969
203,Crestview Avenue,70807,30.5433718,-91.1999224
10327,G,70807,30.5385200,-91.1964854
9766,J,70807,30.5332095,-91.1985849
9950,G,70807,30.5349627,-91.1957963
9565,Merganzer Avenue,70807,30.5332604,-91.1891303
9907,B,70807,30.5348914,-91.1915925
324,Lakecrest Avenue,70807,30.5421347,-91.1977576
10298,D,70807,30.5378524,-91.1931680
363,Mills Avenue,70807,30.5332203,-91.1969523
348,Flicker Street,70807,30.5334621,-91.1967271
9747,F,70807,30.5333071,-91.1952227
10505,H,70807,30.5392519,-91.1973639
233,Hillcrest Avenue,70807,30.5408713,-91.1988492
9808,K,70807,30.5334843,-91.1995038
393,Mills Avenue,70807,30.5328274,-91.1956757
263,Bon Crest Avenue,70807,30.5441436,-91.1988374
10210,L,70807,30.5369781,-91.2001902
333,Elmer Avenue,70807,30.5382240,-91.1969686
283,Bon Crest Avenue,70807,30.5441552,-91.1984594
330,Rivercrest Avenue,70807,30.5412712,-91.1973337
375,Mills Avenue,70807,30.5328904,-91.1963565
233,Rivercrest Avenue,70807,30.5416447,-91.1988901
10116,I,70807,30.5364294,-91.1977545
10130,J,70807,30.5364959,-91.1987285
10105,J,70807,30.5362598,-91.1991739
10255,F,70807,30.5372148,-91.1954113
9840,K,70807,30.5337554,-91.1995164
9722,C,70807,30.5335268,-91.1920459
276,Crestview Avenue,70807,30.5429890,-91.1985809
10555,D,70807,30.5396163,-91.1936588
10241,M,70807,30.5371607,-91.2019236
9874,K,70807,30.5340346,-91.1995029
10009,J,70807,30.5352509,-91.1991082
212,Crestview Avenue,70807,30.5429546,-91.1997318
11150,K,70807,30.5429166,-91.1999115
10181,B,70807,30.5370178,-91.1917245
341,Lakecrest Avenue,70807,30.5425959,-91.1974252
372,Crestview Avenue,70807,30.5430249,-91.1968789
265,Lakecrest Avenue,70807,30.5424960,-91.1988361
346,Bon Crest Avenue,70807,30.5438300,-91.1974767
9744,E,70807,30.5333179,-91.1938207
9894,K,70807,30.5341769,-91.1994874
358,Rivercrest Avenue,70807,30.5413002,-91.1966000
10012,H,70807,30.5353418,-91.1968192
9951,J,70807,30.5347339,-91.1990707
249,Blount Avenue,70807,30.5399703,-91.1982012
341,Blount Avenue,70807,30.5400662,-91.1970793
9810,G,70807,30.5336172,-91.1957354
10351,D,70807,30.5387894,-91.1936078
9740,K,70807,30.5329497,-91.1994781
322,Flicker Street,70807,30.5334481,-91.1973702
9704,C,70807,30.5330234,-91.1919544
10446,G,70807,30.5390501,-91.1959266
385,Lakecrest Avenue,70807,30.5426104,-91.1966641
200,Rivercrest Avenue,70807,30.5412031,-91.1998308
9720,K,70807,30.5328253,-91.1994797
367,Flicker Street,70807,30.5338780,-91.1962627
10148,J,70807,30.5366082,-91.1987263
9977,C,70807,30.5355399,-91.1925726
433,Elmer Avenue,70807,30.5383196,-91.1945942
364,Rivercrest Avenue,70807,30.5413128,-91.1963765
307,Woodpecker Street,70807,30.5345771,-91.1977352
10545,E,70807,30.5395392,-91.1945633
9792,Merganzer Avenue,70807,30.5336495,-91.1894368
10358,I,70807,30.5386027,-91.1978557
303,Flicker Street,70807,30.5338145,-91.1976698
10360,H,70807,30.5384872,-91.1969488
342,Lakecrest Avenue,70807,30.5421241,-91.1974032
10525,G,70807,30.5393600,-91.1965526
395,Hillcrest Avenue,70807,30.5409457,-91.1957222
10485,C,70807,30.5393323,-91.1927636
9707,J,70807,30.5327134,-91.1990432
324,Woodpecker Street,70807,30.5342057,-91.1973924
325,Woodpecker Street,70807,30.5346110,-91.1974060
10275,I,70807,30.5374540,-91.1982263
419,Blount Avenue,70807,30.5401341,-91.1948272
332,Hillcrest Avenue,70807,30.5404657,-91.1972647
9853,F,70807,30.5339695,-91.1952456
10107,J,70807,30.5364658,-91.1991748
308,Elmer Avenue,70807,30.5377044,-91.1977295
327,Flicker Street,70807,30.5338255,-91.1971908
385,Bon Crest Avenue,70807,30.5442400,-91.1967427
10122,C,70807,30.5365935,-91.1921676
236,Crestview Avenue,70807,30.5429386,-91.1993475
362,Flicker Street,70807,30.5334899,-91.1963925
10037,D,70807,30.5356381,-91.1934964
10542,I,70807,30.5392453,-91.1978797
312,Hillcrest Avenue,70807,30.5404115,-91.1978353
389,Blount Avenue,70807,30.5400931,-91.1957335
9918,K,70807,30.5346140,-91.1995594
10088,G,70807,30.5361104,-91.1958245
252,Crestview Avenue,70807,30.5429758,-91.1989694
559,Elmer Avenue,70807,30.5383197,-91.1929858
9730,G,70807,30.5329379,-91.1956806
10466,F,70807,30.5390234,-91.1950322
10518,H,70807,30.5393048,-91.1969704
234,Rivercrest Avenue,70807,30.5412203,-91.1987945
9745,I,70807,30.5333070,-91.1980776
10236,K,70807,30.5371268,-91.1996065
9975,A,70807,30.5352295,-91.1907515
10416,G,70807,30.5387264,-91.1959222
9879,J,70807,30.5340723,-91.1990426
272,Lakecrest Avenue,70807,30.5421138,-91.1985189
10365,E,70807,30.5385710,-91.1945610
204,Rivercrest Avenue,70807,30.5412125,-91.1996520
9705,C,70807,30.5329755,-91.1924194
10048,H,70807,30.5359021,-91.1968188
9945,B,70807,30.5353103,-91.1916411
224,Crestview Avenue,70807,30.5429272,-91.1995303
10008,L,70807,30.5351937,-91.2001543
10120,D,70807,30.5367916,-91.1931318
9933,B,70807,30.5351813,-91.1916507
10240,J,70807,30.5373291,-91.1987393
10426,H,70807,30.5387228,-91.1969665
9745,Merganzer Avenue,70807,30.5331447,-91.1891509
331,Woodpecker Street,70807,30.5345965,-91.1972200
9852,A,70807,30.5340365,-91.1901604
357,Woodpecker Street,70807,30.5346331,-91.1965715
9855,A,70807,30.5341020,-91.1905867
335,Crestview Avenue,70807,30.5433805,-91.1976465
10080,F,70807,30.5359794,-91.1948704
10546,H,70807,30.5395352,-91.1969796
9737,I,70807,30.5331854,-91.1980708
9748,G,70807,30.5330657,-91.1956857
270,Elmer Avenue,70807,30.5377188,-91.1985409
311,Crestview Avenue,70807,30.5433751,-91.1980322
308,Rivercrest Avenue,70807,30.5412312,-91.1981615
244,Bon Crest Avenue,70807,30.5437688,-91.1991847
9871,A,70807,30.5343601,-91.1906191
236,Elmer Avenue,70807,30.5377241,-91.1995264
246,Rivercrest Avenue,70807,30.5412046,-91.1985376
341,Flicker Street,70807,30.5338521,-91.1968971
10454,H,70807,30.5390727,-91.1969645
9893,Merganzer Avenue,70807,30.5344913,-91.1897828
118,Elmer Avenue,70807,30.5376179,-91.2013998
256,Bon Crest Avenue,70807,30.5437389,-91.1989973
9977,J,70807,30.5350035,-91.1990885
10025,H,70807,30.5355856,-91.1973287
364,Woodpecker Street,70807,30.5342349,-91.1964183
10548,E,70807,30.5396045,-91.1940958
303,Lakecrest Avenue,70807,30.5425605,-91.1982728
345,Elmer Avenue,70807,30.5382577,-91.1968354
9701,C,70807,30.5329000,-91.1924213
355,Bon Crest Avenue,70807,30.5442075,-91.1973172
10023,A,70807,30.5355117,-91.1906973
10555,C,70807,30.5396078,-91.1927605
204,Bon Crest Avenue,70807,30.5436976,-91.1999534
347,Flicker Street,70807,30.5338853,-91.1967356
10050,F,70807,30.5358736,-91.1948596
362,Bon Crest Avenue,70807,30.5438409,-91.1970433
370,Hillcrest Avenue,70807,30.5404558,-91.1962291
10431,I,70807,30.5387937,-91.1983761
256,Lakecrest Avenue,70807,30.5421347,-91.1989023
251,Crestview Avenue,70807,30.5433415,-91.1989822
9924,K,70807,30.5347411,-91.1995620
175,Elmer Avenue,70807,30.5381114,-91.2001154
9750,K,70807,30.5330733,-91.1994858
9864,E,70807,30.5343404,-91.1939110
10285,G,70807,30.5375109,-91.1963763
10436,G,70807,30.5388715,-91.1959353
377,Lakecrest Avenue,70807,30.5425997,-91.1969312
9872,G,70807,30.5343241,-91.1957663
10522,F,70807,30.5395071,-91.1950710
10209,M,70807,30.5370329,-91.2022226
9908,E,70807,30.5347786,-91.1939007
9795,Merganzer Avenue,70807,30.5337504,-91.1894027
10020,F,70807,30.5350205,-91.1948337
10049,H,70807,30.5359268,-91.1972719
354,Flicker Street,70807,30.5334868,-91.1965645
9959,G,70807,30.5349518,-91.1962878
217,Hillcrest Avenue,70807,30.5408259,-91.1993941
10162,D,70807,30.5369881,-91.1930913
320,Hillcrest Avenue,70807,30.5404104,-91.1976473
235,Lakecrest Avenue,70807,30.5424972,-91.1993284
10040,F,70807,30.5356932,-91.1948220
340,Hillcrest Avenue,70807,30.5404171,-91.1969944
211,Lakecrest Avenue,70807,30.5425218,-91.1997110
9822,B,70807,30.5338499,-91.1911132
249,Rivercrest Avenue,70807,30.5416979,-91.1983206
10184,D,70807,30.5371438,-91.1931244
10148,K,70807,30.5364925,-91.1996015
10073,A,70807,30.5359914,-91.1906532
10556,F,70807,30.5396439,-91.1950334
10020,A,70807,30.5355618,-91.1903387
10442,E,70807,30.5391618,-91.1940819
365,Blount Avenue,70807,30.5400858,-91.1964937
10523,E,70807,30.5394008,-91.1945493
10024,H,70807,30.5356206,-91.1968270
677,Mills Avenue,70807,30.5330805,-91.1894075
10067,E,70807,30.5359831,-91.1945068
128,Elmer Avenue,70807,30.5376072,-91.2012223
336,Woodpecker Street,70807,30.5341933,-91.1970838
10365,C,70807,30.5389627,-91.1926481
9736,J,70807,30.5329684,-91.1985648
9740,B,70807,30.5332274,-91.1910885
9965,J,70807,30.5348751,-91.1990827
10015,G,70807,30.5353653,-91.1963102
315,Blount Avenue,70807,30.5399945,-91.1978240
240,Hillcrest Avenue,70807,30.5404014,-91.1987403
345,Woodpecker Street,70807,30.5346108,-91.1969031
10075,J,70807,30.5358312,-91.1990981
9944,C,70807,30.5351950,-91.1920703
10273,B,70807,30.5376197,-91.1917305
9915,D,70807,30.5346562,-91.1934806
327,Hillcrest Avenue,70807,30.5408940,-91.1973459
9744,A,70807,30.5332241,-91.1901357
9976,H,70807,30.5351894,-91.1968342
345,Bon Crest Avenue,70807,30.5442033,-91.1975037
222,Hillcrest Avenue,70807,30.5404274,-91.1991879
362,Hillcrest Avenue,70807,30.5404588,-91.1965039
9760,G,70807,30.5331854,-91.1957275
232,Bon Crest Avenue,70807,30.5437639,-91.1993833
271,Bon Crest Avenue,70807,30.5441501,-91.1986487
9850,B,70807,30.5341110,-91.1910946
334,Bon Crest Avenue,70807,30.5438204,-91.1976688
321,Bon Crest Avenue,70807,30.5441999,-91.1978903
361,Bon Crest Avenue,70807,30.5442136,-91.1971264
528,Elmer Avenue,70807,30.5378734,-91.1930354
9788,K,70807,30.5333469,-91.1995063
323,Hillcrest Avenue,70807,30.5408786,-91.1976021
10426,I,70807,30.5387352,-91.1978713
320,Rivercrest Avenue,70807,30.5412706,-91.1977390
368,Flicker Street,70807,30.5335042,-91.1962150
9975,D,70807,30.5351596,-91.1934300
10135,I,70807,30.5369731,-91.1982753
381,Mills Avenue,70807,30.5328791,-91.1961808
268,Bon Crest Avenue,70807,30.5437848,-91.1988053
9819,J,70807,30.5335778,-91.1990100
378,Lakecrest Avenue,70807,30.5421363,-91.1968149
273,Woodpecker Street,70807,30.5344778,-91.1995419
10069,C,70807,30.5361977,-91.1925751
10024,B,70807,30.5356483,-91.1911752
9927,F,70807,30.5350581,-91.1953468
353,Mills Avenue,70807,30.5328394,-91.1971794
306,Woodpecker Street,70807,30.5341931,-91.1977000
10064,G,70807,30.5359429,-91.1957820
10941,F,70807,30.5413072,-91.1959673
336,Lakecrest Avenue,70807,30.5421705,-91.1975666
10375,C,70807,30.5391373,-91.1929024
10072,K,70807,30.5357285,-91.1996066
329,Rivercrest Avenue,70807,30.5417734,-91.1976353
256,Elmer Avenue,70807,30.5376916,-91.1993297
10465,F,70807,30.5390103,-91.1954307
10478,H,70807,30.5391916,-91.1969716
9848,J,70807,30.5338250,-91.1986000
10573,I,70807,30.5394741,-91.1983556
10328,G,70807,30.5385680,-91.1959194
238,Lakecrest Avenue,70807,30.5420521,-91.1992891
341,Crestview Avenue,70807,30.5433947,-91.1974542
574,Elmer Avenue,70807,30.5379293,-91.1918505
10069,A,70807,30.5358458,-91.1906606
205,Blount Avenue,70807,30.5399970,-91.1997570
9899,J,70807,30.5341921,-91.1990459
9925,E,70807,30.5349668,-91.1943724
10115,J,70807,30.5367691,-91.1991766
10497,H,70807,30.5389981,-91.1973733
10591,D,70807,30.5397391,-91.1936647
353,Flicker Street,70807,30.5338723,-91.1965672
9787,J,70807,30.5333309,-91.1990090
303,Bon Crest Avenue,70807,30.5441618,-91.1982732
10036,H,70807,30.5357621,-91.1968310
9930,C,70807,30.5350347,-91.1920763
10176,J,70807,30.5368293,-91.1987395
202,Lakecrest Avenue,70807,30.5420540,-91.1999057
9849,J,70807,30.5338100,-91.1990548
9714,C,70807,30.5331895,-91.1920464
10009,E,70807,30.5355792,-91.1943983
10196,B,70807,30.5370580,-91.1911858
155,Elmer Avenue,70807,30.5380913,-91.2004727
212,Rivercrest Avenue,70807,30.5412086,-91.1994343
245,Crestview Avenue,70807,30.5433492,-91.1991716
333,Bon Crest Avenue,70807,30.5441967,-91.1976972
9865,C,70807,30.5341921,-91.1925033
9857,A,70807,30.5341715,-91.1906360
9875,F,70807,30.5342161,-91.1952831
326,Hillcrest Avenue,70807,30.5404160,-91.1974525
10235,M,70807,30.5373500,-91.2015166
575,Mills Avenue,70807,30.5329962,-91.1914440
9732,B,70807,30.5333450,-91.1911279
10010,E,70807,30.5355086,-91.1939351
209,Rivercrest Avenue,70807,30.5416837,-91.1996592
385,Hillcrest Avenue,70807,30.5409076,-91.1959495
365,Crestview Avenue,70807,30.5434442,-91.1970180
268,Elmer Avenue,70807,30.5377276,-91.1987166
535,Elmer Avenue,70807,30.5383699,-91.1927539
10270,M,70807,30.5372425,-91.2014333
311,Flicker Street,70807,30.5338127,-91.1975044
379,Blount Avenue,70807,30.5400270,-91.1961051
10058,K,70807,30.5354794,-91.1995950
312,Lakecrest Avenue,70807,30.5421331,-91.1979529
353,Lakecrest Avenue,70807,30.5426109,-91.1971886
251,Bon Crest Avenue,70807,30.5441377,-91.1990320
9746,A,70807,30.5336262,-91.1902094
9898,D,70807,30.5344102,-91.1929302
333,Flicker Street,70807,30.5338507,-91.1970364
9994,D,70807,30.5355327,-91.1929943
264,Crestview Avenue,70807,30.5429739,-91.1987748
233,Blount Avenue,70807,30.5399782,-91.1985841
272,Bon Crest Avenue,70807,30.5437852,-91.1986224
214,Hillcrest Avenue,70807,30.5403883,-91.1993862
10235,L,70807,30.5372617,-91.2010276
10422,F,70807,30.5387858,-91.1950422
326,Rivercrest Avenue,70807,30.5412672,-91.1975453
9777,J,70807,30.5332082,-91.1990112
10025,J,70807,30.5353731,-91.1991093
9935,Merganzer Avenue,70807,30.5349040,-91.1899925
9989,J,70807,30.5351274,-91.1990924
9825,A,70807,30.5338886,-91.1905826
9954,D,70807,30.5350107,-91.1929931
9839,J,70807,30.5337018,-91.1990235
226,Hillcrest Avenue,70807,30.5404153,-91.1989800
214,Lakecrest Avenue,70807,30.5420546,-91.1996503
10045,G,70807,30.5357448,-91.1963655
10368,F,70807,30.5385715,-91.1950123
10235,J,70807,30.5372341,-91.1992025
343,Hillcrest Avenue,70807,30.5409331,-91.1969580
10037,H,70807,30.5358109,-91.1973320
429,Elmer Avenue,70807,30.5383243,-91.1947787
315,Bon Crest Avenue,70807,30.5441677,-91.1980832
9878,C,70807,30.5344683,-91.1920311
9879,C,70807,30.5343083,-91.1925280
220,Rivercrest Avenue,70807,30.5412588,-91.1992603
9863,I,70807,30.5338028,-91.1980943
9854,K,70807,30.5338948,-91.1995212
9839,C,70807,30.5339128,-91.1924937
9720,C,70807,30.5333829,-91.1920588
9965,G,70807,30.5350397,-91.1962990
248,Crestview Avenue,70807,30.5429699,-91.1991602
10496,F,70807,30.5392679,-91.1950667
10071,H,70807,30.5360484,-91.1972624
10045,D,70807,30.5358231,-91.1934570
10557,C,70807,30.5398006,-91.1928296
228,Bon Crest Avenue,70807,30.5437286,-91.1995673
407,Blount Avenue,70807,30.5400746,-91.1950544
353,Crestview Avenue,70807,30.5434431,-91.1972775
9735,B,70807,30.5335361,-91.1915744
10038,K,70807,30.5352329,-91.1995867
10465,E,70807,30.5391614,-91.1945247
131,Elmer Avenue,70807,30.5381728,-91.2007996
9910,F,70807,30.5348970,-91.1948440
9990,J,70807,30.5354823,-91.1984215
10217,I,70807,30.5372186,-91.1982665
9955,D,70807,30.5350021,-91.1934522
315,Woodpecker Street,70807,30.5345827,-91.1975470
9941,E,70807,30.5351054,-91.1943889
10168,K,70807,30.5366366,-91.1995959
323,Crestview Avenue,70807,30.5433787,-91.1978359
328,Flicker Street,70807,30.5334350,-91.1971847
366,Lakecrest Avenue,70807,30.5421959,-91.1969938
337,Woodpecker Street,70807,30.5346276,-91.1970674
311,Lakecrest Avenue,70807,30.5425623,-91.1979944
9756,J,70807,30.5330853,-91.1985565
10566,F,70807,30.5397470,-91.1950760
9950,E,70807,30.5352358,-91.1938543
9955,A,70807,30.5350884,-91.1906857
10333,K,70807,30.5383424,-91.2001551
9832,E,70807,30.5338654,-91.1938565
343,Mills Avenue,70807,30.5328637,-91.1973511
10020,H,70807,30.5354792,-91.1968386
413,Elmer Avenue,70807,30.5382907,-91.1949038
335,Blount Avenue,70807,30.5400178,-91.1973738
333,Rivercrest Avenue,70807,30.5417492,-91.1973654
314,Woodpecker Street,70807,30.5341934,-91.1975458
9566,Merganzer Avenue,70807,30.5333325,-91.1891266
311,Rivercrest Avenue,70807,30.5417213,-91.1979157
356,Crestview Avenue,70807,30.5430334,-91.1972569
10466,G,70807,30.5392479,-91.1959457
383,Crestview Avenue,70807,30.5434721,-91.1967664
10055,F,70807,30.5357737,-91.1953581
9889,C,70807,30.5344353,-91.1925560
10589,E,70807,30.5397660,-91.1945581
9757,J,70807,30.5330860,-91.1989972
10245,L,70807,30.5373656,-91.2010350
10220,J,70807,30.5372091,-91.1987332
10145,J,70807,30.5369131,-91.1992008
344,Crestview Avenue,70807,30.5430252,-91.1974428
9764,A,70807,30.5338274,-91.1901792
286,Woodpecker Street,70807,30.5342252,-91.1985920
10111,J,70807,30.5366072,-91.1991810
371,Woodpecker Street,70807,30.5346572,-91.1962936
10084,K,70807,30.5358503,-91.1996032
232,Elmer Avenue,70807,30.5377425,-91.1997124
605,Mills Avenue,70807,30.5330568,-91.1901696
10050,D,70807,30.5359318,-91.1929995
10109,B,70807,30.5364309,-91.1916805
10505,D,70807,30.5394491,-91.1936231
353,Hillcrest Avenue,70807,30.5409497,-91.1965579
140,Elmer Avenue,70807,30.5376079,-91.2010863
10760,Kingfisher Avenue,70807,30.5416132,-91.1923147
10680,Kingfisher Avenue,70807,30.5407922,-91.1918741
655,Elmer Avenue,70807,30.5385688,-91.1905676
542,Williams Street,70807,30.5440315,-91.1938286
10993,Scenic Highway,70807,30.5437012,-91.1933611
575,Blount Avenue,70807,30.5406281,-91.1913522
10721,Scenic Highway,70807,30.5410568,-91.1915735
575,Coot Street,70807,30.5397806,-91.1911654
334,Williams Street,70807,30.5440912,-91.1936836
10739,Scenic Highway,70807,30.5415634,-91.1918670
10905,Kingfisher Avenue,70807,30.5428982,-91.1932817
661,Egret Street,70807,30.5350983,-91.1886418
10989,Scenic Highway,70807,30.5436380,-91.1933008
555,Crane Street,70807,30.5390870,-91.1908845
541,Crane Street,70807,30.5389575,-91.1910816
10647,Scenic Highway,70807,30.5407870,-91.1913517
630,Elmer Avenue,70807,30.5380601,-91.1904195
637,Elmer Avenue,70807,30.5384719,-91.1907489
10934,Kingfisher Avenue,70807,30.5431306,-91.1933404
10783,Scenic Highway,70807,30.5418927,-91.1922223
10772,Kingfisher Avenue,70807,30.5416597,-91.1924164
650,Coot Street,70807,30.5394960,-91.1909778
10712,Kingfisher Avenue,70807,30.5410247,-91.1919580
567,Crane Street,70807,30.5391583,-91.1908337
10731,Scenic Highway,70807,30.5414788,-91.1917950
10862,Kingfisher Avenue,70807,30.5422935,-91.1929758
615,Elmer Avenue,70807,30.5383696,-91.1909436
54,Woodpecker Street,70807,30.5337520,-91.2018820
551,Blount Avenue,70807,30.5404423,-91.1916011
624,Duck Street,70807,30.5366226,-91.1899692
645,Egret Street,70807,30.5350367,-91.1887548
10874,Kingfisher Avenue,70807,30.5426746,-91.1931965
608,Scaup Street,70807,30.5359313,-91.1897392
10870,Kingfisher Avenue,70807,30.5424389,-91.1929313
10877,Scenic Highway,70807,30.5428617,-91.1928391
555,Coot Street,70807,30.5397560,-91.1912940
10855,Scenic Highway,70807,30.5426564,-91.1927189
10756,Kingfisher Avenue,70807,30.5414785,-91.1922747
10745,Scenic Highway,70807,30.5417026,-91.1919737
735,Duck Street,70807,30.5369312,-91.1900482
10673,Scenic Highway,70807,30.5408613,-91.1914514
612,Duck Street,70807,30.5365833,-91.1901184
628,Scaup Street,70807,30.5360718,-91.1893923
576,Crane Street,70807,30.5388252,-91.1907367
10844,Kingfisher Avenue,70807,30.5422392,-91.1928124
620,Scaup Street,70807,30.5359273,-91.1895919
648,Dove Street,70807,30.5372846,-91.1900397
10813,Scenic Highway,70807,30.5421211,-91.1923244
624,Scaup Street,70807,30.5360156,-91.1894879
10736,Kingfisher Avenue,70807,30.5413090,-91.1921847
637,Dove Street,70807,30.5376604,-91.1904642
10785,Scenic Highway,70807,30.5420400,-91.1921874
816,Central Road,70807,30.5343578,-91.1854861
805,Central Road,70807,30.5346773,-91.1858742
871,Central Road,70807,30.5347013,-91.1849139
9878,Scenic Highway,70807,30.5343321,-91.1866799
725,Central Road,70807,30.5346255,-91.1864322
956,Central Road,70807,30.5343341,-91.1841346
837,Central Road,70807,30.5346766,-91.1852706
729,Central Road,70807,30.5348331,-91.1863487
885,Central Road,70807,30.5347353,-91.1846958
835,Central Road,70807,30.5346670,-91.1855639
9807,Scenic Highway,70807,30.5339206,-91.1873436
915,Central Road,70807,30.5347755,-91.1844899
752,Central Road,70807,30.5341359,-91.1861495
787,Curlew Street,70807,30.5338604,-91.1876306
832,Central Road,70807,30.5343144,-91.1851822
9766,Scenic Highway,70807,30.5337978,-91.1866126
825,Central Road,70807,30.5347080,-91.1857462
715,Central Road,70807,30.5346670,-91.1867309
745,Central Road,70807,30.5346579,-91.1860341
762,Central Road,70807,30.5342826,-91.1858827
1030,Central Road,70807,30.5343262,-91.1838556
781,Curlew Street,70807,30.5337874,-91.1877353
9696,Lewis Street,70807,30.5333335,-91.1809562
9473,Gassie Street,70807,30.5319654,-91.1804803
9624,Gassie Street,70807,30.5325833,-91.1800353
733,Mills Avenue,70807,30.5330574,-91.1878789
736,Avocet Street,70807,30.5318091,-91.1872021
9625,Southern Avenue,70807,30.5325858,-91.1795514
9642,Lewis Street,70807,30.5326998,-91.1809960
9283,Southern Avenue,70807,30.5306334,-91.1798392
9331,Scenic Highway,70807,30.5304472,-91.1853058
9271,Chinn Street,70807,30.5303554,-91.1824347
9612,Lewis Street,70807,30.5324533,-91.1809089
9237,Southern Avenue,70807,30.5301932,-91.1799477
9505,Southern Avenue,70807,30.5319551,-91.1796649
9641,Lewis Street,70807,30.5329088,-91.1814326
1130,Rosenwald Road,70807,30.5311286,-91.1820771
1365,Rosenwald Road,70807,30.5317141,-91.1798281
9684,Lewis Street,70807,30.5331087,-91.1809679
999,Rosenwald Road,70807,30.5316095,-91.1831083
9242,Gassie Street,70807,30.5300904,-91.1802977
9532,Gassie Street,70807,30.5321353,-91.1800246
9533,Gassie Street,70807,30.5321372,-91.1804737
9667,Gassie Street,70807,30.5330077,-91.1804834
9249,Southern Avenue,70807,30.5303349,-91.1798992
9516,Gassie Street,70807,30.5319702,-91.1799805
9646,Chinn Street,70807,30.5329092,-91.1820739
1076,Rosenwald Road,70807,30.5310615,-91.1829113
9347,Chinn Street,70807,30.5307637,-91.1824433
9559,Lewis Street,70807,30.5323479,-91.1814125
1309,Wetherill Street,70807,30.5308353,-91.1803542
1258,Rosenwald Road,70807,30.5312537,-91.1808966
1178,Rosenwald Road,70807,30.5312538,-91.1819440
9635,Gassie Street,70807,30.5326854,-91.1804599
766,Avocet Street,70807,30.5319776,-91.1867836
9236,Chinn Street,70807,30.5300737,-91.1819398
9651,Lewis Street,70807,30.5330727,-91.1814664
765,Bittern Street,70807,30.5315930,-91.1866564
9357,Southern Avenue,70807,30.5312295,-91.1797644
9636,Chinn Street,70807,30.5327574,-91.1820497
9367,Chinn Street,70807,30.5310389,-91.1824507
1040,Rosenwald Road,70807,30.5311699,-91.1832189
700-800,Avocet Street,70807,30.5318761,-91.1870264
735,Avocet Street,70807,30.5321834,-91.1872239
736,Mills Avenue,70807,30.5327311,-91.1876214
9612,Gassie Street,70807,30.5324663,-91.1800470
748,Mills Avenue,70807,30.5326960,-91.1874801
9626,Chinn Street,70807,30.5326060,-91.1820671
9607,Gassie Street,70807,30.5324643,-91.1804868
1233,Wall Street,70807,30.5299980,-91.1826721
9621,Lewis Street,70807,30.5326256,-91.1814189
9672,Lewis Street,70807,30.5330194,-91.1810138
9377,Chinn Street,70807,30.5311778,-91.1824594
9649,Southern Avenue,70807,30.5328158,-91.1795647
9515,Southern Avenue,70807,30.5321160,-91.1796634
9222,Chinn Street,70807,30.5299436,-91.1819203
9637,Southern Avenue,70807,30.5326952,-91.1795595
1308,Rosenwald Road,70807,30.5312515,-91.1803376
9333,Southern Avenue,70807,30.5309628,-91.1797791
9624,Lewis Street,70807,30.5325703,-91.1809619
9661,Southern Avenue,70807,30.5329727,-91.1795084
1336,Wetherill Street,70807,30.5305585,-91.1801793
9312,Chinn Street,70807,30.5306223,-91.1819617
9564,Gassie Street,70807,30.5323665,-91.1800780
9307,Chinn Street,70807,30.5304896,-91.1824338
9457,Scenic Highway,70807,30.5313566,-91.1858013
716,Mills Avenue,70807,30.5327170,-91.1879150
1253,Wall Street,70807,30.5299672,-91.1825173
762,Curlew Street,70807,30.5335303,-91.1875754
1375,Rosenwald Road,70807,30.5316305,-91.1796767
9644,Gassie Street,70807,30.5327965,-91.1800544
736,W.K. Gordon Street,70807,30.5305044,-91.1863090
1345,Rosenwald Road,70807,30.5316240,-91.1799433
9255,Southern Avenue,70807,30.5304631,-91.1799022
1324,Rosenwald Road,70807,30.5312298,-91.1801314
9327,Chinn Street,70807,30.5306538,-91.1824317
1152,Rosenwald Road,70807,30.5312064,-91.1817118
725,Cormorant Street,70807,30.5301225,-91.1861303
768,W.K. Gordon Street,70807,30.5306176,-91.1859705
751,Bittern Street,70807,30.5315061,-91.1867409
9611,Lewis Street,70807,30.5324878,-91.1814284
9274,Chinn Street,70807,30.5303671,-91.1820048
9611,Southern Avenue,70807,30.5324767,-91.1795739
9631,Lewis Street,70807,30.5327679,-91.1814400
775,Avocet Street,70807,30.5322560,-91.1868579
9749,Scenic Highway,70807,30.5334187,-91.1870051
9645,Gassie Street,70807,30.5327901,-91.1804950
9515,Scenic Highway,70807,30.5317100,-91.1860291
9244,Chinn Street,70807,30.5302126,-91.1819791
766,Bittern Street,70807,30.5313088,-91.1863916
9525,Southern Avenue,70807,30.5322490,-91.1796364
1047,Rosenwald Road,70807,30.5317600,-91.1840287
9564,Lewis Street,70807,30.5323298,-91.1809122
725,Avocet Street,70807,30.5321144,-91.1873834
9302,Chinn Street,70807,30.5304861,-91.1819898
9549,Lewis Street,70807,30.5322100,-91.1814222
9539,Lewis Street,70807,30.5320926,-91.1814007
9755,Scenic Highway,70807,30.5335485,-91.1871185
771,Cormorant Street,70807,30.5303099,-91.1857893
775,Mills Avenue,70807,30.5331520,-91.1872768
758,Mills Avenue,70807,30.5327409,-91.1873458
9231,Chinn Street,70807,30.5299894,-91.1823474
780,Curlew Street,70807,30.5335596,-91.1874643
9251,Chinn Street,70807,30.5302098,-91.1823834
9680,Gassie Street,70807,30.5331257,-91.1800601
9616,Chinn Street,70807,30.5324547,-91.1820438
1321,Wetherill Street,70807,30.5308408,-91.1800766
9540,Lewis Street,70807,30.5321055,-91.1809595
1155,Rosenwald Road,70807,30.5316916,-91.1814950
9552,Chinn Street,70807,30.5323028,-91.1820436
776,Bittern Street,70807,30.5313169,-91.1862083
9537,Southern Avenue,70807,30.5323817,-91.1796111
748,Avocet Street,70807,30.5318438,-91.1871208
9634,Gassie Street,70807,30.5326871,-91.1800455
9660,Lewis Street,70807,30.5328813,-91.1809483
1060,Rosenwald Road,70807,30.5311268,-91.1830868
758,Bittern Street,70807,30.5312210,-91.1865873
1279,Rosenwald Road,70807,30.5315693,-91.1807423
728,Mills Avenue,70807,30.5326861,-91.1877463
1243,Wall Street,70807,30.5299904,-91.1826021
9668,Gassie Street,70807,30.5330097,-91.1800785
9478,Lewis Street,70807,30.5320121,-91.1809112
9656,Gassie Street,70807,30.5329067,-91.1800122
715,Avocet Street,70807,30.5320168,-91.1875399
9547,Gassie Street,70807,30.5322364,-91.1804651
762,W.K. Gordon Street,70807,30.5306278,-91.1860736
9656,Chinn Street,70807,30.5330543,-91.1820511
9463,Scenic Highway,70807,30.5315167,-91.1858594
9542,Chinn Street,70807,30.5321530,-91.1820314
9357,Chinn Street,70807,30.5309283,-91.1824417
9655,Gassie Street,70807,30.5328993,-91.1804610
9365,Scenic Highway,70807,30.5306834,-91.1854115
747,Flicker Street,70807,30.5343427,-91.1884848
634,Egret Street,70807,30.5346373,-91.1888150
627,Egret Street,70807,30.5348949,-91.1891008
8985,Scenic Highway,70807,30.5282115,-91.1839859
853,Mallard Street,70807,30.5295281,-91.1855988
9143,Scenic Highway,70807,30.5292405,-91.1845568
859,Goose Street,70807,30.5281198,-91.1849867
792,Cormorant Street,70807,30.5300868,-91.1852730
1310,Wall Street,70807,30.5296284,-91.1818484
863,Pintail Street,70807,30.5288715,-91.1850500
1207,Oriole Street,70807,30.5285450,-91.1815128
760,Cormorant Street,70807,30.5299302,-91.1857570
893,Pintail Street,70807,30.5290932,-91.1845507
1391,Wall Street,70807,30.5300623,-91.1806584
953,Baranco Street,70807,30.5296198,-91.1838946
1255,Oriole Street,70807,30.5286533,-91.1809770
910,Baranco Street,70807,30.5292765,-91.1837453
1290,Oriole Street,70807,30.5281551,-91.1803100
1160,Jordan Street,70807,30.5288661,-91.1818228
833,Goose Street,70807,30.5280550,-91.1853069
9168,Scenic Highway,70807,30.5296469,-91.1841605
1073,Baranco Street,70807,30.5296425,-91.1831244
850,Pintail Street,70807,30.5285087,-91.1851702
9124,Hastings Street,70807,30.5292223,-91.1829058
9130,Scenic Highway,70807,30.5292153,-91.1839605
9228,Scenic Highway,70807,30.5299538,-91.1843939
963,Goose Street,70807,30.5283903,-91.1841231
786,Cormorant Street,70807,30.5300442,-91.1854605
706,Pintail Street,70807,30.5283082,-91.1856938
827,Mallard Street,70807,30.5294436,-91.1858114
835,Pintail Street,70807,30.5287417,-91.1854752
1250,Oriole Street,70807,30.5281815,-91.1809741
1140,Jordan Street,70807,30.5288350,-91.1825468
9271,Scenic Highway,70807,30.5301906,-91.1850803
965,Baranco Street,70807,30.5296348,-91.1837680
1252,Wall Street,70807,30.5296189,-91.1822351
8934,Scenic Highway,70807,30.5279467,-91.1832506
1288,Oriole Street,70807,30.5281481,-91.1804552
1320,Jordan Street,70807,30.5289777,-91.1803652
813,Pintail Street,70807,30.5286183,-91.1857597
1161,Oriole Street,70807,30.5284971,-91.1818726
1300,Wall Street,70807,30.5296266,-91.1821075
9190,Lewis Street,70807,30.5298283,-91.1806938
9154,Lewis Street,70807,30.5295908,-91.1806869
1025,Baranco Street,70807,30.5296514,-91.1836145
851,Goose Street,70807,30.5280850,-91.1851015
1268,Oriole Street,70807,30.5281517,-91.1808176
778,Cormorant Street,70807,30.5300232,-91.1855375
1036,Baranco Street,70807,30.5292583,-91.1835081
941,Goose Street,70807,30.5283596,-91.1844075
883,Mallard Street,70807,30.5296799,-91.1851625
893,Goose Street,70807,30.5282766,-91.1847092
1232,Wall Street,70807,30.5296283,-91.1824874
1114,Jordan Street,70807,30.5288590,-91.1826825
884,Mallard Street,70807,30.5293276,-91.1850616
1117,Oriole Street,70807,30.5285229,-91.1823724
1024,Baranco Street,70807,30.5293069,-91.1836246
9048,Lewis Street,70807,30.5287820,-91.1806835
818,Mallard Street,70807,30.5290507,-91.1858341
1285,Oriole Street,70807,30.5285590,-91.1805656
1043,Oriole Street,70807,30.5284824,-91.1829628
1208,Oriole Street,70807,30.5281689,-91.1814619
9175,Scenic Highway,70807,30.5295653,-91.1847477
864,Pintail Street,70807,30.5286792,-91.1848136
1122,Oriole Street,70807,30.5280904,-91.1822832
960,Goose Street,70807,30.5280843,-91.1841077
1232,Oriole Street,70807,30.5281835,-91.1812365
9285,Scenic Highway,70807,30.5302684,-91.1851117
9147,Southern Avenue,70807,30.5294997,-91.1800549
884,Goose Street,70807,30.5279070,-91.1845484
1166,Oriole Street,70807,30.5281343,-91.1818561
1295,Oriole Street,70807,30.5285683,-91.1802693
852,Pintail Street,70807,30.5285418,-91.1849787
1059,Baranco Street,70807,30.5296832,-91.1832659
1320,Wall Street,70807,30.5297293,-91.1803520
9115,Southern Avenue,70807,30.5292510,-91.1800993
869,Goose Street,70807,30.5281760,-91.1848928
770,Cormorant Street,70807,30.5299688,-91.1856365
9257,Scenic Highway,70807,30.5300170,-91.1849912
875,Mallard Street,70807,30.5296290,-91.1852445
1242,Wall Street,70807,30.5296320,-91.1823604
1150,Jordan Street,70807,30.5288603,-91.1819452
861,Mallard Street,70807,30.5296375,-91.1854193
1161,Jordan Street,70807,30.5293053,-91.1818471
9033,Scenic Highway,70807,30.5285898,-91.1842065
1142,Jordan Street,70807,30.5288799,-91.1824148
9209,Scenic Highway,70807,30.5297770,-91.1848567
9272,Scenic Highway,70807,30.5303940,-91.1845872
1176,Oriole Street,70807,30.5281271,-91.1817337
9025,Southern Avenue,70807,30.5289824,-91.1801674
812,Goose Street,70807,30.5276620,-91.1853069
1125,Cardinal Street,70807,30.5277673,-91.1822270
961,Kitty Street,70807,30.5277140,-91.1840722
805,Kitty Street,70807,30.5273101,-91.1851772
1035,Cardinal Street,70807,30.5276706,-91.1828723
843,Kitty Street,70807,30.5273551,-91.1848169
1165,Cardinal Street,70807,30.5277397,-91.1819569
867,Kitty Street,70807,30.5274217,-91.1846568
8933,Scenic Highway,70807,30.5279072,-91.1837348
1211,Cardinal Street,70807,30.5277388,-91.1814648
835,Kitty Street,70807,30.5273319,-91.1850285
1105,Cardinal Street,70807,30.5278077,-91.1826014
1141,Stilt Street,70807,30.5269654,-91.1820853
947,Grebe Street,70807,30.5266875,-91.1846137
850,Kitty Street,70807,30.5271408,-91.1845658
939,Marsh Street,70807,30.5260531,-91.1840696
1234,Cardinal Street,70807,30.5274026,-91.1812058
8776,Scenic Highway,70807,30.5266263,-91.1824161
1122,Stilt Street,70807,30.5266095,-91.1822053
8715,Scenic Highway,70807,30.5264666,-91.1829793
1044,Grebe Street,70807,30.5267057,-91.1835961
1210,Cardinal Street,70807,30.5273774,-91.1814285
905,Grebe Street,70807,30.5267196,-91.1848565
940,Kitty Street,70807,30.5273554,-91.1840457
1020,Marsh Street,70807,30.5259859,-91.1832900
957,Sparrow Street,70807,30.5255890,-91.1832289
934,Marsh Street,70807,30.5257190,-91.1839830
1291,Cardinal Street,70807,30.5277848,-91.1808191
8812,Scenic Highway,70807,30.5268761,-91.1825615
866,Kitty Street,70807,30.5271840,-91.1844770
1104,Cardinal Street,70807,30.5273258,-91.1824658
975,Marsh Street,70807,30.5262237,-91.1837623
8843,Scenic Highway,70807,30.5273197,-91.1834259
989,Grebe Street,70807,30.5268089,-91.1841619
8660,Scenic Highway,70807,30.5258990,-91.1820268
1241,Stilt Street,70807,30.5269637,-91.1810205
1150,Cardinal Street,70807,30.5273867,-91.1820985
1295,Cardinal Street,70807,30.5278048,-91.1805741
1284,Cardinal Street,70807,30.5274018,-91.1805617
1047,Grebe Street,70807,30.5270100,-91.1837612
8821,Scenic Highway,70807,30.5271643,-91.1833479
8695,Scenic Highway,70807,30.5262257,-91.1827907
955,Sparrow Street,70807,30.5254430,-91.1835105
931,Marsh Street,70807,30.5259919,-91.1841601
1283,Stilt Street,70807,30.5270629,-91.1805554
1297,Cardinal Street,70807,30.5278132,-91.1804485
964,Kitty Street,70807,30.5274393,-91.1838410
1170,Stilt Street,70807,30.5266299,-91.1816727
1266,Cardinal Street,70807,30.5274054,-91.1808674
944,Marsh Street,70807,30.5258021,-91.1838106
1069,Grebe Street,70807,30.5270801,-91.1835852
8672,Kingfisher Avenue,70807,30.5257221,-91.1842791
1033,Marsh Street,70807,30.5262661,-91.1835241
8700,Booker Street,70807,30.5265342,-91.1811469
1145,Stilt Street,70807,30.5269754,-91.1819226
8742,Scenic Highway,70807,30.5262677,-91.1820579
996,Grebe Street,70807,30.5265757,-91.1839394
8793,Scenic Highway,70807,30.5269289,-91.1832081
1019,Grebe Street,70807,30.5269489,-91.1839292
1134,Stilt Street,70807,30.5266144,-91.1820443
1144,Stilt Street,70807,30.5265905,-91.1818639
878,Kitty Street,70807,30.5272226,-91.1843800
1260,Teal Street,70807,30.5258595,-91.1808870
8883,Scenic Highway,70807,30.5275982,-91.1836055
1293,Cardinal Street,70807,30.5278076,-91.1806982
8808,Thelma Street,70807,30.5272115,-91.1757231
8722,Scotland Avenue,70807,30.5262715,-91.1798857
1712,Rosenwald Road,70807,30.5313890,-91.1757930
8942,Thelma Street,70807,30.5281298,-91.1766392
8766,Scotland Avenue,70807,30.5266065,-91.1798469
1590,Rosenwald Road,70807,30.5310920,-91.1774037
1632,Carver Street,70807,30.5306709,-91.1766049
1358,Teal Street,70807,30.5259002,-91.1795112
2149,Rosenwald Road,70807,30.5318606,-91.1706049
1454,Jordan Street,70807,30.5288800,-91.1786592
1478,Stilt Street,70807,30.5267146,-91.1784468
1647,Carver Street,70807,30.5310473,-91.1766127
8740,Thelma Street,70807,30.5267318,-91.1753304
1565,Fraternity Street,70807,30.5301896,-91.1775550
2030,Rosenwald Road,70807,30.5313907,-91.1711269
8816,Thelma Street,70807,30.5272619,-91.1758430
1934,Rosenwald Road,70807,30.5313463,-91.1727113
9016,Scotland Avenue,70807,30.5286068,-91.1795082
1495,Stilt Street,70807,30.5270289,-91.1782125
2145,Rosenwald Road,70807,30.5319451,-91.1710167
1353,Oriole Street,70807,30.5285084,-91.1793968
8849,Thelma Street,70807,30.5273983,-91.1764735
1750,Stilt Street,70807,30.5276217,-91.1742654
8739,Thelma Street,70807,30.5265544,-91.1756119
1969,Rosenwald Road,70807,30.5318589,-91.1720011
1519,Stilt Street,70807,30.5271092,-91.1780006
8991,Thelma Street,70807,30.5282318,-91.1773101
1609,Rosenwald Road,70807,30.5317067,-91.1769968
1440,Stilt Street,70807,30.5266580,-91.1791046
1572,Stilt Street,70807,30.5267530,-91.1771312
1455,Teal Street,70807,30.5262534,-91.1786876
8857,Thelma Street,70807,30.5274848,-91.1765624
1427,Stilt Street,70807,30.5270633,-91.1790898
9200,Scotland Avenue,70807,30.5301776,-91.1790597
1467,Teal Street,70807,30.5262626,-91.1785716
8864,Thelma Street,70807,30.5277745,-91.1763199
1407,Teal Street,70807,30.5262825,-91.1792130
1445,Stilt Street,70807,30.5270511,-91.1788361
8775,Thelma Street,70807,30.5268074,-91.1758617
1310,Oriole Street,70807,30.5281833,-91.1791322
1555,Fraternity Street,70807,30.5302126,-91.1777298
1636,Fraternity Street,70807,30.5299933,-91.1767030
1569,Oriole Street,70807,30.5286948,-91.1774217
1440,Teal Street,70807,30.5259433,-91.1787839
8943,Thelma Street,70807,30.5278954,-91.1769800
9208,Helene Street,70807,30.5302576,-91.1759050
1644,Rosenwald Road,70807,30.5313203,-91.1765175
1675,Fraternity Street,70807,30.5303761,-91.1762393
8833,Thelma Street,70807,30.5272303,-91.1763196
1562,Fraternity Street,70807,30.5299593,-91.1775493
1616,Cardinal Street,70807,30.5275282,-91.1773698
1598,Oriole Street,70807,30.5289186,-91.1776923
1861,Rosenwald Road,70807,30.5318168,-91.1736749
9304,Helene Street,70807,30.5309197,-91.1759148
8753,Thelma Street,70807,30.5267308,-91.1757870
9176,Scotland Avenue,70807,30.5297970,-91.1791002
1535,Stilt Street,70807,30.5270960,-91.1778420
1630,Carver Street,70807,30.5306596,-91.1767524
8931,Thelma Street,70807,30.5278107,-91.1768629
1545,Fraternity Street,70807,30.5301949,-91.1778614
1575,Fraternity Street,70807,30.5301762,-91.1774279
1543,Stilt Street,70807,30.5271492,-91.1777311
1660,Fraternity Street,70807,30.5300188,-91.1763740
1431,Fraternity Street,70807,30.5301758,-91.1787250
8856,Thelma Street,70807,30.5277063,-91.1762150
8917,Thelma Street,70807,30.5277137,-91.1768252
8727,Thelma Street,70807,30.5264476,-91.1755552
1674,Rosenwald Road,70807,30.5313591,-91.1762585
9188,Scotland Avenue,70807,30.5299405,-91.1790979
8906,Thelma Street,70807,30.5278440,-91.1764240
1947,Rosenwald Road,70807,30.5319006,-91.1724021
1828,Rosenwald Road,70807,30.5313823,-91.1738313
1667,Rosenwald Road,70807,30.5317103,-91.1764941
1508,Stilt Street,70807,30.5267133,-91.1781223
1430,Stilt Street,70807,30.5266793,-91.1789868
9120,Helene Street,70807,30.5299916,-91.1758675
8865,Thelma Street,70807,30.5275666,-91.1766381
9293,Helene Street,70807,30.5306815,-91.1763210
1463,Cardinal Street,70807,30.5277851,-91.1785996
1583,King Street,70807,30.5304622,-91.1771402
1354,Stilt Street,70807,30.5266165,-91.1794270
1635,Fraternity Street,70807,30.5303842,-91.1767455
1572,Fraternity Street,70807,30.5299644,-91.1773795
8907,Thelma Street,70807,30.5276613,-91.1767124
8821,Thelma Street,70807,30.5271359,-91.1762310
1837,Rosenwald Road,70807,30.5318186,-91.1738446
8720,Thelma Street,70807,30.5265959,-91.1751677
8920,Scotland Avenue,70807,30.5277386,-91.1795916
1642,Carver Street,70807,30.5306663,-91.1764885
1405,Cardinal Street,70807,30.5277942,-91.1792464
1465,King Street,70807,30.5304471,-91.1785754
1585,Fraternity Street,70807,30.5301944,-91.1772557
1766,Rosenwald Road,70807,30.5313080,-91.1754428
9332,Scotland Avenue,70807,30.5309482,-91.1789488
1494,Teal Street,70807,30.5259230,-91.1783152
1510,Oriole Street,70807,30.5282957,-91.1781324
1453,Cardinal Street,70807,30.5277928,-91.1787430
9246,Helene Street,70807,30.5303956,-91.1758845
1968,Rosenwald Road,70807,30.5314036,-91.1720555
8674,Scotland Avenue,70807,30.5259383,-91.1798768
8955,Thelma Street,70807,30.5279784,-91.1770596
9286,Helene Street,70807,30.5307658,-91.1759213
1629,Rosenwald Road,70807,30.5317490,-91.1766165
1515,Cardinal Street,70807,30.5278436,-91.1781857
1676,Stilt Street,70807,30.5268122,-91.1760474
1616,Rosenwald Road,70807,30.5313419,-91.1768832
8728,Thelma Street,70807,30.5266526,-91.1752424
1454,Teal Street,70807,30.5259475,-91.1786665
1365,Teal Street,70807,30.5262535,-91.1794389
8930,Thelma Street,70807,30.5280343,-91.1765557
1821,Rosenwald Road,70807,30.5318329,-91.1742459
8979,Thelma Street,70807,30.5281194,-91.1772342
1468,Stilt Street,70807,30.5266750,-91.1785688
1427,Fraternity Street,70807,30.5301958,-91.1788596
9450,Jones Street,70807,30.5324608,-91.1719788
8818,Scotland Avenue,70807,30.5270752,-91.1795886
1596,Fraternity Street,70807,30.5299675,-91.1770875
1491,Stilt Street,70807,30.5270474,-91.1783773
8764,Thelma Street,70807,30.5269014,-91.1754935
1522,Stilt Street,70807,30.5264546,-91.1775581
2020,Rosenwald Road,70807,30.5314014,-91.1715533
1477,Stilt Street,70807,30.5270633,-91.1786058
1420,Cardinal Street,70807,30.5274492,-91.1792491
8776,Thelma Street,70807,30.5270054,-91.1755485
1524,Cardinal Street,70807,30.5275184,-91.1780204
1408,Teal Street,70807,30.5259304,-91.1791788
8714,Scotland Avenue,70807,30.5261747,-91.1798150
1940,Rosenwald Road,70807,30.5313680,-91.1724684
8967,Thelma Street,70807,30.5280736,-91.1771413
1667,Carver Street,70807,30.5310820,-91.1762609
1655,Fraternity Street,70807,30.5303288,-91.1764767
8918,Thelma Street,70807,30.5279291,-91.1765063
8715,Thelma Street,70807,30.5263468,-91.1754589
8980,Thelma Street,70807,30.5282921,-91.1768554
9054,Scotland Avenue,70807,30.5287430,-91.1794039
1566,Rosenwald Road,70807,30.5311833,-91.1777689
1655,Carver Street,70807,30.5310459,-91.1763770
1560,Oriole Street,70807,30.5282751,-91.1777328
1437,Fraternity Street,70807,30.5301893,-91.1786003
1460,Cardinal Street,70807,30.5274644,-91.1786132
1409,Stilt Street,70807,30.5271830,-91.1792401
1809,Rosenwald Road,70807,30.5319308,-91.1746243
1563,Cardinal Street,70807,30.5275267,-91.1776752
1921,Rosenwald Road,70807,30.5321896,-91.1728418
8752,Thelma Street,70807,30.5268285,-91.1753955
1572,Oriole Street,70807,30.5282764,-91.1775775
1763,Rosenwald Road,70807,30.5318248,-91.1752838
1419,Cardinal Street,70807,30.5278213,-91.1791341
1431,Teal Street,70807,30.5262484,-91.1789184
1874,Rosenwald Road,70807,30.5313868,-91.1731482
1865,Rosenwald Road,70807,30.5318476,-91.1733384
1586,Rosenwald Road,70807,30.5313273,-91.1775091
8841,Thelma Street,70807,30.5273273,-91.1763785
1444,Oriole Street,70807,30.5282605,-91.1787798
1641,Fraternity Street,70807,30.5303280,-91.1765832
1407,Oriole Street,70807,30.5285742,-91.1792294
4308,Government Street,70806,30.4441038,-91.1454222
1400,North Foster Drive,70806,30.4618636,-91.1387074
4222,Government Street,70806,30.4440601,-91.1462766
3350,Dalrymple Drive,70802,30.4177026,-91.1720835
9000,Airline Highway,70815,30.4452809,-91.0914638
8470,Goodwood Boulevard,70806,30.4420472,-91.0968806
1801,South Sherwood Forest Boulevard,70816,30.4364461,-91.0570263
9032,Perkins Road,70808,30.3823180,-91.1035686
900,Stanford Avenue,70808,30.4075527,-91.1629561
3030,July Street,70808,30.4206914,-91.1733811
101,River House Plaza,70802,30.4343785,-91.1887892
101,River House Plaza,70802,30.4338567,-91.1887708
2825,Government Street,70806,30.4456191,-91.1595275
4040,Burbank Drive,70808,30.4025296,-91.1785251
3232,South Sherwood Forest Boulevard,70816,30.4232551,-91.0527033
10550,Florida Boulevard,70815,30.4564156,-91.0672764
