House number,Street name,Postal code,Latitude,Longitude
219,Soniat Avenue,70123,29.9362118,-90.2013724
1021,Colonial Club Drive,70123,29.9506037,-90.2029027
156,Normandy Avenue,70123,29.9390679,-90.2141129
184,Normandy Avenue,70123,29.9398192,-90.2135848
8234,Jefferson Highway,70123,29.9366135,-90.2110089
557,Folse Street,70123,29.9450594,-90.2097487
555,Folse Street,70123,29.9450122,-90.2097995
529,Folse Street,70123,29.9442816,-90.2104092
171,Park Avenue,70123,29.9368978,-90.2124577
8201,Huntly Lane,70123,29.9400357,-90.2089177
8123,Huntly Lane,70123,29.9398208,-90.2088663
8310,Jefferson Highway,70123,29.9372234,-90.2119366
8209,Ann Court,70123,29.9332924,-90.2124228
98,Berkley Avenue,70123,29.9350891,-90.2125756
84,Berkley Avenue,70123,29.9348166,-90.2128033
102,Glenwood Avenue,70123,29.9350247,-90.2114718
8412,Jefferson Highway,70123,29.9387411,-90.2130213
8404,Jefferson Highway,70123,29.9386585,-90.2130222
8408,Jefferson Highway,70123,29.9386998,-90.2130217
174,Park Avenue,70123,29.9370665,-90.2128915
172,Park Avenue,70123,29.9370253,-90.2128919
138,Normandy Avenue,70123,29.9386539,-90.2142410
144,Normandy Avenue,70123,29.9387777,-90.2142396
142,Normandy Avenue,70123,29.9387364,-90.2142400
140,Normandy Avenue,70123,29.9386952,-90.2142405
136,Normandy Avenue,70123,29.9385471,-90.2143182
132,Normandy Avenue,70123,29.9384645,-90.2143192
134,Normandy Avenue,70123,29.9385058,-90.2143187
130,Normandy Avenue,70123,29.9384233,-90.2143196
120,Normandy Avenue,70123,29.9382313,-90.2143814
122,Normandy Avenue,70123,29.9382725,-90.2143809
126,Normandy Avenue,70123,29.9383550,-90.2143800
124,Normandy Avenue,70123,29.9383138,-90.2143804
1801,Hickory Avenue,70123,29.9645651,-90.2056123
1905,Hickory Avenue,70123,29.9661502,-90.2062484
2020,Dickory Avenue,70123,29.9668215,-90.2051029
1820,Dickory Avenue,70123,29.9655962,-90.2056340
1820,Dickory Avenue,70123,29.9654080,-90.2055780
1820,Dickory Avenue,70123,29.9655058,-90.2056101
1820,Dickory Avenue,70123,29.9656833,-90.2056744
1820,Dickory Avenue,70123,29.9658750,-90.2057534
1820,Dickory Avenue,70123,29.9657665,-90.2057025
276,Roseland Parkway,70123,29.9372961,-90.2010111
262,Roseland Parkway,70123,29.9372549,-90.2010116
1700,Hickory Avenue,70123,29.9633260,-90.2058129
1640,Hickory Avenue,70123,29.9623652,-90.2053816
1648,Hickory Avenue,70123,29.9627187,-90.2055606
519,Grove Avenue,70123,29.9431351,-90.1996722
303,Soniat Avenue,70123,29.9378248,-90.2015699
342,West Avenue,70123,29.9394247,-90.1983377
225,Gordon Avenue,70123,29.9369607,-90.1995873
308,West Avenue,70123,29.9387614,-90.1982534
583,Grove Avenue,70123,29.9445978,-90.2002521
449,Gordon Avenue,70123,29.9407465,-90.2001128
568,Roseland Parkway,70123,29.9436720,-90.2022803
7463,Jefferson Highway,70123,29.9359233,-90.2030406
612,Roseland Parkway,70123,29.9447239,-90.2027708
6900,Jefferson Highway,70123,29.9363266,-90.1978210
526,Gordon Avenue,70123,29.9426035,-90.2011748
224,Soniat Avenue,70123,29.9361931,-90.2017751
313,Roseland Parkway,70123,29.9381167,-90.2006293
408,Cressionne Drive,70123,29.9410870,-90.2086848
337,West Avenue,70123,29.9393436,-90.1978427
573,Grove Avenue,70123,29.9443553,-90.2001795
574,Hickory Avenue,70123,29.9449549,-90.1989632
151,West Imperial Drive,70123,29.9335817,-90.2029745
815,Hickory Avenue,70123,29.9491953,-90.1999285
811,Hickory Avenue,70123,29.9492365,-90.1999281
651,Hickory Avenue,70123,29.9463720,-90.1990289
958,Hickory Avenue,70123,29.9514735,-90.2013827
711,Hickory Avenue,70123,29.9474304,-90.1993298
612,Oak Avenue,70123,29.9455837,-90.2001625
1075,Dickory Avenue,70123,29.9536359,-90.2011748
675,Grove Avenue,70123,29.9464157,-90.2009076
726,Oak Avenue,70123,29.9475050,-90.2009491
970,Hickory Avenue,70123,29.9517248,-90.2014159
817,Franklin Avenue,70123,29.9483190,-90.2055468
708,Resor Avenue,70123,29.9465478,-90.2082916
900,Hickory Avenue,70123,29.9504203,-90.2009885
998,Oak Avenue,70123,29.9518722,-90.2024178
830,Tyler Avenue,70123,29.9486562,-90.2049874
705,Hickory Avenue,70123,29.9472269,-90.1992876
707,Hickory Avenue,70123,29.9472681,-90.1992872
719,Oak Avenue,70123,29.9475241,-90.2003330
721,Oak Avenue,70123,29.9475653,-90.2003325
927,Hickory Avenue,70123,29.9509802,-90.2005306
921,Hickory Avenue,70123,29.9509389,-90.2005311
765,Hickory Avenue,70123,29.9483764,-90.1995915
765,Hickory Avenue,70123,29.9482701,-90.1995565
601,Hickory Avenue,70123,29.9454940,-90.1986283
603,Hickory Avenue,70123,29.9455353,-90.1986278
958,Hickory Avenue,70123,29.9514558,-90.2013628
958,Hickory Avenue,70123,29.9514666,-90.2013722
867,Hickory Avenue,70123,29.9500588,-90.2002439
869,Hickory Avenue,70123,29.9501000,-90.2002434
990,Oak Avenue,70123,29.9518309,-90.2024182
988,Oak Avenue,70123,29.9517897,-90.2024187
728,Oak Avenue,70123,29.9477960,-90.2009106
730,Oak Avenue,70123,29.9478372,-90.2009101
624,Gordon Avenue,70123,29.9454154,-90.2019827
628,Gordon Avenue,70123,29.9454566,-90.2019823
259,Roseland Parkway,70123,29.9372329,-90.2004936
263,Roseland Parkway,70123,29.9372741,-90.2004931
553,Randolph Street,70123,29.9437195,-90.2071585
533,Randolph Street,70123,29.9436782,-90.2071590
7121,Jefferson Highway,70123,29.9362505,-90.2003095
7117,Jefferson Highway,70123,29.9361680,-90.2003105
7119,Jefferson Highway,70123,29.9362092,-90.2003100
349,Gordon Avenue,70123,29.9388741,-90.1998024
339,Gordon Avenue,70123,29.9388329,-90.1998029
482,Oak Avenue,70123,29.9424613,-90.1986664
480,Oak Avenue,70123,29.9424200,-90.1986668
226,Soniat Avenue,70123,29.9362701,-90.2017864
228,Soniat Avenue,70123,29.9363113,-90.2017859
334,Soniat Avenue,70123,29.9386432,-90.2020975
331,Soniat Avenue,70123,29.9386020,-90.2020980
513,Hickory Avenue,70123,29.9437692,-90.1979631
501,Hickory Avenue,70123,29.9437279,-90.1979636
6437,Jefferson Highway,70123,29.9383829,-90.1929555
6425,Jefferson Highway,70123,29.9383467,-90.1929060
6618,Jefferson Highway,70123,29.9374286,-90.1953610
6616,Jefferson Highway,70123,29.9373874,-90.1953615
6622,Jefferson Highway,70123,29.9374699,-90.1953605
188,Hickory Avenue,70123,29.9390443,-90.1933070
6713,Riverside Drive,70123,29.9332699,-90.1940047
6415,Riverside Drive,70123,29.9351932,-90.1913945
458,Hickory Avenue,70123,29.9426423,-90.1977011
45,Hickory Avenue,70123,29.9371436,-90.1901700
326,Hickory Avenue,70123,29.9409375,-90.1954437
6121,Jefferson Highway,70123,29.9400040,-90.1909149
194,Hickory Avenue,70123,29.9392507,-90.1934647
158,Hickory Avenue,70123,29.9387861,-90.1928032
210,Hickory Avenue,70123,29.9396059,-90.1938454
229,Oak Avenue,70123,29.9394605,-90.1944456
378,Oak Avenue,70123,29.9412336,-90.1970833
184,Haroleans Street,70123,29.9362232,-90.1969265
6560,Jefferson Highway,70123,29.9379046,-90.1950240
330,Hickory Avenue,70123,29.9409952,-90.1957524
6882,Jefferson Highway,70123,29.9362850,-90.1974196
263,Oak Avenue,70123,29.9400565,-90.1950561
77,Oak Avenue,70123,29.9371102,-90.1914393
102,Ren Pass Avenue,70123,29.9360437,-90.1940253
250,East Avenue,70123,29.9380976,-90.1974721
119,Crislaur Avenue,70123,29.9368417,-90.1931291
212,Hickory Avenue,70123,29.9396472,-90.1938449
241,Oak Avenue,70123,29.9397563,-90.1946741
200,Hickory Avenue,70123,29.9394893,-90.1936608
226,Oak Avenue,70123,29.9393561,-90.1948086
232,Oak Avenue,70123,29.9394313,-90.1948989
370,Oak Avenue,70123,29.9410653,-90.1969230
416,V F W Boulevard,70123,29.9399822,-90.1969418
412,V F W Boulevard,70123,29.9399121,-90.1967911
6015,Jefferson Highway,70123,29.9410473,-90.1890653
6015,Jefferson Highway,70123,29.9409483,-90.1891684
6015,Jefferson Highway,70123,29.9409922,-90.1891169
444,Hickory Avenue,70123,29.9425047,-90.1973236
442,Hickory Avenue,70123,29.9424634,-90.1973241
151,Hickory Avenue,70123,29.9390248,-90.1924316
153,Hickory Avenue,70123,29.9390661,-90.1924311
217,Oak Avenue,70123,29.9394173,-90.1942933
219,Oak Avenue,70123,29.9394585,-90.1942928
6001,Jefferson Highway,70123,29.9417092,-90.1885733
6464,Jefferson Highway,70123,29.9381871,-90.1935049
6470,Jefferson Highway,70123,29.9382284,-90.1935044
163,Hickory Avenue,70123,29.9392633,-90.1926779
161,Hickory Avenue,70123,29.9392220,-90.1926784
445,Hickory Avenue,70123,29.9427607,-90.1970717
447,Hickory Avenue,70123,29.9428019,-90.1970712
107,Crislaur Avenue,70123,29.9366428,-90.1930459
109,Crislaur Avenue,70123,29.9366666,-90.1930218
117,Crislaur Avenue,70123,29.9367592,-90.1931300
115,Crislaur Avenue,70123,29.9367179,-90.1931305
121,Crislaur Avenue,70123,29.9368005,-90.1931295
99,Crislaur Avenue,70123,29.9365298,-90.1928773
97,Crislaur Avenue,70123,29.9364985,-90.1928447
103,Crislaur Avenue,70123,29.9365647,-90.1929467
101,Crislaur Avenue,70123,29.9365571,-90.1929680
220,Hickory Avenue,70123,29.9397720,-90.1939698
216,Hickory Avenue,70123,29.9397308,-90.1939703
333,Bailey Street,70123,29.9392939,-90.1965111
331,Bailey Street,70123,29.9392527,-90.1965116
170,Crislaur Avenue,70123,29.9376074,-90.1941998
168,Crislaur Avenue,70123,29.9375661,-90.1942003
6230,Roddie Street,70123,29.9361575,-90.1903521
6228,Roddie Street,70123,29.9361162,-90.1903526
22,Oak Avenue,70123,29.9361591,-90.1908286
20,Oak Avenue,70123,29.9361179,-90.1908291
73,Oak Avenue,70123,29.9369765,-90.1913676
75,Oak Avenue,70123,29.9370452,-90.1912936
149,Hickory Avenue,70123,29.9389688,-90.1923124
147,Hickory Avenue,70123,29.9389275,-90.1923128
51,Ren Pass Avenue,70123,29.9353195,-90.1929821
53,Ren Pass Avenue,70123,29.9353545,-90.1929443
50,Crislaur Avenue,70123,29.9355420,-90.1927556
54,Crislaur Avenue,70123,29.9356245,-90.1927547
52,Crislaur Avenue,70123,29.9355832,-90.1927552
143,Magnolia Boulevard,70123,29.9353803,-90.1952475
141,Magnolia Boulevard,70123,29.9354156,-90.1952038
8431,Jefferson Highway,70123,29.9392096,-90.2123445
1715,Hickory Avenue,70123,29.9635631,-90.2051319
2000,Dickory Avenue,70123,29.9666548,-90.2053103
1617,Hickory Avenue,70123,29.9619412,-90.2046177
1725,Hickory Avenue,70123,29.9639012,-90.2052851
1821,Hickory Avenue,70123,29.9647585,-90.2056369
5901,Jefferson Highway,70123,29.9420556,-90.1881974
1827,Hickory Avenue,70123,29.9657660,-90.2059024
6601,Jefferson Highway,70123,29.9387286,-90.1953190
210,Oak Avenue,70123,29.9390593,-90.1944678
6515,Jefferson Highway,70123,29.9388890,-90.1949078
6469,Jefferson Highway,70123,29.9386689,-90.1933141
176,Hickory Avenue,70123,29.9389381,-90.1932018
201,Oak Avenue,70123,29.9391784,-90.1940470
6500,Jefferson Highway,70123,29.9383222,-90.1943008
6546,Jefferson Highway,70123,29.9380016,-90.1947618
216,Oak Avenue,70123,29.9391089,-90.1947878
1133,Hickory Avenue,70123,29.9543493,-90.2018652
194,Ravan Avenue,70123,29.9352307,-90.1998897
160,Imperial Woods Drive,70123,29.9348894,-90.2002441
7100,Jefferson Highway,70123,29.9353682,-90.2002611
2301,Generes Drive,70123,29.9721911,-90.2095858
2327,Hickory Avenue,70123,29.9729880,-90.2086752
2133,Generes Drive,70123,29.9703981,-90.2089578
2317,Generes Drive,70123,29.9727047,-90.2098174
2229,Generes Drive,70123,29.9719261,-90.2095250
2225,Generes Drive,70123,29.9717924,-90.2094707
2338,Hickory Avenue,70123,29.9729485,-90.2093333
2125,Generes Drive,70123,29.9700875,-90.2088309
2325,Generes Drive,70123,29.9730301,-90.2097785
2217,Generes Drive,70123,29.9715379,-90.2093790
2309,Generes Drive,70123,29.9724509,-90.2097198
2321,Generes Drive,70123,29.9728680,-90.2097459
2300,Hickory Avenue,70123,29.9717643,-90.2088837
2313,Generes Drive,70123,29.9725870,-90.2097325
2305,Generes Drive,70123,29.9723272,-90.2096400
2233,Generes Drive,70123,29.9720585,-90.2095515
2221,Generes Drive,70123,29.9716673,-90.2094262
2310,Hickory Avenue,70123,29.9721085,-90.2091494
2326,Hickory Avenue,70123,29.9728042,-90.2093786
2213,Generes Drive,70123,29.9714013,-90.2093336
2205,Generes Drive,70123,29.9711463,-90.2092284
2209,Generes Drive,70123,29.9712760,-90.2092813
2129,Generes Drive,70123,29.9702467,-90.2088980
634,Resor Avenue,70123,29.9454547,-90.2088716
642,Resor Avenue,70123,29.9456183,-90.2087851
150,Glenwood Avenue,70123,29.9360038,-90.2112442
157,Glenwood Avenue,70123,29.9359836,-90.2106343
172,Glenwood Avenue,70123,29.9366766,-90.2109927
170,Glenwood Avenue,70123,29.9365149,-90.2110314
153,Normandy Avenue,70123,29.9388705,-90.2136869
160,Normandy Avenue,70123,29.9392158,-90.2140727
8424,Harris Avenue,70123,29.9429043,-90.2112331
164,Normandy Avenue,70123,29.9393435,-90.2139857
168,Normandy Avenue,70123,29.9394337,-90.2138960
531,Resor Avenue,70123,29.9435423,-90.2096746
570,Resor Avenue,70123,29.9443790,-90.2097102
8299,Jefferson Highway,70123,29.9376812,-90.2110936
8586,Jefferson Highway,70123,29.9404871,-90.2131837
130,Park Avenue,70123,29.9360771,-90.2132944
601,Resor Avenue,70123,29.9447015,-90.2088732
560,Resor Avenue,70123,29.9442186,-90.2098549
8208,Huntly Lane,70123,29.9397379,-90.2091998
8223,Huntly Lane,70123,29.9402782,-90.2094376
524,Resor Avenue,70123,29.9436107,-90.2103455
8208,Ferrara Drive,70123,29.9407948,-90.2100201
8301,Harris Avenue,70123,29.9432780,-90.2108367
542,Resor Avenue,70123,29.9440481,-90.2099775
528,Resor Avenue,70123,29.9437382,-90.2102342
536,Resor Avenue,70123,29.9438959,-90.2101114
130,Woodlawn Avenue,70123,29.9370468,-90.2139004
131,Normandy Avenue,70123,29.9383640,-90.2139134
8250,Jefferson Highway,70123,29.9367884,-90.2112725
152,Glenwood Avenue,70123,29.9361759,-90.2112519
8416,Huntly Lane,70123,29.9405778,-90.2116712
155,Berkley Avenue,70123,29.9362607,-90.2116567
8397,Jefferson Highway,70123,29.9385732,-90.2118895
322,Halsey Drive,70123,29.9387037,-90.2088329
547,Resor Avenue,70123,29.9438697,-90.2096040
268,Halsey Drive,70123,29.9375905,-90.2089629
8111,Jefferson Highway,70123,29.9366018,-90.2093559
111,Woodlawn Avenue,70123,29.9364138,-90.2136515
178,Normandy Avenue,70123,29.9396722,-90.2136839
182,Berkley Avenue,70123,29.9368774,-90.2119368
8457,Jefferson Highway,70123,29.9397921,-90.2123607
8120,Ferrara Drive,70123,29.9406171,-90.2094862
8323,Huntly Lane,70123,29.9404740,-90.2101837
178,Berkley Avenue,70123,29.9366793,-90.2119630
188,Woodlawn Avenue,70123,29.9383995,-90.2133566
8424,Jefferson Highway,70123,29.9389039,-90.2131350
163,Woodlawn Avenue,70123,29.9376585,-90.2131624
180,Park Avenue,70123,29.9371931,-90.2128387
8583,Jefferson Highway,70123,29.9405207,-90.2124638
8317,Huntly Lane,70123,29.9404403,-90.2100468
8400,Huntly Lane,70123,29.9403855,-90.2110301
129,Park Avenue,70123,29.9358659,-90.2127984
8560,Jefferson Highway,70123,29.9400203,-90.2131549
500,Resor Avenue,70123,29.9432521,-90.2106062
527,Resor Avenue,70123,29.9434336,-90.2098615
8217,Barocco Drive,70123,29.9422166,-90.2100103
8216,Ferrara Drive,70123,29.9408926,-90.2103886
8416,Harris Avenue,70123,29.9428550,-90.2110395
8401,Huntly Lane,70123,29.9407918,-90.2109804
298,Halsey Drive,70123,29.9381381,-90.2088339
8200,Ferrara Drive,70123,29.9406725,-90.2096621
4,Bourg Court,70123,29.9415503,-90.2094813
2,Bourg Court,70123,29.9417321,-90.2094326
8341,Jefferson Highway,70123,29.9381719,-90.2117547
8432,Huntly Lane,70123,29.9407059,-90.2121303
407,Folse Street,70123,29.9419488,-90.2117842
8417,Huntly Lane,70123,29.9409692,-90.2115870
179,Berkley Avenue,70123,29.9366829,-90.2115707
8120,Harris Avenue,70123,29.9425374,-90.2088687
244,Halsey Drive,70123,29.9371164,-90.2090350
8217,Huntly Lane,70123,29.9401779,-90.2092009
8104,Ferrara Drive,70123,29.9403694,-90.2087683
8212,Harris Avenue,70123,29.9426025,-90.2095662
8103,Jefferson Highway,70123,29.9365167,-90.2091312
5,Bourg Court,70123,29.9412362,-90.2089908
3,Bourg Court,70123,29.9414531,-90.2089144
148,Normandy Avenue,70123,29.9390397,-90.2143115
176,Woodlawn Avenue,70123,29.9380130,-90.2135553
136,Woodlawn Avenue,70123,29.9371665,-90.2138436
107,Woodlawn Avenue,70123,29.9361503,-90.2137313
157,Normandy Avenue,70123,29.9389939,-90.2136167
166,Woodlawn Avenue,70123,29.9377554,-90.2136144
47,Hennessey Court,70123,29.9401958,-90.2137893
174,Normandy Avenue,70123,29.9395698,-90.2138007
600,Resor Avenue,70123,29.9450033,-90.2092586
611,Resor Avenue,70123,29.9448341,-90.2088093
562,Posey Avenue,70123,29.9441880,-90.2088879
555,Resor Avenue,70123,29.9441547,-90.2093522
8201,Harris Avenue,70123,29.9429833,-90.2090618
545,Resor Avenue,70123,29.9437140,-90.2096141
8591,Jefferson Highway,70123,29.9406887,-90.2124993
8420,Huntly Lane,70123,29.9406438,-90.2118031
8384,Jefferson Highway,70123,29.9380064,-90.2126643
125,Woodlawn Avenue,70123,29.9367972,-90.2135225
134,Park Avenue,70123,29.9361979,-90.2131307
156,Park Avenue,70123,29.9365815,-90.2130552
145,Berkley Avenue,70123,29.9360562,-90.2117121
8441,Huntly Lane,70123,29.9410574,-90.2124510
286,Halsey Drive,70123,29.9378732,-90.2089235
8122,Nimitz Drive,70123,29.9381519,-90.2095301
8123,Nimitz Drive,70123,29.9385683,-90.2094426
8428,Jefferson Highway,70123,29.9390754,-90.2131672
8400,Jefferson Highway,70123,29.9384712,-90.2129658
169,Woodlawn Avenue,70123,29.9377810,-90.2131356
151,Woodlawn Avenue,70123,29.9373650,-90.2132962
8301,Huntly Lane,70123,29.9403221,-90.2097477
171,Normandy Avenue,70123,29.9392506,-90.2135029
8213,Barocco Drive,70123,29.9421677,-90.2098114
8205,Ferrara Drive,70123,29.9411465,-90.2097019
8113,Ferrara Drive,70123,29.9409161,-90.2091353
228,Halsey Drive,70123,29.9368364,-90.2091294
8119,Jefferson Highway,70123,29.9366747,-90.2097130
258,Halsey Drive,70123,29.9374175,-90.2089962
8417,Jefferson Highway,70123,29.9389035,-90.2122446
8112,Ferrara Drive,70123,29.9404714,-90.2091167
8412,Huntly Lane,70123,29.9405018,-90.2115194
8439,Jefferson Highway,70123,29.9393486,-90.2123424
8425,Huntly Lane,70123,29.9410712,-90.2118957
8413,Huntly Lane,70123,29.9409294,-90.2114394
8573,Jefferson Highway,70123,29.9402415,-90.2124530
133,Park Avenue,70123,29.9360603,-90.2127392
161,Park Avenue,70123,29.9365493,-90.2125564
320,Halsey Drive,70123,29.9385450,-90.2087969
8302,Jefferson Highway,70123,29.9370578,-90.2118081
166,Berkley Avenue,70123,29.9365693,-90.2120459
138,Berkley Avenue,70123,29.9360419,-90.2121936
165,Berkley Avenue,70123,29.9364906,-90.2115613
8200,Harris Avenue,70123,29.9425010,-90.2090949
8224,Harris Avenue,70123,29.9426100,-90.2097466
8117,Barocco Drive,70123,29.9420445,-90.2090738
8355,Jefferson Highway,70123,29.9382940,-90.2118256
8311,Jefferson Highway,70123,29.9378758,-90.2114471
8404,Huntly Lane,70123,29.9404193,-90.2112136
164,Glenwood Avenue,70123,29.9363226,-90.2110851
115,Woodlawn Avenue,70123,29.9366635,-90.2134916
131,Woodlawn Avenue,70123,29.9369281,-90.2134660
138,Park Avenue,70123,29.9363450,-90.2131122
150,Park Avenue,70123,29.9364848,-90.2131141
168,Park Avenue,70123,29.9368738,-90.2129283
141,Park Avenue,70123,29.9362055,-90.2126310
155,Park Avenue,70123,29.9364309,-90.2126123
8572,Jefferson Highway,70123,29.9402400,-90.2131658
51,Hennessey Court,70123,29.9404771,-90.2135715
8221,Barocco Drive,70123,29.9421819,-90.2102224
8220,Ferrara Drive,70123,29.9410374,-90.2105538
8212,Ferrara Drive,70123,29.9408642,-90.2101954
8204,Ferrara Drive,70123,29.9407358,-90.2098443
8209,Ferrara Drive,70123,29.9412167,-90.2098876
415,Folse Street,70123,29.9426680,-90.2112587
8408,Harris Avenue,70123,29.9428168,-90.2108601
8409,Huntly Lane,70123,29.9408770,-90.2112938
8221,Harris Avenue,70123,29.9430930,-90.2098635
8236,Harris Avenue,70123,29.9426982,-90.2102221
8400,Harris Avenue,70123,29.9427722,-90.2106524
114,Woodlawn Avenue,70123,29.9367287,-90.2139753
101,Woodlawn Avenue,70123,29.9360296,-90.2137714
109,Woodlawn Avenue,70123,29.9362916,-90.2137149
113,Woodlawn Avenue,70123,29.9365532,-90.2135943
149,Normandy Avenue,70123,29.9387226,-90.2137686
141,Normandy Avenue,70123,29.9385471,-90.2138377
8329,Huntly Lane,70123,29.9405536,-90.2103160
8405,Huntly Lane,70123,29.9408481,-90.2111389
8321,Jefferson Highway,70123,29.9380630,-90.2116710
8383,Jefferson Highway,70123,29.9383601,-90.2120518
8401,Jefferson Highway,70123,29.9387714,-90.2121743
8425,Jefferson Highway,70123,29.9390479,-90.2123093
8445,Jefferson Highway,70123,29.9395035,-90.2123415
8453,Jefferson Highway,70123,29.9396524,-90.2123974
8465,Jefferson Highway,70123,29.9399507,-90.2124108
8114,Nimitz Drive,70123,29.9381374,-90.2092544
292,Halsey Drive,70123,29.9379870,-90.2088705
278,Halsey Drive,70123,29.9377259,-90.2088980
236,Halsey Drive,70123,29.9369601,-90.2090654
8109,Ferrara Drive,70123,29.9408724,-90.2089505
1,Bourg Court,70123,29.9416513,-90.2089022
8113,Barocco Drive,70123,29.9420199,-90.2089039
300,Halsey Drive,70123,29.9384261,-90.2088401
8115,Nimitz Drive,70123,29.9385450,-90.2091329
8209,Huntly Lane,70123,29.9400931,-90.2090610
8108,Ferrara Drive,70123,29.9404158,-90.2089440
8116,Ferrara Drive,70123,29.9405430,-90.2093111
8204,Fortier Avenue,70123,29.9444638,-90.2091161
559,Resor Avenue,70123,29.9442863,-90.2092617
8315,Fortier Avenue,70123,29.9451289,-90.2095078
8119,Nimitz Drive,70123,29.9385671,-90.2092751
8347,Huntly Lane,70123,29.9406709,-90.2107889
8205,Barocco Drive,70123,29.9420938,-90.2094534
8209,Barocco Drive,70123,29.9421011,-90.2096411
7,Bourg Court,70123,29.9412307,-90.2092620
6,Bourg Court,70123,29.9413689,-90.2094927
8424,Huntly Lane,70123,29.9406571,-90.2119743
53,Hennessey Court,70123,29.9406217,-90.2134148
405,Folse Street,70123,29.9413171,-90.2115227
8437,Huntly Lane,70123,29.9411084,-90.2122477
8429,Huntly Lane,70123,29.9410780,-90.2120515
8421,Huntly Lane,70123,29.9410452,-90.2117071
55,Hennessey Court,70123,29.9407790,-90.2133244
173,Glenwood Avenue,70123,29.9363141,-90.2104408
165,Glenwood Avenue,70123,29.9361417,-90.2105555
8335,Huntly Lane,70123,29.9405619,-90.2104691
39,Hennessey Court,70123,29.9395706,-90.2143270
101,Normandy Avenue,70123,29.9376717,-90.2141267
119,Normandy Avenue,70123,29.9379658,-90.2140569
142,Woodlawn Avenue,70123,29.9373465,-90.2138142
120,Woodlawn Avenue,70123,29.9369110,-90.2139157
8225,Jefferson Highway,70123,29.9373109,-90.2103618
8340,Jefferson Highway,70123,29.9376446,-90.2124804
125,Normandy Avenue,70123,29.9381744,-90.2139119
170,Woodlawn Avenue,70123,29.9379103,-90.2136136
164,Woodlawn Avenue,70123,29.9376251,-90.2136440
146,Woodlawn Avenue,70123,29.9374846,-90.2137418
49,Hennessey Court,70123,29.9403342,-90.2136847
45,Hennessey Court,70123,29.9400391,-90.2138884
43,Hennessey Court,70123,29.9399017,-90.2140152
41,Hennessey Court,70123,29.9397069,-90.2141132
8579,Jefferson Highway,70123,29.9403988,-90.2124673
139,Berkley Avenue,70123,29.9359341,-90.2118035
181,Berkley Avenue,70123,29.9368296,-90.2115005
167,Park Avenue,70123,29.9366798,-90.2125140
8208,Barocco Drive,70123,29.9417165,-90.2096864
8201,Ferrara Drive,70123,29.9410546,-90.2095198
8117,Ferrara Drive,70123,29.9410011,-90.2093512
8118,Nimitz Drive,70123,29.9381572,-90.2094066
8601,Crochet Avenue,70123,29.9453817,-90.2096183
580,Resor Avenue,70123,29.9445492,-90.2095873
8300,Fortier Avenue,70123,29.9446666,-90.2094757
8314,Fortier Avenue,70123,29.9448150,-90.2096726
614,Resor Avenue,70123,29.9451159,-90.2091711
630,Resor Avenue,70123,29.9453160,-90.2090783
621,Resor Avenue,70123,29.9449545,-90.2087619
8408,Huntly Lane,70123,29.9404630,-90.2113839
8200,Fortier Avenue,70123,29.9443544,-90.2089050
8341,Huntly Lane,70123,29.9406722,-90.2106271
8309,Huntly Lane,70123,29.9403903,-90.2098989
140,Berkley Avenue,70123,29.9361856,-90.2121517
158,Berkley Avenue,70123,29.9363805,-90.2121931
175,Park Avenue,70123,29.9370596,-90.2122814
8229,Huntly Lane,70123,29.9402828,-90.2095919
8208,Harris Avenue,70123,29.9425687,-90.2093100
8201,Barocco Drive,70123,29.9420624,-90.2092540
554,Posey Avenue,70123,29.9440617,-90.2089771
524,Posey Avenue,70123,29.9439025,-90.2089732
534,Posey Avenue,70123,29.9435753,-90.2092459
544,Posey Avenue,70123,29.9437461,-90.2089771
520,Posey Avenue,70123,29.9433499,-90.2091824
516,Posey Avenue,70123,29.9432077,-90.2090832
8205,Harris Avenue,70123,29.9430105,-90.2092150
8209,Harris Avenue,70123,29.9430242,-90.2093862
8213,Harris Avenue,70123,29.9430620,-90.2095294
8217,Harris Avenue,70123,29.9431192,-90.2096711
549,Resor Avenue,70123,29.9440034,-90.2094813
8440,Jefferson Highway,70123,29.9393610,-90.2130718
181,Woodlawn Avenue,70123,29.9380167,-90.2130277
179,Woodlawn Avenue,70123,29.9379205,-90.2131677
157,Woodlawn Avenue,70123,29.9375168,-90.2132947
143,Woodlawn Avenue,70123,29.9371665,-90.2132993
139,Woodlawn Avenue,70123,29.9370555,-90.2133952
186,Park Avenue,70123,29.9373439,-90.2127998
182,Woodlawn Avenue,70123,29.9381645,-90.2135072
175,Normandy Avenue,70123,29.9393796,-90.2134207
8340,Huntly Lane,70123,29.9402973,-90.2107468
184,Woodlawn Avenue,70123,29.9382935,-90.2134680
514,Resor Avenue,70123,29.9434208,-90.2104406
521,Resor Avenue,70123,29.9433417,-90.2099445
515,Resor Avenue,70123,29.9432363,-90.2100650
8225,Harris Avenue,70123,29.9430991,-90.2101104
118,Berkley Avenue,70123,29.9356335,-90.2123236
110,Berkley Avenue,70123,29.9355167,-90.2124300
118,Glenwood Avenue,70123,29.9353383,-90.2114934
140,Glenwood Avenue,70123,29.9358911,-90.2113380
10,Berkley Avenue,70123,29.9332868,-90.2130761
43,Berkley Avenue,70123,29.9337874,-90.2124806
30,Berkley Avenue,70123,29.9337195,-90.2130318
62,Berkley Avenue,70123,29.9343042,-90.2127521
71,Berkley Avenue,70123,29.9342616,-90.2122912
100,Park Avenue,70123,29.9355989,-90.2134509
75,Glenwood Avenue,70123,29.9345802,-90.2111234
11,Glenwood Avenue,70123,29.9318701,-90.2120314
87,Park Avenue,70123,29.9349018,-90.2131158
51,Glenwood Avenue,70123,29.9333984,-90.2115117
31,Glenwood Avenue,70123,29.9329411,-90.2116767
21,Berkley Avenue,70123,29.9333409,-90.2125903
16,Glenwood Avenue,70123,29.9323406,-90.2125015
1,Berkley Avenue,70123,29.9326646,-90.2127652
3,Berkley Avenue,70123,29.9329128,-90.2127498
26,Glenwood Avenue,70123,29.9329493,-90.2121549
20,Berkley Avenue,70123,29.9334561,-90.2130826
92,Berkley Avenue,70123,29.9349103,-90.2125869
76,Glenwood Avenue,70123,29.9346817,-90.2116271
124,Berkley Avenue,70123,29.9357613,-90.2122692
121,Berkley Avenue,70123,29.9355396,-90.2118713
92,Park Avenue,70123,29.9351332,-90.2135291
34,Glenwood Avenue,70123,29.9333139,-90.2120885
22,Glenwood Avenue,70123,29.9326247,-90.2123331
33,Glenwood Avenue,70123,29.9331056,-90.2116079
5,Glenwood Avenue,70123,29.9315588,-90.2121417
77,Berkley Avenue,70123,29.9344043,-90.2123086
62,Glenwood Avenue,70123,29.9342141,-90.2118282
71,Glenwood Avenue,70123,29.9344054,-90.2110963
133,Glenwood Avenue,70123,29.9355386,-90.2108106
126,Glenwood Avenue,70123,29.9355033,-90.2113801
123,Park Avenue,70123,29.9357225,-90.2128772
124,Park Avenue,70123,29.9358876,-90.2132911
80,Park Avenue,70123,29.9349745,-90.2135534
107,Park Avenue,70123,29.9355604,-90.2128871
120,Park Avenue,70123,29.9357521,-90.2133165
72,Glenwood Avenue,70123,29.9345434,-90.2117244
50,Glenwood Avenue,70123,29.9338951,-90.2119547
63,Berkley Avenue,70123,29.9341800,-90.2123998
85,Berkley Avenue,70123,29.9345296,-90.2122310
99,Berkley Avenue,70123,29.9349313,-90.2120553
3,Glenwood Avenue,70123,29.9312985,-90.2121059
13,Glenwood Avenue,70123,29.9320485,-90.2119389
25,Glenwood Avenue,70123,29.9327805,-90.2117043
33,Berkley Avenue,70123,29.9336071,-90.2125067
12,Glenwood Avenue,70123,29.9321721,-90.2125571
7,Berkley Avenue,70123,29.9330656,-90.2126823
71,Park Avenue,70123,29.9345309,-90.2132846
50,Berkley Avenue,70123,29.9341117,-90.2128539
40,Glenwood Avenue,70123,29.9334843,-90.2120590
55,Glenwood Avenue,70123,29.9336508,-90.2114549
93,Park Avenue,70123,29.9350431,-90.2131000
127,Berkley Avenue,70123,29.9356603,-90.2118591
105,Berkley Avenue,70123,29.9352384,-90.2119835
125,Glenwood Avenue,70123,29.9353729,-90.2108672
29,Berkley Avenue,70123,29.9335027,-90.2126017
79,Park Avenue,70123,29.9347755,-90.2132194
39,Park Avenue,70123,29.9340854,-90.2132940
46,Berkley Avenue,70123,29.9340123,-90.2129950
75,Park Avenue,70123,29.9346458,-90.2132357
46,Glenwood Avenue,70123,29.9337477,-90.2119955
42,Glenwood Avenue,70123,29.9336099,-90.2119905
59,Glenwood Avenue,70123,29.9338724,-90.2113270
63,Glenwood Avenue,70123,29.9340866,-90.2112338
67,Glenwood Avenue,70123,29.9342540,-90.2111571
8,Glenwood Avenue,70123,29.9320392,-90.2125425
2,Glenwood Avenue,70123,29.9318852,-90.2125522
47,Glenwood Avenue,70123,29.9332230,-90.2115060
19,Glenwood Avenue,70123,29.9325550,-90.2118014
15,Glenwood Avenue,70123,29.9323018,-90.2118684
7,Glenwood Avenue,70123,29.9317244,-90.2120729
1,Glenwood Avenue,70123,29.9310631,-90.2120814
93,Berkley Avenue,70123,29.9348093,-90.2121561
89,Berkley Avenue,70123,29.9346672,-90.2122183
59,Berkley Avenue,70123,29.9340524,-90.2123875
53,Berkley Avenue,70123,29.9339427,-90.2124309
24,Glenwood Avenue,70123,29.9328115,-90.2122816
20,Glenwood Avenue,70123,29.9325020,-90.2123751
149,Glenwood Avenue,70123,29.9358261,-90.2106682
42,Colonial Club Drive,70123,29.9291843,-90.2092943
133,Berkley Avenue,70123,29.9357998,-90.2117879
100,Berkley Avenue,70123,29.9352931,-90.2123883
132,Berkley Avenue,70123,29.9358936,-90.2122237
111,Berkley Avenue,70123,29.9353759,-90.2119318
99,Park Avenue,70123,29.9351673,-90.2129965
141,Glenwood Avenue,70123,29.9356883,-90.2107622
117,Glenwood Avenue,70123,29.9352025,-90.2108899
134,Glenwood Avenue,70123,29.9357093,-90.2113183
79,Glenwood Avenue,70123,29.9347398,-90.2110633
101,Glenwood Avenue,70123,29.9348911,-90.2109966
109,Glenwood Avenue,70123,29.9350390,-90.2109629
103,Park Avenue,70123,29.9354377,-90.2129231
56,Glenwood Avenue,70123,29.9340691,-90.2118628
68,Glenwood Avenue,70123,29.9344179,-90.2117285
70,Berkley Avenue,70123,29.9345118,-90.2127344
54,Berkley Avenue,70123,29.9341905,-90.2127970
96,Park Avenue,70123,29.9352911,-90.2134710
2100,Sawmill Road,70123,29.9722657,-90.2081278
2229,Sawmill Road,70123,29.9716017,-90.2078853
2100,Sawmill Road,70123,29.9708431,-90.2076104
2100,Sawmill Road,70123,29.9700775,-90.2073299
2100,Sawmill Road,70123,29.9692737,-90.2070366
2100,Sawmill Road,70123,29.9686094,-90.2068177
2305,Hickory Avenue,70123,29.9723360,-90.2083351
1933,Hickory Avenue,70123,29.9670486,-90.2064559
1927,Hickory Avenue,70123,29.9667416,-90.2063728
1828,Hickory Avenue,70123,29.9649647,-90.2064397
2004,Hickory Avenue,70123,29.9670517,-90.2072015
2321,Hickory Avenue,70123,29.9727144,-90.2086427
2029,Generes Drive,70123,29.9683746,-90.2081643
2025,Generes Drive,70123,29.9682006,-90.2080672
1820,Dickory Avenue,70123,29.9662329,-90.2059096
1850,Dickory Avenue,70123,29.9660608,-90.2053218
2005,Generes Drive,70123,29.9674128,-90.2078184
1939,Hickory Avenue,70123,29.9672151,-90.2064304
2138,Hickory Avenue,70123,29.9696925,-90.2080722
1932,Hickory Avenue,70123,29.9665167,-90.2070559
1940,Hickory Avenue,70123,29.9667906,-90.2071038
2001,Generes Drive,70123,29.9672590,-90.2077635
1929,Generes Drive,70123,29.9662285,-90.2074368
1820,Hickory Avenue,70123,29.9647028,-90.2063462
2044,Hickory Avenue,70123,29.9683603,-90.2076319
2041,Generes Drive,70123,29.9688360,-90.2083703
2037,Generes Drive,70123,29.9686771,-90.2083025
2105,Generes Drive,70123,29.9693178,-90.2085491
1825,Generes Drive,70123,29.9648902,-90.2069086
1836,Hickory Avenue,70123,29.9652081,-90.2065815
1908,Hickory Avenue,70123,29.9657303,-90.2067691
1925,Generes Drive,70123,29.9660637,-90.2073459
2020,Hickory Avenue,70123,29.9676099,-90.2073442
2017,Generes Drive,70123,29.9678660,-90.2080481
2303,Hickory Avenue,70123,29.9720734,-90.2082210
1817,Generes Drive,70123,29.9645695,-90.2068403
2116,Hickory Avenue,70123,29.9690295,-90.2078727
2109,Generes Drive,70123,29.9694549,-90.2086221
2045,Generes Drive,70123,29.9689923,-90.2084226
2013,Generes Drive,70123,29.9677145,-90.2079436
2104,Hickory Avenue,70123,29.9686274,-90.2077340
2040,Hickory Avenue,70123,29.9682485,-90.2075619
1941,Generes Drive,70123,29.9666065,-90.2075752
1953,Generes Drive,70123,29.9671118,-90.2077136
2012,Hickory Avenue,70123,29.9673150,-90.2072942
2000,Hickory Avenue,70123,29.9669216,-90.2071531
2200,Hickory Avenue,70123,29.9699581,-90.2081946
2201,Hickory Avenue,70123,29.9701554,-90.2075916
1929,Hickory Avenue,70123,29.9668860,-90.2063936
1920,Hickory Avenue,70123,29.9661234,-90.2069044
1921,Generes Drive,70123,29.9658879,-90.2072573
1917,Generes Drive,70123,29.9657125,-90.2071787
1913,Generes Drive,70123,29.9655274,-90.2071640
1909,Generes Drive,70123,29.9653555,-90.2071349
1832,Hickory Avenue,70123,29.9650746,-90.2065279
1840,Hickory Avenue,70123,29.9653367,-90.2066228
1900,Hickory Avenue,70123,29.9654692,-90.2066727
1904,Hickory Avenue,70123,29.9655994,-90.2067131
1912,Hickory Avenue,70123,29.9658601,-90.2068090
1916,Hickory Avenue,70123,29.9659932,-90.2068642
1905,Generes Drive,70123,29.9652041,-90.2070367
2229,Hickory Avenue,70123,29.9715682,-90.2081410
2317,Hickory Avenue,70123,29.9725481,-90.2084293
2036,Hickory Avenue,70123,29.9681158,-90.2075193
2008,Hickory Avenue,70123,29.9671831,-90.2072485
1949,Generes Drive,70123,29.9669327,-90.2076676
1945,Generes Drive,70123,29.9667751,-90.2076018
1937,Generes Drive,70123,29.9664148,-90.2075017
2021,Hickory Avenue,70123,29.9676530,-90.2067080
2032,Hickory Avenue,70123,29.9679886,-90.2074502
1821,Generes Drive,70123,29.9647295,-90.2068493
1901,Generes Drive,70123,29.9650528,-90.2069376
1816,Hickory Avenue,70123,29.9645599,-90.2062934
1824,Hickory Avenue,70123,29.9648227,-90.2063900
2100,Hickory Avenue,70123,29.9685038,-90.2076720
2108,Hickory Avenue,70123,29.9687746,-90.2077445
2112,Hickory Avenue,70123,29.9689037,-90.2078027
2033,Generes Drive,70123,29.9685149,-90.2082469
2101,Generes Drive,70123,29.9691590,-90.2084745
2113,Generes Drive,70123,29.9696154,-90.2086670
2117,Generes Drive,70123,29.9697769,-90.2087085
1928,Hickory Avenue,70123,29.9663856,-90.2070009
1936,Hickory Avenue,70123,29.9666595,-90.2070571
1924,Hickory Avenue,70123,29.9662550,-90.2069603
2021,Generes Drive,70123,29.9680580,-90.2080241
2009,Generes Drive,70123,29.9675735,-90.2078944
2216,Hickory Avenue,70123,29.9706754,-90.2085242
2212,Hickory Avenue,70123,29.9705484,-90.2085024
2208,Hickory Avenue,70123,29.9702580,-90.2084214
2204,Hickory Avenue,70123,29.9700699,-90.2082703
2120,Hickory Avenue,70123,29.9691471,-90.2079179
2124,Hickory Avenue,70123,29.9692979,-90.2079279
2128,Hickory Avenue,70123,29.9694174,-90.2080479
2146,Hickory Avenue,70123,29.9698221,-90.2081320
1609,Generes Drive,70123,29.9617798,-90.2057765
1320,Hickory Avenue,70123,29.9570563,-90.2035674
1600,Hickory Avenue,70123,29.9610774,-90.2050627
1537,Generes Drive,70123,29.9612928,-90.2056352
1313,Hickory Avenue,70123,29.9573032,-90.2030020
1413,Generes Drive,70123,29.9589468,-90.2047439
1809,Generes Drive,70123,29.9642848,-90.2066411
1440,Hickory Avenue,70123,29.9593180,-90.2044275
1228,Hickory Avenue,70123,29.9557568,-90.2031099
1225,Hickory Avenue,70123,29.9560542,-90.2024708
1625,Hickory Avenue,70123,29.9623477,-90.2047270
1212,Hickory Avenue,70123,29.9552446,-90.2028930
1209,Generes Drive,70123,29.9559890,-90.2035630
1512,Hickory Avenue,70123,29.9601260,-90.2047218
1421,Generes Drive,70123,29.9592033,-90.2048647
1420,Hickory Avenue,70123,29.9586495,-90.2042476
1436,Hickory Avenue,70123,29.9591946,-90.2043848
1317,Generes Drive,70123,29.9581512,-90.2043804
1405,Generes Drive,70123,29.9586813,-90.2047035
1504,Hickory Avenue,70123,29.9597186,-90.2045689
1433,Generes Drive,70123,29.9596012,-90.2049798
1721,Generes Drive,70123,29.9638027,-90.2065204
1808,Hickory Avenue,70123,29.9642983,-90.2062754
1621,Generes Drive,70123,29.9622230,-90.2059999
1605,Generes Drive,70123,29.9616095,-90.2057241
1701,Generes Drive,70123,29.9630159,-90.2062330
1400,Hickory Avenue,70123,29.9579920,-90.2040100
1328,Hickory Avenue,70123,29.9573617,-90.2037542
1313,Generes Drive,70123,29.9579819,-90.2043348
1237,Generes Drive,70123,29.9571530,-90.2040061
1608,Hickory Avenue,70123,29.9613501,-90.2051922
1520,Hickory Avenue,70123,29.9603955,-90.2048157
1525,Generes Drive,70123,29.9608118,-90.2054627
1304,Hickory Avenue,70123,29.9566830,-90.2034154
1221,Generes Drive,70123,29.9564832,-90.2037562
1125,Generes Drive,70123,29.9551031,-90.2032997
1205,Generes Drive,70123,29.9557935,-90.2035418
1217,Generes Drive,70123,29.9562964,-90.2036914
1800,Hickory Avenue,70123,29.9640366,-90.2061839
1812,Hickory Avenue,70123,29.9644029,-90.2062920
1433,Hickory Avenue,70123,29.9593179,-90.2036568
1500,Hickory Avenue,70123,29.9595856,-90.2045184
1509,Generes Drive,70123,29.9601955,-90.2052445
1232,Hickory Avenue,70123,29.9559732,-90.2031761
1300,Hickory Avenue,70123,29.9564145,-90.2033303
1229,Generes Drive,70123,29.9568106,-90.2039006
1717,Generes Drive,70123,29.9636380,-90.2064618
1805,Generes Drive,70123,29.9641078,-90.2066374
1709,Generes Drive,70123,29.9633183,-90.2063699
1425,Generes Drive,70123,29.9593330,-90.2049086
1501,Generes Drive,70123,29.9598670,-90.2051149
1521,Generes Drive,70123,29.9606588,-90.2054010
1533,Generes Drive,70123,29.9611327,-90.2055758
1524,Hickory Avenue,70123,29.9605328,-90.2048690
1536,Hickory Avenue,70123,29.9609422,-90.2050164
1612,Hickory Avenue,70123,29.9614773,-90.2052399
1633,Generes Drive,70123,29.9627130,-90.2061135
1620,Hickory Avenue,70123,29.9617727,-90.2053035
1216,Hickory Avenue,70123,29.9553970,-90.2028664
1135,Generes Drive,70123,29.9554379,-90.2033986
1629,Hickory Avenue,70123,29.9624906,-90.2047779
1632,Hickory Avenue,70123,29.9621680,-90.2054298
1444,Hickory Avenue,70123,29.9594619,-90.2044782
1508,Hickory Avenue,70123,29.9599839,-90.2047070
1437,Hickory Avenue,70123,29.9594666,-90.2037144
1501,Hickory Avenue,70123,29.9596498,-90.2037689
1505,Hickory Avenue,70123,29.9598109,-90.2038215
1429,Generes Drive,70123,29.9594759,-90.2049870
1525,Hickory Avenue,70123,29.9605833,-90.2041026
1521,Hickory Avenue,70123,29.9604096,-90.2040753
1517,Hickory Avenue,70123,29.9602420,-90.2040478
1532,Hickory Avenue,70123,29.9608051,-90.2049624
1528,Hickory Avenue,70123,29.9606724,-90.2049196
1516,Hickory Avenue,70123,29.9602590,-90.2047647
1601,Generes Drive,70123,29.9614621,-90.2056661
1529,Generes Drive,70123,29.9609841,-90.2055294
1517,Generes Drive,70123,29.9605047,-90.2053530
1513,Generes Drive,70123,29.9603552,-90.2052800
1312,Hickory Avenue,70123,29.9568140,-90.2034504
1309,Generes Drive,70123,29.9578018,-90.2042747
1305,Generes Drive,70123,29.9576503,-90.2041995
1429,Hickory Avenue,70123,29.9591596,-90.2035929
1325,Generes Drive,70123,29.9584183,-90.2045569
1329,Generes Drive,70123,29.9585368,-90.2046257
1409,Generes Drive,70123,29.9588078,-90.2047404
1417,Generes Drive,70123,29.9590795,-90.2048454
1404,Hickory Avenue,70123,29.9581242,-90.2040530
1408,Hickory Avenue,70123,29.9582579,-90.2041057
1412,Hickory Avenue,70123,29.9583848,-90.2041497
1416,Hickory Avenue,70123,29.9585172,-90.2042035
1424,Hickory Avenue,70123,29.9587810,-90.2042964
1428,Hickory Avenue,70123,29.9589354,-90.2042752
1432,Hickory Avenue,70123,29.9590646,-90.2043221
1425,Hickory Avenue,70123,29.9590099,-90.2035437
1241,Generes Drive,70123,29.9573284,-90.2040737
1233,Generes Drive,70123,29.9569967,-90.2039417
1628,Hickory Avenue,70123,29.9620450,-90.2053987
1625,Generes Drive,70123,29.9623958,-90.2060388
1629,Generes Drive,70123,29.9625614,-90.2060871
1613,Generes Drive,70123,29.9619173,-90.2058957
1616,Hickory Avenue,70123,29.9616369,-90.2052413
1617,Generes Drive,70123,29.9620954,-90.2058748
1321,Generes Drive,70123,29.9582979,-90.2044227
1301,Generes Drive,70123,29.9574738,-90.2041429
1505,Generes Drive,70123,29.9600380,-90.2051673
1225,Generes Drive,70123,29.9566388,-90.2038532
1801,Generes Drive,70123,29.9639493,-90.2066062
1813,Generes Drive,70123,29.9644125,-90.2067682
1804,Hickory Avenue,70123,29.9641375,-90.2062188
1736,Hickory Avenue,70123,29.9637746,-90.2060823
1740,Hickory Avenue,70123,29.9638785,-90.2061154
1705,Generes Drive,70123,29.9631541,-90.2063179
1713,Generes Drive,70123,29.9634772,-90.2064287
1204,Hickory Avenue,70123,29.9549838,-90.2027859
1131,Generes Drive,70123,29.9552668,-90.2032997
1624,Hickory Avenue,70123,29.9618941,-90.2053270
1213,Generes Drive,70123,29.9561352,-90.2036477
1240,Hickory Avenue,70123,29.9561560,-90.2032222
1244,Hickory Avenue,70123,29.9562995,-90.2032766
1224,Hickory Avenue,70123,29.9556324,-90.2030339
1201,Generes Drive,70123,29.9555975,-90.2034371
1208,Hickory Avenue,70123,29.9551242,-90.2028275
1321,Hickory Avenue,70123,29.9574882,-90.2030021
1344,Hickory Avenue,70123,29.9578866,-90.2039680
1340,Hickory Avenue,70123,29.9577598,-90.2039037
1336,Hickory Avenue,70123,29.9576281,-90.2038566
1332,Hickory Avenue,70123,29.9574927,-90.2038099
1324,Hickory Avenue,70123,29.9572402,-90.2037093
721,Ashlawn Drive,70123,29.9467325,-90.2034849
724,Colonial Club Drive,70123,29.9463427,-90.2046470
851,Grove Avenue,70123,29.9493089,-90.2018903
960,Hickory Avenue,70123,29.9515543,-90.2014467
734,Grove Avenue,70123,29.9471872,-90.2016675
742,Grove Avenue,70123,29.9473303,-90.2017005
702,Randolph Street,70123,29.9460036,-90.2072468
711,Randolph Street,70123,29.9464714,-90.2066485
822,Franklin Avenue,70123,29.9485396,-90.2059603
704,Hickory Avenue,70123,29.9472485,-90.1998597
957,Oak Avenue,70123,29.9514778,-90.2017675
969,Oak Avenue,70123,29.9516092,-90.2018264
973,Oak Avenue,70123,29.9519089,-90.2019596
971,Oak Avenue,70123,29.9517899,-90.2019126
745,Ashlawn Drive,70123,29.9473986,-90.2038969
750,Colonial Club Drive,70123,29.9472730,-90.2043325
1111,Generes Drive,70123,29.9545789,-90.2030570
728,Resor Avenue,70123,29.9470222,-90.2079689
670,Resor Avenue,70123,29.9461031,-90.2083643
950,Oak Avenue,70123,29.9510986,-90.2021477
954,Oak Avenue,70123,29.9512555,-90.2022005
721,Gordon Avenue,70123,29.9471806,-90.2020469
720,Colonial Club Drive,70123,29.9460702,-90.2046035
652,Ashlawn Drive,70123,29.9456829,-90.2037982
645,Roseland Parkway,70123,29.9460074,-90.2025532
734,Randolph Street,70123,29.9470813,-90.2070322
1008,Colonial Club Drive,70123,29.9505499,-90.2033975
933,Tyler Avenue,70123,29.9502069,-90.2040916
829,Roseland Parkway,70123,29.9491602,-90.2033092
870,Grove Avenue,70123,29.9496574,-90.2023985
764,Hickory Avenue,70123,29.9482855,-90.2001901
924,Colonial Club Drive,70123,29.9497691,-90.2038734
724,Resor Avenue,70123,29.9468528,-90.2079629
737,Resor Avenue,70123,29.9472379,-90.2073493
812,Oak Avenue,70123,29.9486414,-90.2012926
741,Woodward Avenue,70123,29.9470221,-90.2052435
725,Woodward Avenue,70123,29.9463524,-90.2052385
816,Hickory Avenue,70123,29.9490277,-90.2004744
769,Hickory Avenue,70123,29.9484626,-90.1996402
720,Resor Avenue,70123,29.9466914,-90.2079815
936,Hickory Avenue,70123,29.9509907,-90.2012330
956,Hickory Avenue,70123,29.9513018,-90.2013398
801,Oak Avenue,70123,29.9485867,-90.2006963
7806,7th Street,70123,29.9456547,-90.2040095
941,Tyler Avenue,70123,29.9504979,-90.2041219
837,Franklin Avenue,70123,29.9489892,-90.2054155
733,Gordon Avenue,70123,29.9476208,-90.2021612
747,Woodward Avenue,70123,29.9473911,-90.2051903
655,Grove Avenue,70123,29.9459998,-90.2008079
735,Franklin Avenue,70123,29.9469913,-90.2058014
8005,Grover Avenue,70123,29.9494446,-90.2060834
717,Gordon Avenue,70123,29.9470373,-90.2020251
769,Grove Avenue,70123,29.9479798,-90.2014598
716,Grove Avenue,70123,29.9468020,-90.2015163
671,Oak Avenue,70123,29.9462848,-90.1999036
736,Colonial Club Drive,70123,29.9466251,-90.2044404
749,Franklin Avenue,70123,29.9474824,-90.2056765
1132,Hickory Avenue,70123,29.9545528,-90.2026373
817,Hickory Avenue,70123,29.9493554,-90.1999900
901,9th Street,70123,29.9502868,-90.2013704
1008,Tyler Avenue,70123,29.9511115,-90.2045964
737,Oak Avenue,70123,29.9482949,-90.2006145
801,Randolph Street,70123,29.9478904,-90.2064078
8009,Landry Avenue,70123,29.9458178,-90.2059514
820,Oak Avenue,70123,29.9489311,-90.2013223
840,Hickory Avenue,70123,29.9494720,-90.2005932
835,Oak Avenue,70123,29.9491370,-90.2009640
809,Roseland Parkway,70123,29.9483098,-90.2031907
643,Ashlawn Drive,70123,29.9454892,-90.2033640
7812,7th Street,70123,29.9456773,-90.2042034
745,Resor Avenue,70123,29.9476880,-90.2072600
704,Resor Avenue,70123,29.9463460,-90.2083339
730,Resor Avenue,70123,29.9471322,-90.2078701
721,Resor Avenue,70123,29.9467105,-90.2074783
701,Resor Avenue,70123,29.9460766,-90.2078268
714,Randolph Street,70123,29.9463951,-90.2071630
730,Randolph Street,70123,29.9469328,-90.2069988
665,Resor Avenue,70123,29.9457608,-90.2081516
656,Randolph Street,70123,29.9455796,-90.2072114
707,Woodward Avenue,70123,29.9459774,-90.2054668
825,Franklin Avenue,70123,29.9485926,-90.2055343
709,Hickory Avenue,70123,29.9473875,-90.1993314
764,Oak Avenue,70123,29.9479505,-90.2009961
722,Oak Avenue,70123,29.9472809,-90.2007817
749,Grove Avenue,70123,29.9475729,-90.2013387
654,Grove Avenue,70123,29.9458884,-90.2012386
722,Oak Avenue,70123,29.9471740,-90.2006793
830,Lincoln Avenue,70123,29.9473694,-90.2048789
800,Tyler Avenue,70123,29.9477148,-90.2050790
834,Colonial Club Drive,70123,29.9486765,-90.2040515
829,Tyler Avenue,70123,29.9486048,-90.2045052
834,Tyler Avenue,70123,29.9487918,-90.2048777
708,Gordon Avenue,70123,29.9466381,-90.2023932
705,Gordon Avenue,70123,29.9465747,-90.2018789
701,Gordon Avenue,70123,29.9464336,-90.2018264
728,Grove Avenue,70123,29.9470592,-90.2016098
676,Oak Avenue,70123,29.9462952,-90.2004558
706,Oak Avenue,70123,29.9468430,-90.2006397
665,Oak Avenue,70123,29.9460804,-90.1997153
940,Oak Avenue,70123,29.9509457,-90.2021107
1013,Tyler Avenue,70123,29.9512009,-90.2041870
8605,Rosecrest Lane,70123,29.9490219,-90.2069410
741,Woodward Avenue,70123,29.9468814,-90.2052353
821,Roseland Parkway,70123,29.9487945,-90.2032631
808,Gordon Avenue,70123,29.9484065,-90.2028371
828,Gordon Avenue,70123,29.9492161,-90.2030060
809,Gordon Avenue,70123,29.9484900,-90.2023955
802,Grove Avenue,70123,29.9482577,-90.2019792
860,Grove Avenue,70123,29.9494624,-90.2023468
831,Grove Avenue,70123,29.9489077,-90.2017700
900,Franklin Avenue,70123,29.9493396,-90.2058340
720,Gordon Avenue,70123,29.9470767,-90.2024925
909,Franklin Avenue,70123,29.9495439,-90.2053478
904,Tyler Avenue,70123,29.9494652,-90.2047610
905,Tyler Avenue,70123,29.9492706,-90.2043173
920,Colonial Club Drive,70123,29.9496317,-90.2039205
714,Oak Avenue,70123,29.9469935,-90.2006950
637,Oak Avenue,70123,29.9458593,-90.1997464
629,Roseland Parkway,70123,29.9454151,-90.2024234
740,Colonial Club Drive,70123,29.9467649,-90.2044687
744,Colonial Club Drive,70123,29.9469243,-90.2044530
701,Roseland Parkway,70123,29.9462663,-90.2029801
733,Randolph Street,70123,29.9470112,-90.2065645
718,Franklin Avenue,70123,29.9464239,-90.2063474
817,Tyler Avenue,70123,29.9480563,-90.2045773
644,Roseland Parkway,70123,29.9459018,-90.2030420
738,Franklin Avenue,70123,29.9471161,-90.2062259
810,Franklin Avenue,70123,29.9481060,-90.2059977
729,Franklin Avenue,70123,29.9468386,-90.2057956
730,Woodward Avenue,70123,29.9467151,-90.2058487
731,Woodward Avenue,70123,29.9464763,-90.2053047
640,Roseland Parkway,70123,29.9457671,-90.2030035
701,Hickory Avenue,70123,29.9471324,-90.1991066
621,Hickory Avenue,70123,29.9459440,-90.1988504
805,Roseland Parkway,70123,29.9481607,-90.2031527
733,Roseland Parkway,70123,29.9475404,-90.2030100
7800,8th Street,70123,29.9476349,-90.2035427
7808,8th Street,70123,29.9476896,-90.2038620
735,Grove Avenue,70123,29.9472945,-90.2012167
754,Grove Avenue,70123,29.9475882,-90.2017591
962,Oak Avenue,70123,29.9515445,-90.2023119
870,Oak Avenue,70123,29.9498682,-90.2017129
6513,9th Street,70123,29.9501035,-90.2023545
935,Oak Avenue,70123,29.9508732,-90.2015653
867,Oak Avenue,70123,29.9498528,-90.2011787
6501,9th Street,70123,29.9501159,-90.2018436
929,Franklin Avenue,70123,29.9502247,-90.2052044
936,Tyler Avenue,70123,29.9504229,-90.2046833
937,Tyler Avenue,70123,29.9503634,-90.2041307
1004,Colonial Club Drive,70123,29.9504201,-90.2035169
1100,Generes Drive,70123,29.9537839,-90.2031659
1109,Generes Drive,70123,29.9544018,-90.2030221
1001,Hickory Avenue,70123,29.9526600,-90.2011978
682,Oak Avenue,70123,29.9464568,-90.2005123
878,Hickory Avenue,70123,29.9501045,-90.2008965
741,Ashlawn Drive,70123,29.9473969,-90.2037348
8700,Chretien Point Place,70123,29.9525627,-90.2040602
806,Colonial Club Drive,70123,29.9477390,-90.2042604
809,Tyler Avenue,70123,29.9479236,-90.2046189
929,Oak Avenue,70123,29.9507719,-90.2015545
920,Hickory Avenue,70123,29.9506254,-90.2010456
879,Hickory Avenue,70123,29.9502516,-90.2003139
733,Ashlawn Drive,70123,29.9470774,-90.2035110
632,Roseland Parkway,70123,29.9454604,-90.2029423
720,Franklin Avenue,70123,29.9465576,-90.2062988
734,Franklin Avenue,70123,29.9469599,-90.2062282
702,Franklin Avenue,70123,29.9458678,-90.2064084
721,Roseland Parkway,70123,29.9468828,-90.2028822
819,Tyler Avenue,70123,29.9481791,-90.2045353
837,Tyler Avenue,70123,29.9488476,-90.2044038
828,Colonial Club Drive,70123,29.9484016,-90.2041024
838,Colonial Club Drive,70123,29.9488006,-90.2040753
829,Colonial Club Drive,70123,29.9486038,-90.2036837
735,Oak Avenue,70123,29.9481405,-90.2006089
855,Oak Avenue,70123,29.9496133,-90.2011370
828,Hickory Avenue,70123,29.9491969,-90.2005348
805,Hickory Avenue,70123,29.9489502,-90.1999460
8601,Melrose Lane,70123,29.9495821,-90.2063505
802,Franklin Avenue,70123,29.9478268,-90.2060429
745,Franklin Avenue,70123,29.9472440,-90.2056869
805,Franklin Avenue,70123,29.9479333,-90.2055843
810,Randolph Street,70123,29.9481656,-90.2063934
7601,7th Street,70123,29.9463560,-90.2026123
7814,7th Street,70123,29.9460793,-90.2041412
720,Ashlawn Drive,70123,29.9466568,-90.2039377
709,Ashlawn Drive,70123,29.9463888,-90.2035121
732,Colonial Club Drive,70123,29.9464956,-90.2044707
637,Roseland Parkway,70123,29.9457124,-90.2024710
701,Woodward Avenue,70123,29.9456708,-90.2054909
615,Hickory Avenue,70123,29.9457991,-90.1986926
612,Hickory Avenue,70123,29.9455094,-90.1992287
700,Hickory Avenue,70123,29.9469860,-90.1997584
662,Grove Avenue,70123,29.9460153,-90.2012432
675,Oak Avenue,70123,29.9464339,-90.2000012
821,Grove Avenue,70123,29.9487327,-90.2016928
784,Oak Avenue,70123,29.9481980,-90.2011144
850,Grove Avenue,70123,29.9492145,-90.2022561
820,Grove Avenue,70123,29.9486336,-90.2020693
837,Gordon Avenue,70123,29.9496338,-90.2026408
825,Gordon Avenue,70123,29.9491292,-90.2025537
813,Gordon Avenue,70123,29.9486439,-90.2024447
801,Gordon Avenue,70123,29.9481715,-90.2023376
908,Colonial Club Drive,70123,29.9493488,-90.2039776
901,Tyler Avenue,70123,29.9491447,-90.2043336
913,Tyler Avenue,70123,29.9495480,-90.2043239
774,Grove Avenue,70123,29.9480037,-90.2019088
741,Gordon Avenue,70123,29.9479117,-90.2022455
704,Gordon Avenue,70123,29.9464951,-90.2023174
621,Gordon Avenue,70123,29.9455885,-90.2015883
725,Gordon Avenue,70123,29.9473253,-90.2020883
801,Roseland Parkway,70123,29.9480190,-90.2031327
728,Gordon Avenue,70123,29.9473775,-90.2025520
729,Roseland Parkway,70123,29.9473144,-90.2030010
632,Gordon Avenue,70123,29.9456428,-90.2020605
641,Roseland Parkway,70123,29.9458477,-90.2025277
746,Colonial Club Drive,70123,29.9470862,-90.2044054
1083,Colonial Club Drive,70123,29.9512157,-90.2026138
6605,9th Street,70123,29.9500006,-90.2027032
1001,Colonial Club Drive,70123,29.9498362,-90.2033450
1012,Colonial Club Drive,70123,29.9506899,-90.2033293
1000,Colonial Club Drive,70123,29.9502679,-90.2035848
925,Tyler Avenue,70123,29.9499595,-90.2042330
1000,Tyler Avenue,70123,29.9508378,-90.2045562
928,Tyler Avenue,70123,29.9502730,-90.2046606
916,Tyler Avenue,70123,29.9498787,-90.2047132
933,Franklin Avenue,70123,29.9503571,-90.2051677
921,Franklin Avenue,70123,29.9499584,-90.2052556
672,Oak Avenue,70123,29.9462097,-90.2003680
669,Grove Avenue,70123,29.9462587,-90.2009069
709,Grove Avenue,70123,29.9467574,-90.2010068
713,Gordon Avenue,70123,29.9468780,-90.2019591
712,Gordon Avenue,70123,29.9467991,-90.2023881
917,Hickory Avenue,70123,29.9507830,-90.2006413
1013,Colonial Club Drive,70123,29.9502817,-90.2030484
6509,9th Street,70123,29.9501885,-90.2021925
1200,Hickory Avenue,70123,29.9548585,-90.2027119
1121,Generes Drive,70123,29.9549235,-90.2031847
922,Franklin Avenue,70123,29.9500597,-90.2056711
1075,Colonial Club Drive,70123,29.9508224,-90.2025444
918,Oak Avenue,70123,29.9504329,-90.2019418
875,Oak Avenue,70123,29.9500141,-90.2012359
745,Woodward Avenue,70123,29.9471970,-90.2052154
842,Lincoln Avenue,70123,29.9473154,-90.2046637
649,Grove Avenue,70123,29.9458614,-90.2007679
613,Oak Avenue,70123,29.9457176,-90.1996553
834,Franklin Avenue,70123,29.9489169,-90.2058858
906,Franklin Avenue,70123,29.9494726,-90.2057901
813,Franklin Avenue,70123,29.9481906,-90.2055525
818,Tyler Avenue,70123,29.9482563,-90.2050681
821,Randolph Street,70123,29.9485575,-90.2062856
844,Oak Avenue,70123,29.9491676,-90.2014851
816,Oak Avenue,70123,29.9487844,-90.2013123
861,Grove Avenue,70123,29.9495184,-90.2019734
643,Grove Avenue,70123,29.9457182,-90.2006940
611,Oak Avenue,70123,29.9455426,-90.1995723
723,Grove Avenue,70123,29.9470332,-90.2011377
833,Randolph Street,70123,29.9489508,-90.2062136
818,Franklin Avenue,70123,29.9483736,-90.2059701
738,Randolph Street,70123,29.9472099,-90.2070155
742,Randolph Street,70123,29.9473348,-90.2069338
8012,Landry Avenue,70123,29.9454430,-90.2063261
8022,Landry Avenue,70123,29.9455292,-90.2065042
655,Posey Avenue,70123,29.9455474,-90.2081917
660,Resor Avenue,70123,29.9459742,-90.2085134
8026,Landry Avenue,70123,29.9455687,-90.2068017
649,Randolph Street,70123,29.9454217,-90.2068398
871,Grove Avenue,70123,29.9497552,-90.2020738
6505,8th Street,70123,29.9484454,-90.2013060
824,Oak Avenue,70123,29.9490516,-90.2013587
850,Oak Avenue,70123,29.9493187,-90.2015741
856,Oak Avenue,70123,29.9495395,-90.2015189
609,Hickory Avenue,70123,29.9456094,-90.1987063
912,Tyler Avenue,70123,29.9497416,-90.2047104
917,Tyler Avenue,70123,29.9496853,-90.2043110
909,Tyler Avenue,70123,29.9494210,-90.2043456
7805,Grover Avenue,70123,29.9491327,-90.2041339
906,Colonial Club Drive,70123,29.9492151,-90.2039653
912,Colonial Club Drive,70123,29.9494862,-90.2039725
818,Randolph Street,70123,29.9484163,-90.2063145
813,Randolph Street,70123,29.9482830,-90.2063308
835,Colonial Club Drive,70123,29.9488215,-90.2036622
825,Colonial Club Drive,70123,29.9484305,-90.2037045
821,Colonial Club Drive,70123,29.9482880,-90.2037178
830,Colonial Club Drive,70123,29.9485614,-90.2040736
826,Colonial Club Drive,70123,29.9482775,-90.2041552
824,Colonial Club Drive,70123,29.9481463,-90.2041701
700,Ashlawn Drive,70123,29.9460689,-90.2039056
7605,7th Street,70123,29.9462971,-90.2027912
1021,Tyler Avenue,70123,29.9514793,-90.2041888
975,Hickory Avenue,70123,29.9517322,-90.2009807
6601,10th Street,70123,29.9521225,-90.2031956
984,Hickory Avenue,70123,29.9519829,-90.2016413
1029,Tyler Avenue,70123,29.9518127,-90.2042407
656,Hickory Avenue,70123,29.9465525,-90.1995496
674,Hickory Avenue,70123,29.9467245,-90.1995729
668,Grove Avenue,70123,29.9461467,-90.2013113
648,Grove Avenue,70123,29.9457514,-90.2012131
709,Oak Avenue,70123,29.9471111,-90.2002135
707,Oak Avenue,70123,29.9470144,-90.2001667
729,Grove Avenue,70123,29.9471706,-90.2011833
717,Grove Avenue,70123,29.9469128,-90.2010777
926,Oak Avenue,70123,29.9505994,-90.2019734
721,Franklin Avenue,70123,29.9465125,-90.2058549
709,Franklin Avenue,70123,29.9460513,-90.2059211
814,Colonial Club Drive,70123,29.9480238,-90.2042397
802,Colonial Club Drive,70123,29.9476136,-90.2042958
805,Tyler Avenue,70123,29.9477908,-90.2046407
825,Lincoln Avenue,70123,29.9476572,-90.2046348
816,Tyler Avenue,70123,29.9481290,-90.2050397
810,Tyler Avenue,70123,29.9479853,-90.2050570
640,Gordon Avenue,70123,29.9459143,-90.2021876
636,Roseland Parkway,70123,29.9456114,-90.2029610
649,Ashlawn Drive,70123,29.9456596,-90.2033666
647,Hickory Avenue,70123,29.9461461,-90.1987773
953,Oak Avenue,70123,29.9513217,-90.2017546
1017,Tyler Avenue,70123,29.9513419,-90.2042142
958,Oak Avenue,70123,29.9513919,-90.2022592
1087,Colonial Club Drive,70123,29.9513585,-90.2026642
1079,Colonial Club Drive,70123,29.9510243,-90.2025056
1020,Colonial Club Drive,70123,29.9509700,-90.2031502
1009,Tyler Avenue,70123,29.9510619,-90.2041682
1004,Tyler Avenue,70123,29.9509766,-90.2045768
8001,Calvin Avenue,70123,29.9509523,-90.2049979
949,Oak Avenue,70123,29.9512057,-90.2017040
931,Hickory Avenue,70123,29.9510320,-90.2006722
663,Grove Avenue,70123,29.9461393,-90.2008347
678,Oak Avenue,70123,29.9463767,-90.2004884
686,Oak Avenue,70123,29.9465400,-90.2005425
692,Oak Avenue,70123,29.9466135,-90.2005891
701,Oak Avenue,70123,29.9468784,-90.2001336
681,Oak Avenue,70123,29.9466542,-90.2000225
648,Hickory Avenue,70123,29.9462478,-90.1995038
981,Hickory Avenue,70123,29.9521027,-90.2011370
7921,Grover Avenue,70123,29.9492060,-90.2048232
908,Tyler Avenue,70123,29.9496094,-90.2047478
659,Hickory Avenue,70123,29.9466013,-90.1989846
809,Hickory Avenue,70123,29.9491381,-90.1999276
801,Hickory Avenue,70123,29.9489379,-90.1998277
779,Hickory Avenue,70123,29.9486115,-90.1996674
850,Hickory Avenue,70123,29.9496798,-90.2006611
808,Hickory Avenue,70123,29.9488299,-90.2004564
800,Hickory Avenue,70123,29.9487029,-90.2003653
843,Oak Avenue,70123,29.9493518,-90.2009193
815,Oak Avenue,70123,29.9487397,-90.2007770
833,Roseland Parkway,70123,29.9493086,-90.2033275
839,Roseland Parkway,70123,29.9494817,-90.2033447
7925,Grover Avenue,70123,29.9492842,-90.2053642
905,Franklin Avenue,70123,29.9493964,-90.2053379
913,Franklin Avenue,70123,29.9496871,-90.2053269
917,Franklin Avenue,70123,29.9498132,-90.2052390
703,Grove Avenue,70123,29.9466242,-90.2009861
826,Tyler Avenue,70123,29.9485281,-90.2049735
822,Tyler Avenue,70123,29.9483846,-90.2049873
825,Tyler Avenue,70123,29.9484587,-90.2044858
821,Tyler Avenue,70123,29.9483024,-90.2044791
7918,Grover Avenue,70123,29.9489238,-90.2049228
716,Gordon Avenue,70123,29.9469364,-90.2024462
637,Grove Avenue,70123,29.9455975,-90.2006648
642,Grove Avenue,70123,29.9456139,-90.2011165
620,Hickory Avenue,70123,29.9458332,-90.1993452
8104,Landry Avenue,70123,29.9456230,-90.2073558
8112,Landry Avenue,70123,29.9456043,-90.2075323
8114,Landry Avenue,70123,29.9456869,-90.2076625
8120,Landry Avenue,70123,29.9457386,-90.2079835
649,Woodward Avenue,70123,29.9455392,-90.2055350
8000,Landry Avenue,70123,29.9455222,-90.2059738
703,Woodward Avenue,70123,29.9458145,-90.2055058
6601,9th Street,70123,29.9500369,-90.2025172
1005,Colonial Club Drive,70123,29.9499993,-90.2032364
1009,Colonial Club Drive,70123,29.9501570,-90.2031037
1017,Colonial Club Drive,70123,29.9504263,-90.2029510
913,Hickory Avenue,70123,29.9506425,-90.2005947
924,Hickory Avenue,70123,29.9508300,-90.2010381
921,Oak Avenue,70123,29.9506455,-90.2015240
915,Oak Avenue,70123,29.9505125,-90.2014700
860,Hickory Avenue,70123,29.9499480,-90.2008946
936,Oak Avenue,70123,29.9507895,-90.2020403
750,Franklin Avenue,70123,29.9475350,-90.2061165
806,Franklin Avenue,70123,29.9479660,-90.2060163
801,Franklin Avenue,70123,29.9477888,-90.2056233
809,Franklin Avenue,70123,29.9480624,-90.2055655
966,Oak Avenue,70123,29.9516830,-90.2023615
1091,Colonial Club Drive,70123,29.9515474,-90.2027370
941,Oak Avenue,70123,29.9510851,-90.2016766
946,Hickory Avenue,70123,29.9511571,-90.2013020
8701,Darby Lane,70123,29.9502881,-90.2058709
1025,Tyler Avenue,70123,29.9516263,-90.2042062
8700,Bocage Place,70123,29.9519819,-90.2045949
910,Oak Avenue,70123,29.9502681,-90.2019018
1025,Colonial Club Drive,70123,29.9506964,-90.2027260
633,Roseland Parkway,70123,29.9455683,-90.2024485
704,Colonial Club Drive,70123,29.9456642,-90.2046639
700,Colonial Club Drive,70123,29.9454237,-90.2047273
1024,Colonial Club Drive,70123,29.9511640,-90.2030880
655,Ashlawn Drive,70123,29.9458261,-90.2033821
710,Colonial Club Drive,70123,29.9458559,-90.2046500
746,Franklin Avenue,70123,29.9473736,-90.2061436
724,Franklin Avenue,70123,29.9466785,-90.2062497
728,Franklin Avenue,70123,29.9468565,-90.2062236
742,Franklin Avenue,70123,29.9472307,-90.2061437
652,Resor Avenue,70123,29.9457771,-90.2086800
718,Randolph Street,70123,29.9465326,-90.2071205
722,Randolph Street,70123,29.9466570,-90.2071177
644,Gordon Avenue,70123,29.9460615,-90.2022346
700,Gordon Avenue,70123,29.9463543,-90.2022854
629,Gordon Avenue,70123,29.9459831,-90.2017416
1016,Colonial Club Drive,70123,29.9508177,-90.2032562
6613,9th Street,70123,29.9498804,-90.2030687
6609,9th Street,70123,29.9499415,-90.2028984
633,Gordon Avenue,70123,29.9461667,-90.2017644
674,Grove Avenue,70123,29.9462740,-90.2013949
709,Gordon Avenue,70123,29.9467309,-90.2019035
702,Grove Avenue,70123,29.9465172,-90.2014051
708,Grove Avenue,70123,29.9466526,-90.2014799
722,Grove Avenue,70123,29.9469107,-90.2015648
711,Roseland Parkway,70123,29.9465953,-90.2027930
735,Woodward Avenue,70123,29.9466523,-90.2051613
725,Roseland Parkway,70123,29.9470990,-90.2029907
727,Ashlawn Drive,70123,29.9469045,-90.2035028
732,Ashlawn Drive,70123,29.9470169,-90.2039343
738,Resor Avenue,70123,29.9473890,-90.2077742
833,Franklin Avenue,70123,29.9488527,-90.2053737
925,Franklin Avenue,70123,29.9500927,-90.2052297
937,Franklin Avenue,70123,29.9504903,-90.2050986
941,Franklin Avenue,70123,29.9506162,-90.2050356
920,Tyler Avenue,70123,29.9500078,-90.2046668
924,Tyler Avenue,70123,29.9501471,-90.2046849
940,Tyler Avenue,70123,29.9505490,-90.2046044
1005,Tyler Avenue,70123,29.9509203,-90.2041463
1001,Tyler Avenue,70123,29.9507825,-90.2040985
929,Tyler Avenue,70123,29.9500880,-90.2041994
921,Tyler Avenue,70123,29.9498255,-90.2042993
930,Colonial Club Drive,70123,29.9499044,-90.2038571
918,Franklin Avenue,70123,29.9498705,-90.2057157
668,Oak Avenue,70123,29.9458770,-90.2002361
625,Gordon Avenue,70123,29.9457660,-90.2016646
712,Resor Avenue,70123,29.9466124,-90.2081525
733,Resor Avenue,70123,29.9471299,-90.2073838
729,Resor Avenue,70123,29.9469925,-90.2074296
725,Resor Avenue,70123,29.9468593,-90.2074771
717,Resor Avenue,70123,29.9465853,-90.2074952
713,Resor Avenue,70123,29.9464422,-90.2075169
709,Resor Avenue,70123,29.9463292,-90.2076378
705,Resor Avenue,70123,29.9461800,-90.2075667
706,Randolph Street,70123,29.9461291,-90.2072382
710,Randolph Street,70123,29.9462686,-90.2072263
7707,7th Street,70123,29.9461364,-90.2035479
7701,7th Street,70123,29.9461685,-90.2033751
715,Ashlawn Drive,70123,29.9465679,-90.2034977
726,Ashlawn Drive,70123,29.9468189,-90.2039458
714,Ashlawn Drive,70123,29.9464883,-90.2039729
708,Ashlawn Drive,70123,29.9463364,-90.2040156
804,Gordon Avenue,70123,29.9482415,-90.2028079
812,Gordon Avenue,70123,29.9485665,-90.2028775
816,Gordon Avenue,70123,29.9487372,-90.2028950
820,Gordon Avenue,70123,29.9488888,-90.2029478
824,Gordon Avenue,70123,29.9490684,-90.2029715
832,Gordon Avenue,70123,29.9493837,-90.2030533
836,Gordon Avenue,70123,29.9495389,-90.2030794
741,Resor Avenue,70123,29.9474169,-90.2073689
746,Randolph Street,70123,29.9474753,-90.2069068
750,Randolph Street,70123,29.9476501,-90.2069083
800,Randolph Street,70123,29.9479514,-90.2068921
719,Hickory Avenue,70123,29.9480250,-90.1996028
717,Hickory Avenue,70123,29.9478327,-90.1994102
715,Hickory Avenue,70123,29.9476260,-90.1994616
713,Hickory Avenue,70123,29.9475112,-90.1993449
756,Hickory Avenue,70123,29.9481303,-90.2001856
736,Hickory Avenue,70123,29.9476882,-90.1999237
712,Hickory Avenue,70123,29.9473944,-90.1998876
731,Oak Avenue,70123,29.9480312,-90.2005587
727,Oak Avenue,70123,29.9478743,-90.2004851
715,Oak Avenue,70123,29.9473335,-90.2002519
772,Oak Avenue,70123,29.9480596,-90.2010494
724,Oak Avenue,70123,29.9474234,-90.2007985
800,Gordon Avenue,70123,29.9480869,-90.2027847
7200,8th Street,70123,29.9478020,-90.2027321
768,Gordon Avenue,70123,29.9476658,-90.2026489
737,Roseland Parkway,70123,29.9477083,-90.2030748
7809,8th Street,70123,29.9480718,-90.2037981
7801,8th Street,70123,29.9480328,-90.2036159
805,Randolph Street,70123,29.9480179,-90.2063504
749,Randolph Street,70123,29.9475865,-90.2064984
747,Randolph Street,70123,29.9474266,-90.2065103
7804,8th Street,70123,29.9476677,-90.2037045
732,Ashlawn Drive,70123,29.9473335,-90.2035617
636,Grove Avenue,70123,29.9454884,-90.2010591
631,Grove Avenue,70123,29.9454624,-90.2005687
725,Randolph Street,70123,29.9467472,-90.2066124
721,Randolph Street,70123,29.9465853,-90.2066223
706,Franklin Avenue,70123,29.9460020,-90.2063673
714,Franklin Avenue,70123,29.9462775,-90.2063524
710,Franklin Avenue,70123,29.9461537,-90.2063583
8700,Tanglewild Place,70123,29.9513318,-90.2051139
8600,Melrose Lane,70123,29.9493000,-90.2067278
775,Grove Avenue,70123,29.9481047,-90.2015069
763,Grove Avenue,70123,29.9478472,-90.2014314
755,Grove Avenue,70123,29.9476995,-90.2013865
743,Grove Avenue,70123,29.9474283,-90.2012625
768,Grove Avenue,70123,29.9478672,-90.2018821
762,Grove Avenue,70123,29.9477138,-90.2018192
748,Grove Avenue,70123,29.9474716,-90.2017178
737,Gordon Avenue,70123,29.9477689,-90.2022021
729,Gordon Avenue,70123,29.9474688,-90.2021205
935,Hickory Avenue,70123,29.9511965,-90.2006701
636,Gordon Avenue,70123,29.9457750,-90.2021433
805,Gordon Avenue,70123,29.9483321,-90.2023418
817,Gordon Avenue,70123,29.9488216,-90.2024559
821,Gordon Avenue,70123,29.9489724,-90.2025038
829,Gordon Avenue,70123,29.9492980,-90.2025868
833,Gordon Avenue,70123,29.9494704,-90.2026097
810,Grove Avenue,70123,29.9484378,-90.2020289
830,Grove Avenue,70123,29.9488230,-90.2021472
840,Grove Avenue,70123,29.9490249,-90.2022113
803,Grove Avenue,70123,29.9483809,-90.2015684
811,Grove Avenue,70123,29.9485294,-90.2016370
841,Grove Avenue,70123,29.9491222,-90.2018227
726,Randolph Street,70123,29.9468117,-90.2070645
617,Gordon Avenue,70123,29.9454221,-90.2015240
813,Roseland Parkway,70123,29.9484716,-90.2032150
817,Roseland Parkway,70123,29.9486371,-90.2032774
715,Woodward Avenue,70123,29.9461727,-90.2053733
743,Randolph Street,70123,29.9472908,-90.2065367
737,Randolph Street,70123,29.9471514,-90.2065544
729,Randolph Street,70123,29.9468764,-90.2065942
821,Franklin Avenue,70123,29.9484403,-90.2055453
914,Franklin Avenue,70123,29.9497358,-90.2057513
910,Franklin Avenue,70123,29.9496003,-90.2057321
838,Franklin Avenue,70123,29.9490499,-90.2058488
830,Franklin Avenue,70123,29.9487887,-90.2059226
826,Franklin Avenue,70123,29.9486392,-90.2059173
814,Franklin Avenue,70123,29.9482418,-90.2059824
837,Randolph Street,70123,29.9491221,-90.2061902
829,Randolph Street,70123,29.9488407,-90.2062483
825,Randolph Street,70123,29.9487163,-90.2062610
1105,Generes Drive,70123,29.9542239,-90.2029263
1115,Hickory Avenue,70123,29.9537884,-90.2016095
1075,Hickory Avenue,70123,29.9533333,-90.2015059
825,Roseland Parkway,70123,29.9489675,-90.2032607
1136,Hickory Avenue,70123,29.9547304,-90.2026706
1117,Generes Drive,70123,29.9547378,-90.2031452
460,Stratford Drive,70123,29.9415240,-90.2049273
8112,Harris Avenue,70123,29.9424488,-90.2084663
422,Colonial Club Drive,70123,29.9407792,-90.2056070
555,Ashlawn Drive,70123,29.9435260,-90.2032637
253,Anthony Avenue,70123,29.9374367,-90.2038767
240,West Avenue,70123,29.9377445,-90.1980568
453,Soniat Avenue,70123,29.9404159,-90.2019420
452,Soniat Avenue,70123,29.9401064,-90.2023214
568,Colonial Club Drive,70123,29.9437765,-90.2050196
436,Roseland Parkway,70123,29.9400494,-90.2014009
436,Stratford Drive,70123,29.9408807,-90.2050060
8011,Jefferson Highway,70123,29.9364310,-90.2083038
501,Gordon Avenue,70123,29.9420275,-90.2005566
516,Gordon Avenue,70123,29.9422882,-90.2011768
7724,Norton Avenue,70123,29.9388582,-90.2052230
490,Oak Avenue,70123,29.9425004,-90.1987791
311,Wainwright Drive,70123,29.9383693,-90.2072401
8108,Harris Avenue,70123,29.9423417,-90.2082550
501,Oak Avenue,70123,29.9433542,-90.1988907
271,Roseland Parkway,70123,29.9374046,-90.2005285
8004,Harris Avenue,70123,29.9420670,-90.2066009
8000,Harris Avenue,70123,29.9420730,-90.2064331
319,Wainwright Drive,70123,29.9385003,-90.2072840
516,Randolph Street,70123,29.9429727,-90.2078327
8001,Barocco Drive,70123,29.9417110,-90.2069921
7612,Norton Avenue,70123,29.9385945,-90.2031863
268,Anthony Avenue,70123,29.9380037,-90.2041986
239,Soniat Avenue,70123,29.9368732,-90.2013936
200,Penfold Place,70123,29.9359776,-90.2054979
622,Grove Avenue,70123,29.9452255,-90.2009944
633,Randolph Street,70123,29.9449708,-90.2069031
650,Woodward Avenue,70123,29.9453556,-90.2060670
560,Roseland Parkway,70123,29.9433655,-90.2021889
566,Grove Avenue,70123,29.9440769,-90.2005610
498,West Avenue,70123,29.9424333,-90.1994729
519,Stratford Drive,70123,29.9426420,-90.2042156
7208,6th Street,70123,29.9441358,-90.2025539
483,Roseland Parkway,70123,29.9410952,-90.2011039
502,Gordon Avenue,70123,29.9417186,-90.2008390
408,Soniat Avenue,70123,29.9394284,-90.2021828
363,Gordon Avenue,70123,29.9392092,-90.1999156
7021,Gasper Place,70123,29.9396978,-90.1994572
449,Ashlawn Drive,70123,29.9410930,-90.2037173
479,Stratford Drive,70123,29.9419666,-90.2043370
532,Gordon Avenue,70123,29.9427437,-90.2012186
542,Gordon Avenue,70123,29.9430547,-90.2012335
441,Oak Avenue,70123,29.9423060,-90.1978071
3,Wilcox Boulevard,70123,29.9409316,-90.2067871
260,Roseland Parkway,70123,29.9371637,-90.2010787
7060,Jefferson Highway,70123,29.9359155,-90.1991802
558,Hickory Avenue,70123,29.9446951,-90.1989490
244,Gordon Avenue,70123,29.9371819,-90.2000982
240,Gordon Avenue,70123,29.9370137,-90.2000662
346,Roseland Parkway,70123,29.9385615,-90.2012615
624,Roseland Parkway,70123,29.9451705,-90.2029100
376,West Avenue,70123,29.9400895,-90.1983842
355,Carolyn Drive,70123,29.9392660,-90.1986721
210,Carolyn Drive,70123,29.9367182,-90.1990545
8008,Barocco Drive,70123,29.9413903,-90.2074458
270,Wainwright Drive,70123,29.9377520,-90.2079223
8028,Marshall Drive,70123,29.9392601,-90.2080978
416,Colonial Club Drive,70123,29.9404071,-90.2056469
413,Picone Drive,70123,29.9403243,-90.2062683
7929,Barocco Drive,70123,29.9416602,-90.2066230
333,Roseland Parkway,70123,29.9384778,-90.2006486
449,Oak Avenue,70123,29.9425170,-90.1981095
461,Carolyn Drive,70123,29.9415080,-90.1991977
225,Penfold Place,70123,29.9370787,-90.2047618
6201,6th Street,70123,29.9450953,-90.1999655
616,Gordon Avenue,70123,29.9450359,-90.2019033
524,Grove Avenue,70123,29.9431485,-90.2002207
429,Roseland Parkway,70123,29.9398228,-90.2008117
505,Soniat Avenue,70123,29.9409021,-90.2022737
7700,Wilson Street,70123,29.9393281,-90.2039273
269,West Avenue,70123,29.9384019,-90.1977797
7613,Wilson Street,70123,29.9397565,-90.2036639
8012,Harris Avenue,70123,29.9422632,-90.2069706
530,Stratford Drive,70123,29.9430099,-90.2046494
7938,Harris Avenue,70123,29.9420448,-90.2061170
361,Gordon Avenue,70123,29.9390943,-90.1998555
329,Colonial Club Drive,70123,29.9385115,-90.2050405
256,Roseland Parkway,70123,29.9370050,-90.2010377
217,Mayo Avenue,70123,29.9362008,-90.2033073
524,Roseland Parkway,70123,29.9423351,-90.2020504
530,Ashlawn Drive,70123,29.9429212,-90.2038291
481,Gordon Avenue,70123,29.9414219,-90.2001574
7220,Wilson Street,70123,29.9405169,-90.2017623
437,Roseland Parkway,70123,29.9400998,-90.2008498
7706,Kenmore Drive,70123,29.9400715,-90.2043748
532,Colonial Club Drive,70123,29.9429547,-90.2051307
328,Gordon Avenue,70123,29.9384065,-90.2002415
350,Gordon Avenue,70123,29.9389136,-90.2002904
654,Colonial Club Drive,70123,29.9450030,-90.2047866
610,Woodward Avenue,70123,29.9444210,-90.2062675
229,Penfold Place,70123,29.9372731,-90.2047414
216,Anthony Avenue,70123,29.9363379,-90.2044724
8013,Barocco Drive,70123,29.9417734,-90.2075530
7961,Jefferson Highway,70123,29.9364162,-90.2076301
264,Anthony Avenue,70123,29.9378806,-90.2042091
500,Oak Avenue,70123,29.9429575,-90.1991730
424,Oak Avenue,70123,29.9416236,-90.1977804
323,West Avenue,70123,29.9391931,-90.1978642
361,Carolyn Drive,70123,29.9394268,-90.1986741
430,Soniat Avenue,70123,29.9398356,-90.2022288
429,Soniat Avenue,70123,29.9398794,-90.2017593
416,Roseland Parkway,70123,29.9396311,-90.2014175
429,Gordon Avenue,70123,29.9403446,-90.2000209
377,Gordon Avenue,70123,29.9395028,-90.1998571
457,Roseland Parkway,70123,29.9405134,-90.2009186
503,Soniat Avenue,70123,29.9407438,-90.2022477
426,Gordon Avenue,70123,29.9401146,-90.2004634
410,Gordon Avenue,70123,29.9398579,-90.2004125
411,Roseland Parkway,70123,29.9395454,-90.2007794
447,Oak Avenue,70123,29.9424284,-90.1979286
356,West Avenue,70123,29.9396759,-90.1983286
438,Oak Avenue,70123,29.9417777,-90.1978716
543,Gordon Avenue,70123,29.9430350,-90.2007575
513,Gordon Avenue,70123,29.9422347,-90.2006878
7001,Wilson Street,70123,29.9423975,-90.2001336
512,Grove Avenue,70123,29.9428889,-90.2000862
506,Ashlawn Drive,70123,29.9422699,-90.2039658
536,Ashlawn Drive,70123,29.9430917,-90.2038016
408,Colonial Club Drive,70123,29.9400102,-90.2056922
7720,Wilson Street,70123,29.9394396,-90.2047127
7717,Wilson Street,70123,29.9398132,-90.2046067
412,Stratford Drive,70123,29.9402089,-90.2052015
309,West Avenue,70123,29.9388683,-90.1978095
534,Woodward Avenue,70123,29.9432654,-90.2063909
8001,Harris Avenue,70123,29.9426069,-90.2064764
8029,Harris Avenue,70123,29.9427838,-90.2073509
506,Stratford Drive,70123,29.9423782,-90.2047773
525,Woodward Avenue,70123,29.9429615,-90.2059933
7917,Harris Avenue,70123,29.9424644,-90.2054296
498,Colonial Club Drive,70123,29.9420327,-90.2053359
536,Stratford Drive,70123,29.9431898,-90.2045609
538,Colonial Club Drive,70123,29.9430858,-90.2051471
563,Woodward Avenue,70123,29.9436339,-90.2058898
554,Colonial Club Drive,70123,29.9435229,-90.2050551
418,Stratford Drive,70123,29.9403815,-90.2051168
477,Roseland Parkway,70123,29.9409221,-90.2009558
519,Soniat Avenue,70123,29.9416667,-90.2023927
504,Roseland Parkway,70123,29.9411695,-90.2017751
501,Kenmore Drive,70123,29.9403301,-90.2030996
601,Randolph Street,70123,29.9443909,-90.2070340
564,Roseland Parkway,70123,29.9435178,-90.2021930
565,Roseland Parkway,70123,29.9437008,-90.2018305
580,Gordon Avenue,70123,29.9437971,-90.2014372
579,Gordon Avenue,70123,29.9439003,-90.2009954
532,Grove Avenue,70123,29.9439374,-90.2005022
555,Gordon Avenue,70123,29.9433309,-90.2008310
573,Gordon Avenue,70123,29.9437733,-90.2009271
511,Grove Avenue,70123,29.9430313,-90.1996345
528,Roseland Parkway,70123,29.9424906,-90.2020745
494,West Avenue,70123,29.9423164,-90.1994125
563,Ashlawn Drive,70123,29.9438362,-90.2031898
542,Ashlawn Drive,70123,29.9432549,-90.2037674
561,Stratford Drive,70123,29.9438439,-90.2040193
7713,6th Street,70123,29.9442456,-90.2039825
471,Roseland Parkway,70123,29.9407680,-90.2009139
521,Randolph Street,70123,29.9429831,-90.2071850
7928,Ferrara Drive,70123,29.9397329,-90.2069507
5,Wilcox Boulevard,70123,29.9409839,-90.2069593
8005,Barocco Drive,70123,29.9417545,-90.2071840
416,Picone Drive,70123,29.9409304,-90.2065937
449,Roseland Parkway,70123,29.9403804,-90.2009032
533,Kenmore Drive,70123,29.9415685,-90.2028747
513,Kenmore Drive,70123,29.9407118,-90.2027259
501,Ashlawn Drive,70123,29.9420645,-90.2035429
300,Carolyn Drive,70123,29.9381957,-90.1993466
321,Gordon Avenue,70123,29.9382643,-90.1997774
310,Gordon Avenue,70123,29.9381216,-90.2002472
289,Roseland Parkway,70123,29.9379153,-90.2005908
280,Roseland Parkway,70123,29.9374424,-90.2010932
341,Soniat Avenue,70123,29.9384410,-90.2015834
277,West Avenue,70123,29.9385321,-90.1978169
546,Hickory Avenue,70123,29.9443093,-90.1987853
500,Hickory Avenue,70123,29.9436084,-90.1984078
537,Hickory Avenue,70123,29.9442513,-90.1981548
470,Hickory Avenue,70123,29.9430172,-90.1979553
464,Hickory Avenue,70123,29.9427981,-90.1977671
483,Carolyn Drive,70123,29.9420111,-90.1996402
460,Carolyn Drive,70123,29.9413543,-90.1995656
475,Gordon Avenue,70123,29.9412962,-90.2001254
513,Roseland Parkway,70123,29.9420353,-90.2015418
7103,Wilson Street,70123,29.9416012,-90.2010697
488,Gordon Avenue,70123,29.9415278,-90.2005994
456,Gordon Avenue,70123,29.9408039,-90.2005205
232,West Avenue,70123,29.9376048,-90.1980686
453,West Avenue,70123,29.9417920,-90.1984734
425,West Avenue,70123,29.9411781,-90.1980952
571,Soniat Avenue,70123,29.9433913,-90.2025781
405,West Avenue,70123,29.9406611,-90.1980086
428,Carolyn Drive,70123,29.9407506,-90.1993011
447,Carolyn Drive,70123,29.9412367,-90.1989788
453,Carolyn Drive,70123,29.9413749,-90.1990690
410,West Avenue,70123,29.9407215,-90.1985001
458,West Avenue,70123,29.9417168,-90.1988455
329,Marquette Street,70123,29.9401728,-90.1978603
407,Carolyn Drive,70123,29.9402302,-90.1987600
367,Carolyn Drive,70123,29.9395868,-90.1987088
507,Ashlawn Drive,70123,29.9422512,-90.2034947
553,Kenmore Drive,70123,29.9423842,-90.2029826
454,Soniat Avenue,70123,29.9429268,-90.2025371
549,Kenmore Drive,70123,29.9422273,-90.2029276
644,Woodward Avenue,70123,29.9450050,-90.2061145
624,Woodward Avenue,70123,29.9447096,-90.2061757
563,Grove Avenue,70123,29.9440564,-90.2000990
531,Grove Avenue,70123,29.9433866,-90.1998620
628,Roseland Parkway,70123,29.9453120,-90.2029171
212,Anthony Avenue,70123,29.9362282,-90.2045544
204,Anthony Avenue,70123,29.9359550,-90.2045465
217,Penfold Place,70123,29.9366950,-90.2048668
224,Anthony Avenue,70123,29.9365927,-90.2044595
225,Anthony Avenue,70123,29.9365537,-90.2039615
616,Posey Avenue,70123,29.9451301,-90.2086762
625,Posey Avenue,70123,29.9449185,-90.2082845
647,Randolph Street,70123,29.9452834,-90.2068670
624,Randolph Street,70123,29.9448362,-90.2074827
570,Hickory Avenue,70123,29.9449136,-90.1989639
460,Colonial Club Drive,70123,29.9415419,-90.2053489
430,Stratford Drive,70123,29.9407209,-90.2050761
454,Stratford Drive,70123,29.9413638,-90.2049300
431,Stratford Drive,70123,29.9406372,-90.2046034
409,Picone Drive,70123,29.9401520,-90.2062874
7921,Barocco Drive,70123,29.9416422,-90.2062399
400,Picone Drive,70123,29.9400754,-90.2067998
274,Soniat Avenue,70123,29.9372973,-90.2019423
220,Soniat Avenue,70123,29.9360157,-90.2017878
7612,Wilson Street,70123,29.9392506,-90.2029704
7712,Wilson Street,70123,29.9393702,-90.2043470
8027,Marshall Drive,70123,29.9396344,-90.2079753
453,Ashlawn Drive,70123,29.9412348,-90.2036872
508,Kenmore Drive,70123,29.9405866,-90.2034119
540,Kenmore Drive,70123,29.9417935,-90.2033501
454,Ashlawn Drive,70123,29.9412765,-90.2041495
449,Stratford Drive,70123,29.9411505,-90.2045136
505,Kenmore Drive,70123,29.9404275,-90.2029707
7605,Wilson Street,70123,29.9398185,-90.2032819
7672,Kenmore Drive,70123,29.9399888,-90.2040069
7507,Wilson Street,70123,29.9401621,-90.2028354
260,West Avenue,70123,29.9381250,-90.1981049
7212,Monroe Street,70123,29.9364014,-90.2009802
232,Mayo Avenue,70123,29.9367528,-90.2035602
208,Mayo Avenue,70123,29.9359890,-90.2037605
241,Anthony Avenue,70123,29.9370658,-90.2038745
249,Mayo Avenue,70123,29.9372122,-90.2030412
221,Mayo Avenue,70123,29.9363124,-90.2032519
301,Carolyn Drive,70123,29.9383018,-90.1988303
241,Carolyn Drive,70123,29.9374977,-90.1987218
258,Carolyn Drive,70123,29.9377141,-90.1992448
312,Soniat Avenue,70123,29.9380509,-90.2020173
353,Soniat Avenue,70123,29.9389097,-90.2016523
360,Gordon Avenue,70123,29.9391944,-90.2003411
273,Mayo Avenue,70123,29.9379961,-90.2029322
272,Mayo Avenue,70123,29.9380427,-90.2033794
257,Anthony Avenue,70123,29.9375664,-90.2038199
281,Anthony Avenue,70123,29.9383401,-90.2037363
200,Colonial Club Drive,70123,29.9361241,-90.2063789
241,Wainwright Drive,70123,29.9371260,-90.2074666
301,Wainwright Drive,70123,29.9382392,-90.2073183
4,Erin Court,70123,29.9367201,-90.2070557
260,Anthony Avenue,70123,29.9377533,-90.2042417
7604,Norton Avenue,70123,29.9385554,-90.2027681
7700,Norton Avenue,70123,29.9387176,-90.2040113
245,Penfold Place,70123,29.9380914,-90.2045635
7609,Norton Avenue,70123,29.9389339,-90.2029017
7705,Norton Avenue,70123,29.9390912,-90.2041388
221,Gordon Avenue,70123,29.9367341,-90.1996046
7115,Monroe Street,70123,29.9369360,-90.2003210
544,Randolph Street,70123,29.9438093,-90.2077187
500,Randolph Street,70123,29.9427708,-90.2078362
535,Posey Avenue,70123,29.9434282,-90.2085604
8017,Barocco Drive,70123,29.9418110,-90.2077359
8105,Barocco Drive,70123,29.9419749,-90.2085189
14,Wilcox Boulevard,70123,29.9406733,-90.2077694
8012,Barocco Drive,70123,29.9413983,-90.2076395
417,Cressionne Drive,70123,29.9412430,-90.2081820
413,Cressionne Drive,70123,29.9410813,-90.2082059
426,Cressionne Drive,70123,29.9415916,-90.2085869
8012,Ferrara Drive,70123,29.9401113,-90.2080452
262,Wainwright Drive,70123,29.9375973,-90.2079039
237,Wainwright Drive,70123,29.9368664,-90.2075427
7907,Jefferson Highway,70123,29.9361687,-90.2066086
343,Carolyn Drive,70123,29.9389215,-90.1986493
272,West Avenue,70123,29.9383814,-90.1982038
644,Stratford Drive,70123,29.9454064,-90.2037595
618,Stratford Drive,70123,29.9446903,-90.2043356
621,Stratford Drive,70123,29.9447901,-90.2038993
612,Ashlawn Drive,70123,29.9446076,-90.2036897
631,Ashlawn Drive,70123,29.9451486,-90.2033251
619,Roseland Parkway,70123,29.9450621,-90.2022878
613,Roseland Parkway,70123,29.9448111,-90.2023218
599,Gordon Avenue,70123,29.9444674,-90.2012099
605,Gordon Avenue,70123,29.9449150,-90.2013625
613,Gordon Avenue,70123,29.9452661,-90.2014437
603,Oak Avenue,70123,29.9452058,-90.1995265
630,Grove Avenue,70123,29.9453399,-90.2010367
623,Grove Avenue,70123,29.9453312,-90.2005832
585,Oak Avenue,70123,29.9447041,-90.1993157
579,Grove Avenue,70123,29.9444260,-90.2002463
7069,Jefferson Highway,70123,29.9365033,-90.1991850
350,Carolyn Drive,70123,29.9391436,-90.1991310
7201,Monroe Street,70123,29.9367267,-90.2010300
620,Colonial Club Drive,70123,29.9447426,-90.2048152
216,Penfold Place,70123,29.9367601,-90.2053543
301,Colonial Club Drive,70123,29.9380049,-90.2055247
225,Colonial Club Drive,70123,29.9371968,-90.2056450
217,Colonial Club Drive,70123,29.9368097,-90.2057259
316,Colonial Club Drive,70123,29.9383928,-90.2059991
625,Woodward Avenue,70123,29.9451417,-90.2055977
491,Carolyn Drive,70123,29.9421648,-90.1997615
543,Roseland Parkway,70123,29.9430920,-90.2016854
336,Colonial Club Drive,70123,29.9391456,-90.2058291
350,Halsey Drive,70123,29.9392481,-90.2087714
243,Halsey Drive,70123,29.9370384,-90.2084854
8019,Jefferson Highway,70123,29.9364317,-90.2085150
8003,Jefferson Highway,70123,29.9363717,-90.2080729
293,Halsey Drive,70123,29.9379591,-90.2084348
287,Halsey Drive,70123,29.9378047,-90.2084427
323,Halsey Drive,70123,29.9386716,-90.2082710
350,Wainwright Drive,70123,29.9390220,-90.2076428
302,Wainwright Drive,70123,29.9385847,-90.2077375
300,Wainwright Drive,70123,29.9383219,-90.2078550
373,Roseland Parkway,70123,29.9394145,-90.2007481
447,Roseland Parkway,70123,29.9402383,-90.2008729
430,Gordon Avenue,70123,29.9402811,-90.2004695
7601,Norton Avenue,70123,29.9389104,-90.2025002
358,Soniat Avenue,70123,29.9390196,-90.2021166
359,Soniat Avenue,70123,29.9390433,-90.2017146
358,Roseland Parkway,70123,29.9389558,-90.2012201
557,Kenmore Drive,70123,29.9425556,-90.2029903
531,Soniat Avenue,70123,29.9423161,-90.2024719
543,Soniat Avenue,70123,29.9427687,-90.2024946
576,Roseland Parkway,70123,29.9439644,-90.2023073
589,Soniat Avenue,70123,29.9438597,-90.2026241
581,Soniat Avenue,70123,29.9435439,-90.2026371
221,Anthony Avenue,70123,29.9364245,-90.2040028
240,Anthony Avenue,70123,29.9371254,-90.2044067
228,Anthony Avenue,70123,29.9367412,-90.2044743
321,Soniat Avenue,70123,29.9382637,-90.2015712
301,Soniat Avenue,70123,29.9376907,-90.2015142
353,Gordon Avenue,70123,29.9389737,-90.1998425
7020,Gasper Place,70123,29.9392126,-90.1993834
241,Penfold Place,70123,29.9378667,-90.2045706
7720,Norton Avenue,70123,29.9388234,-90.2050316
7708,Norton Avenue,70123,29.9387610,-90.2044247
7624,Norton Avenue,70123,29.9386705,-90.2037963
300,Soniat Avenue,70123,29.9377608,-90.2019851
320,Soniat Avenue,70123,29.9382070,-90.2020818
347,Soniat Avenue,70123,29.9388006,-90.2015050
209,Colonial Club Drive,70123,29.9364106,-90.2058086
318,Colonial Club Drive,70123,29.9386078,-90.2060195
240,Colonial Club Drive,70123,29.9375993,-90.2061353
7729,Norton Avenue,70123,29.9392333,-90.2053673
558,Ashlawn Drive,70123,29.9437408,-90.2036949
555,Stratford Drive,70123,29.9436339,-90.2040760
537,Stratford Drive,70123,29.9431306,-90.2041476
600,Stratford Drive,70123,29.9441958,-90.2043913
560,Stratford Drive,70123,29.9438928,-90.2044581
436,Gordon Avenue,70123,29.9404155,-90.2004603
7011,Joseph Place,70123,29.9404215,-90.1993239
567,Ashlawn Drive,70123,29.9440111,-90.2031697
549,Ashlawn Drive,70123,29.9433526,-90.2033017
7713,Norton Avenue,70123,29.9391402,-90.2045580
7701,Norton Avenue,70123,29.9390659,-90.2039420
7617,Norton Avenue,70123,29.9389796,-90.2033230
228,Mayo Avenue,70123,29.9366542,-90.2036828
240,Mayo Avenue,70123,29.9370157,-90.2035559
7010,Gasper Place,70123,29.9393114,-90.1991067
200,Carolyn Drive,70123,29.9365386,-90.1989950
226,Carolyn Drive,70123,29.9370538,-90.1991548
250,Carolyn Drive,70123,29.9375490,-90.1992269
274,Carolyn Drive,70123,29.9380379,-90.1993092
229,Carolyn Drive,70123,29.9373476,-90.1987188
257,Carolyn Drive,70123,29.9377871,-90.1987134
281,Carolyn Drive,70123,29.9381973,-90.1987520
325,Carolyn Drive,70123,29.9386618,-90.1989235
304,West Avenue,70123,29.9386393,-90.1982077
288,Roseland Parkway,70123,29.9375982,-90.2010696
312,Roseland Parkway,70123,29.9380054,-90.2011572
619,Ashlawn Drive,70123,29.9448291,-90.2032363
616,Roseland Parkway,70123,29.9448865,-90.2027975
620,Ashlawn Drive,70123,29.9448342,-90.2036746
620,Stratford Drive,70123,29.9448494,-90.2042900
636,Stratford Drive,70123,29.9453299,-90.2041311
7011,Gasper Place,70123,29.9396417,-90.1991455
474,West Avenue,70123,29.9420141,-90.1991263
215,Gordon Avenue,70123,29.9365793,-90.1995654
245,Anthony Avenue,70123,29.9371803,-90.2038731
233,Anthony Avenue,70123,29.9368105,-90.2039312
212,Mayo Avenue,70123,29.9361160,-90.2037253
7920,Ferrara Drive,70123,29.9395673,-90.2065975
7933,Ferrara Drive,70123,29.9401878,-90.2070064
7936,Ferrara Drive,70123,29.9398796,-90.2072957
7924,Ferrara Drive,70123,29.9396375,-90.2067818
7928,Barocco Drive,70123,29.9412563,-90.2067076
9,Wilcox Boulevard,70123,29.9410447,-90.2073229
4,Wilcox Boulevard,70123,29.9405687,-90.2069719
7933,Barocco Drive,70123,29.9416945,-90.2068116
412,Picone Drive,70123,29.9405563,-90.2066922
355,Roseland Parkway,70123,29.9389951,-90.2006991
635,Woodward Avenue,70123,29.9452774,-90.2055903
621,Woodward Avenue,70123,29.9448557,-90.2056405
518,Grove Avenue,70123,29.9430361,-90.2001166
7019,Wilson Street,70123,29.9421709,-90.2003480
531,Gordon Avenue,70123,29.9427209,-90.2007817
515,Roseland Parkway,70123,29.9421949,-90.2015701
529,Roseland Parkway,70123,29.9426389,-90.2016342
538,Gordon Avenue,70123,29.9428997,-90.2012491
488,West Avenue,70123,29.9421933,-90.1993400
540,Roseland Parkway,70123,29.9427802,-90.2020933
646,Woodward Avenue,70123,29.9451973,-90.2060967
7021,Joseph Place,70123,29.9405235,-90.1995499
7031,Gasper Place,70123,29.9396435,-90.1996545
381,Gordon Avenue,70123,29.9396439,-90.1998773
415,Gordon Avenue,70123,29.9400602,-90.1999916
446,Roseland Parkway,70123,29.9403260,-90.2014559
266,West Avenue,70123,29.9382595,-90.1981521
349,Carolyn Drive,70123,29.9391005,-90.1986349
324,West Avenue,70123,29.9390148,-90.1982028
257,Mayo Avenue,70123,29.9374710,-90.2030733
7200,Monroe Street,70123,29.9364362,-90.2008046
7129,Jefferson Highway,70123,29.9360849,-90.2005928
209,Mayo Avenue,70123,29.9359900,-90.2033619
225,Mayo Avenue,70123,29.9364654,-90.2032590
241,Mayo Avenue,70123,29.9369584,-90.2031442
253,Mayo Avenue,70123,29.9373424,-90.2030823
222,Soniat Avenue,70123,29.9361507,-90.2017766
248,Soniat Avenue,70123,29.9367396,-90.2019087
243,Gordon Avenue,70123,29.9370926,-90.1996301
601,Gordon Avenue,70123,29.9447634,-90.2013116
616,Grove Avenue,70123,29.9451091,-90.2009645
582,Grove Avenue,70123,29.9444712,-90.2006931
600,Gordon Avenue,70123,29.9447297,-90.2017242
344,Roseland Parkway,70123,29.9384006,-90.2012201
345,Roseland Parkway,70123,29.9386252,-90.2006290
285,Roseland Parkway,70123,29.9375824,-90.2005592
302,Gordon Avenue,70123,29.9379596,-90.2001565
323,Gordon Avenue,70123,29.9383951,-90.1997973
301,Gordon Avenue,70123,29.9379639,-90.1997158
263,Gordon Avenue,70123,29.9374999,-90.1996642
316,Carolyn Drive,70123,29.9385022,-90.1994033
256,Anthony Avenue,70123,29.9376180,-90.2042473
280,Anthony Avenue,70123,29.9383614,-90.2041060
273,Anthony Avenue,70123,29.9380836,-90.2037474
261,Anthony Avenue,70123,29.9376971,-90.2038042
252,Mayo Avenue,70123,29.9373973,-90.2034676
264,Mayo Avenue,70123,29.9377987,-90.2034519
276,Mayo Avenue,70123,29.9381709,-90.2033545
618,Colonial Club Drive,70123,29.9446070,-90.2048420
658,Colonial Club Drive,70123,29.9452263,-90.2047714
281,Mayo Avenue,70123,29.9382209,-90.2028922
269,Mayo Avenue,70123,29.9378610,-90.2029279
390,West Avenue,70123,29.9403377,-90.1983647
8008,Ferrara Drive,70123,29.9400414,-90.2078628
8100,Ferrara Drive,70123,29.9403041,-90.2086017
8000,Ferrara Drive,70123,29.9399068,-90.2074774
8020,Marshall Drive,70123,29.9391315,-90.2078447
335,Halsey Drive,70123,29.9389321,-90.2082939
315,Halsey Drive,70123,29.9385069,-90.2083194
259,Halsey Drive,70123,29.9373870,-90.2085072
282,Wainwright Drive,70123,29.9379561,-90.2078281
412,Cressionne Drive,70123,29.9412413,-90.2086307
405,Cressionne Drive,70123,29.9407550,-90.2081993
525,Stratford Drive,70123,29.9428042,-90.2041797
507,Stratford Drive,70123,29.9423181,-90.2043029
524,Ashlawn Drive,70123,29.9427627,-90.2038747
569,Kenmore Drive,70123,29.9430726,-90.2031383
435,Carolyn Drive,70123,29.9408946,-90.1988501
416,Carolyn Drive,70123,29.9405850,-90.1992558
467,Stratford Drive,70123,29.9416472,-90.2043887
443,Stratford Drive,70123,29.9409854,-90.2045628
442,Ashlawn Drive,70123,29.9409374,-90.2041785
460,Ashlawn Drive,70123,29.9414261,-90.2041450
478,Ashlawn Drive,70123,29.9419276,-90.2040626
430,Roseland Parkway,70123,29.9399048,-90.2013894
410,Roseland Parkway,70123,29.9394982,-90.2013362
401,Soniat Avenue,70123,29.9393296,-90.2017013
423,Soniat Avenue,70123,29.9397293,-90.2017665
443,Soniat Avenue,70123,29.9401438,-90.2018261
438,Soniat Avenue,70123,29.9399692,-90.2022500
414,Soniat Avenue,70123,29.9395641,-90.2022092
424,Ashlawn Drive,70123,29.9404282,-90.2042682
425,Ashlawn Drive,70123,29.9403837,-90.2038711
7616,Wilson Street,70123,29.9392511,-90.2031708
7716,Wilson Street,70123,29.9393916,-90.2045256
7705,Wilson Street,70123,29.9397387,-90.2040483
501,Stratford Drive,70123,29.9421623,-90.2043302
503,Roseland Parkway,70123,29.9414387,-90.2014468
509,Roseland Parkway,70123,29.9418981,-90.2014614
508,Gordon Avenue,70123,29.9419613,-90.2010381
463,Gordon Avenue,70123,29.9410194,-90.2001153
489,Gordon Avenue,70123,29.9415764,-90.2001598
476,Carolyn Drive,70123,29.9416091,-90.1998243
7031,Michael Place,70123,29.9412678,-90.1998035
469,Carolyn Drive,70123,29.9416827,-90.1993544
516,Roseland Parkway,70123,29.9420134,-90.2019996
506,Roseland Parkway,70123,29.9413240,-90.2018902
7211,Wilson Street,70123,29.9408267,-90.2019411
513,Soniat Avenue,70123,29.9413537,-90.2023436
521,Soniat Avenue,70123,29.9418308,-90.2023897
7128,Wilson Street,70123,29.9411681,-90.2009642
5,Erin Court,70123,29.9368930,-90.2070245
212,Penfold Place,70123,29.9365644,-90.2053600
224,Penfold Place,70123,29.9371535,-90.2052722
462,West Avenue,70123,29.9417768,-90.1989594
446,West Avenue,70123,29.9414739,-90.1986764
430,West Avenue,70123,29.9411044,-90.1984847
534,Kenmore Drive,70123,29.9416168,-90.2033262
516,Kenmore Drive,70123,29.9409074,-90.2032541
565,Hickory Avenue,70123,29.9447685,-90.1983553
551,Hickory Avenue,70123,29.9445121,-90.1982206
584,Oak Avenue,70123,29.9444996,-90.1997244
593,Oak Avenue,70123,29.9448527,-90.1993709
433,Ashlawn Drive,70123,29.9406350,-90.2038110
429,Picone Drive,70123,29.9411486,-90.2061259
209,Penfold Place,70123,29.9362890,-90.2049568
208,Colonial Club Drive,70123,29.9363013,-90.2063146
300,Colonial Club Drive,70123,29.9377921,-90.2062169
257,Wainwright Drive,70123,29.9374155,-90.2073931
277,Wainwright Drive,70123,29.9378190,-90.2073959
327,Wainwright Drive,70123,29.9386361,-90.2072604
357,Wainwright Drive,70123,29.9390675,-90.2071943
2,Erin Court,70123,29.9363671,-90.2071166
7909,Jefferson Highway,70123,29.9362326,-90.2067523
275,Soniat Avenue,70123,29.9372750,-90.2014707
252,Roseland Parkway,70123,29.9368727,-90.2010259
251,Roseland Parkway,70123,29.9370877,-90.2004958
236,Penfold Place,70123,29.9377424,-90.2051719
237,Colonial Club Drive,70123,29.9377927,-90.2055488
617,Grove Avenue,70123,29.9451991,-90.2005076
371,Carolyn Drive,70123,29.9397468,-90.1986985
382,West Avenue,70123,29.9402293,-90.1984189
7010,Joseph Place,70123,29.9401048,-90.1992226
450,Gordon Avenue,70123,29.9406539,-90.2005066
468,Gordon Avenue,70123,29.9410525,-90.2005508
7030,Michael Place,70123,29.9407974,-90.1997812
7031,Joseph Place,70123,29.9404595,-90.1997348
7018,Wilson Street,70123,29.9418827,-90.2001195
540,Woodward Avenue,70123,29.9434015,-90.2063869
528,Woodward Avenue,70123,29.9431155,-90.2064175
524,Woodward Avenue,70123,29.9429618,-90.2064627
573,Randolph Street,70123,29.9440342,-90.2070906
8024,Harris Avenue,70123,29.9422762,-90.2072936
8018,Harris Avenue,70123,29.9422084,-90.2071648
8008,Harris Avenue,70123,29.9421227,-90.2067813
525,Randolph Street,70123,29.9431280,-90.2071753
535,Randolph Street,70123,29.9432603,-90.2069623
545,Randolph Street,70123,29.9435028,-90.2070743
563,Randolph Street,70123,29.9438489,-90.2071073
562,Woodward Avenue,70123,29.9437563,-90.2064795
552,Woodward Avenue,70123,29.9435453,-90.2064154
519,Roseland Parkway,70123,29.9423460,-90.2015956
537,Gordon Avenue,70123,29.9428951,-90.2007000
529,Gordon Avenue,70123,29.9425465,-90.2007311
519,Gordon Avenue,70123,29.9423924,-90.2007037
7011,Wilson Street,70123,29.9422559,-90.2002275
6917,Wilson Street,70123,29.9424924,-90.1999706
531,Stratford Drive,70123,29.9429693,-90.2041937
513,Stratford Drive,70123,29.9424892,-90.2042843
512,Ashlawn Drive,70123,29.9424406,-90.2039674
7608,Norton Avenue,70123,29.9385882,-90.2029773
7616,Norton Avenue,70123,29.9386420,-90.2033816
400,Soniat Avenue,70123,29.9392920,-90.2021625
424,Soniat Avenue,70123,29.9396999,-90.2022288
437,Stratford Drive,70123,29.9408182,-90.2045670
7918,Ferrara Drive,70123,29.9396108,-90.2063820
401,Picone Drive,70123,29.9398195,-90.2063171
405,Picone Drive,70123,29.9399863,-90.2063433
417,Picone Drive,70123,29.9404776,-90.2062313
408,Picone Drive,70123,29.9403987,-90.2067091
340,Colonial Club Drive,70123,29.9393137,-90.2059454
7917,Barocco Drive,70123,29.9415348,-90.2060367
447,Soniat Avenue,70123,29.9402798,-90.2018844
437,Soniat Avenue,70123,29.9400020,-90.2017502
415,Soniat Avenue,70123,29.9396065,-90.2017692
409,Soniat Avenue,70123,29.9394666,-90.2017417
433,Picone Drive,70123,29.9413165,-90.2060671
425,Picone Drive,70123,29.9409888,-90.2061809
421,Picone Drive,70123,29.9408302,-90.2061702
404,Picone Drive,70123,29.9402438,-90.2067583
7937,Ferrara Drive,70123,29.9402345,-90.2071925
8001,Ferrara Drive,70123,29.9402979,-90.2073854
7932,Ferrara Drive,70123,29.9398146,-90.2071237
8004,Barocco Drive,70123,29.9413424,-90.2072587
8000,Barocco Drive,70123,29.9413364,-90.2070752
232,Colonial Club Drive,70123,29.9372669,-90.2062282
7620,Norton Avenue,70123,29.9386591,-90.2035867
7704,Norton Avenue,70123,29.9387326,-90.2042180
8016,Barocco Drive,70123,29.9414274,-90.2078328
541,Hickory Avenue,70123,29.9443693,-90.1982717
468,Hickory Avenue,70123,29.9429179,-90.1978744
487,Oak Avenue,70123,29.9427102,-90.1984116
479,Oak Avenue,70123,29.9426227,-90.1982783
498,Oak Avenue,70123,29.9426031,-90.1989884
634,Randolph Street,70123,29.9450249,-90.2074370
472,Stratford Drive,70123,29.9418661,-90.2048502
539,Roseland Parkway,70123,29.9429420,-90.2016895
533,Roseland Parkway,70123,29.9427927,-90.2016662
523,Roseland Parkway,70123,29.9424911,-90.2016405
600,Randolph Street,70123,29.9444607,-90.2074863
8123,Fortier Avenue,70123,29.9445158,-90.2081685
8127,Fortier Avenue,70123,29.9445772,-90.2084268
605,Posey Avenue,70123,29.9447439,-90.2083513
649,Posey Avenue,70123,29.9450978,-90.2081891
651,Posey Avenue,70123,29.9453308,-90.2082249
645,Randolph Street,70123,29.9451303,-90.2068642
625,Randolph Street,70123,29.9447438,-90.2068892
816,Randolph Street,70123,29.9446467,-90.2074934
612,Stratford Drive,70123,29.9445273,-90.2043570
613,Stratford Drive,70123,29.9445391,-90.2039350
557,Grove Avenue,70123,29.9439188,-90.2000465
551,Grove Avenue,70123,29.9437965,-90.1999657
7934,Barocco Drive,70123,29.9413047,-90.2069032
521,Ashlawn Drive,70123,29.9427204,-90.2034620
565,Kenmore Drive,70123,29.9429198,-90.2030739
561,Kenmore Drive,70123,29.9427227,-90.2029862
631,Stratford Drive,70123,29.9450401,-90.2037716
620,Roseland Parkway,70123,29.9450205,-90.2028564
607,Ashlawn Drive,70123,29.9445004,-90.2032560
613,Ashlawn Drive,70123,29.9446629,-90.2032564
625,Ashlawn Drive,70123,29.9449869,-90.2033130
527,Soniat Avenue,70123,29.9421530,-90.2024510
535,Soniat Avenue,70123,29.9424657,-90.2024809
539,Soniat Avenue,70123,29.9426165,-90.2024961
555,Soniat Avenue,70123,29.9430791,-90.2025460
601,Ashlawn Drive,70123,29.9443453,-90.2032235
580,Roseland Parkway,70123,29.9441544,-90.2023759
572,Roseland Parkway,70123,29.9438052,-90.2022836
591,Soniat Avenue,70123,29.9440559,-90.2027004
585,Soniat Avenue,70123,29.9436999,-90.2026465
550,Hickory Avenue,70123,29.9444289,-90.1987457
561,Soniat Avenue,70123,29.9432062,-90.2025339
573,Kenmore Drive,70123,29.9431380,-90.2033704
559,Ashlawn Drive,70123,29.9436788,-90.2032704
548,Ashlawn Drive,70123,29.9434126,-90.2037660
7916,Harris Avenue,70123,29.9420210,-90.2055486
7926,Harris Avenue,70123,29.9420895,-90.2058886
542,Stratford Drive,70123,29.9433709,-90.2045690
612,Colonial Club Drive,70123,29.9443228,-90.2048819
305,Colonial Club Drive,70123,29.9381987,-90.2054872
265,Wainwright Drive,70123,29.9375518,-90.2074175
271,Wainwright Drive,70123,29.9376830,-90.2074049
285,Wainwright Drive,70123,29.9379582,-90.2073659
291,Wainwright Drive,70123,29.9380858,-90.2073252
333,Wainwright Drive,70123,29.9387841,-90.2072598
345,Wainwright Drive,70123,29.9389294,-90.2071970
3,Erin Court,70123,29.9365394,-90.2071182
1,Erin Court,70123,29.9361953,-90.2071608
559,Roseland Parkway,70123,29.9435486,-90.2017896
547,Roseland Parkway,70123,29.9432427,-90.2017331
553,Roseland Parkway,70123,29.9433991,-90.2017732
7118,6th Street,70123,29.9442411,-90.2018829
7100,6th Street,70123,29.9443118,-90.2015588
590,Gordon Avenue,70123,29.9440808,-90.2015407
586,Gordon Avenue,70123,29.9439351,-90.2014855
572,Gordon Avenue,70123,29.9436534,-90.2013750
329,Roseland Parkway,70123,29.9383279,-90.2006549
338,West Avenue,70123,29.9392823,-90.1983013
332,West Avenue,70123,29.9391469,-90.1982866
316,West Avenue,70123,29.9388904,-90.1982270
216,West Avenue,70123,29.9373483,-90.1980415
280,West Avenue,70123,29.9384991,-90.1981634
549,Stratford Drive,70123,29.9434604,-90.2041090
543,Stratford Drive,70123,29.9433028,-90.2041075
223,Gordon Avenue,70123,29.9369207,-90.1995871
251,Gordon Avenue,70123,29.9373054,-90.1996515
538,Randolph Street,70123,29.9435408,-90.2076860
534,Randolph Street,70123,29.9433979,-90.2077428
524,Randolph Street,70123,29.9431638,-90.2076989
7701,6th Street,70123,29.9443228,-90.2036116
7707,6th Street,70123,29.9442782,-90.2037985
554,Stratford Drive,70123,29.9437089,-90.2045141
548,Stratford Drive,70123,29.9435369,-90.2045451
606,Stratford Drive,70123,29.9443589,-90.2043652
472,Roseland Parkway,70123,29.9408136,-90.2014732
517,Soniat Avenue,70123,29.9415132,-90.2023733
511,Soniat Avenue,70123,29.9412034,-90.2022926
509,Soniat Avenue,70123,29.9410565,-90.2022998
220,Penfold Place,70123,29.9369489,-90.2052918
228,Penfold Place,70123,29.9373548,-90.2052442
400,Roseland Parkway,70123,29.9392249,-90.2012637
402,Roseland Parkway,70123,29.9393671,-90.2013446
420,Roseland Parkway,70123,29.9397707,-90.2013458
440,Roseland Parkway,70123,29.9401930,-90.2014204
425,Gordon Avenue,70123,29.9402010,-90.1999747
409,Gordon Avenue,70123,29.9399255,-90.2000009
403,Gordon Avenue,70123,29.9397732,-90.1999826
367,Gordon Avenue,70123,29.9393786,-90.1999224
7030,Joseph Place,70123,29.9399802,-90.1996804
7020,Joseph Place,70123,29.9400150,-90.1994836
463,Roseland Parkway,70123,29.9406451,-90.2008830
7709,Wilson Street,70123,29.9397826,-90.2042322
7713,Wilson Street,70123,29.9398052,-90.2044189
7706,Wilson Street,70123,29.9393487,-90.2041497
7624,Wilson Street,70123,29.9393097,-90.2035494
7620,Wilson Street,70123,29.9392726,-90.2033579
7712,Norton Avenue,70123,29.9387760,-90.2046240
7716,Norton Avenue,70123,29.9387915,-90.2048275
237,Penfold Place,70123,29.9376801,-90.2046667
233,Penfold Place,70123,29.9374801,-90.2046840
355,West Avenue,70123,29.9396631,-90.1979323
7605,Norton Avenue,70123,29.9389412,-90.2027021
7613,Norton Avenue,70123,29.9389728,-90.2031067
7621,Norton Avenue,70123,29.9390350,-90.2035178
7625,Norton Avenue,70123,29.9390379,-90.2037252
7709,Norton Avenue,70123,29.9391129,-90.2043580
7717,Norton Avenue,70123,29.9391521,-90.2047597
7721,Norton Avenue,70123,29.9391555,-90.2049768
7501,Wilson Street,70123,29.9402961,-90.2026907
8009,Fortier Avenue,70123,29.9443077,-90.2064927
367,West Avenue,70123,29.9398045,-90.1979567
350,West Avenue,70123,29.9395367,-90.1982973
460,Oak Avenue,70123,29.9421782,-90.1984095
7,Wilcox Boulevard,70123,29.9410152,-90.2071371
8,Wilcox Boulevard,70123,29.9406035,-90.2073259
6,Wilcox Boulevard,70123,29.9405584,-90.2071387
8009,Barocco Drive,70123,29.9417675,-90.2073564
7925,Barocco Drive,70123,29.9416074,-90.2064343
428,Picone Drive,70123,29.9411960,-90.2065135
8009,Marshall Drive,70123,29.9394237,-90.2074210
8004,Ferrara Drive,70123,29.9399618,-90.2076738
8020,Ferrara Drive,70123,29.9402274,-90.2083884
8016,Ferrara Drive,70123,29.9401777,-90.2082172
8009,Ferrara Drive,70123,29.9404369,-90.2078043
8005,Ferrara Drive,70123,29.9403950,-90.2075899
254,Wainwright Drive,70123,29.9374642,-90.2078926
248,Wainwright Drive,70123,29.9373308,-90.2079528
242,Wainwright Drive,70123,29.9371940,-90.2079721
236,Wainwright Drive,70123,29.9370143,-90.2079821
522,Kenmore Drive,70123,29.9410719,-90.2032607
526,Kenmore Drive,70123,29.9412307,-90.2032921
530,Kenmore Drive,70123,29.9414065,-90.2033221
500,Ashlawn Drive,70123,29.9421167,-90.2040200
608,Colonial Club Drive,70123,29.9441923,-90.2049325
600,Colonial Club Drive,70123,29.9440598,-90.2049890
552,Colonial Club Drive,70123,29.9433744,-90.2050637
544,Colonial Club Drive,70123,29.9432260,-90.2051117
535,Woodward Avenue,70123,29.9430971,-90.2060039
249,Wainwright Drive,70123,29.9372651,-90.2075054
8015,Marshall Drive,70123,29.9394590,-90.2076074
8021,Marshall Drive,70123,29.9395590,-90.2077416
518,Ashlawn Drive,70123,29.9425961,-90.2039064
513,Ashlawn Drive,70123,29.9424484,-90.2034221
11,Wilcox Boulevard,70123,29.9411239,-90.2075490
7211,6th Street,70123,29.9444725,-90.2027613
516,Woodward Avenue,70123,29.9428147,-90.2065178
8005,Harris Avenue,70123,29.9426464,-90.2066866
8011,Harris Avenue,70123,29.9427205,-90.2068353
8021,Harris Avenue,70123,29.9427024,-90.2069997
8025,Harris Avenue,70123,29.9426866,-90.2071655
524,Stratford Drive,70123,29.9428620,-90.2046457
518,Stratford Drive,70123,29.9427040,-90.2047031
512,Stratford Drive,70123,29.9425312,-90.2047294
500,Stratford Drive,70123,29.9422133,-90.2047820
478,Stratford Drive,70123,29.9420184,-90.2048070
517,Woodward Avenue,70123,29.9428200,-90.2060794
507,Woodward Avenue,70123,29.9426189,-90.2060885
7933,Harris Avenue,70123,29.9425479,-90.2058687
7925,Harris Avenue,70123,29.9424883,-90.2056920
7901,Harris Avenue,70123,29.9424151,-90.2052139
528,Colonial Club Drive,70123,29.9428278,-90.2051701
517,Kenmore Drive,70123,29.9409230,-90.2027978
509,Kenmore Drive,70123,29.9405461,-90.2028293
523,Soniat Avenue,70123,29.9419861,-90.2024124
475,Ashlawn Drive,70123,29.9418353,-90.2035973
467,Ashlawn Drive,70123,29.9416075,-90.2036403
461,Ashlawn Drive,70123,29.9414078,-90.2036648
6901,Jefferson Highway,70123,29.9370225,-90.1979324
263,West Avenue,70123,29.9382188,-90.1977565
301,West Avenue,70123,29.9386844,-90.1978281
228,West Avenue,70123,29.9374843,-90.1980362
443,Ashlawn Drive,70123,29.9409430,-90.2037545
437,Ashlawn Drive,70123,29.9407825,-90.2037610
512,Kenmore Drive,70123,29.9407173,-90.2032712
353,Roseland Parkway,70123,29.9388687,-90.2006875
340,Roseland Parkway,70123,29.9382703,-90.2012191
318,Roseland Parkway,70123,29.9381396,-90.2011764
8109,Barocco Drive,70123,29.9419497,-90.2087163
334,Halsey Drive,70123,29.9389722,-90.2088030
554,Ashlawn Drive,70123,29.9435787,-90.2037201
564,Ashlawn Drive,70123,29.9439136,-90.2036615
537,Kenmore Drive,70123,29.9417351,-90.2028806
208,Anthony Avenue,70123,29.9360857,-90.2045265
201,Penfold Place,70123,29.9359124,-90.2049617
205,Penfold Place,70123,29.9361011,-90.2049358
213,Penfold Place,70123,29.9364935,-90.2048999
220,Anthony Avenue,70123,29.9364614,-90.2044808
400,Colonial Club Drive,70123,29.9396873,-90.2056765
404,Colonial Club Drive,70123,29.9398334,-90.2056979
412,Colonial Club Drive,70123,29.9402018,-90.2056895
372,Colonial Club Drive,70123,29.9395659,-90.2057487
213,Anthony Avenue,70123,29.9361640,-90.2040816
205,Anthony Avenue,70123,29.9359040,-90.2041354
7725,Norton Avenue,70123,29.9392142,-90.2051659
332,Colonial Club Drive,70123,29.9390006,-90.2058432
409,Cressionne Drive,70123,29.9409197,-90.2082065
400,Cressionne Drive,70123,29.9407313,-90.2087094
404,Cressionne Drive,70123,29.9409202,-90.2086790
416,Cressionne Drive,70123,29.9414046,-90.2086082
444,Oak Avenue,70123,29.9419708,-90.1980820
440,Oak Avenue,70123,29.9418954,-90.1979489
8,Erin Court,70123,29.9375533,-90.2069372
644,Randolph Street,70123,29.9452101,-90.2074099
6,Erin Court,70123,29.9370933,-90.2069727
7,Erin Court,70123,29.9373299,-90.2070284
9,Erin Court,70123,29.9375527,-90.2065525
204,Penfold Place,70123,29.9361712,-90.2054649
8109,Harris Avenue,70123,29.9428139,-90.2081663
507,Posey Avenue,70123,29.9429190,-90.2086235
525,Posey Avenue,70123,29.9432430,-90.2086148
537,Posey Avenue,70123,29.9436752,-90.2084938
553,Posey Avenue,70123,29.9438320,-90.2084919
563,Posey Avenue,70123,29.9440380,-90.2083931
8021,Barocco Drive,70123,29.9418749,-90.2079303
8025,Barocco Drive,70123,29.9418962,-90.2081216
8101,Barocco Drive,70123,29.9419379,-90.2083320
401,Cressionne Drive,70123,29.9405950,-90.2082351
8013,Ferrara Drive,70123,29.9405305,-90.2080478
10,Wilcox Boulevard,70123,29.9406382,-90.2075264
18,Wilcox Boulevard,70123,29.9408763,-90.2079144
17,Wilcox Boulevard,70123,29.9411264,-90.2078053
260,Gordon Avenue,70123,29.9373625,-90.2000819
7123,Monroe Street,70123,29.9368726,-90.2005137
7212,Wilson Street,70123,29.9406482,-90.2016573
462,Roseland Parkway,70123,29.9405913,-90.2014401
501,Soniat Avenue,70123,29.9406007,-90.2022132
435,Gordon Avenue,70123,29.9404775,-90.2000616
443,Gordon Avenue,70123,29.9406118,-90.2000397
444,Gordon Avenue,70123,29.9405549,-90.2004543
418,Gordon Avenue,70123,29.9399941,-90.2004750
374,Gordon Avenue,70123,29.9393891,-90.2003691
404,Gordon Avenue,70123,29.9397171,-90.2003981
435,Bailey Street,70123,29.9413257,-90.1977729
433,Roseland Parkway,70123,29.9399629,-90.2008395
417,Roseland Parkway,70123,29.9396955,-90.2008256
369,Roseland Parkway,70123,29.9392773,-90.2007365
454,Roseland Parkway,70123,29.9404385,-90.2014287
545,Kenmore Drive,70123,29.9420603,-90.2029392
541,Kenmore Drive,70123,29.9418989,-90.2028849
250,West Avenue,70123,29.9379961,-90.1980952
349,West Avenue,70123,29.9394943,-90.1978816
317,West Avenue,70123,29.9390283,-90.1978750
232,Penfold Place,70123,29.9375655,-90.2052159
240,Penfold Place,70123,29.9379345,-90.2051545
233,Colonial Club Drive,70123,29.9375961,-90.2055857
229,Colonial Club Drive,70123,29.9373970,-90.2056237
221,Colonial Club Drive,70123,29.9370086,-90.2056899
213,Colonial Club Drive,70123,29.9366063,-90.2057697
205,Colonial Club Drive,70123,29.9362159,-90.2058512
321,Colonial Club Drive,70123,29.9387192,-90.2059138
236,Colonial Club Drive,70123,29.9374455,-90.2061616
344,Halsey Drive,70123,29.9391025,-90.2086802
328,Halsey Drive,70123,29.9388242,-90.2086978
231,Halsey Drive,70123,29.9368904,-90.2085493
229,Halsey Drive,70123,29.9367463,-90.2086281
8027,Jefferson Highway,70123,29.9364836,-90.2087088
230,Wainwright Drive,70123,29.9368497,-90.2079820
226,Wainwright Drive,70123,29.9366835,-90.2080793
223,Wainwright Drive,70123,29.9366516,-90.2075556
299,Halsey Drive,70123,29.9380813,-90.2084156
279,Halsey Drive,70123,29.9376780,-90.2085006
269,Halsey Drive,70123,29.9375205,-90.2085003
543,Grove Avenue,70123,29.9436688,-90.1999522
251,Halsey Drive,70123,29.9372567,-90.2084782
301,Halsey Drive,70123,29.9383787,-90.2083319
600,Roseland Parkway,70123,29.9410292,-90.2016732
212,Colonial Club Drive,70123,29.9364578,-90.2062732
508,Roseland Parkway,70123,29.9415022,-90.2019614
510,Roseland Parkway,70123,29.9416782,-90.2019789
512,Roseland Parkway,70123,29.9418512,-90.2019992
246,Mayo Avenue,70123,29.9371436,-90.2035424
236,Mayo Avenue,70123,29.9368787,-90.2035781
521,Kenmore Drive,70123,29.9410817,-90.2028113
249,Carolyn Drive,70123,29.9376812,-90.1986537
246,West Avenue,70123,29.9378680,-90.1981024
648,Randolph Street,70123,29.9453719,-90.2073618
510,Oak Avenue,70123,29.9430791,-90.1992399
615,Woodward Avenue,70123,29.9444422,-90.2057005
619,Woodward Avenue,70123,29.9447112,-90.2056729
623,Woodward Avenue,70123,29.9449940,-90.2055668
639,Woodward Avenue,70123,29.9453993,-90.2055401
634,Woodward Avenue,70123,29.9448711,-90.2061447
616,Woodward Avenue,70123,29.9445835,-90.2061923
7104,6th Street,70123,29.9443102,-90.2017333
567,Grove Avenue,70123,29.9441789,-90.2001405
7105,Jefferson Highway,70123,29.9363085,-90.2000754
7128,Monroe Street,70123,29.9365203,-90.2004742
7136,Monroe Street,70123,29.9364833,-90.2006069
7220,Monroe Street,70123,29.9363117,-90.2011161
248,Mayo Avenue,70123,29.9372782,-90.2034851
8020,Barocco Drive,70123,29.9414548,-90.2080175
8024,Barocco Drive,70123,29.9414655,-90.2082016
529,Kenmore Drive,70123,29.9414051,-90.2028319
525,Kenmore Drive,70123,29.9412394,-90.2028182
563,Hickory Avenue,70123,29.9446633,-90.1983609
575,Hickory Avenue,70123,29.9450745,-90.1984024
567,Gordon Avenue,70123,29.9436510,-90.2008381
572,Grove Avenue,70123,29.9442033,-90.2005863
578,Grove Avenue,70123,29.9443400,-90.2006628
6515,Wilson Street,70123,29.9428782,-90.1995318
556,Gordon Avenue,70123,29.9432053,-90.2012524
549,Gordon Avenue,70123,29.9431974,-90.2007745
520,Roseland Parkway,70123,29.9421754,-90.2020522
534,Roseland Parkway,70123,29.9426368,-90.2021027
329,Halsey Drive,70123,29.9387765,-90.2082751
7608,Wilson Street,70123,29.9393084,-90.2027508
7701,Wilson Street,70123,29.9397300,-90.2038600
450,Colonial Club Drive,70123,29.9411082,-90.2054579
425,Stratford Drive,70123,29.9404781,-90.2046067
380,Carolyn Drive,70123,29.9399401,-90.1992142
6931,Marquette Street,70123,29.9400537,-90.1987678
362,West Avenue,70123,29.9398160,-90.1983707
391,West Avenue,70123,29.9403983,-90.1980492
413,Carolyn Drive,70123,29.9403967,-90.1987958
537,Grove Avenue,70123,29.9435222,-90.1998975
525,Grove Avenue,70123,29.9432710,-90.1997812
528,Oak Avenue,70123,29.9433607,-90.1992993
532,Oak Avenue,70123,29.9434843,-90.1993480
548,Oak Avenue,70123,29.9439528,-90.1994996
560,Oak Avenue,70123,29.9440941,-90.1997367
552,Roseland Parkway,70123,29.9432306,-90.2021723
577,Roseland Parkway,70123,29.9440132,-90.2019067
571,Roseland Parkway,70123,29.9438532,-90.2018425
229,Anthony Avenue,70123,29.9366791,-90.2039384
237,Anthony Avenue,70123,29.9369352,-90.2039866
249,Anthony Avenue,70123,29.9373149,-90.2038918
245,Mayo Avenue,70123,29.9370922,-90.2031597
237,Mayo Avenue,70123,29.9368285,-90.2031704
233,Mayo Avenue,70123,29.9367010,-90.2031724
229,Mayo Avenue,70123,29.9365753,-90.2032265
8033,Marshall Drive,70123,29.9396207,-90.2081769
8039,Marshall Drive,70123,29.9396112,-90.2083495
8045,Marshall Drive,70123,29.9395129,-90.2085374
8049,Marshall Drive,70123,29.9393758,-90.2086557
472,Ashlawn Drive,70123,29.9417563,-90.2040547
466,Ashlawn Drive,70123,29.9416003,-90.2040989
448,Ashlawn Drive,70123,29.9410910,-90.2041902
337,Carolyn Drive,70123,29.9387756,-90.1987793
309,Carolyn Drive,70123,29.9384446,-90.1988846
273,Carolyn Drive,70123,29.9380709,-90.1987492
263,Carolyn Drive,70123,29.9379345,-90.1986543
637,Ashlawn Drive,70123,29.9453204,-90.2033538
616,Colonial Club Drive,70123,29.9444747,-90.2048829
7219,6th Street,70123,29.9444461,-90.2029148
376,Carolyn Drive,70123,29.9397877,-90.1991891
300,Roseland Parkway,70123,29.9378691,-90.2011217
543,Woodward Avenue,70123,29.9432399,-90.2059441
457,West Avenue,70123,29.9419201,-90.1986280
439,West Avenue,70123,29.9416024,-90.1983086
431,West Avenue,70123,29.9414967,-90.1982393
208,Penfold Place,70123,29.9363678,-90.2054260
7225,Monroe Street,70123,29.9366282,-90.2014072
243,Soniat Avenue,70123,29.9370056,-90.2014546
267,Soniat Avenue,70123,29.9371500,-90.2014638
272,Soniat Avenue,70123,29.9371564,-90.2019131
238,Soniat Avenue,70123,29.9364196,-90.2018270
551,Woodward Avenue,70123,29.9433505,-90.2059031
553,Woodward Avenue,70123,29.9434908,-90.2058993
567,Woodward Avenue,70123,29.9437725,-90.2057845
571,Woodward Avenue,70123,29.9439649,-90.2056776
611,Woodward Avenue,70123,29.9442426,-90.2057065
606,Woodward Avenue,70123,29.9442887,-90.2062087
572,Woodward Avenue,70123,29.9439261,-90.2063239
429,West Avenue,70123,29.9413221,-90.1981097
421,West Avenue,70123,29.9410620,-90.1981096
417,West Avenue,70123,29.9409299,-90.1980857
409,West Avenue,70123,29.9407806,-90.1980532
399,West Avenue,70123,29.9405323,-90.1979945
370,Colonial Club Drive,70123,29.9394305,-90.2057957
7724,Wilson Street,70123,29.9394399,-90.2049039
589,Gordon Avenue,70123,29.9442015,-90.2011035
595,Gordon Avenue,70123,29.9443432,-90.2011179
556,Grove Avenue,70123,29.9438042,-90.2004634
550,Grove Avenue,70123,29.9436880,-90.2004525
530,Grove Avenue,70123,29.9432878,-90.2002590
536,Grove Avenue,70123,29.9434025,-90.2003416
542,Grove Avenue,70123,29.9435487,-90.2004230
561,Gordon Avenue,70123,29.9434874,-90.2008004
438,Carolyn Drive,70123,29.9409141,-90.1993010
419,Carolyn Drive,70123,29.9405460,-90.1988136
427,Carolyn Drive,70123,29.9407169,-90.1988225
441,Carolyn Drive,70123,29.9410470,-90.1988710
424,West Avenue,70123,29.9409750,-90.1984738
416,West Avenue,70123,29.9408478,-90.1984608
404,West Avenue,70123,29.9405959,-90.1984604
232,Anthony Avenue,70123,29.9368627,-90.2044226
236,Anthony Avenue,70123,29.9369741,-90.2043467
244,Anthony Avenue,70123,29.9372569,-90.2043702
248,Anthony Avenue,70123,29.9373593,-90.2042729
217,Anthony Avenue,70123,29.9362961,-90.2040152
640,Stratford Drive,70123,29.9453823,-90.2039098
632,Stratford Drive,70123,29.9451782,-90.2042289
628,Stratford Drive,70123,29.9450056,-90.2042620
8001,Marshall Drive,70123,29.9392710,-90.2072422
322,Carolyn Drive,70123,29.9386552,-90.1994127
308,Carolyn Drive,70123,29.9383575,-90.1994093
271,Gordon Avenue,70123,29.9376481,-90.1997112
275,Gordon Avenue,70123,29.9378089,-90.1997097
317,Gordon Avenue,70123,29.9381486,-90.1997616
335,Gordon Avenue,70123,29.9385876,-90.1997631
342,Gordon Avenue,70123,29.9386576,-90.2003082
296,Gordon Avenue,70123,29.9378195,-90.2001386
274,Gordon Avenue,70123,29.9376878,-90.2001429
270,Gordon Avenue,70123,29.9375117,-90.2001127
287,Roseland Parkway,70123,29.9377860,-90.2005349
294,Roseland Parkway,70123,29.9377299,-90.2010918
279,Soniat Avenue,70123,29.9374208,-90.2014353
317,Soniat Avenue,70123,29.9381072,-90.2015268
345,Soniat Avenue,70123,29.9385626,-90.2016058
330,Soniat Avenue,70123,29.9384309,-90.2020380
308,Soniat Avenue,70123,29.9379110,-90.2019825
290,Soniat Avenue,70123,29.9374890,-90.2019886
7030,Gasper Place,70123,29.9391911,-90.1995760
326,Carolyn Drive,70123,29.9388390,-90.1994196
362,Roseland Parkway,70123,29.9390860,-90.2012500
354,Roseland Parkway,70123,29.9388199,-90.2012842
365,Soniat Avenue,70123,29.9391869,-90.2017215
224,Mayo Avenue,70123,29.9364994,-90.2036377
220,Mayo Avenue,70123,29.9363954,-90.2037159
216,Mayo Avenue,70123,29.9362671,-90.2037356
432,West Avenue,70123,29.9412501,-90.1985112
442,West Avenue,70123,29.9413158,-90.1986496
452,West Avenue,70123,29.9415835,-90.1987493
470,West Avenue,70123,29.9419151,-90.1990473
478,West Avenue,70123,29.9421221,-90.1992415
375,West Avenue,70123,29.9401520,-90.1980069
477,Carolyn Drive,70123,29.9418419,-90.1994826
7010,Michael Place,70123,29.9410630,-90.1993719
260,Mayo Avenue,70123,29.9376499,-90.2034269
256,Mayo Avenue,70123,29.9375403,-90.2035063
265,Anthony Avenue,70123,29.9378223,-90.2037731
269,Anthony Avenue,70123,29.9379542,-90.2037785
277,Anthony Avenue,70123,29.9382131,-90.2037057
284,Anthony Avenue,70123,29.9384940,-90.2040674
276,Anthony Avenue,70123,29.9382622,-90.2041446
272,Anthony Avenue,70123,29.9381319,-90.2041885
252,Anthony Avenue,70123,29.9375092,-90.2042807
342,Soniat Avenue,70123,29.9387153,-90.2021542
609,Oak Avenue,70123,29.9454020,-90.1995121
610,Oak Avenue,70123,29.9452979,-90.2000357
436,Ashlawn Drive,70123,29.9407727,-90.2042240
430,Ashlawn Drive,70123,29.9406020,-90.2042637
455,Stratford Drive,70123,29.9413076,-90.2044741
461,Stratford Drive,70123,29.9414704,-90.2044361
442,Stratford Drive,70123,29.9410376,-90.2049968
448,Stratford Drive,70123,29.9411943,-90.2049327
466,Stratford Drive,70123,29.9416936,-90.2048937
365,Roseland Parkway,70123,29.9391423,-90.2007526
261,Mayo Avenue,70123,29.9376008,-90.2030553
265,Mayo Avenue,70123,29.9377300,-90.2030281
277,Mayo Avenue,70123,29.9381121,-90.2029345
473,Stratford Drive,70123,29.9417961,-90.2043768
500,Kenmore Drive,70123,29.9404141,-90.2037024
504,Kenmore Drive,70123,29.9404761,-90.2035351
7609,Wilson Street,70123,29.9397516,-90.2034551
7601,Wilson Street,70123,29.9399118,-90.2031340
408,Radford Road,70123,29.9400925,-90.2033361
7610,Kenmore Drive,70123,29.9400160,-90.2035126
7616,Kenmore Drive,70123,29.9399752,-90.2037916
7700,Kenmore Drive,70123,29.9400255,-90.2041811
7712,Kenmore Drive,70123,29.9401166,-90.2045558
7600,Wilson Street,70123,29.9397757,-90.2026499
7604,Wilson Street,70123,29.9395340,-90.2026585
285,Mayo Avenue,70123,29.9383416,-90.2028736
280,Mayo Avenue,70123,29.9383109,-90.2033084
268,Mayo Avenue,70123,29.9379023,-90.2033629
345,Halsey Drive,70123,29.9390698,-90.2082231
334,Wainwright Drive,70123,29.9388749,-90.2077087
328,Wainwright Drive,70123,29.9387415,-90.2077889
312,Wainwright Drive,70123,29.9384438,-90.2077642
520,Oak Avenue,70123,29.9432455,-90.1992573
538,Hickory Avenue,70123,29.9442145,-90.1986620
534,Hickory Avenue,70123,29.9440692,-90.1986252
524,Hickory Avenue,70123,29.9439532,-90.1985629
516,Hickory Avenue,70123,29.9438263,-90.1985242
572,Randolph Street,70123,29.9440650,-90.2075175
8116,Fortier Avenue,70123,29.9441613,-90.2079117
573,Posey Avenue,70123,29.9442090,-90.2083459
8116,Harris Avenue,70123,29.9425174,-90.2086416
8104,Harris Avenue,70123,29.9423454,-90.2080583
8100,Harris Avenue,70123,29.9421340,-90.2078681
8028,Harris Avenue,70123,29.9422864,-90.2075392
603,Grove Avenue,70123,29.9449555,-90.2004018
611,Grove Avenue,70123,29.9450674,-90.2004559
6106,6th Street,70123,29.9449806,-90.1993705
596,Oak Avenue,70123,29.9448368,-90.1998477
588,Oak Avenue,70123,29.9446502,-90.1998740
589,Grove Avenue,70123,29.9447044,-90.2002858
368,Soniat Avenue,70123,29.9391542,-90.2021311
350,Soniat Avenue,70123,29.9388796,-90.2021069
354,Gordon Avenue,70123,29.9390340,-90.2003043
7020,Michael Place,70123,29.9407778,-90.1995835
468,Carolyn Drive,70123,29.9414661,-90.1996969
482,Carolyn Drive,70123,29.9417496,-90.1998895
499,Gordon Avenue,70123,29.9417816,-90.2002653
504,Gordon Avenue,70123,29.9418527,-90.2009137
512,Gordon Avenue,70123,29.9421169,-90.2011739
507,Roseland Parkway,70123,29.9417363,-90.2015442
505,Roseland Parkway,70123,29.9416020,-90.2015190
501,Roseland Parkway,70123,29.9412947,-90.2013171
7125,Wilson Street,70123,29.9414794,-90.2011615
455,Gordon Avenue,70123,29.9408847,-90.2000807
476,Gordon Avenue,70123,29.9413084,-90.2005531
472,Gordon Avenue,70123,29.9411737,-90.2005491
464,Gordon Avenue,70123,29.9409227,-90.2005104
7112,Wilson Street,70123,29.9413817,-90.2007723
406,Stratford Drive,70123,29.9400190,-90.2051868
7920,Harris Avenue,70123,29.9419958,-90.2057217
426,Colonial Club Drive,70123,29.9409423,-90.2055009
458,Colonial Club Drive,70123,29.9413956,-90.2054372
462,Colonial Club Drive,70123,29.9417572,-90.2056089
496,Colonial Club Drive,70123,29.9418867,-90.2052992
424,Stratford Drive,70123,29.9405487,-90.2050730
544,Roseland Parkway,70123,29.9429334,-90.2021493
548,Roseland Parkway,70123,29.9430793,-90.2021685
223,Carolyn Drive,70123,29.9370607,-90.1986213
6945,Jefferson Highway,70123,29.9369013,-90.1985299
266,Carolyn Drive,70123,29.9378777,-90.1993064
242,Carolyn Drive,70123,29.9373889,-90.1991740
234,Carolyn Drive,70123,29.9372275,-90.1991559
218,Carolyn Drive,70123,29.9369000,-90.1990750
160,Elaine Avenue,70123,29.9359154,-90.1989238
159,Elaine Avenue,70123,29.9360809,-90.1984306
338,Carolyn Drive,70123,29.9389434,-90.1992283
507,Oak Avenue,70123,29.9436943,-90.1989641
557,Oak Avenue,70123,29.9441011,-90.1991020
517,Hickory Avenue,70123,29.9440511,-90.1981545
515,Hickory Avenue,70123,29.9439617,-90.1980326
7111,6th Street,70123,29.9446725,-90.2018868
612,Gordon Avenue,70123,29.9448994,-90.2018932
620,Gordon Avenue,70123,29.9451866,-90.2019691
625,Roseland Parkway,70123,29.9452608,-90.2023584
7109,6th Street,70123,29.9446345,-90.2020667
7127,6th Street,70123,29.9445675,-90.2022242
588,Grove Avenue,70123,29.9445980,-90.2007122
610,Grove Avenue,70123,29.9449598,-90.2008828
602,Grove Avenue,70123,29.9448399,-90.2008153
609,Gordon Avenue,70123,29.9450895,-90.2014035
157,Elaine Avenue,70123,29.9359272,-90.1984307
566,Gordon Avenue,70123,29.9434990,-90.2013633
562,Gordon Avenue,70123,29.9433498,-90.2013353
585,Gordon Avenue,70123,29.9440502,-90.2010553
7800,Wilson Street,70123,29.9394647,-90.2051106
7806,Wilson Street,70123,29.9394889,-90.2053150
401,Stratford Drive,70123,29.9398428,-90.2047822
7718,Kenmore Drive,70123,29.9400993,-90.2047437
400,Stratford Drive,70123,29.9398600,-90.2051898
220,Colonial Club Drive,70123,29.9367905,-90.2063027
56,Imperial Woods Drive,70123,29.9312836,-90.2003171
69,Doescher Drive,70123,29.9326625,-90.2008757
130,Elaine Avenue,70123,29.9338731,-90.1987517
53,O K Avenue,70123,29.9291442,-90.2062526
42,Ravan Avenue,70123,29.9311470,-90.1994046
18,O K Avenue,70123,29.9278129,-90.2069903
7217,Lancaster Drive,70123,29.9325523,-90.2021108
91,Colonial Club Drive,70123,29.9307752,-90.2067187
125,Colonial Club Drive,70123,29.9322135,-90.2064882
133,O K Avenue,70123,29.9324478,-90.2056669
105,O K Avenue,70123,29.9310749,-90.2058635
9,Colonial Club Drive,70123,29.9275685,-90.2080420
129,Sedgefield Drive,70123,29.9325724,-90.2039179
154,Sedgefield Drive,70123,29.9336466,-90.2042962
179,Colonial Club Drive,70123,29.9347437,-90.2060212
1,Colonial Club Drive,70123,29.9272368,-90.2081109
120,O K Avenue,70123,29.9319131,-90.2062837
57,Doescher Drive,70123,29.9319570,-90.2006901
49,Doescher Drive,70123,29.9315105,-90.2007152
144,Macque Drive,70123,29.9331336,-90.2053133
163,K Street,70123,29.9335874,-90.2056669
7313,Windsor Drive,70123,29.9296547,-90.2023248
7504,Stoneleigh Drive,70123,29.9276438,-90.2036012
181,Macque Drive,70123,29.9345223,-90.2045595
114,O K Avenue,70123,29.9317055,-90.2062502
129,Ravan Avenue,70123,29.9330449,-90.1991354
26,Ravan Avenue,70123,29.9304759,-90.1992680
31,Colonial Club Drive,70123,29.9281224,-90.2072987
53,Doescher Drive,70123,29.9317245,-90.2007605
28,Doescher Drive,70123,29.9301093,-90.2010609
7219,Windsor Drive,70123,29.9297457,-90.2015129
7400,Sheringham Drive,70123,29.9299071,-90.2026096
7000,Windsor Drive,70123,29.9292506,-90.2031690
184,Imperial Woods Drive,70123,29.9351652,-90.2009107
7208,Brighton Drive,70123,29.9335778,-90.2019935
147,West Imperial Drive,70123,29.9333736,-90.2029505
65,Doescher Drive,70123,29.9324344,-90.2008836
64,Doescher Drive,70123,29.9320438,-90.2012725
36,Doescher Drive,70123,29.9306486,-90.2011138
29,Doescher Drive,70123,29.9301924,-90.2005689
2,Imperial Woods Drive,70123,29.9290388,-90.2000795
7413,Stoneleigh Drive,70123,29.9281758,-90.2031951
180,Imperial Woods Drive,70123,29.9349524,-90.2008624
176,Imperial Woods Drive,70123,29.9347272,-90.2009566
7101,Brighton Drive,70123,29.9344538,-90.2007584
102,O K Avenue,70123,29.9310561,-90.2063858
12,O K Avenue,70123,29.9274017,-90.2070748
7901,Riverside Drive,70123,29.9271081,-90.2071097
85,Doescher Drive,70123,29.9335754,-90.2009655
7401,Stoneleigh Drive,70123,29.9283087,-90.2025633
7209,Brighton Drive,70123,29.9340293,-90.2021996
110,O K Avenue,70123,29.9315487,-90.2063241
106,O K Avenue,70123,29.9313300,-90.2063679
101,O K Avenue,70123,29.9308436,-90.2059236
76,O K Avenue,70123,29.9302650,-90.2065394
188,Imperial Woods Drive,70123,29.9353787,-90.2009181
140,Elaine Avenue,70123,29.9345190,-90.1987596
99,Doescher Drive,70123,29.9338126,-90.2010054
143,West Imperial Drive,70123,29.9332138,-90.2029993
45,Sedgefield Drive,70123,29.9289591,-90.2045460
7200,Brighton Drive,70123,29.9336697,-90.2015230
7212,Brighton Drive,70123,29.9335473,-90.2022123
7216,Brighton Drive,70123,29.9335241,-90.2024227
7220,Brighton Drive,70123,29.9335000,-90.2026644
190,West Imperial Drive,70123,29.9350550,-90.2032083
183,Sedgefield Drive,70123,29.9348723,-90.2035939
179,Sedgefield Drive,70123,29.9347042,-90.2036416
143,Sedgefield Drive,70123,29.9331245,-90.2038760
85,West Imperial Drive,70123,29.9305517,-90.2034294
166,Sedgefield Drive,70123,29.9341536,-90.2042312
114,Sedgefield Drive,70123,29.9318081,-90.2045761
7501,Sheringham Drive,70123,29.9303600,-90.2029911
7304,Stoneleigh Drive,70123,29.9282500,-90.2015470
7308,Stoneleigh Drive,70123,29.9281341,-90.2018073
193,Ravan Avenue,70123,29.9355320,-90.1993789
7215,Clifton Street,70123,29.9332921,-90.2022343
115,Imperial Woods Drive,70123,29.9324645,-90.1999235
110,Imperial Woods Drive,70123,29.9322329,-90.2004007
175,Ravan Avenue,70123,29.9348654,-90.1993547
49,Sedgefield Drive,70123,29.9291165,-90.2045352
71,Colonial Club Drive,70123,29.9301084,-90.2069162
39,Donelon Drive,70123,29.9286975,-90.2054579
7210,Clifton Street,70123,29.9328504,-90.2019033
123,Sedgefield Drive,70123,29.9322641,-90.2039470
174,Sedgefield Drive,70123,29.9344830,-90.2041543
131,Colonial Club Drive,70123,29.9324949,-90.2064871
189,Ravan Avenue,70123,29.9352007,-90.1993985
63,Donelon Drive,70123,29.9297205,-90.2052660
16,Doescher Drive,70123,29.9294022,-90.2009829
46,Elaine Avenue,70123,29.9315452,-90.1984197
7600,Stoneleigh Drive,70123,29.9275477,-90.2042351
18,Donelon Drive,70123,29.9277779,-90.2060754
42,O K Avenue,70123,29.9288140,-90.2068122
15,Ravan Avenue,70123,29.9300449,-90.1987464
62,Sedgefield Drive,70123,29.9296803,-90.2048974
66,Sedgefield Drive,70123,29.9298445,-90.2048975
7500,Sheringham Drive,70123,29.9299387,-90.2030449
62,West Imperial Drive,70123,29.9295815,-90.2040888
33,Sedgefield Drive,70123,29.9284615,-90.2046512
57,Sedgefield Drive,70123,29.9294678,-90.2044760
53,Elaine Avenue,70123,29.9319936,-90.1978938
123,Elaine Avenue,70123,29.9334659,-90.1981329
29,Elaine Avenue,70123,29.9312742,-90.1978546
8,Doescher Drive,70123,29.9289988,-90.2009348
7208,Stoneleigh Drive,70123,29.9286397,-90.2007613
6,Imperial Woods Drive,70123,29.9293330,-90.2000934
7216,Stoneleigh Drive,70123,29.9284501,-90.2011201
7301,Windsor Drive,70123,29.9297122,-90.2017180
7219,Sheringham Drive,70123,29.9304391,-90.2016483
7300,Windsor Drive,70123,29.9293018,-90.2016143
7304,Windsor Drive,70123,29.9292748,-90.2018205
7313,Stoneleigh Drive,70123,29.9285387,-90.2020697
7404,Stoneleigh Drive,70123,29.9278492,-90.2025188
7312,Stoneleigh Drive,70123,29.9280486,-90.2020565
24,Doescher Drive,70123,29.9299192,-90.2010652
15,Imperial Woods Drive,70123,29.9297659,-90.1996168
35,Imperial Woods Drive,70123,29.9304370,-90.1996667
37,Doescher Drive,70123,29.9306305,-90.2006088
40,Doescher Drive,70123,29.9308413,-90.2011581
44,Doescher Drive,70123,29.9311600,-90.2012079
190,Sedgefield Drive,70123,29.9351363,-90.2040284
201,Anthony Avenue,70123,29.9357910,-90.2041950
185,Macque Drive,70123,29.9346984,-90.2045707
46,Ravan Avenue,70123,29.9313017,-90.1994132
163,Ravan Avenue,70123,29.9343609,-90.1992780
120,Elaine Avenue,70123,29.9332056,-90.1985995
14,Elaine Avenue,70123,29.9306774,-90.1983055
50,Elaine Avenue,70123,29.9317196,-90.1984245
27,Ravan Avenue,70123,29.9305452,-90.1988142
29,West Imperial Drive,70123,29.9283069,-90.2038194
55,West Imperial Drive,70123,29.9293158,-90.2036396
58,Sedgefield Drive,70123,29.9295079,-90.2049310
42,Sedgefield Drive,70123,29.9288239,-90.2050551
26,Sedgefield Drive,70123,29.9282012,-90.2051883
21,Sedgefield Drive,70123,29.9279828,-90.2047342
7624,Stoneleigh Drive,70123,29.9272664,-90.2053992
72,O K Avenue,70123,29.9300757,-90.2065530
7508,Stoneleigh Drive,70123,29.9276305,-90.2038210
152,Macque Drive,70123,29.9334473,-90.2052350
118,Donelon Drive,70123,29.9321024,-90.2053523
7300,Brighton Drive,70123,29.9348446,-90.2015031
134,Ravan Avenue,70123,29.9332029,-90.1996335
139,Imperial Woods Drive,70123,29.9332262,-90.2000197
154,Imperial Woods Drive,70123,29.9336298,-90.2006102
73,Doescher Drive,70123,29.9329160,-90.2009340
100,Imperial Woods Drive,70123,29.9317639,-90.2003791
83,Donelon Drive,70123,29.9305343,-90.2051370
107,Donelon Drive,70123,29.9315254,-90.2049569
129,O K Avenue,70123,29.9322685,-90.2056862
137,K Street,70123,29.9327939,-90.2057796
167,K Street,70123,29.9339025,-90.2056087
114,Donelon Drive,70123,29.9319463,-90.2053379
94,Donelon Drive,70123,29.9311043,-90.2055179
111,O K Avenue,70123,29.9314373,-90.2058475
43,Colonial Club Drive,70123,29.9288298,-90.2071876
15,Colonial Club Drive,70123,29.9276406,-90.2072702
26,O K Avenue,70123,29.9283491,-90.2069000
50,O K Avenue,70123,29.9292572,-90.2067218
70,Donelon Drive,70123,29.9301070,-90.2057063
34,Donelon Drive,70123,29.9284607,-90.2059851
14,Donelon Drive,70123,29.9276120,-90.2061307
45,O K Avenue,70123,29.9289565,-90.2062858
50,Donelon Drive,70123,29.9292482,-90.2058429
27,Donelon Drive,70123,29.9281961,-90.2055646
43,Donelon Drive,70123,29.9288850,-90.2054207
9,O K Avenue,70123,29.9273971,-90.2066300
31,O K Avenue,70123,29.9284469,-90.2064070
155,Sedgefield Drive,70123,29.9336499,-90.2037920
137,Sedgefield Drive,70123,29.9329586,-90.2039216
138,West Imperial Drive,70123,29.9328819,-90.2035801
154,West Imperial Drive,70123,29.9335340,-90.2034725
97,West Imperial Drive,70123,29.9312594,-90.2033172
117,Sedgefield Drive,70123,29.9320853,-90.2040049
102,West Imperial Drive,70123,29.9312097,-90.2037703
118,West Imperial Drive,70123,29.9318764,-90.2036816
178,West Imperial Drive,70123,29.9345517,-90.2032570
165,Macque Drive,70123,29.9338510,-90.2046174
169,Macque Drive,70123,29.9340379,-90.2046413
105,Sedgefield Drive,70123,29.9315294,-90.2041019
81,Sedgefield Drive,70123,29.9304536,-90.2042986
102,Sedgefield Drive,70123,29.9313171,-90.2046178
58,Donelon Drive,70123,29.9296051,-90.2057880
7216,Sheringham Drive,70123,29.9300479,-90.2013404
18,Ravan Avenue,70123,29.9301373,-90.1992684
75,Donelon Drive,70123,29.9302134,-90.2051709
38,Club Drive,70123,29.9286490,-90.2078260
46,West Imperial Drive,70123,29.9289100,-90.2041967
30,West Imperial Drive,70123,29.9282329,-90.2043361
146,Elaine Avenue,70123,29.9350742,-90.1988375
141,Elaine Avenue,70123,29.9348068,-90.1982852
147,Ravan Avenue,70123,29.9337037,-90.1992226
117,Ravan Avenue,70123,29.9325864,-90.1990545
7211,Clifton Street,70123,29.9332785,-90.2019684
7209,Lancaster Drive,70123,29.9326010,-90.2016507
7206,Clifton Street,70123,29.9328928,-90.2017037
7222,Clifton Street,70123,29.9328292,-90.2025699
7221,Lancaster Drive,70123,29.9325429,-90.2023453
7216,Lancaster Drive,70123,29.9321613,-90.2020070
7308,Lancaster Drive,70123,29.9320839,-90.2028455
123,West Imperial Drive,70123,29.9321493,-90.2031331
171,Sedgefield Drive,70123,29.9343541,-90.2036940
193,Macque Drive,70123,29.9350279,-90.2044774
162,Sedgefield Drive,70123,29.9339865,-90.2042575
130,Sedgefield Drive,70123,29.9326579,-90.2044480
201,K Street,70123,29.9353177,-90.2053364
799,Jefferson Highway,70123,29.9354299,-90.2060582
111,Colonial Club Drive,70123,29.9316837,-90.2066179
115,Colonial Club Drive,70123,29.9319464,-90.2066011
173,Colonial Club Drive,70123,29.9343177,-90.2061638
114,Ravan Avenue,70123,29.9324192,-90.1994909
101,Imperial Woods Drive,70123,29.9319348,-90.1998789
57,Imperial Woods Drive,70123,29.9312915,-90.1998342
65,Sedgefield Drive,70123,29.9297971,-90.2043911
7504,Sheringham Drive,70123,29.9299842,-90.2032779
7308,Sheringham Drive,70123,29.9299434,-90.2021833
18,Imperial Woods Drive,70123,29.9297809,-90.2001018
7215,Windsor Drive,70123,29.9297453,-90.2012979
7309,Windsor Drive,70123,29.9296783,-90.2021106
7401,Sheringham Drive,70123,29.9303671,-90.2025283
25,Elaine Avenue,70123,29.9311224,-90.1977777
6921,Riverside Drive,70123,29.9306420,-90.1977512
121,Elaine Avenue,70123,29.9333094,-90.1980920
113,Elaine Avenue,70123,29.9327866,-90.1979620
103,Elaine Avenue,70123,29.9321507,-90.1979883
82,Sedgefield Drive,70123,29.9304938,-90.2047637
94,Sedgefield Drive,70123,29.9309851,-90.2046807
110,Sedgefield Drive,70123,29.9316434,-90.2045629
122,Sedgefield Drive,70123,29.9321416,-90.2044642
85,Sedgefield Drive,70123,29.9306340,-90.2042436
97,Sedgefield Drive,70123,29.9311840,-90.2041708
109,Sedgefield Drive,70123,29.9317198,-90.2040913
168,Macque Drive,70123,29.9340986,-90.2051321
115,Donelon Drive,70123,29.9318421,-90.2049002
119,Donelon Drive,70123,29.9320184,-90.2048680
103,Donelon Drive,70123,29.9313575,-90.2049835
91,Donelon Drive,70123,29.9308733,-90.2050872
29,Imperial Woods Drive,70123,29.9302182,-90.1996593
77,Sedgefield Drive,70123,29.9302689,-90.2043516
205,K Street,70123,29.9354543,-90.2052871
183,Colonial Club Drive,70123,29.9349579,-90.2060202
147,Colonial Club Drive,70123,29.9332465,-90.2063521
137,Colonial Club Drive,70123,29.9327543,-90.2064435
169,Colonial Club Drive,70123,29.9340937,-90.2062102
136,Macque Drive,70123,29.9327745,-90.2054300
45,Elaine Avenue,70123,29.9316200,-90.1979049
19,Ravan Avenue,70123,29.9302244,-90.1987746
67,Donelon Drive,70123,29.9298864,-90.2052437
129,Imperial Woods Drive,70123,29.9329568,-90.2000111
142,Ravan Avenue,70123,29.9335198,-90.1996511
130,Ravan Avenue,70123,29.9330270,-90.1996390
153,Elaine Avenue,70123,29.9357016,-90.1983738
145,Elaine Avenue,70123,29.9351391,-90.1983059
152,Elaine Avenue,70123,29.9354785,-90.1988822
118,Ravan Avenue,70123,29.9325710,-90.1995532
151,Imperial Woods Drive,70123,29.9337299,-90.2000937
146,Imperial Woods Drive,70123,29.9333873,-90.2005504
192,Macque Drive,70123,29.9350865,-90.2049387
180,Macque Drive,70123,29.9345951,-90.2050683
117,O K Avenue,70123,29.9316659,-90.2057599
78,West Imperial Drive,70123,29.9301996,-90.2039778
74,Sedgefield Drive,70123,29.9301821,-90.2048584
9,Imperial Woods Drive,70123,29.9295232,-90.1996172
1,Imperial Woods Drive,70123,29.9293174,-90.1995896
200,Mayo Avenue,70123,29.9357416,-90.2037476
148,Macque Drive,70123,29.9332872,-90.2052740
160,Macque Drive,70123,29.9337693,-90.2052408
49,West Imperial Drive,70123,29.9291258,-90.2036970
7501,Stoneleigh Drive,70123,29.9281705,-90.2033553
25,West Imperial Drive,70123,29.9281411,-90.2038616
37,West Imperial Drive,70123,29.9286220,-90.2038104
125,Ravan Avenue,70123,29.9328898,-90.1991109
141,Ravan Avenue,70123,29.9335409,-90.1991938
191,Ravan Avenue,70123,29.9353822,-90.1993684
199,Ravan Avenue,70123,29.9358095,-90.1994776
126,Donelon Drive,70123,29.9324213,-90.2052930
102,Donelon Drive,70123,29.9314357,-90.2054509
86,Donelon Drive,70123,29.9307711,-90.2055682
145,K Street,70123,29.9329965,-90.2057508
165,K Street,70123,29.9337280,-90.2056154
173,K Street,70123,29.9342098,-90.2055351
130,O K Avenue,70123,29.9324189,-90.2061169
13,Doescher Drive,70123,29.9292717,-90.2004745
7409,Windsor Drive,70123,29.9296034,-90.2029198
7317,Stoneleigh Drive,70123,29.9283993,-90.2023479
144,Elaine Avenue,70123,29.9349012,-90.1987924
200,Anthony Avenue,70123,29.9358345,-90.2045700
197,Macque Drive,70123,29.9351828,-90.2044329
177,Macque Drive,70123,29.9343548,-90.2045279
153,Macque Drive,70123,29.9333789,-90.2047702
141,Macque Drive,70123,29.9328938,-90.2048516
138,Sedgefield Drive,70123,29.9330014,-90.2044433
150,Sedgefield Drive,70123,29.9335046,-90.2043340
118,Elaine Avenue,70123,29.9330472,-90.1985735
124,Elaine Avenue,70123,29.9335393,-90.1987015
136,Elaine Avenue,70123,29.9342822,-90.1987084
101,Ravan Avenue,70123,29.9319694,-90.1989673
113,Ravan Avenue,70123,29.9324186,-90.1990521
30,Ravan Avenue,70123,29.9306371,-90.1993146
31,Ravan Avenue,70123,29.9307177,-90.1988287
43,Ravan Avenue,70123,29.9311964,-90.1989014
55,Ravan Avenue,70123,29.9316792,-90.1989526
40,Elaine Avenue,70123,29.9313528,-90.1983758
102,Elaine Avenue,70123,29.9320168,-90.1985000
110,Elaine Avenue,70123,29.9325362,-90.1984988
7408,Stoneleigh Drive,70123,29.9278166,-90.2027648
7300,Stoneleigh Drive,70123,29.9283676,-90.2013031
7215,Stoneleigh Drive,70123,29.9289225,-90.2012360
7312,Windsor Drive,70123,29.9292546,-90.2022162
7408,Windsor Drive,70123,29.9292386,-90.2028057
7608,Stoneleigh Drive,70123,29.9274337,-90.2046287
7620,Stoneleigh Drive,70123,29.9272865,-90.2052228
139,Elaine Avenue,70123,29.9346495,-90.1981974
133,Elaine Avenue,70123,29.9343218,-90.1981849
127,Elaine Avenue,70123,29.9338021,-90.1981381
7214,Clifton Street,70123,29.9328622,-90.2021153
7218,Clifton Street,70123,29.9328276,-90.2023355
7226,Clifton Street,70123,29.9327873,-90.2027650
41,Doescher Drive,70123,29.9308712,-90.2006414
110,Ravan Avenue,70123,29.9322481,-90.1994970
106,Ravan Avenue,70123,29.9320787,-90.1994510
102,Ravan Avenue,70123,29.9319233,-90.1994704
109,Imperial Woods Drive,70123,29.9321998,-90.1998970
54,Ravan Avenue,70123,29.9316281,-90.1994541
63,Imperial Woods Drive,70123,29.9315279,-90.1998060
51,Imperial Woods Drive,70123,29.9310807,-90.1997518
130,West Imperial Drive,70123,29.9325440,-90.2035939
134,West Imperial Drive,70123,29.9327058,-90.2035934
43,Imperial Woods Drive,70123,29.9308537,-90.1997651
142,West Imperial Drive,70123,29.9330310,-90.2035688
146,West Imperial Drive,70123,29.9332078,-90.2035242
150,West Imperial Drive,70123,29.9333884,-90.2035239
158,West Imperial Drive,70123,29.9337042,-90.2034422
162,West Imperial Drive,70123,29.9338891,-90.2034326
166,West Imperial Drive,70123,29.9340548,-90.2033749
101,West Imperial Drive,70123,29.9314430,-90.2032915
93,West Imperial Drive,70123,29.9310741,-90.2033376
89,West Imperial Drive,70123,29.9307329,-90.2033777
86,West Imperial Drive,70123,29.9305508,-90.2038835
90,West Imperial Drive,70123,29.9307245,-90.2038757
94,West Imperial Drive,70123,29.9308870,-90.2038903
49,Elaine Avenue,70123,29.9317835,-90.1979104
105,Elaine Avenue,70123,29.9323170,-90.1979824
107,Elaine Avenue,70123,29.9325409,-90.1979523
115,Elaine Avenue,70123,29.9329346,-90.1980032
51,Ravan Avenue,70123,29.9315157,-90.1989629
47,Ravan Avenue,70123,29.9313600,-90.1989270
39,Ravan Avenue,70123,29.9310408,-90.1988658
35,Ravan Avenue,70123,29.9308837,-90.1988036
34,Ravan Avenue,70123,29.9308261,-90.1993125
38,Ravan Avenue,70123,29.9309750,-90.1993550
50,Ravan Avenue,70123,29.9314648,-90.1993977
129,Elaine Avenue,70123,29.9339609,-90.1981567
131,Elaine Avenue,70123,29.9341242,-90.1982020
135,Elaine Avenue,70123,29.9344831,-90.1982600
167,Ravan Avenue,70123,29.9345360,-90.1993158
7400,Stoneleigh Drive,70123,29.9279571,-90.2023170
114,West Imperial Drive,70123,29.9317063,-90.2036957
122,West Imperial Drive,70123,29.9320466,-90.2036648
126,West Imperial Drive,70123,29.9322128,-90.2036173
186,West Imperial Drive,70123,29.9348965,-90.2032272
182,West Imperial Drive,70123,29.9347270,-90.2032471
7308,Windsor Drive,70123,29.9292668,-90.2020148
7316,Windsor Drive,70123,29.9292475,-90.2024155
7400,Windsor Drive,70123,29.9292316,-90.2025919
7412,Windsor Drive,70123,29.9292218,-90.2029840
10,Donelon Drive,70123,29.9274417,-90.2061530
6,Donelon Drive,70123,29.9272799,-90.2061918
2,Donelon Drive,70123,29.9270632,-90.2062256
57,O K Avenue,70123,29.9293465,-90.2062469
42,Donelon Drive,70123,29.9289145,-90.2059237
54,Donelon Drive,70123,29.9294487,-90.2057990
15,Donelon Drive,70123,29.9276684,-90.2056387
19,Donelon Drive,70123,29.9278429,-90.2056016
23,Donelon Drive,70123,29.9280099,-90.2055285
31,Donelon Drive,70123,29.9283596,-90.2055164
35,Donelon Drive,70123,29.9285195,-90.2054576
47,Donelon Drive,70123,29.9290423,-90.2054009
51,Donelon Drive,70123,29.9291961,-90.2053672
12,Doescher Drive,70123,29.9292265,-90.2009183
9,Doescher Drive,70123,29.9290077,-90.2004008
7204,Stoneleigh Drive,70123,29.9287524,-90.2005851
7212,Stoneleigh Drive,70123,29.9285506,-90.2009107
17,Doescher Drive,70123,29.9294856,-90.2004748
77,Colonial Club Drive,70123,29.9304812,-90.2068732
99,Colonial Club Drive,70123,29.9310998,-90.2067440
101,Colonial Club Drive,70123,29.9313619,-90.2067047
165,Colonial Club Drive,70123,29.9338691,-90.2062275
177,Colonial Club Drive,70123,29.9345278,-90.2060770
140,Macque Drive,70123,29.9329560,-90.2053377
156,Macque Drive,70123,29.9336000,-90.2051958
164,Macque Drive,70123,29.9339459,-90.2051563
172,Macque Drive,70123,29.9342532,-90.2051516
122,Donelon Drive,70123,29.9322761,-90.2052959
110,Donelon Drive,70123,29.9317799,-90.2053591
106,Donelon Drive,70123,29.9315992,-90.2054208
33,West Imperial Drive,70123,29.9284589,-90.2038081
21,West Imperial Drive,70123,29.9279772,-90.2038613
72,Doescher Drive,70123,29.9325932,-90.2013505
76,Doescher Drive,70123,29.9327645,-90.2014212
80,Doescher Drive,70123,29.9329540,-90.2014387
98,West Imperial Drive,70123,29.9310556,-90.2038161
106,West Imperial Drive,70123,29.9313757,-90.2037728
110,West Imperial Drive,70123,29.9315426,-90.2037497
7304,Sheringham Drive,70123,29.9300117,-90.2019587
7300,Sheringham Drive,70123,29.9300193,-90.2017594
16,Ravan Avenue,70123,29.9299120,-90.1992200
23,Imperial Woods Drive,70123,29.9299697,-90.1996276
24,Imperial Woods Drive,70123,29.9299899,-90.2001406
60,Doescher Drive,70123,29.9318800,-90.2013063
116,Imperial Woods Drive,70123,29.9324552,-90.2004137
106,Imperial Woods Drive,70123,29.9320077,-90.2003773
60,Imperial Woods Drive,70123,29.9315290,-90.2003679
45,Doescher Drive,70123,29.9312540,-90.2006780
20,Doescher Drive,70123,29.9297210,-90.2010270
7305,Windsor Drive,70123,29.9296955,-90.2019194
21,Doescher Drive,70123,29.9297321,-90.2005443
7405,Windsor Drive,70123,29.9296256,-90.2027154
7401,Windsor Drive,70123,29.9296207,-90.2025244
7409,Stoneleigh Drive,70123,29.9282032,-90.2029553
7412,Stoneleigh Drive,70123,29.9277357,-90.2029567
12,Imperial Woods Drive,70123,29.9295808,-90.2000691
7216,Windsor Drive,70123,29.9293363,-90.2012741
7220,Windsor Drive,70123,29.9293143,-90.2014354
52,Doescher Drive,70123,29.9315463,-90.2012458
48,Doescher Drive,70123,29.9313194,-90.2011983
49,Colonial Club Drive,70123,29.9290941,-90.2071653
37,Colonial Club Drive,70123,29.9286078,-90.2071534
33,Colonial Club Drive,70123,29.9283835,-90.2072328
19,Colonial Club Drive,70123,29.9278765,-90.2073539
11,Colonial Club Drive,70123,29.9274459,-90.2074023
9,Colonial Club Drive,70123,29.9271846,-90.2074527
189,Macque Drive,70123,29.9348472,-90.2045067
178,Sedgefield Drive,70123,29.9346423,-90.2040987
182,Sedgefield Drive,70123,29.9348133,-90.2040885
186,Sedgefield Drive,70123,29.9349690,-90.2040509
170,Sedgefield Drive,70123,29.9343340,-90.2042004
158,Sedgefield Drive,70123,29.9338264,-90.2042691
146,Sedgefield Drive,70123,29.9333262,-90.2043589
142,Sedgefield Drive,70123,29.9331655,-90.2043855
134,Sedgefield Drive,70123,29.9328266,-90.2044372
145,Macque Drive,70123,29.9330393,-90.2048100
16,Fortier Lane,70123,29.9282284,-90.2084251
57,Colonial Club Drive,70123,29.9294971,-90.2070482
51,Colonial Club Drive,70123,29.9292880,-90.2071037
12,Ravan Avenue,70123,29.9296706,-90.1992095
81,West Imperial Drive,70123,29.9303662,-90.2034398
68,Doescher Drive,70123,29.9322497,-90.2013446
7208,Lancaster Drive,70123,29.9321818,-90.2016102
7212,Lancaster Drive,70123,29.9321887,-90.2018299
7220,Lancaster Drive,70123,29.9321297,-90.2022155
196,Macque Drive,70123,29.9352408,-90.2048974
200,Macque Drive,70123,29.9354134,-90.2048864
61,Doescher Drive,70123,29.9322017,-90.2008242
7305,Lancaster Drive,70123,29.9325065,-90.2027983
7301,Lancaster Drive,70123,29.9325245,-90.2025335
188,Macque Drive,70123,29.9349140,-90.2050177
184,Macque Drive,70123,29.9347323,-90.2050241
193,K Street,70123,29.9350103,-90.2053404
161,Colonial Club Drive,70123,29.9336481,-90.2063132
15,O K Avenue,70123,29.9277126,-90.2065216
11,O K Avenue,70123,29.9275544,-90.2065694
7,O K Avenue,70123,29.9272294,-90.2066363
3,O K Avenue,70123,29.9270237,-90.2066744
35,O K Avenue,70123,29.9286151,-90.2063691
174,West Imperial Drive,70123,29.9343813,-90.2033144
170,West Imperial Drive,70123,29.9342130,-90.2033462
194,Sedgefield Drive,70123,29.9352905,-90.2040033
201,Macque Drive,70123,29.9353397,-90.2044006
98,Donelon Drive,70123,29.9312696,-90.2054948
90,Donelon Drive,70123,29.9309393,-90.2055464
82,Donelon Drive,70123,29.9305939,-90.2056192
125,Elaine Avenue,70123,29.9336324,-90.1980927
9,Elaine Avenue,70123,29.9307864,-90.1978266
19,Elaine Avenue,70123,29.9309542,-90.1978441
35,Elaine Avenue,70123,29.9314482,-90.1978136
7500,Stoneleigh Drive,70123,29.9277045,-90.2033944
197,K Street,70123,29.9351657,-90.2053689
191,Colonial Club Drive,70123,29.9352189,-90.2059922
20,O K Avenue,70123,29.9280983,-90.2069701
44,O K Avenue,70123,29.9290513,-90.2067664
56,O K Avenue,70123,29.9294500,-90.2066853
27,O K Avenue,70123,29.9282764,-90.2063785
25,O K Avenue,70123,29.9281220,-90.2064580
17,O K Avenue,70123,29.9278891,-90.2064992
61,O K Avenue,70123,29.9295700,-90.2061804
46,Donelon Drive,70123,29.9290898,-90.2058744
65,Colonial Club Drive,70123,29.9297056,-90.2069837
36,Club Drive,70123,29.9287531,-90.2083521
7271,Jefferson Highway,70123,29.9358793,-90.2012583
195,Ravan Avenue,70123,29.9356664,-90.1994512
39,Imperial Woods Drive,70123,29.9306484,-90.1997142
27,Colonial Club Drive,70123,29.9283636,-90.2078567
21,Colonial Club Drive,70123,29.9281034,-90.2079763
15,Colonial Club Drive,70123,29.9278462,-90.2080061
6,Fortier Lane,70123,29.9274297,-90.2085590
11,Ravan Avenue,70123,29.9298911,-90.1987163
23,Ravan Avenue,70123,29.9303775,-90.1988142
6,Elaine Avenue,70123,29.9302919,-90.1983109
25,Doescher Drive,70123,29.9299558,-90.2005851
7312,Sheringham Drive,70123,29.9299633,-90.2023827
66,West Imperial Drive,70123,29.9297403,-90.2040477
65,West Imperial Drive,70123,29.9298555,-90.2035676
73,West Imperial Drive,70123,29.9300378,-90.2035230
7404,Sheringham Drive,70123,29.9299285,-90.2028260
46,Imperial Woods Drive,70123,29.9308912,-90.2002918
40,Imperial Woods Drive,70123,29.9306608,-90.2002807
36,Imperial Woods Drive,70123,29.9304568,-90.2001778
32,Doescher Drive,70123,29.9304585,-90.2011252
7215,Sheringham Drive,70123,29.9304802,-90.2013928
114,Elaine Avenue,70123,29.9328812,-90.1985939
112,Elaine Avenue,70123,29.9327137,-90.1985445
38,Donelon Drive,70123,29.9286125,-90.2059742
30,Donelon Drive,70123,29.9283028,-90.2060465
26,Donelon Drive,70123,29.9281287,-90.2060240
22,Donelon Drive,70123,29.9279301,-90.2060579
130,Imperial Woods Drive,70123,29.9329455,-90.2004898
122,Imperial Woods Drive,70123,29.9326865,-90.2005157
77,Doescher Drive,70123,29.9331318,-90.2009295
84,Doescher Drive,70123,29.9333100,-90.2014386
7207,Clifton Street,70123,29.9333048,-90.2017283
7219,Clifton Street,70123,29.9332460,-90.2025132
7223,Clifton Street,70123,29.9332103,-90.2027033
7213,Lancaster Drive,70123,29.9326055,-90.2018905
30,Sedgefield Drive,70123,29.9283555,-90.2051603
22,Sedgefield Drive,70123,29.9280145,-90.2052372
18,Sedgefield Drive,70123,29.9278527,-90.2052243
14,Sedgefield Drive,70123,29.9276849,-90.2052723
17,Sedgefield Drive,70123,29.9278036,-90.2047510
7305,Sheringham Drive,70123,29.9303765,-90.2020312
7301,Sheringham Drive,70123,29.9304031,-90.2018776
7220,Sheringham Drive,70123,29.9300170,-90.2015239
30,Imperial Woods Drive,70123,29.9302106,-90.2002224
22,Ravan Avenue,70123,29.9303080,-90.1992616
74,West Imperial Drive,70123,29.9300586,-90.2040353
73,Sedgefield Drive,70123,29.9300924,-90.2043349
82,West Imperial Drive,70123,29.9303753,-90.2039587
78,Sedgefield Drive,70123,29.9303321,-90.2047977
79,Donelon Drive,70123,29.9303825,-90.2051593
201,Mayo Avenue,70123,29.9357778,-90.2034106
187,Sedgefield Drive,70123,29.9350456,-90.2035762
61,West Imperial Drive,70123,29.9296601,-90.2035875
7505,Windsor Drive,70123,29.9296667,-90.2033122
7501,Windsor Drive,70123,29.9296280,-90.2031244
37,Sedgefield Drive,70123,29.9286088,-90.2046325
41,Sedgefield Drive,70123,29.9287853,-90.2045739
53,Sedgefield Drive,70123,29.9292933,-90.2045001
58,West Imperial Drive,70123,29.9294212,-90.2041153
54,West Imperial Drive,70123,29.9292493,-90.2041549
50,West Imperial Drive,70123,29.9290745,-90.2041981
42,West Imperial Drive,70123,29.9287559,-90.2042481
38,West Imperial Drive,70123,29.9285636,-90.2042773
34,West Imperial Drive,70123,29.9283934,-90.2042923
26,West Imperial Drive,70123,29.9280716,-90.2043536
22,West Imperial Drive,70123,29.9278795,-90.2044192
7512,Stoneleigh Drive,70123,29.9275474,-90.2040118
7301,Jefferson Highway,70123,29.9357902,-90.2016780
108,Elaine Avenue,70123,29.9323737,-90.1984786
106,Elaine Avenue,70123,29.9321943,-90.1984676
20,Elaine Avenue,70123,29.9308781,-90.1983122
26,Elaine Avenue,70123,29.9311168,-90.1983838
143,Elaine Avenue,70123,29.9349812,-90.1982759
149,Ravan Avenue,70123,29.9338802,-90.1991827
137,Ravan Avenue,70123,29.9333697,-90.1991511
133,Ravan Avenue,70123,29.9332163,-90.1991520
121,Ravan Avenue,70123,29.9327473,-90.1990730
109,Ravan Avenue,70123,29.9322793,-90.1990238
105,Ravan Avenue,70123,29.9321055,-90.1990257
159,Ravan Avenue,70123,29.9341802,-90.1992690
126,Elaine Avenue,70123,29.9337265,-90.1986480
122,Elaine Avenue,70123,29.9333790,-90.1986367
117,Elaine Avenue,70123,29.9331521,-90.1980738
7405,Stoneleigh Drive,70123,29.9282591,-90.2027585
61,Sedgefield Drive,70123,29.9296315,-90.2044596
155,Colonial Club Drive,70123,29.9334380,-90.2062765
143,Colonial Club Drive,70123,29.9330480,-90.2064081
204,Mayo Avenue,70123,29.9358634,-90.2037593
149,Macque Drive,70123,29.9332117,-90.2048221
7505,Stoneleigh Drive,70123,29.9280809,-90.2035680
7504,Windsor Drive,70123,29.9292566,-90.2033946
45,West Imperial Drive,70123,29.9289505,-90.2036885
7604,Stoneleigh Drive,70123,29.9274777,-90.2044174
59,Donelon Drive,70123,29.9295466,-90.2053017
54,Sedgefield Drive,70123,29.9293307,-90.2049966
50,Sedgefield Drive,70123,29.9291606,-90.2050024
46,Sedgefield Drive,70123,29.9289832,-90.2050260
38,Sedgefield Drive,70123,29.9286590,-90.2050872
34,Sedgefield Drive,70123,29.9285015,-90.2051131
157,Macque Drive,70123,29.9335356,-90.2047348
161,Macque Drive,70123,29.9337126,-90.2047034
83,O K Avenue,70123,29.9305362,-90.2060087
150,Ravan Avenue,70123,29.9338271,-90.1996829
173,Macque Drive,70123,29.9341881,-90.2046089
176,Macque Drive,70123,29.9344262,-90.2050756
133,Sedgefield Drive,70123,29.9327805,-90.2039260
177,K Street,70123,29.9343541,-90.2055273
181,K Street,70123,29.9345122,-90.2054849
185,K Street,70123,29.9346532,-90.2053436
189,K Street,70123,29.9348564,-90.2054272
159,Sedgefield Drive,70123,29.9338256,-90.2037768
151,Sedgefield Drive,70123,29.9334592,-90.2038586
147,Sedgefield Drive,70123,29.9332974,-90.2038476
139,West Imperial Drive,70123,29.9328648,-90.2030306
175,Sedgefield Drive,70123,29.9345281,-90.2036600
167,Sedgefield Drive,70123,29.9341809,-90.2037304
163,Sedgefield Drive,70123,29.9340104,-90.2037691
149,K Street,70123,29.9332524,-90.2057288
153,K Street,70123,29.9334187,-90.2056889
169,K Street,70123,29.9340477,-90.2055713
156,Elaine Avenue,70123,29.9356943,-90.1989083
148,Elaine Avenue,70123,29.9352639,-90.1988317
147,Elaine Avenue,70123,29.9353173,-90.1983762
149,Elaine Avenue,70123,29.9354957,-90.1983196
113,Sedgefield Drive,70123,29.9318998,-90.2040493
101,Sedgefield Drive,70123,29.9313519,-90.2041295
93,Sedgefield Drive,70123,29.9310041,-90.2042123
89,Sedgefield Drive,70123,29.9308138,-90.2042413
126,Sedgefield Drive,70123,29.9323126,-90.2044260
118,Sedgefield Drive,70123,29.9319629,-90.2044854
106,Sedgefield Drive,70123,29.9314722,-90.2045847
98,Sedgefield Drive,70123,29.9311571,-90.2046680
90,Sedgefield Drive,70123,29.9308244,-90.2047022
86,Sedgefield Drive,70123,29.9306592,-90.2047248
87,Donelon Drive,70123,29.9307154,-90.2051165
95,Donelon Drive,70123,29.9310352,-90.2050511
99,Donelon Drive,70123,29.9311919,-90.2050125
111,Donelon Drive,70123,29.9316817,-90.2049268
123,Donelon Drive,70123,29.9321741,-90.2048450
127,Donelon Drive,70123,29.9323519,-90.2048057
65,O K Avenue,70123,29.9297111,-90.2061343
62,Donelon Drive,70123,29.9297701,-90.2057484
68,O K Avenue,70123,29.9298863,-90.2065815
67,Colonial Club Drive,70123,29.9299052,-90.2069509
78,Donelon Drive,70123,29.9304475,-90.2056315
74,Donelon Drive,70123,29.9302717,-90.2056478
75,O K Avenue,70123,29.9301465,-90.2060882
79,O K Avenue,70123,29.9303303,-90.2060707
66,Donelon Drive,70123,29.9299278,-90.2057038
71,O K Avenue,70123,29.9299349,-90.2061358
7,Donelon Drive,70123,29.9273142,-90.2056822
3,Donelon Drive,70123,29.9271453,-90.2057079
109,O K Avenue,70123,29.9312473,-90.2059086
146,Ravan Avenue,70123,29.9336767,-90.1996768
138,Ravan Avenue,70123,29.9333597,-90.1996084
126,Ravan Avenue,70123,29.9328932,-90.1995893
122,Ravan Avenue,70123,29.9327250,-90.1995625
123,Imperial Woods Drive,70123,29.9326867,-90.1999626
145,Imperial Woods Drive,70123,29.9334785,-90.2000649
160,Imperial Woods Drive,70123,29.9338946,-90.2006740
138,Imperial Woods Drive,70123,29.9331553,-90.2005420
171,Ravan Avenue,70123,29.9347006,-90.1993056
142,Elaine Avenue,70123,29.9347233,-90.1988369
185,Ravan Avenue,70123,29.9350414,-90.1993601
25,Sedgefield Drive,70123,29.9281284,-90.2046779
29,Sedgefield Drive,70123,29.9283113,-90.2046639
55,Donelon Drive,70123,29.9293756,-90.2052966
7616,Stoneleigh Drive,70123,29.9273328,-90.2050218
7612,Stoneleigh Drive,70123,29.9274000,-90.2048111
121,O K Avenue,70123,29.9318554,-90.2057834
125,O K Avenue,70123,29.9320582,-90.2057312
7300,Lancaster Drive,70123,29.9321068,-90.2024371
7304,Lancaster Drive,70123,29.9321031,-90.2026786
113,West Imperial Drive,70123,29.9317796,-90.2032332
117,West Imperial Drive,70123,29.9319945,-90.2032095
131,West Imperial Drive,70123,29.9324950,-90.2031134
135,West Imperial Drive,70123,29.9326765,-90.2030735
300,V F W Boulevard,70123,29.9392416,-90.1960384
367,East Avenue,70123,29.9398837,-90.1972576
63,Hickory Avenue,70123,29.9373807,-90.1904579
61,Hickory Avenue,70123,29.9373235,-90.1904213
374,Oak Avenue,70123,29.9411028,-90.1970526
340,East Avenue,70123,29.9393823,-90.1975973
304,V F W Boulevard,70123,29.9394657,-90.1962644
6200,Jefferson Highway,70123,29.9377248,-90.1909471
6121,Jefferson Highway,70123,29.9402300,-90.1906546
6413,Jefferson Highway,70123,29.9381568,-90.1926257
231,Hickory Avenue,70123,29.9401320,-90.1938254
59,Oak Avenue,70123,29.9368437,-90.1911192
137,Bailey Street,70123,29.9363764,-90.1948382
58,Hickory Avenue,70123,29.9370508,-90.1906987
437,Oak Avenue,70123,29.9421674,-90.1976891
6367,Jefferson Highway,70123,29.9378947,-90.1923158
122,Crislaur Avenue,70123,29.9367351,-90.1935966
175,Bailey Street,70123,29.9369329,-90.1951797
231,Oak Avenue,70123,29.9395453,-90.1944777
192,Magnolia Boulevard,70123,29.9368339,-90.1963636
185,Magnolia Boulevard,70123,29.9367422,-90.1957708
174,Bailey Street,70123,29.9369083,-90.1955825
170,Bailey Street,70123,29.9367608,-90.1954943
300,East Avenue,70123,29.9387288,-90.1975022
140,Crislaur Avenue,70123,29.9371271,-90.1939464
87,Crislaur Avenue,70123,29.9362545,-90.1926775
89,Crislaur Avenue,70123,29.9363997,-90.1927633
325,Hickory Avenue,70123,29.9413568,-90.1951425
353,Oak Avenue,70123,29.9410419,-90.1962918
415,V F W Boulevard,70123,29.9402229,-90.1968664
433,Bailey Street,70123,29.9411658,-90.1976319
370,Hickory Avenue,70123,29.9415727,-90.1964083
395,Hickory Avenue,70123,29.9420821,-90.1960572
100,Ren Pass Avenue,70123,29.9360014,-90.1940255
278,Oak Avenue,70123,29.9400282,-90.1956783
410,V F W Boulevard,70123,29.9398625,-90.1967891
6872,Jefferson Highway,70123,29.9364081,-90.1971051
199,Hickory Avenue,70123,29.9395910,-90.1932427
29,Hickory Avenue,70123,29.9369247,-90.1898549
142,Ren Pass Avenue,70123,29.9366774,-90.1945875
269,Oak Avenue,70123,29.9401511,-90.1951015
463,Hickory Avenue,70123,29.9430695,-90.1974734
6224,Roddie Street,70123,29.9361733,-90.1902518
6210,Roddie Street,70123,29.9363851,-90.1900399
46,Hickory Avenue,70123,29.9369898,-90.1906005
6232,Jefferson Highway,70123,29.9372621,-90.1915062
65,Oak Avenue,70123,29.9369385,-90.1912263
39,Oak Avenue,70123,29.9364799,-90.1907289
11,Hickory Avenue,70123,29.9365988,-90.1894360
156,Ren Pass Avenue,70123,29.9369056,-90.1947583
133,Ren Pass Avenue,70123,29.9367836,-90.1941228
141,Ren Pass Avenue,70123,29.9370114,-90.1942996
134,Crislaur Avenue,70123,29.9369837,-90.1937555
136,Bailey Street,70123,29.9361185,-90.1951251
140,Bailey Street,70123,29.9362341,-90.1952240
432,Hickory Avenue,70123,29.9423299,-90.1971426
325,Oak Avenue,70123,29.9407127,-90.1958241
366,East Avenue,70123,29.9398512,-90.1976968
420,Hickory Avenue,70123,29.9420755,-90.1968601
304,Oak Avenue,70123,29.9401573,-90.1958133
181,Crislaur Avenue,70123,29.9379050,-90.1939189
89,Ren Pass Avenue,70123,29.9359907,-90.1934816
335,East Avenue,70123,29.9393157,-90.1971611
6880,Jefferson Highway,70123,29.9363741,-90.1972831
6869,Jefferson Highway,70123,29.9371921,-90.1973086
167,Magnolia Boulevard,70123,29.9363343,-90.1957268
177,Bailey Street,70123,29.9370766,-90.1952793
302,V F W Boulevard,70123,29.9393344,-90.1961488
245,East Avenue,70123,29.9379978,-90.1970243
249,West Avenue,70123,29.9379075,-90.1976899
266,East Avenue,70123,29.9384068,-90.1975317
340,Hickory Avenue,70123,29.9411311,-90.1958273
336,Oak Avenue,70123,29.9404526,-90.1962535
425,Hickory Avenue,70123,29.9425008,-90.1967564
279,Oak Avenue,70123,29.9402067,-90.1952644
459,Hickory Avenue,70123,29.9429936,-90.1972619
411,Bailey Street,70123,29.9407397,-90.1973705
187,Haroleans Street,70123,29.9362461,-90.1965035
315,East Avenue,70123,29.9389202,-90.1971153
227,East Avenue,70123,29.9375826,-90.1970328
191,Magnolia Boulevard,70123,29.9369765,-90.1958428
129,Bailey Street,70123,29.9362537,-90.1947209
132,Ren Pass Avenue,70123,29.9365769,-90.1945088
321,Marquette Street,70123,29.9402225,-90.1977171
269,East Avenue,70123,29.9383908,-90.1970529
335,Oak Avenue,70123,29.9408620,-90.1961267
378,Hickory Avenue,70123,29.9416588,-90.1964956
6436,Jefferson Highway,70123,29.9378973,-90.1931103
201,Hickory Avenue,70123,29.9397988,-90.1933509
6502,Jefferson Highway,70123,29.9380316,-90.1945826
243,Hickory Avenue,70123,29.9403024,-90.1940297
6229,Jefferson Highway,70123,29.9379076,-90.1918897
42,Oak Avenue,70123,29.9363843,-90.1911566
14,Oak Avenue,70123,29.9359670,-90.1906530
259,Hickory Avenue,70123,29.9405856,-90.1943049
280,Hickory Avenue,70123,29.9404840,-90.1949624
233,Oak Avenue,70123,29.9396213,-90.1945674
236,Hickory Avenue,70123,29.9398953,-90.1943189
234,Oak Avenue,70123,29.9394511,-90.1949631
77,Crislaur Avenue,70123,29.9361205,-90.1925774
151,Crislaur Avenue,70123,29.9372976,-90.1935011
100,Crislaur Avenue,70123,29.9364116,-90.1933566
88,Crislaur Avenue,70123,29.9361988,-90.1931417
37,Hickory Avenue,70123,29.9371007,-90.1899670
6380,Jefferson Highway,70123,29.9375966,-90.1927730
316,Oak Avenue,70123,29.9403441,-90.1960354
220,Bailey Street,70123,29.9406903,-90.1970051
305,V F W Boulevard,70123,29.9396413,-90.1958893
236,Bailey Street,70123,29.9404886,-90.1972368
73,Crislaur Avenue,70123,29.9359261,-90.1923872
130,Crislaur Avenue,70123,29.9368717,-90.1936503
162,Crislaur Avenue,70123,29.9374280,-90.1941221
157,Ren Pass Avenue,70123,29.9371360,-90.1943320
176,Haroleans Street,70123,29.9359590,-90.1969462
153,Crislaur Avenue,70123,29.9374270,-90.1935917
133,Crislaur Avenue,70123,29.9370757,-90.1933096
150,Ren Pass Avenue,70123,29.9367734,-90.1946674
189,Ren Pass Avenue,70123,29.9375612,-90.1947933
165,Crislaur Avenue,70123,29.9376817,-90.1937920
184,Crislaur Avenue,70123,29.9377882,-90.1944644
6444,Jefferson Highway,70123,29.9379866,-90.1932041
6391,Jefferson Highway,70123,29.9380954,-90.1924834
248,Oak Avenue,70123,29.9396300,-90.1951332
217,Hickory Avenue,70123,29.9399806,-90.1935933
230,Hickory Avenue,70123,29.9398717,-90.1941754
250,Hickory Avenue,70123,29.9401269,-90.1946131
112,Ren Pass Avenue,70123,29.9361064,-90.1940934
159,Bailey Street,70123,29.9367694,-90.1950180
160,Ren Pass Avenue,70123,29.9370220,-90.1948294
128,Ren Pass Avenue,70123,29.9364551,-90.1944109
424,Bailey Street,70123,29.9407152,-90.1977485
240,East Avenue,70123,29.9377929,-90.1974063
186,Magnolia Boulevard,70123,29.9363132,-90.1962247
417,V F W Boulevard,70123,29.9401740,-90.1970626
301,Oak Avenue,70123,29.9404294,-90.1954822
235,Hickory Avenue,70123,29.9402452,-90.1938862
6554,Jefferson Highway,70123,29.9379702,-90.1948899
116,Hickory Avenue,70123,29.9381396,-90.1921697
335,Oak Avenue,70123,29.9409406,-90.1961583
371,Oak Avenue,70123,29.9412472,-90.1965745
344,Hickory Avenue,70123,29.9413639,-90.1959371
339,Hickory Avenue,70123,29.9414770,-90.1953297
342,Oak Avenue,70123,29.9405846,-90.1965481
369,Hickory Avenue,70123,29.9419065,-90.1959381
347,Hickory Avenue,70123,29.9415684,-90.1956386
255,Hickory Avenue,70123,29.9404969,-90.1942668
247,Hickory Avenue,70123,29.9404469,-90.1941784
317,Hickory Avenue,70123,29.9412040,-90.1950416
311,Hickory Avenue,70123,29.9410831,-90.1949934
301,Hickory Avenue,70123,29.9410277,-90.1948261
271,Hickory Avenue,70123,29.9407420,-90.1945021
263,Hickory Avenue,70123,29.9406283,-90.1944063
239,Oak Avenue,70123,29.9397098,-90.1946653
261,Oak Avenue,70123,29.9399985,-90.1950548
68,Oak Avenue,70123,29.9366877,-90.1915529
56,Oak Avenue,70123,29.9365889,-90.1914081
46,Oak Avenue,70123,29.9364630,-90.1912722
125,Crislaur Avenue,70123,29.9369162,-90.1932037
141,Crislaur Avenue,70123,29.9372316,-90.1933834
108,Crislaur Avenue,70123,29.9365893,-90.1934471
356,East Avenue,70123,29.9397021,-90.1976714
436,Hickory Avenue,70123,29.9423655,-90.1973084
433,Oak Avenue,70123,29.9420177,-90.1975474
425,Oak Avenue,70123,29.9419038,-90.1973958
155,Magnolia Boulevard,70123,29.9361808,-90.1956624
414,V F W Boulevard,70123,29.9399315,-90.1969375
422,Hickory Avenue,70123,29.9421871,-90.1969914
401,Oak Avenue,70123,29.9416045,-90.1969891
270,Oak Avenue,70123,29.9397667,-90.1954326
276,Oak Avenue,70123,29.9398557,-90.1955594
59,Hickory Avenue,70123,29.9372718,-90.1903042
6340,Jefferson Highway,70123,29.9374187,-90.1926308
6318,Jefferson Highway,70123,29.9371124,-90.1921282
130,Bailey Street,70123,29.9359591,-90.1950463
117,Bailey Street,70123,29.9359880,-90.1945946
6430,Jefferson Highway,70123,29.9378063,-90.1929899
6392,Jefferson Highway,70123,29.9376777,-90.1928820
6231,Jefferson Highway,70123,29.9377006,-90.1921284
6355,Jefferson Highway,70123,29.9378139,-90.1922776
6368,Jefferson Highway,70123,29.9375198,-90.1927111
260,Hickory Avenue,70123,29.9402119,-90.1947567
244,Hickory Avenue,70123,29.9400879,-90.1944232
215,Hickory Avenue,70123,29.9399294,-90.1934403
203,Oak Avenue,70123,29.9392604,-90.1941346
303,Bailey Street,70123,29.9389858,-90.1964040
241,East Avenue,70123,29.9378614,-90.1969720
6800,Jefferson Highway,70123,29.9365455,-90.1969373
235,East Avenue,70123,29.9377426,-90.1970034
245,West Avenue,70123,29.9377740,-90.1976906
255,West Avenue,70123,29.9380868,-90.1977303
270,East Avenue,70123,29.9385838,-90.1975331
258,East Avenue,70123,29.9382443,-90.1974643
246,East Avenue,70123,29.9379607,-90.1974397
177,Haroleans Street,70123,29.9360450,-90.1964924
182,Magnolia Boulevard,70123,29.9361044,-90.1961866
6851,Jefferson Highway,70123,29.9371578,-90.1971322
313,Oak Avenue,70123,29.9405554,-90.1956404
319,Oak Avenue,70123,29.9405831,-90.1957848
368,Hickory Avenue,70123,29.9415508,-90.1962001
306,East Avenue,70123,29.9389037,-90.1975657
320,East Avenue,70123,29.9390667,-90.1975468
332,East Avenue,70123,29.9392070,-90.1976082
342,Hickory Avenue,70123,29.9412504,-90.1958319
328,Hickory Avenue,70123,29.9409935,-90.1955550
324,Hickory Avenue,70123,29.9408794,-90.1954449
320,Hickory Avenue,70123,29.9407220,-90.1952170
356,Oak Avenue,70123,29.9408382,-90.1967304
343,Oak Avenue,70123,29.9406696,-90.1966714
338,Oak Avenue,70123,29.9405512,-90.1963983
357,Hickory Avenue,70123,29.9417699,-90.1958679
333,Oak Avenue,70123,29.9407732,-90.1960305
359,Oak Avenue,70123,29.9411489,-90.1963862
375,Oak Avenue,70123,29.9413560,-90.1967097
346,East Avenue,70123,29.9395427,-90.1976542
319,East Avenue,70123,29.9390502,-90.1971789
327,East Avenue,70123,29.9391841,-90.1972011
341,East Avenue,70123,29.9394358,-90.1972320
236,East Avenue,70123,29.9376156,-90.1974539
239,West Avenue,70123,29.9375828,-90.1976422
406,Oak Avenue,70123,29.9414665,-90.1974298
404,Oak Avenue,70123,29.9413562,-90.1973275
421,Bailey Street,70123,29.9409509,-90.1974957
158,Crislaur Avenue,70123,29.9372817,-90.1939507
101,Ren Pass Avenue,70123,29.9362245,-90.1936872
170,Ren Pass Avenue,70123,29.9371861,-90.1950353
180,Ren Pass Avenue,70123,29.9373429,-90.1951363
6458,Jefferson Highway,70123,29.9381135,-90.1933701
6448,Jefferson Highway,70123,29.9380631,-90.1932909
163,Ren Pass Avenue,70123,29.9372124,-90.1944870
82,Crislaur Avenue,70123,29.9361082,-90.1930519
173,Ren Pass Avenue,70123,29.9374536,-90.1945160
146,Crislaur Avenue,70123,29.9376667,-90.1942806
169,Crislaur Avenue,70123,29.9377872,-90.1938299
155,Crislaur Avenue,70123,29.9375458,-90.1936644
117,Ren Pass Avenue,70123,29.9364266,-90.1938660
125,Ren Pass Avenue,70123,29.9365425,-90.1939494
131,Ren Pass Avenue,70123,29.9366645,-90.1940394
137,Ren Pass Avenue,70123,29.9368997,-90.1942174
309,V F W Boulevard,70123,29.9398196,-90.1961110
405,Oak Avenue,70123,29.9416790,-90.1971164
228,Bailey Street,70123,29.9405731,-90.1970564
349,East Avenue,70123,29.9395774,-90.1971889
355,East Avenue,70123,29.9397322,-90.1972830
400,Hickory Avenue,70123,29.9419136,-90.1966330
351,Hickory Avenue,70123,29.9416692,-90.1957170
83,Hickory Avenue,70123,29.9376838,-90.1908181
180,Haroleans Street,70123,29.9360907,-90.1969328
401,Hickory Avenue,70123,29.9422643,-90.1963400
409,Hickory Avenue,70123,29.9423295,-90.1964445
431,Hickory Avenue,70123,29.9425709,-90.1968148
315,V F W Boulevard,70123,29.9401360,-90.1965338
313,V F W Boulevard,70123,29.9400442,-90.1963462
261,East Avenue,70123,29.9382540,-90.1970841
275,East Avenue,70123,29.9385340,-90.1970878
301,East Avenue,70123,29.9386637,-90.1971404
307,East Avenue,70123,29.9387970,-90.1971224
151,Magnolia Boulevard,70123,29.9360048,-90.1956042
309,Marquette Street,70123,29.9402364,-90.1975812
301,Marquette Street,70123,29.9402025,-90.1974285
36,Oak Avenue,70123,29.9362999,-90.1910545
16,Oak Avenue,70123,29.9359911,-90.1907986
303,V F W Boulevard,70123,29.9395429,-90.1957599
307,V F W Boulevard,70123,29.9397606,-90.1959960
408,Bailey Street,70123,29.9404201,-90.1976660
412,Bailey Street,70123,29.9405567,-90.1977043
314,Oak Avenue,70123,29.9402316,-90.1959824
221,V F W Boulevard,70123,29.9403120,-90.1967165
221,Hickory Avenue,70123,29.9400670,-90.1937047
236,Oak Avenue,70123,29.9394624,-90.1951079
6492,Jefferson Highway,70123,29.9384273,-90.1939766
185,Crislaur Avenue,70123,29.9380206,-90.1940112
149,Bailey Street,70123,29.9366256,-90.1949908
145,Bailey Street,70123,29.9364797,-90.1949166
123,Bailey Street,70123,29.9361101,-90.1946373
116,Ren Pass Avenue,70123,29.9362093,-90.1941992
124,Ren Pass Avenue,70123,29.9363018,-90.1943404
450,Hickory Avenue,70123,29.9425008,-90.1975350
6244,Jefferson Highway,70123,29.9372554,-90.1917011
53,Oak Avenue,70123,29.9367300,-90.1910359
45,Oak Avenue,70123,29.9366655,-90.1909007
41,Oak Avenue,70123,29.9365961,-90.1908179
33,Oak Avenue,70123,29.9364052,-90.1905788
23,Oak Avenue,70123,29.9363425,-90.1905251
6217,Roddie Street,70123,29.9365527,-90.1904598
13,Hickory Avenue,70123,29.9366489,-90.1895649
15,Hickory Avenue,70123,29.9367465,-90.1896324
25,Hickory Avenue,70123,29.9368629,-90.1897668
6723,Jefferson Highway,70123,29.9379371,-90.1964344
301,V F W Boulevard,70123,29.9394781,-90.1956644
223,East Avenue,70123,29.9374278,-90.1971196
190,Magnolia Boulevard,70123,29.9365895,-90.1963050
188,Magnolia Boulevard,70123,29.9364525,-90.1962609
191,Haroleans Street,70123,29.9364603,-90.1965497
199,Magnolia Boulevard,70123,29.9371297,-90.1959192
177,Magnolia Boulevard,70123,29.9365221,-90.1957382
166,Bailey Street,70123,29.9365881,-90.1954126
144,Bailey Street,70123,29.9364102,-90.1953130
6853,Jefferson Highway,70123,29.9373426,-90.1968387
6611,Jefferson Highway,70123,29.9383180,-90.1956666
6625,Jefferson Highway,70123,29.9380842,-90.1957807
6220,Roddie Street,70123,29.9362422,-90.1902152
6216,Roddie Street,70123,29.9362895,-90.1901458
6200,Roddie Street,70123,29.9365041,-90.1899332
20,Hickory Avenue,70123,29.9366571,-90.1903015
24,Hickory Avenue,70123,29.9367756,-90.1904164
42,Hickory Avenue,70123,29.9369062,-90.1904841
64,Hickory Avenue,70123,29.9371578,-90.1908279
68,Hickory Avenue,70123,29.9372618,-90.1908759
6226,Jefferson Highway,70123,29.9374146,-90.1911710
469,Hickory Avenue,70123,29.9432708,-90.1977455
6387,Jefferson Highway,70123,29.9379876,-90.1924524
197,Hickory Avenue,70123,29.9395861,-90.1930780
179,Hickory Avenue,70123,29.9394923,-90.1928591
157,Hickory Avenue,70123,29.9391062,-90.1925825
6213,Jefferson Highway,70123,29.9382588,-90.1914368
107,Hickory Avenue,70123,29.9383167,-90.1915499
190,Hickory Avenue,70123,29.9391497,-90.1934066
140,Hickory Avenue,70123,29.9383259,-90.1924163
114,Hickory Avenue,70123,29.9380236,-90.1920374
160,Magnolia Boulevard,70123,29.9358771,-90.1961110
152,Magnolia Boulevard,70123,29.9354994,-90.1960103
15,Crislaur Avenue,70123,29.9351754,-90.1918563
70,Ren Pass Avenue,70123,29.9353137,-90.1935203
78,Ren Pass Avenue,70123,29.9355296,-90.1937175
105,Haroleans Street,70123,29.9345928,-90.1962319
116,Haroleans Street,70123,29.9346618,-90.1967811
123,Haroleans Street,70123,29.9352318,-90.1963353
127,Haroleans Street,70123,29.9354055,-90.1963840
131,Haroleans Street,70123,29.9356154,-90.1964228
89,Haroleans Street,70123,29.9339608,-90.1961614
36,Haroleans Street,70123,29.9323125,-90.1965170
6427,Riverside Drive,70123,29.9351095,-90.1916562
6421,Riverside Drive,70123,29.9351799,-90.1915197
148,Magnolia Boulevard,70123,29.9353050,-90.1959364
142,Magnolia Boulevard,70123,29.9351348,-90.1958677
140,Magnolia Boulevard,70123,29.9349430,-90.1958385
113,Haroleans Street,70123,29.9350347,-90.1962868
109,Haroleans Street,70123,29.9347632,-90.1963064
77,Haroleans Street,70123,29.9337460,-90.1961424
56,Pecan Avenue,70123,29.9347555,-90.1939202
49,Bailey Street,70123,29.9345662,-90.1937523
37,Bailey Street,70123,29.9343913,-90.1936413
25,Bailey Street,70123,29.9342138,-90.1935424
145,Magnolia Boulevard,70123,29.9355245,-90.1953197
127,Magnolia Boulevard,70123,29.9347165,-90.1951491
122,Haroleans Street,70123,29.9347968,-90.1967761
116,Magnolia Boulevard,70123,29.9339073,-90.1956123
6743,Riverside Drive,70123,29.9324987,-90.1952226
6708,West Magnolia Boulevard,70123,29.9336524,-90.1941156
76,Crislaur Avenue,70123,29.9358815,-90.1929071
150,Haroleans Street,70123,29.9354139,-90.1968232
81,Bailey Street,70123,29.9352313,-90.1940793
101,Bailey Street,70123,29.9358290,-90.1943405
6709,Riverside Drive,70123,29.9333927,-90.1940116
76,Bailey Street,70123,29.9349353,-90.1945696
133,Magnolia Boulevard,70123,29.9348974,-90.1951682
52,Bailey Street,70123,29.9344439,-90.1941460
58,Bailey Street,70123,29.9345561,-90.1942916
6721,Riverside Drive,70123,29.9330705,-90.1944402
126,Bailey Street,70123,29.9358226,-90.1949868
82,Ren Pass Avenue,70123,29.9356457,-90.1937778
132,Magnolia Boulevard,70123,29.9345415,-90.1957008
173,Haroleans Street,70123,29.9358623,-90.1964525
69,Crislaur Avenue,70123,29.9357655,-90.1921861
59,Ren Pass Avenue,70123,29.9354269,-90.1930312
26,Crislaur Avenue,70123,29.9351007,-90.1923194
48,Ren Pass Avenue,70123,29.9350875,-90.1933351
18,Ren Pass Avenue,70123,29.9343967,-90.1927654
40,Ren Pass Avenue,70123,29.9349024,-90.1931702
121,Magnolia Boulevard,70123,29.9345406,-90.1951290
6721,West Magnolia Boulevard,70123,29.9336739,-90.1947892
93,Haroleans Street,70123,29.9341603,-90.1962037
108,Magnolia Boulevard,70123,29.9335497,-90.1954607
54,Haroleans Street,70123,29.9329584,-90.1965551
6751,West Magnolia Boulevard,70123,29.9327843,-90.1960639
6740,West Magnolia Boulevard,70123,29.9327950,-90.1953109
170,Haroleans Street,70123,29.9358288,-90.1969155
138,Haroleans Street,70123,29.9351376,-90.1968105
86,Haroleans Street,70123,29.9338486,-90.1966445
66,Haroleans Street,70123,29.9333393,-90.1965873
21,Ren Pass Avenue,70123,29.9347430,-90.1925237
6705,West Magnolia Boulevard,70123,29.9341050,-90.1942375
6717,West Magnolia Boulevard,70123,29.9338265,-90.1946584
105,Magnolia Boulevard,70123,29.9339478,-90.1948681
117,Magnolia Boulevard,70123,29.9343721,-90.1950240
110,Bailey Street,70123,29.9352784,-90.1946985
44,Crislaur Avenue,70123,29.9354321,-90.1925760
63,Ren Pass Avenue,70123,29.9355589,-90.1931562
49,Ren Pass Avenue,70123,29.9352229,-90.1929125
6729,Riverside Drive,70123,29.9328512,-90.1947195
6717,Riverside Drive,70123,29.9331832,-90.1942936
6732,West Magnolia Boulevard,70123,29.9330396,-90.1950139
6704,West Magnolia Boulevard,70123,29.9337712,-90.1939852
3,Ren Pass Avenue,70123,29.9345369,-90.1923562
105,Bailey Street,70123,29.9358837,-90.1944966
60,Ren Pass Avenue,70123,29.9352217,-90.1934483
63,Pecan Avenue,70123,29.9350578,-90.1937094
6686,Favalora Street,70123,29.9354529,-90.1943232
122,Bailey Street,70123,29.9357125,-90.1949053
46,Haroleans Street,70123,29.9327915,-90.1965668
6801,Riverside Drive,70123,29.9317108,-90.1964104
100,Haroleans Street,70123,29.9344094,-90.1966988
128,Magnolia Boulevard,70123,29.9343578,-90.1956842
112,Magnolia Boulevard,70123,29.9337260,-90.1955798
6735,West Magnolia Boulevard,70123,29.9332436,-90.1954188
80,Haroleans Street,70123,29.9337139,-90.1966154
6715,Riverside Drive,70123,29.9333083,-90.1941587
34,Ren Pass Avenue,70123,29.9347794,-90.1931305
20,Ren Pass Avenue,70123,29.9344923,-90.1928598
31,Pecan Avenue,70123,29.9344722,-90.1932300
137,Magnolia Boulevard,70123,29.9350637,-90.1952773
149,Magnolia Boulevard,70123,29.9358098,-90.1955128
6763,Riverside Drive,70123,29.9319541,-90.1959827
6751,Riverside Drive,70123,29.9322931,-90.1955007
6744,West Magnolia Boulevard,70123,29.9327053,-90.1954454
6756,West Magnolia Boulevard,70123,29.9323720,-90.1958791
59,Haroleans Street,70123,29.9332504,-90.1960529
6743,West Magnolia Boulevard,70123,29.9330430,-90.1957425
132,Haroleans Street,70123,29.9350089,-90.1968734
6724,West Magnolia Boulevard,70123,29.9332158,-90.1947620
6720,West Magnolia Boulevard,70123,29.9333617,-90.1945752
6725,Riverside Drive,70123,29.9329688,-90.1945900
6733,Riverside Drive,70123,29.9327442,-90.1949555
100,Bailey Street,70123,29.9351376,-90.1945861
101,Haroleans Street,70123,29.9343684,-90.1962527
136,Magnolia Boulevard,70123,29.9347140,-90.1957853
112,Haroleans Street,70123,29.9345412,-90.1967416
114,Bailey Street,70123,29.9354467,-90.1947838
118,Bailey Street,70123,29.9355940,-90.1948486
90,Ren Pass Avenue,70123,29.9357760,-90.1938939
6684,Favalora Street,70123,29.9355698,-90.1941142
75,Bailey Street,70123,29.9351176,-90.1940248
74,Ren Pass Avenue,70123,29.9354241,-90.1935854
6701,Riverside Drive,70123,29.9336437,-90.1936747
6700,West Magnolia Boulevard,70123,29.9338812,-90.1938120
6705,Riverside Drive,70123,29.9334984,-90.1938445
6716,West Magnolia Boulevard,70123,29.9334616,-90.1944246
56,Haroleans Street,70123,29.9331367,-90.1965841
6817,Riverside Drive,70123,29.9313720,-90.1968381
6739,West Magnolia Boulevard,70123,29.9331373,-90.1955535
6747,West Magnolia Boulevard,70123,29.9329261,-90.1958791
53,Haroleans Street,70123,29.9330522,-90.1960598
6760,West Magnolia Boulevard,70123,29.9322879,-90.1960472
6752,West Magnolia Boulevard,70123,29.9324794,-90.1957345
6748,West Magnolia Boulevard,70123,29.9326010,-90.1955987
174,Magnolia Boulevard,70123,29.9356743,-90.1960371
146,Haroleans Street,70123,29.9352814,-90.1968589
156,Haroleans Street,70123,29.9355462,-90.1968399
164,Haroleans Street,70123,29.9356840,-90.1968923
92,Haroleans Street,70123,29.9339933,-90.1966503
76,Haroleans Street,70123,29.9335744,-90.1966158
70,Haroleans Street,70123,29.9334756,-90.1966233
98,Haroleans Street,70123,29.9341261,-90.1966926
71,Haroleans Street,70123,29.9335837,-90.1961395
65,Haroleans Street,70123,29.9334064,-90.1960966
104,Magnolia Boulevard,70123,29.9333770,-90.1953262
120,Magnolia Boulevard,70123,29.9341284,-90.1956622
16,Haroleans Street,70123,29.9319578,-90.1964128
147,Magnolia Boulevard,70123,29.9357071,-90.1954250
4,Oak Avenue,70123,29.9358699,-90.1904830
31,Crislaur Avenue,70123,29.9353872,-90.1919860
19,Crislaur Avenue,70123,29.9352157,-90.1919598
6437,Riverside Drive,70123,29.9349678,-90.1917596
6712,West Magnolia Boulevard,70123,29.9335814,-90.1942957
4,Crislaur Avenue,70123,29.9347499,-90.1920282
6747,Riverside Drive,70123,29.9324182,-90.1953735
6755,Riverside Drive,70123,29.9321885,-90.1956495
6759,Riverside Drive,70123,29.9320905,-90.1958167
19,Ren Pass Avenue,70123,29.9346289,-90.1924540
35,Crislaur Avenue,70123,29.9355559,-90.1920845
33,Ren Pass Avenue,70123,29.9349815,-90.1927398
41,Ren Pass Avenue,70123,29.9350621,-90.1928169
81,Ren Pass Avenue,70123,29.9357416,-90.1933699
85,Ren Pass Avenue,70123,29.9358741,-90.1934348
72,Crislaur Avenue,70123,29.9357387,-90.1928165
40,Crislaur Avenue,70123,29.9352870,-90.1924757
30,Crislaur Avenue,70123,29.9352154,-90.1923942
20,Crislaur Avenue,70123,29.9350212,-90.1922209
44,Ren Pass Avenue,70123,29.9349957,-90.1932068
1,Bailey Street,70123,29.9338746,-90.1932939
2,Ren Pass Avenue,70123,29.9342519,-90.1926816
24,Ren Pass Avenue,70123,29.9346174,-90.1929067
26,Ren Pass Avenue,70123,29.9347192,-90.1929952
29,Ren Pass Avenue,70123,29.9348789,-90.1926491
113,Magnolia Boulevard,70123,29.9342271,-90.1949914
109,Magnolia Boulevard,70123,29.9341555,-90.1948742
101,Magnolia Boulevard,70123,29.9336239,-90.1949475
6713,West Magnolia Boulevard,70123,29.9339061,-90.1945193
6709,West Magnolia Boulevard,70123,29.9340316,-90.1943801
6701,West Magnolia Boulevard,70123,29.9342629,-90.1940644
64,Bailey Street,70123,29.9346328,-90.1944336
6736,West Magnolia Boulevard,70123,29.9329218,-90.1951643
38,Haroleans Street,70123,29.9326113,-90.1965646
15,Pecan Avenue,70123,29.9343050,-90.1931256
7373,Jefferson Highway,70123,29.9377159,-90.2025332
