House number,Street name,Postal code,Latitude,Longitude
200,Polydras Street,70130,29.9490288,-90.0659316
200,Polydras Street,70130,29.9497429,-90.0659476
2600,Royal Street,70117,29.9646516,-90.0512594
4938,Prytania Street,70115,29.9244900,-90.1087764
5535,Magazine Street,70115,29.9212893,-90.1169407
3236,Magazine Street,70115,29.9234775,-90.0873491
741,State Street,70118,29.9220329,-90.1214102
3121,Magazine Street,70115,29.9243529,-90.0860432
3637,Magazine Street,70115,29.9218990,-90.0927089
4308,Magazine Street,70115,29.9207488,-90.1006745
5908,Magazine Street,70115,29.9216971,-90.1201416
2803,Saint Claude Avenue,70117,29.9687794,-90.0480415
1500,South Carrollton Avenue,70118,29.9496344,-90.1275583
5212,South Claiborne Avenue,70115,29.9409231,-90.1094331
1241,Decatur Street,70116,29.9614657,-90.0587522
3201,Magazine Street,70115,29.9240397,-90.0866108
5339,Prytania Street,70115,29.9251837,-90.1131641
1201,Royal Street,70116,29.9621278,-90.0611761
8115,South Claiborne Avenue,70118,29.9571214,-90.1205407
1426,South Carrollton Avenue,70118,29.9493842,-90.1279315
2032,South Carrollton Avenue,70118,29.9538152,-90.1236845
6227,Saint Charles Avenue,70118,29.9331463,-90.1201636
5617,Saint Claude Avenue,70117,29.9613124,-90.0151165
5834,Elysian Fields Avenue,70122,30.0188131,-90.0611827
720,Henry Clay Avenue,70118,29.9229105,-90.1249538
600,Eleonore Street,70115,29.9202050,-90.1206290
5624,Freret Street,70115,29.9352057,-90.1142443
1901,Bartholomew Street,70117,29.9741623,-90.0325907
9701,Hammond Street,70127,30.0233989,-89.9723864
2644,Saint Claude Avenue,70117,29.9672200,-90.0439900
130,Baronne Street,70112,29.9535515,-90.0715753
400,North Rampart Street,70112,29.9581522,-90.0702224
3722,Saint Charles Avenue,70115,29.9266900,-90.0952445
2401,General Meyer Avenue,70114,29.9439190,-90.0323302
1421,General Taylor Street,70115,29.9260131,-90.0959335
14500,Hayne Boulevard,70128,30.0713670,-89.9478253
1430,Tulane Avenue,70112,29.9552192,-90.0767349
2000,Louisiana Avenue,70115-9998,29.9321715,-90.0939027
2401,General Meyer Avenue,70114,29.9440510,-90.0322841
2510,Calhoun Street,70118,29.9401810,-90.1172101
7887,Walmsley Avenue,70125,29.9573606,-90.1151349
2500,General de Gaulle Drive,70114,29.9300822,-90.0318841
533,Royal Street,70130,29.9570240,-90.0657455
622,Frenchmen Street,70116,29.9640517,-90.0579014
3530,Toulouse Street,70119,29.9744395,-90.0923483
626,Frenchmen Street,70119,29.9641347,-90.0579159
4838,Prytania Street,70115,29.9244036,-90.1073966
3117,Calhoun Street,70125,29.9467139,-90.1131181
4437,Magazine Street,70115,29.9207974,-90.1026025
718,Saint Peter Street,70116,29.9580935,-90.0654893
6307,South Miro Street,70125,29.9469529,-90.1138185
3322,Magazine Street,70115,29.9230822,-90.0882302
3244,Magazine St,70115,29.9233626,-90.0875937
3454,Magazine Street,70115,29.9223421,-90.0902790
3700,Magazine Street,70115,29.9215244,-90.0933377
2401,Saint Ann Street,70119,29.9691656,-90.0789295
2301,Orleans Ave,70119,29.9680597,-90.0784985
3800,Canal St,70119,29.9724035,-90.0979125
3903,Canal Street,70119,29.9734496,-90.0984785
4408,Banks Street,70119,29.9743189,-90.1068522
310,N Carrollton Ave,70119,29.9761115,-90.0982532
4401,Banks Street,70119,29.9744821,-90.1064478
3701,Banks St,70119,29.9695738,-90.0991644
3901,Banks St,70119,29.9701170,-90.0999885
141,N Carrollton Avenue,70119,29.9754493,-90.0999498
135,N Carrollton Ave,70119,29.9753728,-90.1000375
900,Canal Street,70112,29.9542901,-90.0712436
2727,Canal Street,70119,29.9663346,-90.0878548
1009,Harrison Avenue,70124,30.0038576,-90.0969693
2841,S Claiborne Ave,70125,29.9426659,-90.0956906
2856,South Claiborne Avenue,70125,29.9415782,-90.0952910
2600,North Robertson Street,70117,29.9726342,-90.0488162
2256,Saint Claude Avenue,70117,29.9685425,-90.0549612
1135,Press,70117,29.9689038,-90.0465042
1120,Franklin Avenue,70117,29.9697576,-90.0503049
2801,Marais,70117,29.9695508,-90.0476709
402,N Carrollton Avenue,70119,29.9768471,-90.0977317
630,Frenchmen Street,70116,29.9642599,-90.0579251
1239,Royal Street,70116,29.9627372,-90.0606005
1555,Poydras Street,70112,29.9524718,-90.0794855
3535,Magazine Street,70115,29.9223205,-90.0915140
5300,Tchoupitoulas Street,70115,29.9160227,-90.1142848
5300,Tchoupitoulas Street,70115,29.9160445,-90.1146896
701,Tchoupitoulas Street,70130,29.9463991,-90.0675098
746,Tchoupitoulas St,70130,29.9450878,-90.0672689
701,Baronne Street,70113,29.9477232,-90.0741703
2000,Gentilly Boulevard,70119,29.9893338,-90.0723563
547,Saint Ann Street,70116,29.9582607,-90.0629567
2917,Magazine Street,70115,29.9253618,-90.0842634
2917,Magazine St,70115,29.9256110,-90.0842966
3001,Magazine Street,70115,29.9250643,-90.0848267
3101,Magazine Street,70115,29.9245809,-90.0856327
2604,Magazine Street,70130,29.9269571,-90.0808843
740,Burgundy Street,70116,29.9606289,-90.0666704
5030,Freret Street,70115,29.9348269,-90.1091110
8112,Oak Street,70118,29.9475307,-90.1301444
5831,Magazine,70115,29.9217830,-90.1195568
6033,Magazine Street,70118,29.9225996,-90.1223712
6100,Magazine Street,70118,29.9226458,-90.1236287
5637,Magazine Street,70115,29.9214152,-90.1178636
5631,Magazine Street,70115,29.9214328,-90.1177428
6000,Magazine Street,70118,29.9221078,-90.1216986
6010,Magazine Street,70118,29.9221852,-90.1219728
4645,Freret Street,70115,29.9353739,-90.1061849
5300,Freret Street,70115,29.9349699,-90.1104907
5109,Freret Street,70115,29.9351127,-90.1097015
5104,Freret Street,70115,29.9348854,-90.1095807
4632,Freret Street,70115,29.9348256,-90.1061742
4500,Freret Street,70115,29.9350521,-90.1043494
5000,Freret Street,70115,29.9348048,-90.1085494
4520,Freret Street,70115,29.9350190,-90.1047902
4929,Freret Street,70115,29.9350695,-90.1082847
4600,Freret Street,70115,29.9347635,-90.1056792
4400,Banks Street,70119,29.9742224,-90.1067119
621,Canal Street,70130,29.9530732,-90.0684048
5039,Freret Street,70115,29.9350887,-90.1091580
4510,Freret Street,70115,29.9350364,-90.1045820
4924,Prytania Street,70115,29.9244646,-90.1085208
4910,Prytania St,70115,29.9244460,-90.1082338
1227,Tulane Avenue,70112,29.9550205,-90.0751801
225,North Peters Street,70130,29.9529067,-90.0654242
321,North Peters Street,70130,29.9536814,-90.0651012
401,Iberville Street,70130,29.9525123,-90.0657519
237,North Peters Street,70130,29.9531558,-90.0653073
501,Decatur Street,70130,29.9554237,-90.0641455
323,Chartres Street,70130,29.9547411,-90.0663972
311,Bourbon Street,70130,29.9558844,-90.0684985
1510,South Carrollton Avenue,70118,29.9498334,-90.1274827
1332,South Carrollton Avenue,70118,29.9486551,-90.1286229
1340,South Carrollton Avenue,70118,29.9487342,-90.1284993
2423,South Carrollton Avenue,70119,29.9562476,-90.1196292
4525,North Claiborne Avenue,70117,29.9695994,-90.0283812
5825,Fontainebleau Drive,70125,29.9515591,-90.1096996
1116,Felicity Street,70130,29.9324059,-90.0736230
322,Royal Street,70130,29.9552478,-90.0671103
3025,Elysian Fields Avenue,70122-3626,29.9895450,-90.0578603
4035,Washington Avenue,70125,29.9516475,-90.1006960
1022,Lowerline Street,70118,29.9420120,-90.1255498
1603,Second Street,70115,29.9326990,-90.0835273
800,Louisa Street,70117,29.9641496,-90.0434687
1430,North Dorgenois Street,70119,29.9759023,-90.0758603
2526,Saint Bernard Avenue,70119,29.9821794,-90.0713502
1781,North Dorgenois Street,70119,29.9815429,-90.0713180
3161,Gentilly Boulevard,70122,29.9996215,-90.0596779
139,South Cortez Street,70119,29.9717488,-90.0984706
132,Carondelet Street,70130,29.9530203,-90.0705382
241,Royal Street,70130,29.9548664,-90.0677004
7601,Maple Street,70118,29.9413610,-90.1287363
4505,Magazine Street,70115,29.9383189,-90.0684954
201,"Saint Charles Avenue, Suite 114-351",70170,29.9517088,-90.0701963
300,Julia Street,70130,29.9443358,-90.0661335
511,Saint Louis Street,70130,29.9555230,-90.0645270
440,South St Patrick Street,70118,29.9752574,-90.1097849
201,Saint Charles Avenue,70170,29.9519653,-90.0702272
1818,Magazine Street,70130,29.9315830,-90.0737094
2239,Piety Street,70117,29.9792366,-90.0377493
231,Dauphine Street,70112,29.9559513,-90.0696771
639,Loyola Avenue,70113,29.9489216,-90.0767542
2727,Prytania Street,70115,29.9302262,-90.0850470
724,Dublin Street,70118,29.9451154,-90.1340775
8124,Hampson Street,70118,29.9442332,-90.1340981
1940,Dante Street,70118,29.9544101,-90.1257242
6757,Avenue A,70124,30.0152842,-90.1157274
1522,Robert E Lee Boulevard,70122,30.0207740,-90.0767277
5240,Elysian Fields Avenue,70122,30.0121571,-90.0606477
231,North Carrollton Avenue,70119,29.9759052,-90.0996772
3701,Iberville Street,70119,29.9730324,-90.0959731
3502,South Carrollton Avenue,70118,29.9649103,-90.1120747
8115,Oak Street,70118,29.9477433,-90.1301040
8117,Oak Street,70118,29.9477778,-90.1301571
8119,Oak Street,70118,29.9478179,-90.1301971
8123,Oak Street,70118,29.9478973,-90.1302971
8201,Oak Street,70118,29.9482436,-90.1307047
1200,South Carrollton Avenue,70118,29.9475499,-90.1297596
8227,Oak Street,70118,29.9485953,-90.1311945
8228,Oak Street,70118,29.9483937,-90.1312464
8239,Oak Street,70118,29.9487451,-90.1313523
8316,Oak Street,70118,29.9489912,-90.1319900
8338,Oak Street,70118,29.9492553,-90.1323064
7701,Hampson Street,70115,29.9413035,-90.1301901
7507,Maple Street,70118,29.9408105,-90.1280431
1133,South Carrollton Avenue,70118,29.9469414,-90.1296506
7800,Earhart Boulevard,70125,29.9595335,-90.1124042
3900,Howard Avenue,70125,29.9576906,-90.0949318
6233,South Claiborne Avenue,70125,29.9460989,-90.1134759
6078,Laurel Street,70118,29.9199252,-90.1244994
6047,Magazine Street,70118,29.9227640,-90.1225474
4401,South Broad Street,70125,29.9491245,-90.1043531
5007,Freret Street,70115,29.9351985,-90.1052252
4700,Freret Street,70115,29.9349104,-90.1066004
4714,Freret Street,70115,29.9348892,-90.1067884
4719,Freret Street,70115,29.9350508,-90.1070130
4916,Freret Street,70115,29.9348610,-90.1077293
4423,La Salle Street,70115,29.9343814,-90.1037451
4508,Freret Street,70115,29.9350546,-90.1044800
5007,Freret Street,70115,29.9350683,-90.1087653
5035,Freret Street,70115,29.9350636,-90.1089752
5100,Freret Street,70115,29.9348013,-90.1094643
5221,South Front Street,70115,29.9159633,-90.1117405
5240,Annunciation Street,70115,29.9174602,-90.1123715
5383,Tchoupitoulas Street,70115,29.9165700,-90.1155794
4841,Tchoupitoulas Street,70115,29.9168445,-90.1069893
4842,Tchoupitoulas Street,70115,29.9165312,-90.1069863
5415,Magazine Street,70115,29.9210395,-90.1154526
5508,Magazine Street,70115,29.9209853,-90.1163983
5518,Magazine Street,70115,29.9210309,-90.1165934
5720,Magazine Street,70115,29.9214001,-90.1185478
5835,Magazine Street,70115,29.9218028,-90.1197394
5924,Magazine Street,70115,29.9217611,-90.1204788
5961,Magazine Street,70118,29.9222349,-90.1212714
900,Jefferson Avenue,70115,29.9209913,-90.1151751
5004,Prytania Street,70115,29.9245113,-90.1091024
4520,Magazine Street,70115,29.9205135,-90.1033217
4877,Laurel Street,70115,29.9183368,-90.1079842
4128,Magazine Street,70115,29.9208774,-90.0987907
4218,Magazine Street,70115,29.9208255,-90.0996364
4609,Magazine Street,70115,29.9207143,-90.1041853
4125,Magazine Street,70115,29.9211237,-90.0987314
4139,Magazine Street,70115,29.9211300,-90.0988923
4201,Magazine Street,70115,29.9211009,-90.0992329
3300,Magazine Street,70115,29.9232662,-90.0878339
701,6th Street,70115,29.9220999,-90.0812360
1838,Napoleon Avenue,70115,29.9293578,-90.1026102
625,Celeste Street,70130,29.9283827,-90.0685370
800,magazine street,70130,29.9451888,-90.0691411
800,Tchoupitoulas Street,70130,29.9446386,-90.0673486
857,Fulton Street,70130,29.9435687,-90.0654263
1152,Camp Street,70130,29.9400187,-90.0719355
1179,Annunciation Street,70130,29.9388699,-90.0686328
308,South Diamond Street,70130,29.9422842,-90.0661160
1901,Tchoupitoulas Street,70130,29.9248700,-90.0693073
506,Rousseau Street,70130,29.9262967,-90.0703890
2030,Constance Street,70130,29.9298760,-90.0741196
3000,Magazine Street,70115,29.9247142,-90.0847521
3100,Magazine Street,70115,29.9243764,-90.0855042
3128,Magazine Street,70115,29.9240766,-90.0860308
3218,Magazine Street,70115,29.9236258,-90.0868512
3222,Magazine Street,70115,29.9235853,-90.0869447
3226,Magazine Street,70115,29.9235405,-90.0870980
3242,Magazine Street,70115,29.9233658,-90.0874941
4238,South Claiborne Avenue,70115,29.9399486,-90.1018639
2240,Magazine Street,70130,29.9289598,-90.0775557
2207,Magazine Street,70130,29.9295319,-90.0771099
2209,Magazine Street,70130,29.9294981,-90.0771649
2533,Constance Street,70130,29.9264226,-90.0801554
2800,Magazine Street,70115,29.9260210,-90.0825129
2801,Magazine Street,70115,29.9261890,-90.0828052
2801,Magazine Street,70115,29.9261567,-90.0829088
2029,Magazine Street,70130,29.9306870,-90.0753431
3830,Euphrosine Street,70125,29.9551779,-90.0947188
111,Tchoupitoulas Street,70130,29.9507891,-90.0664033
124,Baronne Street,70112,29.9537874,-90.0713891
333,Poydras Street,70130,29.9489511,-90.0661965
343,Carondelet Street,70130,29.9509488,-90.0716690
527,Julia Street,70130,29.9456135,-90.0698332
535,Julia Street,70130,29.9456804,-90.0701721
537,Gravier Street,70130,29.9509837,-90.0685803
630,Carondelet Street,70130,29.9478989,-90.0723094
644,Camp Street,70130,29.9471189,-90.0698567
700,Canal Street,70130,29.9530497,-90.0694014
725-727,South Peters Street,70130,29.9455618,-90.0659729
818,Howard Avenue,70113,29.9441902,-90.0741992
1717,Saint Charles Avenue,70130,29.9373014,-90.0771038
1720,Saint Charles Avenue,70130,29.9371195,-90.0766663
533,Bolivar Street,70012,29.9559611,-90.0834337
2828,Canal Street,70119,29.9667519,-90.0895866
500,Saint Peter Street,70116,29.9567364,-90.0630421
535,Decatur Street,70130,29.9558510,-90.0638084
601,Decatur Street,70130,29.9560518,-90.0635816
611,Decatur Street,70130,29.9562047,-90.0634451
619,Decatur Street,70130,29.9565842,-90.0633521
712,Royal Street,70116,29.9582172,-90.0644740
800,Decatur Street,70116,29.9575610,-90.0618544
714,Saint Peter Street,70130,29.9581522,-90.0651550
730,Orleans Avenue,70116,29.9587608,-90.0650636
738,Toulouse Street,70130,29.9576389,-90.0662611
738,Toulouse Street,70130,29.9576548,-90.0662896
733,Bourbon Street,70117,29.9592916,-90.0651380
740,North Rampart Street,70116,29.9611949,-90.0675677
1845,Gentilly Boulevard,70119,29.9863943,-90.0763850
2565,Bayou Road,70119,29.9772754,-90.0768344
9701,Chef Menteur Highway,70127,30.0187611,-89.9723150
1515,Poydras Street,70112,29.9522255,-90.0783269
1515,Poydras Street,70112,29.9522822,-90.0783082
1515,Poydras Street,70112,29.9523429,-90.0782872
323,Verret Street,70114,29.9526602,-90.0511972
541,Bermuda Street,70114,29.9507840,-90.0512547
3008,Holiday Drive,70131,29.9235993,-90.0118608
3018,Holiday Drive,70131,29.9230555,-90.0118904
3101,Eton Street,70131,29.9210790,-89.9989120
1104,Decatur Street,70116,29.9600072,-90.0596392
3040,Ridgeway Boulevard,70129,30.1327302,-89.8669754
3046,Ridgeway Boulevard,70129,30.1329494,-89.8668523
300,North Broad Street,70119,29.9674912,-90.0846085
300,North Broad Street,70119,29.9671800,-90.0844933
112,Royal Street,70130,29.9535102,-90.0686550
201,Royal Street,70130,29.9543264,-90.0682024
206,Bourbon Street,70130,29.9548312,-90.0689395
217,Chartres Street,70130,29.9538561,-90.0671739
219,Dauphine Street,70112,29.9557797,-90.0697771
240,Bourbon Street,70112,29.9553574,-90.0684677
317,Burgundy Street,70112,29.9571757,-90.0699105
403,Royal Street,70112,29.9559289,-90.0669925
408,North Peters Street,70130,29.9546889,-90.0642731
415,Decatur Street,70130,29.9547334,-90.0647797
416,Chartres Street,70130,29.9552815,-90.0654808
524,Saint Louis Street,70130,29.9554589,-90.0648430
534,Saint Louis Street,70130,29.9555874,-90.0650674
901,Iberville Street,70112,29.9554766,-90.0701041
2339,Royal Street,70117,29.9648320,-90.0542216
427,Esplanade Avenue,70116,29.9618129,-90.0572057
514,Frenchmen Street,70116,29.9629290,-90.0578571
1243,Frenchmen Street,70116,29.9704068,-90.0582010
1021,Marigny Street,70117,29.9681429,-90.0553655
2222,Saint Claude Avenue,70117,29.9683566,-90.0560904
2040,"2036 Caffin Ave, New Orleans, LA 70117, United States",70117,29.9713781,-90.0128460
3624,Dauphine Street,70117,29.9629993,-90.0391207
612,Piety Street,70117,29.9623559,-90.0431851
4037,Saint Claude Avenue,70117,29.9657723,-90.0344274
2000,Lakeshore Drive,70148,30.0290509,-90.0650149
901,Convention Center Boulevard,70130,29.9420116,-90.0649885
500,Port of New Orleans Place,70130,29.9448828,-90.0622886
901,Convention Center Boulevard,70130,29.9420983,-90.0653910
4702,Paris Avenue,70122,30.0059700,-90.0745023
2372 #130,Saint Claude Avenue,70117,29.9687193,-90.0522245
2483,Royal Street,70117,29.9649515,-90.0519147
3301,Chartres Street,70117,29.9619826,-90.0429912
617,Piety Street,70117,29.9624264,-90.0428774
527,Decatur Street,70130,29.9557185,-90.0639242
529,St Ann Street,70116,29.9579461,-90.0625205
510,Saint Louis Street,70130,29.9552563,-90.0646088
227,Dauphine Street,70112,29.9559271,-90.0696983
833,Canal Street,70112,29.9544663,-90.0704117
925,Camp Street,70130,29.9435723,-90.0713431
4801,Tchoupitoulas Street,70115,29.9169040,-90.1058903
631,Montegut Street,70117,29.9636275,-90.0472445
1001,Loyola Avenue,70113,29.9461593,-90.0785093
1333,Webster Street,70118,29.9277880,-90.1208899
2368,Magazine Street,70130,29.9280109,-90.0790617
3122,Magazine Street,70115,29.9241445,-90.0859271
3336,Magazine Street,70115,29.9230152,-90.0885264
3511,Magazine Street,70115,29.9225400,-90.0911203
3607,Magazine Street,70115,29.9222129,-90.0919173
3814,Magazine Street,70115,29.9212374,-90.0945141
4041,Magazine Street,70115,29.9212092,-90.0978265
4113,Magazine Street,70115,29.9211571,-90.0984482
4126,Magazine Street,70115,29.9209132,-90.0986106
4200,Magazine Street,70115,29.9208468,-90.0992231
4213,Magazine Street,70115,29.9210738,-90.0995490
4238,Magazine Street,70115,29.9208027,-90.1001089
4332,Magazine Street,70115,29.9207377,-90.1011334
4416,Magazine Street,70115,29.9206466,-90.1021227
4518,Magazine Street,70115,29.9205101,-90.1032238
4600,Magazine Street,70115,29.9204677,-90.1039516
4729,Magazine Street,70115,29.9206124,-90.1058240
4801,Magazine Street,70115,29.9205444,-90.1062274
4807,Magazine Street,70115,29.9205822,-90.1063605
4933,Magazine Street,70115,29.9204553,-90.1088471
5101,Magazine Street,70115,29.9204823,-90.1101949
5432,Magazine Street,70115,29.9208853,-90.1158809
737,Octavia Street,70115,29.9207303,-90.1160440
5538,Magazine Street,70115,29.9210889,-90.1169876
5757,Magazine Street,70115,29.9216133,-90.1185859
802,Nashville Avenue,70115,29.9217327,-90.1191039
5938,Magazine Street,70115,29.9217962,-90.1206119
6101,Magazine Street,70118,29.9229325,-90.1234143
6106,Magazine Street,70118,29.9227568,-90.1236910
504,Third Street,70130,29.9216561,-90.0764562
4501,Tchoupitoulas Street,70115,29.9171853,-90.1024521
4529,Tchoupitoulas Street,70115,29.9170862,-90.1031605
530,Lyons Street,70115,29.9173639,-90.1070345
5236,Tchoupitoulas Street,70115,29.9163860,-90.1121897
123,North Dorgenois Street,70119,29.9652772,-90.0856724
1100,Poydras Street,70163,29.9498964,-90.0754888
1037,Broadway Street,70118,29.9411898,-90.1235487
424,Girod Street,70130,29.9465764,-90.0683647
809,Royal Street,70116,29.9590702,-90.0637911
732,Saint Louis Street,70130,29.9568065,-90.0668477
444,Canal Street,70130,29.9516353,-90.0672553
503,Bourbon Street,70130,29.9571646,-90.0670477
225,French Street,70124,30.0039384,-90.1130289
2801,Magazine Street,70115,29.9262594,-90.0827287
4141,Saint Charles Avenue,70115,29.9268449,-90.0995056
10709,Chef Menteur Highway,70127,30.0208393,-89.9608313
7720,Masefield Street,70126,30.0328541,-90.0172485
6600,Franklin Avenue,70122,30.0278311,-90.0545674
7211,Regent Street #C,70124,30.0204109,-90.1151543
4414,Werner Drive,70126,30.0149770,-89.9933050
1500,Magazine Street,70130,29.9342888,-90.0723801
8000,Unity Dr,70128,30.0416928,-89.9802582
2563,Bayou Road,70119,29.9772153,-90.0768069
425A,Decatur Street,70130,29.9548993,-90.0646339
425,Decatur Street,70130,29.9549345,-90.0646103
111,North Peters Street,70130,29.9535682,-90.0651215
541,Decatur Street,70130,29.9559440,-90.0637005
533,Decatur Street,70130,29.9558202,-90.0638373
400,North Peters Street,70130,29.9545964,-90.0643144
613,Decatur Street,70130,29.9562128,-90.0634370
631,Decatur Street,70130,29.9565845,-90.0630961
600,Decatur Street,70130,29.9556718,-90.0631003
528,Saint Peter Street,70116,29.9570317,-90.0634831
536,Saint Peter Street,70116,29.9571260,-90.0636228
542,Saint Peter Street,70116,29.9572215,-90.0637574
518,Saint Peter Street,70116,29.9569023,-90.0632657
532,Saint Peter Street,70116,29.9570822,-90.0635514
523,Saint Ann Street,70116,29.9579510,-90.0624908
400,Esplanade Avenue,70116,29.9614302,-90.0577754
618,Chartres Street,70130,29.9569039,-90.0642120
730,Bourbon Street,70116,29.9591115,-90.0651058
730,Bourbon Street,70116,29.9590948,-90.0652870
1001,Toulouse Street,70112,29.9591326,-90.0681778
540,Burgundy Street,70112,29.9589389,-90.0681614
550,Fulton Street,70130,29.9474447,-90.0652114
575,Convention Center Boulevard,70130,29.9471559,-90.0649090
701,Convention Center Boulevard,70130,29.9456359,-90.0650863
600,Fulton Street,70130,29.9469792,-90.0651925
601,Convention Center Boulevard,70130,29.9469272,-90.0649158
859,Convention Center Boulevard,70130,29.9433717,-90.0648034
1831,Rousseau Street,70130,29.9278811,-90.0687938
1871,Rousseau Street,70130,29.9276531,-90.0690751
1801,Rousseau Street,70130,29.9280257,-90.0686159
1811,Rousseau Street,70130,29.9279765,-90.0686763
1821,Rousseau Street,70130,29.9279275,-90.0687366
1861,Rousseau Street,70130,29.9277379,-90.0689705
1881,Rousseau Street,70130,29.9275880,-90.0691554
1891,Rousseau Street,70130,29.9274234,-90.0693588
1526,Tchoupitoulas Street,70130,29.9324708,-90.0663223
1885,Rousseau Street,70130,29.9275039,-90.0692593
1380,Port of New Orleans Place,70130,29.9351774,-90.0615948
1841,Rousseau Street,70130,29.9278314,-90.0688551
500,Port of New Orleans Place,70130,29.9459018,-90.0622104
132,Royal Street,70130,29.9537528,-90.0684268
739,Iberville Street,70130,29.9546415,-90.0689550
813,Bienville Street,70112,29.9557409,-90.0686785
7910,Maple Street,70118,29.9432400,-90.1311076
2372,Saint Claude Avenue,70117,29.9686492,-90.0524517
2372,Saint Claude Avenue,70117,29.9684343,-90.0523659
4716,Freret Street,70115,29.9348680,-90.1068875
800,Harrison Avenue,70124,30.0041491,-90.1054904
2372,Saint Claude Avenue,70117,29.9682625,-90.0523776
2521,Jena Street,70115,29.9356438,-90.1041777
4204,Magazine Street,70115,29.9208700,-90.0992636
2905,Prytania Street,70115,29.9289483,-90.0867282
401,North Carrollton Avenue,70119,29.9775752,-90.0978289
406,North Carrollton Avenue,70119,29.9772534,-90.0972913
3014,Dauphine Street,70117,29.9646279,-90.0465397
739,Conti Street,70130,29.9562439,-90.0675989
841,Iberville Street,70112,29.9553258,-90.0699279
500,Port of New Orleans Place,70130,29.9459081,-90.0623131
500,Port of New Orleans Place,70130,29.9457674,-90.0624499
500,Port of New Orleans Place,70130,29.9456675,-90.0624331
500,Port of New Orleans Place,70130,29.9453782,-90.0623734
500,Port of New Orleans Place,70130,29.9450959,-90.0620738
500,Port of New Orleans Place,70130,29.9450120,-90.0623198
4301,Chef Menteur Highway,70126,30.0056040,-90.0379140
3157,Gentilly Boulevard,70122,29.9996886,-90.0601631
4839,Prytania Street,70115,29.9248628,-90.1075018
830,Conti Street,70130,29.9566005,-90.0684220
56,Dreyfous Drive,70124,29.9854336,-90.0951004
8201,Oak Street,70118,29.9482207,-90.1306800
308,Decatur Street,70130,29.9537915,-90.0653547
713,Saint Louis Street,70130,29.9567166,-90.0664811
307,Exchange Place,70130,29.9547704,-90.0670242
807,Howard Avenue,70113,29.9445336,-90.0737507
1241,Royal Street,70116,29.9627612,-90.0605793
918,Royal Street,70116,29.9599863,-90.0629058
1940,Dauphine Street,70116,29.9653607,-90.0590954
1515,Poydras Street,70112,29.9521956,-90.0784049
1000,Girod Street,70113,29.9481714,-90.0755371
709 1/2,Saint Ann Street,70116,29.9590572,-90.0641564
2800,Cleveland Avenue,70119,29.9652432,-90.0915308
602,North Cortez Street,70119,29.9764576,-90.0939264
4900,Freret Street,70115,29.9348292,-90.1073928
4938,Freret Street,70115,29.9348024,-90.1081391
5001,Freret Street,70115,29.9350697,-90.1085394
5001,Freret Street,70115,29.9350901,-90.1086071
5031,Freret Street,70115,29.9350853,-90.1088191
5335,Freret Street,70115,29.9352713,-90.1109690
701,South Peters Street,70130,29.9460429,-90.0660858
75,Neron Place,70118,29.9519015,-90.1170444
1645,Tchoupitoulas Street,70130,29.9296609,-90.0666427
1200,Carondelet Street,70103,29.9419108,-90.0750252
3216,Tulane Avenue,70119,29.9641917,-90.0966501
1140,Royal Street,70116,29.9618773,-90.0612083
934,Royal Street,70116,29.9602396,-90.0626571
700,Royal Street,70116,29.9580491,-90.0646330
627,Bourbon Street,70130,29.9583382,-90.0659899
1101,First Street,70130,29.9282463,-90.0792747
2844,Magazine Street,70115,29.9255340,-90.0834262
3312,Magazine Street,70115,29.9231740,-90.0880802
1036,Royal Street,70116,29.9611170,-90.0618652
750,Carondelet Street,70130,29.9463930,-90.0727096
1914,Magazine Street,70130,29.9312585,-90.0741244
3025,Magazine Street,70115,29.9247891,-90.0852379
236,North Carrollton Avenue,70119,29.9757995,-90.0988266
725,Magazine Street,70130,29.9463436,-90.0690823
625,Chartres Street,70130,29.9571741,-90.0641648
241,Bourbon Street,70130,29.9554841,-90.0686065
734,Bourbon Street,70116,29.9592482,-90.0649919
609,Bourbon Street,70130,29.9579797,-90.0663259
818,Chartres St,70112,29.9570074,-90.0684015
601,Poydras Street,70130,29.9498071,-90.0698664
732,North Rampart Street,70116,29.9610743,-90.0676743
135,Robert E. Lee Boulevard,70124,30.0205078,-90.1114534
626,North Rampart Street,70116,29.9600701,-90.0686001
4600,Freret Street,70115,29.9347333,-90.1057787
5041,Freret Street,70115,29.9350768,-90.1092331
2511,Jena Street,70115,29.9354321,-90.1041213
5010,Freret Street,70115,29.9348917,-90.1087266
615,City Park Avenue,70119,29.9854160,-90.1038087
4536,Dryades Street,70115,29.9292459,-90.1045852
4607,Dryades Street,70115,29.9293534,-90.1049647
3100,South Carrollton Avenue,70118,29.9614546,-90.1149579
4400,Bienville Street,70119,29.9785049,-90.1028963
3138,South Carrollton Avenue,70118,29.9618090,-90.1148882
3150,Calhoun Street,70125,29.9475037,-90.1131990
4930,Prytania Street,70115,29.9245100,-90.1085864
4920,Prytania Street,70115,29.9244969,-90.1083995
4903,Prytania Street,70115,29.9249109,-90.1083197
4901,Prytania Street,70115,29.9249049,-90.1081497
4909,Prytania Street,70115,29.9249299,-90.1085590
1410,Robert Street,70115,29.9249284,-90.1089710
2010,Peniston Street,70115,29.9312863,-90.0968793
3984,Tchoupitoulas Street,70115,29.9174225,-90.0962172
1300,Burdette Street,70118,29.9461658,-90.1265666
4226,Magazine Street,70115,29.9208482,-90.0998373
524,Jefferson Avenue,70115,29.9170850,-90.1164718
5300,Tchoupitoulas Street,70115,29.9160195,-90.1151326
5300,Tchoupitoulas Street,70115,29.9161168,-90.1127079
5300,Tchoupitoulas Street,70115,29.9162424,-90.1127091
5300,Tchoupitoulas Street,70115,29.9163555,-90.1127103
5601,Magazine Street,70115,29.9214895,-90.1173880
5601,Magazine Street,70115,29.9214837,-90.1172927
5168,Wildair Drive,70122,30.0106707,-90.0670483
2802,Magazine Street,70115,29.9259898,-90.0826561
4612,Magazine Street,70115,29.9204450,-90.1042370
318,North Alexander Street,70119,29.9789088,-90.1020261
515,Dumaine Street,70116,29.9586182,-90.0616572
2609,Saint Claude Avenue,70117-7248,29.9694684,-90.0496584
3300,Magazine Street,70115,29.9232745,-90.0877610
650,Poydras Street,70130,29.9492405,-90.0703150
4200,South Claiborne Avenue,70115,29.9400747,-90.1013504
641,Bourbon Street,70130,29.9585817,-90.0657855
514,City Park Avenue,70119,29.9831247,-90.1048617
5700,Crowder Boulevard,70127,30.0283017,-89.9943068
5741,Crowder Boulevard,70127,30.0281308,-89.9922166
9954,Lake Forest Boulevard,70127,30.0316508,-89.9735080
1615,Poydras Street,70112,29.9528584,-90.0799198
5,Victory Avenue,70124,29.9875800,-90.0968077
56,Dreyfous Drive,70119,29.9854267,-90.0951946
5,Victory Avenue,70119,29.9875572,-90.0970667
365,Canal Street,70130,29.9513868,-90.0646064
2375,Tchoupitoulas Street,70130,29.9220274,-90.0744527
1790,Saturn Boulevard,70129,30.0122796,-89.9306162
500,Poydras Stree,70130,29.9487611,-90.0690455
2100,St Charles Ave,70130,29.9342407,-90.0795030
7043,Canal Boulevard,70124-3454,30.0191180,-90.1055292
610,Carondelet Street,70130,29.9483821,-90.0720999
525,Frenchmen Street,70116,29.9633531,-90.0576369
354,Governor Nicholls Street,70116,29.9607058,-90.0594924
4712,Magazine Street,70115,29.9203718,-90.1054097
5600,Tchoupitoulas Street,70115,29.9160138,-90.1186344
1333,Esplanade Avenue,70116,29.9681167,-90.0663664
2400,Ridgeway Boulevard,70129,30.1213823,-89.8668712
2475,Ridgeway Boulevard,70129,30.1233085,-89.8670780
2672,Ridgeway Boulevard,70129,30.1252272,-89.8671194
2679,Ridgeway Boulevard,70129,30.1252533,-89.8667396
2761,Ridgeway Boulevard,70129,30.1271480,-89.8670266
2771,Ridgeway Boulevard,70129,30.1273067,-89.8670214
2781,Ridgeway Boulevard,70129,30.1279944,-89.8670406
2780,Ridgeway Boulevard,70129,30.1279729,-89.8674596
2792,Ridgeway Boulevard,70129,30.1281418,-89.8675007
2840,Ridgeway Boulevard,70129,30.1286424,-89.8677116
2849,Ridgeway Boulevard,70129,30.1288075,-89.8672248
2861,Ridgeway Boulevard,70129,30.1290925,-89.8671994
2906,Ridgeway Boulevard,70129,30.1300557,-89.8676546
2970,Ridgeway Boulevard,70129,30.1313704,-89.8674210
2978,Ridgeway Boulevard,70129,30.1315479,-89.8672972
2984,Ridgeway Boulevard,70129,30.1316765,-89.8672742
3000,Ridgeway Boulevard,70129,30.1318035,-89.8672352
3002,Ridgeway Boulevard,70129,30.1319826,-89.8672069
3012,Ridgeway Boulevard,70129,30.1321973,-89.8670578
3020,Ridgeway Boulevard,70129,30.1323667,-89.8670403
3030,Ridgeway Boulevard,70129,30.1325029,-89.8670392
3058,Ridgeway Boulevard,70129,30.1331775,-89.8667977
3068,Ridgeway Boulevard,70129,30.1333109,-89.8667641
3074,Ridgeway Boulevard,70129,30.1334443,-89.8667279
3080,Ridgeway Boulevard,70129,30.1336252,-89.8667078
3086,Ridgeway Boulevard,70129,30.1338804,-89.8666890
318,Baronne Street,70112,29.9518247,-90.0724188
1515,Poydras Street,70112,29.9524637,-90.0784305
403,Canal Street,70130,29.9513592,-90.0633176
10064 I-10,Service Rd,70127,30.0379487,-89.9725464
3203,Toulouse Street,70119,29.9733607,-90.0894198
4228,Magazine St,70115,29.9207971,-90.0999119
4400,General de Gaulle Drive,70131,29.9190865,-90.0105505
1840,Thalia Street,70113,29.9415443,-90.0784293
3100,College Court,70125,29.9564844,-90.1091472
424,Bourbon Street,70130,29.9567243,-90.0672287
6001,Magazine Street,70115,29.9222612,-90.1216710
2717,Monticello Avenue,70121,29.9670958,-90.1282012
3518,Monticello Avenue,70005,29.9750083,-90.1251006
2916,Monticello Avenue,70118,29.9687911,-90.1271016
2914,Monticello Avenue,70118,29.9687272,-90.1270234
1920,Hancock Street,70053,29.9354759,-90.0484774
405,Hancock Street,70053,29.9358513,-90.0492079
4513,Magazine Street,70115,29.9207003,-90.1057473
3,Westbank Expy,70114,29.9270743,-90.0383243
1465,North Broad Street,70119,29.9776459,-90.0773807
2000,Dumaine Street,70116,29.9673643,-90.0749079
217,Royal Street,70130,29.9545231,-90.0680640
3101,Saint Charles Avenue,70115,29.9295674,-90.0889640
8120,Hampson Street,70118,29.9441821,-90.1340356
8116,Hampson Street,70118,29.9441295,-90.1339681
734,South Carrollton Avenue,70118,29.9447274,-90.1332865
622,South Carrollton Avenue,70118,29.9436745,-90.1339371
714,South Carrollton Avenue,70118,29.9445049,-90.1335395
706,South Carrollton Avenue,70118,29.9443787,-90.1336707
700,South Carrollton Avenue,70118,29.9442617,-90.1337800
8123,Hampson Street,70118,29.9443570,-90.1339711
8040,Saint Charles Avenue,70118,29.9426082,-90.1340961
617,Dublin Street,70118,29.9441006,-90.1345710
7900,Maple Street,70118,29.9431901,-90.1313146
1940,Cambronne Street,70118,29.9550808,-90.1265353
601,Poydras Street,70130,29.9496706,-90.0699210
8110,Breakwater Drive,70124,30.0283646,-90.1164904
333,Julia Street,70130,29.9448422,-90.0667288
6001,Magazine St,70118,29.9222979,-90.1216884
4301,Chef Menteur Highway,70126,30.0052017,-90.0379539
4301,Chef Menteur Highway,70126,30.0059169,-90.0384166
400,Poydras Street,70130,29.9484257,-90.0678954
7816,Hayne Blvd,70126,30.0394607,-90.0049000
1500,Saint Philip Street,70116,29.9652378,-90.0697585
939,North Villere Street,70116,29.9651510,-90.0697793
2900,South Claiborne Avenue,70125-3934,29.9404543,-90.0955265
2900,South Claiborne Avenue,70115,29.9405921,-90.0952504
2900,South Claiborne Avenue,70125,29.9407280,-90.0949964
2900,South Claiborne Avenue,70115,29.9411715,-90.0941641
2851,South Claiborne Avenue,70125,29.9429890,-90.0953185
4242,Chef Menteur Highway,70126,30.0042013,-90.0385438
2500,Saint Claude Avenue,70117,29.9687959,-90.0508681
3718,Saint Claude Avenue,70131,29.9659447,-90.0376073
1927,Sophie Wright Place,70130,29.9315794,-90.0746612
632,Tchoupitoulas Street,70130,29.9468193,-90.0667297
3726,Saint Claude Avenue,70117,29.9659291,-90.0374976
3060,Saint Claude Avenue,70117,29.9674897,-90.0444571
1225,Saint Charles Avenue,70130,29.9408874,-90.0744292
1604,Oretha Castle Haley Boulevard,70113,29.9402471,-90.0796253
612,Andrew Higgins Boulevard,70130,29.9430102,-90.0714892
4233,Saint Claude Avenue,70117,29.9652538,-90.0325688
920,Poydras Street,70112,29.9500705,-90.0736924
2032,Esplanade Avenue,70116,29.9721196,-90.0728951
934,Montegut Street,70117,29.9666089,-90.0465264
4100,Saint Claude Avenue,70117,29.9652407,-90.0343769
2372,Saint Claude Avenue,70117,29.9682153,-90.0522924
1340,St Roch Avenue,70117,29.9717642,-90.0525800
3116,Saint Claude Avenue,70117,29.9673299,-90.0438032
6330,Saint Claude Avenue,70131,29.9586284,-90.0084545
935,North Villere Street,70116,29.9650863,-90.0698166
933,North Villere Street,70116,29.9650580,-90.0698432
925,North Villere Street,70116,29.9649658,-90.0700305
501,Basin Street,70112,29.9597177,-90.0707937
2901,Leon C. Simon Drive,70126,30.0310689,-90.0428015
5363,Tchoupitoulas Street,70115,29.9167226,-90.1150401
5361,Tchoupitoulas Street,70115,29.9167257,-90.1149629
3507,Tchoupitoulas Street,70115,29.9182233,-90.0894653
2801,Magazine Street,70115,29.9262260,-90.0827332
4610,Magazine Street,70115,29.9204582,-90.1041599
3947,Magazine Street,70115,29.9213021,-90.0963642
3914,Baronne Street,70115,29.9288358,-90.0972465
3918,Baronne Street,70115,29.9288317,-90.0973087
3939,Magazine Street,70115,29.9213344,-90.0961598
3645,Magazine Street,70115,29.9218885,-90.0929687
3070,Holiday Drive,70131,29.9210953,-90.0113986
1301,Saint Bernard Avenue,70116,29.9692797,-90.0633953
830,Conti Street,70130,29.9565222,-90.0685799
2,Canal Street,70130,29.9489614,-90.0635707
2708,General Pershing Street,70115,29.9375881,-90.1022286
3727,Macarthur Boulevard,70114,29.9243219,-90.0176964
1300,Vallette St,70114,29.9418968,-90.0491570
541,Julia Street,70130,29.9456920,-90.0702185
1700,Saint Charles Avenue,70130,29.9374053,-90.0763926
1029,Oretha Castle Haley Boulevard,70113,29.9448365,-90.0768438
125,Allen Toussaint Boulevard,70124,30.0209335,-90.1118267
900,Canal Street,70112,29.9543150,-90.0712797
400,Esplanade Avenue,70116,29.9615207,-90.0577044
3803,Toulouse Street,70119,29.9772026,-90.0942279
1600,Canal Street,70112,29.9582918,-90.0773126
4301,Burgundy Street,70117,29.9628225,-90.0330928
2701,State Street,70118,29.9423931,-90.1134116
1668,North Claiborne Avenue,70116,29.9727897,-90.0637862
1670,North Claiborne Avenue,70116,29.9727052,-90.0638111
1666,North Claiborne Avenue,70116,29.9727067,-90.0638805
1915,North Broad Street,70119,29.9840925,-90.0714674
223,North Peters Street,70130,29.9528273,-90.0654608
3443,South Carrollton Avenue,70118,29.9633554,-90.1119169
600,Carondelet Street,70130,29.9484188,-90.0720224
3868,Gentilly Boulevard,70122,30.0024089,-90.0459799
317,Baronne Street,70112,29.9520739,-90.0728208
311,Baronne Street,70112,29.9519129,-90.0728418
1500,Canal Street,70112,29.9572539,-90.0756604
301,Magazine Street,LA 70130,29.9505033,-90.0678212
650,Poydras Street,70130,29.9489221,-90.0701362
317,Baronne Street,70112,29.9521453,-90.0729503
600,Carondelet Street,70130,29.9483772,-90.0718845
5190,Canal Boulevard,70124,29.9849411,-90.1110582
4589,General Meyer Avenue,70131,29.9336646,-90.0077508
3321,Saint Charles Avenue,70115-4533,29.9288395,-90.0909079
1310,St. Andrew st,70130,29.9326789,-90.0764965
1804,Deslonde Street,70117,29.9704205,-90.0218939
8211,South Carrollton Avenue,70118,29.9555093,-90.1218989
1040,Calhoun Street,70118,29.9253432,-90.1244188
700,Decatur Street,70116,29.9574750,-90.0629500
6823,Saint Charles Avenue,70118,29.9412763,-90.1191026
1401,Foucher Street,70115,29.9260063,-90.0921924
2700,Napoleon Avenue,70115,29.9377578,-90.1044117
1,Drexel Drive,70135,29.9638755,-90.1076053
5316,Michoud Boulevard,70129,30.0414063,-89.9326094
14600,Old Gentilly Road,70129,30.0329629,-89.9079664
615,City Park Avenue,70119,29.9865547,-90.1048380
3200,Esplanade Avenue,70119,29.9801312,-90.0844377
503,Port of New Orleans Place,70130,29.9494684,-90.0628373
403,Canal Street,70130,29.9520878,-90.0663295
320,Decatur Street,70130,29.9539056,-90.0651259
241,North Peters Street,70130,29.9532582,-90.0653483
201,North Peters Street,70130,29.9525132,-90.0657629
209,North Peters Street,70130,29.9526403,-90.0656921
213,North Peters Street,70130,29.9527022,-90.0656578
217,North Peters Street,70130,29.9527639,-90.0656235
219,North Peters Street,70130,29.9528248,-90.0655895
223,North Peters Street,70130,29.9528859,-90.0655557
225,North Peters Street,70130,29.9529498,-90.0655202
233,North Peters Street,70130,29.9530415,-90.0654706
235,North Peters Street,70130,29.9531327,-90.0654185
237,North Peters Street,70130,29.9531948,-90.0653841
300,Decatur Street,70130,29.9536092,-90.0654078
301,North Peters Street,70130,29.9534873,-90.0652487
309,Decatur Street,70130,29.9536594,-90.0652639
321,North Peters Street,70130,29.9537378,-90.0652139
334,Decatur Street,70130,29.9541112,-90.0649663
200,Decatur Street,70130,29.9527565,-90.0660999
204,Decatur Street,70130,29.9528118,-90.0660570
206,Decatur Street,70130,29.9528661,-90.0660147
210,Decatur Street,70130,29.9529224,-90.0659712
214,Decatur Street,70130,29.9530138,-90.0659048
224-228,Decatur Street,70130,29.9532639,-90.0657066
230,Decatur Street,70130,29.9533642,-90.0656299
329,Decatur Street,70130,29.9542443,-90.0653552
520,Conti Street,70130,29.9545925,-90.0655065
518,Conti Street,70130,29.9545574,-90.0654533
333,Decatur Street,70130,29.9542975,-90.0652063
516,Conti Street,70130,29.9545229,-90.0654010
512,Conti Street,70130,29.9544892,-90.0653502
510,Conti Street,70130,29.9544547,-90.0652980
337,Decatur Street,70130,29.9543471,-90.0651627
315,Decatur Street,70130,29.9540229,-90.0655776
528,Conti Street,70130,29.9545543,-90.0657080
305,Decatur Street,70130,29.9538515,-90.0656650
309,Decatur Street,70130,29.9539813,-90.0656792
331,Decatur Street,70130,29.9542893,-90.0653109
317,Decatur Street,70130,29.9541504,-90.0655128
301,Decatur Street,70130,29.9537820,-90.0657355
300,Chartres Street,70130,29.9542625,-90.0664871
304,Chartres Street,70130,29.9543184,-90.0664548
306,Chartres Street,70130,29.9543656,-90.0664132
310,Chartres Street,70130,29.9544304,-90.0663703
324,Chartres Street,70130,29.9546263,-90.0661602
328,Chartres Street,70130,29.9546972,-90.0660979
330,Chartres Street,70130,29.9547534,-90.0660484
332,Chartres Street,70130,29.9547972,-90.0660099
316,Chartres Street,70130,29.9545023,-90.0662289
531,Bienville Street,70130,29.9541477,-90.0662303
537,Bienville Street,70130,29.9541907,-90.0662933
515,Bienville Street,70130,29.9539119,-90.0658589
517,Bienville Street,70130,29.9539676,-90.0659647
529,Bienville Street,70130,29.9541268,-90.0660845
539,Bienville Street,70130,29.9542336,-90.0663564
622,Conti Street,70130,29.9552207,-90.0664560
316,Exchange Place,70130,29.9548566,-90.0666887
322,Exchange Place,70130,29.9549510,-90.0666562
610,Conti Street,70130,29.9551392,-90.0662720
328,Exchange Place,70130,29.9550323,-90.0665233
312,Exchange Place,70130,29.9547923,-90.0667583
301,Chartres Street,70130,29.9544572,-90.0667690
305,Chartres Street,70130,29.9545067,-90.0667221
307,Chartres Street,70130,29.9545443,-90.0666706
309,Chartres Street,70130,29.9546059,-90.0666343
312,Exchange Place,70130,29.9546375,-90.0668666
315,Chartres Street,70130,29.9546659,-90.0665542
319,Chartres Street,70130,29.9547303,-90.0664976
323,Chartres Street,70130,29.9547856,-90.0664617
325,Chartres Street,70130,29.9548299,-90.0664226
327,Chartres Street,70130,29.9548584,-90.0663530
331,Chartres Street,70130,29.9549085,-90.0663089
333,Chartres Street,70130,29.9549554,-90.0662675
335,Chartres Street,70130,29.9549891,-90.0662021
339,Chartres Street,70130,29.9550577,-90.0661416
617,Bienville Street,70130,29.9546540,-90.0669619
614,Conti Street,70130,29.9551788,-90.0663784
334 B,Royal Street,70130,29.9552002,-90.0669415
315,Exchange Place,70130,29.9549115,-90.0668929
337,Exchange Place,70130,29.9552272,-90.0666150
337,Exchange Place,70130,29.9551749,-90.0666610
323,Exchange Place,70130,29.9550436,-90.0667767
317,Exchange Place,70130,29.9549724,-90.0668393
337,Exchange Place,70130,29.9551133,-90.0667154
311,Exchange Place,70130,29.9548720,-90.0669979
300,Royal Street,70130,29.9549493,-90.0673908
304,Royal Street,70130,29.9549770,-90.0672081
312,Royal Street,70130,29.9550232,-90.0671674
316,Royal Street,70130,29.9550708,-90.0671256
318,Royal Street,70130,29.9550948,-90.0670343
322,Royal Street,70130,29.9551564,-90.0669800
618,Conti Street,70130,29.9552690,-90.0666784
622,Conti Street,70130,29.9553074,-90.0665445
625,Bienville Street,70130,29.9548228,-90.0671995
334,Royal Street,70130,29.9553538,-90.0668462
400,Royal Street,70130,29.9556959,-90.0660603
313,Royal Street,70130,29.9552663,-90.0674771
305,Royal Street,70130,29.9550950,-90.0676236
309,Royal Street,70130,29.9551437,-90.0675806
321,Royal Street,70130,29.9554098,-90.0674089
333,Royal Street,70130,29.9555351,-90.0671411
343,Royal Street,70130,29.9556621,-90.0671074
319,Royal Street,70130,29.9553623,-90.0674507
311,Royal Street,70130,29.9552013,-90.0675485
329,Royal Street,70130,29.9555103,-90.0672410
325,Royal Street,70130,29.9554808,-90.0673620
301,Royal Street,70130,29.9550255,-90.0676288
713,Bienville Street,70130,29.9551093,-90.0677557
301,Bourbon Street,70130,29.9556548,-90.0685105
825,Bienville Street,70130,29.9560333,-90.0689991
818,Conti Street,70130,29.9564479,-90.0683955
823,Bienville Street,70130,29.9559270,-90.0687914
810,Conti Street,70130,29.9563434,-90.0681772
806,Conti Street,70130,29.9562778,-90.0680779
830,Conti Street,70130,29.9565043,-90.0685230
813,Bienville Street,70130,29.9558792,-90.0687185
814,Conti Street,70130,29.9563791,-90.0683335
811,Bienville Street,70130,29.9557948,-90.0686417
825,Bienville Street,70130,29.9560312,-90.0688385
309,Bourbon Street,70130,29.9557254,-90.0684485
315,Bourbon Street,70130,29.9559708,-90.0684452
325,Bourbon Street,70130,29.9560491,-90.0682807
327,Bourbon Street,70130,29.9561347,-90.0682136
333,Bourbon Street,70130,29.9561532,-90.0680320
339,Bourbon Street,70130,29.9562471,-90.0679418
217,Royal Street,70130,29.9545679,-90.0681307
221,Royal Street,70130,29.9546324,-90.0680743
225,Royal Street,70130,29.9546947,-90.0680195
231,Royal Street,70130,29.9548145,-90.0679148
229,Royal Street,70130,29.9547533,-90.0679679
237,Royal Street,70130,29.9548753,-90.0678605
211,Royal Street,70130,29.9544882,-90.0682271
4801,General Degaulle Drive,70131,29.9085641,-90.0048555
835,Bourbon Street,70116,29.9601584,-90.0644519
1801,Magnolia Street,70113,29.9441465,-90.0867669
2020,South Liberty Street,70113,29.9406605,-90.0841192
1051,Filmore Avenue,70124,30.0146824,-90.0910444
722,North Broad Street,70119,29.9709717,-90.0822953
500,Canal Street,70130,29.9517921,-90.0680009
1354,Magazine Street,70130,29.9369444,-90.0714934
1352,Magazine Street,70130,29.9369823,-90.0714830
3125,Esplanade Ave,70119,29.9802767,-90.0840226
4401,Banks St,70119,29.9745243,-90.1064818
4420,Cleveland Avenue,70119,29.9761079,-90.1055795
2436,Ursulines Avenue,70119,29.9718106,-90.0776343
2336,Esplanade Avenue,70119,29.9738600,-90.0757319
1234,North Broad Street,70119,29.9751096,-90.0787155
13552,Chef Menteur Highway,70129,30.0315581,-89.9239381
14418,Peltier Drive,70129,30.0386856,-89.9118725
5069,Willowbrook Drive,70129,30.0406944,-89.9190373
2635,State Street,70118,29.9415590,-90.1133917
8115,Jeannette Street,70118,29.9498750,-90.1277498
8321,Burthe Street,70118,29.9472966,-90.1342529
800,South Carrollton Avenue,70118,29.9447609,-90.1329065
14069,Morrison Road,70128,30.0630172,-89.9487390
"6807,6809",Canal Boulevard,70124,30.0142867,-90.1063994
6300,Argonne Boulevard,70124,30.0049015,-90.1029683
345,Orpheum Avenue,70005,29.9868796,-90.1244048
4640,Canal Street,70119,29.9780131,-90.1067577
6332,Elysian Fields Avenue,70122-4236,30.0237802,-90.0617620
6232,Elysian Fields Avenue,70122,30.0228299,-90.0616610
2169,Robert East Lee Boulevard,70122,30.0224539,-90.0617200
6166,Elysian Fields,70122,30.0215157,-90.0615375
6054,Vermillion Boulevard,70122,30.0214780,-90.0627735
1944,Prentiss Avenue,70122,30.0160445,-90.0660127
3500,Monticello Avenue,70005,29.9745354,-90.1248004
9609,Palm Street,70118,29.9753985,-90.1244984
401,North Carrollton Avenue,70119,29.9782717,-90.0993416
550,North Carrollton Avenue,70119,29.9767820,-90.0958433
636,North Carrollton Avenue,70119,29.9785467,-90.0957432
6000,Bullard Avenue,70128,30.0433176,-89.9618468
3700,S Carrollton Ave,70118,29.9659328,-90.1109732
6001,Stars and Stripes Boulevard,70126,30.0358973,-90.0256282
2801,Monticello Avenue,70121,29.9675301,-90.1278446
2715,Monticello Avenue,70121,29.9670009,-90.1281549
6009,Bullard Avenue,70128,30.0446658,-89.9592235
7049,Bullard Road,70128,30.0486185,-89.9618126
7051,Bullard Road,70128,30.0487479,-89.9626325
6005,Bullard Avenue,70128,30.0437126,-89.9583533
12300,I 10 E Service Road,70128,30.0471579,-89.9553508
8640,Oak Street,70118,29.9510883,-90.1349089
8640,Oak Street,70118,29.9512218,-90.1347721
8801,Oak Street,70118,29.9523262,-90.1355999
1108,Leonidas Street,70118,29.9503523,-90.1347278
1114,Monroe Street,70118,29.9511269,-90.1354582
1116,Leonidas Street,70118,29.9504495,-90.1346891
1130,Leonidas Street,70118,29.9506523,-90.1342899
8627,Zimple Street,70118,29.9506117,-90.1350925
8630,Oak Street,70118,29.9510599,-90.1347197
8714,Oak Street,70118,29.9515246,-90.1352672
8718,Oak Street,70118,29.9516043,-90.1353007
8722,Oak Street,70118,29.9515204,-90.1355111
8726,Oak Street,70118,29.9517143,-90.1354037
8728,Oak Street,70118,29.9517559,-90.1354999
8324,Oak Street,70118,29.9490283,-90.1322553
1120,South Carrollton Avenue,70118,29.9471946,-90.1303523
8400,Oak Street,70118,29.9493536,-90.1326934
8212,Oak Street,70118,29.9481780,-90.1311175
7700,Maple Street,70118,29.9417956,-90.1297627
1807,Burdette Street,70118,29.9495801,-90.1223693
2729,Lowerline Street,70125,29.9558022,-90.1140942
3971,Erato Street,70125,29.9543181,-90.0986414
1037,Audubon Street,70119,29.9406603,-90.1227429
571,Audubon Street,70118,29.9358450,-90.1265139
6100,Annunciation Street,70118,29.9189994,-90.1251826
4340,Washington Avenue,70125,29.9538128,-90.1028580
5031,Freret Street,70115,29.9350862,-90.1088683
5130,Freret Street,70115,29.9347764,-90.1101472
4920,Freret Street,70115,29.9348115,-90.1079484
9424,Fig Street,70118,29.9690667,-90.1270493
631,State Street,70118,29.9208024,-90.1215890
5400,Tchoupitoulas Street,70115,29.9160545,-90.1168613
5020,Laurel Street,70115,29.9180824,-90.1097494
5600,Magazine Street,70115,29.9207788,-90.1176633
5120,Saint Charles Avenue,70115,29.9266157,-90.1102495
501,Napoleon Avenue,70115,29.9173912,-90.1008152
3935,Magazine Street,70115,29.9214341,-90.0960908
1025,Napoleon Avenue,70115,29.9220824,-90.1009551
3715,Tchoupitoulas Street,70115,29.9181257,-90.0926862
3001,Tchoupitoulas Street,70115,29.9199585,-90.0813739
2329,Upperline Street,70115,29.9336932,-90.1070778
2325,Upperline Street,70115,29.9335978,-90.1071012
3607,Saint Charles Avenue,70115,29.9276340,-90.0940940
3824,Dryades Street,70115,29.9297337,-90.0969573
929,Euterpe Street,70130,29.9356432,-90.0699798
1201,Convention Center Boulevard,70130,29.9397234,-90.0650296
1404,Erato Street,70130,29.9395429,-90.0725800
345,Saint Joseph Street,70130,29.9440760,-90.0683902
859,Convention Center Boulevard,70130,29.9437051,-90.0649491
1001,South Peters Street,70130,29.9413246,-90.0661737
1901,Tchoupitoulas Street,70130,29.9251175,-90.0702505
3233,Magazine Street,70115,29.9241963,-90.0878287
3525,Prytania Street,70115,29.9267159,-90.0926274
3626,Saint Charles Avenue,70115,29.9269077,-90.0939044
4310,Saint Charles Avenue,70115,29.9262368,-90.1010333
2001,Louisiana Avenue,70115,29.9322219,-90.0929503
2010,Peniston Street,70115,29.9312776,-90.0969784
4230,South Broad Street,70125,29.9491227,-90.1027344
2713,South Claiborne Avenue,70125,29.9431834,-90.0942296
2800,South Claiborne Avenue,70115,29.9420209,-90.0944631
3000,Dryades Street,70115,29.9320512,-90.0900400
2100,Saint Charles Avenue,70130,29.9341784,-90.0798793
2830,Magazine Street,70115,29.9256113,-90.0830282
1100,South Claiborne Avenue,70125,29.9479367,-90.0859940
1600,South Claiborne Avenue,70125,29.9458838,-90.0880679
639,Loyola Avenue,70113,29.9489602,-90.0768143
1300,Canal Street,70112,29.9562826,-90.0744408
311,Gravier Street,70130,29.9502895,-90.0662582
315,Julia Street,70130,29.9450849,-90.0662610
317,Baronne Street,70112,29.9521063,-90.0729835
427,South Rampart Street,70112,29.9511963,-90.0749833
510,Okeefe Avenue,70113,29.9495123,-90.0741646
545,Saint Charles Avenue,70130,29.9485976,-90.0713569
546,Carondelet Street,70130,29.9487003,-90.0718772
600,Camp Street,70130,29.9476572,-90.0691892
600,Carondelet Street,70130,29.9483210,-90.0719483
525,Saint Charles Avenue,70130,29.9491444,-90.0712676
610,Poydras Street,70130,29.9491112,-90.0697668
334,O'Keefe Avenue,70112,29.9517618,-90.0736630
914,Union Street,70112,29.9517670,-90.0731138
333,Poydras Street,70130,29.9489835,-90.0664261
301,Camp Street,70130,29.9508791,-90.0694429
150,South Liberty Street,70112,29.9561678,-90.0748458
614,Canal Street,70130,29.9523081,-90.0689874
300,Poydras Street,70130,29.9479695,-90.0662019
833,Poydras Street,70112,29.9506063,-90.0727467
330,Loyola Avenue,70112,29.9528232,-90.0749071
143,South Liberty Street,70112,29.9561838,-90.0754779
535,Tchoupitoulas Street,70130,29.9480178,-90.0674800
2021,Oretha C Haley Boulevard,70113,29.9381431,-90.0817693
2203,Saint Charles Avenue,70130,29.9342876,-90.0810780
2230,Carondelet Street,70130,29.9343112,-90.0818390
1504,Oretha Castle Haley Blvd,70113,29.9407699,-90.0790459
1301,Saint Charles Avenue,70130,29.9404706,-90.0749671
1319,Saint Charles Avenue,70130,29.9401928,-90.0751533
1055,Saint Charles Avenue,70130,29.9427038,-90.0733308
2512,Tulane Avenue,70119,29.9604888,-90.0884449
2830,Canal Street,70119,29.9667054,-90.0897442
2736,Banks Street,70119,29.9632507,-90.0908484
2400,Canal Street,70119,29.9615183,-90.0851361
2757,Canal Street,70119-5501,29.9668248,-90.0881696
701,Chartres Street,70116,29.9576622,-90.0638894
615,Pere Antoine Alley,70116-3291,29.9579983,-90.0637517
621,Saint Louis Street,70130,29.9563139,-90.0655143
715,Bourbon Street,70116,29.9589299,-90.0656641
920,North Rampart Street,70116-3011,29.9623016,-90.0661772
724,Dumaine Street,70116,29.9598070,-90.0637862
717,Orleans Avenue,70116,29.9587663,-90.0646591
2300,Dumaine Street,70119,29.9690962,-90.0781134
3233,Ursulines Avenue,70119,29.9783974,-90.0860678
3107,Derby Place,70119,29.9869934,-90.0768923
1250,Poydras Street,70113,29.9505449,-90.0769179
7300,Crowder Boulevard,70127,30.0362493,-89.9979804
7816,Hayne Boulevard,70126,30.0394371,-90.0048785
1802,Tulane Avenue,70112,29.9570748,-90.0816580
4927,Marque Drive,70127,30.0242376,-89.9769922
5801,Read Boulevard,70127,30.0354514,-89.9733839
10100,I-10 Service Road,70127,30.0382348,-89.9721297
10020,I 10 Service Road,70127,30.0371250,-89.9740439
13800,Old Gentilly Road,70129,30.0203001,-89.9255035
2212,Prentiss Avenue,70122,30.0164569,-90.0598391
1667,Tchoupitoulas Street,70130,29.9292083,-90.0671878
400,Verret Street,70114,29.9518312,-90.0505104
1400,Teche Street,70114,29.9411006,-90.0517347
1441,Teche Street,70114,29.9404916,-90.0522143
401,Hancock Street,70053,29.9359371,-90.0492124
731,Magellan Street,70053,29.9372210,-90.0507922
1700,Mardi Gras Boulevard,70114,29.9387363,-90.0402361
7444,Saint Charles Avenue,70118,29.9385225,-90.1291149
107,Constitution Street,70114,29.9468344,-90.0321825
111,Constitution Street,70114,29.9467841,-90.0314781
105,Constitution Street,70114,29.9468303,-90.0325547
103,Constitution Street,70114,29.9468883,-90.0329180
109,Constitution Street,70114,29.9468089,-90.0318310
104,Constitution Street,70114,29.9460774,-90.0311672
108,Constitution Street,70114,29.9460494,-90.0299535
106,Constitution Street,70114,29.9460699,-90.0305034
110,Constitution Street,70114,29.9459760,-90.0293277
2485,Guadalcanal Street,70114,29.9480213,-90.0309869
102,Constitution Street,70114,29.9460148,-90.0316541
2000,Opelousas Ave,70114,29.9494211,-90.0367725
200,Hendee Street,70114,29.9522781,-90.0373704
2405,Sanctuary Drive,70114,29.9497251,-90.0318692
2000,Opelousas Ave,70114,29.9514502,-90.0368231
6450,Kathy Court,70131,29.9079714,-89.9858795
3250,General Degaulle Drive,70114-6709,29.9261777,-90.0225835
3800,General de Gaulle Drive,70114,29.9237826,-90.0172969
6201,Stratford Place,70131,29.9121628,-89.9880355
708,Ursulines Avenue,70116,29.9613467,-90.0622249
400,Esplanade Avenue,70116,29.9613899,-90.0578139
1100,Chartres Street,70116,29.9608478,-90.0606573
1531,Saint Philip Street,70116,29.9645925,-90.0661699
1418,Governor Nicholls Street,70116,29.9665108,-90.0679482
1210,Governor Nicholls Street,70116,29.9653939,-90.0662952
26812,Chef Menteur Highway,70129,30.1615566,-89.7394646
1790,Saturn Boulevard,70129,30.0155143,-89.9284354
3501,Jourdan Road,70126,30.0020606,-90.0191085
6828,Chef Menteur Highway,70126,30.0109353,-90.0080698
2421,Saint Claude Avenue,70117,29.9692730,-90.0515092
2524,Mandeville Street,70117,29.9840059,-90.0559702
5201,Tullis Drive,70131,29.9003513,-90.0010449
5728,Sutton Place,70131,29.9192586,-89.9940057
411,North Rampart Street,70112,29.9584842,-90.0707021
739,Canal St,70130,29.9540618,-90.0692875
1111,Canal Street,70112-2625,29.9564088,-90.0725649
820,Saint Louis Street,70112,29.9572177,-90.0676199
933,Conti Street,70112,29.9573975,-90.0692583
417,Royal Street,70130,29.9561859,-90.0666624
2511,Chartres Street,70117,29.9640177,-90.0525335
2115,Decatur Street,70116,29.9627987,-90.0573127
623,Frenchmen Street,70116,29.9640686,-90.0576329
1100,Elysian Fields Avenue,70117,29.9688874,-90.0576797
1337,Esplanade Avenue,70116,29.9682459,-90.0663452
1333,Esplanade Avenue,70116,29.9681781,-90.0662749
1328,Saint Bernard Avenue,70116,29.9697451,-90.0641806
2022,Saint Bernard Avenue,70116,29.9767211,-90.0685040
1918,North Broad Street,70119-1848,29.9836353,-90.0708555
1001,Marigny Street,70117,29.9677430,-90.0552946
1740,Franklin Avenue,70117,29.9759522,-90.0486097
1835,Saint Roch Avenue,70117,29.9772294,-90.0519210
1732,Benefit Street,70122,29.9899607,-90.0697237
2916,Paris Avenue,70119,29.9876814,-90.0733259
2141,Caton Street,70122,29.9990595,-90.0607216
3101,Elysian Fields Avenue,70122,29.9905376,-90.0578689
3037,Dauphine Street,70117,29.9648519,-90.0457060
3419,Saint Claude Avenue,70117,29.9670159,-90.0398561
3501,North Miro Street,70117,29.9781515,-90.0355509
4030,Chef Menteur Highway,70126,30.0027580,-90.0424115
4170,Old Gentilly Road,70126,30.0021345,-90.0397633
4240,Louisa Street,70126-5009,30.0042221,-90.0363705
4454,Chef Menteur Highway,70126,30.0044311,-90.0376174
4940,Chef Menteur Highway,70126,30.0061960,-90.0320294
4605,Chef Menteur Highway,70126,30.0063883,-90.0346747
4603,Chef Menteur Highway,70126,30.0061738,-90.0354482
5029,Louisa Drive,70126,30.0126687,-90.0380256
3400,Holiday Drive,70114,29.9200536,-90.0150351
3601,General De Gaulle Drive,70114,29.9244273,-90.0214331
4001,Behrman Highway,70114,29.9114467,-90.0205314
4001,General de Gaulle Drive,70114,29.9188796,-90.0144274
3825,General Degaulle Drive,70114,29.9218192,-90.0166182
925,Common Street,70112,29.9538647,-90.0727003
560,North Carrollton Avenue,70119,29.9770591,-90.0955924
3820,Saint Claude Avenue,70117,29.9653095,-90.0370045
3819,Saint Claude Avenue,70117,29.9664730,-90.0366465
7,Victory Avenue,70124,29.9875434,-90.0984045
2300,St. Claude Ave,70117,29.9682410,-90.0537772
2624,Burgundy Street,70117,29.9663491,-90.0501703
365,Canal Street,70130,29.9513883,-90.0649864
1500,Teche Street,70114,29.9396062,-90.0524284
5620,Read Boulevard,70127,30.0291920,-89.9748993
768,Decatur Street,70116,29.9569963,-90.0622548
419,Decatur Street,70130,29.9548547,-90.0647995
311,Bourbon Street,70130,29.9558491,-90.0684443
514,Chartres Street,70130,29.9560448,-90.0648978
408,Camp Street,70130,29.9495108,-90.0686479
114,Magazine Street,70130-2421,29.9512376,-90.0672220
135,Saint Charles Avenue,70130,29.9524548,-90.0699787
203,Carondelet Street,70130,29.9526562,-90.0712702
1,Collins Diboll Circle,70124,29.9872757,-90.0940169
200,Henry Clay Avenue,70118,29.9177843,-90.1276845
3601,Coliseum Street,70115,29.9249340,-90.0932279
2000,Canal Street,70112,29.9594849,-90.0821264
1415,Tulane Avenue,70112,29.9558065,-90.0762701
14500,Hayne Boulevard,70128,30.0709200,-89.9481490
5001,Freret Street,70115,29.9350915,-90.1086329
5018,Freret Street,70115,29.9348758,-90.1090365
100,Veterans Boulevard,70124,29.9989699,-90.1171305
1,Clubhouse Drive,70131,29.9054087,-89.9513419
5190,Canal Blvd,70124,29.9849916,-90.1111095
4500,Tchoupitoulas Street,70115,29.9165019,-90.1031060
840,Poydras Street,70112,29.9497517,-90.0728783
8282,I-10 Service Road,70126,30.0274381,-89.9958134
5000,North Claiborne Avenue,70117,29.9668744,-90.0204433
1790,Saturn Boulevard,70129,30.0148302,-89.9290735
200,Hendee Street,70114,29.9525553,-90.0371786
2000,Opelousas Ave,70114,29.9504320,-90.0368203
101,Magazine Street,70130,29.9516802,-90.0675727
1380,Port of New Orleans Place,70130,29.9346399,-90.0615617
444,Common Street,70130,29.9509029,-90.0672564
541,Bourbon Street,70130,29.9577796,-90.0667888
124,Saint Charles Avenue,70130,29.9523140,-90.0694347
821,Gravier Street,70112,29.9524734,-90.0717834
226,Carondelet Street,70130,29.9520919,-90.0708773
209,Magazine Street,70130,29.9509259,-90.0678427
881,Convention Center Boulevard,70130,29.9424923,-90.0649233
346,Baronne Street,70112,29.9511750,-90.0725101
360,Saint Charles Avenue,70130,29.9508748,-90.0699867
1200,Canal Street,70112,29.9560151,-90.0739853
532,Frenchmen Street,70116,29.9631729,-90.0578946
7300,West Roadway Street,70124,30.0230064,-90.1209037
7300,West Roadway Street,70124,30.0228903,-90.1213602
7300,West Roadway Street,70124,30.0230387,-90.1204140
900,Lakeshore Drive,70124,30.0272397,-90.0971311
900,Lakeshore Drive,70124,30.0272832,-90.0973558
900,Lakeshore Drive,70124,30.0273918,-90.0975285
2529,General Meyer Avenue,70114,29.9400436,-90.0296340
1001,Elysian,70117,29.9677417,-90.0563839
3368,Esplanade Avenue,70119,29.9814430,-90.0868136
775,Harrison Avenue,70124,30.0051366,-90.1064340
3736,Gentilly Boulevard,70122,30.0025222,-90.0488083
21420,Chef Menteur Highway,70129,30.0741839,-89.7951226
724,Camp Street,70130,29.9465832,-90.0697579
1923,Saint Philip Street,70116,29.9681971,-90.0732237
6666,Spanish Fort Boulevard,70124,30.0242569,-90.0918664
4300,Alba Road,70129,30.0653855,-89.8136284
4400,General Meyer Avenue,70131,29.9371543,-90.0079009
1,Monticello Avenue,70121,29.9519464,-90.1376344
3400,Monticello Avenue,70005,29.9743907,-90.1250931
2821,Monticello Avenue,70121,29.9681265,-90.1275521
2912,Monticello Avenue,70118,29.9687259,-90.1271544
9224,Colapissa Street,70118,29.9685873,-90.1248455
3059,Higgins Boulevard,70126,29.9945867,-90.0375910
3901,General Degaulle Drive,70114,29.9209737,-90.0151585
1801,Leon C Simon Drive,70124,30.0280863,-90.0727354
3900,Dublin Street,70118-4754,29.9683519,-90.1112493
425,O'Bannon Street,70114,29.9507432,-90.0345406
112,Constitution Street,70114,29.9459530,-90.0288499
2475,Sanctuary Drive,70114,29.9489726,-90.0309709
345,Saint Joseph Street,70130,29.9440289,-90.0681750
501,Elysian Fields Avenue,70117,29.9628849,-90.0556625
1000,Magazine Street,70130,29.9424437,-90.0695997
3250,Industry Street,70112,29.9854048,-90.0366592
5157,Wildair Drive,70122,30.0102322,-90.0666451
601,Frenchmen Street,70116,29.9636703,-90.0576763
12330,I-10 Service Road,70128,30.0488982,-89.9540223
500,Port of New Orleans Place,70130,29.9485400,-90.0627854
8128,Plum Street,70118,29.9482435,-90.1296519
2900,Ben Weiner Drive,70118,29.9446356,-90.1166467
6367,Saint Charles Avenue,70118,29.9345997,-90.1219698
500,Port of New Orleans Place,70130,29.9456976,-90.0624788
1555,Poydras Street,70012,29.9526611,-90.0792258
601,Loyola Avenue,70113,29.9495459,-90.0773772
701,Convention Center Boulevard,70130,29.9455374,-90.0650197
1500,Sugar Bowl Drive,70112,29.9510502,-90.0810896
Two,Poydras Street,70130,29.9473563,-90.0634467
478,South Johnson Street,70112,29.9576486,-90.0844029
4502,General Meyer Avenue,70131,29.9351779,-90.0072098
1236,North Rampart Street,70116,29.9648228,-90.0638333
6322,Chef Menteur Highway,70126,30.0096527,-90.0145019
3300,Eton Street,70131,29.9185378,-89.9975403
300,Bourbon Street,70130,29.9556828,-90.0678417
405,Esplanade Avenue,70116,29.9617679,-90.0570230
945,Magazine Street,70130,29.9424166,-90.0706287
2475,Sanctuary Drive,70114,29.9492234,-90.0309630
300,Julia Street,70130,29.9442256,-90.0662631
301,Saint Joseph Street,70130,29.9434432,-90.0662648
910,Iberville Street,70112,29.9554453,-90.0706918
