House number,Street name,Postal code,Latitude,Longitude
4445,Meriwether Road,71109,32.4334878,-93.8335142
1915,Grover Place,71105,32.4595979,-93.7154561
806,Kings Highway,71104,32.4818197,-93.7465678
2050,West Bert Kouns Industrial Loop,71118,32.4033280,-93.7915105
1050,West Bert Kouns Industrial Loop,71118,32.4024958,-93.7886984
2600,Barret Street,71104,32.4866818,-93.7526967
1950,Northside Road,71107,32.5427714,-93.7990932
3860,Hutchinson Street,71109,32.4753096,-93.8256798
7150,Youree Drive,71105,32.4401990,-93.7174877
500,Clyde Fant Memorial Parkway,71107,32.5158672,-93.7451126
6810,Pines Road,71229,32.4457167,-93.8628244
6820,Pines Road,71229,32.4452275,-93.8626811
2560,West Bert Kouns Industrial Loop,71118,32.4024513,-93.8018162
9190,Mansfield Road,71118,32.4029073,-93.8042593
9132,Mansfield Road,71118-3123,32.4054504,-93.8017562
1002,Bert Kouns Industrial Loop,71118,32.4035397,-93.7859059
1475,Fullerton Street,71107,32.5346151,-93.7720986
6535,"Youree Drive, Suite 103",71105,32.4823246,-93.7226692
3249,Sidney Street,71107,32.5483616,-93.8398497
7330,Fern Avenue,71105,32.4382892,-93.7292349
1133,St Vincent Avenue,71104,32.4771150,-93.7529893
3875,Line Avenue,71106,32.4701598,-93.7455840
3809,Creswell Avenue,71106,32.4705090,-93.7432303
1133,St. Vincent Avenue,71104,32.4788153,-93.7529708
202,Stoner Avenue,71101,32.5002375,-93.7333811
210,East Stoner Avenue,71101,32.5004520,-93.7284114
1201,Cornwell Avenue,71101,32.5014446,-93.7286449
1125,Shreveport Barksdale Highway,71105,32.4836800,-93.7053440
7423,Youree Drive,71105,32.4381579,-93.7147106
8001,Youree Drive,71115,32.4320838,-93.7090230
1618,Marshall Street,71101,32.5035116,-93.7404753
6570,"Youree Dr, #200",71105,32.4474726,-93.7219083
400,Travis Street,71101,32.5145075,-93.7501113
412,Lasalle Street,71107,32.5254300,-93.7565622
385,West Bert Kouns Industrial Loop,71106,32.3978081,-93.7619381
910,Pierremont Rd,71106,32.4567848,-93.7485835
450,West Kings Highway,71104,32.4821485,-93.7391726
5828,Line Avenue,71106,32.4559724,-93.7472444
5828,Line Avenue,71106,32.4561761,-93.7472283
5856,Line Avenue,71106,32.4552891,-93.7464192
3000,North Market Street,71107,32.5587243,-93.7813445
3000,North Market Street,71107,32.5586475,-93.7814357
2980,North Market Street,71107,32.5578336,-93.7827822
3132,North Market Street,71107,32.5607047,-93.7842467
3620,Pines Road,71119,32.4788768,-93.8671918
3620,Pines Road,71119,32.4787636,-93.8670984
9250,Mansfield Road,71118,32.4016705,-93.8064953
9250,Mansfield Road,71118,32.4016523,-93.8065758
9252,Mansfield Road,71118,32.4012175,-93.8064256
2902,Bert Kouns Industrial Loop,71118,32.4026352,-93.8055619
5705,Youree Drive,71105,32.4563368,-93.7214274
750,West Bert Kouns Industrial Loop,71118,32.4020428,-93.7781152
205,Wall Street,71101,32.5006343,-93.7339188
2013,Market Street,71101,32.5012251,-93.7336374
1200,Marshall Street,71101,32.5067317,-93.7443964
1450,North Market St,71107,32.5356197,-93.7678357
4019,Hilry Huckaby III Ave,71107,32.5232287,-93.8186197
1302,Shreveport Barksdale Highway,71105-2408,32.4891299,-93.7044419
1250,Shreveport Barksdale Highway,71104,32.4885056,-93.7051155
6114,Fairfield Ave,71106,32.4501926,-93.7505256
4109,Pines Rd,71119,32.4666673,-93.8621616
2407,Roy Road,71107,32.5475140,-93.8456878
2411,Roy Road,71107,32.5476450,-93.8458141
2415,Roy Road,71107,32.5478054,-93.8458062
2421,Roy Road,71107,32.5482041,-93.8456518
2428,Roy Road,71107,32.5483566,-93.8456542
2453,Roy Road,71107,32.5493111,-93.8456679
2457,Roy Road,71107,32.5494619,-93.8456699
2015,East 70th Street,71105,32.4442224,-93.7065816
3719,Lakeshore Drive,71109,32.4922154,-93.7979031
458,E 70th St,71106,32.4422239,-93.7493515
460,Ashley Ridge Boulevard,71106,32.4156755,-93.7310370
910,Pierremont Rd,71106,32.4567188,-93.7486031
4110,Youree Drive,71105,32.4636084,-93.7231922
2115,Martin Luther King Junior Drive,71107,32.5432546,-93.8075080
2105,Martin Luther King Junior Drive,71107,32.5432544,-93.8072005
2219,Martin Luther King Junior Drive,71107,32.5432466,-93.8090684
2802,5th Street,71107,32.5537480,-93.8204925
2897,5th Street,71107,32.5526004,-93.8242561
2906,5th Street,71107,32.5532354,-93.8247327
2931,5th Street,71107,32.5523174,-93.8257674
1446,Hawn Avenue,71107,32.5381942,-93.7652263
6719,Pines Road,71129,32.4482598,-93.8623974
1,Saint Mary Place,71101,32.4952131,-93.7500123
1500,Line Avenue,71101,32.4976490,-93.7467142
2025,Desoto Street,71103,32.4722658,-93.7709255
1800,Irving Place,71101,32.4938707,-93.7448806
8650,Millicent Way,71115,32.4262622,-93.7105381
2611,Greenwood Road,71103,32.4836990,-93.7791149
2222,Roy Road,71107,32.5450737,-93.8473088
2622,Lakeshore Drive,71103,32.4929625,-93.7795017
2614,Lakeshore Drive,71103,32.4929734,-93.7792405
1548,Gary Street,71103,32.4992847,-93.7625891
1544,Gary Street,71103,32.4992890,-93.7624485
1547,Gary Street,71103,32.4987819,-93.7625972
1537,Gary Street,71103,32.4987874,-93.7623340
1531,Gary Street,71103,32.4987834,-93.7620070
1523,Gary Street,71103,32.4987888,-93.7618277
1550,Jordan Street,71103,32.4983871,-93.7628488
1417,Pierre Avenue,71103,32.4983872,-93.7629950
1549,Jordan Street,71103,32.4978683,-93.7627265
1543,Jordan Street,71103,32.4978754,-93.7624057
1531,Jordan Street,71103,32.4978786,-93.7621962
1519,Jordan Street,71103,32.4978884,-93.7618593
1605,North Market Street,71107,32.5376722,-93.7720815
830,Fannin Street,71101,32.5125952,-93.7550934
110,Douglas Street,71101,32.5126896,-93.7563677
3000,North Market Place,71107,32.5575798,-93.7814836
3717,Greenwood Road,71109-5109,32.4736921,-93.7988876
3705,Greenwood Road,71109,32.4739420,-93.7986215
3701,Greenwood Road,71109,32.4741678,-93.7981557
4000,Jewella Avenue,71109,32.4745778,-93.7975728
9242,Ellerbe Road,71106,32.4080284,-93.7391885
2640,Waggoner Avenue,71108,32.4547088,-93.7793339
7950,Youree Drive,71105,32.4320454,-93.7128190
7110,Youree Drive,71105-5107,32.4395175,-93.7201875
7080,Youree Drive,71105,32.4407919,-93.7205177
1681,East 70th Street,71105,32.4427892,-93.7198551
1380,East 70th Street,71105,32.4440822,-93.7269207
6634,Youree Drive,71105,32.4458794,-93.7219584
6596,Youree Drive,71105,32.4462951,-93.7218301
7141,Youree Drive,71105,32.4411291,-93.7163829
7543,Youree Drive,71105,32.4366944,-93.7119619
7547,Youree Drive,71105,32.4363030,-93.7121882
7651,Youree Drive,71105,32.4373958,-93.7115834
7463,Youree Drive,71105,32.4388581,-93.7117244
6550,Youree Drive,71105,32.4482679,-93.7223302
5555,Greenwood Road,71109,32.4590268,-93.8433739
4119,Metro Drive,71109,32.4584739,-93.8403454
1513,Line Avenue,71101,32.4974045,-93.7454455
1549,Poland Street,71103,32.5041938,-93.7628710
845,Pierre Avenue,71103,32.5038446,-93.7629235
1532,Milam Street,71103,32.5038491,-93.7622282
1530,Milam Street,71103,32.5038519,-93.7621004
4457,Pines Road,71119,32.4537751,-93.8648865
4025,Jewella Avenue,71109,32.4732566,-93.7967810
2728,Midway Street,71109,32.4712350,-93.7808674
701,South Pierre Avenue,71103,32.5049503,-93.7627959
706,Caddo Street,71101,32.5140474,-93.7544880
827,Rutherford Street,71104,32.4821782,-93.7470109
835,Rutherford Street,71104,32.4821792,-93.7471943
847,Rutherford Street,71104,32.4821811,-93.7474642
1957,Russell Road,71107,32.5432956,-93.8025454
1949,Russell Road,71107,32.5429941,-93.8025468
1945,Russell Road,71107,32.5428366,-93.8025482
1940,Russell Road,71107,32.5428822,-93.8031514
1944,Russell Road,71107,32.5430371,-93.8031528
1801,Martin Luther King Junior Drive,71107,32.5434312,-93.8030747
1803,Martin Luther King Junior Drive,71107,32.5434331,-93.8032186
3025,Phelps Road,71107,32.5430567,-93.8016895
3021,Phelps Road,71107,32.5433550,-93.8013108
3013,Phelps Road,71107,32.5433638,-93.8011458
114,Texas Street,71101,32.5155082,-93.7466364
1627,Weinstock Street,71103,32.5003648,-93.7641993
1612,Murphy Street,71103,32.5002191,-93.7637240
1218,Pierre Avenue,71103,32.5002985,-93.7634595
1208,Pierre Avenue,71103,32.5004771,-93.7634581
1200,Pierre Avenue,71103,32.5006582,-93.7634618
1502,Pierre Avenue,71103,32.4980859,-93.7642040
1523,Park Avenue,71103,32.4970485,-93.7649526
1525,Park Avenue,71103,32.4968714,-93.7649521
2908,Barret Street,71104,32.4833796,-93.7526633
2904,Barret Street,71104,32.4834978,-93.7526651
2764,Barret Street,71104,32.4836012,-93.7526665
2760,Barret Street,71104,32.4837116,-93.7526675
2756,Barret Street,71104,32.4838280,-93.7526703
2752,Barret Street,71104,32.4839340,-93.7526716
2748,Barret Street,71104,32.4840804,-93.7526727
2825,Southern Avenue,71104,32.4838018,-93.7542556
2831,Southern Avenue,71104,32.4836399,-93.7542482
1130,Wilkinson Street,71104,32.4856972,-93.7532830
1127,Rendall Street,71104,32.4860400,-93.7531178
1131,Rendall Street,71104,32.4860412,-93.7532912
1155,Rendall Street,71104,32.4860410,-93.7542447
1159,Rendall Street,71104,32.4860398,-93.7544137
1145,Leander Street,71104,32.4868002,-93.7540474
1142,Rendall Street,71104,32.4864730,-93.7537888
1671,East 70th Street,71105,32.4427640,-93.7202144
1671,East 70th Street,71105,32.4429461,-93.7202173
1726,Fordyce Street,71101,32.5153178,-93.7675889
1716,Fordyce Street,71101,32.5153189,-93.7673208
501,March Street,71101,32.5146752,-93.7697785
517,March Street,71101,32.5151320,-93.7697849
535,March Street,71101,32.5154604,-93.7697778
539,March Street,71101,32.5156305,-93.7697814
543,March Street,71101,32.5157653,-93.7697819
547,March Street,71101,32.5158890,-93.7697834
506,March Street,71101,32.5148105,-93.7704047
510,March Street,71101,32.5149759,-93.7704082
518,March Street,71101,32.5151043,-93.7704094
526,March Street,71101,32.5153313,-93.7704155
530,March Street,71101,32.5155795,-93.7704266
536,March Street,71101,32.5157496,-93.7704351
601,March Street,71101,32.5161524,-93.7697947
609,March Street,71101,32.5165020,-93.7698061
613,March Street,71101,32.5166203,-93.7698100
632,March Street,71101,32.5169443,-93.7704489
701,March Street,71101,32.5172045,-93.7697693
705,March Street,71101,32.5173189,-93.7697723
719,March Street,71101,32.5176524,-93.7697801
723,March Street,71101,32.5177614,-93.7697804
729,March Street,71101,32.5178722,-93.7697835
731,March Street,71101,32.5179766,-93.7697827
735,March Street,71101,32.5181426,-93.7697846
710,March Street,71101,32.5174195,-93.7704365
714,March Street,71101,32.5175255,-93.7704353
736,March Street,71101,32.5181975,-93.7704324
1613,Patzman Street,71101,32.5143110,-93.7637271
1757,Patzman Street,71101,32.5142752,-93.7685979
1802,Patzman Street,71101,32.5147236,-93.7690848
510,Sheppard Street,71101,32.5149009,-93.7680464
530,Sheppard Street,71101,32.5155018,-93.7680567
540,Sheppard Street,71101,32.5157182,-93.7678668
544,Sheppard Street,71101,32.5157967,-93.7678685
1639,Patzman Street,71101,32.5143213,-93.7644551
1647,Patzman Street,71101,32.5143208,-93.7647437
1671,Patzman Street,71101,32.5144449,-93.7655528
1672,Patzman Street,71101,32.5142634,-93.7655506
1691,Patzman Street,71101,32.5143638,-93.7660645
2006,Logan Street,71101,32.5074468,-93.7720248
2022,Ford Street,71101,32.5112668,-93.7729016
2024,Garden Street,71101,32.5091698,-93.7726463
2048,Garden Street,71101,32.5092801,-93.7736474
2008,Myrtle Street,71101,32.5083513,-93.7720228
2012,Myrtle Street,71101,32.5083041,-93.7722301
2013,Perrin Street,71101,32.5095809,-93.7724477
2000,Perrin Street,71101,32.5101329,-93.7719901
2020,Perrin Street,71101,32.5099868,-93.7724469
2040,Perrin Street,71101,32.5100111,-93.7732580
2054,Perrin Street,71101,32.5100036,-93.7737688
2124,Perrin Street,71101,32.5098420,-93.7751456
2007,Talbot Street,71101,32.5101326,-93.7722127
2025,Talbot Street,71101,32.5101313,-93.7726216
2031,Talbot Street,71101,32.5101271,-93.7729286
2002,Talbot Street,71101,32.5106686,-93.7719802
2012,Talbot Street,71101,32.5106470,-93.7723091
2024,Talbot Street,71101,32.5106567,-93.7726558
2038,Talbot Street,71101,32.5106760,-93.7732870
2002,Grover Street,71101,32.5120413,-93.7719157
2006,Grover Street,71101,32.5120425,-93.7720587
2022,Grover Street,71101,32.5120379,-93.7727310
206,North Hartman Street,71101,32.5121326,-93.7745159
401,North Holzman Street,71101,32.5136251,-93.7722872
1903,Anna Street,71101,32.5060169,-93.7697553
1929,Anna Street,71101,32.5060275,-93.7706631
1916,Anna Street,71101,32.5065389,-93.7701411
1920,Anna Street,71101,32.5065386,-93.7702712
1928,Anna Street,71101,32.5065391,-93.7705230
1907,Logan Street,71101,32.5069430,-93.7698746
1911,Logan Street,71101,32.5069453,-93.7699802
414,Norma Avenue,71101,32.5075551,-93.7697733
1922,Logan Street,71101,32.5074538,-93.7705367
1952,Logan Street,71101,32.5074705,-93.7713287
1956,Logan Street,71101,32.5074683,-93.7714440
1917,Ford Street,71101,32.5105454,-93.7701644
1921,Ford Street,71101,32.5105458,-93.7702748
1925,Ford Street,71101,32.5105467,-93.7703595
1945,Ford Street,71101,32.5105467,-93.7711795
1932,Ford Street,71101,32.5110987,-93.7706711
1936,Ford Street,71101,32.5110998,-93.7708023
1946,Ford Street,71101,32.5111027,-93.7711896
1956,Ford Street,71101,32.5111024,-93.7713138
1958,Ford Street,71101,32.5111033,-93.7714402
1964,Ford Street,71101,32.5111038,-93.7715806
1903,Garden Street,71101,32.5087450,-93.7698852
1907,Garden Street,71101,32.5087459,-93.7700817
1921,Garden Street,71101,32.5087422,-93.7704228
1931,Garden Street,71101,32.5087441,-93.7705449
1933,Garden Street,71101,32.5087443,-93.7706583
1914,Garden Street,71101,32.5092294,-93.7701378
1922,Garden Street,71101,32.5092305,-93.7702598
1934,Garden Street,71101,32.5092272,-93.7706289
1946,Garden Street,71101,32.5092341,-93.7712946
1950,Garden Street,71101,32.5092361,-93.7714961
1905,Myrtle Street,71101,32.5078489,-93.7698930
1955,Myrtle Street,71101,32.5078674,-93.7714515
1906,Myrtle Street,71101,32.5083619,-93.7698851
1922,Myrtle Street,71101,32.5083548,-93.7704088
1926,Myrtle Street,71101,32.5083540,-93.7705629
1936,Myrtle Street,71101,32.5083539,-93.7707974
1944,Myrtle Street,71101,32.5083542,-93.7710506
1958,Myrtle Street,71101,32.5083545,-93.7715752
1915,Perrin Street,71101,32.5096000,-93.7701627
1921,Perrin Street,71101,32.5095974,-93.7703158
1945,Perrin Street,71101,32.5095921,-93.7711217
1953,Perrin Street,71101,32.5095929,-93.7713154
1902,Perrin Street,71101,32.5100800,-93.7696794
202,Hartman Street,71101,32.5096626,-93.7741903
206,Hartman Street,71101,32.5095478,-93.7741891
208,Hartman Street,71101,32.5093887,-93.7741894
1912,Perrin Street,71101,32.5100834,-93.7700195
1916,Perrin Street,71101,32.5100819,-93.7701632
1932,Perrin Street,71101,32.5100798,-93.7706493
1936,Perrin Street,71101,32.5100815,-93.7708203
1940,Perrin Street,71101,32.5100812,-93.7709786
1944,Perrin Street,71101,32.5100787,-93.7711224
1909,Alston Street,71101,32.5124786,-93.7698909
1917,Alston Street,71101,32.5124793,-93.7701537
1921,Alston Street,71101,32.5124805,-93.7702823
1925,Alston Street,71101,32.5124790,-93.7704091
1931,Alston Street,71101,32.5124796,-93.7705377
1933,Alston Street,71101,32.5124802,-93.7706684
1943,Alston Street,71101,32.5124836,-93.7709334
1945,Alston Street,71101,32.5124843,-93.7710546
1949,Alston Street,71101,32.5124855,-93.7711874
1953,Alston Street,71101,32.5124873,-93.7713114
1957,Alston Street,71101,32.5124894,-93.7714014
1959,Alston Street,71101,32.5124910,-93.7714685
1906,Alston Street,71101,32.5129802,-93.7699225
1936,Alston Street,71101,32.5129832,-93.7707993
1940,Alston Street,71101,32.5129878,-93.7709232
1944,Alston Street,71101,32.5129904,-93.7710570
1948,Alston Street,71101,32.5129910,-93.7711801
1952,Alston Street,71101,32.5129908,-93.7713067
1956,Alston Street,71101,32.5129905,-93.7714260
1933,Clay Street,71101,32.5133489,-93.7708004
1937,Clay Street,71101,32.5133493,-93.7709237
1941,Clay Street,71101,32.5133511,-93.7710479
1945,Clay Street,71101,32.5133515,-93.7711720
1949,Clay Street,71101,32.5133517,-93.7712790
102,North Dale Avenue,71101,32.5109716,-93.7696969
108,North Dale Avenue,71101,32.5112703,-93.7697660
112,North Dale Avenue,71101,32.5114260,-93.7697677
202,North Dale Avenue,71101,32.5119344,-93.7697127
206,North Dale Avenue,71101,32.5120487,-93.7697137
210,North Dale Avenue,71101,32.5121689,-93.7697145
214,North Dale Avenue,71101,32.5123571,-93.7697152
319,North Dale Avenue,71101,32.5133599,-93.7693678
321,North Dale Avenue,71101,32.5134450,-93.7693690
306,North Dale Avenue,71101,32.5129820,-93.7697035
401,North Dale Avenue,71101,32.5137491,-93.7693384
403,North Dale Avenue,71101,32.5138565,-93.7693402
405,North Dale Avenue,71101,32.5139712,-93.7693409
1915,Grover Street,71101,32.5115506,-93.7700181
1921,Grover Street,71101,32.5115519,-93.7701445
1935,Grover Street,71101,32.5115506,-93.7706744
1937,Grover Street,71101,32.5115526,-93.7708050
1945,Grover Street,71101,32.5115553,-93.7711239
1910,Grover Street,71101,32.5120503,-93.7698995
1928,Grover Street,71101,32.5120482,-93.7705583
1946,Grover Street,71101,32.5120512,-93.7710681
1956,Grover Street,71101,32.5120481,-93.7714636
1727,Anna Street,71101,32.5060292,-93.7671587
1739,Anna Street,71101,32.5060308,-93.7673015
1712,Anna Street,71101,32.5065573,-93.7665233
1716,Anna Street,71101,32.5065598,-93.7666541
1724,Anna Street,71101,32.5065625,-93.7669722
1730,Anna Street,71101,32.5065628,-93.7671523
1736,Anna Street,71101,32.5064678,-93.7672954
1801,Anna Street,71101,32.5060294,-93.7676118
1853,Anna Street,71101,32.5060330,-93.7691585
1822,Anna Street,71101,32.5065566,-93.7681347
1826,Anna Street,71101,32.5065561,-93.7682604
1828,Anna Street,71101,32.5065561,-93.7683839
323,Boisseau Avenue,71101,32.5082172,-93.7658323
325,Boisseau Avenue,71101,32.5081263,-93.7658312
331,Boisseau Avenue,71101,32.5080275,-93.7658298
335,Boisseau Avenue,71101,32.5079644,-93.7658300
318,Boisseau Avenue,71101,32.5084614,-93.7664213
328,Boisseau Avenue,71101,32.5081285,-93.7664215
332,Boisseau Avenue,71101,32.5080275,-93.7664211
338,Boisseau Avenue,71101,32.5079160,-93.7664186
403,Boisseau Avenue,71101,32.5077865,-93.7659477
405,Boisseau Avenue,71101,32.5076672,-93.7658637
404,Boisseau Avenue,71101,32.5076777,-93.7664167
408,Boisseau Avenue,71101,32.5075820,-93.7664139
504,Boisseau Avenue,71101,32.5070480,-93.7663389
508,Boisseau Avenue,71101,32.5068803,-93.7663371
1723,Logan Street,71101,32.5069802,-93.7668993
1739,Logan Street,71101,32.5069771,-93.7672990
1720,Logan Street,71101,32.5074904,-93.7668795
1740,Logan Street,71101,32.5074883,-93.7673887
1807,Logan Street,71101,32.5069726,-93.7678728
1811,Logan Street,71101,32.5069757,-93.7681289
1815,Logan Street,71101,32.5069761,-93.7682570
1817,Logan Street,71101,32.5069769,-93.7683809
1843,Logan Street,71101,32.5069809,-93.7689039
1845,Logan Street,71101,32.5069815,-93.7690357
1804,Logan Street,71101,32.5074688,-93.7678780
1826,Logan Street,71101,32.5074657,-93.7685175
1830,Logan Street,71101,32.5074650,-93.7687778
1840,Logan Street,71101,32.5074644,-93.7689082
1842,Logan Street,71101,32.5074646,-93.7690364
319,Sycamore Avenue,71101,32.5083890,-93.7670810
327,Sycamore Avenue,71101,32.5082257,-93.7672898
312,Sycamore Avenue,71101,32.5087671,-93.7677255
314,Sycamore Avenue,71101,32.5083673,-93.7677275
437,Sycamore Avenue,71101,32.5079409,-93.7669483
439,Sycamore Avenue,71101,32.5077992,-93.7672514
441,Sycamore Avenue,71101,32.5077976,-93.7668869
102,Boisseau Avenue,71101,32.5105453,-93.7663737
208,Boisseau Avenue,71101,32.5095509,-93.7662859
214,Boisseau Avenue,71101,32.5094544,-93.7662841
1715,Ford Street,71101,32.5105465,-93.7666780
1853,Ford Street,71101,32.5105383,-93.7690731
1859,Ford Street,71101,32.5106312,-93.7693411
1820,Ford Street,71101,32.5110874,-93.7682350
1828,Ford Street,71101,32.5110871,-93.7684766
1840,Ford Street,71101,32.5110853,-93.7687215
1860,Ford Street,71101,32.5110844,-93.7693812
1707,Garden Street,71101,32.5087579,-93.7665009
1731,Garden Street,71101,32.5087601,-93.7672149
1733,Garden Street,71101,32.5087609,-93.7674319
1702,Garden Street,71101,32.5092348,-93.7661530
1710,Garden Street,71101,32.5092261,-93.7671508
1805,Garden Street,71101,32.5087698,-93.7678724
1807,Garden Street,71101,32.5087706,-93.7680008
1809,Garden Street,71101,32.5087713,-93.7681277
1831,Garden Street,71101,32.5087683,-93.7687992
1833,Garden Street,71101,32.5087697,-93.7689101
1851,Garden Street,71101,32.5087684,-93.7692981
1810,Garden Street,71101,32.5092444,-93.7680954
1814,Garden Street,71101,32.5092460,-93.7683433
1830,Garden Street,71101,32.5092469,-93.7687755
1842,Garden Street,71101,32.5092485,-93.7692887
1803,Myrtle Street,71101,32.5078851,-93.7677352
1823,Myrtle Street,71101,32.5078808,-93.7683949
1825,Myrtle Street,71101,32.5078822,-93.7685301
1855,Myrtle Street,71101,32.5078658,-93.7694396
1814,Myrtle Street,71101,32.5083662,-93.7681388
1818,Myrtle Street,71101,32.5083634,-93.7682638
1822,Myrtle Street,71101,32.5083654,-93.7683854
1824,Myrtle Street,71101,32.5083642,-93.7685059
1832,Myrtle Street,71101,32.5083651,-93.7686377
1838,Myrtle Street,71101,32.5083637,-93.7689119
1705,Perrin Street,71101,32.5096861,-93.7662862
1709,Perrin Street,71101,32.5096050,-93.7664937
1711,Perrin Street,71101,32.5096075,-93.7666110
1713,Perrin Street,71101,32.5096092,-93.7666867
1723,Perrin Street,71101,32.5096090,-93.7669751
1727,Perrin Street,71101,32.5096093,-93.7671463
1731,Perrin Street,71101,32.5096111,-93.7673007
1735,Perrin Street,71101,32.5096115,-93.7674551
1720,Perrin Street,71101,32.5101037,-93.7668167
1732,Perrin Street,71101,32.5101007,-93.7673835
1807,Perrin Street,71101,32.5096025,-93.7680799
1809,Perrin Street,71101,32.5096045,-93.7682147
1831,Perrin Street,71101,32.5096415,-93.7691592
1833,Perrin Street,71101,32.5096430,-93.7692659
1837,Perrin Street,71101,32.5096426,-93.7693757
1810,Perrin Street,71101,32.5100899,-93.7682123
1824,Perrin Street,71101,32.5100848,-93.7686937
1826,Perrin Street,71101,32.5100837,-93.7688454
1828,Perrin Street,71101,32.5100836,-93.7690073
1846,Perrin Street,71101,32.5100848,-93.7692643
1815,Alston Street,71101,32.5124553,-93.7678090
1817,Alston Street,71101,32.5124544,-93.7679401
1819,Alston Street,71101,32.5124555,-93.7680727
1837,Alston Street,71101,32.5124486,-93.7685978
1804,Alston Street,71101,32.5129919,-93.7680679
1812,Alston Street,71101,32.5129892,-93.7683186
1840,Alston Street,71101,32.5129878,-93.7685921
1856,Alston Street,71101,32.5129843,-93.7690023
1860,Alston Street,71101,32.5129839,-93.7691270
1715,Clay Street,71101,32.5134085,-93.7669648
1741,Clay Street,71101,32.5134985,-93.7678504
404,Sheppard Street,71101,32.5138729,-93.7683172
408,Sheppard Street,71101,32.5139986,-93.7683190
417,Sheppard Street,71101,32.5141241,-93.7683208
1853,Clay Street,71101,32.5134210,-93.7691364
1819,Saint John Street,71101,32.5119833,-93.7679435
1823,Saint John Street,71101,32.5119827,-93.7680775
1829,Saint John Street,71101,32.5119830,-93.7683310
1833,Saint John Street,71101,32.5119840,-93.7684614
1837,Saint John Street,71101,32.5119821,-93.7685934
1845,Saint John Street,71101,32.5119740,-93.7691091
1863,Saint John Street,71101,32.5119758,-93.7693683
1826,Saint John Street,71101,32.5124554,-93.7682142
1830,Saint John Street,71101,32.5124508,-93.7684634
1846,Saint John Street,71101,32.5123592,-93.7691204
1862,Saint John Street,71101,32.5124402,-93.7692377
231,Saint Luke Street,71101,32.5117205,-93.7670163
243,Saint Luke Street,71101,32.5120658,-93.7670161
1805,Saint Paul Street,71101,32.5110938,-93.7676156
1813,Saint Paul Street,71101,32.5110918,-93.7678721
1831,Saint Paul Street,71101,32.5110869,-93.7683532
1824,Saint Paul Street,71101,32.5115604,-93.7682063
1828,Saint Paul Street,71101,32.5115622,-93.7683335
1832,Saint Paul Street,71101,32.5115601,-93.7684631
1836,Saint Paul Street,71101,32.5115590,-93.7685991
1844,Saint Paul Street,71101,32.5115567,-93.7688490
1854,Saint Paul Street,71101,32.5115542,-93.7692466
209,Webster Street,71101,32.5111695,-93.7661953
225,Webster Street,71101,32.5115121,-93.7661109
229,Webster Street,71101,32.5116166,-93.7661132
239,Webster Street,71101,32.5119397,-93.7661119
243,Webster Street,71101,32.5120567,-93.7661133
247,Webster Street,71101,32.5121649,-93.7661162
251,Webster Street,71101,32.5122723,-93.7661178
255,Webster Street,71101,32.5123812,-93.7661208
259,Webster Street,71101,32.5124906,-93.7661227
263,Webster Street,71101,32.5125924,-93.7661259
220,Webster Street,71101,32.5115097,-93.7666127
222,Webster Street,71101,32.5116155,-93.7666156
232,Webster Street,71101,32.5117180,-93.7666190
234,Webster Street,71101,32.5118321,-93.7666209
236,Webster Street,71101,32.5119478,-93.7666197
242,Webster Street,71101,32.5120577,-93.7666179
244,Webster Street,71101,32.5121624,-93.7666183
252,Webster Street,71101,32.5122723,-93.7666188
254,Webster Street,71101,32.5123807,-93.7666239
258,Webster Street,71101,32.5124782,-93.7666270
417,Webster Street,71101,32.5142062,-93.7660623
1521,Anna Street,71101,32.5060600,-93.7618454
1529,Anna Street,71101,32.5060599,-93.7620443
1533,Anna Street,71101,32.5060605,-93.7621925
1539,Anna Street,71101,32.5060614,-93.7623968
1553,Anna Street,71101,32.5060587,-93.7628774
1510,Anna Street,71101,32.5065445,-93.7614295
1526,Anna Street,71101,32.5065591,-93.7619590
1530,Anna Street,71101,32.5065605,-93.7620895
1534,Anna Street,71101,32.5065611,-93.7622224
1536,Anna Street,71101,32.5065624,-93.7623509
1600,Anna Street,71101,32.5064614,-93.7634767
1614,Anna Street,71101,32.5065476,-93.7637345
1618,Anna Street,71101,32.5065484,-93.7638683
1628,Anna Street,71101,32.5065495,-93.7641462
1638,Anna Street,71101,32.5065494,-93.7645203
1523,Logan Street,71101,32.5070082,-93.7618355
1545,Logan Street,71101,32.5070024,-93.7626060
1553,Logan Street,71101,32.5069996,-93.7628964
1550,Logan Street,71101,32.5073891,-93.7628022
1611,Logan Street,71101,32.5069707,-93.7636155
1617,Logan Street,71101,32.5069710,-93.7638306
1621,Logan Street,71101,32.5069693,-93.7640145
1625,Logan Street,71101,32.5069686,-93.7641374
1631,Logan Street,71101,32.5069702,-93.7642649
1639,Logan Street,71101,32.5069733,-93.7645246
1612,Logan Street,71101,32.5075522,-93.7637237
1616,Logan Street,71101,32.5075526,-93.7638362
1624,Logan Street,71101,32.5075531,-93.7641078
1628,Logan Street,71101,32.5075534,-93.7642289
1632,Logan Street,71101,32.5075538,-93.7643507
1640,Logan Street,71101,32.5075519,-93.7644815
1642,Logan Street,71101,32.5075523,-93.7646192
1646,Logan Street,71101,32.5075529,-93.7647566
1648,Logan Street,71101,32.5075527,-93.7648846
1652,Logan Street,71101,32.5075529,-93.7650109
1654,Logan Street,71101,32.5075522,-93.7651379
1664,Logan Street,71101,32.5075551,-93.7652664
1666,Logan Street,71101,32.5075543,-93.7653939
1668,Logan Street,71101,32.5075557,-93.7655183
1674,Logan Street,71101,32.5074587,-93.7658597
1521,Myrtle Street,71101,32.5077595,-93.7618224
1529,Myrtle Street,71101,32.5077578,-93.7620030
1555,Myrtle Street,71101,32.5077819,-93.7629255
1559,Myrtle Street,71101,32.5077814,-93.7630429
1627,Myrtle Street,71101,32.5080521,-93.7639411
1631,Myrtle Street,71101,32.5080484,-93.7642089
1633,Myrtle Street,71101,32.5080471,-93.7643387
1635,Myrtle Street,71101,32.5080496,-93.7644556
1639,Myrtle Street,71101,32.5080488,-93.7645926
1643,Myrtle Street,71101,32.5080479,-93.7647244
1645,Myrtle Street,71101,32.5080472,-93.7648409
1649,Myrtle Street,71101,32.5080483,-93.7649726
1655,Myrtle Street,71101,32.5080463,-93.7650917
1657,Myrtle Street,71101,32.5080450,-93.7652243
1659,Myrtle Street,71101,32.5080429,-93.7653664
1661,Myrtle Street,71101,32.5080417,-93.7654782
1634,Myrtle Street,71101,32.5083751,-93.7642124
1636,Myrtle Street,71101,32.5083743,-93.7643350
1638,Myrtle Street,71101,32.5083751,-93.7644577
1640,Myrtle Street,71101,32.5083743,-93.7645863
1642,Myrtle Street,71101,32.5083739,-93.7647258
1644,Myrtle Street,71101,32.5083726,-93.7648530
1646,Myrtle Street,71101,32.5083748,-93.7649834
1648,Myrtle Street,71101,32.5083760,-93.7651023
1650,Myrtle Street,71101,32.5083766,-93.7652271
1652,Myrtle Street,71101,32.5083761,-93.7653621
316,Pierre Avenue,71101,32.5082207,-93.7634937
320,Pierre Avenue,71101,32.5080687,-93.7634919
1617,Buena Vista Street,71101,32.5115972,-93.7637625
1621,Buena Vista Street,71101,32.5115992,-93.7639324
1635,Buena Vista Street,71101,32.5115987,-93.7644804
1634,Buena Vista Street,71101,32.5120978,-93.7644253
1640,Buena Vista Street,71101,32.5121028,-93.7645483
1644,Buena Vista Street,71101,32.5120998,-93.7646752
1648,Buena Vista Street,71101,32.5121001,-93.7648035
1539,Ford Street,71101,32.5106612,-93.7623375
1541,Ford Street,71101,32.5106587,-93.7625492
1528,Ford Street,71101,32.5111890,-93.7620194
1534,Ford Street,71101,32.5111896,-93.7622746
1536,Ford Street,71101,32.5111914,-93.7623987
1540,Ford Street,71101,32.5111924,-93.7625343
1548,Ford Street,71101,32.5111917,-93.7627213
1554,Ford Street,71101,32.5111929,-93.7629721
1655,Ford Street,71101,32.5107059,-93.7654287
1657,Ford Street,71101,32.5105304,-93.7655538
1659,Ford Street,71101,32.5106916,-93.7655794
1663,Ford Street,71101,32.5106825,-93.7657180
1667,Ford Street,71101,32.5106738,-93.7658283
1671,Ford Street,71101,32.5106586,-93.7659572
1620,Ford Street,71101,32.5111716,-93.7639027
1624,Ford Street,71101,32.5111719,-93.7640273
1628,Ford Street,71101,32.5111720,-93.7641661
1640,Ford Street,71101,32.5111737,-93.7645532
1656,Ford Street,71101,32.5111286,-93.7651257
1529,Garden Street,71101,32.5087615,-93.7621376
1533,Garden Street,71101,32.5087624,-93.7623310
1549,Garden Street,71101,32.5087620,-93.7627831
1534,Garden Street,71101,32.5093118,-93.7623016
1556,Garden Street,71101,32.5093078,-93.7630059
1611,Garden Street,71101,32.5087707,-93.7636273
1617,Garden Street,71101,32.5087724,-93.7638385
1677,Garden Street,71101,32.5087558,-93.7658295
1614,Garden Street,71101,32.5093025,-93.7637598
1634,Garden Street,71101,32.5092876,-93.7645432
1642,Garden Street,71101,32.5092872,-93.7646684
139,Hamilton Street,71101,32.5097642,-93.7618558
147,Hamilton Street,71101,32.5096005,-93.7618538
112,Hamilton Street,71101,32.5104793,-93.7624532
122,Hamilton Street,71101,32.5102689,-93.7624496
142,Hamilton Street,71101,32.5097053,-93.7624193
127,Pierre Avenue,71101,32.5101324,-93.7629263
108,Pierre Avenue,71101,32.5105804,-93.7635590
120,Pierre Avenue,71101,32.5101958,-93.7635033
201,Pierre Avenue,71101,32.5100133,-93.7629233
205,Pierre Avenue,71101,32.5099011,-93.7629215
215,Pierre Avenue,71101,32.5097091,-93.7629145
202,Pierre Avenue,71101,32.5098565,-93.7635023
216,Pierre Avenue,71101,32.5095070,-93.7634957
220,Pierre Avenue,71101,32.5093837,-93.7634929
224,Pierre Avenue,71101,32.5092684,-93.7634925
1621,Templeman Street,71101,32.5097842,-93.7640243
1639,Templeman Street,71101,32.5097704,-93.7645412
1643,Templeman Street,71101,32.5097694,-93.7646721
1616,Templeman Street,71101,32.5102731,-93.7638880
1650,Templeman Street,71101,32.5102617,-93.7650717
1654,Templeman Street,71101,32.5102617,-93.7652399
1672,Templeman Street,71101,32.5102565,-93.7657121
1516,Alston Street,71101,32.5130015,-93.7616231
1540,Alston Street,71101,32.5129973,-93.7624105
1544,Alston Street,71101,32.5129975,-93.7625338
1601,Alston Street,71101,32.5125000,-93.7634106
1605,Alston Street,71101,32.5125026,-93.7636620
1607,Alston Street,71101,32.5125049,-93.7637920
1609,Alston Street,71101,32.5125010,-93.7639275
1611,Alston Street,71101,32.5125017,-93.7640575
1613,Alston Street,71101,32.5125056,-93.7641754
1615,Alston Street,71101,32.5125042,-93.7642972
1617,Alston Street,71101,32.5125063,-93.7644215
1614,Alston Street,71101,32.5129805,-93.7638899
1636,Alston Street,71101,32.5129848,-93.7644128
1609,Clay Street,71101,32.5134066,-93.7636120
1623,Clay Street,71101,32.5134076,-93.7639651
1600,Clay Street,71101,32.5139142,-93.7633687
1606,Clay Street,71101,32.5139155,-93.7634886
111,Leroy Street,71101,32.5112877,-93.7651308
125,Leroy Street,71101,32.5116883,-93.7650704
114,Leroy Street,71101,32.5113852,-93.7656418
118,Leroy Street,71101,32.5115029,-93.7656460
122,Leroy Street,71101,32.5116167,-93.7656472
126,Leroy Street,71101,32.5117146,-93.7656485
201,Leroy Street,71101,32.5119852,-93.7650855
203,Leroy Street,71101,32.5121036,-93.7650875
205,Leroy Street,71101,32.5122167,-93.7650916
221,Leroy Street,71101,32.5124003,-93.7650276
206,Leroy Street,71101,32.5120571,-93.7656579
214,Leroy Street,71101,32.5122760,-93.7656654
218,Leroy Street,71101,32.5123860,-93.7656687
222,Leroy Street,71101,32.5124982,-93.7656723
1675,Alston Street,71101,32.5126012,-93.7656762
1537,Buena Vista Street,71101,32.5115811,-93.7622646
1543,Buena Vista Street,71101,32.5115860,-93.7625363
1547,Buena Vista Street,71101,32.5115880,-93.7626603
1551,Buena Vista Street,71101,32.5115899,-93.7627899
1522,Buena Vista Street,71101,32.5120997,-93.7619005
1532,Buena Vista Street,71101,32.5120996,-93.7621456
1525,Clay Street,71101,32.5134139,-93.7620209
1531,Clay Street,71101,32.5134151,-93.7621521
1533,Clay Street,71101,32.5134157,-93.7622749
415,Pierre Avenue,71101,32.5075149,-93.7626634
1649,Logan Street,71101,32.5069723,-93.7648976
1657,Logan Street,71101,32.5069705,-93.7651147
1659,Logan Street,71101,32.5069722,-93.7652142
1663,Logan Street,71101,32.5069742,-93.7653110
1665,Logan Street,71101,32.5069749,-93.7654070
1677,Logan Street,71101,32.5069766,-93.7657685
1552,Clay Street,71101,32.5139321,-93.7627983
1634,Clay Street,71101,32.5139042,-93.7646192
1638,Clay Street,71101,32.5139064,-93.7647899
1642,Clay Street,71101,32.5139068,-93.7649448
1666,Clay Street,71101,32.5138992,-93.7654353
1647,Anna Street,71101,32.5060496,-93.7648518
1653,Anna Street,71101,32.5060484,-93.7649980
1655,Anna Street,71101,32.5060487,-93.7651196
1659,Anna Street,71101,32.5060485,-93.7652407
1665,Anna Street,71101,32.5060494,-93.7653715
1673,Anna Street,71101,32.5060536,-93.7656399
1679,Anna Street,71101,32.5060509,-93.7659140
1685,Anna Street,71101,32.5060512,-93.7660438
1648,Anna Street,71101,32.5065525,-93.7648498
1650,Anna Street,71101,32.5065542,-93.7650632
1656,Anna Street,71101,32.5065550,-93.7652114
1664,Anna Street,71101,32.5065523,-93.7653632
300,Pierre Avenue,71101,32.5088797,-93.7634336
1516,Myrtle Street,71101,32.5082217,-93.7617511
1530,Myrtle Street,71101,32.5082241,-93.7621299
1540,Myrtle Street,71101,32.5082247,-93.7625295
1550,Myrtle Street,71101,32.5082271,-93.7627763
1556,Myrtle Street,71101,32.5082283,-93.7630401
1532,Clay Street,71101,32.5139287,-93.7621420
331,Allen Avenue,71101,32.5081338,-93.7607400
337,Allen Avenue,71101,32.5079349,-93.7607376
308,Allen Avenue,71101,32.5087531,-93.7613900
312,Allen Avenue,71101,32.5086301,-93.7613884
318,Allen Avenue,71101,32.5085182,-93.7613876
401,Allen Avenue,71101,32.5077926,-93.7607376
407,Allen Avenue,71101,32.5076628,-93.7607376
411,Allen Avenue,71101,32.5075168,-93.7607345
402,Allen Avenue,71101,32.5078030,-93.7613867
406,Allen Avenue,71101,32.5077028,-93.7613867
410,Allen Avenue,71101,32.5076047,-93.7613866
414,Allen Avenue,71101,32.5075021,-93.7613860
416,Allen Avenue,71101,32.5073955,-93.7613845
513,Allen Avenue,71101,32.5067131,-93.7608385
1415,Anna Street,71101,32.5060263,-93.7595588
1421,Anna Street,71101,32.5060278,-93.7596812
1439,Anna Street,71101,32.5060415,-93.7602633
1455,Anna Street,71101,32.5060450,-93.7607378
1459,Anna Street,71101,32.5060476,-93.7608811
1412,Anna Street,71101,32.5065233,-93.7593370
1416,Anna Street,71101,32.5066066,-93.7595091
1420,Anna Street,71101,32.5066081,-93.7596532
1424,Anna Street,71101,32.5066111,-93.7597885
1444,Anna Street,71101,32.5066117,-93.7605027
1450,Anna Street,71101,32.5066144,-93.7606356
1421,Logan Street,71101,32.5069979,-93.7597149
1414,Logan Street,71101,32.5074741,-93.7594648
316,Pete Harris Drive,71101,32.5088221,-93.7592697
314,Pete Harris Drive,71101,32.5086368,-93.7592666
318,Pete Harris Drive,71101,32.5085512,-93.7592676
1410,Logan Street,71101,32.5083961,-93.7592659
425,Pete Harris Drive,71101,32.5076946,-93.7585594
427,Pete Harris Drive,71101,32.5075980,-93.7585593
402,Pete Harris Drive,71101,32.5082971,-93.7592661
507,Pete Harris Drive,71101,32.5070421,-93.7586442
500,Pete Harris Drive,71101,32.5071287,-93.7592195
506,Pete Harris Drive,71101,32.5070054,-93.7592190
510,Pete Harris Drive,71101,32.5069040,-93.7592183
514,Pete Harris Drive,71101,32.5068031,-93.7592173
518,Pete Harris Drive,71101,32.5066942,-93.7592181
111,Allen Avenue,71101,32.5104495,-93.7608043
113,Allen Avenue,71101,32.5103612,-93.7608040
139,Allen Avenue,71101,32.5097613,-93.7607993
141,Allen Avenue,71101,32.5095701,-93.7607967
120,Allen Avenue,71101,32.5104329,-93.7613856
128,Allen Avenue,71101,32.5100807,-93.7613800
106,Pine Street,71101,32.5106156,-93.7601812
110,Pine Street,71101,32.5105409,-93.7601808
103,Pine Street,71101,32.5107691,-93.7597848
111,Pine Street,71101,32.5104828,-93.7597792
221,Pine Street,71101,32.5100764,-93.7597768
145,Pine Street,71101,32.5093933,-93.7597479
422,Allendale Street,71101,32.5083879,-93.7602685
430,Allendale Street,71101,32.5082414,-93.7601889
440,Allendale Street,71101,32.5079041,-93.7602167
1433,Ford Street,71101,32.5107516,-93.7601823
1435,Ford Street,71101,32.5106899,-93.7604383
1420,Ford Street,71101,32.5112159,-93.7595389
1424,Ford Street,71101,32.5112166,-93.7597186
1436,Ford Street,71101,32.5112134,-93.7601323
1440,Ford Street,71101,32.5112141,-93.7602585
1444,Ford Street,71101,32.5112141,-93.7603872
1429,Forte Street,71101,32.5096857,-93.7598105
1432,Garden Street,71101,32.5092991,-93.7601106
1438,Garden Street,71101,32.5093004,-93.7602654
1444,Garden Street,71101,32.5093007,-93.7604350
1448,Garden Street,71101,32.5093005,-93.7605466
1452,Garden Street,71101,32.5093023,-93.7606990
1456,Garden Street,71101,32.5093025,-93.7608938
1421,Buena Vista Street,71101,32.5115903,-93.7597179
810,Louisiana Avenue,71101,32.5085773,-93.7489949
802,Common Street,71101,32.5078846,-93.7501274
727,Crockett Street,71101,32.5090222,-93.7505333
1427,Buena Vista Street,71101,32.5115898,-93.7598670
1431,Buena Vista Street,71101,32.5115898,-93.7600035
1433,Buena Vista Street,71101,32.5115893,-93.7601343
1443,Buena Vista Street,71101,32.5115907,-93.7604340
1449,Buena Vista Street,71101,32.5115905,-93.7606124
1444,Buena Vista Street,71101,32.5120947,-93.7605437
1452,Buena Vista Street,71101,32.5120913,-93.7607176
1460,Buena Vista Street,71101,32.5120917,-93.7608970
111,North Allen Avenue,71101,32.5112972,-93.7607107
115,North Allen Avenue,71101,32.5114757,-93.7608491
121,North Allen Avenue,71101,32.5117125,-93.7608523
315,North Allen Avenue,71101,32.5132754,-93.7609137
1403,Alston Street,71101,32.5125254,-93.7592224
1409,Alston Street,71101,32.5126150,-93.7593623
1411,Alston Street,71101,32.5124379,-93.7593591
1415,Alston Street,71101,32.5125271,-93.7594961
1425,Alston Street,71101,32.5125284,-93.7598839
1429,Alston Street,71101,32.5125289,-93.7600190
1414,Alston Street,71101,32.5129996,-93.7594926
1422,Alston Street,71101,32.5130031,-93.7597564
1430,Alston Street,71101,32.5130041,-93.7600095
1436,Alston Street,71101,32.5130048,-93.7601423
1440,Alston Street,71101,32.5130039,-93.7602720
1444,Alston Street,71101,32.5130045,-93.7604048
1450,Alston Street,71101,32.5130060,-93.7606726
1456,Alston Street,71101,32.5130084,-93.7609417
1405,Clay Street,71101,32.5134353,-93.7592263
1419,Clay Street,71101,32.5134401,-93.7596241
1451,Clay Street,71101,32.5134363,-93.7606697
1400,Clay Street,71101,32.5139226,-93.7590943
1406,Clay Street,71101,32.5139229,-93.7592316
1422,Clay Street,71101,32.5139140,-93.7597435
1424,Clay Street,71101,32.5139148,-93.7598769
1438,Clay Street,71101,32.5139131,-93.7602782
1450,Clay Street,71101,32.5139103,-93.7606834
1452,Clay Street,71101,32.5139111,-93.7607821
1454,Clay Street,71101,32.5139125,-93.7608675
108,North Western Avenue,71101,32.5111421,-93.7592577
122,North Western Avenue,71101,32.5115102,-93.7592557
214,North Western Avenue,71101,32.5125265,-93.7590679
1437,Logan Street,71101,32.5069929,-93.7602390
1401,Ford Street,71101,32.5106825,-93.7593211
1415,Ford Street,71101,32.5106784,-93.7595666
1433,Garden Street,71101,32.5088516,-93.7600498
1422,Garden Street,71101,32.5092203,-93.7597451
518,North Pierre Avenue,71101,32.5151354,-93.7635440
524,North Pierre Avenue,71101,32.5152501,-93.7635441
425,North Allen Avenue,71101,32.5144670,-93.7608686
423,North Allen Avenue,71101,32.5143545,-93.7608663
419,North Allen Avenue,71101,32.5142480,-93.7608665
1415,Patzman Street,71101,32.5143148,-93.7595043
1443,Patzman Street,71101,32.5143170,-93.7604120
1507,Patzman Street,71101,32.5143365,-93.7615230
1513,Patzman Street,71101,32.5143353,-93.7616494
1515,Patzman Street,71101,32.5143331,-93.7617732
1549,Patzman Street,71101,32.5143236,-93.7627989
1553,Patzman Street,71101,32.5143262,-93.7629400
1557,Patzman Street,71101,32.5143262,-93.7630713
106,North McNeil Street,71101,32.5149414,-93.7541163
301,Douglas Street,71101,32.5118732,-93.7550143
301,Douglas Street,71101,32.5117119,-93.7548920
311,Douglas Street,71101,32.5116523,-93.7548363
1115,Caddo Street,71101,32.5108846,-93.7580270
117,Pete Harris Drive,71101,32.5105206,-93.7586389
143,Pete Harris Drive,71101,32.5094765,-93.7586900
161,Pete Harris Drive,71101,32.5090731,-93.7588710
130,Pete Harris Drive,71101,32.5098855,-93.7590952
134,Pete Harris Drive,71101,32.5097785,-93.7591207
140,Christian Street,71101,32.5101691,-93.7581596
144,Christian Street,71101,32.5100709,-93.7580596
148,Christian Street,71101,32.5099801,-93.7579735
104,Douglas Street,71101,32.5130239,-93.7567382
102,Douglas Street,71101,32.5131244,-93.7568289
100,Douglas Street,71101,32.5132208,-93.7569151
1109,View Street,71101,32.5116601,-93.7581507
613,Caddo Street,71101,32.5141632,-93.7532209
617,Caddo Street,71101,32.5140818,-93.7533334
619,Caddo Street,71101,32.5140082,-93.7534492
618,Caddo Street,71101,32.5144548,-93.7538742
621,Caddo Street,71101,32.5143183,-93.7540961
628,Caddo Street,71101,32.5142507,-93.7541930
707,Caddo Street,71101,32.5135339,-93.7541317
719,Caddo Street,71101,32.5132575,-93.7545130
516,Caddo Street,71101,32.5153125,-93.7527190
109,Spring Street,71101,32.5180173,-93.7493696
310,Christian Street,71101,32.5096109,-93.7574069
405,Christian Street,71101,32.5092296,-93.7565476
812,Travis Street,71101,32.5116011,-93.7539682
824,Travis Street,71101,32.5113042,-93.7544805
819,Travis Street,71101,32.5117002,-93.7546493
1206,Fannin Street,71101,32.5098771,-93.7578568
1222,Fannin Street,71101,32.5095868,-93.7581715
1232,Fannin Street,71101,32.5092681,-93.7585865
1205,Fannin Street,71101,32.5094059,-93.7577091
1227,Fannin Street,71101,32.5092624,-93.7580519
410,Lawrence Street,71101,32.5076637,-93.7582687
404,Mary Court,71101,32.5094133,-93.7562846
456,Mary Court,71101,32.5091273,-93.7562141
905,Travis Street,71101,32.5105784,-93.7544418
927,Travis Street,71101,32.5102254,-93.7549772
929,Travis Street,71101,32.5101699,-93.7550818
1208,Travis Street,71101,32.5093079,-93.7571511
1210,Travis Street,71101,32.5092143,-93.7573101
1212,Travis Street,71101,32.5091581,-93.7573955
1224,Travis Street,71101,32.5088895,-93.7576724
708,Fannin Street,71101,32.5131110,-93.7538302
712,Fannin Street,71101,32.5130355,-93.7539403
724,Fannin Street,71101,32.5128469,-93.7542224
730,Fannin Street,71101,32.5126536,-93.7542452
807,Fannin Street,71101,32.5121778,-93.7544659
815,Fannin Street,71101,32.5119756,-93.7547693
1241,Travis Street,71101,32.5082508,-93.7577369
1245,Travis Street,71101,32.5081600,-93.7578640
1253,Travis Street,71101,32.5080561,-93.7580217
1234,Travis Street,71101,32.5088017,-93.7579258
6900,Pines Road,71129-2516,32.4436612,-93.8646942
7008,Pines Road,71129-3415,32.4413279,-93.8621151
7008,Pines Road,71129-3415,32.4414619,-93.8621357
9380,Mansfield Road,71118-3181,32.3962794,-93.8108788
9352,Mansfield Road,71118-3127,32.3992316,-93.8081390
518,East Washington Street,71104,32.4849877,-93.7231411
538,East Washington Street,71104,32.4849884,-93.7225448
2618,C. E. Galloway Boulevard,71104,32.4850089,-93.7217638
539,Sykes Street,71104,32.4865280,-93.7210555
571,Lomax Street,71104,32.4870196,-93.7202941
3310,Youree Drive,71105,32.4791456,-93.7226023
3312,Youree Drive,71105,32.4789845,-93.7226023
3314,Youree Drive,71105,32.4788476,-93.7226023
727,Shreveport Barksdale Highway,71105,32.4781278,-93.7162565
731,Shreveport Barksdale Highway,71105,32.4781876,-93.7161388
733,Shreveport Barksdale Highway,71105,32.4781969,-93.7160556
741,Shreveport Barksdale Highway,71105,32.4782569,-93.7155530
735,Shreveport Barksdale Highway,71105,32.4782117,-93.7159286
737,Shreveport Barksdale Highway,71105,32.4782242,-93.7158226
739,Shreveport Barksdale Highway,71105,32.4782412,-93.7156858
789,Shreveport Barksdale Highway,71105,32.4794832,-93.7143794
783,Shreveport Barksdale Highway,71105,32.4791700,-93.7140909
779,Shreveport Barksdale Highway,71105,32.4790989,-93.7140611
773,Shreveport Barksdale Highway,71105,32.4790452,-93.7140541
767,Shreveport Barksdale Highway,71105,32.4789675,-93.7140476
759,Shreveport Barksdale Highway,71105,32.4788835,-93.7140390
755,Shreveport Barksdale Highway,71105,32.4787975,-93.7140278
4028,Sandra Street,71109,32.4738384,-93.8019979
3610,Jewella Avenue,71109,32.4775206,-93.7978174
3610,Jewella Avenue,71109,32.4775886,-93.7978174
3610,Jewella Avenue,71109,32.4776634,-93.7978174
3610,Jewella Avenue,71109,32.4777245,-93.7977423
3610,Jewella Avenue,71109,32.4777258,-93.7976379
4048,Hutchinson Street,71109,32.4718932,-93.8246727
4040,Hutchinson Street,71109,32.4720630,-93.8246748
4832,Greenwood Road,71109,32.4717320,-93.8262987
4840,Greenwood Road,71109,32.4717236,-93.8267963
5025,Jefferson Paige Road,71109,32.4710356,-93.8306614
4934,Greenwood Road,71109,32.4705941,-93.8303097
4932,Greenwood Road,71109,32.4705774,-93.8294729
4716,Greenwood Road,71109,32.4719072,-93.8238198
4712,Greenwood Road,71109,32.4721874,-93.8234608
4801,Greenwood Road,71109,32.4708248,-93.8259518
3100,West Bert Kouns Industrial Loop,71118-2924,32.4029077,-93.8150821
5920,Line Avenue,71106-2038,32.4535255,-93.7464228
7000,Mansfield Road,71108-5202,32.4414810,-93.7818577
1234,Grimmett Drive,71107,32.5335851,-93.7624703
1020,Bridgewater Avenue,71106,32.3571253,-93.7243100
1023,"Provenance Place Boulevard, Suite 210",71106,32.3570548,-93.7245419
1020,Bridgewater Avenue,71106,32.3570654,-93.7241998
1023,Provenance Place Boulevard,71106,32.3570133,-93.7246551
1024,Provenance Place Boulevard,71106,32.3566599,-93.7252608
10460,Norris Ferry Road,71106,32.3556931,-93.7146566
7230,Youree Drive,71105,32.4393583,-93.7172586
7230,Youree Drive,71105,32.4393402,-93.7173203
7230,Youree Drive,71105,32.4392200,-93.7176310
7230,Youree Drive,71105,32.4392551,-93.7175358
9320,Linwood Ave,71106,32.4030521,-93.7658300
1671,East 70th Street,71105,32.4428536,-93.7202151
1641,East 70th Street,71105,32.4430520,-93.7215455
7004,Youree Drive,71105,32.4428603,-93.7191653
1717,Claiborne Ave.,71103,32.4779502,-93.7657236
1719,Claiborne Ave.,71103,32.4779571,-93.7659154
1725,Claiborne Ave.,71103,32.4778717,-93.7664558
3505,Hillard,71103,32.4778067,-93.7659235
5610,Buncome Road,71129,32.4460716,-93.8442800
415,North Spring Street,71101,32.5162074,-93.7480169
3700,Saint Vincent Avenue,71103,32.4735082,-93.7594385
3301,Pershing Boulevard,71107,32.4754077,-93.7919871
2001,Ridgewood Drive,71118,32.3984436,-93.7915965
6001,Financial Plaza,71129,32.4528195,-93.8478165
5725,Financial Plaza,71129,32.4529201,-93.8503393
1601,North Market Street,71107,32.5369325,-93.7712156
104,Market Street,71101,32.5171442,-93.7512414
601,Texas Street,71101,32.5118642,-93.7506007
605,Texas Street,71101,32.5118473,-93.7507317
1000,Stewart Drive,71106,32.4017765,-93.7282659
4010,Jewella Avenue,71109,32.4740933,-93.7976173
2900,North Market Street,71107,32.5570937,-93.7823125
2544,West Bert Kouns Industrial Loop,71118,32.4025160,-93.8007169
1650,East Bert Kouns Industrial Loop,71105,32.4314745,-93.7138042
6707,Pines Road,71129,32.4472159,-93.8633112
3222,Greenwood Road,71109,32.4801095,-93.7913825
2600,Greenwood Road,71103,32.4848386,-93.7785765
1111,Academy Drive,71115,32.4144052,-93.7178597
3500,Beverly Place,71104,32.4728029,-93.7300448
3101,Esplanade Avenue,71109,32.4807092,-93.8071604
2715,Corbitt Street,71108,32.4628153,-93.7811554
1,University Place,71115,32.4296875,-93.7011017
6703,Pines Road,71129,32.4480718,-93.8643108
6705,Pines Road,71129,32.4475738,-93.8637784
6710,Pines Road,71129,32.4476994,-93.8658061
6235,West Port Avenue,71129,32.4463875,-93.8677845
6241,West Port Avenue,71129,32.4487726,-93.8671173
4747,Creswell Avenue,71106,32.4587738,-93.7410325
582,East 70th Street,71106,32.4422838,-93.7463857
1573,Texas Avenue,71103,32.4961607,-93.7573853
3100,Samford Avenue,71103,32.4810085,-93.7576441
1541,Kings Highway,71103,32.4811711,-93.7618259
2510,West Bert Kouns Industrial Loop,71118,32.4037014,-93.7958543
9333,Linwood Avenue,71106,32.4037645,-93.7602766
9320,Linwood Avenue,71106,32.4030783,-93.7652355
1133,Saint Vincent Avenue,71104,32.4771149,-93.7529797
263,North Common Street,71101,32.5204136,-93.7607574
6115,East Kings Highway,71105,32.4478682,-93.7141000
4445,Youree Drive,71105,32.4588950,-93.7219016
289,Arthur Avenue,71105,32.4588808,-93.7217063
1120,Kings Highway,71104,32.4823244,-93.7534558
1100,Kings Highway,71104,32.4822767,-93.7525894
7301,Youree Drive,71105,32.4408716,-93.7141065
451,Clyde Fant Memorial Parkway,71107,32.5174116,-93.7443846
8001,Youree Drive,71115,32.4326157,-93.7085429
1645,East Bert Kouns Industrial Loop,71105,32.4282962,-93.7121053
1453,East Bert Kouns Industrial Loop,71105,32.4246353,-93.7172011
3102,Linwood Avenue,71103,32.4814593,-93.7632444
202,Commerce Street,71101,32.5177263,-93.7483598
215,Spring Street,71101,32.5173644,-93.7487223
107,Spring Street,71101,32.5181367,-93.7495967
330,Marshall Street,71101,32.5137749,-93.7510016
726,Cotton Street,71101,32.5086493,-93.7500385
820,Clyde Fant Memorial Parkway,71101,32.5134699,-93.7420581
501,Texas Street,71101,32.5120698,-93.7497245
315,Marshall Street,71101,32.5145089,-93.7508580
625,Dixie Garden Drive,71105,32.4592793,-93.7004880
441,Atlantic Avenue,71105,32.4628121,-93.7308753
105,East Southfield Road,71105,32.4553202,-93.7093832
2007,Captain Shreve Drive,71105,32.4601785,-93.7040251
2011,Captain Shreve Drive,71105,32.4599878,-93.7040335
2015,Captain Shreve Drive,71105,32.4597887,-93.7040180
2019,Captain Shreve Drive,71105,32.4596004,-93.7040324
2023,Captain Shreve Drive,71105,32.4594139,-93.7040470
2027,Captain Shreve Drive,71105,32.4592191,-93.7040572
2031,Captain Shreve Drive,71105,32.4590258,-93.7040735
2035,Captain Shreve Drive,71105,32.4588315,-93.7040855
2039,Captain Shreve Drive,71105,32.4586343,-93.7040880
2043,Captain Shreve Drive,71105,32.4584336,-93.7041062
2047,Captain Shreve Drive,71105,32.4582441,-93.7041241
2051,Captain Shreve Drive,71105,32.4580532,-93.7041299
2055,Captain Shreve Drive,71105,32.4578544,-93.7041482
2061,Captain Shreve Drive,71105,32.4576451,-93.7041478
2003,Dixie Garden Drive,71105,32.4604016,-93.7039716
1050,West Bert Kouns Industrial Loop,71118,32.4026911,-93.7886851
2758,Barret Street,71129,32.4870533,-93.7516940
2911,Centenary Boulevard,71104,32.4834194,-93.7335384
820,Cotton Street,71101,32.5079238,-93.7513681
525,Spring Street,71101,32.5146009,-93.7460276
118,Texas Street,71101,32.5154441,-93.7467293
120,Texas Street,71101,32.5153449,-93.7468687
420,Commerce Street,71101,32.5159438,-93.7465610
400,Commerce Street,71101,32.5161616,-93.7467774
415,Spring Street,71101,32.5156597,-93.7470062
401,Spring Street,71101,32.5158109,-93.7471763
215,Caddo Street,71101,32.5169284,-93.7494909
222,Spring Street,71101,32.5167898,-93.7489809
224,Spring Street,71101,32.5167071,-93.7489079
228,Spring Street,71101,32.5166315,-93.7487419
211,Market Street,71101,32.5164113,-93.7494395
201,Market Street,71101,32.5166676,-93.7496843
421,Market Street,71101,32.5146183,-93.7478721
218,Texas Street,71101,32.5147780,-93.7476448
216,Texas Street,71101,32.5148413,-93.7475558
214,Texas Street,71101,32.5148832,-93.7475016
212,Texas Street,71101,32.5149612,-93.7473940
204,Texas Street,71101,32.5150527,-93.7472635
509,Market Street,71101,32.5141853,-93.7473887
213,Texas Street,71101,32.5143733,-93.7469593
211,Texas Street,71101,32.5144110,-93.7469045
209,Texas Street,71101,32.5144485,-93.7468525
207,Texas Street,71101,32.5144872,-93.7467944
205,Texas Street,71101,32.5145288,-93.7467395
203,Texas Street,71101,32.5145712,-93.7466774
333,Milam Street,71101,32.5126455,-93.7475564
3333,Midway,71109,32.4664289,-93.7928286
705,Elvis Presley Avenue,71101,32.5079305,-93.7529923
605,Cotton Street,71101,32.5094161,-93.7482126
611,Cotton Street,71101,32.5091931,-93.7483868
800,Louisiana Avenue,71101,32.5088155,-93.7492094
725,Cotton Street,71101,32.5082333,-93.7496448
825,Cotton Street,71101,32.5075358,-93.7504203
724,McNeil Street,71101,32.5097929,-93.7486322
721,Louisiana Avenue,71101,32.5094412,-93.7491900
814,Cotton Street,71101,32.5082490,-93.7508048
802,Cotton Street,71101,32.5084518,-93.7505518
801,Crockett Street,71101,32.5087872,-93.7509094
6652,Youree Drive,71105,32.4446900,-93.7220391
6646,Youree Drive,71105,32.4452897,-93.7219223
617,Texas Street,71101,32.5115189,-93.7509211
613,Texas Street,71101,32.5115921,-93.7508213
621,Texas Street,71101,32.5114474,-93.7510219
625,Texas Street,71101,32.5114329,-93.7512656
610,Texas Street,71101,32.5122358,-93.7511813
610,Texas Street,71101,32.5121355,-93.7513225
3501,Champion Lake Boulevard,71105,32.4744812,-93.6920054
3050,Martin Luther King Junior Drive,71107,32.5463516,-93.8343454
1949,David Raines Road,71107,32.5443607,-93.8284603
1845,Linear Street,71107,32.5395595,-93.8138831
2550,Thomas E Howard Drive,71107,32.5562802,-93.8142920
1601,Viking Drive,71101,32.4975042,-93.7193843
124,North Common Street,71101,32.5174033,-93.7572156
1112,Wilkinson Street,71104,32.4857008,-93.7529776
1158,Rendall Street,71104,32.4864405,-93.7542760
1121,Rendall Street,71104,32.4860615,-93.7529775
1040,Kings Highway,71104,32.4821800,-93.7518135
2807,Southern Avenue,71104,32.4843085,-93.7543430
1101,Rendall Street,71104,32.4860610,-93.7524200
853,Rutherford Street,71104,32.4822030,-93.7479390
1111,Rendall Street,71104,32.4860555,-93.7528540
1138,Rendall Street,71104,32.4864305,-93.7536255
2601,Southern Avenue,71104,32.4868731,-93.7543573
1137,Leander Street,71104,32.4868439,-93.7535933
1141,Leander Street,71104,32.4868415,-93.7538720
2611,Southern Avenue,71104,32.4867006,-93.7543062
760,Kings Highway,71104,32.4816895,-93.7455780
1145,Rendall Street,71104,32.4860452,-93.7537612
1146,Rendall Street,71104,32.4864355,-93.7539536
510,West Kings Highway,71104,32.4823615,-93.7406324
1138,Wilkinson Street,71104,32.4857000,-93.7536040
2809,Southern Avenue,71104,32.4841445,-93.7543255
851,Rutherford Street,71104,32.4822675,-93.7477445
1137,Rendall Street,71104,32.4860334,-93.7536055
1133,Rendall Street,71104,32.4860435,-93.7534270
1152,Rendall Street,71104,32.4864420,-93.7541095
1151,Rendall Street,71104,32.4860415,-93.7539380
1102,Wilkinson Street,71104,32.4856730,-93.7524347
1107,Rendall Street,71104,32.4860550,-93.7527025
2813,Southern Avenue,71104,32.4839875,-93.7543355
1134,Wilkinson Street,71104,32.4856894,-93.7534281
1153,Rendall Street,71104,32.4860555,-93.7540900
1139,Leander Street,71104,32.4868240,-93.7537285
2835,Southern Avenue,71104,32.4834240,-93.7539630
1104,Wilkinson Street,71104,32.4856574,-93.7526817
326,Kings Highway,71104,32.4821180,-93.7369905
125,West Kings Highway,71104,32.4815380,-93.7324415
7033,Line Avenue,71106,32.4414795,-93.7456995
575,East 70th Street,71106,32.4416110,-93.7462935
3124,Line Avenue,71106,32.4807410,-93.7464620
825,Kings Highway,71106,32.4811850,-93.7471925
3215,Samford Avenue,71103,32.4795435,-93.7560835
505,East Kings Highway,71105,32.4812881,-93.7241279
504,East Kings Highway,71105,32.4808125,-93.7245755
520,East Kings Highway,71105,32.4804960,-93.7240410
3104,Youree Drive,71104,32.4814665,-93.7236780
524,East Kings Highway,71105,32.4804020,-93.7237400
437,West Kings Highway,71104,32.4815230,-93.7388050
530,East Kings Highway,71105,32.4803625,-93.7234522
3300,Youree Drive,71105,32.4800158,-93.7230220
512,East Kings Highway,71105,32.4806640,-93.7242980
3044,Youree Drive,71104,32.4818523,-93.7239474
3304,Youree Drive,71105,32.4795045,-93.7226820
503,East Kings Highway,71105,32.4813565,-93.7246180
3308,Youree Drive,71105,32.4793170,-93.7224945
3002,Girard Street,71104,32.4817532,-93.7242313
3646,Youree Drive,71105,32.4726000,-93.7225560
3565,Greenwood Road,71109,32.4750605,-93.7969220
3725,Jewella Avenue,71109,32.4780285,-93.7968975
3805,Jewella Avenue,71109,32.4759940,-93.7968090
2719,Fulton Street,71109,32.4716825,-93.7807140
3715,Jewella Avenue,71109,32.4778182,-93.7959855
3406,Greenwood Road,71109,32.4773910,-93.7932631
2001,North Hearne Avenue,71103,32.4923904,-93.7798944
4025,Jewella Avenue,71109,32.4735765,-93.7967770
2715,Fulton Street,71109,32.4716835,-93.7805550
2720,Midway Street,71109,32.4712390,-93.7806985
2723,Fulton Street,71109,32.4716790,-93.7808335
3636,Claiborne Avenue,71109,32.4787196,-93.7962912
4236,North Hearne Avenue,71103,32.4713000,-93.7804005
3570,Greenwood Road,71109,32.4758460,-93.7968145
3602,Claiborne Avenue,71109,32.4786541,-93.7953738
4230,North Hearne Avenue,71103,32.4716645,-93.7803605
2853,Jewella Avenue,71109,32.4849071,-93.7965917
521,East Kings Highway,71105,32.4811390,-93.7237463
1961,Midway Street,71108,32.4704776,-93.7711934
1622,Midway Street,71108,32.4712285,-93.7639990
5403,Virginia Avenue,71108,32.4599020,-93.7772245
3870,Linwood Avenue,71108,32.4706455,-93.7638870
4650,Mansfield Road,71108,32.4668906,-93.7752909
1956,Hollywood Avenue,71108,32.4568285,-93.7712440
2810,Lindholm Street,71108,32.4668975,-93.7831420
5755,Jewella Avenue,71109,32.4569731,-93.7969926
5604,Hearne Avenue,71108,32.4580125,-93.7803750
3735,Blair Drive,71103,32.4748550,-93.7661030
4231,North Hearne Avenue,71103,32.4713080,-93.7796565
2637,Fulton Street,71103,32.4716440,-93.7795195
1634,Midway Street,71108,32.4711515,-93.7643720
1625,Kings Highway,71103,32.4814640,-93.7639940
4205,North Hearne Avenue,71103,32.4715705,-93.7797180
3858,Linwood Avenue,71103,32.4716460,-93.7631470
2610,Claiborne Avenue,71103,32.4787997,-93.7779563
4409,Monkhouse Drive,71109,32.4698751,-93.8270233
4709,Greenwood Road,71109,32.4710544,-93.8231280
3829,Greenwood Road,71109,32.4714146,-93.8027907
1,Westwood Circle,71109,32.4693579,-93.8245137
4839,Greenwood Road,71109,32.4707708,-93.8266450
4442,Westwood Park Drive,71109,32.4694445,-93.8258905
4736,Lyba Street,71109,32.4648610,-93.8231550
4415,Westwood Park Drive,71109,32.4698710,-93.8254030
5103,Monkhouse Drive,71109,32.4598570,-93.8270590
5101,Westwood Park Drive,71109,32.4632595,-93.8249230
5226,Monkhouse Drive,71109,32.4572920,-93.8273780
4435,Westwood Park Drive,71109,32.4695619,-93.8254008
4427,Westwood Park Drive,71109,32.4697416,-93.8254262
4725,Greenwood Road,71109,32.4702991,-93.8241605
4434,Westwood Park Drive,71109,32.4695770,-93.8258975
3831,Greenwood Road,71109,32.4712267,-93.8036646
4410,Westwood Park Drive,71109,32.4700351,-93.8259081
4911,Monkhouse Drive,71109,32.4650480,-93.8268330
5020,Hollywood Avenue,71109,32.4572145,-93.8254515
4411,Westwood Park Drive,71109,32.4700501,-93.8253946
5204,Monkhouse Drive,71109,32.4582510,-93.8275710
4402,Westwood Park Drive,71109,32.4701680,-93.8258907
3835,Greenwood Road,71109,32.4711350,-93.8041245
4418,Westwood Park Drive,71109,32.4698896,-93.8259194
4426,Westwood Park Drive,71109,32.4697275,-93.8258880
3655,Hollywood Avenue,71109,32.4562710,-93.7969940
6363,Hearne Avenue,71108-4358,32.4492545,-93.7806460
6363,Hearne Avenue,71108,32.4496640,-93.7806610
3953,Hollywood Avenue,71109,32.4561840,-93.7965675
3651,Hollywood Avenue,71109,32.4561825,-93.7962942
1110,West 70th Street,71106,32.4428225,-93.7797140
533,Ockley Drive,71106,32.4689150,-93.7397969
300,Southfield Road,71105,32.4575035,-93.7225460
721,Southfield Rd,71106,32.4562955,-93.7448935
4105,Line Avenue,71106,32.4657510,-93.7455935
321,Southfield Road,71105,32.4562395,-93.7234935
317,Southfield Road,71105,32.4562050,-93.7230015
2640,Waggoner Avenue,71108,32.4546480,-93.7787395
2600,Celebration Cove,71105,32.4701356,-93.6907925
2600,Celebration Cove,71105,32.4703510,-93.6913551
2600,Celebration Cove,71105,32.4703189,-93.6910751
3554,Hilliard Street,71103,32.4764030,-93.7666246
6251,West Port Avenue,71129,32.4489718,-93.8687736
6704,Pines Road,71129,32.4471556,-93.8653243
6109,Financial Plaza,71129,32.4500869,-93.8615989
4923,Monkhouse Drive,71109,32.4636839,-93.8267874
1910,North Market Street,71107,32.5461385,-93.7764213
2910,Kitty Lane,71107,32.5471728,-93.7786542
1935,North Market Street,71107,32.5464785,-93.7781935
1927,North Market Street,71107,32.5461928,-93.7779724
1911,North Market Street,71107,32.5448154,-93.7770617
1733,North Market Street,71107-5209,32.5412965,-93.7749917
1612,North Market Street,71107,32.5388183,-93.7715980
1529,North Market Street,71107,32.5362443,-93.7704859
1906,North Market Street,71107,32.5456585,-93.7756371
1124,Fairfield Avenue,71101,32.5032580,-93.7505890
619,Louisiana Avenue,71101,32.5098441,-93.7505573
1251,Dalzell Street,71101,32.4886106,-93.7561914
2710,Alkay Drive,71118,32.4101676,-93.8007593
2400,Texas Avenue,71102,32.4885419,-93.7699597
2122,Greenwood Road,71103,32.4868035,-93.7710410
4000,Jewella Avenue,71109,32.4746150,-93.7976095
3707,Greenwood Road,71109,32.4726758,-93.7989606
451,Clyde Fant Pkwy,71101,32.5172594,-93.7445992
315,Clyde Fant Memorial Parkway,71101,32.5187158,-93.7448750
1419,East 70th Street,71105,32.4427272,-93.7259419
8751,Park Plaza dr,71105,32.4238364,-93.7238599
8340,Millicent Way,71115,32.4270582,-93.7151426
6720,Klug Pines Road,71129,32.4486015,-93.8705844
6700,Financial Plaza Circle,71129,32.4493357,-93.8620551
6715,Financial Circle,71129,32.4495156,-93.8610797
6001,Financial Plaza,71129,32.4507638,-93.8585483
6715,Rasberry Lane,71129,32.4511488,-93.8574253
4910,West Monkhouse Drive,71109,32.4635968,-93.8284332
201,Lake Street,71101,32.5109763,-93.7435605
5420,Interstate Drive,71109,32.4595249,-93.8312662
2709,Mackey Lane,71118,32.4116121,-93.7992704
1560,Airport Drive,71107,32.5414695,-93.7494209
4646,Hilry Huckaby III Avenue,71107,32.5429713,-93.8362422
610,Texas Street,71101,32.5121812,-93.7512582
2134,Greenwood Road,71103,32.4865183,-93.7723342
510,E. Stoner,71104,32.5030156,-93.7218183
6245,West Port Avenue,71129,32.4488631,-93.8678283
8690,Line Avenue,71106,32.4224441,-93.7381812
200,Southern Trace Parkway,71106,32.3374847,-93.7229617
1309,Texas Avenue,71101,32.4995299,-93.7545109
1401,Fairfield Avenue,71101,32.4988109,-93.7521206
939,Jordan Street,71101,32.4976990,-93.7503353
1237,Murphy Street,71101,32.4995639,-93.7566110
1544,Milam Street,71103,32.5038525,-93.7625672
801,Pierre Avenue,71103,32.5043685,-93.7629459
210,East Bert Kouns Industrial Loop,71106,32.4006697,-93.7462553
140,East Bert Kouns Industrial Loop,71106,32.4005979,-93.7473780
110,East Bert Kouns Industrial Loop,71106,32.4004565,-93.7494118
102,West Bert Kouns Industrial Loop,71106,32.3995625,-93.7541471
412,Bert Kouns Industrial Loop,71106,32.3996817,-93.7650259
396,West Bert Kouns Industrial Loop,71106,32.3987454,-93.7629092
125,East Bert Kouns Industrial Loop,71106,32.3980167,-93.7477413
113,East Bert Kouns Industrial Loop,71106,32.3979833,-93.7485016
109,East Bert Kouns Industrial Loop,71106,32.3978035,-93.7492659
105,East Bert Kouns Industrial Loop,71106,32.3979433,-93.7500617
9420,Healthplex Drive,71106,32.3967408,-93.7501703
4927,Monkhouse Drive,71109,32.4630508,-93.8266666
4210,Greenwood Lane,71109,32.4651527,-93.8223798
8902,Jewella Avenue,71118,32.4158162,-93.7980730
8928,Jewella Avenue,71118,32.4148456,-93.7977913
8998,Mansfield Road,71118,32.4113994,-93.7959254
9030,Mansfield Road,71118,32.4096920,-93.7979393
9080,Mansfield Road,71118,32.4088093,-93.7988744
9070,Mansfield Road,71118,32.4093558,-93.7982109
9088,Mansfield Road,71118,32.4081491,-93.7994021
130,East Bert Kouns Industrial Loop,71106,32.3990830,-93.7476793
118,East Bert Kouns Industrial Loop,71106,32.3989444,-93.7486239
114,East Bert Kouns Industrial Loop,71106,32.3990187,-93.7492630
305,West Bert Kouns Industrial Loop,71106,32.3977717,-93.7577831
309,West Bert Kouns Industrial Loop,71106,32.3978421,-93.7585287
313,West Bert Kouns Industrial Loop,71106,32.3978551,-93.7591269
319,West Bert Kouns Industrial Loop,71106,32.3977731,-93.7603935
7611,Saint Vincent Avenue,71106,32.4358174,-93.7573262
6125,Fairfield Avenue,71106,32.4485756,-93.7488958
831,Erie Street,71106,32.4601112,-93.7472279
7670,West 70th Street,71129,32.4441895,-93.9204146
1130,Kings Highway,71104,32.4828850,-93.7538530
1823,Pine Hill Road,71107-3007,32.5800123,-93.8029465
4109,Pines Rd,71119,32.4659643,-93.8621675
4380,Pines Road,71119,32.4579197,-93.8662604
4354,Pines Road,71119,32.4588212,-93.8660695
4153,Pines Road,71119,32.4643859,-93.8645214
4001,Pines Road,71119,32.4704568,-93.8647283
4455,Pines Road,71119,32.4541133,-93.8651477
4459,Pines Road,71119,32.4534363,-93.8651351
6197,Greenwood Road,71119,32.4519821,-93.8651666
2210,Roy Road,71107,32.5444889,-93.8467032
2437,Roy Road,71107,32.5487611,-93.8455989
2461,Roy Road,71107,32.5495748,-93.8455783
3001,Roy Road,71107-9654,32.5566772,-93.8450915
200,Southern Trace Parkway,71106,32.3398892,-93.7226139
4749,North Market Street,71107,32.5839695,-93.8079015
4300,North Market Street,71107,32.5829369,-93.8019816
4571,North Market Street,71107,32.5821796,-93.8041525
4575,North Market Street,71107,32.5826205,-93.8049420
4577,North Market Street,71107,32.5825485,-93.8052925
4601,North Market Street,71107,32.5831240,-93.8059300
4601,North Market Street,71107,32.5830430,-93.8061505
4609,North Market Street,71107,32.5835195,-93.8065155
1013,Max Fern Street,71107-2935,32.5831295,-93.7948001
1000,Max Fern Street,71107-2936,32.5829961,-93.7952542
952,Winter Garden Drive,71107-3137,32.5783664,-93.7930911
944,Winter Garden Drive,71107-3137,32.5783026,-93.7927504
936,Winter Garden Drive,71107-3137,32.5782897,-93.7923028
932,Winter Garden Drive,71107-3137,32.5782676,-93.7920706
930,Winter Garden Drive,71107-3137,32.5783091,-93.7916855
928,Winter Garden Drive,71107-3137,32.5783194,-93.7914075
953,Winter Garden Drive,71107-3140,32.5772531,-93.7919834
945,Winter Garden Drive,71107-3140,32.5774039,-93.7917479
924,Winter Garden Drive,71107-3137,32.5784266,-93.7910964
924,Lincoln Drive,71107-3118,32.5749941,-93.7918302
920,Lincoln Drive,71107-3118,32.5751395,-93.7914674
916,Lincoln Drive,71107-3118,32.5752309,-93.7912523
906,Lincoln Drive,71107-3118,32.5754353,-93.7907708
3326,North Market Street,71107,32.5655189,-93.7864954
3090,North Market Street,71107,32.5590325,-93.7830730
3079,North Market Street,71107,32.5587195,-93.7847115
3080,North Market Street,71107,32.5588030,-93.7831895
2950,North Market Street,71107,32.5574780,-93.7826300
2850,North Market Street,71107,32.5569910,-93.7816570
2010,Nelson Street,71107,32.5449155,-93.7749840
2030,Nelson Street,71107,32.5446595,-93.7753540
1850,Nelson Street,71107,32.5440335,-93.7771945
1875,North Market Street,71107,32.5435510,-93.7765030
1850,North Market Street,71107,32.5438862,-93.7750838
2031,Nelson Street,71107,32.5440166,-93.7743816
1837,North Market Street,71107,32.5423842,-93.7772753
1867,North Market Street,71107,32.5428889,-93.7777358
1865,North Market Street,71107,32.5432822,-93.7762738
1905,North Market Street,71107,32.5446250,-93.7786095
1915,North Market Street,71107,32.5454700,-93.7774265
1925,North Market Street,71107,32.5457470,-93.7777520
1608,North Market Street,71107,32.5385923,-93.7713177
1606,North Market Street,71107,32.5383540,-93.7710381
1600,North Market Street,71107,32.5381910,-93.7707755
1600,North Market Street,71107,32.5378975,-93.7708235
90,Market Street,71101,32.5177890,-93.7518940
506,Caddo Street,71101,32.5153046,-93.7524890
718,Crockett Street,71101,32.5096695,-93.7507285
717,Crockett Street,71101,32.5091670,-93.7503086
600,Common Street,71101,32.5091995,-93.7514610
700,Cotton Street,71101,32.5091495,-93.7495462
235,Wall Street,71101,32.5005640,-93.7348095
2635,Roosevelt Avenue,71104,32.4861647,-93.7220102
2627,Roosevelt Avenue,71104,32.4864739,-93.7220486
519,Sykes Street,71104,32.4864762,-93.7218058
527,Sykes Street,71104,32.4864935,-93.7214990
758,Shreveport Barksdale Highway,71105,32.4807643,-93.7157165
810,Shreveport Barksdale Highway,71105,32.4812600,-93.7145640
814,Shreveport Barksdale Highway,71105,32.4815061,-93.7139734
820,Shreveport Barksdale Highway,71105,32.4817171,-93.7134230
900,Shreveport Barksdale Highway,71105,32.4820574,-93.7128708
828,Shreveport Barksdale Highway,71105,32.4818069,-93.7132094
915,Shreveport Barksdale Highway,71105,32.4820190,-93.7114202
921,Shreveport Barksdale Highway,71105,32.4821936,-93.7111379
923,Shreveport Barksdale Highway,71105,32.4823510,-93.7108620
929,Shreveport Barksdale Highway,71105,32.4824249,-93.7106991
1287,Shreveport-Barksdale Highway,71105,32.4871940,-93.7048465
605,East Washington Street,71104,32.4844915,-93.7215656
552,East Washington Street,71104,32.4849658,-93.7220862
546,East Washington Street,71104,32.4849443,-93.7222232
542,East Washington Street,71104,32.4849488,-93.7223623
534,East Washington Street,71104,32.4849550,-93.7227012
528,East Washington Street,71104,32.4849662,-93.7228587
502,East Washington Street,71104,32.4850607,-93.7233844
2940,Youree Drive,71104,32.4825560,-93.7240819
3030,Youree Drive,71104,32.4821355,-93.7240130
3303,Youree Drive,71105,32.4797285,-93.7217610
639,East Kings Highway,71105,32.4797769,-93.7200349
637,East Kings Highway,71105,32.4797210,-93.7204490
645,East Kings Highway,71105,32.4793965,-93.7192895
701,East Kings Highway,71105,32.4793204,-93.7187105
705,East Kings Highway,71105,32.4790820,-93.7182465
644,East Kings Highway,71105,32.4788975,-93.7201820
102,Ardmore Avenue,71105,32.4783237,-93.7185631
700,East Kings Highway,71105,32.4785337,-93.7189935
648,East Kings Highway,71105,32.4788321,-93.7196149
106,Archer Avenue,71105,32.4786826,-93.7197678
114,Archer Avenue,71105,32.4783935,-93.7199359
3301,Youree Drive,71105,32.4788548,-93.7216639
3787,Youree Drive,71105,32.4697315,-93.7218155
802,Robards Street,71105,32.4790304,-93.7134030
3327,Surrey Road,71105,32.4793201,-93.7132250
3321,Surrey Road,71105,32.4794168,-93.7134383
3315,Surrey Road,71105,32.4795241,-93.7136805
3309,Surrey Road,71105,32.4796581,-93.7139060
3303,Surrey Road,71105,32.4798873,-93.7140805
3302,Surrey Road,71105,32.4802040,-93.7136722
3308,Surrey Road,71105,32.4800482,-93.7134952
3314,Surrey Road,71105,32.4799363,-93.7132629
3320,Surrey Road,71105,32.4797850,-93.7129992
808,Robards Street,71105,32.4801269,-93.7129085
811,Shreveport Barksdale Highway,71105,32.4804483,-93.7133715
815,Shreveport Barksdale Highway,71105,32.4806051,-93.7131970
819,Shreveport Barksdale Highway,71105,32.4806729,-93.7129829
825,Shreveport Barksdale Highway,71105,32.4808695,-93.7128635
3301,Reily Lane,71105,32.4811024,-93.7126035
3305,Reily Lane,71105,32.4809284,-93.7123864
3302,Reily Lane,71105,32.4814151,-93.7121493
6103,Youree Drive,71105,32.4519644,-93.7211599
6101,Youree Drive,71105,32.4519423,-93.7216441
6205,Youree Drive,71105,32.4514086,-93.7215256
6301,Youree Drive,71105,32.4504857,-93.7214478
6359,Youree Drive,71105,32.4494750,-93.7210474
6330,Youree Drive,71105,32.4497001,-93.7225640
6363,Youree Drive,71105,32.4490545,-93.7209325
6586,Youree Drive,71105,32.4469615,-93.7219870
6608,Youree Drive,71105,32.4451600,-93.7202630
420,Sophia Lane,71115,32.4199385,-93.7075765
3201,Line Avenue,71104,32.4802447,-93.7438851
3021,West Bert Kouns Industrial Loop,71118,32.4015933,-93.8108657
602,Crockett Street,71101,32.5106099,-93.7494155
2222,East Bert Kouns Industrial Loop,71105,32.4422276,-93.7058156
204,Patton Avenue,71105,32.4682012,-93.7163714
211,Atlantic Avenue,71105,32.4687216,-93.7174466
522,East Flournoy Lucas Road,71115,32.4039066,-93.7122292
1558,Buena Vista Street,71101,32.5124688,-93.7625982
395,West Bert Kouns Industrial Loop,71106,32.3977956,-93.7628703
720,Travis Street,71101,32.5120919,-93.7532623
300,Douglas Street,71101,32.5112009,-93.7554655
6823,Pines Road,71129-2513,32.4450466,-93.8619277
4511,Youree Drive,71105,32.4576031,-93.7217987
6324,Sand Beach Boulevard,71105,32.4492118,-93.7238976
6012,Youree Drive,71105,32.4503067,-93.7230789
5704,Youree Drive,71105,32.4562082,-93.7227982
2951,West Bert Kouns Industrial Loop,71118,32.4016303,-93.8081946
2998,Martin Luther King Junior Drive,71107,32.5438450,-93.8285922
2520,Doctor Martin Luther King Drive,71107,32.5441412,-93.8122603
1936,Russell Road,71107,32.5426810,-93.8030954
3095,Phelps Road,71107,32.5431769,-93.8020619
1948,Russell Road,71107,32.5431945,-93.8030756
1941,Russell Road,71107,32.5426863,-93.8025890
1747,Martin Luther King Junior Drive,71107,32.5437972,-93.8023465
1745,Martin Luther King Junior Drive,71107,32.5438776,-93.8022359
3003,King Gardens Lane,71107,32.5354038,-93.8291758
3007,King Gardens Lane,71107,32.5354075,-93.8293450
3011,King Gardens Lane,71107,32.5354294,-93.8294931
3015,King Gardens Lane,71107,32.5354367,-93.8296626
3023,King Gardens Lane,71107,32.5353868,-93.8298095
3028,King Gardens Lane,71107,32.5353878,-93.8299835
3020,King Gardens Lane,71107,32.5353348,-93.8302689
1522,David Raines Road,71107,32.5351452,-93.8294226
1518,David Raines Road,71107,32.5349956,-93.8294214
1514,David Raines Road,71107,32.5348631,-93.8294279
1510,David Raines Road,71107,32.5347329,-93.8293877
1850,Martin Luther King Junior Drive,71107,32.5439562,-93.8045661
2810,5th Street,71107,32.5531264,-93.8215365
2826,5th Street,71107,32.5531517,-93.8221016
2828,5th Street,71107,32.5531425,-93.8223556
2811,5th Street,71107,32.5525543,-93.8219744
2830,5th Street,71107,32.5532897,-93.8226211
2831,5th Street,71107,32.5525602,-93.8216799
2834,5th Street,71107,32.5530847,-93.8229071
2840,5th Street,71107,32.5531762,-93.8232548
2845,5th Street,71107,32.5525684,-93.8222296
2849,5th Street,71107,32.5525461,-93.8224790
2895,5th Street,71107,32.5526156,-93.8240334
2925,5th Street,71107,32.5525810,-93.8247524
2901,5th Street,71107,32.5519869,-93.8247295
2909,5th Street,71107,32.5526531,-93.8252945
2926,5th Street,71107,32.5534611,-93.8254817
2930,5th Street,71107,32.5533099,-93.8257707
7120,Line Avenue,71106,32.4402542,-93.7463326
1925,East 70th Street,71105,32.4427072,-93.7100879
241,Lynbrook Boulevard,71106,32.4218874,-93.7604999
8340,Mansfield Road,71108,32.4207013,-93.7887990
363,North Hearne Avenue,71101,32.5076036,-93.7793960
405,North Hearne Avenue,71103,32.5067391,-93.7799512
2040,Pine Hill Road,71107-3012,32.5806988,-93.8076569
2032,Pine Hill Road,71107-3012,32.5806977,-93.8073367
2020,Pine Hill Road,71107-3012,32.5807002,-93.8068494
2106,West Bert Kouns Industrial Loop,71118,32.4028458,-93.7938281
2626,Lakeshore Drive,71103,32.4930538,-93.7799107
2608,Lakeshore Drive,71103,32.4929521,-93.7793653
2600,Lakeshore Drive,71103,32.4929681,-93.7789808
2700,Lakeshore Drive,71109,32.4931314,-93.7806152
2710,Lakeshore Drive,71109,32.4932000,-93.7809080
603,East 70th Street,71106,32.4417357,-93.7455983
525,East Kings Highway,71105,32.4808990,-93.7230371
1525,Murphy Street,71103,32.4995746,-93.7620563
1327,Pierre Avenue,71103,32.4992875,-93.7628627
1526,Gary Street,71103,32.4992920,-93.7619515
1514,Gary Street,71103,32.4994106,-93.7615766
1504,Gary Street,71103,32.4992302,-93.7613093
1555,Gary Street,71103,32.4988738,-93.7627384
1543,Gary Street,71103,32.4987907,-93.7624709
1535,Gary Street,71103,32.4988214,-93.7622066
888,Havens Road,71107,32.5502605,-93.7786640
880,Havens Road,71107,32.5501151,-93.7784051
880,Havens Road,71107,32.5505729,-93.7782623
880,Havens Road,71107,32.5507683,-93.7782303
880,Havens Road,71107,32.5508676,-93.7782199
880,Havens Road,71107,32.5502053,-93.7780024
880,Havens Road,71107,32.5506045,-93.7782039
862,Havens Road,71107,32.5504872,-93.7777828
101,Common Street,71101,32.5136385,-93.7550111
810,Caddo Street,71101,32.5133476,-93.7555561
104,North Common Street,71101,32.5137376,-93.7559680
941,Caddo Street,71101,32.5122050,-93.7563023
941,Caddo Street,71101,32.5117326,-93.7558484
908,Caddo Street,71101,32.5125626,-93.7564857
101,Baker Street,71101,32.5124201,-93.7567834
101,Baker Street,71101,32.5125354,-93.7568967
1041,Caddo Street,71101,32.5116453,-93.7570771
1041,Caddo Street,71101,32.5111686,-93.7566142
1010,Caddo Street,71101,32.5120189,-93.7574430
801,Pine Hill Road,71107-3130,32.5799580,-93.7877380
805,Pine Hill Road,71107-3130,32.5799366,-93.7879911
809,Pine Hill Road,71107-3130,32.5800031,-93.7883073
813,Pine Hill Road,71107-3130,32.5799700,-93.7886206
817,Pine Hill Road,71107-3130,32.5799730,-93.7889717
821,Pine Hill Road,71107-3130,32.5799924,-93.7892900
3964,Addison Avenue,71107-3114,32.5799995,-93.7896231
3960,Addison Avenue,71107-3114,32.5797498,-93.7896716
3954,Addison Avenue,71107-3114,32.5794751,-93.7896267
3950,Addison Avenue,71107-3114,32.5791845,-93.7896111
909,Pine Hill Road,71107-3132,32.5799365,-93.7903883
901,Pine Hill Road,71107-3132,32.5797884,-93.7901449
3941,Addison Avenue,71107-3113,32.5792250,-93.7901997
3077,North Market Street,71107,32.5582919,-93.7842609
3723,Lakeshore Drive,71109,32.4921455,-93.7983603
3724,Greenwood Road,71109,32.4734423,-93.8008238
3610,Greenwood Road,71109,32.4751254,-93.7983680
9250,Ellerbe Road,71106,32.4078339,-93.7392627
1931,Southern Loop,71106,32.3556898,-93.7146630
9631,Mansfield Road,71118,32.3847005,-93.8169610
9620,Mansfield Road,71118,32.3861908,-93.8188513
9550,Mansfield Road,71118,32.3885050,-93.8192489
8776,Youree Drive,71115,32.4207306,-93.7061283
8640,Youree Drive,71115,32.4251433,-93.7086984
8586,Youree Drive,71115,32.4270989,-93.7097902
8530,Youree Drive,71115,32.4274166,-93.7099416
1635,East Bert Kouns,71105,32.4302038,-93.7140191
1666,East Bert Kouns Industrial Loop,71105,32.4317839,-93.7132186
1640,East Bert Kouns Industrial Loop,71105,32.4314040,-93.7142583
1630,East Bert Kouns Loop,71105,32.4310839,-93.7146562
1620,East Bert Kouns Loop,71105,32.4309147,-93.7150779
7440,Youree Drive,71105-5536,32.4367847,-93.7181920
7400,Youree Drive,71105,32.4378110,-93.7194344
1705,East 70th Street,71105,32.4430031,-93.7175715
7041,Youree Drive,71106,32.4429509,-93.7167664
7017,Youree Drive,71105,32.4424290,-93.7171604
8150,Line Avenue,71106,32.4296596,-93.7445678
6205,West Port Avenue,71129,32.4477334,-93.8664963
5547,Greenwood Road,71109,32.4596565,-93.8431826
4104,Metro Drive,71109,32.4593609,-93.8428588
4108,Metro Drive,71109,32.4590321,-93.8425222
4118,Metro Drive,71109,32.4583514,-93.8426016
4120,Metro Drive,71109,32.4580708,-93.8412144
4115,Metro Drive,71109,32.4589792,-93.8412770
4119,Metro Drive,71109,32.4586944,-93.8410161
4113,Metro Drive,71109,32.4590979,-93.8414391
4111,Metro Drive,71109,32.4593029,-93.8418072
4107,Metro Drive,71109,32.4597797,-93.8418469
4103,Metro Drive,71109,32.4598777,-93.8423314
1320,Pierre Avenue,71103,32.4993004,-93.7634872
2734,Lakeshore Drive,71109,32.4929231,-93.7814959
2740,Lakeshore Drive,71109,32.4929059,-93.7816416
2752,Lakeshore Drive,71109,32.4929090,-93.7818363
2601,Lakeshore Drive,71103,32.4923929,-93.7790203
5655,Hollywood Avenue,71109,32.4510930,-93.8415988
911,West 70th Street,71106,32.4414972,-93.7771628
935,West 70th Street,71106,32.4413876,-93.7777240
1033,West 70th Street,71106,32.4414717,-93.7782344
1101,West 70th Street,71106,32.4413778,-93.7788003
1115,West 70th Street,71106,32.4416200,-93.7802329
4009,Youree Drive,71105,32.4666900,-93.7213049
4331,Henry Street,71109,32.4634285,-93.8122450
1965,Midway Street,71108,32.4705080,-93.7717866
2803,Hilry Huckaby III Avenue,71107,32.5124800,-93.7808237
2807,Hilry Huckaby III Avenue,71107,32.5127979,-93.7815862
2855,Hilry Huckaby III Avenue,71107,32.5130154,-93.7838604
2901,Hilry Huckaby III Avenue,71107,32.5132993,-93.7846849
1702,Corbitt Street,71108,32.4645357,-93.7651885
2010,East Algonquin Trail,71107,32.5428066,-93.7590210
701,South Pierre Avenue,71103,32.5048488,-93.7627861
1536,Milam Street,71103,32.5038100,-93.7623684
1526,Milam Street,71103,32.5037844,-93.7619806
1900,North Market Street,71107,32.5447695,-93.7756648
1901,North Market Street,71107,32.5441777,-93.7767456
609,Texas Street,71101,32.5116831,-93.7506947
611,Texas Street,71101,32.5116470,-93.7507457
4461,Pines Road,71119,32.4530233,-93.8649247
6169,Greenwood Road,71119,32.4520938,-93.8646963
6161,Greenwood Road,71119,32.4519728,-93.8637007
6131,Greenwood Road,71119,32.4517558,-93.8626044
4277,North Market Street,71107,32.5810818,-93.8014852
4565,North Market Street,71107,32.5818455,-93.8035815
2345,Claiborne Avenue,71103,32.4772348,-93.7751944
1300,Texas Avenue,71101,32.4995076,-93.7555069
3701,Greenwood Road,71109,32.4741378,-93.7982011
3705,Greenwood Road,71109,32.4739160,-93.7986382
4030,Jewella Avenue,71109,32.4735574,-93.7974861
4030,Jewella Avenue,71109,32.4735339,-93.7976591
4715,Hilry Huckaby III Avenue,71107,32.5448030,-93.8390449
4700,Hilry Huckaby III Avenue,71107,32.5449554,-93.8377248
161,Freestate Boulevard,71107,32.5344454,-93.7675078
1404,North Market Street,71107,32.5350197,-93.7679439
151,Freestate Boulevard,71107,32.5347712,-93.7671076
2901,Creswell Avenue,71104,32.4831546,-93.7406408
626,Eden Boulevard,71106,32.4317238,-93.7434226
8108,Fairfield Avenue,71106,32.4295282,-93.7516351
2005,Francais Drive,71118,32.3931480,-93.7910561
351,Hearne Avenue,71103,32.5088633,-93.7778806
3809,Judson Street,71109,32.4877860,-93.8000414
2290,Clyde Fant Parkway Srv Road,71105,32.4952970,-93.7104353
3840,Greenwood Road,71109,32.4732183,-93.8043105
885,Poleman Road,71107,32.5723464,-93.7841963
1700,Caldwell Street,71107,32.5498250,-93.8160140
2701,Catherine Street,71109,32.4861242,-93.7813417
836,Sewanee Place,71105,32.4791412,-93.7120469
9075,Kingston Road,71118,32.4030983,-93.7792721
2955,Bert Kouns Industrial Loop,71118,32.4009466,-93.8094675
3131,Ardis Taylor Drive,71118,32.3852760,-93.8213798
6514,West Canal Boulevard,71108,32.4475457,-93.7873722
9900,Smitherman Drive,71115,32.4133105,-93.7033818
7325,Jewella Avenue,71108,32.4355980,-93.7960857
1807,San Jacinto Avenue,71109,32.4945155,-93.7919146
6310,Clift Avenue,71106,32.4474495,-93.7705277
7635,Cornelious Lane,71106,32.4352587,-93.7425615
6008,Youree Drive,71105,32.4519096,-93.7247141
5904,West 70th Street,71129,32.4442422,-93.8556432
9360,Woolworth Road,71129,32.3882405,-93.9023739
401,North Holzman Street,71101,32.5133789,-93.7727980
2104,Milam Street,71103,32.5053951,-93.7735565
5950,Union Avenue,71108,32.4546470,-93.7729036
6801,Rasberry Lane,71129,32.4477435,-93.8556472
2250,Clyde Fant Parkway Srv Road,71105,32.4959276,-93.7129825
9000,Walker Road,71118,32.4091750,-93.8167388
7340,Wyngate Boulevard,71106,32.4346607,-93.7753393
5971,Financial Plaza,71129,32.4512223,-93.8567574
856,Kings Highway,71104,32.4818511,-93.7477752
4725,North Market Street,71107,32.5834761,-93.8075451
4585,North Market Street,71107,32.5818484,-93.8056060
628,East Kings Highway,71105,32.4793242,-93.7209726
4523,Youree Drive,71105,32.4571049,-93.7216425
280,Southfield Road,71105,32.4569938,-93.7211450
276,Southfield Road,71105,32.4570144,-93.7208321
3800,Kitty Lane,71107,32.5453500,-93.7791864
1610,Murphy Street,71103,32.5001016,-93.7634238
1622,Gary Street,71103,32.4993006,-93.7642725
1622,Gary Street,71103,32.4992996,-93.7643682
1622,Gary Street,71103,32.4993049,-93.7644619
1622,Gary Street,71103,32.4993004,-93.7645615
1301,Sycamore Street,71103,32.4993656,-93.7668977
1625,Gary Street,71103,32.4987336,-93.7638049
1500,Pierre Avenue,71103,32.4975419,-93.7637230
1500,Pierre Avenue,71103,32.4974897,-93.7649027
1142,Wilkinson Street,71104,32.4857297,-93.7537721
1681,East 70th Street,71105,32.4428115,-93.7198410
7950,Youree Drive,71105,32.4320435,-93.7128101
202,Texas Street,71101,32.5149907,-93.7470255
5690,West 70th Street,71129,32.4427465,-93.8522022
2019,Bowman Street,71101,32.5168465,-93.7719471
2011,Bowman Street,71101,32.5167135,-93.7716755
501,Calhoun Street,71101,32.5146869,-93.7640627
505,Calhoun Street,71101,32.5148006,-93.7640674
518,Calhoun Street,71101,32.5150273,-93.7645070
1858,Chester Street,71101,32.5162258,-93.7694103
2002,Chester Street,71101,32.5162216,-93.7714075
2006,Chester Street,71101,32.5162253,-93.7715444
2018,Chester Street,71101,32.5162199,-93.7719273
2022,Chester Street,71101,32.5162353,-93.7720705
501,Christopher Street,71101,32.5146946,-93.7687029
517,Christopher Street,71101,32.5151156,-93.7686746
527,Christopher Street,71101,32.5153334,-93.7686878
535,Christopher Street,71101,32.5155639,-93.7686707
524,Christopher Street,71101,32.5151592,-93.7691662
526,Christopher Street,71101,32.5153702,-93.7691394
548,Christopher Street,71101,32.5158777,-93.7691923
601,Christopher Street,71101,32.5161559,-93.7686509
609,Christopher Street,71101,32.5163886,-93.7686386
615,Christopher Street,71101,32.5164884,-93.7686854
623,Christopher Street,71101,32.5167027,-93.7686701
627,Christopher Street,71101,32.5168348,-93.7686586
631,Christopher Street,71101,32.5169446,-93.7686595
604,Christopher Street,71101,32.5162297,-93.7691510
622,Christopher Street,71101,32.5167282,-93.7691938
707,Christopher Street,71101,32.5172649,-93.7686064
706,Christopher Street,71101,32.5173059,-93.7691812
710,Christopher Street,71101,32.5174170,-93.7692057
718,Christopher Street,71101,32.5176368,-93.7691591
724,Christopher Street,71101,32.5177502,-93.7691721
728,Christopher Street,71101,32.5178445,-93.7691756
732,Christopher Street,71101,32.5179748,-93.7692018
511,Dowling Street,71101,32.5150054,-93.7709605
521,Dowling Street,71101,32.5152103,-93.7709951
525,Dowling Street,71101,32.5153329,-93.7709138
529,Dowling Street,71101,32.5154499,-93.7709806
533,Dowling Street,71101,32.5155626,-93.7710066
601,Dowling Street,71101,32.5161535,-93.7710177
605,Dowling Street,71101,32.5162518,-93.7710154
609,Dowling Street,71101,32.5163717,-93.7710135
719,Dowling Street,71101,32.5176323,-93.7710565
725,Dowling Street,71101,32.5177336,-93.7710304
727,Dowling Street,71101,32.5178571,-93.7710024
729,Dowling Street,71101,32.5179724,-93.7709847
733,Dowling Street,71101,32.5180861,-93.7709887
702,Dowling Street,71101,32.5172088,-93.7715329
706,Dowling Street,71101,32.5173093,-93.7714901
710,Dowling Street,71101,32.5174302,-93.7714784
716,Dowling Street,71101,32.5175414,-93.7714753
718,Dowling Street,71101,32.5176304,-93.7715249
728,Dowling Street,71101,32.5179164,-93.7714953
505,March Street,71101,32.5147901,-93.7697983
509,March Street,71101,32.5148985,-93.7698428
523,March Street,71101,32.5152380,-93.7698414
525,March Street,71101,32.5153280,-93.7698363
502,March Street,71101,32.5146843,-93.7703481
524,March Street,71101,32.5152199,-93.7703236
532,March Street,71101,32.5154522,-93.7703436
548,March Street,71101,32.5158854,-93.7703072
603,March Street,71101,32.5162768,-93.7698534
605,March Street,71101,32.5163745,-93.7699051
602,March Street,71101,32.5161572,-93.7703117
604,March Street,71101,32.5162746,-93.7703086
606,March Street,71101,32.5163674,-93.7703463
616,March Street,71101,32.5164849,-93.7704023
624,March Street,71101,32.5166893,-93.7703354
628,March Street,71101,32.5168162,-93.7703554
707,March Street,71101,32.5174753,-93.7699112
745,March Street,71101,32.5182968,-93.7698728
749,March Street,71101,32.5184054,-93.7698736
753,March Street,71101,32.5185100,-93.7698759
702,March Street,71101,32.5171960,-93.7703701
706,March Street,71101,32.5173029,-93.7703759
718,March Street,71101,32.5176329,-93.7703248
722,March Street,71101,32.5177548,-93.7703252
726,March Street,71101,32.5178758,-93.7703471
730,March Street,71101,32.5179608,-93.7702993
742,March Street,71101,32.5182912,-93.7703544
748,March Street,71101,32.5184059,-93.7703417
750,March Street,71101,32.5185190,-93.7703508
1625,Patzman Street,71101,32.5144037,-93.7641228
1729,Patzman Street,71101,32.5143193,-93.7676494
1733,Patzman Street,71101,32.5143198,-93.7677881
1737,Patzman Street,71101,32.5143225,-93.7679454
1745,Patzman Street,71101,32.5143148,-93.7681878
1749,Patzman Street,71101,32.5143405,-93.7683211
1755,Patzman Street,71101,32.5143515,-93.7684497
1710,Patzman Street,71101,32.5147514,-93.7668981
1712,Patzman Street,71101,32.5147939,-93.7670446
1716,Patzman Street,71101,32.5147252,-93.7671740
1724,Patzman Street,71101,32.5148129,-93.7674851
1839,Patzman Street,71101,32.5143370,-93.7687273
1859,Patzman Street,71101,32.5143400,-93.7688569
1804,Patzman Street,71101,32.5147423,-93.7692427
1806,Patzman Street,71101,32.5147483,-93.7694067
518,Sheppard Street,71101,32.5151292,-93.7681541
1915,Patzman Street,71101,32.5148199,-93.7717486
1643,Patzman Street,71101,32.5144276,-93.7645763
1655,Patzman Street,71101,32.5143619,-93.7649362
1667,Patzman Street,71101,32.5144087,-93.7653930
2002,Logan Street,71101,32.5073913,-93.7719077
2010,Logan Street,71101,32.5074184,-93.7721672
2014,Logan Street,71101,32.5073954,-93.7722972
2018,Logan Street,71101,32.5073769,-93.7724233
2002,Ford Street,71101,32.5112547,-93.7719905
2006,Ford Street,71101,32.5112462,-93.7721499
2010,Ford Street,71101,32.5112441,-93.7723257
2014,Ford Street,71101,32.5112378,-93.7725115
2018,Ford Street,71101,32.5112533,-93.7727163
2026,Ford Street,71101,32.5112763,-93.7730816
2030,Ford Street,71101,32.5112636,-93.7733003
2034,Ford Street,71101,32.5112583,-93.7734613
2038,Ford Street,71101,32.5112486,-93.7736531
2042,Ford Street,71101,32.5112516,-93.7738338
2046,Ford Street,71101,32.5112513,-93.7740892
2109,Ford Street,71101,32.5106598,-93.7744330
2001,Garden Street,71101,32.5088283,-93.7719914
2015,Garden Street,71101,32.5088090,-93.7724068
2031,Garden Street,71101,32.5087700,-93.7726806
2035,Garden Street,71101,32.5088393,-93.7727937
2039,Garden Street,71101,32.5088357,-93.7729260
2002,Garden Street,71101,32.5091344,-93.7718602
2006,Garden Street,71101,32.5091392,-93.7719920
2010,Garden Street,71101,32.5091516,-93.7721207
2014,Garden Street,71101,32.5091470,-93.7722502
2018,Garden Street,71101,32.5091597,-93.7723965
2022,Garden Street,71101,32.5091478,-93.7725260
2026,Garden Street,71101,32.5092044,-93.7727800
2030,Garden Street,71101,32.5091957,-93.7729294
2040,Garden Street,71101,32.5092686,-93.7732251
103,Hartman Street,71101,32.5105958,-93.7737779
104,Hartman Street,71101,32.5102655,-93.7741518
112,Hartman Street,71101,32.5100270,-93.7741568
2001,Myrtle Street,71101,32.5079554,-93.7718876
2000,Myrtle Street,71101,32.5082839,-93.7719112
2014,Myrtle Street,71101,32.5084961,-93.7724137
223,Oregon Avenue,71101,32.5094929,-93.7751981
225,Oregon Avenue,71101,32.5094022,-93.7750439
229,Oregon Avenue,71101,32.5091609,-93.7747993
233,Oregon Avenue,71101,32.5090365,-93.7746983
237,Oregon Avenue,71101,32.5089442,-93.7745440
202,Oregon Avenue,71101,32.5102379,-93.7762079
206,Oregon Avenue,71101,32.5100758,-93.7761345
210,Oregon Avenue,71101,32.5098834,-93.7761050
214,Oregon Avenue,71101,32.5097187,-93.7759690
226,Oregon Avenue,71101,32.5090027,-93.7755550
301,Oregon Avenue,71101,32.5088390,-93.7744607
305,Oregon Avenue,71101,32.5087307,-93.7743416
309,Oregon Avenue,71101,32.5086318,-93.7742434
313,Oregon Avenue,71101,32.5085477,-93.7741283
317,Oregon Avenue,71101,32.5084411,-93.7739971
321,Oregon Avenue,71101,32.5083658,-93.7738928
325,Oregon Avenue,71101,32.5082348,-93.7737922
329,Oregon Avenue,71101,32.5081585,-93.7736623
333,Oregon Avenue,71101,32.5078500,-93.7736723
308,Oregon Avenue,71101,32.5083360,-93.7745303
314,Oregon Avenue,71101,32.5082200,-93.7744162
320,Oregon Avenue,71101,32.5081534,-93.7742954
330,Oregon Avenue,71101,32.5078664,-93.7740919
2001,Perrin Street,71101,32.5095824,-93.7719805
2005,Perrin Street,71101,32.5095784,-93.7721361
2009,Perrin Street,71101,32.5096096,-93.7722950
2017,Perrin Street,71101,32.5096147,-93.7726220
2021,Perrin Street,71101,32.5095819,-93.7728152
2025,Perrin Street,71101,32.5096235,-93.7729511
2029,Perrin Street,71101,32.5096230,-93.7731179
2033,Perrin Street,71101,32.5096237,-93.7732789
2037,Perrin Street,71101,32.5096208,-93.7734413
2041,Perrin Street,71101,32.5096242,-93.7736049
2045,Perrin Street,71101,32.5096023,-93.7737659
2042,Perrin Street,71101,32.5099861,-93.7734507
2046,Perrin Street,71101,32.5100371,-93.7736398
2120,Perrin Street,71101,32.5099614,-93.7751990
2116,Perrin Street,71101,32.5100806,-93.7750717
2112,Perrin Street,71101,32.5101056,-93.7749219
2037,Talbot Street,71101,32.5102274,-93.7731191
2041,Talbot Street,71101,32.5102275,-93.7732838
2043,Talbot Street,71101,32.5102361,-93.7734586
2047,Talbot Street,71101,32.5102392,-93.7736185
2053,Talbot Street,71101,32.5102277,-93.7737772
2006,Talbot Street,71101,32.5106314,-93.7721476
2016,Talbot Street,71101,32.5105922,-93.7724925
2026,Talbot Street,71101,32.5105856,-93.7728092
2020,Talbot Street,71101,32.5105923,-93.7729764
2032,Talbot Street,71101,32.5106044,-93.7731284
2046,Talbot Street,71101,32.5105919,-93.7734631
2102,Talbot Street,71101,32.5106323,-93.7741727
302,Utah Circle,71101,32.5081984,-93.7771777
306,Utah Circle,71101,32.5080583,-93.7772227
310,Utah Circle,71101,32.5078716,-93.7770915
314,Utah Circle,71101,32.5077530,-93.7771604
318,Utah Circle,71101,32.5076075,-93.7772045
322,Utah Circle,71101,32.5074118,-93.7771283
326,Utah Circle,71101,32.5073908,-93.7769156
323,Utah Circle,71101,32.5073947,-93.7767352
319,Utah Circle,71101,32.5075329,-93.7765661
315,Utah Circle,71101,32.5076798,-93.7765761
2101,Utah Drive,71101,32.5084673,-93.7746911
2109,Utah Drive,71101,32.5083495,-93.7748783
2115,Utah Drive,71101,32.5082298,-93.7750110
2119,Utah Drive,71101,32.5081440,-93.7751278
2123,Utah Drive,71101,32.5078956,-93.7756053
2102,Utah Drive,71101,32.5087523,-93.7750344
2106,Utah Drive,71101,32.5086680,-93.7751773
2110,Utah Drive,71101,32.5085669,-93.7752617
2114,Utah Drive,71101,32.5084876,-93.7754176
2118,Utah Drive,71101,32.5083642,-93.7755165
2122,Utah Drive,71101,32.5082847,-93.7756634
2126,Utah Drive,71101,32.5083271,-93.7758616
2301,Utah Drive,71101,32.5078440,-93.7761824
2309,Utah Drive,71101,32.5078648,-93.7764312
2315,Utah Drive,71101,32.5078630,-93.7766357
2302,Utah Drive,71101,32.5082881,-93.7760307
2306,Utah Drive,71101,32.5082559,-93.7761890
2310,Utah Drive,71101,32.5082884,-93.7763524
2314,Utah Drive,71101,32.5082598,-93.7765125
2318,Utah Drive,71101,32.5082710,-93.7766763
2322,Utah Drive,71101,32.5083230,-93.7768375
2326,Utah Drive,71101,32.5082989,-93.7770330
2033,Wyoming Circle,71101,32.5074148,-93.7736107
2029,Wyoming Circle,71101,32.5074140,-93.7734392
2025,Wyoming Circle,71101,32.5073469,-93.7732829
2021,Wyoming Circle,71101,32.5073711,-93.7731220
2017,Wyoming Circle,71101,32.5075007,-93.7729566
2020,Wyoming Circle,71101,32.5076702,-93.7729700
2024,Wyoming Circle,71101,32.5077952,-93.7730794
2028,Wyoming Circle,71101,32.5078625,-93.7732989
2032,Wyoming Circle,71101,32.5078335,-93.7734774
2101,Wyoming Circle,71101,32.5074071,-93.7738824
2105,Wyoming Circle,71101,32.5074345,-93.7740905
2109,Wyoming Circle,71101,32.5074404,-93.7742545
2113,Wyoming Circle,71101,32.5074384,-93.7744190
2117,Wyoming Circle,71101,32.5074376,-93.7745773
2121,Wyoming Circle,71101,32.5074410,-93.7747419
2125,Wyoming Circle,71101,32.5074144,-93.7749075
2129,Wyoming Circle,71101,32.5074434,-93.7750686
2133,Wyoming Circle,71101,32.5074097,-93.7752234
2137,Wyoming Circle,71101,32.5074464,-93.7753867
2141,Wyoming Circle,71101,32.5074335,-93.7755552
2145,Wyoming Circle,71101,32.5074305,-93.7757048
2149,Wyoming Circle,71101,32.5074065,-93.7758594
2157,Wyoming Circle,71101,32.5075361,-93.7761716
2161,Wyoming Circle,71101,32.5076868,-93.7762032
2106,Wyoming Circle,71101,32.5078822,-93.7742906
2110,Wyoming Circle,71101,32.5078570,-93.7744505
2114,Wyoming Circle,71101,32.5078475,-93.7746161
2118,Wyoming Circle,71101,32.5078627,-93.7747782
2122,Wyoming Circle,71101,32.5078547,-93.7749405
2126,Wyoming Circle,71101,32.5078549,-93.7751011
2130,Wyoming Circle,71101,32.5078433,-93.7752647
2134,Wyoming Circle,71101,32.5078349,-93.7754181
2003,Grover Street,71101,32.5116218,-93.7719569
2005,Grover Street,71101,32.5116322,-93.7721571
2009,Grover Street,71101,32.5116190,-93.7723472
2013,Grover Street,71101,32.5116275,-93.7725304
2017,Grover Street,71101,32.5116054,-93.7727378
2021,Grover Street,71101,32.5116068,-93.7729112
2025,Grover Street,71101,32.5116013,-93.7731079
2033,Grover Street,71101,32.5116303,-93.7734785
2037,Grover Street,71101,32.5116258,-93.7736605
2043,Grover Street,71101,32.5116046,-93.7740431
2049,Grover Street,71101,32.5116125,-93.7742239
2055,Grover Street,71101,32.5116170,-93.7744242
2061,Grover Street,71101,32.5116259,-93.7745867
2010,Grover Street,71101,32.5120426,-93.7722549
2014,Grover Street,71101,32.5120297,-93.7724172
2018,Grover Street,71101,32.5120332,-93.7725802
2026,Grover Street,71101,32.5120061,-93.7728861
2030,Grover Street,71101,32.5120567,-93.7730682
2034,Grover Street,71101,32.5120120,-93.7732277
2038,Grover Street,71101,32.5120314,-93.7733979
2042,Grover Street,71101,32.5120473,-93.7735737
202,North Hartman Street,71101,32.5119718,-93.7745115
210,North Hartman Street,71101,32.5122447,-93.7745962
214,North Hartman Street,71101,32.5123980,-93.7746236
218,North Hartman Street,71101,32.5125238,-93.7746477
222,North Hartman Street,71101,32.5126669,-93.7746800
226,North Hartman Street,71101,32.5128007,-93.7747461
230,North Hartman Street,71101,32.5129295,-93.7747281
234,North Hartman Street,71101,32.5130912,-93.7747360
238,North Hartman Street,71101,32.5132079,-93.7747152
244,North Hartman Street,71101,32.5133504,-93.7747359
201,North Wyatt Street,71101,32.5119654,-93.7739648
205,North Wyatt Street,71101,32.5121151,-93.7740098
209,North Wyatt Street,71101,32.5122624,-93.7740740
213,North Wyatt Street,71101,32.5123907,-93.7741063
217,North Wyatt Street,71101,32.5125363,-93.7741482
221,North Wyatt Street,71101,32.5126684,-93.7741681
225,North Wyatt Street,71101,32.5128134,-93.7741763
229,North Wyatt Street,71101,32.5129447,-93.7741872
235,North Wyatt Street,71101,32.5130902,-93.7741642
241,North Wyatt Street,71101,32.5132284,-93.7741918
245,North Wyatt Street,71101,32.5133448,-93.7741692
210,North Wyatt Street,71101,32.5122644,-93.7735994
212,North Wyatt Street,71101,32.5124050,-93.7736594
216,North Wyatt Street,71101,32.5125453,-93.7737002
222,North Wyatt Street,71101,32.5126473,-93.7736671
228,North Wyatt Street,71101,32.5128163,-93.7737147
232,North Wyatt Street,71101,32.5129421,-93.7737276
234,North Wyatt Street,71101,32.5130818,-93.7737069
238,North Wyatt Street,71101,32.5131995,-93.7737065
242,North Wyatt Street,71101,32.5133453,-93.7737307
2200,Ernest B. Miller Drive,71101,32.5104506,-93.7763075
2205,Ernest B. Miller Drive,71101,32.5104227,-93.7765509
2209,Ernest B. Miller Drive,71101,32.5103804,-93.7767361
1905,Anna Street,71101,32.5061000,-93.7698920
1909,Anna Street,71101,32.5060967,-93.7700177
1913,Anna Street,71101,32.5061057,-93.7701560
1917,Anna Street,71101,32.5061040,-93.7702415
1925,Anna Street,71101,32.5061040,-93.7705447
1935,Anna Street,71101,32.5060959,-93.7708035
1943,Anna Street,71101,32.5060929,-93.7710440
1947,Anna Street,71101,32.5061007,-93.7711690
1951,Anna Street,71101,32.5061008,-93.7713294
1953,Anna Street,71101,32.5060934,-93.7714443
1957,Anna Street,71101,32.5060943,-93.7715795
1924,Anna Street,71101,32.5064728,-93.7704018
1932,Anna Street,71101,32.5064735,-93.7706709
1936,Anna Street,71101,32.5064395,-93.7707835
1944,Anna Street,71101,32.5064622,-93.7709021
1946,Anna Street,71101,32.5064461,-93.7710584
1948,Anna Street,71101,32.5064616,-93.7711917
1950,Anna Street,71101,32.5064532,-93.7713121
1952,Anna Street,71101,32.5064507,-93.7714320
1960,Anna Street,71101,32.5064549,-93.7715707
1901,Logan Street,71101,32.5070363,-93.7697230
1915,Logan Street,71101,32.5070189,-93.7701395
1909,Logan Street,71101,32.5070323,-93.7702791
1923,Logan Street,71101,32.5070348,-93.7704040
1927,Logan Street,71101,32.5069663,-93.7705309
1933,Logan Street,71101,32.5070215,-93.7706608
1935,Logan Street,71101,32.5070207,-93.7707950
1939,Logan Street,71101,32.5070451,-93.7709067
1943,Logan Street,71101,32.5070165,-93.7710517
1947,Logan Street,71101,32.5070042,-93.7711715
1951,Logan Street,71101,32.5070174,-93.7713125
1955,Logan Street,71101,32.5070199,-93.7714295
1959,Logan Street,71101,32.5070145,-93.7715616
1902,Logan Street,71101,32.5073571,-93.7697520
1906,Logan Street,71101,32.5075815,-93.7698984
1908,Logan Street,71101,32.5074068,-93.7700138
1914,Logan Street,71101,32.5074462,-93.7701457
1918,Logan Street,71101,32.5074314,-93.7702649
1932,Logan Street,71101,32.5074168,-93.7706465
1936,Logan Street,71101,32.5074513,-93.7707800
1940,Logan Street,71101,32.5074186,-93.7709026
1944,Logan Street,71101,32.5074098,-93.7710350
1948,Logan Street,71101,32.5074748,-93.7711786
1960,Logan Street,71101,32.5074427,-93.7715865
1901,Ford Street,71101,32.5106613,-93.7697081
1913,Ford Street,71101,32.5105755,-93.7699975
1927,Ford Street,71101,32.5106292,-93.7704740
1933,Ford Street,71101,32.5105932,-93.7706444
1935,Ford Street,71101,32.5105713,-93.7708015
1947,Ford Street,71101,32.5105932,-93.7713847
1908,Ford Street,71101,32.5110083,-93.7698999
1918,Ford Street,71101,32.5110956,-93.7700825
1924,Ford Street,71101,32.5111091,-93.7702729
1928,Ford Street,71101,32.5110996,-93.7704786
1942,Ford Street,71101,32.5112307,-93.7709450
1944,Ford Street,71101,32.5110084,-93.7710647
1901,Garden Street,71101,32.5087864,-93.7697293
1909,Garden Street,71101,32.5088169,-93.7702728
1935,Garden Street,71101,32.5088450,-93.7707999
1937,Garden Street,71101,32.5088507,-93.7709273
1939,Garden Street,71101,32.5088229,-93.7710558
1941,Garden Street,71101,32.5088012,-93.7711868
1945,Garden Street,71101,32.5088343,-93.7713200
1955,Garden Street,71101,32.5087812,-93.7714383
1959,Garden Street,71101,32.5087641,-93.7715738
1906,Garden Street,71101,32.5091731,-93.7697438
1908,Garden Street,71101,32.5091776,-93.7698660
1912,Garden Street,71101,32.5091751,-93.7699983
1926,Garden Street,71101,32.5091870,-93.7703930
1930,Garden Street,71101,32.5091948,-93.7705094
1936,Garden Street,71101,32.5092017,-93.7708431
1942,Garden Street,71101,32.5092095,-93.7710385
1903,Logan Street,71101,32.5070355,-93.7697806
512,Norma Avenue,71101,32.5068155,-93.7697604
1919,Anna Street,71101,32.5061052,-93.7702930
1921,Anna Street,71101,32.5061057,-93.7703432
1923,Anna Street,71101,32.5061074,-93.7704138
117,Holzman Street,71101,32.5102210,-93.7716462
1966,Perrin Street,71101,32.5099835,-93.7715805
1968,Perrin Street,71101,32.5099938,-93.7716637
1909,Myrtle Street,71101,32.5079053,-93.7700291
1915,Myrtle Street,71101,32.5079291,-93.7701414
1919,Myrtle Street,71101,32.5079189,-93.7702769
1921,Myrtle Street,71101,32.5079218,-93.7704612
1925,Myrtle Street,71101,32.5078948,-93.7707908
1939,Myrtle Street,71101,32.5079010,-93.7709338
1943,Myrtle Street,71101,32.5079166,-93.7710542
1947,Myrtle Street,71101,32.5079319,-93.7711726
1949,Myrtle Street,71101,32.5079391,-93.7713051
1959,Myrtle Street,71101,32.5079299,-93.7715910
1904,Myrtle Street,71101,32.5082989,-93.7697610
1908,Myrtle Street,71101,32.5082684,-93.7700191
1916,Myrtle Street,71101,32.5082903,-93.7701486
1920,Myrtle Street,71101,32.5082768,-93.7702676
1932,Myrtle Street,71101,32.5082923,-93.7706622
1942,Myrtle Street,71101,32.5082746,-93.7709284
1946,Myrtle Street,71101,32.5083136,-93.7711809
1954,Myrtle Street,71101,32.5083385,-93.7713733
1901,Perrin Street,71101,32.5096298,-93.7696579
1907,Perrin Street,71101,32.5096633,-93.7698305
1913,Perrin Street,71101,32.5096495,-93.7700199
1925,Perrin Street,71101,32.5096327,-93.7704698
1935,Perrin Street,71101,32.5096334,-93.7708018
1941,Perrin Street,71101,32.5096517,-93.7709629
1963,Perrin Street,71101,32.5096111,-93.7715951
1906,Perrin Street,71101,32.5099909,-93.7698238
1906,Perrin Street,71101,32.5101619,-93.7698291
1926,Perrin Street,71101,32.5100127,-93.7704705
1946,Perrin Street,71101,32.5100006,-93.7713284
1964,Perrin Street,71101,32.5100360,-93.7714634
1901,Alston Street,71101,32.5125692,-93.7696488
1915,Alston Street,71101,32.5125518,-93.7700202
1937,Alston Street,71101,32.5125253,-93.7708066
1961,Alston Street,71101,32.5125495,-93.7715737
"1922,1924",Alston Street,71101,32.5129630,-93.7702932
"1928,1932",Alston Street,71101,32.5129818,-93.7705494
"1913,1917",Clay Street,71101,32.5133660,-93.7701665
"1921,1925",Clay Street,71101,32.5133746,-93.7704210
1953,Clay Street,71101,32.5133895,-93.7713935
1957,Clay Street,71101,32.5133891,-93.7715246
106,North Dale Avenue,71101,32.5110939,-93.7696903
317,North Dale Avenue,71101,32.5132551,-93.7693347
325,North Dale Avenue,71101,32.5135208,-93.7693293
435,North Dale Avenue,71101,32.5142784,-93.7693472
1925,Grover Street,71101,32.5115733,-93.7702794
1927,Grover Street,71101,32.5116387,-93.7704239
1929,Grover Street,71101,32.5116731,-93.7705305
1941,Grover Street,71101,32.5116425,-93.7709293
1953,Grover Street,71101,32.5116474,-93.7713154
1957,Grover Street,71101,32.5116536,-93.7714521
1961,Grover Street,71101,32.5116688,-93.7715683
1914,Grover Street,71101,32.5121911,-93.7700195
1916,Grover Street,71101,32.5119568,-93.7701546
1924,Grover Street,71101,32.5120491,-93.7703250
1938,Grover Street,71101,32.5120433,-93.7708118
1940,Grover Street,71101,32.5120964,-93.7709442
1950,Grover Street,71101,32.5120474,-93.7712044
1960,Grover Street,71101,32.5120017,-93.7715953
400,North Dale Avenue,71101,32.5140917,-93.7700134
400,North Dale Avenue,71101,32.5140877,-93.7700327
1700,Anna Street,71101,32.5064954,-93.7662627
1805,Anna Street,71101,32.5060454,-93.7677487
1809,Anna Street,71101,32.5060831,-93.7678894
1815,Anna Street,71101,32.5060720,-93.7680036
1821,Anna Street,71101,32.5060786,-93.7681219
1823,Anna Street,71101,32.5059365,-93.7682703
1825,Anna Street,71101,32.5061051,-93.7685205
1835,Anna Street,71101,32.5061069,-93.7686579
1839,Anna Street,71101,32.5060966,-93.7687664
1843,Anna Street,71101,32.5061005,-93.7689023
1847,Anna Street,71101,32.5060765,-93.7690311
1855,Anna Street,71101,32.5060961,-93.7693042
1859,Anna Street,71101,32.5060862,-93.7694240
1816,Anna Street,71101,32.5065253,-93.7677313
1830,Anna Street,71101,32.5064578,-93.7685067
1836,Anna Street,71101,32.5064640,-93.7686336
1838,Anna Street,71101,32.5064755,-93.7687672
1842,Anna Street,71101,32.5064680,-93.7688773
1848,Anna Street,71101,32.5064698,-93.7689715
1848,Anna Street,71101,32.5064771,-93.7690697
1852,Anna Street,71101,32.5064589,-93.7691323
1854,Anna Street,71101,32.5064580,-93.7691942
1856,Anna Street,71101,32.5064799,-93.7692840
1858,Anna Street,71101,32.5064832,-93.7694166
321,Boisseau Avenue,71101,32.5083210,-93.7657993
300,Boisseau Avenue,71101,32.5089049,-93.7662503
302,Boisseau Avenue,71101,32.5088525,-93.7662502
304,Boisseau Avenue,71101,32.5088021,-93.7662495
306,Boisseau Avenue,71101,32.5087516,-93.7662500
308,Boisseau Avenue,71101,32.5087005,-93.7662506
310,Boisseau Avenue,71101,32.5086489,-93.7662493
312,Boisseau Avenue,71101,32.5085986,-93.7662481
322,Boisseau Avenue,71101,32.5083196,-93.7663101
400,Boisseau Avenue,71101,32.5078004,-93.7663687
505,Boisseau Avenue,71101,32.5069833,-93.7660267
224,Saint Luke Street,71101,32.5116662,-93.7674623
226,Saint Luke Street,71101,32.5117211,-93.7674619
1711,Logan Street,71101,32.5070275,-93.7666439
1717,Logan Street,71101,32.5070347,-93.7667709
1702,Logan Street,71101,32.5073963,-93.7662492
1706,Logan Street,71101,32.5074272,-93.7664332
1712,Logan Street,71101,32.5073980,-93.7665751
1716,Logan Street,71101,32.5074256,-93.7667412
1722,Logan Street,71101,32.5074421,-93.7670107
1724,Logan Street,71101,32.5074520,-93.7671209
1728,Logan Street,71101,32.5074455,-93.7672584
1801,Logan Street,71101,32.5069874,-93.7676071
1803,Logan Street,71101,32.5070032,-93.7677384
1809,Logan Street,71101,32.5069973,-93.7680155
1819,Logan Street,71101,32.5069961,-93.7685288
1835,Logan Street,71101,32.5069875,-93.7686508
1839,Logan Street,71101,32.5070015,-93.7687659
1851,Logan Street,71101,32.5070018,-93.7691710
1853,Logan Street,71101,32.5069786,-93.7692958
1855,Logan Street,71101,32.5070195,-93.7694194
1802,Logan Street,71101,32.5074703,-93.7677427
1808,Logan Street,71101,32.5074181,-93.7681312
1818,Logan Street,71101,32.5073804,-93.7682591
1828,Logan Street,71101,32.5073930,-93.7686512
1846,Logan Street,71101,32.5073888,-93.7691709
1850,Logan Street,71101,32.5073842,-93.7692991
1854,Logan Street,71101,32.5073904,-93.7694260
111,Boisseau Avenue,71101,32.5105284,-93.7659264
1729,Ford Street,71101,32.5105122,-93.7671139
1813,Ford Street,71101,32.5106245,-93.7682421
1815,Ford Street,71101,32.5106452,-93.7684017
1821,Ford Street,71101,32.5106053,-93.7685448
1825,Ford Street,71101,32.5106009,-93.7687052
1847,Ford Street,71101,32.5106282,-93.7688414
1849,Ford Street,71101,32.5106275,-93.7688845
1855,Ford Street,71101,32.5105988,-93.7691958
1800,Ford Street,71101,32.5109859,-93.7674169
1703,Garden Street,71101,32.5088709,-93.7663505
1705,Garden Street,71101,32.5088703,-93.7664085
1713,Garden Street,71101,32.5088074,-93.7666627
1723,Garden Street,71101,32.5087986,-93.7668815
1725,Garden Street,71101,32.5088336,-93.7669785
1825,Garden Street,71101,32.5088021,-93.7683895
1829,Garden Street,71101,32.5088143,-93.7686532
1845,Garden Street,71101,32.5088259,-93.7691012
1853,Garden Street,71101,32.5088042,-93.7694364
1812,Garden Street,71101,32.5091997,-93.7682222
1828,Garden Street,71101,32.5092025,-93.7686117
1834,Garden Street,71101,32.5092041,-93.7689881
1807,Myrtle Street,71101,32.5079384,-93.7678682
1819,Myrtle Street,71101,32.5079568,-93.7682626
1831,Myrtle Street,71101,32.5079325,-93.7686645
1835,Myrtle Street,71101,32.5079331,-93.7687888
1839,Myrtle Street,71101,32.5078800,-93.7689144
1841,Myrtle Street,71101,32.5079285,-93.7690475
1847,Myrtle Street,71101,32.5078810,-93.7691696
1851,Myrtle Street,71101,32.5079462,-93.7693082
1812,Myrtle Street,71101,32.5082780,-93.7680070
1836,Myrtle Street,71101,32.5083181,-93.7687649
1846,Myrtle Street,71101,32.5082882,-93.7691744
1850,Myrtle Street,71101,32.5083155,-93.7692991
1719,Perrin Street,71101,32.5096658,-93.7668048
1743,Perrin Street,71101,32.5096391,-93.7676074
1702,Perrin Street,71101,32.5100746,-93.7663199
1706,Perrin Street,71101,32.5100857,-93.7664865
1714,Perrin Street,71101,32.5102143,-93.7666466
1744,Perrin Street,71101,32.5100190,-93.7676075
1803,Perrin Street,71101,32.5096427,-93.7679269
1815,Perrin Street,71101,32.5096538,-93.7683933
1821,Perrin Street,71101,32.5096412,-93.7685783
1823,Perrin Street,71101,32.5096429,-93.7686681
1827,Perrin Street,71101,32.5096274,-93.7688524
1829,Perrin Street,71101,32.5096303,-93.7690222
1800,Perrin Street,71101,32.5100652,-93.7679981
1814,Perrin Street,71101,32.5100086,-93.7683723
1818,Perrin Street,71101,32.5100251,-93.7685360
1700,Alston Street,71101,32.5129541,-93.7665783
1710,Alston Street,71101,32.5129538,-93.7667588
1720,Alston Street,71101,32.5129487,-93.7669254
1730,Alston Street,71101,32.5129490,-93.7670941
1801,Alston Street,71101,32.5124807,-93.7674291
1803,Alston Street,71101,32.5125044,-93.7675589
1847,Alston Street,71101,32.5125367,-93.7689884
1853,Alston Street,71101,32.5125347,-93.7691119
1861,Alston Street,71101,32.5125239,-93.7693623
1850,Alston Street,71101,32.5128736,-93.7687365
1852,Alston Street,71101,32.5129042,-93.7688689
1701,Clay Street,71101,32.5134483,-93.7665545
1705,Clay Street,71101,32.5134378,-93.7666914
1709,Clay Street,71101,32.5134146,-93.7668331
1721,Clay Street,71101,32.5134667,-93.7670928
1725,Clay Street,71101,32.5134358,-93.7672245
1710,Clay Street,71101,32.5138616,-93.7667708
1728,Clay Street,71101,32.5138252,-93.7677487
1807,Clay Street,71101,32.5134270,-93.7680402
1809,Clay Street,71101,32.5134387,-93.7681700
1813,Clay Street,71101,32.5133921,-93.7683359
1845,Clay Street,71101,32.5133985,-93.7685686
1821,Clay Street,71101,32.5134036,-93.7686911
1825,Clay Street,71101,32.5134028,-93.7688231
1829,Clay Street,71101,32.5134043,-93.7689685
1816,Clay Street,71101,32.5138448,-93.7685616
1820,Clay Street,71101,32.5138413,-93.7687091
1824,Clay Street,71101,32.5138424,-93.7688231
1828,Clay Street,71101,32.5138445,-93.7689644
1815,Saint John Street,71101,32.5119965,-93.7678162
"1825,1827",Saint John Street,71101,32.5120225,-93.7682033
1839,Saint John Street,71101,32.5120408,-93.7687249
1841,Saint John Street,71101,32.5120476,-93.7688569
1843,Saint John Street,71101,32.5120304,-93.7689817
1857,Saint John Street,71101,32.5120243,-93.7692478
1810,Saint John Street,71101,32.5124063,-93.7676905
1828,Saint John Street,71101,32.5124053,-93.7683414
1838,Saint John Street,71101,32.5123757,-93.7687227
1840,Saint John Street,71101,32.5123724,-93.7688251
1842,Saint John Street,71101,32.5123703,-93.7688903
201,Saint Luke Street,71101,32.5109650,-93.7670036
205,Saint Luke Street,71101,32.5110759,-93.7669894
209,Saint Luke Street,71101,32.5111838,-93.7670147
233,Saint Luke Street,71101,32.5118386,-93.7671138
239,Saint Luke Street,71101,32.5119212,-93.7670849
241,Saint Luke Street,71101,32.5119779,-93.7670861
247,Saint Luke Street,71101,32.5121703,-93.7670780
251,Saint Luke Street,71101,32.5124267,-93.7669969
251,Saint Luke Street,71101,32.5124336,-93.7669895
1821,Saint Paul Street,71101,32.5111707,-93.7680745
1847,Saint Paul Street,71101,32.5111662,-93.7688842
1853,Saint Paul Street,71101,32.5111661,-93.7689500
1855,Saint Paul Street,71101,32.5111618,-93.7690180
1859,Saint Paul Street,71101,32.5111841,-93.7692321
1800,Saint Paul Street,71101,32.5115163,-93.7674267
1842,Saint Paul Street,71101,32.5114976,-93.7687590
1840,Saint Paul Street,71101,32.5114979,-93.7687140
1848,Saint Paul Street,71101,32.5115069,-93.7689564
215,Webster Street,71101,32.5112777,-93.7662143
221,Webster Street,71101,32.5113986,-93.7661930
231,Webster Street,71101,32.5117288,-93.7661657
235,Webster Street,71101,32.5118378,-93.7662036
218,Webster Street,71101,32.5113833,-93.7666059
262,Webster Street,71101,32.5125910,-93.7665920
421,Webster Street,71101,32.5141842,-93.7668875
1549,Anna Street,71101,32.5061308,-93.7627362
1522,Anna Street,71101,32.5065460,-93.7618284
1611,Anna Street,71101,32.5061372,-93.7635852
1615,Anna Street,71101,32.5060733,-93.7637300
1619,Anna Street,71101,32.5060515,-93.7638652
1620,Anna Street,71101,32.5065169,-93.7640123
1634,Anna Street,71101,32.5065097,-93.7643834
1525,Logan Street,71101,32.5070320,-93.7619551
1533,Logan Street,71101,32.5070043,-93.7622080
1537,Logan Street,71101,32.5070381,-93.7623484
1541,Logan Street,71101,32.5070365,-93.7624790
1549,Logan Street,71101,32.5069844,-93.7627386
1557,Logan Street,71101,32.5069886,-93.7630256
1635,Logan Street,71101,32.5070002,-93.7643812
1622,Logan Street,71101,32.5074199,-93.7639738
1535,Myrtle Street,71101,32.5077256,-93.7623128
1535,Myrtle Street,71101,32.5078113,-93.7626667
1551,Myrtle Street,71101,32.5078162,-93.7627773
1668,Ford Street,71101,32.5110263,-93.7658147
1625,Myrtle Street,71101,32.5080456,-93.7638169
1629,Myrtle Street,71101,32.5080542,-93.7640658
1654,Myrtle Street,71101,32.5083683,-93.7654848
315,Pierre Avenue,71101,32.5086894,-93.7629358
310,Pierre Avenue,71101,32.5084572,-93.7634232
312,Pierre Avenue,71101,32.5083437,-93.7634340
1602,Buena Vista Street,71101,32.5120056,-93.7633613
111,Pierre Avenue,71101,32.5105713,-93.7629643
101,Pierre Avenue,71101,32.5106906,-93.7629791
1557,Ford Street,71101,32.5107527,-93.7628819
1504,Ford Street,71101,32.5112708,-93.7613540
1532,Ford Street,71101,32.5111574,-93.7621447
1663,Ford Street,71101,32.5107188,-93.7651972
1635,Ford Street,71101,32.5106777,-93.7645474
1602,Ford Street,71101,32.5112140,-93.7634549
1606,Ford Street,71101,32.5112043,-93.7636417
1632,Ford Street,71101,32.5111133,-93.7642805
1525,Garden Street,71101,32.5088164,-93.7619695
1543,Garden Street,71101,32.5088338,-93.7625305
1547,Garden Street,71101,32.5088332,-93.7626475
1540,Garden Street,71101,32.5092573,-93.7625180
1548,Garden Street,71101,32.5092706,-93.7627014
1554,Garden Street,71101,32.5092546,-93.7628483
1623,Garden Street,71101,32.5088108,-93.7640480
1621,Garden Street,71101,32.5087830,-93.7642526
1631,Garden Street,71101,32.5087944,-93.7643889
1633,Garden Street,71101,32.5087950,-93.7645323
1647,Garden Street,71101,32.5087831,-93.7649421
1649,Garden Street,71101,32.5087831,-93.7650500
1651,Garden Street,71101,32.5087750,-93.7651801
1653,Garden Street,71101,32.5087889,-93.7653086
1671,Garden Street,71101,32.5087591,-93.7655685
1673,Garden Street,71101,32.5088058,-93.7656915
1683,Garden Street,71101,32.5087550,-93.7659582
1616,Garden Street,71101,32.5092545,-93.7638803
1618,Garden Street,71101,32.5092535,-93.7640114
1620,Garden Street,71101,32.5092419,-93.7641472
1632,Garden Street,71101,32.5092579,-93.7642673
1634,Garden Street,71101,32.5092552,-93.7644021
1646,Garden Street,71101,32.5092539,-93.7647901
1652,Garden Street,71101,32.5092493,-93.7649276
1656,Garden Street,71101,32.5092474,-93.7650556
1660,Garden Street,71101,32.5092656,-93.7652241
1664,Garden Street,71101,32.5095235,-93.7655132
113,Hamilton Street,71101,32.5105662,-93.7618828
115,Hamilton Street,71101,32.5104524,-93.7618828
123,Hamilton Street,71101,32.5102717,-93.7618662
127,Hamilton Street,71101,32.5100945,-93.7618940
133,Hamilton Street,71101,32.5099127,-93.7619039
130,Hamilton Street,71101,32.5100862,-93.7625927
134,Hamilton Street,71101,32.5099468,-93.7624081
138,Hamilton Street,71101,32.5098114,-93.7624171
144,Hamilton Street,71101,32.5095875,-93.7623914
115,Pierre Avenue,71101,32.5104713,-93.7629684
119,Pierre Avenue,71101,32.5103554,-93.7629764
123,Pierre Avenue,71101,32.5102530,-93.7629731
116,Pierre Avenue,71101,32.5103939,-93.7634781
1627,Templeman Street,71101,32.5098222,-93.7642332
1635,Templeman Street,71101,32.5097965,-93.7644061
1645,Templeman Street,71101,32.5098220,-93.7648037
1649,Templeman Street,71101,32.5097803,-93.7650441
1655,Templeman Street,71101,32.5097954,-93.7651907
1614,Templeman Street,71101,32.5102395,-93.7637605
1622,Templeman Street,71101,32.5102512,-93.7640211
1626,Templeman Street,71101,32.5102554,-93.7641500
1630,Templeman Street,71101,32.5102497,-93.7642821
1634,Templeman Street,71101,32.5102369,-93.7644380
1640,Templeman Street,71101,32.5102330,-93.7646005
1644,Templeman Street,71101,32.5102550,-93.7647556
1646,Templeman Street,71101,32.5102280,-93.7649273
1664,Templeman Street,71101,32.5102355,-93.7654346
1668,Templeman Street,71101,32.5102096,-93.7655740
1680,Templeman Street,71101,32.5102227,-93.7659178
1501,Alston Street,71101,32.5125243,-93.7612366
1505,Alston Street,71101,32.5125502,-93.7613830
1509,Alston Street,71101,32.5125526,-93.7615096
1513,Alston Street,71101,32.5125617,-93.7616252
1517,Alston Street,71101,32.5125629,-93.7617695
1521,Alston Street,71101,32.5125662,-93.7618921
1525,Alston Street,71101,32.5125665,-93.7620222
1529,Alston Street,71101,32.5125654,-93.7621522
1520,Alston Street,71101,32.5129515,-93.7617901
1524,Alston Street,71101,32.5129525,-93.7619213
1528,Alston Street,71101,32.5129413,-93.7620260
1530,Alston Street,71101,32.5129498,-93.7621523
1532,Alston Street,71101,32.5129532,-93.7622698
1548,Alston Street,71101,32.5129498,-93.7626609
1552,Alston Street,71101,32.5129474,-93.7628028
1554,Alston Street,71101,32.5129496,-93.7629055
1619,Alston Street,71101,32.5125648,-93.7646680
1624,Alston Street,71101,32.5129325,-93.7641211
1605,Clay Street,71101,32.5134702,-93.7634646
1613,Clay Street,71101,32.5134689,-93.7637775
1612,Clay Street,71101,32.5138552,-93.7636106
1616,Clay Street,71101,32.5138258,-93.7638097
1620,Clay Street,71101,32.5138337,-93.7639637
121,Leroy Street,71101,32.5115608,-93.7651518
108,Leroy Street,71101,32.5112463,-93.7655649
130,Leroy Street,71101,32.5118524,-93.7655705
202,Leroy Street,71101,32.5119505,-93.7655532
1515,Buena Vista Street,71101,32.5116402,-93.7616354
1523,Buena Vista Street,71101,32.5116232,-93.7618667
1527,Buena Vista Street,71101,32.5116547,-93.7620050
1531,Buena Vista Street,71101,32.5116584,-93.7621515
1539,Buena Vista Street,71101,32.5116450,-93.7623978
1559,Buena Vista Street,71101,32.5115716,-93.7630358
1502,Buena Vista Street,71101,32.5120771,-93.7612711
1514,Buena Vista Street,71101,32.5120598,-93.7616358
1526,Buena Vista Street,71101,32.5120630,-93.7620239
1539,Clay Street,71101,32.5134641,-93.7624159
1543,Clay Street,71101,32.5134611,-93.7625444
1547,Clay Street,71101,32.5134603,-93.7626798
1551,Clay Street,71101,32.5134413,-93.7628251
1555,Clay Street,71101,32.5134563,-93.7629020
1559,Clay Street,71101,32.5134387,-93.7629793
1563,Clay Street,71101,32.5134180,-93.7630593
413,Pierre Avenue,71101,32.5076120,-93.7629685
406,Pierre Avenue,71101,32.5076501,-93.7634369
412,Pierre Avenue,71101,32.5073757,-93.7634229
"1669,1671",Logan Street,71101,32.5070083,-93.7655079
1681,Logan Street,71101,32.5069920,-93.7658963
1544,Clay Street,71101,32.5139002,-93.7625501
1548,Clay Street,71101,32.5138990,-93.7626756
1554,Clay Street,71101,32.5139018,-93.7629332
1560,Clay Street,71101,32.5138967,-93.7630621
1664,Clay Street,71101,32.5138567,-93.7651782
1672,Clay Street,71101,32.5138545,-93.7655797
1676,Clay Street,71101,32.5138526,-93.7657307
1678,Clay Street,71101,32.5138130,-93.7658767
1684,Clay Street,71101,32.5137931,-93.7660662
1688,Clay Street,71101,32.5137906,-93.7662288
1669,Anna Street,71101,32.5061011,-93.7655132
1677,Anna Street,71101,32.5060588,-93.7657698
1670,Anna Street,71101,32.5064928,-93.7655052
1674,Anna Street,71101,32.5064959,-93.7656348
1678,Anna Street,71101,32.5064990,-93.7658343
1682,Anna Street,71101,32.5064996,-93.7659997
1513,Ford Street,71101,32.5107470,-93.7615164
102,Allen Avenue,71101,32.5108033,-93.7613178
104,Allen Avenue,71101,32.5107085,-93.7613178
106,Allen Avenue,71101,32.5106151,-93.7613166
1515,Ford Street,71101,32.5108023,-93.7616922
1500,Garden Street,71101,32.5093443,-93.7614025
1520,Garden Street,71101,32.5092805,-93.7618214
1524,Garden Street,71101,32.5092472,-93.7619624
1520,Myrtle Street,71101,32.5081575,-93.7618627
1526,Myrtle Street,71101,32.5081531,-93.7620002
1534,Myrtle Street,71101,32.5081455,-93.7622581
1536,Myrtle Street,71101,32.5081846,-93.7623894
1544,Myrtle Street,71101,32.5081321,-93.7626466
1554,Myrtle Street,71101,32.5081334,-93.7629188
1504,Clay Street,71101,32.5138857,-93.7612538
1508,Clay Street,71101,32.5138655,-93.7613912
1512,Clay Street,71101,32.5138402,-93.7615091
1516,Clay Street,71101,32.5138443,-93.7616399
1520,Clay Street,71101,32.5138526,-93.7617666
1524,Clay Street,71101,32.5138401,-93.7618743
1528,Clay Street,71101,32.5138325,-93.7620103
1536,Clay Street,71101,32.5138740,-93.7622838
1540,Clay Street,71101,32.5138680,-93.7624277
313,Allen Avenue,71101,32.5085246,-93.7607608
317,Allen Avenue,71101,32.5083831,-93.7607785
321,Allen Avenue,71101,32.5082842,-93.7607808
324,Allen Avenue,71101,32.5083811,-93.7613382
326,Allen Avenue,71101,32.5082393,-93.7613242
415,Allen Avenue,71101,32.5073937,-93.7607887
501,Allen Avenue,71101,32.5071122,-93.7608434
517,Allen Avenue,71101,32.5066031,-93.7608539
519,Allen Avenue,71101,32.5064836,-93.7608518
502,Allen Avenue,71101,32.5070761,-93.7613245
506,Allen Avenue,71101,32.5069655,-93.7613166
1445,Anna Street,71101,32.5061288,-93.7604736
1451,Anna Street,71101,32.5061096,-93.7606131
1440,Anna Street,71101,32.5065450,-93.7602571
1417,Logan Street,71101,32.5070341,-93.7595304
1416,Logan Street,71101,32.5074301,-93.7595860
1420,Logan Street,71101,32.5074312,-93.7597143
317,Pete Harris Drive,71101,32.5085927,-93.7586721
400,Pete Harris Drive,71101,32.5075303,-93.7591651
400,Pete Harris Drive,71101,32.5074523,-93.7593724
530,Pete Harris Drive,71101,32.5065177,-93.7590976
101,Allen Avenue,71101,32.5108157,-93.7608248
115,Allen Avenue,71101,32.5102483,-93.7608393
121,Allen Avenue,71101,32.5099519,-93.7608352
124,Allen Avenue,71101,32.5102266,-93.7613282
114,Pine Street,71101,32.5104637,-93.7602049
116,Pine Street,71101,32.5103437,-93.7602087
215,Pine Street,71101,32.5103653,-93.7597679
119,Pine Street,71101,32.5102274,-93.7597737
426,Allendale Street,71101,32.5084216,-93.7600451
428,Allendale Street,71101,32.5083668,-93.7600451
1428,Ford Street,71101,32.5111431,-93.7598790
1421,Forte Street,71101,32.5097624,-93.7595353
1425,Forte Street,71101,32.5097585,-93.7596520
1409,Buena Vista Street,71101,32.5116735,-93.7592267
1411,Buena Vista Street,71101,32.5116707,-93.7593758
1417,Buena Vista Street,71101,32.5116702,-93.7595377
804,Louisiana Avenue,71101,32.5087109,-93.7491080
845,Cotton Street,71101,32.5072263,-93.7513170
875,Cotton Street,71101,32.5070059,-93.7514027
2138,Greenwood Road,71103,32.4860052,-93.7728350
2492,Texas Avenue,71103,32.4866800,-93.7706429
2139,Greenwood Road,71103,32.4853228,-93.7725186
2127,Greenwood Road,71103,32.4856271,-93.7715855
2005,Greenwood Road,71103,32.4853405,-93.7710091
1439,Buena Vista Street,71101,32.5116403,-93.7602581
1402,Buena Vista Street,71101,32.5120377,-93.7592001
1416,Buena Vista Street,71101,32.5120705,-93.7594904
1420,Buena Vista Street,71101,32.5121982,-93.7596243
1424,Buena Vista Street,71101,32.5120547,-93.7597336
1428,Buena Vista Street,71101,32.5120587,-93.7598817
1432,Buena Vista Street,71101,32.5120634,-93.7600092
1436,Buena Vista Street,71101,32.5120920,-93.7601425
1442,Buena Vista Street,71101,32.5120845,-93.7602635
110,North Allen Avenue,71101,32.5114837,-93.7613594
112,North Allen Avenue,71101,32.5116608,-93.7613199
319,North Allen Avenue,71101,32.5134414,-93.7609237
300,North Allen Avenue,71101,32.5129339,-93.7612788
306,North Allen Avenue,71101,32.5131013,-93.7612731
1423,Alston Street,71101,32.5125606,-93.7597514
1433,Alston Street,71101,32.5125567,-93.7601353
1437,Alston Street,71101,32.5125672,-93.7602681
1441,Alston Street,71101,32.5125641,-93.7603987
1445,Alston Street,71101,32.5125613,-93.7605333
1449,Alston Street,71101,32.5125626,-93.7606593
1453,Alston Street,71101,32.5125590,-93.7607925
1457,Alston Street,71101,32.5125602,-93.7609225
1404,Alston Street,71101,32.5129727,-93.7591763
1420,Alston Street,71101,32.5129593,-93.7596263
1428,Alston Street,71101,32.5129455,-93.7598727
1448,Alston Street,71101,32.5130055,-93.7605337
1401,Clay Street,71101,32.5134865,-93.7590955
1411,Clay Street,71101,32.5134966,-93.7593562
1413,Clay Street,71101,32.5134482,-93.7594933
1427,Clay Street,71101,32.5134395,-93.7598781
1431,Clay Street,71101,32.5134771,-93.7600226
1439,Clay Street,71101,32.5134612,-93.7604037
1445,Clay Street,71101,32.5134446,-93.7605339
1455,Clay Street,71101,32.5135038,-93.7607784
1408,Clay Street,71101,32.5139060,-93.7593753
1418,Clay Street,71101,32.5138643,-93.7595710
1434,Clay Street,71101,32.5138563,-93.7601489
1442,Clay Street,71101,32.5138710,-93.7604130
1460,Clay Street,71101,32.5138457,-93.7609418
110,North Western Avenue,71101,32.5112888,-93.7591656
120,North Western Avenue,71101,32.5113893,-93.7591543
1451,Logan Street,71101,32.5070575,-93.7606370
1437,Garden Street,71101,32.5088715,-93.7601846
1441,Garden Street,71101,32.5089226,-93.7603385
407,Pete Harris Drive,71101,32.5081365,-93.7587132
502,North Pierre Avenue,71101,32.5147003,-93.7634921
506,North Pierre Avenue,71101,32.5148071,-93.7635012
510,North Pierre Avenue,71101,32.5149073,-93.7634872
528,North Pierre Avenue,71101,32.5153507,-93.7634962
532,North Pierre Avenue,71101,32.5154606,-93.7634985
424,North Allen Avenue,71101,32.5143796,-93.7613235
1407,Patzman Street,71101,32.5143864,-93.7592345
1427,Patzman Street,71101,32.5143939,-93.7598707
1431,Patzman Street,71101,32.5143961,-93.7600851
1439,Patzman Street,71101,32.5143847,-93.7602739
1449,Patzman Street,71101,32.5143523,-93.7605403
1453,Patzman Street,71101,32.5143492,-93.7606710
1519,Patzman Street,71101,32.5143436,-93.7618954
225,North Common Street,71101,32.5155255,-93.7583886
241,North Common Street,71101,32.5168083,-93.7596711
253,North Common Street,71101,32.5180601,-93.7605243
315,Douglas Street,71101,32.5115756,-93.7547400
161,Christian Street,71101,32.5101252,-93.7574304
1111,View Street,71101,32.5114213,-93.7583595
217,North Baker Street,71101,32.5133657,-93.7584136
221,North Baker Street,71101,32.5135245,-93.7586123
612,Caddo Street,71101,32.5145197,-93.7535881
616,Caddo Street,71101,32.5144567,-93.7536831
800,Travis Street,71101,32.5117143,-93.7537358
321,Lawrence Street,71101,32.5084534,-93.7585790
1257,Travis Street,71101,32.5080133,-93.7581512
409,Lawrence Street,71101,32.5078959,-93.7579505
937,Travis Street,71101,32.5101085,-93.7552010
729,Travis Street,71101,32.5116940,-93.7530877
710,Travis Street,71101,32.5123551,-93.7529859
1237,Travis Street,71101,32.5083516,-93.7576406
1244,Travis Street,71101,32.5086617,-93.7578996
1246,Travis Street,71101,32.5086230,-93.7579536
1240,Travis Street,71101,32.5085800,-93.7580263
1244,Travis Street,71101,32.5085153,-93.7581045
1246,Travis Street,71101,32.5084795,-93.7581559
1248,Travis Street,71101,32.5084439,-93.7582073
1250,Travis Street,71101,32.5084115,-93.7582547
1252,Travis Street,71101,32.5083754,-93.7583140
9155,Mansfield Road,71118,32.4038443,-93.8007638
2120,Kings Highway,71103,32.4823629,-93.7727000
2925,Mansfield Road,71103,32.4823921,-93.7711643
1907,Jim Casey Drive,71103,32.4831599,-93.7699470
1904,Kings Highway,71103,32.4825550,-93.7689006
1912,Kings Highway,71103,32.4820740,-93.7692250
1868,Kings Highway,71103,32.4828399,-93.7686005
1750,Kings Highway,71103,32.4820487,-93.7665786
1720,Kings Highway,71103,32.4821424,-93.7657145
1710,Kings Highway,71103,32.4821873,-93.7653760
1704,Kings Highway,71103,32.4821170,-93.7652014
1607,Kings Highway,71103,32.4814473,-93.7635891
4400,Hilry Huckaby III Avenue,71107,32.5337230,-93.8291778
4374,Hilry Huckaby III Avenue,71107,32.5329207,-93.8283277
1627,David Raines Road,71107,32.5359293,-93.8266677
1100,West 70th Street,71106,32.4438223,-93.7787223
1107,West 70th Street,71106,32.4416156,-93.7792994
1111,West 70th Street,71106,32.4407785,-93.7800156
5000,Greenwood Road,71109,32.4701599,-93.8307016
5004,Greenwood Road,71109,32.4697604,-93.8310187
5008,Greenwood Road,71109,32.4696119,-93.8311754
4820,Greenwood Road,71109,32.4718292,-93.8253383
3921,Hutchinson Street,71109,32.4733496,-93.8241785
990,Quail Creek Road,71105,32.4821229,-93.7095490
245,Southfield Road,71105,32.4558544,-93.7171235
6940,Pines Road,71129-2516,32.4427259,-93.8628898
6930,Pines Road,71129-2516,32.4431850,-93.8628403
6935,Pines Road,71129-2515,32.4429382,-93.8615443
6903,Pines Road,71129-2515,32.4434567,-93.8616838
6825,Pines Road,71129-2513,32.4443028,-93.8614922
6825,Pines Road,71129-2513,32.4446248,-93.8619315
6039,Five Oaks Drive,71129-2540,32.4449505,-93.8610477
6832,Pines Road,71129-2514,32.4439754,-93.8628088
6025,West 70th Street,71129-2505,32.4418006,-93.8614147
6021,West 70th Street,71129-2505,32.4418587,-93.8610700
6101,West 70th Street,71129-2507,32.4416894,-93.8627732
9368,Mansfield Road,71118-3181,32.3975274,-93.8094570
9370,Mansfield Road,71118-3181,32.3972338,-93.8098820
9374,Mansfield Road,71118-3181,32.3968907,-93.8099998
9376,Mansfield Road,71118-3181,32.3967522,-93.8102841
2913,Southland Park Drive,71118-3033,32.3975623,-93.8100349
3000,Colquitt Road,71118-3702,32.3962373,-93.8112098
3020,Colquitt Road,71118-3759,32.3970158,-93.8125602
3030,Colquitt Road,71118-3702,32.3956341,-93.8131755
9424,Mansfield Road,71118-3816,32.3953058,-93.8115403
9428,Mansfield Road,71118-3816,32.3948490,-93.8121354
9428,Mansfield Road,71118-3816,32.3950924,-93.8118675
9430,Mansfield Road,71118-3816,32.3944257,-93.8124437
9434,Mansfield Road,71118-3816,32.3940592,-93.8127561
9436,Mansfield Road,71118-3816,32.3938675,-93.8132155
9365,Mansfield Road,71118-3126,32.3976911,-93.8078318
9341,Mansfield Road,71118-3126,32.3981113,-93.8073973
9360,Mansfield Road,71118-3127,32.3981049,-93.8089568
9360,Mansfield Road,71118-3127,32.3982546,-93.8096982
9356,Mansfield Road,71118-3127,32.3985371,-93.8089123
9352,Mansfield Road,71118-3127,32.3991185,-93.8081106
9312,Mansfield Road,71118-3127,32.3994091,-93.8077925
9310,Mansfield Road,71118-3127,32.3996132,-93.8075496
9301,Mansfield Road,71118-3126,32.3982693,-93.8060841
9315,Mansfield Road,71118-3126,32.3989578,-93.8063853
9308,Mansfield Road,71118-3160,32.4000425,-93.8070936
9251,Mansfield Road,71118-3124,32.3993897,-93.8061156
545,East Washington Street,71104,32.4844255,-93.7223393
2605,C. E. Galloway Boulevard,71104,32.4854305,-93.7201867
2600,C. E. Galloway Boulevard,71104,32.4858052,-93.7212497
2634,C. E. Galloway Boulevard,71104,32.4860876,-93.7210783
521,Sykes Street,71104,32.4861304,-93.7216801
2623,Roosevelt Avenue,71104,32.4866399,-93.7220437
557,Lomax Street,71104,32.4870037,-93.7205151
563,Lomax Street,71104,32.4871058,-93.7206738
2535,C. E. Galloway Boulevard,71104,32.4873188,-93.7198580
2531,C. E. Galloway Boulevard,71104,32.4874719,-93.7198785
2525,C. E. Galloway Boulevard,71104,32.4877349,-93.7197802
636,East Kings Highway,71105,32.4790246,-93.7207623
641,East Kings Highway,71105,32.4796742,-93.7197834
110,Archer Avenue,71105,32.4785252,-93.7198551
748,East Kings Highway,71105,32.4777860,-93.7179851
754,East Kings Highway,71105,32.4775146,-93.7177861
714,Shreveport Barksdale Highway,71105,32.4791703,-93.7172811
772,East Kings Highway,71105,32.4772288,-93.7176474
745,Shreveport Barksdale Highway,71105,32.4781094,-93.7148272
750,Shreveport Barksdale Highway,71105,32.4802566,-93.7154392
760,Shreveport Barksdale Highway,71105,32.4810125,-93.7153251
3830,Greenwood Road,71109,32.4719670,-93.8035709
3820,Greenwood Road,71109,32.4721599,-93.8032697
3801,Greenwood Road,71109,32.4720728,-93.8016723
3727,Greenwood Road,71109,32.4719772,-93.8012833
3725,Greenwood Road,71109,32.4725396,-93.8010195
3730,Greenwood Road,71109,32.4730981,-93.8012099
3718,Greenwood Road,71109,32.4740454,-93.8002061
3712,Greenwood Road,71109,32.4741701,-93.7998739
3704,Greenwood Road,71109,32.4746049,-93.7993154
3810,Jewella Avenue,71109,32.4756938,-93.7981391
3802,Jewella Avenue,71109,32.4761781,-93.7976484
4101,Smith Street,71109,32.4731016,-93.8026919
4102,Smith Street,71109,32.4731051,-93.8032084
3918,La Rue Street,71109,32.4735827,-93.8034100
3914,La Rue Street,71109,32.4735925,-93.8032253
3910,La Rue Street,71109,32.4735823,-93.8029706
3906,La Rue Street,71109,32.4736037,-93.8027764
3902,La Rue Street,71109,32.4735729,-93.8025408
4012,Sandra Street,71109,32.4737930,-93.8025306
3700,La Rue Street,71109,32.4735715,-93.8019960
3802,La Rue Street,71109,32.4735537,-93.8017230
4122,Mission Street,71109,32.4738730,-93.8016576
4102,Mission Street,71109,32.4743750,-93.8014300
4011,Sandra Street,71109,32.4740429,-93.8019437
4007,Sandra Street,71109,32.4742267,-93.8019863
4001,Sandra Street,71109,32.4743916,-93.8019942
4006,Sandra Street,71109,32.4739609,-93.8025139
4002,Sandra Street,71109,32.4741644,-93.8024910
3907,Shirley Circle,71109,32.4741121,-93.8027674
3911,Shirley Circle,71109,32.4741095,-93.8029964
3915,Shirley Circle,71109,32.4741630,-93.8032556
3918,Shirley Circle,71109,32.4744418,-93.8033106
3914,Shirley Circle,71109,32.4746747,-93.8032148
3910,Shirley Circle,71109,32.4747495,-93.8029614
3906,Shirley Circle,71109,32.4746724,-93.8027738
3918,Sandra Street,71109,32.4746917,-93.8025004
3914,Sandra Street,71109,32.4748889,-93.8024663
3915,Sandra Street,71109,32.4748905,-93.8019662
3919,Sandra Street,71109,32.4747252,-93.8019680
3923,Sandra Street,71109,32.4745709,-93.8019829
3803,Jewella Avenue,71109,32.4765462,-93.7968896
3718,Jewella Avenue,71109,32.4766967,-93.7976321
3710,Jewella Avenue,71109,32.4769164,-93.7976367
3704,Jewella Avenue,71109,32.4771253,-93.7975647
3606,Jewella Avenue,71109,32.4779831,-93.7976814
3520,Jewella Avenue,71109,32.4785428,-93.7976787
3500,Jewella Avenue,71109,32.4788749,-93.7976356
3420,Jewella Avenue,71109,32.4794267,-93.7976948
3735,Jewella Avenue,71109,32.4769426,-93.7956269
3519,Jewella Avenue,71109,32.4793431,-93.7963851
3515,Jewella Avenue,71109,32.4797260,-93.7965030
4810,Greenwood Road,71109,32.4716618,-93.8247750
4808,Greenwood Road,71109,32.4716625,-93.8246148
4024,Hutchinson Street,71109,32.4723992,-93.8246807
4020,Hutchinson Street,71109,32.4727182,-93.8246394
4012,Hutchinson Street,71109,32.4729719,-93.8246602
3922,Hutchinson Street,71109,32.4733462,-93.8246566
3918,Hutchinson Street,71109,32.4735137,-93.8246586
3914,Hutchinson Street,71109,32.4736715,-93.8246629
3910,Hutchinson Street,71109,32.4738367,-93.8246605
3906,Hutchinson Street,71109,32.4740018,-93.8246630
3905,Hutchinson Street,71109,32.4740089,-93.8241885
3909,Hutchinson Street,71109,32.4738402,-93.8241835
3913,Hutchinson Street,71109,32.4736801,-93.8241824
3917,Hutchinson Street,71109,32.4735141,-93.8241776
4908,Greenwood Road,71109,32.4708727,-93.8291785
5024,Greenwood Road,71109,32.4694836,-93.8321764
4099,Ratcliff Road,71109,32.4783136,-93.8319798
4720,Greenwood Road,71109,32.4716538,-93.8241108
4023,Hutchinson Street,71109,32.4724581,-93.8241545
4021,Hutchinson Street,71109,32.4726319,-93.8241595
4019,Hutchinson Street,71109,32.4727405,-93.8242034
4017,Hutchinson Street,71109,32.4728931,-93.8241409
4015,Hutchinson Street,71109,32.4730634,-93.8241424
4714,Greenwood Road,71109,32.4716781,-93.8234642
4708,Greenwood Road,71109,32.4716745,-93.8230423
4650,Greenwood Road,71109,32.4718281,-93.8222483
4707,Greenwood Road,71109,32.4709773,-93.8227548
6005,Youree Drive,71105,32.4527715,-93.7216014
6009,Youree Drive,71105,32.4521554,-93.7216552
6105,Youree Drive,71105,32.4518624,-93.7211597
6105,Youree Drive,71105,32.4518070,-93.7211598
6105,Youree Drive,71105,32.4517450,-93.7211598
6360,Youree Drive,71105,32.4488246,-93.7222594
6360,Youree Drive,71105,32.4487277,-93.7222566
6360,Youree Drive,71105,32.4486678,-93.7222366
6360,Youree Drive,71105,32.4486081,-93.7222148
6360,Youree Drive,71105,32.4485550,-93.7221845
6319,Sand Beach Boulevard,71105,32.4492986,-93.7229203
6323,Sand Beach Boulevard,71105,32.4489778,-93.7232716
6327,Sand Beach Boulevard,71105,32.4487848,-93.7234763
6328,Sand Beach Boulevard,71105,32.4490374,-93.7240249
6331,Sand Beach Boulevard,71105,32.4485668,-93.7236120
6401,Sand Beach Boulevard,71105,32.4483676,-93.7237355
6405,Sand Beach Boulevard,71105,32.4481821,-93.7238663
215,Sand Beach Boulevard,71105,32.4505154,-93.7190205
216,Sand Beach Boulevard,71105,32.4518077,-93.7199952
8979,Walker Road,71118,32.4121961,-93.8139479
721,Bert Kouns Industrial Loop,71118,32.4005866,-93.7764609
803,Pine Hill Road,71107-3130,32.5793691,-93.7879812
818,Pine Hill Road,71107-3131,32.5806276,-93.7892299
900,Pine Hill Road,71107-3133,32.5805812,-93.7901174
902,Pine Hill Road,71107-3133,32.5806991,-93.7905711
908,Pine Hill Road,71107-3133,32.5806348,-93.7911780
913,Pine Hill Road,71107-3132,32.5800318,-93.7907468
917,Pine Hill Road,71107-3132,32.5799419,-93.7911017
921,Pine Hill Road,71107-3132,32.5799371,-93.7913177
925,Pine Hill Road,71107-3132,32.5799472,-93.7915447
926,Pine Hill Road,71107-3133,32.5805748,-93.7919896
929,Pine Hill Road,71107-3132,32.5798777,-93.7918160
930,Pine Hill Road,71107-3133,32.5805474,-93.7922832
933,Pine Hill Road,71107-3132,32.5798814,-93.7921313
937,Pine Hill Road,71107-3132,32.5796537,-93.7922968
943,Pine Hill Road,71107-3132,32.5799202,-93.7927143
945,Pine Hill Road,71107-3132,32.5799474,-93.7929623
949,Pine Hill Road,71107-3132,32.5795519,-93.7931067
957,Pine Hill Road,71107-3132,32.5798621,-93.7935840
961,Pine Hill Road,71107-3132,32.5799563,-93.7937497
1003,Max Fern Street,71107-2935,32.5824430,-93.7951459
1015,Max Fern Street,71107-2935,32.5828561,-93.7948131
809,Winter Garden Drive,71107-3134,32.5775053,-93.7860413
810,Winter Garden Drive,71107-3135,32.5781251,-93.7860604
816,Winter Garden Drive,71107-3135,32.5780847,-93.7864388
820,Winter Garden Drive,71107-3135,32.5781422,-93.7867981
830,Winter Garden Drive,71107-3135,32.5780771,-93.7877648
834,Winter Garden Drive,71107-3135,32.5781586,-93.7880588
838,Winter Garden Drive,71107-3135,32.5781384,-93.7883457
839,Winter Garden Drive,71107-3134,32.5775617,-93.7880785
845,Winter Garden Drive,71107-3134,32.5775201,-93.7887147
848,Winter Garden Drive,71107-3135,32.5782812,-93.7889441
849,Winter Garden Drive,71107-3134,32.5775324,-93.7889895
900,Winter Garden Drive,71107-3137,32.5781112,-93.7900387
955,Winter Garden Drive,71107-3140,32.5771422,-93.7922027
964,Winter Garden Drive,71107-3136,32.5786404,-93.7938447
700,Lincoln Drive,71107-3210,32.5768829,-93.7830650
705,Lincoln Drive,71107-3209,32.5764642,-93.7827210
706,Lincoln Drive,71107-3210,32.5767523,-93.7833174
707,Lincoln Drive,71107-3209,32.5763078,-93.7829592
712,Lincoln Drive,71107-3210,32.5765614,-93.7835527
713,Lincoln Drive,71107-3209,32.5761828,-93.7831748
717,Lincoln Drive,71107-3209,32.5760294,-93.7833993
720,Lincoln Drive,71107-3210,32.5764184,-93.7838330
725,Lincoln Drive,71107-3209,32.5758718,-93.7836773
730,Lincoln Drive,71107-3210,32.5761805,-93.7841626
731,Lincoln Drive,71107-3209,32.5756700,-93.7839968
736,Lincoln Drive,71107-3210,32.5760474,-93.7844340
737,Lincoln Drive,71107-3209,32.5754654,-93.7843357
742,Lincoln Drive,71107-3210,32.5758394,-93.7848197
743,Lincoln Drive,71107-3209,32.5753035,-93.7847604
747,Lincoln Drive,71107-3209,32.5752310,-93.7850820
800,Lincoln Drive,71107-3116,32.5758944,-93.7856693
801,Lincoln Drive,71107-3115,32.5750506,-93.7859820
803,Lincoln Drive,71107-3115,32.5752281,-93.7863381
804,Lincoln Drive,71107-3116,32.5758899,-93.7860079
805,Lincoln Drive,71107-3115,32.5751615,-93.7866555
807,Lincoln Drive,71107-3115,32.5750315,-93.7870619
808,Lincoln Drive,71107-3116,32.5759242,-93.7863377
810,Lincoln Drive,71107-3116,32.5759056,-93.7866591
812,Lincoln Drive,71107-3116,32.5758863,-93.7870031
815,Lincoln Drive,71107-3115,32.5751091,-93.7876168
816,Lincoln Drive,71107-3116,32.5759384,-93.7875375
825,Lincoln Drive,71107-3115,32.5751055,-93.7881813
835,Lincoln Drive,71107-3115,32.5751711,-93.7887771
845,Lincoln Drive,71107-3115,32.5751928,-93.7893954
850,Lincoln Drive,71107-3116,32.5758394,-93.7894886
900,Lincoln Drive,71107-3118,32.5756351,-93.7902033
901,Lincoln Drive,71107-3117,32.5749741,-93.7900937
922,Lincoln Drive,71107-3118,32.5752671,-93.7917492
3600,Addison Avenue,71107-3108,32.5729099,-93.7896902
3601,Addison Avenue,71107-3107,32.5734354,-93.7901925
3602,Addison Avenue,71107-3108,32.5737534,-93.7888312
3604,Addison Avenue,71107-3108,32.5735482,-93.7894804
3608,Addison Avenue,71107-3108,32.5742281,-93.7887395
3606,Addison Avenue,71107-3108,32.5740176,-93.7890661
3609,Addison Avenue,71107-3107,32.5738173,-93.7902985
3610,Addison Avenue,71107-3108,32.5739643,-93.7894845
3712,Addison Avenue,71107-3110,32.5743022,-93.7894979
3715,Addison Avenue,71107-3109,32.5742960,-93.7901631
3720,Addison Avenue,71107-3110,32.5747348,-93.7894875
3809,Addison Avenue,71107-3111,32.5762310,-93.7903763
3810,Addison Avenue,71107-3112,32.5763227,-93.7895883
3820,Addison Avenue,71107-3112,32.5764973,-93.7895613
3822,Addison Avenue,71107-3112,32.5766243,-93.7895835
3824,Addison Avenue,71107-3112,32.5768366,-93.7895300
3828,Addison Avenue,71107-3112,32.5772158,-93.7895599
3833,Addison Avenue,71107-3111,32.5768008,-93.7905710
3925,Addison Avenue,71107-3113,32.5787980,-93.7902469
3000,Martin Luther King Junior Drive,71107,32.5446274,-93.8301467
511,Calhoun Street,71101,32.5149106,-93.7640682
1711,Chester Street,71101,32.5155783,-93.7670184
1713,Chester Street,71101,32.5155826,-93.7671708
505,Christopher Street,71101,32.5147775,-93.7686926
507,Christopher Street,71101,32.5148171,-93.7686927
509,Christopher Street,71101,32.5148748,-93.7686956
511,Christopher Street,71101,32.5149130,-93.7686959
515,Christopher Street,71101,32.5150086,-93.7687255
539,Christopher Street,71101,32.5156795,-93.7686934
547,Christopher Street,71101,32.5158774,-93.7686875
522,Christopher Street,71101,32.5151218,-93.7691688
530,Christopher Street,71101,32.5154712,-93.7691350
542,Christopher Street,71101,32.5156390,-93.7691715
540,Christopher Street,71101,32.5155810,-93.7691723
608,Christopher Street,71101,32.5163916,-93.7691258
626,Christopher Street,71101,32.5168398,-93.7691408
625,Dowling Street,71101,32.5168057,-93.7710297
737,Dowling Street,71101,32.5181915,-93.7710106
739,Dowling Street,71101,32.5182997,-93.7710042
5485,Financial Plaza,71129,32.4532210,-93.8457074
3015,Greenwood Road,71109,32.4801321,-93.7851072
5103,Hollywood Avenue,71109,32.4449976,-93.8263731
3500,Fairfield Avenue,71104,32.4774070,-93.7511224
8300,Pines Road,71129,32.4212511,-93.8612587
1501,Kings Highway,71103,32.4791406,-93.7624969
275,Southfield Road,71105,32.4555250,-93.7199775
400,Caddo Street,71101,32.5163664,-93.7517091
