House number,Street name,Postal code,Latitude,Longitude
321,Circle Drive,71291,32.5153643,-92.1551121
807,Drago St,71291,32.5062719,-92.1417496
3215,Cypress Street,71291,32.5166459,-92.1565715
1810,Cypress Street,71291,32.5150986,-92.1374732
3103,Cypress Street,71291,32.5167065,-92.1543154
700,North 7th Street,71291,32.5025674,-92.1348245
3426,Cypress Street,71291,32.5184616,-92.1613088
3426,Cypress Street,71291,32.5177010,-92.1594723
113,Warren Drive,71291,32.5183712,-92.1620036
920,Cypress Street,71291,32.5083690,-92.1320129
160,Blanchard Street,71291,32.5105151,-92.1603500
200,Blanchard Street,71291,32.5098592,-92.1603929
200,Blanchard Street,71291,32.5093050,-92.1603983
209,Thomas Road,71291,32.5107131,-92.1568798
205,Constitution Drive,71292,32.5060060,-92.1595766
205,Constitution Drive,71292,32.5057140,-92.1594615
207,Thomas Road,71291,32.5107310,-92.1570281
409,Thomas Road,71292,32.5016347,-92.1568983
111,Constitution Drive,71292,32.5037695,-92.1603515
113,Constitution Drive,71292,32.5044223,-92.1603362
115,Constitution Drive,71292,32.5046791,-92.1602713
401,Thomas Road,71292,32.5033082,-92.1558528
3212,Cypress Street,71291,32.5174534,-92.1563586
2916,Cypress Street,71291,32.5182901,-92.1494776
2909,Cypress Street,71291,32.5174898,-92.1506238
2911,Cypress Street,71291,32.5173555,-92.1504734
112,Blanchard Street,71291,32.5102480,-92.1602961
112,Blanchard Street,71291,32.5109176,-92.1603631
112,Blanchard Street,71291,32.5110725,-92.1603631
112,Blanchard Street,71291,32.5111327,-92.1603619
2400,North 7th Street,71291,32.5217386,-92.1470276
2406,North 7th Street,71291,32.5219387,-92.1470338
3212,Cypress Street,71291,32.5174528,-92.1562182
3424,Cypress Street,71291,32.5176521,-92.1604328
3422,Cypress Street,71291,32.5176611,-92.1602736
3602,Cypress Street,71291,32.5176414,-92.1628487
3602,Cypress Street,71291,32.5176457,-92.1627085
3426,Cypress Street,71291,32.5175385,-92.1586775
112,Blanchard Street,71291,32.5110872,-92.1600625
222,Bell Lane,71291,32.5140624,-92.1612782
222,Bell Lane,71291,32.5140299,-92.1616296
206,Bell Lane,71291,32.5152267,-92.1614597
2916,Cypress Street,71291,32.5183401,-92.1492257
2916,Cypress Street,71291,32.5182949,-92.1494135
2200,North 7th Street,71291,32.5197634,-92.1473742
2204,North 7th Street,71291,32.5203873,-92.1472889
2204,North 7th Street,71291,32.5203050,-92.1472889
2204,North 7th Street,71291,32.5201833,-92.1472970
3605,Cypress Street,71291,32.5168964,-92.1635256
3603,Cypress Street,71291,32.5169084,-92.1633569
203,Blanchard Street,71291,32.5095448,-92.1586345
903,Warren Drive,71291,32.5247490,-92.1620795
903,Warren Drive,71291,32.5246093,-92.1620805
903,Warren Drive,71291,32.5248150,-92.1620805
3101,Cypress Street,71291,32.5167888,-92.1538251
3101,Cypress Street,71291,32.5167603,-92.1539838
3101,Cypress Street,71291,32.5167642,-92.1538960
3101,Cypress Street,71291,32.5167278,-92.1540963
3103,Cypress Street,71291,32.5166627,-92.1546715
3103,Cypress Street,71291,32.5167104,-92.1544184
111,Crosley Street,71291,32.5064752,-92.1296138
3619,Cypress Street,71291,32.5168526,-92.1641963
3617,Cypress Street,71291,32.5168633,-92.1640350
3621,Cypress Street,71291,32.5168696,-92.1647905
3623,Cypress Street,71291,32.5167078,-92.1645506
3623,Cypress Street,71291,32.5167470,-92.1646780
302,Bridge Street,71291,32.5037642,-92.1291909
302,Bridge Street,71291,32.5035966,-92.1294668
302,Bridge Street,71291,32.5036931,-92.1293221
302,Bridge Street,71291,32.5037469,-92.1292513
3620,Cypress Street,71291,32.5176404,-92.1648405
3620,Cypress Street,71291,32.5176871,-92.1646476
704,Cypress Street,71291,32.5057520,-92.1296020
704,Cypress Street,71291,32.5059411,-92.1297467
114,Blanchard Street,71291,32.5111445,-92.1595974
2934,Cypress Street,71291,32.5183003,-92.1509649
2934,Cypress Street,71291,32.5178277,-92.1507944
110,Splane Drive,71291,32.5185621,-92.1511657
2934,Cypress Street,71291,32.5180620,-92.1508481
1919,Cypress Street,71291,32.5156644,-92.1386811
1919,Cypress Street,71291,32.5157176,-92.1387075
1919,Cypress Street,71291,32.5156301,-92.1386303
3103,Cypress Street,71291,32.5166902,-92.1544806
3103,Cypress Street,71291,32.5166435,-92.1546060
101,Professional Drive,71291,32.5154354,-92.1500703
101,McMillan Road,71291,32.5153281,-92.1499862
300,Well Road,71292,32.5077843,-92.1929127
300,Well Road,71292,32.5078813,-92.1929164
2600,North 7th Street,71291,32.5256182,-92.1471063
102,Thomas Road,71291,32.5154758,-92.1589881
100,Trenton Street,71291,32.5002519,-92.1228210
101,North 2nd Street,71291,32.4997271,-92.1247081
318,Trenton Street,71291,32.5024009,-92.1243837
310,Trenton Street,71291,32.5021987,-92.1242246
308,Trenton Street,71291,32.5021294,-92.1241721
304,Trenton Street,71291,32.5019833,-92.1240488
314,Trenton Street,71291,32.5023370,-92.1243209
320,Trenton Street,71291,32.5024654,-92.1244491
306,Trenton Street,71291,32.5020569,-92.1241123
312,Trenton Street,71291,32.5022676,-92.1242729
101,Mill Street,71291,32.5036526,-92.1265422
502,Trenton Street,71291,32.5035774,-92.1253565
704,Cypress Street,71291,32.5058591,-92.1296706
401,Trenton Street,71291,32.5025472,-92.1252310
111,Crosley Street,71291,32.5064311,-92.1294082
916,Cypress Street,71291,32.5083216,-92.1318289
920,Cypress Street,71291,32.5083597,-92.1319984
701,Trenton Street,71291,32.5047761,-92.1275457
601,Wood Street,71291,32.4986745,-92.1261864
711,North 7th Street,71291,32.5018179,-92.1350908
302,Bridge Street,71291,32.5036526,-92.1294095
700,Stella Street,71291,32.5011479,-92.1343903
611,North 7th Street,71291,32.5014607,-92.1349106
315,Cypress Street,71291,32.5020210,-92.1271620
820,Kiroli Road,71291,32.5471500,-92.1654005
503,McMillan Road,71291,32.5131376,-92.1559555
501,Constitution Drive,71292,32.5086485,-92.1640120
1914,Cypress Street,71291,32.5158438,-92.1380195
220,Blanchard Drive,71291,32.5118575,-92.1628242
606,Mane Street,71292,32.5095753,-92.1840635
603,Constitution Drive,71292,32.5098869,-92.1700084
601,McMillan Road,71291,32.5129991,-92.1585429
207,Warren Drive,71291,32.5195507,-92.1621495
809,Warren Drive,71291,32.5228757,-92.1620195
112,Blanchard Street,71291,32.5111390,-92.1597952
112,Blanchard Street,71291,32.5106183,-92.1606464
202,Blanchard Street,71291,32.5087569,-92.1599766
901,Glenwood Drive,71291,32.5104876,-92.1584627
212,Thomas Road,71291,32.5105115,-92.1578116
210,Thomas Road,71291,32.5108974,-92.1577823
206,Thomas Road,71291,32.5117483,-92.1579872
203,Thomas Road,71291,32.5114588,-92.1569657
911,Glenwood Drive,71291,32.5105356,-92.1566010
1101,Glenwood Drive,71291-5503,32.5064603,-92.1556691
109,Thomas Road,71291,32.5145471,-92.1571593
131,Thomas Road,71291,32.5139288,-92.1570418
101,Basic Drive,71292,32.5033636,-92.1568341
100,Constitution Drive,71292,32.5032353,-92.1577037
102,Constitution Drive,71292,32.5033886,-92.1583219
201,Constitution Drive,71292,32.5050377,-92.1592234
309,Constitution Drive,71292,32.5070431,-92.1613790
401,Constitution Drive,71292,32.5067608,-92.1626079
305,Constitution Drive,71292,32.5066967,-92.1607649
301,Constitution Drive,71292,32.5064003,-92.1602759
205,Constitution Drive,71292,32.5058445,-92.1595984
204,Thomas Road,71291,32.5121226,-92.1578346
202,Thomas Road,71291,32.5124730,-92.1579105
208,Thomas Road,71291,32.5113817,-92.1580319
100,Thomas Road,71291,32.5169834,-92.1576843
413,Thomas Road,71292,32.5010347,-92.1568788
3304,Cypress Street,71291,32.5177752,-92.1580539
810,Splane Drive,71291,32.5179868,-92.1573480
811,Splane Drive,71291,32.5183266,-92.1568051
3204,Cypress Street,71291,32.5175702,-92.1556024
3000,Cypress Street,71291,32.5179593,-92.1517475
1530,Arkansas Road,71291,32.5325210,-92.1633487
208,Lincoln Street,71291,32.5200597,-92.1459430
108,Basic Drive,71292,32.5033210,-92.1548001
213,Constitution Drive,71292,32.5057049,-92.1607925
201,Mane Street,71292,32.5072041,-92.1731324
501,Mane Street,71292,32.5052917,-92.1811799
205,Basic Drive,71292,32.5019747,-92.1522710
1025,Glenwood Drive,71291,32.5081127,-92.1544764
700,Austin Avenue,71292,32.4927567,-92.1252014
1009,Ridge Avenue,71291,32.5203714,-92.1515100
3212,Cypress Street,71291,32.5174793,-92.1562611
2812,Cypress Street,71291,32.5184399,-92.1487034
3215,Cypress Street,71291,32.5163584,-92.1565899
3201,Cypress Street,71291,32.5167049,-92.1556886
3203,Cypress Street,71291,32.5166252,-92.1558625
3209,Cypress Street,71291,32.5165767,-92.1560152
2907,Cypress Street,71291,32.5162692,-92.1498089
3606,Cypress Street,71291,32.5176295,-92.1631997
102,Blanchard Drive,71291,32.5121664,-92.1602747
228,Blanchard Drive,71291,32.5108191,-92.1644168
507,Constitution Drive,71292,32.5090819,-92.1657230
503,Constitution Drive,71292,32.5086922,-92.1645793
407,Constitution Drive,71292,32.5084080,-92.1635865
2408,North 7th Street,71291,32.5222787,-92.1472171
1401,Cypress Street,71291,32.5114107,-92.1351016
3214,Cypress Street,71291,32.5175766,-92.1567195
3426,Cypress Street,71291,32.5179530,-92.1586232
200,Warren Drive,71291,32.5192529,-92.1610576
3421,Cypress Street,71291,32.5167858,-92.1600012
310,Thomas Road,71291,32.5086553,-92.1583507
2500,North 7th Street,71291,32.5231843,-92.1470449
425,Bancroft Boulevard,71292,32.4878790,-92.1399292
528,Thomas Road,71292,32.4987986,-92.1579207
500,Thomas Road,71292,32.4995302,-92.1579549
405,Thomas Road,71292,32.5023660,-92.1561147
3501,Cypress Street,71291,32.5166380,-92.1617993
3510,Cypress Street,71291,32.5177415,-92.1623773
3602,Cypress Street,71291,32.5176912,-92.1627644
500,Mane Street,71292,32.5082053,-92.1807305
601,Mane Street,71292,32.5084196,-92.1827190
214,Expo Circle,71292,32.5053795,-92.1748769
400,Mane Street,71292,32.5073626,-92.1796698
300,Pavillion Road,71292,32.5041657,-92.1767166
213,Expo Circle,71292,32.5043814,-92.1744040
209,Expo Circle,71292,32.5036343,-92.1752086
3426,Cypress Street,71291,32.5186328,-92.1610031
703,McMillan Road,71291,32.5131217,-92.1600268
705,McMillan Road,71291,32.5131255,-92.1604069
610,McMillan Road,71291,32.5144109,-92.1604493
222,Bell Lane,71291,32.5139821,-92.1614809
206,Bell Lane,71291,32.5151429,-92.1615325
200,Bell Lane,71291,32.5157269,-92.1616146
112,Bell Lane,71291,32.5162865,-92.1616255
1800,Cypress Street,71291,32.5147602,-92.1370599
2510,Cypress Street,71291,32.5189032,-92.1462165
2211,North 7th Street,71291,32.5191921,-92.1484340
411,Thomas Road,71292,32.5012947,-92.1567082
103,Basic Drive,71292,32.5035516,-92.1565394
200,Basic Drive,71292,32.5022344,-92.1533190
1603,Constitution Drive,71292,32.5074686,-92.1629887
403,Constitution Drive,71292,32.5080902,-92.1627171
639,Commercial Parkway,71292,32.5067549,-92.1658436
2920,Cypress Street,71291,32.5182753,-92.1500853
2930,Cypress Street,71291,32.5180338,-92.1504778
2934,Cypress Street,71291,32.5182269,-92.1510631
2934,Cypress Street,71291,32.5182256,-92.1513536
3002,Cypress Street,71291,32.5178730,-92.1523627
3014,Cypress Street,71291,32.5177501,-92.1533015
3010,Cypress Street,71291,32.5176162,-92.1529278
3112,Cypress Street,71291,32.5174535,-92.1546573
3100,Cypress Street,71291,32.5173948,-92.1537119
2918,Cypress Street,71291,32.5182722,-92.1497335
2200,North 7th Street,71291,32.5198530,-92.1473483
2204,North 7th Street,71291,32.5202536,-92.1472442
113,Splane Drive,71291,32.5183713,-92.1519568
115,Richards Lane,71291,32.5188854,-92.1504896
115,Knowles Lane,71291,32.5192268,-92.1498689
111,Knowles Lane,71291,32.5190415,-92.1496815
119,Knowles Lane,71291,32.5194775,-92.1499141
409,Lincoln Street,71291,32.5197821,-92.1494398
201,Blanchard Street,71291,32.5097325,-92.1585712
410,Natchitoches Street,71291,32.5009337,-92.1255269
501,Natchitoches Street,71291,32.5002596,-92.1258452
903,Warren Drive,71291,32.5247082,-92.1620982
911,Warren Drive,71291,32.5254800,-92.1624452
1608,Wellerman Road,71291,32.5247047,-92.1623638
1604,Wellerman Road,71291,32.5247125,-92.1627492
100,Arkansas Road,71291,32.5264662,-92.1381760
2400,Cypress Street,71291,32.5195809,-92.1445493
105,Flanagan Street,71291,32.5193144,-92.1455526
113,South Riverfront Street,71291,32.4997809,-92.1210496
1405,North 7th Street,71291,32.5077479,-92.1413864
103,Blanchard Street,71291,32.5124594,-92.1585983
3104,Cypress Street,71291,32.5174829,-92.1539805
3106,Cypress Street,71291,32.5174881,-92.1542977
3101,Cypress Street,71291,32.5167489,-92.1538399
3103,Cypress Street,71291,32.5166414,-92.1544591
3011-13,Cypress Street,71291,32.5169134,-92.1529735
106,Circle Drive,71291,32.5162851,-92.1539998
1426,Natchitoches Street,71292,32.4953382,-92.1417993
1424,Natchitoches Street,71292,32.4954773,-92.1411650
1422,Natchitoches Street,71292,32.4956445,-92.1405942
1420,Natchitoches Street,71292,32.4955630,-92.1388174
1429,Natchitoches Street,71292,32.4946434,-92.1395962
1433,Natchitoches Street,71292,32.4945850,-92.1400755
204,Commerce Street,71291,32.5024589,-92.1235987
201,Bridge Street,71291,32.5037344,-92.1276895
2403,North 7th Street,71291,32.5217931,-92.1479160
2405,North 7th Street,71291,32.5220802,-92.1480086
2635,North 7th Street,71291,32.5276357,-92.1479321
103,Cypress Street,71291,32.5000182,-92.1255356
500,Wood Street,71291,32.4998537,-92.1254112
3620,Cypress Street,71291,32.5176775,-92.1647579
3626,Cypress Street,71291,32.5176417,-92.1652189
3712,Cypress Street,71291,32.5176695,-92.1671630
218,Bell Lane,71291,32.5144062,-92.1614735
216,Bell Lane,71291,32.5146114,-92.1614801
2102,Cypress Street,71291,32.5177458,-92.1397180
2100,Cypress Street,71291,32.5176023,-92.1392789
2010,Cypress Street,71291,32.5166841,-92.1386461
1919,Cypress Street,71291,32.5156471,-92.1387043
1911,Cypress Street,71291,32.5153707,-92.1386115
2054,Old Natchitoches Road,71292,32.5010059,-92.1559712
125,Constitution Drive,71292,32.5049866,-92.1603118
230,Blanchard Street,71291,32.5115836,-92.1642976
1804,North 7th Street,71291,32.5122594,-92.1460415
1700,North 7th Street,71291,32.5108862,-92.1446253
705,Splane Drive,71291,32.5201002,-92.1578282
712,Splane Drive,71291,32.5191250,-92.1581779
110,Zephyr Street,71291,32.5179539,-92.1548175
112,Zephyr Street,71291,32.5181115,-92.1549262
1313,Ridge Avenue,71291,32.5183014,-92.1549493
201,McMillan Road,71291,32.5150893,-92.1507345
106,Professional Drive,71291,32.5148113,-92.1505317
112,Professional Drive,71291,32.5144149,-92.1503110
111,Professional Drive,71291,32.5148397,-92.1497261
113,Professional Drive,71291,32.5146546,-92.1495978
105,Professional Drive,71291,32.5150273,-92.1497947
101,Professional Drive,71291,32.5153728,-92.1500042
420,Wheelis Street,71292,32.4906336,-92.1391611
511,North 7th Street,71291,32.5006207,-92.1341317
4423,Cypress Street,71291,32.5151199,-92.1731175
3800,Cypress Street,71291,32.5176142,-92.1681972
3716,Cypress Street,71291,32.5176317,-92.1678373
105,Division Street,71291,32.5323697,-92.1464490
222,Blanchard Street,71291,32.5097695,-92.1620183
224,Blanchard Street,71291,32.5103092,-92.1625812
226,Blanchard Street,71291,32.5103827,-92.1633557
1630,Arkansas Road,71291,32.5364850,-92.1684530
404,Otis Street,71291,32.5237711,-92.1443438
800,Coleman Avenue,71292,32.4946726,-92.1287691
2419,North 7th Street,71291,32.5233264,-92.1480847
2805,Cypress Street,71291,32.5180747,-92.1460803
201,Riggs Street,71291,32.5115623,-92.1410714
700,Austin Avenue,71292,32.4927168,-92.1255873
700,Kiroli Road,71291,32.5403434,-92.1623395
1611,Wellerman Road,71291,32.5236042,-92.1630264
3702,Cypress Street,71291,32.5180978,-92.1662917
