House number,Street name,Postal code,Latitude,Longitude
2,شارع 9,44743,30.7262321,31.5612521
35,شارع 15,44743,30.7267383,31.5651302
30,شارع 15,44743,30.7271503,31.5650532
22,شارع بحر ام الريس الجديد,44743,30.7154417,31.5693359
46,شارع ابو دسوقي,44743,30.7187753,31.5686050
25,شارع عبد الجليل منصور,44743,30.7135144,31.5657324
3,طريق ابو حسين,44743,30.7225107,31.5647748
15,شارع المضرب,44743,30.7162665,31.5674235
7,شارع 2,44743,30.7159461,31.5617939
74,شارع محطة البنزين,44743,30.7143699,31.5660046
13,شارع 5,44743,30.7146846,31.5722796
25,شارع 2,44743,30.7160751,31.5610103
5,شارع 12,44743,30.7269585,31.5640989
14,شارع 3,44743,30.7158014,31.5614597
15,شارع محمد السيد,44743,30.7138314,31.5657055
41,شارع بحر ام الريس الجديد,44743,30.7149637,31.5699810
9,شارع الحاج عبد الناصر,44743,30.7226814,31.5680149
2,شارع حمد الله غياث,44743,30.7227198,31.5660238
1,شارع حمد الله غياث,44743,30.7228497,31.5659067
10,شارع صلاح سالم,44743,30.7207353,31.5652388
8,شارع 2,44743,30.7160532,31.5617994
17,شارع 10,44743,30.7261826,31.5614395
14,شارع 6,44743,30.7258840,31.5619357
16,شارع 9,44743,30.7259433,31.5612814
2,شارع 2,44743,30.7160186,31.5620765
11,شارع خلف المدارس,44743,30.7179791,31.5674326
2,شارع 11,44743,30.7323351,31.5618163
11,شارع 2,44743,30.7159611,31.5616588
10,شارع 9,44743,30.7259754,31.5611809
8,شارع 4,44743,30.7264201,31.5621234
5,شارع محطة البنزين,44743,30.7137830,31.5653931
6,شارع 2,44743,30.7160382,31.5619196
33,شارع ابو دسوقي,44743,30.7176570,31.5679076
19,شارع محمد السيد,44743,30.7137242,31.5656868
10,شارع المضرب,44743,30.7161547,31.5675053
14,شارع 3,44743,30.7262506,31.5624467
39,شارع ابو دسوقي,44743,30.7179083,31.5682402
15,شارع 2,44743,30.7159829,31.5614623
20,شارع بحر ام الريس الجديد,44743,30.7154790,31.5692756
21,شارع 3,44743,30.7178783,31.5678567
18,شارع 7,44743,30.7278738,31.5642089
8,شارع 9,44743,30.7260483,31.5612066
12,شارع 2,44743,30.7160688,31.5616750
7,شارع المنشية الجديدة,44743,30.7157003,31.5617897
10,شارع 2,44743,30.7264051,31.5625472
6,شارع محطة البنزين,44743,30.7137069,31.5653139
11,شارع المساحة,44743,30.7167242,31.5685903
6,شارع 3,44743,30.7157553,31.5617992
16,شارع 6,44743,30.7171266,31.5687928
13,شارع محمد مهدي,44743,30.7232647,31.5683663
15,شارع 9,44743,30.7258156,31.5611084
2,شارع 3,44743,30.7157246,31.5620255
4,شارع 10,44743,30.7277712,31.5648673
47,شارع 16,44743,30.7268409,31.5648499
8,شارع 7,44743,30.7150075,31.5616232
20,شارع 7,44743,30.7155332,31.5721107
3,شارع 3,44743,30.7158801,31.5616448
4,شارع 2,44743,30.7160284,31.5619981
10,شارع الاسوانجى,44743,30.7139098,31.5661079
11,شارع عطيه محمد,44743,30.7118218,31.5674892
35,شارع ابو دسوقي,44743,30.7177519,31.5680333
8,شارع 9,44743,30.7152012,31.5712537
11,شارع 8,44743,30.7172027,31.5683421
59,شارع خلف المدارس,44743,30.7192734,31.5687378
48,شارع الحرية,44743,30.7139294,31.5663560
21,شارع 2,44743,30.7160480,31.5611726
4,شارع حمد الله غياث,44743,30.7224600,31.5662581
5,شارع المضرب,44743,30.7164510,31.5676998
2,شارع المضرب,44743,30.7163403,31.5677574
9,شارع المنشية الجديدة,44743,30.7157103,31.5617067
5,شارع سعيد صادق,44743,30.7116696,31.5674195
6,شارع 9,44743,30.7261229,31.5612283
18,شارع 6,44743,30.7152358,31.5727276
19,شارع 3,44743,30.7263083,31.5622857
7,شارع 6,44743,30.7259001,31.5617372
14,شارع خلف المدارس,44743,30.7181240,31.5676217
10,شارع الحرية,44743,30.7142373,31.5667382
21,شارع خلف المدارس,44743,30.7188929,31.5683743
14,شارع 9,44743,30.7274421,31.5646166
9,شارع صلاح سالم,44743,30.7206384,31.5652576
10,شارع خلف المدارس,44743,30.7178991,31.5673283
37,شارع ابو دسوقي,44743,30.7178463,31.5681581
12,شارع عبد الجليل منصور,44743,30.7137046,31.5656076
23,شارع 2,44743,30.7160616,31.5610915
66,شارع ابو دسوقي,44743,30.7177354,31.5678030
26,شارع 5,44743,30.7154220,31.5614851
28,شارع 10,44743,30.7273297,31.5649156
3`,طريق ابو حسين,44743,30.7296699,31.5626317
37,شارع 3,44743,30.7179706,31.5680900
5,شارع المنشية الجديدة,44743,30.7156912,31.5618652
4,شارع بحر ام الريس الجديد 1,44743,30.7150997,31.5691522
10L,شارع 3,44743,30.7157771,31.5616393
2,شارع البلديه,44743,30.7135063,31.5673926
14,شارع 8,44743,30.7172742,31.5682885
17,شارع 7,44743,30.7151205,31.5717968
6,شارع صلاح سالم,44743,30.7226675,31.5675911
12,شارع 3,44743,30.7157902,31.5615424
14,شارع محمد عبد اللطيف,44743,30.7146973,31.5657525
17,شارع 7,44743,30.7278992,31.5643349
17,شارع محمد السيد,44743,30.7139560,31.5655553
7,شارع المأمون,44743,30.7181439,31.5605072
26,شارع 9,44743,30.7144356,31.5614569
20,شارع 8,44743,30.7256223,31.5613537
2,شارع 2,44743,30.7299759,31.5611249
21,شارع 8,44743,30.7256623,31.5612406
22,شارع الجامع,44743,30.7133610,31.5663251
3,شارع 5,44743,30.7170621,31.5681437
4,شارع السيد عبده,44743,30.7222155,31.5671991
3,شارع 7,44743,30.7273204,31.5641659
30,شارع مجزر الابراهيميه,44743,30.7150444,31.5612826
31,شارع 15,44743,30.7270770,31.5650669
8,شارع المضرب,44743,30.7162037,31.5675719
5,شارع 2,44743,30.7159355,31.5618894
10R,شارع 3,44743,30.7158688,31.5617349
5,شارع 27,44743,30.7156416,31.5690851
4,شارع المأمون,44743,30.7180939,31.5610868
33,شارع 15,44743,30.7268912,31.5651016
30,شارع 3,44743,30.7156624,31.5696645
18,شارع بحر ام الريس الجديد,44743,30.7175717,31.5674543
4,شارع عزبة القصر,44743,30.7248049,31.5613711
21,شارع 10,44743,30.7212241,31.5657538
31,شارع 12,44743,30.7269815,31.5642545
13,شارع 2,44743,30.7159723,31.5615575
4,شارع المضرب,44743,30.7162865,31.5676844
125,شارع المساكن القديمه,44743,30.7142373,31.5670225
30,شارع 14,44743,30.7272144,31.5652133
29,شارع 7,44743,30.7235234,31.5644305
13,شارع 3,44743,30.7261836,31.5624645
49,شارع عزبة القصر,44743,30.7261284,31.5626961
12,شارع خلف المدارس,44743,30.7180309,31.5675002
61,شارع خلف المدارس,44743,30.7192132,31.5688204
7,شارع 7,44743,30.7149175,31.5615897
12,شارع 8,44743,30.7256915,31.5611578
24,شارع 8,44743,30.7277285,31.5644583
5,شارع المأمون,44743,30.7181314,31.5606518
40,شارع بحر ام الريس الجديد,44743,30.7150167,31.5698844
16,شارع 2,44743,30.7299667,31.5610653
12,شارع 9,44743,30.7155010,31.5716171
13,شارع خلف المدارس,44743,30.7180783,31.5675620
29,شارع 3,44743,30.7155632,31.5696430
67,شارع 3,44743,30.7179821,31.5677226
14,شارع 7,44743,30.7151827,31.5718880
1,شارع البلديه,44743,30.7134002,31.5669729
5,شارع المساكن القديمه 3,44743,30.7138706,31.5670037
42,شارع ابو دسوقي,44743,30.7186185,31.5685862
1,شارع 2,44743,30.7158975,31.5621328
2,شارع 4,44743,30.7262495,31.5622039
2,شارع الصرف الصحي,44743,30.7204828,31.5654118
32,شارع 12,44743,30.7268420,31.5641887
6,شارع عزبة القصر,44743,30.7249387,31.5614784
16,شارع 3,44743,30.7158111,31.5613885
1,شارع 27,44743,30.7158745,31.5695840
4,شارع 9,44743,30.7261790,31.5612417
1,شارع 5,44743,30.7327513,31.5599361
20,شارع عزبة القصر,44743,30.7256638,31.5620041
63,شارع خلف المدارس,44743,30.7191650,31.5688866
18,شارع 9,44743,30.7279360,31.5646890
13,شارع 7,44743,30.7234526,31.5644892
8,شارع 6,44743,30.7151193,31.5728509
14,شارع 2,44743,30.7160774,31.5616058
17,شارع علاء الدين,44743,30.7233593,31.5685648
16,شارع 2,44743,30.7265711,31.5627766
102,شارع الحرية,44743,30.7150294,31.5660328
4,شارع 4,44743,30.7263063,31.5621771
16,شارع مكتب البريد,44743,30.7148415,31.5654722
22,شارع 6,44743,30.7150720,31.5727463
2,شارع السلخانه,44743,30.7138245,31.5613416
19,شارع 10,44743,30.7261987,31.5613657
5,شارع عزبة يعقوب,44743,30.7150513,31.5707964
1L,شارع الصرف الصحي,44743,30.7207722,31.5655915
6`,شارع عزبة القصر,44743,30.7259025,31.5621100
22,شارع مجزر الابراهيميه,44743,30.7151159,31.5612906
9,شارع السلخانه,44743,30.7136424,31.5612477
5,شارع 4,44743,30.7155021,31.5614274
17,شارع 2,44743,30.7160209,31.5613349
5,شارع 7,44743,30.7227874,31.5649411
3,شارع 12,44743,30.7268409,31.5640788
2,شارع السيد عبده,44743,30.7222802,31.5671352
17,شارع خلف المدارس,44743,30.7183741,31.5679479
7,شارع 4,44743,30.7154946,31.5615106
17,شارع 5,44743,30.7153799,31.5618686
16,شارع 4,44743,30.7292641,31.5677091
3,شارع حمد الله غياث,44743,30.7225899,31.5661409
15,شارع 7,44743,30.7236371,31.5643363
8,شارع 6,44743,30.7262057,31.5617506
6,شارع 4,44743,30.7263632,31.5621503
3,شارع المساكن القديمه,44743,30.7136746,31.5671217
27,شارع 10,44743,30.7273997,31.5649080
13,شارع صلاح سالم,44743,30.7210235,31.5653421
15,شارع 6,44743,30.7260039,31.5618941
12,طريق ابو حسين,44743,30.7275441,31.5630649
44,شارع ابو دسوقي,44743,30.7187407,31.5686761
12,شارع 9,44743,30.7258934,31.5611466
19,شارع محمد عبد اللطيف,44743,30.7145901,31.5659282
44,شارع المساحة,44743,30.7167681,31.5685420
38,شارع 15,44743,30.7270507,31.5649223
18,شارع ابو دسوقي,44743,30.7184087,31.5683904
14,شارع 2,44743,30.7299846,31.5611807
16,شارع خلف المدارس,44743,30.7182836,31.5678298
10,شارع عزبة القصر,44743,30.7259520,31.5622281
60,شارع الاسوانجى,44743,30.7139906,31.5661910
10,شارع 2,44743,30.7160616,31.5617323
34,شارع 15,44743,30.7268110,31.5651166
3,شارع 2,44743,30.7159237,31.5619960
26,شارع 8,44743,30.7277804,31.5646742
10,شارع 11,44743,30.7255347,31.5611324
4,شارع 3,44743,30.7157432,31.5618888
1`,طريق ابو حسين,44743,30.7289113,31.5627873
2,شارع عبد الجليل منصور,44743,30.7135547,31.5656760
29,شارع 15,44743,30.7272121,31.5650417
18,شارع الحرية,44743,30.7122795,31.5668750
6`,شارع المأمون,44743,30.7181585,31.5603907
12,شارع 3,44743,30.7260592,31.5624976
6,شارع السيد عبده,44743,30.7221568,31.5672572
9,شارع 2,44743,30.7159541,31.5617221
15,شارع خلف المدارس,44743,30.7181864,31.5677030
18,شارع 3,44743,30.7307120,31.5610009
8,شارع الحاج عبد الناصر,44743,30.7227621,31.5679264
11,شارع 5,44743,30.7146109,31.5724191
24,شارع 9,44743,30.7145740,31.5613563
6,شارع المضرب,44743,30.7162426,31.5676247
6,شارع المأمون,44743,30.7181058,31.5609487
9,شارع 4,44743,30.7292814,31.5672787
6,شارع المساكن القديمه 3,44743,30.7138360,31.5668691
26,شارع 5,44743,30.7172742,31.5684333
8,شارع 3,44743,30.7157659,31.5617214
10,شارع الصرف الصحي,44743,30.7206165,31.5655620
7,شارع 11,44743,30.7255036,31.5612504
7,شارع المساكن القديمه 3,44743,30.7137969,31.5667167
3,شارع المنشية الجديدة,44743,30.7156788,31.5619674
5,شارع 9,44743,30.7260662,31.5613604
25,شارع خلف المدارس,44743,30.7187961,31.5683153
24,شارع بحر ام الريس الجديد,44743,30.7153960,31.5694097
51,شارع المساحة,44743,30.7164521,31.5684615
21,شارع محمد على,44743,30.7139122,31.5658960
7,شارع الحاج عبد الناصر,44743,30.7228589,31.5678272
34,شارع 6,44743,30.7259509,31.5619142
1,طريق ابو حسين,44743,30.7262483,31.5633801
13,شارع المنشية الجديدة,44743,30.7157367,31.5614892
14,شارع متولي عطيه,44743,30.7142488,31.5658557
20,شارع 10,44743,30.7263244,31.5616339
32,شارع 15,44743,30.7269876,31.5650836
1,شارع المنشية الجديدة,44743,30.7156624,31.5621033
60,شارع 8,44743,30.7166470,31.5690623
15,شارع المنشية الجديدة,44743,30.7157488,31.5613885
41,شارع ابو دسوقي,44743,30.7185286,31.5684709
7,شارع محمد الحنفى,44743,30.7232048,31.5674490
11,شارع المنشية الجديدة,44743,30.7157227,31.5616045
5,شارع 10,44743,30.7154110,31.5712282
12,شارع محمد على,44743,30.7139813,31.5658101
15,شارع 27,44743,30.7158192,31.5695143
18,شارع 3,44743,30.7124524,31.5667355
19,شارع 2,44743,30.7160345,31.5612537
3,شارع 27,44743,30.7157546,31.5691803
9,شارع 25,44743,30.7212552,31.5641525
9,شارع احمد عبد الباسط,44743,30.7200706,31.5632728
10,حارة ابو شعله,44743,30.7201948,31.5636439
4,شارع رجب العرنوس,44743,30.7170747,31.5602030
15,شارع حسين على,44743,30.7233015,31.5604443
2,شارع 6,44743,30.7172200,31.5601266
5,شارع 23,44743,30.7208909,31.5633090
4,شارع احمد رفعت,44743,30.7225378,31.5606261
21,حارة ابو شعله,44743,30.7200303,31.5637039
13,شارع طه عابدين,44743,30.7234065,31.5599965
3,شارع رجب العرنوس,44743,30.7171295,31.5598889
4,شارع حسين على,44743,30.7232774,31.5603103
4,حارة ابو شعله,44743,30.7199496,31.5635021
2,شارع يوسف السيد,44743,30.7237558,31.5605785
6,شارع يوسف محمد,44743,30.7230560,31.5604685
12,شارع محمد مناع,44743,30.7175832,31.5602633
4R,شارع الشوادر,44743,30.7208690,31.5628946
28,شارع عزبة القصر,44743,30.7230111,31.5608521
12,شارع محمد العربى,44743,30.7166677,31.5598905
7,شارع 25,44743,30.7212574,31.5640492
16,شارع المستشفى,44743,30.7217637,31.5643457
4,شارع السنترال القديم,44743,30.7199294,31.5644006
2,حارة ابو شعله,44743,30.7202026,31.5637361
6,شارع شحاته,44743,30.7173226,31.5593661
2,شارع سعيد رضوان,44743,30.7161074,31.5645254
9,شارع حافظ ابراهيم,44743,30.7171072,31.5590518
22,شارع احمد حسين,44743,30.7202004,31.5588578
8,شارع الجمهوريه,44743,30.7214443,31.5617453
51,شارع احمد عرابى,44743,30.7187898,31.5596549
7,حارة الجزارين,44743,30.7194371,31.5632386
8,شارع مسجد حفيظ,44743,30.7202511,31.5591100
1`,زقاق ابو بهنس,44743,30.7213106,31.5606241
9,شارع الجمال,44743,30.7224785,31.5585065
3,حارة الطبالين,44743,30.7218052,31.5586352
11,شارع عكاشه ابراهيم,44743,30.7198095,31.5596451
38,شارع الطنبولي,44743,30.7187523,31.5599830
60,شارع سليمان جاد,44743,30.7193962,31.5602231
3,حارة الجزارين,44743,30.7192697,31.5632364
48,حارة الملاحين,44743,30.7196746,31.5583804
3,حارة ابو عامر,44743,30.7194394,31.5603626
10,شارع حلمي,44743,30.7209520,31.5609996
5,حارة عبد الغفار الكثيري,44743,30.7222692,31.5581149
8,شارع البخشونجى,44743,30.7198983,31.5622978
2,شارع القنتيري,44743,30.7194383,31.5592025
5,حارة ابو زيد,44743,30.7204217,31.5612517
66,شارع سليمان جاد,44743,30.7194026,31.5601575
20,شارع 10,44743,30.7240630,31.5582807
7,حارة القرشي,44743,30.7194671,31.5609755
71,شارع سليمان جاد,44743,30.7193587,31.5625848
11,حارة ابو عامر,44743,30.7196008,31.5606724
3,شارع محمد عبد العاطى,44743,30.7211572,31.5572324
5,شارع عكاشه ابراهيم,44743,30.7200026,31.5600568
1,شارع ابو سالم,44743,30.7191350,31.5594976
43,شارع الطنبولي,44743,30.7186237,31.5600776
26,شارع طاحونه الحاج حنفى,44743,30.7214973,31.5581658
8,شارع احمد عرابى,44743,30.7188664,31.5602325
70,شارع احمد عرابى,44743,30.7194359,31.5635316
14`,حارة الطبالين,44743,30.7205485,31.5584314
10,شارع ابو طه,44743,30.7193207,31.5588257
55,شارع سليمان جاد,44743,30.7191708,31.5612008
41,شارع سليمان جاد,44743,30.7191489,31.5602727
23,شارع مسجد حفيظ,44743,30.7205192,31.5590864
8,شارع عكاشه ابراهيم,44743,30.7200896,31.5597349
2,حارة بهلول,44743,30.7185814,31.5600654
46,حارة الملاحين,44743,30.7198268,31.5584864
4,شارع ابو سالم,44743,30.7192238,31.5595002
11R,حارة الطبالين,44743,30.7206396,31.5585400
8L,شارع القيساريه,44743,30.7200505,31.5612705
5,شارع السيسى,44743,30.7205526,31.5580307
10,شارع 17,44743,30.7210004,31.5595016
13,حارة كمال,44743,30.7200770,31.5620550
10,شارع الجلادين,44743,30.7208794,31.5622857
12,حارة بهلول,44743,30.7185736,31.5604135
12,شارع الجلادين,44743,30.7207722,31.5622307
1,شارع وجيه,44743,30.7213959,31.5612920
1,شارع الجمهوريه,44743,30.7216357,31.5576106
1,زقاق ابو بهنس,44743,30.7217268,31.5606871
2,شارع 20,44743,30.7215734,31.5583388
8R,شارع القيساريه,44743,30.7201715,31.5615293
6,شارع ابو رزق,44743,30.7195847,31.5578373
12,شارع بندارى,44743,30.7228013,31.5574712
2,شارع 2,44743,30.7227609,31.5531340
6,حارة الطبالين,44743,30.7209612,31.5583375
2,شارع جمال عثمان,44743,30.7217683,31.5601534
23,شارع الجلادين,44743,30.7205577,31.5624359
11,شارع 21,44743,30.7211987,31.5611672
4,شارع مسجد الحاج ابراهيم,44743,30.7215446,31.5589276
11,شارع بندارى,44743,30.7232855,31.5577877
48,شارع احمد عرابى,44743,30.7191558,31.5626492
15,شارع مسجد حلمي,44743,30.7201277,31.5607904
12,شارع الباجوري,44743,30.7200378,31.5626411
1,شارع 21,44743,30.7210835,31.5608749
34,شارع المستشفى,44743,30.7219020,31.5619987
9,شارع مسجد حفيظ,44743,30.7190787,31.5593924
11,شارع احمد عرابى,44743,30.7188641,31.5603022
5R,شارع الجمهوريه,44743,30.7217014,31.5561059
5,شارع 21,44743,30.7210673,31.5611659
1,شارع المأمون,44743,30.7180305,31.5599509
10,شارع بندارى,44743,30.7228439,31.5573357
17R,شارع مسجد حفيظ,44743,30.7207284,31.5590464
10,حارة ابو زيد,44743,30.7203029,31.5610573
19,شارع مسجد حفيظ,44743,30.7206576,31.5590480
9,حارة ابو عامر,44743,30.7195371,31.5606053
2,شارع 16,44743,30.7212034,31.5601480
7,شارع 16,44743,30.7210619,31.5604458
5,شارع 20,44743,30.7214060,31.5584682
38,شارع احمد عرابى,44743,30.7189575,31.5597457
4,شارع المأمون,44743,30.7181343,31.5601614
15,شارع محمد زغلول,44743,30.7194838,31.5611055
3,شارع السيسى,44743,30.7205582,31.5581324
1,شارع محمد عبد العاطى,44743,30.7211687,31.5573929
2,شارع محي الحبيشي,44743,30.7196158,31.5582557
10,شارع الشوادر,44743,30.7200366,31.5627900
11,حارة ابو جاد,44743,30.7191894,31.5584371
9,حارة ابو جاد,44743,30.7191513,31.5584375
3L,شارع الجمهوريه,44743,30.7216317,31.5575080
13,حارة ابو جاد,44743,30.7192561,31.5584363
19,شارع الجمهوريه,44743,30.7216680,31.5585145
5,شارع 10,44743,30.7188025,31.5620195
1,شارع المستشفى,44743,30.7231679,31.5569776
12,شارع احمد عرابى,44743,30.7189021,31.5624145
3,شارع 20,44743,30.7215292,31.5584900
11,شارع مسجد حلمي,44743,30.7201461,31.5602861
23,شارع حلمي,44743,30.7209612,31.5611082
11,شارع سالم محمد,44743,30.7192780,31.5599978
4,شارع على ابو الفتوح,44743,30.7192595,31.5626572
9,شارع خيرى,44743,30.7204171,31.5594158
23,شارع حسين على,44743,30.7233858,31.5608668
14,شارع القنتيري,44743,30.7193702,31.5590523
62,شارع سليمان جاد,44743,30.7193633,31.5603371
19,حارة الطبالين,44743,30.7201219,31.5586969
49,شارع احمد عرابى,44743,30.7187983,31.5595432
13,شارع 16,44743,30.7217867,31.5604484
7,شارع الزغلى,44743,30.7208621,31.5580183
5L,شارع احمد حسين,44743,30.7211942,31.5589257
16,شارع الجلادين,44743,30.7205992,31.5621020
68,حارة الملاحين,44743,30.7198429,31.5583456
20,شارع سليمان جاد,44743,30.7194180,31.5580245
50,شارع سليمان جاد,44743,30.7192446,31.5606764
10`,شارع مسجد حفيظ,44743,30.7206150,31.5598317
4,شارع زلط,44743,30.7207742,31.5594129
19,شارع جمال عثمان,44743,30.7206200,31.5599924
7,شارع النبغاء,44743,30.7203906,31.5617895
5`,شارع مسجد حفيظ,44743,30.7192814,31.5593614
20,شارع الباجوري,44743,30.7201323,31.5625834
3`,شارع مسجد حفيظ,44743,30.7193627,31.5593490
4,حارة الملاحين,44743,30.7202511,31.5583777
23,شارع ماكينه الحاج حنفى,44743,30.7222802,31.5579124
11,شارع 4,44743,30.7224565,31.5534183
1,شارع مسجد حفيظ,44743,30.7194613,31.5593339
1,شارع 50,44743,30.7184813,31.5587479
17L,شارع مسجد حفيظ,44743,30.7206175,31.5599127
22,شارع الشوادر,44743,30.7201554,31.5628128
12,حارة الشهيدي,44743,30.7184688,31.5592632
5,شارع سليمان جاد 1,44743,30.7184537,31.5582128
9,حارة الشهيدي,44743,30.7181804,31.5595123
2,شارع العواصفى,44743,30.7182726,31.5622629
8`,شارع العواصفى,44743,30.7182768,31.5619303
29,حارة الشهيدي,44743,30.7180882,31.5596867
3,شارع 50,44743,30.7185355,31.5586795
8,شارع العواصفى,44743,30.7182760,31.5619930
7,شارع 10,44743,30.7186698,31.5620300
9,شارع 10,44743,30.7185286,31.5620413
29,شارع الجزارين,44743,30.7189454,31.5633814
15,شارع مربع ابو دقن,44743,30.7183822,31.5624413
3,حارة ابو جاد,44743,30.7188664,31.5584408
15,شارع حلمي بليغ,44743,30.7189586,31.5630770
8,حارة ابو شبانه,44743,30.7186589,31.5578051
3,شارع على سعد دسوقى,44743,30.7184179,31.5627900
7,شارع هدهد,44743,30.7178057,31.5607595
3,شارع سليمان جاد 1,44743,30.7184194,31.5581675
17,حارة الشهيدي,44743,30.7184329,31.5592575
3,شارع العواصفى,44743,30.7182381,31.5623514
2,شارع مربع ابو دقن,44743,30.7185142,31.5621462
2,حارة بكير,44743,30.7181287,31.5590696
2R,شارع المأمون,44743,30.7178813,31.5610401
10,شارع العواصفى,44743,30.7182784,31.5618056
8,حارة بكير,44743,30.7180396,31.5592670
12,حارة بكير,44743,30.7179867,31.5593842
1,حارة الشهيدي,44743,30.7183003,31.5593477
16,حارة بكير,44743,30.7179477,31.5595383
14,حارة بكير,44743,30.7179723,31.5594409
6,حارة بكير,44743,30.7180725,31.5591941
10,حارة بكير,44743,30.7180212,31.5593076
30,شارع الغندور,44743,30.7181447,31.5587667
38,شارع الغندور,44743,30.7184156,31.5588418
34,شارع الغندور,44743,30.7182542,31.5588029
4,شارع العواصفى,44743,30.7182737,31.5621805
13,شارع المأمون,44743,30.7179197,31.5606431
1,حارة ابو شبانه,44743,30.7189828,31.5576106
13,شارع سليمان جاد 1,44743,30.7187892,31.5582007
8,شارع سليمان جاد 1,44743,30.7185367,31.5581377
12`,حارة الشهيدي,44743,30.7181562,31.5592025
8,حارة الشهيدي,44743,30.7180426,31.5595613
8R,شارع هدهد,44743,30.7179069,31.5607757
13,شارع حسن الغريب,44743,30.7177342,31.5610412
32,شارع السوق,44743,30.7180836,31.5614636
27,حارة الشهيدي,44743,30.7180668,31.5594707
16,شارع هدهد,44743,30.7178331,31.5606309
30,شارع احمد عرابى,44743,30.7188412,31.5589398
15,حارة عزام,44743,30.7190820,31.5585776
28,شارع احمد عرابى,44743,30.7188203,31.5588391
13,شارع مربع ابو دقن,44743,30.7183811,31.5623676
6,شارع العواصفى,44743,30.7182748,31.5620921
8`,شارع احمد عرابى,44743,30.7185240,31.5584233
28,شارع الغندور,44743,30.7180697,31.5586674
7,شارع سليمان جاد 1,44743,30.7189828,31.5581953
6,حارة ابو شبانه,44743,30.7189875,31.5577836
11,شارع المكنه,44743,30.7177677,31.5594935
5`,شارع المأمون,44743,30.7178668,31.5611900
9`,حارة الشهيدي,44743,30.7184681,31.5593735
40,شارع الغندور,44743,30.7185067,31.5588552
1,حارة الجزارين,44743,30.7191811,31.5632352
9,شارع سليمان جاد 1,44743,30.7189021,31.5581927
23`,شارع احمد عرابى,44743,30.7184698,31.5585682
23,حارة الشهيدي,44743,30.7185561,31.5592772
36,شارع الغندور,44743,30.7183084,31.5588377
4,حارة ابو شبانه,44743,30.7190774,31.5575945
6,شارع 1,44743,30.7186924,31.5623406
66,شارع احمد عرابى,44743,30.7192215,31.5635544
8,شارع 1,44743,30.7186870,31.5623987
10,شارع ابو دقن,44743,30.7179809,31.5616178
10,شارع 1,44743,30.7186808,31.5624654
32,شارع الغندور,44743,30.7181793,31.5586942
11,حارة عزام,44743,30.7188872,31.5584931
7,شارع العواصفى,44743,30.7181147,31.5623523
5,حارة ابو جاد,44743,30.7190000,31.5584392
4,حارة بكير,44743,30.7180953,31.5591435
7,حارة ابو جاد,44743,30.7190693,31.5584384
1,شارع سليمان جاد 1,44743,30.7183603,31.5580894
17,حارة بكير,44743,30.7179602,31.5596337
4,شارع 1,44743,30.7186969,31.5622924
15`,شارع احمد عرابى,44743,30.7181274,31.5581524
5,شارع على سعد دسوقى,44743,30.7184163,31.5626828
17,شارع سليمان جاد 1,44743,30.7186393,31.5579620
1,شارع على سعد دسوقى,44743,30.7184191,31.5628678
7,شارع على سعد دسوقى,44743,30.7184145,31.5625566
5,شارع العواصفى,44743,30.7181776,31.5623518
2,شارع 10,44743,30.7178689,31.5591846
8,شارع المأمون,44743,30.7178943,31.5609058
1,شارع مربع ابو دقن,44743,30.7183741,31.5618968
3,شارع مربع ابو دقن,44743,30.7183750,31.5619582
2,شارع برهام,44743,30.7180513,31.5584019
5,شارع مربع ابو دقن,44743,30.7183763,31.5620469
6,شارع سليمان جاد 1,44743,30.7190509,31.5579593
11,شارع سليمان جاد 1,44743,30.7188330,31.5582007
4,شارع 50,44743,30.7183856,31.5587264
11,شارع مربع ابو دقن,44743,30.7183801,31.5623019
7,شارع مربع ابو دقن,44743,30.7183776,31.5621330
9,شارع مربع ابو دقن,44743,30.7183789,31.5622198
13,حارة الشهيدي,44743,30.7186347,31.5592897
3`,شارع المأمون,44743,30.7178744,31.5611117
13,حارة بكير,44743,30.7181631,31.5589933
38,شارع مسجد حلمي,44743,30.7205254,31.5608574
10,شارع حسين على,44743,30.7233616,31.5606911
18,شارع ابو سالم,44743,30.7193218,31.5596558
11,شارع المأمون,44743,30.7179290,31.5605471
1,شارع القنتيري,44743,30.7189264,31.5592843
1,شارع ابو طه,44743,30.7192016,31.5587889
5,زقاق ابو بهنس,44743,30.7215838,31.5606939
8,شارع 20,44743,30.7212160,31.5582865
30,شارع المستشفى,44743,30.7217982,31.5618244
8,شارع طاحونه الحاج حنفى,44743,30.7213763,31.5581484
3,حارة كمال,44743,30.7203790,31.5621221
20,شارع جمال عثمان,44743,30.7208137,31.5601131
17,حارة الطبالين,44743,30.7203756,31.5586728
5L,شارع مسجد حفيظ,44743,30.7196700,31.5594412
1,شارع ابو رزق,44743,30.7195328,31.5580156
2,شارع السيسى,44743,30.7206661,31.5581739
26,شارع المستشفى,44743,30.7218905,31.5614837
3,شارع سالم محمد,44743,30.7189586,31.5598114
14,شارع سليمان جاد,44743,30.7193647,31.5576629
2,شارع المأمون,44743,30.7181643,31.5600005
6,شارع القيساريه,44743,30.7200516,31.5611820
13,شارع محمد زغلول,44743,30.7194596,31.5612450
20,حارة الجمال,44743,30.7199571,31.5581980
1,حارة بهلول,44743,30.7185314,31.5600511
10,شارع مسجد حفيظ,44743,30.7208852,31.5592441
24,شارع محي الحبيشي,44743,30.7195835,31.5581189
16,شارع سليمان جاد,44743,30.7193603,31.5578122
8,شارع سليمان جاد,44743,30.7193091,31.5572686
6,شارع سليمان جاد,44743,30.7192585,31.5571145
10,شارع سليمان جاد,44743,30.7193370,31.5573900
10,شارع القيساريه,44743,30.7197219,31.5610693
12,شارع سليمان جاد,44743,30.7193571,31.5575295
1,شارع 20,44743,30.7216008,31.5585027
11,شارع احمد حسين,44743,30.7209739,31.5589195
17,شارع حسين على,44743,30.7235160,31.5608937
21,شارع ابو طه,44743,30.7193864,31.5589558
21,شارع مسجد حفيظ,44743,30.7205865,31.5590617
6,شارع خيرى,44743,30.7204217,31.5596813
9,حارة الجزارين,44743,30.7194890,31.5632392
9,شارع 16,44743,30.7210604,31.5605476
7,زقاق ابو بهنس,44743,30.7214455,31.5607005
18,شارع سليمان جاد,44743,30.7193982,31.5579047
15,شارع 16,44743,30.7215919,31.5604457
21,شارع حلمي,44743,30.7209405,31.5612692
15,شارع عزبة القصر,44743,30.7233235,31.5611646
14,شارع ابو رزق,44743,30.7195858,31.5579982
8,شارع حسين على,44743,30.7233201,31.5605476
27,شارع عكاشه ابراهيم,44743,30.7201139,31.5600226
3,شارع 10,44743,30.7189038,31.5620114
1,شارع 10,44743,30.7189955,31.5620041
26,شارع سليمان جاد,44743,30.7194527,31.5583962
28,شارع سليمان جاد,44743,30.7194556,31.5585387
15,شارع النبغاء,44743,30.7208782,31.5616554
24,شارع سليمان جاد,44743,30.7194466,31.5582870
21,شارع احمد عرابى,44743,30.7188619,31.5610123
22,شارع سليمان جاد,44743,30.7194350,31.5581579
23,شارع احمد عرابى,44743,30.7188883,31.5610785
17,شارع احمد عرابى,44743,30.7188150,31.5608951
19,شارع احمد عرابى,44743,30.7188449,31.5609699
41,شارع الطنبولي,44743,30.7184813,31.5600367
2,شارع الجمهوريه,44743,30.7218086,31.5580505
5,شارع مسجد الحاج ابراهيم,44743,30.7219527,31.5583348
5,شارع سليمان جاد,44743,30.7192480,31.5579124
3,شارع الزغلى,44743,30.7208898,31.5575033
1,شارع سالم محمد,44743,30.7189171,31.5599321
3,شارع مسجد الحاج ابراهيم,44743,30.7214431,31.5591261
6L,شارع الجمهوريه,44743,30.7214328,31.5618700
53,شارع احمد عرابى,44743,30.7187817,31.5597611
55,شارع احمد عرابى,44743,30.7187762,31.5598338
2,شارع النبغاء,44743,30.7198913,31.5616460
36,شارع السوق,44743,30.7184317,31.5615052
13,حارة الطبالين,44743,30.7205670,31.5585722
17,زقاق ابو بهنس,44743,30.7216115,31.5608373
11,شارع سليمان جاد,44743,30.7193345,31.5584354
1,شارع سليمان جاد,44743,30.7190197,31.5563366
19,زقاق ابو بهنس,44743,30.7217314,31.5608373
9`,حارة الطبالين,44743,30.7207629,31.5583751
12,شارع احمد حسين,44743,30.7199744,31.5588833
7,شارع المأمون,44743,30.7179521,31.5602955
18,شارع السيسى,44743,30.7206188,31.5574484
5,شارع زلط,44743,30.7209469,31.5603822
16,شارع حسين على,44743,30.7234872,31.5607555
1,حارة ابو عامر,44743,30.7194094,31.5605061
10,شارع السيسى,44743,30.7206445,31.5578427
41`,شارع سليمان جاد,44743,30.7191085,31.5606415
12,شارع السيسى,44743,30.7206386,31.5577524
37,شارع القيساريه,44743,30.7198960,31.5615092
5`,حارة ابو زيد,44743,30.7205623,31.5610975
14,شارع السيسى,44743,30.7206324,31.5576558
25,شارع القيساريه,44743,30.7197645,31.5616232
16,شارع السيسى,44743,30.7206258,31.5575560
13,شارع السيسى,44743,30.7205342,31.5576963
27,شارع احمد حسين,44743,30.7206558,31.5587757
15,شارع السيسى,44743,30.7205278,31.5575784
9,شارع 20,44743,30.7212356,31.5584381
7,شارع السيسى,44743,30.7205464,31.5579184
11,شارع السيسى,44743,30.7205380,31.5577650
9,شارع السيسى,44743,30.7205419,31.5578352
8`,شارع مسجد حفيظ,44743,30.7201023,31.5591918
6,شارع 20,44743,30.7213326,31.5583036
3,شارع عكاشه ابراهيم,44743,30.7200038,31.5601319
15,شارع احمد عرابى,44743,30.7187822,31.5608132
7,شارع عكاشه ابراهيم,44743,30.7199859,31.5597095
9,شارع جمال عثمان,44743,30.7209093,31.5599407
13L,حارة ابو عامر,44743,30.7196319,31.5603814
3,شارع 2,44743,30.7215008,31.5586232
14,شارع الجمهوريه,44743,30.7218069,31.5579593
5,شارع الجلادين,44743,30.7206880,31.5624413
4L,شارع الشوادر,44743,30.7199363,31.5627632
6,شارع السيسى,44743,30.7206578,31.5580466
50`,شارع سليمان جاد,44743,30.7194227,31.5599509
4,شارع الجمهوريه,44743,30.7215515,31.5563929
3,شارع 16,44743,30.7210647,31.5602471
5L,شارع الجمهوريه,44743,30.7216276,31.5574054
57,شارع احمد عرابى,44743,30.7187707,31.5599053
11,شارع مسجد حفيظ,44743,30.7190048,31.5594037
16,شارع القيساريه,44743,30.7201992,31.5609795
5,شارع سعيد رسمى,44743,30.7207387,31.5606160
13,شارع سليمان جاد,44743,30.7193426,31.5585762
7,حارة ابو جلال,44743,30.7214581,31.5602888
7,حارة ابو عامر,44743,30.7195413,31.5605456
10,شارع عادل الحلواني,44743,30.7212933,31.5563393
5R,شارع احمد حسين,44743,30.7210604,31.5587908
13R,حارة ابو عامر,44743,30.7196481,31.5605731
14L,شارع الشمولي,44743,30.7199017,31.5602310
12,شارع الشمولي,44743,30.7199007,31.5601719
16,شارع ابو رزق,44743,30.7201755,31.5578909
21,شارع 14,44743,30.7222225,31.5595928
10,شارع الشمولي,44743,30.7198996,31.5601022
6,حارة ابو زيد,44743,30.7202914,31.5611686
15,زقاق ابو بهنس,44743,30.7215239,31.5608373
6`,حارة ابو زيد,44743,30.7205347,31.5609889
7,شارع 21,44743,30.7212045,31.5610468
35,شارع مسجد حفيظ,44743,30.7215054,31.5593514
5,شارع المأمون,44743,30.7179812,31.5601676
1,شارع السيسى,44743,30.7205635,31.5582289
5,شارع 16,44743,30.7210632,31.5603490
6,شارع ابو طه,44743,30.7190947,31.5587559
10L,حارة الطبالين,44743,30.7207039,31.5583906
34,شارع احمد عرابى,44743,30.7188860,31.5591556
5,شارع خيرى,44743,30.7202833,31.5595525
9,شارع احمد حسين,44743,30.7210628,31.5589220
15,حارة الطبالين,44743,30.7202511,31.5585145
9,حارة ابو نصار,44743,30.7197518,31.5634015
11,حارة الجزارين,44743,30.7194728,31.5633734
25,شارع احمد عرابى,44743,30.7189586,31.5612544
5,حارة الجزارين,44743,30.7193975,31.5632380
7`,حارة القرشي,44743,30.7196619,31.5608507
10R,حارة الطبالين,44743,30.7199282,31.5587653
3,شارع احمد حسين,44743,30.7212816,31.5589282
6R,شارع الجمهوريه,44743,30.7218052,31.5578681
7,شارع الجمهوريه,44743,30.7216645,31.5614703
3,شارع ابو سالم,44743,30.7190024,31.5596518
5,شارع يوسف محمد,44743,30.7231990,31.5604980
1,شارع بكار,44743,30.7186151,31.5593956
12,شارع ماكينه الحاج حنفى,44743,30.7223470,31.5577045
18,شارع النبغاء,44743,30.7206477,31.5615186
4,شارع السيسى,44743,30.7206617,31.5581063
12,شارع عزبة القصر,44743,30.7230526,31.5610519
7,شارع زلط,44743,30.7209534,31.5604595
3,شارع مسجد حفيظ,44743,30.7201727,31.5591717
14,شارع بندارى,44743,30.7226987,31.5574524
15,شارع سليمان جاد,44743,30.7192861,31.5605785
9,شارع محي الحبيشي,44743,30.7201012,31.5581618
1,شارع جمال عثمان,44743,30.7220634,31.5601400
35,شارع يوسف محمد,44743,30.7231840,31.5608186
6,شارع القنتيري,44743,30.7190493,31.5591101
6,حارة بهلول,44743,30.7185770,31.5603197
11,شارع ماكينه الحاج حنفى,44743,30.7221764,31.5578681
5,شارع مسجد حفيظ,44743,30.7204793,31.5594868
37,شارع سليمان جاد,44743,30.7191731,31.5601520
3,شارع المأمون,44743,30.7180030,31.5600718
2,زقاق ابو بهنس,44743,30.7212333,31.5607810
8,حارة الطبالين,44743,30.7198521,31.5586188
3,شارع المستشفى,44743,30.7221026,31.5609473
11L,حارة الطبالين,44743,30.7199881,31.5585668
21,شارع الشمولي,44743,30.7196037,31.5597665
10,شارع محمد عبد العاطى,44743,30.7210443,31.5576965
2,شارع مسجد حفيظ,44743,30.7205992,31.5593246
10,شارع القنتيري,44743,30.7192441,31.5590750
9`,شارع جمال عثمان,44743,30.7214489,31.5599978
9,حارة ابو زيد,44743,30.7204436,31.5609969
38,شارع محمد عبد الله,44743,30.7235852,31.5607434
16,شارع احمد حسين,44743,30.7205243,31.5587734
4,شارع سليمان جاد,44743,30.7192037,31.5569904
30,شارع سليمان جاد,44743,30.7194550,31.5586070
1,شارع 16,44743,30.7210662,31.5601453
6,شارع زلط,44743,30.7208413,31.5606013
8,شارع السيسى,44743,30.7206511,31.5579433
3R,شارع الجمهوريه,44743,30.7217175,31.5563178
5,حارة ابو عامر,44743,30.7195455,31.5604860
9,حارة الطبالين,44743,30.7198963,31.5586027
14R,شارع الشمولي,44743,30.7197530,31.5601668
7,حارة مقبل,44743,30.7194325,31.5606885
7,شارع محمد عبد العاطى,44743,30.7212010,31.5578467
4,شارع القنتيري,44743,30.7189828,31.5591221
9,شارع زلط,44743,30.7209612,31.5605530
7,حارة الطبالين,44743,30.7197968,31.5586325
2,حارة الطبالين,44743,30.7216449,31.5587532
21,حارة الطبالين,44743,30.7206103,31.5584152
3`,زقاق ابو بهنس,44743,30.7212126,31.5606362
29,شارع المستشفى,44743,30.7218351,31.5616527
47,شارع احمد عرابى,44743,30.7187982,31.5594011
1,شارع احمد حسين,44743,30.7213555,31.5589303
8,شارع القنتيري,44743,30.7191551,31.5590910
9,حارة القرشي,44743,30.7193725,31.5608253
10,شارع المستشفى,44743,30.7232117,31.5579539
3,حارة مقبل,44743,30.7193137,31.5606858
13,زقاق ابو بهنس,44743,30.7214639,31.5608373
15,شارع الزغلى,44743,30.7208978,31.5582383
44,شارع الدمسيس,44743,30.7232889,31.5582986
5R,شارع مسجد حفيظ,44743,30.7212829,31.5591140
26,شارع ابو رزق,44743,30.7202124,31.5578654
10,حارة شبانه,44743,30.7195432,31.5574738
9,شارع المأمون,44743,30.7179383,31.5604511
11,شارع 4,44743,30.7207537,31.5586165
76,شارع احمد عرابى,44743,30.7194359,31.5636335
3,شارع وجيه,44743,30.7210212,31.5613684
1,شارع زلط,44743,30.7208782,31.5593460
7,شارع مسجد حفيظ,44743,30.7191877,31.5593757
3,حارة الملاحين,44743,30.7196031,31.5584046
7,شارع خيرى,44743,30.7202810,31.5594318
13,شارع جمال عثمان,44743,30.7213094,31.5601332
5,شارع ابو طه,44743,30.7190001,31.5588847
35,شارع سليمان جاد,44743,30.7192526,31.5602016
2,شارع المستشفى,44743,30.7223147,31.5591207
16,شارع الشمولي,44743,30.7199029,31.5603062
2,شارع زلط,44743,30.7207699,31.5592857
45`,شارع احمد عرابى,44743,30.7187949,31.5592749
12,شارع القنتيري,44743,30.7193212,31.5590611
24,شارع القنتيري,44743,30.7190024,31.5592642
8,شارع بكار,44743,30.7185701,31.5595525
14,شارع البخشونجى,44743,30.7198948,31.5618096
2,حارة ابو زيد,44743,30.7203110,31.5614958
9,شارع القيساريه,44743,30.7201890,31.5611815
12,شارع مسجد حفيظ,44743,30.7207676,31.5592039
7,شارع 20,44743,30.7213083,31.5584509
4,شارع 2,44743,30.7210696,31.5581310
6,شارع الشوادر,44743,30.7199651,31.5626532
7,شارع احمد حسين,44743,30.7211354,31.5589241
39,شارع القيساريه,44743,30.7199017,31.5614167
11`,شارع سليمان جاد,44743,30.7192399,31.5607810
3,شارع زلط,44743,30.7209402,31.5603013
21,شارع البخشونجى,44743,30.7197599,31.5617774
11,شارع جمال عثمان,44743,30.7210097,31.5599817
26,شارع محمد عبد الله,44743,30.7235542,31.5604883
3,زقاق ابو بهنس,44743,30.7216759,31.5606895
14,حارة الجزارين,44743,30.7196469,31.5632755
2,حارة الملاحين,44743,30.7196815,31.5585253
4,شارع زلط,44743,30.7208275,31.5605128
13,طريق ديرب نجم,44743,30.7225488,31.5530696
8,شارع الشمولي,44743,30.7198983,31.5600193
3,شارع 21,44743,30.7212091,31.5609486
15,شارع الشوادر,44743,30.7198291,31.5630877
1,شارع الشمولي,44743,30.7195155,31.5597457
1,شارع زلط,44743,30.7209301,31.5601815
25,شارع بندارى,44743,30.7234976,31.5576428
13,شارع القيساريه,44743,30.7201761,31.5614381
4,شارع 20,44743,30.7214603,31.5583223
5,شارع زكريا,44743,30.7201312,31.5619344
15,شارع مسجد حفيظ,44743,30.7208091,31.5590590
20,شارع حسين على,44743,30.7234992,31.5608127
15,حارة ابو عامر,44743,30.7197438,31.5605557
6,شارع زلط,44743,30.7207791,31.5595552
2L,شارع المأمون,44743,30.7181482,31.5600867
36,شارع 10,44743,30.7241801,31.5580183
12,شارع 4,44743,30.7225788,31.5532534
32,شارع احمد عرابى,44743,30.7188631,31.5590451
3,شارع خلف المعهد الديني,44743,30.7210650,31.5617278
5,شارع الغندور,44743,30.7177746,31.5586325
13,شارع البواب,44743,30.7173254,31.5664969
3,شارع رشاد,44743,30.7176962,31.5619250
2,شارع احمد كامل,44743,30.7148161,31.5665343
15,شارع سعيد السيد,44743,30.7228209,31.5602767
15,شارع حافظ ابراهيم,44743,30.7171301,31.5587050
5,شارع رشاد,44743,30.7174287,31.5621328
9,شارع 7,44743,30.7160877,31.5578655
3,شارع مصيلحى المأذون,44743,30.7179304,31.5641690
12,شارع حافظ ابراهيم,44743,30.7170146,31.5588225
3,شارع فؤاد صديق,44743,30.7172901,31.5632118
8,شارع شحاته,44743,30.7174667,31.5588190
1,شارع رشاد,44743,30.7170056,31.5621570
2,شارع 7,44743,30.7164487,31.5577152
14,شارع ابو يوسف,44743,30.7171870,31.5625758
11,شارع حسن الغريب,44743,30.7176607,31.5610307
3,شارع عبد العزيز على,44743,30.7164810,31.5616152
9`,حارة النبوى,44743,30.7174622,31.5614452
47,شارع الزعفراني,44743,30.7167542,31.5628450
6,شارع هدهد,44743,30.7173110,31.5605553
18,شارع بحر ام الريس الجديد 1,44743,30.7181827,31.5663788
3,شارع حلمي بليغ,44743,30.7180121,31.5630564
10`,شارع حافظ ابراهيم,44743,30.7170089,31.5588794
8,شارع المجلس القديم,44743,30.7181539,31.5636778
17,شارع رشيدة,44743,30.7183487,31.5642263
25,شارع ابو هاشم,44743,30.7185078,31.5649170
7,شارع عبد السميع الصراف,44743,30.7163233,31.5626727
24,شارع بدير,44743,30.7173146,31.5588860
7,شارع مصيلحى المأذون,44743,30.7179505,31.5644080
18,شارع الجزارين,44743,30.7181491,31.5632602
5,شارع الحاج صبرى,44743,30.7179472,31.5650155
20,شارع الزعفراني,44743,30.7179498,31.5657686
7,شارع الحاج صبرى,44743,30.7179625,31.5651047
27,شارع السكة الجديدة,44743,30.7185678,31.5644234
77,شارع بحر ام الريس القديم,44743,30.7188583,31.5650484
5,شارع الفيومي,44743,30.7182984,31.5639220
93,شارع الزعفراني,44743,30.7169906,31.5647855
23,شارع الزعفراني,44743,30.7179192,31.5659616
9,شارع البواب,44743,30.7171663,31.5663882
34,شارع الطنبولي,44743,30.7169629,31.5596330
9,شارع السكة الجديدة,44743,30.7176526,31.5650862
6,شارع رشاد,44743,30.7165228,31.5622081
14,شارع المكنه,44743,30.7176201,31.5595713
7,شارع المجلس القديم,44743,30.7179014,31.5637717
5,شارع الزعفراني,44743,30.7173756,31.5655983
6L,شارع الزعفراني,44743,30.7170344,31.5618002
20,حارة الاحرار,44743,30.7176420,31.5630904
9,شارع مصيلحى المأذون,44743,30.7179563,31.5644824
6L,شارع الجزارين,44743,30.7177700,31.5632714
65,شارع مسجد التقوي,44743,30.7165317,31.5648311
3,شارع المجلس القديم,44743,30.7180928,31.5637851
4,شارع احمد كامل,44743,30.7149037,31.5666609
9,شارع رشاد,44743,30.7165778,31.5620323
2,شارع الطوخي,44743,30.7183015,31.5635517
2,شارع سليمان جاد 1,44743,30.7182600,31.5575825
38,شارع الحرية,44743,30.7174586,31.5652896
73,شارع بحر ام الريس القديم,44743,30.7188088,31.5652549
12,شارع 20,44743,30.7176420,31.5613040
15,شارع حسن عزيز,44743,30.7161189,31.5637904
11,شارع البواب,44743,30.7172491,31.5664447
5,شارع ابراهيم الجندى,44743,30.7185344,31.5568905
3,شارع الحاج صبرى,44743,30.7179322,31.5649283
6R,شارع الزعفراني,44743,30.7168395,31.5618351
11,حارة النبوى,44743,30.7175070,31.5614454
16,شارع بنك التسليف,44743,30.7177037,31.5660658
8,شارع مسجد التقوي,44743,30.7163588,31.5647131
6,شارع الطنبولي,44743,30.7170943,31.5595540
1,شارع المقابر القديم,44743,30.7184606,31.5637676
3,حارة النبوى,44743,30.7171268,31.5614313
5,شارع المضرب,44743,30.7152081,31.5668240
11,شارع السكة الجديدة,44743,30.7177317,31.5650318
14,شارع البهنساوى,44743,30.7159068,31.5651584
27,شارع المأمون,44743,30.7176685,31.5641364
4,شارع الطنبولي,44743,30.7168591,31.5593916
2,شارع الطنبولي,44743,30.7168222,31.5593688
6L,شارع المأمون,44743,30.7174033,31.5648794
9`,شارع حسن الغريب,44743,30.7166931,31.5609084
78,شارع مسجد التقوي,44743,30.7166147,31.5648767
7,شارع الشيخ عبد القادر,44743,30.7165824,31.5630086
1,شارع المضرب,44743,30.7148991,31.5664700
5,شارع كراكوس,44743,30.7178549,31.5654948
26,شارع ابو دقن,44743,30.7177031,31.5617895
14,شارع حافظ ابراهيم,44743,30.7170218,31.5587501
24,شارع بنك التسليف,44743,30.7178486,31.5661816
9,شارع كراكوس,44743,30.7180017,31.5656103
8,شارع منشيه عزيز,44743,30.7161582,31.5618257
2,شارع البواب,44743,30.7170436,31.5660623
5,شارع احمد كامل,44743,30.7147815,31.5668106
16,شارع مسجد التقوي,44743,30.7167946,31.5650350
16L,شارع المجلس القديم,44743,30.7183856,31.5636845
3,شارع الحرية,44743,30.7185897,31.5648888
75,شارع بحر ام الريس القديم,44743,30.7188312,31.5651615
26,شارع بنك التسليف,44743,30.7179106,31.5662311
32,شارع الحرية,44743,30.7176824,31.5651994
13,شارع السكة الجديدة,44743,30.7177933,31.5649894
1,شارع كراكوس,44743,30.7176916,31.5653662
1,شارع عاشور,44743,30.7180236,31.5653126
13,شارع الفيومي,44743,30.7182357,31.5640452
2,شارع رشاد,44743,30.7166785,31.5621751
12,حارة الاحرار,44743,30.7172282,31.5629703
35,شارع السكة الجديدة,44743,30.7189443,31.5642169
28,شارع المأمون,44743,30.7176501,31.5644824
4,شارع مسجد التقوي,44743,30.7166729,31.5651588
4,شارع البنك القديم,44743,30.7138995,31.5675475
12,شارع احمد كامل,44743,30.7151597,31.5670305
1,حارة النبوى,44743,30.7170321,31.5614274
27`,شارع المأمون,44743,30.7176596,31.5641947
12,شارع بدير,44743,30.7171955,31.5589274
7,شارع البهنساوى,44743,30.7161468,31.5650699
5,شارع البواب,44743,30.7170113,31.5662822
2,شارع منشيه عزيز,44743,30.7161962,31.5615468
14,شارع هدهد,44743,30.7177131,31.5606135
13,شارع رجب محمد,44743,30.7180271,31.5572727
4,شارع مليجي البرماوي,44743,30.7167252,31.5591898
3,شارع حافظ ابراهيم,44743,30.7170456,31.5593710
5,شارع المقابر القديم,44743,30.7185055,31.5638696
4,حارة النبوى,44743,30.7172178,31.5613171
32,شارع عبد العزيز على,44743,30.7164026,31.5614033
14,شارع البواب,44743,30.7175244,31.5664170
8,شارع البواب,44743,30.7172866,31.5662416
12,شارع البواب,44743,30.7174735,31.5663795
10,شارع البواب,44743,30.7173950,31.5663215
3,شارع 21,44743,30.7145347,31.5666228
1,شارع 21,44743,30.7144839,31.5664676
4,شارع بدير,44743,30.7171264,31.5594059
5,شارع 21,44743,30.7146155,31.5667721
10,شارع بدير,44743,30.7171808,31.5590653
2,شارع بدير,44743,30.7171072,31.5594973
6,شارع بدير,44743,30.7171448,31.5593079
8,شارع بدير,44743,30.7171618,31.5592045
53,شارع المأمون,44743,30.7175923,31.5635162
6R,شارع المأمون,44743,30.7176339,31.5642920
4,شارع هدهد,44743,30.7172088,31.5605404
58,شارع الزعفراني,44743,30.7170713,31.5632996
13,شارع الزعفراني,44743,30.7176169,31.5657596
16,شارع الفيومي,44743,30.7178499,31.5639817
8,شارع حسن الغريب,44743,30.7174425,31.5608494
63,شارع المأمون,44743,30.7174794,31.5638991
9,حارة النبوى,44743,30.7173929,31.5614424
9,شارع المأمون,44743,30.7177858,31.5621902
35,شارع عبد الله محى,44743,30.7156024,31.5676180
8,شارع عبد السميع الصراف,44743,30.7162928,31.5628383
13,شارع الزعفراني,44743,30.7168960,31.5611042
51,شارع المأمون,44743,30.7176006,31.5634256
18,شارع السكة الجديدة,44743,30.7188861,31.5642417
23,شارع السيد العربى البنا,44743,30.7173999,31.5623474
11,شارع حافظ ابراهيم,44743,30.7171199,31.5589355
9,شارع شحاته,44743,30.7174575,31.5589221
13,شارع حافظ ابراهيم,44743,30.7171260,31.5588504
5,شارع شحاته,44743,30.7174402,31.5591153
57,شارع المأمون,44743,30.7175701,31.5637587
4,شارع حافظ ابراهيم,44743,30.7169128,31.5593812
12,شارع ابو المعاطى الهواري,44743,30.7174633,31.5611043
3,شارع برهام,44743,30.7180225,31.5582436
16,شارع حافظ ابراهيم,44743,30.7170311,31.5586564
21`,شارع الزعفراني,44743,30.7178563,31.5659170
11,شارع عماد محمد,44743,30.7182692,31.5648030
56,شارع الزعفراني,44743,30.7170909,31.5631735
11,شارع المأمون,44743,30.7177772,31.5622544
2,شارع حافظ ابراهيم,44743,30.7168960,31.5594399
4,شارع شحاته,44743,30.7173295,31.5587586
1,شارع محمد مناع,44743,30.7168222,31.5603089
15,شارع محمد مناع,44743,30.7173699,31.5604229
8,شارع ابو المعاطى الهواري,44743,30.7173005,31.5610887
5,شارع عبد السميع الصراف,44743,30.7162365,31.5626706
11,شارع 7,44743,30.7160152,31.5578668
7,شارع رشيدة,44743,30.7178147,31.5644029
14,شارع مسجد التقوي,44743,30.7161973,31.5647963
2,حارة النبوى,44743,30.7171151,31.5613094
4,شارع 7,44743,30.7163498,31.5577203
18,شارع الفيومي,44743,30.7177584,31.5639889
6,شارع بنك التسليف,44743,30.7173676,31.5657619
10,شارع 7,44743,30.7160957,31.5577335
22,شارع 20,44743,30.7174967,31.5615615
12,شارع مليجي البرماوي,44743,30.7168076,31.5585961
6,شارع حافظ ابراهيم,44743,30.7169367,31.5592976
8,شارع رشاد,44743,30.7164436,31.5622321
3,شارع المحكمة,44743,30.7171681,31.5638186
5,شارع فؤاد صديق,44743,30.7172808,31.5633330
1,شارع رجب العرنوس,44743,30.7171543,31.5597470
7,شارع مسجد الباز,44743,30.7166107,31.5587792
29,شارع البواب,44743,30.7174391,31.5665746
9,شارع مسجد الباز,44743,30.7166228,31.5586661
49,شارع المأمون,44743,30.7176065,31.5633605
30,شارع بحر ام الريس الجديد 1,44743,30.7180236,31.5666175
25,شارع الزعفراني,44743,30.7180115,31.5660232
6,شارع حلمي بليغ,44743,30.7181862,31.5628832
37,شارع السيد العربى البنا,44743,30.7176823,31.5625861
6,شارع حسن الغريب,44743,30.7173376,31.5608306
4,شارع 10,44743,30.7177434,31.5591413
2,شارع الفيومي,44743,30.7184110,31.5640117
73,شارع 7,44743,30.7166307,31.5643573
6,شارع المقابر,44743,30.7181527,31.5642719
6,شارع البنك القديم,44743,30.7140324,31.5675034
4,شارع ابو يوسف,44743,30.7172445,31.5621999
10,شارع الزعفراني,44743,30.7170148,31.5619826
8,شارع احمد كامل,44743,30.7150436,31.5668629
14,شارع عبد العزيز على,44743,30.7163288,31.5619397
10,حارة النبوى,44743,30.7175164,31.5613389
8,شارع كراكوس,44743,30.7178507,31.5653260
55,شارع المأمون,44743,30.7175794,31.5636573
12,شارع المقابر,44743,30.7181389,31.5641431
61,شارع المأمون,44743,30.7175578,31.5638924
6,شارع البواب,44743,30.7172064,31.5661824
5,حارة النبوى,44743,30.7172004,31.5614344
12,شارع مسجد التقوي,44743,30.7165663,31.5650752
16,شارع الزعفراني,44743,30.7176858,31.5654883
2,شارع هدهد,44743,30.7171013,31.5605248
5,شارع البنك القديم,44743,30.7139652,31.5675257
14,شارع الزعفراني,44743,30.7177630,31.5655352
8L,شارع هدهد,44743,30.7173713,31.5605640
12,شارع هدهد,44743,30.7176180,31.5605998
10,شارع هدهد,44743,30.7174680,31.5605780
10,شارع ابو المعاطى الهواري,44743,30.7173877,31.5610970
67,شارع 7,44743,30.7167185,31.5640305
36,شارع الحرية,44743,30.7175213,31.5652643
5,شارع الزعفراني,44743,30.7165525,31.5601695
10,حارة الاحرار,44743,30.7170950,31.5629316
12,شارع منشيه عزيز,44743,30.7161270,31.5620550
1,شارع المأمون,44743,30.7178599,31.5627699
69,شارع 7,44743,30.7166957,31.5641153
10,شارع البنك القديم,44743,30.7143180,31.5674087
7,شارع حافظ ابراهيم,44743,30.7170835,31.5592003
2,شارع الزعفراني,44743,30.7174218,31.5654615
10,شارع رشاد,44743,30.7163592,31.5622632
1,شارع البواب,44743,30.7167035,31.5657860
22,شارع 7,44743,30.7165928,31.5644985
10,شارع حافظ ابراهيم,44743,30.7169853,31.5590950
2,شارع عبد الله محى,44743,30.7156762,31.5675268
75,شارع المحكمة,44743,30.7174483,31.5641136
10,شارع احمد كامل,44743,30.7151052,31.5669519
1,شارع الزعفراني,44743,30.7161097,31.5591529
1,شارع البنك القديم,44743,30.7136666,31.5676247
40,شارع الحرية,44743,30.7174114,31.5653086
7,شارع البواب,44743,30.7170788,31.5663283
16,شارع البواب,44743,30.7176016,31.5664740
29,شارع الطوخي,44743,30.7182058,31.5635544
34,شارع الحرية,44743,30.7175962,31.5652341
4,شارع الزعفراني,44743,30.7174826,31.5654969
84,شارع الزعفراني,44743,30.7172246,31.5650699
18,شارع عبد الحافظ,44743,30.7168397,31.5648046
17,شارع المجلس القديم,44743,30.7186070,31.5638347
5,شارع المأمون,44743,30.7178046,31.5620497
14,شارع بدير,44743,30.7172042,31.5588177
2,شارع ابو المعاطى الهواري,44743,30.7171128,31.5610707
13,شارع المأمون,44743,30.7177674,31.5623283
3,شارع البواب,44743,30.7167496,31.5659295
12,شارع الزعفراني,44743,30.7176966,31.5656213
3,شارع مسجد الباز,44743,30.7165860,31.5590096
6,شارع ابو المعاطى الهواري,44743,30.7172308,31.5610820
4,شارع ابو المعاطى الهواري,44743,30.7171681,31.5610760
14,شارع ابو المعاطى الهواري,44743,30.7175366,31.5611111
4,شارع الطوخي,44743,30.7183696,31.5635540
5,شارع 7,44743,30.7163172,31.5578614
7,شارع ابو المعاطى الهواري,44743,30.7174033,31.5612236
8,شارع مليجي البرماوي,44743,30.7167483,31.5590234
52,شارع محمد ابراهيم,44743,30.7155886,31.5674463
10,شارع السكة الجديدة,44743,30.7192222,31.5642060
5,شارع الطنبولي,44743,30.7170184,31.5594687
71,شارع 7,44743,30.7166636,31.5642347
17,شارع السيد العربى البنا,44743,30.7176547,31.5624037
8,شارع حافظ ابراهيم,44743,30.7169542,31.5592363
45,شارع المأمون,44743,30.7176244,31.5631655
3,شارع بنك التسليف,44743,30.7175348,31.5658933
4,شارع الزعفراني,44743,30.7170471,31.5617157
7,شارع كراكوس,44743,30.7179405,31.5655621
2,شارع البنك القديم,44743,30.7137726,31.5675895
39,شارع ابو دقن,44743,30.7171543,31.5615642
2,شارع مليجي البرماوي,44743,30.7167058,31.5593299
29,شارع السيد العربى البنا,44743,30.7173803,31.5625083
1,شارع ابو يوسف,44743,30.7170978,31.5621529
5,شارع هدهد,44743,30.7177181,31.5607461
6R,شارع الجزارين,44743,30.7187713,31.5634076
12,شارع ابو يوسف,44743,30.7171956,31.5625193
8,شارع البنك القديم,44743,30.7142010,31.5674475
29,شارع الزعفراني,44743,30.7181562,31.5661199
31,شارع السيد العربى البنا,44743,30.7174503,31.5625264
3,شارع الفيومي,44743,30.7183991,31.5639064
7,شارع الزعفراني,44743,30.7174456,31.5656450
31,شارع السكة الجديدة,44743,30.7188355,31.5642708
7,شارع السكة الجديدة,44743,30.7175827,31.5651343
67,شارع المأمون,44743,30.7175278,31.5640077
1,شارع مسجد السلام,44743,30.7161824,31.5630005
8,شارع محمد ابراهيم,44743,30.7155240,31.5675187
1,شارع الحرية,44743,30.7187142,31.5648767
6,شارع احمد كامل,44743,30.7149783,31.5667685
21,شارع السيد العربى البنا,44743,30.7174993,31.5623694
19,شارع السيد العربى البنا,44743,30.7175737,31.5623858
5,شارع حافظ ابراهيم,44743,30.7170627,31.5593003
14,شارع الفيومي,44743,30.7179172,31.5639763
25,شارع السكة الجديدة,44743,30.7183660,31.5645160
14,حارة الاحرار,44743,30.7173068,31.5629931
35,شارع السيد العربى البنا,44743,30.7176010,31.5625652
10,شارع الزعفراني,44743,30.7176275,31.5655811
33,شارع السيد العربى البنا,44743,30.7175097,31.5625417
2,شارع ابو يوسف,44743,30.7172557,31.5621261
2,شارع عاشور,44743,30.7181354,31.5652388
6,شارع ابو يوسف,44743,30.7172301,31.5622940
71,شارع ابو هاشم,44743,30.7185540,31.5645616
3,شارع المأمون,44743,30.7177596,31.5634753
10,شارع الجزارين,44743,30.7179765,31.5632653
13,شارع ابو دقن,44743,30.7171485,31.5617211
8,شارع ابو يوسف,44743,30.7172183,31.5623710
16,شارع ابو يوسف,44743,30.7171730,31.5626675
6,شارع 10,44743,30.7176700,31.5591226
18,شارع ابو يوسف,44743,30.7171611,31.5627448
7,شارع 7,44743,30.7162180,31.5578632
20,شارع ابو يوسف,44743,30.7171520,31.5628047
15,شارع السكة الجديدة,44743,30.7178327,31.5649622
14,شارع حسن عزيز,44743,30.7163668,31.5634739
5,شارع 10,44743,30.7177089,31.5589987
37,شارع السكة الجديدة,44743,30.7190507,31.5641928
8,شارع حلمي بليغ,44743,30.7183026,31.5628865
15,شارع المأمون,44743,30.7177550,31.5624212
6,حارة النبوى,44743,30.7173459,31.5613266
6,شارع مليجي البرماوي,44743,30.7167387,31.5590929
59,شارع المأمون,44743,30.7175633,31.5638323
19,شارع فؤاد صديق,44743,30.7173411,31.5641257
1,شارع مصيلحى المأذون,44743,30.7179053,31.5638223
6,شارع 7,44743,30.7162808,31.5577239
1,شارع عماد محمد,44743,30.7182185,31.5650283
28,شارع عبد العزيز على,44743,30.7163769,31.5615895
3,شارع 1,44743,30.7167208,31.5585762
63,شارع حسن عزيز,44743,30.7166827,31.5637556
7,شارع فؤاد صديق,44743,30.7172708,31.5634646
15,شارع رشاد,44743,30.7176086,31.5619343
11,شارع الزعفراني,44743,30.7175721,31.5657296
47,شارع المأمون,44743,30.7176184,31.5632309
16,شارع بدير,44743,30.7172096,31.5587234
45,شارع احمد عرابى,44743,30.7190924,31.5636443
4,شارع رشيدة,44743,30.7177528,31.5642026
1,شارع الطنبولي,44743,30.7162504,31.5592521
3,شارع الزعفراني,44743,30.7173092,31.5655539
22,شارع ابو هاشم,44743,30.7183833,31.5648097
1,شارع الزعفراني,44743,30.7172511,31.5655151
9,شارع البهنساوى,44743,30.7162123,31.5649867
16R,شارع المجلس القديم,44743,30.7186727,31.5637931
12,شارع 7,44743,30.7160336,31.5577367
17,شارع السكة الجديدة,44743,30.7178731,31.5649344
23,شارع الزعفراني,44743,30.7168476,31.5617466
14,شارع مليجي البرماوي,44743,30.7168338,31.5584072
3,شارع المكنه,44743,30.7176397,31.5594654
2,شارع الزعفراني,44743,30.7172707,31.5651738
6,شارع الطوخي,44743,30.7184640,31.5635571
8,حارة النبوى,44743,30.7174596,31.5613351
10,شارع العنتبلي,44743,30.7176132,31.5582021
12,شارع الغندور,44743,30.7177677,31.5584019
4,شارع البواب,44743,30.7171285,31.5661249
6,شارع رشيدة,44743,30.7178422,31.5641939
5,شارع البهنساوى,44743,30.7160276,31.5652213
5,شارع السكة الجديدة,44743,30.7175041,31.5651884
4,شارع الفيومي,44743,30.7180328,31.5640828
3,شارع البهنساوى,44743,30.7159737,31.5652898
12,شارع الجزارين,44743,30.7184825,31.5634122
1,شارع البهنساوى,44743,30.7159114,31.5653689
30,شارع الحرية,44743,30.7177603,31.5651680
3,شارع المقابر القديم,44743,30.7184831,31.5638186
18,شارع الزعفراني,44743,30.7178322,31.5657002
8,شارع 7,44743,30.7161989,31.5577281
37,شارع منشيه عزيز,44743,30.7162458,31.5620913
8,حارة الاحرار,44743,30.7169583,31.5628919
8,شارع الجزارين,44743,30.7179096,31.5632673
9,شارع البنك القديم,44743,30.7142706,31.5674244
16,شارع الجزارين,44743,30.7180629,31.5632628
2,شارع رشيدة,44743,30.7177078,31.5642010
12,شارع البهنساوى,44743,30.7160960,31.5649169
126,شارع الحرية,44743,30.7170159,31.5653890
13,شارع المكنه,44743,30.7177139,31.5594817
5,شارع مسجد الباز,44743,30.7165993,31.5588848
13,شارع بنك التسليف,44743,30.7176258,31.5661910
27,شارع عبد العزيز على,44743,30.7165144,31.5614341
7,شارع الفيومي,44743,30.7181954,31.5639380
17,شارع عبد السميع الصراف,44743,30.7167842,31.5626840
1,شارع السكة الجديدة,44743,30.7173295,31.5653086
21,شارع محمود عطوان,44743,30.7176466,31.5659199
9,شارع عبد السميع الصراف,44743,30.7164097,31.5626749
13,شارع عبد السميع الصراف,44743,30.7165850,31.5626791
9,شارع السيد حسن,44743,30.7176028,31.5579285
15,شارع عبد السميع الصراف,44743,30.7166988,31.5626819
3,شارع كراكوس,44743,30.7177707,31.5654285
1,شارع مسجد الباز,44743,30.7165721,31.5591395
8,شارع الزعفراني,44743,30.7170263,31.5618820
5,شارع رشيدة,44743,30.7178230,31.5644945
20,شارع الجزارين,44743,30.7182680,31.5632567
11,شارع عبد السميع الصراف,44743,30.7165041,31.5626772
22,شارع المجلس القديم,44743,30.7189125,31.5635236
15,شارع الزعفراني,44743,30.7176990,31.5658144
30,شارع عبد العزيز على,44743,30.7163916,31.5614828
13,شارع فؤاد صديق,44743,30.7173814,31.5636510
1,شارع بنك التسليف,44743,30.7176120,31.5659925
16,شارع عبد السميع الصراف,44743,30.7166401,31.5628433
13,شارع حلمي بليغ,44743,30.7184410,31.5630609
8,شارع 10,44743,30.7175935,31.5591081
7,شارع مليجي البرماوي,44743,30.7169145,31.5588324
7,شارع 1,44743,30.7177331,31.5587667
26,شارع الحرية,44743,30.7178841,31.5651181
4,شارع عاشور,44743,30.7181793,31.5654346
12,شارع عبد السميع الصراف,44743,30.7164959,31.5628412
6,شارع عبد السميع الصراف,44743,30.7161973,31.5628369
14,شارع عبد السميع الصراف,44743,30.7165767,31.5628424
5,شارع حلمي بليغ,44743,30.7180708,31.5630570
7,شارع حلمي بليغ,44743,30.7181250,31.5630576
28,شارع الحرية,44743,30.7178292,31.5651402
9,شارع الزعفراني,44743,30.7175026,31.5656831
11,شارع حلمي بليغ,44743,30.7182946,31.5630593
9,شارع حلمي بليغ,44743,30.7182035,31.5630584
15,شارع بنك التسليف,44743,30.7177181,31.5662675
1,شارع حلمي بليغ,44743,30.7179291,31.5630555
9,شارع احمد عرابى,44743,30.7179567,31.5579540
10,شارع منشيه عزيز,44743,30.7161424,31.5619421
1,شارع فؤاد صديق,44743,30.7172973,31.5631185
1,شارع الحاج صبرى,44743,30.7179216,31.5648660
29,شارع السكة الجديدة,44743,30.7187015,31.5643296
10,شارع عبد السميع الصراف,44743,30.7163874,31.5628397
10,شارع ابو يوسف,44743,30.7172047,31.5624603
7,حارة النبوى,44743,30.7173227,31.5614395
18,حارة الاحرار,44743,30.7175512,31.5630640
2,شارع الشيخ عبد القادر,44743,30.7162573,31.5631910
27,شارع الزعفراني,44743,30.7180851,31.5660724
7,شارع 21,44743,30.7146927,31.5668703
9,شارع 1,44743,30.7176155,31.5587345
26,شارع عبد العزيز على,44743,30.7163521,31.5617702
4,شارع منشيه عزيز,44743,30.7161844,31.5616333
18,شارع فؤاد صديق,44743,30.7172373,31.5637891
6,شارع منشيه عزيز,44743,30.7161711,31.5617312
7,شارع المأمون,44743,30.7177932,31.5621347
1,شارع بدير,44743,30.7172292,31.5594761
3,شارع السكة الجديدة,44743,30.7174207,31.5652458
11,شارع مصيلحى المأذون,44743,30.7179625,31.5645629
2,شارع ابو دقن,44743,30.7174863,31.5617681
65,شارع المأمون,44743,30.7174564,31.5640064
11,شارع العواصفى,44743,30.7179763,31.5623474
9,شارع العواصفى,44743,30.7180409,31.5623528
2,شارع مسجد التقوي,44743,30.7167715,31.5652361
7,شارع البنك القديم,44743,30.7141066,31.5674788
5,شارع مصيلحى المأذون,44743,30.7179414,31.5642891
2,شارع حلمي بليغ,44743,30.7180697,31.5628798
4,شارع العنتبلي,44743,30.7178887,31.5581551
9,شارع رشيدة,44743,30.7178069,31.5643162
1,شارع الفيومي,44743,30.7184375,31.5639004
28,شارع بنك التسليف,44743,30.7179544,31.5662661
67,شارع مسجد التقوي,44743,30.7164464,31.5647694
3,شارع البنك القديم,44743,30.7138306,31.5675703
1,شارع مسجد التقوي,44743,30.7170182,31.5651476
9,شارع فؤاد صديق,44743,30.7172615,31.5635852
9,شارع حسن الغريب,44743,30.7175451,31.5610144
22,شارع بنك التسليف,44743,30.7177722,31.5661205
4,شارع المأمون,44743,30.7178403,31.5632044
2,شارع المأمون,44743,30.7177965,31.5631320
19,شارع الزعفراني,44743,30.7177853,31.5658721
16,حارة الاحرار,44743,30.7174617,31.5630380
4,شارع رشاد,44743,30.7166067,31.5621881
13,شارع عماد محمد,44743,30.7181608,31.5648311
8,شارع 6,44743,30.7230088,31.5605906
7,شارع عزبة القصر,44743,30.7228601,31.5608320
23,شارع عزبة القصر,44743,30.7236152,31.5612423
26,شارع حسين على,44743,30.7233397,31.5596330
30,شارع 10,44743,30.7238665,31.5587211
13,شارع 23,44743,30.7209036,31.5635343
18,شارع الزعفراني,44743,30.7167646,31.5601373
19,شارع عزبة القصر,44743,30.7234499,31.5611983
15,شارع احمد عبد الباسط,44743,30.7200769,31.5633928
2,شارع الحرية,44743,30.7199859,31.5646957
17,شارع عزبة القصر,44743,30.7233952,31.5611837
5,شارع رجب العرنوس,44743,30.7171121,31.5599889
14,شارع احمد عبد الباسط,44743,30.7200816,31.5634827
5,شارع 25,44743,30.7212596,31.5639407
3,شارع 25,44743,30.7212629,31.5637784
1,شارع 25,44743,30.7212656,31.5636469
28,شارع حسين على,44743,30.7233454,31.5597416
15,شارع الطنبولي,44743,30.7173780,31.5598154
11,شارع طه عابدين,44743,30.7232555,31.5601681
35,شارع حسين على,44743,30.7231759,31.5598463
14,شارع 6,44743,30.7173895,31.5600045
22,شارع عزبة القصر,44743,30.7237282,31.5610734
32,طريق ديرب نجم,44743,30.7182104,31.5555561
8,شارع الشوادر,44743,30.7209958,31.5628785
10L,شارع المستشفى,44743,30.7218421,31.5637073
21,شارع عزبة القصر,44743,30.7235304,31.5612197
22`,شارع الشوادر,44743,30.7203214,31.5627792
37,شارع حسين على,44743,30.7231898,31.5596357
16,شارع مسجد الفتح,44743,30.7169375,31.5597725
2,حارة ابو سليم,44743,30.7204125,31.5630180
2,شارع رجب العرنوس,44743,30.7170878,31.5601281
23,شارع الشوادر,44743,30.7201519,31.5629643
1,حارة ابو سليم,44743,30.7202856,31.5629509
12,شارع الزعفراني,44743,30.7165363,31.5598462
10R,شارع المستشفى,44743,30.7215458,31.5641834
1,شارع احمد محمد على,44743,30.7206315,31.5630944
8,شارع المستشفى,44743,30.7215584,31.5640976
10,شارع محمد عبد الله,44743,30.7235264,31.5602593
2,شارع احمد محمد على,44743,30.7206453,31.5635236
14,شارع مسجد الفتح,44743,30.7169306,31.5598342
9,حارة ابو سليم,44743,30.7203193,31.5632461
2,شارع السنترال القديم,44743,30.7199585,31.5645527
3,حارة ابو سليم,44743,30.7202967,31.5630482
7,حارة ابو سليم,44743,30.7203116,31.5631784
5,حارة ابو سليم,44743,30.7203061,31.5631300
11,حارة ابو سليم,44743,30.7203257,31.5633019
6,حارة ابو سليم,44743,30.7204263,31.5631816
2,شارع احمد عبد الباسط,44743,30.7199715,31.5633217
21,شارع الطنبولي,44743,30.7175417,31.5598610
9,شارع مسجد ابو سعده,44743,30.7206696,31.5631977
3,شارع الدمسيس,44743,30.7236821,31.5586352
4,حارة ابو سليم,44743,30.7204184,31.5630887
6`,شارع الجامع المغربي الكبير,44674,30.7413977,31.5942657
6,شارع الجامع المغربي الكبير,44674,30.7421740,31.5941698
14,شارع جامع النصر,44674,30.7428593,31.5958804
16,شارع مركز شباب الحبش,44674,30.7405862,31.5686660
10,شارع مسجد المشاكلة,44674,30.7414415,31.5713435
4,شارع 9,44743,30.7324100,31.5599830
4,شارع بحر أم الريش الجديد 1,44743,30.7002356,31.5746105
20,شارع الحرية,44743,30.7126035,31.5667824
5,شارع بحر ام الريس الجديد,44743,30.7118275,31.5739265
14,شارع بحر ام الريس الجديد 1,44743,30.7100865,31.5764531
6,شارع بحر ام الريس الجديد 1,44743,30.7116719,31.5734518
28,شارع جامع السلمونى,44743,30.7163310,31.5457915
26,شارع جامع السلمونى,44743,30.7163125,31.5456936
24,شارع جامع السلمونى,44743,30.7162944,31.5456063
22,شارع جامع السلمونى,44743,30.7162769,31.5455273
20,شارع جامع السلمونى,44743,30.7161189,31.5452537
25,شارع جامع السلمونى,44743,30.7159610,31.5453221
17,شارع جامع السلمونى,44743,30.7157275,31.5447635
15,شارع جامع السلمونى,44743,30.7157246,31.5446965
13,شارع جامع السلمونى,44743,30.7157350,31.5446301
7,شارع جامع السلمونى,44743,30.7157292,31.5443324
6,شارع 5,44743,30.7366861,31.5568972
12,شارع 5,44743,30.7368682,31.5568355
4,شارع احمد حسين,44743,30.7209762,31.5587787
5,شارع الشوادر,44743,30.7193495,31.5629804
2,شارع السكة الجديدة,44743,30.7202741,31.5636992
29,شارع احمد عرابى,44743,30.7189621,31.5614663
27,شارع احمد عرابى,44743,30.7189713,31.5613577
1R,شارع الصرف الصحي,44743,30.7202476,31.5655339
6,شارع 3,44743,30.7178276,31.5674825
4,شارع أكتوبر,44826,30.7067219,31.5587975
25,شارع السلام,44826,30.7051398,31.5548681
1,شارع أكتوبر,44826,30.7068902,31.5588096
4,شارع مسجد ابو تقي,44826,30.7060392,31.5591381
21,شارع مسجد ابو تقي,44826,30.7059055,31.5592454
13,شارع مسجد ابو تقي,44826,30.7056097,31.5595391
8,شارع عزبة ابو جلال,44743,30.7073145,31.5408857
16,شارع عزبة ابو جلال,44743,30.7069675,31.5407878
2,شارع عزبة ابو موسى العجوز,44743,30.7138118,31.5395768
1,شارع عزبة ابو موسى العجوز,44743,30.7140044,31.5395915
9,شارع عزبة ابو النصر,44743,30.7158030,31.5357667
5,شارع عزبة حسنه,44776,30.7279003,31.5446864
4,شارع بحر مشتول,44776,30.7305287,31.5290853
6,"طريق ههيا, ديرب نجم",44776,30.7298359,31.5295708
20,شارع الجمهوريه,44743,30.7210334,31.5634137
