House number,Street name,Postal code,Latitude,Longitude
20,P.B. Sudirman,80210,-8.6694066,115.2176394
11,Hang Tuah,80115,-8.6742695,115.2591865
405E,Jalan Bypass Ngurah Rai,80221,-8.7045427,115.2500825
Nomor 228,Danau Tamblingan,80228,-8.7047581,115.2607073
75,Danau Tamblingan,80228,-8.6956183,115.2637998
49,Danau Tamblingan,80361,-8.6917654,115.2646481
8,Sunset Road,80361,-8.7179082,115.1852708
No. 99,Jalan Sunset Road,80361,-8.7092512,115.1846513
206,Jalan Gunung Agung,80117,-8.6508114,115.1892342
79,Jalan Bypass Ngurah Rai,80227,-8.6769004,115.2592794
29,Jalan Gunung Soputan,80119,-8.6870050,115.1867265
No. 43,"Jalan Bedugul Sidakarya, Denpasar - Bali",80224,-8.6956026,115.2269322
"1,2,3 & 4",Jalan Pelabuhan Benoa,80223,-8.7463590,115.2112570
80-88,Jalan Tukad Badung XXV,80226,-8.6967048,115.2409281
211X,Jl Tukad Badung,80226,-8.6948235,115.2384834
No 1,Gang Taman IV,80115,-8.6161939,115.2255035
35 D,Jalan Raya Buluh Indah,80118,-8.6479365,115.1952398
108,Danau Poso,80228,-8.7053237,115.2600517
25,Danau Tamblingan,80228,-8.6862504,115.2626219
No. 47,Jalan Danau Tamblingan,80228,-8.6902390,115.2637581
23,Jalan Bumi Ayu,80228,-8.6907518,115.2620898
Nomor 4G,Dewi Sartika,80114,-8.6699369,115.2173492
10,Jalan Teuku Umar,80114,-8.6691570,115.2131316
8,Jalan Teuku Umar,80114,-8.6692180,115.2133891
1,Jalan Pulau Bali,80114,-8.6758607,115.2137130
175,Jalan Teuku Umar,80114,-8.6787255,115.2052195
Blok A No. 8 A,Jalan Teuku Umar,80113,-8.6688732,115.2131561
4-5,Jalan Teuku Umar,80113,-8.6692254,115.2148690
246,Jalan Teuku Umar,80114,-8.6811517,115.1986509
263,Jalan Teuku Umar,80113,-8.6815645,115.1989022
Nomor 35x,Jalan Teuku Umar,80231,-8.6708287,115.2099017
382 C,Jalan Imam Bonjol,80361,-8.6910122,115.1895189
25,Jalan Drupadi,80235,-8.6624928,115.2322470
No.1,"Jalan Bali Jeep Street, Padangsambian",80117,-8.6651918,115.1829284
12,Jalan Danau Tamblingan Gang Penjor Nomer,80228,-8.6949101,115.2617370
78,Jalan Gunung Salak,80117,-8.6680102,115.1793565
18,Jalan Pulau Ayu,80113,-8.6821628,115.2027894
270,Jalan Imam Bonjol,80113,-8.6820618,115.1966734
22,Jalan Bypass Gatot Subroto,80113,-8.6363229,115.2170999
136A,Danau Tamblingan,80228,-8.6952929,115.2635283
206,Jalan Gunung Agung,80117,-8.6508667,115.1892354
28,Jl. Pura Mertasari,80361,-8.7080274,115.1866993
333,Jalan Blanjong,80228,-8.7063201,115.2547612
315,Pulau Gunung,80361,-8.6943847,115.1917352
119A,Jalan Raya Sesetan,80223,-8.6861876,115.2164755
No. 32,Jln. Pura Demak,80119,-8.6787784,115.1930628
Perum Lembah Pujian A1,Jalan Antasura,80115,-8.6169763,115.2247107
No. 77,Jl. Nakula,80361,-8.6996701,115.1809453
No. 241,Jl. Raya Sesetan,80223,-8.7108707,115.2207989
21,Jl. Pemuda III,80226,-8.6751459,115.2404010
Nomor 23,Jalan Badak Agung,80231,-8.6613021,115.2302560
111,Jalan Gunung Atena 24,80361,-8.6851858,115.1775477
5E,Merta Sari,80221,-8.7097650,115.2321069
Nomor 14,Jalan Pulau Supiori,80119,-8.6858153,115.1959288
Nomor 333C,Jalan Tukad Balian,80226,-8.7050760,115.2392789
No. 2-3,Gang Sesapi,80113,-8.6706514,115.2108849
68,Pulau Nusakambangan,80113,-8.6652419,115.2116999
Nomor 3,D.I. Panjaitan,80235,-8.6718953,115.2308770
No. 7,"Jl. Pulau Galang,Griya Dadi",80113,-8.6945994,115.1915366
57,Jl. Sunset Road,80362,-8.7101665,115.1853756
72,Jalan Bypass Ngurah Rai,80237,-8.6470147,115.2549073
491,Jalan Bypass Ngurah Rai,80222,-8.7174623,115.2176090
No.24;24A,Jalan Pura Demak Barat,80119,-8.6804175,115.1913387
No. 9,Jl. Nakula,80361,-8.6994527,115.1795234
Nomor 6,Jalan Tandakan,80228,-8.6843787,115.2597647
888,Jl. By Pass Ngurah Rai,80228,-8.7079010,115.2418908
115,Jalan By Pass Ngurah Rai,80228,-8.6832091,115.2593199
191,Jl. By Pass Ngurah Rai,80228,-8.6915241,115.2589612
10,Gang Kertapura VIII,80112,-8.6823733,115.1946712
Nomor 7C,Jalan Nakula Timur,80119,-8.7000386,115.1839794
88,Jl. Pura Demak IV,80119,-8.6791214,115.1918321
AA19,Imam Bonjol Square,80361,-8.7003914,115.1861323
Nomor 2,Jl. Besakih â€“ Pondok Citra Residence II,80716,-8.7159987,115.1993711
287,Jalan Raya Puputan,80226,-8.6733475,115.2339389
No.145,Jl. Cokroaminoto,80116,-8.6325797,115.2059970
102,Jalan Pendidikan,80361,-8.7103553,115.2286611
88,Jalan Nakula,80361,-8.6996413,115.1826410
Nomor 160 A,Jalan Nusakambangan,80113,-8.6701617,115.2079876
No.50,Jl. Tukad Barito,80114,-8.6843036,115.2312620
No.11,Gg. Soputan Permai,80119,-8.6831861,115.1885277
386,Jl. Imam Bonjol,80117,-8.6867659,115.1933151
Nomor 88 Kav. 3,Sunset Road,80361,-8.7029192,115.1807658
Nomor 88,"Jalan Gelogor Carik, Gg Tiger",80221,-8.6995662,115.1919730
41,Jl. Iman Bonjol,80119,-8.6605376,115.2091165
12,Jl. Sekuta,80228,-8.6869738,115.2565279
88,Jalan Gunung Soputan,80361,-8.6868473,115.1848465
40,Jalan Pulau Kawe,80361,-8.6802731,115.2066843
No.74,Jl. Danau Buyan,80228,-8.6823581,115.2601649
1A,"Jalan Gelogor Carik, Gang Salya Family",80221,-8.7008980,115.1913032
Gang VI,Jalan Pedungan,80222,-8.7104402,115.2140380
8,Jl. Tukad Batanghari XII,80226,-8.6851972,115.2297465
3,Jl. Dukuh Sari,80223,-8.6951218,115.2182586
Nomor 6,Letda Tantular,80226,-8.6689290,115.2214922
162,Jl. Nusa Kambangan,80113,-8.6704727,115.2079811
Nomor 27,Jalan Teuku Umar,80361,-8.6699492,115.2105206
25,Jalan Purademak II,80119,-8.6790950,115.1919797
Nomor 35,Jalan Bypass Ngurah Rai,80227,-8.7137456,115.2238483
No. 88,"Jalan Nakula Timur, Gg. Marga Ayu",80361,-8.7003094,115.1811309
2X,Jalan Kepaon Indah swung,80221,-8.7095580,115.1997724
200,"Jalan Raya Sesetan (100 meter selatan I/A/L/F),",80223,-8.6976004,115.2189871
No.23,Jl. Sunset Road,80361,-8.7076044,115.1840232
Nomor 8 Blok A-15,Jalan Teuku Umar,80113,-8.6692713,115.2132130
Nomor 21 X,Jalan Gurita 1,80223,-8.7037940,115.2167420
No.101,Jl. Sunset Road,80361,-8.7082751,115.1845744
No.99A,Jl. Danau Tamblingan,80228,-8.6915738,115.2636508
Nomor 28,Jalan Marlboro XVII,80119,-8.6781238,115.1941597
324,Jl. Pulau Galang,80221,-8.6935642,115.1935198
Nomor 3X,Jalan Palapa XI,80223,-8.7046488,115.2240106
No. 382,Jl. Cokroaminoto,80116,-8.6202554,115.1976352
3,Jalan Tukad Baru,80228,-8.6932422,115.1962538
45X,Jl. Bypass Ngurah Rai,80361,-8.7175505,115.2054616
46,Jalan Trengulli,80238,-8.6301478,115.2412963
25,Pulau Misol,80113,-8.6760902,115.2031304
Nomor 9,Jl sekar tunjung IX,80235,-8.6390770,115.2503680
Nomor 9,Jl. Tegal Dukuh Sel,80226,-8.7032900,115.2408377
9,Jl. Dangin Uma,80221,-8.6993047,115.1985193
11,Jl. Tukad Badung VI,80226,-8.6805869,115.2391659
No.1,Jalan Tukad Barito Timur I,80114,-8.6841543,115.2312006
No.54,Jl. Drupadi,80226,-8.6622298,115.2331573
45,Jl. Hang Tuah,80361,-8.6736380,115.2629981
51,Jl. Danau Tamblingan,80228,-8.6919553,115.2645240
555J,Jalan Imam Bonjol,80361,-8.6992653,115.1854797
5,Jl. Merdeka VI,80361,-8.6653854,115.2375975
99,Jl. Astasura VI,80115,-8.6112058,115.2202304
306C,Jalan Bypass Gatot Subroto,80239,-8.6355758,115.2197253
1,Jalan Kusumasari,80227,-8.7055070,115.2608971
8,Jalan Sudamala,Sanur,-8.7062540,115.2560834
No. 123,Tukad Punggawa,Serangan Island 80229,-8.7214581,115.2365307
38A-B,Jalan Teuku Umar Barat,80112,-8.6818756,115.1935932
168B,Jalan Teuku Umar Barat,80119,-8.6814531,115.1918216
88,Jalan Teuku Umar Barat,80119,-8.6812842,115.1905897
No.33,Jl. Cemara,80227,-8.7077920,115.2580772
33B,Jalan Pulau Kawe,80114,-8.6791699,115.2071243
505X,Jalan By Pass Ngurah Rai,80221,-8.7216974,115.1914124
No.4,Jl. Ciungwanara II,80234,-8.6745661,115.2340266
No.60,Jl. Gatot Subroto Barat,80239,-8.6358742,115.2206065
77,Jalan Thamrin,80231,-8.6557220,115.2102083
37,Jalan Bedugul,80224,-8.6969632,115.2269489
7,Jl. Sunset Road,80361,-8.7025424,115.1803392
136,Jalan Diponegoro,80114,-8.6667264,115.2154000
9,Sunset Road,80361,-8.7072045,115.1836398
54,Jalan Gunung Batukaru,80112,-8.6600504,115.1994636
11,Jalan Kesuma Sari,80228,-8.7069186,115.2626354
84xx,Jalan Mahendradatta Utara,80116,-8.6332289,115.1981439
6,Jalan Bumi Ayu,80228,-8.6899569,115.2625855
101,Sunset Road,80361,-8.7088950,115.1844838
10,Jl.Pulau Galang 1,80113,-8.6920092,115.1940514
14,Jalan Pulau Saelus,80114,-8.6846239,115.2142299
142,Jalan Diponegoro,80361,-8.6674289,115.2154238
104,Tukad Balian,80227,-8.6807821,115.2420442
18,Jalan Gunung Soputan IA,80361,-8.6853925,115.1890419
18D,Jalan Nakula,80361,-8.6994859,115.1798355
23,Sunset Road,80361,-8.7076025,115.1837604
24,P.B. Sudirman,80232,-8.6616957,115.2183903
25,Hang Tuah,80227,-8.6742393,115.2600943
27,Jalan Pura Mertasari,80361,-8.7078265,115.1866679
270,Jalan Bypass Ngurah Rai,80228,-8.6837696,115.2589616
29,Jalan Pura Mertasari,80361,-8.7079516,115.1867564
3,D.I. Panjaitan,80234,-8.6716138,115.2306440
52,Pulau Gunung,80361,-8.6944826,115.1916835
139,Sunset Road,80361,-8.7082553,115.1843176
163,Jl. Tukad Balian,80227,-8.6941664,115.2424549
164,Pulau Nusakambangan,80113,-8.6708342,115.2078361
200,Jalan Teuku Umar,80113,-8.6802541,115.2030306
47,Jalan Gunung Rinjani,80361,-8.6622401,115.1987520
5,Jl. P.B. Sudirman,80234,-8.6727620,115.2178362
54,Jalan Pattimura,80234,-8.6491737,115.2200286
6,Jalan Nakula,80231,-8.6513052,115.2142963
65,Jalan Tukad Yeh Aya IX,80226,-8.6848830,115.2407966
2,Jalan Piranha 2,80223,-8.7028113,115.2163869
86,Hang Tuah,80361,-8.6739485,115.2623297
8A,Jalan Kerta Dalem,80224,-8.6978844,115.2332966
337,Jalan Teuku Umar Barat,80114,-8.6810555,115.1883856
260,Jalan Bypass Ngurah Rai,80228,-8.6830897,115.2589773
20,Jl. Gelogor Carik I,80221,-8.6980041,115.1906055
8X,Jalan Kepuh Segina,80119,-8.6842035,115.1903769
15,Jalan Danau Buyan IV,80227,-8.6793320,115.2570492
139,Jalan Teuku Umar,80119,-8.6808674,115.2029171
99X,Tukad Pakerisan,80224,-8.6899482,115.2263960
626,Jalan Raya Sesetan,80223,-8.7108847,115.2187273
57,Jalan Pura Demak IV,80119,-8.6780233,115.1920309
379,Jalan Teuku Umar Barat,80117,-8.6741856,115.1834575
8,Jalan Drupadi,80234,-8.6608119,115.2338077
28,Jl. Pengembak,80228,-8.7063864,115.2501687
64,Jalan Waturenggong,80113,-8.6778145,115.2186223
1,Pulau Serangan,80113,-8.6777332,115.2122685
9,Ruko Anugrah Jalan By Pass Ngurah Rai,80361,-8.7014083,115.2585381
10,Jalan Teuku Umar,80114,-8.6692456,115.2128495
18,Jalan Merdeka X,80239,-8.6651863,115.2392937
109,"JL. Diponegoro,",80223,-8.6883266,115.2169037
6,Pulau Belitung,80222,-8.6913958,115.2068536
73,Jalan Nakula Timur,80361,-8.6993837,115.1793006
1,"Gang Tegal Bintang,Jalan Gunung Tangkuban Perahu",80361,-8.6680558,115.1817267
63,Tukad Pakerisan,80225,-8.6811848,115.2258251
99,Jalan Waribang,80361,-8.6508700,115.2503865
41,Jalan Bypass Ngurah Rai,80221,-8.7174915,115.2172800
97,Jalan Gunung Tangkuban Perahu,80117,-8.6633139,115.1804678
150,Jalan Diponegoro,80114,-8.6703403,115.2143406
1,Perumahan Budha Cemeng Ukir,80119,-8.6970409,115.1865949
7,Jalan Mahendradatta Selatan,80119,-8.6867079,115.1863283
4,Jalan Pura Demak,80119,-8.6764162,115.1926513
260,Jalan Raya Sesetan,80223,-8.7034939,115.2195978
1B,Jl. Tirta Akasa,80228,-8.7004361,115.2549532
35,Bukit Tunggal,80119,-8.6622632,115.2111113
6,Jalan Teuku Umar,80113,-8.6692796,115.2137756
31,Jalan Tukad Barito,80582,-8.6842953,115.2294407
125,Jalan Pulau Bungin,80221,-8.6903067,115.2012723
44,Jalan Gunung Kalimutu Gang IX,80113,-8.6713915,115.1981960
50,Jalan Bypass Ngurah Rai,80228,-8.6946036,115.2614725
14,Jl. Gunung Lumut,80117,-8.6803162,115.1842652
6,Jalan WR Supratman,80236,-8.6477301,115.2356527
28,Gang Segina IIIB,80119,-8.6835345,115.1903382
11,Jalan Gunung Soputan III,80117,-8.6856138,115.1896025
22,Jl. Pulau Rembulan,80114,-8.6782566,115.2081851
49,Jl. Pulau Rembulan,80114,-8.6796546,115.2081172
17,Jl. Pulau Serangan I,80114,-8.6798980,115.2122311
27,Jalan Tukad Badung X,80226,-8.6850874,115.2362967
67,Jl Pulau Sula,80114,-8.6806982,115.2102862
17,Jalan Bedugul,80224,-8.6984934,115.2261475
66,Jalan Bypass Ngurah Rai,80228,-8.6935744,115.2598083
188,Jalan Raya Pemogan,80113,-8.6937615,115.1978167
69,Jalan Thamrin,10350,-8.6562476,115.2101018
338,Jalan Teuku Umar Barat,80117,-8.6743407,115.1838147
212,Jalan Raya Pemogan,80113,-8.6931861,115.1979010
350,Jalan Imam Bonjol,80361,-8.6904184,115.1901868
5,Jalan Raya Sesetan,80113,-8.6779353,115.2153216
88,Jalan Bypass Ngurah Rai,80237,-8.6423302,115.2563041
31,Jalan Sekar Tunjung,80237,-8.6390103,115.2496326
110,Jl Sekuta,80228,-8.6935981,115.2558935
2,Jalan Serma Mendra,80234,-8.6735735,115.2173246
3,Jalan Serma Mendra,80234,-8.6735747,115.2173925
18,Jalan Tukad Badung,80227,-8.6943582,115.2395632
12,Tukad Balian,80227,-8.6899393,115.2422717
39,Tukad Balian,80227,-8.6901614,115.2422933
6,Jalan Tukad Batanghari VA,80234,-8.6808113,115.2310371
10,Jalan Tukad Batanghari VII,80234,-8.6818370,115.2317835
9,Jalan Tukad Ciliwung,80234,-8.6822268,115.2329504
98,Jalan Tukad Yeh Aya,80234,-8.6777160,115.2336347
8,Jl. Tunggak Bingin,80228,-8.6965036,115.2530788
44,Jalan Bypass Ngurah Rai,80228,-8.6858651,115.2586717
3,D.I. Panjaitan,80235,-8.6715267,115.2303634
8,Jl. Kusuma Sari,80227,-8.7059435,115.2624705
2,Jalan Marlboro Gg.21,80119,-8.6773115,115.1959082
102,Jalan Imam Bonjol,80112,-8.6673851,115.2059545
78,Jalan Kartini,80231,-8.6540525,115.2134428
40,Pulau Ambon,80114,-8.6714220,115.2131523
35,Jalan Bypass Ngurah Rai,80227,-8.6740269,115.2609545
27,Gang Ratna Sari,80113,-8.6952395,115.1945239
82,Jalan Tukad Batanghari,80225,-8.6849805,115.2302283
8,Jalan Kepuh Segina,80119,-8.6841618,115.1900742
18,Jalan Gunung Soputan I,80119,-8.6850179,115.1893500
18,Jalan Gunung Soputan I,80119,-8.6850736,115.1895633
7,Waturenggong Gang 17,80234,-8.6774288,115.2239768
156,Raya Puputan,80234,-8.6735489,115.2364213
15,Gang Kelana,80224,-8.7074064,115.2315425
15,Gang Merpati,80237,-8.6711092,115.2552132
6,Gang Zamrud,80227,-8.6924262,115.2516025
77,Gang Ratna Sari III,80221,-8.6950971,115.1946742
53,Jalan Kebo Iwa,80115,-8.6449839,115.1857135
11,Jalan Surapati,80232,-8.6560550,115.2194157
192,Jalan Diponegoro,80113,-8.6718265,115.2152889
11,Jalan Tukad Badung,80361,-8.6877528,115.2377258
14,Letda Tantular,80234,-8.6672434,115.2238808
88,Jalan Gelogor Carik,80361,-8.7152901,115.1880770
50,Jalan Tirta Akasa,80227,-8.7004475,115.2554924
88,Jl. Gunung Salak,80361,-8.6627474,115.1752264
3,Gang I,80221,-8.6981468,115.1916379
30,Jalan Pandu,80239,-8.6612526,115.2383929
12A,Jl. P.B. Sudirman,80225,-8.6762478,115.2187176
26,Jalan Raya Pemogan Gang Merta Shanti,80221,-8.7069403,115.1988588
18,Gang Dadi,80119,-8.6941265,115.1907278
5,Jl. Pulau Flores,80113,-8.6753603,115.2093606
88,Jalan Teuku Umar,80113,-8.6809643,115.2002593
44,Jalan Drupadi,80234,-8.6658798,115.2334890
5,Jl. P.B. Sudirman,80234,-8.6733967,115.2184083
100X,Jl. Tukad Pakerisan,80225,-8.6910201,115.2252917
88x,Jalan Gunung Soputan,80361,-8.6865100,115.1835824
122,Jalan Raya Sesetan,80228,-8.6917546,115.2176642
4G,Jl. P.B. Sudirman,80114,-8.6700904,115.2173375
100,Jalan Raya Pemogan,80221,-8.7075531,115.1989962
99,Tukad Balian,80361,-8.7058824,115.2398466
89M,Jl. Danau Tamblingan,80228,-8.6974750,115.2638238
8,Tukad Badung XXVII,80239,-8.6974038,115.2390510
22,Jalan Hayam Wuruk,80239,-8.6562798,115.2221694
5,Jalan Jayagiri,80234,-8.6585035,115.2281948
567,Jalan Imam Bonjol,80119,-8.7020408,115.1860478
16B,Jalan Gunung Soputan,80361,-8.6884934,115.1898341
396,Jl. Imam Bonjol,80119,-8.6916416,115.1890597
19,Jalan Tunjung Sari,80233,-8.6385996,115.2528498
88,Gang Kebak Sari II,80361,-8.6868049,115.1903748
XI,Jalan Palapa XI,80223,-8.7043214,115.2247261
331,Jalan Raya Sesetan,80223,-8.7109851,115.2208095
22,Jalan Gunung Talang,80119,-8.6716789,115.1885147
8,Jalan Tukad Batanghari,80234,-8.6816411,115.2306835
1,P.B. Sudirman,80113,-8.6671431,115.2176845
53,Jalan Mertesari,80228,-8.7089111,115.2509876
1,Jl. Imam Bonjol,80119,-8.6970186,115.1861631
256,Jalan Raya Pemogan,80221,-8.7094758,115.1976177
84,Jalan Teuku Umar,80113,-8.6719452,115.2086385
9,"Jl, Gelogor Carik",80119,-8.6984329,115.1919377
21,Jl. Pulau galang Gg. Ratna Sari II,80221,-8.6954950,115.1898737
.21X,Gang Wisata,80361,-8.7130860,115.1985581
74,Jalan Teuku Umar,80113,-8.6798120,115.2037832
8,Jalan Raya Pemogan,80221,-8.7096207,115.1977560
8,Raya Puputan,80226,-8.6703469,115.2214947
596/10,Jalan Raya Sesetan,80223,-8.7108356,115.2202249
34,Jalan Pulau Moyo,80222,-8.7012461,115.2123436
20,Jalan Raya Sesetan,80223,-8.6796603,115.2149829
93,Jalan Mahendradatta,80117,-8.6772615,115.1905906
9,Sunset Road,80361,-8.7039999,115.1815225
225,Jalan WR Supratman,80236,-8.6482914,115.2361130
85,Cok Agung Tresna,80361,-8.6670125,115.2358101
83,Jalan Teuku Umar,80113,-8.6723855,115.2087259
212,Jalan Teuku Umar,80113,-8.6807721,115.2019862
69,Sunset Road,80361,-8.7098334,115.1852602
27,Jalan Akasia,80239,-8.6569647,115.2418311
3,Jalan Badak Agung XVII,80234,-8.6624329,115.2294416
2,Jalan Badak Agung XII,80234,-8.6634542,115.2307379
9B,Ciung Wanara 1,80234,-8.6738242,115.2359565
11,Jalan Drupadi XIV,80239,-8.6608622,115.2343757
125,"Jl, Gelogor Carik",80113,-8.6949733,115.1923985
8,Jalan Jayagiri 11,80234,-8.6634024,115.2263192
7,Jalan Kerta Dalem,80224,-8.7006401,115.2338177
10,Laksamana 12,80235,-8.6706030,115.2411781
50,Jalan Tukad Barito,80114,-8.6841881,115.2319820
145,Merta Sari,80224,-8.7051436,115.2353817
206,Pulau Nusakambangan,80113,-8.6751923,115.2066498
6,Jl. P.B. Sudirman,80113,-8.6762656,115.2176706
20,Pemuda 5,80239,-8.6762610,115.2404094
60,Jalan Pendidikan,80224,-8.7056733,115.2296636
326,Jalan Bypass Gatot Subroto,80113,-8.6355834,115.2187490
29,Jl. Pesona Utama,80222,-8.7065827,115.2125928
2,Jalan Pulau Adi,80114,-8.6804514,115.2041985
6,Jalan Pulau Adi,80114,-8.6806635,115.2041623
9,Jalan Pulau Adi,80114,-8.6807656,115.2043205
15,Pulau Alor,80114,-8.6774599,115.2090613
10,Pulau Aru,80113,-8.6745694,115.2134855
9,Tukad Musi 3,80235,-8.6747127,115.2291816
6,Pulau Batam,80113,-8.6680821,115.2137262
1,Nusa Indah,80236,-8.6555875,115.2345385
24,Jalan Pulau Sayang,80113,-8.6813559,115.2057501
27,Jalan Pura Demak,80119,-8.6797634,115.1932491
24,Halmahera Gang I,80225,-8.6728294,115.2133274
8,Jalan Tukad Banyusari,80113,-8.6773516,115.2169306
10,Jalan Hayam Wuruk,80232,-8.6570466,115.2227178
8,Jalan Kebo Iwa,80116,-8.6252349,115.1852513
88,Jl. Gunung Salak,80117,-8.6604394,115.1764384
5,Jalan Merdeka VI,80239,-8.6654580,115.2376604
36,Gang I,80227,-8.6977450,115.1901752
18,Jalan Gunung Soputan I,80119,-8.6848886,115.1899863
2,Jalan Surapati,80232,-8.6564722,115.2194941
No.909,Danau Poso,80228,-8.7049043,115.2584710
12,Jalan Tukad Badung IXA,80226,-8.6836360,115.2386222
324,Jl. Pulau Galang I,80119,-8.6913046,115.1936186
4,Jl. Kutat Lestari,80224,-8.6989996,115.2534156
23,Jalan Tukad Barito,80225,-8.6843134,115.2291767
26A,Jl. Dewi Saraswati I,80361,-8.6858812,115.1741675
99A,Danau Tamblingan,80228,-8.6915087,115.2621151
26,Jalan Sudamala,80228,-8.7058565,115.2560614
1,Jl. Nusa Indah,80236,-8.6555885,115.2336128
6A,Jl. P.B. Sudirman,80114,-8.6725957,115.2178649
53-55,Jalan Gajah Mada,80232,-8.6551461,115.2128612
27,Jalan Gunung Soputan,80119,-8.6872820,115.1864978
234,"Jl, Gelogor Carik",80221,-8.6994271,115.1915764
55,Sutoyo,80232,-8.6622116,115.2175024
11,"Jalan Kunti II, Gang Nuansa",80361,-8.6868081,115.1772319
26,"Jalan Sokasati, Gang Rama 3",80239,-8.6525126,115.2413143
145,"Jalan Gunung Tangkuban Perahu, Dusun Tegal Buah, Padangsambian Kelod",80117,-8.6699185,115.1831846
464A,Jalan Bypass Ngurah Rai,80227,-8.6699779,115.2573343
81,Pulau Morotai,80114,-8.6815577,115.2093406
# 134 / 156,Danau Tamblingan,80228,-8.6947872,115.2637133
10 E-F,"Jl. Sekar Waru, gang Graha Kencana",80227,-8.7070698,115.2525106
44,Danau Tamblingan,80228,-8.6863575,115.2624059
50,Danau Tamblingan,8022,-8.6870535,115.2626900
6,Danau Tamblingan,80228,-8.6853705,115.2608968
19,Danau Tamblingan,80228,-8.6851410,115.2624867
4,"Jalan Gunung Salak Selatan, Gang Puncak Sari 4, Denpasar Barat, Bali, Indonesia",80117,-8.6763064,115.1803072
9,Jl Danau Tamblingan Gg. Penjor No. 9,80228,-8.6952905,115.2626576
28,Jalan Tukad Badung XVIII,80226,-8.6932274,115.2351212
11,Jalan Veteran,80111,-8.6535680,115.2169837
27,Pulau Serangan,80114,-8.6813336,115.2122097
17,Jl. Pengembak,80228,-8.7073457,115.2491903
Blok A no 8,Jalan Kepaon Indah,80221,-8.7100911,115.2026429
25,Jalan Gunung Guntur,80117,-8.6501487,115.1813702
Nomor 9,Jalan Tukad Barito,80225,-8.6847286,115.2345496
23A,Jalan Tanjung,80228,-8.7075017,115.2467713
18x,Jalan Pulau Bungin Gang Oka,80114,-8.6873569,115.2055832
28,Jalan Tukad Badung XVIII,80226,-8.6922721,115.2358822
2,Jl. Danau Maninjau,80227,-8.6751374,115.2579146
25,Betngandang I,80227,-8.6990942,115.2578595
8,Blok C,80223,-8.7026402,115.2215048
35,Jalan Kebo Iwa,80117,-8.6302041,115.1876232
3,"Jalan Danau Tempe I, Gang Telagasari",80227,-8.7024013,115.2453859
7,Menuh,80236,-8.6541777,115.2238857
2B,Made Putra,80232,-8.6614519,115.2197069
4,Sutomo Gang XI,80118,-8.6525822,115.2103996
37,Setiabudi,80111,-8.6518687,115.2086385
20,Setiabudi,80111,-8.6522869,115.2087874
88X,Jalan Gunung Soputan,80119,-8.6865672,115.1833060
95,Jl. Sidakarya,80224,-8.7006137,115.2277742
80,Jalan Gajah Mada,80111,-8.6553875,115.2134224
420,Jalan Sunset Road,80361,-8.7175331,115.1858515
45A,Jalan Danau Tondano,80227,-8.6841094,115.2554182
7,Laksamana 8,80235,-8.6690429,115.2415794
1,Jalan Pengembak,80227,-8.7046845,115.2505850
1,Gg. Jasmine,80228,-8.6948409,115.2613775
5,Jalan H.O.S. Cokroaminoto,80116,-8.6252051,115.1998147
57,Ji. Dewi Saraswati III,80361,-8.6862639,115.1743082
9 A,Jl. Sulatri No,80237,-8.6379196,115.2415943
3,Jalan Duyung,80228,-8.7030418,115.2621682
2,Jalan Kutat Lestari,80228,-8.6984600,115.2537830
Blok B No 31,Komp. Sudirman Agung Jl. PB Sudirman,80225,-8.6759572,115.2186066
112B,Jalan Teuku Umar,80114,-8.6732405,115.2080740
40,Graha Bali Paradiso,80224,-8.7037721,115.2363480
40,Graha Bali Paradiso,80224,-8.7038248,115.2363408
40,Graha Bali Paradiso,80224,-8.7038389,115.2363878
41,Jalan Teuku Umar Barat,80113,-8.6813377,115.1961658
"Gg. Ayung, No. 1",Jalan Noja Saraswati,80239,-8.6323977,115.2330562
268,Jl. Gatot Subroto Timur,80239,-8.6354821,115.2284026
1A,Gang Kojek,80117,-8.6516502,115.1913857
10,Jalan Gunung Welirang I,80112,-8.6629623,115.2045657
No.06,Jalan Kamboja,80233,-8.6497958,115.2257574
10A,Tukad Unda,80225,-8.6751751,115.2319870
10a,Tukad Unda,80225,-8.6751665,115.2321437
86,Raya Puputan,80226,-8.6732606,115.2266652
368,Jalan Teuku Umar Barat,80117,-8.6772271,115.1857840
117x,Jalan Bypass Ngurah Rai,80227,-8.6642997,115.2551235
50 A,Jl. Diponegoro,80114,-8.6609895,115.2145895
210,Jalan Bypass Ngurah Rai,80227,-8.6773077,115.2586920
3,Jalan Trengguli 1B,80237,-8.6320690,115.2363607
142a,Jalan Gunung Agung,80111,-8.6514619,115.1965376
142a,Jalan Gunung Agung,80111,-8.6514072,115.1965404
12J,Jalan Ceningan Sari,80225,-8.6990686,115.2211031
89,Jalan Nakula,80361,-8.6997225,115.1796162
30,Jalan Yudhistira,80244,-8.6491716,115.2162339
303,Jalan Gunung Tangkuban Perahu,80117,-8.6813315,115.1761851
2B,Gang Nakula,80117,-8.6816305,115.1837275
80223,"Jl. Gurita I No.26, Sesetan, Denpasar Selatan, Kota Denpasar, Bali 80223",80223,-8.7036880,115.2182603
10,"Jl. Gurita II No.8, Sesetan, Denpasar Selatan, Kota Denpasar, Bali 80223 Jam:",80223,-8.7040009,115.2182898
45A,Jalan Danau Tondano,80228,-8.6837655,115.2553687
241X,Jalan Teuku Umar Barat,80119,-8.6820585,115.1916298
45A,Jalan Danau Tondano,80227,-8.6838756,115.2553205
114,Jalan Sekuta,80228,-8.6937909,115.2558406
254,Jalan Teuku Umar,80113,-8.6813659,115.1997836
240A,Jalan Bypass Gatot Subroto,80239,-8.6354355,115.2264178
2,Gang Penjor Agung,80228,-8.6949343,115.2618707
98,Jalan Kutat Lestari,80228,-8.6993064,115.2517425
160,Jalan Danau Tamblingan,80228,-8.6973780,115.2631471
45A,Jalan Danau Tondano,80227,-8.6837468,115.2552796
25,Jalan Bypass Ngurah Rai,80237,-8.6692745,115.2571118
31,Jalan Danau Poso,80227,-8.7051336,115.2497279
5,Jalan Sudamala,80228,-8.7064123,115.2560624
2,Pemamoran,80227,-8.6799237,115.2584347
121,Jalan Raya Sesetan,80225,-8.6863218,115.2156472
121,Jalan Raya Sesetan,80225,-8.6869206,115.2148910
78,Jalan Danau Tamblingan,80228,-8.6884911,115.2631887
24,Jalan WR. Supratman,80236,-8.6492048,115.2276637
7x,Jalan Tukad Musi,80239,-8.6745306,115.2300318
Blok X 213,Gang Tunjung Sari,80227,-8.6928130,115.2500114
32,Kapten Tantular,80234,-8.6718728,115.2279796
35,Jalan Padma,80238,-8.6232427,115.2343881
37,Jalan Padma,80237,-8.6232299,115.2350376
105,Jalan Padma,80237,-8.6232375,115.2351827
30,Gang IX,80239,-8.6262529,115.2351133
48 D,Jalan Sutoyo,80112,-8.6624349,115.2167063
51,Jalan Danau Tamblingan,80228,-8.6921705,115.2639140
49,"Jl. Gunung Rinjani Kelurahan No.49, Tegal Kertha, Kec. Denpasar Bar., Denpasar Barat, Bali 80119",80119,-8.6623535,115.1987714
136,Jl. Danau Tamblingan,80223,-8.6948734,115.2629947
28,Hang Tuah,80227,-8.6741270,115.2598306
33,Raya Puputan,80234,-8.6723011,115.2285898
29,Jalan Tukad Batanghari,80225,-8.6806426,115.2305061
1,Tukad Musi,80221,-8.6739938,115.2296156
86,Raya Puputan,80226,-8.6732558,115.2266510
124,Jalan Raya Denpasar Gilimanuk,80111,-8.6351417,115.2061600
27,Raya Puputan,80114,-8.6722808,115.2267643
47,Jl. Danau Tamblingan,80228,-8.6899285,115.2650125
1,Jalan Teuku Umar,80113,-8.6698125,115.2144516
3,Jalan Veteran,80111,-8.6547623,115.2169096
6,Jalan Gajah Mada,80111,-8.6555767,115.2157919
110,Jalan Teuku Umar,80114,-8.6771593,115.2054008
136,Jalan Diponegoro,80113,-8.6667003,115.2150011
134,Jalan Diponegoro,80112,-8.6663232,115.2150653
88,Jalan Hayam Wuruk,80237,-8.6585308,115.2388854
88,Jalan Hayam Wuruk,80237,-8.6585110,115.2390893
143,Jalan Hayam Wuruk,80237,-8.6594072,115.2397893
88,Raya Puputan,80226,-8.6733734,115.2270652
74,Jalan Teuku Umar,80113,-8.6796712,115.2033926
58,Jalan Hasanuddin,80119,-8.6581074,115.2127624
58,Jalan Hassanudin,80119,-8.6580608,115.2129072
103,Jalan Diponegoro,80111,-8.6659139,115.2161386
175-179,Jalan Teuku Umar,80113,-8.6785058,115.2056970
31,Jalan Teuku Umar,80114,-8.6696217,115.2116923
1,Jalan Udayana,80112,-8.6586320,115.2164758
133,Jalan Bypass Ngurah Rai,80228,-8.6849858,115.2593423
1,Patih Jelantik,80114,-8.6682179,115.2164676
8,Patih Jelantik,80114,-8.6687473,115.2168282
17,"Jl. Angsoka, Dangin Puri Kangin, Kec. Denpasar Utara, Kota Denpasar, Bali",80234,-8.6524017,115.2242732
183,Jalan Teuku Umar,80114,-8.6790837,115.2053918
101,Jalan Diponegoro,80113,-8.6639697,115.2161110
101,Jalan Diponegoro,80113,-8.6643656,115.2156114
60,Jalan Teuku Umar,80114,-8.6708193,115.2092869
7,Pulau Serangan,80114,-8.6782828,115.2127699
2,Jalan Surapati,80232,-8.6566265,115.2194865
11,Jalan Surapati,80232,-8.6559309,115.2194459
1,Tukad Gangga,80221,-8.6733418,115.2284068
108,Jl. Raya Puputan No,80234,-8.6732095,115.2300513
59,Jalan Thamrin,80231,-8.6556521,115.2101142
6,D.I. Panjaitan,80235,-8.6694510,115.2295414
8,Jalan Gurita,80223,-8.7043353,115.2177207
1,"Jl. Pucuk, Sumerta, Kec. Denpasar Tim., Kota Denpasar, Bali",80236,-8.6499568,115.2343579
20X,Nusa Indah,80235,-8.6506016,115.2313864
210-212,Jalan Hayam Wuruk,80235,-8.6614859,115.2395795
180-182,Jalan Diponegoro,80222,-8.6707078,115.2150632
283,Jalan Bypass Gatot Subroto,80231,-8.6399284,115.2061687
Perumahan Lembah Pujian A1,Jalan Antasura,80115,-8.6174553,115.2248994
172,Jalan Nangka,80234,-8.6376092,115.2229802
139,Jalan Teuku Umar,80113,-8.6808300,115.2029493
241X,Jalan Teuku Umar Barat,80114,-8.6821038,115.1916301
8A,Jalan Tukad Yeh Penet,80226,-8.6750676,115.2440097
30-34,Jalan Gunung Agung,80118,-8.6531912,115.2062610
20,Ciung Wanara 2,80226,-8.6747287,115.2358961
37,Jalan Bedugul,80225,-8.6969681,115.2267798
39,Jalan Bedugul,80224,-8.6964136,115.2262932
28,Tukad Gangga,80226,-8.6771546,115.2280006
29,Jalan Tukad Batanghari,80225,-8.6806977,115.2305381
270,Jalan Raya Sesetan,80223,-8.7063438,115.2198478
21,Jalan Merdeka,80239,-8.6654825,115.2382276
133,Jalan Kartini,80113,-8.6485454,115.2127124
133,"Jl. Kartini, Dauh Puri Kaja, Kec. Denpasar Utara, Kota Denpasar, Bali",80231,-8.6482944,115.2128378
No.18,Jl. Gatot Subroto IV,80232,-8.6389940,115.2175209
VI/19,Jalan Gatot Subroto,80113,-8.6387778,115.2165806
Adventure House,Jalan Bypass Ngurah Rai,80221,-8.7172123,115.2056575
190,Jalan Raya Sesetan,80223,-8.6964519,115.2185183
16B,Jalan Gunung Soputan,80117,-8.6882438,115.1898903
20,Jalan Raya Sesetan,80223,-8.6796898,115.2148142
6,Jl. P.B. Sudirman,80114,-8.6725605,115.2176978
60,Jalan Bypass Gatot Subroto,80111,-8.6360570,115.2206734
8,Jalan Kartini,80231,-8.6549973,115.2133007
77,Jalan Pattimura,80223,-8.6488056,115.2225396
328,Jalan Bypass Gatot Subroto,80113,-8.6354994,115.2186050
229,Jalan Bypass Gatot Subroto,80239,-8.6358230,115.2257589
240A,Jalan Bypass Gatot Subroto,80239,-8.6352930,115.2264457
10,Danau Buyan,80228,-8.6819443,115.2534616
452-456,Jalan Imam Bonjol,80112,-8.6984863,115.1845254
2,Jalan Gunung Soputan I,80361,-8.6850211,115.1883835
6,Jalan Gunung Soputan I,80117,-8.6864726,115.1877400
9,Jalan Gunung Soputan I,80117,-8.6862135,115.1878041
18X,Jalan Gunung Soputan,80117,-8.6876927,115.1887926
8A,Jalan Gunung Soputan,80117,-8.6886426,115.1908182
88,Jalan Kebak Sari,80361,-8.6867140,115.1904061
20,Jalan Mahendradatta Selatan I,80119,-8.6846708,115.1902253
17,Jalan Teuku Umar Barat,80112,-8.6818932,115.1941044
888,Jalan Teuku Umar Barat,80119,-8.6812171,115.1911864
8,Jalan Kepuh Segina,80119,-8.6839855,115.1901317
275,Jalan Teuku Umar Barat,80114,-8.6754705,115.1843971
338,Jalan Teuku Umar Barat,80117,-8.6747585,115.1835168
888,Jalan Teuku Umar Barat,80117,-8.6736973,115.1841476
379,Jalan Teuku Umar Barat,80117,-8.6746448,115.1832257
93,Jalan Mahendradatta,80117,-8.6771065,115.1901685
29,Jalan Pulau Kawe,80114,-8.6789903,115.2071536
30,Jalan Pulau Kawe,80114,-8.6792084,115.2067182
28,Jalan Pulau Kawe,80114,-8.6790444,115.2067837
26,Jalan Pulau Kawe,80114,-8.6788278,115.2066656
9,Jalan Pulau Kawe,80114,-8.6775024,115.2068332
20,Jalan Pulau Kawe,80114,-8.6782994,115.2064608
22,Jalan Pulau Kawe,80114,-8.6784252,115.2064285
26A,Jalan Pulau Kawe,80114,-8.6786908,115.2066894
24,Jalan Pulau Kawe,80114,-8.6785784,115.2067053
25,Jalan Pulau Kawe,80114,-8.6787438,115.2071019
17,Jalan Pulau Kawe,80114,-8.6781271,115.2068971
21,Jalan Pulau Kawe,80114,-8.6784257,115.2069853
177X,Jalan Kebo Iwa,80117,-8.6370293,115.1856101
4,Ciung Wanara 2,80239,-8.6746818,115.2340125
124,Jalan H.O.S. Cokroaminoto,80116,-8.6352007,115.2059613
87,Jalan Bypass Gatot Subroto,80231,-8.6387976,115.2067631
18X,Jalan Pidada,80116,-8.6344401,115.2038282
1,Jalan Pidada VI,80116,-8.6370633,115.2039209
65,Jalan Gunung Rinjani,80112,-8.6636260,115.1991093
No. 6,Jalan Cekomaria Gang Leli I,80115,-8.6149537,115.2256776
72,Jalan Bypass Ngurah Rai,80237,-8.6468239,115.2548344
302,Jalan Raya Tohpati,80237,-8.6386666,115.2552567
8 X,"JL. Gunung Agung, Gang II, Pemecutan Kaja, Kec. Denpasar Utara, Kota Denpasar, Bali",80111,-8.6515470,115.2037047
1,Kaliasem,80232,-8.6553223,115.2183639
2X,Tukad Jinah,80235,-8.6750290,115.2267186
386,Jalan Imam Bonjol,80119,-8.6922549,115.1882116
440,Jalan Imam Bonjol,80119,-8.7018562,115.1835059
1,Jalan Imam Bonjol,80361,-8.7061799,115.1839833
508,Jalan Imam Bonjol,80112,-8.7033723,115.1833707
767,Sunset Road,80361,-8.7147584,115.1864554
45A,Jalan Danau Tondano,80227,-8.6838637,115.2553598
87,Tukad Bilok,80226,-8.6812291,115.2445383
2,Jalan Danau Batur,80231,-8.6781106,115.2580539
7,Jalan Bypass Ngurah Rai,80228,-8.6669636,115.2559834
6,Jalan Purnawira VII,80117,-8.6615661,115.1846063
15,Jalan Padang Indah IV,80117,-8.6619194,115.1827986
10,Jalan Padang Indah IV,80117,-8.6619402,115.1825436
8,Jalan Padang Indah IV,80117,-8.6619660,115.1823952
7,Jalan Padang Indah IV,80117,-8.6617804,115.1824062
11,Jalan Padang Indah IV,80117,-8.6617808,115.1825891
5,Jalan Padang Indah V,80117,-8.6616871,115.1825569
4,Jalan Padang Indah IV,80117,-8.6616844,115.1824170
3,Jalan Padang Indah V,80117,-8.6615291,115.1825549
2,Jalan Padang Indah V,80117,-8.6614598,115.1825549
1,Jalan Padang Indah IV,80117,-8.6614621,115.1824218
3,Jalan Padang Indah IV,80117,-8.6616091,115.1824160
4,Jalan Padang Indah V,80117,-8.6616081,115.1825525
5,Gang II KS,80118,-8.6475059,115.2016311
81,Jalan Mahendradatta,80118,-8.6592845,115.1915577
11,Jalan Perumahan Pondok Sepa,80117,-8.6312969,115.1811769
185,Jalan Teuku Umar,80114,-8.6793418,115.2048866
155-229,Jalan Teuku Umar,80113,-8.6812658,115.2013486
No. 459 C,Jl. Gatot Subroto Barat,80117,-8.6371151,115.1835269
101,Jalan Bypass Gatot Subroto,80112,-8.6358577,115.1932365
25,Jalan Batur Sari,80228,-8.6867675,115.2529555
9c,Jalan Danau Tondano IV,80228,-8.6860094,115.2547227
62,Jalan Diponegoro,80222,-8.7147195,115.2152624
41,Jl. Danau Tamblingan,80228,-8.6887856,115.2654978
41,Jl. Danau Tamblingan,80228,-8.6888868,115.2651026
3,"Jl. Gn. Soputan, Gg. Puskesmas, Pemecutan Klod, Kec. Denpasar Bar., Kota Denpasar, Bali",80119,-8.6873260,115.1879395
55,Jalan Gunung Soputan I,80119,-8.6863482,115.1901733
239,Jl. Sunset Road,80361,-8.7010297,115.1795106
110,Jl. Gunung Sanghyang,80117,-8.6486585,115.1828199
1,Jalan Lantang Hidung Gang 1,80227,-8.7031577,115.2580731
3,Jalan Lantang Hidung,80227,-8.7028773,115.2581191
44,Danau Tamblingan,80228,-8.6863583,115.2623143
A2,"Jl. Gunung Talang I, Perumahan Mahendradatta Graha Asih",80119,-8.6752754,115.1876531
40,Kertawinangun II,80224,-8.7038103,115.2363880
3,Kertawinangun II,80224,-8.7032522,115.2343612
2,Gang Penjor Agung,80228,-8.6948786,115.2618888
14,Jalan Dewi Supraba V,80115,-8.6230403,115.2213181
Gg. XV / 12,Jalan Gunung Guntur,80117,-8.6531322,115.1803571
110,"Jl. Ahmad Yani Utara, Dauh Puri Kaja, Kec. Denpasar Utara, Kota Denpasar, Bali",80233,-8.6342993,115.2105652
5,Gg. Kakak Tua,80115,-8.6333739,115.2092527
14D,"Jl. Raya Sesetan, Gg. Camar",80223,-8.6832419,115.2138611
1,Jalan Padang Indah V,80117,-8.6613897,115.1825544
6,Jalan Padang Indah IV,80117,-8.6619373,115.1822547
11,Jalan Diponegoro Gang VII,80112,-8.6625955,115.2160973
33,Jalan Gatot Subroto IA,80115,-8.6292342,115.2191271
31,Jalan Gatot Subroto IA,80115,-8.6294803,115.2191109
77,Jalan Royal Gatsu,80115,-8.6294552,115.2188127
3,Jalan Royal Gatsu,80115,-8.6294447,115.2186924
10,Jalan Royal Gatsu,80115,-8.6293085,115.2188216
16,Jalan Royal Gatsu,80115,-8.6293268,115.2186998
21,Jalan Royal Gatsu,80115,-8.6294284,115.2185191
17,Jalan Royal Gatsu,80115,-8.6293110,115.2185272
29,Jalan Gatot Subroto IA,80115,-8.6297072,115.2190244
28,Jalan Royal Gatsu,80115,-8.6296429,115.2188009
29,Jalan Royal Gatsu,80115,-8.6296337,115.2187230
37,Jalan Royal Gatsu,80115,-8.6295729,115.2181050
29,Jalan Dewi Supraba V,80115,-8.6238380,115.2210752
14D,Gang Camar,80223,-8.6831089,115.2136427
Gang Camar 14D,Jalan Raya Sesetan,80223,-8.6831089,115.2136427
73,Letda Reta,80234,-8.6665733,115.2227139
303,Jalan Gunung Tangkuban Perahu,80117,-8.6813668,115.1761745
6,"Jl. Gatot Subroto IV, Dangin Puri Kaja, Kec. Denpasar Utara, Kota Denpasar, Bali",80233,-8.6367120,115.2180660
2c,jalan setiabudi gang B,80118,-8.6490219,115.2094308
25A,Jl. Nagasari,80237,-8.6143856,115.2445814
14,Jalan Tukad Citarum FX,80225,-8.6855489,115.2327626
5,Jalan Padang Indah IV,80117,-8.6618169,115.1822427
3A,Jalan Padang Indah IV,80117,-8.6616260,115.1822258
BBQ Dock,"Royal Bali Yacht Club, Demarga Merta Sari",80227,-8.7160780,115.2478583
1,Gang Teratai Indah,80223,-8.6862412,115.2206857
2,Gang Teratai Indah,80223,-8.6862219,115.2204979
12,Jalan Tirta Ening,80227,-8.7024503,115.2560572
9X,Jalan Tirta Ening,80227,-8.7031347,115.2568167
36,Jalan Mertasari,80227,-8.7087595,115.2528087
No. 88-89,Jl. Bet Ngandang II,80228,-8.7030575,115.2593052
185a,Jalan Teuku Umar,80114,-8.6794558,115.2049166
3,Jalan Sutomo,80118,-8.6488158,115.2100253
63 A,"Jl. Pulau Moyo, Pedungan, Denpasar Selatan, Kota Denpasar, Bali",80222,-8.6953236,115.2099625
-,Jalan Gunung Agung,80118,-8.6552425,115.2059402
-,kertanegara ubung,0000,-8.6242959,115.2038841
0,Jalan Kamboja,00000000,-8.6505944,115.2236446
00,Jalan Udayana,80232,-8.6566134,115.2171604
00,Tukad Punggawa,00000000,-8.7252009,115.2310198
11,"Jalan Gatot Subroto II No 11 Dangin Puri Kaja, Kec. Denpasar Utara",80234,-8.6371677,115.2210709
120,Jalan Teuku Umar,80114,-8.6776499,115.2052468
6,Gunung Agung Gang Bumiayu,80118,-8.6572032,115.1994042
B 16,Jl. Komp. Sesetan Agung,80114,-8.6862076,115.2146132
5,Kertawinangun II,80224,-8.7031627,115.2348559
12,Gang Amerta,80224,-8.6986302,115.2281208
3,Jalan Gunung Batukaru,80112,-8.6598235,115.2006566
3,Jalan Gatot Subroto 2C,80239,-8.6368358,115.2214127
20,Jalan Tukad Batanghari,80225,-8.6798262,115.2300684
No 1A,Gang Kojek,80117,-8.6517134,115.1913700
24,Jalan WR. Supratman,80236,-8.6492917,115.2276593
306A,Jalan Gunung Cemara,80119,-8.6648430,115.1949099
479,Jalan Raya Sesetan,80223,-8.6970796,115.2191867
505,Jl. By Pass Ngurah Rai,80221,-8.7208939,115.1915805
50 A,Jl. Diponegoro,80114,-8.6609155,115.2145875
101,Jalan Buana Raya,80117,-8.6671225,115.1877229
Gg. Persik / 1,Jalan Gunung Gede,80117,-8.6627488,115.1926042
1,Gang II KS,80118,-8.6475512,115.2013828
108,Jalan Trenggana,80237,-8.6084966,115.2380955
111,Jalan Gunung Lumut III,80117,-8.6797016,115.1830389
11,Jalan Royal Gatsu,80115,-8.6293641,115.2188188
7,Jalan Royal Gatsu,80115,-8.6293803,115.2189687
8,Jalan Royal Gatsu,80115,-8.6293201,115.2189714
35,Jalan Gatot Subroto IA,80115,-8.6293380,115.2191210
23B,Jalan Tukad Batu Agung I,80225,-8.6878762,115.2242544
23C,Jalan Tukad Batu Agung I,80225,-8.6878775,115.2242102
27,Jalan Danau Tamblingan,80228,-8.6868174,115.2636501
63,Jl. Pendidika,80224,-8.7062830,115.2299456
5a,Gang Mangga,80228,-8.6938823,115.2562213
5b,Gang Mangga,80228,-8.6938879,115.2562793
5c,Gang Mangga,80228,-8.6938976,115.2563367
17,"Jl. Glogor Carik, Pemogan, Denpasar Selatan, Kota Denpasar, Bali",80221,-8.6970012,115.1921454
121,Jalan Raya Sesetan,80225,-8.6865650,115.2157461
121,Jalan Raya Sesetan,80225,-8.6865770,115.2156147
1,Jalan Nuansa Hijau Utama,80115,-8.6106346,115.1993588
3,Jalan Antasura,80238,-8.5983067,115.2232331
9,Jalan Padang Indah IV,80117,-8.6617802,115.1824966
No. 33,Raya Puputan,80234,-8.6728626,115.2283790
46,Jalan Bypass Ngurah Rai,80228,-8.6760139,115.2600605
7,Jalan WR Supratman,80231,-8.6482932,115.2253068
9X,Jalan Raya Sesetan,80114,-8.6784849,115.2136046
