House number,Street name,Postal code,Latitude,Longitude
1821,SW 7 Highway,64014,38.9984845,-94.2738626
918,Southwest 7 Highway,64015,39.0081234,-94.2702781
1202,Northeast Coronado Drive,64014,39.0253959,-94.2465134
2323,Northwest Highway 7,64014,39.0455614,-94.2716626
100,Southeast Magellan Drive,64014,39.0148264,-94.2544896
500,Southwest Sunnyside School Road,64014,39.0155048,-94.2576009
605,Northeast Coronado Drive,64014,39.0274024,-94.2542979
1115,Northeast Coronado Drive,64014,39.0258690,-94.2482711
1125,Northeast Coronado Drive,64014,39.0259101,-94.2480886
1116,Northeast Coronado Drive,64014,39.0251936,-94.2471746
706,North 7 Highway,64014,39.0254709,-94.2713884
706,East North Highway 7,64014,39.0265085,-94.2712787
704,North Highway 7,64014,39.0248777,-94.2714888
1236,Northwest Woods Chapel Road,64015,39.0314823,-94.3045172
1236,Northwest Woods Chapel Road,64015,39.0314096,-94.3045050
1344,Northeast Coronado Drive,64014,39.0259142,-94.2438629
1334,Northeast Coronado Drive,64014,39.0254854,-94.2438902
1122,Northeast Coronado Drive,64014,39.0250341,-94.2470951
1020,Northeast Coronado Drive,64014,39.0235776,-94.2499526
1034,Northeast Coronado Drive,64014,39.0236080,-94.2491694
1034,Northeast Coronado Drive,64014,39.0236127,-94.2492883
1032,Northeast Coronado Drive,64014,39.0236194,-94.2494550
1016,Northeast Coronado Drive,64014,39.0235887,-94.2501833
1010,Northeast Coronado Drive,64014,39.0235993,-94.2504029
1209,Northeast Coronado Drive,64014,39.0261356,-94.2468227
481,Northeast Coronado,64014,39.0272035,-94.2571008
400,Northwest Vesper Street,64014,39.0203443,-94.2684804
450,Northwest State Route 7,64014,39.0217376,-94.2702350
1626,South Highway 7,64014,38.9998001,-94.2723704
451,NorthWest Jefferson Street,64014,39.0304931,-94.2673238
600,North 7 Highway,64015,39.0234474,-94.2715035
3713,US-40,64015,39.0110729,-94.3081700
1600,Northwest Mock Avenue,64015,39.0289929,-94.2836003
1600,Northwest Mock Avenue,64015,39.0289929,-94.2835673
1112,Northeast Coronado Drive,64014,39.0252690,-94.2472067
1036,Northeast Coronado Drive,64014,39.0236052,-94.2490992
715,W Walnut St,64015,39.0167554,-94.2737795
501,Northwest 5th Street,64014,39.0221534,-94.2691919
1946,NW Copper Oaks Cir,64015,39.0301234,-94.2869836
103,MO 7,64014,39.0176914,-94.2734101
1077,Southwest 7 Highway,64014,39.0068664,-94.2731710
1095,Southwest 7 Highway,64014,39.0066509,-94.2731733
802,Soutwest US 40 HWY,64015,39.0089260,-94.2750355
1208,Northeast Coronado Drive,64014,39.0251923,-94.2464163
1126,Northeast Coronado Drive,64014,39.0249636,-94.2470635
1142,Northeast Coronado Drive,64014,39.0247576,-94.2469572
1342,Northeast Coronado Drive,64014,39.0257080,-94.2438695
1332,Northeast Coronado Drive,64014,39.0253653,-94.2438910
1205,Northeast Coronado Drive,64014,39.0260853,-94.2470080
1128,Northwest Woods Chapel Road,64015,39.0298003,-94.3039744
1135,Northeast Coronado Drive,64014,39.0259774,-94.2475970
1215,Northeast Coronado Drive,64014,39.0261697,-94.2467021
1232,Northeast Coronado Drive,64014,39.0249874,-94.2463228
1755,Nortwest Burdett Crossing,64015,39.0378767,-94.2731994
1237,MO-7,64014,39.0042162,-94.2754561
603,Southwest US Highway 40,64014,39.0104084,-94.2695354
2650,MO Hwy 7,64014,38.9922458,-94.2725552
2800,MO Hwy 7,64014,38.9910370,-94.2727759
313,Northwest 10th Street,64015,39.0205196,-94.2769599
425,Northwest Mock Avenue,64015,39.0276609,-94.2599598
505,Northeast Adams Dairy Parkway,64014,39.0196045,-94.2523647
1500,MO-7,64014,39.0005770,-94.2722657
806,Southwest 10th Street,64015,39.0101910,-94.2771098
806,Southwest 10th Street,64015,39.0101896,-94.2769395
710A,Northwest State Route 7,64014,39.0256295,-94.2709494
1401,NW Park Road,64015,39.0493977,-94.2898402
1724,Southwest 40 Highway,64015,39.0089578,-94.2856061
1708,Southwest 40 Highway,64015,39.0089519,-94.2847847
801,Northwest South Outer Road,64015,39.0297656,-94.2736661
701,Northwest South Outer Road,64015,39.0293851,-94.2732191
411,Northwest Mock Avenue,64014,39.0290173,-94.2681860
515,Northeast Coronado Drive,64014,39.0274650,-94.2562393
525,Northeast Coronado Drive,64014,39.0274108,-94.2558346
535,Northeast Coronado Drive,64014,39.0273694,-94.2553660
951,Northeast Coronado Drive,64014,39.0262002,-94.2505854
425,Northeast Mock Avenue,64014,39.0278098,-94.2585314
905,Northeast Adams Dairy Parkway,64014,39.0247514,-94.2521807
600,Northeast Coronado Drive,64014,39.0241988,-94.2550361
1001,Northeast Coronado Drive,64014,39.0258180,-94.2492564
1100,MO 7 Hwy,64014,39.0060240,-94.2702245
1104,Southwest 7 Highway,64014,39.0066785,-94.2720796
934,South 7 Highway,64014,39.0072306,-94.2720268
3111,MO-7 Hwy,64014,38.9885835,-94.2740712
505,Southeast Shamrock Lane,64014,38.9927340,-94.2624953
2214,Southwest Keystone Drive,64014,38.9947410,-94.2632354
1005,Northeast Coronado Drive,64014,39.0257630,-94.2490202
1601,Northeast R D Mize Road,64014,39.0237120,-94.2407668
1500,Northeast Coronado Drive,64014,39.0255695,-94.2421475
1400,Northeast Coronado Drive,64014,39.0251151,-94.2420025
100,Northeast Brizendine Road,64014,39.0166718,-94.2388618
4001,Southwest Christiansen Road,64014,38.9795291,-94.2697079
3575,Southwest Liggett Road,64015,38.9845792,-94.2942089
201,Northwest R D Mize Road,64014,39.0254188,-94.2644823
4000,Southwest Christiansen Road,64014,38.9799634,-94.2686963
4001,Southwest Christiansen Drive,64014,38.9796248,-94.2699646
900,Southwest Bishop Drive,64015,38.9850261,-94.2776474
3539,MO Hwy 7,64014,38.9843358,-94.2747341
3121,MO Hwy 7,64015,38.9880214,-94.2742018
3120,Mo Hwy 7,64014,38.9878211,-94.2729339
3116,South 7 Highway,64014,38.9882468,-94.2729024
2910,Southwest,64014,38.9904125,-94.2729009
3301,MO-7 Hwy,64014,38.9861119,-94.2743708
4101,MO-7 Hwy,64014,38.9788130,-94.2747072
2220,MO-7 Hwy,64014,38.9970962,-94.2724455
1301,Highway 7,64014,39.0041516,-94.2734590
920,West US 40 HWY,64015,39.0087116,-94.2766216
1875,Northwest Highway 7,64014,39.0392193,-94.2719780
814,MO Northwest Highway 7,64014,39.0280432,-94.2711960
1100,MO Northwest Hwy 7,64014,39.0292383,-94.2709103
310,Northwest State Route 7,64014,39.0210940,-94.2718052
1408,Southwest Highway 7,64014,39.0023109,-94.2724847
1300,Southeast Adams Dairy Parkway,64014,39.0017685,-94.2521878
1205,North 7 Highway,64014-2281,39.0322044,-94.2732473
1202,MO Hwy 7,64014,39.0321780,-94.2710846
1240,Northwest Woods Chapel Road,64015,39.0317948,-94.3045325
1101,Southeast Sunnyside School Road,64014,39.0043060,-94.2566657
1307,Southwest MO 7 Highway,64015,39.0034053,-94.2734880
430,Northeast Duncan Road,64014,39.0371514,-94.2553062
2800,Northwest 5th Street,64014,39.0508233,-94.2685232
850,Northwest Hunter Drive,64015,39.0502520,-94.2732722
1005,Northeast Coronado Drive,64014,39.0255235,-94.2490898
1200,Southeast Adams Dairy Parkway,64014,39.0038834,-94.2526588
810,Swouthwest US 40 HWY,64015,39.0087752,-94.2761743
1000,Southwest US 40 Highway,64015,39.0089127,-94.2777482
1900,Southwest State Route 7,64014-3951,38.9984642,-94.2725393
808,North 7 Highway,64014,39.0273873,-94.2713054
727,Northwest 7 Highway,64014,39.0247337,-94.2724447
211,Highway 7 South,64014,39.0167885,-94.2727567
1000,MO Northwest Hwy 7,64014,39.0288645,-94.2714381
1901,Northeast Jefferson Street,64014,39.0316016,-94.2397600
806,MO Northwest Hwy 7,64014,39.0270173,-94.2714403
901,Northwest 19th Street,64015,39.0289889,-94.2865244
1700,Northwest Mock Avenue,64015,39.0287503,-94.2842857
1604,Northwest Mock Avenue,64015,39.0287377,-94.2838148
1600,Northwest Mock Avenue,64015,39.0287264,-94.2833758
1512,Northwest Mock Avenue,64015,39.0287146,-94.2829015
1508,Northwest Mock Avenue,64015,39.0287031,-94.2824582
1504,Northwest Mock Avenue,64015,39.0286900,-94.2819925
1500,Northwest Mock Avenue,64015,39.0286756,-94.2814974
1000,Northwest South Outer Road,64015,39.0297560,-94.2763167
900,Northwest South Outer Road,64015,39.0297958,-94.2757632
2790,Southeast Adams Dairy Parkway,64014,38.9915594,-94.2539079
1441,Southeast Adams Dairy Parkway,64014,39.0003909,-94.2555486
550,Northeast Napoleon Drive,64014,39.0212231,-94.2528972
805,Northeast Jefferson Street,64014,39.0292769,-94.2516425
1515,North Woods Chapel Road,64015-2783,39.0331213,-94.3059921
1100,Southwest SmithÂ Street,64015,39.0172006,-94.2785306
801,Northwest Woods Chapel Road,64015,39.0266402,-94.3049584
2015,Northeast Jefferson Street,64014,39.0320810,-94.2303977
1700,North 7 Highway,64014,39.0376644,-94.2696922
1225,Northwest State Route 7,64014,39.0332650,-94.2722525
1225,Northeast Coronado Drive,64014,39.0263579,-94.2458695
1000,Northeast Coronado Drive,64014,39.0248657,-94.2493977
3402,Northwest Jefferson Road,64015,39.0349360,-94.3036654
2000,Northwest Ashton Drive,64015,39.0262416,-94.2880438
1056,Southwest Conch Way,64064,38.9472860,-94.2808732
9301,Southwest Tsunami Court,64064,38.9475241,-94.2806856
9223,Southwest 12th Street,64064,38.9489465,-94.2843468
1124,Southwest Conch Way,64064,38.9490575,-94.2832116
9208,Southwest Whispy Way,64064,38.9484005,-94.2804506
9204,Southwest Whispy Way,64064,38.9485241,-94.2800328
9200,Southwest Whispy Way,64064,38.9488458,-94.2799383
9201,Southwest Whispy Way,64064,38.9490148,-94.2803098
9205,Southwest Whispy Way,64064,38.9488662,-94.2807034
2300,Southwest US 40 Highway,64015,39.0086293,-94.2898742
3417,Northwest Kingsridge Drive,64015,39.0290948,-94.3028767
1512,Southwest 40 Highway,64015,39.0089410,-94.2828191
1600,Southwest 40 Highway,64015,39.0089365,-94.2835477
1700,Southwest 40 Highway,64015,39.0089587,-94.2842495
1800,Southwest 40 Highway,64015,39.0090683,-94.2862951
1101,South MO 7 Hwy,64014,39.0060656,-94.2743584
1203,MO 7,64014,39.0052891,-94.2736430
1175,Southwest 7 Highway,64014,39.0060690,-94.2736267
1125,Southwest 7 Highway,64014,39.0063143,-94.2736159
914,Southwest MO-7 HWY,64014,39.0078057,-94.2721246
910,Southwest MO 7 HWY,64014,39.0082505,-94.2720510
705,Southwest US 40 HWY,64015,39.0099114,-94.2734454
1500,MO 7,64014,39.0005514,-94.2722923
1300,Southeast Ryan Road,64029,39.0030124,-94.2522311
211,Northwest Missouri Highway 7,64014,39.0201594,-94.2730251
4800,Southwest 3rd Street,64014,38.9740471,-94.2695630
1301,Northwest Woods Chapel Road,64015,39.0313932,-94.3059205
1040,Northeast Coronado Drive,64014,39.0232906,-94.2483422
1280,Northeast Coronado Drive,64014,39.0231411,-94.2449430
1001,MO 7 Hwy,64014,39.0065951,-94.2760081
715,MO 7,64014,39.0107272,-94.2734139
1200,Southwest Quarry Road,64015,39.0081638,-94.2931813
499,MO-7,64015,39.0141870,-94.2729069
905,MO Northwest Highway 7,64014,39.0282026,-94.2724625
27610,East Wyatt Road,64014,38.9659882,-94.2596160
900,Southwest Bishop Drive,64051,38.9849787,-94.2778442
1201,West Main Street,64015,39.0187555,-94.2792283
1123,West Main Street,64015,39.0186023,-94.2784815
1101,West Main Street,64015,39.0186381,-94.2779522
1009,West Main Street,64015,39.0186985,-94.2775664
1005,West Main Street,64015,39.0185761,-94.2772107
1003,West Main Street,64015,39.0185334,-94.2771363
1002,West Main Street,64015,39.0182028,-94.2770378
1004,West Main Street,64015,39.0181436,-94.2772316
1008,West Main Street,64015,39.0181292,-94.2773697
1100,West Main Street,64015,39.0181166,-94.2780444
1112,West Main Street,64015,39.0181494,-94.2785104
1114,West Main Street,64015,39.0181566,-94.2785938
1116,West Main Street,64015,39.0181592,-94.2786828
1118,West Main Street,64015,39.0181617,-94.2787638
1304,West Main Street,64015,39.0181846,-94.2803361
1308,West Main Street,64015,39.0181754,-94.2806224
1400,Southwest Smith Street,64015,39.0178718,-94.2810670
1405,Southwest Smith Street,64015,39.0178660,-94.2812690
1301,West Main Street,64015,39.0187856,-94.2802049
1305,West Main Street,64015,39.0187913,-94.2803815
300,Southwest 15th Street,64015,39.0164496,-94.2812126
1500,Northwest Summit Street,64015,39.0194391,-94.2818985
205,Southwest 17th Street,64015,39.0171061,-94.2841994
1600,Southwest Smith Street,64015,39.0174282,-94.2829876
1600,West Main Street,64015,39.0182684,-94.2829391
1812,Northwest Vesper Street,64015,39.0195224,-94.2865029
1609,Southwest Clark Road,64015,39.0031918,-94.2852336
8221,Southeast Maple Court,64014,38.9666483,-94.2626189
8223,Southeast Maple Court,64014,38.9666433,-94.2624723
800,SW US 40 Hwy,64015,39.0088652,-94.2738796
22603,Northwest Pink Hill Road,64015,39.0535982,-94.3144075
1050,Northeast 27th Street,64029,39.0274657,-94.2237029
815,MO Hwy 7,64014,39.0081952,-94.2730759
101,Southwest 15th Street,64015,39.0183067,-94.2817459
3000,MO Hwy 7,64014,38.9898988,-94.2728826
501,Northeast Napoleon Drive,64014,39.0187958,-94.2529208
606,Southwest Parkwood Drive,64014,38.9930335,-94.2727959
1315,Southwest MO 7 HWY,64015,39.0029153,-94.2735153
1500,Southwest 40 Highway,64015,39.0090562,-94.2822657
1900,Southwest 40 Highway,64015,39.0090018,-94.2870356
727,US 40,64015,39.0098287,-94.2744788
