House number,Street name,Postal code,Latitude,Longitude
013,South Sibley Street,64016,39.1367747,-94.1959791
324,South Hudson Street,64016,39.1328694,-94.1990746
326,South Hudson Street,64016,39.1327649,-94.1990431
322,South Hudson Street,64016,39.1329456,-94.1990083
320,South Hudson Street,64016,39.1330180,-94.1990036
318,South Hudson Street,64016,39.1330866,-94.1989988
316,South Hudson Street,64016,39.1331927,-94.1990170
312,South Hudson Street,64016,39.1332938,-94.1989851
310,South Hudson Street,64016,39.1333628,-94.1990222
308,South Hudson Street,64016,39.1334296,-94.1989948
306,South Hudson Street,64016,39.1335001,-94.1990588
301,South Hudson Street,64016,39.1338236,-94.1985173
305,South Hudson Street,64016,39.1336760,-94.1984497
307,South Hudson Street,64016,39.1335983,-94.1984679
309,South Hudson Street,64016,39.1335487,-94.1985090
323,South Hudson Street,64016,39.1330983,-94.1985340
315,South Hudson Street,64016,39.1333705,-94.1984607
323,South Hudson Street,64016,39.1330383,-94.1984993
325,South Hudson Street,64016,39.1329816,-94.1984588
327,South Hudson Street,64016,39.1328788,-94.1984528
333,South Hudson Street,64016,39.1327548,-94.1985764
11,Washington Street,64016,39.1324679,-94.1992018
17,Washington Street,64016,39.1324905,-94.1995484
21,Washington Street,64016,39.1323831,-94.1999179
16,Washington Street,64016,39.1328739,-94.1995873
319,South Central Street,64016,39.1332452,-94.1997365
313,South Central Street,64016,39.1334931,-94.1998234
15,Adams Street,64016,39.1337850,-94.1995339
23,Adams Street,64016,39.1338193,-94.1998629
300,South Sibley Street,64016,39.1337958,-94.1977801
310,South Sibley Street,64016,39.1335361,-94.1978190
231,South Hudson Street,64016,39.1340426,-94.1983732
229,South Hudson Street,64016,39.1341833,-94.1984079
227,South Hudson Street,64016,39.1342988,-94.1984996
215,South Hudson Street,64016,39.1344164,-94.1984118
215,South Hudson Street,64016,39.1344065,-94.1981837
215,South Hudson Street,64016,39.1347102,-94.1983903
215,South Hudson Street,64016,39.1347009,-94.1981677
211,South Hudson Street,64016,39.1348408,-94.1983934
203,South Hudson Street,64016,39.1351222,-94.1983776
19,East Jefferson Street,64016,39.1349609,-94.1976084
212,South Sibley Street,64016,39.1347511,-94.1975875
216,South Sibley Street,64016,39.1345977,-94.1975996
220,South Sibley Street,64016,39.1343905,-94.1975863
230,South Sibley Street,64016,39.1341563,-94.1979041
431,South Hudson Street,64016,39.1323070,-94.1984942
400,South Sibley Street,64016,39.1324305,-94.1976540
230,Adams Street,64016,39.1341382,-94.1990862
220,South Hudson Street,64016,39.1345855,-94.1990420
214,South Hudson Street,64016,39.1347909,-94.1990979
208,South Hudson Street,64016,39.1349560,-94.1990664
202,South Hudson Street,64016,39.1351462,-94.1989873
205,South Central Street,64016,39.1351467,-94.1996569
207,South Central Street,64016,39.1349799,-94.1996485
219,South Central Street,64016,39.1347775,-94.1995696
223,South Central Street,64016,39.1344428,-94.1997457
22,Adams Street,64016,39.1342509,-94.1998101
16,Adams Street,64016,39.1342298,-94.1994763
202,South Central Street,64016,39.1351828,-94.2002730
208,South Central Street,64016,39.1349341,-94.2002931
220,South Central Street,64016,39.1346806,-94.2003232
226,South Central Street,64016,39.1343865,-94.2004232
230,South Central Street,64016,39.1342125,-94.2003328
300,South Central Street,64016,39.1338482,-94.2003878
308,South Central Street,64016,39.1336185,-94.2003857
316,South Central Street,64016,39.1332748,-94.2003962
324,South Central Street,64016,39.1330525,-94.2003669
106,Washington Street,64016,39.1328817,-94.2005914
120,Washington Street,64016,39.1329055,-94.2012184
108,Washington Street,64016,39.1329008,-94.2009551
321,South Osage Street,64016,39.1333257,-94.2012140
315,South Osage Street,64016,39.1335538,-94.2011607
301,South Osage Street,64016,39.1338605,-94.2011337
302,South Osage Street,64016,39.1339129,-94.2018927
304,South Osage Street,64016,39.1339190,-94.2016549
306,South Osage Street,64016,39.1337292,-94.2016692
314,South Osage Street,64016,39.1335819,-94.2016320
322,South Osage Street,64016,39.1334250,-94.2016517
324,South Osage Street,64016,39.1331386,-94.2016986
326,South Osage Street,64016,39.1329188,-94.2017645
220,Washington Street,64016,39.1329006,-94.2024853
323,Zoe Avenue,64016,39.1331986,-94.2024709
319,Zoe Avenue,64016,39.1333729,-94.2024762
301,Zoe Avenue,64016,39.1338122,-94.2023541
304,Zoe Avenue,64016,39.1337391,-94.2029189
306,Zoe Avenue,64016,39.1335242,-94.2029299
318,Zoe Avenue,64016,39.1332827,-94.2029074
330,Zoe Avenue,64016,39.1330186,-94.2029191
329,Hazel Road,64016,39.1330370,-94.2034218
321,Hazel Road,64016,39.1333360,-94.2034144
301,Hazel Road,64016,39.1338692,-94.2033752
205,West Jefferson Street,64016,39.1352718,-94.2037910
205,West Jefferson Street,64016,39.1351008,-94.2034897
205,West Jefferson Street,64016,39.1351029,-94.2031823
205,West Jefferson Street,64016,39.1350716,-94.2028782
205,West Jefferson Street,64016,39.1350592,-94.2025698
205,West Jefferson Street,64016,39.1352110,-94.2022344
216,South Osage Street,64016,39.1348056,-94.2018271
210,South Osage Street,64016,39.1350760,-94.2016157
202,South Osage Street,64016,39.1353156,-94.2015492
230,South Osage Street,64016,39.1342178,-94.2016269
300,Adams Street,64016,39.1344535,-94.2027954
300-302,Hazel Road,64016,39.1340961,-94.2038788
304-306,Hazel Road,64016,39.1337287,-94.2038956
400-402,Adams Street,64016,39.1337129,-94.2042292
404-406,Adams Street,64016,39.1337188,-94.2045064
408-410,Adams Street,64016,39.1337434,-94.2049351
412-414,Adams Street,64016,39.1337625,-94.2052051
416-418,Adams Street,64016,39.1337834,-94.2055139
420-422,Adams Street,64016,39.1337791,-94.2057799
229,South Osage Street,64016,39.1342821,-94.2010858
221,South Osage Street,64016,39.1345447,-94.2010945
211,South Osage Street,64016,39.1348066,-94.2010801
203,South Osage Street,64016,39.1352618,-94.2009741
129,South Sibley Street,64016,39.1350422,-94.1969754
129,South Sibley Street,64016,39.1350768,-94.1963956
129,South Sibley Street,64016,39.1352821,-94.1963892
129,South Sibley Street,64016,39.1355473,-94.1963719
129,South Sibley Street,64016,39.1353122,-94.1969056
129,South Sibley Street,64016,39.1353143,-94.1966374
129,South Sibley Street,64016,39.1355639,-94.1969391
129,South Sibley Street,64016,39.1355795,-94.1966467
129,South Sibley Street,64016,39.1350371,-94.1966836
108,East Jefferson Street,64016,39.1351318,-94.1960882
110,East Jefferson Street,64016,39.1351270,-94.1957772
112,East Jefferson Street,64016,39.1351092,-94.1954798
200,East Jefferson Street,64016,39.1351465,-94.1952026
202,East Jefferson Street,64016,39.1351061,-94.1949137
204,East Jefferson Street,64016,39.1350780,-94.1945228
206,East Jefferson Street,64016,39.1350590,-94.1943027
208,East Jefferson Street,64016,39.1350459,-94.1940504
300,East Jefferson Street,64016,39.1350509,-94.1937986
302,East Jefferson Street,64016,39.1350630,-94.1935572
304,East Jefferson Street,64016,39.1350710,-94.1933083
306,East Jefferson Street,64016,39.1350888,-94.1930105
308,East Jefferson Street,64016,39.1349033,-94.1928571
309,East Jefferson Street,64016,39.1346963,-94.1928512
307,East Jefferson Street,64016,39.1345891,-94.1930859
303,East Jefferson Street,64016,39.1346068,-94.1933312
301,East Lake City Buckner Road,64016,39.1346460,-94.1936018
209,East Jefferson Street,64016,39.1346594,-94.1938720
207,East Jefferson Street,64016,39.1346680,-94.1941289
205,East Jefferson Street,64016,39.1346798,-94.1944273
203,East Jefferson Street,64016,39.1346869,-94.1947151
201,East Jefferson Street,64016,39.1346743,-94.1950071
113,East Jefferson Street,64016,39.1347039,-94.1952943
109,East Jefferson Street,64016,39.1347130,-94.1957079
107,East Jefferson Street,64016,39.1346765,-94.1961439
215,South Sibley Street,64016,39.1346054,-94.1969606
223,South Sibley Street,64016,39.1343830,-94.1970172
225,South Sibley Street,64016,39.1342454,-94.1969747
231,South Sibley Street,64016,39.1340938,-94.1970328
231,South Sibley Street,64016,39.1340352,-94.1962972
301,South Sibley Street,64016,39.1337924,-94.1970511
305,South Sibley Street,64016,39.1336601,-94.1970846
313,South Sibley Street,64016,39.1334062,-94.1970816
321,South Sibley Street,64016,39.1331021,-94.1970853
128,South Sibley Street,64016,39.1354924,-94.1975638
131,South Sibley Street,64016,39.1357054,-94.1981304
126,South Hudson Street,64016,39.1356748,-94.1990680
114,South Hudson Street,64016,39.1359999,-94.1989003
100,South Hudson Street,64016,39.1363563,-94.1988710
101,South Hudson Street,64016,39.1362939,-94.1981689
102,Madison Street,64016,39.1364394,-94.1975077
104,South Sibley Street,64016,39.1363010,-94.1975119
112,South Sibley Street,64016,39.1360698,-94.1975369
120,South Sibley Street,64016,39.1357476,-94.1975520
101,South Central Street,64016,39.1364882,-94.1995586
109,South Central Street,64016,39.1363285,-94.1995778
115,South Central Street,64016,39.1361261,-94.1996240
119,South Central Street,64016,39.1359320,-94.1996215
123,South Central Street,64016,39.1357805,-94.1996337
127,South Central Street,64016,39.1356518,-94.1996506
22,West Jefferson Street,64016,39.1354824,-94.1995979
102,South Central Street,64016,39.1364863,-94.2001382
110,South Central Street,64016,39.1362805,-94.2001491
116,South Central Street,64016,39.1360070,-94.2001802
112,West Jefferson Street,64016,39.1356266,-94.2005068
117,South Osage Street,64016,39.1356493,-94.2009963
113,South Osage Street,64016,39.1359422,-94.2009766
109,South Osage Street,64016,39.1362978,-94.2009644
104,South Osage Street,64016,39.1364893,-94.2014818
112,South Osage Street,64016,39.1360960,-94.2014744
108,South Osage Street,64016,39.1362487,-94.2014771
106,South Osage Street,64016,39.1363652,-94.2014523
126,South Osage Street,64016,39.1356795,-94.2014851
30,South Osage Street,64016,39.1368830,-94.2014466
28,South Osage Street,64016,39.1370234,-94.2014386
2,South Osage Street,64016,39.1375466,-94.2014966
15,South Osage Street,64016,39.1376558,-94.2009155
15,South Osage Street,64016,39.1375891,-94.2009233
15,South Osage Street,64016,39.1375257,-94.2009276
15,South Osage Street,64016,39.1374603,-94.2009410
15,South Osage Street,64016,39.1373864,-94.2009397
15,South Osage Street,64016,39.1373219,-94.2009436
15,South Osage Street,64016,39.1374156,-94.2006004
15,South Osage Street,64016,39.1374847,-94.2006044
15,South Osage Street,64016,39.1375466,-94.2006004
15,South Osage Street,64016,39.1376236,-94.2005910
15,South Osage Street,64016,39.1376922,-94.2005990
15,South Osage Street,64016,39.1373016,-94.2006184
15,South Osage Street,64016,39.1372497,-94.2009236
15,South Osage Street,64016,39.1372387,-94.2006227
21,South Osage Street,64016,39.1371458,-94.2008791
25,South Osage Street,64016,39.1369283,-94.2009030
106,Madison Street,64016,39.1368921,-94.2006549
24,South Central Street,64016,39.1369294,-94.2004503
24,South Central Street,64016,39.1371386,-94.2002258
20,South Central Street,64016,39.1372805,-94.2000624
10,South Central Street,64016,39.1377238,-94.2002397
17,South Central Street,64016,39.1374929,-94.1994341
15,West Monroe Street,64016,39.1377363,-94.1993456
21,South Central Street,64016,39.1371566,-94.1995232
27,South Central Street,64016,39.1368373,-94.1995505
34,Madison Street,64016,39.1368494,-94.1992497
30,South Hudson Street,64016,39.1368424,-94.1988402
24,South Hudson Street,64016,39.1369599,-94.1987488
18,South Hudson Street,64016,39.1371028,-94.1987259
14,South Hudson Street,64016,39.1372835,-94.1987267
29,South Hudson Street,64016,39.1367889,-94.1982290
32,South Sibley Street,64016,39.1368284,-94.1976197
26,South Sibley Street,64016,39.1371391,-94.1974844
14,South Sibley Street,64016,39.1373607,-94.1973819
4,South Sibley Street,64016,39.1375668,-94.1974155
2,South Sibley Street,64016,39.1377252,-94.1973827
31,East Monroe Street,64016,39.1377243,-94.1976884
29,East Monroe Street,64016,39.1377039,-94.1980903
7,South Hudson Street,64016,39.1375253,-94.1981476
12,West Monroe Street,64016,39.1385707,-94.1994792
4,West Monroe Street,64016,39.1383324,-94.1989507
6-24,East Monroe Street,64016,39.1385524,-94.1978336
30,East Monroe Street,64016,39.1382194,-94.1972859
114,East Monroe Street,64016,39.1383497,-94.1962372
120,East Monroe Street,64016,39.1382831,-94.1955519
200,East Monroe Street,64016,39.1383303,-94.1949716
320,East Monroe Street,64016,39.1381937,-94.1929995
400,East Monroe Street,64016,39.1381833,-94.1909040
611,South Sibley Street,64016,39.1301517,-94.1968496
1001,South Sibley Street,64016,39.1253432,-94.1973845
920,Oat Lane,64016,39.1260077,-94.1967950
922,Oat Lane,64016,39.1258450,-94.1968045
1000,Oat Lane,64016,39.1256705,-94.1968237
1002,Oat Lane,64016,39.1254854,-94.1968333
1004,Oat Lane,64016,39.1253140,-94.1968468
1006,Oat Lane,64016,39.1251274,-94.1968564
1008,Oat Lane,64016,39.1249559,-94.1968699
1010,Oat Lane,64016,39.1247783,-94.1968853
1012,Oat Lane,64016,39.1245933,-94.1968987
1014,Oat Lane,64016,39.1244173,-94.1969064
1016,Oat Lane,64016,39.1242398,-94.1969199
1018,Oat Lane,64016,39.1240696,-94.1969372
1015,Oat Lane,64016,39.1243248,-94.1964256
1013,Oat Lane,64016,39.1245009,-94.1964160
1011,Oat Lane,64016,39.1246828,-94.1964006
1009,Oat Lane,64016,39.1248545,-94.1963891
1007,Oat Lane,64016,39.1250349,-94.1963775
1005,Oat Lane,64016,39.1252154,-94.1963602
1006,Tarsney Lane,64016,39.1251841,-94.1958353
1008,Tarsney Lane,64016,39.1249991,-94.1958449
1010,Tarsney Lane,64016,39.1248126,-94.1958564
1012,Tarsney Lane,64016,39.1246321,-94.1958737
1014,Tarsney Lane,64016,39.1244427,-94.1958891
1016,Tarsney Lane,64016,39.1242592,-94.1958949
1019,Tarsney Lane,64016,39.1239413,-94.1954295
1017,Tarsney Lane,64016,39.1241219,-94.1954179
1015,Tarsney Lane,64016,39.1242934,-94.1954064
1013,Tarsney Lane,64016,39.1244696,-94.1953910
1011,Tarsney Lane,64016,39.1246455,-94.1953814
1009,Tarsney Lane,64016,39.1248305,-94.1953698
1007,Tarsney Lane,64016,39.1250050,-94.1953545
1005,Tarsney Lane,64016,39.1251796,-94.1953352
1004,Barley Lane,64016,39.1252080,-94.1940910
1006,Barley Lane,64016,39.1250259,-94.1940987
1008,Barley Lane,64016,39.1248410,-94.1941179
1010,Barley Lane,64016,39.1246620,-94.1941295
1009,Barley Lane,64016,39.1248066,-94.1936199
1007,Barley Lane,64016,39.1249828,-94.1936141
1005,Barley Lane,64016,39.1251603,-94.1935987
1003,Barley Lane,64016,39.1253392,-94.1935814
1001,Barley Lane,64016,39.1255182,-94.1935660
923,Barley Lane,64016,39.1257152,-94.1935525
921,Barley Lane,64016,39.1259122,-94.1935391
1011,Barley Lane,64016,39.1245974,-94.1936406
1101,Barley Lane,64016,39.1242637,-94.1936583
1103,Barley Lane,64016,39.1240861,-94.1936756
1024,Barley Lane,64016,39.1242681,-94.1941564
1026,Barley Lane,64016,39.1240861,-94.1941679
1105,Barley Lane,64016,39.1238951,-94.1936987
1107,Barley Lane,64016,39.1237116,-94.1937064
1109,Barley Lane,64016,39.1235430,-94.1938237
202,Manor Lane,64016,39.1258927,-94.1963006
204,Manor Lane,64016,39.1258778,-94.1960718
206,Manor Lane,64016,39.1258689,-94.1958487
208,Manor Lane,64016,39.1258659,-94.1956218
300,Manor Lane,64016,39.1258569,-94.1953891
302,Manor Lane,64016,39.1258480,-94.1951814
304,Manor Lane,64016,39.1258346,-94.1949584
306,Manor Lane,64016,39.1258256,-94.1947390
308,Manor Lane,64016,39.1258167,-94.1945103
310,Manor Lane,64016,39.1258062,-94.1942949
312,Manor Lane,64016,39.1257973,-94.1940699
309,Manor Lane,64016,39.1254273,-94.1944276
307,Manor Lane,64016,39.1254347,-94.1946372
305,Manor Lane,64016,39.1254437,-94.1948526
303,Manor Lane,64016,39.1254526,-94.1950621
301,Manor Lane,64016,39.1254646,-94.1953007
207,Manor Lane,64016,39.1254885,-94.1958372
205,Manor Lane,64016,39.1254929,-94.1960737
203,Manor Lane,64016,39.1255093,-94.1963179
102,Village Lane,64016,39.1241085,-94.1977371
104,Village Lane,64016,39.1240980,-94.1975218
106,Village Lane,64016,39.1240906,-94.1973084
103,Village Lane,64016,39.1236937,-94.1977622
105,Village Lane,64016,39.1236863,-94.1975487
107,Village Lane,64016,39.1236773,-94.1973411
109,Village Lane,64016,39.1236728,-94.1971334
111,Village Lane,64016,39.1236594,-94.1969103
201,Village Lane,64016,39.1236505,-94.1966853
207,Village Lane,64016,39.1235669,-94.1959526
301,Village Lane,64016,39.1235415,-94.1954544
303,Village Lane,64016,39.1235341,-94.1952199
305,Village Lane,64016,39.1235281,-94.1949891
307,Village Lane,64016,39.1235162,-94.1947622
309,Village Lane,64016,39.1235057,-94.1945391
308,Village Lane,64016,39.1238847,-94.1945987
306,Village Lane,64016,39.1238936,-94.1948218
304,Village Lane,64016,39.1239011,-94.1950583
310,Village Lane,64016,39.1239130,-94.1942525
311,Village Lane,64016,39.1234982,-94.1942987
313,Village Lane,64016,39.1234788,-94.1940583
202,Village Lane,64016,39.1240175,-94.1964391
204,Village Lane,64016,39.1239786,-94.1961891
205,Village Lane,64016,39.1235997,-94.1962083
206,Village Lane,64016,39.1239384,-94.1959410
203,Village Lane,64016,39.1236340,-94.1964391
1022,Village Court,64016,39.1243472,-94.1944872
1020,Village Court,64016,39.1244814,-94.1946660
1018,Village Court,64016,39.1246187,-94.1948237
1016,Village Court,64016,39.1248081,-94.1948871
1014,Village Court,64016,39.1249828,-94.1947622
1012,Village Court,64016,39.1250394,-94.1945103
800,Council Street,64016,39.1272477,-94.1973923
704,Council Street,64016,39.1276845,-94.1973603
702,Council Street,64016,39.1279943,-94.1974326
703,Council Street,64016,39.1276657,-94.1968801
801,Council Street,64016,39.1272280,-94.1969141
802,Council Street,64016,39.1269845,-94.1974264
804,Council Street,64016,39.1267281,-94.1974488
803,Council Street,64016,39.1269604,-94.1969070
805,Council Street,64016,39.1266983,-94.1969295
806,Council Street,64016,39.1264612,-94.1975107
807,Council Street,64016,39.1264221,-94.1968842
808,Council Street,64016,39.1262334,-94.1972366
700,Council Street,64016,39.1282014,-94.1970977
701,Council Street,64016,39.1279593,-94.1967927
401,South Sibley Street,64016,39.1326234,-94.1970877
32410,East Lake City Buckner Road,64016,39.1326198,-94.1965261
401,South Osage Street,64016,39.1325128,-94.2012159
501,South Hudson Street,64016,39.1319231,-94.1986208
505,South Hudson Street,64016,39.1317854,-94.1986242
507,South Hudson Street,64016,39.1315980,-94.1986008
513,South Hudson Street,64016,39.1314134,-94.1986632
517,South Hudson Street,64016,39.1312000,-94.1986564
521,South Hudson Street,64016,39.1309536,-94.1986536
1,East Hedrick Avenue,64016,39.1305666,-94.1987128
5,East Lake City Buckner Road,64016,39.1320209,-94.1980070
502,South Sibley Street,64016,39.1319565,-94.1977702
506,South Sibley Street,64016,39.1317037,-94.1978189
510,South Sibley Street,64016,39.1314095,-94.1978396
512,South Sibley Street,64016,39.1311560,-94.1978776
518,South Sibley Street,64016,39.1308734,-94.1978466
520,South Sibley Street,64016,39.1305495,-94.1978840
611,South Hudson Street,64016,39.1301464,-94.1986180
612,South Sibley Street,64016,39.1301982,-94.1978943
624,South Sibley Street,64016,39.1299527,-94.1979333
626,South Sibley Street,64016,39.1296969,-94.1979137
625,South Hudson Street,64016,39.1296943,-94.1986641
17,Broyles Street,64016,39.1293293,-94.1979349
13,Broyles Street,64016,39.1293364,-94.1982326
9,Broyles Street,64016,39.1293476,-94.1985226
703,South Hudson Street,64016,39.1293139,-94.1987824
711,South Hudson Street,64016,39.1290597,-94.1987755
719,South Hudson Street,64016,39.1288274,-94.1988056
721,South Hudson Street,64016,39.1285971,-94.1988032
723,South Hudson Street,64016,39.1283305,-94.1987989
725,South Sibley Street,64016,39.1280898,-94.1988625
727,South Hudson Street,64016,39.1278218,-94.1988793
800,South Sibley Street,64016,39.1273519,-94.1982412
800,South Hudson Street,64016,39.1274438,-94.1994380
712,South Sibley Street,64016,39.1280175,-94.1982141
702,South Sibley Street,64016,39.1288068,-94.1981486
700,South Sibley Street,64016,39.1290711,-94.1980784
904,South Sibley Street,64016,39.1268848,-94.1981774
901,Reser Court,64016,39.1269142,-94.1985594
908,Reser Street,64016,39.1266712,-94.1981275
902,Reser Court,64016,39.1269246,-94.1989376
7,Reser Street,64016,39.1264817,-94.1989475
9,Reser Street,64016,39.1264474,-94.1985172
912,South Sibley Street,64016,39.1262357,-94.1982083
5,Reser Street,64016,39.1265580,-94.2000266
730,South Hudson Street,64016,39.1278792,-94.1993662
724,South Hudson Street,64016,39.1282078,-94.1993580
722,South Hudson Street,64016,39.1284792,-94.1993244
712,South Hudson Street,64016,39.1287446,-94.1993570
710,South Hudson Street,64016,39.1290356,-94.1993032
706,Broyles Street,64016,39.1293099,-94.1992920
717,South Central Street,64016,39.1293398,-94.2000230
719,South Central Street,64016,39.1290888,-94.2000814
721,South Central Street,64016,39.1288703,-94.2000973
723,South Central Street,64016,39.1286326,-94.2001092
725,South Central Street,64016,39.1283884,-94.2000948
727,South Central Street,64016,39.1281154,-94.2001442
731,South Central Street,64016,39.1278871,-94.2001959
730,South Central Street,64016,39.1278360,-94.2007157
728,South Central Street,64016,39.1281443,-94.2007062
720,South Central Street,64016,39.1286512,-94.2006525
105,McLaughlin Street,64016,39.1290255,-94.2008742
109,McLaughlin Street,64016,39.1290315,-94.2012074
117,McLaughlin Street,64016,39.1290355,-94.2015693
719,Elliot Street,64016,39.1291498,-94.2021559
711,Elliot Street,64016,39.1293444,-94.2021194
705,Elliot Street,64016,39.1295794,-94.2021597
623,Elliot Street,64016,39.1298874,-94.2020933
117,Elm Street,64016,39.1298442,-94.2018281
113,Elm Street,64016,39.1298099,-94.2014108
107,Elm Street,64016,39.1298429,-94.2011615
105,Elm Street,64016,39.1298259,-94.2007973
624,South Central Street,64016,39.1297644,-94.2005198
628,South Central Street,64016,39.1294069,-94.2005459
106,McLaughlin Street,64016,39.1293762,-94.2008447
110,McLaughlin Street,64016,39.1293834,-94.2011478
112,McLaughlin Street,64016,39.1294338,-94.2015014
720,Elliot Street,64016,39.1289881,-94.2026929
710,Elliot Street,64016,39.1292853,-94.2028179
708,Elliot Street,64016,39.1294854,-94.2026819
624,Elliot Street,64016,39.1296833,-94.2026691
622,Elliot Street,64016,39.1298939,-94.2026769
620,Elliot Street,64016,39.1301161,-94.2026166
221,Lake City Road,64016,39.1302923,-94.2026396
301,Lake City Road,64016,39.1302656,-94.2030346
606,South Central Street,64016,39.1302006,-94.2005126
102,Elm Street,64016,39.1302027,-94.2008379
106,Elm Street,64016,39.1302360,-94.2014757
104,Elm Street,64016,39.1302102,-94.2011797
619,Elliot Street,64016,39.1302455,-94.2021124
607,Elliot Street,64016,39.1305455,-94.2020971
111,Lake City Road,64016,39.1306929,-94.2014431
604,South Central Street,64016,39.1304487,-94.2004791
602,South Central Street,64016,39.1306971,-94.2004744
103,Lake City Road,64016,39.1310590,-94.2006858
509,South Central Street,64016,39.1312866,-94.1999174
511,South Central Street,64016,39.1309273,-94.1999648
601,South Central Street,64016,39.1306607,-94.1999885
603,South Central Street,64016,39.1305239,-94.1999967
605,South Central Street,64016,39.1302936,-94.1999907
611,South Central Street,64016,39.1300871,-94.2000033
24,Broyles Street,64016,39.1297450,-94.1998954
624,South Hudson Street,64016,39.1296986,-94.1992163
612,South Hudson Street,64016,39.1300535,-94.1992477
610,South Hudson Street,64016,39.1302383,-94.1991563
602,South Hudson Street,64016,39.1305722,-94.1991464
520,South Hudson Street,64016,39.1309490,-94.1991413
516,South Hudson Street,64016,39.1311866,-94.1991331
510,South Hudson Street,64016,39.1314558,-94.1991481
506,South Hudson Street,64016,39.1316411,-94.1990987
502,South Hudson Street,64016,39.1318300,-94.1990587
501,South Sibley Street,64016,39.1320165,-94.1972109
505,South Sibley Street,64016,39.1317557,-94.1972301
507,South Sibley Street,64016,39.1314739,-94.1969151
509,South Sibley Street,64016,39.1312709,-94.1969282
513,South Sibley Street,64016,39.1313654,-94.1973359
511,South Sibley Street,64016,39.1312667,-94.1971456
601,South Sibley Street,64016,39.1306253,-94.1970741
500,Oat Circle,64016,39.1320763,-94.1965626
501,Oat Circle,64016,39.1321224,-94.1960108
502,Oat Circle,64016,39.1317972,-94.1964713
505,Oat Circle,64016,39.1317004,-94.1961884
503,Oat Circle,64016,39.1318706,-94.1959392
506,Tarsney Lane,64016,39.1316102,-94.1954486
504,Tarsney Lane,64016,39.1318064,-94.1954741
502,Tarsney Lane,64016,39.1319932,-94.1954894
500,Tarsney Lane,64016,39.1321624,-94.1955148
501,Tarsney Lane,64016,39.1322278,-94.1950468
503,Tarsney Lane,64016,39.1320331,-94.1949944
505,Tarsney Lane,64016,39.1318576,-94.1949850
507,Tarsney Lane,64016,39.1316781,-94.1949321
509,Tarsney Lane,64016,39.1314921,-94.1949331
511,Tarsney Lane,64016,39.1312676,-94.1949276
209,Millview Drive,64016,39.1313140,-94.1954526
207,Millview Drive,64016,39.1312729,-94.1956911
205,Millview Drive,64016,39.1313050,-94.1959321
203,Millview Drive,64016,39.1313275,-94.1961589
201,Millview Drive,64016,39.1313398,-94.1964241
200,Millview Drive,64016,39.1311397,-94.1965997
202,Millview Drive,64016,39.1309056,-94.1964475
204,Millview Drive,64016,39.1309340,-94.1961850
206,Millview Drive,64016,39.1309203,-94.1959472
208,Millview Drive,64016,39.1309011,-94.1957031
210,Millview Drive,64016,39.1308646,-94.1954457
300,Millview Drive,64016,39.1308412,-94.1949860
302,Millview Drive,64016,39.1308666,-94.1947098
304,Millview Drive,64016,39.1308209,-94.1944184
400,Millview Drive,64016,39.1308060,-94.1939719
402,Millview Drive,64016,39.1308201,-94.1937220
404,Millview Drive,64016,39.1308110,-94.1934923
406,Millview Drive,64016,39.1308037,-94.1932644
408,Millview Drive,64016,39.1307944,-94.1930203
407,Millview Drive,64016,39.1311616,-94.1930082
405,Millview Drive,64016,39.1311720,-94.1932631
403,Millview Drive,64016,39.1311834,-94.1935246
513,Alfalfa Lane,64016,39.1312224,-94.1939234
512,Alfalfa Lane,64016,39.1312376,-94.1944084
510,Alfalfa Lane,64016,39.1314134,-94.1943922
511,Alfalfa Lane,64016,39.1314144,-94.1939067
509,Alfalfa Lane,64016,39.1316022,-94.1939111
508,Alfalfa Lane,64016,39.1315908,-94.1943963
506,Alfalfa Lane,64016,39.1317597,-94.1944457
507,Alfalfa Lane,64016,39.1317801,-94.1939416
505,Alfalfa Lane,64016,39.1319633,-94.1939675
504,Alfalfa Lane,64016,39.1319363,-94.1944450
502,Alfalfa Lane,64016,39.1321145,-94.1944768
503,Alfalfa Lane,64016,39.1321395,-94.1939980
501,Alfalfa Lane,64016,39.1323371,-94.1940395
500,Alfalfa Lane,64016,39.1322854,-94.1945211
500,Barley Court,64016,39.1323787,-94.1935433
502,Barley Court,64016,39.1321885,-94.1935176
504,Barley Court,64016,39.1318952,-94.1935834
506,Barley Court,64016,39.1317068,-94.1935390
509,Barley Court,64016,39.1315872,-94.1931799
507,Barley Court,64016,39.1317037,-94.1929739
505,Barley Court,64016,39.1319557,-94.1929636
503,Barley Court,64016,39.1322093,-94.1930363
501,Barley Court,64016,39.1324228,-94.1930407
100,Echo Ridge,64016,39.1232159,-94.1977338
102,Echo Ridge,64016,39.1232102,-94.1974710
104,Echo Ridge,64016,39.1232015,-94.1972260
106,Echo Ridge,64016,39.1231928,-94.1969828
200,Echo Ridge,64016,39.1231840,-94.1967397
202,Echo Ridge,64016,39.1231767,-94.1964909
206,Echo Ridge,64016,39.1231637,-94.1959970
300,Echo Ridge,64016,39.1231433,-94.1954733
302,Echo Ridge,64016,39.1231390,-94.1952451
305,Echo Ridge,64016,39.1227211,-94.1948841
303,Echo Ridge,64016,39.1227327,-94.1951441
301,Echo Ridge,64016,39.1227357,-94.1954172
209,Echo Ridge,64016,39.1227516,-94.1956791
207,Echo Ridge,64016,39.1227588,-94.1959409
207,Lela Lane,64016,39.1219491,-94.1956622
301,Lela Lane,64016,39.1219404,-94.1954116
303,Lela Lane,64016,39.1219390,-94.1951721
307,Lela Lane,64016,39.1219172,-94.1946784
309,Lela Lane,64016,39.1219088,-94.1944316
403,Lela Lane,64016,39.1218867,-94.1936945
306,Lela Lane,64016,39.1223105,-94.1946428
302,Lela Lane,64016,39.1223308,-94.1951721
304,Lela Lane,64016,39.1223235,-94.1949103
206,Lela Lane,64016,39.1223626,-94.1959690
202,Lela Lane,64016,39.1223787,-94.1964946
200,Lela Lane,64016,39.1223873,-94.1967471
104,Lela Lane,64016,39.1224541,-94.1972671
103,Lela Lane,64016,39.1219564,-94.1974168
103,Echo Ridge,64016,39.1228154,-94.1975010
105,Echo Ridge,64016,39.1228110,-94.1972578
101,Echo Ridge,64016,39.1228241,-94.1977534
1203,Ben Street,64016,39.1227740,-94.1967519
203,Echo Ridge,64016,39.1227773,-94.1964680
205,Echo Ridge,64016,39.1227523,-94.1962043
307,Echo Ridge,64016,39.1227011,-94.1946163
309,Echo Ridge,64016,39.1226489,-94.1943180
1201,Echo Ridge,64016,39.1228909,-94.1937487
1203,Echo Ridge,64016,39.1226605,-94.1937459
1205,Echo Ridge,64016,39.1224693,-94.1937815
1207,Echo Ridge,64016,39.1222763,-94.1937573
401,Lela Lane,64016,39.1218622,-94.1939402
311,Lela Lane,64016,39.1218884,-94.1942021
305,Lela Lane,64016,39.1219199,-94.1949203
205,Lela Lane,64016,39.1219459,-94.1959059
203,Lela Lane,64016,39.1219629,-94.1961804
201,Lela Lane,64016,39.1219864,-94.1966616
107,Lela Lane,64016,39.1219811,-94.1969115
105,Lela Lane,64016,39.1219701,-94.1971595
101,Lela Lane,64016,39.1220282,-94.1977030
100,Lela Lane,64016,39.1222968,-94.1977839
102,Lela Lane,64016,39.1224698,-94.1975361
204,Lela Lane,64016,39.1223848,-94.1962250
208,Lela Lane,64016,39.1223464,-94.1957022
300,Lela Lane,64016,39.1223435,-94.1954355
808,Tall Chief Street,64016,39.1263064,-94.1963915
806,Tall Chief Street,64016,39.1265076,-94.1965606
201,Lookout Street,64016,39.1263060,-94.1960755
203,Lookout Street,64016,39.1263151,-94.1957910
205,Lookout Street,64016,39.1262801,-94.1954926
207,Lookout Street,64016,39.1262677,-94.1952017
209,Lookout Street,64016,39.1262060,-94.1949096
211,Lookout Street,64016,39.1261985,-94.1945751
807,Homeland Street,64016,39.1263855,-94.1943869
805,Homeland Street,64016,39.1266430,-94.1944633
803,Homeland Street,64016,39.1268910,-94.1944225
707,Homeland Street,64016,39.1275294,-94.1943994
705,Homeland Street,64016,39.1277746,-94.1943656
701,Homeland Street,64016,39.1282678,-94.1942696
210,White Tail Street,64016,39.1284760,-94.1944394
208,White Tail Street,64016,39.1284636,-94.1947495
206,White Tail Street,64016,39.1284476,-94.1950454
204,White Tail Street,64016,39.1284663,-94.1953301
202,White Tail Street,64016,39.1284732,-94.1956285
200,White Tail Street,64016,39.1285122,-94.1959233
700,Tall Chief Street,64016,39.1285447,-94.1962400
702,Tall Chief Street,64016,39.1283605,-94.1964520
704,Tall Chief Street,64016,39.1280946,-94.1964187
706,Tall Chief Street,64016,39.1278686,-94.1964066
708,Tall Chief Street,64016,39.1276400,-94.1964313
800,Tall Chief Street,64016,39.1272364,-94.1964943
802,Tall Chief Street,64016,39.1269869,-94.1964757
803,Tall Chief Street,64016,39.1269621,-94.1959959
804,Tall Chief Street,64016,39.1267415,-94.1964895
801,Tall Chief Street,64016,39.1272097,-94.1959758
805,Tall Chief Street,64016,39.1267275,-94.1959823
202,Lookout Street,64016,39.1267077,-94.1956160
804,Homeland Street,64016,39.1266734,-94.1949870
802,Homeland Street,64016,39.1269232,-94.1949736
800,Homeland Street,64016,39.1271593,-94.1949553
203,Ceremonial Drive,64016,39.1271917,-94.1955826
702,Homeland Street,64016,39.1280260,-94.1949064
204,Ceremonial Drive,64016,39.1275625,-94.1952843
202,Ceremonial Drive,64016,39.1275691,-94.1955589
707,Tall Chief Street,64016,39.1276077,-94.1959194
705,Tall Chief Street,64016,39.1278438,-94.1958976
703,Tall Chief Street,64016,39.1280762,-94.1959030
801,Homeland Street,64016,39.1271173,-94.1943902
703,Homeland Street,64016,39.1280104,-94.1942897
415,West Henthorn Avenue,64016,39.1317154,-94.2047253
417,West Henthorn Avenue,64016,39.1315856,-94.2049973
520,Hazel Road,64016,39.1313536,-94.2042229
510,Hazel Road,64016,39.1316408,-94.2042074
416,West Hedrick Avenue,64016,39.1310652,-94.2047941
424,West Hedrick Avenue,64016,39.1310938,-94.2051262
430,West Hedrick Avenue,64016,39.1311661,-94.2056990
509,Vernon Road,64016,39.1311167,-94.2061503
507,Vernon Road,64016,39.1313447,-94.2061453
505,Vernon Road,64016,39.1315777,-94.2061355
503,Vernon Road,64016,39.1317758,-94.2060868
425,West Henthorn Avenue,64016,39.1317600,-94.2056155
504,Vernon Road,64016,39.1317174,-94.2065817
506,Vernon Road,64016,39.1315106,-94.2065923
508,Vernon Road,64016,39.1313076,-94.2066120
510,Vernon Road,64016,39.1311207,-94.2066111
614,Vernon Road,64016,39.1308830,-94.2066182
616,Vernon Road,64016,39.1305561,-94.2066469
618,Vernon Road,64016,39.1303145,-94.2066653
620,Vernon Road,64016,39.1300325,-94.2066995
502,Vernon Road,64016,39.1320446,-94.2065333
408,Vernon Road,64016,39.1322313,-94.2065412
406,Vernon Road,64016,39.1324414,-94.2065049
404,Vernon Road,64016,39.1326448,-94.2064917
402,Vernon Road,64016,39.1328466,-94.2064829
306,Vernon Road,64016,39.1330489,-94.2065226
304,Vernon Road,64016,39.1332536,-94.2064471
409,Adams Street,64016,39.1334045,-94.2058858
407,Adams Street,64016,39.1334221,-94.2055888
405,Adams Street,64016,39.1334303,-94.2052701
403,Adams Street,64016,39.1333882,-94.2048745
320,Hazel Road,64016,39.1333174,-94.2039114
328,Hazel Road,64016,39.1330582,-94.2039426
408,Washington Street,64016,39.1330763,-94.2049511
420,Washington Street,64016,39.1331548,-94.2060270
416,Washington Street,64016,39.1331177,-94.2056391
419,Washington Street,64016,39.1327321,-94.2060149
401,Vernon Road,64016,39.1325427,-94.2059932
407,Vernon Road,64016,39.1323227,-94.2059706
409,Vernon Road,64016,39.1321597,-94.2058645
422,West Henthorn Avenue,64016,39.1321751,-94.2056142
404,West Henthorn Avenue,64016,39.1320573,-94.2046306
416,Hazel Road,64016,39.1321234,-94.2041078
412,Hazel Road,64016,39.1323970,-94.2039734
410,Hazel Road,64016,39.1326200,-94.2039986
403,Washington Street,64016,39.1326763,-94.2047127
407,Washington Street,64016,39.1326729,-94.2049927
411,Washington Street,64016,39.1327017,-94.2052415
415,Washington Street,64016,39.1327258,-94.2055342
507,Hazel Road,64016,39.1316719,-94.2037232
521,Hazel Road,64016,39.1315007,-94.2037313
523,Hazel Road,64016,39.1312479,-94.2037782
527,Hazel Road,64016,39.1309463,-94.2035678
529,Hazel Road,64016,39.1307681,-94.2038209
531,Hazel Road,64016,39.1305234,-94.2038096
405,West Hedrick Avenue,64016,39.1306113,-94.2043047
407,West Hedrick Avenue,64016,39.1302669,-94.2045667
425,West Hedrick Avenue,64016,39.1306988,-94.2053503
417,West Hedrick Avenue,64016,39.1307032,-94.2049225
435,West Hedrick Avenue,64016,39.1306793,-94.2058317
530,Zoe Avenue,64016,39.1310333,-94.2030499
522,Zoe Avenue,64016,39.1312030,-94.2030612
514,Zoe Avenue,64016,39.1316161,-94.2029884
502,Zoe Avenue,64016,39.1319302,-94.2029835
415,Hazel Road,64016,39.1319779,-94.2035822
411,Hazel Road,64016,39.1322594,-94.2035593
416,Zoe Avenue,64016,39.1322261,-94.2029876
407,Hazel Road,64016,39.1324636,-94.2035216
303,Washington Street,64016,39.1326239,-94.2034666
404,Zoe Avenue,64016,39.1326221,-94.2029442
408,Zoe Avenue,64016,39.1324577,-94.2029656
405,Zoe Avenue,64016,39.1326118,-94.2025053
407,Zoe Avenue,64016,39.1324140,-94.2024794
415,Zoe Avenue,64016,39.1321728,-94.2024981
402,South Osage Street,64016,39.1325859,-94.2017388
406,South Osage Street,64016,39.1323833,-94.2017493
414,South Osage Street,64016,39.1321643,-94.2017836
503,Zoe Avenue,64016,39.1319006,-94.2025138
509,Zoe Avenue,64016,39.1316829,-94.2025368
515,Zoe Avenue,64016,39.1314579,-94.2025486
504,South Osage Street,64016,39.1317679,-94.2017651
409,South Osage Street,64016,39.1322599,-94.2012319
415,South Osage Street,64016,39.1320963,-94.2012925
109,Grant Street,64016,39.1318159,-94.2010284
507,South Osage Street,64016,39.1318010,-94.2012929
202,Hostetter Street,64016,39.1408031,-94.1942322
119,Hostetter Street,64016,39.1404863,-94.1936722
120,Hostetter Street,64016,39.1405008,-94.1942598
217,Hostetter Street,64016,39.1417053,-94.1936295
111,Hostetter Street,64016,39.1399354,-94.1936859
107,Hostetter Street,64016,39.1396240,-94.1937610
108,Hostetter Street,64016,39.1396609,-94.1943263
112,Hostetter Street,64016,39.1399398,-94.1943070
116,Hostetter Street,64016,39.1402179,-94.1943128
115,Hostetter Street,64016,39.1402011,-94.1936878
201,Hostetter Street,64016,39.1407693,-94.1936498
204,Hostetter Street,64016,39.1410770,-94.1942173
210,Hostetter Street,64016,39.1413386,-94.1941827
205,Hostetter Street,64016,39.1410584,-94.1936348
209,Hostetter Street,64016,39.1413351,-94.1936160
104,Hostetter Street,64016,39.1393811,-94.1943764
103,Hostetter Street,64016,39.1393644,-94.1937679
102,Hostetter Street,64016,39.1390128,-94.1944271
101,Hostetter Street,64016,39.1390962,-94.1938449
21,Hostetter Street,64016,39.1388298,-94.1941155
17,Hostetter Street,64016,39.1386582,-94.1941090
15,Hostetter Street,64016,39.1384300,-94.1941377
307,Ames Street,64016,39.1387237,-94.1936781
309,Ames Street,64016,39.1387507,-94.1933377
311,Ames Street,64016,39.1387576,-94.1930581
100,Erin Street,64016,39.1391627,-94.1931632
102,Erin Street,64016,39.1393566,-94.1931413
104,Erin Street,64016,39.1395314,-94.1931172
106,Erin Street,64016,39.1397145,-94.1930957
108,Erin Street,64016,39.1398913,-94.1930769
110,Erin Street,64016,39.1400681,-94.1930527
112,Erin Street,64016,39.1402491,-94.1930313
114,Erin Street,64016,39.1404260,-94.1930071
200,Erin Street,64016,39.1406277,-94.1929857
201,Erin Street,64016,39.1405883,-94.1925002
117,Erin Street,64016,39.1404031,-94.1925190
115,Erin Street,64016,39.1402054,-94.1925432
113,Erin Street,64016,39.1400390,-94.1925566
111,Erin Street,64016,39.1398559,-94.1925834
109,Erin Street,64016,39.1396792,-94.1926048
107,Erin Street,64016,39.1394960,-94.1926209
105,Erin Street,64016,39.1393236,-94.1926308
103,Erin Street,64016,39.1391374,-94.1926218
101,Erin Street,64016,39.1389387,-94.1926243
313,Ames Street,64016,39.1387838,-94.1927948
203,Erin Street,64016,39.1407900,-94.1924707
202,Erin Street,64016,39.1408239,-94.1930347
204,Erin Street,64016,39.1410325,-94.1931196
320,Allen Street,64016,39.1412208,-94.1929487
322,Allen Street,64016,39.1412431,-94.1927108
324,Allen Street,64016,39.1411807,-94.1924821
326,Allen Street,64016,39.1411645,-94.1922481
218,Hostetter Street,64016,39.1417212,-94.1941754
207,Park Avenue,64016,39.1417869,-94.1947045
203,Park Avenue,64016,39.1417980,-94.1950320
310,East Monroe Street,64016,39.1380573,-94.1937313
304,East Monroe Street,64016,39.1380360,-94.1941048
212,East Monroe Street,64016,39.1381084,-94.1945288
326,East Monroe Street,64016,39.1380087,-94.1925514
328,East Monroe Street,64016,39.1381963,-94.1920569
100,Cliff Drive,64016,39.1391096,-94.1919200
30,Cliff Drive,64016,39.1388787,-94.1916640
102,Cliff Drive,64016,39.1393743,-94.1919725
104,Cliff Drive,64016,39.1396201,-94.1919614
106,Cliff Drive,64016,39.1398423,-94.1919142
108,Cliff Drive,64016,39.1400661,-94.1918941
110,Cliff Drive,64016,39.1402824,-94.1918807
112,Cliff Drive,64016,39.1404988,-94.1918994
114,Cliff Drive,64016,39.1407512,-94.1919023
113,Cliff Drive,64016,39.1407463,-94.1913555
111,Cliff Drive,64016,39.1404881,-94.1913688
109,Cliff Drive,64016,39.1402620,-94.1913948
107,Cliff Drive,64016,39.1400432,-94.1914032
105,Cliff Drive,64016,39.1398258,-94.1914276
103,Cliff Drive,64016,39.1396116,-94.1914594
101,Cliff Drive,64016,39.1393567,-94.1913715
100,Lee Street,64016,39.1392766,-94.1909053
102,Lee Street,64016,39.1394976,-94.1908499
104,Lee Street,64016,39.1396958,-94.1908346
106,Lee Street,64016,39.1399038,-94.1908212
108,Lee Street,64016,39.1401139,-94.1908024
110,Lee Street,64016,39.1403115,-94.1907917
112,Lee Street,64016,39.1405216,-94.1907756
111,Lee Street,64016,39.1404426,-94.1903169
109,Lee Street,64016,39.1402658,-94.1903277
107,Lee Street,64016,39.1401056,-94.1903384
105,Lee Street,64016,39.1399329,-94.1903518
118,Baker Street,64016,39.1403947,-94.1893808
116,Baker Street,64016,39.1402367,-94.1893889
114,Baker Street,64016,39.1400682,-94.1893996
112,Baker Street,64016,39.1399001,-94.1894207
110,Baker Street,64016,39.1397176,-94.1894415
108,Baker Street,64016,39.1395460,-94.1894318
106,Baker Street,64016,39.1393650,-94.1894452
107,Baker Street,64016,39.1393629,-94.1889678
109,Baker Street,64016,39.1395502,-94.1889570
111,Baker Street,64016,39.1397269,-94.1889436
113,Baker Street,64016,39.1398997,-94.1889356
115,Baker Street,64016,39.1400827,-94.1889195
117,Baker Street,64016,39.1402596,-94.1889115
119,Baker Street,64016,39.1404364,-94.1888927
105,Baker Street,64016,39.1391720,-94.1889695
104,Baker Street,64016,39.1391716,-94.1894613
102,Baker Street,64016,39.1389634,-94.1894747
100,Baker Street,64016,39.1387430,-94.1895337
103,Baker Street,64016,39.1389489,-94.1889812
101,Baker Street,64016,39.1387034,-94.1890080
99,Baker Street,64016,39.1384408,-94.1892127
97,Baker Street,64016,39.1382411,-94.1892581
95,Baker Street,64016,39.1379535,-94.1891797
104,Cooper Street,64016,39.1391257,-94.1883777
106,Cooper Street,64016,39.1393067,-94.1883696
108,Cooper Street,64016,39.1394878,-94.1883589
110,Cooper Street,64016,39.1396812,-94.1883428
112,Cooper Street,64016,39.1398622,-94.1883321
114,Cooper Street,64016,39.1400473,-94.1883187
116,Cooper Street,64016,39.1402304,-94.1883106
118,Cooper Street,64016,39.1404197,-94.1883053
120,Cooper Street,64016,39.1406340,-94.1882892
121,Cooper Street,64016,39.1406153,-94.1878198
119,Cooper Street,64016,39.1403927,-94.1878359
117,Cooper Street,64016,39.1402221,-94.1878412
115,Cooper Street,64016,39.1400307,-94.1878520
113,Cooper Street,64016,39.1398289,-94.1878680
111,Cooper Street,64016,39.1396604,-94.1878815
109,Cooper Street,64016,39.1394752,-94.1878895
107,Cooper Street,64016,39.1392901,-94.1879029
105,Cooper Street,64016,39.1391070,-94.1879163
103,Cooper Street,64016,39.1389260,-94.1879190
102,Cooper Street,64016,39.1389385,-94.1883830
121,Baker Street,64016,39.1406411,-94.1888800
120,Baker Street,64016,39.1406523,-94.1893614
602,East Monroe Street,64016,39.1378768,-94.1878947
508,East Monroe Street,64016,39.1380835,-94.1888401
97,Lee Street,64016,39.1388762,-94.1911215
95,Lee Street,64016,39.1387640,-94.1908909
307,Prairie Avenue,64016,39.1424343,-94.1974303
311,Prairie Avenue,64016,39.1426446,-94.1974067
303,Prairie Avenue,64016,39.1422348,-94.1974389
301,Prairie Avenue,64016,39.1420269,-94.1974576
300,Prairie Avenue,64016,39.1418397,-94.1978863
302,Prairie Avenue,64016,39.1420393,-94.1978654
304,Prairie Avenue,64016,39.1422328,-94.1978626
306,Prairie Avenue,64016,39.1424533,-94.1978546
310,Prairie Avenue,64016,39.1426551,-94.1978386
314,Prairie Avenue,64016,39.1428673,-94.1978279
318,Prairie Avenue,64016,39.1430690,-94.1978117
319,Prairie Avenue,64016,39.1430441,-94.1973826
315,Prairie Avenue,64016,39.1428521,-94.1973878
8,Bart Street,64016,39.1418183,-94.1974060
14,Bart Street,64016,39.1418130,-94.1970774
302,North Sibley Street,64016,39.1422004,-94.1970079
306,North Sibley Street,64016,39.1424207,-94.1969905
310,North Sibley Street,64016,39.1426239,-94.1969721
314,North Sibley Street,64016,39.1428231,-94.1969606
318,North Sibley Street,64016,39.1430317,-94.1969439
15,Dale Street,64016,39.1431961,-94.1969734
104,Dale Street,64016,39.1435178,-94.1977510
321,Prairie Avenue,64016,39.1432259,-94.1973293
1,Dale Street,64016,39.1432496,-94.1981301
315,North Hudson Street,64016,39.1429011,-94.1982261
311,North Hudson Street,64016,39.1426915,-94.1982584
309,North Hudson Street,64016,39.1424856,-94.1982522
305,North Hudson Street,64016,39.1422854,-94.1982622
303,North Hudson Street,64016,39.1420653,-94.1982933
301,North Hudson Street,64016,39.1418625,-94.1983107
314,North Hudson Street,64016,39.1431362,-94.1986594
312,North Hudson Street,64016,39.1428897,-94.1986641
310,North Hudson Street,64016,39.1426863,-94.1986701
308,North Hudson Street,64016,39.1424949,-94.1986835
306,North Hudson Street,64016,39.1422869,-94.1986941
304,North Hudson Street,64016,39.1420788,-94.1987048
302,North Hudson Street,64016,39.1418317,-94.1987558
210,North Hudson Street,64016,39.1415125,-94.1987457
208,North Hudson Street,64016,39.1413293,-94.1987270
206,North Hudson Street,64016,39.1411073,-94.1987478
204,North Hudson Street,64016,39.1408827,-94.1987639
12,Stapleton Street,64016,39.1408951,-94.1993824
204,North Central Street,64016,39.1409770,-94.1999915
118,North Central Street,64016,39.1404535,-94.2000291
206,North Sibley Street,64016,39.1413382,-94.1975130
27,North Hudson Street,64016,39.1394342,-94.1982449
27,North Hudson Street,64016,39.1394257,-94.1979157
20,North Hudson Street,64016,39.1388980,-94.1988970
16,North Hudson Street,64016,39.1385649,-94.1989611
19,North Hudson Street,64016,39.1387484,-94.1984832
26,North Hudson Street,64016,39.1392228,-94.1988919
28,North Hudson Street,64016,39.1393479,-94.1988561
108,North Hudson Street,64016,39.1396457,-94.1988276
110,North Hudson Street,64016,39.1398016,-94.1988436
112,North Hudson Street,64016,39.1399368,-94.1988416
114,North Hudson Street,64016,39.1400488,-94.1988590
116,North Hudson Street,64016,39.1402167,-94.1988538
118,North Hudson Street,64016,39.1403545,-94.1988439
119,North Central Street,64016,39.1404132,-94.1995363
111,North Central Street,64016,39.1399617,-94.1995697
109,North Central Street,64016,39.1398291,-94.1996057
105,North Central Street,64016,39.1395301,-94.1995344
103,North Central Street,64016,39.1394144,-94.1995691
101,North Central Street,64016,39.1392611,-94.1996019
23,North Central Street,64016,39.1390035,-94.1996637
14,North Central Street,64016,39.1386371,-94.2001535
18,North Central Street,64016,39.1388742,-94.2001480
8,North Central Street,64016,39.1384122,-94.2007630
8,North Central Street,64016,39.1384024,-94.2004328
8,North Central Street,64016,39.1383661,-94.2001623
22,North Central Street,64016,39.1391170,-94.2001424
26,North Central Street,64016,39.1392666,-94.2000737
110,North Central Street,64016,39.1398400,-94.2001394
114,North Central Street,64016,39.1401350,-94.2001013
115,North Hudson Street,64016,39.1401118,-94.1983331
115,North Sibley Street,64016,39.1400205,-94.1977355
115,North Sibley Street,64016,39.1402670,-94.1977288
115,North Hudson Street,64016,39.1403378,-94.1983256
115,North Hudson Street,64016,39.1403305,-94.1980198
115,North Hudson Street,64016,39.1401367,-94.1980744
123,North Hudson Street,64016,39.1406771,-94.1982917
203,North Hudson Street,64016,39.1408390,-94.1983366
205,North Hudson Street,64016,39.1410723,-94.1982988
207,North Hudson Street,64016,39.1412941,-94.1982543
209,North Hudson Street,64016,39.1415038,-94.1982424
204,North Sibley Street,64016,39.1409620,-94.1971843
118,North Sibley Street,64016,39.1405410,-94.1971770
116,North Sibley Street,64016,39.1403021,-94.1972049
114,North Sibley Street,64016,39.1400759,-94.1972175
108,North Sibley Street,64016,39.1398168,-94.1973125
104,North Sibley Street,64016,39.1394296,-94.1973148
26,North Sibley Street,64016,39.1391425,-94.1972731
22,North Sibley Street,64016,39.1388989,-94.1972825
13,North Sibley Street,64016,39.1385867,-94.1967566
17,North Sibley Street,64016,39.1387814,-94.1966998
25,North Sibley Street,64016,39.1389726,-94.1966902
27,North Sibley Street,64016,39.1391834,-94.1966744
105,North Sibley Street,64016,39.1396130,-94.1966216
109,North Sibley Street,64016,39.1399183,-94.1965924
111,North Sibley Street,64016,39.1401544,-94.1965905
119,North Sibley Street,64016,39.1404799,-94.1965618
123,North Sibley Street,64016,39.1408227,-94.1965416
209,North Sibley Street,64016,39.1413254,-94.1964951
107,Park Avenue,64016,39.1418024,-94.1964119
106,Park Avenue,64016,39.1422378,-94.1964078
110,Park Avenue,64016,39.1422336,-94.1960668
112,Park Avenue,64016,39.1422254,-94.1956382
118,Park Avenue,64016,39.1421843,-94.1953387
204,Park Avenue,64016,39.1421934,-94.1950616
208,Park Avenue,64016,39.1421586,-94.1946724
210,Park Avenue,64016,39.1421497,-94.1943022
216,Park Avenue,64016,39.1421345,-94.1939690
306,Park Avenue,64016,39.1421491,-94.1936783
308,Park Drive,64016,39.1421416,-94.1934095
310,Park Drive,64016,39.1421227,-94.1930409
312,Park Avenue,64016,39.1420909,-94.1927614
314,Park Avenue,64016,39.1421006,-94.1924746
316,Park Avenue,64016,39.1420688,-94.1922182
320,Park Avenue,64016,39.1420576,-94.1917878
322,Park Avenue,64016,39.1421374,-94.1912705
302,Lee Street,64016,39.1425065,-94.1914168
306,Lee Street,64016,39.1429154,-94.1915043
308,Lee Street,64016,39.1431151,-94.1915057
310,Lee Street,64016,39.1433183,-94.1915469
312,Lee Street,64016,39.1435407,-94.1916384
314,Lee Street,64016,39.1437645,-94.1914798
315,Lee Street,64016,39.1437885,-94.1912390
313,Lee Street,64016,39.1436476,-94.1910147
311,Lee Street,64016,39.1434316,-94.1910047
309,Lee Street,64016,39.1432047,-94.1910564
307,Lee Street,64016,39.1429803,-94.1910463
305,Lee Street,64016,39.1427578,-94.1909886
303,Lee Street,64016,39.1425695,-94.1908663
301,Lee Street,64016,39.1423401,-94.1907194
402,Park Avenue,64016,39.1420078,-94.1907048
404,Park Avenue,64016,39.1419729,-94.1902815
406,Park Avenue,64016,39.1419405,-94.1899379
408,Park Avenue,64016,39.1419248,-94.1896006
410,Park Avenue,64016,39.1419425,-94.1892788
412,Park Avenue,64016,39.1419027,-94.1889181
414,Park Avenue,64016,39.1418825,-94.1885904
416,Park Avenue,64016,39.1418844,-94.1882405
506,Park Avenue,64016,39.1418139,-94.1876965
505,Park Avenue,64016,39.1414663,-94.1877026
503,Park Avenue,64016,39.1415046,-94.1880099
501,Park Avenue,64016,39.1414605,-94.1883706
201,Baker Street,64016,39.1410610,-94.1884318
504,Allen Street,64016,39.1410378,-94.1881389
506,Allen Street,64016,39.1410035,-94.1878999
508,Allen Street,64016,39.1410048,-94.1876544
414,Allen Street,64016,39.1410291,-94.1888993
412,Allen Street,64016,39.1410389,-94.1891926
410,Allen Street,64016,39.1410567,-94.1894381
408,Allen Street,64016,39.1410597,-94.1896701
406,Allen Street,64016,39.1410618,-94.1899343
404,Allen Street,64016,39.1410659,-94.1901797
402,Allen Street,64016,39.1410743,-94.1904198
400,Allen Street,64016,39.1411531,-94.1907348
401,Park Avenue,64016,39.1415543,-94.1906947
403,Park Avenue,64016,39.1415423,-94.1903195
405,Park Avenue,64016,39.1415600,-94.1899705
407,Park Avenue,64016,39.1415313,-94.1895840
409,Park Avenue,64016,39.1415369,-94.1892795
411,Park Avenue,64016,39.1414978,-94.1889387
323,Park Avenue,64016,39.1416522,-94.1912006
321,Park Avenue,64016,39.1416512,-94.1915633
319,Park Avenue,64016,39.1416741,-94.1919174
315,Park Avenue,64016,39.1416789,-94.1923695
313,Park Avenue,64016,39.1417097,-94.1927835
311,Park Avenue,64016,39.1417254,-94.1930684
309,Park Avenue,64016,39.1417451,-94.1933514
328,Allen Street,64016,39.1411233,-94.1918274
330,Allen Street,64016,39.1411538,-94.1913156
114,Lee Street,64016,39.1407469,-94.1908073
113,Lee Street,64016,39.1406713,-94.1902820
20,Johnson Street,64016,39.1387412,-94.1954865
24,Johnson Street,64016,39.1390334,-94.1954621
23,Johnson Street,64016,39.1390085,-94.1949604
114,Lyon Court,64016,39.1403520,-94.1960246
113,Lyon Court,64016,39.1400658,-94.1960609
115,Lyon Court,64016,39.1398974,-94.1957675
117,Lyon Court,64016,39.1399190,-94.1954352
108,Johnson Street,64016,39.1396082,-94.1954205
118,James Street,64016,39.1394298,-94.1954507
114,James Street,64016,39.1394966,-94.1958217
111,James Street,64016,39.1388332,-94.1961146
113,James Street,64016,39.1391171,-94.1960084
117,James Street,64016,39.1391180,-94.1957118
21,Johnson Street,64016,39.1387608,-94.1949816
105,Johnson Street,64016,39.1392470,-94.1949405
107,Johnson Street,64016,39.1395572,-94.1949247
109,Johnson Street,64016,39.1398198,-94.1949433
111,Johnson Street,64016,39.1401039,-94.1949131
201,Johnson Street,64016,39.1403716,-94.1949015
203,Johnson Street,64016,39.1406550,-94.1948662
205,Johnson Street,64016,39.1409307,-94.1947727
207,Johnson Street,64016,39.1411987,-94.1948186
209,Johnson Street,64016,39.1412897,-94.1951797
211,Johnson Street,64016,39.1412775,-94.1955114
213,Johnson Street,64016,39.1413182,-94.1958585
212,Johnson Street,64016,39.1409161,-94.1960567
210,Johnson Street,64016,39.1409117,-94.1957120
208,Johnson Street,64016,39.1408514,-94.1953797
118,Lyon Court,64016,39.1404622,-94.1953950
116,Lyon Court,64016,39.1404522,-94.1957194
115,Park Avenue,64016,39.1418094,-94.1954118
113,Park Avenue,64016,39.1418224,-94.1957157
111,Park Avenue,64016,39.1418297,-94.1960514
100,Cooper Street,64016,39.1387692,-94.1885714
101,Cooper Street,64016,39.1385753,-94.1879908
101,Cooper Street,64016,39.1384073,-94.1879921
101,Cooper Street,64016,39.1382398,-94.1879948
101,Cooper Street,64016,39.1380757,-94.1879933
101,Cooper Street,64016,39.1380388,-94.1878139
508,East Monroe Street,64016,39.1382084,-94.1883704
508,East Monroe Street,64016,39.1382082,-94.1885384
508,East Monroe Street,64016,39.1382399,-94.1887933
508,East Monroe Street,64016,39.1382500,-94.1889091
508,East Monroe Street,64016,39.1384976,-94.1888291
508,East Monroe Street,64016,39.1384968,-94.1885688
508,East Monroe Street,64016,39.1384949,-94.1883042
101,Cooper Street,64016,39.1383489,-94.1878185
307,East Monroe Street,64016,39.1368390,-94.1947217
307,East Monroe Street,64016,39.1368159,-94.1944846
307,East Monroe Street,64016,39.1368202,-94.1943622
307,East Monroe Street,64016,39.1366403,-94.1944400
307,East Monroe Street,64016,39.1366340,-94.1945567
307,East Monroe Street,64016,39.1366507,-94.1946747
307,East Monroe Street,64016,39.1366288,-94.1943179
307,East Monroe Street,64016,39.1366288,-94.1942013
307,East Monroe Street,64016,39.1368150,-94.1942456
307,East Monroe Street,64016,39.1368346,-94.1941420
307,East Monroe Street,64016,39.1370564,-94.1944440
307,East Monroe Street,64016,39.1372415,-94.1944347
307,East Monroe Street,64016,39.1372270,-94.1945433
307,East Monroe Street,64016,39.1372395,-94.1943207
307,East Monroe Street,64016,39.1375611,-94.1942761
311,East Monroe Street,64016,39.1375213,-94.1938970
315,East Monroe Street,64016,39.1375170,-94.1936100
319,East Monroe Street,64016,39.1374574,-94.1931593
321,East Monroe Street,64016,39.1374546,-94.1929050
327,East Monroe Street,64016,39.1374524,-94.1925598
307,East Monroe Street,64016,39.1370751,-94.1942026
307,East Monroe Street,64016,39.1370657,-94.1943220
307,East Monroe Street,64016,39.1369014,-94.1939143
307,East Monroe Street,64016,39.1367851,-94.1939108
307,East Monroe Street,64016,39.1366778,-94.1939237
307,East Monroe Street,64016,39.1365706,-94.1939263
307,East Monroe Street,64016,39.1364594,-94.1939371
325,Zoe Avenue,64016,39.1330548,-94.2024817
1002,Barley Lane,64016,39.1253969,-94.1941111
103,McLaughlin Street,64016,39.1290147,-94.2005979
905,Reser Court,64016,39.1267385,-94.1985540
104,North Central Street,64016,39.1396387,-94.2000466
13,South Sibley Street,64016,39.1370520,-94.1964888
103,Lee Street,64016,39.1392126,-94.1901776
