House number,Street name,Postal code,Latitude,Longitude
2317,Clarkson Road,63005,38.6259119,-90.5839828
15945,Clayton Road,63011,38.6053753,-90.5876466
15977,Clayton Road,63011,38.6053616,-90.5898682
15933,Clayton Road,63011,38.6067711,-90.5873530
16025,Clayton Road,63011,38.6057092,-90.5910195
15959,Clayton Road,63011,38.6053855,-90.5880494
2730,Valley Road,63011,38.6068872,-90.5934886
2227,Devonsbrook Drive,63005,38.6288267,-90.5884605
16719,Kehrs Mill Estates Drive,63005,38.6277964,-90.5987389
16672,Kehrsgrove Drive,63005,38.6275546,-90.5922766
16847,Kehrsdale Drive,63005,38.6307055,-90.6075950
16764,Kehrs Mill Estates Drive,63005,38.6286614,-90.6034174
2220,Kehrsglen Court,63005,38.6261170,-90.5956491
2207,Kehrsgrove Court,63005,38.6260321,-90.5931915
2226,Whitney Pointe Drive,63005,38.6295064,-90.5900567
16833,Kehrsbrooke Court,63005,38.6280862,-90.6055657
16656,Kehrsgrove Drive,63005,38.6274129,-90.5913634
1605,Horseshoe Ridge Road,63005,38.6410460,-90.5967823
136,Highgrove Lane,63005,38.6122571,-90.5863889
2126,Kehrs Ridge Drive,63005,38.6306120,-90.6017071
202,Herworth Drive,63005,38.6124945,-90.5940404
234,Herworth Drive,63005,38.6118577,-90.5952328
2016,Kingspointe Drive,63005,38.6344108,-90.5994447
2214,Kehrsgrove Court,63005,38.6258703,-90.5918646
9,Kingspointe Court,63005,38.6355310,-90.6001128
20,Jennycliffe Lane,63005,38.6217448,-90.5863801
1868,Kehrswood Drive,63005,38.6292076,-90.5962333
133,Forest Club Drive,63005,38.6114172,-90.5886587
16525,Saddle Creek Road,63005,38.6424222,-90.6049340
123,Highgrove Lane,63005,38.6132409,-90.5889859
244,Fox Chapel Lane,63005,38.6075982,-90.5886723
16715,Kehrsgrove Drive,63005,38.6260732,-90.5946573
2251,Whitney Pointe Drive,63005,38.6283146,-90.5904149
2234,Whitney Pointe Drive,63005,38.6292650,-90.5896593
102,Highgrove Lane,63005,38.6145529,-90.5859990
16519,Kingspointe Lake Lane,63005,38.6366030,-90.6033493
1707,Horseshoe Ridge Road,63005,38.6380819,-90.5999480
117,Chippenham Lane,63005,38.6184187,-90.5947881
16430,Wilson Creek Court,63005,38.6315390,-90.5929760
266,Pennington Lane,63005,38.6093743,-90.5934164
122,Highgrove Lane,63005,38.6131171,-90.5863352
138,Chippenham Lane,63005,38.6204360,-90.5976586
16600,Sterling Pointe Court,63005,38.6256156,-90.5887809
141,Chippenham Lane,63005,38.6199734,-90.5981617
7,Kingspointe Lake Court,63005,38.6365118,-90.6016554
6,Fairlake Drive,63005,38.6138724,-90.5890622
280,Pennington Lane,63005,38.6088028,-90.5947759
16742,Kehrs Mill Estates Drive,63005,38.6274000,-90.6013058
27,Crown Manor Drive,63005,38.6208507,-90.5966998
277,Herworth Drive,63005,38.6133696,-90.5964355
1874,Kehrswood Drive,63005,38.6288247,-90.5967149
16402,Wilson Creek Court,63005,38.6313518,-90.5895807
2111,Wilson Ridge Lane,63005,38.6307654,-90.5896279
158,Herworth Drive,63005,38.6130722,-90.5925644
5,Kehrs Mill Glen Court,63005,38.6392936,-90.6102492
2216,Dunhill Way Court,63005,38.6303713,-90.5928148
134,Chippenham Lane,63005,38.6199876,-90.5971843
221,Whiting Lane,63005,38.6097885,-90.5909590
2114,Stillwater Point Court,63005,38.6308514,-90.5914604
16627,Kehrsgrove Drive,63005,38.6281017,-90.5889451
16775,Eagle Bluff Court,63005,38.6473069,-90.5985167
14,Chippenham Lane,63005,38.6203223,-90.5921054
16468,Horseshoe Ridge Road,63005,38.6441176,-90.6021136
2108,Kehrspoint Drive,63005,38.6314137,-90.5965883
2248,Dunhill Way Court,63005,38.6289262,-90.5922655
2640,Valley Road,63005,38.6113596,-90.5975118
3,Crownhill Lane,63005,38.6188695,-90.5861943
7,Greenbank Drive,63005,38.6186412,-90.5883328
2067,Kingspointe Drive,63005,38.6322823,-90.5989756
18,Forest Hills Ridge Court,63005,38.6221038,-90.5845462
16466,Saddle Creek Road,63005,38.6409001,-90.5996979
16876,Kehrsdale Drive,63005,38.6291209,-90.6073830
2,Peakmont Lane,63005,38.6203514,-90.5907781
10,Jennycliffe Lane,63005,38.6228126,-90.5884478
16600,Kehrsgrove Drive,63005,38.6275037,-90.5869033
2289,Ridgley Woods Drive,63005,38.6248973,-90.6023271
211,Fox Chapel Lane,63005,38.6099354,-90.5889056
153,Chippenham Lane,63005,38.6209529,-90.5995957
2242,Whitney Pointe Drive,63005,38.6288801,-90.5894305
2112,Wilson Ridge Lane,63005,38.6306310,-90.5891556
16730,Kehrs Mill Estates Drive,63005,38.6273428,-90.6002394
16814,Kehrsbrooke Court,63005,38.6270708,-90.6034540
16507,Kingspointe Lake Lane,63005,38.6357278,-90.6017918
1449,Blue Roan Court,63005,38.6463597,-90.5987621
16424,Quiet Creek Court,63005,38.6382726,-90.5986281
125,Forest Club Drive,63005,38.6118370,-90.5891105
2132,Kehrs Ridge Drive,63005,38.6303712,-90.6012591
2019,Kehrs Mill Road,63005,38.6330451,-90.6037830
2,Kehrs Mill Glen Court,63005,38.6392445,-90.6090913
16313,Wilson Creek Court,63005,38.6317857,-90.5869867
1,Greenbank Drive,63005,38.6188655,-90.5853727
19,Jennycliffe Lane,63005,38.6221899,-90.5866253
5,Jennycliffe Lane,63005,38.6224909,-90.5858862
16441,Walnut Rail Road,63005,38.6428722,-90.6010880
16602,Sterling Pointe Court,63005,38.6261721,-90.5891923
16467,Horseshoe Ridge Road,63005,38.6447987,-90.6018538
238,Fox Chapel Lane,63005,38.6080130,-90.5887579
16808,Kehrsdale Drive,63005,38.6310351,-90.6033527
220,Fox Chapel Lane,63005,38.6092008,-90.5882883
2268,Valley Road,63005,38.6235482,-90.6001882
2670,Valley Road,63005,38.6096410,-90.5958471
110,Forest Club Drive,63005,38.6121689,-90.5904861
16619,Sterling Pointe Court,63005,38.6268397,-90.5901546
239,Whiting Lane,63005,38.6094155,-90.5921646
7,Jennycliffe Lane,63005,38.6229381,-90.5867694
1537,Horseshoe Ridge Road,63005,38.6426685,-90.5983392
1,Saddle Creek Court,63005,38.6422159,-90.6034542
2237,Kehrsgrove Court,63005,38.6252063,-90.5933226
9,Jennycliffe Lane,63005,38.6228783,-90.5878955
16300,Wilson Creek Court,63005,38.6312578,-90.5856151
1623,Broken Reins Court,63005,38.6414628,-90.6101878
1,Horseshoe Ridge Court,63005,38.6361424,-90.5973730
16407,Wilson Creek Court,63005,38.6321102,-90.5900504
4,Fairlake Drive,63005,38.6139965,-90.5900467
16493,Horseshoe Ridge Road,63005,38.6449012,-90.6043248
1635,Trotting Trail Road,63005,38.6405609,-90.6095499
2232,Kehrsglen Court,63005,38.6249722,-90.5960433
1856,Kehrswood Drive,63005,38.6295671,-90.5953390
145,Chippenham Lane,63005,38.6203167,-90.5985765
2244,Kehrsgrove Court,63005,38.6248101,-90.5932367
2209,Kehrsglen Court,63005,38.6268619,-90.5967439
2007,Kehrsdale Court,63005,38.6324351,-90.6078482
1721,Horseshoe Ridge Road,63005,38.6373932,-90.5992709
118,Forest Club Drive,63005,38.6116339,-90.5899358
16444,Horseshoe Ridge Road,63005,38.6441107,-90.5996672
130,Highgrove Lane,63005,38.6126802,-90.5864525
16760,Kehrs Mill Estates Drive,63005,38.6283485,-90.6032269
2258,Kehrs Mill Road,63005,38.6287903,-90.5941027
16475,Dapple Gray Court,63005,38.6466340,-90.6010470
2220,Ridgley Woods Drive,63005,38.6266556,-90.6048633
16731,Kehrs Mill Estates Drive,63005,38.6280297,-90.6000229
16701,Kehrs Mill Estates Drive,63005,38.6282092,-90.5975042
2219,Devonsbrook Drive,63005,38.6291666,-90.5886588
2220,Kehrsgrove Court,63005,38.6253989,-90.5918454
134,Forest Club Drive,63005,38.6109288,-90.5892003
16446,Dapple Gray Court,63005,38.6449626,-90.6000814
16547,Saddle Creek Road,63005,38.6433305,-90.6064023
2208,Kehrsgrove Court,63005,38.6263324,-90.5922401
2009,Kehrsboro Drive,63005,38.6334835,-90.6064369
2202,Kehrsgrove Court,63005,38.6266345,-90.5928947
157,Chippenham Lane,63005,38.6214271,-90.5995475
2211,Devonsbrook Drive,63005,38.6295571,-90.5888359
2245,Kehrs Ridge Drive,63005,38.6241585,-90.5987534
18,Chippenham Lane,63005,38.6209619,-90.5920840
16028,Clarkson Mill Circle,63005,38.6207903,-90.5850760
227,Pennington Lane,63005,38.6117084,-90.5910370
6,Kingspointe Lake Court,63005,38.6369345,-90.6024462
217,Pennington Lane,63005,38.6109941,-90.5903287
149,Chippenham Lane,63005,38.6206314,-90.5991057
103,Highgrove Lane,63005,38.6147409,-90.5866410
2213,Ridgley Woods Drive,63005,38.6260628,-90.6059066
441,Herworth Drive,63005,38.6172890,-90.5982415
2000,Kehrsdale Court,63005,38.6325441,-90.6068818
2054,Kehrsboro Drive,63005,38.6298737,-90.6046310
9,Chippenham Lane,63005,38.6200902,-90.5930981
1812,Kehrswood Drive,63005,38.6335576,-90.5949087
1620,Horseshoe Ridge Road,63005,38.6401288,-90.5957021
109,Forest Club Drive,63005,38.6126021,-90.5898754
2205,Ridgley Woods Drive,63005,38.6261849,-90.6070832
16807,Kehrsdale Drive,63005,38.6318420,-90.6036457
12,Greenbank Drive,63005,38.6170529,-90.5857672
16474,Saddle Creek Road,63005,38.6406650,-90.6008258
2102,Kehrs Ridge Drive,63005,38.6297279,-90.6035129
16813,Kehrsdale Drive,63005,38.6314783,-90.6041722
2162,Kehrs Ridge Drive,63005,38.6291786,-90.5988814
2204,Devonsbrook Drive,63005,38.6299354,-90.5880876
185,Herworth Drive,63005,38.6134376,-90.5937865
2241,Ridgley Woods Drive,63005,38.6252853,-90.6028271
2,Jennycliffe Lane,63005,38.6214667,-90.5856805
117,Forest Club Drive,63005,38.6122165,-90.5895428
1,Peakmont Lane,63005,38.6199470,-90.5905536
2223,Kehrs Ridge Drive,63005,38.6255244,-90.5986163
2108,Kehrs Mill Road,63005,38.6306468,-90.5986012
16732,Kehrsgrove Drive,63005,38.6244859,-90.5942828
2207,Samuel Stuart Court,63005,38.6264413,-90.6004058
16019,Clarkson Mill Circle,63005,38.6210014,-90.5841729
2060,Kingspointe Drive,63005,38.6324094,-90.6005400
228,Whiting Lane,63005,38.6090275,-90.5907061
2115,Kehrs Ridge Drive,63005,38.6299270,-90.6023420
16508,Kingspointe Lake Lane,63005,38.6354766,-90.6026109
2011,Kehrsdale Court,63005,38.6320481,-90.6078914
120,Chippenham Lane,63005,38.6191376,-90.5954594
2222,Samuel Stuart Court,63005,38.6254420,-90.5996002
248,Herworth Drive,63005,38.6118159,-90.5961760
2128,Kehrs Mill Road,63005,38.6289840,-90.5973397
243,Pennington Lane,63005,38.6110018,-90.5924196
2237,Ridgley Woods Drive,63005,38.6252652,-90.6033981
16027,Clarkson Mill Circle,63005,38.6211086,-90.5847995
16632,Kehrsgrove Drive,63005,38.6275342,-90.5895114
191,Herworth Drive,63005,38.6131533,-90.5942474
2214,Samuel Stuart Court,63005,38.6261257,-90.5995249
26,Crown Manor Drive,63005,38.6208934,-90.5957289
24,Forest Club Drive,63005,38.6189940,-90.5919454
2206,Samuel Stuart Court,63005,38.6265594,-90.5999353
105,Highgrove Lane,63005,38.6144252,-90.5870465
2239,Kehrsglen Court,63005,38.6245552,-90.5969328
10,Crownhill Lane,63005,38.6170866,-90.5874163
16724,Kehrs Mill Estates Drive,63005,38.6271133,-90.5996347
2245,Kehrsglen Court,63005,38.6240039,-90.5966638
2007,Kehrs Mill Road,63005,38.6341462,-90.6046536
16577,Saddle Creek Road,63005,38.6454947,-90.6054888
1535,Blue Roan Court,63005,38.6434641,-90.5956797
10,Chippenham Lane,63005,38.6198354,-90.5923655
157,Herworth Drive,63005,38.6137081,-90.5927738
16653,Saddle Creek Road,63005,38.6434151,-90.6100776
2049,Kehrsboro Drive,63005,38.6301034,-90.6056671
222,Herworth Drive,63005,38.6119917,-90.5948245
1645,Trotting Trail Road,63005,38.6397975,-90.6080276
203,Fox Chapel Lane,63005,38.6104117,-90.5888848
16438,Wilson Creek Court,63005,38.6317731,-90.5938963
2224,Dunhill Way Court,63005,38.6301532,-90.5924426
1624,Broken Reins Court,63005,38.6415732,-90.6093001
139,Highgrove Lane,63005,38.6119880,-90.5877992
159,Highgrove Court,63005,38.6098438,-90.5869399
16753,Kehrs Mill Estates Drive,63005,38.6282455,-90.6021523
16737,Kehrs Mill Estates Drive,63005,38.6281287,-90.6005739
1628,Trotting Trail Road,63005,38.6414306,-90.6083378
1559,Horseshoe Ridge Road,63005,38.6425031,-90.5972306
12,Jennycliffe Lane,63005,38.6229238,-90.5894621
1850,Kehrswood Drive,63005,38.6298165,-90.5949751
137,Chippenham Lane,63005,38.6195896,-90.5977359
2230,Samuel Stuart Court,63005,38.6250301,-90.5995911
2220,Devonsbrook Drive,63005,38.6293382,-90.5877612
7,Crownhill Lane,63005,38.6189305,-90.5873242
16476,Horseshoe Ridge Road,63005,38.6441094,-90.6028291
2008,Kehrs Mill Road,63005,38.6346754,-90.6037172
143,Highgrove Lane,63005,38.6118359,-90.5872112
35,Crown Manor Drive,63005,38.6216708,-90.5971338
16003,Clarkson Mill Circle,63005,38.6204112,-90.5834300
2208,Dunhill Way Court,63005,38.6305982,-90.5932372
289,Herworth Drive,63005,38.6140560,-90.5969405
2208,Ridgley Woods Drive,63005,38.6266975,-90.6064347
226,Fox Chapel Lane,63005,38.6088697,-90.5884700
3,Peakmont Lane,63005,38.6202940,-90.5912749
4,Peakmont Lane,63005,38.6198071,-90.5912937
135,Highgrove Lane,63005,38.6121077,-90.5883503
16640,Kehrsgrove Drive,63005,38.6276595,-90.5901454
1531,Horseshoe Ridge Road,63005,38.6438835,-90.5973939
2254,Ridgley Woods Drive,63005,38.6265712,-90.6024501
415,Herworth Drive,63005,38.6164000,-90.5976120
367,Herworth Court,63005,38.6148085,-90.5991646
16406,Wilson Creek Court,63005,38.6314143,-90.5902096
16464,Farmers Mill Lane,63005,38.6336955,-90.5942734
34,Crown Manor Drive,63005,38.6219172,-90.5961390
16321,Wilson Creek Court,63005,38.6320197,-90.5880455
16000,Clarkson Mill Circle,63005,38.6198688,-90.5839498
13,Greenbank Drive,63005,38.6172572,-90.5852246
2112,Kehrspoint Drive,63005,38.6310123,-90.5966691
130,Chippenham Lane,63005,38.6196240,-90.5966970
16619,Kehrsgrove Drive,63005,38.6278452,-90.5883294
16320,Wilson Creek Court,63005,38.6313078,-90.5880403
16834,Kehrsbrooke Court,63005,38.6275000,-90.6060227
2200,Dunhill Way Court,63005,38.6304820,-90.5937850
2028,Kehrsboro Drive,63005,38.6322725,-90.6045856
15,Greenbank Drive,63005,38.6180388,-90.5847206
2226,Kehrsgrove Court,63005,38.6250683,-90.5920514
2019,Kehrsboro Drive,63005,38.6327834,-90.6059461
2217,Kehrs Ridge Drive,63005,38.6259200,-90.5988632
16112,Samuel Stuart Drive,63005,38.6250329,-90.6009321
2004,Kehrsboro Drive,63005,38.6336164,-90.6058722
16837,Kehrsdale Drive,63005,38.6312458,-90.6062267
16511,Walnut Rail Road,63005,38.6407460,-90.6045542
16820,Kehrsdale Drive,63005,38.6306531,-90.6043178
16718,Kehrs Mill Estates Drive,63005,38.6270329,-90.5987887
2212,Devonsbrook Drive,63005,38.6297439,-90.5876630
16,Jennycliffe Lane,63005,38.6221837,-90.5884536
147,Forest Club Drive,63005,38.6113328,-90.5872222
15,Crown Manor Drive,63005,38.6196336,-90.5956293
1519,Blue Roan Court,63005,38.6443873,-90.5959764
2232,Dunhill Way Court,63005,38.6297971,-90.5922679
2229,Whitney Pointe Drive,63005,38.6287719,-90.5904448
2031,Kingspointe Drive,63005,38.6347012,-90.6015490
2201,Ridgley Woods Drive,63005,38.6266304,-90.6076206
16823,Kehrsdale Drive,63005,38.6312866,-90.6046668
1,Gegenbauer Road,63005,38.6349217,-90.6077718
16659,Kehrsgrove Drive,63005,38.6281616,-90.5914535
1544,Horseshoe Ridge Road,63005,38.6429971,-90.5965885
16512,Saddle Creek Road,63005,38.6411997,-90.6036094
246,Whiting Lane,63005,38.6090305,-90.5922555
2239,Samuel Stuart Court,63005,38.6246982,-90.6009998
22,Chippenham Lane,63005,38.6215160,-90.5922644
1548,Blue Roan Court,63005,38.6421929,-90.5962472
2341,Sterling Pointe Drive,63005,38.6258732,-90.5869873
16412,Quiet Creek Court,63005,38.6380555,-90.5979096
2240,Dunhill Way Court,63005,38.6293545,-90.5921342
2204,Kehrsglen Court,63005,38.6276208,-90.5965050
2260,Ridgley Woods Drive,63005,38.6265729,-90.6016225
271,Herworth Drive,63005,38.6130089,-90.5962823
6,Crownhill Lane,63005,38.6194885,-90.5883909
21,Chippenham Lane,63005,38.6212974,-90.5932171
16460,Horseshoe Ridge Road,63005,38.6440598,-90.6013371
150,Chippenham Lane,63005,38.6215378,-90.5990077
3,Jennycliffe Lane,63005,38.6220754,-90.5856625
260,Pennington Lane,63005,38.6096322,-90.5929417
2221,Ridgley Woods Drive,63005,38.6260376,-90.6045549
114,Highgrove Lane,63005,38.6135558,-90.5862996
230,Pennington Lane,63005,38.6107954,-90.5912912
374,Herworth Court,63005,38.6152193,-90.5982061
2014,Kehrsdale Court,63005,38.6319929,-90.6069422
146,Chippenham Lane,63005,38.6211159,-90.5985216
2059,Kingspointe Drive,63005,38.6331362,-90.6001997
2057,Wilson Ridge Lane,63005,38.6320815,-90.5894573
16620,Sterling Pointe Court,63005,38.6261316,-90.5898536
16452,Horseshoe Ridge Road,63005,38.6437650,-90.6005381
10,Kehrs Mill Glen Court,63005,38.6385937,-90.6100650
2222,Kehrs Ridge Drive,63005,38.6258200,-90.5978429
16534,Saddle Creek Road,63005,38.6418536,-90.6056553
112,Chippenham Lane,63005,38.6192720,-90.5943972
2,Fairlake Drive,63005,38.6148011,-90.5903917
2003,Kehrsdale Court,63005,38.6323544,-90.6073206
1675,Horseshoe Ridge Road,63005,38.6388077,-90.6003851
16492,Horseshoe Ridge Road,63005,38.6442996,-90.6041314
16484,Horseshoe Ridge Road,63005,38.6441987,-90.6035207
2,Saddle Creek Court,63005,38.6421574,-90.6026304
2232,Kehrsgrove Court,63005,38.6248064,-90.5924053
126,Chippenham Lane,63005,38.6192759,-90.5962146
26,Seven Oaks Drive,63005,38.6220214,-90.5941791
1621,Horseshoe Ridge Road,63005,38.6403722,-90.5969747
16,Greenbank Drive,63005,38.6184070,-90.5846475
16419,Quiet Creek Court,63005,38.6391053,-90.5979187
1837,Kehrswood Drive,63005,38.6313488,-90.5953838
2238,Samuel Stuart Court,63005,38.6244884,-90.5998673
211,Herworth Drive,63005,38.6127059,-90.5950169
2217,Dunhill Way Court,63005,38.6297363,-90.5933338
2020,Kingspointe Drive,63005,38.6347844,-90.5998016
16012,Clarkson Mill Circle,63005,38.6200321,-90.5843915
297,Herworth Drive,63005,38.6144083,-90.5970695
14,Crownhill Lane,63005,38.6159660,-90.5858230
2234,Ridgley Woods Drive,63005,38.6261874,-90.6030509
210,Herworth Drive,63005,38.6122375,-90.5944490
2300,Sterling Pointe Drive,63005,38.6269610,-90.5879291
16664,Kehrsgrove Drive,63005,38.6273908,-90.5918364
2056,Kingspointe Drive,63005,38.6327642,-90.6010160
3,Kehrsboro Court,63005,38.6293469,-90.6052685
375,Herworth Court,63005,38.6155076,-90.5990268
129,Chippenham Lane,63005,38.6187308,-90.5966462
10,Kingspointe Lake Court,63005,38.6382993,-90.6024977
1825,Kehrswood Drive,63005,38.6325550,-90.5957906
2235,Devonsbrook Drive,63005,38.6284019,-90.5881474
225,Fox Chapel Lane,63005,38.6091112,-90.5891733
1726,Horseshoe Ridge Road,63005,38.6371663,-90.5976822
2180,Kehrs Ridge Drive,63005,38.6281076,-90.5979229
133,Chippenham Lane,63005,38.6191872,-90.5972543
2292,Ridgley Woods Drive,63005,38.6243597,-90.6015733
16830,Kehrsbrooke Court,63005,38.6273827,-90.6055416
2127,Kehrspoint Drive,63005,38.6298410,-90.5974668
272,Pennington Lane,63005,38.6091946,-90.5938591
2646,Valley Road,63005,38.6110069,-90.5972021
208,Fox Chapel Lane,63005,38.6100366,-90.5880819
2,Kehrsboro Court,63005,38.6290686,-90.6044130
449,Herworth Drive,63005,38.6178830,-90.5985501
16826,Kehrsdale Drive,63005,38.6305310,-90.6048236
2333,Sterling Pointe Drive,63005,38.6257416,-90.5874515
430,Herworth Drive,63005,38.6168079,-90.5989986
2233,Dunhill Way Court,63005,38.6293890,-90.5930855
2039,Kehrsboro Drive,63005,38.6313046,-90.6056290
23,Seven Oaks Drive,63005,38.6208965,-90.5945330
2256,Dunhill Way Court,63005,38.6284348,-90.5924147
2248,Ridgley Woods Drive,63005,38.6262288,-90.6026709
1843,Kehrswood Drive,63005,38.6309853,-90.5951304
2163,Kehrs Ridge Drive,63005,38.6286786,-90.5994312
1640,Trotting Trail Road,63005,38.6407998,-90.6078742
281,Pennington Lane,63005,38.6091612,-90.5951913
15,Seven Oaks Drive,63005,38.6200287,-90.5940079
1648,Trotting Trail Road,63005,38.6407668,-90.6072365
2350,Sterling Pointe Drive,63005,38.6267164,-90.5865676
18,Jennycliffe Lane,63005,38.6223898,-90.5871639
42,Forest Club Drive,63005,38.6136165,-90.5907227
14,Hillock Lane,63005,38.6157926,-90.5895671
455,Herworth Drive,63005,38.6182270,-90.5990386
2061,Kehrs Mill Road,63005,38.6312959,-90.6004300
2249,Dunhill Way Court,63005,38.6289629,-90.5931915
16410,Wilson Creek Court,63005,38.6314106,-90.5908477
2130,Kehrspoint Drive,63005,38.6299194,-90.5965136
2155,Kehrs Ridge Drive,63005,38.6290695,-90.5998421
16851,Kehrsdale Drive,63005,38.6304656,-90.6079400
231,Fox Chapel Lane,63005,38.6087284,-90.5893728
2064,Kingspointe Drive,63005,38.6321409,-90.6000967
111,Highgrove Lane,63005,38.6140936,-90.5873320
16405,Quiet Creek Court,63005,38.6382100,-90.5965849
9,Fairlake Drive,63005,38.6149562,-90.5892439
7,Horseshoe Ridge Court,63005,38.6364891,-90.5965645
2053,Kehrsboro Drive,63005,38.6297193,-90.6054691
1818,Kehrswood Drive,63005,38.6331223,-90.5948596
2247,Samuel Stuart Court,63005,38.6243703,-90.6007499
5,Kehrsboro Court,63005,38.6288936,-90.6052494
2227,Kehrsglen Court,63005,38.6255694,-90.5966421
16706,Kehrs Mill Estates Drive,63005,38.6272827,-90.5972853
1807,Kehrswood Drive,63005,38.6329576,-90.5957829
16787,Eagle Bluff Court,63005,38.6471877,-90.5976184
190,Herworth Drive,63005,38.6127131,-90.5936336
141,Forest Club Drive,63005,38.6112942,-90.5880102
16490,Saddle Creek Road,63005,38.6408494,-90.6020114
1660,Trotting Trail Road,63005,38.6398130,-90.6068587
1649,Horseshoe Ridge Road,63005,38.6401650,-90.5985593
2212,Ridgley Woods Drive,63005,38.6266957,-90.6054264
16520,Saddle Creek Road,63005,38.6416645,-90.6048734
2225,Ridgley Woods Drive,63005,38.6264656,-90.6036693
1654,Trotting Trail Road,63005,38.6404609,-90.6065427
1759,Horseshoe Ridge Road,63005,38.6345294,-90.5987382
2120,Kehrs Ridge Drive,63005,38.6306655,-90.6022073
6,Kehrs Mill Glen Court,63005,38.6388050,-90.6095034
2266,Ridgley Woods Drive,63005,38.6261975,-90.6012217
16440,Walnut Rail Road,63005,38.6423277,-90.6002776
1453,Blue Roan Court,63005,38.6458133,-90.5977127
113,Chippenham Lane,63005,38.6185930,-90.5941382
2238,Kehrs Ridge Drive,63005,38.6244287,-90.5978008
17,Jennycliffe Lane,63005,38.6222598,-90.5877898
2144,Kehrs Ridge Drive,63005,38.6298702,-90.6002389
25,Chippenham Lane,63005,38.6216995,-90.5929130
16781,Eagle Bluff Court,63005,38.6470857,-90.5980688
106,Highgrove Lane,63005,38.6140554,-90.5861375
2229,Kehrs Ridge Drive,63005,38.6250478,-90.5984494
2634,Valley Road,63005,38.6117313,-90.5977345
16305,Wilson Creek Court,63005,38.6319724,-90.5859828
1462,Blue Roan Court,63005,38.6462851,-90.5963657
16430,Horseshoe Ridge Road,63005,38.6438776,-90.5985205
2323,Kehrs Mill Road,63005,38.6237076,-90.5923981
1606,Horseshoe Ridge Road,63005,38.6407968,-90.5956412
222,Whiting Lane,63005,38.6093627,-90.5902743
16703,Kehrsgrove Drive,63005,38.6268029,-90.5938680
2103,Kehrspoint Drive,63005,38.6314042,-90.5975804
1824,Kehrswood Drive,63005,38.6325666,-90.5948437
16721,Kehrsgrove Drive,63005,38.6255913,-90.5950504
38,Crown Manor Drive,63005,38.6219834,-90.5967564
11,Jennycliffe Lane,63005,38.6227236,-90.5888586
16857,Kehrsbrooke Court,63005,38.6276335,-90.6079940
2236,Devonsbrook Drive,63005,38.6287086,-90.5872375
2238,Kehrsglen Court,63005,38.6244869,-90.5959188
15,Kehrs Meadow Lane,63005,38.6224161,-90.5915574
2051,Kingspointe Drive,63005,38.6339189,-90.6013331
160,Highgrove Court,63005,38.6100235,-90.5863125
11,Crownhill Lane,63005,38.6165413,-90.5872408
2015,Kehrsboro Drive,63005,38.6331390,-90.6061319
1834,Horseshoe Ridge Road,63005,38.6320182,-90.5969434
1505,Blue Roan Court,63005,38.6450633,-90.5962736
16688,Kehrsgrove Drive,63005,38.6275442,-90.5927899
16427,Quiet Creek Court,63005,38.6388065,-90.5992298
2239,Kehrs Ridge Drive,63005,38.6247018,-90.5987781
2067,Kehrsboro Drive,63005,38.6289891,-90.6036481
2025,Kehrs Mill Road,63005,38.6325490,-90.6034367
155,Highgrove Court,63005,38.6105524,-90.5872418
2007,Kingspointe Drive,63005,38.6329636,-90.5988482
16434,Saddle Creek Road,63005,38.6408314,-90.5988538
16475,Saddle Creek Road,63005,38.6414765,-90.6015623
16868,Kehrsdale Drive,63005,38.6293292,-90.6069285
2118,Kehrspoint Drive,63005,38.6305404,-90.5968051
16862,Kehrsdale Drive,63005,38.6297067,-90.6072672
14,Greenbank Drive,63005,38.6176883,-90.5848787
16759,Kehrs Mill Estates Drive,63005,38.6286146,-90.6024886
16426,Wilson Creek Court,63005,38.6315292,-90.5924572
16875,Kehrsdale Drive,63005,38.6286998,-90.6073561
6,Kehrsboro Court,63005,38.6286951,-90.6047767
120,Highgrove Lane,63005,38.6128656,-90.5880725
2015,Kingspointe Drive,63005,38.6336430,-90.5998673
16843,Kehrsdale Drive,63005,38.6308540,-90.6071370
245,Fox Chapel Lane,63005,38.6075245,-90.5898152
2204,Kehrs Ridge Drive,63005,38.6271001,-90.5978200
381,Herworth Court,63005,38.6159529,-90.5985143
16741,Kehrs Mill Estates Drive,63005,38.6281730,-90.6011242
2217,Ridgley Woods Drive,63005,38.6259313,-90.6051282
2215,Kehrsglen Court,63005,38.6264690,-90.5965599
2228,Devonsbrook Drive,63005,38.6290170,-90.5875519
16474,Dapple Gray Court,63005,38.6457625,-90.6016569
2108,Stillwater Point Court,63005,38.6310280,-90.5909852
16736,Kehrs Mill Estates Drive,63005,38.6274970,-90.6007458
16850,Kehrsbrooke Court,63005,38.6272048,-90.6071378
2244,Kehrsglen Court,63005,38.6240418,-90.5961415
142,Highgrove Lane,63005,38.6126271,-90.5873128
16802,Kehrsdale Drive,63005,38.6313575,-90.6029907
16611,Sterling Pointe Court,63005,38.6269588,-90.5896083
2100,Kehrs Mill Road,63005,38.6309859,-90.5987965
2254,Valley Road,63005,38.6234148,-90.6017743
2208,Kehrsglen Court,63005,38.6272824,-90.5960968
1959,Kehrs Mill Road,63005,38.6351996,-90.6064469
131,Highgrove Lane,63005,38.6124370,-90.5887759
2654,Valley Road,63005,38.6105583,-90.5968885
2201,Dunhill Way Court,63005,38.6300174,-90.5938576
16,Crownhill Lane,63005,38.6169733,-90.5865527
16733,Kehrsgrove Drive,63005,38.6245019,-90.5951744
2115,Kehrspoint Drive,63005,38.6305666,-90.5977096
2203,Devonsbrook Drive,63005,38.6299142,-90.5886162
2233,Ridgley Woods Drive,63005,38.6256387,-90.6037412
16308,Wilson Creek Court,63005,38.6311002,-90.5865766
2020,Kehrsdale Court,63005,38.6316220,-90.6065859
262,Herworth Drive,63005,38.6123408,-90.5968678
2244,Devonsbrook Drive,63005,38.6283378,-90.5868951
2004,Kingspointe Drive,63005,38.6332293,-90.5983384
2150,Kehrs Mill Road,63005,38.6281225,-90.5952938
125,Chippenham Lane,63005,38.6185717,-90.5960437
16627,Sterling Pointe Court,63005,38.6260801,-90.5908091
16463,Dapple Gray Court,63005,38.6463219,-90.5996792
115,Highgrove Lane,63005,38.6138360,-90.5880362
16842,Kehrsbrooke Court,63005,38.6274908,-90.6066240
2144,Kehrs Mill Road,63005,38.6282577,-90.5957859
36,Forest Club Drive,63005,38.6158232,-90.5923300
8,Crownhill Lane,63005,38.6184974,-90.5868696
2329,Kehrs Mill Road,63005,38.6235581,-90.5909466
2001,Kehrsdale Court,63005,38.6332962,-90.6077751
16803,Kehrsdale Drive,63005,38.6314360,-90.6035341
119,Highgrove Lane,63005,38.6135322,-90.5884860
16485,Horseshoe Ridge Road,63005,38.6449399,-90.6036343
2108,Kehrs Ridge Drive,63005,38.6301349,-90.6032451
2028,Kingspointe Drive,63005,38.6353798,-90.6012612
26,Forest Club Drive,63005,38.6183590,-90.5933029
1452,Lost Hollow Court,63005,38.6465731,-90.5973858
234,Whiting Lane,63005,38.6088485,-90.5911678
16304,Wilson Creek Court,63005,38.6310154,-90.5860608
16011,Clarkson Mill Circle,63005,38.6207850,-90.5836403
2327,Kehrs Mill Road,63005,38.6236456,-90.5901337
2149,Kehrs Ridge Drive,63005,38.6292408,-90.6003656
8,Forest Club Drive,63005,38.6214834,-90.5870147
16726,Kehrsgrove Drive,63005,38.6249013,-90.5942330
121,Chippenham Lane,63005,38.6184773,-90.5954330
16651,Kehrsgrove Drive,63005,38.6281994,-90.5909834
1862,Kehrswood Drive,63005,38.6293597,-90.5957785
2048,Kingspointe Drive,63005,38.6334902,-90.6020431
7,Forest Club Drive,63005,38.6212719,-90.5865050
16802,Kehrsbrooke Court,63005,38.6274746,-90.6022976
6,Greenbank Drive,63005,38.6183801,-90.5875412
31,Crown Manor Drive,63005,38.6212648,-90.5969977
1831,Kehrswood Drive,63005,38.6318397,-90.5961622
16519,Walnut Rail Road,63005,38.6403456,-90.6038773
16301,Wilson Creek Court,63005,38.6316727,-90.5855610
2156,Kehrs Mill Road,63005,38.6279124,-90.5948211
16826,Kehrsbrooke Court,63005,38.6272838,-90.6049624
16643,Sterling Pointe Court,63005,38.6251720,-90.5903120
2209,Ridgley Woods Drive,63005,38.6260335,-90.6064521
16767,Kehrs Mill Estates Drive,63005,38.6290109,-90.6026371
2137,Kehrs Ridge Drive,63005,38.6295336,-90.6012079
16309,Wilson Creek Court,63005,38.6318229,-90.5865046
16756,Kehrs Mill Estates Drive,63005,38.6279640,-90.6030237
26,Forest Hills Ridge Court,63005,38.6222921,-90.5850009
16622,Saddle Creek Road,63005,38.6428046,-90.6093132
2121,Kehrspoint Drive,63005,38.6301999,-90.5976554
2052,Kingspointe Drive,63005,38.6330858,-90.6015498
2216,Kehrsglen Court,63005,38.6265776,-90.5956929
2068,Kingspointe Drive,63005,38.6317187,-90.5994423
16451,Dapple Gray Court,63005,38.6454331,-90.5991857
2227,Samuel Stuart Court,63005,38.6250842,-90.6004117
16738,Kehrsgrove Drive,63005,38.6243211,-90.5947347
16316,Wilson Creek Court,63005,38.6310921,-90.5875819
2357,Sterling Pointe Drive,63005,38.6261000,-90.5858595
16839,Kehrsbrooke Court,63005,38.6282033,-90.6063013
216,Whiting Lane,63005,38.6098676,-90.5899699
1760,Horseshoe Ridge Road,63005,38.6348890,-90.5975209
16431,Saddle Creek Road,63005,38.6418810,-90.5979712
12,Hillock Lane,63005,38.6152878,-90.5896933
284,Herworth Drive,63005,38.6135695,-90.5974899
6,Jennycliffe Lane,63005,38.6229253,-90.5862194
1982,Kehrs Mill Road,63005,38.6370422,-90.6054040
16857,Kehrsdale Drive,63005,38.6301069,-90.6081736
16465,Saddle Creek Road,63005,38.6417362,-90.6000774
16720,Kehrsgrove Drive,63005,38.6254215,-90.5941800
144,Highgrove Lane,63005,38.6118318,-90.5863370
1836,Kehrswood Drive,63005,38.6321309,-90.5950462
16727,Kehrsgrove Drive,63005,38.6250592,-90.5951775
240,Whiting Lane,63005,38.6087920,-90.5917662
232,Fox Chapel Lane,63005,38.6083882,-90.5886188
2031,Kehrs Mill Road,63005,38.6324909,-90.6022228
267,Pennington Lane,63005,38.6098675,-90.5940198
8,Greenbank Drive,63005,38.6180300,-90.5881167
1855,Kehrswood Drive,63005,38.6302972,-90.5955664
2324,Sterling Pointe Drive,63005,38.6265252,-90.5878272
2039,Kingspointe Drive,63005,38.6343364,-90.6018804
2215,Kehrs Mill Road,63005,38.6270852,-90.5949959
2257,Dunhill Way Court,63005,38.6285424,-90.5933451
233,Whiting Lane,63005,38.6096011,-90.5916281
112,Highgrove Lane,63005,38.6133201,-90.5871860
1737,Horseshoe Ridge Road,63005,38.6367567,-90.5987037
16603,Sterling Pointe Court,63005,38.6268607,-90.5889960
16488,Walnut Rail Road,63005,38.6398906,-90.6020134
1861,Kehrswood Drive,63005,38.6300840,-90.5960047
2019,Kehrsdale Court,63005,38.6313510,-90.6073349
2211,Kehrs Ridge Drive,63005,38.6265268,-90.5988930
16107,Samuel Stuart Drive,63005,38.6259842,-90.6008233
142,Chippenham Lane,63005,38.6207450,-90.5981107
5,Forest Club Drive,63005,38.6202970,-90.5856348
9,Forest Club Drive,63005,38.6216533,-90.5877123
249,Pennington Lane,63005,38.6106754,-90.5928397
2300,Kehrs Mill Road,63005,38.6264654,-90.5909718
16411,Quiet Creek Court,63005,38.6387388,-90.5972052
10,Forest Club Drive,63005,38.6215670,-90.5886485
27,Seven Oaks Drive,63005,38.6219180,-90.5952263
127,Highgrove Lane,63005,38.6128984,-90.5891717
254,Pennington Lane,63005,38.6098030,-90.5925226
16480,Walnut Rail Road,63005,38.6396176,-90.6009420
22,Seven Oaks Drive,63005,38.6210638,-90.5937243
1808,Horseshoe Ridge Road,63005,38.6340404,-90.5973807
2281,Ridgley Woods Drive,63005,38.6251710,-90.6020025
290,Herworth Drive,63005,38.6137912,-90.5977247
270,Herworth Drive,63005,38.6127920,-90.5971206
2055,Kingspointe Drive,63005,38.6334927,-90.6007235
19,Forest Hills Ridge Court,63005,38.6224819,-90.5841898
2325,Clarkson Road,63005,38.6252850,-90.5812918
16648,Kehrsgrove Drive,63005,38.6275312,-90.5907967
16608,Kehrsgrove Drive,63005,38.6272357,-90.5874041
2,Kingspointe Lake Court,63005,38.6366223,-90.6027886
2174,Kehrs Ridge Drive,63005,38.6285517,-90.5982292
241,Fox Chapel Lane,63005,38.6079297,-90.5896437
235,Fox Chapel Lane,63005,38.6083200,-90.5895374
2358,Sterling Pointe Drive,63005,38.6266164,-90.5859867
2024,Kingspointe Drive,63005,38.6351020,-90.6001516
2020,Kehrsboro Drive,63005,38.6329021,-90.6050595
248,Pennington Lane,63005,38.6102656,-90.5921654
6,Chippenham Lane,63005,38.6193907,-90.5926762
155,Forest Club Drive,63005,38.6113846,-90.5862496
3,Greenbank Drive,63005,38.6178585,-90.5855801
278,Herworth Drive,63005,38.6131822,-90.5972495
2205,Whitney Pointe Drive,63005,38.6288909,-90.5910346
2109,Stillwater Point Court,63005,38.6310531,-90.5918745
1504,Blue Roan Court,63005,38.6456961,-90.5955743
109,Chippenham Lane,63005,38.6188443,-90.5935880
16814,Kehrsdale Drive,63005,38.6308437,-90.6038344
16487,Dapple Gray Court,63005,38.6466066,-90.6024531
2232,Kehrs Ridge Drive,63005,38.6248906,-90.5976163
2040,Kingspointe Drive,63005,38.6342022,-90.6028182
2013,Kehrs Mill Road,63005,38.6333945,-90.6040568
16820,Kehrsbrooke Court,63005,38.6271241,-90.6042696
2019,Kingspointe Drive,63005,38.6339820,-90.6002794
1607,Broken Reins Court,63005,38.6419158,-90.6105198
2044,Kingspointe Drive,63005,38.6337495,-90.6024939
23,Forest Club Drive,63005,38.6191792,-90.5914802
298,Herworth Drive,63005,38.6141630,-90.5979813
2072,Kingspointe Drive,63005,38.6318420,-90.5990362
427,Herworth Drive,63005,38.6167037,-90.5981305
10,Saddle Creek Court,63005,38.6426990,-90.6031243
442,Herworth Drive,63005,38.6172499,-90.5991129
176,Herworth Drive,63005,38.6129462,-90.5931195
16512,Kingspointe Lake Lane,63005,38.6357878,-90.6029308
16874,Kehrsdale Drive,63005,38.6289283,-90.6069314
261,Pennington Lane,63005,38.6100861,-90.5935658
14,Crown Manor Drive,63005,38.6196676,-90.5947519
2143,Kehrs Ridge Drive,63005,38.6293626,-90.6007986
2340,Valley Road,63005,38.6214290,-90.6013091
2102,Kehrspoint Drive,63005,38.6316637,-90.5972713
2317,Sterling Pointe Drive,63005,38.6259592,-90.5884106
2015,Kehrsdale Court,63005,38.6316677,-90.6077146
2008,Kehrsboro Drive,63005,38.6336401,-90.6053225
2,Crownhill Lane,63005,38.6182094,-90.5860444
2,Forest Club Drive,63005,38.6193355,-90.5844955
1441,Lost Hollow Court,63005,38.6470918,-90.5958965
259,Herworth Drive,63005,38.6125922,-90.5961083
1849,Kehrswood Drive,63005,38.6306130,-90.5953258
2106,Wilson Ridge Lane,63005,38.6308730,-90.5886918
1639,Trotting Trail Road,63005,38.6400924,-90.6093136
131,Chippenham Lane,63005,38.6184959,-90.5968752
41,Forest Club Drive,63005,38.6141434,-90.5909153
23,Crown Manor Drive,63005,38.6204490,-90.5963027
255,Pennington Lane,63005,38.6103865,-90.5932323
140,Forest Club Drive,63005,38.6104804,-90.5880729
16850,Kehrsdale Drive,63005,38.6301876,-90.6070203
2131,Kehrs Ridge Drive,63005,38.6298152,-90.6016545
2101,Kehrs Ridge Drive,63005,38.6294712,-90.6026293
16624,Kehrsgrove Drive,63005,38.6272690,-90.5888344
16691,Kehrsgrove Drive,63005,38.6276486,-90.5937214
16845,Kehrsbrooke Court,63005,38.6280606,-90.6070040
16498,Horseshoe Ridge Road,63005,38.6437148,-90.6053624
2138,Kehrs Mill Road,63005,38.6284557,-90.5963248
7,Kehrsboro Court,63005,38.6289011,-90.6057623
16601,Kehrsgrove Drive,63005,38.6279261,-90.5877186
16404,Quiet Creek Court,63005,38.6378566,-90.5968877
16825,Kehrsbrooke Court,63005,38.6279150,-90.6046987
2109,Kehrspoint Drive,63005,38.6310000,-90.5977412
19,Seven Oaks Drive,63005,38.6204883,-90.5942841
16434,Wilson Creek Court,63005,38.6315093,-90.5935318
16747,Kehrs Mill Estates Drive,63005,38.6280468,-90.6017040
1465,Blue Roan Court,63005,38.6457304,-90.5968641
2138,Kehrs Ridge Drive,63005,38.6301061,-90.6008012
237,Pennington Lane,63005,38.6112621,-90.5920111
2036,Kingspointe Drive,63005,38.6346569,-90.6029061
2244,Kehrs Ridge Drive,63005,38.6241384,-90.5981987
16520,Kingspointe Lake Lane,63005,38.6357737,-90.6033912
203,Herworth Drive,63005,38.6130173,-90.5946812
2246,Samuel Stuart Court,63005,38.6242078,-90.6002584
40,Forest Club Drive,63005,38.6145541,-90.5911573
2342,Sterling Pointe Drive,63005,38.6266400,-90.5871960
214,Fox Chapel Lane,63005,38.6095937,-90.5881349
12,Crownhill Lane,63005,38.6160344,-90.5867441
16496,Walnut Rail Road,63005,38.6402816,-90.6027036
2226,Kehrsglen Court,63005,38.6255214,-90.5957796
17,Chippenham Lane,63005,38.6207353,-90.5928744
2034,Kehrsboro Drive,63005,38.6319030,-90.6045644
16,Seven Oaks Drive,63005,38.6206031,-90.5934063
9,Greenbank Drive,63005,38.6175631,-90.5877477
2238,Kehrsgrove Court,63005,38.6246717,-90.5927777
16801,Kehrsdale Drive,63005,38.6317329,-90.6031692
2003,Kehrsboro Drive,63005,38.6338457,-90.6063004
16709,Kehrsgrove Drive,63005,38.6263739,-90.5941867
273,Pennington Lane,63005,38.6096870,-90.5944662
2628,Valley Road,63005,38.6136523,-90.5988315
2219,Kehrsgrove Court,63005,38.6255636,-90.5926916
2014,Kehrsboro Drive,63005,38.6332431,-90.6052440
2150,Kehrs Ridge Drive,63005,38.6297523,-90.5997075
16312,Wilson Creek Court,63005,38.6310955,-90.5870595
1745,Horseshoe Ridge Road,63005,38.6357870,-90.5984451
2012,Kingspointe Drive,63005,38.6340001,-90.5989909
16834,Kehrsdale Drive,63005,38.6305647,-90.6058249
16714,Kehrsgrove Drive,63005,38.6258258,-90.5937157
16842,Kehrsdale Drive,63005,38.6304466,-90.6064899
2229,Ridgley Woods Drive,63005,38.6260622,-90.6036712
2218,Whitney Pointe Drive,63005,38.6295590,-90.5905361
251,Fox Chapel Lane,63005,38.6071274,-90.5897058
2221,Kehrsglen Court,63005,38.6260455,-90.5965096
2249,Ridgley Woods Drive,63005,38.6256696,-90.6020166
8,Fairlake Drive,63005,38.6147433,-90.5889059
16863,Kehrsdale Drive,63005,38.6293807,-90.6080090
2,Greenbank Drive,63005,38.6183667,-90.5854084
4,Crownhill Lane,63005,38.6192864,-90.5866945
16769,Eagle Bluff Court,63005,38.6474541,-90.5989114
2662,Valley Road,63005,38.6102355,-90.5961199
2062,Kehrsboro Drive,63005,38.6296926,-90.6040691
2055,Kehrs Mill Road,63005,38.6315628,-90.6007475
2056,Wilson Ridge Lane,63005,38.6321760,-90.5885923
5,Crownhill Lane,63005,38.6194180,-90.5872896
16635,Sterling Pointe Court,63005,38.6256385,-90.5907104
25,Forest Club Drive,63005,38.6187674,-90.5924367
27,Forest Club Drive,63005,38.6179162,-90.5936319
2033,Kehrsboro Drive,63005,38.6324418,-90.6056681
13,Crownhill Lane,63005,38.6155154,-90.5863854
1616,Trotting Trail Road,63005,38.6422714,-90.6088026
14,Kingspointe Lake Court,63005,38.6375258,-90.6021160
2349,Sterling Pointe Drive,63005,38.6258347,-90.5863858
223,Pennington Lane,63005,38.6113458,-90.5906557
2216,Kehrs Ridge Drive,63005,38.6262075,-90.5980539
8,Kingspointe Court,63005,38.6359061,-90.6004453
16020,Clarkson Mill Circle,63005,38.6202022,-90.5848423
2233,Kehrsglen Court,63005,38.6251345,-90.5968505
16869,Kehrsdale Drive,63005,38.6289221,-90.6078422
2002,Kehrsboro Drive,63005,38.6340042,-90.6056795
2011,Kingspointe Drive,63005,38.6333087,-90.5994130
2319,Clarkson Road,63005,38.6255135,-90.5841650
3,Fairlake Drive,63005,38.6144565,-90.5897672
8,Horseshoe Ridge Court,63005,38.6354191,-90.5965413
2226,Kehrs Ridge Drive,63005,38.6253900,-90.5975769
2024,Kehrsboro Drive,63005,38.6326167,-90.6047925
2202,Whitney Pointe Drive,63005,38.6295715,-90.5913924
424,Herworth Drive,63005,38.6163374,-90.5988224
231,Pennington Lane,63005,38.6116508,-90.5915850
2210,Whitney Pointe Drive,63005,38.6297442,-90.5909677
16488,Dapple Gray Court,63005,38.6459664,-90.6027065
1,Crownhill Lane,63005,38.6176790,-90.5862560
2049,Kehrs Mill Road,63005,38.6317134,-90.6011242
15,Jennycliffe Lane,63005,38.6221119,-90.5890158
2103,Kehrs Mill Road,63005,38.6303253,-90.5996296
219,Fox Chapel Lane,63005,38.6095118,-90.5890208
2250,Whitney Pointe Drive,63005,38.6283281,-90.5894269
2100,Wilson Ridge Lane,63005,38.6313688,-90.5885124
1875,Kehrswood Drive,63005,38.6294942,-90.5972909
16472,Walnut Rail Road,63005,38.6398712,-90.6001162
2008,Kingspointe Drive,63005,38.6337220,-90.5984911
22,Crown Manor Drive,63005,38.6204621,-90.5953030
1802,Kehrswood Drive,63005,38.6334396,-90.5956204
18,Crown Manor Drive,63005,38.6200988,-90.5950277
16683,Kehrsgrove Drive,63005,38.6280478,-90.5935345
16851,Kehrsbrooke Court,63005,38.6278911,-90.6075111
11,Kingspointe Lake Court,63005,38.6369066,-90.6013735
19,Crown Manor Drive,63005,38.6200192,-90.5959290
16429,Horseshoe Ridge Road,63005,38.6444255,-90.5979419
2103,Stillwater Point Court,63005,38.6314903,-90.5919411
16477,Horseshoe Ridge Road,63005,38.6448676,-90.6027174
210,Whiting Lane,63005,38.6103597,-90.5897809
1,Jennycliffe Lane,63005,38.6209320,-90.5857643
2325,Sterling Pointe Drive,63005,38.6257593,-90.5880052
277,Pennington Lane,63005,38.6095263,-90.5949399
242,Pennington Lane,63005,38.6105459,-90.5918121
276,Pennington Lane,63005,38.6089123,-90.5942554
16443,Horseshoe Ridge Road,63005,38.6447367,-90.5984632
8,Jennycliffe Lane,63005,38.6229837,-90.5873805
16499,Horseshoe Ridge Road,63005,38.6447822,-90.6047254
3,Forest Club Drive,63005,38.6187445,-90.5846024
2032,Kingspointe Drive,63005,38.6350170,-90.6023636
2063,Kingspointe Drive,63005,38.6328334,-90.5997464
3,Kingspointe Lake Court,63005,38.6361558,-90.6020324
43,Forest Club Drive,63005,38.6129877,-90.5903717
2,Gegenbauer Road,63005,38.6343364,-90.6072832
1629,Broken Reins Court,63005,38.6408750,-90.6101004
15,Kingspointe Lake Court,63005,38.6373933,-90.6015546
29,Forest Club Drive,63005,38.6157484,-90.5948166
2067,Kehrs Mill Road,63005,38.6310035,-90.6000675
16856,Kehrsbrooke Court,63005,38.6271992,-90.6079113
16746,Kehrs Mill Estates Drive,63005,38.6274193,-90.6017617
2031,Kehrsboro Drive,63005,38.6318850,-90.6054246
2114,Kehrs Ridge Drive,63005,38.6305118,-90.6027389
10,Kehrsboro Court,63005,38.6284932,-90.6053013
2,Forest Hills Ridge Court,63005,38.6214153,-90.5838268
108,Chippenham Lane,63005,38.6194865,-90.5938513
2027,Kingspointe Drive,63005,38.6346094,-90.6010294
212,Pennington Lane,63005,38.6103288,-90.5907351
5,Fairlake Drive,63005,38.6135900,-90.5896336
2037,Kehrs Mill Road,63005,38.6322175,-90.6018876
240,Herworth Drive,63005,38.6117524,-90.5956896
1,Forest Club Drive,63005,38.6191383,-90.5840269
16636,Sterling Pointe Court,63005,38.6256510,-90.5895956
4,Forest Club Drive,63005,38.6192627,-90.5853414
388,Herworth Drive,63005,38.6155598,-90.5979677
16725,Kehrs Mill Estates Drive,63005,38.6277617,-90.5994692
233,Herworth Drive,63005,38.6124735,-90.5955240
2043,Kehrs Mill Road,63005,38.6319617,-90.6015105
46,Forest Club Drive,63005,38.6112511,-90.5940023
16644,Sterling Pointe Court,63005,38.6252894,-90.5898209
1822,Horseshoe Ridge Road,63005,38.6331524,-90.5975516
16817,Kehrsbrooke Court,63005,38.6277475,-90.6039143
13,Jennycliffe Lane,63005,38.6226607,-90.5898269
7,Fairlake Drive,63005,38.6142922,-90.5885824
2212,Kehrsglen Court,63005,38.6269535,-90.5958678
34,Forest Hills Ridge Court,63005,38.6226985,-90.5850033
30,Crown Manor Drive,63005,38.6213253,-90.5960888
15,Hillock Lane,63005,38.6162216,-90.5899458
409,Herworth Drive,63005,38.6161045,-90.5973365
16598,Kehrsgrove Drive,63005,38.6276040,-90.5864334
283,Herworth Drive,63005,38.6136958,-90.5966303
1606,Broken Reins Court,63005,38.6421871,-90.6100423
5,Greenbank Drive,63005,38.6178656,-90.5871088
16454,Dapple Gray Court,63005,38.6456038,-90.6003884
16317,Wilson Creek Court,63005,38.6318928,-90.5875504
2210,Kehrs Ridge Drive,63005,38.6266044,-90.5980093
1540,Blue Roan Court,63005,38.6424785,-90.5955389
15,Crownhill Lane,63005,38.6164882,-90.5861070
22,Forest Club Drive,63005,38.6193904,-90.5909712
2023,Kingspointe Drive,63005,38.6343782,-90.6005820
2168,Kehrs Ridge Drive,63005,38.6288626,-90.5985686
14,Jennycliffe Lane,63005,38.6222708,-90.5895386
2156,Kehrs Ridge Drive,63005,38.6294747,-90.5991714
10,Forest Hills Ridge Court,63005,38.6219318,-90.5840757
1,Forest Hills Ridge Court,63005,38.6217450,-90.5834404
16667,Kehrsgrove Drive,63005,38.6282523,-90.5919207
156,Highgrove Court,63005,38.6105007,-90.5863226
16783,Eagle Bluff Court,63005,38.6474251,-90.5979532
173,Herworth Drive,63005,38.6136073,-90.5932784
2171,Kehrs Ridge Drive,63005,38.6282502,-90.5990069
16808,Kehrsbrooke Court,63005,38.6272860,-90.6028028
6,Clarkson Farm Drive,63017,38.6086984,-90.5839680
2274,Kettington Court,63017,38.6117003,-90.5747779
2247,Whitby Road,63017,38.6131625,-90.5833026
15887,Kettington Road,63017,38.6117564,-90.5779864
15911,Kettington Road,63017,38.6116460,-90.5794559
2275,Whitby Road,63017,38.6112921,-90.5836316
2236,Whitby Road,63017,38.6127365,-90.5814282
2343,Richborough Road,63017,38.6095453,-90.5792113
15992,Trowbridge Road,63017,38.6137844,-90.5843606
15895,Kettington Road,63017,38.6117319,-90.5784721
15859,Kettington Road,63017,38.6114311,-90.5761410
2321,Kettington Road,63017,38.6104752,-90.5764174
2352,Richborough Road,63017,38.6091111,-90.5782829
2281,Kettington Court,63017,38.6118146,-90.5757382
3,Clarkson Farm Drive,63017,38.6095391,-90.5847013
15959,Trowbridge Road,63017,38.6145128,-90.5823290
2220,Whitby Road,63017,38.6134313,-90.5814139
8,Clarkson Farm Drive,63017,38.6089677,-90.5836373
15956,Kettington Road,63017,38.6114613,-90.5831127
2310,Richborough Road,63017,38.6110272,-90.5783186
15987,Kettington Road,63017,38.6126792,-90.5843847
1,Clarkson Farm Drive,63017,38.6093156,-90.5850834
15999,Kettington Road,63017,38.6127015,-90.5849086
15998,Trowbridge Road,63017,38.6138427,-90.5848846
15883,Richborough Road,63017,38.6091450,-90.5778535
1,Clarkson Lake Court,63017,38.6096514,-90.5808236
2279,Whitby Road,63017,38.6113032,-90.5841995
5,Clarkson Farm Drive,63017,38.6098982,-90.5845144
15968,Trowbridge Road,63017,38.6139045,-90.5829659
2248,Whitby Road,63017,38.6121563,-90.5800973
15877,Richborough Road,63017,38.6090349,-90.5775649
2287,Whitby Road,63017,38.6111147,-90.5851208
15884,Kettington Road,63017,38.6100980,-90.5775183
15958,Trowbridge Road,63017,38.6138765,-90.5824737
15912,Kettington Road,63017,38.6107481,-90.5798692
2989,Clarkson Road,63017,38.6090362,-90.5863700
2268,Whitby Road,63017,38.6109440,-90.5821785
6,Clarkson Lake Court,63017,38.6088950,-90.5801156
2259,Whitby Road,63017,38.6119819,-90.5823433
15984,Trowbridge Road,63017,38.6139245,-90.5838652
27,Clarkson Farm Drive,63017,38.6087013,-90.5826485
2319,Richborough Road,63017,38.6106100,-90.5792023
12,Clarkson Farm Drive,63017,38.6094175,-90.5831741
4,Clarkson Lake Court,63017,38.6088054,-90.5805952
2153,Wilson Avenue,63017,38.6277003,-90.5815530
2333,Kettington Road,63017,38.6100007,-90.5764632
2284,Whitby Road,63017,38.6105894,-90.5844678
4,Clarkson Farm Drive,63017,38.6087342,-90.5845265
10,Clarkson Farm Drive,63017,38.6095164,-90.5836820
2272,Whitby Road,63017,38.6107788,-90.5826401
15870,Kettington Road,63017,38.6110913,-90.5771069
2283,Whitby Road,63017,38.6113932,-90.5847732
15928,Kettington Road,63017,38.6109592,-90.5807517
2251,Whitby Road,63017,38.6123292,-90.5822302
2273,Clarkson Road,63017,38.6285886,-90.5855638
2352,Kettington Road,63017,38.6091042,-90.5759167
15951,Trowbridge Road,63017,38.6144147,-90.5818995
2359,Richborough Road,63017,38.6088493,-90.5790833
2351,Clarkson Road,63017,38.6229002,-90.5832480
15858,Kettington Road,63017,38.6108447,-90.5766251
2241,Clarkson Road,63017,38.6284059,-90.5805332
2273,Kettington Court,63017,38.6119823,-90.5751241
2231,Clarkson Road,63017,38.6296196,-90.5805698
15876,Richborough Road,63017,38.6083908,-90.5773950
15865,Richborough Road,63017,38.6090819,-90.5770874
2219,Whitby Road,63017,38.6134557,-90.5822322
15978,Kettington Road,63017,38.6118789,-90.5838347
2342,Richborough Road,63017,38.6096307,-90.5783694
15884,Richborough Road,63017,38.6083993,-90.5778704
2334,Richborough Road,63017,38.6099689,-90.5784051
2344,Kettington Road,63017,38.6094273,-90.5758101
15968,Kettington Road,63017,38.6117950,-90.5834280
2345,Kettington Road,63017,38.6096745,-90.5766290
15904,Kettington Road,63017,38.6080131,-90.5761288
2336,Kettington Road,63017,38.6097933,-90.5756571
15920,Kettington Road,63017,38.6109934,-90.5802731
15975,Trowbridge Road,63017,38.6145417,-90.5832588
15862,Richborough Road,63017,38.6084391,-90.5764154
2212,Whitby Road,63017,38.6137798,-90.5814255
17,Clarkson Farm Drive,63017,38.6099891,-90.5811837
2320,Kettington Road,63017,38.6105658,-90.5755672
2221,Clarkson Road,63017,38.6294290,-90.5805149
15941,Kettington Road,63017,38.6116038,-90.5814207
3,Clarkson Lake Court,63017,38.6095236,-90.5801294
15936,Kettington Road,63017,38.6108949,-90.5811998
7,Clarkson Farm Drive,63017,38.6101239,-90.5841881
2997,Clarkson Road,63017,38.6084070,-90.5865276
2326,Richborough Road,63017,38.6103375,-90.5783649
15976,Trowbridge Road,63017,38.6139104,-90.5834349
15983,Trowbridge Road,63017,38.6145444,-90.5837893
23,Clarkson Farm Drive,63017,38.6088858,-90.5811263
2235,Whitby Road,63017,38.6131226,-90.5822282
15,Clarkson Farm Drive,63017,38.6101940,-90.5817940
14,Clarkson Farm Drive,63017,38.6094648,-90.5827003
2280,Whitby Road,63017,38.6106001,-90.5836836
2311,Richborough Road,63017,38.6109767,-90.5791827
2353,Kettington Road,63017,38.6093140,-90.5767193
25,Clarkson Farm Drive,63017,38.6086680,-90.5815982
15991,Trowbridge Road,63017,38.6145411,-90.5844047
2243,Whitby Road,63017,38.6127814,-90.5822855
15998,Kettington Road,63017,38.6119322,-90.5850582
2327,Richborough Road,63017,38.6102560,-90.5792374
15925,Kettington Road,63017,38.6116060,-90.5806443
11,Clarkson Farm Drive,63017,38.6101540,-90.5824397
15967,Trowbridge Road,63017,38.6145122,-90.5827850
15988,Kettington Road,63017,38.6119040,-90.5844546
2330,Kettington Road,63017,38.6101785,-90.5755331
2,Clarkson Farm Drive,63017,38.6086767,-90.5851095
15981,Kettington Road,63017,38.6125411,-90.5838647
2318,Richborough Road,63017,38.6106781,-90.5783720
2288,Whitby Road,63017,38.6106768,-90.5849824
2296,Kettington Court,63017,38.6110018,-90.5753899
16,Clarkson Farm Drive,63017,38.6094374,-90.5820606
2228,Whitby Road,63017,38.6130868,-90.5813174
2335,Richborough Road,63017,38.6098982,-90.5792027
15917,Kettington Road,63017,38.6116518,-90.5801343
2358,Kettington Road,63017,38.6087380,-90.5760579
15896,Richborough Road,63017,38.6084808,-90.5787806
15881,Kettington Road,63017,38.6118831,-90.5775744
2252,Whitby Road,63017,38.6119751,-90.5815106
2351,Richborough Road,63017,38.6092035,-90.5791860
15875,Kettington Road,63017,38.6117681,-90.5771666
15867,Kettington Road,63017,38.6116162,-90.5766716
2278,Kettington Court,63017,38.6112587,-90.5749384
9,Clarkson Farm Drive,63017,38.6101475,-90.5830567
2204,Whitby Road,63017,38.6141243,-90.5815480
2244,Whitby Road,63017,38.6123869,-90.5814248
15903,Kettington Road,63017,38.6116919,-90.5789131
15944,Kettington Road,63017,38.6108838,-90.5816296
15973,Kettington Road,63017,38.6124066,-90.5833249
15997,Trowbridge Road,63017,38.6145576,-90.5850365
15868,Richborough Road,63017,38.6083523,-90.5769460
15890,Richborough Road,63017,38.6083589,-90.5783300
2276,Whitby Road,63017,38.6106989,-90.5832495
15945,Clayton Road,63011,38.6055202,-90.5879580
