House number,Street name,Postal code,Latitude,Longitude
60,Fenton Plaza,63026,38.5113252,-90.4428863
701,Gravois Road,63026,38.5123569,-90.4446135
98,Gravois Bluffs Circle,63026,38.5077038,-90.4451760
453,Old Smizer Mill Road,63026,38.5148713,-90.4483908
699,Gravois Bluffs Boulevard,63026,38.5080678,-90.4428286
701,Gravois Road,63026,38.5124599,-90.4446753
698,Gravois Bluffs Boulevard,63026,38.5070676,-90.4426002
699,Gravois Bluffs Boulevard,63026,38.5080875,-90.4427330
699,Gravois Bluffs Boulevard,63026,38.5080519,-90.4425481
699,Gravois Bluffs Boulevard,63026,38.5080666,-90.4424757
699,Gravois Bluffs Boulevard,63026,38.5081073,-90.4426374
64,Fenton Plaza,63026,38.5112246,-90.4434027
98,Gravois Bluff Circle,63026,38.5079155,-90.4452441
698,Gravois Bluffs Boulevard,63026,38.5071002,-90.4424078
790,Gravois Bluffs Plaza Drive,63026,38.5023032,-90.4532666
950,S. Hwy Dr.,63026,38.5416791,-90.4619086
978,South Highway Drive,63026,38.5417346,-90.4628395
956,South Highway Drive,63026,38.5415843,-90.4620274
88,Western Plaza,63026,38.5141037,-90.4404664
657,Gravois Road,63026,38.5126014,-90.4435168
180,Gravois Bluffs Circle,63026,38.5025130,-90.4449812
900,South Highway Drive,63026,38.5421943,-90.4595980
958,South Highway Drive,63026,38.5417272,-90.4622049
964,South Highway Drive,63026,38.5415117,-90.4624198
1645,Headland Drive,63026,38.5363224,-90.4413152
701,Gravois Road,63026,38.5125543,-90.4447080
64,Gravois Road,63026,38.5107933,-90.4343219
1733,Gilsinn Lane,63026,38.5388215,-90.4652356
1283,Larkin Williams Road,63026,38.5289073,-90.4476538
445,New Smizer Mill Road,63026,38.5173728,-90.4463466
794,Villa Gran Way,63026,38.5244587,-90.4572305
1524,Ocello Drive,63026,38.5335236,-90.4557492
1218,Shadow Bend Drive,63026,38.5341308,-90.4717774
1228,Shadow Bend Drive,63026,38.5347715,-90.4718507
1339,Park Meadow Drive,63026,38.5282721,-90.4542488
676,Gravois Bluffs Boulevard,63026,38.5074010,-90.4415775
39,Gravois Bluffs Plaza Drive,63026,38.5080941,-90.4473627
1548,Fencorp Drive,63026,38.5341312,-90.4464547
933,Westminster Abby Lane,63026,38.5014784,-90.4573551
24,Fenton Plaza,63026,38.5117570,-90.4412341
50,Fenton Plaza,63026,38.5115607,-90.4419441
78,Larkin Williams Industrial Court,63026,38.5333876,-90.4553760
2275,Cassens Drive,63026,38.5494992,-90.4455548
82,Larkin Williams Industrial Court,63026,38.5332231,-90.4553670
524,Old Smizer Mill Road,63026,38.5143637,-90.4508486
175,Misty Manor Road,63026,38.5043813,-90.4545929
1710,Fenpark Drive,63026,38.5391111,-90.4484567
49,Raintree Court,63026,38.5219599,-90.4468070
699,Gravois Bluffs Boulevard,63026,38.5080813,-90.4424034
1637,Manufacturers Drive,63026,38.5352438,-90.4444485
320,Gravois Road,63026,38.5121329,-90.4367758
320,Gravois Road,63026,38.5121544,-90.4367535
1145,Yarnell Road,63026,38.5356440,-90.4376105
1299,North Highway Drive,63026,38.5440097,-90.4711162
748,River Hills Drive,63026,38.5176755,-90.4422386
672,Gravois Bluffs Boulevard,63026,38.5076389,-90.4406984
925,Westminster Abby Lane,63026,38.5014733,-90.4566647
794,Gravois Bluffs Boulevard,63026,38.5024493,-90.4528908
794,Gravois Bluffs Boulevard,63026,38.5024070,-90.4531197
6,Fircrest Lane,63026,38.5176763,-90.4488051
42,Gravois Road,63026,38.5112748,-90.4326619
776,Merus Court,63026,38.5397137,-90.4558226
1859,Bowles Avenue,63026,38.5407182,-90.4716498
1855,Bowles Avenue,63026,38.5411563,-90.4717710
538,Rudder Road,63026,38.5402038,-90.4497313
936,San Sebastian Drive,63026,38.5242036,-90.4668466
1330,Riverside Drive,63026,38.5301903,-90.4416091
66,Sennawood Drive,63026,38.5216656,-90.4502968
705,New Smizer Mill Road,63026,38.5200219,-90.4549395
1401,Valiant Drive,63026,38.5316636,-90.4459415
7,Forest Knoll Drive,63026,38.5164323,-90.4491048
18,Sennawood Drive,63026,38.5183829,-90.4508524
1366,Larkin Williams Road,63026,38.5308368,-90.4479071
249,Dart Lane,63026,38.5300212,-90.4419830
325,Fury Drive,63026,38.5291315,-90.4435342
1611,La Palma Drive,63026,38.5253462,-90.4668929
1048,Villa Gran Way,63026,38.5289978,-90.4726680
901,Westminster Abby Lane,63026,38.5026114,-90.4562689
933,Westminster Abby Lane,63026,38.5015317,-90.4573580
2001,Hitzert Court,63026,38.5445296,-90.4472588
2090,Fenton Logistics Park,63026,38.5489526,-90.4559753
8,Buckwood Court,63026,38.5185853,-90.4486543
601,Gravois Bluffs Boulevard,63026,38.5067863,-90.4337763
992,San Sebastian Drive,63026,38.5273267,-90.4712704
542,Gravois Road,63026,38.5130442,-90.4393663
318,Hays Hill Drive,63026,38.5162666,-90.4433012
725,New Smizer Mill Road,63026,38.5203205,-90.4557124
914,Champion Estates Drive,63026,38.5197401,-90.4554268
1730,Gilsinn Lane,63026,38.5393269,-90.4632784
945,Villa Gran Way,63026,38.5289300,-90.4665458
5,Ferry Street,63026,38.5143293,-90.4365244
882,Villa Gran Way,63026,38.5277364,-90.4623823
905,Gregory Lane,63026,38.5213291,-90.4535604
245,Wolfner Drive,63026,38.5336672,-90.4421982
240,Larkin Williams Industrial Court,63026,38.5355067,-90.4586559
286,Axminister Drive,63026,38.5363806,-90.4435604
800,Gravois Road,63026,38.5067784,-90.4528173
416,Old Smizer Mill Road,63026,38.5131490,-90.4497454
13315,Wintergreen Estates Drive,63026,38.5026996,-90.4313756
408,Old Smizer Mill Road,63026,38.5130686,-90.4496780
792,Merus Court,63026,38.5395340,-90.4563323
2275,Cassens Drive,63026,38.5494238,-90.4457744
770,Gravois Bluffs Boulevard,63026,38.5031958,-90.4500215
1121,Bent Tree Trails Drive,63026,38.5348696,-90.4670356
1802,Larkin Williams Road,63026,38.5399956,-90.4568942
1075,Headquarters Park,63026,38.5409796,-90.4663955
1234,Woodridge Trails Drive,63026,38.5323517,-90.4696291
1231,Woodridge Trails Drive,63026,38.5329927,-90.4697282
739,Merus Court,63026,38.5405862,-90.4551723
964,San Sebastian Drive,63026,38.5252652,-90.4691489
1099,Headquarters Park,63026,38.5409892,-90.4668162
913,Horan Drive,63026,38.5386282,-90.4607684
1808,Larkin Williams Road,63026,38.5401730,-90.4571005
1160,London Circle Lane,63026,38.5021567,-90.4576110
229,Allen Road,63026,38.5059170,-90.4280935
2275,Cassens Drive,63026,38.5494555,-90.4456858
2130,Bowles Avenue,63026,38.5452986,-90.4718505
400,Center Street,63026,38.5116100,-90.4382899
1653,Larkin Williams Road,63026,38.5369293,-90.4556320
747,Gravois Road,63026,38.5105870,-90.4496855
1653,Larkin Williams Road,63026,38.5369752,-90.4555307
2511,Cassens Drive,63026,38.5551958,-90.4478826
1014,Uthoff Farm Court,63026,38.5334523,-90.4641679
1,Premier Drive,63026,38.5404474,-90.4436587
1412,Uthoff Farm Trail,63026,38.5323567,-90.4638339
6,Buckwood Court,63026,38.5184863,-90.4484111
1118,Bent Tree Trails Drive,63026,38.5343973,-90.4669724
1524,Bent Tree Trails Court,63026,38.5358572,-90.4667869
826,Larkin Williams Road,63026,38.5187630,-90.4364359
1186,Larkin Williams Road,63026,38.5267682,-90.4358234
519,Deer Pointe Court,63026,38.5291274,-90.4544166
1271,Larkin Williams Road,63026,38.5273283,-90.4468440
354,Chrysler Lane,63026,38.5304185,-90.4446944
1510,Bent Oak Ridge Drive,63026,38.5352458,-90.4680041
450,South Old Highway 141 Street,63026,38.5059996,-90.4294137
1350,Park Meadow Drive,63026,38.5283942,-90.4548111
1228,Montevale Court,63026,38.5293629,-90.4492148
2295,Hitzert Court,63026,38.5522965,-90.4524947
336,Dart Lane,63026,38.5295883,-90.4439923
67,Forest Knoll Drive,63026,38.5202198,-90.4462959
966,San Sebastian Drive,63026,38.5253194,-90.4694395
348,Peffer Lane,63026,38.5312518,-90.4444918
354,Fury Drive,63026,38.5286970,-90.4446051
975,San Sebastian Drive,63026,38.5259573,-90.4703168
1322,Montevale Court,63026,38.5303830,-90.4518233
1493,Bent Oak Ridge Court,63026,38.5344951,-90.4687566
13368,Wintergreen Estates Drive,63026,38.5012079,-90.4306820
928,San Sebastian Drive,63026,38.5240795,-90.4663250
1022,Uthoff Farm Court,63026,38.5337057,-90.4655382
1618,Headland Drive,63026,38.5346987,-90.4403586
385,Imperial Lane,63026,38.5324979,-90.4458998
354,Skinker Lane,63026,38.5135517,-90.4451431
1243,Woodridge Trails Drive,63026,38.5326513,-90.4706008
1249,Woodridge Trails Drive,63026,38.5323424,-90.4708523
616,Winter Hill Circle,63026,38.5031978,-90.4295973
763,River Hills Drive,63026,38.5175162,-90.4403598
1836,Alvarado Drive,63026,38.5309848,-90.4634814
1725,Coronita Drive,63026,38.5303663,-90.4712104
2,El Paso Court,63026,38.5281401,-90.4636563
348,Fury Drive,63026,38.5287225,-90.4443935
17,Woodridge Trails Court,63026,38.5317597,-90.4734013
532,Deer Pointe Court,63026,38.5292651,-90.4535146
22,Elderwood Court,63026,38.5212192,-90.4484984
13278,Wintergreen Estates Drive,63026,38.5033609,-90.4305803
1307,Larkin Williams Road,63026,38.5202349,-90.4400919
41,Sennawood Drive,63026,38.5199899,-90.4499889
1268,Woodridge Trails Drive,63026,38.5319015,-90.4721136
1743,San Martin Drive,63026,38.5300871,-90.4684472
1518,Bent Tree Trails Court,63026,38.5356097,-90.4668981
65,Gravois Road,63026,38.5114268,-90.4343376
1273,Larkin Williams Road,63026,38.5271805,-90.4474792
29,Sennawood Drive,63026,38.5190938,-90.4502084
1742,San Martin Drive,63026,38.5298576,-90.4678123
1716,Coronita Drive,63026,38.5297641,-90.4708367
42,Raintree Court,63026,38.5216022,-90.4475497
1539,Uthoff Drive,63026,38.5356460,-90.4661869
1286,Fenton Meadows Court,63026,38.5309064,-90.4724703
1621,Coronita Drive,63026,38.5271094,-90.4727524
1576,Fencorp Drive,63026,38.5356004,-90.4461894
1535,Bent Oak Ridge Drive,63026,38.5365309,-90.4686400
883,New Smizer Mill Road,63026,38.5224927,-90.4615686
9,Forest Oak Court,63026,38.5185870,-90.4468934
1276,Riverside Drive,63026,38.5293212,-90.4419735
814,Villa Gran Way,63026,38.5254182,-90.4590818
609,Winter Hill Circle,63026,38.5033522,-90.4300220
743,River Hills Drive,63026,38.5185790,-90.4422049
802,Villa Gran Way,63026,38.5246052,-90.4580831
901,Woodway Circle,63026,38.5208092,-90.4569003
20,Forest Knoll Drive,63026,38.5174841,-90.4485784
12,Elderwood Court,63026,38.5203995,-90.4489901
1473,Bent Oak Ridge Court,63026,38.5335678,-90.4680670
1519,Bent Tree Trails Court,63026,38.5356429,-90.4675048
1550,Bowles Avenue,63026,38.5350316,-90.4732670
1076,Larkin Williams Road,63026,38.5244983,-90.4361408
657,Winter Hill Circle,63026,38.5022393,-90.4304475
1115,Bent Tree Trails Drive,63026,38.5348256,-90.4667395
366,Imperial Lane,63026,38.5321209,-90.4452071
1497,Bent Oak Ridge Court,63026,38.5347088,-90.4687288
257,Dart Lane,63026,38.5300233,-90.4422036
985,San Sebastian Drive,63026,38.5264192,-90.4704502
13332,Wintergreen Estates Drive,63026,38.5021933,-90.4309616
624,Winter Hill Circle,63026,38.5030139,-90.4296744
331,Fury Drive,63026,38.5291229,-90.4437774
13350,Wintergreen Estates Drive,63026,38.5024485,-90.4294849
945,Larkin Williams Road,63026,38.5215299,-90.4402308
962,San Sebastian Drive,63026,38.5251917,-90.4689151
1330,Montevale Court,63026,38.5303631,-90.4529577
923,Woodway Circle,63026,38.5219480,-90.4562732
360,Imperial Lane,63026,38.5321299,-90.4449943
1106,Bent Tree Trails Drive,63026,38.5343211,-90.4662175
1488,Bent Oak Ridge Court,63026,38.5343016,-90.4681291
1550,Bent Oak Ridge Drive,63026,38.5372080,-90.4675938
778,Gravois Bluffs Boulevard,63026,38.5034955,-90.4522425
861,Villa Gran Way,63026,38.5281066,-90.4609830
526,Busch Forest Lane,63026,38.5038632,-90.4266189
13284,Wintergreen Estates Drive,63026,38.5032021,-90.4306758
1240,Park Meadow Drive,63026,38.5297121,-90.4518469
72,Forest Knoll Drive,63026,38.5205841,-90.4466272
978,San Sebastian Drive,63026,38.5258265,-90.4708560
1666,Fabick Drive,63026,38.5372953,-90.4420022
1543,Bent Oak Ridge Drive,63026,38.5369387,-90.4683982
13255,Wintergreen Estates Drive,63026,38.5039345,-90.4300713
1214,Park Meadow Drive,63026,38.5277122,-90.4507475
1124,Bent Tree Trails Drive,63026,38.5344398,-90.4672395
61,Forest Knoll Drive,63026,38.5197417,-90.4465893
16,Treecrest Court,63026,38.5204127,-90.4448996
13266,Wintergreen Estates Drive,63026,38.5034906,-90.4303638
1036,Villa Gran Way,63026,38.5286644,-90.4719906
318,Peffer Lane,63026,38.5313011,-90.4433900
13218,Wintergreen Estates Drive,63026,38.5036920,-90.4286159
74,Sennawood Drive,63026,38.5222280,-90.4502666
102,Forest Knoll Drive,63026,38.5225485,-90.4458129
1711,San Martin Drive,63026,38.5284971,-90.4690286
506,Riverchase Circle,63026,38.5285335,-90.4495331
1805,Alvarado Drive,63026,38.5294001,-90.4645733
251,Peffer Lane,63026,38.5317568,-90.4420399
1041,Villa Gran Way,63026,38.5292508,-90.4720071
417,Gravois Road,63026,38.5130851,-90.4373159
1007,Villa Gran Way,63026,38.5281178,-90.4698320
994,San Sebastian Drive,63026,38.5274403,-90.4706063
99,Forest Knoll Drive,63026,38.5223598,-90.4453833
13320,Wintergreen Estates Drive,63026,38.5025309,-90.4309003
1302,Montevale Court,63026,38.5301639,-90.4503958
720,Rudder Road,63026,38.5387375,-90.4540382
16,Fircrest Lane,63026,38.5182041,-90.4497149
20,Fircrest Lane,63026,38.5183033,-90.4499465
1272,Larkin Williams Road,63026,38.5275768,-90.4464254
22,Sennawood Drive,63026,38.5186038,-90.4508208
512,Riverchase Circle,63026,38.5279755,-90.4499532
837,Villa Gran Way,63026,38.5289121,-90.4576166
1549,Fencorp Drive,63026,38.5343612,-90.4475700
1569,Fencorp Drive,63026,38.5351473,-90.4475633
15,Treecrest Court,63026,38.5209051,-90.4445479
1106,Coronita Way,63026,38.5280031,-90.4727888
730,Gravois Road,63026,38.5105546,-90.4478469
13326,Wintergreen Estates Drive,63026,38.5023624,-90.4309297
1440,Uthoff Drive,63026,38.5324390,-90.4650437
1815,Alvarado Drive,63026,38.5298040,-90.4644311
1310,Park Meadow Drive,63026,38.5290904,-90.4530757
1481,Bent Oak Ridge Court,63026,38.5338204,-90.4686022
367,Imperial Lane,63026,38.5324960,-90.4452467
366,Chrysler Lane,63026,38.5303913,-90.4451331
245,Peffer Lane,63026,38.5317295,-90.4417605
220,South Old Highway 141 Street,63026,38.5087183,-90.4324352
1210,Larkin Williams Road,63026,38.5275373,-90.4376371
1533,Fenpark Drive,63026,38.5338093,-90.4496436
330,Peffer Lane,63026,38.5312965,-90.4438467
1293,Valiant Drive,63026,38.5295030,-90.4457007
269,Allen Road,63026,38.5021478,-90.4124439
1239,Woodridge Trails Drive,63026,38.5329309,-90.4704421
1291,Fenton Meadows Court,63026,38.5313924,-90.4729637
1653,San Simeon Way,63026,38.5253738,-90.4649533
342,Peffer Lane,63026,38.5312977,-90.4442604
337,Dart Lane,63026,38.5299895,-90.4440088
16,Ashgate Court,63026,38.5194653,-90.4453062
1455,Uthoff Drive,63026,38.5331496,-90.4673669
313,Gravois Road,63026,38.5125143,-90.4363788
1705,Coronita Drive,63026,38.5293621,-90.4715492
1298,Fenton Meadows Court,63026,38.5310333,-90.4733239
1301,Larkin Williams Road,63026,38.5219319,-90.4431940
1327,Park Meadow Drive,63026,38.5284554,-90.4537196
948,San Sebastian Drive,63026,38.5245944,-90.4675158
302,Wolfner Drive,63026,38.5329462,-90.4450916
205,Water Street,63026,38.5130933,-90.4336363
766,Gravois Bluffs Boulevard,63026,38.5039421,-90.4514771
998,Larkin Williams Road,63026,38.5225125,-90.4361111
82,Opps Lane,63026,38.5104196,-90.4288521
16,Forest Oak Court,63026,38.5180695,-90.4468349
911,Woodway Circle,63026,38.5212753,-90.4565299
951,Woodway Drive,63026,38.5228879,-90.4594940
954,San Sebastian Drive,63026,38.5247996,-90.4679870
12,Woodington Court,63026,38.5327379,-90.4716209
6,Elderwood Court,63026,38.5202345,-90.4495321
12,Ferry Street,63026,38.5140380,-90.4364057
86,Opps Lane,63026,38.5107050,-90.4292005
631,Gravois Road,63026,38.5139559,-90.4423083
317,Hays Hill Drive,63026,38.5164669,-90.4441542
412,Water Street,63026,38.5140123,-90.4358129
550,Busch Forest Lane,63026,38.5031454,-90.4264296
1007,Bowles Avenue,63026,38.5246827,-90.4736160
349,Fury Drive,63026,38.5291268,-90.4444083
718,River Hills Drive,63026,38.5180228,-90.4444165
1718,San Martin Drive,63026,38.5289273,-90.4684467
1501,Ocello Drive,63026,38.5320093,-90.4589296
1203,Montevale Court,63026,38.5279462,-90.4487579
1265,Yarnell Road,63026,38.5306264,-90.4370427
8,Sennawood Drive,63026,38.5177326,-90.4509665
991,San Sebastian Drive,63026,38.5268413,-90.4703851
1501,Bent Tree Trails Court,63026,38.5349697,-90.4675872
6,Heathwood Lane,63026,38.5169067,-90.4492115
517,Main Street,63026,38.5138129,-90.4388102
509,Main Street,63026,38.5140346,-90.4377529
1300,Horan Drive,63026,38.5377202,-90.4702723
1282,Valiant Drive,63026,38.5291031,-90.4462301
1037,Villa Gran Way,63026,38.5290895,-90.4716724
46,Sennawood Drive,63026,38.5203347,-90.4504851
36,Sennawood Drive,63026,38.5195644,-90.4505640
1300,Yarnell Road,63026,38.5305758,-90.4355539
1200,Montevale Court,63026,38.5279896,-90.4484460
348,Chrysler Lane,63026,38.5304036,-90.4444467
23,Forest Oak Court,63026,38.5182668,-90.4460495
1310,Valiant Drive,63026,38.5302211,-90.4462154
92,Opps Lane,63026,38.5111359,-90.4297716
296,Wolfner Drive,63026,38.5329645,-90.4446830
28,Forest Oak Court,63026,38.5180258,-90.4460751
310,Hays Hill Drive,63026,38.5165707,-90.4436562
1003,Villa Gran Way,63026,38.5279815,-90.4693027
1365,Montevale Court,63026,38.5298357,-90.4555615
1029,Villa Gran Way,63026,38.5288411,-90.4711683
373,Fury Drive,63026,38.5290841,-90.4452726
949,Woodway Circle,63026,38.5213659,-90.4570153
1923,Bowles Avenue,63026,38.5410582,-90.4701684
212,Water Street,63026,38.5130548,-90.4341419
913,Woodway Circle,63026,38.5215467,-90.4563892
795,Murray Hill Drive,63026,38.5172627,-90.4459890
1207,Montevale Court,63026,38.5281413,-90.4490661
13231,Wintergreen Estates Drive,63026,38.5040301,-90.4291116
1120,Yarnell Road,63026,38.5370707,-90.4355545
700,Murray Hill Drive,63026,38.5159964,-90.4462159
1206,Park Meadow Drive,63026,38.5274703,-90.4502317
116,Zapata Court,63026,38.5269626,-90.4627786
19,Ashgate Court,63026,38.5202924,-90.4455871
755,River Hills Drive,63026,38.5179414,-90.4411913
759,River Hills Drive,63026,38.5176268,-90.4407587
1738,San Martin Drive,63026,38.5297152,-90.4680627
13357,Wintergreen Estates Drive,63026,38.5014319,-90.4315979
1430,Riverside Drive,63026,38.5325075,-90.4404386
768,River Hills Drive,63026,38.5169041,-90.4406707
1732,Coronita Drive,63026,38.5305826,-90.4705867
1262,Fenton Meadows Court,63026,38.5308861,-90.4707004
773,River Hills Drive,63026,38.5169639,-90.4397304
715,Murray Hill Drive,63026,38.5158251,-90.4467554
1752,San Martin Drive,63026,38.5303332,-90.4674690
1270,Horan Drive,63026,38.5364489,-90.4694909
1495,Uthoff Drive,63026,38.5338971,-90.4662588
1635,La Palma Drive,63026,38.5262519,-90.4670294
1650,San Simeon Way,63026,38.5253401,-90.4639634
33,Raintree Court,63026,38.5209248,-90.4472198
1180,Horan Drive,63026,38.5379288,-90.4672095
45,Raintree Court,63026,38.5217156,-90.4468387
415,Courtney Estates Drive,63026,38.5303483,-90.4501736
566,Busch Forest Lane,63026,38.5021847,-90.4265139
15,Woodington Court,63026,38.5331844,-90.4719765
71,Forest Knoll Drive,63026,38.5204160,-90.4461776
413,Center Street,63026,38.5121268,-90.4378649
1461,Larkin Williams Road,63026,38.5330799,-90.4514342
1610,La Palma Drive,63026,38.5250907,-90.4664441
1397,Uthoff Drive,63026,38.5315350,-90.4663034
244,Wolfner Drive,63026,38.5330373,-90.4420551
527,Busch Forest Lane,63026,38.5046917,-90.4261684
154,Parkside Acres Drive,63026,38.5277921,-90.4431015
1195,Horan Drive,63026,38.5389899,-90.4678613
821,Villa Gran Way,63026,38.5262160,-90.4588011
922,Villa Gran Way,63026,38.5286540,-90.4650333
1527,Uthoff Drive,63026,38.5354409,-90.4661938
527,Axminister Drive,63026,38.5374089,-90.4495395
319,Imperial Lane,63026,38.5325617,-90.4434479
29,Elderwood Court,63026,38.5216612,-90.4490137
27,Raintree Court,63026,38.5205318,-90.4474545
1512,Bent Tree Trails Court,63026,38.5353822,-90.4669136
21,Raintree Court,63026,38.5201371,-90.4476890
1278,Fenton Meadows Court,63026,38.5308890,-90.4719039
1307,Valiant Drive,63026,38.5301680,-90.4457074
266,Wolfner Drive,63026,38.5330070,-90.4431611
1339,Uthoff Drive,63026,38.5310198,-90.4667169
1118,Coronita Way,63026,38.5284156,-90.4730335
191,Water Street,63026,38.5125489,-90.4328077
366,Dart Lane,63026,38.5295521,-90.4451000
18,Treecrest Court,63026,38.5203145,-90.4444521
626,Winter View Circle,63026,38.5013693,-90.4282042
30,Raintree Court,63026,38.5207165,-90.4479052
401,Courtney Estates Drive,63026,38.5308425,-90.4492778
995,San Sebastian Drive,63026,38.5272377,-90.4701381
631,Winter View Circle,63026,38.5011283,-90.4288936
19,Fircrest Lane,63026,38.5185889,-90.4495725
1507,Bent Tree Trails Court,63026,38.5352088,-90.4675347
331,Imperial Lane,63026,38.5325300,-90.4439212
1267,Fenton Meadows Court,63026,38.5314145,-90.4710393
1755,San Martin Drive,63026,38.5304659,-90.4678239
1515,Uthoff Drive,63026,38.5352109,-90.4661909
400,Courtney Estates Drive,63026,38.5305009,-90.4489312
1665,Littleton Court,63026,38.5241930,-90.4587674
310,Fury Drive,63026,38.5287588,-90.4429821
32,Raintree Court,63026,38.5209163,-90.4477971
14,Fircrest Lane,63026,38.5180533,-90.4494882
555,Busch Forest Lane,63026,38.5034331,-90.4255985
343,Fury Drive,63026,38.5291291,-90.4441898
304,Fury Drive,63026,38.5287681,-90.4427815
35,Sennawood Drive,63026,38.5195496,-90.4500498
1450,Uthoff Drive,63026,38.5334228,-90.4644970
1724,Coronita Drive,63026,38.5301676,-90.4706715
13206,Wintergreen Estates Drive,63026,38.5036992,-90.4281580
597,New Smizer Mill Road,63026,38.5248606,-90.4539158
2130,Cassens Drive,63026,38.5459020,-90.4402653
359,South Old Highway 141 Street,63026,38.5080053,-90.4320338
20,Buckwood Court,63026,38.5189524,-90.4494203
268,Wolfner Drive,63026,38.5330024,-90.4432681
2,Treecrest Court,63026,38.5210027,-90.4457319
1226,Woodridge Trails Drive,63026,38.5326008,-90.4691943
337,Peffer Lane,63026,38.5316848,-90.4440811
1250,Larkin Williams Road,63026,38.5274355,-90.4433217
971,San Sebastian Drive,63026,38.5257561,-90.4697880
1764,Chase Drive,63026,38.5417866,-90.4531052
318,Axminister Drive,63026,38.5362084,-90.4449947
243,Imperial Lane,63026,38.5325738,-90.4416761
96,Forest Knoll Drive,63026,38.5221208,-90.4460963
1109,Bent Tree Trails Drive,63026,38.5347617,-90.4664575
1287,Valiant Drive,63026,38.5292871,-90.4456749
1405,Uthoff Drive,63026,38.5321846,-90.4662083
751,River Hills Drive,63026,38.5180231,-90.4415595
1263,Fenton Meadows Court,63026,38.5313932,-90.4707134
747,River Hills Drive,63026,38.5183327,-90.4418869
626,Axminister Drive,63026,38.5364751,-90.4522423
630,Axminister Drive,63026,38.5365874,-90.4523314
610,Axminister Drive,63026,38.5362817,-90.4523915
562,Rudder Road,63026,38.5396416,-90.4506590
560,Axminister Drive,63026,38.5362254,-90.4512975
101,Fabick Drive,63026,38.5384437,-90.4417523
1,Fabick Drive,63026,38.5386936,-90.4417610
2442,Cassens Drive,63026,38.5539792,-90.4457028
600,Axminister Drive,63026,38.5362114,-90.4521390
164,Larkin Williams Industrial Court,63026,38.5346555,-90.4588726
1168,London Circle Lane,63026,38.5020785,-90.4568989
626,Gravois Road,63026,38.5125114,-90.4417086
656,Axminister Drive,63026,38.5366864,-90.4534257
901,Westminster Abby Lane,63026,38.5025577,-90.4562499
1724,Westpark Center Drive,63026,38.5386465,-90.4684332
1420,Uthoff Farm Trail,63026,38.5315339,-90.4643758
532,Axminister Drive,63026,38.5365799,-90.4501909
1748,Chase Drive,63026,38.5413661,-90.4525864
1735,Westpark Center Drive,63026,38.5393983,-90.4691234
941,Westminster Abby Lane,63026,38.5015517,-90.4582431
1718,Chase Drive,63026,38.5404834,-90.4521537
1577,Fencorp Drive,63026,38.5357400,-90.4476839
1007,Uthoff Farm Court,63026,38.5340071,-90.4640437
933,Westminster Abby Lane,63026,38.5015358,-90.4575908
690,South Highway Drive,63026,38.5423989,-90.4538226
1804,Larkin Williams Road,63026,38.5400490,-90.4569937
1736,Westpark Center Drive,63026,38.5392696,-90.4686090
1730,Chase Drive,63026,38.5408373,-90.4523655
180,Larkin Williams Industrial Court,63026,38.5344834,-90.4589575
1749,Larkin Williams Road,63026,38.5402588,-90.4581757
640,Axminister Drive,63026,38.5366801,-90.4529918
658,Axminister Drive,63026,38.5366026,-90.4535304
130,Larkin Williams Industrial Court,63026,38.5336728,-90.4591591
775,Merus Court,63026,38.5401404,-90.4562798
642,Axminister Drive,63026,38.5365940,-90.4530896
942,South Highway Drive,63026,38.5424739,-90.4606809
751,Merus Court,63026,38.5404452,-90.4555584
1728,Westpark Center Drive,63026,38.5390510,-90.4685163
1160,London Circle Lane,63026,38.5021984,-90.4572959
1612,Coronita Drive,63026,38.5265738,-90.4722497
2055,Hitzert Court,63026,38.5461481,-90.4481970
2045,Hitzert Court,63026,38.5459871,-90.4481109
903,Bolger Court,63026,38.5405953,-90.4607411
1728,Chase Drive,63026,38.5407762,-90.4523289
1328,Park Meadow Drive,63026,38.5288450,-90.4539411
1242,Larkin Williams Road,63026,38.5274636,-90.4427456
900,South Highway Drive,63026,38.5421539,-90.4593070
1711,Chase Drive,63026,38.5402285,-90.4528107
23,Premier Drive,63026,38.5418655,-90.4432130
19,Premier Drive,63026,38.5414960,-90.4432436
1425,Uthoff Farm Trail,63026,38.5318924,-90.4653420
910,Villa Gran Way,63026,38.5284965,-90.4641362
917,Horan Drive,63026,38.5386318,-90.4610077
900,South Highway Drive,63026,38.5422313,-90.4595449
540,Gravois Road,63026,38.5130574,-90.4393092
617,Winter Hill Circle,63026,38.5031765,-90.4301179
627,Winter View Circle,63026,38.5014186,-90.4287611
1731,Chase Drive,63026,38.5407409,-90.4530180
781,Rudder Road,63026,38.5388179,-90.4555033
274,Wolfner Drive,63026,38.5329960,-90.4435662
652,Axminister Drive,63026,38.5366837,-90.4533157
914,South Highway Drive,63026,38.5413700,-90.4599662
636,Axminister Drive,63026,38.5365304,-90.4530916
777,Rudder Road,63026,38.5392121,-90.4550091
221,Water Street,63026,38.5137045,-90.4347209
812,Horan Drive,63026,38.5378539,-90.4561779
144,Larkin Williams Industrial Court,63026,38.5336806,-90.4585414
1573,Fenpark Drive,63026,38.5356965,-90.4495521
608,Axminister Drive,63026,38.5362798,-90.4522479
1848,Bowles Avenue,63026,38.5394670,-90.4711120
632,Axminister Drive,63026,38.5365287,-90.4529901
575,Rudder Road,63026,38.5410354,-90.4518014
1759,Larkin Williams Road,63026,38.5413941,-90.4587748
1521,Ocello Drive,63026,38.5335111,-90.4567419
700,Rudder Road,63026,38.5387730,-90.4533178
312,Water Street,63026,38.5136350,-90.4351157
1663,Fenpark Drive,63026,38.5382832,-90.4494451
941,Westminster Abby Lane,63026,38.5015505,-90.4581809
618,Axminister Drive,63026,38.5364067,-90.4521333
150,Larkin Williams Industrial Court,63026,38.5339350,-90.4585247
12,Ashgate Court,63026,38.5191714,-90.4457616
590,Fleetwood Drive,63026,38.5309422,-90.4513733
31,Gravois Bluffs Plaza Drive,63026,38.5083142,-90.4474361
35,Gravois Bluffs Plaza Drive,63026,38.5081958,-90.4473919
1283,Shadow Bend Court,63026,38.5349000,-90.4702602
2275,Cassens Drive,63026,38.5496682,-90.4447055
2093,Hitzert Court,63026,38.5474108,-90.4489335
900,South Highway Drive,63026,38.5421588,-90.4595316
1571,Fenpark Drive,63026,38.5356090,-90.4495477
1555,Larkin Williams Road,63026,38.5342673,-90.4532352
829,Villa Gran Way,63026,38.5267653,-90.4592661
513,Center Street,63026,38.5125134,-90.4390355
900,South Highway Drive,63026,38.5420359,-90.4595784
1358,Montevale Court,63026,38.5303862,-90.4548991
601,Gravois Bluffs Boulevard,63026,38.5065579,-90.4317584
1571,Fenpark Drive,63026,38.5355215,-90.4495478
739,Gravois Road,63026,38.5111578,-90.4485783
206,Wolfner Drive,63026,38.5330835,-90.4401125
2275,Cassens Drive,63026,38.5491304,-90.4443941
538,Gravois Road,63026,38.5130640,-90.4392733
425,Autumn Parc Court,63026,38.5202066,-90.4437465
1763,Chase Drive,63026,38.5418508,-90.4536576
409,Main Street,63026,38.5135046,-90.4363791
1628,La Palma Drive,63026,38.5258974,-90.4656484
2275,Cassens Drive,63026,38.5493584,-90.4445298
1800,Larkin Williams Road,63026,38.5399327,-90.4568700
2075,Hitzert Court,63026,38.5466669,-90.4484873
121,Matrix Commons Drive,63026,38.5385886,-90.4520854
909,Westminster Abby Lane,63026,38.5020101,-90.4559996
1168,London Circle Lane,63026,38.5021829,-90.4566634
1168,Nolan Road,63026,38.5016247,-90.4505444
982,Bolger Court,63026,38.5403380,-90.4612026
941,Westminster Abby Lane,63026,38.5014867,-90.4580497
1354,Montevale Court,63026,38.5304363,-90.4546199
948,South Highway Drive,63026,38.5415935,-90.4617529
909,Westminster Abby Lane,63026,38.5020966,-90.4560223
925,Westminster Abby Lane,63026,38.5014143,-90.4565557
634,Winter View Circle,63026,38.5014472,-90.4265327
18,Woodington Court,63026,38.5332383,-90.4711222
44,Fenton Plaza,63026,38.5116071,-90.4417348
24,Sennawood Drive,63026,38.5188466,-90.4508003
1732,Chase Drive,63026,38.5409021,-90.4523975
1,Sennawood Drive,63026,38.5171811,-90.4505347
1626,La Palma Drive,63026,38.5258443,-90.4659525
1720,Westpark Center Drive,63026,38.5388086,-90.4684312
792,Gravois Bluffs Boulevard,63026,38.5024934,-90.4525452
794,Gravois Bluffs Boulevard,63026,38.5023318,-90.4535270
46,Fenton Plaza,63026,38.5115928,-90.4418076
925,Westminster Abby Lane,63026,38.5014765,-90.4571506
925,Westminster Abby Lane,63026,38.5015181,-90.4568431
301,Chrysler Lane,63026,38.5308599,-90.4427119
1728,Westpark Center Drive,63026,38.5392637,-90.4685200
1003,Uthoff Farm Court,63026,38.5339732,-90.4636360
25,Gravois Bluffs Plaza Drive,63026,38.5084477,-90.4474725
603,Winter View Circle,63026,38.5031547,-90.4284726
1630,Headland Drive,63026,38.5355288,-90.4403312
1000,South Highway Drive,63026,38.5426396,-90.4618689
1421,Uthoff Farm Trail,63026,38.5321958,-90.4653706
322,Fury Drive,63026,38.5287363,-90.4434618
909,Westminster Abby Lane,63026,38.5021682,-90.4559767
38,Soccer Park Road,63026,38.5445439,-90.4359879
108,Matrix Commons Drive,63026,38.5395422,-90.4512611
1720,Westpark Center Drive,63026,38.5390451,-90.4684387
502,Gravois Road,63026,38.5129534,-90.4380906
232,Wolfner Drive,63026,38.5330504,-90.4414464
200,Fabricator Drive,63026,38.5374587,-90.4392333
1568,Fencorp Drive,63026,38.5347836,-90.4463156
2519,Cassens Drive,63026,38.5554525,-90.4480293
900,South Highway Drive,63026,38.5420335,-90.4594722
1630,Coronita Drive,63026,38.5278495,-90.4718494
1411,Larkin Williams Road,63026,38.5316126,-90.4500132
147,Cassens Court,63026,38.5488582,-90.4463686
1250,Horan Drive,63026,38.5379738,-90.4692227
143,Cassens Court,63026,38.5491725,-90.4465613
2275,Cassens Drive,63026,38.5493020,-90.4445006
159,Cassens Court,63026,38.5484095,-90.4460865
1628,Coronita Drive,63026,38.5276347,-90.4719145
967,San Sebastian Drive,63026,38.5257391,-90.4692504
125,Cassens Court,63026,38.5494069,-90.4467004
1004,Uthoff Farm Court,63026,38.5336717,-90.4635620
564,Old Smizer Mill Road,63026,38.5148858,-90.4512782
651,Gravois Road,63026,38.5126705,-90.4433408
324,Peffer Lane,63026,38.5312951,-90.4435952
1591,Fenpark Drive,63026,38.5364022,-90.4495757
2275,Cassens Drive,63026,38.5494760,-90.4445957
925,Westminster Abby Lane,63026,38.5014218,-90.4568186
556,Old Smizer Mill Road,63026,38.5147918,-90.4511941
1015,Uthoff Farm Court,63026,38.5340223,-90.4647466
901,Westminster Abby Lane,63026,38.5025696,-90.4561816
7,Buckwood Court,63026,38.5188382,-90.4482057
19,Gravois Bluffs Plaza Drive,63026,38.5086279,-90.4475261
1308,Horan Drive,63026,38.5369630,-90.4710070
37,Gravois Bluffs Plaza Drive,63026,38.5081442,-90.4473783
320,Gravois Road,63026,38.5121127,-90.4367964
10,Woodridge Trails Court,63026,38.5320902,-90.4728279
2,Gravois Road,63026,38.5118795,-90.4316419
316,Gravois Road,63026,38.5121270,-90.4366932
36,Gravois Road,63026,38.5114184,-90.4325694
300,Axminister Drive,63026,38.5361890,-90.4442360
1230,Woodridge Trails Drive,63026,38.5323111,-90.4693519
950,Bolger Court,63026,38.5400091,-90.4610987
885,Villa Gran Way,63026,38.5282405,-90.4626428
503,Gravois Road,63026,38.5133754,-90.4379100
968,San Sebastian Drive,63026,38.5253137,-90.4697166
976,South Highway Drive,63026,38.5416998,-90.4624957
1538,Bent Oak Ridge Drive,63026,38.5366079,-90.4680282
970,Bolger Court,63026,38.5399839,-90.4605523
320,Gravois Road,63026,38.5121941,-90.4367912
846,Villa Gran Way,63026,38.5272396,-90.4605363
794,Gravois Bluffs Boulevard,63026,38.5023421,-90.4534711
1168,London Circle Lane,63026,38.5021323,-90.4569975
750,Gravois Road,63026,38.5093770,-90.4484136
1568,Fencorp Drive,63026,38.5348266,-90.4464066
1625,La Palma Drive,63026,38.5259304,-90.4664909
625,New Smizer Mill Road,63026,38.5186403,-90.4515875
259,Wolfner Drive,63026,38.5336077,-90.4429583
274,Axminister Drive,63026,38.5363786,-90.4434035
1190,Horan Drive,63026,38.5378686,-90.4676090
53,Gravois Road,63026,38.5114684,-90.4340484
414,Gravois Road,63026,38.5125846,-90.4376136
925,Westminster Abby Lane,63026,38.5014703,-90.4566002
1168,London Circle Lane,63026,38.5021322,-90.4569330
592,Old Smizer Mill Road,63026,38.5155421,-90.4517027
909,Westminster Abby Lane,63026,38.5022100,-90.4560982
1220,Horan Drive,63026,38.5378628,-90.4684056
282,Axminister Drive,63026,38.5363781,-90.4435129
622,Winter View Circle,63026,38.5016601,-90.4280231
925,Westminster Abby Lane,63026,38.5014703,-90.4565356
933,Westminster Abby Lane,63026,38.5014361,-90.4572869
16,Heathwood Lane,63026,38.5172869,-90.4498890
207,Water Street,63026,38.5133365,-90.4339555
757,Rudder Road,63026,38.5391197,-90.4549553
964,South Highway Drive,63026,38.5415962,-90.4621799
1601,Headland Drive,63026,38.5335891,-90.4413644
1101,Bent Tree Trails Drive,63026,38.5356134,-90.4664869
1710,Larkin Williams Road,63026,38.5388017,-90.4557148
901,Westminster Abby Lane,63026,38.5023667,-90.4561020
405,Courtney Estates Drive,63026,38.5306902,-90.4495729
233,Wolfner Drive,63026,38.5335236,-90.4414744
256,Axminister Drive,63026,38.5363599,-90.4427854
809,Danielle Place Boulevard,63026,38.5048607,-90.4527077
1628,Manufacturers Drive,63026,38.5343444,-90.4433634
679,Larkin Williams Road,63026,38.5154739,-90.4373111
9,Fircrest Lane,63026,38.5182069,-90.4488969
1754,Chase Drive,63026,38.5414849,-90.4526596
1222,Shadow Bend Drive,63026,38.5344638,-90.4718428
74,Larkin Williams Industrial Court,63026,38.5335521,-90.4553759
220,Gravois Road,63026,38.5114721,-90.4356796
2275,Cassens Drive,63026,38.5494654,-90.4456517
44,Gravois Road,63026,38.5111001,-90.4332357
33,Gravois Bluffs Plaza Drive,63026,38.5082499,-90.4474134
319,Dart Lane,63026,38.5299860,-90.4433342
1294,Valiant Drive,63026,38.5295614,-90.4462003
1565,Fenpark Drive,63026,38.5351008,-90.4496075
788,Gravois Bluffs Boulevard,63026,38.5026490,-90.4516684
1519,Ocello Drive,63026,38.5329975,-90.4577599
1569,Fenpark Drive,63026,38.5351954,-90.4496921
1550,Ocello Drive,63026,38.5342370,-90.4556454
1526,Bent Oak Ridge Drive,63026,38.5361601,-90.4680533
70,Larkin Williams Industrial Court,63026,38.5337237,-90.4553576
1545,Fencorp Drive,63026,38.5341296,-90.4475738
521,Rudder Road,63026,38.5407145,-90.4500419
1855,Bowles Avenue,63026,38.5411622,-90.4716193
1855,Bowles Avenue,63026,38.5412278,-90.4717672
794,Gravois Bluffs Boulevard,63026,38.5023528,-90.4534131
511,Main Street,63026,38.5140665,-90.4381074
719,Rudder Road,63026,38.5392652,-90.4543662
384,Peffer Lane,63026,38.5312564,-90.4458839
328,Fury Drive,63026,38.5287386,-90.4437153
1675,Larkin Williams Road,63026,38.5376148,-90.4554752
601,Gravois Bluffs Boulevard,63026,38.5066693,-90.4316354
1756,Chase Drive,63026,38.5417757,-90.4528441
1855,Bowles Avenue,63026,38.5412307,-90.4716306
7,Woodridge Trails Court,63026,38.5323895,-90.4733435
750,Gravois Bluffs Boulevard,63026,38.5060739,-90.4487496
153,Parkside Acres Drive,63026,38.5283128,-90.4432149
157,Parkside Acres Drive,63026,38.5283213,-90.4429687
373,Chrysler Lane,63026,38.5307775,-90.4453651
901,Horan Drive,63026,38.5389555,-90.4600808
1867,Bowles Avenue,63026,38.5405537,-90.4706831
243,Wolfner Drive,63026,38.5336672,-90.4421451
1201,North Highway Drive,63026,38.5447516,-90.4689427
324,Dart Lane,63026,38.5295979,-90.4435495
601,Gravois Bluffs Boulevard,63026,38.5067687,-90.4315193
1671,Larkin Williams Road,63026,38.5375599,-90.4554200
254,Axminister Drive,63026,38.5363563,-90.4427216
1744,Chase Drive,63026,38.5411576,-90.4525348
1100,South Highway Drive,63026,38.5413545,-90.4679585
1304,Valiant Drive,63026,38.5299802,-90.4462105
1752,Chase Drive,63026,38.5414453,-90.4526321
1855,Bowles Avenue,63026,38.5411056,-90.4716231
401,Yarnell Road,63026,38.5406171,-90.4348871
1859,Bowles Avenue,63026,38.5407183,-90.4719153
11,Woodington Court,63026,38.5330100,-90.4722020
10,Raintree Court,63026,38.5193255,-90.4481092
1855,Bowles Avenue,63026,38.5409179,-90.4717635
1855,Bowles Avenue,63026,38.5410371,-90.4718962
750,Gravois Bluffs Boulevard,63026,38.5060860,-90.4488763
1855,Bowles Avenue,63026,38.5410967,-90.4717710
1855,Bowles Avenue,63026,38.5410401,-90.4717710
11,Premier Drive,63026,38.5409835,-90.4432668
1855,Bowles Avenue,63026,38.5409864,-90.4717673
921,Champion Estates Drive,63026,38.5202950,-90.4556825
1600,Fenpark Drive,63026,38.5374971,-90.4484380
1648,Manufacturers Drive,63026,38.5358156,-90.4431648
1360,Horan Drive,63026,38.5378965,-90.4721793
1160,London Circle Lane,63026,38.5022015,-90.4576679
794,Gravois Bluffs Boulevard,63026,38.5023200,-90.4535907
1168,London Circle Lane,63026,38.5021321,-90.4566027
1301,Montevale Court,63026,38.5297784,-90.4506825
950,Woodway Circle,63026,38.5211403,-90.4573343
776,Gravois Bluffs Boulevard,63026,38.5020181,-90.4494313
2,Sennawood Drive,63026,38.5174648,-90.4510842
925,Westminster Abby Lane,63026,38.5015151,-90.4567330
941,Westminster Abby Lane,63026,38.5015493,-90.4581202
1168,London Circle Lane,63026,38.5021889,-90.4568191
1235,Woodridge Trails Drive,63026,38.5329609,-90.4700839
1160,London Circle Lane,63026,38.5021984,-90.4574515
1168,London Circle Lane,63026,38.5021860,-90.4570013
639,Gravois Bluffs Boulevard,63026,38.5078947,-90.4351986
98,Gravois Bluffs Circle,63026,38.5078529,-90.4452164
410,Autumn Parc Court,63026,38.5193008,-90.4437764
726,River Hills Drive,63026,38.5183278,-90.4440016
909,Westminster Abby Lane,63026,38.5019683,-90.4560490
1201,Nolan Road,63026,38.5013177,-90.4521578
925,Westminster Abby Lane,63026,38.5015181,-90.4567899
933,Westminster Abby Lane,63026,38.5014362,-90.4575424
945,Woodway Drive,63026,38.5227461,-90.4585269
306,Mound Street,63026,38.5136815,-90.4352002
1561,Fencorp Drive,63026,38.5347047,-90.4474868
516,Main Street,63026,38.5135279,-90.4379643
1537,Bent Tree Trails Court,63026,38.5362692,-90.4671124
185,Gravois Bluffs Plaza Drive,63026,38.5035063,-90.4471941
1160,London Circle Lane,63026,38.5021955,-90.4575351
26,Raintree Court,63026,38.5205123,-90.4480267
950,South Highway Drive,63026,38.5415935,-90.4617937
528,Gravois Road,63026,38.5125752,-90.4387587
1223,Park Meadow Drive,63026,38.5275128,-90.4516187
794,Gravois Bluffs Boulevard,63026,38.5023914,-90.4532044
1268,Larkin Williams Road,63026,38.5278999,-90.4454810
536,Gravois Road,63026,38.5130740,-90.4392120
778,Merus Court,63026,38.5396908,-90.4558833
63,Sennawood Drive,63026,38.5213782,-90.4497872
615,Rudder Road,63026,38.5398460,-90.4525839
52,Forest Knoll Drive,63026,38.5193922,-90.4473861
2100,Hitzert Court,63026,38.5473339,-90.4504223
124,Matrix Commons Drive,63026,38.5384578,-90.4511391
1649,Larkin Williams Road,63026,38.5368498,-90.4554960
195,Water Street,63026,38.5126641,-90.4329988
9,Premier Drive,63026,38.5396686,-90.4444205
1532,Fenpark Drive,63026,38.5342736,-90.4485148
2099,Corporate 44 Drive,63026,38.5492874,-90.4488650
1227,Park Meadow Drive,63026,38.5277909,-90.4515776
972,South Highway Drive,63026,38.5416974,-90.4623966
1705,Larkin Williams Road,63026,38.5388826,-90.4563186
1280,Shadow Bend Court,63026,38.5337945,-90.4695372
2150,Bowles Avenue,63026,38.5463885,-90.4723758
65,Sennawood Drive,63026,38.5215951,-90.4497585
2066,Fenton Logistics Park,63026,38.5466491,-90.4526792
2064,Fenton Logistics Park,63026,38.5465920,-90.4528796
1590,Fenpark Drive,63026,38.5364989,-90.4486302
2375,Cassens Drive,63026,38.5519885,-90.4462533
415,Axminister Drive,63026,38.5381839,-90.4471517
415,Axminister Drive,63026,38.5389425,-90.4471215
2068,Fenton Logistics Park,63026,38.5468654,-90.4545120
862,Bolger Court,63026,38.5403483,-90.4583464
1400,Valiant Drive,63026,38.5315812,-90.4464708
557,Wolfner Drive,63026,38.5333465,-90.4505025
26,Soccer Park Road,63026,38.5444567,-90.4362888
1560,Fenpark Drive,63026,38.5359946,-90.4486238
1231,Montevale Court,63026,38.5292007,-90.4497201
1435,Uthoff Drive,63026,38.5330443,-90.4663985
978,South Highway Drive,63026,38.5417216,-90.4626066
1533,Larkin Williams Road,63026,38.5334709,-90.4518799
17,Treecrest Court,63026,38.5206396,-90.4443008
1626,Headland Drive,63026,38.5353589,-90.4403237
899,Bolger Court,63026,38.5405929,-90.4606136
1820,Alvarado Drive,63026,38.5301556,-90.4636899
508,Deer Pointe Court,63026,38.5294997,-90.4551720
404,Main Street,63026,38.5132128,-90.4366026
208,Fabricator Drive,63026,38.5374928,-90.4397106
1537,Larkin Williams Road,63026,38.5335925,-90.4520073
1500,Fenpark Drive,63026,38.5332592,-90.4485127
20,Forest Oak Court,63026,38.5179205,-90.4466345
1520,Bowles Avenue,63026,38.5343195,-90.4728437
1287,Shadow Bend Court,63026,38.5349854,-90.4707674
1547,Fenpark Drive,63026,38.5342450,-90.4496702
562,Axminister Drive,63026,38.5362510,-90.4513350
1866,Larkin Williams Road,63026,38.5408577,-90.4576242
1606,Headland Drive,63026,38.5338949,-90.4404641
958,South Highway Drive,63026,38.5415941,-90.4618490
947,Villa Gran Way,63026,38.5291001,-90.4668184
311,Main Street,63026,38.5130285,-90.4355370
601,Gravois Bluffs Boulevard,63026,38.5061064,-90.4328593
1053,Headquarters Park,63026,38.5408377,-90.4657180
56,Forest Knoll Drive,63026,38.5195949,-90.4472242
941,Westminster Abby Lane,63026,38.5014903,-90.4581218
300,Gravois Road,63026,38.5116459,-90.4362671
900,South Highway Drive,63026,38.5421023,-90.4595864
13213,Wintergreen Estates Drive,63026,38.5041837,-90.4284215
23,Cassens Court,63026,38.5502790,-90.4460123
564,Axminister Drive,63026,38.5362812,-90.4513660
1431,Larkin Williams Road,63026,38.5320847,-90.4503992
56,Soccer Park Road,63026,38.5440681,-90.4375153
1078,Headquarters Park,63026,38.5400939,-90.4663112
320,Gravois Road,63026,38.5118954,-90.4365900
1712,Gilsinn Lane,63026,38.5393271,-90.4636322
470,South Highway Drive,63026,38.5420100,-90.4473908
15,Premier Drive,63026,38.5412159,-90.4432666
1738,Gilsinn Lane,63026,38.5395192,-90.4634118
784,Gravois Bluffs Boulevard,63026,38.5027218,-90.4512189
1014,Villa Gran Way,63026,38.5280253,-90.4706650
65,Fenton Plaza,63026,38.5112397,-90.4435326
1732,Gilsinn Lane,63026,38.5394266,-90.4632761
950,San Sebastian Drive,63026,38.5252818,-90.4710834
1574,Fenpark Drive,63026,38.5362426,-90.4486198
16,Elderwood Court,63026,38.5207824,-90.4486656
511,New Smizer Mill Road,63026,38.5166369,-90.4496577
968,South Highway Drive,63026,38.5415998,-90.4622864
1755,Larkin Williams Road,63026,38.5414728,-90.4588172
1381,Larkin Williams Road,63026,38.5311262,-90.4494668
360,Dart Lane,63026,38.5295503,-90.4448807
980,South Highway Drive,63026,38.5416978,-90.4628828
779,Gravois Bluffs Boulevard,63026,38.5041467,-90.4539461
901,Westminster Abby Lane,63026,38.5028560,-90.4563561
1862,Larkin Williams Road,63026,38.5408094,-90.4576011
1681,Larkin Williams Road,63026,38.5377307,-90.4555898
1735,Chase Drive,63026,38.5410080,-90.4531784
174,Larkin Williams Industrial Court,63026,38.5346571,-90.4589674
366,Fury Drive,63026,38.5287083,-90.4450428
660,Axminister Drive,63026,38.5366870,-90.4535409
1702,Chase Drive,63026,38.5400882,-90.4519249
330,Dart Lane,63026,38.5295777,-90.4437755
408,Courtney Estates Drive,63026,38.5302607,-90.4493868
765,Gravois Road,63026,38.5094987,-90.4510156
140,Larkin Williams Industrial Court,63026,38.5336784,-90.4586799
638,Axminister Drive,63026,38.5365934,-90.4529858
1858,Larkin Williams Road,63026,38.5406963,-90.4575398
25,Raintree Court,63026,38.5203315,-90.4475756
650,Axminister Drive,63026,38.5366002,-90.4533167
58,Fenton Plaza,63026,38.5113858,-90.4426223
1722,Chase Drive,63026,38.5405590,-90.4522040
757,Gravois Road,63026,38.5095997,-90.4507146
15,Goode Drive,63026,38.5148273,-90.4372789
612,Axminister Drive,63026,38.5363420,-90.4521365
953,Villa Gran Way,63026,38.5287325,-90.4669980
1621,Manufacturers Drive,63026,38.5344597,-90.4447500
644,Axminister Drive,63026,38.5366796,-90.4530885
530,Rudder Road,63026,38.5402727,-90.4493579
1759,Chase Drive,63026,38.5416537,-90.4535631
574,Axminister Drive,63026,38.5364167,-90.4515389
1420,Valiant Drive,63026,38.5324668,-90.4464480
417,Autumn Parc Court,63026,38.5199252,-90.4433630
2400,Cassens Drive,63026,38.5533259,-90.4457313
2383,Cassens Drive,63026,38.5516192,-90.4466785
757,Larkin Williams Road,63026,38.5178760,-90.4371884
606,Axminister Drive,63026,38.5362754,-90.4521373
1761,Chase Drive,63026,38.5417870,-90.4536237
1757,Chase Drive,63026,38.5415557,-90.4535027
1735,Larkin Williams Road,63026,38.5396085,-90.4575495
100,Larkin Williams Industrial Court,63026,38.5342253,-90.4571529
50,Sennawood Drive,63026,38.5206039,-90.4504331
900,South Highway Drive,63026,38.5420287,-90.4593569
620,Axminister Drive,63026,38.5364110,-90.4522439
580,Axminister Drive,63026,38.5365166,-90.4516601
655,Axminister Drive,63026,38.5373235,-90.4531918
1601,Manufacturers Drive,63026,38.5334463,-90.4447745
199,Gravois Bluffs Plaza Drive,63026,38.5013868,-90.4468816
1246,Larkin Williams Road,63026,38.5274631,-90.4430078
25,Cassens Court,63026,38.5502397,-90.4461216
44,Soccer Park Road,63026,38.5445690,-90.4358880
1231,Horan Drive,63026,38.5387645,-90.4693191
925,Westminster Abby Lane,63026,38.5015166,-90.4565084
1168,London Circle Lane,63026,38.5021830,-90.4570696
1758,Chase Drive,63026,38.5417793,-90.4529082
925,Westminster Abby Lane,63026,38.5014734,-90.4568811
925,Westminster Abby Lane,63026,38.5015230,-90.4571518
925,Westminster Abby Lane,63026,38.5014259,-90.4566883
2100,Fenton Logistics Park,63026,38.5493237,-90.4549430
1744,Gilsinn Lane,63026,38.5394564,-90.4637256
925,Westminster Abby Lane,63026,38.5014301,-90.4570954
2275,Cassens Drive,63026,38.5492344,-90.4453491
1052,Villa Gran Way,63026,38.5291683,-90.4728870
1736,Gilsinn Lane,63026,38.5395157,-90.4633406
72,Fenton Plaza,63026,38.5115438,-90.4439419
595,New Smizer Mill Road,63026,38.5237486,-90.4475144
329,Hays Hill Drive,63026,38.5159338,-90.4442666
1511,Bent Oak Ridge Drive,63026,38.5353688,-90.4685483
2106,Fenton Logistics Park,63026,38.5495429,-90.4543334
212,Fabricator Drive,63026,38.5375681,-90.4405176
2088,Fenton Logistics Park,63026,38.5480098,-90.4534460
2080,Fenton Logistics Park,63026,38.5477906,-90.4540557
2126,Fenton Logistics Park,63026,38.5509697,-90.4551707
2120,Fenton Logistics Park,63026,38.5507505,-90.4557804
2026,Corporate 44 Drive,63026,38.5465111,-90.4476504
507,Rudder Road,63026,38.5416752,-90.4479582
1619,La Palma Drive,63026,38.5257116,-90.4665815
2095,Corporate 44 Drive,63026,38.5487602,-90.4487052
1503,Bent Oak Ridge Drive,63026,38.5349388,-90.4686926
1254,Valiant Drive,63026,38.5284523,-90.4463902
933,Westminster Abby Lane,63026,38.5015316,-90.4573055
909,Westminster Abby Lane,63026,38.5020161,-90.4560528
2062,Fenton Logistics Park,63026,38.5465188,-90.4530832
2058,Fenton Logistics Park,63026,38.5463670,-90.4535054
25,Buckwood Court,63026,38.5194202,-90.4494382
901,Villa Gran Way,63026,38.5287059,-90.4635950
761,Gravois Road,63026,38.5095330,-90.4508262
312,Hays Hill Drive,63026,38.5164020,-90.4427927
765,Gravois Road,63026,38.5094587,-90.4509646
941,Westminster Abby Lane,63026,38.5014414,-90.4580149
300,Hays Hill Drive,63026,38.5171622,-90.4434772
1529,Fencorp Drive,63026,38.5331895,-90.4473594
759,Gravois Road,63026,38.5095711,-90.4507631
54,Sennawood Drive,63026,38.5208906,-90.4504079
933,Champion Estates Drive,63026,38.5210526,-90.4550915
1341,Montevale Court,63026,38.5299475,-90.4538055
1220,Woodridge Trails Drive,63026,38.5327741,-90.4684930
7,Ashgate Court,63026,38.5196395,-90.4462200
939,Champion Estates Drive,63026,38.5209255,-90.4547826
940,Champion Estates Drive,63026,38.5206819,-90.4547374
570,Rudder Road,63026,38.5394979,-90.4506658
134,Larkin Williams Industrial Court,63026,38.5336785,-90.4589316
1296,Larkin Williams Road,63026,38.5290027,-90.4467731
585,Fleetwood Drive,63026,38.5314223,-90.4517592
1600,Fenpark Drive,63026,38.5376054,-90.4484344
1005,Villa Gran Way,63026,38.5280310,-90.4696213
1240,Shadow Bend Drive,63026,38.5354390,-90.4724944
1210,Shadow Bend Drive,63026,38.5336244,-90.4712649
1288,Shadow Bend Court,63026,38.5343963,-90.4712142
11,Gravois Road,63026,38.5122438,-90.4322988
572,Old Smizer Mill Road,63026,38.5150075,-90.4513852
1547,Fencorp Drive,63026,38.5341897,-90.4475701
824,Horan Drive,63026,38.5378598,-90.4565676
681,Larkin Williams Road,63026,38.5155136,-90.4373222
508,Old Smizer Mill Road,63026,38.5142206,-90.4507122
944,Villa Gran Way,63026,38.5285879,-90.4661333
542,Gravois Road,63026,38.5129611,-90.4393431
500,Old Smizer Mill Road,63026,38.5141312,-90.4506395
1168,London Circle Lane,63026,38.5020695,-90.4566369
536,Old Smizer Mill Road,63026,38.5145246,-90.4509714
16,Woodington Court,63026,38.5330594,-90.4715574
841,Villa Gran Way,63026,38.5274177,-90.4594458
794,Gravois Bluffs Boulevard,63026,38.5024608,-90.4528285
2059,Hitzert Court,63026,38.5462794,-90.4482670
2367,Cassens Drive,63026,38.5516427,-90.4460562
1489,Bent Oak Ridge Court,63026,38.5342340,-90.4687565
750,Gravois Bluffs Boulevard,63026,38.5061191,-90.4486766
933,Westminster Abby Lane,63026,38.5014833,-90.4577092
1804,Alvarado Drive,63026,38.5292917,-90.4639960
941,Westminster Abby Lane,63026,38.5014414,-90.4578754
1100,London Circle Lane,63026,38.5034709,-90.4554058
536,Axminister Drive,63026,38.5364846,-90.4503275
1522,Bent Oak Ridge Drive,63026,38.5359027,-90.4680058
813,Villa Gran Way,63026,38.5256371,-90.4583440
2251,Hitzert Court,63026,38.5540626,-90.4518011
101,Gravois Bluffs Plaza Drive,63026,38.5064920,-90.4471373
8,Ashgate Court,63026,38.5191403,-90.4461576
521,Rudder Road,63026,38.5407397,-90.4499824
1806,Larkin Williams Road,63026,38.5401158,-90.4570277
794,Gravois Bluffs Boulevard,63026,38.5024730,-90.4527626
546,Axminister Drive,63026,38.5362344,-90.4506577
900,South Highway Drive,63026,38.5420286,-90.4593023
927,Horan Drive,63026,38.5386388,-90.4615624
1200,Horan Drive,63026,38.5378627,-90.4678404
980,Horan Drive,63026,38.5364937,-90.4616267
123,Gravois Bluffs Plaza Drive,63026,38.5052940,-90.4471601
925,Westminster Abby Lane,63026,38.5014274,-90.4569870
925,Westminster Abby Lane,63026,38.5014704,-90.4569532
645,Axminister Drive,63026,38.5376090,-90.4531826
13339,Wintergreen Estates Drive,63026,38.5020026,-90.4315199
901,Westminster Abby Lane,63026,38.5023608,-90.4561779
204,Main Street,63026,38.5118569,-90.4345610
502,Riverchase Circle,63026,38.5286866,-90.4492696
504,Gravois Road,63026,38.5129535,-90.4382132
1051,Cassens Industrial Court,63026,38.5561555,-90.4484912
774,Gravois Bluffs Boulevard,63026,38.5027459,-90.4504656
1542,Bent Oak Ridge Drive,63026,38.5367844,-90.4678745
1053,Cassens Industrial Court,63026,38.5560151,-90.4488799
774,Gravois Bluffs Boulevard,63026,38.5026886,-90.4506118
1055,Cassens Industrial Court,63026,38.5559175,-90.4491653
758,Gravois Bluffs Boulevard,63026,38.5035947,-90.4491719
539,Busch Forest Lane,63026,38.5043604,-90.4255634
302,Axminister Drive,63026,38.5361890,-90.4443027
1742,Chase Drive,63026,38.5411036,-90.4525027
2275,Cassens Drive,63026,38.5491819,-90.4444297
1216,Montevale Court,63026,38.5287868,-90.4487027
1718,Gilsinn Lane,63026,38.5393217,-90.4634408
313,Peffer Lane,63026,38.5317103,-90.4431754
129,Cassens Court,63026,38.5493434,-90.4466653
1613,Manufacturers Drive,63026,38.5340933,-90.4447596
1291,Shadow Bend Court,63026,38.5349276,-90.4712136
1656,Manufacturers Drive,63026,38.5362060,-90.4436307
653,Gravois Road,63026,38.5126300,-90.4434318
128,Matrix Commons Drive,63026,38.5383726,-90.4512115
2509,Cassens Drive,63026,38.5537769,-90.4492560
1731,Larkin Williams Road,63026,38.5395055,-90.4574439
416,Gravois Road,63026,38.5126434,-90.4375625
1660,Fenpark Drive,63026,38.5377294,-90.4484378
1507,Bent Oak Ridge Drive,63026,38.5351502,-90.4686263
514,Rudder Road,63026,38.5405607,-90.4485136
1572,Larkin Williams Road,63026,38.5352569,-90.4515260
1729,Larkin Williams Road,63026,38.5395190,-90.4572903
1656,Bowles Avenue,63026,38.5373843,-90.4730141
2505,Cassens Drive,63026,38.5542448,-90.4479585
518,Rudder Road,63026,38.5405608,-90.4485759
1476,Bent Oak Ridge Court,63026,38.5339377,-90.4676959
2275,Cassens Drive,63026,38.5489121,-90.4452515
1727,Larkin Williams Road,63026,38.5394743,-90.4572373
41,Gravois Road,63026,38.5119253,-90.4333720
2247,Hitzert Court,63026,38.5538996,-90.4517054
1554,Fenpark Drive,63026,38.5355860,-90.4484518
1840,Fenpark Drive,63026,38.5401705,-90.4483995
1856,Fenpark Drive,63026,38.5403287,-90.4483942
42,Gravois Road,63026,38.5112374,-90.4326370
1640,Uthoff Drive,63026,38.5370731,-90.4655536
502,Rudder Road,63026,38.5406552,-90.4481495
312,Axminister Drive,63026,38.5362035,-90.4447155
1525,Bent Tree Trails Court,63026,38.5358966,-90.4675249
26,Fircrest Lane,63026,38.5184925,-90.4502711
500,Forest Grove Drive,63026,38.5298822,-90.4526217
367,Chrysler Lane,63026,38.5307776,-90.4451381
1514,Bent Oak Ridge Drive,63026,38.5354573,-90.4679611
273,Axminister Drive,63026,38.5371353,-90.4432875
257,Axminister Drive,63026,38.5371314,-90.4430272
281,Axminister Drive,63026,38.5371373,-90.4434132
1531,Bent Tree Trails Court,63026,38.5361586,-90.4674067
267,Axminister Drive,63026,38.5371340,-90.4431852
575,Rudder Road,63026,38.5405172,-90.4514857
132,Matrix Commons Drive,63026,38.5382590,-90.4511935
924,South Highway Drive,63026,38.5413703,-90.4606915
740,Gravois Road,63026,38.5101388,-90.4483597
203,Mound Street,63026,38.5121993,-90.4371921
1380,South Highway Drive,63026,38.5403135,-90.4755316
1282,Fenton Meadows Court,63026,38.5309165,-90.4721931
1771,Larkin Williams Road,63026,38.5412391,-90.4586960
2021,Corporate 44 Drive,63026,38.5453340,-90.4457375
809,Villa Gran Way,63026,38.5254317,-90.4581095
267,Wolfner Drive,63026,38.5335929,-90.4432390
2017,Corporate 44 Drive,63026,38.5449883,-90.4455405
314,Axminister Drive,63026,38.5362178,-90.4448004
933,Westminster Abby Lane,63026,38.5014796,-90.4574833
1749,Gilsinn Lane,63026,38.5409640,-90.4648740
306,Water Street,63026,38.5136158,-90.4354034
925,Westminster Abby Lane,63026,38.5015167,-90.4566462
16,Forest Knoll Drive,63026,38.5171919,-90.4487169
933,Westminster Abby Lane,63026,38.5015323,-90.4574629
1546,Bent Oak Ridge Drive,63026,38.5369761,-90.4676448
214,Wolfner Drive,63026,38.5330760,-90.4405316
2275,Cassens Drive,63026,38.5488597,-90.4453897
2275,Cassens Drive,63026,38.5490469,-90.4448772
2275,Cassens Drive,63026,38.5491571,-90.4445566
1761,Larkin Williams Road,63026,38.5413560,-90.4587566
15,Heathwood Lane,63026,38.5176729,-90.4497036
2275,Cassens Drive,63026,38.5490005,-90.4450146
68,Fenton Plaza,63026,38.5114078,-90.4437691
1775,Larkin Williams Road,63026,38.5411915,-90.4586687
1800,Bowles Avenue,63026,38.5390773,-90.4724724
1250,Woodridge Trails Drive,63026,38.5318443,-90.4706879
901,Westminster Abby Lane,63026,38.5029157,-90.4563143
965,Villa Gran Way,63026,38.5284231,-90.4677179
1168,London Circle Lane,63026,38.5020845,-90.4570279
13303,Wintergreen Estates Drive,63026,38.5030664,-90.4312499
2203,Hitzert Court,63026,38.5498809,-90.4503099
1819,Colina Tierra Lane,63026,38.5262542,-90.4576321
2211,Hitzert Court,63026,38.5502778,-90.4505358
2275,Cassens Drive,63026,38.5488273,-90.4455036
1824,Alvarado Drive,63026,38.5303529,-90.4635599
620,Fleetwood Drive,63026,38.5318140,-90.4538875
909,Westminster Abby Lane,63026,38.5022457,-90.4559919
409,Main Street,63026,38.5135710,-90.4363220
537,Axminister Drive,63026,38.5373839,-90.4504132
6,El Paso Court,63026,38.5279055,-90.4638254
1667,Fenton Business Park Court,63026,38.5399906,-90.4472803
774,Gravois Bluffs Boulevard,63026,38.5025993,-90.4505712
958,Larkin Williams Road,63026,38.5214015,-90.4361486
762,Gravois Bluffs Boulevard,63026,38.5034697,-90.4493843
256,Allen Road,63026,38.5035121,-90.4247626
1687,Fenpark Drive,63026,38.5382692,-90.4499060
26,Elderwood Court,63026,38.5214431,-90.4484614
1679,Larkin Williams Road,63026,38.5376892,-90.4555480
405,Old Smizer Mill Road,63026,38.5145752,-90.4477478
1712,Coronita Drive,63026,38.5295709,-90.4709061
1104,South Highway Drive,63026,38.5402776,-90.4678450
600,Rudder Road,63026,38.5392531,-90.4521651
901,Westminster Abby Lane,63026,38.5027188,-90.4562347
630,Gravois Road,63026,38.5124168,-90.4418129
66,Fenton Plaza,63026,38.5112898,-90.4436144
1860,Fenpark Drive,63026,38.5403886,-90.4483948
53,Fenton Plaza,63026,38.5115215,-90.4421353
13273,Wintergreen Estates Drive,63026,38.5037839,-90.4307720
1852,Fenpark Drive,63026,38.5402563,-90.4483994
508,Rudder Road,63026,38.5405964,-90.4483194
506,Rudder Road,63026,38.5405952,-90.4482631
767,Gravois Road,63026,38.5090897,-90.4514396
36,Fenton Plaza,63026,38.5116713,-90.4415254
42,Gravois Road,63026,38.5113003,-90.4327875
1662,Fenton Business Park Court,63026,38.5400147,-90.4460057
1653,Larkin Williams Road,63026,38.5369741,-90.4556679
933,Westminster Abby Lane,63026,38.5014809,-90.4576038
715,River Hills Drive,63026,38.5177736,-90.4452072
1653,Larkin Williams Road,63026,38.5368909,-90.4555983
287,Axminister Drive,63026,38.5371399,-90.4435124
1727,San Martin Drive,63026,38.5293366,-90.4688903
279,Axminister Drive,63026,38.5371366,-90.4433834
253,Axminister Drive,63026,38.5371307,-90.4429571
933,Westminster Abby Lane,63026,38.5015314,-90.4574078
285,Axminister Drive,63026,38.5371392,-90.4434825
790,Villa Gran Way,63026,38.5245187,-90.4567634
500,Gravois Road,63026,38.5128999,-90.4380158
1720,Bowles Avenue,63026,38.5388490,-90.4724768
1329,Horan Drive,63026,38.5387168,-90.4715414
982,South Highway Drive,63026,38.5421098,-90.4637611
404,Gravois Road,63026,38.5123009,-90.4371477
1749,Gilsinn Lane,63026,38.5410247,-90.4649779
439,New Smizer Mill Road,63026,38.5167408,-90.4465055
2024,Corporate 44 Drive,63026,38.5461930,-90.4474814
1404,Valiant Drive,63026,38.5317985,-90.4464378
790,Merus Court,63026,38.5395554,-90.4562708
2030,Corporate 44 Drive,63026,38.5469728,-90.4479252
9,Woodridge Trails Court,63026,38.5321916,-90.4733951
2087,Corporate 44 Drive,63026,38.5480206,-90.4473270
163,Gravois Bluffs Plaza Drive,63026,38.5039026,-90.4471866
65,Forest Knoll Drive,63026,38.5200159,-90.4464184
62,Fenton Plaza,63026,38.5112574,-90.4431321
1569,Fenpark Drive,63026,38.5352899,-90.4497990
909,Westminster Abby Lane,63026,38.5020906,-90.4559502
13333,Wintergreen Estates Drive,63026,38.5021681,-90.4314556
360,Fury Drive,63026,38.5287108,-90.4448475
262,Dart Lane,63026,38.5296051,-90.4424029
2071,Hitzert Court,63026,38.5465465,-90.4484239
798,Gravois Bluffs Boulevard,63026,38.5032845,-90.4528631
901,Westminster Abby Lane,63026,38.5025219,-90.4561627
900,South Highway Drive,63026,38.5420999,-90.4595348
133,Matrix Commons Drive,63026,38.5381984,-90.4520971
784,Merus Court,63026,38.5396226,-90.4560767
70,Forest Knoll Drive,63026,38.5203877,-90.4467431
1238,Woodridge Trails Drive,63026,38.5324984,-90.4699325
1246,Woodridge Trails Drive,63026,38.5320603,-90.4703667
739,River Hills Drive,63026,38.5188027,-90.4425782
901,Westminster Abby Lane,63026,38.5027546,-90.4563182
13237,Wintergreen Estates Drive,63026,38.5039922,-90.4293508
1779,Larkin Williams Road,63026,38.5411056,-90.4586293
13,Fircrest Lane,63026,38.5183377,-90.4491201
909,Westminster Abby Lane,63026,38.5022636,-90.4560488
1781,Larkin Williams Road,63026,38.5410556,-90.4585990
901,Westminster Abby Lane,63026,38.5024055,-90.4561969
1749,Gilsinn Lane,63026,38.5409632,-90.4649342
655,Assembly Parkway,63026,38.5464374,-90.4588679
600,Assembly Parkway,63026,38.5457561,-90.4557462
2045,Fenton Logistics Park,63026,38.5454842,-90.4551818
319,Chrysler Lane,63026,38.5308318,-90.4433996
2075,Fenton Logistics Park,63026,38.5484511,-90.4560101
575,Rudder Road,63026,38.5407763,-90.4516504
1215,Park Meadow Drive,63026,38.5272073,-90.4511388
671,Larkin Williams Road,63026,38.5152542,-90.4372460
905,Bolger Court,63026,38.5405929,-90.4607957
1362,Montevale Court,63026,38.5303893,-90.4551764
2275,Cassens Drive,63026,38.5495023,-90.4446099
1693,Fenpark Drive,63026,38.5382693,-90.4501139
926,South Highway Drive,63026,38.5413799,-90.4609647
601,Assembly Parkway,63026,38.5464715,-90.4564560
1629,Larkin Williams Road,63026,38.5366050,-90.4552988
1726,Rudder Industrial Park Drive,63026,38.5405878,-90.4539083
1749,Gilsinn Lane,63026,38.5409289,-90.4649361
1111,Horan Drive,63026,38.5387885,-90.4669712
256,Chrysler Lane,63026,38.5304924,-90.4422329
145,Cassens Court,63026,38.5490033,-90.4464670
2275,Cassens Drive,63026,38.5494213,-90.4445628
125,Matrix Commons Drive,63026,38.5384132,-90.4520899
78,Forest Knoll Drive,63026,38.5210271,-90.4463701
206,Fabricator Drive,63026,38.5374792,-90.4395386
1636,Coronita Drive,63026,38.5284428,-90.4715199
1662,Headland Drive,63026,38.5372777,-90.4405091
137,Matrix Commons Drive,63026,38.5381469,-90.4520972
901,Westminster Abby Lane,63026,38.5026800,-90.4561588
1111,Coronita Court,63026,38.5276944,-90.4728883
1719,Larkin Williams Road,63026,38.5390748,-90.4569067
796,Merus Court,63026,38.5394945,-90.4564630
19,Cassens Court,63026,38.5503361,-90.4458119
1295,North Highway Drive,63026,38.5440715,-90.4704424
750,Gravois Bluffs Boulevard,63026,38.5059804,-90.4489072
770,Merus Court,63026,38.5397786,-90.4556321
11,Buckwood Court,63026,38.5190888,-90.4486668
2032,Corporate 44 Drive,63026,38.5472875,-90.4480979
101,Matrix Commons Drive,63026,38.5390753,-90.4520727
1231,Horan Drive,63026,38.5386721,-90.4693153
1528,Fenpark Drive,63026,38.5338318,-90.4486973
794,Merus Court,63026,38.5395159,-90.4563978
1609,Manufacturers Drive,63026,38.5338765,-90.4447642
750,Gravois Bluffs Boulevard,63026,38.5060256,-90.4488341
1061,Villa Gran Way,63026,38.5298954,-90.4732008
2275,Cassens Drive,63026,38.5496230,-90.4446794
38,Fenton Plaza,63026,38.5116463,-90.4415891
98,Gravois Bluffs Circle,63026,38.5080187,-90.4452744
266,Axminister Drive,63026,38.5363612,-90.4429326
400,Gravois Road,63026,38.5122714,-90.4370899
798,Villa Gran Way,63026,38.5244839,-90.4576384
767,Gravois Bluffs Boulevard,63026,38.5044178,-90.4528559
1330,Valiant Drive,63026,38.5311580,-90.4464326
36,Raintree Court,63026,38.5211131,-90.4476813
2019,Corporate 44 Drive,63026,38.5451671,-90.4456466
986,South Highway Drive,63026,38.5421129,-90.4639145
1219,Park Meadow Drive,63026,38.5272795,-90.4514458
1661,San Simeon Way,63026,38.5257931,-90.4650248
1692,Larkin Williams Road,63026,38.5383540,-90.4549728
1698,Larkin Williams Road,63026,38.5385421,-90.4549243
735,River Hills Drive,63026,38.5189425,-90.4430528
645,New Smizer Mill Road,63026,38.5187224,-90.4517353
247,Wolfner Drive,63026,38.5336672,-90.4422475
2015,Corporate 44 Drive,63026,38.5447975,-90.4454193
540,Old Smizer Mill Road,63026,38.5145675,-90.4510123
9,Raintree Court,63026,38.5196469,-90.4478170
1732,Westpark Center Drive,63026,38.5385497,-90.4685931
1082,Headquarters Park,63026,38.5402370,-90.4666162
54,Fenton Plaza,63026,38.5114858,-90.4422263
255,Wolfner Drive,63026,38.5336016,-90.4427989
520,Deer Pointe Court,63026,38.5295996,-90.4543132
8,Ferry Street,63026,38.5139998,-90.4362114
1654,Manufacturers Drive,63026,38.5361667,-90.4436307
284,Axminister Drive,63026,38.5363794,-90.4435350
14,Fenton Plaza,63026,38.5118177,-90.4410065
1203,Smizer Mill Road,63026,38.5238039,-90.4706336
1626,Manufacturers Drive,63026,38.5341924,-90.4433749
70,Fenton Plaza,63026,38.5115009,-90.4438737
973,San Sebastian Drive,63026,38.5258694,-90.4700962
1694,Larkin Williams Road,63026,38.5384672,-90.4550335
774,Gravois Bluffs Boulevard,63026,38.5029756,-90.4506359
1254,Woodridge Trails Drive,63026,38.5317977,-90.4709607
774,Gravois Bluffs Boulevard,63026,38.5023951,-90.4504902
993,San Sebastian Drive,63026,38.5270436,-90.4702488
272,Axminister Drive,63026,38.5363749,-90.4433473
311,Center Street,63026,38.5110019,-90.4357010
1641,Manufacturers Drive,63026,38.5353678,-90.4444423
625,Gravois Road,63026,38.5140299,-90.4419203
226,Wolfner Drive,63026,38.5330546,-90.4411362
1506,Bent Oak Ridge Drive,63026,38.5350444,-90.4680781
1,Gravois Road,63026,38.5124016,-90.4321015
61,Fenton Plaza,63026,38.5112899,-90.4430091
645,Axminister Drive,63026,38.5376522,-90.4531779
1345,Montevale Court,63026,38.5299496,-90.4540802
969,San Sebastian Drive,63026,38.5257532,-90.4695180
805,Danielle Place Boulevard,63026,38.5054639,-90.4525007
313,Imperial Lane,63026,38.5325547,-90.4432164
901,Westminster Abby Lane,63026,38.5028590,-90.4562194
1276,Woodridge Trails Drive,63026,38.5321940,-90.4725024
635,Gravois Road,63026,38.5138951,-90.4426485
208,Wolfner Drive,63026,38.5330796,-90.4402556
936,Villa Gran Way,63026,38.5286179,-90.4658201
308,Axminister Drive,63026,38.5362082,-90.4445758
949,Larkin Williams Road,63026,38.5206668,-90.4372023
1912,Bowles Avenue,63026,38.5401548,-90.4689208
774,Gravois Bluffs Boulevard,63026,38.5025036,-90.4505388
774,Gravois Bluffs Boulevard,63026,38.5026566,-90.4504251
1701,Rudder Industrial Park Drive,63026,38.5396642,-90.4541045
18,Mound Street,63026,38.5136812,-90.4356610
1729,Rudder Industrial Park Drive,63026,38.5402820,-90.4544536
1727,Rudder Industrial Park Drive,63026,38.5401031,-90.4543268
893,Villa Gran Way,63026,38.5284587,-90.4631777
900,South Highway Drive,63026,38.5421540,-90.4593616
1725,Rudder Industrial Park Drive,63026,38.5398421,-90.4542012
519,Rudder Road,63026,38.5413287,-90.4497508
2013,Hitzert Court,63026,38.5448300,-90.4474589
920,South Highway Drive,63026,38.5413654,-90.4604305
306,Chrysler Lane,63026,38.5304505,-90.4429350
1319,Horan Drive,63026,38.5387101,-90.4710824
1317,Horan Drive,63026,38.5387112,-90.4709976
900,South Highway Drive,63026,38.5420999,-90.4594802
575,Rudder Road,63026,38.5406575,-90.4515726
925,Villa Gran Way,63026,38.5291164,-90.4652278
1300,Valiant Drive,63026,38.5297803,-90.4462431
1616,Coronita Drive,63026,38.5267966,-90.4721878
509,Riverchase Circle,63026,38.5287692,-90.4500422
521,Rudder Road,63026,38.5408116,-90.4499090
1777,Larkin Williams Road,63026,38.5411557,-90.4586444
921,Villa Gran Way,63026,38.5291057,-90.4649622
907,Bolger Court,63026,38.5405930,-90.4608959
900,South Highway Drive,63026,38.5420311,-90.4594085
1724,Rudder Industrial Park Drive,63026,38.5404895,-90.4538549
521,Rudder Road,63026,38.5407612,-90.4499182
1728,Rudder Industrial Park Drive,63026,38.5406538,-90.4539524
13338,Wintergreen Estates Drive,63026,38.5020257,-90.4309853
639,Gravois Bluffs Boulevard,63026,38.5076613,-90.4350615
2033,Hitzert Court,63026,38.5456439,-90.4479060
2079,Hitzert Court,63026,38.5471117,-90.4487512
2025,Hitzert Court,63026,38.5452882,-90.4477216
1208,Montevale Court,63026,38.5284630,-90.4483845
725,Gravois Road,63026,38.5123088,-90.4478090
970,Woodway Court,63026,38.5229619,-90.4556062
1212,Montevale Court,63026,38.5286528,-90.4485663
1726,Chase Drive,63026,38.5406525,-90.4522406
1606,Larkin Williams Road,63026,38.5361324,-90.4530880
1708,Chase Drive,63026,38.5402250,-90.4520119
2047,Hitzert Court,63026,38.5460733,-90.4481599
1020,Horan Drive,63026,38.5371252,-90.4640653
301,Main Street,63026,38.5127064,-90.4350875
990,Gregory Lane,63026,38.5212902,-90.4513863
900,South Highway Drive,63026,38.5421588,-90.4594769
1215,Larkin Williams Road,63026,38.5256875,-90.4380660
189,Gravois Bluffs Plaza Drive,63026,38.5033260,-90.4471976
1736,Westpark Center Drive,63026,38.5390555,-90.4686072
575,Rudder Road,63026,38.5405783,-90.4515269
5,Premier Drive,63026,38.5402502,-90.4443049
1429,Uthoff Farm Trail,63026,38.5315832,-90.4653354
521,Rudder Road,63026,38.5407936,-90.4498403
334,Skinker Lane,63026,38.5129585,-90.4446159
373,Imperial Lane,63026,38.5324932,-90.4454460
1715,San Martin Drive,63026,38.5287382,-90.4690543
1700,Fenpark Drive,63026,38.5388114,-90.4483492
11,Treecrest Court,63026,38.5211451,-90.4447837
113,Matrix Commons Drive,63026,38.5388084,-90.4520788
1746,Chase Drive,63026,38.5413193,-90.4525498
2338,Hitzert Court,63026,38.5532781,-90.4537469
1728,Coronita Drive,63026,38.5303731,-90.4706270
911,Horan Drive,63026,38.5386250,-90.4606580
48,Fenton Plaza,63026,38.5115785,-90.4418713
802,Horan Drive,63026,38.5378445,-90.4558492
361,Fury Drive,63026,38.5291008,-90.4448463
509,Deer Pointe Court,63026,38.5289987,-90.4550148
2085,Corporate 44 Drive,63026,38.5476354,-90.4470835
1739,Rudder Industrial Park Drive,63026,38.5406879,-90.4546949
1741,Rudder Industrial Park Drive,63026,38.5409233,-90.4548176
973,Villa Gran Way,63026,38.5281991,-90.4681375
1735,Rudder Industrial Park Drive,63026,38.5403814,-90.4545129
1610,Larkin Williams Road,63026,38.5362311,-90.4530915
1724,Chase Drive,63026,38.5406094,-90.4522177
306,Hays Hill Drive,63026,38.5169720,-90.4427754
1716,Rudder Industrial Park Drive,63026,38.5401327,-90.4536541
1704,Coronita Drive,63026,38.5291766,-90.4710443
1239,Montevale Court,63026,38.5294955,-90.4502392
1712,Rudder Industrial Park Drive,63026,38.5400396,-90.4536099
1720,Rudder Industrial Park Drive,63026,38.5402534,-90.4537237
1718,Rudder Industrial Park Drive,63026,38.5401885,-90.4536845
990,Horan Drive,63026,38.5346558,-90.4616867
361,Peffer Lane,63026,38.5316630,-90.4449502
559,Wolfner Drive,63026,38.5333465,-90.4505783
804,Horan Drive,63026,38.5378481,-90.4559066
818,Horan Drive,63026,38.5378583,-90.4564674
901,Westminster Abby Lane,63026,38.5026203,-90.4561968
1629,Manufacturers Drive,63026,38.5348195,-90.4444670
1506,Bent Tree Trails Court,63026,38.5351325,-90.4669665
211,Fabricator Drive,63026,38.5384368,-90.4414859
909,Horan Drive,63026,38.5386210,-90.4605469
909,Westminster Abby Lane,63026,38.5021622,-90.4560830
901,Westminster Abby Lane,63026,38.5028083,-90.4563409
101,Zapata Court,63026,38.5279159,-90.4632525
310,Axminister Drive,63026,38.5362082,-90.4446426
806,Horan Drive,63026,38.5378467,-90.4559649
1004,Villa Gran Way,63026,38.5260484,-90.4678263
1589,Fenpark Drive,63026,38.5363288,-90.4495779
1632,Headland Drive,63026,38.5356539,-90.4403273
20,Soccer Park Road,63026,38.5444050,-90.4364536
404,Courtney Estates Drive,63026,38.5303300,-90.4491586
331,Dart Lane,63026,38.5299770,-90.4438167
342,Fury Drive,63026,38.5287263,-90.4441759
1700,Fenpark Drive,63026,38.5388020,-90.4486023
714,Gravois Road,63026,38.5113399,-90.4458407
304,Axminister Drive,63026,38.5361938,-90.4443695
348,Dart Lane,63026,38.5295553,-90.4444320
965,Horan Drive,63026,38.5384852,-90.4623679
961,San Sebastian Drive,63026,38.5255077,-90.4684908
123,Zapata Court,63026,38.5264883,-90.4631641
30,Tierra Court,63026,38.5270862,-90.4639807
117,Matrix Commons Drive,63026,38.5386327,-90.4520839
105,Zapata Court,63026,38.5277001,-90.4633315
1700,Fenpark Drive,63026,38.5388113,-90.4480961
510,Water Street,63026,38.5144822,-90.4367961
901,Westminster Abby Lane,63026,38.5024592,-90.4562120
1209,Smizer Mill Road,63026,38.5240152,-90.4717382
1053,Villa Gran Way,63026,38.5296290,-90.4726737
7,Ferry Street,63026,38.5141710,-90.4366863
921,Horan Drive,63026,38.5386391,-90.4612222
1710,Chase Drive,63026,38.5402682,-90.4520302
2061,Hitzert Court,63026,38.5464107,-90.4483478
925,Horan Drive,63026,38.5386371,-90.4613409
1641,San Simeon Way,63026,38.5247663,-90.4648357
941,Westminster Abby Lane,63026,38.5014860,-90.4578313
1210,Horan Drive,63026,38.5378717,-90.4681287
901,Westminster Abby Lane,63026,38.5029008,-90.4563712
105,Matrix Commons Drive,63026,38.5390273,-90.4520740
923,Horan Drive,63026,38.5386368,-90.4614588
1624,Coronita Drive,63026,38.5271898,-90.4720530
2393,Cassens Drive,63026,38.5520838,-90.4470663
15,Sennawood Drive,63026,38.5181219,-90.4503947
500,Fleetwood Meadows Court,63026,38.5328819,-90.4516952
84,Opps Lane,63026,38.5105813,-90.4290046
19,Woodington Court,63026,38.5329005,-90.4711946
1546,Fenpark Drive,63026,38.5346330,-90.4484244
649,Winter Hill Circle,63026,38.5024278,-90.4303673
110,Parkside Acres Drive,63026,38.5276321,-90.4439281
202,Fabricator Drive,63026,38.5374621,-90.4393064
767,Gravois Road,63026,38.5091566,-90.4514083
232,Axminister Drive,63026,38.5360660,-90.4420766
516,Water Street,63026,38.5146078,-90.4370269
2,Soccer Park Road,63026,38.5442435,-90.4370223
1705,Larkin Williams Road,63026,38.5386657,-90.4567678
1626,Coronita Drive,63026,38.5274130,-90.4719954
774,Gravois Bluffs Boulevard,63026,38.5027843,-90.4506442
929,Villa Gran Way,63026,38.5291372,-90.4654893
354,Dart Lane,63026,38.5295673,-90.4446559
1635,Uthoff Drive,63026,38.5368795,-90.4666269
342,Dart Lane,63026,38.5295779,-90.4442374
764,Gravois Bluffs Boulevard,63026,38.5033447,-90.4496498
937,Villa Gran Way,63026,38.5291056,-90.4660341
1446,Larkin Williams Road,63026,38.5326279,-90.4499373
1762,Chase Drive,63026,38.5417865,-90.4530456
381,Fury Drive,63026,38.5290747,-90.4456430
1664,Headland Drive,63026,38.5373473,-90.4405199
414,Gravois Road,63026,38.5126140,-90.4375012
1270,Riverside Drive,63026,38.5290469,-90.4420699
1000,Bowles Avenue,63026,38.5240852,-90.4722058
1551,Uthoff Drive,63026,38.5358647,-90.4661785
205,North Highway Drive,63026,38.5432592,-90.4414127
941,Westminster Abby Lane,63026,38.5015518,-90.4583136
50,Raintree Court,63026,38.5223193,-90.4476450
436,Axminister Drive,63026,38.5365337,-90.4477895
1019,Uthoff Farm Court,63026,38.5340996,-90.4649830
901,Westminster Abby Lane,63026,38.5024681,-90.4561437
1542,Fenpark Drive,63026,38.5345178,-90.4484245
485,North Highway Drive,63026,38.5434510,-90.4477786
1380,Uthoff Drive,63026,38.5316322,-90.4649241
75,Forest Knoll Drive,63026,38.5206134,-90.4460534
502,Fleetwood Meadows Court,63026,38.5329496,-90.4518435
1342,Montevale Court,63026,38.5303649,-90.4537816
659,Axminister Drive,63026,38.5376476,-90.4532985
349,Peffer Lane,63026,38.5316768,-90.4445005
17,Elderwood Court,63026,38.5210480,-90.4490708
1111,Horan Drive,63026,38.5389555,-90.4669686
1078,Headquarters Park,63026,38.5401725,-90.4663112
605,South Old Highway 141 Street,63026,38.5041220,-90.4392837
279,Wolfner Drive,63026,38.5335930,-90.4435083
1305,Horan Drive,63026,38.5387101,-90.4708794
1341,Horan Drive,63026,38.5387146,-90.4714704
553,Wolfner Drive,63026,38.5333499,-90.4503599
1645,Headland Drive,63026,38.5362294,-90.4414200
948,Woodway Drive,63026,38.5221952,-90.4590448
575,Rudder Road,63026,38.5407151,-90.4516092
336,Fury Drive,63026,38.5287382,-90.4439191
1704,Chase Drive,63026,38.5401386,-90.4519570
46,Gravois Road,63026,38.5110629,-90.4333529
1500,Bowles Avenue,63026,38.5340796,-90.4726051
1404,Uthoff Farm Trail,63026,38.5330597,-90.4639908
1442,Bowles Avenue,63026,38.5336241,-90.4727970
512,Water Street,63026,38.5145103,-90.4368549
320,Gravois Road,63026,38.5120690,-90.4368393
665,New Smizer Mill Road,63026,38.5189901,-90.4531702
320,Gravois Road,63026,38.5121215,-90.4367870
2275,Cassens Drive,63026,38.5492413,-90.4444661
941,Westminster Abby Lane,63026,38.5015481,-90.4580497
160,Gravois Bluffs Circle,63026,38.5038176,-90.4447766
653,Axminister Drive,63026,38.5374049,-90.4531898
1160,London Circle Lane,63026,38.5021030,-90.4575237
18,Ferry Street,63026,38.5138845,-90.4363954
901,Westminster Abby Lane,63026,38.5028262,-90.4562726
1555,Bent Oak Ridge Drive,63026,38.5373899,-90.4678000
540,Axminister Drive,63026,38.5363803,-90.4504527
2122,Fenton Logistics Park,63026,38.5508242,-90.4555755
2118,Fenton Logistics Park,63026,38.5506724,-90.4559978
2124,Fenton Logistics Park,63026,38.5508974,-90.4553719
941,Westminster Abby Lane,63026,38.5015468,-90.4578996
160,Gravois Bluffs Circle,63026,38.5040151,-90.4447688
160,Gravois Bluffs Circle,63026,38.5039029,-90.4447135
735,Gravois Road,63026,38.5113459,-90.4487256
507,New Smizer Mill Road,63026,38.5164933,-90.4494442
2060,Fenton Logistics Park,63026,38.5464452,-90.4532880
2084,Fenton Logistics Park,63026,38.5478643,-90.4538509
933,Westminster Abby Lane,63026,38.5015363,-90.4577065
786,Villa Gran Way,63026,38.5237242,-90.4562094
2078,Fenton Logistics Park,63026,38.5477125,-90.4542731
1160,London Circle Lane,63026,38.5022074,-90.4576110
20,Raintree Court,63026,38.5201188,-90.4482707
909,Westminster Abby Lane,63026,38.5019653,-90.4559958
933,Westminster Abby Lane,63026,38.5014337,-90.4574234
922,Woodway Circle,63026,38.5221463,-90.4556190
92,Forest Knoll Drive,63026,38.5218786,-90.4460892
1637,Larkin Williams Road,63026,38.5367013,-90.4553699
509,Fleetwood Meadows Court,63026,38.5326964,-90.4525948
1650,Uthoff Drive,63026,38.5374112,-90.4655084
918,South Highway Drive,63026,38.5413701,-90.4602120
355,Peffer Lane,63026,38.5316816,-90.4447498
925,Westminster Abby Lane,63026,38.5015226,-90.4570912
4,Forest Oak Court,63026,38.5183955,-90.4475793
18,Heathwood Lane,63026,38.5174204,-90.4501266
92,Soccer Park Road,63026,38.5437397,-90.4384972
965,San Sebastian Drive,63026,38.5256881,-90.4689822
193,Gravois Bluffs Plaza Drive,63026,38.5031426,-90.4472011
1720,Westpark Center Drive,63026,38.5389558,-90.4684425
24,Buckwood Court,63026,38.5191755,-90.4495889
1732,Westpark Center Drive,63026,38.5388101,-90.4685145
1636,Bowles Avenue,63026,38.5368431,-90.4731325
1472,Bent Oak Ridge Court,63026,38.5337018,-90.4677356
29,Cassens Court,63026,38.5501969,-90.4462354
1724,Westpark Center Drive,63026,38.5393380,-90.4685237
505,Main Street,63026,38.5140059,-90.4371218
535,North Highway Drive,63026,38.5433766,-90.4502542
1739,San Martin Drive,63026,38.5299032,-90.4685615
1683,Larkin Williams Road,63026,38.5377722,-90.4556353
647,Axminister Drive,63026,38.5375602,-90.4531815
850,Horan Drive,63026,38.5374159,-90.4572095
1111,Horan Drive,63026,38.5384882,-90.4669865
5,Fircrest Lane,63026,38.5180778,-90.4486541
273,Wolfner Drive,63026,38.5335930,-90.4433831
2104,Fenton Logistics Park,63026,38.5494705,-90.4545346
1631,Headland Drive,63026,38.5354996,-90.4415375
2081,Fenton Logistics Park,63026,38.5491102,-90.4615253
971,Horan Drive,63026,38.5384829,-90.4626228
1615,La Palma Drive,63026,38.5255395,-90.4667397
2102,Fenton Logistics Park,63026,38.5493974,-90.4547382
845,Villa Gran Way,63026,38.5275217,-90.4600377
794,Gravois Bluffs Boulevard,63026,38.5024359,-90.4529633
2098,Fenton Logistics Park,63026,38.5492456,-90.4551605
955,Woodway Drive,63026,38.5229049,-90.4599473
929,Woodway Drive,63026,38.5227119,-90.4569774
979,Woodway Court,63026,38.5227964,-90.4564212
305,Gravois Road,63026,38.5120889,-90.4358871
13353,Wintergreen Estates Drive,63026,38.5016115,-90.4316386
1719,San Martin Drive,63026,38.5289225,-90.4690340
974,Woodway Court,63026,38.5226243,-90.4555182
379,Peffer Lane,63026,38.5316414,-90.4456401
485,North Highway Drive,63026,38.5433861,-90.4483969
941,Westminster Abby Lane,63026,38.5015462,-90.4578336
941,Westminster Abby Lane,63026,38.5014867,-90.4579011
544,Old Smizer Mill Road,63026,38.5146140,-90.4510533
900,Gregory Lane,63026,38.5185774,-90.4522208
933,Westminster Abby Lane,63026,38.5015355,-90.4576485
2023,Corporate 44 Drive,63026,38.5455128,-90.4458588
772,Merus Court,63026,38.5397566,-90.4556959
1405,Uthoff Farm Trail,63026,38.5333031,-90.4650154
616,Axminister Drive,63026,38.5363482,-90.4523907
1297,North Highway Drive,63026,38.5440382,-90.4707824
654,Axminister Drive,63026,38.5365992,-90.4534194
772,Gravois Bluffs Boulevard,63026,38.5030708,-90.4503098
1040,Villa Gran Way,63026,38.5288309,-90.4722330
578,Axminister Drive,63026,38.5364799,-90.4516223
154,Larkin Williams Industrial Court,63026,38.5344026,-90.4585242
1000,Horan Drive,63026,38.5371251,-90.4635166
771,Merus Court,63026,38.5402033,-90.4560976
367,Fury Drive,63026,38.5290853,-90.4450552
1686,Larkin Williams Road,63026,38.5381155,-90.4547947
566,Axminister Drive,63026,38.5363083,-90.4514000
1078,Headquarters Park,63026,38.5402762,-90.4663157
2091,Corporate 44 Drive,63026,38.5482863,-90.4488930
252,Dart Lane,63026,38.5296360,-90.4421665
1168,London Circle Lane,63026,38.5021381,-90.4567280
774,Gravois Bluffs Boulevard,63026,38.5028416,-90.4504980
1160,London Circle Lane,63026,38.5021566,-90.4572352
1088,South Highway Drive,63026,38.5418524,-90.4668479
306,Wolfner Drive,63026,38.5329127,-90.4452744
554,Axminister Drive,63026,38.5360603,-90.4509144
1285,Woodridge Trails Drive,63026,38.5329485,-90.4726083
900,South Highway Drive,63026,38.5421612,-90.4595832
1119,Coronita Court,63026,38.5274995,-90.4731150
1729,Chase Drive,63026,38.5406453,-90.4529718
618,Winter View Circle,63026,38.5018798,-90.4281953
614,Axminister Drive,63026,38.5363463,-90.4522471
12,Heathwood Lane,63026,38.5171636,-90.4496639
570,Frisco Drive,63026,38.5458703,-90.4513095
9,Buckwood Court,63026,38.5189606,-90.4484364
1255,Green Acres Lane,63026,38.5274198,-90.4536386
1736,Westpark Center Drive,63026,38.5393410,-90.4686108
1526,Fenpark Drive,63026,38.5333712,-90.4485215
601,Gravois Bluffs Boulevard,63026,38.5063052,-90.4320803
1337,Montevale Court,63026,38.5299419,-90.4535203
635,Axminister Drive,63026,38.5374902,-90.4528409
124,Zapata Court,63026,38.5265579,-90.4628787
774,Gravois Bluffs Boulevard,63026,38.5025609,-90.4503927
780,Gravois Road,63026,38.5084095,-90.4510554
2215,Hitzert Court,63026,38.5503467,-90.4505750
687,Gravois Bluffs Boulevard,63026,38.5098660,-90.4422086
300,Dart Lane,63026,38.5296028,-90.4426512
241,Dart Lane,63026,38.5299865,-90.4417613
637,Axminister Drive,63026,38.5374507,-90.4528410
1564,Fencorp Drive,63026,38.5346883,-90.4463157
1615,Coronita Drive,63026,38.5268466,-90.4728948
336,Peffer Lane,63026,38.5312916,-90.4440593
550,Rudder Road,63026,38.5400680,-90.4500349
1732,Westpark Center Drive,63026,38.5387388,-90.4685126
2275,Cassens Drive,63026,38.5494388,-90.4457317
2275,Cassens Drive,63026,38.5494463,-90.4457074
714,River Hills Drive,63026,38.5174640,-90.4444282
2255,Cassens Drive,63026,38.5494101,-90.4458143
1771,Gilsinn Lane,63026,38.5402043,-90.4652667
2275,Cassens Drive,63026,38.5494302,-90.4457555
933,Westminster Abby Lane,63026,38.5014821,-90.4576509
645,Gravois Road,63026,38.5127038,-90.4432679
555,North Highway Drive,63026,38.5433760,-90.4531657
1735,San Martin Drive,63026,38.5297189,-90.4686827
1160,London Circle Lane,63026,38.5021566,-90.4572959
877,Villa Gran Way,63026,38.5281856,-90.4620494
672,Gravois Bluffs Boulevard,63026,38.5076029,-90.4408892
1160,London Circle Lane,63026,38.5021566,-90.4571820
104,Larkin Williams Industrial Court,63026,38.5342363,-90.4573307
881,Villa Gran Way,63026,38.5281813,-90.4623316
782,Merus Court,63026,38.5396472,-90.4560131
1160,London Circle Lane,63026,38.5021507,-90.4574516
200,Gravois Road,63026,38.5110923,-90.4353612
942,South Highway Drive,63026,38.5420736,-90.4610590
600,Fleetwood Drive,63026,38.5314118,-90.4531252
788,Merus Court,63026,38.5395776,-90.4562086
160,Gravois Bluffs Circle,63026,38.5039679,-90.4447688
160,Gravois Bluffs Circle,63026,38.5037630,-90.4447798
925,Westminster Abby Lane,63026,38.5014733,-90.4567330
909,Westminster Abby Lane,63026,38.5020548,-90.4560110
786,Merus Court,63026,38.5396006,-90.4561437
250,Peffer Lane,63026,38.5313522,-90.4419650
160,Gravois Bluffs Circle,63026,38.5037122,-90.4447799
1760,Fenpark Drive,63026,38.5397547,-90.4484516
150,Misty Manor Road,63026,38.5052275,-90.4544517
160,Gravois Bluffs Circle,63026,38.5039196,-90.4447720
1160,London Circle Lane,63026,38.5021983,-90.4571896
1534,Fenpark Drive,63026,38.5343541,-90.4484246
774,Gravois Bluffs Boulevard,63026,38.5024525,-90.4503441
602,Axminister Drive,63026,38.5362157,-90.4522496
345,South Old Highway 141 Street,63026,38.5082059,-90.4331431
1730,Fenpark Drive,63026,38.5393542,-90.4484383
567,Busch Forest Lane,63026,38.5022202,-90.4257474
901,Westminster Abby Lane,63026,38.5027635,-90.4561891
242,Peffer Lane,63026,38.5313250,-90.4416776
1544,Fenpark Drive,63026,38.5345738,-90.4484245
1767,Larkin Williams Road,63026,38.5412916,-90.4587172
628,Axminister Drive,63026,38.5364770,-90.4523859
622,Axminister Drive,63026,38.5364129,-90.4523875
403,Axminister Drive,63026,38.5373180,-90.4456631
403,Axminister Drive,63026,38.5372157,-90.4456632
646,Axminister Drive,63026,38.5365967,-90.4532048
1254,Larkin Williams Road,63026,38.5274435,-90.4435146
576,Axminister Drive,63026,38.5364459,-90.4515726
403,Axminister Drive,63026,38.5370219,-90.4456702
511,Rudder Road,63026,38.5415333,-90.4483289
1529,Larkin Williams Road,63026,38.5334213,-90.4518398
310,Water Street,63026,38.5136549,-90.4351601
767,Gravois Road,63026,38.5090704,-90.4515363
307,Dart Lane,63026,38.5299980,-90.4428702
676,Gravois Bluffs Boulevard,63026,38.5073715,-90.4417198
300,Chrysler Lane,63026,38.5304802,-90.4426919
900,South Highway Drive,63026,38.5420335,-90.4595268
5,Mound Street,63026,38.5139703,-90.4356883
1707,Gilsinn Lane,63026,38.5416332,-90.4648728
1720,Westpark Center Drive,63026,38.5388711,-90.4684331
304,Water Street,63026,38.5133372,-90.4347465
1620,Bowles Avenue,63026,38.5364998,-90.4730658
1052,Cassens Industrial Court,63026,38.5551174,-90.4482175
34,Forest Knoll Drive,63026,38.5183033,-90.4481903
11,Elderwood Court,63026,38.5207777,-90.4492458
333,Hays Hill Drive,63026,38.5159521,-90.4447017
1669,San Simeon Way,63026,38.5262041,-90.4651160
417,Main Street,63026,38.5136918,-90.4367148
933,Westminster Abby Lane,63026,38.5014793,-90.4573014
1336,Valiant Drive,63026,38.5313833,-90.4464519
933,Westminster Abby Lane,63026,38.5014778,-90.4574188
672,Gravois Bluffs Boulevard,63026,38.5075633,-90.4410707
737,Gravois Road,63026,38.5112583,-90.4486496
941,Westminster Abby Lane,63026,38.5014909,-90.4581832
15,Ashgate Court,63026,38.5198195,-90.4458555
1168,London Circle Lane,63026,38.5021798,-90.4565989
901,Westminster Abby Lane,63026,38.5024204,-90.4561248
1744,San Martin Drive,63026,38.5297977,-90.4663144
8,Fircrest Lane,63026,38.5177810,-90.4490542
1671,Fenton Business Park Court,63026,38.5398415,-90.4471991
1610,Bowles Avenue,63026,38.5359677,-90.4726640
1160,London Circle Lane,63026,38.5021954,-90.4573718
1044,Villa Gran Way,63026,38.5289484,-90.4724480
925,Westminster Abby Lane,63026,38.5014733,-90.4568089
742,River Hills Drive,63026,38.5180208,-90.4425062
933,Westminster Abby Lane,63026,38.5015341,-90.4575262
13219,Wintergreen Estates Drive,63026,38.5040792,-90.4286458
957,Villa Gran Way,63026,38.5286094,-90.4672247
901,Bolger Court,63026,38.5405905,-90.4606804
29,Tierra Court,63026,38.5273036,-90.4639790
205,Soccer Park Road,63026,38.5434045,-90.4440360
1209,Smizer Mill Road,63026,38.5240583,-90.4712052
1724,Westpark Center Drive,63026,38.5387372,-90.4684293
1720,Westpark Center Drive,63026,38.5391358,-90.4684367
301,Fury Drive,63026,38.5291501,-90.4425999
531,Axminister Drive,63026,38.5373814,-90.4500991
2,Dalton Hill Drive,63026,38.5147957,-90.4380218
1734,Chase Drive,63026,38.5409453,-90.4524112
34,Elderwood Court,63026,38.5220929,-90.4480726
925,Westminster Abby Lane,63026,38.5015162,-90.4565726
312,Chrysler Lane,63026,38.5304386,-90.4431376
149,Parkside Acres Drive,63026,38.5282846,-90.4434485
1018,Villa Gran Way,63026,38.5281418,-90.4708988
1728,Westpark Center Drive,63026,38.5389633,-90.4685144
417,Main Street,63026,38.5137449,-90.4366556
13386,Wintergreen Estates Drive,63026,38.5013367,-90.4299418
925,Westminster Abby Lane,63026,38.5015196,-90.4570209
790,Gravois Bluffs Boulevard,63026,38.5025605,-90.4521936
1057,Villa Gran Way,63026,38.5297291,-90.4729086
2171,Hitzert Court,63026,38.5496125,-90.4501686
941,Westminster Abby Lane,63026,38.5014921,-90.4582492
501,Deer Pointe Court,63026,38.5289911,-90.4555986
1001,Bowles Avenue,63026,38.5242012,-90.4735911
1753,Chase Drive,63026,38.5413049,-90.4533499
1736,Rudder Industrial Park Drive,63026,38.5412044,-90.4539697
1720,Fenpark Drive,63026,38.5392327,-90.4484475
349,Chrysler Lane,63026,38.5308110,-90.4444606
1232,Shadow Bend Drive,63026,38.5351066,-90.4718164
331,Peffer Lane,63026,38.5317225,-90.4438681
1707,Chase Drive,63026,38.5400897,-90.4527224
1160,London Circle Lane,63026,38.5021000,-90.4574288
1231,Park Meadow Drive,63026,38.5280113,-90.4515366
932,San Sebastian Drive,63026,38.5241412,-90.4665922
1409,Uthoff Farm Trail,63026,38.5330162,-90.4652187
137,Gravois Bluffs Plaza Drive,63026,38.5046313,-90.4471727
211,Water Street,63026,38.5134516,-90.4342048
515,Deer Pointe Court,63026,38.5291138,-90.4547174
210,Fabricator Drive,63026,38.5375029,-90.4398267
575,Rudder Road,63026,38.5409094,-90.4517282
31,Raintree Court,63026,38.5207259,-90.4473464
8,Soccer Park Road,63026,38.5442984,-90.4368286
1333,Montevale Court,63026,38.5299065,-90.4532463
34,Fenton Plaza,63026,38.5116816,-90.4414801
974,San Sebastian Drive,63026,38.5255030,-90.4704995
1641,Larkin Williams Road,63026,38.5367526,-90.4554129
16,Fenton Plaza,63026,38.5118033,-90.4410490
205,Soccer Park Road,63026,38.5440590,-90.4443086
215,Mound Street,63026,38.5119093,-90.4374395
925,Westminster Abby Lane,63026,38.5015200,-90.4569539
26,Tierra Court,63026,38.5269108,-90.4637834
755,Gravois Road,63026,38.5101019,-90.4502697
354,Peffer Lane,63026,38.5312865,-90.4447306
794,Gravois Bluffs Boulevard,63026,38.5024217,-90.4530403
575,Rudder Road,63026,38.5408410,-90.4516825
453,Old Smizer Mill Road,63026,38.5148687,-90.4483801
12,Fircrest Lane,63026,38.5179396,-90.4492670
905,Villa Gran Way,63026,38.5288958,-90.4637861
541,Axminister Drive,63026,38.5373875,-90.4505898
988,San Sebastian Drive,63026,38.5268770,-90.4709847
217,Main Street,63026,38.5125788,-90.4347459
417,Main Street,63026,38.5137167,-90.4366894
657,Axminister Drive,63026,38.5377000,-90.4532949
55,Fenton Plaza,63026,38.5114643,-90.4423083
672,Gravois Bluffs Boulevard,63026,38.5075788,-90.4409863
1246,Park Meadow Drive,63026,38.5284111,-90.4507725
981,San Sebastian Drive,63026,38.5261905,-90.4704557
20,Fenton Plaza,63026,38.5117715,-90.4411564
32,Sennawood Drive,63026,38.5193245,-90.4506269
672,Gravois Bluffs Boulevard,63026,38.5076243,-90.4407828
1306,Larkin Williams Road,63026,38.5295667,-90.4473730
2000,Mraz Lane,63026,38.5444330,-90.4534735
301,Dart Lane,63026,38.5300211,-90.4426651
830,Horan Drive,63026,38.5376424,-90.4572245
619,Winter View Circle,63026,38.5018986,-90.4287285
575,Rudder Road,63026,38.5409706,-90.4517648
2243,Hitzert Court,63026,38.5537241,-90.4516018
13392,Wintergreen Estates Drive,63026,38.5012246,-90.4297595
426,Axminister Drive,63026,38.5365336,-90.4474842
2507,Cassens Drive,63026,38.5539607,-90.4487756
86,Soccer Park Road,63026,38.5437979,-90.4383282
1496,Bent Oak Ridge Court,63026,38.5345611,-90.4681476
1568,Fencorp Drive,63026,38.5348599,-90.4463095
1160,South Highway Drive,63026,38.5412253,-90.4686998
313,Main Street,63026,38.5133532,-90.4355354
11,Forest Knoll Drive,63026,38.5160027,-90.4480405
74,Soccer Park Road,63026,38.5439142,-90.4380109
676,Gravois Bluffs Boulevard,63026,38.5073371,-90.4418825
643,Axminister Drive,63026,38.5376963,-90.4531744
312,Imperial Lane,63026,38.5321589,-90.4431963
913,Bolger Court,63026,38.5405954,-90.4611539
1733,Chase Drive,63026,38.5408284,-90.4530765
120,Matrix Commons Drive,63026,38.5385501,-90.4512204
115,Cassens Court,63026,38.5497753,-90.4468959
40,Fenton Plaza,63026,38.5116285,-90.4416710
218,Center Street,63026,38.5107197,-90.4364505
211,Gravois Road,63026,38.5118967,-90.4353628
538,Axminister Drive,63026,38.5364310,-90.4503920
264,Axminister Drive,63026,38.5363612,-90.4429037
270,Axminister Drive,63026,38.5363636,-90.4429842
223,Ferry Street,63026,38.5124467,-90.4384195
947,Woodway Drive,63026,38.5228350,-90.4590221
1361,Montevale Court,63026,38.5298106,-90.4552254
930,Woodway Circle,63026,38.5221436,-90.4567739
1168,London Circle Lane,63026,38.5021321,-90.4566673
25,Elderwood Court,63026,38.5214560,-90.4489674
1257,Valiant Drive,63026,38.5282353,-90.4459114
909,Westminster Abby Lane,63026,38.5020638,-90.4560641
901,Westminster Abby Lane,63026,38.5025338,-90.4561019
22,Tierra Court,63026,38.5268803,-90.4634904
1616,Headland Drive,63026,38.5343269,-90.4404600
911,Bolger Court,63026,38.5405978,-90.4610719
1207,Smizer Mill Road,63026,38.5239820,-90.4710542
1645,Manufacturers Drive,63026,38.5354917,-90.4444361
257,Wolfner Drive,63026,38.5336047,-90.4428976
560,Old Smizer Mill Road,63026,38.5148412,-90.4512414
1720,Chase Drive,63026,38.5405158,-90.4521766
505,Forest Grove Drive,63026,38.5296202,-90.4531464
1736,Westpark Center Drive,63026,38.5388057,-90.4686300
1736,Westpark Center Drive,63026,38.5387373,-90.4686300
324,Chrysler Lane,63026,38.5304535,-90.4435866
1168,London Circle Lane,63026,38.5021829,-90.4567394
290,Axminister Drive,63026,38.5363812,-90.4436218
575,Rudder Road,63026,38.5405891,-90.4514444
260,Axminister Drive,63026,38.5363611,-90.4428446
21,Elderwood Court,63026,38.5212433,-90.4489718
1309,Montevale Court,63026,38.5298756,-90.4512473
1737,Larkin Williams Road,63026,38.5396617,-90.4575969
909,Bolger Court,63026,38.5405954,-90.4609809
1742,Gilsinn Lane,63026,38.5395281,-90.4636900
519,Rudder Road,63026,38.5412279,-90.4496959
857,Horan Drive,63026,38.5385243,-90.4578680
639,Gravois Bluffs Boulevard,63026,38.5084108,-90.4357564
901,Westminster Abby Lane,63026,38.5026054,-90.4561246
1540,Fenpark Drive,63026,38.5344609,-90.4484246
1422,Uthoff Farm Trail,63026,38.5315084,-90.4633725
794,Gravois Bluffs Boulevard,63026,38.5023644,-90.4533505
1242,Woodridge Trails Drive,63026,38.5322844,-90.4702637
605,South Old Highway 141 Street,63026,38.5054817,-90.4411300
1211,Park Meadow Drive,63026,38.5272160,-90.4508095
794,Gravois Bluffs Boulevard,63026,38.5023780,-90.4532768
11,Heathwood Lane,63026,38.5175296,-90.4494953
934,Woodway Drive,63026,38.5219839,-90.4576757
733,Gravois Road,63026,38.5114351,-90.4488073
822,Horan Drive,63026,38.5378583,-90.4565342
867,Horan Drive,63026,38.5386345,-90.4583661
13380,Wintergreen Estates Drive,63026,38.5012908,-90.4302476
731,Gravois Road,63026,38.5116160,-90.4489698
676,Gravois Bluffs Boulevard,63026,38.5072748,-90.4421532
810,Horan Drive,63026,38.5378510,-90.4561105
1022,Villa Gran Way,63026,38.5282473,-90.4711188
1353,Montevale Court,63026,38.5299240,-90.4546415
337,Imperial Lane,63026,38.5325269,-90.4441173
869,Horan Drive,63026,38.5386381,-90.4584722
536,Gravois Road,63026,38.5129785,-90.4391928
1202,Park Meadow Drive,63026,38.5272465,-90.4500359
984,San Sebastian Drive,63026,38.5264481,-90.4709728
542,Axminister Drive,63026,38.5363297,-90.4505249
900,South Highway Drive,63026,38.5421564,-90.4594132
1111,Horan Drive,63026,38.5387030,-90.4669713
1226,Park Meadow Drive,63026,38.5278071,-90.4509715
851,Horan Drive,63026,38.5385205,-90.4576888
13,Cassens Court,63026,38.5504575,-90.4454840
284,Wolfner Drive,63026,38.5329802,-90.4440507
1600,Uthoff Drive,63026,38.5347232,-90.4644077
534,Axminister Drive,63026,38.5365322,-90.4502592
978,Woodway Court,63026,38.5224342,-90.4560169
548,Axminister Drive,63026,38.5361868,-90.4507222
440,Wolfner Drive,63026,38.5323256,-90.4473478
544,Axminister Drive,63026,38.5362850,-90.4505932
5,Forest Oak Court,63026,38.5187029,-90.4471903
918,Villa Gran Way,63026,38.5286325,-90.4647725
901,Westminster Abby Lane,63026,38.5027695,-90.4562498
855,Horan Drive,63026,38.5385205,-90.4577671
1644,Manufacturers Drive,63026,38.5354433,-90.4435703
271,Wolfner Drive,63026,38.5335959,-90.4433338
1640,Manufacturers Drive,63026,38.5352497,-90.4435704
1736,Westpark Center Drive,63026,38.5386540,-90.4686282
112,Zapata Court,63026,38.5271727,-90.4628002
265,Wolfner Drive,63026,38.5335929,-90.4431783
578,Rudder Road,63026,38.5392803,-90.4506514
49,Gravois Road,63026,38.5115962,-90.4335868
19,Heathwood Lane,63026,38.5177866,-90.4499595
504,Deer Pointe Court,63026,38.5294447,-90.4554829
129,Gravois Bluffs Plaza Drive,63026,38.5049813,-90.4471661
512,Forest Grove Drive,63026,38.5294520,-90.4523004
506,Forest Grove Drive,63026,38.5296662,-90.4524779
997,Horan Drive,63026,38.5386656,-90.4635543
1107,Coronita Way,63026,38.5285290,-90.4724765
13279,Wintergreen Estates Drive,63026,38.5036397,-90.4309612
1168,London Circle Lane,63026,38.5021411,-90.4568077
13314,Wintergreen Estates Drive,63026,38.5027109,-90.4308813
865,New Smizer Mill Road,63026,38.5225291,-90.4608933
1326,Larkin Williams Road,63026,38.5299535,-90.4471010
1304,Park Meadow Drive,63026,38.5291510,-90.4527528
49,Cassens Court,63026,38.5501540,-90.4463903
1619,Headland Drive,63026,38.5347342,-90.4419078
1201,North Highway Drive,63026,38.5462031,-90.4683297
1100,Coronita Way,63026,38.5279384,-90.4724913
2150,Fenton Logistics Park,63026,38.5504757,-90.4573220
1760,Gilsinn Lane,63026,38.5407344,-90.4631476
180,Gravois Bluffs Circle,63026,38.5025447,-90.4449553
1709,Chase Drive,63026,38.5401558,-90.4527665
1765,Chase Drive,63026,38.5418983,-90.4536859
628,Gravois Road,63026,38.5124271,-90.4417586
52,Fenton Plaza,63026,38.5115429,-90.4420170
1763,Larkin Williams Road,63026,38.5413226,-90.4587414
97,Forest Knoll Drive,63026,38.5221082,-90.4453554
901,Westminster Abby Lane,63026,38.5026591,-90.4562840
1111,Horan Drive,63026,38.5395440,-90.4669506
528,Old Smizer Mill Road,63026,38.5144173,-90.4508941
586,Rudder Road,63026,38.5391470,-90.4506482
508,Fleetwood Meadows Court,63026,38.5324689,-90.4521874
952,San Sebastian Drive,63026,38.5246835,-90.4677312
909,Westminster Abby Lane,63026,38.5021413,-90.4560337
129,Parkside Acres Drive,63026,38.5283149,-90.4441386
532,Old Smizer Mill Road,63026,38.5144674,-90.4509350
37,Raintree Court,63026,38.5211222,-90.4470092
891,Bolger Court,63026,38.5411263,-90.4594415
32,Fenton Plaza,63026,38.5116892,-90.4414344
239,Peffer Lane,63026,38.5317014,-90.4415231
1475,Uthoff Drive,63026,38.5335010,-90.4672870
1755,Chase Drive,63026,38.5414608,-90.4534461
28,Sennawood Drive,63026,38.5190983,-90.4506984
1168,London Circle Lane,63026,38.5020725,-90.4567622
739,Gravois Bluffs Boulevard,63026,38.5077282,-90.4493438
1642,Manufacturers Drive,63026,38.5353420,-90.4435742
743,Gravois Bluffs Boulevard,63026,38.5076448,-90.4494955
755,Merus Court,63026,38.5404014,-90.4556799
747,Gravois Bluffs Boulevard,63026,38.5074900,-90.4497838
1558,Fenpark Drive,63026,38.5356735,-90.4484517
261,Imperial Lane,63026,38.5325842,-90.4423158
1736,Westpark Center Drive,63026,38.5389678,-90.4686148
901,Westminster Abby Lane,63026,38.5028739,-90.4562915
33,Cassens Court,63026,38.5501829,-90.4462869
37,Cassens Court,63026,38.5501715,-90.4463402
401,Allen Road,63026,38.5038636,-90.4236019
816,Horan Drive,63026,38.5378568,-90.4563964
798,Gravois Bluffs Boulevard,63026,38.5029763,-90.4543936
1712,Chase Drive,63026,38.5403078,-90.4520530
163,Parkside Acres Drive,63026,38.5281825,-90.4428155
1733,Larkin Williams Road,63026,38.5395584,-90.4574975
1232,Montevale Court,63026,38.5295437,-90.4493698
641,Axminister Drive,63026,38.5373174,-90.4528504
1204,Montevale Court,63026,38.5282530,-90.4482998
878,Villa Gran Way,63026,38.5277397,-90.4620895
1714,Chase Drive,63026,38.5404258,-90.4520942
316,Axminister Drive,63026,38.5362084,-90.4448975
719,Rudder Road,63026,38.5392325,-90.4544725
272,Allen Road,63026,38.5020083,-90.4232743
909,Westminster Abby Lane,63026,38.5019236,-90.4560376
136,Matrix Commons Drive,63026,38.5381455,-90.4512206
1086,Headquarters Park,63026,38.5402799,-90.4667800
232,Axminister Drive,63026,38.5365520,-90.4423891
2,Soccer Park Road,63026,38.5446989,-90.4377227
825,Villa Gran Way,63026,38.5264576,-90.4590279
1111,Horan Drive,63026,38.5393571,-90.4669533
519,Rudder Road,63026,38.5410120,-90.4495541
62,Gravois Road,63026,38.5108630,-90.4340788
63,Fenton Plaza,63026,38.5112324,-90.4432595
1111,Horan Drive,63026,38.5390410,-90.4669661
1540,Fencorp Drive,63026,38.5332588,-90.4462000
8,Forest Knoll Drive,63026,38.5167216,-90.4489688
1220,Montevale Court,63026,38.5290109,-90.4488965
42,Gravois Road,63026,38.5113065,-90.4326813
1111,Horan Drive,63026,38.5391980,-90.4669609
401,Gravois Road,63026,38.5126563,-90.4367830
1702,Coronita Drive,63026,38.5293685,-90.4698926
1111,Horan Drive,63026,38.5391205,-90.4669635
941,Westminster Abby Lane,63026,38.5014922,-90.4583174
1160,London Circle Lane,63026,38.5020940,-90.4573036
773,Merus Court,63026,38.5401747,-90.4561778
1710,San Martin Drive,63026,38.5284734,-90.4684747
504,Gravois Road,63026,38.5129936,-90.4381689
910,Woodway Circle,63026,38.5212476,-90.4558136
1346,Larkin Williams Road,63026,38.5301884,-90.4479422
1704,Gilsinn Lane,63026,38.5393254,-90.4638080
826,Villa Gran Way,63026,38.5261647,-90.4597345
1585,Fenpark Drive,63026,38.5362019,-90.4495698
519,New Smizer Mill Road,63026,38.5167751,-90.4498679
1741,Larkin Williams Road,63026,38.5399966,-90.4579862
504,Old Smizer Mill Road,63026,38.5141741,-90.4506804
407,Gravois Road,63026,38.5127205,-90.4368987
1636,Headland Drive,63026,38.5361535,-90.4402919
343,Dart Lane,63026,38.5299625,-90.4442304
4,Gravois Road,63026,38.5118378,-90.4317178
1639,Headland Drive,63026,38.5362270,-90.4413593
275,Wolfner Drive,63026,38.5335930,-90.4434287
1611,Headland Drive,63026,38.5342629,-90.4416962
276,Axminister Drive,63026,38.5363768,-90.4434285
180,Gravois Bluffs Circle,63026,38.5025923,-90.4449477
769,Merus Court,63026,38.5402299,-90.4560199
1111,Horan Drive,63026,38.5388720,-90.4669687
340,Skinker Lane,63026,38.5133244,-90.4450504
1607,Manufacturers Drive,63026,38.5337842,-90.4447632
887,Bolger Court,63026,38.5411311,-90.4592867
236,Axminister Drive,63026,38.5362420,-90.4420733
5,Heathwood Lane,63026,38.5172789,-90.4490342
234,Axminister Drive,63026,38.5361491,-90.4420765
1635,Littleton Court,63026,38.5240072,-90.4609345
261,Wolfner Drive,63026,38.5336047,-90.4430228
45,Gravois Bluffs Plaza Drive,63026,38.5076209,-90.4475457
1647,Headland Drive,63026,38.5362331,-90.4414947
751,Gravois Bluffs Boulevard,63026,38.5074067,-90.4499356
1633,Larkin Williams Road,63026,38.5366493,-90.4553302
1280,South Highway Drive,63026,38.5410200,-90.4727453
238,Axminister Drive,63026,38.5363227,-90.4420686
278,Axminister Drive,63026,38.5363780,-90.4434551
2227,Hitzert Court,63026,38.5515453,-90.4512571
27,Fircrest Lane,63026,38.5188694,-90.4500601
2089,Corporate 44 Drive,63026,38.5482863,-90.4474290
510,Riverchase Circle,63026,38.5285316,-90.4498621
13369,Wintergreen Estates Drive,63026,38.5010801,-90.4314306
250,Axminister Drive,63026,38.5363587,-90.4426928
962,South Highway Drive,63026,38.5415952,-90.4620588
1291,Larkin Williams Road,63026,38.5292552,-90.4485232
916,South Highway Drive,63026,38.5413701,-90.4600967
897,Bolger Court,63026,38.5405928,-90.4605317
249,Wolfner Drive,63026,38.5336702,-90.4422930
13249,Wintergreen Estates Drive,63026,38.5039209,-90.4298379
2096,Fenton Logistics Park,63026,38.5491714,-90.4553668
2094,Fenton Logistics Park,63026,38.5490957,-90.4555773
2092,Fenton Logistics Park,63026,38.5490258,-90.4557717
568,Old Smizer Mill Road,63026,38.5149574,-90.4513488
1263,Larkin Williams Road,63026,38.5270240,-90.4493653
424,Gravois Road,63026,38.5127206,-90.4377170
814,Horan Drive,63026,38.5378568,-90.4563363
2020,Corporate 44 Drive,63026,38.5456181,-90.4471326
2022,Corporate 44 Drive,63026,38.5458828,-90.4472963
17,Goode Drive,63026,38.5147098,-90.4374444
1111,Horan Drive,63026,38.5392736,-90.4669584
409,Main Street,63026,38.5135345,-90.4363516
227,Ferry Street,63026,38.5125563,-90.4383105
946,South Highway Drive,63026,38.5415945,-90.4617176
700,Rudder Road,63026,38.5380652,-90.4537886
2081,Corporate 44 Drive,63026,38.5470488,-90.4467470
900,Woodway Circle,63026,38.5205964,-90.4561204
1585,Fencorp Drive,63026,38.5358550,-90.4476838
2076,Fenton Logistics Park,63026,38.5476383,-90.4544794
2074,Fenton Logistics Park,63026,38.5475626,-90.4546900
2083,Corporate 44 Drive,63026,38.5473265,-90.4469002
2072,Fenton Logistics Park,63026,38.5474928,-90.4548844
2070,Fenton Logistics Park,63026,38.5474196,-90.4550880
2086,Fenton Logistics Park,63026,38.5479375,-90.4536472
519,Rudder Road,63026,38.5409220,-90.4495129
30,Fenton Plaza,63026,38.5117177,-90.4413297
180,Gravois Bluffs Circle,63026,38.5026460,-90.4449476
343,Axminister Drive,63026,38.5371841,-90.4442541
175,Larkin Williams Road,63026,38.5487788,-90.4704848
895,Bolger Court,63026,38.5406429,-90.4604861
2391,Cassens Drive,63026,38.5514764,-90.4470975
744,Gravois Road,63026,38.5100047,-90.4487496
1745,Larkin Williams Road,63026,38.5401247,-90.4580999
1710,Gilsinn Lane,63026,38.5393288,-90.4636923
1743,Larkin Williams Road,63026,38.5400651,-90.4580507
13267,Wintergreen Estates Drive,63026,38.5038770,-90.4305307
1668,Headland Drive,63026,38.5374253,-90.4405156
1615,Headland Drive,63026,38.5343999,-90.4416771
651,Axminister Drive,63026,38.5374545,-90.4531862
241,Wolfner Drive,63026,38.5336701,-90.4420882
6,Raintree Court,63026,38.5192034,-90.4478800
2,Raintree Court,63026,38.5190654,-90.4476444
277,Wolfner Drive,63026,38.5335930,-90.4434628
1401,Uthoff Farm Trail,63026,38.5335128,-90.4647746
1,Dalton Hill Drive,63026,38.5146071,-90.4381566
849,Villa Gran Way,63026,38.5277011,-90.4602679
1530,Fenpark Drive,63026,38.5339611,-90.4486949
464,Old Smizer Mill Road,63026,38.5137663,-90.4502984
1584,Fenpark Drive,63026,38.5364153,-90.4486238
142,Parkside Acres Drive,63026,38.5278468,-90.4435944
733,Merus Court,63026,38.5406491,-90.4549804
737,Merus Court,63026,38.5406014,-90.4551140
745,Merus Court,63026,38.5405119,-90.4553642
1656,Headland Drive,63026,38.5369844,-90.4402929
601,Gravois Bluffs Boulevard,63026,38.5060347,-90.4324119
1408,Uthoff Farm Trail,63026,38.5327328,-90.4638217
308,Water Street,63026,38.5134277,-90.4349374
386,Rudder Road,63026,38.5412214,-90.4386209
1860,Larkin Williams Road,63026,38.5407576,-90.4575744
40,Gravois Road,63026,38.5113429,-90.4326978
909,Villa Gran Way,63026,38.5290100,-90.4640440
888,Bolger Court,63026,38.5403425,-90.4586878
601,Gravois Bluffs Boulevard,63026,38.5063032,-90.4331169
25,Tierra Court,63026,38.5274835,-90.4637826
600,South Highway Drive,63026,38.5418959,-90.4510423
17,Gravois Bluffs Plaza Drive,63026,38.5086763,-90.4475476
717,Larkin Williams Road,63026,38.5167299,-90.4374358
759,Gravois Bluffs Boulevard,63026,38.5060135,-90.4507989
1042,Larkin Williams Road,63026,38.5232552,-90.4360856
1650,Bowles Avenue,63026,38.5370953,-90.4731318
1318,Montevale Court,63026,38.5303848,-90.4515117
2275,Cassens Drive,63026,38.5490847,-90.4447489
1356,Larkin Williams Road,63026,38.5306235,-90.4482695
292,Wolfner Drive,63026,38.5329728,-90.4444797
533,Axminister Drive,63026,38.5373822,-90.4501894
288,Axminister Drive,63026,38.5363800,-90.4435899
735,Merus Court,63026,38.5406300,-90.4550412
2275,Cassens Drive,63026,38.5489542,-90.4451335
1315,Park Meadow Drive,63026,38.5285576,-90.4531418
280,Axminister Drive,63026,38.5363781,-90.4434864
8,Forest Oak Court,63026,38.5182399,-90.4473355
745,Gravois Road,63026,38.5111653,-90.4496302
1650,Manufacturers Drive,63026,38.5360882,-90.4436308
570,South Highway Drive,63026,38.5419842,-90.4498915
909,San Sebastian Drive,63026,38.5244206,-90.4650955
13362,Wintergreen Estates Drive,63026,38.5012271,-90.4309471
269,Wolfner Drive,63026,38.5335989,-90.4432959
766,Gravois Bluffs Boulevard,63026,38.5040312,-90.4510220
1160,London Circle Lane,63026,38.5021538,-90.4576717
832,Horan Drive,63026,38.5375351,-90.4572170
1748,Gilsinn Lane,63026,38.5394634,-90.4638035
1623,Headland Drive,63026,38.5350728,-90.4416372
749,Merus Court,63026,38.5404662,-90.4554929
12,Gravois Road,63026,38.5114010,-90.4320691
598,Old Smizer Mill Road,63026,38.5160275,-90.4513130
249,Wolfner Drive,63026,38.5336673,-90.4423461
960,South Highway Drive,63026,38.5415961,-90.4619525
780,Merus Court,63026,38.5396671,-90.4559492
774,Merus Court,63026,38.5397352,-90.4557570
468,Old Smizer Mill Road,63026,38.5138271,-90.4503712
842,Villa Gran Way,63026,38.5269081,-90.4602427
1530,Bowles Avenue,63026,38.5345494,-90.4728046
1603,Manufacturers Drive,63026,38.5335574,-90.4447722
1010,Uthoff Farm Court,63026,38.5334247,-90.4638104
1293,Woodridge Trails Drive,63026,38.5331370,-90.4731473
1289,Woodridge Trails Drive,63026,38.5330558,-90.4728696
1530,Bent Tree Trails Court,63026,38.5361337,-90.4668510
927,Champion Estates Drive,63026,38.5207528,-90.4555753
915,Champion Estates Drive,63026,38.5200308,-90.4557122
601,Gravois Bluffs Boulevard,63026,38.5062019,-90.4329805
1749,Gilsinn Lane,63026,38.5409647,-90.4649725
1049,Villa Gran Way,63026,38.5295170,-90.4724660
756,River Hills Drive,63026,38.5173199,-90.4413696
266,Imperial Lane,63026,38.5321854,-90.4425220
1284,Shadow Bend Court,63026,38.5343738,-90.4707832
1229,Shadow Bend Drive,63026,38.5353022,-90.4712409
601,Gravois Bluffs Boulevard,63026,38.5065895,-90.4335186
601,Gravois Bluffs Boulevard,63026,38.5066849,-90.4336399
1552,Fencorp Drive,63026,38.5343882,-90.4464421
109,Parkside Acres Drive,63026,38.5276068,-90.4444246
1690,Larkin Williams Road,63026,38.5382415,-90.4548706
1816,Alvarado Drive,63026,38.5299345,-90.4637945
873,Horan Drive,63026,38.5386392,-90.4585930
1749,Gilsinn Lane,63026,38.5410247,-90.4650180
1660,Manufacturers Drive,63026,38.5363094,-90.4436261
91,Larkin Williams Industrial Court,63026,38.5353297,-90.4541971
940,San Sebastian Drive,63026,38.5243438,-90.4670873
747,Merus Court,63026,38.5404929,-90.4554200
927,San Sebastian Drive,63026,38.5245273,-90.4661942
2396,Cassens Drive,63026,38.5531376,-90.4456343
601,Gravois Bluffs Boulevard,63026,38.5068997,-90.4340037
204,Fabricator Drive,63026,38.5374723,-90.4393795
50,Soccer Park Road,63026,38.5441143,-90.4373693
1261,Woodridge Trails Drive,63026,38.5321582,-90.4713914
601,Gravois Bluffs Boulevard,63026,38.5063987,-90.4332382
1271,Fenton Meadows Court,63026,38.5313573,-90.4713261
1011,Uthoff Farm Court,63026,38.5339971,-90.4644050
2200,Cassens Drive,63026,38.5465323,-90.4410266
933,Villa Gran Way,63026,38.5291354,-90.4657689
1680,Fenton Business Park Court,63026,38.5410198,-90.4462530
1673,San Simeon Way,63026,38.5264156,-90.4651626
105,Cassens Court,63026,38.5502116,-90.4471324
1214,Shadow Bend Drive,63026,38.5337668,-90.4716914
1287,Fenton Meadows Court,63026,38.5313324,-90.4724547
1634,Headland Drive,63026,38.5357671,-90.4403234
1024,Horan Drive,63026,38.5371729,-90.4642246
1236,Shadow Bend Drive,63026,38.5354398,-90.4720564
1632,Coronita Drive,63026,38.5280447,-90.4718221
1385,Horan Drive,63026,38.5386273,-90.4729468
1645,Larkin Williams Road,63026,38.5367998,-90.4554567
349,Dart Lane,63026,38.5299631,-90.4444743
504,Fleetwood Meadows Court,63026,38.5325854,-90.4517302
947,Woodway Circle,63026,38.5215026,-90.4580867
206,Fabricator Drive,63026,38.5374217,-90.4395430
1625,Larkin Williams Road,63026,38.5365647,-90.4552608
32,Soccer Park Road,63026,38.5445019,-90.4361404
12,Buckwood Court,63026,38.5187333,-90.4488758
119,Zapata Court,63026,38.5266203,-90.4633919
42,Fenton Plaza,63026,38.5116175,-90.4416983
472,Old Smizer Mill Road,63026,38.5138879,-90.4504075
1663,Fenton Business Park Court,63026,38.5400262,-90.4475514
2239,Hitzert Court,63026,38.5535611,-90.4515061
1670,Larkin Williams Road,63026,38.5377611,-90.4543141
2501,Cassens Drive,63026,38.5543535,-90.4475731
1615,Manufacturers Drive,63026,38.5341872,-90.4447591
1605,Manufacturers Drive,63026,38.5336939,-90.4447688
1290,Horan Drive,63026,38.5361729,-90.4701508
262,Axminister Drive,63026,38.5363600,-90.4428764
258,Axminister Drive,63026,38.5363587,-90.4428157
668,Larkin Williams Road,63026,38.5145693,-90.4361118
1275,Larkin Williams Road,63026,38.5278347,-90.4474890
208,Water Street,63026,38.5129095,-90.4339644
940,Woodway Drive,63026,38.5221200,-90.4584402
1233,Shadow Bend Drive,63026,38.5356764,-90.4713470
941,Westminster Abby Lane,63026,38.5014421,-90.4582788
16,Mound Street,63026,38.5135483,-90.4358374
614,Winter View Circle,63026,38.5021276,-90.4281399
415,Axminister Drive,63026,38.5383877,-90.4471467
415,Axminister Drive,63026,38.5387485,-90.4471080
901,Westminster Abby Lane,63026,38.5024472,-90.4560716
2275,Cassens Drive,63026,38.5491149,-90.4446581
1700,Gilsinn Lane,63026,38.5395299,-90.4639726
1288,Valiant Drive,63026,38.5293375,-90.4462127
1539,Bent Oak Ridge Drive,63026,38.5367619,-90.4685773
1110,London Circle Lane,63026,38.5031188,-90.4557768
309,Main Street,63026,38.5129599,-90.4353488
504,Riverchase Circle,63026,38.5289181,-90.4495126
415,Axminister Drive,63026,38.5376301,-90.4471094
1570,Fenpark Drive,63026,38.5361523,-90.4486209
1321,Valiant Drive,63026,38.5308318,-90.4457691
112,Mound Street,63026,38.5128163,-90.4360977
2140,Bowles Avenue,63026,38.5453422,-90.4709127
59,Sennawood Drive,63026,38.5211697,-90.4497713
1247,Park Meadow Drive,63026,38.5287518,-90.4519592
415,Axminister Drive,63026,38.5375307,-90.4471059
415,Axminister Drive,63026,38.5374263,-90.4471143
355,Dart Lane,63026,38.5299495,-90.4446721
1850,Larkin Williams Road,63026,38.5404562,-90.4573924
552,Old Smizer Mill Road,63026,38.5147464,-90.4511564
866,Horan Drive,63026,38.5371451,-90.4587369
517,Gravois Road,63026,38.5135145,-90.4380392
1665,Larkin Williams Road,63026,38.5375370,-90.4553981
924,San Sebastian Drive,63026,38.5240397,-90.4660781
1418,Uthoff Farm Trail,63026,38.5318542,-90.4632999
640,Winter Hill Circle,63026,38.5026440,-90.4298217
1279,Fenton Meadows Court,63026,38.5313535,-90.4718975
863,Horan Drive,63026,38.5385235,-90.4581208
18,Fenton Plaza,63026,38.5117920,-90.4410909
650,Gravois Bluffs Boulevard,63026,38.5085448,-90.4372615
320,Gravois Road,63026,38.5120804,-90.4368281
624,Gravois Road,63026,38.5125236,-90.4416477
98,Gravois Bluffs Circle,63026,38.5077972,-90.4452063
877,Horan Drive,63026,38.5386435,-90.4588618
1620,Coronita Drive,63026,38.5269700,-90.4721187
330,Chrysler Lane,63026,38.5304456,-90.4438129
320,Gravois Road,63026,38.5120892,-90.4368187
1168,London Circle Lane,63026,38.5021800,-90.4569368
1545,Larkin Williams Road,63026,38.5338405,-90.4522772
909,Westminster Abby Lane,63026,38.5021801,-90.4560451
112,Matrix Commons Drive,63026,38.5394715,-90.4512601
691,Gravois Bluffs Boulevard,63026,38.5097380,-90.4429572
859,Horan Drive,63026,38.5385209,-90.4580414
14,Soccer Park Road,63026,38.5443533,-90.4366390
133,Cassens Court,63026,38.5493105,-90.4466425
102,Zapata Court,63026,38.5276292,-90.4627572
630,Gravois Road,63026,38.5124752,-90.4418600
1609,Coronita Drive,63026,38.5266575,-90.4730901
901,Westminster Abby Lane,63026,38.5025070,-90.4562234
901,Westminster Abby Lane,63026,38.5027098,-90.4562992
1227,Woodridge Trails Drive,63026,38.5330430,-90.4694219
1223,Woodridge Trails Drive,63026,38.5330592,-90.4691095
901,Westminster Abby Lane,63026,38.5026680,-90.4562157
21,Fircrest Lane,63026,38.5187377,-90.4498086
100,Matrix Commons Drive,63026,38.5393671,-90.4515835
129,Matrix Commons Drive,63026,38.5383693,-90.4520919
1538,Fenpark Drive,63026,38.5344061,-90.4484246
909,Westminster Abby Lane,63026,38.5020041,-90.4559351
1677,Larkin Williams Road,63026,38.5376534,-90.4555061
607,South Old Highway 141 Street,63026,38.5067754,-90.4386323
777,Merus Court,63026,38.5401080,-90.4563720
808,Danielle Place Boulevard,63026,38.5046851,-90.4518303
607,South Old Highway 141 Street,63026,38.5068518,-90.4385846
1665,San Simeon Way,63026,38.5260018,-90.4650556
1536,Fenpark Drive,63026,38.5348106,-90.4485033
1700,Gilsinn Lane,63026,38.5393936,-90.4639727
1548,Fenpark Drive,63026,38.5346787,-90.4484244
13309,Wintergreen Estates Drive,63026,38.5028885,-90.4313339
1611,Manufacturers Drive,63026,38.5339840,-90.4447631
941,Westminster Abby Lane,63026,38.5014432,-90.4581393
1617,Manufacturers Drive,63026,38.5342793,-90.4447540
411,Main Street,63026,38.5136198,-90.4365142
1321,Montevale Court,63026,38.5299237,-90.4515252
1664,Larkin Williams Road,63026,38.5374699,-90.4539979
1750,Fenpark Drive,63026,38.5396296,-90.4484563
460,Rudder Road,63026,38.5407040,-90.4474900
805,Danielle Place Boulevard,63026,38.5050639,-90.4522599
275,Axminister Drive,63026,38.5371360,-90.4433173
1736,Westpark Center Drive,63026,38.5394228,-90.4686335
1551,Bent Oak Ridge Drive,63026,38.5374117,-90.4681006
263,Axminister Drive,63026,38.5371334,-90.4431215
269,Axminister Drive,63026,38.5371347,-90.4432174
504,Water Street,63026,38.5144382,-90.4366785
1721,Coronita Drive,63026,38.5301561,-90.4712514
508,Water Street,63026,38.5144898,-90.4367701
1673,Larkin Williams Road,63026,38.5375833,-90.4554442
515,Gravois Road,63026,38.5134690,-90.4379304
800,South Highway Drive,63026,38.5423549,-90.4562584
857,Larkin Williams Road,63026,38.5203550,-90.4384791
1747,San Martin Drive,63026,38.5302655,-90.4683094
1112,Coronita Way,63026,38.5281446,-90.4730200
173,Larkin Williams Road,63026,38.5483088,-90.4706224
721,Gravois Road,63026,38.5119829,-90.4475644
1740,Chase Drive,63026,38.5410533,-90.4524753
1732,Westpark Center Drive,63026,38.5388726,-90.4685145
13230,Wintergreen Estates Drive,63026,38.5036021,-90.4290386
99,Larkin Williams Industrial Court,63026,38.5354989,-90.4565462
1451,Larkin Williams Road,63026,38.5326337,-90.4508343
13236,Wintergreen Estates Drive,63026,38.5036223,-90.4292578
1736,Westpark Center Drive,63026,38.5391462,-90.4686128
149,Gravois Bluffs Plaza Drive,63026,38.5042378,-90.4471802
1255,Woodridge Trails Drive,63026,38.5322535,-90.4711260
808,Horan Drive,63026,38.5378453,-90.4560395
204,Main Street,63026,38.5121264,-90.4348035
701,Larkin Williams Road,63026,38.5162619,-90.4424635
1740,Gilsinn Lane,63026,38.5395298,-90.4635898
56,Fenton Plaza,63026,38.5114501,-90.4424129
1728,Westpark Center Drive,63026,38.5391417,-90.4685200
400,Axminister Drive,63026,38.5362381,-90.4461106
677,Gravois Bluffs Boulevard,63026,38.5082253,-90.4417049
919,Horan Drive,63026,38.5386339,-90.4611062
1113,Coronita Way,63026,38.5285862,-90.4727944
639,Gravois Bluffs Boulevard,63026,38.5075311,-90.4349100
1513,Bent Tree Trails Court,63026,38.5354443,-90.4674943
517,Center Street,63026,38.5124921,-90.4391864
1485,Bent Oak Ridge Court,63026,38.5340403,-90.4688084
915,Horan Drive,63026,38.5386302,-90.4608846
372,Chrysler Lane,63026,38.5304008,-90.4453464
639,Gravois Bluffs Boulevard,63026,38.5073241,-90.4346330
1168,London Circle Lane,63026,38.5021859,-90.4568760
942,San Sebastian Drive,63026,38.5241082,-90.4674254
336,Chrysler Lane,63026,38.5304401,-90.4440083
325,Dart Lane,63026,38.5299990,-90.4435692
909,Westminster Abby Lane,63026,38.5021115,-90.4560755
320,Gravois Road,63026,38.5121430,-90.4367647
639,Gravois Bluffs Boulevard,63026,38.5080723,-90.4354175
251,Axminister Drive,63026,38.5369066,-90.4429423
505,Fleetwood Meadows Court,63026,38.5330214,-90.4524536
1580,Fenpark Drive,63026,38.5363293,-90.4486182
50,Western Plaza,63026,38.5142381,-90.4398773
1706,Chase Drive,63026,38.5401890,-90.4519890
13308,Wintergreen Estates Drive,63026,38.5028792,-90.4308131
670,South Highway Drive,63026,38.5423523,-90.4530510
1724,Westpark Center Drive,63026,38.5386421,-90.4685184
675,New Smizer Mill Road,63026,38.5190405,-90.4536444
5,Cassens Court,63026,38.5505468,-90.4452153
260,Imperial Lane,63026,38.5321824,-90.4422787
1529,Ocello Drive,63026,38.5336212,-90.4570384
2275,Cassens Drive,63026,38.5498062,-90.4447833
1836,Fenpark Drive,63026,38.5400864,-90.4483995
1832,Fenpark Drive,63026,38.5399971,-90.4483996
2275,Cassens Drive,63026,38.5495577,-90.4446406
512,Rudder Road,63026,38.5405607,-90.4484406
500,Rudder Road,63026,38.5406538,-90.4480889
1714,San Martin Drive,63026,38.5286957,-90.4684413
323,Hays Hill Drive,63026,38.5161687,-90.4441633
1750,Chase Drive,63026,38.5414057,-90.4526184
31,Elderwood Court,63026,38.5219858,-90.4490373
1757,Larkin Williams Road,63026,38.5414275,-90.4587960
17,Cassens Court,63026,38.5503861,-90.4456662
259,Axminister Drive,63026,38.5371321,-90.4430570
104,Matrix Commons Drive,63026,38.5394388,-90.4515835
1518,Bent Oak Ridge Drive,63026,38.5356708,-90.4679735
1738,Chase Drive,63026,38.5409921,-90.4524387
2275,Cassens Drive,63026,38.5497123,-90.4447363
665,Winter Hill Circle,63026,38.5020351,-90.4304751
737,Rudder Road,63026,38.5390333,-90.4549030
88,Opps Lane,63026,38.5108257,-90.4293669
41,Gravois Bluffs Plaza Drive,63026,38.5080421,-90.4473408
330,Axminister Drive,63026,38.5362085,-90.4452071
909,Westminster Abby Lane,63026,38.5022189,-90.4560412
476,Old Smizer Mill Road,63026,38.5139452,-90.4504530
263,Wolfner Drive,63026,38.5335988,-90.4430986
409,Gravois Road,63026,38.5128677,-90.4370262
909,Westminster Abby Lane,63026,38.5022547,-90.4561058
180,Gravois Bluffs Circle,63026,38.5026073,-90.4450804
337,Chrysler Lane,63026,38.5308266,-90.4440394
1417,Uthoff Farm Trail,63026,38.5324390,-90.4653705
1213,Shadow Bend Drive,63026,38.5338973,-90.4708984
1652,Manufacturers Drive,63026,38.5361274,-90.4436308
1809,Alvarado Drive,63026,38.5296002,-90.4644914
58,Sennawood Drive,63026,38.5211500,-90.4503458
1231,Larkin Williams Road,63026,38.5243828,-90.4440427
1675,Fenpark Drive,63026,38.5382762,-90.4496439
914,Woodway Circle,63026,38.5215216,-90.4556207
1541,Larkin Williams Road,63026,38.5337189,-90.4521590
548,Old Smizer Mill Road,63026,38.5146641,-90.4510896
180,Gravois Bluffs Circle,63026,38.5027026,-90.4449514
740,Gravois Road,63026,38.5102408,-90.4487887
808,Danielle Place Boulevard,63026,38.5056132,-90.4511996
1555,Fenpark Drive,63026,38.5347378,-90.4497317
268,Axminister Drive,63026,38.5363636,-90.4429568
535,Axminister Drive,63026,38.5373824,-90.4502665
1854,Larkin Williams Road,63026,38.5405726,-90.4574749
1168,London Circle Lane,63026,38.5021353,-90.4570735
759,Merus Court,63026,38.5403595,-90.4558110
1723,Larkin Williams Road,63026,38.5391791,-90.4570318
1370,Riverside Drive,63026,38.5309980,-90.4412950
40,Raintree Court,63026,38.5213373,-90.4475760
2376,Cassens Drive,63026,38.5520783,-90.4451526
741,Gravois Road,63026,38.5110039,-90.4491252
1562,Fenpark Drive,63026,38.5351790,-90.4484665
1810,Larkin Williams Road,63026,38.5402264,-90.4571345
1747,Larkin Williams Road,63026,38.5401963,-90.4581416
372,Peffer Lane,63026,38.5312400,-90.4454177
1856,Larkin Williams Road,63026,38.5406412,-90.4575089
768,Gravois Bluffs Boulevard,63026,38.5038333,-90.4517723
13302,Wintergreen Estates Drive,63026,38.5030429,-90.4307394
711,Gravois Road,63026,38.5126647,-90.4466554
1720,Westpark Center Drive,63026,38.5385455,-90.4684077
104,Gravois Road,63026,38.5108447,-90.4351743
1657,San Simeon Way,63026,38.5255890,-90.4649788
443,New Smizer Mill Road,63026,38.5154578,-90.4472991
100,Forest Knoll Drive,63026,38.5223642,-90.4460560
21,Cassens Court,63026,38.5503106,-90.4459076
80,Opps Lane,63026,38.5103785,-90.4286168
550,Axminister Drive,63026,38.5361451,-90.4507905
355,Chrysler Lane,63026,38.5308017,-90.4446877
743,Merus Court,63026,38.5405309,-90.4552962
305,Main Street,63026,38.5128412,-90.4352195
450,Old Smizer Mill Road,63026,38.5134873,-90.4500756
649,Axminister Drive,63026,38.5375078,-90.4531850
231,Allen Road,63026,38.5083583,-90.4276341
1736,Westpark Center Drive,63026,38.5388711,-90.4686337
1920,Bowles Avenue,63026,38.5407293,-90.4686065
201,Water Street,63026,38.5129479,-90.4333697
320,Gravois Road,63026,38.5121793,-90.4367681
1738,Rudder Industrial Park Drive,63026,38.5413141,-90.4539908
355,Fury Drive,63026,38.5291233,-90.4446331
221,Ferry Street,63026,38.5124922,-90.4383854
639,Axminister Drive,63026,38.5373983,-90.4528445
781,Rudder Road,63026,38.5388537,-90.4553705
404,Old Smizer Mill Road,63026,38.5130241,-90.4496391
777,Gravois Bluffs Boulevard,63026,38.5038593,-90.4554605
1700,Gilsinn Lane,63026,38.5394565,-90.4639726
2451,Dodge Court,63026,38.5536512,-90.4569711
588,Old Smizer Mill Road,63026,38.5155286,-90.4517051
1614,La Palma Drive,63026,38.5252655,-90.4663039
15,Gravois Bluffs Plaza Drive,63026,38.5087168,-90.4475504
905,San Sebastian Drive,63026,38.5244168,-90.4648009
67,Fenton Plaza,63026,38.5113542,-90.4436872
623,Winter View Circle,63026,38.5016536,-90.4289310
1602,La Palma Drive,63026,38.5247367,-90.4667818
986,South Highway Drive,63026,38.5423594,-90.4643058
312,Dart Lane,63026,38.5296099,-90.4430929
1620,Headland Drive,63026,38.5351176,-90.4403922
1505,Fenpark Drive,63026,38.5332995,-90.4496738
1645,Uthoff Drive,63026,38.5372485,-90.4665317
1111,Horan Drive,63026,38.5394446,-90.4669507
1416,Uthoff Farm Trail,63026,38.5319195,-90.4641031
69,Fenton Plaza,63026,38.5114579,-90.4438191
941,Westminster Abby Lane,63026,38.5015475,-90.4579648
400,Old Smizer Mill Road,63026,38.5129913,-90.4496129
23,Heathwood Lane,63026,38.5179207,-90.4501830
1168,London Circle Lane,63026,38.5021412,-90.4568609
1521,Fencorp Drive,63026,38.5333715,-90.4474484
21,Gravois Bluffs Plaza Drive,63026,38.5085794,-90.4475143
280,Wolfner Drive,63026,38.5329873,-90.4438889
2300,Hitzert Court,63026,38.5520148,-90.4532088
320,Gravois Road,63026,38.5121631,-90.4367441
361,Imperial Lane,63026,38.5325053,-90.4450115
767,Gravois Road,63026,38.5091687,-90.4514186
410,Axminister Drive,63026,38.5362382,-90.4463109
524,Gravois Road,63026,38.5131191,-90.4386909
539,Axminister Drive,63026,38.5373853,-90.4504992
650,South Highway Drive,63026,38.5417444,-90.4520741
916,Villa Gran Way,63026,38.5265679,-90.4640721
255,Axminister Drive,63026,38.5371314,-90.4429933
261,Axminister Drive,63026,38.5371327,-90.4430852
160,Gravois Bluffs Circle,63026,38.5038685,-90.4447703
8,Heathwood Lane,63026,38.5170137,-90.4494342
283,Axminister Drive,63026,38.5371392,-90.4434487
277,Axminister Drive,63026,38.5371366,-90.4433496
555,North Highway Drive,63026,38.5438345,-90.4522958
738,River Hills Drive,63026,38.5182619,-90.4428442
204,Wolfner Drive,63026,38.5331016,-90.4398874
633,Axminister Drive,63026,38.5375426,-90.4528374
2114,Fenton Logistics Park,63026,38.5505225,-90.4564147
265,Axminister Drive,63026,38.5371334,-90.4431553
2112,Fenton Logistics Park,63026,38.5504526,-90.4566091
271,Axminister Drive,63026,38.5371353,-90.4432537
2110,Fenton Logistics Park,63026,38.5503795,-90.4568127
1610,Headland Drive,63026,38.5340558,-90.4404678
1599,Fenpark Drive,63026,38.5365786,-90.4495816
520,South Highway Drive,63026,38.5422294,-90.4490381
484,Old Smizer Mill Road,63026,38.5140417,-90.4505258
1820,Bowles Avenue,63026,38.5400331,-90.4724651
1600,Fenpark Drive,63026,38.5370913,-90.4484469
204,Water Street,63026,38.5124983,-90.4337470
676,Gravois Bluffs Boulevard,63026,38.5072357,-90.4418519
2169,Hitzert Court,63026,38.5495596,-90.4494788
1205,Smizer Mill Road,63026,38.5238633,-90.4708493
631,Axminister Drive,63026,38.5375868,-90.4528339
1595,Fenpark Drive,63026,38.5365052,-90.4495839
320,Gravois Road,63026,38.5121013,-90.4368075
1619,Manufacturers Drive,63026,38.5343695,-90.4447501
1279,Larkin Williams Road,63026,38.5281759,-90.4475304
480,Old Smizer Mill Road,63026,38.5139917,-90.4504894
141,Parkside Acres Drive,63026,38.5282520,-90.4436662
20,Ferry Street,63026,38.5138470,-90.4365318
1160,London Circle Lane,63026,38.5021537,-90.4575275
1550,Fencorp Drive,63026,38.5342999,-90.4464436
1638,Headland Drive,63026,38.5362784,-90.4403003
1736,Westpark Center Drive,63026,38.5394139,-90.4685237
9,Cassens Court,63026,38.5505142,-90.4453660
109,Matrix Commons Drive,63026,38.5388531,-90.4520773
13356,Wintergreen Estates Drive,63026,38.5014247,-90.4310854
420,Old Smizer Mill Road,63026,38.5132691,-90.4498664
1658,Manufacturers Drive,63026,38.5362559,-90.4436261
225,Ferry Street,63026,38.5125189,-90.4383479
1734,Gilsinn Lane,63026,38.5395210,-90.4632827
1618,La Palma Drive,63026,38.5254530,-90.4661719
552,Axminister Drive,63026,38.5360915,-90.4508626
148,Parkside Acres Drive,63026,38.5278594,-90.4433857
601,Gravois Bluffs Boulevard,63026,38.5062058,-90.4321963
80,Soccer Park Road,63026,38.5438528,-90.4381675
731,Merus Court,63026,38.5406662,-90.4549246
1725,Chase Drive,63026,38.5403592,-90.4528658
169,Parkside Acres Drive,63026,38.5280059,-90.4427522
20,Ashgate Court,63026,38.5197323,-90.4451161
515,Gravois Road,63026,38.5134530,-90.4379916
826,Horan Drive,63026,38.5378612,-90.4566131
300,Water Street,63026,38.5131793,-90.4346753
62,Sennawood Drive,63026,38.5213976,-90.4503177
354,Imperial Lane,63026,38.5321376,-90.4447453
1600,Headland Drive,63026,38.5336267,-90.4404416
218,Wolfner Drive,63026,38.5330720,-90.4407541
2219,Hitzert Court,63026,38.5504049,-90.4506082
305,Hays Hill Drive,63026,38.5168981,-90.4438197
2223,Hitzert Court,63026,38.5513868,-90.4511669
672,Winter Hill Circle,63026,38.5019022,-90.4300207
512,Old Smizer Mill Road,63026,38.5142671,-90.4507622
639,Gravois Bluffs Boulevard,63026,38.5078148,-90.4354030
1564,Fenpark Drive,63026,38.5360698,-90.4486256
57,Fenton Plaza,63026,38.5114108,-90.4425222
1614,Headland Drive,63026,38.5342107,-90.4404639
1103,Coronita Court,63026,38.5276649,-90.4725544
2056,Fenton Logistics Park,63026,38.5462929,-90.4537117
2054,Fenton Logistics Park,63026,38.5462172,-90.4539223
2052,Fenton Logistics Park,63026,38.5461473,-90.4541167
2050,Fenton Logistics Park,63026,38.5460741,-90.4543203
2116,Fenton Logistics Park,63026,38.5505982,-90.4562041
1714,Gilsinn Lane,63026,38.5393235,-90.4635298
741,Merus Court,63026,38.5405614,-90.4552379
1812,Larkin Williams Road,63026,38.5402818,-90.4571684
601,Gravois Bluffs Boulevard,63026,38.5064585,-90.4318745
820,Horan Drive,63026,38.5378571,-90.4564993
1600,Fenpark Drive,63026,38.5373884,-90.4484363
1738,Gilsinn Lane,63026,38.5395263,-90.4635297
231,Imperial Lane,63026,38.5325157,-90.4412124
1734,Rudder Industrial Park Drive,63026,38.5410947,-90.4539637
361,Chrysler Lane,63026,38.5308240,-90.4449134
1738,Gilsinn Lane,63026,38.5395245,-90.4634786
2207,Hitzert Court,63026,38.5499796,-90.4503661
604,Axminister Drive,63026,38.5362176,-90.4523931
226,Peffer Lane,63026,38.5312180,-90.4412443
2231,Hitzert Court,63026,38.5524038,-90.4517457
1739,Larkin Williams Road,63026,38.5397154,-90.4576538
519,Rudder Road,63026,38.5410948,-90.4496319
558,Axminister Drive,63026,38.5361990,-90.4512669
1666,Larkin Williams Road,63026,38.5376140,-90.4541430
1660,Larkin Williams Road,63026,38.5373468,-90.4538505
409,Center Street,63026,38.5120668,-90.4376668
717,Gravois Road,63026,38.5116687,-90.4472849
635,Winter View Circle,63026,38.5034414,-90.4277032
933,Westminster Abby Lane,63026,38.5014386,-90.4576888
2374,Cassens Drive,63026,38.5520038,-90.4450996
180,Gravois Bluffs Circle,63026,38.5024851,-90.4449553
1160,London Circle Lane,63026,38.5021566,-90.4573718
1727,Chase Drive,63026,38.5404974,-90.4528778
531,Deer Pointe Court,63026,38.5290977,-90.4540507
763,Gravois Road,63026,38.5094987,-90.4508845
1413,Uthoff Farm Trail,63026,38.5327293,-90.4653207
1160,London Circle Lane,63026,38.5021984,-90.4572352
933,Westminster Abby Lane,63026,38.5014809,-90.4575432
925,Westminster Abby Lane,63026,38.5014761,-90.4570905
701,Rudder Road,63026,38.5394233,-90.4539543
1702,Gilsinn Lane,63026,38.5392957,-90.4638904
1587,Larkin Williams Road,63026,38.5356408,-90.4538697
252,Axminister Drive,63026,38.5363599,-90.4427581
241,Chrysler Lane,63026,38.5308613,-90.4418127
1525,Ocello Drive,63026,38.5336140,-90.4567380
856,Villa Gran Way,63026,38.5275116,-90.4609462
524,Deer Pointe Court,63026,38.5295687,-90.4540129
1410,Valiant Drive,63026,38.5320312,-90.4464408
628,Gravois Road,63026,38.5124922,-90.4417956
1783,Larkin Williams Road,63026,38.5410007,-90.4585686
1523,Fenpark Drive,63026,38.5334360,-90.4496826
938,South Highway Drive,63026,38.5413847,-90.4611984
306,Axminister Drive,63026,38.5361891,-90.4444970
934,South Highway Drive,63026,38.5413847,-90.4610709
925,Westminster Abby Lane,63026,38.5014734,-90.4570177
925,San Sebastian Drive,63026,38.5249075,-90.4655762
1600,Fenpark Drive,63026,38.5372331,-90.4484399
1303,Park Meadow Drive,63026,38.5286726,-90.4525841
25,Goode Drive,63026,38.5145305,-90.4375514
1852,Larkin Williams Road,63026,38.5405020,-90.4574313
263,Chrysler Lane,63026,38.5308593,-90.4424931
516,Old Smizer Mill Road,63026,38.5143207,-90.4508077
989,San Sebastian Drive,63026,38.5266213,-90.4704218
926,Villa Gran Way,63026,38.5286624,-90.4653054
1320,Valiant Drive,63026,38.5306888,-90.4462620
1480,Bent Oak Ridge Court,63026,38.5341583,-90.4678795
645,Gravois Bluffs Boulevard,63026,38.5090688,-90.4359469
568,Axminister Drive,63026,38.5363375,-90.4514350
525,Rudder Road,63026,38.5409647,-90.4508798
4,Woodington Court,63026,38.5322673,-90.4718192
572,Axminister Drive,63026,38.5363906,-90.4515005
1721,Larkin Williams Road,63026,38.5391195,-90.4569712
1740,Fenpark Drive,63026,38.5394901,-90.4484427
601,Gravois Bluffs Boulevard,63026,38.5060050,-90.4326015
757,Merus Court,63026,38.5403805,-90.4557454
412,Old Smizer Mill Road,63026,38.5131045,-90.4497063
160,Larkin Williams Industrial Court,63026,38.5346794,-90.4587286
151,Cassens Court,63026,38.5486512,-90.4462422
210,Water Street,63026,38.5126953,-90.4339049
1546,Fencorp Drive,63026,38.5340125,-90.4464563
634,Axminister Drive,63026,38.5365274,-90.4530426
1725,Larkin Williams Road,63026,38.5392388,-90.4570963
1563,Uthoff Drive,63026,38.5361054,-90.4661945
248,Imperial Lane,63026,38.5321824,-90.4418514
1269,Smizer Mill Road,63026,38.5243235,-90.4718922
624,Axminister Drive,63026,38.5364707,-90.4521317
1760,Chase Drive,63026,38.5417829,-90.4529769
919,San Sebastian Drive,63026,38.5244739,-90.4656358
596,Old Smizer Mill Road,63026,38.5155850,-90.4516903
1309,Park Meadow Drive,63026,38.5286191,-90.4528583
155,Cassens Court,63026,38.5485368,-90.4461869
349,Imperial Lane,63026,38.5325195,-90.4445588
2275,Cassens Drive,63026,38.5497594,-90.4447614
570,Axminister Drive,63026,38.5363668,-90.4514724
170,Larkin Williams Industrial Court,63026,38.5346555,-90.4589207
925,Westminster Abby Lane,63026,38.5015161,-90.4568840
1746,Gilsinn Lane,63026,38.5395368,-90.4638012
1509,Ocello Drive,63026,38.5317311,-90.4572113
1320,Horan Drive,63026,38.5377516,-90.4716816
632,Gravois Road,63026,38.5124376,-90.4419735
648,Axminister Drive,63026,38.5366815,-90.4531993
753,Merus Court,63026,38.5404243,-90.4556094
225,Imperial Lane,63026,38.5324748,-90.4409906
73,Sennawood Drive,63026,38.5220206,-90.4496338
1160,London Circle Lane,63026,38.5021030,-90.4576300
1581,Fenpark Drive,63026,38.5361285,-90.4495720
1716,Chase Drive,63026,38.5404654,-90.4521170
941,Westminster Abby Lane,63026,38.5014885,-90.4579633
889,Horan Drive,63026,38.5386454,-90.4594241
941,Villa Gran Way,63026,38.5290280,-90.4662949
917,Villa Gran Way,63026,38.5291566,-90.4646939
33,Sennawood Drive,63026,38.5193258,-90.4501221
150,Misty Manor Road,63026,38.5059930,-90.4541491
1819,Alvarado Drive,63026,38.5300096,-90.4643873
120,Zapata Court,63026,38.5267461,-90.4627183
1250,Yarnell Road,63026,38.5288896,-90.4356767
360,Chrysler Lane,63026,38.5303975,-90.4449147
1340,Uthoff Drive,63026,38.5309800,-90.4648475
121,Parkside Acres Drive,63026,38.5280256,-90.4444959
1550,Larkin Williams Road,63026,38.5344875,-90.4509005
957,San Sebastian Drive,63026,38.5253129,-90.4680413
1823,Alvarado Drive,63026,38.5302048,-90.4642669
1400,Yarnell Road,63026,38.5324315,-90.4356598
213,Imperial Lane,63026,38.5324221,-90.4407314
720,Gravois Road,63026,38.5110021,-90.4467776
1314,Montevale Court,63026,38.5303596,-90.4512042
610,Winter View Circle,63026,38.5024043,-90.4280655
889,Villa Gran Way,63026,38.5283024,-90.4629230
235,Chrysler Lane,63026,38.5308012,-90.4414547
262,Chrysler Lane,63026,38.5304768,-90.4424723
1622,Coronita Drive,63026,38.5269769,-90.4717809
1260,Riverside Drive,63026,38.5286166,-90.4422376
1549,Fenpark Drive,63026,38.5343640,-90.4496657
1263,Valiant Drive,63026,38.5284343,-90.4457421
1280,Riverside Drive,63026,38.5295531,-90.4418555
319,Fury Drive,63026,38.5291390,-90.4432991
49,Forest Knoll Drive,63026,38.5191154,-90.4469579
955,San Sebastian Drive,63026,38.5252149,-90.4677950
664,Winter Hill Circle,63026,38.5020770,-90.4298564
1835,Alvarado Drive,63026,38.5310052,-90.4641457
997,San Sebastian Drive,63026,38.5274023,-90.4699798
611,Winter View Circle,63026,38.5024659,-90.4285950
170,Gravois Bluffs Circle,63026,38.5032255,-90.4449562
324,Imperial Lane,63026,38.5321642,-90.4436520
379,Imperial Lane,63026,38.5325043,-90.4456572
509,Forest Grove Drive,63026,38.5293964,-90.4530062
897,Villa Gran Way,63026,38.5286328,-90.4633746
250,Wolfner Drive,63026,38.5330166,-90.4423448
306,Peffer Lane,63026,38.5313277,-90.4429385
953,San Sebastian Drive,63026,38.5251224,-90.4675711
214,Allen Road,63026,38.5051122,-90.4278637
516,Deer Pointe Court,63026,38.5295518,-90.4546020
272,Wolfner Drive,63026,38.5329983,-90.4434621
17,Raintree Court,63026,38.5199425,-90.4478266
1733,Coronita Drive,63026,38.5305736,-90.4711838
53,Forest Knoll Drive,63026,38.5193276,-90.4468504
835,New Smizer Mill Road,63026,38.5218223,-90.4587437
15,Forest Oak Court,63026,38.5184613,-90.4466037
17,Buckwood Court,63026,38.5192459,-90.4488688
260,Wolfner Drive,63026,38.5330139,-90.4428611
977,Woodway Court,63026,38.5229367,-90.4561738
1717,Fenpark Drive,63026,38.5391942,-90.4495696
30,Elderwood Court,63026,38.5216674,-90.4483096
15,Fircrest Lane,63026,38.5184658,-90.4493479
633,Winter Hill Circle,63026,38.5028092,-90.4302646
1274,Valiant Drive,63026,38.5288688,-90.4462212
1575,Uthoff Drive,63026,38.5362941,-90.4661554
910,Bolger Court,63026,38.5402563,-90.4592549
408,Gravois Road,63026,38.5124172,-90.4373540
16,Buckwood Court,63026,38.5188379,-90.4491073
515,Rudder Road,63026,38.5411917,-90.4491726
9,Heathwood Lane,63026,38.5174089,-90.4492743
375,South Old Highway 141 Street,63026,38.5074302,-90.4314261
311,Hays Hill Drive,63026,38.5166855,-90.4441165
1600,Bowles Avenue,63026,38.5354051,-90.4698496
755,Murray Hill Drive,63026,38.5163999,-90.4464842
1401,Uthoff Drive,63026,38.5318169,-90.4667001
525,New Smizer Mill Road,63026,38.5168724,-90.4501451
1345,Park Meadow Drive,63026,38.5282444,-90.4545627
262,Peffer Lane,63026,38.5313485,-90.4424843
223,Peffer Lane,63026,38.5316778,-90.4413089
307,Fury Drive,63026,38.5291450,-90.4428574
419,Center Street,63026,38.5123214,-90.4380884
298,Wolfner Drive,63026,38.5329623,-90.4447966
11,El Paso Court,63026,38.5280265,-90.4643446
312,Peffer Lane,63026,38.5313243,-90.4431811
500,Deer Pointe Court,63026,38.5292596,-90.4556840
946,San Sebastian Drive,63026,38.5240220,-90.4681986
21,Buckwood Court,63026,38.5194132,-90.4490660
990,San Sebastian Drive,63026,38.5270881,-90.4708738
1230,Larkin Williams Road,63026,38.5279352,-90.4423970
240,Imperial Lane,63026,38.5321691,-90.4416157
158,Parkside Acres Drive,63026,38.5278351,-90.4428680
959,San Sebastian Drive,63026,38.5254086,-90.4682694
307,Peffer Lane,63026,38.5317142,-90.4429822
1055,Villa Gran Way,63026,38.5301767,-90.4725248
1306,Montevale Court,63026,38.5302576,-90.4506416
313,Chrysler Lane,63026,38.5308649,-90.4431513
949,Villa Gran Way,63026,38.5288366,-90.4667749
772,River Hills Drive,63026,38.5166495,-90.4404368
318,Dart Lane,63026,38.5296015,-90.4433156
300,Wolfner Drive,63026,38.5329499,-90.4449835
723,River Hills Drive,63026,38.5186368,-90.4448625
372,Dart Lane,63026,38.5295120,-90.4453178
801,Villa Gran Way,63026,38.5251750,-90.4578516
1045,Villa Gran Way,63026,38.5293860,-90.4722294
1531,Bent Oak Ridge Drive,63026,38.5362963,-90.4687149
224,Wolfner Drive,63026,38.5330576,-90.4410310
789,Villa Gran Way,63026,38.5251075,-90.4568362
366,Peffer Lane,63026,38.5312546,-90.4451665
1391,Larkin Williams Road,63026,38.5314135,-90.4497339
104,Parkside Acres Drive,63026,38.5274502,-90.4439423
313,Fury Drive,63026,38.5291341,-90.4431007
844,Villa Gran Way,63026,38.5270972,-90.4615865
1370,Montevale Court,63026,38.5301247,-90.4556766
14,Elderwood Court,63026,38.5205790,-90.4488108
1013,Villa Gran Way,63026,38.5283706,-90.4702914
1523,Bent Oak Ridge Drive,63026,38.5358560,-90.4685727
300,Peffer Lane,63026,38.5313376,-90.4427107
1726,San Martin Drive,63026,38.5291352,-90.4683972
1731,San Martin Drive,63026,38.5295242,-90.4687966
1609,La Palma Drive,63026,38.5254432,-90.4672217
855,New Smizer Mill Road,63026,38.5223404,-90.4600376
933,San Sebastian Drive,63026,38.5245752,-90.4664832
778,Gravois Bluffs Boulevard,63026,38.5037961,-90.4522423
198,Gravois Bluffs Circle,63026,38.5014117,-90.4446341
343,Chrysler Lane,63026,38.5308132,-90.4442612
1064,Bowles Avenue,63026,38.5253224,-90.4718010
869,Villa Gran Way,63026,38.5281880,-90.4615097
1101,Coronita Way,63026,38.5283405,-90.4722530
254,Wolfner Drive,63026,38.5330257,-90.4425531
1607,La Palma Drive,63026,38.5251792,-90.4670200
2222,Cassens Drive,63026,38.5467469,-90.4411630
1630,Uthoff Drive,63026,38.5366834,-90.4646691
785,Villa Gran Way,63026,38.5245186,-90.4558331
853,Villa Gran Way,63026,38.5278598,-90.4605040
615,Winter View Circle,63026,38.5022068,-90.4286451
1211,Montevale Court,63026,38.5284084,-90.4491260
1110,Coronita Court,63026,38.5272318,-90.4730534
1746,San Martin Drive,63026,38.5300638,-90.4675168
28,Forest Knoll Drive,63026,38.5179904,-90.4483558
257,Peffer Lane,63026,38.5317465,-90.4423029
1230,Horan Drive,63026,38.5378419,-90.4686898
1310,Horan Drive,63026,38.5379572,-90.4710765
1274,Fenton Meadows Court,63026,38.5309221,-90.4716166
343,Imperial Lane,63026,38.5325252,-90.4443396
1338,Montevale Court,63026,38.5303711,-90.4535043
850,Villa Gran Way,63026,38.5273950,-90.4607340
316,Fury Drive,63026,38.5287579,-90.4432428
197,Gravois Bluffs Plaza Drive,63026-4013,38.5025501,-90.4476266
719,River Hills Drive,63026,38.5182249,-90.4451372
2475,Cassens Drive,63026,38.5572078,-90.4483350
1416,Larkin Williams Road,63026,38.5317164,-90.4485299
231,Larkin Williams Industrial Court,63026,38.5363545,-90.4568989
307,Chrysler Lane,63026,38.5308547,-90.4429283
769,River Hills Drive,63026,38.5172232,-90.4400353
1058,Villa Gran Way,63026,38.5292369,-90.4731269
914,Villa Gran Way,63026,38.5286146,-90.4644844
1008,Villa Gran Way,63026,38.5278185,-90.4703275
256,Peffer Lane,63026,38.5313502,-90.4422649
325,Imperial Lane,63026,38.5325420,-90.4436749
42,Sennawood Drive,63026,38.5200617,-90.4504799
857,Villa Gran Way,63026,38.5279871,-90.4607361
969,Villa Gran Way,63026,38.5283212,-90.4679091
1440,Riverside Drive,63026,38.5326044,-90.4402175
865,Villa Gran Way,63026,38.5281342,-90.4612367
996,San Sebastian Drive,63026,38.5275989,-90.4704740
1327,Valiant Drive,63026,38.5310189,-90.4458634
1605,Coronita Drive,63026,38.5263270,-90.4730137
1275,Fenton Meadows Court,63026,38.5313413,-90.4716145
625,Winter Hill Circle,63026,38.5029967,-90.4301783
1325,Montevale Court,63026,38.5292299,-90.4519814
1800,Colina Tierra Lane,63026,38.5251067,-90.4571915
1326,Valiant Drive,63026,38.5309250,-90.4463536
255,Imperial Lane,63026,38.5326081,-90.4420862
202,Wolfner Drive,63026,38.5330009,-90.4398697
609,South Old Highway 141 Street,63026,38.5014741,-90.4416413
1537,Fencorp Drive,63026,38.5330320,-90.4473550
1410,Riverside Drive,63026,38.5320153,-90.4408772
752,River Hills Drive,63026,38.5174459,-90.4417182
7,El Paso Court,63026,38.5283168,-90.4643215
864,Villa Gran Way,63026,38.5276111,-90.4612127
915,San Sebastian Drive,63026,38.5244152,-90.4653763
319,Peffer Lane,63026,38.5317277,-90.4434164
1050,South Highway Drive,63026,38.5419553,-90.4658760
870,South Highway Drive,63026,38.5423343,-90.4584772
18,Woodridge Trails Court,63026,38.5316792,-90.4730954
1649,San Simeon Way,63026,38.5251699,-90.4649435
249,Chrysler Lane,63026,38.5308727,-90.4420444
606,Winter View Circle,63026,38.5026666,-90.4279232
874,Villa Gran Way,63026,38.5277081,-90.4618083
1021,Villa Gran Way,63026,38.5286045,-90.4706963
1310,Montevale Court,63026,38.5303688,-90.4509276
13374,Wintergreen Estates Drive,63026,38.5012039,-90.4304643
108,Zapata Court,63026,38.5273901,-90.4628086
115,Parkside Acres Drive,63026,38.5278142,-90.4444632
318,Chrysler Lane,63026,38.5304367,-90.4433517
271,Larkin Williams Industrial Court,63026,38.5368281,-90.4570055
1316,Valiant Drive,63026,38.5304400,-90.4462314
425,North Highway Drive,63026,38.5438613,-90.4456450
1,Buckwood Court,63026,38.5187289,-90.4479728
455,North Highway Drive,63026,38.5437263,-90.4467146
13201,Wintergreen Estates Drive,63026,38.5040910,-90.4280830
337,Fury Drive,63026,38.5291218,-90.4439736
417,Center Street,63026,38.5122080,-90.4380302
1270,Fenton Meadows Court,63026,38.5309247,-90.4713329
1503,Uthoff Drive,63026,38.5349819,-90.4661905
13393,Wintergreen Estates Drive,63026,38.5010547,-90.4297335
16,Raintree Court,63026,38.5198965,-90.4483972
24,Forest Oak Court,63026,38.5178150,-90.4463276
695,Rudder Road,63026,38.5396463,-90.4532530
656,Winter Hill Circle,63026,38.5022526,-90.4298382
975,Villa Gran Way,63026,38.5281102,-90.4683933
76,Forest Knoll Drive,63026,38.5208308,-90.4464933
1707,San Martin Drive,63026,38.5282948,-90.4689891
1730,San Martin Drive,63026,38.5293237,-90.4682783
82,Forest Knoll Drive,63026,38.5212280,-90.4462411
1262,Larkin Williams Road,63026,38.5275310,-90.4448276
13225,Wintergreen Estates Drive,63026,38.5040565,-90.4288689
1258,Fenton Meadows Court,63026,38.5311472,-90.4705304
1277,Woodridge Trails Drive,63026,38.5325593,-90.4722180
1296,Woodridge Trails Drive,63026,38.5326742,-90.4734585
995,Larkin Williams Road,63026,38.5226302,-90.4367018
39,Raintree Court,63026,38.5213351,-90.4470327
942,Woodway Circle,63026,38.5216365,-90.4571847
304,Center Street,63026,38.5111492,-90.4372892
1130,Bent Tree Trails Drive,63026,38.5344936,-90.4675165
1663,Littleton Court,63026,38.5238875,-90.4588763
1108,Bent Tree Trails Drive,63026,38.5343223,-90.4664722
1333,Park Meadow Drive,63026,38.5284007,-90.4539979
13285,Wintergreen Estates Drive,63026,38.5034556,-90.4310830
673,Gravois Bluffs Boulevard,63026,38.5083985,-90.4410069
952,Woodway Drive,63026,38.5222931,-90.4593465
1547,Bent Oak Ridge Drive,63026,38.5371588,-90.4683332
355,Imperial Lane,63026,38.5325284,-90.4447942
1325,Yarnell Road,63026,38.5322882,-90.4370550
450,South Old Highway 141 Street,63026,38.5065453,-90.4288479
777,River Hills Drive,63026,38.5166932,-90.4394829
487,Old Smizer Mill Road,63026,38.5152365,-90.4488859
10,Gravois Road,63026,38.5115446,-90.4320983
246,South Old Highway 141 Street,63026,38.5085568,-90.4318673
902,San Benito Lane,63026,38.5231168,-90.4649805
512,Deer Pointe Court,63026,38.5295260,-90.4548741
1780,Gilsinn Lane,63026,38.5415952,-90.4636291
278,Wolfner Drive,63026,38.5329889,-90.4437500
1808,Alvarado Drive,63026,38.5295010,-90.4639262
1340,Park Meadow Drive,63026,38.5287943,-90.4545319
809,Danielle Place Boulevard,63026,38.5046238,-90.4521299
1134,Larkin Williams Road,63026,38.5252883,-90.4361156
1297,Woodridge Trails Drive,63026,38.5331220,-90.4733897
13327,Wintergreen Estates Drive,63026,38.5023395,-90.4314360
372,Fury Drive,63026,38.5286874,-90.4452783
1001,Villa Gran Way,63026,38.5279921,-90.4690197
987,Larkin Williams Road,63026,38.5223399,-90.4373083
8,Treecrest Court,63026,38.5208671,-90.4453536
75,Opps Lane,63026,38.5097141,-90.4319367
918,Woodway Circle,63026,38.5219321,-90.4555861
1650,Headland Drive,63026,38.5365988,-90.4402626
20,Elderwood Court,63026,38.5209880,-90.4485614
306,Imperial Lane,63026,38.5321651,-90.4429490
62,Forest Knoll Drive,63026,38.5199845,-90.4469939
1413,Valiant Drive,63026,38.5320641,-90.4459565
300,Imperial Lane,63026,38.5321776,-90.4427168
318,Imperial Lane,63026,38.5321705,-90.4434253
1450,Riverside Drive,63026,38.5327969,-90.4399254
811,Larkin Williams Road,63026,38.5188477,-90.4371227
13261,Wintergreen Estates Drive,63026,38.5038939,-90.4302841
754,Gravois Road,63026,38.5089687,-90.4491546
1603,La Palma Drive,63026,38.5250027,-90.4672313
2,Woodridge Trails Court,63026,38.5323974,-90.4727754
211,Main Street,63026,38.5123534,-90.4342428
509,Rudder Road,63026,38.5416113,-90.4481481
1272,Woodridge Trails Drive,63026,38.5320264,-90.4723238
12,Raintree Court,63026,38.5194332,-90.4483384
961,Larkin Williams Road,63026,38.5218212,-90.4384310
1350,Larkin Williams Road,63026,38.5303874,-90.4479153
413,Gravois Road,63026,38.5129649,-90.4371876
1283,Fenton Meadows Court,63026,38.5313519,-90.4721779
416,Courtney Estates Drive,63026,38.5298776,-90.4498581
13321,Wintergreen Estates Drive,63026,38.5025177,-90.4314054
1346,Montevale Court,63026,38.5303663,-90.4540585
62,Soccer Park Road,63026,38.5440305,-90.4376524
1608,San Simeon Way,63026,38.5231988,-90.4640313
1625,Uthoff Drive,63026,38.5365827,-90.4663205
1194,Larkin Williams Road,63026,38.5271538,-90.4358292
1290,Fenton Meadows Court,63026,38.5309111,-90.4727563
79,Forest Knoll Drive,63026,38.5207937,-90.4458723
734,River Hills Drive,63026,38.5183538,-90.4434089
930,Villa Gran Way,63026,38.5286855,-90.4655555
12,Treecrest Court,63026,38.5206472,-90.4450837
1751,San Martin Drive,63026,38.5304567,-90.4681243
760,Gravois Bluffs Boulevard,63026,38.5042667,-90.4505462
762,River Hills Drive,63026,38.5171092,-90.4409977
1135,London Circle Lane,63026,38.5028298,-90.4568170
248,Wolfner Drive,63026,38.5330165,-90.4422259
1357,Montevale Court,63026,38.5299104,-90.4549142
1112,Bent Tree Trails Drive,63026,38.5343440,-90.4666906
1874,Bowles Avenue,63026,38.5399846,-90.4698848
450,Wolfner Drive,63026,38.5325654,-90.4482030
1366,Montevale Court,63026,38.5303514,-90.4555049
1294,Fenton Meadows Court,63026,38.5309259,-90.4730653
13351,Wintergreen Estates Drive,63026,38.5018334,-90.4315262
301,Imperial Lane,63026,38.5325892,-90.4427677
1428,Larkin Williams Road,63026,38.5321762,-90.4492663
254,Imperial Lane,63026,38.5321895,-90.4420729
1852,Bowles Avenue,63026,38.5399932,-90.4701917
86,Forest Knoll Drive,63026,38.5214495,-90.4461653
1334,Montevale Court,63026,38.5303623,-90.4532278
516,Gravois Road,63026,38.5130293,-90.4383939
938,Woodway Circle,63026,38.5219088,-90.4570696
1350,Montevale Court,63026,38.5304183,-90.4543389
262,Wolfner Drive,63026,38.5330123,-90.4429658
1670,Fenpark Drive,63026,38.5382621,-90.4485428
230,Wolfner Drive,63026,38.5330519,-90.4413375
1826,Alvarado Drive,63026,38.5298831,-90.4614069
1708,Coronita Drive,63026,38.5293656,-90.4709780
290,Wolfner Drive,63026,38.5329807,-90.4443531
602,Winter View Circle,63026,38.5029458,-90.4279872
923,San Sebastian Drive,63026,38.5244718,-90.4659048
1506,Bowles Avenue,63026,38.5341024,-90.4732461
959,Woodway Drive,63026,38.5228198,-90.4604477
1344,Park Meadow Drive,63026,38.5285762,-90.4548257
1400,Riverside Drive,63026,38.5316883,-90.4410143
307,Imperial Lane,63026,38.5325601,-90.4429879
256,Wolfner Drive,63026,38.5330101,-90.4426775
238,Wolfner Drive,63026,38.5330079,-90.4417527
226,Imperial Lane,63026,38.5321112,-90.4411386
1723,San Martin Drive,63026,38.5291318,-90.4689742
868,Villa Gran Way,63026,38.5276927,-90.4615150
68,Soccer Park Road,63026,38.5439724,-90.4378461
520,Gravois Road,63026,38.5130608,-90.4385411
956,San Sebastian Drive,63026,38.5248725,-90.4681972
1326,Montevale Court,63026,38.5304023,-90.4523700
236,Wolfner Drive,63026,38.5330089,-90.4416330
641,Winter Hill Circle,63026,38.5026286,-90.4303251
249,Imperial Lane,63026,38.5325985,-90.4418607
531,New Smizer Mill Road,63026,38.5170155,-90.4503545
16,Sennawood Drive,63026,38.5181691,-90.4509146
90,Forest Knoll Drive,63026,38.5216680,-90.4461239
6,Ashgate Court,63026,38.5192241,-90.4464482
1210,Park Meadow Drive,63026,38.5276137,-90.4504411
1471,Bent Oak Ridge Court,63026,38.5335861,-90.4678554
55,Sennawood Drive,63026,38.5209342,-90.4498363
775,Murray Hill Drive,63026,38.5168683,-90.4461892
14,Ashgate Court,63026,38.5193359,-90.4455648
405,Main Street,63026,38.5134439,-90.4360775
1101,London Circle Lane,63026,38.5035971,-90.4563137
70,Sennawood Drive,63026,38.5219317,-90.4502663
40,Sennawood Drive,63026,38.5198019,-90.4505279
46,Raintree Court,63026,38.5218148,-90.4475764
701,Gravois Bluffs Boulevard,63026,38.5079789,-90.4447278
237,Imperial Lane,63026,38.5325497,-90.4414300
1311,Larkin Williams Road,63026,38.5300000,-90.4492709
1672,Somerset Ridge Drive,63026,38.5244828,-90.4609030
69,Sennawood Drive,63026,38.5218134,-90.4497256
242,Wolfner Drive,63026,38.5330425,-90.4419474
1717,Stemwood Way,63026,38.5247671,-90.4601433
1295,Larkin Williams Road,63026,38.5296080,-90.4483423
1386,Larkin Williams Road,63026,38.5311461,-90.4479809
378,Imperial Lane,63026,38.5321118,-90.4456460
1607,Coronita Drive,63026,38.5278753,-90.4733016
601,Fleetwood Drive,63026,38.5325417,-90.4523195
388,South Old Highway 141 Street,63026,38.5078484,-90.4306114
960,San Sebastian Drive,63026,38.5251142,-90.4686575
34,Goode Drive,63026,38.5144431,-90.4374253
810,Villa Gran Way,63026,38.5250835,-90.4588369
843,Villa Gran Way,63026,38.5272581,-90.4598861
325,Peffer Lane,63026,38.5317152,-90.4436399
13,Woodridge Trails Court,63026,38.5319688,-90.4734828
1256,Woodridge Trails Drive,63026,38.5316902,-90.4712354
361,Saline Road,63026,38.5013277,-90.4491582
1266,Valiant Drive,63026,38.5286777,-90.4462557
21,Ashgate Court,63026,38.5199586,-90.4451466
750,Merus Court,63026,38.5400971,-90.4551057
411,Courtney Estates Drive,63026,38.5305061,-90.4498919
1713,Coronita Drive,63026,38.5297551,-90.4714048
1645,San Simeon Way,63026,38.5249678,-90.4648860
1347,Larkin Williams Road,63026,38.5302434,-90.4487412
38,Gravois Road,63026,38.5113961,-90.4325523
250,Chrysler Lane,63026,38.5304696,-90.4419585
361,Dart Lane,63026,38.5299448,-90.4448972
135,Parkside Acres Drive,63026,38.5282236,-90.4439117
804,Danielle Place Boulevard,63026,38.5061178,-90.4515428
5,Treecrest Court,63026,38.5213854,-90.4453022
267,Imperial Lane,63026,38.5325934,-90.4425383
1292,Woodridge Trails Drive,63026,38.5326987,-90.4731862
64,Gravois Road,63026,38.5108208,-90.4343178
555,Wolfner Drive,63026,38.5333464,-90.4504401
1281,Woodridge Trails Drive,63026,38.5327245,-90.4723843
961,Villa Gran Way,63026,38.5285194,-90.4674530
45,Sennawood Drive,63026,38.5202232,-90.4499239
1349,Montevale Court,63026,38.5299291,-90.4543696
331,Chrysler Lane,63026,38.5308234,-90.4438071
342,Chrysler Lane,63026,38.5304323,-90.4442261
360,Peffer Lane,63026,38.5312761,-90.4449564
1812,Colina Tierra Lane,63026,38.5263764,-90.4567705
1171,Nolan Road,63026,38.5012637,-90.4511193
1104,Horan Drive,63026,38.5378323,-90.4663099
557,Gravois Road,63026,38.5132215,-90.4400996
551,Wolfner Drive,63026,38.5333534,-90.4502797
1535,Fenpark Drive,63026,38.5339178,-90.4496479
14,Raintree Court,63026,38.5196885,-90.4484568
35,Elderwood Court,63026,38.5223946,-90.4484159
116,Parkside Acres Drive,63026,38.5278251,-90.4439027
817,Villa Gran Way,63026,38.5259584,-90.4585830
22,Raintree Court,63026,38.5203162,-90.4481390
286,Wolfner Drive,63026,38.5329770,-90.4442021
1709,Gilsinn Lane,63026,38.5412469,-90.4650887
41,Raintree Court,63026,38.5215542,-90.4470063
66,Forest Knoll Drive,63026,38.5201789,-90.4468938
1827,Alvarado Drive,63026,38.5304091,-90.4641609
1040,Horan Drive,63026,38.5378057,-90.4647531
412,Courtney Estates Drive,63026,38.5300447,-90.4497346
711,River Hills Drive,63026,38.5170145,-90.4450515
342,Imperial Lane,63026,38.5321367,-90.4443057
1720,Coronita Drive,63026,38.5299545,-90.4707002
599,Old Smizer Mill Road,63026,38.5163031,-90.4511654
1608,Coronita Drive,63026,38.5263538,-90.4724206
1806,Colina Tierra Lane,63026,38.5255716,-90.4557221
999,San Sebastian Drive,63026,38.5276033,-90.4698826
1716,Stemwood Way,63026,38.5247915,-90.4595270
1416,Valiant Drive,63026,38.5322492,-90.4464345
727,River Hills Drive,63026,38.5189153,-90.4442943
1687,Larkin Williams Road,63026,38.5381913,-90.4560077
1017,Villa Gran Way,63026,38.5284745,-90.4705122
77,Sennawood Drive,63026,38.5223115,-90.4496235
313,Dart Lane,63026,38.5299967,-90.4431133
125,Parkside Acres Drive,63026,38.5282275,-90.4443674
673,Winter Hill Circle,63026,38.5018886,-90.4302813
1224,Montevale Court,63026,38.5291967,-90.4490640
1269,Valiant Drive,63026,38.5286584,-90.4456802
1606,La Palma Drive,63026,38.5249162,-90.4666121
325,Chrysler Lane,63026,38.5308364,-90.4435743
1515,Bent Oak Ridge Drive,63026,38.5356106,-90.4685169
780,Murray Hill Drive,63026,38.5168611,-90.4456075
109,Zapata Court,63026,38.5274877,-90.4633742
1243,Montevale Court,63026,38.5296623,-90.4504517
1111,London Circle Lane,63026,38.5032970,-90.4566788
982,San Sebastian Drive,63026,38.5262421,-90.4709863
308,Wolfner Drive,63026,38.5329095,-90.4453802
941,Woodway Drive,63026,38.5226425,-90.4580336
1844,Bowles Avenue,63026,38.5399850,-90.4714068
980,San Sebastian Drive,63026,38.5260153,-90.4709891
51,Sennawood Drive,63026,38.5206806,-90.4498627
11,Goode Drive,63026,38.5151627,-90.4377660
9,Treecrest Court,63026,38.5212124,-90.4450292
970,San Sebastian Drive,63026,38.5253249,-90.4699800
1734,San Martin Drive,63026,38.5295258,-90.4681847
18,Gravois Road,63026,38.5114204,-90.4322546
216,Water Street,63026,38.5129909,-90.4344175
1110,Nolan Road,63026,38.5011888,-90.4503379
330,Imperial Lane,63026,38.5321575,-90.4438861
1634,Manufacturers Drive,63026,38.5348331,-90.4432428
367,Dart Lane,63026,38.5299678,-90.4451171
1812,Alvarado Drive,63026,38.5297169,-90.4638693
343,Peffer Lane,63026,38.5316798,-90.4442976
103,Parkside Acres Drive,63026,38.5274298,-90.4444358
8,Woodington Court,63026,38.5325325,-90.4716473
1415,Uthoff Drive,63026,38.5324334,-90.4662199
1281,Larkin Williams Road,63026,38.5285537,-90.4475032
373,Dart Lane,63026,38.5299331,-90.4453331
257,Chrysler Lane,63026,38.5308665,-90.4422631
236,Chrysler Lane,63026,38.5304252,-90.4415806
986,San Sebastian Drive,63026,38.5266585,-90.4709815
601,Winter Hill Circle,63026,38.5035452,-90.4300406
976,San Sebastian Drive,63026,38.5256187,-90.4706884
1518,Bowles Avenue,63026,38.5345997,-90.4714758
266,Fury Drive,63026,38.5287363,-90.4424960
60,Forest Knoll Drive,63026,38.5197913,-90.4471102
1266,Fenton Meadows Court,63026,38.5308466,-90.4710451
13363,Wintergreen Estates Drive,63026,38.5012553,-90.4315458
348,Imperial Lane,63026,38.5321259,-90.4445540
1305,Montevale Court,63026,38.5298974,-90.4509452
1604,Coronita Drive,63026,38.5262506,-90.4727195
306,Dart Lane,63026,38.5296096,-90.4428739
10,El Paso Court,63026,38.5278701,-90.4641283
409,Autumn Parc Court,63026,38.5195731,-90.4431116
1260,Woodridge Trails Drive,63026,38.5317067,-90.4716218
367,Peffer Lane,63026,38.5316552,-90.4451680
505,Deer Pointe Court,63026,38.5288682,-90.4552958
212,Wolfner Drive,63026,38.5330780,-90.4404248
1527,Bent Oak Ridge Drive,63026,38.5360624,-90.4686415
1334,Park Meadow Drive,63026,38.5287954,-90.4542226
490,Wolfner Drive,63026,38.5325874,-90.4489450
495,Yarnell Road,63026,38.5445917,-90.4349533
1717,Coronita Drive,63026,38.5299586,-90.4713431
731,Larkin Williams Road,63026,38.5172793,-90.4371059
273,Allen Road,63026,38.5022569,-90.4081811
1634,Coronita Drive,63026,38.5282104,-90.4716869
19,Forest Oak Court,63026,38.5184613,-90.4463423
13224,Wintergreen Estates Drive,63026,38.5036799,-90.4288258
1601,Larkin Williams Road,63026,38.5363669,-90.4547561
372,Imperial Lane,63026,38.5321169,-90.4454068
234,Imperial Lane,63026,38.5321576,-90.4413900
91,Forest Knoll Drive,63026,38.5218514,-90.4454082
963,San Sebastian Drive,63026,38.5256057,-90.4687326
515,Busch Forest Lane,63026,38.5051110,-90.4268489
1321,Park Meadow Drive,63026,38.5284824,-90.4534227
1235,Montevale Court,63026,38.5294152,-90.4500104
12,Forest Oak Court,63026,38.5181493,-90.4470972
743,Gravois Road,63026,38.5108137,-90.4493061
1136,Bent Tree Trails Drive,63026,38.5345278,-90.4677865
648,Winter Hill Circle,63026,38.5024577,-90.4298898
1232,Park Meadow Drive,63026,38.5280857,-90.4510002
184,Larkin Williams Road,63026,38.5432556,-90.4728449
183,Larkin Williams Road,63026,38.5438700,-90.4724056
1187,Larkin Williams Road,63026,38.5267520,-90.4366884
13212,Wintergreen Estates Drive,63026,38.5036314,-90.4283790
1025,Villa Gran Way,63026,38.5287021,-90.4709341
607,Winter View Circle,63026,38.5028762,-90.4288353
14,Woodridge Trails Court,63026,38.5318377,-90.4728323
87,Forest Knoll Drive,63026,38.5214232,-90.4455543
589,Axminister Drive,63026,38.5376322,-90.4517372
1622,La Palma Drive,63026,38.5256476,-90.4660662
13242,Wintergreen Estates Drive,63026,38.5036036,-90.4295017
1264,Woodridge Trails Drive,63026,38.5318213,-90.4718760
1871,Bowles Avenue,63026,38.5411130,-90.4706693
817,Larkin Williams Road,63026,38.5191064,-90.4374157
608,Winter Hill Circle,63026,38.5033928,-90.4295517
1235,Park Meadow Drive,63026,38.5282570,-90.4515460
10,Elderwood Court,63026,38.5202701,-90.4492317
13243,Wintergreen Estates Drive,63026,38.5039807,-90.4296032
1009,Villa Gran Way,63026,38.5282437,-90.4700732
336,Imperial Lane,63026,38.5321354,-90.4441019
51,Raintree Court,63026,38.5224206,-90.4472068
873,Villa Gran Way,63026,38.5281771,-90.4617865
301,Peffer Lane,63026,38.5317176,-90.4427270
78,Sennawood Drive,63026,38.5224485,-90.4498592
632,Winter Hill Circle,63026,38.5028262,-90.4297546
630,Winter View Circle,63026,38.5011095,-90.4282364
707,Gravois Road,63026,38.5122158,-90.4461467
1836,Bowles Avenue,63026,38.5397656,-90.4720686
13200,Wintergreen Estates Drive,63026,38.5038743,-90.4280468
381,Dart Lane,63026,38.5299245,-90.4456414
1831,Alvarado Drive,63026,38.5305852,-90.4640574
944,San Sebastian Drive,63026,38.5244516,-90.4672898
1407,Valiant Drive,63026,38.5318781,-90.4459603
39,Sennawood Drive,63026,38.5197703,-90.4500274
13344,Wintergreen Estates Drive,63026,38.5018513,-90.4310137
401,Hays Hill Drive,63026,38.5161082,-90.4455260
33,Goode Drive,63026,38.5144142,-90.4376710
695,New Smizer Mill Road,63026,38.5194521,-90.4540501
1316,Park Meadow Drive,63026,38.5289263,-90.4533668
12,Sennawood Drive,63026,38.5179504,-90.4509401
1261,Fenton Meadows Court,63026,38.5311407,-90.4696309
1477,Bent Oak Ridge Court,63026,38.5336939,-90.4683499
1709,Coronita Drive,63026,38.5295570,-90.4714541
992,San Sebastian Drive,63026,38.5272926,-90.4707581
373,Peffer Lane,63026,38.5316695,-90.4454026
822,Villa Gran Way,63026,38.5259690,-90.4594944
806,Villa Gran Way,63026,38.5248696,-90.4585357
1534,Bent Oak Ridge Drive,63026,38.5363788,-90.4681178
263,Peffer Lane,63026,38.5317412,-90.4425013
505,Riverchase Circle,63026,38.5290247,-90.4499696
958,San Sebastian Drive,63026,38.5249848,-90.4684248
1620,Uthoff Drive,63026,38.5366385,-90.4655617
972,San Sebastian Drive,63026,38.5253815,-90.4702487
263,Fury Drive,63026,38.5290973,-90.4423410
324,Hays Hill Drive,63026,38.5159952,-90.4434776
528,Deer Pointe Court,63026,38.5295199,-90.4536991
584,Fleetwood Drive,63026,38.5308646,-90.4507964
22,Heathwood Lane,63026,38.5175794,-90.4504143
818,Villa Gran Way,63026,38.5256453,-90.4592812
1441,Larkin Williams Road,63026,38.5323570,-90.4505935
263,Dart Lane,63026,38.5300483,-90.4424308
1828,Alvarado Drive,63026,38.5305638,-90.4633788
380,Chrysler Lane,63026,38.5303978,-90.4456343
1236,Montevale Court,63026,38.5297464,-90.4495916
535,North Highway Drive,63026,38.5433662,-90.4502450
485,North Highway Drive,63026,38.5433793,-90.4483970
115,Gravois Bluffs Plaza Drive,63026,38.5060384,-90.4472992
115,Gravois Bluffs Plaza Drive,63026,38.5056854,-90.4473059
34,Western Plaza,63026,38.5141041,-90.4394333
180,Gravois Bluffs Circle,63026,38.5025455,-90.4449146
400,Gravois Rd,63026,38.5122601,-90.4371130
26,Western Plaza,63026,38.5139567,-90.4393606
950,Assembly Parkway,63026,38.5443066,-90.4641786
190,Gravois Bluffs Circle,63026,38.5019923,-90.4446169
180,Gravois Bluffs Circle,63026,38.5027306,-90.4449806
1576,Fencorp Drive,63026,38.5356017,-90.4465680
1000,Bowles Avenue,63026,38.5238913,-90.4721627
1036,Bowles Avenue,63026,38.5245936,-90.4726856
102,Kate G Lane,63026,38.5068943,-90.4441479
1,Gravois Bluffs Plaza Drive,63026,38.5094993,-90.4463710
677,Gravois Bluffs Boulevard,63026,38.5082098,-90.4416827
120,Gravois Bluffs Circle,63026-7712,38.5061983,-90.4449854
110,Kate G Lane,63026,38.5062813,-90.4442676
130,Gravois Bluffs Circle,63026,38.5056773,-90.4443466
100,Gravois Bluffs Circle,63026,38.5066592,-90.4448758
725,Gravois Road,63026,38.5115615,-90.4474242
721,Gravois Road,63026,38.5118272,-90.4476643
717,Gravois Road,63026,38.5122151,-90.4479779
501,Old Smizer Mill Road,63026,38.5157071,-90.4501046
585,Old Smizer Mill Road,63026,38.5160970,-90.4508129
450,Old Smizer Mill Road,63026,38.5133737,-90.4502748
714,Gravois Road,63026,38.5113452,-90.4458342
1203,Smizer Mill Road,63026,38.5238636,-90.4709909
1024,Bowles Avenue,63026,38.5245096,-90.4718383
190,Gravois Bluffs Circle,63026,38.5020025,-90.4446125
140,Gravois Bluffs Circle,63026,38.5050480,-90.4443958
700,Gravois Road,63026,38.5116431,-90.4440978
711,Gravois Road,63026,38.5126584,-90.4466776
707,Gravois Road,63026,38.5122144,-90.4462036
701,Gravois Road,63026,38.5124486,-90.4446679
150,Gravois Bluffs Circle,63026,38.5044830,-90.4449015
2233,Cassens Drive,63026,38.5477125,-90.4440001
2012,Corporate 44 Drive,63026,38.5448760,-90.4467631
2247,Cassens Drive,63026,38.5484009,-90.4443857
641,Gravois Road,63026,38.5129052,-90.4429060
95,Fenton Plaza,63026,38.5121475,-90.4420744
15,Forest Knoll Drive,63026,38.5159938,-90.4480944
1157,Smizer Mill Road,63026,38.5233921,-90.4686342
1195,Smizer Mill Road,63026,38.5235458,-90.4697163
1867,Bowles Avenue,63026,38.5405573,-90.4706744
1871,Bowles Avenue,63026,38.5411099,-90.4706617
1913,Bowles Avenue,63026,38.5410412,-90.4701585
1100,South Highway Drive,63026,38.5411500,-90.4680135
1050,South Highway Drive,63026,38.5419352,-90.4658747
1000,South Highway Drive,63026,38.5422527,-90.4649820
535,North Highway Drive,63026,38.5436857,-90.4499567
2455,Cassens Drive,63026,38.5533505,-90.4472085
1800,Bowles Avenue,63026,38.5390441,-90.4724448
986,South Highway Drive,63026,38.5420776,-90.4639866
982,South Highway Drive,63026,38.5420953,-90.4637904
1780,Gilsinn Lane,63026,38.5415487,-90.4636206
908,San Sebastian Drive,63026,38.5239653,-90.4650262
1631,La Palma Drive,63026,38.5261555,-90.4664712
916,San Sebastian Drive,63026,38.5240134,-90.4655450
920,San Sebastian Drive,63026,38.5240352,-90.4658108
912,San Sebastian Drive,63026,38.5239827,-90.4652835
1630,La Palma Drive,63026,38.5260437,-90.4659199
978,Villa Gran Way,63026,38.5276204,-90.4682882
976,Villa Gran Way,63026,38.5277442,-90.4680174
972,Villa Gran Way,63026,38.5278576,-90.4676990
1662,La Palma Drive,63026,38.5275996,-90.4666556
1674,La Palma Drive,63026,38.5280881,-90.4671833
1665,La Palma Drive,63026,38.5274914,-90.4673192
1649,La Palma Drive,63026,38.5268052,-90.4666367
1638,La Palma Drive,63026,38.5264789,-90.4659664
1670,La Palma Drive,63026,38.5279436,-90.4669730
1637,La Palma Drive,63026,38.5263662,-90.4665181
1666,La Palma Drive,63026,38.5277508,-90.4668375
1634,La Palma Drive,63026,38.5262676,-90.4659582
1671,La Palma Drive,63026,38.5276613,-90.4674708
1657,La Palma Drive,63026,38.5271771,-90.4669680
1658,La Palma Drive,63026,38.5274493,-90.4664642
1643,La Palma Drive,63026,38.5265868,-90.4665864
1646,La Palma Drive,63026,38.5268932,-90.4661022
1642,La Palma Drive,63026,38.5266820,-90.4660378
1661,La Palma Drive,63026,38.5273539,-90.4671392
1654,La Palma Drive,63026,38.5272770,-90.4663226
1650,La Palma Drive,63026,38.5270816,-90.4662075
1653,La Palma Drive,63026,38.5269923,-90.4668021
1002,Villa Gran Way,63026,38.5274978,-90.4693821
1160,South Highway Drive,63026,38.5412216,-90.4687134
1848,Bowles Avenue,63026,38.5394492,-90.4711351
1088,South Highway Drive,63026,38.5417216,-90.4667816
1380,Horan Drive,63026,38.5378678,-90.4726893
1660,Bowles Avenue,63026,38.5376720,-90.4732664
855,Gregory Lane,63026,38.5204536,-90.4530249
840,Gregory Lane,63026,38.5191158,-90.4524215
845,Gregory Lane,63026,38.5196488,-90.4530355
860,Gregory Lane,63026,38.5193918,-90.4523023
900,South Highway Drive,63029,38.5421143,-90.4594493
1608,San Martin Drive,63026,38.5267272,-90.4682275
1620,San Martin Drive,63026,38.5273384,-90.4684072
1000,Villa Gran Way,63026,38.5275058,-90.4690183
1605,San Martin Drive,63026,38.5266395,-90.4689489
1604,San Martin Drive,63026,38.5265096,-90.4682659
1612,San Martin Drive,63026,38.5269246,-90.4683342
1616,San Martin Drive,63026,38.5271252,-90.4683989
1609,San Martin Drive,63026,38.5268533,-90.4689489
1600,San Martin Drive,63026,38.5263401,-90.4685198
1613,San Martin Drive,63026,38.5270575,-90.4689294
1601,San Martin Drive,63026,38.5264340,-90.4688230
1617,San Martin Drive,63026,38.5272727,-90.4689604
612,Gravois Road,63026,38.5124879,-90.4410456
10,Fenton Plaza,63026,38.5116969,-90.4404818
335,Skinker Lane,63026,38.5135095,-90.4432769
550,West Street,63026,38.5124418,-90.4404890
611,Gravois Road,63026,38.5130934,-90.4413891
340,Skinker Lane,63026,38.5133314,-90.4450517
334,Skinker Lane,63026,38.5129338,-90.4446040
15,Forest Knoll Drive,63026,38.5169037,-90.4481537
465,New Smizer Mill Road,63026,38.5162920,-90.4474596
1770,Gilsinn Lane,63026,38.5402036,-90.4652588
870,South Highway Drive,63029,38.5423272,-90.4584828
600,South Highway Drive,63026,38.5419286,-90.4510403
570,South Highway Drive,63026,38.5419722,-90.4498699
650,South Highway Drive,63026,38.5421627,-90.4522479
515,Rudder Road,63026,38.5411724,-90.4491670
1680,Fenton Business Park Court,63026,38.5410045,-90.4462586
460,Rudder Road,63026,38.5406964,-90.4474992
545,Main Street,63026,38.5137400,-90.4391633
653,Gravois Bluffs Boulevard,63026,38.5101074,-90.4386927
650,Gravois Bluffs Boulevard,63026,38.5085019,-90.4372476
1,Gravois Road,63026,38.5123172,-90.4322958
224,Gravois Road,63026,38.5115605,-90.4358574
98,Opps Lane,63026,38.5119804,-90.4309480
98,Opps Lane,63026,38.5120672,-90.4310684
211,South Old Highway 141 Street,63026,38.5086537,-90.4341089
98,Opps Lane,63026,38.5117752,-90.4308970
42,Gravois Road,63026,38.5112723,-90.4327407
65,Gravois Road,63026,38.5114208,-90.4343387
212,Main Street,63026,38.5122804,-90.4350747
200,Main Street,63026,38.5118444,-90.4345627
1,Church Street,63026,38.5142151,-90.4374299
12,Ferry Street,63026,38.5140412,-90.4364156
525,Center Street,63026,38.5125281,-90.4395124
520,Center Street,63026,38.5120201,-90.4392488
544,Gravois Road,63026,38.5129065,-90.4396812
800,Gravois Road,63026,38.5066501,-90.4530952
731,Gravois Road,63026,38.5113999,-90.4489382
729,Gravois Road,63026,38.5112765,-90.4479693
680,Gravois Road,63026,38.5119889,-90.4429973
1700,San Simeon Way,63026,38.5277783,-90.4653236
1704,San Simeon Way,63026,38.5279558,-90.4654757
1705,San Simeon Way,63026,38.5277335,-90.4660576
1672,San Simeon Way,63026,38.5264145,-90.4646143
1652,San Simeon Way,63026,38.5253817,-90.4643933
1660,San Simeon Way,63026,38.5257945,-90.4644754
1656,San Simeon Way,63026,38.5255909,-90.4644080
1691,San Simeon Way,63026,38.5272038,-90.4655521
1685,San Simeon Way,63026,38.5269976,-90.4654496
1717,San Simeon Way,63026,38.5283036,-90.4666178
1709,San Simeon Way,63026,38.5279087,-90.4662577
1644,San Simeon Way,63026,38.5249688,-90.4642975
1697,San Simeon Way,63026,38.5273831,-90.4657184
1668,San Simeon Way,63026,38.5262101,-90.4645599
1696,San Simeon Way,63026,38.5275766,-90.4652101
1648,San Simeon Way,63026,38.5251740,-90.4643391
897,San Sebastian Drive,63026,38.5244995,-90.4642049
1701,San Simeon Way,63026,38.5275599,-90.4658860
1680,San Simeon Way,63026,38.5268239,-90.4647211
1712,San Simeon Way,63026,38.5283011,-90.4658515
1708,San Simeon Way,63026,38.5280967,-90.4656782
1688,San Simeon Way,63026,38.5272128,-90.4649480
1664,San Simeon Way,63026,38.5259995,-90.4644933
1676,San Simeon Way,63026,38.5266228,-90.4646384
1713,San Simeon Way,63026,38.5280971,-90.4664173
1684,San Simeon Way,63026,38.5270214,-90.4648428
1640,San Simeon Way,63026,38.5247598,-90.4642751
1677,San Simeon Way,63026,38.5266077,-90.4652551
1681,San Simeon Way,63026,38.5268163,-90.4653393
1692,San Simeon Way,63026,38.5273947,-90.4650671
1,Premier Drive,63026,38.5408257,-90.4436208
205,North Highway Drive,63026,38.5435558,-90.4407199
225,North Highway Drive,63026,38.5435525,-90.4405089
2260,Cassens Drive,63026,38.5485398,-90.4430111
2300,Cassens Drive,63026,38.5502871,-90.4437743
2240,Cassens Drive,63026,38.5480720,-90.4424305
2490,Cassens Drive,63026,38.5551053,-90.4467676
2340,Cassens Drive,63026,38.5510989,-90.4441109
2380,Cassens Drive,63026,38.5528117,-90.4452830
2550,Cassens Drive,63026,38.5565956,-90.4475710
2280,Cassens Drive,63026,38.5492352,-90.4432338
2510,Cassens Drive,63026,38.5559192,-90.4470184
2450,Cassens Drive,63026,38.5547781,-90.4464215
185,Soccer Park Road,63026,38.5447192,-90.4405129
2302,Cassens Drive,63026,38.5507371,-90.4433894
2440,Cassens Drive,63026,38.5538856,-90.4460756
2526,Cassens Drive,63026,38.5561645,-90.4473804
1090,Cassens Industrial Court,63026,38.5547760,-90.4497958
1099,Cassens Industrial Court,63026,38.5555248,-90.4500425
1060,Cassens Industrial Court,63026,38.5551652,-90.4483233
2227,Cassens Drive,63026,38.5471117,-90.4449787
2399,Cassens Drive,63026,38.5527214,-90.4466000
545,North Highway Drive,63026,38.5451803,-90.4517403
917,San Benito Lane,63026,38.5235422,-90.4652060
903,San Benito Lane,63026,38.5234659,-90.4646769
923,San Benito Lane,63026,38.5235658,-90.4654729
911,San Benito Lane,63026,38.5234818,-90.4649551
1629,San Simeon Way,63026,38.5239336,-90.4647033
837,San Sebastian Drive,63026,38.5266700,-90.4613044
862,San Sebastian Drive,63026,38.5253704,-90.4621856
886,San Sebastian Drive,63026,38.5244515,-90.4633458
2,Almeda Court,63026,38.5253356,-90.4630947
6,Almeda Court,63026,38.5254296,-90.4633950
15,Almeda Court,63026,38.5259896,-90.4634838
14,Almeda Court,63026,38.5257821,-90.4636815
874,San Sebastian Drive,63026,38.5249040,-90.4627689
1624,San Simeon Way,63026,38.5237831,-90.4640709
834,San Sebastian Drive,63026,38.5265651,-90.4610465
878,San Sebastian Drive,63026,38.5247587,-90.4629805
881,San Sebastian Drive,63026,38.5249450,-90.4635200
877,San Sebastian Drive,63026,38.5250857,-90.4633223
1616,San Simeon Way,63026,38.5233322,-90.4640593
853,San Sebastian Drive,63026,38.5260685,-90.4620916
849,San Sebastian Drive,63026,38.5262450,-90.4619033
861,San Sebastian Drive,63026,38.5257720,-90.4624504
857,San Sebastian Drive,63026,38.5259366,-90.4622768
866,San Sebastian Drive,63026,38.5252319,-90.4623719
865,San Sebastian Drive,63026,38.5256472,-90.4626510
1628,San Simeon Way,63026,38.5240372,-90.4641557
7,Almeda Court,63026,38.5258149,-90.4629426
890,San Sebastian Drive,63026,38.5242928,-90.4635513
845,San Sebastian Drive,63026,38.5263838,-90.4617448
841,San Sebastian Drive,63026,38.5265665,-90.4615934
870,San Sebastian Drive,63026,38.5250658,-90.4625855
838,San Sebastian Drive,63026,38.5263224,-90.4609546
10,Almeda Court,63026,38.5255454,-90.4636263
11,Almeda Court,63026,38.5259829,-90.4631553
850,San Sebastian Drive,63026,38.5258856,-90.4615647
894,San Sebastian Drive,63026,38.5241527,-90.4637946
846,San Sebastian Drive,63026,38.5260314,-90.4614244
885,San Sebastian Drive,63026,38.5248129,-90.4637122
854,San Sebastian Drive,63026,38.5257102,-90.4617454
1620,San Simeon Way,63026,38.5235515,-90.4640803
891,San Sebastian Drive,63026,38.5246301,-90.4638892
842,San Sebastian Drive,63026,38.5261261,-90.4611279
882,San Sebastian Drive,63026,38.5246193,-90.4631543
1631,Somerset Ridge Drive,63026,38.5232242,-90.4626795
1651,Somerset Ridge Drive,63026,38.5241992,-90.4627864
1714,Stemwood Way,63026,38.5246189,-90.4595624
1733,Stemwood Way,63026,38.5255341,-90.4606270
1668,Littleton Court,63026,38.5233491,-90.4584622
899,New Smizer Mill Road,63026,38.5227036,-90.4628834
1692,Somerset Ridge Drive,63026,38.5258052,-90.4602139
1706,Stemwood Way,63026,38.5241041,-90.4594949
1649,Littleton Court,63026,38.5238517,-90.4600334
1663,Somerset Ridge Drive,63026,38.5247690,-90.4622451
1674,Somerset Ridge Drive,63026,38.5250712,-90.4611040
1702,Stemwood Way,63026,38.5238736,-90.4594223
1636,Littleton Court,63026,38.5235469,-90.4610976
915,New Smizer Mill Road,63026,38.5228788,-90.4635621
905,New Smizer Mill Road,63026,38.5231278,-90.4632254
1661,Littleton Court,63026,38.5238321,-90.4590332
1613,Littleton Court,63026,38.5229724,-90.4621154
1719,Stemwood Way,63026,38.5248864,-90.4602240
1641,Somerset Ridge Drive,63026,38.5237008,-90.4628197
1693,Somerset Ridge Drive,63026,38.5262046,-90.4603612
1658,Somerset Ridge Drive,63026,38.5243551,-90.4620173
1627,Somerset Ridge Drive,63026,38.5230771,-90.4624459
1662,Somerset Ridge Drive,63026,38.5245303,-90.4618378
1669,Littleton Court,63026,38.5238374,-90.4583610
1640,Littleton Court,63026,38.5235188,-90.4607841
1678,Somerset Ridge Drive,63026,38.5252492,-90.4609085
1635,Somerset Ridge Drive,63026,38.5234564,-90.4628051
1621,Littleton Court,63026,38.5235443,-90.4619952
1629,Littleton Court,63026,38.5238919,-90.4614667
1643,Littleton Court,63026,38.5239052,-90.4604480
1648,Littleton Court,63026,38.5234694,-90.4601907
1672,Littleton Court,63026,38.5235889,-90.4582485
1645,Somerset Ridge Drive,63026,38.5239528,-90.4628697
1677,Somerset Ridge Drive,63026,38.5254590,-90.4613968
1654,Somerset Ridge Drive,63026,38.5241435,-90.4622129
1685,Somerset Ridge Drive,63026,38.5258676,-90.4609507
1655,Somerset Ridge Drive,63026,38.5244081,-90.4626513
1665,Littleton Court,63026,38.5239165,-90.4587111
1642,Somerset Ridge Drive,63026,38.5239194,-90.4623089
1614,Littleton Court,63026,38.5232508,-90.4615680
1656,Littleton Court,63026,38.5234355,-90.4595146
1681,Somerset Ridge Drive,63026,38.5256692,-90.4611633
1652,Littleton Court,63026,38.5234392,-90.4598546
1726,Stemwood Way,63026,38.5253586,-90.4599130
1711,Stemwood Way,63026,38.5243741,-90.4600385
1667,Somerset Ridge Drive,63026,38.5249599,-90.4620476
1670,Somerset Ridge Drive,63026,38.5248424,-90.4613791
1610,Littleton Court,63026,38.5230158,-90.4615812
1722,Stemwood Way,63026,38.5251409,-90.4597823
1723,Stemwood Way,63026,38.5251116,-90.4603555
895,New Smizer Mill Road,63026,38.5226790,-90.4626419
1644,Littleton Court,63026,38.5235001,-90.4604722
1664,Littleton Court,63026,38.5233978,-90.4588802
1659,Somerset Ridge Drive,63026,38.5245846,-90.4624829
1666,Somerset Ridge Drive,63026,38.5246935,-90.4616108
1730,Stemwood Way,63026,38.5255740,-90.4600735
1707,Stemwood Way,63026,38.5241104,-90.4600224
1689,Somerset Ridge Drive,63026,38.5260877,-90.4606375
1671,Somerset Ridge Drive,63026,38.5251098,-90.4617530
1639,Littleton Court,63026,38.5239325,-90.4607618
1606,Littleton Court,63026,38.5227036,-90.4615567
1633,Littleton Court,63026,38.5240065,-90.4611295
1718,Stemwood Way,63026,38.5249005,-90.4596833
1729,Stemwood Way,63026,38.5253374,-90.4604935
1660,Littleton Court,63026,38.5234190,-90.4591760
1625,Littleton Court,63026,38.5237725,-90.4617754
1638,Somerset Ridge Drive,63026,38.5236786,-90.4622887
1710,Stemwood Way,63026,38.5243731,-90.4595074
1605,Littleton Court,63026,38.5226758,-90.4621078
1624,Littleton Court,63026,38.5234606,-90.4614146
891,New Smizer Mill Road,63026,38.5226973,-90.4623947
1715,Stemwood Way,63026,38.5246216,-90.4601318
798,Gravois Bluffs Boulevard,63026,38.5027597,-90.4546838
754,Gravois Bluffs Boulevard,63026,38.5050884,-90.4490300
75,Opps Lane,63026,38.5094133,-90.4311073
1280,South Highway Drive,63026,38.5410275,-90.4727779
1157,Smizer Mill Road,63026,38.5233255,-90.4681212
1000,Bowles Avenue,63026,38.5238495,-90.4724316
1,Soccer Park Road,63026,38.5467859,-90.4386113
1913,Bowles Avenue,63026,38.5409985,-90.4698935
1600,Uthoff Drive,63026,38.5353161,-90.4644354
465,New Smizer Mill Road,63026,38.5163663,-90.4474459
737,Gravois Road,63026,38.5111191,-90.4486912
739,Gravois Bluffs Boulevard,63026,38.5078398,-90.4498085
558,Gravois Road,63026,38.5127095,-90.4400218
600,Gravois Road,63026,38.5126961,-90.4406209
2091,Fenton Logistics Park,63026,38.5477843,-90.4575411
655,Assembly Parkway,63026,38.5469487,-90.4593653
1385,Horan Drive,63026,38.5386569,-90.4729164
455,North Highway Drive,63026,38.5437704,-90.4467094
485,North Highway Drive,63026,38.5434482,-90.4477787
651,Gravois Bluffs Boulevard,63026,38.5084766,-90.4400748
801,Assembly Parkway,63026,38.5459407,-90.4636886
1001,Assembly Parkway,63026,38.5444849,-90.4662084
665,Gravois Bluffs Boulevard,63026,38.5101260,-90.4408127
335,Skinker Lane,63026,38.5137760,-90.4439024
942,South Highway Drive,63026,38.5421054,-90.4608872
1662,Fenton Business Park Court,63026,38.5399403,-90.4463249
