House number,Street name,Postal code,Latitude,Longitude
6921,North Prospect Avenue,64119,39.2204510,-94.5474530
1900,Northeast Englewood Road,64118,39.1963288,-94.5573006
6304,North Oak Trafficway,64118,39.2088928,-94.5771021
7108,North Oak Trafficway,64118,39.2233745,-94.5764816
504 A,Northeast 70th Street,64118,39.2211996,-94.5741888
6910,North Holmes Street,64118,39.2204428,-94.5721807
7010,North Holmes Street,64118,39.2214072,-94.5722052
7001,North Oak Trafficway,64118,39.2211896,-94.5757187
7001,North Oak Trafficway,64118,39.2213626,-94.5758288
6927,North Oak Trafficway,64118,39.2207468,-94.5758240
4109,Northeast Pleasant Valley Road,64119,39.2127762,-94.5310004
3000,Northeast 64th Street,64119,39.2101600,-94.5441880
7015,North Oak Trafficway,64118,39.2224153,-94.5756092
7201,North Oak Trafficway,64118,39.2249760,-94.5755946
324,Northeast 72nd Street,64118,39.2249746,-94.5767615
328,Northeast 72nd Street,64118,39.2250501,-94.5767654
6840,North Oak Trafficway,64118,39.2189165,-94.5765585
6902,North Oak Trafficway,64118,39.2202440,-94.5764456
6850,North Oak Trafficway,64118,39.2187178,-94.5776978
6609,North Oak Trafficway,64118,39.2140392,-94.5758388
7291,North Oak Trafficway,64118,39.2262929,-94.5757430
320,Northeast 72nd Street,64118,39.2249777,-94.5769473
1918,Northeast 72nd Street,64118,39.2248353,-94.5561479
6800,North Oak Trafficway,64118,39.2176063,-94.5766280
77,Northeast 72nd Street,64118,39.2240299,-94.5801222
99,Northeast 72nd Street,64118,39.2240777,-94.5793875
6324,North Oak Trafficway,64118,39.2280695,-94.5755898
7411,North Oak Trafficway,64118,39.2298635,-94.5756910
340,Northeast 72nd Street,64118,39.2251369,-94.5767662
7204,North Oak Trafficway,64118,39.2254070,-94.5764382
7211,North Oak Trafficway,64118,39.2252455,-94.5755915
7221,North Oak Trafficway,64118,39.2254852,-94.5756061
7203,North Oak Trafficway,64118,39.2251357,-94.5755964
7265,North Oak Trafficway,64118,39.2261272,-94.5755166
7305,North Oak Trafficway,64118,39.2272576,-94.5757559
7601,North Oak Trafficway,64118,39.2321081,-94.5756711
3960,Northeast 76th Street,64119,39.2317192,-94.5323722
4000,Northeast 76th Street,64119,39.2317215,-94.5319363
7170,North Broadway Avenue,64118,39.2242033,-94.5858773
300,Northwest 72nd Street,64118,39.2252706,-94.5844421
5708,North Oak Trafficway,64118,39.1982535,-94.5767974
6717,North Oak Trafficway,64118,39.2160171,-94.5757098
6942,North Oak Trafficway,64118,39.2210058,-94.5772568
4109,Northeast Pleasant Valley Road,64119,39.2129666,-94.5320201
5939,North Antioch Road,64119,39.2009494,-94.5476782
5716,North Antioch Road,64119,39.1983443,-94.5491558
7504,North Oak Trafficway,64118,39.2303414,-94.5767044
7504,North Oak Trafficway,64118,39.2302013,-94.5766728
7321,North Oak Trafficway,64118,39.2278511,-94.5756054
7109,North Walnut Street,64118,39.2238482,-94.5785665
7521,North Oak Trafficway,64118,39.2317139,-94.5757853
100,Northwest Vivion Road,64118,39.1815072,-94.5841412
90,Northwest Vivion Road,64118,39.1818797,-94.5837917
4770,North Belleview Avenue,64116,39.1792658,-94.5919240
100,Northwest Englewood Road,64118,39.1972055,-94.5819562
310,Northwest Englewood Road,64118,39.1970850,-94.5848476
6080,North Oak Trafficway,64118,39.2039666,-94.5770887
6609,North Oak Trafficway,64118,39.2140096,-94.5755873
450,Northeast 68th Street,64118,39.2180151,-94.5738374
5101,Northwest Old Pike Road,64118,39.1863010,-94.5818648
103,Northwest 72nd Street,64118,39.2242737,-94.5821581
18,Northwest 72nd Street,64118,39.2249953,-94.5813106
100,Northwest 72nd Street,64118,39.2251631,-94.5825910
5703,North Flora Avenue,64118,39.1975502,-94.5620038
1500,Northeast Englewood Road,64118,39.1958841,-94.5621299
6341,North Oak Trafficway,64118,39.2091920,-94.5770878
6402,North Oak Trafficway,64118,39.2107425,-94.5767865
6404,North Oak Trafficway,64118,39.2107414,-94.5767297
6408,North Oak Trafficway,64118,39.2108148,-94.5765701
6410,North Oak Trafficway,64118,39.2108668,-94.5765701
200,Northwest 72nd Street,64118,39.2307074,-94.5841216
202 Suite E,Northwest 72nd Street,64118,39.2253145,-94.5840337
202,Northwest 72nd Street,64118,39.2249336,-94.5840207
100,Northwest 72nd Street,64118,39.2251707,-94.5823500
301,Northwest 72nd Street,64118,39.2243937,-94.5849390
200,Northeast 72nd Street,64118,39.2250482,-94.5776847
208,Northeast 72nd Street,64118,39.2250454,-94.5775815
180,Northeast 72nd Street,64118,39.2249515,-94.5781672
180,Northeast 72nd Street,64118,39.2249524,-94.5782536
172,Northeast 72nd Street,64118,39.2249543,-94.5784181
106C,Northeast 72nd Street,64118,39.2249059,-94.5787446
121,Northeast 72nd Street,64118,39.2243838,-94.5783575
121,Northeast 72nd Street,64118,39.2242388,-94.5783543
119,Northeast 72nd Street,64118,39.2243902,-94.5785172
101,Northeast 72nd Street,64118,39.2243902,-94.5786735
109,Northeast 72nd Street,64118,39.2242524,-94.5786269
107,Northeast 72nd Street,64118,39.2242600,-94.5787099
104,Northeast 72nd Street,64118,39.2249890,-94.5792456
104,Northeast 72nd Street,64118,39.2249890,-94.5791072
104,Northeast 72nd Street,64118,39.2251070,-94.5792773
104,Northeast 72nd Street,64118,39.2251077,-94.5793336
104,Northeast 72nd Street,64118,39.2251077,-94.5792209
104,Northeast 72nd Street,64118,39.2251093,-94.5790825
104,Northeast 72nd Street,64118,39.2251100,-94.5789342
4770,North Belleview Avenue,64116,39.1793794,-94.5919501
4770,North Belleview Avenue,64116,39.1791698,-94.5917270
4770,North Belleview Avenue,64116,39.1792695,-94.5916554
4770,North Belleview Avenue,64116,39.1793390,-94.5917384
4770,North Belleview Avenue,64116,39.1793049,-94.5917808
4770,North Belleview Avenue,64116,39.1793276,-94.5920511
4770,North Belleview Avenue,64116,39.1792809,-94.5921325
4770,North Belleview Avenue,64116,39.1792039,-94.5916505
4770,North Belleview Avenue,64116,39.1793238,-94.5919192
4901,Northwest Old Pike Road,64118,39.1822332,-94.5814569
7207,MO 1,64119,39.2251723,-94.5461782
7207,MO 1,64119,39.2252970,-94.5461755
7117,North Prospect Avenue,64119,39.2235849,-94.5468380
6409,NOrth Prospect Avenue,64119,39.2100797,-94.5474697
6000,North Antioch Road,64118,39.2033241,-94.5493134
6829,North Broadway Avenue,64118,39.2189344,-94.5850194
504 B,Northeast 70th Street,64118,39.2212299,-94.5740515
6950,North Oak Trafficway,64118,39.2210008,-94.5775662
6948,North Oak Trafficway,64118,39.2210033,-94.5774294
41,Northwest 60 Terrace,64118,39.2040816,-94.5795245
2404,Northeast 70th Street,64118,39.2218001,-94.5511424
6415,North Prospect Avenue,64119,39.2101261,-94.5473912
6407,North Prospect Avenue,64119,39.2101286,-94.5475714
7117,North Prospect Avenue,64119,39.2229452,-94.5468641
6026A,North Antioch Road,64118,39.2037767,-94.5503000
7117,North Prospect Avenue,64119,39.2233275,-94.5468249
7178,North Antioch Road,64119,39.2237428,-94.5349328
7103,North Kingston Court,64119,39.2231610,-94.5350106
7105,North Kingston Court,64119,39.2231634,-94.5351215
7115,North Kingston Court,64119,39.2231219,-94.5354454
7113,North Kingston Court,64119,39.2231219,-94.5353206
7169,North Kingston Court,64119,39.2235530,-94.5353745
7179,North Kingston Court,64119,39.2236374,-94.5353707
7189,North Kingston Court,64119,39.2237146,-94.5353728
7199,North Kingston Court,64119,39.2238034,-94.5353683
7307,North Kingston Court,64119,39.2238261,-94.5359351
7305,North Kingston Court,64119,39.2237891,-94.5359337
7303,North Kingston Court,64119,39.2237412,-94.5359332
7148,North Kingston Court,64119,39.2236024,-94.5358592
7146,North Kingston Court,64119,39.2235542,-94.5358547
7144,North Kingston Court,64119,39.2234909,-94.5358532
7136,North Kingston Court,64119,39.2232309,-94.5358638
7138,North Kingston Court,64119,39.2232779,-94.5358665
7140,North Kingston Court,64119,39.2233595,-94.5358541
7126,North Kingston Court,64119,39.2228345,-94.5356879
7128,North Kingston Court,64119,39.2228423,-94.5358084
7130,North Kingston Court,64119,39.2228552,-94.5359367
7114,North Kingston Court,64119,39.2228527,-94.5353095
7116,North Kingston Court,64119,39.2228521,-94.5353794
7118,North Kingston Court,64119,39.2228521,-94.5354553
7104,North Kingston Court,64119,39.2228602,-94.5349764
7106,North Kingston Court,64119,39.2228638,-94.5350811
7707,North Oak Trafficway,64118,39.2338463,-94.5755251
1900,Northeast 72nd Street,64118,39.2248742,-94.5566112
501,Northeast 70th Street,64068,39.2207749,-94.5747522
6713,North Oak Trafficway,64118,39.2158980,-94.5756505
5945,North Antioch Road,64119-2019,39.2014814,-94.5475907
1914,Northeast 72nd Street,64118,39.2248405,-94.5562223
6303,North Antioch Road,64119,39.2069684,-94.5480531
706,Northeast 76th Street,64118,39.2314878,-94.5719035
105,Northwest Pointe Lane,64116,39.1775322,-94.5910441
101,Northwest Pointe Lane,64116,39.1772877,-94.5909336
103,Northwest Pointe Lane,64116,39.1773947,-94.5910539
216,Northwest Pointe Lane,64116,39.1777733,-94.5913062
220,Northwest Pointe Lane,64116,39.1776387,-94.5910625
218,Northwest Pointe Lane,64116,39.1776798,-94.5912078
210,Northwest Pointe Lane,64116,39.1781682,-94.5911988
214,Northwest Pointe Lane,64116,39.1779422,-94.5912804
212,Northwest Pointe Lane,64116,39.1780899,-94.5913227
206,Northwest Pointe Drive,64116,39.1784915,-94.5911848
204,Northwest Pointe Drive,64116,39.1784425,-94.5913635
202,Northwest Pointe Drive,64116,39.1785251,-94.5914722
196,Northwest Pointe Drive,64116,39.1786003,-94.5920019
194,Northwest Pointe Drive,64116,39.1785641,-94.5921478
192,Northwest Pointe Drive,64116,39.1785938,-94.5922952
190,Northwest Pointe Drive,64116,39.1786969,-94.5925384
188,Northwest Pointe Drive,64116,39.1786223,-94.5925601
186,Northwest Pointe Drive,64116,39.1785616,-94.5926813
184,Northwest Pointe Drive,64116,39.1784536,-94.5926906
182,Northwest Pointe Drive,64116,39.1783000,-94.5928182
153,Northwest Pointe Drive,64116,39.1781888,-94.5921884
155,Northwest Pointe Drive,64116,39.1781888,-94.5921746
157,Northwest Pointe Drive,64116,39.1781313,-94.5919807
151,Northwest Pointe Drive,64116,39.1781083,-94.5923739
143,Northwest Pointe Drive,64116,39.1778185,-94.5924264
145,Northwest Pointe Drive,64116,39.1778360,-94.5924219
147,Northwest Pointe Drive,64116,39.1779579,-94.5922015
141,Northwest Pointe Drive,64116,39.1776426,-94.5924094
135,Northwest Pointe Drive,64116,39.1774491,-94.5926011
137,Northwest Pointe Drive,64116,39.1774635,-94.5925928
139,Northwest Pointe Drive,64116,39.1775712,-94.5924300
133,Northwest Pointe Drive,64116,39.1773323,-94.5926517
176,Northwest Pointe Drive,64116,39.1780263,-94.5928882
174,Northwest Pointe Drive,64116,39.1778538,-94.5929521
168,Northwest Pointe Drive,64116,39.1777672,-94.5929821
166,Northwest Pointe Drive,64116,39.1775901,-94.5930400
129,Northwest Pointe Drive,64116,39.1771740,-94.5927883
127,Northwest Pointe Drive,64116,39.1770595,-94.5927275
125,Northwest Pointe Drive,64116,39.1769815,-94.5925985
123,Northwest Pointe Drive,64116,39.1770226,-94.5924463
121,Northwest Pointe Drive,64116,39.1771655,-94.5923550
119,Northwest Pointe Drive,64116,39.1771457,-94.5921707
117,Northwest Pointe Drive,64116,39.1772877,-94.5920714
107,Northwest Pointe Drive,64116,39.1773399,-94.5913977
109,Northwest Pointe Drive,64116,39.1772021,-94.5915270
111,Northwest Pointe Drive,64116,39.1771856,-94.5916235
113,Northwest Pointe Drive,64116,39.1771765,-94.5917477
115,Northwest Pointe Drive,64116,39.1772646,-94.5918770
122,Northwest Pointe Drive,64116,39.1768913,-94.5919353
116,Northwest Pointe Drive,64116,39.1767819,-94.5915847
108,Northwest Pointe Drive,64116,39.1768959,-94.5912257
110,Northwest Pointe Drive,64116,39.1768874,-94.5912645
178,Northwest Pointe Drive,64116,39.1781467,-94.5927068
162,Northwest Pointe Drive,64116,39.1775226,-94.5931149
160,Northwest Pointe Drive,64116,39.1773609,-94.5929743
158,Northwest Pointe Drive,64116,39.1773024,-94.5932172
154,Northwest Pointe Drive,64116,39.1771514,-94.5932655
152,Northwest Pointe Drive,64116,39.1770269,-94.5930947
150,Northwest Pointe Drive,64116,39.1768388,-94.5931862
146,Northwest Pointe Drive,64116,39.1766898,-94.5930575
144,Northwest Pointe Drive,64116,39.1767229,-94.5928279
142,Northwest Pointe Drive,64116,39.1765495,-94.5926854
128,Northwest Pointe Drive,64116,39.1767182,-94.5923648
130,Northwest Pointe Drive,64116,39.1765524,-94.5924538
126,Northwest Pointe Drive,64116,39.1767181,-94.5921081
120,Northwest Pointe Drive,64116,39.1769452,-94.5918539
118,Northwest Pointe Drive,64116,39.1769398,-94.5917521
112,Northwest Pointe Drive,64116,39.1769128,-94.5914011
114,Northwest Pointe Drive,64116,39.1767628,-94.5914753
106,Northwest Pointe Drive,64116,39.1768526,-94.5910272
104,Northwest Pointe Drive,64116,39.1768728,-94.5909727
102,Northwest Pointe Drive,64116,39.1770034,-94.5908752
100,Northwest Pointe Drive,64116,39.1769362,-94.5906899
6902,North Oak Trafficway,64118,39.2202885,-94.5769696
7315,North Oak Trafficway,64118,39.2276776,-94.5756006
7313,North Oak Trafficway,64118,39.2276069,-94.5756114
7217,North Oak Trafficway,64118,39.2254974,-94.5755230
7403,North Oak Trafficway,64118,39.2287250,-94.5757970
2404,NE 66th St,64118,39.2163101,-94.5521300
7001,North Locust Street,64118,39.2213684,-94.5746151
5536,North Antioch Road,64119,39.1958875,-94.5490652
6433,North Prospect Avenue,64118,39.2106849,-94.5455734
7233,N Oak Trfy,64118,39.2257627,-94.5754995
6292,North Oak Trafficway,64118,39.2078612,-94.5767033
5700,North Main,64118,39.1979043,-94.5823329
6504-6514,North Oak Trafficway,64118,39.2133838,-94.5767838
6000,North Oak Trafficway,64118,39.2031517,-94.5771005
5700,North Oak Trafficway,64118,39.1977442,-94.5768036
7019,North Cherry Street,64118,39.2223259,-94.5732050
301,Northwest Englewood Road,64118,39.1960613,-94.5850401
7001,North Locust Street,64118,39.2214671,-94.5746617
300,Northwest 72nd Street,64118,39.2253348,-94.5825829
5606,North Oak Trafficway,64118,39.1963957,-94.5772385
4949,Northwest Old Pike Road,64118,39.1846515,-94.5822887
7013,North Oak Trafficway,64118,39.2220791,-94.5756088
6750,North Oak Trafficway,64118,39.2171075,-94.5769299
6304/6314,North Oak Trafficway,64118,39.2090817,-94.5771750
6920-6950,North Oak Trafficway,64118,39.2210679,-94.5769935
4901,Northwest Old Pike Road,64118,39.1825365,-94.5813881
6502,North Oak Trafficway,64118,39.2129822,-94.5767196
101,Northwest Englewood Court,64118,39.1962199,-94.5824128
6906,North Oak Trafficway,64118,39.2206421,-94.5769084
5950,North Oak Trafficway,64118,39.2027581,-94.5769203
6651,North Oak Trafficway,64118,39.2148988,-94.5754169
5900,North Oak Trafficway,64118;64119,39.2019290,-94.5769624
5610,North Oak Trafficway,64118,39.1969223,-94.5772579
6060,North Oak Trafficway,64118,39.2035019,-94.5770212
6912,North Oak Trafficway,64118,39.2213865,-94.5767321
6320,North Oak Trafficway,64118,39.2096672,-94.5771757
6840,North Oak Trafficway,64118,39.2188175,-94.5767924
6609,North Oak Trafficway,64118,39.2139834,-94.5756272
200,Northwest Englewood Road,64118,39.1972758,-94.5828203
100,Northwest Englewood Road,64118,39.1972023,-94.5820269
4929,Northwest Old Pike Road,64118,39.1830198,-94.5814133
7001,North Oak Trafficway,64118,39.2213455,-94.5755736
6801,North Oak Trafficway,64118,39.2178326,-94.5756364
6300,North Oak Trafficway,64118,39.2085223,-94.5768012
6110,North Oak Trafficway,64118,39.2055717,-94.5769078
6080,North Oak Trafficway,64118,39.2038557,-94.5770988
6250,North Oak Trafficway,64118,39.2074786,-94.5769068
6129,North Antioch Road,64119,39.2047109,-94.5478523
7650-7692,North Oak Trafficway,64118,39.2335422,-94.5765773
7507,North Oak Trafficway,64118,39.2312034,-94.5757120
5708-5730,North Antioch Road,64119,39.1983226,-94.5492534
7618-7646,North Oak Trafficway,64118,39.2329470,-94.5765827
7224,North Oak Trafficway,64118,39.2262805,-94.5765095
7412,North Oak Trafficway,64118,39.2298775,-94.5765346
7711,North Oak Trafficway,64118,39.2341364,-94.5751432
7613-7621,North Oak Trafficway,64118,39.2316164,-94.5757000
300-344,Northeast 72nd Street,64118,39.2250871,-94.5768422
7305,North Oak Trafficway,64118,39.2273039,-94.5756931
2700,Northeast Kendallwood Parkway,64119,39.2002696,-94.5473489
7514,North Oak Trafficway,64118,39.2312568,-94.5767590
7405/7407,North Oak Trafficway,64118,39.2290912,-94.5757750
7601/7603,North Oak Trafficway,64118,39.2322208,-94.5756234
7609,North Oak Trafficway,64118,39.2325678,-94.5756117
7204-7222,North Oak Trafficway,64118,39.2256668,-94.5766121
7400,North Oak Trafficway,64118,39.2281052,-94.5766219
7207,MO 1,64119,39.2253506,-94.5456865
6403-6417,North Prospect Avenue,64119,39.2100620,-94.5475477
7311-7325,North Oak Trafficway,64118,39.2277921,-94.5755477
7503,North Oak Trafficway,64118,39.2305525,-94.5753581
7201-7291,North Oak Trafficway,64118,39.2256541,-94.5755641
7107,North Oak Trafficway,64118,39.2241913,-94.5754032
6060,North Chestnut Avenue,64119,39.2040135,-94.5466063
7409/7413,North Oak Trafficway,64118,39.2297861,-94.5756088
7401/7403,North Oak Trafficway,64118,39.2285850,-94.5757780
6041-6069,North Antioch Road,64119,39.2014054,-94.5474791
7117,North Prospect Avenue,64119,39.2231838,-94.5465942
5729-5771,North Antioch Road,64119,39.1984327,-94.5479040
404,Northeast 76th Street,64118,39.2322382,-94.5752796
6415,Northeast Antioch Road,64119,39.2112447,-94.5342064
6415,Northeast Antioch Road,64119,39.2111714,-94.5347436
2100,Northeast 65th Street,64118,39.2115235,-94.5547117
6301,North Michigan Avenue,64118,39.2084370,-94.5566841
6098,North Antioch Road,64119,39.2041964,-94.5489797
6000-6036,North Antioch Road,64118,39.2036854,-94.5499471
5600,North Broadway Avenue,64118,39.1965172,-94.5861757
6901,North Holmes Street,64118,39.2204628,-94.5708838
6910,North Holmes Street,64118,39.2205965,-94.5720967
7010,North Holmes Street,64118,39.2215181,-94.5719832
2109,Northeast 72nd Street,64118,39.2238171,-94.5533657
1900-1918,Northeast 72nd Street,64118,39.2249032,-94.5563724
7227,North Euclid Avenue,64118,39.2252620,-94.5561716
7121,North Prospect Avenue,64119,39.2236346,-94.5476084
7600,North Troost Avenue,64118,39.2327952,-94.5689392
3220,Northeast 67th Terrace,64119,39.2164442,-94.5407950
6420,North Prospect Avenue,64118,39.2103447,-94.5500047
6410,North Prospect Avenue,64118,39.2102660,-94.5491973
6450,North Prospect Avenue,64118,39.2109813,-94.5493555
2800,Northeast 64th Street,64119,39.2101872,-94.5454595
825,Northeast 79th Terrace,64118,39.2357815,-94.5698759
300,Northwest 72nd Street,64118,39.2253970,-94.5846121
7170,North Broadway Avenue,64118,39.2242032,-94.5859474
301,Northwest 72nd Street,64118,39.2243412,-94.5849296
231,Northwest 72nd Street,64118,39.2243470,-94.5842662
1800,Northeast 65th Street,64118,39.2125566,-94.5583374
1501,Northeast 65th Street,64118,39.2116074,-94.5615627
6811,North Flora Avenue,64118,39.2185505,-94.5619611
602,Northeast 70th Street,64118,39.2213474,-94.5730444
611,Northeast 69th Street,64118,39.2192959,-94.5718174
504,Northeast 70th Street,64118,39.2213680,-94.5741096
7001,North Cherry Street,64118,39.2213232,-94.5734948
7010,North Cherry Street,64118,39.2219681,-94.5741750
6927,North Oak Trafficway,64118,39.2207061,-94.5757796
6569,North Prospect Avenue,64119,39.2126926,-94.5478318
4109,Northeast Pleasant Valley Road,64118,39.2127887,-94.5309996
6334,North Antioch Road,64119,39.2094289,-94.5477441
6505,North Prospect Avenue,64119,39.2121739,-94.5477572
3000,Northeast 64th Street,64119,39.2101959,-94.5441139
7015,North Oak Trafficway,64118,39.2224093,-94.5755099
7017,North Oak Trafficway,64118,39.2227454,-94.5757042
7025,North Oak Trafficway,64118,39.2229966,-94.5757660
7027,North Oak Trafficway,64118,39.2232613,-94.5754396
7022,North Locust Street,64118,39.2230254,-94.5754013
405,Northeast 70th Street,64118,39.2208054,-94.5753902
7027,North Locust Street,64118,39.2232775,-94.5747276
7101,North Oak Trafficway,64118,39.2236680,-94.5756696
825,Northeast 70th Terrace,64118,39.2220030,-94.5701639
602,Northeast 70th Street,64118,39.2212227,-94.5728100
7101,North Locust Street,64118,39.2236741,-94.5746762
7113/7115,North Locust Street,64118,39.2244172,-94.5745849
7109,North Locust Street,64118,39.2240878,-94.5746400
7105,North Locust Street,64118,39.2239113,-94.5747236
7113,North Troost Avenue,64118,39.2243006,-94.5664735
7001,North Harrison Street,64118,39.2213293,-94.5676895
7108,North Oak Trafficway,64118,39.2233654,-94.5764772
7060-7102,North Oak Trafficway,64118,39.2230602,-94.5765550
200-212,Northeast 72nd Street,64118,39.2251126,-94.5775683
303,Northeast 72nd Street,64118,39.2244581,-94.5768265
7116,North Oak Trafficway,64118,39.2243360,-94.5765397
7020,North Oak Trafficway,64118,39.2226555,-94.5766021
7000,North Oak Trafficway,64118,39.2217579,-94.5766287
7012,North Oak Trafficway,64118,39.2219587,-94.5766432
6860,North Oak Trafficway,64118,39.2192063,-94.5765316
6902,North Oak Trafficway,64118,39.2202415,-94.5770932
6850,North Oak Trafficway,64118,39.2187136,-94.5779199
6812,North Oak Trafficway,64118,39.2183359,-94.5767352
6604,North Oak Trafficway,64118,39.2143614,-94.5765083
6800,North Oak Trafficway,64118,39.2176038,-94.5767196
6728,North Oak Trafficway,64118,39.2164402,-94.5768451
172-188,Northeast 72nd Street,64118,39.2250112,-94.5782634
106,Northeast 72nd Street,64118,39.2249156,-94.5786593
104,Northeast 72nd Street,64118,39.2250469,-94.5791114
77,Northeast 72nd Street,64118,39.2239915,-94.5801868
99,Northeast 72nd Street,64118,39.2239813,-94.5793839
207;207C,Northeast 72nd Street,64118,39.2242770,-94.5780177
7109,North Walnut Street,64118,39.2238218,-94.5785234
6600,North Main Street,64118,39.2144975,-94.5828346
6716,North Oak Trafficway,64118,39.2159011,-94.5766220
6712,North Oak Trafficway,64118,39.2156442,-94.5766260
6708,North Oak Trafficway,64118,39.2153084,-94.5765242
6704,North Oak Trafficway,64118,39.2150475,-94.5765080
6700,North Oak Trafficway,64118,39.2148257,-94.5765456
6416,North Oak Trafficway,64118,39.2114890,-94.5765765
7600,North Troost Avenue,64118,39.2332205,-94.5699817
3960,Northeast 76th Street,64119,39.2317530,-94.5324009
4000,Northeast 76th Street,64119,39.2318223,-94.5319625
6305,North Antioch Road,64119,39.2074951,-94.5480620
5708,North Oak Trafficway,64118,39.1982522,-94.5768861
6001,North Antioch Road,64119,39.2030314,-94.5480578
5959,North Antioch Road,64119,39.2021853,-94.5479544
6221,North Chestnut Avenue,64119,39.2065392,-94.5474423
6211,North Chestnut Avenue,64119,39.2058442,-94.5474114
6003,North Antioch Road,64119,39.2033202,-94.5480578
2000,Northeast 72nd Street,64118,39.2246989,-94.5558482
6100,North Antioch Road,64118;64119,39.2047453,-94.5490243
5813,North Antioch Road,64119,39.2000640,-94.5480852
6118,North Oak Trafficway,64118,39.2060302,-94.5768068
7506,North Oak Trafficway,64118,39.2306514,-94.5764282
7504,North Oak Trafficway,64118,39.2302538,-94.5767043
7406,North Oak Trafficway,64118,39.2287022,-94.5764651
7304,North Oak Trafficway,64118,39.2274327,-94.5764807
121,Northeast 72nd Street,64118,39.2243105,-94.5783540
101-119,Northeast 72nd Street,64118,39.2243084,-94.5785945
7,Northwest 72nd Street,64118,39.2242591,-94.5809937
201,Northwest 72nd Street,64118,39.2243833,-94.5832280
6220,North Oak Trafficway,64118,39.2069717,-94.5768995
6100,North Oak Trafficway,64118,39.2049002,-94.5767675
5870,North Oak Trafficway,64118,39.2014135,-94.5768901
5840,North Oak Trafficway,64118,39.2011553,-94.5769336
5828,North Oak Trafficway,64118,39.2008934,-94.5769474
5812-5816,North Oak Trafficway,64118,39.2003977,-94.5768387
5800,North Oak Trafficway,64118,39.1995870,-94.5768492
5720,North Oak Trafficway,64118,39.1989570,-94.5767982
301-307,Northeast 58th Street,64118,39.1990167,-94.5770572
401,Northwest Englewood Road,64118,39.1953537,-94.5860931
6409,North Oak Trafficway,64118,39.2109561,-94.5758337
6420,North Oak Trafficway,64118,39.2117676,-94.5765823
600-610,Northeast 68th Street,64118,39.2179550,-94.5729012
460/462,Northeast 68th Street,64118,39.2180953,-94.5748374
464/466,Northeast 68th Street,64118,39.2182883,-94.5748380
454/456,Northeast 68th Street,64118,39.2177667,-94.5748407
450/452,Northeast 68th Street,64118,39.2175741,-94.5748418
504/506,Northeast 68th Street,64118,39.2176158,-94.5740469
500/502,Northeast 68th Street,64118,39.2177825,-94.5742102
508/510,Northeast 68th Street,64118,39.2176152,-94.5736224
512/514,Northeast 68th Street,64118,39.2177813,-94.5734526
516/518,Northeast 68th Street,64118,39.2180763,-94.5734479
528/530,Northeast 68th Street,64118,39.2180809,-94.5742077
524/526,Northeast 68th Street,64118,39.2182441,-94.5740407
7102,North Prospect Avenue,64118,39.2228423,-94.5489603
4-12,Northwest 72nd Street,64118,39.2251544,-94.5810645
14/16,Northwest 72nd Street,64118,39.2254029,-94.5813921
22-30,Northwest 72nd Street,64118,39.2251526,-94.5817148
18/20,Northwest 72nd Street,64118,39.2249087,-94.5813865
7109/7113,North Wyandotte Street,64118,39.2242821,-94.5826699
105-111,Northwest 72nd Street,64118,39.2244465,-94.5821145
101/103,North Baltimore Avenue,64118,39.2244016,-94.5816420
7108/7110,North Baltimore Avenue,64118,39.2241290,-94.5817538
202,Northwest 72nd Street,64118,39.2252110,-94.5840485
200,Northwest 72nd Street,64118,39.2251127,-94.5834560
6400,North Oak Trafficway,64118,39.2104729,-94.5765446
6889,North Oak Trafficway,64118,39.2195239,-94.5755019
314,Northeast 64th Street,64118,39.2104048,-94.5770873
310,Northeast 64th Street,64118,39.2106859,-94.5770821
306,Northeast 64th Street,64118,39.2109727,-94.5770752
302,Northeast 64th Street,64118,39.2112216,-94.5773505
216,Northeast 64th Street,64118,39.2112265,-94.5777085
212,Northeast 64th Street,64118,39.2109733,-94.5779009
208,Northeast 64th Street,64118,39.2106896,-94.5779097
204,Northeast 64th Street,64118,39.2104087,-94.5779155
2727,Northeast Brooktree Lane,64119,39.2048392,-94.5467654
6101,North Chestnut Avenue,64119,39.2044521,-94.5458795
2909,Northeast Brooktree Lane,64119,39.2037718,-94.5450538
2900,Northeast 60th Street,64119,39.2033905,-94.5451089
6051,North Chestnut Avenue,64119,39.2034820,-94.5456654
2800,North Chestnut Avenue,64119,39.2032614,-94.5465659
2900,Northeast Brooktree Lane,64119,39.2048390,-94.5451023
3000,Northeast Brooktree Lane,64119,39.2044037,-94.5445379
2920,Northeast Brooktree Lane,64119,39.2030165,-94.5443130
2800,North Chestnut Avenue,64119,39.2031223,-94.5459052
2770,Northeast 60th Street,64119,39.2028582,-94.5464392
2801,Northeast 60th Street,64119,39.2020416,-94.5466454
2800,Northeast Kendallwood Parkway,64119,39.2009899,-94.5465150
2850-2880,Northeast Kendallwood Parkway,64119,39.2004735,-94.5463262
5815-5821;5821,North Antioch Road;Northeast Antioch Road;NE Antioch Rd,64119,39.2004126,-94.5481101
2610,Northeast 60th Street,64119,39.2032026,-94.5472951
2601,Northeast Kendallwood Parkway;NE Kendallwood Pkwy,64119,39.1990242,-94.5481682
5607,North Antioch Road,64119,39.1965329,-94.5483996
2614,Northeast 56th Terrace,64119,39.1965261,-94.5479873
5618,North Antioch Road,64118,39.1972646,-94.5489927
5616,North Antioch Road,64118,39.1970898,-94.5490106
5608,North Antioch Road,64118,39.1964485,-94.5490088
5606,North Antioch Road,64118,39.1962817,-94.5490103
5604,North Antioch Road,64118,39.1958252,-94.5491186
5600,North Antioch Road,64119,39.1955989,-94.5491267
6308,North Prospect Avenue,64119,39.2091604,-94.5489696
6306,North Antioch Road,64118,39.2088501,-94.5489148
6317,North Antioch Road,64119,39.2086025,-94.5471937
5810,North Antioch Road,64118,39.1999862,-94.5494759
5700,North Antioch Road,64118,39.1976834,-94.5489384
6921,North Prospect Avenue,64119,39.2204776,-94.5475477
7100,North Antioch Road,64119,39.2224500,-94.5352237
2900,Northeast Kendallwood Parkway,64119,39.2018008,-94.5455307
6810,North Oak Trafficway,64118,39.2178881,-94.5766191
6813/6815,North Broadway Avenue,64118,39.2184306,-94.5846279
6809/6911,North Broadway Avenue,64118,39.2182689,-94.5850976
6817/6819,North Broadway Avenue,64118,39.2186330,-94.5849904
6821/6823,North Broadway Avenue,64118,39.2188006,-94.5849912
6901/6903,North Broadway Avenue,64118,39.2191549,-94.5851489
6825/6827,North Broadway Avenue,64118,39.2189983,-94.5846283
6829,North Broadway Avenue,64118,39.2187342,-94.5846323
6600,North Oak Trafficway,64118,39.2137886,-94.5765626
6602,North Oak Trafficway,64118,39.2140743,-94.5765261
5808,North Oak Trafficway,64118,39.2001735,-94.5767568
7114,North Oak Trafficway,64118,39.2233673,-94.5772278
7402/7404,North Oak Trafficway,64118,39.2283084,-94.5765402
700-706,Northeast 68th Street,64118,39.2176132,-94.5712659
101,Northeast 70th Terrace,64118,39.2219642,-94.5793871
605,Northeast 69th Street,64118,39.2194852,-94.5731197
708-714,Northeast 68th Street,64118,39.2176161,-94.5709987
716-722,Northeast 68th Street,64118,39.2176155,-94.5707387
724-730,Northeast 68th Street,64118,39.2176153,-94.5704419
800-806,Northeast 68th Street,64118,39.2176138,-94.5701854
808-814,Northeast 68th Street,64118,39.2176130,-94.5698799
816-822,Northeast 68th Street,64118,39.2176143,-94.5696256
824-830,Northeast 68th Street,64118,39.2176115,-94.5693199
832-838,Northeast 68th Street,64118,39.2176118,-94.5690732
900-908,Northeast 68th Street,64118,39.2176069,-94.5687519
910-916,Northeast 68th Street,64118,39.2175926,-94.5684637
920-926,Northeast 68th Street,64118,39.2175920,-94.5681787
6814-6820,North Holmes Street,64118,39.2180851,-94.5718497
6802-6808,North Holmes Street,64118,39.2178928,-94.5718512
407,Northeast 76th Terrace,64118,39.2325039,-94.5746156
7108,North Cherry Street,64118,39.2241279,-94.5741364
7104,North Cherry Street,64118,39.2239021,-94.5740538
7100,North Cherry Street,64118,39.2236854,-94.5741431
7112,North Cherry Street,64118,39.2244548,-94.5741309
7020,North Cherry Street,64118,39.2228698,-94.5740954
7026,North Cherry Street,64118,39.2232675,-94.5740689
7024,North Cherry Street,64118,39.2230690,-94.5740651
3005,Northeast 76th Street,64119,39.2314980,-94.5426115
2909,Northeast 76th Street,64119,39.2315624,-94.5437205
2610,Northeast 74th Terrace,64118,39.2289213,-94.5482361
2620,Northeast 74th Terrace,64118,39.2289605,-94.5480464
2630,Northeast 74th Terrace,64118,39.2290040,-94.5478518
2640,Northeast 74th Terrace,64118,39.2289970,-94.5476410
2650,Northeast 74th Terrace,64118,39.2290153,-94.5474089
2660,Northeast 74th Terrace,64118,39.2289794,-94.5471484
2670,Northeast 74th Terrace,64118,39.2287783,-94.5471157
2671-2675,Northeast 74th Terrace,64118,39.2285266,-94.5472504
2631-2635,Northeast 74th Terrace,64118,39.2284440,-94.5476983
7421-7425,North Prospect Avenue,64118,39.2283532,-94.5481363
7436,North Prospect Avenue,64118,39.2287386,-94.5484723
7430,North Prospect Avenue,64118,39.2285646,-94.5486490
7424,North Prospect Avenue,64118,39.2283621,-94.5487590
7411-7415,North Prospect Avenue,64118,39.2279363,-94.5482310
2622-2626,Northeast 74th Street,64118,39.2275775,-94.5481097
2642-2648,Northeast 74th Street,64118,39.2276803,-94.5475699
2662/2664,Northeast 74th Street,64118,39.2278367,-94.5471245
2711-2715,Northeast 74th Street,64118,39.2275260,-94.5467041
2651-2657,Northeast 74th Street,64118,39.2272346,-94.5470753
2641-2647,Northeast 74th Street,64118,39.2271047,-94.5476851
2611-2615,Northeast 74th Street,64118,39.2271103,-94.5481883
7308,North Prospect Avenue,64118,39.2270956,-94.5488739
7314,North Prospect Avenue,64118,39.2273082,-94.5488389
7400,North Prospect Avenue,64118,39.2275163,-94.5488592
7406,North Prospect Avenue,64118,39.2277327,-94.5488218
7412,North Prospect Avenue,64118,39.2279326,-94.5487916
7418,North Prospect Avenue,64118,39.2281470,-94.5487884
7113,North Cherry Street,64118,39.2244526,-94.5734806
7109,North Cherry Street,64118,39.2241604,-94.5734965
7105,North Cherry Street,64118,39.2239155,-94.5735218
7103,North Cherry Street,64118,39.2237866,-94.5735263
7101,North Cherry Street,64118,39.2236337,-94.5734601
605,Northeast 71st Street,64118,39.2232596,-94.5729180
607,Northeast 71st Street,64118,39.2232305,-94.5724163
7110,North Cherry Lane,64118,39.2244354,-94.5729194
7108,North Cherry Lane,64118,39.2241736,-94.5729122
7104,North Cherry Lane,64118,39.2239567,-94.5729202
604,Northeast 71st Street,64118,39.2236717,-94.5729111
606,Northeast 71st Street,64118,39.2236791,-94.5724275
7105,North Cherry Lane,64118,39.2239230,-94.5724072
7107,North Cherry Lane,64118,39.2240637,-94.5724030
7109,North Cherry Lane,64118,39.2242064,-94.5724161
7113,North Cherry Lane,64118,39.2244283,-94.5724474
609,Northeast 72nd Street,64118,39.2244602,-94.5722319
611,Northeast 72nd Street,64118,39.2244635,-94.5718670
7108,North Holmes Street,64118,39.2241466,-94.5717887
7104,North Holmes Street,64118,39.2239525,-94.5717926
608,Northeast 71st Street,64118,39.2236424,-94.5722101
610,Northeast 71st Street,64118,39.2236468,-94.5719806
612,Northeast 71st Street,64118,39.2236584,-94.5717465
609,Northeast 71st Street,64118,39.2231500,-94.5719366
7034,North Holmes Street,64118,39.2226261,-94.5718362
7030,North Holmes Street,64118,39.2224473,-94.5718300
6812,North Holmes Street,64118,39.2183663,-94.5718473
6805,North Holmes Street,64118,39.2180254,-94.5712290
6809,North Holmes Street,64118,39.2182009,-94.5712505
6813,North Holmes Street,64118,39.2183791,-94.5712540
709,Northeast 69th Street,64118,39.2195970,-94.5711236
7033/7035,North Holmes Street,64118,39.2225254,-94.5712195
7037,North Holmes Street,64118,39.2227834,-94.5712420
701,Northeast 71st Street,64118,39.2231327,-94.5712269
700,Northeast 71st Street,64118,39.2237599,-94.5712241
7111,North Holmes Street,64118,39.2239930,-94.5712478
7115,North Holmes Street,64118,39.2243955,-94.5712519
7105,North Walnut Street,64118,39.2235232,-94.5786381
7103,North Walnut Street,64118,39.2232499,-94.5786677
7011,North Walnut Street,64118,39.2229787,-94.5787694
7104,North Walnut Street,64118,39.2235024,-94.5791988
10,Northwest 70th Place,64118,39.2233190,-94.5796826
4,Northeast 70th Terrace,64118,39.2233227,-94.5804442
1,Northwest 70th Place,64118,39.2230624,-94.5809219
7008,North Walnut Street,64118,39.2229552,-94.5794254
704,Northeast 71st Street,64118,39.2237254,-94.5708264
706,Northeast 71st Street,64118,39.2237176,-94.5703620
800,Northeast 71st Street,64118,39.2237269,-94.5700679
802,Northeast 71st Street,64118,39.2239120,-94.5697247
804,Northeast 71st Street,64118,39.2236951,-94.5694979
900,Northeast 71st Street,64118,39.2236638,-94.5689327
705,Northeast 71st Street,64118,39.2232251,-94.5706773
7055,North Charlotte Street,64118,39.2232335,-94.5700570
7052,North Campbell Street,64118,39.2232201,-94.5695043
7046,North Campbell Street,64118,39.2229914,-94.5694928
705,Northeast 72nd Street,64118,39.2244131,-94.5708109
801,Northeast 72nd Street,64118,39.2243835,-94.5703767
803,Northeast 72nd Street,64118,39.2244142,-94.5700508
805,Northeast 72nd Street,64118,39.2244081,-94.5697265
708,Northeast 70th Terrace,64118,39.2224805,-94.5708463
7029,North Charlotte Street,64118,39.2225506,-94.5699615
7039,North Charlotte Street,64118,39.2227866,-94.5699075
7045,North Charlotte Street,64118,39.2229998,-94.5699422
804,Northeast 70th Terrace,64118,39.2224401,-94.5696979
816,Northeast 70th Terrace,64118,39.2224607,-94.5694831
6838,North Charlotte Street,64118,39.2195217,-94.5706493
801,Northeast 69th Street,64118,39.2195562,-94.5700328
6829,North Charlotte Street,64118,39.2192323,-94.5700348
6821,North Charlotte Street,64118,39.2189784,-94.5700609
682,North Charlotte Street,64118,39.2189209,-94.5706517
6814,Northeast 68th Terrace,64118,39.2186997,-94.5706587
800,Northeast 68th Terrace,64118,39.2187841,-94.5700367
6814,North Campbell Street,64118,39.2187974,-94.5695382
68/20,North Campbell Street,64118,39.2190315,-94.5694836
6826,North Campbell Street,64118,39.2191586,-94.5694634
6811,North Campbell Street,64118,39.2187653,-94.5689039
6813,North Campbell Street,64118,39.2189563,-94.5689294
6815,North Campbell Street,64118,39.2191220,-94.5689180
68/19,North Campbell Street,64118,39.2192785,-94.5689160
6823,North Campbell Street,64118,39.2194470,-94.5688759
6827,North Campbell Street,64118,39.2196024,-94.5688524
791/793,Northeast 68th Terrace,64118,39.2183673,-94.5696931
795-807,Northeast 68th Terrace,64118,39.2181748,-94.5696116
781-787,Northeast 68th Terrace,64118,39.2183742,-94.5700993
735,Northeast 68th Terrace,64118,39.2183341,-94.5706307
809/811,Northeast 68th Terrace,64118,39.2183477,-94.5692971
900,Northeast 68th Terrace,64118,39.2182408,-94.5688736
905,Northeast 68th Terrace,64118,39.2183385,-94.5684753
905,Northeast 69th Street,64118,39.2195734,-94.5683059
6822,North Harrison Street,64118,39.2192323,-94.5683494
6820,North Harrison Street,64118,39.2190255,-94.5683301
904,Northeast 68th Terrace,64118,39.2187341,-94.5683055
907,Northeast 68th Terrace,64118,39.2183830,-94.5681801
104/106,Northeast 59th Terrace,64118,39.2023934,-94.5787807
100/102,Northeast 59th Terrace,64118,39.2027243,-94.5789176
101/103,Northeast 59th Terrace,64118,39.2027726,-94.5794085
105/107,Northeast 59th Terrace,64118,39.2023419,-94.5795208
108/110,Northeast 59th Terrace,64118,39.2020061,-94.5787959
109/111,Northeast 59th Terrace,64118,39.2019661,-94.5794269
7025,North Campbell Street,64118,39.2220370,-94.5689077
7021,North Campbell Street,64118,39.2218681,-94.5689147
7017,North Campbell Street,64118,39.2217003,-94.5689213
7013,North Campbell Street,64118,39.2215432,-94.5689160
7007,North Campbell Street,64118,39.2213714,-94.5689172
7001,North Campbell Street,64118,39.2212040,-94.5689288
6925,North Campbell Street,64118,39.2208066,-94.5689074
6921,North Campbell Street,64118,39.2206548,-94.5689195
7029,North Campbell Street,64118,39.2223852,-94.5689093
7033,North Campbell Street,64118,39.2225560,-94.5688935
7037,North Campbell Street,64118,39.2227876,-94.5689233
7045,North Campbell Street,64118,39.2229906,-94.5689193
7051,North Campbell Street,64118,39.2232322,-94.5689216
7107,North Campbell Street,64118,39.2239305,-94.5688877
7109,North Campbell Street,64118,39.2241509,-94.5688584
6917,North Campbell Street,64118,39.2204912,-94.5689263
6913,North Campbell Street,64118,39.2203266,-94.5689038
6905,North Campbell Street,64118,39.2201598,-94.5689272
6901,North Campbell Street,64118,39.2199974,-94.5689221
902,Northeast 69th Street,64118,39.2199614,-94.5683384
6908,North Harrison Street,64118,39.2201531,-94.5683499
6912,North Harrison Street,64118,39.2203593,-94.5683791
69*17,North Harrison Street,64118,39.2205769,-94.5683517
6920,North Harrison Street,64118,39.2208013,-94.5683317
7000,North Harrison Street,64118,39.2212321,-94.5683341
7004,North Harrison Street,64118,39.2214301,-94.5683279
7008,North Harrison Street,64118,39.2216335,-94.5683251
7012,North Harrison Street,64118,39.2218394,-94.5683278
7016,North Harrison Street,64118,39.2220506,-94.5683267
7028,North Harrison Street,64118,39.2224140,-94.5683240
7032,North Harrison Street,64118,39.2226216,-94.5683260
7036,North Harrison Street,64118,39.2228239,-94.5683218
7040,North Harrison Street,64118,39.2230359,-94.5683625
7054,North Harrison Street,64118,39.2232575,-94.5683193
7100,North Harrison Street,64118,39.2236580,-94.5683423
7104,North Harrison Street,64118,39.2239373,-94.5682734
7110,North Harrison Street,64118,39.2243028,-94.5683413
7040-7046,North Olive Street,64118,39.2219124,-94.5511201
7050-7056,North Olive Street,64118,39.2217832,-94.5516493
7030-7036,North Olive Street,64118,39.2217736,-94.5506097
7042,North Olive Street,64118,39.2216985,-94.5511364
7080,North Olive Street,64118,39.2214174,-94.5511380
7010-7016,North Olive Street,64118,39.2214040,-94.5508775
7020-7026,North Olive Street,64118,39.2214077,-94.5513917
7000-7006,North Olive Street,64118,39.2210296,-94.5511422
6104,North Antioch Road,64118,39.2052799,-94.5489840
6102,North Antioch Road,64118,39.2050383,-94.5490359
7125,North Broadway Avenue,64118,39.2241075,-94.5848807
7025-7029,North Olive Street,64118,39.2219499,-94.5497769
7001-7003,North Olive Street,64118,39.2215014,-94.5496862
2402-2404,Northeast 70th Street,64118,39.2210771,-94.5499067
7061-7065,North Olive Street,64118,39.2219743,-94.5491945
6952-6986,North Olive Street,64118,39.2199331,-94.5526539
6852-6986,North Olive Street,64118,39.2195145,-94.5522205
6802-6832,North Olive Street,64118,39.2194803,-94.5513413
2300-2334,Northeast 68th Street,64118,39.2190625,-94.5513482
2303-2337,Northeast 68th Street,64118,39.2184593,-94.5515110
2373-2407,Northeast 68th Street,64118,39.2181056,-94.5509421
2265-2299,Northeast 68th Street,64118,39.2179022,-94.5515786
2413-2447,Northeast 68th Street,64118,39.2178288,-94.5508279
2453-2487,Northeast 68th Street,64118,39.2174667,-94.5510730
116/118,Northwest 63rd Street,64118,39.2090546,-94.5829420
106/108,Northwest 63rd Terrace,64118,39.2090445,-94.5823688
120/122,Northwest 63rd Street,64118,39.2086588,-94.5829571
102/104,Northwest 63rd Street,64118,39.2086581,-94.5823718
1001,Northeast 72nd Street,64118,39.2243645,-94.5676953
7107,North Harrison Street,64118,39.2239740,-94.5677399
1000,Northeast 71st Street,64118,39.2236637,-94.5677441
1001,Northeast 71st Street,64118,39.2232865,-94.5677774
7049,North Harrison Street,64118,39.2230687,-94.5677607
7037,North Harrison Street,64118,39.2227044,-94.5677221
7033,North Harrison Street,64118,39.2225563,-94.5677729
7029,North Harrison Street,64118,39.2224139,-94.5677719
7021,North Harrison Street,64118,39.2219799,-94.5677726
7009,North Harrison Street,64118,39.2215492,-94.5677779
6925,North Harrison Street,64118,39.2207468,-94.5677732
6909,North Harrison Street,64118,39.2203131,-94.5677802
1000,Northeast 69th Street,64118,39.2199940,-94.5676889
6833,North Harrison Street,64118,39.2195445,-94.5677024
6827,North Harrison Street,64118,39.2192650,-94.5677876
6823,North Harrison Street,64118,39.2190109,-94.5677864
1000,North Harrison Street,64118,39.2187871,-94.5677800
1001,Northeast 68th Terrace,64118,39.2183358,-94.5676301
6812,North Troost Avenue,64118,39.2183936,-94.5671914
6816,North Troost Avenue,64118,39.2190414,-94.5672056
6820,North Troost Avenue,64118,39.2192792,-94.5672141
6824,North Troost Avenue,64118,39.2195490,-94.5671965
6900,North Troost Avenue,64118,39.2200201,-94.5672002
6902,North Troost Avenue,64118,39.2203336,-94.5671795
6904,North Troost Avenue,64118,39.2207055,-94.5671703
7002,North Troost Avenue,64118,39.2213395,-94.5671914
7004,North Troost Avenue,64118,39.2215487,-94.5672128
7008,North Troost Avenue,64118,39.2217931,-94.5671906
7012,North Troost Avenue,64118,39.2220394,-94.5671960
7014,North Troost Avenue,64118,39.2223781,-94.5671666
7016,North Troost Avenue,64118,39.2225507,-94.5671862
7020,North Troost Avenue,64118,39.2227429,-94.5671796
7022,North Troost Avenue,64118,39.2229619,-94.5671976
7024,North Troost Avenue,64118,39.2231037,-94.5671812
7026,North Troost Avenue,64118,39.2232771,-94.5671783
7100,North Troost Avenue,64118,39.2237338,-94.5673778
7106,North Troost Avenue,64118,39.2240660,-94.5672235
7106,North Troost Avenue,64118,39.2243678,-94.5672252
1004,Northeast 68th Street,64118,39.2175703,-94.5676380
6800,North Troost Avenue,64118,39.2175819,-94.5672048
6002,North Troost Avenue,64118,39.2177434,-94.5671966
6004,North Troost Avenue,64118,39.2179137,-94.5671984
6806,North Troost Avenue,64118,39.2180854,-94.5672284
6810,North Troost Avenue,64118,39.2182579,-94.5671958
2210-2216,Northeast 77th Street,64118,39.2337491,-94.5530292
2200-2206,Northeast 77th Street,64118,39.2337582,-94.5532978
2120-2126,Northeast 77th Street,64118,39.2337583,-94.5535704
2110-2116,Northeast 77th Street,64118,39.2337698,-94.5538425
2100-2106,Northeast 77th Street,64118,39.2337780,-94.5541148
701,Northeast 67th Place,64118,39.2165090,-94.5712851
703,Northeast 67th Place,64118,39.2165285,-94.5710150
705,Northeast 67th Place,64118,39.2165421,-94.5707777
801,Northeast 67th Place,64118,39.2165639,-94.5705378
803,Northeast 67th Place,64118,39.2165736,-94.5703001
805,Northeast 67th Place,64118,39.2165923,-94.5700784
807,Northeast 67th Place,64118,39.2166068,-94.5698682
809,Northeast 67th Place,64118,39.2166038,-94.5696501
811,Northeast 67th Place,64118,39.2166219,-94.5694471
901,Northeast 67th Place,64118,39.2166479,-94.5690321
903,Northeast 67th Place,64118,39.2166485,-94.5687748
905,Northeast 67th Place,64118,39.2166440,-94.5685083
907,Northeast 67th Place,64118,39.2166500,-94.5682472
1001,Northeast 67th Place,64118,39.2166348,-94.5679848
1003,Northeast 67th Place,64118,39.2166422,-94.5677049
1005,Northeast 67th Place,64118,39.2166438,-94.5674453
1007,Northeast 67th Place,64118,39.2166431,-94.5671800
1101,Northeast 67th Place,64118,39.2166369,-94.5669192
1103,Northeast 67th Place,64118,39.2166382,-94.5666539
1105,Northeast 67th Place,64118,39.2166283,-94.5663912
1201,Northeast 67th Place,64118,39.2166321,-94.5659191
1205,Northeast 67th Place,64118,39.2165721,-94.5653508
1207,Northeast 67th Place,64118,39.2166102,-94.5650759
1203,Northeast 67th Place,64118,39.2166152,-94.5656249
1211,Northeast 67th Place,64118,39.2166037,-94.5645332
1301,Northeast 67th Place,64118,39.2166002,-94.5642433
1303,Northeast 67th Place,64118,39.2165952,-94.5639771
1305,Northeast 67th Place,64118,39.2165660,-94.5636993
1307,Northeast 67th Place,64118,39.2165861,-94.5634191
1401,Northeast 67th Place,64118,39.2165779,-94.5631743
1403,Northeast 67th Place,64118,39.2165673,-94.5628572
1405,Northeast 67th Place,64118,39.2165628,-94.5625950
1404,Northeast 67th Place,64118,39.2169900,-94.5625692
1402,Northeast 67th Place,64118,39.2169982,-94.5628632
1400,Northeast 67th Place,64118,39.2169761,-94.5631440
1306,Northeast 67th Place,64118,39.2169954,-94.5633991
1304,Northeast 67th Place,64118,39.2169904,-94.5636932
1302,Northeast 67th Place,64118,39.2169885,-94.5639697
1300,Northeast 67th Place,64118,39.2170023,-94.5642469
1210,Northeast 67th Place,64118,39.2170022,-94.5645186
1208,Northeast 67th Place,64118,39.2170064,-94.5647956
1206,Northeast 67th Place,64118,39.2170231,-94.5650676
1204,Northeast 67th Place,64118,39.2170256,-94.5653430
1202,Northeast 67th Place,64118,39.2170350,-94.5656485
1200,Northeast 67th Place,64118,39.2170291,-94.5659359
1104,Northeast 67th Place,64118,39.2170607,-94.5663804
1102,Northeast 67th Place,64118,39.2170451,-94.5666461
1100,Northeast 67th Place,64118,39.2170535,-94.5669188
1006,Northeast 67th Place,64118,39.2170717,-94.5671883
1004,Northeast 67th Place,64118,39.2170534,-94.5674567
1002,Northeast 67th Place,64118,39.2170538,-94.5677298
1000,Northeast 67th Place,64118,39.2170503,-94.5679924
906,Northeast 67th Place,64118,39.2170454,-94.5682749
904,Northeast 67th Place,64118,39.2170702,-94.5685361
902,Northeast 67th Place,64118,39.2170510,-94.5688157
900,Northeast 67th Place,64118,39.2170601,-94.5690571
810,Northeast 67th Place,64118,39.2170556,-94.5694600
808,Northeast 67th Place,64118,39.2170306,-94.5696899
806,Northeast 67th Place,64118,39.2170117,-94.5698955
804,Northeast 67th Place,64118,39.2170268,-94.5701132
802,Northeast 67th Place,64118,39.2169811,-94.5703136
800,Northeast 67th Place,64118,39.2169617,-94.5706187
4200,Northeast 72nd Street,64119,39.2264905,-94.5276485
6415,North Antioch Road,64119,39.2107604,-94.5342161
7711,North Oak Trafficway,64118,39.2341842,-94.5754146
4003,Northeast Brooktree Lane,64119,39.1991611,-94.5338012
2100,Northeast 65th Street,64118,39.2113975,-94.5543361
6301,North Michigan Avenue,64118,39.2080863,-94.5563727
3220,Northeast 67th Terrace,64119,39.2166486,-94.5406221
5900,North Flora Avenue,64118,39.2018852,-94.5636756
2590,Northeast 72nd Street,64118,39.2248247,-94.5493949
2590,Northeast 72nd Street,64118,39.2247975,-94.5489503
6479,North Prospect Avenue,64119,39.2116228,-94.5477466
6475,North Prospect Avenue,64119,39.2116411,-94.5468433
6469,North Prospect Avenue,64119,39.2115232,-94.5460738
7112,North Oak Trafficway,64118,39.2239481,-94.5765985
6700,North Prospect Avenue,64118,39.2154844,-94.5493729
6889,North Oak Trafficway,64118,39.2191412,-94.5746355
7019,North Cherry Street,64118,39.2225442,-94.5729094
601,Northeast 70th Street,64118,39.2204029,-94.5737937
7020,North Oak Trafficway,64118,39.2225229,-94.5764655
7303,North Oak Trafficway,64118,39.2267733,-94.5757420
7303,North Oak Trafficway,64118,39.2267974,-94.5754716
6417,North Oak Trafficway,64118,39.2113050,-94.5757798
6425,North Oak Trafficway,64118,39.2119151,-94.5756522
6527,North Oak Trafficway,64118,39.2125722,-94.5755731
6599,North Oak Trafficway,64118,39.2132343,-94.5747343
6577,North Oak Trafficway,64118,39.2126743,-94.5734303
6591,North Oak Trafficway,64118,39.2131973,-94.5741461
6597,North Oak Trafficway,64118,39.2132127,-94.5744715
6601,North Oak Trafficway,64118,39.2132095,-94.5756382
6605,North Oak Trafficway,64118,39.2135944,-94.5758127
7333,North Wyandotte Street,64118,39.2272146,-94.5818937
7011,North Holmes Street,64118,39.2215748,-94.5708492
6060,North Antioch Road,64118,39.2037694,-94.5490872
6050,North Antioch Road,64118,39.2032923,-94.5488783
6069,North Antioch Road,64119,39.2041268,-94.5477604
6057,North Antioch Road,64119,39.2039262,-94.5477360
6045,North Antioch Road,64119,39.2037620,-94.5477352
7101,North Antioch Road,64119,39.2207076,-94.5335615
7129,North Antioch Road,64119,39.2217974,-94.5334257
7139,North Antioch Road,64119,39.2225009,-94.5339747
7149,North Antioch Road,64119,39.2229052,-94.5340338
7159,North Antioch Road,64119,39.2232539,-94.5340834
3801,Northeast 72nd Street,64119,39.2237328,-94.5343092
7168,North Antioch Road,64119,39.2237193,-94.5350097
7158,North Antioch Road,64119,39.2234594,-94.5349615
7101,North Kingston Court,64119,39.2232214,-94.5350118
7111,North Kingston Court,64119,39.2231821,-94.5353428
7159,North Kingston Court,64119,39.2236276,-94.5352988
7301,North Kingston Court,64119,39.2237626,-94.5359859
7142,North Kingston Court,64119,39.2235283,-94.5358876
7134,North Kingston Court,64119,39.2232540,-94.5359381
7124,North Kingston Court,64119,39.2227998,-94.5357681
7112,North Kingston Court,64119,39.2228250,-94.5353555
7102,North Kingston Court,64119,39.2228001,-94.5350138
1401,Northeast 56th Terrace,64118,39.1966195,-94.5633722
1403,Northeast 56th Terrace,64118,39.1966192,-94.5630971
1405,Northeast 56th Terrace,64118,39.1966201,-94.5628428
1404,Northeast 56th Terrace,64118,39.1971662,-94.5628298
1402,Northeast 56th Terrace,64118,39.1971362,-94.5631049
1400,Northeast 56th Terrace,64118,39.1971407,-94.5633697
1306,Northeast 56th Terrace,64118,39.1971678,-94.5636649
1304,Northeast 56th Terrace,64118,39.1971674,-94.5639520
1303,Northeast 56th Terrace,64118,39.1965779,-94.5642332
1305,Northeast 56th Terrace,64118,39.1965700,-94.5639566
1307,Northeast 56th Terrace,64118,39.1966159,-94.5636460
1404,Northeast Englewood Road,64118,39.1958968,-94.5628538
7707,North Oak Trafficway,64118,39.2341413,-94.5744146
2901,Northeast 72nd Street,64119,39.2231977,-94.5447098
6712,North Walrond Avenue,64119,39.2161105,-94.5421191
5307,North Washington Street,64118,39.1912887,-94.5863133
909,Northeast 68th Terrace,64118,39.2183783,-94.5679185
6800,North Holmes Street,64118,39.2175350,-94.5719568
6714,North Holmes Street,64118,39.2172725,-94.5718319
6712,North Holmes Street,64118,39.2170794,-94.5718312
6710,North Holmes Street,64118,39.2168850,-94.5718323
3110,Northeast 67th Terrace,64119,39.2159030,-94.5425309
6718,North Indiana Avenue,64119,39.2167472,-94.5396555
6726,North Indiana Avenue,64119,39.2177234,-94.5396347
6700,North Indiana Avenue,64119,39.2150483,-94.5403060
6400,North Indiana Avenue,64119,39.2099624,-94.5404373
6512,North Indiana Avenue,64119,39.2128703,-94.5404073
6610,North Indiana Avenue,64119,39.2141766,-94.5403204
6313,North Bales Avenue,64119,39.2094199,-94.5387312
6595,North Oak Trafficway,64118,39.2131703,-94.5743428
6593,North Oak Trafficway,64118,39.2131706,-94.5742763
6591A,North Oak Trafficway,64118,39.2131972,-94.5739670
6589,North Oak Trafficway,64118,39.2131685,-94.5738171
7604,North Oak Trafficway,64118,39.2322762,-94.5776111
6113,North Broadway Avenue,64118,39.2172928,-94.5849957
6705,Northwest 67th Terrace,64118,39.2162765,-94.5849175
302,Northwest 67th Terrace,64118,39.2162753,-94.5845888
204,Northwest 67th Terrace,64118,39.2162735,-94.5842148
6706,North Wyandotte Street,64118,39.2163089,-94.5838552
6707,North Wyandotte Street,64118,39.2162475,-94.5832372
7195,North Woodland Avenue,64118,39.2241535,-94.5568305
7190,North Woodland Avenue,64118,39.2241717,-94.5574425
4101,Northeast 63rd Street,64119,39.2068592,-94.5314835
605,Northwest 44th Terrace,64116,39.1753260,-94.5901541
613,Northwest 44th Street,64116,39.1742404,-94.5898365
613,Northwest 44th Street,64116,39.1743805,-94.5901965
609,Northwest 44th Street,64116,39.1743467,-94.5895149
605,Northwest 44th Street,64116,39.1745899,-94.5894157
4416,Northwest Claymont Woods Drive,64116,39.1766021,-94.5892241
700,Northwest 44th Street,64116,39.1747524,-94.5907534
701,Northwest 44th Street,64116,39.1743026,-94.5905145
705,Northwest 44th Street,64116,39.1742567,-94.5908299
704,Northwest 44th Street,64116,39.1747816,-94.5910433
709,Northwest 44th Street,64116,39.1742840,-94.5911483
713,Northwest 44th Street,64116,39.1742708,-94.5914734
7000,North Chestnut Court,64119,39.2213917,-94.5466457
409,Northwest 47th Street,64116,39.1782963,-94.5866887
6701,North Campbell Street,64118,39.2152284,-94.5689571
201,Northeast 65th Street,64118,39.2113686,-94.5782880
6720,North Michigan Avenue,64118,39.2167699,-94.5562683
5917,North Michigan Place,64118,39.2025321,-94.5570548
705,Northwest 44th Terrace,64116,39.1751035,-94.5911672
701,Northwest 44th Terrace,64116,39.1751340,-94.5908483
609,Northwest 44th Terrace,64116,39.1752256,-94.5905022
601,Northwest 44th Terrace,64116,39.1754609,-94.5898275
4413,Northwest Claymont Woods Drive,64116,39.1759464,-94.5890533
4408,Northwest Claymont Woods Drive,64116,39.1761397,-94.5896080
4412,Northwest Claymont Woods Drive,64116,39.1763557,-94.5893458
4420,Northwest Claymont Woods Drive,64116,39.1768607,-94.5891235
4424,Northwest Claymont Woods Drive,64116,39.1771727,-94.5890181
4428,Northwest Claymont Woods Drive,64116,39.1775322,-94.5890270
4432,Northwest Claymont Woods Drive,64116,39.1778243,-94.5887731
4441,Northwest Claymont Woods Drive,64116,39.1778413,-94.5883914
4437,Northwest Claymont Woods Drive,64116,39.1775754,-94.5882079
4433,Northwest Claymont Woods Drive,64116,39.1773084,-94.5883715
4429,Northwest Claymont Woods Drive,64116,39.1770564,-94.5884498
4425,Northwest Claymont Woods Drive,64116,39.1768240,-94.5884843
4421,Northwest Claymont Woods Drive,64116,39.1765661,-94.5885440
4444,North Belleview Avenue,64116,39.1761024,-94.5908548
851,Northwest 45th Street,64116,39.1759589,-94.5920069
7250,North Mersington Street,64119,39.2259381,-94.5340265
7300,North Mersington Street,64119,39.2261435,-94.5341069
7304,North Mersington Street,64119,39.2263664,-94.5339735
7308,North Mersington Street,64119,39.2264518,-94.5336888
7305,North Mersington Street,64119,39.2263419,-94.5334001
7303,North Mersington Street,64119,39.2261254,-94.5332801
1408,Northeast 77th Street,64118,39.2340688,-94.5620971
1,Northwest 67th Street,64118,39.2142383,-94.5812669
3,Northwest 67th Street,64118,39.2143332,-94.5815434
5,Northwest 67th Street,64118,39.2144283,-94.5818554
101,Northwest 67th Street,64118,39.2145180,-94.5821710
103,Northwest 67th Street,64118,39.2145723,-94.5824638
105,Northwest 67th Street,64118,39.2146511,-94.5827278
107,Northwest 67th Street,64118,39.2147673,-94.5830440
201,Northwest 67th Street,64118,39.2148611,-94.5833518
203,Northwest 67th Street,64118,39.2149933,-94.5836295
205,Northwest 67th Street,64118,39.2152201,-94.5838105
207,Northwest 67th Street,64118,39.2154836,-94.5838825
200,Northwest 67th Street,64118,39.2153834,-94.5832818
106,Northwest 67th Street,64118,39.2152024,-94.5829827
104,Northwest 67th Street,64118,39.2151159,-94.5827031
102,Northwest 67th Street,64118,39.2150221,-94.5824058
100,Northwest 67th Street,64118,39.2149404,-94.5821220
8,Northwest 67th Street,64118,39.2148577,-94.5818388
6,Northwest 67th Street,64118,39.2147944,-94.5815708
2,Northwest 67th Street,64118,39.2146711,-94.5811080
209,Northwest 67th Street,64118,39.2158461,-94.5838672
3205,Northeast 70th Terrace,64119,39.2207862,-94.5416809
916,Northeast 72nd Street,64118,39.2248550,-94.5679170
1008,Northeast 72nd Street,64118,39.2248305,-94.5671810
1006,Northeast 72nd Street,64118,39.2248990,-94.5675635
2212,Northeast 74th Street,64118,39.2282885,-94.5519110
7404,North Park Avenue,64118,39.2285610,-94.5518775
7412,North Park Avenue,64118,39.2289840,-94.5516740
7409,North Park Avenue,64118,39.2287760,-94.5512115
7413,North Park Avenue,64118,39.2289600,-94.5510905
7416,North Park Avenue,64118,39.2291775,-94.5515605
7420,North Park Avenue,64118,39.2291385,-94.5509725
7401,North Park Avenue,64118,39.2282965,-94.5513750
2404,Northeast 72nd Street,64118,39.2245058,-94.5502177
7405,North Park Avenue,64118,39.2285735,-94.5512835
7408,North Park Avenue,64118,39.2287775,-94.5517905
6311,North Park Avenue,64118,39.2091030,-94.5514355
2405,Northeast 64th Street,64118,39.2095620,-94.5506195
6313,Northeast Wabash Drive,64118,39.2092970,-94.5500825
6308,North Park Avenue,64118,39.2089640,-94.5520660
6311,Northeast Wabash Drive,64118,39.2091265,-94.5500295
2503,Northeast 64th Street,64118,39.2095910,-94.5497410
6311,North Howard Avenue,64118,39.2093425,-94.5525770
6309,Northeast Wabash Drive,64118,39.2089345,-94.5499055
6314,Northeast Wabash Drive,64118,39.2090420,-94.5505445
2303,Northeast 64th Street,64118,39.2096020,-94.5521720
6314,North Park Avenue,64118,39.2095955,-94.5518370
6309,North Howard Avenue,64118,39.2091515,-94.5526985
2505,Northeast 64th Street,64118,39.2094795,-94.5494680
6307,Northeast Wabash Drive,64118,39.2087795,-94.5497470
6310,North Park Avenue,64118,39.2091505,-94.5519650
6306,North Park Avenue,64118,39.2087800,-94.5521765
2403,Northeast 64th Street,64118,39.2096055,-94.5508695
6307,North Howard Avenue,64118,39.2089610,-94.5527915
2401,Northeast 64th Street,64118,39.2095140,-94.5511915
6312,North Park Avenue,64118,39.2093500,-94.5518905
6313,North Howard Avenue,64118,39.2095460,-94.5524610
6313,North Park Avenue,64118,39.2092880,-94.5513300
6305,North Howard Avenue,64118,39.2087695,-94.5528935
2501,Northeast 64th Street,64118,39.2095985,-94.5500255
6312,Northeast Wabash Drive,64118,39.2088268,-94.5504371
6316,Northeast Wabash Drive,64118,39.2092735,-94.5506115
2300,Northeast 63rd Place,64118,39.2088010,-94.5515510
912,Northeast 72nd Street,64118,39.2248380,-94.5684950
7006,North Walnut Street,64118,39.2226970,-94.5795345
6901,North Oak Street,64118,39.2201306,-94.5754157
6305,Northeast Wabash Drive,64118,39.2086230,-94.5495770
6303,Northeast Wabash Drive,64118,39.2084671,-94.5494097
6301,Northeast Wabash Drive,64118,39.2082994,-94.5492481
6300,Old Antioch Road,64118,39.2082063,-94.5489551
6302,North Antioch Road,64118,39.2084316,-94.5488811
6304,North Antioch Road,64118,39.2086355,-94.5488751
6310,Northeast Wabash Drive,64118,39.2086431,-94.5502900
6308,Northeast Wabash Drive,64118,39.2084641,-94.5500955
6306,Northeast Wabash Drive,64118,39.2083097,-94.5499236
6304,Northeast Wabash Drive,64118,39.2081738,-94.5497789
6302,Northeast Wabash Drive,64118,39.2079988,-94.5495902
6300,Northeast Wabash Drive,64118,39.2078507,-94.5492816
6212,North Antioch Road,64118,39.2077589,-94.5489307
6210,North Antioch Road,64118,39.2075411,-94.5488891
6208,North Antioch Road,64118,39.2073319,-94.5488949
6206,North Antioch Road,64118,39.2071141,-94.5488902
2506,Northeast 63rd Place,64118,39.2068840,-94.5489728
2504,Northeast 63rd Place,64118,39.2069712,-94.5492738
2502,Northeast 63rd Place,64118,39.2071282,-94.5494655
2500,Northeast 63rd Place,64118,39.2072850,-94.5496344
2414,Northeast 63rd Place,64118,39.2074382,-94.5498049
2412,Northeast 63rd Place,64118,39.2075945,-94.5499749
2410,Northeast 63rd Place,64118,39.2077607,-94.5501425
2408,Northeast 63rd Place,64118,39.2079134,-94.5503140
2406,Northeast 63rd Place,64118,39.2080877,-94.5504571
2404,Northeast 63rd Place,64118,39.2082277,-94.5506561
2402,Northeast 63rd Place,64118,39.2083705,-94.5508417
2400,Northeast 63rd Place,64118,39.2085643,-94.5510454
2302,Northeast 63rd Place,64118,39.2086630,-94.5512839
6302,North Howard Avenue,64118,39.2085414,-94.5536168
6303,North Howard Avenue,64118,39.2085826,-94.5530011
2200,Northeast Shady Lane Drive,64118,39.2083310,-94.5530792
2202,Northeast Shady Lane Drive,64118,39.2081917,-94.5527803
6300,North Park Avenue,64118,39.2081575,-94.5524769
6302,North Park Avenue,64118,39.2083961,-94.5523708
6304,North Park Avenue,64118,39.2085717,-94.5522637
6303,North Park Avenue,64118,39.2081589,-94.5519004
6305,North Park Avenue,64118,39.2083633,-94.5517774
2303,Northeast 63rd Place,64118,39.2082402,-94.5514685
2305,Northeast 63rd Place,64118,39.2081366,-94.5512524
2401,Northeast 63rd Place,64118,39.2079930,-94.5510811
2403,Northeast 63rd Place,64118,39.2078291,-94.5509190
2405,Northeast 63rd Place,64118,39.2076705,-94.5507621
2407,Northeast 63rd Place,64118,39.2075307,-94.5506027
2409,Northeast 63rd Place,64118,39.2073769,-94.5504066
2411,Northeast 63rd Place,64118,39.2072151,-94.5502455
2413,Northeast 63rd Place,64118,39.2070566,-94.5500907
2501,Northeast 63rd Place,64118,39.2066578,-94.5495258
6202,North Antioch Road,64118,39.2063490,-94.5489184
7111,North Campbell Street,64118,39.2243731,-94.5688453
7510,North Oak Trafficway,64118,39.2310814,-94.5781632
7510,North Oak Trafficway,64118,39.2306832,-94.5772726
2316,Northeast 72nd Street,64118,39.2245188,-94.5508925
2312,Northeast 72nd Street,64118,39.2245292,-94.5511641
5900,North Flora Avenue,64118,39.2014542,-94.5636271
800,Northeast 72nd Street,64118,39.2254194,-94.5705745
5601,North Antioch Road,64119,39.1956781,-94.5476010
