House number,Street name,Postal code,Latitude,Longitude
223,North Main Street,64050,39.0936023,-94.4154206
4545,South Noland Road,64055,39.0375008,-94.4140742
16802,East Gudgell Road,64055-2018,39.0724923,-94.3800367
16903,East 24 Highway,64056,39.1182796,-94.3776123
16901,East Highway 24,64056-1531,39.1182650,-94.3781166
19040,E Valley View Pkwy,64055,39.0366472,-94.3576322
4201,South Noland Road,64055,39.0433841,-94.4147971
4201,South Noland Road,64055,39.0434560,-94.4147860
4210,South Noland Road,64055,39.0436644,-94.4155579
4210,South Noland Road,64055,39.0436175,-94.4155579
4201,South Noland Road,64055,39.0431892,-94.4118065
4201,South Noland Road,64055-7313,39.0434163,-94.4134695
4201,South Noland Road,64055,39.0434058,-94.4129838
14100,East 42nd Terrace,64055,39.0444075,-94.4140476
4528,South Noland Road,64055,39.0383562,-94.4159453
1300,South Noland Road,64055,39.0771441,-94.4143001
3621,South Noland Road,64055,39.0548238,-94.4144108
3415 Maywood Ct.,Independence,64052,39.0605977,-94.4571178
1834,South Noland Road,64055,39.0707781,-94.4149060
3107,South Noland Road,64055,39.0639832,-94.4142609
10819,East Winner Road,64052,39.0874956,-94.4495933
11201,East 24 Highway,64050,39.1021390,-94.4449422
500,West Pacific Avenue,64050-4375,39.0872408,-94.4222775
194,Oak Hill Cluster,64057,39.0734624,-94.2792018
3850,South Noland Road,64055,39.0504396,-94.4154079
1034,West Lexington Avenue,64050,39.0912379,-94.4289250
20301,MO 78,64057-2052,39.0826355,-94.3390001
16999,East 23rd Street South,64057,39.0773987,-94.3771481
16510,East 23rd Street South,64055,39.0782915,-94.3816704
4023,South Noland Road,64055,39.0483402,-94.4136337
19130,East 39th Street,64057,39.0485538,-94.3546920
19510,East Highway 40,64055,39.0295342,-94.3517216
18931,East Valley View Parkway,64055,39.0336566,-94.3557214
18710,East 39th Street,64057,39.0484740,-94.3598597
1525,East 23rd Street South,64055,39.0771061,-94.3941635
112,North Liberty Street,64050,39.0926291,-94.4172662
4486,South Noland Road,64055,39.0392507,-94.4161229
9025,E US Hwy,64055,39.0782206,-94.3858201
19000,East Eastland Center Court,64055,39.0349873,-94.3551618
19000,East Eastland Center Court,64055,39.0349373,-94.3548654
14801,E 42nd St S,64055,39.0435790,-94.4055937
4023,South Noland Road,64055,39.0480705,-94.4134427
3848,South Noland Road,64055,39.0507921,-94.4158859
3844,South Noland Road,64055,39.0513912,-94.4158677
3738,South Noland Road,64055,39.0523629,-94.4158556
3700,South Noland Road,64055,39.0532304,-94.4154017
3720,South Noland Road,64055,39.0528050,-94.4154520
19049,E Valley View Pkwy,64055,39.0363442,-94.3549405
110,West Maple Avenue,64050,39.0929218,-94.4161971
108,West Maple Avenue,64050,39.0929198,-94.4161234
106,West Maple Avenue,64050,39.0929198,-94.4160429
104,West Maple Avenue,64050,39.0929166,-94.4159329
100,West Maple Avenue,64050,39.0929187,-94.4158310
210,West Maple Avenue,64050,39.0929447,-94.4176509
214,West Maple Avenue,64050,39.0929505,-94.4178291
212,West Maple Avenue,64050,39.0929473,-94.4177259
218,West Maple Avenue,64050,39.0929537,-94.4179156
306,West Maple Avenue,64050,39.0929885,-94.4189102
113,West Lexington Avenue,64050,39.0920063,-94.4164076
121,West Lexington Avenue,64050,39.0920128,-94.4166559
107,West Lexington Avenue,64050,39.0919982,-94.4161007
101,South Main Street,64050,39.0919996,-94.4155480
107,South Main Street,64050,39.0918289,-94.4155561
208,South Main Street,64050,39.0917706,-94.4155588
111,South Main Street,64050,39.0916884,-94.4155627
123,South Main Street,64050,39.0913949,-94.4155681
125,South Main Street,64050,39.0913220,-94.4155708
201,West Lexington Avenue,64050,39.0920299,-94.4173240
205,West Lexington Avenue,64050,39.0920389,-94.4175121
209,West Lexington Avenue,64050,39.0920456,-94.4176509
221,West Lexington Avenue,64050,39.0920294,-94.4180070
501,West Lexington Avenue,64050,39.0920425,-94.4216041
411,West Maple Avenue,64050,39.0927503,-94.4203871
221,West Lexington Avenue,64050,39.0920318,-94.4180624
121,East Lexington Avenue,64050,39.0919708,-94.4145577
207,North Main Street,64050,39.0931102,-94.4154851
211,North Main Street,64050,39.0932178,-94.4154851
4201,South Noland Road,64055,39.0435796,-94.4144532
4000,South Bolger Road,64055,39.0466581,-94.3667542
4000,South Bolger Road,64055,39.0456552,-94.3668220
1220,North Main Street,64050,39.1040881,-94.4148485
2721,Queen Ridge Drive,64055,39.0694336,-94.3888244
11200,East Truman Road,64050,39.0955976,-94.4450789
9022,East 40 Highway,64055,39.0609893,-94.4732012
3600,South Noland Road,64055,39.0552747,-94.4153486
111,North Main Street,64050,39.0925498,-94.4154645
111,North Main Street,64050,39.0926198,-94.4154640
215,North Main Street,64050,39.0933378,-94.4154837
217,South Main Street,64050,39.0904433,-94.4155851
208,North Main Street,64050,39.0931987,-94.4158420
205,North Main Street,64050,39.0930500,-94.4154917
205,North Main Street,64050,39.0930222,-94.4154928
201,North Main Street,64050,39.0928818,-94.4154896
201,North Main Street,64050,39.0929489,-94.4154885
323,West Maple Avenue,64050,39.0927053,-94.4196661
123,West Kansas Avenue,64050,39.0909152,-94.4169561
607,West Lexington Avenue,64050,39.0921196,-94.4227273
11200,East Winner Road,64052,39.0878291,-94.4457035
201,North Forest Avenue,64050,39.0933586,-94.4360832
201,North Forest Avenue,64050,39.0934793,-94.4360757
200,North Liberty Street,64050,39.0929388,-94.4172405
204,North Liberty Street,64050,39.0930871,-94.4172368
407,West Lexington Avenue,64050,39.0920713,-94.4204016
2528,South 291 Highway,64057,39.0739819,-94.3798009
2531,South M-291 Highway,64057,39.0737725,-94.3783522
2491,South State Route 291,64057,39.0745321,-94.3784670
2650,Hub Drive,64055,39.0717010,-94.3813951
16502,E US 40,64055,39.0347429,-94.3869933
2705;2701,Lobb Cemetery Road;South Lobb Cemetery Road,64015,39.0673993,-94.2831029
3721,South Noland Road,64055,39.0521050,-94.4144697
18921,East Valley View Parkway,64055,39.0330870,-94.3565702
18921,East Valley View Parkway,64055,39.0331302,-94.3565086
18921,East Valley View Parkway,64055,39.0331941,-94.3564172
18921,East Valley View Parkway,64055,39.0332626,-94.3563195
18921,East Valley View Parkway,64055,39.0333277,-94.3562265
18921,East Valley View Parkway,64055,39.0333768,-94.3561564
18931,East Valley View Parkway,64055,39.0335062,-94.3558895
18931,East Valley View Parkway,64055,39.0335640,-94.3558249
18931,East Valley View Parkway,64055,39.0336014,-94.3557831
18931,East Valley View Parkway,64055,39.0336980,-94.3556751
18931,East Valley View Parkway,64055,39.0337382,-94.3556301
18931,East Valley View Parkway,64055,39.0337825,-94.3555806
18931,East Valley View Parkway,64055,39.0339217,-94.3554250
18931,East Valley View Parkway,64055,39.0338438,-94.3555122
12805,McCoy Street,64055,39.0597378,-94.4259740
1225,South Noland Road,64055,39.0778604,-94.4134595
16805,E US Hwy 24,64056-1531,39.1180837,-94.3793145
3901,South Bolger Drive,64055,39.0477983,-94.3681056
16506 East,US Highway 40,64055,39.0347586,-94.3864726
1400,West Turner Street,64050,39.0817497,-94.4336914
18801,East 39th Street South,64057,39.0453291,-94.3578668
11815,"East Highway 40, Blue Ridge Crossing",64055,39.0455140,-94.4402742
20220,East Jackson Drive,64057,39.0431279,-94.3420119
4368,South Noland Road,64055,39.0409381,-94.4172947
4545,South Noland Road,64055,39.0374546,-94.4140455
19850,East Valley View Parkway,64057,39.0389755,-94.3463507
19700,East Valley View Parkway,64057,39.0391504,-94.3484602
19750,East Valley View Parkway,64057,39.0391485,-94.3478284
20130,East Valley View Parkway,64057,39.0376890,-94.3438564
4200,South Little Blue Parkway,64057,39.0374366,-94.3422904
19751,East Valley View Parkway,64057,39.0369259,-94.3475020
19901,East Valley View Parkway,64057,39.0375733,-94.3462095
20000,East Valley View Parkway,64057,39.0384730,-94.3447560
20100,East Valley View Parkway,64057,39.0384285,-94.3440185
19900,East Valley View Parkway,64057,39.0387223,-94.3456307
19800,East Valley View Parkway,64057,39.0390211,-94.3469839
18001,Bass Pro Drive,64055,39.0401115,-94.3704221
4011,South Noland Road,64055,39.0483901,-94.4145155
19000,East Valley View Parkway,64055,39.0343847,-94.3594066
18880,East Valley View Parkway,64055,39.0336956,-94.3579205
18800,East Highway 40,64055,39.0333873,-94.3596897
19040,E Valley View Parkway,64055,39.0366884,-94.3575947
19040,East Valley View Parkway,64055,39.0351759,-94.3563058
4741,S Cochise Drive,64055,39.0316761,-94.3623594
3411,South Noland Road,64055,39.0581974,-94.4136329
11401,East 23rd St.,64052,39.0797645,-94.4419453
11500,East 23rd Street,64052-3630,39.0804184,-94.4405376
11320,East 23rd Street,64052,39.0805541,-94.4428908
11115,East 23rd Street,64052,39.0798709,-94.4465615
11020,East 23rd Street South,64052,39.0806755,-94.4465915
2261,S Sterling Avenue,64052,39.0806666,-94.4447765
4024,South Noland Road,64055,39.0488500,-94.4156895
4024,South Noland Road,64055,39.0484419,-94.4156752
4201,South Noland Road,64055,39.0436591,-94.4111946
14001,East 42nd Street,64055-4761,39.0444707,-94.4148332
4030,South Noland Road,64055,39.0475929,-94.4158969
4048,South Lynn Court Drive,64055,39.0471265,-94.4162559
4032,South Lynn Court Drive,64055,39.0475917,-94.4167854
4140,South Noland Road,64055,39.0450996,-94.4158723
4210,South Noland Road,64055,39.0436419,-94.4156687
4226,South Noland,64055-4792,39.0431636,-94.4157341
4243,South Noland Road,64055,39.0429814,-94.4146859
4301,South Noland Road,64055,39.0426294,-94.4148746
4312,South Noland Road,64055,39.0420409,-94.4161580
14330,East 42nd Street South,64055,39.0448308,-94.4108236
14310,East 42nd Street South,64055,39.0452325,-94.4115795
3908,South Noland Road,64055,39.0495502,-94.4154188
3915,South Noland Road,64055,39.0493689,-94.4144668
2400,South Highway 291,64057,39.0750175,-94.3796842
3825,South Noland Road,64055,39.0506874,-94.4143890
3750,South Noland Road,64055,39.0520312,-94.4159542
3444,South Noland Road,64055,39.0575228,-94.4155148
3444,South Noland Road,64055,39.0576589,-94.4152535
1001,West Walnut Street,64050,39.0897041,-94.4281756
3700,Arrowhead Avenue,64057,39.0513831,-94.3602167
18700,East 37th Terrace South,64057,39.0507910,-94.3600573
13800,East 42nd Terrace South,64055,39.0452130,-94.4175964
13714,East 42nd Terrace South,64055,39.0452904,-94.4193953
11024,E US Hwy 40,64055-4081,39.0503901,-94.4483067
10910,Highway 40,64055,39.0510821,-94.4498753
200,South River Boulevard,64050,39.0911079,-94.4277877
4110,South Lee's Summit Road,64055,39.0437207,-94.3887511
4210,South Lees Summit Road,64055,39.0435724,-94.3910876
18675,East 39th Street South,64057,39.0472070,-94.3619859
15400,East 34th Street,64055,39.0620829,-94.3981964
17101,East Kentucky Road,64058,39.1250818,-94.3787228
102,North Main Street,64050,39.0924584,-94.4164351
103,North Main Street,64050,39.0923853,-94.4154123
111,North Main Street,64050,39.0925759,-94.4152908
301,West Lexington Avenue,64050,39.0918393,-94.4189177
515,South Liberty Street,64050,39.0871928,-94.4170334
407,South Liberty Street,64050,39.0886480,-94.4168054
120,West Walnut Street,64050,39.0902240,-94.4167826
210,South Main Street,64050,39.0902574,-94.4161428
201,South River Boulevard,64050,39.0908873,-94.4263177
1012,West Lexington Ave,64050,39.0918685,-94.4280158
4300,South Bass Pro Drive,64055,39.0419557,-94.3730278
20300,East Valley View Parkway,64057,39.0358887,-94.3390956
218,North Osage Street,64050,39.0935987,-94.4188527
300,West Maple Avenue,64050,39.0930599,-94.4187146
201,North Spring Street,64050,39.0930719,-94.4195177
3200,Weatherford Road,64055,39.0627480,-94.4200465
2701,South Cherokee Street,64057,39.0691023,-94.3624633
20001,East Jackson Drive,64057,39.0405711,-94.3448173
19721,East Jackson Drive,64057,39.0404846,-94.3455972
19721,East Jackson Drive,64057,39.0406443,-94.3479368
4330,South Bass Pro Drive,64055,39.0413435,-94.3730556
19100,East Valley View Parkway,64055,39.0398635,-94.3577931
1716,South Speck Road,64057,39.0849727,-94.3644410
19009,Susquehanna Ridge,64056,39.1156062,-94.3518682
2611,Lee's Summit Road,64055,39.0718409,-94.3885316
1511,South Kings Highway,64055,39.0721438,-94.3968416
18200,MO 78,64057,39.0813129,-94.3639534
1656,South Speck Road,64057,39.0874807,-94.3643270
1223,North Noland Road,64050,39.1030076,-94.4103160
19200,East 39th Street S,64057,39.0503013,-94.3531976
4000,South Bolger Road,64055,39.0462191,-94.3670910
4100,Bolger Road,64055,39.0443410,-94.3671231
3927,Bolger Road,64055,39.0475065,-94.3651601
3921,South Bolger Road,64055,39.0475240,-94.3656040
4748,South Arrowhead Drive,64055,39.0317493,-94.3592474
18800,East 39th Street South,64057,39.0496890,-94.3586006
18910,East 39th Street South,64057-2313,39.0499326,-94.3569933
19110,East 39th Street South,64057,39.0502001,-94.3549254
17810,East 39th Street South,64055,39.0511995,-94.3695453
17730,East 39th Street,64055,39.0511136,-94.3705975
17610,East 39th Street South,64055,39.0512588,-94.3716519
18785,East 39th Street South,64057,39.0476001,-94.3578217
17201,East 40 Highway,64055,39.0333779,-94.3786300
16900,East US Highway 40,64055,39.0348166,-94.3808462
1601,South Speck Road,64057,39.0856692,-94.3574317
18201,South Bass Pro Drive,64055,39.0384763,-94.3669623
210,West Truman Road,64050,39.0942590,-94.4178006
215,North Spring Street,64050,39.0936088,-94.4194176
300,North Osage Street,64050,39.0941372,-94.4187255
315,North Main Street,64050,39.0942639,-94.4152074
223,North Main Street,64050,39.0936028,-94.4152395
217,North Main Street,64050,39.0934746,-94.4153579
215,North Main Street,64050,39.0933413,-94.4153526
213,North Main Street,64050,39.0932687,-94.4153065
211,North Main Street,64050,39.0932184,-94.4154299
207-209,North Main Street,64050,39.0931296,-94.4154218
205,North Main Street,64050,39.0930372,-94.4153892
201,North Main Street,64050,39.0929197,-94.4152593
111,East Maple Ave,64050,39.0925232,-94.4137627
100,East Maple Street,64050,39.0929901,-94.4147988
102,East Maple Street,64050,39.0929871,-94.4146480
200,East Lexington Avenue,64050,39.0922573,-94.4129756
223,North Memorial Drive,64050,39.0932504,-94.4125441
113,West Lexington Avenue,64050,39.0918451,-94.4164245
119,West Lexington Avenue,64050,39.0918480,-94.4165701
123,West Lexington Avenue,64050,39.0918999,-94.4167456
129,West Lexington Avenue,64050,39.0917756,-94.4168827
109,West Lexington Avenue,64050,39.0918421,-94.4161917
107,West Lexington Avenue,64050,39.0919050,-94.4161021
105,West Lexington Avenue,64050,39.0919272,-94.4160149
103,West Lexington Avenue,64050,39.0919255,-94.4159339
101,West Lexington Avenue,64050,39.0918652,-94.4158661
110,South Main Street,64050,39.0916620,-94.4159166
101,South Main Street,64050,39.0919982,-94.4155013
107,East Lexington Avenue,64050,39.0919378,-94.4154098
111,East Lexington Avenue,64050,39.0919597,-94.4151156
107,South Main Street,64050,39.0918248,-94.4154598
109,South Main Street,64050,39.0917677,-94.4154843
111,South Main Street,64050,39.0916807,-94.4153499
117,South Main Street,64050,39.0916005,-94.4154973
119,South Main Street,64050,39.0915133,-94.4154441
123,South Main Street,64050,39.0913973,-94.4154478
125,South Main Street,64050,39.0912283,-94.4153951
201,South Main Street,64050,39.0908296,-94.4154711
209,South Main Street,64050,39.0906349,-94.4153663
217,South Main Street,64050,39.0904668,-94.4155350
200,South Main Street,64050,39.0908180,-94.4160702
107,West Kansas Avenue,64050,39.0908426,-94.4163279
120-122,South Main Street,64050,39.0911981,-94.4160194
112-114,South Main Street,64050,39.0915184,-94.4161128
118,South Main Street,64050,39.0913662,-94.4161208
121,East Lexington Avenue,64050,39.0919129,-94.4145665
125-127,East Lexington Avenue,64050,39.0917820,-94.4144151
139,East Lexington Avenue,64050,39.0918698,-94.4138430
145,East Lexington Avenue,64050,39.0918262,-94.4136707
147,East Lexington Avenue,64050,39.0918361,-94.4135284
151,East Lexington Avenue,64050,39.0918337,-94.4133907
112-114,West Maple Avenue,64050,39.0930696,-94.4163695
110,West Maple Avenue,64050,39.0930660,-94.4161895
108,West Maple Avenue,64050,39.0930561,-94.4161162
106,West Maple Avenue,64050,39.0930645,-94.4160385
104,West Maple Avenue,64050,39.0929693,-94.4159382
100,West Maple Avenue,64050,39.0929667,-94.4158283
206,North Main Street,64050,39.0932039,-94.4158679
215,North Liberty Street,64050,39.0935400,-94.4166641
123,West Kansas Avenue,64050,39.0908946,-94.4169582
300,South Main Street,64050,39.0896335,-94.4161544
312,South Main Street,64050,39.0894015,-94.4160392
318,South Main Street,64050,39.0893160,-94.4161407
301,South Main Street,64050,39.0896303,-94.4153988
115,East Walnut Avenue,64050,39.0897037,-94.4148827
121,East Walnut Avenue,64050,39.0897067,-94.4147116
123,East Walnut Avenue,64050,39.0897751,-94.4145846
116,East Walnut Avenue,64050,39.0901106,-94.4149114
118,East Walnut Avenue,64050,39.0901018,-94.4147511
120,East Walnut Avenue,64050,39.0900964,-94.4146401
128,East Walnut Avenue,64050,39.0900965,-94.4144913
108,East Walnut Avenue,64050,39.0901130,-94.4151508
150,East Kansas Avenue,64050,39.0911505,-94.4134195
323,West Maple Avenue,64050,39.0926277,-94.4196723
317,West Maple Avenue,64050,39.0925441,-94.4195118
315,West Maple Avenue,64050,39.0925182,-94.4193367
310,West Lexington Avenue,64050,39.0924071,-94.4191800
417,West Maple Avenue,64050,39.0927100,-94.4206364
419,West Maple Avenue,64050,39.0927002,-94.4207856
416,West Lexington Avenue,64050,39.0924459,-94.4208022
414,West Lexington Avenue,64050,39.0924308,-94.4206520
209-213,West Maple Avenue,64050,39.0926738,-94.4176555
201,West Maple Avenue,64050,39.0926877,-94.4173826
112,North Liberty Street,64050,39.0926379,-94.4173861
110,North Liberty Street,64050,39.0925813,-94.4174785
104-108,North Liberty Street,64050,39.0924583,-94.4174844
208,West Lexington Avenue,64050,39.0923223,-94.4176798
206,West Lexington Avenue,64050,39.0923164,-94.4175111
100,North Liberty Street,64050,39.0923113,-94.4173679
201,West Lexington Avenue,64050,39.0919185,-94.4173373
205,West Lexington Avenue,64050,39.0919242,-94.4176127
209,West Lexington Avenue,64050,39.0919638,-94.4176499
211,West Lexington Avenue,64050,39.0919666,-94.4177391
221,West Lexington Avenue,64050,39.0919817,-94.4181181
204,West Kansas Avenue,64050,39.0913017,-94.4176461
122,South Liberty Street,64050,39.0913485,-94.4174047
308,West Kansas Avenue,64050,39.0913552,-94.4192628
101,South Spring Street,64050,39.0919618,-94.4197348
321,West Lexington Avenue,64050,39.0919360,-94.4196029
417,West Lexington Avenue,64050,39.0919727,-94.4206817
501,West Lexington Avenue,64050,39.0920281,-94.4216052
503,West Lexington Avenue,64050,39.0921021,-94.4218436
516,West Lexington Avenue,64050,39.0924658,-94.4222089
518,West Lexington Avenue,64050,39.0924674,-94.4223479
520,West Lexington Avenue,64050,39.0924737,-94.4224748
523,West Maple Avenue,64050,39.0927239,-94.4223406
525,West Maple Avenue,64050,39.0927032,-94.4224703
517,West Maple Avenue,64050,39.0926829,-94.4220818
224-230,West Maple Avenue,64050,39.0931216,-94.4182005
222,West Maple Avenue,64050,39.0930402,-94.4180178
218,West Maple Avenue,64050,39.0930113,-94.4179377
214,West Maple Avenue,64050,39.0930208,-94.4178297
212,West Maple Avenue,64050,39.0930472,-94.4177261
210,West Maple Avenue,64050,39.0930166,-94.4176574
208,West Maple Avenue,64050,39.0930707,-94.4175839
206,West Maple Avenue,64050,39.0930153,-94.4175143
204Â½,West Maple Avenue,64050,39.0931039,-94.4174310
200,North Liberty Street,64050,39.0929445,-94.4172866
202-204,North Liberty Street,64050,39.0930836,-94.4172803
206-208,North Liberty Street,64050,39.0932378,-94.4172502
413,North Liberty Street,64050,39.0952006,-94.4165799
408,North Osage Street,64050,39.0951176,-94.4185729
401,North Main Street,64050,39.0948081,-94.4152209
314,North Spring Street,64050,39.0944454,-94.4201254
308,North Spring Street,64050,39.0942901,-94.4201613
302,North Spring Street,64050,39.0940803,-94.4201438
412,West Truman Road,64050,39.0940978,-94.4204558
200,South Spring Street,64050,39.0909708,-94.4202796
311,West Kansas Avenue,64050,39.0909251,-94.4191773
315,West Kansas Avenue,64050,39.0909599,-94.4193939
222,South Osage Street,64050,39.0902110,-94.4190353
303,West Walnut Street,64050,39.0897437,-94.4190278
330,South Liberty Street,64050,39.0889128,-94.4176594
222,East Walnut Avenue,64050,39.0901372,-94.4121405
420,South Main Street,64050,39.0880380,-94.4163026
532,South Main Street,64050,39.0866984,-94.4162779
422,North Liberty Street,64050,39.0954953,-94.4172233
421,North Liberty Street,64050,39.0954832,-94.4166692
419,North Liberty Street,64050,39.0953808,-94.4166582
115,West Farmer Avenue,64050,39.0954517,-94.4163529
113,West Farmer Avenue,64050,39.0954193,-94.4161772
424,West Farmer Avenue,64050,39.0954454,-94.4158553
425,North Main Street,64050,39.0954460,-94.4152746
421,North Main Street,64050,39.0953296,-94.4152790
419,North Main Street,64050,39.0952141,-94.4152529
417,North Main Street,64050,39.0951034,-94.4152623
127,East Farmer Avenue,64050,39.0953356,-94.4143865
131,East Farmer Avenue,64050,39.0953305,-94.4140394
143,East Farmer Avenue,64050,39.0953230,-94.4135993
145,East Farmer Avenue,64050,39.0953523,-94.4134486
615,North Spring Street,64050,39.0970896,-94.4194398
613,North Spring Street,64050,39.0969443,-94.4194652
611,North Spring Street,64050,39.0968134,-94.4194725
521,North Spring Street,64050,39.0966971,-94.4194478
517,North Spring Street,64050,39.0964921,-94.4193085
324,West Farmer Avenue,64050,39.0959531,-94.4195411
308,West Farmer Avenue,64050,39.0958980,-94.4188841
306,West Farmer Avenue,64050,39.0958766,-94.4187240
300,West Farmer Avenue,64050,39.0958942,-94.4185442
506,North Osage Street,64050,39.0960753,-94.4185481
510,North Osage Street,64050,39.0962335,-94.4185459
514,North Osage Street,64050,39.0963112,-94.4185447
516,North Osage Street,64050,39.0964042,-94.4185400
518,North Osage Street,64050,39.0964864,-94.4185432
600,North Osage Street,64050,39.0965712,-94.4185428
602,North Osage Street,64050,39.0966595,-94.4185475
604,North Osage Street,64050,39.0967623,-94.4185612
606,North Osage Street,64050,39.0968690,-94.4185933
608,North Osage Street,64050,39.0969700,-94.4185686
610,North Osage Street,64050,39.0970650,-94.4185555
325,West College Avenue,64050,39.0974868,-94.4194748
321,West College Avenue,64050,39.0974812,-94.4192996
315,West College Avenue,64050,39.0974489,-94.4191425
311,West College Avenue,64050,39.0974387,-94.4189961
309,West College Avenue,64050,39.0974344,-94.4188436
307,West College Avenue,64050,39.0974293,-94.4187043
303,West College Avenue,64050,39.0974161,-94.4185854
301,West College Avenue,64050,39.0974394,-94.4184572
525,North Osage Street,64050,39.0967644,-94.4178361
512,North Liberty Street,64050,39.0962492,-94.4171903
510,North Liberty Street,64050,39.0961381,-94.4172025
506,North Liberty Street,64050,39.0960020,-94.4172157
502,North Liberty Street,64050,39.0958392,-94.4172481
214,West Farmer Avenue,64050,39.0959048,-94.4177345
218,West Farmer Avenue,64050,39.0959075,-94.4179029
220,West Farmer Avenue,64050,39.0959254,-94.4181476
509,North Osage Street,64050,39.0961968,-94.4180344
511,North Osage Street,64050,39.0962984,-94.4180376
515,North Osage Street,64050,39.0964022,-94.4180448
517,North Osage Street,64050,39.0964868,-94.4180376
519,North Osage Street,64050,39.0965677,-94.4180348
521,North Osage Street,64050,39.0966478,-94.4180310
421,North Spring Street,64050,39.0955135,-94.4194784
415,North Spring Street,64050,39.0953935,-94.4194808
413,North Spring Street,64050,39.0952238,-94.4194671
407,North Spring Street,64050,39.0950909,-94.4194827
405,North Spring Street,64050,39.0949800,-94.4194993
401,North Spring Street,64050,39.0948308,-94.4194772
315,West Farmer Avenue,64050,39.0955257,-94.4190200
313,West Farmer Avenue,64050,39.0955165,-94.4188286
301,West Farmer Avenue,64050,39.0954486,-94.4186345
627,North Main Street,64050,39.0973469,-94.4150902
623,North Main Street,64050,39.0971768,-94.4151903
619,North Main Street,64050,39.0970706,-94.4152116
134,East Waldo Street,64050,39.0964395,-94.4138192
130,East Waldo Street,64050,39.0964516,-94.4139977
120,East Waldo Street,64050,39.0964310,-94.4144110
118,East Waldo Street,64050,39.0964690,-94.4145779
116,East Waldo Street,64050,39.0964641,-94.4147191
601,North Main Street,64050,39.0964210,-94.4152629
605,North Main Street,64050,39.0965763,-94.4151855
609,North Main Street,64050,39.0967016,-94.4152277
112,East Waldo Street,64050,39.0964183,-94.4149230
615,North Main Street,64050,39.0968203,-94.4152097
617,North Main Street,64050,39.0969377,-94.4152469
509,North Main Street,64050,39.0961403,-94.4152175
507,North Main Street,64050,39.0960162,-94.4152284
505,North Main Street,64050,39.0958846,-94.4152412
501,North Main Street,64050,39.0957296,-94.4152711
110,East Farmer Avenue,64050,39.0957240,-94.4149651
116,East Farmer Avenue,64050,39.0957701,-94.4147369
118,East Farmer Avenue,64050,39.0957459,-94.4146171
120,East Farmer Avenue,64050,39.0957670,-94.4144414
121,East Waldo Street,64050,39.0960714,-94.4145650
125,East Waldo Street,64050,39.0960663,-94.4143067
127,East Waldo Street,64050,39.0960576,-94.4141000
137,East Waldo Street,64050,39.0960532,-94.4137264
619,West Lexington Avenue,64050,39.0921343,-94.4234661
607,West Lexington Avenue,64050,39.0920349,-94.4227736
108,South Pleasant Street,64050,39.0918494,-94.4216869
618,West Walnut Street,64050,39.0904075,-94.4235649
614,West Walnut Street,64050,39.0903857,-94.4233991
610,West Walnut Street,64050,39.0903685,-94.4232214
606,West Walnut Street,64050,39.0903951,-94.4230086
201,South Pleasant Street,64050,39.0910071,-94.4210676
207,South Pleasant Street,64050,39.0908756,-94.4210766
211,South Pleasant Street,64050,39.0907478,-94.4210901
215,South Pleasant Street,64050,39.0905177,-94.4210571
219,South Pleasant Street,64050,39.0903597,-94.4210506
221,South Pleasant Street,64050,39.0902394,-94.4210649
317,West Kansas Avenue,64050,39.0909569,-94.4196542
209,South Spring Street,64050,39.0906724,-94.4197199
218,South Osage Street,64050,39.0904111,-94.4188125
634,North Dodgion Avenue,64050,39.0974400,-94.4111081
612,North Dodgion Avenue,64050,39.0967771,-94.4110637
600,North Dodgion Avenue,64050,39.0966236,-94.4110454
618,North Dodgion Avenue,64050,39.0970377,-94.4110603
300,East Zaun Avenue,64050,39.0972033,-94.4106513
301,East College Street,64050,39.0976251,-94.4106368
303,East College Street,64050,39.0976278,-94.4104765
305,East College Street,64050,39.0976632,-94.4103233
307,East College Street,64050,39.0976586,-94.4101102
401,East College Street,64050,39.0977382,-94.4096729
406,East Zaun Avenue,64050,39.0971668,-94.4096916
400,East Zaun Avenue,64050,39.0972012,-94.4099231
306,East Zaun Avenue,64050,39.0971799,-94.4101571
304,East Zaun Avenue,64050,39.0972092,-94.4103521
635,North Hocker Avenue,64050,39.0973252,-94.4087627
503,East College Street,64050,39.0978883,-94.4087412
507,East College Street,64050,39.0979212,-94.4085204
509,East College Street,64050,39.0979878,-94.4082739
511,East College Street,64050,39.0980249,-94.4081142
523,East College Street,64050,39.0980713,-94.4079428
527,East College Street,64050,39.0980855,-94.4077416
531,East College Street,64050,39.0981203,-94.4075413
701,North Noland Road,64050,39.0976987,-94.4126603
219,East Walnut Street,64050,39.0896471,-94.4123819
223,East Walnut Street,64050,39.0896280,-94.4121801
229,East Walnut Street,64050,39.0896463,-94.4119921
231,East Walnut Street,64050,39.0896535,-94.4118525
307,East Walnut Street,64050,39.0896565,-94.4115465
309,East Walnut Street,64050,39.0896528,-94.4113875
311,East Walnut Street,64050,39.0896029,-94.4112545
315,East Walnut Street,64050,39.0896276,-94.4110740
321,East Walnut Street,64050,39.0896333,-94.4108194
325,East Walnut Street,64050,39.0895746,-94.4106506
329,East Walnut Street,64050,39.0895907,-94.4104330
403,East Walnut Street,64050,39.0895771,-94.4101809
415,East Walnut Street,64050,39.0896154,-94.4096442
417,East Walnut Street,64050,39.0896141,-94.4094893
407,East Walnut Street,64050,39.0896156,-94.4098633
419,East Walnut Street,64050,39.0895725,-94.4092998
302,South Hocker Avenue,64050,39.0896166,-94.4090141
304,South Hocker Avenue,64050,39.0894617,-94.4090042
312,South Hocker Avenue,64050,39.0893066,-94.4090121
314,South Hocker Avenue,64050,39.0891714,-94.4090305
424,East Short Avenue,64050,39.0888815,-94.4093544
426,East Short Avenue,64050,39.0888621,-94.4091824
428,East Short Avenue,64050,39.0888592,-94.4090044
318,East Walnut Street,64050,39.0900499,-94.4109107
324,East Walnut Street,64050,39.0900599,-94.4107049
326,East Walnut Street,64050,39.0900567,-94.4104990
310,East Walnut Street,64050,39.0900659,-94.4111767
306,East Walnut Street,64050,39.0900723,-94.4113768
300,East Walnut Street,64050,39.0900860,-94.4115814
211,South Noland Road,64050,39.0901197,-94.4126615
215,South Noland Road,64050,39.0906136,-94.4124417
220,East Kansas Avenue,64050,39.0911552,-94.4119862
301,East Lexington Avenue,64050,39.0916928,-94.4114929
308,East Kansas Avenue,64050,39.0911136,-94.4110805
124,South Pearl Street,64050,39.0910607,-94.4104597
110,South Pearl Street,64050,39.0914913,-94.4103801
116,South Pearl Street,64050,39.0913226,-94.4104116
106,South Pearl Street,64050,39.0915985,-94.4103835
325,East Lexington Avenue,64050,39.0917673,-94.4103865
403,East Lexington Avenue,64050,39.0917575,-94.4100096
407,East Lexington Avenue,64050,39.0917297,-94.4097818
411,East Lexington Avenue,64050,39.0917216,-94.4096133
413,East Lexington Avenue,64050,39.0917434,-94.4094966
421,East Lexington Avenue,64050,39.0917261,-94.4091144
423,East Lexington Avenue,64050,39.0917438,-94.4088649
501,East Lexington Avenue,64050,39.0916831,-94.4084914
507,East Lexington Avenue,64050,39.0916716,-94.4083208
509,East Lexington Avenue,64050,39.0916685,-94.4081435
515,East Lexington Avenue,64050,39.0916565,-94.4079939
517,East Lexington Avenue,64050,39.0916550,-94.4078185
519,East Lexington Avenue,64050,39.0916424,-94.4076472
521,East Lexington Avenue,64050,39.0916163,-94.4074604
525,East Lexington Avenue,64050,39.0916245,-94.4072795
603,East Lexington Avenue,64050,39.0915885,-94.4068970
605,East Lexington Avenue,64050,39.0915589,-94.4066703
611,East Lexington Avenue,64050,39.0915969,-94.4063583
613,East Lexington Avenue,64050,39.0915584,-94.4060556
615,East Lexington Avenue,64050,39.0915842,-94.4058676
617,East Lexington Avenue,64050,39.0915717,-94.4057033
608,East Kansas Avenue,64050,39.0909327,-94.4065848
614,East Kansas Avenue,64050,39.0909201,-94.4062485
618,East Kansas Avenue,64050,39.0909227,-94.4060754
622,East Kansas Avenue,64050,39.0909170,-94.4058987
606,East Kansas Avenue,64050,39.0909500,-94.4067973
600,East Kansas Avenue,64050,39.0909654,-94.4069640
528,East Kansas Avenue,64050,39.0909844,-94.4073063
522,East Kansas Avenue,64050,39.0910011,-94.4076604
520,East Kansas Avenue,64050,39.0909954,-94.4078346
430,East Kansas Avenue,64050,39.0910315,-94.4088751
428,East Kansas Avenue,64050,39.0910356,-94.4090353
416,East Kansas Avenue,64050,39.0910529,-94.4092566
414,East Kansas Avenue,64050,39.0910442,-94.4094145
410,East Kansas Avenue,64050,39.0910503,-94.4096039
406,East Kansas Avenue,64050,39.0910424,-94.4097997
400,East Kansas Avenue,64050,39.0910650,-94.4100040
119,South Pearl Street,64050,39.0912793,-94.4099891
307,East Kansas Avenue,64050,39.0906677,-94.4114063
309,East Kansas Avenue,64050,39.0905847,-94.4112317
315,East Kansas Avenue,64050,39.0906901,-94.4110463
317,East Kansas Avenue,64050,39.0906856,-94.4108529
321,East Kansas Avenue,64050,39.0906648,-94.4106546
329,East Kansas Avenue,64050,39.0906385,-94.4104545
402,East Walnut Street,64050,39.0900543,-94.4100380
406,East Walnut Street,64050,39.0900314,-94.4098667
412,East Walnut Street,64050,39.0900297,-94.4096049
418,East Walnut Street,64050,39.0900434,-94.4093478
424,East Walnut Street,64050,39.0900233,-94.4090824
428,East Walnut Street,64050,39.0900210,-94.4088821
423,East Kansas Avenue,64050,39.0906114,-94.4091073
411,East Kansas Avenue,64050,39.0906219,-94.4095779
401,East Kansas Avenue,64050,39.0906535,-94.4100227
407,East Kansas Avenue,64050,39.0906355,-94.4098365
207,South Pearl Street,64050,39.0904580,-94.4100023
320,East Lexington Avenue,64050,39.0922343,-94.4105124
301,East Truman Road,64050,39.0926828,-94.4113566
136,East Walnut Avenue,64050,39.0903188,-94.4141630
211-215,South Lynn Street,64050,39.0903694,-94.4147339
211,South Lynn Street,64050,39.0905366,-94.4148906
121,East Kansas Avenue,64050,39.0907703,-94.4147149
219,North Delaware Street,64050,39.0937260,-94.4233502
605,West Truman Road,64050,39.0938077,-94.4228411
601,West Truman Road,64050,39.0937950,-94.4226460
517,West Truman Road,64050,39.0937989,-94.4224459
515,West Truman Road,64050,39.0937934,-94.4222546
513,West Truman Road,64050,39.0937932,-94.4220663
616,West Maple Avenue,64050,39.0932142,-94.4235063
211,North Delaware Street,64050,39.0934223,-94.4235110
610,West Maple Avenue,64050,39.0931666,-94.4230782
604,West Maple Avenue,64050,39.0931758,-94.4226680
526,West Maple Avenue,64050,39.0931798,-94.4225010
522,West Maple Avenue,64050,39.0932100,-94.4222923
520,West Maple Avenue,64050,39.0931695,-94.4220584
200,North Delaware Street,64050,39.0933501,-94.4240614
710,West Maple Avenue,64050,39.0932022,-94.4245313
720,West Maple Avenue,64050,39.0933185,-94.4247438
216,North Delaware Street,64050,39.0936114,-94.4240391
218,North Delaware Street,64050,39.0937186,-94.4240823
224,North Delaware Street,64050,39.0939329,-94.4240784
220,North Delaware Street,64050,39.0938326,-94.4240729
709,West Truman Road,64050,39.0938484,-94.4244431
225,North Union Street,64050,39.0939238,-94.4247927
1212,West Lexington Avenue,64050,39.0897052,-94.4314157
522,South Main Street,64050,39.0870671,-94.4161836
520,South Main Street,64050,39.0871875,-94.4163300
512,South Main Street,64050,39.0873450,-94.4162319
508,South Main Street,64050,39.0875740,-94.4162221
511,South Liberty Street,64050,39.0875682,-94.4170311
419,South Liberty Street,64050,39.0881638,-94.4168364
500,South Main Street,64050,39.0878042,-94.4161822
503,South Main Street,64050,39.0877202,-94.4155238
505,South Main Street,64050,39.0876032,-94.4155080
117,East Elm Street,64050,39.0876771,-94.4151349
511,South Main Street,64050,39.0874350,-94.4155613
114,East Pacific Avenue,64050,39.0872315,-94.4151768
118,East Pacific Avenue,64050,39.0871055,-94.4149879
120,East Pacific Avenue,64050,39.0870829,-94.4147958
126,East Pacific Avenue,64050,39.0871185,-94.4146085
130,East Pacific Avenue,64050,39.0870605,-94.4143782
514,South Noland Road,64050,39.0871968,-94.4140061
137,East Elm Street,64050,39.0876825,-94.4141648
133,East Elm Street,64050,39.0876794,-94.4143228
129,East Elm Street,64050,39.0876692,-94.4144630
127,East Elm Street,64050,39.0876705,-94.4146047
123,East Elm Street,64050,39.0876403,-94.4147952
119,East Elm Street,64050,39.0876497,-94.4149762
421,South Main Street,64050,39.0881095,-94.4156102
110,East Elm Street,64050,39.0880116,-94.4153065
417,South Main Street,64050,39.0882459,-94.4156044
416,South Lynn Street,64050,39.0882373,-94.4152411
409,South Main Street,64050,39.0884857,-94.4155855
115,East Short Avenue,64050,39.0886878,-94.4152515
318,South Lynn Street,64050,39.0892126,-94.4153195
108,East Short Avenue,64050,39.0890388,-94.4153599
110,East Short Avenue,64050,39.0890276,-94.4152086
118,East Short Avenue,64050,39.0890700,-94.4148661
126,East Short Avenue,64050,39.0890239,-94.4145522
132,East Short Avenue,64050,39.0890336,-94.4142554
136,East Short Avenue,64050,39.0890408,-94.4140575
346,South Noland Road,64050,39.0890615,-94.4138079
300,South Noland Road,64050,39.0894294,-94.4138172
424,North Spring Street,64050,39.0956051,-94.4200477
420,North Spring Street,64050,39.0954814,-94.4200461
412,North Spring Street,64050,39.0952541,-94.4201363
404,North Spring Street,64050,39.0949581,-94.4201750
3889,South Jackson Drive,64057,39.0482200,-94.3515570
19401,East 37th Terrace Court South,64057,39.0510621,-94.3511088
4001,South Jackson Drive,64057,39.0447350,-94.3509782
4005,South Little Blue Parkway,64057,39.0432630,-94.3403974
4005,South Little Blue Parkway,64057,39.0432946,-94.3399781
4220,South Little Blue Parkway,64057,39.0360492,-94.3436425
3930,Northwest R D Mize Road,64015,39.0421195,-94.3118650
20300,East 42nd Street South,64057,39.0374891,-94.3398925
4215,South Little Blue Parkway,64057,39.0355362,-94.3416467
4500,South Little Blue Parkway,64057,39.0356807,-94.3472684
313,South Pleasant Street,64050,39.0892001,-94.4211640
309,South Pleasant Street,64050,39.0894308,-94.4211601
423,South Pleasant Street,64050,39.0896819,-94.4210564
419,West Walnut Street,64050,39.0899093,-94.4208886
417,West Walnut Street,64050,39.0898971,-94.4207777
411,West Walnut Street,64050,39.0898890,-94.4206257
310,South Spring Street,64050,39.0895603,-94.4203250
316,South Spring Street,64050,39.0894414,-94.4202959
301,South Spring Street,64050,39.0897604,-94.4196596
315,South Spring Street,64050,39.0894822,-94.4197681
317,South Spring Street,64050,39.0893773,-94.4197862
321,South Spring Street,64050,39.0892648,-94.4197872
325,South Spring Street,64050,39.0891582,-94.4197883
327,South Spring Street,64050,39.0890451,-94.4198001
401,South Spring Street,64050,39.0889301,-94.4198006
403,South Spring Street,64050,39.0888316,-94.4198193
405,South Spring Street,64050,39.0887137,-94.4198175
407,South Spring Street,64050,39.0886044,-94.4198295
420,South Osage Street,64050,39.0885703,-94.4192106
417,South Spring Street,64050,39.0882919,-94.4196913
404,South Osage Street,64050,39.0888727,-94.4189245
324,South Osage Street,64050,39.0890468,-94.4189094
325,South Osage Street,64050,39.0890664,-94.4183771
317,South Osage Street,64050,39.0893012,-94.4182084
315,South Osage Street,64050,39.0894059,-94.4183361
311,South Osage Street,64050,39.0895343,-94.4183533
309,South Osage Street,64050,39.0897498,-94.4183560
313,South Liberty Street,64050,39.0893731,-94.4169708
321,South Liberty Street,64050,39.0891101,-94.4169756
324,South Main Street,64050,39.0890046,-94.4160405
300,South Liberty Street,64050,39.0898405,-94.4174164
304,South Liberty Street,64050,39.0896580,-94.4174457
308,South Liberty Street,64050,39.0895168,-94.4174292
312,South Liberty Street,64050,39.0893219,-94.4174258
123,East Kansas Avenue,64050,39.0908131,-94.4145733
127,East Kansas Avenue,64050,39.0908207,-94.4144380
131,East Kansas Avenue,64050,39.0907915,-94.4142587
144,East Kansas Avenue,64050,39.0911991,-94.4136644
140,East Kansas Avenue,64050,39.0911664,-94.4138394
136-138,East Kansas Avenue,64050,39.0911911,-94.4139981
132,East Kansas Avenue,64050,39.0912124,-94.4141513
128,East Kansas Avenue,64050,39.0911852,-94.4143222
112,South Memorial Drive,64050,39.0914001,-94.4135337
20201,Northwest Valley View Road,64015,39.0322743,-94.3442283
4600,South Cochise Court,64055,39.0364272,-94.3635903
4660,South Bass Pro Drive,64055,39.0353638,-94.3653113
4675,South Bass Pro Drive,64055,39.0345072,-94.3640737
4641,South Cochise Court,64055,39.0355223,-94.3629570
19000,East Eastland Center Court,64055,39.0349525,-94.3550173
18910,East US Highway 40,64055-5464,39.0321516,-94.3565268
18811,East US Highway 40,64055,39.0322654,-94.3574527
4700,South Little Blue Parkway,64057,39.0330121,-94.3499427
20111,East Valley View Parkway,64057,39.0366128,-94.3440437
19801,East Valley View Parkway,64057,39.0378176,-94.3469103
19120,East Valley View Parkway,64055,39.0388300,-94.3532059
19400,East Valley View Parkway,64055,39.0396424,-94.3510937
18921,East Valley View Parkway,64055,39.0331717,-94.3562936
18931,East Valley View Parkway,64055,39.0336573,-94.3555868
1901,Blue Ridge Boulevard,64052,39.0873656,-94.4745218
20300,East Valley View Parkway,64057,39.0358488,-94.3395004
4901,South Lee's Summit Road,64136,39.0305999,-94.3862380
15006,East 39th Street South,64055,39.0501260,-94.4005106
909,West Waldo Street,64050,39.0962636,-94.4268893
825,North Dakota Drive 24 Highway,64056,39.1193151,-94.3723883
2601,North Liberty Street,64050,39.1247950,-94.4153643
701,West Maple Avenue,64050,39.0927672,-94.4238925
621,West Maple Avenue,64050,39.0927631,-94.4235178
617,West Maple Avenue,64050,39.0927284,-94.4233207
611,West Maple Avenue,64050,39.0927172,-94.4230864
607,West Maple Avenue,64050,39.0927322,-94.4229028
601,West Maple Avenue,64050,39.0927228,-94.4226582
616,West Lexington Avenue,64050,39.0925244,-94.4233414
622,West Lexington Avenue,64050,39.0925135,-94.4235325
624,West Lexington Avenue,64050,39.0925206,-94.4236497
626,West Lexington Avenue,64050,39.0925419,-94.4237629
628,West Lexington Avenue,64050,39.0925173,-94.4238600
700,West Lexington Avenue,64050,39.0926259,-94.4244636
101,North Main Street,64050,39.0922435,-94.4154176
121,West Lexington Avenue,64050,39.0919523,-94.4166640
108,South Liberty Street,64050,39.0917456,-94.4173284
217,South Main Street,64050,39.0902746,-94.4155612
225,South Main Street,64050,39.0901418,-94.4155272
106,East Walnut Avenue,64050,39.0901401,-94.4153263
316,South Osage Street,64050,39.0893763,-94.4189273
318,South Osage Street,64050,39.0891998,-94.4189153
308,West Maple Avenue,64050,39.0930678,-94.4190671
222,North Osage Street,64050,39.0937403,-94.4187804
214,North Osage Street,64050,39.0934512,-94.4188611
306,West Maple Avenue,64050,39.0930650,-94.4189166
601,South Liberty Street,64050,39.0863513,-94.4169538
611,South Liberty Street,64050,39.0861513,-94.4170787
615,South Liberty Street,64050,39.0859967,-94.4170722
619,South Liberty Street,64050,39.0858760,-94.4170821
623,South Liberty Street,64050,39.0857095,-94.4170677
627,South Liberty Street,64050,39.0855424,-94.4170884
114,West Ruby Avenue,64050,39.0855222,-94.4165618
110,West Ruby Avenue,64050,39.0855456,-94.4163767
626,South Main Street,64050,39.0854877,-94.4160314
622,South Main Street,64050,39.0856089,-94.4160227
620,South Main Street,64050,39.0857565,-94.4160579
616,South Main Street,64050,39.0859127,-94.4161072
610,South Main Street,64050,39.0861005,-94.4161366
602,South Main Street,64050,39.0863181,-94.4161679
3600,Crackerneck Road,64055,39.0529384,-94.3763042
15208,East 39th Street South,64055,39.0506106,-94.3973503
15208,East 39th Street South,64055,39.0502158,-94.3973220
17133,East 39th Street South,64055,39.0482327,-94.3911456
4300,Phelps Road,64055,39.0414297,-94.4029670
4850,South Bass Pro Drive,64055,39.0391890,-94.3729049
1500,North Liberty Street,64052,39.1075817,-94.4171372
315,North Main Street,64050,39.0941319,-94.4152297
613,South Main Street,64050,39.0862982,-94.4151201
9320,East 35th Street South,64052,39.0598169,-94.4683545
3450,South Northern Boulevard,64052,39.0596638,-94.4523679
11801,East 32nd Street South,64052,39.0631238,-94.4413292
1401,West Truman Road,64050,39.0939748,-94.4334820
600,West Mechanic Avenue,64050,39.1046350,-94.4225254
600,West Mechanic Avenue,64050,39.1046927,-94.4225945
4540,South Noland Road,64055,39.0374845,-94.4160950
4515,Noland Road,64055,39.0386824,-94.4149820
604,West Linden Avenue,64050,39.0853567,-94.4240717
10735,East US-40,64055,39.0514824,-94.4525542
10802,Highway 40 East,64055,39.0522186,-94.4518262
10301,E US Highway 40,64055,39.0532949,-94.4576239
11101,East US 40,64055,39.0491971,-94.4484911
10922,East Winner Road,64052,39.0879596,-94.4483890
1320,East Kentucky Road,64055,39.1275585,-94.3881992
11625,East 15th Street South,64052,39.0903759,-94.4375093
14510,East 39th Street South,64055,39.0501506,-94.4063956
1117,South Pleasant Street,64050,39.0800904,-94.4211720
1525,East 23rd Street South,64055,39.0768728,-94.3937965
601,South Missouri 291,64056,39.1031155,-94.3692980
4024,South Noland Road,64055,39.0492330,-94.4156410
4023,South Noland Road,64055,39.0466268,-94.4107018
14800,East 42nd Street South,64055,39.0448587,-94.4059182
14700,East 42nd Street South,64055,39.0450123,-94.4069258
14500,East 42nd Street South,64055,39.0450109,-94.4080665
14480,East 42nd Street South,64055,39.0451798,-94.4086659
14440,East 42nd Street South,64055,39.0453037,-94.4092882
14400,East 42nd Street South,64055,39.0451859,-94.4102577
14810,East 42nd Street South,64055,39.0445257,-94.4056042
14820,East 42nd Street South,64055,39.0443714,-94.4052219
14000,East 42nd Street South,64055,39.0450078,-94.4148382
4101,south little blue parkway,64057,39.0423475,-94.3365753
14701,East 42nd Street South,64055,39.0441748,-94.4066815
14801,East 42nd Street South,64055,39.0438338,-94.4061811
14825,East 42nd Street South,64055,39.0435294,-94.4055291
14901,East 42nd Street South,64055,39.0433893,-94.4046460
4230,Phelps Road,64055,39.0427556,-94.4033581
4300,Phelps Road,64055,39.0413023,-94.4029260
11910,East US 40,64055,39.0460530,-94.4375462
13712,East 42nd Terrace South,64055,39.0450339,-94.4183585
16235,East Highway 24,64056-1520,39.1174128,-94.3826990
17701,East US Highway 24,64056,39.1208785,-94.3689460
16501,Corporal M.E. Webster Memorial Parkway,64055,39.0337341,-94.3869576
16880,East US Highway 40,64055,39.0347744,-94.3817998
12901,East 49th Street,64055,39.0324719,-94.4280862
3905,Christopher Circle,64055,39.0491014,-94.3999190
18101,South Bass Pro Drive,64055,39.0410208,-94.3681293
724,North Cloverdale Avenue,64056,39.1164541,-94.3429219
18405,East 20th Street Court South,64057,39.0811774,-94.3617798
18409,East 20th Street Court South,64057,39.0811656,-94.3615358
18413,East 20th Street Court South,64057,39.0812191,-94.3612976
18417,East 20th Street Court South,64057,39.0812118,-94.3610618
18421,East 20th Street Court South,64057,39.0811997,-94.3608212
18520,East 20th Street Court South,64057,39.0815276,-94.3594143
18516,East 20th Street Court South,64057,39.0815651,-94.3596531
18512,East 20th Street Court South,64057,39.0815620,-94.3598891
18508,East 20th Street Court South,64057,39.0815735,-94.3601185
18504,East 20th Street Court South,64057,39.0815630,-94.3603518
18500,East 20th Street Court South,64057,39.0815776,-94.3605879
18300,E M 78 HWY,64057,39.0803065,-94.3620778
18604,East 20th Street Court South,64057,39.0815152,-94.3589128
18608,East 20th Street Court South,64057,39.0815349,-94.3586754
18612,East 20th Street Court South,64057,39.0815027,-94.3584354
1927,South Cochise Avenue,64057,39.0818389,-94.3588967
1923,South Cochise Avenue,64057,39.0820315,-94.3588779
1919,South Cochise Avenue,64057,39.0822126,-94.3589209
1915,South Cochise Avenue,64057,39.0824063,-94.3590120
1914,South Elizabeth Avenue,64057,39.0823802,-94.3584783
1918,South Elizabeth Avenue,64057,39.0821991,-94.3584460
1922,South Elizabeth Avenue,64057,39.0820169,-94.3584099
1926,South Elizabeth Avenue,64057,39.0818119,-94.3584086
18621,East 20th Street Court South,64057,39.0811278,-94.3579524
1903,South Elizabeth Avenue,64057,39.0813799,-94.3579257
1929,South Elizabeth Avenue,64057,39.0815683,-94.3579458
1925,South Elizabeth Avenue,64057,39.0817536,-94.3579391
1913,South Elizabeth Avenue,64057,39.0822886,-94.3579606
1917,South Elizabeth Avenue,64057,39.0821169,-94.3579352
1921,South Elizabeth Avenue,64057,39.0819451,-94.3579244
18701,East 19th Terrace South,64057,39.0826426,-94.3579754
18707,East 19th Terrace South,64057,39.0826415,-94.3577313
18704,East 19th Terrace South,64057,39.0830111,-94.3577380
18700,East 19th Terrace South,64057,39.0830122,-94.3580237
18614,East 19th Terrace South,64057,39.0830236,-94.3582932
18610,East 19th Terrace South,64057,39.0830350,-94.3585668
18613,East 19th Terrace South,64057,39.0826603,-94.3585064
18609,East 19th Terrace South,64057,39.0826706,-94.3587438
18605,East 19th Terrace South,64057,39.0826790,-94.3589999
18601,East 19th Terrace South,64057,39.0826509,-94.3592575
18510,East 19th Terrace South,64057,39.0824604,-94.3603571
18514,East 19th Terrace South,64057,39.0825385,-94.3601533
18518,East 19th Terrace South,64057,39.0827019,-94.3600138
18521,East 19th Terrace South,64057,39.0824052,-94.3596692
18517,East 19th Terrace South,64057,39.0822574,-94.3598301
18513,East 19th Terrace South,64057,39.0821231,-94.3600312
18509,East 19th Terrace South,64057,39.0820377,-94.3602767
18505,East 19th Terrace South,64057,39.0819846,-94.3605369
18501,East 19th Terrace South,64057,39.0819856,-94.3607984
18419,East 19th Terrace South,64057,39.0819982,-94.3610344
18403,East 19th Terrace South,64057,39.0820325,-94.3620215
18407,East 19th Terrace South,64057,39.0820044,-94.3617412
18411,East 19th Terrace South,64057,39.0820055,-94.3615118
18415,East 19th Terrace South,64057,39.0819982,-94.3612758
18402,East 19th Terrace South,64057,39.0824049,-94.3619812
18406,East 19th Terrace South,64057,39.0824061,-94.3617240
18401,East 19th Street South,64057,39.0827709,-94.3619843
18414,East 19th Terrace South,64057,39.0823965,-94.3612110
18418,East 19th Terrace South,64057,39.0823989,-94.3609199
18410,East 19th Terrace South,64057,39.0824205,-94.3614668
18417,East 19th Street South,64057,39.0827087,-94.3609183
18405,East 19th Street South,64057,39.0827410,-94.3617101
18409,East 19th Street South,64057,39.0827589,-94.3614498
18413,East 19th Street South,64057,39.0827553,-94.3611972
18400,East 19th Street South,64057,39.0831571,-94.3619397
18404,East 19th Street South,64057,39.0831332,-94.3616885
18408,East 19th Street South,64057,39.0831224,-94.3614313
18412,East 19th Street South,64057,39.0831140,-94.3611818
18416,East 19th Street South,64057,39.0831057,-94.3609322
18420,East 19th Street South,64057,39.0831081,-94.3606810
18808,E M 78 Hwy,64057,39.0812787,-94.3573551
18900,E M 78 HWY,64057,39.0813033,-94.3563563
19002,East 19th Terrace Court South,64057,39.0828100,-94.3536104
19000,East 19th Terrace Court South,64057,39.0826105,-94.3537110
19001,East 19th Terrace Court South,64057,39.0824021,-94.3537029
19003,East 19th Terrace Court South,64057,39.0822436,-94.3535566
19005,East 19th Terrace Court South,64057,39.0821371,-94.3533248
19009,East 19th Terrace Court South,64057,39.0821805,-94.3530657
19013,East 19th Terrace Court South,64057,39.0822247,-94.3528613
19008,East 19th Terrace Court South,64057,39.0828597,-94.3530656
19012,East 19th Terrace Court South,64057,39.0828045,-94.3528664
19016,East 19th Terrace Court South,64057,39.0827595,-94.3526733
19017,East 19th Terrace Court South,64057,39.0822665,-94.3526662
19021,East 19th Terrace Court South,64057,39.0823012,-94.3524518
1920,South Remington Court,64057,39.0827564,-94.3513500
19104,East 19th Terrace Court South,64057,39.0827312,-94.3516122
19100,East 19th Terrace Court South,64057,39.0827359,-94.3518247
19024,East 19th Terrace Court South,64057,39.0827391,-94.3522413
19028,East 19th Terrace Court South,64057,39.0827351,-94.3520320
19041,East 19th Terrace Court South,64057,39.0822917,-94.3513957
19037,East 19th Terrace Court South,64057,39.0823020,-94.3516050
19033,East 19th Terrace Court South,64057,39.0822990,-94.3518169
19029,East 19th Terrace Court South,64057,39.0822771,-94.3520248
19025,East 19th Terrace Court South,64057,39.0822959,-94.3522406
1912,South Remington Court,64057,39.0832097,-94.3516915
1908,South Remington Court,64057,39.0833657,-94.3515238
1907,South Remington Court,64057,39.0834220,-94.3512465
1911,South Remington Court,64057,39.0833299,-94.3510000
1915,South Remington Court,64057,39.0831230,-94.3509337
1919,South Remington Court,64057,39.0829748,-94.3508783
1923,South Remington Court,64057,39.0828145,-94.3508351
19045,East 19th Terrace Court South,64057,39.0823302,-94.3511602
19101,East 19th Terrace Court South,64057,39.0823816,-94.3509538
19105,East 19th Terrace Court South,64057,39.0824247,-94.3507474
19109,East 19th Terrace Court South,64057,39.0824665,-94.3505394
19113,East 19th Terrace Court South,64057,39.0824964,-94.3503314
19201,East 19th Terrace Court South,64057,39.0825347,-94.3501265
19205,East 19th Terrace Court South,64057,39.0825705,-94.3499293
19209,East 19th Terrace Court South,64057,39.0825801,-94.3497229
19213,East 19th Terrace Court South,64057,39.0826459,-94.3495211
19217,East 19th Terrace Court South,64057,39.0827093,-94.3492993
19113,East 19th Street Court South,64057,39.0837573,-94.3506118
1904,South Davis Avenue,64057,39.0835430,-94.3506684
1908,South Davis Avenue,64057,39.0833767,-94.3506401
1912,South Davis Avenue,64057,39.0831858,-94.3506100
1916,South Davis Avenue,64057,39.0830334,-94.3505445
1920,South Davis Avenue,64057,39.0828740,-94.3505056
1900,South Aztec Avenue,64057,39.0837490,-94.3497464
1904,South Aztec Avenue,64057,39.0835649,-94.3497589
1908,South Aztec Avenue,64057,39.0833933,-94.3497429
1912,South Aztec Avenue,64057,39.0832160,-94.3496845
1916,South Aztec Avenue,64057,39.0830484,-94.3495694
1901,South Davis Avenue,64057,39.0837710,-94.3500862
1905,South Davis Avenue,64057,39.0836081,-94.3500950
1909,South Davis Avenue,64057,39.0834380,-94.3501083
1913,South Davis Avenue,64057,39.0832803,-94.3500744
1917,South Davis Avenue,64057,39.0831189,-94.3500254
1921,South Davis Avenue,64057,39.0829621,-94.3499741
1925,South Aztec Avenue,64057,39.0827401,-94.3486688
1901,South Aztec Avenue,64057,39.0836627,-94.3491790
1905,South Aztec Avenue,64057,39.0834941,-94.3491754
1909,South Aztec Avenue,64057,39.0833310,-94.3491112
1913,South Aztec Avenue,64057,39.0831751,-94.3490003
1917,South Aztec Avenue,64057,39.0830474,-94.3488521
1921,South Aztec Avenue,64057,39.0828869,-94.3487621
1837,South Aztec Avenue,64057,39.0838249,-94.3491568
1821,South Aztec Avenue,64057,39.0844628,-94.3486711
1825,South Aztec Avenue,64057,39.0843080,-94.3488252
1829,South Aztec Avenue,64057,39.0841602,-94.3489233
1833,South Aztec Avenue,64057,39.0839953,-94.3490611
19116,East 19th Street Court South,64057,39.0841754,-94.3505203
19200,East 19th Street Court South,64057,39.0841712,-94.3503046
19204,East 19th Street Court South,64057,39.0841595,-94.3500882
19208,East 19th Street Court South,64057,39.0841535,-94.3498764
19212,East 19th Street Court South,64057,39.0841370,-94.3496315
2301,S M 291 HWY,64057,39.0768608,-94.3781664
232,S R D Mize Rd,64057,39.0764912,-94.3772719
17221,East 23rd Street South,64057,39.0771341,-94.3749909
21001,E M 78 HWY,64057,39.0843976,-94.3321751
20800,E M 78 HWY,64057,39.0856758,-94.3340527
17812,East 23rd South Street,64057,39.0787148,-94.3729934
17820,East 23rd South Street,64057,39.0789241,-94.3718789
17814,East 23rd South Street,64057,39.0789813,-94.3728646
17816,East 23rd South Street,64057,39.0790178,-94.3725937
17818,East 23rd South Street,64057,39.0790907,-94.3722168
630,North Lakeview Avenue,64050,39.0982906,-94.4063823
617,East College Street,64050,39.0982749,-94.4065509
613,East College Street,64050,39.0982242,-94.4067029
609,East College Street,64050,39.0982258,-94.4068767
605,East College Street,64050,39.0981999,-94.4070575
601,East College Street,64050,39.0981667,-94.4072333
617,North Hocker Avenue,64050,39.0967356,-94.4087753
611,North Hocker Avenue,64050,39.0966248,-94.4087771
609,North Hocker Avenue,64057,39.0965193,-94.4088473
607,North Hocker Avenue,64050,39.0963963,-94.4088424
610,North Hocker Avenue,64050,39.0965811,-94.4092314
416,East College Street,64050,39.0983338,-94.4093658
500,East College Street,64050,39.0983220,-94.4089796
502,East College Street,64050,39.0983255,-94.4087850
506,East College Street,64050,39.0983638,-94.4086402
508,East College Street,64050,39.0983789,-94.4084773
510,East College Street,64050,39.0984165,-94.4083046
512,East College Street,64050,39.0984450,-94.4081377
514,East College Street,64050,39.0984485,-94.4079753
516,East College Street,64050,39.0984775,-94.4078145
518,East College Street,64050,39.0985066,-94.4076481
522,East College Street,64050,39.0985399,-94.4074372
536,East College Street,64050,39.0986283,-94.4072082
338,East College Street,64050,39.0981819,-94.4096201
334,East College Street,64050,39.0981563,-94.4097933
330,East College Street,64050,39.0981473,-94.4099658
326,East College Street,64050,39.0980929,-94.4101391
322,East College Street,64050,39.0980839,-94.4103071
318,East College Street,64050,39.0980636,-94.4105251
200,East Short Avenue,64050,39.0890213,-94.4133279
422,East Short Avenue,64050,39.0889042,-94.4095717
416,East Short Avenue,64050,39.0889294,-94.4097455
412,East Short Avenue,64050,39.0889381,-94.4099549
410,East Short Avenue,64050,39.0889121,-94.4101093
400,East Short Avenue,64050,39.0889224,-94.4104681
326,East Short Avenue,64050,39.0889342,-94.4106906
322,East Short Avenue,64050,39.0889499,-94.4108584
316,East Short Avenue,64050,39.0889689,-94.4111312
316,East Short Avenue,64050,39.0891499,-94.4110266
308,East Short Avenue,64050,39.0889538,-94.4114201
306,East Short Avenue,64050,39.0890222,-94.4115373
302,East Short Avenue,64050,39.0889728,-94.4117208
300,East Short Avenue,64050,39.0889614,-94.4118560
226,East Short Avenue,64050,39.0889902,-94.4121807
208,East Short Avenue,64050,39.0890048,-94.4129911
210,East Short Avenue,64050,39.0890021,-94.4127836
218,East Short Avenue,64050,39.0889902,-94.4125756
220,East Short Avenue,64050,39.0889739,-94.4123948
207,East Short Avenue,64050,39.0885847,-94.4132078
209,East Short Avenue,64050,39.0885949,-94.4130594
211,East Short Avenue,64050,39.0885696,-94.4129121
211,East Short Avenue,64050,39.0885776,-94.4124934
223,East Short Avenue,64050,39.0885626,-94.4123216
229,East Short Avenue,64050,39.0885681,-94.4121528
233,East Short Avenue,64050,39.0885081,-94.4119831
301,East Short Avenue,64050,39.0885547,-94.4118032
305,East Short Avenue,64050,39.0885586,-94.4116304
216,East Elm Street,64050,39.0879820,-94.4128429
415,South High Street,64050,39.0881311,-94.4124598
220,East Elm Street,64050,39.0879812,-94.4122239
304,East Elm Street,64050,39.0879346,-94.4116437
312,East Elm Street,64050,39.0879267,-94.4113102
318,East Elm Street,64050,39.0879046,-94.4110755
320,East Elm Street,64050,39.0878857,-94.4109505
322,East Elm Street,64050,39.0878778,-94.4107787
313,East Short Avenue,64050,39.0885555,-94.4113316
315,East Short Avenue,64050,39.0885377,-94.4112132
319,East Short Avenue,64050,39.0885436,-94.4110774
321,East Short Avenue,64050,39.0885354,-94.4109376
327,East Short Avenue,64050,39.0885393,-94.4107587
509,South Noland Road,64050,39.0872899,-94.4132268
223,East Elm Street,64050,39.0876088,-94.4125110
229,East Elm Street,64050,39.0876057,-94.4123254
231,East Elm Street,64050,39.0875586,-94.4121683
235,East Elm Street,64050,39.0875912,-94.4119809
303,East Elm Street,64050,39.0875386,-94.4118128
517,South High Street,64050,39.0871702,-94.4124791
234,East Pacific Avenue,64050,39.0869841,-94.4121855
238,East Pacific Avenue,64050,39.0869897,-94.4119934
304,East Pacific Avenue,64050,39.0870094,-94.4118146
306,East Pacific Avenue,64050,39.0869845,-94.4116097
310,East Pacific Avenue,64050,39.0869964,-94.4114791
314,East Pacific Avenue,64050,39.0869665,-94.4113115
416,East Pacific Avenue,64050,39.0869670,-94.4102253
420,East Pacific Avenue,64050,39.0869613,-94.4099619
708,East Walnut Street,64050,39.0901439,-94.4047621
802,East Walnut Street,64050,39.0898028,-94.4038135
3801,South Selsa Road,64057,39.0493672,-94.3383530
20551,East Trinity Place,64015,39.0370336,-94.3341745
4045,South Little Blue Parkway,64057,39.0423975,-94.3402677
4049,South Little Blue Parkway,64057,39.0421686,-94.3404061
4053,South Little Blue Parkway,64057,39.0417920,-94.3403416
4105,South Little Blue Parkway,64057,39.0412547,-94.3397115
15200,East 39th Street South,64055,39.0500675,-94.3987459
14506,East 39th Street South,64055,39.0505950,-94.4081149
4312,South Noland Road,64055,39.0418310,-94.4161838
4312,South Noland Road,64055,39.0421026,-94.4167188
4309,South Noland Road,64055,39.0423445,-94.4149375
13900,East 35th Street South,64055,39.0581304,-94.4167742
13700,East 35th Street South,64055,39.0580452,-94.4182537
13000,East 35th Street South,64055,39.0591785,-94.4208953
14200,East 32nd Street,64055,39.0624140,-94.4121007
4661,South Cochise Court,64055,39.0349904,-94.3629624
20301,East 45th Street South,64057,39.0342790,-94.3421448
4901,South Valley View Road,64015,39.0283008,-94.3459731
4700,South Glenview Ave,64015,39.0312543,-94.3481093
16007,East 23rd Street,64055,39.0772747,-94.3881165
19104,East Bundschu Road,64056,39.1209179,-94.3506808
3120,Weatherford Road,64055,39.0635738,-94.4196685
106,West 31st Street,64055,39.0649613,-94.4165572
109,East 31st Street South,64055,39.0640754,-94.4165093
12800,East 47th Street South,64055,39.0363555,-94.4293843
12802,East 47th Street South,64055,39.0364822,-94.4291343
12816,East 47th Street South,64055,39.0364557,-94.4286249
12820,East 47th Street South,64055,39.0364197,-94.4282254
13001,East US 40 Highway,64055,39.0364765,-94.4271593
13005,East US 40 Highway,64055,39.0368598,-94.4271026
13011,East US 40 Highway,64055,39.0364182,-94.4265037
13101,E US 40 Highway,64055,39.0362738,-94.4261802
14001,East 32nd Street,64055,39.0616188,-94.4113920
18800,East 37th Terrace South,64057,39.0522887,-94.3586587
819,West Waldo Street,64050,39.0961232,-94.4259919
1021,West College Avenue,64050,39.0978375,-94.4282556
1400,West Turner Street,64050,39.0817175,-94.4336837
621,West South Avenue,64050,39.0822168,-94.4239933
1009,West 23rd Street South,64055,39.0793437,-94.4288423
807,South Cottage Street,64050,39.0838136,-94.4263471
2885,South Hardy Avenue,64052,39.0687440,-94.4552571
10401,East 31st Street South,64052,39.0654459,-94.4547077
1600,Appleton Avenue,64052,39.0899459,-94.4498206
1600,Appleton Avenue,64052,39.0899552,-94.4495985
3883,Blue Ridge Boulevard,64052,39.0515815,-94.4416380
1229,West 31st Street South,64055,39.0649568,-94.4323207
1400,West Sheley Road,64052,39.0733286,-94.4350893
412,East Sea Avenue,64050,39.0829748,-94.4101991
414,East Sea Avenue,64050,39.0829733,-94.4100229
416,East Sea Avenue,64050,39.0829674,-94.4097868
422,East Sea Avenue,64050,39.0829600,-94.4095626
426,East Sea Avenue,64050,39.0829575,-94.4093084
18109,East 12th Street North,64056,39.1244645,-94.3635205
3232,South Noland Road,64055,39.0621435,-94.4167276
584,South Arlington Street,64053,39.1035127,-94.4641116
9412,East Independence Avenue,64053,39.1035249,-94.4652624
9623,East Independence Avenue,64053,39.1026239,-94.4628034
570,South Evanston Avenue,64053,39.1035126,-94.4629652
2412,South R D Mize Road,64057,39.0748883,-94.3771113
4029,South Noland Road,64055,39.0477317,-94.4143702
3625,Blue Ridge Boulevard,64052,39.0560602,-94.4561465
14500,East 39th Street South,64055,39.0505874,-94.4096718
14304,East 39th Street South,64055,39.0504778,-94.4110035
2020,South Quail Drive,64057,39.0801329,-94.3406695
18817,East Valley View Parkway,64055,39.0326791,-94.3570738
18931,East Valley View Parkway,64055,39.0336674,-94.3556459
18921,East Valley View Parkway,64055,39.0333102,-94.3564784
1638,W US,64050,39.1024884,-94.4356688
25501,East Bundschu Road,64056,39.1173700,-94.2768715
4131,South Little Blue Parkway,64057,39.0400307,-94.3386706
10017,East 36th Terrace South,64052,39.0553577,-94.4591473
4000,South Lee's Summit Road,64055,39.0469303,-94.3878697
4200,South Lee's Summit Road,64055,39.0429372,-94.3879015
22415,East 39th Street South,64015,39.0427869,-94.3179918
2800,South Hardy Avenue,64052,39.0708154,-94.4568815
19600,East 39th Street,64057,39.0495891,-94.3486688
4600,South Little Blue Parkway,64057,39.0337267,-94.3497488
19677,East Jackson Drive,64057,39.0409828,-94.3486124
17142,East 39th Street South,64055,39.0491607,-94.3772771
18011,Bass Pro Drive,64055,39.0393342,-94.3679241
18600,East US Highway 40,64055,39.0342313,-94.3628420
4101,South Little Blue Parkway,64057,39.0420067,-94.3379012
4545,South Trace Park Court,64057,39.0362630,-94.3499081
10021,East 36th Terrace South,64052,39.0554231,-94.4583506
