House number,Street name,Postal code,Latitude,Longitude
1432,Southwest Boulevard,65109,38.5630111,-92.2007490
114,East High Street,65101,38.5765240,-92.1720757
2214,Missouri Boulevard,65109,38.5818415,-92.2088928
2103,Missouri Boulevard,65109,38.5807458,-92.2056548
2305,Missouri Boulevard,65109-4728,38.5802311,-92.2121437
2500,Missouri Boulevard,65109,38.5826130,-92.2171862
3441,Missouri Boulevard,65109,38.5799124,-92.2442444
915,E. High St.,65101,38.5692572,-92.1614230
2810,South Ten Mile Drive,65109,38.5814854,-92.2254554
2815,South Ten Mile Drive,65109,38.5810450,-92.2244334
629,"629 Jefferson City Street, Jefferson City, MO 65101",65101,38.5728868,-92.1769684
1722,Jefferson Street,65109,38.5558946,-92.1957846
2336,Missouri Boulevard,65109,38.5823118,-92.2132458
500,Airport Road,65101,38.5932727,-92.1648308
731,Stoneridge Boulevard,65109,38.5796433,-92.2221403
707,Stoneridge Blvd. - Ste. 102,65109,38.5815823,-92.2230573
108,East High Street,65101,38.5766338,-92.1722306
832,Weathered Rock Court,65101,38.5403955,-92.1932579
1411,Southwest Boulevard,65109,38.5643295,-92.1989103
1508,East McCarty Street,65101,38.5617477,-92.1524979
913,Jackson Street,65101,38.5663537,-92.1752624
2302,Militia Drive,65102,38.5525345,-92.0752898
221,Bolivar Street,65101-1574,38.5826848,-92.1794473
1922,Missouri Boulevard,65109,38.5813246,-92.2021811
2519,Missouri Boulevard,65109,38.5815903,-92.2178666
1400,Missouri Boulevard,65109,38.5788197,-92.1926634
2102,Missouri Boulevard,65109,38.5816410,-92.2053904
2108,Missouri Boulevard,65109,38.5816247,-92.2061799
2114,Missouri Boulevard,65109-4758,38.5816670,-92.2067547
2120,Missouri Boulevard,65109,38.5817525,-92.2073641
3124,10 Mile Road,65109-1728,38.5806411,-92.2351758
3104,South Ten Mile Drive,65109,38.5807081,-92.2337732
3225,Missouri Boulevard,65109,38.5805928,-92.2404584
3601,Country Club Drive,65109,38.5834685,-92.2527040
3536,Country Club Drive,65109,38.5840727,-92.2533847
2605,Missouri Boulevard,65109,38.5817552,-92.2195161
707-B,Stoneridge Parkway,65109,38.5816649,-92.2229343
2703,Missouri Boulevard,65109,38.5817294,-92.2215196
715,Stoneridge Boulevard,65109,38.5805222,-92.2217826
735,West Stadium Boulevard,65109-4753,38.5791165,-92.2136862
2009,Missouri Boulevard,65109,38.5806115,-92.2036967
521,Missouri Boulevard,65101,38.5776536,-92.1827734
517,Missouri Boulevard,65109,38.5779187,-92.1824922
3731,West Truman Boulevard,65109,38.5864569,-92.2555044
3732,West Truman Boulevard,65101,38.5867503,-92.2565663
501,Airport Road,65101,38.5925635,-92.1648641
2413,Missouri Boulevard,65109,38.5804023,-92.2151453
715,Stoneridge Blvd.,65109,38.5804787,-92.2218025
724,Stadium West Boulevard,65109,38.5800124,-92.2200016
707-B,Stoneridge Blvd.,65109,38.5816641,-92.2229324
810,Stone Creek Drive,65109,38.5775629,-92.2201975
2703,Missouri Boulevard,65109,38.5817305,-92.2215057
232,East High Street,65101,38.5751689,-92.1704386
126,East High Street,65101,38.5761637,-92.1717572
101,East High Street,65101,38.5770510,-92.1720706
131,East High Street,65101,38.5764266,-92.1713082
220,Madison Street,65101,38.5766864,-92.1708591
238,Madison Street,65101,38.5763491,-92.1711470
210,Adams Street,65101,38.5750111,-92.1680946
326,East Capitol Avenue,65101,38.5753982,-92.1679863
324,East Capitol Avenue,65101,38.5754608,-92.1681560
312,East Capitol Avenue,65101,38.5756213,-92.1683802
328,East Capitol Avenue,65101,38.5752371,-92.1678317
300,East High Street,65101,38.5749124,-92.1698633
326,Monroe Street,65101,38.5744406,-92.1711234
318,Monroe Street,65101,38.5746106,-92.1708797
306,East High Street,65101,38.5747414,-92.1696926
304,East High Street,65101,38.5747892,-92.1697597
314,East High Street,65101,38.5745194,-92.1694993
308,East High Street,65101,38.5745908,-92.1696504
516,South Country Club Drive,65109,38.5798520,-92.2645922
1024,East McCarty Street,65101,38.5664551,-92.1617399
932,Ellis Boulevard,65101,38.5451906,-92.1831365
101,Madison Street,65101,38.5777487,-92.1687591
415,West McCarty Street,65101,38.5787684,-92.1783306
820,Chestnut Street,65101,38.5626920,-92.1705298
330,Commerce Drive,65102,38.5890413,-92.2318143
709,East Dunklin Street,65101,38.5671306,-92.1679540
706,East Dunklin Street,65101,38.5667867,-92.1690305
710,East Dunklin Street,65101,38.5661238,-92.1687002
812,East Dunklin Street,65101,38.5653023,-92.1677244
712,Lee Drive,65101,38.5643597,-92.1667517
816,Chestnut Street,65101,38.5647343,-92.1682747
711,Lee Drive,65101,38.5638766,-92.1659257
1004,East Dunklin Street,65101,38.5642195,-92.1653572
800,Locust Street,65101,38.5631707,-92.1658116
817,Lee Drive,65101,38.5633560,-92.1665759
804B,Atchison Court,65101,38.5630601,-92.1672176
804A,Atchison Court,65101,38.5628601,-92.1669428
818,Lee Drive,65101,38.5634872,-92.1671243
822,Lee Drive,65101,38.5631243,-92.1677114
925,East Atchison Street,65101,38.5624774,-92.1675733
925,Atchison Court,65101,38.5625373,-92.1671955
819,Chestnut Street,65101,38.5640244,-92.1681160
825,Chestnut Street,65101,38.5634642,-92.1683145
824,Chestnut Street,65101,38.5638851,-92.1692375
822,Chestnut Street,65101,38.5641170,-92.1696203
820,Chestnut Street,65101,38.5646687,-92.1694220
900,Chestnut Street,65101,38.5637516,-92.1699938
904,Chestnut Street,65101,38.5633448,-92.1698461
821,Taylor Drive,65101,38.5648456,-92.1702205
823,Taylor Drive,65101,38.5644430,-92.1702605
809,Lafayette Street,65101,38.5654481,-92.1708279
821,Lafayette Street,65101,38.5651361,-92.1712392
903,Lafayette Street,65101,38.5645666,-92.1718117
804,Fairmount Boulevard,65101,38.5627853,-92.1695373
918,Taylor Drive,65101,38.5633278,-92.1707328
920,Taylor Drive,65101,38.5627428,-92.1708289
1002,Chestnut Street,65101,38.5622470,-92.1712848
1220,Chestnut Street,65101,38.5591908,-92.1750828
1204,Chestnut Street,65101,38.5596947,-92.1753961
900,Leslie Boulevard,65101,38.5570549,-92.1756804
1219,Chestnut Street,65101,38.5577788,-92.1742094
1005,Chestnut Street,65101,38.5614790,-92.1706625
931,McClung Park Drive,65101,38.5586727,-92.1725611
605,Union Street,65101,38.5634556,-92.1773243
1101,Jackson Street,65101,38.5641618,-92.1771651
501,East Miller Street,65101,38.5710456,-92.1686403
320,East McCarty Street,65101,38.5731463,-92.1703965
350,East High Street,65101,38.5738714,-92.1694802
401,Monroe Street,65101,38.5735182,-92.1709582
305,East McCarty Street,65101,38.5741317,-92.1705548
422,Monroe Street,65101,38.5735493,-92.1722944
501,Madison Street,65101,38.5732994,-92.1732178
400,East Miller Street,65101,38.5721077,-92.1713097
501,Monroe Street,65101,38.5727496,-92.1722145
111,East Miller Street,65101,38.5746226,-92.1737457
217,East McCarty Street,65101,38.5747305,-92.1713565
130,East McCarty Street,65101,38.5750526,-92.1727370
101,West McCarty Street,65101,38.5760330,-92.1741039
201,West McCarty Street,65101,38.5768894,-92.1752512
320,Washington Street,65101,38.5772067,-92.1749160
230,West McCarty Street,65101,38.5778562,-92.1758078
318,Washington Street,65101,38.5774056,-92.1747333
314,Jackson Street,65101,38.5726033,-92.1683759
515,East McCarty Street,65101,38.5720396,-92.1675692
511,East McCarty Street,65101,38.5721270,-92.1677160
525,East McCarty Street,65101,38.5717887,-92.1672748
504,East High Street,65101,38.5729735,-92.1671764
428,East Capitol Avenue,65101,38.5742758,-92.1666425
209,Adams Street,65101,38.5746187,-92.1675647
415,Commercial Avenue,65101,38.5745026,-92.1672883
410,East Capitol Avenue,65101,38.5745251,-92.1669899
927,4th Street,65101,38.5970479,-92.1722928
401,Supercenter Drive,65101,38.5410629,-92.1186758
815,Eastland Drive,65101,38.5494846,-92.1495503
900,Eastland Drive,65101,38.5487039,-92.1509653
701,Eastland Drive,65101,38.5500627,-92.1492535
701,Eastland Drive,65101,38.5498808,-92.1489176
1305,Swifts Highway,65109,38.5672816,-92.1925428
1125,Madison Street,65101,38.5659206,-92.1813430
424,Stadium Boulevard,65101,38.5611772,-92.1821308
1431,Christy Drive,65101,38.5613379,-92.1874596
201,West Capitol Avenue,65101,38.5792144,-92.1729724
2100,Jefferson Street,65109-2066,38.5511196,-92.2022728
1937,Christy Drive,65101-2202,38.5513921,-92.1990665
1926,Jefferson Street,65109,38.5523486,-92.2007843
1920,Jefferson Street,65109,38.5525969,-92.2001525
2505,Mission Drive,65109,38.5581498,-92.2222478
319,West Miller Street,65101,38.5772121,-92.1785536
3600,Country Club Drive,65109,38.5860369,-92.2528511
208,West McCarty Street,65101,38.5774000,-92.1751304
410,Madison Street,65101,38.5747292,-92.1730100
113,West Miller Street,65101,38.5751050,-92.1755015
500,Jefferson Street,65101,38.5749808,-92.1751459
510,Jefferson Street,65101,38.5748921,-92.1753886
512,Jefferson Street,65101,38.5747043,-92.1754165
514,Jefferson Street,65101,38.5746698,-92.1755485
107,Adams Street,65101,38.5756649,-92.1663702
101,Adams Street,65101,38.5758048,-92.1660505
520,East State Street,65101,38.5743159,-92.1641791
201,East Capitol Avenue,65101,38.5771211,-92.1695903
207,East Capitol Avenue,65101,38.5770346,-92.1694674
211,East Capitol Avenue,65101,38.5769564,-92.1693578
213,East Capitol Avenue,65101,38.5768984,-92.1692640
215,East Capitol Avenue,65101,38.5768036,-92.1692449
217,East Capitol Avenue,65101,38.5768085,-92.1690928
221,East Capitol Avenue,65101,38.5767115,-92.1690455
223,East Capitol Avenue,65101,38.5767172,-92.1689447
227,East Capitol Avenue,65101,38.5766058,-92.1689396
231,East Capitol Avenue,65101,38.5765346,-92.1687153
117,Madison Street,65101,38.5772324,-92.1694675
111,Madison Street,65101,38.5773791,-92.1692960
109,Madison Street,65101,38.5774334,-92.1692327
216,Madison Street,65101,38.5768096,-92.1707698
214,Madison Street,65101,38.5768642,-92.1707042
212,Madison Street,65101,38.5769105,-92.1706488
208,Madison Street,65101,38.5769057,-92.1705295
200,Madison Street,65101,38.5770996,-92.1705017
323,Monroe Street,65101,38.5742903,-92.1704852
310,East Miller Street,65101,38.5725637,-92.1718446
316,East Miller Street,65101,38.5725041,-92.1717168
318,East Miller Street,65101,38.5724098,-92.1716725
320,East Miller Street,65101,38.5723875,-92.1715365
208,Marshall Street,65101,38.5731493,-92.1655280
528,East Capitol Avenue,65101,38.5732937,-92.1652635
526,East Capitol Avenue,65101,38.5734095,-92.1653776
522,East Capitol Avenue,65101,38.5735119,-92.1654887
518,East Capitol Avenue,65101,38.5736463,-92.1656524
514,East Capitol Avenue,65101,38.5737180,-92.1658268
512,East Capitol Avenue,65101,38.5738188,-92.1659427
504,East Capitol Avenue,65101,38.5739020,-92.1660368
500,East Capitol Avenue,65101,38.5739821,-92.1661405
531,East Capitol Avenue,65101,38.5736305,-92.1648080
109,Jackson Street,65101,38.5747113,-92.1651711
105,Jackson Street,65101,38.5748728,-92.1651577
103,Jackson Street,65101,38.5749850,-92.1649968
101,Jackson Street,65101,38.5750683,-92.1648749
505,East State Street,65101,38.5752430,-92.1643946
100,Jackson Street,65101,38.5752953,-92.1653869
114,Jackson Street,65101,38.5748936,-92.1657795
429,East Capitol Avenue,65101,38.5747226,-92.1660744
419,East Capitol Avenue,65101,38.5748126,-92.1663659
417,East Capitol Avenue,65101,38.5749224,-92.1664741
413,East Capitol Avenue,65101,38.5750198,-92.1665987
409,East Capitol Avenue,65101,38.5750625,-92.1667551
407,East Capitol Avenue,65101,38.5751439,-92.1668162
405,East Capitol Avenue,65101,38.5751780,-92.1669260
401,East Capitol Avenue,65101,38.5752659,-92.1670210
113,Adams Street,65101,38.5753991,-92.1668710
109,Adams Street,65101,38.5755676,-92.1666617
515,East High Street,65101,38.5730117,-92.1664954
507,East High Street,65101,38.5731691,-92.1666920
503,East High Street,65101,38.5732835,-92.1668113
213,Jackson Street,65101,38.5735534,-92.1666886
211,Jackson Street,65101,38.5736298,-92.1665988
415,East High Street,65101,38.5739991,-92.1677993
417,East High Street,65101,38.5739101,-92.1676681
419,East High Street,65101,38.5738422,-92.1675827
421,East High Street,65101,38.5737783,-92.1674807
423,East High Street,65101,38.5736953,-92.1673986
425,East High Street,65101,38.5736115,-92.1672692
214,Jackson Street,65101,38.5737135,-92.1670956
212,Jackson Street,65101,38.5738074,-92.1670170
600,East State Street,65101,38.5741489,-92.1636640
606,East State Street,65101,38.5739732,-92.1635529
608,East State Street,65101,38.5739406,-92.1634605
610,East State Street,65101,38.5738851,-92.1633830
100,Lafayette Street,65101,38.5735098,-92.1627488
104,Lafayette Street,65101,38.5733338,-92.1628856
106,Lafayette Street,65101,38.5732793,-92.1629568
108,Lafayette Street,65101,38.5732188,-92.1630264
110,Lafayette Street,65101,38.5731607,-92.1630982
615,East Capitol Avenue,65101,38.5730869,-92.1640788
611,East Capitol Avenue,65101,38.5731983,-92.1642191
601,East Capitol Avenue,65101,38.5733819,-92.1644568
600,East Capitol Avenue,65101,38.5730579,-92.1648709
606,East Capitol Avenue,65101,38.5728841,-92.1647011
612,East Capitol Avenue,65101,38.5727711,-92.1645089
616,East Capitol Avenue,65101,38.5726667,-92.1643964
618,East Capitol Avenue,65101,38.5725682,-92.1642730
624,East Capitol Avenue,65101,38.5723974,-92.1640486
211,Marshall Street,65101,38.5726054,-92.1653163
601,East High Street,65101,38.5723610,-92.1655396
609,East High Street,65101,38.5721871,-92.1653015
615,East High Street,65101,38.5721321,-92.1652232
617,East High Street,65101,38.5720593,-92.1650961
621,East High Street,65101,38.5719558,-92.1649642
623,East High Street,65101,38.5718810,-92.1648838
631,East High Street,65101,38.5717774,-92.1648011
633,East High Street,65101,38.5717035,-92.1646955
214,Lafayette Street,65101,38.5718516,-92.1646261
212,Lafayette Street,65101,38.5719413,-92.1645291
210,Lafayette Street,65101,38.5720287,-92.1644315
701,East High Street,65101,38.5715525,-92.1642641
626,East High Street,65101,38.5714958,-92.1651987
624,East High Street,65101,38.5715850,-92.1652544
620,East High Street,65101,38.5715893,-92.1654180
618,East High Street,65101,38.5716971,-92.1654178
616,East High Street,65101,38.5717333,-92.1655157
600,East High Street,65101,38.5721253,-92.1660001
303,Marshall Street,65101,38.5719696,-92.1661684
307,Marshall Street,65101,38.5718313,-92.1663005
416,East High Street,65101,38.5735708,-92.1680669
420,East High Street,65101,38.5734830,-92.1680104
422,East High Street,65101,38.5734650,-92.1678658
426,East High Street,65101,38.5732637,-92.1676427
308,Jackson Street,65101,38.5729885,-92.1679660
312,Jackson Street,65101,38.5727781,-92.1682185
425,East McCarty Street,65101,38.5727388,-92.1686089
421,East McCarty Street,65101,38.5728045,-92.1687281
415,East McCarty Street,65101,38.5728800,-92.1688568
413,East McCarty Street,65101,38.5729626,-92.1689373
409,East McCarty Street,65101,38.5730906,-92.1691171
502,East McCarty Street,65101,38.5719636,-92.1683212
501,East McCarty Street,65101,38.5723132,-92.1679382
321,Jackson Street,65101,38.5724635,-92.1678849
317,Jackson Street,65101,38.5725331,-92.1678022
311,Jackson Street,65101,38.5726035,-92.1677154
309,Jackson Street,65101,38.5726713,-92.1675795
307,Jackson Street,65101,38.5727407,-92.1675345
514,East High Street,65101,38.5725712,-92.1669567
517,East McCarty Street,65101,38.5719077,-92.1675217
320,Marshall Street,65101,38.5716520,-92.1671920
312,Marshall Street,65101,38.5718345,-92.1669871
310,Marshall Street,65101,38.5719254,-92.1668588
308,Marshall Street,65101,38.5720468,-92.1667079
306,Marshall Street,65101,38.5721086,-92.1666482
304,Marshall Street,65101,38.5721837,-92.1665859
302,Marshall Street,65101,38.5722289,-92.1664591
530,East High Street,65101,38.5723396,-92.1663602
520,East High Street,65101,38.5724747,-92.1667128
3550,Country Club Drive,65101,38.5871743,-92.2496873
1716,Jefferson Street,65109,38.5565115,-92.1954267
1590,Jefferson Street,65109,38.5598796,-92.1920023
3514,Amazonas Drive,65109,38.5897970,-92.2497680
3621,West Truman Boulevard,65109,38.5902447,-92.2525880
1225,West Stadium Boulevard,65109,38.5702798,-92.2156925
1710,Jefferson Street,65109,38.5569854,-92.1948655
701,West McCarty Street,65101,38.5815713,-92.1817860
849,Stoneridge Parkway,65109,38.5777337,-92.2223091
1241,West Stadium Boulevard,65109,38.5700496,-92.2144074
610,Bolivar Street,65101,38.5796496,-92.1824022
505,Missouri Boulevard,65101,38.5788548,-92.1813110
1905,Southwest Boulevard,65109,38.5548729,-92.1990605
314,Ellis Boulevard,65101,38.5523637,-92.1953037
1918,Jefferson Street,65109-2062,38.5531957,-92.1996155
305,Ash Street,65101,38.5686440,-92.1615824
2011,Missouri Boulevard,65109,38.5806578,-92.2041873
1425,Missouri Boulevard,65109,38.5790750,-92.1951922
1730,East Elm Street,65101,38.5529320,-92.1521670
1709,Missouri Boulevard,65109,38.5803434,-92.1985692
2525,State Highway B,65101,38.5324047,-92.1799319
511,Missouri Boulevard,65101,38.5786512,-92.1817363
612,Castle Drive,65109,38.6018226,-92.2103613
608,Castle Drive,65109,38.6015779,-92.2101836
600,Castle Drive,65109,38.6011516,-92.2097050
508,Castle Drive,65109,38.6003302,-92.2089912
506,Castle Drive,65109,38.6001359,-92.2088753
418,Castle Drive,65109,38.5990680,-92.2080631
414,Castle Drive,65109,38.5987206,-92.2078520
410,Castle Drive,65109,38.5984093,-92.2076332
2215,West Main Street,65109,38.5917223,-92.2103503
308,West Main Street,65101,38.5805067,-92.1740742
2017,Christy Drive,65101,38.5505013,-92.2001336
3520,West Edgewood Drive,65109,38.5702496,-92.2515935
1735,Elm Court,65101,38.5536757,-92.1506787
631,Lafayette Street,65101,38.5673453,-92.1688955
601,Jackson Street,65101,38.5691193,-92.1704015
305,East Miller Street,65101,38.5731870,-92.1715930
