House number,Street name,Postal code,Latitude,Longitude
1624,Northwest Chipman Road,64081,38.9295508,-94.4069643
1860,Northwest Chipman Road,64081,38.9311783,-94.4083269
1608,Northwest Chipman Road,64081,38.9303119,-94.4074059
1616,Northwest Chipman Road,64081-3934,38.9299364,-94.4071698
900,Northeast Langsford Road,64086,38.9179815,-94.3608676
1305,Northeast Douglas Street,64086,38.9354512,-94.3776958
900,Northeast Columbus Street,64086,38.9212875,-94.3597143
300,Rice Road,64086,38.9184218,-94.3609119
125,"Southeast State Route 291, Lee's Summit",64063,38.9155546,-94.3615230
103,South 291 Highway,64063-2938,38.9162139,-94.3606815
301,Northeast Rice Road,64086,38.9191005,-94.3595427
1686,Northwest Chipman Road,64081,38.9266462,-94.4065028
951,Northeast Sam Walton Lane,64086,38.9294005,-94.3608408
1027,Northeast Rice Road,64086,38.9313117,-94.3587809
1808,Northwest Chipman Road,64063,38.9267380,-94.4109660
1716,Northwest Chipman Road,64081,38.9285909,-94.4090240
1850,Northwest Chipman Road,64081-3938,38.9313117,-94.4093352
1850,Northwest Chipman Road,64081,38.9314286,-94.4099789
206,Southeast 2nd Street,64063,38.9153565,-94.3748035
970,Northwest Blue Parkway,64086,38.9318064,-94.4029958
901,East Langsford Road,64063,38.9169694,-94.3605582
1211,Northeast Rice Road,64086,38.9338286,-94.3587914
1800,Southwest State Route 150,64082,38.8553101,-94.4137701
180,Southeast Mo-150 Highway,64082,38.8528539,-94.3708226
783,NE Anderson Ln,64064,39.0025684,-94.3592429
3680,Northeast Akin Drive,64064,38.9810443,-94.3620725
310,Southwest Ward Road,64081,38.9097297,-94.3976302
310,Southwest Ward Road,64081,38.9099307,-94.3975417
300,Southwest Blue Parkway,64063,38.9054097,-94.3796300
1553,NE Tawny Drive,64086,38.9411346,-94.3462444
2150,East Langsford Road,64063,38.9172869,-94.3305139
4045,NE Lakewood Way,64064,38.9859641,-94.3552636
900,Northeast Deerbrook,64086,38.9360589,-94.3588268
1014,Southeast Blue Parkway,64063,38.9036127,-94.3558124
880F,Northwest Blue Parkway,64086,38.9306845,-94.4031427
312,SW Greenwich Dr,64082,38.8503947,-94.3819975
3151,Northeast Carnegie Drive,64064,38.9691948,-94.3596659
910,Northwest Blue Parkway,64086,38.9312649,-94.4022631
226,Southeast Douglas Street,64063,38.9127392,-94.3764612
1624,Southeast Blue Parkway,64029,38.9038815,-94.3443956
4045,Northeast Lakewood Way,64064,38.9857702,-94.3552062
314,Southwest Blue Parkway,64086,38.9058127,-94.3809246
211,NW Executive Way,64063,38.9158384,-94.3972072
688,SE Bayberry Lane,64063,38.9073922,-94.3605847
601,NE Woods Chapel Road,64064,38.9824183,-94.3658891
250,NW Commerce Ct,64086,38.9291817,-94.3873661
3365,Southwest Fascination Drive,64081,38.9110606,-94.4504253
2603,Northeast Hagen Road,64064,38.9591420,-94.3610280
1720,Southeast Blue Parkway,64063,38.9038856,-94.3417465
901,Chipman Road,64063-2317,38.9252160,-94.3990980
611,Northeast Ridgeview Drive,64086,38.9240070,-94.3578721
222,Southwest Main Street,64063,38.9121854,-94.3784675
17,Northeast Skyline Drive,64086,38.9349776,-94.3802860
1809,Southeast Blue Parkway,64063,38.9036381,-94.3389072
319,Southeast Douglas Street,64063,38.9120067,-94.3756516
307,Southeast Douglas Street,64063,38.9123823,-94.3759058
309,Southeast Douglas Street,64063,38.9123376,-94.3758752
1255,Northeast Rice Road,64086,38.9351655,-94.3588177
210,Southeast Douglas Street,64063,38.9133941,-94.3770076
410D,Southeast 3rd Street,64063,38.9147548,-94.3710415
1701,Northeast Douglas Street,64086,38.9422622,-94.3775074
901,Northeast Bluestem Drive,64086,38.9270468,-94.3127295
905,Northeast Bluestem Drive,64086,38.9276127,-94.3111679
1830,Northwest Chipman Road,64081,38.9298257,-94.4117898
1820,Northwest Chipman Road,64081,38.9279612,-94.4115356
901,Northeast Douglas Street,64086,38.9288522,-94.3774605
400,Southeast Blue Parkway,64063,38.9060429,-94.3659363
3701,Southwest Hollywood Drive,64082,38.8523556,-94.3806676
125,Southwest M150 Highway,64081,38.8521523,-94.3778152
3650,Southwest Windemere Drive,64082,38.8533944,-94.3876707
4224,Southwest Flintrock Circle,64082,38.8442076,-94.4056218
4220,Southwest Flintrock Circle,64082,38.8444018,-94.4057737
4216,Southwest Flintrock Circle,64082,38.8446381,-94.4058541
4212,Southwest Flintrock Circle,64082,38.8448528,-94.4056355
4208,Southwest Flintrock Circle,64082,38.8448285,-94.4053019
4204,Southwest Flintrock Circle,64082,38.8446252,-94.4051285
4200,Southwest Flintrock Circle,64082,38.8443976,-94.4050789
301,Northeast Rice Road,64086,38.9190625,-94.3594417
2600,Southwest 3rd Street,64081,38.9138879,-94.4324670
2801,Southwest Pryor Road,64082,38.8696257,-94.4145319
500,Southwest Longview Road,64081,38.9097324,-94.4546188
1901,Northwest Lowenstein Drive,64086,38.9281593,-94.4158690
190,Northeast Tudor Road,64086,38.9310325,-94.3776843
2751,Northeast Douglas Street,64064,38.9587269,-94.3708523
600,Southeast Oldham Parkway,64081,38.9013394,-94.3625663
651,Southeast Oldham Parkway,64081,38.8992956,-94.3612360
1251,Southeast Ranson Road,64063,38.8957003,-94.3392899
700,Southwest Old Pryor Road,64081,38.9103836,-94.4174164
700,Southwest Old Pryor Road,64081,38.9079274,-94.4162336
3275,Southwest 3rd Street,64081,38.9126964,-94.4479116
3901,Southwest Longview Road,64081,38.9104840,-94.4608468
300,Southwest Main Street,64063,38.9116718,-94.3779701
10,Southwest 3rd Street,64063,38.9117904,-94.3785909
20,Southwest 3rd Street,64063,38.9116838,-94.3788891
100,Southwest 3rd Street,64063,38.9114298,-94.3792744
18,Southwest 3rd Street,64063,38.9117145,-94.3788164
22,Southwest 3rd Street,64063,38.9116534,-94.3789661
115,Southwest 3rd Street,64063,38.9107059,-94.3795456
300,Southeast Third,64063,38.9140762,-94.3730408
11,Southeast 3rd Street,64063,38.9122361,-94.3766289
9,Southeast 3rd Street,64063,38.9121106,-94.3767491
5,Southeast 3rd Street,64063,38.9120748,-94.3768422
1840,Northwest Chipman Road,64081,38.9323351,-94.4115508
4001,Northeast Lakewood Court,64064,38.9839709,-94.3543169
4401,Northeast Lakewood Way,64064,38.9919647,-94.3553080
651,NE St Andrews Cir,64064,39.0075816,-94.3594152
5536,NE Northgate Crossing,64064,39.0132751,-94.3633921
751,Woods Chapel Road,64064,38.9820207,-94.3611091
3701,Northeast Ralph Powell Road,64064,38.9790890,-94.3574613
800,Woods Chapel Road,64064,38.9832238,-94.3597077
850,Northeast Woods Chapel Road,64064-1906,38.9831848,-94.3583697
750,Woods Chapel Road,64064,38.9830010,-94.3607523
700,Woods Chapel Road,64064,38.9833335,-94.3619209
2901,Northwest Lee's Summit Road,64064,38.9655647,-94.3834364
100,Northeast Saint Luke's Boulevard,64086,38.9414256,-94.3810466
110,Southeast Green Street,64063,38.9150339,-94.3769497
2901,Northwest Lee's Summit Road,64064,38.9663780,-94.3832008
1404,Southwest Market Street,64063,38.8933534,-94.3768596
3410,Southwest Market Street,64082,38.8570516,-94.3780425
200,Southwest 150 Highway,64082,38.8532412,-94.3798959
551,Southeast Melody Lane,64063,38.9086238,-94.3617332
601,Southeast Bayberry Lane,64063,38.9073619,-94.3616286
676,Southeast Bayberry Lane,64063,38.9074035,-94.3612127
672,Southeast Bayberry Lane,64063,38.9079179,-94.3611762
688,Southeast Bayberry Lane,64063,38.9074172,-94.3606008
656,Southeast Bayberry Lane,64063,38.9075516,-94.3599901
1000,Northeast Sam Walton Lane,64086,38.9305258,-94.3637162
1450,NE M-291 Hwy,64086,38.9383972,-94.3609032
220,Southeast Green Street,64063,38.9134399,-94.3755657
901,Northeast Douglas Street,64086,38.9281572,-94.3749213
1201,Northwest Innovation Parkway,64086,38.9337186,-94.3943694
2100,Southeast Blue Parkway,64063,38.9036517,-94.3329370
1700,Northeast Bowlin Road,64064,39.0011667,-94.3373807
897,Northeast Bluestem Drive,64086,38.9259855,-94.3118744
130,Southeast 7th Street,64063,38.9065937,-94.3493143
1135,Northeast Douglas,64086,38.9329684,-94.3780742
1130,Northeast Douglas Street,64086,38.9329898,-94.3793930
404,Woods Chapel Road,64064,38.9832400,-94.3704632
840,Northwest Blue Parkway,64086,38.9281493,-94.4020256
3004,Southwest Arthur Drive,64082,38.8663346,-94.4295072
3000,Southwest Arthur Drive,64082,38.8666072,-94.4294801
2930,Southwest Arthur Drive,64082,38.8668664,-94.4294506
2926,Southwest Arthur Drive,64082,38.8671128,-94.4294378
3020,Southwest Arthur Drive,64082,38.8653092,-94.4293088
3016,Southwest Arthur Drive,64082,38.8655963,-94.4293492
3012,Southwest Arthur Drive,64082,38.8658482,-94.4294047
3008,Southwest Arthur Drive,64082,38.8660881,-94.4294570
300,Southeast Brownfield Drive,64063,38.9133575,-94.3424303
1125,Southwest Hoke Drive,64081,38.9030482,-94.3983837
608,Northeast Twin Brook Drive,64086,38.9223503,-94.3275652
700,Southwest Derby Drive,64081,38.9070463,-94.4379880
1107,Southeast Princeton Court,64081,38.8977959,-94.3381613
1125,Northeast Ridgeview Drive,64063,38.9394557,-94.3570528
1105,Northeast Westwind Drive,64086,38.9320486,-94.3566310
2308,Northeast Twin Brook Drive,64086,38.9253297,-94.3265002
1017,Southeast 3rd Terrace,64063,38.9131171,-94.3553021
1021,Northeast Copperwood Drive,64086,38.9296030,-94.3407225
1012,Southeast 3rd Terrace,64063,38.9135288,-94.3552294
1019,Southeast 3rd Terrace,64063,38.9131043,-94.3550115
4286,Southwest Averio Lane,64082,38.8403234,-94.3886748
2317,Northeast Old Paint Road,64086,38.9261518,-94.3262653
321,Southeast Melody Lane,64063,38.9120440,-94.3613362
524,Southeast Onyx Drive,64063,38.9082007,-94.3333651
2221,5th Terrace,64063,38.9078286,-94.3282880
1761,Northeast Blue Heron Court,64086,38.9430981,-94.3236156
202,Northwest Market Place,64063,38.9154643,-94.3825238
1847,Northeast Knollbrook Street,64086,38.9183652,-94.3371812
211,NW Shagbark Street,64064,38.9905167,-94.3829320
2140,Northeast Concord Street,64086,38.9250922,-94.3307895
509,Northwest Brookhaven Drive,64081,38.9242088,-94.4196978
2333,NW Summerfield Drive,64081,38.9320370,-94.4214563
1804,Northeast Griffin Drive,64086,38.9292100,-94.3394536
501,Northeast Timbercreek Drive,64086,38.9202322,-94.3394063
4510,Northwest Lake Drive,64064,38.9946846,-94.3818511
501,Southeast Timbercreek Drive,64086,38.8956947,-94.3406289
2313,SE 5th Terrace,64063,38.9077464,-94.3272763
2313,Shenandoah Drive,64063,38.9050773,-94.3280535
425,SE Ashton Drive,64063,38.9086176,-94.3282464
536,Southeast Ashton Drive,64063,38.9085340,-94.3320516
532,Northeast Parkview Place,64086,38.9213651,-94.3170346
1800,Northeast Mc Kee Lane,64086,38.9237569,-94.3383563
813,Southeast Hocker Court,64081,38.8896854,-94.3524789
809,Southeast Hocker Court,64081,38.8899211,-94.3524169
805,Southeast Hocker Court,64081,38.8901070,-94.3525181
801,Southeast Hocker Court,64081,38.8901996,-94.3527538
800,Southeast Hocker Court,64081,38.8901106,-94.3530277
804,Southeast Hocker Court,64081,38.8899227,-94.3531477
808,Southeast Hocker Court,64081,38.8897226,-94.3531294
812,Southeast Hocker Court,64081,38.8895327,-94.3531390
816,Southeast Hocker Court,64081,38.8892882,-94.3531066
820,Southeast Hocker Court,64081,38.8891637,-94.3528433
501,Northeast Doran Drive,64086,38.9202527,-94.3087619
521,Northeast Doran Drive,64086,38.9214186,-94.3087350
513,Northeast Doran Drive,64086,38.9209403,-94.3087503
504,Northeast Doran Drive,64086,38.9205189,-94.3093660
508,Northeast Doran Drive,64086,38.9207351,-94.3093502
512,Northeast Doran Drive,64086,38.9209508,-94.3093461
516,Northeast Doran Drive,64086,38.9211706,-94.3093391
520,Northeast Doran Drive,64086,38.9213963,-94.3093228
3055,Northeast Marywood Lane,64086,38.9197491,-94.3099158
3059,Northeast Marywood Lane,64086,38.9197475,-94.3095682
3063,Northeast Marywood Lane,64086,38.9197365,-94.3092602
3101,Northeast Doran Drive,64086,38.9197365,-94.3089634
3105,Northeast Marywood Lane,64086,38.9197364,-94.3086683
3125,Northeast Marywood Lane,64086,38.9197377,-94.3066065
505,Northeast Hidden View Lane,64086,38.9204625,-94.3076832
508,Northeast Legacy View Dr,64086,38.9206856,-94.3071689
509,Northeast Legacy View Dr,64086,38.9205409,-94.3065653
500,Northeast Doran Drive,64086,38.9202741,-94.3093751
517,Northeast Doran Drive,64086,38.9211833,-94.3087489
509,Northeast Doran Drive,64086,38.9207203,-94.3087593
505,Northeast Doran Drive,64086,38.9205100,-94.3087493
1112,Southwest Arborway Drive,64082,38.8602528,-94.4006200
1101,SW Arborway Dr,64082,38.8599431,-94.4001344
1053,SW Arborway Dr,64082,38.8591319,-94.3991356
1017,SW Arborway Cir,64082,38.8582122,-94.3991764
1253,SW Wysteria Dr,64082,38.8581722,-94.4011119
1256,SW Wysteria Dr,64082,38.8589306,-94.4033167
1200,SW Arborcrest Dr,64082,38.8593366,-94.4012906
1813,SW Blackstone Pl,64082,38.8476898,-94.4161619
1522,SW Blackstone Pl,64082,38.8474757,-94.4171046
1530,SW Blackstone Pl,64082,38.8488189,-94.4099001
1531,SW Blackstone Pl,64082,38.8484079,-94.4101014
1607,SW Blackstone Pl,64082,38.8484067,-94.4104388
1615,SW Blackstone Pl,64082,38.8482892,-94.4109753
4012,SW Meritage Ln,64082,38.8481730,-94.4129505
1841,SW Blackstone Ct,64082,38.8467912,-94.4155400
1849,SW Blackstone Ct,64082,38.8469294,-94.4160446
1809,SW Stoney Brook Dr,64082,38.8467987,-94.4134140
1816,SW Blackstone Ct,64082,38.8472725,-94.4143735
1824,SW Blackstone Pl,64082,38.8473415,-94.4148922
1824,SW Blackstone Pl,64082,38.8472857,-94.4146190
1804,SW Blackstone Pl,64082,38.8472675,-94.4135792
18287,SW Blackstone Pl,64082,38.8474195,-94.4151399
1829,SW Blackstone Pl,64082,38.8468470,-94.4147120
1832,SW Blackstone Pl,64082,38.8475175,-94.4153666
1836,SW Blackstone Pl,64082,38.8476149,-94.4155953
1809,SW Napa Valley Dr,64082,38.8486022,-94.4141686
1900,SW Napa Valley Dr,64082,38.8499561,-94.4156878
1848,SW Blackstone Ct,64082,38.8467327,-94.4158616
2509,NW Windwood Drive,64081,38.9275228,-94.4293405
2514,NW Windwood Drive,64081,38.9277671,-94.4299624
2511,NW Windwood Drive,64081,38.9275229,-94.4297315
2710,Northwest Chipman Road,64081,38.9282258,-94.4331181
920,Northwest Bent Tree Drive,64081,38.9313843,-94.4359507
848,Northwest High Point Drive,64081,38.9304609,-94.4267439
844,Northwest High Point Drive,64081,38.9304147,-94.4264266
409,NW View High Drive,64081,38.9229418,-94.4494284
1016,Northwest Silverthorn Drive,64081,38.9327598,-94.4276932
940,Northwest High Point Drive,64081,38.9318333,-94.4302938
525,Northwest Highcliffe Drive,64081,38.9241769,-94.4182951
849,Northwest High Point Drive,64081,38.9309043,-94.4266938
204,NW Shagbark Street,64064,38.9906508,-94.3817810
428,Northeast Victoria Drive,64086,38.9386629,-94.3701866
1506,Northeast Yorkshire Circle,64086,38.9394025,-94.3690258
1512,Northeast Yorkshire Circle,64086,38.9395087,-94.3698115
1514,Northeast Yorkshire Circle,64086,38.9397651,-94.3695727
1504,Northeast Yorkshire Circle,64086,38.9395315,-94.3688111
1508,Northeast Yorkshire Circle,64086,38.9392754,-94.3693180
1508,Northeast Yorkshire Circle,64086,38.9393005,-94.3696060
1518,Northeast Yorkshire Drive,64086,38.9398985,-94.3691808
1836,SW Napa Valley Dr,64082,38.8492581,-94.4150462
1848,SW Napa Valley Dr,64082,38.8488896,-94.4154249
1833,SW Napa Valley Dr,64082,38.8488130,-94.4152501
1840,SW Napa Valley Dr,64082,38.8493912,-94.4152498
1844,SW Napa Valley Dr,64082,38.8494900,-94.4153852
1832,SW Napa Valley Dr,64082,38.8491683,-94.4148830
1824,SW Napa Valley Dr,64082,38.8491224,-94.4147131
1820,SW Napa Valley Dr,64082,38.8490616,-94.4145544
1813,SW Napa Valley Dr,64082,38.8486065,-94.4143569
1829,SW Napa Valley Dr,64082,38.8487439,-94.4150879
1817,SW Napa Valley Dr,64082,38.8486171,-94.4145199
1821,SW Napa Valley Dr,64082,38.8486145,-94.4147340
18254,SW Napa Valley Dr,64082,38.8486393,-94.4149150
5725,Northeast Misty Meadow Way,64064,39.0164298,-94.3708212
704,Northeast Aaron Drive,64086,38.9253101,-94.3434984
821,Northeast Michael Drive,64086,38.9277928,-94.3441777
2301,SE 5th Terrace,64063,38.9078291,-94.3280436
805,Northeast Bryant Drive,64086,38.9268925,-94.3450822
912,Northeast Bryant Drive,64086,38.9286509,-94.3462345
1712,Northeast Woodland Shores Lane,64086,38.9421983,-94.3187925
1663,Northeast Lashbrook Court,64086,38.9402522,-94.3208661
2405,Northeast Lake Breeze Drive,64086,38.9384026,-94.3248188
632,SE Athens Drive,64063,38.9054992,-94.3278009
445,Southeast Ashton Drive,64063,38.9086332,-94.3294754
4556,Southwest Gull Point Drive,64082,38.8353418,-94.3901865
4722,Southwest Gull Point Trail,64082,38.8334113,-94.3912924
340,Southwest Raintree Drive,64082,38.8423878,-94.3849074
342,Southwest Raintree Drive,64082,38.8424947,-94.3849569
344,Southwest Raintree Drive,64082,38.8425957,-94.3850049
348,Southwest Raintree Drive,64082,38.8428091,-94.3851177
350,Southwest Raintree Drive,64082,38.8429141,-94.3851657
352,Southwest Raintree Drive,64082,38.8430066,-94.3852112
332,Southwest Raintree Drive,64082,38.8419728,-94.3846916
334,Southwest Raintree Drive,64082,38.8421072,-94.3847590
336,Southwest Raintree Drive,64082,38.8422310,-94.3848237
201,Southwest Mackenzie Drive,64081,38.9150796,-94.4447237
205,Southwest Mackenzie Drive,64081,38.9148367,-94.4448423
209,Southwest Mackenzie Drive,64081,38.9146154,-94.4449953
213,Southwest Mackenzie Drive,64081,38.9144356,-94.4452218
2213,NW Ashurst Drive,64081,38.9226269,-94.4188341
3208,Southwest Julie Lane,64082,38.8626887,-94.4187544
1825,Southwest Scherer Road,64082,38.8896969,-94.4126962
507,Southeast Colony Drive,64063,38.9093508,-94.3526240
1528,Northeast Jade Street,64086,38.9407364,-94.3476902
2272,Southwest Morris Drive,64082,38.8648441,-94.4269105
2711,Southwest Arthur Drive,64082,38.8716929,-94.4287269
3604,Northeast Independence Avenue,64064,38.9785002,-94.3648725
2404,Southwest Kristin Drive,64082,38.8713111,-94.4314779
2700,Southwest Arthur Drive,64082,38.8724637,-94.4295996
3609,Southwest Crane Road,64082,38.8560176,-94.4160366
4713,Southwest Gull Point Trail,64082,38.8338711,-94.3907718
740,SW Estates Dr,64082,38.8356749,-94.3945361
709,Southwest Admiral Byrd Drive,64082,38.8327780,-94.3922126
739,SW Estates Dr,64082,38.8351514,-94.3945535
4664,Southwest Soldier Drive,64082,38.8359653,-94.3971017
4648,Southwest Soldier Drive,64082,38.8367762,-94.3970609
4640,Southwest Soldier Drive,64082,38.8371010,-94.3970394
4657,Southwest Soldier Drive,64082,38.8362960,-94.3970837
4632,Southwest Soldier Drive,64082,38.8374539,-94.3970533
4636,Southwest Soldier Drive,64082,38.8372679,-94.3970304
4627,Southwest Soldier Drive,64082,38.8381060,-94.3971614
2425,NW Windwood Drive,64081,38.9274679,-94.4270429
2101,Southwest Roberts Court,64082,38.8636794,-94.4211715
2113,Southwest Roberts Court,64082,38.8632468,-94.4215593
2117,Southwest Roberts Court,64082,38.8633811,-94.4217790
4108,SW Stoney Brook Dr,64082,38.8458924,-94.4126953
4120,SW Stoney Brook Dr,64082,38.8449678,-94.4127606
4124,SW Stoney Brook Dr,64082,38.8447631,-94.4127756
4128,SW Stoney Brook Dr,64082,38.8445529,-94.4127898
4132,SW Stoney Brook Dr,64082,38.8443317,-94.4128083
1600,SW Whistle Drive,64082,38.8452719,-94.4104289
1624,SW Whistle Drive,64082,38.8454136,-94.4121655
2702,Northwest Chipman Road,64081,38.9275968,-94.4315742
1217,NE Birchwood Drive,64086,38.9343137,-94.3493838
901,Northeast Colleen Drive,64086,38.9289442,-94.3426898
720,Southeast 11th Street,64081,38.8984311,-94.3549427
711,Southwest Murray Road,64081,38.9062838,-94.4042916
3524,Northeast Stanton Street,64064,38.9779361,-94.3673117
502,Northwest Holly Lane,64086,38.9393469,-94.4051958
612,Northwest Village Drive,64063,38.9230156,-94.3985268
613,Northwest Kay Drive,64063,38.9235333,-94.3960256
411,Northeast Inverrary St,64064,39.0003642,-94.3647073
1200,Northeast Hendrix Drive,64086,38.9332321,-94.3468007
2422,NW Windwood Drive,64081,38.9278381,-94.4267394
432,SE Ashton Drive,64063,38.9090222,-94.3284450
5321,Northeast Northgate Crossing,64064,39.0097411,-94.3671976
804,Southwest Pleasant Drive,64081,38.9057792,-94.3907568
183,NE Rosewood Court,64064,38.9783412,-94.3781273
506,Northwest Woodbine Avenue,64063,38.9178318,-94.3958032
205 1/2,Northeast Maggie Avenue,64063,38.9222016,-94.3768241
605A,Northeast Chipman Road,64063,38.9243418,-94.3686488
604B,Northeast Douglas Street,64063,38.9232646,-94.3808437
3500,Southwest Dana Avenue,64082,38.8565999,-94.3971531
1433,Southwest Walnut Street,64081,38.8946718,-94.3862662
719,Southeast Wingate Street,64063,38.9054422,-94.3512334
1116,Southeast Monterey Drive,64081,38.8977463,-94.3374083
917,Southeast 12th Street,64081,38.8964805,-94.3502957
612,Northeast Swann Circle,64086,38.9291329,-94.3659975
452,Northeast Churchill Street,64086,38.9197196,-94.3368025
1032,Northeast Bristol Drive,64086,38.9306298,-94.3272686
1016,Southeast 12th Street,64081,38.8968356,-94.3478435
1665,Southeast Dalton Drive,64081,38.8883814,-94.3530100
224,Northeast Victoria Drive,64086,38.9369882,-94.3747049
244,Northeast Victoria Drive,64086,38.9377636,-94.3737644
643,Southwest Philip Street,64082,38.8556610,-94.3909403
2301,Northeast Lake Breeze Lane,64086,38.9391682,-94.3223203
614,Northwest Kay Drive,64063,38.9238176,-94.3963750
3196,Southwest Mowat Drive,64081,38.9156203,-94.4454531
303,Southwest Pryor Road,64081,38.9113909,-94.4132567
1303,Southwest Highland Drive,64081,38.8978621,-94.3847748
1854,NE Parks Summit Boulevard,64064,38.9925839,-94.3343488
200,Northwest Whitlock Drive,64081,38.9156685,-94.4234752
710,Southeast 13th Street,64081,38.8952438,-94.3554759
714,Southeast 13th Street,64081,38.8952422,-94.3553438
613,Southeast Richardson Place,64063,38.9061341,-94.3580726
1301,Southeast Broadway Circle,64081,38.8946527,-94.3572480
302,Northwest Bramble Trail Circle,64064,38.9940901,-94.3842719
4325,Southeast Canter Drive,64082,38.8400044,-94.3668336
3135,Southwest Tiara Lane,64082,38.8624748,-94.4204074
2113,Southwest Chase Drive,64082,38.8614616,-94.4226033
3117,Southwest Ragan Drive,64082,38.8635417,-94.4251335
3224,Southwest Amber Circle,64082,38.8613618,-94.4190591
4201,SW Stoney Brook Dr,64082,38.8437613,-94.4115763
4204,SW Stoney Brook Dr,64082,38.8439137,-94.4126412
4205,SW Stoney Brook Dr,64082,38.8436062,-94.4113680
4209,SW Stoney Brook Dr,64082,38.8434821,-94.4111795
2144,State Route 150,64082,38.8547033,-94.4226707
4208,SW Stoney Brook Dr,64082,38.8437524,-94.4124578
4212,SW Stoney Brook Dr,64082,38.8436146,-94.4122513
4216,SW Stoney Brook Dr,64082,38.8434882,-94.4120647
4220,SW Stoney Brook Dr,64082,38.8433591,-94.4118686
4224,SW Stoney Brook Dr,64082,38.8432345,-94.4116829
4213,SW Stoney Brook Dr,64082,38.8433749,-94.4109634
4217,SW Stoney Brook Dr,64082,38.8432334,-94.4107628
4221,SW Stoney Brook Dr,64082,38.8431279,-94.4105013
4225,SW Stoney Brook Dr,64082,38.8430929,-94.4102251
4229,SW Stoney Brook Dr,64082,38.8430568,-94.4099542
1508,SW Cross Creek Dr,64082,38.8435209,-94.4095271
1552,SW Cross Creek Dr,64082,38.8445701,-94.4119716
1556,SW Cross Creek Dr,64082,38.8445665,-94.4122185
1548,SW Cross Creek Dr,64082,38.8445624,-94.4117107
1544,SW Cross Creek Dr,64082,38.8445665,-94.4114573
1536,SW Cross Creek Dr,64082,38.8444663,-94.4108944
3151,Southwest Pryor Road,64082,38.8635080,-94.4162968
3125,Southwest Pryor Road,64082,38.8639509,-94.4142201
616,Northeast Shoreline Drive,64082,38.9957795,-94.3634737
228,Southwest Raintree Drive,64082,38.8400216,-94.3829577
1527,Southeast 7th Terrace,64063,38.9053356,-94.3447019
924,Southeast 3rd Terrace,64063,38.9136121,-94.3576755
4633,Southwest Soldier Drive,64082,38.8374316,-94.3965096
4621,Southwest Soldier Drive,64082,38.8381632,-94.3975860
4510,Southwest Olympia Drive,64082,38.8377538,-94.3991390
4665,Southwest Soldier Drive,64082,38.8359495,-94.3965759
4604,Southwest Soldier Drive,64082,38.8377810,-94.3985223
4624,Southwest Soldier Drive,64082,38.8377263,-94.3974470
4620,Southwest Soldier Drive,64082,38.8377510,-94.3976781
4612,Southwest Soldier Drive,64082,38.8377663,-94.3981056
4608,Southwest Soldier Drive,64082,38.8377735,-94.3983105
4431,Southwest Amethyst Drive,64082,38.8400014,-94.4118787
1609,Southwest Merryman Drive,64082,38.8395670,-94.4112548
1505,Southwest Merryman Drive,64082,38.8395115,-94.4097281
1513,Southwest Merryman Drive,64082,38.8395335,-94.4102342
1501,Southwest 44th Street,64082,38.8403284,-94.4094633
1513,Southwest 44th Street,64082,38.8403437,-94.4102368
1509,Southwest 44th Street,64082,38.8403354,-94.4099686
1525,Southwest 44th Street,64082,38.8403713,-94.4110331
1524,SW 44th Street,64082,38.8408330,-94.4110171
1500,SW 44th Street,64082,38.8407896,-94.4094369
1504,SW 44th Street,64082,38.8407703,-94.4096891
1520,SW 44th Street,64082,38.8408137,-94.4107490
1516,Southwest Merryman Drive,64082,38.8399978,-94.4105178
5121,Southwest Royal Tern Point,64082,38.8271453,-94.3991850
4514,Southwest Olympia Drive,64082,38.8375873,-94.3991431
4506,Southwest Olympia Drive,64082,38.8379161,-94.3991192
4502,Southwest Olympia Drive,64082,38.8380808,-94.3991051
1613,Southwest Merryman Drive,64082,38.8396016,-94.4125208
1700,Southwest Merryman Drive,64082,38.8399916,-94.4132357
1705,Southwest Merryman Drive,64082,38.8396393,-94.4134583
1709,Southwest Merryman Drive,64082,38.8396453,-94.4137942
1713,Southwest Merryman Drive,64082,38.8396567,-94.4141765
1205,Southeast 3rd Street,64063,38.9135307,-94.3510996
1501,SW Whistle Drive,64082,38.8436862,-94.4089878
1505,SW Whistle Drive,64082,38.8438387,-94.4091796
1509,SW Whistle Drive,64082,38.8439859,-94.4093767
1513,SW Whistle Drive,64082,38.8441074,-94.4095678
1516,SW Whistle Drive,64082,38.8445879,-94.4094028
1520,SW Whistle Drive,64082,38.8447060,-94.4096093
1524,SW Whistle Drive,64082,38.8448406,-94.4098239
1528,SW Whistle Drive,64082,38.8449734,-94.4100063
1532,SW Whistle Drive,64082,38.8451091,-94.4102195
1305,Southwest Rylee Lane,64082,38.8483798,-94.4054556
1208,SW Rylee LN,64082,38.8488426,-94.4035397
1500,SW Whistle Drive,64082,38.8440390,-94.4086094
1504,SW Whistle Drive,64082,38.8441712,-94.4088188
1508,SW Whistle Drive,64082,38.8443056,-94.4090114
1512,SW Whistle Drive,64082,38.8444411,-94.4092131
4044,SW Benziger Drive,64082,38.8467610,-94.4168442
1532,SW Cross Creek Dr,64082,38.8443298,-94.4106754
1606,SW Blackstone Pl,64082,38.8488129,-94.4104355
1608,SW Blackstone Pl,64082,38.8487899,-94.4107306
4041,SW Benziger Drive,64082,38.8468638,-94.4165407
1609,SW 41st Street,64082,38.8457712,-94.4110466
1548,SW 41st Street,64082,38.8462022,-94.4102697
1524,SW 41st Street,64082,38.8461594,-94.4087019
1504,SW Cross Creek Dr,64082,38.8433220,-94.4093850
3705,SW Granite Lane,64082,38.8527309,-94.4069864
1540,SW Cross Creek Dr,64082,38.8445318,-94.4111767
1529,SW Cross Creek Dr,64082,38.8441262,-94.4115490
1533,SW Cross Creek Dr,64082,38.8441230,-94.4118079
1537,SW Cross Creek Dr,64082,38.8441241,-94.4120640
1525,SW Cross Creek Dr,64082,38.8440761,-94.4112575
1521,SW Cross Creek Dr,64082,38.8439436,-94.4110064
1517,SW Cross Creek Dr,64082,38.8438086,-94.4108116
1200,SW 40th Street,64082,38.8468577,-94.4036218
1528,SW 41st Street,64082,38.8461817,-94.4089601
1532,SW 41st Street,64082,38.8461877,-94.4092174
1529,SW 41st Street,64082,38.8457404,-94.4091225
1533,SW 41st Street,64082,38.8457391,-94.4093994
1537,SW 41st Street,64082,38.8457436,-94.4096747
1541,SW 41st Street,64082,38.8457363,-94.4099551
1536,SW 41st Street,64082,38.8461985,-94.4094890
1540,SW 41st Street,64082,38.8462007,-94.4097588
1544,SW 41st Street,64082,38.8462253,-94.4100098
1600,SW 41st Street,64082,38.8462276,-94.4105342
1604,SW 41st Street,64082,38.8462246,-94.4108069
1608,SW 41st Street,64082,38.8462240,-94.4110680
1612,SW 41st Street,64082,38.8462510,-94.4113299
1616,SW 41st Street,64082,38.8462426,-94.4115895
1620,SW 41st Street,64082,38.8462726,-94.4118537
1624,SW 41st Street,64082,38.8462568,-94.4121233
1525,SW 41st Street,64082,38.8457397,-94.4088564
1545,SW 41st Street,64082,38.8457788,-94.4102305
1601,SW 41st Street,64082,38.8457787,-94.4104933
1605,SW 41st Street,64082,38.8457897,-94.4107702
1613,SW 41st Street,64082,38.8457967,-94.4113224
1617,SW 41st Street,64082,38.8457967,-94.4115940
1621,SW 41st Street,64082,38.8458063,-94.4118648
1625,SW 41st Street,64082,38.8458146,-94.4121612
4100,SW Stoney Brook Dr,64082,38.8463658,-94.4126826
1212,Southeast 3rd Terrace,64063,38.9131395,-94.3501650
1215,Southeast 4th Street,64063,38.9127000,-94.3498936
509,Southwest Haverford Road,64081,38.9095761,-94.4453603
513,Southwest Haverford Road,64081,38.9094326,-94.4452208
501,Southwest Haverford Road,64081,38.9098751,-94.4456251
2605,Northwest Chipman Road,64081,38.9269309,-94.4290563
320,Northwest Nutall Drive,64081,38.9210217,-94.4389522
2805,NW Audubon Ln,64081,38.9189525,-94.4374057
2808,Northwest Audubon Lane,64081,38.9195788,-94.4377407
2812,Northwest Audubon Lane,64081,38.9196325,-94.4380929
2804,NW Audubon Ln,64081,38.9195953,-94.4373417
2800,NW Audubon Ln,64081,38.9194115,-94.4369851
2801,NW Audubon Ln,64081,38.9191072,-94.4370267
2809,Northwest Audubon Lane,64081,38.9191169,-94.4377779
2813,Northwest Audubon Lane,64081,38.9191548,-94.4381142
1513,SW Cross Creek Dr,64082,38.8436687,-94.4106433
1509,SW Cross Creek Dr,64082,38.8435423,-94.4104260
1505,SW Cross Creek Dr,64082,38.8434196,-94.4102256
1512,SW Cross Creek Dr,64082,38.8436693,-94.4097346
1500,SW Cross Creek Dr,64082,38.8430405,-94.4093524
1516,SW Cross Creek Dr,64082,38.8438023,-94.4099296
1520,SW Cross Creek Dr,64082,38.8439300,-94.4101282
1524,SW Cross Creek Dr,64082,38.8440608,-94.4103178
1528,SW Cross Creek Dr,64082,38.8442036,-94.4104921
2401,Northeast Lake Breeze Point,64086,38.9386364,-94.3251186
2217,SE 7th Street,64063,38.9051207,-94.3293242
1700,Northeast Woodland Shores Drive,64086,38.9414582,-94.3190970
2516,Southeast Winchester Drive,64063,38.9049244,-94.3230904
824,Northeast Adams Drive,64086,38.9277526,-94.3468211
1301,Southeast Princeton Place,64063,38.8968164,-94.3360737
1403,Southeast 2nd Street,64063,38.9155791,-94.3478190
305,Southwest Glendana Drive,64081,38.8946977,-94.3783749
1751,Northeast Missouri Road,64086,38.9432138,-94.3763153
1451,Northeast Douglas Street,64086,38.9386887,-94.3766712
3201,Southwest Fascination Drive,64081,38.9116242,-94.4479377
815,Southeast 3rd Street,64063,38.9145625,-94.3636355
1744,NE Aberdeen Drive,64064,38.9944033,-94.3353786
3151,Northeast Carnegie Drive,64064,38.9691761,-94.3596548
2516,Southwest Rustic Circle,64082,38.8767286,-94.4312450
2512,Southwest Rustic Circle,64082,38.8768397,-94.4309798
2508,Southwest Rustic Circle,64082,38.8769563,-94.4307621
851,Northeast Woods Chapel Road,64064,38.9820454,-94.3583186
1664,Northwest Chipman Road,64081,38.9272266,-94.4064514
210,Southwest Market Street,64063,38.9117588,-94.3798600
333,Southeast Douglas Street,64063,38.9114069,-94.3751304
400,Southeast Douglas Street,64063-4247,38.9107647,-94.3754015
2401,Southwest Old Port Road,64082,38.8816042,-94.4298122
2405,Southwest Old Port Road,64082,38.8815138,-94.4300673
2409,Southwest Old Port Road,64082,38.8813822,-94.4302584
2404,Southwest Old Port Road,64082,38.8819900,-94.4301697
2412,Southwest Old Port Road,64082,38.8817793,-94.4306062
2416,Southwest Old Port Road,64082,38.8816365,-94.4307889
2420,Southwest Old Port Road,64082,38.8815247,-94.4309628
2428,Southwest Old Port Road,64082,38.8812313,-94.4313293
2432,Southwest Old Port Road,64082,38.8810912,-94.4314767
2436,Southwest Old Port Road,64082,38.8809576,-94.4316483
2417,Southwest Old Port Road,64082,38.8811186,-94.4306566
2400,Southwest Hickory Lane,64082,38.8810885,-94.4295345
2404,Southwest Hickory Lane,64082,38.8809574,-94.4297751
2408,Southwest Hickory Lane,64082,38.8808664,-94.4299846
2412,Southwest Hickory Lane,64082,38.8807633,-94.4302017
2416,Southwest Hickory Lane,64082,38.8806388,-94.4303798
2420,Southwest Hickory Lane,64082,38.8805392,-94.4306059
2424,Southwest Hickory Lane,64082,38.8803944,-94.4307722
2428,Southwest Hickory Lane,64082,38.8802789,-94.4309694
2405,Southwest Hickory Lane,64082,38.8806111,-94.4294230
2409,Southwest Hickory Lane,64082,38.8805175,-94.4296546
2413,Southwest Hickory Lane,64082,38.8804024,-94.4298347
2417,Southwest Hickory Lane,64082,38.8802774,-94.4300349
2421,Southwest Hickory Lane,64082,38.8801677,-94.4302272
2400,Southwest Cabin Camp Road,64082,38.8785420,-94.4284720
2404,Southwest Cabin Camp Road,64082,38.8785400,-94.4287885
2408,Southwest Cabin Camp Road,64082,38.8785225,-94.4290470
2412,Southwest Cabin Camp Road,64082,38.8785135,-94.4293350
2416,Southwest Cabin Camp Road,64082,38.8784705,-94.4295930
2420,Southwest Cabin Camp Road,64082,38.8783955,-94.4298675
2424,Southwest Cabin Camp Road,64082,38.8783165,-94.4301135
2428,Southwest Cabin Camp Road,64082,38.8782280,-94.4303595
2432,Southwest Cabin Camp Road,64082,38.8781215,-94.4306075
2500,Southwest Cabin Camp Road,64082,38.8779380,-94.4309375
2504,Southwest Cabin Camp Road,64082,38.8778140,-94.4311300
2508,Southwest Cabin Camp Road,64082,38.8776985,-94.4313325
2512,Southwest Cabin Camp Road,64082,38.8775740,-94.4315265
2516,Southwest Cabin Camp Road,64082,38.8774535,-94.4317320
2520,Southwest Cabin Camp Road,64082,38.8773345,-94.4319260
2524,Southwest Cabin Camp Road,64082,38.8772165,-94.4321270
2528,Southwest Cabin Camp Road,64082,38.8770890,-94.4323195
2532,Southwest Cabin Camp Road,64082,38.8769810,-94.4325195
2401,Southwest Cabin Camp Road,64082,38.8781225,-94.4283685
2405,Southwest Cabin Camp Road,64082,38.8781120,-94.4286355
2409,Southwest Cabin Camp Road,64082,38.8781055,-94.4288885
2413,Southwest Cabin Camp Road,64082,38.8780655,-94.4291600
2417,Southwest Cabin Camp Road,64082,38.8780480,-94.4294320
2421,Southwest Cabin Camp Road,64082,38.8779885,-94.4296995
2425,Southwest Cabin Camp Road,64082,38.8779120,-94.4299490
2429,Southwest Cabin Camp Road,64082,38.8777935,-94.4301930
2501,Southwest Cabin Camp Road,64082,38.8775670,-94.4306615
2505,Southwest Cabin Camp Road,64082,38.8774225,-94.4308830
2509,Southwest Cabin Camp Road,64082,38.8773040,-94.4310770
2513,Southwest Cabin Camp Road,64082,38.8771850,-94.4312815
2517,Southwest Cabin Camp Road,64082,38.8770640,-94.4314695
2521,Southwest Cabin Camp Road,64082,38.8769415,-94.4316770
2525,Southwest Cabin Camp Road,64082,38.8768230,-94.4318795
2640,Southwest Golden Eagle Road,64082,38.8766530,-94.4321630
2709,Southwest Golden Eagle Road,64082,38.8768920,-94.4331270
2705,Southwest Golden Eagle Road,64082,38.8767200,-94.4329830
2701,Southwest Golden Eagle Road,64082,38.8765805,-94.4328235
2641,Southwest Golden Eagle Road,64082,38.8764325,-94.4326835
2637,Southwest Golden Eagle Road,64082,38.8762800,-94.4325320
2629,Southwest Golden Eagle Road,64082,38.8759650,-94.4322230
2633,Southwest Golden Eagle Road,64082,38.8761140,-94.4323895
2625,Southwest Golden Eagle Road,64082,38.8758302,-94.4320965
2621,Southwest Golden Eagle Road,64082,38.8756640,-94.4319220
2617,Southwest Golden Eagle Road,64082,38.8755125,-94.4317650
2613,Southwest Golden Eagle Road,64082,38.8753905,-94.4315685
2609,Southwest Golden Eagle Road,64082,38.8752570,-94.4313805
2605,Southwest Golden Eagle Road,64082,38.8751535,-94.4311720
2601,Southwest Golden Eagle Road,64082,38.8750460,-94.4309520
2636,Southwest Golden Eagle Road,64082,38.8764730,-94.4320335
2632,Southwest Golden Eagle Road,64082,38.8763190,-94.4318665
2628,Southwest Golden Eagle Road,64082,38.8761540,-94.4317205
2620,Southwest Golden Eagle Road,64082,38.8759989,-94.4315644
2500,Southwest Rustic Circle,64082,38.8771895,-94.4303210
2504,Southwest Rustic Circle,64082,38.8770720,-94.4305490
2520,Southwest Rustic Circle,64082,38.8764965,-94.4312930
2521,Southwest Rustic Circle,64082,38.8762660,-94.4311530
2517,Southwest Rustic Circle,64082,38.8762390,-94.4308635
2513,Southwest Rustic Circle,64082,38.8763715,-94.4306345
2509,Southwest Rustic Circle,64082,38.8765460,-94.4304860
2505,Southwest Rustic Circle,64082,38.8766970,-94.4302830
2501,Southwest Rustic Circle,64082,38.8768185,-94.4300415
2524,Southwest Current Lane,64082,38.8754670,-94.4307955
2520,Southwest Current Lane,64082,38.8756440,-94.4306620
2516,Southwest Current Lane,64082,38.8758195,-94.4305230
2512,Southwest Current Lane,64082,38.8759900,-94.4303795
2508,Southwest Current Lane,64082,38.8761390,-94.4301760
2504,Southwest Current Lane,64082,38.8762715,-94.4299720
2500,Southwest Current Lane,64082,38.8763955,-94.4297450
2401,Southwest Rustic Road,64082,38.8775470,-94.4299840
2405,Southwest Rustic Road,64082,38.8773685,-94.4298380
2409,Southwest Rustic Road,64082,38.8772165,-94.4297155
2413,Southwest Rustic Road,64082,38.8770500,-94.4295910
2417,Southwest Rustic Road,64082,38.8768680,-94.4294665
2557,Southwest Golden Eagle Road,64082,38.8748965,-94.4306065
2521,Southwest Current Lane,64082,38.8752740,-94.4302435
2553,Southwest Golden Eagle Road,64082,38.8748415,-94.4303500
2517,Southwest Current Lane,64082,38.8754900,-94.4301530
2511,Southwest Current Lane,64082,38.8756825,-94.4299745
2507,Southwest Current Lane,64082,38.8758445,-94.4297680
2501,Southwest Current Lane,64082,38.8759875,-94.4295205
2504,Southwest Rustic Court,64082,38.8757480,-94.4292785
2508,Southwest Rustic Court,64082,38.8755875,-94.4290680
2512,Southwest Rustic Court,64082,38.8755890,-94.4287930
2509,Southwest Rustic Court,64082,38.8757545,-94.4286040
2505,Southwest Rustic Court,64082,38.8759645,-94.4286190
2433,Southwest Current Lane,64082,38.8762005,-94.4289870
2436,Southwest Current Lane,64082,38.8765935,-94.4292680
2432,Southwest Current Lane,64082,38.8766535,-94.4290005
2428,Southwest Current Lane,64082,38.8766980,-94.4287350
2424,Southwest Current Lane,64082,38.8767565,-94.4284820
2420,Southwest Current Lane,64082,38.8767895,-94.4282060
2429,Southwest Current Lane,64082,38.8762660,-94.4287260
2425,Southwest Current Lane,64082,38.8763165,-94.4284685
2500,Southwest Valley Ridge Lane,64082,38.8763565,-94.4281110
2415,Southwest Switchback Circle,64082,38.8772065,-94.4290830
2416,Southwest Switchback Circle,64082,38.8774070,-94.4291960
2414,Southwest Switchback Circle,64082,38.8776205,-94.4290550
2412,Southwest Switchback Circle,64082,38.8776845,-94.4287700
2411,Southwest Switchback Circle,64082,38.8771225,-94.4287965
2409,Southwest Switchback Circle,64082,38.8771585,-94.4285210
2549,Southwest Golden Eagle Road,64082,38.8747725,-94.4300980
2546,Southwest Golden Eagle Road,64082,38.8751805,-94.4298840
2545,Southwest Golden Eagle Road,64082,38.8747385,-94.4298560
2541,Southwest Golden Eagle Road,64082,38.8747015,-94.4295920
2537,Southwest Golden Eagle Road,64082,38.8746780,-94.4293300
2533,Southwest Golden Eagle Road,64082,38.8747105,-94.4290675
2529,Southwest Golden Eagle Road,64082,38.8747250,-94.4288135
2525,Southwest Golden Eagle Road,64082,38.8747645,-94.4285530
2521,Southwest Golden Eagle Road,64082,38.8748090,-94.4283100
2517,Southwest Golden Eagle Road,64082,38.8748750,-94.4280500
2513,Southwest Golden Eagle Road,64082,38.8749455,-94.4278005
2509,Southwest Golden Eagle Road,64082,38.8750500,-94.4275810
2505,Southwest Golden Eagle Road,64082,38.8751570,-94.4273610
2501,Southwest Golden Eagle Road,64082,38.8752910,-94.4271125
2437,Southwest Golden Eagle Road,64082,38.8755575,-94.4268145
2433,Southwest Golden Eagle Road,64082,38.8756955,-94.4266375
2429,Southwest Golden Eagle Road,64082,38.8758425,-94.4264755
2425,Southwest Golden Eagle Road,64082,38.8759805,-94.4263290
2421,Southwest Golden Eagle Road,64082,38.8761330,-94.4261585
2417,Southwest Golden Eagle Road,64082,38.8762625,-94.4259730
2413,Southwest Golden Eagle Road,64082,38.8764280,-94.4258450
2411,Southwest Golden Eagle Road,64082,38.8765855,-94.4256770
2409,Southwest Golden Eagle Road,64082,38.8767380,-94.4255475
2405,Southwest Golden Eagle Road,64082,38.8768925,-94.4253880
2401,Southwest Golden Eagle Road,64082,38.8770515,-94.4252580
2357,Southwest Feather Ridge Road,64082,38.8774560,-94.4249490
2353,Southwest Feather Ridge Road,64082,38.8776350,-94.4248215
2349,Southwest Feather Ridge Road,64082,38.8778170,-94.4247280
2345,Southwest Feather Ridge Road,64082,38.8779885,-94.4246155
2341,Southwest Feather Ridge Road,64082,38.8781630,-94.4245120
2337,Southwest Feather Ridge Road,64082,38.8783460,-94.4244200
2333,Southwest Feather Ridge Road,64082,38.8785180,-94.4242660
2329,Southwest Feather Ridge Road,64082,38.8787035,-94.4241730
2325,Southwest Feather Ridge Road,64082,38.8788755,-94.4240035
2321,Southwest Feather Ridge Road,64082,38.8790340,-94.4238605
2317,Southwest Feather Ridge Road,64082,38.8791965,-94.4237235
2313,Southwest Feather Ridge Road,64082,38.8793675,-94.4235855
2309,Southwest Feather Ridge Road,64082,38.8795470,-94.4234765
2305,Southwest Feather Ridge Road,64082,38.8797165,-94.4233840
2301,Southwest Feather Ridge Road,64082,38.8799080,-94.4232685
2542,Southwest Golden Eagle Road,64082,38.8751480,-94.4296200
2538,Southwest Golden Eagle Road,64082,38.8751260,-94.4293705
2534,Southwest Golden Eagle Road,64082,38.8751330,-94.4290990
2530,Southwest Golden Eagle Road,64082,38.8751570,-94.4288580
2526,Southwest Golden Eagle Road,64082,38.8751960,-94.4285970
2520,Southwest Golden Eagle Road,64082,38.8752605,-94.4283520
2514,Southwest Golden Eagle Road,64082,38.8753250,-94.4281005
2508,Southwest Golden Eagle Road,64082,38.8754075,-94.4278680
2516,Southwest Valley Ridge Lane,64082,38.8756100,-94.4275280
2512,Southwest Valley Ridge Lane,64082,38.8757705,-94.4277220
2508,Southwest Valley Ridge Lane,64082,38.8759585,-94.4278710
2504,Southwest Valley Ridge Lane,64082,38.8761480,-94.4280130
2515,Southwest Valley Ridge Lane,64082,38.8758970,-94.4271200
2511,Southwest Valley Ridge Lane,64082,38.8760625,-94.4273150
2505,Southwest Valley Ridge Lane,64082,38.8762365,-94.4274515
2501,Southwest Valley Ridge Lane,64082,38.8764530,-94.4275625
2428,Southwest Golden Eagle Road,64082,38.8761170,-94.4268860
2424,Southwest Golden Eagle Road,64082,38.8762705,-94.4267305
2408,Southwest Switchback Circle,64082,38.8776150,-94.4285070
2407,Southwest Switchback Circle,64082,38.8772120,-94.4282655
2404,Southwest Switchback Circle,64082,38.8776635,-94.4282400
2405,Southwest Switchback Circle,64082,38.8772500,-94.4279885
2403,Southwest Switchback Circle,64082,38.8773255,-94.4277285
2400,Southwest Switchback Circle,64082,38.8777255,-94.4279365
2401,Southwest Switchback Circle,64082,38.8774635,-94.4274995
2416,Southwest Current Lane,64082,38.8768475,-94.4279495
2412,Southwest Current Lane,64082,38.8768800,-94.4276810
2409,Southwest Current Lane,64082,38.8765740,-94.4271505
2408,Southwest Current Lane,64082,38.8769580,-94.4274250
2407,Southwest Current Lane,64082,38.8767035,-94.4269020
2405,Southwest Current Lane,64082,38.8768545,-94.4267145
2404,Southwest Current Lane,64082,38.8771070,-94.4271850
2400,Southwest Current Lane,64082,38.8772970,-94.4270500
2420,Southwest Golden Eagle Road,64082,38.8764160,-94.4265520
2403,Southwest Current Lane,64082,38.8770455,-94.4265695
2401,Southwest Current Lane,64082,38.8772395,-94.4264900
2416,Southwest Golden Eagle Road,64082,38.8765725,-94.4263945
2408,Southwest Golden Eagle Road,64082,38.8768730,-94.4260895
2404,Southwest Golden Eagle Road,64082,38.8770325,-94.4259420
2400,Southwest Golden Eagle Road,64082,38.8772005,-94.4257935
2357,Southwest Switchback Court,64082,38.8778170,-94.4271520
2352,Southwest Switchback Court,64082,38.8781585,-94.4276385
2353,Southwest Switchback Court,64082,38.8779745,-94.4270230
2349,Southwest Switchback Court,64082,38.8781770,-94.4268955
2348,Southwest Switchback Court,64082,38.8783950,-94.4275435
2344,Southwest Switchback Court,64082,38.8784835,-94.4272460
2345,Southwest Switchback Court,64082,38.8783875,-94.4269850
2356,Southwest Feather Ridge Road,64082,38.8775965,-94.4254770
2352,Southwest Feather Ridge Road,64082,38.8777740,-94.4253480
2356,Southwest Current Court,64082,38.8776700,-94.4264545
2352,Southwest Current Court,64082,38.8778840,-94.4264565
2348,Southwest Current Court,64082,38.8780845,-94.4263995
2344,Southwest Current Court,64082,38.8782670,-94.4263570
2340,Southwest Current Court,64082,38.8784345,-94.4261615
2341,Southwest Current Court,64082,38.8784355,-94.4258580
2345,Southwest Current Court,64082,38.8782815,-94.4256685
2349,Southwest Current Court,64082,38.8780610,-94.4256835
2353,Southwest Current Court,64082,38.8778825,-94.4258775
2357,Southwest Current Court,64082,38.8776720,-94.4259115
2348,Southwest Feather Ridge Road,64082,38.8779555,-94.4252315
2344,Southwest Feather Ridge Road,64082,38.8781335,-94.4251335
2340,Southwest Feather Ridge Road,64082,38.8783075,-94.4250310
2336,Southwest Feather Ridge Road,64082,38.8784755,-94.4249345
2332,Southwest Feather Ridge Road,64082,38.8786615,-94.4248385
2328,Southwest Feather Ridge Road,64082,38.8788240,-94.4247055
2320,Southwest Feather Ridge Road,64082,38.8791510,-94.4244285
2316,Southwest Feather Ridge Road,64082,38.8793145,-94.4242800
2312,Southwest Feather Ridge Road,64082,38.8794775,-94.4241345
2308,Southwest Feather Ridge Road,64082,38.8796535,-94.4240220
2304,Southwest Feather Ridge Road,64082,38.8798270,-94.4239095
2300,Southwest Feather Ridge Road,64082,38.8800265,-94.4238325
2321,Southwest River Spring Circle,64082,38.8788330,-94.4252565
2323,Southwest River Spring Circle,64082,38.8787470,-94.4255495
2325,Southwest River Spring Road,64082,38.8789130,-94.4258725
2319,Southwest River Spring Road,64082,38.8791790,-94.4252405
2317,Southwest River Spring Road,64082,38.8793505,-94.4250005
2313,Southwest River Spring Road,64082,38.8795315,-94.4247975
2309,Southwest River Spring Road,64082,38.8797020,-94.4246225
2305,Southwest River Spring Road,64082,38.8799070,-94.4244770
2301,Southwest River Spring Road,64082,38.8801235,-94.4243315
2329,Southwest River Spring Road,64082,38.8788715,-94.4261705
2333,Southwest River Spring Road,64082,38.8788275,-94.4264145
2337,Southwest River Spring Road,64082,38.8788210,-94.4266760
2341,Southwest River Spring Road,64082,38.8788120,-94.4269520
2345,Southwest River Spring Road,64082,38.8788425,-94.4272185
2349,Southwest River Spring Road,64082,38.8788825,-94.4274735
2353,Southwest River Spring Road,64082,38.8789220,-94.4277290
2357,Southwest River Spring Road,64082,38.8789715,-94.4280175
2356,Southwest River Spring Road,64082,38.8794195,-94.4280705
2352,Southwest River Spring Road,64082,38.8793860,-94.4277750
2348,Southwest River Spring Road,64082,38.8793535,-94.4275145
2344,Southwest River Spring Road,64082,38.8793030,-94.4272710
2340,Southwest River Spring Road,64082,38.8792570,-94.4269905
2336,Southwest River Spring Road,64082,38.8792470,-94.4267305
2332,Southwest River Spring Road,64082,38.8792730,-94.4264685
2328,Southwest River Spring Road,64082,38.8792995,-94.4262170
2324,Southwest River Spring Road,64082,38.8793670,-94.4259610
2320,Southwest River Spring Road,64082,38.8794620,-94.4257345
2316,Southwest River Spring Road,64082,38.8795835,-94.4255315
2345,Southwest Hawkview Road,64082,38.8799310,-94.4280055
2341,Southwest Hawkview Road,64082,38.8798225,-94.4277510
2337,Southwest Hawkview Road,64082,38.8797290,-94.4275010
2333,Southwest Hawkview Road,64082,38.8796600,-94.4272560
2329,Southwest Hawkview Road,64082,38.8796200,-94.4269915
2325,Southwest Hawkview Road,64082,38.8796345,-94.4267145
2321,Southwest Hawkview Road,64082,38.8796775,-94.4264520
2317,Southwest Hawkview Road,64082,38.8797560,-94.4261925
2313,Southwest Hawkview Road,64082,38.8798650,-94.4259650
2309,Southwest Hawkview Road,64082,38.8800185,-94.4257655
2305,Southwest Hawkview Road,64082,38.8801840,-94.4256225
2301,Southwest Hawkview Road,64082,38.8803820,-94.4254810
2312,Southwest River Spring Road,64082,38.8797200,-94.4253355
2308,Southwest River Spring Road,64082,38.8798780,-94.4251570
2304,Southwest River Spring Road,64082,38.8800475,-94.4250015
2300,Southwest River Spring Road,64082,38.8802520,-94.4248820
2300,Southwest Hawkview Road,64082,38.8804985,-94.4260160
2308,Southwest Hawkview Road,64082,38.8802965,-94.4261905
2316,Southwest Hawkview Road,64082,38.8801520,-94.4264090
2324,Southwest Hawkview Road,64082,38.8800915,-94.4266680
2328,Southwest Hawkview Road,64082,38.8800715,-94.4269365
2336,Southwest Hawkview Road,64082,38.8801005,-94.4272325
2340,Southwest Hawkview Road,64082,38.8801705,-94.4274765
2344,Southwest Hawkview Road,64082,38.8802965,-94.4276960
2363,Southwest Eagle View Drive,64082,38.8805985,-94.4271550
2359,Southwest Eagle View Drive,64082,38.8804665,-94.4269715
2355,Southwest Eagle View Drive,64082,38.8804525,-94.4266915
2351,Southwest Eagle View Drive,64082,38.8806040,-94.4264840
2400,Southwest Coldwater Circle,64082,38.8767330,-94.4239745
2404,Southwest Coldwater Circle,64082,38.8765390,-94.4240285
2408,Southwest Coldwater Circle,64082,38.8763675,-94.4241585
2412,Southwest Coldwater Circle,64082,38.8761455,-94.4241075
2416,Southwest Coldwater Circle,64082,38.8760180,-94.4238745
2413,Southwest Coldwater Circle,64082,38.8760535,-94.4235825
2409,Southwest Coldwater Circle,64082,38.8762610,-94.4234180
2405,Southwest Coldwater Circle,64082,38.8764605,-94.4234755
2401,Southwest Coldwater Circle,64082,38.8766660,-94.4234450
2308,Southwest Post Oak Court,64082,38.8772140,-94.4232775
2304,Southwest Post Oak Court,64082,38.8774510,-94.4233145
2300,Southwest Post Oak Court,64082,38.8776410,-94.4231265
2301,Southwest Post Oak Court,64082,38.8776360,-94.4228335
2312,Southwest Post Oak Court,64082,38.8770710,-94.4229575
2305,Southwest Post Oak Court,64082,38.8775060,-94.4226170
2309,Southwest Post Oak Court,64082,38.8773370,-94.4224790
2229,Southwest Post Oak Road,64082,38.8766675,-94.4227945
2225,Southwest Post Oak Road,64082,38.8764385,-94.4227545
2221,Southwest Post Oak Road,64082,38.8761770,-94.4227580
2217,Southwest Post Oak Road,64082,38.8759905,-94.4225305
2213,Southwest Post Oak Road,64082,38.8759905,-94.4222010
2220,Southwest Post Oak Road,64082,38.8763685,-94.4218895
2224,Southwest Post Oak Road,64082,38.8765320,-94.4221855
2228,Southwest Post Oak Road,64082,38.8767360,-94.4222780
2209,Southwest Post Oak Road,64082,38.8759470,-94.4218935
2205,Southwest Post Oak Road,64082,38.8759405,-94.4216455
2201,Southwest Post Oak Road,64082,38.8759440,-94.4213955
2228,Southwest Tracker Lane,64082,38.8781020,-94.4229285
2412,Southwest Tracker Lane,64082,38.8763715,-94.4214045
2408,Southwest Tracker Lane,64082,38.8765680,-94.4214110
2404,Southwest Tracker Lane,64082,38.8767700,-94.4214500
2400,Southwest Tracker Lane,64082,38.8769660,-94.4215500
2313,Southwest Post Oak Court,64082,38.8771804,-94.4223874
2316,Southwest Tracker Lane,64082,38.8773616,-94.4217704
2312,Southwest Tracker Lane,64082,38.8775080,-94.4219090
2308,Southwest Tracker Lane,64082,38.8776600,-94.4220855
2304,Southwest Tracker Lane,64082,38.8777970,-94.4222670
2300,Southwest Tracker Lane,64082,38.8779180,-94.4224690
2232,Southwest Tracker Lane,64082,38.8780200,-94.4226940
2229,Southwest Tracker Lane,64082,38.8785290,-94.4228475
2233,Southwest Tracker Lane,64082,38.8784560,-94.4226175
2301,Southwest Tracker Lane,64082,38.8782640,-94.4221125
2305,Southwest Tracker Lane,64082,38.8781265,-94.4219040
2309,Southwest Tracker Lane,64082,38.8779920,-94.4217395
2313,Southwest Tracker Lane,64082,38.8778500,-94.4215675
2317,Southwest Tracker Lane,64082,38.8776860,-94.4214095
2321,Southwest Tracker Lane,64082,38.8774980,-94.4212765
2417,Southwest Tracker Lane,64082,38.8763840,-94.4208415
2413,Southwest Tracker Lane,64082,38.8765760,-94.4208635
2409,Southwest Tracker Lane,64082,38.8767735,-94.4209120
2405,Southwest Tracker Lane,64082,38.8769670,-94.4209550
2401,Southwest Tracker Lane,64082,38.8771470,-94.4210390
2129,Southwest Post Oak Road,64082,38.8759565,-94.4209025
2125,Southwest Post Oak Road,64082,38.8759695,-94.4206455
2121,Southwest Post Oak Road,64082,38.8759695,-94.4203920
2117,Southwest Post Oak Road,64082,38.8759645,-94.4201440
2113,Southwest Post Oak Road,64082,38.8759610,-94.4199040
2109,Southwest Post Oak Road,64082,38.8759290,-94.4196665
2105,Southwest Post Oak Road,64082,38.8759375,-94.4194030
2101,Southwest Post Oak Road,64082,38.8759270,-94.4191625
2045,Southwest Post Oak Road,64082,38.8759105,-94.4189125
2041,Southwest Post Oak Road,64082,38.8758985,-94.4186670
2037,Southwest Post Oak Road,64082,38.8758645,-94.4184175
2033,Southwest Post Oak Road,64082,38.8758780,-94.4181775
2029,Southwest Post Oak Road,64082,38.8758605,-94.4179290
2025,Southwest Post Oak Road,64082,38.8758590,-94.4176830
2021,Southwest Post Oak Road,64082,38.8758775,-94.4174255
2017,Southwest Post Oak Road,64082,38.8759285,-94.4171120
2013,Southwest Post Oak Road,64082,38.8758765,-94.4167625
2009,Southwest Post Oak Road,64082,38.8760285,-94.4165140
2005,Southwest Post Oak Road,64082,38.8762785,-94.4164880
2001,Southwest Post Oak Road,64082,38.8764805,-94.4163485
2120,Southwest Post Oak Road,64082,38.8764070,-94.4204090
2116,Southwest Post Oak Road,64082,38.8763875,-94.4201370
2112,Southwest Post Oak Road,64082,38.8763985,-94.4198865
2108,Southwest Post Oak Road,64082,38.8763895,-94.4196050
2416,Southwest Woodhaven Lane,64082,38.8763370,-94.4191715
2412,Southwest Woodhaven Lane,64082,38.8765400,-94.4191605
2408,Southwest Woodhaven Lane,64082,38.8767380,-94.4191615
2404,Southwest Woodhaven Lane,64082,38.8769435,-94.4191445
2400,Southwest Woodhaven Lane,64082,38.8771525,-94.4191485
2401,Southwest Woodhaven Lane,64082,38.8771095,-94.4185960
2405,Southwest Woodhaven Lane,64082,38.8769010,-94.4186280
2409,Southwest Woodhaven Lane,64082,38.8767025,-94.4186200
2413,Southwest Woodhaven Lane,64082,38.8765120,-94.4186105
2417,Southwest Woodhaven Lane,64082,38.8763270,-94.4186365
2312,Southwest Woodhaven Court,64082,38.8776265,-94.4191020
2308,Southwest Woodhaven Court,64082,38.8778230,-94.4192585
2304,Southwest Woodhaven Court,64082,38.8780215,-94.4192140
2300,Southwest Woodhaven Court,64082,38.8781760,-94.4189885
2301,Southwest Woodhaven Court,64082,38.8781430,-94.4187235
2305,Southwest Woodhaven Court,64082,38.8779650,-94.4185395
2309,Southwest Woodhaven Court,64082,38.8777605,-94.4185555
2313,Southwest Woodhaven Court,64082,38.8775425,-94.4185905
2032,Southwest Post Oak Road,64082,38.8762985,-94.4182165
2028,Southwest Post Oak Road,64082,38.8762925,-94.4179630
2024,Southwest Post Oak Road,64082,38.8762775,-94.4176960
2020,Southwest Post Oak Road,64082,38.8763175,-94.4174335
2016,Southwest Post Oak Road,64082,38.8764035,-94.4171655
2004,Southwest Post Oak Road,64082,38.8765580,-94.4169880
2000,Southwest Post Oak Road,64082,38.8767340,-94.4168180
2401,Southwest Stone Bridge Circle,64082,38.8771610,-94.4173585
2405,Southwest Stone Bridge Circle,64082,38.8769355,-94.4172820
2409,Southwest Stone Bridge Circle,64082,38.8767190,-94.4174835
2408,Southwest Stone Bridge Circle,64082,38.8766990,-94.4177620
2404,Southwest Stone Bridge Circle,64082,38.8768525,-94.4179960
2400,Southwest Stone Bridge Circle,64082,38.8770955,-94.4180125
2312,Southwest Stone Bridge Court,64082,38.8775545,-94.4179640
2308,Southwest Stone Bridge Court,64082,38.8777535,-94.4179690
2304,Southwest Stone Bridge Court,64082,38.8779645,-94.4179515
2300,Southwest Stone Bridge Court,64082,38.8781070,-94.4177330
2301,Southwest Stone Bridge Court,64082,38.8780815,-94.4174485
2305,Southwest Stone Bridge Court,64082,38.8778800,-94.4172950
2309,Southwest Stone Bridge Court,64082,38.8776405,-94.4173575
2136,Southwest Eyrie Road,64082,38.8787360,-94.4223820
2132,Southwest Eyrie Road,64082,38.8788735,-94.4221790
2128,Southwest Eyrie Road,64082,38.8789935,-94.4219630
2124,Southwest Eyrie Road,64082,38.8790950,-94.4217095
2120,Southwest Eyrie Road,64082,38.8791555,-94.4214925
2116,Southwest Eyrie Road,64082,38.8791905,-94.4212445
2112,Southwest Eyrie Road,64082,38.8791875,-94.4209805
2108,Southwest Eyrie Road,64082,38.8791665,-94.4207230
2104,Southwest Eyrie Road,64082,38.8791265,-94.4204755
2100,Southwest Eyrie Road,64082,38.8790430,-94.4202325
2129,Southwest Eyrie Road,64082,38.8784920,-94.4218925
2125,Southwest Eyrie Road,64082,38.8786320,-94.4216890
2121,Southwest Eyrie Road,64082,38.8787230,-94.4214660
2400,Southwest Eagle Creek Drive,64082,38.8772545,-94.4164435
2250,Southwest Ladderback Drive,64082,38.8801077,-94.4289419
2101,Southwest Eagle Creek Court,64082,38.8772295,-94.4197185
2105,Southwest Eagle Creek Court,64082,38.8770115,-94.4197510
2109,Southwest Eagle Creek Court,64082,38.8768655,-94.4199650
2111,Southwest Eagle Creek Court,64082,38.8768755,-94.4202460
2115,Southwest Eagle Creek Court,64082,38.8770405,-94.4204595
2119,Southwest Eagle Creek Court,64082,38.8772345,-94.4205040
2328,Southwest Pheasant Trail,64082,38.8776925,-94.4205575
2324,Southwest Pheasant Trail,64082,38.8779070,-94.4205205
2320,Southwest Pheasant Trail,64082,38.8780910,-94.4204055
2316,Southwest Pheasant Trail,64082,38.8782830,-94.4202965
2312,Southwest Pheasant Trail,64082,38.8784630,-94.4201480
2101,Southwest Eyrie Road,64082,38.8786355,-94.4204500
2105,Southwest Eyrie Road,64082,38.8787425,-94.4206835
2109,Southwest Eyrie Road,64082,38.8787575,-94.4209580
2111,Southwest Eyrie Court,64082,38.8784340,-94.4208125
2113,Southwest Eyrie Court,64082,38.8782220,-94.4209795
2115,Southwest Eyrie Court,64082,38.8781970,-94.4212565
2117,Southwest Eyrie Court,64082,38.8783760,-94.4214755
2325,Southwest Pheasant Trail,64082,38.8776980,-94.4199950
2321,Southwest Pheasant Trail,64082,38.8779270,-94.4198935
2317,Southwest Pheasant Trail,64082,38.8781160,-94.4198015
2313,Southwest Pheasant Trail,64082,38.8782950,-94.4196245
2311,Southwest Pheasant Trail,64082,38.8784665,-94.4194930
2309,Southwest Pheasant Trail,64082,38.8786100,-94.4193695
2308,Southwest Pheasant Trail,64082,38.8788485,-94.4198465
2304,Southwest Pheasant Trail,64082,38.8790550,-94.4197560
2300,Southwest Pheasant Trail,64082,38.8792500,-94.4197420
2305,Southwest Pheasant Trail,64082,38.8790300,-94.4191775
2301,Southwest Pheasant Trail,64082,38.8792300,-94.4191835
2037,Southwest Huntbrook Terrace,64082,38.8785765,-94.4189005
2040,Southwest Huntbrook Terrace,64082,38.8790065,-94.4188375
2036,Southwest Huntbrook Terrace,64082,38.8790295,-94.4186025
2032,Southwest Huntbrook Terrace,64082,38.8790620,-94.4183565
2028,Southwest Huntbrook Terrace,64082,38.8790745,-94.4180935
2024,Southwest Huntbrook Terrace,64082,38.8790515,-94.4178270
2020,Southwest Huntbrook Terrace,64082,38.8790215,-94.4175850
2016,Southwest Huntbrook Terrace,64082,38.8789550,-94.4173455
2010,Southwest Huntbrook Circle,64082,38.8788470,-94.4170395
2008,Southwest Huntbrook Circle,64082,38.8790080,-94.4168285
2006,Southwest Huntbrook Circle,64082,38.8790095,-94.4165390
2004,Southwest Huntbrook Circle,64082,38.8788210,-94.4163505
2002,Southwest Huntbrook Terrace,64082,38.8784835,-94.4165040
2000,Southwest Huntbrook Terrace,64082,38.8782890,-94.4163440
2001,Southwest Huntbrook Terrace,64082,38.8780750,-94.4168170
2005,Southwest Huntbrook Terrace,64082,38.8782390,-94.4169350
2009,Southwest Huntbrook Terrace,64082,38.8783810,-94.4171505
2013,Southwest Huntbrook Terrace,64082,38.8785020,-94.4173715
2017,Southwest Huntbrook Terrace,64082,38.8785850,-94.4176035
2021,Southwest Huntbrook Terrace,64082,38.8786345,-94.4178615
2025,Southwest Huntbrook Terrace,64082,38.8786455,-94.4181280
2029,Southwest Huntbrook Terrace,64082,38.8786230,-94.4183925
2033,Southwest Huntbrook Terrace,64082,38.8785850,-94.4186460
2401,Southwest Hickory Lane,64082,38.8806812,-94.4292176
207,Southeast Douglas Street,64063,38.9136471,-94.3765777
200,Southeast Green Street,64063,38.9142056,-94.3759623
101,Southeast 2nd Street,64063,38.9139326,-94.3769268
202,Southeast 3rd Street,64063,38.9138321,-94.3743272
209,Southeast Douglas Street,64063,38.9132941,-94.3764207
211,Southeast Douglas Street,64063,38.9131941,-94.3763508
213,Southeast Douglas Street,64063,38.9130981,-94.3763692
110,Southeast 3rd Street,64063,38.9129817,-94.3757166
108,Southeast 3rd Street,64063,38.9129608,-94.3757978
123,Southeast 3rd Street,64063,38.9128412,-94.3749845
612,Northeast Shoreline Drive,64082,38.9958784,-94.3637701
608,Northeast Shoreline Drive,64082,38.9959904,-94.3640533
3171,Northeast Carnegie Drive,64064,38.9696113,-94.3593097
3215,Northeast Carnegie Drive,64064,38.9701948,-94.3588989
800,Northeast Vanderbilt Lane,64064,38.9697240,-94.3603571
3170,Northeast Carnegie Drive,64064,38.9702496,-94.3604485
3210,Northeast Carnegie Drive,64064,38.9705756,-94.3601609
3200,Northeast Ralph Powell Road,64064,38.9706624,-94.3611502
3315,Rennau Drive,64064,38.9746420,-94.3434324
3310,Rennau Drive,64064,38.9734986,-94.3436842
601,Northeast Lynn Street,64063,38.9223830,-94.3755707
619,Southwest 34 Street,64082,38.8588273,-94.3906768
1499,SW County Park Road,64081,38.8946536,-94.4479356
2561,Southwest Golden Eagle Road,64086,38.8751084,-94.4299143
4825,Northeast Lakewood Way,64064,38.9997062,-94.3551608
1301,Northeast Windsor Drive,64086,38.9358152,-94.3608921
963,Southeast Oldham Parkway,64081,38.9015691,-94.3533820
1020,Southeast Blue Parkway,64063,38.9036666,-94.3546956
617,Cumberland Drive,64063,38.9061475,-94.3360331
2000,Northeast Rice Road,64064,38.9488966,-94.3600023
2150,Southwest Scherer Road,64082,38.8915075,-94.4196232
2023,Northwest Shamrock Avenue,64081,38.9161984,-94.4149340
101,Northeast Blackwell Road,64063,38.9168447,-94.3182949
303,Northeast Todd George Parkway,64086,38.9177685,-94.3381520
1745,E Langsford Road,64063,38.9164580,-94.3397605
2320,Northeast Bridgeport Drive,64086,38.9277615,-94.3256320
924,Northeast Jason Avenue,64086,38.9280710,-94.3263685
2304,Northeast Bridgeport Drive,64086,38.9278020,-94.3266490
2316,Northeast Bridgeport Drive,64086,38.9277950,-94.3258725
2324,Northeast Bridgeport Drive,64086,38.9277495,-94.3253820
937,Northeast Jason Avenue,64086,38.9286315,-94.3258475
933,Northeast Jason Avenue,64086,38.9284370,-94.3258565
932,Northeast Jason Avenue,64086,38.9284535,-94.3263600
940,Northeast Jason Avenue,64086,38.9288300,-94.3263345
936,Northeast Jason Avenue,64086,38.9286470,-94.3263470
777,Northeast Blackwell Road,64086,38.9242969,-94.3165068
2325,Northeast Bridgeport Drive,64086,38.9273610,-94.3253985
2317,Northeast Bridgeport Drive,64086,38.9273865,-94.3259285
941,Northeast Jason Avenue,64086,38.9288220,-94.3258080
928,Northeast Jason Avenue,64086,38.9282630,-94.3263620
2321,Northeast Bridgeport Drive,64086,38.9273750,-94.3256690
2308,Northeast Bridgeport Drive,64086,38.9277865,-94.3264065
2301,Northeast Bridgeport Drive,64086,38.9273830,-94.3269245
929,Northeast Jason Avenue,64086,38.9282485,-94.3258445
2305,Northeast Bridgeport Drive,64086,38.9274005,-94.3266640
2300,Northeast Bridgeport Drive,64086,38.9277980,-94.3268965
2313,Northeast Bridgeport Drive,64086,38.9273890,-94.3261760
2309,Northeast Bridgeport Drive,64086,38.9273955,-94.3263920
200,Southeast Douglas Street,64063,38.9136475,-94.3773332
11,Southeast 2nd Street,64063,38.9134082,-94.3778806
105,Southeast 3rd Street,64063,38.9124837,-94.3758399
200,Southwest Market Street,64063,38.9125758,-94.3800744
2,Northeast Douglas Street,64063,38.9158668,-94.3789838
2,Southwest 4th Street,64063,38.9105003,-94.3775589
210,Southeast Douglas Street,64063,38.9133949,-94.3770012
317,Southwest Market Street,64063,38.9101901,-94.3778510
202,Southwest Market Street,64063,38.9124334,-94.3800184
309,Southwest Market Street,64063,38.9106739,-94.3781739
304,Southwest Market Street,64063,38.9106989,-94.3790518
323,Southeast Douglas Street,64063,38.9118995,-94.3754480
401,Southeast Douglas Street,64063,38.9111405,-94.3747246
110,Southwest 3rd Street,64063,38.9113174,-94.3796741
247,Southeast Main Street,64063,38.9123082,-94.3771476
416,Southeast Grand Avenue,64063,38.9110846,-94.3729102
229,Southwest Main Street,64063,38.9123590,-94.3786362
224,Southwest Main Street,64063,38.9121684,-94.3784682
803,Southwest Oldham Parkway,64081,38.9085275,-94.3904500
690,Northwest Blue Parkway,64086,38.9272680,-94.4012610
1125,Northeast Colbern Road,64086,38.9449260,-94.3533425
1201,Northeast Colbern Road,64086,38.9446820,-94.3507698
1021,Northeast Colbern Road,64086,38.9452084,-94.3554269
1000,Northeast Colbern Road,64086,38.9470993,-94.3568332
2425,Winterbond Court,64081,38.9113815,-94.4272660
2412,Winteroak Court,64081,38.9107760,-94.4270680
2408,Winteroak Court,64081,38.9107420,-94.4267440
2405,Winterbond Court,64081,38.9111425,-94.4256385
2417,Winterbond Court,64081,38.9113590,-94.4266330
2416,Winteroak Court,64081,38.9108745,-94.4274040
2401,Winterbond Court,64081,38.9113730,-94.4253555
2413,Winterbond Court,64081,38.9113385,-94.4263180
2400,Winterbond Court,64081,38.9116145,-94.4254300
2409,Winterbond Court,64081,38.9112600,-94.4259935
2400,Winteroak Court,64081,38.9107030,-94.4260325
2409,Winteroak Court,64081,38.9102705,-94.4266660
2417,Winteroak Court,64081,38.9103455,-94.4272780
2408,Winteroak Court,64081,38.9107660,-94.4264155
2421,Winterbond Court,64081,38.9113435,-94.4269390
2421,Winteroak Court,64081,38.9103925,-94.4276670
2413,Winteroak Court,64081,38.9103065,-94.4269495
2405,Winteroak Court,64081,38.9102025,-94.4263330
2401,Winteroak Court,64081,38.9103485,-94.4258825
2416,Winterbond Court,64081,38.9118175,-94.4267540
2408,Winterbond Court,64081,38.9117655,-94.4260890
2420,Winterbond Court,64081,38.9118205,-94.4271085
2412,Winterbond Court,64081,38.9117905,-94.4264270
2404,Winterbond Court,64081,38.9117530,-94.4257735
1001,SW Longview Park Drive,64081,38.9038934,-94.4497704
4136,Northeast Dearborn Lane,64064,38.9867543,-94.3364247
241,Southeast Main Street,64063,38.9123925,-94.3771451
231,Southeast Main Street,64063,38.9125610,-94.3772487
229,Southeast Main Street,64063,38.9126368,-94.3773396
219,Southeast Main Street,64063,38.9127927,-94.3774619
217,Southeast Main Street,64063,38.9129074,-94.3775367
215,Southeast Main Street,64063,38.9129732,-94.3775902
23,Southeast 3rd Street,64063,38.9123230,-94.3762960
21,Southeast 3rd Street,64063,38.9123018,-94.3763454
19,Southeast 3rd Street,64063,38.9122756,-94.3764073
308,Southeast Douglas Street,64063,38.9120827,-94.3761545
326,Southeast Douglas Street,64063,38.9114957,-94.3757202
321,Southeast Douglas Street,64063,38.9119242,-94.3751575
329,Southeast Douglas Street,64063,38.9116901,-94.3751965
114,Southeast Douglas Street,64063,38.9143736,-94.3783510
8,Southwest 3rd Street,64063,38.9117865,-94.3784046
302,Southwest Main Street,64063,38.9115401,-94.3778949
925,Northeast Jason Avenue,64086,38.9280567,-94.3258681
1460,Northeast Douglas Street,64086,38.9390073,-94.3791409
2861,Northeast Independence Avenue,64064,38.9633404,-94.3609879
2400,Southwest River Spring Road,64082,38.8794152,-94.4285885
2404,Southwest River Spring Road,64082,38.8793976,-94.4288352
2408,Southwest River Spring Road,64082,38.8793852,-94.4290972
2412,Southwest River Spring Road,64082,38.8793761,-94.4293549
2416,Southwest River Spring Road,64082,38.8794779,-94.4296645
2401,Southwest River Spring Road,64082,38.8789462,-94.4285453
2405,Southwest River Spring Road,64082,38.8789224,-94.4287934
2409,Southwest River Spring Road,64082,38.8789109,-94.4290380
2413,Southwest River Spring Road,64082,38.8789068,-94.4292957
2417,Southwest River Spring Road,64082,38.8789248,-94.4295451
2421,Southwest River Spring Road,64082,38.8788875,-94.4298138
2425,Southwest River Spring Road,64082,38.8789638,-94.4300585
2612,Southwest Golden Eagle Road,64082,38.8757021,-94.4312298
2616,Southwest Golden Eagle Road,64082,38.8758518,-94.4314107
2544,Southwest Hickory Lane,64082,38.8783482,-94.4335060
2540,Southwest Hickory Lane,64082,38.8784138,-94.4332693
2536,Southwest Hickory Lane,64082,38.8785024,-94.4330519
2504,Southwest Hickory Lane,64082,38.8795901,-94.4316330
2500,Southwest Hickory Lane,64082,38.8797567,-94.4314622
2508,Southwest Hickory Lane,64082,38.8794408,-94.4318021
2512,Southwest Hickory Lane,64082,38.8792856,-94.4319660
2516,Southwest Hickory Lane,64082,38.8791281,-94.4321362
2520,Southwest Hickory Lane,64082,38.8789788,-94.4323238
2524,Southwest Hickory Lane,64082,38.8788309,-94.4324850
2528,Southwest Hickory Lane,64082,38.8787186,-94.4326856
2532,Southwest Hickory Lane,64082,38.8786095,-94.4328642
2529,Southwest Hickory Lane,64082,38.8784368,-94.4321941
2521,Southwest Hickory Lane,64082,38.8787408,-94.4318169
2513,Southwest Hickory Lane,64082,38.8790558,-94.4314841
2501,Southwest Hickory Lane,64082,38.8795341,-94.4309497
2505,Southwest Hickory Lane,64082,38.8793717,-94.4311230
2509,Southwest Hickory Lane,64082,38.8792146,-94.4313119
2517,Southwest Hickory Lane,64082,38.8789036,-94.4316482
2525,Southwest Hickory Lane,64082,38.8785849,-94.4319901
2533,Southwest Hickory Lane,64082,38.8783061,-94.4323872
2537,Southwest Hickory Lane,64082,38.8781903,-94.4326229
2549,Southwest Hickory Lane,64082,38.8779299,-94.4333496
2545,Southwest Hickory Lane,64082,38.8780157,-94.4331005
2541,Southwest Hickory Lane,64082,38.8780792,-94.4328481
2432,Southwest Hickory Lane,64082,38.8800454,-94.4311254
2324,Southwest Feather Ridge Road,64082,38.8789995,-94.4245351
2433,Southwest Hickory Lane,64082,38.8797273,-94.4307242
2425,Southwest Hickory Lane,64082,38.8799930,-94.4303926
2429,Southwest Hickory Lane,64082,38.8798713,-94.4305511
2713,Southwest Golden Eagle Road,64082,38.8776187,-94.4337618
2717,Southwest Golden Eagle Road,64082,38.8778092,-94.4338922
2721,Southwest Golden Eagle Road,64082,38.8780120,-94.4339624
2725,Southwest Golden Eagle Road,64082,38.8782183,-94.4340476
2737,Southwest Golden Eagle Road,64082,38.8788816,-94.4341186
2733,Southwest Golden Eagle Road,64082,38.8786475,-94.4340721
2729,Southwest Golden Eagle Road,64082,38.8784273,-94.4340589
2520,Southwest Old Port Road,64082,38.8798756,-94.4328014
2516,Southwest Old Port Road,64082,38.8800351,-94.4326406
2508,Southwest Old Port Road,64082,38.8802975,-94.4323269
2512,Southwest Old Port Road,64082,38.8801723,-94.4324571
2524,Southwest Old Port Road,64082,38.8797188,-94.4329441
2528,Southwest Old Port Road,64082,38.8795646,-94.4330854
2532,Southwest Old Port Road,64082,38.8794566,-94.4332809
2536,Southwest Old Port Road,64082,38.8793503,-94.4335167
2525,Southwest Old Port Road,64082,38.8792818,-94.4326861
2521,Southwest Old Port Road,64082,38.8794371,-94.4325203
2513,Southwest Old Port Road,64082,38.8797215,-94.4321938
2505,Southwest Old Port Road,64082,38.8800119,-94.4318470
2509,Southwest Old Port Road,64082,38.8798752,-94.4320195
2517,Southwest Old Port Road,64082,38.8795861,-94.4323447
2529,Southwest Old Port Road,64082,38.8791415,-94.4328411
2533,Southwest Old Port Road,64082,38.8789907,-94.4330438
2537,Southwest Old Port Road,64082,38.8789027,-94.4332959
2541,Southwest Old Port Road,64082,38.8788584,-94.4335281
2606,Southwest River Trail Road,64082,38.8805408,-94.4334319
2630,Southwest River Trail Road,64082,38.8794857,-94.4340751
2626,Southwest River Trail Road,64082,38.8796867,-94.4340683
2622,Southwest River Trail Road,64082,38.8798992,-94.4340744
2601,Southwest River Trail Road,64082,38.8805692,-94.4326801
2605,Southwest River Trail Road,64082,38.8804386,-94.4328451
2609,Southwest River Trail Road,64082,38.8802723,-94.4330107
2613,Southwest River Trail Road,64082,38.8801238,-94.4331629
2617,Southwest River Trail Road,64082,38.8799786,-94.4333229
2621,Southwest River Trail Road,64082,38.8798096,-94.4334507
2544,Southwest River Trail Road,64082,38.8809913,-94.4329754
2548,Southwest River Trail Road,64082,38.8808556,-94.4331337
2602,Southwest River Trail Road,64082,38.8806928,-94.4333004
2610,Southwest River Trail Road,64082,38.8804097,-94.4336198
2614,Southwest River Trail Road,64082,38.8802685,-94.4337768
2618,Southwest River Trail Road,64082,38.8800921,-94.4339270
2634,Southwest River Trail Road,64082,38.8792847,-94.4340842
2400,Southwest Old Port Road,64082,38.8820396,-94.4299235
2408,Southwest Old Port Road,64082,38.8818525,-94.4303671
2424,Southwest Old Port Road,64082,38.8813341,-94.4311193
2440,Southwest Old Port Road,64082,38.8807669,-94.4317919
2444,Southwest Old Port Road,64082,38.8806085,-94.4319574
2429,Southwest Old Port Road,64082,38.8806359,-94.4311814
2413,Southwest Old Port Road,64082,38.8812255,-94.4304518
2421,Southwest Old Port Road,64082,38.8809349,-94.4308209
2425,Southwest Old Port Road,64082,38.8807855,-94.4310069
2433,Southwest Old Port Road,64082,38.8804909,-94.4313557
2437,Southwest Old Port Road,64082,38.8803171,-94.4315276
607,Southeast Oldham Parkway,64063,38.9019344,-94.3615589
651,Northeast Saint Andrews Circle,64064,39.0063027,-94.3637894
3740,NE Ralph Powell Rd,64064,38.9814471,-94.3609660
351,Northwest Gregory Boulevard,64064,38.9752135,-94.3880770
220,Southeast Douglas Street,64063,38.9129023,-94.3768616
