House number,Street name,Postal code,Latitude,Longitude
96,Saint Charles Street,63385,38.7080736,-90.8785498
90,Saint Charles Street,63385,38.7080678,-90.8782001
85,Saint Charles Street,63385,38.7083667,-90.8775843
93,Saint Charles Street,63385,38.7088069,-90.8785435
88,Saint Charles Street,63341,38.7080656,-90.8778061
142,Saint Charles Street,63385,38.7080618,-90.8814084
4574,Highway Z,63385,38.7170149,-90.8798728
4848,Highway Z,63385,38.7119681,-90.8776930
3960,Highway Z,63385,38.7323966,-90.8777076
4548,Highway Z,63385,38.7189257,-90.8790178
4711,Highway Z,63385,38.7128034,-90.8790502
4551,Highway Z,63385,38.7170606,-90.8818518
4583,Highway Z,63385,38.7158642,-90.8801380
4487,Highway Z,63385,38.7179176,-90.8812203
4580,Highway Z,63385,38.7161703,-90.8796124
4665,Highway Z,63385,38.7138158,-90.8787545
4134,Highway Z,63385,38.7276237,-90.8795925
4535,Highway Z,63385,38.7175757,-90.8813921
4481,Highway Z,63385,38.7185990,-90.8813179
4695,Highway Z,63385,38.7106510,-90.8785463
4814,Highway Z,63385,38.7124104,-90.8775757
4542,Highway Z,63385,38.7193968,-90.8793141
4671,Highway Z,63385,38.7138123,-90.8797245
4689,Highway Z,63385,38.7134132,-90.8787968
4577,Highway Z,63385,38.7162723,-90.8801864
3390,Highway F,63341,38.7046587,-90.8828588
3402,Highway F,63341,38.7051336,-90.8821142
3543,Highway F,63385,38.7081782,-90.8791082
3406,Highway F,63341,38.7063991,-90.8815576
3408,Highway F,63341,38.7057226,-90.8828936
3511,Highway F,63341,38.7076568,-90.8766700
3410,Highway F,63341,38.7058416,-90.8805779
3537,Highway F,63385,38.7079176,-90.8790162
3555,Highway F,63385,38.7086488,-90.8793561
3519,Highway F,63341,38.7070019,-90.8786094
3531,Highway F,63341,38.7073300,-90.8787270
155,Lockard Lane,63341,38.7041497,-90.8759487
130,Centennial Farms Drive,63341,38.7040911,-90.8769995
127,Almeling Street,63385,38.7088121,-90.8804484
136,Almeling Street,63385,38.7085965,-90.8809724
140,Almeling Street,63385,38.7086609,-90.8812966
133,Almeling Street,63385,38.7087863,-90.8807757
128,Almeling Street,63385,38.7083532,-90.8805593
110,Almeling Street,63385,38.7084261,-90.8799219
122,Almeling Street,63385,38.7085564,-90.8802796
139,Almeling Street,63385,38.7088226,-90.8809579
241,Fiddlecreek Ridge Road,63385,38.7282071,-90.8868215
239,Fiddlecreek Ridge Road,63385,38.7278636,-90.8866649
246,Fiddlecreek Ridge Road,63385,38.7288670,-90.8864891
219,Fiddlecreek Ridge Road,63385,38.7255120,-90.8848401
504,Conifer Court,63385,38.7267050,-90.8861955
606,Birdnest Walk,63385,38.7282146,-90.8874765
501,Conifer Court,63385,38.7262574,-90.8859796
304,Spotted Fawn Road,63385,38.7249053,-90.8849849
505,Conifer Court,63385,38.7265358,-90.8863821
306,Spotted Fawn Road,63385,38.7247791,-90.8851638
403,Barleyfield Court,63385,38.7253177,-90.8851732
406,Barleyfield Court,63385,38.7255943,-90.8856483
305,Spotted Fawn Road,63385,38.7244581,-90.8850747
404,Barleyfield Court,63385,38.7256922,-90.8854091
503,Conifer Court,63385,38.7262792,-90.8862359
407,Barleyfield Court,63385,38.7253307,-90.8856261
405,Barleyfield Court,63385,38.7252234,-90.8854312
604,Birdnest Walk,63385,38.7282926,-90.8872321
603,Birdnest Walk,63385,38.7278548,-90.8872978
605,Birdnest Walk,63385,38.7279954,-90.8875188
502,Conifer Court,63385,38.7267310,-90.8859294
904,Windy Meadow Court,63385,38.7278657,-90.8855152
902,Windy Meadow Court,63385,38.7276787,-90.8856270
601,Birdnest Walk,63385,38.7278601,-90.8870717
1005,Fiddlecreek Court,63385,38.7253600,-90.8834291
901,Windy Meadow Court,63385,38.7281053,-90.8859123
1003,Fiddlecreek Court,63385,38.7253600,-90.8836469
1004,Fiddlecreek Court,63385,38.7250224,-90.8834450
903,Windy Meadow Court,63385,38.7280628,-90.8856384
1006,Fiddlecreek Court,63385,38.7251614,-90.8833005
303,Spotted Fawn Road,63385,38.7244190,-90.8848594
4754,Jacob Lane,63385,38.7188811,-90.8755394
4744,Jacob Lane,63385,38.7172325,-90.8746870
4640,Jacob Lane,63385,38.7161770,-90.8745843
4743,Jacob Lane,63385,38.7177147,-90.8753415
104,Willow Ridge Court,63385,38.7202287,-90.8800215
4741,Jacob Lane,63385,38.7172080,-90.8752791
305,Crescent Oak Court,63385,38.7200095,-90.8786467
4650,Jacob Lane,63385,38.7184643,-90.8747790
307,Crescent Oak Court,63385,38.7196164,-90.8781049
4748,Jacob Lane,63385,38.7182271,-90.8746306
306,Crescent Oak Court,63385,38.7199563,-90.8778258
303,Crescent Oak Court,63385,38.7205366,-90.8787877
304,Crescent Oak Court,63385,38.7204547,-90.8782075
105,Willow Ridge Court,63385,38.7201537,-90.8804939
15,Golden Oak Court,63385,38.7195884,-90.8748892
14,Golden Oak Court,63385,38.7199951,-90.8744364
103,Willow Ridge Court,63385,38.7205829,-90.8806701
302,Crescent Oak Court,63385,38.7211819,-90.8783170
10,Golden Oak Court,63385,38.7202384,-90.8748524
4745,Brooke Street,63385,38.7182533,-90.8762613
4806,Brooke Street,63385,38.7178485,-90.8764620
4807,Brooke Street,63385,38.7181635,-90.8770975
4809,Brooke Street,63385,38.7185718,-90.8768824
4805,Brooke Street,63385,38.7176438,-90.8770230
4804,Brooke Street,63385,38.7173329,-90.8763001
4811,Brooke Street,63385,38.7187068,-90.8764822
4803,Brooke Street,63385,38.7170298,-90.8768882
4908,Bette Court,63385,38.7182958,-90.8781509
4902,Bette Court,63385,38.7168886,-90.8781312
4910,Bette Court,63385,38.7189387,-90.8781409
4904,Bette Court,63385,38.7173980,-90.8780221
4906,Bette Court,63385,38.7178186,-90.8778778
4735,Francis Street,63385,38.7164989,-90.8761227
4734,Francis Street,63385,38.7160292,-90.8763019
4632,Francis Street,63385,38.7159688,-90.8768929
4638,Francis Street,63385,38.7159840,-90.8749315
4630,Francis Street,63385,38.7160278,-90.8775886
4633,Francis Street,63385,38.7164874,-90.8769901
4736,Francis Street,63385,38.7159717,-90.8755188
4737,Francis Street,63385,38.7164877,-90.8754710
410,Hickory Grove Lane,63385,38.7200120,-90.8756942
407,Hickory Grove Lane,63385,38.7204977,-90.8757101
406,Hickory Grove Lane,63385,38.7208509,-90.8745167
411,Hickory Grove Lane,63385,38.7197695,-90.8761434
405,Hickory Grove Lane,63385,38.7211825,-90.8750030
404,Hickory Grove Lane,63385,38.7214658,-90.8745110
409,Hickory Grove Lane,63385,38.7202027,-90.8761590
402,Hickory Grove Lane,63385,38.7219053,-90.8747630
1028,Sycamore Creek Drive,63385,38.7224196,-90.8745293
1001,Sycamore Creek Drive,63385,38.7216154,-90.8811974
1020,Sycamore Creek Drive,63385,38.7212885,-90.8762450
1003,Sycamore Creek Drive,63385,38.7215894,-90.8805996
1018,Sycamore Creek Drive,63385,38.7212731,-90.8768559
1006,Sycamore Creek Drive,63385,38.7210013,-90.8798829
1025,Sycamore Creek Drive,63385,38.7221798,-90.8753491
1023,Sycamore Creek Drive,63385,38.7219389,-90.8757793
1007,Sycamore Creek Drive,63385,38.7214599,-90.8796043
1027,Sycamore Creek Drive,63385,38.7225439,-90.8750206
1022,Sycamore Creek Drive,63385,38.7215956,-90.8754527
1008,Sycamore Creek Drive,63385,38.7211469,-90.8791567
1002,Sycamore Creek Drive,63385,38.7212314,-90.8811195
1021,Sycamore Creek Drive,63385,38.7216908,-90.8762605
1019,Sycamore Creek Drive,63385,38.7216294,-90.8768890
213,Willow Run,63385,38.7224687,-90.8776701
205,Willow Run,63385,38.7226353,-90.8797896
207,Willow Run,63385,38.7225977,-90.8790619
203,Willow Run,63385,38.7224978,-90.8806550
210,Willow Run,63385,38.7216002,-90.8789691
209,Willow Run,63385,38.7222719,-90.8785230
211,Willow Run,63385,38.7216839,-90.8783936
204,Willow Run,63385,38.7222390,-90.8795921
242,Fiddlecreek Ridge Road,63385,38.7281951,-90.8863978
225,Fiddlecreek Ridge Road,63385,38.7262339,-90.8853244
238,Fiddlecreek Ridge Road,63385,38.7274843,-90.8859873
243,Fiddlecreek Ridge Road,63385,38.7287939,-90.8869623
227,Fiddlecreek Ridge Road,63385,38.7264722,-90.8854867
240,Fiddlecreek Ridge Road,63385,38.7279795,-90.8863054
229,Fiddlecreek Ridge Road,63385,38.7270600,-90.8860920
245,Fiddlecreek Ridge Road,63385,38.7289133,-90.8867504
244,Fiddlecreek Ridge Road,63385,38.7286527,-90.8863615
217,Fiddlecreek Ridge Road,63385,38.7253334,-90.8847270
230,Fiddlecreek Ridge Road,63385,38.7268305,-90.8853046
221,Fiddlecreek Ridge Road,63385,38.7258785,-90.8850215
223,Fiddlecreek Ridge Road,63385,38.7260577,-90.8851059
216,Fiddlecreek Ridge Road,63385,38.7256920,-90.8844501
210,Fiddlecreek Ridge Road,63385,38.7251380,-90.8842318
214,Fiddlecreek Ridge Road,63385,38.7254907,-90.8843553
206,Fiddlecreek Ridge Road,63385,38.7246108,-90.8839643
212,Fiddlecreek Ridge Road,63385,38.7253051,-90.8842712
200,Fiddlecreek Ridge Road,63385,38.7242720,-90.8833016
236,Fiddlecreek Ridge Road,63385,38.7273112,-90.8858154
228,Fiddlecreek Ridge Road,63385,38.7266917,-90.8851798
231,Fiddlecreek Ridge Road,63385,38.7271628,-90.8862577
215,Fiddlecreek Ridge Road,63385,38.7251527,-90.8846527
222,Fiddlecreek Ridge Road,63385,38.7262145,-90.8847732
235,Fiddlecreek Ridge Road,63385,38.7274464,-90.8865917
213,Fiddlecreek Ridge Road,63385,38.7249890,-90.8846725
208,Fiddlecreek Ridge Road,63385,38.7247515,-90.8840533
30,Fiddlecreek Ridge Road,63385,38.7244559,-90.8825146
211,Fiddlecreek Ridge Road,63385,38.7245038,-90.8844637
204,Fiddlecreek Ridge Road,63385,38.7244563,-90.8837355
233,Fiddlecreek Ridge Road,63385,38.7272519,-90.8865424
224,Fiddlecreek Ridge Road,63385,38.7263698,-90.8848911
232,Fiddlecreek Ridge Road,63385,38.7270208,-90.8854362
209,Fiddlecreek Ridge Road,63385,38.7242914,-90.8842002
205,Fiddlecreek Ridge Road,63385,38.7241785,-90.8840213
218,Fiddlecreek Ridge Road,63385,38.7258745,-90.8845482
237,Fiddlecreek Ridge Road,63385,38.7276709,-90.8866618
201,Fiddlecreek Ridge Road,63385,38.7240798,-90.8838082
220,Fiddlecreek Ridge Road,63385,38.7260276,-90.8846400
234,Fiddlecreek Ridge Road,63385,38.7271849,-90.8855980
202,Fiddlecreek Ridge Road,63385,38.7243710,-90.8835227
226,Fiddlecreek Ridge Road,63385,38.7265351,-90.8850363
111,Cooperwyck Road,63385,38.7229319,-90.8850526
160,Cooperwyck Road,63385,38.7263176,-90.8888306
157,Cooperwyck Road,63385,38.7261477,-90.8882094
137,Cooperwyck Road,63385,38.7243238,-90.8869927
178,Cooperwyck Road,63385,38.7271949,-90.8894135
163,Cooperwyck Road,63385,38.7265342,-90.8882916
188,Cooperwyck Road,63385,38.7278588,-90.8895690
143,Cooperwyck Road,63385,38.7247392,-90.8873283
131,Cooperwyck Road,63385,38.7238853,-90.8866274
153,Cooperwyck Road,63385,38.7256195,-90.8880166
172,Cooperwyck Road,63385,38.7268753,-90.8891121
101,Cooperwyck Road,63385,38.7234940,-90.8834440
123,Cooperwyck Road,63385,38.7234899,-90.8862666
169,Cooperwyck Road,63385,38.7269499,-90.8885386
179,Cooperwyck Road,63385,38.7277677,-90.8891381
115,Cooperwyck Road,63385,38.7231842,-90.8857248
175,Cooperwyck Road,63385,38.7273422,-90.8888573
107,Cooperwyck Road,63385,38.7230324,-90.8834885
184,Cooperwyck Road,63385,38.7276531,-90.8898042
104,Cooperwyck Road,63385,38.7224412,-90.8839228
151,Cooperwyck Road,63385,38.7252345,-90.8876779
300,Foristell Road,63385,38.7244344,-90.8895191
400,Foristell Road,63385,38.7261195,-90.8930407
110,Foristell Road,63385,38.7207087,-90.8857324
120,Groenberger Street,63385,38.7116982,-90.8807095
22,Peter Street,63385,38.7108068,-90.8789395
22,Peter Street,63385,38.7108092,-90.8787935
3631,Mill Street,63385,38.7111156,-90.8796965
2,Meta Lane,63385,38.7097318,-90.8841019
3627,Mill Street,63385,38.7108238,-90.8796184
3619,Mill Street,63385,38.7105056,-90.8798073
6322,Mill Street,63385,38.7106379,-90.8791249
3565,Mill Street,63385,38.7091390,-90.8794544
30,Muhm Center,63385,38.7114733,-90.8790212
6,Meta Lane,63385,38.7116808,-90.8838063
120,Peter Street,63385,38.7104804,-90.8803867
34,Muhm Center,63385,38.7114764,-90.8791691
3632,Mill Street,63385,38.7112056,-90.8794508
3637,Mill Street,63385,38.7113420,-90.8796117
3669,Mill Street,63385,38.7120113,-90.8795983
3575,Mill Street,63385,38.7095606,-90.8787777
3643,Mill Street,63385,38.7115484,-90.8796165
3560,Mill Street,63385,38.7090383,-90.8800739
3628,Mill Street,63385,38.7108689,-90.8794553
3600,Mill Street,63385,38.7100986,-90.8792454
7,Meta Lane,63385,38.7112946,-90.8835008
111,Groenberger Street,63385,38.7122758,-90.8808993
5,Meta Lane,63385,38.7111779,-90.8838668
125,Peter Street,63385,38.7107806,-90.8804912
3630,Schutzen Street,63385,38.7108374,-90.8809989
3637,Schutzen Street,63385,38.7108598,-90.8813079
3612,Schutzen Street,63385,38.7099628,-90.8809448
3620,Schutzen Street,63385,38.7104723,-90.8810227
3701,Schutzen Street,63385,38.7134312,-90.8820896
129,Conor Court,63385,38.7144259,-90.8819063
3640,Schutzen Street,63385,38.7114037,-90.8809266
3611,Schutzen Street,63385,38.7099456,-90.8816014
3635,Schutzen Street,63385,38.7111124,-90.8813425
106,Conor Court,63385,38.7148682,-90.8790513
3617,Schutzen Street,63385,38.7102760,-90.8812204
3663,Schutzen Street,63385,38.7122055,-90.8827554
3641,Schutzen Street,63385,38.7116405,-90.8812547
193,East Highway D,63385,38.7132430,-90.8727202
4,Birch Tree Lane,63385,38.7150056,-90.8843757
4802,Holt Road,63385,38.7085933,-90.8922124
26,West Highway D,63385,38.7101367,-90.8781495
247,West Highway D,63385,38.7089903,-90.8873589
30,West Highway D,63385,38.7094988,-90.8799434
1405,West Highway D,63385,38.7104324,-90.8855028
101,West Highway D,63385,38.7096413,-90.8812446
159,West Highway D,63385,38.7092309,-90.8834124
27,West Highway D,63385,38.7099929,-90.8802593
30,West Highway D,63385,38.7094975,-90.8800875
30,West Highway D,63385,38.7095242,-90.8801867
30,West Highway D,63385,38.7094689,-90.8804725
30,West Highway D,63385,38.7093651,-90.8805464
30,West Highway D,63385,38.7093675,-90.8807399
23,West Highway D,63385,38.7100114,-90.8798661
204,West Highway D,63385,38.7090277,-90.8853184
216,West Highway D,63385,38.7087575,-90.8861557
8,West Highway D,63385,38.7110139,-90.8768282
679,West Highway D,63385,38.7093852,-90.8888883
190,West Highway D,63385,38.7090543,-90.8842208
20,West Highway D,63385,38.7102578,-90.8778500
145,Almeling Street,63385,38.7090330,-90.8812629
3705,Mill Street,63385,38.7119706,-90.8789764
4665,Highway Z,63385,38.7137792,-90.8788186
4700,Highway z;Highway Z,63365;63385,38.7136532,-90.8778329
3700,Mill Street,63385,38.7124445,-90.8793192
4646,Highway Z,63385,38.7145069,-90.8781959
4648,Highway Z,63385,38.7143340,-90.8773524
4659,Highway Z,63385,38.7143820,-90.8789417
125,Conor Court,63385,38.7142731,-90.8815077
121,Conor Court,63385,38.7142264,-90.8809702
117,Conor Court,63385,38.7142036,-90.8804803
113,Conor Court,63385,38.7141810,-90.8799179
109,Conor Court,63385,38.7142824,-90.8794362
130,Conor Court,63385,38.7152336,-90.8826504
126,Conor Court,63385,38.7150598,-90.8820802
122,Conor Court,63385,38.7150080,-90.8815171
118,Conor Court,63385,38.7149486,-90.8808953
114,Conor Court,63385,38.7149789,-90.8804678
110,Conor Court,63385,38.7149223,-90.8797669
134,Conor Court,63385,38.7147333,-90.8826069
4612,Highway Z,63385,38.7152136,-90.8783667
4600,Highway Z,63385,38.7156207,-90.8789091
4591,Highway Z,63385,38.7153848,-90.8796056
201,West Highway D,63385,38.7103117,-90.8853285
3,Meta Lane,63385,38.7102561,-90.8839072
185,West Highway D,63385,38.7094169,-90.8839764
4,Meta Lane,63385,38.7106437,-90.8838989
150,West Highway D,63385,38.7086221,-90.8825214
3585,Mill Street,63385,38.7097665,-90.8792879
