House number,Street name,Postal code,Latitude,Longitude
3844,South Lindbergh Boulevard,63127,38.5485675,-90.4034628
10900,Sunset Hills Plaza,63127,38.5533457,-90.4127258
10740,Sunset Hills Plaza,63127,38.5540310,-90.4076054
10722,Sunset hills Plaza,63127,38.5532135,-90.4090489
10954,Kennerly Road,63128,38.5237634,-90.3997419
13118,Maple Drive,63127,38.5435796,-90.4256802
11039,Gravois Industrial Ct,63128,38.5143307,-90.4116196
10757,Sunset Hills Plaza,63127,38.5543441,-90.4079963
211,Monica Drive,63127,38.5577858,-90.4027824
8815,Woodfox Drive,63127,38.5508561,-90.4023099
12512,Grandview Forest Drive,63127,38.5248227,-90.4041307
12244,Sunset Terrace,63127,38.5431478,-90.3986560
9767,Fall Ridge Trail,63127,38.5313355,-90.4114659
8836,Eggeling Lane,63127,38.5501599,-90.3996651
11832,Sunset Grove Court,63127,38.5348723,-90.3891022
12890,Edelen Lane,63127,38.5266294,-90.4221741
12614,Friendship Ridge Lane,63127,38.5220465,-90.4071239
12976,Maurer Industrial Drive,63127,38.5205266,-90.4204926
169,Floralea Place,63127,38.5586704,-90.4042678
137,Floralea Place,63127,38.5586606,-90.4055079
240,Rayburn Avenue,63127,38.5591253,-90.4017570
3939,South Lindbergh Boulevard,63127,38.5444553,-90.4023368
12450,Maret Drive,63127,38.5498706,-90.4094937
10226,Richview Drive,63127,38.5528442,-90.3993684
224,Floralea Place,63127,38.5582733,-90.4022028
9392,Robyn Hills Drive,63127,38.5375531,-90.4071618
12750,West Watson Road,63127,38.5406171,-90.4126966
9628,Hidden Valley Drive,63127,38.5273266,-90.3981374
12416,Grandview Lake Drive,63127,38.5273411,-90.4052612
182,Floralea Place,63127,38.5582898,-90.4038620
1415,Homecrest Drive,63127,38.5582660,-90.3989695
8677,Otto Westway Street,63127,38.5530408,-90.4043188
31,Fox Meadows,63127,38.5387493,-90.3907233
7,Fox Meadows,63127,38.5397177,-90.3900785
153,Deane Court,63127,38.5569319,-90.4040425
10326,Richview Drive,63127,38.5525857,-90.4027898
9268,Rott Road,63127,38.5402818,-90.4200483
12949,Gravois Road,63127,38.5159771,-90.4150036
13012,Pagada Parkway,63127,38.5358022,-90.4227660
242,Monica Drive,63127,38.5574036,-90.4009739
154,Monica Drive,63127,38.5574183,-90.4036270
12904,Gary Player Drive,63127,38.5286043,-90.4243839
10225,Rahning Road,63127,38.5163561,-90.4184695
237,Deane Court,63127,38.5569419,-90.4019477
9624,Hidden Valley Drive,63127,38.5275867,-90.3987495
9909,Grandview Hill Court,63127,38.5262485,-90.4045414
9336,Lincoln Drive,63127,38.5386177,-90.4001171
3863,South Lindbergh Boulevard,63127,38.5475336,-90.4050302
12602,Friendship Ridge Lane,63127,38.5219246,-90.4067235
10345,Richview Drive,63127,38.5530025,-90.4036220
9391,Roosevelt Drive,63127,38.5379078,-90.4035740
12871,Weber Hill Road,63127,38.5289432,-90.4201515
12650,Bradford Woods Drive,63127,38.5457149,-90.4119822
265,Deane Court,63127,38.5569369,-90.4008763
264,Rayburn Avenue,63127,38.5591007,-90.4008920
13237,Maple Drive,63127,38.5417681,-90.4317236
12645,West Watson Road,63127,38.5428741,-90.4114676
12138,Trentmore Place,63127,38.5421022,-90.3966416
9445,Chavez Drive,63127,38.5365225,-90.4098572
11829,Parklind Drive,63127,38.5325202,-90.3884470
9401,Caddyshack Circle,63127,38.5317969,-90.4270430
12311,Matthews Lane,63127,38.5412255,-90.4005041
9841,Kimker Lane,63127,38.5274131,-90.4195955
189,Floralea Place,63127,38.5586755,-90.4034918
244,Rayburn Avenue,63127,38.5591332,-90.4016370
8827,Woodfox Drive,63127,38.5505523,-90.4022079
8875,Woodfox Drive,63127,38.5490809,-90.4019914
152,Deane Court,63127,38.5565550,-90.4040574
10315,Richview Drive,63127,38.5531372,-90.4022107
9140,Fox Estates Drive,63127,38.5430205,-90.3929068
12741,Weber Hill Road,63127,38.5303574,-90.4144685
12415,Cinema Lane,63127,38.5425416,-90.4028539
12112,Gravois Road,63127,38.5264934,-90.3928219
12614,West Watson Road,63127,38.5435839,-90.4095725
130,Monica Drive,63127,38.5574042,-90.4050384
12417,West Watson Road,63127,38.5469192,-90.4053934
8898,Woodpark Drive,63127,38.5488489,-90.4018373
9780,Fall Ridge Trail,63127,38.5304511,-90.4105985
127,Monica Drive,63127,38.5578105,-90.4051431
231,Rayburn Avenue,63127,38.5596433,-90.4016890
136,Deane Court,63127,38.5565526,-90.4047430
12416,Cinema Lane,63127,38.5419184,-90.4027718
10212,Richview Drive,63127,38.5529246,-90.3987495
9654,Mill Hill Lane,63127,38.5284196,-90.3965928
12343,Eddie And Park Road,63127,38.5461462,-90.3994789
12632,Bradford Woods Drive,63127,38.5459235,-90.4111749
9255,Robyn Road,63127,38.5388618,-90.3979819
12669,Bradford Woods Drive,63127,38.5448614,-90.4126451
12434,Matthews Lane,63127,38.5429924,-90.4042440
9155,Fox Bridge Drive,63127,38.5426910,-90.4078997
10253,Richview Drive,63127,38.5531947,-90.4007473
226,Monica Drive,63127,38.5574236,-90.4018026
146,Floralea Place,63127,38.5582853,-90.4052583
141,Floralea Place,63127,38.5586646,-90.4053484
13,Roosevelt Drive,63127,38.5400324,-90.4030592
12231,Sunset Terrace,63127,38.5441657,-90.3988791
12134,Trentmore Place,63127,38.5421381,-90.3962886
4167,South Lindbergh Boulevard,63127,38.5376878,-90.3932999
9644,Mill Hill Lane,63127,38.5287502,-90.3962300
28,Black Oak Drive,63127,38.5395142,-90.4101358
12965,Baalbek Drive,63127,38.5383427,-90.4204629
12931,Sunset Bluff Court,63127,38.5435829,-90.4192213
12647,Knighton Trail,63127,38.5196742,-90.4072145
12547,Weber Hill Road,63127,38.5298584,-90.4098931
12633,Knighton Trail,63127,38.5201905,-90.4066054
130,Deane Court,63127,38.5565629,-90.4051599
12718,Zacharys Ridge,63127,38.5178364,-90.4093369
12460,Rott Road,63127,38.5518403,-90.4104841
12709,Zacharys Ridge,63127,38.5172349,-90.4090000
12935,West Watson Road,63127,38.5370519,-90.4202567
12981,Maurer Industrial Drive,63127,38.5223576,-90.4187597
13120,Maple Drive,63127,38.5429609,-90.4257660
12729,Robyn Road,63127,38.5387138,-90.4145298
140,Deane Court,63127,38.5565693,-90.4044634
9854,Kimker Lane,63127,38.5262744,-90.4178572
12128,Gravois Road,63127,38.5258621,-90.3932328
9455,Crooked Creek Trail,63127,38.5360635,-90.4050160
12816,West Watson Road,63127,38.5377300,-90.4161077
12957,Gravois Road,63127,38.5159298,-90.4159797
17,Timber Creek Lane,63127,38.5366937,-90.3980379
12840,West Watson Road,63127,38.5374830,-90.4174731
12852,Maurer Industrial Drive,63127,38.5221378,-90.4156404
9843,Kimker Lane,63127,38.5269172,-90.4176156
12518,Maret Drive,63127,38.5501902,-90.4104680
12411,West Watson Road,63127,38.5469703,-90.4050883
12108,Westwick Place,63127,38.5433113,-90.3942429
12434,Cinema Lane,63127,38.5419357,-90.4036827
216,Floralea Place,63127,38.5582758,-90.4025245
9330,Robyn Hills Drive,63127,38.5395841,-90.4071634
1518,Windward Ridge Drive,63127,38.5568515,-90.3994526
151,Monica Drive,63127,38.5578212,-90.4038399
12617,Rott Road,63127,38.5513662,-90.4174030
12705,Nanell Lane,63127,38.5357026,-90.4141960
9481,Chavez Drive,63127,38.5352050,-90.4097877
220,Deane Court,63127,38.5565309,-90.4025096
12351,Matthews Lane,63127,38.5419036,-90.4016660
9655,Mill Hill Lane,63127,38.5283236,-90.3971360
13219,West Watson Road,63127,38.5306057,-90.4235876
12830,West Watson Road,63127,38.5376296,-90.4169854
8823,Lynn Lane,63127,38.5506043,-90.3984892
3910,Courtyard Circle Drive,63127,38.5447304,-90.4002182
8817,Lynn Lane,63127,38.5507898,-90.3985177
12432,Courtyard Lake Drive,63127,38.5461265,-90.4026088
8811,Lynn Lane,63127,38.5509808,-90.3985282
13190,Gravois Road,63127,38.5131897,-90.4291872
268,Deane Court,63127,38.5565354,-90.4005938
8890,Woodpark Drive,63127,38.5489111,-90.4013019
12510,Sunset Greens Drive,63127,38.5256677,-90.4111741
9165,Fox Bridge Drive,63127,38.5421715,-90.4083849
12306,Ronnie Lane,63127,38.5427676,-90.4011537
13215,West Watson Road,63127,38.5305624,-90.4227186
12626,Bradford Woods Drive,63127,38.5459312,-90.4105810
12627,Knighton Trail,63127,38.5203028,-90.4062859
9875,Kimker Lane,63127,38.5264944,-90.4185108
21,Black Oak Drive,63127,38.5401567,-90.4089317
12404,Matthews Lane,63127,38.5430865,-90.4025537
11816,Sunset Grove Court,63127,38.5348648,-90.3884148
138,Monica Drive,63127,38.5574286,-90.4044737
13025,West Watson Road,63127,38.5351049,-90.4220574
12300,Courtyard Lake Drive,63127,38.5444681,-90.3997486
12132,Westwick Place,63127,38.5434136,-90.3962545
11910,Gravois Road,63127,38.5291813,-90.3899012
3750,South Lindbergh Boulevard,63127,38.5507989,-90.4049902
11824,Parklind Drive,63127,38.5320432,-90.3878862
12420,Maret Drive,63127,38.5486576,-90.4077965
3952,South Lindbergh Boulevard,63127,38.5440473,-90.4003967
11922,Gravois Road,63127,38.5287538,-90.3899269
317,Rayburn Avenue,63127,38.5597064,-90.4017425
12359,Matthews Lane,63127,38.5422409,-90.4017348
12553,Cinema Lane,63127,38.5402314,-90.4065804
209,Deane Court,63127,38.5570195,-90.4029415
8,Maclane Court,63127,38.5497021,-90.4181034
12908,Sunset Bluff Court,63127,38.5440334,-90.4178614
12365,Courtyard Lake Drive,63127,38.5452338,-90.4015839
4471,South Lindbergh Boulevard,63127,38.5330015,-90.3852123
12955,Sunset Bluff Court,63127,38.5438382,-90.4202451
9713,Fall Ridge Trail,63127,38.5311012,-90.4088741
13048,West Watson Road,63127,38.5341197,-90.4208204
420,Spears Street,63127,38.5597485,-90.3984653
12318,Courtyard Lake Drive,63127,38.5447900,-90.3998165
12749,Zacharys Ridge,63127,38.5185648,-90.4097514
12826,Weber Hill Road,63127,38.5294649,-90.4185646
12417,Courtyard Lake Drive,63127,38.5466378,-90.4020618
23,Black Oak Drive,63127,38.5403137,-90.4080455
253,Monica Drive,63127,38.5577830,-90.4003835
9071,Rott Road,63127,38.5469365,-90.4215430
10229,Watson Road,63127,38.5561956,-90.4010422
339,Spears Street,63127,38.5600686,-90.3999831
11804,Fairlind Drive,63127,38.5338618,-90.3864680
4426,South Lindbergh Boulevard,63127,38.5343113,-90.3842148
4438,South Lindbergh Boulevard,63127,38.5341110,-90.3842205
12843,Nanell Lane,63127,38.5362006,-90.4177816
9811,Kimker Lane,63127,38.5285214,-90.4173546
9197,Fox Bridge Drive,63127,38.5414415,-90.4105912
12738,Nanell Lane,63127,38.5353900,-90.4155230
12717,Robyn Road,63127,38.5378965,-90.4130004
138,Floralea Place,63127,38.5582756,-90.4055467
3929,Courtyard Place Drive,63127,38.5458976,-90.4013578
12727,Weber Hill Road,63127,38.5301460,-90.4138491
9344,Robyn Hills Drive,63127,38.5391270,-90.4071686
12852,Shadow Lane,63127,38.5370346,-90.4174439
12605,Friendship Ridge Lane,63127,38.5222679,-90.4068141
8808,Eggeling Lane,63127,38.5511757,-90.3998667
10154,Watson Road,63127,38.5548375,-90.3989604
3770,South Lindbergh Boulevard,63127,38.5500352,-90.4048444
4144,South Lindbergh Boulevard,63127,38.5389561,-90.3938078
3780,South Lindbergh Boulevard,63127,38.5496936,-90.4049619
10200,Rahning Road,63127,38.5197274,-90.4160012
10150,Watson Road,63127,38.5556349,-90.3990777
3709,Sunset Chase Drive,63127,38.5502032,-90.4088907
8839,Woodfox Drive,63127,38.5501061,-90.4021413
12104,Westwick Place,63127,38.5433548,-90.3938534
8817,Woodpark Drive,63127,38.5510667,-90.4009982
12730,West Watson Road,63127,38.5414153,-90.4112295
9833,Eagle Hill Lane,63127,38.5281058,-90.4135476
409,Rayburn Avenue,63127,38.5598127,-90.3990645
11866,Gravois Road,63127,38.5286261,-90.3889200
9831,Sunset Greens Drive,63127,38.5273449,-90.4106819
9808,Eagle Crest Court,63127,38.5287499,-90.4152610
13156,Gravois Road,63127,38.5126729,-90.4273736
12431,Court Drive,63127,38.5481400,-90.4069533
9148,Fox Bridge Drive,63127,38.5436891,-90.4076847
10294,Maebern Terrace,63127,38.5543133,-90.4030460
9129,Rott Road,63127,38.5449198,-90.4216460
12864,Weber Hill Road,63127,38.5287871,-90.4191907
9855,Kimker Lane,63127,38.5266067,-90.4181593
8823,Ryegate Court,63127,38.5501765,-90.4043336
9217,Robyn Road,63127,38.5412116,-90.3974341
9825,Sunset Greens Drive,63127,38.5275769,-90.4103238
10244,Richview Drive,63127,38.5528008,-90.4001920
9608,Hidden Valley Drive,63127,38.5287674,-90.3998009
10319,Watson Road,63127,38.5562101,-90.4019635
12343,Matthews Lane,63127,38.5416537,-90.4014688
3770,South Lindbergh Boulevard,63127,38.5499487,-90.4048163
248,Rayburn Avenue,63127,38.5591164,-90.4014780
129,Deane Court,63127,38.5569522,-90.4051554
12408,Robyn Road,63127,38.5369927,-90.4043528
11618,Sappington Barracks Road,63127,38.5292363,-90.3816801
11726,Sappington Barracks Road,63127,38.5293002,-90.3863205
12144,Gravois Road,63127,38.5257543,-90.3936017
12443,Matthews Lane,63127,38.5435699,-90.4044276
12430,Grandview Lake Drive,63127,38.5263030,-90.4057211
9718,Fall Ridge Trail,63127,38.5314250,-90.4095896
12523,Grandview Forest Drive,63127,38.5251202,-90.4052858
9312,Lincoln Drive,63127,38.5396626,-90.3985541
10125,Watson Road,63127,38.5564935,-90.3989893
12600,Weber Hill Road,63127,38.5292562,-90.4108745
9350,Lincoln Drive,63127,38.5375903,-90.4009128
10712,Sunset Hills Plaza,63127,38.5525634,-90.4074404
9837,Sunset Greens Drive,63127,38.5271511,-90.4110142
12216,Hadley Hill Road,63127,38.5293113,-90.3971563
12208,Hadley Hill Road,63127,38.5292885,-90.3959872
10315,Watson Road,63127,38.5561407,-90.4019311
12308,Fox Court,63127,38.5420341,-90.4007760
9,Black Oak Drive,63127,38.5382412,-90.4094846
12126,Trentmore Place,63127,38.5420887,-90.3956155
10260,Maebern Terrace,63127,38.5535907,-90.4013255
10,Black Oak Drive,63127,38.5382967,-90.4101166
186,Floralea Place,63127,38.5582804,-90.4036709
9735,Landmark Parkway Drive,63127,38.5264507,-90.3979943
9837,Kimker Lane,63127,38.5272379,-90.4175560
4446,South Lindbergh Boulevard,63127,38.5340091,-90.3842216
12346,Courtyard Lake Drive,63127,38.5448723,-90.4004621
12926,Baalbek Drive,63127,38.5383946,-90.4187285
10533,East Watson Road,63127,38.5516612,-90.4042922
9881,Kimker Lane,63127,38.5263196,-90.4187740
415,Spears Street,63127,38.5601563,-90.3992020
125,Floralea Place,63127,38.5586862,-90.4059800
12412,Courtyard Lake Drive,63127,38.5461361,-90.4021518
3850,South Lindbergh Boulevard,63127,38.5483985,-90.4044063
12815,Sunset Glen Estates,63127,38.5350872,-90.4194981
9429,Caddyshack Circle,63127,38.5303004,-90.4282066
12627,Bradford Woods Drive,63127,38.5464874,-90.4107954
11880,Gravois Road,63127,38.5287219,-90.3894418
311,Rayburn Avenue,63127,38.5597085,-90.4020092
264,Deane Court,63127,38.5565473,-90.4007813
10505,East Watson Road,63127,38.5517789,-90.4027092
190,Rayburn Avenue,63127,38.5591386,-90.4034882
229,Monica Drive,63127,38.5577907,-90.4018039
11914,Gravois Road,63127,38.5290740,-90.3900537
4336,South Lindbergh Boulevard,63127,38.5356482,-90.3870172
11926,Gravois Road,63127,38.5286157,-90.3901029
9555,South Geyer Road,63127,38.5320375,-90.3915685
155,Rayburn Avenue,63127,38.5589852,-90.4047305
9205,Robyn Road,63127,38.5418122,-90.3975211
11856,Sunlind Drive,63127,38.5330086,-90.3887515
12801,Weber Hill Road,63127,38.5297795,-90.4171185
30,Black Oak Drive,63127,38.5388379,-90.4093970
12354,Courtyard Lake Drive,63127,38.5447373,-90.4009748
3628,South Lindbergh Boulevard,63127,38.5536817,-90.4053909
10206,Richview Drive,63127,38.5530711,-90.3984222
10759,Sunset Hills Plaza,63127,38.5547606,-90.4080739
10242,Maebern Terrace,63127,38.5536598,-90.4005411
9515,Country Club Green,63127,38.5333428,-90.4070013
9000,Rott Road,63127,38.5489300,-90.4208787
10709,Watson Road,63127,38.5560704,-90.4084757
12935,Gravois Road,63127,38.5160250,-90.4140493
12933,Baalbek Drive,63127,38.5386899,-90.4194578
9435,Workbench Drive,63127,38.5371888,-90.3941388
147,Deane Court,63127,38.5569532,-90.4043346
10266,Maebern Terrace,63127,38.5535684,-90.4015834
12661,Nanell Lane,63127,38.5348250,-90.4126679
249,Deane Court,63127,38.5569388,-90.4015475
12552,Cinema Lane,63127,38.5396972,-90.4065333
9532,South Geyer Road,63127,38.5329540,-90.3891105
9826,Sunset Greens Drive,63127,38.5271217,-90.4098899
10241,Richview Drive,63127,38.5532639,-90.4002171
209,Monica Drive,63127,38.5577756,-90.4029201
12711,Rott Road,63127,38.5503795,-90.4198384
9849,Sunset Greens Drive,63127,38.5266372,-90.4116411
13015,Sunset Stream Court,63127,38.5361940,-90.4223131
9812,Sunset Greens Drive,63127,38.5279912,-90.4092499
13480,West Watson Road,63127,38.5230321,-90.4300389
12951,Maurer Industrial Drive,63127,38.5232293,-90.4176391
3701,South Lindbergh Boulevard,63127,38.5515573,-90.4075168
216,Monica Drive,63127,38.5574176,-90.4025004
13393,Maple Drive,63127,38.5358958,-90.4312830
3701,South Lindbergh Boulevard,63127,38.5516884,-90.4074901
10333,Richview Drive,63127,38.5530312,-90.4029774
1503,South Kirkwood Road,63127,38.5572691,-90.4074483
12710,Rott Road,63127,38.5496891,-90.4196112
9808,Grandview Estates Drive,63127,38.5283613,-90.4076937
13086,Gravois Road,63127,38.5099113,-90.4167753
4,Marchem Circle,63127,38.5396345,-90.4290722
3720,Sunset Chase Drive,63127,38.5499932,-90.4079169
12529,Maret Drive,63127,38.5496216,-90.4110707
9320,Lincoln Drive,63127,38.5393490,-90.3992125
13105,West Watson Road,63127,38.5323501,-90.4229847
12679,Alberts Laumeier Court,63127,38.5505147,-90.4190085
31,Black Oak Drive,63127,38.5387994,-90.4086992
10201,Maebern Terrace,63127,38.5542267,-90.3983175
9149,Rott Road,63127,38.5446241,-90.4218100
244,Deane Court,63127,38.5564750,-90.4016739
10213,Maebern Terrace,63127,38.5542247,-90.3989292
238,Monica Drive,63127,38.5573948,-90.4012387
12541,Robyn Road,63127,38.5376966,-90.4103043
12912,Gary Player Drive,63127,38.5289756,-90.4254247
9475,Golfinhurst Lane,63127,38.5350908,-90.3933946
4585,South Lindbergh Boulevard,63127,38.5309693,-90.3838528
16,Black Oak Drive,63127,38.5398385,-90.4109524
11090,Winter Industrial Drive,63127,38.5136827,-90.4203355
9414,Sappington Estates Drive,63127,38.5360541,-90.4080289
10950,Winter Industrial Drive,63127,38.5088007,-90.4165943
9005,Middlewood Court,63127,38.5472708,-90.4114714
12956,Sunset Bluff Court,63127,38.5434078,-90.4204677
12637,Friendship Ridge Lane,63127,38.5220926,-90.4082525
12635,Friendship Ridge Lane,63127,38.5221497,-90.4081250
9264,Rott Road,63127,38.5398525,-90.4188528
10330,Winter Industrial Drive,63127,38.5093686,-90.4145820
10220,East Watson Road,63127,38.5515237,-90.3981722
9443,Caddyshack Circle,63127,38.5296106,-90.4276371
13050,Winter Industrial Parkway,63127,38.5094295,-90.4192966
10980,Sunset Hills Plaza,63127,38.5533645,-90.4127039
12982,Maurer Industrial Drive,63127,38.5221924,-90.4195018
3814,South Lindbergh Boulevard,63127,38.5494958,-90.4054427
10990,Sunset Hills Plaza,63127,38.5540202,-90.4129581
12887,Edelen Lane,63127,38.5260158,-90.4220907
10756,Sunset Hills Plaza,63127,38.5545365,-90.4080378
10741,Sunset Hills Plaza,63127,38.5540025,-90.4079110
4019,South Lindbergh Boulevard,63127,38.5411499,-90.3995880
10890,Sunset Hills Plaza,63127,38.5530953,-90.4098022
10900,Winter Industrial Drive,63127,38.5073164,-90.4142086
12422,Rott Road,63127,38.5515263,-90.4107225
12545,West Watson Road,63127,38.5454206,-90.4090731
10218,Richview Drive,63127,38.5528380,-90.3990720
9385,Roosevelt Drive,63127,38.5383129,-90.4035332
12947,Gravois Road,63127,38.5173044,-90.4144446
13525,West Watson Road,63127,38.5197038,-90.4335161
221,Deane Court,63127,38.5569522,-90.4025242
4600,South Lindbergh Boulevard,63127,38.5310704,-90.3819108
161,Dieterle Lane,63127,38.5497671,-90.4234823
4600,South Lindbergh Boulevard,63127,38.5310283,-90.3820369
12940,Sunset Bluff Court,63127,38.5428087,-90.4194361
13366,West Watson Road,63127,38.5242833,-90.4225074
13408,West Watson Road,63127,38.5231751,-90.4250300
12819,Pointe Drive,63127,38.5211755,-90.4123988
12828,Sunset Glen Estates,63127,38.5354241,-90.4203122
13080,Gravois Road,63127,38.5088953,-90.4163224
18,Fox Meadows,63127,38.5416901,-90.3930296
13430,West Watson Road,63127,38.5199237,-90.4276650
12935,Gravois Road,63127,38.5161635,-90.4143464
12721,Robyn Road,63127,38.5380256,-90.4133865
2,Fox Meadows,63127,38.5375575,-90.3901897
224,Rayburn Avenue,63127,38.5591351,-90.4023180
3,Fox Meadows,63127,38.5380332,-90.3900680
37,Boliford Beach Road,63127,38.5120615,-90.4255157
8803,Woodfox Drive,63127,38.5511954,-90.4023399
12969,Maurer Industrial Drive,63127,38.5216497,-90.4182071
12951,Gravois Road,63127,38.5159821,-90.4153215
12863,Weber Hill Road,63127,38.5298652,-90.4203202
10320,Richview Drive,63127,38.5526341,-90.4025142
9409,Sappington Estates Drive,63127,38.5364906,-90.4087901
47,Boliford Beach Road,63127,38.5120076,-90.4255930
4342,South Lindbergh Boulevard,63127,38.5356024,-90.3867937
9206,Caddyshack Circle,63127,38.5407887,-90.4296361
12627,Friendship Ridge Lane,63127,38.5223472,-90.4076605
12951,Gravois Road,63127,38.5160105,-90.4150969
10758,Sunset Hills Plaza,63127,38.5547034,-90.4080558
12540,Grandview Forest Drive,63127,38.5242049,-90.4069572
12711,Weber Hill Road,63127,38.5301669,-90.4126767
10757,Sunset Hills Plaza,63127,38.5546271,-90.4080498
13049,Winter Industrial Court,63127,38.5107743,-90.4199109
12600,Robyn Road,63127,38.5366066,-90.4105035
12775,West Watson Road,63127,38.5398311,-90.4145814
10748,Sunset Hills Plaza,63127,38.5542981,-90.4080077
12755,Saint Lazare Lane,63127,38.5342691,-90.4159415
12739,Rott Road,63127,38.5498558,-90.4207859
9151,Rott Road,63127,38.5444785,-90.4216250
11000,Winter Industrial Drive,63127,38.5106201,-90.4175114
12707,Rott Road,63127,38.5504815,-90.4194535
12692,Alberts Laumeier Court,63127,38.5507000,-90.4201454
32,Maclane Court,63127,38.5482367,-90.4183534
13040,Gravois Road,63127,38.5143372,-90.4189392
13050,Gravois Road,63127,38.5144688,-90.4195306
11801,Cragfont Court,63127,38.5315226,-90.3880154
12727,Rott Road,63127,38.5501453,-90.4204187
13050,Winter Industrial Court,63127,38.5114994,-90.4205411
13001,Winter Industrial Court,63127,38.5115267,-90.4186844
13084,Gravois Road,63127,38.5140451,-90.4205019
10313,Watson Road,63127,38.5562183,-90.4018402
12345,Courtyard Lake Drive,63127,38.5452289,-90.4006665
9510,Sunny Creek Lane,63127,38.5342237,-90.4029750
12537,Maret Drive,63127,38.5493492,-90.4105348
12958,Gravois Road,63127,38.5149398,-90.4166873
8816,Ryegate Court,63127,38.5504643,-90.4036871
10338,Richview Drive,63127,38.5525443,-90.4033446
13010,Winter Industrial Parkway,63127,38.5112524,-90.4184147
13055,Winter Industrial Parkway,63127,38.5104182,-90.4184976
13040,Winter Industrial Parkway,63127,38.5105975,-90.4192498
9042,Middlewood Court,63127,38.5475533,-90.4091489
12852,Maurer Industrial Drive,63127,38.5217922,-90.4165766
10340,Winter Industrial Drive,63127,38.5105718,-90.4157937
12954,Gravois Road,63127,38.5150451,-90.4162964
8837,Woodpark Drive,63127,38.5504048,-90.4009014
10249,Julius Northway Street,63127,38.5548971,-90.4011444
12967,Maurer Industrial Drive,63127,38.5216783,-90.4181342
12628,Cottage Ridge Lane,63127,38.5214892,-90.4077891
12636,Friendship Ridge Lane,63127,38.5217541,-90.4082074
9814,Kimker Lane,63127,38.5277635,-90.4165533
10752,Sunset Hills Plaza,63127,38.5544030,-90.4080197
12632,Friendship Ridge Lane,63127,38.5217038,-90.4079071
12970,Maurer Industrial Drive,63127,38.5210339,-90.4187234
10722,Sunset Hills Plaza,63127,38.5527744,-90.4076045
11195,Yorkhouse Trail,63127,38.5206397,-90.4083413
12970,Maurer Industrial Drive,63127,38.5210518,-90.4188447
44,Fox Meadows,63127,38.5397963,-90.3920641
8822,Lynn Lane,63127,38.5506512,-90.3980527
12741,Rott Road,63127,38.5499768,-90.4209194
10746,Sunset Office Drive,63127,38.5572952,-90.4078624
10220,Rahning Road,63127,38.5180490,-90.4151298
10750,Sunset Hills Plaza,63127,38.5543410,-90.4080137
12130,Trentmore Place,63127,38.5421173,-90.3959502
10757,Sunset Hills Plaza,63127,38.5545794,-90.4080559
9528,Country Club Green,63127,38.5332226,-90.4065387
12790,West Watson Road,63127,38.5388405,-90.4141813
9240,Caddyshack Circle,63127,38.5410674,-90.4262888
13491,West Watson Road,63127,38.5211861,-90.4295221
12955,West Watson Road,63127,38.5362686,-90.4211375
11715,Sappington Barracks Road,63127,38.5299410,-90.3855802
12773,Zacharys Ridge,63127,38.5166749,-90.4111017
12617,Friendship Ridge Lane,63127,38.5223827,-90.4072418
12808,Weber Hill Road,63127,38.5292104,-90.4175699
12541,Maret Drive,63127,38.5492671,-90.4100502
12209,Robyn Road,63127,38.5386674,-90.3985955
13001,Pagada Parkway,63127,38.5383646,-90.4216387
42,Boliford Beach Road,63127,38.5116600,-90.4251341
9444,Caddyshack Circle,63127,38.5298879,-90.4270840
12570,Village Circle Drive,63127,38.5224919,-90.4069493
12814,Weber Hill Road,63127,38.5292321,-90.4179535
8831,Gladlea Drive,63127,38.5500106,-90.3990457
5,Fox Meadows,63127,38.5388661,-90.3898957
12943,West Watson Road,63127,38.5371238,-90.4208902
12935,Gravois Road,63127,38.5161872,-90.4141765
12930,Gary Player Drive,63127,38.5280697,-90.4267876
9408,Sappington Estates Drive,63127,38.5364441,-90.4080687
12531,Cinema Lane,63127,38.5402122,-90.4056201
28,Boliford Beach Road,63127,38.5115522,-90.4252930
11801,Parklind Drive,63127,38.5329394,-90.3868361
12137,Trentmore Place,63127,38.5426885,-90.3966194
10230,Watson Road,63127,38.5555582,-90.4005683
12443,West Watson Road,63127,38.5466057,-90.4070135
9415,Sappington Estates Drive,63127,38.5360045,-90.4089029
10321,Richview Drive,63127,38.5530977,-90.4024772
12747,West Watson Road,63127,38.5406713,-90.4164313
12960,Gravois Road,63127,38.5147945,-90.4170004
13001,Gary Player Drive,63127,38.5307535,-90.4291060
12129,Trentmore Place,63127,38.5426457,-90.3959320
13120,Maple Drive,63127,38.5435899,-90.4256857
334,Spears Street,63127,38.5597468,-90.4006993
9909,Kimker Lane,63127,38.5257139,-90.4200263
12808,Gravois Road,63127,38.5156241,-90.4110137
12685,Alberts Laumeier Court,63127,38.5512809,-90.4194350
3947,South Lindbergh Boulevard,63127,38.5439847,-90.4016987
12989,Gravois Road,63127,38.5153812,-90.4170967
9803,Eagle Crest Court,63127,38.5292904,-90.4157584
10705,Watson Road,63127,38.5561475,-90.4080734
9717,Landmark Parkway Drive,63127,38.5266878,-90.3991837
10940,Sunset Hills Plaza,63127,38.5529415,-90.4112777
12502,Maret Drive,63127,38.5500697,-90.4099195
13300,West Watson Road,63127,38.5269945,-90.4233609
12426,Court Drive,63127,38.5476722,-90.4066096
3714,Sunset Chase Drive,63127,38.5503118,-90.4080824
9814,Sunset Greens Drive,63127,38.5275845,-90.4092275
10775,Watson Road,63127,38.5554388,-90.4111750
9854,Eagle Hill Lane,63127,38.5265455,-90.4136697
134,Monica Drive,63127,38.5574068,-90.4047556
12975,Maurer Industrial Drive,63127,38.5221763,-90.4185717
9420,Sunny Creek Lane,63127,38.5364326,-90.4026026
10228,Rahning Road,63127,38.5166340,-90.4149845
12851,West Watson Road,63127,38.5377198,-90.4181421
11918,Gravois Road,63127,38.5289873,-90.3901855
12951,Gravois Road,63127,38.5159915,-90.4152001
9432,Caddyshack Circle,63127,38.5301002,-90.4275451
9848,Eagle Hill Lane,63127,38.5269041,-90.4134258
10984,Sunset Hills Plaza,63127,38.5537245,-90.4128461
13062,Saller Drive,63127,38.5462863,-90.4233537
12759,Weber Hill Road,63127,38.5307013,-90.4162139
12626,Cottage Ridge Lane,63127,38.5213819,-90.4077073
13014,West Moore Meadows Court,63127,38.5451817,-90.4223462
12984,Maurer Industrial Drive,63127,38.5221352,-90.4195200
10746,Sunset Hills Plaza,63127,38.5542075,-90.4079957
13240,West Watson Road,63127,38.5277918,-90.4211957
12631,Friendship Ridge Lane,63127,38.5221257,-90.4078247
12630,Rott Road,63127,38.5506515,-90.4168905
12757,Zacharys Ridge,63127,38.5182525,-90.4103188
10779,Watson Road,63127,38.5553945,-90.4112250
9839,Kimker Lane,63127,38.5279938,-90.4191177
136,Monica Drive,63127,38.5573690,-90.4046042
10745,Sunset Hills Plaza,63127,38.5541455,-90.4079836
204,Floralea Place,63127,38.5582646,-90.4030091
13118,Maple Drive,63127,38.5435754,-90.4261319
12935,Gravois Road,63127,38.5162442,-90.4138549
11956,Gravois Road,63127,38.5278850,-90.3918615
126,Monica Drive,63127,38.5574292,-90.4053094
13014,Saller Drive,63127,38.5463668,-90.4222540
12880,Bond Place,63127,38.5321026,-90.4178813
9445,Sappington Estates Drive,63127,38.5338112,-90.4077606
10238,Richview Drive,63127,38.5528007,-90.3999334
12633,Friendship Ridge Lane,63127,38.5220596,-90.4079465
12640,Friendship Ridge Lane,63127,38.5217882,-90.4085060
10754,Sunset Hills Plaza,63127,38.5544936,-90.4080378
3714,Sunset Chase Drive,63127,38.5502098,-90.4079845
4532,South Lindbergh Boulevard,63127,38.5324787,-90.3833800
13020,Saller Drive,63127,38.5464246,-90.4229106
12778,Pointe Drive,63127,38.5200867,-90.4088397
12234,Robyn Road,63127,38.5378318,-90.3989897
12984,Maurer Industrial Drive,63127,38.5223163,-90.4193317
11060,Winter Industrial Drive,63127,38.5124091,-90.4192932
13000,Winter Industrial Court,63127,38.5120755,-90.4195060
11080,Winter Industrial Drive,63127,38.5131342,-90.4199417
4343,South Lindbergh Boulevard,63127,38.5349570,-90.3873716
9606,Mill Hill Lane,63127,38.5285780,-90.3940467
11822,Fairlind Drive,63127,38.5339334,-90.3877787
11095,Winter Industrial Drive,63127,38.5140992,-90.4193945
12403,Robyn Road,63127,38.5375292,-90.4036139
12624,Cottage Ridge Lane,63127,38.5214461,-90.4075069
12714,Rott Road,63127,38.5491661,-90.4194276
12639,Friendship Ridge Lane,63127,38.5221905,-90.4084162
10250,Richview Drive,63127,38.5528088,-90.4004490
12742,West Watson Road,63127,38.5408645,-90.4124867
11050,Winter Industrial Drive,63127,38.5117530,-90.4184111
10301,Julius Northway Street,63127,38.5548632,-90.4029758
129,Floralea Place,63127,38.5586649,-90.4058205
12781,Village Circle Drive,63127,38.5216414,-90.4097826
3912,Courtyard Place Drive,63127,38.5455043,-90.4008210
12651,Village Circle Drive,63127,38.5216121,-90.4080758
11847,Sunlind Drive,63127,38.5334471,-90.3884127
4548,South Lindbergh Boulevard,63127,38.5325491,-90.3834471
10225,Richview Drive,63127,38.5533068,-90.3994299
12721,West Watson Road,63127,38.5422605,-90.4133073
12641,Friendship Ridge Lane,63127,38.5221405,-90.4085528
26,Black Oak Drive,63127,38.5394764,-90.4085886
409,Rayburn Avenue,63127,38.5595151,-90.3990414
12523,Maret Drive,63127,38.5504003,-90.4112773
13510,West Watson Road,63127,38.5211321,-90.4311173
190,Floralea Place,63127,38.5582826,-90.4034915
12935,Gravois Road,63127,38.5160872,-90.4143526
12456,Matthews Lane,63127,38.5429001,-90.4048436
12819,West Watson Road,63127,38.5381458,-90.4167244
10780,Sunset Hills Plaza,63127,38.5531663,-90.4091647
12920,Gravois Road,63127,38.5117337,-90.4123095
10225,Watson Road,63127,38.5562027,-90.4009654
9517,Sunny Creek Lane,63127,38.5339702,-90.4035822
12360,Gravois Road,63127,38.5227639,-90.4018070
13416,West Watson Road,63127,38.5217749,-90.4233151
8885,Woodpark Drive,63127,38.5494100,-90.4009024
13120,Maple Drive,63127,38.5431497,-90.4257530
9456,Sunny Creek Lane,63127,38.5351130,-90.4029070
10525,East Watson Road,63127,38.5516914,-90.4037299
11179,Yorkhouse Trail,63127,38.5202914,-90.4075877
12962,Baalbek Drive,63127,38.5377524,-90.4203925
9840,Lebanon Greens Drive,63127,38.5256858,-90.4097762
12653,Gravois Road,63127,38.5185645,-90.4076560
10228,Rahning Road,63127,38.5167391,-90.4151664
11191,Yorkhouse Trail,63127,38.5204360,-90.4082808
12507,West Watson Road,63127,38.5460224,-90.4081945
9621,Hidden Valley Drive,63127,38.5281003,-90.3983761
12689,Alberts Laumeier Court,63127,38.5512611,-90.4198332
12951,Gravois Road,63127,38.5158342,-90.4151760
11815,Sunset Grove Court,63127,38.5357125,-90.3885920
9846,Lebanon Greens Drive,63127,38.5254677,-90.4100717
12982,Baalbek Drive,63127,38.5373825,-90.4211999
10899,Sunset Hills Plaza,63127,38.5530145,-90.4100998
224,Deane Court,63127,38.5564792,-90.4023718
10740,Sunset Hills Plaza,63127,38.5540072,-90.4078077
12935,Gravois Road,63127,38.5161873,-90.4142736
9262,Rott Road,63127,38.5407338,-90.4207981
12681,Alberts Laumeier Court,63127,38.5511299,-90.4191124
12982,Maurer Industrial Drive,63127,38.5222304,-90.4192469
13438,West Watson Road,63127,38.5224725,-90.4303796
10309,Julius Northway Street,63127,38.5548623,-90.4035399
10220,Julius Northway Street,63127,38.5549046,-90.3997399
12980,Gravois Road,63127,38.5081570,-90.4106393
14,Roosevelt Drive,63127,38.5391970,-90.4022746
9266,Rott Road,63127,38.5403716,-90.4209685
12521,Maret Drive,63127,38.5506080,-90.4109001
13038,West Watson Road,63127,38.5346032,-90.4198492
12470,Matthews Lane,63127,38.5423876,-90.4054618
12955,Gravois Road,63127,38.5157486,-90.4159131
9809,Grandview Estates Drive,63127,38.5279799,-90.4084131
12461,Matthews Lane,63127,38.5431488,-90.4055097
12502,Cinema Lane,63127,38.5410231,-90.4045115
12984,Maurer Industrial Drive,63127,38.5221828,-90.4193622
9826,Eagle Hill Lane,63127,38.5282585,-90.4127352
10228,Rahning Road,63127,38.5168247,-90.4150025
12741,Rott Road,63127,38.5496049,-90.4208858
9209,Matthews Lane,63127,38.5421043,-90.4065996
12965,Fringe Court,63127,38.5296008,-90.4303727
248,Floralea Place,63127,38.5582562,-90.4012399
10237,Julius Northway Street,63127,38.5549348,-90.4005989
244,Monica Drive,63127,38.5573802,-90.4008140
12772,West Watson Road,63127,38.5395000,-90.4132677
3726,Sunset Chase Drive,63127,38.5495761,-90.4076348
9850,Kimker Lane,63127,38.5264890,-90.4172420
12580,Rott Road,63127,38.5504635,-90.4152289
8810,Ryegate Court,63127,38.5507695,-90.4037377
10214,East Watson Road,63127,38.5514185,-90.3986865
11,Roosevelt Drive,63127,38.5401615,-90.4022747
13075,Gravois Road,63127,38.5171059,-90.4200917
9267,Rott Road,63127,38.5433747,-90.4255304
12421,Cinema Lane,63127,38.5426257,-90.4033254
20,Maclane Court,63127,38.5490140,-90.4183012
13016,Sunset Stream Court,63127,38.5355505,-90.4222562
13008,Saller Drive,63127,38.5463673,-90.4215545
11197,Yorkhouse Trail,63127,38.5207205,-90.4083357
232,Deane Court,63127,38.5564787,-90.4020906
11811,Sunlind Drive,63127,38.5334428,-90.3862049
1,Edelen Lane,63127,38.5256698,-90.4218514
11189,Yorkhouse Trail,63127,38.5203498,-90.4082177
4011,South Lindbergh Boulevard,63127,38.5419053,-90.3998706
11183,Yorkhouse Trail,63127,38.5202359,-90.4078446
13250,West Watson Road,63127,38.5269959,-90.4229401
12400,Robyn Road,63127,38.5369012,-90.4032843
13360,West Watson Road,63127,38.5253054,-90.4259840
10900,Sunset Hills Plaza,63127,38.5529768,-90.4106614
9543,Country Club Green,63127,38.5323015,-90.4066574
11185,Yorkhouse Trail,63127,38.5202529,-90.4079940
12545,Cinema Lane,63127,38.5402372,-90.4061186
13014,Gravois Road,63127,38.5146265,-90.4182551
12710,Zacharys Ridge,63127,38.5176037,-90.4097413
12645,Gravois Road,63127,38.5186080,-90.4077561
9884,Kimker Lane,63127,38.5247902,-90.4175566
12706,Rott Road,63127,38.5498797,-90.4193659
9845,Eagle Hill Lane,63127,38.5275687,-90.4139450
12820,Weber Hill Road,63127,38.5294151,-90.4182800
134,Floralea Place,63127,38.5582924,-90.4056882
13088,Gravois Road,63127,38.5060028,-90.4138387
12675,Rott Road,63127,38.5507297,-90.4188164
13009,West Moore Meadows Court,63127,38.5458964,-90.4221051
9925,Kimker Lane,63127,38.5250254,-90.4214673
12634,Friendship Ridge Lane,63127,38.5217969,-90.4079889
10275,Julius Northway Street,63127,38.5548965,-90.4024510
8861,Woodpark Drive,63127,38.5497532,-90.4007780
12205,Robyn Road,63127,38.5389450,-90.3980146
12544,Cinema Lane,63127,38.5397149,-90.4061059
10893,Sunset Hills Plaza,63127,38.5546037,-90.4112475
12480,Rott Road,63127,38.5518329,-90.4112253
12625,Friendship Ridge Lane,63127,38.5224186,-90.4075330
12915,West Watson Road,63127,38.5373369,-90.4191086
12815,West Watson Road,63127,38.5381481,-90.4166160
12609,Weber Hill Road,63127,38.5296943,-90.4104675
13426,West Watson Road,63127,38.5204664,-90.4265075
10243,Julius Northway Street,63127,38.5549046,-90.4008786
12638,Friendship Ridge Lane,63127,38.5218644,-90.4086002
12644,Knighton Trail,63127,38.5192656,-90.4063145
9700,Fall Ridge Trail,63127,38.5304319,-90.4095131
12658,Knighton Trail,63127,38.5191821,-90.4071434
12638,Knighton Trail,63127,38.5194715,-90.4060912
9464,Crooked Creek Trail,63127,38.5354025,-90.4042200
13100,West Watson Road,63127,38.5328175,-90.4212469
12641,Knighton Trail,63127,38.5199196,-90.4069796
12982,Maurer Industrial Drive,63127,38.5222496,-90.4194714
10770,Sunset Hills Plaza,63127,38.5531662,-90.4090493
12540,Weber Hill Road,63127,38.5283121,-90.4101727
13010,Sunset Stream Court,63127,38.5355289,-90.4218640
12608,Knighton Trail,63127,38.5207153,-90.4050721
12678,Alberts Laumeier Court,63127,38.5507071,-90.4191836
12925,West Watson Road,63127,38.5369891,-90.4196605
8806,Woodpark Drive,63127,38.5512881,-90.4002651
10810,Sunset Hills Plaza,63127,38.5531332,-90.4095351
13061,Saller Drive,63127,38.5470928,-90.4237635
9837,Eagle Hill Lane,63127,38.5277950,-90.4137197
10800,Sunset Hills Plaza,63127,38.5531284,-90.4094319
9455,Rott Road,63127,38.5362038,-90.4224281
12651,Robyn Road,63127,38.5377420,-90.4118234
11756,Parklind Drive,63127,38.5330727,-90.3858701
9857,Eagle Hill Lane,63127,38.5269992,-90.4144704
12995,Gravois Road,63127,38.5187047,-90.4178737
12801,Weber Hill Road,63127,38.5295582,-90.4174890
10286,Maebern Terrace,63127,38.5539341,-90.4027691
13036,Dieterle Lane,63127,38.5492401,-90.4238068
9421,Sappington Estates Drive,63127,38.5354649,-90.4088806
10753,Sunset Hills Plaza,63127,38.5544555,-90.4080379
11177,Yorkhouse Trail,63127,38.5203643,-90.4074884
12590,Rott Road,63127,38.5501208,-90.4159264
12633,Bradford Woods Drive,63127,38.5464288,-90.4112859
12984,Maurer Industrial Drive,63127,38.5222544,-90.4195442
12963,Maurer Industrial Drive,63127,38.5217544,-90.4179824
9009,Rott Road,63127,38.5487295,-90.4220104
12984,Maurer Industrial Drive,63127,38.5222495,-90.4193379
12939,West Watson Road,63127,38.5371147,-90.4206474
400,Homecrest Drive,63127,38.5571796,-90.3994723
9839,Lebanon Greens Drive,63127,38.5261469,-90.4101173
10319,Julius Northway Street,63127,38.5548260,-90.4041418
9719,Fall Ridge Trail,63127,38.5314696,-90.4088185
9922,Grandview Forest Court,63127,38.5249375,-90.4060657
9863,Eagle Hill Lane,63127,38.5267015,-90.4145445
12951,Gravois Road,63127,38.5159583,-90.4154489
12302,Fox Court,63127,38.5422486,-90.4000525
261,Floralea Place,63127,38.5586385,-90.4008152
13120,Maple Drive,63127,38.5431483,-90.4259608
11810,Cragfont Court,63127,38.5310686,-90.3887577
13014,Gravois Road,63127,38.5145741,-90.4183341
13270,Maple Drive,63127,38.5340750,-90.4300144
13060,West Watson Road,63127,38.5335863,-90.4211801
135,Monica Drive,63127,38.5578180,-90.4047209
10267,Julius Northway Street,63127,38.5549106,-90.4019257
13068,West Watson Road,63127,38.5332333,-90.4211901
225,Floralea Place,63127,38.5586603,-90.4022339
12623,Cottage Ridge Lane,63127,38.5217249,-90.4074611
273,Deane Court,63127,38.5569478,-90.4005180
12814,Gravois Road,63127,38.5155435,-90.4115174
12916,Sunset Bluff Court,63127,38.5436179,-90.4181897
12982,Maurer Industrial Drive,63127,38.5223164,-90.4194652
13246,West Watson Road,63127,38.5274131,-90.4224737
12406,Courtyard Lake Drive,63127,38.5460035,-90.4020304
12736,West Watson Road,63127,38.5411705,-90.4122434
9751,Fall Ridge Trail,63127,38.5325066,-90.4115315
10738,Sunset Hills Plaza,63127,38.5539833,-90.4077349
12765,Nanell Lane,63127,38.5358491,-90.4165629
10760,Sunset Hills Plaza,63127,38.5531995,-90.4089400
12956,Gravois Road,63127,38.5149683,-90.4165598
10232,Rahning Road,63127,38.5164493,-90.4159477
10701,Watson Road,63127,38.5562490,-90.4077874
12226,Hadley Hill Road,63127,38.5294512,-90.3983789
12629,Rott Road,63127,38.5511848,-90.4177539
13,Timber Creek Lane,63127,38.5358749,-90.3962038
48,Boliford Beach Road,63127,38.5118824,-90.4248549
13550,West Watson Road,63127,38.5184063,-90.4303800
12302,Matthews Lane,63127,38.5407572,-90.4008698
12935,Gravois Road,63127,38.5162299,-90.4139641
13012,Gravois Road,63127,38.5147073,-90.4179759
12655,Rott Road,63127,38.5513483,-90.4181942
12540,West Watson Road,63127,38.5445884,-90.4091568
9800,Grandview Estates Drive,63127,38.5287964,-90.4077934
12706,Nanell Lane,63127,38.5352106,-90.4146060
12552,West Watson Road,63127,38.5442437,-90.4079696
9225,Matthews Lane,63127,38.5411332,-90.4058101
12512,West Watson Road,63127,38.5454299,-90.4078410
12961,Maurer Industrial Drive,63127,38.5218021,-90.4179338
12715,Rott Road,63127,38.5502004,-90.4202038
9801,Grandview Estates Drive,63127,38.5284248,-90.4085882
200,Rayburn Avenue,63127,38.5591122,-90.4031600
9400,Caddyshack Circle,63127,38.5314136,-90.4268639
12935,Gravois Road,63127,38.5162110,-90.4140794
11860,Gravois Road,63127,38.5299158,-90.3887606
9437,Caddyshack Circle,63127,38.5296704,-90.4281586
10742,Sunset Hills Plaza,63127,38.5540502,-90.4079777
4328,South Lindbergh Boulevard,63127,38.5358116,-90.3873468
13001,Gravois Road,63127,38.5175821,-90.4193251
12607,Cottage Ridge Lane,63127,38.5216529,-90.4068240
13420,West Watson Road,63127,38.5227529,-90.4220592
12949,Maurer Industrial Drive,63127,38.5229288,-90.4173846
13420,West Watson Road,63127,38.5226856,-90.4286435
12965,Maurer Industrial Drive,63127,38.5217211,-90.4180613
1438,Homecrest Drive,63127,38.5575510,-90.3983774
245,Monica Drive,63127,38.5577710,-90.4009441
12604,Bradford Woods Drive,63127,38.5451493,-90.4098871
13015,West Moore Meadows Court,63127,38.5456405,-90.4226346
10320,Winter Industrial Drive,63127,38.5081112,-90.4133156
11876,Gravois Road,63127,38.5286321,-90.3892453
10200,Julius Northway Street,63127,38.5542105,-90.3996324
12405,West Watson Road,63127,38.5470164,-90.4047310
9431,Golfinhurst Lane,63127,38.5366285,-90.3921864
9945,Kimker Lane,63127,38.5246145,-90.4213126
12464,Matthews Lane,63127,38.5427057,-90.4051785
3909,South Lindbergh Boulevard,63127,38.5455611,-90.4035209
12755,Weber Hill Road,63127,38.5300775,-90.4150799
12453,Cinema Lane,63127,38.5421012,-90.4045298
10224,Maebern Terrace,63127,38.5537243,-90.3997503
10232,Rahning Road,63127,38.5166143,-90.4159858
10265,Maebern Terrace,63127,38.5540270,-90.4013385
13450,West Watson Road,63127,38.5240782,-90.4257596
9133,Fox Bridge Drive,63127,38.5428740,-90.4086821
10151,Watson Road,63127,38.5564509,-90.3992289
12429,Courtyard Lake Drive,63127,38.5466757,-90.4029366
10744,Sunset Hills Plaza,63127,38.5540931,-90.4079776
12982,Maurer Industrial Drive,63127,38.5221208,-90.4193684
44,Boliford Beach Road,63127,38.5117139,-90.4250568
10232,Rahning Road,63127,38.5165626,-90.4157819
12981,Gravois Road,63127,38.5154481,-90.4166840
9852,Lebanon Greens Drive,63127,38.5252513,-90.4104775
11823,Fairlind Drive,63127,38.5343463,-90.3877814
12301,Fox Court,63127,38.5426329,-90.4003302
9174,Fox Bridge Drive,63127,38.5414805,-90.4086001
12442,Maret Drive,63127,38.5495586,-90.4091511
8826,Sunset Woods Place,63127,38.5497837,-90.4028060
11836,Fairlind Drive,63127,38.5338740,-90.3881053
12255,Hadley Hill Road,63127,38.5310083,-90.4019659
11838,Sunlind Drive,63127,38.5329855,-90.3878669
9725,Fall Ridge Trail,63127,38.5317329,-90.4089553
9337,Lincoln Drive,63127,38.5385503,-90.4010193
9832,Sunset Greens Drive,63127,38.5269381,-90.4102501
12527,Robyn Road,63127,38.5376581,-90.4095766
9838,Eagle Hill Lane,63127,38.5276303,-90.4130183
4,Roosevelt Drive,63127,38.5402664,-90.3999825
9023,Middlewood Court,63127,38.5475620,-90.4105674
12668,Bradford Woods Drive,63127,38.5449123,-90.4119821
10261,Julius Northway Street,63127,38.5549119,-90.4016654
9820,Grandview Lake Court,63127,38.5271137,-90.4034413
9903,Kimker Lane,63127,38.5259462,-90.4193947
11745,Sappington Barraks Road,63127,38.5299107,-90.3871020
237,Floralea Place,63127,38.5586501,-90.4017585
12602,Bradford Woods Drive,63127,38.5451943,-90.4094545
9821,Eagle Hill Lane,63127,38.5286966,-90.4134369
9649,Mill Hill Lane,63127,38.5279796,-90.3966870
8818,Eggeling Lane,63127,38.5508281,-90.3997450
10215,East Watson Road,63127,38.5520749,-90.3979853
10317,Watson Road,63127,38.5562163,-90.4018979
276,Rayburn Avenue,63127,38.5591233,-90.4004349
12415,Robyn Road,63127,38.5377889,-90.4048399
13144,Gravois Road,63127,38.5138087,-90.4229290
34,Boliford Beach Road,63127,38.5116061,-90.4252157
9445,Caddyshack Circle,63127,38.5291400,-90.4277576
10790,Sunset Hills Plaza,63127,38.5531569,-90.4092679
12507,Maret Drive,63127,38.5506115,-90.4097948
12437,West Watson Road,63127,38.5468197,-90.4065626
3702,Sunset Chase Drive,63127,38.5507366,-90.4087075
9818,Kimker Lane,63127,38.5277942,-90.4151129
142,Monica Drive,63127,38.5574397,-90.4043420
12503,Sunset Greens Drive,63127,38.5260267,-90.4105692
10,Roosevelt Drive,63127,38.5398011,-90.4017529
11922,Gravois Road,63127,38.5287267,-90.3899638
12476,Matthews Lane,63127,38.5421855,-90.4057717
11849,Fairlind Drive,63127,38.5344093,-90.3884112
11888,Gravois Road,63127,38.5290252,-90.3895117
12217,Sunset Terrace,63127,38.5440544,-90.3983068
3703,Sunset Chase Drive,63127,38.5504887,-90.4089694
12432,Court Drive,63127,38.5476333,-90.4070457
9747,Fall Ridge Trail,63127,38.5325629,-90.4110441
12305,Ronnie Lane,63127,38.5433033,-90.4012533
12425,Court Drive,63127,38.5481698,-90.4066614
12414,Courtyard Lake Drive,63127,38.5462836,-90.4023488
4128,South Lindbergh Boulevard,63127,38.5393270,-90.3946018
12645,Bradford Woods Drive,63127,38.5462392,-90.4123550
9018,Middlewood Court,63127,38.5481328,-90.4108320
12503,Weber Hill Road,63127,38.5292495,-90.4073742
13126,West Watson Road,63127,38.5319503,-90.4208812
3760,South Lindbergh Boulevard,63127,38.5502605,-90.4048919
9001,Rott Road,63127,38.5491413,-90.4219244
12515,Weber Hill Road,63127,38.5293719,-90.4088222
12811,Weber Hill Road,63127,38.5296747,-90.4177824
8820,Sunset Woods Place,63127,38.5501110,-90.4028242
7,Roosevelt Drive,63127,38.5406426,-90.4013434
8802,Woodfox Drive,63127,38.5512757,-90.4017116
12440,Court Drive,63127,38.5475358,-90.4073540
11914,Gravois Road,63127,38.5289915,-90.3899544
10308,Richview Drive,63127,38.5526767,-90.4019681
11646,Sappington Barracks Road,63127,38.5292797,-90.3834021
245,Deane Court,63127,38.5569301,-90.4016861
12405,Grandview Lake Drive,63127,38.5272696,-90.4072164
12434,Matthews Lane,63127,38.5430564,-90.4045065
12121,Trentmore Place,63127,38.5426313,-90.3952647
4594,Lindbergh Boulevard,63127,38.5314221,-90.3818909
4100,South Lindbergh Boulevard,63127,38.5398158,-90.3955544
8715,Walter Midway Street,63127,38.5522127,-90.4016364
128,Monica Drive,63127,38.5573678,-90.4051271
262,Monica Drive,63127,38.5574014,-90.3999966
9822,Lebanon Greens Drive,63127,38.5265850,-90.4087939
13219,West Watson Road,63127,38.5301943,-90.4232689
212,Floralea Place,63127,38.5582639,-90.4027039
252,Rayburn Avenue,63127,38.5591299,-90.4013360
9341,Lincoln Drive,63127,38.5382159,-90.4012410
9368,Robyn Hills Drive,63127,38.5383612,-90.4072203
11909,Gravois Road,63127,38.5309206,-90.3916277
8645,Otto Westway Street,63127,38.5539679,-90.4041458
148,Rayburn Avenue,63127,38.5589899,-90.4050123
12820,Shadow Lane,63127,38.5367016,-90.4162073
9638,Mill Hill Lane,63127,38.5286363,-90.3957184
256,Rayburn Avenue,63127,38.5591277,-90.4012023
12738,Rott Road,63127,38.5493867,-90.4204748
9701,Little Baisch Lane,63127,38.5324284,-90.4128630
8838,Woodfox Drive,63127,38.5503187,-90.4016291
12525,Weber Hill Road,63127,38.5292776,-90.4094864
12237,Robyn Road,63127,38.5382471,-90.3997730
12366,Matthews Lane,63127,38.5427274,-90.4024249
12354,Gravois Road,63127,38.5230927,-90.4014463
9433,Sappington Estates Drive,63127,38.5347081,-90.4088792
26,Maclane Court,63127,38.5486427,-90.4182597
9761,Fall Ridge Trail,63127,38.5316877,-90.4114640
256,Deane Court,63127,38.5565427,-90.4011427
12244,Robyn Road,63127,38.5372903,-90.3995451
313,Rayburn Avenue,63127,38.5597083,-90.4019195
12927,Baalbek Drive,63127,38.5389275,-90.4188981
11868,Gravois Road,63127,38.5286318,-90.3889661
12815,Edelen Lane,63127,38.5261865,-90.4205172
12225,Robyn Road,63127,38.5384608,-90.3991743
137,Deane Court,63127,38.5569560,-90.4047356
12639,Bradford Woods Drive,63127,38.5464158,-90.4118324
12505,Robyn Road,63127,38.5375409,-90.4086406
202,Monica Drive,63127,38.5574181,-90.4030606
8644,Otto Westway Street,63127,38.5541198,-90.4035670
26,Fox Meadows,63127,38.5384745,-90.3929677
46,Fox Meadows,63127,38.5388475,-90.3920752
413,Handy Street,63127,38.5603869,-90.3993399
1427,Homecrest Drive,63127,38.5578382,-90.3988946
11821,Sunlind Drive,63127,38.5334307,-90.3867194
12638,Rott Road,63127,38.5487626,-90.4172695
11878,Gravois Road,63127,38.5286285,-90.3894079
11805,Fairlind Drive,63127,38.5343401,-90.3866999
409,Spears Street,63127,38.5601398,-90.3993602
12113,Trentmore Place,63127,38.5426046,-90.3946034
9717,Landmark Parkway Drive,63127,38.5269054,-90.3993199
4460,South Lindbergh Boulevard,63127,38.5338031,-90.3842240
4450,South Lindbergh Boulevard,63127,38.5339531,-90.3842223
10255,Julius Northway Street,63127,38.5549195,-90.4014086
4418,South Lindbergh Boulevard,63127,38.5343149,-90.3845024
12408,Cinema Lane,63127,38.5417144,-90.4025464
177,Floralea Place,63127,38.5586583,-90.4039433
12409,Courtyard Lake Drive,63127,38.5463902,-90.4017142
9750,Fall Ridge Trail,63127,38.5319252,-90.4107137
276,Deane Court,63127,38.5565327,-90.4002212
9121,Robyn Road,63127,38.5434040,-90.3972653
12604,Cottage Ridge Lane,63127,38.5213025,-90.4067971
12519,Maret Drive,63127,38.5506562,-90.4105220
12505,Weber Hill Road,63127,38.5293688,-90.4082046
8658,Otto Westway Street,63127,38.5534899,-90.4035247
13127,West Watson Road,63127,38.5325070,-90.4243239
13320,West Watson Road,63127,38.5265832,-90.4241915
11884,Gravois Road,63127,38.5288478,-90.3894756
9120,Rott Road,63127,38.5455338,-90.4208503
11744,Parklind Drive,63127,38.5335166,-90.3856571
11914,Gravois Road,63127,38.5289696,-90.3899980
9818,Grandview Lake Court,63127,38.5275365,-90.4039098
12735,Rott Road,63127,38.5510493,-90.4206734
9542,Country Club Green,63127,38.5319477,-90.4060533
9616,South Geyer Road,63127,38.5316106,-90.3890063
122,Monica Drive,63127,38.5574300,-90.4054483
11930,Gravois Road,63127,38.5288004,-90.3902483
411,Spears Street,63127,38.5603462,-90.3994982
10109,Watson Road,63127,38.5566246,-90.3982600
32,Black Oak Drive,63127,38.5388492,-90.4080622
113,Monica Drive,63127,38.5578048,-90.4058431
10300,Julius Northway Street,63127,38.5543676,-90.4033018
9531,Sunny Creek Lane,63127,38.5335373,-90.4036330
146,Rayburn Avenue,63127,38.5589725,-90.4051614
153,Monica Drive,63127,38.5577886,-90.4036185
9833,Lebanon Greens Drive,63127,38.5263815,-90.4097783
11734,Sappington Barracks Road,63127,38.5293049,-90.3866737
10501,Watson Road,63127,38.5561307,-90.4043097
12666,Nanell Lane,63127,38.5338779,-90.4133987
9349,Lincoln Drive,63127,38.5379441,-90.4015106
9906,Grandview Forest Court,63127,38.5256252,-90.4074702
4169,South Lindbergh Boulevard,63127,38.5374719,-90.3927956
9115,Robyn Road,63127,38.5437036,-90.3972556
9816,Lebanon Greens Drive,63127,38.5269849,-90.4087811
9123,Fox Estates Drive,63127,38.5436585,-90.3932082
10200,Richview Drive,63127,38.5532168,-90.3981033
9908,Grandview Hill Court,63127,38.5265600,-90.4039870
12854,Nanell Lane,63127,38.5364362,-90.4185431
9333,Lincoln Drive,63127,38.5388770,-90.4007883
9066,Middlewood Court,63127,38.5459806,-90.4092841
10290,Maebern Terrace,63127,38.5541153,-90.4029410
12218,Sunset Terrace,63127,38.5435942,-90.3979183
12915,Bond Place,63127,38.5333134,-90.4201811
12433,Courtyard Lake Drive,63127,38.5465955,-90.4030781
24,Black Oak Drive,63127,38.5402549,-90.4076511
13029,Dieterle Lane,63127,38.5497699,-90.4232069
13009,Dieterle Lane,63127,38.5498464,-90.4222875
9415,Workbench Drive,63127,38.5380948,-90.3944375
15,Maclane Court,63127,38.5493124,-90.4188832
17,Black Oak Drive,63127,38.5400572,-90.4105959
12437,Matthews Lane,63127,38.5435997,-90.4040420
257,Floralea Place,63127,38.5586421,-90.4009724
11874,Gravois Road,63127,38.5286301,-90.3891628
12207,Sunset Terrace,63127,38.5442249,-90.3980486
11890,Gravois Road,63127,38.5291053,-90.3895335
10227,Rahning Road,63127,38.5166625,-90.4174249
12522,Sunset Greens Drive,63127,38.5262569,-90.4116538
9315,Lincoln Drive,63127,38.5402270,-90.3991845
173,Deane Court,63127,38.5569365,-90.4034945
12623,Robyn Road,63127,38.5377403,-90.4110268
13319,Maple Drive,63127,38.5382553,-90.4323988
213,Floralea Place,63127,38.5586728,-90.4027040
248,Monica Drive,63127,38.5574047,-90.4006951
12319,Matthews Lane,63127,38.5413335,-90.4008281
12900,Sunset Bluff Court,63127,38.5443442,-90.4175509
11750,Parklind Drive,63127,38.5331985,-90.3856453
12622,Friendship Ridge Lane,63127,38.5220538,-90.4074151
12421,Matthews Lane,63127,38.5436545,-90.4033384
9743,Fall Ridge Trail,63127,38.5325558,-90.4105822
12610,Friendship Ridge Lane,63127,38.5219606,-90.4070238
10235,Richview Drive,63127,38.5532744,-90.3999674
12105,Trentmore Place,63127,38.5426373,-90.3939076
9921,Grandview Hill Court,63127,38.5256576,-90.4041955
12551,West Watson Road,63127,38.5447863,-90.4099154
9717,Landmark Parkway Drive,63127,38.5269293,-90.3993730
3860,South Lindbergh Boulevard,63127,38.5482802,-90.4044115
9189,Fox Bridge Drive,63127,38.5418439,-90.4100692
236,Floralea Place,63127,38.5582525,-90.4017213
241,Floralea Place,63127,38.5586497,-90.4016013
12415,Court Drive,63127,38.5482246,-90.4060387
9425,Workbench Drive,63127,38.5374975,-90.3938827
10207,Richview Drive,63127,38.5534823,-90.3986167
9417,Golfinhurst Lane,63127,38.5371814,-90.3922030
12661,Rott Road,63127,38.5512360,-90.4187138
7,Timber Creek Lane,63127,38.5359132,-90.3941402
12782,Nanell Lane,63127,38.5350346,-90.4171432
218,Monica Drive,63127,38.5573966,-90.4023727
12528,Weber Hill Road,63127,38.5283943,-90.4091594
11922,Gravois Road,63127,38.5288179,-90.3900563
11918,Gravois Road,63127,38.5289689,-90.3902224
10260,Julius Northway Street,63127,38.5544297,-90.4016796
9912,Grandview Hill Court,63127,38.5262642,-90.4037248
10219,Maebern Terrace,63127,38.5542168,-90.3992445
157,Deane Court,63127,38.5569479,-90.4039242
12947,Sunset Bluff Court,63127,38.5435492,-90.4197711
12,Timber Creek Lane,63127,38.5367978,-90.3966255
10208,Julius Northway Street,63127,38.5544127,-90.3996574
9612,Hidden Valley Drive,63127,38.5285326,-90.3994321
12885,Bond Place,63127,38.5329782,-90.4178557
160,Deane Court,63127,38.5565525,-90.4037778
9821,Kimker Lane,63127,38.5278860,-90.4173172
3742,South Lindbergh Boulevard,63127,38.5502029,-90.4061556
194,Deane Court,63127,38.5565611,-90.4036384
281,Deane Court,63127,38.5569335,-90.4001524
9439,Sappington Estates Drive,63127,38.5342259,-90.4086566
208,Deane Court,63127,38.5564804,-90.4029334
12930,Weber Hill Road,63127,38.5301352,-90.4215182
143,Monica Drive,63127,38.5577848,-90.4043030
9729,Fall Ridge Trail,63127,38.5320594,-90.4092733
9524,Crooked Creek Trail,63127,38.5337566,-90.4042033
12330,Robyn Road,63127,38.5369078,-90.4017094
230,Monica Drive,63127,38.5573868,-90.4016531
12782,West Watson Road,63127,38.5391620,-90.4135490
12811,Edelen Lane,63127,38.5266522,-90.4210949
4012,South Lindbergh Boulevard,63127,38.5423704,-90.3988188
12454,Cinema Lane,63127,38.5415897,-90.4043007
11809,Cragfont Court,63127,38.5316301,-90.3886114
15,Timber Creek Lane,63127,38.5357629,-90.3978408
11869,Fairlind Drive,63127,38.5344217,-90.3890724
12616,Cottage Ridge Lane,63127,38.5214172,-90.4072157
11827,Sunset Grove Court,63127,38.5353948,-90.3888966
12606,Friendship Ridge Lane,63127,38.5220176,-90.4067962
9921;12800,Kimker Lane;Edelen Lane,63127,38.5252635,-90.4211614
147,Monica Drive,63127,38.5577858,-90.4040475
12432,Matthews Lane,63127,38.5431415,-90.4040634
12730,Saint Lazare Lane,63127,38.5342387,-90.4145882
9063,Middlewood Court,63127,38.5463539,-90.4098228
9000,Middlewood Court,63127,38.5474806,-90.4120142
9572,Sunny Creek Lane,63127,38.5326752,-90.4043300
10225,East Watson Road,63127,38.5524502,-90.3986885
228,Floralea Place,63127,38.5582521,-90.4020558
10275,Watson Road,63127,38.5561581,-90.4014712
8884,Woodpark Drive,63127,38.5489452,-90.4007392
200,Monica Drive,63127,38.5573999,-90.4031890
10285,Maebern Terrace,63127,38.5542025,-90.4023113
12701,Robyn Road,63127,38.5378188,-90.4125083
12404,Robyn Road,63127,38.5367614,-90.4038874
9786,Fall Ridge Trail,63127,38.5301879,-90.4107052
1405,Windward Ridge Drive,63127,38.5586387,-90.3998620
12429,West Watson Road,63127,38.5468625,-90.4061938
414,Homecrest Drive,63127,38.5572214,-90.3989477
12131,Westwick Place,63127,38.5439316,-90.3962385
10218,Maebern Terrace,63127,38.5537702,-90.3994902
8851,Woodfox Drive,63127,38.5498015,-90.4021380
4008,South Lindbergh Boulevard,63127,38.5426414,-90.3991434
3750,South Lindbergh Boulevard,63127,38.5509929,-90.4050206
11812,Sunset Grove Court,63127,38.5348656,-90.3881210
10509,Watson Road,63127,38.5560955,-90.4046440
4013,South Lindbergh Boulevard,63127,38.5416192,-90.3995501
13036,West Watson Road,63127,38.5346134,-90.4204646
13336,Maple Drive,63127,38.5367577,-90.4293463
12100,Trentmore Place,63127,38.5423705,-90.3937065
8637,Otto Westway Street,63127,38.5541649,-90.4041922
1522,Windward Ridge Drive,63127,38.5569544,-90.3994705
12717,Zacharys Ridge,63127,38.5175204,-90.4085393
3715,Sunset Chase Drive,63127,38.5500022,-90.4086110
4349,South Lindbergh Boulevard,63127,38.5348047,-90.3870285
12107,Westwick Place,63127,38.5439593,-90.3942286
201,Floralea Place,63127,38.5586661,-90.4031521
10,Fox Meadows,63127,38.5411776,-90.3898673
10243,Watson Road,63127,38.5520536,-90.3997698
3939,South Lindbergh Boulevard,63127,38.5445151,-90.4025067
9,Fox Meadows,63127,38.5406207,-90.3900309
201,Monica Drive,63127,38.5577841,-90.4031840
10301,Richview Drive,63127,38.5531560,-90.4016897
9457,Sunny Creek Lane,63127,38.5352396,-90.4036493
45,Fox Meadows,63127,38.5392944,-90.3920741
11848,Sunlind Drive,63127,38.5329913,-90.3884214
6,Fox Meadows,63127,38.5392994,-90.3900245
158,Floralea Place,63127,38.5582811,-90.4047724
252,Deane Court,63127,38.5565338,-90.4013342
18,Black Oak Drive,63127,38.5400899,-90.4101945
125,Deane Court,63127,38.5569333,-90.4054382
12769,Zacharys Ridge,63127,38.5173244,-90.4115499
8827,Lynn Lane,63127,38.5503757,-90.3984692
243,Monica Drive,63127,38.5577912,-90.4011060
10231,Richview Drive,63127,38.5532945,-90.3996934
13572,West Watson Road,63127,38.5193004,-90.4240896
12501,Gravois Road,63127,38.5233123,-90.4053490
9917,Kimker Lane,63127,38.5256431,-90.4207221
229,Deane Court,63127,38.5569445,-90.4022245
8820,Woodpark Drive,63127,38.5509540,-90.4002976
12426,Grandview Lake Drive,63127,38.5266018,-90.4058760
10517,East Watson Road,63127,38.5517340,-90.4032680
3780,South Lindbergh Boulevard,63127,38.5495398,-90.4049239
12334,Matthews Lane,63127,38.5411523,-90.4017655
9548,Sunny Creek Lane,63127,38.5329428,-90.4032400
12623,Knighton Trail,63127,38.5204041,-90.4060872
12602,Knighton Trail,63127,38.5209872,-90.4052781
9006,Middlewood Court,63127,38.5480667,-90.4120077
12617,Knighton Trail,63127,38.5206040,-90.4057953
9735,Landmark Parkway Drive,63127,38.5266292,-90.3977391
9735,Landmark Parkway Drive,63127,38.5265540,-90.3975799
8850,Woodfox Drive,63127,38.5500130,-90.4015831
11833,Sunset Grove Court,63127,38.5353272,-90.3890879
13000,Pagada Parkway,63127,38.5366739,-90.4217360
12900,Maurer Industrial Drive,63127,38.5213148,-90.4175476
10736,Sunset Hills Plaza,63127,38.5530902,-90.4084999
403,Rayburn Avenue,63127,38.5595583,-90.3996326
8,Roosevelt Drive,63127,38.5399800,-90.4014739
150,Monica Drive,63127,38.5574175,-90.4038197
8817,Ryegate Court,63127,38.5504829,-90.4043040
8805,Woodpark Drive,63127,38.5513386,-90.4010627
12125,Trentmore Place,63127,38.5426704,-90.3956063
9,Kahlia Way Court,63127,38.5370098,-90.4303883
9616,Hidden Valley Drive,63127,38.5282646,-90.3992747
157,Floralea Place,63127,38.5586647,-90.4047102
11829,Sunlind Drive,63127,38.5334468,-90.3872388
12400,Cinema Lane,63127,38.5415398,-90.4023074
11886,Gravois Road,63127,38.5289222,-90.3894900
12109,Trentmore Place,63127,38.5426478,-90.3942612
240,Monica Drive,63127,38.5574048,-90.4011148
13315,Maple Drive,63127,38.5392542,-90.4322973
12741,Zacharys Ridge,63127,38.5186339,-90.4090209
12455,West Watson Road,63127,38.5464380,-90.4073149
9420,Sappington Estates Drive,63127,38.5355644,-90.4080762
12488,Robyn Road,63127,38.5358856,-90.4060225
12413,Courtyard Lake Drive,63127,38.5465033,-90.4019018
10206,Maebern Terrace,63127,38.5537619,-90.3989320
12949,Baalbek Drive,63127,38.5384541,-90.4198694
12728,Rott Road,63127,38.5494188,-90.4201634
3729,South Lindbergh Boulevard,63127,38.5506858,-90.4075788
12312,Courtyard Lake Drive,63127,38.5445966,-90.3997790
12981,Baalbek Drive,63127,38.5383478,-90.4210728
10100,Watson Road,63127,38.5555420,-90.3981166
8802,Sunset Woods Place,63127,38.5511200,-90.4030295
10702,Sunset Office Drive,63127,38.5568822,-90.4089648
11820,Sunset Grove Court,63127,38.5349214,-90.3885809
12722,Weber Hill Road,63127,38.5296353,-90.4143055
12426,Cinema Lane,63127,38.5420897,-90.4033069
9600,Mill Hill Lane,63127,38.5292224,-90.3947838
12324,Matthews Lane,63127,38.5410318,-90.4013348
3,Roosevelt Drive,63127,38.5408216,-90.3998651
119,Monica Drive,63127,38.5578000,-90.4055611
264,Floralea Place,63127,38.5582534,-90.4005967
405,Windward Ridge Drive,63127,38.5590899,-90.3994521
12643,Rott Road,63127,38.5508745,-90.4180429
12535,Gravois Road,63127,38.5204239,-90.4058726
221,Floralea Place,63127,38.5586559,-90.4023883
12342,Matthews Lane,63127,38.5413572,-90.4020397
240,Deane Court,63127,38.5564929,-90.4018063
10314,Julius Northway Street,63127,38.5543402,-90.4035992
134,Deane Court,63127,38.5565765,-90.4048966
236,Monica Drive,63127,38.5573992,-90.4013737
12763,Weber Hill Road,63127,38.5321089,-90.4161359
408,Windward Ridge Drive,63127,38.5587187,-90.3993371
12408,Maret Drive,63127,38.5488880,-90.4069319
12345,Eddie And Park Road,63127,38.5467458,-90.4007275
13098,Gravois Road,63127,38.5111134,-90.4176170
9425,Caddyshack Circle,63127,38.5305809,-90.4281246
12752,Nanell Lane,63127,38.5353183,-90.4159410
9905,Kimker Lane,63127,38.5266150,-90.4198065
427,Rayburn Avenue,63127,38.5594854,-90.3981022
8856,Eggeling Lane,63127,38.5493342,-90.3995029
12418,Chrisann Lane,63127,38.5486252,-90.4066836
146,Monica Drive,63127,38.5573623,-90.4041824
10249,East Watson Road,63127,38.5521413,-90.3997891
9632,Mill Hill Lane,63127,38.5285990,-90.3951685
12501,Maret Drive,63127,38.5504997,-90.4094626
12609,Friendship Ridge Lane,63127,38.5223610,-90.4069596
170,Rayburn Avenue,63127,38.5591606,-90.4043866
10314,Richview Drive,63127,38.5526426,-90.4022322
9766,Fall Ridge Trail,63127,38.5315096,-90.4106597
12119,Westwick Place,63127,38.5439105,-90.3952374
138,Deane Court,63127,38.5565764,-90.4046158
9,Timber Creek Lane,63127,38.5361728,-90.3951685
13,Timber Creek Lane,63127,38.5362489,-90.3961897
239,Monica Drive,63127,38.5578431,-90.4012258
12763,Weber Hill Road,63127,38.5300567,-90.4158331
10254,Julius Northway Street,63127,38.5544361,-90.4014134
128,Deane Court,63127,38.5565586,-90.4053143
8631,Otto Westway Street,63127,38.5543615,-90.4043451
3739,South Lindbergh Boulevard,63127,38.5502501,-90.4073575
11834,Sunlind Drive,63127,38.5329837,-90.3876061
236,Rayburn Avenue,63127,38.5591308,-90.4019013
402,Spears Street,63127,38.5597736,-90.3996356
9125,Moresi Drive,63127,38.5428993,-90.3901180
11882,Gravois Road,63127,38.5287849,-90.3894611
12697,Nanell Lane,63127,38.5355333,-90.4138098
12932,Sunset Bluff Court,63127,38.5430345,-90.4188613
11819,Fairlind Drive,63127,38.5344032,-90.3874886
12955,Maurer Industrial Drive,63127,38.5225721,-90.4178766
9108,Fox Estates Drive,63127,38.5441823,-90.3926149
12462,Cinema Lane,63127,38.5413316,-90.4044904
12212,Sunset Terrace,63127,38.5438596,-90.3976050
12816,Nanell Lane,63127,38.5353931,-90.4186741
12673,Nanell Lane,63127,38.5352342,-90.4133365
11807,Sunset Grove Court,63127,38.5356146,-90.3883337
13015,Saller Drive,63127,38.5470159,-90.4222825
12869,Nanell Lane,63127,38.5369887,-90.4182949
1418,Windward Ridge Drive,63127,38.5580204,-90.3992867
12455,Chrisann Lane,63127,38.5486065,-90.4085862
3819,South Lindbergh Boulevard,63127,38.5486808,-90.4060711
9751,Fall Ridge Trail,63127,38.5331965,-90.4119061
8849,Woodpark Drive,63127,38.5500865,-90.4008284
4370,South Lindbergh Boulevard,63127,38.5348403,-90.3863385
9906,Grandview Forest Court,63127,38.5260025,-90.4072752
12461,West Watson Road,63127,38.5461881,-90.4076062
12930,West Watson Road,63127,38.5363988,-90.4196231
408,Homecrest Drive,63127,38.5571995,-90.3992099
11817,Sunlind Drive,63127,38.5334494,-90.3864677
12410,Robyn Road,63127,38.5369890,-90.4044361
11804,Sunset Grove Court,63127,38.5351938,-90.3878040
12725,Zacharys Ridge,63127,38.5178091,-90.4081279
12353,Courtyard Lake Drive,63127,38.5451303,-90.4010347
3880,South Lindbergh Boulevard,63127,38.5476655,-90.4038260
9162,Fox Bridge Drive,63127,38.5417593,-90.4078358
13344,West Watson Road,63127,38.5261222,-90.4250628
12765,Zacharys Ridge,63127,38.5177704,-90.4108067
10281,Maebern Terrace,63127,38.5540855,-90.4021298
4600,South Lindbergh Boulevard,63127,38.5309749,-90.3819982
9036,Middlewood Court,63127,38.5479192,-90.4093177
12824,Nanell Lane,63127,38.5340759,-90.4182876
10801,Sunset Office Drive,63127,38.5563404,-90.4101742
13006,West Moore Meadows Court,63127,38.5452951,-90.4216624
1404,Homecrest Drive,63127,38.5588396,-90.3985566
12446,Court Drive,63127,38.5477139,-90.4077002
11832,Parklind Drive,63127,38.5320627,-90.3884550
12456,West Watson Road,63127,38.5456650,-90.4061180
12761,West Watson Road,63127,38.5406916,-90.4134819
11825,Sunlind Drive,63127,38.5334546,-90.3869816
9817,Kimker Lane,63127,38.5281906,-90.4172567
231,Monica Drive,63127,38.5577877,-90.4016597
208,Rayburn Avenue,63127,38.5591165,-90.4028769
234,Monica Drive,63127,38.5574181,-90.4015152
12672,Nanell Lane,63127,38.5345704,-90.4134327
15,Black Oak Drive,63127,38.5395093,-90.4110602
12443,Court Drive,63127,38.5480030,-90.4076781
12400,Courtyard Lake Drive,63127,38.5455288,-90.4020447
8826,Woodfox Drive,63127,38.5507031,-90.4016920
114,Monica Drive,63127,38.5574400,-90.4058431
3820,South Lindbergh Boulevard,63127,38.5494912,-90.4055076
10156,Watson Road,63127,38.5556315,-90.3994423
1406,Windward Ridge Drive,63127,38.5584533,-90.3993476
233,Monica Drive,63127,38.5577913,-90.4015085
12135,Westwick Place,63127,38.5439593,-90.3965935
22,Black Oak Drive,63127,38.5401312,-90.4085471
10349,Watson Road,63127,38.5560791,-90.4031652
247,Monica Drive,63127,38.5577750,-90.4007953
201,Deane Court,63127,38.5569521,-90.4032134
9785,Fall Ridge Trail,63127,38.5303455,-90.4116390
9253,Caddyshack Circle,63127,38.5403500,-90.4255764
11828,Sunset Grove Court,63127,38.5348877,-90.3888863
11807,Sunlind Drive,63127,38.5328711,-90.3860522
117,Deane Court,63127,38.5570084,-90.4059743
9338,Lincoln Drive,63127,38.5383489,-90.4003864
315,Rayburn Avenue,63127,38.5597065,-90.4018344
12106,Trentmore Place,63127,38.5420330,-90.3938707
10225,Julius Northway Street,63127,38.5550164,-90.4000170
11918,Gravois Road,63127,38.5288820,-90.3901321
121,Deane Court,63127,38.5570082,-90.4058563
9810,Grandview Lake Court,63127,38.5281480,-90.4044124
11914,Gravois Road,63127,38.5290495,-90.3900872
9802,Grandview Lake Court,63127,38.5286158,-90.4050181
9631,Mill Hill Lane,63127,38.5279878,-90.3954023
13031,West Watson Road,63127,38.5347475,-90.4222217
11872,Gravois Road,63127,38.5286320,-90.3890924
9815,Eagle Hill Lane,63127,38.5289949,-90.4133909
9706,Fall Ridge Trail,63127,38.5307779,-90.4096686
11910,Gravois Road,63127,38.5291617,-90.3899356
12110,Trentmore Place,63127,38.5420431,-90.3942890
3727,Sunset Chase Drive,63127,38.5494518,-90.4081429
11805,Cragfont Court,63127,38.5316776,-90.3883091
129,Monica Drive,63127,38.5578388,-90.4050301
253,Floralea Place,63127,38.5586388,-90.4011318
12980,Baalbek Drive,63127,38.5378121,-90.4207666
10248,Julius Northway Street,63127,38.5544407,-90.4011520
9776,Fall Ridge Trail,63127,38.5307866,-90.4104562
142,Rayburn Avenue,63127,38.5589538,-90.4053412
10327,Watson Road,63127,38.5561900,-90.4025848
9851,Eagle Hill Lane,63127,38.5272159,-90.4141906
9717,Landmark Parkway Drive,63127,38.5268725,-90.3992403
10258,Richview Drive,63127,38.5527750,-90.4008078
12497,Limestone Spur,63127,38.5340096,-90.4053770
12114,Trentmore Place,63127,38.5421159,-90.3946169
10163,Watson Road,63127,38.5564378,-90.3993592
1516,Windward Ridge Drive,63127,38.5568018,-90.3994481
9808,Eagle Hill Lane,63127,38.5292929,-90.4126894
9011,Rott Road,63127,38.5483918,-90.4220077
109,Deane Court,63127,38.5570115,-90.4062079
269,Deane Court,63127,38.5569458,-90.4006992
9814,Grandview Lake Court,63127,38.5277105,-90.4042188
12756,West Watson Road,63127,38.5402847,-90.4129196
186,Rayburn Avenue,63127,38.5591509,-90.4036584
232,Rayburn Avenue,63127,38.5591385,-90.4020363
12901,Bond Place,63127,38.5331705,-90.4194189
257,Monica Drive,63127,38.5577728,-90.4000904
272,Rayburn Avenue,63127,38.5591377,-90.4006376
9772,Fall Ridge Trail,63127,38.5311931,-90.4106084
12111,Westwick Place,63127,38.5439061,-90.3945714
4587,South Lindbergh Boulevard,63127,38.5304228,-90.3847002
13010,Sunny Dawn Court,63127,38.5387724,-90.4259511
12753,Nanell Lane,63127,38.5358912,-90.4161177
12729,Nanell Lane,63127,38.5358942,-90.4151079
8716,Walter Midway Street,63127,38.5522274,-90.4010411
11835,Fairlind Drive,63127,38.5343903,-90.3880918
272,Floralea Place,63127,38.5582618,-90.4002740
123,Monica Drive,63127,38.5578007,-90.4054211
8805,Ryegate Court,63127,38.5510588,-90.4045010
12334,Courtyard Lake Drive,63127,38.5449410,-90.4001348
10207,Maebern Terrace,63127,38.5542315,-90.3986234
221,Monica Drive,63127,38.5578067,-90.4022215
9625,Hidden Valley Drive,63127,38.5278757,-90.3978377
12825,West Watson Road,63127,38.5385484,-90.4172073
12871,Weber Hill Road,63127,38.5292457,-90.4202235
236,Deane Court,63127,38.5565250,-90.4019494
9500,Country Club Green,63127,38.5336596,-90.4061481
9880,Kimker Lane,63127,38.5257514,-90.4183597
9260,Robyn Road,63127,38.5402683,-90.3964985
11910,Gravois Road,63127,38.5290901,-90.3898050
8814,Sunset Woods Place,63127,38.5504441,-90.4029148
12662,Bradford Woods Drive,63127,38.5453208,-90.4115311
12312,Ronnie Lane,63127,38.5426906,-90.4016734
10895,Sunset Hills Plaza,63127,38.5544116,-90.4113573
9438,Sappington Estates Drive,63127,38.5345290,-90.4079518
11864,Fairlind Drive,63127,38.5339623,-90.3887315
11930,Gravois Road,63127,38.5288792,-90.3903312
13056,West Watson Road,63127,38.5337828,-90.4208756
12127,Westwick Place,63127,38.5439264,-90.3959081
10246,East Watson Road,63127,38.5514419,-90.3997295
12703,Weber Hill Road,63127,38.5308448,-90.4124175
10401,East Watson Road,63127,38.5519869,-90.4003741
260,Rayburn Avenue,63127,38.5591182,-90.4010568
205,Monica Drive,63127,38.5577837,-90.4030657
12539,Grandview Forest Drive,63127,38.5246903,-90.4071396
12485,Limestone Spur,63127,38.5339671,-90.4065892
11777,Gravois Road,63127,38.5321781,-90.3865466
430,Spears Street,63127,38.5597471,-90.3980497
9501,Country Club Green,63127,38.5337181,-90.4066922
9329,Lincoln Drive,63127,38.5393178,-90.4004873
12735,Rott Road,63127,38.5504587,-90.4205023
12307,Fox Court,63127,38.5423396,-90.4009555
3926,Courtyard Circle Drive,63127,38.5444387,-90.4001600
12702,Zacharys Ridge,63127,38.5172321,-90.4100120
8808,Sunset Woods Place,63127,38.5508501,-90.4029308
10344,Richview Drive,63127,38.5525044,-90.4036361
117,Monica Drive,63127,38.5578157,-90.4057152
9055,Rott Road,63127,38.5475972,-90.4219681
12220,Hadley Hill Road,63127,38.5294094,-90.3978523
9060,Middlewood Court,63127,38.5463446,-90.4090346
12205,Hadley Hill Road,63127,38.5298298,-90.3955517
12250,Weber Hill Road,63127,38.5259543,-90.4028232
12250,Weber Hill Road,63127,38.5257850,-90.4028889
12250,Weber Hill Road,63127,38.5259619,-90.4026960
150,Floralea Place,63127,38.5582765,-90.4050884
9615,Hidden Valley Drive,63127,38.5284124,-90.3985731
9435,Sunny Creek Lane,63127,38.5356484,-90.4035109
1423,Windward Ridge Drive,63127,38.5579833,-90.3997557
10210,Watson Road,63127,38.5556000,-90.3999449
424,Homecrest Drive,63127,38.5573443,-90.3984587
272,Deane Court,63127,38.5565409,-90.4004103
423,Spears Street,63127,38.5601182,-90.3984473
9629,Hidden Valley Drive,63127,38.5274663,-90.3974504
10603,East Watson Road,63127,38.5516028,-90.4047875
12337,Courtyard Lake Drive,63127,38.5453691,-90.4002487
9810,Lebanon Greens Drive,63127,38.5273107,-90.4089272
9361,Lincoln Drive,63127,38.5377207,-90.4023125
14,Fox Meadows,63127,38.5424781,-90.3909833
204,Deane Court,63127,38.5565380,-90.4030721
13067,Gravois Road,63127,38.5161432,-90.4195488
10214,Julius Northway Street,63127,38.5546405,-90.3996270
12449,Matthews Lane,63127,38.5434469,-90.4047878
216,Deane Court,63127,38.5565328,-90.4026506
12300,Ronnie Lane,63127,38.5427482,-90.4007308
12450,West Watson Road,63127,38.5448889,-90.4066929
407,Spears Street,63127,38.5601538,-90.3995243
11,Fox Meadows,63127,38.5415906,-90.3897107
217,Deane Court,63127,38.5569573,-90.4026619
12409,Matthews Lane,63127,38.5436477,-90.4025940
3915,South Lindbergh Boulevard,63127,38.5444406,-90.4037774
12556,Weber Hill Road,63127,38.5288367,-90.4104898
9732,Fall Ridge Trail,63127,38.5317130,-90.4099099
11855,Sunlind Drive,63127,38.5334467,-90.3887404
12403,Matthews Lane,63127,38.5434608,-90.4022016
9733,Fall Ridge Trail,63127,38.5323218,-90.4096540
225,Deane Court,63127,38.5569460,-90.4023655
3920,Courtyard Place Drive,63127,38.5454543,-90.4009772
10278,Maebern Terrace,63127,38.5536466,-90.4023686
131,Deane Court,63127,38.5569543,-90.4050241
9717,Landmark Parkway Drive,63127,38.5267838,-90.3993383
3708,Sunset Chase Drive,63127,38.5507293,-90.4082995
10311,Watson Road,63127,38.5561441,-90.4018036
9126,Fox Bridge Drive,63127,38.5433550,-90.4090912
13001,Dieterle Lane,63127,38.5495519,-90.4213485
10206,Watson Road,63127,38.5556095,-90.3998049
276,Floralea Place,63127,38.5582148,-90.4001427
12624,Robyn Road,63127,38.5366818,-90.4116345
9297,Caddyshack Circle,63127,38.5390222,-90.4243134
9457,Chavez Drive,63127,38.5360604,-90.4098583
12204,Robyn Road,63127,38.5382594,-90.3975985
1429,Windward Ridge Drive,63127,38.5577794,-90.3997310
36,Fox Meadows,63127,38.5410397,-90.3905939
9900,Grandview Hill Court,63127,38.5267193,-90.4046316
12515,Maret Drive,63127,38.5506244,-90.4101639
9739,Fall Ridge Trail,63127,38.5325393,-90.4101281
9102,Fox Estates Drive,63127,38.5445447,-90.3926866
3720,South Lindbergh Boulevard,63127,38.5508340,-90.4065182
12,Roosevelt Drive,63127,38.5395180,-90.4020263
8683,Otto Westway Street,63127,38.5528617,-90.4044553
173,Floralea Place,63127,38.5586653,-90.4041153
12918,Weber Hill Road,63127,38.5292718,-90.4210651
12503,Weber Hill Road,63127,38.5300466,-90.4069341
3811,South Lindbergh Boulevard,63127,38.5491234,-90.4067309
12,Black Oak Drive,63127,38.5385738,-90.4109323
11930,Gravois Road,63127,38.5288540,-90.3903681
9807,Eagle Hill Lane,63127,38.5293228,-90.4134719
12950,Maurer Industrial Drive,63127,38.5246065,-90.4122302
11,Black Oak Drive,63127,38.5383593,-90.4106297
11922,Gravois Road,63127,38.5288390,-90.3900194
215,Monica Drive,63127,38.5577722,-90.4026232
12122,Trentmore Place,63127,38.5421389,-90.3952832
1520,Windward Ridge Drive,63127,38.5569047,-90.3994615
11705,Gravois Road,63127,38.5328118,-90.3854957
12786,West Watson Road,63127,38.5390605,-90.4139419
11926,Gravois Road,63127,38.5286382,-90.3900644
12244,Hadley Hill Road,63127,38.5294487,-90.4002555
12603,West Watson Road,63127,38.5443639,-90.4100529
12301,Ronnie Lane,63127,38.5433637,-90.4009612
12611,Cottage Ridge Lane,63127,38.5217318,-90.4070514
9620,Hidden Valley Drive,63127,38.5279766,-90.3991581
12441,Limestone Spur,63127,38.5349649,-90.4051243
220,Rayburn Avenue,63127,38.5591393,-90.4024569
21,Fox Meadows,63127,38.5402407,-90.3927790
10201,Julius Northway Street,63127,38.5541611,-90.4002409
165,Floralea Place,63127,38.5586748,-90.4044098
12804,Nanell Lane,63127,38.5350523,-90.4183756
401,Spears Street,63127,38.5601540,-90.3997059
118,Monica Drive,63127,38.5574173,-90.4055870
12500,Sunset Greens Drive,63127,38.5247499,-90.4105943
9426,Sappington Estates Drive,63127,38.5350652,-90.4081220
9820,Eagle Hill Lane,63127,38.5286218,-90.4127051
15,Fox Meadows,63127,38.5424873,-90.3915877
19,Fox Meadows,63127,38.5412534,-90.3929516
12976,Maurer Industrial Drive,63127,38.5217039,-90.4193673
12411,Robyn Road,63127,38.5376362,-90.4043816
12,Fox Meadows,63127,38.5420033,-90.3899371
12548,Grandview Forest Drive,63127,38.5240347,-90.4077582
9062,Rott Road,63127,38.5472310,-90.4209546
9773,Fall Ridge Trail,63127,38.5310420,-90.4112778
23,Fox Meadows,63127,38.5396550,-90.3927566
9843,Sunset Greens Drive,63127,38.5268621,-90.4113208
10253,Maebern Terrace,63127,38.5540788,-90.4007994
12804,Weber Hill Road,63127,38.5292666,-90.4172284
11930,Gravois Road,63127,38.5287826,-90.3902834
12601,Friendship Ridge Lane,63127,38.5223393,-90.4067048
10271,Julius Northway Street,63127,38.5549013,-90.4021885
141,Deane Court,63127,38.5569644,-90.4045972
10718,Sunset Hills Plaza,63127,38.5526428,-90.4074354
10274,Julius Northway Street,63127,38.5544375,-90.4023690
8829,Woodpark Drive,63127,38.5507471,-90.4009368
408,Spears Street,63127,38.5597811,-90.3993310
11173,Yorkhouse Trail,63127,38.5205281,-90.4073807
10,Timber Creek Lane,63127,38.5369347,-90.3948550
1417,Windward Ridge Drive,63127,38.5582119,-90.3997901
3739,South Lindbergh Boulevard,63127,38.5502053,-90.4073132
3751,South Lindbergh Boulevard,63127,38.5497430,-90.4071247
18,Timber Creek Lane,63127,38.5376527,-90.3972522
12963,Sunset Bluff Court,63127,38.5441327,-90.4206755
200,Deane Court,63127,38.5565348,-90.4032112
12497,Chrisann Lane,63127,38.5487838,-90.4090966
9812,Eagle Crest Court,63127,38.5283978,-90.4157229
10307,Richview Drive,63127,38.5531224,-90.4019428
12410,Chrisann Lane,63127,38.5487029,-90.4064594
154,Floralea Place,63127,38.5582607,-90.4049253
233,Deane Court,63127,38.5569445,-90.4020845
3735,South Lindbergh Boulevard,63127,38.5504432,-90.4075397
9712,Fall Ridge Trail,63127,38.5310983,-90.4095706
9545,Crooked Creek Trail,63127,38.5329842,-90.4048125
209,Floralea Place,63127,38.5586603,-90.4028608
12406,Court Drive,63127,38.5477221,-90.4055047
9124,Rott Road,63127,38.5452386,-90.4208923
12724,Zacharys Ridge,63127,38.5179080,-90.4086495
13151,West Watson Road,63127,38.5316053,-90.4234372
9821,Lebanon Greens Drive,63127,38.5268046,-90.4094988
121,Floralea Place,63127,38.5586700,-90.4061377
8655,Otto Westway Street,63127,38.5537093,-90.4040946
1,Maclane Court,63127,38.5500401,-90.4190046
10212,Watson Road,63127,38.5555960,-90.4000038
13201,West Watson Road,63127,38.5310561,-90.4226001
277,Deane Court,63127,38.5569427,-90.4003419
9738,Fall Ridge Trail,63127,38.5319356,-90.4102085
12611,West Watson Road,63127,38.5439400,-90.4102474
8810,Lynn Lane,63127,38.5511072,-90.3981226
10230,Maebern Terrace,63127,38.5537023,-90.4000188
10208,Watson Road,63127,38.5556063,-90.3998522
9003,Middlewood Court,63127,38.5471110,-90.4125024
13012,Saller Drive,63127,38.5463912,-90.4219767
9817,Grandview Estates Drive,63127,38.5274605,-90.4079423
13030,Dieterle Lane,63127,38.5491666,-90.4230953
4464,South Lindbergh Boulevard,63127,38.5337028,-90.3850271
11832,Sappington Barracks Road,63127,38.5292039,-90.3885269
4646,South Lindbergh Boulevard,63127,38.5299500,-90.3809458
220,Floralea Place,63127,38.5582696,-90.4023631
3872,South Lindbergh Boulevard,63127,38.5476988,-90.4038325
3739,South Lindbergh Boulevard,63127,38.5502306,-90.4073381
10305,Julius Northway Street,63127,38.5549015,-90.4032553
12230,Sunset Terrace,63127,38.5430535,-90.3979689
229,Floralea Place,63127,38.5586643,-90.4020720
12605,Rott Road,63127,38.5517577,-90.4188290
9749,Fall Ridge Trail,63127,38.5346431,-90.4120165
11701,Gravois Road,63127,38.5328891,-90.3853780
12701,Zacharys Ridge,63127,38.5169388,-90.4094160
9427,Sappington Estates Drive,63127,38.5351230,-90.4088947
1510,South Kirkwood Road,63127,38.5571207,-90.4065239
12733,Zacharys Ridge,63127,38.5182395,-90.4084739
30,Fox Meadows,63127,38.5382176,-90.3908588
9035,Middlewood Court,63127,38.5474672,-90.4098847
12795,Nanell Lane,63127,38.5355499,-90.4179647
12855,Nanell Lane,63127,38.5367576,-90.4180153
9049,Middlewood Court,63127,38.5469843,-90.4097848
123,Deane Court,63127,38.5569392,-90.4055847
9127,Robyn Road,63127,38.5431541,-90.3973355
9192,Fox Bridge Drive,63127,38.5410640,-90.4093201
12461,Cinema Lane,63127,38.5415813,-90.4050511
248,Deane Court,63127,38.5565259,-90.4015186
43,Fox Meadows,63127,38.5402648,-90.3921021
1500,South Kirkwood Road,63127,38.5572093,-90.4065371
10515,Watson Road,63127,38.5560815,-90.4047931
9819,Eagle Crest Court,63127,38.5288420,-90.4165743
12425,Grandview Lake Drive,63127,38.5265279,-90.4064946
4580,South Lindbergh Boulevard,63127,38.5324296,-90.3815069
10300,Watson Road,63127,38.5555550,-90.4014075
34,Fox Meadows,63127,38.5401020,-90.3907657
11723,Sappington Barracks Road,63127,38.5299607,-90.3861937
8654,Otto Westway Street,63127,38.5537131,-90.4035158
9521,Fringe Court,63127,38.5278350,-90.4281339
340,Spears Street,63127,38.5597749,-90.4000187
12437,Court Drive,63127,38.5481653,-90.4073289
9424,Caddyshack Circle,63127,38.5304344,-90.4275477
8671,Otto Westway Street,63127,38.5532225,-90.4041842
12420,Matthews Lane,63127,38.5432201,-90.4033049
12536,Cinema Lane,63127,38.5396860,-90.4057089
11834,Sappington Barracks Road,63127,38.5288349,-90.3886399
10279,Julius Northway Street,63127,38.5548693,-90.4027031
12524,Cinema Lane,63127,38.5400271,-90.4048703
12510,Cinema Lane,63127,38.5406408,-90.4046076
12566,Grandview Forest Drive,63127,38.5238388,-90.4100693
10431,East Watson Road,63127,38.5518405,-90.4016791
9625,Mill Hill Lane,63127,38.5276765,-90.3945846
12429,Matthews Lane,63127,38.5436340,-90.4037096
12457,Limestone Spur,63127,38.5350650,-90.4060580
20,Flagstick Court,63127,38.5281376,-90.4259852
11742,Sappington Barracks Road,63127,38.5293287,-90.3870742
11826,Sunlind Drive,63127,38.5329920,-90.3870834
4025,South Lindbergh Boulevard,63127,38.5412494,-90.3989577
9836,Kimker Lane,63127,38.5269731,-90.4165440
10505,Watson Road,63127,38.5561131,-90.4044633
3825,South Lindbergh Boulevard,63127,38.5483550,-90.4057281
9433,Caddyshack Circle,63127,38.5300085,-90.4282693
1540,South Kirkwood Road,63127,38.5569449,-90.4065257
12702,Robyn Road,63127,38.5368778,-90.4124566
8665,Otto Westway Street,63127,38.5534279,-90.4041091
228,Deane Court,63127,38.5565192,-90.4022285
212,Deane Court,63127,38.5565350,-90.4027892
11634,Sappington Barracks Road,63127,38.5292655,-90.3826750
24,Fox Meadows,63127,38.5391176,-90.3927432
10204,Watson Road,63127,38.5556121,-90.3997653
7,Maclane Court,63127,38.5496740,-90.4188835
12357,Courtyard Lake Drive,63127,38.5451037,-90.4011887
10202,Watson Road,63127,38.5556146,-90.3997282
8822,Ryegate Court,63127,38.5501769,-90.4035124
9512,Crooked Creek Trail,63127,38.5341817,-90.4043362
11800,Fairlind Drive,63127,38.5338222,-90.3861733
3640,South Geyer Road,63127,38.5521985,-90.4156418
11624,Sappington Barracks Road,63127,38.5292647,-90.3820001
11918,Gravois Road,63127,38.5289057,-90.3900997
12327,Courtyard Lake Drive,63127,38.5452008,-90.3997279
12323,Courtyard Lake Drive,63127,38.5450779,-90.3995411
13221,West Watson Road,63127,38.5298025,-90.4223642
260,Deane Court,63127,38.5565248,-90.4009640
3924,Courtyard Place Drive,63127,38.5454365,-90.4012516
9109,Fox Bridge Drive,63127,38.5425535,-90.4101127
12415,Matthews Lane,63127,38.5436760,-90.4029868
4615,South Lindbergh Boulevard,63127,38.5301246,-90.3823307
145,Floralea Place,63127,38.5586592,-90.4051870
12724,Rott Road,63127,38.5494996,-90.4199759
12838,Weber Hill Road,63127,38.5296972,-90.4193829
9030,Middlewood Court,63127,38.5481616,-90.4098417
8847,Gladlea Drive,63127,38.5491345,-90.3988432
10327,Watson Road,63127,38.5561970,-90.4024854
9323,Lincoln Drive,63127,38.5397933,-90.4001285
29,Black Oak Drive,63127,38.5389196,-90.4101270
182,Rayburn Avenue,63127,38.5591527,-90.4038469
135,Deane Court,63127,38.5569382,-90.4049030
10271,Richview Drive,63127,38.5531626,-90.4014008
8828,Lynn Lane,63127,38.5501128,-90.3979249
19,Timber Creek Lane,63127,38.5377884,-90.3973794
1512,Windward Ridge Drive,63127,38.5567450,-90.3993307
145,Deane Court,63127,38.5569506,-90.4044606
13094,Gravois Road,63127,38.5100289,-90.4184493
12901,Sunset Bluff Court,63127,38.5443563,-90.4181272
178,Floralea Place,63127,38.5582872,-90.4040243
433,Spears Street,63127,38.5601484,-90.3980851
3760,South Lindbergh Boulevard,63127,38.5504036,-90.4049236
156,Deane Court,63127,38.5565532,-90.4039173
244,Floralea Place,63127,38.5582642,-90.4013997
4,Fox Meadows,63127,38.5384557,-90.3898972
138,Rayburn Avenue,63127,38.5589363,-90.4054708
12621,Bradford Woods Drive,63127,38.5464955,-90.4102932
38,Fox Meadows,63127,38.5419135,-90.3910488
16,Fox Meadows,63127,38.5424481,-90.3923794
10200,Maebern Terrace,63127,38.5537693,-90.3986439
8,Black Oak Drive,63127,38.5382490,-90.4087494
12319,Courtyard Lake Drive,63127,38.5449419,-90.3993654
9054,Middlewood Court,63127,38.5467089,-90.4090307
4320,South Lindbergh Boulevard,63127,38.5362667,-90.3878234
12429,Grandview Lake Drive,63127,38.5261683,-90.4063267
12700,Weber Hill Road,63127,38.5296498,-90.4118573
12525,Maret Drive,63127,38.5499495,-90.4112310
9120,Fox Estates Drive,63127,38.5437887,-90.3926301
9650,Mill Hill Lane,63127,38.5287828,-90.3967943
10332,Richview Drive,63127,38.5525836,-90.4030688
10270,Maebern Terrace,63127,38.5535566,-90.4018393
12315,Courtyard Lake Drive,63127,38.5448947,-90.3991747
9811,Eagle Crest Court,63127,38.5291774,-90.4163075
9465,Crooked Creek Trail,63127,38.5356105,-90.4050711
208,Floralea Place,63127,38.5582714,-90.4028524
12789,Weber Hill Road,63127,38.5299624,-90.4165593
9707,Fall Ridge Trail,63127,38.5308042,-90.4087732
12327,Matthews Lane,63127,38.5414870,-90.4011404
1421,Homecrest Drive,63127,38.5580417,-90.3989237
110,Monica Drive,63127,38.5574059,-90.4061336
9216,Matthews Lane,63127,38.5417944,-90.4055872
8863,Woodfox Drive,63127,38.5494509,-90.4020914
11811,Parklind Drive,63127,38.5325983,-90.3872775
9520,South Geyer Road,63127,38.5335064,-90.3890790
12518,Cinema Lane,63127,38.5403786,-90.4046982
12200,Eddie And Park Road,63127,38.5440292,-90.3973168
10233,East Watson Road,63127,38.5520781,-90.3993891
12663,Bradford Woods Drive,63127,38.5450155,-90.4133099
3700,South Lindbergh Boulevard,63127,38.5517647,-90.4062008
9866,Kimker Lane,63127,38.5259462,-90.4179737
12412,Court Drive,63127,38.5477053,-90.4058817
12774,Zacharys Ridge,63127,38.5166662,-90.4100592
13,Fox Meadows,63127,38.5423288,-90.3903586
12547,Weber Hill Road,63127,38.5297722,-90.4095299
37,Fox Meadows,63127,38.5415682,-90.3905445
12425,Courtyard Lake Drive,63127,38.5466920,-90.4026455
12311,Courtyard Lake Drive,63127,38.5446814,-90.3989941
9,Roosevelt Drive,63127,38.5404110,-90.4018531
13047,West Watson Road,63127,38.5342133,-90.4224129
12412,Rott Road,63127,38.5509120,-90.4078690
9105,Fox Estates Drive,63127,38.5440384,-90.3931913
12521,Weber Hill Road,63127,38.5291167,-90.4091417
12250,Weber Hill Road,63127,38.5261539,-90.4026827
8893,Woodpark Drive,63127,38.5494012,-90.4014066
11171,Yorkhouse Trail,63127,38.5206208,-90.4073701
8811,Ryegate Court,63127,38.5507716,-90.4044328
12250,Weber Hill Road,63127,38.5261563,-90.4028623
12250,Weber Hill Road,63127,38.5260719,-90.4026926
13066,Gravois Road,63127,38.5122179,-90.4177626
12442,Cinema Lane,63127,38.5418053,-90.4040153
8862,Woodfox Drive,63127,38.5496892,-90.4015365
12250,Weber Hill Road,63127,38.5260743,-90.4028722
12115,Westwick Place,63127,38.5439029,-90.3949051
131,Monica Drive,63127,38.5578366,-90.4048638
9529,Country Club Green,63127,38.5328040,-90.4068971
12552,Grandview Forest Drive,63127,38.5239632,-90.4082159
225,Monica Drive,63127,38.5578083,-90.4020637
219,Monica Drive,63127,38.5577864,-90.4023647
12923,Bond Place,63127,38.5333516,-90.4204550
1407,Homecrest Drive,63127,38.5584855,-90.3989797
11808,Sunlind Drive,63127,38.5326345,-90.3864011
12628,Knighton Trail,63127,38.5198474,-90.4057512
12634,Knighton Trail,63127,38.5196011,-90.4059930
161,Deane Court,63127,38.5569570,-90.4037789
8811,Gladlea Drive,63127,38.5509666,-90.3991732
10230,Julius Northway Street,63127,38.5544636,-90.4003027
12660,Nanell Lane,63127,38.5345315,-90.4128824
12626,Knighton Trail,63127,38.5199488,-90.4056622
11954,Gravois Road,63127,38.5279546,-90.3915167
11812,Gravois Road,63127,38.5303382,-90.3866229
9444,Sunny Creek Lane,63127,38.5354307,-90.4027329
12614,Knighton Trail,63127,38.5203782,-90.4051512
12849,Nanell Lane,63127,38.5366632,-90.4173488
9133,Robyn Road,63127,38.5428447,-90.3974145
9560,Sunny Creek Lane,63127,38.5328312,-90.4037242
12777,Nanell Lane,63127,38.5358393,-90.4169764
11842,Sunlind Drive,63127,38.5329909,-90.3881391
222,Monica Drive,63127,38.5574242,-90.4020890
10352,Richview Drive,63127,38.5525941,-90.4040619
9604,Hidden Valley Drive,63127,38.5291371,-90.3997920
12237,Sunset Terrace,63127,38.5440662,-90.3992172
11816,Fairlind Drive,63127,38.5338700,-90.3871420
4422,South Lindbergh Boulevard,63127,38.5343138,-90.3844127
407,Homecrest Drive,63127,38.5575746,-90.3991835
3951,South Lindbergh Boulevard,63127,38.5437584,-90.4014988
4426,South Lindbergh Boulevard,63127,38.5343125,-90.3843080
216,Rayburn Avenue,63127,38.5591316,-90.4026142
12420,Court Drive,63127,38.5476108,-90.4062786
9825,Kimker Lane,63127,38.5275861,-90.4173993
3654,South Lindbergh Boulevard,63127,38.5525483,-90.4062161
235,Monica Drive,63127,38.5577939,-90.4013620
9816,Eagle Crest Court,63127,38.5284139,-90.4162888
8880,Woodpark Drive,63127,38.5490394,-90.4002654
9905,Kimker Lane,63127,38.5261045,-90.4192431
12790,Nanell Lane,63127,38.5348990,-90.4174692
12600,West Watson Road,63127,38.5443484,-90.4092814
3730,South Lindbergh Boulevard,63127,38.5506564,-90.4064921
120,Floralea Place,63127,38.5586525,-90.4062616
12938,Baalbek Drive,63127,38.5381581,-90.4192170
178,Rayburn Avenue,63127,38.5591453,-90.4040093
9717,Landmark Parkway Drive,63127,38.5267444,-90.3992633
8816,Lynn Lane,63127,38.5508743,-90.3980830
12473,Robyn Road,63127,38.5378121,-90.4062574
11834,Sappington Barracks Road,63127,38.5287514,-90.3885338
9905,Grandview Hill Court,63127,38.5263751,-90.4049056
401,Windward Ridge Drive,63127,38.5590072,-90.3997472
13021,Saller Drive,63127,38.5469992,-90.4228891
10164,Watson Road,63127,38.5556184,-90.3995347
12556,Grandview Forest Drive,63127,38.5239366,-90.4086621
10249,East Watson Road,63127,38.5520159,-90.4000017
253,Deane Court,63127,38.5569581,-90.4013897
12322,Robyn Road,63127,38.5347712,-90.4018164
12908,Bond Place,63127,38.5326539,-90.4192513
10356,Richview Drive,63127,38.5522450,-90.4040798
12909,Bond Place,63127,38.5333172,-90.4198606
141,Monica Drive,63127,38.5577879,-90.4044677
9211,Matthews Lane,63127,38.5417325,-90.4064682
1414,Homecrest Drive,63127,38.5584115,-90.3984961
8835,Ryegate Court,63127,38.5497133,-90.4039239
12473,Matthews Lane,63127,38.5427110,-90.4061543
12420,Robyn Road,63127,38.5368361,-90.4051090
12250,Weber Hill Road,63127,38.5258519,-90.4028331
12657,Bradford Woods Drive,63127,38.5456363,-90.4128046
9607,Mill Hill Lane,63127,38.5285816,-90.3932229
149,Floralea Place,63127,38.5586650,-90.4050288
9801,Eagle Hill Lane,63127,38.5296034,-90.4136050
12250,Weber Hill Road,63127,38.5261463,-90.4028099
12124,Westwick Place,63127,38.5434051,-90.3955896
12428,Matthews Lane,63127,38.5431618,-90.4036749
12250,Weber Hill Road,63127,38.5258619,-90.4028856
12520,Grandview Forest Drive,63127,38.5246473,-90.4048770
12250,Weber Hill Road,63127,38.5260644,-90.4028198
7,Black Oak Drive,63127,38.5381980,-90.4079938
12764,Nanell Lane,63127,38.5353090,-90.4163169
9717,Landmark Parkway Drive,63127,38.5268009,-90.3991077
9229,Robyn Road,63127,38.5407642,-90.3974296
8839,Gladlea Drive,63127,38.5496658,-90.3990099
11720,Sappington Barracks Road,63127,38.5292908,-90.3857090
214,Monica Drive,63127,38.5574275,-90.4026447
10214,Watson Road,63127,38.5555916,-90.4000695
9449,Caddyshack Circle,63127,38.5293125,-90.4273406
12651,Bradford Woods Drive,63127,38.5460002,-90.4126262
1412,Windward Ridge Drive,63127,38.5582372,-90.3993191
3930,Courtyard Place Drive,63127,38.5454891,-90.4014526
4601,South Lindbergh Boulevard,63127,38.5306409,-90.3828410
3906,Courtyard Place Drive,63127,38.5455963,-90.4006004
11750,Gravois Road,63127,38.5309339,-90.3861475
9827,Eagle Hill Lane,63127,38.5283551,-90.4134683
13555,West Watson Road,63127,38.5175524,-90.4327249
12210,Robyn Road,63127,38.5381201,-90.3982843
12423,West Watson Road,63127,38.5470140,-90.4058494
12912,Bond Place,63127,38.5328190,-90.4199023
3660,South Lindbergh Boulevard,63127,38.5521840,-90.4051837
9500,Fringe Court,63127,38.5294327,-90.4294151
112,Monica Drive,63127,38.5574389,-90.4060275
13054,West Watson Road,63127,38.5338021,-90.4197542
145,Monica Drive,63127,38.5577854,-90.4041810
420,Homecrest Drive,63127,38.5572371,-90.3986916
9505,Sunny Creek Lane,63127,38.5343520,-90.4036599
217,Floralea Place,63127,38.5586512,-90.4025468
13008,Tapawingo Place,63127,38.5359701,-90.4267943
227,Monica Drive,63127,38.5577914,-90.4019409
12204,Hadley Hill Road,63127,38.5292711,-90.3954581
12519,Cinema Lane,63127,38.5405728,-90.4053488
9735,Landmark Parkway Drive,63127,38.5263824,-90.3976302
12773,Saint Lazare Lane,63127,38.5334726,-90.4164718
415,Rayburn Avenue,63127,38.5595025,-90.3987980
9348,Lincoln Drive,63127,38.5379220,-90.4006053
1420,Homecrest Drive,63127,38.5581956,-90.3984684
10274,Maebern Terrace,63127,38.5535324,-90.4021164
12383,Robyn Road,63127,38.5377190,-90.4028428
415,Homecrest Drive,63127,38.5575942,-90.3989044
5,Break Court,63127,38.5289212,-90.4300263
12928,Bond Place,63127,38.5327603,-90.4205673
415,Windward Ridge Drive,63127,38.5590807,-90.3989429
273,Floralea Place,63127,38.5586494,-90.4003427
255,Monica Drive,63127,38.5577703,-90.4002410
1400,Homecrest Drive,63127,38.5590170,-90.3986899
12862,Weber Hill Road,63127,38.5292799,-90.4195101
12116,Westwick Place,63127,38.5433986,-90.3949205
12618,Friendship Ridge Lane,63127,38.5219823,-90.4073151
12123,Westwick Place,63127,38.5439234,-90.3955689
13173,West Watson Road,63127,38.5309664,-90.4220492
1432,Homecrest Drive,63127,38.5577546,-90.3984092
12504,Sunset Greens Drive,63127,38.5254034,-90.4109290
8,Fox Meadows,63127,38.5402143,-90.3900889
12212,Robyn Road,63127,38.5379866,-90.3986404
12128,Westwick Place,63127,38.5434098,-90.3959220
8664,Otto Westway Street,63127,38.5532411,-90.4035497
4030,South Lindbergh Boulevard,63127,38.5414658,-90.3979285
12455,Matthews Lane,63127,38.5433461,-90.4051252
11816,Gravois Road,63127,38.5306459,-90.3875281
284,Deane Court,63127,38.5565339,-90.3998529
155,Monica Drive,63127,38.5577853,-90.4034784
12133,Trentmore Place,63127,38.5426188,-90.3962673
12931,Gary Player Drive,63127,38.5282820,-90.4273014
12916,Bond Place,63127,38.5328190,-90.4202148
111,Monica Drive,63127,38.5578285,-90.4059837
13314,West Watson Road,63127,38.5267068,-90.4239116
269,Floralea Place,63127,38.5586472,-90.4005013
9717,Landmark Parkway Drive,63127,38.5268429,-90.3994338
12620,Cottage Ridge Lane,63127,38.5213674,-90.4074251
10259,Richview Drive,63127,38.5531820,-90.4011189
10213,Richview Drive,63127,38.5533752,-90.3988583
3614,South Lindbergh Boulevard,63127,38.5540296,-90.4053540
12656,West Watson Road,63127,38.5421786,-90.4111474
3911,Courtyard Circle Drive,63127,38.5445126,-90.4009607
12250,Weber Hill Road,63127,38.5258595,-90.4027060
12250,Weber Hill Road,63127,38.5257751,-90.4028364
1530,South Kirkwood Road,63127,38.5569904,-90.4065264
12250,Weber Hill Road,63127,38.5259643,-90.4028756
14,Black Oak Drive,63127,38.5391049,-90.4110957
9555,South Geyer Road,63127,38.5292836,-90.3917748
11810,Gravois Road,63127,38.5309179,-90.3867216
12516,Grandview Forest Drive,63127,38.5247198,-90.4045542
12201,Hadley Hill Road,63127,38.5298849,-90.3950439
10324,Watson Road,63127,38.5554759,-90.4025530
9036,Rott Road,63127,38.5481998,-90.4207955
3933,Courtyard Place Drive,63127,38.5458805,-90.4015936
12735,Shadow Lane,63127,38.5373770,-90.4155341
9832,Eagle Hill Lane,63127,38.5278898,-90.4128702
12333,Courtyard Lake Drive,63127,38.5453083,-90.3999680
257,Deane Court,63127,38.5569567,-90.4012314
12931,Weber Hill Road,63127,38.5301807,-90.4211489
10232,East Watson Road,63127,38.5513793,-90.3991612
8,Timber Creek Lane,63127,38.5368730,-90.3942028
419,Rayburn Avenue,63127,38.5595115,-90.3985014
13027,Saller Drive,63127,38.5469932,-90.4233077
10221,East Watson Road,63127,38.5520496,-90.3982592
10282,Maebern Terrace,63127,38.5537750,-90.4025900
33,Fox Meadows,63127,38.5397027,-90.3907142
13270,Maple Drive,63127,38.5370191,-90.4292285
9432,Sunny Creek Lane,63127,38.5359047,-90.4026051
10229,East Watson Road,63127,38.5519957,-90.3989717
9800,Eagle Crest Court,63127,38.5293864,-90.4150113
9128,Moresi Drive,63127,38.5429557,-90.3895213
12789,Nanell Lane,63127,38.5355524,-90.4175121
3905,Courtyard Place Drive,63127,38.5459640,-90.4009559
9844,Eagle Hill Lane,63127,38.5272581,-90.4132391
9104,Rott Road,63127,38.5464256,-90.4207891
17,Fox Meadows,63127,38.5421828,-90.3928003
11801,Sunset Grove Court,63127,38.5354848,-90.3881889
12212,Hadley Hill Road,63127,38.5293393,-90.3964920
3900,Courtyard Place Drive,63127,38.5456833,-90.4005054
9814,Eagle Hill Lane,63127,38.5289565,-90.4126837
27,Fox Meadows,63127,38.5382661,-90.3921483
35,Fox Meadows,63127,38.5406152,-90.3906782
10236,Julius Northway Street,63127,38.5544571,-90.4005922
13202,West Watson Road,63127,38.5301867,-90.4216552
10339,Richview Drive,63127,38.5530200,-90.4032346
12210,Weber Hill Road,63127,38.5261701,-90.4019276
39,Fox Meadows,63127,38.5419151,-90.3916620
12652,Robyn Road,63127,38.5367407,-90.4117970
9474,Sunny Creek Lane,63127,38.5346596,-90.4030260
9445,Crooked Creek Trail,63127,38.5361415,-90.4044702
9643,Mill Hill Lane,63127,38.5280235,-90.3961370
29,Fox Meadows,63127,38.5377895,-90.3911399
40,Fox Meadows,63127,38.5414569,-90.3922152
3980,South Lindbergh Boulevard,63127,38.5435074,-90.3997360
12232,Hadley Hill Road,63127,38.5294251,-90.3990240
153,Floralea Place,63127,38.5586679,-90.4048726
196,Deane Court,63127,38.5565759,-90.4035110
165,Deane Court,63127,38.5569132,-90.4036351
12615,Cottage Ridge Lane,63127,38.5216603,-90.4071699
148,Deane Court,63127,38.5565576,-90.4041865
10555,Watson Road,63127,38.5560674,-90.4049016
9534,Sunny Creek Lane,63127,38.5332807,-90.4027628
12619,Cottage Ridge Lane,63127,38.5217677,-90.4073336
9779,Fall Ridge Trail,63127,38.5307360,-90.4113394
10266,Julius Northway Street,63127,38.5544435,-90.4019892
11817,Fairlind Drive,63127,38.5343357,-90.3872410
1510,Windward Ridge Drive,63127,38.5570133,-90.3994686
12621,Friendship Ridge Lane,63127,38.5222969,-90.4073420
9735,Landmark Parkway Drive,63127,38.5263607,-90.3973071
20,Fox Meadows,63127,38.5407930,-90.3928563
133,Floralea Place,63127,38.5586668,-90.4056628
9125,Fox Bridge Drive,63127,38.5427237,-90.4091212
9120,Moresi Drive,63127,38.5433732,-90.3895473
12813,Edelen Lane,63127,38.5261460,-90.4207147
249,Floralea Place,63127,38.5586439,-90.4012910
11865,Fairlind Drive,63127,38.5343930,-90.3887248
11858,Fairlind Drive,63127,38.5339236,-90.3884289
9611,Hidden Valley Drive,63127,38.5287586,-90.3985439
1401,Windward Ridge Drive,63127,38.5588380,-90.3998602
220,Monica Drive,63127,38.5574062,-90.4022280
32,Fox Meadows,63127,38.5392314,-90.3906394
9619,Mill Hill Lane,63127,38.5279072,-90.3940260
9823,Sunset Greens Drive,63127,38.5280021,-90.4114995
27,Black Oak Drive,63127,38.5394425,-90.4093854
10611,East Watson Road,63127,38.5515679,-90.4052582
12523,Gravois Road,63127,38.5208768,-90.4046783
8804,Ryegate Court,63127,38.5511161,-90.4037314
8650,Otto Westway Street,63127,38.5539214,-90.4035528
10345,Watson Road,63127,38.5560879,-90.4030237
3919,Courtyard Circle Drive,63127,38.5443913,-90.4009027
10215,Watson Road,63127,38.5562361,-90.4002342
13045,Sunny Dawn Court,63127,38.5377546,-90.4294695
4123,South Lindbergh Boulevard,63127,38.5376708,-90.3960207
210,Monica Drive,63127,38.5574166,-90.4027694
12907,Sunset Bluff Court,63127,38.5443944,-90.4186500
421,Spears Street,63127,38.5603048,-90.3988725
12341,Courtyard Lake Drive,63127,38.5453209,-90.4004383
1426,Homecrest Drive,63127,38.5579751,-90.3984356
27,Maclane Court,63127,38.5485977,-90.4190273
206,Monica Drive,63127,38.5574185,-90.4029057
25,Black Oak Drive,63127,38.5393622,-90.4079962
9227,Caddyshack Circle,63127,38.5402243,-90.4278713
12796,Nanell Lane,63127,38.5349129,-90.4179354
41,Fox Meadows,63127,38.5411145,-90.3922118
12927,Gravois Road,63127,38.5164469,-90.4131547
13200,Maple Drive,63127,38.5427381,-90.4272226
416,Windward Ridge Drive,63127,38.5587179,-90.3990607
12855,Weber Hill Road,63127,38.5299479,-90.4189609
9802,Eagle Hill Lane,63127,38.5295814,-90.4128013
12536,Grandview Forest Drive,63127,38.5243214,-90.4065567
4610,South Lindbergh Boulevard,63127,38.5308388,-90.3817864
4031,South Lindbergh Boulevard,63127,38.5409900,-90.3987114
13336,West Watson Road,63127,38.5262718,-90.4247602
9116,Rott Road,63127,38.5464763,-90.4204284
10423,East Watson Road,63127,38.5519222,-90.4010384
9817,Grandview Estates Drive,63127,38.5278377,-90.4074981
252,Monica Drive,63127,38.5573157,-90.4005419
13345,Maple Drive,63127,38.5359552,-90.4299233
12210,Weber Hill Road,63127,38.5278363,-90.4033795
11828,Parklind Drive,63127,38.5320666,-90.3881592
12206,Robyn Road,63127,38.5381886,-90.3979577
12705,Edelen Lane,63127,38.5247669,-90.4193852
8824,Eggeling Lane,63127,38.5505439,-90.3996842
12315,Ronnie Lane,63127,38.5432783,-90.4019019
7,Collar Court,63127,38.5280258,-90.4294411
9356,Robyn Hills Drive,63127,38.5387177,-90.4072005
9471,Sunny Creek Lane,63127,38.5347577,-90.4037203
166,Floralea Place,63127,38.5582807,-90.4044556
11815,Parklind Drive,63127,38.5325007,-90.3875913
12349,Courtyard Lake Drive,63127,38.5451799,-90.4008041
162,Floralea Place,63127,38.5582935,-90.4046087
205,Deane Court,63127,38.5569549,-90.4030831
1511,Windward Ridge Drive,63127,38.5569443,-90.3999959
126,Floralea Place,63127,38.5582409,-90.4059223
3721,Sunset Chase Drive,63127,38.5497372,-90.4084268
9143,Robyn Road,63127,38.5422951,-90.3974716
12604,Knighton Trail,63127,38.5208807,-90.4051906
1,Roosevelt Drive,63127,38.5406949,-90.3989570
12629,Knighton Trail,63127,38.5202525,-90.4063976
12615,Knighton Trail,63127,38.5206815,-90.4056846
9380,Robyn Hills Drive,63127,38.5379366,-90.4071724
9130,Rott Road,63127,38.5448464,-90.4206494
9217,Matthews Lane,63127,38.5414499,-90.4061156
12435,Cinema Lane,63127,38.5422681,-90.4040691
12225,Sunset Terrace,63127,38.5438244,-90.3986075
13090,Gravois Road,63127,38.5137888,-90.4241610
277,Floralea Place,63127,38.5586435,-90.4001966
200,Floralea Place,63127,38.5582485,-90.4031556
12524,Grandview Forest Drive,63127,38.5245630,-90.4053437
11818,Cragfont Court,63127,38.5310439,-90.3891401
9132,Fox Estates Drive,63127,38.5433227,-90.3925846
12812,Sunset Glen Estates,63127,38.5350266,-90.4202687
156,Monica Drive,63127,38.5574019,-90.4034795
4018,South Lindbergh Boulevard,63127,38.5420237,-90.3985288
11647,Sappington Barracks Road,63127,38.5299379,-90.3833332
11830,Sunlind Drive,63127,38.5329778,-90.3873423
12613,Friendship Ridge Lane,63127,38.5222896,-90.4070871
12608,Bradford Woods Drive,63127,38.5455317,-90.4097990
4590,South Lindbergh Boulevard,63127,38.5312715,-90.3821520
12765,West Watson Road,63127,38.5402423,-90.4139280
12511,Village Circle Drive,63127,38.5220842,-90.4040052
8874,Woodpark Drive,63127,38.5493448,-90.4001380
8625,Otto Westway Street,63127,38.5545977,-90.4043612
9469,Chavez Drive,63127,38.5356839,-90.4098134
3751,South Lindbergh Boulevard,63127,38.5497061,-90.4070955
224,Monica Drive,63127,38.5574229,-90.4019495
10159,Watson Road,63127,38.5564444,-90.3992877
42,Fox Meadows,63127,38.5406661,-90.3921123
12870,Nanell Lane,63127,38.5366474,-90.4188785
3739,South Lindbergh Boulevard,63127,38.5502623,-90.4073166
170,Floralea Place,63127,38.5582738,-90.4042881
11946,Gravois Road,63127,38.5281416,-90.3912463
8700,Walter Midway Street,63127,38.5526831,-90.4011406
9904,Grandview Hill Court,63127,38.5268178,-90.4042082
12612,Cottage Ridge Lane,63127,38.5213313,-90.4071066
10327,Richview Drive,63127,38.5530551,-90.4027152
10219,Richview Drive,63127,38.5532834,-90.3991594
12547,Weber Hill Road,63127,38.5293878,-90.4097238
11816,Parklind Drive,63127,38.5321421,-90.3872820
10259,Maebern Terrace,63127,38.5540591,-90.4010747
9139,Robyn Road,63127,38.5425358,-90.3975188
12904,Weber Hill Road,63127,38.5288238,-90.4204760
125,Monica Drive,63127,38.5577952,-90.4052801
12776,Nanell Lane,63127,38.5351700,-90.4167362
12427,Cinema Lane,63127,38.5424621,-90.4037579
12303,Courtyard Lake Drive,63127,38.5445476,-90.3990008
9168,Fox Bridge Drive,63127,38.5415347,-90.4081565
174,Floralea Place,63127,38.5582672,-90.4041755
12936,West Watson Road,63127,38.5363263,-90.4198720
12300,Robyn Road,63127,38.5368996,-90.4000810
10232,Richview Drive,63127,38.5528312,-90.3996640
12226,Sunset Terrace,63127,38.5434014,-90.3982118
12610,West Watson Road,63127,38.5439499,-90.4093087
12622,Knighton Trail,63127,38.5201041,-90.4055192
3751,South Lindbergh Boulevard,63127,38.5496697,-90.4070489
3751,South Lindbergh Boulevard,63127,38.5497322,-90.4070353
10358,Richview Drive,63127,38.5524891,-90.4042585
14,Maclane Court,63127,38.5493254,-90.4181699
12421,Court Drive,63127,38.5482018,-90.4063917
12616,Knighton Trail,63127,38.5202979,-90.4052827
3739,South Lindbergh Boulevard,63127,38.5502073,-90.4072798
10247,Richview Drive,63127,38.5532416,-90.4004888
10437,East Watson Road,63127,38.5518346,-90.4021219
12503,West Watson Road,63127,38.5476243,-90.4083872
4355,South Lindbergh Boulevard,63127,38.5346283,-90.3866467
11870,Gravois Road,63127,38.5286319,-90.3890341
12617,West Watson Road,63127,38.5436162,-90.4103614
4136,South Lindbergh Boulevard,63127,38.5391125,-90.3942267
261,Deane Court,63127,38.5569469,-90.4010538
13003,West Moore Meadows Court,63127,38.5459130,-90.4216122
142,Floralea Place,63127,38.5582789,-90.4054086
421,Rayburn Avenue,63127,38.5595106,-90.3983166
13075,West Watson Road,63127,38.5331630,-90.4234452
11811,Fairlind Drive,63127,38.5343652,-90.3869590
11818,Fairlind Drive,63127,38.5338948,-90.3875021
10350,Richview Drive,63127,38.5525059,-90.4039545
12637,Gravois Road,63127,38.5190628,-90.4077598
12238,Sunset Terrace,63127,38.5428527,-90.3982897
8850,Eggeling Lane,63127,38.5495979,-90.3995179
9448,Caddyshack Circle,63127,38.5295962,-90.4271615
12529,West Watson Road,63127,38.5455276,-90.4088729
10247,Maebern Terrace,63127,38.5540949,-90.4005361
9433,Chavez Drive,63127,38.5369118,-90.4098333
9011,Middlewood Court,63127,38.5475475,-90.4109920
11836,Parklind Drive,63127,38.5320676,-90.3887677
10300,Richview Drive,63127,38.5526701,-90.4016974
13328,West Watson Road,63127,38.5264077,-90.4244909
13025,Dieterle Lane,63127,38.5497516,-90.4228109
9326,Lincoln Drive,63127,38.5391184,-90.3996867
9186,Fox Bridge Drive,63127,38.5412724,-90.4089739
12891,Bond Place,63127,38.5333148,-90.4189401
12621,Knighton Trail,63127,38.5204635,-90.4059505
232,Floralea Place,63127,38.5582454,-90.4018829
12620,Knighton Trail,63127,38.5201797,-90.4054164
20,Black Oak Drive,63127,38.5401604,-90.4093956
213,Deane Court,63127,38.5569683,-90.4028020
12719,Weber Hill Road,63127,38.5301822,-90.4133160
4002,South Lindbergh Boulevard,63127,38.5428931,-90.3993932
10248,Maebern Terrace,63127,38.5536372,-90.4007994
11926,Gravois Road,63127,38.5287295,-90.3901636
21,Maclane Court,63127,38.5489538,-90.4189400
9402,Sappington Estates Drive,63127,38.5368604,-90.4081348
9453,Golfinhurst Lane,63127,38.5357339,-90.3924624
12743,Rott Road,63127,38.5496288,-90.4210412
4055,South Lindbergh Boulevard,63127,38.5394742,-90.3976909
9321,Lincoln Drive,63127,38.5399869,-90.3996816
9244,Caddyshack Circle,63127,38.5407592,-90.4257455
12418,Grandview Lake Drive,63127,38.5272955,-90.4058778
268,Floralea Place,63127,38.5582585,-90.4004349
11711,Gravois Road,63127,38.5326422,-90.3857122
9116,Rott Road,63127,38.5458720,-90.4207032
10212,Maebern Terrace,63127,38.5537852,-90.3992273
12473,Limestone Spur,63127,38.5345061,-90.4069242
12779,Saint Lazare Lane,63127,38.5329728,-90.4161089
12467,Matthews Lane,63127,38.5428993,-90.4057998
10236,Maebern Terrace,63127,38.5536825,-90.4002844
12640,Knighton Trail,63127,38.5193756,-90.4061700
12646,Knighton Trail,63127,38.5191697,-90.4063933
12639,Knighton Trail,63127,38.5200202,-90.4068635
19,Roosevelt Drive,63127,38.5389539,-90.4033097
12249,Sunset Terrace,63127,38.5436416,-90.3990277
205,Floralea Place,63127,38.5586635,-90.4030162
11833,Sunlind Drive,63127,38.5334808,-90.3875231
9181,Fox Bridge Drive,63127,38.5420695,-90.4093113
9141,Fox Bridge Drive,63127,38.5431094,-90.4082745
9522,Sunny Creek Lane,63127,38.5337700,-90.4028680
4430,South Lindbergh Boulevard,63127,38.5342419,-90.3842190
4434,South Lindbergh Boulevard,63127,38.5341778,-90.3842197
9142,Fox Bridge Drive,63127,38.5438087,-90.4082741
233,Floralea Place,63127,38.5586570,-90.4019203
10271,Maebern Terrace,63127,38.5540179,-90.4015831
4442,South Lindbergh Boulevard,63127,38.5340608,-90.3842210
4454,South Lindbergh Boulevard,63127,38.5338908,-90.3842230
12563,Grandview Forest Drive,63127,38.5244314,-90.4093021
12830,Weber Hill Road,63127,38.5293887,-90.4188443
13217,West Watson Road,63127,38.5309953,-90.4233809
9735,Landmark Parkway Drive,63127,38.5265652,-90.3980578
12250,Hadley Hill Road,63127,38.5293563,-90.4007979
252,Floralea Place,63127,38.5582613,-90.4010776
9850,Sunset Greens Drive,63127,38.5264226,-90.4108909
9500,Crooked Creek Trail,63127,38.5345806,-90.4043462
9838,Sunset Greens Drive,63127,38.5267124,-90.4105533
10254,Maebern Terrace,63127,38.5536130,-90.4010583
3,Flagstick Court,63127,38.5286122,-90.4247158
9735,Landmark Parkway Drive,63127,38.5266542,-90.3976253
11821,Sunset Grove Court,63127,38.5356201,-90.3887004
9819,Grandview Lake Court,63127,38.5297363,-90.4093097
1408,Homecrest Drive,63127,38.5586282,-90.3985290
10275,Maebern Terrace,63127,38.5540022,-90.4018550
1520,South Kirkwood Road,63127,38.5570623,-90.4065255
9330,Lincoln Drive,63127,38.5388856,-90.3998844
12931,Bond Place,63127,38.5332067,-90.4207236
11819,Parklind Drive,63127,38.5325035,-90.3878749
12301,Matthews Lane,63127,38.5410305,-90.4001850
12507,Grandview Forest Drive,63127,38.5253313,-90.4035430
11841,Parklind Drive,63127,38.5325634,-90.3890833
12764,West Watson Road,63127,38.5399635,-90.4130415
19,Black Oak Drive,63127,38.5401132,-90.4098297
13,Black Oak Drive,63127,38.5389252,-90.4109787
12719,Saint Lazare Lane,63127,38.5349202,-90.4148890
127,Deane Court,63127,38.5569311,-90.4053120
12245,Robyn Road,63127,38.5378452,-90.4001640
12834,Gravois Road,63127,38.5152034,-90.4121879
9804,Eagle Crest Court,63127,38.5290302,-90.4151103
280,Rayburn Avenue,63127,38.5591135,-90.4002735
11812,Parklind Drive,63127,38.5322678,-90.3870282
405,Rayburn Avenue,63127,38.5595066,-90.3993067
260,Floralea Place,63127,38.5582599,-90.4007558
12240,Robyn Road,63127,38.5375622,-90.3993334
265,Floralea Place,63127,38.5586399,-90.4006585
12580,Rott Road,63127,38.5503676,-90.4123515
9403,Sappington Estates Drive,63127,38.5369046,-90.4088817
12955,Gary Player Drive,63127,38.5284447,-90.4300842
174,Rayburn Avenue,63127,38.5591444,-90.4041667
12307,Courtyard Lake Drive,63127,38.5445208,-90.3985887
11804,Parklind Drive,63127,38.5325419,-90.3866184
12118,Trentmore Place,63127,38.5420923,-90.3949502
12410,Matthews Lane,63127,38.5432302,-90.4029250
9355,Lincoln Drive,63127,38.5376670,-90.4017489
12610,Knighton Trail,63127,38.5206089,-90.4050568
12632,Knighton Trail,63127,38.5196970,-90.4059143
245,Floralea Place,63127,38.5586505,-90.4014464
12414,Grandview Lake Drive,63127,38.5276998,-90.4058201
9393,Robyn Hills Drive,63127,38.5376862,-90.4080274
13137,Maple Drive,63127,38.5449869,-90.4283878
33,Maclane Court,63127,38.5482353,-90.4188769
13338,Maple Drive,63127,38.5360595,-90.4295669
3918,Courtyard Circle Drive,63127,38.5445633,-90.4001602
12516,Sunset Greens Drive,63127,38.5259374,-90.4114148
12477,Matthews Lane,63127,38.5424574,-90.4063950
9701,Fall Ridge Trail,63127,38.5302340,-90.4090269
2,Roosevelt Drive,63127,38.5407668,-90.3994296
12508,Grandview Forest Drive,63127,38.5248762,-90.4037074
12358,Matthews Lane,63127,38.5423441,-90.4023801
12645,Knighton Trail,63127,38.5197521,-90.4071490
12268,Hadley Hill Road,63127,38.5291928,-90.4019616
12100,Westwick Place,63127,38.5436548,-90.3936764
409,Windward Ridge Drive,63127,38.5590904,-90.3991798
12635,Knighton Trail,63127,38.5201474,-90.4066946
428,Spears Street,63127,38.5597519,-90.3983134
3917,Courtyard Place Drive,63127,38.5459089,-90.4011192
12920,West Watson Road,63127,38.5366001,-90.4192532
249,Monica Drive,63127,38.5577722,-90.4006493
12717,Nanell Lane,63127,38.5357971,-90.4146471
12358,Courtyard Lake Drive,63127,38.5446902,-90.4011769
12112,Westwick Place,63127,38.5433653,-90.3945860
12718,Saint Lazare Lane,63127,38.5344983,-90.4142958
12530,Cinema Lane,63127,38.5397800,-90.4052657
11630,Sappington Barracks Road,63127,38.5292639,-90.3823647
13310,West Watson Road,63127,38.5269427,-90.4236197
9048,Middlewood Court,63127,38.5471131,-90.4090682
9193,Fox Bridge Drive,63127,38.5414217,-90.4094533
12656,Knighton Trail,63127,38.5191156,-90.4070767
204,Rayburn Avenue,63127,38.5591180,-90.4030170
12651,Knighton Trail,63127,38.5194480,-90.4073082
12720,Nanell Lane,63127,38.5353330,-90.4150275
12653,Knighton Trail,63127,38.5193386,-90.4072905
12490,Robyn Road,63127,38.5361294,-90.4070012
185,Floralea Place,63127,38.5586697,-90.4036381
12650,Knighton Trail,63127,38.5190438,-90.4066682
12652,Knighton Trail,63127,38.5190369,-90.4068092
9173,Fox Bridge Drive,63127,38.5421075,-90.4088964
12117,Trentmore Place,63127,38.5426274,-90.3949405
11835,Parklind Drive,63127,38.5325179,-90.3887574
13004,West Watson Road,63127,38.5355821,-90.4211823
12270,Hadley Hill Road,63127,38.5283641,-90.4015915
4353,South Lindbergh Boulevard,63127,38.5346756,-90.3868821
132,Deane Court,63127,38.5565797,-90.4050347
11910,Gravois Road,63127,38.5290694,-90.3898398
139,Monica Drive,63127,38.5578125,-90.4045767
8814,Woodfox Drive,63127,38.5509967,-90.4017198
12754,Saint Lazare Lane,63127,38.5338178,-90.4155623
11837,Sunlind Drive,63127,38.5335117,-90.3878106
12120,Westwick Place,63127,38.5434127,-90.3952500
3851,South Lindbergh Boulevard,63127,38.5477692,-90.4052253
12704,Saint Lazare Lane,63127,38.5348508,-90.4139727
148,Monica Drive,63127,38.5574213,-90.4040599
12608,Cottage Ridge Lane,63127,38.5213955,-90.4068971
212,Rayburn Avenue,63127,38.5591416,-90.4027328
12910,Baalbek Drive,63127,38.5389508,-90.4181646
12256,Hadley Hill Road,63127,38.5292544,-90.4011620
12743,Weber Hill Road,63127,38.5324600,-90.4143570
13125,Maple Drive,63127,38.5450482,-90.4267103
4036,South Lindbergh Boulevard,63127,38.5410769,-90.3975974
9153,Rott Road,63127,38.5444593,-90.4221515
12614,Bradford Woods Drive,63127,38.5457495,-90.4101215
12954,Baalbek Drive,63127,38.5378866,-90.4197803
9121,Moresi Drive,63127,38.5431997,-90.3900828
108,Monica Drive,63127,38.5574233,-90.4062638
240,Floralea Place,63127,38.5582573,-90.4015576
12136,Westwick Place,63127,38.5433681,-90.3966148
280,Deane Court,63127,38.5565394,-90.4000430
10775,Sunset Hills Plaza,63127,38.5548608,-90.4090832
9600,South Geyer Road,63127,38.5320261,-90.3890971
8819,Gladlea Drive,63127,38.5504719,-90.3990689
1411,Windward Ridge Drive,63127,38.5584256,-90.3998183
12361,Courtyard Lake Drive,63127,38.5452076,-90.4014354
11800,Sunset Grove Court,63127,38.5353179,-90.3879135
12507,Cinema Lane,63127,38.5409392,-90.4053720
9441,Caddyshack Circle,63127,38.5293659,-90.4280692
256,Floralea Place,63127,38.5582529,-90.4009159
9068,Rott Road,63127,38.5470243,-90.4202112
9601,Mill Hill Lane,63127,38.5290617,-90.3935591
416,Spears Street,63127,38.5597706,-90.3987344
258,Monica Drive,63127,38.5573670,-90.4002679
4619,South Lindbergh Boulevard,63127,38.5298359,-90.3820678
15,Roosevelt Drive,63127,38.5394305,-90.4032423
260,Monica Drive,63127,38.5573940,-90.4001293
12924,Sunset Bluff Court,63127,38.5433191,-90.4184703
4037,South Lindbergh Boulevard,63127,38.5406513,-90.3984019
12971,Sunset Bluff Court,63127,38.5444835,-90.4198688
9500,South Geyer Road,63127,38.5338585,-90.3890305
9390,Roosevelt Drive,63127,38.5384265,-90.4023704
12419,Robyn Road,63127,38.5377588,-90.4051783
10364,Richview Drive,63127,38.5526427,-90.4044917
11823,Parklind Drive,63127,38.5325134,-90.3881478
9131,Fox Estates Drive,63127,38.5432236,-90.3932737
11808,Parklind Drive,63127,38.5324071,-90.3868197
10315,Julius Northway Street,63127,38.5548055,-90.4038367
12405,Courtyard Lake Drive,63127,38.5462098,-90.4015027
11719,Gravois Road,63127,38.5327078,-90.3858031
12735,Robyn Road,63127,38.5394392,-90.4152053
12103,Westwick Place,63127,38.5438945,-90.3938598
8832,Woodpark Drive,63127,38.5506005,-90.4003047
181,Floralea Place,63127,38.5586632,-90.4037934
12742,Saint Lazare Lane,63127,38.5340399,-90.4150483
9117,Fox Bridge Drive,63127,38.5426751,-90.4096065
12421,Courtyard Lake Drive,63127,38.5466783,-90.4023880
12559,Cinema Lane,63127,38.5401825,-90.4071457
11808,Fairlind Drive,63127,38.5338563,-90.3867151
1514,Windward Ridge Drive,63127,38.5567380,-90.3994256
8829,Ryegate Court,63127,38.5498888,-90.4042960
8828,Ryegate Court,63127,38.5498445,-90.4034598
3778,South Lindbergh Boulevard,63127,38.5496444,-90.4048762
9613,Mill Hill Lane,63127,38.5280710,-90.3934176
144,Deane Court,63127,38.5565586,-90.4043375
9101,Fox Bridge Drive,63127,38.5425454,-90.4105905
149,Deane Court,63127,38.5569323,-90.4041958
251,Monica Drive,63127,38.5577802,-90.4005064
10231,Julius Northway Street,63127,38.5549375,-90.4003192
10242,Julius Northway Street,63127,38.5544480,-90.4008742
12870,Weber Hill Road,63127,38.5288437,-90.4196993
12693,Alberts Laumeier Court,63127,38.5510349,-90.4199710
12509,Village Circle Drive,63127,38.5234216,-90.4043235
9735,Landmark Parkway Drive,63127,38.5263928,-90.3971978
9012,Middlewood Court,63127,38.5480650,-90.4114467
9755,Fall Ridge Trail,63127,38.5320205,-90.4114904
12430,Maret Drive,63127,38.5490102,-90.4084179
241,Deane Court,63127,38.5569500,-90.4018264
1424,Windward Ridge Drive,63127,38.5578067,-90.3992585
9474,Crooked Creek Trail,63127,38.5349714,-90.4043175
9717,Landmark Parkway Drive,63127,38.5268337,-90.3991645
12480,Robyn Road,63127,38.5365974,-90.4061450
9626,Mill Hill Lane,63127,38.5286052,-90.3946863
12262,Hadley Hill Road,63127,38.5292077,-90.4016100
12950,Gravois Road,63127,38.5149831,-90.4150304
11820,Parklind Drive,63127,38.5320839,-90.3875809
12731,Saint Lazare Lane,63127,38.5346098,-90.4151273
11738,Parklind Drive,63127,38.5336815,-90.3857369
6,Roosevelt Drive,63127,38.5401618,-90.4005192
116,Monica Drive,63127,38.5574180,-90.4057278
9024,Middlewood Court,63127,38.5481291,-90.4103634
13135,Maple Drive,63127,38.5450838,-90.4278484
9607,Hidden Valley Drive,63127,38.5290361,-90.3988420
12767,Saint Lazare Lane,63127,38.5341864,-90.4164294
228,Rayburn Avenue,63127,38.5591299,-90.4021787
12638,Bradford Woods Drive,63127,38.5458715,-90.4115742
11808,Sunset Grove Court,63127,38.5348830,-90.3879448
11926,Gravois Road,63127,38.5287080,-90.3901991
4024,South Lindbergh Boulevard,63127,38.5417120,-90.3981429
12741,Nanell Lane,63127,38.5359246,-90.4155595
12250,Weber Hill Road,63127,38.5259592,-90.4026309
12434,Maret Drive,63127,38.5493410,-90.4089047
13022,Dieterle Lane,63127,38.5491714,-90.4223628
161,Floralea Place,63127,38.5586585,-90.4045381
12915,Sunset Bluff Court,63127,38.5440040,-90.4188233
432,Handy Street,63122,38.5604323,-90.3982973
443,Wicksworth Lane,63122,38.5586203,-90.4137412
1462,Royal Springs Drive,63122,38.5571298,-90.4143569
520,Rotherwood Court,63122,38.5586463,-90.4170768
401,Heathstone Lane,63122,38.5587673,-90.4149266
551,Rotherwood Court,63122,38.5577639,-90.4169853
35,Balmagoun Lane,63122,38.5556393,-90.4177771
11395,Cragwold Road,63122,38.5539860,-90.4239540
330,Windsor Spring Drive,63122,38.5583730,-90.4117881
419,Wicksworth Lane,63122,38.5584334,-90.4127692
10,Balmagoun Lane,63122,38.5569781,-90.4172539
11951,Stoneywood Drive,63122,38.5467126,-90.4308334
531,Rotherwood Court,63122,38.5584238,-90.4178206
11321,Cragwold Road,63122,38.5547762,-90.4198655
1473,Royal Springs Drive,63122,38.5574790,-90.4149020
554,Rotherwood Court,63122,38.5581810,-90.4165942
550,Rotherwood Court,63122,38.5583413,-90.4168905
519,Rotherwood Court,63122,38.5590106,-90.4174900
416,Windsor Spring Drive,63122,38.5591042,-90.4138645
405,Wicksworth Lane,63122,38.5578774,-90.4128318
330,Windsor Spring Drive,63122,38.5582453,-90.4118489
1494,Royal Springs Drive,63122,38.5568313,-90.4154354
28,Balmagoun Lane,63122,38.5561431,-90.4176261
1410,Royal Springs Drive,63122,38.5587704,-90.4142635
1440,Royal Springs Drive,63122,38.5578213,-90.4139374
1400,Royal Springs Drive,63122,38.5590662,-90.4142728
311,Windsor Spring Drive,63122,38.5592061,-90.4109932
318,Windsor Spring Drive,63122,38.5586349,-90.4111079
421,Heathstone Lane,63122,38.5586919,-90.4155348
25,Balmagoun Lane,63122,38.5561573,-90.4182289
426,Handy Street,63122,38.5604160,-90.3985596
536,Rotherwood Court,63122,38.5583142,-90.4172304
503,Rotherwood Court,63122,38.5590323,-90.4164940
11355,Cragwold Road,63122,38.5540588,-90.4212260
515,Rotherwood Court,63122,38.5591127,-90.4172644
1489,Royal Springs Drive,63122,38.5575320,-90.4158169
319,Windsor Spring Drive,63122,38.5589414,-90.4114394
543,Rotherwood Court,63122,38.5578637,-90.4175287
1498,Royal Springs Drive,63122,38.5569767,-90.4156782
451,Wicksworth Lane,63122,38.5585418,-90.4140416
1429,Royal Springs Drive,63122,38.5580498,-90.4145814
458,Windsor Spring Drive,63122,38.5591229,-90.4158753
527,Rotherwood Court,63122,38.5586181,-90.4177250
1481,Royal Springs Drive,63122,38.5574166,-90.4151746
11911,Stoneywood Drive,63122,38.5450534,-90.4324112
328,Windsor Spring Drive,63122,38.5582193,-90.4115907
1489,Royal Springs Drive,63122,38.5574023,-90.4154888
358,Windsor Spring Drive,63122,38.5589983,-90.4123644
428,Heathstone Lane,63122,38.5577039,-90.4157361
11949,Stoneywood Drive,63122,38.5462805,-90.4308283
1470,Royal Springs Drive,63122,38.5570720,-90.4146271
1478,Royal Springs Drive,63122,38.5569968,-90.4148834
418,Heathstone Lane,63122,38.5581273,-90.4153153
350,Windsor Spring Drive,63122,38.5588098,-90.4123689
334,Windsor Spring Drive,63122,38.5581606,-90.4121171
535,Rotherwood Court,63122,38.5582265,-90.4178691
410,Heathstone Lane,63122,38.5582395,-90.4150422
1465,Royal Springs Drive,63122,38.5575665,-90.4146022
511,Rotherwood Court,63122,38.5591450,-90.4169894
11435,Cragwold Road,63122,38.5543258,-90.4285582
408,Windsor Spring Drive,63122,38.5591012,-90.4133447
412,Windsor Spring Drive,63122,38.5591017,-90.4136354
11511,Cragwold Road,63122,38.5518793,-90.4263047
11333,Cragwold Road,63122,38.5546686,-90.4203145
11349,Cragwold Road,63122,38.5542502,-90.4208340
315,Windsor Spring Drive,63122,38.5590637,-90.4111960
402,Heathstone Lane,63122,38.5583021,-90.4147362
1448,Royal Springs Drive,63122,38.5575948,-90.4138603
11969,Stoneywood Drive,63122,38.5473106,-90.4316386
1458,Royal Springs Drive,63122,38.5571595,-90.4140406
11905,Stoneywood Drive,63122,38.5492743,-90.4302882
15,Balmagoun Lane,63122,38.5571041,-90.4179639
431,Wicksworth Lane,63122,38.5586964,-90.4133848
11965,Stoneywood Drive,63122,38.5476485,-90.4302679
400,Windsor Spring Drive,63122,38.5590781,-90.4127128
423,Wicksworth Lane,63122,38.5586912,-90.4129926
351,Windsor Spring Drive,63122,38.5587731,-90.4117027
523,Rotherwood Court,63122,38.5587972,-90.4176331
326,Windsor Spring Drive,63122,38.5583813,-90.4115556
344,Windsor Spring Drive,63122,38.5585328,-90.4123639
29,Balmagoun Lane,63122,38.5558131,-90.4183341
507,Rotherwood Court,63122,38.5591271,-90.4167390
7,Balmagoun Lane,63122,38.5574395,-90.4175556
502,Rotherwood Court,63122,38.5585102,-90.4165299
421,Handy Street,63122,38.5607062,-90.3988164
424,Handy Street,63122,38.5604105,-90.3992021
1437,Royal Springs Drive,63122,38.5578310,-90.4145854
430,Heathstone Lane,63122,38.5583105,-90.4158144
506,Rotherwood Court,63122,38.5586258,-90.4168265
426,Heathstone Lane,63122,38.5581313,-90.4156156
440,Windsor Spring Drive,63122,38.5591099,-90.4149266
302,Windsor Spring Drive,63122,38.5592179,-90.4102333
411,Heathstone Lane,63122,38.5586631,-90.4152297
11991,Stoneywood Drive,63122,38.5455087,-90.4338142
449,Handy Street,63122,38.5608159,-90.3979432
539,Rotherwood Court,63122,38.5579938,-90.4177656
444,Handy Street,63122,38.5604285,-90.3978890
425,Handy Street,63122,38.5607453,-90.3986955
400,Wicksworth Lane,63122,38.5577388,-90.4131061
355,Windsor Spring Drive,63122,38.5589625,-90.4117830
340,Windsor Spring Drive,63122,38.5583021,-90.4123500
359,Windsor Spring Drive,63122,38.5592032,-90.4118914
450,Wicksworth Lane,63122,38.5580919,-90.4139565
314,Windsor Spring Drive,63122,38.5587865,-90.4108757
415,Wicksworth Lane,63122,38.5581963,-90.4128050
437,Handy Street,63122,38.5608433,-90.3983465
21,Balmagoun Lane,63122,38.5566838,-90.4181244
444,Wicksworth Lane,63122,38.5581486,-90.4136181
1495,Royal Springs Drive,63122,38.5572238,-90.4156833
555,Rotherwood Court,63122,38.5578823,-90.4166981
20,Balmagoun Lane,63122,38.5565816,-90.4173780
1454,Royal Springs Drive,63122,38.5573523,-90.4138459
11405,Cragwold Road,63122,38.5519489,-90.4255326
11341,Cragwold Road,63122,38.5544527,-90.4205709
547,Rotherwood Court,63122,38.5578355,-90.4172560
404,Windsor Spring Drive,63122,38.5590900,-90.4130318
406,Wicksworth Lane,63122,38.5578158,-90.4134908
452,Windsor Spring Drive,63122,38.5591008,-90.4156014
322,Windsor Spring Drive,63122,38.5585096,-90.4113348
310,Windsor Spring Drive,63122,38.5588934,-90.4106563
306,Windsor Spring Drive,63122,38.5590290,-90.4103697
402,Memphis Street,63122,38.5610795,-90.3980376
34,Balmagoun Lane,63122,38.5557289,-90.4173752
446,Windsor Spring Drive,63122,38.5590996,-90.4152865
1486,Royal Springs Drive,63122,38.5568724,-90.4151312
425,Heathstone Lane,63122,38.5585472,-90.4158295
428,Handy Street,63122,38.5604324,-90.3984322
13091,Gravois Road,63026,38.5151471,-90.4275934
801,West Old Gravois Road,63026,38.5150837,-90.4320230
800,Old Gravois Road,63026,38.5143981,-90.4318045
13081,Gravois Road,63026,38.5161843,-90.4236435
10837,Leebur Drive,63128,38.5212789,-90.3880709
12381,Mentz Hill Road,63128,38.5148473,-90.4013974
10808,Forest Path Drive,63128,38.5106059,-90.4073876
10720,Forest Path Drive,63128,38.5088219,-90.4064376
10861,Leebur Drive,63128,38.5218213,-90.3886797
10693,Roanna Lane,63128,38.5172816,-90.3832762
11731,Doverhill Drive,63128,38.5237324,-90.3843737
10601,Deerpath Acres Court,63128,38.5100542,-90.3974816
9929,Benbury Court,63128,38.5218452,-90.3929099
10602,Tioga Court,63128,38.5208447,-90.3805197
11617,Doverhill Drive,63128,38.5232095,-90.3810441
12145,Bridle Trail Lane,63128,38.5237830,-90.3956774
10538,Alswell Court,63128,38.5087051,-90.3972513
7,Meppen Court,63128,38.5284474,-90.3852221
8,Daybreak Estates,63128,38.5128009,-90.3883247
12186,Gravois Ridge Court,63128,38.5247763,-90.3959036
12719,Mentz Hill Road,63128,38.5072056,-90.4089217
10671,Roanna Lane,63128,38.5171096,-90.3821186
2,Alswell Circle,63128,38.5058484,-90.4049942
11700,Doverhill Drive,63128,38.5230256,-90.3824404
9909,Crestwick Drive,63128,38.5251430,-90.3890484
10012,Benbury Lane,63128,38.5205800,-90.3906454
10079,Sappington Road,63128,38.5174241,-90.3805039
9815,Barrington Drive,63128,38.5267398,-90.3872735
10739,Roanna Lane,63128,38.5176999,-90.3847954
11806,Crestwick Court,63128,38.5280403,-90.3866871
10631,Mentz Hill Acres Drive,63128,38.5130643,-90.3977354
11852,Twillwood Drive,63128,38.5239894,-90.3875630
10627,Leebur Drive,63128,38.5188307,-90.3816070
11714,Helta Court,63128,38.5254565,-90.3848939
10719,Forest Path Drive,63128,38.5091446,-90.4060442
10159,Sappington Road,63128,38.5138710,-90.3808177
9902,Hilltop Drive,63128,38.5235146,-90.3908135
2,Meppen Drive,63128,38.5292656,-90.3843363
10,Oleander Drive,63128,38.5279886,-90.3813979
10845,Kalinda Lane,63128,38.5220140,-90.3870959
10706,Burrow Drive,63128,38.5192602,-90.3830045
10619,Sunset View Estates,63128,38.5133101,-90.3962217
10057,Kalinda Lane,63128,38.5201255,-90.3855777
11701,Doverhill Drive,63128,38.5235641,-90.3825754
11915,Edwards Place Court,63128,38.5251421,-90.3907853
10636,Tioga Court,63128,38.5207848,-90.3819771
9822,Hilltop Drive,63128,38.5254953,-90.3907661
10816,Forest Path Drive,63128,38.5108890,-90.4073733
12654,Elnore Drive,63128,38.5115425,-90.3873970
9927,Meppen Drive,63128,38.5246083,-90.3853542
8,Oleander Drive,63128,38.5280938,-90.3811117
10630,Kennerly Road,63128,38.5181869,-90.3935069
10050,Kalinda Lane,63128,38.5200909,-90.3847567
10058,Kalinda Lane,63128,38.5198471,-90.3849142
10775,Leebur Drive,63128,38.5194638,-90.3860245
10808,Leebur Drive,63128,38.5199545,-90.3874841
11800,Doverhill Drive,63128,38.5226518,-90.3855993
10065,Kalinda Lane,63128,38.5198374,-90.3857237
10061,Hilltop Drive,63128,38.5195739,-90.3888657
10745,Roanna Lane,63128,38.5178225,-90.3852526
10315,Winter Estates Drive,63128,38.5120256,-90.3900110
10539,Alswell Court,63128,38.5090206,-90.3966022
12490,Mentz Hill Road,63128,38.5116921,-90.3998104
10764,Forest Circle Drive,63128,38.5103331,-90.4034115
10740,Forest Circle Drive,63128,38.5109308,-90.4026518
10620,Sunset View Estates,63128,38.5131250,-90.3965536
11833,Helta Drive,63128,38.5257256,-90.3875767
12350,Mentz Hill Road,63128,38.5150615,-90.3966761
12117,Sutton Place Court,63128,38.5153735,-90.3883081
10541,Mentz Hill Acres Drive,63128,38.5119366,-90.3962266
12238,Mentz Hill Road,63128,38.5164743,-90.3952464
12150,Gravios Ridge Court,63128,38.5256702,-90.3951811
9811,Bridle Trail Lane,63128,38.5252848,-90.3949292
12659,Elnore Drive,63128,38.5116605,-90.3883354
10748,Kennerly Road,63128,38.5205893,-90.3951258
12300,Mentz Hill Road,63128,38.5158857,-90.3959741
12240,Mentz Hill Road,63128,38.5154333,-90.3965937
11833,Doverhill Drive,63128,38.5231371,-90.3872471
12231,Mentz Hill Road,63128,38.5173507,-90.3956001
10772,Forest Circle Drive,63128,38.5102281,-90.4037914
10564,Windswept Drive,63128,38.5181015,-90.3913768
10822,Forest Circle Drive,63128,38.5110247,-90.4053433
10365,Schuessler Road,63128,38.5066822,-90.3998410
12733,Alswell Lane,63128,38.5067680,-90.4045717
10077,Hilltop Drive,63128,38.5189940,-90.3891214
11859,Doverhill Court,63128,38.5232422,-90.3889719
11929,Edwards Place Court,63128,38.5251905,-90.3912154
10815,Woodforest Drive,63128,38.5127218,-90.4033828
11871,Doverhill Court,63128,38.5227189,-90.3893365
11872,Doverhill Court,63128,38.5224764,-90.3890008
12526,Glencroft Drive,63128,38.5086991,-90.4008428
12285,Mentz Hill Road,63128,38.5166651,-90.3970235
11633,Doverhill Drive,63128,38.5236561,-90.3822225
9920,Hilltop Drive,63128,38.5226297,-90.3913963
10583,Windswept Drive,63128,38.5187540,-90.3922024
10614,Deerpath Acres Court,63128,38.5103751,-90.3989175
12521,Alswell Lane,63128,38.5087384,-90.3996520
11847,Doverhill Drive,63128,38.5232508,-90.3879402
12512,Glencroft Drive,63128,38.5088633,-90.4004063
10717,Leebur Drive,63128,38.5187921,-90.3835838
12135,Bridle Trail Lane,63128,38.5236916,-90.3948765
10641,Charlamar Lane,63128,38.5100497,-90.4000847
10035,Hilltop Drive,63128,38.5200912,-90.3893158
11834,Doverhill Drive,63128,38.5226582,-90.3873869
9947,Crestwick Drive,63128,38.5234953,-90.3890418
11843,Twillwood Drive,63128,38.5243413,-90.3869483
9921,Crestwick Drive,63128,38.5245640,-90.3890629
12,Daybreak Estates,63128,38.5145916,-90.3888628
10027,Hilltop Drive,63128,38.5203645,-90.3895779
9927,Hilltop Drive,63128,38.5227349,-90.3925427
10511,Windswept Drive,63128,38.5174214,-90.3890381
10655,Roanna Court,63128,38.5174458,-90.3819156
12408,Glencroft Drive,63128,38.5095589,-90.3990531
10740,Burrow Drive,63128,38.5195550,-90.3843160
10541,Mentz Hill Acres Drive,63128,38.5123291,-90.3959713
10001,Kalinda Lane,63128,38.5220085,-90.3838448
10508,Kennerly Road,63128,38.5156339,-90.3899908
12422,Alswell Lane,63128,38.5098536,-90.3958486
11820,Doverhill Drive,63128,38.5226706,-90.3866429
10807,Woodforest Drive,63128,38.5126638,-90.4030218
12734,Alswell Lane,63128,38.5063491,-90.4045933
9,Alswell Pointe Street,63128,38.5057386,-90.4039311
12710,Alswell Lane,63128,38.5065251,-90.4033078
10780,Forest Circle Drive,63128,38.5102283,-90.4041633
12721,Alswell Lane,63128,38.5063152,-90.4039157
10015,Hilltop Drive,63128,38.5206155,-90.3898445
10085,Sappington Road,63128,38.5171600,-90.3805193
11901,Cresthaven Court,63128,38.5265507,-90.3889533
11800,Helta Drive,63128,38.5253861,-90.3864899
11944,Lombardy Lane,63128,38.5263563,-90.3901020
11867,Twillwood Drive,63128,38.5246329,-90.3881799
9835,Crestwick Drive,63128,38.5262133,-90.3889875
10864,Leebur Drive,63128,38.5213889,-90.3891841
12745,Alswell Lane,63128,38.5072176,-90.4052470
11620,Doverhill Drive,63128,38.5227558,-90.3815462
11721,Doverhill Drive,63128,38.5233534,-90.3838479
9710,Crestwick Drive,63128,38.5289235,-90.3871354
11811,Twillwood Drive,63128,38.5237251,-90.3856113
9911,Meppen Drive,63128,38.5250577,-90.3844001
10074,Kalinda Lane,63128,38.5193345,-90.3852521
10049,Kalinda Lane,63128,38.5203335,-90.3853820
12500,Glencroft Drive,63128,38.5090487,-90.4000179
10028,Hilltop Drive,63128,38.5205719,-90.3891376
11812,Twillwood Drive,63128,38.5235045,-90.3861417
9918,Meppen Drive,63128,38.5245757,-90.3837162
9930,Meppen Drive,63128,38.5241814,-90.3836508
10711,Burrow Drive,63128,38.5197758,-90.3830123
10663,Tioga Court,63128,38.5212905,-90.3828546
9935,Meppen Drive,63128,38.5241016,-90.3856089
10618,Sunset View Estates,63128,38.5122778,-90.3953228
10647,Tioga Court,63128,38.5211428,-90.3823148
10033,Benbury Lane,63128,38.5195844,-90.3903833
12474,Mentz Hill Road,63128,38.5123945,-90.4004124
10559,Windswept Drive,63128,38.5185155,-90.3909336
10705,Burrow Drive,63128,38.5196578,-90.3827215
11900,Lockhaven Place,63128,38.5280290,-90.3885674
10733,Leebur Drive,63128,38.5187952,-90.3843021
10614,Kennerly Road,63128,38.5176927,-90.3928211
9842,Barrington Drive,63128,38.5259686,-90.3865166
10809,Forest Path Drive,63128,38.5105830,-90.4068284
10749,Forest Path Drive,63128,38.5097772,-90.4067677
11834,Helta Drive,63128,38.5252548,-90.3877827
10829,Forest Path Drive,63128,38.5111309,-90.4067475
10624,Roanna Lane,63128,38.5164924,-90.3817558
10,Meppen Drive,63128,38.5282518,-90.3838814
11727,Doverhill Drive,63128,38.5236004,-90.3839767
10827,Leebur Drive,63128,38.5210839,-90.3878253
10800,Forest Path Drive,63128,38.5103338,-90.4074229
11947,Lombardy Lane,63128,38.5268114,-90.3903612
9847,Crestwick Drive,63128,38.5257188,-90.3890175
12315,Bird Haven Lane,63128,38.5202255,-90.4009198
12720,Alswell Lane,63128,38.5053863,-90.4069273
10843,Kennerly Road,63128,38.5227540,-90.3972418
12587,Glencroft Drive,63128,38.5082152,-90.4032354
10834,Forest Circle Drive,63128,38.5112827,-90.4054793
9956,Hilltop Drive,63128,38.5216494,-90.3907574
10277,Eddingham Terrace,63128,38.5080819,-90.3890573
10875,Leebur Drive,63128,38.5221360,-90.3896119
9,Joan Drive,63128,38.5283101,-90.3828884
10722,Leebur Drive,63128,38.5181987,-90.3837415
10117,Hilltop Drive,63128,38.5188674,-90.3881755
8,Meppen Drive,63128,38.5284793,-90.3840275
10595,Windswept Drive,63128,38.5183342,-90.3924900
12720,Elnore Drive,63128,38.5101953,-90.3887268
10571,Windswept Drive,63128,38.5189192,-90.3914406
10823,Woodforest Drive,63128,38.5128141,-90.4037422
12646,Elnore Drive,63128,38.5119500,-90.3869175
11082,Rambling Oaks Drive,63128,38.5194410,-90.4052899
9810,Bridle Trail Lane,63128,38.5259091,-90.3944573
4,Meppen Drive,63128,38.5289706,-90.3843615
17,Meppen Court,63128,38.5278826,-90.3851227
10617,Charlamar Lane,63128,38.5094388,-90.3994368
10153,Hausfel Court,63128,38.5151740,-90.3816533
10801,Kennerly Road,63128,38.5215880,-90.3949331
4,Joan Drive,63128,38.5283890,-90.3819084
9938,Hilltop Drive,63128,38.5223898,-90.3916622
10033,Kalinda Lane,63128,38.5208226,-90.3850484
11744,Doverhill Drive,63128,38.5226621,-90.3849039
12428,Alswell Lane,63128,38.5099160,-90.3964107
10006,Aldred Drive,63128,38.5210548,-90.3859096
10616,Tioga Court,63128,38.5208437,-90.3810829
10219,Kennerly Road,63128,38.5133262,-90.3808319
11732,Doverhill Drive,63128,38.5225817,-90.3839190
11963,Sandian Court,63128,38.5229967,-90.3901696
10285,Kennerly Road,63128,38.5153581,-90.3835469
10334,Kennerly Road,63128,38.5145868,-90.3862949
11968,Sandian Court,63128,38.5225154,-90.3903433
11826,Helta Drive,63128,38.5251918,-90.3874339
10715,Kennerly Road,63128,38.5199937,-90.3937663
10833,Kalinda Lane,63128,38.5219484,-90.3863638
11706,Doverhill Drive,63128,38.5231105,-90.3827268
10301,Winter Estates Drive,63128,38.5115939,-90.3895824
9840,Bridle Trail Lane,63128,38.5250900,-90.3935159
10619,Sunset View Estates,63128,38.5126868,-90.3953888
10157,Hausfel Court,63128,38.5152678,-90.3821567
9904,Meppen Drive,63128,38.5254943,-90.3838112
10602,Forest Lawn Court,63128,38.5193894,-90.3805707
10620,Roanna Lane,63128,38.5163824,-90.3813488
10757,Leebur Drive,63128,38.5190718,-90.3853622
10755,Kennerly Road,63128,38.5213304,-90.3947938
10792,Leebur Drive,63128,38.5195037,-90.3869853
10800,Leebur Drive,63128,38.5197178,-90.3872223
9944,Hilltop Drive,63128,38.5221152,-90.3912779
10239,Kennerly Road,63128,38.5138995,-90.3814265
11982,Sandian Court,63128,38.5225047,-90.3907103
9819,Sappington Road,63128,38.5255780,-90.3804642
10572,Anton Place,63128,38.5111730,-90.3941370
9838,Crestwick Drive,63128,38.5259636,-90.3883970
9830,Bridle Trail Lane,63128,38.5253419,-90.3939024
12635,Mentz Hill Road,63128,38.5105496,-90.4059847
12738,Alswell Lane,63128,38.5064767,-90.4054086
10710,Forest Path Drive,63128,38.5090587,-90.4079429
10618,Deerpath Acres Court,63128,38.5106631,-90.3988917
12104,Sutton Place Court,63128,38.5161783,-90.3869850
10018,Benbury Lane,63128,38.5203136,-90.3904907
10022,Aldred Drive,63128,38.5205643,-90.3861958
10757,Forest Path Drive,63128,38.5100431,-90.4068167
10326,Kennerly Road,63128,38.5145871,-90.3856866
9941,Crestwick Drive,63128,38.5237695,-90.3890732
12563,Glencroft Drive,63128,38.5084605,-90.4024283
12465,Alswell Lane,63128,38.5093059,-90.3985710
11910,Lockhaven Place,63128,38.5278076,-90.3894068
9906,Benbury Court,63128,38.5214195,-90.3924084
9925,Benbury Court,63128,38.5218517,-90.3930187
11939,Lockhaven Place,63128,38.5285437,-90.3904172
12119,Oakcrest Estates Court,63128,38.5160799,-90.3893168
12311,Mentz Hill Road,63128,38.5163254,-90.3974816
2,Daybreak Estates,63128,38.5139004,-90.3881494
12103,Leebur Drive,63128,38.5210723,-90.3911953
10760,Forest Path Drive,63128,38.5100395,-90.4074259
9900,Crestwick Drive,63128,38.5253708,-90.3884362
12544,Alswell Lane,63128,38.5079842,-90.3999179
10709,Leebur Drive,63128,38.5187905,-90.3832323
9725,Crestwick Drive,63128,38.5285444,-90.3877476
10801,Forest Path Drive,63128,38.5103060,-90.4068319
14,Oleander Drive,63128,38.5274695,-90.3818213
11800,Crestwick Court,63128,38.5281854,-90.3863866
10727,Forest Circle Drive,63128,38.5114831,-90.4031876
10617,Tioga Court,63128,38.5212151,-90.3810904
10606,Kennerly Road,63128,38.5173060,-90.3925268
30,Meppen Drive,63128,38.5272081,-90.3837037
17,Oleander Drive,63128,38.5274314,-90.3825239
10688,Charlamar Lane,63128,38.5101279,-90.4021587
9803,Hilltop Drive,63128,38.5262954,-90.3919493
10004,Kalinda Lane,63128,38.5215061,-90.3836605
10856,Leebur Drive,63128,38.5211922,-90.3889009
11951,Lombardy Lane,63128,38.5268953,-90.3906320
11010,Gravois Industrial Court,63128,38.5131902,-90.4122540
10211,Hartshill Lane,63128,38.5130635,-90.3845573
12635,Elnore Drive,63128,38.5127715,-90.3868465
12701,Elnore Drive,63128,38.5106039,-90.3904168
10859,Forest Circle Drive,63128,38.5119939,-90.4056269
9834,Barrington Drive,63128,38.5263000,-90.3866003
11922,Lockhaven Place,63128,38.5278230,-90.3899680
10756,Forest Circle Drive,63128,38.5104750,-90.4030440
6,Daybreak Estates,63128,38.5133299,-90.3875779
9814,Barrington Drive,63128,38.5270845,-90.3864631
10748,Forest Circle Drive,63128,38.5107067,-90.4028649
9733,Sappington Road,63128,38.5277699,-90.3804123
12743,Alswell Lane,63128,38.5070462,-90.4055135
11952,Lombardy Lane,63128,38.5263976,-90.3907402
9841,Crestwick Drive,63128,38.5259589,-90.3890079
10739,Forest Circle Drive,63128,38.5111524,-90.4032245
9927,Crestwick Drive,63128,38.5242859,-90.3890533
10831,Woodforest Drive,63128,38.5128772,-90.4040260
10640,Mentz Hill Acres Drive,63128,38.5121835,-90.3993690
12108,Oakcrest Estates Court,63128,38.5161866,-90.3883013
10633,Sunset View Estates,63128,38.5141501,-90.3977231
11824,Twillwood Drive,63128,38.5237217,-90.3864909
12341,Mentz Hill Road,63128,38.5142212,-90.3984999
16,Oleander Drive,63128,38.5272080,-90.3818264
11864,Doverhill Court,63128,38.5225504,-90.3886607
9815,Hilltop Drive,63128,38.5254951,-90.3925230
10807,Kennerly Road,63128,38.5218315,-90.3952980
10623,Tioga Court,63128,38.5212234,-90.3814243
12416,Alswell Lane,63128,38.5103737,-90.3958295
10541,Anton Place,63128,38.5097728,-90.3917576
9,Daybreak Estates,63128,38.5124506,-90.3887269
10801,Kalinda Lane,63128,38.5217741,-90.3844757
12729,Alswell Lane,63128,38.5070069,-90.4041526
4,Daybreak Estates,63128,38.5138933,-90.3865924
9801,Crestwick Drive,63128,38.5274051,-90.3880417
10652,Tioga Court,63128,38.5207697,-90.3824939
9820,Bridle Trail Lane,63128,38.5256339,-90.3942182
9812,Barrington Drive,63128,38.5274113,-90.3864938
10,Daybreak Estates,63128,38.5135199,-90.3891522
10279,Kennerly Road,63128,38.5152012,-90.3831930
10600,Leebur Drive,63128,38.5182057,-90.3805802
11900,Hilltop Greens Drive,63128,38.5240867,-90.3898953
10071,Sappington Road,63128,38.5177082,-90.3804989
11923,Lockhaven Place,63128,38.5282953,-90.3899617
10265,Eddingham Terrace,63128,38.5088746,-90.3895815
10335,Kennerly Road,63128,38.5152130,-90.3862979
9943,Hilltop Drive,63128,38.5217837,-90.3917132
10275,Kennerly Road,63128,38.5152284,-90.3828778
9717,Crestwick Drive,63128,38.5288237,-90.3877836
11817,Helta Drive,63128,38.5257293,-90.3871415
9738,Crestwick Drive,63128,38.5279896,-90.3870834
9717,Sappington Road,63128,38.5282857,-90.3804196
12145,Bridle Trail Lane,63128,38.5234719,-90.3951966
9725,Sappington Road,63128,38.5280254,-90.3804202
10839,Kalinda Lane,63128,38.5219299,-90.3867399
11079,Rambling Oaks Drive,63128,38.5178601,-90.4063571
10132,Hilltop Drive,63128,38.5187747,-90.3872199
10005,Kalinda Lane,63128,38.5219390,-90.3842079
11933,Hilltop Greens Drive,63128,38.5246502,-90.3911986
10629,Charlamar Lane,63128,38.5098708,-90.3998379
60,Meppen Drive,63128,38.5259671,-90.3837389
12600,Elnore Drive,63128,38.5144661,-90.3836632
10817,Leebur Drive,63128,38.5207885,-90.3875169
11825,Twillwood Drive,63128,38.5242264,-90.3863313
11,Joan Drive,63128,38.5280304,-90.3825592
12115,Leebur Drive,63128,38.5208781,-90.3918723
12243,Mentz Hill Road,63128,38.5170509,-90.3962882
12611,Alswell Lane,63128,38.5081007,-90.4008312
9709,Sappington Road,63128,38.5285361,-90.3804118
11908,Hilltop Greens Drive,63128,38.5239933,-90.3902547
10724,Forest Circle Drive,63128,38.5114914,-90.4024638
10642,Leebur Drive,63128,38.5182108,-90.3823301
10609,Tioga Court,63128,38.5211947,-90.3807863
10664,Tioga Court,63128,38.5206683,-90.3827757
10809,Kalinda Lane,63128,38.5219038,-90.3849229
12291,Alswell Lane,63128,38.5137468,-90.3936607
9919,Meppen Drive,63128,38.5246869,-90.3843656
10651,Roanna Court,63128,38.5175074,-90.3815422
9925,Hilltop Drive,63128,38.5228747,-90.3922617
1,Daybreak Estates,63128,38.5143963,-90.3881660
10700,Woodforest Drive,63128,38.5120842,-90.4023115
10769,Roanna Lane,63128,38.5182507,-90.3862476
12400,Glencroft Drive,63128,38.5099248,-90.3990513
10852,Woodforest Drive,63128,38.5117505,-90.4041784
10721,Forest Circle Drive,63128,38.5117649,-90.4030415
10848,Leebur Drive,63128,38.5209838,-90.3886635
11828,Doverhill Drive,63128,38.5226696,-90.3870098
10540,Anton Place,63128,38.5094016,-90.3923436
12749,Alswell Lane,63128,38.5073147,-90.4055723
10817,Forest Path Drive,63128,38.5108699,-90.4067863
11027,Rambling Oaks Drive,63128,38.5156908,-90.4035496
9937,Hilltop Drive,63128,38.5219248,-90.3918760
31,Toddington Terrace,63128,38.5137755,-90.3836329
10022,Hilltop Drive,63128,38.5208733,-90.3894577
10556,Anton Place,63128,38.5103595,-90.3932992
12704,Alswell Lane,63128,38.5063060,-90.4030771
10716,Forest Circle Drive,63128,38.5117506,-90.4024033
9722,Crestwick Drive,63128,38.5285843,-90.3871356
9749,Sappington Road,63128,38.5270950,-90.3805353
10573,Anton Place,63128,38.5115953,-90.3934212
10814,Forest Circle Drive,63128,38.5107558,-90.4051908
10966,Gravois Industrial Court,63128,38.5123912,-90.4113248
10325,Winter Estates Drive,63128,38.5123122,-90.3906947
5,Meppen Court,63128,38.5284401,-90.3848481
9901,Crestwick Drive,63128,38.5254421,-90.3890396
5,Daybreak Estates,63128,38.5133814,-90.3870682
10332,Winter Estates Drive,63128,38.5121297,-90.3921473
10762,Leebur Drive,63128,38.5185387,-90.3855468
10720,Kennerly Road,63128,38.5190171,-90.3956551
10532,Alswell Court,63128,38.5083191,-90.3970298
12395,Mentz Hill Road,63128,38.5138417,-90.4015935
12501,Glencroft Drive,63128,38.5093919,-90.4005917
12538,Glencroft Drive,63128,38.5085057,-90.4012450
11836,Twillwood Drive,63128,38.5238347,-90.3869042
12530,Mentz Hill Road,63128,38.5108385,-90.4014517
2,Joan Drive,63128,38.5286410,-90.3823214
33,Oleander Drive,63128,38.5261027,-90.3811878
10768,Leebur Drive,63128,38.5186545,-90.3859033
10273,Eddingham Terrace,63128,38.5082257,-90.3893912
10281,Eddingham Terrace,63128,38.5080590,-90.3887110
10744,Kennerly Road,63128,38.5204319,-90.3949634
9733,Crestwick Drive,63128,38.5282642,-90.3877530
12190,Gravois Ridge Court,63128,38.5245325,-90.3961884
9914,Benbury Court,63128,38.5215154,-90.3925266
9918,Benbury Court,63128,38.5215676,-90.3925875
11919,Cresthaven Court,63128,38.5271900,-90.3892792
12345,Mentz Hill Road,63128,38.5152261,-90.3985970
9828,Southgate Lane,63128,38.5265157,-90.3855634
11950,Sandian Court,63128,38.5224768,-90.3898843
9933,Hilltop Drive,63128,38.5221215,-90.3922365
10793,Leebur Drive,63128,38.5200132,-90.3865942
12537,Alswell Lane,63128,38.5085617,-90.4000531
12663,Elnore Drive,63128,38.5127008,-90.3897506
47,Meppen Drive,63128,38.5264650,-90.3845264
12100,Oakcrest Estates Court,63128,38.5166649,-90.3879525
9942,Crestwick Drive,63128,38.5237268,-90.3884432
10311,Kennerly Road,63128,38.5153740,-90.3846895
10139,Hilltop Drive,63128,38.5183770,-90.3874740
10519,Kennerly Road,63128,38.5164270,-90.3898207
11801,Crestwick Court,63128,38.5285029,-90.3863513
12,Meppen Drive,63128,38.5279750,-90.3837893
10644,Tioga Court,63128,38.5207661,-90.3822289
10727,Burrow Drive,63128,38.5198303,-90.3837425
10731,Roanna Lane,63128,38.5175705,-90.3844062
11805,Crestwick Court,63128,38.5286671,-90.3866730
10785,Leebur Drive,63128,38.5196980,-90.3863052
11951,Sandian Court,63128,38.5228580,-90.3898011
10010,Kalinda Lane,63128,38.5212883,-90.3839181
24,Oleander Drive,63128,38.5265475,-90.3806155
10658,Mentz Hill Acres Drive,63128,38.5125879,-90.3991625
10025,Kalinda Lane,63128,38.5212380,-90.3849143
7,Daybreak Estates,63128,38.5132318,-90.3883298
10011,Benbury Lane,63128,38.5202551,-90.3911681
11851,Twillwood Drive,63128,38.5244295,-90.3873990
10786,Leebur Drive,63128,38.5193102,-90.3867273
10508,Anton Place,63128,38.5075862,-90.3905604
10662,Charlamar Lane,63128,38.5100019,-90.4011698
12715,Alswell Lane,63128,38.5067149,-90.4038932
11940,Lockhaven Place,63128,38.5282678,-90.3909129
10519,Najbart Estates Drive,63128,38.5097729,-90.3935943
10647,Mentz Hill Acres Drive,63128,38.5127839,-90.3979924
10810,Kennerly Road,63128,38.5211709,-90.3962827
10024,Benbury Lane,63128,38.5201426,-90.3901970
10017,Benbury Lane,63128,38.5199828,-90.3908257
11843,Helta Drive,63128,38.5258105,-90.3879628
9905,Benbury Court,63128,38.5210732,-90.3922027
9901,Benbury Court,63128,38.5210603,-90.3920485
10828,Woodforest Drive,63128,38.5122503,-90.4040334
10627,Forest Lawn Court,63128,38.5198216,-90.3818378
10752,Forest Path Drive,63128,38.5097528,-90.4073526
1,Alswell Pointe Street,63128,38.5051618,-90.4043880
9811,Sappington Road,63128,38.5258218,-90.3805372
12750,Alswell Lane,63128,38.5071175,-90.4058488
10635,Leebur Drive,63128,38.5187955,-90.3819619
11904,Lockhaven Place,63128,38.5277567,-90.3889042
12265,Alswell Lane,63128,38.5150198,-90.3922081
10601,Leebur Drive,63128,38.5187857,-90.3805867
9826,Barrington Drive,63128,38.5265874,-90.3866111
10851,Kalinda Lane,63128,38.5218578,-90.3875059
12548,Alswell Lane,63128,38.5072640,-90.3983871
10621,Sunset View Estates,63128,38.5136004,-90.3957696
10870,Woodforest Drive,63128,38.5124317,-90.4058491
12481,Alswell Lane,63128,38.5091186,-90.3990787
11939,Lombardy Lane,63128,38.5267936,-90.3896331
9722,Southgate Lane,63128,38.5288851,-90.3857488
12101,Bridle Trail Lane,63128,38.5241618,-90.3940045
12200,Alswell Lane,63128,38.5133231,-90.3907338
11901,Hilltop Greens Drive,63128,38.5244137,-90.3898335
10744,Forest Path Drive,63128,38.5094759,-90.4072125
12000,Foursome Place,63128,38.5245619,-90.3919474
10014,Aldred Drive,63128,38.5207908,-90.3860283
10608,Tioga Court,63128,38.5208227,-90.3807817
10816,Kalinda Lane,63128,38.5213827,-90.3853464
9807,Hilltop Drive,63128,38.5259531,-90.3921251
10837,Forest Path Drive,63128,38.5114682,-90.4066431
11085,Gravois Industrial Court,63128,38.5152725,-90.4129757
10118,Hilltop Drive,63128,38.5191808,-90.3877886
10517,Anton Place,63128,38.5084273,-90.3904386
10895,Leebur Drive,63128,38.5218384,-90.3904628
11715,Doverhill Drive,63128,38.5234562,-90.3833553
12610,Alswell Lane,63128,38.5077308,-90.4005108
10719,Burrow Drive,63128,38.5197826,-90.3833986
10655,Tioga Court,63128,38.5211844,-90.3825605
11629,Doverhill Drive,63128,38.5237427,-90.3818663
9,Meppen Court,63128,38.5284067,-90.3855984
10544,Alswell Court,63128,38.5089385,-90.3974646
10018,Kalinda Lane,63128,38.5210286,-90.3840743
10509,Anton Place,63128,38.5080483,-90.3899307
11714,Doverhill Drive,63128,38.5229496,-90.3833214
10359,Schuessler Road,63128,38.5059054,-90.3989365
10648,Charlamar Lane,63128,38.5097434,-90.4008098
10619,Leebur Drive,63128,38.5187721,-90.3812764
10610,Deerpath Acres Court,63128,38.5102462,-90.3984222
10683,Roanna Lane,63128,38.5172620,-90.3825059
11840,Doverhill Drive,63128,38.5226754,-90.3877373
10549,Anton Place,63128,38.5102360,-90.3921852
9806,Barrington Drive,63128,38.5274594,-90.3869778
9828,Crestwick Drive,63128,38.5262287,-90.3883331
10734,Burrow Drive,63128,38.5193052,-90.3841694
9956,Crestwick Drive,63128,38.5234360,-90.3882544
12532,Alswell Lane,63128,38.5082195,-90.3995585
9709,Crestwick Drive,63128,38.5290949,-90.3877551
12738,Elnore Drive,63128,38.5095967,-90.3894262
10533,Anton Place,63128,38.5093326,-90.3913092
10138,Hilltop Drive,63128,38.5186089,-90.3870460
9910,Benbury Court,63128,38.5214717,-90.3924693
10015,Aldred Drive,63128,38.5210401,-90.3866541
10621,Sunset View Estates,63128,38.5137527,-90.3962612
12703,Alswell Lane,63128,38.5069559,-90.4035086
10524,Anton Place,63128,38.5084261,-90.3914563
12622,Alswell Lane,63128,38.5075527,-90.4008036
12749,Alswell Lane,63128,38.5082714,-90.4053228
10510,Windswept Drive,63128,38.5170761,-90.3893400
10030,Aldred Drive,63128,38.5203292,-90.3864096
12006,Foursome Place,63128,38.5246593,-90.3923169
10610,Forest Lawn Court,63128,38.5193918,-90.3809519
10026,Kalinda Lane,63128,38.5208333,-90.3842192
10525,Windswept Drive,63128,38.5177902,-90.3896480
10774,Leebur Drive,63128,38.5188759,-90.3861986
10756,Leebur Drive,63128,38.5183996,-90.3852117
10622,Tioga Court,63128,38.5208478,-90.3814076
10780,Leebur Drive,63128,38.5191075,-90.3864784
9851,Sappington Road,63128,38.5238305,-90.3805194
10500,Anton Place,63128,38.5071437,-90.3899851
39,Toddington Terrace,63128,38.5134167,-90.3840879
11,Daybreak Estates,63128,38.5141089,-90.3891407
10735,Forest Path Drive,63128,38.5095164,-90.4066197
12651,Elnore Drive,63128,38.5119624,-90.3878834
12646,Alswell Lane,63128,38.5071358,-90.4015902
12001,Foursome Place,63128,38.5251809,-90.3919546
9850,Bridle Trail Lane,63128,38.5248208,-90.3931680
11844,Twillwood Drive,63128,38.5239180,-90.3872252
9821,Bridle Trail Lane,63128,38.5249800,-90.3945106
12746,Alswell Lane,63128,38.5067683,-90.4056721
12201,Mentz Hill Road,63128,38.5187777,-90.3938775
10565,Anton Place,63128,38.5111554,-90.3929835
11915,Rosalind Court,63128,38.5275039,-90.3906638
10720,Kennerly Road,63128,38.5195110,-90.3950135
10910,Kennerly Road,63128,38.5236899,-90.3987913
10705,Forest Circle Drive,63128,38.5120894,-90.4029889
10726,Burrow Drive,63128,38.5192944,-90.3838130
12410,Alswell Lane,63128,38.5104905,-90.3955376
12703,Alswell Lane,63128,38.5068227,-90.4032355
10839,Woodforest Drive,63128,38.5129726,-90.4043915
12625,Alswell Lane,63128,38.5079271,-90.4012215
11736,Doverhill Drive,63128,38.5227144,-90.3842129
10630,Tioga Court,63128,38.5208183,-90.3817007
9832,Southgate Lane,63128,38.5260363,-90.3857827
12520,Mentz Hill Road,63128,38.5114612,-90.4011614
11842,Helta Drive,63128,38.5253280,-90.3881027
9935,Crestwick Drive,63128,38.5240198,-90.3890865
12130,Bridle Trail Lane,63128,38.5230594,-90.3945756
12120,Bridle Trail Lane,63128,38.5232498,-90.3939588
12103,Oakcrest Estates Court,63128,38.5169401,-90.3882962
11901,Lockhaven Place,63128,38.5283140,-90.3888354
11739,Doverhill Drive,63128,38.5231294,-90.3846650
11827,Doverhill Drive,63128,38.5231416,-90.3869070
11956,Lombardy Lane,63128,38.5263988,-90.3910385
12436,Alswell Lane,63128,38.5095629,-90.3970899
12630,Elnore Drive,63128,38.5128378,-90.3858679
12614,Elnore Drive,63128,38.5136158,-90.3848119
12224,Bird Haven Lane,63128,38.5208307,-90.3966356
9817,Crestwick Drive,63128,38.5269304,-90.3884712
10316,Winter Estates Drive,63128,38.5117504,-90.3912285
10071,Hilltop Drive,63128,38.5192767,-90.3892483
11835,Twillwood Drive,63128,38.5242907,-90.3866454
10611,Forest Lawn Court,63128,38.5197887,-90.3810226
10315,Kennerly Road,63128,38.5153850,-90.3849575
6,Oleander Drive,63128,38.5283934,-90.3809090
12466,Alswell Lane,63128,38.5087779,-90.3984205
12116,Oakcrest Estates Court,63128,38.5156793,-90.3887962
10652,Roanna Lane,63128,38.5167543,-90.3828290
10618,Forest Lawn Court,63128,38.5193722,-90.3813676
10596,Windswept Drive,63128,38.5178537,-90.3920036
11848,Doverhill Drive,63128,38.5227346,-90.3880535
9808,Southgate Lane,63128,38.5273141,-90.3856713
9833,Barrington Drive,63128,38.5260915,-90.3872386
10711,Kennerly Road,63128,38.5195372,-90.3934937
9931,Hilltop Drive,63128,38.5223268,-90.3924318
10725,Kennerly Road,63128,38.5202856,-90.3939506
9741,Sappington Road,63128,38.5274593,-90.3804977
9747,Crestwick Drive,63128,38.5276635,-90.3878242
12211,Mentz Hill Road,63128,38.5181713,-90.3947601
12,Oleander Drive,63128,38.5277588,-90.3816888
11728,Helta Court,63128,38.5254893,-90.3854686
11031,Rambling Oaks Drive,63128,38.5152108,-90.4042660
12576,Glencroft Drive,63128,38.5078469,-90.4024180
11860,Twillwood Drive,63128,38.5240549,-90.3879184
11870,Twillwood Drive,63128,38.5242076,-90.3884367
12180,Gravois Ridge Court,63128,38.5249610,-90.3954022
10036,Hilltop Drive,63128,38.5203679,-90.3888873
11745,Doverhill Drive,63128,38.5231503,-90.3851393
10634,Leebur Drive,63128,38.5182108,-90.3819756
9814,Hilltop Drive,63128,38.5258643,-90.3910095
59,Meppen Drive,63128,38.5260016,-90.3845378
15,Meppen Court,63128,38.5278803,-90.3854747
10635,Forest Lawn Court,63128,38.5198807,-90.3822431
11632,Doverhill Drive,63128,38.5229150,-90.3820719
10626,Deerpath Acres Court,63128,38.5110929,-90.3993334
10748,Leebur Drive,63128,38.5182573,-90.3848226
11625,Doverhill Drive,63128,38.5235425,-90.3815516
1,Meppen Drive,63128,38.5292502,-90.3850202
10659,Mentz Hill Acres Drive,63128,38.5128924,-90.3988291
9818,Barrington Drive,63128,38.5268229,-90.3865701
11932,Lockhaven Place,63128,38.5279954,-90.3904569
12111,Oakcrest Estates Court,63128,38.5165479,-90.3888210
12486,Mentz Hill Road,63128,38.5119771,-90.4010057
12190,Gravois Ridge Court,63128,38.5240339,-90.3957199
10763,Forest Circle Drive,63128,38.5108192,-90.4036364
10622,Mentz Hill Acres Drive,63128,38.5114640,-90.3982004
10038,Benbury Lane,63128,38.5196963,-90.3896765
9820,Southgate Lane,63128,38.5269313,-90.3857271
10827,Kalinda Lane,63128,38.5219231,-90.3860133
11740,Doverhill Drive,63128,38.5226687,-90.3845304
10680,Tioga Court,63128,38.5208993,-90.3831806
10564,Anton Place,63128,38.5107484,-90.3936870
11814,Doverhill Drive,63128,38.5226596,-90.3863072
11806,Doverhill Drive,63128,38.5226534,-90.3859840
11839,Doverhill Drive,63128,38.5231591,-90.3875773
12709,Mentz Hill Road,63128,38.5075861,-90.4065820
10625,Deerpath Acres Court,63128,38.5113513,-90.3989182
10124,Hilltop Drive,63128,38.5188968,-90.3875015
10634,Forest Lawn Court,63128,38.5193099,-90.3822043
11706,Helta Court,63128,38.5254273,-90.3843813
10744,Leebur Drive,63128,38.5182306,-90.3844595
11805,Twillwood Drive,63128,38.5234334,-90.3854385
11914,Edwards Place Court,63128,38.5249474,-90.3907401
9914,Crestwick Drive,63128,38.5247557,-90.3884446
12606,Rambling Oaks Place,63128,38.5164453,-90.4049684
9847,Hilltop Drive,63128,38.5239977,-90.3920121
10840,Leebur Drive,63128,38.5207621,-90.3884281
9915,Crestwick Drive,63128,38.5248613,-90.3890564
10723,Roanna Lane,63128,38.5174683,-90.3839183
11859,Twillwood Drive,63128,38.5244962,-90.3876811
10643,Roanna Court,63128,38.5172376,-90.3812838
11735,Doverhill Drive,63128,38.5234829,-90.3846561
10081,Hilltop Drive,63128,38.5188641,-90.3887114
10603,Forest Lawn Court,63128,38.5198954,-90.3806191
3,Daybreak Estates,63128,38.5140131,-90.3874546
9801,Barrington Drive,63128,38.5270266,-90.3875452
10327,Kennerly Road,63128,38.5153171,-90.3858304
10537,Windswept Drive,63128,38.5180876,-90.3902212
10989,Gravois Industrial Court,63128,38.5131097,-90.4110198
10870,Leebur Drive,63128,38.5216380,-90.3895572
10516,Anton Place,63128,38.5079848,-90.3909911
11927,Rosalind Court,63128,38.5275770,-90.3915064
12121,Leebur Drive,63128,38.5205983,-90.3917730
10531,Kennerly Road,63128,38.5169866,-90.3906594
10833,Forest Circle Drive,63128,38.5116101,-90.4048406
9912,Meppen Drive,63128,38.5250664,-90.3837693
12600,Mentz Hill Road,63128,38.5091113,-90.4033006
10000,Hilltop Drive,63128,38.5212742,-90.3899903
12106,Bridle Trail Lane,63128,38.5236509,-90.3934004
1,Alswell Circle,63128,38.5061872,-90.4052816
10410,Kennerly Road,63128,38.5146068,-90.3876200
10319,Kennerly Road,63128,38.5154415,-90.3853457
11901,Edwards Place Court,63128,38.5251172,-90.3904442
12114,Bridle Trail Lane,63128,38.5234596,-90.3936289
10731,Kennerly Road,63128,38.5205975,-90.3943889
10749,Kennerly Road,63128,38.5209491,-90.3945993
10735,Kennerly Road,63128,38.5206515,-90.3942763
12643,Elnore Drive,63128,38.5123684,-90.3874628
12550,Glencroft Drive,63128,38.5082889,-90.4016478
10855,Leebur Drive,63128,38.5219926,-90.3880901
9741,Crestwick Drive,63128,38.5279963,-90.3877677
11909,Lockhaven Place,63128,38.5283007,-90.3894055
12547,Glencroft Drive,63128,38.5086962,-90.4018942
11860,Doverhill Court,63128,38.5227862,-90.3883793
11918,Cresthaven Court,63128,38.5273407,-90.3889398
9957,Hilltop Drive,63128,38.5212590,-90.3912867
12638,Elnore Drive,63128,38.5123975,-90.3863841
10532,Anton Place,63128,38.5089189,-90.3918589
31,Oleander Drive,63128,38.5261226,-90.3815030
10643,Leebur Drive,63128,38.5187930,-90.3822873
10674,Charlamar Lane,63128,38.5101029,-90.4017183
10845,Forest Circle Drive,63128,38.5118944,-90.4052238
10032,Benbury Lane,63128,38.5199203,-90.3899987
12588,Glencroft Drive,63128,38.5075719,-90.4028672
12182,Bridle Trail Lane,63128,38.5219022,-90.3932205
11709,Doverhill Drive,63128,38.5235747,-90.3829366
12229,Alswell Lane,63128,38.5145584,-90.3910676
10844,Woodforest Drive,63128,38.5122921,-90.4046989
10655,Charlamar Lane,63128,38.5108751,-90.3998048
12168,Bridle Trail Lane,63128,38.5223940,-90.3939325
10666,Tioga Court,63128,38.5202831,-90.3827152
12482,Alswell Lane,63128,38.5086223,-90.3987883
9701,Crestwick Drive,63128,38.5293301,-90.3877781
12215,Alswell Lane,63128,38.5150904,-90.3905202
10631,Tioga Court,63128,38.5211985,-90.3817106
10610,Leebur Drive,63128,38.5181750,-90.3809257
10,Kennerly Manor Drive,63128,38.5222584,-90.3990704
10066,Kalinda Lane,63128,38.5196065,-90.3850952
10757,Roanna Lane,63128,38.5179305,-90.3857317
10820,Woodforest Drive,63128,38.5122145,-90.4036772
10846,Forest Circle Drive,63128,38.5115434,-90.4058593
10526,Windswept Drive,63128,38.5174121,-90.3900462
10501,Anton Place,63128,38.5074718,-90.3894854
10611,Leebur Drive,63128,38.5188192,-90.3809000
10847,Leebur Drive,63128,38.5215580,-90.3883855
12407,Glencroft Drive,63128,38.5100969,-90.3993341
9705,Hilltop Drive,63128,38.5270861,-90.3922313
9827,Sappington Road,63128,38.5250879,-90.3805444
10728,Forest Path Drive,63128,38.5090096,-90.4067670
10712,Kennerly Road,63128,38.5192603,-90.3944592
11932,Hilltop Greens Drive,63128,38.5240945,-90.3912926
11817,Doverhill Drive,63128,38.5231377,-90.3864340
9950,Hilltop Drive,63128,38.5219546,-90.3909639
9907,Sappington Road,63128,38.5216647,-90.3811650
12226,Mentz Hill Road,63128,38.5173093,-90.3948731
15,Oleander Drive,63128,38.5277125,-90.3824676
10824,Forest Path Drive,63128,38.5112300,-90.4073203
10450,Kennerly Road,63128,38.5142703,-90.3905768
12404,Alswell Lane,63128,38.5100682,-90.3947084
12180,Bridle Trail Lane,63128,38.5221383,-90.3933749
10861,Forest Path Drive,63128,38.5118620,-90.4064417
11901,Rosalind Court,63128,38.5273361,-90.3899304
12370,Alswell Lane,63128,38.5110018,-90.3947208
25,Oleander Drive,63128,38.5262752,-90.3826224
10009,Hilltop Drive,63128,38.5208409,-90.3902441
9839,Sappington Road,63128,38.5244261,-90.3805229
9845,Sappington Road,63128,38.5241690,-90.3805500
10231,Kennerly Road,63128,38.5136419,-90.3810885
12741,Alswell Lane,63128,38.5068523,-90.4049457
11959,Lombardy Lane,63128,38.5268992,-90.3913929
10609,Deerpath Acres Court,63128,38.5105116,-90.3979060
10816,Kennerly Road,63128,38.5208238,-90.3969003
9845,Bridle Trail Lane,63128,38.5246297,-90.3941190
10525,Anton Place,63128,38.5088954,-90.3908056
12214,Mentz Hill Road,63128,38.5180284,-90.3939741
11911,Cresthaven Court,63128,38.5268682,-90.3892181
9709,Hilltop Drive,63128,38.5268416,-90.3921268
10619,Forest Lawn Court,63128,38.5198389,-90.3814475
10700,Leebur Drive,63128,38.5182155,-90.3826790
11059,Gravois Industrial Court,63128,38.5147702,-90.4126920
12551,Alswell Lane,63128,38.5083074,-90.4004470
10600,Mentz Hill Acres Drive,63128,38.5108505,-90.3972754
10548,Anton Place,63128,38.5098305,-90.3928134
10602,Deerpath Acres Court,63128,38.5097726,-90.3981266
10615,Mentz Hill Acres Drive,63128,38.5122248,-90.3973024
10847,Woodforest Drive,63128,38.5130076,-90.4047434
14,Alswell Pointe Street,63128,38.5056357,-90.4033693
6,Alswell Pointe Street,63128,38.5051962,-90.4039626
19,Meppen Court,63128,38.5279247,-90.3847353
35,Oleander Drive,63128,38.5261064,-90.3805931
10724,Leebur Drive,63128,38.5182148,-90.3840779
9929,Sappington Road,63128,38.5212412,-90.3805061
12707,Alswell Lane,63128,38.5067803,-90.4035934
2,Oleander Drive,63128,38.5288963,-90.3805547
10885,Leebur Drive,63128,38.5220343,-90.3901666
10867,Leebur Drive,63128,38.5220453,-90.3891022
10733,Kennerly Road,63128,38.5206221,-90.3943360
12116,Sutton Place Court,63128,38.5152967,-90.3875763
10000,Kalinda Lane,63128,38.5218593,-90.3834593
10816,Leebur Drive,63128,38.5201477,-90.3877294
12523,Glencroft Drive,63128,38.5091679,-90.4010078
10806,Forest Circle Drive,63128,38.5105164,-90.4048820
12672,Alswell Lane,63128,38.5066769,-90.4024175
27,Oleander Court,63128,38.5260020,-90.3823093
10711,Forest Path Drive,63128,38.5090415,-90.4056888
10803,Forest Circle Drive,63128,38.5109217,-90.4044085
10619,Sunset View Estates,63128,38.5129092,-90.3951125
12673,Alswell Lane,63128,38.5070378,-90.4028838
11734,Helta Court,63128,38.5255006,-90.3858255
12575,Glencroft Drive,63128,38.5083469,-90.4029144
12661,Alswell Lane,63128,38.5072551,-90.4024711
10727,Forest Path Drive,63128,38.5093061,-90.4063327
29,Oleander Drive,63128,38.5261167,-90.3818531
9808,Hilltop Drive,63128,38.5258216,-90.3901577
10617,Deerpath Acres Court,63128,38.5108928,-90.3983550
9815,Hilltop Drive,63128,38.5254592,-90.3928534
21,Meppen Court,63128,38.5278707,-90.3843578
10811,Kennerly Road,63128,38.5221248,-90.3957171
12319,Bird Haven Lane,63128,38.5192534,-90.4020824
9911,Sappington Road,63128,38.5217735,-90.3826857
9949,Hilltop Drive,63128,38.5215116,-90.3915398
10635,Kennerly Road,63128,38.5187809,-90.3930040
12098,Leebur Drive,63128,38.5207334,-90.3907706
12606,Elnore Drive,63128,38.5140750,-90.3841344
12156,Bridle Trail Lane,63128,38.5227230,-90.3942628
11069,Chateau Chura Drive,63128,38.5156894,-90.4097231
10836,Kalinda Lane,63128,38.5213535,-90.3865634
10,Alswell Pointe Street,63128,38.5053373,-90.4036266
3,Oleander Drive,63128,38.5286681,-90.3814945
9831,Sappington Road,63128,38.5241871,-90.3827097
9859,Sappington Road,63128,38.5232113,-90.3806843
12658,Alswell Lane,63128,38.5069688,-90.4019474
10785,Forest Circle Drive,63128,38.5107190,-90.4040352
12649,Alswell Lane,63128,38.5074939,-90.4019684
20,Oleander Drive,63128,38.5266440,-90.3814620
1,Oleander Drive,63128,38.5290704,-90.3812204
9823,Sappington Road,63128,38.5253896,-90.3813455
10523,Kennerly Road,63128,38.5167215,-90.3901793
10708,Leebur Drive,63128,38.5182099,-90.3830319
10110,Hilltop Drive,63128,38.5193334,-90.3879534
10671,Tioga Court,63128,38.5211428,-90.3831585
9825,Barrington Drive,63128,38.5264254,-90.3872692
9800,Hilltop Drive,63128,38.5264175,-90.3913240
10545,Alswell Court,63128,38.5092696,-90.3968721
11722,Doverhill Drive,63128,38.5226852,-90.3832259
9800,Barrington Drive,63128,38.5274837,-90.3873026
12619,Elnore Drive,63128,38.5135546,-90.3858484
12101,Sutton Place Court,63128,38.5164736,-90.3871676
10732,Forest Circle Drive,63128,38.5112198,-90.4024721
10342,Kennerly Road,63128,38.5146125,-90.3869634
10305,Kennerly Road,63128,38.5153938,-90.3839860
12100,Bridle Trail Lane,63128,38.5239169,-90.3929786
9951,Sappington Road,63128,38.5203426,-90.3807767
9801,Hilltop Drive,63128,38.5265020,-90.3920465
9915,Hilltop Drive,63128,38.5230645,-90.3920426
11919,Hilltop Greens Drive,63128,38.5245939,-90.3907672
12110,Sutton Place Court,63128,38.5156897,-90.3871484
12109,Sutton Place Court,63128,38.5159827,-90.3877887
10825,Forest Circle Drive,63128,38.5113690,-90.4047237
11924,Hilltop Greens Drive,63128,38.5240975,-90.3909695
11900,Edwards Place Court,63128,38.5249813,-90.3897421
12634,Alswell Lane,63128,38.5073237,-90.4012771
9819,Hilltop Drive,63128,38.5255362,-90.3919433
12141,Schulz Road,63128,38.5197805,-90.3929549
10687,Roanna Lane,63128,38.5173553,-90.3828424
10577,Windswept Drive,63128,38.5189816,-90.3920871
11940,Lombardy Lane,63128,38.5263387,-90.3896948
9810,Crestwick Drive,63128,38.5267634,-90.3879131
11943,Lombardy Lane,63128,38.5268173,-90.3900255
35,Meppen Drive,63128,38.5269071,-90.3844835
10621,Roanna Lane,63128,38.5168922,-90.3813374
50,Meppen Drive,63128,38.5264704,-90.3836705
11916,Hilltop Greens Drive,63128,38.5240610,-90.3906178
10714,Burrow Drive,63128,38.5193482,-90.3833782
10822,Kalinda Lane,63128,38.5214100,-90.3857749
12007,Foursome Place,63128,38.5250006,-90.3923574
10047,Hilltop Drive,63128,38.5198754,-90.3890560
12520,Alswell Lane,63128,38.5084621,-90.3991612
11790,Helta Court,63128,38.5254573,-90.3862942
10042,Kalinda Lane,63128,38.5203358,-90.3845862
9701,Hilltop Drive,63128,38.5273211,-90.3923578
10557,Anton Place,63128,38.5107102,-90.3926422
9833,Sappington Road,63128,38.5241911,-90.3819844
10060,Hilltop Drive,63128,38.5197130,-90.3882440
3,Alswell Circle,63128,38.5061009,-90.4049534
3,Alswell Pointe Street,63128,38.5054434,-90.4041966
10850,Kalinda Lane,63128,38.5215425,-90.3875350
10639,Tioga Court,63128,38.5211763,-90.3820344
10842,Kalinda Lane,63128,38.5214210,-90.3870202
10034,Kalinda Lane,63128,38.5205777,-90.3844200
11616,Doverhill Drive,63128,38.5226888,-90.3809980
10542,Windswept Drive,63128,38.5177408,-90.3907608
10111,Hilltop Drive,63128,38.5191005,-90.3884012
10735,Burrow Drive,63128,38.5198183,-90.3841039
12611,Elnore Drive,63128,38.5140356,-90.3852581
11621,Doverhill Drive,63128,38.5232637,-90.3815503
10165,Hausfel Court,63128,38.5152318,-90.3824997
10626,Leebur Drive,63128,38.5182005,-90.3816281
10123,Hilltop Drive,63128,38.5186933,-90.3879087
10620,Leebur Drive,63128,38.5182085,-90.3812737
10528,Anton Place,63128,38.5086623,-90.3917349
10739,Kennerly Road,63128,38.5208960,-90.3942888
36,Meppen Drive,63128,38.5268403,-90.3837262
10261,Eddingham Terrace,63128,38.5091384,-90.3893417
10737,Kennerly Road,63128,38.5206839,-90.3942078
9911,Hilltop Drive,63128,38.5233219,-90.3920250
12601,Elnore Drive,63128,38.5145167,-90.3846921
10516,Kennerly Road,63128,38.5157637,-90.3912156
9903,Hilltop Drive,63128,38.5236141,-90.3919817
18,Oleander Drive,63128,38.5269058,-90.3817139
12700,Alswell Lane,63128,38.5065094,-90.4028006
9860,Bridle Trail Lane,63128,38.5243222,-90.3928869
10151,Sappington Road,63128,38.5143441,-90.3810877
11955,Lombardy Lane,63128,38.5269104,-90.3909389
10705,Kennerly Road,63128,38.5192003,-90.3934076
11975,Sandian Court,63128,38.5229277,-90.3905811
12125,Bridle Trail Lane,63128,38.5238933,-90.3944422
11026,Gravois Industrial Court,63128,38.5135305,-90.4127177
11818,Helta Drive,63128,38.5252305,-90.3869779
10636,Roanna Lane,63128,38.5167139,-90.3824336
6,Meppen Drive,63128,38.5287165,-90.3842561
10040,Benbury Lane,63128,38.5195108,-90.3895131
2,Kennerly Manor Drive,63128,38.5226249,-90.3984085
12221,Mentz Hill Road,63128,38.5178530,-90.3950856
14,Meppen Drive,63128,38.5276817,-90.3836838
12627,Elnore Drive,63128,38.5131772,-90.3863417
9939,Meppen Drive,63128,38.5241259,-90.3847206
10851,Woodforest Drive,63128,38.5136183,-90.4038722
10801,Leebur Drive,63128,38.5204721,-90.3871022
12363,Alswell Lane,63128,38.5118561,-90.3943457
10701,Leebur Drive,63128,38.5188157,-90.3829043
12622,Elnore Drive,63128,38.5131932,-90.3854007
10716,Leebur Drive,63128,38.5181903,-90.3833827
12535,Glencroft Drive,63128,38.5089686,-90.4013992
10725,Leebur Drive,63128,38.5187901,-90.3839300
10922,Gravois Industrial Court,63128,38.5115152,-90.4106776
10048,Hilltop Drive,63128,38.5201151,-90.3886600
10137,Hilltop Drive,63128,38.5184951,-90.3876469
11803,Doverhill Drive,63128,38.5231321,-90.3859829
10547,Kennerly Road,63128,38.5174487,-90.3913063
12454,Alswell Lane,63128,38.5090512,-90.3979420
12186,Bridle Trail Lane,63128,38.5217977,-90.3933150
10341,Kennerly Road,63128,38.5152075,-90.3867347
11025,Gravois Industrial Court,63128,38.5139828,-90.4105731
12720,Alswell Lane,63128,38.5059088,-90.4043634
10944,Gravois Industrial Court,63128,38.5118569,-90.4110041
11088,Gravois Industrial Court,63128,38.5151535,-90.4142510
11037,Gravois Industrial Court,63128,38.5137393,-90.4116618
11039,Gravois Industrial Court,63128,38.5140084,-90.4118157
11088,Gravois Industrial Court,63128,38.5151964,-90.4141963
11043,Gravois Industrial Court,63128,38.5145669,-90.4119684
11037,Gravois Industrial Court,63128,38.5139119,-90.4113924
11017,Gravois Industrial Court,63128,38.5135812,-90.4113549
11037,Gravois Industrial Court,63128,38.5137899,-90.4115859
11054,Gravois Industrial Court,63128,38.5142821,-90.4135103
10626,Forest Lawn Court,63128,38.5193596,-90.3817806
11037,Gravois Industrial Court,63128,38.5138256,-90.4114721
11084,Gravois Industrial Court,63128,38.5149844,-90.4140034
11043,Gravois Industrial Court,63128,38.5144025,-90.4121142
11017,Gravois Industrial Court,63128,38.5136287,-90.4111462
11750,Doverhill Drive,63128,38.5226515,-90.3852499
10815,Kalinda Lane,63128,38.5219412,-90.3853143
10911,Gravois Industrial Court,63128,38.5115432,-90.4091909
10821,Kalinda Lane,63128,38.5219307,-90.3856735
11037,Gravois Industrial Court,63128,38.5138703,-90.4114683
12637,Alswell Lane,63128,38.5077122,-90.4016476
11025,Gravois Industrial Court,63128,38.5142154,-90.4107890
11037,Gravois Industrial Court,63128,38.5138256,-90.4115290
11017,Gravois Industrial Court,63128,38.5136584,-90.4110931
11017,Gravois Industrial Court,63128,38.5135275,-90.4113094
11017,Gravois Industrial Court,63128,38.5134650,-90.4114119
11025,Gravois Industrial Court,63128,38.5141200,-90.4107019
10410,Kennerly Road,63128,38.5145361,-90.3873688
11041,Gravois Industrial Court,63128,38.5141551,-90.4119384
11037,Gravois Industrial Court,63128,38.5139506,-90.4113279
11017,Gravois Industrial Court,63128,38.5134263,-90.4114726
11017,Gravois Industrial Court,63128,38.5134978,-90.4113663
11025,Gravois Industrial Court,63128,38.5142720,-90.4108345
11017,Gravois Industrial Court,63128,38.5135543,-90.4112563
11025,Gravois Industrial Court,63128,38.5140723,-90.4106527
11017,Gravois Industrial Court,63128,38.5135840,-90.4111994
9757,Sappington Road,63128,38.5268583,-90.3805014
11,Meppen Court,63128,38.5281209,-90.3857619
10526,Alswell Court,63128,38.5084599,-90.3965561
10533,Alswell Court,63128,38.5087621,-90.3964393
23,Oleander Drive,63128,38.5265514,-90.3824546
19,Oleander Drive,63128,38.5271926,-90.3825040
12662,Elnore Drive,63128,38.5111068,-90.3878911
11037,Gravois Industrial Court,63128,38.5136888,-90.4117681
22,Oleander Drive,63128,38.5265930,-90.3811043
10560,Mentz Hill Acres Drive,63128,38.5111926,-90.3965536
12708,Alswell Lane,63128,38.5060266,-90.4033152
21,Oleander Drive,63128,38.5268865,-90.3824732
11048,Gravois Industrial Court,63128,38.5142514,-90.4134823
29,Meppen Drive,63128,38.5272728,-90.3844568
9818,Crestwick Drive,63128,38.5265194,-90.3881382
10947,Gravois Industrial Court,63128,38.5128724,-90.4094459
11025,Gravois Industrial Court,63128,38.5140992,-90.4107626
11043,Gravois Industrial Court,63128,38.5144348,-90.4122279
11728,Doverhill Drive,63128,38.5224177,-90.3835691
11025,Gravois Industrial Court,63128,38.5141737,-90.4107474
11948,Lombardy Lane,63128,38.5263969,-90.3903944
11043,Gravois Industrial Court,63128,38.5144740,-90.4121505
11062,Gravois Industrial Court,63128,38.5143272,-90.4135565
11043,Gravois Industrial Court,63128,38.5145240,-90.4120640
11025,Gravois Industrial Court,63128,38.5140276,-90.4106148
3,Meppen Drive,63128,38.5289336,-90.3849455
10511,Najbart Estates Drive,63128,38.5090632,-90.3929521
11036,Gravois Industrial Court,63128,38.5139160,-90.4130686
11070,Gravois Industrial Court,63128,38.5147137,-90.4135765
11056,Gravois Industrial Court,63128,38.5143057,-90.4135344
5,Joan Drive,63128,38.5289673,-90.3832455
11043,Gravois Industrial Court,63128,38.5143524,-90.4120642
11909,Hilltop Greens Drive,63128,38.5246086,-90.3901971
11727,Helta Court,63128,38.5259823,-90.3853559
10091,Sappington Road,63128,38.5168897,-90.3805079
10944,Gravois Industrial Court,63128,38.5119605,-90.4108265
35,Toddington Terrace,63128,38.5135902,-90.3838630
9912,Hilltop Drive,63128,38.5231237,-90.3910823
9809,Crestwick Drive,63128,38.5271743,-90.3882477
10041,Kalinda Lane,63128,38.5205655,-90.3852516
10832,Leebur Drive,63128,38.5205469,-90.3881612
10741,Leebur Drive,63128,38.5188888,-90.3847582
7,Joan Drive,63128,38.5286286,-90.3831112
10025,Aldred Drive,63128,38.5206899,-90.3868857
11863,Doverhill Court,63128,38.5230391,-90.3891636
10736,Forest Path Drive,63128,38.5092116,-90.4070617
12564,Glencroft Drive,63128,38.5080223,-90.4020864
10820,Sunset Office Drive,63127,38.5558945,-90.4131607
10893,Sunset Hills Plaza,63127,38.5547185,-90.4106446
10797,Sunset Hills Plaza,63127,38.5547801,-90.4097363
10890,Sunset Hills Plaza,63127,38.5527939,-90.4106063
3600,South Lindbergh Boulevard,63127,38.5545389,-90.4051639
1580,South Kirkwood Road,63127,38.5564335,-90.4060065
3660,South Geyer Road,63127,38.5524606,-90.4130440
3668,South Geyer Road,63127,38.5524533,-90.4123577
3630,South Geyer Road,63127,38.5536604,-90.4143702
3636,South Geyer Road,63127,38.5533148,-90.4154294
3637,South Geyer Road,63127,38.5524807,-90.4172187
10877,Watson Road,63127,38.5544079,-90.4156038
10795,Watson Road,63127,38.5551182,-90.4124130
10825,Watson Road,63127,38.5553416,-90.4137448
12399,Gravois Road,63127,38.5237189,-90.4026931
12440,Rott Road,63127,38.5513552,-90.4096244
12500,Rott Road,63127,38.5517633,-90.4122335
12420,Rott Road,63127,38.5512983,-90.4089247
12470,Rott Road,63127,38.5514120,-90.4106975
12414,Rott Road,63127,38.5511735,-90.4082287
10765,Sunset Hills Plaza,63127,38.5550223,-90.4088116
10734,Sunset Hills Plaza,63127,38.5531282,-90.4076094
10954,Kennerly Road,63128,38.5237408,-90.3994749
12200,Weber Hill Road,63127,38.5251941,-90.4028464
12442,Grandview Lake Drive,63127,38.5255506,-90.4047937
9901,Grandview Hill Court,63127,38.5268212,-90.4050195
9900,Grandview Hill Court,63127,38.5270164,-90.4045837
9925,Grandview Hill Court,63127,38.5253062,-90.4042116
9915,Grandview Hill Court,63127,38.5260155,-90.4042371
12438,Grandview Lake Drive,63127,38.5258475,-90.4050256
12433,Grandview Lake Drive,63127,38.5259044,-90.4060181
12437,Grandview Lake Drive,63127,38.5256776,-90.4056868
12441,Grandview Lake Drive,63127,38.5254122,-90.4053696
12515,Grandview Forest Drive,63127,38.5251836,-90.4047065
9916,Grandview Hill Court,63127,38.5259043,-90.4036000
12410,Grandview Lake Drive,63127,38.5280267,-90.4058001
12527,Grandview Forest Drive,63127,38.5249800,-90.4056345
9803,Grandview Lake Court,63127,38.5283341,-90.4055098
9923,Grandview Forest Court,63127,38.5247826,-90.4066685
9815,Grandview Lake Court,63127,38.5275747,-90.4047118
9814,Grandview Lake Court,63127,38.5279386,-90.4041017
9917,Grandview Forest Court,63127,38.5250366,-90.4070038
9918,Grandview Forest Court,63127,38.5252306,-90.4062648
12422,Grandview Lake Drive,63127,38.5269463,-90.4059336
12544,Grandview Forest Drive,63127,38.5241594,-90.4073954
9807,Grandview Lake Court,63127,38.5280928,-90.4051772
9806,Grandview Lake Court,63127,38.5283865,-90.4046963
12532,Grandview Forest Drive,63127,38.5244156,-90.4061696
12421,Grandview Lake Drive,63127,38.5268526,-90.4065055
12528,Grandview Forest Drive,63127,38.5244836,-90.4057284
12434,Grandview Lake Drive,63127,38.5260857,-90.4053784
9811,Grandview Lake Court,63127,38.5278433,-90.4049089
12816,Pointe Drive,63127,38.5198503,-90.4110137
12809,Pointe Drive,63127,38.5204745,-90.4111116
12825,Pointe Drive,63127,38.5201589,-90.4118090
12543,Grandview Forest Drive,63127,38.5245938,-90.4075684
12800,Pointe Drive,63127,38.5201230,-90.4102539
12832,Pointe Drive,63127,38.5195774,-90.4117567
12563,Grandview Forest Drive,63127,38.5247354,-90.4092654
12801,Pointe Drive,63127,38.5206571,-90.4107709
12568,Grandview Forest Drive,63127,38.5245268,-90.4096377
9914,Grandview Forest Court,63127,38.5254436,-90.4066578
9911,Grandview Forest Court,63127,38.5252327,-90.4073498
12560,Grandview Forest Drive,63127,38.5240230,-90.4090764
12547,Grandview Forest Drive,63127,38.5245015,-90.4079747
12824,Pointe Drive,63127,38.5197182,-90.4114321
9902,Grandview Forest Court,63127,38.5257889,-90.4078071
9910,Grandview Forest Court,63127,38.5256283,-90.4069756
11202,Pointe Court,63127,38.5198051,-90.4126981
12833,Pointe Drive,63127,38.5200067,-90.4121911
12808,Pointe Drive,63127,38.5200464,-90.4106369
9907,Grandview Forest Court,63127,38.5253838,-90.4078030
12817,Pointe Drive,63127,38.5203224,-90.4114770
12559,Grandview Forest Drive,63127,38.5245088,-90.4088385
12555,Grandview Forest Drive,63127,38.5244175,-90.4083931
12564,Grandview Forest Drive,63127,38.5241909,-90.4095545
12840,Pointe Drive,63127,38.5193079,-90.4122261
11242,Pointe Court,63127,38.5205333,-90.4145475
11235,Pointe Court,63127,38.5202417,-90.4145951
11211,Pointe Court,63127,38.5194977,-90.4136302
37,Kennerly Manor Drive,63128,38.5210957,-90.4023360
11227,Pointe Court,63127,38.5200076,-90.4142430
11219,Pointe Court,63127,38.5197946,-90.4139091
19,Kennerly Manor Drive,63128,38.5221606,-90.4006288
12849,Pointe Drive,63127,38.5192563,-90.4132432
12856,Pointe Drive,63127,38.5186540,-90.4125606
36,Kennerly Manor Drive,63128,38.5207126,-90.4020115
31,Kennerly Manor Drive,63128,38.5215060,-90.4019632
27,Kennerly Manor Drive,63128,38.5217693,-90.4015884
12864,Pointe Drive,63127,38.5183655,-90.4129328
11234,Pointe Court,63127,38.5206948,-90.4140218
11,Kennerly Manor Drive,63128,38.5226916,-90.3996813
12857,Pointe Drive,63127,38.5189175,-90.4134719
11218,Pointe Court,63127,38.5201944,-90.4134599
12848,Pointe Drive,63127,38.5189835,-90.4124748
11210,Pointe Court,63127,38.5199593,-90.4131460
23,Kennerly Manor Drive,63128,38.5219865,-90.4011297
12865,Pointe Drive,63127,38.5185314,-90.4133929
15,Kennerly Manor Drive,63128,38.5224030,-90.4001661
11226,Pointe Court,63127,38.5204556,-90.4137723
12307,Bird Haven Lane,63128,38.5213938,-90.3990482
10822,Kennerly Road,63128,38.5216235,-90.3965056
12311,Bird Haven Lane,63128,38.5199185,-90.3997887
12250,Bird Haven Lane,63128,38.5204861,-90.3976354
10830,Kennerly Road,63128,38.5219970,-90.3969609
20,Kennerly Manor Drive,63128,38.5215647,-90.4005652
24,Kennerly Manor Drive,63128,38.5213002,-90.4010520
28,Kennerly Manor Drive,63128,38.5210127,-90.4014503
16,Kennerly Manor Drive,63128,38.5218144,-90.3999295
10842,Kennerly Road,63128,38.5220893,-90.3979821
12312,Bird Haven Lane,63128,38.5192511,-90.3984315
12618,Rambling Oaks Place,63128,38.5160150,-90.4052287
11004,Rambling Oaks Drive,63128,38.5176027,-90.4020149
11070,Rambling Oaks Drive,63128,38.5192290,-90.4039166
11062,Rambling Oaks Drive,63128,38.5185806,-90.4039273
12528,Triple Oaks Drive,63128,38.5176551,-90.4033788
11032,Rambling Oaks Drive,63128,38.5168513,-90.4040842
12520,Triple Oaks Drive,63128,38.5178492,-90.4030468
11063,Rambling Oaks Drive,63128,38.5187516,-90.4046561
11012,Rambling Oaks Drive,63128,38.5172710,-90.4027940
11052,Rambling Oaks Drive,63128,38.5175734,-90.4042787
12527,Triple Oaks Drive,63128,38.5182290,-90.4035612
11019,Rambling Oaks Drive,63128,38.5165123,-90.4031361
11078,Rambling Oaks Drive,63128,38.5196991,-90.4046400
12512,Triple Oaks Drive,63128,38.5180549,-90.4026801
12503,Triple Oaks Drive,63128,38.5184578,-90.4028088
12601,Rambling Oaks Place,63128,38.5167034,-90.4053864
11016,Rambling Oaks Drive,63128,38.5170823,-90.4032017
11015,Rambling Oaks Drive,63128,38.5166688,-90.4027579
11043,Rambling Oaks Drive,63128,38.5170466,-90.4053005
11058,Rambling Oaks Drive,63128,38.5182114,-90.4040775
11011,Rambling Oaks Drive,63128,38.5168702,-90.4023917
11047,Rambling Oaks Drive,63128,38.5173645,-90.4051362
11044,Rambling Oaks Drive,63128,38.5170790,-90.4044972
12610,Rambling Oaks Place,63128,38.5160496,-90.4048218
11059,Rambling Oaks Drive,63128,38.5184402,-90.4047433
12511,Triple Oaks Drive,63128,38.5185829,-90.4032407
11074,Rambling Oaks Drive,63128,38.5196110,-90.4039059
11008,Rambling Oaks Drive,63128,38.5174935,-90.4024977
11020,Rambling Oaks Drive,63128,38.5169195,-90.4036175
11035,Rambling Oaks Drive,63128,38.5162953,-90.4044235
11003,Rambling Oaks Drive,63128,38.5172670,-90.4018097
11055,Rambling Oaks Drive,63128,38.5180874,-90.4048004
11066,Rambling Oaks Drive,63128,38.5188387,-90.4037134
11007,Rambling Oaks Drive,63128,38.5170035,-90.4020524
12536,Triple Oaks Drive,63128,38.5174884,-90.4038388
11023,Rambling Oaks Drive,63128,38.5163225,-90.4035282
11051,Rambling Oaks Drive,63128,38.5177212,-90.4049251
12609,Rambling Oaks Place,63128,38.5163896,-90.4054836
11027,Chateau Chura Drive,63128,38.5147547,-90.4065887
11010,Chateau Chura Drive,63128,38.5145355,-90.4083937
11003,Chateau Chura Drive,63128,38.5139322,-90.4084508
11021,Chateau Chura Drive,63128,38.5145376,-90.4071164
11033,Chateau Chura Drive,63128,38.5150317,-90.4062005
11015,Chateau Chura Drive,63128,38.5142637,-90.4075644
11009,Chateau Chura Drive,63128,38.5140307,-90.4078862
11045,Chateau Chura Drive,63128,38.5155283,-90.4058108
11022,Chateau Chura Drive,63128,38.5149762,-90.4076119
11046,Chateau Chura Drive,63128,38.5155963,-90.4068442
11061,Chateau Chura Drive,63128,38.5163487,-90.4085527
11053,Chateau Chura Drive,63128,38.5167485,-90.4070990
9261,Rott Road,63127,38.5400646,-90.4221400
13197,Maple Drive,63127,38.5432943,-90.4300413
13155,Maple Drive,63127,38.5443351,-90.4276641
13133,Maple Drive,63127,38.5443296,-90.4269648
13165,Maple Drive,63127,38.5450376,-90.4296618
13262,Maple Drive,63127,38.5412887,-90.4297127
13290,Maple Drive,63127,38.5405538,-90.4323205
10743,Watson Road,63127,38.5556297,-90.4100036
10820,Sunset Office Drive,63127,38.5559732,-90.4130579
3555,Sunset Office Drive,63127,38.5561850,-90.4113325
10805,Sunset Office Drive,63127,38.5569038,-90.4110564
10777,Sunset Office Drive,63127,38.5574895,-90.4098015
10733,Sunset Office Drive,63127,38.5581990,-90.4085040
1430,South Kirkwood Road,63127,38.5580409,-90.4061671
1525,South Kirkwood Road,63127,38.5568971,-90.4076310
10575,Watson Road,63127,38.5560807,-90.4056729
10542,Watson Road,63127,38.5552733,-90.4051160
10500,Watson Road,63127,38.5553781,-90.4044752
10501,Watson Road,63127,38.5560248,-90.4046517
10425,Watson Road,63127,38.5561129,-90.4040387
10415,Watson Road,63127,38.5561431,-90.4036764
10416,Watson Road,63127,38.5553630,-90.4037266
10400,Watson Road,63127,38.5553026,-90.4031958
10390,Watson Road,63127,38.5553770,-90.4029746
12450,West Watson Road,63127,38.5451907,-90.4064683
10824,Leebur Drive,63128,38.5203549,-90.3879437
3650,South Lindbergh Boulevard,63127,38.5528656,-90.4061920
3642,South Lindbergh Boulevard,63127,38.5537686,-90.4064109
10706,Sunset Hills Plaza,63127,38.5522507,-90.4076834
11700,Gravois Road,63127,38.5317618,-90.3849782
4580,South Lindbergh Boulevard,63127,38.5319552,-90.3827326
11686,Gravois Road,63126,38.5333996,-90.3834916
11662,Gravois Road,63126,38.5338851,-90.3823110
11603,Gravois Road,63126,38.5364231,-90.3804750
12563,Village Circle Drive,63127,38.5216496,-90.4062930
8866,Woodpark Drive,63127,38.5496348,-90.4001998
8858,Woodpark Drive,63127,38.5499281,-90.4002159
8844,Woodpark Drive,63127,38.5502628,-90.4002706
12501,Village Circle Drive,63127,38.5218532,-90.4044839
12505,Village Circle Drive,63127,38.5226388,-90.4052569
3808,South Lindbergh Boulevard,63127,38.5495345,-90.4055125
3802,South Lindbergh Boulevard,63127,38.5498539,-90.4057702
3828,South Lindbergh Boulevard,63127,38.5490468,-90.4049271
3890,South Lindbergh Boulevard,63127,38.5472309,-90.4034579
3870,South Lindbergh Boulevard,63127,38.5478975,-90.4034961
3844,South Lindbergh Boulevard,63127,38.5485860,-90.4032822
4400,South Lindbergh Boulevard,63127,38.5344015,-90.3854894
9701,Landmark Parkway Drive,63127,38.5277938,-90.4008822
9335,Caddyshack Circle,63127,38.5363206,-90.4240846
9327,Caddyshack Circle,63127,38.5366894,-90.4240449
9323,Caddyshack Circle,63127,38.5370666,-90.4240752
16,Flagstick Court,63127,38.5280048,-90.4254723
12,Flagstick Court,63127,38.5281061,-90.4251351
8,Flagstick Court,63127,38.5282294,-90.4248142
4,Flagstick Court,63127,38.5283285,-90.4244633
7,Flagstick Court,63127,38.5285595,-90.4251235
15,Flagstick Court,63127,38.5284307,-90.4256251
23,Flagstick Court,63127,38.5286253,-90.4258422
24,Flagstick Court,63127,38.5283156,-90.4263029
3,Flagstick Court,63127,38.5288966,-90.4249348
8,Collar Court,63127,38.5278725,-90.4290515
4,Collar Court,63127,38.5280598,-90.4287934
9521,Fringe Court,63127,38.5278911,-90.4284190
7,Collar Court,63127,38.5282883,-90.4295119
3,Collar Court,63127,38.5284322,-90.4291673
6,Break Court,63127,38.5286478,-90.4297633
2,Break Court,63127,38.5287966,-90.4294438
5,Break Court,63127,38.5291876,-90.4302913
9505,Fringe Court,63127,38.5291716,-90.4297227
9501,Fringe Court,63127,38.5294115,-90.4298414
9390,Caddyshack Circle,63127,38.5324051,-90.4254442
9399,Caddyshack Circle,63127,38.5322484,-90.4264838
9395,Caddyshack Circle,63127,38.5324923,-90.4262007
9391,Caddyshack Circle,63127,38.5326930,-90.4259258
9387,Caddyshack Circle,63127,38.5328945,-90.4256340
9383,Caddyshack Circle,63127,38.5331039,-90.4253946
9379,Caddyshack Circle,63127,38.5333432,-90.4252231
13135,Gary Player Drive,63127,38.5320002,-90.4280691
13143,Gary Player Drive,63127,38.5325138,-90.4279388
13056,Tapawingo Place,63127,38.5330560,-90.4282986
13163,Gary Player Drive,63127,38.5334266,-90.4287985
13171,Gary Player Drive,63127,38.5337485,-90.4294277
13371,Maple Drive,63127,38.5342417,-90.4303794
13367,Maple Drive,63127,38.5345093,-90.4302248
9,Marchem Circle,63127,38.5392437,-90.4298481
5,Marchem Circle,63127,38.5395646,-90.4299452
9261,Caddyshack Circle,63127,38.5399990,-90.4247964
9233,Caddyshack Circle,63127,38.5404282,-90.4274722
9229,Caddyshack Circle,63127,38.5401282,-90.4274432
9225,Caddyshack Circle,63127,38.5399008,-90.4277182
9221,Caddyshack Circle,63127,38.5399682,-90.4281419
9217,Caddyshack Circle,63127,38.5398744,-90.4285139
9213,Caddyshack Circle,63127,38.5398567,-90.4288634
9209,Caddyshack Circle,63127,38.5398507,-90.4292926
1,Marchem Circle,63127,38.5398623,-90.4298397
7,Kahlia Way Court,63127,38.5372830,-90.4302530
3,Kahlia Way Court,63127,38.5373244,-90.4299151
11,Kahlia Way Court,63127,38.5372499,-90.4306401
13363,Maple Drive,63127,38.5347455,-90.4300661
13359,Maple Drive,63127,38.5350522,-90.4300132
13355,Maple Drive,63127,38.5353566,-90.4300074
13347,Maple Drive,63127,38.5358275,-90.4303567
13343,Maple Drive,63127,38.5361229,-90.4303166
9524,Fringe Court,63127,38.5281316,-90.4277564
9520,Fringe Court,63127,38.5282718,-90.4281482
9516,Fringe Court,63127,38.5284489,-90.4284585
9512,Fringe Court,63127,38.5287109,-90.4286981
9508,Fringe Court,63127,38.5289296,-90.4289372
9504,Fringe Court,63127,38.5291351,-90.4290885
9500,Fringe Court,63127,38.5294603,-90.4290509
9236,Caddyshack Circle,63127,38.5409541,-90.4276494
9232,Caddyshack Circle,63127,38.5407108,-90.4279396
9315,Caddyshack Circle,63127,38.5374629,-90.4241311
9307,Caddyshack Circle,63127,38.5378564,-90.4242055
9339,Caddyshack Circle,63127,38.5360460,-90.4241746
9343,Caddyshack Circle,63127,38.5357884,-90.4242133
9347,Caddyshack Circle,63127,38.5354753,-90.4243418
9351,Caddyshack Circle,63127,38.5352387,-90.4244206
9355,Caddyshack Circle,63127,38.5349554,-90.4244820
9359,Caddyshack Circle,63127,38.5346377,-90.4245748
9363,Caddyshack Circle,63127,38.5343774,-90.4246926
9367,Caddyshack Circle,63127,38.5341172,-90.4248290
9371,Caddyshack Circle,63127,38.5338528,-90.4249420
9375,Caddyshack Circle,63127,38.5336020,-90.4250655
13050,Tapawingo Place,63127,38.5334555,-90.4278764
13044,Tapawingo Place,63127,38.5337659,-90.4275581
13038,Tapawingo Place,63127,38.5341557,-90.4272493
13032,Tapawingo Place,63127,38.5344796,-90.4268668
13026,Tapawingo Place,63127,38.5347975,-90.4265814
13020,Tapawingo Place,63127,38.5351694,-90.4264587
13014,Tapawingo Place,63127,38.5355954,-90.4265068
9200,Caddyshack Circle,63127,38.5402930,-90.4300440
9204,Caddyshack Circle,63127,38.5402880,-90.4296810
9208,Caddyshack Circle,63127,38.5402860,-90.4292645
9212,Caddyshack Circle,63127,38.5402860,-90.4289160
9216,Caddyshack Circle,63127,38.5403180,-90.4285635
9228,Caddyshack Circle,63127,38.5404875,-90.4281785
9252,Caddyshack Circle,63127,38.5406115,-90.4251585
9256,Caddyshack Circle,63127,38.5404990,-90.4248040
9260,Caddyshack Circle,63127,38.5403295,-90.4244975
9264,Caddyshack Circle,63127,38.5400665,-90.4242545
9268,Caddyshack Circle,63127,38.5397980,-90.4240990
9272,Caddyshack Circle,63127,38.5395220,-90.4239855
9276,Caddyshack Circle,63127,38.5391345,-90.4238630
13045,Pagada Parkway,63127,38.5390560,-90.4234110
13041,Pagada Parkway,63127,38.5389360,-90.4230605
13037,Pagada Parkway,63127,38.5386615,-90.4228515
13033,Pagada Parkway,63127,38.5383900,-90.4227155
13029,Pagada Parkway,63127,38.5381075,-90.4226695
13025,Pagada Parkway,63127,38.5378280,-90.4226435
13017,Pagada Parkway,63127,38.5374975,-90.4224725
13005,Pagada Parkway,63127,38.5373950,-90.4220410
9302,Caddyshack Circle,63127,38.5386150,-90.4237520
9306,Caddyshack Circle,63127,38.5383190,-90.4237200
9310,Caddyshack Circle,63127,38.5380520,-90.4237120
9314,Caddyshack Circle,63127,38.5377790,-90.4236075
9318,Caddyshack Circle,63127,38.5374975,-90.4235695
9322,Caddyshack Circle,63127,38.5371865,-90.4235465
9326,Caddyshack Circle,63127,38.5369030,-90.4235105
9330,Caddyshack Circle,63127,38.5366500,-90.4235105
13008,Pagada Parkway,63127,38.5369685,-90.4224290
13004,Pagada Parkway,63127,38.5369045,-90.4220390
9334,Caddyshack Circle,63127,38.5363855,-90.4235530
9338,Caddyshack Circle,63127,38.5361110,-90.4236385
9342,Caddyshack Circle,63127,38.5358380,-90.4236945
9346,Caddyshack Circle,63127,38.5355775,-90.4237740
9350,Caddyshack Circle,63127,38.5352970,-90.4238295
9354,Caddyshack Circle,63127,38.5350300,-90.4239060
9358,Caddyshack Circle,63127,38.5347385,-90.4239610
9362,Caddyshack Circle,63127,38.5344480,-90.4240545
9366,Caddyshack Circle,63127,38.5341855,-90.4241740
9370,Caddyshack Circle,63127,38.5339245,-90.4242745
9374,Caddyshack Circle,63127,38.5336600,-90.4244225
9378,Caddyshack Circle,63127,38.5331815,-90.4246900
9382,Caddyshack Circle,63127,38.5328335,-90.4249130
9386,Caddyshack Circle,63127,38.5325930,-90.4251690
16,Kahlia Way Court,63127,38.5369475,-90.4307855
12,Kahlia Way Court,63127,38.5367295,-90.4306005
8,Kahlia Way Court,63127,38.5366920,-90.4301860
4,Kahlia Way Court,63127,38.5368775,-90.4298185
13044,Sunny Dawn Court,63127,38.5373785,-90.4291825
13040,Sunny Dawn Court,63127,38.5374090,-90.4288130
13036,Sunny Dawn Court,63127,38.5374485,-90.4284095
13032,Sunny Dawn Court,63127,38.5374095,-90.4280235
13028,Sunny Dawn Court,63127,38.5373365,-90.4277225
13024,Sunny Dawn Court,63127,38.5373930,-90.4272650
13020,Sunny Dawn Court,63127,38.5375640,-90.4269610
13016,Sunny Dawn Court,63127,38.5378525,-90.4267680
13012,Sunny Dawn Court,63127,38.5381855,-90.4267755
13008,Sunny Dawn Court,63127,38.5384795,-90.4268610
13004,Sunny Dawn Court,63127,38.5387330,-90.4270825
13000,Sunny Dawn Court,63127,38.5387815,-90.4275195
13001,Sunny Dawn Court,63127,38.5385750,-90.4277860
13009,Sunny Dawn Court,63127,38.5381250,-90.4273460
13025,Sunny Dawn Court,63127,38.5377690,-90.4275960
13033,Sunny Dawn Court,63127,38.5378405,-90.4279790
13037,Sunny Dawn Court,63127,38.5379040,-90.4283345
13041,Sunny Dawn Court,63127,38.5378560,-90.4286650
13351,Maple Drive,63127,38.5355988,-90.4300828
13049,Tapawingo Place,63127,38.5338760,-90.4282210
13041,Tapawingo Place,63127,38.5342365,-90.4278825
13033,Tapawingo Place,63127,38.5346630,-90.4275065
13027,Tapawingo Place,63127,38.5350125,-90.4272290
13019,Tapawingo Place,63127,38.5354094,-90.4271415
13011,Tapawingo Place,63127,38.5359135,-90.4274728
13003,Tapawingo Place,63127,38.5364595,-90.4280562
13002,Tapawingo Place,63127,38.5366332,-90.4271883
12975,Gary Player Drive,63127,38.5298636,-90.4296442
13270,Maple Drive,63127,38.5354891,-90.4289366
10709,Watson Road,63127,38.5561913,-90.4087241
11640,Gravois Road,63126,38.5346074,-90.3814786
1435,South Kirkwood Road,63127,38.5580563,-90.4077008
11909,Gravois Road,63127,38.5309477,-90.3916272
11910,Eddie & Park Road,63126,38.5441295,-90.3914489
13001,Gary Player Drive,63127,38.5315747,-90.4284123
3660,South Lindbergh Boulevard,63127,38.5527450,-90.4057093
