House number,Street name,Postal code,Latitude,Longitude
800,Crestview Drive,63090,38.5414789,-91.0047168
860,Washington Corners,63090,38.5393243,-91.0083906
3181,Phoenix Center Dr,63090,38.5356737,-90.9785647
3185,Phoenix Center Dr,63090,38.5355714,-90.9784619
3081,Phoenix Center Dr,63090,38.5368228,-90.9817597
3061,Phoenix Center Drive,63090,38.5368800,-90.9819631
3028,Phoenix Center Dr,63090,38.5368251,-90.9830269
3004,Phoenix Center Dr,63090,38.5370348,-90.9835692
2000,Phoenix Center Dr,63090,38.5379355,-90.9860961
3071,Phoenix Center Dr,63090,38.5369125,-90.9818353
3024,Phoenix Center Dr,63090,38.5368889,-90.9831413
1851,Vernaci Drive,63090,38.5362205,-90.9833647
1901,Bedford Center Drive,63090,38.5391003,-91.0141693
1976,Phoenix Center Drive,63090,38.5323060,-90.9794154
1936,Charlotte's Way,63090,38.5332891,-90.9788162
1926,Charlottes Way,63090-6116,38.5335453,-90.9786609
1966,Charlotte's Way,63090,38.5325143,-90.9792730
1956,Charlotte's Way,63090,38.5328869,-90.9790560
1946,Charlotte's Way,63090,38.5331040,-90.9789320
1945,Vernaci Dr,63090,38.5350578,-90.9840655
3014,Phoenix Center Dr,63090,38.5369395,-90.9833627
1905,Vernaci Dr,63090,38.5356152,-90.9837749
2006,Phoenix Center Dr,63090,38.5375821,-90.9861002
3020,Phoenix Center Dr,63090,38.5368996,-90.9832337
2010,Phoenix Center Dr,63090,38.5374166,-90.9860968
3000,Phoenix Center Dr,63090,38.5370718,-90.9837161
2008,Phoenix Center Dr,63090,38.5375003,-90.9861062
2030,Phoenix Center Dr,63090,38.5372603,-90.9849022
2002,Phoenix Center Dr,63090,38.5378224,-90.9860884
3008,Phoenix Center Dr,63090,38.5369871,-90.9834666
2022,Phoenix Center Drive,63090,38.5372372,-90.9857084
1925,Vernaci Dr,63090,38.5353697,-90.9839337
2003,Phoenix Center Dr,63090,38.5377106,-90.9861006
3016,Phoenix Center Drive,63090,38.5369164,-90.9833047
1935,Vernaci Dr,63090,38.5352600,-90.9839752
1915,Vernaci Dr,63090,38.5354867,-90.9838484
1623,A. Roy Drive,63090,38.5417978,-90.9928757
1627,A. Roy Drive,63090,38.5416901,-90.9926602
1621,A. Roy Drive,63090,38.5418305,-90.9929574
1627,A. Roy Drive,63090,38.5417723,-90.9927752
1035,Washington Square Center,63090,38.5362551,-91.0042426
1054,Washington Square Center,63090,38.5364466,-91.0035866
1088,Washington Square Center,63090,38.5379366,-91.0036427
1112,Washington Square Center,63090,38.5360015,-91.0042833
1048,Washington Square Center,63090,38.5359504,-91.0036812
1059,Washington Square Center,63090,38.5366639,-91.0035915
1053,Washington Square Center,63090,38.5362821,-91.0035933
1090,Washington Square Center,63090,38.5379209,-91.0035269
3195,Phoenix Center Dr,63090,38.5356189,-90.9782849
1086,Washington Square Center,63090,38.5378573,-91.0037592
617,Franklin Avenue,63090,38.5508989,-91.0036051
625,Franklin Avenue,63090,38.5507381,-91.0036597
801,Franklin Avenue,63090,38.5505822,-91.0044922
809,Franklin Avenue,63090,38.5503708,-91.0044977
1811,East 5th Street,63090,38.5465636,-90.9870261
1815,East 5th Street,63090,38.5464468,-90.9870265
1165,Clock Tower Plaza,63090,38.5370459,-91.0021213
1105,Clock Tower Plaza,63090,38.5376629,-91.0024323
1150,Clock Tower Plaza,63090,38.5371001,-91.0023838
1148,Clock Tower Plaza,63090,38.5372010,-91.0023968
1158,Clock Tower Plaza,63090,38.5369478,-91.0023316
1110,Clock Tower Plaza,63090,38.5375892,-91.0024244
115,Clock Tower Plaza,63090,38.5375207,-91.0024171
1125,Clock Tower Plaza,63090,38.5370627,-91.0022142
1154,Clock Tower Plaza,63090,38.5370372,-91.0023467
1180,Clock Tower Plaza,63090,38.5369540,-91.0021998
1145,Clock Tower Plaza,63090,38.5374259,-91.0024187
2093,Washington Crossing,63090,38.5351161,-91.0081779
2000,Washington Crossing,63090,38.5349682,-91.0080024
2081,Washington Crossing,63090,38.5352681,-91.0082084
2090,Washington Crossing,63090,38.5348817,-91.0072144
2032,Washington Crossing,63090,38.5349618,-91.0077613
2064,Washington Crossing,63090,38.5349536,-91.0075172
2089,Washington Crossing,63090,38.5351631,-91.0081820
2077,Washington Crossing,63090,38.5353226,-91.0082195
2097,Washington Crossing,63090,38.5350776,-91.0081482
537,East 5th Street,63090,38.5542983,-91.0065181
601,East 5th Street,63090,38.5534932,-91.0050918
533,East 5th Street,63090,38.5543034,-91.0067126
539,East 5th Street,63090,38.5542985,-91.0062123
537,East 5th Street,63090,38.5542999,-91.0064051
601,East 5th Street,63090,38.5534951,-91.0049848
826,Washington Corners,63090,38.5398916,-91.0074006
1351,Jefferson Street,63090,38.5456472,-91.0171312
1901,Heritage Hills Drive,63090,38.5409657,-91.0067199
840,Washington Corners,63090,38.5398538,-91.0080553
1351,Jefferson Street,63090,38.5454327,-91.0171412
1351,Jefferson Street,63090,38.5455651,-91.0171239
836,Washington Corners,63090,38.5398781,-91.0078531
1351,Jefferson Street,63090,38.5454756,-91.0171283
1351,Jefferson Street,63090,38.5455945,-91.0175148
1351,Jefferson Street,63090,38.5454346,-91.0174389
1351,Jefferson Street,63090,38.5455023,-91.0174604
1901,Heritage Hills Drive,63090,38.5409474,-91.0069256
1351,Jefferson Street,63090,38.5454538,-91.0175178
824,Washington Corners,63090,38.5398912,-91.0072995
832,Washington Corners,63090,38.5398986,-91.0075901
830,Washington Corners,63090,38.5398911,-91.0075053
834,Washington Corners,63090,38.5398836,-91.0077050
814,Washington Corners,63090,38.5400352,-91.0072074
1987,Highway A,63090,38.5368913,-91.0192582
1987,Highway A,63090,38.5367852,-91.0192508
1987,Highway A,63090,38.5367009,-91.0192570
1642,East 5th Street,63090,38.5472390,-90.9916541
1650,East 5th Street,63090,38.5471083,-90.9913510
1911,Bedford Center Drive,63090,38.5388555,-91.0141523
1925,Bedford Center Drive,63090,38.5385659,-91.0141775
1909,Bedford Center Drive,63090,38.5389819,-91.0141581
1917,Bedford Center Drive,63090,38.5386904,-91.0141696
1937,Bedford Center Drive,63090,38.5383866,-91.0141813
127,Elm Street,63090,38.5602628,-91.0139290
127,Elm Street,63090,38.5601923,-91.0138367
127,Elm Street,63090,38.5603303,-91.0138637
1919,East 5th Street,63090,38.5464112,-90.9854506
1915,East 5th Street,63090,38.5464477,-90.9856572
116,West Main Street,63090,38.5600275,-91.0121513
121,West Main Street,63090,38.5603199,-91.0121309
3,Lafayette Street,63090,38.5605666,-91.0111524
4,Lafayette Street,63090,38.5604368,-91.0108697
100,West Front Street,63090,38.5605931,-91.0111095
106,West Main Street,63090,38.5598924,-91.0117905
3,Lafayette Street,63090,38.5605229,-91.0110884
125,West Main Street,63090,38.5603714,-91.0122076
112,West Main Street,63090,38.5599889,-91.0120230
120,West Main Street,63090,38.5601093,-91.0122452
120,West Main Street,63090,38.5600149,-91.0123085
9,West Main Street,63090,38.5597310,-91.0110476
120,West Front Street,63090,38.5608785,-91.0117986
201,West Main Street,63090,38.5605701,-91.0123021
120,West Front Street,63090,38.5608969,-91.0117120
20,Oak Street,63090,38.5604536,-91.0121285
15,Lafayette Street,63090,38.5599385,-91.0113016
204,Elm Street,63090,38.5598128,-91.0138055
217,West Main Street,63090,38.5605921,-91.0126777
219,West Main Street,63090,38.5607109,-91.0126874
200,Elm Street,63090,38.5598712,-91.0137596
231,West Main Street,63090,38.5608261,-91.0129333
216,West Main Street,63090,38.5605244,-91.0129930
222,West Main Street,63090,38.5605501,-91.0131120
224,West Main Street,63090,38.5606265,-91.0131565
102,Elm Street,63090,38.5605255,-91.0132356
104,Elm Street,63090,38.5604102,-91.0133332
114,Elm Street,63090,38.5602140,-91.0134984
113,Elm Street,63090,38.5603634,-91.0136687
325,West Front Street,63090,38.5620554,-91.0134513
219A,West Main Street,63090,38.5607236,-91.0128165
300,West Front Street,63090,38.5614736,-91.0128485
204,Oak Street,63090,38.5592967,-91.0130954
222,Elm Street,63090,38.5593308,-91.0141789
223,Elm Street,63090,38.5595711,-91.0143792
224,Elm Street,63090,38.5593108,-91.0142214
317,West Main Street,63090,38.5612300,-91.0135584
227,Elm Street,63090,38.5594577,-91.0144675
1,West 2nd Street,63090,38.5588177,-91.0112062
5,West 2nd Street,63090,38.5588597,-91.0113586
100,West Main Street,63090,38.5598204,-91.0117118
426,West Front Street,63090,38.5623925,-91.0145422
438,West Front Street,63090,38.5627814,-91.0154272
201,East 5th Street,63090,38.5556279,-91.0108561
216,West Front Street,63090,38.5612825,-91.0124285
1607,Heritage Hills Drive,63090,38.5418969,-91.0068196
28,East 6th Street,63090,38.5552401,-91.0130290
110,East 5th Street,63090,38.5557097,-91.0119681
1713,Madison Avenue,63090,38.5402550,-91.0049849
1420,West 5th Street,63090,38.5550212,-91.0333215
3051,Phoenix Center Drive,63090,38.5370135,-90.9819831
2085,Washington Crossing,63090,38.5352150,-91.0082037
1701,A. Roy Drive,63090,38.5406987,-90.9946928
301,West Front Street,63090,38.5616116,-91.0125285
514,West Front Street,63090,38.5631112,-91.0159776
516,West Front Street,63090,38.5632653,-91.0162349
225,Cedar Street,63090,38.5603532,-91.0152584
600,Blue Jay Drive,63090,38.5479002,-91.0093760
840,West Pride Drive,63090,38.5557894,-91.0408695
1701,A. Roy Drive,63090,38.5403643,-90.9952335
5886,Route 100,63090,38.5368199,-91.0006358
600,Blue Jay Drive,63090,38.5476368,-91.0088905
401,East 14th Street,63090,38.5461134,-91.0090167
301,West Front Street,63090,38.5616064,-91.0124898
2000,East 9th Street,63090,38.5430011,-90.9840458
3101,Phoenix Center Dr,63090,38.5364529,-90.9807034
1900,Phoenix Center Dr,63090,38.5378929,-90.9867383
1851,Vernaci Drive,63090,38.5363746,-90.9837151
5702,Route 100,63090,38.5383164,-90.9880583
1635,A. Roy Drive,63090,38.5409845,-90.9925031
3101,Recreation Drive,63090,38.5322863,-90.9635213
200,Kingsland Drive,63090,38.5415584,-90.9745092
5475,Highway 100 E,63090,38.5347187,-90.9732853
3198,Phoenix Center Drive,63090,38.5341995,-90.9779320
2301,Highway A,63090,38.5304622,-91.0228508
400,Grand Avenue,63090,38.5588149,-91.0332748
499,Grand Avenue,63090,38.5558453,-91.0342944
310,West Main Street,63090,38.5606283,-91.0139308
317,West Main Street,63090,38.5611780,-91.0137156
1,Elbert Drive,63090,38.5603641,-91.0097842
410,Lafayette Street,63090,38.5569628,-91.0133163
301,Jefferson Street,63090,38.5578700,-91.0122028
405,Jefferson Street,63090,38.5571609,-91.0129074
200,West Main Street,63090,38.5602727,-91.0127833
3151,Phoenix Center Dr,63090,38.5361521,-90.9800928
4700,South Point Road,63090,38.5350648,-90.9770343
1930,Washington Crossing,63090,38.5367420,-91.0059933
777,Washington Square Center,63090,38.5377885,-91.0048753
800,Washington Square Center,63090,38.5372349,-91.0050475
1110,Washington Square Center,63090,38.5379762,-91.0018395
5860,Route 100,63090,38.5384885,-90.9991395
95,Washington Heights Drive,63090,38.5367132,-90.9989830
5585,MO-100,63090,38.5372071,-90.9798955
2629,East 5th Street,63090,38.5361448,-90.9767087
2601,East Fifth Street,63090,38.5365112,-90.9742929
2621,East 5th Street,63090,38.5365333,-90.9765398
2621,East 5th Street,63090,38.5370370,-90.9768472
594,Fulton Street,63090,38.5496580,-90.9985923
545,East 5th Street,63090,38.5536091,-91.0060695
4710,South Point Road,63090,38.5349080,-90.9763918
4834,South Point Road,63090,38.5324721,-90.9713294
3161,Phoenix Center Dr,63090,38.5358807,-90.9792699
3155,Phoenix Center Dr,63090,38.5360661,-90.9795725
1905,East 5th Street,63090,38.5464985,-90.9862842
1201,East 8th Street,63090,38.5487540,-90.9990210
904,East 5th Street,63090,38.5517150,-91.0017587
1111,East 6th Street,63090,38.5500738,-90.9992771
1498,High Street,63090,38.5446538,-91.0244129
1777,Washinton Xing,63090,38.5381062,-91.0103372
920,Bieker Road,63090,38.5341418,-91.0051496
1807,East 5th Street,63090,38.5466883,-90.9875053
515,Washington Avenue,63090,38.5506265,-91.0003509
1026,East 5th Street,63090,38.5509157,-90.9998359
1000,East 5th Street,63090,38.5512416,-91.0005289
510,Madison Avenue,63090,38.5509160,-91.0006289
2023,Washington Crossing,63090,38.5372461,-91.0087008
1960,Washington Crossing,63090,38.5354827,-91.0063320
2081,Eckelkamp Court,63090,38.5346900,-91.0051645
1499,West 5th Street,63090,38.5561163,-91.0334086
1301,West 5th Street,63090,38.5554448,-91.0315251
1121,Columbus Lane,63090,38.5505883,-91.0284515
220,Locust Street,63090,38.5566602,-91.0083390
2300,Southbend Drive,63090,38.5420936,-90.9796374
6224,Highway 100,63090,38.5424191,-91.0233754
531,Stewart Drive,63090,38.5391587,-91.0121829
93,Washington Heights Drive,63090,38.5378570,-90.9990476
2000,West Main Street,63090,38.5790290,-91.0452601
85,Cecelia Drive,63090,38.5394310,-90.9824433
2400-2470,East 5th Street,63090,38.5420932,-90.9779031
2,East 5th Street,63090,38.5563064,-91.0130305
216,West Front Street,63090,38.5612470,-91.0125293
1810,Bedford Center Drive,63090,38.5392784,-91.0124797
1920,Washington Crossing,63090,38.5372118,-91.0062069
900,Washington Square Center,63090,38.5366760,-91.0046206
600,Washington Square Center,63090,38.5380043,-91.0044812
807,Madison Avenue,63090,38.5491660,-91.0032992
2359,Brookview Drive,63090,38.5399007,-90.9780548
2363,Brookview Drive,63090,38.5399079,-90.9778345
2490,East 5th Street,63090,38.5403838,-90.9778593
"89, 91",Cecelia Drive,63090,38.5386553,-90.9825311
2351,Brookview Drive,63090,38.5399309,-90.9787065
1000,Borgia Drive,63090,38.5509440,-91.0263430
"97, 99",Cecelia Drive,63090,38.5383597,-90.9825101
"105, 107",Cecelia Drive,63090,38.5382750,-90.9822908
"4151, 4153",Jane Lane,63090,38.5387029,-90.9821190
"4144, 4146",Jane Lane,63090,38.5386814,-90.9817952
"4150, 4152",Jane Lane,63090,38.5383583,-90.9816856
"111, 113",Cecelia Drive,63090,38.5380696,-90.9817774
"117, 119",Cecelia Drive,63090,38.5379394,-90.9815813
1361,High Street,63090,38.5464481,-91.0255461
"4153, 4157",Brookview Drive,63090,38.5377519,-90.9811382
"4141, 4145",Brookview Drive,63090,38.5379940,-90.9810523
"4172, 4176",Brookview Drive,63090,38.5374637,-90.9806607
"4160, 4166",Brookview Drive,63090,38.5376642,-90.9805587
"4152, 4158",Brookview Drive,63090,38.5378792,-90.9804902
551,Lewis and Clark Drive,63090,38.5382460,-91.0116488
"2310,2314",Rabbit Trail Drive,63090,38.5337363,-90.9867361
"4135, 4139",Brookview Drive,63090,38.5382467,-90.9810652
"4123, 4125",Brookview Drive,63090,38.5384569,-90.9811232
901,Patients First Drive,63090,38.5485850,-91.0040727
560,East 14th Street,63090,38.5448944,-91.0072134
1501,Heritage Hills Drive,63090,38.5439573,-91.0069538
1980,Washington Crossing,63090,38.5347589,-91.0062978
2057,Washington Crossing,63090,38.5363070,-91.0082676
2073,Washington Crossing,63090,38.5357980,-91.0084590
1940,Washington Crossing,63090,38.5360639,-91.0062023
830,West 5th Street,63090,38.5565541,-91.0238327
69,Elbert Drive,63090,38.5625884,-91.0129448
"4142, 4146",Brookview Drive,63090,38.5381290,-90.9804721
"4134, 4136",Brookview Drive,63090,38.5383533,-90.9805014
"4122, 4128",Brookview Drive,63090,38.5385743,-90.9805647
"4114, 4116",Brookview Drive,63090,38.5387967,-90.9806196
"4101, 4105",Brookview Drive,63090,38.5388945,-90.9812095
"4102, 4108",Brookview Drive,63090,38.5390016,-90.9806621
4091,Brookview Drive,63090,38.5391111,-90.9812612
4092,Brookview Drive,63090,38.5392345,-90.9807500
"4111, 4117",Brookview Drive,63090,38.5386815,-90.9811811
4084,Brookview Drive,63090,38.5394683,-90.9808083
4083,Brookview Drive,63090,38.5393302,-90.9812978
4075,Brookview Drive,63090,38.5395330,-90.9813583
2336,Brookview Drive,63090,38.5393789,-90.9803029
2340,Brookview Drive,63090,38.5392342,-90.9800082
890,Washington Corners,63090,38.5389673,-91.0063253
"76,78",Rabbit Trail Drive,63090,38.5340133,-90.9868240
"72,74",Rabbit Trail Drive,63090,38.5342057,-90.9868934
4067,Brookview Drive,63090,38.5397571,-90.9813949
4057,Brookview Drive,63090,38.5399809,-90.9814666
4076,Brookview Drive,63090,38.5397097,-90.9808602
2345,Brookview Drive,63090,38.5396672,-90.9793881
2344,Brookview Drive,63090,38.5392634,-90.9792919
2334,Brookview Drive,63090,38.5396729,-90.9804416
2333,Brookview Drive,63090,38.5397059,-90.9799293
2348,Brookview Drive,63090,38.5393991,-90.9790317
810,Washington Corners,63090,38.5401107,-91.0068251
880,Washington Corners,63090,38.5388281,-91.0071425
3162,Phoenix Center Drive,63090,38.5344566,-90.9802817
3152,Phoenix Center Drive,63090,38.5346651,-90.9807570
314,West 2nd Street,63090,38.5601391,-91.0147233
300,West Front Street,63090,38.5614044,-91.0128338
4068,Brookview Drive,63090,38.5399579,-90.9809537
2330,Brookview Drive,63090,38.5399305,-90.9805014
2318,Brookview Drive,63090,38.5401863,-90.9806004
4045,Brookview Drive,63090,38.5401904,-90.9815075
4056,Brookview Drive,63090,38.5401922,-90.9809891
4033,Brookview Drive,63090,38.5404152,-90.9815747
4044,Brookview Drive,63090,38.5404468,-90.9810631
4021,Brookview Drive,63090,38.5406428,-90.9816350
4032,Brookview Drive,63090,38.5406525,-90.9810904
2352,Brookview Drive,63090,38.5394618,-90.9787733
2356,Brookview Drive,63090,38.5394760,-90.9785037
2360,Brookview Drive,63090,38.5394623,-90.9782237
2364,Brookview Drive,63090,38.5394932,-90.9779478
2368,Brookview Drive,63090,38.5395081,-90.9776675
2500,East 5th Street,63090,38.5388891,-90.9778118
400,West Front Street,63090,38.5620894,-91.0141038
323,West Main Street,63090,38.5613093,-91.0138696
123,Lafayette Street,63090,38.5594460,-91.0122191
323,West 5th Street,63090,38.5574148,-91.0171769
603,Alberta Lane,63090,38.5441172,-90.9858111
2331,Brookview Drive,63090,38.5398896,-90.9799823
2327,Brookview Drive,63090,38.5401168,-90.9800537
2323,Brookview Drive,63090,38.5403160,-90.9801348
2319,Brookview Drive,63090,38.5405055,-90.9802835
2315,Brookview Drive,63090,38.5406780,-90.9804142
2309,Brookview Drive,63090,38.5408525,-90.9805975
2301,Brookview Drive,63090,38.5410921,-90.9811004
2292,Brookview Drive,63090,38.5405846,-90.9820263
2286,Brookview Drive,63090,38.5405252,-90.9823095
2284,Brookview Drive,63090,38.5405086,-90.9826033
2299,Brookview Court,63090,38.5410294,-90.9817493
2280,Brookview Court,63090,38.5404788,-90.9829080
2268,Brookview Drive,63090,38.5405507,-90.9832397
2262,Brookview Drive,63090,38.5406644,-90.9834562
2256,Brookview Drive,63090,38.5408655,-90.9835948
2250,Brookview Drive,63090,38.5410503,-90.9837988
2293,Brookview Drive,63090,38.5409783,-90.9820706
2287,Brookview Court,63090,38.5409323,-90.9824162
2281,Brookview Drive,63090,38.5408992,-90.9827414
2275,Brookview Drive,63090,38.5409643,-90.9830692
2104,Brookview Court,63090,38.5412601,-90.9839697
2100,Brookview Court,63090,38.5413015,-90.9842500
2117,Brookview Court,63090,38.5415850,-90.9837216
2113,Brookview Court,63090,38.5416796,-90.9839724
2001,Brookview Court,63090,38.5415273,-90.9847674
2005,Brookview Court,63090,38.5416580,-90.9845517
2009,Brookview Court,63090,38.5417099,-90.9842601
2269,Brookview Drive,63090,38.5411991,-90.9832861
2251,Brookview Drive,63090,38.5416805,-90.9834020
2245,Brookview Drive,63090,38.5416989,-90.9831136
2234,Brookview Drive,63090,38.5413001,-90.9829643
2228,Brookview Drive,63090,38.5412857,-90.9826854
2222,Brookview Drive,63090,38.5412725,-90.9823654
2239,Brookview Drive,63090,38.5416862,-90.9828279
2233,Brookview Drive,63090,38.5416556,-90.9825479
2227,Brookview Drive,63090,38.5416475,-90.9822728
2216,Brookview Drive,63090,38.5412604,-90.9820175
2221,Brookview Drive,63090,38.5416278,-90.9819879
2215,Brookview Drive,63090,38.5415983,-90.9817142
2009,Brookview Drive,63090,38.5414721,-90.9814588
2203,Brookview Drive,63090,38.5412901,-90.9812832
2305,Brookview Drive,63090,38.5409985,-90.9808231
2213,Southbend Drive,63090,38.5429450,-90.9807502
5129,Old Highway 100,63090,38.5422099,-90.9771327
5125,Old Highway 100,63090,38.5422851,-90.9766027
2475,East 5th Street,63090,38.5414415,-90.9768921
902,East 6th Street,63090,38.5508593,-91.0025960
901,East 6th Street,63090,38.5513231,-91.0023911
905,East 6th Street,63090,38.5512132,-91.0020511
909,East 6th Street,63090,38.5510366,-91.0017603
907,East 6th Street,63090,38.5511071,-91.0019156
511,Madison Avenue,63090,38.5511380,-91.0013630
513,Madison Avenue,63090,38.5510247,-91.0014412
515,Madison Avenue,63090,38.5509078,-91.0015155
914,East 5th Street,63090,38.5516508,-91.0013315
916,East 5th Street,63090,38.5515608,-91.0011861
918,East 5th Street,63090,38.5515029,-91.0010017
801,Commodore Drive,63090,38.5435255,-90.9829118
2200,Captains Drive,63090,38.5435600,-90.9824272
2202,Captains Drive,63090,38.5435387,-90.9821430
2204,Captains Drive,63090,38.5435351,-90.9818700
2206,Captains Drive,63090,38.5435009,-90.9815915
2208,Captains Drive,63090,38.5434863,-90.9813123
2210,Captains Drive,63090,38.5434571,-90.9810405
2212,Captains Drive,63090,38.5434299,-90.9807579
"1813,1815",East 9th Street,63090,38.5433905,-90.9897321
"1817,1819",East 9th Street,63090,38.5432697,-90.9894518
"1809,1811",East 9th Street,63090,38.5434812,-90.9900120
"1801,1803",East 9th Street,63090,38.5436913,-90.9905952
1806,East 9th Street,63090,38.5430762,-90.9900876
"1805,1807",East 9th Street,63090,38.5436128,-90.9902875
1520,East Rose Lane,63090,38.5429876,-90.9946441
1802,East 9th Street,63090,38.5432075,-90.9904441
1800,East 9th Street,63090,38.5433026,-90.9906735
1718,East 9th Street,63090,38.5433849,-90.9908817
2474,East 5th Street,63090,38.5416536,-90.9778667
2480,East 5th Street,63090,38.5414022,-90.9777677
"1496,1500",East Rose Lane,63090,38.5425305,-90.9952139
"1480,1484",East Rose Lane,63090,38.5427121,-90.9958147
806,Steamboat Drive,63090,38.5428857,-90.9802695
804,Steamboat Drive,63090,38.5431026,-90.9802649
2303,Southbend Drive,63090,38.5429681,-90.9796224
2307,Southbend Drive,63090,38.5429861,-90.9791502
2309,Southbend Drive,63090,38.5428674,-90.9786612
2310,Southbend Drive,63090,38.5428373,-90.9780514
2600,East 5th Street,63090,38.5372408,-90.9776428
"1477,1781",Eugenia Drive,63090,38.5421221,-90.9958289
"1485,1489",Eugenia Drive,63090,38.5421541,-90.9955367
"1493,1497",Eugenia Drive,63090,38.5421611,-90.9952572
615,Commodore Drive,63090,38.5438237,-90.9830850
613,Commodore Drive,63090,38.5440134,-90.9833499
609,Commodore Drive,63090,38.5442573,-90.9837025
965,Madison Avenue,63090,38.5466414,-91.0017041
1014,Madison Avenue,63090,38.5455695,-91.0012268
1014,Madison Avenue,63090,38.5456682,-91.0019418
902,Madison Avenue,63090,38.5475794,-91.0019313
901,Patients First Drive,63090,38.5484788,-91.0039751
900,East 8th Street,63090,38.5498435,-91.0031565
801,Madison Avenue,63090,38.5497132,-91.0023303
803,Madison Avenue,63090,38.5494532,-91.0024098
907,East 8th Street,63090,38.5503584,-91.0026906
905,East 8th Street,63090,38.5503516,-91.0028822
901,East 8th Street,63090,38.5504136,-91.0030286
910,East 6th Street,63090,38.5507623,-91.0020348
605,Madison Avenue,63090,38.5503411,-91.0019221
919,East 8th Street,63090,38.5501785,-91.0024825
5840,Route 100,63090,38.5381282,-90.9975860
5824,Route 100,63090,38.5381047,-90.9953446
5840,Route 100,63090,38.5378349,-90.9977249
1900,Washington Crossing,63090,38.5376744,-91.0061505
2094,Washington Crossing,63090,38.5348551,-91.0069137
1104,Washington Square Center,63090,38.5383059,-91.0027940
555,Washington Square Center,63090,38.5382218,-91.0039551
5600,Steutermann Road,63090,38.5339035,-91.0066295
1259,Deer Run Drive,63090,38.5318357,-90.9998500
1255,Deer Run Drive,63090,38.5315919,-90.9998716
1260,Deer Run Drive,63090,38.5319731,-90.9995754
1254,Deer Run Drive,63090,38.5318625,-90.9993018
1250,Deer Run Drive,63090,38.5316876,-90.9991540
1235,Deer Run Drive,63090,38.5313977,-90.9995449
1246,Deer Run Drive,63090,38.5315060,-90.9990566
1242,Deer Run Drive,63090,38.5312729,-90.9990683
1238,Deer Run Drive,63090,38.5310739,-90.9992007
1231,Deer Run Drive,63090,38.5312797,-90.9998360
1227,Deer Run Drive,63090,38.5312583,-91.0001008
1229,Fawn Drive,63090,38.5312500,-91.0004026
1234,Deer Run Drive,63090,38.5309581,-90.9994364
1230,Deer Run Drive,63090,38.5309211,-90.9997182
1226,Deer Run Drive,63090,38.5308768,-90.9999763
1218,Deer Run Drive,63090,38.5307972,-91.0005220
1225,Fawn Drive,63090,38.5315104,-91.0004139
1221,Fawn Drive,63090,38.5317208,-91.0005269
1217,Fawn Drive,63090,38.5318394,-91.0008416
1213,Fawn Drive,63090,38.5318853,-91.0011382
1209,Fawn Drive,63090,38.5318758,-91.0014027
1201,Fawn Drive,63090,38.5318477,-91.0019604
1205,Fawn Drive,63090,38.5318690,-91.0016661
1202,Fawn Drive,63090,38.5314571,-91.0018456
1206,Fawn Drive,63090,38.5314672,-91.0015511
1210,Fawn Drive,63090,38.5314865,-91.0012587
1214,Fawn Drive,63090,38.5314506,-91.0009584
1213,Deer Run Drive,63090,38.5311773,-91.0008857
1209,Deer Run Drive,63090,38.5310936,-91.0011724
1205,Deer Run Drive,63090,38.5310837,-91.0014606
1201,Deer Run Drive,63090,38.5310427,-91.0017233
1214,Deer Run Drive,63090,38.5307304,-91.0007791
1210,Deer Run Drive,63090,38.5307265,-91.0010229
1206,Deer Run Drive,63090,38.5306985,-91.0013421
1202,Deer Run Drive,63090,38.5306432,-91.0016137
"1086,1090",Bieker Road,63090,38.5303366,-91.0015198
"1067,1073",Bieker Road,63090,38.5307544,-91.0022316
1106,Washington Square Center,63090,38.5379551,-91.0027882
2312,Southbend Drive,63090,38.5431400,-90.9780789
2314,Southbend Drive,63090,38.5434406,-90.9780915
2316,Southbend Drive,63090,38.5437308,-90.9781108
1,Riverbend Place,63090,38.5434383,-90.9786893
2,Riverbend Place,63090,38.5434527,-90.9790900
2311,Southbend Drive,63090,38.5431383,-90.9786476
800,Steamboat Drive,63090,38.5435398,-90.9802652
802,Steamboat Drive,63090,38.5433231,-90.9802701
608,Steamboat Drive,63090,38.5437588,-90.9802631
2213,Captains Drive,63090,38.5438583,-90.9807619
2209,Captains Drive,63090,38.5438570,-90.9812290
2207,Captains Drive,63090,38.5439020,-90.9817600
7,Hillcrest Place,63090,38.5439834,-90.9823338
5,Hillcrest Place,63090,38.5442681,-90.9824158
2,Hillcrest Place,63090,38.5446022,-90.9817369
1,Hillcrest Place,63090,38.5447653,-90.9824620
606,Steamboat Drive,63090,38.5439729,-90.9802615
604,Steamboat Drive,63090,38.5442350,-90.9802184
603,Steamboat Drive,63090,38.5443876,-90.9807962
601,Steamboat Drive,63090,38.5446114,-90.9806111
600,Steamboat Drive,63090,38.5445714,-90.9803451
612,Commodore Drive,63090,38.5448051,-90.9836582
614,Commodore Drive,63090,38.5447137,-90.9832636
616,Commodore Drive,63090,38.5444175,-90.9831139
618,Commodore Drive,63090,38.5442030,-90.9829232
3,Riverbend Place,63090,38.5436481,-90.9794811
4,Riverbend Place,63090,38.5439851,-90.9796672
5,Riverbend Place,63090,38.5444058,-90.9797071
6,Riverbend Place,63090,38.5443566,-90.9792681
7,Riverbend Place,63090,38.5439463,-90.9789992
8,Southbend Drive,63090,38.5439177,-90.9786888
824,East 6th Street,63090,38.5510815,-91.0031664
820,East 6th Street,63090,38.5513019,-91.0033293
810,East 6th Street,63090,38.5513902,-91.0035539
806,East 6th Street,63090,38.5514994,-91.0037466
800,East 6th Street,63090,38.5516243,-91.0039192
602,Hancock Street,63090,38.5513502,-91.0040158
604,Hancock Street,63090,38.5511836,-91.0041681
601,Hancock Street,63090,38.5517503,-91.0043037
603,Hancock Street,63090,38.5515546,-91.0044458
798,Macarthur Street,63090,38.5509820,-91.0049721
706,Macarthur Street,63090,38.5511574,-91.0050009
704,Macarthur Street,63090,38.5513190,-91.0050022
700,Macarthur Street,63090,38.5515933,-91.0049801
702,Macarthur Street,63090,38.5514566,-91.0049811
608,Macarthur Street,63090,38.5517809,-91.0050590
606,Macarthur Street,63090,38.5519387,-91.0050335
604,Macarthur Street,63090,38.5520829,-91.0050376
527,Hancock Street,63090,38.5520838,-91.0040256
525,Hancock Street,63090,38.5522931,-91.0038680
718,East 5th Street,63090,38.5527553,-91.0038468
726,East 5th Street,63090,38.5526725,-91.0036602
712,East 5th Street,63090,38.5528594,-91.0040090
700,East 5th Street,63090,38.5527545,-91.0047157
612,East 5th Street,63090,38.5531572,-91.0048314
851,East 5th Street,63090,38.5528544,-91.0025113
2701,Rabbit Trail Drive,63090,38.5296956,-90.9878096
2800,Rabbit Trail Drive,63090,38.5285208,-90.9875464
4638,South Point Road,63090,38.5330808,-90.9736113
4836,South Point Road,63090,38.5332658,-90.9739245
4931,South Point Road,63090,38.5272324,-90.9758572
1063,Bieker Road,63090,38.5309989,-91.0023111
"1051,1055",Bieker Road,63090,38.5311894,-91.0023466
"1043,1047",Bieker Road,63090,38.5314029,-91.0024291
"1037,1041",Bieker Road,63090,38.5315776,-91.0024766
"1029,1033",Bieker Road,63090,38.5317544,-91.0025292
"1023,1027",Bieker Road,63090,38.5319224,-91.0025821
"1017,1019",Bieker Road,63090,38.5321017,-91.0026365
"995,997",Bieker Road,63090,38.5323534,-91.0030589
"1001,1005",Bieker Road,63090,38.5322725,-91.0028503
"2,4,6,8",Rabbit Trail Drive,63090,38.5367423,-90.9872522
"10,12,14",Rabbit Trail Drive,63090,38.5367464,-90.9869091
"1,3,5,7",Rabbit Trail Drive,63090,38.5367277,-90.9877632
"18,20,22,24",Rabbit Trail Drive,63090,38.5363651,-90.9872066
9,Rabbit Trail Drive,63090,38.5362722,-90.9877308
11,Rabbit Trail Drive,63090,38.5359780,-90.9877723
1,Millicent Court,63090,38.5357032,-90.9877568
15,Millicent Court,63090,38.5352951,-90.9877238
17,Rabbit Trail Drive,63090,38.5349698,-90.9876698
19,Rabbit Trail Drive,63090,38.5347360,-90.9876362
"64,66",Rabbit Trail Drive,63090,38.5347029,-90.9870448
"68,70",Rabbit Trail Drive,63090,38.5344851,-90.9869684
"21,23",Rabbit Trail Drive,63090,38.5342854,-90.9874756
"25,27",Rabbit Trail Drive,63090,38.5340949,-90.9874155
3,Mike Alan Drive,63090,38.5346864,-90.9879933
5,Mike Alan Drive,63090,38.5346996,-90.9882706
7,Mike Alan Drive,63090,38.5346968,-90.9885388
9,Mike Alan Drive,63090,38.5346818,-90.9888142
2,Millicent Court,63090,38.5356902,-90.9881917
3,Millicent Court,63090,38.5356989,-90.9885891
5,Millicent Court,63090,38.5356625,-90.9889235
7,Millicent Court,63090,38.5354372,-90.9890302
9,Millicent Court,63090,38.5352371,-90.9888012
11,Millicent Court,63090,38.5351909,-90.9884771
13,Millicent Court,63090,38.5352734,-90.9881734
1107,Washington Square Center,63090,38.5379451,-91.0026813
2104,East 5th Street,63090,38.5455390,-90.9828050
2102,East 5th Street,63090,38.5455763,-90.9830980
2016,East 5th Street,63090,38.5456104,-90.9835931
2012,East 5th Street,63090,38.5456238,-90.9840364
2014,East 5th Street,63090,38.5456283,-90.9838141
"1095,1099",Bieker Road,63090,38.5300158,-91.0020440
"1101,1105",Bieker Road,63090,38.5298527,-91.0019920
"1107,1111",Bieker Road,63090,38.5296826,-91.0019409
"1115,1119",Bieker Road,63090,38.5295100,-91.0018927
1094,Bieker Road,63090,38.5301113,-91.0014341
1122,Bieker Road,63090,38.5296949,-91.0011188
1715,East 9th Street,63090,38.5438027,-90.9909133
1713,East 9th Street,63090,38.5438880,-90.9911253
1711,East 9th Street,63090,38.5439580,-90.9913547
1716,East 9th Street,63090,38.5434664,-90.9911086
1714,East 9th Street,63090,38.5435339,-90.9913150
1712,East 9th Street,63090,38.5436252,-90.9915538
1901,East 5th Street,63090,38.5465665,-90.9865092
310,International Avenue,63090,38.5469156,-90.9863355
2021,East 5th Street,63090,38.5462633,-90.9837970
10,Franklin Avenue,63090,38.5540936,-91.0003142
902,Missouri Avenue,63090,38.5546668,-90.9998960
814,Missouri Avenue,63090,38.5548509,-91.0007253
910,Missouri Avenue,63090,38.5544188,-90.9997689
912,Missouri Avenue,63090,38.5543579,-90.9995482
914,Missouri Avenue,63090,38.5542263,-90.9994197
25,Madison Avenue,63090,38.5541075,-90.9992616
909,Missouri Avenue,63090,38.5538617,-90.9994765
953,East 1st Street,63090,38.5537090,-90.9995328
901,East 3rd Street,63090,38.5532401,-91.0010040
905,East 3rd Street,63090,38.5530105,-91.0008275
1007,East 3rd Street,63090,38.5524964,-90.9992557
808,Missouri Avenue,63090,38.5549751,-91.0010422
804,Missouri Avenue,63090,38.5550399,-91.0012433
800,Missouri Avenue,63090,38.5551061,-91.0014290
816,East 1st Street,63090,38.5540720,-91.0015093
823,East 1st Street,63090,38.5542528,-91.0008036
822,East 1st Street,63090,38.5538797,-91.0010681
819,East 3rd Street,63090,38.5533273,-91.0014609
815,East 3rd Street,63090,38.5534661,-91.0017869
811,East 3rd Street,63090,38.5535390,-91.0019766
809,East 3rd Street,63090,38.5536371,-91.0021317
804,East 1st Street,63090,38.5541606,-91.0018551
821,East 1st Street,63090,38.5543172,-91.0009508
819,East 1st Street,63090,38.5543866,-91.0011189
801,East 1st Street,63090,38.5546737,-91.0017667
805,East 1st Street,63090,38.5545865,-91.0015857
807,East 1st Street,63090,38.5545122,-91.0014297
809,East 1st Street,63090,38.5544491,-91.0012598
600,Madison Avenue,63090,38.5504362,-91.0012031
602,Madison Avenue,63090,38.5502733,-91.0013609
604,Madison Avenue,63090,38.5501540,-91.0014342
608,Madison Avenue,63090,38.5500254,-91.0015344
610,Madison Avenue,63090,38.5498207,-91.0016703
1005,East 8th Street,63090,38.5496971,-91.0014200
601,Washington Avenue,63090,38.5500934,-91.0005014
603,Washington Avenue,63090,38.5499634,-91.0006293
605,Washington Avenue,63090,38.5498467,-91.0007057
607,Washington Avenue,63090,38.5497255,-91.0007988
611,Washington Avenue,63090,38.5495811,-91.0008762
615,Washington Avenue,63090,38.5494718,-91.0009890
1000,East 8th Street,63090,38.5494918,-91.0019331
806,Madison Avenue,63090,38.5490896,-91.0019579
1002,East 8th Street,63090,38.5494290,-91.0017826
1004,East 8th Street,63090,38.5493448,-91.0015844
1006,East 8th Street,63090,38.5492840,-91.0014522
1020,East 8th Street,63090,38.5492281,-91.0012484
1022,East 8th Street,63090,38.5491653,-91.0011314
1030,East 8th Street,63090,38.5490869,-91.0009630
400,Recycle Drive,63090,38.5709790,-91.0423988
1651,West 5th Street,63090,38.5587902,-91.0434558
1709,East 9th Street,63090,38.5440424,-90.9915646
1710,East 9th Street,63090,38.5437132,-90.9917856
1707,East 9th Street,63090,38.5441266,-90.9917887
1705,East 9th Street,63090,38.5442116,-90.9920039
1708,East 9th Street,63090,38.5437948,-90.9919882
1706,East 9th Street,63090,38.5438711,-90.9922055
1703,East 9th Street,63090,38.5443040,-90.9922351
1701,East 9th Street,63090,38.5443817,-90.9924487
1704,East 9th Street,63090,38.5439267,-90.9924294
1700,East 9th Street,63090,38.5440952,-90.9928654
1604,East 9th Street,63090,38.5441254,-90.9930409
1702,East 9th Street,63090,38.5440450,-90.9926479
815,Wilson Street,63090,38.5445022,-90.9928557
813,Wilson Street,63090,38.5447157,-90.9927589
811,Wilson Street,63090,38.5449006,-90.9927067
1702,Sunnydale Drive,63090,38.5446981,-90.9922113
1704,Sunnydale Drive,63090,38.5446173,-90.9917993
1706,Sunnydale Drive,63090,38.5445184,-90.9915496
1708,Sunnydale Drive,63090,38.5444412,-90.9912436
600,Washington Avenue,63090,38.5498446,-90.9999969
602,Washington Avenue,63090,38.5496744,-91.0001452
604,Washington Avenue,63090,38.5495341,-91.0002458
606,Washington Avenue,63090,38.5493816,-91.0003346
608,Washington Avenue,63090,38.5492343,-91.0003872
1111,East 8th Street,63090,38.5490333,-90.9998700
1100,East 8th Street,63090,38.5489362,-91.0007331
1104,East 8th Street,63090,38.5488925,-91.0005385
1108,East 8th Street,63090,38.5488066,-91.0003826
1110,East 8th Street,63090,38.5486879,-91.0001343
1112,East 8th Street,63090,38.5485895,-90.9999531
1114,East 8th Street,63090,38.5485147,-90.9997899
1116,East 8th Street,63090,38.5484432,-90.9996512
1200,East 8th Street,63090,38.5483724,-90.9994731
1202,East 8th Street,63090,38.5482686,-90.9992814
605,Henry Street,63090,38.5489235,-90.9979012
609,Henry Street,63090,38.5487028,-90.9980116
611,Henry Street,63090,38.5484813,-90.9982294
613,Henry Street,63090,38.5483214,-90.9983504
1505,Heritage Hills Drive,63090,38.5432254,-91.0072882
401,East 14th Street,63090,38.5460159,-91.0099027
1306,East 8th Street,63090,38.5473758,-90.9980097
1713,Madison Avenue,63090,38.5401899,-91.0048948
1080,Caroline Drive,63090,38.5390951,-91.0037443
1088,Caroline Drive,63090,38.5391208,-91.0031417
1090,Caroline Drive,63090,38.5391396,-91.0028561
1001,Caroline Drive,63090,38.5395293,-91.0027518
901,Marilyn Court,63090,38.5396059,-91.0035549
1708,Madison Avenue,63090,38.5397024,-91.0041243
1706,Madison Avenue,63090,38.5399295,-91.0040925
1704,Madison Avenue,63090,38.5401562,-91.0040594
1707,Madison Avenue,63090,38.5409188,-91.0046281
1709,Madison Avenue,63090,38.5406608,-91.0046923
1711,Madison Avenue,63090,38.5404400,-91.0047532
1702,Madison Avenue,63090,38.5403935,-91.0039767
1700,Madison Avenue,63090,38.5406466,-91.0038744
1703,Zero Avenue,63090,38.5411924,-91.0052987
1701,Zero Avenue,63090,38.5415649,-91.0053331
1000,Karen Lane,63090,38.5410880,-91.0036010
1705,Madison Avenue,63090,38.5411630,-91.0045654
1001,Karen Lane,63090,38.5414511,-91.0034617
801,Crestview Drive,63090,38.5419380,-91.0046849
805,Crestview Drive,63090,38.5418926,-91.0040351
1605,Zero Avenue,63090,38.5418324,-91.0053053
1610,Madison Avenue,63090,38.5416661,-91.0034862
1608,Madison Avenue,63090,38.5418437,-91.0034447
1606,Madison Avenue,63090,38.5420331,-91.0034142
1603,Zero Avenue,63090,38.5420645,-91.0053294
1600,Zero Avenue,63090,38.5422017,-91.0047946
1601,Zero Avenue,63090,38.5423172,-91.0053042
806,Fieldcrest Drive,63090,38.5422429,-91.0042348
808,Fieldcrest Drive,63090,38.5422270,-91.0039345
1604,Madison Avenue,63090,38.5422203,-91.0034196
1900,Heritage Hills Drive,63090,38.5408911,-91.0061496
1571,Heritage Hills Drive,63090,38.5423608,-91.0067832
1507,Heritage Hills Drive,63090,38.5427813,-91.0068487
1711,Sunnydale Drive,63090,38.5449335,-90.9916075
1710,Sunnydale Drive,63090,38.5446313,-90.9911206
1712,Sunnydale Drive,63090,38.5448142,-90.9910954
1714,Sunnydale Drive,63090,38.5450130,-90.9910248
1716,Sunnydale Drive,63090,38.5452552,-90.9909872
1717,Sunnydale Drive,63090,38.5453633,-90.9912207
1715,Sunnydale Drive,63090,38.5453046,-90.9914247
1713,Sunnydale Drive,63090,38.5451413,-90.9915185
1703,Sunnydale Drive,63090,38.5450504,-90.9921532
809,Wilson Street,63090,38.5450761,-90.9926423
679,International Avenue,63090,38.5434207,-90.9874027
601,International Avenue,63090,38.5445895,-90.9876364
1920,East 5th Street,63090,38.5456191,-90.9857140
1913,East 5th Street,63090,38.5465342,-90.9858311
1715,East 5th Street,63090,38.5467950,-90.9888728
575,International Avenue,63090,38.5450594,-90.9871335
575,International Avenue,63090,38.5452920,-90.9872782
1130,East 5th Street,63090,38.5503797,-90.9985344
5632,Steutermann Road,63090,38.5336705,-91.0072358
901,Bieker Road,63090,38.5337034,-91.0054688
5632,Steutermann Road,63090,38.5335814,-91.0071043
1502,Madison Avenue,63090,38.5427593,-91.0033308
1602,Madison Avenue,63090,38.5424486,-91.0033457
803,Fieldcrest Drive,63090,38.5426395,-91.0045254
801,Fieldcrest Drive,63090,38.5426631,-91.0048235
805,Fieldcrest Drive,63090,38.5426344,-91.0041714
807,Fieldcrest Drive,63090,38.5426233,-91.0038784
1503,Zero Avenue,63090,38.5427918,-91.0053995
800,Wilshire Drive,63090,38.5430465,-91.0048703
802,Wilshire Drive,63090,38.5430062,-91.0045286
804,Wilshire Drive,63090,38.5430037,-91.0041658
806,Madison Avenue,63090,38.5429793,-91.0037600
1410,Madison Avenue,63090,38.5431567,-91.0031522
1408,Madison Avenue,63090,38.5434294,-91.0031340
1501,Zero Avenue,63090,38.5430585,-91.0054242
803,Wilshire Drive,63090,38.5434458,-91.0046635
805,Wilshire Drive,63090,38.5434166,-91.0043824
1405,Madison Avenue,63090,38.5434481,-91.0037488
1400,Madison Avenue,63090,38.5437116,-91.0031506
1320,Madison Avenue,63090,38.5442041,-91.0029152
5,Scenic Drive,63090,38.5448787,-91.0051902
200,East 14th Street,63090,38.5448958,-91.0128529
"919,923",Madison Avenue,63090,38.5470428,-91.0028949
"911,915",Madison Avenue,63090,38.5472973,-91.0029934
"903,907",Madison Avenue,63090,38.5475614,-91.0031007
550,East 14th Street,63090,38.5448354,-91.0083082
508,East 14th Street,63090,38.5447160,-91.0092039
110,East 14th Street,63090,38.5449052,-91.0139826
111,East 14th Street,63090,38.5458308,-91.0141819
1,East 14th Street,63090,38.5455354,-91.0161594
500,Stewart Drive,63090,38.5387164,-91.0129227
1804,Bedford Center Drive,63090,38.5393758,-91.0128569
"1,3",Wenona Drive,63090,38.5366758,-90.9881570
"5,7",Wenona Drive,63090,38.5367042,-90.9884124
4,Wenona Drive,63090,38.5362609,-90.9882319
124,Fulton Street,63090,38.5520458,-90.9967650
126,Fulton Street,63090,38.5517958,-90.9969521
1105,East 3rd Street,63090,38.5519324,-90.9982979
1107,East 3rd Street,63090,38.5518408,-90.9980723
1109,East 3rd Street,63090,38.5517907,-90.9979215
1111,East 3rd Street,63090,38.5517131,-90.9977593
1113,East 3rd Street,63090,38.5516486,-90.9976109
1100,East 3rd Street,63090,38.5516384,-90.9987612
1106,East 3rd Street,63090,38.5515364,-90.9985651
1108,East 3rd Street,63090,38.5513997,-90.9983237
1110,East 3rd Street,63090,38.5513166,-90.9981251
1112,East 3rd Street,63090,38.5512468,-90.9978820
1201,East 3rd Street,63090,38.5515010,-90.9972226
11,Mike Alan Drive,63090,38.5346405,-90.9890939
1801,Bedford Center Drive,63090,38.5399562,-91.0138703
1005,Madison Avenue,63090,38.5457825,-91.0029195
228,East 5th Street,63090,38.5550152,-91.0107754
919,Jefferson Street,63090,38.5512319,-91.0148228
705,East 5th Street,63090,38.5534343,-91.0042036
600,East 5th Street,63090,38.5531826,-91.0050557
314,Boone Street,63090,38.5536235,-91.0041221
1405,Jefferson Street,63090,38.5435887,-91.0175899
608,Henry Street,63090,38.5484090,-90.9976647
1414,East 5th Street,63090,38.5487636,-90.9950383
1416,East 5th Street,63090,38.5486326,-90.9947440
510,Penn Street,63090,38.5484630,-90.9959870
1401,Jefferson Street,63090,38.5446421,-91.0173930
1102,Washington Square Center,63090,38.5382913,-91.0031581
600,Wilson Street,63090,38.5460429,-90.9916255
510,Wilson Street,63090,38.5465959,-90.9912092
807,Wilson Street,63090,38.5452504,-90.9926014
805,Wilson Street,63090,38.5454211,-90.9925328
613,Wilson Street,63090,38.5456080,-90.9924532
806,Wilson Street,63090,38.5452394,-90.9920922
804,Wilson Street,63090,38.5453825,-90.9919980
609,Wilson Street,63090,38.5457640,-90.9923455
608,Wilson Street,63090,38.5455093,-90.9917984
606,Wilson Street,63090,38.5457251,-90.9917995
605,Wilson Street,63090,38.5459143,-90.9922304
1206,Jefferson Street,63090,38.5482181,-91.0150536
1978,Image Drive,63090,38.5473837,-91.0209879
2010,Highway A,63090,38.5362707,-91.0185300
1816,Highway A,63090,38.5410781,-91.0166151
100,Cedar Street,63090,38.5609787,-91.0140409
103,Elm Street,63090,38.5607058,-91.0134675
309,Alberta Lane,63090,38.5468728,-90.9855614
"362, 364",Alberta Lane,63090,38.5466898,-90.9849003
"346, 348",Alberta Lane,63090,38.5468961,-90.9849003
2101,East 5th Street,63090,38.5465594,-90.9833206
305,Alberta Lane,63090,38.5471229,-90.9854869
302,Alberta Lane,63090,38.5471195,-90.9848999
1910,East 3rd Street,63090,38.5473640,-90.9855319
300,Alberta Lane,63090,38.5473281,-90.9849175
2100,East 5th Street,63090,38.5456073,-90.9833899
1917,Wishwood Drive,63090,38.5482950,-90.9851034
204,Alberta Lane,63090,38.5477365,-90.9849079
1908,Wishwood Drive,63090,38.5477853,-90.9856185
1901,East 3rd Street,63090,38.5478606,-90.9864792
1900,Wishwood Drive,63090,38.5481130,-90.9864548
1904,Wishwood Drive,63090,38.5479386,-90.9859987
1911,Wishwood Drive,63090,38.5484420,-90.9855453
1905,Wishwood Drive,63090,38.5485546,-90.9858568
1901,Wishwood Drive,63090,38.5487509,-90.9863065
1824,Wishwood Drive,63090,38.5484073,-90.9872338
2553,East 5th Street,63090,38.5375212,-90.9771021
2549,East 5th Street,63090,38.5380977,-90.9770250
1800,East 5th Street,63090,38.5461263,-90.9882492
506D,Terry Lane,63090,38.5456919,-90.9880979
801,Terry Lane,63090,38.5437986,-90.9884938
1750,East 5th Street,63090,38.5468109,-90.9909268
1403,East 5th Street,63090,38.5494873,-90.9951435
320,Penn Street,63090,38.5494658,-90.9952942
1208,East 3rd Street,63090,38.5508841,-90.9971834
1206,East 3rd Street,63090,38.5509677,-90.9973674
1200,East 3rd Street,63090,38.5510397,-90.9975529
1212,East 3rd Street,63090,38.5508514,-90.9969447
1214,East 3rd Street,63090,38.5506625,-90.9967083
1301,East 5th Street,63090,38.5499959,-90.9965981
1311,East 5th Street,63090,38.5499538,-90.9963858
1315,East 5th Street,63090,38.5498005,-90.9959832
1321,East 5th Street,63090,38.5496316,-90.9956502
1308,East 3rd Street,63090,38.5502290,-90.9955458
1330,East 3rd Street,63090,38.5501103,-90.9953212
1306,East 3rd Street,63090,38.5502991,-90.9958723
1300,East 3rd Street,63090,38.5504405,-90.9962044
1219,East 5th Street,63090,38.5501272,-90.9969854
1213,East 5th Street,63090,38.5502743,-90.9973719
1215,East 5th Street,63090,38.5502056,-90.9971878
1201,East 5th Street,63090,38.5506446,-90.9978152
1203,East 3rd Street,63090,38.5513803,-90.9970996
1211,East 3rd Street,63090,38.5513114,-90.9968348
1213,East 3rd Street,63090,38.5511795,-90.9966125
1215,East 3rd Street,63090,38.5510744,-90.9964777
1217,East 3rd Street,63090,38.5510288,-90.9963322
1301,East 3rd Street,63090,38.5508584,-90.9959932
1303,East 3rd Street,63090,38.5508159,-90.9958511
1305,East 3rd Street,63090,38.5507427,-90.9956844
1311,East 3rd Street,63090,38.5506269,-90.9952584
5,Penn Street,63090,38.5524578,-90.9941678
4,Penn Street,63090,38.5517639,-90.9935487
8,Penn Street,63090,38.5513053,-90.9939536
231,West Main Street,63090,38.5608034,-91.0129175
224,West Main Street,63090,38.5605058,-91.0132410
222,West Main Street,63090,38.5605041,-91.0131329
216,West Main Street,63090,38.5605088,-91.0129969
100,Penn Street,63090,38.5508430,-90.9942848
105,Penn Street,63090,38.5509848,-90.9947761
101,Penn Street,63090,38.5511059,-90.9946981
111,Penn Street,63090,38.5508671,-90.9948825
2009,East 5th Street,63090,38.5464017,-90.9844797
500,Alberta Lane,63090,38.5449813,-90.9847539
2000,East 5th Street,63090,38.5456352,-90.9848187
2008,East 5th Street,63090,38.5456592,-90.9842178
2004,East 5th Street,63090,38.5457077,-90.9844671
1220,South Lake Shore Drive,63090,38.5615444,-91.0286904
255,State Street,63090,38.5625877,-91.0266331
257,State Street,63090,38.5623846,-91.0267528
259,State Street,63090,38.5622642,-91.0268465
1115,Horn Street,63090,38.5577554,-91.0287618
1113,Horn Street,63090,38.5578065,-91.0284929
1110,North Park Drive,63090,38.5662124,-91.0270490
1106,North Park Drive,63090,38.5659814,-91.0266312
1104,North Park Drive,63090,38.5658353,-91.0264385
4937,South Point Road,63090,38.5261182,-90.9755040
"4943,4947",South Point Road,63090,38.5256634,-90.9749595
"4951,4955",South Point Road,63090,38.5253502,-90.9748635
"4959,4963",South Point Road,63090,38.5250502,-90.9748688
"4967,4971",South Point Road,63090,38.5247359,-90.9749422
5001,South Point Road,63090,38.5233927,-90.9758781
320,West Front Street,63090,38.5615537,-91.0130995
913,High Street,63090,38.5520487,-91.0243278
1119,Wildey Way,63090,38.5489208,-91.0311728
1123,Wildey Way,63090,38.5486943,-91.0311676
1127,Wildey Way,63090,38.5484158,-91.0312407
127,Elm Street,63090,38.5602667,-91.0138520
311,West 2nd Street,63090,38.5604273,-91.0141486
201,Elm Street,63090,38.5600168,-91.0141249
113,Elm Street,63090,38.5604215,-91.0137190
111,Elm Street,63090,38.5605586,-91.0136010
106,Elm Street,63090,38.5602836,-91.0133402
114,Elm Street,63090,38.5601933,-91.0134839
120,Elm Street,63090,38.5600553,-91.0135332
405,West Main Street,63090,38.5617096,-91.0144814
4245,Highway 47,63090,38.5319588,-91.0071621
3,Lafayette Street,63090,38.5605626,-91.0111068
4,Lafayette Street,63090,38.5604228,-91.0108652
116,West Front Street,63090,38.5607505,-91.0115856
14,West Main Street,63090,38.5594461,-91.0113576
24,West 2nd Street,63090,38.5589046,-91.0121420
124,West Main Street,63090,38.5601191,-91.0123696
602,Alberta Lane,63090,38.5441135,-90.9849189
612,East 3rd Street,63090,38.5541345,-91.0043962
610,East 3rd Street,63090,38.5542143,-91.0045415
614,East 3rd Street,63090,38.5540849,-91.0042363
305,Boone Street,63090,38.5538209,-91.0044725
406,Macarthur Street,63090,38.5537111,-91.0045514
617,East 5th Street,63090,38.5534956,-91.0046431
615,East 5th Street,63090,38.5534832,-91.0047998
558,East 5th Street,63090,38.5532375,-91.0055412
560,East 5th Street,63090,38.5531823,-91.0053763
556,East 5th Street,63090,38.5531730,-91.0056750
511,Macarthur Street,63090,38.5528754,-91.0054263
513,Macarthur Street,63090,38.5527161,-91.0054256
515,Macarthur Street,63090,38.5525879,-91.0054545
549,Macarthur Street,63090,38.5526325,-91.0058168
547,East 6th Street,63090,38.5526388,-91.0059987
545,East 6th Street,63090,38.5526669,-91.0061951
543,East 6th Street,63090,38.5526627,-91.0063585
541,East 6th Street,63090,38.5527060,-91.0065783
537,East 6th Street,63090,38.5526874,-91.0067475
529,East 6th Street,63090,38.5526733,-91.0072547
531,East 6th Street,63090,38.5526534,-91.0070961
525,East 6th Street,63090,38.5528767,-91.0077458
515,East 5th Street,63090,38.5537220,-91.0073795
326,East 5th Street,63090,38.5544556,-91.0096766
821,East 3rd Street,63090,38.5539370,-91.0028428
107,Hancock Street,63090,38.5540638,-91.0026611
817,East 3rd Street,63090,38.5540603,-91.0030956
715,East 3rd Street,63090,38.5541623,-91.0033579
105,Hancock Street,63090,38.5543087,-91.0024842
101,Hancock Street,63090,38.5545115,-91.0023144
710,East 1st Street,63090,38.5546030,-91.0027003
708,East 1st Street,63090,38.5546787,-91.0028723
706,East 1st Street,63090,38.5547686,-91.0030716
702,East 1st Street,63090,38.5548508,-91.0032480
617,East 3rd Street,63090,38.5544019,-91.0040079
553,East 5th Street,63090,38.5535398,-91.0054678
313,Macarthur Street,63090,38.5538617,-91.0054511
312,Macarthur Street,63090,38.5538447,-91.0050411
310,Macarthur Street,63090,38.5540127,-91.0050562
311,Macarthur Street,63090,38.5540343,-91.0054648
551,East 5th Street,63090,38.5535201,-91.0057266
308,Macarthur Street,63090,38.5542188,-91.0050241
309,Macarthur Street,63090,38.5542168,-91.0054558
305,Macarthur Street,63090,38.5545894,-91.0054230
307,Macarthur Street,63090,38.5544175,-91.0054377
304,Macarthur Street,63090,38.5543874,-91.0050624
300,Macarthur Street,63090,38.5545159,-91.0050655
730,Missouri Avenue,63090,38.5554201,-91.0016791
21,Hancock Street,63090,38.5551832,-91.0018246
720,Missouri Avenue,63090,38.5552799,-91.0020467
708,Missouri Avenue,63090,38.5554623,-91.0024370
702,Missouri Avenue,63090,38.5558142,-91.0025880
1,Boone Street,63090,38.5559511,-91.0029053
721,East 1st Street,63090,38.5547866,-91.0021000
719,East 1st Street,63090,38.5548495,-91.0022761
715,East 1st Street,63090,38.5549211,-91.0024474
705,East 1st Street,63090,38.5550583,-91.0026509
701,East 1st Street,63090,38.5552868,-91.0027412
1001,West 10th Street,63090,38.5508806,-91.0148123
1009,Jefferson Street,63090,38.5502295,-91.0150881
1008,Jefferson Street,63090,38.5501898,-91.0145610
1006,Jefferson Street,63090,38.5503458,-91.0144576
1004,Jefferson Street,63090,38.5504986,-91.0143982
1002,Jefferson Street,63090,38.5506607,-91.0143599
1000,Jefferson Street,63090,38.5507956,-91.0143289
906,Jefferson Street,63090,38.5513686,-91.0140875
908,Jefferson Street,63090,38.5512193,-91.0140437
910,Jefferson Street,63090,38.5510918,-91.0142434
904,Jefferson Street,63090,38.5514920,-91.0139815
1003,Jefferson Street,63090,38.5506906,-91.0148917
1005,Jefferson Street,63090,38.5505443,-91.0149755
1007,Jefferson Street,63090,38.5503707,-91.0150082
813,Jefferson Street,63090,38.5524848,-91.0148384
12,Wainwright Street,63090,38.5516480,-91.0132725
14,Wainwright Street,63090,38.5516278,-91.0129618
11,Wainwright Street,63090,38.5520073,-91.0129939
7,Wainwright Street,63090,38.5520260,-91.0133030
5,Wainwright Street,63090,38.5520480,-91.0135426
723,Jefferson Street,63090,38.5534914,-91.0140948
1875,Highway A,63090,38.5398642,-91.0187251
1105,Locust Street,63090,38.5492064,-91.0134493
1106,Locust Street,63090,38.5493681,-91.0128209
8,East 11th Street,63090,38.5498413,-91.0142448
10,East 11th Street,63090,38.5498563,-91.0140250
12,East 11th Street,63090,38.5498363,-91.0138137
14,East 11th Street,63090,38.5498384,-91.0136273
13,East 11th Street,63090,38.5502349,-91.0139899
15,East 11th Street,63090,38.5502546,-91.0137369
17,East 11th Street,63090,38.5502521,-91.0134636
19,East 11th Street,63090,38.5502748,-91.0131961
21,East 11th Street,63090,38.5502463,-91.0129486
630,Market Street,63090,38.5541187,-91.0134757
620,Market Street,63090,38.5545148,-91.0130210
120,West Front Street,63090,38.5608648,-91.0117762
109,West Main Street,63090,38.5602619,-91.0117347
116,West Main Street,63090,38.5600089,-91.0121566
112,West Main Street,63090,38.5598828,-91.0121138
110,West Main Street,63090,38.5598881,-91.0119786
615,East 3rd Street,63090,38.5545722,-91.0042270
613,East 3rd Street,63090,38.5547086,-91.0044807
212,Macarthur Street,63090,38.5548947,-91.0048032
107,Boone Street,63090,38.5548132,-91.0037639
109,Boone Street,63090,38.5547117,-91.0038407
105,Boone Street,63090,38.5549502,-91.0036767
615,East 1st Street,63090,38.5553330,-91.0034797
3,Boone Street,63090,38.5558052,-91.0030268
611,Riverview Place,63090,38.5554409,-91.0038936
609,Riverview Place,63090,38.5554664,-91.0041039
607,Riverview Court,63090,38.5555284,-91.0042950
603,Riverview Court,63090,38.5555937,-91.0045206
601,Riverview Place,63090,38.5562704,-91.0048443
4,Riverview Court,63090,38.5559188,-91.0038385
105,Holman Street,63090,38.5561156,-91.0054235
104,East Main Street,63090,38.5586762,-91.0096176
108,East Main Street,63090,38.5585670,-91.0094192
100,Jefferson Street,63090,38.5591469,-91.0105372
11,West Main Street,63090,38.5598657,-91.0112087
10,Lafayette Street,63090,38.5599803,-91.0111512
15,West Main Street,63090,38.5599184,-91.0113073
1,West Main Street,63090,38.5596190,-91.0105901
1,West Main Street,63090,38.5598081,-91.0107489
12,Oak Street,63090,38.5606916,-91.0118870
109,West Main Street,63090,38.5607055,-91.0114652
320,Washington Avenue,63090,38.5511672,-90.9991035
201,West Main Street,63090,38.5605142,-91.0123628
203,West Main Street,63090,38.5605213,-91.0124503
213,West Main Street,63090,38.5605923,-91.0125166
219,West Main Street,63090,38.5606324,-91.0126521
219,West Main Street,63090,38.5606736,-91.0127338
211,Elm Street,63090,38.5598699,-91.0143562
16,East 11th Street,63090,38.5498501,-91.0134197
351,Fulton Street,63090,38.5509524,-90.9981838
115,Cedar Street,63090,38.5608171,-91.0146950
311,West 3rd Street,63090,38.5596350,-91.0147345
219,Elm Street,63090,38.5596851,-91.0143766
301,West Front Street,63090,38.5617884,-91.0127097
412,West 2nd Street,63090,38.5612017,-91.0166048
410,West 2nd Street,63090,38.5611507,-91.0164216
408,West 2nd Street,63090,38.5610661,-91.0162351
208,West 2nd Street,63090,38.5597123,-91.0135265
208,West 3rd Street,63090,38.5588932,-91.0139749
214,Elm Street,63090,38.5595069,-91.0139439
"216,218,220",Elm Street,63090,38.5594249,-91.0141398
209,West 3rd Street,63090,38.5591778,-91.0138499
"222,224",Elm Street,63090,38.5593161,-91.0141833
202,West 3rd Street,63090,38.5588072,-91.0138558
114,Oak Street,63090,38.5597360,-91.0126221
227,Elm Street,63090,38.5595180,-91.0145454
301,Elm Street,63090,38.5592984,-91.0146931
596,High Street,63090,38.5561674,-91.0237745
904,West 5th Street,63090,38.5564619,-91.0242054
908,West 5th Street,63090,38.5564232,-91.0243696
909,West 5th Street,63090,38.5567591,-91.0245225
820,West 5th Street,63090,38.5566281,-91.0233135
433,High Street,63090,38.5570418,-91.0242421
725,West 6th Street,63090,38.5561797,-91.0226855
719,West 6th Street,63090,38.5561965,-91.0222586
616,Riverview Place,63090,38.5550525,-91.0039704
612,Riverview Place,63090,38.5550993,-91.0041200
610,Riverview Place,63090,38.5551409,-91.0042732
210,Macarthur Street,63090,38.5551601,-91.0048628
208,Macarthur Street,63090,38.5552849,-91.0047940
301,Macarthur Street,63090,38.5547343,-91.0055853
528,East 3rd Street,63090,38.5547885,-91.0059017
213,Macarthur Street,63090,38.5551094,-91.0053415
211,Macarthur Street,63090,38.5552469,-91.0052743
205,Macarthur Street,63090,38.5555362,-91.0052239
207,Macarthur Street,63090,38.5553836,-91.0052531
15,Riverview Place,63090,38.5556890,-91.0051770
519,East 3rd Street,63090,38.5554291,-91.0061737
521,East 3rd Street,63090,38.5553426,-91.0060096
525,East 3rd Street,63090,38.5553035,-91.0058332
111,Holman Street,63090,38.5556052,-91.0058015
107,Holman Street,63090,38.5558596,-91.0056991
"501,503",East 3rd Street,63090,38.5556418,-91.0066695
"505,507",East 3rd Street,63090,38.5555872,-91.0065391
"509,511",East 3rd Street,63090,38.5555289,-91.0064123
524,East 3rd Street,63090,38.5549333,-91.0060259
518,East 3rd Street,63090,38.5550281,-91.0062291
512,East 3rd Street,63090,38.5550903,-91.0063768
510,East 3rd Street,63090,38.5551655,-91.0065289
300,Burnside Street,63090,38.5553331,-91.0068582
304,Burnside Street,63090,38.5552174,-91.0069453
"108,110",Jefferson Street,63090,38.5590081,-91.0106726
124,Jefferson Street,63090,38.5586521,-91.0109296
113,Jefferson Street,63090,38.5590413,-91.0110989
15,East 2nd Street,63090,38.5585679,-91.0105399
126,Market Street,63090,38.5582053,-91.0100750
124,Market Street,63090,38.5583208,-91.0099637
122,Market Street,63090,38.5585138,-91.0097803
24,East 2nd Street,63090,38.5581359,-91.0105985
20,East 2nd Street,63090,38.5580710,-91.0108661
200,Jefferson Street,63090,38.5584322,-91.0111965
204,Jefferson Street,63090,38.5583596,-91.0112885
206,Jefferson Street,63090,38.5582675,-91.0113376
100,West Main Street,63090,38.5597846,-91.0117500
109,Lafayette Street,63090,38.5596807,-91.0120002
2850,Fox Trotter Lane,63090,38.5265293,-90.9748816
2851,Fox Trotter Lane,63090,38.5266563,-90.9743566
2854,Fox Trotter Lane,63090,38.5262831,-90.9747021
2858,Fox Trotter Lane,63090,38.5261080,-90.9744360
2900,Fox Trotter Lane,63090,38.5260618,-90.9741055
2904,Fox Trotter Lane,63090,38.5260241,-90.9737564
2805,Thoroughbred Drive,63090,38.5270909,-90.9747214
2918,Thoroughbred Drive,63090,38.5268102,-90.9741226
2901,Fox Trotter Lane,63090,38.5264708,-90.9740621
3001,Palomino Court,63090,38.5266474,-90.9737137
3004,Palomino Court,63090,38.5268133,-90.9734680
3005,Palomino Court,63090,38.5268437,-90.9730973
3009,Palomino Court,63090,38.5266519,-90.9729501
809,Macarthur Street,63090,38.5500457,-91.0054670
808,Macarthur Street,63090,38.5502290,-91.0049735
806,Macarthur Street,63090,38.5503767,-91.0049725
810,Macarthur Street,63090,38.5500441,-91.0049436
812,Macarthur Street,63090,38.5498275,-91.0049736
807,Macarthur Street,63090,38.5502261,-91.0054751
805,Macarthur Street,63090,38.5503921,-91.0055054
803,Macarthur Street,63090,38.5505981,-91.0054852
802,Macarthur Street,63090,38.5506767,-91.0049824
601,Macarthur Street,63090,38.5522847,-91.0054348
605,Macarthur Street,63090,38.5520850,-91.0054383
548,East 6th Street,63090,38.5522718,-91.0058176
544,East 6th Street,63090,38.5522625,-91.0061951
546,East 6th Street,63090,38.5522773,-91.0059979
628,East 7th Street,63090,38.5514362,-91.0053793
626,East 7th Street,63090,38.5513996,-91.0055629
624,East 7th Street,63090,38.5514281,-91.0057256
622,East 7th Street,63090,38.5514176,-91.0059136
620,East 7th Street,63090,38.5514359,-91.0060959
618,East 7th Street,63090,38.5514358,-91.0062728
616,East 7th Street,63090,38.5514062,-91.0064324
614,East 7th Street,63090,38.5514245,-91.0065951
612,East 7th Street,63090,38.5514321,-91.0067734
610,East 7th Street,63090,38.5514404,-91.0069548
608,East 7th Street,63090,38.5514548,-91.0071296
604,East 7th Street,63090,38.5514662,-91.0074101
602,East 7th Street,63090,38.5514736,-91.0076666
600,East 7th Street,63090,38.5514876,-91.0078721
627,East 8th Street,63090,38.5510326,-91.0058840
625,East 8th Street,63090,38.5510168,-91.0061914
623,East 8th Street,63090,38.5510273,-91.0064007
621,East 8th Street,63090,38.5510158,-91.0066448
619,East 8th Street,63090,38.5510244,-91.0068684
620,East 8th Street,63090,38.5506537,-91.0065810
624,East 8th Street,63090,38.5506369,-91.0059864
470,Grand Avenue,63090,38.5567759,-91.0334928
453,Grand Avenue,63090,38.5570312,-91.0343188
439,Grand Avenue,63090,38.5573888,-91.0341524
385,Grand Avenue,63090,38.5594598,-91.0342254
201,Grand Avenue,63090,38.5649153,-91.0341088
1424,West 5th Street,63090,38.5550363,-91.0336424
1400,West 5th Street,63090,38.5550140,-91.0325388
802,Schaper Avenue,63090,38.5504547,-91.0060189
804,Schaper Avenue,63090,38.5502043,-91.0060125
803,Schaper Avenue,63090,38.5504617,-91.0065470
805,Schaper Avenue,63090,38.5502609,-91.0065163
807,Schaper Avenue,63090,38.5500158,-91.0065623
615,East 9th Street,63090,38.5501216,-91.0079690
617,East 9th Street,63090,38.5501230,-91.0077039
619,East 9th Street,63090,38.5500809,-91.0074049
621,East 9th Street,63090,38.5501383,-91.0070585
609,East 9th Street,63090,38.5501647,-91.0082569
605,East 9th Street,63090,38.5502432,-91.0085293
601,East 9th Street,63090,38.5503315,-91.0087640
805,Sunnyside Street,63090,38.5506793,-91.0090900
811,Sunnyside Street,63090,38.5505009,-91.0092283
616,East 8th Street,63090,38.5506644,-91.0069894
614,East 8th Street,63090,38.5506637,-91.0072407
612,East 8th Street,63090,38.5506905,-91.0074596
608,East 8th Street,63090,38.5507006,-91.0079403
610,East 8th Street,63090,38.5506968,-91.0077012
602,East 8th Street,63090,38.5508190,-91.0084232
606,East 8th Street,63090,38.5506922,-91.0081775
617,East 8th Street,63090,38.5510266,-91.0070864
615,East 8th Street,63090,38.5510355,-91.0073105
613,East 8th Street,63090,38.5510408,-91.0075085
611,East 8th Street,63090,38.5510636,-91.0077242
603,East 8th Street,63090,38.5510932,-91.0079692
601,Sunnyside Street,63090,38.5511518,-91.0081469
1210,West 9th Street,63090,38.5527041,-91.0298825
1151,Clay Street,63090,38.5502672,-91.0327500
1111,Clay Street,63090,38.5500999,-91.0337963
"1317,1321",Apple Blossom Lane,63090,38.5515837,-91.0319362
"1309,1313",Apple Blossom Lane,63090,38.5515825,-91.0315097
"1316,1320",Apple Blossom Lane,63090,38.5511872,-91.0319273
"1308,1312",Apple Blossom Lane,63090,38.5511855,-91.0315137
"1301,1305",Apple Blossom Lane,63090,38.5515202,-91.0310719
"1300,1304",Apple Blossom Lane,63090,38.5512413,-91.0310693
2300,Southbend Drive,63090,38.5418691,-90.9797103
109,East Main Street,63090,38.5588234,-91.0089211
120,East Main Street,63090,38.5583729,-91.0090152
110,East Main Street,63090,38.5584437,-91.0092614
1,Walnut Street,63090,38.5588946,-91.0086260
2,Walnut Street,63090,38.5586759,-91.0078242
4,East Main Street,63090,38.5590457,-91.0103276
201,East Main Street,63090,38.5585376,-91.0084583
204,East Main Street,63090,38.5581305,-91.0087463
210,East Main Street,63090,38.5579411,-91.0083555
208,East Main Street,63090,38.5579984,-91.0085645
209,East Main Street,63090,38.5582533,-91.0080184
205,East Main Street,63090,38.5583975,-91.0083000
207,East Main Street,63090,38.5583424,-91.0081795
211,East Main Street,63090,38.5581938,-91.0078442
214,East Main Street,63090,38.5578579,-91.0081717
111,Locust Street,63090,38.5577034,-91.0083226
306,East Main Street,63090,38.5576968,-91.0078116
310,East Main Street,63090,38.5575759,-91.0076149
309,East Main Street,63090,38.5579121,-91.0073747
305,East Main Street,63090,38.5580164,-91.0075587
313,East Main Street,63090,38.5578367,-91.0071678
401,East Main Street,63090,38.5574394,-91.0066667
124,Locust Street,63090,38.5572539,-91.0081976
110,Locust Street,63090,38.5575476,-91.0080014
116,Locust Street,63090,38.5573592,-91.0080182
119,Locust Street,63090,38.5575243,-91.0085553
107,East 2nd Street,63090,38.5581205,-91.0098084
115,East 2nd Street,63090,38.5580302,-91.0095872
121,East 2nd Street,63090,38.5579141,-91.0094218
114,East 2nd Street,63090,38.5577250,-91.0099092
110,East 2nd Street,63090,38.5578445,-91.0100736
102,East 2nd Street,63090,38.5579523,-91.0102438
118,East 2nd Street,63090,38.5576284,-91.0096752
204,East 2nd Street,63090,38.5574551,-91.0093570
206,East 2nd Street,63090,38.5573288,-91.0091835
120,Walnut Street,63090,38.5578815,-91.0089734
122,Walnut Street,63090,38.5577532,-91.0090792
25,East 3rd Street,63090,38.5576808,-91.0109680
11,East 3rd Street,63090,38.5578034,-91.0111701
109,East 3rd Street,63090,38.5574050,-91.0103882
105,East 3rd Street,63090,38.5575222,-91.0106631
121,East 3rd Street,63090,38.5572631,-91.0100996
207,Market Street,63090,38.5579871,-91.0107159
209,Market Street,63090,38.5578395,-91.0108292
208,Market Street,63090,38.5577698,-91.0104238
212,Market Street,63090,38.5576567,-91.0104876
209,Walnut Street,63090,38.5573780,-91.0099620
24,East 3rd Street,63090,38.5574138,-91.0111974
10,East 3rd Street,63090,38.5575801,-91.0114911
16,East 3rd Street,63090,38.5574939,-91.0113458
"1319,1321",High Street,63090,38.5470000,-91.0253264
"1311,1313",High Street,63090,38.5471898,-91.0253211
1300,High Street,63090,38.5476068,-91.0246466
1310,High Street,63090,38.5473324,-91.0246934
1320,High Street,63090,38.5470987,-91.0246874
426,West Front Street,63090,38.5624052,-91.0145706
430,West Front Street,63090,38.5625562,-91.0149484
438,West Front Street,63090,38.5628071,-91.0154917
514,West Front Street,63090,38.5631181,-91.0160407
512,West Front Street,63090,38.5630786,-91.0157833
2160,Highway A,63090,38.5324615,-91.0205087
408,East 8th Street,63090,38.5516972,-91.0103242
305,East 8th Street,63090,38.5527765,-91.0111721
512,Sunnyside Street,63090,38.5511140,-91.0090125
516,Sunnyside Street,63090,38.5510129,-91.0087835
513,East 8th Street,63090,38.5514034,-91.0087025
517,Sunnyside Street,63090,38.5513307,-91.0084993
808,Burnside Street,63090,38.5510577,-91.0101906
510,East 8th Street,63090,38.5512422,-91.0092299
506,East 8th Street,63090,38.5513596,-91.0094486
504,East 8th Street,63090,38.5514753,-91.0096559
502,East 8th Street,63090,38.5515476,-91.0098439
511,East 8th Street,63090,38.5515083,-91.0088561
509,East 8th Street,63090,38.5516193,-91.0090838
503,East 8th Street,63090,38.5518278,-91.0094392
507,East 8th Street,63090,38.5517347,-91.0092696
501,Burnside Street,63090,38.5518866,-91.0096012
500,East 7th Street,63090,38.5522506,-91.0093389
502,East 7th Street,63090,38.5521707,-91.0092293
504,East 7th Street,63090,38.5521136,-91.0090688
510,East 7th Street,63090,38.5519985,-91.0089283
514,East 7th Street,63090,38.5518759,-91.0086367
516,East 7th Street,63090,38.5518001,-91.0084945
520,East 7th Street,63090,38.5517315,-91.0083399
524,East 7th Street,63090,38.5516494,-91.0081936
527,East 6th Street,63090,38.5527514,-91.0074827
1145,North Park Drive,63090,38.5666522,-91.0287376
212,Walnut Street,63090,38.5569907,-91.0096303
208,Walnut Street,63090,38.5571405,-91.0095525
209,Locust Street,63090,38.5570465,-91.0089627
215,Locust Street,63090,38.5568876,-91.0090056
221,Locust Street,63090,38.5567403,-91.0091520
205,Locust Street,63090,38.5571759,-91.0087279
300,Market Street,63090,38.5572698,-91.0108455
114,East 3rd Street,63090,38.5570082,-91.0105477
"301,305,309,313",Walnut Street,63090,38.5569455,-91.0103040
200,East 3rd Street,63090,38.5566842,-91.0100012
206,East 3rd Street,63090,38.5566447,-91.0097745
301,Locust Street,63090,38.5564808,-91.0093910
404,East 2nd Street,63090,38.5565269,-91.0074528
202,Hooker Street,63090,38.5563856,-91.0076451
401,East 3rd Street,63090,38.5561240,-91.0078838
1,East 5th Street,63090,38.5565486,-91.0125640
402,Jefferson Street,63090,38.5569934,-91.0123906
16,West 5th Street,63090,38.5565723,-91.0136958
20,East 5th Street,63090,38.5559160,-91.0124828
514,Jefferson Street,63090,38.5560926,-91.0131981
516,Jefferson Street,63090,38.5560343,-91.0132599
7,East 5th Street,63090,38.5564141,-91.0125761
19,East 5th Street,63090,38.5563806,-91.0123530
415,Market Street,63090,38.5564160,-91.0120246
24,East 4th Street,63090,38.5566743,-91.0117896
"16,20",East 4th Street,63090,38.5567692,-91.0120090
10,East 4th Street,63090,38.5568702,-91.0121494
8,East 4th Street,63090,38.5569316,-91.0122628
113,East 4th Street,63090,38.5568432,-91.0111888
25,East 4th Street,63090,38.5569318,-91.0115791
15,East 4th Street,63090,38.5570678,-91.0118373
11,East 4th Street,63090,38.5571337,-91.0119404
309,Market Street,63090,38.5572726,-91.0113372
513,Jefferson Street,63090,38.5562065,-91.0135863
521,Jefferson Street,63090,38.5560454,-91.0136641
214,West 5th Street,63090,38.5568924,-91.0156469
526,Elm Street,63090,38.5562740,-91.0158138
401,Lafayette Street,63090,38.5576588,-91.0136236
407,Lafayette Street,63090,38.5575073,-91.0137507
1118,Horn Street,63090,38.5573855,-91.0288206
1116,Horn Street,63090,38.5574273,-91.0285827
1116,Parkside Drive,63090,38.5563432,-91.0288633
1115,Louis Street,63090,38.5568268,-91.0288270
1113,Parkside Drive,63090,38.5568693,-91.0285496
1111,Parkside Drive,63090,38.5569405,-91.0282982
1114,Parkside Drive,63090,38.5564519,-91.0286025
1112,Parkside Drive,63090,38.5565211,-91.0282953
1110,Parkside Drive,63090,38.5565357,-91.0280230
1109,Parkside Drive,63090,38.5569460,-91.0280258
1108,Parkside Drive,63090,38.5567590,-91.0278936
"417,419",Louis Street,63090,38.5562313,-91.0293615
"423,425",Louis Street,63090,38.5559643,-91.0293630
608,Riverview Place,63090,38.5551956,-91.0044173
1133,North Park Drive,63090,38.5672003,-91.0272736
1141,North Park Drive,63090,38.5674851,-91.0286258
2207,Highway A,63090,38.5322355,-91.0231653
406,East 2nd Street,63090,38.5563196,-91.0071492
408,East 2nd Street,63090,38.5562890,-91.0069611
407,East 2nd Street,63090,38.5566344,-91.0068274
411,East 2nd Street,63090,38.5565593,-91.0066669
415,Burnside Street,63090,38.5564770,-91.0064869
205,Burnside Street,63090,38.5560196,-91.0068635
128,Burnside Street,63090,38.5563080,-91.0061247
130,Burnside Street,63090,38.5561873,-91.0062090
132,Burnside Street,63090,38.5560673,-91.0062951
126,Burnside Street,63090,38.5564259,-91.0060390
124,Burnside Street,63090,38.5565464,-91.0059493
122,Burnside Street,63090,38.5566672,-91.0058639
8,Burnside Street,63090,38.5568906,-91.0056924
10,Burnside Street,63090,38.5567720,-91.0057742
2,Burnside Street,63090,38.5572600,-91.0054092
4,Burnside Street,63090,38.5571482,-91.0055174
6,Burnside Street,63090,38.5570311,-91.0056139
"119,121",Burnside Street,63090,38.5568981,-91.0063162
123,Burnside Street,63090,38.5567153,-91.0064000
"9,11",Burnside Street,63090,38.5570735,-91.0061344
"5,7",Burnside Street,63090,38.5572638,-91.0059991
"1,3",Burnside Street,63090,38.5574802,-91.0059203
405,East 3rd Street,63090,38.5560333,-91.0076035
411,East 3rd Street,63090,38.5559711,-91.0073827
413,East 3rd Street,63090,38.5558886,-91.0071837
419,East 3rd Street,63090,38.5558149,-91.0069781
414,East 3rd Street,63090,38.5554368,-91.0072486
412,East 3rd Street,63090,38.5555564,-91.0074730
408,East 3rd Street,63090,38.5556258,-91.0077051
404,East 3rd Street,63090,38.5558140,-91.0079517
406,East 3rd Street,63090,38.5556947,-91.0078635
308,Burnside Street,63090,38.5550892,-91.0070254
309,Burnside Street,63090,38.5552324,-91.0073930
311,Burnside Street,63090,38.5551160,-91.0074848
310,Burnside Street,63090,38.5549619,-91.0070956
312,Burnside Street,63090,38.5548416,-91.0072052
314,Burnside Street,63090,38.5547237,-91.0072886
18,East 11th Street,63090,38.5498437,-91.0131733
1000,Locust Street,63090,38.5497234,-91.0126801
301,East 11th Street,63090,38.5501349,-91.0125228
305,East 11th Street,63090,38.5501403,-91.0122991
304,East 11th Street,63090,38.5497826,-91.0124399
308,East 11th Street,63090,38.5497845,-91.0122291
312,East 11th Street,63090,38.5497749,-91.0119991
401,East 11th Street,63090,38.5502051,-91.0121072
404,East 11th Street,63090,38.5500456,-91.0116778
400,East 11th Street,63090,38.5499151,-91.0118360
409,East 11th Street,63090,38.5505188,-91.0118611
405,East 11th Street,63090,38.5503542,-91.0119778
408,East 11th Street,63090,38.5502050,-91.0115676
1000,Locust Street,63090,38.5507936,-91.0122692
1004,Locust Street,63090,38.5506170,-91.0123218
1008,Locust Street,63090,38.5504376,-91.0123964
1701,East Rose Lane,63090,38.5421030,-90.9912026
400,Walnut Street,63090,38.5560550,-91.0105427
409,Walnut Street,63090,38.5560514,-91.0110566
200,East 5th Street,63090,38.5553186,-91.0112553
127,East 4th Street,63090,38.5565292,-91.0107735
115,East 4th Street,63090,38.5566747,-91.0110487
119,East 4th Street,63090,38.5565932,-91.0108959
118,East 4th Street,63090,38.5563274,-91.0110822
120,East 4th Street,63090,38.5562079,-91.0108921
"530,532,534,536",West Front Street,63090,38.5636492,-91.0169423
"522,524,526,528",West Front Street,63090,38.5634382,-91.0165108
300,West 3rd Street,63090,38.5595243,-91.0152457
301,Cedar Street,63090,38.5597417,-91.0157018
401,West 3rd Street,63090,38.5598311,-91.0158357
410,West 3rd Street,63090,38.5600119,-91.0162542
1978,Image Drive,63090,38.5478084,-91.0210468
1106,Cherry Lane,63090,38.5485505,-91.0204255
1104,Cherry Lane,63090,38.5487793,-91.0204093
603,Ridgeview Drive,63090,38.5497615,-91.0203245
604,Ridgeview Drive,63090,38.5494130,-91.0203535
1102,Cherry Lane,63090,38.5491200,-91.0204293
1103,Cherry Lane,63090,38.5489336,-91.0209071
705,Ron Avenue,63090,38.5487454,-91.0215029
703,Ron Avenue,63090,38.5486833,-91.0212509
701,Ron Avenue,63090,38.5485826,-91.0209407
711,Ron Avenue,63090,38.5490286,-91.0223471
709,Ron Avenue,63090,38.5489252,-91.0220258
707,Ron Avenue,63090,38.5488288,-91.0217520
715,Ron Avenue,63090,38.5491458,-91.0226758
714,Ron Avenue,63090,38.5485053,-91.0220542
716,Ron Avenue,63090,38.5486339,-91.0224108
805,Ron Avenue,63090,38.5493950,-91.0234408
801,Ron Avenue,63090,38.5492301,-91.0229796
804,Ron Avenue,63090,38.5489818,-91.0234488
802,Ron Avenue,63090,38.5488898,-91.0231701
806,Ron Avenue,63090,38.5490208,-91.0236501
808,Ron Avenue,63090,38.5491266,-91.0239208
41,Tiffany Lane,63090,38.5487398,-91.0229130
2812,Thoroughbred Drive,63090,38.5269704,-90.9738552
"519,521",Cottage Park Lane,63090,38.5627384,-91.0170670
"515,517",Cottage Park Lane,63090,38.5626356,-91.0168608
"511,513",Cottage Park Lane,63090,38.5625242,-91.0166459
"507,509",Cottage Park Lane,63090,38.5624354,-91.0164120
101,Dawn Drive,63090,38.5339893,-91.0076428
208,State Street,63090,38.5626427,-91.0261133
204,State Street,63090,38.5628684,-91.0259277
1010,Esther Street,63090,38.5630310,-91.0255972
1152,Circle Drive,63090,38.5632823,-91.0240290
1209,West 9th Street,63090,38.5532396,-91.0295431
251,Westlink Drive,63090,38.5691887,-91.0411350
18,Mike Alan Drive,63090,38.5340969,-90.9889326
4983,South Point Road,63090,38.5241797,-90.9755077
201,Valley Drive,63090,38.5347100,-91.0085817
898,Vossbrink Drive,63090,38.5690384,-91.0742652
907,Esther Street,63090,38.5628606,-91.0245075
1008,Esther Street,63090,38.5629100,-91.0253946
205,Fair Street,63090,38.5625603,-91.0253409
203,Fair Street,63090,38.5626895,-91.0252598
204,Fair Street,63090,38.5625353,-91.0249297
202,Fair Street,63090,38.5626293,-91.0248444
906,Esther Street,63090,38.5625438,-91.0245923
244,State Street,63090,38.5624174,-91.0263327
270,State Street,63090,38.5616271,-91.0265347
268,State Street,63090,38.5617983,-91.0264972
250,State Street,63090,38.5621472,-91.0264882
"301,303",State Street,63090,38.5611880,-91.0269316
1015,West 3rd Street,63090,38.5614026,-91.0264068
210,High Street,63090,38.5634507,-91.0228666
210,High Street,63090,38.5633888,-91.0230005
221,High Street,63090,38.5630204,-91.0237276
1,Le Menagerie Lane,63090,38.5638309,-91.0358057
201,East 5th Street,63090,38.5557781,-91.0121539
104,East 6th Street,63090,38.5550863,-91.0127432
28,East 6th Street,63090,38.5552601,-91.0130297
110,East 5th Street,63090,38.5557194,-91.0119389
111,East 6th Street,63090,38.5552756,-91.0123397
124,East 5th Street,63090,38.5556157,-91.0117664
128,East 5th Street,63090,38.5555246,-91.0116517
130,East 5th Street,63090,38.5554671,-91.0115215
523,Walnut Street,63090,38.5552086,-91.0117605
110,East 6th Street,63090,38.5550082,-91.0125451
115,East 6th Street,63090,38.5551686,-91.0121721
121,East 6th Street,63090,38.5550631,-91.0119367
201,East 6th Street,63090,38.5549033,-91.0115914
205,East 6th Street,63090,38.5547999,-91.0113909
202,East 5th Street,63090,38.5552616,-91.0111027
301,East 5th Street,63090,38.5551379,-91.0099186
800,Crestview Drive,63090,38.5414955,-91.0046318
1505,Zero Avenue,63090,38.5425558,-91.0053442
"401,405",Hill Street,63090,38.5562397,-91.0298842
"409,413",Hill Street,63090,38.5561680,-91.0302205
"417,421",Hill Street,63090,38.5561428,-91.0304937
"425,429",Hill Street,63090,38.5561260,-91.0307753
"433,437",Hill Street,63090,38.5560635,-91.0310530
"441,445",Hill Street,63090,38.5559090,-91.0312818
"449,453",Hill Street,63090,38.5556957,-91.0313900
"408,412",Hill Street,63090,38.5557218,-91.0300132
"416,420",Hill Street,63090,38.5557258,-91.0303239
"424,428",Hill Street,63090,38.5556992,-91.0305960
"432,436",Hill Street,63090,38.5555577,-91.0308385
"400,404",Hill Street,63090,38.5557915,-91.0296983
1320,West 5th Street,63090,38.5549376,-91.0315146
1330,West 5th Street,63090,38.5549408,-91.0318339
1404,West 5th Street,63090,38.5550351,-91.0330059
1515,West 5th Street,63090,38.5560239,-91.0355501
1511,West 5th Street,63090,38.5559325,-91.0351111
501,East 11th Street,63090,38.5507475,-91.0115766
505,East 11th Street,63090,38.5507358,-91.0113387
500,East 11th Street,63090,38.5503859,-91.0113887
504,East 11th Street,63090,38.5502429,-91.0110614
513,East 11th Street,63090,38.5506206,-91.0109049
509,East 11th Street,63090,38.5507187,-91.0111158
517,East 11th Street,63090,38.5505127,-91.0107370
521,East 11th Street,63090,38.5503636,-91.0106028
525,East 11th Street,63090,38.5501521,-91.0104468
529,East 11th Street,63090,38.5500095,-91.0102868
512,East 11th Street,63090,38.5496780,-91.0104901
516,East 11th Street,63090,38.5495941,-91.0102975
520,East 11th Street,63090,38.5494835,-91.0100893
524,East 11th Street,63090,38.5494901,-91.0098656
532,East 11th Street,63090,38.5495259,-91.0094177
528,East 11th Street,63090,38.5495249,-91.0096446
533,East 11th Street,63090,38.5499115,-91.0100869
537,East 11th Street,63090,38.5498563,-91.0098439
28,Old Orchard Court,63090,38.5500031,-91.0108526
35,Old Orchard Court,63090,38.5496174,-91.0107407
33,Old Orchard Court,63090,38.5494733,-91.0112027
34,Old Orchard Court,63090,38.5495372,-91.0109793
32,Old Orchard Court,63090,38.5495353,-91.0114456
31,Old Orchard Court,63090,38.5497250,-91.0114990
30,Old Orchard Court,63090,38.5498958,-91.0113094
29,Old Orchard Court,63090,38.5499298,-91.0110671
25,Jade Lane,63090,38.5482092,-91.0220951
24,Jade Lane,63090,38.5480110,-91.0222012
9,Jade Lane,63090,38.5483705,-91.0215419
10,Jade Lane,63090,38.5481818,-91.0216286
11,Jade Lane,63090,38.5479797,-91.0217321
12,Jade Lane,63090,38.5477742,-91.0218394
23,Jade Lane,63090,38.5477978,-91.0223078
13,Jade Lane,63090,38.5475690,-91.0219517
22,Jade Lane,63090,38.5475948,-91.0224026
14,Jade Lane,63090,38.5473519,-91.0220484
21,Jade Lane,63090,38.5473994,-91.0225422
19,Jade Lane,63090,38.5470000,-91.0227249
20,Jade Lane,63090,38.5472020,-91.0226599
18,Jade Lane,63090,38.5468160,-91.0226229
17,Jade Lane,63090,38.5468073,-91.0223527
15,Jade Lane,63090,38.5471495,-91.0221394
16,Jade Lane,63090,38.5469383,-91.0221757
1459,West 5th Street,63090,38.5561344,-91.0330536
603,Meadowlark Drive,63090,38.5505065,-91.0199209
605,Meadowlark Drive,63090,38.5505802,-91.0202792
602,Meadowlark Drive,63090,38.5500820,-91.0203391
923,Stafford Street,63090,38.5504747,-91.0196255
921,Stafford Street,63090,38.5507828,-91.0196371
1,Lakebrink Terrace,63090,38.5681411,-91.0280441
1264,West Main Street,63090,38.5679867,-91.0271896
500,West Front Street,63090,38.5638563,-91.0190404
118,Stafford Street,63090,38.5630551,-91.0187042
549,West 2nd Street,63090,38.5627875,-91.0184723
547,West 2nd Street,63090,38.5626953,-91.0182981
541,West 2nd Street,63090,38.5625965,-91.0181304
"521,523",West 2nd Street,63090,38.5624160,-91.0176692
"517,519",West 2nd Street,63090,38.5623109,-91.0174641
"513,515",West 2nd Street,63090,38.5622046,-91.0172714
"509,511",West 2nd Street,63090,38.5620959,-91.0170581
"505,507",Cottage Park Lane,63090,38.5619935,-91.0168592
"501,503",West 2nd Street,63090,38.5618935,-91.0166502
1060,Washington Square Center,63090,38.5371653,-91.0036512
1080,Washington Square Center,63090,38.5375702,-91.0036142
770,Vossbrink Drive,63090,38.5703863,-91.0717858
16,Brookshire Lane,63090,38.5350326,-91.0020368
404,Oak Street,63090,38.5576686,-91.0143967
1701,West Main Street,63090,38.5731059,-91.0369168
1501,High Street,63090,38.5437110,-91.0261691
25,Town and Country Drive,63090,38.5290832,-91.0146129
1890,East 9th Street,63090,38.5424783,-90.9874886
1804,East 5th Street,63090,38.5458553,-90.9872863
901,East 5th Street,63090,38.5526237,-91.0015886
