House number,Street name,Postal code,Latitude,Longitude
5911,S. Hwy  94,63304,38.7181049,-90.6760627
777,Independence Road,63304,38.7185807,-90.6697587
1048,Wolfrum Road,63304,38.7302475,-90.6440737
1062,Wolfrum Road,63304,38.7303984,-90.6439194
1011,Wolfrum Road,63304,38.7285742,-90.6453710
1009,Wolfrum Road,63304,38.7285286,-90.6453605
1031,Wolfrum Road,63304,38.7290385,-90.6454777
1029,Wolfrum Road,63304,38.7289996,-90.6454688
1027,Wolfrum Road,63304,38.7289481,-90.6454569
1025,Wolfrum Road,63304,38.7288970,-90.6454452
1057,Wolfrum Road,63304,38.7295939,-90.6446680
1055,Wolfrum Road,63304,38.7295152,-90.6448681
1053,Wolfrum Road,63304,38.7295566,-90.6447628
1051,Wolfrum Road,63304,38.7294851,-90.6449445
1045,Wolfrum Road,63304,38.7293833,-90.6452034
1043A,Wolfrum Road,63304,38.7293489,-90.6452910
1041,Wolfrum Road,63304,38.7292843,-90.6454551
1049,Wolfrum Road,63304,38.7294570,-90.6450161
1023,Wolfrum Road,63304,38.7288496,-90.6454343
1021,Wolfrum Road,63304,38.7288012,-90.6454231
1005,Wolfrum Road,63304,38.7284476,-90.6453418
1015,Wolfrum Road,63304,38.7286583,-90.6453903
1013,Wolfrum Road,63304,38.7286186,-90.6453812
1039,Wolfrum Road,63304,38.7292139,-90.6455181
1037,Wolfrum Road,63304,38.7291690,-90.6455077
1047,Wolfrum Road,63304,38.7294227,-90.6451031
1007,Wolfrum Road,63304,38.7284766,-90.6453485
1019,Wolfrum Road,63304,38.7287425,-90.6454097
1017,Wolfrum Road,63304,38.7286966,-90.6453991
1035,Wolfrum Road,63304,38.7291259,-90.6454978
1033,Wolfrum Road,63304,38.7290782,-90.6454869
1043,Wolfrum Road,63304,38.7293194,-90.6453658
1110,Wolfrum Road,63304,38.7306587,-90.6425507
1112,Wolfrum Road,63304,38.7306721,-90.6424804
1114,Wolfrum Road,63304,38.7306860,-90.6424067
1116,Wolfrum Road,63304,38.7307095,-90.6422834
1096,Wolfrum Road,63304,38.7305705,-90.6430157
1078,Wolfrum Road,63304,38.7304855,-90.6434634
1068,Wolfrum Road,63304,38.7304373,-90.6437173
1104,Wolfrum Road,63304,38.7306316,-90.6426936
1070,Wolfrum Road,63304,38.7304483,-90.6436595
1066,Wolfrum Road,63304,38.7304288,-90.6437620
1064,Wolfrum Road,63304,38.7304146,-90.6438369
1102,Wolfrum Road,63304,38.7306167,-90.6427719
1100,Wolfrum Road,63304,38.7305956,-90.6428831
1090,Wolfrum Road,63304,38.7305390,-90.6431817
1088,Wolfrum Road,63304,38.7305252,-90.6432540
1040,Wolfrum Road,63304,38.7300745,-90.6440191
1030,Wolfrum Road,63304,38.7298386,-90.6439447
1052,Wolfrum Road,63304,38.7303230,-90.6439965
1044,Wolfrum Road,63304,38.7301864,-90.6440544
1042,Wolfrum Road,63304,38.7301343,-90.6440379
1106,Wolfrum Road,63304,38.7306443,-90.6426265
1098,Wolfrum Road,63304,38.7305861,-90.6429334
1092,Wolfrum Road,63304,38.7305555,-90.6430948
1086,Wolfrum Road,63304,38.7304987,-90.6433940
1072,Wolfrum Road,63304,38.7304631,-90.6435815
1074,Wolfrum Road,63304,38.7304723,-90.6435327
1000,Wolfrun Road,63304,38.7291095,-90.6437240
1002,Wolfrun Road,63304,38.7284008,-90.6443889
5244,Roanoke Drive,63304,38.7221591,-90.6467010
5248,Roanoke Drive,63304,38.7218476,-90.6466297
5296,Roanoke Drive,63304,38.7179551,-90.6455435
5256,Roanoke Drive,63304,38.7212574,-90.6464882
5265,Roanoke Drive,63304,38.7208847,-90.6458776
5289,Roanoke Drive,63304,38.7187438,-90.6451601
5285,Roanoke Drive,63304,38.7192949,-90.6454864
5280,Roanoke Drive,63304,38.7195193,-90.6461059
5276,Roanoke Drive,63304,38.7198293,-90.6461739
5200,Roanoke Drive,63304,38.7235982,-90.6433115
5281,Roanoke Drive,63304,38.7196665,-90.6455823
5293,Roanoke Drive,63304,38.7182775,-90.6452711
5284,Roanoke Drive,63304,38.7190708,-90.6460648
5288,Roanoke Drive,63304,38.7185838,-90.6459297
5272,Roanoke Drive,63304,38.7201142,-90.6462557
5224,Roanoke Drive,63304,38.7229536,-90.6454758
5225,Roanoke Drive,63304,38.7225266,-90.6453421
5268,Roanoke Drive,63304,38.7204109,-90.6463273
5208,Roanoke Drive,63304,38.7233809,-90.6440362
5241,Roanoke Drive,63304,38.7219806,-90.6460766
5264,Roanoke Drive,63304,38.7207208,-90.6464007
5249,Roanoke Drive,63304,38.7216565,-90.6460557
5220,Roanoke Drive,63304,38.7230348,-90.6450751
5233,Roanoke Drive,63304,38.7224250,-90.6458303
5257,Roanoke Drive,63304,38.7213687,-90.6459776
5216,Roanoke Drive,63304,38.7231332,-90.6447458
5261,Roanoke Drive,63304,38.7211460,-90.6459183
5204,Roanoke Drive,63304,38.7235176,-90.6436256
5252,Roanoke Drive,63304,38.7215894,-90.6465786
5240,Roanoke Drive,63304,38.7225046,-90.6468479
5232,Roanoke Drive,63304,38.7227466,-90.6461256
5217,Roanoke Drive,63304,38.7227019,-90.6446482
5236,Roanoke Drive,63304,38.7226893,-90.6465250
5213,Roanoke Drive,63304,38.7228532,-90.6440553
5212,Roanoke Drive,63304,38.7232502,-90.6443525
5292,Roanoke Drive,63304,38.7181509,-90.6460062
5260,Roanoke Drive,63304,38.7210381,-90.6464248
5201,Roanoke Drive,63304,38.7230481,-90.6433414
5228,Roanoke Drive,63304,38.7228387,-90.6458175
5733,Westwood Drive,63304,38.7201026,-90.6702349
5761,Westwood Drive,63304,38.7189480,-90.6719471
5655,Westwood Drive,63304,38.7233507,-90.6665214
5745,Westwood Drive,63304,38.7197633,-90.6708570
5781,Westwood Drive,63304,38.7201220,-90.6713951
5651,Westwood Drive,63304,38.7224540,-90.6667624
5144,Westwood Drive,63304,38.7310004,-90.6425980
5753,Westwood Drive,63304,38.7194094,-90.6713072
5765,Westwood Drive,63304,38.7190386,-90.6718180
804,O'Fallon Road,63304,38.7179900,-90.6732703
1123,O'Fallon Road,63304,38.7261329,-90.6795368
991,O'Fallon Road,63304,38.7245333,-90.6785486
1101,O'Fallon Road,63304,38.7253261,-90.6790596
1003,O'Fallon Road,63304,38.7250960,-90.6788665
800,O'Fallon Road,63304,38.7183087,-90.6729494
919,O'Fallon Road,63304,38.7221802,-90.6771502
947,O'Fallon Road,63304,38.7227629,-90.6783347
977,O'Fallon Road,63304,38.7240405,-90.6783975
828,O'Fallon Road,63304,38.7203411,-90.6725544
1113,O'Fallon Road,63304,38.7256310,-90.6791517
927,O'Fallon Road,63304,38.7227029,-90.6775026
813,O'Fallon Road,63304,38.7185163,-90.6743126
967,O'Fallon Road,63304,38.7235431,-90.6780835
901,O'Fallon Road,63304,38.7217383,-90.6768633
810,O'Fallon Road,63304,38.7185370,-90.6732239
825,O'Fallon Road,63304,38.7199454,-90.6767944
550,Technology Drive,63304,38.7099700,-90.6774071
450,Technology Drive,63304,38.7066094,-90.6730599
6219,Highway 94,63304,38.7142506,-90.6874538
6223,Highway 94,63304,38.7141085,-90.6876608
6001,Highway 94,63304,38.7141441,-90.6799718
5991,Highway 94,63304,38.7147624,-90.6777829
6121,Highway 94,63304,38.7148880,-90.6853298
5940,Highway 94,63304,38.7141002,-90.6763879
5911,Highway 94,63304,38.7181324,-90.6758984
6145,Highway 94,63304,38.7144960,-90.6860285
6147,Highway 94,63304,38.7146550,-90.6864640
6000,Highway 94,63304,38.7132527,-90.6786318
6002,Highway 94,63304,38.7130127,-90.6782483
394,Patriotic Trail,63304,38.7033657,-90.6619895
421,Patriotic Trail,63304,38.7046787,-90.6650475
399,Patriotic Trail,63304,38.7037314,-90.6649046
440,Patriotic Trail,63304,38.7054279,-90.6629543
391,Patriotic Trail,63304,38.7018548,-90.6630960
390,Patriotic Trail,63304,38.7024332,-90.6611015
420,Wolfrum Road,63304,38.7059448,-90.6412183
48,Wolfrum Road,63304,38.7039747,-90.6723228
623,Wolfrum Road,63304,38.7137733,-90.6433795
552,Wolfrum Road,63304,38.7055127,-90.6313604
202,Wolfrum Road,63304,38.7058922,-90.6588764
475,Wolfrum Road,63304,38.7083268,-90.6427465
595,Wolfrum Road,63304,38.7113501,-90.6441472
198,Wolfrum Road,63304,38.7005005,-90.6687316
211,Wolfrum Road,63304,38.6943070,-90.6645876
609,Wolfrum Road,63304,38.7126971,-90.6447848
653,Wolfrum Road,63304,38.7170443,-90.6419788
297,Wolfrum Road,63304,38.7020459,-90.6532239
300,Wolfrum Road,63304,38.7054631,-90.6537140
421,Wolfrum Road,63304,38.7016907,-90.6489280
460,Old Wolfrum Road,63304,38.6946257,-90.6467085
555,Old Wolfrum Road,63304,38.7030622,-90.6455151
421,Old Wolfrum Road,63304,38.6941503,-90.6477188
470,Old Wolfrum Road,63304,38.6964091,-90.6459272
545,Old Wolfrum Road,63304,38.7038555,-90.6425503
418,Old Wolfrum Road,63304,38.6958919,-90.6406387
4480,Greens Bottom Road,63304,38.7039233,-90.6094066
4420,Towers Road,63304,38.7211295,-90.6183812
5159,Rosemount Drive,63304,38.7208814,-90.6385042
5172,Rosemount Drive,63304,38.7202079,-90.6370218
5168,Rosemount Drive,63304,38.7206253,-90.6372350
5151,Rosemount Drive,63304,38.7205983,-90.6404049
5190,Rosemount Drive,63304,38.7182211,-90.6395133
5192,Rosemount Drive,63304,38.7181469,-90.6399919
5188,Rosemount Drive,63304,38.7182889,-90.6391271
5181,Rosemount Drive,63304,38.7186300,-90.6373628
5180,Rosemount Drive,63304,38.7190575,-90.6376090
5153,Rosemount Drive,63304,38.7207180,-90.6397447
5143,Rosemount Drive,63304,38.7197545,-90.6415016
5179,Rosemount Drive,63304,38.7187834,-90.6371779
5164,Rosemount Drive,63304,38.7205931,-90.6379325
5149,Rosemount Drive,63304,38.7204873,-90.6407557
5145,Rosemount Drive,63304,38.7200263,-90.6414695
5178,Rosemount Drive,63304,38.7193798,-90.6371570
5171,Rosemount Drive,63304,38.7199496,-90.6365075
5173,Rosemount Drive,63304,38.7196248,-90.6363881
5191,Rosemount Drive,63304,38.7178173,-90.6396976
5167,Rosemount Drive,63304,38.7206167,-90.6366534
5169,Rosemount Drive,63304,38.7203355,-90.6365474
5193,Rosemount Drive,63304,38.7176914,-90.6401142
5176,Rosemount Drive,63304,38.7198115,-90.6369962
5131,Rosemount Drive,63304,38.7179900,-90.6410836
5187,Rosemount Drive,63304,38.7180867,-90.6382388
5197,Rosemount Drive,63304,38.7175362,-90.6410571
5189,Rosemount Drive,63304,38.7179089,-90.6391236
5199,Rosemount Drive,63304,38.7175153,-90.6414120
5135,Rosemount Drive,63304,38.7185800,-90.6411842
5195,Rosemount Drive,63304,38.7176035,-90.6404966
5133,Rosemount Drive,63304,38.7183427,-90.6411270
5165,Rosemount Drive,63304,38.7208931,-90.6369364
5194,Rosemount Drive,63304,38.7180466,-90.6403599
5185,Rosemount Drive,63304,38.7182477,-90.6378881
5137,Rosemount Drive,63304,38.7188744,-90.6412913
5163,Rosemount Drive,63304,38.7210503,-90.6373830
5155,Rosemount Drive,63304,38.7208363,-90.6394198
5175,Rosemount Drive,63304,38.7193293,-90.6365255
5186,Rosemount Drive,63304,38.7183977,-90.6386806
5157,Rosemount Drive,63304,38.7209284,-90.6389409
5139,Rosemount Drive,63304,38.7191660,-90.6412918
5154,Rosemount Drive,63304,38.7202524,-90.6400271
5150,Rosemount Drive,63304,38.7201421,-90.6405662
5177,Rosemount Drive,63304,38.7190759,-90.6368485
5147,Rosemount Drive,63304,38.7203108,-90.6411702
5184,Rosemount Drive,63304,38.7185056,-90.6381330
5141,Rosemount Drive,63304,38.7194692,-90.6414403
5183,Rosemount Drive,63304,38.7184291,-90.6376029
5146,Rosemount Drive,63304,38.7198122,-90.6409578
5182,Rosemount Drive,63304,38.7188638,-90.6377847
870,Whitmoor Drive,63304,38.7220547,-90.6259047
1195,Whitmoor Drive,63304,38.7141412,-90.6418941
972,Whitmoor Drive,63304,38.7183448,-90.6260275
1146,Whitmoor Drive,63304,38.7126896,-90.6364490
886,Whitmoor Drive,63304,38.7209257,-90.6261939
1198,Whitmoor Drive,63304,38.7148197,-90.6408975
980,Whitmoor Drive,63304,38.7178441,-90.6258633
894,Whitmoor Drive,63304,38.7202523,-90.6263050
1142,Whitmoor Drive,63304,38.7126679,-90.6360753
991,Whitmoor Drive,63304,38.7169921,-90.6247213
1187,Whitmoor Drive,63304,38.7140009,-90.6412588
1059,Whitmoor Drive,63304,38.7106481,-90.6254945
1191,Whitmoor Drive,63304,38.7138865,-90.6416545
1147,Whitmoor Drive,63304,38.7120546,-90.6366718
1060,Whitmoor Drive,63304,38.7111136,-90.6254751
1179,Whitmoor Drive,63304,38.7135806,-90.6402735
1183,Whitmoor Drive,63304,38.7137375,-90.6407928
1029,Whitmoor Drive,63304,38.7125025,-90.6238129
987,Whitmoor Drive,63304,38.7174123,-90.6246286
1049,Whitmoor Drive,63304,38.7107496,-90.6249362
1080,Whitmoor Drive,63304,38.7115714,-90.6268499
1050,Whitmoor Drive,63304,38.7111559,-90.6251181
1100,Whitmoor Drive,63304,38.7135618,-90.6290441
961,Whitmoor Drive,63304,38.7192798,-90.6257226
1066,Whitmoor Drive,63304,38.7111516,-90.6258066
1171,Whitmoor Drive,63304,38.7131990,-90.6394677
1167,Whitmoor Drive,63304,38.7129932,-90.6392022
932,Whitmoor Drive,63304,38.7195483,-90.6264647
977,Whitmoor Drive,63304,38.7180797,-90.6253478
973,Whitmoor Drive,63304,38.7183809,-90.6254928
1155,Whitmoor Drive,63304,38.7122787,-90.6377859
1163,Whitmoor Drive,63304,38.7127018,-90.6389287
969,Whitmoor Drive,63304,38.7186309,-90.6256588
866,Whitmoor Drive,63304,38.7223919,-90.6257957
895,Whitmoor Drive,63304,38.7202812,-90.6257930
859,Whitmoor Drive,63304,38.7228501,-90.6251412
871,Whitmoor Drive,63304,38.7219048,-90.6253851
858,Whitmoor Drive,63304,38.7230566,-90.6257075
1025,Whitmoor Drive,63304,38.7132263,-90.6241679
878,Whitmoor Drive,63304,38.7215025,-90.6260079
1131,Whitmoor Drive,63304,38.7122292,-90.6347598
1127,Whitmoor Drive,63304,38.7122261,-90.6343430
855,Whitmoor Drive,63304,38.7230507,-90.6251127
1111,Whitmoor Drive,63304,38.7125936,-90.6324420
1150,Whitmoor Drive,63304,38.7126971,-90.6368893
891,Whitmoor Drive,63304,38.7205552,-90.6257055
854,Whitmoor Drive,63304,38.7232505,-90.6256789
1151,Whitmoor Drive,63304,38.7122519,-90.6371110
998,Whitmoor Drive,63304,38.7165529,-90.6252598
1123,Whitmoor Drive,63304,38.7122885,-90.6337567
847,Whitmoor Drive,63304,38.7236219,-90.6249906
879,Whitmoor Drive,63304,38.7214445,-90.6255675
1175,Whitmoor Drive,63304,38.7134744,-90.6398026
867,Whitmoor Drive,63304,38.7222808,-90.6252883
1115,Whitmoor Drive,63304,38.7123583,-90.6330625
964,Whitmoor Drive,63304,38.7190765,-90.6262668
898,Whitmoor Drive,63304,38.7199973,-90.6262968
875,Whitmoor Drive,63304,38.7216192,-90.6255153
965,Whitmoor Drive,63304,38.7189315,-90.6256136
1158,Whitmoor Drive,63304,38.7128134,-90.6380985
999,Whitmoor Drive,63304,38.7165119,-90.6245492
1007,Whitmoor Drive,63304,38.7153793,-90.6237281
985,Whitmoor Drive,63304,38.7176255,-90.6248090
1166,Whitmoor Drive,63304,38.7134003,-90.6389201
1178,Whitmoor Drive,63304,38.7139977,-90.6400875
981,Whitmoor Drive,63304,38.7177184,-90.6251734
883,Whitmoor Drive,63304,38.7210469,-90.6256588
1019,Whitmoor Drive,63304,38.7139717,-90.6241730
1154,Whitmoor Drive,63304,38.7127521,-90.6375799
1120,Whitmoor Drive,63304,38.7127225,-90.6340364
1199,Whitmoor Drive,63304,38.7143883,-90.6416691
882,Whitmoor Drive,63304,38.7212137,-90.6260960
1015,Whitmoor Drive,63304,38.7144371,-90.6240928
1174,Whitmoor Drive,63304,38.7138636,-90.6397281
1035,Whitmoor Drive,63304,38.7113372,-90.6238759
1031,Whitmoor Drive,63304,38.7119000,-90.6237319
846,Whitmoor Drive,63304,38.7238854,-90.6257016
899,Whitmoor Drive,63304,38.7199582,-90.6257994
990,Whitmoor Drive,63304,38.7169409,-90.6255287
1162,Whitmoor Drive,63304,38.7131308,-90.6384673
862,Whitmoor Drive,63304,38.7227281,-90.6258003
890,Whitmoor Drive,63304,38.7206252,-90.6262413
887,Whitmoor Drive,63304,38.7208195,-90.6256415
863,Whitmoor Drive,63304,38.7225571,-90.6251509
988,Whitmoor Drive,63304,38.7174281,-90.6256964
1135,Whitmoor Drive,63304,38.7122605,-90.6352194
1143,Whitmoor Drive,63304,38.7122182,-90.6362457
1139,Whitmoor Drive,63304,38.7122453,-90.6358012
1138,Whitmoor Drive,63304,38.7126649,-90.6357205
843,Whitmoor Drive,63304,38.7239704,-90.6250835
851,Whitmoor Drive,63304,38.7233270,-90.6250522
874,Whitmoor Drive,63304,38.7217311,-90.6259721
1069,Whitmoor Drive,63304,38.7106669,-90.6260468
850,Whitmoor Drive,63304,38.7235226,-90.6256651
611,Loughmor Pass,63304,38.7212615,-90.6238787
601,Loughmor Pass,63304,38.7195397,-90.6247239
630,Loughmor Pass,63304,38.7240762,-90.6231918
615,Loughmor Pass,63304,38.7220902,-90.6236898
605,Loughmor Pass,63304,38.7198637,-90.6245138
619,Loughmor Pass,63304,38.7225286,-90.6235728
600,Loughmor Pass,63304,38.7194243,-90.6241623
633,Loughmor Pass,63304,38.7241349,-90.6247280
631,Loughmor Pass,63304,38.7241834,-90.6243407
623,Loughmor Pass,63304,38.7231248,-90.6233954
621,Loughmor Pass,63304,38.7228528,-90.6234348
602,Loughmor Pass,63304,38.7197681,-90.6240537
609,Loughmor Pass,63304,38.7207328,-90.6239649
604,Loughmor Pass,63304,38.7201802,-90.6237495
613,Loughmor Pass,63304,38.7217033,-90.6237472
629,Loughmor Pass,63304,38.7239524,-90.6237614
628,Loughmor Pass,63304,38.7238252,-90.6229701
627,Loughmor Pass,63304,38.7237468,-90.6234979
632,Loughmor Pass,63304,38.7243593,-90.6233641
624,Loughmor Pass,63304,38.7231386,-90.6228783
626,Loughmor Pass,63304,38.7234445,-90.6228733
625,Loughmor Pass,63304,38.7234351,-90.6233975
612,Loughmor Pass,63304,38.7214402,-90.6233071
607,Loughmor Pass,63304,38.7203321,-90.6242077
614,Loughmor Pass,63304,38.7218637,-90.6232311
606,Loughmor Pass,63304,38.7205511,-90.6235838
610,Loughmor Pass,63304,38.7210666,-90.6234177
125,Osage Way,63304,38.7205493,-90.6801414
116,Osage Way,63304,38.7217143,-90.6798319
124,Osage Way,63304,38.7207445,-90.6790614
100,Osage Way,63304,38.7234369,-90.6812577
120,Osage Way,63304,38.7212666,-90.6794619
121,Osage Way,63304,38.7208628,-90.6803476
109,Osage Way,63304,38.7222668,-90.6814268
104,Osage Way,63304,38.7229261,-90.6808615
108,Osage Way,63304,38.7224486,-90.6805790
101,Osage Way,63304,38.7232076,-90.6820168
110,Osage Way,63304,38.7213073,-90.6806869
112,Osage Way,63304,38.7220560,-90.6802987
105,Osage Way,63304,38.7227486,-90.6816714
113,Osage Way,63304,38.7216923,-90.6810331
120,Cedar Junction Lane,63304,38.7107158,-90.6369207
130,Cedar Junction Lane,63304,38.7101820,-90.6388895
140,Cedar Junction Lane,63304,38.7099339,-90.6406361
160,Cedar Junction Lane,63304,38.7092777,-90.6395085
1213,Grey Fox Run,63304,38.7109134,-90.6393941
1229,Grey Fox Run,63304,38.7126180,-90.6417698
1224,Grey Fox Run,63304,38.7120233,-90.6408665
1222,Grey Fox Run,63304,38.7116792,-90.6406837
1225,Grey Fox Run,63304,38.7119449,-90.6414512
1227,Grey Fox Run,63304,38.7123138,-90.6416479
1211,Grey Fox Run,63304,38.7110055,-90.6389957
1219,Grey Fox Run,63304,38.7109835,-90.6407325
1217,Grey Fox Run,63304,38.7108564,-90.6403743
1221,Grey Fox Run,63304,38.7112473,-90.6411019
1226,Grey Fox Run,63304,38.7123212,-90.6410771
1231,Grey Fox Run,63304,38.7130206,-90.6419571
1204,Grey Fox Run,63304,38.7115477,-90.6385879
1200,Grey Fox Run,63304,38.7123911,-90.6384305
1202,Grey Fox Run,63304,38.7119020,-90.6383436
1210,Grey Fox Run,63304,38.7113697,-90.6394497
1215,Grey Fox Run,63304,38.7108563,-90.6399374
1223,Grey Fox Run,63304,38.7116107,-90.6412728
1205,Grey Fox Run,63304,38.7114999,-90.6379257
1203,Grey Fox Run,63304,38.7118368,-90.6378448
300,Breeze Park Drive,63304,38.7237918,-90.6549206
600,Breeze Park Drive,63304,38.7233307,-90.6563411
300,Breeze Park Drive,63304,38.7238187,-90.6549629
600,Breeze Park Drive,63304,38.7233003,-90.6562923
600,Breeze Park Drive,63304,38.7232641,-90.6562314
300,Breeze Park Drive,63304,38.7238420,-90.6550052
600,Breeze Park Drive,63304,38.7232280,-90.6561802
300,Breeze Park Drive,63304,38.7238578,-90.6550397
300,Breeze Park Drive,63304,38.7238958,-90.6550711
600,Breeze Park Drive,63304,38.7231956,-90.6561315
600,Breeze Park Drive,63304,38.7231308,-90.6561362
300,Breeze Park Drive,63304,38.7239166,-90.6551149
600,Breeze Park Drive,63304,38.7232417,-90.6558906
300,Breeze Park Drive,63304,38.7238635,-90.6554122
600,Breeze Park Drive,63304,38.7233007,-90.6559905
300,Breeze Park Drive,63304,38.7238316,-90.6554356
600,Breeze Park Drive,63304,38.7232815,-90.6560586
300,Breeze Park Drive,63304,38.7237984,-90.6554622
600,Breeze Park Drive,63304,38.7233349,-90.6560904
300,Breeze Park Drive,63304,38.7237653,-90.6554981
600,Breeze Park Drive,63304,38.7233462,-90.6561659
300,Breeze Park Drive,63304,38.7237370,-90.6555231
300,Breeze Park Drive,63304,38.7236782,-90.6555135
600,Breeze Park Drive,63304,38.7233748,-90.6562170
600,Breeze Park Drive,63304,38.7234167,-90.6562536
600,Breeze Park Drive,63304,38.7234280,-90.6563340
600,Breeze Park Drive,63304,38.7228399,-90.6566611
516,Breeze View Lane,63304,38.7226507,-90.6546829
600,Breeze Park Drive,63304,38.7235024,-90.6563196
514,Breeze View Lane,63304,38.7226872,-90.6545945
600,Breeze Park Drive,63304,38.7235444,-90.6562758
600,Breeze Park Drive,63304,38.7235902,-90.6562394
512,Breeze View Lane,63304,38.7227239,-90.6544829
718,Breeze Park Drive,63304,38.7212999,-90.6585110
600,Breeze Park Drive,63304,38.7237105,-90.6561301
510,Breeze View Lane,63304,38.7227495,-90.6544224
716,Breeze Park Drive,63304,38.7213584,-90.6584320
600,Breeze Park Drive,63304,38.7237601,-90.6560937
714,Breeze Park Drive,63304,38.7214095,-90.6583623
600,Breeze Park Drive,63304,38.7237679,-90.6560110
712,Breeze Park Drive,63304,38.7214497,-90.6583019
600,Breeze Park Drive,63304,38.7237298,-90.6559647
710,Breeze Park Drive,63304,38.7215009,-90.6582275
600,Breeze Park Drive,63304,38.7237012,-90.6559110
708,Breeze Park Drive,63304,38.7215630,-90.6581485
600,Breeze Park Drive,63304,38.7236727,-90.6558623
656,Breeze Park Drive,63304,38.7216799,-90.6579905
600,Breeze Park Drive,63304,38.7236461,-90.6558136
654,Breeze Park Drive,63304,38.7217201,-90.6578928
600,Breeze Park Drive,63304,38.7237282,-90.6557358
652,Breeze Park Drive,63304,38.7217603,-90.6578138
600,Breeze Park Drive,63304,38.7237586,-90.6557822
650,Breeze Park Drive,63304,38.7218079,-90.6577254
600,Breeze Park Drive,63304,38.7238024,-90.6558188
645,Breeze Park Drive,63304,38.7218592,-90.6575021
600,Breeze Park Drive,63304,38.7238176,-90.6558894
643,Breeze Park Drive,63304,38.7218740,-90.6573858
600,Breeze Park Drive,63304,38.7238499,-90.6559357
641,Breeze Park Drive,63304,38.7218923,-90.6573020
600,Breeze Park Drive,63304,38.7239603,-90.6561502
639,Breeze Park Drive,63304,38.7219034,-90.6572182
600,Breeze Park Drive,63304,38.7239926,-90.6562062
637,Breeze Park Drive,63304,38.7219217,-90.6571298
600,Breeze Park Drive,63304,38.7239029,-90.6562790
635,Breeze Park Drive,63304,38.7219328,-90.6570228
600,Breeze Park Drive,63304,38.7238686,-90.6562132
631,Breeze View Lane,63304,38.7219732,-90.6567855
600,Breeze Park Drive,63304,38.7238153,-90.6562010
629,Breeze View Lane,63304,38.7219952,-90.6567111
600,Breeze Park Drive,63304,38.7237828,-90.6562350
627,Breeze View Lane,63304,38.7220209,-90.6566180
600,Breeze Park Drive,63304,38.7237751,-90.6563080
625,Breeze View Lane,63304,38.7220392,-90.6565250
600,Breeze Park Drive,63304,38.7238112,-90.6563713
623,Breeze View Lane,63304,38.7220649,-90.6564273
600,Breeze Park Drive,63304,38.7238398,-90.6564274
621,Breeze View Lane,63304,38.7220869,-90.6563295
600,Breeze Park Drive,63304,38.7238645,-90.6564713
900,Breeze Park Drive,63304,38.7233038,-90.6545342
607,Breeze View Lane,63304,38.7222956,-90.6556783
600,Breeze Park Drive,63304,38.7237824,-90.6565538
605,Breeze View Lane,63304,38.7223176,-90.6555946
600,Breeze Park Drive,63304,38.7237481,-90.6564929
603,Breeze View Lane,63304,38.7223615,-90.6554829
600,Breeze Park Drive,63304,38.7237158,-90.6564442
601,Breeze View Lane,63304,38.7223726,-90.6553992
600,Breeze Park Drive,63304,38.7236911,-90.6563906
600,Breeze Park Drive,63304,38.7236205,-90.6563709
600,Breeze Park Drive,63304,38.7235824,-90.6564098
600,Breeze Park Drive,63304,38.7235479,-90.6565119
600,Breeze Park Drive,63304,38.7235917,-90.6565413
600,Breeze Park Drive,63304,38.7236031,-90.6566094
600,Breeze Park Drive,63304,38.7236240,-90.6566557
600,Breeze Park Drive,63304,38.7236792,-90.6566997
600,Breeze Park Drive,63304,38.7236943,-90.6567971
600,Breeze Park Drive,63304,38.7234867,-90.6566214
600,Breeze Park Drive,63304,38.7235229,-90.6566896
600,Breeze Park Drive,63304,38.7235533,-90.6567408
600,Breeze Park Drive,63304,38.7235875,-90.6568017
600,Breeze Park Drive,63304,38.7236218,-90.6568699
600,Breeze Park Drive,63304,38.7236427,-90.6569162
600,Breeze Park Drive,63304,38.7233401,-90.6564701
600,Breeze Park Drive,63304,38.7232924,-90.6565065
600,Breeze Park Drive,63304,38.7232523,-90.6565405
600,Breeze Park Drive,63304,38.7232084,-90.6565745
600,Breeze Park Drive,63304,38.7231664,-90.6566158
600,Breeze Park Drive,63304,38.7233953,-90.6565749
600,Breeze Park Drive,63304,38.7233704,-90.6566381
600,Breeze Park Drive,63304,38.7233132,-90.6566477
600,Breeze Park Drive,63304,38.7232807,-90.6566842
600,Breeze Park Drive,63304,38.7232520,-90.6567474
600,Breeze Park Drive,63304,38.7231928,-90.6568520
600,Breeze Park Drive,63304,38.7232746,-90.6569860
600,Breeze Park Drive,63304,38.7233566,-90.6569765
600,Breeze Park Drive,63304,38.7233927,-90.6570617
600,Breeze Park Drive,63304,38.7233640,-90.6571444
600,Breeze Park Drive,63304,38.7232762,-90.6571978
600,Breeze Park Drive,63304,38.7232151,-90.6572244
600,Breeze Park Drive,63304,38.7231714,-90.6571270
600,Breeze Park Drive,63304,38.7232001,-90.6570540
600,Breeze Park Drive,63304,38.7231164,-90.6569224
600,Breeze Park Drive,63304,38.7230496,-90.6569368
600,Breeze Park Drive,63304,38.7230327,-90.6567615
600,Breeze Park Drive,63304,38.7227968,-90.6563691
600,Breeze Park Drive,63304,38.7227205,-90.6563592
600,Breeze Park Drive,63304,38.7226863,-90.6562813
600,Breeze Park Drive,63304,38.7227150,-90.6562180
600,Breeze Park Drive,63304,38.7226350,-90.6561278
600,Breeze Park Drive,63304,38.7225970,-90.6560352
600,Breeze Park Drive,63304,38.7226105,-90.6559208
600,Breeze Park Drive,63304,38.7226735,-90.6558820
600,Breeze Park Drive,63304,38.7226793,-90.6557798
600,Breeze Park Drive,63304,38.7226336,-90.6557286
600,Breeze Park Drive,63304,38.7226472,-90.6556069
600,Breeze Park Drive,63304,38.7227082,-90.6555754
600,Breeze Park Drive,63304,38.7227217,-90.6554781
600,Breeze Park Drive,63304,38.7226741,-90.6554074
600,Breeze Park Drive,63304,38.7227526,-90.6552177
600,Breeze Park Drive,63304,38.7227661,-90.6550838
600,Breeze Park Drive,63304,38.7228614,-90.6551206
600,Breeze Park Drive,63304,38.7228363,-90.6553152
600,Breeze Park Drive,63304,38.7228247,-90.6554467
600,Breeze Park Drive,63304,38.7228647,-90.6555125
600,Breeze Park Drive,63304,38.7228531,-90.6556195
600,Breeze Park Drive,63304,38.7230478,-90.6568626
600,Breeze Park Drive,63304,38.7227901,-90.6556608
600,Breeze Park Drive,63304,38.7227804,-90.6557654
300,Breeze Park Drive,63304,38.7236693,-90.6556209
600,Breeze Park Drive,63304,38.7227404,-90.6553668
300,Breeze Park Drive,63304,38.7233737,-90.6548915
300,Breeze Park Drive,63304,38.7234179,-90.6548525
300,Breeze Park Drive,63304,38.7234535,-90.6548244
300,Breeze Park Drive,63304,38.7234805,-90.6548025
300,Breeze Park Drive,63304,38.7235198,-90.6547760
300,Breeze Park Drive,63304,38.7235517,-90.6547479
300,Breeze Park Drive,63304,38.7236189,-90.6548889
300,Breeze Park Drive,63304,38.7235833,-90.6549311
300,Breeze Park Drive,63304,38.7235379,-90.6549779
300,Breeze Park Drive,63304,38.7233230,-90.6551950
300,Breeze Park Drive,63304,38.7233426,-90.6552420
300,Breeze Park Drive,63304,38.7233707,-90.6552984
300,Breeze Park Drive,63304,38.7233976,-90.6553376
300,Breeze Park Drive,63304,38.7234197,-90.6553706
300,Breeze Park Drive,63304,38.7234466,-90.6554113
300,Breeze Park Drive,63304,38.7235058,-90.6551751
600,Breeze Park Drive,63304,38.7233713,-90.6573513
300,Breeze Park Drive,63304,38.7235363,-90.6552362
300,Breeze Park Drive,63304,38.7235669,-90.6552895
600,Breeze Park Drive,63304,38.7233636,-90.6574341
600,Breeze Park Drive,63304,38.7234054,-90.6575145
300,Breeze Park Drive,63304,38.7237214,-90.6552695
600,Breeze Park Drive,63304,38.7234589,-90.6574952
300,Breeze Park Drive,63304,38.7236944,-90.6552929
600,Breeze Park Drive,63304,38.7235161,-90.6574417
300,Breeze Park Drive,63304,38.7236711,-90.6553179
600,Breeze Park Drive,63304,38.7235486,-90.6573712
300,Breeze Park Drive,63304,38.7236465,-90.6553444
600,Breeze Park Drive,63304,38.7235125,-90.6573005
300,Breeze Park Drive,63304,38.7237021,-90.6550941
600,Breeze Park Drive,63304,38.7234381,-90.6573004
300,Breeze Park Drive,63304,38.7236849,-90.6550675
600,Breeze Park Drive,63304,38.7233555,-90.6563947
300,Breeze Park Drive,63304,38.7236666,-90.6550314
230,Whitmoor Forest Court,63304,38.7140794,-90.6319559
240,Whitmoor Forest Court,63304,38.7142154,-90.6344909
221,Whitmoor Forest Court,63304,38.7139992,-90.6326419
223,Whitmoor Forest Court,63304,38.7136137,-90.6326486
219,Whitmoor Forest Court,63304,38.7140480,-90.6332296
235,Whitmoor Forest Court,63304,38.7144471,-90.6332708
218,Whitmoor Forest Court,63304,38.7138792,-90.6334058
216,Whitmoor Forest Court,63304,38.7137220,-90.6337827
226,Whitmoor Forest Court,63304,38.7133063,-90.6319711
224,Whitmoor Forest Court,63304,38.7133704,-90.6325261
237,Whitmoor Forest Court,63304,38.7143496,-90.6338264
232,Whitmoor Forest Court,63304,38.7146711,-90.6322168
229,Whitmoor Forest Court,63304,38.7138486,-90.6319150
220,Whitmoor Forest Court,63304,38.7141185,-90.6329496
239,Whitmoor Forest Court,63304,38.7142808,-90.6341629
222,Whitmoor Forest Court,63304,38.7138615,-90.6323978
227,Whitmoor Forest Court,63304,38.7136240,-90.6319400
215,Whitmoor Forest Court,63304,38.7138511,-90.6340588
214,Whitmoor Forest Court,63304,38.7138403,-90.6343536
231,Whitmoor Forest Court,63304,38.7144507,-90.6320170
233,Whitmoor Forest Court,63304,38.7145938,-90.6326163
234,Whitmoor Forest Court,63304,38.7145172,-90.6329500
236,Whitmoor Forest Court,63304,38.7144016,-90.6336034
225,Whitmoor Forest Court,63304,38.7132509,-90.6322580
107,Shaelah Court,63304,38.7163113,-90.6327184
115,Shaelah Court,63304,38.7160098,-90.6328173
101,Shaelah Court,63304,38.7165655,-90.6326517
113,Shaelah Court,63304,38.7160932,-90.6328012
120,Shaelah Court,63304,38.7160480,-90.6333497
143,Shaelah Court,63304,38.7154914,-90.6339929
145,Shaelah Court,63304,38.7154841,-90.6340889
151,Shaelah Court,63304,38.7153885,-90.6343848
119,Shaelah Court,63304,38.7158953,-90.6329111
150,Shaelah Court,63304,38.7158548,-90.6343748
131,Shaelah Court,63304,38.7156434,-90.6334274
149,Shaelah Court,63304,38.7154177,-90.6342805
125,Shaelah Court,63304,38.7157409,-90.6331081
139,Shaelah Court,63304,38.7155393,-90.6338050
127,Shaelah Court,63304,38.7156897,-90.6331936
109,Shaelah Court,63304,38.7162390,-90.6327433
148,Shaelah Court,63304,38.7158371,-90.6342592
137,Shaelah Court,63304,38.7155703,-90.6336926
103,Shaelah Court,63304,38.7164961,-90.6326863
133,Shaelah Court,63304,38.7156102,-90.6335050
121,Shaelah Court,63304,38.7158196,-90.6329660
613,Roundstone Drive,63304,38.7158386,-90.6202248
614,Roundstone Drive,63304,38.7163168,-90.6201456
616,Roundstone Drive,63304,38.7161824,-90.6211025
617,Roundstone Drive,63304,38.7156612,-90.6219475
612,Roundstone Drive,63304,38.7163753,-90.6196881
615,Roundstone Drive,63304,38.7157605,-90.6208599
622,Roundstone Drive,63304,38.7159110,-90.6232587
624,Roundstone Drive,63304,38.7158106,-90.6239273
620,Roundstone Drive,63304,38.7159866,-90.6225357
609,Roundstone Drive,63304,38.7159261,-90.6191525
611,Roundstone Drive,63304,38.7158632,-90.6196285
618,Roundstone Drive,63304,38.7161268,-90.6217342
619,Roundstone Drive,63304,38.7155339,-90.6227900
610,Roundstone Drive,63304,38.7163412,-90.6192426
5652,Independence Road,63304,38.7113612,-90.6605447
5609,Independence Road,63304,38.7141610,-90.6581933
5345,Independence Road,63304,38.7169131,-90.6497387
5605,Independence Road,63304,38.7142900,-90.6578121
5250,Independence Road,63304,38.7168062,-90.6460931
605,Independence Road,63304,38.7109178,-90.6657051
700,Independence Road,63304,38.7150879,-90.6672596
5327,Independence Road,63304,38.7171149,-90.6481757
5332,Independence Road,63304,38.7165138,-90.6476565
5323,Independence Road,63304,38.7171977,-90.6476619
5326,Independence Road,63304,38.7166793,-90.6471068
5401,Independence Road,63304,38.7169711,-90.6506484
5216,Independence Road,63304,38.7166792,-90.6442731
701,Independence Road,63304,38.7156054,-90.6674047
717,Independence Road,63304,38.7160255,-90.6686912
5644,Independence Road,63304,38.7122075,-90.6607552
5340,Independence Road,63304,38.7161619,-90.6486434
5200,Independence Road,63304,38.7173745,-90.6420238
5334,Independence Road,63304,38.7163172,-90.6481315
5333,Independence Road,63304,38.7170905,-90.6485329
5712,Independence Road,63304,38.7115788,-90.6629748
5706,Independence Road,63304,38.7119439,-90.6621478
5617,Independence Road,63304,38.7134482,-90.6584676
5425,Independence Road,63304,38.7150610,-90.6550095
5320,Independence Road,63304,38.7167036,-90.6467159
733,Independence Road,63304,38.7171542,-90.6684860
5640,Independence Road,63304,38.7119059,-90.6598866
5730,Independence Road,63304,38.7113274,-90.6642251
5647,Independence Road,63304,38.7129688,-90.6606850
5635,Independence Road,63304,38.7127945,-90.6599247
5636,Independence Road,63304,38.7121531,-90.6593510
5321,Independence Road,63304,38.7173536,-90.6469018
5415,Independence Road,63304,38.7160550,-90.6519933
721,Independence Road,63304,38.7164671,-90.6682556
5315,Independence Road,63304,38.7173470,-90.6464454
5409,Independence Road,63304,38.7161590,-90.6514023
725,Independence Road,63304,38.7168330,-90.6683213
623,Independence Road,63304,38.7145529,-90.6669330
611,Independence Road,63304,38.7134691,-90.6661588
617,Independence Road,63304,38.7138143,-90.6665014
5516,Independence Road,63304,38.7133849,-90.6561414
777,Independence Road,63304,38.7185850,-90.6697643
5700,Independence Road,63304,38.7118340,-90.6615141
5339,Independence Road,63304,38.7170169,-90.6489545
5718,Independence Road,63304,38.7115933,-90.6636261
709,Independence Road,63304,38.7158660,-90.6678265
5623,Independence Road,63304,38.7132854,-90.6588748
5629,Independence Road,63304,38.7133407,-90.6594295
5501,Independence Road,63304,38.7142933,-90.6565303
5930,Wycliffe Drive,63304,38.7110068,-90.6691721
5960,Wycliffe Drive,63304,38.7100710,-90.6722102
5862,Wycliffe Drive,63304,38.7121427,-90.6662778
5962,Wycliffe Drive,63304,38.7098412,-90.6727123
5937,Wycliffe Drive,63304,38.7101409,-90.6695042
5929,Wycliffe Drive,63304,38.7104438,-90.6686732
5938,Wycliffe Drive,63304,38.7108383,-90.6698867
5946,Wycliffe Drive,63304,38.7106019,-90.6707755
5902,Wycliffe Drive,63304,38.7119749,-90.6668957
5918,Wycliffe Drive,63304,38.7112760,-90.6686203
5910,Wycliffe Drive,63304,38.7117052,-90.6676409
5854,Wycliffe Drive,63304,38.7123289,-90.6657410
5958,Wycliffe Drive,63304,38.7103920,-90.6712991
5945,Wycliffe Drive,63304,38.7097766,-90.6701358
753,Cedar Glen Drive,63304,38.7175524,-90.6806060
721,Cedar Glen Drive,63304,38.7158759,-90.6797722
773,Cedar Glen Drive,63304,38.7185800,-90.6812767
725,Cedar Glen Drive,63304,38.7160769,-90.6798913
780,Cedar Glen Drive,63304,38.7189504,-90.6816600
720,Cedar Glen Drive,63304,38.7161229,-90.6794532
733,Cedar Glen Drive,63304,38.7165027,-90.6800815
729,Cedar Glen Drive,63304,38.7162798,-90.6800478
724,Cedar Glen Drive,63304,38.7163542,-90.6795449
728,Cedar Glen Drive,63304,38.7165806,-90.6796048
769,Cedar Glen Drive,63304,38.7183570,-90.6810774
736,Cedar Glen Drive,63304,38.7170260,-90.6797507
765,Cedar Glen Drive,63304,38.7181479,-90.6809974
740,Cedar Glen Drive,63304,38.7172971,-90.6799347
737,Cedar Glen Drive,63304,38.7167200,-90.6801474
772,Cedar Glen Drive,63304,38.7188689,-90.6811070
776,Cedar Glen Drive,63304,38.7189498,-90.6813519
712,Cedar Glen Drive,63304,38.7157210,-90.6791899
768,Cedar Glen Drive,63304,38.7187294,-90.6809324
749,Cedar Glen Drive,63304,38.7173649,-90.6805194
716,Cedar Glen Drive,63304,38.7159297,-90.6793144
709,Cedar Glen Drive,63304,38.7153168,-90.6793775
717,Cedar Glen Drive,63304,38.7157014,-90.6796266
705,Cedar Glen Drive,63304,38.7151043,-90.6792202
752,Cedar Glen Drive,63304,38.7179195,-90.6803188
741,Cedar Glen Drive,63304,38.7169687,-90.6802180
744,Cedar Glen Drive,63304,38.7175308,-90.6800568
713,Cedar Glen Drive,63304,38.7155017,-90.6794824
708,Cedar Glen Drive,63304,38.7155446,-90.6789645
760,Cedar Glen Drive,63304,38.7183274,-90.6805913
745,Cedar Glen Drive,63304,38.7171861,-90.6803748
757,Cedar Glen Drive,63304,38.7177543,-90.6807229
756,Cedar Glen Drive,63304,38.7181355,-90.6805254
761,Cedar Glen Drive,63304,38.7179604,-90.6808404
804,Kipling Way,63304,38.7160950,-90.6805005
202,Kipling Way,63304,38.7147319,-90.6813870
805,Kipling Way,63304,38.7161569,-90.6805585
806,Kipling Way,63304,38.7162188,-90.6805951
807,Kipling Way,63304,38.7162974,-90.6806258
203,Kipling Way,63304,38.7147225,-90.6812775
801,Kipling Way,63304,38.7158807,-90.6803539
609,Kipling Way,63304,38.7152669,-90.6798742
802,Kipling Way,63304,38.7159569,-90.6804180
201,Kipling Way,63304,38.7146628,-90.6813686
604,Kipling Way,63304,38.7155227,-90.6800982
603,Kipling Way,63304,38.7155840,-90.6801537
402,Kipling Way,63304,38.7148874,-90.6805933
401,Kipling Way,63304,38.7148231,-90.6805749
113,Kipling Way,63304,38.7151792,-90.6813092
114,Kipling Way,63304,38.7152056,-90.6812089
115,Kipling Way,63304,38.7152129,-90.6811085
409,Kipling Way,63304,38.7150099,-90.6800125
112,Kipling Way,63304,38.7151552,-90.6814065
408,Kipling Way,63304,38.7149336,-90.6800032
405,Kipling Way,63304,38.7149165,-90.6802982
118,Kipling Way,63304,38.7152108,-90.6809290
404,Kipling Way,63304,38.7148949,-90.6803834
406,Kipling Way,63304,38.7149309,-90.6802040
602,Kipling Way,63304,38.7156839,-90.6801242
322,Kipling Way,63304,38.7153569,-90.6805832
407,Kipling Way,63304,38.7149454,-90.6801097
111,Kipling Way,63304,38.7152124,-90.6814157
204,Kipling Way,63304,38.7147370,-90.6811832
321,Kipling Way,63304,38.7153329,-90.6806744
205,Kipling Way,63304,38.7147800,-90.6810890
206,Kipling Way,63304,38.7147587,-90.6809886
116,Kipling Way,63304,38.7152154,-90.6810142
117,Kipling Way,63304,38.7152799,-90.6809231
324,Kipling Way,63304,38.7154949,-90.6807144
328,Kipling Way,63304,38.7157307,-90.6808336
327,Kipling Way,63304,38.7157020,-90.6809157
326,Kipling Way,63304,38.7156473,-90.6808303
323,Kipling Way,63304,38.7154211,-90.6806685
208,Kipling Way,63304,38.7147757,-90.6807939
325,Kipling Way,63304,38.7155616,-90.6807723
209,Kipling Way,63304,38.7148472,-90.6808093
403,Kipling Way,63304,38.7148828,-90.6804990
207,Kipling Way,63304,38.7147874,-90.6809035
601,Kipling Way,63304,38.7156395,-90.6802047
606,Kipling Way,63304,38.7153841,-90.6799946
605,Kipling Way,63304,38.7154596,-90.6800521
803,Kipling Way,63304,38.7160211,-90.6804669
608,Kipling Way,63304,38.7152425,-90.6799415
607,Kipling Way,63304,38.7153316,-90.6799590
1408,Hemingway Lane,63304,38.7173298,-90.6821900
225,Hemingway Lane,63304,38.7156590,-90.6812791
1406,Hemingway Lane,63304,38.7172371,-90.6820011
1407,Hemingway Lane,63304,38.7172680,-90.6820925
103,Hemingway Lane,63304,38.7150738,-90.6820051
102,Hemingway Lane,63304,38.7150143,-90.6819380
101,Hemingway Lane,63304,38.7149880,-90.6820353
109,Hemingway Lane,63304,38.7154671,-90.6820395
222,Hemingway Lane,63304,38.7154777,-90.6814216
221,Hemingway Lane,63304,38.7154444,-90.6813455
1603,Hemingway Lane,63304,38.7173766,-90.6825980
915,Hemingway Lane,63304,38.7180455,-90.6839988
1605,Hemingway Lane,63304,38.7174718,-90.6826712
1604,Hemingway Lane,63304,38.7174101,-90.6824794
919,Hemingway Lane,63304,38.7182577,-90.6840147
923,Hemingway Lane,63304,38.7183867,-90.6837721
931,Hemingway Lane,63304,38.7185596,-90.6832925
927,Hemingway Lane,63304,38.7184569,-90.6835344
934,Hemingway Lane,63304,38.7183649,-90.6828558
939,Hemingway Lane,63304,38.7187326,-90.6828136
851,Hemingway Lane,63304,38.7169717,-90.6809022
855,Hemingway Lane,63304,38.7167550,-90.6807526
853,Hemingway Lane,63304,38.7166050,-90.6807005
854,Hemingway Lane,63304,38.7168289,-90.6808015
852,Hemingway Lane,63304,38.7169814,-90.6808019
1702,Hemingway Lane,63304,38.7169502,-90.6829389
104,Hemingway Lane,63304,38.7151596,-90.6820022
106,Hemingway Lane,63304,38.7153050,-90.6820452
301,Hemingway Lane,63304,38.7157007,-90.6818633
105,Hemingway Lane,63304,38.7152383,-90.6820298
108,Hemingway Lane,63304,38.7154526,-90.6821216
107,Hemingway Lane,63304,38.7153860,-90.6820697
1606,Hemingway Lane,63304,38.7173434,-90.6825036
1710,Hemingway Lane,63304,38.7171891,-90.6834048
710,Hemingway Lane,63304,38.7163617,-90.6814374
709,Hemingway Lane,63304,38.7162830,-90.6814828
1707,Hemingway Lane,63304,38.7170845,-90.6832190
1403,Hemingway Lane,63304,38.7172280,-90.6817668
1709,Hemingway Lane,63304,38.7172368,-90.6833532
1708,Hemingway Lane,63304,38.7171296,-90.6833164
1601,Hemingway Lane,63304,38.7174386,-90.6825768
1706,Hemingway Lane,63304,38.7170554,-90.6829746
1402,Hemingway Lane,63304,38.7171423,-90.6816844
1602,Hemingway Lane,63304,38.7173979,-90.6827075
1003,Hemingway Lane,63304,38.7176243,-90.6812693
930,Hemingway Lane,63304,38.7182370,-90.6830796
875,Hemingway Lane,63304,38.7173153,-90.6811025
906,Hemingway Lane,63304,38.7178192,-90.6831920
1703,Hemingway Lane,63304,38.7169791,-90.6830110
1203,Hemingway Lane,63304,38.7174593,-90.6817142
224,Hemingway Lane,63304,38.7155994,-90.6813033
950,Hemingway Lane,63304,38.7185240,-90.6817139
1004,Hemingway Lane,63304,38.7176865,-90.6813399
228,Hemingway Lane,63304,38.7158499,-90.6811762
1404,Hemingway Lane,63304,38.7171755,-90.6817971
226,Hemingway Lane,63304,38.7157259,-90.6812336
918,Hemingway Lane,63304,38.7180709,-90.6832919
874,Hemingway Lane,63304,38.7173393,-90.6810021
227,Hemingway Lane,63304,38.7157855,-90.6812064
1405,Hemingway Lane,63304,38.7172206,-90.6818885
1704,Hemingway Lane,63304,38.7169746,-90.6827797
1204,Hemingway Lane,63304,38.7174783,-90.6817995
1705,Hemingway Lane,63304,38.7170102,-90.6828924
1210,Hemingway Lane,63304,38.7176325,-90.6822623
13,Hemingway Lane,63304,38.7141849,-90.6811413
872,Hemingway Lane,63304,38.7171296,-90.6810047
935,Hemingway Lane,63304,38.7186223,-90.6830457
871,Hemingway Lane,63304,38.7171536,-90.6809043
902,Hemingway Lane,63304,38.7176770,-90.6830246
15,Hemingway Lane,63304,38.7142540,-90.6811780
12,Hemingway Lane,63304,38.7141350,-90.6810195
873,Hemingway Lane,63304,38.7172368,-90.6810171
938,Hemingway Lane,63304,38.7184155,-90.6826075
11,Hemingway Lane,63304,38.7141016,-90.6810955
707,Hemingway Lane,63304,38.7163926,-90.6815257
310,Hemingway Lane,63304,38.7157073,-90.6823965
309,Hemingway Lane,63304,38.7157788,-90.6823814
704,Hemingway Lane,63304,38.7165997,-90.6813460
14,Hemingway Lane,63304,38.7142160,-90.6810653
1712,Hemingway Lane,63304,38.7171964,-90.6832771
1009,Hemingway Lane,63304,38.7179670,-90.6815988
18,Hemingway Lane,63304,38.7143661,-90.6811479
304,Hemingway Lane,63304,38.7157053,-90.6819698
706,Hemingway Lane,63304,38.7163091,-90.6815559
859,Hemingway Lane,63304,38.7165359,-90.6806395
911,Hemingway Lane,63304,38.7178242,-90.6838407
307,Hemingway Lane,63304,38.7157003,-90.6822900
16,Hemingway Lane,63304,38.7142922,-90.6811051
312,Hemingway Lane,63304,38.7157834,-90.6824910
311,Hemingway Lane,63304,38.7157814,-90.6822719
907,Hemingway Lane,63304,38.7176649,-90.6836949
1711,Hemingway Lane,63304,38.7171489,-90.6831674
305,Hemingway Lane,63304,38.7157746,-90.6818696
17,Hemingway Lane,63304,38.7143373,-90.6812208
703,Hemingway Lane,63304,38.7165257,-90.6813793
701,Hemingway Lane,63304,38.7166257,-90.6814465
306,Hemingway Lane,63304,38.7157814,-90.6820796
705,Hemingway Lane,63304,38.7162327,-90.6816105
702,Hemingway Lane,63304,38.7165470,-90.6814737
302,Hemingway Lane,63304,38.7156956,-90.6820763
1002,Hemingway Lane,63304,38.7175314,-90.6812600
1401,Hemingway Lane,63304,38.7172090,-90.6816694
947,Hemingway Lane,63304,38.7188588,-90.6821541
303,Hemingway Lane,63304,38.7157721,-90.6819609
1208,Hemingway Lane,63304,38.7175682,-90.6821983
308,Hemingway Lane,63304,38.7157143,-90.6824938
903,Hemingway Lane,63304,38.7175020,-90.6835566
500,Hemingway Lane,63304,38.7160833,-90.6818413
943,Hemingway Lane,63304,38.7188008,-90.6825340
1701,Hemingway Lane,63304,38.7169031,-90.6828252
1206,Hemingway Lane,63304,38.7175113,-90.6819943
1409,Hemingway Lane,63304,38.7172702,-90.6822142
1001,Hemingway Lane,63304,38.7175744,-90.6811779
1201,Hemingway Lane,63304,38.7173951,-90.6816198
1207,Hemingway Lane,63304,38.7175303,-90.6820795
1202,Hemingway Lane,63304,38.7174762,-90.6816017
708,Hemingway Lane,63304,38.7162114,-90.6815161
1205,Hemingway Lane,63304,38.7174948,-90.6819030
858,Hemingway Lane,63304,38.7165144,-90.6807155
1209,Hemingway Lane,63304,38.7175538,-90.6822986
1005,Hemingway Lane,63304,38.7177743,-90.6813701
1006,Hemingway Lane,63304,38.7178457,-90.6814403
223,Hemingway Lane,63304,38.7155278,-90.6813488
856,Hemingway Lane,63304,38.7166812,-90.6807311
1007,Hemingway Lane,63304,38.7179267,-90.6814922
857,Hemingway Lane,63304,38.7168980,-90.6808260
1008,Hemingway Lane,63304,38.7179958,-90.6815076
1,Upper Whitmoor Drive,63304,38.7086913,-90.6229552
10,Upper Whitmoor Drive,63304,38.7082292,-90.6263757
7,Upper Whitmoor Drive,63304,38.7077406,-90.6272839
4,Upper Whitmoor Drive,63304,38.7075738,-90.6245167
12,Upper Whitmoor Drive,63304,38.7087120,-90.6242234
3,Upper Whitmoor Drive,63304,38.7080777,-90.6236299
6,Upper Whitmoor Drive,63304,38.7074129,-90.6263034
8,Upper Whitmoor Drive,63304,38.7082617,-90.6277929
11,Upper Whitmoor Drive,63304,38.7082705,-90.6254214
5,Upper Whitmoor Drive,63304,38.7074897,-90.6253302
9,Upper Whitmoor Drive,63304,38.7087301,-90.6271735
761,Hillenkamp Drive,63304,38.7101493,-90.6220994
769,Hillenkamp Drive,63304,38.7106230,-90.6231294
773,Hillenkamp Drive,63304,38.7109878,-90.6234684
700,Hillenkamp Drive,63304,38.7146693,-90.6174795
768,Hillenkamp Drive,63304,38.7106981,-90.6238157
725,Hillenkamp Drive,63304,38.7129809,-90.6193535
729,Hillenkamp Drive,63304,38.7130825,-90.6198135
733,Hillenkamp Drive,63304,38.7130621,-90.6203297
704,Hillenkamp Drive,63304,38.7142345,-90.6175052
708,Hillenkamp Drive,63304,38.7137577,-90.6174087
713,Hillenkamp Drive,63304,38.7136971,-90.6178338
776,Hillenkamp Drive,63304,38.7109841,-90.6243817
752,Hillenkamp Drive,63304,38.7100799,-90.6209537
760,Hillenkamp Drive,63304,38.7097025,-90.6222422
756,Hillenkamp Drive,63304,38.7097670,-90.6214553
701,Hillenkamp Drive,63304,38.7149338,-90.6180918
736,Hillenkamp Drive,63304,38.7124766,-90.6204277
757,Hillenkamp Drive,63304,38.7103098,-90.6213991
728,Hillenkamp Drive,63304,38.7126629,-90.6198238
745,Hillenkamp Drive,63304,38.7119323,-90.6211595
724,Hillenkamp Drive,63304,38.7126194,-90.6193504
740,Hillenkamp Drive,63304,38.7120422,-90.6206299
705,Hillenkamp Drive,63304,38.7146883,-90.6184176
753,Hillenkamp Drive,63304,38.7108572,-90.6212336
744,Hillenkamp Drive,63304,38.7116870,-90.6207060
746,Hillenkamp Drive,63304,38.7111442,-90.6206473
737,Hillenkamp Drive,63304,38.7127519,-90.6208917
748,Hillenkamp Drive,63304,38.7106349,-90.6205818
749,Hillenkamp Drive,63304,38.7114089,-90.6212021
709,Hillenkamp Drive,63304,38.7141985,-90.6179624
765,Hillenkamp Drive,63304,38.7102278,-90.6227106
764,Hillenkamp Drive,63304,38.7098116,-90.6232189
741,Hillenkamp Drive,63304,38.7123699,-90.6210359
712,Hillenkamp Drive,63304,38.7132359,-90.6173823
721,Hillenkamp Drive,63304,38.7128961,-90.6187337
240,Camelot Drive,63304,38.7097916,-90.6491347
233,Camelot Drive,63304,38.7089107,-90.6493465
265,Camelot Drive,63304,38.7128743,-90.6521556
253,Camelot Drive,63304,38.7112397,-90.6510126
256,Camelot Drive,63304,38.7120890,-90.6511500
252,Camelot Drive,63304,38.7115498,-90.6504154
209,Camelot Drive,63304,38.7065631,-90.6474005
232,Camelot Drive,63304,38.7089630,-90.6487535
248,Camelot Drive,63304,38.7111344,-90.6498833
228,Camelot Drive,63304,38.7085767,-90.6485279
212,Camelot Drive,63304,38.7071288,-90.6471784
224,Camelot Drive,63304,38.7080602,-90.6482787
204,Camelot Drive,63304,38.7062227,-90.6467326
200,Camelot Drive,63304,38.7053926,-90.6467188
216,Camelot Drive,63304,38.7073858,-90.6475574
201,Camelot Drive,63304,38.7054121,-90.6475021
268,Camelot Drive,63304,38.7133602,-90.6518021
213,Camelot Drive,63304,38.7068958,-90.6480353
208,Camelot Drive,63304,38.7067449,-90.6468438
236,Camelot Drive,63304,38.7093748,-90.6489637
220,Camelot Drive,63304,38.7076746,-90.6479255
221,Camelot Drive,63304,38.7074734,-90.6485270
205,Camelot Drive,63304,38.7059863,-90.6473324
237,Camelot Drive,63304,38.7094793,-90.6497228
491,Rosslare Drive,63304,38.7103032,-90.6305492
496,Rosslare Drive,63304,38.7113225,-90.6288903
494,Rosslare Drive,63304,38.7109042,-90.6292132
495,Rosslare Drive,63304,38.7112185,-90.6299065
498,Rosslare Drive,63304,38.7117411,-90.6285164
492,Rosslare Drive,63304,38.7103906,-90.6296686
490,Rosslare Drive,63304,38.7098461,-90.6300174
499,Rosslare Drive,63304,38.7121760,-90.6295808
493,Rosslare Drive,63304,38.7107989,-90.6301821
497,Rosslare Drive,63304,38.7118577,-90.6299824
489,Rosslare Drive,63304,38.7097130,-90.6308555
5317,Enchanted Court,63304,38.7141585,-90.6526242
5301,Enchanted Court,63304,38.7148480,-90.6505121
5316,Enchanted Court,63304,38.7147050,-90.6522735
5321,Enchanted Court,63304,38.7138330,-90.6531969
5309,Enchanted Court,63304,38.7145337,-90.6515758
5313,Enchanted Court,63304,38.7142906,-90.6521036
5320,Enchanted Court,63304,38.7144461,-90.6531933
5300,Enchanted Court,63304,38.7152521,-90.6506805
5308,Enchanted Court,63304,38.7150832,-90.6514327
5305,Enchanted Court,63304,38.7147524,-90.6510047
72,West Meath Ring,63304,38.7155805,-90.6406068
66,West Meath Ring,63304,38.7161965,-90.6396322
77,West Meath Ring,63304,38.7143112,-90.6406250
55,West Meath Ring,63304,38.7145792,-90.6393925
68,West Meath Ring,63304,38.7160702,-90.6400302
73,West Meath Ring,63304,38.7149102,-90.6401299
74,West Meath Ring,63304,38.7151991,-90.6405104
57,West Meath Ring,63304,38.7148638,-90.6395111
60,West Meath Ring,63304,38.7154567,-90.6390942
70,West Meath Ring,63304,38.7158919,-90.6404686
75,West Meath Ring,63304,38.7145372,-90.6403761
52,West Meath Ring,63304,38.7140642,-90.6390678
54,West Meath Ring,63304,38.7142590,-90.6389245
56,West Meath Ring,63304,38.7148079,-90.6389739
64,West Meath Ring,63304,38.7161058,-90.6392412
53,West Meath Ring,63304,38.7142546,-90.6395064
59,West Meath Ring,63304,38.7151481,-90.6394373
62,West Meath Ring,63304,38.7158091,-90.6391510
71,West Meath Ring,63304,38.7152289,-90.6400921
65,West Meath Ring,63304,38.7156444,-90.6398825
58,West Meath Ring,63304,38.7151443,-90.6390446
50,West Meath Ring,63304,38.7136792,-90.6392551
673,Killary Down,63304,38.7221780,-90.6221725
667,Killary Down,63304,38.7213640,-90.6219617
670,Killary Down,63304,38.7215354,-90.6215077
678,Killary Down,63304,38.7226992,-90.6224077
665,Killary Down,63304,38.7209477,-90.6219705
668,Killary Down,63304,38.7211675,-90.6214830
676,Killary Down,63304,38.7223928,-90.6216043
672,Killary Down,63304,38.7218378,-90.6215070
674,Killary Down,63304,38.7221404,-90.6215913
659,Killary Down,63304,38.7197157,-90.6221172
655,Killary Down,63304,38.7192251,-90.6225494
671,Killary Down,63304,38.7217868,-90.6220533
653,Killary Down,63304,38.7189750,-90.6227936
651,Killary Down,63304,38.7187612,-90.6227098
657,Killary Down,63304,38.7194172,-90.6223221
680,Killary Down,63304,38.7228241,-90.6229437
661,Killary Down,63304,38.7200625,-90.6219663
654,Killary Down,63304,38.7193011,-90.6217841
675,Killary Down,63304,38.7223289,-90.6230895
652,Killary Down,63304,38.7190252,-90.6220254
663,Killary Down,63304,38.7204366,-90.6219323
132,Roehampton Lane,63304,38.7177699,-90.6304339
130,Roehampton Lane,63304,38.7178067,-90.6296003
133,Roehampton Lane,63304,38.7177763,-90.6307905
121,Roehampton Lane,63304,38.7173779,-90.6324925
128,Roehampton Lane,63304,38.7171551,-90.6297667
131,Roehampton Lane,63304,38.7177793,-90.6300454
134,Roehampton Lane,63304,38.7177511,-90.6311827
129,Roehampton Lane,63304,38.7175229,-90.6295229
123,Roehampton Lane,63304,38.7173775,-90.6317229
126,Roehampton Lane,63304,38.7173673,-90.6305239
136,Roehampton Lane,63304,38.7177355,-90.6319377
120,Roehampton Lane,63304,38.7175644,-90.6329358
125,Roehampton Lane,63304,38.7173635,-90.6309124
124,Roehampton Lane,63304,38.7173499,-90.6313479
137,Roehampton Lane,63304,38.7178744,-90.6325757
127,Roehampton Lane,63304,38.7172966,-90.6301192
122,Roehampton Lane,63304,38.7173545,-90.6321183
135,Roehampton Lane,63304,38.7178244,-90.6316021
149,Newgrange Pass,63304,38.7200823,-90.6355604
150,Newgrange Pass,63304,38.7195950,-90.6355691
147,Newgrange Pass,63304,38.7197689,-90.6349270
140,Newgrange Pass,63304,38.7182484,-90.6329521
142,Newgrange Pass,63304,38.7186689,-90.6335184
148,Newgrange Pass,63304,38.7199285,-90.6351911
143,Newgrange Pass,63304,38.7189278,-90.6337921
146,Newgrange Pass,63304,38.7195375,-90.6346344
145,Newgrange Pass,63304,38.7193205,-90.6343715
144,Newgrange Pass,63304,38.7191070,-90.6340807
141,Newgrange Pass,63304,38.7184560,-90.6332919
653,Clifden Drive,63304,38.7195802,-90.6191186
646,Clifden Drive,63304,38.7194195,-90.6202785
665,Clifden Drive,63304,38.7173941,-90.6187037
648,Clifden Drive,63304,38.7192991,-90.6196716
680,Clifden Drive,63304,38.7177352,-90.6223599
686,Clifden Drive,63304,38.7173963,-90.6236504
678,Clifden Drive,63304,38.7178212,-90.6218303
651,Clifden Drive,63304,38.7196857,-90.6195506
688,Clifden Drive,63304,38.7171689,-90.6238321
684,Clifden Drive,63304,38.7175537,-90.6233092
660,Clifden Drive,63304,38.7184215,-90.6186631
647,Clifden Drive,63304,38.7199001,-90.6204480
689,Clifden Drive,63304,38.7172150,-90.6230071
682,Clifden Drive,63304,38.7176525,-90.6227916
649,Clifden Drive,63304,38.7197916,-90.6199859
654,Clifden Drive,63304,38.7187952,-90.6188083
661,Clifden Drive,63304,38.7180388,-90.6181672
659,Clifden Drive,63304,38.7185360,-90.6181914
672,Clifden Drive,63304,38.7177534,-90.6200850
650,Clifden Drive,63304,38.7190937,-90.6191393
690,Clifden Drive,63304,38.7168564,-90.6239747
657,Clifden Drive,63304,38.7190825,-90.6184102
663,Clifden Drive,63304,38.7175715,-90.6183101
664,Clifden Drive,63304,38.7178878,-90.6186828
643,Clifden Drive,63304,38.7200860,-90.6213956
679,Clifden Drive,63304,38.7174247,-90.6210291
683,Clifden Drive,63304,38.7173792,-90.6222758
681,Clifden Drive,63304,38.7174111,-90.6216312
674,Clifden Drive,63304,38.7177585,-90.6205509
673,Clifden Drive,63304,38.7173914,-90.6196368
645,Clifden Drive,63304,38.7200522,-90.6209813
675,Clifden Drive,63304,38.7173716,-90.6200526
687,Clifden Drive,63304,38.7172850,-90.6226109
671,Clifden Drive,63304,38.7173530,-90.6192633
677,Clifden Drive,63304,38.7174081,-90.6205187
641,Clifden Drive,63304,38.7196673,-90.6215120
503,Malinmor Drive,63304,38.7130447,-90.6351063
523,Malinmor Drive,63304,38.7170901,-90.6344990
571,Malinmor Drive,63304,38.7232106,-90.6283342
573,Malinmor Drive,63304,38.7234007,-90.6280277
565,Malinmor Drive,63304,38.7226214,-90.6292459
563,Malinmor Drive,63304,38.7224190,-90.6295283
569,Malinmor Drive,63304,38.7230172,-90.6286603
548,Malinmor Drive,63304,38.7212047,-90.6320500
559,Malinmor Drive,63304,38.7221133,-90.6302244
528,Malinmor Drive,63304,38.7172995,-90.6333032
529,Malinmor Drive,63304,38.7177226,-90.6336214
542,Malinmor Drive,63304,38.7202847,-90.6321098
531,Malinmor Drive,63304,38.7179771,-90.6333446
527,Malinmor Drive,63304,38.7175072,-90.6339049
562,Malinmor Drive,63304,38.7219851,-90.6294621
525,Malinmor Drive,63304,38.7172409,-90.6343135
566,Malinmor Drive,63304,38.7222243,-90.6287992
564,Malinmor Drive,63304,38.7221364,-90.6291681
553,Malinmor Drive,63304,38.7217113,-90.6317839
554,Malinmor Drive,63304,38.7215174,-90.6308810
521,Malinmor Drive,63304,38.7172207,-90.6358862
570,Malinmor Drive,63304,38.7228417,-90.6280401
561,Malinmor Drive,63304,38.7222641,-90.6298913
560,Malinmor Drive,63304,38.7217747,-90.6299809
558,Malinmor Drive,63304,38.7216717,-90.6302095
552,Malinmor Drive,63304,38.7214408,-90.6312676
509,Malinmor Drive,63304,38.7141847,-90.6351462
572,Malinmor Drive,63304,38.7229624,-90.6277456
511,Malinmor Drive,63304,38.7146328,-90.6350505
551,Malinmor Drive,63304,38.7215981,-90.6323443
574,Malinmor Drive,63304,38.7231760,-90.6275392
507,Malinmor Drive,63304,38.7137306,-90.6350949
504,Malinmor Drive,63304,38.7136271,-90.6344956
500,Malinmor Drive,63304,38.7127496,-90.6345113
501,Malinmor Drive,63304,38.7127153,-90.6351993
540,Malinmor Drive,63304,38.7199237,-90.6320340
544,Malinmor Drive,63304,38.7204949,-90.6322342
539,Malinmor Drive,63304,38.7194653,-90.6324503
550,Malinmor Drive,63304,38.7213524,-90.6316851
546,Malinmor Drive,63304,38.7209100,-90.6322895
549,Malinmor Drive,63304,38.7212762,-90.6327639
538,Malinmor Drive,63304,38.7195956,-90.6318792
567,Malinmor Drive,63304,38.7228240,-90.6289517
545,Malinmor Drive,63304,38.7205128,-90.6328829
557,Malinmor Drive,63304,38.7220309,-90.6305922
541,Malinmor Drive,63304,38.7198219,-90.6325491
547,Malinmor Drive,63304,38.7209335,-90.6328008
556,Malinmor Drive,63304,38.7216067,-90.6305914
505,Malinmor Drive,63304,38.7133601,-90.6351417
6320,South Old Highway 94,63304,38.7129129,-90.6903921
6338,South Old Highway 94,63304,38.7128499,-90.6911739
6319,South Old Highway 94,63304,38.7135813,-90.6902065
6333,South Old Highway 94,63304,38.7134754,-90.6912277
6301,South Old Highway 94,63304,38.7137562,-90.6892021
6000,Mergenthal Lane,63304,38.7134162,-90.6730559
6002,Mergenthal Lane,63304,38.7134981,-90.6724418
5982,Mergenthal Court,63304,38.7123317,-90.6759315
5980,Mergenthal Court,63304,38.7123485,-90.6754804
5973,Mergenthal Court,63304,38.7123393,-90.6743765
5975,Mergenthal Court,63304,38.7122216,-90.6746843
5977,Mergenthal Court,63304,38.7121019,-90.6750054
5987,Mergenthal Court,63304,38.7120911,-90.6763465
5979,Mergenthal Court,63304,38.7119586,-90.6753010
5970,Mergenthal Court,63304,38.7134443,-90.6746138
5968,Mergenthal Court,63304,38.7136119,-90.6742790
5964,Mergenthal Court,63304,38.7131606,-90.6737121
5971,Mergenthal Court,63304,38.7124493,-90.6740522
5985,Mergenthal Court,63304,38.7117960,-90.6762661
5966,Mergenthal Court,63304,38.7135093,-90.6739351
5967,Mergenthal Court,63304,38.7126483,-90.6734455
5978,Mergenthal Court,63304,38.7124828,-90.6751590
5965,Mergenthal Court,63304,38.7129298,-90.6734747
5976,Mergenthal Court,63304,38.7126153,-90.6747717
5981,Mergenthal Court,63304,38.7117631,-90.6756236
5974,Mergenthal Court,63304,38.7127380,-90.6744465
5983,Mergenthal Court,63304,38.7116085,-90.6759319
5989,Mergenthal Court,63304,38.7123153,-90.6764966
5972,Mergenthal Court,63304,38.7130940,-90.6745218
5969,Mergenthal Court,63304,38.7124645,-90.6736954
6026,Weldon Spring Parkway,63304,38.7129032,-90.6805044
5931,Weldon Spring Parkway,63304,38.7151050,-90.6716121
6004,Weldon Spring Parkway,63304,38.7128853,-90.6790194
6016,Weldon Spring Parkway,63304,38.7129316,-90.6800096
5991,Weldon Spring Parkway,63304,38.7124476,-90.6768827
588,Patriotic Trail,63304,38.7099781,-90.6630376
570,Patriotic Trail,63304,38.7094581,-90.6616128
20,Dutchman Lane,63304,38.7087952,-90.6691662
10,Dutchman Lane,63304,38.7076467,-90.6692723
30,Dutchman Lane,63304,38.7086330,-90.6677636
3,Wycliffe Court,63304,38.7080220,-90.6705616
1,Wycliffe Court,63304,38.7087741,-90.6718877
4,Wycliffe Court,63304,38.7088773,-90.6708888
2,Wycliffe Court,63304,38.7077833,-90.6711769
4800,Meadows Parkway,63304,38.7069393,-90.6667995
850,Pitman Hill Road,63304,38.7239373,-90.6215559
231,Pitman Hill Road,63304,38.7120598,-90.6155053
1003,Pitman Hill Road,63304,38.7249570,-90.6232209
842,Pitman Hill Road,63304,38.7234153,-90.6212013
1175,Pitman Hill Road,63304,38.7293976,-90.6280066
843,Pitman Hill Road,63304,38.7231171,-90.6217549
1163,Pitman Hill Road,63304,38.7277309,-90.6277015
1333,Pitman Hill Road,63304,38.7334257,-90.6311414
1031,Pitman Hill Road,63304,38.7272859,-90.6191914
600,Technology Drive,63304,38.7110142,-90.6793273
5457,Legend Court,63304,38.7110949,-90.6527299
5449,Legend Court,63304,38.7113808,-90.6521637
5441,Legend Court,63304,38.7115655,-90.6514820
5461,Legend Court,63304,38.7109166,-90.6532305
5456,Legend Court,63304,38.7114851,-90.6531659
5452,Legend Court,63304,38.7116120,-90.6527201
5460,Legend Court,63304,38.7111824,-90.6534771
5448,Legend Court,63304,38.7118971,-90.6523404
234,Cornwall Drive,63304,38.7124077,-90.6491142
238,Cornwall Drive,63304,38.7125192,-90.6498470
235,Cornwall Drive,63304,38.7120606,-90.6496078
242,Cornwall Drive,63304,38.7122753,-90.6504154
230,Cornwall Drive,63304,38.7120572,-90.6486928
5349,Tower Hill Court,63304,38.7135270,-90.6496560
5353,Tower Hill Court,63304,38.7133746,-90.6502329
5360,Tower Hill Court,63304,38.7137914,-90.6505459
5369,Tower Hill Court,63304,38.7130206,-90.6512996
5361,Tower Hill Court,63304,38.7131979,-90.6507948
5364,Tower Hill Court,63304,38.7135500,-90.6511463
5356,Tower Hill Court,63304,38.7140568,-90.6500259
5352,Tower Hill Court,63304,38.7139168,-90.6495107
271,Grail Castle Court,63304,38.7128429,-90.6534318
275,Grail Castle Court,63304,38.7133803,-90.6536615
269,Grail Castle Court,63304,38.7131130,-90.6530455
273,Grail Castle Court,63304,38.7128934,-90.6538955
28,Rodelle Woods Drive,63304,38.7153162,-90.6493897
11,Rodelle Woods Drive,63304,38.7135368,-90.6467791
25,Rodelle Woods Drive,63304,38.7140943,-90.6488554
19,Rodelle Woods Drive,63304,38.7128889,-90.6477256
29,Rodelle Woods Drive,63304,38.7157363,-90.6498365
9,Rodelle Woods Drive,63304,38.7144406,-90.6473463
14,Rodelle Woods Drive,63304,38.7123383,-90.6463686
27,Rodelle Woods Drive,63304,38.7148888,-90.6491990
3,Rodelle Woods Drive,63304,38.7160637,-90.6490810
12,Rodelle Woods Drive,63304,38.7130867,-90.6466151
4,Rodelle Woods Drive,63304,38.7154115,-90.6488158
18,Rodelle Woods Drive,63304,38.7125542,-90.6474251
26,Rodelle Woods Drive,63304,38.7145494,-90.6490865
7,Rodelle Woods Drive,63304,38.7147976,-90.6478067
16,Rodelle Woods Drive,63304,38.7118387,-90.6472478
23,Rodelle Woods Drive,63304,38.7139458,-90.6481618
10,Rodelle Woods Drive,63304,38.7139826,-90.6470822
13,Rodelle Woods Drive,63304,38.7127246,-90.6462745
17,Rodelle Woods Drive,63304,38.7121573,-90.6471501
21,Rodelle Woods Drive,63304,38.7133093,-90.6478844
745,John Linn Place,63304,38.7194650,-90.6495283
738,John Linn Place,63304,38.7190172,-90.6488878
742,John Linn Place,63304,38.7193306,-90.6490298
715,John Linn Place,63304,38.7177618,-90.6491687
712,John Linn Place,63304,38.7176506,-90.6485582
733,John Linn Place,63304,38.7187659,-90.6494519
707,John Linn Place,63304,38.7174741,-90.6490582
719,John Linn Place,63304,38.7180805,-90.6493081
726,John Linn Place,63304,38.7185092,-90.6487733
725,John Linn Place,63304,38.7183889,-90.6494050
741,John Linn Place,63304,38.7192473,-90.6494620
101,Enclave Terrace Court,63304,38.7197942,-90.6482651
103,Enclave Terrace Court,63304,38.7196037,-90.6481620
102,Enclave Terrace Court,63304,38.7196596,-90.6478376
100,Enclave Terrace Court,63304,38.7198535,-90.6478287
821,Nancy Lane,63304,38.7202657,-90.6493038
808,Nancy Lane,63304,38.7196975,-90.6500359
835,Nancy Lane,63304,38.7205001,-90.6486715
844,Nancy Lane,63304,38.7203296,-90.6477614
816,Nancy Lane,63304,38.7197117,-90.6497103
801,Nancy Lane,63304,38.7197696,-90.6515356
827,Nancy Lane,63304,38.7204043,-90.6490425
815,Nancy Lane,63304,38.7200240,-90.6500912
809,Nancy Lane,63304,38.7199299,-90.6504318
805,Nancy Lane,63304,38.7197842,-90.6508853
804,Nancy Lane,63304,38.7194675,-90.6506015
848,Nancy Lane,63304,38.7205102,-90.6472005
847,Nancy Lane,63304,38.7208137,-90.6476224
828,Nancy Lane,63304,38.7199692,-90.6489310
840,Nancy Lane,63304,38.7200800,-90.6484672
822,Nancy Lane,63304,38.7199083,-90.6492118
839,Nancy Lane,63304,38.7205601,-90.6483430
972,South Breeze Drive,63304,38.7227509,-90.6595630
850,South Breeze Drive,63304,38.7188568,-90.6576493
980,South Breeze Drive,63304,38.7232364,-90.6595728
858,South Breeze Drive,63304,38.7189718,-90.6580515
824,Butterfly Lane,63304,38.7177961,-90.6539453
819,Butterfly Lane,63304,38.7174728,-90.6552515
818,Butterfly Lane,63304,38.7171766,-90.6535258
720,Butterfly Lane,63304,38.7158992,-90.6532950
710,Butterfly Lane,63304,38.7154450,-90.6528038
812,Butterfly Lane,63304,38.7165555,-90.6534652
820,Butterfly Lane,63304,38.7175910,-90.6543981
701,Butterfly Lane,63304,38.7159324,-90.6543235
811,Butterfly Lane,63304,38.7164192,-90.6545481
815,Butterfly Lane,63304,38.7170031,-90.6548317
3,El Caballo,63304,38.7158046,-90.6580826
1,El Caballo,63304,38.7157912,-90.6593274
2,El Caballo,63304,38.7159595,-90.6573411
6,El Caballo,63304,38.7150329,-90.6567523
5769,Hoffman Ford Court,63304,38.7154782,-90.6620443
5773,Hoffman Ford Court,63304,38.7156200,-90.6626894
5765,Hoffman Ford Court,63304,38.7159632,-90.6623644
5767,Hoffman Ford Court,63304,38.7157983,-90.6619386
5771,Hoffman Ford Court,63304,38.7153575,-90.6624345
5787,Chadds Ford Court,63304,38.7148086,-90.6636456
5785,Chadds Ford Court,63304,38.7150110,-90.6633190
5783,Chadds Ford Court,63304,38.7152653,-90.6634336
5780,White Horse Court,63304,38.7156971,-90.6643386
5786,White Horse Court,63304,38.7154181,-90.6650349
5784,White Horse Court,63304,38.7158117,-90.6648449
4,Westchester Meadow Court,63304,38.7167739,-90.6666495
3,Westchester Meadow Court,63304,38.7165396,-90.6671114
1,Westchester Meadow Court,63304,38.7162830,-90.6669504
5781,Westchester Farm Drive,63304,38.7155533,-90.6638368
5777,Westchester Farm Drive,63304,38.7158087,-90.6634722
5756,Westchester Farm Drive,63304,38.7167549,-90.6630350
5775,Westchester Farm Drive,63304,38.7159220,-90.6630363
5764,Westchester Farm Drive,63304,38.7164120,-90.6630133
5768,Westchester Farm Drive,63304,38.7162281,-90.6633937
5793,Westchester Farm Drive,63304,38.7145840,-90.6647460
5791,Westchester Farm Drive,63304,38.7147577,-90.6644470
5759,Westchester Farm Drive,63304,38.7170438,-90.6626573
5772,Westchester Farm Drive,63304,38.7161004,-90.6637319
5799,Westchester Farm Drive,63304,38.7140912,-90.6659746
5790,Westchester Farm Drive,63304,38.7151640,-90.6646742
5761,Westchester Farm Drive,63304,38.7167889,-90.6625024
5763,Westchester Farm Drive,63304,38.7165108,-90.6624395
5789,Westchester Farm Drive,63304,38.7150772,-90.6642352
5757,Westchester Farm Drive,63304,38.7172819,-90.6628304
5795,Westchester Farm Drive,63304,38.7144390,-90.6650952
5776,Westchester Farm Drive,63304,38.7159580,-90.6640312
5740,Westchester Meadow Drive,63304,38.7163715,-90.6654139
5743,Westchester Meadow Drive,63304,38.7170122,-90.6650236
5749,Westchester Meadow Drive,63304,38.7173813,-90.6640725
5730,Westchester Meadow Drive,63304,38.7160844,-90.6662258
5731,Westchester Meadow Drive,63304,38.7160258,-90.6667923
5727,Westchester Meadow Drive,63304,38.7154701,-90.6664364
5707,Westchester Meadow Drive,63304,38.7125069,-90.6640600
5723,Westchester Meadow Drive,63304,38.7149249,-90.6660638
5739,Westchester Meadow Drive,63304,38.7167370,-90.6656211
5725,Westchester Meadow Drive,63304,38.7152057,-90.6662011
5737,Westchester Meadow Drive,63304,38.7166206,-90.6659441
5741,Westchester Meadow Drive,63304,38.7168830,-90.6653378
5705,Westchester Meadow Drive,63304,38.7126116,-90.6633851
5738,Westchester Meadow Drive,63304,38.7162677,-90.6657232
5744,Westchester Meadow Drive,63304,38.7166193,-90.6647985
5755,Westchester Meadow Drive,63304,38.7176177,-90.6629074
5711,Westchester Meadow Drive,63304,38.7128459,-90.6647468
5721,Westchester Meadow Drive,63304,38.7146195,-90.6659015
5713,Westchester Meadow Drive,63304,38.7131526,-90.6649357
5753,Westchester Meadow Drive,63304,38.7177676,-90.6631728
5747,Westchester Meadow Drive,63304,38.7172234,-90.6643777
5715,Westchester Meadow Drive,63304,38.7134628,-90.6651198
5724,Westchester Meadow Drive,63304,38.7151034,-90.6655691
5709,Westchester Meadow Drive,63304,38.7125995,-90.6644826
5746,Westchester Meadow Drive,63304,38.7167484,-90.6644349
5748,Westchester Meadow Drive,63304,38.7168643,-90.6641216
5752,Westchester Meadow Drive,63304,38.7170696,-90.6634486
5719,Westchester Meadow Drive,63304,38.7141676,-90.6654942
5699,Westchester Meadow Drive,63304,38.7133289,-90.6631120
5726,Westchester Meadow Drive,63304,38.7153861,-90.6657801
5722,Westchester Meadow Drive,63304,38.7148367,-90.6654730
5729,Westchester Meadow Drive,63304,38.7157113,-90.6665929
5751,Westchester Meadow Drive,63304,38.7174753,-90.6637486
5728,Westchester Meadow Drive,63304,38.7157126,-90.6659732
5703,Westchester Meadow Drive,63304,38.7128439,-90.6628478
5718,Westchester Meadow Drive,63304,38.7138917,-90.6647614
5742,Westchester Meadow Drive,63304,38.7165131,-90.6650617
5701,Westchester Meadow Drive,63304,38.7131132,-90.6629245
5759,Westchester Meadow Drive,63304,38.7169815,-90.6638176
5735,Westchester Meadow Drive,63304,38.7165122,-90.6663036
5708,Westchester Meadow Drive,63304,38.7129431,-90.6641312
5745,Westchester Meadow Drive,63304,38.7170964,-90.6646939
5704,Westchester Meadow Drive,63304,38.7131175,-90.6636694
5717,Westchester Meadow Drive,63304,38.7138342,-90.6653028
5889,Canterfield Court,63304,38.7137391,-90.6633347
5881,Canterfield Court,63304,38.7140694,-90.6625230
5857,Canterfield Court,63304,38.7136309,-90.6613737
5888,Canterfield Court,63304,38.7141102,-90.6636025
5861,Canterfield Court,63304,38.7139016,-90.6614957
5864,Canterfield Court,63304,38.7147592,-90.6615784
5869,Canterfield Court,63304,38.7143030,-90.6616233
5872,Canterfield Court,63304,38.7145866,-90.6624267
5897,Canterfield Court,63304,38.7135091,-90.6638735
5856,Canterfield Court,63304,38.7142339,-90.6609194
5885,Canterfield Court,63304,38.7139289,-90.6628855
5877,Canterfield Court,63304,38.7141790,-90.6621722
5868,Canterfield Court,63304,38.7147172,-90.6621103
5896,Canterfield Court,63304,38.7138841,-90.6642407
5880,Canterfield Court,63304,38.7143691,-90.6629937
5860,Canterfield Court,63304,38.7146444,-90.6612508
5884,Canterfield Court,63304,38.7142107,-90.6632954
5892,Canterfield Court,63304,38.7139830,-90.6639359
5876,Canterfield Court,63304,38.7144580,-90.6627817
5852,Canterfield Court,63304,38.7138340,-90.6607403
5901,Canterfield Court,63304,38.7132347,-90.6643590
5853,Canterfield Court,63304,38.7135781,-90.6610134
778,Southbrook Forest Court,63304,38.7160369,-90.6703744
758,Southbrook Forest Court,63304,38.7174999,-90.6698775
786,Southbrook Forest Court,63304,38.7152665,-90.6701260
762,Southbrook Forest Court,63304,38.7173589,-90.6700712
779,Southbrook Forest Court,63304,38.7157231,-90.6696465
751,Southbrook Forest Court,63304,38.7175585,-90.6688547
790,Southbrook Forest Court,63304,38.7149884,-90.6699202
771,Southbrook Forest Court,63304,38.7161820,-90.6698503
774,Southbrook Forest Court,63304,38.7163523,-90.6704795
787,Southbrook Forest Court,63304,38.7152680,-90.6693670
754,Southbrook Forest Court,63304,38.7177044,-90.6695232
782,Southbrook Forest Court,63304,38.7157188,-90.6701618
763,Southbrook Forest Court,63304,38.7168044,-90.6699466
770,Southbrook Forest Court,63304,38.7166789,-90.6705138
750,Southbrook Forest Court,63304,38.7179243,-90.6691221
791,Southbrook Forest Court,63304,38.7150703,-90.6694530
766,Southbrook Forest Court,63304,38.7170391,-90.6704220
755,Southbrook Forest Court,63304,38.7172135,-90.6693935
719,Balboa Court,63304,38.7147343,-90.6689569
713,Balboa Court,63304,38.7143868,-90.6685911
720,Balboa Court,63304,38.7148865,-90.6682468
712,Balboa Court,63304,38.7145876,-90.6680658
706,Balboa Court,63304,38.7140258,-90.6677043
706,De Vaca Lane,63304,38.7133418,-90.6691811
712,De Vaca Lane,63304,38.7140632,-90.6697148
709,De Vaca Lane,63304,38.7134236,-90.6697619
707,De Vaca Lane,63304,38.7132172,-90.6695837
708,De Vaca Lane,63304,38.7136325,-90.6692323
711,De Vaca Lane,63304,38.7139189,-90.6700825
707,Seville Lane,63304,38.7128625,-90.6710280
713,Seville Lane,63304,38.7133808,-90.6713585
708,Seville Lane,63304,38.7133345,-90.6706461
712,Desoto Lane,63304,38.7131895,-90.6722150
711,Desoto Lane,63304,38.7129386,-90.6726403
708,Desoto Lane,63304,38.7130820,-90.6718282
702,Desoto Lane,63304,38.7126170,-90.6718830
703,Desoto Lane,63304,38.7124199,-90.6723929
5927,Lafayette Drive,63304,38.7126825,-90.6698526
6033,Lafayette Drive,63304,38.7106451,-90.6750291
5935,Lafayette Drive,63304,38.7124260,-90.6704791
6020,Lafayette Drive,63304,38.7112946,-90.6750879
5964,Lafayette Drive,63304,38.7119518,-90.6730339
5904,Lafayette Drive,63304,38.7137687,-90.6681762
6005,Lafayette Drive,63304,38.7113714,-90.6733741
6004,Lafayette Drive,63304,38.7116857,-90.6736802
5911,Lafayette Drive,63304,38.7131904,-90.6684410
6011,Lafayette Drive,63304,38.7111379,-90.6739325
5941,Lafayette Drive,63304,38.7120796,-90.6712034
5939,Lafayette Drive,63304,38.7122822,-90.6710020
5863,Lafayette Drive,63304,38.7136318,-90.6673841
6021,Lafayette Drive,63304,38.7108992,-90.6745156
5953,Lafayette Drive,63304,38.7117869,-90.6716235
5903,Lafayette Drive,63304,38.7133088,-90.6679579
5919,Lafayette Drive,63304,38.7129540,-90.6692191
6012,Lafayette Drive,63304,38.7113989,-90.6743654
6032,Lafayette Drive,63304,38.7109152,-90.6756306
5965,Lafayette Drive,63304,38.7115862,-90.6726688
318,Merlin Drive,63304,38.7117120,-90.6547960
315,Merlin Drive,63304,38.7118331,-90.6553246
326,Merlin Drive,63304,38.7125441,-90.6547677
311,Merlin Drive,63304,38.7113743,-90.6559058
314,Merlin Drive,63304,38.7113374,-90.6550142
307,Merlin Drive,63304,38.7111743,-90.6563585
303,Merlin Drive,63304,38.7107352,-90.6565994
302,Merlin Drive,63304,38.7106173,-90.6562428
322,Merlin Drive,63304,38.7120821,-90.6547628
5328,Enchanted Drive,63304,38.7136259,-90.6549650
5332,Enchanted Drive,63304,38.7134156,-90.6556135
5329,Enchanted Drive,63304,38.7132614,-90.6546272
371,Galahad Court,63304,38.7124994,-90.6579198
359,Galahad Court,63304,38.7119120,-90.6582011
367,Galahad Court,63304,38.7124714,-90.6583869
363,Galahad Court,63304,38.7120466,-90.6587206
364,Galahad Drive,63304,38.7119918,-90.6573153
372,Galahad Drive,63304,38.7123527,-90.6571763
351,Galahad Drive,63304,38.7106139,-90.6583087
348,Galahad Drive,63304,38.7101153,-90.6576565
355,Galahad Drive,63304,38.7112884,-90.6581720
352,Galahad Drive,63304,38.7105684,-90.6576948
360,Galahad Drive,63304,38.7115385,-90.6574112
347,Galahad Drive,63304,38.7100237,-90.6581936
340,Galahad Drive,63304,38.7094581,-90.6578989
344,Galahad Drive,63304,38.7096695,-90.6573110
356,Galahad Drive,63304,38.7110953,-90.6575558
5426,Guinevere Court,63304,38.7094018,-90.6526522
5418,Guinevere Court,63304,38.7100862,-90.6528548
5434,Guinevere Drive,63304,38.7089488,-90.6534421
5422,Guinevere Court,63304,38.7098071,-90.6529941
5410,Guinevere Drive,63304,38.7100721,-90.6516132
5438,Guinevere Drive,63304,38.7087397,-90.6539351
5407,Guinevere Drive,63304,38.7100517,-90.6508037
5411,Guinevere Drive,63304,38.7098223,-90.6510871
5402,Guinevere Drive,63304,38.7106904,-90.6506738
5406,Guinevere Drive,63304,38.7103160,-90.6511975
5403,Guinevere Drive,63304,38.7103066,-90.6501171
5415,Guinevere Drive,63304,38.7095965,-90.6514655
5439,Guinevere Drive,63304,38.7081865,-90.6535647
5431,Guinevere Drive,63304,38.7086136,-90.6528206
5442,Guinevere Drive,63304,38.7083897,-90.6539678
5427,Guinevere Drive,63304,38.7088311,-90.6524428
5435,Guinevere Drive,63304,38.7084385,-90.6532509
5419,Guinevere Drive,63304,38.7093824,-90.6518763
5414,Guinevere Drive,63304,38.7099418,-90.6521132
5423,Guinevere Drive,63304,38.7090585,-90.6521018
5404,Gareth Drive,63304,38.7084974,-90.6500470
5405,Gareth Drive,63304,38.7081298,-90.6496920
5413,Gareth Drive,63304,38.7076895,-90.6500726
5417,Gareth Drive,63304,38.7073527,-90.6502980
5408,Gareth Drive,63304,38.7082598,-90.6503455
5416,Gareth Drive,63304,38.7076647,-90.6508136
5412,Gareth Drive,63304,38.7078891,-90.6505811
5420,Gareth Drive,63304,38.7071843,-90.6511648
5401,Gareth Drive,63304,38.7082943,-90.6490786
5421,Gareth Drive,63304,38.7069627,-90.6505235
215,Caliburn Court,63304,38.7067433,-90.6514832
219,Caliburn Court,63304,38.7065711,-90.6521052
222,Caliburn Court,63304,38.7071204,-90.6522644
218,Caliburn Court,63304,38.7072162,-90.6518183
223,Caliburn Court,63304,38.7068421,-90.6526381
207,Wizard Court,63304,38.7061660,-90.6503465
203,Wizard Court,63304,38.7061315,-90.6498034
202,Wizard Court,63304,38.7064373,-90.6496439
211,Wizard Court,63304,38.7065083,-90.6507931
20,Agravaine Court,63304,38.7069460,-90.6486636
30,Agravaine Court,63304,38.7064665,-90.6487722
50,Agravaine Court,63304,38.7060584,-90.6481896
40,Agravaine Court,63304,38.7059958,-90.6486853
329,Perceval Drive,63304,38.7109628,-90.6555706
320,Perceval Drive,63304,38.7096944,-90.6549618
308,Perceval Drive,63304,38.7083671,-90.6556047
328,Perceval Drive,63304,38.7105013,-90.6548782
312,Perceval Drive,63304,38.7087836,-90.6554117
304,Perceval Drive,63304,38.7079551,-90.6556501
300,Perceval Drive,63304,38.7077341,-90.6561621
316,Perceval Drive,63304,38.7092532,-90.6551687
325,Perceval Drive,63304,38.7102378,-90.6554833
324,Perceval Drive,63304,38.7100716,-90.6549001
309,Perceval Drive,63304,38.7090644,-90.6559088
317,Perceval Drive,63304,38.7097008,-90.6556209
301,Perceval Drive,63304,38.7082630,-90.6564077
5351,Lancelot Drive,63304,38.7108629,-90.6489392
5347,Lancelot Drive,63304,38.7110063,-90.6484762
5334,Lancelot Drive,63304,38.7112960,-90.6457640
5355,Lancelot Drive,63304,38.7106018,-90.6493377
5310,Lancelot Drive,63304,38.7093487,-90.6465085
5342,Lancelot Drive,63304,38.7116198,-90.6483443
5326,Lancelot Drive,63304,38.7105299,-90.6452039
5339,Lancelot Drive,63304,38.7112663,-90.6468998
5330,Lancelot Drive,63304,38.7110013,-90.6454651
5306,Lancelot Drive,63304,38.7091822,-90.6470052
5322,Lancelot Drive,63304,38.7101305,-90.6451961
5338,Lancelot Drive,63304,38.7115460,-90.6463576
5307,Lancelot Drive,63304,38.7095031,-90.6472832
5318,Lancelot Drive,63304,38.7098501,-90.6454415
5315,Lancelot Drive,63304,38.7100142,-90.6466955
5350,Lancelot Drive,63304,38.7113686,-90.6490787
5327,Lancelot Drive,63304,38.7107000,-90.6458960
5335,Lancelot Drive,63304,38.7110855,-90.6463939
5319,Lancelot Drive,63304,38.7102015,-90.6462234
5314,Lancelot Drive,63304,38.7096835,-90.6460272
5343,Lancelot Drive,63304,38.7111817,-90.6479496
5311,Lancelot Drive,63304,38.7098034,-90.6470297
5575,East Hennsley Circle Court,63304,38.7263877,-90.6596335
5583,East Hennsley Circle Court,63304,38.7260837,-90.6599971
5579,East Hennsley Circle Court,63304,38.7261605,-90.6597116
5511,Hennsley Circle Court,63304,38.7284501,-90.6638829
5517,Hennsley Circle Court,63304,38.7288242,-90.6633006
5513,Hennsley Circle Court,63304,38.7286337,-90.6640386
5515,Hennsley Circle Court,63304,38.7288888,-90.6639323
5532,Hennsley Circle,63304,38.7289817,-90.6619405
5542,Hennsley Circle,63304,38.7284357,-90.6614910
5509,Hennsley Circle,63304,38.7283867,-90.6632580
5588,Hennsley Circle,63304,38.7263703,-90.6613047
5527,Hennsley Circle,63304,38.7295978,-90.6619918
5589,Hennsley Circle,63304,38.7260033,-90.6612002
5525,Hennsley Circle,63304,38.7293586,-90.6622694
5523,Hennsley Circle,63304,38.7292210,-90.6626369
5521,Hennsley Circle,63304,38.7290842,-90.6629710
5593,Hennsley Circle,63304,38.7259903,-90.6619299
5508,Hennsley Circle,63304,38.7282818,-90.6626738
5505,Hennsley Circle,63304,38.7280767,-90.6630766
5568,Hennsley Circle,63304,38.7268886,-90.6606187
5531,Hennsley Circle,63304,38.7292642,-90.6613991
5529,Hennsley Circle,63304,38.7296567,-90.6616485
5596,Hennsley Circle,63304,38.7263592,-90.6628097
5592,Hennsley Circle,63304,38.7263530,-90.6620233
5535,Hennsley Circle,63304,38.7289382,-90.6613148
5558,Hennsley Circle,63304,38.7272448,-90.6608214
5587,Hennsley Circle,63304,38.7260381,-90.6608451
5597,Hennsley Circle,63304,38.7259193,-90.6627175
5594,Hennsley Circle,63304,38.7263419,-90.6623456
5504,Hennsley Circle,63304,38.7279853,-90.6624901
5595,Hennsley Circle,63304,38.7259792,-90.6622983
5567,Hennsley Circle,63304,38.7269366,-90.6600547
5543,Hennsley Circle,63304,38.7284896,-90.6610693
5591,Hennsley Circle,63304,38.7260055,-90.6615305
5563,Hennsley Circle,63304,38.7272065,-90.6602307
5590,Hennsley Circle,63304,38.7263725,-90.6616460
5547,Hennsley Circle,63304,38.7282386,-90.6609057
5546,Hennsley Circle,63304,38.7282232,-90.6613857
5578,Hennsley Circle,63304,38.7264754,-90.6606294
5571,Hennsley Circle,63304,38.7266381,-90.6600024
5516,Hennsley Circle,63304,38.7285843,-90.6628248
5551,Hennsley Circle,63304,38.7280131,-90.6607662
5538,Hennsley Circle,63304,38.7286799,-90.6616827
5555,Hennsley Circle,63304,38.7277598,-90.6606012
5585,Hennsley Circle,63304,38.7261305,-90.6604744
5539,Hennsley Circle,63304,38.7287338,-90.6612195
5559,Hennsley Circle,63304,38.7274474,-90.6603941
5524,Hennsley Circle,63304,38.7288900,-90.6624684
3,Charing Cross Court,63304,38.7249519,-90.6641677
1,Charing Cross Court,63304,38.7252311,-90.6641983
5,Charing Cross Court,63304,38.7248251,-90.6645159
5761,Halifax Bend Court,63304,38.7244137,-90.6660285
5759,Halifax Bend Court,63304,38.7242119,-90.6657817
5763,Halifax Bend Court,63304,38.7246095,-90.6661419
5751,Halifax Bend Court,63304,38.7251527,-90.6656668
5757,Halifax Bend Court,63304,38.7242973,-90.6652727
5765,Halifax Bend Court,63304,38.7248699,-90.6662162
5753,Halifax Bend Court,63304,38.7247282,-90.6655991
5755,Halifax Bend Court,63304,38.7245556,-90.6652391
5715,Wrenwyck Place,63304,38.7278681,-90.6652992
5654,Wrenwyck Place,63304,38.7257496,-90.6641577
5714,Wrenwyck Place,63304,38.7275164,-90.6657879
5713,Wrenwyck Place,63304,38.7280604,-90.6655320
5684,Wrenwyck Place,63304,38.7266461,-90.6665847
5729,Wrenwyck Place,63304,38.7267892,-90.6649356
5691,Wrenwyck Place,63304,38.7269323,-90.6675754
5689,Wrenwyck Place,63304,38.7266248,-90.6673417
5685,Wrenwyck Place,63304,38.7264558,-90.6670360
5673,Wrenwyck Place,63304,38.7256689,-90.6666870
5701,Wrenwyck Place,63304,38.7276775,-90.6668517
5668,Wrenwyck Place,63304,38.7256344,-90.6659142
5680,Wrenwyck Place,63304,38.7263955,-90.6664801
5672,Wrenwyck Place,63304,38.7258949,-90.6662440
5698,Wrenwyck Place,63304,38.7273129,-90.6666424
5697,Wrenwyck Place,63304,38.7275514,-90.6676500
5651,Wrenwyck Place,63304,38.7253144,-90.6632180
5677,Wrenwyck Place,63304,38.7259107,-90.6667747
5705,Wrenwyck Place,63304,38.7277940,-90.6665352
5733,Wrenwyck Place,63304,38.7265371,-90.6648410
5717,Wrenwyck Place,63304,38.7275762,-90.6652287
5737,Wrenwyck Place,63304,38.7262734,-90.6647470
5693,Wrenwyck Place,63304,38.7271007,-90.6678590
5694,Wrenwyck Place,63304,38.7269404,-90.6670076
5676,Wrenwyck Place,63304,38.7261635,-90.6663950
5695,Wrenwyck Place,63304,38.7274772,-90.6679963
5681,Wrenwyck Place,63304,38.7261647,-90.6668715
5734,Wrenwyck Place,63304,38.7261397,-90.6652088
5671,Wrenwyck Place,63304,38.7254269,-90.6664379
5699,Wrenwyck Place,63304,38.7275303,-90.6671638
5718,Wrenwyck Place,63304,38.7271168,-90.6656225
5669,Wrenwyck Place,63304,38.7252026,-90.6662238
5725,Wrenwyck Place,63304,38.7270421,-90.6650420
5706,Wrenwyck Place,63304,38.7274405,-90.6662669
5664,Wrenwyck Place,63304,38.7255142,-90.6654696
5721,Wrenwyck Place,63304,38.7272296,-90.6651502
5730,Wrenwyck Place,63304,38.7264120,-90.6653092
5726,Wrenwyck Place,63304,38.7266670,-90.6654157
5741,Wrenwyck Place,63304,38.7259173,-90.6645942
5663,Wrenwyck Place,63304,38.7252133,-90.6648594
5662,Wrenwyck Place,63304,38.7255850,-90.6650244
5711,Wrenwyck Place,63304,38.7280139,-90.6658498
5722,Wrenwyck Place,63304,38.7269161,-90.6655434
5709,Wrenwyck Place,63304,38.7279071,-90.6662079
813,Dunbarton Drive,63304,38.7245471,-90.6631841
821,Dunbarton Drive,63304,38.7250192,-90.6632973
833,Dunbarton Drive,63304,38.7260945,-90.6632852
841,Dunbarton Drive,63304,38.7266894,-90.6633999
868,Dunbarton Drive,63304,38.7272596,-90.6614302
864,Dunbarton Drive,63304,38.7272209,-90.6617942
800,Dunbarton Drive,63304,38.7241181,-90.6623966
807,Dunbarton Drive,63304,38.7242220,-90.6629820
806,Dunbarton Drive,63304,38.7244380,-90.6624958
857,Dunbarton Drive,63304,38.7276504,-90.6628113
853,Dunbarton Drive,63304,38.7274357,-90.6632277
861,Dunbarton Drive,63304,38.7276243,-90.6621710
856,Dunbarton Drive,63304,38.7272257,-90.6624250
801,Dunbarton Drive,63304,38.7239541,-90.6628667
848,Dunbarton Drive,63304,38.7270718,-90.6629137
865,Dunbarton Drive,63304,38.7276042,-90.6617208
840,Dunbarton Drive,63304,38.7267462,-90.6629297
845,Dunbarton Drive,63304,38.7269685,-90.6634822
873,Dunbarton Drive,63304,38.7276794,-90.6612090
849,Dunbarton Drive,63304,38.7271920,-90.6634251
860,Dunbarton Drive,63304,38.7272108,-90.6621378
817,Dunbarton Drive,63304,38.7248083,-90.6632929
829,Dunbarton Drive,63304,38.7258320,-90.6633450
837,Dunbarton Drive,63304,38.7264258,-90.6633597
5621,Grinnell Court,63304,38.7247211,-90.6625972
5624,Grinnell Court,63304,38.7252389,-90.6627142
5612,Grinnell Court,63304,38.7250766,-90.6615466
5604,Grinnell Court,63304,38.7251902,-90.6607997
5608,Grinnell Court,63304,38.7251647,-90.6612060
5613,Grinnell Court,63304,38.7247071,-90.6619810
5620,Grinnell Court,63304,38.7252094,-90.6623083
5616,Grinnell Court,63304,38.7251612,-90.6619099
5605,Grinnell Court,63304,38.7247413,-90.6612436
5601,Grinnell Court,63304,38.7247209,-90.6607992
5609,Grinnell Court,63304,38.7246920,-90.6615876
5600,Grinnell Court,63304,38.7250185,-90.6605368
670,Willow Lake Court,63304,38.7143524,-90.6463809
650,Willow Lake Court,63304,38.7141329,-90.6454733
640,Willow Lake Court,63304,38.7140112,-90.6446318
660,Willow Lake Court,63304,38.7145145,-90.6458218
643,Willow Lake Court,63304,38.7135347,-90.6447417
653,Willow Lake Court,63304,38.7132421,-90.6452716
663,Willow Lake Court,63304,38.7133216,-90.6456639
630,Willow Lake Court,63304,38.7141755,-90.6440145
620,Willow Lake Court,63304,38.7143230,-90.6436188
673,Willow Lake Court,63304,38.7138510,-90.6460112
633,Willow Lake Court,63304,38.7134032,-90.6437150
949,Golden Acres Lane,63304,38.7237913,-90.6521390
941,Golden Acres Lane,63304,38.7244589,-90.6533554
933,Golden Acres Lane,63304,38.7243350,-90.6540015
950,Golden Acres Lane,63304,38.7247753,-90.6523517
939,Golden Acres Lane,63304,38.7245857,-90.6514841
890,Westerfield Drive South,63304,38.7224034,-90.6585799
886,Westerfield Drive South,63304,38.7223548,-90.6584567
894,Westerfield Drive South,63304,38.7224732,-90.6586645
898,Westerfield Drive South,63304,38.7225365,-90.6587702
904,Westerfield Drive North,63304,38.7227295,-90.6588980
908,Westerfield Drive North,63304,38.7228332,-90.6589122
5511,Bourbeuse Common,63304,38.7226618,-90.6582778
5515,Bourbeuse Common,63304,38.7226827,-90.6583962
5534,Bourbeuse Common,63304,38.7232447,-90.6585210
5495,Bourbeuse Common,63304,38.7226997,-90.6579265
5526,Bourbeuse Common,63304,38.7232521,-90.6582697
5519,Bourbeuse Common,63304,38.7227920,-90.6584359
5502,Bourbeuse Common,63304,38.7229056,-90.6577213
5523,Bourbeuse Common,63304,38.7228409,-90.6585074
5499,Bourbeuse Common,63304,38.7226705,-90.6579566
5514,Bourbeuse Common,63304,38.7231534,-90.6579867
5506,Bourbeuse Common,63304,38.7230426,-90.6577830
5544,Bourbeuse Common,63304,38.7231313,-90.6589056
5518,Bourbeuse Common,63304,38.7232296,-90.6580759
5540,Bourbeuse Common,63304,38.7231346,-90.6587743
5507,Bourbeuse Common,63304,38.7226347,-90.6582236
5503,Bourbeuse Common,63304,38.7225392,-90.6580470
5527,Bourbeuse Common,63304,38.7229315,-90.6585689
5510,Bourbeuse Common,63304,38.7230778,-90.6579420
5498,Bourbeuse Common,63304,38.7228255,-90.6577949
5522,Bourbeuse Common,63304,38.7232121,-90.6581995
5530,Bourbeuse Common,63304,38.7232480,-90.6583956
5494,Bourbeuse Common,63304,38.7227722,-90.6578541
5583,Westerfield Parkway,63304,38.7221004,-90.6590860
5587,Westerfield Parkway,63304,38.7220815,-90.6592245
5595,Westerfield Parkway,63304,38.7220474,-90.6595310
5591,Westerfield Parkway,63304,38.7220611,-90.6593951
5582,Westerfield Parkway,63304,38.7224348,-90.6591753
5586,Westerfield Parkway,63304,38.7224241,-90.6593104
5594,Westerfield Parkway,63304,38.7223792,-90.6594867
5579,Westerfield Parkway,63304,38.7221260,-90.6589124
5598,Westerfield Parkway,63304,38.7223859,-90.6596442
5575,Westerfield Parkway,63304,38.7221442,-90.6587766
850,Westwood Industrial Park Court,63304,38.7259173,-90.6681652
840,Westwood Industrial Park Court,63304,38.7250895,-90.6678895
831,Westwood Industrial Park Drive,63304,38.7241104,-90.6694268
841,Westwood Industrial Park Drive,63304,38.7248728,-90.6697646
855,Westwood Industrial Park Drive,63304,38.7254963,-90.6702204
5729,Westwood Industrial Park Drive,63304,38.7220556,-90.6673424
835,Westwood Industrial Park Drive,63304,38.7238601,-90.6700759
810,Westwood Industrial Park Drive,63304,38.7231125,-90.6675244
811,Westwood Industrial Park Drive,63304,38.7228342,-90.6686992
801,Westwood Industrial Park Drive,63304,38.7217714,-90.6679889
820,Westwood Industrial Park Drive,63304,38.7238031,-90.6685184
204,Ozark Meadows Drive,63304,38.7256723,-90.6803367
201,Ozark Meadows Drive,63304,38.7245071,-90.6802281
200,Ozark Meadows Drive,63304,38.7248192,-90.6798417
206,Ozark Meadows Drive,63304,38.7255682,-90.6808587
202,Ozark Meadows Drive,63304,38.7252158,-90.6800814
203,Ozark Meadows Drive,63304,38.7248789,-90.6804632
205,Ozark Meadows Drive,63304,38.7252874,-90.6808559
6101,Ozark Way,63304,38.7239000,-90.6822605
525,Huber Park Court,63304,38.7165665,-90.6775303
540,Huber Park Court,63304,38.7168937,-90.6770443
550,Huber Park Court,63304,38.7169837,-90.6774522
500,Huber Park Court,63304,38.7160234,-90.6761207
9,Cedar Glen Court,63304,38.7157860,-90.6783847
2,Cedar Glen Court,63304,38.7152444,-90.6786681
6,Cedar Glen Court,63304,38.7153356,-90.6784545
15,Cedar Glen Court,63304,38.7158582,-90.6781303
18,Cedar Glen Court,63304,38.7156886,-90.6777727
10,Cedar Glen Court,63304,38.7154108,-90.6782048
14,Cedar Glen Court,63304,38.7154477,-90.6778322
5,Cedar Glen Court,63304,38.7156552,-90.6786374
104,Cedar Crest Court,63304,38.7167446,-90.6793038
124,Cedar Crest Court,63304,38.7165902,-90.6783535
132,Cedar Crest Court,63304,38.7169781,-90.6786489
128,Cedar Crest Court,63304,38.7167890,-90.6784763
120,Cedar Crest Court,63304,38.7163128,-90.6784105
116,Cedar Crest Court,63304,38.7162226,-90.6786678
112,Cedar Crest Court,63304,38.7163607,-90.6789205
136,Cedar Crest Court,63304,38.7172056,-90.6787318
108,Cedar Crest Court,63304,38.7166901,-90.6789038
140,Cedar Crest Court,63304,38.7172977,-90.6789899
144,Cedar Crest Court,63304,38.7170618,-90.6793738
8,Cedar Knolls Court,63304,38.7176593,-90.6797464
19,Cedar Knolls Court,63304,38.7180796,-90.6794436
12,Cedar Knolls Court,63304,38.7177057,-90.6794404
16,Cedar Knolls Court,63304,38.7179153,-90.6792961
27,Cedar Knolls Court,63304,38.7179777,-90.6799902
23,Cedar Knolls Court,63304,38.7181029,-90.6796808
114,Cedar Ridge Court,63304,38.7189063,-90.6800134
122,Cedar Ridge Court,63304,38.7193351,-90.6802050
121,Cedar Ridge Court,63304,38.7192298,-90.6807740
118,Cedar Ridge Court,63304,38.7190973,-90.6800729
106,Cedar Ridge Court,63304,38.7185061,-90.6803193
130,Cedar Ridge Court,63304,38.7195037,-90.6806940
110,Cedar Ridge Court,63304,38.7187008,-90.6800879
109,Cedar Ridge Court,63304,38.7189092,-90.6804554
126,Cedar Ridge Court,63304,38.7194978,-90.6804152
804,Cedar Tree Drive,63304,38.7192147,-90.6818319
2,Hemingway Court,63304,38.7180641,-90.6826451
5,Hemingway Court,63304,38.7180194,-90.6820234
3,Hemingway Court,63304,38.7179291,-90.6825658
6,Hemingway Court,63304,38.7182102,-90.6819691
7,Hemingway Court,63304,38.7184176,-90.6820322
4,Hemingway Court,63304,38.7178711,-90.6822352
6318,Weldon Spring Road,63304,38.7153080,-90.6892482
6324,Weldon Spring Road,63304,38.7156063,-90.6894037
6401,Weldon Spring Road,63304,38.7173084,-90.6881349
6365,Weldon Spring Road,63304,38.7199663,-90.6915877
6312,Weldon Spring Road,63304,38.7151656,-90.6891155
175,Miller School Road,63304,38.7113826,-90.6967574
913,Kisker Road,63304,38.7253935,-90.6189370
901,Kisker Road,63304,38.7242246,-90.6191136
905,Kisker Road,63304,38.7246175,-90.6194890
640,Timberview Lane,63304,38.7155120,-90.6446566
630,Timberview Lane,63304,38.7150815,-90.6459542
611,Timberview Lane,63304,38.7151555,-90.6468593
4747,Crosshaven Drive,63304,38.7122189,-90.6180019
4717,Crosshaven Drive,63304,38.7126864,-90.6157513
4737,Crosshaven Drive,63304,38.7123850,-90.6172765
4727,Crosshaven Drive,63304,38.7126416,-90.6165040
4613,Crosshaven Court,63304,38.7113934,-90.6166871
4617,Crosshaven Court,63304,38.7113362,-90.6171419
4644,Crosshaven Court,63304,38.7114283,-90.6189118
4625,Crosshaven Court,63304,38.7111496,-90.6178004
4600,Crosshaven Court,63304,38.7117203,-90.6171086
4633,Crosshaven Court,63304,38.7110691,-90.6181424
4618,Crosshaven Court,63304,38.7116137,-90.6176237
4641,Crosshaven Court,63304,38.7110731,-90.6187289
4605,Crosshaven Court,63304,38.7117550,-90.6161969
4609,Crosshaven Court,63304,38.7115161,-90.6162496
4628,Crosshaven Court,63304,38.7115203,-90.6180058
4601,Crosshaven Court,63304,38.7121234,-90.6164291
4638,Crosshaven Court,63304,38.7115987,-90.6184495
234,Summit Ridge Place,63304,38.7103709,-90.6178573
206,Summit Ridge Place,63304,38.7110422,-90.6152324
230,Summit Ridge Place,63304,38.7106387,-90.6175628
218,Summit Ridge Place,63304,38.7108561,-90.6163232
207,Summit Ridge Place,63304,38.7106753,-90.6152478
229,Summit Ridge Place,63304,38.7101141,-90.6172184
215,Summit Ridge Place,63304,38.7104809,-90.6160502
219,Summit Ridge Place,63304,38.7103769,-90.6164252
223,Summit Ridge Place,63304,38.7103221,-90.6168371
210,Summit Ridge Place,63304,38.7110480,-90.6155917
214,Summit Ridge Place,63304,38.7110138,-90.6159384
205,Summit Ridge Place,63304,38.7106562,-90.6148918
222,Summit Ridge Place,63304,38.7107588,-90.6167211
226,Summit Ridge Place,63304,38.7106943,-90.6171445
235,Summit Ridge Place,63304,38.7100793,-90.6176651
202,Summit Ridge Place,63304,38.7111200,-90.6148737
211,Summit Ridge Place,63304,38.7106082,-90.6157049
4757,Private Lane,63304,38.7119740,-90.6190010
697,Claremoor Pass,63304,38.7100819,-90.6202381
693,Claremoor Pass,63304,38.7101926,-90.6194809
689,Claremoor Pass,63304,38.7103111,-90.6190052
700,Hilton Park Drive,63304,38.7212150,-90.6381090
5203,Shetland Drive,63304,38.7240798,-90.6406526
5200,Shetland Drive,63304,38.7245415,-90.6404003
5201,Shetland Drive,63304,38.7243444,-90.6403379
5212,Shetland Drive,63304,38.7238583,-90.6424925
5202,Shetland Drive,63304,38.7245805,-90.6408618
5204,Shetland Drive,63304,38.7243876,-90.6412644
5207,Shetland Drive,63304,38.7237615,-90.6417338
5208,Shetland Drive,63304,38.7242626,-90.6422079
5206,Shetland Drive,63304,38.7242739,-90.6415982
5210,Shetland Drive,63304,38.7242019,-90.6424226
5205,Shetland Drive,63304,38.7239229,-90.6413164
745,Blairbeth Drive,63304,38.7232962,-90.6405316
744,Blairbeth Drive,63304,38.7233555,-90.6400516
743,Blairbeth Drive,63304,38.7229305,-90.6404823
746,Blairbeth Drive,63304,38.7236374,-90.6402380
733,Blairbeth Drive,63304,38.7219019,-90.6392553
740,Blairbeth Drive,63304,38.7228501,-90.6399566
738,Blairbeth Drive,63304,38.7225753,-90.6397872
734,Blairbeth Drive,63304,38.7222878,-90.6394486
737,Blairbeth Drive,63304,38.7219861,-90.6399096
735,Blairbeth Drive,63304,38.7218817,-90.6395556
742,Blairbeth Drive,63304,38.7230838,-90.6399786
739,Blairbeth Drive,63304,38.7223281,-90.6402351
741,Blairbeth Drive,63304,38.7226138,-90.6403746
2,Balmore Court,63304,38.7229743,-90.6418995
4,Balmore Court,63304,38.7231079,-90.6424468
3,Balmore Court,63304,38.7229019,-90.6421095
1,Balmore Court,63304,38.7233901,-90.6419465
759,Bothwell Drive,63304,38.7220517,-90.6413602
753,Bothwell Drive,63304,38.7212531,-90.6408674
755,Bothwell Drive,63304,38.7214989,-90.6410814
752,Bothwell Drive,63304,38.7213847,-90.6401951
754,Bothwell Drive,63304,38.7216092,-90.6405103
758,Bothwell Drive,63304,38.7221765,-90.6411997
756,Bothwell Drive,63304,38.7219981,-90.6407570
757,Bothwell Drive,63304,38.7217163,-90.6412916
75,Greenburg Court,63304,38.7184429,-90.6427587
74,Greenburg Court,63304,38.7189572,-90.6431119
76,Greenburg Court,63304,38.7185716,-90.6433282
70,Greenburg Court,63304,38.7196191,-90.6425906
72,Greenburg Court,63304,38.7193291,-90.6428400
78,Greenburg Court,63304,38.7182263,-90.6436853
79,Greenburg Court,63304,38.7178805,-90.6435133
73,Greenburg Court,63304,38.7187676,-90.6425713
77,Greenburg Court,63304,38.7179055,-90.6428695
52,Waynesboro Court,63304,38.7194806,-90.6446880
53,Waynesboro Court,63304,38.7189746,-90.6443806
54,Waynesboro Court,63304,38.7194507,-90.6440181
37,Clarksburg Court,63304,38.7203372,-90.6442821
41,Clarksburg Court,63304,38.7205367,-90.6435626
43,Clarksburg Court,63304,38.7205684,-90.6431731
32,Clarksburg Court,63304,38.7206446,-90.6450547
40,Clarksburg Court,63304,38.7210979,-90.6436124
39,Clarksburg Court,63304,38.7204442,-90.6439154
34,Clarksburg Court,63304,38.7207379,-90.6447079
44,Clarksburg Court,63304,38.7208528,-90.6430125
36,Clarksburg Court,63304,38.7208545,-90.6443265
30,Clarksburg Court,63304,38.7205286,-90.6457370
42,Clarksburg Court,63304,38.7210768,-90.6431996
38,Clarksburg Court,63304,38.7209460,-90.6439347
35,Clarksburg Court,63304,38.7202890,-90.6446365
33,Clarksburg Court,63304,38.7201989,-90.6450485
31,Clarksburg Court,63304,38.7201032,-90.6456091
26,Leesburg Court,63304,38.7216311,-90.6445112
23,Leesburg Court,63304,38.7221429,-90.6451318
27,Leesburg Court,63304,38.7215738,-90.6449146
22,Leesburg Court,63304,38.7222752,-90.6445720
25,Leesburg Court,63304,38.7217721,-90.6451464
24,Leesburg Court,63304,38.7219096,-90.6444501
11,New Haven Court,63304,38.7224491,-90.6439003
12,New Haven Court,63304,38.7226333,-90.6432930
14,New Haven Court,63304,38.7222633,-90.6432481
16,New Haven Court,63304,38.7219579,-90.6431597
15,New Haven Court,63304,38.7221002,-90.6438073
17,New Haven Court,63304,38.7217857,-90.6436882
18,New Haven Court,63304,38.7217262,-90.6433253
64,Clydebank Drive,63304,38.7199741,-90.6390248
65,Clydebank Drive,63304,38.7203340,-90.6391449
60,Clydebank Drive,63304,38.7204061,-90.6386282
61,Clydebank Drive,63304,38.7198768,-90.6381936
63,Clydebank Drive,63304,38.7197125,-90.6388853
62,Clydebank Drive,63304,38.7196682,-90.6383668
10,Downfield Drive,63304,38.7192792,-90.6405961
40,Downfield Drive,63304,38.7190107,-90.6396977
30,Downfield Drive,63304,38.7191743,-90.6396342
20,Downfield Drive,63304,38.7194356,-90.6400212
50,Downfield Drive,63304,38.7188733,-90.6404324
661,Grey Oaks Drive,63304,38.7153791,-90.6431028
670,Grey Oaks Drive,63304,38.7162724,-90.6428574
650,Grey Oaks Drive,63304,38.7154893,-90.6424483
681,Grey Oaks Drive,63304,38.7161105,-90.6436320
671,Grey Oaks Drive,63304,38.7156917,-90.6433124
651,Grey Oaks Drive,63304,38.7151194,-90.6427439
660,Grey Oaks Drive,63304,38.7159729,-90.6426938
403,Tudors Trace Court,63304,38.7170059,-90.6436050
402,Tudors Trace Court,63304,38.7167002,-90.6433604
401,Tudors Trace Court,63304,38.7171547,-90.6430105
52,Valentine Farm Lane,63304,38.7217484,-90.6283471
54,Valentine Farm Lane,63304,38.7221955,-90.6280747
51,Valentine Farm Lane,63304,38.7218731,-90.6286130
55,Valentine Farm Lane,63304,38.7225451,-90.6283463
53,Valentine Farm Lane,63304,38.7219684,-90.6279422
162,Grange Hill Lane,63304,38.7182347,-90.6337978
159,Grange Hill Lane,63304,38.7177831,-90.6347614
156,Grange Hill Lane,63304,38.7183936,-90.6345298
158,Grange Hill Lane,63304,38.7179953,-90.6349261
155,Grange Hill Lane,63304,38.7185889,-90.6341813
157,Grange Hill Lane,63304,38.7182960,-90.6348608
160,Grange Hill Lane,63304,38.7178353,-90.6342449
161,Grange Hill Lane,63304,38.7180782,-90.6340437
154,Grange Court,63304,38.7189232,-90.6345811
153,Grange Court,63304,38.7187675,-90.6350470
152,Grange Court,63304,38.7189597,-90.6353253
151,Grange Court,63304,38.7192924,-90.6350959
220,Greenburn Drive,63304,38.7135407,-90.6261154
253,Greenburn Drive,63304,38.7128992,-90.6248290
246,Greenburn Drive,63304,38.7132733,-90.6254760
245,Greenburn Drive,63304,38.7128716,-90.6254707
217,Greenburn Drive,63304,38.7139543,-90.6260094
249,Greenburn Drive,63304,38.7129108,-90.6251203
241,Greenburn Drive,63304,38.7128716,-90.6258078
221,Greenburn Drive,63304,38.7138849,-90.6263799
216,Greenburn Drive,63304,38.7136343,-90.6257824
233,Greenburn Drive,63304,38.7130988,-90.6265035
237,Greenburn Drive,63304,38.7128880,-90.6261839
213,Greenburn Drive,63304,38.7140726,-90.6257091
209,Greenburn Drive,63304,38.7141219,-90.6254479
229,Greenburn Drive,63304,38.7133784,-90.6266243
205,Greenburn Drive,63304,38.7141494,-90.6250889
201,Greenburn Drive,63304,38.7142575,-90.6248089
254,Greenburn Drive,63304,38.7132586,-90.6248274
242,Greenburn Drive,63304,38.7132691,-90.6257950
204,Greenburn Drive,63304,38.7138393,-90.6249632
250,Greenburn Drive,63304,38.7132771,-90.6251443
208,Greenburn Drive,63304,38.7137618,-90.6252401
225,Greenburn Drive,63304,38.7136067,-90.6265859
238,Greenburn Drive,63304,38.7133182,-90.6261609
212,Greenburn Drive,63304,38.7137038,-90.6255259
3,Whitmoor Court,63304,38.7155672,-90.6257817
8,Whitmoor Court,63304,38.7152695,-90.6247127
4,Whitmoor Court,63304,38.7155146,-90.6262080
2,Whitmoor Court,63304,38.7156570,-90.6253057
6,Whitmoor Court,63304,38.7151630,-90.6258245
5,Whitmoor Court,63304,38.7151512,-90.6267826
1,Whitmoor Court,63304,38.7157808,-90.6247426
7,Whitmoor Court,63304,38.7152319,-90.6252857
709,Cullenmor Hill Drive,63304,38.7170682,-90.6268206
711,Cullenmor Hill Drive,63304,38.7173350,-90.6267564
705,Cullenmor Hill Drive,63304,38.7165444,-90.6265214
707,Cullenmor Hill Drive,63304,38.7165993,-90.6271773
703,Cullenmor Hill Drive,63304,38.7165298,-90.6259352
715,Cullenmor Hill Drive,63304,38.7182833,-90.6266672
713,Cullenmor Hill Drive,63304,38.7178120,-90.6266724
13,Clonmel Close,63304,38.7133488,-90.6371936
14,Clonmel Close,63304,38.7132260,-90.6375584
12,Clonmel Close,63304,38.7131851,-90.6369815
25,Rathsallagh Court,63304,38.7136568,-90.6385641
23,Rathsallagh Court,63304,38.7138854,-90.6380251
22,Rathsallagh Court,63304,38.7135355,-90.6378887
24,Rathsallagh Court,63304,38.7139439,-90.6382914
21,Rathsallagh Court,63304,38.7133695,-90.6382525
23,Shaelah Drive,63304,38.7162209,-90.6342707
4,Shaelah Drive,63304,38.7164739,-90.6332437
19,Shaelah Drive,63304,38.7161634,-90.6340614
14,Shaelah Drive,63304,38.7165504,-90.6337051
2,Shaelah Drive,63304,38.7164561,-90.6331348
17,Shaelah Drive,63304,38.7161530,-90.6339677
10,Shaelah Drive,63304,38.7165120,-90.6335269
20,Shaelah Drive,63304,38.7166913,-90.6340610
11,Shaelah Drive,63304,38.7161424,-90.6336678
16,Shaelah Drive,63304,38.7165423,-90.6338056
25,Shaelah Drive,63304,38.7162315,-90.6343809
8,Shaelah Drive,63304,38.7164811,-90.6334360
22,Shaelah Drive,63304,38.7166915,-90.6341704
13,Shaelah Drive,63304,38.7161341,-90.6337567
5,Shaelah Drive,63304,38.7161125,-90.6334131
250,Cedar Forest Court,63304,38.7132746,-90.6331381
247,Cedar Forest Court,63304,38.7130526,-90.6339205
249,Cedar Forest Court,63304,38.7129862,-90.6332393
245,Cedar Forest Court,63304,38.7129908,-90.6345458
248,Cedar Forest Court,63304,38.7130451,-90.6336348
252,Cedar Forest Court,63304,38.7134536,-90.6338481
251,Cedar Forest Court,63304,38.7135306,-90.6333219
254,Cedar Forest Court,63304,38.7134039,-90.6344199
253,Cedar Forest Court,63304,38.7134448,-90.6341595
246,Cedar Forest Court,63304,38.7130324,-90.6342296
3,Shelbourne Wood Court,63304,38.7120586,-90.6318278
5,Shelbourne Wood Court,63304,38.7126918,-90.6317512
2,Shelbourne Wood Court,63304,38.7120721,-90.6322530
4,Shelbourne Wood Court,63304,38.7123937,-90.6315826
269,Ashdown Forest Court,63304,38.7148105,-90.6309234
277,Ashdown Forest Court,63304,38.7134646,-90.6315423
264,Ashdown Forest Court,63304,38.7140778,-90.6310450
266,Ashdown Forest Court,63304,38.7142848,-90.6306672
273,Ashdown Forest Court,63304,38.7143868,-90.6316128
275,Ashdown Forest Court,63304,38.7139287,-90.6315873
262,Ashdown Forest Court,63304,38.7136399,-90.6308606
271,Ashdown Forest Court,63304,38.7147089,-90.6315429
263,Ashdown Forest Court,63304,38.7138846,-90.6307599
278,Ashdown Forest Court,63304,38.7132369,-90.6314578
267,Ashdown Forest Court,63304,38.7144958,-90.6305429
261,Ashdown Forest Court,63304,38.7134249,-90.6310357
265,Ashdown Forest Court,63304,38.7142815,-90.6310097
274,Ashdown Forest Court,63304,38.7141518,-90.6316200
260,Ashdown Forest Court,63304,38.7132133,-90.6311297
270,Ashdown Forest Court,63304,38.7147816,-90.6312290
268,Ashdown Forest Court,63304,38.7147381,-90.6305302
276,Ashdown Forest Court,63304,38.7137093,-90.6315669
50,Crocknaraw Lane,63304,38.7178477,-90.6212081
30,Crocknaraw Lane,63304,38.7184096,-90.6207389
20,Crocknaraw Lane,63304,38.7182256,-90.6203827
40,Crocknaraw Lane,63304,38.7182295,-90.6211035
117,Glendalough Lane,63304,38.7191156,-90.6313356
108,Glendalough Lane,63304,38.7195541,-90.6289210
109,Glendalough Lane,63304,38.7198020,-90.6289350
113,Glendalough Lane,63304,38.7199964,-90.6301123
106,Glendalough Lane,63304,38.7196996,-90.6297522
115,Glendalough Lane,63304,38.7195509,-90.6306604
112,Glendalough Lane,63304,38.7201533,-90.6298163
102,Glendalough Lane,63304,38.7192523,-90.6303613
116,Glendalough Lane,63304,38.7193416,-90.6309180
101,Glendalough Lane,63304,38.7190398,-90.6306079
110,Glendalough Lane,63304,38.7200670,-90.6290806
111,Glendalough Lane,63304,38.7202083,-90.6294447
107,Glendalough Lane,63304,38.7194680,-90.6292518
114,Glendalough Lane,63304,38.7198042,-90.6303898
103,Glendalough Court,63304,38.7189831,-90.6298458
104,Glendalough Court,63304,38.7190833,-90.6296267
97,Gillette Circle,63304,38.7203301,-90.6337611
93,Gillette Circle,63304,38.7200224,-90.6331377
99,Gillette Circle,63304,38.7205169,-90.6340729
95,Gillette Circle,63304,38.7201908,-90.6334588
101,Gillette Circle,63304,38.7209246,-90.6342853
94,Gillette Circle,63304,38.7210339,-90.6337280
92,Gillette Circle,63304,38.7206918,-90.6334378
91,Gillette Circle,63304,38.7200999,-90.6326792
72,Gillette Field Close,63304,38.7217843,-90.6328168
84,Gillette Field Close,63304,38.7209425,-90.6351879
78,Gillette Field Close,63304,38.7214011,-90.6340485
82,Gillette Field Close,63304,38.7211147,-90.6349789
80,Gillette Field Close,63304,38.7213586,-90.6347720
76,Gillette Field Close,63304,38.7215037,-90.6335995
74,Gillette Field Close,63304,38.7216545,-90.6332088
73,Gillette Field Close,63304,38.7211618,-90.6333100
62,Leinster Hill Lane,63304,38.7223068,-90.6316974
60,Leinster Hill Lane,63304,38.7219594,-90.6311231
61,Leinster Hill Lane,63304,38.7222356,-90.6312129
63,Leinster Hill Lane,63304,38.7220244,-90.6319007
2,Kylemore Close,63304,38.7135154,-90.6364755
5,Kylemore Close,63304,38.7135499,-90.6357318
1,Kylemore Close,63304,38.7137920,-90.6362873
3,Kylemore Close,63304,38.7132424,-90.6362593
4,Kylemore Close,63304,38.7132370,-90.6358984
207,Abbry Glen Lane,63304,38.7143593,-90.6375969
203,Abbry Glen Lane,63304,38.7141987,-90.6363106
202,Abbry Glen Lane,63304,38.7142050,-90.6359466
208,Abbry Glen Lane,63304,38.7141003,-90.6375279
205,Abbry Glen Lane,63304,38.7144758,-90.6370597
212,Abbry Glen Lane,63304,38.7138062,-90.6357355
204,Abbry Glen Lane,63304,38.7142753,-90.6367566
206,Abbry Glen Lane,63304,38.7146011,-90.6373457
209,Abbry Glen Lane,63304,38.7140082,-90.6372085
201,Abbry Glen Lane,63304,38.7141960,-90.6355400
210,Abbry Glen Lane,63304,38.7139260,-90.6367989
186,Portmarnock Lane,63304,38.7151913,-90.6368699
190,Portmarnock Lane,63304,38.7147239,-90.6355144
187,Portmarnock Lane,63304,38.7151050,-90.6365166
189,Portmarnock Lane,63304,38.7147015,-90.6358629
184,Portmarnock Lane,63304,38.7156460,-90.6363814
183,Portmarnock Lane,63304,38.7154916,-90.6361819
181,Portmarnock Lane,63304,38.7150412,-90.6355784
180,Portmarnock Lane,63304,38.7151478,-90.6351410
188,Portmarnock Lane,63304,38.7149219,-90.6362005
185,Portmarnock Lane,63304,38.7154767,-90.6368564
182,Portmarnock Lane,63304,38.7152357,-90.6359504
175,Blackrock Lane,63304,38.7162494,-90.6362716
177,Blackrock Lane,63304,38.7158127,-90.6357810
178,Blackrock Lane,63304,38.7155632,-90.6354579
172,Blackrock Lane,63304,38.7164792,-90.6355631
170,Blackrock Lane,63304,38.7160198,-90.6350520
173,Blackrock Lane,63304,38.7166337,-90.6357772
174,Blackrock Lane,63304,38.7165367,-90.6361437
176,Blackrock Lane,63304,38.7159628,-90.6359907
179,Blackrock Lane,63304,38.7155273,-90.6350629
171,Blackrock Lane,63304,38.7161653,-90.6354193
112,Rathfarnum Drive,63304,38.7124920,-90.6251200
108,Rathfarnum Drive,63304,38.7124216,-90.6247802
113,Rathfarnum Drive,63304,38.7120048,-90.6251370
122,Rathfarnum Drive,63304,38.7122514,-90.6256312
107,Rathfarnum Drive,63304,38.7120358,-90.6247184
126,Rathfarnum Drive,63304,38.7119970,-90.6257555
116,Rathfarnum Drive,63304,38.7124029,-90.6254032
104,Rathfarnum Drive,63304,38.7123448,-90.6245145
103,Rathfarnum Drive,63304,38.7119860,-90.6243532
120,Lissadell Lane,63304,38.7117642,-90.6253123
114,Lissadell Lane,63304,38.7117701,-90.6258486
25,Lissadell Lane,63304,38.7104293,-90.6264493
127,Lissadell Lane,63304,38.7112686,-90.6247910
106,Lissadell Lane,63304,38.7118493,-90.6266322
124,Lissadell Lane,63304,38.7117467,-90.6248076
123,Lissadell Lane,63304,38.7113953,-90.6251187
119,Lissadell Lane,63304,38.7113675,-90.6254329
22,Lissadell Lane,63304,38.7106752,-90.6269381
101,Lissadell Lane,63304,38.7112631,-90.6260705
128,Lissadell Lane,63304,38.7116234,-90.6244823
115,Lissadell Lane,63304,38.7113394,-90.6257684
110,Lissadell Lane,63304,38.7118836,-90.6262903
21,Lissadell Lane,63304,38.7110053,-90.6268674
102,Lissadell Lane,63304,38.7114478,-90.6265643
33,Rathfarnum Lane,63304,38.7124802,-90.6227978
34,Rathfarnum Lane,63304,38.7126335,-90.6232008
32,Rathfarnum Lane,63304,38.7119681,-90.6229758
42,Lily Pond Lane,63304,38.7134541,-90.6233054
43,Lily Pond Lane,63304,38.7138209,-90.6236211
1464,Lucerne Manor Drive,63304,38.7303137,-90.6305400
1468,Lucerne Manor Drive,63304,38.7305112,-90.6308046
1452,Lucerne Manor Drive,63304,38.7295208,-90.6300521
1467,Lucerne Manor Drive,63304,38.7303555,-90.6313243
1460,Lucerne Manor Drive,63304,38.7300711,-90.6302622
1455,Lucerne Manor Drive,63304,38.7297080,-90.6306408
1456,Lucerne Manor Drive,63304,38.7297796,-90.6301779
1463,Lucerne Manor Drive,63304,38.7300443,-90.6309667
1451,Lucerne Manor Drive,63304,38.7294214,-90.6305473
1402,Lucerne Place,63304,38.7314416,-90.6303428
1437,Lucerne Place,63304,38.7296206,-90.6314643
1410,Lucerne Place,63304,38.7312751,-90.6310600
1406,Lucerne Place,63304,38.7313574,-90.6307058
1401,Lucerne Place,63304,38.7310414,-90.6302090
1413,Lucerne Place,63304,38.7307820,-90.6310143
1438,Lucerne Place,63304,38.7295277,-90.6322074
1426,Lucerne Place,63304,38.7304468,-90.6319840
1422,Lucerne Place,63304,38.7306348,-90.6318442
1441,Lucerne Place,63304,38.7293443,-90.6315120
1409,Lucerne Place,63304,38.7309378,-90.6306163
1430,Lucerne Place,63304,38.7301782,-90.6320939
1442,Lucerne Place,63304,38.7292346,-90.6319300
1434,Lucerne Place,63304,38.7298736,-90.6320977
1418,Lucerne Place,63304,38.7308695,-90.6316344
1429,Lucerne Place,63304,38.7299435,-90.6315869
1414,Lucerne Place,63304,38.7311246,-90.6313560
1333,Renaissance Place,63304,38.7321215,-90.6309398
1337,Renaissance Place,63304,38.7324351,-90.6309636
1309,Renaissance Place,63304,38.7304093,-90.6291998
1341,Renaissance Place,63304,38.7327216,-90.6307626
1300,Renaissance Place,63304,38.7298297,-90.6284260
1345,Renaissance Place,63304,38.7329275,-90.6305057
1312,Renaissance Place,63304,38.7306956,-90.6287803
1344,Renaissance Place,63304,38.7329468,-90.6301658
1320,Renaissance Place,63304,38.7312912,-90.6293519
1308,Renaissance Place,63304,38.7303917,-90.6286611
1340,Renaissance Place,63304,38.7326667,-90.6300789
1324,Renaissance Place,63304,38.7316308,-90.6295587
1305,Renaissance Place,63304,38.7300728,-90.6290539
1317,Renaissance Place,63304,38.7309843,-90.6296322
1332,Renaissance Place,63304,38.7321342,-90.6299521
1336,Renaissance Place,63304,38.7324215,-90.6302309
1329,Renaissance Place,63304,38.7319459,-90.6306186
1313,Renaissance Place,63304,38.7306807,-90.6293023
1301,Renaissance Place,63304,38.7297726,-90.6289779
1316,Renaissance Place,63304,38.7310574,-90.6290754
1304,Renaissance Place,63304,38.7301391,-90.6285064
1328,Renaissance Place,63304,38.7319143,-90.6297358
111,Ehlmann Farms Drive,63304,38.7271196,-90.6334126
108,Ehlmann Farms Drive,63304,38.7271551,-90.6329539
101,Ehlmann Farms Drive,63304,38.7266114,-90.6326820
104,Ehlmann Farms Drive,63304,38.7269755,-90.6325020
100,Ehlmann Farms Drive,63304,38.7266988,-90.6323375
107,Ehlmann Farms Drive,63304,38.7267840,-90.6333258
5004,Sammelman Road,63304,38.7270896,-90.6340664
4822,Sammelman Road,63304,38.7291053,-90.6290721
5011,Sammelman Road,63304,38.7255173,-90.6346813
4872,Sammelman Road,63304,38.7286483,-90.6314748
4905,Sammelman Road,63304,38.7284143,-90.6324317
4950,Sammelman Road,63304,38.7268015,-90.6313375
4900,Sammelman Road,63304,38.7283960,-90.6318870
4842,Sammelman Road,63304,38.7288896,-90.6304712
4929,Sammelman Road,63304,38.7277919,-90.6322326
5011,Sammelman Road,63304,38.7258313,-90.6338529
4938,Sammelman Road,63304,38.7272881,-90.6314812
4850,Sammelman Road,63304,38.7287384,-90.6309089
5012,Sammelman Road,63304,38.7264821,-90.6348099
4930,Sammelman Road,63304,38.7276694,-90.6315623
4991,Sammelman Road,63304,38.7262015,-90.6319631
4935,Sammelman Road,63304,38.7274070,-90.6320941
4828,Sammelman Road,63304,38.7288734,-90.6294886
5008,Sammelman Road,63304,38.7264913,-90.6341430
4921,Sammelman Road,63304,38.7280845,-90.6323768
4834,Sammelman Road,63304,38.7286752,-90.6299344
6501,Weldon Spring Road,63304,38.7199250,-90.6916482
851,Westwood Industrial Park Drive,63304,38.7252920,-90.6700887
6310,Weldon Spring Road,63304,38.7146074,-90.6890643
891,Technology Drive,63304,38.7125110,-90.6874904
6210,Highway 94,63304,38.7134523,-90.6869127
6206,Highway 94,63304,38.7124314,-90.6846218
20,Research Park Drive,63304,38.7090484,-90.6824742
500,Technology Drive,63304,38.7084426,-90.6745728
620,Technology Drive,63304,38.7106944,-90.6790074
4810,Meadows Parkway,63304,38.7055462,-90.6693248
600,Technology Drive,63304,38.7115191,-90.6771965
1120,Wolfrum Road,63304,38.7312164,-90.6420540
5150,Westwood Drive,63304,38.7310766,-90.6429744
1003,Wolfrun Road,63304,38.7280803,-90.6453382
300,Siedentop Road,63304,38.7170616,-90.6842111
5773,Westwood Drive,63304,38.7186571,-90.6723369
5799,Westwood Drive,63304,38.7194638,-90.6723207
5731,Westwood Drive,63304,38.7210329,-90.6696661
821,Westwood Industrial Park Drive,63304,38.7233428,-90.6695369
830,Westwood Industrial Park Drive,63304,38.7245316,-90.6684250
860,Westwood Industrial Park Court,63304,38.7256383,-90.6691489
951,Technology Drive,63368,38.7134415,-90.6924769
956,Wolfrun Road,63304,38.7272385,-90.6433167
945,Wolfrun Road,63304,38.7266632,-90.6442548
515,Huber Park Court,63304,38.7161104,-90.6774351
530,Huber Park Court,63304,38.7166485,-90.6766877
520,Huber Park Court,63304,38.7163047,-90.6764269
5933,Highway 94,63304,38.7156892,-90.6763303
5935,Highway 94,63304,38.7152229,-90.6768668
5789,Westwood Drive,63304,38.7197928,-90.6718994
1031,Kisker Road,63304,38.7279238,-90.6236069
5771,Westwood Drive,63304,38.7188463,-90.6727561
808,Pitman Hill Road,63304,38.7230001,-90.6208702
804,Pitman Hill Road,63304,38.7225915,-90.6208418
14,Roseberry Topping Court,63304,38.7217566,-90.6206638
12,Roseberry Topping Court,63304,38.7219924,-90.6203451
11,Roseberry Topping Court,63304,38.7222223,-90.6200900
10,Roseberry Topping Court,63304,38.7225370,-90.6199668
9,Roseberry Topping Court,63304,38.7228279,-90.6198274
8,Roseberry Topping Court,63304,38.7228585,-90.6193155
7,Roseberry Topping Court,63304,38.7225818,-90.6190764
6,Roseberry Topping Court,63304,38.7222766,-90.6191374
5,Roseberry Topping Court,63304,38.7220341,-90.6193447
4,Roseberry Topping Court,63304,38.7218256,-90.6196502
3,Roseberry Topping Court,63304,38.7216076,-90.6198487
2,Roseberry Topping Court,63304,38.7214438,-90.6201333
1,Roseberry Topping Court,63304,38.7212213,-90.6204415
5905,Highway 94,63304,38.7176374,-90.6742311
5950,Highway 94,63304,38.7135938,-90.6770150
5952,Highway 94,63304,38.7134376,-90.6772963
267,Alexandria Drive,63304,38.7164523,-90.6698124
267,Alexandria Drive,63304,38.7165684,-90.6819646
267,Alexandria Drive,63304,38.7174397,-90.6797003
267,Alexandria Drive,63304,38.7219046,-90.6807381
267,Alexandria Drive,63304,38.7251435,-90.6804656
267,Alexandria Drive,63304,38.7280224,-90.6834771
4801,Weldon Spring Parkway,63304,38.7150331,-90.6719047
