House number,Street name,Postal code,Latitude,Longitude
27,Интернациональная улица,392033,52.7217348,41.4485056
4,площадь Льва Толстого,392020,52.7353952,41.4508476
4,площадь Льва Толстого,392020,52.7354245,41.4503487
4,площадь Льва Толстого,392020,52.7351776,41.4509119
4,площадь Льва Толстого,392020,52.7352815,41.4509066
17,Интернациональная улица,392036,52.7216599,41.4507439
4,площадь Льва Толстого,392020,52.7352995,41.4504460
4,площадь Льва Толстого,392020,52.7354324,41.4506331
1,бульвар Энтузиастов,392003,52.7594332,41.4371724
1,бульвар Энтузиастов,392003,52.7592907,41.4364790
1,бульвар Энтузиастов,392003,52.7595516,41.4370301
1,бульвар Энтузиастов,392003,52.7595532,41.4372730
1,бульвар Энтузиастов,392003,52.7594105,41.4357181
1,бульвар Энтузиастов,392003,52.7592880,41.4372416
1,бульвар Энтузиастов,392003,52.7593357,41.4367722
19В,Советская улица,392002,52.7074503,41.4694684
30,улица Докучаева,392012,52.6962443,41.4551845
331В,Мичуринская улица,392019,52.7877617,41.3696107
146,улица Карла Маркса,392000,52.7233208,41.4509808
17,улица Максима Горького,392000,52.7191007,41.4533317
25Б,Астраханская улица,392002,52.7030869,41.4648399
10,Ипподромная улица,392028,52.7331892,41.4169343
23,Моршанское шоссе,392030,52.7542929,41.4697414
184,Советская улица,3982000,52.7425567,41.4503002
16Б,Интернациональная улица,392000,52.7199435,41.4548546
15Б,Московская улица,392019,52.7354699,41.4776575
99А,Советская улица,392000,52.7241190,41.4569913
"2, lit. 3",Пролетарская улица,392012,52.7019742,41.4614491
18,улица Максима Горького,392000,52.7188662,41.4553506
2А/1,бульвар Энтузиастов,392003,52.7563100,41.4320616
52А,улица Рылеева,392003,52.7543165,41.4325781
64,улица Чичерина,392027,52.7656342,41.3987683
174,улица Карла Маркса,392024,52.7287375,41.4495587
75И,улица Киквидзе,392014,52.7238466,41.3854611
8,Тулиновский проезд,392008,52.7389636,41.4675995
6,Красноармейская улица,392012,52.6999980,41.4668832
2А,бульвар Энтузиастов,392003,52.7565741,41.4366791
49,улица Рылеева,392003,52.7539585,41.4346949
51,улица Рылеева,392003,52.7541487,41.4355328
47,улица Рылеева,392003,52.7533500,41.4359226
45,улица Рылеева,392003,52.7530386,41.4364492
55,улица Рылеева,392003,52.7551862,41.4338714
55А,улица Рылеева,392003,52.7555332,41.4356167
2Б,бульвар Энтузиастов,392003,52.7573082,41.4352559
251,улица Карла Маркса,392020,52.7440517,41.4419055
37,Интернациональная улица,392000,52.7209619,41.4445912
1,улица Сергеева-Ценского,392002,52.7124116,41.4696458
1,Привокзальная площадь,392000,52.7185887,41.4270730
127,улица Чичканова,392000,52.7374043,41.4459795
246,улица Карла Маркса,392020,52.7426381,41.4431280
1,улица Николая Вирты,392020,52.7401118,41.4432014
228,Пролетарская улица,392018,52.7362266,41.4379754
1А,бульвар Энтузиастов,392003,52.7608116,41.4375460
1,бульвар Энтузиастов,392003,52.7607980,41.4355684
82,Мичуринская улица,392018,52.7425255,41.4269662
89Б,Мичуринская улица,392000,52.7411639,41.4348286
3 к2,улица Максима Горького,392000,52.7210994,41.4587128
33/172,улица Студенецкая Набережная,392000,52.7296920,41.4482202
391,улица Карла Маркса,392000,52.7528660,41.4253247
59А к3,улица Рылеева,392003,52.7571797,41.4310990
1Н,бульвар Энтузиастов,392003,52.7582553,41.4344653
28,улица Сергеева-Ценского,392002,52.7085718,41.4638460
12,Солнечная улица,392001,52.7137255,41.4058452
4А,Октябрьская улица,392000,52.7255372,41.4513085
14,Железнодорожная улица,392002,52.7037149,41.4450545
14,Железнодорожная улица,392002,52.7039475,41.4445846
16Б,Интернациональная улица,392000,52.7197528,41.4548404
16,Интернациональная улица,392000,52.7204281,41.4546435
132,улица Карла Маркса,392000,52.7198904,41.4517774
20к1,Коммунальная улица,392033,52.7225753,41.4488574
146,улица Карла Маркса,392000,52.7234513,41.4508691
16А,Державинская улица,392000,52.7241767,41.4503915
143,улица Карла Маркса,392000,52.7206537,41.4525060
128В,Мичуринская улица,392032,52.7542734,41.4091996
173 к2,Мичуринская улица,392024,52.7586164,41.4067349
3 к1,улица Максима Горького,392000,52.7214314,41.4593148
6В,Моршанское шоссе,392008,52.7467064,41.4547626
6Б,Моршанское шоссе,392008,52.7462501,41.4540305
53,улица Рылеева,392003,52.7549961,41.4349579
6,Астраханская улица,392002,52.7043771,41.4675106
197А,Мичуринская улица,392027,52.7647105,41.4043245
6,Северо-Западная улица,392027,52.7703905,41.4034321
1А,улица Жуковского,392015,52.7442722,41.4377357
38А,Никифоровская улица,392032,52.7455291,41.4141746
26,Никифоровская улица,392032,52.7442446,41.4138799
22А,Никифоровская улица,392032,52.7440487,41.4123196
38 Б к1,Никифоровская улица,392032,52.7449794,41.4132146
22,Никифоровская улица,392032,52.7445290,41.4120284
98,Мичуринская улица,392018,52.7447092,41.4243884
31,улица Владимира Михайлова,392018,52.7446543,41.4224671
33,улица Владимира Михайлова,392018,52.7451086,41.4212234
106,Мичуринская улица,392018,52.7458695,41.4221495
102,Мичуринская улица,392018,52.7452668,41.4233361
96,Мичуринская улица,392018,52.7440158,41.4243681
104,Мичуринская улица,392018,52.7453002,41.4224077
29,улица Владимира Михайлова,392018,52.7440885,41.4234517
108,Мичуринская улица,392018,52.7457286,41.4211673
100,Мичуринская улица,392018,52.7447615,41.4234098
1/188,Успенская площадь,392000,52.7249081,41.4350911
38 Б к2,Никифоровская улица,392032,52.7451982,41.4124373
73А,улица Тамары Дерунец,392028,52.7306237,41.3978698
73,улица Тамары Дерунец,392028,52.7313912,41.3976057
71,улица Тамары Дерунец,392028,52.7308407,41.3972878
14А,2-й Авиационный проезд,392028,52.7258610,41.3991518
12,улица Зои Космодемьянской,392000,52.7442962,41.4463408
9,улица Монтажников,392000,52.7462248,41.4754861
13,Студенецкая улица,392000,52.7269796,41.4425504
31,Октябрьская улица,392000,52.7256139,41.4453477
12,Новый проезд,392020,52.7416889,41.4428194
7,Рязанский проезд,392020,52.7422069,41.4423458
3,Рязанский проезд,392020,52.7416092,41.4415547
244,улица Карла Маркса,392020,52.7422866,41.4438874
16,Новый проезд,392020,52.7419946,41.4432144
5,улица Николая Вирты,392020,52.7407129,41.4419191
28А,улица Сергеева-Ценского,392002,52.7088755,41.4636404
28Б,улица Сергеева-Ценского,392002,52.7090982,41.4635066
112Б,Мичуринская улица,392020,52.7494609,41.4097888
211,Мичуринская улица,392027,52.7666280,41.3973817
9В,улица Академика Островитянова,392022,52.6978675,41.4240514
9,улица Академика Островитянова,392022,52.6986170,41.4239047
9Б,улица Академика Островитянова,392022,52.6999113,41.4226709
9/7,улица Академика Островитянова,392022,52.7003273,41.4219176
9/6,улица Академика Островитянова,392022,52.6995278,41.4239842
9А,улица Академика Островитянова,392022,52.6983728,41.4256620
112Г,Мичуринская улица,392032,52.7517769,41.4110389
112Е,Мичуринская улица,392032,52.7506300,41.4087897
205Б,Мичуринская улица,392027,52.7645571,41.3997782
62А,улица Чичерина,392027,52.7646709,41.4015352
205Г,Мичуринская улица,392027,52.7640617,41.4005161
205А,Мичуринская улица,392027,52.7640299,41.3993536
62Б,улица Чичерина,392027,52.7651139,41.3995583
3 к5,улица Максима Горького,392000,52.7212956,41.4579297
198,Мичуринская улица,392024,52.7710420,41.3862185
136,Лермонтовская улица,392000,52.7007743,41.4399522
28А,Гвардейская улица,392024,52.7692045,41.3794762
63,улица Бабарыкина,392024,52.7679227,41.3757647
65,улица Бабарыкина,392024,52.7682211,41.3753474
8Н,Цветочная улица,392024,52.7684258,41.3753811
8М,Цветочная улица,392024,52.7685663,41.3757012
8Л,Цветочная улица,392024,52.7687011,41.3759393
12Б,улица А.К.Рязанова,392024,52.7681860,41.3762842
10Б,улица А.К.Рязанова,392024,52.7682837,41.3765417
63А,улица Бабарыкина,392024,52.7680293,41.3755784
8З,Цветочная улица,392024,52.7690358,41.3768155
8Г,Цветочная улица,392024,52.7695281,41.3778425
30,Гвардейская улица,392024,52.7696126,41.3790368
8Б,улица А.К.Рязанова,392024,52.7686300,41.3768970
6В,улица А.К.Рязанова,392024,52.7688888,41.3774603
22В,Васильковая улица,392024,52.7677802,41.3813636
24В,Васильковая улица,392024,52.7676290,41.3810288
4В,улица А.К.Рязанова,392024,52.7691644,41.3783184
2В,улица А.К.Рязанова,392024,52.7692754,41.3785697
2Б,улица А.К.Рязанова,392024,52.7694358,41.3788719
28В,Гвардейская улица,392024,52.7689887,41.3790582
26В,Васильковая улица,392024,52.7674886,41.3807128
14А,улица А.К.Рязанова,392024,52.7674341,41.3763576
12А,улица А.К.Рязанова,392024,52.7678299,41.3766019
10А,улица А.К.Рязанова,392024,52.7679518,41.3769994
8,улица А.К.Рязанова,392024,52.7682027,41.3780014
6,улица А.К.Рязанова,392024,52.7683844,41.3784466
30В,Васильковая улица,392024,52.7671893,41.3800731
6А,улица А.К.Рязанова,392024,52.7685988,41.3782267
6Б,улица А.К.Рязанова,392024,52.7687811,41.3786808
3,улица А.К.Рязанова,392024,52.7685757,41.3799750
3Б,Васильковая улица,392024,52.7681478,41.3804936
5,улица А.К.Рязанова,392024,52.7684750,41.3797063
3В,Васильковая улица,392024,52.7680138,41.3802649
3Г,Васильковая улица,392024,52.7678796,41.3800499
7,улица А.К.Рязанова,392024,52.7683605,41.3794673
9,улица А.К.Рязанова,392024,52.7682473,41.3792023
11,улица А.К.Рязанова,392024,52.7681271,41.3789723
3Д,Васильковая улица,392024,52.7677998,41.3797550
3Е,Васильковая улица,392024,52.7676420,41.3795483
3Ж,Васильковая улица,392024,52.7675591,41.3793740
3И,Васильковая улица,392024,52.7674675,41.3789948
3К,Васильковая улица,392024,52.7673317,41.3787921
3Л,Васильковая улица,392024,52.7672647,41.3785582
3М,Васильковая улица,392024,52.7671143,41.3783342
38В,Васильковая улица,392024,52.7665915,41.3788366
3П,Васильковая улица,392024,52.7668567,41.3778162
3Р,Васильковая улица,392024,52.7667098,41.3775644
57Б,улица Бабарыкина,392024,52.7667908,41.3771919
59,улица Бабарыкина,392024,52.7669363,41.3769559
27,улица А.К.Рязанова,392024,52.7671249,41.3767524
19,улица А.К.Рязанова,392024,52.7676197,41.3780419
17,улица А.К.Рязанова,392024,52.7677949,41.3782005
15,улица А.К.Рязанова,392024,52.7678837,41.3784462
28В,Васильковая улица,392024,52.7673306,41.3804091
21,улица А.К.Рязанова,392024,52.7675464,41.3777119
23,улица А.К.Рязанова,392024,52.7674431,41.3774771
48,улица Бабарыкина,392024,52.7667144,41.3760830
54Б,улица Бабарыкина,392024,52.7680648,41.3744101
54,улица Бабарыкина,392024,52.7677399,41.3748011
52А,улица Бабарыкина,392024,52.7675702,41.3749610
50А,улица Бабарыкина,392024,52.7672524,41.3753967
50,улица Бабарыкина,392024,52.7670871,41.3756764
48А,улица Бабарыкина,392024,52.7669001,41.3759053
10А,Державинская улица,392000,52.7238436,41.4536045
1/16,Астраханская улица,392005,52.6804633,41.4625075
175/25,Астраханская улица,392005,52.6782133,41.4616966
1/17,Астраханская улица,392005,52.6809210,41.4602752
175/24,Астраханская улица,392005,52.6794338,41.4582274
175/21,Астраханская улица,392005,52.6800535,41.4581701
1/19,Астраханская улица,392005,52.6802988,41.4619239
48,улица Новосёлов,392032,52.7567016,41.4157216
21 литА,Коммунальная улица,392000,52.7240539,41.4462833
5А,Пионерская улица,392023,52.7030298,41.4724571
103Б,улица Осипенко,392026,52.7082371,41.4027713
75/33,улица Осипенко,392026,52.7069345,41.4033931
60,улица Серова,392026,52.7076701,41.4039314
103А,улица Осипенко,392026,52.7082920,41.4032093
68,улица Серова,392026,52.7082568,41.4036570
101А,улица Осипенко,392026,52.7080629,41.4028438
64,улица Серова,392026,52.7079577,41.4037952
93,улица Осипенко,392026,52.7077366,41.4029726
56,улица Серова,392026,52.7073668,41.4040206
66,улица Серова,392026,52.7081522,41.4037407
95,улица Осипенко,392026,52.7077971,41.4033715
58,улица Серова,392026,52.7075406,41.4039637
87,улица Осипенко,392026,52.7074404,41.4034994
85,улица Осипенко,392026,52.7074266,41.4030590
97,улица Осипенко,392026,52.7079713,41.4032614
62,улица Серова,392026,52.7078288,41.4038637
52,улица Серова,392026,52.7070394,41.4041420
97,улица им. Вадима Подбельского,392012,52.6999224,41.4659046
26,Кузьминская улица,392005,52.6862478,41.4512359
165,Воронежская улица,392026,52.6987320,41.3997352
6,проезд Механизаторов,392022,52.7009439,41.4089063
3,проезд Планеристов,392022,52.7008036,41.4093354
5,проезд Планеристов,392022,52.7006125,41.4089633
16/2,улица Лизы Чайкиной,392022,52.7010934,41.4096123
3А,Васильковая улица,392024,52.7682753,41.3807228
10,улица А.К.Рязанова,392024,52.7677920,41.3771112
25,улица А.К.Рязанова,392024,52.7671346,41.3774754
1,улица А.К.Рязанова,392024,52.7686316,41.3802764
190,Мичуринская улица,392024,52.7699730,41.3883705
188,Мичуринская улица,392024,52.7698190,41.3885620
186,Мичуринская улица,392024,52.7696627,41.3887324
184,Мичуринская улица,392024,52.7695051,41.3889405
180,Мичуринская улица,392024,52.7691463,41.3893238
178,Мичуринская улица,392024,52.7690150,41.3895119
176,Мичуринская улица,392024,52.7688664,41.3896972
174,Мичуринская улица,392024,52.7687210,41.3898933
172,Мичуринская улица,392024,52.7685465,41.3901293
3,Ромашковая улица,392024,52.7682286,41.3892617
5,Ромашковая улица,392024,52.7684163,41.3891293
7,Ромашковая улица,392024,52.7686118,41.3888280
9,Ромашковая улица,392024,52.7688074,41.3885816
11,Ромашковая улица,392024,52.7689831,41.3883395
13,Ромашковая улица,392024,52.7691706,41.3880975
15,Ромашковая улица,392024,52.7693572,41.3878761
17,Ромашковая улица,392024,52.7695526,41.3876245
19,Ромашковая улица,392024,52.7697550,41.3873518
192,Мичуринская улица,392024,52.7701197,41.3881820
194,Мичуринская улица,392024,52.7702880,41.3879446
21,Ромашковая улица,392024,52.7699206,41.3871668
26,Ромашковая улица,392024,52.7696421,41.3865512
24,Ромашковая улица,392024,52.7695106,41.3867003
22,Ромашковая улица,392024,52.7693403,41.3869125
20,Ромашковая улица,392024,52.7691656,41.3870749
18,Ромашковая улица,392024,52.7690415,41.3872977
16,Ромашковая улица,392024,52.7688783,41.3874838
14,Ромашковая улица,392024,52.7687142,41.3877105
12,Ромашковая улица,392024,52.7685448,41.3879064
10,Ромашковая улица,392024,52.7683779,41.3880808
8,Ромашковая улица,392024,52.7682170,41.3882988
6,Ромашковая улица,392024,52.7680515,41.3885068
4,Ромашковая улица,392024,52.7679121,41.3887094
2,Ромашковая улица,392024,52.7676458,41.3890631
2А,Ромашковая улица,392024,52.7675311,41.3887935
1А,улица М. Н. Мордасовой,392024,52.7674168,41.3885351
1,улица М. Н. Мордасовой,392024,52.7672869,41.3882716
21,улица М. Н. Мордасовой,392024,52.7689768,41.3861202
23,улица М. Н. Мордасовой,392024,52.7691188,41.3859358
25,улица М. Н. Мордасовой,392024,52.7692727,41.3857427
27,улица М. Н. Мордасовой,392024,52.7698027,41.3857354
7,улица Н.В.Муравьева,392024,52.7685794,41.3842758
5,улица Н.В.Муравьева,392024,52.7687183,41.3845162
3,улица Н.В.Муравьева,392024,52.7688295,41.3848172
14,улица М. Н. Мордасовой,392024,52.7689736,41.3851353
9,улица Н.В.Муравьева,392024,52.7684188,41.3839434
11,улица Н.В.Муравьева,392024,52.7682623,41.3836190
13,улица Н.В.Муравьева,392024,52.7681477,41.3833598
15,улица Н.В.Муравьева,392024,52.7680105,41.3830472
17,улица Н.В.Муравьева,392024,52.7678718,41.3827596
19,улица Н.В.Муравьева,392024,52.7677479,41.3824977
20В,Васильковая улица,392024,52.7681025,41.3820482
39,улица Н.В.Муравьева,392024,52.7660722,41.3790126
37,улица Н.В.Муравьева,392024,52.7662189,41.3792714
35,улица Н.В.Муравьева,392024,52.7663829,41.3796169
33,улица Н.В.Муравьева,392024,52.7665261,41.3799437
31,улица Н.В.Муравьева,392024,52.7666483,41.3802601
29,улица Н.В.Муравьева,392024,52.7668135,41.3805259
27,улица Н.В.Муравьева,392024,52.7669600,41.3808506
25,улица Н.В.Муравьева,392024,52.7671226,41.3812008
23,улица Н.В.Муравьева,392024,52.7672671,41.3814929
21,улица Н.В.Муравьева,392024,52.7674078,41.3817952
32В,Васильковая улица,392024,52.7670497,41.3797562
34В,Васильковая улица,392024,52.7669033,41.3794371
36В,Васильковая улица,392024,52.7667452,41.3791286
40В,Васильковая улица,392024,52.7664297,41.3784966
196,Мичуринская улица,392024,52.7704322,41.3871858
331В,Мичуринская улица,392019,52.7875988,41.3698147
4Г,улица А.К.Рязанова,392024,52.7690419,41.3780840
25,Степная улица,392018,52.7359917,41.4305182
6,улица 3-я Линия,392018,52.7357521,41.4305481
6А,улица 3-я Линия,392018,52.7360015,41.4308490
6Б,улица 3-я Линия,392018,52.7360596,41.4309997
8,улица 3-я Линия,392018,52.7362773,41.4312788
4,Стрелецкая улица,392018,52.7363773,41.4310281
6,Стрелецкая улица,392018,52.7364752,41.4307593
7,Зелёная улица,392018,52.7365728,41.4304872
5А,Зелёная улица,392018,52.7363365,41.4302409
27,Степная улица,392018,52.7359790,41.4301011
5,Зелёная улица,392018,52.7361544,41.4300176
98А,Мичуринская улица,392018,52.7444227,41.4248914
7 с3,улица Чичканова,392008,52.7438408,41.4648040
14,Новый проезд,392020,52.7416848,41.4433325
10,Новый проезд,392020,52.7413819,41.4429201
8,Новый проезд,392020,52.7414128,41.4423723
5,Рязанский проезд,392020,52.7419080,41.4419418
1,Рязанский проезд,392020,52.7413955,41.4412146
4,Новый проезд,392020,52.7410961,41.4420282
26,Ново-Рубежный переулок,392022,52.6999345,41.4212175
9Л,улица Академика Островитянова,392022,52.7000503,41.4244279
64,улица Чичерина,392027,52.7655226,41.3990177
15/1,Рубежный проезд,392022,52.7042554,41.4199169
7,проезд Планеристов,392022,52.7004508,41.4088665
3,проезд Авиаторов,392026,52.6989760,41.3994544
83,улица Осипенко,392026,52.7072960,41.4031753
77,улица Осипенко,392026,52.7070900,41.4032239
99,улица Осипенко,392026,52.7079329,41.4028911
74,улица Киквидзе,392014,52.7204317,41.3928924
76,улица Киквидзе,392014,52.7204332,41.3926346
78,улица Киквидзе,392014,52.7204066,41.3924337
70,улица Киквидзе,392014,52.7204775,41.3933311
66,улица Киквидзе,392014,52.7202509,41.3938444
68,улица Киквидзе,392014,52.7203712,41.3936251
72,улица Киквидзе,392014,52.7203821,41.3931115
57,Студенецкая набережная,392000,52.7290509,41.4474738
165А,Воронежская улица,392026,52.6985374,41.3995349
57,улица Гастелло,392001,52.7173177,41.4114196
13,улица А.К.Рязанова,392024,52.7679852,41.3787154
28Б,Гвардейская улица,392024,52.7688214,41.3793785
8А,улица А.К.Рязанова,392024,52.7683107,41.3776010
14,улица А.К.Рязанова,392024,52.7675929,41.3761019
112Е,Мичуринская улица,392032,52.7504206,41.4094104
112Г,Мичуринская улица,392032,52.7515652,41.4116633
110А,улица Киквидзе,392014,52.7214422,41.3832172
1Д,Сабуровская улица,392024,52.7617166,41.3859501
2Д,Селезневская улица,392024,52.7634163,41.3837905
1Б к3,Сабуровская улица,392024,52.7620895,41.3867188
2Б к5,Селезневская улица,392024,52.7630957,41.3862220
13,улица Академика Островитянова,392022,52.6976308,41.4240475
57А,улица Бабарыкина,392024,52.7661596,41.3782282
2Б к3,Селезневская улица,392024,52.7635004,41.3848970
2,Новый проезд,392020,52.7408329,41.4421740
6,Новый проезд,392020,52.7410758,41.4425004
1Б к2,Сабуровская улица,392024,52.7617829,41.3871049
1Б к4,Сабуровская улица,392024,52.7624627,41.3862490
2Б к4,Селезневская улица,392024,52.7631905,41.3852870
2Б к2,Селезневская улица,392024,52.7638761,41.3844243
25,Майская улица,392028,52.7302569,41.3974020
23,Майская улица,392028,52.7302582,41.3976699
21,Майская улица,392028,52.7302636,41.3979207
19,Майская улица,392028,52.7303172,41.3981165
17,Майская улица,392028,52.7303053,41.3984568
15,Майская улица,392028,52.7303196,41.3986643
13,Майская улица,392028,52.7303258,41.3989486
11,Майская улица,392028,52.7303671,41.3992363
108,2-й Авиационный проезд,392028,52.7303964,41.3995448
110,2-й Авиационный проезд,392028,52.7306600,41.3995106
112,2-й Авиационный проезд,392028,52.7308987,41.3992021
118,2-й Авиационный проезд,392028,52.7308354,41.3984383
116,2-й Авиационный проезд,392028,52.7308637,41.3986999
14,Весенняя улица,392028,52.7315244,41.3984833
12,Весенняя улица,392028,52.7315752,41.3988058
138А,2-й Авиационный проезд,392028,52.7314050,41.3993583
136,2-й Авиационный проезд,392028,52.7312012,41.3994060
114,2-й Авиационный проезд,392028,52.7308763,41.3989506
24А,улица Сенько,392004,52.7052228,41.3972057
3А,Мичуринская улица,392020,52.7308362,41.4530135
7В,Красная улица,392033,52.7238354,41.4420889
156,Полынковская улица,392028,52.7303197,41.4040126
160,Полынковская улица,392028,52.7304902,41.4035976
113,Авиационная улица,392028,52.7305741,41.4027632
111,Авиационная улица,392028,52.7304285,41.4027527
166,Полынковская улица,392028,52.7309401,41.4039302
113А,Авиационная улица,392028,52.7307093,41.4030753
115,Авиационная улица,392028,52.7308311,41.4026980
119,Авиационная улица,392028,52.7311388,41.4027678
170,Полынковская улица,392028,52.7311607,41.4035012
109,Авиационная улица,392028,52.7302774,41.4027805
107,Авиационная улица,392028,52.7300008,41.4028592
105,Авиационная улица,392028,52.7297818,41.4028614
105А,Авиационная улица,392028,52.7296386,41.4029194
154,Полынковская улица,392028,52.7302387,41.4035731
150,Полынковская улица,392028,52.7300501,41.4041115
142,Полынковская улица,392028,52.7296250,41.4041569
148,Полынковская улица,392028,52.7298701,41.4041406
14,Интернациональная улица,392000,52.7202012,41.4534601
57,Мичуринская улица,392000,52.7386732,41.4404013
3,улица Максима Горького,392000,52.7211449,41.4591252
173,Астраханская улица,392005,52.6837250,41.4590865
22/1,Набережная улица,392000,52.7070809,41.4779388
17,Советская улица,78646475,52.7060722,41.4706701
87,Советская улица,392000,52.7217169,41.4569573
6,Коммунальная улица,392000,52.7230553,41.4539894
8,Коммунальная улица,392000,52.7227934,41.4531699
3,улица Победы,392019,52.7684258,41.4008223
5,улица Победы,392019,52.7687662,41.4005627
4,Ореховая улица,392019,52.7687480,41.4026477
62,улица Чичерина,392027,52.7654599,41.4005992
17,улица Чичерина,392019,52.7681795,41.4021251
2,Ореховая улица,392019,52.7684415,41.4027226
28А,улица Чичерина,392027,52.7689374,41.4097358
16,улица Чичерина,392027,52.7679763,41.4100004
18,улица Чичерина,392027,52.7680739,41.4093087
12,улица Чичерина,392027,52.7687430,41.4110211
14,улица Чичерина,392027,52.7683921,41.4109047
57,улица Володарского,3982000,52.7391497,41.4572525
238,Пролетарская улица,392003,52.7409983,41.4444004
236,Пролетарская улица,392003,52.7406284,41.4438181
39А,улица Фридриха Энгельса,392002,52.7078995,41.4644950
21,Моршанское шоссе,392030,52.7516953,41.4653972
2,улица Чичканова,392080,52.7445467,41.4683623
4,Северо-Западная улица,392027,52.7700443,41.4043924
1А,улица Бориса Васильева,392000,52.7322556,41.4652004
3 с1,улица Бориса Васильева,392000,52.7321483,41.4644225
3,улица Бориса Васильева,392000,52.7324031,41.4638049
3,улица Максима Горького,392000,52.7211821,41.4603288
10,Ипподромная улица,392028,52.7332106,41.4169298
1,Бастионная улица,392029,52.7347948,41.3802892
116,улица Киквидзе,392000,52.7210075,41.3825817
73Г,улица Киквидзе,392014,52.7234463,41.3866069
141А литА,Авиационная улица,392028,52.7359711,41.4016612
175/17,Астраханская улица,392005,52.6812782,41.4568249
4А,Ново-стремянная улица,392001,52.7156650,41.4135739
4,Ново-стремянная улица,392001,52.7157919,41.4142322
112Д,Мичуринская улица,392032,52.7512087,41.4102578
1Г,улица Чичканова,392000,52.7448856,41.4645388
1Д,улица Чичканова,392000,52.7448817,41.4641487
19,улица Чичерина,392019,52.7678945,41.4015222
142,улица Карла Маркса,392036,52.7225101,41.4508283
