House number,Street name,Postal code,Latitude,Longitude
71,проспект Ленина,650066,55.3443219,86.1103038
1,Пионерский бульвар,650066,55.3532611,86.1057998
122,Кузнецкий проспект,650055,55.3343182,86.0630506
5,Ноградская улица,650000,55.3553093,86.0776644
129,Красноармейская улица,650043,55.3478632,86.0863532
39,улица Григорьева,650016,55.3832212,86.0397778
5,Аллейная улица,650033,55.3997236,86.0122272
5,улица Коломейцева,650000,55.3527319,86.0875835
18,улица Терешковой,650023,55.3515878,86.1370889
133,проспект Ленина,650056,55.3472574,86.1578295
19,Весенняя улица,650000,55.3517641,86.0787658
4А,Октябрьский проспект,650066,55.3489367,86.1063627
1А,Ногинская улица,650002,55.3997549,86.1113988
33В,Кузнецкий проспект,650000,55.3617060,86.0766100
22 к8,улица Николая Островского,650000,55.3610350,86.0798263
4А оф411,улица Дзержинского,650000,55.3524889,86.0761687
3А,Притомский проспект,650066,55.3515369,86.1102214
33/1,Кузнецкий проспект,650000,55.3584480,86.0656676
33А,Кузнецкий проспект,650000,55.3576894,86.0667941
89,проспект Шахтёров,6500002,55.4023003,86.1174452
14,Кузнецкий проспект,650991,55.3632359,86.0723246
116А,улица Мичурина,650055,55.3376465,86.0810547
12,улица Свободы,650070,55.3292933,86.1144105
118Б,улица Клары Цеткин,650025,55.3441375,86.0570787
33,Кузнецкий проспект,650000,55.3558688,86.0654954
6,1-я Стахановская улица,650021,55.3643350,86.0394686
3 - 252,Соборная улица,650004,55.3431933,86.0950915
3,Соборная улица,650004,55.3431465,86.0948753
106,Кузнецкий проспект,650025,55.3400032,86.0625710
135/1,проспект Ленина,650056,55.3484749,86.1606232
85 к1,проспект Шахтёров,650002,55.4001274,86.1166153
39,проспект Химиков,650003,55.3439744,86.1810951
2,Молодёжный проспект,650070,55.3286136,86.1242911
34,Октябрьский проспект,650000,55.3503955,86.1333393
90/1,проспект Ленина,650000,55.3453457,86.1277815
28,Ленинградский проспект,650065,55.3532671,86.1706080
18,улица Никитина,650070,55.3319834,86.1160336
13А,улица Свободы,650070,55.3272777,86.1149538
2,улица 9 Января,650036,55.3440074,86.1212808
43,Комсомольский проспект,650003,55.3454051,86.1873175
66Б,проспект Ленина,650066,55.3453581,86.1092916
7,Проходная улица,650070,55.3337614,86.1156797
14,улица Рукавишникова,650025,55.3487951,86.0669457
90В,проспект Ленина,650036,55.3452930,86.1333833
2А,улица Черняховского,650993,55.3500585,86.0724861
1,проспект Ленина,650025,55.3436998,86.0631628
49А,улица Тухачевского,650070,55.3248457,86.1299044
64,Кузнецкий проспект,650025,55.3497172,86.0626090
68,Кузнецкий проспект,650025,55.3486575,86.0624621
13,улица Рукавишникова,650025,55.3488612,86.0659706
5,улица Орджоникидзе,650099,55.3572938,86.0885556
4,Космическая улица,650055,55.3281826,86.0700468
1,улица Сибиряков-Гвардейцев,650055,55.3378800,86.0635151
31,проспект Ленина,650055,55.3439377,86.0742646
62,Советский проспект,650000,55.3543835,86.0899136
6А,улица Агеева,650021,55.3433162,86.0019440
19,улица Володарского,650025,55.3456249,86.0644178
98,Кузнецкий проспект,650025,55.3418589,86.0630978
6,улица Рукавишникова,650025,55.3504236,86.0669314
3,улица Рукавишникова,650025,55.3512642,86.0659098
72,Кузнецкий проспект,650025,55.3473688,86.0625462
70,Кузнецкий проспект,650993,55.3480442,86.0626601
24,Предзаводская улица,650021,55.3423941,86.0021378
52,Кузнецкий проспект,650025,55.3524424,86.0646162
17,улица Рукавишникова,650025,55.3474071,86.0661061
109,Коммунистическая улица,650025,55.3473176,86.0643286
97,Красноармейская улица,650025,55.3515460,86.0704114
2,улица Дарвина,650025,55.3511458,86.0671180
122,Кузнецкий проспект,650055,55.3347927,86.0629984
95,Красноармейская улица,650025,55.3521908,86.0677021
11,проспект Ленина,650025,55.3438765,86.0659794
2,улица Черняховского,650993,55.3481334,86.0728352
25,улица Чкалова,650025,55.3418452,86.0689205
20,улица Сарыгина,650025,55.3419903,86.0696413
8,улица Агеева,650021,55.3429134,86.0006956
24,проспект Ленина,650025,55.3446778,86.0744081
20,проспект Ленина,650025,55.3446127,86.0728034
14,проспект Ленина,650025,55.3445677,86.0697784
18,проспект Ленина,650025,55.3445819,86.0718299
11,улица Черняховского,650025,55.3475306,86.0716391
2,улица Чкалова,650025,55.3474227,86.0697251
4,улица Черняховского,650025,55.3474464,86.0726942
1,улица Рукавишникова,650025,55.3520852,86.0659878
15,улица Рукавишникова,650993,55.3480247,86.0652437
6,проспект Ленина,650025,55.3445430,86.0659358
45,улица Рукавишникова,650025,55.3418279,86.0660227
44,улица Рукавишникова,650025,55.3418236,86.0671758
125,проспект Ленина,650056,55.3460932,86.1537986
9,улица Агеева,650021,55.3425267,86.0002792
40,Ленинградский проспект,650003,55.3368367,86.1856375
1,Невьянская улица,650021,55.3451548,86.0044551
19,проспект Ленина,650025,55.3437497,86.0698247
1,Светлая улица,650021,55.3448881,86.0052943
17,проспект Ленина,650025,55.3438939,86.0688454
1,Тайшетская улица,650021,55.3454492,86.0068604
13,проспект Ленина,650025,55.3438964,86.0670595
9,Пролетарская улица,650055,55.3413005,86.0737257
17,улица Патриотов,650024,55.3177828,86.0804972
8,Мирная улица,650036,55.3369194,86.1367308
1,улица Чкалова,650025,55.3473917,86.0686676
16,улица Рукавишникова,650025,55.3473975,86.0669945
24,улица Марковцева,650003,55.3366320,86.1919856
135,проспект Ленина,650056,55.3479185,86.1600165
11,Красная улица,650000,55.3500608,86.0880759
23,улица Дзержинского,650025,55.3469056,86.0745051
133,Коммунистическая улица,650025,55.3475525,86.0734224
27,улица Володарского,650025,55.3448061,86.0640406
118,Коммунистическая улица,650025,55.3485917,86.0678836
19,улица Черняховского,650025,55.3457040,86.0718955
128,Коммунистическая улица,650025,55.3491794,86.0702314
21,Пролетарская улица,650055,55.3349364,86.0693830
118,Кузнецкий проспект,650055,55.3368533,86.0627644
43,улица Рукавишникова,650025,55.3423427,86.0659731
3,Пролетарская улица,650055,55.3433732,86.0744844
97А,Красноармейская улица,650025,55.3516117,86.0688124
5Б,Базовая улица,650024,55.3230787,86.0755460
36,улица Рукавишникова,650025,55.3435031,86.0669149
10А,улица Чкалова,650025,55.3451261,86.0702081
13,улица Черняховского,650025,55.3457272,86.0708235
3,улица Чкалова,650025,55.3468794,86.0688374
10,улица Черняховского,650025,55.3454249,86.0724812
120А,Кузнецкий проспект,650055,55.3355217,86.0638656
19,улица Чкалова,650025,55.3431748,86.0687600
30,улица Рукавишникова,650025,55.3448328,86.0669243
19,улица Черняховского,650025,55.3448619,86.0708115
6,улица Черняховского,650025,55.3469741,86.0724424
14,улица Сарыгина,650025,55.3417063,86.0684179
23А,улица Дзержинского,650025,55.3466081,86.0738387
16,проспект Ленина,650025,55.3445762,86.0706616
99А,Красноармейская улица,650025,55.3515095,86.0694806
40,улица Рукавишникова,650025,55.3426604,86.0669813
90,Кузнецкий проспект,650025,55.3431147,86.0625538
24,Ленинградский проспект,650065,55.3542864,86.1696375
60,Кузнецкий проспект,650025,55.3504767,86.0640562
12,улица Володарского,650025,55.3456322,86.0650458
32А,Ленинградский проспект,650003,55.3409523,86.1826629
27,улица Рукавишникова,650025,55.3451942,86.0661244
127,улица Рукавишникова,650025,55.3475299,86.0706626
8,улица Федоровского,650055,55.3344228,86.0653487
11,улица Чкалова,650025,55.3448319,86.0688728
56,Кузнецкий проспект,650025,55.3517078,86.0641404
28,улица Рукавишникова,650025,55.3452212,86.0668619
118А,Коммунистическая улица,650025,55.3493875,86.0691997
124,Коммунистическая улица,650025,55.3486184,86.0703808
17Б,улица Черняховского,650025,55.3460691,86.0712966
120,Коммунистическая улица,650025,55.3491350,86.0682192
27,проспект Ленина,650055,55.3440200,86.0728381
5,улица Рукавишникова,650025,55.3504903,86.0659225
38,улица Рукавишникова,650025,55.3430606,86.0669726
124,проспект Ленина,650023,55.3470594,86.1538025
11,улица Рукавишникова,650025,55.3497186,86.0649808
8,улица Черняховского,650025,55.3463270,86.0724867
7,улица Рукавишникова,650025,55.3504786,86.0649670
30А,Ленинградский проспект,650003,55.3414616,86.1829546
29,улица Рукавишникова,650025,55.3448196,86.0661009
9,улица Дарвина,650025,55.3503300,86.0708051
7,улица Чкалова,650025,55.3457053,86.0688854
21Б,бульвар Строителей,650056,55.3463333,86.1610584
26,Волгоградская улица,650056,55.3427885,86.1507134
122А,Кузнецкий проспект,650055,55.3349385,86.0643269
28,улица Сарыгина,650055,55.3411816,86.0727879
12,улица Чкалова,650025,55.3448443,86.0696068
92,Кузнецкий проспект,650025,55.3424715,86.0625879
35А,Московский проспект,650065,55.3595296,86.1682460
2,улица Рукавишникова,650025,55.3518836,86.0668254
17А,улица Черняховского,650025,55.3460700,86.0718890
3А,улица Дарвина,650025,55.3497709,86.0681707
93,Красноармейская улица,650025,55.3526925,86.0655557
23,проспект Ленина,650055,55.3439925,86.0712781
9,улица Рукавишникова,650025,55.3497898,86.0659324
41,улица Рукавишникова,650025,55.3428687,86.0642080
86,проспект Ленина,650066,55.3454383,86.1243559
96,Кузнецкий проспект,650025,55.3418550,86.0639503
66,Кузнецкий проспект,650025,55.3491866,86.0623083
10А,улица Черняховского,650025,55.3457576,86.0725217
58,Кузнецкий проспект,650025,55.3507193,86.0633458
14,улица Володарского,650025,55.3456362,86.0655745
8,улица Чкалова,650993,55.3457159,86.0695774
26,улица Сарыгина,650055,55.3413495,86.0720652
10,улица Чкалова,650025,55.3452420,86.0695803
29,проспект Ленина,650055,55.3440145,86.0734693
4,улица Федоровского,650055,55.3344347,86.0639114
70А,Кузнецкий проспект,650993,55.3480380,86.0633180
119,Коммунистическая улица,650025,55.3471947,86.0678682
2А,улица 9 Января,650036,55.3439232,86.1222329
9,улица Жуковского,650025,55.3458354,86.0701927
21,проспект Ленина,650025,55.3439945,86.0705724
8,улица Рукавишникова,650025,55.3498494,86.0667136
37,улица Рукавишникова,650025,55.3432111,86.0660036
24А,Ленинградский проспект,650065,55.3545321,86.1704924
94,Кузнецкий проспект,650025,55.3422382,86.0634434
62,Кузнецкий проспект,650025,55.3498359,86.0635808
110,Коммунистическая улица,650025,55.3489141,86.0650044
25,улица Рукавишникова,650025,55.3456424,86.0661163
30Б,Ленинградский проспект,650003,55.3419729,86.1831859
5,улица Чкалова,650025,55.3464195,86.0688539
29,улица Дзержинского,650993,55.3451653,86.0743898
9,улица Чкалова,650025,55.3452277,86.0688830
95А,Красноармейская улица,650025,55.3516173,86.0682110
25,проспект Ленина,650055,55.3439908,86.0720589
10А,улица Рукавишникова,650025,55.3493305,86.0674955
22,улица Федоровского,650055,55.3345463,86.0709499
94,Коммунистическая улица,650025,55.3485749,86.0631132
8,улица Володарского,650025,55.3461554,86.0650327
22,улица Рукавишникова,650025,55.3463117,86.0678149
4,улица Чкалова,650025,55.3468795,86.0695223
3,улица Дарвина,650025,55.3503041,86.0677699
8,улица Сарыгина,650025,55.3419476,86.0652937
106,Коммунистическая улица,650025,55.3485770,86.0644582
18,улица Володарского,650993,55.3449920,86.0651298
122,Коммунистическая улица,650025,55.3485974,86.0691261
5А,улица Чкалова,650025,55.3460594,86.0688804
120,Кузнецкий проспект,650055,55.3358178,86.0628626
3А,Пролетарская улица,650055,55.3433122,86.0731646
12,улица Рукавишникова,650025,55.3493602,86.0667347
4,проспект Ленина,650025,55.3445235,86.0650251
112,Коммунистическая улица,650025,55.3485869,86.0654907
5,улица Володарского,650025,55.3472283,86.0645781
15,улица Черняховского,650025,55.3452473,86.0708816
25,улица Дзержинского,650025,55.3463625,86.0744188
6,улица Чкалова,650025,55.3464238,86.0695395
14,улица Черняховского,650025,55.3450163,86.0724910
125А,проспект Ленина,650056,55.3452976,86.1535530
118Б,Кузнецкий проспект,650055,55.3362482,86.0643314
14,улица Сарыгина,650025,55.3417154,86.0678461
6,улица Сарыгина,650025,55.3418826,86.0646119
53Б,Комсомольский проспект,650003,55.3416320,86.1897636
67,Комсомольский проспект,650003,55.3382125,86.1920870
24А,улица Марковцева,650003,55.3370712,86.1914872
43Б,Комсомольский проспект,650003,55.3451104,86.1868804
3А/1,проспект Химиков,650036,55.3334534,86.1491441
34А,улица Патриотов,650024,55.3143818,86.0896351
33,Космическая улица,650024,55.3151374,86.0910148
49Г,Комсомольский проспект,650003,55.3433746,86.1861373
20,улица Веры Волошиной,650024,55.3150452,86.0787725
38В,Ленинградский проспект,650003,55.3383574,86.1870800
35,Космическая улица,650024,55.3147304,86.0917167
20А,улица Веры Волошиной,650024,55.3144982,86.0774962
28/1,улица Веры Волошиной,650024,55.3093957,86.0877285
43В,проспект Химиков,650003,55.3441435,86.1846034
65А,Комсомольский проспект,650003,55.3389479,86.1903971
36В,Ленинградский проспект,650003,55.3399048,86.1856619
65,Комсомольский проспект,650003,55.3387156,86.1920101
43А,Комсомольский проспект,650003,55.3453762,86.1876226
38Б,Ленинградский проспект,650003,55.3391216,86.1867667
43Б,проспект Химиков,650003,55.3437309,86.1848138
5,проспект Химиков,650036,55.3359996,86.1536453
69,Комсомольский проспект,650003,55.3376562,86.1920636
14,улица Марковцева,650003,55.3350267,86.1812225
36Б,Ленинградский проспект,650003,55.3397168,86.1842836
39А,Комсомольский проспект,650003,55.3449084,86.1862060
67А,Комсомольский проспект,650003,55.3379658,86.1901302
5А,проспект Химиков,650036,55.3344771,86.1491014
37,Космическая улица,650024,55.3136463,86.0915354
40А,Ленинградский проспект,650003,55.3374071,86.1866322
71,Комсомольский проспект,650003,55.3382658,86.1932586
22А,улица Марковцева,650003,55.3368933,86.1901596
30В,Ленинградский проспект,650003,55.3431531,86.1850946
38,Ленинградский проспект,650003,55.3379420,86.1845055
16,улица Патриотов,650024,55.3184263,86.0807449
71,Комсомольский проспект,650003,55.3372695,86.1931967
55,Комсомольский проспект,650003,55.3409784,86.1899778
38А,Ленинградский проспект,650003,55.3381401,86.1857533
36А,Ленинградский проспект,650003,55.3390045,86.1851823
53В,Комсомольский проспект,650003,55.3418724,86.1906101
49,улица Тухачевского,650070,55.3247923,86.1307661
51А,Комсомольский проспект,650003,55.3426474,86.1884184
21,улица Веры Волошиной,650024,55.3154792,86.0799061
20Д,улица 1-я Линия,650024,55.3084712,86.0845050
22,улица Марковцева,650003,55.3363725,86.1902051
45,Комсомольский проспект,650003,55.3447355,86.1892113
53,Комсомольский проспект,650003,55.3420677,86.1903873
34,Ленинградский проспект,650003,55.3402827,86.1825167
59,Комсомольский проспект,650003,55.3408983,86.1917114
43А,проспект Химиков,650003,55.3443934,86.1851740
49,Комсомольский проспект,650003,55.3437258,86.1888278
34А,Ленинградский проспект,650003,55.3406052,86.1846930
32Б,Ленинградский проспект,650003,55.3415732,86.1842679
30,Ленинградский проспект,650003,55.3422745,86.1829342
20,улица Марковцева,650003,55.3365946,86.1884444
63,Комсомольский проспект,650003,55.3395858,86.1918634
57,Комсомольский проспект,650003,55.3413946,86.1921926
31 к1,Ленинградский проспект,650060,55.3458635,86.1779079
36,Ленинградский проспект,650003,55.3394394,86.1832314
8,Космическая улица,650024,55.3214976,86.0837471
36,улица Патриотов,650024,55.3137406,86.0894319
29,Космическая улица,650024,55.3161116,86.0894616
5,улица Глинки,650024,55.3228583,86.0824178
34,улица Патриотов,650024,55.3142091,86.0880418
27,Космическая улица,650024,55.3165017,86.0888228
15,улица Сергея Тюленина,650024,55.3189883,86.0824415
8А,Космическая улица,650024,55.3222619,86.0819234
14,улица Федоровского,650055,55.3344373,86.0684496
4А,Космическая улица,650055,55.3279226,86.0717488
1А,Невьянская улица,650021,55.3467998,86.0049097
1В,Предзаводская улица,650021,55.3463800,86.0058291
2А,Предзаводская улица,650021,55.3476081,86.0078508
1Б,Предзаводская улица,650021,55.3476183,86.0071617
37,проспект Шахтёров,650002,55.3886785,86.1056354
10,улица Юрия Смирнова,650002,55.3901416,86.1036783
31,проспект Шахтёров,650002,55.3879393,86.1023225
26,улица Юрия Смирнова,650002,55.3938117,86.1076827
6,улица Юрия Смирнова,650002,55.3891335,86.1026251
39,проспект Шахтёров,650002,55.3894161,86.1062566
8,улица Юрия Смирнова,650002,55.3896109,86.1031189
4,улица Юрия Смирнова,650002,55.3884877,86.1026986
15,проспект Шахтёров,650002,55.3865462,86.0948593
28,улица Юрия Смирнова,650002,55.3936016,86.1083780
35А,проспект Шахтёров,650002,55.3881454,86.1041402
16,улица Юрия Смирнова,650002,55.3908586,86.1039741
33,проспект Шахтёров,650002,55.3879788,86.1033243
35,проспект Шахтёров,650002,55.3883164,86.1049285
21Б,улица Халтурина,650068,55.4086643,86.0462744
68А,проспект Шахтёров,650002,55.4047618,86.1239308
97,проспект Шахтёров,650002,55.4056148,86.1212966
107А,проспект Шахтёров,650002,55.4079195,86.1226006
70А,проспект Шахтёров,650002,55.4049195,86.1257911
70,проспект Шахтёров,650002,55.4054187,86.1250682
101А,проспект Шахтёров,650002,55.4071201,86.1218696
95,проспект Шахтёров,65002,55.4049739,86.1205225
72А,проспект Шахтёров,650002,55.4065997,86.1257217
12,Ногинская улица,650002,55.4021904,86.1153439
26,Институтская улица,650002,55.3971122,86.1184253
103,проспект Шахтёров,650002,55.4073398,86.1226912
72,проспект Шахтёров,650002,55.4066067,86.1249488
109,проспект Шахтёров,650002,55.4081530,86.1234667
107,проспект Шахтёров,650002,55.4076771,86.1234336
28,Институтская улица,650002,55.3983555,86.1195922
39А,Волгоградская улица,650036,55.3328650,86.1518809
50,улица Терешковой,650036,55.3329338,86.1479847
2А,Космическая улица,650055,55.3287234,86.0689780
3,улица Черняховского,650025,55.3496624,86.0712868
24,улица Рукавишникова,650025,55.3460487,86.0671157
16А,улица Чкалова,650025,55.3431057,86.0698881
25А,проспект Ленина,650055,55.3434787,86.0725015
24,улица Сарыгина,650055,55.3415049,86.0713070
22А,улица Сарыгина,650055,55.3418998,86.0711386
5,проспект Ленина,650993,55.3434817,86.0645530
11,улица Володарского,650025,55.3466623,86.0644547
7,Пролетарская улица,650055,55.3423722,86.0743648
9А,Пролетарская улица,650055,55.3420197,86.0729336
74,Кузнецкий проспект,650025,55.3469092,86.0625596
7,проспект Ленина,650025,55.3439178,86.0649267
125,улица Рукавишникова,650025,55.3471959,86.0702351
4,улица Дарвина,650993,55.3510831,86.0682532
22/1,улица Рукавишникова,650025,55.3465522,86.0679786
42,улица Рукавишникова,650025,55.3422533,86.0669673
29А,улица Дзержинского,650993,55.3453834,86.0737765
108А,Коммунистическая улица,650025,55.3490745,86.0643003
5,Пролетарская улица,650055,55.3428824,86.0743068
39,улица Рукавишникова,650025,55.3428328,86.0653889
56А,Кузнецкий проспект,650025,55.3514268,86.0648998
9,проспект Ленина,650025,55.3436402,86.0654875
21,улица Чкалова,650025,55.3426963,86.0682763
4,улица Володарского,650025,55.3474088,86.0655709
15,проспект Ленина,650025,55.3440053,86.0678504
7А,Пролетарская улица,650055,55.3424785,86.0732097
22,улица Сарыгина,650055,55.3416826,86.0705439
23,улица Чкалова,650025,55.3422602,86.0689210
76,Кузнецкий проспект,650993,55.3464694,86.0624308
14А,улица Сарыгина,650025,55.3421237,86.0683944
2,проспект Ленина,650025,55.3445076,86.0640001
21А,проспект Ленина,650025,55.3434335,86.0705759
23,улица Черняховского,650025,55.3449394,86.0713655
1А,улица Рукавишникова,650025,55.3519756,86.0650945
118,улица Клары Цеткин,650010,55.3443343,86.0557891
1,Карболитовская улица,650000,55.3621964,86.0578395
4А,Пионерский бульвар,650066,55.3496904,86.1090803
24,проспект Шахтёров,650002,55.3873585,86.1035032
14,улица Пчелобаза,650501,55.3146025,86.0048646
16,улица Пчелобаза,650501,55.3144247,86.0056189
120 к1,улица Клары Цеткин,650010,55.3438660,86.0580521
12,улица Пчелобаза,650501,55.3147192,86.0038686
13,Цимлянская улица,650002,55.3968644,86.1199776
1,улица Муромцева,650501,55.3101768,86.0172013
81В,проспект Шахтёров,650002,55.3991104,86.1142998
15,Цимлянская улица,650002,55.3965494,86.1209267
120/2,улица Клары Цеткин,650010,55.3435123,86.0571479
22,проспект Ленина,650025,55.3446120,86.0735999
29Б,улица Дзержинского,650993,55.3450804,86.0735428
6А,улица Чкалова,650025,55.3463949,86.0701105
11А,улица Черняховского,650025,55.3460671,86.0707646
26,улица Рукавишникова,650993,55.3456559,86.0669551
13,Тихая улица,650070,55.3325315,86.1148659
26А,улица Веры Волошиной,650024,55.3101554,86.0854148
1В,Невьянская улица,650021,55.3460139,86.0046605
18Б,улица 1-я Линия,650024,55.3108316,86.0804657
18В,улица 1-я Линия,650024,55.3116091,86.0819710
10А,улица Юрия Двужильного,650040,55.3156999,86.1000903
17,улица Дружбы,650040,55.3102710,86.0975059
22,Базовая улица,650024,55.3252507,86.0816583
6/4К2,улица Свободы,650070,55.3301474,86.1211587
71,Можайская улица,650070,55.3313920,86.1167789
8Б,улица Свободы,650070,55.3301275,86.1147768
12А,улица Свободы,650070,55.3298035,86.1140484
45,Можайская улица,650070,55.3312019,86.1138609
47,Можайская улица,650070,55.3311183,86.1142909
7,Тихая улица,650070,55.3325402,86.1144776
49,Можайская улица,650070,55.3312428,86.1147635
21,Проходная улица,650070,55.3327013,86.1140086
6,улица Никитина,650070,55.3319896,86.1139372
11,Проходная улица,650070,55.3335284,86.1153613
5,Тихая улица,650070,55.3325457,86.1141828
6/4Б,улица Свободы,650070,55.3297522,86.1224323
55 к2,улица Баумана,650024,55.3205262,86.1012013
87,проспект Шахтёров,650002,55.4017095,86.1172148
32,Профсоюзная улица,650010,55.3435905,86.0558382
120/1,улица Клары Цеткин,650010,55.3439353,86.0573149
120,улица Клары Цеткин,650010,55.3443928,86.0582461
3,Тайшетская улица,650021,55.3454751,86.0060620
64,проспект Шахтёров,650002,55.4035323,86.1229469
8,улица Никитина,650070,55.3319746,86.1142881
4А,улица Никитина,650070,55.3319600,86.1136535
1В,улица Никитина,650070,55.3314388,86.1114587
25,Можайская улица,650070,55.3313217,86.1116033
19,улица Никитина,650070,55.3317547,86.1150461
39,Проходная улица,650070,55.3323061,86.1160005
13,улица Никитина,650070,55.3317483,86.1142168
8,Тихая улица,650070,55.3327613,86.1155378
27,Можайская улица,650070,55.3312521,86.1119570
35,Проходная улица,650070,55.3327710,86.1159707
17,улица Никитина,650070,55.3317442,86.1147847
23,улица Никитина,650070,55.3317407,86.1154626
17,Тихая улица,650070,55.3325424,86.1159464
18А,улица Никитина,650070,55.3319936,86.1157635
12,Можайская улица,650070,55.3309564,86.1108981
4,Тихая улица,650070,55.3327529,86.1149958
51,Можайская улица,650070,55.3313551,86.1153199
7,улица Дарвина,650025,55.3501603,86.0691997
3,улица Гончарова,650016,55.3842405,86.0259085
62,улица Гончарова,650016,55.3830351,86.0342362
64,улица Гончарова,650016,55.3829679,86.0346440
33,улица Свободы,650070,55.3272072,86.1043874
46,улица Терешковой,650036,55.3350268,86.1446436
85,проспект Шахтёров,650002,55.4006176,86.1164183
62 бл1,улица Терешковой,650036,55.3250119,86.1562256
14А,улица Свободы,650070,55.3299447,86.1130557
1,проспект Владимира Михайлова,650521,55.4419761,86.1873347
43Б,улица Веры Волошиной,650024,55.3086100,86.0926861
65А,Центральная улица,650501,55.2985692,86.0151924
13,Карболитовская улица,650000,55.3566661,86.0604350
1,улица Черняховского,650025,55.3504629,86.0714326
128А,Коммунистическая улица,650025,55.3495649,86.0699787
1А,улица Черняховского,650025,55.3511439,86.0709474
2Б,улица Черняховского,650025,55.3505461,86.0725142
21,улица Рукавишникова,650993,55.3465224,86.0656745
3А,проспект Ленина,650993,55.3433529,86.0636915
108,Коммунистическая улица,650025,55.3488431,86.0646763
17,улица Чкалова,650025,55.3435039,86.0689620
20,улица Сарыгина,650055,55.3419863,86.0702791
8,Малая улица,650055,55.3433074,86.0710959
18,улица Чкалова,650025,55.3426186,86.0696014
25Б,проспект Ленина,650055,55.3436696,86.0720224
6,Малая улица,650055,55.3434790,86.0712193
18,Малая улица,650055,55.3427939,86.0706901
20,Малая улица,650055,55.3425733,86.0705692
14,Малая улица,650055,55.3429862,86.0708208
12,Малая улица,650055,55.3431546,86.0709844
43 к1,проспект Химиков,650003,55.3472133,86.1868071
3,проспект Химиков,650036,55.3343829,86.1482355
116А,проспект Ленина,650023,55.3461488,86.1502886
38,Октябрьский проспект,650023,55.3493508,86.1393212
41 к1,Кузнецкий проспект,650992,55.3511377,86.0623423
13,Строительная улица,650903,55.5235907,86.1097818
11,Строительная улица,650903,55.5234658,86.1094958
9,Строительная улица,650903,55.5233644,86.1092533
1,Строительная улица,650903,55.5228753,86.1082229
15,Строительная улица,650903,55.5236745,86.1099734
5,Строительная улица,650903,55.5231080,86.1087268
3,Строительная улица,650903,55.5229982,86.1085194
7,Строительная улица,650903,55.5232528,86.1090767
17,Строительная улица,650903,55.5237763,86.1102469
1А,Октябрьская улица,650903,55.5227522,86.1072698
4,Новогодняя улица,650903,55.5203958,86.1050095
1,улица Гончарова,650016,55.3843411,86.0256174
8А,Стахановская улица,650903,55.5179071,86.1016182
250/3,улица Нахимова,650014,55.4383646,86.1396702
250/2,улица Нахимова,650014,55.4378414,86.1397822
82А,проспект Шахтёров,650002,55.4091526,86.1289833
80,проспект Шахтёров,650002,55.4096788,86.1273281
82,проспект Шахтёров,650002,55.4091537,86.1279264
84,проспект Шахтёров,650002,55.4098600,86.1287935
19,улица Дружбы,650040,55.3111646,86.0971660
2А,2-я Аральская улица,650907,55.3208081,85.9401036
62Б,проспект Шахтёров,650002,55.4025042,86.1248377
68,проспект Шахтёров,650002,55.4047982,86.1231593
4А,улица Авроры,650002,55.4042828,86.1176171
23А,улица Свободы,650070,55.3274217,86.1088441
61,улица Тухачевского,650070,55.3182643,86.1326389
1Б,Юбилейная улица,650907,55.3172831,85.9539706
22,Космическая улица,650024,55.3133392,86.0959314
22А,Космическая улица,650024,55.3136588,86.0964754
134А,улица Плодопитомник,650070,55.3111492,86.1110616
135А,улица Плодопитомник,650070,55.3106539,86.1124248
136,улица Плодопитомник,650070,55.3101097,86.1120250
137,улица Плодопитомник,650070,55.3104289,86.1110307
138,улица Плодопитомник,650070,55.3104394,86.1095245
143,улица Плодопитомник,650070,55.3094912,86.1103853
142,улица Плодопитомник,650070,55.3094214,86.1109712
142А,улица Плодопитомник,650070,55.3092944,86.1115757
4,Горнореченская улица,650907,55.3138694,85.9530247
7А,Туринская улица,650907,55.3123449,85.9511535
8,Туринская улица,650907,55.3126437,85.9508131
9,Туринская улица,650907,55.3129174,85.9502322
84А,проспект Шахтёров,650002,55.4093642,86.1304544
3,Фестивальная улица,650907,55.3193241,85.9589634
10,Спасательная улица,650907,55.3200802,85.9594352
80,Кузнецкий проспект,650025,55.3458657,86.0627200
15,переулок Угольщиков,650014,55.4164251,86.1316769
16,переулок Угольщиков,650014,55.4163626,86.1313084
12,улица Марата,650000,55.3229905,85.9503874
32,Окружная улица,650071,55.4238507,86.2400233
3,2-я Заречная улица,650066,55.3517344,86.1141813
5,2-я Заречная улица,650066,55.3518763,86.1149411
2/16,Советский проспект,650000,55.3623184,86.0568775
2,1-я Иланская улица,650905,55.2808472,85.9750344
159В,Центральная улица,650501,55.2959784,85.9945568
1А,Тайшетская улица,650021,55.3449151,86.0033907
2,Тайшетская улица,650021,55.3448867,86.0063315
6,Предзаводская улица,650021,55.3454243,86.0077105
4,Предзаводская улица,650021,55.3459181,86.0077673
2,Предзаводская улица,650021,55.3464426,86.0078467
1А,Предзаводская улица,650021,55.3465084,86.0070779
1А,улица Никитина,650070,55.3315968,86.1118226
21,Можайская улица,650070,55.3310555,86.1112418
35,Можайская улица,650070,55.3313348,86.1127614
1Б,улица Никитина,650070,55.3316272,86.1124108
7,улица Никитина,650070,55.3317487,86.1131658
2,улица Никитина,650070,55.3319608,86.1130575
3,улица Никитина,650070,55.3317419,86.1126617
10,улица Никитина,650070,55.3319927,86.1145710
14А,улица Никитина,650070,55.3319760,86.1152662
9,улица Никитина,650070,55.3317515,86.1134922
16,улица Никитина,650070,55.3319621,86.1155649
25А,улица Никитина,650070,55.3317608,86.1158893
25,улица Никитина,650070,55.3315855,86.1160550
14,улица Никитина,650070,55.3319810,86.1149761
3,Тихая улица,650070,55.3324215,86.1138753
2,Тихая улица,650070,55.3327487,86.1145882
33,Проходная улица,650070,55.3329848,86.1160484
6,Тихая улица,650070,55.3327613,86.1152812
29,Проходная улица,650070,55.3333186,86.1159461
15,Проходная улица,650070,55.3332024,86.1148580
31,Проходная улица,650070,55.3331513,86.1160225
6,Весёлая улица,650004,55.3335735,86.1158906
19,Проходная улица,650070,55.3328673,86.1142613
17,Проходная улица,650070,55.3330313,86.1145399
9,Проходная улица,650070,55.3336483,86.1155745
5А,Проходная улица,650070,55.3331435,86.1152178
68,3-я Ряжская улица,650907,55.3223088,85.9208037
8,Вьюжная улица,650907,55.3227308,85.9225171
9,Вьюжная улица,650907,55.3227902,85.9216975
10,Вьюжная улица,650907,55.3228421,85.9212247
6,Вьюжная улица,650907,55.3226277,85.9239592
3,Вьюжная улица,650907,55.3225690,85.9253178
60А,3-я Ряжская улица,650907,55.3214788,85.9201670
66,3-я Ряжская улица,650907,55.3222032,85.9198800
68А,3-я Ряжская улица,650907,55.3225297,85.9202835
58Б,3-я Ряжская улица,650907,55.3211396,85.9202791
60,3-я Ряжская улица,650907,55.3215145,85.9193691
56,3-я Ряжская улица,650907,55.3208718,85.9183694
46,3-я Ряжская улица,650907,55.3196781,85.9172195
58А,3-я Ряжская улица,650907,55.3212952,85.9191045
54,3-я Ряжская улица,650907,55.3206550,85.9181385
48,3-я Ряжская улица,650907,55.3199102,85.9174795
50,3-я Ряжская улица,650907,55.3201627,85.9177888
52,3-я Ряжская улица,650907,55.3204407,85.9179861
42,3-я Ряжская улица,650907,55.3191668,85.9167286
53,3-я Ряжская улица,650907,55.3189717,85.9159781
57,3-я Ряжская улица,650907,55.3195479,85.9163886
55,3-я Ряжская улица,650907,55.3192289,85.9161923
51,3-я Ряжская улица,650907,55.3187223,85.9157613
47,3-я Ряжская улица,650907,55.3179958,85.9146919
34,3-я Ряжская улица,650907,55.3182130,85.9155476
28,3-я Ряжская улица,650907,55.3180507,85.9167616
26,3-я Ряжская улица,650907,55.3179919,85.9171006
30,3-я Ряжская улица,650907,55.3181058,85.9164032
45,3-я Ряжская улица,650907,55.3178523,85.9153666
32,3-я Ряжская улица,650907,55.3181517,85.9160576
24,3-я Ряжская улица,650907,55.3179625,85.9174139
16,3-я Ряжская улица,650907,55.3178094,85.9187500
14,3-я Ряжская улица,650907,55.3177887,85.9190593
18,3-я Ряжская улица,650907,55.3178384,85.9184152
12,3-я Ряжская улица,650907,55.3177410,85.9193468
19,3-я Ряжская улица,650907,55.3171985,85.9205913
4,3-я Ряжская улица,650907,55.3176002,85.9207222
6,3-я Ряжская улица,650907,55.3176250,85.9203766
8,3-я Ряжская улица,650907,55.3176913,85.9200127
2,3-я Ряжская улица,650907,55.3175588,85.9210679
15,3-я Ряжская улица,650907,55.3170851,85.9214254
7,улица Урицкого,650907,55.3189043,85.9217819
5,улица Урицкого,650907,55.3184485,85.9219228
113А,1-я Ряжская улица,650907,55.3169397,85.9148234
115,1-я Ряжская улица,650907,55.3169694,85.9145496
113,1-я Ряжская улица,650907,55.3169335,85.9157015
111,1-я Ряжская улица,650907,55.3167672,85.9161689
109,1-я Ряжская улица,650907,55.3167413,85.9165045
105,1-я Ряжская улица,650907,55.3166748,85.9172191
138,1-я Ряжская улица,650907,55.3162724,85.9187146
99,1-я Ряжская улица,650907,55.3166061,85.9181998
93,1-я Ряжская улица,650907,55.3164208,85.9195357
83,1-я Ряжская улица,650907,55.3161779,85.9210701
81А,1-я Ряжская улица,650907,55.3161297,85.9215393
75,1-я Ряжская улица,650907,55.3160481,85.9230397
11,3-я Ряжская улица,650907,55.3169166,85.9225838
102,1-я Ряжская улица,650907,55.3157125,85.9239943
13,3-я Ряжская улица,650907,55.3169663,85.9220906
9,3-я Ряжская улица,650907,55.3168881,85.9230393
67,1-я Ряжская улица,650907,55.3163981,85.9254038
65,1-я Ряжская улица,650907,55.3165022,85.9256691
63,1-я Ряжская улица,650907,55.3166109,85.9259477
55,1-я Ряжская улица,650907,55.3170607,85.9269717
74,1-я Ряжская улица,650907,55.3169264,85.9274811
51,1-я Ряжская улица,650907,55.3172706,85.9275475
66,1-я Ряжская улица,650907,55.3172263,85.9290502
80,Ижевская улица,650907,55.3179657,85.9324214
21,улица Урицкого,650907,55.3172497,85.9225464
2,переулок Урицкого,650907,55.3177701,85.9261566
5,Вьюжная улица,650907,55.3225924,85.9244199
1,Вьюжная улица,650907,55.3225574,85.9262445
4,Вьюжная улица,650907,55.3225644,85.9247807
12,Вьюжная улица,650907,55.3217712,85.9262691
15,Вьюжная улица,650907,55.3211250,85.9261871
16,Вьюжная улица,650907,55.3209127,85.9262322
17,Вьюжная улица,650907,55.3206421,85.9262158
5,2-я Школьная улица,650907,55.3215834,85.9281697
2,2-я Школьная улица,650907,55.3212311,85.9275053
1А,2-я Школьная улица,650907,55.3215811,85.9270543
4,2-я Школьная улица,650907,55.3212381,85.9278375
6,2-я Школьная улица,650907,55.3212568,85.9281615
11,2-я Школьная улица,650907,55.3216207,85.9301993
5,Симферопольская улица,650907,55.3205242,85.9280876
13,Симферопольская улица,650907,55.3207949,85.9302771
12,2-я Школьная улица,650907,55.3212311,85.9308759
11,Симферопольская улица,650907,55.3205965,85.9297236
7,Симферопольская улица,650907,55.3205312,85.9284813
15,2-я Школьная улица,650907,55.3216091,85.9307568
17,2-я Школьная улица,650907,55.3215788,85.9313513
22,2-я Школьная улица,650907,55.3230124,85.9295585
18,2-я Школьная улица,650907,55.3227222,85.9317402
20,2-я Школьная улица,650907,55.3228645,85.9302579
21,2-я Школьная улица,650907,55.3232296,85.9317048
23,2-я Школьная улица,650907,55.3232059,85.9320642
14,переулок Урицкого,650907,55.3195932,85.9244558
15,переулок Урицкого,650907,55.3199795,85.9252998
10,переулок Урицкого,650907,55.3191556,85.9247709
13,переулок Урицкого,650907,55.3197510,85.9254423
11,переулок Урицкого,650907,55.3195377,85.9255699
16,переулок Урицкого,650907,55.3198065,85.9243807
9,переулок Урицкого,650907,55.3193369,85.9256862
8,переулок Урицкого,650907,55.3189634,85.9248722
5,переулок Урицкого,650907,55.3188995,85.9259000
7,переулок Урицкого,650907,55.3190872,85.9257912
6,переулок Урицкого,650907,55.3187501,85.9249959
3,переулок Урицкого,650907,55.3187181,85.9259525
20,Подольская улица,650907,55.3198407,85.9260763
16,Подольская улица,650907,55.3194992,85.9262175
18,Подольская улица,650907,55.3196650,85.9261601
2,Симферопольская улица,650907,55.3200341,85.9259395
14,Подольская улица,650907,55.3193110,85.9263278
10,Симферопольская улица,650907,55.3201012,85.9279415
8,Симферопольская улица,650907,55.3200912,85.9275323
6,Симферопольская улица,650907,55.3200884,85.9269186
2,Подольская улица,650907,55.3197288,85.9278421
21,Петропавловская улица,650907,55.3188579,85.9274769
21А,Петропавловская улица,650907,55.3186183,85.9271691
19А,Петропавловская улица,650907,55.3194479,85.9281978
13,Петропавловская улица,650907,55.3196667,85.9298491
13А,Петропавловская улица,650907,55.3196644,85.9303027
14,Симферопольская улица,650907,55.3200954,85.9299869
16,Симферопольская улица,650907,55.3201254,85.9304688
12А,Петропавловская улица,650907,55.3193212,85.9302622
16,Петропавловская улица,650907,55.3192866,85.9296061
47,1-я Ряжская улица,650907,55.3177794,85.9279426
5,Петропавловская улица,650907,55.3188856,85.9328762
64,Ижевская улица,650907,55.3183674,85.9350658
78,Ижевская улица,650907,55.3180681,85.9328232
72,Ижевская улица,650907,55.3183210,85.9344634
75,Ижевская улица,650907,55.3182838,85.9326500
73,Ижевская улица,650907,55.3183935,85.9332185
31А,1-я Ряжская улица,650907,55.3177567,85.9329048
50,1-я Ряжская улица,650907,55.3175075,85.9326336
54А,1-я Ряжская улица,650907,55.3176935,85.9319409
29А,1-я Ряжская улица,650907,55.3175131,85.9338883
50А,1-я Ряжская улица,650907,55.3172306,85.9336661
29,1-я Ряжская улица,650907,55.3174370,85.9342379
48А,1-я Ряжская улица,650907,55.3171990,85.9339275
44,1-я Ряжская улица,650907,55.3171697,85.9345636
17,1-я Ряжская улица,650907,55.3170009,85.9366591
13,1-я Ряжская улица,650907,55.3169098,85.9369590
21,1-я Ряжская улица,650907,55.3171570,85.9360742
30,1-я Ряжская улица,650907,55.3167808,85.9363917
24,1-я Ряжская улица,650907,55.3165716,85.9373591
26,1-я Ряжская улица,650907,55.3166106,85.9369761
32,1-я Ряжская улица,650907,55.3168358,85.9361437
20,1-я Ряжская улица,650907,55.3164905,85.9377623
5,1-я Ряжская улица,650907,55.3166614,85.9383548
12,1-я Ряжская улица,650907,55.3163626,85.9386180
10,1-я Ряжская улица,650907,55.3163104,85.9390521
29,Новоржевская улица,650907,55.3167316,85.9399717
31,Новоржевская улица,650907,55.3166034,85.9399427
32,Новоржевская улица,650907,55.3162712,85.9404208
21,Новоржевская улица,650907,55.3175059,85.9401810
28А,Ижевская улица,650907,55.3176703,85.9396118
30,Ижевская улица,650907,55.3177398,85.9392845
36,Ижевская улица,650907,55.3180701,85.9382748
51,Ижевская улица,650907,55.3184862,85.9369260
48,Ижевская улица,650907,55.3182360,85.9365181
54,Ижевская улица,650907,55.3176918,85.9367326
68,Ижевская улица,650907,55.3181000,85.9347316
22,Житомирская улица,650907,55.3167541,85.9408710
141,Левобережная улица,650907,55.3137532,85.9260597
136,Левобережная улица,650907,55.3137430,85.9268588
134,Левобережная улица,650907,55.3137606,85.9272540
138,Левобережная улица,650907,55.3137658,85.9264016
142,Левобережная улица,650907,55.3137608,85.9289189
117А,Левобережная улица,650907,55.3133788,85.9287992
105А,Левобережная улица,650907,55.3134521,85.9308237
95,Левобережная улица,650907,55.3135495,85.9326090
85,Левобережная улица,650907,55.3135123,85.9339837
22,Левобережная улица,650907,55.3144090,85.9408406
30,Медынская улица,650907,55.3118044,85.9418672
24,Медынская улица,650907,55.3118891,85.9424106
28,Медынская улица,650907,55.3118520,85.9420095
26,Медынская улица,650907,55.3118778,85.9422206
18,Медынская улица,650907,55.3119596,85.9435441
16,Медынская улица,650907,55.3119390,85.9438291
25,2-я Школьная улица,650907,55.3242385,85.9323919
26,2-я Школьная улица,650907,55.3245296,85.9325717
27,2-я Школьная улица,650907,55.3248647,85.9327086
25,Симферопольская улица,650907,55.3205055,85.9336128
29,Симферопольская улица,650907,55.3204979,85.9342829
33,Симферопольская улица,650907,55.3205196,85.9349933
1Г,3-я Аральская улица,650907,55.3209259,85.9373015
2В,3-я Аральская улица,650907,55.3206239,85.9358297
2Б,3-я Аральская улица,650907,55.3208468,85.9363605
1Д,3-я Аральская улица,650907,55.3206885,85.9370086
2А,3-я Аральская улица,650907,55.3210447,85.9366206
2,3-я Аральская улица,650907,55.3211864,85.9368402
4,3-я Аральская улица,650907,55.3213551,85.9370856
1В,3-я Аральская улица,650907,55.3210926,85.9375323
1Б,3-я Аральская улица,650907,55.3213426,85.9378252
1А,3-я Аральская улица,650907,55.3215093,85.9380265
6А,3-я Аральская улица,650907,55.3215509,85.9369818
10А,3-я Аральская улица,650907,55.3220986,85.9373091
14,3-я Аральская улица,650907,55.3222468,85.9382270
1,3-я Аральская улица,650907,55.3217993,85.9385973
11А,3-я Аральская улица,650907,55.3230200,85.9396370
9,3-я Аральская улица,650907,55.3224089,85.9391012
18,3-я Аральская улица,650907,55.3225544,85.9385046
9А,3-я Аральская улица,650907,55.3225294,85.9392060
24,3-я Аральская улица,650907,55.3230228,85.9389698
26/1,3-я Аральская улица,650907,55.3232651,85.9391622
22,3-я Аральская улица,650907,55.3228883,85.9388286
13,3-я Аральская улица,650907,55.3234937,85.9399998
13А,3-я Аральская улица,650907,55.3232639,85.9398708
28А,3-я Аральская улица,650907,55.3234163,85.9393545
19,3-я Аральская улица,650907,55.3241783,85.9406695
17А,3-я Аральская улица,650907,55.3240258,85.9405038
38,3-я Аральская улица,650907,55.3243985,85.9402287
23,3-я Аральская улица,650907,55.3246788,85.9410825
52,3-я Аральская улица,650907,55.3254782,85.9411179
33,3-я Аральская улица,650907,55.3255261,85.9418089
48,3-я Аральская улица,650907,55.3251158,85.9408246
50,3-я Аральская улица,650907,55.3253036,85.9409528
31,3-я Аральская улица,650907,55.3253573,85.9416538
35,3-я Аральская улица,650907,55.3257179,85.9419166
39,3-я Аральская улица,650907,55.3261014,85.9422436
37,3-я Аральская улица,650907,55.3258828,85.9420650
56,3-я Аральская улица,650907,55.3259250,85.9415088
60,3-я Аральская улица,650907,55.3262931,85.9418122
22А,Саранский переулок,650907,55.3266919,85.9408921
62,3-я Аральская улица,650907,55.3266287,85.9421762
19,Саранский переулок,650907,55.3270282,85.9409448
38,2-я Аральская улица,650907,55.3256911,85.9428975
36,2-я Аральская улица,650907,55.3255089,85.9427727
43,2-я Аральская улица,650907,55.3253115,85.9432918
32,2-я Аральская улица,650907,55.3248704,85.9422976
37,2-я Аральская улица,650907,55.3244964,85.9427256
34,2-я Аральская улица,650907,55.3251657,85.9425503
28,2-я Аральская улица,650907,55.3243071,85.9419130
35,2-я Аральская улица,650907,55.3243167,85.9425669
26,2-я Аральская улица,650907,55.3240770,85.9417512
18,2-я Аральская улица,650907,55.3231622,85.9411176
27,2-я Аральская улица,650907,55.3237184,85.9422029
24,2-я Аральская улица,650907,55.3238698,85.9416164
22,2-я Аральская улица,650907,55.3236225,85.9414647
20,2-я Аральская улица,650907,55.3233828,85.9412626
23,2-я Аральская улица,650907,55.3232543,85.9419298
21,2-я Аральская улица,650907,55.3226867,85.9417209
10А,2-я Аральская улица,650907,55.3221766,85.9408749
14,2-я Аральская улица,650907,55.3225870,85.9409558
8,2-я Аральская улица,650907,55.3218909,85.9408075
6,2-я Аральская улица,650907,55.3216838,85.9407435
10,2-я Аральская улица,650907,55.3220347,85.9408446
1,2-я Аральская улица,650907,55.3205140,85.9412187
5,2-я Аральская улица,650907,55.3209148,85.9413165
1А,2-я Аральская улица,650907,55.3203146,85.9411446
3,2-я Аральская улица,650907,55.3207173,85.9412761
1Б,2-я Аральская улица,650907,55.3200748,85.9410705
6,1-я Аральская улица,650907,55.3198331,85.9435899
14,1-я Аральская улица,650907,55.3204968,85.9436310
7,1-я Аральская улица,650907,55.3201845,85.9430108
13,1-я Аральская улица,650907,55.3207192,85.9431077
15,1-я Аральская улица,650907,55.3209083,85.9431270
17,1-я Аральская улица,650907,55.3210866,85.9431431
22,1-я Аральская улица,650907,55.3210150,85.9436339
21,1-я Аральская улица,650907,55.3213595,85.9432573
23,1-я Аральская улица,650907,55.3215469,85.9433090
28,1-я Аральская улица,650907,55.3216662,85.9439191
25,1-я Аральская улица,650907,55.3217600,85.9433573
29,1-я Аральская улица,650907,55.3221071,85.9435252
32,1-я Аральская улица,650907,55.3219988,85.9440676
33,1-я Аральская улица,650907,55.3224359,85.9436642
31,1-я Аральская улица,650907,55.3222669,85.9435833
34,1-я Аральская улица,650907,55.3221475,85.9440935
35,1-я Аральская улица,650907,55.3226867,85.9436535
37,1-я Аральская улица,650907,55.3230086,85.9438011
40А,1-я Аральская улица,650907,55.3227261,85.9443164
35А,1-я Аральская улица,650907,55.3228525,85.9437236
39,1-я Аральская улица,650907,55.3231741,85.9438559
46,1-я Аральская улица,650907,55.3232883,85.9445358
40,1-я Аральская улица,650907,55.3225700,85.9442744
52,1-я Аральская улица,650907,55.3236649,85.9447102
45,1-я Аральская улица,650907,55.3234973,85.9439981
48,1-я Аральская улица,650907,55.3234499,85.9446070
49А,1-я Аральская улица,650907,55.3239033,85.9441918
57,1-я Аральская улица,650907,55.3245673,85.9446068
54,1-я Аральская улица,650907,55.3238913,85.9448393
64А,1-я Аральская улица,650907,55.3247712,85.9453721
58А,1-я Аральская улица,650907,55.3242495,85.9450492
60,1-я Аральская улица,650907,55.3244405,85.9451751
62,1-я Аральская улица,650907,55.3246150,85.9452495
2,Саранский переулок,650907,55.3247671,85.9464828
36,Дальневосточная улица,650907,55.3242885,85.9471237
38,Дальневосточная улица,650907,55.3245163,85.9468622
30,Дальневосточная улица,650907,55.3235589,85.9459953
23,Дальневосточная улица,650907,55.3229917,85.9465554
25,Дальневосточная улица,650907,55.3232195,85.9466910
27,Дальневосточная улица,650907,55.3231387,85.9471624
22,Дальневосточная улица,650907,55.3226487,85.9457751
13,Дальневосточная улица,650907,55.3221091,85.9458608
21,Дальневосточная улица,650907,55.3227270,85.9463948
24,Дальневосточная улица,650907,55.3228435,85.9459010
9,Дальневосточная улица,650907,55.3218370,85.9457014
3,Дальневосточная улица,650907,55.3213320,85.9455026
20,Дальневосточная улица,650907,55.3224761,85.9456621
10,Дальневосточная улица,650907,55.3215634,85.9451108
8А,Дальневосточная улица,650907,55.3213743,85.9450399
1,Дальневосточная улица,650907,55.3211731,85.9453886
4,Дальневосточная улица,650907,55.3208422,85.9451001
1Б,Дальневосточная улица,650907,55.3208978,85.9465871
13А,Дальневосточная улица,650907,55.3219443,85.9471380
3А,Дальневосточная улица,650907,55.3211599,85.9467446
5А,Дальневосточная улица,650907,55.3213528,85.9467199
7А,Дальневосточная улица,650907,55.3214861,85.9469768
23А,Дальневосточная улица,650907,55.3227804,85.9476800
21А,Дальневосточная улица,650907,55.3225858,85.9475927
9А,Дальневосточная улица,650907,55.3216989,85.9470269
2,улица Пионер,650907,55.3206900,85.9486550
14А,1-я Аральская улица,650907,55.3203977,85.9443873
11,улица Пионер,650907,55.3199192,85.9448647
31,Дальневосточная улица,650907,55.3232526,85.9477371
16,Ижевская улица,650907,55.3168829,85.9433717
2,Верхоянский переулок,650907,55.3177007,85.9458968
27,Костромская улица,650907,55.3166449,85.9466485
19А,Житомирская улица,650907,55.3168176,85.9414638
7,улица Папанина,650907,55.3097618,85.9507036
5,улица Папанина,650907,55.3099347,85.9500350
3,улица Папанина,650907,55.3100938,85.9495793
8,улица Папанина,650907,55.3101457,85.9506266
6,улица Папанина,650907,55.3103348,85.9499033
4,улица Папанина,650907,55.3104789,85.9497272
14,Парашютный переулок,650907,55.3153444,85.9503249
5,Тамбовская улица,650907,55.3158747,85.9515986
1А,Тамбовская улица,650907,55.3170659,85.9516459
7,Тамбовская улица,650907,55.3155382,85.9514862
12,Темняковская улица,650907,55.3208871,85.9502557
13,Темняковская улица,650907,55.3211484,85.9512492
8,Темняковская улица,650907,55.3206711,85.9520921
4А,Темняковская улица,650907,55.3205302,85.9527566
2,Темняковская улица,650907,55.3203301,85.9536556
1,Темняковская улица,650907,55.3203945,85.9542517
3,Темняковская улица,650907,55.3205414,85.9537892
6,Пятигорская улица,650907,55.3212199,85.9536260
2,Пятигорская улица,650907,55.3208819,85.9544959
3,Пятигорская улица,650907,55.3213899,85.9539864
15А,Севская улица,650907,55.3212469,85.9557310
14,Севская улица,650907,55.3214137,85.9556096
9,Севская улица,650907,55.3221659,85.9546324
8А,Севская улица,650907,55.3223076,85.9543642
11,Севская улица,650907,55.3218739,85.9550694
10,Севская улица,650907,55.3219894,85.9548240
8Б,Севская улица,650907,55.3224406,85.9540960
8,Севская улица,650907,55.3226619,85.9540066
5,Севская улица,650907,55.3230407,85.9533382
9,Пятигорская улица,650907,55.3217849,85.9529605
11,Пятигорская улица,650907,55.3218767,85.9524764
12,Пятигорская улица,650907,55.3216947,85.9519462
10,Темняковская улица,650907,55.3207662,85.9515619
29,улица Никитина,650070,55.3317494,86.1167765
26,Можайская улица,650070,55.3315891,86.1164828
5,улица Никитина,650070,55.3317663,86.1129624
21,улица Никитина,650070,55.3317470,86.1153087
15,улица Никитина,650070,55.3317468,86.1144506
69,Можайская улица,650070,55.3313919,86.1164806
27,улица Никитина,650070,55.3317495,86.1164813
79,Можайская улица,650070,55.3314622,86.1178860
75,Можайская улица,650070,55.3314376,86.1173607
4,улица Никитина,650070,55.3319651,86.1134418
4Б,улица Никитина,650070,55.3319665,86.1132651
2А,улица Никитина,650070,55.3319067,86.1125691
5,улица Гончарова,650016,55.3840284,86.0259846
60,улица Гончарова,650016,55.3831439,86.0340777
68 к2,Октябрьский проспект,650065,55.3547647,86.1639892
12,Осенний бульвар,650071,55.4178766,86.2251553
5,улица Серебряный бор,650061,55.4018487,86.1260399
11,улица Серебряный Бор,650061,55.4046168,86.1301811
5А,2-я Заречная улица,650066,55.3514393,86.1155332
89А,проспект Шахтёров,650002,55.4026786,86.1162548
143,Совхозная улица,650010,55.3477181,86.0470914
147,Совхозная улица,650010,55.3475265,86.0472146
4А,улица Серебряный Бор,650002,55.4004956,86.1305888
10,улица Серебряный Бор,650002,55.3995634,86.1300728
12,улица Серебряный Бор,650002,55.3998223,86.1309289
4,улица Серебряный Бор,650002,55.4000998,86.1292199
6 к1,улица Серебряный Бор,650002,55.4009037,86.1300057
9,Притомский проспект,650066,55.3537000,86.1149198
6,1-я Заречная улица,650066,55.3534822,86.1161774
10,1-я Заречная улица,650066,55.3534751,86.1176613
7,2-я Заречная улица,650066,55.3519426,86.1166677
18,улица Терешковой,650023,55.3515620,86.1372044
44,Комсомольский проспект,650003,55.3450725,86.1931921
46,Комсомольский проспект,650003,55.3443487,86.1933828
49А,проспект Химиков,650003,55.3467979,86.1946841
25,Белозёрная улица,650905,55.2798681,85.9834225
47А,проспект Химиков,650003,55.3468282,86.1933550
36,Комсомольский проспект,650003,55.3452034,86.1916236
34,Комсомольский проспект,650003,55.3456987,86.1909592
34,Комсомольский проспект,650003,55.3460838,86.1911699
35В,улица Дружбы,650040,55.3148410,86.1009342
12В,улица Юрия Двужильного,650024,55.3139669,86.0988389
31А,улица Дружбы,650040,55.3129419,86.1014824
24,Космическая улица,650024,55.3127562,86.0965056
24А,Космическая улица,650024,55.3134215,86.0975003
28,Космическая улица,650040,55.3116901,86.0983955
20А,улица 1-я Линия,650024,55.3078690,86.0869493
20В,улица 1-я Линия,650024,55.3083223,86.0861196
20Б,улица 1-я Линия,650024,55.3086906,86.0854894
29А,Молодёжный проспект,650070,55.3225216,86.1160825
27А,Молодёжный проспект,650070,55.3224356,86.1150683
6/4,улица Свободы,650070,55.3294834,86.1214639
20,улица Рукавишникова,650025,55.3464250,86.0669146
2А,проспект Ленина,650025,55.3449102,86.0636255
14А,улица Черняховского,650025,55.3450032,86.0729065
21,улица Дзержинского,650025,55.3474414,86.0743466
82,Кузнецкий проспект,650025,55.3451814,86.0626898
82А,Кузнецкий проспект,650992,55.3448828,86.0627394
84,Кузнецкий проспект,650025,55.3448689,86.0629917
86,Кузнецкий проспект,650025,55.3445537,86.0632893
15 к1,улица Володарского,650025,55.3462097,86.0640091
25,Молодёжный проспект,650070,55.3226895,86.1136934
14,Осенний бульвар,650071,55.4176999,86.2242025
10,Малая улица,650055,55.3431326,86.0715169
7,улица Сергея Тюленина,650024,55.3174116,86.0800274
7А,улица Ульяны Громовой,650024,55.3194228,86.0759301
8,улица Дарвина,650025,55.3510537,86.0700633
15,улица Володарского,650025,55.3460997,86.0644380
9А,улица Рукавишникова,650025,55.3493184,86.0655789
22/2,улица Рукавишникова,650025,55.3463773,86.0683433
3,улица Жуковского,650025,55.3456168,86.0678440
7Б,улица Чкалова,650025,55.3456705,86.0685006
19/1,улица Черняховского,650025,55.3450931,86.0720062
99,Красноармейская улица,650993,55.3504475,86.0735093
23Б,улица Дзержинского,650025,55.3468681,86.0735598
38,Восточный проспект,650003,55.3444268,86.1923378
40Б,Ленинградский проспект,650003,55.3369071,86.1875340
40В,Ленинградский проспект,650003,55.3376025,86.1882088
51,Комсомольский проспект,650003,55.3430483,86.1907068
31,Молодёжный проспект,650070,55.3218132,86.1153097
16,Осенний бульвар,650071,55.4176580,86.2228841
72,Тельбесская улица,650010,55.3467610,86.0490629
54,Коммунистическая улица,650010,55.3510238,86.0501305
68,Тельбесская улица,650010,55.3468425,86.0495198
127,Угловая улица,650010,55.3469333,86.0497592
11,Притомский проспект,650066,55.3540098,86.1155518
11/1,Притомский проспект,650066,55.3540155,86.1164460
15,Притомский проспект,650066,55.3539739,86.1187805
135Б,улица Плодопитомник,650070,55.3105180,86.1127554
10/1,улица Свободы,650070,55.3306524,86.1176406
48,улица Терешковой,650036,55.3338664,86.1469277
21А к1,проспект Ленина,650025,55.3430489,86.0704632
6 к2,улица Серебряный Бор,650002,55.4014920,86.1305653
16,улица Серебряный Бор,650002,55.4007849,86.1325554
14,улица Серебряный Бор,650002,55.4002567,86.1316142
15 к1,1-я Заречная улица,650066,55.3534766,86.1188168
11А,улица Пионер,650907,55.3199393,85.9459095
18,улица Пионер,650907,55.3193949,85.9490584
18,Осенний бульвар,650071,55.4176420,86.2216552
19В,улица Свободы,650070,55.3271220,86.1105649
4Б,улица Металлистов,650052,55.4010136,86.0425069
30/8,улица Дружбы,650040,55.3128854,86.1054769
2А,улица Юрия Двужильного,650024,55.3197099,86.1050882
118 к3,улица Клары Цеткин,650010,55.3437954,86.0567753
32/1,Профсоюзная улица,650010,55.3439412,86.0554443
29,Стадионная улица,650903,55.5199471,86.1114976
43,Тавдинская улица,650907,55.3126305,85.9611843
50,Тавдинская улица,650907,55.3131948,85.9617271
48А,Тавдинская улица,650907,55.3136212,85.9608027
48Б,Тавдинская улица,650907,55.3137017,85.9601952
29А,Юбилейная улица,650907,55.3147060,85.9628283
1В,Фестивальная улица,650907,55.3162238,85.9630087
16А,Юбилейная улица,650907,55.3149296,85.9661171
12,Юбилейная улица,650907,55.3149077,85.9648755
2,Фестивальная улица,650907,55.3164813,85.9646864
44,Юбилейная улица,650907,55.3162957,85.9653154
44А,Юбилейная улица,650907,55.3161053,85.9657007
32А,Юбилейная улица,650907,55.3154633,85.9665084
42,Юбилейная улица,650907,55.3159056,85.9660596
10А,Юбилейная улица,650907,55.3152052,85.9645996
14А,Юбилейная улица,650907,55.3149150,85.9653422
5А,Фестивальная улица,650907,55.3166488,85.9623151
47В,Спасательная улица,650907,55.3181790,85.9656064
29,Молодёжный проспект,650070,55.3219786,86.1146326
27,Молодёжный проспект,650070,55.3221190,86.1136991
29 к1,Советский проспект,650000,55.3588147,86.0692555
12А,улица Суворова,650044,55.3766275,86.0778150
30/7,улица Дружбы,650040,55.3123317,86.1065493
30/2,улица Дружбы,650040,55.3122310,86.1055138
30/1,улица Дружбы,650040,55.3126739,86.1045553
27Б к1,улица Свободы,650070,55.3270778,86.1085238
30,улица Дружбы,650040,55.3131532,86.1040163
3А,проспект Владимира Михайлова,650071,55.4294176,86.2220650
3А к2,проспект Владимира Михайлова,650071,55.4289575,86.2211852
3А к1,проспект Владимира Михайлова,650071,55.4289237,86.2228898
108,улица Гагарина,650036,55.3403066,86.1174630
32,улица Веры Волошиной,650024,55.3079873,86.0890080
2Д,2-я Камышинская улица,650051,55.3238212,86.0616918
118Б,улица Клары Цеткин,650010,55.3440857,86.0570343
118 к1,улица Клары Цеткин,650010,55.3442166,86.0565242
131,улица Клары Цеткин,650025,55.3447404,86.0566016
118 к2,улица Клары Цеткин,650010,55.3437902,86.0563832
52 к1,Апрельская улица,650010,55.3430245,86.0579360
29,Восточный проспект,650003,55.3464036,86.1970427
29А,Восточный проспект,650003,55.3465980,86.1958525
258,улица Нахимова,650014,55.4224687,86.1238279
260,улица Нахимова,650014,55.4231456,86.1244187
2\1,проспект Владимира Михайлова,650521,55.4416777,86.1900180
3,проспект Владимира Михайлова,650071,55.4299029,86.2201021
3В,проспект Владимира Михайлова,650071,55.4293696,86.2188096
38,проспект Химиков,650003,55.3490045,86.1924505
26А,Ишимская улица,650044,55.3826289,86.0644205
12СТР,Космическая улица,650055,55.3286660,86.0722971
256,улица Нахимова,650014,55.4219036,86.1232831
4Б,Космическая улица,650055,55.3282769,86.0707136
11,2-я Лесная улица,650071,55.4306766,86.2149947
7А,2-я Заречная улица,650066,55.3514469,86.1172151
5А,2-я Заречная улица,650066,55.3513949,86.1180224
1А,улица Марата,650907,55.3232342,85.9498810
4,Притомский проспект,650066,55.3530650,86.1057396
1А,Дальневосточная улица,650907,55.3209834,85.9461158
15А,Дальневосточная улица,650907,55.3221108,85.9470755
7,Дальневосточная улица,650907,55.3217133,85.9457929
11,Дальневосточная улица,650907,55.3219933,85.9458004
15,Дальневосточная улица,650907,55.3222548,85.9459993
5,Дальневосточная улица,650907,55.3214945,85.9456527
24А,улица 1-я Линия,650024,55.3062312,86.0890703
31,Космическая улица,650024,55.3152734,86.0895754
34Б,Ленинградский проспект,650003,55.3405112,86.1874338
34В,Ленинградский проспект,650003,55.3397036,86.1889977
19,улица Дзержинского,650993,55.3480712,86.0741460
6,улица Федоровского,650055,55.3347782,86.0667375
12Б,улица Суворова,650044,55.3763810,86.0779801
38 к1,проспект Химиков,650003,55.3489274,86.1917577
