House number,Street name,Postal code,Latitude,Longitude
1,Jalan Brotojoyo Timur 2,50178,-6.9659354,110.4107194
61A,Durian,50263,-7.0644893,110.4256843
29,Jalan Letjen. Suprapto,3540810,-6.9685449,110.4276686
No. 7,Jalan Aipda K. S. Tubun,11410,-6.9890103,110.4209436
24,Jalan Diponegoro,50711,-7.0012600,110.4175868
K4,Kesatrian,50254,-7.0289822,110.4187726
4,Hawa,50232,-6.9898462,110.4350899
+62 24 8410948,Jalan Dr. Cipto,50125,-6.9865044,110.4349730
10,Madukoro Raya,50232,-6.9742895,110.4004187
170,Jalan Jendral Sudirman,50141,-6.9812650,110.3981374
78-86,Jalan Gajah Mada,50138,-6.9778248,110.4216514
22B,Jalan Diponegoro,50252,-7.0013676,110.4173776
10,Karang Anyar,50135,-6.9812858,110.4249276
100,Jalan Profesor Dokter Hamka,50185,-6.9933194,110.3507285
03,Jalan Walisongo,50185,-6.9876874,110.3593719
No.1,"Jl. Rinjani Jl. Sumbing No.1, Bendungan, Gajahmungkur, Kota Semarang, Jawa Tengah 50231",50231,-7.0038481,110.4092561
20,Jalan Puspanjolo Barat Raya,50141,-6.9835127,110.3977635
20,Jalan Puspanjolo Barat Raya,50141,-6.9834376,110.3978208
02476484391,Jalan Kenanga Selatan I,50266,-7.0919656,110.4238539
67 D,Jalan Tirto Agung,50268,-7.0587328,110.4281396
Rt 01 Rw 09,Jalan Beringin Kulon,50185,-6.9921497,110.3281967
28,Jalan Karanganyar,50135,-6.9812558,110.4267679
52c,Jalan Durian Raya,50263,-7.0617033,110.4188805
29,Jalan Stonen,50233,-7.0071129,110.3995747
82-83,Jalan Rajabasa,50231,-7.0206882,110.4124746
26,Gang Gayamsari,50275,-7.0582340,110.4372796
36,Jalan Ngesrep Timur V Dalam I,50269,-7.0486402,110.4214708
30,Sadewa Utara,50131,-6.9779886,110.4075819
17,Jalan Gajah Raya,50249,-6.9987337,110.4452925
7,Jalan R.E. Martadinata,50144,-6.9834334,110.3848608
9-11,Jalan R.E. Martadinata,50144,-6.9830903,110.3851828
406,Jalan MT. Haryono,50613,-6.9824882,110.4314778
2,Jalan Pemuda,50188,-6.9691666,110.4250550
1,Jalan Bukit Puncak,50261,-7.0449100,110.4263528
C1,Jalan Rajabasa,50231,-7.0220670,110.4119124
12,Jalan Raya Beringin,50189,-6.9976150,110.3384662
37,Jalan Kyai Mojo,50263,-7.0494014,110.4112350
18A,Jalan Kedungmundu Raya,50273,-7.0231949,110.4626079
"Jl. Mangga VI No.61, Lamper Kidul, Kec. Semarang Sel., Kota Semarang, Jawa Tengah",Jalan Mangga VI,50249,-7.0070162,110.4354856
213,Jalan Dr. Wahidin,50253,-7.0230759,110.4211289
22,Jalan Jomblang Sari I,50256,-7.0105093,110.4339736
528,Jalan Terboyo Industri Barat,50118,-6.9390789,110.4647077
349,Jalan Candi Sukuh Utara I,50182,-7.0078600,110.3692410
1177,"Jl. Pekunden Selatan Kp. Pelangi No.1177, Pekunden, Kec. Semarang Tengah",52041,-6.9856457,110.4140724
77,Jalan Durian Raya,50268,-7.0642656,110.4270800
137,Jalan Walisongo,50185,-6.9848190,110.3555335
11,Jalan Kauman,50138,-6.9724207,110.4226302
10,Jalan Taman Srigunting,50174,-6.9678613,110.4281535
126,Jalan Rumpun Diponegoro VIII,50264,-7.0715395,110.4077312
B70,Jalan Muara Mas Raya,50171,-6.9585126,110.4075279
90 A,Jalan Sultan Agung,50232,-7.0104698,110.4160179
14,Gang Sadewa,50229,-7.0439457,110.3957506
5,Jalan Taman Srigunting,50174,-6.9673579,110.4283492
3e,Jalan Banjarsari Raya,50275,-7.0593242,110.4363472
2,Jalan Dewi Sartika Barat VI,50221,-7.0204469,110.3836152
6,Jalan Abimanyu VII,50131,-6.9751830,110.4128904
23,Jalan Cendrawasih,50174,-6.9669042,110.4299781
8b,Jalan Kyai Mojo,50263,-7.0516870,110.4168970
66,Jalan Sriwijaya,50242,-7.0038703,110.4269560
2C,Jalan Brigadir Jenderal Katamso,50124,-6.9942579,110.4323944
546,Jalan Kapuran Barat,50135,-6.9776533,110.4285002
RT05 RW08,Jalan Borobudur Timur XIII,50148,-6.9998755,110.3754670
30,Jalan Kenconowungu Tengah I,50149,-6.9773896,110.3928513
G75A,Jalan Satria Selatan I,50171,-6.9726920,110.4105787
348,Jalan Peterongan Timur,50242,-7.0007484,110.4364281
349,Jalan Peterongan Timur,50242,-7.0005017,110.4364425
1,Jalan KH. Ahmad Dahlan,50241,-6.9900951,110.4245147
16,Jl. Dr. Sutomo,50244,-6.9934226,110.4088241
123,Jalan Pemuda,50132,-6.9786347,110.4144256
63,Jalan Tumpang I,50232,-7.0071781,110.4031139
1,"Jl. Srirejeki Utara IX, Kalibanteng Kidul, Kec. Semarang Barat, Kota Semarang, Jawa Tengah 50149",50149,-6.9896403,110.3834039
B7/29,Jalan Puri Anjasmoro,50144,-6.9736877,110.3889711
14,perum semarang indah c10,50144,-6.9685700,110.3936180
24,Jalan Semarang Indah,50144,-6.9680397,110.3955318
23,Jalan Puspanjolo Barat Raya,50141,-6.9837906,110.3974615
20,Jalan Puspanjolo Barat Raya,50141,-6.9834497,110.3978115
131,Imam Bonjol,50131,-6.9772703,110.4118764
2B/24,Jalan Sembodro,50171,-6.9710007,110.4088343
58A,Jalan Teuku Umar,50261,-7.0327808,110.4181927
Blok D.31-32,Jl. Jurnatan,50137,-6.9703216,110.4282137
No 12,Jalan Gedong Songo Raya,50147,-7.0009294,110.3878323
1,Gang Karper,50149,-6.9790640,110.3655627
73,Jalan Dr.Cipto,50124,-6.9780742,110.4347565
131,Sultan Agung,50232,-7.0198548,110.4190623
642,Jalan Jomblang Barat IV,50257,-7.0071092,110.4299147
6,Jalan Erlangga Tengah V,50241,-6.9941464,110.4274292
8,Jalan Erlangga Tengah V,50241,-6.9939713,110.4275025
15,Jalan Erlangga Tengah V,50241,-6.9941409,110.4272156
12,Jalan Erlangga Tengah V,50241,-6.9940414,110.4272771
10,Jalan Erlangga Tengah V,50241,-6.9938543,110.4273404
7,Jalan Erlangga Tengah V,50241,-6.9940656,110.4274609
08,Jalan Seroja,50241,-6.9883786,110.4274118
145,Jalan Ahmad Yani,50241,-6.9916527,110.4252387
2,Jalan KH. Ahmad Dahlan,50241,-6.9899796,110.4246837
20k,Gang Kampung Batik Krajan Baru,50127,-6.9691156,110.4334121
108D,Jalan Bangunharjo,50138,-6.9730659,110.4212677
58,"Jalan Prof. Soedarto, SH",50269,-7.0508379,110.4237236
86,Jl. Setia Budi,50269,-7.0493451,110.4197214
71,Jalan Dewi Sartika IV,50221,-7.0208226,110.3880729
50,Jalan Tirto Usodo Timur,50268,-7.0583053,110.4317765
F-34E,Jalan Ceria Tengah,50268,-7.0642983,110.4310256
2-4,Jalan KH. Agus Salim,50138,-6.9709747,110.4237210
187,Imam Bonjol,50131,-6.9807427,110.4101668
1,Jalan Karangroto Raya,50117,-6.9581567,110.4940826
312-316,Jalan M.T. Haryono,50124,-6.9765137,110.4319416
71,Jalan Ki Mangunsarkoro,50241,-6.9873867,110.4289913
33,Jalan Depok,50133,-6.9762110,110.4194585
4B,Jl Semeru 4B,50234,-7.0204319,110.4134528
"Jl. Telaga Bodas Cluster II No.B37, Karangrejo, Kec. Gajahmungkur, Kota Semarang, Jawa Tengah 50231",Jalan Telaga Bodas Cluster,50231,-7.0262192,110.4143890
5,Jalan S. Parman No. 5,50237,-6.9971776,110.4050148
77,Jalan Tirto Agung,50268,-7.0641978,110.4270240
2,Jl. Tambak Boyo Lor,50198,-6.9842084,110.4539261
908,Jalan MT. Haryono,50124,-6.9993773,110.4330324
3,Jalan Krajan III,50113,-6.9794039,110.4899506
22,Jalan Menoreh Tengah X,50232,-7.0119018,110.3885445
2,Jalan Murbei,50259,-7.0578724,110.4154824
KPA 1,Jalan Klipang Raya,50271,-7.0376538,110.4758134
02,Jalan Raya Kauman Kudu,50113,-6.9749318,110.4977889
45 - 51,Jalan Pemuda,50132,-6.9741329,110.4191752
33 A,Jalan Tegalsari Raya,50251,-7.0084212,110.4266336
17,Jalan Banjarsari Raya,50275,-7.0594216,110.4373811
102,Jalan Banjarsari Raya,50275,-7.0593844,110.4372699
57,Jl. Perintis Kemerdekaan,50265,-7.0785458,110.4120999
No.KM. 4,Jalan Kaligawe Raya,50112,-6.9548118,110.4615490
no 8b,Jalan Maera Sari I,50275,-7.0581434,110.4395186
39,Gang Iwenisari Timur I,50275,-7.0608633,110.4396717
14,Jalan Iwenisari,50275,-7.0614828,110.4389313
4,Jalan Widuri 4,50115,-6.9706839,110.4746770
1,Kawasan Industri Candi Blok 21,50181,-7.0084121,110.3494990
No 12,Jalan Gedong Songo Raya,50147,-7.0008571,110.3879012
185,Jalan Arteri Soekarno Hatta,50196,-6.9923891,110.4595586
09,Jalan Tugurejo Raya,50182,-6.9840690,110.3502526
137,Jalan Walisongo,50185,-6.9847814,110.3555823
Rt 03 Rw 09,Jalan Beringin Kulon,50185,-6.9925218,110.3275474
D-7,Jalan Bayu Prasetya Selatan IV,50115,-6.9866482,110.4869733
645,Jalan Kedungmundu Raya,50273,-7.0238189,110.4659317
Rt 01 Rw 09,Gang Madrasah,50189,-6.9956907,110.3311977
185,Jalan Soekarno Hatta,50196,-6.9923891,110.4595586
59,Jalan MGR Soegiyopranoto,50245,-6.9809518,110.4038892
224,Jalan Majapahit,50198,-7.0043758,110.4526965
Rt 01 Rw 09,Jalan Beringin Kulon,50185,-6.9923792,110.3284158
Rt 01 Rw 01,Gang Madrasah,50189,-6.9959283,110.3314577
Rt 01 Rw 09,Gang Madrasah,50189,-6.9959002,110.3315860
Rt 01 Rw 01,Jalan Beringin Wetan,50189,-6.9959743,110.3317296
RT 01 RW 01,Gang Madrasah,50189,-6.9960867,110.3316796
38,Jalan Letjen Suprapto,50174,-6.9675175,110.4290832
Blok D17 NO.18,"Jalan Madukoro, Ruko Semarang Indah",50144,-6.9690996,110.3989227
8,Gang Tirtasari I,50275,-7.0592202,110.4400043
10,"Jalan Pahlawan, Pleburan, Kec. Semarang Selatan",50241,-6.9925229,110.4223990
No. 7,Jalan Bulusan Selatan Raya,50277,-7.0615984,110.4452730
K10,Ivy Park,50212,-7.0251089,110.3341065
14,Gang Sadewa,50229,-7.0440128,110.3957291
15,Jalan Ki Mangunsarkoro,50241,-6.9896710,110.4291138
1,Jalan Raya Tambakharjo,50149,-6.9788769,110.3650214
1,Jalan Raya Tambakharjo,50149,-6.9788778,110.3650214
1,Gang Karper,50149,-6.9790682,110.3655627
7,Gang Karper,50149,-6.9789299,110.3656483
1,Gang Koi,50149,-6.9783360,110.3650961
1,Gang Kakap II,50149,-6.9794560,110.3651056
