House number,Street name,Postal code,Latitude,Longitude
106,Москалівська вулиця,61000,49.9671356,36.2204560
40,вулиця Бригади Хартія,61099,49.9557761,36.3456227
59,проспект Перемоги,61201,50.0595127,36.1999139
21,Сумська вулиця,61057,49.9975714,36.2333520
38,проспект Науки,61166,50.0222753,36.2248308
2,Академіка Богомольця вулиця,61157,49.9668880,36.2198290
1,Вернадського вулиця,61010,49.9825392,36.2410243
85,Олександрівський проспект,61000,49.9459849,36.3586340
165,Аерокосмічний проспект,61000,49.9520883,36.2606459
30,Римарська вулиця,61057,49.9980824,36.2323704
3В,Академіка Проскури вулиця,61085,50.0463640,36.2862577
49/8,Ювілейний проспект,61120,49.9981941,36.3296130
130,проспект Тракторобудівників,61121,50.0117025,36.3527475
5,вулиця Амосова,61171,49.9844738,36.3480243
40,вулиця Алчевських,61002,50.0054672,36.2440360
25,проспект Науки,61145,50.0219737,36.2237192
8,Харківське шосе,61000,50.0413153,36.2732507
5,Озерянська вулиця,61093,49.9875927,36.1928737
2Б,Льва Ландау проспект,61100,49.9391812,36.2957495
2,вулиця Маршала Батицького,61038,49.9870643,36.2963755
4,Красина улица,61002,49.9988716,36.2427349
15/46,вулиця Гвардійців-Широнінців,61120,49.9968859,36.3280613
54,вулиця Григорія Сковороди,61002,50.0004538,36.2437251
1,вулиця Мистецтв,61002,50.0006174,36.2439932
37,Петровського вулиця,61002,50.0041839,36.2462685
3,Манізера вулиця,61002,49.9991740,36.2442016
295,Клочківська вулиця,61045,50.0319889,36.1974436
244,Клочківська вулиця,61045,50.0316344,36.2023020
28/10,Івана Камишева вулиця,61038,49.9924867,36.3047413
28/10,Івана Камишева вулиця,61038,49.9924867,36.3047950
47/2,Салтівське шосе,61038,49.9897005,36.2977476
47/2,Салтівське шосе,61038,49.9897084,36.2976867
77/79,Сумська вулиця,61023,50.0134035,36.2437082
52,Льва Ландау проспект,61000,49.9644513,36.3098905
9,Плеханівська вулиця,61001,49.9832166,36.2474025
17,Чкалова вулиця,61070,50.0450344,36.2836216
7587757,вулиця Отакара Яроша,61072,50.0276527,36.2238846
2/2,Конституції майдан,61003,49.9895492,36.2331834
45,Любові Малої проспект,61039,49.9715934,36.1915790
26а,вулиця Амосова,61176,49.9824247,36.3490560
60,Людвіга Свободи проспект,61000,50.0625830,36.1989779
39а,Двадцять Третього Серпня вулиця,61072,50.0358772,36.2220715
191А,Клочківська вулиця,61000,50.0145624,36.2153708
42,вулиця Вартових Неба,61072,50.0311855,36.2233197
38,вулиця Дмитра Коцюбайла,61001,49.9741538,36.2607759
20,вулиця Миру,61007,49.9490703,36.3741944
63а,проспект Тракторобудівників,61120,49.9982903,36.3360569
28,Римарська вулиця,61057,49.9979237,36.2318734
64,Ювілейний проспект,61118,49.9964085,36.3420102
59,Ювілейний проспект,61118,49.9973699,36.3425745
7/9,Мистецтв вулиця,61002,49.9996227,36.2463068
47,вулиця Нескорених,61129,50.0170286,36.3665662
50/52,вулиця Григорія Сковороди,61002,49.9994707,36.2422722
1,Новоросійський провулок,61068,49.9783432,36.2721192
83/26,вулиця Гвардійців-Широнінців,61144,50.0275825,36.3525539
160,проспект Тракторобудівників,61129,50.0222866,36.3652745
13,Чернишевська вулиця,61100,49.9974193,36.2365604
13а,вулиця Ярослава Мудрого,61047,50.0067467,36.2407354
40,вулиця Бригади Хартія,61099,49.9558080,36.3452644
61ж,проспект Перемоги,61000,50.0610256,36.2021545
36,проспект Науки,61166,50.0218456,36.2248282
20,вулиця Миру,61007,49.9496238,36.3746206
40,Людвіга Свободи проспект,61204,50.0527404,36.2075966
29,Мала Гончарівська вулиця,61052,49.9850031,36.2086292
5,Искусств улица,61002,50.0002950,36.2446596
49а,Одесская улица,61000,49.9465115,36.2571165
10,Сумська вулиця,61166,49.9945098,36.2329987
113,Олександрівський проспект,61089,49.9389456,36.3816682
210,Велика Панасівська вулиця,61017,50.0183447,36.1942673
7/8,Захисників України майдан,61001,49.9871559,36.2589912
33,Військова вулиця,61001,49.9875862,36.2590061
10,Сумська вулиця,61000,49.9946188,36.2328388
5,Архітектора Альошина проспект,61007,49.9488447,36.3750200
8,Бориса Чичибабина вулиця,61022,50.0094100,36.2268492
18,Дизайнерський провулок,61023,50.0114549,36.2507641
6,Академіка Барабашова вулиця,61054,50.0067796,36.3057886
107,Тракторостроителей,61129,50.0237756,36.3649043
12,Здоров’я вулиця,61001,49.9918219,36.2722265
7/8,Захисників України майдан,61001,49.9857216,36.2590981
30,бульвар Богдана Хмельницького,61099,49.9527702,36.3467376
35в,Астрономічна вулиця,61085,50.0546620,36.2902988
48,Сергія Грицевця вулиця,61172,49.9150086,36.4055243
10,Каштанова вулиця,61035,49.9578655,36.2720356
108,проспект Тракторобудівників,61118,49.9981928,36.3411164
35Б,вулиця Ярослава Мудрого,61024,50.0049994,36.2457841
46А,Молочна вулиця,61100,49.9776469,36.2496483
64д,Валентиновская,61111,50.0007627,36.3581930
42,вулиця Вартових Неба,61072,50.0310975,36.2236154
2,Гоголя вулиця,61057,49.9949638,36.2352237
119,Аерокосмічний проспект,61140,49.9670677,36.2597237
110б/1,проспект Тракторобудівників,61000,50.0007810,36.3413498
41/2,Аерокосмічний проспект,61001,49.9762823,36.2543405
30,вулиця Гвардійців-Широнінців,61170,50.0053907,36.3330713
6,Трінклера вулиця,61058,50.0076159,36.2351737
50в,Людвига Свободи проспект,61204,50.0584679,36.2103348
8,Культури вулиця,61058,50.0114240,36.2385750
79-5,вулиця Григорія Сковороди,61024,50.0065122,36.2482489
179,Аерокосмічний проспект,61124,49.9468150,36.2613260
177,Аерокосмічний проспект,61124,49.9467480,36.2617990
20,вулиця Миру,61007,49.9500085,36.3749102
11,Молочна вулиця,61000,49.9799156,36.2534414
11,Академіка Проскури вулиця,61085,50.0483135,36.2910538
057 372 1978,Пластичний провулок,61000,49.9751665,36.1604002
185б,Аерокосмічний проспект,61009,49.9348813,36.2633415
4,Різниківський провулок,61052,49.9969215,36.2134400
5,Жасміновий бульвар,61100,49.9498807,36.3190896
8,Свободи майдан,61058,50.0049553,36.2348595
3в,Академіка Проскури вулиця,61085,50.0463313,36.2860722
7/10,Героїв Небесної Сотні майдан,61000,49.9873807,36.2453371
68,Загородня вулиця,61000,49.9987359,36.3157008
83/26,вулиця Гвардійців-Широнінців,61000,50.0279082,36.3530226
20,вулиця Миру,61007,49.9495250,36.3745297
10,Бекетова вулиця,61007,49.9440634,36.3745023
8,Шаповалiвський,61157,49.9614581,36.2179674
14,вулиця Харківських Дивізій,61091,49.9585339,36.3304543
14,Бакулина улица,61000,50.0158209,36.2290002
4а,вулиця Євгенія Єніна,61145,50.0153196,36.2235089
25,вулиця Культури,61145,50.0114865,36.2236929
28/10,Івана Камишева вулиця,61038,49.9924688,36.3047330
73,Плеханівська вулиця,61001,49.9787135,36.2653083
115,Полтавський Шлях вулиця,61000,49.9849817,36.1924052
65г к2,проспект Перемоги,61174,50.0631080,36.2046927
4 (п. 4),Ромена Роллана вулиця,61022,50.0085099,36.2259358
109,Клочківська вулиця,61000,50.0065506,36.2181263
27,Буковий провулок,6100,50.0357885,36.1872866
9д,проспект Науки,61166,50.0142828,36.2250369
2/4,Коцарська вулиця,61000,49.9908435,36.2206486
9/11,Малом’ясницька вулиця,61010,49.9821811,36.2428934
14,Пушкіна вулиця,89600,49.9894028,36.2252617
25,Римарська вулиця,61000,49.9977503,36.2287866
127А,Аерокосмічний проспект,61000,49.9615719,36.2597930
3а,Європейська вулиця,61145,50.0214244,36.2180507
20,вулиця Миру,61007,49.9499269,36.3714837
102,вулиця Миру,61047,49.9363411,36.4140516
152/1,Полтавський Шлях вулиця,61064,49.9837003,36.1827504
140а,Полтавський Шлях вулиця,61000,49.9847438,36.1855269
11/1,Морозова вулиця,61036,49.9567871,36.2898979
174а,Клочківська вулиця,61000,50.0147470,36.2171358
190-1,Полтавський Шлях вулиця,61000,49.9785459,36.1678469
17,Алчевських вулиця,61002,50.0039765,36.2410766
143,Салтівське шосе,61112,49.9903630,36.3497900
134в,проспект Байрона,61105,49.9435420,36.3001210
1,Конституції майдан,61003,49.9867630,36.2337685
41,Людвіга Свободи проспект,61202,50.0565170,36.2030130
148/3,Полтавський Шлях вулиця,61098,49.9824310,36.1797020
8/10,Євгена Котляра вулиця,61107,49.9898680,36.2075590
77,Ново-Баварський проспект,61020,49.9494870,36.1645570
44Б,вулиця Академіка Павлова,61068,49.9903564,36.2897408
21,Бекетова вулиця,61007,49.9427694,36.3743104
17,Раєвської вулиця,61161,50.0027586,36.2946251
6,вулиця Козакевича,61168,50.0088870,36.3026690
1,Амурський провулок,61161,50.0019480,36.3050530
134,Полтавський Шлях вулиця,61093,49.9849280,36.1879570
14,вулиця Нескорених,61168,50.0249810,36.3305690
9,проспект Науки,61058,50.0155870,36.2256870
74а,вулиця Григорія Сковороди,61024,50.0032020,36.2473350
1а,Чоботарська вулиця,61105,49.9919190,36.2160280
77,Ново-Баварський проспект,61020,49.9494910,36.1645570
14,вулиця Нескорених,61144,50.0249740,36.3305530
8/10,Євгена Котляра вулиця,61107,49.9898630,36.2075530
179,Аерокосмічний проспект,61124,49.9474160,36.2609340
33а,Сергія Грицевця вулиця,61172,49.9149710,36.4075960
148/2,Полтавський Шлях вулиця,61098,49.9819710,36.1788050
5/1,Жасміновий бульвар,61100,49.9498659,36.3176382
5/1,Жасміновий бульвар,61100,49.9498563,36.3176414
21,Космічна вулиця,61000,50.0145038,36.2197855
11,Бекетова вулиця,61007,49.9452817,36.3761359
4,Серпова вулиця,61166,50.0137678,36.2294477
15л,Москаленка вулиця,61108,50.0988791,36.2605598
15к,Москаленка вулиця,61108,50.0988860,36.2604774
15і,Москаленка вулиця,61108,50.0988929,36.2603942
15и,Москаленка вулиця,61108,50.0988998,36.2603125
15ж,Москаленка вулиця,61108,50.0989066,36.2602312
15д,Москаленка вулиця,61108,50.0989135,36.2601498
15г,Москаленка вулиця,61108,50.0989203,36.2600681
15в,Москаленка вулиця,61108,50.0989271,36.2599868
15б,Москаленка вулиця,61108,50.0989339,36.2599058
15а,Москаленка вулиця,61108,50.0989407,36.2598254
17л,Москаленка вулиця,61108,50.0990358,36.2606132
17к,Москаленка вулиця,61108,50.0990426,36.2605327
17і,Москаленка вулиця,61108,50.0990494,36.2604518
17и,Москаленка вулиця,61108,50.0990562,36.2603705
17ж,Москаленка вулиця,61108,50.0990630,36.2602888
17д,Москаленка вулиця,61108,50.0990699,36.2602074
17г,Москаленка вулиця,61108,50.0990767,36.2601261
17в,Москаленка вулиця,61108,50.0990835,36.2600443
17б,Москаленка вулиця,61108,50.0990905,36.2599612
17а,Москаленка вулиця,61108,50.0990974,36.2598788
19а,Москаленка вулиця,61108,50.0994804,36.2606872
19к,Москаленка вулиця,61108,50.0995438,36.2599826
5,Слави проспект,61177,49.9839902,36.1562793
176,Аерокосмічний проспект,61124,49.9489059,36.2590866
36,Людвіга Свободи проспект,61204,50.0523785,36.2068808
126/2,Плеханівська вулиця,61037,49.9738187,36.2895763
16,Різдвяна вулиця,61052,49.9917768,36.2228683
174,Клочківська вулиця,61000,50.0165426,36.2161776
9,Інженерний провулок,61145,50.0151538,36.2219990
41/2,Сумська вулиця,61022,50.0061243,36.2364365
2,Енергетична вулиця,61036,49.9627517,36.2955097
13,вулиця Євгенія Єніна,61166,50.0166175,36.2289941
1,Конституції майдан,61003,49.9887047,36.2317200
3В,Чернівецька вулиця,61054,50.0127192,36.3114155
64а,проспект Перемоги,61204,50.0609016,36.2060814
64а,проспект Перемоги,61204,50.0605122,36.2059984
30,Людвіга Свободи проспект,61000,50.0491829,36.2080650
12А,Рибалка вулиця,61099,49.9561505,36.3357919
123,Аерокосмічний проспект,61000,49.9671539,36.2597295
1,проспект Байрона,61124,49.9457626,36.2641783
14,Трінклера вулиця,61022,50.0097686,36.2375053
124,Сумська вулиця,61023,50.0126483,36.2440751
5,вулиця Григорія Сковороди,61000,49.9924539,36.2337749
6,Григорія Рудика вулиця,61023,50.0344358,36.2832721
3а,Фронтова вулиця,61084,50.0343042,36.2554378
16,вулиця Шекспіра,61000,50.0297872,36.2159774
3,Алчевських вулиця,61002,50.0014745,36.2393031
56,проспект Науки,61000-61499,50.0315579,36.2218782
16,Льва Ландау проспект,61128,49.9478544,36.3027495
"14, корп. 1а",вулиця Харківських Дивізій,61092,49.9585270,36.3308266
4,Космічна вулиця,61145,50.0128279,36.2197324
5,Архітектора Альошина проспект,61007,49.9483469,36.3746362
126,Сумська вулиця,61023,50.0140388,36.2453651
8,Грищенко вулиця,61026,49.9890287,36.3894028
55,Московський проспект,61001,50.0041873,36.2405156
30б,Людвіга Свободи проспект,61000,50.0485107,36.2086342
70,проспект Перемоги,61204,50.0648197,36.2097672
20,Дмитрівська вулиця,61000,49.9866580,36.2158656
10,Слюсарний провулок,61003,49.9906410,36.2362549
60,Рилєєва вулиця,61093,49.9892310,36.1995146
115,Клочківська вулиця,61000,50.0069439,36.2171957
19,Римарська вулиця,61000,49.9972387,36.2310108
18,вулиця Отакара Яроша,61100,50.0264767,36.2192490
9,Інженерний провулок,61145,50.0151532,36.2224025
секция 2,проспект Перемоги,61174,50.0633118,36.2043545
73б,проспект Перемоги,61174,50.0667445,36.2077832
73а,проспект Перемоги,61174,50.0663871,36.2078388
13а,Лейпунського вулиця,61108,50.0993982,36.2622585
13б,Лейпунського вулиця,61108,50.0994578,36.2622951
13в,Лейпунського вулиця,61108,50.0995076,36.2623258
13г,Лейпунського вулиця,61108,50.0995545,36.2623546
13д,Лейпунського вулиця,61108,50.0996056,36.2623861
13ж,Лейпунського вулиця,61108,50.0996579,36.2624182
13и,Лейпунського вулиця,61108,50.0997152,36.2624535
19ї,Москаленка вулиця,61108,50.0995360,36.2600697
19і,Москаленка вулиця,61108,50.0995288,36.2601501
19и,Москаленка вулиця,61108,50.0995215,36.2602308
19г,Москаленка вулиця,61108,50.0995028,36.2604385
19в,Москаленка вулиця,61108,50.0994956,36.2605192
19б,Москаленка вулиця,61108,50.0994881,36.2606016
19ж,Москаленка вулиця,61108,50.0995148,36.2603050
19д,Москаленка вулиця,61108,50.0995086,36.2603740
8а,Москаленка вулиця,61108,50.0994048,36.2610308
11а,Лейпунського вулиця,61108,50.0992063,36.2621093
11б,Лейпунського вулиця,61108,50.0992252,36.2620363
11в,Лейпунського вулиця,61108,50.0992443,36.2619623
11г,Лейпунського вулиця,61108,50.0992630,36.2618896
11д,Лейпунського вулиця,61108,50.0992822,36.2618151
11ж,Лейпунського вулиця,61108,50.0993011,36.2617421
11и,Лейпунського вулиця,61108,50.0993199,36.2616690
6а,Москаленка вулиця,61108,50.0991120,36.2611222
6б,Москаленка вулиця,61108,50.0990601,36.2610998
6в,Москаленка вулиця,61108,50.0990081,36.2610774
6г,Москаленка вулиця,61108,50.0989615,36.2610574
6д,Москаленка вулиця,61108,50.0989022,36.2610319
6ж,Москаленка вулиця,61108,50.0988493,36.2610090
6к,Москаленка вулиця,61108,50.0988029,36.2609891
6л,Москаленка вулиця,61108,50.0987478,36.2609653
8п,Москаленка вулиця,61108,50.0993264,36.2610143
8ж,Москаленка вулиця,61108,50.0993735,36.2614555
8к,Москаленка вулиця,61108,50.0992993,36.2614507
8л,Москаленка вулиця,61108,50.0993049,36.2613598
8м,Москаленка вулиця,61108,50.0993103,36.2612728
8н,Москаленка вулиця,61108,50.0993158,36.2611855
8о,Москаленка вулиця,61108,50.0993210,36.2611016
8б,Москаленка вулиця,61108,50.0993992,36.2611067
8в,Москаленка вулиця,61108,50.0993926,36.2611970
8г,Москаленка вулиця,61108,50.0993862,36.2612834
8д,Москаленка вулиця,61108,50.0993799,36.2613688
9а,Лейпунського вулиця,61108,50.0991397,36.2620377
9б,Лейпунського вулиця,61108,50.0991608,36.2619568
9в,Лейпунського вулиця,61108,50.0991811,36.2618789
9г,Лейпунського вулиця,61108,50.0992008,36.2618033
9д,Лейпунського вулиця,61108,50.0992203,36.2617282
9ж,Лейпунського вулиця,61108,50.0992424,36.2616433
7а,Лейпунського вулиця,61108,50.0986055,36.2616902
7б,Лейпунського вулиця,61108,50.0986560,36.2617164
7в,Лейпунського вулиця,61108,50.0987027,36.2617407
7г,Лейпунського вулиця,61108,50.0987629,36.2617719
7д,Лейпунського вулиця,61108,50.0988119,36.2617972
7ж,Лейпунського вулиця,61108,50.0988664,36.2618254
7и,Лейпунського вулиця,61108,50.0989153,36.2618507
7к,Лейпунського вулиця,61108,50.0989601,36.2618739
124А,Клочківська вулиця,61145,50.0149758,36.2171531
139,Москалівська вулиця,61157,49.9625464,36.2171557
23,вулиця Миру,61007,49.9500485,36.3771110
89,Ювілейний проспект,61175,49.9919557,36.3613429
4,Дудинської вулиця,61098,49.9802147,36.1772715
48,Сумська вулиця,61002,50.0015578,36.2351104
1,вулиця Олега Громадського,61068,49.9859668,36.2695246
18Д,вулиця Отакара Яроша,61000,50.0269304,36.2213688
18г,Отакара Яроша провулок,61100,50.0261459,36.2199478
36,вулиця Ярослава Мудрого,61000,50.0039895,36.2465489
45/3,проспект Науки,61072,50.0385923,36.2190262
40,вулиця Григорія Сковороди,61057,49.9975383,36.2396769
64б,проспект Перемоги,61204,50.0603469,36.2068410
2,вулиця Олександра Олеся,61072,50.0292713,36.2269118
15а,Лейпунського вулиця,61108,50.0999084,36.2626526
14а,Москаленка вулиця,61108,50.1001272,36.2618378
14б,Москаленка вулиця,61108,50.1001084,36.2619082
14в,Москаленка вулиця,61108,50.1000890,36.2619808
14г,Москаленка вулиця,61108,50.1000685,36.2620577
14д,Москаленка вулиця,61108,50.1000495,36.2621291
14ж,Москаленка вулиця,61108,50.1000301,36.2622018
14и,Москаленка вулиця,61108,50.1001921,36.2618772
14к,Москаленка вулиця,61108,50.1001740,36.2619472
14л,Москаленка вулиця,61108,50.1001551,36.2620203
14м,Москаленка вулиця,61108,50.1001348,36.2620990
14н,Москаленка вулиця,61108,50.1001157,36.2621726
14о,Москаленка вулиця,61108,50.1000966,36.2622465
15б,Лейпунського вулиця,61108,50.0999281,36.2625765
15в,Лейпунського вулиця,61108,50.0999472,36.2625028
15г,Лейпунського вулиця,61108,50.0999667,36.2624274
15д,Лейпунського вулиця,61108,50.0999872,36.2623481
15ж,Лейпунського вулиця,61108,50.0999786,36.2626921
15и,Лейпунського вулиця,61108,50.0999984,36.2626172
15к,Лейпунського вулиця,61108,50.1000173,36.2625460
15л,Лейпунського вулиця,61108,50.1000384,36.2624661
15м,Лейпунського вулиця,61108,50.1000586,36.2623897
54,Коцарська вулиця,61052,49.9918125,36.2117092
7/9,Мистецтв вулиця,61002,49.9999682,36.2454515
17,Юр’ївська вулиця,61001,49.9926695,36.2552099
16,вулиця Євгенія Єніна,61000,50.0162017,36.2300286
2д,Захисників України майдан,61001,49.9857993,36.2603734
2д,Захисників України майдан,61001,49.9856860,36.2602438
98а,Салтівське шосе,61175,49.9916679,36.3603206
1а,Дудинської вулиця,61064,49.9809113,36.1788826
29а,Різдвяна вулиця,61011,49.9927100,36.2221041
15,вулиця Нескорених,61000,50.0233151,36.3423449
63А,Ювілейний проспект,61000,49.9968936,36.3515175
7/9,Лопатинський провулок,61000,49.9854790,36.2331573
32,Науки проспект,61166,50.0207173,36.2251251
48,проспект Науки,61072,50.0285603,36.2227780
17,Малогончарівська вулиця,61052,49.9835627,36.2123701
147,Тюрінська вулиця,61161,49.9998858,36.2974900
1,проспект Незалежності,61000,50.0055286,36.2245810
73є,вулиця Гвардійців-Широнінців,61144,50.0223255,36.3481937
39,проспект Людвіга Свободи,61202,50.0548075,36.2034952
12а,Автоґенна вулиця,61046,49.9689565,36.3514904
9C,Троїцький провулок,62103,49.9860700,36.2338844
44Б,Akademika Pavlova St,61038,49.9904926,36.2904900
146,Роганська вулиця,61172,49.9163468,36.4177998
28,Сергія Грицевця вулиця,61172,49.9179876,36.4067329
130/1,Роганська вулиця,61172,49.9218794,36.4142869
44а,Сергія Грицевця вулиця,61172,49.9156943,36.4053505
49,Зубарєва вулиця,61172,49.9136694,36.4019997
20б,Сергія Грицевця вулиця,61172,49.9187061,36.4072596
22,Сергія Грицевця вулиця,61172,49.9192530,36.4062000
144,Роганська вулиця,61172,49.9169027,36.4183934
24,Сергія Грицевця вулиця,61172,49.9189423,36.4058809
54а,Сергія Грицевця вулиця,61172,49.9123823,36.4040015
142,Роганська вулиця,61172,49.9172921,36.4170451
28а,Сергія Грицевця вулиця,61172,49.9175730,36.4058193
45,Зубарєва вулиця,61172,49.9128429,36.4034126
63,Сергія Грицевця вулиця,61172,49.9162475,36.4021021
54,Сергія Грицевця вулиця,61172,49.9129083,36.4045491
47,Зубарєва вулиця,61172,49.9132883,36.4028593
35а,Сергія Грицевця вулиця,61172,49.9155474,36.4083099
61,Зубарєва вулиця,61172,49.9162764,36.4026516
32а,вулиця Зубарєва,61172,49.9117451,36.4106891
46,Сергія Грицевця вулиця,61172,49.9157521,36.4047065
13,Сергія Грицевця вулиця,61172,49.9203770,36.4105951
148,Роганська вулиця,61172,49.9159620,36.4188100
26,Сергія Грицевця вулиця,61172,49.9185310,36.4059228
46а,Сергія Грицевця вулиця,61172,49.9158990,36.4043538
48а,Сергія Грицевця вулиця,61172,49.9142542,36.4051327
55,Зубарєва вулиця,61172,49.9144989,36.4009368
20,Сергія Грицевця вулиця,61172,49.9197283,36.4078169
152,Роганська вулиця,61172,49.9178594,36.4172299
48,Сергія Грицевця вулиця,61172,49.9147775,36.4053087
57,Зубарєва вулиця,61172,49.9148270,36.4007114
200,Луї Пастера вулиця,61138,49.9282820,36.3919606
176,Олександрівський проспект,61089,49.9381723,36.3811828
170,Олександрівський проспект,61089,49.9385231,36.3800085
164,Олександрівський проспект,61089,49.9394029,36.3785854
184,Олександрівський проспект,61089,49.9379340,36.3831184
20,Дванадцятого Квітня вулиця,61089,49.9374037,36.3835157
115,Олександрівський проспект,61089,49.9389979,36.3828455
55,Біблика вулиця,61089,49.9435247,36.3862180
11,Бекетова вулиця,61007,49.9451799,36.3761436
168,Олександрівський проспект,61089,49.9386935,36.3794784
182,Олександрівський проспект,61089,49.9378038,36.3822605
43,Індустріальний проспект,61089,49.9392273,36.3777058
178,Олександрівський проспект,61089,49.9379996,36.3817296
113,Олександрівський проспект,61089,49.9389287,36.3819222
166,Олександрівський проспект,61089,49.9388462,36.3789620
133а,Салтівське шосе,61153,49.9881281,36.3346977
55б,проспект Тракторобудівників,61153,49.9896681,36.3392449
55,проспект Тракторобудівників,61153,49.9927201,36.3383493
4,вулиця Гвардійців-Широнінців,61153,49.9887271,36.3303889
149,вулиця Георгія Тарасенка,61037,49.9754438,36.2862099
135-139,вулиця Георгія Тарасенка,61000,49.9761582,36.2829695
13б,вулиця Ахсарова,61204,50.0516121,36.2110038
34,Людвіга Свободи проспект,61204,50.0512877,36.2077529
13А,вулиця Ахсарова,61204,50.0517241,36.2103285
13В,вулиця Ахсарова,61204,50.0523870,36.2114696
48б,Людвіга Свободи проспект,61204,50.0571577,36.2076493
66в,проспект Перемоги,61204,50.0590819,36.2085258
17г,вулиця Ахсарова,61204,50.0527069,36.2122062
6,Лозовеньківський проспект,61174,50.0644362,36.1975180
59а,Людвіга Свободи проспект,61201,50.0609207,36.1947381
35в,Людвіга Свободи проспект,61202,50.0521708,36.2016505
59б,Людвіга Свободи проспект,61201,50.0605850,36.1940467
6,Лозовеньківський проспект,61174,50.0654308,36.1985842
19,Переможна вулиця,21202,50.0440359,36.2062288
35,проспект Людвіга Свободи,61202,50.0529637,36.2040040
7,Жасміновий бульвар,61100,49.9501737,36.3203631
5/1,Жасміновий бульвар,61100,49.9501241,36.3181680
7/3,вулиця Харківських Дивізій,61082,49.9595695,36.3355701
5/3,Жасміновий бульвар,61100,49.9504123,36.3193511
5,Жасміновий бульвар,61100,49.9498741,36.3187511
9/1,Жасміновий бульвар,61100,49.9501913,36.3219538
5/1,Жасміновий бульвар,61100,49.9499368,36.3178248
9,Жасміновий бульвар,61100,49.9500329,36.3227033
3/1,Жасміновий бульвар,61100,49.9509377,36.3163924
40,вулиця Бригади Хартія,61099,49.9557882,36.3452461
23,Стадіонний проїзд,61091,49.9572281,36.3301584
54,Льва Ландау проспект,61060,49.9648992,36.3072811
3А,Комунальний провулок,61060,49.9601236,36.3069426
11,Юрія Паращука вулиця,61064,49.9781846,36.1852617
49,Григорівське шосе,61064,49.9826341,36.1882174
1,Камська вулиця,61064,49.9803869,36.1829940
7,Юрія Паращука вулиця,61064,49.9791212,36.1840198
57,Григорівське шосе,61064,49.9800143,36.1842890
53,Григорівське шосе,61064,49.9815574,36.1867254
6,Пермська вулиця,61064,49.9788980,36.1875113
12,Ржевський провулок,61039,49.9684181,36.1835035
131,вулиця Ньютона,61162,49.9402951,36.3089381
121а,вулиця Ньютона,61162,49.9392136,36.3060381
5,Морозова вулиця,61036,49.9628667,36.2858162
76,Ювілейний проспект,61112,49.9953698,36.3531366
87,Ювілейний проспект,61111,49.9925384,36.3625641
6,вулиця Руслана Плоходька,61112,49.9928500,36.3514053
65А,Ювілейний проспект,61111,49.9966370,36.3553366
58б,Владислава Зубенка вулиця,61054,49.9971307,36.3601049
85,Ювілейний проспект,61111,49.9927594,36.3612236
72б,Владислава Зубенка вулиця,61111,49.9959380,36.3605975
89,Ювілейний проспект,61111,49.9919653,36.3613613
157а,Салтівське шосе,61111,49.9923981,36.3639323
98а,Ювілейний проспект,61112,49.9916216,36.3602139
155/93,Салтівське шосе,61111,49.9916378,36.3634021
91,Ювілейний проспект,61111,49.9920033,36.3618568
69,Ювілейний проспект,61111,49.9949187,36.3590324
100б,проспект Тракторобудівників,61118,49.9944668,36.3425489
102а,проспект Тракторобудівників,61118,49.9951150,36.3419961
102б,проспект Тракторобудівників,61118,49.9953986,36.3432114
11,вулиця Руслана Плоходька,61112,49.9933923,36.3498252
100в,проспект Тракторобудівників,61118,49.9948437,36.3432024
74,Ювілейний проспект,61118,49.9955334,36.3507610
86/137,проспект Тракторобудівників,61112,49.9898422,36.3414123
106б,Салтівське шосе,61110,49.9846721,36.3215908
26а,Туркестанська вулиця,61110,49.9842220,36.3202038
44,Туркестанська вулиця,61110,49.9841944,36.3248612
7,Академіка Богомольця вулиця,65157,49.9669429,36.2161088
171ж,вулиця Єдності,61176,49.9800639,36.3522021
26а,вулиця Амосова,61176,49.9823319,36.3489770
11,вулиця Амосова,61171,49.9865067,36.3507484
13,Сонячна вулиця,61176,49.9835128,36.3635548
38,вулиця Амосова,61176,49.9836811,36.3585108
185,вулиця Єдності,61176,49.9809976,36.3648728
183,вулиця Єдності,61176,49.9808749,36.3635360
33а,вулиця Амосова,61176,49.9860209,36.3638622
9,Сонячна вулиця,61176,49.9822790,36.3650174
248а,Салтівське шосе,61171,49.9874603,36.3512140
34,вулиця Амосова,61176,49.9836565,36.3572213
52,вулиця Амосова,61176,49.9843150,36.3635664
23,вулиця Амосова,61176,49.9857532,36.3572743
7,Сонячна вулиця,61176,49.9820554,36.3651972
32,вулиця Амосова,61176,49.9831582,36.3570624
3,вулиця Амосова,61171,49.9840036,36.3466975
13,вулиця Амосова,61171,49.9851996,36.3537739
5а,вулиця Амосова,61171,49.9858372,36.3475423
177,вулиця Єдності,61176,49.9806262,36.3600689
9а,вулиця Амосова,61171,49.9848746,36.3520155
38а,Велозаводська вулиця,61176,49.9836768,36.3561600
17,вулиця Амосова,61171,49.9843277,36.3552095
56,вулиця Амосова,61176,49.9850531,36.3633920
7,вулиця Амосова,61171,49.9843832,36.3496705
1,вулиця Амосова,61171,49.9850304,36.3459151
266,Салтівське шосе,61176,49.9867855,36.3611784
60,вулиця Амосова,61176,49.9844510,36.3658202
11,Сонячна вулиця,61176,49.9827980,36.3639594
5,Сонячна вулиця,61176,49.9818270,36.3653573
256,Салтівське шосе,61171,49.9884037,36.3536135
179,вулиця Єдності,61176,49.9811792,36.3609983
240а,Салтівське шосе,61171,49.9861657,36.3445988
177а,вулиця Єдності,61176,49.9818749,36.3597400
15а,вулиця Амосова,61176,49.9861051,36.3559678
50,вулиця Амосова,61176,49.9845538,36.3626841
13/1,вулиця Амосова,61171,49.9863966,36.3530802
30а,Велозаводська вулиця,61176,49.9822146,36.3586253
32,Велозаводська вулиця,61176,49.9820938,36.3566299
19,вулиця Амосова,61171,49.9843085,36.3558943
179б,вулиця Єдності,61176,49.9822594,36.3616139
3,Сонячна вулиця,61176,49.9816025,36.3655342
262а,Салтівське шосе,61176,49.9878756,36.3585068
9,вулиця Амосова,61171,49.9853677,36.3508633
177б,вулиця Єдності,61176,49.9820328,36.3594798
35,вулиця Амосова,61176,49.9863343,36.3650607
27,вулиця Амосова,61176,49.9869246,36.3590401
260а,Салтівське шосе,61171,49.9886802,36.3575255
258,Салтівське шосе,61171,49.9895059,36.3557619
260,Салтівське шосе,61171,49.9897203,36.3577003
1,Сонячна вулиця,61176,49.9813772,36.3657070
266г,Салтівське шосе,61176,49.9864452,36.3620858
21,вулиця Амосова,61171,49.9843788,36.3565296
5,вулиця Амосова,61171,49.9854032,36.3489309
246а,Салтівське шосе,61171,49.9873744,36.3499615
11а,вулиця Амосова,61171,49.9865643,36.3517603
25,вулиця Амосова,61176,49.9855790,36.3583856
254,Салтівське шосе,61171,49.9871957,36.3525745
252,Салтівське шосе,61171,49.9868513,36.3521478
36,вулиця Амосова,61176,49.9832085,36.3578928
262,Салтівське шосе,61171,49.9894108,36.3583138
42,вулиця Амосова,61176,49.9843468,36.3605122
250,Салтівське шосе,61171,49.9868320,36.3530906
256а,Салтівське шосе,61171,49.9883330,36.3547689
54,вулиця Амосова,61176,49.9839686,36.3625071
173,вулиця Єдності,61176,49.9801439,36.3579963
250а,Салтівське шосе,61171,49.9876412,36.3547054
110,проспект Тракторобудівників,61118,50.0001026,36.3442501
5,Познанська вулиця,61118,49.9986497,36.3522617
56/13,Владислава Зубенка вулиця,61118,49.9999465,36.3527332
1,Познанська вулиця,61118,49.9978888,36.3518965
63А,Ювілейний проспект,61118,49.9973217,36.3504547
2,Познанська вулиця,61111,49.9969650,36.3525887
3,Познанська вулиця,61118,49.9980626,36.3505170
9,Познанська вулиця,61118,49.9993989,36.3525822
58,Владислава Зубенка вулиця,61118,49.9998295,36.3539496
44Б,вулиця Академіка Павлова,61000,49.9903573,36.2905363
34г,Ювілейний проспект,61153,49.9963834,36.3186321
20,Катаєва вулиця,61019,49.9486452,36.1383605
41,Валентинівська вулиця,61121,50.0096161,36.3540256
38,вулиця Гвардійців-Широнінців,61123,50.0147015,36.3431744
35б,Владислава Зубенка вулиця,61121,50.0026720,36.3560198
118,Ново-Баварський проспект,61019,49.9519207,36.1435927
22,Валентинівська вулиця,61170,50.0146296,36.3343950
132,вулиця Академіка Павлова,61170,50.0136649,36.3268536
132а,вулиця Академіка Павлова,61170,50.0124368,36.3271869
132б,вулиця Академіка Павлова,61170,50.0131543,36.3274629
18,Валентинівська вулиця,61170,50.0155980,36.3312459
132в,вулиця Академіка Павлова,61170,50.0133301,36.3286118
53,вулиця Гвардійців-Широнінців,61170,50.0121624,36.3385885
134/16,вулиця Академіка Павлова,61170,50.0155712,36.3293721
140д,вулиця Академіка Павлова,61146,50.0186042,36.3356811
44,вулиця Бучми,61129,50.0236913,36.3733200
164,проспект Тракторобудівників,61129,50.0251801,36.3686591
44,вулиця Бучми,61129,50.0242805,36.3720450
8б,вулиця Олександра Олеся,61072,50.0299530,36.2279879
33а,вулиця 23 Серпня,61000,50.0357399,36.2185452
11,вулиця Бориса Чичибабіна,61058,50.0097990,36.2254174
46,вулиця Вартових Неба,61072,50.0315991,36.2255544
46а,вулиця Вартових Неба,61072,50.0325713,36.2246355
25,Сумська вулиця,61000,49.9991661,36.2321891
25/71,вулиця Нескорених,61144,50.0219456,36.3470279
79г,вулиця Гвардійців-Широнінців,61144,50.0270105,36.3498095
107,Тракторобудівельників проспект,61129,50.0236351,36.3647377
175,вулиця Єдності,61176,49.9802496,36.3589210
179а,вулиця Єдності,61176,49.9819576,36.3606535
236/1,вулиця Соборності України,61183,50.0325779,36.3540560
232а,вулиця Соборності України,61183,50.0339683,36.3542954
232а,вулиця Соборності України,61183,50.0336435,36.3530045
255,вулиця Соборності України,61183,50.0340203,36.3624058
88А,вулиця Гвардійців-Широнінців,61183,50.0348654,36.3603136
271,вулиця Соборності України,61183,50.0338021,36.3666895
84,вулиця Гвардійців-Широнінців,61183,50.0343742,36.3604311
259,вулиця Соборності України,61183,50.0326829,36.3688163
257,вулиця Соборності України,61183,50.0341654,36.3631971
88,вулиця Гвардійців-Широнінців,61183,50.0350578,36.3611509
96/30,вулиця Гвардійців-Широнінців,61183,50.0359466,36.3625012
88Б,вулиця Гвардійців-Широнінців,61183,50.0347995,36.3605603
234,вулиця Соборності України,61183,50.0334328,36.3540938
269,вулиця Соборності України,61183,50.0331501,36.3662341
261,вулиця Соборності України,61183,50.0343021,36.3644221
32,Метробудівників вулиця,61183,50.0359060,36.3643581
259,вулиця Соборності України,61183,50.0330554,36.3644034
263,вулиця Соборності України,61183,50.0336364,36.3649890
240,вулиця Соборності України,61183,50.0331114,36.3552502
92,вулиця Гвардійців-Широнінців,61183,50.0348261,36.3629034
253,вулиця Соборності України,61183,50.0336274,36.3626566
267,вулиця Соборності України,61183,50.0327571,36.3665626
232в,вулиця Соборності України,61183,50.0324882,36.3530073
246а,вулиця Соборності України,61183,50.0334314,36.3581942
9,вулиця Яни Червоної,61183,50.0314277,36.3502917
232б,вулиця Соборності України,61183,50.0330623,36.3529235
39,Кричевського вулиця,61027,50.0404451,36.3460422
38,вулиця Леся Сердюка,61184,50.0373122,36.3495839
36/1,вулиця Леся Сердюка,61184,50.0376360,36.3482137
236/1,вулиця Соборності України,61183,50.0329798,36.3535754
12,вулиця Нескорених,61168,50.0248103,36.3294050
6,Академіка Барабашова вулиця,61054,50.0061855,36.3033120
1,станция Рогань,62482,49.9030512,36.4323198
40,вулиця Амосова,61176,49.9840067,36.3594636
36,Велозаводська вулиця,61176,49.9825923,36.3564027
38,Велозаводська вулиця,61176,49.9828414,36.3562886
48,вулиця Амосова,61176,49.9844575,36.3615899
30,Велозаводська вулиця,61176,49.9818482,36.3576660
18б,вулиця Олександра Орлова,61124,49.9544417,36.2636532
41,проспект Байрона,61105,49.9450873,36.2781325
6б,Киргизька вулиця,6105,49.9460262,36.2729944
187/1,Аерокосмічний проспект,61080,49.9330486,36.2650587
5,вулиця Сергія Барсукова,61105,49.9395016,36.2839116
5,вулиця Сергія Барсукова,61105,49.9394915,36.2863976
20,Литвинівська вулиця,61000,50.0549262,36.2832878
24,вулиця 23 Серпня,61072,50.0336207,36.2186858
3а,вулиця Академіка Проскури,61085,50.0474318,36.2885183
1 к12,Академіка Проскури вулиця,61085,50.0474004,36.2803174
9,Григорія Рудика вулиця,61070,50.0352742,36.2832561
14а,Дерев'янка вулиця,61103,50.0395774,36.2264784
68б,проспект Науки,61103,50.0384603,36.2257193
7,Космонавтів вулиця,61103,50.0376507,36.2314777
1,Сумгаїтська вулиця,61103,50.0339735,36.2354875
224,Клочківська вулиця,61045,50.0252026,36.2097687
16а,вулиця Отакара Яроша,61045,50.0249673,36.2141015
79/1,вулиця Григорія Сковороди,61024,50.0061247,36.2496480
67,проспект Науки,61000,50.0398689,36.2164683
6,вулиця 23 Серпня,62045,50.0318248,36.2102238
4,Старопрудна вулиця,61177,49.9825098,36.1553435
197б,Клочківська вулиця,61145,50.0173323,36.2102607
10,проспект Незалежності,61058,50.0061120,36.2341789
1,вулиця Євгенія Єніна,61145,50.0158366,36.2224139
4,Тарасівський в’їзд,61168,49.9832128,36.2734214
142А,вулиця Шевченка,61000,50.0018566,36.2715109
1,вулиця Вернадського,61010,49.9828639,36.2410227
30,Аерокосмічний проспект,61140,49.9766967,36.2499908
13,вулиця 23 Серпня,61045,50.0315176,36.2087292
4,Європейська вулиця,61145,50.0201227,36.2173282
22,вулиця Культури,61166,50.0128812,36.2340550
1,Європейська вулиця,61145,50.0208934,36.2161676
23,Космічна вулиця,61145,50.0158541,36.2207208
16,Космічна вулиця,61145,50.0154475,36.2219039
59/56,проспект Тракторобудівників,61153,49.9956175,36.3390317
12а,Космічна вулиця,61145,50.0145244,36.2208612
23А/2,Космічна вулиця,61145,50.0162727,36.2211816
37,Труфанова вулиця,61024,50.0034945,36.2569115
33б,вулиця Михайля Семенка,61024,50.0041593,36.2575220
24,вулиця Михайля Семенка,61024,50.0036343,36.2543256
26,вулиця 23 Серпня,61072,50.0339685,36.2194477
36,вулиця Данилевського,61058,50.0079912,36.2211985
43/47,Клочківська вулиця,61000,49.9963899,36.2241715
10,Студентський провулок,61024,50.0094167,36.2578620
4,Студентський провулок,61024,50.0076223,36.2566929
8,Студентський провулок,61024,50.0088194,36.2575028
2,Студентський провулок,61024,50.0069665,36.2562436
15/17,Студентська вулиця,61024,50.0064480,36.2557798
5,Студентська вулиця,61024,50.0074940,36.2543291
10а,Академіка Вальтера вулиця,61108,50.0913356,36.2594347
12,Чаплигінський провулок,61004,49.9806409,36.2189529
54,Григорівське шосе,61064,49.9788091,36.1816156
9,Дудинської вулиця,61064,49.9766384,36.1831653
4,Студентська вулиця,61024,50.0068137,36.2534101
38,Лермонтовська вулиця,61024,50.0039236,36.2585338
14,Труфанова вулиця,61024,50.0033764,36.2586653
39а,Аерокосмічний проспект,61000,49.9783508,36.2523080
232,Космічна вулиця,61145,50.0164882,36.2217519
21,Космічна вулиця,61145,50.0149940,36.2201125
5,Ювілейна вулиця,61126,49.9881678,36.3870880
8,Лозівська вулиця,61017,50.0079756,36.2021639
12,вулиця Михайля Семенка,61024,50.0042813,36.2537223
77,Плеханівська вулиця,61001,49.9794326,36.2679602
9,Молочна вулиця,61001,49.9823236,36.2563873
5,Молочна вулиця,61001,49.9833181,36.2574290
7,Молочна вулиця,61001,49.9828105,36.2568970
57,вулиця Георгія Тарасенка,61001,49.9808455,36.2579997
30а,вулиця Ярослава Мудрого,61024,50.0038027,36.2456613
3б,Європейська вулиця,61145,50.0210184,36.2178359
24,Богдана Хмельницького вулиця,61001,49.9863357,36.2557488
29,Богдана Хмельницького вулиця,61001,49.9875680,36.2550102
3а,Захисників України майдан,61001,49.9884610,36.2621027
55,вулиця Біблика,61089,49.9437130,36.3858315
43Б,проспект Науки,61101,50.0367128,36.2201361
20,Валентинівська вулиця,61170,50.0148182,36.3322215
90,Велика Панасівська вулиця,61000,50.0003552,36.2037465
127А,Аерокосмічний проспект,61000,49.9615264,36.2598126
330,Луї Пастера вулиця,61172,49.9185375,36.4143961
29,вулиця Зубарєва,61172,49.9151071,36.4113459
12,Вернадського вулиця,61000,49.9812827,36.2415381
151в,Льва Ландау проспект,61128,49.9554339,36.3014833
20,вулиця Шекспіра,61072,50.0315437,36.2162912
26,вулиця Вартових Неба,61072,50.0305943,36.2168374
80,вулиця Григорія Сковороди,61024,50.0038208,36.2479888
82,вулиця Григорія Сковороди,61024,50.0043178,36.2488970
35,вулиця Ярослава Мудрого,61024,50.0048941,36.2453376
5,Пушкінський в’їзд,61024,50.0029150,36.2442511
3,Тарасівська вулиця,61068,49.9846160,36.2660179
12,провулок Івана Лєщенкова,61001,49.9767032,36.2639825
27,вулиця Михайля Семенка,61024,50.0042638,36.2564809
126/2,Плеханівська вулиця,61037,49.9733913,36.2895065
126/2,вулиця Георгія Тарасенка,61037,49.9741258,36.2888763
126/2,Плеханівська вулиця,61037,49.9737873,36.2895331
1,Лиманський провулок,61009,49.9358094,36.2516645
76,Аерокосмічний проспект,61000,49.9712635,36.2548024
9 к2,Аптекарський провулок,61001,49.9849619,36.2541585
9а,Аптекарський провулок,61001,49.9846742,36.2547433
7,Генерала Момота вулиця,61075,49.9430824,36.3661376
18Д,Валентинівська вулиця,61170,50.0155431,36.3304204
171б,вулиця Єдності,61176,49.9807871,36.3490653
85,Сумська вулиця,61023,50.0277649,36.2544522
1а,Тваринників вулиця,62404,49.9914394,36.3792732
14,7-ї Гвардійської Армії вулиця,62404,49.9859466,36.3835019
25а,вулиця Михайля Семенка,61024,50.0043910,36.2558403
6,вулиця Михайля Семенка,61024,50.0041532,36.2520639
14,вулиця Михайля Семенка,61024,50.0038210,36.2536320
20,вулиця Михайля Семенка,61024,50.0040615,36.2556050
7,Студентська вулиця,61024,50.0068378,36.2543048
15/7,Лермонтовська вулиця,61024,50.0056427,36.2552670
65/5,проспект Науки,61103,50.0408838,36.2205421
65/6,проспект Науки,61103,50.0410439,36.2203188
65/10,проспект Науки,61103,50.0414011,36.2193353
65/7,проспект Науки,61103,50.0411181,36.2200253
65/8,проспект Науки,61103,50.0411944,36.2197755
65/3,проспект Науки,61103,50.0407376,36.2208906
65/9,проспект Науки,61103,50.0413145,36.2195429
152/1,Полтавський Шлях вулиця,61064,49.9839994,36.1825392
10,Сокільницька вулиця,61070,50.0292580,36.2564862
87а,Ювілейний проспект,61111,49.9923165,36.3609139
90,Полтавський Шлях вулиця,61000,49.9867773,36.2007550
10а,Саперна вулиця,61070,50.0297311,36.2954496
235,вулиця Шевченка,61033,50.0080510,36.2807652
6,Будівельна вулиця,61013,50.0052045,36.2607000
181а,вулиця Єдності,61176,49.9809530,36.3616018
35,Івана Камишева вулиця,61038,49.9928794,36.3091668
43г,Салтівське шосе,61038,49.9897030,36.2946672
14,вулиця Дванадцятого Квітня,61089,49.9389301,36.3843054
2,Локомотивна вулиця,61080,49.9269432,36.2574572
260,Аерокосмічний проспект,61009,49.9416164,36.2593577
19,Тернопільська вулиця,61109,49.9140062,36.2251325
21,Тернопільська вулиця,61109,49.9132787,36.2238581
12,Архангельська вулиця,61019,49.9486200,36.1436054
2А,Дзюби проспект,61019,49.9537663,36.1398405
49,Червона Алея вулиця,61019,49.9634358,36.1368545
8,Баварська вулиця,61039,49.9646021,36.1859945
10,Баварська вулиця,61039,49.9646365,36.1858060
12А,Баварська вулиця,61039,49.9647301,36.1856786
14,Баварська вулиця,61039,49.9647504,36.1854443
12,Баварська вулиця,61039,49.9646556,36.1853385
6,Біологічна вулиця,610000,49.9589967,36.2366790
18,Баварська вулиця,61039,49.9647288,36.1852274
20,Баварська вулиця,61039,49.9647693,36.1849796
22,Баварська вулиця,61039,49.9649028,36.1851221
24,Баварська вулиця,61039,49.9648954,36.1848656
26,Баварська вулиця,61039,49.9649946,36.1847714
26А,Баварська вулиця,61039,49.9651515,36.1844700
28,Баварська вулиця,61039,49.9653280,36.1841715
30,Баварська вулиця,61039,49.9654530,36.1838960
32,Баварська вулиця,61039,49.9655930,36.1837515
9/2,Баварська вулиця,61039,49.9638795,36.1898535
9/4,Баварська вулиця,61039,49.9635800,36.1893755
9/7,Баварська вулиця,61039,49.9633631,36.1892835
147,Полтавський Шлях вулиця,61064,49.9827224,36.1838063
6Б,вулиця Дудинської,61098,49.9791781,36.1776650
6В,вулиця Дудинської,61098,49.9790258,36.1779473
6Г,вулиця Дудинської,61098,49.9789263,36.1781007
6Д,вулиця Дудинської,61098,49.9788192,36.1782743
23,Праці вулиця,61177,49.9810701,36.1425060
6Е,вулиця Дудинської,61098,49.9786063,36.1783583
3,Слави проспект,61177,49.9841078,36.1552136
38,Григорівське шосе,61064,49.9809982,36.1852493
54а,Григорівське шосе,61064,49.9785023,36.1812513
55,Григорівське шосе,61064,49.9807946,36.1857363
140,Полтавський Шлях вулиця,61000,49.9848957,36.1866680
7,3-й Таганський провулок,61067,50.0112949,36.1826235
83,Сочинська вулиця,61067,50.0083385,36.1720184
5,Лозівська вулиця,61017,50.0118482,36.2053294
5,Лозівська вулиця,61017,50.0109531,36.2055158
11,Киргизька вулиця,61105,49.9466560,36.2758875
4,Труфанова вулиця,61013,50.0021821,36.2604798
2 к2,Лізи Чайкіної провулок,61052,49.9838380,36.2060451
39,Велика Панасівська вулиця,61052,49.9957105,36.2096494
8/10а,Євгена Котляра вулиця,61052,49.9889117,36.2081001
100,вулиця Григорія Сковороди,61024,50.0077532,36.2530700
100б,вулиця Григорія Сковороди,61024,50.0076662,36.2537399
19/21,вулиця Свободи,61002,50.0035918,36.2400286
22/26,Громадянська вулиця,61057,49.9911824,36.2380359
5,Скрипника вулиця,61057,49.9980936,36.2381680
5/2,Студентська вулиця,61024,50.0072230,36.2554276
5/2а,Студентська вулиця,61024,50.0073333,36.2551408
6/12,Студентська вулиця,61024,50.0064852,36.2541271
16,вулиця Ярослава Мудрого,61002,50.0058497,36.2416338
6,Студентський провулок,61024,50.0082272,36.2570840
5/7/9,вулиця Михайля Семенка,61024,50.0050198,36.2517883
79/2,вулиця Григорія Сковороди,61024,50.0066857,36.2476183
79/5,вулиця Григорія Сковороди,61024,50.0059874,36.2477606
88,вулиця Григорія Сковороди,61024,50.0058704,36.2506367
92/1,вулиця Григорія Сковороди,61024,50.0063023,36.2507622
96-98,вулиця Григорія Сковороди,61024,50.0071287,36.2522315
9б;09,проспект Науки,61000,50.0134171,36.2261044
13в,вулиця Амосова,61171,49.9858310,36.3524336
14,вулиця Руслана Плоходька,61112,49.9951444,36.3519917
90б,Ювілейний проспект,61112,49.9911886,36.3589289
23а,вулиця Амосова,61176,49.9858958,36.3580359
87в,проспект Тракторобудівників,61123,50.0157654,36.3508655
155/93в,Салтівське шосе,61112,49.9916377,36.3598086
15б,вулиця Ахсарова,61204,50.0516342,36.2117896
3б,вулиця Отакара Яроша,61045,50.0255511,36.2115042
42б,Людвіга Свободи проспект,61204,50.0547105,36.2085374
1,Померки,61070,50.0481787,36.2712540
44,вулиця Цезаря Кюї,61051,50.0552340,36.1889812
36,Івана Камишева вулиця,61038,49.9917351,36.3086507
7,Михайлика вулиця,61038,49.9909981,36.3003142
27,Курилівська вулиця,61016,49.9999863,36.1929722
10,Камська вулиця,61064,49.9804045,36.1818075
11,Екатерининская,61010,49.9800182,36.2286664
18,Ржевський провулок,61039,49.9680618,36.1843833
52,Москалівська вулиця,61004,49.9769227,36.2227530
10,Петра Свинаренка вулиця,61020,49.9520087,36.1627289
4,П’ятигорський провулок,61046,49.9508241,36.3493752
12,вулиця Дванадцятого Квітня,61089,49.9412044,36.3862215
36,Біблика вулиця,6082,49.9433584,36.3821135
16а,провулок Балакірєва,61103,50.0363308,36.2456992
65,вулиця Вартових Неба,61072,50.0317018,36.2303729
12,Здоров’я набережна,61001,49.9916707,36.2722368
12/20,Кінний провулок,61001,49.9890104,36.2597794
100д,проспект Тракторобудівників,61118,49.9942855,36.3449341
13а,вулиця Амосова,61171,49.9854938,36.3549074
185а,вулиця Єдності,61176,49.9820606,36.3636313
242в,Салтівське шосе,61171,49.9867934,36.3453831
244б,Салтівське шосе,61171,49.9871600,36.3483241
262б,Салтівське шосе,61171,49.9875647,36.3568145
46,вулиця Амосова,61176,49.9832583,36.3612969
69б,Ювілейний проспект,61111,49.9949267,36.3615125
7а,вулиця Амосова,61171,49.9855798,36.3497279
17,Благовіщенська вулиця,61052,49.9889105,36.2175415
12-2,Жасміновий бульвар,61100,49.9477487,36.3207615
121б,вулиця Ньютона,61162,49.9394998,36.3068184
14б,Жасміновий бульвар,61100,49.9481932,36.3216206
11/24,Фесенківська вулиця,61068,49.9846017,36.2700297
4а,Фесенківська вулиця,61093,49.9845388,36.2680646
1,Новоросійський провулок,61068,49.9779878,36.2719730
7/8,Захисників України майдан,61001,49.9867159,36.2575177
15,Лермонтовська вулиця,61024,50.0057782,36.2544410
20,Студентська вулиця,61024,50.0062343,36.2567100
235,вулиця Шевченка,61033,50.0081506,36.2801861
4,вулиця Михайля Семенка,61024,50.0046118,36.2511015
5/6,Студентська вулиця,61024,50.0077192,36.2559275
6/18,Студентська вулиця,61024,50.0066873,36.2549325
1а,вулиця Миру,61007,49.9557526,36.3612548
19,вулиця Косарєва,61007,49.9435575,36.3751920
1,Храмова вулиця,61068,49.9828665,36.2656319
16,Університетська вулиця,61003,49.9887269,36.2298569
207,Аерокосмічний проспект,61031,49.9178881,36.2748321
1,Плиткова вулиця,61047,49.9378409,36.4118045
17,Роганська вулиця,61106,49.9377177,36.4037904
22а,Івана Каркача бульвар,61106,49.9352669,36.3967935
12,вулиця Біблика,61007,49.9481217,36.3689448
150,Олександрівський проспект,61075,49.9405660,36.3704512
28,Дванадцятого Квітня вулиця,61089,49.9360278,36.3817341
38а,Северина Потоцького вулиця,61075,49.9394347,36.3564275
48б,Сергія Грицевця вулиця,61172,49.9137384,36.4048828
16а,Балакірєва вулиця,61103,50.0383661,36.2434798
1,бульвар Фронтовиків,61051,50.0467884,36.1923929
36,Ферганська вулиця,61110,49.9816792,36.3248154
38,Академіка Барабашова вулиця,61168,50.0230829,36.3215381
88/9,вулиця Гвардійців-Широнінців,61183,50.0350308,36.3604103
18,Молочна вулиця,61001,49.9833454,36.2562977
20,Молочна вулиця,61001,49.9827310,36.2554805
1,М’ясний провулок,61010,49.9824232,36.2279285
20а,Миколи Міхновського вулиця,61001,49.9803433,36.2500759
13,Садова вулиця,61002,49.9960315,36.2394392
4,Манізера вулиця,61002,49.9990972,36.2428710
5,вулиця Жон Мироносиць,61002,49.9992470,36.2369058
11,вулиця Михайля Семенка,61024,50.0048122,36.2525258
13,вулиця Михайля Семенка,61024,50.0047727,36.2528650
15,вулиця Михайля Семенка,61024,50.0047413,36.2532385
16,вулиця Михайля Семенка,61024,50.0041521,36.2544800
17,вулиця Михайля Семенка,61024,50.0046912,36.2536505
18,вулиця Михайля Семенка,61024,50.0041787,36.2548175
19,вулиця Михайля Семенка,61024,50.0046883,36.2540445
21,вулиця Михайля Семенка,61024,50.0046047,36.2543809
23,вулиця Михайля Семенка,61024,50.0045233,36.2549785
25,вулиця Михайля Семенка,61024,50.0044293,36.2553799
35б,вулиця Ярослава Мудрого,61024,50.0050653,36.2458405
5/2,Студентська вулиця,61024,50.0072822,36.2547801
5/4,Студентська вулиця,61024,50.0076938,36.2548475
53,вулиця Григорія Сковороди,61002,50.0008548,36.2435062
77,вулиця Григорія Сковороди,61024,50.0052709,36.2476908
8,вулиця Шевченка,61013,49.9945703,36.2488476
34,вулиця Данилевського,61058,50.0088313,36.2220742
87,Мироносицька вулиця,61023,50.0112525,36.2438455
43/45,Тарасівська вулиця,61068,49.9836348,36.2745846
2 к1,Лізи Чайкіної провулок,61052,49.9839790,36.2065001
266в,Салтівське шосе,61176,49.9869144,36.3619113
35а,Вологодська вулиця,61033,50.0143308,36.2837983
44,вулиця Амосова,61176,49.9828306,36.3596335
23 к1,Переяславська вулиця,61016,50.0009116,36.1658896
54,вулиця Григорія Сковороди,61002,49.9998364,36.2437959
80,Індустріальний проспект,61007,49.9641532,36.3946496
79,Індустріальний проспект,61007,49.9640245,36.3952679
9,Індустріальний проспект,61007,49.9640654,36.3958660
78,Чугуївська вулиця,61140,49.9679667,36.2545001
4,Альпійська вулиця,61000,50.0638196,36.2803556
2а,вулиця Олександра Олеся,61072,50.0292869,36.2263722
14В,Жасміновий бульвар,61100,49.9490358,36.3225790
42,Аерокосмічний проспект,61140,49.9744583,36.2502017
31,Чугуївська вулиця,61140,49.9739928,36.2491545
1А,Академіка Курчатова проспект,61108,50.0789973,36.2338279
38а,Валентинівська вулиця,61121,50.0088981,36.3513819
24,Велозаводська вулиця,61176,49.9807407,36.3569814
26,Велозаводська вулиця,61176,49.9809921,36.3568748
20,Велозаводська вулиця,61176,49.9802335,36.3571304
22,Велозаводська вулиця,61176,49.9804866,36.3570924
28,Велозаводська вулиця,61176,49.9812442,36.3567577
6,Пермська вулиця,61064,49.9790698,36.1884620
2Б,проспект Льва Ландау,61100,49.9391547,36.2956822
169/24,проспект Байрона,61100,49.9447474,36.3131882
18в,проспект Петра Григоренка,61000,49.9460161,36.3129512
61а,Людвіга Свободи проспект,61201,50.0627431,36.1970051
63а,Семінарська вулиця,61039,49.9765225,36.2014545
50,Шарикова вулиця,61047,49.9313485,36.4184431
52,Шарикова вулиця,61047,49.9313034,36.4188600
18/2,Олександра Невського вулиця,61140,49.9743273,36.2472703
7,Індустріальний проспект,61007,49.9637996,36.3946418
110,Індустріальний проспект,61007,49.9644105,36.3941605
89,Індустріальний проспект,61007,49.9639130,36.3938445
109,Індустріальний проспект,61007,49.9636266,36.3954746
23,Вологодська вулиця,61033,50.0138592,36.2851220
12,Велика Кільцева вулиця,61143,49.9284273,36.4412844
49,Мінська вулиця,61166,50.0244156,36.2261474
23 к3,Переяславська вулиця,61016,50.0012005,36.1664055
23 к4,Переяславська вулиця,61016,50.0010035,36.1669834
23 к2,Переяславська вулиця,61016,50.0013469,36.1656318
256в,Салтівське шосе,61171,49.9892149,36.3532395
160,проспект Байрона,61096,49.9440356,36.3248117
2/16,Садовий проїзд,61000,49.9499739,36.3034333
65г к1,проспект Перемоги,61174,50.0627545,36.2041156
65г к2,проспект Перемоги,61174,50.0632542,36.2043501
47/2,Салтівське шосе,61038,49.9898541,36.2977140
117,Дар’яльська вулиця,61172,49.9110833,36.4179975
130/4,Роганська вулиця,61172,49.9213089,36.4140887
52,проспект Льва Ландау,61000,49.9643569,36.3101578
52,проспект Льва Ландау,61000,49.9650578,36.3093135
2б,Пантелеймона Свистуна вулиця,61007,49.9635568,36.3671529
32а,Чкалова вулиця,61070,50.0396351,36.2900185
84а,вулиця Григорія Сковороди,61024,50.0047854,36.2500343
318а,проспект Героїв Харкова,61032,49.9303811,36.4288028
1,Чернівецький в’їзд,61054,50.0119378,36.3109742
37,Велозаводська вулиця,61176,49.9820525,36.3535567
19а,Тернопільська вулиця,61109,49.9129510,36.2234481
165,Салтівське шосе,61111,49.9951955,36.3707971
51,вулиця Академіка Павлова,61000,49.9898562,36.2851823
5,Архітектора Альошина проспект,61007,49.9486910,36.3750448
28а,Шевченка вулиця,61013,49.9993015,36.2600259
264і,Салтівське шосе,61176,49.9899477,36.3622786
15,вулиця Амосова,61171,49.9862984,36.3547966
264Б,Салтівське шосе,61176,49.9900566,36.3614863
6а-1,Академіка Богомольця вулиця,61157,49.9671871,36.2177757
4,Драгоманова вулиця,61176,49.9884893,36.3647958
264л,Салтівське шосе,61176,49.9892719,36.3637240
264м,Салтівське шосе,61176,49.9885799,36.3633475
264н,Салтівське шосе,61176,49.9883329,36.3622591
2,Драгоманова вулиця,61176,49.9893503,36.3645583
43,Салтівське шосе,61038,49.9898170,36.2928408
30,Шевченківський провулок,61054,50.0120591,36.3087309
57/2,Крилова вулиця,61020,49.9443232,36.1689464
256б,Салтівське шосе,61171,49.9863658,36.3527802
20а,Миколи Міхновського вулиця,61001,49.9808973,36.2506472
4а,Москаленка вулиця,61108,50.0983477,36.2609445
4б,Москаленка вулиця,61108,50.0985375,36.2609899
22,провулок Отакара Яроша,61045,50.0249963,36.2174012
56,Муромський провулок,61054,50.0137089,36.3158871
54,Муромський провулок,61054,50.0134694,36.3158354
58,Муромський провулок,61054,50.0139094,36.3159409
27а,проспект Науки,61072,50.0256454,36.2212903
17а,Драгоманова вулиця,61176,49.9863768,36.3663272
264Б/1,Салтівське шосе,61176,49.9903118,36.3608866
34,Професорська вулиця,61070,50.0325884,36.2545083
49 к2,Мінська вулиця,61166,50.0242564,36.2258985
8/10з,Євгена Котляра вулиця,61052,49.9891767,36.2091532
8,1-й Нескучний в'їзд,61000,50.0569578,36.2664317
19,Баварська вулиця,61039,49.9641593,36.1858977
4,Абрамівська вулиця,61064,49.9839349,36.1895555
26,вулиця Амосова,61176,49.9835355,36.3547626
89,проспект Перемоги,61174,50.0709930,36.2136457
92,вулиця Григорія Сковороди,61024,50.0064843,36.2509631
147,Полтавський Шлях вулиця,61064,49.9823701,36.1826602
147,Полтавський Шлях вулиця,61064,49.9821925,36.1831492
6,Пермська вулиця,61064,49.9790827,36.1877977
6,Пермська вулиця,61064,49.9792416,36.1881333
77,вулиця Григорія Сковороди,61024,50.0052207,36.2475752
52,проспект Льва Ландау,61000,49.9644709,36.3094073
5/1,Жасміновий бульвар,61100,49.9498637,36.3176412
26,проспект Льва Ландау,61100,49.9392550,36.2959938
32,Молочна вулиця,61001,49.9812566,36.2534306
55,вулиця Миру,61089,49.9456198,36.3908918
57,вулиця Миру,61089,49.9453740,36.3916116
272,проспект Героїв Харкова,61089,49.9465307,36.3916785
121,Полтавський Шлях вулиця,61064,49.9844644,36.1891606
65/14,проспект Науки,61101,50.0417552,36.2183382
65/17,проспект Науки,61103,50.0420540,36.2176111
65/16,проспект Науки,61103,50.0419342,36.2177767
65/15,проспект Науки,61103,50.0419864,36.2180964
4,Ясна вулиця,61089,49.9260203,36.3720274
272в,проспект Героїв Харкова,61089,49.9462914,36.3924403
272г,проспект Героїв Харкова,61089,49.9460206,36.3932200
272д,проспект Героїв Харкова,61089,49.9457426,36.3939627
59,вулиця Миру,61089,49.9450788,36.3924677
61,вулиця Миру,61089,49.9447983,36.3933380
7,вулиця Миру,61007,49.9533507,36.3671990
52-В,Льва Ландау проспект,61060,49.9646192,36.3081574
52-Б,Льва Ландау проспект,61060,49.9649470,36.3082017
11/1,Морозова вулиця,61036,49.9564976,36.2900773
6,Драгоманова вулиця,61176,49.9881279,36.3639238
6г,Драгоманова вулиця,61176,49.9874011,36.3638888
8,Драгоманова вулиця,61176,49.9876101,36.3647805
6Б,Драгоманова вулиця,61176,49.9876914,36.3628063
112,Греківська вулиця,61010,49.9676890,36.2428215
131-Г,проспект Героїв Харкова,61001,49.9903499,36.2677222
81б,Греківська вулиця,61030,49.9665439,36.2457160
4,Гуківський в’їзд,61019,49.9620203,36.1315077
22,Студентська вулиця,61024,50.0058806,36.2576279
27,вулиця Миру,61007,49.9495098,36.3788455
25,вулиця Миру,61007,49.9497699,36.3781282
5,Староверещаківська вулиця,61030,49.9658690,36.2454965
12,Москаленка вулиця,61108,50.0997170,36.2617517
31,вулиця Миру,61007,49.9489555,36.3804513
29,вулиця Миру,61007,49.9492143,36.3797274
268-Б,проспект Героїв Харкова,61007,49.9506774,36.3788644
268-В,проспект Героїв Харкова,61007,49.9504370,36.3796090
19к,Москаленка вулиця,61108,50.0994762,36.2599705
19ж,Москаленка вулиця,61108,50.0994475,36.2602888
19а,Москаленка вулиця,61108,50.0994121,36.2606825
15л,Москаленка вулиця,61108,50.0988076,36.2605452
15ж,Москаленка вулиця,61108,50.0988351,36.2602164
15д,Москаленка вулиця,61108,50.0988420,36.2601350
15б,Москаленка вулиця,61108,50.0988624,36.2598911
15а,Москаленка вулиця,61108,50.0988691,36.2598108
15в,Москаленка вулиця,61108,50.0988556,36.2599721
15г,Москаленка вулиця,61108,50.0988488,36.2600534
15и,Москаленка вулиця,61108,50.0988283,36.2602979
15і,Москаленка вулиця,61108,50.0988215,36.2603796
15к,Москаленка вулиця,61108,50.0988145,36.2604630
17а,Москаленка вулиця,61108,50.0991690,36.2598933
17б,Москаленка вулиця,61108,50.0991621,36.2599755
17в,Москаленка вулиця,61108,50.0991551,36.2600590
17г,Москаленка вулиця,61108,50.0991482,36.2601407
17д,Москаленка вулиця,61108,50.0991414,36.2602222
17ж,Москаленка вулиця,61108,50.0991345,36.2603036
17и,Москаленка вулиця,61108,50.0991277,36.2603852
17і,Москаленка вулиця,61108,50.0991209,36.2604665
17к,Москаленка вулиця,61108,50.0991141,36.2605475
17л,Москаленка вулиця,61108,50.0991073,36.2606278
22,Тарасівська вулиця,61068,49.9836996,36.2698042
15,Фесенківська вулиця,61068,49.9840522,36.2697324
18,Холодноярська вулиця,61068,49.9839139,36.2701069
65/12,проспект Науки,61101,50.0415325,36.2188120
65/13,проспект Науки,61101,50.0416435,36.2185932
10,Мухачова вулиця,61036,49.9628492,36.2873216
8/10Б,Євгена Котляра вулиця,61052,49.9895416,36.2082395
8/10в,Євгена Котляра вулиця,61052,49.9897272,36.2079631
34а,Зубарєва вулиця,61172,49.9101566,36.4091340
34б,Зубарєва вулиця,61172,49.9097532,36.4083888
34а,Амосова вулиця,61176,49.9838861,36.3567788
63г,Ювілейний проспект,61111,49.9965020,36.3525445
49 к1,вулиця Дмитра Антоненка,61166,50.0243459,36.2268704
34,Велозаводська вулиця,61176,49.9823431,36.3565204
79,Полтавський Шлях вулиця,61000,49.9861803,36.2014724
45а,Любові Малої проспект,61039,49.9712217,36.1915039
55г,Зернова вулиця,61105,49.9519517,36.2652576
22а,Примерівська вулиця,61001,49.9909687,36.2521306
55,вулиця Григорія Сковороди,61002,50.0010328,36.2438535
165Б,Аерокосмічний проспект,61124,49.9511430,36.2607704
30,Молочна вулиця,61001,49.9815537,36.2533239
18б,вулиця Георгія Тарасенка,61001,49.9817728,36.2525863
17,Чорноглазівська вулиця,61002,49.9952656,36.2420114
134,Плехановская,61036,49.9666615,36.2933252
14,Професорська вулиця,61070,50.0312520,36.2550437
18,Професорська вулиця,61070,50.0314921,36.2530028
12,Професорська вулиця,61070,50.0306973,36.2544992
47,Сіверська вулиця,61111,49.9955427,36.3729639
173,Салтівське шосе,61026,49.9995641,36.3814837
184-А корпус №8,Полтавський Шлях вулиця,61097,49.9804143,36.1705984
1,Молокіна вулиця,61109,49.8831957,36.2586407
5,Молокіна вулиця,61109,49.8845853,36.2591003
264в,Салтівське шосе,61176,49.9903630,36.3624018
264д,Салтівське шосе,61176,49.9895333,36.3621471
264г,Салтівське шосе,61176,49.9899183,36.3629548
23,вулиця Миру,61007,49.9506878,36.3775445
21,вулиця Миру,61007,49.9502871,36.3764639
268-А,проспект Героїв Харкова,61007,49.9509936,36.3778166
268,проспект Героїв Харкова,61007,49.9511986,36.3771583
268-Г,проспект Героїв Харкова,61007,49.9501055,36.3805064
268-Д,проспект Героїв Харкова,61007,49.9498686,36.3812991
268-Ж,проспект Героїв Харкова,61007,49.9496272,36.3820565
58,вулиця Амосова,61176,49.9852167,36.3649614
3а,вулиця Амосова,61171,49.9851836,36.3465775
133,Салтівське шосе,61153,49.9876421,36.3346982
12-А,Зоряний вʼїзд,61107,50.0490975,36.3479024
12,Зоряний вʼїзд,61107,50.0489906,36.3481582
12-Б,Зоряний вʼїзд,61107,50.0493568,36.3482276
19ї,Москаленка вулиця,61108,50.0994685,36.2600545
19і,Москаленка вулиця,61108,50.0994613,36.2601353
19и,Москаленка вулиця,61108,50.0994541,36.2602156
19г,Москаленка вулиця,61108,50.0994348,36.2604301
19в,Москаленка вулиця,61108,50.0994275,36.2605109
19б,Москаленка вулиця,61108,50.0994198,36.2605947
19д,Москаленка вулиця,61108,50.0994413,36.2603565
44а,Туркестанська вулиця,61110,49.9840749,36.3243602
44б,Туркестанська вулиця,61110,49.9841392,36.3243964
26а,Туркестанська вулиця,61110,49.9841362,36.3208204
18,Донецький провулок,61010,49.9815901,36.2431076
6,Молочна вулиця,61001,49.9851109,36.2576722
20в,Дмитрівська вулиця,61052,49.9869612,36.2154632
7ж,Гацева вулиця,61108,50.0840751,36.2350757
2д,Захисників України майдан,61001,49.9861425,36.2607661
2д,Захисників України майдан,61001,49.9857504,36.2603240
2д,Захисників України майдан,61001,49.9860237,36.2609109
2д,Захисників України майдан,61001,49.9856717,36.2605106
2д,Захисників України майдан,61001,49.9859506,36.2610677
2д,Захисників України майдан,61001,49.9856312,36.2607838
6,Тарасівська вулиця,61068,49.9835656,36.2653213
5,Малиновського вулиця,61011,49.9900787,36.2112358
3Б,Велика Кільцева вулиця,61143,49.9307524,36.4365729
6,Зернова вулиця,61124,49.9525503,36.2644125
6в,Драгоманова вулиця,61176,49.9870462,36.3634552
264-К,Салтівське шосе,61176,49.9890695,36.3627384
313в,вулиця Академіка Павлова,61168,50.0213775,36.3285332
1,Благовіщенський майдан,61000,49.9905600,36.2239946
4,майдан Свободи,61022,50.0043351,36.2278228
30,Грицевця вулиця,61172,49.9178887,36.4043650
29,Зубарєва вулиця,61172,49.9148036,36.4117552
330,Луї Пастера вулиця,61172,49.9183442,36.4148904
18а,вулиця Ахсарова,61202,50.0459843,36.2115287
3а,вулиця Ахсарова,61202,50.0512655,36.2000628
37б,Людвіга Свободи проспект,61202,50.0525004,36.1997077
1,вулиця Каденюка,61072,49.9585264,36.3088578
5в,вулиця Руслана Плоходька,61118,49.9916446,36.3458084
35,Велозаводська вулиця,61176,49.9821240,36.3549316
20,вулиця Амосова,61176,49.9828690,36.3469501
24,вулиця Амосова,61176,49.9818725,36.3499645
24а,вулиця Амосова,61176,49.9831857,36.3521403
264,Салтівське шосе,61176,49.9890092,36.3604070
46,вулиця Академіка Павлова,61000,49.9877269,36.2903603
21а,вулиця Владислава Зубенка,61170,50.0111547,36.3304470
38,Метробудівників вулиця,61183,50.0354763,36.3663892
38б,Барабашова вулиця,61168,50.0227508,36.3244014
13д,Валентинівська вулиця,61168,50.0220062,36.3266272
195в,Клочківська вулиця,61145,50.0158643,36.2106999
12,вулиця Коцюбинського,61145,50.0170236,36.2192486
46,Шарикова вулиця,61047,49.9310581,36.4169131
3,Тарасівська вулиця,61068,49.9842821,36.2653250
96а,проспект Героїв Харкова,61068,49.9848198,36.2728549
9 к1,Аптекарський провулок,61001,49.9851158,36.2546457
16,Професорська вулиця,61070,50.0319602,36.2535461
