House number,Street name,Postal code,Latitude,Longitude
14,Воскресенська вулиця,49000,48.4665045,35.0410650
2-А,вулиця Старих Каменів,49080,48.5102019,34.9871530
11,вулиця Миколи Міхновського,49130,48.5271178,35.0251919
9-А,Донецьке шосе,49080,48.5111704,34.9923540
12,вулиця Козака Мамая,49066,48.4054539,35.0103866
74,Запорізьке шосе,49041,48.3950784,35.0394432
5,Вокзальна вулиця,49106,48.4771184,35.0229995
35,Слобожанський проспект,49083,48.4990339,35.0701151
3,вулиця Магдебурзького Права,49000,48.4639779,35.0522269
72,Калинова вулиця,49087,48.5150079,35.0588818
7,Донецьке шосе,49080,48.5113672,34.9896467
2,вулиця Старих Каменів,49080,48.5108878,34.9865744
1-А,Бердянська вулиця,49081,48.4869519,35.0669464
10,вулиця Кирила Осьмака,49127,48.4140341,35.1348172
2,вулиця Старих Каменів,49080,48.5111130,34.9864690
12,Виконкомівська вулиця,49044,48.4596174,35.0481620
775-А,Передова вулиця,49082,48.5498542,34.9224315
75-А,проспект Миру,49130,48.5306773,35.0133969
2,вулиця Старих Каменів,49080,48.5095409,34.9869420
11а,вулиця Архітектора Олега Петрова,49005,48.4495551,35.0592117
60-Б,проспект Дмитра Яворницького,49000,48.4676429,35.0411920
31-Д,Слобожанський проспект,49081,48.4987555,35.0688820
5,Дніпросталівська вулиця,49051,48.5034880,35.1071891
2 к12,вулиця Панікахи,49600,48.4053189,35.0383219
15,Воскресенська вулиця,49000,48.4660999,35.0411633
2,Феодосіївська вулиця,49005,48.4479806,35.0539781
2,Феодосіївська вулиця,49005,48.4483562,35.0545213
16,вулиця Шмідта,49006,48.4667337,35.0205486
99,проспект Дмитра Яворницького,49038,48.4729156,35.0285492
19,вулиця Володимира Мономаха,49000,48.4680665,35.0461495
10,вулиця Кирила Осьмака,49127,48.4142149,35.1348853
26,Херсонська вулиця,49600,48.4611046,35.0299132
96-А,Слобожанський проспект,49051,48.5208397,35.0818253
5-Б,вулиця Миколи Міхновського,49130,48.5267219,35.0246266
12,проспект Героїв,49100,48.4202815,35.0613568
6,Барикадна вулиця,49044,48.4625934,35.0532662
55,Соловʼїна вулиця,49114,48.4780221,35.2037832
13,вулиця Агнії Барто,49127,48.4175814,35.1270933
43-Д,вулиця Кирила Осьмака,49127,48.4163504,35.1332487
1,Катеринославський бульвар,49000,48.4604464,35.0505192
90-А,проспект Дмитра Яворницького,49000,48.4733291,35.0290812
23,вулиця Кирила Осьмака,49127,48.4146605,35.1339078
35,проспект Миру,49130,48.5278998,35.0175999
55,проспект Миру,49130,48.5288556,35.0156643
7,проспект Миру,49000,48.5263054,35.0205824
8,проспект Праці,49041,48.4041703,35.0417454
88,проспект Дмитра Яворницького,49000,48.4732160,35.0297368
4,вулиця Гетьмана Петра Дорошенка,49100,48.4179384,35.0616170
26,вулиця Кирила Осьмака,49127,48.4173193,35.1337917
3-Б,Новокримська вулиця,49000,48.4287824,35.0112648
1,вулиця Івана Акінфієва,49000,48.4605947,35.0667707
1,вулиця Гоголя,49000,48.4592185,35.0551519
37,Запорізьке шосе,49040,48.4058663,35.0381271
31,Мануйлівський проспект,49023,48.4920072,35.0519143
2,вулиця Княгині Ольги,49000,48.4740505,35.0250922
5,Європейська вулиця,49000,48.4672116,35.0481919
61-А,вулиця Кирила Осьмака,49127,48.4212555,35.1262530
1,вулиця Космонавта Комарова,49126,48.4118682,35.0507014
40,бульвар Слави,49126,48.4075679,35.0491892
186,Донецьке шосе,49108,48.5368060,35.0591050
156,Німецька вулиця,49117,48.4707709,35.1498339
5а/1,вулиця Миколи Міхновського,49130,48.5269082,35.0248973
2-К,проспект Миру,49130,48.5264083,35.0234891
2-К,проспект Миру,49130,48.5264438,35.0236623
2-К,проспект Миру,49130,48.5263889,35.0234106
8,вулиця Володимира Мономаха,49000,48.4684328,35.0466809
12,вулиця Столярова,49038,48.4743772,35.0331625
6-Б,Краснопільська вулиця,49033,48.4105636,34.9978654
53-А,вулиця Софії Ковалевської,49087,48.5168128,35.0622859
12,вулиця Кирила Осьмака,49127,48.4148928,35.1345450
2-К,проспект Миру,49130,48.5263364,35.0232338
249,проспект Богдана Хмельницького,49057,48.3728604,35.0020426
3,проспект Героїв,49100,48.4199812,35.0625572
17,вулиця Кирила Осьмака,49127,48.4134831,35.1342269
8,Калинова вулиця,49051,48.5105258,35.0819638
1,Вокзальна площа,49038,48.4761417,35.0148832
76-В,Калинова вулиця,49087,48.5156597,35.0549109
5,вулиця Андрія Сахарова,49115,48.4677300,35.2029562
8,проспект Праці,49041,48.4043617,35.0420142
10,вулиця Кирила Осьмака,49127,48.4140835,35.1348539
10,вулиця Кирила Осьмака,49127,48.4142372,35.1349533
50-Д,проспект Олександра Поля,49054,48.4511729,35.0183551
1,Криворізька вулиця,49047,48.4377820,34.9951569
51,Запорізьке шосе,49000,48.4021338,35.0373231
2,Катеринославський бульвар,49044,48.4611925,35.0497314
66,проспект Дмитра Яворницького,49000,48.4683405,35.0400886
4,бульвар Кобзаря,49130,48.5249634,35.0157744
18-Б,Мануйлівський проспект,49023,48.4922008,35.0428293
137,проспект Олександра Поля,49000,48.4341889,35.0129729
2-К,проспект Миру,49130,48.5263708,35.0233214
2-К,проспект Миру,49130,48.5263040,35.0231483
2-К,проспект Миру,49130,48.5263207,35.0230401
2-К,проспект Миру,49130,48.5265515,35.0226915
1-Б,проспект Миру,49130,48.5249660,35.0227965
19,Парусний провулок,49018,48.4779836,34.9076499
99-Д,проспект Гагаріна,49010,48.4386240,35.0505911
8,вулиця Миколи Міхновського,49130,48.5265844,35.0255941
11а,вулиця Архітектора Олега Петрова,49005,48.4495056,35.0591329
1м,вулиця Олександра Оцупа,49051,48.5045407,35.1155149
5,Дніпросталівська вулиця,49051,48.5033137,35.1049795
21,вулиця Короленка,49000,48.4625226,35.0410849
22а,Терещенківська вулиця,49125,48.5218457,35.0280775
19А/2,вулиця Столєтова,49081,48.4938503,35.0738637
210,Берегова вулиця,49021,48.5053659,34.9944597
12,вулиця Королеви Єлизавети ІІ,49000,48.4663685,35.0488984
12,вулиця Королеви Єлизавети ІІ,49000,48.4664014,35.0489309
36,вулиця Шевченка,49030,48.4619224,35.0478093
4,вулиця Марії Лисиченко,49125,48.5205406,35.0372515
19,вулиця Паторжинського,49000,48.4563972,35.0523344
123,проспект Науки,49107,48.4278450,35.0363573
6/3,вулиця Василя Барки,49041,48.3983214,35.0321892
88а,Старочумацька вулиця,49108,48.5261180,35.0458071
88а,Старочумацька вулиця,49108,48.5261961,35.0458336
88а,Старочумацька вулиця,49108,48.5262527,35.0458579
1-А,Бердянська вулиця,49081,48.4872299,35.0650020
18,Слобожанський проспект,49081,48.4917861,35.0683750
30,вулиця Набережна Перемоги,49094,48.4479300,35.0740450
9,Крутогірний узвіз,49044,48.4620145,35.0572441
9,Виконкомівська вулиця,49044,48.4596249,35.0486031
14,Соборна площа,49005,48.4555522,35.0712281
29,вулиця Гоголя,49044,48.4549612,35.0511533
59,вулиця Панікахи,49041,48.3969350,35.0276169
61,вулиця Панікахи,49041,48.3961250,35.0284362
53,вулиця Панікахи,49041,48.3978578,35.0270345
18,Тополина вулиця,49037,48.3937426,35.0215946
65,вулиця Панікахи,49041,48.3960455,35.0307668
5,Метробудівська вулиця,49000,48.4796467,34.9147275
119-Б,вулиця Набережна Заводська,49128,48.4830396,34.9189054
3,вулиця Максима Дія,49128,48.4820498,34.9175878
60-Н,Кокчетавська вулиця,49115,48.4779321,35.1731520
35,вулиця Степана Рудницького,49080,48.5007748,34.9919697
23,вулиця Степана Рудницького,49080,48.5040669,34.9898893
11,вулиця Степана Рудницького,49080,48.5072144,34.9893366
14,вулиця Зиновія Матли,49080,48.5062798,34.9895694
5,вулиця Степана Рудницького,49080,48.5082282,34.9890617
4,Донецьке шосе,49080,48.5092590,34.9910018
10,вулиця Зиновія Матли,49080,48.5067744,34.9916230
2,вулиця Зиновія Матли,49080,48.5082667,34.9924647
6,Донецьке шосе,49080,48.5091152,34.9917382
1,Донецьке шосе,49080,48.5104971,34.9878640
4,вулиця Старих Каменів,49080,48.5115921,34.9858373
2,вулиця Старих Каменів,49080,48.5108311,34.9867181
3,Донецьке шосе,49080,48.5105916,34.9891524
7,Донецьке шосе,49080,48.5111875,34.9907025
18,вулиця Вадима Жукова,49080,48.5132533,34.9950072
43-Д,вулиця Кирила Осьмака,49127,48.4164050,35.1331581
10,вулиця Кирила Осьмака,49127,48.4141111,35.1349118
32,вулиця Олександра Данченка,49127,48.4144858,35.1254979
28,вулиця Олександра Данченка,49127,48.4138836,35.1252209
6,вулиця Коробова,48128,48.4857688,34.9338008
4,жилой массив Красный Камень,49128,48.4872205,34.9342132
4-А,площа Шевченка,49027,48.4594975,35.0702943
8,вулиця Мусліма Магомаєва,49009,48.4574119,35.0708030
19,вулиця Січеславська Набережна,49000,48.4714417,35.0440677
2,Воскресенська вулиця,49000,48.4707136,35.0436180
32,Стартова вулиця,49041,48.3913932,35.0532137
26,Батумська вулиця,49051,48.5149154,35.0842622
68-А,Слобожанський проспект,49051,48.5140100,35.0803371
12,Калинова вулиця,49051,48.5112750,35.0778694
74,Слобожанський проспект,49051,48.5156875,35.0793706
15,вулиця Квітки Цісик,49051,48.5099805,35.0908821
16,проспект Петра Калнишевського,49051,48.5127775,35.0838443
21,Дебальцівська вулиця,49051,48.5112346,35.0784627
34-В,проспект Петра Калнишевського,49051,48.5110982,35.0830447
5,вулиця Квітки Цісик,49051,48.5103578,35.0874733
24,проспект Петра Калнишевського,49051,48.5113949,35.0848607
31,Яскрава вулиця,49051,48.5116017,35.0798072
68,Слобожанський проспект,49051,48.5135710,35.0801404
12,Батумська вулиця,49051,48.5154817,35.0810221
32,проспект Петра Калнишевського,49051,48.5107910,35.0843209
29,Яскрава вулиця,49051,48.5110835,35.0795787
7,вулиця Квітки Цісик,49051,48.5102685,35.0880439
68-Б,Слобожанський проспект,49051,48.5140466,35.0787612
28,проспект Петра Калнишевського,49051,48.5114725,35.0833040
40-А,Слобожанський проспект,49051,48.5068060,35.0755846
34,проспект Петра Калнишевського,49051,48.5108759,35.0837500
11,вулиця Квітки Цісик,49051,48.5102077,35.0896740
64,Слобожанський проспект,49051,48.5128489,35.0785165
10,Батумська вулиця,49051,48.5155646,35.0805278
3,вулиця Квітки Цісик,49051,48.5104636,35.0869318
6,проспект Петра Калнишевського,49051,48.5132982,35.0859495
28,Батумська вулиця,49051,48.5148214,35.0847769
54,Слобожанський проспект,49051,48.5096930,35.0768341
8,проспект Петра Калнишевського,49051,48.5133959,35.0853982
14,Батумська вулиця,49051,48.5153841,35.0815125
66,Слобожанський проспект,49051,48.5133816,35.0783982
40,Слобожанський проспект,49051,48.5061362,35.0752419
9,вулиця Квітки Цісик,49051,48.5103501,35.0890554
18,проспект Петра Калнишевського,49051,48.5119821,35.0853940
83,Слобожанський проспект,49083,48.5095627,35.0756029
56,Слобожанський проспект,49051,48.5104538,35.0771475
11-Б,Калинова вулиця,49051,48.5108140,35.0776276
70,Слобожанський проспект,49051,48.5147353,35.0789769
24,Батумська вулиця,49051,48.5153706,35.0838594
60,Слобожанський проспект,49051,48.5117180,35.0777351
22,Батумська вулиця,49051,48.5150163,35.0832645
4,проспект Петра Калнишевського,49051,48.5139845,35.0859511
14,проспект Петра Калнишевського,49051,48.5131399,35.0840000
30,Батумська вулиця,49051,48.5147270,35.0852481
66-А,Слобожанський проспект,49051,48.5133512,35.0793546
12,проспект Петра Калнишевського,49051,48.5126884,35.0854071
85,Слобожанський проспект,49083,48.5101196,35.0758420
22,проспект Петра Калнишевського,49051,48.5121885,35.0843247
2,проспект Петра Калнишевського,49051,48.5145826,35.0865412
30,проспект Петра Калнишевського,49051,48.5106803,35.0848705
20,Батумська вулиця,49051,48.5154847,35.0830548
62-А,Слобожанський проспект,49051,48.5121843,35.0785131
16,Батумська вулиця,49051,48.5156549,35.0822712
13,Осіння вулиця,49051,48.5089619,35.0915004
10,проспект Петра Калнишевського,49051,48.5134854,35.0848631
62,Слобожанський проспект,49051,48.5124314,35.0779950
17,вулиця Квітки Цісик,49051,48.5098656,35.0914744
70-А,Слобожанський проспект,49051,48.5145696,35.0798490
20,проспект Петра Калнишевського,49051,48.5120847,35.0848503
79,Слобожанський проспект,49083,48.5090367,35.0753849
33,Яскрава вулиця,49051,48.5120675,35.0797839
26,проспект Петра Калнишевського,49051,48.5118437,35.0834469
26-А,проспект Петра Калнишевського,49051,48.5123533,35.0834727
18,Батумська вулиця,49051,48.5151501,35.0824675
4-А,проспект Петра Калнишевського,49051,48.5140221,35.0853536
19,вулиця Квітки Цісик,49051,48.5095670,35.0920303
13,вулиця Квітки Цісик,49051,48.5100963,35.0902738
8,Батумська вулиця,49051,48.5160506,35.0801428
25,Артеківська вулиця,49026,48.5130404,35.0745436
8,Дівоча вулиця,49026,48.5097936,35.0727555
28,Калинова вулиця,49026,48.5131801,35.0686041
6,вулиця Петра Яцика,49074,48.5219228,35.0803616
17,Калинова вулиця,49026,48.5116095,35.0731295
18,Решетилівська вулиця,49026,48.5134680,35.0708495
87,Слобожанський проспект,49083,48.5107803,35.0761520
14,Решетилівська вулиця,49026,48.5129619,35.0696527
22,Решетилівська вулиця,49026,48.5146672,35.0705166
9,Дівоча вулиця,49026,48.5105668,35.0724836
18,вулиця Юлії Залюбовської,49026,48.5118097,35.0717059
22,Калинова вулиця,49026,48.5122527,35.0726404
11,Артеківська вулиця,49026,48.5102652,35.0735048
123,Слобожанський проспект,49074,48.5225858,35.0805954
8,вулиця Юлії Залюбовської,49026,48.5102228,35.0716448
19,Калинова вулиця,49026,48.5117604,35.0723512
67,Слобожанський проспект,49083,48.5079008,35.0744948
22,вулиця Юлії Залюбовської,49026,48.5128546,35.0731167
26,Калинова вулиця,49026,48.5126774,35.0702633
11,вулиця Галини Мазепи,49026,48.5146776,35.0713141
10,вулиця Юлії Залюбовської,49026,48.5105421,35.0711576
7,Дівоча вулиця,49026,48.5100630,35.0722797
81,Слобожанський проспект,49083,48.5088444,35.0739062
13,Артеківська вулиця,49026,48.5105629,35.0736797
7-А,вулиця Галини Мазепи,49026,48.5143622,35.0736020
23,Артеківська вулиця,49026,48.5126705,35.0741299
89,Слобожанський проспект,49026,48.5117570,35.0765940
16,Решетилівська вулиця,49026,48.5133480,35.0701253
12,вулиця Юлії Залюбовської,49026,48.5106480,35.0717990
121,Слобожанський проспект,49074,48.5220412,35.0810626
28,вулиця Юлії Залюбовської,49026,48.5142721,35.0727689
27,Артеківська вулиця,49026,48.5135153,35.0750570
5,вулиця Галини Мазепи,49026,48.5141151,35.0749462
17,Артеківська вулиця,49026,48.5113781,35.0740843
4,вулиця Галини Мазепи,49026,48.5142195,35.0761574
20,Калинова вулиця,49026,48.5121384,35.0732587
69,Слобожанський проспект,49083,48.5079481,35.0735422
10,вулиця Галини Мазепи,49026,48.5154227,35.0733831
115,Слобожанський проспект,49074,48.5203118,35.0802255
26,вулиця Юлії Залюбовської,49026,48.5135080,35.0724086
15,Артеківська вулиця,49026,48.5109731,35.0738992
7,вулиця Галини Мазепи,49026,48.5145206,35.0721303
127-А,Слобожанський проспект,49074,48.5236371,35.0810440
83-А,Слобожанський проспект,49083,48.5094419,35.0747298
95-А,Слобожанський проспект,49026,48.5144670,35.0768854
18,Калинова вулиця,49026,48.5120172,35.0738891
65,Слобожанський проспект,49083,48.5061489,35.0737075
23,Калинова вулиця,49026,48.5122239,35.0695841
71,Слобожанський проспект,49083,48.5081251,35.0725738
119,Слобожанський проспект,49074,48.5212574,35.0799104
4,вулиця Юлії Залюбовської,49026,48.5096828,35.0708257
24,Калинова вулиця,49026,48.5125039,35.0711692
21,вулиця Юлії Залюбовської,49026,48.5141565,35.0721771
15,вулиця Юлії Залюбовської,49026,48.5129169,35.0715432
19,вулиця Юлії Залюбовської,49026,48.5138309,35.0717111
77,Слобожанський проспект,49083,48.5090418,35.0729569
29,Артеківська вулиця,49026,48.5136396,35.0743608
14,вулиця Юлії Залюбовської,49026,48.5109367,35.0713035
33,Решетилівська вулиця,49026,48.5137377,35.0693610
12,вулиця Галини Мазепи,49026,48.5147669,35.0734786
8,вулиця Галини Мазепи,49026,48.5152189,35.0743770
6,вулиця Юлії Залюбовської,49026,48.5101378,35.0709747
20,Решетилівська вулиця,49026,48.5141664,35.0704144
17,вулиця Юлії Залюбовської,49026,48.5134331,35.0718697
2,вулиця Олександра Олеся,49026,48.5139187,35.0683588
4,вулиця Олександра Олеся,49026,48.5147310,35.0685371
127,Слобожанський проспект,49074,48.5241315,35.0809752
11,Дівоча вулиця,49026,48.5111929,35.0727320
1-А,вулиця Генерала Безручка,49017,48.4633338,34.9851100
2-А,вулиця Олександра Кошиця,49064,48.4712531,34.9893345
2,вулиця Олександра Кошиця,49064,48.4700354,34.9885679
3,вулиця Олександрова,49064,48.4702341,34.9878074
1-А,вулиця Олександра Кошиця,49064,48.4696182,34.9894441
61,вулиця Галини Мазепи,49087,48.5164085,35.0581988
57,вулиця Галини Мазепи,49087,48.5156999,35.0610150
84,вулиця Галини Мазепи,49087,48.5182460,35.0542615
82-А,Калинова вулиця,49087,48.5164710,35.0539781
81,Калинова вулиця,49087,48.5146204,35.0560992
59,вулиця Галини Мазепи,49087,48.5164362,35.0595022
76,вулиця Галини Мазепи,4987,48.5172748,35.0596834
81,вулиця Галини Мазепи,49087,48.5189532,35.0472025
98,Калинова вулиця,49087,48.5175252,35.0487113
71-А,вулиця Галини Мазепи,49087,48.5184435,35.0492895
89,Калинова вулиця,49087,48.5160510,35.0484687
74,вулиця Софії Ковалевської,49087,48.5172567,35.0606984
90,вулиця Галини Мазепи,49108,48.5208310,35.0524879
85,Калинова вулиця,49087,48.5157383,35.0494121
77,вулиця Галини Мазепи,49087,48.5184955,35.0477030
86,вулиця Галини Мазепи,49108,48.5205458,35.0540191
51,вулиця Галини Мазепи,49087,48.5157333,35.0617910
100,Калинова вулиця,49087,48.5179317,35.0480648
82,Калинова вулиця,49087,48.5173124,35.0541722
90,Калинова вулиця,49087,48.5173227,35.0524309
49,вулиця Галини Мазепи,49087,48.5157540,35.0631267
84,Калинова вулиця,49087,48.5160975,35.0531597
104,Калинова вулиця,49087,48.5176687,35.0463262
94,Калинова вулиця,49087,48.5167385,35.0508670
2,Кубинська вулиця,49108,48.5199439,35.0545934
1/3,Зразкова вулиця,49087,48.5178115,35.0551727
67,вулиця Галини Мазепи,49087,48.5180883,35.0531357
80,Калинова вулиця,49087,48.5169354,35.0559293
88,вулиця Галини Мазепи,49108,48.5206747,35.0532565
68,Калинова вулиця,49087,48.5150596,35.0623582
74,Калинова вулиця,49087,48.5152217,35.0582739
73,вулиця Галини Мазепи,49087,48.5188759,35.0502952
112,Калинова вулиця,49087,48.5181608,35.0474057
1/1,Зразкова вулиця,49087,48.5167916,35.0547050
80-А,Калинова вулиця,49087,48.5164946,35.0570940
88-А,Калинова вулиця,49087,48.5166558,35.0530372
82-Б,Калинова вулиця,49087,48.5159674,35.0541348
96,Калинова вулиця,49087,48.5171228,35.0498140
59-А,вулиця Галини Мазепи,49087,48.5157313,35.0587096
71-Б,вулиця Галини Мазепи,49087,48.5185841,35.0518900
79,вулиця Галини Мазепи,49087,48.5194433,35.0467462
100-А,Калинова вулиця,49087,48.5169884,35.0485237
55-А,вулиця Галини Мазепи,49087,48.5156980,35.0600932
66,Калинова вулиця,49087,48.5144855,35.0617915
108,Калинова вулиця,49087,48.5188419,35.0457425
74,вулиця Софії Ковалевської,49087,48.5175484,35.0603283
75,вулиця Галини Мазепи,49087,48.5191281,35.0485008
106,Калинова вулиця,49087,48.5184108,35.0457431
38,Янтарна вулиця,49024,48.5136206,35.0459075
88,Калинова вулиця,49087,48.5173292,35.0531582
102,Калинова вулиця,49087,48.5172331,35.0471908
53-А,вулиця Галини Мазепи,49087,48.5168810,35.0621926
2,вулиця Богдана Хмельницького,49051,48.5053575,35.0753364
3,вулиця Юлії Залюбовської,49026,48.5098179,35.0701437
15-А,Каштанова вулиця,49051,48.5021488,35.0801121
1,вулиця Юлії Залюбовської,49026,48.5093587,35.0700516
2,вулиця Юлії Залюбовської,49026,48.5092465,35.0707082
15,Каштанова вулиця,49051,48.5023046,35.0792716
30,вулиця Василя Мазова,49019,48.4812476,34.9894843
36-А,вулиця Олександра Данченка,49127,48.4150942,35.1269455
40,вулиця Олександра Данченка,49127,48.4157082,35.1269178
49,вулиця Кирила Осьмака,49127,48.4178995,35.1298304
39,вулиця Кирила Осьмака,49127,48.4154768,35.1308279
49-А,вулиця Кирила Осьмака,49127,48.4178046,35.1313105
50,вулиця Олександра Данченка,49127,48.4177028,35.1248577
41,Яскрава вулиця,49051,48.5130113,35.0798339
11,Магдалинівська вулиця,49074,48.5249448,35.0865807
70-Б,Слобожанський проспект,49051,48.5139533,35.0792757
35,Яскрава вулиця,49051,48.5123722,35.0801327
31-А,Яскрава вулиця,49051,48.5118674,35.0792784
18,Яскрава вулиця,49051,48.5120003,35.0815042
20-А,Батумська вулиця,49051,48.5139477,35.0823686
40,вулиця Данила Галицького,49102,48.4600418,34.9381729
8,вулиця Данила Галицького,49102,48.4634495,34.9432618
17,вулиця Данила Галицького,49102,48.4617006,34.9411499
19,вулиця Данила Галицького,49102,48.4612902,34.9407197
13,Воскресенська вулиця,49000,48.4671529,35.0425494
4-Б,Воскресенська вулиця,49000,48.4691092,35.0431033
10,Воскресенська вулиця,49000,48.4676534,35.0420519
4-А,Воскресенська вулиця,49000,48.4688862,35.0429466
4,Воскресенська вулиця,49000,48.4693559,35.0431365
29,Воскресенська вулиця,49000,48.4629634,35.0375439
43-Б,Старокозацька вулиця,49000,48.4641817,35.0370384
29,Воскресенська вулиця,49000,48.4631062,35.0376328
27,Воскресенська вулиця,49000,48.4633306,35.0378946
25,Воскресенська вулиця,49000,48.4636616,35.0382954
33,Воскресенська вулиця,49000,48.4624837,35.0369812
27,Воскресенська вулиця,49000,48.4629915,35.0382124
47,Старокозацька вулиця,49000,48.4646357,35.0361970
29,Воскресенська вулиця,49000,48.4626623,35.0380649
36-К,Воскресенська вулиця,49000,48.4637939,35.0369515
29,Старокозацька вулиця,49000,48.4629070,35.0396796
45-В,Старокозацька вулиця,49000,48.4644757,35.0367984
23,Воскресенська вулиця,49000,48.4638288,35.0385623
1,Троїцька вулиця,49000,48.4626669,35.0442970
18-А,Троїцька вулиця,49000,48.4610193,35.0414100
11,Троїцька вулиця,49000,48.4608779,35.0418793
20,Троїцька вулиця,49000,48.4604917,35.0407529
11,Старокозацька вулиця,49000,48.4609219,35.0440067
12,вулиця Михайла Грушевського,49000,48.4598015,35.0428129
20,Троїцька вулиця,49000,48.4605905,35.0405166
16,вулиця Святослава Хороброго,49000,48.4599932,35.0418448
14,Троїцька вулиця,49000,48.4613756,35.0418097
17,Троїцька вулиця,49000,48.4605674,35.0415290
14,вулиця Святослава Хороброго,49000,48.4597179,35.0421256
12,вулиця Михайла Грушевського,49000,48.4595667,35.0423622
18,вулиця Святослава Хороброго,49000,48.4607539,35.0403162
12,вулиця Святослава Хороброго,49000,48.4597520,35.0423725
14,Троїцька вулиця,49000,48.4613875,35.0415707
18,Троїцька вулиця,49000,48.4609147,35.0412478
20/1,вулиця Святослава Хороброго,49000,48.4607963,35.0401107
6,вулиця Михайла Грушевського,49000,48.4604669,35.0436594
14,Троїцька вулиця,49000,48.4614675,35.0414025
5,Троїцька вулиця,49000,48.4611196,35.0427966
15,Троїцька вулиця,49000,48.4606770,35.0416827
14,Троїцька вулиця,49000,48.4616433,35.0415462
12,вулиця Михайла Грушевського,49000,48.4599407,35.0425960
20,Троїцька вулиця,49000,48.4607290,35.0410244
15,Старокозацька вулиця,49000,48.4613539,35.0433399
11,Старокозацька вулиця,49000,48.4609283,35.0435931
10,Троїцька вулиця,49000,48.4618461,35.0423845
11,Троїцька вулиця,49000,48.4607479,35.0421362
8,Виконкомівська вулиця,49044,48.4599508,35.0484463
7,Виконкомівська вулиця,49044,48.4601130,35.0493089
8,Південна вулиця,49044,48.4588463,35.0488493
11,Південна вулиця,49044,48.4585276,35.0493194
2,Південна вулиця,49044,48.4596746,35.0493016
10,Виконкомівська вулиця,49044,48.4602140,35.0480191
12,Виконкомівська вулиця,49044,48.4596791,35.0481702
13,Виконкомівська вулиця,49044,48.4591242,35.0483072
9-А,Європейська вулиця,49100,48.4680276,35.0481551
24,Фестивальний провулок,49130,48.5292378,35.0267140
20,Фестивальний провулок,49130,48.5294550,35.0246547
11,вулиця Миколи Міхновського,49130,48.5272821,35.0254064
17,вулиця Миколи Міхновського,49130,48.5275019,35.0262869
22,Фестивальний провулок,49130,48.5293325,35.0257036
7,вулиця Миколи Міхновського,49130,48.5273574,35.0244450
5,вулиця Миколи Міхновського,49130,48.5269637,35.0244810
19,вулиця Миколи Міхновського,49130,48.5278462,35.0262422
4-А,проспект Миру,49130,48.5284021,35.0227320
5,Вільний провулок,49130,48.5319569,35.0197795
4,Вільний провулок,49130,48.5296041,35.0192828
6,проспект Миру,49130,48.5278049,35.0211159
9,вулиця Миколи Міхновського,49130,48.5281274,35.0238517
43,Березинська вулиця,49130,48.5334392,35.0207231
1,Фестивальний провулок,49130,48.5293181,35.0207251
7,Вільний провулок,49130,48.5320712,35.0202501
4,Вільний провулок,49130,48.5297464,35.0184831
2,вулиця Юрія Магалевського,49130,48.5313711,35.0160577
12,Фестивальний провулок,49130,48.5293652,35.0232271
4,Вільний провулок,49130,48.5302747,35.0182915
35,Березинська вулиця,49130,48.5310202,35.0215676
3,Вільний провулок,49130,48.5316474,35.0189453
4,Фестивальний провулок,49130,48.5283871,35.0216614
14,Фестивальний провулок,49130,48.5299112,35.0228417
16,Фестивальний провулок,49130,48.5302219,35.0230100
41,Березинська вулиця,49130,48.5327866,35.0214065
4,Вільний провулок,49130,48.5305288,35.0187948
2,Фестивальний провулок,49130,48.5282830,35.0206529
39,Березинська вулиця,49130,48.5321584,35.0209904
4,вулиця Юрія Магалевського,49130,48.5318200,35.0167402
4,проспект Миру,49130,48.5277029,35.0231574
18,Фестивальний провулок,49130,48.5297271,35.0237238
43,Березинська вулиця,49130,48.5334261,35.0212753
6,Вільний провулок,49130,48.5306285,35.0197187
41,Березинська вулиця,49130,48.5327977,35.0208609
39,Березинська вулиця,49130,48.5321535,35.0215283
33,Березинська вулиця,49130,48.5306278,35.0221366
6,вулиця Юрія Магалевського,49130,48.5322175,35.0173146
6,Вільний провулок,49130,48.5301877,35.0196046
45,Березинська вулиця,49130,48.5340215,35.0201208
37,Березинська вулиця,49130,48.5314173,35.0209648
51,проспект Миру,49130,48.5283366,35.0150438
89,проспект Миру,49130,48.5307710,35.0103192
59,проспект Миру,49130,48.5290073,35.0140329
9,вулиця Юрія Липи,49130,48.5245631,35.0206801
73,проспект Миру,49130,48.5297303,35.0127523
99,Донецьке шосе,49130,48.5234951,35.0197802
109,Донецьке шосе,49130,48.5235348,35.0221083
21,проспект Миру,49130,48.5264639,35.0178375
15,вулиця Юрія Липи,49130,48.5239173,35.0207769
113,Донецьке шосе,49130,48.5242312,35.0229492
81,проспект Миру,49130,48.5308199,35.0121052
47,проспект Миру,49130,48.5279519,35.0156292
11,вулиця Юрія Липи,49130,48.5242908,35.0214292
91,проспект Миру,49130,48.5312483,35.0104253
75,проспект Миру,49130,48.5302692,35.0132490
119,Донецьке шосе,49130,48.5243414,35.0241239
83,проспект Миру,49130,48.5305546,35.0111680
93,проспект Миру,49130,48.5304985,35.0090434
121-А,Донецьке шосе,49130,48.5239069,35.0245208
17,проспект Миру,49130,48.5260610,35.0184618
49,проспект Миру,49130,48.5285726,35.0163097
63,проспект Миру,49130,48.5296963,35.0143874
1,вулиця Юрія Липи,49130,48.5254128,35.0217607
37,проспект Миру,49130,48.5275578,35.0162249
31,проспект Миру,49130,48.5271581,35.0168027
87,проспект Миру,49130,48.5310173,35.0112800
3,вулиця Юрія Липи,49130,48.5252399,35.0223870
77,проспект Миру,49130,48.5303524,35.0120179
7,вулиця Юрія Липи,49130,48.5248098,35.0218467
115,Донецьке шосе,49130,48.5245804,35.0233668
65,проспект Миру,49130,48.5293986,35.0134352
5,проспект Миру,49130,48.5253393,35.0198268
19,проспект Миру,49130,48.5268550,35.0187690
107,Донецьке шосе,49130,48.5231826,35.0216810
13,проспект Миру,49130,48.5256847,35.0191248
71,проспект Миру,49130,48.5303002,35.0137764
43,проспект Миру,49130,48.5281674,35.0168212
111,Донецьке шосе,49130,48.5238837,35.0225273
121,Донецьке шосе,49130,48.5234007,35.0232984
55,проспект Миру,49130,48.5289571,35.0156401
13,вулиця Юрія Липи,49130,48.5241307,35.0201521
5,вулиця Юрія Липи,49130,48.5249939,35.0212119
21,вулиця Юрія Липи,49130,48.5230501,35.0189635
25,вулиця Юрія Липи,49130,48.5235803,35.0180701
23,вулиця Юрія Липи,49130,48.5233777,35.0185710
19,вулиця Юрія Липи,49130,48.5225637,35.0192754
33,проспект Миру,49130,48.5274789,35.0177707
14-А,проспект Миру,49130,48.5298284,35.0173130
29,вулиця Миколи Міхновського,49130,48.5285936,35.0243207
10,вулиця Юрія Магалевського,49130,48.5328527,35.0190638
1,Вільний провулок,49130,48.5313009,35.0182316
9,Фестивальний провулок,49130,48.5305084,35.0207930
18,Березинська вулиця,49125,48.5246320,35.0380455
200,вулиця Петра Полтави,49125,48.5197818,35.0224991
204,вулиця Петра Полтави,49125,48.5201811,35.0223357
36,Березинська вулиця,49125,48.5259424,35.0362958
16,Терещенківська вулиця,49125,48.5219342,35.0307284
198,вулиця Петра Полтави,49125,48.5194543,35.0225424
12,Терещенківська вулиця,49125,48.5216344,35.0315600
1,провулок Крушельницької,49125,48.5221428,35.0337399
10,Терещенківська вулиця,49125,48.5213866,35.0329247
26,Терещенківська вулиця,49125,48.5223747,35.0282235
14,Березинська вулиця,49125,48.5247741,35.0394530
108,Донецьке шосе,49125,48.5211712,35.0253226
22,Терещенківська вулиця,49125,48.5220768,35.0290938
12,Березинська вулиця,49125,48.5250901,35.0399976
24,Терещенківська вулиця,49125,48.5225277,35.0290143
116,Донецьке шосе,49125,48.5235530,35.0286858
23,Березинська вулиця,49125,48.5244578,35.0334017
124,Донецьке шосе,49125,48.5245070,35.0311638
20,Терещенківська вулиця,49125,48.5222297,35.0298845
4,провулок Крушельницької,49125,48.5240263,35.0338126
25,Березинська вулиця,49125,48.5245654,35.0328145
6,провулок Крушельницької,49125,48.5233941,35.0343711
27,Березинська вулиця,49125,48.5246727,35.0322449
32,Березинська вулиця,49125,48.5262758,35.0370649
8,провулок Крушельницької,49125,48.5234234,35.0330347
24,Березинська вулиця,49125,48.5253302,35.0354725
23,Терещенківська вулиця,49125,48.5207495,35.0283321
2,провулок Крушельницької,49125,48.5242128,35.0348971
202,вулиця Петра Полтави,49125,48.5201404,35.0228750
40,Березинська вулиця,49125,48.5255736,35.0361220
18,Терещенківська вулиця,49125,48.5217811,35.0299376
34,Березинська вулиця,49125,48.5258617,35.0368524
14,Терещенківська вулиця,49125,48.5214814,35.0307693
73,Янтарна вулиця,49108,48.5267870,35.0426391
71,Янтарна вулиця,49108,48.5260546,35.0406095
81,Янтарна вулиця,49108,48.5276394,35.0435268
71,Янтарна вулиця,49108,48.5257738,35.0427286
79,Янтарна вулиця,49108,48.5284740,35.0448260
78,Старочумацька вулиця,49108,48.5254039,35.0467830
75а к1,Янтарна вулиця,49108,48.5262186,35.0474945
1/2,Зразкова вулиця,49087,48.5172977,35.0549436
73-А,Янтарна вулиця,49108,48.5274240,35.0421407
83к3,Калинова вулиця,49087,48.5139704,35.0550604
64,Калинова вулиця,49087,48.5148038,35.0631781
83к4,Калинова вулиця,49087,48.5143114,35.0547950
78,Калинова вулиця,49087,48.5155766,35.0560542
75,Калинова вулиця,49087,48.5142413,35.0569906
76,Калинова вулиця,49087,48.5153592,35.0572118
83к2,Калинова вулиця,49087,48.5137668,35.0556046
83к1,Калинова вулиця,49087,48.5135632,35.0561584
2-Д,Воскресенська вулиця,49000,48.4710400,35.0433630
178,Робоча вулиця,49047,48.4392189,34.9954674
176,Робоча вулиця,49047,48.4399565,34.9959939
97,Робоча вулиця,49047,48.4396868,34.9970936
11,вулиця Павла Чубинського,49047,48.4402542,34.9987246
99-А,Робоча вулиця,49047,48.4390417,34.9972521
64-А,вулиця Братів Горобців,49047,48.4391374,34.9987779
13-А,вулиця Павла Чубинського,49047,48.4401293,34.9983329
66,вулиця Братів Горобців,49047,48.4389173,34.9992255
12-А,Криворізька вулиця,49047,48.4387440,34.9985691
12,Криворізька вулиця,49047,48.4382572,34.9986068
99,Робоча вулиця,49047,48.4389406,34.9967648
97-А,Робоча вулиця,49047,48.4393847,34.9976614
95,Робоча вулиця,49047,48.4403682,34.9974887
13,вулиця Павла Чубинського,49047,48.4403853,34.9981607
9,вулиця Павла Чубинського,49047,48.4400937,34.9993647
97-Б,Робоча вулиця,49047,48.4392889,34.9982060
62-А,вулиця Братів Горобців,49047,48.4397172,34.9987550
7,вулиця Павла Чубинського,49047,48.4399793,34.9998297
14,Криворізька вулиця,49047,48.4384843,34.9976758
14-А,Криворізька вулиця,49047,48.4390443,34.9979823
6-А,вулиця Павла Чубинського,49047,48.4412165,34.9992681
91-А,Робоча вулиця,49047,48.4424257,34.9995380
4,вулиця Павла Чубинського,49047,48.4404102,34.9995134
8,вулиця Павла Чубинського,49047,48.4406952,34.9983214
91,Робоча вулиця,49047,48.4420934,34.9983683
4-А,вулиця Павла Чубинського,49047,48.4408233,34.9994703
3-А,Театральна вулиця,49047,48.4430040,35.0005286
1,Театральна вулиця,49047,48.4431048,35.0014882
3,Театральна вулиця,49047,48.4432873,35.0006757
54,вулиця Братів Горобців,49047,48.4418867,35.0000412
5-А,Театральна вулиця,49047,48.4427108,35.0000851
89,Робоча вулиця,49047,48.4433472,34.9990493
5,Театральна вулиця,49047,48.4434145,34.9999684
91,Робоча вулиця,49047,48.4419056,34.9983596
1-А,Театральна вулиця,49047,48.4431699,35.0012021
56-А,вулиця Братів Горобців,49047,48.4414751,34.9997995
52,вулиця Братів Горобців,49047,48.4421335,35.0009811
58,вулиця Братів Горобців,49047,48.4413016,35.0005404
48,вулиця Братів Горобців,49047,48.4427887,35.0013336
93-А,Робоча вулиця,49047,48.4413872,34.9985680
6,вулиця Павла Чубинського,49047,48.4405507,34.9989128
91,Робоча вулиця,49047,48.4423971,34.9985235
91-Б,Робоча вулиця,49047,48.4416569,34.9991177
50,вулиця Братів Горобців,49047,48.4425046,35.0009486
91,Робоча вулиця,49047,48.4422386,34.9984600
2,вулиця Павла Чубинського,49047,48.4403286,35.0000031
60,вулиця Братів Горобців,49047,48.4406448,35.0001884
58,вулиця Братів Горобців,49047,48.4410173,35.0001881
52-А,вулиця Братів Горобців,49047,48.4423059,35.0002352
91,Робоча вулиця,49047,48.4425969,34.9987707
89-А,Робоча вулиця,49047,48.4428607,34.9993940
87,Робоча вулиця,49008,48.4441805,34.9995229
79,Робоча вулиця,49008,48.4472329,35.0009771
4-А,Театральна вулиця,49008,48.4441265,35.0006293
44-А,вулиця Братів Горобців,49008,48.4442026,35.0014333
6,Театральна вулиця,49008,48.4437528,35.0002408
85,Робоча вулиця,49008,48.4448865,35.0000768
2,Театральна вулиця,49008,48.4434884,35.0013795
81,Робоча вулиця,49008,48.4465312,35.0007200
2,Театральна вулиця,49008,48.4434531,35.0016806
83,Робоча вулиця,49008,48.4456504,35.0004101
46,вулиця Братів Горобців,49008,48.4437401,35.0018431
44,вулиця Братів Горобців,49008,48.4440506,35.0020076
166,Робоча вулиця,49008,48.4453070,34.9985129
164-А,Робоча вулиця,49008,48.4466899,34.9977737
164,Робоча вулиця,49008,48.4467502,34.9994973
46,вулиця Чиркова,49008,48.4463392,34.9971431
162,Робоча вулиця,49008,48.4474109,35.0001163
84,Робоча вулиця,49008,48.4547382,35.0039022
2-А,проспект Богдана Хмельницького,49069,48.4475269,35.0276462
2,проспект Богдана Хмельницького,49069,48.4473094,35.0278091
1,вулиця Гавриленка,49055,48.4377624,35.0157529
2-Б,Новокримська вулиця,49055,48.4290089,35.0077589
4-А,Новокримська вулиця,49055,48.4283404,35.0081485
7,вулиця Академіка Янгеля,49055,48.4277180,35.0071471
3,Мостова вулиця,49038,48.4746121,35.0273678
24,Правобережна вулиця,49102,48.4629044,34.9452953
18,Правобережна вулиця,49102,48.4623679,34.9451439
3,Електрозварна вулиця,49102,48.4622173,34.9474666
28,Правобережна вулиця,49102,48.4632620,34.9453994
7,Електрозварна вулиця,49102,48.4624809,34.9475422
11,Правобережна вулиця,49102,48.4633153,34.9450114
32,Правобережна вулиця,49102,48.4636072,34.9455199
12,Щербаківська вулиця,49102,48.4633894,34.9473435
11,Електрозварна вулиця,49102,48.4629439,34.9476766
15,Правобережна вулиця,49102,48.4636526,34.9451225
2,Щербаківська вулиця,49102,48.4623077,34.9470445
8,Щербаківська вулиця,49102,48.4630193,34.9472452
12,вулиця Шаляпіна,49102,48.4633292,34.9463200
13,Щербаківська вулиця,49102,48.4634432,34.9469728
4,Щербаківська вулиця,49102,48.4624909,34.9470729
3,вулиця Шаляпіна,49102,48.4624871,34.9456926
3,Щербаківська вулиця,49102,48.4623574,34.9466712
9,Щербаківська вулиця,49102,48.4630914,34.9468783
8,вулиця Шаляпіна,49102,48.4628074,34.9461584
7,вулиця Шаляпіна,49102,48.4628322,34.9457967
2,вулиця Шаляпіна,49102,48.4622280,34.9460062
5,Щербаківська вулиця,49102,48.4625357,34.9467233
17,вулиця Шаляпіна,49102,48.4637185,34.9460428
11,вулиця Шаляпіна,49102,48.4631836,34.9458819
6,вулиця Шаляпіна,49102,48.4626111,34.9461249
22,Правобережна вулиця,49102,48.4627208,34.9452361
16,Правобережна вулиця,49102,48.4625798,34.9448041
1,Електрозварна вулиця,49102,48.4620855,34.9474307
26,Правобережна вулиця,49102,48.4630660,34.9453520
20,Правобережна вулиця,49102,48.4625436,34.9451840
5,Електрозварна вулиця,49102,48.4623416,34.9474912
9,Правобережна вулиця,49102,48.4631365,34.9449262
30,Правобережна вулиця,49102,48.4634205,34.9454585
14,Щербаківська вулиця,49102,48.4635840,34.9473946
9,Електрозварна вулиця,49102,48.4626139,34.9475631
13,Правобережна вулиця,49102,48.4634691,34.9450776
34,Правобережна вулиця,49102,48.4637891,34.9455483
10,Щербаківська вулиця,49102,48.4631962,34.9472982
13,Електрозварна вулиця,49102,48.4630832,34.9477201
10,вулиця Шаляпіна,49102,48.4631155,34.9462654
15,Щербаківська вулиця,49102,48.4636014,34.9470285
6,Щербаківська вулиця,49102,48.4626930,34.9471240
1,вулиця Шаляпіна,49102,48.4623051,34.9456477
14,вулиця Шаляпіна,49102,48.4635107,34.9463781
11,Щербаківська вулиця,49102,48.4632464,34.9469389
5,вулиця Шаляпіна,49102,48.4626487,34.9457376
1,Щербаківська вулиця,49102,48.4621895,34.9466276
16,вулиця Шаляпіна,49102,48.4636871,34.9464378
7,Щербаківська вулиця,49102,48.4627196,34.9467717
15,вулиця Шаляпіна,49102,48.4635475,34.9459931
9,вулиця Шаляпіна,49102,48.4630142,34.9458346
4,вулиця Шаляпіна,49102,48.4624272,34.9460729
12,Правобережна вулиця,49102,48.4624016,34.9447224
13,вулиця Шаляпіна,49102,48.4633702,34.9459315
12-А,Виконкомівська вулиця,49044,48.4595791,35.0479176
11,Виконкомівська вулиця,49044,48.4594013,35.0483862
2-Б,Південна вулиця,49044,48.4594991,35.0491474
3,Повітрофлотська вулиця,49017,48.4637741,34.9760884
60,вулиця Олександра Кошиця,49017,48.4622611,34.9744045
27,Воскресенська вулиця,49000,48.4630944,35.0379252
38,Воскресенська вулиця,49000,48.4632624,35.0365061
46,Воскресенська вулиця,49000,48.4613606,35.0349023
31-А,Воскресенська вулиця,49000,48.4627576,35.0375755
44,Воскресенська вулиця,49000,48.4617848,35.0353999
45-Б,Старокозацька вулиця,49000,48.4646477,35.0368833
40,Воскресенська вулиця,49000,48.4630746,35.0365619
33,Воскресенська вулиця,49000,48.4627499,35.0372205
31,Воскресенська вулиця,49000,48.4628845,35.0373796
33,Воскресенська вулиця,49000,48.4626380,35.0370895
44-А,Воскресенська вулиця,49000,48.4619229,35.0346216
29,Воскресенська вулиця,49000,48.4628474,35.0377563
19а,Троїцька вулиця,49000,48.4603949,35.0413279
14,вулиця Святослава Хороброго,49000,48.4599196,35.0423955
39,Воскресенська вулиця,49000,48.4613554,35.0357044
18,Виконкомівська вулиця,49044,48.4582786,35.0469451
6,вулиця Михайла Грушевського,49000,48.4607890,35.0435762
41,Воскресенська вулиця,49000,48.4610022,35.0352120
31,Старокозацька вулиця,49000,48.4629581,35.0394323
4-А,Південний провулок,49044,48.4580658,35.0483604
13-А,вулиця Мусліма Магомаєва,49009,48.4574950,35.0716485
10,вулиця Мусліма Магомаєва,49009,48.4568429,35.0708639
19,вулиця Мусліма Магомаєва,49009,48.4568461,35.0714631
15,вулиця Мусліма Магомаєва,49009,48.4572653,35.0714323
13,вулиця Мусліма Магомаєва,49009,48.4574304,35.0713243
68,вулиця Олександра Данченка,49127,48.4197891,35.1254507
20-Д,вулиця Олександра Данченка,49127,48.4116153,35.1255537
63,Запорізьке шосе,49041,48.4002383,35.0394811
7,вулиця Алана Шепарда,49089,48.4301715,35.0030804
5,Донецьке шосе,49080,48.5109633,34.9888763
12,Донецьке шосе,49080,48.5093136,34.9926146
4,вулиця Зиновія Матли,49080,48.5082431,34.9913533
8,Донецьке шосе,49080,48.5094199,34.9917161
4,вулиця Вадима Жукова,49080,48.5128010,34.9897392
10,Донецьке шосе,49080,48.5089691,34.9924242
29-А,вулиця Степана Рудницького,49080,48.5012216,34.9915592
29-Б,вулиця Степана Рудницького,49080,48.5013991,34.9902266
8,вулиця Вадима Жукова,49080,48.5126765,34.9905353
2-А,вулиця Старих Каменів,49080,48.5102167,34.9871979
15,вулиця Степана Рудницького,49080,48.5065226,34.9884736
39,вулиця Степана Рудницького,49080,48.4999579,34.9924175
1-Б,проспект Миру,49130,48.5248527,35.0227899
3-Б,проспект Миру,49130,48.5249788,35.0232020
105,Донецьке шосе,49130,48.5227771,35.0217246
3,вулиця Миколи Міхновського,49130,48.5267170,35.0239847
8,вулиця Миколи Міхновського,49130,48.5263558,35.0256777
7,проспект Миру,49130,48.5262378,35.0204830
3,проспект Миру,49130,48.5258136,35.0205985
11,проспект Миру,49130,48.5264118,35.0198324
16,проспект Миру,49130,48.5302691,35.0166272
72-А,Березинська вулиця,49125,48.5356420,35.0199568
24-А,Березинська вулиця,49130,48.5365532,35.0182915
90,проспект Науки,49107,48.4273299,35.0330226
92,проспект Науки,49107,48.4269651,35.0319961
2-Б,проспект Миру,49130,48.5273808,35.0217815
75-А,проспект Миру,49130,48.5307559,35.0131323
75-А,проспект Миру,49130,48.5307095,35.0132282
10,Фестивальний провулок,49130,48.5297624,35.0223347
84,вулиця Любарського,49098,48.4816386,35.0757741
10/3,Слобожанський проспект,49081,48.4910126,35.0682191
14-Б,Слобожанський проспект,49081,48.4919601,35.0678960
8/1,Слобожанський проспект,49081,48.4902179,35.0674337
1,Бердянська вулиця,49081,48.4874022,35.0658319
12,Слобожанський проспект,49081,48.4914635,35.0666220
8/4,Слобожанський проспект,49081,48.4906400,35.0688059
18,Слобожанський проспект,49081,48.4919325,35.0688414
14,Слобожанський проспект,49081,48.4915439,35.0676218
8/3,Слобожанський проспект,49081,48.4904493,35.0680709
10,Слобожанський проспект,49081,48.4908013,35.0661933
10/1,Слобожанський проспект,49081,48.4909422,35.0669149
10/2,Слобожанський проспект,49081,48.4909733,35.0675636
8/2,Слобожанський проспект,49081,48.4903327,35.0677523
12,вулиця Івана Нечуя-Левицького,49081,48.4969871,35.0651423
4,вулиця Івана Нечуя-Левицького,49081,48.4956923,35.0666998
8,вулиця Івана Нечуя-Левицького,49081,48.4963529,35.0658721
211,Луговська вулиця,49081,48.4914663,35.0610432
10,вулиця Івана Нечуя-Левицького,49081,48.4966391,35.0655271
2,вулиця Івана Нечуя-Левицького,49081,48.4952226,35.0672813
1,вулиця Івана Нечуя-Левицького,49081,48.4948020,35.0664528
6,вулиця Івана Нечуя-Левицького,49081,48.4960344,35.0663221
1,Мануйлівський проспект,49023,48.4967141,35.0377707
3,Мануйлівський проспект,49023,48.4958900,35.0390290
9,Мануйлівський проспект,49023,48.4948969,35.0419330
7,Мануйлівський проспект,49023,48.4949277,35.0411478
9,Мануйлівський проспект,49023,48.4945270,35.0420594
5,Мануйлівський проспект,49023,48.4953744,35.0400508
25,Мануйлівський проспект,49023,48.4925374,35.0468649
16,вулиця Радистів,49023,48.4944579,35.0446139
13,Мануйлівський проспект,49023,48.4942047,35.0435975
3,вулиця Радистів,49023,48.4966426,35.0402208
1,Маріупольська вулиця,49023,48.4938820,35.0451760
19,Мануйлівський проспект,49023,48.4934235,35.0449651
11,Мануйлівський проспект,49023,48.4942241,35.0427549
23,Мануйлівський проспект,49023,48.4927930,35.0463592
3,Маріупольська вулиця,49023,48.4939947,35.0457212
5-А,вулиця Радистів,49023,48.4959189,35.0421176
12,вулиця Радистів,49023,48.4947530,35.0439608
17,Мануйлівський проспект,49023,48.4939515,35.0443974
14,вулиця Радистів,49023,48.4943295,35.0444690
21,Мануйлівський проспект,49023,48.4930474,35.0458507
10,вулиця Радистів,49023,48.4950018,35.0430483
127,Новгородська вулиця,49043,48.4953156,35.1589117
124,Новаторська вулиця,49043,48.4953330,35.1579653
115,Новаторська вулиця,49043,48.4951844,35.1575766
108,Кадрова вулиця,49043,48.4954690,35.1567347
4,Столярна вулиця,49043,48.4952825,35.1572175
98,Новгородська вулиця,49043,48.4947970,35.1591004
110,Кадрова вулиця,49043,48.4956412,35.1568381
125,Новгородська вулиця,49043,48.4951893,35.1588437
104,Новгородська вулиця,49043,48.4952074,35.1593310
119,Новаторська вулиця,49043,48.4954617,35.1577092
126,Новаторська вулиця,49043,48.4954645,35.1580412
128,Новаторська вулиця,49043,48.4955162,35.1581606
123,Новгородська вулиця,49043,48.4949227,35.1587107
100,Новгородська вулиця,49043,48.4949029,35.1591784
117,Новаторська вулиця,49043,48.4953779,35.1576460
2,Столярна вулиця,49043,48.4950372,35.1584627
1,Аграрна вулиця,49043,48.4924717,35.1516130
11,Памірська вулиця,49043,48.4950541,35.1464346
5,Фестивальний провулок,49130,48.5298364,35.0217392
38,Семафорна вулиця,49124,48.4910854,35.1386538
48,Семафорна вулиця,49124,48.4927065,35.1384479
46,Семафорна вулиця,49124,48.4922996,35.1388382
40,Семафорна вулиця,49124,48.4915667,35.1394857
34,Семафорна вулиця,49124,48.4914220,35.1370729
42,Семафорна вулиця,49124,48.4919264,35.1382020
40,Семафорна вулиця,49124,48.4909208,35.1394258
50,Семафорна вулиця,49124,48.4925174,35.1378456
36,Семафорна вулиця,49124,48.4912555,35.1378342
32,Семафорна вулиця,49124,48.4916128,35.1363195
52,Семафорна вулиця,49124,48.4929135,35.1374997
8,Путейська вулиця,49124,48.4872233,35.1390371
69-А,вулиця Добробатів,49124,48.4866191,35.1391534
4,Путейська вулиця,49124,48.4868321,35.1390404
6,Путейська вулиця,49124,48.4870177,35.1390277
7,Синельниківський провулок,49124,48.4873755,35.1392699
9,Калинова вулиця,49051,48.5099201,35.0798856
32,Батумська вулиця,49051,48.5149628,35.0859801
7,Магдалинівська вулиця,49074,48.5255800,35.0863765
24,Артеківська вулиця,49026,48.5128805,35.0753801
3,вулиця Галини Мазепи,49026,48.5138350,35.0759135
21,Артеківська вулиця,49026,48.5124723,35.0746114
22-А,Калинова вулиця,49026,48.5123915,35.0719856
20,вулиця Юлії Залюбовської,49026,48.5128040,35.0721011
26,Артеківська вулиця,49026,48.5133958,35.0756069
20-А,вулиця Юлії Залюбовської,49026,48.5127076,35.0725390
19,Артеківська вулиця,49026,48.5120167,35.0744237
33-А,Решетилівська вулиця,49026,48.5147604,35.0694705
23,Дебальцівська вулиця,49051,48.5116235,35.0786109
28,Дебальцівська вулиця,49051,48.5124198,35.0793482
29,Дебальцівська вулиця,49051,48.5128436,35.0791246
70-Д,Слобожанський проспект,49051,48.5146242,35.0804076
37,Яскрава вулиця,49051,48.5123576,35.0796798
10,Калинова вулиця,49051,48.5110613,35.0789604
86-А,вулиця Галини Мазепи,49087,48.5190543,35.0535493
7-А,вулиця Квітки Цісик,49051,48.5101537,35.0885789
15,Каштанова вулиця,49051,48.5030178,35.0798698
11,Каштанова вулиця,49051,48.5029341,35.0771608
40-А,Слобожанський проспект,49051,48.5065290,35.0758999
17,Сімферопольська вулиця,49005,48.4489948,35.0678073
17,Сімферопольська вулиця,49005,48.4493912,35.0682135
17,Сімферопольська вулиця,49005,48.4493828,35.0676058
21,Сімферопольська вулиця,49005,48.4476255,35.0659783
1-А,провулок Феодосія Макаревського,49005,48.4556137,35.0733458
6,Філософська вулиця,49006,48.4716441,35.0201330
4/6,Філософська вулиця,49006,48.4711870,35.0198531
2,вулиця Вадима Жукова,49080,48.5120835,34.9875206
27,вулиця Макарова,49089,48.4288970,34.9982527
10,вулиця Алана Шепарда,49089,48.4310258,35.0022942
20-Д,вулиця Олександра Данченка,49127,48.4116180,35.1258918
67,вулиця Петра Яцика,49108,48.5254223,35.0569756
116,Калинова вулиця,49087,48.5193274,35.0457701
75-В,Старочумацька вулиця,49108,48.5252210,35.0472376
75а к2,Янтарна вулиця,49108,48.5261912,35.0479337
27-А,Березинська вулиця,49125,48.5248641,35.0321103
213-Б,Велика Діївська вулиця,49018,48.4741004,34.9076263
15-А,вулиця Алана Шепарда,49089,48.4277492,35.0032683
66,вулиця Семена Бардадима,49019,48.4859078,34.9524599
68-А,вулиця Семена Бардадима,49019,48.4860705,34.9525093
14-А,Слобожанський проспект,49081,48.4919821,35.0672281
28-А,Чорноліська вулиця,49035,48.4532138,34.9573951
89,вулиця Івана Кобзи,49035,48.4433952,34.9628235
32,вулиця Сергія Параджанова,50054,48.4533852,34.9716854
3,вулиця Івана Нечуя-Левицького,49081,48.4965209,35.0649449
82,Силова вулиця,49015,48.4489749,34.9812586
88-А,Ізюмська вулиця,49015,48.4480561,34.9817352
84,Ізюмська вулиця,49015,48.4482470,34.9820827
90,Силова вулиця,49015,48.4482284,34.9811835
86,Силова вулиця,49015,48.4486344,34.9812688
23,Шкільний тупик,49015,48.4479045,34.9814326
13,вулиця Макарова,49047,48.4406124,35.0040693
181,вулиця Михайла Комарова,49047,48.4436575,34.9959439
179,вулиця Михайла Комарова,49047,48.4437348,34.9958934
183,вулиця Михайла Комарова,49047,48.4435585,34.9958621
22-А,Криворізька вулиця,49047,48.4409646,34.9882447
33,Кріворізський тупик,49047,48.4414280,34.9874831
26,Криворізька вулиця,49047,48.4413228,34.9867385
28,вулиця Козака Мамая,49066,48.4012309,35.0063835
8,Інженерна вулиця,49066,48.4069934,35.0076577
30,вулиця Козака Мамая,49033,48.3999697,35.0052603
3-А,Новокримська вулиця,49055,48.4281160,35.0101527
69,вулиця Галини Мазепи,49087,48.5180218,35.0507921
71,вулиця Галини Мазепи,49087,48.5181512,35.0501180
74,Запорізьке шосе,49041,48.3941130,35.0391668
96,вулиця Алли Горської,49008,48.4513339,35.0007117
49,вулиця Богданова,49008,48.4579470,35.0031375
45/1,вулиця Богданова,49008,48.4582534,35.0032947
43,вулиця Богданова,49008,48.4586146,35.0034824
43-А,вулиця Богданова,49008,48.4588114,35.0036111
53,вулиця Богданова,49008,48.4576345,35.0029749
43-Б,вулиця Богданова,49008,48.4584025,35.0033755
101,вулиця Володимира Антоновича,49006,48.4672986,35.0084639
93,вулиця Володимира Антоновича,49006,48.4668734,35.0094131
3,Канатна вулиця,49006,48.4670416,35.0075713
95-Б,вулиця Володимира Антоновича,49006,48.4668858,35.0086273
103,вулиця Володимира Антоновича,49006,48.4673250,35.0081824
95,вулиця Володимира Антоновича,49006,48.4671220,35.0092400
89,вулиця Володимира Антоновича,49006,48.4669794,35.0098646
6-А,Робоча вулиця,49006,48.4664206,35.0100494
97,вулиця Володимира Антоновича,49006,48.4672281,35.0089143
2,Робоча вулиця,49006,48.4665447,35.0101643
1,Канатна вулиця,49006,48.4671922,35.0076178
8,Робоча вулиця,49006,48.4662171,35.0099521
99,вулиця Володимира Антоновича,49006,48.4672360,35.0086700
91,вулиця Володимира Антоновича,49006,48.4666846,35.0094808
95-А,вулиця Володимира Антоновича,49006,48.4669644,35.0090916
4-6,Робоча вулиця,49006,48.4666486,35.0099270
105,вулиця Володимира Антоновича,49006,48.4673066,35.0076357
8-Б,Робоча вулиця,49006,48.4662584,35.0095612
19,Робоча вулиця,49006,48.4635313,35.0096757
1,бульвар Кучеревського,49101,48.4633942,35.0324892
113,вулиця Динамо,49107,48.4279722,35.0232115
264,вулиця Юрія Кондратюка,49072,48.4619434,34.9134746
18,Квітуча вулиця,49072,48.4607311,34.9198836
61,вулиця Михайла Грушевського,49101,48.4529331,35.0353479
7,вулиця Сергія Подолинського,49054,48.4497858,35.0330970
79,вулиця Олександра Кониського,49029,48.4482143,35.0353432
34,Батарейна вулиця,49107,48.4279921,35.0297003
1,Слобідська вулиця,49069,48.4470199,35.0360201
65,вулиця Володимира Антоновича,49006,48.4638102,35.0147465
65,Ясенова вулиця,49020,48.4459487,34.8426933
70,Ріжкова вулиця,49020,48.4332594,34.7884150
2-А,Роблена вулиця,49020,48.4337102,34.7878965
2,Роблена вулиця,49020,48.4334520,34.7881417
2,вулиця Єфрейтора Пирогова,49020,48.4340847,34.7878691
4,Роблена вулиця,49020,48.4338352,34.7877570
9,вулиця Курака,49020,48.4360774,34.7885809
5,вулиця Курака,49020,48.4357351,34.7889479
12,Долинська вулиця,49020,48.4360487,34.7879559
15,вулиця Курака,49020,48.4365966,34.7880407
16,Долинська вулиця,49020,48.4363899,34.7876095
7,вулиця Курака,49020,48.4359039,34.7887766
13,вулиця Курака,49020,48.4364370,34.7882156
3,вулиця Курака,49020,48.4355800,34.7891470
1,вулиця Курака,49020,48.4353940,34.7893046
11,вулиця Курака,49020,48.4362498,34.7884009
4,Долинська вулиця,49020,48.4353320,34.7886986
2,Долинська вулиця,49020,48.4351619,34.7888856
8,Долинська вулиця,49020,48.4356972,34.7883351
14,Долинська вулиця,49020,48.4362072,34.7878122
10,Долинська вулиця,49020,48.4358638,34.7881411
6,Долинська вулиця,49020,48.4355180,34.7885098
11,Долинська вулиця,49020,48.4358935,34.7876189
5,Долинська вулиця,49020,48.4353647,34.7881797
9,Долинська вулиця,49020,48.4357173,34.7877977
1,Долинська вулиця,49020,48.4350033,34.7885445
15,Долинська вулиця,49020,48.4362485,34.7872480
7,Долинська вулиця,49020,48.4355443,34.7879899
3,Долинська вулиця,49020,48.4351877,34.7883633
13,Долинська вулиця,49020,48.4360738,34.7874341
48-А,Роблена вулиця,49020,48.4389725,34.7825414
57,Роблена вулиця,49020,48.4403699,34.7805185
8,вулиця Єфрейтора Пирогова,49020,48.4342047,34.7874194
5,вулиця Єфрейтора Пирогова,49020,48.4357857,34.7866194
64,Роблена вулиця,49020,48.4404595,34.7810610
11,Роблена вулиця,49020,48.4356808,34.7853775
38,Роблена вулиця,49020,48.4367989,34.7847900
19,вулиця Єфрейтора Пирогова,49020,48.4392231,34.7830326
13,Роблена вулиця,49020,48.4357955,34.7852591
1-А,провулок 8 Березня,49020,48.4348083,34.7862704
58,Роблена вулиця,49020,48.4399774,34.7815052
54,Роблена вулиця,49020,48.4395070,34.7819777
3,Роблена вулиця,49020,48.4349299,34.7861280
15,вулиця Єфрейтора Пирогова,49020,48.4373718,34.7848817
60,Роблена вулиця,49020,48.4401273,34.7813812
55,Роблена вулиця,49020,48.4401905,34.7808927
62,Роблена вулиця,49020,48.4402603,34.7812380
15,Роблена вулиця,49020,48.4359771,34.7850850
3,вулиця Єфрейтора Пирогова,49020,48.4347571,34.7876649
11,вулиця Єфрейтора Пирогова,49020,48.4366728,34.7856542
9,вулиця Єфрейтора Пирогова,49020,48.4361989,34.7860790
26,провулок 8 Березня,49020,48.4391630,34.7812185
50,Роблена вулиця,49020,48.4393130,34.7822599
28,провулок 8 Березня,49020,48.4397434,34.7806106
48,Роблена вулиця,49020,48.4387276,34.7828257
14,Роблена вулиця,49020,48.4350684,34.7865417
52,Роблена вулиця,49020,48.4394249,34.7821127
7,Роблена вулиця,49020,48.4352205,34.7858497
30,провулок 8 Березня,49020,48.4399457,34.7804941
7,вулиця Єфрейтора Пирогова,49020,48.4359550,34.7862997
46,Роблена вулиця,49020,48.4384866,34.7830061
25,вулиця Єфрейтора Пирогова,49020,48.4399959,34.7821366
9-А,Роблена вулиця,49020,48.4353732,34.7857094
32,провулок 8 Березня,49020,48.4403702,34.7802037
16,Роблена вулиця,49020,48.4352049,34.7863767
17,вулиця Єфрейтора Пирогова,49020,48.4387967,34.7834382
9,Роблена вулиця,49020,48.4354668,34.7856069
1,вулиця Єфрейтора Пирогова,49020,48.4344025,34.7877868
44-А,Роблена вулиця,49020,48.4376059,34.7841547
12,Роблена вулиця,49020,48.4349333,34.7866654
17,Роблена вулиця,49020,48.4361790,34.7849071
46,Роблена вулиця,49020,48.4378309,34.7840018
50-А,Роблена вулиця,49020,48.4392552,34.7826092
54,Роблена вулиця,49020,48.4396905,34.7818234
21-А,Роблена вулиця,49020,48.4362801,34.7848013
56,Роблена вулиця,49020,48.4398749,34.7816630
36,Роблена вулиця,49020,48.4367796,34.7851180
5,Роблена вулиця,49020,48.4351331,34.7859675
2,вулиця Старий Шлях,49020,48.4420545,34.7955982
3,вулиця Старий Шлях,49020,48.4419033,34.7946695
18,Кокчетавська вулиця,49117,48.4773378,35.1626667
16,Кокчетавська вулиця,49117,48.4774570,35.1625966
14,Кокчетавська вулиця,49117,48.4776753,35.1624250
12,Кокчетавська вулиця,49117,48.4778307,35.1623256
10,Кокчетавська вулиця,49117,48.4779840,35.1622198
8,Кокчетавська вулиця,49117,48.4781919,35.1620458
6,Кокчетавська вулиця,49117,48.4783101,35.1619163
4,Кокчетавська вулиця,49117,48.4784465,35.1618217
2/2,Кокчетавська вулиця,49117,48.4785777,35.1618750
2/1,Кокчетавська вулиця,49117,48.4786060,35.1617076
1,Кокчетавська вулиця,49117,48.4785704,35.1628377
3,Кокчетавська вулиця,49117,48.4784768,35.1623441
5,Кокчетавська вулиця,49117,48.4782764,35.1624314
7,Кокчетавська вулиця,49117,48.4781971,35.1625109
11,Кокчетавська вулиця,49117,48.4780918,35.1628956
13,Кокчетавська вулиця,49117,48.4779324,35.1626574
15,Кокчетавська вулиця,49117,48.4777187,35.1628491
143,вулиця Спогадів,49116,48.4945575,35.1915286
1,вулиця Гавриленка,49055,48.4372570,35.0166820
19,Широкий провулок,49046,48.5153476,34.9812007
17,Широкий провулок,49046,48.5153923,34.9809443
4,Макова вулиця,49081,48.4937806,35.0666152
6,Макова вулиця,49081,48.4938877,35.0664654
8,Макова вулиця,49081,48.4939966,35.0663357
10,Макова вулиця,49081,48.4942178,35.0660484
12,Макова вулиця,49081,48.4943561,35.0658533
32,Чорноліська вулиця,49035,48.4525643,34.9558113
30,Чорноліська вулиця,49035,48.4534620,34.9564628
3,Військова вулиця,49081,48.4939581,35.0667909
5,Військова вулиця,49081,48.4941151,35.0664355
7,Військова вулиця,49081,48.4942264,35.0663591
7-А,Військова вулиця,49081,48.4943247,35.0663150
9,Військова вулиця,49081,48.4944184,35.0662151
15,Військова вулиця,49081,48.4947037,35.0658328
13,Військова вулиця,49081,48.4946314,35.0659172
11,Військова вулиця,49081,48.4945588,35.0660344
17,Військова вулиця,49081,48.4949193,35.0655295
25,Військова вулиця,49081,48.4954278,35.0645895
21,Військова вулиця,49081,48.4952407,35.0650636
23,Військова вулиця,49081,48.4953170,35.0649486
19,Військова вулиця,49081,48.4951295,35.0651877
19-А,Військова вулиця,49081,48.4950439,35.0652956
33,вулиця Вільхового Лісу,49081,48.4919773,35.0712219
35,вулиця Вільхового Лісу,49081,48.4918005,35.0714615
37,вулиця Вільхового Лісу,49081,48.4916590,35.0715957
39,вулиця Вільхового Лісу,49081,48.4914671,35.0717899
41,вулиця Вільхового Лісу,49081,48.4913102,35.0719489
45,вулиця Вільхового Лісу,49081,48.4909923,35.0722932
47,вулиця Вільхового Лісу,49081,48.4908413,35.0725087
2,вулиця Євгена Чикаленка,49083,48.5013264,35.0712864
87-А,Слобожанський проспект,49083,48.5108628,35.0756188
85-А,Слобожанський проспект,49083,48.5104697,35.0754606
12,Артеківська вулиця,49026,48.5103837,35.0742924
51,вулиця Азовсталі,49081,48.4897438,35.0730322
26,вулиця Вільхового Лісу,49081,48.4918105,35.0709930
28,вулиця Вільхового Лісу,49081,48.4916523,35.0711175
3,Коротка вулиця,49081,48.4930067,35.0683582
1,Коротка вулиця,49081,48.4930985,35.0681608
9,Коротка вулиця,49081,48.4923313,35.0690447
17,Коротка вулиця,49081,48.4918743,35.0694505
19,Коротка вулиця,49081,48.4917305,35.0696413
21,Коротка вулиця,49081,48.4915521,35.0698757
23,Коротка вулиця,49081,48.4913477,35.0701033
25,Коротка вулиця,49081,48.4912560,35.0704265
31,Коротка вулиця,49081,48.4910069,35.0705195
31,Коротка вулиця,49081,48.4908242,35.0703585
35,Коротка вулиця,49081,48.4911771,35.0699477
37,Коротка вулиця,49081,48.4910828,35.0696581
27,Коротка вулиця,49081,48.4911296,35.0706488
11-А,вулиця Павла Чубинського,49047,48.4399514,34.9989568
155,вулиця Дмитра Байди-Вишневецького,49100,48.4224774,35.0601688
3-А,Космічна вулиця,49100,48.4221902,35.0598914
427,Передова вулиця,49046,48.5269393,34.9663619
81-Б,Калинова вулиця,49087,48.5147022,35.0567763
288,Німецька вулиця,49117,48.4504633,35.1352129
288,Німецька вулиця,49117,48.4500907,35.1353323
25,Німецька вулиця,49117,48.4781576,35.1569944
120,Німецька вулиця,49117,48.4734641,35.1509400
147-Б,Німецька вулиця,49117,48.4709740,35.1505877
51,Німецька вулиця,49117,48.4771599,35.1547715
123,Німецька вулиця,49117,48.4731058,35.1512776
29,Мануйлівський проспект,49023,48.4921648,35.0521243
18,вулиця Радистів,49023,48.4943214,35.0449911
10,Мануйлівський проспект,49023,48.4914792,35.0482597
12,Мануйлівський проспект,49023,48.4914478,35.0485524
14,Мануйлівський проспект,49023,48.4914388,35.0488407
1,Балаклавська вулиця,49023,48.4912087,35.0488192
2,Гульдівська вулиця,49023,48.4912145,35.0479024
4,Гульдівська вулиця,49023,48.4910561,35.0481145
6,Гульдівська вулиця,49023,48.4910363,35.0484096
6-А,Гульдівська вулиця,49023,48.4910237,35.0487762
34,Мануйлівський проспект,49023,48.4915675,35.0521544
36,Мануйлівський проспект,49023,48.4914949,35.0526886
2-А,Вільний провулок,49130,48.5305506,35.0180783
1-М,проспект Героїв,49100,48.4213088,35.0630034
1-А,Бердянська вулиця,49081,48.4872120,35.0649828
3-А,вулиця Івана Нечуя-Левицького,49081,48.4967127,35.0647726
189,Ростовський провулок,49023,48.4924060,35.0555778
1,вулиця Майбороди,49023,48.4926545,35.0566329
187,Ростовський провулок,49023,48.4925248,35.0556329
18-А,Смарагдовий провулок,49081,48.4946558,35.0610573
18А,Смарагдовий провулок,49081,48.4937765,35.0608846
13,вулиця Майбороди,49023,48.4936632,35.0561731
3,вулиця Майбороди,49023,48.4929131,35.0567602
17,вулиця Майбороди,49023,48.4939821,35.0560229
16,Шкільний провулок,49023,48.4937495,35.0556017
15,вулиця Майбороди,49023,48.4938255,35.0561498
19,вулиця Майбороди,49023,48.4941346,35.0559190
7,вулиця Майбороди,49023,48.4932431,35.0565050
2,вулиця Бажова,49081,48.4966061,35.0646112
4,Парадна вулиця,49023,48.4962888,35.0501375
9,вулиця Майбороди,49023,48.4933602,35.0564121
21,вулиця Майбороди,49023,48.4942615,35.0557820
23,вулиця Майбороди,49023,48.4944469,35.0555980
10,Шкільний провулок,49023,48.4940515,35.0553982
12,Шкільний провулок,49023,48.4939648,35.0554750
6-Б,Артільна вулиця,49081,48.4857193,35.0730000
49/1,вулиця Азовсталі,49081,48.4899559,35.0726368
8,Одеська вулиця,49074,48.5279791,35.0765411
2-А,Холодильна вулиця,32074,48.5258156,35.0775980
62-64,вулиця Братів Бачинських,49074,48.5227101,35.0795659
42,вулиця Братів Бачинських,49074,48.5203237,35.0786159
76,вулиця Братів Бачинських,49074,48.5241530,35.0801546
10,Дівоча вулиця,49026,48.5101985,35.0728082
72-74,вулиця Братів Бачинських,49074,48.5238533,35.0800258
12-А,Старочумацька вулиця,49074,48.5195142,35.0788098
44,вулиця Братів Бачинських,49074,48.5204882,35.0789405
78,вулиця Братів Бачинських,49074,48.5242588,35.0804011
16,Артеківська вулиця,49026,48.5108445,35.0746259
66,вулиця Братів Бачинських,49074,48.5229952,35.0796778
60,вулиця Братів Бачинських,49074,48.5224417,35.0794549
113-Д,Слобожанський проспект,49074,48.5194573,35.0790961
70,вулиця Братів Бачинських,49074,48.5235738,35.0799477
54,вулиця Братів Бачинських,49074,48.5213520,35.0790147
1,вулиця Петра Яцика,49074,48.5215676,35.0795980
40,вулиця Братів Бачинських,49074,48.5201141,35.0785108
48,вулиця Братів Бачинських,49074,48.5208262,35.0788369
17-Б,Калинова вулиця,49026,48.5115254,35.0736840
115-А,Слобожанський проспект,49074,48.5200197,35.0792837
5,Дівоча вулиця,49026,48.5096290,35.0720732
34-А,вулиця Братів Бачинських,49074,48.5196775,35.0784246
50,вулиця Братів Бачинських,49074,48.5210539,35.0788925
12,Дівоча вулиця,49026,48.5106204,35.0731076
10,вулиця Петра Яцика,49074,48.5222576,35.0797115
56,вулиця Братів Бачинських,49074,48.5216520,35.0791038
12,вулиця Петра Яцика,49074,48.5221194,35.0794767
3,вулиця Петра Яцика,49074,48.5216023,35.0794168
68,вулиця Братів Бачинських,49074,48.5232558,35.0799169
13,Канівська вулиця,49083,48.5088682,35.0701573
30,Знамʼянська вулиця,49083,48.5083660,35.0693598
19,Полтавська вулиця,49026,48.5091623,35.0722438
36,Подєбрадська вулиця,49083,48.5082228,35.0700838
9,Канівська вулиця,49083,48.5088012,35.0706432
7,Канівська вулиця,49083,48.5087174,35.0708741
5-А,Дівоча вулиця,49026,48.5096251,35.0716831
17,Полтавська вулиця,49026,48.5090239,35.0720122
22,Подєбрадська вулиця,49083,48.5078867,35.0718133
2,Канівська вулиця,49083,48.5090123,35.0712316
3,Канівська вулиця,49083,48.5086502,35.0712735
5,Канівська вулиця,49083,48.5086329,35.0710529
15,Полтавська вулиця,49026,48.5089123,35.0718504
7,Полтавська вулиця,49083,48.5080487,35.0717776
32,Подєбрадська вулиця,49083,48.5081488,35.0705449
32,Знамʼянська вулиця,49083,48.5084945,35.0696034
1,Канівська вулиця,49083,48.5085636,35.0715261
7-А,Полтавська вулиця,49083,48.5081970,35.0719491
38,Подєбрадська вулиця,49083,48.5083487,35.0699008
4/1,Канівська вулиця,49026,48.5097621,35.0696266
6,Канівська вулиця,49026,48.5095278,35.0692586
27,Запорізька вулиця,49026,48.5123337,35.0677931
16,Канівська вулиця,49026,48.5097847,35.0681857
20,Канівська вулиця,49026,48.5098952,35.0677417
22,Канівська вулиця,49026,48.5100347,35.0676151
12,Канівська вулиця,49026,48.5097035,35.0686038
8,Канівська вулиця,49026,48.5095843,35.0690751
31-Д,Слобожанський проспект,49081,48.4989319,35.0693419
16,Тиха вулиця,49026,48.5096667,35.0615501
17,Тиха вулиця,49026,48.5100693,35.0614488
29,Тиха вулиця,49026,48.5108562,35.0618711
23,Тиха вулиця,49026,48.5104402,35.0616399
25,Тиха вулиця,49026,48.5105723,35.0617033
25,вулиця Генерала Кравченка,49026,48.5104556,35.0624471
18,Тиха вулиця,49026,48.5098668,35.0616945
19,Тиха вулиця,49026,48.5101905,35.0615262
21,Тиха вулиця,49026,48.5103024,35.0615351
22,Куликовська вулиця,49026,48.5107479,35.0614102
18,Куликовська вулиця,49026,48.5102416,35.0610144
20,Куликовська вулиця,49026,48.5105364,35.0612433
31,Тиха вулиця,49026,48.5110701,35.0619764
20-А,Тиха вулиця,49026,48.5102327,35.0619291
22-А,Тиха вулиця,49026,48.5103869,35.0619708
17,вулиця Генерала Кравченка,49026,48.5099004,35.0621351
15,Тиха вулиця,49026,48.5099570,35.0613778
27,Тиха вулиця,49026,48.5107113,35.0617854
24,Куликовська вулиця,49026,48.5109623,35.0614195
16,Куликовська вулиця,49026,48.5100307,35.0608847
29,вулиця Генерала Кравченка,49026,48.5107616,35.0624545
27,вулиця Генерала Кравченка,49026,48.5106051,35.0623689
22,Тиха вулиця,49026,48.5105430,35.0620318
20,Тиха вулиця,49026,48.5100662,35.0619320
2,Парадна вулиця,49023,48.4965216,35.0499857
9,Фруктова вулиця,49023,48.4964580,35.0507609
5,Фруктова вулиця,49023,48.4962943,35.0505444
72,Конотопська вулиця,49023,48.4965747,35.0508830
2-А,Парадна вулиця,49023,48.4963979,35.0500051
7,Фруктова вулиця,49023,48.4964952,35.0504959
51,Янтарна вулиця,49024,48.5138865,35.0452514
2,вулиця Бетховена,49024,48.5138975,35.0448466
33,вулиця Петра Бикова,49000,48.5172706,35.0432826
24,вулиця Данила Заболотного,49125,48.5175380,35.0397370
7,вулиця Петра Бикова,49125,48.5175337,35.0424042
2,Новоковальська вулиця,49125,48.5165618,35.0421826
4,Новоковальська вулиця,49125,48.5167083,35.0420764
5,вулиця Данила Заболотного,49125,48.5162902,35.0403608
8,Новоковальська вулиця,49125,48.5171001,35.0417068
6,Новоковальська вулиця,49125,48.5170916,35.0421109
23,вулиця Петра Бикова,49125,48.5184299,35.0414935
1,вулиця Петра Бикова,49125,48.5170104,35.0425739
27,вулиця Петра Бикова,49125,48.5185762,35.0414011
3,вулиця Петра Бикова,49125,48.5173044,35.0426618
33,вулиця Петра Бикова,49125,48.5189912,35.0409639
32,вулиця Бетховена,49125,48.5154913,35.0407867
10,Новоковальська вулиця,49125,48.5172836,35.0415627
87м/1,Калинова вулиця,49087,48.5154061,35.0522768
85,Калинова вулиця,49087,48.5154627,35.0492257
11,вулиця Григорія Бораковського,49074,48.5242715,35.0706537
38-А,вулиця Петра Яцика,49074,48.5235887,35.0711990
17,вулиця Григорія Бораковського,49074,48.5245905,35.0714155
42,вулиця Петра Яцика,49074,48.5237853,35.0706139
44,вулиця Петра Яцика,49074,48.5236887,35.0702461
39,вулиця Григорія Бораковського,49074,48.5257920,35.0718236
86,вулиця Павла Громницького,49074,48.5252009,35.0703662
88,вулиця Павла Громницького,49074,48.5253060,35.0704165
25,Холодильна вулиця,49074,48.5260223,35.0713648
90,вулиця Павла Громницького,49074,48.5254268,35.0704808
80,вулиця Павла Громницького,49074,48.5249496,35.0702354
64,вулиця Павла Громницького,49074,48.5239380,35.0698318
21,вулиця Григорія Бораковського,49074,48.5248647,35.0716825
23,вулиця Григорія Бораковського,49074,48.5250592,35.0717205
40,вулиця Петра Яцика,49074,48.5236547,35.0708770
94,вулиця Павла Громницького,49074,48.5257838,35.0706480
96,вулиця Павла Громницького,49074,48.5259044,35.0706576
98,вулиця Павла Громницького,49074,48.5260851,35.0707170
25,вулиця Григорія Бораковського,49074,48.5251544,35.0718182
29,вулиця Григорія Бораковського,49074,48.5253744,35.0719731
92,вулиця Павла Громницького,49074,48.5255123,35.0708443
78,вулиця Павла Громницького,49074,48.5247002,35.0706961
105,вулиця Павла Громницького,49074,48.5241098,35.0694785
46,вулиця Павла Громницького,49074,48.5200235,35.0674619
34,вулиця Павла Громницького,49074,48.5190013,35.0662293
48,вулиця Павла Громницького,49074,48.5201289,35.0675581
38,вулиця Павла Громницького,49074,48.5191379,35.0666890
56,вулиця Павла Громницького,49074,48.5207403,35.0683074
103,вулиця Павла Громницького,49074,48.5241952,35.0690322
38,вулиця Павла Громницького,49074,48.5192441,35.0667485
54,вулиця Павла Громницького,49074,48.5205830,35.0682675
125,вулиця Павла Громницького,49074,48.5255253,35.0700598
36,вулиця Павла Громницького,49074,48.5191072,35.0663730
129,вулиця Павла Громницького,49074,48.5258823,35.0702422
120,Мечетна вулиця,49074,48.5264192,35.0693948
109,вулиця Павла Громницького,49074,48.5244958,35.0696370
113,вулиця Павла Громницького,49074,48.5246718,35.0697099
50,вулиця Павла Громницького,49074,48.5203381,35.0678147
111,вулиця Павла Громницького,49074,48.5246815,35.0694776
29,Холодильна вулиця,49074,48.5262873,35.0698840
133,вулиця Павла Громницького,49074,48.5262429,35.0703542
42-А,вулиця Павла Громницького,49074,48.5195310,35.0674041
131,вулиця Павла Громницького,49074,48.5260555,35.0702686
44,вулиця Павла Громницького,49074,48.5198357,35.0672448
117,вулиця Павла Громницького,49074,48.5248471,35.0697174
52,вулиця Павла Громницького,49074,48.5204200,35.0679228
32,вулиця Павла Громницького,49074,48.5188239,35.0659736
123,вулиця Павла Громницького,49074,48.5253692,35.0699314
25,вулиця Павла Громницького,49074,48.5183186,35.0648395
23,вулиця Павла Громницького,49074,48.5182979,35.0646554
22,Мечетна вулиця,49074,48.5183120,35.0636825
12,Мечетна вулиця,49074,48.5178183,35.0630949
1,вулиця Павла Громницького,49074,48.5169083,35.0631935
14,Мечетна вулиця,49074,48.5179051,35.0632332
16,Мечетна вулиця,49074,48.5180160,35.0633390
46,вулиця Петра Яцика,49074,48.5240244,35.0688209
92,Мечетна вулиця,49074,48.5240880,35.0683674
60,Мечетна вулиця,49074,48.5209177,35.0671154
31/2,вулиця Павла Громницького,49074,48.5185767,35.0651728
118,Мечетна вулиця,49074,48.5262319,35.0692460
33,вулиця Павла Громницького,49074,48.5188169,35.0650086
112,Мечетна вулиця,49074,48.5257151,35.0690225
29,вулиця Павла Громницького,49075,48.5184485,35.0650531
120-А,Мечетна вулиця,49074,48.5262703,35.0696202
8,Мечетна вулиця,49074,48.5176247,35.0628533
28,Мечетна вулиця,49074,48.5186942,35.0641229
10,Мечетна вулиця,49074,48.5177112,35.0629865
30,Мечетна вулиця,49074,48.5188386,35.0642960
2,Мечетна вулиця,49074,48.5173323,35.0624961
34,Мечетна вулиця,49074,48.5191310,35.0646495
4,Мечетна вулиця,49074,48.5174168,35.0626211
6,Мечетна вулиця,49074,48.5175236,35.0627451
108,Мечетна вулиця,49074,48.5253728,35.0688913
19,вулиця Павла Громницького,49074,48.5179928,35.0645010
104,Мечетна вулиця,49074,48.5250884,35.0692109
24,Мечетна вулиця,49074,48.5184318,35.0638036
26,Мечетна вулиця,49074,48.5185493,35.0639619
20,Мечетна вулиця,49074,48.5181307,35.0634253
20-А,Мечетна вулиця,49074,48.5180398,35.0636259
96,Мечетна вулиця,49074,48.5244965,35.0685026
15,вулиця Павла Громницького,49074,48.5176589,35.0640150
102,Мечетна вулиця,49074,48.5249910,35.0688425
17,вулиця Павла Громницького,49074,48.5177254,35.0641773
98,Мечетна вулиця,49074,48.5246913,35.0685760
42,Щоглова вулиця,49115,48.4865152,35.1896490
16,вулиця Петра Бикова,49125,48.5200307,35.0411935
12,вулиця Петра Бикова,49125,48.5196483,35.0413932
39,вулиця Петра Бикова,49125,48.5198242,35.0405897
20,вулиця Петра Бикова,49125,48.5204073,35.0405660
62,Калинова вулиця,49026,48.5138786,35.0640909
58,Калинова вулиця,49026,48.5137923,35.0644295
52,Калинова вулиця,49026,48.5137993,35.0648986
13,Калинова вулиця,49083,48.5111843,35.0756528
15,Калинова вулиця,49026,48.5112739,35.0751284
35,Калинова вулиця,49026,48.5126130,35.0678762
96-А,Калинова вулиця,49087,48.5175034,35.0498026
1,Латвійська вулиця,49026,48.5152673,35.0699527
27,Гельсінська вулиця,49026,48.5164293,35.0732055
5,Гельсінська вулиця,49026,48.5151032,35.0724562
11,Гельсінська вулиця,49026,48.5154569,35.0727894
15,Гельсінська вулиця,49026,48.5156898,35.0729042
33,Гельсінська вулиця,49026,48.5168235,35.0732363
17,Гельсінська вулиця,49026,48.5158322,35.0729367
21,Гельсінська вулиця,49026,48.5160652,35.0730434
23,Гельсінська вулиця,49026,48.5161863,35.0730890
7,Гельсінська вулиця,49026,48.5152288,35.0726454
13,Гельсінська вулиця,49026,48.5155722,35.0728620
3,Гельсінська вулиця,49026,48.5149512,35.0725763
31,Гельсінська вулиця,49026,48.5166815,35.0733261
9,Гельсінська вулиця,49026,48.5153415,35.0727435
1,Гельсінська вулиця,49026,48.5148296,35.0725572
29,Гельсінська вулиця,49026,48.5165664,35.0731064
19,Гельсінська вулиця,49026,48.5159612,35.0729896
127,Гельсінська вулиця,49074,48.5251565,35.0767966
45,вулиця Братів Бачинських,49074,48.5214358,35.0785226
63,Торська вулиця,49074,48.5248121,35.0782875
38,Торська вулиця,49074,48.5218882,35.0775065
42,Торська вулиця,49074,48.5228058,35.0779329
18,Старочумацька вулиця,49074,48.5197398,35.0771163
112,вулиця Оксани Мешко,49074,48.5242885,35.0757605
61,Торська вулиця,49074,48.5243994,35.0781381
56,Гельсінська вулиця,49074,48.5236862,35.0767017
47,вулиця Братів Бачинських,49074,48.5217133,35.0786557
105,Гельсінська вулиця,49074,48.5233482,35.0760238
49,вулиця Братів Бачинських,49074,48.5222268,35.0788457
104,Латвійська вулиця,49074,48.5239569,35.0743387
73,вулиця Братів Бачинських,49074,48.5244280,35.0797039
108,вулиця Оксани Мешко,49074,48.5240179,35.0753760
44,Торська вулиця,49074,48.5229898,35.0779925
111,Гельсінська вулиця,49074,48.5236989,35.0761483
59,вулиця Братів Бачинських,49074,48.5232335,35.0791752
109,вулиця Оксани Мешко,49074,48.5246279,35.0748541
35,вулиця Братів Бачинських,49074,48.5206835,35.0781877
27,вулиця Братів Бачинських,49074,48.5201002,35.0779593
65,вулиця Братів Бачинських,49074,48.5236991,35.0794383
49,Торська вулиця,49074,48.5233712,35.0777190
110,Латвійська вулиця,49074,48.5245412,35.0743431
20,Торська вулиця,49074,48.5198540,35.0767146
99,Гельсінська вулиця,49074,48.5228032,35.0758258
56,Торська вулиця,49074,48.5240861,35.0784129
32,вулиця Петра Яцика,49074,48.5231037,35.0740105
30,вулиця Петра Яцика,49074,48.5228071,35.0751817
18,вулиця Петра Яцика,49074,48.5223208,35.0783738
123,Гельсінська вулиця,49074,48.5247510,35.0765294
7,Холодильна вулиця,49074,48.5246543,35.0790631
120,вулиця Оксани Мешко,49074,48.5250402,35.0758398
60,Гельсінська вулиця,49074,48.5240497,35.0768491
7,вулиця Петра Яцика,49074,48.5217341,35.0784752
39,вулиця Братів Бачинських,49074,48.5209417,35.0782613
11,Холодильна вулиця,49074,48.5248934,35.0775601
62,Торська вулиця,49074,48.5247654,35.0786518
102,вулиця Оксани Мешко,49074,48.5234862,35.0751468
45,Торська вулиця,49074,48.5230729,35.0775749
61,вулиця Братів Бачинських,49074,48.5233744,35.0792675
115,Латвійська вулиця,49074,48.5251203,35.0744599
107,Гельсінська вулиця,49074,48.5235084,35.0761171
101,Гельсінська вулиця,49074,48.5229875,35.0758980
54,Торська вулиця,49074,48.5238523,35.0783153
11,вулиця Петра Яцика,49074,48.5217960,35.0781464
26-А,Торська вулиця,49074,48.5207247,35.0770157
67,вулиця Братів Бачинських,49074,48.5238983,35.0795059
115,вулиця Оксани Мешко,49074,48.5250773,35.0752957
57,Торська вулиця,49074,48.5241182,35.0779522
51,вулиця Братів Бачинських,49074,48.5225157,35.0789470
98,вулиця Оксани Мешко,49074,48.5231534,35.0749938
16,вулиця Петра Яцика,49074,48.5222885,35.0785475
125,Гельсінська вулиця,49074,48.5249024,35.0766306
5,Холодильна вулиця,49074,48.5246098,35.0793397
101,вулиця Оксани Мешко,49074,48.5238603,35.0747910
62,Гельсінська вулиця,49074,48.5242267,35.0769770
13,вулиця Петра Яцика,49074,48.5218527,35.0779254
68,Гельсінська вулиця,49074,48.5249847,35.0772222
99,вулиця Оксани Мешко,49074,48.5236814,35.0748126
43,Торська вулиця,49074,48.5228659,35.0775058
115,Гельсінська вулиця,49074,48.5239825,35.0762977
118,Латвійська вулиця,49074,48.5252303,35.0745038
28,вулиця Петра Яцика,49074,48.5230167,35.0754999
24,Торська вулиця,49074,48.5203658,35.0769790
28,Торська вулиця,49074,48.5207645,35.0773726
46,Гельсінська вулиця,49074,48.5229267,35.0763939
31,вулиця Братів Бачинських,49074,48.5204311,35.0780209
66,Гельсінська вулиця,49074,48.5246272,35.0771106
15,Холодильна вулиця,49074,48.5251926,35.0762378
71,вулиця Братів Бачинських,49074,48.5242482,35.0796192
117,вулиця Оксани Мешко,49074,48.5253153,35.0754715
55,Торська вулиця,49074,48.5239058,35.0779419
110,вулиця Оксани Мешко,49074,48.5240726,35.0756686
53,вулиця Братів Бачинських,49074,48.5227487,35.0790372
107,вулиця Оксани Мешко,49074,48.5244505,35.0750304
100,вулиця Оксани Мешко,49074,48.5232398,35.0750403
75,вулиця Братів Бачинських,49074,48.5245767,35.0797508
103,вулиця Оксани Мешко,49074,48.5240814,35.0748914
64,Гельсінська вулиця,49074,48.5244261,35.0770568
36,Торська вулиця,49074,48.5215744,35.0774235
112,Латвійська вулиця,49074,48.5247601,35.0744354
52,Торська вулиця,49074,48.5236094,35.0785379
96,Латвійська вулиця,49074,48.5233693,35.0738269
22,Торська вулиця,49074,48.5201588,35.0768200
33,вулиця Братів Бачинських,49074,48.5205566,35.0781453
48,Гельсінська вулиця,49074,48.5230045,35.0764460
9,вулиця Петра Яцика,49074,48.5217624,35.0783347
14,вулиця Петра Яцика,49074,48.5223117,35.0787390
106,Латвійська вулиця,49074,48.5242439,35.0741025
98,Латвійська вулиця,49074,48.5234126,35.0741235
26,Торська вулиця,49074,48.5204949,35.0769879
41,Торська вулиця,49074,48.5224914,35.0774030
119,Гельсінська вулиця,49074,48.5243182,35.0763781
60,Торська вулиця,49074,48.5243765,35.0785291
19,Холодильна вулиця,49074,48.5253787,35.0749537
53,Торська вулиця,49074,48.5236754,35.0778186
106,вулиця Оксани Мешко,49074,48.5238474,35.0753096
57,вулиця Братів Бачинських,49074,48.5230779,35.0791567
111,вулиця Оксани Мешко,49074,48.5247719,35.0752696
37,вулиця Братів Бачинських,49074,48.5208225,35.0782152
63,вулиця Братів Бачинських,49074,48.5235472,35.0793175
100,Латвійська вулиця,49074,48.5236526,35.0739024
25,вулиця Братів Бачинських,49074,48.5199187,35.0778421
66,Березинська вулиця,49130,48.5342899,35.0224384
12-А,Троїцька вулиця,49000,48.4615993,35.0420855
67,Латвійська вулиця,49074,48.5232849,35.0731939
50,вулиця Григорія Бораковського,49074,48.5238076,35.0721364
36,вулиця Петра Яцика,49074,48.5233669,35.0725108
103,Латвійська вулиця,49074,48.5254453,35.0740797
71,Латвійська вулиця,49074,48.5236089,35.0733470
44,вулиця Григорія Бораковського,49074,48.5234558,35.0717566
95,Латвійська вулиця,49074,48.5249533,35.0737821
34,вулиця Петра Яцика,49074,48.5232911,35.0728066
56,вулиця Григорія Бораковського,49074,48.5241829,35.0722659
46,вулиця Григорія Бораковського,49074,48.5235775,35.0718309
94-А,Латвійська вулиця,49074,48.5227580,35.0730227
87,Латвійська вулиця,49074,48.5244488,35.0736957
52,вулиця Григорія Бораковського,49074,48.5239732,35.0720520
48,вулиця Григорія Бораковського,49074,48.5237204,35.0719850
66,вулиця Григорія Бораковського,49074,48.5247519,35.0726241
99,Латвійська вулиця,49074,48.5251626,35.0739937
60,вулиця Григорія Бораковського,49074,48.5244296,35.0721303
105,Латвійська вулиця,49074,48.5255475,35.0741194
77,Латвійська вулиця,49074,48.5238542,35.0734060
64,вулиця Григорія Бораковського,49074,48.5247014,35.0723275
70,вулиця Григорія Бораковського,49074,48.5250502,35.0724625
85,Латвійська вулиця,49074,48.5243318,35.0736396
89,Латвійська вулиця,49074,48.5245969,35.0734961
79,Латвійська вулиця,49074,48.5239917,35.0734528
74,вулиця Григорія Бораковського,49074,48.5253915,35.0728410
74,Латвійська вулиця,49074,48.5209364,35.0728512
21-А,вулиця Оксани Мешко,49074,48.5225059,35.0740979
24,Старочумацька вулиця,49074,48.5202120,35.0743985
84,Латвійська вулиця,49074,48.5217895,35.0731500
78,вулиця Оксани Мешко,49074,48.5214127,35.0743095
89,Гельсінська вулиця,49074,48.5216102,35.0751396
81,Гельсінська вулиця,49074,48.5208984,35.0747511
82,Латвійська вулиця,49074,48.5216243,35.0730673
28,Старочумацька вулиця,49074,48.5204718,35.0731172
66,вулиця Оксани Мешко,49074,48.5203200,35.0738676
70,вулиця Оксани Мешко,49074,48.5207159,35.0740843
70,Латвійська вулиця,49074,48.5205695,35.0726127
87,вулиця Оксани Мешко,49074,48.5223700,35.0742372
77,Гельсінська вулиця,49074,48.5204321,35.0748576
86,Латвійська вулиця,49074,48.5219630,35.0732558
42,Гельсінська вулиця,49074,48.5218743,35.0759702
17/1,вулиця Петра Яцика,49074,48.5222265,35.0760525
80,Латвійська вулиця,49074,48.5214604,35.0729817
30,Старочумацька вулиця,49074,48.5204815,35.0729146
75,Гельсінська вулиця,49074,48.5203464,35.0746893
92,Латвійська вулиця,49074,48.5225065,35.0734068
81,вулиця Оксани Мешко,49074,48.5218453,35.0739945
20,вулиця Петра Яцика,49074,48.5223444,35.0781912
40,Торська вулиця,49074,48.5224709,35.0778121
78,Латвійська вулиця,49074,48.5212114,35.0731356
17,вулиця Петра Яцика,49074,48.5222055,35.0762963
85,Гельсінська вулиця,49074,48.5212594,35.0751908
79,вулиця Оксани Мешко,49074,48.5216411,35.0739609
74-А,Латвійська вулиця,49074,48.5208109,35.0730301
80,вулиця Оксани Мешко,49074,48.5215694,35.0743856
65,вулиця Оксани Мешко,49074,48.5203802,35.0734963
21,вулиця Петра Яцика,49074,48.5226000,35.0739558
74,вулиця Оксани Мешко,49074,48.5210743,35.0742094
26,Старочумацька вулиця,49074,48.5202965,35.0742569
72,Латвійська вулиця,49074,48.5207771,35.0726988
23,вулиця Петра Яцика,49074,48.5226667,35.0734762
19,вулиця Петра Яцика,49074,48.5223815,35.0751060
69,вулиця Оксани Мешко,49074,48.5207833,35.0736561
67-А,Старочумацька вулиця,49074,48.5206183,35.0731968
95,Гельсінська вулиця,49074,48.5221377,35.0752395
67,вулиця Оксани Мешко,49074,48.5205986,35.0735765
44,Гельсінська вулиця,49074,48.5220378,35.0760159
97,Гельсінська вулиця,49074,48.5222926,35.0756057
89,вулиця Оксани Мешко,49074,48.5225260,35.0743439
15,вулиця Петра Яцика,49074,48.5221047,35.0766446
83,Гельсінська вулиця,49074,48.5210340,35.0751032
46,вулиця Оксани Мешко,49074,48.5183960,35.0731475
53,Гельсінська вулиця,49074,48.5183654,35.0739237
52,вулиця Оксани Мешко,49074,48.5189444,35.0733382
35-А,Гельсінська вулиця,49074,48.5171601,35.0732503
36,вулиця Оксани Мешко,49074,48.5171574,35.0728680
44/1,вулиця Оксани Мешко,49074,48.5179478,35.0729578
38,Гельсінська вулиця,49074,48.5215151,35.0758400
47,Гельсінська вулиця,49074,48.5178881,35.0737867
40,Гельсінська вулиця,49074,48.5215952,35.0758725
65,Гельсінська вулиця,49074,48.5193495,35.0744162
51,Гельсінська вулиця,49074,48.5181936,35.0737989
31,Торська вулиця,49074,48.5211256,35.0768233
67,Гельсінська вулиця,49074,48.5195125,35.0744495
48,вулиця Оксани Мешко,49074,48.5185835,35.0732038
26,Гельсінська вулиця,49074,48.5204590,35.0754488
25,Старочумацька вулиця,49074,48.5199219,35.0742134
35,Гельсінська вулиця,49074,48.5170363,35.0733721
41,Гельсінська вулиця,49074,48.5174902,35.0735698
25,Торська вулиця,49074,48.5205629,35.0765645
34,Гельсінська вулиця,49074,48.5211723,35.0756805
64,вулиця Оксани Мешко,49074,48.5199152,35.0739350
19-А,Торська вулиця,49074,48.5201011,35.0763026
37,Торська вулиця,49074,48.5216567,35.0769987
69,Гельсінська вулиця,49074,48.5196639,35.0745466
42/1,вулиця Оксани Мешко,49074,48.5177317,35.0728685
71,Гельсінська вулиця,49074,48.5198731,35.0746404
30,Гельсінська вулиця,49074,48.5208256,35.0755853
56,вулиця Оксани Мешко,49074,48.5193012,35.0734844
50,вулиця Оксани Мешко,49074,48.5187367,35.0732914
21,Торська вулиця,49074,48.5202216,35.0763900
43,Гельсінська вулиця,49074,48.5175763,35.0737442
19,Торська вулиця,49074,48.5198980,35.0763185
40,вулиця Оксани Мешко,49074,48.5175170,35.0727550
40-А,вулиця Оксани Мешко,49074,48.5176408,35.0728242
60,вулиця Оксани Мешко,49074,48.5196749,35.0736175
64-А,Єнісейська вулиця,49074,48.5200190,35.0737863
57,Гельсінська вулиця,49074,48.5186162,35.0739857
22,Старочумацька вулиця,49074,48.5201088,35.0755013
134,Араратська вулиця,49087,48.5284510,35.0658409
162,Араратська вулиця,49087,48.5302845,35.0665657
161,вулиця Кривоноса,49074,48.5289756,35.0668716
191,вулиця Кривоноса,49074,48.5313131,35.0677928
149,вулиця Кривоноса,49074,48.5281806,35.0664995
165,вулиця Кривоноса,49074,48.5292376,35.0669862
197,вулиця Кривоноса,49074,48.5317587,35.0676745
142,Араратська вулиця,49087,48.5289821,35.0660616
168,Араратська вулиця,49087,48.5310701,35.0668645
175,вулиця Кривоноса,49074,48.5298906,35.0672117
146,Араратська вулиця,49087,48.5291894,35.0661303
187,вулиця Кривоноса,49074,48.5310617,35.0677146
151,вулиця Кривоноса,49074,48.5283259,35.0666212
156,Араратська вулиця,49087,48.5298849,35.0664181
180,Араратська вулиця,49087,48.5318520,35.0671721
140,Араратська вулиця,49087,48.5288547,35.0660093
185,вулиця Кривоноса,49074,48.5309201,35.0676437
144,Араратська вулиця,49087,48.5291134,35.0661127
166,Араратська вулиця,49087,48.5309340,35.0668284
159,вулиця Кривоноса,49074,48.5288582,35.0667710
130,Араратська вулиця,49087,48.5281946,35.0657434
154,Араратська вулиця,49087,48.5297535,35.0664400
178,Араратська вулиця,49087,48.5317312,35.0671377
138,Араратська вулиця,49087,48.5287217,35.0659463
171,вулиця Кривоноса,49074,48.5296211,35.0670890
167,вулиця Кривоноса,49074,48.5293663,35.0670329
172,Араратська вулиця,49087,48.5313175,35.0669522
183,вулиця Кривоноса,49074,48.5308140,35.0676079
150,Араратська вулиця,49087,48.5295031,35.0662644
176,Араратська вулиця,49087,48.5315823,35.0671015
126,Араратська вулиця,49087,48.5279055,35.0656078
170,Араратська вулиця,49087,48.5311947,35.0669199
76,Травнева вулиця,49074,48.5304881,35.0672049
136,Араратська вулиця,49087,48.5285857,35.0659397
132,Араратська вулиця,49087,48.5283328,35.0657887
145,вулиця Кривоноса,49074,48.5279523,35.0663740
181,вулиця Кривоноса,49074,48.5306655,35.0675552
155,вулиця Кривоноса,49074,48.5285803,35.0667223
160,Араратська вулиця,49087,48.5301561,35.0665157
148,Араратська вулиця,49087,48.5293667,35.0662535
174,Араратська вулиця,49087,48.5314541,35.0670656
80,Травнева вулиця,49087,48.5306057,35.0667081
163,вулиця Кривоноса,49074,48.5291068,35.0669110
195,вулиця Кривоноса,49074,48.5316168,35.0678911
147,вулиця Кривоноса,49074,48.5280645,35.0664755
74,Травнева вулиця,49074,48.5304540,35.0674635
153,вулиця Кривоноса,49074,48.5284650,35.0665843
173,вулиця Кривоноса,49074,48.5297669,35.0671663
141-А,вулиця Кривоноса,49074,48.5276066,35.0663007
158,Араратська вулиця,49087,48.5300108,35.0664507
164,Араратська вулиця,49087,48.5307771,35.0667991
157,вулиця Кривоноса,49074,48.5287248,35.0667477
163,Араратська вулиця,49087,48.5315056,35.0665318
141,Араратська вулиця,49087,48.5297725,35.0658334
127,Араратська вулиця,49087,48.5289049,35.0654890
159,Араратська вулиця,49087,48.5312788,35.0664055
115,Араратська вулиця,49087,48.5281364,35.0652260
151,Араратська вулиця,49087,48.5303735,35.0660882
161,Араратська вулиця,49087,48.5314113,35.0664387
139,Араратська вулиця,49087,48.5296492,35.0657802
155,Араратська вулиця,49087,48.5310279,35.0663076
92-Б,вулиця Василя Макуха,49087,48.5281245,35.0642812
157,Араратська вулиця,49087,48.5311811,35.0662450
125,Араратська вулиця,49087,48.5287774,35.0654442
117,Араратська вулиця,49087,48.5282756,35.0652396
153,Араратська вулиця,49087,48.5308987,35.0662657
167,Араратська вулиця,49087,48.5317873,35.0666489
147,Араратська вулиця,49087,48.5301305,35.0660026
133,Араратська вулиця,49087,48.5292789,35.0656471
82,Травнева вулиця,49087,48.5306690,35.0662334
135,Араратська вулиця,49087,48.5293910,35.0656297
123,Араратська вулиця,49087,48.5286498,35.0653831
145,Араратська вулиця,49087,48.5300070,35.0659236
131,Араратська вулиця,49087,48.5291512,35.0655857
137,Араратська вулиця,49087,48.5295182,35.0657173
165,Араратська вулиця,49087,48.5316506,35.0665904
143,Араратська вулиця,49087,48.5298825,35.0658305
129,Араратська вулиця,49087,48.5290351,35.0655413
169,Араратська вулиця,49087,48.5319215,35.0666196
149,Араратська вулиця,49087,48.5302602,35.0659374
152,Зразкова вулиця,49087,48.5307142,35.0640340
150,Зразкова вулиця,49087,48.5305518,35.0639251
186,Донецьке шосе,49108,48.5364578,35.0589234
87,вулиця Джеймса Мейса,49108,48.5333717,35.0589497
93,вулиця Джеймса Мейса,49108,48.5337557,35.0591172
144,Травнева вулиця,49108,48.5321876,35.0576940
91,вулиця Джеймса Мейса,49108,48.5336040,35.0590980
95,вулиця Джеймса Мейса,49108,48.5338752,35.0591804
140,Травнева вулиця,49108,48.5320776,35.0582444
99,вулиця Джеймса Мейса,49108,48.5341615,35.0592517
97,вулиця Джеймса Мейса,49108,48.5340162,35.0592283
10,Протавчанський провулок,49108,48.5340497,35.0502177
17,Протавчанський провулок,49108,48.5336340,35.0505534
14,Протавчанський провулок,49108,48.5337308,35.0500433
13,Протавчанський провулок,49108,48.5339572,35.0507417
15,Протавчанський провулок,49108,48.5338276,35.0506616
22,Кальміуський провулок,49108,48.5335701,35.0510038
14,Кальміуський провулок,49108,48.5342584,35.0513449
18,Кальміуський провулок,49108,48.5338979,35.0511977
12,Протавчанський провулок,49108,48.5338814,35.0501353
16,Кальміуський провулок,49108,48.5340563,35.0512588
27,Барвінківська вулиця,49054,48.4499523,35.0255157
15,Барвінківська вулиця,49054,48.4501486,35.0268707
7-А,Новосибірська вулиця,49074,48.5202491,35.0651874
72,Араратська вулиця,49087,48.5231170,35.0636594
94,вулиця Кривоноса,49074,48.5228851,35.0649335
56,вулиця Червоної Калини,49108,48.5241154,35.0508074
108,вулиця Кривоноса,49074,48.5241112,35.0653705
3,вулиця Миколи Стасюка,49074,48.5198437,35.0642937
111,вулиця Кривоноса,49074,48.5241073,35.0650217
54,вулиця Червоної Калини,49108,48.5238454,35.0506622
80,вулиця Червоної Калини,49108,48.5262160,35.0516227
104,вулиця Кривоноса,49074,48.5237781,35.0652344
75,Араратська вулиця,49087,48.5242456,35.0636367
33,вулиця Василя Макуха,49087,48.5214026,35.0611308
109,вулиця Кривоноса,49074,48.5240646,35.0646847
81,вулиця Червоної Рути,49108,48.5262557,35.0522771
82,вулиця Червоної Калини,49108,48.5263144,35.0516875
69,Араратська вулиця,49087,48.5238005,35.0630790
62,вулиця Червоної Калини,49108,48.5247436,35.0510302
105,вулиця Кривоноса,49074,48.5236855,35.0647416
83,вулиця Червоної Рути,49108,48.5264210,35.0524576
21,вулиця Миколи Стасюка,49074,48.5213170,35.0651560
84,вулиця Червоної Калини,49108,48.5264008,35.0517136
47,Мечетна вулиця,49074,48.5233541,35.0676270
74,вулиця Кривоноса,49074,48.5213612,35.0642536
55,вулиця Петра Яцика,49074,48.5240796,35.0656390
9,вулиця Миколи Стасюка,49074,48.5203465,35.0643962
37-Б,Байкальська вулиця,49074,48.5213108,35.0660875
52,Зразкова вулиця,49087,48.5217943,35.0604116
70,вулиця Червоної Калини,49108,48.5255112,35.0513455
68-А,вулиця Кривоноса,49074,48.5208178,35.0641517
58,Зразкова вулиця,49087,48.5223568,35.0606839
72,вулиця Червоної Калини,49108,48.5256048,35.0513891
74,вулиця Червоної Калини,49108,48.5258544,35.0516183
37-Д,Байкальська вулиця,49074,48.5213487,35.0662861
59,Араратська вулиця,49087,48.5228719,35.0630795
15,вулиця Миколи Стасюка,49074,48.5208378,35.0649013
1,вулиця Миколи Стасюка,49074,48.5196895,35.0644910
64,вулиця Червоної Калини,49108,48.5249261,35.0511166
88,вулиця Кривоноса,49074,48.5225822,35.0647459
17,вулиця Миколи Стасюка,49074,48.5210254,35.0649837
58,вулиця Кривоноса,49074,48.5199085,35.0639898
66,вулиця Червоної Калини,49108,48.5251382,35.0512618
55,Араратська вулиця,49087,48.5225086,35.0629088
95,вулиця Кривоноса,49074,48.5228225,35.0643362
68,Араратська вулиця,49087,48.5228523,35.0636670
78,вулиця Кривоноса,49074,48.5215353,35.0643508
87,вулиця Кривоноса,49074,48.5222195,35.0641424
70,Араратська вулиця,49087,48.5229699,35.0635910
62,вулиця Кривоноса,49074,48.5202818,35.0638386
23,вулиця Миколи Стасюка,49074,48.5215413,35.0649363
84,Араратська вулиця,49087,48.5239855,35.0640409
93,вулиця Кривоноса,49074,48.5226114,35.0643249
84,вулиця Кривоноса,49074,48.5222076,35.0645887
9-А,Новосибірська вулиця,49074,48.5203879,35.0653213
86,Араратська вулиця,49087,48.5241764,35.0640929
64,Араратська вулиця,49087,48.5226071,35.0634632
39,Старочумацька вулиця,49087,48.5223821,35.0594903
58,вулиця Червоної Калини,49108,48.5244309,35.0508582
60,вулиця Кривоноса,49074,48.5199838,35.0637309
11-А,Новосибірська вулиця,49074,48.5205932,35.0653450
82,Араратська вулиця,49087,48.5238535,35.0639300
60,Араратська вулиця,49087,48.5222161,35.0632832
17-А,Новосибірська вулиця,49074,48.5208743,35.0655534
78,Араратська вулиця,49087,48.5234943,35.0638268
102,вулиця Кривоноса,49074,48.5236153,35.0651706
62,Араратська вулиця,49087,48.5224276,35.0634005
72-А,вулиця Червоної Калини,49108,48.5257933,35.0514420
63,Араратська вулиця,49087,48.5232185,35.0630779
19-А,Новосибірська вулиця,49074,48.5210685,35.0655456
74,Араратська вулиця,49087,48.5232996,35.0637365
98,вулиця Кривоноса,49074,48.5231884,35.0650263
61,Араратська вулиця,49087,48.5230421,35.0631148
68,вулиця Червоної Калини,49108,48.5252786,35.0512395
51,вулиця Миколи Стасюка,49074,48.5239741,35.0658777
23-А,Новосибірська вулиця,49074,48.5205722,35.0656518
50,Ічкерійська вулиця,49108,48.5242979,35.0485676
46,Ічкерійська вулиця,49108,48.5238138,35.0483483
43,Базавлуцька вулиця,49108,48.5233322,35.0488085
48,Ічкерійська вулиця,49108,48.5240845,35.0484665
40,Араратська вулиця,49087,48.5205669,35.0626366
75,вулиця Кривоноса,49074,48.5210616,35.0637205
67,вулиця Кривоноса,49074,48.5203805,35.0634248
19,вулиця Миколи Стасюка,49074,48.5211268,35.0650723
50,Араратська вулиця,49087,48.5212003,35.0629772
53,вулиця Червоної Рути,49108,48.5235438,35.0513357
77,вулиця Кривоноса,49074,48.5212255,35.0637897
52,Ічкерійська вулиця,49108,48.5244689,35.0486629
40,вулиця Марка Вовчка,49087,48.5216006,35.0606680
51,вулиця Червоної Рути,49108,48.5232654,35.0512236
81,вулиця Кривоноса,49074,48.5215769,35.0638850
35,Араратська вулиця,49087,48.5209286,35.0622457
34,Базавлуцька вулиця,49108,48.5224256,35.0489284
48,Араратська вулиця,49087,48.5210524,35.0628419
83,вулиця Кривоноса,49074,48.5217862,35.0637521
52,Араратська вулиця,49087,48.5213960,35.0629665
44,Араратська вулиця,49087,48.5207970,35.0628201
33,Ічкерійська вулиця,49108,48.5226725,35.0474711
53,Араратська вулиця,49087,48.5222796,35.0628067
56,Араратська вулиця,49087,48.5217333,35.0630952
42,Ічкерійська вулиця,49108,48.5232806,35.0481458
47,Араратська вулиця,49087,48.5217791,35.0624577
54,Араратська вулиця,49087,48.5215691,35.0629987
39,Базавлуцька вулиця,49108,48.5229771,35.0485317
38,Ічкерійська вулиця,49108,48.5228643,35.0479605
43,Араратська вулиця,49087,48.5216270,35.0623111
53,Базавлуцька вулиця,49108,48.5241881,35.0492325
48,вулиця Червоної Калини,49108,48.5231291,35.0505248
41,Араратська вулиця,49087,48.5214823,35.0624775
49,Базавлуцька вулиця,49108,48.5238466,35.0491220
37,Базавлуцька вулиця,49108,48.5226795,35.0485793
50,вулиця Червоної Калини,49108,48.5234880,35.0505402
31,Ічкерійська вулиця,49108,48.5224140,35.0473767
47,Базавлуцька вулиця,49108,48.5237476,35.0490385
29,Араратська вулиця,49087,48.5201419,35.0616443
3-А,Зразкова вулиця,49087,48.5183602,35.0549362
40,Ічкерійська вулиця,49108,48.5229715,35.0480239
55,Базавлуцька вулиця,49108,48.5243624,35.0493213
52,вулиця Червоної Калини,49108,48.5236939,35.0506857
44,Ічкерійська вулиця,49108,48.5234907,35.0482341
39,Араратська вулиця,49087,48.5212494,35.0623741
48,Квітковий провулок,49018,48.4724460,34.9068197
113,вулиця Кривоноса,49074,48.5246971,35.0649763
29,Базавлуцька вулиця,49108,48.5218867,35.0482445
77-А,Мечетна вулиця,49074,48.5262044,35.0683572
71,вулиця Миколи Стасюка,49074,48.5260567,35.0670673
23,Ічкерійська вулиця,49108,48.5215997,35.0470218
85,Араратська вулиця,49087,48.5252979,35.0640250
59,вулиця Миколи Стасюка,49074,48.5250166,35.0666561
15,Базавлуцька вулиця,49108,48.5206106,35.0477300
118,Араратська вулиця,49087,48.5267121,35.0651627
71,Мечетна вулиця,49074,48.5257561,35.0684297
17,Ічкерійська вулиця,49108,48.5211593,35.0468222
50,вулиця Петра Яцика,49074,48.5242317,35.0675079
8,вулиця Рєпіна,49108,48.5227945,35.0467773
120,вулиця Кривоноса,49074,48.5254073,35.0660622
34,вулиця Рєпіна,49109,48.5251169,35.0478710
31,Холодильна вулиця,49074,48.5265886,35.0684473
56,Янтарна вулиця,49108,48.5205583,35.0460643
127,вулиця Кривоноса,49074,48.5259380,35.0656898
3,Ічкерійська вулиця,49108,48.5200756,35.0463883
36,вулиця Миколи Стасюка,49074,48.5251190,35.0671820
62,Янтарна вулиця,49108,48.5215561,35.0462978
107,Араратська вулиця,49087,48.5269980,35.0646777
126,вулиця Кривоноса,49074,48.5258146,35.0662234
1,Базавлуцька вулиця,49108,48.5196985,35.0473717
5,Ічкерійська вулиця,49108,48.5202334,35.0464589
90,Араратська вулиця,49087,48.5248093,35.0646395
25,Базавлуцька вулиця,49108,48.5215695,35.0479905
129,вулиця Кривоноса,49074,48.5261454,35.0656057
73,вулиця Миколи Стасюка,49074,48.5262419,35.0671432
60,Янтарна вулиця,49108,48.5213465,35.0462206
13,Базавлуцька вулиця,49108,48.5204779,35.0477047
141,вулиця Кривоноса,49074,48.5269775,35.0660940
48,вулиця Миколи Стасюка,49074,48.5261191,35.0675727
19,Ічкерійська вулиця,49108,48.5213039,35.0468950
136,вулиця Кривоноса,49074,48.5266568,35.0664028
6,вулиця Рєпіна,49108,48.5225798,35.0467264
95,Араратська вулиця,49087,48.5259731,35.0643288
124,вулиця Кривоноса,49074,48.5256659,35.0660119
32,вулиця Рєпіна,49109,48.5249718,35.0477602
83,Араратська вулиця,49087,48.5251351,35.0639374
10,Ічкерійська вулиця,49108,48.5204379,35.0470134
115,вулиця Кривоноса,49074,48.5248912,35.0652374
121,вулиця Кривоноса,49074,48.5254197,35.0654680
24,Ічкерійська вулиця,49108,48.5214866,35.0475857
34,вулиця Миколи Стасюка,49074,48.5248967,35.0672092
27,Ічкерійська вулиця,49108,48.5219316,35.0470739
104,Араратська вулиця,49087,48.5257420,35.0647225
128,вулиця Кривоноса,49074,48.5260290,35.0661856
6,Ічкерійська вулиця,49108,48.5200974,35.0469532
53,вулиця Миколи Стасюка,49074,48.5244159,35.0663971
117,вулиця Кривоноса,49074,48.5250808,35.0650091
27,Базавлуцька вулиця,49108,48.5216842,35.0481401
131,вулиця Кривоноса,49074,48.5262709,35.0658155
77,Мечетна вулиця,49074,48.5263137,35.0687912
58,Янтарна вулиця,49108,48.5210577,35.0461587
21-А,Базавлуцька вулиця,49108,48.5212873,35.0479869
40,вулиця Миколи Стасюка,49074,48.5253927,35.0675152
11,Базавлуцька вулиця,49108,48.5203355,35.0476170
120,Араратська вулиця,49087,48.5268687,35.0652006
50,вулиця Миколи Стасюка,49074,48.5263045,35.0676685
21,Ічкерійська вулиця,49108,48.5214289,35.0468465
140,вулиця Кривоноса,49074,48.5269165,35.0664947
30,вулиця Миколи Стасюка,49074,48.5245695,35.0670608
97,Араратська вулиця,49087,48.5261661,35.0643666
63,вулиця Миколи Стасюка,49074,48.5253794,35.0667546
4,Ічкерійська вулиця,49108,48.5199496,35.0467936
112,вулиця Кривоноса,49074,48.5248177,35.0656465
11,Ічкерійська вулиця,49108,48.5206845,35.0466041
94,Араратська вулиця,49087,48.5251483,35.0644595
20,Ічкерійська вулиця,49108,48.5212059,35.0473690
25,Ічкерійська вулиця,49108,48.5217381,35.0470170
106,Араратська вулиця,49087,48.5258896,35.0647777
130,вулиця Кривоноса,49074,48.5261904,35.0662387
105,Араратська вулиця,49087,48.5268804,35.0646092
7,Базавлуцька вулиця,49108,48.5201865,35.0475678
55,вулиця Миколи Стасюка,49074,48.5246565,35.0665044
98,Араратська вулиця,49087,48.5253181,35.0646209
19,Базавлуцька вулиця,49108,48.5209540,35.0478344
75,Мечетна вулиця,49074,48.5261450,35.0687329
58-А,Янтарна вулиця,49108,48.5209113,35.0461269
75,вулиця Миколи Стасюка,49074,48.5264120,35.0671471
53,Мечетна вулиця,49074,48.5241979,35.0679526
89,Араратська вулиця,49087,48.5255775,35.0641546
21,Базавлуцька вулиця,49108,48.5211292,35.0479187
67,вулиця Миколи Стасюка,49074,48.5257146,35.0668650
5,Базавлуцька вулиця,49108,48.5200139,35.0474704
122,Араратська вулиця,49087,48.5269789,35.0652456
52,вулиця Миколи Стасюка,49074,48.5265037,35.0677132
13,Ічкерійська вулиця,49108,48.5208571,35.0466662
79,вулиця Миколи Стасюка,49074,48.5267607,35.0672969
54,Янтарна вулиця,49108,48.5202858,35.0461120
64,Янтарна вулиця,49108,48.5217952,35.0463601
65,вулиця Миколи Стасюка,49074,48.5255531,35.0665584
2,Ічкерійська вулиця,49108,48.5198024,35.0467575
116,вулиця Кривоноса,49074,48.5251767,35.0658221
9,Ічкерійська вулиця,49108,48.5205241,35.0465398
92,Араратська вулиця,49087,48.5250527,35.0644441
26,Ічкерійська вулиця,49108,48.5216782,35.0475315
54,вулиця Миколи Стасюка,49074,48.5266259,35.0677979
108,Араратська вулиця,49087,48.5260882,35.0648668
101,Араратська вулиця,49087,48.5264860,35.0643591
100,Араратська вулиця,49087,48.5255526,35.0646558
14,Ічкерійська вулиця,49108,48.5207510,35.0471133
135,вулиця Кривоноса,49074,48.5266438,35.0658720
15,Ічкерійська вулиця,49108,48.5210200,35.0467581
52,вулиця Петра Яцика,49074,48.5242821,35.0672735
8,Ічкерійська вулиця,49108,48.5202771,35.0469650
124,Араратська вулиця,49087,48.5270901,35.0652795
79-А,Мечетна вулиця,49074,48.5263688,35.0684531
56-Б,Янтарна вулиця,49108,48.5206952,35.0460853
77,вулиця Миколи Стасюка,49074,48.5265850,35.0672316
1,Ічкерійська вулиця,49108,48.5199322,35.0462970
57,Мечетна вулиця,49074,48.5245816,35.0680109
3,Базавлуцька вулиця,49108,48.5198565,35.0474041
110,вулиця Кривоноса,49074,48.5246573,35.0655859
7,Ічкерійська вулиця,49108,48.5203934,35.0465221
18,Араратська вулиця,49087,48.5188342,35.0607166
41,вулиця Кривоноса,49074,48.5185216,35.0615292
43,вулиця Кривоноса,49074,48.5186248,35.0616301
42,вулиця Кривоноса,49074,48.5185381,35.0620726
34,вулиця Кривоноса,49074,48.5180049,35.0614603
22,Араратська вулиця,49087,48.5192673,35.0611716
3,Мечетна вулиця,49074,48.5176838,35.0622878
5,Мечетна вулиця,49074,48.5178555,35.0622632
40,вулиця Кривоноса,49074,48.5182171,35.0620827
44,вулиця Кривоноса,49074,48.5186746,35.0622453
9-А,Мечетна вулиця,49074,48.5180465,35.0627406
14,Араратська вулиця,49087,48.5186225,35.0603840
39,вулиця Кривоноса,49074,48.5183641,35.0613023
13,Мечетна вулиця,49074,48.5182349,35.0630050
35-А,вулиця Кривоноса,49074,48.5182175,35.0611196
56,Філософська вулиця,49006,48.4639880,35.0157233
12/4,Виконкомівська вулиця,49044,48.4597334,35.0481050
68-Б,Калинова вулиця,49087,48.5150790,35.0613639
10,Тульчинський провулок,49021,48.5067139,35.0178959
8,Тульчинський провулок,49021,48.5065597,35.0185025
1,Тульчинський провулок,49021,48.5067783,35.0197064
22,Кавалерійська вулиця,49006,48.4636527,35.0142065
19,вулиця Данили Нечая,49007,48.3929435,34.9817582
11,вулиця Данили Нечая,49000,48.3936527,34.9808198
74,Тайгова вулиця,49046,48.5247813,34.9614630
32,Євпаторійська вулиця,49049,48.4047840,35.0615650
88,Латвійська вулиця,49074,48.5221411,35.0732686
90,Латвійська вулиця,49074,48.5223002,35.0735835
82,вулиця Оксани Мешко,49074,48.5217501,35.0744387
72,вулиця Оксани Мешко,49074,48.5208688,35.0741230
92,вулиця Оксани Мешко,49074,48.5224676,35.0747083
88,вулиця Оксани Мешко,49074,48.5220968,35.0745788
86,вулиця Оксани Мешко,49074,48.5219421,35.0745448
13,Старокозацька вулиця,49000,48.4611876,35.0436408
16,вулиця Юлії Залюбовської,49026,48.5111694,35.0718136
25,Незламна вулиця,49021,48.5132137,35.0301276
29,Незламна вулиця,49021,48.5132825,35.0297197
84,Незламна вулиця,49125,48.5147426,35.0237647
82,Незламна вулиця,49125,48.5147535,35.0240410
78,Незламна вулиця,49125,48.5146272,35.0244653
148,вулиця Мольєра,49125,48.5184699,35.0306817
146,вулиця Мольєра,49125,48.5183617,35.0310202
101,вулиця Бетховена,49125,48.5188031,35.0308051
142,вулиця Мольєра,49125,48.5179889,35.0305388
97,вулиця Бетховена,49125,48.5186592,35.0310811
134,вулиця Мольєра,49125,48.5177012,35.0312651
99,вулиця Бетховена,49125,48.5186707,35.0308802
136,вулиця Мольєра,49125,48.5177670,35.0310844
124,вулиця Бетховена,49125,48.5194419,35.0299258
79,Ризька вулиця,49125,48.5200813,35.0305650
48,Ризька вулиця,49125,48.5194324,35.0334196
2-Д,вулиця Марії Лисиченко,49125,48.5203346,35.0389724
6-А,вулиця Марії Лисиченко,49125,48.5202911,35.0386032
32,вулиця Архімеда,49074,48.5294579,35.0861452
4,вулиця Туристів,49074,48.5274969,35.0868670
1,Ракетна вулиця,49074,48.5273557,35.0878283
2,вулиця Туристів,49074,48.5272498,35.0867603
16,вулиця Туристів,49074,48.5287809,35.0874038
10,вулиця Туристів,49074,48.5280540,35.0871195
8,вулиця Туристів,49074,48.5278346,35.0870346
18,вулиця Туристів,49074,48.5289965,35.0875232
15,Ракетна вулиця,49074,48.5287826,35.0885436
13,Ракетна вулиця,49074,48.5285826,35.0884426
11,Ракетна вулиця,49074,48.5283590,35.0883417
5,Ракетна вулиця,49074,48.5277154,35.0880754
7,Ракетна вулиця,49074,48.5279420,35.0881623
22,вулиця Туристів,49074,48.5292026,35.0875717
17,Ракетна вулиця,49074,48.5289920,35.0886251
15-А,Ракетна вулиця,49074,48.5287543,35.0881860
14,вулиця Туристів,49074,48.5285290,35.0873283
22,вулиця Туристів,49074,48.5291884,35.0877910
6,вулиця Туристів,49074,48.5276829,35.0869449
19,вулиця Туристів,49074,48.5290918,35.0870278
3,Ракетна вулиця,49074,48.5274930,35.0879563
21,вулиця Туристів,49074,48.5292946,35.0871146
15,вулиця Туристів,49074,48.5286643,35.0868393
30,вулиця Архімеда,49074,48.5292778,35.0860666
4,вулиця Лобачевського,49045,48.5289269,35.1034497
10,вулиця Лобачевського,49045,48.5292561,35.1038327
1,вулиця Дзвінка,49045,48.5284127,35.1040566
6,вулиця Лобачевського,49045,48.5290136,35.1035724
3,вулиця Дзвінка,49045,48.5286167,35.1043176
4,Кринична вулиця,49045,48.5292719,35.1020020
11,вулиця Лобачевського,49045,48.5298016,35.1038456
12,Кринична вулиця,49045,48.5297783,35.1025513
8,Кринична вулиця,49045,48.5295821,35.1023230
5,вулиця Лобачевського,49045,48.5292939,35.1032529
18,вулиця Лобачевського,49045,48.5300390,35.1047303
20,вулиця Дзвінка,49045,48.5294757,35.1059566
18,вулиця Дзвінка,49045,48.5292912,35.1057573
1,вулиця Лобачевського,49045,48.5289379,35.1028779
18,Кринична вулиця,49045,48.5303775,35.1032326
7,вулиця Дзвінка,49045,48.5291129,35.1049245
9,вулиця Дзвінка,49045,48.5293393,35.1051642
8,вулиця Лобачевського,49045,48.5291493,35.1037163
13,вулиця Лобачевського,49045,48.5300125,35.1040700
16,вулиця Лобачевського,49045,48.5299014,35.1046064
14,вулиця Лобачевського,49045,48.5296749,35.1043277
12,вулиця Лобачевського,49045,48.5294590,35.1040763
14,Кринична вулиця,49045,48.5300017,35.1028312
2,вулиця Лобачевського,49045,48.5288000,35.1033365
10,Кринична вулиця,49045,48.5296512,35.1024120
3,вулиця Лобачевського,49045,48.5290880,35.1030277
6,Кринична вулиця,49045,48.5294695,35.1022105
9,вулиця Лобачевського,49045,48.5296434,35.1036856
7,вулиця Лобачевського,49045,48.5294795,35.1034650
15,вулиця Лобачевського,49045,48.5301855,35.1042597
20,Кринична вулиця,49045,48.5305390,35.1034293
13,вулиця Дзвінка,49045,48.5296266,35.1055099
11,вулиця Дзвінка,49045,48.5294992,35.1053600
5,вулиця Дзвінка,49045,48.5288919,35.1046247
2,Кринична вулиця,49045,48.5290775,35.1022688
16,Кринична вулиця,49045,48.5301813,35.1030116
247,вулиця Івана Огієнка,49075,48.5367927,34.9972427
241,вулиця Івана Огієнка,49075,48.5363427,34.9986691
249,вулиця Івана Огієнка,49075,48.5369463,34.9970025
237,вулиця Івана Огієнка,49075,48.5361195,34.9991487
235,вулиця Івана Огієнка,49075,48.5359887,34.9995016
251,вулиця Івана Огієнка,49075,48.5370029,34.9968229
227,вулиця Івана Огієнка,49075,48.5356073,35.0000855
239,вулиця Івана Огієнка,49075,48.5362090,34.9989101
245,вулиця Івана Огієнка,49075,48.5365958,34.9979726
243,вулиця Івана Огієнка,49075,48.5364865,34.9983704
231,вулиця Івана Огієнка,49075,48.5358116,34.9998558
229,вулиця Івана Огієнка,49075,48.5355824,34.9998644
233,вулиця Івана Огієнка,49075,48.5359080,34.9996723
225,вулиця Івана Огієнка,49075,48.5353552,35.0002745
168,вулиця Івана Огієнка,49075,48.5364362,34.9990624
166,вулиця Івана Огієнка,49075,48.5363268,34.9993025
214,вулиця Івана Огієнка,49075,48.5388613,34.9944090
198,вулиця Івана Огієнка,49075,48.5380131,34.9961294
206,вулиця Івана Огієнка,49075,48.5384592,34.9950918
178,вулиця Івана Огієнка,49075,48.5372159,34.9983740
224,вулиця Івана Огієнка,49075,48.5393589,34.9933417
196,вулиця Івана Огієнка,49075,48.5379581,34.9964697
208,вулиця Івана Огієнка,49075,48.5385603,34.9948720
186,вулиця Івана Огієнка,49075,48.5373443,34.9971288
170,вулиця Івана Огієнка,49075,48.5365747,34.9988565
204,вулиця Івана Огієнка,49075,48.5383945,34.9953452
220,вулиця Івана Огієнка,49075,48.5391359,34.9937760
172,вулиця Івана Огієнка,49075,48.5365617,34.9985798
200,вулиця Івана Огієнка,49075,48.5381473,34.9957781
216,вулиця Івана Огієнка,49075,48.5389447,34.9941191
176,вулиця Івана Огієнка,49075,48.5368467,34.9979612
190,вулиця Івана Огієнка,49075,48.5376623,34.9967170
222,вулиця Івана Огієнка,49075,48.5392652,34.9934729
192,вулиця Івана Огієнка,49075,48.5376964,34.9965038
174,вулиця Івана Огієнка,49075,48.5367785,34.9982632
212,вулиця Івана Огієнка,49075,48.5389440,34.9949815
184,вулиця Івана Огієнка,49075,48.5371442,34.9972681
182,вулиця Івана Огієнка,49075,48.5370481,34.9974600
194,вулиця Івана Огієнка,49075,48.5377962,34.9961755
180,вулиця Івана Огієнка,49075,48.5370114,34.9978153
188,вулиця Івана Огієнка,49075,48.5373190,34.9968279
210,вулиця Івана Огієнка,49075,48.5386932,34.9947624
218,вулиця Івана Огієнка,49075,48.5390349,34.9939228
202,вулиця Івана Огієнка,49075,48.5381854,34.9955963
37,вулиця Юрія Лисянського,49045,48.5274946,35.1137448
38,вулиця Юрія Лисянського,49045,48.5285422,35.1137220
41,вулиця Юрія Лисянського,49045,48.5278819,35.1138942
39,вулиця Юрія Лисянського,49045,48.5277639,35.1138437
19,вулиця Юрія Лисянського,49045,48.5262281,35.1132024
17,вулиця Юрія Лисянського,49045,48.5260670,35.1130880
9,вулиця Юрія Лисянського,49045,48.5257020,35.1127920
29,вулиця Юрія Лисянського,49045,48.5268376,35.1132756
13,вулиця Юрія Лисянського,49045,48.5258788,35.1128727
23,вулиця Юрія Лисянського,49045,48.5263465,35.1132036
33,вулиця Юрія Лисянського,49045,48.5271662,35.1135869
25,вулиця Юрія Лисянського,49045,48.5265347,35.1132736
35,вулиця Юрія Лисянського,49045,48.5273032,35.1136563
5,вулиця Юрія Лисянського,49045,48.5255875,35.1127621
20,Виконкомівська вулиця,49044,48.4579480,35.0470016
65,вулиця Олександра Кониського,49069,48.4478022,35.0347409
67,вулиця Олександра Кониського,49069,48.4476470,35.0345710
4,Квартальна вулиця,49033,48.4004029,35.0017594
6,Квартальна вулиця,49033,48.4012149,35.0022297
7,Квартальна вулиця,49033,48.4024816,35.0020290
7-А,Квартальна вулиця,49033,48.4029601,35.0020751
16,Троїцька вулиця,49000,48.4610976,35.0415090
18,Троїцька вулиця,49000,48.4610258,35.0410453
13,Троїцька вулиця,49000,48.4607551,35.0419119
99-А,вулиця Бутова,49045,48.5264182,35.1170824
59,вулиця Бутова,49045,48.5239423,35.1165543
69,вулиця Бутова,49045,48.5245983,35.1169723
57,вулиця Бутова,49045,48.5237065,35.1168967
106,вулиця Бутова,49045,48.5252301,35.1174799
15,вулиця Бутова,49045,48.5206931,35.1167086
23,вулиця Бутова,49045,48.5214059,35.1167581
71,вулиця Бутова,49045,48.5247524,35.1170157
33,вулиця Бутова,49045,48.5221733,35.1167885
11,вулиця Бутова,49045,48.5204695,35.1167126
13,вулиця Бутова,49045,48.5206362,35.1164972
55,вулиця Бутова,49045,48.5236067,35.1167856
120,вулиця Бутова,49045,48.5264543,35.1175302
73-А,вулиця Бутова,49045,48.5250333,35.1160821
81,вулиця Бутова,49045,48.5254676,35.1170783
85,вулиця Бутова,49045,48.5257146,35.1171297
75,вулиця Бутова,49045,48.5250435,35.1170673
126-А,вулиця Бутова,49045,48.5270660,35.1177253
101,вулиця Бутова,49045,48.5269757,35.1164130
22,вулиця Бутова,49045,48.5195475,35.1172139
45,вулиця Бутова,49045,48.5230477,35.1168827
5,вулиця Бутова,49045,48.5197971,35.1166903
37,вулиця Бутова,49045,48.5224976,35.1168121
108,вулиця Бутова,49045,48.5255892,35.1175803
53,вулиця Бутова,49045,48.5234471,35.1169469
79,вулиця Бутова,49045,48.5253338,35.1170702
77,вулиця Бутова,49045,48.5251942,35.1170512
3,вулиця Бутова,49045,48.5196029,35.1166591
20/2,вулиця Бутова,49045,48.5193994,35.1169905
124,вулиця Бутова,49045,48.5269535,35.1175047
41,вулиця Бутова,49045,48.5227832,35.1168438
83,вулиця Бутова,49045,48.5256004,35.1171181
19,вулиця Бутова,49045,48.5210692,35.1167482
73,вулиця Бутова,49045,48.5249064,35.1170425
47,вулиця Бутова,49045,48.5231742,35.1167914
39,вулиця Бутова,49045,48.5226673,35.1166908
21,вулиця Бутова,49045,48.5212390,35.1167601
273,вулиця Бутова,49045,48.5252313,35.1162499
31,вулиця Бутова,49045,48.5220656,35.1167636
43,вулиця Бутова,49045,48.5229088,35.1168711
105,вулиця Бутова,49045,48.5270177,35.1171406
114,вулиця Бутова,49045,48.5260100,35.1175016
128,вулиця Бутова,49045,48.5273516,35.1176609
35,вулиця Бутова,49045,48.5223546,35.1166443
132,вулиця Бутова,49045,48.5275980,35.1175976
109,вулиця Бутова,49045,48.5272873,35.1171262
113,Кільченська вулиця,49045,48.5274962,35.1171296
27,вулиця Бутова,49045,48.5218764,35.1167425
126,вулиця Бутова,49045,48.5272217,35.1175303
112,вулиця Бутова,49045,48.5258707,35.1175425
116,вулиця Бутова,49045,48.5261617,35.1177680
103,вулиця Бутова,49045,48.5267564,35.1171258
107,вулиця Бутова,49045,48.5271287,35.1171408
110,вулиця Бутова,49045,48.5257235,35.1175288
130,вулиця Бутова,49045,48.5274608,35.1175814
87,вулиця Бутова,49045,48.5261419,35.1160044
122,вулиця Бутова,49045,48.5268562,35.1175230
49,вулиця Бутова,49045,48.5232992,35.1169208
17,вулиця Бутова,49045,48.5207928,35.1166632
24,вулиця Бутова,49045,48.5197069,35.1171855
46,вулиця Бутова,49045,48.5210682,35.1171387
7,вулиця Бутова,49045,48.5201042,35.1166336
93,вулиця Бутова,49045,48.5263039,35.1161550
1/2,вулиця Бутова,49045,48.5192975,35.1166513
85/3,вулиця Володимира Антоновича,49006,48.4662840,35.0110474
98,вулиця Максима Березовського,49082,48.5528312,34.9476754
6,Редутна вулиця,49046,48.5187578,34.9513666
14-Б,Шпаковий провулок,49082,48.5277315,34.9342707
16,Шпаковий провулок,49082,48.5300256,34.9333111
12,Шпаковий провулок,49082,48.5304788,34.9329410
14-А,Шпаковий провулок,49082,48.5282058,34.9352109
10,Шпаковий провулок,49082,48.5306951,34.9327825
14,Шпаковий провулок,49082,48.5302663,34.9331105
8,Шпаковий провулок,49082,48.5308836,34.9325896
14,Атлетична вулиця,49082,48.5399921,34.9527636
12,Атлетична вулиця,49082,48.5399393,34.9528593
90,Шпакова вулиця,49082,48.5457545,34.9257819
88,Шпакова вулиця,49082,48.5456320,34.9260707
76,Шпакова вулиця,49082,48.5444009,34.9270380
82,Шпакова вулиця,49082,48.5449794,34.9265284
80,Шпакова вулиця,49082,48.5448808,34.9268514
78,Шпакова вулиця,49082,48.5447212,34.9270686
86,Шпакова вулиця,49082,48.5453781,34.9261387
84,Шпакова вулиця,49082,48.5452272,34.9264682
15,Куликовська вулиця,49026,48.5101689,35.0605262
17,Куликовська вулиця,49026,48.5102713,35.0606776
19,Куликовська вулиця,49026,48.5104845,35.0607791
21,Куликовська вулиця,49026,48.5106765,35.0608838
23,вулиця Генерала Кравченка,49026,48.5103341,35.0622272
24,Канівська вулиця,49026,48.5108171,35.0621919
11,Канівська вулиця,49083,48.5087735,35.0703790
24,Подєбрадська вулиця,49083,48.5082064,35.0713049
28,Подєбрадська вулиця,49083,48.5080252,35.0710907
30,Подєбрадська вулиця,49083,48.5081115,35.0707735
34,Подєбрадська вулиця,49083,48.5081814,35.0703192
38-А,Подєбрадська вулиця,49083,48.5083417,35.0695814
9,Полтавська вулиця,49083,48.5080990,35.0714943
18,Канівська вулиця,49026,48.5098461,35.0679372
10,Канівська вулиця,49026,48.5097836,35.0690165
14,Канівська вулиця,49026,48.5096936,35.0683863
33,Орільський провулок,49082,48.5584801,34.9283730
43,Березанівська вулиця,49042,48.5455595,34.9228250
49,Березанівська вулиця,49082,48.5461098,34.9222630
49-А,Березанівська вулиця,49082,48.5462038,34.9219879
30-Б,Дніпросталівська вулиця,49044,48.4996471,35.1112844
1,Пальмова вулиця,49117,48.4770621,35.1552631
18,Німецька вулиця,49117,48.4787215,35.1571358
3,Пальмова вулиця,49117,48.4767995,35.1557193
122,Німецька вулиця,49117,48.4733178,35.1507585
118,Німецька вулиця,49117,48.4737198,35.1508923
16,Німецька вулиця,49117,48.4787868,35.1572558
124,Німецька вулиця,49117,48.4731556,35.1506251
20,Німецька вулиця,49117,48.4787674,35.1568563
22,Німецька вулиця,49117,48.4785698,35.1569289
27,Німецька вулиця,49117,48.4779971,35.1566339
51,Німецька вулиця,49117,48.4772762,35.1551266
25,Пальмова вулиця,49117,48.4749424,35.1582718
5,Пальмова вулиця,49117,48.4764517,35.1563046
24,Пальмова вулиця,49117,48.4750947,35.1577512
18,Пальмова вулиця,49117,48.4755123,35.1572634
26,Пальмова вулиця,49117,48.4749172,35.1579363
14,Пальмова вулиця,49117,48.4758008,35.1567765
28,Пальмова вулиця,49117,48.4746912,35.1581731
20,Пальмова вулиця,49117,48.4753956,35.1574256
12,Пальмова вулиця,49117,48.4761709,35.1562109
6,Пальмова вулиця,49117,48.4764636,35.1556729
111,Німецька вулиця,49117,48.4741212,35.1520672
2,Пальмова вулиця,49117,48.4766569,35.1551867
109,Німецька вулиця,49117,48.4742662,35.1518361
105,Німецька вулиця,49117,48.4742646,35.1525043
4,Пальмова вулиця,49117,48.4765895,35.1553610
10,Пальмова вулиця,49117,48.4758731,35.1553259
107,Німецька вулиця,49117,48.4744022,35.1519592
2,вулиця Здоровʼя,49117,48.4768171,35.1547871
16,Пальмова вулиця,49117,48.4756330,35.1570755
1,вулиця Здоровʼя,49117,48.4766245,35.1549468
113,Німецька вулиця,49117,48.4740800,35.1517867
8,Пальмова вулиця,49117,48.4760376,35.1554496
115,Німецька вулиця,49117,48.4738554,35.1523164
60Н,Кокчетавська вулиця,49115,48.4780791,35.1726354
218,Німецька вулиця,49117,48.4617701,35.1422118
214,Німецька вулиця,49117,48.4618153,35.1433260
208,Німецька вулиця,49117,48.4620819,35.1434903
160,Німецька вулиця,49117,48.4697393,35.1493301
158,Німецька вулиця,49117,48.4701808,35.1494628
156,Німецька вулиця,49117,48.4703854,35.1495201
148,Німецька вулиця,49117,48.4711868,35.1499426
146,Німецька вулиця,49117,48.4713292,35.1499734
154/2,Німецька вулиця,49117,48.4709503,35.1497035
144,Німецька вулиця,49117,48.4715674,35.1500758
152,Німецька вулиця,49117,48.4710567,35.1498617
127,Німецька вулиця,49117,48.4728279,35.1511733
17,вулиця Журналістів,49051,48.5151089,35.0940549
8,вулиця Зиновія Матли,49080,48.5077711,34.9902134
26-А,Артеківська вулиця,49026,48.5131704,35.0759556
53,вулиця Галини Мазепи,49087,48.5163184,35.0623033
55,вулиця Галини Мазепи,49087,48.5165705,35.0609891
63,вулиця Галини Мазепи,49087,48.5169472,35.0586381
65,вулиця Галини Мазепи,49087,48.5171930,35.0573304
25,Гельсінська вулиця,49026,48.5162767,35.0731718
29,вулиця Степана Рудницького,49080,48.5008967,34.9911148
2-Б,Донецьке шосе,49080,48.5033368,34.9799050
19,вулиця Степана Рудницького,49080,48.5047832,34.9901706
2,Донецьке шосе,49080,48.5087398,34.9906498
11,Робоча вулиця,49006,48.4650685,35.0108744
11,Робоча вулиця,49006,48.4648317,35.0105999
15,Робоча вулиця,49006,48.4646034,35.0101551
3,Робоча вулиця,49006,48.4661063,35.0109314
5,Робоча вулиця,49006,48.4658940,35.0108738
7,Робоча вулиця,49006,48.4655214,35.0106326
7,Робоча вулиця,49006,48.4654053,35.0110936
15,Робоча вулиця,49006,48.4647826,35.0101739
13,Робоча вулиця,49006,48.4649644,35.0102675
7,Кавалерійська вулиця,49006,48.4642970,35.0099122
17,Робоча вулиця,49006,48.4639942,35.0097964
3,Кавалерійська вулиця,49006,48.4641729,35.0103247
83,вулиця Володимира Антоновича,49006,48.4664961,35.0116327
15,Робоча вулиця,49006,48.4646759,35.0104878
9,Робоча вулиця,49006,48.4653859,35.0105418
7,Робоча вулиця,49006,48.4657119,35.0107428
21,Робоча вулиця,49006,48.4633128,35.0095509
23,Робоча вулиця,49006,48.4628977,35.0093327
23-А,Робоча вулиця,49006,48.4626794,35.0092078
63,вулиця Володимира Антоновича,49006,48.4654681,35.0161114
61,вулиця Володимира Антоновича,49006,48.4653406,35.0166895
52,Філософська вулиця,49006,48.4643699,35.0162269
50,Філософська вулиця,49006,48.4645740,35.0163061
46,Філософська вулиця,49006,48.4649701,35.0164879
25,вулиця Степана Рудницького,49080,48.5030869,34.9897885
16,Кавалерійська вулиця,49006,48.4633946,35.0153278
18,Кавалерійська вулиця,49006,48.4634929,35.0149411
31-А,Ульянівська вулиця,49101,48.4616050,35.0215754
36/1,вулиця Азовсталі,49081,48.4911938,35.0708465
33,Коротка вулиця,49081,48.4911429,35.0701528
38-Б,проспект Богдана Хмельницького,49038,48.4240850,35.0109132
3,Литовська вулиця,49089,48.4291808,35.0006027
32,Мечетна вулиця,49074,48.5189695,35.0644414
1,Мечетна вулиця,49074,48.5175280,35.0620754
11,Мечетна вулиця,49074,48.5181171,35.0628452
69,вулиця Свєтлова,49101,48.4580536,35.0307176
17,Барвінківська вулиця,49054,48.4496373,35.0263391
11-А,Барвінківська вулиця,49054,48.4494636,35.0266394
11,Барвінківська вулиця,49054,48.4491655,35.0271791
17-А,Барвінківська вулиця,49054,48.4497050,35.0259932
8,Слобідська вулиця,49069,48.4469172,35.0348391
79,вулиця Олександра Кониського,49069,48.4465331,35.0333745
14а,Слобідська вулиця,49069,48.4464754,35.0341387
73а,вулиця Олександра Кониського,49069,48.4471826,35.0340742
8а,Слобідська вулиця,49069,48.4469814,35.0350651
68,вулиця Олександра Кониського,49069,48.4478467,35.0336940
12,Слобідська вулиця,49069,48.4466886,35.0341521
16,Слобідська вулиця,49069,48.4461128,35.0334876
12а,Слобідська вулиця,49069,48.4466319,35.0344057
79а,вулиця Олександра Кониського,49069,48.4464483,35.0334977
10,Слобідська вулиця,49069,48.4468022,35.0345885
16а,Слобідська вулиця,49069,48.4463207,35.0336616
66,вулиця Олександра Кониського,49069,48.4479760,35.0339044
25,Мечетна вулиця,49074,48.5193114,35.0642962
61,вулиця Кривоноса,49074,48.5197749,35.0630018
59,вулиця Кривоноса,49074,48.5196741,35.0628912
38,Араратська вулиця,49087,48.5203085,35.0624086
9,Слобідська вулиця,49069,48.4464731,35.0350232
15/1,Слобідська вулиця,49069,48.4462036,35.0342998
19,Слобідська вулиця,49069,48.4459889,35.0338633
5,Слобідська вулиця,49069,48.4467626,35.0355165
7,Слобідська вулиця,49069,48.4466527,35.0353159
17,Слобідська вулиця,49069,48.4460265,35.0340401
3,Слобідська вулиця,49069,48.4469417,35.0357483
11,Слобідська вулиця,49069,48.4463316,35.0348914
67,вулиця Олександра Кониського,49069,48.4489592,35.0360182
33/1,Ближня вулиця,49102,48.4550579,34.9334408
1,вулиця Марії Кюрі,49010,48.4399375,35.0527175
39,Севастопольська вулиця,49010,48.4422960,35.0533124
53,Севастопольська вулиця,49010,48.4416322,35.0533628
55-А,Севастопольська вулиця,49010,48.4417806,35.0526689
59,Севастопольська вулиця,49010,48.4414155,35.0522441
33,Севастопольська вулиця,49010,48.4426311,35.0537610
57,Севастопольська вулиця,49010,48.4415781,35.0525077
55,Севастопольська вулиця,49010,48.4416061,35.0530535
43,Севастопольська вулиця,49010,48.4421109,35.0530876
49,Севастопольська вулиця,49010,48.4419757,35.0534303
7-А,Диканський провулок,49010,48.4404706,35.0533527
7,Диканський провулок,49010,48.4404371,35.0535463
67,Севастопольська вулиця,49010,48.4410791,35.0517662
51,Севастопольська вулиця,49010,48.4417526,35.0532034
41,Севастопольська вулиця,49010,48.4421583,35.0533896
35,Севастопольська вулиця,49010,48.4424838,35.0535259
47,Севастопольська вулиця,49010,48.4419333,35.0530332
6,Лоцманський узвіз,49005,48.4433710,35.0607588
8-А,Лоцманський узвіз,49005,48.4424279,35.0617245
10-А,Лоцманський узвіз,49005,48.4414210,35.0611290
8,Лоцманський узвіз,49005,48.4420979,35.0613990
12,Лоцманський узвіз,49005,48.4414517,35.0607768
17а/1,Сімферопольська вулиця,49005,48.4489435,35.0685969
4,провулок Григорія Маркевича,49005,48.4484647,35.0686477
10,Горбиста вулиця,49005,48.4484440,35.0692471
12,Горбиста вулиця,49005,48.4481160,35.0689090
5,Селянський узвіз,49005,48.4481912,35.0685833
11,Печерський узвіз,49005,48.4460919,35.0640151
8,Сімферопольський провулок,49005,48.4470297,35.0656138
5,Печерський узвіз,49005,48.4460642,35.0636561
2,Кіпарисовий провулок,49005,48.4466212,35.0642225
53,Сімферопольська вулиця,49005,48.4465948,35.0637932
85,Лабораторна вулиця,49010,48.4338326,35.0511742
100,Тихвінська вулиця,49010,48.4333967,35.0513979
87,Лабораторна вулиця,49010,48.4337757,35.0509844
83,Лабораторна вулиця,49010,48.4339878,35.0512013
89,Лабораторна вулиця,49010,48.4336708,35.0508622
93,Лабораторна вулиця,49010,48.4334143,35.0504147
6-А,Краснопільська вулиця,49033,48.4107542,34.9969698
6,Краснопільська вулиця,49033,48.4105339,34.9976758
87-Б,вулиця Володимира Антоновича,49006,48.4668083,35.0100552
46,Хортицька вулиця,49050,48.4255348,35.0437960
56,Хортицька вулиця,49050,48.4248223,35.0430807
42,Хортицька вулиця,49050,48.4258248,35.0443010
38,Хортицька вулиця,49050,48.4261952,35.0447001
40,Хортицька вулиця,49050,48.4260711,35.0446471
34,Хортицька вулиця,49050,48.4264952,35.0451332
48,Хортицька вулиця,49050,48.4254061,35.0436039
50,Хортицька вулиця,49050,48.4252427,35.0433851
44,Хортицька вулиця,49050,48.4256582,35.0440981
32,Хортицька вулиця,49050,48.4266150,35.0452775
30,Хортицька вулиця,49050,48.4268503,35.0455171
36,Хортицька вулиця,49050,48.4263828,35.0449030
62-Б,вулиця Олександра Данченка,49127,48.4189087,35.1250117
58-А,вулиця Марії Заньковецької,49050,48.4230488,35.0408065
35-А,Калинова вулиця,49026,48.5124388,35.0672765
15/1,Калинова вулиця,49026,48.5113846,35.0752263
87л,Калинова вулиця,49087,48.5149200,35.0538892
62,вулиця Братів Горобців,49047,48.4396569,34.9996893
4-К,Новокримська вулиця,49055,48.4287125,35.0093366
51,Гайова вулиця,49115,48.4798537,35.1874330
53,Гайова вулиця,49115,48.4793201,35.1880204
78-А,Рибінська вулиця,49107,48.4274263,35.0259220
76,Рибінська вулиця,49107,48.4275064,35.0262865
72,Рибінська вулиця,49107,48.4276641,35.0267972
70,Рибінська вулиця,49107,48.4277805,35.0269992
62,Рибінська вулиця,49107,48.4280700,35.0274095
64,Рибінська вулиця,49107,48.4279761,35.0273125
60,Рибінська вулиця,49107,48.4281532,35.0275182
58,Рибінська вулиця,49107,48.4282820,35.0275513
4-А,Зразкова вулиця,49087,48.5182598,35.0555365
30,вулиця Одоєвського,49107,48.4285333,35.0319410
22,вулиця Одоєвського,49107,48.4290120,35.0325761
22-А,вулиця Одоєвського,49107,48.4291921,35.0329666
18,вулиця Одоєвського,49107,48.4294235,35.0332378
20,вулиця Одоєвського,49107,48.4293241,35.0330933
22-А,вулиця Одоєвського,49107,48.4291376,35.0326535
32,вулиця Одоєвського,49107,48.4277899,35.0312943
36,вулиця Одоєвського,49107,48.4275516,35.0310117
21,Батарейна вулиця,49107,48.4281091,35.0303306
38,вулиця Одоєвського,49107,48.4274523,35.0308765
2,3-й тупик Одоєвського,49107,48.4276343,35.0322990
1,3-й тупик Одоєвського,49107,48.4278208,35.0325817
35,вулиця Одоєвського,49107,48.4279883,35.0322472
2-А,3-й тупик Одоєвського,49107,48.4275657,35.0324720
3,3-й тупик Одоєвського,49107,48.4277307,35.0328327
19-А,Квартальна вулиця,49033,48.3997984,35.0031966
10,Крутогірний узвіз,49044,48.4624968,35.0588948
7-А,вулиця Генерала Миколи Капустянського,49049,48.4067957,35.0657530
8,проспект Праці,49000,48.4041723,35.0417365
49,вулиця Кожедуба,49115,48.4841335,35.1948606
42,вулиця Кожедуба,49115,48.4845325,35.1934832
17-Б,Керамічна вулиця,49114,48.4773261,35.1987802
55,Мальовнича вулиця,49114,48.4758001,35.2014466
41,вулиця Остафія Дашкевича,49114,48.4748492,35.2010925
30,Липнева вулиця,49115,48.4811755,35.1946497
50,Прорізна вулиця,49114,48.4675838,35.2031382
108,Зоопаркова вулиця,49114,48.4772456,35.1930640
53,Гайова вулиця,49115,48.4789292,35.1886821
22,Розʼїзна вулиця,49115,48.4738465,35.1895050
86,Зоопаркова вулиця,49114,48.4751014,35.1945921
2,Північнодонецька вулиця,49114,48.4764950,35.1936218
42/1,вулиця Івана Рудичіва,49114,48.4732674,35.1992669
20-А,Календарна вулиця,49114,48.4674363,35.2058560
45,Виконкомівська вулиця,49101,48.4547545,35.0474095
16,вулиця Данила Самойловича,49115,48.4662441,35.1872773
1,вулиця Бориса Мозолевського,49033,48.4000008,35.0020739
52,Хортицька вулиця,49050,48.4251200,35.0433679
54,Хортицька вулиця,49050,48.4249673,35.0431699
2,Південний провулок,49044,48.4582371,35.0483340
49/1,вулиця Галини Мазепи,49026,48.5163838,35.0635019
1м,вулиця Олександра Оцупа,49051,48.5049261,35.1156464
1м,вулиця Олександра Оцупа,49051,48.5048031,35.1147063
144,проспект Богдана Хмельницького,49000,48.3968830,34.9987924
86-А,вулиця Набережна Заводська,49000,48.4884931,34.9344874
16,Виконкомівська вулиця,49044,48.4584414,35.0469504
42,вулиця Олександра Данченка,49127,48.4164622,35.1255050
61-А,проспект Миру,49130,48.5294263,35.0151773
111,вулиця Бутова,49045,48.5273839,35.1170633
26,Висока вулиця,49045,48.5391420,35.1135237
24,Висока вулиця,49045,48.5389622,35.1134122
4,Висока вулиця,49045,48.5374933,35.1123700
28,Висока вулиця,49045,48.5393097,35.1136258
12,Висока вулиця,49045,48.5380026,35.1127247
22,Висока вулиця,49045,48.5388265,35.1132731
18,Висока вулиця,49045,48.5384897,35.1130753
10,Висока вулиця,49045,48.5378434,35.1125912
20,Висока вулиця,49045,48.5386599,35.1131865
30,Висока вулиця,49045,48.5394608,35.1137422
16,Висока вулиця,49045,48.5382692,35.1129822
2,Висока вулиця,49045,48.5372793,35.1122609
279,Німецька вулиця,49117,48.4616909,35.1437626
281,Німецька вулиця,49117,48.4615350,35.1436275
153,Німецька вулиця,49117,48.4694762,35.1498048
211,Німецька вулиця,49117,48.4658817,35.1485072
161,Німецька вулиця,49117,48.4689516,35.1495448
155,Німецька вулиця,49117,48.4693749,35.1497230
163,Німецька вулиця,49117,48.4687926,35.1495491
165,Німецька вулиця,49117,48.4686568,35.1494445
209-А,Німецька вулиця,49117,48.4659633,35.1486493
157,Німецька вулиця,49117,48.4692184,35.1497145
213,Німецька вулиця,49117,48.4655542,35.1484869
159,Німецька вулиця,49117,48.4690945,35.1496188
151,Німецька вулиця,49117,48.4695964,35.1498278
167,Німецька вулиця,49117,48.4684233,35.1494525
48,Гайова вулиця,49115,48.4790512,35.1873462
55,Гайова вулиця,49115,48.4790494,35.1882034
20,Розʼїзна вулиця,49115,48.4735403,35.1896282
10,Німецька вулиця,49177,48.4794367,35.1568506
23,Німецька вулиця,49117,48.4782581,35.1571353
22,Пальмова вулиця,49117,48.4752126,35.1575661
51,Гайова вулиця,49115,48.4797350,35.1875693
98,Броньова вулиця,49116,48.4927005,35.1858450
69,Броньова вулиця,49116,48.4928961,35.1863324
63,Броньова вулиця,49116,48.4938288,35.1861501
67,Броньова вулиця,49116,48.4931107,35.1863482
73,Броньова вулиця,49116,48.4923515,35.1865083
65,Броньова вулиця,49116,48.4933591,35.1862900
71,Броньова вулиця,49116,48.4925099,35.1864176
4,Парковий провулок,49115,48.4826997,35.1919659
2,Парковий провулок,49115,48.4828044,35.1921928
6,Парковий провулок,49115,48.4825931,35.1917494
5,Парковий провулок,49115,48.4824433,35.1919021
1,Парковий провулок,49115,48.4826938,35.1924275
3,Парковий провулок,49115,48.4825321,35.1920567
3,Парковий провулок,49115,48.4825900,35.1922563
32,Розʼїзна вулиця,49115,48.4743174,35.1893695
39,Щоглова вулиця,49115,48.4859496,35.1899479
10/2,Біловодська вулиця,49115,48.4790188,35.1897863
115,Зоопаркова вулиця,49115,48.4791688,35.1920804
117,Зоопаркова вулиця,49115,48.4790936,35.1924740
109,Зоопаркова вулиця,49115,48.4787700,35.1915177
111,Зоопаркова вулиця,49115,48.4788817,35.1917411
113,Зоопаркова вулиця,49115,48.4789359,35.1920109
103,Зоопаркова вулиця,49115,48.4786783,35.1910243
101,Зоопаркова вулиця,49115,48.4784636,35.1913173
99,Зоопаркова вулиця,49115,48.4783198,35.1914285
87,Зоопаркова вулиця,49115,48.4776523,35.1920083
83,Зоопаркова вулиця,49115,48.4773877,35.1919254
97,Зоопаркова вулиця,49115,48.4781536,35.1916490
89,Зоопаркова вулиця,49115,48.4776353,35.1916986
91,Зоопаркова вулиця,49115,48.4778129,35.1919249
81,Зоопаркова вулиця,49115,48.4772945,35.1922493
95,Зоопаркова вулиця,49115,48.4780688,35.1917148
93,Зоопаркова вулиця,49115,48.4779058,35.1918433
85,Зоопаркова вулиця,49115,48.4775186,35.1921250
2,Микільский провулок,49115,48.4775028,35.1894858
2,Микільский провулок,49115,48.4772686,35.1892197
2-А,Микільский провулок,49115,48.4771810,35.1889450
40,Апостолівська вулиця,49115,48.4847085,35.1939430
2,провулок Відпочинку,49115,48.4825597,35.1965437
4,провулок Відпочинку,49115,48.4824725,35.1961898
107,Мальовнича вулиця,49114,48.4827852,35.1968174
1,провулок Відпочинку,49115,48.4825440,35.1970032
118,Зоопаркова вулиця,49115,48.4787597,35.1925191
116,Зоопаркова вулиця,49115,48.4786766,35.1923286
120,Зоопаркова вулиця,49115,48.4788524,35.1927495
54,Автодорожна вулиця,49115,48.4779998,35.1923386
54-А,Автодорожна вулиця,49115,48.4783824,35.1922339
114,Зоопаркова вулиця,49115,48.4786155,35.1921111
52,Автодорожна вулиця,49115,48.4781062,35.1927404
54/1,Автодорожна вулиця,49115,48.4780356,35.1925415
46,Автодорожна вулиця,49115,48.4784931,35.1932228
50,Автодорожна вулиця,49115,48.4782115,35.1929545
44,Автодорожна вулиця,49115,48.4784923,35.1936958
39,Самарська вулиця,49116,48.4925924,35.1876666
34,Розʼїзна вулиця,49115,48.4747163,35.1892991
22-А,Розʼїзна вулиця,49115,48.4740669,35.1894048
79,Зоопаркова вулиця,49114,48.4765024,35.1927616
77,Зоопаркова вулиця,49114,48.4759978,35.1934095
6,Північнодонецька вулиця,49114,48.4768127,35.1937365
92,Зоопаркова вулиця,49114,48.4768366,35.1932358
45,Автодорожна вулиця,49114,48.4778005,35.1936798
49,Автодорожна вулиця,49114,48.4778842,35.1931376
49,Автодорожна вулиця,49114,48.4777447,35.1928689
43,Автодорожна вулиця,49114,48.4781136,35.1937186
112,Зоопаркова вулиця,49115,48.4775205,35.1927328
51,Автодорожна вулиця,49114,48.4777084,35.1926429
112/1,Зоопаркова вулиця,49115,48.4775100,35.1929808
43-А,Автодорожна вулиця,49115,48.4779432,35.1940802
47,Автодорожна вулиця,49114,48.4779593,35.1933411
4,Північнодонецька вулиця,49114,48.4765608,35.1938204
10,Північнодонецька вулиця,49114,48.4767120,35.1943830
12,Північнодонецька вулиця,49114,48.4767844,35.1945102
14,Північнодонецька вулиця,49114,48.4769537,35.1946582
8,Північнодонецька вулиця,49114,48.4766377,35.1941121
65,вулиця Романовського,49115,48.4750403,35.1963502
71,вулиця Романовського,49115,48.4758718,35.1957718
80/2,Зоопаркова вулиця,49114,48.4748041,35.1948444
82,Зоопаркова вулиця,49114,48.4750516,35.1948228
73,вулиця Романовського,49115,48.4759615,35.1956504
90,Зоопаркова вулиця,49114,48.4755339,35.1944395
78,Зоопаркова вулиця,49114,48.4746202,35.1949873
69,вулиця Романовського,49115,48.4754162,35.1960938
71,вулиця Романовського,49115,48.4756206,35.1959438
67,вулиця Романовського,49115,48.4752831,35.1961795
74,Зоопаркова вулиця,49114,48.4742381,35.1952233
65-А,вулиця Романовського,49115,48.4750729,35.1960852
78,вулиця Відпочинку,49114,48.4773275,35.1973851
63,Зоопаркова вулиця,49114,48.4734679,35.1953221
57,Зоопаркова вулиця,49114,48.4730787,35.1956758
49,Зоопаркова вулиця,49114,48.4722417,35.1963350
61/2,Зоопаркова вулиця,49114,48.4732415,35.1955229
41,вулиця Князя Костянтина Острозького,49114,48.4738029,35.1951114
59,Зоопаркова вулиця,49114,48.4730943,35.1953670
76,вулиця Відпочинку,49114,48.4767623,35.1981472
32,вулиця Князя Костянтина Острозького,49114,48.4749923,35.1974642
73,Зоопаркова вулиця,49114,48.4748946,35.1942575
42,вулиця Князя Костянтина Острозького,49114,48.4740820,35.1948697
44,вулиця Князя Костянтина Острозького,49114,48.4739883,35.1944984
65,Зоопаркова вулиця,49114,48.4742634,35.1947040
54,вулиця Князя Костянтина Острозького,49114,48.4735819,35.1933560
66,вулиця Князя Костянтина Острозького,49114,48.4731642,35.1919544
61,вулиця Князя Костянтина Острозького,49114,48.4728774,35.1920753
9,Розʼїзна вулиця,49115,48.4727700,35.1892679
65,вулиця Князя Костянтина Острозького,49114,48.4725053,35.1908297
9,Косогірна вулиця,49115,48.4714896,35.1905683
1,Косогірна вулиця,49115,48.4722959,35.1900715
63,вулиця Князя Костянтина Острозького,49114,48.4726056,35.1910853
5,Косогірна вулиця,49115,48.4718526,35.1905067
3,Косогірна вулиця,49115,48.4720435,35.1903227
73,Араратська вулиця,49087,48.5240645,35.0635698
77,Араратська вулиця,49087,48.5244503,35.0637029
101,вулиця Кривоноса,49074,48.5233254,35.0646062
88,Араратська вулиця,49087,48.5243655,35.0641066
80,Араратська вулиця,49087,48.5236270,35.0638832
71,Араратська вулиця,49087,48.5239392,35.0632059
99,вулиця Кривоноса,49074,48.5231549,35.0645332
92,вулиця Кривоноса,49074,48.5227579,35.0648146
68,вулиця Кривоноса,49074,48.5207581,35.0640015
82,вулиця Кривоноса,49074,48.5220507,35.0645061
76,вулиця Кривоноса,49074,48.5214424,35.0642986
86,вулиця Кривоноса,49074,48.5223982,35.0646578
64,вулиця Кривоноса,49074,48.5204744,35.0638975
11,вулиця Миколи Стасюка,49074,48.5205494,35.0646409
3-А,Новосибірська вулиця,49074,48.5198085,35.0649553
80,вулиця Кривоноса,49074,48.5216824,35.0643549
66,вулиця Кривоноса,49074,48.5206402,35.0639639
7,вулиця Миколи Стасюка,49074,48.5201519,35.0646725
65,Араратська вулиця,49087,48.5234040,35.0632229
5,вулиця Миколи Стасюка,49074,48.5199583,35.0645288
5-А,Новосибірська вулиця,49074,48.5200237,35.0651588
139,вулиця Кривоноса,49074,48.5268251,35.0660213
138,вулиця Кривоноса,49074,48.5267990,35.0664166
114,Араратська вулиця,49087,48.5264698,35.0650160
134,вулиця Кривоноса,49074,48.5265504,35.0663645
119,вулиця Кривоноса,49074,48.5252459,35.0654081
114,вулиця Кривоноса,49074,48.5250026,35.0657552
123-А,вулиця Кривоноса,49074,48.5255366,35.0653593
57,вулиця Миколи Стасюка,49074,48.5248657,35.0665510
125,вулиця Кривоноса,49074,48.5257889,35.0653095
123,вулиця Кривоноса,49074,48.5255839,35.0655847
137,вулиця Кривоноса,49074,48.5267270,35.0659747
44,вулиця Миколи Стасюка,49074,48.5257606,35.0675100
91,вулиця Кривоноса,49074,48.5224833,35.0642803
73,Мечетна вулиця,49074,48.5259494,35.0686348
57,Араратська вулиця,49087,48.5226985,35.0629780
79,Мечетна вулиця,49074,48.5264370,35.0688866
28,вулиця Миколи Стасюка,49074,48.5244222,35.0668583
89,вулиця Кривоноса,49074,48.5223795,35.0642183
65,Мечетна вулиця,49074,48.5252719,35.0683660
48,вулиця Петра Яцика,49074,48.5242963,35.0676249
67,Мечетна вулиця,49074,48.5253760,35.0683739
59,Мечетна вулиця,49074,48.5247452,35.0681628
61,Мечетна вулиця,49074,48.5248479,35.0682194
63,Мечетна вулиця,49074,48.5251005,35.0683165
69,Мечетна вулиця,49074,48.5256141,35.0685297
114,Мечетна вулиця,49074,48.5258925,35.0690959
46-А,вулиця Петра Яцика,49074,48.5239654,35.0690548
116,Мечетна вулиця,49074,48.5260703,35.0691475
84,вулиця Павла Громницького,49074,48.5250626,35.0705167
121,вулиця Павла Громницького,49074,48.5251919,35.0699185
27,вулиця Григорія Бораковського,49074,48.5252983,35.0718445
115,вулиця Павла Громницького,49074,48.5248008,35.0695530
122,вулиця Кривоноса,49074,48.5255008,35.0660358
118,вулиця Кривоноса,49074,48.5253440,35.0658977
111,Араратська вулиця,49087,48.5271895,35.0648057
103,Араратська вулиця,49087,48.5267047,35.0645878
91,Араратська вулиця,49087,48.5258332,35.0642169
87,Араратська вулиця,49087,48.5254723,35.0640985
109,Араратська вулиця,49087,48.5270954,35.0647672
189,вулиця Кривоноса,49074,48.5311922,35.0677194
124-А,Араратська вулиця,49087,48.5277543,35.0655570
143,вулиця Кривоноса,49074,48.5277915,35.0663944
92-А,вулиця Василя Макуха,49087,48.5279368,35.0642043
121,Араратська вулиця,49087,48.5285177,35.0653803
119,Араратська вулиця,49087,48.5284027,35.0653124
113-А,Араратська вулиця,49087,48.5278512,35.0650125
55,Гельсінська вулиця,49074,48.5185021,35.0737607
45,Гельсінська вулиця,49074,48.5177450,35.0737659
38,вулиця Оксани Мешко,49074,48.5173937,35.0726882
7,вулиця Григорія Бораковського,49074,48.5238326,35.0711459
105,вулиця Оксани Мешко,49074,48.5241882,35.0750230
94,Латвійська вулиця,49074,48.5231318,35.0736167
121,Гельсінська вулиця,49074,48.5245913,35.0763735
91,Латвійська вулиця,49074,48.5247006,35.0737592
97,вулиця Оксани Мешко,49074,48.5234889,35.0747395
118,вулиця Оксани Мешко,49074,48.5248559,35.0757382
95,вулиця Оксани Мешко,49074,48.5233541,35.0746865
93,Латвійська вулиця,49074,48.5248111,35.0737012
114,вулиця Оксани Мешко,49074,48.5245391,35.0756957
38,вулиця Петра Яцика,49074,48.5234118,35.0724070
97,Латвійська вулиця,49074,48.5250707,35.0738925
13,Холодильна вулиця,49074,48.5251682,35.0764331
32,Ічкерійська вулиця,49108,48.5223293,35.0477818
23,Базавлуцька вулиця,49108,48.5214590,35.0479964
4,вулиця Рєпіна,49108,48.5222267,35.0464503
45,Араратська вулиця,49087,48.5216578,35.0625786
49,Араратська вулиця,49087,48.5218244,35.0626382
38,вулиця Кривоноса,49074,48.5182350,35.0617436
51,вулиця Кривоноса,49074,48.5191854,35.0623145
7,Мечетна вулиця,49074,48.5178804,35.0625483
9,Мечетна вулиця,49074,48.5180162,35.0625662
69,вулиця Кривоноса,49074,48.5205307,35.0635233
73,вулиця Кривоноса,49074,48.5209022,35.0636430
58,Араратська вулиця,49087,48.5218943,35.0632063
179,вулиця Кривоноса,49074,48.5301460,35.0673577
32,Торська вулиця,49074,48.5211393,35.0774160
71,вулиця Оксани Мешко,49074,48.5209310,35.0737142
23,Торська вулиця,49074,48.5204399,35.0765497
34,Торська вулиця,49074,48.5212522,35.0772620
33,Торська вулиця,49074,48.5213146,35.0768601
42,вулиця Павла Громницького,49074,48.5195810,35.0669445
37,Гельсінська вулиця,49074,48.5172305,35.0735564
39,Гельсінська вулиця,49074,48.5173703,35.0735892
59,Гельсінська вулиця,49074,48.5187940,35.0742258
62,вулиця Оксани Мешко,49074,48.5198417,35.0737057
96,Араратська вулиця,49087,48.5252206,35.0646074
57,вулиця Червоної Рути,49108,48.5240215,35.0514941
17,Базавлуцька вулиця,49108,48.5207898,35.0478269
22,Ічкерійська вулиця,49108,48.5213827,35.0473963
30,Ічкерійська вулиця,49108,48.5219843,35.0476563
28,Ічкерійська вулиця,49108,48.5217933,35.0475363
35,вулиця Кривоноса,49074,48.5181089,35.0609961
37,вулиця Кривоноса,49074,48.5183624,35.0610962
20,Араратська вулиця,49087,48.5190078,35.0609168
12,Араратська вулиця,49087,48.5184859,35.0603117
47,вулиця Кривоноса,49074,48.5188037,35.0618188
49,вулиця Кривоноса,49074,48.5188823,35.0619900
35,вулиця Василя Макуха,49087,48.5215190,35.0612139
1/2,вулиця Петра Бикова,49125,48.5171809,35.0425455
29,вулиця Петра Бикова,49125,48.5187247,35.0412729
31,вулиця Петра Бикова,49125,48.5188981,35.0411199
35,вулиця Петра Бикова,49125,48.5191255,35.0405802
28,Чорноліська вулиця,49035,48.4546723,34.9555346
14,Шкільний провулок,49023,48.4938100,35.0553613
58,вулиця Братів Бачинських,49074,48.5223192,35.0793648
3,Холодильна вулиця,49074,48.5244021,35.0807055
9/1,Магдалинівська вулиця,49074,48.5252732,35.0867838
152,Араратська вулиця,49087,48.5296347,35.0663020
68,вулиця Оксани Мешко,49074,48.5205328,35.0740201
5,Старочумацька вулиця,49074,48.5195506,35.0782839
36,вулиця Братів Бачинських,49074,48.5198165,35.0783978
42-А,вулиця Кривоноса,49074,48.5184397,35.0619291
27,Холодильна вулиця,49074,48.5260976,35.0709447
2,вулиця Космонавтів,49127,48.4139570,35.1334918
46,вулиця Олександра Данченка,49127,48.4160315,35.1241338
44,вулиця Олександра Данченка,49127,48.4157089,35.1246398
30,вулиця Олександра Данченка,49127,48.4145129,35.1246467
48,вулиця Олександра Данченка,49127,48.4170868,35.1242546
26,вулиця Олександра Данченка,49127,48.4132229,35.1250772
150,вулиця Мольєра,49125,48.5183775,35.0305767
9-А,вулиця Данила Галицького,49102,48.4610477,34.9412791
9-Б,вулиця Данила Галицького,49102,48.4614468,34.9415712
9-В,вулиця Данила Галицького,49102,48.4618602,34.9418578
9-Ж,вулиця Данила Галицького,49102,48.4636610,34.9424607
9-Е,вулиця Данила Галицького,49102,48.4631986,34.9424724
9-Д,вулиця Данила Галицького,49102,48.4627308,34.9423443
9-Г,вулиця Данила Галицького,49102,48.4622876,34.9421281
8,вулиця Ванцетті,49081,48.4931168,35.0685562
15,Коротка вулиця,49081,48.4920599,35.0692970
31Г,вулиця Панікахи,49041,48.3992607,35.0270529
17/2,Дачна вулиця,49114,48.4672138,35.1976360
26,Дачна вулиця,49114,48.4665569,35.1976746
107,вулиця Василя Филоновича,49114,48.4667791,35.1987555
28,вулиця Василя Филоновича,49114,48.4684137,35.2015835
30,вулиця Василя Филоновича,49114,48.4683616,35.2013062
10,Правобережна вулиця,49102,48.4623014,34.9442914
14,Правобережна вулиця,49102,48.4624789,34.9442289
49,Гельсінська вулиця,49074,48.5180342,35.0738799
61,Гельсінська вулиця,49074,48.5189882,35.0742936
63,Гельсінська вулиця,49074,48.5191552,35.0742959
21,вулиця Павла Громницького,49074,48.5181225,35.0645884
15,Мечетна вулиця,49074,48.5185548,35.0633360
14,вулиця Юрія Магалевського,49130,48.5340853,35.0192282
12,вулиця Юрія Магалевського,49130,48.5335564,35.0189807
8,Краснопільська вулиця,49033,48.4101292,34.9969984
92-Б,вулиця Набережна Заводська,49128,48.4865353,34.9221000
6,вулиця Коржева,490017,48.4613523,34.9830264
26,вулиця Космонавтів,49127,48.4127812,35.1255797
55,вулиця Червоної Рути,49108,48.5237820,35.0511597
49,вулиця Червоної Рути,49108,48.5230121,35.0511203
68,Зоопаркова вулиця,49114,48.4734577,35.1958908
66,Зоопаркова вулиця,49114,48.4733724,35.1961879
37,вулиця Князя Костянтина Острозького,49114,48.4741617,35.1961027
70/2,Зоопаркова вулиця,49114,48.4736586,35.1959145
60,Зоопаркова вулиця,49114,48.4729411,35.1962892
39,вулиця Князя Костянтина Острозького,49114,48.4739445,35.1954858
72,Зоопаркова вулиця,49114,48.4737731,35.1956209
58,Зоопаркова вулиця,49114,48.4729787,35.1966819
54,Зоопаркова вулиця,49114,48.4726345,35.1965964
56,Зоопаркова вулиця,49114,48.4727661,35.1964199
48,Автодорожна вулиця,49115,48.4782917,35.1930780
73,Зоопаркова вулиця,49114,48.4750485,35.1941252
13,Естафетна вулиця,49114,48.4613930,35.2118858
11,Естафетна вулиця,49114,48.4617593,35.2114337
15,Естафетна вулиця,49114,48.4615522,35.2109901
23,вулиця Відпочинку,49114,48.4708773,35.2016710
29-А,вулиця Василя Филоновича,49114,48.4697168,35.2052987
29,вулиця Василя Филоновича,49114,48.4692601,35.2057320
2,Туркменська вулиця,49114,48.4710331,35.2116440
16,Туркменська вулиця,49114,48.4721387,35.2104413
2,вулиця Василя Филоновича,49114,48.4716808,35.2086222
1,вулиця Василя Филоновича,49114,48.4714067,35.2089014
3,вулиця Василя Филоновича,49114,48.4713158,35.2087406
4,вулиця Василя Филоновича,49114,48.4714415,35.2081469
1,Вʼєтнамська вулиця,49114,48.4709340,35.2077905
13,вулиця Василя Филоновича,49114,48.4706284,35.2072399
5,вулиця Андрія Сахарова,49114,48.4678046,35.2029024
52,Прорізна вулиця,49114,48.4673602,35.2027667
54,Прорізна вулиця,49114,48.4672460,35.2024952
64,Зоопаркова вулиця,49114,48.4732344,35.1964321
52,Зоопаркова вулиця,49114,48.4724265,35.1968593
46,вулиця Івана Рудичіва,49114,48.4725829,35.1972549
44,вулиця Івана Рудичіва,49114,48.4730584,35.1986215
42,вулиця Івана Рудичіва,49114,48.4731660,35.1989538
43,вулиця Івана Рудичіва,49114,48.4725341,35.1981121
45,вулиця Івана Рудичіва,49114,48.4723474,35.1977689
35,вулиця Князя Костянтина Острозького,49114,48.4742716,35.1964938
33,вулиця Князя Костянтина Острозького,49114,48.4745628,35.1973005
31,вулиця Князя Костянтина Острозького,49114,48.4747063,35.1976116
49,вулиця Остафія Дашкевича,49114,48.4754913,35.2005727
43,вулиця Остафія Дашкевича,49114,48.4751627,35.2008429
47,вулиця Остафія Дашкевича,49114,48.4752637,35.2005459
62,вулиця Остафія Дашкевича,49114,48.4752012,35.2014854
60,вулиця Остафія Дашкевича,49114,48.4749592,35.2015982
58,вулиця Остафія Дашкевича,49114,48.4748241,35.2016921
47,Коростенська вулиця,49114,48.4650451,35.2052003
47,Зоопаркова вулиця,49114,48.4719385,35.1965286
49,вулиця Івана Рудичіва,49114,48.4721017,35.1970553
1,вулиця Остафія Дашкевича,49114,48.4703773,35.2045446
2,Таджицька вулиця,49114,48.4701424,35.2040758
24,вулиця Василя Филоновича,49114,48.4687313,35.2023605
27,Дачна вулиця,49114,48.4659363,35.1989895
25,Дачна вулиця,49114,48.4661159,35.1987704
23,Дачна вулиця,49114,48.4662595,35.1986759
21,Дачна вулиця,49114,48.4663803,35.1985356
24,Прорізна вулиця,49114,48.4695763,35.2074755
28,Прорізна вулиця,49114,48.4694510,35.2066896
28-А,Прорізна вулиця,49114,48.4693124,35.2070171
22,Прорізна вулиця,49114,48.4696892,35.2077342
20,Прорізна вулиця,49114,48.4698344,35.2078805
18,Прорізна вулиця,49114,48.4700022,35.2083262
8,Вʼєтнамська вулиця,49114,48.4701375,35.2080018
2,Вʼєтнамська вулиця,49114,48.4705651,35.2076924
4,Вʼєтнамська вулиця,49114,48.4704112,35.2078446
11,вулиця Василя Филоновича,49114,48.4706448,35.2074840
25,вулиця Василя Филоновича,49114,48.4701366,35.2060328
26,Прорізна вулиця,49114,48.4694996,35.2072856
14,вулиця Андрія Сахарова,49114,48.4664561,35.2036005
24,Календарна вулиця,49114,48.4659949,35.2034907
22,Календарна вулиця,49114,48.4660840,35.2036801
16,вулиця Андрія Сахарова,49114,48.4661980,35.2038767
26,Календарна вулиця,49114,48.4661298,35.2031947
34,Календарна вулиця,49114,48.4658101,35.2022104
30,Календарна вулиця,49114,48.4657907,35.2028844
32,Календарна вулиця,49114,48.4656648,35.2026878
28,Календарна вулиця,49114,48.4660702,35.2029278
10,вулиця Андрія Сахарова,49114,48.4666282,35.2034059
8,вулиця Андрія Сахарова,49114,48.4667549,35.2031786
6,вулиця Андрія Сахарова,49114,48.4669161,35.2031140
27,Прорізна вулиця,49114,48.4668908,35.2023125
23,Прорізна вулиця,49114,48.4671125,35.2029196
29,Прорізна вулиця,49114,48.4666977,35.2019124
27,Прорізна вулиця,49114,48.4667062,35.2020829
35,Прорізна вулиця,49114,48.4665008,35.2014975
37,Прорізна вулиця,49114,48.4661629,35.2015084
41,Прорізна вулиця,49114,48.4662134,35.2009694
45,Прорізна вулиця,49114,48.4659208,35.2006140
47,Прорізна вулиця,49114,48.4659330,35.2003639
49,Прорізна вулиця,49114,48.4658799,35.2002174
31,Дачна вулиця,49114,48.4654251,35.1996474
33,Дачна вулиця,49114,48.4652198,35.1996452
51,Прорізна вулиця,49114,48.4655828,35.1993973
36,Календарна вулиця,49114,48.4653587,35.2020586
40,Календарна вулиця,49114,48.4651506,35.2015263
38,Календарна вулиця,49114,48.4652866,35.2016688
42,Календарна вулиця,49114,48.4649756,35.2011938
35,Дачна вулиця,49114,48.4650974,35.1999893
37,Дачна вулиця,49114,48.4649189,35.1999943
39,Дачна вулиця,49114,48.4648163,35.2000928
41,Дачна вулиця,49114,48.4647920,35.2004653
43,Дачна вулиця,49114,48.4645825,35.2004249
52,вулиця Кривоноса,49074,48.5194514,35.0631784
16,Араратська вулиця,49087,48.5187120,35.0604671
13/2,Араратська вулиця,49087,48.5188938,35.0601479
15-А,Мечетна вулиця,49074,48.5187425,35.0631000
32,Араратська вулиця,49087,48.5198627,35.0619068
45,вулиця Кривоноса,49074,48.5187846,35.0616405
33,вулиця Павла Громницького,49074,48.5187337,35.0652001
21,Мечетна вулиця,49074,48.5190613,35.0638686
36,вулиця Кривоноса,49074,48.5181515,35.0616074
13-А,Мечетна вулиця,49074,48.5184613,35.0628232
27,Араратська вулиця,49087,48.5200224,35.0614372
33,Араратська вулиця,49087,48.5204979,35.0620303
19,вулиця Павла Громницького,49074,48.5178600,35.0644324
13,Араратська вулиця,49087,48.5188013,35.0597719
19,Араратська вулиця,49087,48.5192929,35.0605943
15,Араратська вулиця,49087,48.5190020,35.0602839
54,вулиця Кривоноса,49074,48.5195449,35.0632787
34,Араратська вулиця,49087,48.5199897,35.0620472
56,вулиця Кривоноса,49074,48.5197337,35.0635360
23,Мечетна вулиця,49074,48.5191304,35.0640653
19,Мечетна вулиця,49074,48.5188528,35.0637276
46,вулиця Кривоноса,49074,48.5189260,35.0628106
53,вулиця Кривоноса,49074,48.5192372,35.0624204
46-А,вулиця Кривоноса,49074,48.5189188,35.0625324
28,Араратська вулиця,49087,48.5195926,35.0616837
17,Мечетна вулиця,49074,48.5187119,35.0635422
50,вулиця Кривоноса,49074,48.5192897,35.0629822
48,вулиця Кривоноса,49074,48.5191499,35.0628240
30,Араратська вулиця,49087,48.5197099,35.0617205
26,Араратська вулиця,49087,48.5195174,35.0614682
55,вулиця Кривоноса,49074,48.5194272,35.0626044
36,Араратська вулиця,49087,48.5201511,35.0622366
37,Араратська вулиця,49087,48.5211134,35.0623745
40,Акацієва вулиця,49127,48.4159181,35.1679150
42,Акацієва вулиця,49127,48.4160784,35.1678761
65,вулиця Кривоноса,49074,48.5202260,35.0633253
79,вулиця Кривоноса,49074,48.5214284,35.0638689
46,Араратська вулиця,49087,48.5209236,35.0630094
42,Араратська вулиця,49087,48.5206942,35.0626636
13,вулиця Миколи Стасюка,49074,48.5206755,35.0648614
72,вулиця Кривоноса,49074,48.5211681,35.0641867
70,вулиця Кривоноса,49074,48.5209992,35.0641238
32,Старочумацька вулиця,49074,48.5207032,35.0722362
42,Старочумацька вулиця,49074,48.5210727,35.0701722
31,вулиця Петра Яцика,49074,48.5225623,35.0720712
63-А,Латвійська вулиця,49074,48.5206197,35.0721654
33,вулиця Петра Яцика,49074,48.5225994,35.0717195
35,вулиця Петра Яцика,49074,48.5226457,35.0714227
29,вулиця Петра Яцика,49074,48.5225093,35.0722787
25,вулиця Петра Яцика,49074,48.5223846,35.0728469
27,вулиця Петра Яцика,49074,48.5224365,35.0726286
119,Німецька вулиця,49117,48.4737680,35.1515049
121,Німецька вулиця,49117,48.4735996,35.1517915
117,Німецька вулиця,49117,48.4739184,35.1516484
94-Л,вулиця Набережна Заводська,49128,48.4889615,34.9171204
109,Вʼєтнамська вулиця,49114,48.4643704,35.2144708
93-А,Вʼєтнамська вулиця,49114,48.4645627,35.2140182
56-Б,Вʼєтнамська вулиця,49114,48.4643836,35.2136229
60-Б,Вʼєтнамська вулиця,49114,48.4643072,35.2134698
60,Вʼєтнамська вулиця,49114,48.4640950,35.2129287
7,вулиця Героїв Дніпра,49114,48.4648878,35.2132015
56,Вʼєтнамська вулиця,49114,48.4645042,35.2131488
58,Вʼєтнамська вулиця,49114,48.4644070,35.2129207
54,Вʼєтнамська вулиця,49114,48.4646861,35.2136240
52,Вʼєтнамська вулиця,49114,48.4648189,35.2138525
50,Вʼєтнамська вулиця,49114,48.4649535,35.2135307
9,вулиця Героїв Дніпра,49114,48.4646593,35.2125955
2,Естафетна вулиця,49114,48.4608074,35.2093321
31-А,Естафетна вулиця,49114,48.4605829,35.2089086
4-А,Естафетна вулиця,49114,48.4604329,35.2085558
4,Естафетна вулиця,49114,48.4603572,35.2083803
6,Естафетна вулиця,49114,48.4602810,35.2080741
8,Естафетна вулиця,49114,48.4600452,35.2077716
10,Естафетна вулиця,49114,48.4599443,35.2076000
12,Естафетна вулиця,49114,48.4599564,35.2073560
14,Естафетна вулиця,49114,48.4594614,35.2065200
85,Дачна вулиця,49114,48.4592899,35.2060853
19-А,Широкий провулок,49046,48.5153104,34.9812757
43,Самарська вулиця,49116,48.4923318,35.1875541
43,Самарська вулиця,49116,48.4921173,35.1876155
45/2,вулиця Богданова,49008,48.4582089,35.0035538
13,вулиця Миколи Міхновського,49130,48.5276752,35.0253900
32-А,Євпаторійська вулиця,49049,48.4049266,35.0621775
53-К,вулиця Софії Ковалевської,49087,48.5165292,35.0629104
208-Б,проспект Богдана Хмельницького,49057,48.3705889,34.9867955
38,Дорожна вулиця,49106,48.4120605,35.0527725
42,вулиця Юрія Ясногора,49106,48.4116911,35.0517500
139-Д/45,вулиця Сергія Липківського,49073,48.4129532,34.9717650
35,вулиця Кирила Осьмака,49127,48.4155592,35.1329889
31,вулиця Кирила Осьмака,49127,48.4148457,35.1323583
29,вулиця Кирила Осьмака,49127,48.4150155,35.1331671
54,вулиця Олександра Данченка,49127,48.4177506,35.1256568
62,вулиця Олександра Данченка,49127,48.4186092,35.1249193
139-Д/47,вулиця Сергія Липківського,49073,48.4127811,34.9713330
17,Донецьке шосе,49080,48.5122784,34.9950934
15,Донецьке шосе,49080,48.5118605,34.9939847
6,вулиця Михайла Грушевського,49000,48.4605171,35.0433892
6,Січеславська вулиця,49130,48.5253769,35.0157162
9,Гетьманська вулиця,49130,48.5259193,35.0166757
4,бульвар Кобзаря,49130,48.5251445,35.0161048
2,бульвар Кобзаря,49130,48.5256898,35.0170268
7,Гетьманська вулиця,490130,48.5251330,35.0177367
209,Житомирська вулиця,49075,48.5379912,34.9877507
7,вулиця Данила Заболотного,49125,48.5163450,35.0401544
9,вулиця Петра Бикова,49125,48.5175627,35.0422358
4-Г,Вільний провулок,49130,48.5300369,35.0171054
2-А,Вільний провулок,49130,48.5303304,35.0177392
41,вулиця Юрія Ясногора,49106,48.4065237,35.0582120
35,вулиця Юрія Ясногора,49106,48.4071537,35.0576523
33-А,вулиця Юрія Ясногора,49106,48.4072929,35.0575581
2,вулиця Юрія Ясногора,49106,48.4076252,35.0562446
33,вулиця Юрія Ясногора,49106,48.4074145,35.0574796
2-Б,вулиця Юрія Ясногора,49106,48.4077808,35.0555845
2-А/1,вулиця Юрія Ясногора,49106,48.4078420,35.0552660
2/2,вулиця Юрія Ясногора,49106,48.4080432,35.0551384
2/3,вулиця Юрія Ясногора,49106,48.4081605,35.0546999
2-Е,вулиця Юрія Ясногора,49106,48.4084990,35.0543719
4-Б,вулиця Юрія Ясногора,49106,48.4086591,35.0540989
29,вулиця Юрія Ясногора,49106,48.4080548,35.0559248
4-В,вулиця Юрія Ясногора,49106,48.4088287,35.0538480
4-Б/1,вулиця Юрія Ясногора,49106,48.4091161,35.0533383
64,вулиця Юрія Ясногора,49106,48.4099110,35.0520567
15-А,вулиця Юрія Ясногора,49106,48.4095772,35.0535393
15,вулиця Юрія Ясногора,49106,48.4097073,35.0533265
13,вулиця Юрія Ясногора,49106,48.4097899,35.0531740
11,вулиця Юрія Ясногора,49106,48.4099739,35.0529655
9,вулиця Юрія Ясногора,49106,48.4100882,35.0529096
7,вулиця Юрія Ясногора,49106,48.4102159,35.0527864
5,вулиця Юрія Ясногора,49106,48.4103734,35.0526553
3,вулиця Юрія Ясногора,49106,48.4104157,35.0524784
1,вулиця Юрія Ясногора,49106,48.4105768,35.0523434
19-А,Дорожна вулиця,49106,48.4112907,35.0518890
19,Дорожна вулиця,49106,48.4114156,35.0520549
17-А,Дорожна вулиця,49106,48.4114568,35.0524514
17,Дорожна вулиця,49106,48.4115039,35.0526520
20,вулиця Генерала Миколи Капустянського,49049,48.4061923,35.0589679
43,вулиця Юрія Ясногора,49106,48.4062337,35.0583948
31,вулиця Юрія Ясногора,49106,48.4075419,35.0571960
39,вулиця Юрія Ясногора,49106,48.4066933,35.0581787
78/1,вулиця Романовського,49115,48.4761328,35.1960273
36,Дорожна вулиця,49106,48.4122062,35.0525886
1,вулиця Миру,49106,48.4110528,35.0541004
24,Криворізька вулиця,49047,48.4411123,34.9875848
29,Кріворізський тупик,49047,48.4414685,34.9872287
72,Калинова вулиця,49087,48.5148997,35.0595988
70,Калинова вулиця,49087,48.5146719,35.0607664
30,Липнева вулиця,49115,48.4812779,35.1942777
40,вулиця Івана Рудичіва,49114,48.4734233,35.1998031
14,Висока вулиця,49045,48.5381523,35.1128474
8,Висока вулиця,49045,48.5376583,35.1125250
6,Висока вулиця,49045,48.5375767,35.1124620
3,Старочумацька вулиця,49074,48.5194956,35.0785430
46,вулиця Братів Бачинських,49074,48.5205738,35.0789786
52,вулиця Братів Бачинських,49074,48.5211319,35.0789240
22/1,Старочумацька вулиця,49074,48.5196653,35.0775561
23,вулиця Братів Бачинських,49074,48.5197925,35.0778300
29,вулиця Братів Бачинських,49074,48.5202060,35.0780100
43,вулиця Братів Бачинських,49074,48.5212276,35.0784309
41,вулиця Братів Бачинських,49074,48.5211506,35.0783978
22-Б,Старочумацька вулиця,49074,48.5198372,35.0774120
27,Торська вулиця,49074,48.5207947,35.0766652
29,Торська вулиця,49074,48.5209513,35.0767354
39,Торська вулиця,49074,48.5218335,35.0770969
36,Гельсінська вулиця,49074,48.5212817,35.0759040
32,Гельсінська вулиця,49074,48.5209038,35.0755857
28,Гельсінська вулиця,49074,48.5205550,35.0754338
73,Гельсінська вулиця,49074,48.5201415,35.0747860
79-А,Гельсінська вулиця,49074,48.5206056,35.0746333
79,Гельсінська вулиця,49074,48.5207406,35.0749984
87,Гельсінська вулиця,49074,48.5214349,35.0752723
91,Гельсінська вулиця,49074,48.5217688,35.0753800
93,Гельсінська вулиця,49074,48.5219277,35.0754966
76,вулиця Оксани Мешко,49074,48.5212427,35.0742348
90,вулиця Оксани Мешко,49074,48.5222900,35.0746465
73,вулиця Оксани Мешко,49074,48.5211446,35.0737966
75,вулиця Оксани Мешко,49074,48.5213035,35.0738515
77,вулиця Оксани Мешко,49074,48.5214932,35.0739440
81-А,вулиця Оксани Мешко,49074,48.5217504,35.0740008
85,вулиця Оксани Мешко,49074,48.5221806,35.0741967
5,Гетьманська вулиця,49130,48.5248445,35.0183570
29,Запорізька вулиця,49026,48.5124055,35.0678666
23,Запорізька вулиця,49026,48.5121238,35.0677308
21,Запорізька вулиця,49026,48.5119870,35.0676768
25,Запорізька вулиця,49026,48.5121940,35.0677578
19,Запорізька вулиця,49026,48.5119184,35.0676473
10,Шепетівська вулиця,49026,48.5117197,35.0675679
12,Шепетівська вулиця,49026,48.5117564,35.0674544
2,вулиця Марка Вовчка,49074,48.5172731,35.0731079
42/2,вулиця Оксани Мешко,49074,48.5178588,35.0729154
54,вулиця Оксани Мешко,49074,48.5191281,35.0733921
58,вулиця Оксани Мешко,49074,48.5194558,35.0736170
12,Ічкерійська вулиця,49108,48.5205875,35.0472893
16,Ічкерійська вулиця,49108,48.5208365,35.0471631
18,Ічкерійська вулиця,49108,48.5210482,35.0474020
45,Базавлуцька вулиця,49108,48.5235476,35.0489129
41,Базавлуцька вулиця,49108,48.5231855,35.0488093
34,Ічкерійська вулиця,49108,48.5225098,35.0478300
36,Ічкерійська вулиця,49108,48.5226258,35.0480521
8,Протавчанський провулок,49108,48.5342323,35.0503135
60,вулиця Червоної Калини,49108,48.5245724,35.0509322
76,вулиця Червоної Калини,49108,48.5260495,35.0515129
86,вулиця Червоної Калини,49108,48.5265663,35.0517503
69,вулиця Петра Яцика,49108,48.5264881,35.0520441
89,вулиця Джеймса Мейса,49108,48.5335086,35.0589570
80а/1,Зразкова вулиця,49087,48.5163905,35.0544500
1-К,Зразкова вулиця,49087,48.5165339,35.0547382
171,Араратська вулиця,49087,48.5320435,35.0665732
99,Араратська вулиця,49087,48.5263329,35.0644684
67,Араратська вулиця,49087,48.5235708,35.0633390
25,Араратська вулиця,49087,48.5198594,35.0612507
128,Араратська вулиця,49087,48.5279979,35.0658222
116,Араратська вулиця,49087,48.5265870,35.0650539
112,Араратська вулиця,49087,48.5263454,35.0649988
110,Араратська вулиця,49087,48.5262276,35.0648992
85,вулиця Кривоноса,49074,48.5220526,35.0641261
97,вулиця Кривоноса,49074,48.5229774,35.0644811
107,вулиця Кривоноса,49074,48.5238731,35.0648581
76,Араратська вулиця,49087,48.5234052,35.0638101
66,Араратська вулиця,49087,48.5227870,35.0635353
71,вулиця Кривоноса,49074,48.5206640,35.0634372
57,вулиця Кривоноса,49074,48.5196132,35.0628477
63,вулиця Кривоноса,49074,48.5199649,35.0631200
69,вулиця Миколи Стасюка,49074,48.5258174,35.0669737
106,вулиця Кривоноса,49074,48.5238772,35.0653078
100,вулиця Кривоноса,49074,48.5234478,35.0650891
96,вулиця Кривоноса,49074,48.5230284,35.0649221
55,Мечетна вулиця,49074,48.5244078,35.0680391
69-А,Мечетна вулиця,49074,48.5255204,35.0685395
32,вулиця Миколи Стасюка,49074,48.5247633,35.0670039
119,вулиця Павла Громницького,49074,48.5250161,35.0698843
127,вулиця Павла Громницького,49074,48.5257029,35.0701791
110,Мечетна вулиця,49074,48.5256203,35.0690262
106,Мечетна вулиця,49074,48.5252840,35.0688625
100,Мечетна вулиця,49074,48.5248539,35.0686287
94,Мечетна вулиця,49074,48.5243457,35.0683885
19,вулиця Григорія Бораковського,49074,48.5246583,35.0716017
31,вулиця Григорія Бораковського,49074,48.5255226,35.0719847
35,вулиця Григорія Бораковського,49074,48.5256488,35.0719269
82,вулиця Павла Громницького,49074,48.5249742,35.0704765
40,вулиця Павла Громницького,49074,48.5194379,35.0667251
75,Латвійська вулиця,49074,48.5237391,35.0733350
81,Латвійська вулиця,49074,48.5240918,35.0735526
83,Латвійська вулиця,49074,48.5242053,35.0736116
101,Латвійська вулиця,49074,48.5252796,35.0740369
21,Холодильна вулиця,49074,48.5256218,35.0736192
23,Холодильна вулиця,49074,48.5256761,35.0732766
82,вулиця Григорія Бораковського,49074,48.5257803,35.0727791
80,вулиця Григорія Бораковського,49074,48.5256875,35.0727827
72,вулиця Григорія Бораковського,49074,48.5251412,35.0725595
68,вулиця Григорія Бораковського,49074,48.5249363,35.0724560
62,вулиця Григорія Бораковського,49074,48.5245701,35.0722699
58,вулиця Григорія Бораковського,49074,48.5243151,35.0722096
54,вулиця Григорія Бораковського,49074,48.5240881,35.0720963
113,вулиця Оксани Мешко,49074,48.5249722,35.0752837
91,вулиця Оксани Мешко,49074,48.5230325,35.0745619
93,вулиця Оксани Мешко,49074,48.5231874,35.0745274
102,Латвійська вулиця,49074,48.5237757,35.0738825
108,Латвійська вулиця,49074,48.5243941,35.0743454
114,Латвійська вулиця,49074,48.5249521,35.0743830
17,Холодильна вулиця,49074,48.5253681,35.0752219
69,Латвійська вулиця,49074,48.5234992,35.0732588
60,Калинова вулиця,49026,48.5138594,35.0642199
56,Калинова вулиця,49026,48.5137758,35.0645363
113,Гельсінська вулиця,49074,48.5238360,35.0762391
103,Гельсінська вулиця,49074,48.5230948,35.0759223
26,вулиця Петра Яцика,49074,48.5227846,35.0755225
96,вулиця Оксани Мешко,49074,48.5229726,35.0749754
104,вулиця Оксани Мешко,49074,48.5236778,35.0752124
116,вулиця Оксани Мешко,49074,48.5247534,35.0756346
122,вулиця Оксани Мешко,49074,48.5252364,35.0758400
9,Холодильна вулиця,49074,48.5248308,35.0778939
59,Торська вулиця,49074,48.5242234,35.0780276
51,Торська вулиця,49074,48.5235770,35.0777926
24,вулиця Петра Яцика,49074,48.5226014,35.0767653
22,вулиця Петра Яцика,49074,48.5225825,35.0769445
50,Гельсінська вулиця,49074,48.5231678,35.0766376
52,Гельсінська вулиця,49074,48.5234100,35.0766938
54,Гельсінська вулиця,49074,48.5235999,35.0766699
58,Гельсінська вулиця,49074,48.5239661,35.0768143
55,вулиця Братів Бачинських,49074,48.5228481,35.0790772
69,вулиця Братів Бачинських,49074,48.5240057,35.0795530
58,Торська вулиця,49074,48.5241821,35.0784498
50,Торська вулиця,49074,48.5235117,35.0785031
46,Торська вулиця,49074,48.5230964,35.0779966
38,вулиця Братів Бачинських,49074,48.5200341,35.0784792
42-А,Дзеркальна вулиця,49048,48.4100629,34.9186891
11-А,вулиця Богдана Хмельницького,49051,48.5069221,35.0799385
11,вулиця Богдана Хмельницького,49000,48.5068143,35.0796096
31,Байкальська вулиця,49074,48.5209419,35.0688602
37,Байкальська вулиця,49074,48.5214225,35.0658691
3,вулиця Данила Заболотного,49125,48.5156291,35.0409649
3,вулиця Данила Заболотного,49125,48.5158099,35.0407972
13-Б,Осіння вулиця,49051,48.5092668,35.0907708
13-А,Осіння вулиця,49051,48.5088397,35.0922938
9-А,вулиця Квітки Цісик,49051,48.5098867,35.0885796
9-Б,вулиця Квітки Цісик,49051,48.5098766,35.0889974
39-А,вулиця Степана Рудницького,49080,48.4993331,34.9929018
78,Рибінська вулиця,49107,48.4274379,35.0261749
74,Рибінська вулиця,49107,48.4275849,35.0265842
66,Рибінська вулиця,49107,48.4278709,35.0272021
56,Рибінська вулиця,49107,48.4283418,35.0277331
54,Рибінська вулиця,49107,48.4285132,35.0279617
5,вулиця Майбороди,49023,48.4930661,35.0566725
11,вулиця Майбороди,49023,48.4935129,35.0563089
184-А,Ростовський провулок,49023,48.4927461,35.0560878
19,Батарейна вулиця,49107,48.4282029,35.0305593
16/1,вулиця Павлова,49000,48.4798060,35.0070129
22-А,Первозванівська вулиця,49000,48.4601900,35.0376437
86,Калинова вулиця,49087,48.5163192,35.0520246
80а/1,Калинова вулиця,49087,48.5158534,35.0547107
80а/1,Калинова вулиця,49087,48.5158187,35.0545573
80а/1,Калинова вулиця,49087,48.5159073,35.0543890
80а/1,Калинова вулиця,49087,48.5162015,35.0548155
80а/1,Калинова вулиця,49087,48.5165206,35.0549772
80а/1,Калинова вулиця,49087,48.5163030,35.0546932
2-К,проспект Миру,49130,48.5268264,35.0230390
130,Василівська,49073,48.3964387,34.9538728
17,Мануйлівський проспект,49023,48.4937267,35.0439995
29,вулиця Менделєєва,49108,48.5220173,35.0471857
31,вулиця Юрія Лисянського,49045,48.5270287,35.1135404
27,вулиця Юрія Лисянського,49045,48.5267487,35.1134165
25-А,вулиця Бутова,49045,48.5217658,35.1167410
9,вулиця Бутова,49045,48.5202316,35.1167231
25,вулиця Бутова,49045,48.5215630,35.1167546
65,вулиця Бутова,49045,48.5243328,35.1170119
271,вулиця Бутова,49045,48.5253419,35.1163416
67,вулиця Бутова,49045,48.5245407,35.1166921
29,вулиця Бутова,49045,48.5219817,35.1167491
26,вулиця Кожемʼяки,49083,48.5079839,35.0714062
4/2,Канівська вулиця,49026,48.5094138,35.0696388
152,Робоча вулиця,49008,48.4499300,35.0011205
9,Ракетна вулиця,49074,48.5281459,35.0882545
66,Зоопаркова вулиця,49115,48.4732624,35.1960207
6,Вʼєтнамська вулиця,49114,48.4702832,35.2079923
36,Календарна вулиця,49114,48.4654634,35.2022109
122,Новаторська вулиця,49043,48.4952188,35.1579171
102,Новгородська вулиця,49043,48.4950551,35.1592450
3,Красноводська вулиця,49124,48.4865552,35.1279976
22-А,Первозванівська вулиця,49000,48.4604106,35.0368101
3-А,Херсонська вулиця,49101,48.4628500,35.0328660
25,Воскресенська вулиця,49000,48.4633824,35.0384945
43-Д,Старокозацька вулиця,49000,48.4643222,35.0371530
8-Д,вулиця Марії Лисиченко,49125,48.5210314,35.0379471
37,вулиця Юрія Ясногора,49106,48.4069724,35.0582256
40,Дорожна вулиця,49106,48.4117216,35.0520054
11-А,вулиця Юрія Ясногора,49106,48.4099561,35.0532590
17,вулиця Юрія Ясногора,49106,48.4093005,35.0538624
16,проспект Пилипа Орлика,49069,48.4487884,35.0266510
105,вулиця Володимира Антоновича,49006,48.4674684,35.0077620
103/3,вулиця Володимира Антоновича,49006,48.4674137,35.0079890
1/1а,Кабардинська вулиця,49006,48.4660313,35.0097066
61,вулиця Володимира Антоновича,49006,48.4651904,35.0164229
54,Філософська вулиця,49006,48.4642190,35.0161258
60,Філософська вулиця,49006,48.4633001,35.0156542
26,Кавалерійська вулиця,49006,48.4645031,35.0105485
314,Мандриківська вулиця,49100,48.4158539,35.0587103
178,Робоча вулиця,49047,48.4388693,34.9955207
1,вулиця Старий Шлях,49020,48.4414227,34.7952827
7,вулиця Стара Пристань,49049,48.4087297,35.0794724
7,вулиця Стара Пристань,49049,48.4088013,35.0793817
7,вулиця Стара Пристань,49049,48.4088688,35.0793054
5,вулиця Стара Пристань,49049,48.4086113,35.0793579
3,вулиця Стара Пристань,49049,48.4084878,35.0791995
3/1,вулиця Стара Пристань,49049,48.4086145,35.0787914
9,вулиця Стара Пристань,49049,48.4088082,35.0796059
6,вулиця Стара Пристань,49049,48.4086510,35.0799585
22,вулиця Віри Міляєвої,49020,48.4425783,34.7742159
211,Луговська вулиця,49081,48.4920180,35.0608002
38,Акацієва вулиця,49127,48.4157019,35.1679776
22-А,Первозванівська вулиця,49000,48.4599090,35.0373102
22-А,Первозванівська вулиця,49000,48.4604194,35.0374408
5,Роторна вулиця,49112,48.4088005,35.1272057
79,Янтарна вулиця,49108,48.5281669,35.0447070
79,Янтарна вулиця,49108,48.5284498,35.0452729
79,Янтарна вулиця,49108,48.5283384,35.0459103
79,Янтарна вулиця,49108,48.5280547,35.0463839
79,Янтарна вулиця,49108,48.5275699,35.0462060
79,Янтарна вулиця,49108,48.5271561,35.0460414
79,Янтарна вулиця,49108,48.5267565,35.0457630
79,Янтарна вулиця,49108,48.5265265,35.0452535
79,Янтарна вулиця,49108,48.5264925,35.0445859
79,Янтарна вулиця,49108,48.5265829,35.0441206
79,Янтарна вулиця,49108,48.5268865,35.0441883
81,Янтарна вулиця,49108,48.5273289,35.0453828
81,Янтарна вулиця,49108,48.5274804,35.0444771
81,Янтарна вулиця,49108,48.5276648,35.0430731
81,Янтарна вулиця,49108,48.5273476,35.0429540
73,Янтарна вулиця,49108,48.5265074,35.0426148
73,Янтарна вулиця,49108,48.5268684,35.0421676
73,Янтарна вулиця,49108,48.5269793,35.0415387
73,Янтарна вулиця,49108,48.5270019,35.0410974
73,Янтарна вулиця,49108,48.5267009,35.0409789
71,Янтарна вулиця,49108,48.5259801,35.0415635
7,Січеславська вулиця,49075,48.5253091,35.0142792
32,Переяславська вулиця,49094,48.4348130,35.0643015
20-Д,вулиця Олександра Данченка,49127,48.4114237,35.1256403
35-А,Араратська вулиця,49087,48.5209915,35.0619368
1-Л,вулиця Юрія Липи,49130,48.5258994,35.0215752
10-Д,вулиця Миколи Міхновського,49130,48.5267276,35.0262342
180Д,Василівська вулиця,49073,48.3914254,34.9554840
55,Мальовнича вулиця,49114,48.4759643,35.2011538
55,Мальовнича вулиця,49114,48.4762820,35.2019150
55,Мальовнича вулиця,49114,48.4759889,35.2020716
18,Троїцька вулиця,49000,48.4611542,35.0412012
18/1,Троїцька вулиця,49000,48.4612745,35.0408704
43,вулиця Кирила Осьмака,49127,48.4166344,35.1325192
3,Космічна вулиця,49100,48.4220258,35.0606534
5б,провулок Крушельницької,49125,48.5190551,35.0300699
77,вулиця Мольєра,49125,48.5179907,35.0290717
104к,Донецьке шосе,49125,48.5210102,35.0204736
22а,Терещенківська вулиця,49125,48.5218720,35.0281046
5б,провулок Крушельницької,49125,48.5190314,35.0300274
14,вулиця Наукових Працівників,49010,48.4429772,35.0556213
247,проспект Богдана Хмельницького,49000,48.3701911,34.9984495
156,проспект Богдана Хмельницького,49000,48.3885820,34.9973652
156а,проспект Богдана Хмельницького,49000,48.3844750,35.0033573
62,вулиця Олександра Кониського,49069,48.4485083,35.0348625
6/4,вулиця Василя Барки,49041,48.3983521,35.0324311
41,вулиця Степана Рудницького,49080,48.4998165,34.9914959
3,Парусний провулок,49018,48.4809452,34.9086432
12,вулиця Космонавтів,49127,48.4135961,35.1292552
29,Березинська вулиця,49130,48.5306556,35.0242938
31,Березинська вулиця,49130,48.5318792,35.0225094
63,Робоча вулиця,49008,48.4496689,35.0041368
151,Мандриківська вулиця,49094,48.4286519,35.0627406
6,вулиця Вадима Жукова,49080,48.5119793,34.9900385
6,вулиця Галини Мазепи,49026,48.5149288,35.0752079
125,Слобожанський проспект,49074,48.5239866,35.0816471
15д,Каштанова вулиця,49051,48.5025404,35.0802968
125,Слобожанський проспект,49074,48.5230113,35.0813749
117,Слобожанський проспект,49074,48.5212590,35.0806270
73,Слобожанський проспект,49083,48.5083584,35.0751227
166-А,Робоча вулиця,49008,48.4461113,34.9983883
146,Робоча вулиця,49008,48.4536067,35.0030970
7,вулиця Степана Рудницького,49080,48.5075799,34.9880698
14,Парусний провулок,49018,48.4787284,34.9058936
3,Моніторна вулиця,49018,48.4776015,34.9099583
1,вулиця Григорія Бораковського,49074,48.5194515,35.0691507
5,вулиця Гетьмана Петра Дорошенка,49100,48.4166997,35.0653953
3,вулиця Гладкова,49033,48.4016872,35.0012874
5,вулиця Гладкова,49033,48.4021026,35.0013755
40,Янтарна вулиця,49024,48.5139907,35.0465487
17,вулиця Степана Рудницького,49080,48.5057822,34.9890889
6,вулиця Зиновія Матли,49080,48.5075022,34.9911667
12,вулиця Зиновія Матли,49080,48.5062662,34.9905153
19,вулиця Степана Рудницького,49080,48.5045789,34.9894393
18,Шинна вулиця,49107,48.4188803,35.0133323
24-А,вулиця Юлії Залюбовської,49026,48.5135619,35.0734262
1,Гаванська вулиця,49127,48.4060641,35.1110294
1,Новокримська вулиця,49055,48.4286129,35.0108417
1,Новокримська вулиця,49055,48.4288304,35.0101862
28,Воскресенська вулиця,49000,48.4641108,35.0380358
34,Воскресенська вулиця,49000,48.4636559,35.0376690
32,Воскресенська вулиця,49000,48.4638813,35.0377864
91,Лабораторна вулиця,49010,48.4335370,35.0507009
25,вулиця Миколи Міхновського,49130,48.5280595,35.0281264
59,Словацька вулиця,49064,48.4707902,34.9887382
21,вулиця Миколи Міхновського,49130,48.5280739,35.0269639
31,вулиця Миколи Міхновського,49130,48.5286796,35.0278198
6,Фестивальний провулок,49130,48.5290019,35.0221419
3,Фестивальний провулок,49130,48.5297992,35.0204723
95,проспект Миру,49130,48.5312655,35.0091194
18,проспект Миру,49130,48.5309580,35.0163707
12,проспект Миру,49130,48.5289272,35.0187294
12-Б,проспект Миру,49130,48.5289243,35.0201326
56,вулиця Олександра Данченка,49127,48.4173338,35.1258962
10,вулиця Космонавтів,49127,48.4143903,35.1297460
93,Робоча вулиця,49047,48.4411918,34.9977825
24,Хабарівська вулиця,49026,48.5139195,35.0637758
74,вулиця Галини Мазепи,49087,48.5173790,35.0603916
14,Артеківська вулиця,49026,48.5101362,35.0747278
51-А,Старокозацька вулиця,49000,48.4648157,35.0358655
55,вулиця Кирила Осьмака,49127,48.4192885,35.1265708
8,вулиця Юрія Магалевського,49130,48.5323116,35.0183577
16,Слобожанський проспект,49081,48.4916018,35.0688541
