House number,Street name,Postal code,Latitude,Longitude
1,вулиця Курчатова,50084,47.9630788,33.4265433
40,вулиця Едуарда Фукса,50042,47.9745483,33.4359328
4,вулиця Павла Глазового,50076,47.9353857,33.4187520
2,Січеславська вулиця,50031,47.9856948,33.4387185
1а,площа 30-річчя Перемоги,50008,47.9468887,33.4404705
5,вулиця Мартіна Шимановського,50004,47.8953161,33.3375620
34а,проспект Перемоги,50102,47.6834905,33.1575455
41,Свято-Миколаївська вулиця,50000,47.9018188,33.3395335
130,вулиця Героїв АТО,50000,47.9025739,33.4285663
51,Старовокзальна вулиця,50004,47.8931568,33.3352752
22А,вулиця Бикова,50000,47.9267783,33.4103986
7,Січеславська вулиця,50014,47.9875439,33.4377600
32А,вулиця Сергія Колачевського,50037,48.0512223,33.4844286
54,вулиця Упіта,50069,47.9364645,33.3951768
22а,Солнечный микрорайон,50056,47.9561762,33.4496540
7,Рудна вулиця,50102,47.6832168,33.1763747
17а,Спаська вулиця,50021,47.9608413,33.4271538
5а,вулиця Володимира Терещенка,50083,48.1451714,33.5636859
4а,вулиця Пушкіна,50002,47.9082631,33.3470545
22,Катеринівська вулиця,50071,47.9379788,33.4120391
16а,Каунаська вулиця,50000,47.9020354,33.3469686
43Д,вулиця Володимира Великого,50008,47.9468534,33.4273473
14,вулиця Олександра Поля,50000,47.9024801,33.3461870
1Б,Чарівна вулиця,50000,48.0745607,33.5151382
22А,Быкова улица,50000,47.9267281,33.4103820
40а,вулиця Глінки,50000,47.9000117,33.3492829
16,Бульварний провулок,50071,47.9371879,33.4195751
16,Бульварний провулок,50071,47.9376039,33.4197790
59,Свято-Миколаївська вулиця,50000,47.9002933,33.3442245
1,Комерційна вулиця,50000,47.9015970,33.3426848
2а,вулиця Рахманінова,50001,47.8896514,33.3128111
69,Свято-Миколаївська вулиця,50000,47.8994795,33.3450543
18,вулиця Олександра Поля,50000,47.9023642,33.3482408
1,вулиця Лермонтова,50002,47.9076524,33.3447864
8а/10,вулиця Петра Калнишевського,50024,47.9130145,33.3408666
8а/9,вулиця Петра Калнишевського,50024,47.9131017,33.3407405
8а/8,вулиця Петра Калнишевського,50024,47.9132473,33.3405098
8а/7,вулиця Петра Калнишевського,50024,47.9133147,33.3404106
8а/6,вулиця Петра Калнишевського,50024,47.9126468,33.3407070
8а/5,вулиця Петра Калнишевського,50024,47.9127268,33.3405742
8а/4,вулиця Петра Калнишевського,50024,47.9128468,33.3403797
8а/3,вулиця Петра Калнишевського,50024,47.9129556,33.3402067
8а/2,вулиця Петра Калнишевського,50024,47.9130455,33.3400458
8а/1,вулиця Петра Калнишевського,50024,47.9131356,33.3398885
7Д,проспект 200-річчя Кривого Рогу,50084,47.9644842,33.4366000
1А,вулиця Едуарда Фукса,50031,47.9853183,33.4389304
7А,проспект 200-річчя Кривого Рогу,50084,47.9643853,33.4371244
3,вулиця Володимира Великого,50071,47.9360513,33.4012824
1,вулиця Водопʼянова,50038,47.9398689,33.4408185
223А,вулиця Кобилянського,50002,47.9015746,33.3624657
17,проспект Гагаріна,50000,47.9100959,33.3979042
21а,вулиця Володимира Великого,50071,47.9404648,33.4117120
21,вулиця Володимира Великого,50071,47.9424509,33.4109733
21,вулиця Володимира Великого,50071,47.9423570,33.4107024
8а,Святогеоргіївська вулиця,50007,47.9041631,33.3831690
55,вулиця Сергія Колачевського,50082,48.0710453,33.5143428
2,вулиця Каткова,50102,47.6870700,33.1480375
2,вулиця Каткова,50102,47.6870159,33.1477651
4а,вулиця Каткова,50102,47.6890645,33.1618042
2,вулиця Каткова,50102,47.6879495,33.1512928
2,вулиця Каткова,50102,47.6871420,33.1484691
6б,Женевська вулиця,50031,47.9826054,33.4412395
1а,вулиця Маршака,50089,48.1434287,33.5832327
1а,вулиця Маршака,50089,48.1434231,33.5835431
59,проспект Гагаріна,50086,47.9085818,33.4140070
7,проспект Миру,50074,47.9052012,33.3740853
3,проспект Гагаріна,50027,47.9105526,33.3930735
35,проспект Перемоги,50102,47.6823329,33.1591618
24,проспект Металургів,50006,47.8991957,33.3950382
1,вулиця Мартіна Шимановського,50000,47.8968048,33.3372822
5,вулиця Мартіна Шимановського,50000,47.8955890,33.3375443
7,вулиця Мартіна Шимановського,50000,47.8950207,33.3376521
1,вулиця Мартіна Шимановського,50000,47.8970096,33.3377350
44/13,Свято-Миколаївська вулиця,50000,47.9017481,33.3383880
54,Haharina Ave,50086,47.9082494,33.4094803
9,вулиця Володимира Великого,50000,47.9367196,33.4031246
67,вулиця Просвіти,50023,47.9063695,33.4560071
58,вулиця Леоніда Бикова,50023,47.9049194,33.4535690
30,вулиця Леоніда Бикова,50023,47.9043755,33.4490588
232,вулиця Вернадського,50023,47.9097694,33.4774876
216,вулиця Вернадського,50023,47.9094494,33.4753874
182,вулиця Вернадського,50023,47.9088381,33.4699774
101,вулиця Вернадського,50023,47.9082322,33.4622687
248,вулиця Вернадського,50023,47.9100831,33.4800209
215,вулиця Вернадського,50023,47.9111448,33.4850286
161,вулиця Ігоря Сікорського,50023,47.9100112,33.4831457
160,вулиця Ігоря Сікорського,50023,47.9094736,33.4829780
19,вулиця Ігоря Сікорського,50023,47.9069808,33.4606862
72,вулиця Ігоря Сікорського,50023,47.9073755,33.4680355
156,вулиця Заньковецької,50023,47.9088291,33.4839490
139,вулиця Заньковецької,50023,47.9086745,33.4805386
147,вулиця Заньковецької,50023,47.9088399,33.4818649
46,вулиця Заньковецької,50023,47.9062778,33.4645030
1,вулиця Заньковецької,50023,47.9057743,33.4587993
136,Шепетівська вулиця,50023,47.9074303,33.4795448
149,Шепетівська вулиця,50023,47.9081126,33.4814237
90,Шепетівська вулиця,50023,47.9064531,33.4719247
23,Шепетівська вулиця,50023,47.9054111,33.4614741
14,Шепетівська вулиця,50023,47.9048618,33.4603590
20,Ракетна вулиця,50024,47.9075130,33.3328501
2,вулиця Едуарда Фукса,50042,47.9850019,33.4375201
4,вулиця Едуарда Фукса,50042,47.9844825,33.4376718
8,вулиця Едуарда Фукса,50042,47.9834441,33.4367809
10,вулиця Едуарда Фукса,50042,47.9827770,33.4364334
12,вулиця Едуарда Фукса,50042,47.9821360,33.4362059
14,вулиця Едуарда Фукса,50042,47.9813459,33.4361278
16,вулиця Едуарда Фукса,50042,47.9807286,33.4358471
29а,вулиця Едуарда Фукса,50042,47.9793170,33.4381744
7,вулиця Едуарда Фукса,50042,47.9835178,33.4387497
1а,вулиця Едуарда Фукса,50042,47.9852808,33.4392620
55,вулиця Едуарда Фукса,50042,47.9751750,33.4369164
57,вулиця Едуарда Фукса,50042,47.9751135,33.4375084
1А,Симбірцева вулиця,50029,48.0192417,33.4662814
1а,вулиця Панаса Феденка,50015,48.0095941,33.4663274
62,вулиця Глінки,50000,47.8993011,33.3530124
9,Церковна вулиця,50000,47.8997228,33.3410135
31,вулиця Бикова,50076,47.9307881,33.4225808
2б,Церковна вулиця,50000,47.8987792,33.3399342
14,Гірничозаводська вулиця,50024,47.8916507,33.3387175
20,Гірничозаводська вулиця,50024,47.8910304,33.3381025
41,Старовокзальна вулиця,50024,47.8934749,33.3406920
12,Гірничозаводська вулиця,50024,47.8919007,33.3386737
16,Гірничозаводська вулиця,50024,47.8915089,33.3385258
8,Гірничозаводська вулиця,50024,47.8922308,33.3388887
2,Гірничозаводська вулиця,50024,47.8926182,33.3394517
39,Старовокзальна вулиця,50024,47.8935617,33.3417108
6,Гірничозаводська вулиця,50024,47.8924332,33.3390766
41,Гірничозаводська вулиця,50024,47.8892664,33.3372653
39,Гірничозаводська вулиця,50024,47.8894818,33.3374723
35,Гірничозаводська вулиця,50024,47.8899488,33.3378089
37,Гірничозаводська вулиця,50024,47.8896985,33.3376702
31,Гірничозаводська вулиця,50024,47.8904829,33.3382658
33,Гірничозаводська вулиця,50024,47.8901765,33.3379487
47,Гірничозаводська вулиця,50024,47.8888537,33.3369887
36,Гірничозаводська вулиця,50024,47.8897336,33.3368610
38,Гірничозаводська вулиця,50024,47.8895181,33.3367063
44,Гірничозаводська вулиця,50024,47.8891021,33.3363308
42,Гірничозаводська вулиця,50024,47.8892732,33.3365413
17,Гірничозаводська вулиця,50024,47.8917955,33.3394642
7,Гірничозаводська вулиця,50024,47.8925018,33.3399977
15,Гірничозаводська вулиця,50024,47.8919508,33.3395998
3,Гірничозаводська вулиця,50024,47.8928223,33.3402801
8,вулиця Жовтих Ірисів,50004,47.8920681,33.3446366
29,Гірничозаводська вулиця,50024,47.8908108,33.3386254
23,Гірничозаводська вулиця,50024,47.8913110,33.3390085
3,вулиця Жовтих Ірисів,50004,47.8927760,33.3459091
25,Гірничозаводська вулиця,50024,47.8911502,33.3388950
11,Гірничозаводська вулиця,50024,47.8922612,33.3398013
19,Гірничозаводська вулиця,50024,47.8916280,33.3393106
1/1,Гірничозаводська вулиця,50024,47.8929162,33.3403481
5,Гірничозаводська вулиця,50024,47.8925001,33.3403798
13,Гірничозаводська вулиця,50024,47.8921345,33.3397770
5,вулиця Жовтих Ірисів,50004,47.8926962,33.3456999
21,Гірничозаводська вулиця,50024,47.8914890,33.3391589
1,вулиця Жовтих Ірисів,50004,47.8929034,33.3458727
9,Гірничозаводська вулиця,50024,47.8923863,33.3398864
27,Гірничозаводська вулиця,50024,47.8909718,33.3387694
68,Свято-Миколаївська вулиця,50000,47.8986722,33.3447663
28,Свято-Миколаївська вулиця,50000,47.9021703,33.3357209
26,Свято-Миколаївська вулиця,50000,47.9029205,33.3351020
36,Свято-Миколаївська вулиця,50000,47.9019204,33.3373445
5,проспект 200-річчя Кривого Рогу,50042,47.9664756,33.4368301
10,Мистецька вулиця,50050,47.9027458,33.4008298
1,проспект Металургів,50000-50479,47.9057914,33.3942168
32,вулиця Олексія Різниченка,50042,47.9688624,33.4381351
1г,вулиця Миколи Світальського,<различные>,47.9711858,33.4463281
1б,вулиця Миколи Світальського,<различные>,47.9709509,33.4448627
1д,вулиця Миколи Світальського,<различные>,47.9711851,33.4444147
1,проспект 200-річчя Кривого Рогу,50042,47.9704088,33.4369727
3,проспект 200-річчя Кривого Рогу,50042,47.9684376,33.4369069
12,вулиця Степана Тільги,50006,47.8970957,33.3993476
38,вулиця Вадима Гурова,50006,47.8947449,33.4048317
16,вулиця Степана Тільги,50006,47.8963210,33.4017147
13,вулиця Степана Тільги,50006,47.8979498,33.3992715
5,вулиця Вадима Гурова,50006,47.8952986,33.3970508
14,вулиця Степана Тільги,50006,47.8968189,33.3997205
7,вулиця Ветеранів Праці,50006,47.8934650,33.3977902
24,вулиця Вадима Гурова,50006,47.8944238,33.4019342
4,вулиця Соборності,50006,47.8992353,33.3956532
28,вулиця Вадима Гурова,50006,47.8944743,33.4024790
9,вулиця Вадима Гурова,50006,47.8959013,33.3981277
29б,вулиця Соборності,50006,47.8997265,33.3948180
35а,вулиця Соборності,50006,47.9002202,33.3995733
36,вулиця Вадима Гурова,50006,47.8950625,33.4046989
5,вулиця Степана Тільги,50006,47.8976476,33.3962035
11,вулиця Ветеранів Праці,50006,47.8934506,33.3989010
20,проспект Металургів,50006,47.8972754,33.3950592
15,вулиця Вадима Гурова,50006,47.8954155,33.4000716
8,проспект Металургів,50006,47.8935312,33.3960327
22,вулиця Вадима Гурова,50006,47.8942921,33.4012670
29,вулиця Соборності,50006,47.9000039,33.3948432
18,вулиця Вадима Гурова,50006,47.8946490,33.4013123
12,проспект Металургів,50006,47.8951338,33.3956936
19,вулиця Вадима Гурова,50006,47.8958685,33.4055597
6,вулиця Степана Тільги,50006,47.8962337,33.3968232
17,вулиця Ветеранів Праці,50006,47.8936949,33.4009104
3,вулиця Ветеранів Праці,50006,47.8931285,33.3969507
1,вулиця Вадима Гурова,50006,47.8948324,33.3966109
26,вулиця Вадима Гурова,50006,47.8947840,33.4024613
22,проспект Металургів,50006,47.8981297,33.3948066
10,вулиця Степана Тільги,50006,47.8969761,33.3983365
11,вулиця Вадима Гурова,50006,47.8960200,33.3991730
13,вулиця Вадима Гурова,50006,47.8950531,33.3998802
10,вулиця Вадима Гурова,50006,47.8942580,33.3986291
12,вулиця Вадима Гурова,50006,47.8943467,33.3994644
16,вулиця Вадима Гурова,50006,47.8945669,33.4007053
14,вулиця Вадима Гурова,50006,47.8944987,33.4000767
8,вулиця Вадима Гурова,50006,47.8941610,33.3979281
14,проспект Металургів,50006,47.8956088,33.3957010
6,вулиця Вадима Гурова,50006,47.8941788,33.3972788
20,вулиця Вадима Гурова,50006,47.8947105,33.4018146
7,вулиця Вадима Гурова,50006,47.8949417,33.3988651
14,вулиця Соборності,50006,47.8991313,33.3984480
14,вулиця Вадима Гурова,50006,47.8941933,33.4007172
10,вулиця Соборності,50006,47.8989838,33.3971915
8,вулиця Степана Тільги,50006,47.8968112,33.3970927
35,вулиця Соборності,50006,47.9004480,33.4000185
12,вулиця Соборності,50006,47.8990603,33.3978172
8,вулиця Соборності,50006,47.8989134,33.3965496
17,вулиця Вадима Гурова,50006,47.8959256,33.4041998
21,вулиця Ветеранів Праці,50006,47.8939988,33.4013226
32,вулиця Вадима Гурова,50006,47.8949043,33.4035800
17-А,вулиця Вадима Гурова,50006,47.8959892,33.4046254
24,проспект Металургів,50006,47.8989773,33.3948587
3,вулиця Вадима Гурова,50006,47.8947841,33.3975899
12,проспект Металургів,50006,47.8947151,33.3956843
34,вулиця Вадима Гурова,50006,47.8949828,33.4041963
33,вулиця Соборності,50006,47.9004056,33.3982702
5,вулиця Ветеранів Праці,50006,47.8934012,33.3972508
13,вулиця Ветеранів Праці,50006,47.8938627,33.3988641
16,проспект Металургів,50006,47.8961171,33.3954614
18,проспект Металургів,50006,47.8966058,33.3954224
4,вулиця Вадима Гурова,50006,47.8940408,33.3966633
7,вулиця Степана Тільги,50006,47.8977423,33.3968572
9,вулиця Ветеранів Праці,50006,47.8932836,33.3983070
16,вулиця Соборності,50006,47.8992158,33.3990818
30,вулиця Вадима Гурова,50006,47.8948381,33.4029656
9,вулиця Степана Тільги,50006,47.8978140,33.3975500
8а,Мистецька вулиця,50000-50479,47.9020233,33.3966307
15,вулиця Ветеранів Праці,50006,47.8939695,33.3998986
27,вулиця Вадима Гурова,50006,47.8966218,33.4083722
3,вулиця Соборності,50006,47.8989810,33.3858552
11,вулиця Соборності,50006,47.8990062,33.3885405
4,вулиця Ветеранів Праці,50006,47.8928211,33.3969854
32,проспект Металургів,50000-50479,47.9014344,33.3939441
21,вулиця Вадима Гурова,50006,47.8962023,33.4072887
19,вулиця Соборності,50006,47.8994989,33.3912050
21,вулиця Соборності,50006,47.8994389,33.3918144
21,проспект Металургів,50000-50479,47.9015031,33.3929337
17,вулиця Соборності,50006,47.8992039,33.3907330
2,вулиця Соборності,50006,47.8983161,33.3898668
30,вулиця Юрія Камінського,50000-50479,47.9017897,33.3923205
27,вулиця Соборності,50027,47.8994606,33.3929344
9,проспект Металургів,50006,47.8998751,33.3933798
8,вулиця Ветеранів Праці,50006,47.8928927,33.3976602
14,вулиця Ветеранів Праці,50006,47.8930054,33.3985977
25,вулиця Вадима Гурова,50006,47.8959964,33.4081135
2,вулиця Ветеранів Праці,50006,47.8927743,33.3966985
34,проспект Металургів,50000-50479,47.9017077,33.3943564
25,вулиця Соборності,50006,47.8996223,33.3923573
31а,вулиця Соборності,50006,47.9012854,33.3963270
23,вулиця Соборності,50006,47.8998570,33.3915518
18,вулиця Ветеранів Праці,50006,47.8930576,33.3991238
6а,проспект Металургів,50006,47.8983769,33.3957672
7,вулиця Соборності,50006,47.8986947,33.3867519
12,вулиця Ветеранів Праці,50006,47.8929485,33.3981463
4,проспект Металургів,50006,47.8925316,33.3954685
6,вулиця Віталія Матусевича,50000-50479,47.9040667,33.3971512
11,Мистецька вулиця,50000-50479,47.9028252,33.3985093
4,вулиця Віталія Матусевича,50000-50479,47.9035894,33.3964507
2,вулиця Віталія Матусевича,50000-50479,47.9027777,33.3957177
8,вулиця Віталія Матусевича,50000-50479,47.9037083,33.3983080
36,проспект Металургів,50000-50479,47.9022389,33.3941006
2а,проспект Металургів,50000-50479,47.9032313,33.3951431
28,вулиця Соборності,50006,47.9002231,33.4039938
30,вулиця Соборності,50006,47.8998714,33.4047276
22,вулиця Соборності,50006,47.8996475,33.4028143
34,вулиця Соборності,50006,47.9004417,33.4060695
23,проспект Металургів,50000-50479,47.9024808,33.3927176
36,вулиця Соборності,50006,47.9002328,33.4065773
27,проспект Металургів,50000-50479,47.9030142,33.3924241
7,вулиця Юрія Камінського,50000-50479,47.9021798,33.3922279
32а,вулиця Соборності,50006,47.8995770,33.4056901
24,вулиця Соборності,50006,47.9001313,33.4032709
20,вулиця Ветеранів Праці,50006,47.8929188,33.3998898
23,вулиця Степана Тільги,50065,47.8988583,33.4059843
25,проспект Металургів,50000-50479,47.9025953,33.3920250
32,вулиця Соборності,50006,47.9001413,33.4055760
40,вулиця Соборності,50006,47.9001205,33.4074795
29,проспект Металургів,50000-50479,47.9033151,33.3918396
31,проспект Металургів,50000-50479,47.9036830,33.3919351
5,вулиця Юрія Камінського,50000-50479,47.9031976,33.3896164
19а,вулиця Юрія Камінського,50000-50479,47.9030947,33.3909801
2,Вокзальна вулиця,50051,47.8833215,33.3827032
14,Вокзальна вулиця,50051,47.8864798,33.3813143
51,вулиця Соборності,50006,47.9011370,33.4081437
20,Вокзальна вулиця,50051,47.8874002,33.3802240
26,Вокзальна вулиця,50051,47.8878900,33.3802252
4,Вокзальна вулиця,50051,47.8839062,33.3826863
18,Вокзальна вулиця,50051,47.8870455,33.3804090
22,Вокзальна вулиця,50051,47.8873975,33.3810941
6,Вокзальна вулиця,50051,47.8848493,33.3824799
10,Вокзальна вулиця,50051,47.8862667,33.3818359
45,вулиця Соборності,50006,47.9010538,33.4054134
61,вулиця Соборності,50006,47.9009914,33.4117014
24,Вокзальна вулиця,50051,47.8876528,33.3798174
28,Вокзальна вулиця,50051,47.8879208,33.3811292
43,вулиця Соборності,50006,47.9009554,33.4046253
49а,вулиця Соборності,50006,47.9016144,33.4077460
63,вулиця Соборності,50006,47.9007415,33.4124336
41,вулиця Соборності,50006,47.9008722,33.4038545
51а,вулиця Соборності,50006,47.9018416,33.4086242
16,Вокзальна вулиця,50051,47.8868217,33.3809361
49,вулиця Соборності,50006,47.9013014,33.4070780
8а,Вокзальна вулиця,50051,47.8858512,33.3828257
53,вулиця Соборності,50006,47.9012307,33.4089866
8,Вокзальна вулиця,50051,47.8858594,33.3818069
47,вулиця Соборності,50006,47.9011370,33.4062188
55,вулиця Соборності,50006,47.9011751,33.4096515
57,вулиця Соборності,50006,47.9011065,33.4103355
24б,вулиця Соборності,50006,47.9020074,33.4066493
59,вулиця Соборності,50006,47.9010527,33.4110251
39,вулиця Соборності,50006,47.9005962,33.4028543
12,Вокзальна вулиця,50051,47.8864841,33.3823134
52,вулиця Вадима Гурова,50006,47.8954220,33.4076804
76,вулиця Вадима Гурова,50006,47.8960076,33.4122499
66,вулиця Соборності,50006,47.9000628,33.4131378
74,вулиця Соборності,50006,47.8999935,33.4138992
54,вулиця Вадима Гурова,50006,47.8951550,33.4080318
70,вулиця Соборності,50006,47.8994727,33.4127655
60,вулиця Вадима Гурова,50006,47.8956465,33.4092957
66,вулиця Вадима Гурова,50006,47.8958083,33.4105289
64,вулиця Соборності,50006,47.9002604,33.4125962
54,вулиця Соборності,50006,47.8999312,33.4104303
94,вулиця Соборності,50006,47.8991667,33.4228483
35,вулиця Вадима Гурова,50006,47.8967874,33.4150080
44,вулиця Соборності,50006,47.9000882,33.4080758
60,вулиця Соборності,50006,47.9003396,33.4116633
82,вулиця Вадима Гурова,50006,47.8960687,33.4132009
39а,вулиця Вадима Гурова,50006,47.8978130,33.4206806
58,вулиця Вадима Гурова,50006,47.8955775,33.4085968
72,вулиця Вадима Гурова,50006,47.8957529,33.4115024
33,вулиця Вадима Гурова,50006,47.8964566,33.4121095
86,вулиця Вадима Гурова,50006,47.8961175,33.4136211
74,вулиця Вадима Гурова,50006,47.8958138,33.4118729
70,вулиця Вадима Гурова,50006,47.8958703,33.4109790
92,вулиця Соборності,50006,47.8993237,33.4217549
45,вулиця Вадима Гурова,50006,47.8981736,33.4236470
82,вулиця Соборності,50006,47.8993047,33.4153763
42,вулиця Соборності,50006,47.9005170,33.4082357
42,вулиця Вадима Гурова,50006,47.8952161,33.4063946
46,вулиця Соборності,50006,47.9000098,33.4087078
31а,вулиця Вадима Гурова,50006,47.8968994,33.4102051
52,вулиця Соборності,50006,47.9003870,33.4100231
40,вулиця Вадима Гурова,50006,47.8948130,33.4057814
23,вулиця Вадима Гурова,50006,47.8965652,33.4074981
44,вулиця Вадима Гурова,50006,47.8947676,33.4065138
64,вулиця Вадима Гурова,50006,47.8957440,33.4099022
84,вулиця Вадима Гурова,50006,47.8957975,33.4134704
31,вулиця Вадима Гурова,50006,47.8962274,33.4100510
31б,вулиця Вадима Гурова,50006,47.8965296,33.4110187
80,вулиця Вадима Гурова,50006,47.8960715,33.4127573
62,вулиця Вадима Гурова,50006,47.8953357,33.4093976
50,вулиця Соборності,50006,47.8997897,33.4092951
48,вулиця Соборності,50006,47.9004521,33.4091432
50,вулиця Вадима Гурова,50006,47.8953806,33.4073396
48,вулиця Вадима Гурова,50006,47.8950607,33.4071388
88,вулиця Вадима Гурова,50006,47.8962137,33.4140424
86,вулиця Соборності,50006,47.8998672,33.4168016
39,вулиця Вадима Гурова,50006,47.8974497,33.4202696
72,вулиця Соборності,50006,47.8996353,33.4136492
43,вулиця Вадима Гурова,50006,47.8980328,33.4226022
37,вулиця Вадима Гурова,50006,47.8979998,33.4196635
78,вулиця Вадима Гурова,50006,47.8956988,33.4125925
96,вулиця Соборності,50006,47.8990804,33.4235451
84,вулиця Соборності,50006,47.8996382,33.4163959
88,вулиця Соборності,50006,47.8992196,33.4193820
62,вулиця Соборності,50006,47.9002212,33.4121160
68,вулиця Соборності,50006,47.8997011,33.4132245
80,вулиця Соборності,50006,47.8995727,33.4157204
90,вулиця Соборності,50006,47.8994851,33.4204520
29,вулиця Вадима Гурова,50006,47.8972195,33.4088057
76,вулиця Соборності,50006,47.9000721,33.4148086
78,вулиця Соборності,50006,47.8999415,33.4157967
41,вулиця Вадима Гурова,50006,47.8979385,33.4216223
56,вулиця Вадима Гурова,50006,47.8955367,33.4081749
98,вулиця Соборності,50006,47.8990314,33.4244475
56,вулиця Соборності,50006,47.9002979,33.4110314
83,вулиця Соборності,50006,47.9000289,33.4232085
73,вулиця Соборності,50006,47.8999935,33.4203152
79,вулиця Соборності,50006,47.9001191,33.4217055
87а,вулиця Соборності,50006,47.9010118,33.4246438
111,вулиця Соборності,50006,47.9022451,33.4277298
89,вулиця Соборності,50006,47.9007335,33.4250374
91,вулиця Соборності,50006,47.9011027,33.4257743
85а,вулиця Соборності,50006,47.9009791,33.4233357
95,вулиця Соборності,50006,47.9003946,33.4262011
103,вулиця Соборності,50006,47.9009665,33.4272445
105,вулиця Соборності,50006,47.9013506,33.4279731
109,вулиця Соборності,50006,47.9019785,33.4283942
75,вулиця Соборності,50006,47.9004939,33.4205779
113,вулиця Соборності,50006,47.9018867,33.4268177
101,вулиця Соборності,50006,47.9010422,33.4265259
87,вулиця Соборності,50006,47.8999632,33.4239522
81,вулиця Соборності,50006,47.9000725,33.4224926
93,вулиця Соборності,50006,47.8999965,33.4256672
38,проспект Металургів,50000-50479,47.9084397,33.3926970
42,проспект Металургів,50000-50479,47.9093418,33.3927965
49,вулиця Героїв АТО,50000-50479,47.9075667,33.3995966
40,проспект Металургів,50000-50479,47.9089653,33.3930877
45,вулиця Героїв АТО,50000-50479,47.9075978,33.3983463
8,вулиця Степана Бандери,50027,47.9077834,33.4031941
10,вулиця Вахи Арсанова,50050,47.9117253,33.4014047
149а,вулиця Вернадського,50023,47.9097970,33.4739397
8,Магістральна вулиця,50055,47.9047464,33.4579111
52,вулиця Просвіти,50023,47.9058424,33.4552829
74,Гетьманська вулиця,50007,47.9033295,33.3749082
37,вулиця Гірничих Інженерів,50002,47.9080425,33.3519905
84,Гетьманська вулиця,50007,47.9079883,33.3763555
1,Святогеоргіївська вулиця,50007,47.9076398,33.3818641
5а,вулиця Володимира Бизова,50007,47.9025347,33.3769639
3,Святогеоргіївська вулиця,50007,47.9072942,33.3819706
41,Гетьманська вулиця,50007,47.9087993,33.3759845
41,Поштовий проспект,50000,47.9079913,33.3420531
82,Гетьманська вулиця,50007,47.9075814,33.3760490
156,вулиця Вадима Гурова,50006,47.8972281,33.4226384
24а,проспект Миру,50007,47.9044895,33.3766856
1,вулиця Іллі Гайдука,50007,47.9084349,33.3768285
17,проспект Миру,50007,47.9061083,33.3824327
26,проспект Миру,50007,47.9043052,33.3792554
1,вулиця Володимира Бизова,50007,47.9023035,33.3751153
50,проспект Миру,50000-50479,47.9095690,33.3903773
44а,вулиця Чкалова,50002,47.9030968,33.3539995
90,вулиця Вадима Гурова,50006,47.8962952,33.4146127
154,вулиця Вадима Гурова,50006,47.8971838,33.4223741
5б,вулиця Володимира Бизова,50007,47.9025944,33.3774690
9,вулиця Володимира Бизова,50074,47.9033149,33.3790616
7а,проспект Миру,50007,47.9052760,33.3768397
118,вулиця Вадима Гурова,50006,47.8968771,33.4196610
76,Гетьманська вулиця,50007,47.9059728,33.3752235
36,Технічна вулиця,50069,47.9161092,33.3853978
12,вулиця Іллі Гайдука,50007,47.9073924,33.3799829
15,вулиця Героїв АТО,50007,47.9076860,33.3913603
3,вулиця Володимира Бизова,50007,47.9032957,33.3762545
13,вулиця Володимира Бизова,50007,47.9030830,33.3805210
44,вулиця Пушкіна,50002,47.9076017,33.3512329
10,вулиця Володимира Бизова,50007,47.9021016,33.3766418
124,вулиця Вадима Гурова,50006,47.8969263,33.4199726
48,проспект Миру,50000-50479,47.9090125,33.3894306
11,вулиця Володимира Бизова,50007,47.9037809,33.3791795
7,вулиця Іллі Гайдука,50007,47.9082076,33.3797726
78,Гетьманська вулиця,50007,47.9065346,33.3756324
6,вулиця Володимира Бизова,50007,47.9018783,33.3747764
132,вулиця Вадима Гурова,50006,47.8969817,33.4205261
54,проспект Миру,50000-50479,47.9081054,33.3890622
7,вулиця Володимира Бизова,50007,47.9028074,33.3792884
4А,вулиця Пушкіна,50002,47.9082038,33.3469982
24,проспект Миру,50007,47.9046624,33.3781424
39а,Гетьманська вулиця,50007,47.9090961,33.3749689
22,проспект Миру,50007,47.9043862,33.3774574
120,вулиця Вадима Гурова,50006,47.8966273,33.4197396
140,вулиця Вадима Гурова,50006,47.8970492,33.4211012
130,вулиця Вадима Гурова,50006,47.8966997,33.4206173
8,вулиця Володимира Бизова,50007,47.9019984,33.3759343
126,вулиця Вадима Гурова,50006,47.8969442,33.4202109
42,проспект Героїв-Підпільників,50007,47.9115154,33.3805148
6,Святогеоргіївська вулиця,50007,47.9068109,33.3814416
148,вулиця Вадима Гурова,50006,47.8970867,33.4216438
110,вулиця Вадима Гурова,50006,47.8967036,33.4182208
10,вулиця Криворіжсталі,50051,47.8838265,33.3861499
160,вулиця Вадима Гурова,50006,47.8972732,33.4231185
134,вулиця Вадима Гурова,50006,47.8970113,33.4207826
7,Святогеоргіївська вулиця,50007,47.9065647,33.3821967
128,вулиця Вадима Гурова,50006,47.8966775,33.4203080
152,вулиця Вадима Гурова,50006,47.8971691,33.4221170
8,вулиця Криворіжсталі,50051,47.8840790,33.3868499
4,вулиця Іллі Гайдука,50007,47.9079181,33.3769268
39,Гетьманська вулиця,50007,47.9089973,33.3754909
5,Святогеоргіївська вулиця,50007,47.9069307,33.3820719
104,вулиця Вадима Гурова,50006,47.8966162,33.4173641
15а,проспект Миру,50007,47.9058515,33.3804447
142,вулиця Вадима Гурова,50006,47.8970806,33.4213608
33,проспект Металургів,50000-50479,47.9087646,33.3916132
144,вулиця Вадима Гурова,50006,47.8968136,33.4214384
5,вулиця Володимира Бизова,50007,47.9025389,33.3763492
52,проспект Миру,50000-50479,47.9076649,33.3887927
15,вулиця Володимира Бизова,50007,47.9031422,33.3815793
4,Святогеоргіївська вулиця,50007,47.9072160,33.3813216
150,вулиця Вадима Гурова,50006,47.8971375,33.4218794
102,вулиця Вадима Гурова,50006,47.8964722,33.4168873
158,вулиця Вадима Гурова,50006,47.8972450,33.4228487
92,вулиця Вадима Гурова,50006,47.8960928,33.4147354
13-О,вулиця Гірничих Інженерів,50002,47.9085214,33.3497450
44,проспект Миру,50000-50479,47.9078254,33.3880762
58а,проспект Металургів,50000-50479,47.9094381,33.3909166
2а,Гетьманська вулиця,50007,47.9086159,33.3747917
48а,проспект Миру,50000-50479,47.9084963,33.3900972
30а,проспект Миру,50007,47.9040819,33.3804255
80,Гетьманська вулиця,50007,47.9071561,33.3758344
18,проспект Миру,50007,47.9034191,33.3752063
5,вулиця Петра Калнишевського,50024,47.9106824,33.3413989
40,Поштовий проспект,50000,47.9071251,33.3442034
7,вулиця Петра Калнишевського,50024,47.9111011,33.3407185
1а,вулиця Петра Калнишевського,50024,47.9100895,33.3411603
1б,вулиця Петра Калнишевського,50024,47.9100767,33.3396592
78,вулиця Ігоря Сікорського,50023,47.9075917,33.4690115
18,вулиця Заньковецької,50023,47.9057884,33.4607021
33,Шепетівська вулиця,50023,47.9055352,33.4626552
75,Шепетівська вулиця,50023,47.9064581,33.4693532
28,вулиця Просвіти,50023,47.9052494,33.4491938
26,Шепетівська вулиця,50023,47.9050790,33.4617739
31,Шепетівська вулиця,50023,47.9055174,33.4624089
9,вулиця Ігоря Сікорського,50023,47.9068445,33.4595522
46,вулиця Леоніда Бикова,50023,47.9046977,33.4515090
79,Шепетівська вулиця,50023,47.9065466,33.4700216
8,вулиця Ігоря Сікорського,50023,47.9063440,33.4593582
40,вулиця Леоніда Бикова,50023,47.9045725,33.4504809
84,вулиця Ігоря Сікорського,50023,47.9077643,33.4700086
54,вулиця Леоніда Бикова,50023,47.9048641,33.4529026
44,вулиця Просвіти,50023,47.9055662,33.4522872
34,вулиця Леоніда Бикова,50023,47.9044882,33.4497582
48,вулиця Просвіти,50023,47.9057956,33.4540116
3,вулиця Степана Тільги,50006,47.8975162,33.3957128
37,Шепетівська вулиця,50023,47.9057546,33.4629927
29,вулиця Леоніда Бикова,50023,47.9048830,33.4502083
82,вулиця Заньковецької,50023,47.9070505,33.4702070
49,вулиця Просвіти,50023,47.9060725,33.4530629
47,вулиця Просвіти,50023,47.9059717,33.4522073
31,вулиця Леоніда Бикова,50023,47.9049099,33.4504647
33,вулиця Заньковецької,50023,47.9062711,33.4625015
46,вулиця Просвіти,50023,47.9056621,33.4531123
2а,вулиця Рахманінова,50001,47.8896321,33.3128483
30,Шепетівська вулиця,50023,47.9051412,33.4621874
16,вулиця Ветеранів Праці,50006,47.8930320,33.3988578
16,вулиця Заньковецької,50023,47.9057424,33.4604853
76,вулиця Ігоря Сікорського,50023,47.9074952,33.4686072
4,вулиця Рахманінова,50001,47.8893609,33.3122233
50,вулиця Леоніда Бикова,50023,47.9048150,33.4523379
53,вулиця Просвіти,50023,47.9061672,33.4539365
73,Шепетівська вулиця,50023,47.9064216,33.4690137
6,вулиця Рахманінова,50001,47.8889839,33.3120398
4а,вулиця Рахманінова,50001,47.8893887,33.3115459
32,вулиця Ігоря Сікорського,50023,47.9067155,33.4621252
81,Шепетівська вулиця,50023,47.9065794,33.4703217
20,вулиця Ігоря Сікорського,50023,47.9065504,33.4607482
84,вулиця Заньковецької,50023,47.9070872,33.4705255
32,Шепетівська вулиця,50023,47.9051770,33.4624254
42,вулиця Леоніда Бикова,50023,47.9046137,33.4508007
80,вулиця Заньковецької,50023,47.9069933,33.4699010
4,вулиця Ігоря Сікорського,50023,47.9062828,33.4589138
88,вулиця Ігоря Сікорського,50023,47.9078145,33.4706350
15,вулиця Заньковецької,50023,47.9060118,33.4604190
80,вулиця Ігоря Сікорського,50023,47.9076329,33.4693421
6,вулиця Ігоря Сікорського,50023,47.9063081,33.4591378
56,вулиця Леоніда Бикова,50023,47.9049327,33.4533023
6,вулиця Заньковецької,50023,47.9055903,33.4593102
16,вулиця Ігоря Сікорського,50023,47.9064742,33.4603005
28,Шепетівська вулиця,50023,47.9051145,33.4619858
37,вулиця Заньковецької,50023,47.9063235,33.4629470
3,вулиця Заньковецької,50023,47.9058046,33.4590549
29,Шепетівська вулиця,50023,47.9054858,33.4621528
34,вулиця Ігоря Сікорського,50023,47.9067437,33.4623619
77,вулиця Заньковецької,50023,47.9071749,33.4691401
2,вулиця Вадима Гурова,50006,47.8939426,33.3959761
38,Шепетівська вулиця,50023,47.9052590,33.4630480
11,вулиця Заньковецької,50023,47.9059436,33.4599100
33,вулиця Леоніда Бикова,50023,47.9049415,33.4507234
35,Шепетівська вулиця,50023,47.9055867,33.4629073
78,вулиця Заньковецької,50023,47.9069511,33.4695534
5,вулиця Заньковецької,50023,47.9058376,33.4592850
52,вулиця Леоніда Бикова,50023,47.9048406,33.4526528
5,Шепетівська вулиця,50023,47.9051602,33.4594219
79,вулиця Заньковецької,50023,47.9071908,33.4694781
14,вулиця Заньковецької,50023,47.9057220,33.4602278
38,вулиця Заньковецької,50023,47.9060774,33.4629697
8,вулиця Рахманінова,50001,47.8885473,33.3118549
17,вулиця Заньковецької,50023,47.9060618,33.4606305
30,вулиця Просвіти,50023,47.9052936,33.4495228
24,вулиця Ігоря Сікорського,50023,47.9065914,33.4612068
13,вулиця Миколаївське Шосе,50025,47.8875391,33.2807593
31,Вокзальна вулиця,50051,47.8879292,33.3757277
29,Вокзальна вулиця,50051,47.8879801,33.3763464
25,Вокзальна вулиця,50051,47.8877630,33.3775732
17,Вокзальна вулиця,50051,47.8868881,33.3794754
19,Вокзальна вулиця,50051,47.8871440,33.3791143
11,Вокзальна вулиця,50051,47.8860420,33.3806022
9,Вокзальна вулиця,50051,47.8857588,33.3808949
21,Вокзальна вулиця,50051,47.8873331,33.3786843
13,Вокзальна вулиця,50051,47.8863908,33.3802099
23,Вокзальна вулиця,50051,47.8875563,33.3780974
15,Вокзальна вулиця,50051,47.8866612,33.3799020
7,Вокзальна вулиця,50051,47.8854636,33.3811109
1,Вокзальна вулиця,50051,47.8839700,33.3816952
27,Вокзальна вулиця,50051,47.8878105,33.3769214
28,проспект Миру,50007,47.9042722,33.3802584
51,вулиця Каткова,50102,47.6867715,33.1585446
4а,вулиця Каткова,50102,47.6890487,33.1616459
24,вулиця Недєліна,50102,47.6850829,33.1578095
21,Сонячна вулиця,50102,47.6821383,33.1644438
47,вулиця Каткова,50102,47.6869683,33.1595816
22,вулиця Недєліна,50102,47.6848188,33.1584491
49,вулиця Каткова,50102,47.6876451,33.1591673
20,вулиця Недєліна,50102,47.6842015,33.1572805
28,вулиця Недєліна,50102,47.6852564,33.1568039
25,вулиця Недєліна,50102,47.6852025,33.1553692
22,Салтиківська вулиця,50026,47.8365517,33.3394660
18,Салтиківська вулиця,50026,47.8351749,33.3406781
26а,вулиця Едуарда Фукса,50042,47.9793197,33.4354031
6,вулиця Едуарда Фукса,50042,47.9840061,33.4373847
10,Славна вулиця,50031,47.9889611,33.4308276
8,Славна вулиця,50031,47.9889922,33.4316510
6-В,Славна вулиця,50031,47.9887558,33.4322843
15,Славна вулиця,50031,47.9883131,33.4312774
3,вулиця Данилевського,50031,47.9863507,33.4322708
40,вулиця Едуарда Фукса,50042,47.9743065,33.4358609
26,вулиця Едуарда Фукса,50042,47.9772639,33.4345358
28,вулиця Едуарда Фукса,50042,47.9766195,33.4341875
46,вулиця Едуарда Фукса,50042,47.9736537,33.4350412
38,вулиця Едуарда Фукса,50042,47.9758504,33.4358511
30,вулиця Едуарда Фукса,50042,47.9759311,33.4338266
52,вулиця Едуарда Фукса,50042,47.9727470,33.4345439
44,вулиця Едуарда Фукса,50042,47.9736501,33.4355280
32,вулиця Едуарда Фукса,50042,47.9761154,33.4352406
34,вулиця Едуарда Фукса,50042,47.9752109,33.4350651
54,вулиця Едуарда Фукса,50042,47.9727470,33.4339169
50,вулиця Едуарда Фукса,50042,47.9727470,33.4351709
36,вулиця Едуарда Фукса,50042,47.9751857,33.4355847
18,вулиця Едуарда Фукса,50042,47.9774091,33.4359585
24,вулиця Едуарда Фукса,50042,47.9767463,33.4351066
20,вулиця Едуарда Фукса,50042,47.9776518,33.4352352
56,вулиця Едуарда Фукса,50042,47.9727470,33.4332898
22,вулиця Едуарда Фукса,50042,47.9767209,33.4356670
69,вулиця Едуарда Фукса,50042,47.9743314,33.4379910
73,вулиця Едуарда Фукса,50042,47.9743149,33.4390573
23,вулиця Едуарда Фукса,50042,47.9795027,33.4370445
13,вулиця Едуарда Фукса,50042,47.9801858,33.4370562
43,вулиця Едуарда Фукса,50042,47.9766015,33.4375355
17,вулиця Едуарда Фукса,50042,47.9801847,33.4382076
59,вулиця Едуарда Фукса,50042,47.9751657,33.4386135
71,вулиця Едуарда Фукса,50042,47.9743296,33.4385689
61,вулиця Едуарда Фукса,50042,47.9751075,33.4391560
41,вулиця Едуарда Фукса,50042,47.9765962,33.4369598
31,вулиця Едуарда Фукса,50042,47.9787721,33.4381470
47,вулиця Едуарда Фукса,50042,47.9766034,33.4386356
29,вулиця Едуарда Фукса,50042,47.9787706,33.4376065
15,вулиця Едуарда Фукса,50042,47.9801847,33.4376281
19,вулиця Едуарда Фукса,50042,47.9801847,33.4387610
33,вулиця Едуарда Фукса,50042,47.9787692,33.4387136
25,вулиця Едуарда Фукса,50042,47.9794466,33.4392844
49,вулиця Едуарда Фукса,50042,47.9765745,33.4392194
27,вулиця Едуарда Фукса,50042,47.9788184,33.4370054
45,вулиця Едуарда Фукса,50042,47.9766106,33.4380733
21,вулиця Едуарда Фукса,50042,47.9801847,33.4393146
35,вулиця Едуарда Фукса,50042,47.9787692,33.4392670
39,вулиця Едуарда Фукса,50042,47.9772554,33.4371430
63,вулиця Едуарда Фукса,50042,47.9743303,33.4368441
53,вулиця Едуарда Фукса,50042,47.9758372,33.4391823
67,вулиця Едуарда Фукса,50042,47.9743300,33.4374198
51,вулиця Едуарда Фукса,50042,47.9758760,33.4369328
59а,вулиця Едуарда Фукса,50042,47.9749552,33.4380178
37,вулиця Едуарда Фукса,50042,47.9781306,33.4371776
3,вулиця Едуарда Фукса,50042,47.9845996,33.4391192
79,вулиця Едуарда Фукса,50042,47.9726128,33.4367823
11а,вулиця Едуарда Фукса,50042,47.9813051,33.4374977
83,вулиця Едуарда Фукса,50042,47.9726117,33.4373552
87,вулиця Едуарда Фукса,50042,47.9726117,33.4385228
5,вулиця Едуарда Фукса,50042,47.9843945,33.4396239
85,вулиця Едуарда Фукса,50042,47.9726117,33.4379444
81,вулиця Едуарда Фукса,50042,47.9730324,33.4368725
75,вулиця Едуарда Фукса,50042,47.9734628,33.4374633
39а,вулиця Едуарда Фукса,50042,47.9776875,33.4378361
9,вулиця Едуарда Фукса,50042,47.9823079,33.4375955
89,вулиця Едуарда Фукса,50042,47.9726117,33.4390850
77,вулиця Едуарда Фукса,50042,47.9734634,33.4391014
41а,вулиця Едуарда Фукса,50042,47.9776739,33.4388092
65,вулиця Едуарда Фукса,50042,47.9739125,33.4368974
42,вулиця Едуарда Фукса,50042,47.9745769,33.4351986
58а,вулиця Едуарда Фукса,50042,47.9727214,33.4322310
58,вулиця Едуарда Фукса,50042,47.9739922,33.4331440
1,вулиця Миколи Світальського,<различные>,47.9723113,33.4429641
4б,вулиця Миколи Світальського,<различные>,47.9740995,33.4421187
5,вулиця Миколи Світальського,<различные>,47.9742298,33.4408956
7,вулиця Миколи Світальського,<различные>,47.9739346,33.4446021
2,вулиця Миколи Світальського,<различные>,47.9730207,33.4428147
7а,вулиця Миколи Світальського,<различные>,47.9744013,33.4429217
9,вулиця Миколи Світальського,<различные>,47.9741906,33.4456153
11,вулиця Миколи Світальського,<различные>,47.9726931,33.4440222
8а,вулиця Миколи Світальського,<различные>,47.9743246,33.4440064
10,вулиця Миколи Світальського,<различные>,47.9737186,33.4460780
12,вулиця Миколи Світальського,<различные>,47.9729954,33.4444290
8,вулиця Миколи Світальського,<различные>,47.9743124,33.4450051
4а,вулиця Миколи Світальського,<различные>,47.9734665,33.4438962
7г,вулиця Миколи Світальського,<различные>,47.9741980,33.4432865
3,вулиця Миколи Світальського,<различные>,47.9731390,33.4419138
2а,вулиця Миколи Світальського,<различные>,47.9734882,33.4433003
15,вулиця Миколи Світальського,<различные>,47.9721533,33.4447476
13,вулиця Миколи Світальського,<различные>,47.9730861,33.4453477
16,вулиця Миколи Світальського,<различные>,47.9721988,33.4412325
6,вулиця Миколи Світальського,<различные>,47.9736144,33.4449841
14,вулиця Миколи Світальського,<различные>,47.9725543,33.4460336
4,вулиця Миколи Світальського,<различные>,47.9736131,33.4410312
52,вулиця Гірників,50102,47.6780493,33.1547075
37,Гімназична вулиця,50048,47.9228768,33.4503297
39,Гімназична вулиця,50048,47.9229119,33.4514981
43,Дніпровське шосе,50048,47.9293329,33.4489199
12,Європейський бульвар,50038,47.9367888,33.4404545
7,Європейський бульвар,50038,47.9381255,33.4429038
4,вулиця Симонова,50038,47.9385676,33.4457350
8,вулиця Симонова,50038,47.9377161,33.4443879
6,вулиця Симонова,50038,47.9373299,33.4460807
19,Європейський бульвар,50038,47.9355609,33.4415156
2,вулиця Симонова,50038,47.9396280,33.4453062
21,Європейський бульвар,50038,47.9358873,33.4422335
9,Європейський бульвар,50038,47.9376508,33.4422376
1е,вулиця Єгора Біркуна,50038,47.9394387,33.4420000
5,Європейський бульвар,50038,47.9390040,33.4445464
3,Європейський бульвар,50038,47.9386896,33.4432834
1а,Європейський бульвар,50038,47.9394212,33.4432601
2,Європейський бульвар,50038,47.9400797,33.4422865
8,Європейський бульвар,50038,47.9377458,33.4410070
6,Європейський бульвар,50038,47.9385794,33.4413916
5,вулиця Симонова,50038,47.9380230,33.4459200
3,вулиця Симонова,50038,47.9391098,33.4455213
17,Європейський бульвар,50038,47.9361838,33.4415231
5а,Європейський бульвар,50038,47.9386717,33.4440850
11,Європейський бульвар,50038,47.9370924,33.4425344
15,Європейський бульвар,50038,47.9365324,33.4422706
1,вулиця Симонова,50038,47.9401301,33.4450911
40,вулиця Володимира Великого,50071,47.9465780,33.4304013
42,вулиця Володимира Великого,50071,47.9474927,33.4330191
32,вулиця Володимира Великого,50071,47.9409951,33.4182460
13,вулиця Володимира Великого,50071,47.9382288,33.4067960
4а,вулиця Павла Глазового,50076,47.9340787,33.4173134
21,вулиця Володимира Великого,50071,47.9424451,33.4109294
3,вулиця Павла Глазового,50076,47.9335466,33.4096526
21а,вулиця Володимира Великого,50071,47.9404217,33.4117442
20,вулиця Володимира Великого,50071,47.9389957,33.4103048
9,вулиця Павла Глазового,50076,47.9338219,33.4113338
5,вулиця Павла Глазового,50076,47.9337426,33.4101659
19,вулиця Володимира Великого,50071,47.9397840,33.4108672
1,вулиця Павла Глазового,50076,47.9330975,33.4094533
16-А,вулиця Софії Перовської,50036,47.9352355,33.4088459
18,вулиця Володимира Великого,50071,47.9386155,33.4093376
17а,вулиця Володимира Великого,50071,47.9398732,33.4094866
7,вулиця Бикова,50036,47.9351905,33.4070114
1,вулиця Бикова,50036,47.9370410,33.4054958
33,вулиця Павла Глазового,50076,47.9374303,33.4163644
5,вулиця Бикова,50036,47.9358096,33.4065924
41,вулиця Павла Глазового,50076,47.9366541,33.4187392
16а,вулиця Володимира Великого,50071,47.9373899,33.4080584
26,вулиця Володимира Великого,50071,47.9402016,33.4149600
6а,вулиця Павла Глазового,50076,47.9338944,33.4180669
22,вулиця Володимира Великого,50071,47.9392058,33.4111814
23,вулиця Тесленка,50036,47.9359059,33.4108966
28,вулиця Володимира Великого,50071,47.9412559,33.4162491
2А,вулиця Павла Глазового,50000,47.9340148,33.4151445
31,вулиця Тесленка,50036,47.9357433,33.4122761
24а,вулиця Володимира Великого,50071,47.9399606,33.4142899
12,вулиця Володимира Великого,50071,47.9373783,33.4061061
30,вулиця Володимира Великого,50071,47.9409089,33.4153530
15,вулиця Павла Глазового,50076,47.9348508,33.4140341
34,вулиця Володимира Великого,50071,47.9421672,33.4197058
27,вулиця Павла Глазового,50071,47.9359511,33.4156773
7,вулиця Павла Глазового,50076,47.9339366,33.4106740
17,вулиця Павла Глазового,50076,47.9362317,33.4132815
38,вулиця Володимира Великого,50071,47.9453998,33.4274262
11,вулиця Володимира Великого,50071,47.9379087,33.4059315
22,Катеринівська вулиця,50071,47.9380604,33.4121644
11,вулиця Павла Глазового,50076,47.9345629,33.4126508
22а,вулиця Павла Глазового,50076,47.9340809,33.4233012
15а,вулиця Павла Глазового,50076,47.9361892,33.4175959
29,вулиця Тесленка,50036,47.9351894,33.4114914
13,вулиця Павла Глазового,50076,47.9347416,33.4131268
37,вулиця Павла Глазового,50076,47.9372254,33.4170714
31,вулиця Павла Глазового,50076,47.9357537,33.4163989
21,вулиця Павла Глазового,50076,47.9366132,33.4142459
14,вулиця Володимира Великого,50071,47.9370967,33.4065265
24,вулиця Володимира Великого,50071,47.9405209,33.4146340
3,вулиця Бикова,50036,47.9364236,33.4059838
17,вулиця Володимира Великого,50036,47.9390138,33.4087994
36,вулиця Володимира Великого,50071,47.9443941,33.4245650
6,вулиця Павла Глазового,50076,47.9343957,33.4189538
4,вулиця Павла Глазового,50076,47.9348907,33.4174295
8,вулиця Володимира Великого,50071,47.9360760,33.4025649
4,вулиця Володимира Великого,50071,47.9357188,33.4016445
6,вулиця Володимира Великого,50071,47.9358948,33.4020868
3,вулиця Володимира Великого,50071,47.9360456,33.4012896
1,вулиця Володимира Великого,50071,47.9358570,33.4007838
2,вулиця Володимира Великого,50071,47.9355066,33.4010552
5,вулиця Володимира Великого,50071,47.9362807,33.4017869
7,вулиця Володимира Великого,50071,47.9364585,33.4023215
10,вулиця Філатова,50036,47.9337212,33.3979965
1А,Поперечна вулиця,50084,47.9601616,33.4236571
7,вулиця Української Добровольчої Армії,50026,47.8376975,33.3493549
32,вулиця Панаса Мирного,50026,47.8376156,33.3555017
21,Переяславська вулиця,50022,47.8295403,33.3268420
15,вулиця Будівельників,50022,47.8315363,33.3285344
1,Фабрична вулиця,50000,47.9638548,33.4704078
64,Свято-Миколаївська вулиця,50000,47.8996229,33.3439992
62,Свято-Миколаївська вулиця,50000,47.8999357,33.3438377
60,Свято-Миколаївська вулиця,50000,47.9005179,33.3433695
2а,Ракетна вулиця,50024,47.9048381,33.3369685
58,Свято-Миколаївська вулиця,50000,47.9006795,33.3425761
57,Свято-Миколаївська вулиця,50000,47.9008033,33.3439225
55,Свято-Миколаївська вулиця,50000,47.9009554,33.3433829
16,Поштовий проспект,50000,47.9034869,33.3423087
23,Поштовий проспект,50000,47.9047643,33.3417204
92,Гетьманська вулиця,50007,47.9094694,33.3779440
11в,Поштовий проспект,50000,47.9029206,33.3400865
18а,Свято-Миколаївська вулиця,50000,47.9048751,33.3316267
88,Гетьманська вулиця,50007,47.9092105,33.3768904
27,Свято-Миколаївська вулиця,50000,47.9027658,33.3366920
5,площа Визволення,50099,47.9089137,33.3400347
41а,Свято-Миколаївська вулиця,50000,47.9018792,33.3395136
45,Свято-Миколаївська вулиця,50000,47.9013898,33.3422755
35,Свято-Миколаївська вулиця,50000,47.9022035,33.3386944
86,Гетьманська вулиця,50007,47.9089343,33.3767280
90,Гетьманська вулиця,50007,47.9095647,33.3772057
18,Свято-Миколаївська вулиця,50000,47.9049950,33.3324469
17,Свято-Миколаївська вулиця,50000,47.9041430,33.3350902
12,Поштовий проспект,50000,47.9021239,33.3416563
20,Свято-Миколаївська вулиця,50000,47.9043763,33.3329540
5,Поштовий проспект,50000,47.9023282,33.3407760
11,Свято-Миколаївська вулиця,50000,47.9059586,33.3323116
13,Свято-Миколаївська вулиця,50000,47.9054338,33.3331695
26,вулиця Юрія Сича,50000,47.9045379,33.3433143
19,Поштовий проспект,50000,47.9039683,33.3418236
2б,Каунаська вулиця,50000,47.9006405,33.3445668
15,Свято-Миколаївська вулиця,50000,47.9045831,33.3340683
47,Гетьманська вулиця,50007,47.9096810,33.3766088
29,Свято-Миколаївська вулиця,50000,47.9024309,33.3376064
4а,вулиця Юрія Сича,50000,47.9039397,33.3442380
43,Гетьманська вулиця,50007,47.9091578,33.3763290
39а,Поштовий проспект,50000,47.9072640,33.3434298
32А,Поштовий проспект,50000,47.9057411,33.3433425
49,Гетьманська вулиця,50007,47.9099216,33.3767063
31,Свято-Миколаївська вулиця,50000,47.9025090,33.3380825
37,вулиця Гірничих Інженерів,50002,47.9080277,33.3532214
19,Свято-Миколаївська вулиця,50000,47.9034252,33.3356668
45,Гетьманська вулиця,50007,47.9094176,33.3764338
24,Свято-Миколаївська вулиця,50000,47.9036048,33.3336005
14,вулиця Петра Калнишевського,50024,47.9135770,33.3376407
8,Ракетна вулиця,50024,47.9060037,33.3353242
2,Ракетна вулиця,50024,47.9056600,33.3358789
9,Ракетна вулиця,50024,47.9064393,33.3352788
57,Українська вулиця,50024,47.9113992,33.3353068
15,вулиця Петра Калнишевського,50024,47.9131308,33.3373233
39а,Свято-Миколаївська вулиця,50000,47.9024857,33.3396022
14а,вулиця Петра Калнишевського,50024,47.9140881,33.3377644
11,вулиця Петра Калнишевського,50024,47.9120291,33.3392121
8,вулиця Петра Калнишевського,50024,47.9123454,33.3396417
56,Кривбасівська вулиця,50024,47.9134876,33.3327314
17,вулиця Петра Калнишевського,50024,47.9140177,33.3359121
60,Кривбасівська вулиця,50024,47.9148841,33.3338260
16,вулиця Петра Калнишевського,50024,47.9143026,33.3370625
58,Кривбасівська вулиця,50024,47.9143907,33.3334912
14,Ракетна вулиця,50024,47.9063773,33.3347639
14,провулок Жолтовського,50024,47.9108809,33.3371600
17а,вулиця Петра Калнишевського,50024,47.9137592,33.3351097
9А,вулиця Петра Калнишевського,50024,47.9113347,33.3380566
1,Ракетна вулиця,50024,47.9058904,33.3361605
58а,Кривбасівська вулиця,50024,47.9139081,33.3335718
12,Ракетна вулиця,50024,47.9062525,33.3349467
44,Свято-Миколаївська вулиця,50000,47.9015545,33.3384107
9,вулиця Петра Калнишевського,50024,47.9116001,33.3398908
6,вулиця Петра Калнишевського,50024,47.9119081,33.3403520
32,Поштовий проспект,50000,47.9056305,33.3432884
54,Кривбасівська вулиця,50024,47.9130030,33.3323282
5,Ракетна вулиця,50024,47.9061778,33.3357166
19,вулиця Петра Калнишевського,50024,47.9147875,33.3346423
10,вулиця Петра Калнишевського,50024,47.9129808,33.3394541
6,Ракетна вулиця,50024,47.9059301,33.3354855
11,Ракетна вулиця,50024,47.9066750,33.3352293
17б,вулиця Петра Калнишевського,50024,47.9137328,33.3343960
19а,вулиця Петра Калнишевського,50024,47.9142753,33.3342672
20а,вулиця Петра Калнишевського,50024,47.9150927,33.3363036
39,Свято-Миколаївська вулиця,50000,47.9020228,33.3392884
22,вулиця Петра Калнишевського,50024,47.9150841,33.3352971
20,вулиця Петра Калнишевського,50024,47.9147929,33.3357592
62,Кривбасівська вулиця,50024,47.9159274,33.3344504
24,вулиця Петра Калнишевського,50024,47.9154554,33.3347076
13,Авіаційна вулиця,50045,47.9290096,33.3319938
16,Медична вулиця,50005,47.8868113,33.3867881
14а,Ракетна вулиця,50024,47.9059085,33.3345849
13,вулиця Петра Калнишевського,50024,47.9124860,33.3384442
35б,Поштовий проспект,50000,47.9061131,33.3426971
2,вулиця Костя Пестушка,50001,47.8898922,33.3112292
143,вулиця Вернадського,50023,47.9103649,33.4737945
145а,вулиця Вернадського,50023,47.9096268,33.4727008
147,вулиця Вернадського,50023,47.9096866,33.4730680
149б,вулиця Вернадського,50023,47.9098380,33.4742728
149в,вулиця Вернадського,50023,47.9098539,33.4745117
39,Гімназична вулиця,50048,47.9231142,33.4507118
12,Військове містечко 33,50054,47.8866824,33.4932169
37,вулиця Соборності,50006,47.9005365,33.4011645
82а,Гетьманська вулиця,50007,47.9055022,33.3749660
93,Кривбасівська вулиця,50024,47.9160351,33.3336917
2,вулиця Петра Калнишевського,50024,47.9103405,33.3428554
4,вулиця Петра Калнишевського,50024,47.9108644,33.3425179
2,Святогеоргіївська вулиця,50007,47.9077245,33.3811800
38,вулиця Соборності,50006,47.9005698,33.4071612
58,вулиця Соборності,50006,47.8998783,33.4109876
77,вулиця Соборності,50006,47.9009959,33.4214805
8,Святогеоргіївська вулиця,50007,47.9063646,33.3815622
21а,вулиця Юрія Камінського,50000-50479,47.9018387,33.3928501
36б,проспект Металургів,50000-50479,47.9064784,33.3932920
36а,проспект Металургів,50000-50479,47.9060765,33.3933277
30-А,вулиця Героїв АТО,50000-50479,47.9066619,33.3971027
98,вулиця Вадима Гурова,50006,47.8964271,33.4161624
100,вулиця Вадима Гурова,50006,47.8964210,33.4165526
138,вулиця Вадима Гурова,50006,47.8967905,33.4211796
122,вулиця Вадима Гурова,50006,47.8966526,33.4200582
146,вулиця Вадима Гурова,50006,47.8968400,33.4216996
106,вулиця Вадима Гурова,50006,47.8966541,33.4176888
136,вулиця Вадима Гурова,50006,47.8967398,33.4208498
114,вулиця Вадима Гурова,50006,47.8968175,33.4190482
112,вулиця Вадима Гурова,50006,47.8967665,33.4185378
13,Мистецька вулиця,50000-50479,47.9032495,33.3989512
22,вулиця Володимира Бизова,50007,47.9022839,33.3798764
3,вулиця Іллі Гайдука,50007,47.9081671,33.3773883
30,вулиця Іллі Гайдука,50007,47.9080001,33.3786664
5а,Полтавська вулиця,50007,47.9012564,33.3776408
2а,Полтавська вулиця,50007,47.9015235,33.3769835
40,Дорожній провулок,50007,47.9016942,33.3757486
40а,Дорожній провулок,50007,47.9017479,33.3760703
50,Дорожній провулок,50007,47.9022382,33.3774569
3,Полтавська вулиця,50007,47.9014699,33.3775256
4,Полтавська вулиця,50007,47.9012022,33.3771221
44,Дорожній провулок,50007,47.9018092,33.3768288
8,Сімферопольська вулиця,50007,47.9015281,33.3789675
9,Сімферопольська вулиця,50007,47.9017824,33.3786236
1,Полтавська вулиця,50007,47.9017929,33.3775091
5,Полтавська вулиця,50007,47.9013577,33.3775146
46,Дорожній провулок,50007,47.9018348,33.3770179
6,Сімферопольська вулиця,50007,47.9017091,33.3789213
1,вулиця Віталія Матусевича,50000-50479,47.9020955,33.3954422
24б,вулиця Володимира Великого,50071,47.9396336,33.4133441
9,вулиця Володимира Великого,50071,47.9368755,33.4029206
15,вулиця Володимира Великого,50071,47.9386313,33.4075991
25,вулиця Володимира Великого,50071,47.9412185,33.4136836
1,Європейський бульвар,50038,47.9399717,33.4438966
26а,вулиця Павла Глазового,50076,47.9350924,33.4244434
24,вулиця Павла Глазового,50076,47.9351445,33.4237994
22,вулиця Павла Глазового,50076,47.9344627,33.4239922
10,вулиця Павла Глазового,50076,47.9351911,33.4194200
18,вулиця Павла Глазового,50076,47.9338773,33.4224864
14,вулиця Павла Глазового,50076,47.9350309,33.4206691
31,вулиця Володимира Великого,50071,47.9438939,33.4189982
31б,вулиця Володимира Великого,50071,47.9437039,33.4200784
37б,вулиця Володимира Великого,50071,47.9447206,33.4219380
37а,вулиця Володимира Великого,50071,47.9443393,33.4217077
8,вулиця Павла Глазового,50076,47.9356916,33.4195222
31а,вулиця Володимира Великого,50071,47.9437923,33.4195366
39а,вулиця Володимира Великого,50071,47.9448936,33.4231681
26,вулиця Павла Глазового,50076,47.9345893,33.4249301
29а,вулиця Володимира Великого,50071,47.9440900,33.4179198
21,вулиця Володимира Великого,50071,47.9410030,33.4118938
10,вулиця Володимира Великого,50071,47.9363291,33.4033701
14а,вулиця Володимира Великого,50071,47.9375081,33.4070610
38а,вулиця Володимира Великого,50071,47.9458010,33.4287913
19а,вулиця Володимира Великого,50071,47.9394018,33.4098774
42а,вулиця Володимира Великого,50071,47.9471991,33.4320203
15,проспект 200-річчя Кривого Рогу,50042,47.9617598,33.4368987
17,проспект 200-річчя Кривого Рогу,50042,47.9612786,33.4370697
82,вулиця Олексія Різниченка,50084,47.9637278,33.4373854
28,Спаська вулиця,50049,47.9581667,33.4293577
103,Світлогірська вулиця,50011,47.9639402,33.4134260
14,проспект 200-річчя Кривого Рогу,50042,47.9599125,33.4347795
20,проспект 200-річчя Кривого Рогу,50042,47.9586561,33.4349282
18,проспект 200-річчя Кривого Рогу,50042,47.9590726,33.4349298
16,проспект 200-річчя Кривого Рогу,50042,47.9594788,33.4349312
36б,вулиця Володимира Великого,50071,47.9447296,33.4254218
30,проспект 200-річчя Кривого Рогу,50042,47.9556220,33.4347371
32,проспект 200-річчя Кривого Рогу,50042,47.9551063,33.4341321
34,проспект 200-річчя Кривого Рогу,50042,47.9552386,33.4334788
33,Покровська вулиця,50042,47.9625096,33.4312827
37,Покровська вулиця,50042,47.9652302,33.4293787
7,Покровська вулиця,50042,47.9711349,33.4335815
4,проспект 200-річчя Кривого Рогу,50042,47.9704288,33.4354139
12,Покровська вулиця,50042,47.9668175,33.4341328
6,Покровська вулиця,50042,47.9704912,33.4342678
12,проспект 200-річчя Кривого Рогу,50042,47.9667997,33.4353288
20,Покровська вулиця,50042,47.9667849,33.4329969
18,Покровська вулиця,50042,47.9687986,33.4322943
36,Покровська вулиця,50042,47.9649092,33.4298549
8,Покровська вулиця,50042,47.9704603,33.4321684
34,Покровська вулиця,50042,47.9629964,33.4296814
10,проспект 200-річчя Кривого Рогу,50042,47.9676148,33.4353660
41,Покровська вулиця,50042,47.9660267,33.4313996
5,Покровська вулиця,50042,47.9703157,33.4348219
35,Покровська вулиця,50042,47.9643979,33.4288832
40,Покровська вулиця,50042,47.9667750,33.4306564
11,Покровська вулиця,50042,47.9694388,33.4324223
2,проспект 200-річчя Кривого Рогу,50042,47.9713489,33.4353255
16,Покровська вулиця,50042,47.9680264,33.4330056
13,Покровська вулиця,50042,47.9684375,33.4348466
19,Покровська вулиця,50042,47.9690303,33.4314855
43,Покровська вулиця,50042,47.9651258,33.4308982
10,Покровська вулиця,50042,47.9693495,33.4343035
1,Покровська вулиця,50042,47.9715042,33.4342965
14,Покровська вулиця,50042,47.9683012,33.4342169
3,Покровська вулиця,50042,47.9713762,33.4329716
8,проспект 200-річчя Кривого Рогу,50042,47.9685380,33.4353696
32,Покровська вулиця,50042,47.9639218,33.4315792
6,проспект 200-річчя Кривого Рогу,50042,47.9694648,33.4354053
15,Покровська вулиця,50042,47.9681670,33.4336350
17,Покровська вулиця,50042,47.9674871,33.4344356
34а,Покровська вулиця,50042,47.9637787,33.4304027
10а,Покровська вулиця,50042,47.9696737,33.4342741
9,бульвар Маршала Василевського,50085,47.9679627,33.4492827
19,вулиця Павла Глазового,50076,47.9360947,33.4142561
23,вулиця Павла Глазового,50076,47.9364841,33.4151875
25,вулиця Павла Глазового,50076,47.9368250,33.4160706
29,вулиця Павла Глазового,50071,47.9362852,33.4165360
32а,вулиця Володимира Великого,50071,47.9425039,33.4217368
27а,вулиця Володимира Великого,50071,47.9433539,33.4189841
33а,вулиця Володимира Великого,50071,47.9445279,33.4206307
37,вулиця Володимира Великого,50071,47.9444296,33.4211658
39,вулиця Володимира Великого,50071,47.9449701,33.4225845
69,Соловʼїна вулиця,50005,47.8859171,33.3751401
7,вулиця Просвіти,50023,47.9051642,33.4464329
2,вулиця Просвіти,50023,47.9047942,33.4458475
65,вулиця Просвіти,50023,47.9063487,33.4557997
39,вулиця Леоніда Бикова,50023,47.9051618,33.4524333
33,вулиця Просвіти,50023,47.9056427,33.4500644
49,вулиця Леоніда Бикова,50023,47.9053176,33.4537335
25,вулиця Просвіти,50023,47.9054713,33.4487908
53,вулиця Леоніда Бикова,50023,47.9053994,33.4542531
18,вулиця Просвіти,50023,47.9050879,33.4478593
32,вулиця Просвіти,50023,47.9053289,33.4498438
34,вулиця Просвіти,50023,47.9053454,33.4500193
19,вулиця Леоніда Бикова,50023,47.9046283,33.4486885
11,вулиця Леоніда Бикова,50023,47.9044756,33.4475233
23,вулиця Леоніда Бикова,50023,47.9047203,33.4493485
45,вулиця Леоніда Бикова,50023,47.9052457,33.4531923
150,вулиця Вернадського,50023,47.9082622,33.4658089
47,вулиця Леоніда Бикова,50023,47.9052712,33.4534764
73,вулиця Просвіти,50023,47.9064555,33.4566557
26,вулиця Просвіти,50023,47.9052244,33.4488872
21,вулиця Просвіти,50023,47.9054050,33.4481531
1,вулиця Просвіти,50023,47.9050806,33.4457173
8,вулиця Просвіти,50023,47.9049065,33.4465091
7,вулиця Леоніда Бикова,50023,47.9044008,33.4469723
69,вулиця Просвіти,50023,47.9063951,33.4562295
37,вулиця Леоніда Бикова,50023,47.9051831,33.4521156
51,вулиця Леоніда Бикова,50023,47.9053557,33.4540004
43,вулиця Леоніда Бикова,50023,47.9052263,33.4529244
31,вулиця Просвіти,50023,47.9055944,33.4497416
68,вулиця Леоніда Бикова,50023,47.9051502,33.4548087
12,вулиця Просвіти,50023,47.9049854,33.4472296
36,вулиця Просвіти,50023,47.9054084,33.4503406
13,вулиця Леоніда Бикова,50023,47.9045100,33.4477713
15,вулиця Леоніда Бикова,50023,47.9045524,33.4481185
41,вулиця Леоніда Бикова,50023,47.9052018,33.4526890
27,вулиця Просвіти,50023,47.9055272,33.4490900
25,вулиця Леоніда Бикова,50023,47.9047614,33.4496640
60,вулиця Леоніда Бикова,50023,47.9050094,33.4537953
15,вулиця Просвіти,50023,47.9053098,33.4474635
18,Ракетна вулиця,50024,47.9073439,33.3330681
15,вулиця Глінки,50000,47.9016113,33.3468857
3,провулок Жолтовського,50024,47.9094313,33.3362338
65,Свято-Миколаївська вулиця,50000,47.8999215,33.3449556
17,Ракетна вулиця,50024,47.9074856,33.3335709
1,провулок Жолтовського,50024,47.9092350,33.3360873
21,Ракетна вулиця,50024,47.9076086,33.3333283
19,Ракетна вулиця,50024,47.9076279,33.3337603
67в,Свято-Миколаївська вулиця,50000,47.8997361,33.3448748
25,провулок Жолтовського,50024,47.9099488,33.3364064
56,Свято-Миколаївська вулиця,50000,47.9007962,33.3421776
61,Свято-Миколаївська вулиця,50000,47.9000432,33.3444831
13,провулок Жолтовського,50024,47.9102690,33.3374466
7,провулок Жолтовського,50024,47.9095931,33.3365711
65а,Свято-Миколаївська вулиця,50000,47.8998115,33.3450724
18,провулок Жолтовського,50024,47.9106069,33.3368222
3,Церковна вулиця,50000,47.9005671,33.3414540
100,Українська вулиця,50024,47.9114828,33.3384573
4,провулок Жолтовського,50024,47.9106350,33.3377222
32,Українська вулиця,<различные>,47.9082916,33.3323473
23,Ракетна вулиця,50024,47.9077505,33.3331359
27,провулок Жолтовського,50024,47.9098007,33.3362468
23,провулок Жолтовського,50024,47.9100605,33.3365255
60а,Свято-Миколаївська вулиця,50000,47.9001231,33.3425863
15,провулок Жолтовського,50024,47.9103789,33.3376274
59,Свято-Миколаївська вулиця,50000,47.9003697,33.3442613
1,Церковна вулиця,50000,47.9008472,33.3416525
18,вулиця Миколи Світальського,<различные>,47.9728273,33.4478865
79а,вулиця Едуарда Фукса,50042,47.9721196,33.4368448
20,вулиця Миколи Світальського,<различные>,47.9721570,33.4470969
19,вулиця Миколи Світальського,<различные>,47.9742353,33.4473168
7а,Соколовська вулиця,50106,47.9989000,33.4719719
54,Свято-Миколаївська вулиця,50000,47.9013806,33.3396331
2б,Ракетна вулиця,50024,47.9053988,33.3364612
21,вулиця Юрія Сича,50000,47.9035432,33.3480215
30а,вулиця Едуарда Фукса,50042,47.9753915,33.4333836
11,бульвар Маршала Василевського,50085,47.9685077,33.4501013
13,бульвар Маршала Василевського,50085,47.9685496,33.4507229
15,бульвар Маршала Василевського,50085,47.9682581,33.4511939
17,вулиця Миколи Світальського,<различные>,47.9722998,33.4409096
17,бульвар Маршала Василевського,50085,47.9679773,33.4516424
1а,вулиця Миколи Світальського,<различные>,47.9723183,33.4421046
46а,вулиця Едуарда Фукса,50042,47.9760461,33.4384055
81а,вулиця Едуарда Фукса,50042,47.9733926,33.4367915
75в,вулиця Едуарда Фукса,50042,47.9737739,33.4382908
75а,вулиця Едуарда Фукса,50042,47.9732067,33.4382371
38,Дорожній провулок,50007,47.9016125,33.3749009
78,Свято-Миколаївська вулиця,50000,47.8966305,33.3461753
87,Свято-Миколаївська вулиця,50000,47.8982389,33.3462879
93,Свято-Миколаївська вулиця,50000,47.8980368,33.3468001
77,Свято-Миколаївська вулиця,50000,47.8989775,33.3454526
4,вулиця Жовтих Ірисів,50004,47.8929118,33.3453753
2,вулиця Жовтих Ірисів,50004,47.8931344,33.3455582
73,Свято-Миколаївська вулиця,50000,47.8991462,33.3450902
74,Свято-Миколаївська вулиця,50000,47.8978877,33.3459206
28а,Свято-Миколаївська вулиця,50000,47.9020449,33.3361006
6б,Женевська вулиця,50031,47.9832198,33.4417983
6б,Женевська вулиця,50031,47.9834119,33.4416418
77,вулиця Ольги Басараб,50079,48.1440268,33.5579102
1а,вулиця Доватора,50079,48.1491276,33.5878920
10а,вулиця Володимира Терещенка,50079,48.1454126,33.5666041
73,вулиця Ольги Басараб,50079,48.1448582,33.5530318
62а,вулиця Героїв Маріуполя,50089,48.1396489,33.5914084
1а,вулиця Бірюзова,50079,48.1465768,33.5474947
27,вулиця Доватора,50079,48.1495317,33.5884740
5а,вулиця Доватора,50079,48.1487551,33.5905274
79-А,вулиця Володимира Черкасова,50079,48.1500930,33.5543569
25-А,Ботанічна вулиця,50079,48.1461332,33.5838165
33,вулиця Доватора,50079,48.1496749,33.5901077
23,Ботанічна вулиця,50079,48.1479907,33.5865327
37,Грядкувата вулиця,50079,48.1422594,33.5486196
27,вулиця Винахідниці Ющенко,50079,48.1431903,33.5402203
1,Факельний провулок,50079,48.1425979,33.5441687
30,вулиця Ольги Кобилянської,50079,48.1450012,33.5412832
120,вулиця Ольги Басараб,50079,48.1414567,33.5637645
25,вулиця Володимира Черкасова,50079,48.1491938,33.5552936
25,Паланкова вулиця,50079,48.1386246,33.5667033
7,вулиця Ольги Кобилянської,50079,48.1448422,33.5381822
30,Паланкова вулиця,50079,48.1379858,33.5647121
25,вулиця Ганни Максимець,50079,48.1388295,33.5687321
164,вулиця Ольги Басараб,50079,48.1377139,33.5684363
29,вулиця Івана Сірка,50079,48.1416325,33.5488089
24,вулиця Вільного Козацтва,50079,48.1419384,33.5646132
45,вулиця Ольги Кобилянської,50079,48.1456644,33.5437291
10,вулиця Богдана Хмельницького,50079,48.1391200,33.5647740
2,вулиця Антона Ігнатченка,50079,48.1438554,33.5626524
79,вулиця Ольги Басараб,50079,48.1433030,33.5593101
79,вулиця Івана Сірка,50079,48.1372721,33.5650397
2,вулиця Василя Сліпака,50079,48.1424847,33.5536191
68,вулиця Антона Ігнатченка,50079,48.1393001,33.5696397
154,вулиця Ольги Басараб,50079,48.1386826,33.5672537
5,вулиця Віри Білай,50079,48.1441052,33.5378180
24,вулиця Богдана Хмельницького,50079,48.1403461,33.5669769
40,вулиця Волі,50079,48.1426126,33.5466670
105,вулиця Ольги Басараб,50079,48.1411697,33.5647752
28,вулиця Антона Ігнатченка,50079,48.1423136,33.5658675
12,Луцька вулиця,50079,48.1368703,33.5675096
58,вулиця Івана Сірка,50079,48.1400584,33.5600974
2,вулиця Вільного Козацтва,50079,48.1402554,33.5616385
21,Паланкова вулиця,50079,48.1388901,33.5663170
29,вулиця Віри Білай,50079,48.1446935,33.5416903
119,вулиця Ольги Басараб,50079,48.1396283,33.5666279
32,вулиця Волі,50079,48.1415324,33.5470950
123,вулиця Ольги Басараб,50079,48.1384944,33.5680913
30,вулиця Вільного Козацтва,50079,48.1423022,33.5652540
25,вулиця Ольги Басараб,50079,48.1424202,33.5396768
10,Веселотернівська вулиця,50079,48.1412375,33.5376471
24,вулиця Ганни Максимець,50079,48.1384842,33.5688428
14,Астрономічна вулиця,50079,48.1405924,33.5395103
30,вулиця Віри Білай,50079,48.1441819,33.5404701
31,Луцька вулиця,50079,48.1365186,33.5688819
6,вулиця Доватора,50079,48.1481709,33.5922772
33,Байрачна вулиця,50079,48.1376150,33.5716903
30,вулиця Богдана Хмельницького,50079,48.1406876,33.5675508
178,вулиця Ольги Басараб,50079,48.1365818,33.5698517
84,вулиця Ольги Басараб,50079,48.1438709,33.5529228
5,вулиця Василя Гнатюка,50079,48.1452471,33.5383199
55,вулиця Волі,50079,48.1427867,33.5461195
49,вулиця Ольги Басараб,50079,48.1434506,33.5449796
6,Луцька вулиця,50079,48.1366100,33.5670451
48,вулиця Ольги Кобилянської,50079,48.1454227,33.5440764
9,вулиця Антона Ігнатченка,50079,48.1429691,33.5656758
26,Луцька вулиця,50079,48.1364553,33.5680292
49,вулиця Антона Ігнатченка,50079,48.1399361,33.5694624
32,вулиця Ольги Басараб,50079,48.1421778,33.5401154
2,Астрономічна вулиця,50079,48.1401772,33.5370367
66,вулиця Віри Білай,50079,48.1451851,33.5470333
127,вулиця Ольги Басараб,50079,48.1380397,33.5686517
1,вулиця Бірюзова,50079,48.1460433,33.5481506
9,вулиця Ольги Басараб,50079,48.1419914,33.5368738
11,вулиця Віри Білай,50079,48.1442980,33.5391150
4,вулиця Вільного Козацтва,50079,48.1403418,33.5617958
16,вулиця Ганни Максимець,50079,48.1377220,33.5674664
56,вулиця Ольги Басараб,50079,48.1433729,33.5463881
22,вулиця Доватора,50079,48.1502331,33.5912102
37,вулиця Винахідниці Ющенко,50079,48.1434771,33.5422500
22,вулиця Ольги Кобилянської,50079,48.1448154,33.5400319
14,вулиця Володимира Черкасова,50079,48.1507823,33.5559620
69,вулиця Івана Сірка,50079,48.1381571,33.5639229
112,вулиця Ольги Басараб,50079,48.1421545,33.5628224
14,вулиця Вільного Козацтва,50079,48.1409963,33.5629694
38,вулиця Винахідниці Ющенко,50079,48.1431616,33.5419634
11,вулиця Ганни Максимець,50079,48.1377121,33.5667241
46,вулиця Антона Ігнатченка,50079,48.1407902,33.5677662
24,вулиця Віри Білай,50079,48.1440518,33.5396793
1,вулиця Ольги Кобилянської,50079,48.1446686,33.5370300
4,вулиця Володимира Черкасова,50079,48.1497498,33.5570941
34,вулиця Івана Сірка,50079,48.1412209,33.5522442
10,вулиця Вільного Козацтва,50079,48.1407131,33.5624458
83,вулиця Ольги Басараб,50079,48.1429649,33.5608084
8,Веселотернівська вулиця,50079,48.1411844,33.5373288
7,Гірничорудний провулок,50079,48.1432090,33.5638876
16,Паланкова вулиця,50079,48.1385050,33.5655941
49,Грядкувата вулиця,50079,48.1434403,33.5483577
158,вулиця Ольги Басараб,50079,48.1385625,33.5666176
23,вулиця Івана Сірка,50079,48.1405418,33.5425794
23,вулиця Антона Ігнатченка,50079,48.1418283,33.5670899
19,вулиця Володимира Черкасова,50079,48.1501283,33.5527807
40,вулиця Антона Ігнатченка,50079,48.1414411,33.5670351
41,Луцька вулиця,50079,48.1359729,33.5678684
33,вулиця Вільного Козацтва,50079,48.1424040,33.5647661
23,Байрачна вулиця,50079,48.1370444,33.5706826
132,вулиця Ольги Басараб,50079,48.1405042,33.5650063
4,Приваблива вулиця,50079,48.1429744,33.5543408
5,Паланкова вулиця,50079,48.1387112,33.5648909
60,вулиця Антона Ігнатченка,50079,48.1398660,33.5689055
16,вулиця Винахідниці Ющенко,50079,48.1425528,33.5380317
27,вулиця Богдана Хмельницького,50079,48.1407881,33.5670765
45,Луцька вулиця,50079,48.1357431,33.5674743
8,вулиця Ольги Кобилянської,50079,48.1445529,33.5382516
34,Луцька вулиця,50079,48.1361131,33.5674017
30,вулиця Володимира Терещенка,50079,48.1427446,33.5688964
29,вулиця Антона Ігнатченка,50079,48.1414252,33.5676219
17,вулиця Винахідниці Ющенко,50079,48.1428866,33.5382975
55,вулиця Ольги Басараб,50079,48.1436445,33.5462933
42,вулиця Віри Білай,50079,48.1444655,33.5423085
16,вулиця Василя Гнатюка,50079,48.1456943,33.5413887
11,Байрачна вулиця,50079,48.1360488,33.5688656
124,вулиця Ольги Басараб,50079,48.1411505,33.5642390
3,вулиця Богдана Хмельницького,50079,48.1390395,33.5639245
148,вулиця Ольги Басараб,50079,48.1391039,33.5666760
20,вулиця Доватора,50079,48.1510092,33.5912743
26,Веселотернівська вулиця,50079,48.1416440,33.5402807
20,вулиця Володимира Терещенка,50079,48.1439421,33.5672543
31,вулиця Ольги Кобилянської,50079,48.1453462,33.5414559
3,Байрачна вулиця,50079,48.1355684,33.5680241
14,вулиця Богдана Хмельницького,50079,48.1393713,33.5651934
13,Паланкова вулиця,50079,48.1391248,33.5656714
5,Луцька вулиця,50079,48.1368619,33.5668061
6,вулиця Антона Ігнатченка,50079,48.1437553,33.5631370
40,вулиця Івана Сірка,50079,48.1411643,33.5542310
152,вулиця Ольги Басараб,50079,48.1388205,33.5670740
2,вулиця Ольги Кобилянської,50079,48.1443857,33.5371370
21,вулиця Володимира Терещенка,50079,48.1443491,33.5674413
20,вулиця Богдана Хмельницького,50079,48.1400940,33.5665225
2,Луцька вулиця,50079,48.1364157,33.5666958
36,вулиця Волі,50079,48.1420709,33.5468734
1,вулиця Ганни Максимець,50079,48.1371428,33.5657523
1,вулиця Володимира Черкасова,50079,48.1487396,33.5531195
9,вулиця Вільного Козацтва,50079,48.1413100,33.5615453
34,вулиця Винахідниці Ющенко,50079,48.1430005,33.5410021
20,вулиця Вільного Козацтва,50079,48.1413708,33.5636232
6,Астрономічна вулиця,50079,48.1403168,33.5378982
15,Паланкова вулиця,50079,48.1392987,33.5658555
26,вулиця Ольги Кобилянської,50079,48.1449123,33.5404980
95,вулиця Ольги Басараб,50079,48.1422218,33.5634045
9,вулиця Богдана Хмельницького,50079,48.1394005,33.5645814
15,вулиця Ольги Басараб,50079,48.1421790,33.5380881
26,вулиця Ольги Басараб,50079,48.1420011,33.5391391
28,вулиця Ганни Максимець,50079,48.1387112,33.5692448
37,Паланкова вулиця,50079,48.1377725,33.5659657
5,Факельний провулок,50079,48.1422522,33.5442793
11,Луцька вулиця,50079,48.1372016,33.5673866
34,вулиця Ольги Кобилянської,50079,48.1451197,33.5418568
22,вулиця Антона Ігнатченка,50079,48.1428916,33.5651296
26,вулиця Богдана Хмельницького,50079,48.1404547,33.5671586
20,Луцька вулиця,50079,48.1368405,33.5682219
11,вулиця Ольги Кобилянської,50079,48.1449110,33.5386827
111,вулиця Ольги Басараб,50079,48.1406698,33.5653843
52,вулиця Віри Білай,50079,48.1447551,33.5441677
26,вулиця Володимира Черкасова,50079,48.1493596,33.5560304
44,вулиця Ольги Кобилянської,50079,48.1452704,33.5431460
5,вулиця Антона Ігнатченка,50079,48.1432563,33.5654373
131,вулиця Ольги Басараб,50079,48.1377741,33.5689693
43,вулиця Антона Ігнатченка,50079,48.1403241,33.5689230
22,вулиця Вільного Козацтва,50079,48.1418139,33.5643980
89,вулиця Івана Сірка,50079,48.1361423,33.5665539
96,вулиця Ольги Басараб,50079,48.1430563,33.5587431
90,вулиця Ольги Басараб,50079,48.1438454,33.5551607
2,вулиця Богдана Хмельницького,50079,48.1386547,33.5639360
80,вулиця Антона Ігнатченка,50079,48.1382573,33.5709092
12,вулиця Ганни Максимець,50079,48.1374822,33.5670157
60,вулиця Івана Сірка,50079,48.1398269,33.5606934
68,вулиця Ольги Басараб,50079,48.1438214,33.5493528
33,вулиця Віри Білай,50079,48.1447761,33.5422008
14,Луцька вулиця,50079,48.1369438,33.5676289
77,вулиця Івана Сірка,50079,48.1375135,33.5647389
20,вулиця Ганни Максимець,50079,48.1379492,33.5678566
108,вулиця Ольги Басараб,50079,48.1422733,33.5623224
41,вулиця Ольги Кобилянської,50079,48.1455500,33.5428458
16,вулиця Ольги Басараб,50079,48.1417693,33.5375327
11,вулиця Антона Ігнатченка,50079,48.1428320,33.5658671
20,Астрономічна вулиця,50079,48.1408890,33.5412491
69,Адмірала Головка вулиця,50079,48.1386667,33.5916447
3,вулиця Покришева,50079,48.1432776,33.5623688
73,вулиця Івана Сірка,50079,48.1377815,33.5643563
13,вулиця Ганни Максимець,50079,48.1378320,33.5669319
65,вулиця Ольги Басараб,50079,48.1439682,33.5481681
7,вулиця Василя Гнатюка,50079,48.1453210,33.5388193
116,вулиця Ольги Басараб,50079,48.1419073,33.5633111
48,вулиця Ольги Басараб,50079,48.1431499,33.5449243
6,вулиця Ганни Максимець,50079,48.1371554,33.5664155
15,вулиця Антона Ігнатченка,50079,48.1423927,33.5664229
20,вулиця Василя Гнатюка,50079,48.1458779,33.5424049
10,Гірничорудний провулок,50079,48.1428093,33.5645200
18,вулиця Доватора,50079,48.1516990,33.5909366
36,вулиця Ольги Басараб,50079,48.1422664,33.5406871
143,вулиця Ольги Басараб,50079,48.1367712,33.5701864
6,Приваблива вулиця,50079,48.1432466,33.5547888
9,Паланкова вулиця,50079,48.1389154,33.5653156
2,вулиця Ганни Максимець,50079,48.1369155,33.5659986
8,Астрономічна вулиця,50079,48.1403904,33.5384330
19,вулиця Антона Ігнатченка,50079,48.1421113,33.5667882
170,вулиця Ольги Басараб,50079,48.1372092,33.5690405
17,вулиця Володимира Черкасова,50079,48.1513267,33.5537140
42,вулиця Антона Ігнатченка,50079,48.1412815,33.5672264
37,Луцька вулиця,50079,48.1362122,33.5682736
27,Байрачна вулиця,50079,48.1372799,33.5710801
59,вулиця Антона Ігнатченка,50079,48.1389930,33.5706007
15,вулиця Віри Білай,50079,48.1443948,33.5396346
7,вулиця Володимира Терещенка,50079,48.1425551,33.5676601
11,вулиця Ольги Басараб,50079,48.1420344,33.5373345
44,вулиця Антона Ігнатченка,50079,48.1410070,33.5675006
22,вулиця Ольги Басараб,50079,48.1418927,33.5384772
32,Луцька вулиця,50079,48.1361897,33.5675816
67,вулиця Антона Ігнатченка,50079,48.1380660,33.5717110
18,вулиця Ольги Кобилянської,50079,48.1447517,33.5395124
137,вулиця Ольги Басараб,50079,48.1372904,33.5695676
42,вулиця Винахідниці Ющенко,50079,48.1432731,33.5426894
39,вулиця Віри Білай,50079,48.1449038,33.5430725
5,вулиця Ольги Кобилянської,50079,48.1447400,33.5375572
7,Байрачна вулиця,50079,48.1358266,33.5684419
59,вулиця Івана Сірка,50079,48.1389536,33.5628839
49,вулиця Івана Сірка,50079,48.1408558,33.5590337
16,Веселотернівська вулиця,50079,48.1413845,33.5386376
92,вулиця Ольги Басараб,50079,48.1437114,33.5557630
58,Грядкувата вулиця,50079,48.1432348,33.5489436
12/1,вулиця Доватора,50079,48.1487246,33.5928289
27,Паланкова вулиця,50079,48.1383113,33.5669145
1,Луцька вулиця,50079,48.1366336,33.5663404
10,Приваблива вулиця,50079,48.1426436,33.5558139
126,вулиця Ольги Басараб,50079,48.1410051,33.5644207
5,вулиця Ганни Максимець,50079,48.1373516,33.5661007
12,вулиця Бірюзова,50079,48.1477713,33.5478111
13,вулиця Вільного Козацтва,50079,48.1416316,33.5617060
12,вулиця Винахідниці Ющенко,50079,48.1424375,33.5371975
59,вулиця Ольги Басараб,50079,48.1437893,33.5470502
14,вулиця Віри Білай,50079,48.1438349,33.5380025
5,вулиця Богдана Хмельницького,50079,48.1391538,33.5641543
15,Луцька вулиця,50079,48.1373931,33.5678124
17,вулиця Ольги Кобилянської,50079,48.1450385,33.5394200
14,Гірничорудний провулок,50079,48.1426569,33.5636054
8,вулиця Бірюзова,50079,48.1466178,33.5453065
10,Паланкова вулиця,50079,48.1384289,33.5663691
61,вулиця Івана Сірка,50079,48.1388515,33.5630301
3,Гірничорудний провулок,50079,48.1431578,33.5628931
43,Грядкувата вулиця,50079,48.1427477,33.5485065
21,вулиця Винахідниці Ющенко,50079,48.1430182,33.5390886
33,Паланкова вулиця,50079,48.1379870,33.5663560
2,Факельний провулок,50079,48.1426490,33.5438408
7,Луцька вулиця,50079,48.1369718,33.5669744
46,вулиця Віри Білай,50079,48.1445522,33.5427287
18,вулиця Василя Гнатюка,50079,48.1457784,33.5418471
18,вулиця Антона Ігнатченка,50079,48.1431673,33.5647738
64,вулиця Івана Сірка,50079,48.1388221,33.5613616
85,вулиця Ольги Басараб,50079,48.1426180,33.5620282
19,вулиця Доватора,50079,48.1512767,33.5907447
24,Луцька вулиця,50079,48.1366059,33.5680828
54,вулиця Івана Сірка,50079,48.1403786,33.5587487
11,вулиця Василя Гнатюка,50079,48.1454821,33.5398290
1б,Байрачна вулиця,50079,48.1354471,33.5692405
2,вулиця Володимира Черкасова,50079,48.1488588,33.5538096
150,вулиця Ольги Басараб,50079,48.1389635,33.5668596
35,вулиця Ольги Кобилянської,50079,48.1454136,33.5419944
21,вулиця Богдана Хмельницького,50079,48.1404549,33.5664532
103,вулиця Ольги Басараб,50079,48.1413539,33.5644758
85,вулиця Івана Сірка,50079,48.1365166,33.5661889
2,вулиця Доватора,50079,48.1470535,33.5892687
24,вулиця Івана Сірка,50079,48.1410129,33.5476542
6,вулиця Богдана Хмельницького,50079,48.1388818,33.5643646
6,вулиця Ольги Кобилянської,50079,48.1444647,33.5376833
30,вулиця Винахідниці Ющенко,50079,48.1428971,33.5402939
17,Байрачна вулиця,50079,48.1363852,33.5694828
76,вулиця Антона Ігнатченка,50079,48.1386088,33.5704560
23,вулиця Віри Білай,50079,48.1445248,33.5406356
16,Луцька вулиця,50079,48.1371186,33.5678869
35,вулиця Антона Ігнатченка,50079,48.1408654,33.5682534
19,вулиця Ольги Басараб,50079,48.1422654,33.5387164
48,Грядкувата вулиця,50079,48.1424371,33.5492144
136,вулиця Ольги Басараб,50079,48.1402249,33.5653402
20,вулиця Ольги Басараб,50079,48.1418652,33.5381318
38,вулиця Ольги Кобилянської,50079,48.1451834,33.5423763
5,вулиця Покришева,50079,48.1436275,33.5625382
30,вулиця Ганни Максимець,50079,48.1388082,33.5694361
17,вулиця Ганни Максимець,50079,48.1380466,33.5673630
14,Вогнева вулиця,50079,48.1410228,33.5423528
3,вулиця Вільного Козацтва,50079,48.1408018,33.5612660
43,вулиця Віри Білай,50079,48.1450687,33.5442208
63,вулиця Ольги Басараб,50079,48.1439094,33.5478467
9,Гірничорудний провулок,50079,48.1429625,33.5642904
88,вулиця Ольги Басараб,50079,48.1440080,33.5545476
7,Веселотернівська вулиця,50079,48.1408954,33.5382781
57,вулиця Віри Білай,50079,48.1453699,33.5464573
174,вулиця Ольги Басараб,50079,48.1369565,33.5693804
99,вулиця Ольги Басараб,50079,48.1418899,33.5638494
4,вулиця Бірюзова,50079,48.1458939,33.5460857
55,вулиця Антона Ігнатченка,50079,48.1392950,33.5702153
37,вулиця Віри Білай,50079,48.1448524,33.5427592
29,вулиця Володимира Черкасова,50079,48.1500586,33.5563080
12,вулиця Ольги Басараб,50079,48.1416706,33.5368574
41,вулиця Ольги Басараб,50079,48.1428844,33.5428135
28,Луцька вулиця,50079,48.1363608,33.5678915
42,вулиця Ольги Басараб,50079,48.1426144,33.5428653
53,вулиця Антона Ігнатченка,50079,48.1395735,33.5699024
9,вулиця Василя Гнатюка,50079,48.1454108,33.5393514
86,вулиця Антона Ігнатченка,50079,48.1378407,33.5714067
52,вулиця Ольги Басараб,50079,48.1432721,33.5455338
18,вулиця Віри Білай,50079,48.1439473,33.5389267
22,вулиця Василя Гнатюка,50079,48.1459492,33.5428366
61,вулиця Антона Ігнатченка,50079,48.1388436,33.5707854
55,вулиця Івана Сірка,50079,48.1398613,33.5617833
16,Вогнева вулиця,50079,48.1414962,33.5421850
41,Паланкова вулиця,50079,48.1375325,33.5655524
4,вулиця Василя Сліпака,50079,48.1429093,33.5538314
15,Гірничорудний провулок,50079,48.1427430,33.5633844
13,вулиця Богдана Хмельницького,50079,48.1396371,33.5650124
1,Приваблива вулиця,50079,48.1421216,33.5546696
7,вулиця Володимира Черкасова,50079,48.1483629,33.5558329
19,вулиця Віри Білай,50079,48.1444738,33.5401198
6,Гірничорудний провулок,50079,48.1432332,33.5636025
45,вулиця Волі,50079,48.1417368,33.5464865
6,вулиця Бірюзова,50079,48.1467681,33.5462775
23,вулиця Ганни Максимець,50079,48.1387050,33.5685313
26,вулиця Вільного Козацтва,50079,48.1420533,33.5648284
22,вулиця Винахідниці Ющенко,50079,48.1426776,33.5388138
14,вулиця Ольги Кобилянської,50079,48.1446574,33.5390424
31,вулиця Ганни Максимець,50079,48.1391724,33.5694102
14,Паланкова вулиця,50079,48.1383774,33.5657700
19,вулиця Ганни Максимець,50079,48.1381615,33.5675429
1,Гірничорудний провулок,50079,48.1427847,33.5627203
82,вулиця Ольги Басараб,50079,48.1441959,33.5522209
35,вулиця Ольги Басараб,50079,48.1427441,33.5417199
42,вулиця Волі,50079,48.1428645,33.5465917
36,вулиця Віри Білай,50079,48.1443559,33.5415024
10,Луцька вулиця,50079,48.1367743,33.5673382
49,вулиця Ольги Кобилянської,50079,48.1457647,33.5442297
51,вулиця Антона Ігнатченка,50079,48.1397762,33.5696556
23,вулиця Доватора,50079,48.1500335,33.5921340
117,вулиця Ольги Басараб,50079,48.1399887,33.5662882
20,Веселотернівська вулиця,50079,48.1414909,33.5392942
34,вулиця Волі,50079,48.1418534,33.5470021
3,Веселотернівська вулиця,50079,48.1409481,33.5376549
25,вулиця Богдана Хмельницького,50079,48.1406815,33.5668733
22,вулиця Ганни Максимець,50079,48.1383843,33.5686479
9,Приваблива вулиця,50079,48.1430509,33.5561706
72,вулиця Антона Ігнатченка,50079,48.1388516,33.5701554
1,вулиця Малиновського,50079,48.1425698,33.5520893
29,вулиця Ольги Басараб,50079,48.1425318,33.5404168
64,вулиця Ольги Басараб,50079,48.1436396,33.5478679
21,вулиця Вільного Козацтва,50079,48.1418369,33.5624369
13,Байрачна вулиця,50079,48.1361617,33.5690847
10,вулиця Віри Білай,50079,48.1436836,33.5370298
21,вулиця Ольги Кобилянської,50079,48.1451073,33.5399014
52,Грядкувата вулиця,50079,48.1427061,33.5491669
25,вулиця Винахідниці Ющенко,50079,48.1431330,33.5398622
8,Факельний провулок,50079,48.1420748,33.5440381
28,вулиця Ольги Кобилянської,50079,48.1449637,33.5410380
6,вулиця Вільного Козацтва,50079,48.1404673,33.5619968
13,вулиця Василя Гнатюка,50079,48.1455863,33.5403165
62,вулиця Віри Білай,50079,48.1450243,33.5458977
5,вулиця Бірюзова,50079,48.1458214,33.5455882
7,вулиця Вільного Козацтва,50079,48.1411491,33.5614611
39,вулиця Ольги Кобилянської,50079,48.1455015,33.5425035
60,вулиця Ольги Басараб,50079,48.1435199,33.5471575
21,Луцька вулиця,50079,48.1372209,33.5683662
2,вулиця Володимира Терещенка,50079,48.1444980,33.5647844
1,Паланкова вулиця,50079,48.1384763,33.5645083
3,вулиця Віри Білай,50079,48.1440848,33.5376690
53,вулиця Віри Білай,50079,48.1452654,33.5456614
8,вулиця Антона Ігнатченка,50079,48.1436887,33.5634152
56,вулиця Антона Ігнатченка,50079,48.1401149,33.5686185
26,вулиця Винахідниці Ющенко,50079,48.1427848,33.5395459
27,вулиця Віри Білай,50079,48.1446514,33.5414244
23,вулиця Ольги Басараб,50079,48.1423437,33.5393033
25,вулиця Антона Ігнатченка,50079,48.1416910,33.5672783
12,Веселотернівська вулиця,50079,48.1413155,33.5380309
16,Астрономічна вулиця,50079,48.1406382,33.5399062
28,вулиця Віри Білай,50079,48.1441360,33.5402218
10,вулиця Малиновського,50079,48.1434256,33.5533320
4,вулиця Василя Гнатюка,50079,48.1452182,33.5380664
82,вулиця Антона Ігнатченка,50079,48.1381147,33.5710647
45а,вулиця Віри Білай,50079,48.1451321,33.5447235
54,вулиця Антона Ігнатченка,50079,48.1402183,33.5684454
95,вулиця Івана Сірка,50079,48.1356231,33.5672409
18,вулиця Богдана Хмельницького,50079,48.1395898,33.5656342
6,Паланкова вулиця,50079,48.1387225,33.5660096
30,вулиця Ольги Басараб,50079,48.1421160,33.5397652
27,вулиця Володимира Черкасова,50079,48.1499070,33.5555631
41,вулиця Антона Ігнатченка,50079,48.1404697,33.5687699
9,Веселотернівська вулиця,50079,48.1411227,33.5387670
17,вулиця Богдана Хмельницького,50079,48.1398715,33.5654240
48,вулиця Антона Ігнатченка,50079,48.1405602,33.5680383
17,вулиця Доватора,50079,48.1507919,33.5889705
122,вулиця Ольги Басараб,50079,48.1412531,33.5640335
29,вулиця Доватора,50079,48.1500085,33.5875820
146,вулиця Ольги Басараб,50079,48.1392699,33.5665344
9,вулиця Віри Білай,50079,48.1442546,33.5388514
115,вулиця Ольги Басараб,50079,48.1401826,33.5660333
23,вулиця Вільного Козацтва,50079,48.1417172,33.5626750
51,вулиця Волі,50079,48.1422511,33.5463053
27,вулиця Ганни Максимець,50079,48.1389348,33.5689473
12,вулиця Богдана Хмельницького,50079,48.1392426,33.5650067
35,вулиця Винахідниці Ющенко,50079,48.1434357,33.5418679
11,Паланкова вулиця,50079,48.1390099,33.5654993
22,вулиця Богдана Хмельницького,50079,48.1402345,33.5667521
36,вулиця Винахідниці Ющенко,50079,48.1431075,33.5416005
97,вулиця Івана Сірка,50079,48.1353184,33.5675547
38,вулиця Волі,50079,48.1423410,33.5467699
20,вулиця Володимира Черкасова,50079,48.1495621,33.5523496
22,вулиця Віри Білай,50079,48.1440213,33.5394462
1,вулиця Василя Гнатюка,50079,48.1450561,33.5369301
31,вулиця Вільного Козацтва,50079,48.1422982,33.5645160
1,вулиця Покришева,50079,48.1429232,33.5621807
38,вулиця Ольги Басараб,50079,48.1424517,33.5420128
43,вулиця Волі,50079,48.1414719,33.5465566
66,вулиця Ольги Басараб,50079,48.1437243,33.5482547
7,вулиця Богдана Хмельницького,50079,48.1392751,33.5643623
60,вулиця Віри Білай,50079,48.1449350,33.5453384
14,вулиця Антона Ігнатченка,50079,48.1434866,33.5642989
26,вулиця Ганни Максимець,50079,48.1385988,33.5690802
2а,вулиця Володимира Терещенка,50079,48.1450211,33.5650431
1,вулиця Антона Ігнатченка,50079,48.1434414,33.5651832
3,Приваблива вулиця,50079,48.1426118,33.5545041
5,вулиця Малиновського,50079,48.1434140,33.5518172
1а,вулиця Маршака,50089,48.1434181,33.5832856
28,Паланкова вулиця,50079,48.1378300,33.5648920
162,вулиця Ольги Басараб,50079,48.1378573,33.5682660
18,вулиця Винахідниці Ющенко,50079,48.1425986,33.5383952
31,вулиця Володимира Терещенка,50079,48.1453333,33.5689730
7,вулиця Антона Ігнатченка,50079,48.1431000,33.5655179
10,вулиця Ольги Кобилянської,50079,48.1445911,33.5385496
91,вулиця Івана Сірка,50079,48.1360044,33.5667338
22,Паланкова вулиця,50079,48.1381874,33.5654511
15,вулиця Винахідниці Ющенко,50079,48.1428358,33.5379112
10,вулиця Ганни Максимець,50079,48.1373566,33.5668003
40,вулиця Віри Білай,50079,48.1444324,33.5420410
34,вулиця Антона Ігнатченка,50079,48.1419243,33.5663649
15,вулиця Василя Гнатюка,50079,48.1456663,33.5411250
24,Веселотернівська вулиця,50079,48.1415989,33.5399522
75,вулиця Івана Сірка,50079,48.1376309,33.5645553
11,вулиця Бірюзова,50079,48.1476719,33.5472692
18,вулиця Ганни Максимець,50079,48.1378292,33.5676921
67,вулиця Ольги Басараб,50079,48.1441751,33.5493478
32,вулиця Вільного Козацтва,50079,48.1423947,33.5654358
29,вулиця Ольги Кобилянської,50079,48.1453054,33.5412038
68,вулиця Героїв Маріуполя,50089,48.1373562,33.5925611
2,вулиця Покришева,50079,48.1431065,33.5622712
74,вулиця Івана Сірка,50079,48.1376784,33.5635718
33,Луцька вулиця,50079,48.1364369,33.5686983
15,вулиця Доватора,50079,48.1504178,33.5892146
9,вулиця Доватора,50079,48.1470362,33.5927745
31,Байрачна вулиця,50079,48.1375170,33.5715159
71,вулиця Івана Сірка,50079,48.1379246,33.5641536
4,Гірничорудний провулок,50079,48.1433278,33.5629891
17,вулиця Антона Ігнатченка,50079,48.1422508,33.5666312
4,Луцька вулиця,50079,48.1365162,33.5668590
33,вулиця Ольги Басараб,50079,48.1426428,33.5411332
42,вулиця Івана Сірка,50079,48.1413411,33.5546916
25,вулиця Ольги Кобилянської,50079,48.1451761,33.5403790
11,Гірничорудний провулок,50079,48.1427097,33.5646922
141,вулиця Ольги Басараб,50079,48.1370077,33.5699043
13,вулиця Ольги Басараб,50079,48.1421203,33.5378094
64,вулиця Віри Білай,50079,48.1451179,33.5465981
21,вулиця Антона Ігнатченка,50079,48.1419643,33.5669560
61,вулиця Волі,50079,48.1446313,33.5454784
29,вулиця Винахідниці Ющенко,50079,48.1432509,33.5405690
129,вулиця Ольги Басараб,50079,48.1379069,33.5688086
46,вулиця Ольги Басараб,50079,48.1427802,33.5440947
32,вулиця Ольги Кобилянської,50079,48.1450466,33.5415524
39,Луцька вулиця,50079,48.1361075,33.5680861
25,Байрачна вулиця,50079,48.1371709,33.5708779
9,вулиця Ольги Кобилянської,50079,48.1448855,33.5384267
5,вулиця Володимира Терещенка,50079,48.1431260,33.5669375
42,вулиця Ольги Кобилянської,50079,48.1452548,33.5429112
24,вулиця Доватора,50079,48.1495304,33.5915516
43,Луцька вулиця,50079,48.1358580,33.5677038
65,вулиця Антона Ігнатченка,50079,48.1383301,33.5713910
98,вулиця Ольги Басараб,50079,48.1429160,33.5593369
7,Приваблива вулиця,50079,48.1435321,33.5553556
37,вулиця Антона Ігнатченка,50079,48.1407531,33.5684179
128,вулиця Ольги Басараб,50079,48.1408339,33.5645581
9,вулиця Ганни Максимець,50079,48.1375896,33.5665061
1,вулиця Богдана Хмельницького,50079,48.1388822,33.5636528
31,вулиця Віри Білай,50079,48.1447308,33.5419411
12,вулиця Вільного Козацтва,50079,48.1408536,33.5626402
2,вулиця Бірюзова,50079,48.1458947,33.5473132
27,вулиця Ольги Басараб,50079,48.1424617,33.5400451
26,вулиця Доватора,50079,48.1488248,33.5919030
14,вулиця Ольги Басараб,50079,48.1417193,33.5371853
29,Паланкова вулиця,50079,48.1381989,33.5667423
18,Астрономічна вулиця,50079,48.1407146,33.5403343
22,вулиця Володимира Черкасова,50079,48.1485150,33.5512142
3,Луцька вулиця,50079,48.1367450,33.5665452
32,вулиця Віри Білай,50079,48.1442329,33.5407185
38,вулиця Антона Ігнатченка,50079,48.1415464,33.5668916
35,вулиця Вільного Козацтва,50079,48.1425827,33.5650301
7,Паланкова вулиця,50079,48.1387903,33.5651167
59,вулиця Віри Білай,50079,48.1454365,33.5468386
12,вулиця Антона Ігнатченка,50079,48.1435524,33.5640425
86,вулиця Ольги Басараб,50079,48.1441485,33.5536699
6,вулиця Василя Гнатюка,50079,48.1452883,33.5385693
3,вулиця Ганни Максимець,50079,48.1372496,33.5658995
47,вулиця Ольги Басараб,50079,48.1433912,33.5446431
62,вулиця Антона Ігнатченка,50079,48.1397671,33.5690394
48,вулиця Віри Білай,50079,48.1445758,33.5429946
46,вулиця Ольги Кобилянської,50079,48.1454202,33.5437860
27,вулиця Вільного Козацтва,50079,48.1414156,33.5630146
36,Луцька вулиця,50079,48.1360161,33.5672563
34,вулиця Ольги Басараб,50079,48.1422168,33.5403843
13,Гірничорудний провулок,50079,48.1424590,33.5638780
63,вулиця Івана Сірка,50079,48.1386714,33.5632802
4,Астрономічна вулиця,50079,48.1402334,33.5373773
31,вулиця Антона Ігнатченка,50079,48.1412368,33.5678459
20,вулиця Антона Ігнатченка,50079,48.1430320,33.5649459
13,вулиця Віри Білай,50079,48.1443336,33.5393634
22,Луцька вулиця,50079,48.1366949,33.5683817
32,Паланкова вулиця,50079,48.1381262,33.5645055
166,вулиця Ольги Басараб,50079,48.1375673,33.5686252
5,Байрачна вулиця,50079,48.1357066,33.5682162
39,вулиця Винахідниці Ющенко,50079,48.1435312,33.5425986
47,вулиця Антона Ігнатченка,50079,48.1400794,33.5692921
20,вулиця Ольги Кобилянської,50079,48.1447849,33.5397760
4,вулиця Антона Ігнатченка,50079,48.1438113,33.5628854
87,вулиця Івана Сірка,50079,48.1362496,33.5664430
156,вулиця Ольги Басараб,50079,48.1385371,33.5674566
30,вулиця Івана Сірка,50079,48.1416260,33.5516267
40,вулиця Винахідниці Ющенко,50079,48.1432221,33.5423359
14,вулиця Ганни Максимець,50079,48.1376147,33.5672482
26,вулиця Віри Білай,50079,48.1441003,33.5399429
15,вулиця Володимира Черкасова,50079,48.1510003,33.5569998
30,вулиця Антона Ігнатченка,50079,48.1421859,33.5660444
3,вулиця Ольги Кобилянської,50079,48.1447043,33.5373012
19,Байрачна вулиця,50079,48.1364849,33.5696665
74,вулиця Антона Ігнатченка,50079,48.1387189,33.5703275
53,вулиця Івана Сірка,50079,48.1401256,33.5614024
19,Паланкова вулиця,50079,48.1390407,33.5661179
70,вулиця Івана Сірка,50079,48.1384412,33.5626297
81,вулиця Ольги Басараб,50079,48.1431365,33.5600707
14,Веселотернівська вулиця,50079,48.1413517,33.5383107
26,Паланкова вулиця,50079,48.1376768,33.5650719
94,вулиця Ольги Басараб,50079,48.1435649,33.5563906
21,вулиця Ганни Максимець,50079,48.1386189,33.5683208
47,Грядкувата вулиця,50079,48.1431601,33.5484460
4,вулиця Покришева,50079,48.1434539,33.5624531
25,Луцька вулиця,50079,48.1368633,33.5687965
12,вулиця Доватора,50079,48.1481470,33.5928914
5,Приваблива вулиця,50079,48.1428353,33.5549410
15,вулиця Ганни Максимець,50079,48.1379394,33.5671489
28,вулиця Богдана Хмельницького,50079,48.1405599,33.5673404
53,вулиця Волі,50079,48.1425670,33.5462301
113,вулиця Ольги Басараб,50079,48.1404725,33.5656192
32,вулиця Антона Ігнатченка,50079,48.1420711,33.5662166
14,вулиця Винахідниці Ющенко,50079,48.1424957,33.5376433
133,вулиця Ольги Басараб,50079,48.1376395,33.5691315
45,вулиця Антона Ігнатченка,50079,48.1401991,33.5691143
15,вулиця Ольги Кобилянської,50079,48.1449875,33.5391793
23,вулиця Василя Гнатюка,50079,48.1461026,33.5438288
21,Байрачна вулиця,50079,48.1369275,33.5704474
19,вулиця Винахідниці Ющенко,50079,48.1429672,33.5387686
125,вулиця Ольги Басараб,50079,48.1382436,33.5683883
53,вулиця Ольги Басараб,50079,48.1436037,33.5458729
44,вулиця Віри Білай,50079,48.1445165,33.5425491
17,вулиця Василя Гнатюка,50079,48.1457377,33.5415987
7,вулиця Доватора,50079,48.1476140,33.5922127
57,вулиця Антона Ігнатченка,50079,48.1391341,33.5704143
50,вулиця Івана Сірка,50079,48.1405469,33.5580149
10,вулиця Василя Гнатюка,50079,48.1454439,33.5395883
70,вулиця Віри Білай,50079,48.1452524,33.5486144
106,вулиця Ольги Басараб,50079,48.1423581,33.5618977
8,вулиця Володимира Терещенка,50079,48.1422573,33.5680242
33,вулиця Ольги Кобилянської,50079,48.1454236,33.5417346
13,вулиця Антона Ігнатченка,50079,48.1426819,33.5660105
30,Луцька вулиця,50079,48.1362791,33.5677116
44,Грядкувата вулиця,50079,48.1421932,33.5494191
69,вулиця Антона Ігнатченка,50079,48.1378131,33.5720276
29,вулиця Вільного Козацтва,50079,48.1421404,33.5643019
41,вулиця Івана Сірка,50079,48.1418152,33.5549520
31,вулиця Івана Сірка,50079,48.1418051,33.5498458
4,вулиця Ольги Кобилянської,50079,48.1444188,33.5373815
63,вулиця Віри Білай,50079,48.1455486,33.5476346
16,вулиця Вільного Козацтва,50079,48.1410638,33.5631026
4,вулиця Ганни Максимець,50079,48.1370448,33.5662198
32,вулиця Винахідниці Ющенко,50079,48.1429409,33.5406312
24,вулиця Ольги Кобилянської,50079,48.1448639,33.5402765
1б,вулиця Доватора,50079,48.1514253,33.5901054
8,Гірничорудний провулок,50079,48.1431069,33.5640836
2,Паланкова вулиця,50079,48.1386481,33.5654333
83,вулиця Івана Сірка,50079,48.1367463,33.5656580
17,вулиця Ольги Басараб,50079,48.1422263,33.5385013
28,вулиця Ольги Басараб,50079,48.1420500,33.5394677
18,вулиця Володимира Черкасова,50079,48.1507106,33.5532665
81,вулиця Івана Сірка,50079,48.1370202,33.5655342
10,Факельний провулок,50079,48.1418939,33.5441288
66,вулиця Антона Ігнатченка,50079,48.1395309,33.5693646
36,вулиця Ольги Кобилянської,50079,48.1451248,33.5421013
14,вулиця Доватора,50079,48.1508721,33.5899784
3,Паланкова вулиця,50079,48.1385835,33.5646997
13,вулиця Ольги Кобилянської,50079,48.1449569,33.5389272
41,вулиця Віри Білай,50079,48.1450370,33.5439296
13,вулиця Володимира Терещенка,50079,48.1459684,33.5648147
29,вулиця Богдана Хмельницького,50079,48.1409005,33.5672704
100,вулиця Ольги Басараб,50079,48.1427739,33.5599683
135,вулиця Ольги Басараб,50079,48.1374090,33.5694131
12,вулиця Василя Сліпака,50079,48.1436784,33.5542264
12,Паланкова вулиця,50079,48.1382268,33.5659729
56,Грядкувата вулиця,50079,48.1429738,33.5490522
121,вулиця Ольги Басараб,50079,48.1387993,33.5677502
5,Веселотернівська вулиця,50079,48.1406667,33.5377544
27,вулиця Антона Ігнатченка,50079,48.1415659,33.5674478
9,Байрачна вулиця,50079,48.1359415,33.5686638
35,вулиця Віри Білай,50079,48.1448092,33.5424701
1а,Байрачна вулиця,50079,48.1356799,33.5695149
23,вулиця Богдана Хмельницького,50079,48.1405602,33.5666637
1,Байрачна вулиця,50079,48.1354845,33.5678221
39,вулиця Ольги Басараб,50079,48.1428430,33.5424410
40,вулиця Ольги Басараб,50079,48.1425584,33.5425081
23,Паланкова вулиця,50079,48.1387599,33.5665121
22,вулиця Володимира Терещенка,50079,48.1447649,33.5676244
8,вулиця Василя Гнатюка,50079,48.1453598,33.5390799
59,вулиця Волі,50079,48.1430584,33.5460072
50,вулиця Ольги Басараб,50079,48.1431871,33.5452009
16,вулиця Віри Білай,50079,48.1438938,33.5385714
11,вулиця Вільного Козацтва,50079,48.1414886,33.5616180
21,вулиця Василя Гнатюка,50079,48.1459212,33.5426608
62,вулиця Ольги Басараб,50079,48.1435816,33.5475148
15,Байрачна вулиця,50079,48.1362639,33.5692856
78,вулиця Антона Ігнатченка,50079,48.1384852,33.5706402
17,Луцька вулиця,50079,48.1374727,33.5680354
13,Вогнева вулиця,50079,48.1423003,33.5414064
8,вулиця Василя Сліпака,50079,48.1432877,33.5540412
7,вулиця Бірюзова,50079,48.1466930,33.5457960
57,вулиця Ольги Басараб,50079,48.1437197,33.5468184
10,Астрономічна вулиця,50079,48.1404731,33.5388364
35,Паланкова вулиця,50079,48.1378849,33.5661762
9,Луцька вулиця,50079,48.1370823,33.5671779
17,вулиця Віри Білай,50079,48.1444152,33.5398448
89,вулиця Ольги Басараб,50079,48.1425745,33.5625748
9,вулиця Бірюзова,50079,48.1474643,33.5462259
3,вулиця Володимира Черкасова,50079,48.1490186,33.5545320
5,вулиця Вільного Козацтва,50079,48.1409959,33.5613578
24,вулиця Винахідниці Ющенко,50079,48.1427314,33.5391744
24,вулиця Ольги Басараб,50079,48.1419437,33.5388103
168,вулиця Ольги Басараб,50079,48.1374395,33.5687871
16,вулиця Ольги Кобилянської,50079,48.1447160,33.5392793
101,вулиця Ольги Басараб,50079,48.1416913,33.5641027
3,вулиця Володимира Терещенка,50079,48.1443278,33.5653516
4,вулиця Богдана Хмельницького,50079,48.1387528,33.5641441
42а,вулиця Винахідниці Ющенко,50079,48.1433114,33.5430140
34,вулиця Віри Білай,50079,48.1443202,33.5412654
47,вулиця Ольги Кобилянської,50079,48.1457082,33.5439541
18,Луцька вулиця,50079,48.1369684,33.5680485
18,Веселотернівська вулиця,50079,48.1414419,33.5389653
60,Грядкувата вулиця,50079,48.1435039,33.5488517
110,вулиця Ольги Басараб,50079,48.1422015,33.5626048
1,Веселотернівська вулиця,50079,48.1407167,33.5371534
39,Грядкувата вулиця,50079,48.1424828,33.5487602
138,вулиця Ольги Басараб,50079,48.1399864,33.5656190
8,Приваблива вулиця,50079,48.1431938,33.5555409
114,вулиця Ольги Басараб,50079,48.1420665,33.5631058
84,вулиця Антона Ігнатченка,50079,48.1379799,33.5712336
8,вулиця Ганни Максимець,50079,48.1372558,33.5666231
13,вулиця Винахідниці Ющенко,50079,48.1427797,33.5375670
16,вулиця Богдана Хмельницького,50079,48.1394775,33.5654229
4,Паланкова вулиця,50079,48.1388655,33.5658296
12,вулиця Віри Білай,50079,48.1437480,33.5375191
19,вулиця Ольги Кобилянської,50079,48.1450640,33.5396492
4,вулиця Доватора,50079,48.1472001,33.5899988
93,вулиця Ольги Басараб,50079,48.1424428,33.5632798
44,вулиця Волі,50079,48.1431299,33.5464987
172,вулиця Ольги Басараб,50079,48.1370994,33.5692052
15,вулиця Богдана Хмельницького,50079,48.1397406,33.5652148
45,Грядкувата вулиця,50079,48.1429010,33.5485604
23,вулиця Винахідниці Ющенко,50079,48.1430819,33.5394658
27,Луцька вулиця,50079,48.1367330,33.5689450
6,Факельний провулок,50079,48.1422932,33.5439394
19,вулиця Василя Гнатюка,50079,48.1458294,33.5421413
62,вулиця Івана Сірка,50079,48.1391244,33.5602301
12,вулиця Василя Гнатюка,50079,48.1455076,33.5400696
25,вулиця Вільного Козацтва,50079,48.1415698,33.5628580
49,вулиця Волі,50079,48.1419772,33.5463078
65,вулиця Віри Білай,50079,48.1458013,33.5488439
11,вулиця Богдана Хмельницького,50079,48.1395238,33.5648159
37,вулиця Ольги Кобилянської,50079,48.1454542,33.5422523
16,вулиця Антона Ігнатченка,50079,48.1433367,33.5645906
139,вулиця Ольги Басараб,50079,48.1371489,33.5697311
39,вулиця Івана Сірка,50079,48.1419872,33.5541613
26,вулиця Івана Сірка,50079,48.1411894,33.5487196
1,вулиця Віри Білай,50079,48.1440287,33.5373138
21,вулиця Володимира Черкасова,50079,48.1490448,33.5519131
28,вулиця Винахідниці Ющенко,50079,48.1428466,33.5399180
63,вулиця Антона Ігнатченка,50079,48.1386521,33.5709617
25,вулиця Віри Білай,50079,48.1446095,33.5411657
43,Паланкова вулиця,50079,48.1374201,33.5653497
6,вулиця Володимира Терещенка,50079,48.1428384,33.5672898
21,вулиця Ольги Басараб,50079,48.1423030,33.5389390
18,вулиця Ольги Басараб,50079,48.1418192,33.5378521
12,Астрономічна вулиця,50079,48.1405210,33.5391558
40,вулиця Ольги Кобилянської,50079,48.1452013,33.5426285
13,вулиця Доватора,50079,48.1511608,33.5895357
47,вулиця Івана Сірка,50079,48.1410372,33.5582550
3,вулиця Василя Гнатюка,50079,48.1451268,33.5374980
160,вулиця Ольги Басараб,50079,48.1380386,33.5680518
28,вулиця Вільного Козацтва,50079,48.1421745,33.5650532
45,вулиця Віри Білай,50079,48.1451095,33.5444882
61,вулиця Ольги Басараб,50079,48.1438383,33.5474021
13,Луцька вулиця,50079,48.1372935,33.5675944
18,Паланкова вулиця,50079,48.1384733,33.5651105
3,вулиця Бірюзова,50079,48.1459706,33.5465660
29,вулиця Ганни Максимець,50079,48.1390703,33.5691949
11,Веселотернівська вулиця,50079,48.1408280,33.5388770
2,Гірничорудний провулок,50079,48.1429598,33.5627849
31,Паланкова вулиця,50079,48.1380891,33.5665817
1,вулиця Вільного Козацтва,50079,48.1405572,33.5611575
8,Луцька вулиця,50079,48.1367028,33.5671759
7,вулиця Віри Білай,50079,48.1442050,33.5385034
10,вулиця Антона Ігнатченка,50079,48.1436060,33.5637861
10,вулиця Бірюзова,50079,48.1475807,33.5467221
65,вулиця Івана Сірка,50079,48.1384226,33.5635801
26,вулиця Антона Ігнатченка,50079,48.1425115,33.5656379
142,вулиця Ольги Басараб,50079,48.1395573,33.5661595
68,вулиця Віри Білай,50079,48.1452830,33.5476854
33,вулиця Винахідниці Ющенко,50079,48.1433878,33.5415098
44,вулиця Ольги Басараб,50079,48.1427011,33.5432840
19,Луцька вулиця,50079,48.1373559,33.5681743
72,вулиця Івана Сірка,50079,48.1380409,33.5630984
35,Луцька вулиця,50079,48.1363118,33.5684917
1,вулиця Володимира Терещенка,50079,48.1446316,33.5642454
29,Байрачна вулиця,50079,48.1374033,33.5712961
8,вулиця Богдана Хмельницького,50079,48.1390191,33.5645629
5,Гірничорудний провулок,50079,48.1435012,33.5630935
31,вулиця Винахідниці Ющенко,50079,48.1432954,33.5409463
54,вулиця Ольги Басараб,50079,48.1433112,33.5459819
20,вулиця Віри Білай,50079,48.1439907,33.5391750
23,Луцька вулиця,50079,48.1370345,33.5686462
2,вулиця Василя Гнатюка,50079,48.1450826,33.5372328
18,Вогнева вулиця,50079,48.1420146,33.5419916
33,вулиця Антона Ігнатченка,50079,48.1409982,33.5681195
134,вулиця Ольги Басараб,50079,48.1403589,33.5651748
2,Приваблива вулиця,50079,48.1423181,33.5551095
70,вулиця Антона Ігнатченка,50079,48.1390329,33.5697536
7,вулиця Малиновського,50079,48.1438410,33.5516768
21,вулиця Віри Білай,50079,48.1445044,33.5403758
8,вулиця Вільного Козацтва,50079,48.1405910,33.5622154
20,вулиця Винахідниці Ющенко,50079,48.1426233,33.5386038
58,вулиця Ольги Басараб,50079,48.1434657,33.5468449
25,вулиця Доватора,50079,48.1493349,33.5924883
140,вулиця Ольги Басараб,50079,48.1397368,33.5658820
8,Паланкова вулиця,50079,48.1385719,33.5661856
12,вулиця Ольги Кобилянської,50079,48.1446268,33.5387559
39,вулиця Антона Ігнатченка,50079,48.1405897,33.5686092
55,вулиця Віри Білай,50079,48.1453225,33.5461145
35,Грядкувата вулиця,50079,48.1420560,33.5488326
176,вулиця Ольги Басараб,50079,48.1368211,33.5695647
130,вулиця Ольги Басараб,50079,48.1406147,33.5647514
37,вулиця Ольги Басараб,50079,48.1428016,33.5420733
52,вулиця Антона Ігнатченка,50079,48.1403380,33.5683378
7,вулиця Ганни Максимець,50079,48.1374951,33.5663224
58,вулиця Антона Ігнатченка,50079,48.1399969,33.5687476
38,вулиця Віри Білай,50079,48.1443890,33.5417889
14,вулиця Василя Гнатюка,50079,48.1456204,33.5408308
97,вулиця Ольги Басараб,50079,48.1420788,33.5636142
5,вулиця Володимира Черкасова,50079,48.1506817,33.5575817
16а,вулиця Доватора,50079,48.1504352,33.5880067
21,вулиця Доватора,50079,48.1507385,33.5918083
19,вулиця Богдана Хмельницького,50079,48.1403400,33.5662524
22,Веселотернівська вулиця,50079,48.1415423,33.5396288
12,Гірничорудний провулок,50079,48.1423346,33.5640693
74,Грядкувата вулиця,50079,48.1444432,33.5484784
27,вулиця Ольги Кобилянської,50079,48.1452544,33.5409325
23,вулиця Володимира Черкасова,50079,48.1481573,33.5502968
36,вулиця Антона Ігнатченка,50079,48.1416704,33.5667095
24,вулиця Антона Ігнатченка,50079,48.1427562,33.5653209
46,вулиця Івана Сірка,50079,48.1406647,33.5562122
61,вулиця Віри Білай,50079,48.1454806,33.5471839
64,вулиця Антона Ігнатченка,50079,48.1396395,33.5691924
31,вулиця Ольги Басараб,50079,48.1425955,33.5407958
118,вулиця Ольги Басараб,50079,48.1416888,33.5635437
38,вулиця Івана Сірка,50079,48.1414973,33.5539627
23,вулиця Ольги Кобилянської,50079,48.1451302,33.5401497
93,вулиця Івана Сірка,50079,48.1358359,33.5669251
39,Паланкова вулиця,50079,48.1376576,33.5657590
3,вулиця Доватора,50079,48.1464926,33.5899840
27,вулиця Володимира Терещенка,50079,48.1434941,33.5660359
16,вулиця Доватора,50079,48.1503406,33.5886330
9,вулиця Володимира Терещенка,50079,48.1444709,33.5664799
10,вулиця Доватора,50079,48.1472802,33.5934697
11,вулиця Доватора,50079,48.1475667,33.5932643
4,вулиця Володимира Терещенка,50079,48.1440165,33.5658344
80,вулиця Ольги Басараб,50079,48.1441626,33.5514131
35,вулиця Івана Сірка,50079,48.1422280,33.5520664
48,вулиця Івана Сірка,50079,48.1406015,33.5572068
3,вулиця Малиновського,50079,48.1429914,33.5519366
45,вулиця Івана Сірка,50079,48.1412780,33.5575794
102,вулиця Ольги Басараб,50079,48.1425981,33.5605891
36,вулиця Івана Сірка,50079,48.1416335,33.5533536
37,вулиця Івана Сірка,50079,48.1421354,33.5535951
78,вулиця Ольги Басараб,50079,48.1440593,33.5508343
32,вулиця Івана Сірка,50079,48.1417152,33.5522485
71,вулиця Ольги Басараб,50079,48.1445264,33.5513160
19,вулиця Івана Сірка,50079,48.1404914,33.5413973
56,вулиця Івана Сірка,50079,48.1402176,33.5593658
51,вулиця Івана Сірка,50079,48.1407241,33.5596333
75,вулиця Ольги Басараб,50079,48.1442203,33.5562770
44,вулиця Івана Сірка,50079,48.1410148,33.5553818
33,вулиця Івана Сірка,50079,48.1421066,33.5514490
43,вулиця Івана Сірка,50079,48.1416722,33.5557167
27,вулиця Івана Сірка,50079,48.1409555,33.5446082
5а,вулиця Володимира Терещенка,50079,48.1454172,33.5633014
69,вулиця Ольги Басараб,50079,48.1444176,33.5507242
6,вулиця Малиновського,50079,48.1430719,33.5529069
28,вулиця Івана Сірка,50079,48.1413144,33.5508246
52,вулиця Івана Сірка,50079,48.1401797,33.5582409
57,вулиця Івана Сірка,50083,48.1394770,33.5624429
9,вулиця Євгена Коновальця,50079,48.1417006,33.5599313
1,вулиця Доватора,50079,48.1482680,33.5885294
10,вулиця Володимира Терещенка,50079,48.1460793,33.5633162
104,вулиця Ольги Басараб,50079,48.1424671,33.5612912
11,вулиця Володимира Терещенка,50079,48.1465722,33.5635982
12,вулиця Володимира Терещенка,50079,48.1470624,33.5638774
14,вулиця Володимира Терещенка,50079,48.1457017,33.5638927
144,вулиця Ольги Басараб,50079,48.1393973,33.5663669
15,вулиця Володимира Терещенка,50079,48.1455459,33.5646505
16,вулиця Володимира Терещенка,50079,48.1467806,33.5651378
17,вулиця Володимира Терещенка,50079,48.1463646,33.5657838
18,вулиця Вільного Козацтва,50079,48.1412290,33.5633793
20,Паланкова вулиця,50079,48.1383207,33.5652776
23,вулиця Володимира Терещенка,50079,48.1449369,33.5682796
24,вулиця Володимира Терещенка,50079,48.1445234,33.5691408
24,Паланкова вулиця,50079,48.1380284,33.5656680
25,вулиця Володимира Терещенка,50079,48.1437060,33.5677093
26,вулиця Володимира Терещенка,50079,48.1440412,33.5683174
28,вулиця Володимира Терещенка,50079,48.1435879,33.5687102
29,Луцька вулиця,50079,48.1366459,33.5693071
29,вулиця Володимира Терещенка,50079,48.1431959,33.5691958
5,вулиця Доватора,50079,48.1484994,33.5894691
8,вулиця Доватора,50079,48.1490332,33.5887463
19,вулиця Володимира Терещенка,50079,48.1455470,33.5654387
18,вулиця Володимира Терещенка,50079,48.1458588,33.5656779
13,вулиця Бірюзова,50079,48.1480023,33.5484220
169а,вулиця Вернадського,50023,47.9106271,33.4770520
121,Шепетівська вулиця,50023,47.9075028,33.4772805
116,Шепетівська вулиця,50023,47.9070262,33.4764097
177,вулиця Вернадського,50023,47.9103176,33.4790638
125,Шепетівська вулиця,50023,47.9076089,33.4779465
122,Шепетівська вулиця,50023,47.9071448,33.4772113
139,вулиця Ігоря Сікорського,50023,47.9095522,33.4796482
126,Шепетівська вулиця,50023,47.9071519,33.4780286
117,вулиця Ігоря Сікорського,50023,47.9091061,33.4761369
149,вулиця Вернадського,50023,47.9099401,33.4754790
226,вулиця Вернадського,50023,47.9096472,33.4764697
142,Шепетівська вулиця,50023,47.9075806,33.4805594
220,вулиця Вернадського,50023,47.9095766,33.4758621
123,вулиця Ігоря Сікорського,50023,47.9092162,33.4770798
161,вулиця Вернадського,50023,47.9101482,33.4773452
127,Шепетівська вулиця,50023,47.9076222,33.4780800
136,вулиця Заньковецької,50023,47.9083513,33.4800148
234,вулиця Вернадського,50023,47.9098537,33.4779123
124,вулиця Заньковецької,50023,47.9080934,33.4781160
144,вулиця Заньковецької,50023,47.9085167,33.4813228
150,Шепетівська вулиця,50023,47.9077530,33.4818624
165,вулиця Вернадського,50023,47.9105144,33.4779189
144,Шепетівська вулиця,50023,47.9076173,33.4808829
218,вулиця Вернадського,50023,47.9094748,33.4757000
252,вулиця Вернадського,50023,47.9101850,33.4804451
175,вулиця Вернадського,50023,47.9103987,33.4788611
132,вулиця Заньковецької,50023,47.9082621,33.4793838
116,вулиця Заньковецької,50023,47.9078799,33.4768030
147,вулиця Ігоря Сікорського,50023,47.9098043,33.4809547
143,Шепетівська вулиця,50023,47.9079948,33.4804281
187,вулиця Вернадського,50023,47.9105785,33.4806106
130,Шепетівська вулиця,50023,47.9072881,33.4784938
138,Шепетівська вулиця,50023,47.9074841,33.4799068
238,вулиця Вернадського,50023,47.9099365,33.4785616
153,Шепетівська вулиця,50023,47.9081340,33.4820692
222,вулиця Вернадського,50023,47.9095946,33.4760864
179,вулиця Вернадського,50023,47.9103836,33.4796056
133,Шепетівська вулиця,50023,47.9077378,33.4788766
148,Шепетівська вулиця,50023,47.9076851,33.4815648
147,Шепетівська вулиця,50023,47.9080031,33.4810649
240,вулиця Вернадського,50023,47.9099950,33.4788606
117,Шепетівська вулиця,50023,47.9074274,33.4766513
145,Шепетівська вулиця,50023,47.9079671,33.4807933
143,вулиця Ігоря Сікорського,50023,47.9096464,33.4802971
121,вулиця Ігоря Сікорського,50023,47.9091868,33.4767843
142,вулиця Заньковецької,50023,47.9084527,33.4808537
140,Шепетівська вулиця,50023,47.9075448,33.4802277
134,вулиця Заньковецької,50023,47.9083068,33.4797130
120,вулиця Заньковецької,50023,47.9080059,33.4774587
256,вулиця Вернадського,50023,47.9102436,33.4812983
181,вулиця Вернадського,50023,47.9104547,33.4799065
151,Шепетівська вулиця,50023,47.9080703,33.4817526
128,вулиця Заньковецької,50023,47.9081777,33.4787544
141,Шепетівська вулиця,50023,47.9078684,33.4800905
189,вулиця Вернадського,50023,47.9105611,33.4809375
169,вулиця Вернадського,50023,47.9109128,33.4778309
173,вулиця Вернадського,50023,47.9105929,33.4786337
115,вулиця Ігоря Сікорського,50023,47.9090852,33.4758025
254,вулиця Вернадського,50023,47.9102410,33.4808091
157,вулиця Вернадського,50023,47.9101086,33.4768854
163,вулиця Вернадського,50023,47.9101867,33.4777075
111,вулиця Щоголева,50055,47.9072776,33.4820141
244,вулиця Вернадського,50023,47.9100672,33.4794754
115,Шепетівська вулиця,50023,47.9074037,33.4762723
126,вулиця Заньковецької,50023,47.9081198,33.4784237
135,вулиця Ігоря Сікорського,50023,47.9094768,33.4790189
151,вулиця Вернадського,50023,47.9100089,33.4758522
138,вулиця Заньковецької,50023,47.9084170,33.4803765
122,вулиця Заньковецької,50023,47.9079519,33.4778029
151,вулиця Ігоря Сікорського,50023,47.9097975,33.4814531
129,Шепетівська вулиця,50023,47.9076514,33.4784135
123,Шепетівська вулиця,50023,47.9075404,33.4775931
130,вулиця Заньковецької,50023,47.9082077,33.4791856
133,вулиця Ігоря Сікорського,50023,47.9094293,33.4786845
129,вулиця Ігоря Сікорського,50023,47.9093513,33.4779941
152,Шепетівська вулиця,50023,47.9077605,33.4822003
120,Шепетівська вулиця,50023,47.9070991,33.4771004
148,вулиця Заньковецької,50023,47.9085937,33.4819413
146,Шепетівська вулиця,50023,47.9076445,33.4812178
118,Шепетівська вулиця,50023,47.9070800,33.4767231
246,вулиця Вернадського,50023,47.9100323,33.4798280
135,Шепетівська вулиця,50023,47.9078013,33.4790636
224,вулиця Вернадського,50023,47.9096210,33.4762687
131,Шепетівська вулиця,50023,47.9076814,33.4785880
230,вулиця Вернадського,50023,47.9097289,33.4771559
125,вулиця Ігоря Сікорського,50023,47.9092497,33.4774039
153,вулиця Вернадського,50023,47.9101388,33.4762155
171,вулиця Вернадського,50023,47.9108060,33.4785937
228,вулиця Вернадського,50023,47.9097118,33.4768550
236,вулиця Вернадського,50023,47.9098982,33.4782320
141,вулиця Ігоря Сікорського,50023,47.9096444,33.4799773
137,Шепетівська вулиця,50023,47.9077860,33.4795180
5,Сімферопольська вулиця,50007,47.9019976,33.3784724
3,Сімферопольська вулиця,50007,47.9022132,33.3785163
11,Сімферопольська вулиця,50007,47.9015550,33.3785386
1,Сімферопольська вулиця,50007,47.9023805,33.3784301
37-В,вулиця Гірничих Інженерів,50002,47.9088419,33.3552160
18/2,Гірничозаводська вулиця,50024,47.8913486,33.3383975
46,Гірничозаводська вулиця,50024,47.8888987,33.3365607
4,вулиця Чемпіонів,50024,47.9150911,33.3426275
14,вулиця Чемпіонів,50024,47.9169196,33.3448188
12,вулиця Чемпіонів,50024,47.9164506,33.3442453
10,вулиця Чемпіонів,50024,47.9155065,33.3431243
6,вулиця Чемпіонів,50024,47.9152255,33.3428045
8,вулиця Чемпіонів,50024,47.9153712,33.3429536
16,вулиця Чемпіонів,50024,47.9170643,33.3449579
2,вулиця Чемпіонів,50024,47.9149022,33.3424137
13,вулиця Чемпіонів,50024,47.9143196,33.3414827
7,вулиця Чемпіонів,50024,47.9139647,33.3409919
75,вулиця Чемпіонів,50024,47.9182264,33.3458801
71,вулиця Чемпіонів,50024,47.9179733,33.3456030
63,вулиця Чемпіонів,50024,47.9169815,33.3444163
33,вулиця Чемпіонів,50024,47.9153895,33.3425453
45,вулиця Чемпіонів,50024,47.9160774,33.3433906
59,вулиця Чемпіонів,50024,47.9166671,33.3440894
55,вулиця Чемпіонів,50024,47.9168754,33.3434970
31,вулиця Чемпіонів,50024,47.9153925,33.3422305
20,вулиця Чемпіонів,50024,47.9176959,33.3457358
19,вулиця Чемпіонів,50024,47.9146547,33.3417981
9,вулиця Чемпіонів,50024,47.9141264,33.3412960
18,вулиця Чемпіонів,50024,47.9173105,33.3453347
26,вулиця Чемпіонів,50024,47.9182980,33.3464374
57,вулиця Чемпіонів,50024,47.9168100,33.3437630
61,вулиця Чемпіонів,50024,47.9168969,33.3441958
51,вулиця Чемпіонів,50024,47.9164872,33.3438883
25,вулиця Чемпіонів,50024,47.9149362,33.3419975
39,вулиця Чемпіонів,50024,47.9157535,33.3429194
28,вулиця Чемпіонів,50024,47.9184612,33.3466803
23,вулиця Чемпіонів,50024,47.9148371,33.3419126
15,вулиця Чемпіонів,50024,47.9144888,33.3416229
41,вулиця Чемпіонів,50024,47.9159864,33.3429910
37,вулиця Чемпіонів,50024,47.9156138,33.3427833
67,вулиця Чемпіонів,50024,47.9172688,33.3446981
73,вулиця Чемпіонів,50024,47.9180789,33.3457357
83,вулиця Чемпіонів,50024,47.9189092,33.3466978
65,вулиця Чемпіонів,50024,47.9170946,33.3445461
3,вулиця Чемпіонів,50024,47.9135897,33.3408982
79,вулиця Чемпіонів,50024,47.9185162,33.3462397
43,вулиця Чемпіонів,50024,47.9159194,33.3431848
53,вулиця Чемпіонів,50024,47.9165877,33.3437344
27,вулиця Чемпіонів,50024,47.9150452,33.3421105
81,вулиця Чемпіонів,50024,47.9186961,33.3463517
22,вулиця Чемпіонів,50024,47.9179106,33.3459773
1,вулиця Чемпіонів,50024,47.9133748,33.3409788
5,вулиця Чемпіонів,50024,47.9138431,33.3408770
77,вулиця Чемпіонів,50024,47.9183513,33.3460237
49,вулиця Чемпіонів,50024,47.9163318,33.3436706
29,вулиця Чемпіонів,50024,47.9151577,33.3422142
17,вулиця Чемпіонів,50024,47.9146051,33.3415900
21,вулиця Чемпіонів,50024,47.9148312,33.3417008
30,вулиця Чемпіонів,50024,47.9187346,33.3469755
69,вулиця Чемпіонів,50024,47.9178761,33.3454543
47,вулиця Чемпіонів,50024,47.9161995,33.3435005
35,вулиця Чемпіонів,50024,47.9155207,33.3426455
24,вулиця Чемпіонів,50024,47.9180853,33.3461852
154,вулиця Володимира Винниченка,50024,47.9184754,33.3383668
29,вулиця Володимира Винниченка,50024,47.9169677,33.3361736
13,вулиця Володимира Винниченка,50024,47.9161068,33.3362492
126,вулиця Володимира Винниченка,50024,47.9174599,33.3385179
97,вулиця Володимира Винниченка,50024,47.9194311,33.3363902
38,вулиця Володимира Винниченка,50024,47.9153906,33.3377916
87,вулиця Володимира Винниченка,50024,47.9189681,33.3367428
122,вулиця Володимира Винниченка,50024,47.9172847,33.3387734
57,вулиця Володимира Винниченка,50024,47.9179896,33.3362738
74,вулиця Володимира Винниченка,50024,47.9154956,33.3384832
67,вулиця Володимира Винниченка,50024,47.9181716,33.3372733
36,вулиця Кравченка,50024,47.9201814,33.3397665
123,вулиця Володимира Винниченка,50024,47.9198447,33.3370758
112,Кривбасівська вулиця,50024,47.9179729,33.3357432
160,вулиця Володимира Винниченка,50024,47.9187870,33.3389824
95,вулиця Володимира Винниченка,50024,47.9190530,33.3362186
21,вулиця Володимира Винниченка,50024,47.9167109,33.3369005
82,вулиця Володимира Винниченка,50024,47.9159164,33.3385512
206,вулиця Володимира Винниченка,50024,47.9210316,33.3385719
153,вулиця Володимира Винниченка,50024,47.9208594,33.3372018
149,вулиця Володимира Винниченка,50024,47.9208188,33.3375983
104,вулиця Володимира Винниченка,50024,47.9162812,33.3389896
144,вулиця Володимира Винниченка,50024,47.9181458,33.3388484
10,вулиця Кравченка,50024,47.9176643,33.3394530
100,вулиця Володимира Винниченка,50024,47.9166647,33.3382972
3,вулиця Володимира Винниченка,50024,47.9158362,33.3359279
180,вулиця Володимира Винниченка,50024,47.9197876,33.3388791
84,вулиця Володимира Винниченка,50024,47.9160949,33.3384358
24,вулиця Кравченка,50024,47.9189334,33.3395608
196,вулиця Володимира Винниченка,50024,47.9200504,33.3384491
128,вулиця Володимира Винниченка,50024,47.9175753,33.3382254
124,вулиця Володимира Винниченка,50024,47.9174720,33.3387402
15,вулиця Кравченка,50024,47.9204239,33.3391577
78,вулиця Володимира Винниченка,50024,47.9155793,33.3390295
33,вулиця Володимира Винниченка,50024,47.9172616,33.3367100
192,вулиця Володимира Винниченка,50024,47.9201117,33.3390589
125,вулиця Володимира Винниченка,50024,47.9198588,33.3368795
28,вулиця Володимира Винниченка,50024,47.9151101,33.3385929
17,вулиця Володимира Винниченка,50024,47.9164217,33.3366788
101,вулиця Володимира Винниченка,50024,47.9192279,33.3367837
89,вулиця Володимира Винниченка,50024,47.9189910,33.3365687
60,вулиця Володимира Винниченка,50024,47.9160576,33.3372507
151,вулиця Володимира Винниченка,50024,47.9208306,33.3374071
77,вулиця Володимира Винниченка,50024,47.9189023,33.3378535
142,вулиця Володимира Винниченка,50024,47.9181187,33.3391185
22,вулиця Володимира Винниченка,50024,47.9144505,33.3382998
174,вулиця Володимира Винниченка,50024,47.9194775,33.3383879
80,вулиця Володимира Винниченка,50024,47.9158121,33.3387350
27,вулиця Володимира Винниченка,50024,47.9165489,33.3358943
170,вулиця Володимира Винниченка,50024,47.9191314,33.3383418
117,вулиця Володимира Винниченка,50024,47.9198310,33.3379272
47,вулиця Володимира Винниченка,50024,47.9177917,33.3376798
52,вулиця Володимира Винниченка,50024,47.9160933,33.3368610
75,вулиця Володимира Винниченка,50024,47.9187162,33.3378333
94,вулиця Володимира Винниченка,50024,47.9166998,33.3376042
182,вулиця Володимира Винниченка,50024,47.9196374,33.3389820
102,вулиця Володимира Винниченка,50024,47.9164600,33.3385001
5,вулиця Володимира Винниченка,50024,47.9159823,33.3360893
166,вулиця Володимира Винниченка,50024,47.9190809,33.3390517
69,вулиця Володимира Винниченка,50024,47.9181627,33.3376823
11,вулиця Кравченка,50024,47.9202777,33.3394906
10,вулиця Володимира Винниченка,50024,47.9153365,33.3373684
37,вулиця Володимира Винниченка,50024,47.9168988,33.3370850
63,вулиця Володимира Винниченка,50024,47.9182491,33.3368112
103,вулиця Володимира Винниченка,50024,47.9192093,33.3370047
7,вулиця Кравченка,50024,47.9185072,33.3392226
107,вулиця Володимира Винниченка,50024,47.9191278,33.3374369
79,вулиця Володимира Винниченка,50024,47.9189110,33.3376835
150,вулиця Володимира Винниченка,50024,47.9182699,33.3382226
5,вулиця Кравченка,50024,47.9183678,33.3391790
172,вулиця Володимира Винниченка,50024,47.9194081,33.3387382
8,вулиця Кравченка,50024,47.9174666,33.3394108
25,вулиця Володимира Винниченка,50024,47.9166345,33.3360975
114,вулиця Володимира Винниченка,50024,47.9168468,33.3387170
134,вулиця Володимира Винниченка,50024,47.9179297,33.3382206
45,вулиця Володимира Винниченка,50024,47.9175911,33.3376820
46,вулиця Володимира Винниченка,50024,47.9157556,33.3370357
138,вулиця Володимира Винниченка,50024,47.9178240,33.3387823
115,вулиця Володимира Винниченка,50024,47.9197055,33.3378057
49,вулиця Володимира Винниченка,50024,47.9179628,33.3376529
21,вулиця Кравченка,50024,47.9206501,33.3391965
106,вулиця Володимира Винниченка,50024,47.9161856,33.3391649
100а,Кривбасівська вулиця,50024,47.9172674,33.3356410
40,вулиця Кравченка,50024,47.9206569,33.3398707
139,вулиця Володимира Винниченка,50024,47.9200414,33.3379483
131,вулиця Володимира Винниченка,50024,47.9202847,33.3369584
96,вулиця Володимира Винниченка,50024,47.9168299,33.3377222
99,вулиця Володимира Винниченка,50024,47.9192675,33.3366084
8,вулиця Володимира Винниченка,50024,47.9154974,33.3370546
18,вулиця Кравченка,50024,47.9183838,33.3395342
120,вулиця Володимира Винниченка,50024,47.9172858,33.3385143
111,вулиця Володимира Винниченка,50024,47.9193111,33.3378779
20,вулиця Володимира Винниченка,50024,47.9146086,33.3385122
104,Кривбасівська вулиця,50024,47.9174910,33.3358735
50,вулиця Володимира Винниченка,50024,47.9159548,33.3366980
65,вулиця Володимира Винниченка,50024,47.9182311,33.3371237
3,вулиця Кравченка,50024,47.9175625,33.3391054
61,вулиця Володимира Винниченка,50024,47.9183053,33.3365787
22,вулиця Кравченка,50024,47.9187428,33.3395574
58,вулиця Володимира Винниченка,50024,47.9165136,33.3373718
119,вулиця Володимира Винниченка,50024,47.9198076,33.3375156
30,вулиця Кравченка,50024,47.9194566,33.3396345
148,вулиця Володимира Винниченка,50024,47.9181561,33.3382709
152,вулиця Володимира Винниченка,50024,47.9183474,33.3382273
140,вулиця Володимира Винниченка,50024,47.9177883,33.3391338
110,вулиця Володимира Винниченка,50024,47.9166698,33.3391304
136,вулиця Володимира Винниченка,50024,47.9178888,33.3385980
23,вулиця Кравченка,50024,47.9206334,33.3395678
100,Кривбасівська вулиця,50024,47.9169938,33.3354966
34,вулиця Кравченка,50024,47.9199202,33.3397376
20,вулиця Кравченка,50024,47.9185605,33.3395432
9,вулиця Володимира Винниченка,50024,47.9164660,33.3354646
109,вулиця Володимира Винниченка,50024,47.9190708,33.3378668
194,вулиця Володимира Винниченка,50024,47.9199737,33.3389269
116,вулиця Володимира Винниченка,50024,47.9170865,33.3382920
113,вулиця Володимира Винниченка,50024,47.9194831,33.3379099
106,Кривбасівська вулиця,50024,47.9175790,33.3359316
26,вулиця Володимира Винниченка,50024,47.9152244,33.3390430
11,вулиця Володимира Винниченка,50024,47.9163230,33.3360283
34,вулиця Володимира Винниченка,50024,47.9152644,33.3381265
121,вулиця Володимира Винниченка,50024,47.9198216,33.3373192
68,вулиця Володимира Винниченка,50024,47.9161693,33.3378179
95а,вулиця Володимира Винниченка,50024,47.9192405,33.3363169
86,вулиця Володимира Винниченка,50024,47.9161965,33.3382073
168,вулиця Володимира Винниченка,50024,47.9191067,33.3386865
4,вулиця Володимира Винниченка,50024,47.9157864,33.3364307
54,вулиця Володимира Винниченка,50024,47.9162341,33.3370213
71,вулиця Володимира Винниченка,50024,47.9183811,33.3377502
73,вулиця Володимира Винниченка,50024,47.9185353,33.3378168
164,вулиця Володимира Винниченка,50024,47.9191293,33.3393190
91,вулиця Володимира Винниченка,50024,47.9187703,33.3359801
7,вулиця Володимира Винниченка,50024,47.9161546,33.3357283
188,вулиця Володимира Винниченка,50024,47.9199120,33.3394477
19,вулиця Володимира Винниченка,50024,47.9165674,33.3368481
30,вулиця Володимира Винниченка,50024,47.9153230,33.3387198
35,вулиця Володимира Винниченка,50024,47.9170913,33.3368100
157,вулиця Володимира Винниченка,50024,47.9209228,33.3369061
44,вулиця Володимира Винниченка,50024,47.9157375,33.3371925
135,вулиця Володимира Винниченка,50024,47.9201055,33.3370967
2,вулиця Кравченка,50024,47.9169448,33.3393988
6,вулиця Кравченка,50024,47.9173057,33.3394302
6,вулиця Володимира Винниченка,50024,47.9156134,33.3367245
12,вулиця Володимира Винниченка,50024,47.9152203,33.3377216
53,вулиця Володимира Винниченка,50024,47.9179714,33.3372754
48,вулиця Володимира Винниченка,50024,47.9158417,33.3369065
132,вулиця Володимира Винниченка,50024,47.9177622,33.3384010
15,вулиця Володимира Винниченка,50024,47.9162873,33.3364819
1,вулиця Кравченка,50024,47.9170986,33.3390328
19,вулиця Кравченка,50024,47.9206443,33.3389662
184,вулиця Володимира Винниченка,50024,47.9197322,33.3391313
72,вулиця Володимира Винниченка,50024,47.9156366,33.3384602
143,вулиця Володимира Винниченка,50024,47.9204227,33.3380128
96,Кривбасівська вулиця,50024,47.9170658,33.3351410
13,вулиця Кравченка,50024,47.9204306,33.3395129
159,вулиця Володимира Винниченка,50024,47.9210350,33.3381128
9,вулиця Кравченка,50024,47.9193730,33.3392453
108,вулиця Володимира Винниченка,50024,47.9161131,33.3394649
93,вулиця Володимира Винниченка,50024,47.9189081,33.3362130
18,вулиця Володимира Винниченка,50024,47.9147617,33.3387073
40,вулиця Володимира Винниченка,50024,47.9154871,33.3376211
204,вулиця Володимира Винниченка,50024,47.9207832,33.3385171
146,вулиця Володимира Винниченка,50024,47.9181156,33.3386696
4,вулиця Кравченка,50024,47.9171304,33.3393965
118,вулиця Володимира Винниченка,50024,47.9173457,33.3381222
176,вулиця Володимира Винниченка,50024,47.9196627,33.3383929
12,вулиця Кравченка,50024,47.9178578,33.3394566
92,вулиця Володимира Винниченка,50024,47.9166376,33.3377459
1,вулиця Володимира Винниченка,50024,47.9156836,33.3357916
130,вулиця Володимира Винниченка,50024,47.9177490,33.3381466
51,вулиця Володимира Винниченка,50024,47.9179714,33.3374483
198,вулиця Володимира Винниченка,50024,47.9202528,33.3384568
70,вулиця Володимира Винниченка,50024,47.9158518,33.3381356
98,Кривбасівська вулиця,50024,47.9168674,33.3353470
17,вулиця Кравченка,50024,47.9204888,33.3389425
76,вулиця Володимира Винниченка,50024,47.9154741,33.3389119
145,вулиця Володимира Винниченка,50024,47.9206027,33.3380416
31,вулиця Володимира Винниченка,50024,47.9173450,33.3365731
190,вулиця Володимира Винниченка,50024,47.9199619,33.3391770
32,вулиця Кравченка,50024,47.9197148,33.3396274
127,вулиця Володимира Винниченка,50024,47.9198600,33.3366753
42,вулиця Кравченка,50024,47.9206327,33.3401204
14,вулиця Кравченка,50024,47.9180219,33.3394849
59,вулиця Володимира Винниченка,50024,47.9183107,33.3362429
16,вулиця Володимира Винниченка,50024,47.9149488,33.3382913
81,вулиця Володимира Винниченка,50024,47.9188995,33.3374201
108,Кривбасівська вулиця,50024,47.9177168,33.3359878
23,вулиця Володимира Винниченка,50024,47.9168980,33.3366348
28,вулиця Кравченка,50024,47.9192295,33.3396075
66,вулиця Володимира Винниченка,50024,47.9161370,33.3376464
39,вулиця Володимира Винниченка,50024,47.9170624,33.3373031
64,вулиця Володимира Винниченка,50024,47.9160928,33.3374288
129,вулиця Володимира Винниченка,50024,47.9202588,33.3367576
186,вулиця Володимира Винниченка,50024,47.9197042,33.3393423
98,вулиця Володимира Винниченка,50024,47.9168734,33.3379437
178,вулиця Володимира Винниченка,50024,47.9198100,33.3384016
2,вулиця Володимира Винниченка,50024,47.9156297,33.3362592
32,вулиця Володимира Винниченка,50024,47.9151710,33.3383477
36,вулиця Володимира Винниченка,50024,47.9154214,33.3380326
85,вулиця Володимира Винниченка,50024,47.9189004,33.3369750
44,вулиця Кравченка,50024,47.9206277,33.3403670
158,вулиця Володимира Винниченка,50024,47.9187944,33.3386874
83,вулиця Володимира Винниченка,50024,47.9189078,33.3372122
162,вулиця Володимира Винниченка,50024,47.9187705,33.3392834
38,вулиця Кравченка,50024,47.9203172,33.3398313
41,вулиця Володимира Винниченка,50024,47.9171808,33.3374797
26,вулиця Кравченка,50024,47.9190792,33.3395854
155,вулиця Володимира Винниченка,50024,47.9208816,33.3370609
62,вулиця Володимира Винниченка,50024,47.9160115,33.3373758
24,вулиця Володимира Винниченка,50024,47.9149068,33.3388803
43,вулиця Володимира Винниченка,50024,47.9173805,33.3376186
147,вулиця Володимира Винниченка,50024,47.9208041,33.3380802
137,вулиця Володимира Винниченка,50024,47.9200701,33.3375275
156,вулиця Володимира Винниченка,50024,47.9188302,33.3383098
133,вулиця Володимира Винниченка,50024,47.9201759,33.3369059
16,вулиця Кравченка,50024,47.9182033,33.3395085
14,вулиця Володимира Винниченка,50024,47.9151313,33.3378300
56,вулиця Володимира Винниченка,50024,47.9163735,33.3371769
202,вулиця Володимира Винниченка,50024,47.9205949,33.3384997
55,вулиця Володимира Винниченка,50024,47.9179767,33.3367723
42,вулиця Володимира Винниченка,50024,47.9156944,33.3374980
2,провулок Жолтовського,50024,47.9105016,33.3379644
15,Ракетна вулиця,50024,47.9073144,33.3337826
21,провулок Жолтовського,50024,47.9102497,33.3367146
15А,вулиця Петра Калнишевського,50024,47.9133658,33.3367854
11,провулок Жолтовського,50024,47.9099338,33.3370477
6,провулок Жолтовського,50024,47.9108097,33.3379815
12,провулок Жолтовського,50024,47.9107688,33.3375288
2,Свято-Миколаївська вулиця,50000,47.9077621,33.3290219
8,Свято-Миколаївська вулиця,50000,47.9059994,33.3301438
10,Свято-Миколаївська вулиця,50000,47.9056492,33.3313437
6,Свято-Миколаївська вулиця,50000,47.9074621,33.3300960
4,Свято-Миколаївська вулиця,50000,47.9077258,33.3295875
163,вулиця Володимира Винниченка,50024,47.9222417,33.3382948
232,вулиця Володимира Винниченка,50024,47.9226796,33.3400597
314,вулиця Володимира Винниченка,50024,47.9259093,33.3394574
237,вулиця Володимира Винниченка,50024,47.9238740,33.3375190
223,вулиця Володимира Винниченка,50024,47.9235949,33.3385045
214,вулиця Володимира Винниченка,50024,47.9221195,33.3391579
274,вулиця Володимира Винниченка,50024,47.9239965,33.3390058
208,вулиця Володимира Винниченка,50024,47.9220988,33.3396925
252,вулиця Володимира Винниченка,50024,47.9235125,33.3394778
181,вулиця Володимира Винниченка,50024,47.9228547,33.3371072
244,вулиця Володимира Винниченка,50024,47.9231804,33.3388927
330,вулиця Володимира Винниченка,50024,47.9263490,33.3396597
287,вулиця Володимира Винниченка,50024,47.9270184,33.3394650
213,вулиця Володимира Винниченка,50024,47.9230381,33.3378142
191,вулиця Володимира Винниченка,50024,47.9229473,33.3360847
259,вулиця Володимира Винниченка,50024,47.9248635,33.3386703
283,вулиця Володимира Винниченка,50024,47.9268487,33.3389818
289,вулиця Володимира Винниченка,50024,47.9271951,33.3394687
318,вулиця Володимира Винниченка,50024,47.9257965,33.3400149
238,вулиця Володимира Винниченка,50024,47.9229252,33.3394179
298,вулиця Володимира Винниченка,50024,47.9251770,33.3391846
255,вулиця Володимира Винниченка,50024,47.9246902,33.3381774
320,вулиця Володимира Винниченка,50024,47.9257546,33.3401818
260,вулиця Володимира Винниченка,50024,47.9236694,33.3404519
201,вулиця Володимира Винниченка,50024,47.9231761,33.3366096
239,вулиця Володимира Винниченка,50024,47.9238706,33.3376886
219,вулиця Володимира Винниченка,50024,47.9232444,33.3384534
175,вулиця Володимира Винниченка,50024,47.9228263,33.3377721
297,вулиця Володимира Винниченка,50024,47.9276411,33.3391309
210,вулиця Володимира Винниченка,50024,47.9221129,33.3395025
207,вулиця Володимира Винниченка,50024,47.9231688,33.3373227
273,вулиця Володимира Винниченка,50024,47.9263244,33.3386649
230,вулиця Володимира Винниченка,50024,47.9226867,33.3397937
268,вулиця Володимира Винниченка,50024,47.9237887,33.3395365
253,вулиця Володимира Винниченка,50024,47.9244400,33.3381124
209,вулиця Володимира Винниченка,50024,47.9230705,33.3373347
324,вулиця Володимира Винниченка,50024,47.9261253,33.3401272
167,вулиця Володимира Винниченка,50024,47.9226075,33.3383640
290,вулиця Володимира Винниченка,50024,47.9245529,33.3394276
218,вулиця Володимира Винниченка,50024,47.9223948,33.3387912
197,вулиця Володимира Винниченка,50024,47.9232809,33.3362340
258,вулиця Володимира Винниченка,50024,47.9234630,33.3402880
216,вулиця Володимира Винниченка,50024,47.9222116,33.3387601
272,вулиця Володимира Винниченка,50024,47.9237753,33.3389782
250,вулиця Володимира Винниченка,50024,47.9235237,33.3392896
246,вулиця Володимира Винниченка,50024,47.9233759,33.3389206
235,вулиця Володимира Винниченка,50024,47.9238918,33.3373950
241,вулиця Володимира Винниченка,50024,47.9238369,33.3379073
199,вулиця Володимира Винниченка,50024,47.9232738,33.3364256
300,вулиця Володимира Винниченка,50024,47.9251639,33.3395086
159а,вулиця Володимира Винниченка,50024,47.9222231,33.3377047
282,вулиця Володимира Винниченка,50024,47.9243302,33.3396079
243,вулиця Володимира Винниченка,50024,47.9238407,33.3381148
254,вулиця Володимира Винниченка,50024,47.9235082,33.3396731
157а,вулиця Володимира Винниченка,50024,47.9222383,33.3374996
193,вулиця Володимира Винниченка,50024,47.9232348,33.3357508
248,вулиця Володимира Винниченка,50024,47.9235544,33.3389566
177,вулиця Володимира Винниченка,50024,47.9228481,33.3375668
233,вулиця Володимира Винниченка,50024,47.9236588,33.3369764
242,вулиця Володимира Винниченка,50024,47.9230115,33.3388775
155-Б,вулиця Володимира Винниченка,50024,47.9218980,33.3382212
296,вулиця Володимира Винниченка,50024,47.9250036,33.3391216
275,вулиця Володимира Винниченка,50024,47.9262650,33.3391519
288,вулиця Володимира Винниченка,50024,47.9245412,33.3396293
228,вулиця Володимира Винниченка,50024,47.9227030,33.3396076
263,вулиця Володимира Винниченка,50024,47.9254697,33.3387979
215,вулиця Володимира Винниченка,50024,47.9230891,33.3382375
222,вулиця Володимира Винниченка,50024,47.9227525,33.3388327
266,вулиця Володимира Винниченка,50024,47.9237265,33.3397242
185,вулиця Володимира Винниченка,50024,47.9228907,33.3368344
280,вулиця Володимира Винниченка,50024,47.9243441,33.3394078
225,вулиця Володимира Винниченка,50024,47.9236253,33.3380849
326,вулиця Володимира Винниченка,50024,47.9261564,33.3399335
165,вулиця Володимира Винниченка,50024,47.9224146,33.3383388
312,вулиця Володимира Винниченка,50024,47.9257456,33.3393946
189,вулиця Володимира Винниченка,50024,47.9228667,33.3363664
183,вулиця Володимира Винниченка,50024,47.9228648,33.3369775
227,вулиця Володимира Винниченка,50024,47.9236199,33.3378970
211,вулиця Володимира Винниченка,50024,47.9230514,33.3376054
236,вулиця Володимира Винниченка,50024,47.9229177,33.3396264
284,вулиця Володимира Винниченка,50024,47.9243135,33.3398108
257,вулиця Володимира Винниченка,50024,47.9245916,33.3386146
269,вулиця Володимира Винниченка,50024,47.9260006,33.3390502
322,вулиця Володимира Винниченка,50024,47.9260110,33.3400935
279,вулиця Володимира Винниченка,50024,47.9267650,33.3393980
221,вулиця Володимира Винниченка,50024,47.9234358,33.3384977
187,вулиця Володимира Винниченка,50024,47.9229260,33.3365559
262,вулиця Володимира Винниченка,50024,47.9237689,33.3402089
195,вулиця Володимира Винниченка,50024,47.9232183,33.3359627
261а,вулиця Володимира Винниченка,50024,47.9249881,33.3386800
316,вулиця Володимира Винниченка,50024,47.9257303,33.3397369
276,вулиця Володимира Винниченка,50024,47.9241722,33.3390314
217,вулиця Володимира Винниченка,50024,47.9230650,33.3384204
179,вулиця Володимира Винниченка,50024,47.9228491,33.3373074
231,вулиця Володимира Винниченка,50024,47.9236289,33.3374657
267,вулиця Володимира Винниченка,50024,47.9258235,33.3389403
293,вулиця Володимира Винниченка,50024,47.9275058,33.3396958
220,вулиця Володимира Винниченка,50024,47.9225732,33.3388041
212,вулиця Володимира Винниченка,50024,47.9221294,33.3392920
205,вулиця Володимира Винниченка,50024,47.9230922,33.3371001
193а,вулиця Володимира Винниченка,50024,47.9228057,33.3352235
224,вулиця Володимира Винниченка,50024,47.9227361,33.3391886
251,вулиця Володимира Винниченка,50024,47.9243848,33.3385855
171,вулиця Володимира Винниченка,50024,47.9228217,33.3381976
270,вулиця Володимира Винниченка,50024,47.9237353,33.3392919
264,вулиця Володимира Винниченка,50024,47.9237208,33.3399340
285,вулиця Володимира Винниченка,50024,47.9270686,33.3390790
271,вулиця Володимира Винниченка,50024,47.9260928,33.3385453
169,вулиця Володимира Винниченка,50024,47.9227836,33.3383690
328,вулиця Володимира Винниченка,50024,47.9261484,33.3395901
308,вулиця Володимира Винниченка,50024,47.9254534,33.3392328
161,вулиця Володимира Винниченка,50024,47.9222203,33.3378865
281,вулиця Володимира Винниченка,50024,47.9268361,33.3392094
278,вулиця Володимира Винниченка,50024,47.9243637,33.3390487
256,вулиця Володимира Винниченка,50024,47.9235000,33.3398976
245,вулиця Володимира Винниченка,50024,47.9238675,33.3383226
229,вулиця Володимира Винниченка,50024,47.9236371,33.3376938
304,вулиця Володимира Винниченка,50024,47.9251314,33.3399385
155а,вулиця Володимира Винниченка,50024,47.9222532,33.3372647
265,вулиця Володимира Винниченка,50024,47.9256586,33.3388736
310,вулиця Володимира Винниченка,50024,47.9255645,33.3393178
240,вулиця Володимира Винниченка,50024,47.9229356,33.3392091
203,вулиця Володимира Винниченка,50024,47.9232138,33.3369129
294,вулиця Володимира Винниченка,50024,47.9248327,33.3391138
226,вулиця Володимира Винниченка,50024,47.9227137,33.3393973
249,вулиця Володимира Винниченка,50024,47.9242196,33.3385622
173,вулиця Володимира Винниченка,50024,47.9228169,33.3379855
292,вулиця Володимира Винниченка,50024,47.9246257,33.3390756
291,вулиця Володимира Винниченка,50024,47.9273562,33.3396225
302,вулиця Володимира Винниченка,50024,47.9250925,33.3397284
234,вулиця Володимира Винниченка,50024,47.9227639,33.3402823
153а,вулиця Володимира Винниченка,50024,47.9223146,33.3370369
18,вулиця Петра Калнишевського,50024,47.9146295,33.3365091
97,Кривбасівська вулиця,50024,47.9163394,33.3340161
99,Кривбасівська вулиця,50024,47.9164383,33.3340421
16,вулиця Павла Глазового,50076,47.9349608,33.4212125
20,вулиця Павла Глазового,50076,47.9335973,33.4230228
35,вулиця Глінки,50000,47.9001926,33.3508693
196,вулиця Вернадського,50023,47.9091607,33.4724576
102,вулиця Ігоря Сікорського,50023,47.9081580,33.4732655
104,вулиця Ігоря Сікорського,50023,47.9081420,33.4735067
95,вулиця Ігоря Сікорського,50023,47.9085778,33.4719857
113,вулиця Ігоря Сікорського,50023,47.9089358,33.4749950
210,вулиця Вернадського,50023,47.9093981,33.4742885
110,вулиця Ігоря Сікорського,50023,47.9082912,33.4744530
206,вулиця Вернадського,50023,47.9093204,33.4737866
98,вулиця Ігоря Сікорського,50023,47.9080937,33.4726335
190,вулиця Вернадського,50023,47.9090358,33.4716537
94,вулиця Ігоря Сікорського,50023,47.9080228,33.4720677
105,вулиця Ігоря Сікорського,50023,47.9087813,33.4736147
106,вулиця Ігоря Сікорського,50023,47.9082202,33.4738219
112,вулиця Ігоря Сікорського,50023,47.9083082,33.4747262
91,вулиця Ігоря Сікорського,50023,47.9084751,33.4713608
198,вулиця Вернадського,50023,47.9091671,33.4727212
90,вулиця Ігоря Сікорського,50023,47.9079029,33.4713610
92,вулиця Ігоря Сікорського,50023,47.9079574,33.4718459
188,вулиця Вернадського,50023,47.9090210,33.4713449
186,вулиця Вернадського,50023,47.9088654,33.4711000
214,вулиця Вернадського,50023,47.9094499,33.4748554
208,вулиця Вернадського,50023,47.9093178,33.4740301
202,вулиця Вернадського,50023,47.9092266,33.4732444
111,вулиця Ігоря Сікорського,50023,47.9088838,33.4746540
107,вулиця Ігоря Сікорського,50023,47.9087965,33.4739936
97,вулиця Ігоря Сікорського,50023,47.9086310,33.4723039
212,вулиця Вернадського,50023,47.9093092,33.4745925
204,вулиця Вернадського,50023,47.9092869,33.4734958
194,вулиця Вернадського,50023,47.9091088,33.4721633
109,вулиця Ігоря Сікорського,50023,47.9088477,33.4742951
100,вулиця Ігоря Сікорського,50023,47.9081228,33.4730488
192,вулиця Вернадського,50023,47.9089707,33.4719097
93,вулиця Ігоря Сікорського,50023,47.9085062,33.4716879
170,вулиця Вернадського,50023,47.9086291,33.4684698
47,Шепетівська вулиця,50023,47.9058411,33.4649099
58,вулиця Заньковецької,50023,47.9064898,33.4661131
146,вулиця Вернадського,50023,47.9081865,33.4653118
57,вулиця Заньковецької,50023,47.9067267,33.4660375
74,Шепетівська вулиця,50023,47.9059939,33.4688012
107,вулиця Вернадського,50023,47.9083767,33.4635627
61,вулиця Ігоря Сікорського,50023,47.9077985,33.4664152
85,Шепетівська вулиця,50023,47.9066993,33.4708265
48,вулиця Заньковецької,50023,47.9063169,33.4647514
52,Шепетівська вулиця,50023,47.9055323,33.4652921
44,вулиця Ігоря Сікорського,50023,47.9069605,33.4640662
64,Шепетівська вулиця,50023,47.9057825,33.4670850
168,вулиця Вернадського,50023,47.9085861,33.4682026
49,вулиця Заньковецької,50023,47.9065910,33.4649206
73,вулиця Ігоря Сікорського,50023,47.9080552,33.4681990
178,вулиця Вернадського,50023,47.9087673,33.4695007
54,вулиця Заньковецької,50023,47.9064177,33.4654679
80,Шепетівська вулиця,50023,47.9061282,33.4697841
117,вулиця Вернадського,50023,47.9085439,33.4647451
160,вулиця Вернадського,50023,47.9084304,33.4671137
137,вулиця Вернадського,50023,47.9091616,33.4686538
66,вулиця Ігоря Сікорського,50023,47.9072965,33.4670417
47,вулиця Ігоря Сікорського,50023,47.9075050,33.4644055
65,Шепетівська вулиця,50023,47.9062708,33.4677011
54,Шепетівська вулиця,50023,47.9055482,33.4654975
172,вулиця Вернадського,50023,47.9086723,33.4687094
56,вулиця Заньковецької,50023,47.9064443,33.4657530
59,вулиця Заньковецької,50023,47.9067693,33.4663802
63,вулиця Ігоря Сікорського,50023,47.9078806,33.4668830
76,Шепетівська вулиця,50023,47.9060391,33.4691335
83,вулиця Заньковецької,50023,47.9072872,33.4701346
142,вулиця Вернадського,50023,47.9081206,33.4648040
58,вулиця Ігоря Сікорського,50023,47.9071744,33.4657761
59,вулиця Ігоря Сікорського,50023,47.9077429,33.4661018
83,Шепетівська вулиця,50023,47.9066416,33.4706562
125а,вулиця Вернадського,50023,47.9089101,33.4658832
60,Шепетівська вулиця,50023,47.9057030,33.4665050
57,Шепетівська вулиця,50023,47.9060622,33.4662122
66,Шепетівська вулиця,50023,47.9057816,33.4673013
125,вулиця Вернадського,50023,47.9087222,33.4661201
73,вулиця Заньковецької,50023,47.9071017,33.4684609
176,вулиця Вернадського,50023,47.9087421,33.4692249
88,Шепетівська вулиця,50023,47.9062870,33.4710946
51,вулиця Заньковецької,50023,47.9066098,33.4651571
89,вулиця Ігоря Сікорського,50023,47.9083611,33.4704547
72,вулиця Заньковецької,50023,47.9068215,33.4685606
164,вулиця Вернадського,50023,47.9085023,33.4676734
113,вулиця Вернадського,50023,47.9084348,33.4641078
64,вулиця Заньковецької,50023,47.9066499,33.4672626
156,вулиця Вернадського,50023,47.9083658,33.4666122
135,вулиця Вернадського,50023,47.9091542,33.4683080
64,вулиця Ігоря Сікорського,50023,47.9072986,33.4667982
43,вулиця Ігоря Сікорського,50023,47.9074465,33.4639172
71,вулиця Заньковецької,50023,47.9070143,33.4681494
174,вулиця Вернадського,50023,47.9086975,33.4690002
50,вулиця Заньковецької,50023,47.9063560,33.4650055
54,вулиця Ігоря Сікорського,50023,47.9070348,33.4652717
87,вулиця Заньковецької,50023,47.9073530,33.4707914
40,Шепетівська вулиця,50023,47.9053032,33.4639961
61,вулиця Заньковецької,50023,47.9068193,33.4667014
51,Шепетівська вулиця,50023,47.9059317,33.4653711
70,Шепетівська вулиця,50023,47.9059280,33.4681339
119,вулиця Вернадського,50023,47.9085739,33.4651057
85,вулиця Заньковецької,50023,47.9073305,33.4704565
136,вулиця Вернадського,50023,47.9080254,33.4641067
56,вулиця Ігоря Сікорського,50023,47.9071219,33.4654528
69,вулиця Ігоря Сікорського,50023,47.9079603,33.4675402
71,Шепетівська вулиця,50023,47.9063874,33.4686630
77,Шепетівська вулиця,50023,47.9064766,33.4696667
129,вулиця Вернадського,50023,47.9089671,33.4672273
67,вулиця Ігоря Сікорського,50023,47.9079402,33.4671984
55,Шепетівська вулиця,50023,47.9060465,33.4657689
62,Шепетівська вулиця,50023,47.9056672,33.4669166
123,вулиця Вернадського,50023,47.9086793,33.4657735
141,вулиця Вернадського,50023,47.9092541,33.4694296
162,вулиця Вернадського,50023,47.9084651,33.4674012
84,Шепетівська вулиця,50023,47.9062170,33.4704437
47,вулиця Заньковецької,50023,47.9065515,33.4646921
74,вулиця Заньковецької,50023,47.9068390,33.4689059
48,Шепетівська вулиця,50023,47.9054749,33.4648545
41,вулиця Заньковецької,50023,47.9064642,33.4639813
166,вулиця Вернадського,50023,47.9085515,33.4679613
44,вулиця Заньковецької,50023,47.9062547,33.4642948
111,вулиця Вернадського,50023,47.9084517,33.4639052
62,вулиця Заньковецької,50023,47.9065759,33.4667814
55,вулиця Заньковецької,50023,47.9066791,33.4657057
51,вулиця Ігоря Сікорського,50023,47.9075440,33.4648677
115,вулиця Вернадського,50023,47.9085238,33.4643259
75,вулиця Заньковецької,50023,47.9071357,33.4688516
49,Шепетівська вулиця,50023,47.9058980,33.4651473
48,вулиця Ігоря Сікорського,50023,47.9070126,33.4645546
82,вулиця Ігоря Сікорського,50023,47.9076668,33.4696378
44,Шепетівська вулиця,50023,47.9054472,33.4644079
42,Шепетівська вулиця,50023,47.9053861,33.4641996
67,вулиця Заньковецької,50023,47.9069267,33.4673687
81,вулиця Ігоря Сікорського,50023,47.9081535,33.4693269
53,Шепетівська вулиця,50023,47.9059864,33.4655946
72,Шепетівська вулиця,50023,47.9059645,33.4684793
81,вулиця Заньковецької,50023,47.9072184,33.4696821
130,вулиця Вернадського,50023,47.9079180,33.4633139
140,вулиця Вернадського,50023,47.9080895,33.4645777
69,Шепетівська вулиця,50023,47.9063161,33.4683503
79,вулиця Ігоря Сікорського,50023,47.9081506,33.4690129
127,вулиця Вернадського,50023,47.9089245,33.4669416
70,вулиця Ігоря Сікорського,50023,47.9074143,33.4675241
71,вулиця Ігоря Сікорського,50023,47.9080045,33.4678723
63,Шепетівська вулиця,50023,47.9061519,33.4671922
121,вулиця Вернадського,50023,47.9086235,33.4654606
139,вулиця Вернадського,50023,47.9092039,33.4690734
69,вулиця Заньковецької,50023,47.9069792,33.4678558
154,вулиця Вернадського,50023,47.9083335,33.4663506
86,Шепетівська вулиця,50023,47.9061866,33.4708016
45,вулиця Заньковецької,50023,47.9065252,33.4644530
76,вулиця Заньковецької,50023,47.9069157,33.4692254
56,Шепетівська вулиця,50023,47.9055910,33.4657172
43,вулиця Заньковецької,50023,47.9064976,33.4642300
60,вулиця Заньковецької,50023,47.9065320,33.4664508
148,вулиця Вернадського,50023,47.9082138,33.4655676
53,вулиця Заньковецької,50023,47.9066399,33.4653884
53,вулиця Ігоря Сікорського,50023,47.9075888,33.4651039
86,вулиця Заньковецької,50023,47.9071306,33.4708687
105,вулиця Вернадського,50023,47.9083162,33.4632555
144,вулиця Вернадського,50023,47.9081628,33.4650608
50,вулиця Ігоря Сікорського,50023,47.9069694,33.4648096
50,Шепетівська вулиця,50023,47.9055149,33.4650794
85,вулиця Ігоря Сікорського,50023,47.9082767,33.4698180
152,вулиця Вернадського,50023,47.9082961,33.4660851
40,вулиця Ігоря Сікорського,50023,47.9068956,33.4635795
83,вулиця Ігоря Сікорського,50023,47.9082411,33.4695259
68,вулиця Заньковецької,50023,47.9067143,33.4679160
40,вулиця Заньковецької,50023,47.9061815,33.4638337
75,вулиця Ігоря Сікорського,50023,47.9080979,33.4684383
61,Шепетівська вулиця,50023,47.9061737,33.4669066
78,Шепетівська вулиця,50023,47.9060727,33.4694750
109,вулиця Вернадського,50023,47.9084523,33.4637468
131,вулиця Вернадського,50023,47.9090126,33.4676812
65,вулиця Заньковецької,50023,47.9068792,33.4671597
158,вулиця Вернадського,50023,47.9084096,33.4668863
68,вулиця Ігоря Сікорського,50023,47.9073868,33.4673698
74,вулиця Ігоря Сікорського,50023,47.9074447,33.4683391
87,вулиця Ігоря Сікорського,50023,47.9083128,33.4701650
133,вулиця Вернадського,50023,47.9090650,33.4679827
58,Шепетівська вулиця,50023,47.9056327,33.4661318
105,вулиця Володимира Винниченка,50024,47.9191812,33.3372521
141,вулиця Володимира Винниченка,50024,47.9202465,33.3379839
9а,вулиця Володимира Винниченка,50024,47.9163214,33.3358138
10,Ракетна вулиця,50024,47.9060173,33.3351044
13,Ракетна вулиця,50024,47.9071503,33.3341006
16а,Ракетна вулиця,50024,47.9069850,33.3337958
16,Ракетна вулиця,50024,47.9070507,33.3336499
19,провулок Жолтовського,50024,47.9103456,33.3369562
24,Ракетна вулиця,50024,47.9077387,33.3324743
247,вулиця Володимира Винниченка,50024,47.9240073,33.3385404
25,Ракетна вулиця,50024,47.9081705,33.3325647
25а,Ракетна вулиця,50024,47.9079011,33.3330876
3,Ракетна вулиця,50024,47.9059944,33.3360023
4,Ракетна вулиця,50024,47.9058122,33.3356823
26а,Вокзальна вулиця,50051,47.8901372,33.3745369
7,вулиця Звʼязку,50014,47.9991322,33.4381894
3,вулиця Звʼязку,50014,47.9996838,33.4362692
6,вулиця Звʼязку,50014,47.9992649,33.4376808
5,вулиця Звʼязку,50014,47.9993954,33.4372642
4,вулиця Звʼязку,50014,47.9995226,33.4368290
2,вулиця Звʼязку,50014,47.9998778,33.4356794
17,вулиця Будівельників,50022,47.8317372,33.3270526
200,вулиця Володимира Винниченка,50024,47.9204327,33.3384742
261,вулиця Володимира Винниченка,50024,47.9251282,33.3387237
277,вулиця Володимира Винниченка,50024,47.9266049,33.3393305
286,вулиця Володимира Винниченка,50024,47.9245292,33.3398542
295,вулиця Володимира Винниченка,50024,47.9275804,33.3393018
306,вулиця Володимира Винниченка,50024,47.9253454,33.3399122
52,Свято-Миколаївська вулиця,50000,47.9014851,33.3392387
52а,Свято-Миколаївська вулиця,50000,47.9015466,33.3389054
53,Свято-Миколаївська вулиця,50000,47.9010234,33.3430550
66,Свято-Миколаївська вулиця,50000,47.8991471,33.3443180
69а,Свято-Миколаївська вулиця,50000,47.8996570,33.3453827
75,Свято-Миколаївська вулиця,50000,47.8990476,33.3451727
79,Свято-Миколаївська вулиця,50000,47.8988221,33.3452739
81,Свято-Миколаївська вулиця,50000,47.8986785,33.3453927
112,вулиця Володимира Винниченка,50024,47.9167553,33.3389194
12,вулиця Петра Калнишевського,50024,47.9128132,33.3388278
25,вулиця Кравченка,50024,47.9207863,33.3396246
103,вулиця Вернадського,50023,47.9082576,33.4624627
24а,вулиця Павла Глазового,50076,47.9355092,33.4236178
3,Шепетівська вулиця,50023,47.9051042,33.4592158
2,Шепетівська вулиця,50023,47.9047420,33.4590414
8,Шепетівська вулиця,50023,47.9048317,33.4597066
1,Шепетівська вулиця,50023,47.9050877,33.4589951
4,Шепетівська вулиця,50023,47.9047725,33.4592516
38,вулиця Ігоря Сікорського,50023,47.9068001,33.4628472
9,Шепетівська вулиця,50023,47.9051831,33.4599072
13,вулиця Ігоря Сікорського,50023,47.9068975,33.4600077
44,вулиця Леоніда Бикова,50023,47.9046698,33.4511760
35,вулиця Ігоря Сікорського,50023,47.9072247,33.4624977
10,вулиця Заньковецької,50023,47.9056537,33.4597819
5,вулиця Ігоря Сікорського,50023,47.9068021,33.4590108
17,вулиця Ігоря Сікорського,50023,47.9069545,33.4604692
12,вулиця Заньковецької,50023,47.9056815,33.4599962
21,вулиця Ігоря Сікорського,50023,47.9070239,33.4609028
36,вулиця Ігоря Сікорського,50023,47.9067662,33.4626156
8,вулиця Заньковецької,50023,47.9056213,33.4595399
4,вулиця Заньковецької,50023,47.9055758,33.4590999
31,вулиця Ігоря Сікорського,50023,47.9071677,33.4620453
15,вулиця Ігоря Сікорського,50023,47.9069770,33.4602609
2,вулиця Ігоря Сікорського,50023,47.9062593,33.4586941
27,вулиця Ігоря Сікорського,50023,47.9071012,33.4616016
7,вулиця Заньковецької,50023,47.9059414,33.4594661
21,вулиця Заньковецької,50023,47.9060971,33.4611083
25,вулиця Ігоря Сікорського,50023,47.9070872,33.4613700
13,вулиця Заньковецької,50023,47.9059706,33.4601779
29,вулиця Заньковецької,50023,47.9062075,33.4620333
33,вулиця Ігоря Сікорського,50023,47.9072467,33.4622520
31,вулиця Заньковецької,50023,47.9062410,33.4622739
66,вулиця Леоніда Бикова,50023,47.9051101,33.4545973
23,вулиця Заньковецької,50023,47.9061459,33.4613132
20,Шепетівська вулиця,50023,47.9049595,33.4610788
11,Шепетівська вулиця,50023,47.9052113,33.4601274
32,вулиця Заньковецької,50023,47.9059925,33.4623110
23,вулиця Ігоря Сікорського,50023,47.9070443,33.4611303
9,вулиця Заньковецької,50023,47.9059003,33.4596983
20,вулиця Заньковецької,50023,47.9058180,33.4609144
17,Шепетівська вулиця,50023,47.9053371,33.4608070
26,вулиця Заньковецької,50023,47.9059068,33.4616135
36,Шепетівська вулиця,50023,47.9052384,33.4629086
19,вулиця Заньковецької,50023,47.9060701,33.4608576
15,Шепетівська вулиця,50023,47.9052648,33.4605837
19,Шепетівська вулиця,50023,47.9053271,33.4610404
6,Шепетівська вулиця,50023,47.9048042,33.4594830
16,Шепетівська вулиця,50023,47.9049473,33.4606306
10,Шепетівська вулиця,50023,47.9048559,33.4599337
24,вулиця Заньковецької,50023,47.9058767,33.4613801
12,Шепетівська вулиця,50023,47.9048827,33.4601742
22,вулиця Заньковецької,50023,47.9058418,33.4611455
21,Шепетівська вулиця,50023,47.9054133,33.4612644
30,вулиця Заньковецької,50023,47.9059709,33.4620743
24,Шепетівська вулиця,50023,47.9050408,33.4615156
25,Шепетівська вулиця,50023,47.9054244,33.4617114
59,вулиця Леоніда Бикова,50023,47.9055197,33.4554466
10,провулок Жолтовського,50024,47.9110000,33.3377980
11,вулиця Чемпіонів,50024,47.9142314,33.3413167
16,провулок Жолтовського,50024,47.9108095,33.3367147
8,провулок Жолтовського,50024,47.9108886,33.3376648
20,вулиця Леоніда Бикова,50023,47.9043543,33.4481993
24,вулиця Леоніда Бикова,50023,47.9043315,33.4485491
14а,вулиця Леоніда Бикова,50023,47.9037285,33.4478657
14,вулиця Леоніда Бикова,50023,47.9042309,33.4477146
16,вулиця Леоніда Бикова,50023,47.9042106,33.4479063
2,вулиця Леоніда Бикова,50023,47.9040419,33.4460306
11,вулиця Ігоря Сікорського,50023,47.9069022,33.4598103
28,вулиця Леоніда Бикова,50023,47.9043600,33.4488919
26,вулиця Леоніда Бикова,50023,47.9043410,33.4487347
12,вулиця Леоніда Бикова,50023,47.9041113,33.4474480
22,вулиця Леоніда Бикова,50023,47.9043051,33.4484086
18,вулиця Леоніда Бикова,50023,47.9042635,33.4480587
51,вулиця Просвіти,50023,47.9060604,33.4533963
19,вулиця Вернадського,50023,47.9073045,33.4504380
6,вулиця Просвіти,50023,47.9049028,33.4461436
24,вулиця Просвіти,50023,47.9049964,33.4485873
19,вулиця Просвіти,50023,47.9053926,33.4480061
5,вулиця Просвіти,50023,47.9051518,33.4462204
157,вулиця Заньковецької,50023,47.9090767,33.4838230
155,вулиця Ігоря Сікорського,50023,47.9099274,33.4824792
155,вулиця Заньковецької,50023,47.9090436,33.4835872
156,Шепетівська вулиця,50023,47.9078457,33.4832876
166,вулиця Ігоря Сікорського,50023,47.9095740,33.4837854
160,Шепетівська вулиця,50023,47.9080192,33.4837965
264,вулиця Вернадського,50023,47.9105255,33.4831632
155,Шепетівська вулиця,50023,47.9082910,33.4827476
162,Шепетівська вулиця,50023,47.9080853,33.4842642
162,вулиця Ігоря Сікорського,50023,47.9094405,33.4831375
158,вулиця Ігоря Сікорського,50023,47.9094570,33.4827875
258,вулиця Вернадського,50023,47.9104033,33.4821525
149,вулиця Заньковецької,50023,47.9088812,33.4825395
159,Шепетівська вулиця,50023,47.9083521,33.4834786
150,вулиця Заньковецької,50023,47.9086927,33.4824941
156,вулиця Ігоря Сікорського,50023,47.9093715,33.4824997
165,вулиця Ігоря Сікорського,50023,47.9100861,33.4834906
151,вулиця Заньковецької,50023,47.9089426,33.4829355
157,Шепетівська вулиця,50023,47.9082904,33.4831357
159,вулиця Ігоря Сікорського,50023,47.9099856,33.4829317
262,вулиця Вернадського,50023,47.9104910,33.4828267
161,Шепетівська вулиця,50023,47.9083819,33.4838203
152,вулиця Заньковецької,50023,47.9087121,33.4830078
11,вулиця Джона Маккейна,50053,48.0331834,33.4819356
14,вулиця Джона Маккейна,50053,48.0325125,33.4832119
8,вулиця Сергія Колачевського,50037,48.0440524,33.4804839
5,вулиця Дмитра Войчишена,50037,48.0440890,33.4824780
28,вулиця Сергія Колачевського,50037,48.0485694,33.4840045
10,Альпійська вулиця,50037,48.0415508,33.4810235
12,вулиця Сергія Колачевського,50037,48.0448622,33.4809548
9,Альпійська вулиця,50037,48.0417389,33.4805723
6,Альпійська вулиця,50037,48.0411987,33.4805176
20,вулиця Сергія Колачевського,50037,48.0465861,33.4822559
3,вулиця Сергія Колачевського,50037,48.0430249,33.4785890
5,Альпійська вулиця,50037,48.0412995,33.4802043
26,вулиця Сергія Колачевського,50037,48.0480216,33.4835092
18,вулиця Сергія Колачевського,50037,48.0461616,33.4819429
32,вулиця Сергія Колачевського,50037,48.0501167,33.4849320
16,вулиця Сергія Колачевського,50037,48.0456847,33.4816017
22,вулиця Сергія Колачевського,50037,48.0470023,33.4825809
30,вулиця Сергія Колачевського,50037,48.0495045,33.4844449
24,вулиця Сергія Колачевського,50037,48.0474774,33.4831245
10,вулиця Сергія Колачевського,50037,48.0444771,33.4808683
4,вулиця Сергія Колачевського,50037,48.0426993,33.4795843
2,Альпійська вулиця,50037,48.0416663,33.4789724
28а,вулиця Павла Глазового,50076,47.9355785,33.4224928
48а,вулиця Едуарда Фукса,50042,47.9720416,33.4356923
7б,проспект Миру,50007,47.9053026,33.3772970
108,вулиця Вадима Гурова,50006,47.8966972,33.4179953
46,вулиця Вадима Гурова,50006,47.8953785,33.4068135
22,вулиця Станюкєвича,50029,48.0062805,33.4608064
76,вулиця Сергія Колачевського,50047,48.0670554,33.5045549
81,вулиця Сергія Колачевського,50047,48.0683155,33.5017271
87,вулиця Сергія Колачевського,50047,48.0695815,33.5039451
55,вулиця Сергія Колачевського,50082,48.0712918,33.5149447
72,вулиця Леоніда Бикова,50023,47.9052290,33.4552218
50,вулиця Просвіти,50023,47.9058560,33.4544207
29,вулиця Просвіти,50023,47.9056794,33.4494307
23,вулиця Просвіти,50023,47.9054462,33.4484640
55,вулиця Леоніда Бикова,50023,47.9054464,33.4545507
1,вулиця Леоніда Бикова,50023,47.9043770,33.4459695
1,вулиця Вернадського,50023,47.9064245,33.4485076
20,вулиця Просвіти,50023,47.9051314,33.4481646
22,вулиця Просвіти,50023,47.9051424,33.4483498
16,вулиця Просвіти,50023,47.9050561,33.4475621
63,вулиця Просвіти,50023,47.9062985,33.4554577
64,вулиця Леоніда Бикова,50023,47.9049727,33.4543087
61,вулиця Просвіти,50023,47.9062534,33.4551743
64а,вулиця Леоніда Бикова,50023,47.9050759,33.4541548
70,вулиця Леоніда Бикова,50023,47.9052143,33.4549477
11,вулиця Сергія Колачевського,50037,48.0494676,33.4828901
9,вулиця Сергія Колачевського,50037,48.0491437,33.4829327
18а,вулиця Доватора,50079,48.1516488,33.5914028
35,вулиця Заньковецької,50023,47.9063959,33.4626854
27,вулиця Заньковецької,50023,47.9063347,33.4617157
26,вулиця Ігоря Сікорського,50023,47.9066255,33.4614445
30,вулиця Ігоря Сікорського,50023,47.9066519,33.4618962
60,Прорізна вулиця,50019,47.9077286,33.3134542
1,вулиця Сергія Колачевського,50037,48.0427435,33.4783029
18,вулиця Станюкєвича,50029,48.0065410,33.4604297
16/1,вулиця Станюкєвича,50029,48.0066342,33.4600287
9,вулиця Винахідниці Ющенко,50079,48.1426518,33.5366881
41,Грядкувата вулиця,50079,48.1426288,33.5486622
2,Веселотернівська вулиця,50079,48.1410484,33.5364148
54,Грядкувата вулиця,50079,48.1428515,33.5490990
8,вулиця Ольги Басараб,50079,48.1415786,33.5362396
19,Веселотернівська вулиця,50079,48.1412639,33.5408195
1,вулиця Винахідниці Ющенко,50079,48.1424440,33.5351898
107,вулиця Ольги Басараб,50079,48.1409965,33.5649588
17,вулиця Вільного Козацтва,50079,48.1418424,33.5619701
5,вулиця Ольги Басараб,50079,48.1418584,33.5361209
8,вулиця Віри Білай,50079,48.1436016,33.5364953
1,вулиця Ольги Басараб,50079,48.1417651,33.5353808
11,вулиця Винахідниці Ющенко,50079,48.1427209,33.5371424
6,вулиця Винахідниці Ющенко,50079,48.1422691,33.5360076
21,Веселотернівська вулиця,50079,48.1414139,33.5417275
10,вулиця Винахідниці Ющенко,50079,48.1423774,33.5367724
7,вулиця Ольги Басараб,50079,48.1419342,33.5365752
17,Веселотернівська вулиця,50079,48.1412086,33.5403824
3,вулиця Ольги Басараб,50079,48.1418077,33.5357664
4,вулиця Винахідниці Ющенко,50079,48.1422065,33.5356393
6,вулиця Віри Білай,50079,48.1435365,33.5360560
11,Вогнева вулиця,50079,48.1419443,33.5415507
8,вулиця Винахідниці Ющенко,50079,48.1423440,33.5364540
6,Веселотернівська вулиця,50079,48.1411422,33.5370297
46,Грядкувата вулиця,50079,48.1422930,33.5492814
25,вулиця Івана Сірка,50079,48.1406920,33.5431139
2,вулиця Винахідниці Ющенко,50079,48.1421566,33.5352772
2,вулиця Віри Білай,50079,48.1433990,33.5350571
7,вулиця Винахідниці Ющенко,50079,48.1426127,33.5363572
4,Веселотернівська вулиця,50079,48.1410922,33.5367144
50,Грядкувата вулиця,50079,48.1425686,33.5492288
15а,вулиця Володимира Терещенка,50079,48.1452046,33.5642790
7,Вогнева вулиця,50079,48.1408842,33.5419272
15,Веселотернівська вулиця,50079,48.1410971,33.5396692
91,вулиця Ольги Басараб,50079,48.1424476,33.5628174
3,вулиця Винахідниці Ющенко,50079,48.1424940,33.5355425
109,вулиця Ольги Басараб,50079,48.1408845,33.5651345
4,вулиця Віри Білай,50079,48.1434657,33.5355597
5,вулиця Винахідниці Ющенко,50079,48.1425398,33.5359265
10,вулиця Ольги Басараб,50079,48.1416210,33.5365386
8,Альпійська вулиця,50037,48.0408045,33.4816154
7,Альпійська вулиця,50037,48.0409332,33.4812982
14а,Ботанічна вулиця,50079,48.1449454,33.5839550
42,Дорожній провулок,50007,47.9017851,33.3763117
42а,Дорожній провулок,50007,47.9016737,33.3764244
42б,Дорожній провулок,50007,47.9016025,33.3762698
48,Дорожній провулок,50007,47.9021124,33.3774552
6а,Полтавська вулиця,50007,47.9010504,33.3767750
7,Сімферопольська вулиця,50007,47.9019150,33.3785876
7,Полтавська вулиця,50007,47.9011496,33.3774891
8,Полтавська вулиця,50007,47.9010670,33.3763249
25а,Поштовий проспект,50000,47.9055205,33.3413793
43,Свято-Миколаївська вулиця,50000,47.9019087,33.3398594
53,Поштовий проспект,50000,47.9112272,33.3467226
56а,Поштовий проспект,50000,47.9096844,33.3470983
42б,вулиця Володимира Великого,50071,47.9470832,33.4316673
1в,вулиця Миколи Світальського,<различные>,47.9709366,33.4458918
32Б,вулиця Сергія Колачевського,50037,48.0509253,33.4855414
15,вулиця Вільного Козацтва,50079,48.1419280,33.5616411
19,вулиця Вільного Козацтва,50079,48.1419367,33.5621462
43,вулиця Ольги Басараб,50079,48.1429690,33.5432974
50,вулиця Віри Білай,50079,48.1446933,33.5439311
51,вулиця Ольги Басараб,50079,48.1435194,33.5453320
87,вулиця Ольги Басараб,50079,48.1425731,33.5622599
3,Факельний провулок,50079,48.1423896,33.5442491
4,Факельний провулок,50079,48.1424755,33.5439142
41,вулиця Волі,50079,48.1413074,33.5466275
47,вулиця Волі,50079,48.1418310,33.5463624
57,вулиця Волі,50079,48.1429079,33.5460450
7,Факельний провулок,50079,48.1419640,33.5444307
23,вулиця Юрія Сича,50000,47.9034220,33.3484297
37,Старовокзальна вулиця,50024,47.8939969,33.3424562
35,Старовокзальна вулиця,50024,47.8935802,33.3428182
7а,вулиця Петра Калнишевського,50024,47.9107991,33.3406748
28,Хостинська вулиця,50019,47.9064270,33.3167399
24,Хостинська вулиця,50019,47.9064244,33.3175830
22,Хостинська вулиця,50019,47.9064801,33.3178358
4г,вулиця Петра Калнишевського,50024,47.9114389,33.3427808
2,вулиця Юрія Сича,50000,47.9039800,33.3434247
13,Хостинська вулиця,50019,47.9067880,33.3190669
9,Хостинська вулиця,50019,47.9068413,33.3195741
5,Хостинська вулиця,50019,47.9068489,33.3200320
8,Хостинська вулиця,50019,47.9066093,33.3196210
7,Прорізна вулиця,50019,47.9071001,33.3201986
7,Хостинська вулиця,50019,47.9068413,33.3198087
23,Хостинська вулиця,50019,47.9067018,33.3178444
10,Хостинська вулиця,50019,47.9065901,33.3193848
3,Хостинська вулиця,50019,47.9068692,33.3202591
7б,вулиця Петра Калнишевського,50024,47.9105380,33.3404000
1,Хостинська вулиця,50019,47.9068914,33.3205029
95,Кривбасівська вулиця,50024,47.9162400,33.3337476
17,провулок Жолтовського,50024,47.9105716,33.3372143
1в,Прорізна вулиця,50019,47.9075901,33.3214251
15,Кривбасівська вулиця,50024,47.9100597,33.3308700
9,Кривбасівська вулиця,50024,47.9096281,33.3308532
3,Кривбасівська вулиця,50024,47.9092556,33.3305982
1,Кривбасівська вулиця,50024,47.9091760,33.3304562
17,Кривбасівська вулиця,50024,47.9101607,33.3308876
13,Кривбасівська вулиця,50024,47.9099198,33.3309007
29,Кривбасівська вулиця,50024,47.9108540,33.3308493
27,Кривбасівська вулиця,50024,47.9107062,33.3309465
19,Кривбасівська вулиця,50024,47.9101901,33.3307338
13,Сімферопольська вулиця,50007,47.9013728,33.3784624
18,вулиця Сакко і Ванцетті,50024,47.9089348,33.3288486
51,Прорізна вулиця,50019,47.9072434,33.3131809
49,Прорізна вулиця,50019,47.9072815,33.3134633
55,Прорізна вулиця,50019,47.9072436,33.3121063
53,Прорізна вулиця,50019,47.9070554,33.3123394
4,Хостинська вулиця,50019,47.9066412,33.3200251
2,Хостинська вулиця,50019,47.9066628,33.3203838
21,Хостинська вулиця,50019,47.9067730,33.3182564
11,Хостинська вулиця,50019,47.9068248,33.3193016
19,Хостинська вулиця,50019,47.9067466,33.3184459
15,Хостинська вулиця,50019,47.9067849,33.3188729
17,Хостинська вулиця,50019,47.9067643,33.3186288
25,Хостинська вулиця,50019,47.9066715,33.3175376
6,Хостинська вулиця,50019,47.9066448,33.3198393
11,Кривбасівська вулиця,50024,47.9098384,33.3308356
16,Хостинська вулиця,50019,47.9065248,33.3186597
18,Хостинська вулиця,50019,47.9065221,33.3184213
12,Хостинська вулиця,50019,47.9065650,33.3191639
14,Хостинська вулиця,50019,47.9065573,33.3189400
20,Хостинська вулиця,50019,47.9064990,33.3181555
17,Прорізна вулиця,50019,47.9073795,33.3186417
19,Прорізна вулиця,50019,47.9074013,33.3181687
47,Прорізна вулиця,50019,47.9072699,33.3140092
41,Прорізна вулиця,50019,47.9073185,33.3147247
45,Прорізна вулиця,50019,47.9072642,33.3142856
13,Прорізна вулиця,50019,47.9074374,33.3190468
43,Прорізна вулиця,50019,47.9072453,33.3145575
9,Прорізна вулиця,50019,47.9074778,33.3197308
11,Прорізна вулиця,50019,47.9074229,33.3192552
15,Прорізна вулиця,50019,47.9074282,33.3188469
21,Прорізна вулиця,50019,47.9073542,33.3179782
41,Хостинська вулиця,50019,47.9066269,33.3151878
35,Хостинська вулиця,50019,47.9065731,33.3161635
34,Хостинська вулиця,50019,47.9063629,33.3159005
43,Хостинська вулиця,50019,47.9066715,33.3148747
30,Прорізна вулиця,50019,47.9078037,33.3176094
39,Хостинська вулиця,50019,47.9065595,33.3154156
28,Прорізна вулиця,50019,47.9078226,33.3178502
23,Прорізна вулиця,50019,47.9073697,33.3178416
35,Прорізна вулиця,50019,47.9071063,33.3161528
26,Прорізна вулиця,50019,47.9078205,33.3180093
36,Хостинська вулиця,50019,47.9063620,33.3153880
27,Хостинська вулиця,50019,47.9066181,33.3170025
33,Прорізна вулиця,50019,47.9073667,33.3162896
37,Прорізна вулиця,50019,47.9072096,33.3155798
27,Прорізна вулиця,50019,47.9073720,33.3172895
37,Хостинська вулиця,50019,47.9065649,33.3156407
29,Прорізна вулиця,50019,47.9073944,33.3170127
39,Прорізна вулиця,50019,47.9073319,33.3150469
25,Прорізна вулиця,50019,47.9073845,33.3174859
45,Хостинська вулиця,50019,47.9067771,33.3146212
47,Хостинська вулиця,50019,47.9068095,33.3143844
62,Прорізна вулиця,50019,47.9078768,33.3128892
59,Гірничозаводська вулиця,50024,47.8879775,33.3361127
32,Прорізна вулиця,50019,47.9077943,33.3172985
5,Прорізна вулиця,50019,47.9075502,33.3204585
3,Прорізна вулиця,50019,47.9075814,33.3206241
34,Прорізна вулиця,50019,47.9078150,33.3171099
33,Хостинська вулиця,50019,47.9066148,33.3163931
36,Прорізна вулиця,50019,47.9078004,33.3164818
22,Прорізна вулиця,50019,47.9078342,33.3185164
20,Прорізна вулиця,50019,47.9078460,33.3188203
24,Прорізна вулиця,50019,47.9078090,33.3182824
103,Кривбасівська вулиця,50024,47.9170029,33.3335505
7,Кривбасівська вулиця,50024,47.9094679,33.3308770
51,Гірничозаводська вулиця,50024,47.8884972,33.3365590
38,Прорізна вулиця,50019,47.9077741,33.3162544
40,Прорізна вулиця,50019,47.9077687,33.3160914
114а,Кривбасівська вулиця,50024,47.9175657,33.3354918
110,Кривбасівська вулиця,50024,47.9178941,33.3360895
22А,вулиця Бикова,50000,47.9267768,33.4104150
142,Кривбасівська вулиця,50024,47.9198736,33.3357200
120,Кривбасівська вулиця,50024,47.9182704,33.3348675
140,Кривбасівська вулиця,50024,47.9196948,33.3356263
107а,Кривбасівська вулиця,50024,47.9173342,33.3342141
132,Кривбасівська вулиця,50024,47.9191515,33.3353446
56,Прорізна вулиця,50019,47.9076803,33.3141838
88,Кривбасівська вулиця,50024,47.9171740,33.3346522
125,Кривбасівська вулиця,50024,47.9188474,33.3345671
130,Кривбасівська вулиця,50024,47.9190226,33.3352179
151,Кривбасівська вулиця,50024,47.9203320,33.3354128
111,Кривбасівська вулиця,50024,47.9176079,33.3343376
135а,Кривбасівська вулиця,50024,47.9193402,33.3341013
133,Кривбасівська вулиця,50024,47.9192343,33.3335403
144,Кривбасівська вулиця,50024,47.9200337,33.3357402
48,Прорізна вулиця,50019,47.9077869,33.3149552
127,Кривбасівська вулиця,50024,47.9190055,33.3345355
139,Кривбасівська вулиця,50024,47.9195199,33.3349672
152,Кривбасівська вулиця,50024,47.9207227,33.3358945
118,Кривбасівська вулиця,50024,47.9181754,33.3349048
86,Кривбасівська вулиця,50024,47.9169355,33.3346925
90,Кривбасівська вулиця,50024,47.9173931,33.3347125
7,вулиця Ігоря Сікорського,50023,47.9068183,33.4592811
84,Кривбасівська вулиця,50024,47.9167075,33.3345771
147,Кривбасівська вулиця,50024,47.9200826,33.3352737
133а,Кривбасівська вулиця,50024,47.9193014,33.3332400
138,Кривбасівська вулиця,50024,47.9194998,33.3355552
153,Кривбасівська вулиця,50024,47.9205541,33.3354955
54,Прорізна вулиця,50019,47.9076737,33.3142901
128,Кривбасівська вулиця,50024,47.9188762,33.3351378
134,Кривбасівська вулиця,50024,47.9192750,33.3354570
145,Кривбасівська вулиця,50024,47.9199272,33.3351587
129,Кривбасівська вулиця,50024,47.9190844,33.3342634
155,Кривбасівська вулиця,50024,47.9207041,33.3355654
82,Кривбасівська вулиця,50024,47.9165696,33.3346334
105,Кривбасівська вулиця,50024,47.9171345,33.3342495
135б,Кривбасівська вулиця,50024,47.9196215,33.3342231
121,Кривбасівська вулиця,50024,47.9185392,33.3342588
149,Кривбасівська вулиця,50024,47.9202388,33.3353027
148,Кривбасівська вулиця,50024,47.9203440,33.3360529
114,Кривбасівська вулиця,50024,47.9177529,33.3348230
115,Кривбасівська вулиця,50024,47.9180513,33.3343936
143,Кривбасівська вулиця,50024,47.9197966,33.3351232
146,Кривбасівська вулиця,50024,47.9202475,33.3359953
80,Кривбасівська вулиця,50024,47.9164775,33.3344697
3,вулиця Ігоря Сікорського,50023,47.9067363,33.4588146
122,Кривбасівська вулиця,50024,47.9183815,33.3349160
137,Кривбасівська вулиця,50024,47.9192860,33.3348051
116,Кривбасівська вулиця,50024,47.9179755,33.3348122
141,Кривбасівська вулиця,50024,47.9196597,33.3350592
157,Кривбасівська вулиця,50024,47.9208989,33.3354558
117,Кривбасівська вулиця,50024,47.9181874,33.3343783
156,Кривбасівська вулиця,50024,47.9210638,33.3360149
113,Кривбасівська вулиця,50024,47.9178005,33.3343318
124,Кривбасівська вулиця,50024,47.9185869,33.3350355
42,Прорізна вулиця,50019,47.9077379,33.3157567
150,Кривбасівська вулиця,50024,47.9205484,33.3361281
119,Кривбасівська вулиця,50024,47.9182624,33.3342660
123,Кривбасівська вулиця,50024,47.9186759,33.3344745
131,Кривбасівська вулиця,50024,47.9191899,33.3338433
126,Кривбасівська вулиця,50024,47.9187188,33.3350875
133б,Кривбасівська вулиця,50024,47.9194322,33.3328507
32,вулиця Леоніда Бикова,50023,47.9044257,33.4493186
3,вулиця Леоніда Бикова,50023,47.9043691,33.4463888
21,вулиця Вернадського,50023,47.9070895,33.4502695
11,вулиця Вернадського,50023,47.9066867,33.4500568
21,вулиця Леоніда Бикова,50023,47.9046685,33.4491018
11,вулиця Просвіти,50023,47.9052431,33.4467495
13,вулиця Просвіти,50023,47.9052852,33.4471062
9,вулиця Леоніда Бикова,50023,47.9044802,33.4472115
17,вулиця Леоніда Бикова,50023,47.9045841,33.4483450
17,вулиця Вернадського,50023,47.9072560,33.4499154
10,вулиця Просвіти,50023,47.9049746,33.4468249
3,вулиця Вернадського,50023,47.9065258,33.4488640
14,вулиця Просвіти,50023,47.9049023,33.4473892
5,вулиця Вернадського,50023,47.9065848,33.4493403
17,вулиця Просвіти,50023,47.9053524,33.4477892
13,вулиця Вернадського,50023,47.9069977,33.4500141
1,Гірничозаводська вулиця,50024,47.8930070,33.3404253
43,Гірничозаводська вулиця,50024,47.8891403,33.3371242
30,Гірничозаводська вулиця,50024,47.8901566,33.3374589
62а,Свято-Миколаївська вулиця,50000,47.9003299,33.3435802
67б,Свято-Миколаївська вулиця,50000,47.8998887,33.3454416
1,Карагандинська вулиця,50000,47.8997560,33.3457667
69б,Свято-Миколаївська вулиця,50000,47.8995704,33.3456939
4,Карагандинська вулиця,50000,47.9000527,33.3455208
28,вулиця Ігоря Сікорського,50023,47.9065388,33.4616673
10,вулиця Ігоря Сікорського,50023,47.9063671,33.4595784
41,вулиця Ігоря Сікорського,50023,47.9074137,33.4637139
12,вулиця Ігоря Сікорського,50023,47.9063904,33.4597956
132,вулиця Вернадського,50023,47.9079529,33.4635945
134,вулиця Вернадського,50023,47.9079890,33.4638346
7,Шепетівська вулиця,50023,47.9052015,33.4596565
44,вулиця Олексія Різниченка,50042,47.9686758,33.4412082
260,вулиця Вернадського,50023,47.9104301,33.4824526
193,вулиця Вернадського,50023,47.9108766,33.4819581
201,вулиця Вернадського,50023,47.9109680,33.4830506
203,вулиця Вернадського,50023,47.9109790,33.4833609
207,вулиця Вернадського,50023,47.9111881,33.4841306
195,вулиця Вернадського,50023,47.9107539,33.4821725
199,вулиця Вернадського,50023,47.9109022,33.4826831
197,вулиця Вернадського,50023,47.9108622,33.4823614
217,вулиця Вернадського,50023,47.9111776,33.4852398
213,вулиця Вернадського,50023,47.9111052,33.4847838
209,вулиця Вернадського,50023,47.9110471,33.4843161
205,вулиця Вернадського,50023,47.9110038,33.4838614
211,вулиця Вернадського,50023,47.9110802,33.4845953
149,вулиця Ігоря Сікорського,50023,47.9097645,33.4812601
118,вулиця Заньковецької,50023,47.9079016,33.4771722
114,вулиця Заньковецької,50023,47.9078963,33.4764900
132,вулиця Ігоря Сікорського,50023,47.9088806,33.4785423
122,вулиця Ігоря Сікорського,50023,47.9086442,33.4769380
133,вулиця Заньковецької,50023,47.9085913,33.4794992
150,вулиця Ігоря Сікорського,50023,47.9092481,33.4814099
144,вулиця Ігоря Сікорського,50023,47.9091205,33.4804366
121,вулиця Заньковецької,50023,47.9082818,33.4777289
124,вулиця Ігоря Сікорського,50023,47.9086762,33.4772727
140,вулиця Ігоря Сікорського,50023,47.9090166,33.4798242
143,вулиця Заньковецької,50023,47.9087577,33.4812180
134,вулиця Ігоря Сікорського,50023,47.9088389,33.4787857
117,вулиця Заньковецької,50023,47.9081964,33.4770741
113,вулиця Заньковецької,50023,47.9081261,33.4764573
136,вулиця Ігоря Сікорського,50023,47.9089352,33.4792051
137,вулиця Заньковецької,50023,47.9087292,33.4802101
127,вулиця Заньковецької,50023,47.9084266,33.4787146
135,вулиця Заньковецької,50023,47.9085931,33.4799736
145,вулиця Заньковецької,50023,47.9087849,33.4815643
138,вулиця Ігоря Сікорського,50023,47.9089777,33.4795130
116,вулиця Ігоря Сікорського,50023,47.9085385,33.4759775
128,вулиця Ігоря Сікорського,50023,47.9087818,33.4777338
142,вулиця Ігоря Сікорського,50023,47.9090180,33.4801283
126,вулиця Ігоря Сікорського,50023,47.9087483,33.4775718
115,вулиця Заньковецької,50023,47.9081519,33.4767565
129,вулиця Заньковецької,50023,47.9084533,33.4790208
120,вулиця Ігоря Сікорського,50023,47.9085847,33.4765025
118,вулиця Ігоря Сікорського,50023,47.9085595,33.4763130
125,вулиця Заньковецької,50023,47.9083607,33.4783426
123,вулиця Заньковецької,50023,47.9083193,33.4780457
119,вулиця Заньковецької,50023,47.9082477,33.4774010
131,вулиця Заньковецької,50023,47.9085106,33.4793178
141,вулиця Заньковецької,50023,47.9087040,33.4809255
146,вулиця Ігоря Сікорського,50023,47.9091959,33.4807924
111,вулиця Заньковецької,50023,47.9080765,33.4761077
130,вулиця Ігоря Сікорського,50023,47.9088194,33.4780447
185,вулиця Вернадського,50023,47.9106739,33.4803766
250,вулиця Вернадського,50023,47.9101549,33.4801723
145,вулиця Ігоря Сікорського,50023,47.9096884,33.4808092
191,вулиця Вернадського,50023,47.9106764,33.4812866
242,вулиця Вернадського,50023,47.9100010,33.4791317
119,вулиця Ігоря Сікорського,50023,47.9091477,33.4764390
127,вулиця Ігоря Сікорського,50023,47.9092864,33.4777396
167,вулиця Вернадського,50023,47.9102211,33.4780704
97,Шепетівська вулиця,50023,47.9069960,33.4731298
114,Шепетівська вулиця,50023,47.9069104,33.4755737
106,Шепетівська вулиця,50023,47.9067532,33.4745461
100,Шепетівська вулиця,50023,47.9066217,33.4736168
89,Шепетівська вулиця,50023,47.9068064,33.4720696
91,вулиця Заньковецької,50023,47.9075645,33.4719464
93,вулиця Заньковецької,50023,47.9075735,33.4722955
95,вулиця Заньковецької,50023,47.9076156,33.4726421
103,вулиця Заньковецької,50023,47.9078092,33.4742564
94,вулиця Заньковецької,50023,47.9073748,33.4727080
104,вулиця Заньковецької,50023,47.9075893,33.4743477
111,Шепетівська вулиця,50023,47.9072120,33.4751255
102,Шепетівська вулиця,50023,47.9066715,33.4739302
98,Шепетівська вулиця,50023,47.9065746,33.4732872
112,Шепетівська вулиця,50023,47.9068945,33.4752247
92,Шепетівська вулиця,50023,47.9064331,33.4722958
106,вулиця Заньковецької,50023,47.9076338,33.4746586
102,вулиця Заньковецької,50023,47.9075548,33.4740224
110,вулиця Заньковецької,50023,47.9077101,33.4751867
103,Шепетівська вулиця,50023,47.9070883,33.4741497
99,Шепетівська вулиця,50023,47.9070095,33.4734931
88,вулиця Заньковецької,50023,47.9072361,33.4717075
89,вулиця Заньковецької,50023,47.9074327,33.4715051
90,вулиця Заньковецької,50023,47.9072865,33.4720372
98,вулиця Заньковецької,50023,47.9074423,33.4733465
97,вулиця Заньковецької,50023,47.9076778,33.4729575
93,Шепетівська вулиця,50023,47.9068739,33.4726519
94,Шепетівська вулиця,50023,47.9064792,33.4726230
107,Шепетівська вулиця,50023,47.9071457,33.4744855
107,вулиця Заньковецької,50023,47.9078868,33.4747687
104,Шепетівська вулиця,50023,47.9067409,33.4742365
87,Шепетівська вулиця,50023,47.9067529,33.4716825
95,Шепетівська вулиця,50023,47.9069249,33.4728481
108,Шепетівська вулиця,50023,47.9067888,33.4747724
92,вулиця Заньковецької,50023,47.9073291,33.4723545
96,вулиця Заньковецької,50023,47.9073898,33.4728414
100,вулиця Заньковецької,50023,47.9075043,33.4736684
105,вулиця Заньковецької,50023,47.9078656,33.4745609
109,Шепетівська вулиця,50023,47.9071971,33.4747842
96,Шепетівська вулиця,50023,47.9065304,33.4729431
105,Шепетівська вулиця,50023,47.9071850,33.4742569
109,вулиця Заньковецької,50023,47.9079452,33.4752936
110,Шепетівська вулиця,50023,47.9067862,33.4750590
101,вулиця Заньковецької,50023,47.9077822,33.4737338
91,Шепетівська вулиця,50023,47.9068376,33.4723406
108,вулиця Заньковецької,50023,47.9076918,33.4750022
113,Шепетівська вулиця,50023,47.9072955,33.4754707
101,Шепетівська вулиця,50023,47.9070023,33.4736731
58,Прорізна вулиця,50019,47.9076729,33.3139615
50,Прорізна вулиця,50019,47.9077832,33.3146409
52,Прорізна вулиця,50019,47.9078487,33.3144605
46,Прорізна вулиця,50019,47.9077744,33.3152971
44,Прорізна вулиця,50019,47.9077675,33.3155469
31,Прорізна вулиця,50019,47.9071581,33.3166328
29,Хостинська вулиця,50019,47.9066192,33.3168366
31,Хостинська вулиця,50019,47.9066897,33.3166489
32,Хостинська вулиця,50019,47.9063832,33.3162055
30,Хостинська вулиця,50019,47.9062909,33.3165210
26,Хостинська вулиця,50019,47.9064174,33.3170157
75,вулиця Просвіти,50023,47.9065514,33.4568507
59,вулиця Просвіти,50023,47.9062148,33.4548853
7,Ракетна вулиця,50024,47.9063418,33.3355645
22К,вулиця Бикова,50000,47.9263414,33.4130717
22,вулиця Бикова,50000,47.9252274,33.4115922
63,вулиця Криворіжсталі,50005,47.8777713,33.3643836
63/1,вулиця Криворіжсталі,50005,47.8776050,33.3649918
81б,Свято-Миколаївська вулиця,50000,47.8985850,33.3456777
12,вулиця Павла Глазового,50076,47.9346410,33.4200099
7,вулиця Жовтих Ірисів,50004,47.8920941,33.3451998
13а,Гірничозаводська вулиця,50024,47.8920529,33.3396832
40,Гірничозаводська вулиця,50024,47.8892066,33.3368277
45,Гірничозаводська вулиця,50024,47.8889412,33.3372994
49,Гірничозаводська вулиця,50024,47.8886055,33.3366477
34,Гірничозаводська вулиця,50024,47.8898116,33.3373618
28,Гірничозаводська вулиця,50024,47.8902171,33.3375616
32,Гірничозаводська вулиця,50024,47.8900294,33.3374854
1а,вулиця Маршака,50089,48.1438693,33.5847551
7,проспект 200-річчя Кривого Рогу,50042,47.9635303,33.4369629
9,проспект 200-річчя Кривого Рогу,50042,47.9630378,33.4369760
11,проспект 200-річчя Кривого Рогу,50042,47.9626142,33.4369348
13,проспект 200-річчя Кривого Рогу,50042,47.9622095,33.4369429
27,вулиця Володимира Великого,50071,47.9433682,33.4158677
29б,вулиця Володимира Великого,50071,47.9439974,33.4184567
29,вулиця Володимира Великого,50071,47.9437345,33.4177706
33,вулиця Володимира Великого,50071,47.9441191,33.4203630
22а,вулиця Лісового,50093,47.9496382,33.4520204
15б,вулиця Павла Глазового,50076,47.9363438,33.4179905
61,вулиця Леоніда Бикова,50023,47.9056492,33.4557314
56,вулиця Просвіти,50023,47.9061313,33.4563690
58,вулиця Просвіти,50023,47.9061494,33.4565878
4,вулиця Івана Багряного,50025,47.9043080,33.2917030
55,вулиця Сергія Колачевського,50082,48.0709100,33.5148844
102,Кривбасівська вулиця,50024,47.9174044,33.3357723
94,Кривбасівська вулиця,50024,47.9172943,33.3353459
92,Кривбасівська вулиця,50024,47.9175491,33.3347404
109,Кривбасівська вулиця,50024,47.9174224,33.3341033
107,Кривбасівська вулиця,50024,47.9172305,33.3342576
101,Кривбасівська вулиця,50024,47.9167035,33.3338638
136,Кривбасівська вулиця,50024,47.9193540,33.3354981
154,Кривбасівська вулиця,50024,47.9208199,33.3359843
158,Кривбасівська вулиця,50024,47.9212550,33.3359786
161,Кривбасівська вулиця,50024,47.9212572,33.3355633
159,Кривбасівська вулиця,50024,47.9211036,33.3355846
61,Гірничозаводська вулиця,50024,47.8878432,33.3358947
9,вулиця Жовтих Ірисів,50004,47.8917431,33.3454466
48б,проспект Металургів,50000-50479,47.9092362,33.3906198
2,вулиця Сергія Колачевського,50037,48.0420820,33.4787778
36,вулиця Леоніда Бикова,50023,47.9045122,33.4500271
5,вулиця Леоніда Бикова,50023,47.9043916,33.4466829
46,Шепетівська вулиця,50023,47.9053677,33.4646566
39,Шепетівська вулиця,50023,47.9057416,33.4639459
41,Шепетівська вулиця,50023,47.9057500,33.4642162
34,Шепетівська вулиця,50023,47.9052040,33.4626635
36,вулиця Заньковецької,50023,47.9060506,33.4626924
27,Шепетівська вулиця,50023,47.9054604,33.4619634
13,Шепетівська вулиця,50023,47.9052381,33.4603622
18,Шепетівська вулиця,50023,47.9049189,33.4608360
22,Шепетівська вулиця,50023,47.9049886,33.4612876
35,вулиця Леоніда Бикова,50023,47.9049741,33.4510121
9,вулиця Вернадського,50023,47.9066225,33.4498572
7,вулиця Вернадського,50023,47.9065906,33.4496256
6,вулиця Софії Перовської,50036,47.9357677,33.4084430
25,вулиця Володимира Великого,50071,47.9415824,33.4142686
2,вулиця Каткова,50102,47.6881738,33.1507245
2,вулиця Каткова,50102,47.6871546,33.1479585
2,вулиця Каткова,50102,47.6877384,33.1494713
38а,вулиця Героїв Маріуполя,50089,48.1404161,33.5941885
38а,вулиця Героїв Маріуполя,50089,48.1400273,33.5945184
137,вулиця Ігоря Сікорського,50023,47.9095248,33.4793332
154,Шепетівська вулиця,50023,47.9078954,33.4828803
134,Шепетівська вулиця,50023,47.9073892,33.4792481
132,Шепетівська вулиця,50023,47.9073468,33.4789312
43,Шепетівська вулиця,50023,47.9057814,33.4644259
68,Шепетівська вулиця,50023,47.9058851,33.4677856
67,Шепетівська вулиця,50023,47.9062749,33.4679005
38,вулиця Просвіти,50023,47.9053701,33.4506577
27,вулиця Леоніда Бикова,50023,47.9048783,33.4499196
77,вулиця Ігоря Сікорського,50023,47.9082102,33.4688065
55,вулиця Ігоря Сікорського,50023,47.9075914,33.4652649
57,вулиця Ігоря Сікорського,50023,47.9077168,33.4656995
46,вулиця Ігоря Сікорського,50023,47.9069667,33.4643071
52,вулиця Ігоря Сікорського,50023,47.9070784,33.4649945
62,вулиця Ігоря Сікорського,50023,47.9072560,33.4665684
60,вулиця Ігоря Сікорського,50023,47.9072258,33.4662201
180,вулиця Вернадського,50023,47.9088270,33.4697381
184,вулиця Вернадського,50023,47.9089012,33.4703469
101,вулиця Ігоря Сікорського,50023,47.9086555,33.4729590
99,вулиця Ігоря Сікорського,50023,47.9086185,33.4726611
103,вулиця Ігоря Сікорського,50023,47.9087192,33.4732906
200,вулиця Вернадського,50023,47.9092308,33.4729576
71,вулиця Просвіти,50023,47.9064386,33.4564385
15,вулиця Вернадського,50023,47.9071341,33.4499680
1,вулиця Ігоря Сікорського,50023,47.9067899,33.4585895
14,вулиця Жовтих Ірисів,50004,47.8915818,33.3441950
16,вулиця Жовтих Ірисів,50004,47.8914068,33.3440814
12,вулиця Жовтих Ірисів,50004,47.8917364,33.3443467
10,вулиця Жовтих Ірисів,50004,47.8918881,33.3444849
10,Гірничозаводська вулиця,50024,47.8920021,33.3389640
18,Гірничозаводська вулиця,50024,47.8912528,33.3383572
53,Гірничозаводська вулиця,50024,47.8883463,33.3364572
55,Гірничозаводська вулиця,50024,47.8882718,33.3363773
57,Гірничозаводська вулиця,50024,47.8881391,33.3361120
4,Гірничозаводська вулиця,50024,47.8924516,33.3393659
63,вулиця Леоніда Бикова,50023,47.9057314,33.4562432
54,вулиця Просвіти,50023,47.9060901,33.4561626
57,вулиця Просвіти,50023,47.9062808,33.4546215
45,вулиця Просвіти,50023,47.9058737,33.4518558
42,вулиця Просвіти,50023,47.9054953,33.4519176
41,вулиця Просвіти,50023,47.9057180,33.4509561
40,вулиця Просвіти,50023,47.9054443,33.4510306
35,вулиця Просвіти,50023,47.9057737,33.4502064
9,вулиця Просвіти,50023,47.9052225,33.4465528
4,вулиця Просвіти,50023,47.9048754,33.4460117
3,вулиця Просвіти,50023,47.9051119,33.4458975
57,вулиця Леоніда Бикова,50023,47.9054258,33.4548425
74,вулиця Леоніда Бикова,50023,47.9052042,33.4554595
62,вулиця Леоніда Бикова,50023,47.9050187,33.4539831
12а,вулиця Леоніда Бикова,50023,47.9037515,33.4474952
4,вулиця Леоніда Бикова,50023,47.9040413,33.4464013
6,вулиця Леоніда Бикова,50023,47.9041160,33.4465353
8,вулиця Леоніда Бикова,50023,47.9040784,33.4467546
10,вулиця Леоніда Бикова,50023,47.9041252,33.4470320
78,вулиця Леоніда Бикова,50023,47.9053937,33.4560092
76,вулиця Леоніда Бикова,50023,47.9052575,33.4557358
48,вулиця Леоніда Бикова,50023,47.9047546,33.4518140
38,вулиця Леоніда Бикова,50023,47.9045419,33.4501918
159,вулиця Вернадського,50023,47.9101314,33.4771261
155,вулиця Вернадського,50023,47.9100027,33.4764708
138,вулиця Вернадського,50023,47.9080663,33.4643533
157,вулиця Ігоря Сікорського,50023,47.9099158,33.4826559
153,вулиця Ігоря Сікорського,50023,47.9098792,33.4823562
163,вулиця Ігоря Сікорського,50023,47.9100402,33.4833337
183,вулиця Вернадського,50023,47.9106097,33.4801415
164,вулиця Ігоря Сікорського,50023,47.9095403,33.4834439
154,вулиця Ігоря Сікорського,50023,47.9093177,33.4822784
99,вулиця Заньковецької,50023,47.9077563,33.4735707
96,вулиця Ігоря Сікорського,50023,47.9080840,33.4724920
108,вулиця Ігоря Сікорського,50023,47.9082643,33.4741465
114,вулиця Ігоря Сікорського,50023,47.9083542,33.4749678
86,вулиця Ігоря Сікорського,50023,47.9077724,33.4703293
42,вулиця Ігоря Сікорського,50023,47.9069187,33.4638552
45,вулиця Ігоря Сікорського,50023,47.9074899,33.4641832
29,вулиця Ігоря Сікорського,50023,47.9071381,33.4618127
131,вулиця Ігоря Сікорського,50023,47.9093894,33.4783567
152,вулиця Ігоря Сікорського,50023,47.9092390,33.4817696
148,вулиця Ігоря Сікорського,50023,47.9092124,33.4810552
37,вулиця Ігоря Сікорського,50023,47.9073462,33.4626916
39,вулиця Ігоря Сікорського,50023,47.9073951,33.4634728
49,вулиця Ігоря Сікорського,50023,47.9075356,33.4645606
22,вулиця Ігоря Сікорського,50023,47.9065641,33.4609924
18,вулиця Ігоря Сікорського,50023,47.9065052,33.4605239
14,вулиця Ігоря Сікорського,50023,47.9064396,33.4600733
146,вулиця Заньковецької,50023,47.9085373,33.4815318
154,вулиця Заньковецької,50023,47.9088179,33.4836452
66,вулиця Заньковецької,50023,47.9066878,33.4676092
52,вулиця Заньковецької,50023,47.9063712,33.4651561
42,вулиця Заньковецької,50023,47.9062378,33.4640792
28,вулиця Заньковецької,50023,47.9059285,33.4618108
34,вулиця Заньковецької,50023,47.9060233,33.4625648
25,вулиця Заньковецької,50023,47.9061511,33.4615448
2,вулиця Заньковецької,50023,47.9055609,33.4588787
153,вулиця Заньковецької,50023,47.9091416,33.4830702
140,вулиця Заньковецької,50023,47.9084471,33.4806686
112,вулиця Заньковецької,50023,47.9078344,33.4760669
39,вулиця Заньковецької,50023,47.9064369,33.4637611
63,вулиця Заньковецької,50023,47.9068616,33.4669383
70,вулиця Заньковецької,50023,47.9067219,33.4682376
158,Шепетівська вулиця,50023,47.9080022,33.4835656
124,Шепетівська вулиця,50023,47.9071945,33.4777274
163,Шепетівська вулиця,50023,47.9084324,33.4841705
139,Шепетівська вулиця,50023,47.9078286,33.4798352
82,Шепетівська вулиця,50023,47.9061724,33.4701280
59,Шепетівська вулиця,50023,47.9060961,33.4665815
128,Шепетівська вулиця,50023,47.9072282,33.4782368
119,Шепетівська вулиця,50023,47.9074647,33.4768977
45,Шепетівська вулиця,50023,47.9058627,33.4646677
5,проспект Металургів,50006,47.8951280,33.3926204
7,проспект Металургів,50006,47.8966566,33.3932029
18,вулиця Миколаївське Шосе,50025,47.8868078,33.2875088
12,вулиця 21-ї Бригади Національної Гвардії України,50038,47.9360295,33.4434517
10,вулиця 21-ї Бригади Національної Гвардії України,50038,47.9361791,33.4449846
45а,вулиця Героїв Маріуполя,50079,48.1394804,33.5892083
31,вулиця Андрія Божка,50079,48.1471768,33.5911886
9а,вулиця Героїв Маріуполя,50079,48.1440867,33.5941975
