House number,Street name,Postal code,Latitude,Longitude
70,улица Карла Либкнехта,3300,46.8361987,29.5733884
70,улица Карла Либкнехта,3300,46.8359393,29.5734154
95,улица Шевченко,3300,46.8561027,29.6103968
1/2,улица Клары Цеткин,3300,46.8477060,29.6103528
105,улица 25 Октября,3300,46.8372277,29.6306395
45,улица Свердлова,3300,46.8355688,29.6246740
74,улица Свердлова,3300,46.8352140,29.6257926
94А,улица 25 Октября,3300,46.8360117,29.6196675
14а,улица Юности,3300,46.8372887,29.6623705
94,улица Карла Либкнехта,3300,46.8361801,29.5782713
32,Краснодонская улица,3300,46.8323147,29.6610062
12,Восточный переулок,3300,46.8323989,29.6483581
1,улица 20 Партсъезда,3300,46.8387443,29.6520902
1А,Одесский переулок,3300,46.8369195,29.6454789
70,улица Полецкого,3300,46.8400062,29.6463530
48,улица Чапаева,3300,46.8398829,29.6463182
62,Партизанская улица,3300,46.8438809,29.5978082
1,Бендерская улица,3300,46.8491414,29.5910365
15,Кирпичный проезд,3300,46.8466208,29.6037539
154/1,улица Карла Либкнехта,3300,46.8387465,29.5962861
28а,улица Пушкина,3300,46.8371797,29.6000780
2,улица Павлова,3300,46.8458223,29.6451920
2г,улица Сакриера,3300,46.8556090,29.6248168
9,ул. Сакриера,MD-3300,46.8561455,29.6248072
68/1,улица Сакриера,3300,46.8522142,29.6392017
28,улица Чехова,3300,46.8558501,29.6388504
109,улица Строителей,3300,46.8557822,29.6389163
1,улица 20 лет ВЛКСМ,3300,46.8430776,29.6426648
66,улица Полецкого,3300,46.8398167,29.6458526
51,Учительская улица,3300,46.8396660,29.6456209
87,Советская улица,3300,46.8413797,29.6148818
4,улица Котовского,3300,46.8329981,29.6206124
25,улица Свердлова,3300,46.8353692,29.6193602
34,улица Котовского,3300,46.8371478,29.6199588
47,улица Ленина,3300,46.8456070,29.6253719
37,улица Ленина,3300,46.8426107,29.6243273
56A,улица Свердлова,3300,46.8346931,29.6233875
4,улица Ленина,3300,46.8316111,29.6254947
151/153,улица Карла Маркса,MD-3300,46.8394241,29.6250371
2а,улица Мира,3300,46.8421373,29.6287788
15,улица Мира,3300,46.8408929,29.6313546
326,улица Карла Либкнехта,3300,46.8403658,29.6292062
103Б,улица 25 Октября,3300,46.8379686,29.6292588
2,бульвар Гагарина,3300,46.8376530,29.6315756
2,переулок Свердлова,3300,46.8353069,29.6350249
7,переулок Свердлова,3300,46.8337207,29.6383776
11,переулок Свердлова,3300,46.8333994,29.6387588
17,переулок Свердлова,3300,46.8330709,29.6394626
30,переулок Свердлова,3300,46.8341366,29.6369365
31,Одесская улица,3300,46.8317477,29.6395235
1,переулок Клары Цеткин,3300,46.8477331,29.6000481
6,улица Правды,3300,46.8370574,29.5930756
36,улица Федько,3300,46.8366443,29.5935069
4,улица Макаренко,3300,46.8350875,29.5779142
10,Молодёжный переулок,3300,46.8343049,29.5713761
52,Совхозная улица,3300,46.8314606,29.5745485
41,улица Мечникова,3300,46.8315824,29.5743260
17а,Речной переулок,3300,46.8300010,29.5773568
70,улица Манойлова,3300,46.8481647,29.6215601
31а,улица Мира,3300,46.8346237,29.6428050
78А,Одесская улица,3300,46.8433481,29.6599083
5,Каховская улица,MD-3300,46.8372373,29.6580787
20/2,улица Юности,3300,46.8353989,29.6660398
193,улица Карла Либкнехта,3300,46.8393589,29.5972316
313,улица Карла Либкнехта,3300,46.8401950,29.6149832
2,проезд Генерала Осташенко,3300,46.8374182,29.6425117
108,улица 25 Октября,3300,46.8360470,29.6226824
32,улица Мира,MD3300,46.8366836,29.6376058
18,улица Горького,3300,46.8324046,29.6190778
101,улица 25 Октября,3300,46.8375375,29.6280792
13,улица Юности,3300,46.8387461,29.6606858
28,улица Манойлова,3300,46.8357572,29.6226730
44,Гвардейская улица,3300,46.8391383,29.5669821
52,Гвардейская улица,3300,46.8395874,29.5699843
12,улица Котовского,3300,46.8345459,29.6202016
99,улица Шевченко,3300,46.8691350,29.6076325
40,улица Мира,3300,46.8355511,29.6393330
73,улица Свердлова,3300,46.8359079,29.6315809
203,улица Карла Либкнехта,3300,46.8394284,29.5995581
15,переулок Энгельса,3300,46.8389759,29.6023864
1,улица Клары Цеткин,3300,46.8477943,29.6112653
36,улица Шевченко,3300,46.8403097,29.6150380
18,улица Текстильщиков,3300,46.8444347,29.6519510
5,улица Крупской,3300,46.8393858,29.5893748
19,улица Правды,3300,46.8375931,29.5931255
17,улица Федько,3300,46.8364418,29.5920882
2б,ул. Чапаева,MD5724,46.8310441,29.6612227
13,Кирпичный проезд,3300,46.8465089,29.6037700
192,улица 9 Января,3300,46.8426982,29.6233105
14,переулок Свердлова,3300,46.8346859,29.6360694
16,переулок Свердлова,3300,46.8346335,29.6361667
28,переулок Свердлова,3300,46.8342431,29.6367884
18,переулок Свердлова,3300,46.8345168,29.6361421
20,переулок Свердлова,3300,46.8345241,29.6363276
22,переулок Свердлова,3300,46.8344604,29.6364536
90,улица Шевченко,3300,46.8587976,29.6116594
16,улица Ленина,3300,46.8338835,29.6252707
126а,улица 25 Октября,3300,46.8366096,29.6308366
9/1,Каховская улица,3300,46.8361530,29.6588683
52,улица Сакриера,3300,46.8539681,29.6321651
18,улица Ленина,3300,46.8345130,29.6251836
44,Краснодонская улица,3300,46.8368750,29.6677905
48,Краснодонская улица,3300,46.8373899,29.6684776
44,улица 20 Партсъезда,3300,46.8360598,29.6548312
12,улица 28 Июня,3300,46.8377753,29.5626775
14,улица 28 Июня,3300,46.8378358,29.5628532
145,Одесская улица,3300,46.8431692,29.6565800
70,улица Карла Либкнехта,3300,46.8363711,29.5733065
143,Одесская улица,3300,46.8428120,29.6562475
56,Краснодонская улица,3300,46.8411874,29.6737729
47/1,Комсомольская улица,3300,46.8384516,29.6690699
18,Балковская улица,3300,46.8436826,29.6489332
16,Балковская улица,3300,46.8437816,29.6488715
14/1,Каховская улица,3300,46.8353348,29.6587673
1,Совхозный переулок,3300,46.8310529,29.5735795
48,Терновская улица,3300,46.8297709,29.5779218
50,Терновская улица,3300,46.8297931,29.5777274
30,улица Карла Либкнехта,3300,46.8359396,29.5686928
98,улица 25 Октября,3300,46.8362510,29.6202677
13,улица Куйбышева,3300,46.8346861,29.5747892
15,улица Куйбышева,3300,46.8347040,29.5749569
42,улица Мечникова,3300,46.8325273,29.5736296
44,улица Мечникова,3300,46.8324040,29.5736399
46,улица Мечникова,3300,46.8321946,29.5737223
48,улица Мечникова,3300,46.8320608,29.5737428
3,Красноармейский переулок,3300,46.8471023,29.5785438
7,Красноармейский переулок,3300,46.8472362,29.5783534
6,переулок Клары Цеткин,3300,46.8482129,29.6002237
8,переулок Клары Цеткин,3300,46.8483058,29.6001475
5,улица Свердлова,3300,46.8353459,29.6139110
3,улица Свердлова,3300,46.8352061,29.6139417
100,улица 25 Октября,3300,46.8362686,29.6212560
57,улица Манойлова,3300,46.8458625,29.6213205
63,улица 9 Января,3300,46.8433166,29.6138371
57,улица Манойлова,3300,46.8459532,29.6213141
10,улица Юности,3300,46.8373024,29.6620552
16,переулок Энгельса,3300,46.8392840,29.6027675
18,улица Павлова,3300,46.8467548,29.6451081
16,улица Павлова,3300,46.8466991,29.6452905
30,улица Чехова,3300,46.8559163,29.6389884
6,улица Дружбы,3300,46.8368691,29.5620848
16,улица Циолковского,3300,46.8431020,29.6416631
5,улица 20 лет ВЛКСМ,3300,46.8427371,29.6426928
9,улица 20 лет ВЛКСМ,3300,46.8425739,29.6427652
46,улица Леваневского,3300,46.8395488,29.6430671
48,улица Леваневского,3300,46.8394151,29.6431258
14,улица Якира,3300,46.8550990,29.6276704
68/1,Одесская улица,3300,46.8408616,29.6560960
2,улица 1 Мая,3300,46.8311072,29.6170935
10,переулок Раевского,3300,46.8374202,29.5868192
39,переулок Восстания,3300,46.8334952,29.6375556
21,Клинцовский переулок,3300,46.8330424,29.6371168
1б,бульвар Гагарина,3300,46.8380182,29.6304162
60,улица Полецкого,3300,46.8398378,29.6456192
62,улица Полецкого,3300,46.8398011,29.6457426
3,Бендерская улица,3300,46.8491611,29.5908169
14/4,Украинская улица,3300,46.8623542,29.6238120
21А,улица Манойлова,3300,46.8359651,29.6221025
1,Вокзальный переулок,3300,46.8469304,29.6239147
162,улица Карла Либкнехта,3300,46.8390470,29.6005967
26,улица Луначарского,3300,46.8366980,29.6175273
226,улица Карла Либкнехта,3300,46.8396918,29.6120886
6,улица Правды,3300,46.8374861,29.5923406
101,улица 25 Октября,3300,46.8372941,29.6276222
15,улица Ленина,3300,46.8359729,29.6246598
27,улица Мира,3300,46.8358025,29.6411826
5A,Каховская улица,3300,46.8368433,29.6583828
20,Комсомольская улица,3300,46.8371867,29.6702070
91А (бут. 43),улица Шевченко,3300,46.8523022,29.6099492
1,Набережный переулок,3300,46.8358249,29.6133421
1,Набережный переулок,3300,46.8357938,29.6133453
1,Каховская улица,MD-3300,46.8384071,29.6573350
9,улица Сакриера,MD-3300,46.8560160,29.6251698
9,улица Сакриера,MD-3300,46.8562357,29.6248699
36,улица Котовского,3300,46.8385167,29.6198000
17,улица Луначарского,3300,46.8347369,29.6174274
2,переулок Горплавни,3300,46.8302037,29.6162893
20,ул. Ленина,3300,46.8351827,29.6252070
20,ул. Ленина,3300,46.8351390,29.6252164
159/8,Strada Karl Liebknecht,3300,46.8382642,29.5848636
159/88,Strada Karl Liebknecht,3300,46.8383775,29.5848417
78,улица 25 Октября,3300,46.8359726,29.6161104
13,улица Юности,3300,46.8384651,29.6609785
3,Набережный переулок,3300,46.8347789,29.6137089
50А,улица Мира,3300,46.8333571,29.6433593
1А,Каховская улица,3300,46.8385916,29.6571352
19,Проезд Магистральный 2а,3300,46.8448037,29.6759431
11,"Тирасполь, улица Милева",3300,46.8362223,29.6753747
9,улица Луначарского,3300,46.8323443,29.6170608
49/2,Краснодонская улица,3300,46.8399833,29.6703083
86/1А,Одесская улица,3300,46.8426560,29.6623471
84/1А,Одесская улица,3300,46.8423420,29.6641862
84/1Б,Одесская улица,3300,46.8423580,29.6647113
84/1В,Одесская улица,3300,46.8422836,29.6650782
84/1Г,Одесская улица,3300,46.8422081,29.6654502
86/1Б,Одесская улица,3300,46.8427092,29.6628345
86/1В,Одесская улица,3300,46.8426627,29.6630618
86/1Г,Одесская улица,3300,46.8425548,29.6635783
84/1Д,Одесская улица,3300,46.8420900,29.6659364
2/4,улица Юности,3300,46.8392967,29.6583570
2/4,улица Юности,3300,46.8393707,29.6584404
2/4,улица Юности,3300,46.8392838,29.6584055
56/1,улица Профсоюзов,3300,46.8495577,29.6369852
56/1,улица Профсоюзов,3300,46.8494751,29.6372159
"5 ""А""",улица Шутова,3300,46.8641141,29.6155268
17,улица Свердлова,3300,46.8351879,29.6166183
57Б,Манойлова,3300,46.8464781,29.6177057
15,улица Мира,3300,46.8410459,29.6312110
210,улица 9 Января,3300,46.8421585,29.6326299
198,улица 9 Января,3300,46.8421631,29.6310797
3,улица Мира,3300,46.8419684,29.6303282
5,улица Мира,3300,46.8415109,29.6306696
130,улица 25 Октября,3300,46.8370896,29.6336171
46,улица 25 Октября,3300,46.8355694,29.6068190
3,Набережный переулок,3300,46.8344013,29.6140878
45,улица 25 Октября,3300,46.8366134,29.6065787
36,улица Котовского,3300,46.8383024,29.6199193
34,улица Котовского,3300,46.8372621,29.6199976
4,улица Котовского,3300,46.8329742,29.6205668
96,улица 25 Октября,3300,46.8356733,29.6205531
47,улица 25 Октября,3300,46.8364601,29.6096546
26,улица 1 Мая,3300,46.8308370,29.6189241
159Б,улица Карла Либкнехта,3300,46.8391671,29.5870530
1,улица Крупской,3300,46.8395599,29.5885081
53,улица Профсоюзов,3300,46.8506503,29.6352518
47,улица Ленина,3300,46.8457124,29.6253588
58/1,улица Сакриера,3300,46.8530377,29.6346249
143,улица 9 Января,3300,46.8436045,29.6329393
165,улица Карла Маркса,3300,46.8393787,29.6260387
1,улица Промышленная,3300,46.8683739,29.6217511
50,улица Мира,3300,46.8306884,29.6428006
148,улица Карла Маркса,3300,46.8389811,29.6260762
76,улица Карла Либкнехта,3300,46.8358362,29.5752970
9,переулок Христофорова,3300,46.8372531,29.6003631
3,улица Крупской,3300,46.8391772,29.5890667
94,улица Карла Либкнехта,3300,46.8365120,29.5781499
169А,улица Карла Либкнехта,3300,46.8390609,29.5914752
92,улица Карла Либкнехта,3300,46.8354740,29.5781647
78,улица Карла Либкнехта,3300,46.8365168,29.5759803
169Б,улица Карла Либкнехта,3300,46.8390815,29.5920451
195,улица Карла Либкнехта,3300,46.8398371,29.5984957
199,улица Карла Либкнехта,3300,46.8406782,29.5964357
15,переулок Энгельса,3300,46.8386360,29.6024008
51,улица Ленина,3300,46.8463685,29.6276726
96,улица Карла Либкнехта,3300,46.8360146,29.5791662
296,улица Карла Либкнехта,3300,46.8401680,29.6250464
19,улица Ленина,3300,46.8385448,29.6243121
159Д,улица Карла Либкнехта,3300,46.8385270,29.5843988
154/1,улица Карла Либкнехта,3300,46.8387800,29.5964145
80,улица Карла Либкнехта,3300,46.8358038,29.5762558
197,улица Карла Либкнехта,3300,46.8402757,29.5982720
27,улица Манойлова,3300,46.8375772,29.6213002
169,улица Карла Либкнехта,3300,46.8393066,29.5917165
124,Советская улица,3300,46.8415348,29.6237614
21,улица Христо Ботева,3300,46.8639071,29.6296646
10,улица Карла Маркса,3300,46.8377040,29.6002955
14,переулок Христофорова,3300,46.8374136,29.6009020
151,улица Карла Маркса,3300,46.8394584,29.6250777
72,улица Карла Либкнехта,3300,46.8363700,29.5745081
96,улица 25 Октября,3300,46.8362221,29.6204612
27,улица Ленина,3300,46.8399453,29.6243890
2,бульвар Гагарина,3300,46.8383723,29.6314140
306,улица Карла Либкнехта,3300,46.8402492,29.6273189
118,улица Карла Маркса,3300,46.8383487,29.6188461
34,улица Луначарского,3300,46.8383364,29.6175981
146,улица Карла Маркса,3300,46.8389152,29.6232883
25,улица Ленина,3300,46.8397207,29.6244072
298,улица Карла Либкнехта,3300,46.8401545,29.6256550
29,улица Ленина,3300,46.8402058,29.6244313
6/2,улица Космонавтов,3300,46.8448379,29.6058957
8,Кирпичный проезд,3300,46.8449277,29.6043161
2/1,улица Космонавтов,3300,46.8441691,29.6056789
4/2,улица Космонавтов,3300,46.8453772,29.6048945
44,переулок Чкалова,3300,46.8443261,29.6107432
47/6,переулок Чкалова,3300,46.8459830,29.6078371
6,Кирпичный проезд,3300,46.8446765,29.6047298
16/4,улица Космонавтов,3300,46.8461843,29.6072099
48,переулок Чкалова,3300,46.8449244,29.6108803
2/2,улица Космонавтов,3300,46.8444088,29.6052636
6/1,улица Космонавтов,3300,46.8444305,29.6060469
4/1,улица Космонавтов,3300,46.8449724,29.6050506
53,Одесская улица,3300,46.8350253,29.6433062
31,улица Мира,3300,46.8344569,29.6424157
29,улица Мира,3300,46.8347928,29.6418597
38,улица Мира,3300,46.8358126,29.6387460
34,улица Мира,3300,46.8363469,29.6378422
31a,улица Мира,3300,46.8346179,29.6427460
1,переулок Короленко,3300,46.8358698,29.6366594
55,Одесская улица,3300,46.8352364,29.6435795
4,переулок Труда,3300,46.8364368,29.6363805
23,улица Мира,3300,46.8359196,29.6399783
27,улица Мира,3300,46.8355894,29.6414399
51,Одесская улица,3300,46.8347822,29.6430163
2,переулок Труда,3300,46.8361091,29.6359598
48,улица Мира,3300,46.8340600,29.6418415
32,улица Мира,MD3300,46.8365060,29.6373645
59,Одесская улица,3300,46.8354525,29.6438263
60,улица 1 Мая,3300,46.8311298,29.6291305
7,Магистральный проезд,3300,46.8466692,29.6710994
19,улица Комарова,3300,46.8402334,29.6512578
42,улица Текстильщиков,3300,46.8413594,29.6534489
44,улица Текстильщиков,3300,46.8407589,29.6526969
5,улица Юности,3300,46.8401319,29.6596983
9,улица Юности,3300,46.8395519,29.6600958
23,улица Комарова,3300,46.8409276,29.6513918
11,улица Юности,3300,46.8391098,29.6605918
1/2,улица Юности,3300,46.8404389,29.6586828
145,Одесская улица,3300,46.8434630,29.6563310
38,улица Текстильщиков,3300,46.8425398,29.6541486
40,улица Текстильщиков,3300,46.8420639,29.6531984
8,улица Текстильщиков,3300,46.8440188,29.6505250
22,улица Текстильщиков,3300,46.8438985,29.6527280
9,улица Комарова,3300,46.8430168,29.6516466
141,Одесская улица,3300,46.8422361,29.6554720
26,улица Текстильщиков,3300,46.8433275,29.6533080
32,улица Текстильщиков,3300,46.8435734,29.6547995
24,улица Текстильщиков,3300,46.8442182,29.6531799
34,улица Текстильщиков,3300,46.8432464,29.6543437
48,улица Комарова,3300,46.8415921,29.6509242
20,улица Текстильщиков,3300,46.8435882,29.6523053
40А,улица Текстильщиков,3300,46.8427305,29.6524129
16,улица Текстильщиков,3300,46.8440851,29.6516940
5,улица Комарова,3300,46.8428602,29.6503833
28,улица Текстильщиков,3300,46.8436310,29.6537275
30,улица Текстильщиков,3300,46.8439533,29.6541933
6,улица Текстильщиков,3300,46.8441734,29.6496506
18,улица Текстильщиков,3300,46.8444181,29.6522480
10,улица Текстильщиков,3300,46.8445861,29.6503134
14,улица Текстильщиков,3300,46.8445993,29.6512315
17,улица Комарова,3300,46.8421758,29.6519866
15,улица Комарова,3300,46.8421654,29.6514939
12,улица Текстильщиков,3300,46.8445919,29.6507605
19,улица Комарова,3300,46.8400231,29.6517864
3,улица Комарова,3300,46.8424355,29.6490460
19,улица Комарова,3300,46.8402679,29.6519242
1/3,улица Юности,3300,46.8397818,29.6591951
7,улица Юности,3300,46.8391100,29.6596274
11,переулок Энгельса,3300,46.8370751,29.6024222
217,улица Карла Либкнехта,3300,46.8395508,29.6015309
11,улица 1 Мая,3300,46.8315785,29.6197599
1,улица Котовского,3300,46.8319873,29.6199915
22,улица Горького,3300,46.8323852,29.6196757
80А,Одесская улица,3300,46.8430032,29.6603739
67,улица Космонавтов,3300,46.8473178,29.6092818
49,переулок Чкалова,3300,46.8468894,29.6076732
211,улица Карла Либкнехта,3300,46.8398540,29.6013128
201/2,улица Карла Либкнехта,3300,46.8399182,29.5999487
201/1,улица Карла Либкнехта,3300,46.8400398,29.5992882
41,Краснодонская улица,MD-3300,46.8357132,29.6651619
72,улица 25 Октября,3300,46.8356450,29.6141062
74,улица 25 Октября,3300,46.8358266,29.6144819
1,Набережный переулок,3300,46.8353355,29.6131777
1Б,Набережный переулок,3300,46.8347596,29.6133516
1а,улица Синёва,3300,46.8414254,29.6367443
44,улица Ленина,3300,46.8448505,29.6256214
71,улица 25 Октября,3300,46.8367525,29.6186444
385,улица Карла Либкнехта,3300,46.8407389,29.6243928
69,улица Свердлова,3300,46.8359023,29.6287904
47,улица Свердлова,3300,46.8356679,29.6255239
103Б,улица 25 Октября,3300,46.8380300,29.6292855
78,улица Свердлова,3300,46.8348110,29.6282780
49,улица Свердлова,3300,46.8357274,29.6261330
17,улица Ленина,3300,46.8363169,29.6244144
59,Советская улица,3300,46.8415383,29.6104383
101,улица 25 Октября,3300,46.8374024,29.6281112
128,улица 25 Октября,3300,46.8363976,29.6320847
22А,улица Ленина,3300,46.8358654,29.6253380
75,улица 25 Октября,3300,46.8366174,29.6192912
63,улица 9 Января,3300,46.8432244,29.6136304
104,улица Свердлова,3300,46.8352852,29.6339856
375,улица Карла Либкнехта,3300,46.8404761,29.6199913
57,улица Свердлова,3300,46.8359036,29.6277545
80А,улица Свердлова,3300,46.8353453,29.6292883
86,улица Свердлова,3300,46.8350661,29.6309573
80,улица Свердлова,3300,46.8349386,29.6288732
17,улица Манойлова,3300,46.8348828,29.6219755
37,улица Свердлова,3300,46.8355304,29.6218639
70,улица Свердлова,3300,46.8347187,29.6255693
75,улица Свердлова,3300,46.8359229,29.6338597
112,улица 25 Октября,3300,46.8364821,29.6260210
87,улица 25 Октября,3300,46.8370439,29.6230328
84,улица Свердлова,3300,46.8353706,29.6301814
45а,улица Свердлова,3300,46.8355777,29.6245499
116,улица 25 Октября,3300,46.8363657,29.6276970
93,улица Восстания,3300,46.8345759,29.6301765
74,улица Свердлова,3300,46.8352184,29.6265952
114,улица 25 Октября,3300,46.8363078,29.6267543
24А,улица Луначарского,3300,46.8347337,29.6191909
26,улица Луначарского,3300,46.8353747,29.6180294
11,улица Свердлова,3300,46.8351079,29.6145691
74,Одесская улица,3300,46.8415500,29.6580291
72,Одесская улица,3300,46.8411945,29.6576571
70,Одесская улица,3300,46.8408263,29.6574124
70,Одесская улица,3300,46.8411128,29.6567560
68,Одесская улица,3300,46.8405895,29.6567159
21/2,Западный переулок,3300,46.8427537,29.5651115
21/3,Западный переулок,3300,46.8432861,29.5652908
11,Гвардейская улица,3300,46.8400873,29.5665824
50,Гвардейская улица,3300,46.8392935,29.5694647
10,Советская улица,3300,46.8302066,29.5697799
19а,улица Юности,3300,46.8381324,29.6643152
9,Комсомольская улица,3300,46.8404736,29.6682497
74,Краснодонская улица,3300,46.8390925,29.6730720
11,Каховская улица,3300,46.8354230,29.6595816
88/4,Одесская улица,3300,46.8419040,29.6685366
10,Каховская улица,3300,46.8363733,29.6579855
6,Каховская улица,3300,46.8380626,29.6567769
82/5,Одесская улица,3300,46.8412236,29.6636915
78/4,Одесская улица,3300,46.8420065,29.6593582
4,Каховская улица,3300,46.8394615,29.6558800
51/3,Краснодонская улица,3300,46.8412260,29.6703620
44,Краснодонская улица,3300,46.8369028,29.6678656
5,Каховская улица,MD-3300,46.8372015,29.6581762
6,Комсомольская улица,3300,46.8395574,29.6665171
17,улица Юности,3300,46.8381623,29.6624167
15/2,Каховская улица,3300,46.8343051,29.6607017
10/2,улица Юности,3300,46.8371858,29.6613332
10/2,Комсомольская улица,3300,46.8381609,29.6674015
17/4,улица Юности,3300,46.8389231,29.6636787
2/2,Комсомольская улица,3300,46.8407537,29.6658227
53/2,Краснодонская улица,3300,46.8414396,29.6717669
49/1,Краснодонская улица,3300,46.8394588,29.6699417
10/4,улица Юности,3300,46.8362374,29.6604434
23,улица Юности,3300,46.8371035,29.6651312
7,Каховская улица,3300,46.8365215,29.6585995
42,Краснодонская улица,3300,46.8363097,29.6674989
17/2,улица Юности,3300,46.8391445,29.6627424
80/7,Одесская улица,3300,46.8420437,29.6610523
84/4,Одесская улица,3300,46.8412787,29.6650812
35,улица 20 Партсъезда,3300,46.8350696,29.6564595
4/2,Комсомольская улица,3300,46.8399829,29.6662296
9/1,Каховская улица,3300,46.8360188,29.6591225
14/1,улица Юности,3300,46.8367710,29.6631804
27,улица Юности,3300,46.8360617,29.6669095
18/1,улица Юности,3300,46.8361692,29.6644518
13/3,улица Юности,3300,46.8409779,29.6623051
90,Одесская улица,3300,46.8419059,29.6695786
8,Каховская улица,3300,46.8369899,29.6575494
15/1,Каховская улица,3300,46.8341619,29.6602283
48,Краснодонская улица,3300,46.8374472,29.6686030
12/1,улица Юности,3300,46.8369622,29.6621490
90А,Одесская улица,3300,46.8415774,29.6698237
2/1,Комсомольская улица,3300,46.8409299,29.6664196
12/2,улица Юности,3300,46.8366836,29.6618494
13/4,Каховская улица,3300,46.8358583,29.6610452
25,улица Юности,3300,46.8365075,29.6652871
13/1,Каховская улица,3300,46.8347981,29.6599728
76/2,Одесская улица,3300,46.8418274,29.6587958
8/2,Комсомольская улица,3300,46.8388923,29.6669962
88/3,Одесская улица,3300,46.8417930,29.6678373
13/2,Каховская улица,3300,46.8352537,29.6604462
18,Каховская улица,3300,46.8339440,29.6596502
78/5,Одесская улица,3300,46.8420445,29.6600159
14,Комсомольская улица,3300,46.8376121,29.6673669
10/1,Комсомольская улица,3300,46.8382941,29.6684288
7,Комсомольская улица,3300,46.8410656,29.6675565
82/6,Одесская улица,3300,46.8413109,29.6642906
14,Каховская улица,3300,46.8351225,29.6586798
51/2,Краснодонская улица,3300,46.8407579,29.6709561
80,Краснодонская улица,3300,46.8394857,29.6738957
8/1,Комсомольская улица,3300,46.8390757,29.6676025
8/1,улица Юности,3300,46.8378563,29.6608692
4,Комсомольская улица,3300,46.8401940,29.6672170
82/4,Одесская улица,3300,46.8413122,29.6630099
53/1,Краснодонская улица,3300,46.8409032,29.6715125
5,Комсомольская улица,3300,46.8397782,29.6689645
8/3,улица Юности,3300,46.8371793,29.6602367
19,улица Юности,3300,46.8377712,29.6632619
15/3,Каховская улица,3300,46.8344771,29.6612212
29,улица Юности,3300,46.8357057,29.6670466
12/3,улица Юности,3300,46.8364028,29.6615730
12,Каховская улица,3300,46.8357354,29.6582520
17/3,улица Юности,3300,46.8387125,29.6632231
2/3,Комсомольская улица,3300,46.8405724,29.6652351
49/2,Краснодонская улица,3300,46.8399989,29.6701700
74,улица Курчатова,3300,46.8357549,29.6573422
21,улица Юности,3300,46.8369725,29.6643080
88/1,Одесская улица,3300,46.8416673,29.6671373
8/2,улица Юности,3300,46.8374687,29.6605048
16,Каховская улица,3300,46.8345061,29.6591099
18/2,улица Юности,3300,46.8358429,29.6641645
8/4,улица Юности,3300,46.8368584,29.6599603
80/4,Одесская улица,3300,46.8414406,29.6610861
12,Комсомольская улица,3300,46.8378257,29.6680937
46,Краснодонская улица,3300,46.8367882,29.6687809
9/3,Каховская улица,3300,46.8365982,29.6596926
80/5,Одесская улица,3300,46.8415911,29.6616379
10,улица Юности,3300,46.8374429,29.6617636
88/2,Одесская улица,3300,46.8418526,29.6673854
80/6,Одесская улица,3300,46.8417379,29.6621515
58,Краснодонская улица,3300,46.8411860,29.6733906
11,Комсомольская улица,3300,46.8396263,29.6684556
14/2,улица Юности,3300,46.8362487,29.6632265
8/3,Комсомольская улица,3300,46.8387118,29.6663993
15/3,улица Юности,3300,46.8388666,29.6621371
84,Краснодонская улица,3300,46.8407663,29.6739796
43,Краснодонская улица,3300,46.8366429,29.6664381
76,Одесская улица,3300,46.8424621,29.6578910
15,улица Юности,3300,46.8385663,29.6615518
10/3,улица Юности,3300,46.8367332,29.6608085
1,Комсомольская улица,3300,46.8412175,29.6680717
13/3,Каховская улица,3300,46.8355832,29.6607645
49/3,Краснодонская улица,3300,46.8404515,29.6695500
9/2,Каховская улица,3300,46.8363055,29.6594396
51/1,Краснодонская улица,3300,46.8402058,29.6707462
56,Краснодонская улица,3300,46.8402210,29.6726400
52,Краснодонская улица,3300,46.8390207,29.6712993
2/2,улица Юности,3300,46.8386038,29.6583848
35,Краснодонская улица,MD-3300,46.8344845,29.6639434
40а,Краснодонская улица,3300,46.8337556,29.6654457
37,Краснодонская улица,MD-3300,46.8348269,29.6642544
4/2,улица Юности,3300,46.8380716,29.6592122
20,улица Юности,3300,46.8351990,29.6663614
39,Краснодонская улица,3300,46.8351369,29.6645518
36,Краснодонская улица,MD-3300,46.8337742,29.6644314
4/3,улица Юности,3300,46.8378146,29.6589298
19,Каховская улица,3300,46.8325018,29.6618835
33,Краснодонская улица,MD-3300,46.8341683,29.6636382
2/3,улица Юности,3300,46.8383271,29.6581322
40,Краснодонская улица,3300,46.8345025,29.6660575
4/1,улица Юности,3300,46.8384378,29.6595906
3,Каховская улица,3300,46.8379008,29.6576886
4а,Каховская улица,3300,46.8386379,29.6558224
34,Краснодонская улица,3300,46.8329348,29.6631777
32,улица Юности,3300,46.8340462,29.6686184
26,улица Юности,3300,46.8346000,29.6676788
13/1,улица Юности,3300,46.8401199,29.6625899
48,улица Юности,3300,46.8328654,29.6691908
46,улица Юности,3300,46.8325021,29.6695406
64/1,Краснодонская улица,3300,46.8365859,29.6750890
94,Одесская улица,3300,46.8417764,29.6724207
2,улица Милева,3300,46.8334894,29.6724085
31,улица Юности,3300,46.8359469,29.6682025
37,улица Юности,3300,46.8343160,29.6712951
6а,Каховская улица,3300,46.8372760,29.6567424
39,улица Юности,3300,46.8340654,29.6723185
4/4,Комсомольская улица,3300,46.8394337,29.6635621
20,Каховская улица,3300,46.8334641,29.6597421
40,улица Юности,3300,46.8334744,29.6700647
58,улица Юности,3300,46.8320635,29.6712702
58/2,улица Юности,3300,46.8322183,29.6706414
58/1,улица Юности,3300,46.8315250,29.6707454
47,улица Юности,3300,46.8337568,29.6756575
34,улица Юности,3300,46.8336684,29.6682491
28,улица Юности,3300,46.8341093,29.6672907
50,улица Юности,3300,46.8332568,29.6694707
53,улица Юности,3300,46.8326364,29.6753722
36/11,Краснодонская улица,3300,46.8316953,29.6672013
58/3,улица Юности,MD-3300,46.8314364,29.6697026
60/3,улица Юности,3300,46.8310073,29.6676895
36/1,Краснодонская улица,3300,46.8333773,29.6649388
60/1,улица Юности,3300,46.8302989,29.6683796
36/21,Краснодонская улица,3300,46.8304706,29.6661758
36/7,Краснодонская улица,3300,46.8327073,29.6655140
36/15,Краснодонская улица,3300,46.8314439,29.6651015
60/2,улица Юности,3300,46.8305546,29.6673900
36/17,Краснодонская улица,3300,46.8309011,29.6657766
36/9,Краснодонская улица,3300,46.8319896,29.6657943
36/23,Краснодонская улица,3300,46.8312962,29.6664968
36/25,Краснодонская улица,3300,46.8309424,29.6667438
34/6,Краснодонская улица,3300,46.8319056,29.6641291
36/13,Краснодонская улица,3300,46.8314764,29.6657095
58/4,улица Юности,3300,46.8309196,29.6690235
34/2,Краснодонская улица,3300,46.8323632,29.6633921
36/3,Краснодонская улица,3300,46.8331259,29.6645441
21,Каховская улица,3300,46.8320610,29.6621692
34/4,Краснодонская улица,3300,46.8318014,29.6632466
13/5,Каховская улица,3300,46.8354697,29.6615623
14,улица Юности,MD-3300,46.8362212,29.6623538
16,улица Юности,MD-3300,46.8354071,29.6630991
24/3,улица Текстильщиков,3300,46.8447021,29.6533761
24/4,улица Текстильщиков,3300,46.8445487,29.6540628
24/5,улица Текстильщиков,3300,46.8443952,29.6547469
31,Краснодонская улица,3300,46.8338427,29.6636080
31,улица Комарова,3300,46.8415713,29.6501261
36/19,Краснодонская улица,3300,46.8302082,29.6651984
103а,Одесская улица,3300,46.8397963,29.6504403
11,улица Космонавтов,3300,46.8466703,29.6065390
12Б,улица Клары Цеткин,3300,46.8479689,29.6066043
32,улица Федько,3300,46.8360733,29.5923982
41,улица Космонавтов,3300,46.8474273,29.6072771
14А,улица Клары Цеткин,3300,46.8479123,29.6051430
34,улица Федько,3300,46.8357965,29.5929121
1,улица 25 Октября,3300,46.8351668,29.5938752
51,переулок Чкалова,3300,46.8469367,29.6085366
37,улица Космонавтов,3300,46.8473991,29.6066388
3,улица 25 Октября,3300,46.8357398,29.5937575
29,улица Космонавтов,3300,46.8471026,29.6069890
10,улица Правды,3300,46.8357539,29.5944570
14/2,улица Клары Цеткин,3300,46.8479173,29.6042222
18,улица Пушкина,3300,46.8371485,29.6042798
39,улица Космонавтов,3300,46.8474107,29.6069667
31,улица Космонавтов,3300,46.8471069,29.6073018
12,улица Правды,3300,46.8354157,29.5950530
11,улица Пушкина,3300,46.8366447,29.6048058
1,улица Фурманова,3300,46.8373077,29.6417367
20,Комсомольская улица,3300,46.8370974,29.6702048
22,Комсомольская улица,3300,46.8368549,29.6707369
50/2,Комсомольская улица,3300,46.8363341,29.6712667
18,Комсомольская улица,3300,46.8365381,29.6699832
7,улица Милева,3300,46.8349540,29.6748136
6,переулок Труда,MD3300,46.8368200,29.6370718
4,улица Полецкого,3300,46.8346358,29.6380969
6,улица Полецкого,3300,46.8349425,29.6384288
8,улица Полецкого,3300,46.8352103,29.6387597
3,переулок Короленко,3300,46.8361583,29.6369710
2,переулок Короленко,3300,46.8349716,29.6363134
40,улица Мира,3300,46.8354969,29.6393932
1,переулок Свердлова,3300,46.8342900,29.6376906
82,улица Свердлова,3300,46.8350799,29.6299893
56,улица Свердлова,3300,46.8350352,29.6238984
63,улица Восстания,3300,46.8343793,29.6243700
18,улица Манойлова,3300,46.8336445,29.6228720
7,улица Ленина,3300,46.8337104,29.6244974
58,улица Свердлова,3300,46.8347641,29.6240616
50,улица Восстания,3300,46.8339326,29.6247640
37,улица Горького,3300,46.8332021,29.6234171
46,улица Восстания,3300,46.8338371,29.6236063
9,улица Ленина,3300,46.8347275,29.6245821
9А,улица Ленина,MD-3300,46.8342906,29.6246848
95,улица 25 Октября,3300,46.8370644,29.6243965
28,улица Манойлова,3300,46.8356665,29.6227877
28,улица Луначарского,3300,46.8368698,29.6179095
29,улица Котовского,3300,46.8369365,29.6194148
32,улица Луначарского,3300,46.8377438,29.6181448
73,улица 25 Октября,3300,46.8369773,29.6186378
36,улица Манойлова,3300,46.8375105,29.6227371
23,улица Манойлова,3300,46.8368694,29.6218987
93,улица Карла Маркса,3300,46.8391225,29.6163554
13,улица Ленина,3300,46.8351745,29.6246676
76,улица Свердлова,3300,46.8347246,29.6276692
73,улица Розы Люксембург,3300,46.8384454,29.6261621
3,переулок 8 Марта,3300,46.8377799,29.6276974
24,улица Ленина,3300,46.8374329,29.6250883
97,улица 25 Октября,3300,46.8371137,29.6253851
149,улица Карла Маркса,3300,46.8393358,29.6238623
21,улица Ленина,3300,46.8394128,29.6244197
38,улица Котовского,3300,46.8409733,29.6198872
102,улица 25 Октября,3300,46.8362213,29.6216133
25,улица Свердлова,3300,46.8353611,29.6193435
94,улица 25 Октября,3300,46.8360515,29.6193856
42,улица Манойлова,3300,46.8386531,29.6224230
23,улица Котовского,3300,46.8353710,29.6196422
66,улица Розы Люксембург,3300,46.8376761,29.6238300
11,улица Луначарского,3300,46.8328322,29.6171977
1А,улица Полецкого,3300,46.8355595,29.6382755
84/1,Одесская улица,3300,46.8421263,29.6651207
86/1,Одесская улица,3300,46.8425822,29.6630268
81,улица Шевченко,3300,46.8440238,29.6135292
81/14,улица Шевченко,3300,46.8451351,29.6128206
81/10,улица Шевченко,3300,46.8448724,29.6136773
81/9,улица Шевченко,3300,46.8444569,29.6137612
81/11,улица Шевченко,3300,46.8452200,29.6135909
3,Днестровский переулок,3300,46.8372662,29.6048372
191,улица Карла Либкнехта,3300,46.8400259,29.5971269
20,улица Пушкина,3300,46.8374165,29.6033883
1,улица Лермонтова,3300,46.8434115,29.6393167
21/1,улица Мира,3300,46.8394304,29.6341635
7,улица Федько,3300,46.8362030,29.5868921
4а,улица Федько,3300,46.8352971,29.5848080
28А,улица Федько,3300,46.8351116,29.5927402
1,переулок Раевского,3300,46.8365597,29.5849606
3,переулок Раевского,3300,46.8361192,29.5853445
14,улица Правды,3300,46.8358259,29.5950372
16,улица Правды,3300,46.8356871,29.5953611
31,улица Правды,3300,46.8361024,29.5959576
9а,улица Федько,3300,46.8365275,29.5912172
1,улица Карла Маркса,3300,46.8385278,29.5965406
5,улица Крупской,3300,46.8395110,29.5893033
75,улица Калинина,3300,46.8547997,29.6372211
72,улица Строителей,3300,46.8554144,29.6378032
66,улица Калинина,3300,46.8543641,29.6358472
4А,улица Гоголя,3300,46.8548916,29.6341710
64,улица Калинина,3300,46.8546672,29.6354469
62,улица Калинина,3300,46.8548720,29.6349036
53,улица Калинина,3300,46.8550745,29.6354475
70,улица Строителей,3300,46.8557952,29.6369490
77,улица Калинина,3300,46.8547068,29.6378567
66/1,улица Сакриера,3300,46.8528851,29.6364305
2,улица Чехова,3300,46.8546419,29.6388825
2,Вокзальный переулок,3300,46.8461286,29.6269068
48,улица Ленина,3300,46.8461030,29.6291007
46,улица Ленина,3300,46.8453770,29.6263109
49,улица Ленина,3300,46.8460521,29.6260537
123,улица 9 Января,3300,46.8434908,29.6159590
121,улица 9 Января,3300,46.8437782,29.6159510
33,улица Юности,3300,46.8352347,29.6694830
1а,переулок Свердлова,3300,46.8351271,29.6374308
2А,переулок Труда,3300,46.8355672,29.6357537
149,улица Чапаева,3300,46.8323598,29.6519751
143,улица Чапаева,3300,46.8342828,29.6504446
14,улица Шевченко,3300,46.8356229,29.6154935
142а,улица Чапаева,3300,46.8320999,29.6515447
76,улица 25 Октября,3300,46.8359046,29.6155789
11А,улица Пушкина,3300,46.8366899,29.6040331
41,улица Восстания,3300,46.8342792,29.6205111
12В,улица Шевченко,3300,46.8353973,29.6155271
19,улица Луначарского,3300,46.8352871,29.6172284
45,улица Свердлова,MD-3300,46.8357716,29.6240336
89,улица 28 Июня,3300,46.8393956,29.5717025
45,улица Ларионова,3300,46.8295252,29.6312288
43,улица Ларионова,3300,46.8298599,29.6314167
62,улица 1 Мая,3300,46.8309651,29.6307396
72,улица Свердлова,3300,46.8346401,29.6266510
39,улица Ларионова,3300,46.8297759,29.6297356
41,улица Ларионова,3300,46.8293422,29.6304747
35,улица Ларионова,3300,46.8295895,29.6287217
37,улица Ларионова,3300,46.8292695,29.6292611
1,бульвар Гагарина,3300,46.8382232,29.6305090
55,улица Ларионова,3300,46.8296142,29.6327316
51,улица Ларионова,3300,46.8301763,29.6323768
19/5,Западный переулок,3300,46.8443813,29.5624564
19/7,Западный переулок,3300,46.8446398,29.5634453
19/3,Западный переулок,3300,46.8437756,29.5640924
50/20,улица Мира,3300,46.8261477,29.6473173
1/3,улица Ленина,3300,46.8307878,29.6243067
50/33,улица Мира,3300,46.8274175,29.6467855
50/22,улица Мира,3300,46.8267320,29.6468117
79,улица 1 Мая,3300,46.8323790,29.6300127
57,улица Восстания,3300,46.8342735,29.6228901
121,улица 28 Июня,3300,46.8407405,29.5757981
123,улица 28 Июня,3300,46.8411107,29.5754687
21,улица Космонавтов,3300,46.8467998,29.6073449
83,улица Шевченко,3300,46.8465935,29.6131258
137А,улица Карла Либкнехта,3300,46.8377839,29.5757793
113,улица 28 Июня,3300,46.8400496,29.5757655
34,улица Ленина,3300,46.8398308,29.6252888
125,улица 28 Июня,3300,46.8413478,29.5767526
120,улица Дружбы,3300,46.8380531,29.5762272
81А,Советская улица,3300,46.8413520,29.6128397
333,улица Карла Либкнехта,3300,46.8403288,29.6174573
147,улица Чапаева,3300,46.8326517,29.6513561
145а,улица Чапаева,3300,46.8336623,29.6507804
54,улица Сакриера,3300,46.8535353,29.6338629
2,улица Гоголя,3300,46.8535570,29.6335289
5,улица Ленина,3300,46.8325556,29.6248536
52,улица 1 Мая,3300,46.8312981,29.6247285
52,улица 1 Мая,3300,46.8314213,29.6242743
1/2,улица Ленина,3300,46.8301749,29.6247570
145в,улица Чапаева,3300,46.8332754,29.6514666
17,улица Луначарского,3300,46.8347057,29.6172849
13,Днестровский переулок,3300,46.8392508,29.6047110
19,Гвардейская улица,3300,46.8410031,29.5705713
21,Гвардейская улица,3300,46.8410589,29.5712015
46,улица 28 Июня,3300,46.8379314,29.5681395
17/5,Западный переулок,3300,46.8438258,29.5623797
17/1,Западный переулок,3300,46.8424598,29.5627355
23,Совхозный переулок,3300,46.8299835,29.5728289
17/4,Западный переулок,3300,46.8432133,29.5622448
50,улица 20 Партсъезда,3300,46.8357265,29.6546461
19/1,Западный переулок,3300,46.8432012,29.5630005
15,улица 20 Партсъезда,3300,46.8370225,29.6541450
15а,улица 20 Партсъезда,3300,46.8374923,29.6542879
13,Совхозный переулок,3300,46.8298582,29.5744198
19,Западный переулок,3300,46.8426333,29.5637775
1,Каховская улица,MD-3300,46.8388353,29.6577247
55,улица Юности,3300,46.8324901,29.6741515
62,улица Юности,3300,46.8323068,29.6727816
64,улица Юности,3300,46.8320552,29.6731495
66,улица Юности,3300,46.8316482,29.6727118
68,улица Юности,3300,46.8316179,29.6723029
74,улица Юности,3300,46.8310679,29.6741890
78,Одесская улица,3300,46.8430667,29.6592037
80,Одесская улица,3300,46.8425279,29.6613676
84,Одесская улица,3300,46.8417860,29.6651300
82,Одесская улица,3300,46.8421459,29.6632464
92,Одесская улица,3300,46.8418675,29.6708746
9,улица Милева,3300,46.8357236,29.6751900
24,улица Юности,3300,46.8345212,29.6669823
30,улица Юности,3300,46.8340808,29.6679580
36,улица Юности,3300,46.8336071,29.6689479
42,улица Юности,3300,46.8328521,29.6705502
44,улица Юности,3300,46.8325913,29.6700991
35,улица Юности,3300,46.8339291,29.6712614
64,Краснодонская улица,3300,46.8369583,29.6743012
50,Краснодонская улица,3300,46.8376753,29.6712145
70,Краснодонская улица,3300,46.8377277,29.6743012
72,Краснодонская улица,3300,46.8384065,29.6737788
82,Краснодонская улица,3300,46.8401277,29.6735177
5,переулок Христофорова,3300,46.8358387,29.6000258
15,улица 25 Октября,MD-3300,46.8356241,29.5992743
15/4,Каховская улица,3300,46.8343631,29.6620541
50B,Краснодонская улица,3300,46.8377182,29.6703684
93,улица Карла Либкнехта,3300,46.8371832,29.5714208
95,улица Карла Либкнехта,3300,46.8371457,29.5716418
119,улица 28 Июня,3300,46.8406517,29.5763819
58а,улица 20 Партсъезда,3300,46.8350182,29.6554024
22а,Заречная улица,3300,46.8345635,29.6539494
5/A,улица Курчатова,3300,46.8364486,29.6565337
70/1,Одесская улица,3300,46.8414195,29.6565613
6/2,улица Юности,3300,46.8377589,29.6598236
19/6,Западный переулок,3300,46.8446242,29.5627498
8А,Кирпичный проезд,3300,46.8461412,29.6041501
12,Магистральный проезд,3300,46.8448324,29.6724875
14,Магистральный проезд,3300,46.8442449,29.6722559
51,улица Юности,3300,46.8329370,29.6745788
1,улица Милева,3300,46.8315264,29.6715566
73,улица Курчатова,3300,46.8330891,29.6598038
22,Каховская улица,3300,46.8328839,29.6603809
150,улица Кутузова,3300,46.8327163,29.6521540
44,улица Мира,3300,46.8345646,29.6404706
81В,улица Шевченко,3300,46.8465836,29.6123001
83А,улица Шевченко,3300,46.8463359,29.6123033
11,улица Крупской,3300,46.8401309,29.5892443
3,улица Клары Цеткин,3300,46.8474842,29.6061335
14,улица Клары Цеткин,3300,46.8481442,29.6050171
10,улица Клары Цеткин,3300,46.8480699,29.6075976
165А,улица Карла Либкнехта,3300,46.8390045,29.5903979
5,улица Карла Маркса,3300,46.8381447,29.6002687
2,улица Карла Маркса,3300,46.8377237,29.5986097
19,улица 25 Октября,3300,46.8358252,29.6010239
81,улица Карла Маркса,3300,46.8390146,29.6142964
7/2,Каховская улица,MD-3300,46.8373302,29.6589654
56,улица Сакриера,3300,46.8534681,29.6341563
57,улица Сакриера,3300,46.8536998,29.6354921
59,улица Сакриера,3300,46.8538789,29.6363675
68,улица Сакриера,3300,46.8526882,29.6354140
15А,Украинская улица,3300,46.8651457,29.6255330
104,улица Шевченко,3300,46.8677495,29.6110245
73,улица Калинина,3300,46.8548456,29.6367260
24,улица Христо Ботева,3300,46.8633064,29.6281184
22,улица Христо Ботева,3300,46.8638165,29.6271154
8,Украинская улица,3300,46.8638305,29.6263571
6,Украинская улица,3300,46.8633565,29.6264139
30,улица Зелинского,3300,46.8642672,29.6314225
19,улица Космонавтов,3300,46.8467629,29.6070310
6,Советская улица,3300,46.8299721,29.5655072
38,улица Шевченко,3300,46.8404752,29.6150606
21,улица Луначарского,3300,46.8356274,29.6171839
13,улица Луначарского,3300,46.8340230,29.6173609
5,улица Восстания,3300,46.8339473,29.6161772
4,улица Восстания,3300,46.8332561,29.6183947
6,улица Котовского,3300,46.8334604,29.6204794
8,улица Котовского,3300,46.8337341,29.6204695
16,улица Котовского,3300,46.8349375,29.6203525
31,улица Котовского,3300,46.8374261,29.6195689
4,Вокзальный переулок,3300,46.8465050,29.6264211
135,Советская улица,3300,46.8420522,29.6243505
7/1,улица Ленина,3300,46.8333646,29.6246748
33,улица 1 Мая,3300,46.8318167,29.6243817
53,улица Горького,3300,46.8335996,29.6263360
97А,улица 25 Октября,3300,46.8369835,29.6259803
397,улица Карла Либкнехта,3300,46.8409326,29.6306221
105,улица 25 Октября,3300,46.8374039,29.6300358
9А,переулок Клары Цеткин,3300,46.8488309,29.5991738
144,улица Карла Либкнехта,3300,46.8378689,29.5886464
38,улица Ленина,3300,46.8416463,29.6265711
11,улица Федько,3300,46.8363272,29.5904443
31А,Гвардейская улица,3300,46.8410964,29.5719540
1,Вокзальный переулок,3300,46.8464450,29.6257317
171,улица Карла Либкнехта,3300,46.8391077,29.5925163
173А,улица Карла Либкнехта,3300,46.8391278,29.5929902
10,Магистральный проезд,3300,46.8449081,29.6711576
10a,Магистральный проезд,3300,46.8445191,29.6711966
62А,улица Шевченко,3300,46.8443396,29.6152612
80,улица Шевченко,3300,46.8486788,29.6150237
4,улица Клары Цеткин,3300,46.8481744,29.6101672
4,улица Клары Цеткин,3300,46.8499085,29.6089930
14,улица Клары Цеткин,3300,46.8495142,29.6043048
1,переулок Цвигуненко,3300,46.8455850,29.6223001
127А,улица 9 Января,3300,46.8433886,29.6176258
70,улица Манойлова,3300,46.8478412,29.6224738
15А,Украинская улица,3300,46.8650207,29.6250719
7Б,улица Шутова,3300,46.8654289,29.6212772
3,улица Шутова,3300,46.8645327,29.6142144
5,улица Шутова,3300,46.8642102,29.6154359
5А,улица Шутова,3300,46.8645536,29.6159232
1,улица Сакриера,3300,46.8570707,29.6167626
3,Одесское шоссе,3300,46.8422948,29.6840890
3,Одесское шоссе,3300,46.8423244,29.6845393
80,улица Карла Либкнехта,3300,46.8358346,29.5760442
17/1,Каховская улица,3300,46.8329244,29.6614911
3а,улица Крупской,3300,46.8388091,29.5888588
66а,Одесская улица,3300,46.8396124,29.6546993
192,улица 9 Января,3300,46.8424270,29.6242779
3,улица Сакриера,MD-3300,46.8563393,29.6244278
94а,улица Шевченко,3300,46.8662086,29.6135927
104,улица Шевченко,3300,46.8676965,29.6125404
3в,улица Шутова,3300,46.8638018,29.6131595
9,проезд Монтажников,3300,46.8519333,29.6591666
20,Гребеницкий проезд,3300,46.8693523,29.6537131
3,Октябрьский проезд,3300,46.8595975,29.6488422
95/9,улица Шевченко,3300,46.8546523,29.6097878
2а,проезд Монтажников,3300,46.8474995,29.6598631
3,проезд Монтажников,3300,46.8481936,29.6585671
5,проезд Монтажников,3300,46.8484364,29.6585860
7,проезд Монтажников,3300,46.8491654,29.6586871
127,1-й Тракторный переулок,3300,46.8470506,29.5771302
17/3,Западный переулок,3300,46.8429808,29.5618863
95/9,улица Шевченко,3300,46.8547832,29.6109505
2Б,улица 95-й Молдавской Дивизии,3300,46.8314052,29.6010474
138,улица 9 Января,3300,46.8423387,29.6126166
1/2,улица Карла Либкнехта,3300,46.8421795,29.5600729
1/2,улица Карла Либкнехта,3300,46.8414080,29.5600604
86,улица Шевченко,3300,46.8591053,29.6177492
90,улица Шевченко,3300,46.8608970,29.6128310
15,Украинская улица,3300,46.8660991,29.6243707
50,улица Мира,3300,46.8285861,29.6431154
139,улица 9 Января,3300,46.8430063,29.6193274
50/39,улица Мира,3300,46.8266091,29.6475113
377,улица Карла Либкнехта,3300,46.8406277,29.6211784
52,улица Сакриера,3300,46.8537336,29.6330364
192,улица 9 Января,3300,46.8422140,29.6232907
2,Одесский переулок,3300,46.8384566,29.6451507
60/4,улица Юности,3300,46.8307802,29.6684051
1/1,улица Ленина,3300,46.8296914,29.6248314
2А,переулок Раевского,3300,46.8358406,29.5838779
1Б,улица Карла Маркса,3300,46.8380027,29.5964003
14,улица Мира,3300,46.8399146,29.6320018
38,Краснодонская улица,3300,46.8347469,29.6654681
19а,улица Юности,3300,46.8380326,29.6644518
4/3,Комсомольская улица,3300,46.8393214,29.6647694
1/1,Комсомольская улица,3300,46.8410370,29.6691972
16,улица Юности,MD-3300,46.8354268,29.6629838
118,улица Карла Маркса,3300,46.8383799,29.6188068
60,улица 1 Мая,3300,46.8311658,29.6292352
62,улица 1 Мая,3300,46.8307025,29.6307786
2,переулок Бочковского,3300,46.8366120,29.6084481
59,Советская улица,3300,46.8415315,29.6106976
14,улица Космонавтов,3300,46.8459843,29.6051851
2А,улица 9 Января,3300,46.8441102,29.5992075
14,улица Карла Маркса,3300,46.8377064,29.6017119
11,улица Федько,3300,46.8364311,29.5910255
5,улица Федько,3300,46.8365419,29.5886261
46,улица 28 Июня,3300,46.8379851,29.5682645
42,улица Суворова,3300,46.8432366,29.6100083
17,улица Калинина,3300,46.8573263,29.6285850
18,улица Мира,3300,46.8392702,29.6325585
25,улица Шевченко,3300,46.8376617,29.6144163
44,улица 25 Октября,3300,46.8354594,29.6059539
42,улица 25 Октября,3300,46.8354926,29.6054676
6,улица Шутова,3300,46.8624158,29.6160302
57,улица Профсоюзов,3300,46.8500100,29.6394741
15,улица Пушкина,3300,46.8366314,29.6022439
6,переулок Христофорова,3300,46.8361008,29.6010355
26,улица Пушкина,3300,46.8370283,29.6013852
16,улица Карла Маркса,3300,46.8379454,29.6030181
49,Одесская улица,3300,46.8334131,29.6413705
18,Днестровский переулок,3300,46.8389044,29.6053220
26,улица Карла Маркса,3300,46.8379885,29.6049319
55,улица Карла Маркса,3300,46.8386406,29.6091393
15,улица Карла Маркса,3300,46.8382926,29.6033690
12,переулок Энгельса,3300,46.8387613,29.6028711
51,Одесская улица,3300,46.8336083,29.6416259
14,переулок Энгельса,3300,46.8389346,29.6029377
167,улица Карла Либкнехта,3300,46.8393559,29.5908760
1,переулок Панфилова,3300,46.8418559,29.5898034
15,улица Ленина,3300,46.8359619,29.6245548
23,улица Свердлова,3300,46.8353613,29.6190644
25,улица Манойлова,3300,46.8371853,29.6213303
1а,переулок Восстания,3300,46.8351598,29.6347212
2a,улица Котовского,3300,46.8320919,29.6215027
14,улица Котовского,3300,46.8346006,29.6203530
42,улица Восстания,3300,46.8338090,29.6222269
16А,улица Котовского,3300,46.8347201,29.6203640
22,переулок Восстания,3300,46.8335836,29.6367712
25,Госпитальный переулок,3300,46.8370341,29.6470873
47,улица Восстания,3300,46.8342847,29.6212132
26,переулок Восстания,3300,46.8334101,29.6371144
80,улица 25 Октября,3300,46.8359694,29.6166743
84,улица 25 Октября,3300,46.8359602,29.6171774
9,улица Луначарского,3300,46.8322992,29.6171374
114,улица Восстания,3300,46.8342503,29.6336014
76,улица Чапаева,3300,46.8373781,29.6477551
26,Одесская улица,3300,46.8378586,29.6481540
38,улица Восстания,3300,46.8338000,29.6216833
51,улица Восстания,3300,46.8342669,29.6218129
45,улица Восстания,3300,46.8341669,29.6209537
17,улица Свердлова,3300,46.8352467,29.6167622
4,улица 1 Мая,3300,46.8311263,29.6174460
1,Театральный переулок,3300,46.8339533,29.6379691
2,улица Котовского,3300,46.8316178,29.6207603
91,улица Чапаева,3300,46.8377584,29.6482701
59,улица Восстания,3300,46.8342846,29.6235102
15,улица Свердлова,3300,46.8353446,29.6162945
17,улица Карла Маркса,3300,46.8383859,29.6036750
1,улица Якира,3300,46.8503309,29.6247483
36,улица Карла Маркса,3300,46.8381296,29.6067698
24,улица Свердлова,3300,46.8348281,29.6167431
22,улица Свердлова,3300,46.8348060,29.6163329
15,улица Ильина,3300,46.8504112,29.6244919
1А,Кирпичный проезд,3300,46.8446200,29.6037896
7,Днестровский переулок,3300,46.8387399,29.6048009
2,улица Петровского,3300,46.8508610,29.6240961
3,улица Якира,3300,46.8505203,29.6249046
18,улица Клары Цеткин,3300,46.8478606,29.6023485
22А,улица Свердлова,3300,46.8344566,29.6163429
40,переулок Чкалова,3300,46.8437578,29.6093569
11,Днестровский переулок,3300,46.8390312,29.6047716
12,улица Пушкина,3300,46.8373158,29.6062529
13,улица Ильина,3300,46.8504776,29.6242286
15,улица Розы Люксембург,3300,46.8378573,29.6155500
10,улица Ломоносова,3300,46.8354303,29.5793942
4,улица Пушкина,3300,46.8373055,29.6071769
305,улица Карла Либкнехта,3300,46.8400968,29.6134979
20,улица Горького,3300,46.8319555,29.6191689
26,улица Горького,3300,46.8324935,29.6205842
16,переулок Щусева,3300,46.8415716,29.6128600
13,улица Клары Цеткин,3300,46.8474408,29.6045407
236,улица Карла Либкнехта,3300,46.8397090,29.6140059
40,улица Горького,3300,46.8325440,29.6220224
29,улица Горького,3300,46.8330067,29.6216634
7,улица Восстания,3300,46.8340756,29.6164981
81,Советская улица,3300,46.8413477,29.6132862
37а,улица Царёва,3300,46.8399168,29.6411958
10,улица Восстания,3300,46.8336049,29.6191206
18,улица Горького,3300,46.8323341,29.6190904
4,улица Шевченко,3300,46.8340699,29.6156406
49,улица Восстания,3300,46.8341756,29.6215763
18,улица Восстания,3300,46.8336505,29.6195267
81/12,улица Шевченко,3300,46.8459622,29.6133734
9,улица Котовского,3300,46.8330898,29.6198924
13,улица Горького,3300,46.8328837,29.6195782
41,улица Царёва,3300,46.8394847,29.6412281
8,улица Восстания,3300,46.8336480,29.6188917
94,улица Горького,3300,46.8330105,29.6302566
14,Плавневая улица,3300,46.8300058,29.6352356
115,улица Горького,3300,46.8336987,29.6342249
10,Плавневая улица,3300,46.8298629,29.6355501
55,улица Луначарского,3300,46.8408381,29.6167386
14,улица Тимирязева,3300,46.8307214,29.6361433
53,улица Свердлова,3300,46.8357161,29.6270647
110,улица Восстания,3300,46.8343096,29.6325445
12,Плавневая улица,3300,46.8299205,29.6353846
17,улица Тимирязева,3300,46.8306475,29.6356200
72,улица 9 Января,3300,46.8427257,29.6049654
12,Курганный переулок,3300,46.8339250,29.6325802
8,Плавневый переулок,3300,46.8290347,29.6349778
88,Советская улица,3300,46.8411139,29.6167752
16,Плавневый переулок,3300,46.8294434,29.6344983
74,улица Восстания,3300,46.8341098,29.6280063
88А,улица Восстания,3300,46.8341983,29.6294582
116,улица 1 Мая,3300,46.8318037,29.6359181
26,улица Полецкого,3300,46.8372177,29.6410483
20,улица Полецкого,3300,46.8369214,29.6406881
18,улица Полецкого,3300,46.8368074,29.6405696
33,переулок Восстания,3300,46.8337742,29.6370428
1,Клинцовский переулок,3300,46.8347437,29.6343934
24,улица Полецкого,3300,46.8371397,29.6408894
22,улица Полецкого,3300,46.8370054,29.6408428
16,улица Полецкого,3300,46.8367110,29.6404439
5,Партизанская улица,3300,46.8401243,29.5907712
10,улица Горького,3300,46.8323630,29.6181237
9А,переулок Чкалова,3300,46.8394332,29.6092657
3,улица Луначарского,3300,46.8316077,29.6176344
10,Лиманный переулок,3300,46.8410439,29.6073532
11,Лиманный переулок,3300,46.8405129,29.6070665
29,Советская улица,3300,46.8410465,29.6074990
223,улица Карла Либкнехта,3300,46.8395807,29.6020162
7А,улица Луначарского,3300,46.8322531,29.6176270
18,Советская улица,3300,46.8406491,29.6065963
5,улица Луначарского,3300,46.8318467,29.6175650
133,Советская улица,3300,46.8421999,29.6236195
70,улица Чапаева,3300,46.8383398,29.6471787
3,улица 1 Мая,3300,46.8314582,29.6182387
26,Терновский переулок,3300,46.8322071,29.5768975
2,Терновский переулок,3300,46.8326999,29.5746133
4,Терновский переулок,3300,46.8325197,29.5746402
86,переулок Труда,3300,46.8353033,29.6349365
22,улица 25 Октября,3300,46.8352638,29.6004260
37,улица Карла Либкнехта,3300,46.8363097,29.5653103
31,улица 25 Октября,3300,46.8357854,29.6027219
18,улица Мечникова,3300,46.8347624,29.5731767
27,улица Карла Маркса,3300,46.8383746,29.6042400
25,улица Карла Маркса,3300,46.8384061,29.6040049
29,улица 25 Октября,3300,46.8357524,29.6022941
34,улица Пушкина,3300,46.8369534,29.5985773
3,Терновский переулок,3300,46.8323516,29.5750273
13,Западный переулок,3300,46.8409474,29.5618456
31,улица Карла Маркса,3300,46.8384075,29.6048929
62,Советская улица,3300,46.8409425,29.6127548
12,переулок Щусева,3300,46.8408232,29.6126907
23,улица 25 Октября,3300,46.8357580,29.6016928
27,улица 25 Октября,3300,46.8358256,29.6020241
22,улица Мечникова,3300,46.8342331,29.5732393
28,улица Пушкина,3300,46.8369776,29.5999143
10,переулок Щусева,3300,46.8407145,29.6127929
5,переулок Энгельса,3300,46.8360528,29.6027590
38,улица Пушкина,3300,46.8374629,29.5984960
20,улица Мечникова,3300,46.8345116,29.5732114
8,улица Макаренко,3300,46.8345127,29.5776182
18,улица Карла Маркса,3300,46.8379634,29.6033767
24,улица 25 Октября,3300,46.8352728,29.6007047
22,улица Пушкина,3300,46.8370707,29.6019148
7,переулок Христофорова,3300,46.8370067,29.6003474
170,улица 9 Января,3300,46.8424345,29.6165687
12,переулок Христофорова,3300,46.8370546,29.6009935
227,улица Карла Либкнехта,3300,46.8395897,29.6023877
13,улица Пушкина,3300,46.8367270,29.6032675
7,1-й Водопроводный переулок,3300,46.8345895,29.5941946
2A,улица Карла Маркса,3300,46.8375999,29.5975146
13,улица 25 Октября,MD-3300,46.8355909,29.5989546
109/4,улица 25 Октября,3300,46.8384902,29.6325109
109/2,улица 25 Октября,3300,46.8382395,29.6328989
22,улица Мира,3300,46.8390849,29.6334248
109/3,улица 25 Октября,3300,46.8386316,29.6334006
6,бульвар Гагарина,3300,46.8393983,29.6312764
32,улица 25 Октября,3300,46.8353585,29.6024758
34,улица 25 Октября,3300,46.8353120,29.6026853
180,улица Карла Маркса,3300,46.8389109,29.6301756
92,Мельничный переулок,3300,46.8329886,29.6296983
6,улица Луначарского,3300,46.8316182,29.6181891
12,улица Солтыса,3300,46.8351740,29.5792817
11,Партизанская улица,3300,46.8401932,29.5913405
10,улица Луначарского,3300,46.8318039,29.6181855
15,улица Луначарского,3300,46.8343243,29.6173187
2,Молодёжный переулок,3300,46.8359509,29.5710032
99,улица Карла Либкнехта,3300,46.8370348,29.5719978
23,улица Суворова,3300,46.8437064,29.6097266
25,улица Суворова,3300,46.8437184,29.6100450
27,улица Суворова,3300,46.8437368,29.6103912
55,улица Манойлова,3300,46.8442002,29.6207626
66,улица Луначарского,3300,46.8410980,29.6172543
94,Советская улица,3300,46.8411930,29.6176980
64,улица Луначарского,3300,46.8409243,29.6172585
62,улица Луначарского,3300,46.8408395,29.6172904
60,улица Луначарского,3300,46.8407029,29.6173358
7,1-й переулок Луначарского,3300,46.8411488,29.6179727
96,Советская улица,3300,46.8412577,29.6184126
1,1-й переулок Луначарского,3300,46.8407551,29.6175502
3,1-й переулок Луначарского,3300,46.8408717,29.6179027
9,1-й переулок Луначарского,3300,46.8412815,29.6180048
347,улица Карла Либкнехта,3300,46.8403799,29.6191617
51,улица Котовского,3300,46.8403921,29.6193517
53,улица Котовского,3300,46.8404857,29.6192888
339,улица Карла Либкнехта,3300,46.8403458,29.6181322
4,1-й переулок Луначарского,3300,46.8405753,29.6179136
335,улица Карла Либкнехта,3300,46.8403020,29.6177579
2,1-й переулок Луначарского,3300,46.8405600,29.6175648
58,улица Луначарского,3300,46.8405324,29.6173285
337,улица Карла Либкнехта,3300,46.8402984,29.6179414
53,улица Луначарского,3300,46.8407412,29.6167746
323,улица Карла Либкнехта,3300,46.8402272,29.6159607
321,улица Карла Либкнехта,3300,46.8402359,29.6158072
325,улица Карла Либкнехта,3300,46.8402925,29.6162158
20,улица Шевченко,3300,46.8376649,29.6152965
22,улица Шевченко,3300,46.8379969,29.6152326
24,улица Шевченко,3300,46.8381612,29.6151994
86,улица Карла Маркса,3300,46.8385467,29.6152059
26,улица Шевченко,3300,46.8384154,29.6151997
88,улица Карла Маркса,3300,46.8385256,29.6154255
90,улица Карла Маркса,3300,46.8385034,29.6155909
92,улица Карла Маркса,3300,46.8384663,29.6157497
17,улица Розы Люксембург,3300,46.8377938,29.6157660
43,улица Восстания,3300,46.8343404,29.6209544
55,улица Восстания,3300,46.8342762,29.6222106
25,улица Горького,3300,46.8330105,29.6212563
19,улица 1 Мая,3300,46.8316094,29.6217220
17,улица 1 Мая,3300,46.8315850,29.6213401
2Б,улица Котовского,3300,46.8320547,29.6206774
48/5,улица 1 Мая,3300,46.8311498,29.6214610
10,Плавневый переулок,3300,46.8291136,29.6348384
14,Плавневый переулок,3300,46.8292846,29.6345497
12,Плавневый переулок,3300,46.8291967,29.6346888
17,Театральный переулок,3300,46.8353147,29.6397666
3,улица Фурманова,3300,46.8371524,29.6421310
5,улица Фурманова,3300,46.8370132,29.6423333
7,улица Фурманова,3300,46.8368525,29.6425755
12,улица Полецкого,3300,46.8364777,29.6401481
14,улица Полецкого,3300,46.8365951,29.6403446
14,переулок Белинского,3300,46.8338324,29.6410838
12,переулок Белинского,3300,46.8337107,29.6409398
10,переулок Белинского,3300,46.8335907,29.6407812
8,переулок Белинского,3300,46.8334517,29.6405967
61,Одесская улица,3300,46.8358371,29.6442537
3,проезд Генерала Осташенко,3300,46.8375042,29.6430201
5,проезд Генерала Осташенко,3300,46.8374164,29.6431672
1,проезд Генерала Осташенко,3300,46.8376011,29.6428210
8,улица Царёва,3300,46.8378716,29.6432115
10,улица Царёва,3300,46.8377607,29.6433954
12,улица Царёва,3300,46.8376401,29.6435540
9,улица Фурманова,3300,46.8367875,29.6428861
51,улица Царёва,3300,46.8386001,29.6429255
53,улица Царёва,3300,46.8384860,29.6428535
53,улица Царёва,3300,46.8384371,29.6429604
55,улица Царёва,3300,46.8383434,29.6431219
46,улица Полецкого,3300,46.8392568,29.6438755
44,Учительская улица,3300,46.8393289,29.6435849
41,Учительская улица,3300,46.8389569,29.6440733
55,улица Котовского,3300,46.8405810,29.6192771
57,улица Котовского,3300,46.8407696,29.6192098
98,Советская улица,3300,46.8412542,29.6186475
100,Советская улица,3300,46.8413032,29.6191851
59,улица Котовского,3300,46.8408572,29.6191556
10,1-й переулок Луначарского,3300,46.8409936,29.6184651
8,1-й переулок Луначарского,3300,46.8407999,29.6184891
63,улица Котовского,3300,46.8410740,29.6191088
14,1-й переулок Луначарского,3300,46.8412189,29.6182648
12,1-й переулок Луначарского,3300,46.8410657,29.6182190
5,1-й переулок Луначарского,3300,46.8409714,29.6179999
109,Советская улица,3300,46.8416598,29.6184150
86,Советская улица,3300,46.8411348,29.6166282
229,улица Карла Либкнехта,3300,46.8396073,29.6026137
231,улица Карла Либкнехта,3300,46.8396256,29.6028303
16,переулок Энгельса,3300,46.8391893,29.6029142
19,улица Карла Маркса,3300,46.8388234,29.6033508
182,улица Карла Либкнехта,3300,46.8391005,29.6033101
184,улица Карла Либкнехта,3300,46.8392288,29.6036305
186,улица Карла Либкнехта,3300,46.8392095,29.6038121
188,улица Карла Либкнехта,3300,46.8392148,29.6041731
190,улица Карла Либкнехта,3300,46.8392693,29.6043302
20,Днестровский переулок,3300,46.8390888,29.6053320
9,Днестровский переулок,3300,46.8388965,29.6047441
10A,переулок Энгельса,3300,46.8384401,29.6029454
10,переулок Энгельса,3300,46.8386221,29.6030612
21,улица Карла Маркса,3300,46.8387753,29.6038145
29,улица Карла Маркса,3300,46.8383581,29.6045150
20,улица Карла Маркса,3300,46.8379413,29.6036861
14,Днестровский переулок,3300,46.8384546,29.6055109
35,улица Карла Маркса,3300,46.8385640,29.6059609
194,улица Карла Либкнехта,3300,46.8393046,29.6052943
22,Днестровский переулок,3300,46.8399050,29.6050354
243,улица Карла Либкнехта,3300,46.8397611,29.6050943
245,улица Карла Либкнехта,3300,46.8396846,29.6053434
235,улица Карла Либкнехта,3300,46.8396552,29.6035824
233,улица Карла Либкнехта,3300,46.8398823,29.6032274
237,улица Карла Либкнехта,3300,46.8397046,29.6039711
5A,Днестровский переулок,3300,46.8377110,29.6048738
10,Днестровский переулок,3300,46.8376697,29.6054465
12,Днестровский переулок,3300,46.8379188,29.6054462
8,переулок Христофорова,3300,46.8363025,29.6010438
17,улица Пушкина,3300,46.8366197,29.6015876
19,улица Пушкина,3300,46.8365593,29.6012493
25,улица 25 Октября,3300,46.8359111,29.6018518
9,переулок Панфилова,3300,46.8414315,29.5891112
7,переулок Панфилова,3300,46.8410923,29.5890610
103,улица 25 Октября,3300,46.8377959,29.6296833
105A,улица 25 Октября,3300,46.8374812,29.6295980
4а,переулок 8 Марта,3300,46.8387234,29.6289603
4,переулок Короленко,3300,46.8354705,29.6369435
4,переулок Свердлова,3300,46.8351793,29.6352037
6,переулок Свердлова,3300,46.8350448,29.6354424
8,переулок Свердлова,3300,46.8348551,29.6355193
24,переулок Свердлова,3300,46.8343579,29.6366335
6,переулок Короленко,3300,46.8360332,29.6373691
1А,переулок Свердлова,3300,46.8358499,29.6378122
15,Театральный переулок,3300,46.8351667,29.6392604
2,переулок Восстания,3300,46.8348106,29.6347271
4,переулок Восстания,3300,46.8347133,29.6348940
1А,Клинцовский переулок,3300,46.8345585,29.6347600
6,переулок Восстания,3300,46.8346066,29.6350986
8,переулок Восстания,3300,46.8344657,29.6352892
3,Клинцовский переулок,3300,46.8342653,29.6351698
8,переулок Восстания,3300,46.8343765,29.6354401
10,переулок Восстания,3300,46.8342996,29.6355916
12,переулок Восстания,3300,46.8341902,29.6357055
7,Клинцовский переулок,3300,46.8339264,29.6356467
9,Клинцовский переулок,3300,46.8338136,29.6358685
11,Клинцовский переулок,3300,46.8336100,29.6361892
18,переулок Восстания,3300,46.8338698,29.6362235
24,переулок Восстания,3300,46.8335089,29.6368815
2,Клинцовский переулок,3300,46.8340942,29.6348203
117,улица Горького,3300,46.8336415,29.6345045
14,Курганный переулок,3300,46.8341213,29.6325201
76,улица Восстания,3300,46.8340642,29.6281735
78,улица Восстания,3300,46.8340542,29.6283649
72,улица Восстания,3300,46.8341396,29.6276612
80,улица Восстания,3300,46.8341721,29.6285419
82,улица Восстания,3300,46.8342038,29.6287644
86,улица Восстания,3300,46.8342043,29.6291448
84,улица Восстания,3300,46.8341650,29.6289979
50,улица Сакриера,3300,46.8538200,29.6328439
9А,Гвардейская улица,3300,46.8394903,29.5630367
6,переулок Белинского,3300,46.8333352,29.6404772
4,переулок Белинского,3300,46.8332235,29.6403174
4A,переулок Белинского,3300,46.8330849,29.6402189
35,переулок Восстания,3300,46.8336526,29.6373050
3,Театральный переулок,3300,46.8341446,29.6382931
5,Театральный переулок,3300,46.8342532,29.6384339
14,улица Мечникова,3300,46.8349992,29.5726150
33,переулок Володи Дубинина,3300,46.8353388,29.5709201
29,переулок Володи Дубинина,3300,46.8352906,29.5705699
23,переулок Володи Дубинина,3300,46.8352122,29.5698663
25,переулок Володи Дубинина,3300,46.8351920,29.5700560
27,переулок Володи Дубинина,3300,46.8352131,29.5702907
113,улица Карла Либкнехта,3300,46.8371398,29.5729558
115,улица Карла Либкнехта,3300,46.8370288,29.5730964
204,улица Карла Либкнехта,3300,46.8394388,29.6076573
206,улица Карла Либкнехта,3300,46.8394511,29.6079281
70,Советская улица,3300,46.8409586,29.6142616
85,Советская улица,3300,46.8413436,29.6141942
83,Советская улица,3300,46.8414169,29.6137200
26,переулок Щусева,3300,46.8421796,29.6126387
15,переулок Попова,3300,46.8317512,29.5731895
69,улица Горького,3300,46.8333822,29.6282725
78,улица Горького,3300,46.8328664,29.6283470
89,улица Горького,3300,46.8334767,29.6311312
21,Мельничный переулок,3300,46.8339877,29.6295400
15,Садовый переулок,3300,46.8339105,29.6272021
60,улица Восстания,3300,46.8338874,29.6255898
76,улица Горького,3300,46.8328920,29.6277148
22,Садовый переулок,3300,46.8339076,29.6277877
88A,улица Восстания,3300,46.8339894,29.6290152
13,Садовый переулок,3300,46.8337398,29.6272355
100,улица Горького,3300,46.8330088,29.6311120
98,улица Горького,3300,46.8329721,29.6308583
96,улица Горького,3300,46.8329923,29.6306467
31,улица Орджоникидзе,3300,46.8422462,29.5910523
21,переулок Серова,3300,46.8432164,29.5918786
164,улица 9 Января,3300,46.8423540,29.6157904
160,улица 9 Января,3300,46.8423185,29.6154777
162,улица 9 Января,3300,46.8423602,29.6156534
166,улица 9 Января,3300,46.8423719,29.6159502
158,улица 9 Января,3300,46.8422685,29.6153024
71,улица Луначарского,3300,46.8422839,29.6166682
69,улица Луначарского,3300,46.8421965,29.6166750
67,улица Луначарского,3300,46.8420763,29.6166625
52,улица Шевченко,3300,46.8421276,29.6148587
148,улица 9 Января,3300,46.8422893,29.6138468
134,улица 9 Января,3300,46.8423111,29.6118971
58,1-й Тракторный переулок,3300,46.8472752,29.5775013
38,улица Горького,3300,46.8325484,29.6218740
38,улица Горького,3300,46.8325206,29.6217183
42а,улица Горького,3300,46.8325947,29.6223455
36,улица Горького,3300,46.8324592,29.6215365
28,улица Горького,3300,46.8324497,29.6208434
30,улица Горького,3300,46.8325450,29.6210825
32,улица Горького,3300,46.8325307,29.6213493
3,улица Манойлова,3300,46.8322390,29.6223940
1,улица Манойлова,3300,46.8320746,29.6224098
28A,улица Карла Маркса,3300,46.8380886,29.6053957
22,улица Карла Маркса,3300,46.8379412,29.6042330
24,улица Карла Маркса,3300,46.8380234,29.6045549
105,улица Дружбы,3300,46.8381248,29.5739778
111,улица Карла Либкнехта,3300,46.8369863,29.5727837
74,улица 9 Января,3300,46.8429657,29.6054698
37,улица Ткаченко,3300,46.8426449,29.6043817
77,улица Горького,3300,46.8335069,29.6289918
73,улица Горького,3300,46.8333977,29.6286064
75,улица Горького,3300,46.8334771,29.6287176
19,Мельничный переулок,3300,46.8337121,29.6294578
116,улица Горького,3300,46.8331562,29.6331422
118,улица Горького,3300,46.8331770,29.6334422
120,улица Горького,3300,46.8331777,29.6337552
122,улица Горького,3300,46.8331285,29.6339272
124,улица Горького,3300,46.8331822,29.6341015
126,улица Горького,3300,46.8331299,29.6342042
128,улица Горького,3300,46.8331834,29.6343746
130,улица Горького,3300,46.8331240,29.6344993
132,улица Горького,3300,46.8330194,29.6346207
8,Курганный переулок,3300,46.8329174,29.6327835
114,улица Горького,3300,46.8331560,29.6327904
112,улица Горького,3300,46.8331295,29.6326141
6,Курганный переулок,3300,46.8327230,29.6327126
4,Курганный переулок,3300,46.8325339,29.6327169
2,Курганный переулок,3300,46.8324181,29.6326424
102,улица Восстания,3300,46.8342773,29.6312961
104,улица Восстания,3300,46.8342500,29.6314702
112,улица Восстания,3300,46.8342267,29.6330198
109,улица 1 Мая,3300,46.8323066,29.6335754
103,улица 1 Мая,3300,46.8322444,29.6331239
105,улица 1 Мая,3300,46.8322567,29.6332671
107,улица 1 Мая,3300,46.8322497,29.6334340
101,улица 1 Мая,3300,46.8322318,29.6329588
134,улица Горького,3300,46.8330222,29.6348373
136,улица Горького,3300,46.8329043,29.6350453
107,улица Горького,3300,46.8335445,29.6333130
88,улица Восстания,3300,46.8342574,29.6299503
115,улица Розы Люксембург,3300,46.8383050,29.6290257
174,улица Карла Маркса,3300,46.8390983,29.6291147
119,улица Розы Люксембург,3300,46.8383357,29.6295112
176,улица Карла Маркса,3300,46.8391609,29.6293131
178,улица Карла Маркса,3300,46.8391834,29.6296746
90,улица Восстания,3300,46.8342261,29.6300859
35,улица Свердлова,3300,46.8355201,29.6216320
52,улица Свердлова,3300,46.8350669,29.6226516
26,улица Манойлова,3300,46.8348764,29.6226360
54Б,улица Свердлова,3300,46.8349820,29.6229794
14,улица Пушкина,3300,46.8372551,29.6059063
40,улица Кирова,3300,46.8454814,29.5990581
31,улица Коммунаров,3300,46.8421507,29.5872624
11,улица Фурманова,3300,46.8366441,29.6430026
15,улица Фурманова,3300,46.8364479,29.6432975
7,проезд Генерала Осташенко,3300,46.8373494,29.6433460
14,улица Царёва,3300,46.8375661,29.6437540
11,проезд Генерала Осташенко,3300,46.8371426,29.6436648
9,проезд Генерала Осташенко,3300,46.8372516,29.6435920
16,улица Царёва,3300,46.8374680,29.6439720
18,улица Царёва,3300,46.8373557,29.6441790
13,проезд Генерала Осташенко,3300,46.8370923,29.6438804
15,проезд Генерала Осташенко,3300,46.8369661,29.6439744
20,улица Царёва,3300,46.8372047,29.6443035
22,улица Царёва,3300,46.8370857,29.6444997
17,проезд Генерала Осташенко,3300,46.8368467,29.6441912
77,улица Царёва,3300,46.8371537,29.6452007
79,улица Царёва,3300,46.8370236,29.6453346
75,улица Царёва,3300,46.8372797,29.6450208
24,улица Царёва,3300,46.8370247,29.6447175
17,улица Фурманова,3300,46.8363653,29.6434499
26,улица Царёва,3300,46.8368490,29.6448798
28,улица Царёва,3300,46.8368266,29.6450965
30,улица Царёва,3300,46.8366578,29.6453020
71,Одесская улица,3300,46.8365242,29.6450171
65,Одесская улица,3300,46.8361244,29.6445181
63,Одесская улица,3300,46.8359941,29.6444603
69,Одесская улица,3300,46.8363513,29.6448518
67,Одесская улица,3300,46.8362282,29.6447680
15,переулок Белинского,3300,46.8342064,29.6408583
47,Одесская улица,3300,46.8332434,29.6411600
45,Одесская улица,3300,46.8331502,29.6410647
9,переулок Свердлова,3300,46.8336613,29.6385885
41,Одесская улица,3300,46.8329770,29.6407692
39,Одесская улица,3300,46.8328118,29.6405848
2,переулок Белинского,3300,46.8328821,29.6398752
21,переулок Белинского,3300,46.8328394,29.6400534
23,переулок Свердлова,3300,46.8326939,29.6401820
37,Одесская улица,3300,46.8326180,29.6403956
13,переулок Белинского,3300,46.8339485,29.6404997
11,переулок Белинского,3300,46.8337978,29.6403602
11,переулок Чернышевского,3300,46.8343971,29.6398371
9,переулок Белинского,3300,46.8336932,29.6402500
7,переулок Белинского,3300,46.8335981,29.6400858
5,переулок Белинского,3300,46.8334297,29.6399483
3,переулок Белинского,3300,46.8332836,29.6397818
1,переулок Белинского,3300,46.8330843,29.6395197
52,переулок Свердлова,3300,46.8326021,29.6394637
56,переулок Свердлова,3300,46.8323205,29.6400265
54,переулок Свердлова,3300,46.8324951,29.6397337
35,Одесская улица,3300,46.8322774,29.6398479
33,Одесская улица,3300,46.8321311,29.6397997
55,переулок Восстания,3300,46.8323739,29.6395886
59,переулок Восстания,3300,46.8323085,29.6394930
55,переулок Восстания,3300,46.8324724,29.6392516
53,переулок Восстания,3300,46.8325836,29.6390122
11а,переулок Чернышевского,3300,46.8342246,29.6396998
7,переулок Чернышевского,3300,46.8339657,29.6393949
2,переулок Чернышевского,3300,46.8333787,29.6390938
13,переулок Свердлова,3300,46.8333522,29.6393031
15,переулок Свердлова,3300,46.8331843,29.6392574
3,переулок Чернышевского,3300,46.8337526,29.6390821
2,Театральный переулок,3300,46.8337693,29.6383426
1,переулок Чернышевского,3300,46.8335177,29.6388501
4,Театральный переулок,3300,46.8338973,29.6386730
13,Театральный переулок,3300,46.8349329,29.6392434
11,Театральный переулок,3300,46.8348295,29.6391012
9,Театральный переулок,3300,46.8346472,29.6388713
7,Театральный переулок,3300,46.8343800,29.6385970
53,переулок Восстания,3300,46.8327465,29.6388435
51,переулок Восстания,3300,46.8328764,29.6386043
48,переулок Восстания,3300,46.8319499,29.6395726
46,переулок Восстания,3300,46.8320896,29.6392405
43,Клинцовский переулок,3300,46.8319430,29.6390824
41,переулок Восстания,3300,46.8334765,29.6378038
43,переулок Восстания,3300,46.8333370,29.6378531
47,переулок Восстания,3300,46.8331268,29.6382300
45,переулок Восстания,3300,46.8332626,29.6379748
41,Клинцовский переулок,3300,46.8320688,29.6388564
118,улица Восстания,3300,46.8343476,29.6340677
122,улица Восстания,3300,46.8343514,29.6343083
103,улица Горького,3300,46.8335817,29.6328912
105,улица Горького,3300,46.8336003,29.6330950
10,Курганный переулок,3300,46.8336555,29.6326866
109,улица Горького,3300,46.8336382,29.6334921
111,улица Горького,3300,46.8336190,29.6336642
113,улица Горького,3300,46.8336338,29.6338124
1,переулок 1 Мая,3300,46.8337787,29.6348596
4,Клинцовский переулок,3300,46.8339163,29.6350497
14,Клинцовский переулок,3300,46.8334202,29.6359413
5,переулок 1 Мая,3300,46.8335709,29.6352624
3,улица Восстания,3300,46.8336731,29.6350557
6,Клинцовский переулок,3300,46.8338437,29.6352627
8,Клинцовский переулок,3300,46.8337183,29.6354707
10,Клинцовский переулок,3300,46.8336586,29.6356167
7,переулок 1 Мая,3300,46.8334456,29.6353562
9,переулок 1 Мая,3300,46.8333507,29.6355290
11,переулок 1 Мая,3300,46.8332568,29.6356990
12,Клинцовский переулок,3300,46.8335629,29.6357088
28,переулок Восстания,3300,46.8332508,29.6374013
15,Клинцовский переулок,3300,46.8333431,29.6367312
140,улица Горького,3300,46.8328681,29.6353607
138,улица Горького,3300,46.8327541,29.6351667
142,улица Горького,3300,46.8326930,29.6354689
144,улица Горького,3300,46.8327640,29.6356634
148,улица Горького,3300,46.8326058,29.6358067
146,улица Горького,3300,46.8326137,29.6356836
111,улица 1 Мая,3300,46.8322593,29.6337436
115,улица 1 Мая,3300,46.8322826,29.6340613
117,улица 1 Мая,3300,46.8323071,29.6342521
119,улица 1 Мая,3300,46.8323155,29.6345672
121,улица 1 Мая,3300,46.8322430,29.6347423
23,Клинцовский переулок,3300,46.8329902,29.6373137
30,переулок Восстания,3300,46.8331616,29.6375415
2,улица Мира,3300,46.8416804,29.6295545
57,улица Царёва,3300,46.8383202,29.6432979
59,улица Царёва,3300,46.8382230,29.6434527
61,улица Царёва,3300,46.8380961,29.6436009
15,улица Циолковского,3300,46.8428866,29.6421386
256,улица Карла Либкнехта,3300,46.8398720,29.6169104
254,улица Карла Либкнехта,3300,46.8397751,29.6165953
343,улица Карла Либкнехта,3300,46.8404352,29.6187712
317,улица Карла Либкнехта,3300,46.8402630,29.6154583
331,улица Карла Либкнехта,3300,46.8402310,29.6168252
327,улица Карла Либкнехта,3300,46.8402428,29.6165159
92,улица Восстания,3300,46.8342720,29.6302087
20,Мельничный переулок,3300,46.8340986,29.6299996
94,улица Восстания,3300,46.8342558,29.6304411
88б,улица Восстания,3300,46.8339344,29.6299935
88в,улица Восстания,3300,46.8338049,29.6300234
12,Мельничный переулок,3300,46.8337180,29.6301161
96,улица Восстания,3300,46.8342686,29.6306056
100,улица Восстания,3300,46.8343054,29.6310776
135,улица 1 Мая,3300,46.8322606,29.6367282
42,переулок Восстания,3300,46.8323606,29.6388543
108,улица Восстания,3300,46.8342607,29.6320062
106,улица Восстания,3300,46.8342768,29.6317743
13,Курганный переулок,3300,46.8339111,29.6319319
11,Курганный переулок,3300,46.8337554,29.6320323
9,Курганный переулок,3300,46.8335337,29.6320251
124,улица Восстания,3300,46.8343488,29.6344894
24,улица Манойлова,3300,46.8346396,29.6227878
22,улица Манойлова,3300,46.8345022,29.6226841
56А,улица Свердлова,3300,46.8343921,29.6235198
56А,улица Свердлова,3300,46.8345094,29.6236797
85,улица Горького,3300,46.8337222,29.6305530
87,улица Горького,3300,46.8334471,29.6307988
91,улица Горького,3300,46.8334984,29.6312571
95,улица Горького,3300,46.8334866,29.6316115
1,улица Сакриера,3300,46.8572890,29.6199576
90,улица Шевченко,3300,46.8605533,29.6128005
86,улица Шевченко,3300,46.8593348,29.6158947
8,улица Карла Маркса,3300,46.8377834,29.5992254
7,улица Шутова,3300,46.8651114,29.6183188
6,улица Шутова,3300,46.8628116,29.6158707
5А,улица Шутова,3300,46.8645821,29.6159439
6,улица Карла Маркса,3300,46.8376007,29.5993048
36,улица Пушкина,3300,46.8371324,29.5985390
32,улица Пушкина,3300,46.8369048,29.5989173
30,улица Пушкина,3300,46.8369466,29.5994371
4,улица Карла Маркса,3300,46.8376988,29.5989716
24,улица Пушкина,3300,46.8370774,29.6016721
14,улица Карла Маркса,3300,46.8377963,29.6019663
185,улица Карла Либкнехта,3300,46.8392520,29.5952265
29,улица Орджоникидзе,3300,46.8422364,29.5914481
9,2-й Бородинский переулок,3300,46.8397102,29.5952502
7,2-й Бородинский переулок,3300,46.8395049,29.5952604
144,улица 9 Января,3300,46.8422489,29.6133006
70,улица Горького,3300,46.8328102,29.6270027
72,улица Горького,3300,46.8328625,29.6271328
74,улица Горького,3300,46.8328975,29.6272996
62,улица Горького,3300,46.8327799,29.6264843
11,Мельничный переулок,3300,46.8327812,29.6296366
82,улица Горького,3300,46.8329188,29.6289525
80,улица Горького,3300,46.8329484,29.6287636
84,улица Горького,3300,46.8329671,29.6291696
88,улица Горького,3300,46.8329216,29.6293133
90,улица Горького,3300,46.8329879,29.6294782
102,улица Горького,3300,46.8330371,29.6314130
104,улица Горького,3300,46.8330586,29.6315670
106,улица Горького,3300,46.8330493,29.6317604
110,Курганный переулок,3300,46.8331029,29.6320618
68,улица Манойлова,3300,46.8466932,29.6217132
1,Садовый переулок,3300,46.8321358,29.6274401
7,Курганный переулок,3300,46.8329447,29.6320738
66,улица Горького,3300,46.8327759,29.6267696
68,улица Горького,3300,46.8328032,29.6268857
12,Садовый переулок,3300,46.8326589,29.6277804
32,переулок Восстания,3300,46.8330595,29.6377021
34,переулок Восстания,3300,46.8329607,29.6378797
27,Клинцовский переулок,3300,46.8328273,29.6376346
25,Клинцовский переулок,3300,46.8328905,29.6374663
36,переулок Восстания,3300,46.8327661,29.6380841
67,улица Горького,3300,46.8333036,29.6277308
5,Курганный переулок,3300,46.8326588,29.6320494
3,Курганный переулок,3300,46.8325323,29.6320238
1,Курганный переулок,3300,46.8321810,29.6318964
131,улица 1 Мая,3300,46.8323127,29.6361445
129,улица 1 Мая,3300,46.8323184,29.6358658
133,улица 1 Мая,3300,46.8322737,29.6363654
127,улица 1 Мая,3300,46.8322776,29.6355059
125,улица 1 Мая,3300,46.8323877,29.6351537
123,улица 1 Мая,3300,46.8324680,29.6349589
2,переулок 1 Мая,3300,46.8319055,29.6372036
29,Клинцовский переулок,3300,46.8326772,29.6378087
38,переулок Восстания,3300,46.8326742,29.6383455
31,Клинцовский переулок,3300,46.8325794,29.6379802
40,переулок Восстания,3300,46.8325717,29.6385212
37,Клинцовский переулок,3300,46.8322997,29.6384731
33,Клинцовский переулок,3300,46.8324889,29.6382050
35,Клинцовский переулок,3300,46.8323802,29.6383207
6,Садовый переулок,3300,46.8323010,29.6278167
4,Садовый переулок,3300,46.8319362,29.6278867
67,улица 1 Мая,3300,46.8320576,29.6281028
69,улица 1 Мая,3300,46.8320557,29.6284497
71,улица 1 Мая,3300,46.8321428,29.6287299
73,улица 1 Мая,3300,46.8322064,29.6289905
36,Клинцовский переулок,3300,46.8320498,29.6381697
38,Клинцовский переулок,3300,46.8319589,29.6384204
40,Клинцовский переулок,3300,46.8318185,29.6386579
42,Клинцовский переулок,3300,46.8317304,29.6388099
9,Одесская улица,3300,46.8300634,29.6372896
2,улица Мичурина,3300,46.8307271,29.6380165
19,Одесская улица,3300,46.8309728,29.6383320
65,улица Луначарского,3300,46.8418687,29.6166681
63,улица Луначарского,3300,46.8416754,29.6166853
23,переулок Тимирязева,3300,46.8313455,29.6333064
92,улица 1 Мая,3300,46.8318965,29.6332459
88,улица 1 Мая,3300,46.8318889,29.6329762
94,улица 1 Мая,3300,46.8318997,29.6335065
96,улица 1 Мая,3300,46.8318785,29.6336332
98,улица 1 Мая,3300,46.8318633,29.6338504
100,улица 1 Мая,3300,46.8318959,29.6340906
102,улица 1 Мая,3300,46.8319371,29.6342050
104,улица 1 Мая,3300,46.8318080,29.6343391
51,улица Луначарского,3300,46.8406408,29.6167954
49,улица Луначарского,3300,46.8404973,29.6168517
47,улица Луначарского,3300,46.8403732,29.6168060
59,улица Луначарского,3300,46.8410193,29.6166800
6,1-й переулок Луначарского,3300,46.8407134,29.6181504
103,Советская улица,3300,46.8416918,29.6178449
182,улица 9 Января,3300,46.8424112,29.6183469
14,улица Мичурина,3300,46.8313685,29.6369406
13,улица Мичурина,3300,46.8311362,29.6366617
11,улица Мичурина,3300,46.8310607,29.6368116
9,улица Мичурина,3300,46.8309869,29.6369659
7,улица Мичурина,3300,46.8309234,29.6370963
5,улица Мичурина,3300,46.8308227,29.6372623
15,Одесская улица,3300,46.8304679,29.6376894
3,улица Мичурина,3300,46.8307384,29.6373850
1,улица Мичурина,3300,46.8306610,29.6375229
10,улица Мичурина,3300,46.8311525,29.6373669
12,улица Мичурина,3300,46.8312530,29.6372537
8,улица Мичурина,3300,46.8310919,29.6375328
6,улица Мичурина,3300,46.8310111,29.6376669
4,улица Мичурина,3300,46.8309042,29.6378335
16,улица Тимирязева,3300,46.8309364,29.6357419
18,улица Тимирязева,3300,46.8310442,29.6355903
20,улица Тимирязева,3300,46.8311518,29.6353667
2,улица Тимирязева,3300,46.8302601,29.6370321
12,улица Тимирязева,3300,46.8306398,29.6362787
10,улица Тимирязева,3300,46.8305568,29.6364171
1,улица 1 Мая,3300,46.8314586,29.6176297
24,улица Тимирязева,3300,46.8313644,29.6350305
22,улица Тимирязева,3300,46.8312940,29.6352001
112,улица 1 Мая,3300,46.8319417,29.6351749
8,улица Тимирязева,3300,46.8305027,29.6365883
6,улица Тимирязева,3300,46.8303952,29.6367062
4,улица Тимирязева,3300,46.8303073,29.6368350
108,улица 1 Мая,3300,46.8318253,29.6346814
110,улица 1 Мая,3300,46.8317785,29.6348925
106,улица 1 Мая,3300,46.8318496,29.6345004
15,улица Тимирязева,3300,46.8304911,29.6358045
19,улица Тимирязева,3300,46.8307562,29.6352606
8,Плавневая улица,3300,46.8298200,29.6356987
13,улица Тимирязева,3300,46.8303684,29.6359060
11,улица Тимирязева,3300,46.8302836,29.6360796
9,улица Тимирязева,3300,46.8302405,29.6362302
7,улица Тимирязева,3300,46.8301703,29.6363467
6,Плавневая улица,3300,46.8297559,29.6358606
4,Плавневая улица,3300,46.8296758,29.6359745
5,улица Тимирязева,3300,46.8300545,29.6364557
3,улица Тимирязева,3300,46.8299836,29.6365944
2,Плавневая улица,3300,46.8295164,29.6360727
1,Одесская улица,3300,46.8293936,29.6363642
3,Одесская улица,3300,46.8295674,29.6365514
7,Одесская улица,3300,46.8297712,29.6368356
1,улица Тимирязева,3300,46.8299378,29.6368061
5,Одесская улица,3300,46.8296539,29.6367447
21,улица Тимирязева,3300,46.8308673,29.6351017
16а,Плавневая улица,3300,46.8299278,29.6346552
10,улица Богдана Хмельницкого,3300,46.8301784,29.6350812
5,переулок Тимирязева,3300,46.8303526,29.6347143
6,переулок Тимирязева,3300,46.8306578,29.6348037
25,улица Тимирязева,3300,46.8310471,29.6347642
23,улица Тимирязева,3300,46.8309678,29.6349208
27,улица Тимирязева,3300,46.8311319,29.6345445
29,улица Тимирязева,3300,46.8312397,29.6343853
31,улица Тимирязева,3300,46.8314266,29.6342993
8,переулок Тимирязева,3300,46.8307531,29.6346518
10,переулок Тимирязева,3300,46.8308303,29.6344624
16,переулок Тимирязева,3300,46.8311289,29.6339190
14,переулок Тимирязева,3300,46.8310263,29.6341253
12,переулок Тимирязева,3300,46.8309187,29.6342661
15,Плавневая улица,3300,46.8298379,29.6344898
16,улица Богдана Хмельницкого,3300,46.8296536,29.6343637
7,переулок Тимирязева,3300,46.8304474,29.6345704
114,улица 1 Мая,3300,46.8319965,29.6354798
18,переулок Тимирязева,3300,46.8312233,29.6337435
20,переулок Тимирязева,3300,46.8313525,29.6335431
21,переулок Тимирязева,3300,46.8311747,29.6333061
17,переулок Тимирязева,3300,46.8309619,29.6337213
15,переулок Тимирязева,3300,46.8308359,29.6338409
13,переулок Тимирязева,3300,46.8307647,29.6340645
9,переулок Тимирязева,3300,46.8305440,29.6343895
16,Плавневая улица,3300,46.8301071,29.6344249
18,Плавневая улица,3300,46.8302030,29.6342782
18,Садовый переулок,3300,46.8335518,29.6276341
20,Садовый переулок,3300,46.8336711,29.6276993
81,улица Горького,3300,46.8333734,29.6294959
17,Мельничный переулок,3300,46.8335004,29.6295930
71,улица Горького,3300,46.8333988,29.6284908
18,улица Богдана Хмельницкого,3300,46.8295044,29.6341825
17,Плавневая улица,3300,46.8299604,29.6342149
27,улица Горького,3300,46.8330570,29.6214650
31,улица Горького,3300,46.8330052,29.6218899
33,улица Горького,3300,46.8330132,29.6220965
9,улица Манойлова,3300,46.8330486,29.6223199
127А,улица 9 Января,3300,46.8428093,29.6174732
15,улица Горького,3300,46.8328487,29.6199332
6,улица Восстания,3300,46.8336697,29.6186368
11,улица Горького,3300,46.8328572,29.6192164
9,улица Горького,3300,46.8328370,29.6189421
23,улица Горького,3300,46.8329844,29.6210475
13,улица Котовского,3300,46.8334812,29.6198948
11,улица Котовского,3300,46.8333191,29.6198631
13,улица Манойлова,3300,46.8336860,29.6222875
11,улица Манойлова,3300,46.8333111,29.6220444
34,улица Восстания,3300,46.8337142,29.6211284
40,улица Восстания,3300,46.8337788,29.6219022
9,улица 1 Мая,3300,46.8315903,29.6192445
7,улица 1 Мая,3300,46.8315144,29.6187862
14,улица Луначарского,3300,46.8321667,29.6181480
12,улица Луначарского,3300,46.8319520,29.6182290
5,улица 1 Мая,3300,46.8315109,29.6185511
8,улица Луначарского,3300,46.8317004,29.6183602
16,улица Горького,3300,46.8323123,29.6187621
14,улица Горького,3300,46.8324099,29.6185820
7,улица Луначарского,3300,46.8320401,29.6176269
39,улица Свердлова,3300,46.8354933,29.6221046
4,переулок Некрасова,3300,46.8469020,29.6404613
2,улица Энергетиков,3300,46.8468120,29.6403611
1,Железнодорожный переулок,3300,46.8467334,29.6402889
3,Железнодорожный переулок,3300,46.8467406,29.6405302
5,Железнодорожный переулок,3300,46.8466317,29.6406124
8,улица Энергетиков,3300,46.8474272,29.6409328
34,улица Дзержинского,3300,46.8535414,29.6321819
32,улица Дзержинского,3300,46.8534688,29.6320284
33А,улица Гоголя,3300,46.8534967,29.6328543
208,улица Карла Либкнехта,3300,46.8393431,29.6083207
66,улица Шевченко,3300,46.8490809,29.6158858
15,Кирпичный проезд,3300,46.8473970,29.6042185
11,улица Клары Цеткин,3300,46.8473860,29.6047145
63,улица Царёва,3300,46.8379910,29.6437900
65,улица Царёва,3300,46.8379142,29.6439470
67,улица Царёва,3300,46.8378187,29.6441019
48,улица Полецкого,3300,46.8392102,29.6441826
15,Одесский переулок,3300,46.8385844,29.6436938
13,Одесский переулок,3300,46.8384765,29.6440607
69,улица Царёва,3300,46.8377472,29.6443325
71,улица Царёва,3300,46.8375988,29.6444900
73,улица Царёва,3300,46.8374524,29.6447391
1,Одесский переулок,3300,46.8375877,29.6449010
3,Одесский переулок,3300,46.8377746,29.6447107
7,Одесский переулок,3300,46.8380115,29.6443991
11,Одесский переулок,3300,46.8382857,29.6441992
9,Одесский переулок,3300,46.8381851,29.6443385
121,улица Розы Люксембург,3300,46.8382952,29.6298098
250,улица Карла Либкнехта,3300,46.8396728,29.6163551
252,улица Карла Либкнехта,3300,46.8398443,29.6163956
91,улица Карла Маркса,3300,46.8391012,29.6158407
83,улица Карла Маркса,3300,46.8389343,29.6151314
248,улица Карла Либкнехта,3300,46.8396626,29.6160585
242,улица Карла Либкнехта,3300,46.8397518,29.6151256
34,улица Шевченко,3300,46.8395659,29.6150277
32,улица Шевченко,3300,46.8394143,29.6151129
30,улица Шевченко,3300,46.8393159,29.6151443
45,улица Луначарского,3300,46.8395565,29.6169085
35,улица 25 Октября,3300,46.8359028,29.6047906
8,переулок Энгельса,3300,46.8365274,29.6032110
24А,улица 25 Октября,3300,46.8353050,29.6010889
18,улица 25 Октября,3300,46.8352498,29.5998328
20,улица 25 Октября,3300,46.8352396,29.6000810
28,улица 25 Октября,3300,46.8353221,29.6019059
30,улица Покровская - 25 Октября,3300,46.8353692,29.6021987
4,переулок Христофорова,3300,46.8350722,29.6011151
3,переулок Христофорова,3300,46.8349949,29.6007136
21,улица 25 Октября,3300,46.8357703,29.6015405
16,улица Пушкина,3300,46.8372276,29.6055740
2,улица Пушкина,3300,46.8372903,29.6074072
8,Днестровский переулок,3300,46.8374580,29.6055270
64А,улица Шевченко,3300,46.8469031,29.6146051
6,улица Шевченко,3300,46.8341963,29.6156768
4,бульвар Гагарина,3300,46.8389049,29.6315305
18,улица Мира,3300,46.8392614,29.6324238
61,улица Луначарского,3300,46.8415831,29.6166848
341,улица Карла Либкнехта,3300,46.8403485,29.6184781
84,Советская улица,3300,46.8410839,29.6161031
1,переулок Шевченко,3300,46.8480487,29.6159864
82,Советская улица,3300,46.8411054,29.6159097
80,Советская улица,3300,46.8411016,29.6157263
78,Советская улица,3300,46.8409130,29.6155781
93,Советская улица,3300,46.8414821,29.6158850
55,улица Шевченко,3300,46.8416368,29.6141795
152,улица 9 Января,3300,46.8423418,29.6142022
313,улица Карла Либкнехта,3300,46.8401932,29.6150091
210,улица Карла Либкнехта,3300,46.8393334,29.6085445
1,Школьный переулок,3300,46.8421198,29.6391532
3,Школьный переулок,3300,46.8421002,29.6393711
5,Школьный переулок,3300,46.8421131,29.6396067
2,Школьный переулок,3300,46.8419298,29.6390895
9,улица Царёва,3300,46.8418235,29.6390560
11,улица Царёва,3300,46.8416895,29.6390364
13,улица Царёва,3300,46.8415020,29.6390640
15,улица Царёва,3300,46.8413530,29.6391702
17,улица Царёва,3300,46.8412236,29.6391467
21,улица Царёва,3300,46.8409075,29.6390654
1а,Стадионный переулок,3300,46.8408090,29.6391644
1,Стадионный переулок,3300,46.8408730,29.6394108
3,Стадионный переулок,3300,46.8410046,29.6396652
4,Школьный переулок,3300,46.8418886,29.6394803
7,Школьный переулок,3300,46.8421430,29.6397537
9,Школьный переулок,3300,46.8421237,29.6399052
8,улица Леваневского,3300,46.8421046,29.6401278
4,улица Леваневского,3300,46.8426631,29.6401415
6,улица Леваневского,3300,46.8425139,29.6401625
7,улица Царёва,3300,46.8423073,29.6390862
7,Стадионный переулок,3300,46.8408977,29.6403357
9,Стадионный переулок,3300,46.8409233,29.6407933
22,улица Леваневского,3300,46.8411052,29.6405331
20,улица Леваневского,3300,46.8413673,29.6403336
12Б,улица 25 Октября,3300,46.8349684,29.5957026
12А,улица 25 Октября,3300,46.8350360,29.5959803
1,Днестровский переулок,3300,46.8363670,29.6050175
28,улица Карла Маркса,3300,46.8380823,29.6058589
8А,улица Пушкина,3300,46.8376411,29.6064156
32,улица Карла Маркса,3300,46.8380339,29.6063143
30,улица Карла Маркса,3300,46.8380158,29.6061483
34,улица Карла Маркса,3300,46.8380176,29.6065755
9,переулок Бочковского,3300,46.8378173,29.6069249
5,переулок Бочковского,3300,46.8376890,29.6071044
10,улица Пушкина,3300,46.8372757,29.6064986
8,улица Пушкина,3300,46.8372847,29.6066809
6,улица Пушкина,3300,46.8372902,29.6068552
3,переулок Бочковского,3300,46.8375070,29.6072948
7,переулок Бочковского,3300,46.8374884,29.6070315
21,улица 1 Мая,3300,46.8316863,29.6222483
23,улица 1 Мая,3300,46.8317203,29.6224825
2,улица Манойлова,3300,46.8322100,29.6231266
56,улица Горького,3300,46.8325375,29.6235524
2,улица 1 Мая,3300,46.8311125,29.6171112
39,улица Шевченко,3300,46.8393080,29.6144001
315,улица Карла Либкнехта,3300,46.8402277,29.6152873
49,улица Царёва,3300,46.8388841,29.6422972
43,Учительская улица,3300,46.8389983,29.6444121
50,улица Полецкого,3300,46.8393651,29.6443660
47,улица Царёва,3300,46.8390678,29.6419896
45,Учительская улица,3300,46.8392457,29.6450406
43,улица Царёва,3300,46.8392383,29.6417205
44,улица Леваневского,3300,46.8396487,29.6429766
47,Учительская улица,3300,46.8391925,29.6453328
49,Учительская улица,3300,46.8392673,29.6455553
52,улица Полецкого,3300,46.8395799,29.6445346
56,улица Полецкого,3300,46.8397049,29.6451510
54,улица Полецкого,3300,46.8395922,29.6447151
2,Стадионный переулок,3300,46.8406233,29.6393429
23,улица Царёва,3300,46.8405029,29.6396619
25,улица Царёва,3300,46.8404161,29.6398638
40,улица Леваневского,3300,46.8397508,29.6427751
2,Парковый переулок,3300,46.8393281,29.6414487
31,улица Леваневского,3300,46.8398695,29.6431119
38,улица Леваневского,3300,46.8398016,29.6424782
12,Парковый переулок,3300,46.8399330,29.6423298
29,улица Леваневского,3300,46.8399919,29.6429033
10,Парковый переулок,3300,46.8398086,29.6421389
4,Парковый переулок,3300,46.8394811,29.6417411
6,Парковый переулок,3300,46.8395158,29.6419530
8,Парковый переулок,3300,46.8396390,29.6420328
50,Учительская улица,3300,46.8402244,29.6431017
51,улица Шевченко,3300,46.8406636,29.6143522
309,улица Карла Либкнехта,3300,46.8402875,29.6138883
307,улица Карла Либкнехта,3300,46.8402110,29.6136799
49,улица Шевченко,3300,46.8405100,29.6143893
68,Советская улица,3300,46.8409270,29.6138749
66,Советская улица,3300,46.8409166,29.6136455
303,улица Карла Либкнехта,3300,46.8400966,29.6132292
301,улица Карла Либкнехта,3300,46.8401698,29.6130964
299,улица Карла Либкнехта,3300,46.8400576,29.6128391
4,переулок Щусева,3300,46.8402492,29.6128456
6,переулок Щусева,3300,46.8404221,29.6127723
8,переулок Щусева,3300,46.8406198,29.6128135
64,Советская улица,3300,46.8408669,29.6132085
40,улица Шевченко,3300,46.8406823,29.6151018
74,Советская улица,3300,46.8409709,29.6153086
72,Советская улица,3300,46.8410456,29.6150444
44,улица Шевченко,3300,46.8409182,29.6150309
42,улица Шевченко,3300,46.8408113,29.6149030
150,улица 9 Января,3300,46.8423001,29.6139925
20,переулок Щусева,3300,46.8418128,29.6126530
18,переулок Щусева,3300,46.8417231,29.6126929
142,улица 9 Января,3300,46.8422694,29.6131460
140,улица 9 Января,3300,46.8422562,29.6130009
146,улица 9 Января,3300,46.8422013,29.6134837
136,переулок Щусева,3300,46.8422816,29.6120976
240,улица Карла Либкнехта,3300,46.8397717,29.6144939
31,улица Гоголя,3300,46.8532587,29.6326952
76,улица Луначарского,3300,46.8422711,29.6171601
174,улица 9 Января,3300,46.8424357,29.6174963
72,улица Луначарского,3300,46.8420208,29.6173782
70,улица Луначарского,3300,46.8419048,29.6172309
176,улица 9 Января,3300,46.8422936,29.6176911
178,улица 9 Января,3300,46.8424136,29.6178629
180,улица 9 Января,3300,46.8425161,29.6180848
105,Советская улица,3300,46.8417253,29.6180076
13,переулок Щусева,3300,46.8413091,29.6121655
218,улица Карла Либкнехта,3300,46.8395374,29.6091623
9,переулок Чкалова,3300,46.8392797,29.6091452
216,улица Карла Либкнехта,3300,46.8394391,29.6087716
7,переулок Чкалова,3300,46.8391729,29.6091584
5,переулок Чкалова,3300,46.8390118,29.6092143
16,Днестровский переулок,3300,46.8386899,29.6053146
23,улица Карла Маркса,3300,46.8383196,29.6038539
11,2-й Бородинский переулок,3300,46.8399282,29.5952205
17,2-й Бородинский переулок,3300,46.8402818,29.5950152
186,улица 9 Января,3300,46.8425570,29.6187594
188,улица 9 Января,3300,46.8425802,29.6190349
71,улица Котовского,3300,46.8422644,29.6189427
62,улица Шевченко,3300,46.8434359,29.6151130
29,улица Суворова,3300,46.8437632,29.6108325
79,Советская улица,3300,46.8413254,29.6119242
23,переулок Щусева,3300,46.8419997,29.6120408
21,переулок Щусева,3300,46.8418447,29.6121089
19,переулок Щусева,3300,46.8416673,29.6120925
17,переулок Щусева,3300,46.8415543,29.6121702
15,переулок Щусева,3300,46.8414572,29.6121035
77,Советская улица,3300,46.8413078,29.6115935
130,улица 9 Января,3300,46.8422573,29.6115813
73,Советская улица,3300,46.8412934,29.6111732
75,Советская улица,3300,46.8412655,29.6114519
11,переулок Щусева,3300,46.8407475,29.6121811
5,переулок Щусева,3300,46.8403146,29.6122168
9,переулок Щусева,3300,46.8406092,29.6121428
3,переулок Щусева,3300,46.8401813,29.6122356
5,улица Дружбы,3300,46.8372630,29.5623099
7,улица Дружбы,3300,46.8372866,29.5625461
3,улица Дружбы,3300,46.8372880,29.5618736
20,переулок Володи Дубинина,3300,46.8346508,29.5689477
22,переулок Володи Дубинина,3300,46.8348061,29.5691569
24,переулок Володи Дубинина,3300,46.8348455,29.5693450
26,переулок Володи Дубинина,3300,46.8348572,29.5695362
7,переулок Новаторов,3300,46.8344592,29.5687901
4,Молодёжный переулок,3300,46.8357113,29.5710303
27а,переулок Володи Дубинина,3300,46.8356625,29.5702871
16,улица Мечникова,3300,46.8347530,29.5726579
24,улица Мечникова,3300,46.8342001,29.5727803
27,Молодёжный переулок,3300,46.8341621,29.5723140
27а,Молодёжный переулок,3300,46.8340856,29.5718078
25,Молодёжный переулок,3300,46.8343839,29.5717789
2а,улица Ленина,3300,46.8298762,29.6256513
13,Лиманный переулок,3300,46.8406975,29.6070427
20,Советская улица,3300,46.8406401,29.6069111
9,Лиманный переулок,3300,46.8403864,29.6070425
1,переулок Чкалова,3300,46.8386678,29.6093308
3,переулок Чкалова,3300,46.8388378,29.6092984
5,Клинцовский переулок,3300,46.8340470,29.6354975
16,переулок Восстания,3300,46.8339746,29.6360594
14,переулок Восстания,3300,46.8341085,29.6359166
9,переулок Чернышевского,3300,46.8341074,29.6395322
46,улица Мира,3300,46.8344994,29.6411788
15A,переулок Белинского,3300,46.8340600,29.6406675
16,переулок Белинского,3300,46.8339680,29.6412816
253,улица Карла Либкнехта,3300,46.8398043,29.6075717
4,Лиманный переулок,3300,46.8401612,29.6074559
22,Советская улица,3300,46.8406870,29.6073701
24,Советская улица,3300,46.8406387,29.6076984
8,Лиманный переулок,3300,46.8404889,29.6074241
6,Лиманный переулок,3300,46.8403391,29.6076687
2,Лиманный переулок,3300,46.8399539,29.6076427
16,Советская улица,3300,46.8405935,29.6064141
14,Советская улица,3300,46.8406389,29.6062433
12,Советская улица,3300,46.8406116,29.6059513
31,Советская улица,3300,46.8410935,29.6076201
33,Советская улица,3300,46.8411038,29.6077733
35,Советская улица,3300,46.8411407,29.6079773
15,Днестровский переулок,3300,46.8396944,29.6047407
241,улица Карла Либкнехта,3300,46.8397298,29.6044699
239,улица Карла Либкнехта,3300,46.8396600,29.6042421
9,улица Шутова,3300,46.8631051,29.6246970
28,Лиманный переулок,3300,46.8432141,29.6072461
17,Днестровский переулок,3300,46.8404099,29.6049138
2,переулок Крылова,3300,46.8398701,29.6038363
47,улица Ларионова,3300,46.8294577,29.6314858
63,улица 1 Мая,3300,46.8319819,29.6274399
6,Вокзальный переулок,3300,46.8467353,29.6262432
31,Лиманный переулок,3300,46.8423349,29.6066889
24,Одесская улица,3300,46.8377158,29.6475455
8,улица Суворова,3300,46.8433185,29.6066325
3,улица Шутова,3300,46.8641910,29.6144739
1,Парковый переулок,3300,46.8396282,29.6414768
27,улица Царёва,3300,46.8402350,29.6400788
6,улица Дзержинского,3300,46.8498729,29.6304036
2,Учительская улица,3300,46.8431545,29.6430035
4,Учительская улица,3300,46.8430237,29.6430184
36,улица Леваневского,3300,46.8401466,29.6419162
37,улица Царёва,3300,46.8397415,29.6408942
39,улица Царёва,3300,46.8396477,29.6410933
3,Парковый переулок,3300,46.8397447,29.6416643
34,улица Леваневского,3300,46.8403545,29.6416779
26,улица Леваневского,3300,46.8406138,29.6412656
24,улица Леваневского,3300,46.8407018,29.6411472
6,Стадионный переулок,3300,46.8406669,29.6409460
35,улица Царёва,3300,46.8398154,29.6407139
32,улица Леваневского,3300,46.8403741,29.6411694
30,улица Леваневского,3300,46.8404762,29.6414162
25a,улица Леваневского,3300,46.8403627,29.6425752
15,улица Леваневского,3300,46.8407622,29.6415681
13,улица Леваневского,3300,46.8408729,29.6414564
34,улица Циолковского,3300,46.8410358,29.6416629
29,улица Царёва,3300,46.8401431,29.6402376
31,улица Царёва,3300,46.8400319,29.6403580
33,улица Царёва,3300,46.8399273,29.6405331
35,Лиманный переулок,3300,46.8426046,29.6067068
2,улица Суворова,3300,46.8433034,29.6058511
4,улица Суворова,3300,46.8432868,29.6061222
6,улица Суворова,3300,46.8432780,29.6063663
1а,Гребеницкий проезд,3300,46.8495851,29.6677832
39,улица Ткаченко,3300,46.8425298,29.6046531
76,улица 9 Января,3300,46.8427768,29.6055947
78,улица 9 Января,3300,46.8426889,29.6057569
80А,улица 9 Января,3300,46.8425634,29.6058373
43,улица 9 Января,3300,46.8428459,29.6064474
41,улица 9 Января,3300,46.8429625,29.6061726
41,Лиманный переулок,3300,46.8432224,29.6067732
39,Лиманный переулок,3300,46.8431122,29.6067273
37,Лиманный переулок,3300,46.8429383,29.6067770
225,улица Карла Либкнехта,3300,46.8398763,29.6022696
1,переулок Крылова,3300,46.8400524,29.6033608
35,улица Ткаченко,3300,46.8428440,29.6039848
5,Днестровский переулок,3300,46.8385412,29.6047642
41,улица Шевченко,3300,46.8394776,29.6145063
234,улица Карла Либкнехта,3300,46.8396116,29.6138828
43,улица Шевченко,3300,46.8395655,29.6143085
118,улица 1 Мая,3300,46.8319884,29.6366284
8,Кирпичный проезд,3300,46.8449701,29.6053828
6,улица Макаренко,3300,46.8348656,29.5777802
18,улица Солтыса,3300,46.8347062,29.5789471
48,Учительская улица,3300,46.8404666,29.6430805
46,Учительская улица,3300,46.8406344,29.6430576
38,улица Циолковского,3300,46.8411369,29.6422621
40,улица Циолковского,3300,46.8410167,29.6424261
36,улица Циолковского,3300,46.8412920,29.6419702
4а,Стадионный переулок,3300,46.8406880,29.6400119
4,Стадионный переулок,3300,46.8406375,29.6405094
32,улица Циолковского,3300,46.8411768,29.6413143
23,улица 20 лет ВЛКСМ,3300,46.8410794,29.6429297
53,Учительская улица,3300,46.8395696,29.6456984
55,Учительская улица,3300,46.8394981,29.6457765
75,Одесская улица,3300,46.8375181,29.6459557
57,Учительская улица,3300,46.8394334,29.6460643
66,улица Чапаева,3300,46.8385509,29.6467616
68,улица Полецкого,3300,46.8398901,29.6460771
2,улица Сакриера,3300,46.8556267,29.6252888
6А,Вокзальный переулок,3300,46.8471356,29.6263578
70,улица Шевченко,3300,46.8497978,29.6146853
97,улица Шевченко,3300,46.8612495,29.6075316
59,Учительская улица,3300,46.8391888,29.6458526
61,Учительская улица,3300,46.8391619,29.6459998
63,Учительская улица,3300,46.8390120,29.6459830
65,Учительская улица,3300,46.8389910,29.6461916
67,Учительская улица,3300,46.8388480,29.6460731
64,улица Шевченко,3300,46.8447319,29.6144256
69,Учительская улица,3300,46.8386237,29.6462050
71,Учительская улица,3300,46.8384043,29.6462531
68,улица Чапаева,3300,46.8384820,29.6470124
50,улица Чапаева,3300,46.8397188,29.6464506
52,улица Чапаева,3300,46.8395900,29.6463823
54,улица Чапаева,3300,46.8394902,29.6465149
56,улица Чапаева,3300,46.8393223,29.6465270
64,улица Чапаева,3300,46.8387813,29.6469252
58,улица Чапаева,3300,46.8392702,29.6466388
60,улица Чапаева,3300,46.8391423,29.6466462
62,улица Чапаева,3300,46.8389885,29.6468040
74,улица Чапаева,3300,46.8375409,29.6476650
72,улица Чапаева,3300,46.8376354,29.6476671
8,переулок Чапаева,3300,46.8349750,29.6473873
78,улица Чапаева,3300,46.8372507,29.6478004
16,Госпитальный переулок,3300,46.8367552,29.6477842
5,переулок Чапаева,3300,46.8353350,29.6471503
23,Госпитальный переулок,3300,46.8368504,29.6473270
21,Госпитальный переулок,3300,46.8367014,29.6474743
14,Госпитальный переулок,3300,46.8365960,29.6479188
19,Госпитальный переулок,3300,46.8365751,29.6475321
93,улица Чапаева,3300,46.8375203,29.6484979
95,улица Чапаева,3300,46.8373505,29.6484976
18,улица Леваневского,3300,46.8415691,29.6403205
22,улица Циолковского,3300,46.8419366,29.6416904
16,улица Леваневского,3300,46.8417580,29.6403099
10,Школьный переулок,3300,46.8419435,29.6403001
8,Школьный переулок,3300,46.8418789,29.6398047
6,Школьный переулок,3300,46.8418176,29.6396122
8,Школьный переулок,3300,46.8417351,29.6397231
10а,Школьный переулок,3300,46.8419313,29.6400385
21,улица 20 лет ВЛКСМ,3300,46.8412874,29.6429375
19,улица 20 лет ВЛКСМ,3300,46.8414072,29.6427855
35,улица Циолковского,3300,46.8416895,29.6421833
12,улица 20 лет ВЛКСМ,3300,46.8416925,29.6423605
20,улица Циолковского,3300,46.8425518,29.6415436
7,Железнодорожный переулок,3300,46.8466021,29.6408160
3,переулок Некрасова,3300,46.8470385,29.6409634
10,улица Энергетиков,3300,46.8475484,29.6410393
12,улица Энергетиков,3300,46.8477127,29.6411757
14,улица Энергетиков,3300,46.8478264,29.6412825
16,улица Энергетиков,3300,46.8479573,29.6414257
20,улица Энергетиков,3300,46.8483100,29.6416408
42А,Северная улица,3300,46.8531698,29.6318335
44,Северная улица,3300,46.8531319,29.6320145
46,Северная улица,3300,46.8530705,29.6322055
48,Северная улица,3300,46.8530392,29.6323915
50,Северная улица,3300,46.8529321,29.6325815
57Б,Манойлова,3300,46.8465462,29.6177627
30,улица Сакриера,3300,46.8544110,29.6301355
5,улица Царёва,3300,46.8424817,29.6389793
3,улица Царёва,3300,46.8426443,29.6389847
3,улица Царёва,3300,46.8425648,29.6389931
2,улица Лермонтова,3300,46.8430486,29.6389279
4,улица Лермонтова,3300,46.8430439,29.6391175
6,улица Лермонтова,3300,46.8429559,29.6392855
8,улица Лермонтова,3300,46.8429690,29.6396044
12,улица Лермонтова,3300,46.8430441,29.6398516
14,улица Леваневского,3300,46.8430635,29.6401514
2,улица Леваневского,3300,46.8429368,29.6401999
16,улица Лермонтова,3300,46.8430641,29.6406231
18,улица Лермонтова,3300,46.8430343,29.6410050
20,улица Лермонтова,3300,46.8429567,29.6412112
22,улица Лермонтова,3300,46.8430897,29.6415857
18,улица Циолковского,3300,46.8429280,29.6415605
13,улица Циолковского,3300,46.8431343,29.6421540
30,улица Профсоюзов,3300,46.8514593,29.6291693
15,улица Маяковского,3300,46.8512346,29.6289793
13,улица Маяковского,3300,46.8510905,29.6289505
11,улица Маяковского,3300,46.8509339,29.6289020
32,улица Профсоюзов,3300,46.8513781,29.6296263
12,улица Маяковского,3300,46.8508181,29.6293445
16,улица Маяковского,3300,46.8511042,29.6295077
14,улица Маяковского,3300,46.8509804,29.6294316
9,улица Маяковского,3300,46.8508057,29.6288152
7,улица Маяковского,3300,46.8506778,29.6287264
5,улица Маяковского,3300,46.8505262,29.6287382
10,улица Маяковского,3300,46.8506855,29.6293661
8,улица Маяковского,3300,46.8505542,29.6292207
6,улица Маяковского,3300,46.8504064,29.6291471
34,улица Профсоюзов,3300,46.8513270,29.6298923
36,улица Профсоюзов,3300,46.8512782,29.6300409
38,улица Профсоюзов,3300,46.8512067,29.6302994
5,улица Дзержинского,3300,46.8502522,29.6298185
7,улица Дзержинского,3300,46.8504119,29.6298343
9,улица Дзержинского,3300,46.8505289,29.6299050
11,улица Дзержинского,3300,46.8506748,29.6299959
15,улица Дзержинского,3300,46.8509301,29.6301082
13,улица Дзержинского,3300,46.8508109,29.6300538
40,улица Профсоюзов,3300,46.8511051,29.6307998
18,улица Дзержинского,3300,46.8507956,29.6306146
16,улица Дзержинского,3300,46.8506682,29.6306915
14,улица Дзержинского,3300,46.8504920,29.6305573
12,улица Дзержинского,3300,46.8504077,29.6304445
10,улица Дзержинского,3300,46.8502766,29.6303781
8,улица Дзержинского,3300,46.8501469,29.6303152
12,Северная улица,3300,46.8543753,29.6267467
10,Северная улица,3300,46.8544202,29.6264801
37,улица Якира,3300,46.8546006,29.6269136
39,улица Якира,3300,46.8547293,29.6269909
41,улица Якира,3300,46.8548541,29.6270472
43,улица Якира,3300,46.8549792,29.6271118
12,улица Сакриера,3300,46.8551789,29.6271633
31,улица Циолковского,3300,46.8418860,29.6421662
29,улица Циолковского,3300,46.8420996,29.6421389
10,улица 20 лет ВЛКСМ,3300,46.8420281,29.6423266
27,улица Циолковского,3300,46.8422370,29.6421145
3,улица Петровского,3300,46.8512453,29.6237122
5,улица Петровского,3300,46.8514279,29.6238304
7,Кирпичный проезд,3300,46.8456753,29.6037981
25,Учительский переулок,3300,46.8412910,29.6435072
23,Учительская улица,3300,46.8414269,29.6433974
21,Учительская улица,3300,46.8415384,29.6434870
4,Крепостной переулок,3300,46.8371333,29.5828451
108,улица Карла Либкнехта,3300,46.8373018,29.5825828
11,улица Ильина,3300,46.8506460,29.6233840
1,улица Петровского,3300,46.8509844,29.6236607
10,улица Сакриера,3300,46.8552334,29.6269086
8,Северная улица,3300,46.8544810,29.6262470
6,Северная улица,3300,46.8545291,29.6260184
38,улица Петровского,3300,46.8547948,29.6262112
40,улица Петровского,3300,46.8549091,29.6262554
42,улица Петровского,3300,46.8550303,29.6263476
44,улица Петровского,3300,46.8551592,29.6263482
6,улица Сакриера,3300,46.8553243,29.6264594
8,улица Сакриера,3300,46.8552823,29.6266717
6,Оргеевский переулок,3300,46.8523040,29.6235212
2,Оргеевский переулок,3300,46.8516967,29.6236459
4,Оргеевский переулок,3300,46.8519051,29.6236168
9,улица Ильина,3300,46.8507686,29.6231690
3,Оргеевский переулок,3300,46.8511813,29.6229329
5,Оргеевский переулок,3300,46.8510986,29.6231584
5,Оргеевский переулок,3300,46.8514336,29.6232539
1А,переулок Шевченко,3300,46.8473724,29.6145309
2а,Северная улица,3300,46.8547241,29.6252148
4,Северная улица,3300,46.8546705,29.6254494
35,улица Петровского,3300,46.8549200,29.6256108
37,улица Петровского,3300,46.8550381,29.6256937
4,улица Сакриера,3300,46.8554863,29.6259014
41,улица Петровского,3300,46.8552830,29.6258201
39,улица Петровского,3300,46.8551723,29.6257277
11,улица Сакриера,3300,46.8560959,29.6255327
13,улица Сакриера,3300,46.8560112,29.6258881
2,переулок Строителей,3300,46.8564099,29.6256941
1,улица 9 Января,3300,46.8449360,29.5990707
39,улица Кирова,3300,46.8451410,29.5992970
37,Партизанская улица,3300,46.8453113,29.5994709
81,Партизанская улица,3300,46.8452140,29.5986195
79,Партизанская улица,3300,46.8450254,29.5983873
10,Кирпичный проезд,3300,46.8463780,29.6042145
5,улица Достоевского,3300,46.8466063,29.6030528
20,Кирпичный проезд,3300,46.8470621,29.6040687
9,улица Клары Цеткин,3300,46.8474838,29.6051011
7,улица Клары Цеткин,3300,46.8473933,29.6053290
5,улица Клары Цеткин,3300,46.8475283,29.6055323
18,Кирпичный проезд,3300,46.8469388,29.6040982
16,Кирпичный проезд,3300,46.8468182,29.6041140
14,Кирпичный проезд,3300,46.8466873,29.6041584
12,Кирпичный проезд,3300,46.8465420,29.6041906
2,улица Достоевского,3300,46.8470198,29.6033019
17,Кирпичный проезд,3300,46.8470131,29.6036745
19,Кирпичный проезд,3300,46.8471720,29.6037104
21,Кирпичный проезд,3300,46.8472867,29.6036473
23,Кирпичный проезд,3300,46.8474078,29.6035988
17,улица Клары Цеткин,3300,46.8475029,29.6036431
19,улица Клары Цеткин,3300,46.8475079,29.6033621
4,улица Достоевского,3300,46.8469655,29.6029666
6,улица Достоевского,3300,46.8469762,29.6027816
27,улица Орджоникидзе,3300,46.8421919,29.5916054
60,улица Горького,3300,46.8328852,29.6263529
23,улица Циолковского,3300,46.8425265,29.6421327
21,улица Циолковского,3300,46.8426982,29.6422124
19,улица Циолковского,3300,46.8427572,29.6422401
4,улица 20 лет ВЛКСМ,3300,46.8428557,29.6423777
25,улица Циолковского,3300,46.8424081,29.6421085
6,улица 20 лет ВЛКСМ,3300,46.8421774,29.6424113
11,улица 20 лет ВЛКСМ,3300,46.8423942,29.6427168
6,улица 20 лет ВЛКСМ,3300,46.8424205,29.6424000
15,улица 20 лет ВЛКСМ,3300,46.8420581,29.6427256
17,улица 20 лет ВЛКСМ,3300,46.8417316,29.6427952
13,улица 20 лет ВЛКСМ,3300,46.8422590,29.6428518
8,Учительская улица,3300,46.8424878,29.6430546
11,улица 20 лет ВЛКСМ,3300,46.8425720,29.6428147
6,Учительская улица,3300,46.8428789,29.6430014
3,улица 20 лет ВЛКСМ,3300,46.8428710,29.6427987
2,улица 20 лет ВЛКСМ,3300,46.8430752,29.6424241
19,Учительская улица,3300,46.8416825,29.6434747
13,Учительская улица,3300,46.8421779,29.6434678
11,переулок Лермонтова,3300,46.8420804,29.6438728
7,улица Циолковского,3300,46.8436345,29.6420628
9,улица Циолковского,3300,46.8434982,29.6420588
5,улица Циолковского,3300,46.8438740,29.6421087
12,улица Циолковского,3300,46.8435514,29.6415447
6,улица Циолковского,3300,46.8438648,29.6415080
10,улица Циолковского,3300,46.8436773,29.6415851
1,улица Лермонтова,3300,46.8435920,29.6412834
14,улица Циолковского,3300,46.8434162,29.6415348
8,улица Циолковского,3300,46.8437337,29.6415224
11,Учительская улица,3300,46.8422438,29.6433288
7,Учительская улица,3300,46.8425270,29.6433386
5,Учительская улица,3300,46.8426843,29.6433458
3,Учительская улица,3300,46.8428893,29.6433402
1,Учительская улица,3300,46.8430442,29.6432807
26,улица Лермонтова,3300,46.8431761,29.6432977
7,переулок Лермонтова,3300,46.8424484,29.6440209
9,переулок Лермонтова,3300,46.8422654,29.6440049
8а,переулок Чапаева,3300,46.8350444,29.6476403
1,переулок Чапаева,3300,46.8353822,29.6478681
13/12,Украинская улица,3300,46.8589882,29.6228994
17,Госпитальный переулок,3300,46.8364648,29.6475791
15,Госпитальный переулок,3300,46.8363524,29.6476917
13,Госпитальный переулок,3300,46.8362571,29.6478070
11,Госпитальный переулок,3300,46.8361627,29.6477050
9,Госпитальный переулок,3300,46.8361029,29.6478546
7,Госпитальный переулок,3300,46.8359873,29.6479081
5,Госпитальный переулок,3300,46.8358242,29.6479474
3,Госпитальный переулок,3300,46.8356474,29.6480025
2,Госпитальный переулок,3300,46.8355559,29.6485198
9,проезд Монтажников,3300,46.8510700,29.6587345
7,Магистральный проезд,3300,46.8461727,29.6712694
9,переулок Некрасова,3300,46.8472468,29.6415954
7,переулок Некрасова,3300,46.8470987,29.6415672
9,Железнодорожный переулок,3300,46.8466145,29.6410919
11,Железнодорожный переулок,3300,46.8466008,29.6413272
13,Железнодорожный переулок,3300,46.8465700,29.6415476
17,Железнодорожный переулок,3300,46.8465477,29.6420875
15,переулок Щорса,3300,46.8467034,29.6420708
8,улица Достоевского,3300,46.8470183,29.6025925
10,улица Достоевского,3300,46.8469271,29.6023840
12,улица Достоевского,3300,46.8469007,29.6022138
14,улица Достоевского,3300,46.8468918,29.6019755
16,улица Достоевского,3300,46.8469517,29.6017346
16,Госпитальный переулок,3300,46.8364788,29.6479068
10,Госпитальный переулок,3300,46.8364210,29.6480542
2,переулок Чапаева,3300,46.8354165,29.6488994
14,Госпитальный переулок,3300,46.8361227,29.6481313
96,переулок Чапаева,3300,46.8356321,29.6488091
12,Госпитальный переулок,3300,46.8359625,29.6482594
94,улица Чапаева,3300,46.8358978,29.6485880
10,Госпитальный переулок,3300,46.8358489,29.6483715
94а,улица Чапаева,3300,46.8358213,29.6487024
4,Госпитальный переулок,3300,46.8356646,29.6484213
97,улица Чапаева,3300,46.8371927,29.6486371
99,улица Чапаева,3300,46.8370729,29.6487693
101,улица Чапаева,3300,46.8368470,29.6487549
59,улица Сакриера,3300,46.8538796,29.6363423
36,улица Клары Цеткин,3300,46.8476242,29.5997618
34,улица Клары Цеткин,3300,46.8476633,29.5999546
2,переулок К. Цеткин,3300,46.8476961,29.6003143
32,улица Клары Цеткин,3300,46.8477283,29.6005409
30,улица Клары Цеткин,3300,46.8477738,29.6006959
28,улица Клары Цеткин,3300,46.8477767,29.6008553
26,улица Клары Цеткин,3300,46.8478664,29.6009885
24,улица Клары Цеткин,3300,46.8477994,29.6012254
22,улица Клары Цеткин,3300,46.8478030,29.6014104
20,улица Клары Цеткин,3300,46.8478007,29.6015971
4,переулок К. Цеткин,3300,46.8480821,29.6002315
3,переулок Клары Цеткин,3300,46.8479939,29.5998745
53,улица 28 Июня,3300,46.8389055,29.5680068
41,улица 28 Июня,3300,46.8384959,29.5672668
39,улица 28 Июня,3300,46.8384535,29.5668043
43,улица 28 Июня,3300,46.8384944,29.5674870
45,улица 28 Июня,3300,46.8385140,29.5676815
47,улица 28 Июня,3300,46.8385222,29.5678634
49,улица 28 Июня,3300,46.8385118,29.5680724
51,улица 28 Июня,3300,46.8386612,29.5682450
55,улица 28 Июня,3300,46.8385875,29.5684538
57,улица 28 Июня,3300,46.8386451,29.5686862
59,улица 28 Июня,3300,46.8386702,29.5688895
61,улица 28 Июня,3300,46.8386508,29.5691440
63,улица 28 Июня,3300,46.8387245,29.5694681
65,улица 28 Июня,3300,46.8387172,29.5696499
67,улица 28 Июня,3300,46.8387659,29.5698506
69,улица 28 Июня,3300,46.8388434,29.5699207
73,улица 28 Июня,3300,46.8388375,29.5701706
64,улица 28 Июня,3300,46.8383631,29.5693902
70,улица 28 Июня,3300,46.8385056,29.5703838
68,улица 28 Июня,3300,46.8384448,29.5701416
66,улица 28 Июня,3300,46.8382756,29.5696139
67,улица Дружбы,3300,46.8382064,29.5703830
10,переулок Ушакова,3300,46.8385960,29.5659559
35,улица 28 Июня,3300,46.8384082,29.5660772
37,улица 28 Июня,3300,46.8383993,29.5663039
33,улица 28 Июня,3300,46.8383873,29.5655494
36,Гвардейская улица,3300,46.8390711,29.5655069
28,Гвардейская улица,3300,46.8390762,29.5644565
20,Гвардейская улица,3300,46.8388778,29.5638940
34,Гвардейская улица,3300,46.8391529,29.5652961
32,Гвардейская улица,3300,46.8391353,29.5650706
30,Гвардейская улица,3300,46.8390818,29.5648561
13,Гвардейская улица,3300,46.8402079,29.5690003
75,улица 28 Июня,3300,46.8388227,29.5707067
77,улица 28 Июня,3300,46.8388231,29.5708727
79,улица 28 Июня,3300,46.8388660,29.5711211
81,улица 28 Июня,3300,46.8388642,29.5713548
74,улица 28 Июня,3300,46.8384902,29.5707225
44,улица 28 Июня,3300,46.8381553,29.5671747
83,улица 28 Июня,3300,46.8389090,29.5715156
85,улица 28 Июня,3300,46.8389105,29.5717022
87,улица 28 Июня,3300,46.8389320,29.5719061
76,улица 28 Июня,3300,46.8385284,29.5709139
78,улица 28 Июня,3300,46.8385454,29.5711252
80,улица 28 Июня,3300,46.8385619,29.5714049
82,улица 28 Июня,3300,46.8385737,29.5716665
84,улица 28 Июня,3300,46.8386319,29.5719311
86,улица 28 Июня,3300,46.8385570,29.5720888
91,улица 28 Июня,3300,46.8389509,29.5722708
93,улица 28 Июня,3300,46.8389789,29.5724648
88,улица 28 Июня,3300,46.8385843,29.5724481
90,улица 28 Июня,3300,46.8386808,29.5725693
92,улица 28 Июня,3300,46.8386394,29.5727488
95,улица 28 Июня,3300,46.8390306,29.5726488
97,улица 28 Июня,3300,46.8390675,29.5728576
99,улица 28 Июня,3300,46.8390677,29.5730759
101,улица 28 Июня,3300,46.8391602,29.5734190
103,улица 28 Июня,3300,46.8392448,29.5734822
105,улица 28 Июня,3300,46.8392944,29.5736474
107,улица 28 Июня,3300,46.8392214,29.5738642
101,улица Карла Либкнехта,3300,46.8371785,29.5721165
105,улица Карла Либкнехта,3300,46.8370544,29.5723091
107,улица Карла Либкнехта,3300,46.8370038,29.5724522
94,улица Дружбы,3300,46.8375642,29.5718548
92,улица Дружбы,3300,46.8375418,29.5714239
96,улица Дружбы,3300,46.8376495,29.5720517
83,улица Дружбы,3300,46.8380937,29.5719844
81,улица Дружбы,3300,46.8378769,29.5718442
98,улица Дружбы,3300,46.8376803,29.5722233
100,улица Дружбы,3300,46.8376784,29.5723775
89,улица Дружбы,3300,46.8378886,29.5722879
89,улица Дружбы,3300,46.8379932,29.5724380
65,улица Дружбы,3300,46.8379286,29.5702478
59,улица Дружбы,3300,46.8377876,29.5694599
61,улица Дружбы,3300,46.8377529,29.5697669
63,улица Дружбы,3300,46.8377910,29.5700400
69,улица Дружбы,3300,46.8378052,29.5706719
79,улица Дружбы,3300,46.8378631,29.5715370
73,улица Дружбы,3300,46.8378544,29.5709949
71,улица Дружбы,3300,46.8378785,29.5708294
75,улица Дружбы,3300,46.8378738,29.5711406
77,улица Дружбы,3300,46.8378448,29.5713339
90,улица Дружбы,3300,46.8376052,29.5712061
40,улица 28 Июня,3300,46.8380761,29.5666813
4,переулок Ушакова,3300,46.8378033,29.5660599
8,переулок Ушакова,3300,46.8380916,29.5660349
38,улица 28 Июня,3300,46.8380838,29.5663225
39,улица Дружбы,3300,46.8377995,29.5667581
76,улица Дружбы,3300,46.8374203,29.5695173
78,улица Дружбы,3300,46.8374426,29.5697476
74,улица Дружбы,3300,46.8374099,29.5691935
80,улица Дружбы,3300,46.8375225,29.5701828
82,улица Дружбы,3300,46.8374968,29.5703949
84,улица Дружбы,3300,46.8375330,29.5705526
86,улица Дружбы,3300,46.8375543,29.5707265
88,улица Дружбы,3300,46.8374862,29.5709039
94,улица 28 Июня,3300,46.8387055,29.5728773
96,улица 28 Июня,3300,46.8387175,29.5730433
98,улица 28 Июня,3300,46.8385225,29.5731373
109,улица Карла Либкнехта,3300,46.8372847,29.5724392
102,улица Дружбы,3300,46.8377120,29.5725299
104,улица Дружбы,3300,46.8376674,29.5727496
95,улица Дружбы,3300,46.8380013,29.5728505
97,улица Дружбы,3300,46.8380111,29.5729975
100,улица 28 Июня,3300,46.8387560,29.5733726
2,Гвардейская улица,3300,46.8387944,29.5617607
4,Гвардейская улица,3300,46.8388085,29.5622227
8,Гвардейская улица,3300,46.8388947,29.5624921
29,улица 28 Июня,3300,46.8383298,29.5649787
31,улица 28 Июня,3300,46.8383368,29.5651964
18,Гвардейская улица,3300,46.8389825,29.5635402
10,Гвардейская улица,3300,46.8388030,29.5626777
21,переулок 28 Июня,3300,46.8386739,29.5644705
18,переулок 28 Июня,3300,46.8385078,29.5643103
11,переулок Ушакова,3300,46.8380530,29.5656798
45,улица Дружбы,3300,46.8375664,29.5673957
43,улица Дружбы,3300,46.8376099,29.5671869
41,улица Дружбы,3300,46.8375864,29.5670005
37,улица Дружбы,3300,46.8376056,29.5666576
35,улица Дружбы,3300,46.8375370,29.5665211
33,улица Дружбы,3300,46.8375753,29.5663285
2,переулок Ушакова,3300,46.8375425,29.5661119
7,переулок Ушакова,3300,46.8377992,29.5657637
5,переулок Ушакова,3300,46.8374702,29.5657165
36А,улица 28 Июня,3300,46.8380488,29.5652009
27,улица 28 Июня,3300,46.8382542,29.5646008
25,улица 28 Июня,3300,46.8383225,29.5644321
34,улица 28 Июня,3300,46.8379940,29.5648634
32,улица 28 Июня,3300,46.8379518,29.5646738
31,улица Дружбы,3300,46.8374807,29.5651278
29,улица Дружбы,3300,46.8374672,29.5649457
70,улица Дружбы,3300,46.8373799,29.5687701
72,улица Дружбы,3300,46.8374587,29.5689589
68,улица Дружбы,3300,46.8373730,29.5684405
66,улица Дружбы,3300,46.8373399,29.5681937
64,улица Дружбы,3300,46.8373234,29.5680583
62,улица Дружбы,3300,46.8373428,29.5679217
60,улица Дружбы,3300,46.8372350,29.5677168
102,улица 28 Июня,3300,46.8387505,29.5736529
104,улица 28 Июня,3300,46.8387472,29.5740471
106,улица 28 Июня,3300,46.8388667,29.5742436
27,улица Дружбы,3300,46.8374141,29.5646556
25,улица Дружбы,3300,46.8373905,29.5644869
99,улица Дружбы,3300,46.8380107,29.5731803
101,улица Дружбы,3300,46.8380378,29.5734377
9,переулок Дружбы,3300,46.8388516,29.5745786
7,переулок Дружбы,3300,46.8386115,29.5743206
107,улица Дружбы,3300,46.8383739,29.5743098
5,переулок Дружбы,3300,46.8383745,29.5746174
56,улица Дружбы,3300,46.8372842,29.5675036
54,улица Дружбы,3300,46.8372569,29.5672628
52,улица Дружбы,3300,46.8372769,29.5670604
50,улица Дружбы,3300,46.8372191,29.5668751
48,улица Дружбы,3300,46.8372383,29.5666967
47,улица Карла Либкнехта,3300,46.8364543,29.5663899
110,улица Дружбы,3300,46.8377293,29.5734328
108,улица Дружбы,3300,46.8377394,29.5732112
112,улица Дружбы,3300,46.8377625,29.5740726
3,переулок Дружбы,3300,46.8377284,29.5744643
117,улица Карла Либкнехта,3300,46.8370927,29.5732814
119,улица Карла Либкнехта,3300,46.8370831,29.5734619
123,улица Карла Либкнехта,3300,46.8372620,29.5741012
125,улица Карла Либкнехта,3300,46.8372824,29.5742714
127,улица Карла Либкнехта,3300,46.8371485,29.5746461
114,улица Дружбы,3300,46.8379634,29.5744054
116,улица Дружбы,3300,46.8380732,29.5750151
135,улица Карла Либкнехта,3300,46.8375521,29.5751432
129,улица Карла Либкнехта,3300,46.8372505,29.5750975
131,улица Карла Либкнехта,3300,46.8372671,29.5753014
133,улица Карла Либкнехта,3300,46.8372512,29.5756260
30,улица 28 Июня,3300,46.8379377,29.5643865
28,улица 28 Июня,3300,46.8379013,29.5641475
26,улица 28 Июня,3300,46.8378843,29.5639513
21,улица 28 Июня,3300,46.8381925,29.5637898
19,улица 28 Июня,3300,46.8381934,29.5635356
20,переулок 28 Июня,3300,46.8385561,29.5646174
17,улица 28 Июня,3300,46.8381414,29.5633693
15,улица 28 Июня,3300,46.8380829,29.5632253
13,улица 28 Июня,3300,46.8380904,29.5629674
11,улица 28 Июня,3300,46.8381183,29.5627741
9,улица 28 Июня,3300,46.8380789,29.5625521
7,улица 28 Июня,3300,46.8380700,29.5623576
5,улица 28 Июня,3300,46.8380308,29.5621685
3,улица 28 Июня,3300,46.8380185,29.5619710
1,улица 28 Июня,3300,46.8379862,29.5617730
109,улица Дружбы,3300,46.8383147,29.5750467
111,улица Дружбы,3300,46.8383566,29.5752959
113,улица Дружбы,3300,46.8383443,29.5754823
117,улица Дружбы,3300,46.8383456,29.5759855
119,улица Дружбы,3300,46.8383728,29.5761636
121,улица Дружбы,3300,46.8384083,29.5764043
123,улица Дружбы,3300,46.8384169,29.5766012
125,улица Дружбы,3300,46.8384415,29.5768154
127,улица Дружбы,3300,46.8384670,29.5771160
48,улица Карла Либкнехта,3300,46.8359791,29.5707270
46,улица Карла Либкнехта,3300,46.8361816,29.5704090
44,улица Карла Либкнехта,3300,46.8361129,29.5700961
128/128а,улица Дружбы,3300,46.8381990,29.5771030
126,улица Дружбы,3300,46.8381973,29.5766952
1,1-й переулок Крупской,3300,46.8461337,29.5961785
3,1-й переулок Крупской,3300,46.8459294,29.5959031
21,улица Дружбы,3300,46.8373550,29.5640787
23,улица Дружбы,3300,46.8374644,29.5642856
19,улица Дружбы,3300,46.8373899,29.5638300
17,улица Дружбы,3300,46.8372739,29.5637566
15,улица Дружбы,3300,46.8373141,29.5634828
13,улица Дружбы,3300,46.8373100,29.5633143
11,улица Дружбы,3300,46.8373376,29.5630559
1,улица Дружбы,3300,46.8371728,29.5617707
2,Западный переулок,3300,46.8374524,29.5618386
24,улица 28 Июня,3300,46.8378690,29.5637504
22,улица 28 Июня,3300,46.8377369,29.5635789
16,улица 28 Июня,3300,46.8377310,29.5630733
18,улица 28 Июня,3300,46.8377945,29.5632440
8,улица 28 Июня,3300,46.8376857,29.5622637
4,улица 28 Июня,3300,46.8376981,29.5620375
2,улица 28 Июня,3300,46.8376736,29.5618030
6,улица 28 Июня,3300,46.8375308,29.5621479
9,улица Дружбы,3300,46.8375189,29.5628089
8,улица Дружбы,3300,46.8369703,29.5623289
21,улица Карла Либкнехта,3300,46.8362121,29.5637657
23,улица Карла Либкнехта,3300,46.8362139,29.5639518
40,улица Дружбы,3300,46.8371592,29.5650255
1,переулок Ушакова,3300,46.8368372,29.5658178
4,улица Дружбы,3300,46.8369554,29.5619542
2,улица Дружбы,3300,46.8369437,29.5617825
31,улица Карла Либкнехта,3300,46.8362136,29.5647374
27,улица Карла Либкнехта,3300,46.8362501,29.5643942
39,улица Карла Либкнехта,3300,46.8363444,29.5654798
41,улица Карла Либкнехта,3300,46.8363864,29.5656071
43,улица Карла Либкнехта,3300,46.8363338,29.5657749
81,улица Клары Цеткин,3300,46.8477044,29.5948920
42,Партизанский переулок,3300,46.8475112,29.5947957
83,улица Клары Цеткин,3300,46.8478215,29.5946378
28,улица Карла Либкнехта,3300,46.8360080,29.5684870
32,улица Карла Либкнехта,3300,46.8360365,29.5689121
34,улица Карла Либкнехта,3300,46.8360153,29.5691027
36,улица Карла Либкнехта,3300,46.8360993,29.5692881
40,улица Карла Либкнехта,3300,46.8358853,29.5697679
38,улица Карла Либкнехта,3300,46.8361002,29.5695601
42,улица Карла Либкнехта,3300,46.8360972,29.5699160
19,переулок Володи Дубинина,3300,46.8350659,29.5692844
36,переулок Володи Дубинина,3300,46.8350222,29.5705841
3,Гвардейская улица,3300,46.8392156,29.5618055
5,Гвардейская улица,3300,46.8392282,29.5620582
7,Гвардейская улица,3300,46.8391951,29.5624223
2,Гвардейский переулок,3300,46.8397999,29.5617228
4,Гвардейский переулок,3300,46.8397502,29.5619653
6,Гвардейский переулок,3300,46.8397796,29.5624383
8,Гвардейский переулок,3300,46.8398454,29.5626538
1,Гвардейский переулок,3300,46.8400142,29.5617127
3,Гвардейский переулок,3300,46.8400476,29.5619650
5,Гвардейский переулок,3300,46.8400343,29.5621954
7,Гвардейский переулок,3300,46.8400828,29.5623596
7,улица Негруцци,3300,46.8347778,29.5667378
3,переулок Володи Дубинина,3300,46.8348527,29.5672888
244,улица Карла Либкнехта,3300,46.8397792,29.6153155
7,Партизанская улица,3300,46.8401635,29.5910390
9,Партизанская улица,3300,46.8401573,29.5911805
3,Партизанская улица,3300,46.8400645,29.5904379
4,улица Крупской,3300,46.8400170,29.5901330
1,Партизанская улица,3300,46.8399390,29.5902640
6,Партизанская улица,3300,46.8396877,29.5902464
11,переулок Володи Дубинина,3300,46.8349713,29.5684186
9,переулок Володи Дубинина,3300,46.8349768,29.5681110
7,переулок Володи Дубинина,3300,46.8348568,29.5678207
17,переулок Володи Дубинина,3300,46.8350913,29.5690807
15,переулок Володи Дубинина,3300,46.8350617,29.5688779
13,переулок Володи Дубинина,3300,46.8350796,29.5687344
14,переулок Володи Дубинина,3300,46.8345809,29.5679182
16,переулок Володи Дубинина,3300,46.8346869,29.5684069
18,переулок Володи Дубинина,3300,46.8346220,29.5685930
12,переулок Володи Дубинина,3300,46.8346047,29.5677217
10,переулок Володи Дубинина,3300,46.8345412,29.5675911
1,переулок Новаторов,3300,46.8342633,29.5677550
116,улица Кутузова,3300,46.8353166,29.6506302
2А,улица 95-й Молдавской Дивизии,3300,46.8339070,29.5982148
13,Партизанская улица,3300,46.8401963,29.5917489
9,Комсомольский переулок,3300,46.8406261,29.5910415
7,Комсомольский переулок,3300,46.8405486,29.5912619
11,Комсомольский переулок,3300,46.8407865,29.5908812
13,Комсомольский переулок,3300,46.8408471,29.5907635
6,улица Крупской,3300,46.8403135,29.5902799
10,улица Крупской,3300,46.8405660,29.5904537
12,улица Крупской,3300,46.8407095,29.5903900
14,улица Крупской,3300,46.8408477,29.5904786
15,Комсомольский переулок,3300,46.8410159,29.5905067
11,улица Орджоникидзе,3300,46.8416808,29.5927785
13,улица Орджоникидзе,3300,46.8417886,29.5926234
15,улица Орджоникидзе,3300,46.8418395,29.5925244
17,улица Орджоникидзе,3300,46.8418966,29.5923056
21,улица Орджоникидзе,3300,46.8419748,29.5919998
23,улица Орджоникидзе,3300,46.8420638,29.5918965
9,улица Куйбышева,3300,46.8347817,29.5745406
11,улица Куйбышева,3300,46.8348156,29.5746871
17,улица Куйбышева,3300,46.8346319,29.5753064
19,улица Куйбышева,3300,46.8346767,29.5756012
21,улица Куйбышева,3300,46.8345994,29.5758454
27,улица Куйбышева,3300,46.8348847,29.5766315
23,улица Куйбышева,3300,46.8345850,29.5762567
25,улица Куйбышева,3300,46.8345753,29.5764307
25,переулок Мечникова,3300,46.8353689,29.5771195
23,переулок Мечникова,3300,46.8354380,29.5768204
27,переулок Мечникова,3300,46.8353662,29.5774036
29,переулок Мечникова,3300,46.8353338,29.5777151
24,переулок Мечникова,3300,46.8350999,29.5772815
26,переулок Мечникова,3300,46.8350834,29.5779001
29,улица Куйбышева,3300,46.8345718,29.5767477
31,улица Куйбышева,3300,46.8345390,29.5769589
33,улица Куйбышева,3300,46.8345377,29.5771876
3,переулок Попова,3300,46.8335429,29.5726636
1,переулок Попова,3300,46.8338231,29.5725962
26,улица Мечникова,3300,46.8338713,29.5729543
28,улица Мечникова,3300,46.8339043,29.5733447
30,улица Мечникова,3300,46.8336253,29.5733495
5,переулок Попова,3300,46.8332844,29.5727172
34,улица Мечникова,3300,46.8333652,29.5734797
7,переулок Попова,3300,46.8329842,29.5727874
9,переулок Попова,3300,46.8326536,29.5727920
38,улица Мечникова,3300,46.8326394,29.5732190
31,улица Мечникова,3300,46.8326554,29.5741016
28,переулок Володи Дубинина,3300,46.8348656,29.5698339
11,переулок Новаторов,3300,46.8346840,29.5699527
13,переулок Новаторов,3300,46.8346116,29.5702197
30,переулок Володи Дубинина,3300,46.8349559,29.5701068
32,переулок Володи Дубинина,3300,46.8349539,29.5703114
34,переулок Володи Дубинина,3300,46.8349886,29.5704403
17,переулок Новаторов,3300,46.8346751,29.5706549
56,улица Мечникова,3300,46.8318195,29.5737288
13,переулок Попова,3300,46.8320369,29.5729727
11,переулок Попова,3300,46.8323360,29.5728658
63,улица Негруцци,3300,46.8340275,29.5713071
24,переулок Новаторов,3300,46.8344280,29.5709717
8,Молодёжный переулок,3300,46.8345014,29.5712954
61,улица Негруцци,3300,46.8339118,29.5710715
59,улица Негруцци,3300,46.8339860,29.5709034
6,Молодёжный переулок,3300,46.8347527,29.5712251
57,улица Негруцци,3300,46.8338307,29.5707854
53,улица Негруцци,3300,46.8337875,29.5705490
51,улица Негруцци,3300,46.8337413,29.5701792
22,переулок Новаторов,3300,46.8343451,29.5705671
20,переулок Новаторов,3300,46.8342508,29.5702607
18,переулок Новаторов,3300,46.8343084,29.5700262
49,улица Негруцци,3300,46.8336352,29.5696186
16,переулок Новаторов,3300,46.8342281,29.5697425
14,переулок Новаторов,3300,46.8340339,29.5695165
3,улица Солтыса,3300,46.8357757,29.5800205
2,переулок Володи Дубинина,3300,46.8345061,29.5670530
11,улица Негруцци,3300,46.8343402,29.5668566
13,улица Негруцци,3300,46.8341616,29.5669795
12,переулок Новаторов,3300,46.8340704,29.5692881
10,переулок Новаторов,3300,46.8340861,29.5690349
8,переулок Новаторов,3300,46.8340436,29.5688496
8,Терновский переулок,3300,46.8321282,29.5746617
49,улица Макаренко,3300,46.8327188,29.5751954
1,Терновский переулок,3300,46.8325435,29.5750904
37,улица Мечникова,3300,46.8321227,29.5742519
39,улица Мечникова,3300,46.8319006,29.5743648
10,Терновский переулок,3300,46.8320672,29.5749461
5,Терновский переулок,3300,46.8323144,29.5752895
7,Терновский переулок,3300,46.8324171,29.5755381
47,улица Макаренко,3300,46.8327508,29.5754445
12,Терновский переулок,3300,46.8321054,29.5751373
14,Терновский переулок,3300,46.8321186,29.5753994
16,Терновский переулок,3300,46.8321504,29.5755972
6,переулок Новаторов,3300,46.8341516,29.5686476
4,переулок Новаторов,3300,46.8340661,29.5683758
2,переулок Новаторов,3300,46.8339117,29.5680335
5,переулок Новаторов,3300,46.8342871,29.5683189
3,переулок Новаторов,3300,46.8342907,29.5680038
15,улица Негруцци,3300,46.8338419,29.5670803
17,улица Негруцци,3300,46.8337001,29.5670936
2а,переулок Новаторов,3300,46.8339881,29.5676743
9,улица Негруцци,3300,46.8344961,29.5668236
30,улица Негруцци,3300,46.8334175,29.5667779
37,улица Негруцци,3300,46.8335237,29.5689728
35,улица Негруцци,3300,46.8336787,29.5687097
19,улица Негруцци,3300,46.8332123,29.5672719
21,улица Негруцци,3300,46.8332271,29.5674532
23,улица Негруцци,3300,46.8333019,29.5676839
25,улица Негруцци,3300,46.8333923,29.5678370
27,улица Негруцци,3300,46.8334000,29.5679658
29,улица Негруцци,3300,46.8333814,29.5681136
31,улица Негруцци,3300,46.8333818,29.5682856
38,улица Негруцци,3300,46.8326299,29.5670400
12,улица Ломоносова,3300,46.8356184,29.5786756
20,улица Солтыса,3300,46.8344276,29.5788693
3,переулок Панфилова,3300,46.8414274,29.5896774
5,переулок Панфилова,3300,46.8412659,29.5895651
2,улица Крупской,3300,46.8393860,29.5898514
5,Комсомольский переулок,3300,46.8404575,29.5912904
8,улица Крупской,3300,46.8404259,29.5903514
1б,улица Солтыса,3300,46.8362108,29.5800813
3,улица Солтыса,3300,46.8359652,29.5800035
2,улица Чайковского,3300,46.8363772,29.5806750
4,улица Чайковского,3300,46.8361459,29.5807293
1а,улица Солтыса,3300,46.8363559,29.5802137
156,улица Карла Либкнехта,3300,46.8389860,29.5981801
11,Терновский переулок,3300,46.8325254,29.5764445
9,Терновский переулок,3300,46.8323914,29.5758728
13,Терновский переулок,3300,46.8325176,29.5768653
45,улица Макаренко,3300,46.8327717,29.5756884
35,улица Макаренко,3300,46.8328960,29.5767742
41,улица Макаренко,3300,46.8326327,29.5761406
43,улица Макаренко,3300,46.8328085,29.5758812
39,улица Макаренко,3300,46.8328286,29.5763117
37,улица Макаренко,3300,46.8327311,29.5766249
20,переулок Чехова,3300,46.8568690,29.6388586
37,улица Чехова,3300,46.8567364,29.6388178
35,улица Чехова,3300,46.8565997,29.6387300
33,улица Чехова,3300,46.8564818,29.6386344
31,улица Чехова,3300,46.8564499,29.6384347
29,улица Чехова,3300,46.8562896,29.6385541
27,улица Чехова,3300,46.8561820,29.6385092
25,улица Чехова,3300,46.8560688,29.6384702
23,улица Чехова,3300,46.8558787,29.6384423
21,улица Чехова,3300,46.8557721,29.6383687
4,переулок Панфилова,3300,46.8417123,29.5881736
56,улица Коммунаров,3300,46.8427427,29.5858516
35,улица Коммунаров,3300,46.8422705,29.5858105
3,улица Чайковского,3300,46.8367312,29.5809513
1,улица Чайковского,3300,46.8368966,29.5809212
3а,улица Чайковского,3300,46.8367752,29.5812871
5,улица Чайковского,3300,46.8365216,29.5810819
31,улица Коммунаров,3300,46.8422333,29.5862651
33,улица Коммунаров,3300,46.8422316,29.5860526
110,улица Строителей,3300,46.8555477,29.6389086
20а,улица Чехова,3300,46.8550199,29.6388488
112,улица Строителей,3300,46.8554789,29.6391389
114,улица Строителей,3300,46.8554011,29.6393321
116,улица Строителей,3300,46.8553819,29.6395308
118,улица Строителей,3300,46.8553003,29.6398791
69,Совхозная улица,3300,46.8309595,29.5709441
67,Совхозная улица,3300,46.8309307,29.5714099
68,Совхозная улица,3300,46.8313613,29.5717907
70,Совхозная улица,3300,46.8312063,29.5714968
66,Совхозная улица,3300,46.8312930,29.5720725
62,Совхозная улица,3300,46.8312846,29.5726972
54,Совхозная улица,3300,46.8314758,29.5739272
60,Совхозная улица,3300,46.8313377,29.5729790
58,Совхозная улица,3300,46.8313516,29.5732202
56,Совхозная улица,3300,46.8313493,29.5736862
70,2-й Пионерский переулок,3300,46.8475518,29.5938460
68,2-й Пионерский переулок,3300,46.8474580,29.5936815
8А,переулок Ушакова,3300,46.8441840,29.5670219
58,Степной переулок,3300,46.8463530,29.5898372
65,Совхозная улица,3300,46.8309928,29.5716637
63,Совхозная улица,3300,46.8310336,29.5719421
6,Крепостной переулок,3300,46.8368690,29.5824808
7,улица Чайковского,3300,46.8364418,29.5811182
36,улица Восстания,3300,46.8337729,29.6214655
61,Совхозная улица,3300,46.8309948,29.5721624
59,Совхозная улица,3300,46.8310087,29.5723484
53,Совхозная улица,3300,46.8310469,29.5728168
55,Совхозная улица,3300,46.8309060,29.5726644
9,Суклейский переулок,3300,46.8291487,29.6530547
37,улица Мира,3300,46.8314666,29.6474359
123,1-й Тракторный переулок,3300,46.8468926,29.5776106
92,улица Клары Цеткин,3300,46.8484231,29.5941843
96,улица Клары Цеткин,3300,46.8485153,29.5939694
5,Колхозная улица,3300,46.8478539,29.5918532
4,переулок Коммунаров,3300,46.8442611,29.5887777
7,Колхозная улица,3300,46.8478647,29.5915956
51,Партизанский переулок,3300,46.8485544,29.5921879
53,Партизанский переулок,3300,46.8486119,29.5919998
55,Партизанский переулок,3300,46.8486888,29.5918579
57,Партизанский переулок,3300,46.8487599,29.5916997
59,Партизанский переулок,3300,46.8488513,29.5916127
61,Партизанский переулок,3300,46.8485649,29.5912796
63,Партизанский переулок,3300,46.8483632,29.5909577
98,улица Клары Цеткин,3300,46.8486076,29.5937351
5,переулок Коммунаров,3300,46.8444650,29.5885190
3,переулок Коммунаров,3300,46.8441792,29.5883433
1,переулок Коммунаров,3300,46.8440799,29.5883229
7,переулок Коммунаров,3300,46.8446616,29.5886719
6,переулок Коммунаров,3300,46.8444457,29.5889109
8,переулок Коммунаров,3300,46.8446287,29.5889219
9,переулок Коммунаров,3300,46.8448169,29.5886430
11,улица Коммунаров,3300,46.8449278,29.5888208
14,переулок Коммунаров,3300,46.8448825,29.5890778
10,переулок Коммунаров,3300,46.8446681,29.5891856
12,переулок Коммунаров,3300,46.8447670,29.5891086
56,1-й Тракторный переулок,3300,46.8471830,29.5777969
54,1-й Тракторный переулок,3300,46.8470923,29.5780087
1,Красноармейский переулок,3300,46.8469548,29.5784166
85,Бендерская улица,3300,46.8473752,29.5780562
9,Красноармейский переулок,3300,46.8473908,29.5784642
31,улица Нахимова,3300,46.8310310,29.5830838
6,Совхозный переулок,3300,46.8305923,29.5732481
4,Совхозный переулок,3300,46.8306779,29.5728481
51,Совхозная улица,3300,46.8310822,29.5731740
2,Совхозный переулок,3300,46.8310502,29.5733600
2,переулок Матросова,3300,46.8323695,29.6483674
4,переулок Матросова,3300,46.8321799,29.6486919
6,переулок Матросова,3300,46.8320667,29.6488648
8,переулок Матросова,3300,46.8319844,29.6490336
14,Восточный переулок,3300,46.8325709,29.6485948
32,улица Царёва,3300,46.8327699,29.6488704
16,Восточный переулок,3300,46.8326503,29.6487332
1,переулок Матросова,3300,46.8324305,29.6488924
3,переулок Матросова,3300,46.8322883,29.6491059
5,переулок Матросова,3300,46.8321831,29.6492487
7,улица Царёва,3300,46.8321133,29.6494524
9,улица Царёва,3300,46.8319574,29.6496562
3,Совхозный переулок,3300,46.8308083,29.5736815
24,Речной переулок,3300,46.8302645,29.5769099
5,Совхозный переулок,3300,46.8305796,29.5736802
7,Совхозный переулок,3300,46.8304020,29.5737574
9,Совхозный переулок,3300,46.8302258,29.5737163
11,Совхозный переулок,3300,46.8301012,29.5737468
15,Совхозный переулок,3300,46.8298521,29.5737476
19,Совхозный переулок,3300,46.8299112,29.5733544
17,Совхозный переулок,3300,46.8297588,29.5734176
27,Совхозный переулок,3300,46.8301018,29.5722979
25,Совхозный переулок,3300,46.8300808,29.5725475
21,Совхозный переулок,3300,46.8298506,29.5731792
9,Совхозная улица,3300,46.8318625,29.5805393
7,Совхозная улица,3300,46.8319331,29.5807034
1,Речной переулок,3300,46.8313244,29.5777721
11,Совхозная улица,3300,46.8317803,29.5803086
12,Терновская улица,3300,46.8315900,29.5803651
50,улица Солтыса,3300,46.8314751,29.5787689
52,улица Солтыса,3300,46.8312455,29.5787837
14,Терновская улица,3300,46.8313290,29.5807563
3,Речной переулок,3300,46.8311634,29.5776767
5,Речной переулок,3300,46.8310551,29.5776504
52а,улица Солтыса,3300,46.8311372,29.5786062
7,Речной переулок,3300,46.8309004,29.5776959
9,Речной переулок,3300,46.8306678,29.5776849
11,Речной переулок,3300,46.8305398,29.5775584
13,Речной переулок,3300,46.8304081,29.5775649
54,улица Солтыса,3300,46.8309762,29.5787089
56,улица Солтыса,3300,46.8308558,29.5787448
58,улица Солтыса,3300,46.8307013,29.5787405
60,улица Солтыса,3300,46.8305522,29.5787542
62,улица Солтыса,3300,46.8303524,29.5787295
64,улица Солтыса,3300,46.8301781,29.5787161
15,Речной переулок,3300,46.8299959,29.5778588
45,улица Солтыса,3300,46.8297036,29.5790108
16,Терновская улица,3300,46.8310987,29.5807298
18,Терновская улица,3300,46.8308856,29.5807126
20,Терновская улица,3300,46.8307337,29.5806610
22,Терновская улица,3300,46.8305340,29.5806096
54,Терновская улица,3300,46.8299021,29.5773235
52,Терновская улица,3300,46.8297608,29.5774919
46,Терновская улица,3300,46.8297543,29.5781130
42,Терновская улица,3300,46.8297473,29.5785152
44,улица Солтыса,3300,46.8297539,29.5783109
66,улица Солтыса,3300,46.8299758,29.5784988
26,Терновская улица,3300,46.8301630,29.5806642
28,Терновская улица,3300,46.8300237,29.5806053
24,Терновская улица,3300,46.8302886,29.5807284
23,Терновская улица,3300,46.8296381,29.5811711
17,Терновская улица,3300,46.8305390,29.5811453
4,переулок Нахимова,3300,46.8303534,29.5822376
19,Терновская улица,3300,46.8301610,29.5811215
21,Терновская улица,3300,46.8300327,29.5809740
8,переулок Нахимова,3300,46.8299794,29.5815701
6,переулок Нахимова,3300,46.8300891,29.5820779
2,переулок Нахимова,3300,46.8303478,29.5824978
111,улица Строителей,3300,46.8558346,29.6390787
113,улица Строителей,3300,46.8558025,29.6392711
32,улица Чехова,3300,46.8560864,29.6390315
34,улица Чехова,3300,46.8561937,29.6390660
106,улица Клары Цеткин,3300,46.8489967,29.5930954
17,Бендерская улица,3300,46.8488252,29.5891793
10,улица Шевченко,3300,46.8347023,29.6157028
44,Одесская улица,3300,46.8386857,29.6523421
46,Одесская улица,3300,46.8388196,29.6528352
125,Одесская улица,3300,46.8402824,29.6537190
1,Заречная улица,3300,46.8369578,29.6528209
2,Красноармейский переулок,3300,46.8468350,29.5788565
4,Красноармейский переулок,3300,46.8469655,29.5788407
6,Красноармейский переулок,3300,46.8470892,29.5789421
10,переулок Матросова,3300,46.8318474,29.6492307
4,улица Павлова,3300,46.8460775,29.6452638
6,улица Павлова,3300,46.8462144,29.6452072
10,улица Павлова,3300,46.8463358,29.6452366
8,улица Павлова,3300,46.8462825,29.6453271
192,улица Карла Либкнехта,3300,46.8391519,29.6046413
8,Красноармейский переулок,3300,46.8472336,29.5788430
10,Красноармейский переулок,3300,46.8473804,29.5788035
12,Красноармейский переулок,3300,46.8474981,29.5787945
83,Бендерская улица,3300,46.8475228,29.5792264
42,улица Леваневского,3300,46.8395604,29.6426654
15,улица Манойлова,3300,46.8345226,29.6221907
12,улица Горького,3300,46.8324346,29.6184046
69,улица Котовского,3300,46.8421256,29.6190545
67,улица Котовского,3300,46.8420030,29.6190595
345,улица Карла Либкнехта,3300,46.8403864,29.6189816
7,улица Котовского,3300,46.8329845,29.6199592
45,Краснодонская улица,3300,46.8372452,29.6672996
86,Краснодонская улица,3300,46.8418176,29.6741010
127,улица 28 Июня,3300,46.8417217,29.5757535
319,улица Карла Либкнехта,3300,46.8402619,29.6156444
43 А,улица Ларионова,3300,46.8302330,29.6316613
98,улица Восстания,3300,46.8342843,29.6309410
32А,улица Луначарского,3300,46.8377300,29.6176218
65А,улица Космонавтов,3300,46.8471829,29.6098817
81/13,улица Шевченко,3300,46.8458002,29.6124107
14,улица Павлова,3300,46.8466025,29.6452288
22,Балковская улица,3300,46.8433615,29.6489891
20,Балковская улица,3300,46.8434963,29.6490465
19,Балковская улица,3300,46.8435238,29.6494168
17,Балковская улица,3300,46.8436532,29.6493344
14,Балковская улица,3300,46.8438525,29.6488004
15,Балковская улица,3300,46.8437644,29.6492928
13,Балковская улица,3300,46.8438546,29.6492098
42а,улица Текстильщиков,3300,46.8417745,29.6538119
111,Одесская улица,3300,46.8395608,29.6521677
117,Одесская улица,3300,46.8397973,29.6530078
121,Одесская улица,3300,46.8399397,29.6532466
123,Одесская улица,3300,46.8400884,29.6533972
107,Одесская улица,3300,46.8392783,29.6516092
109,Одесская улица,3300,46.8393214,29.6519188
71,улица 28 Июня,3300,46.8387237,29.5700253
57,улица Луначарского,3300,46.8409717,29.6167881
1,Гребеницкий переулок,3300,46.8384842,29.6525014
3,Гребеницкий переулок,3300,46.8383446,29.6529087
3,улица Энергетиков,3300,46.8492549,29.6417052
29,улица Олега Кошевого,3300,46.8508560,29.6425391
12,улица Ленина,3300,46.8331794,29.6253853
47,улица Шевченко,3300,46.8403747,29.6144818
20,улица Павлова,3300,46.8468874,29.6452007
22,улица Павлова,3300,46.8470075,29.6451321
24,улица Павлова,3300,46.8471629,29.6451225
26,улица Павлова,3300,46.8472815,29.6451189
28,улица Павлова,3300,46.8474199,29.6451322
30,улица Павлова,3300,46.8474911,29.6452911
32,улица Павлова,3300,46.8476689,29.6451161
2,улица Клары Цеткин,3300,46.8481164,29.6107662
34,улица Павлова,3300,46.8478123,29.6450863
36,улица Павлова,3300,46.8479707,29.6450756
38,улица Павлова,3300,46.8480931,29.6451018
56,Гравийная улица,3300,46.8528297,29.6411235
6,улица Олега Кошевого,3300,46.8525868,29.6420528
12,улица Олега Кошевого,3300,46.8519975,29.6420087
10,улица Олега Кошевого,3300,46.8522056,29.6419851
8,улица Олега Кошевого,3300,46.8523196,29.6420138
2,улица Олега Кошевого,3300,46.8529804,29.6418995
58,Гравийная улица,3300,46.8530850,29.6411673
4,улица Олега Кошевого,3300,46.8528178,29.6419828
60,Гравийная улица,3300,46.8532431,29.6413219
2б,улица Олега Кошевого,3300,46.8531663,29.6417276
14,Слободзейский переулок,3300,46.8291496,29.6535910
11,Суклейский переулок,3300,46.8288836,29.6531782
13,Суклейский переулок,3300,46.8287550,29.6532404
7,Суклейский переулок,3300,46.8293191,29.6528970
16,Слободзейский переулок,3300,46.8289558,29.6537576
18,Слободзейский переулок,3300,46.8287864,29.6539257
15,Суклейский переулок,3300,46.8286113,29.6533416
20,Слободзейский переулок,3300,46.8286410,29.6539548
17,Суклейский переулок,3300,46.8283190,29.6534612
19,Суклейский переулок,3300,46.8281939,29.6535531
21,Суклейский переулок,3300,46.8280559,29.6535861
24,Слободзейский переулок,3300,46.8282674,29.6542129
3,Суклейский переулок,3300,46.8297355,29.6526704
1,Суклейский переулок,3300,46.8299079,29.6526577
19,Слободзейский переулок,3300,46.8287421,29.6544286
21,Слободзейский переулок,3300,46.8285850,29.6545159
23,Слободзейский переулок,3300,46.8284289,29.6545909
42,улица Павлова,3300,46.8483574,29.6450167
44,улица Павлова,3300,46.8485165,29.6450583
46,улица Павлова,3300,46.8486388,29.6450249
48,улица Павлова,3300,46.8487684,29.6450269
2,переулок Льва Толстого,3300,46.8560346,29.6393861
4,переулок Льва Толстого,3300,46.8560306,29.6395839
115,улица Строителей,3300,46.8557297,29.6394146
6,переулок Льва Толстого,3300,46.8560199,29.6397965
117,улица Строителей,3300,46.8556930,29.6395858
50,улица Павлова,3300,46.8488947,29.6450074
52,улица Павлова,3300,46.8490447,29.6450021
54,улица Павлова,3300,46.8491793,29.6449960
56,улица Павлова,3300,46.8493183,29.6450478
66,улица Павлова,3300,46.8501876,29.6449057
37,улица Энергетиков,3300,46.8513778,29.6435593
64,улица Павлова,3300,46.8500770,29.6450014
62,улица Павлова,3300,46.8499327,29.6449516
60,улица Павлова,3300,46.8496617,29.6449600
58,улица Павлова,3300,46.8494552,29.6449846
43,улица Энергетиков4,3300,46.8516118,29.6431009
47,улица Энергетиков,3300,46.8518668,29.6427985
45,улица Энергетиков,3300,46.8517478,29.6428400
17,улица Олега Кошевого,3300,46.8519237,29.6424404
15,улица Олега Кошевого,3300,46.8520578,29.6424679
13,улица Олега Кошевого,3300,46.8522444,29.6424826
39,улица Энергетиков,3300,46.8515077,29.6433794
41,улица Энергетиков,3300,46.8515765,29.6434539
109/5,улица 25 Октября,3300,46.8388003,29.6329213
35,улица Карла Либкнехта,3300,46.8364883,29.5652655
3,Кучурганская улица,3300,46.8462815,29.6477302
5,Кучурганская улица,3300,46.8465400,29.6478876
15,Кучурганская улица,3300,46.8469215,29.6477632
94,улица Карла Маркса,3300,46.8384819,29.6159238
13,Кучурганская улица,3300,46.8468404,29.6476013
11,Кучурганская улица,3300,46.8468036,29.6473403
9,Кучурганская улица,3300,46.8466223,29.6473614
103,улица Карла Либкнехта,3300,46.8369444,29.5721732
6а,Гребеницкий переулок,3300,46.8375942,29.6534604
1,улица Лермонтова,3300,46.8434083,29.6397351
40,улица Чехова,3300,46.8566383,29.6392976
38,улица Чехова,3300,46.8565212,29.6392404
36,улица Чехова,3300,46.8563982,29.6391836
1,переулок Льва Толстого,3300,46.8563693,29.6393224
42,улица Чехова,3300,46.8567544,29.6393562
13/2,улица Юности,3300,46.8397580,29.6611491
15,Курганный переулок,3300,46.8342124,29.6320841
3,переулок Льва Толстого,3300,46.8563228,29.6395222
5,переулок Льва Толстого,3300,46.8562988,29.6397188
11,улица Олега Кошевого,3300,46.8523574,29.6425086
2,переулок Бажова,3300,46.8524953,29.6426954
4,переулок Бажова,3300,46.8525869,29.6430421
6,переулок Бажова,3300,46.8524875,29.6432382
7,улица Олега Кошевого,3300,46.8528019,29.6424981
51,улица Энергетиков,3300,46.8518080,29.6433879
55,улица Энергетиков,3300,46.8517442,29.6438795
49,улица Энергетиков,3300,46.8517840,29.6431655
59,улица Энергетиков,3300,46.8519837,29.6440393
57,улица Энергетиков,3300,46.8518677,29.6439410
3,переулок Бажова,3300,46.8527736,29.6427665
5,переулок Бажова,3300,46.8527448,29.6431981
1,переулок Бажова,3300,46.8530402,29.6427536
19,переулок Бажова,3300,46.8529040,29.6444165
69,улица Энергетиков,3300,46.8535542,29.6444756
134,улица Строителей,3300,46.8548468,29.6412799
132,улица Строителей,3300,46.8548622,29.6410321
130,улица Строителей,3300,46.8549274,29.6408662
136,улица Строителей,3300,46.8547971,29.6414231
119,улица Строителей,3300,46.8556362,29.6398390
121,улица Строителей,3300,46.8555728,29.6400449
8,переулок Льва Толстого,3300,46.8559561,29.6399767
10,переулок Льва Толстого,3300,46.8559134,29.6401588
12,переулок Льва Толстого,3300,46.8558655,29.6403363
123,улица Строителей,3300,46.8555741,29.6402920
1,улица Олега Кошевого,3300,46.8534259,29.6417728
5,улица Олега Кошевого,3300,46.8530549,29.6423368
8,переулок Бажова,3300,46.8525099,29.6435765
44,улица Мира,3300,46.8346986,29.6405702
246,улица Карла Либкнехта,3300,46.8397559,29.6154732
29,улица Карла Либкнехта,3300,46.8362437,29.5645967
7,переулок Льва Толстого,3300,46.8562573,29.6398984
9,переулок Льва Толстого,3300,46.8561720,29.6400815
11,переулок Льва Толстого,3300,46.8561624,29.6402852
13,переулок Льва Толстого,3300,46.8560976,29.6404695
15,переулок Льва Толстого,3300,46.8561603,29.6407620
24,переулок Чехова,3300,46.8566606,29.6396903
26,переулок Чехова,3300,46.8566087,29.6398734
28,переулок Чехова,3300,46.8565308,29.6400421
30,переулок Чехова,3300,46.8565001,29.6402289
32,переулок Чехова,3300,46.8564453,29.6404136
34,переулок Чехова,3300,46.8564122,29.6406028
36,переулок Чехова,3300,46.8563420,29.6409923
18,переулок Льва Толстого,3300,46.8559022,29.6409331
20,переулок Льва Толстого,3300,46.8558769,29.6412390
6,переулок Ушакова,3300,46.8378618,29.5662247
79,улица 1 Мая,3300,46.8323462,29.6299171
254,улица Карла Либкнехта,3300,46.8397812,29.6167698
1/3,улица Ленина,3300,46.8307948,29.6244131
12,улица Шевченко,3300,46.8351392,29.6155910
1/3,улица Карла Либкнехта,3300,46.8383308,29.5499518
53,улица Восстания,3300,46.8342441,29.6220195
15/1,улица Восстания,3300,46.8339295,29.6168766
17,улица Восстания,3300,46.8339810,29.6171332
1Б,улица Карла Маркса,3300,46.8382637,29.5964236
1,переулок Христофорова,3300,46.8348868,29.6008178
2,переулок Христофорова,3300,46.8348644,29.6010875
19,2-й Бородинский переулок,3300,46.8406180,29.5948910
17А,2-й Бородинский переулок,3300,46.8404445,29.5949493
79,улица Горького,3300,46.8334889,29.6292701
97,улица Горького,3300,46.8334986,29.6317608
36/11,Краснодонская улица,3300,46.8317837,29.6673754
43,Одесская улица,3300,46.8330337,29.6409295
5,переулок Чернышевского,3300,46.8339027,29.6390844
3A,Театральный переулок,3300,46.8340602,29.6381753
113,Советская улица,3300,46.8416443,29.6188210
76,Советская улица,3300,46.8409593,29.6154390
108,улица Горького,3300,46.8331130,29.6318476
25,улица Генерала Шарохина,3300,46.8340090,29.6579922
63,улица Фрунзе,3300,46.8342820,29.6578059
65,улица Фрунзе,3300,46.8341322,29.6578693
27,улица Генерала Шарохина,3300,46.8340831,29.6582013
29,улица Генерала Шарохина,3300,46.8341367,29.6583412
36,улица Текстильщиков,3300,46.8428106,29.6533486
6,улица Текстильщиков,3300,46.8441452,29.6494223
3,улица Синёва,3300,46.8407244,29.6363654
19,улица Манойлова,3300,46.8358418,29.6220409
115,Советская улица,3300,46.8416075,29.6191822
57,улица Манойлова,3300,46.8457167,29.6211934
12,переулок Свердлова,3300,46.8348061,29.6358623
75,Одесская улица,3300,46.8375882,29.6457450
6,переулок Энгельса,MD-3300,46.8360451,29.6034305
91Б,улица Шевченко,3300,46.8521898,29.6083440
118,улица 25 Октября,3300,46.8364235,29.6287492
33,улица Мира,3300,46.8340319,29.6436669
93,улица 25 Октября,3300,46.8368765,29.6239080
46,переулок Чехова,3300,46.8563801,29.6424387
48,переулок Чехова,3300,46.8565191,29.6429688
12,Балковская улица,3300,46.8439753,29.6486623
9,Балковская улица,3300,46.8440893,29.6489623
11,Балковская улица,3300,46.8439396,29.6490573
51,улица Свердлова,3300,46.8357515,29.6266637
99,улица 25 Октября,MD-3300,46.8372028,29.6265728
54,улица Юности,3300,46.8328671,29.6714600
204А,улица Карла Либкнехта,3300,46.8393776,29.6070816
49,улица Юности,3300,46.8331735,29.6755369
8,Балковская улица,3300,46.8441869,29.6484081
56а,Краснодонская улица,3300,46.8410348,29.6727012
58,улица 1 Мая,3300,46.8308737,29.6271720
15,улица Зелинского,3300,46.8638306,29.6362784
17,улица Зелинского,3300,46.8634040,29.6366401
1,улица Синёва,3300,46.8418280,29.6375216
71,улица Калинина,3300,46.8551080,29.6363736
74,улица Строителей,3300,46.8553180,29.6370314
57В,улица Сакриера,3300,46.8538322,29.6350319
26,улица Генерала Шарохина,3300,46.8339073,29.6587728
92,улица Курчатова,3300,46.8336807,29.6589333
94,улица Курчатова,3300,46.8335340,29.6590136
96,улица Курчатова,3300,46.8334040,29.6590962
98,улица Курчатова,3300,46.8332724,29.6591007
100,улица Курчатова,3300,46.8331626,29.6592626
102,улица Курчатова,3300,46.8330373,29.6593428
104,улица Курчатова,3300,46.8329145,29.6593779
64,Совхозная улица,3300,46.8313548,29.5723823
106,улица Курчатова,3300,46.8327996,29.6594519
5,Магистральный проезд,3300,46.8459469,29.6704432
72,улица 28 Июня,3300,46.8384862,29.5705937
7/2,Каховская улица,3300,46.8372011,29.6592997
14,улица Юности,MD-3300,46.8362308,29.6622507
16/1,Комсомольская улица,3300,46.8377833,29.6692703
112,улица Курчатова,3300,46.8324112,29.6597967
108,улица Курчатова,3300,46.8326749,29.6596071
22,улица Юности,3300,46.8336305,29.6665147
17,Каховская улица,3300,46.8333559,29.6610220
22,Каховская улица,3300,46.8329557,29.6604568
61,улица Фрунзе,3300,46.8344432,29.6578949
90,улица Курчатова,3300,46.8344334,29.6583292
88,улица Курчатова,3300,46.8345785,29.6582473
61,улица Фрунзе,3300,46.8345127,29.6576412
59,улица Фрунзе,3300,46.8346385,29.6575548
86,улица Курчатова,3300,46.8346792,29.6580995
53,улица Фрунзе,3300,46.8350084,29.6572734
57,улица Фрунзе,3300,46.8347873,29.6575166
55,улица Фрунзе,3300,46.8348888,29.6573796
84,улица Курчатова,3300,46.8348162,29.6580779
82,улица Курчатова,3300,46.8349520,29.6579829
80,улица Курчатова,3300,46.8350523,29.6578403
76,улица Курчатова,3300,46.8353087,29.6577119
78,улица Курчатова,3300,46.8351773,29.6578182
2а,Заречный переулок,3300,46.8353502,29.6544569
2б,Заречный переулок,3300,46.8355840,29.6543043
2в,Заречный переулок,3300,46.8357048,29.6542223
1,Заречный переулок,3300,46.8361426,29.6544057
44,улица 20 Партсъезда,3300,46.8359265,29.6548966
48,улица 20 Партсъезда,3300,46.8356570,29.6550971
42,улица 20 Партсъезда,3300,46.8361759,29.6547326
2д,Заречная улица,3300,46.8363769,29.6526487
2в,Заречная улица,3300,46.8364873,29.6525618
2а,Заречная улица,3300,46.8367260,29.6524226
2б,Заречная улица,3300,46.8366106,29.6524511
3,Заречная улица,3300,46.8367625,29.6529356
5,Заречная улица,3300,46.8365547,29.6530482
2ж,Заречный переулок,3300,46.8361312,29.6538860
7,Заречная улица,3300,46.8362044,29.6531875
9,Заречная улица,3300,46.8361228,29.6533043
11,Заречная улица,3300,46.8360375,29.6535193
1/1,Комсомольская улица,3300,46.8410338,29.6691927
32,улица 20 Партсъезда,3300,46.8367214,29.6538122
13,улица 20 Партсъезда,3300,46.8372430,29.6536272
40,улица 20 Партсъезда,3300,46.8362629,29.6544490
2г,Заречный переулок,3300,46.8357948,29.6540723
34,улица 20 Партсъезда,3300,46.8365612,29.6541758
36,улица 20 Партсъезда,3300,46.8364363,29.6542069
38,улица 20 Партсъезда,3300,46.8363684,29.6543711
33,улица Мира,3300,46.8340708,29.6458846
62,улица 1 Мая,3300,46.8315584,29.6308117
110Б,улица Горького,3300,46.8327098,29.6337584
24,улица Христо Ботева,3300,46.8633636,29.6282304
5,Гребеницкий переулок,3300,46.8383431,29.6536269
7,Гребеницкий переулок,3300,46.8383116,29.6539165
9,Гребеницкий переулок,3300,46.8383287,29.6541746
10,улица Фрунзе,3300,46.8383202,29.6546108
8а,улица Фрунзе,3300,46.8384121,29.6545626
8,улица Фрунзе,3300,46.8385979,29.6545069
125,улица Строителей,3300,46.8554407,29.6404822
127,улица Строителей,3300,46.8554066,29.6406562
16,переулок Льва Толстого,3300,46.8557555,29.6407162
58,улица Зелинского,3300,46.8632716,29.6357997
10,переулок Бажова,3300,46.8524349,29.6439267
12,переулок Бажова,3300,46.8523609,29.6442892
61,улица Энергетиков,3300,46.8521216,29.6441285
11,переулок Бажова,3300,46.8526964,29.6438354
15,переулок Бажова,3300,46.8525959,29.6442062
17,переулок Бажова,3300,46.8527052,29.6443213
63,улица Энергетиков,3300,46.8530413,29.6444631
67,улица Энергетиков,3300,46.8534225,29.6444403
81,улица Энергетиков,3300,46.8540231,29.6431937
74,Гравийная улица,3300,46.8542848,29.6428650
74а,Гравийная улица,3300,46.8544474,29.6428424
129,улица Строителей,3300,46.8553317,29.6408285
131,улица Строителей,3300,46.8553518,29.6409497
133,улица Строителей,3300,46.8552583,29.6412451
135,улица Строителей,3300,46.8551908,29.6414307
137,улица Строителей,3300,46.8551528,29.6416271
44,переулок Чехова,3300,46.8563496,29.6421653
10а,улица Жуковского,3300,46.8562064,29.6421273
10,улица Жуковского,3300,46.8560648,29.6423438
3,улица Олега Кошевого,3300,46.8531770,29.6423258
79,Гравийная улица,3300,46.8539816,29.6435269
78,Гравийная улица,3300,46.8546713,29.6428131
83,улица Энергетиков,3300,46.8541776,29.6431939
85,улица Энергетиков,3300,46.8541786,29.6435554
87,улица Энергетиков,3300,46.8540809,29.6437659
89,улица Энергетиков,3300,46.8541812,29.6440629
93,улица Энергетиков,3300,46.8540797,29.6445945
77,улица Энергетиков,3300,46.8538723,29.6438424
75,улица Энергетиков,3300,46.8538402,29.6441540
91,улица Энергетиков,3300,46.8540104,29.6442298
73,улица Энергетиков,3300,46.8538544,29.6445232
71,улица Энергетиков,3300,46.8537046,29.6445745
7,переулок Бажова,3300,46.8527098,29.6434875
84,Гравийная улица,3300,46.8550284,29.6427445
86а,Гравийная улица,3300,46.8551721,29.6428126
88,переулок Энергетиков,3300,46.8555301,29.6431839
2,улица Жуковского,3300,46.8554659,29.6427888
4,улица Жуковского,3300,46.8555685,29.6427624
6,улица Жуковского,3300,46.8556739,29.6426248
2,улица Димитрова,3300,46.8567874,29.6428572
4,улица Димитрова,3300,46.8570785,29.6426670
125,улица Энергетиков,3300,46.8572382,29.6432850
123,улица Энергетиков,3300,46.8570765,29.6434339
6,улица Димитрова,3300,46.8574006,29.6425730
53,улица Профсоюзов,3300,46.8511821,29.6352010
58,улица Профсоюзов,3300,46.8483940,29.6378809
12,улица Димитрова,3200,46.8593056,29.6416914
10,улица Димитрова,3200,46.8588776,29.6418722
8,улица Димитрова,3300,46.8576208,29.6426655
127,улица Энергетиков,3300,46.8573655,29.6431480
131,улица Энергетиков,3300,46.8575785,29.6432698
133,улица Энергетиков,3300,46.8576937,29.6432083
34А,улица Федько,3300,46.8354962,29.5929367
113,улица 1 Мая,3300,46.8322630,29.6338902
4,Балковская улица,3300,46.8444239,29.6483377
6,Балковская улица,3300,46.8443151,29.6484108
10,Балковская улица,3300,46.8441320,29.6485866
38,переулок Володи Дубинина,3300,46.8349651,29.5709584
64А,улица Шевченко,3300,46.8469537,29.6149347
10,Советская улица,3300,46.8304713,29.5696737
2,Крепостной переулок,3300,46.8371066,29.5840676
35,улица Мечникова,3300,46.8322355,29.5742027
33,улица Мечникова,3300,46.8323281,29.5741673
57,Совхозная улица,3300,46.8309717,29.5725276
38,улица Ларионова,3300,46.8286014,29.6294986
19,улица Космонавтов,3300,46.8468019,29.6070029
19,улица 20 Партсъезда,3300,46.8366731,29.6546811
17,улица 20 Партсъезда,3300,46.8367877,29.6547967
19,улица 20 Партсъезда,3300,46.8366038,29.6548433
21а,улица 20 Партсъезда,3300,46.8364811,29.6548209
32,улица Фрунзе,3300,46.8366463,29.6555332
30,улица Фрунзе,3300,46.8368098,29.6554014
2а,Гребеницкий переулок,3300,46.8380657,29.6526141
2,Гребеницкий переулок,3300,46.8380185,29.6527829
4,Гребеницкий переулок,3300,46.8380601,29.6530596
7,улица 20 Партсъезда,3300,46.8375647,29.6526731
9,улица 20 Партсъезда,3300,46.8374500,29.6531278
11,улица 20 Партсъезда,3300,46.8373380,29.6533940
6,Гребеницкий переулок,3300,46.8380517,29.6533168
8,Гребеницкий переулок,3300,46.8380907,29.6536349
10,Гребеницкий переулок,3300,46.8380343,29.6538515
12,Гребеницкий переулок,3300,46.8381129,29.6541414
10а,улица Фрунзе,3300,46.8380107,29.6544018
19,улица Свердлова,3300,46.8353826,29.6185631
24,улица Луначарского,3300,46.8343076,29.6188450
20,улица 28 Июня,3300,46.8378305,29.5634288
38,улица Юности,3300,46.8328595,29.6673643
3,Комсомольский переулок,3300,46.8403989,29.5914704
21,улица Пушкина,3300,46.8366478,29.6009047
11,Гвардейская улица,3300,46.8403272,29.5664801
11,Гвардейская улица,3300,46.8398120,29.5665589
2,Северная улица,3300,46.8547472,29.6249344
1,переулок Шевченко,3300,46.8480240,29.6161009
2,улица 1 Мая,3300,46.8308554,29.6175477
56А,улица Свердлова,3300,46.8344891,29.6234709
8,улица Шевченко,3300,46.8344450,29.6157487
2,улица Фрунзе,3300,46.8391392,29.6543196
4,улица Фрунзе,3300,46.8389536,29.6544319
6,улица Фрунзе,3300,46.8387601,29.6544687
3А,Одесское шоссе,3300,46.8412207,29.6845600
4,Одесское шоссе,3300,46.8430020,29.6840947
8,Одесское шоссе,3300,46.8431204,29.6886212
10а,Магистральный проезд,3300,46.8445183,29.6713392
10б,улица Фрунзе,3300,46.8381564,29.6546715
12,улица Фрунзе,3300,46.8379811,29.6546966
14,улица Фрунзе,3300,46.8378268,29.6548407
1,улица Фрунзе,3300,46.8392178,29.6548271
5,улица Шутова,3300,46.8642966,29.6153447
10,улица Клары Цеткин,3300,46.8480530,29.6075797
2а,переулок Раевского,3300,46.8364342,29.5842287
7,Балковская улица,3300,46.8444123,29.6487621
3,Балковская улица,3300,46.8445934,29.6485768
5,Балковская улица,3300,46.8444612,29.6486338
1,Балковская улица,3300,46.8448051,29.6484939
9,переулок Энергетиков,3300,46.8564576,29.6448895
11,переулок Энергетиков,3300,46.8565279,29.6452108
13,переулок Энергетиков,3300,46.8565614,29.6454563
15,переулок Энергетиков,3300,46.8564576,29.6454547
1,Кучурганская улица,3300,46.8460793,29.6478528
53,улица Энергетиков,3300,46.8517269,29.6437017
22,переулок Чехова,3300,46.8566984,29.6395140
2В,улица Гоголя,3300,46.8542090,29.6340522
28,улица Леваневского,3300,46.8405585,29.6413577
99,улица Энергетиков,3300,46.8547527,29.6440249
3,улица Комарова,3300,46.8425241,29.6492798
4,улица Милева,MD-3300,46.8334045,29.6725157
64А,улица Юности,3300,46.8318693,29.6738093
49,переулок Восстания,3300,46.8330009,29.6384006
90,улица 1 Мая,3300,46.8318283,29.6331096
26,улица Тимирязева,3300,46.8314071,29.6346938
1,Госпитальный переулок,3300,46.8354411,29.6480876
20А,улица Мира,3300,46.8371478,29.6382246
15,улица 25 Октября,MD-3300,46.8357004,29.5991099
14,улица Правды,3300,46.8360092,29.5947533
3,Жемчужный переулок,3300,46.8278023,29.6329831
66,Краснодонская улица,3300,46.8378668,29.6751081
56,улица Юности,3300,46.8325840,29.6717040
184,улица 9 Января,3300,46.8424641,29.6185761
23,улица Розы Люксембург,3300,46.8378621,29.6162516
33,улица Розы Люксембург,3300,46.8378203,29.6166303
21,улица Розы Люксембург,3300,46.8377785,29.6160887
13/1,Западный переулок,3300,46.8415742,29.5619155
144А,улица Карла Либкнехта,3300,46.8380958,29.5898398
7,Луговой переулок,3300,46.8284352,29.6338164
6,Луговой переулок,3300,46.8280756,29.6334470
4,Луговой переулок,3300,46.8280681,29.6329617
1,Жемчужный переулок,3300,46.8277481,29.6325765
1,Луговой переулок,3300,46.8284249,29.6324789
93,улица Горького,3300,46.8334553,29.6314716
121,Советская улица,3300,46.8417378,29.6215080
379,улица Карла Либкнехта,3300,46.8405435,29.6221239
28,улица Федько,3300,46.8346117,29.5911202
14/3,улица Юности,MD-3300,46.8364699,29.6639262
2Б,улица Клары Цеткин,3300,46.8480667,29.6096737
45,переулок Чкалова,3300,46.8445363,29.6084196
65,улица 25 Октября,3300,46.8368902,29.6162603
94,улица Свердлова,3300,46.8354622,29.6327723
78,улица 25 Октября,3300,46.8358803,29.6162116
77А,Партизанская улица,3300,46.8447739,29.5981029
9,переулок Энгельса,3300,46.8365010,29.6025221
15,улица Восстания,3300,46.8339729,29.6169883
29,улица Луначарского,3300,46.8372314,29.6169114
21,улица Мира,3300,46.8397960,29.6339214
8,Луговой переулок,3300,46.8281244,29.6337568
48/4,улица 1 Мая,3300,46.8308220,29.6217065
48/3,улица 1 Мая,3300,46.8306062,29.6215461
48/2,улица 1 Мая,3300,46.8303664,29.6215878
48/1,улица 1 Мая,3300,46.8298631,29.6218935
48/11,улица 1 Мая,3300,46.8312151,29.6222525
48/10,улица 1 Мая,3300,46.8309634,29.6222726
48/9,улица 1 Мая,3300,46.8307026,29.6221369
48/8,улица 1 Мая,3300,46.8303823,29.6222096
48/7,улица 1 Мая,3300,46.8301612,29.6223997
48/6,улица 1 Мая,3300,46.8298143,29.6224432
7,переулок Труда,3300,46.8371686,29.6364049
45,улица Юности,3300,46.8330489,29.6731522
28,улица Ленина,MD-3300,46.8385665,29.6250574
2/4,улица Юности,3300,46.8392265,29.6583093
117,улица Шевченко,3300,46.8736462,29.6058252
97E,улица Шевченко,3300,46.8662806,29.6081045
1,улица Юности,3300,46.8401144,29.6581269
31А,улица Юности,3300,46.8355133,29.6674973
11,улица Милева,3300,46.8362148,29.6756036
41,улица Юности,3300,46.8334802,29.6717731
8,улица Правды,3300,46.8362017,29.5944004
11,улица Милева,3300,46.8362545,29.6753624
10,Гребеницкий переезд,3300,46.8554190,29.6559558
56A,улица Свердлова,3300,46.8347009,29.6233709
76,Краснодонская улица,3300,46.8395900,29.6744104
58,улица Профсоюзов,3300,46.8483538,29.6400670
33,улица Мира,3300,46.8342396,29.6449490
9,Гвардейская улица,3300,46.8405923,29.5640604
53,улица 25 Октября,3300,46.8368894,29.6140116
48,улица Ленина,3300,46.8445705,29.6302280
54А,улица Свердлова,3300,46.8348713,29.6231649
