House number,Street name,Postal code,Latitude,Longitude
5,Школьная улица,386101,43.2325247,44.7442520
1,Фабричная улица,386101,43.2325436,44.7426586
70/1,проспект Идриса Базоркина,386101,43.2298952,44.7525511
154,улица Картоева,386101,43.2232874,44.7495981
38,проспект Идриса Базоркина,386101,43.2325550,44.7499418
20,проспект Идриса Базоркина,386101,43.2329318,44.7516193
16,проспект Идриса Базоркина,386101,43.2320968,44.7519020
14,проспект Идриса Базоркина,386101,43.2322226,44.7529844
8А,проспект Идриса Базоркина,386101,43.2324884,44.7518070
42,проспект Идриса Базоркина,386101,43.2317345,44.7502957
72,проспект Идриса Базоркина,386101,43.2312189,44.7524028
18,Ингушская улица,386101,43.2311845,44.7602375
70,улица Базоркина,366720,43.2291350,44.7544944
39,проспект Идриса Базоркина,386101,43.2297387,44.7553967
121,улица Картоева,386101,43.2289610,44.7553669
96,улица Гикало,386101,43.2316436,44.7547040
17,проспект Идриса Базоркина,386101,43.2314978,44.7547320
12,проспект Идриса Базоркина,386101,43.2327884,44.7530817
19,проспект Идриса Базоркина,386101,43.2313841,44.7547379
21,проспект Идриса Базоркина,386101,43.2313217,44.7548337
23,проспект Идриса Базоркина,386101,43.2311971,44.7548319
11,проспект Идриса Базоркина,386101,43.2330324,44.7540889
25,проспект Идриса Базоркина,386101,43.2310567,44.7550751
27,проспект Идриса Базоркина,386101,43.2308633,44.7549649
29,проспект Идриса Базоркина,386101,43.2306189,44.7550420
29,проспект Идриса Базоркина,386101,43.2304211,44.7551099
123,улица Орджоникидзе,386101,43.2305915,44.7552995
13,проспект Идриса Базоркина,386101,43.2325764,44.7542755
64А,проспект Идриса Базоркина,386101,43.2306686,44.7496962
64В,проспект Идриса Базоркина,386101,43.2305172,44.7491424
70А,проспект Идриса Базоркина,386101,43.2309372,44.7514176
18Г,проспект Идриса Базоркина,386101,43.2326532,44.7492745
46,проспект Идриса Базоркина,386101,43.2322425,44.7487381
44,проспект Идриса Базоркина,386101,43.2314207,44.7493031
46,проспект Идриса Базоркина,386101,43.2318128,44.7487126
10,проспект Идриса Базоркина,386101,43.2334044,44.7525198
7,проспект Идриса Базоркина,386101,43.2337187,44.7538021
58,улица Газдиева,386101,43.2283196,44.7634815
110,улица Осканова,386101,43.2277523,44.7627716
14/1,Чеченская улица,386130,43.2201128,44.7520069
12,Чеченская улица,386130,43.2201480,44.7530463
4А,Чеченская улица,386130,43.2156327,44.7502434
8А,Чеченская улица,386130,43.2193745,44.7543864
9,Чеченская улица,386101,43.2205936,44.7537679
6,Чеченская улица,386101,43.2211076,44.7533897
14/1,Чеченская улица,386130,43.2203283,44.7523355
7,Чеченская улица,386130,43.2201978,44.7511838
22/1,Чеченская улица,386130,43.2211394,44.7508295
12А,Чеченская улица,386101,43.2213354,44.7524844
16/1,Чеченская улица,386130,43.2207125,44.7514704
20А,Чеченская улица,386130,43.2210490,44.7512599
16,Чеченская улица,386130,43.2205799,44.7517911
148/1,улица Картоева,386101,43.2242651,44.7499832
154Г,улица Картоева,386101,43.2231521,44.7490552
152,улица Картоева,386101,43.2240341,44.7498673
152,улица Картоева,386101,43.2234345,44.7499376
154В,улица Картоева,386101,43.2231618,44.7484423
10А,Чеченская улица,386101,43.2226810,44.7502501
28/1,Чеченская улица,386130,43.2215690,44.7502576
321,Чеченская улица,386130,43.2219617,44.7494360
34,Чеченская улица,386130,43.2219383,44.7485550
36/1,Чеченская улица,386130,43.2225624,44.7475025
3/4,улица Тангиева,386130,43.2231149,44.7462261
10В,Фабричная улица,386101,43.2253890,44.7422049
10Б,Фабричная улица,386101,43.2253069,44.7426662
10А,Фабричная улица,386101,43.2252013,44.7431115
10,Фабричная улица,386101,43.2249155,44.7426528
28,улица Тангиева,386101,43.2244322,44.7395267
35,Фабричная улица,386101,43.2244831,44.7438182
5/1,улица Тангиева,386101,43.2240860,44.7446989
22,улица Тангиева,386101,43.2242027,44.7442460
26/1,Фабричная улица,386101,43.2243638,44.7457837
3/1,улица Тангиева,386101,43.2238831,44.7453242
16/1,улица Тангиева,386130,43.2231306,44.7418220
10,улица Тангиева,386130,43.2229521,44.7434123
6,улица Тангиева,386130,43.2232156,44.7437579
14,улица Тангиева,386130,43.2232732,44.7427788
148А,улица Картоева,386101,43.2249140,44.7522403
148А,улица Картоева,386101,43.2254183,44.7515819
148,улица Картоева,386101,43.2257320,44.7520184
115/1,улица Картоева,386101,43.2279473,44.7531603
100,проспект Идриса Базоркина,386101,43.2269125,44.7582377
34А,улица Газдиева,386101,43.2272727,44.7633731
116/1,проспект Идриса Базоркина,386101,43.2263976,44.7630792
5/7,Московская улица,386101,43.2228323,44.7652898
13Б,Московская улица,386101,43.2237873,44.7685173
13,Московская улица,386101,43.2238968,44.7680589
31А,Московская улица,386101,43.2234990,44.7687380
14,улица Хаматханова,386130,43.2312647,44.7362909
5,Новая улица,386101,43.2339302,44.7385651
3А,Фабричная улица,386101,43.2342903,44.7443909
8,Набережный переулок,386101,43.2353269,44.7431545
14,Новая улица,386101,43.2349649,44.7369155
16,Новая улица,386101,43.2345888,44.7361001
18,Новая улица,386101,43.2348410,44.7346545
3/2,Фабричная улица,386101,43.2348042,44.7457446
3,Фабричная улица,386101,43.2348619,44.7451399
1,проспект Идриса Базоркина,386101,43.2349890,44.7533577
3,проспект Идриса Базоркина,386101,43.2345806,44.7535310
5,проспект Идриса Базоркина,386101,43.2341672,44.7536903
3А,проспект Идриса Базоркина,386101,43.2352737,44.7526044
4/1,проспект Идриса Базоркина,386101,43.2351478,44.7518324
26,проспект Идриса Базоркина,386101,43.2344796,44.7509019
4А,проспект Идриса Базоркина,386101,43.2346597,44.7518601
8,проспект Идриса Базоркина,386101,43.2341090,44.7525042
8Б,проспект Идриса Базоркина,386101,43.2339978,44.7519780
18/1,проспект Идриса Базоркина,386101,43.2327909,44.7499443
48,проспект Идриса Базоркина,386101,43.2320261,44.7498147
50,проспект Идриса Базоркина,386101,43.2321397,44.7503655
78,проспект Идриса Базоркина,386101,43.2308367,44.7538094
80,проспект Идриса Базоркина,386101,43.2305230,44.7539161
74,проспект Идриса Базоркина,386101,43.2314944,44.7535134
76,проспект Идриса Базоркина,386101,43.2310952,44.7536873
14Б,Фабричная улица,386101,43.2279131,44.7492088
4,улица У. А. Барханоева,386101,43.2271372,44.7485255
41,улица Осканова,386103,43.2311895,44.7671185
29,улица Осканова,386103,43.2316631,44.7684369
39,улица Осканова,386103,43.2312769,44.7678521
1,улица М. Богатырева,386132,43.2385108,44.8064018
127,улица Картоева,386101,43.2258848,44.7512983
129,улица Картоева,386101,43.2263206,44.7517687
9,проспект Идриса Базоркина,386101,43.2334298,44.7539300
116А,проспект Идриса Базоркина,386101,43.2270384,44.7624831
34/1,Чеченская улица,386130,43.2223302,44.7491665
32/1,Чеченская улица,386130,43.2225549,44.7485855
39,Фабричная улица,386101,43.2246325,44.7430644
37,Фабричная улица,386101,43.2245911,44.7435737
41,Фабричная улица,386101,43.2246422,44.7427921
47,Фабричная улица,386101,43.2246792,44.7420530
51,Фабричная улица,386101,43.2247183,44.7415741
53,Фабричная улица,386101,43.2247280,44.7412911
49,Фабричная улица,386101,43.2246929,44.7417861
59,Фабричная улица,386101,43.2248030,44.7404779
63,Фабричная улица,386101,43.2248009,44.7395252
26,улица Тангиева,386101,43.2244320,44.7411546
9,улица 3-я Линия,386130,43.2273069,44.7338972
5,улица 3-я Линия,386130,43.2274144,44.7336933
7,улица 3-я Линия,386130,43.2273428,44.7332609
4,улица 3-я Линия,386130,43.2277459,44.7337826
10,улица 3-я Линия,386130,43.2278201,44.7329932
6,улица 3-я Линия,386130,43.2282112,44.7337604
15,улица Парагульгова,386130,43.2285933,44.7334824
17,улица Парагульгова,386130,43.2284694,44.7333170
19,улица Парагульгова,386130,43.2283284,44.7328874
20,улица Парагульгова,386130,43.2290788,44.7339506
22,улица Парагульгова,386130,43.2291334,44.7334673
26,улица Парагульгова,386130,43.2288566,44.7328679
28,улица Парагульгова,386130,43.2288153,44.7325760
1,улица Гадаборшева,386130,43.2297863,44.7321422
3,улица Гадаборшева,386130,43.2298508,44.7323749
17,улица Хаматханова,386130,43.2309066,44.7330207
15,улица Хаматханова,386130,43.2308948,44.7332722
23,улица Хаматханова,386130,43.2308909,44.7321027
8,улица Гадаборшева,386130,43.2304029,44.7330807
30,улица Хаматханова,386130,43.2312625,44.7324928
28,улица Хаматханова,386130,43.2312538,44.7330697
22,улица Хаматханова,386130,43.2313523,44.7344996
22А,улица Хаматханова,386130,43.2312453,44.7342209
18,улица Хаматханова,386130,43.2313642,44.7352683
12,улица Хаматханова,386130,43.2315645,44.7370496
1,Новая улица,386101,43.2335638,44.7391938
53,улица Джамбулатова,386130,43.2306165,44.7344291
51,улица Джамбулатова,386130,43.2304315,44.7344750
49,улица Джамбулатова,386130,43.2302621,44.7345403
47,улица Джамбулатова,386130,43.2300748,44.7345987
39,улица Джамбулатова,386130,43.2292991,44.7346667
38,улица Хадзиева,386130,43.2292604,44.7343533
37,улица Джамбулатова,386130,43.2290027,44.7349506
36,улица Хадзиева,386130,43.2288975,44.7344121
34,улица Хадзиева,386130,43.2286336,44.7345054
35,улица Джамбулатова,386130,43.2287038,44.7350292
33,улица Джамбулатова,386130,43.2284229,44.7351510
31,улица Джамбулатова,386130,43.2282267,44.7352312
28,улица Хадзиева,386130,43.2279724,44.7346879
29,улица Джамбулатова,386130,43.2280412,44.7352900
23,улица Джамбулатова,386130,43.2275257,44.7354180
24,улица Хадзиева,386130,43.2274550,44.7349820
22,улица Хадзиева,386130,43.2272602,44.7349533
21,улица Джамбулатова,386130,43.2273632,44.7354629
19,улица Джамбулатова,386130,43.2271818,44.7354924
20,улица Хадзиева,386130,43.2270818,44.7351240
14,улица Хадзиева,386130,43.2262271,44.7352571
16,улица Хадзиева,386130,43.2263309,44.7352192
15,улица Джамбулатова,386130,43.2262967,44.7357265
13,улица Джамбулатова,386130,43.2262101,44.7358194
12,улица Хадзиева,386130,43.2260589,44.7353750
10,улица Хадзиева,386130,43.2257851,44.7353737
9,улица Джамбулатова,386130,43.2256074,44.7358231
4,улица Хадзиева,386130,43.2253694,44.7355138
7,улица Джамбулатова,386130,43.2254798,44.7359429
2,улица Хадзиева,386130,43.2251609,44.7356225
5,улица Джамбулатова,386130,43.2253075,44.7360197
3,улица Тимурзиева,386130,43.2251065,44.7369930
4,улица Джамбулатова,386130,43.2250406,44.7365693
5,улица Тимурзиева,386130,43.2253755,44.7370425
6,улица Джамбулатова,386130,43.2252989,44.7364982
8,улица Джамбулатова,386130,43.2255051,44.7364461
9,улица Тимурзиева,386130,43.2258351,44.7367659
12,улица Джамбулатова,386130,43.2259981,44.7363211
13,улица Тимурзиева,386130,43.2264702,44.7366158
14,улица Джамбулатова,386130,43.2263891,44.7361996
23,улица Тимурзиева,386130,43.2278606,44.7362471
21,улица Тимурзиева,386130,43.2276218,44.7362763
25,улица Тимурзиева,386130,43.2282316,44.7361962
27,улица Тимурзиева,386130,43.2284060,44.7361327
30,улица Джамбулатова,386130,43.2283064,44.7356101
28,улица Джамбулатова,386130,43.2281370,44.7356688
32,улица Джамбулатова,386130,43.2284810,44.7355649
29,улица Тимурзиева,386130,43.2285846,44.7361019
31,улица Тимурзиева,386130,43.2287558,44.7360413
33,улица Тимурзиева,386130,43.2289337,44.7359925
36,улица Джамбулатова,386130,43.2288244,44.7354816
34,улица Джамбулатова,386130,43.2286719,44.7355050
38,улица Джамбулатова,386130,43.2290912,44.7353679
35,улица Тимурзиева,386130,43.2291439,44.7358901
41,улица Тимурзиева,386130,43.2298754,44.7356087
40,улица Джамбулатова,386130,43.2294249,44.7353777
37,улица Тимурзиева,386130,43.2294666,44.7358452
42,улица Джамбулатова,386130,43.2296173,44.7351598
46,улица Джамбулатова,386130,43.2299920,44.7351441
43,улица Тимурзиева,386130,43.2300448,44.7355600
45,улица Тимурзиева,386130,43.2301592,44.7354575
48,улица Джамбулатова,386130,43.2301346,44.7350716
50,улица Джамбулатова,386130,43.2303028,44.7350412
47,улица Тимурзиева,386130,43.2303351,44.7353758
49,улица Тимурзиева,386130,43.2304856,44.7352475
54,улица Джамбулатова,386130,43.2308017,44.7349524
11,улица Хаматханова,386130,43.2309133,44.7353820
51,улица Шадыжева,386130,43.2307492,44.7363188
50,улица Тимурзиева,386130,43.2307459,44.7357980
48,улица Тимурзиева,386130,43.2305741,44.7358917
49,улица Шадыжева,386130,43.2305824,44.7364697
46,улица Тимурзиева,386130,43.2303701,44.7359084
45,улица Шадыжева,386130,43.2302525,44.7364508
43,улица Шадыжева,386130,43.2301172,44.7366348
42,улица Тимурзиева,386130,43.2299831,44.7361377
38,улица Тимурзиева,386130,43.2296322,44.7361743
40,улица Тимурзиева,386130,43.2298147,44.7361725
41,улица Шадыжева,386130,43.2297550,44.7367505
36,улица Тимурзиева,386130,43.2292774,44.7362999
31,улица Шадыжева,386130,43.2286717,44.7370612
29,улица Шадыжева,386130,43.2284689,44.7370558
27,улица Шадыжева,386130,43.2282781,44.7371450
25,улица Шадыжева,386130,43.2279125,44.7372095
22,улица Тимурзиева,386130,43.2278651,44.7367816
16,улица Тимурзиева,386130,43.2268361,44.7372586
14,улица Тимурзиева,386130,43.2266897,44.7372202
19,улица Шадыжева,386130,43.2266209,44.7377022
17,улица Шадыжева,386130,43.2264290,44.7377948
15,улица Шадыжева,386130,43.2262549,44.7378319
8,улица Тимурзиева,386130,43.2259787,44.7373741
13,улица Шадыжева,386130,43.2260779,44.7378736
4,улица Тимурзиева,386130,43.2256071,44.7374674
7,улица Шадыжева,386130,43.2255377,44.7380422
3,улица Шадыжева,386130,43.2251707,44.7381233
5,улица Шадыжева,386130,43.2253231,44.7380211
2,улица Тимурзиева,386130,43.2249884,44.7377599
3,улица Ужахова,386130,43.2256189,44.7391908
4,улица Шадыжева,386130,43.2251398,44.7387559
8,улица Шадыжева,386130,43.2255275,44.7386685
12,улица Шадыжева,386130,43.2256795,44.7385888
9,улица Ужахова,386130,43.2261492,44.7389850
11,улица Ужахова,386130,43.2263547,44.7389225
14,улица Шадыжева,386130,43.2260862,44.7384811
5,улица Ужахова,386130,43.2257910,44.7391356
13,улица Ужахова,386130,43.2265269,44.7389348
15,улица Ужахова,386130,43.2266988,44.7388687
22,улица Шадыжева,386130,43.2267679,44.7382652
19,улица Ужахова,386130,43.2271478,44.7386082
23,улица Ужахова,386130,43.2275330,44.7385019
28,улица Шадыжева,386130,43.2278443,44.7380661
25,улица Ужахова,386130,43.2278874,44.7382554
30,улица Шадыжева,386130,43.2281249,44.7377728
27,улица Ужахова,386130,43.2281715,44.7382164
34,улица Шадыжева,386130,43.2284830,44.7376879
36,улица Шадыжева,386130,43.2287723,44.7376463
31,улица Ужахова,386130,43.2286843,44.7380537
6,улица Ужахова,386130,43.2263961,44.7394402
8,улица Ужахова,386130,43.2267762,44.7392612
12,улица Ужахова,386130,43.2271257,44.7393014
6,улица Майская 105 массив,386130,43.2273594,44.7395451
14,улица Ужахова,386130,43.2272912,44.7390869
16,улица Ужахова,386130,43.2274655,44.7390377
18,улица Ужахова,386130,43.2276466,44.7389516
24,улица Ужахова,386130,43.2284131,44.7388976
22,улица Ужахова,386130,43.2282064,44.7389408
20,улица Ужахова,386130,43.2280216,44.7390128
28,улица Ужахова,386130,43.2287117,44.7387091
30,улица Ужахова,386130,43.2288889,44.7386276
32,улица Ужахова,386130,43.2291926,44.7387197
34,улица Ужахова,386130,43.2290766,44.7391343
36,улица Ужахова,386130,43.2292018,44.7394453
38,улица Ужахова,386130,43.2293127,44.7396392
41,улица Ужахова,386130,43.2294495,44.7382950
39,улица Ужахова,386130,43.2293840,44.7379851
51,улица Ужахова,386130,43.2297409,44.7394023
1,улица Парагульгова,386130,43.2303435,44.7391563
7,улица Хаматханова,386130,43.2308744,44.7369607
5,улица Хаматханова,386130,43.2308879,44.7374555
3,улица Хаматханова,386130,43.2309020,44.7377703
40,улица Шадыжева,386130,43.2305384,44.7370966
16,Фабричная улица,386101,43.2250449,44.7411643
12,Фабричная улица,386101,43.2250472,44.7417080
14,Фабричная улица,386101,43.2250434,44.7414595
18,Фабричная улица,386101,43.2250814,44.7409117
8,Фабричная улица,386101,43.2248687,44.7437462
3,Набережная улица,386101,43.2269545,44.7456746
5,Набережная улица,386101,43.2268658,44.7453729
7,Набережная улица,386101,43.2267444,44.7452050
9,Набережная улица,386101,43.2266086,44.7450219
11,Набережная улица,386101,43.2264968,44.7448400
13,Набережная улица,386101,43.2263733,44.7446765
15,Набережная улица,386101,43.2262235,44.7445398
17,Набережная улица,386101,43.2261272,44.7443270
19,Набережная улица,386101,43.2260117,44.7441418
21,Набережная улица,386101,43.2259211,44.7437721
23,Набережная улица,386101,43.2259714,44.7434847
25,Набережная улица,386101,43.2260222,44.7432325
27,Набережная улица,386101,43.2260701,44.7430174
29,Набережная улица,386101,43.2261150,44.7427864
31,Набережная улица,386101,43.2261646,44.7425002
33,Набережная улица,386101,43.2262134,44.7422783
35,Набережная улица,386101,43.2264147,44.7420269
37,Набережная улица,386101,43.2265920,44.7419141
39,Набережная улица,386101,43.2267650,44.7418517
41,Набережная улица,386101,43.2269414,44.7417863
43,Набережная улица,386101,43.2271140,44.7416985
45,Набережная улица,386101,43.2272727,44.7416284
47,Набережная улица,386101,43.2274316,44.7415620
49,Набережная улица,386101,43.2275899,44.7415906
51,Набережная улица,386101,43.2277604,44.7417212
53,Набережная улица,386101,43.2279094,44.7418330
55,Набережная улица,386101,43.2281187,44.7418375
57,Набережная улица,386101,43.2282724,44.7417760
59,Набережная улица,386101,43.2285732,44.7416909
61,Набережная улица,386101,43.2287387,44.7414681
63,Набережная улица,386101,43.2288156,44.7412635
65,Набережная улица,386101,43.2289094,44.7410476
2,Фабричная улица,386101,43.2287990,44.7483099
15,Фабричная улица,386101,43.2276550,44.7469418
13,Фабричная улица,386101,43.2277751,44.7470595
2,Набережная улица,386101,43.2272027,44.7465051
4,Набережная улица,386101,43.2271337,44.7450539
6,Набережная улица,386101,43.2270063,44.7448785
8,Набережная улица,386101,43.2268859,44.7447045
10,Набережная улица,386101,43.2267470,44.7445393
12,Набережная улица,386101,43.2266363,44.7443735
14,Набережная улица,386101,43.2265136,44.7441838
16,Набережная улица,386101,43.2263777,44.7439942
18,Набережная улица,386101,43.2263053,44.7436210
20,Набережная улица,386101,43.2263347,44.7433992
22,Набережная улица,386101,43.2263945,44.7431500
24,Набережная улица,386101,43.2264327,44.7429190
26,Набережная улица,386101,43.2264758,44.7426820
28,Набережная улица,386101,43.2266676,44.7423901
30,Набережная улица,386101,43.2268432,44.7422984
32,Набережная улица,386101,43.2270213,44.7422303
34,Набережная улица,386101,43.2271942,44.7421647
36,Набережная улица,386101,43.2273594,44.7420829
38,Набережная улица,386101,43.2275477,44.7420997
40,Набережная улица,386101,43.2277126,44.7422267
42,Набережная улица,386101,43.2278361,44.7423650
44,Набережная улица,386101,43.2280290,44.7423890
46,Набережная улица,386101,43.2281930,44.7423017
48,Набережная улица,386101,43.2283537,44.7422367
50,Набережная улица,386101,43.2286437,44.7421367
52,Набережная улица,386101,43.2288293,44.7420870
54,Набережная улица,386101,43.2289578,44.7418912
56,Набережная улица,386101,43.2290328,44.7416884
58,Набережная улица,386101,43.2291047,44.7414951
62,Набережная улица,386101,43.2293725,44.7411163
64,Набережная улица,386101,43.2295237,44.7407678
66,Набережная улица,386101,43.2296048,44.7406014
44 к1,проспект Идриса Базоркина,386101,43.2342470,44.7478176
28,проспект Идриса Базоркина,386101,43.2344670,44.7497899
2,проспект Идриса Базоркина,386101,43.2361011,44.7488740
13,Железнодорожная улица,386101,43.2235321,44.7610945
15,Железнодорожная улица,386101,43.2233276,44.7609507
116,проспект Идриса Базоркина,386101,43.2265860,44.7626679
106,проспект Идриса Базоркина,386101,43.2273119,44.7606833
108,проспект Идриса Базоркина,386101,43.2272576,44.7611759
112,проспект Идриса Базоркина,386101,43.2272714,44.7619165
104,проспект Идриса Базоркина,386101,43.2273369,44.7603010
142,улица Картоева,386101,43.2264404,44.7528868
144,улица Картоева,386101,43.2262989,44.7525387
140,улица Картоева,386101,43.2265579,44.7531488
150,улица Картоева,386101,43.2246795,44.7503343
148Б,улица Картоева,386101,43.2253355,44.7512386
134/1,улица Картоева,386101,43.2267852,44.7537479
138,улица Картоева,386101,43.2270553,44.7536673
134,улица Картоева,386101,43.2270513,44.7543405
136,улица Картоева,386101,43.2270985,44.7539721
134,улица Картоева,386101,43.2272938,44.7541083
132,улица Картоева,386101,43.2275282,44.7544089
128,улица Картоева,386101,43.2278065,44.7548056
130,улица Картоева,386101,43.2276997,44.7547040
126,улица Картоева,386101,43.2279800,44.7550187
124,улица Картоева,386101,43.2280602,44.7552734
120,улица Картоева,386101,43.2283370,44.7558543
86,проспект Идриса Базоркина,386101,43.2284657,44.7562081
90,проспект Идриса Базоркина,386101,43.2280943,44.7566474
94,проспект Идриса Базоркина,386101,43.2277049,44.7568929
94,проспект Идриса Базоркина,386101,43.2278579,44.7570077
96,проспект Идриса Базоркина,386101,43.2275722,44.7573310
52,улица Газдиева,386101,43.2294392,44.7668066
48,улица Газдиева,386101,43.2297889,44.7677013
71,улица Газдиева,386101,43.2286369,44.7632670
69,улица Газдиева,386101,43.2288043,44.7634817
67,улица Газдиева,386101,43.2288979,44.7635849
12,улица Ахриева,386104,43.2329914,44.7776140
14,улица Ахриева,386104,43.2331661,44.7777313
21,Дорожная улица,386104,43.2340866,44.7780226
18,Дорожная улица,386104,43.2341423,44.7784040
6,улица Колоева,386104,43.2322821,44.7803977
5,улица Колоева,386104,43.2324888,44.7813879
5,Крестьянская улица,386104,43.2331023,44.7813812
3,Крестьянская улица,386104,43.2329010,44.7814714
1,Крестьянская улица,386104,43.2327945,44.7815806
2,Крестьянская улица,386104,43.2329446,44.7819648
4,улица Колоева,386104,43.2331559,44.7823930
4,Крестьянская улица,386104,43.2331624,44.7817831
20,Крестьянская улица,386104,43.2348317,44.7806576
22,Крестьянская улица,386104,43.2349483,44.7805733
24,Крестьянская улица,386104,43.2350905,44.7804375
28,Крестьянская улица,386104,43.2353135,44.7801996
3,улица Колоева,386104,43.2339458,44.7832662
57А,улица Осканова,386104,43.2349135,44.7828255
16,улица Осканова,386104,43.2366468,44.7791934
1,улица Иски-Лорса,386104,43.2348234,44.7844310
20/1,Фабричная улица,386101,43.2261267,44.7475726
20А,Фабричная улица,386101,43.2256380,44.7481562
22,Фабричная улица,386101,43.2255686,44.7489562
22/1,Фабричная улица,386101,43.2249889,44.7490786
111А,улица Картоева,386101,43.2253326,44.7503625
15,улица У. А. Барханоева,386101,43.2255194,44.7501878
7,улица У. А. Барханоева,386101,43.2262109,44.7491394
13,улица У. А. Барханоева,386101,43.2257342,44.7498402
11,улица У. А. Барханоева,386101,43.2259149,44.7496454
9,улица У. А. Барханоева,386101,43.2261044,44.7493890
5,улица У. А. Барханоева,386101,43.2263369,44.7489765
3,улица У. А. Барханоева,386101,43.2266510,44.7485354
1,улица У. А. Барханоева,386101,43.2268643,44.7482873
8,улица У. А. Барханоева,386101,43.2268262,44.7489583
10,улица У. А. Барханоева,386101,43.2265703,44.7493118
12,улица У. А. Барханоева,386101,43.2263428,44.7496593
14,улица У. А. Барханоева,386101,43.2261776,44.7498785
16,улица У. А. Барханоева,386101,43.2259454,44.7501161
18,улица У. А. Барханоева,386101,43.2257833,44.7503196
70А/1,проспект Идриса Базоркина,386101,43.2287695,44.7534876
123,улица Картоева,386101,43.2286060,44.7548757
9,Фабричная улица,386101,43.2286627,44.7490672
82,проспект Идриса Базоркина,386101,43.2299827,44.7543553
117,улица Орджоникидзе,386101,43.2312101,44.7555811
30,улица Оздоева,386101,43.2314513,44.7560785
121,улица Орджоникидзе,386101,43.2308241,44.7556077
105,улица Картоева,386101,43.2305820,44.7574082
107,улица Картоева,386101,43.2303603,44.7570729
111,улица Картоева,386101,43.2301409,44.7567549
117,улица Картоева,386101,43.2297603,44.7562198
115,улица Картоева,386101,43.2299209,44.7564033
33,проспект Идриса Базоркина,386101,43.2300598,44.7554280
114,улица Орджоникидзе,386101,43.2303448,44.7554116
112,улица Орджоникидзе,386101,43.2304127,44.7557615
106,улица Орджоникидзе,386101,43.2310327,44.7564000
22,улица Оздоева,386101,43.2309042,44.7567886
20,улица Оздоева,386101,43.2308295,44.7570205
110,улица Орджоникидзе,386101,43.2305866,44.7560827
35,проспект Идриса Базоркина,386101,43.2298464,44.7558200
119,улица Картоева,386101,43.2296437,44.7561077
106,улица Картоева,386101,43.2301358,44.7580485
24,улица Оздоева,386101,43.2295996,44.7588468
22,улица Оздоева,386101,43.2298342,44.7584645
20,улица Оздоева,386101,43.2299140,44.7583673
45,улица Кунаева,386101,43.2294861,44.7586679
47,улица Кунаева,386101,43.2294371,44.7582663
49,улица Кунаева,386101,43.2291755,44.7582416
51,улица Кунаева,386101,43.2291032,44.7581583
53,улица Кунаева,386101,43.2290472,44.7578139
47,проспект Идриса Базоркина,386101,43.2287340,44.7576169
110,улица Картоева,386101,43.2298174,44.7574574
114,улица Картоева,386101,43.2295169,44.7572064
116,улица Картоева,386101,43.2293973,44.7570136
39,проспект Идриса Базоркина,386101,43.2291988,44.7566075
118,улица Картоева,386101,43.2292169,44.7569556
43,проспект Идриса Базоркина,386101,43.2289731,44.7570767
56,улица Кунаева,386101,43.2292930,44.7589653
14,улица Оздоева,386101,43.2291132,44.7594415
12,улица Оздоева,386101,43.2288130,44.7596379
10,улица Оздоева,386101,43.2287757,44.7599723
39,улица Итазова,386101,43.2285464,44.7596163
41,улица Итазова,386101,43.2286790,44.7594131
70,улица Кунаева,386101,43.2279000,44.7578117
68,улица Кунаева,386101,43.2281861,44.7576251
60,улица Кунаева,386101,43.2290310,44.7586361
62,улица Кунаева,386101,43.2289007,44.7584274
64,улица Кунаева,386101,43.2287653,44.7582558
66,улица Кунаева,386101,43.2286299,44.7580681
51,проспект Идриса Базоркина,386101,43.2283809,44.7581054
43,улица Итазова,386101,43.2282752,44.7592968
45,улица Итазова,386101,43.2281553,44.7591334
47,улица Итазова,386101,43.2279933,44.7589460
53,проспект Идриса Базоркина,386101,43.2280697,44.7583079
6,улица Оздоева,386101,43.2282572,44.7606908
4,улица Оздоева,386101,43.2280599,44.7607685
2,улица Оздоева,386101,43.2278653,44.7612694
65А,проспект Идриса Базоркина,386101,43.2277057,44.7610741
56,улица Итазова,386101,43.2285850,44.7602893
62,улица Итазова,386101,43.2281188,44.7597023
64,улица Итазова,386101,43.2279431,44.7596671
66,улица Итазова,386101,43.2279329,44.7593960
58,улица Итазова,386101,43.2283637,44.7599810
61,проспект Идриса Базоркина,386101,43.2278502,44.7600660
8,улица Оздоева,386101,43.2283694,44.7604019
65,проспект Идриса Базоркина,386101,43.2276879,44.7614195
67,проспект Идриса Базоркина,386101,43.2277045,44.7608810
63,проспект Идриса Базоркина,386101,43.2277130,44.7602119
5,Ингушская улица,386103,43.2303953,44.7626583
3,Ингушская улица,386103,43.2302554,44.7630366
63,улица Осканова,386103,43.2302284,44.7637354
61,улица Осканова,386103,43.2303705,44.7639825
57,улица Осканова,386103,43.2304030,44.7642774
55,улица Осканова,386103,43.2305977,44.7644750
53,улица Осканова,386103,43.2306305,44.7646961
51,улица Осканова,386103,43.2305681,44.7649797
49,улица Осканова,386103,43.2306529,44.7652387
32,улица Итазова,386103,43.2305127,44.7628707
30,улица Итазова,386103,43.2306213,44.7630055
28,улица Итазова,386103,43.2307713,44.7632162
26,улица Итазова,386103,43.2307984,44.7635822
22,улица Итазова,386103,43.2310238,44.7641465
20,улица Итазова,386103,43.2310921,44.7643938
18,улица Итазова,386103,43.2311426,44.7645294
16,улица Итазова,386103,43.2312296,44.7648574
12,улица Итазова,386103,43.2313398,44.7651431
5,улица Бекова,386103,43.2313380,44.7658468
10,улица Итазова,386103,43.2314674,44.7657004
2,улица Итазова,386103,43.2318082,44.7667601
4,улица Итазова,386103,43.2316722,44.7663411
11,улица Оздоева,386101,43.2292434,44.7598487
48,улица Кунаева,386101,43.2298515,44.7597261
52,улица Кунаева,386101,43.2295569,44.7593318
50,улица Кунаева,386101,43.2296837,44.7595019
13,улица Оздоева,386101,43.2293858,44.7596554
46,улица Кунаева,386101,43.2300259,44.7599851
44,улица Кунаева,386101,43.2302424,44.7602608
42,улица Кунаева,386101,43.2303340,44.7603972
7,улица Оздоева,386101,43.2285345,44.7608364
5,улица Оздоева,386101,43.2282958,44.7612357
3,улица Оздоева,386101,43.2281505,44.7615092
54,улица Итазова,386101,43.2288394,44.7607561
52,улица Итазова,386101,43.2290648,44.7609307
48,улица Итазова,386101,43.2292674,44.7611962
73,улица Осканова,386101,43.2289259,44.7620670
46,улица Итазова,386101,43.2294842,44.7614563
44,улица Итазова,386101,43.2295683,44.7615891
71,улица Осканова,386101,43.2290478,44.7623142
42,улица Итазова,386101,43.2297090,44.7617590
40,улица Итазова,386101,43.2298427,44.7619016
36,улица Итазова,386101,43.2300168,44.7621656
2,Ингушская улица,386101,43.2297332,44.7628348
69,улица Осканова,386101,43.2291765,44.7623880
13,улица Оздоева,386101,43.2299156,44.7588903
17,улица Оздоева,386101,43.2301835,44.7587979
19,улица Оздоева,386101,43.2302243,44.7584973
41,улица Кунаева,386101,43.2300674,44.7594317
43,улица Кунаева,386101,43.2298084,44.7590755
39,улица Кунаева,386101,43.2301880,44.7595957
35,улица Кунаева,386101,43.2307377,44.7599549
100,улица Картоева,386101,43.2306530,44.7589081
104,улица Картоева,386101,43.2305712,44.7585792
98А,улица Картоева,386101,43.2308580,44.7590515
98,улица Картоева,386101,43.2310225,44.7592117
10,Ингушская улица,386101,43.2305927,44.7616180
36,улица Кунаева,386101,43.2309250,44.7610695
14,Ингушская улица,386101,43.2308421,44.7613042
12,Ингушская улица,386101,43.2307260,44.7614662
25,улица Итазова,386103,43.2309780,44.7629848
26,улица Кунаева,386103,43.2314023,44.7625785
27,улица Итазова,386103,43.2309242,44.7626789
29,улица Итазова,386103,43.2308398,44.7625139
7,Ингушская улица,386103,43.2306837,44.7621118
9,Ингушская улица,386103,43.2307832,44.7619613
11,Ингушская улица,386103,43.2308807,44.7618284
32,улица Кунаева,386103,43.2311371,44.7620284
30,улица Кунаева,386103,43.2312994,44.7622030
21,улица Кунаева,386101,43.2316723,44.7625689
23,улица Кунаева,386101,43.2316367,44.7622884
27,улица Кунаева,386101,43.2316387,44.7618363
31,улица Кунаева,386101,43.2315505,44.7614499
29,улица Кунаева,386101,43.2315938,44.7616285
33,улица Кунаева,386101,43.2314067,44.7610815
13,Ингушская улица,386101,43.2315638,44.7608638
94,улица Картоева,386101,43.2320883,44.7606028
15,Ингушская улица,386101,43.2317222,44.7606323
10,улица Бутырина,386101,43.2321546,44.7623849
12,улица Бутырина,386101,43.2322901,44.7623190
14,улица Бутырина,386101,43.2324481,44.7622139
18,улица Бутырина,386101,43.2328041,44.7619957
92,улица Картоева,386101,43.2322580,44.7609626
90,улица Картоева,386101,43.2323444,44.7610465
88,улица Картоева,386101,43.2324497,44.7612127
84,улица Картоева,386101,43.2327423,44.7615887
86,улица Картоева,386101,43.2326221,44.7613257
11,улица Итазова,386103,43.2314758,44.7647010
13,улица Итазова,386103,43.2314138,44.7644509
19,улица Итазова,386103,43.2312244,44.7637586
23,улица Итазова,386103,43.2310911,44.7633357
24,улица Кунаева,386103,43.2316178,44.7634014
22,улица Кунаева,386103,43.2317044,44.7637833
20,улица Кунаева,386103,43.2316332,44.7640224
18,улица Кунаева,386103,43.2318358,44.7641684
9,улица Бутырина,386103,43.2321800,44.7628208
56,улица Ханпаши-Нурадилова,386103,43.2323966,44.7626959
52,улица Ханпаши-Нурадилова,386103,43.2324176,44.7632962
54,улица Ханпаши-Нурадилова,386103,43.2324784,44.7630951
50,улица Ханпаши-Нурадилова,386103,43.2324640,44.7635047
19,улица Кунаева,386103,43.2320077,44.7632548
17,улица Кунаева,386103,43.2321893,44.7638342
15,улица Кунаева,386103,43.2322078,44.7640502
10,улица Бекова,386103,43.2323005,44.7649415
44,улица Ханпаши-Нурадилова,386103,43.2326092,44.7642197
46,улица Ханпаши-Нурадилова,386103,43.2326480,44.7638008
14,улица Бекова,386103,43.2327403,44.7646792
16,улица Бекова,386103,43.2328784,44.7646177
15,улица Бутырина,386103,43.2330910,44.7622987
52,улица Тамбиева,386103,43.2332695,44.7622410
50,улица Тамбиева,386103,43.2333246,44.7625480
55,улица Ханпаши-Нурадилова,386103,43.2329176,44.7631176
53,улица Ханпаши-Нурадилова,386103,43.2329058,44.7635887
51,улица Ханпаши-Нурадилова,386103,43.2329576,44.7637402
49,улица Ханпаши-Нурадилова,386103,43.2330640,44.7641134
18,улица Бекова,386103,43.2334382,44.7642971
47,улица Ханпаши-Нурадилова,386103,43.2331635,44.7644893
48,улица Тамбиева,386103,43.2333693,44.7628198
42,улица Тамбиева,386103,43.2336531,44.7638387
40,улица Тамбиева,386103,43.2337037,44.7642113
80,улица Картоева,386101,43.2338147,44.7628299
22,улица Бекова,386103,43.2339948,44.7640733
28,улица Бекова,386103,43.2344446,44.7638327
26,улица Бекова,386103,43.2342928,44.7639080
78,улица Картоева,386101,43.2340653,44.7633313
1,улица Итазова,386103,43.2320696,44.7665954
3,улица Итазова,386103,43.2319883,44.7663823
5,улица Итазова,386103,43.2319475,44.7661828
7,улица Бекова,386103,43.2318638,44.7655021
12,улица Кунаева,386103,43.2321167,44.7655605
8,улица Кунаева,386103,43.2323508,44.7661225
6,улица Кунаева,386103,43.2323823,44.7662777
4,улица Кунаева,386103,43.2324208,44.7665420
2,улица Кунаева,386103,43.2324921,44.7667209
1,улица Кунаева,386103,43.2326777,44.7664335
5,улица Кунаева,386103,43.2326183,44.7660828
7,улица Кунаева,386103,43.2325709,44.7658569
9,улица Кунаева,386103,43.2325077,44.7655383
13,улица Бекова,386103,43.2326726,44.7650975
40,улица Ханпаши-Нурадилова,386103,43.2329896,44.7650332
38,улица Ханпаши-Нурадилова,386103,43.2330397,44.7652682
36,улица Ханпаши-Нурадилова,386103,43.2331193,44.7655460
32,улица Ханпаши-Нурадилова,386103,43.2332078,44.7660052
30,улица Ханпаши-Нурадилова,386103,43.2332502,44.7661562
37,улица Ханпаши-Нурадилова,386103,43.2335808,44.7656048
33,улица Ханпаши-Нурадилова,386103,43.2336147,44.7661558
43,улица Ханпаши-Нурадилова,386103,43.2332969,44.7649932
35,улица Ханпаши-Нурадилова,386103,43.2335181,44.7658236
15,улица Бекова,386103,43.2335303,44.7647031
38,улица Тамбиева,386103,43.2338255,44.7644912
30,улица Тамбиева,386103,43.2340842,44.7655419
28,улица Тамбиева,386103,43.2340894,44.7657174
34,улица Тамбиева,386103,43.2339529,44.7650020
32,улица Тамбиева,386103,43.2339294,44.7651647
21,улица Бекова,386103,43.2340550,44.7643542
25,улица Бекова,386103,43.2344262,44.7642034
29,улица Бекова,386103,43.2346675,44.7640707
35,улица Тамбиева,386103,43.2342153,44.7648506
37,улица Тамбиева,386103,43.2341133,44.7645411
29,улица Тамбиева,386103,43.2345210,44.7654761
27,улица Тамбиева,386103,43.2344583,44.7658607
74,улица Картоева,386103,43.2349374,44.7646736
76,улица Картоева,386103,43.2347803,44.7643580
70,улица Картоева,386103,43.2349936,44.7651269
72,улица Картоева,386103,43.2349701,44.7647841
66,улица Картоева,386103,43.2355125,44.7657917
5/2,улица Мира,386103,43.2320476,44.7674932
13,улица Мира,386103,43.2327964,44.7669624
19,улица Мира,386103,43.2335133,44.7667032
24,улица Ханпаши-Нурадилова,386103,43.2337519,44.7676920
26,улица Ханпаши-Нурадилова,386103,43.2336723,44.7674310
21/1,улица Осканова,386101,43.2327380,44.7684553
2,Пионерская улица,386103,43.2329283,44.7709299
6,улица Ханпаши-Нурадилова,386103,43.2334364,44.7702036
16,улица Ханпаши-Нурадилова,386103,43.2341034,44.7691221
14,улица Ханпаши-Нурадилова,386103,43.2341612,44.7693568
18,улица Ханпаши-Нурадилова,386103,43.2339826,44.7687528
12,улица Ханпаши-Нурадилова,386103,43.2334720,44.7692147
22,улица Ханпаши-Нурадилова,386103,43.2337880,44.7680326
23,улица Мира,386103,43.2340229,44.7663409
25,улица Мира,386103,43.2341478,44.7663047
31,улица Ханпаши-Нурадилова,386103,43.2337013,44.7667284
27,улица Ханпаши-Нурадилова,386103,43.2339593,44.7671737
23,улица Ханпаши-Нурадилова,386103,43.2339561,44.7675663
21,улица Ханпаши-Нурадилова,386103,43.2340333,44.7679454
24,улица Тамбиева,386103,43.2343138,44.7669490
20,улица Тамбиева,386103,43.2345849,44.7674150
26,улица Тамбиева,386103,43.2343849,44.7667265
16,улица Тамбиева,386103,43.2346844,44.7678930
22,улица Тамбиева,386103,43.2345067,44.7672162
21,улица Тамбиева,386103,43.2345964,44.7663123
17,улица Тамбиева,386103,43.2347928,44.7670517
13,улица Тамбиева,386103,43.2350035,44.7674820
11,улица Тамбиева,386103,43.2349773,44.7677463
7,улица Яндиева,386103,43.2353926,44.7678766
27,улица Мира,386103,43.2351519,44.7662950
14,улица Цороева,386103,43.2353293,44.7667914
12,улица Цороева,386103,43.2353361,44.7672257
10,улица Цороева,386103,43.2355081,44.7674832
11,улица Цороева,386103,43.2355698,44.7665185
62,улица Картоева,386103,43.2358387,44.7667557
9,улица Цороева,386103,43.2356539,44.7668895
7,улица Цороева,386103,43.2357968,44.7673614
58,улица Картоева,386103,43.2362169,44.7673415
60,улица Картоева,386103,43.2361409,44.7671822
2,Пионерская улица,386103,43.2351346,44.7701703
1,улица Ханпаши-Нурадилова,386103,43.2346977,44.7704495
7,улица Ханпаши-Нурадилова,386103,43.2345662,44.7699265
12,улица Тамбиева,386103,43.2348694,44.7686152
8,улица Тамбиева,386103,43.2349945,44.7691355
4,улица Тамбиева,386103,43.2351308,44.7695336
13,улица Ханпаши-Нурадилова,386103,43.2346159,44.7695140
9,улица Тамбиева,386103,43.2351414,44.7684310
5,улица Тамбиева,386103,43.2354076,44.7690932
50,улица Картоева,386103,43.2366569,44.7685376
52,улица Картоева,386103,43.2366139,44.7683761
54,улица Картоева,386103,43.2365603,44.7681745
56,улица Картоева,386103,43.2365032,44.7680213
3,улица Цороева,386103,43.2361078,44.7684783
1,улица Цороева,386103,43.2361770,44.7687725
104,улица Орджоникидзе,386101,43.2313856,44.7568641
99,улица Картоева,386101,43.2310836,44.7577612
101,улица Картоева,386101,43.2309009,44.7578450
97,улица Картоева,386101,43.2311814,44.7579959
95,улица Картоева,386101,43.2311914,44.7582024
93,улица Картоева,386101,43.2315381,44.7582479
91,улица Картоева,386101,43.2316562,44.7584475
89,улица Картоева,386101,43.2318056,44.7586091
87,улица Картоева,386101,43.2318046,44.7590490
85,улица Картоева,386101,43.2319611,44.7592339
20,Ингушская улица,386101,43.2321409,44.7594615
26,Ингушская улица,386101,43.2323188,44.7592102
28,Ингушская улица,386101,43.2322678,44.7590097
30,Ингушская улица,386101,43.2326127,44.7588217
102,улица Орджоникидзе,386101,43.2317157,44.7573268
100,улица Орджоникидзе,386101,43.2317862,44.7574409
96,улица Орджоникидзе,386101,43.2319991,44.7577088
94,улица Орджоникидзе,386101,43.2320431,44.7578486
98,улица Орджоникидзе,386101,43.2318801,44.7575657
92,улица Орджоникидзе,386101,43.2321499,44.7579724
90,улица Орджоникидзе,386101,43.2322532,44.7580940
86,улица Орджоникидзе,386101,43.2325114,44.7584463
84,улица Орджоникидзе,386101,43.2326083,44.7585538
88,улица Орджоникидзе,386101,43.2323724,44.7582780
23,улица Оздоева,386101,43.2316517,44.7564491
25,улица Оздоева,386101,43.2319678,44.7560489
115,улица Орджоникидзе,386101,43.2318488,44.7567499
113,улица Орджоникидзе,386101,43.2320676,44.7568774
107,улица Орджоникидзе,386101,43.2322317,44.7572931
101,улица Орджоникидзе,386101,43.2325275,44.7579036
97,улица Орджоникидзе,386101,43.2327535,44.7579984
103,улица Орджоникидзе,386101,43.2324909,44.7576745
32,Ингушская улица,386101,43.2329063,44.7584667
36,Ингушская улица,386101,43.2331573,44.7579102
34,Ингушская улица,386101,43.2330448,44.7582158
40,Ингушская улица,386101,43.2334659,44.7576393
78,улица Гикало,386101,43.2332304,44.7573883
80,улица Гикало,386101,43.2331268,44.7571818
82,улица Гикало,386101,43.2328497,44.7570238
84,улица Гикало,386101,43.2327409,44.7566630
90,улица Гикало,386101,43.2323540,44.7561222
88,улица Гикало,386101,43.2323802,44.7564248
86,улица Гикало,386101,43.2326003,44.7564870
95А,улица Гикало,386101,43.2324816,44.7556532
93,улица Гикало,386101,43.2327390,44.7558854
95,улица Гикало,386101,43.2325718,44.7559116
89А,улица Гикало,386101,43.2329235,44.7563748
91,улица Гикало,386101,43.2328065,44.7561824
89,улица Гикало,386101,43.2330710,44.7565125
85,улица Гикало,386101,43.2333232,44.7569015
83,улица Гикало,386101,43.2334599,44.7570826
81,улица Гикало,386101,43.2336009,44.7570544
44,Ингушская улица,386101,43.2338399,44.7571173
42,Ингушская улица,386101,43.2336571,44.7574178
66,Ингушская улица,386101,43.2340703,44.7567984
46,Ингушская улица,386101,43.2339066,44.7569862
68,улица Дудаева,386101,43.2339315,44.7565620
70,улица Дудаева,386101,43.2337850,44.7564343
72,улица Дудаева,386101,43.2336934,44.7562375
76,улица Дудаева,386101,43.2334676,44.7559102
78,улица Дудаева,386101,43.2333467,44.7557614
82,улица Дудаева,386101,43.2331132,44.7554237
84,улица Дудаева,386101,43.2329773,44.7553035
86,улица Дудаева,386101,43.2328663,44.7550434
49,улица Дудаева,386101,43.2332692,44.7550660
51,улица Дудаева,386101,43.2331502,44.7548750
47,улица Дудаева,386101,43.2333698,44.7552629
43,улица Дудаева,386101,43.2336397,44.7553753
41,улица Дудаева,386101,43.2337748,44.7555592
39,улица Дудаева,386101,43.2339619,44.7557491
37,улица Дудаева,386101,43.2341174,44.7559777
33,улица Дудаева,386101,43.2342800,44.7564936
35,улица Дудаева,386101,43.2340645,44.7561795
37,улица Оздоева,386101,43.2335870,44.7546486
16,улица Евлоева,386101,43.2338820,44.7546841
12,улица Евлоева,386101,43.2340433,44.7551555
10,улица Евлоева,386101,43.2342495,44.7552627
8,улица Евлоева,386101,43.2343637,44.7554155
4,улица Евлоева,386101,43.2345715,44.7556968
6,улица Евлоева,386101,43.2344808,44.7555847
2,улица Евлоева,386101,43.2347036,44.7558860
48,Ингушская улица,386101,43.2344456,44.7562219
50,Ингушская улица,386101,43.2345184,44.7560032
1,улица Евлоева,386101,43.2348135,44.7555435
3,улица Евлоева,386101,43.2346039,44.7552046
5,улица Евлоева,386101,43.2344835,44.7550223
7,улица Евлоева,386101,43.2344408,44.7547427
9,улица Оздоева,386101,43.2343476,44.7544166
49,улица Оздоева,386101,43.2347156,44.7540033
47,улица Оздоева,386101,43.2344470,44.7541344
53,улица Оздоева,386101,43.2352417,44.7538321
11,улица Оздоева,386101,43.2341575,44.7543673
22,улица Бутырина,386101,43.2337844,44.7610934
63,улица Картоева,386101,43.2333756,44.7612562
67,улица Картоева,386101,43.2332085,44.7609473
75,улица Картоева,386101,43.2325596,44.7600400
71,улица Картоева,386101,43.2328324,44.7604542
69,улица Картоева,386101,43.2330546,44.7607606
77,улица Картоева,386101,43.2323465,44.7597442
29,Ингушская улица,386101,43.2326436,44.7593291
33,Ингушская улица,386101,43.2327313,44.7591718
26,улица Орджоникидзе,386101,43.2341079,44.7606369
24,улица Бутырина,386101,43.2339743,44.7608672
72,улица Орджоникидзе,386101,43.2337702,44.7603432
74,улица Орджоникидзе,386101,43.2335239,44.7598739
76,улица Орджоникидзе,386101,43.2332587,44.7594581
35,Ингушская улица,386101,43.2328778,44.7589507
80,улица Орджоникидзе,386101,43.2330507,44.7591761
76А,улица Орджоникидзе,386101,43.2333849,44.7597174
93,улица Орджоникидзе,386101,43.2330839,44.7586641
91,улица Орджоникидзе,386101,43.2332365,44.7589079
83,улица Орджоникидзе,386101,43.2338336,44.7594567
87,улица Орджоникидзе,386101,43.2333847,44.7591024
85,улица Орджоникидзе,386101,43.2336610,44.7594988
81,улица Орджоникидзе,386101,43.2339636,44.7599132
77,улица Орджоникидзе,386101,43.2340902,44.7601059
77А,улица Орджоникидзе,386101,43.2343259,44.7603771
41,Ингушская улица,386101,43.2334666,44.7581297
64,улица Гикало,386101,43.2340590,44.7587673
60,улица Гикало,386101,43.2343401,44.7588336
43,Ингушская улица,386101,43.2336503,44.7579053
72,улица Гикало,386101,43.2337883,44.7580973
68,улица Гикало,386101,43.2339032,44.7583200
54,улица Гикало,386101,43.2347355,44.7593723
36,улица Бутырина,386101,43.2348658,44.7595364
58,улица Гикало,386101,43.2344782,44.7590673
32,улица Бутырина,386101,43.2346259,44.7598749
51,Ингушская улица,386101,43.2342541,44.7569838
47,Ингушская улица,386101,43.2340113,44.7573330
79,улица Гикало,386101,43.2340358,44.7576923
45,Ингушская улица,386101,43.2338141,44.7576289
77,улица Гикало,386101,43.2341632,44.7578475
75,улица Гикало,386101,43.2342241,44.7581614
71,улица Гикало,386101,43.2345387,44.7583948
69,улица Гикало,386101,43.2346457,44.7586494
67,улица Гикало,386101,43.2347290,44.7588703
52,улица Дудаева,386101,43.2353212,44.7585072
40,улица Бутырина,386101,43.2351499,44.7589730
56,улица Дудаева,386101,43.2351123,44.7582115
60,улица Дудаева,386101,43.2348302,44.7577960
62,улица Дудаева,386101,43.2346521,44.7575673
64,улица Дудаева,386101,43.2345142,44.7573905
42,улица Бутырина,386101,43.2354645,44.7587432
88,улица Дудаева,386101,43.2353306,44.7577680
90,улица Дудаева,386101,43.2353389,44.7575698
23,улица Дудаева,386101,43.2350601,44.7575777
25,улица Дудаева,386101,43.2349843,44.7573807
27,улица Дудаева,386101,43.2348736,44.7571586
29,улица Дудаева,386101,43.2347708,44.7569190
55,Ингушская улица,386101,43.2345196,44.7566303
96А,улица Дудаева,386101,43.2350153,44.7564781
57,Ингушская улица,386101,43.2347621,44.7562743
59,Ингушская улица,386101,43.2349052,44.7561972
30,улица Бекова,386101,43.2350305,44.7634425
45,улица Картоева,386101,43.2347874,44.7631072
47,улица Картоева,386101,43.2346289,44.7629112
49,улица Картоева,386101,43.2345154,44.7627071
51,улица Картоева,386101,43.2344343,44.7623660
55,улица Картоева,386101,43.2339793,44.7620507
57,улица Картоева,386101,43.2338718,44.7619043
21,улица Бутырина,386101,43.2341557,44.7611339
66,улица Орджоникидзе,386101,43.2346537,44.7615709
68,улица Орджоникидзе,386101,43.2344887,44.7613604
60,улица Орджоникидзе,386101,43.2349256,44.7619621
58,улица Орджоникидзе,386101,43.2352606,44.7624065
34,улица Бекова,386101,43.2354007,44.7628244
32,улица Бекова,386101,43.2351734,44.7629773
36,улица Бекова,386101,43.2355742,44.7626241
38,улица Бекова,386101,43.2357715,44.7623881
61,улица Орджоникидзе,386101,43.2356374,44.7621048
63,улица Орджоникидзе,386101,43.2355632,44.7618102
65,улица Орджоникидзе,386101,43.2353976,44.7618448
67,улица Орджоникидзе,386101,43.2352505,44.7616387
69,улица Орджоникидзе,386101,43.2349545,44.7612110
71,улица Орджоникидзе,386101,43.2348132,44.7610279
25,улица Бутырина,386101,43.2346857,44.7604513
50,улица Гикало,386101,43.2350829,44.7598236
48,улица Гикало,386101,43.2352441,44.7600596
42,улица Гикало,386101,43.2355677,44.7605125
40,улица Гикало,386101,43.2357868,44.7608682
38,улица Гикало,386101,43.2359366,44.7610625
36,улица Гикало,386101,43.2361505,44.7613217
32,улица Гикало,386101,43.2363165,44.7615790
44,улица Бекова,386101,43.2361698,44.7618201
42,улица Бекова,386101,43.2360265,44.7620324
29,улица Бутырина,386101,43.2348393,44.7601690
45,улица Гикало,386101,43.2365533,44.7613163
46,улица Бекова,386101,43.2367349,44.7609358
49,улица Гикало,386101,43.2362960,44.7610169
53,улица Гикало,386101,43.2360592,44.7604635
51,улица Гикало,386101,43.2362111,44.7606331
55,улица Гикало,386101,43.2358916,44.7602138
46,улица Гикало,386101,43.2353617,44.7602689
63,улица Гикало,386101,43.2352391,44.7595507
33,улица Бутырина,386101,43.2356676,44.7589962
31,улица Бутырина,386101,43.2354249,44.7592772
61,улица Гикало,386101,43.2354108,44.7597871
33,улица Картоева,386103,43.2359814,44.7651810
35,улица Картоева,386103,43.2359375,44.7648490
39,улица Картоева,386103,43.2357515,44.7643839
41,улица Картоева,386103,43.2354839,44.7642039
43А,улица Картоева,386103,43.2353105,44.7639807
56,улица Орджоникидзе,386103,43.2359425,44.7633884
31,улица Бекова,386103,43.2351783,44.7637140
54,улица Орджоникидзе,386103,43.2361257,44.7634197
52,улица Орджоникидзе,386103,43.2362177,44.7636033
46,улица Орджоникидзе,386103,43.2366548,44.7641395
50,улица Орджоникидзе,386103,43.2363446,44.7637248
2,Октябрьская улица,386103,43.2361339,44.7649222
6,Октябрьская улица,386103,43.2365229,44.7646400
8А,Октябрьская улица,386103,43.2368012,44.7642669
47,улица Орджоникидзе,386103,43.2370335,44.7640991
49,улица Орджоникидзе,386103,43.2368090,44.7638187
51,улица Орджоникидзе,386103,43.2366643,44.7636138
55,улица Орджоникидзе,386103,43.2364805,44.7633302
59,улица Орджоникидзе,386103,43.2359742,44.7626185
57,улица Орджоникидзе,386103,43.2361324,44.7628677
37,улица Бекова,386103,43.2362110,44.7622997
39,улица Бекова,386103,43.2363713,44.7620602
41,улица Бекова,386103,43.2365376,44.7618561
14,Октябрьская улица,386103,43.2374099,44.7635018
12,Октябрьская улица,386103,43.2372457,44.7637278
18,улица Гикало,386103,43.2375879,44.7632779
20,улица Гикало,386103,43.2373422,44.7630314
22,улица Гикало,386103,43.2370418,44.7626971
24,улица Гикало,386103,43.2369494,44.7624692
26,улица Гикало,386103,43.2368089,44.7623143
28,улица Гикало,386103,43.2367080,44.7622136
23,улица Гикало,386103,43.2376864,44.7626348
21,улица Гикало,386103,43.2377872,44.7629165
27,улица Гикало,386103,43.2374331,44.7623153
31,улица Гикало,386103,43.2371020,44.7620979
18,Октябрьская улица,386103,43.2380636,44.7626844
20,Октябрьская улица,386103,43.2382583,44.7623964
34,улица Дудаева,386103,43.2379796,44.7622530
40,улица Дудаева,386103,43.2376509,44.7617853
42,улица Дудаева,386103,43.2376589,44.7615846
33,улица Гикало,386103,43.2370901,44.7616695
35,улица Гикало,386103,43.2369297,44.7615536
47,улица Бекова,386103,43.2369540,44.7612062
43,улица Бекова,386103,43.2366950,44.7615823
38,улица Дудаева,386103,43.2378674,44.7619084
46,улица Дудаева,386103,43.2373243,44.7613785
44,улица Дудаева,386103,43.2374545,44.7615340
50,улица Дудаева,386103,43.2371482,44.7609457
17,улица Дудаева,386101,43.2374186,44.7607577
11,улица Дудаева,386101,43.2378069,44.7610903
13,улица Дудаева,386101,43.2376442,44.7610799
15,улица Дудаева,386101,43.2375645,44.7609318
9,улица Дудаева,386101,43.2378775,44.7612978
3,улица Дудаева,386101,43.2381750,44.7615727
7,улица Дудаева,386101,43.2379251,44.7614969
26,улица Дудаева,386103,43.2384908,44.7614249
22,Октябрьская улица,386103,43.2385781,44.7618021
22А,улица Дудаева,386103,43.2384438,44.7621836
1,улица Дудаева,386101,43.2382479,44.7619254
21,Октябрьская улица,386103,43.2389635,44.7619884
17,Октябрьская улица,386103,43.2386994,44.7624382
15,улица Дудаева,386103,43.2384835,44.7625893
16,улица Дудаева,386103,43.2388809,44.7626540
19,Октябрьская улица,386103,43.2387825,44.7622549
24,Октябрьская улица,386103,43.2388426,44.7617222
13,Октябрьская улица,386103,43.2382657,44.7629593
15,улица Гикало,386103,43.2382401,44.7637031
17,улица Гикало,386103,43.2381429,44.7635298
11,улица Гикало,386103,43.2385116,44.7640529
9,улица Гикало,386103,43.2386214,44.7642257
8,улица Дудаева,386103,43.2390358,44.7636462
10,улица Дудаева,386103,43.2389738,44.7633874
6,улица Дудаева,386103,43.2391603,44.7638156
4,улица Дудаева,386103,43.2393653,44.7641890
2,улица Дудаева,386103,43.2395600,44.7642798
32,улица Мира,386103,43.2396013,44.7647561
34,улица Мира,386103,43.2397673,44.7645982
30,улица Мира,386103,43.2394767,44.7648324
7,улица Гикало,386103,43.2387518,44.7643981
5,улица Гикало,386103,43.2389381,44.7644087
3,улица Гикало,386103,43.2388831,44.7645772
1,улица Гикало,386103,43.2390167,44.7647721
45,улица Мира,386103,43.2399647,44.7648783
43,улица Мира,386103,43.2398000,44.7652745
41,улица Мира,386103,43.2395121,44.7651515
39,улица Мира,386103,43.2393759,44.7652532
9,улица Шерипова,386103,43.2389895,44.7653609
1,улица Шерипова,386103,43.2393909,44.7665798
3,улица Шерипова,386103,43.2392454,44.7661251
5,улица Шерипова,386103,43.2391615,44.7658476
7,улица Шерипова,386103,43.2392408,44.7656310
1,Октябрьская улица,386103,43.2361597,44.7654990
3,Октябрьская улица,386103,43.2363735,44.7652621
5,Октябрьская улица,386103,43.2366769,44.7649823
7,Октябрьская улица,386103,43.2368320,44.7647921
40,улица Орджоникидзе,386103,43.2372165,44.7648941
42,улица Орджоникидзе,386103,43.2370306,44.7645773
38,улица Орджоникидзе,386103,43.2374724,44.7651771
37,улица Орджоникидзе,386103,43.2377753,44.7650958
39,улица Орджоникидзе,386103,43.2376614,44.7649113
41,улица Орджоникидзе,386103,43.2375174,44.7646982
43,улица Орджоникидзе,386103,43.2373849,44.7645233
9,Октябрьская улица,386103,43.2374870,44.7641275
11,Октябрьская улица,386103,43.2377902,44.7635636
16,улица Гикало,386103,43.2379236,44.7637987
14,улица Гикало,386103,43.2379636,44.7640418
12,улица Гикало,386103,43.2381929,44.7641407
10,улица Гикало,386103,43.2383298,44.7643133
8,улица Гикало,386103,43.2384589,44.7644794
6,улица Гикало,386103,43.2385489,44.7646318
4,улица Гикало,386103,43.2386608,44.7647893
26,улица Мира,386103,43.2382882,44.7651530
2,улица Гикало,386103,43.2388659,44.7650328
31,улица Картоева,386103,43.2366129,44.7661584
27,улица Картоева,386103,43.2367850,44.7668123
25,улица Картоева,386103,43.2368635,44.7672330
21,улица Картоева,386103,43.2370156,44.7676675
23,улица Картоева,386103,43.2369712,44.7675010
30,улица Зязикова,386103,43.2371426,44.7664812
32,улица Зязикова,386103,43.2370648,44.7662396
28,улица Зязикова,386103,43.2372330,44.7667493
26,улица Зязикова,386103,43.2373227,44.7669848
22,улица Зязикова,386103,43.2374138,44.7674871
24,улица Зязикова,386103,43.2374052,44.7671634
27,Пионерская улица,386103,43.2375176,44.7681037
18,улица Зязикова,386103,43.2375496,44.7676082
33,улица Мира,386103,43.2374448,44.7657444
31,улица Зязикова,386103,43.2373529,44.7662231
27,улица Зязикова,386103,43.2375771,44.7668203
32,улица Орджоникидзе,386103,43.2378913,44.7661102
30,улица Орджоникидзе,386103,43.2380254,44.7664743
25,улица Зязикова,386103,43.2377069,44.7669986
21,улица Зязикова,386103,43.2378180,44.7674081
19,улица Зязикова,386103,43.2380000,44.7676759
23,улица Зязикова,386103,43.2378291,44.7671907
28,улица Орджоникидзе,386103,43.2381213,44.7667072
26,улица Орджоникидзе,386103,43.2382492,44.7669435
24,улица Орджоникидзе,386103,43.2383013,44.7671525
27,улица Орджоникидзе,386103,43.2383528,44.7662893
33,улица Орджоникидзе,386103,43.2381715,44.7658366
35,улица Орджоникидзе,386103,43.2380309,44.7655816
25,улица Орджоникидзе,386103,43.2384922,44.7667379
23,улица Орджоникидзе,386103,43.2385484,44.7668888
2,улица Шерипова,386103,43.2392843,44.7670702
4,улица Шерипова,386103,43.2391605,44.7667829
6,улица Шерипова,386103,43.2389532,44.7665731
10,улица Шерипова,386103,43.2389347,44.7661665
12,улица Шерипова,386103,43.2388739,44.7659621
14,улица Шерипова,386103,43.2386918,44.7657556
16,улица Шерипова,386103,43.2386603,44.7654651
21,улица Орджоникидзе,386103,43.2388211,44.7669674
13,улица Картоева,386104,43.2380704,44.7701713
15,улица Картоева,386104,43.2379531,44.7698716
17,улица Картоева,386104,43.2378074,44.7694994
19,улица Картоева,386104,43.2376143,44.7691254
9,улица Картоева,386104,43.2384648,44.7711379
20,улица Орджоникидзе,386104,43.2385293,44.7679534
16,улица Орджоникидзе,386104,43.2387854,44.7681888
12,улица Орджоникидзе,386104,43.2388677,44.7685209
14,улица Орджоникидзе,386104,43.2388368,44.7683742
8,улица Орджоникидзе,386104,43.2389875,44.7688457
4,улица Орджоникидзе,386104,43.2391404,44.7691229
2,улица Орджоникидзе,386104,43.2392020,44.7694302
1,улица Орджоникидзе,386104,43.2393880,44.7694050
13,улица Орджоникидзе,386104,43.2391854,44.7682753
15,улица Орджоникидзе,386104,43.2391166,44.7680300
17,улица Орджоникидзе,386104,43.2389240,44.7679102
19,улица Орджоникидзе,386104,43.2388433,44.7676905
9,улица Орджоникидзе,386104,43.2391411,44.7685762
3,улица Картоева,386104,43.2390120,44.7726675
1,улица Картоева,386104,43.2394861,44.7732504
35,улица Осканова,386103,43.2308750,44.7663027
47А,улица Газдиева,386101,43.2289605,44.7654927
77,улица Газдиева,386101,43.2279683,44.7626267
73,улица Газдиева,386101,43.2283881,44.7631504
8,Чеченская улица,386101,43.2205349,44.7532340
12Б,Чеченская улица,386101,43.2213407,44.7519535
34/3,Чеченская улица,386130,43.2225295,44.7487787
14А,Чеченская улица,386101,43.2217420,44.7511583
11,улица Картоева,386104,43.2381290,44.7707021
21А,улица Картоева,386103,43.2373118,44.7684168
64,улица Картоева,386103,43.2357160,44.7662611
68,улица Картоева,386103,43.2351273,44.7652985
108,улица Картоева,386101,43.2298483,44.7577795
112,улица Картоева,386101,43.2295735,44.7574309
122,улица Картоева,386101,43.2281258,44.7554347
29,улица Картоева,386103,43.2365705,44.7666239
37,улица Картоева,386103,43.2357286,44.7648154
53,улица Картоева,386101,43.2340590,44.7622671
61,улица Картоева,386101,43.2334879,44.7614708
65,улица Картоева,386101,43.2332559,44.7612054
73,улица Картоева,386101,43.2326425,44.7602285
103,улица Картоева,386101,43.2307068,44.7576885
109,улица Картоева,386101,43.2301889,44.7569495
113,улица Картоева,386101,43.2299426,44.7565995
127,улица Картоева,386101,43.2269486,44.7522958
32,Чеченская улица,386130,43.2202119,44.7526084
7/1,Чеченская улица,386130,43.2198681,44.7516389
20/1,Чеченская улица,386130,43.2209957,44.7510502
24/1,Чеченская улица,386130,43.2211027,44.7504730
34/2,Чеченская улица,386130,43.2224420,44.7489619
40/1,Чеченская улица,386130,43.2231763,44.7451064
21,улица Хаматханова,386130,43.2308289,44.7323951
19,улица Хаматханова,386130,43.2309015,44.7325797
6,улица Гадаборшева,386130,43.2303445,44.7328903
24,улица Парагульгова,386130,43.2290540,44.7332490
13,улица Хаматханова,386130,43.2308690,44.7343386
40,улица Хадзиева,386130,43.2296867,44.7342177
30,улица Хадзиева,386130,43.2281069,44.7347436
18,улица Хадзиева,386130,43.2268260,44.7350850
11А,улица Джамбулатова,386130,43.2261084,44.7358718
11,улица Джамбулатова,386130,43.2258700,44.7359611
3,улица Джамбулатова,386130,43.2250992,44.7361682
44,улица Джамбулатова,386130,43.2297825,44.7352466
52,улица Джамбулатова,386130,43.2304458,44.7349459
39,улица Тимурзиева,386130,43.2297666,44.7356442
16,улица Хаматханова,386130,43.2313318,44.7357118
6,улица Тимурзиева,386130,43.2258273,44.7374511
10,улица Тимурзиева,386130,43.2260986,44.7375315
12,улица Тимурзиева,386130,43.2265259,44.7371847
18,улица Тимурзиева,386130,43.2272867,44.7371364
20,улица Тимурзиева,386130,43.2277427,44.7370692
6,улица Шадыжева,386130,43.2253405,44.7386973
10,улица Шадыжева,386130,43.2256834,44.7387753
32,улица Шадыжева,386130,43.2282567,44.7377616
33,улица Ужахова,386130,43.2288460,44.7381833
4,улица Ужахова,386130,43.2262289,44.7395105
10,улица Ужахова,386130,43.2269405,44.7393880
26,улица Ужахова,386130,43.2285862,44.7386920
1,Набережная улица,386101,43.2268027,44.7460087
6,Фабричная улица,386101,43.2250998,44.7442082
18А,Фабричная улица,386101,43.2267577,44.7467172
11,Фабричная улица,386101,43.2278561,44.7471734
9,Фабричная улица,386101,43.2279634,44.7472719
7,Фабричная улица,386101,43.2280790,44.7473849
5,Фабричная улица,386101,43.2281506,44.7475466
3,Фабричная улица,386101,43.2282482,44.7478830
61,Фабричная улица,386101,43.2247098,44.7402209
57,Фабричная улица,386101,43.2247837,44.7406248
55,Фабричная улица,386101,43.2247603,44.7408356
24,улица Тангиева,386101,43.2242689,44.7417686
45,Фабричная улица,386101,43.2246489,44.7423227
43,Фабричная улица,386101,43.2246561,44.7425304
13,улица Тангиева,386101,43.2241319,44.7428855
26,Фабричная улица,386101,43.2251204,44.7465868
26/2,Фабричная улица,386101,43.2256993,44.7474514
139А,улица Картоева,386101,43.2236503,44.7473889
26/4,Фабричная улица,386101,43.2238504,44.7481779
26/3,Фабричная улица,386101,43.2244427,44.7486522
109А,улица Картоева,386101,43.2248680,44.7496043
21,Фабричная улица,386101,43.2266822,44.7475483
19,Фабричная улица,386101,43.2268315,44.7476889
6,улица У. А. Барханоева,386101,43.2270044,44.7487538
9/1,Фабричная улица,386101,43.2289730,44.7489580
25,Новая улица,386101,43.2322582,44.7324563
27,Новая улица,386101,43.2322675,44.7332847
29,Новая улица,386101,43.2322603,44.7341806
31,Новая улица,386101,43.2322492,44.7350230
33,Новая улица,386101,43.2323796,44.7360544
15,Новая улица,386101,43.2332997,44.7368698
17,Новая улица,386101,43.2335320,44.7352042
19,Новая улица,386101,43.2335150,44.7344035
21,Новая улица,386101,43.2335284,44.7334502
23,Новая улица,386101,43.2335312,44.7326482
20,Новая улица,386101,43.2354965,44.7346668
8,Новая улица,386101,43.2350283,44.7381057
2/1,Школьная улица,386101,43.2341939,44.7407565
2Б,проспект Идриса Базоркина,386101,43.2371947,44.7478173
7,Фабричная улица,386101,43.2340842,44.7460892
3/3,Фабричная улица,386101,43.2343707,44.7472432
26А,проспект Идриса Базоркина,386101,43.2346850,44.7499799
10В,проспект Идриса Базоркина,386101,43.2340949,44.7515543
10А,проспект Идриса Базоркина,386101,43.2336180,44.7517735
47А,Фабричная улица,386101,43.2319493,44.7481741
18/3,проспект Идриса Базоркина,386101,43.2328981,44.7501407
18А,проспект Идриса Базоркина,386101,43.2330075,44.7506546
16В,проспект Идриса Базоркина,386101,43.2327478,44.7507649
4,проспект Идриса Базоркина,386101,43.2347991,44.7524392
64,проспект Идриса Базоркина,386101,43.2301338,44.7495849
73В,проспект Идриса Базоркина,386101,43.2299137,44.7496256
64Б,проспект Идриса Базоркина,386101,43.2305619,44.7503158
66,проспект Идриса Базоркина,386101,43.2303362,44.7499851
108,улица Орджоникидзе,386101,43.2308182,44.7563932
31,проспект Идриса Базоркина,386101,43.2302253,44.7552667
115,улица Орджоникидзе,386101,43.2312134,44.7561046
92,улица Гикало,386101,43.2316248,44.7552733
94,улица Гикало,386101,43.2317677,44.7550124
13/1,Чеченская улица,386101,43.2200761,44.7542035
14Б,Чеченская улица,386101,43.2219976,44.7508519
10Б,Чеченская улица,386101,43.2223183,44.7499274
84,проспект Идриса Базоркина,386101,43.2286391,44.7559608
88,проспект Идриса Базоркина,386101,43.2282730,44.7565387
92,проспект Идриса Базоркина,386101,43.2278916,44.7567843
98,проспект Идриса Базоркина,386101,43.2275532,44.7575623
102А,проспект Идриса Базоркина,386101,43.2272637,44.7589524
102,проспект Идриса Базоркина,386101,43.2272646,44.7592712
102Б,проспект Идриса Базоркина,386101,43.2272618,44.7596822
110,проспект Идриса Базоркина,386101,43.2272555,44.7614784
3,Железнодорожная улица,386101,43.2261604,44.7629350
9,Железнодорожная улица,386101,43.2256362,44.7623981
7,Железнодорожная улица,386101,43.2258047,44.7624925
5,Железнодорожная улица,386101,43.2259032,44.7628575
11,Железнодорожная улица,386101,43.2253791,44.7622367
18,улица Оздоева,386101,43.2300029,44.7581622
45,проспект Идриса Базоркина,386101,43.2288248,44.7572864
41,проспект Идриса Базоркина,386101,43.2291027,44.7567959
15,улица Оздоева,386101,43.2300988,44.7588854
19,Ингушская улица,386101,43.2318998,44.7603755
82,улица Картоева,386101,43.2328698,44.7617104
20,улица Бутырина,386101,43.2328975,44.7619052
16,улица Бутырина,386101,43.2326868,44.7621322
8,улица Бутырина,386101,43.2320316,44.7624763
6,улица Бутырина,386101,43.2318493,44.7624553
25,улица Кунаева,386101,43.2315947,44.7621355
17,Ингушская улица,386101,43.2317948,44.7605480
49,улица Тамбиева,386103,43.2336576,44.7627346
47,улица Тамбиева,386103,43.2337590,44.7631159
45,улица Тамбиева,386103,43.2337905,44.7632734
43,улица Тамбиева,386103,43.2338759,44.7634036
41,улица Тамбиева,386103,43.2339103,44.7636076
46,улица Тамбиева,386103,43.2334205,44.7629846
44,улица Тамбиева,386103,43.2336094,44.7636622
20,улица Бекова,386103,43.2335476,44.7640884
57,улица Ханпаши-Нурадилова,386103,43.2327904,44.7630801
59,улица Ханпаши-Нурадилова,386103,43.2327486,44.7628830
61,улица Ханпаши-Нурадилова,386101,43.2326238,44.7624955
11,улица Бутырина,386103,43.2327884,44.7624762
13,улица Бутырина,386103,43.2329963,44.7623713
48,улица Ханпаши-Нурадилова,386103,43.2326355,44.7636840
12,улица Бекова,386103,43.2325077,44.7647610
11,улица Кунаева,386103,43.2322838,44.7647604
13,улица Кунаева,386103,43.2322395,44.7642218
5,улица Бутырина,386103,43.2317692,44.7629515
7,улица Бутырина,386103,43.2320405,44.7628637
49,проспект Идриса Базоркина,386101,43.2283442,44.7578720
55,проспект Идриса Базоркина,386101,43.2279482,44.7585211
49,улица Итазова,386101,43.2279657,44.7586973
58,улица Кунаева,386101,43.2291805,44.7588061
54,улица Кунаева,386101,43.2294031,44.7590955
57А,проспект Идриса Базоркина,386101,43.2277177,44.7591903
57,проспект Идриса Базоркина,386101,43.2277085,44.7594702
60,улица Итазова,386101,43.2281994,44.7598022
50,улица Итазова,386101,43.2291913,44.7610224
38,улица Итазова,386101,43.2299539,44.7619835
4,Ингушская улица,386101,43.2299990,44.7625119
35,улица Итазова,386101,43.2300980,44.7613050
37,улица Итазова,386101,43.2289770,44.7602664
34,улица Кунаева,386103,43.2311414,44.7616187
28,улица Кунаева,386103,43.2313511,44.7623581
2,улица Бутырина,386103,43.2311258,44.7628486
3,улица Бутырина,386103,43.2315509,44.7630626
16,улица Кунаева,386103,43.2318984,44.7644048
15,улица Итазова,386103,43.2313908,44.7642958
17,улица Итазова,386103,43.2313042,44.7639302
21,улица Итазова,386103,43.2311545,44.7635712
1,улица Бутырина,386103,43.2312532,44.7632465
24,улица Итазова,386103,43.2309598,44.7638780
14,улица Итазова,386103,43.2311649,44.7650673
4,улица Бекова,386103,43.2314038,44.7653689
14,улица Евлоева,386101,43.2339417,44.7549602
80,улица Дудаева,386101,43.2332304,44.7555938
74,улица Дудаева,386101,43.2336221,44.7561228
87,улица Гикало,386101,43.2331671,44.7566529
38,Ингушская улица,386101,43.2333194,44.7578530
95,улица Орджоникидзе,386101,43.2328320,44.7582866
99,улица Орджоникидзе,386101,43.2326472,44.7578700
105,улица Орджоникидзе,386101,43.2323050,44.7575308
111,улица Орджоникидзе,386101,43.2320218,44.7571780
96,улица Дудаева,386101,43.2350396,44.7568724
94,улица Дудаева,386101,43.2351926,44.7571863
66,улица Дудаева,386101,43.2344160,44.7571840
58,улица Дудаева,386101,43.2349613,44.7580048
54,улица Дудаева,386101,43.2352571,44.7583007
38,улица Бутырина,386101,43.2350712,44.7593014
65,улица Гикало,386101,43.2348624,44.7590619
73,улица Гикало,386101,43.2343974,44.7583283
49,Ингушская улица,386101,43.2341498,44.7572411
70,улица Гикало,386101,43.2337906,44.7582774
66,улица Гикало,386101,43.2340661,44.7584983
62,улица Гикало,386101,43.2342280,44.7588232
56,улица Гикало,386101,43.2346134,44.7592051
34,улица Бутырина,386101,43.2347233,44.7597660
30,улица Бутырина,386101,43.2344073,44.7602478
79,улица Орджоникидзе,386101,43.2341121,44.7599010
89,улица Орджоникидзе,386101,43.2333639,44.7589521
37,Ингушская улица,386101,43.2332024,44.7585453
78,улица Орджоникидзе,386101,43.2331669,44.7593502
72А,улица Орджоникидзе,386101,43.2337583,44.7601629
59,улица Гикало,386101,43.2356437,44.7597742
57,улица Гикало,386101,43.2356491,44.7600571
47,улица Гикало,386101,43.2364315,44.7611479
44,улица Гикало,386101,43.2355033,44.7604414
34,улица Гикало,386101,43.2362414,44.7614426
40,улица Бекова,386101,43.2358908,44.7622825
73,улица Орджоникидзе,386101,43.2346830,44.7608664
27,улица Бутырина,386101,43.2347830,44.7602721
70,улица Орджоникидзе,386101,43.2344427,44.7610598
64,улица Орджоникидзе,386101,43.2348419,44.7616249
43,улица Картоева,386101,43.2349555,44.7633404
59,улица Картоева,386101,43.2337462,44.7617022
17,улица Бутырина,386101,43.2338915,44.7615537
19,улица Бутырина,386101,43.2340219,44.7613816
5,улица Дудаева,386101,43.2380218,44.7616249
24,улица Дудаева,386103,43.2386525,44.7614741
22,улица Дудаева,386103,43.2387246,44.7615802
28,улица Дудаева,386103,43.2384244,44.7612885
30,улица Дудаева,386103,43.2384137,44.7610823
48,улица Дудаева,386103,43.2371593,44.7611451
36,улица Дудаева,386103,43.2379625,44.7620251
25,улица Гикало,386103,43.2375256,44.7625176
29,улица Гикало,386103,43.2372192,44.7622792
45,улица Бекова,386103,43.2368880,44.7613692
10,Октябрьская улица,386103,43.2371469,44.7639218
47А,улица Орджоникидзе,386103,43.2369274,44.7639415
53,улица Орджоникидзе,386103,43.2365810,44.7634862
55А,улица Орджоникидзе,386103,43.2363159,44.7631082
35,улица Бекова,386103,43.2357305,44.7629910
48,улица Орджоникидзе,386103,43.2364454,44.7641351
8,Октябрьская улица,386103,43.2366350,44.7645174
4,Октябрьская улица,386103,43.2362631,44.7648690
19,улица Гикало,386103,43.2379688,44.7633350
13,улица Гикало,386103,43.2383724,44.7637286
36,улица Орджоникидзе,386103,43.2375514,44.7652926
37,улица Мира,386103,43.2391546,44.7653684
8,улица Шерипова,386103,43.2389683,44.7664044
35,улица Мира,386103,43.2383823,44.7655422
34,улица Орджоникидзе,386103,43.2378406,44.7659898
22,улица Орджоникидзе,386103,43.2383588,44.7673196
16,улица Зязикова,386103,43.2376717,44.7677657
27,улица Бекова,386103,43.2345136,44.7641864
23,улица Бекова,386103,43.2342024,44.7642746
31,улица Тамбиева,386103,43.2343174,44.7652384
33,улица Тамбиева,386103,43.2342390,44.7649919
36,улица Тамбиева,386103,43.2337664,44.7646481
19,улица Бекова,386103,43.2336564,44.7645673
45,улица Ханпаши-Нурадилова,386103,43.2332325,44.7647322
39,улица Ханпаши-Нурадилова,386103,43.2334037,44.7653646
41,улица Ханпаши-Нурадилова,386103,43.2333122,44.7651148
34,улица Ханпаши-Нурадилова,386103,43.2331832,44.7657273
3,улица Кунаева,386103,43.2327824,44.7662358
11,улица Бекова,386103,43.2325864,44.7651511
9,улица Бекова,386103,43.2321526,44.7653581
10,улица Кунаева,386103,43.2322614,44.7658796
7,улица Итазова,386103,43.2318106,44.7658961
8,улица Итазова,386103,43.2315657,44.7658496
6,улица Итазова,386103,43.2314939,44.7662588
1,улица Бекова,386103,43.2309351,44.7659412
29,улица Мира,386103,43.2356250,44.7662670
13,улица Яндилова,386103,43.2359838,44.7675574
16,улица Цороева,386103,43.2352025,44.7664298
19,улица Тамбиева,386103,43.2347024,44.7664342
23,улица Тамбиева,386103,43.2345433,44.7661044
18,улица Тамбиева,386103,43.2345007,44.7675956
14,улица Тамбиева,386103,43.2347819,44.7682102
19,улица Ханпаши-Нурадилова,386103,43.2341179,44.7681383
25,улица Ханпаши-Нурадилова,386103,43.2339350,44.7673222
29,улица Ханпаши-Нурадилова,386103,43.2338164,44.7668962
21,улица Мира,386103,43.2339556,44.7665977
1,улица Тамбиева,386103,43.2355060,44.7696309
3,улица Тамбиева,386103,43.2354554,44.7695049
10,улица Тамбиева,386103,43.2347704,44.7688055
6,улица Тамбиева,386103,43.2350724,44.7693802
3,улица Ханпаши-Нурадилова,386103,43.2346599,44.7702653
5,улица Ханпаши-Нурадилова,386103,43.2346226,44.7700576
9,улица Ханпаши-Нурадилова,386103,43.2345548,44.7698005
11,улица Ханпаши-Нурадилова,386103,43.2346057,44.7696775
13А,улица Ханпаши-Нурадилова,386103,43.2344978,44.7693191
15,улица Ханпаши-Нурадилова,386103,43.2344509,44.7691071
17,улица Ханпаши-Нурадилова,386103,43.2343001,44.7688919
28,улица Ханпаши-Нурадилова,386103,43.2334536,44.7672168
20,улица Ханпаши-Нурадилова,386103,43.2339686,44.7685912
4,улица Ханпаши-Нурадилова,386103,43.2338445,44.7698799
8,улица Ханпаши-Нурадилова,386103,43.2330908,44.7699288
10,улица Ханпаши-Нурадилова,386103,43.2330606,44.7693258
33А,улица Осканова,386103,43.2316254,44.7694457
33,улица Осканова,386103,43.2315629,44.7691602
5/1,улица Мира,386103,43.2317741,44.7673839
5,улица Картоева,386104,43.2388324,44.7722541
7,улица Картоева,386104,43.2385367,44.7715812
3,улица Орджоникидзе,386104,43.2393704,44.7690176
5,улица Орджоникидзе,386104,43.2392540,44.7689572
46,улица Газдиева,386101,43.2299064,44.7681771
21,улица Осканова,386101,43.2328908,44.7684014
