House number,Street name,Postal code,Latitude,Longitude
1,Strada Ion Maiorescu,200418,44.3183176,23.7928514
7,Strada Alexandru Ioan Cuza,200585,44.3187651,23.7965747
67,Calea București,200523,44.3186919,23.8087366
3-5,Bulevardul Decebal,200980,44.3292423,23.8148206
1,Strada Madona Dudu,200410,44.3161893,23.7943227
23,Strada Frații Buzești,200730,44.3150896,23.7996376
25,Strada Frații Buzești,200381,44.3142854,23.7998146
7,Calea Severinului,200233,44.3283442,23.7762699
57,Calea București,200675,44.3190880,23.8068451
61,Calea București,200675,44.3192308,23.8073107
59,Calea București,200675,44.3191085,23.8070150
63,Calea București,200523,44.3189326,23.8083913
65,Strada Toporași,200222,44.3338514,23.7711684
115,Strada General Dragalina,200539,44.3091190,23.8116492
11,Strada Mihail Kogălniceanu,200390,44.3160264,23.7964761
11,Strada Alexandru Ioan Cuza,200585,44.3190100,23.7991520
15,Calea Unirii,200419,44.3191406,23.7950945
14,Strada Matei Basarab,200760,44.3146250,23.7922659
14,Strada Madona Dudu,200410,44.3172594,23.7899422
8,Strada Popa Șapcă,200416,44.3186090,23.7934440
7A,Strada Ion D. Sîrbu,200547,44.3061617,23.8188932
24A,Aleea Potelu,200317,44.2953999,23.8054740
5A,Strada Panait Moșoiu,200395,44.3179547,23.7993624
4A,Strada Alexandru Ioan Cuza,200086,44.3179685,23.7987370
4A,Strada Alexandru Ioan Cuza,200086,44.3180026,23.7986691
72,Calea București,200446,44.3126316,23.8272432
129,Calea București,200617,44.3145417,23.8308007
20,Strada C.D. Fortunescu,200385,44.3158479,23.8027916
49,Bulevardul Carol I,200692,44.3240942,23.8045351
25,Calea Severinului,200769,44.3417783,23.7609933
34,Strada Viitorului,200786,44.3161877,23.8655833
7,Strada Brazda lui Novac,200115,44.3296526,23.8049765
111A,Bulevardul Decebal,200746,44.2999723,23.8337077
19,Strada Rovinari,200533,44.3086020,23.8129474
6,Calea Unirii,200585,44.3197433,23.7941610
12,Strada Caracal,200347,44.3116357,23.8020128
13,Strada Dâmbovița,200670,44.3273167,23.7847698
29,Calea București,200678,44.3201237,23.8014243
27,Calea București,200678,44.3201584,23.8012017
19,Calea București,200678,44.3202799,23.7996437
19,Calea București,200678,44.3202877,23.7998672
139,Calea București,200620,44.3138562,23.8366317
139,Calea București,200640,44.3138339,23.8368977
172,Strada Caracal,200746,44.2992350,23.8291037
162A,Strada Caracal,200746,44.2994962,23.8280262
141,Calea București,200620,44.3138197,23.8370670
6,Strada Iancu Jianu,200142,44.3215531,23.7891684
17,Strada Brestei,200420,44.3209760,23.7902859
17,Calea București,200678,44.3203375,23.7993155
21,Calea București,200678,44.3201890,23.8002319
19,Calea București,200678,44.3202545,23.7997881
133,Strada Brestei,200177,44.3226457,23.7770061
81,Calea București,200465,44.3182511,23.8108668
83,Calea București,200465,44.3181800,23.8110991
13A,Strada Eugeniu Carada,200390,44.3160279,23.8009352
20,Strada Frații Buzești,200381,44.3137265,23.7998072
133,Calea București,200617,44.3145051,23.8311028
13,Strada Eugeniu Carada,200390,44.3159098,23.8011802
19,Strada Arieș,200384,44.3145029,23.8018370
2,Strada Eugeniu Carada,200390,44.3158820,23.7994749
133,Calea București,200617,44.3145190,23.8309876
10,Strada Frații Buzești,200730,44.3152141,23.7991754
129,Calea București,200617,44.3145650,23.8306083
112,Strada General Gheorghe Magheru,200548,44.3096289,23.8189975
131,Calea București,200617,44.3145298,23.8308989
7B,Strada Henry Ford,200611,44.3001581,23.8370661
21,Strada Arieș,200384,44.3143730,23.8018863
101,Bulevardul Carol I,200061,44.3260559,23.8094323
132,Strada Dezrobirii,200009,44.3200413,23.8218206
67,Calea București,200523,44.3186442,23.8089637
103,Calea București,200477,44.3167558,23.8188404
47,Calea București,200675,44.3192989,23.8058722
65,Calea București,200523,44.3187866,23.8085200
24,Strada Petre Ispirescu,200480,44.3188772,23.8214226
45,Calea București,200675,44.3193243,23.8054671
69,Calea București,200523,44.3185978,23.8091846
69,Calea București,200523,44.3186465,23.8093702
17,Strada Petre Ispirescu,200480,44.3190474,23.8216860
31,Calea București,200677,44.3197189,23.8030124
95,Calea București,200473,44.3176379,23.8140878
43,Calea București,200675,44.3193956,23.8050604
103,Calea București,200477,44.3167837,23.8186968
85,Calea București,200473,44.3180451,23.8120701
7,Strada Nicolae Bălcescu,200676,44.3195629,23.8043340
37,Calea București,200677,44.3196028,23.8037369
61,Calea București,200675,44.3193163,23.8074821
45,Calea București,200675,44.3193031,23.8056235
35,Calea București,200677,44.3196471,23.8034607
103,Calea București,200477,44.3167121,23.8190485
95,Calea București,200473,44.3175187,23.8146908
57,Calea București,200675,44.3191029,23.8067404
37,Calea București,200677,44.3195843,23.8038525
103,Calea București,200477,44.3168248,23.8184856
45,Calea București,200675,44.3193068,23.8055670
85,Calea București,200473,44.3180633,23.8119719
99C,Calea București,200473,44.3169999,23.8170518
103,Calea București,200477,44.3166932,23.8191441
59,Calea București,200675,44.3191935,23.8072349
105,Calea București,200477,44.3165398,23.8197301
43,Calea București,200675,44.3193828,23.8051513
45,Calea București,200675,44.3193708,23.8054093
103,Calea București,200477,44.3167316,23.8189647
105,Calea București,200477,44.3165039,23.8199169
10,Strada Petre Ispirescu,200480,44.3195515,23.8215551
105,Calea București,200477,44.3165694,23.8195761
83,Calea București,200465,44.3181705,23.8112959
43,Calea București,200675,44.3193736,23.8052167
105,Calea București,200477,44.3165250,23.8198075
85,Calea București,200473,44.3180238,23.8121850
16,Strada Petre Ispirescu,200480,44.3193105,23.8215243
35,Calea București,200677,44.3196284,23.8035774
33,Calea București,200677,44.3196829,23.8032372
33,Calea București,200677,44.3197020,23.8031178
41,Calea București,200675,44.3194634,23.8049350
31,Calea București,200677,44.3197420,23.8028680
99C,Calea București,200473,44.3170094,23.8169916
85,Calea București,200473,44.3180762,23.8119026
57,Calea București,200675,44.3190776,23.8069482
59,Calea București,200675,44.3191639,23.8071749
4,Strada Petre Ispirescu,200480,44.3198109,23.8215896
2,Strada Petre Ispirescu,200480,44.3198407,23.8215961
2,Strada Petre Ispirescu,200480,44.3199009,23.8216009
2A,Strada Frații Golești,200467,44.3193749,23.8079117
2A,Strada Frații Golești,200467,44.3193365,23.8079061
46,Strada Vasile Alecsandri,200463,44.3212350,23.8078996
47,Strada Vasile Alecsandri,200463,44.3214190,23.8078628
24,Strada Frații Golești,200467,44.3203274,23.8080822
130A,Strada Dezrobirii,200519,44.3199457,23.8213316
54,Strada Brazda lui Novac,200690,44.3281579,23.8014648
21,Strada Alexandru Ioan Cuza,200585,44.3180650,23.8048194
5,Strada Înfrățirii,200530,44.3169585,23.8112135
9,Strada Alexandru Macedonski,200383,44.3155071,23.8042623
88,Bulevardul 1 Mai,200638,44.3013723,23.7974872
1,Strada Sfinții Apostoli,200392,44.3154587,23.8071783
12,Strada Brestei,200420,44.3220376,23.7889586
1,Aleea Ion Vasilescu,200706,44.3385096,23.7755124
11,Strada Bătrânilor,200025,44.3250235,23.8190971
11,Calea Severinului,200768,44.3364751,23.7651882
22A,Strada Pelendava,200204,44.3339079,23.7604518
18A,Strada Ștefan cel Mare,200129,44.3225274,23.7989356
21,Calea Severinului,200769,44.3394028,23.7635462
33,Strada Caracal,200347,44.3092358,23.8049514
41,Strada Împăratul Traian,200530,44.3158633,23.8069822
29,Strada Împăratul Traian,200399,44.3164742,23.8047494
5,Strada Împăratul Traian,200399,44.3169371,23.8028760
69,Strada Împăratul Traian,200530,44.3153897,23.8091356
57,Strada Nanterre,200497,44.3151176,23.8175690
141,Calea București,200620,44.3137910,23.8374091
27,Strada Împăratul Traian,200399,44.3165816,23.8045029
22,Strada Frații Buzești,200381,44.3138651,23.7996263
57,Strada Împăratul Traian,200530,44.3157058,23.8084196
107,Strada Împăratul Traian,200487,44.3139232,23.8114164
93,Strada Împăratul Traian,200487,44.3144882,23.8106346
60A,Strada General Dragalina,200539,44.3098847,23.8087889
134,Strada Împăratul Traian,200501,44.3117923,23.8150195
119A,Strada Împăratul Traian,200501,44.3134622,23.8122838
102,Strada Împăratul Traian,200487,44.3132320,23.8122008
128B,Strada Împăratul Traian,200501,44.3121179,23.8142685
2,Strada Eugeniu Carada,200390,44.3158851,23.7996155
35,Strada Împăratul Traian,200399,44.3162045,23.8052748
93,Strada General Gheorghe Magheru,200548,44.3099519,23.8193453
12,Strada Caracal,200347,44.3117858,23.8019216
21,Strada Împăratul Traian,200399,44.3167610,23.8038790
53,Strada Împăratul Traian,200530,44.3156974,23.8081709
209B,Strada Împăratul Traian,200501,44.3102252,23.8193237
7,Strada Rovine,200058,44.3224874,23.8100368
34,Strada Frații Golești,200467,44.3211718,23.8083172
58,Strada Vasile Alecsandri,200463,44.3209219,23.8089782
63,Strada Vasile Alecsandri,200463,44.3213323,23.8090809
9,Strada Frații Golești,200467,44.3199162,23.8075330
48,Strada Rovine,200058,44.3234037,23.8118689
30,Strada Frații Golești,200467,44.3209268,23.8081546
58,Strada Vasile Alecsandri,200463,44.3209880,23.8089713
1,Strada Rovine,200058,44.3215368,23.8093143
10,Strada Rovine,200058,44.3216287,23.8097338
11,Strada Rovine,200058,44.3227814,23.8103724
12,Strada Rovine,200058,44.3216434,23.8101790
13,Strada Rovine,200058,44.3229259,23.8105608
14,Strada Rovine,200058,44.3218504,23.8099067
15,Strada Rovine,200058,44.3229602,23.8106978
16,Strada Rovine,200058,44.3220305,23.8099307
17,Strada Rovine,200058,44.3230068,23.8107594
18,Strada Rovine,200058,44.3221848,23.8100625
19,Strada Rovine,200058,44.3231072,23.8108484
2,Strada Rovine,200058,44.3213102,23.8095574
20,Strada Rovine,200058,44.3223000,23.8102235
21,Strada Rovine,200058,44.3232628,23.8110659
22,Strada Rovine,200058,44.3223882,23.8103656
23,Strada Rovine,200058,44.3233388,23.8111823
24,Strada Rovine,200058,44.3224666,23.8104289
25,Strada Rovine,200058,44.3234233,23.8112988
26,Strada Rovine,200058,44.3224568,23.8107063
27,Strada Rovine,200058,44.3234662,23.8114563
28,Strada Rovine,200058,44.3225866,23.8105985
29,Strada Rovine,200058,44.3236474,23.8112491
3,Strada Rovine,200058,44.3216569,23.8092629
30,Strada Rovine,200058,44.3226356,23.8106892
31,Strada Rovine,200058,44.3235678,23.8115436
32,Strada Rovine,200058,44.3227214,23.8108673
33,Strada Rovine,200058,44.3237075,23.8117902
34,Strada Rovine,200058,44.3227986,23.8109289
35,Strada Rovine,200058,44.3238447,23.8119905
36,Strada Rovine,200058,44.3228892,23.8110145
37,Strada Rovine,200058,44.3240817,23.8121991
38,Strada Rovine,200058,44.3229284,23.8110573
39,Strada Rovine,200058,44.3241638,23.8122710
4,Strada Rovine,200058,44.3214303,23.8096208
41,Strada Rovine,200058,44.3242030,23.8123755
42,Strada Rovine,200058,44.3230203,23.8116857
44,Strada Rovine,200058,44.3232114,23.8115693
46,Strada Rovine,200058,44.3232126,23.8119545
5,Strada Rovine,200058,44.3217537,23.8094136
50,Strada Rovine,200058,44.3234772,23.8120676
52,Strada Rovine,200058,44.3236401,23.8121600
54,Strada Rovine,200058,44.3236242,23.8124117
56,Strada Rovine,200058,44.3237503,23.8122251
58,Strada Rovine,200058,44.3237878,23.8124183
6,Strada Rovine,200058,44.3214156,23.8100505
60,Strada Rovine,200058,44.3238625,23.8125758
64,Strada Rovine,200058,44.3239421,23.8126083
66,Strada Rovine,200058,44.3240095,23.8126100
68,Strada Rovine,200058,44.3240830,23.8126289
8,Strada Rovine,200058,44.3215234,23.8097971
9,Strada Rovine,200058,44.3226185,23.8102012
53,Strada Vasile Alecsandri,200463,44.3213482,23.8083207
25,Strada Frații Golești,200467,44.3210150,23.8078738
1,Strada Frații Golești,200467,44.3194834,23.8076798
67,Strada Vasile Alecsandri,200463,44.3212220,23.8095535
34,Strada Frații Golești,200467,44.3211595,23.8083909
37,Strada Rovine,200058,44.3240609,23.8122762
40,Strada Rovine,200058,44.3230411,23.8112063
132,Strada Dezrobirii,200009,44.3200716,23.8219628
139,Calea București,200640,44.3137931,23.8369654
139,Calea București,200620,44.3138098,23.8367484
141,Calea București,200620,44.3137820,23.8371096
168A,Strada Caracal,200746,44.2980644,23.8275506
172,Strada Caracal,200746,44.2993372,23.8291466
105,Calea București,200477,44.3164485,23.8202055
109,Calea București,200516,44.3155858,23.8239672
103,Calea București,200477,44.3167434,23.8189043
103,Calea București,200477,44.3166839,23.8192540
101,Calea București,200477,44.3169382,23.8176493
101,Calea București,200477,44.3168568,23.8180645
101,Calea București,200477,44.3169509,23.8175850
101,Calea București,200477,44.3169949,23.8173604
101,Calea București,200477,44.3169051,23.8178182
105,Calea București,200477,44.3164920,23.8199789
105,Calea București,200477,44.3164347,23.8202771
101,Calea București,200477,44.3169714,23.8174802
101,Calea București,200477,44.3168829,23.8179312
101,Calea București,200477,44.3169217,23.8177335
85,Calea București,200473,44.3179938,23.8123466
91,Calea București,200473,44.3177912,23.8132954
85,Calea București,200473,44.3181003,23.8117726
91,Calea București,200473,44.3178259,23.8131043
69,Calea București,200523,44.3185979,23.8093392
65,Calea București,200523,44.3187615,23.8085627
85,Calea București,200465,44.3181920,23.8110222
3-5,Bulevardul Decebal,200935,44.3280221,23.8176190
215,Bulevardul Dacia,200646,44.3287215,23.8140694
41,Calea București,200675,44.3194844,23.8047998
43,Calea București,200675,44.3193920,23.8050859
39,Calea București,200678,44.3195933,23.8040726
39,Calea București,200678,44.3195979,23.8041185
35,Calea București,200677,44.3196166,23.8036510
25,Calea București,200678,44.3202117,23.8008593
27,Calea București,200678,44.3201397,23.8013217
23,Calea București,200678,44.3201363,23.8005229
21,Calea București,200678,44.3201659,23.8003592
95,Strada Caracal,200553,44.3024164,23.8201870
11,Calea București,200678,44.3206022,23.7985546
11,Calea București,200678,44.3205804,23.7986380
13,Calea București,200678,44.3204880,23.7989863
11,Calea București,200678,44.3206582,23.7983402
13,Calea București,200678,44.3205237,23.7988268
13,Calea București,200678,44.3204581,23.7991199
4,Strada Lalelelor,200640,44.3117475,23.7892400
35,Bulevardul Nicolae Titulescu,200219,44.3261746,23.7860521
5,Strada Mihai Viteazul,200418,44.3190754,23.7928604
14,Strada Mitropolit Firmilian,200381,44.3143806,23.7977264
2A,Strada Bibescu,200421,44.3208381,23.7906760
20,Strada Constantin Lecca,200217,44.3229300,23.7894567
22,Strada Constantin Lecca,200217,44.3229077,23.7893228
24,Strada Constantin Lecca,200217,44.3228819,23.7891675
18,Strada Constantin Lecca,200217,44.3229665,23.7896766
86,Calea București,200436,44.3128698,23.8353938
86,Calea București,200436,44.3130243,23.8357210
72,Calea București,200446,44.3126795,23.8274169
72,Calea București,200446,44.3125605,23.8274571
72,Calea București,200446,44.3125723,23.8273649
72,Calea București,200446,44.3125841,23.8272727
72,Calea București,200446,44.3125958,23.8271805
72,Calea București,200446,44.3126076,23.8270883
72,Calea București,200446,44.3124506,23.8273327
72,Calea București,200446,44.3124708,23.8276103
29 A,Strada Eroilor,200349,44.3075474,23.8005591
111/A,Bulevardul Decebal,200746,44.2996509,23.8336328
4,Strada Alexandru Ioan Cuza,200395,44.3183378,23.7981873
5A,Calea Severinului,200233,44.3281135,23.7750712
5A,Calea Severinului,200233,44.3279444,23.7749519
5A,Calea Severinului,200233,44.3278999,23.7749205
5A,Calea Severinului,200233,44.3278114,23.7746205
5A,Calea Severinului,200233,44.3276217,23.7747243
5A,Calea Severinului,200233,44.3276853,23.7747692
5A,Calea Severinului,200233,44.3280090,23.7751128
5A,Calea Severinului,200233,44.3280800,23.7752576
5A,Calea Severinului,200233,44.3280742,23.7752813
5A,Calea Severinului,200233,44.3280676,23.7753060
5A,Calea Severinului,200233,44.3280606,23.7753322
5A,Calea Severinului,200233,44.3281001,23.7753300
5A,Calea Severinului,200233,44.3281519,23.7752978
5A,Calea Severinului,200233,44.3282229,23.7751758
5A,Calea Severinului,200233,44.3283495,23.7749881
5A,Calea Severinului,200233,44.3281749,23.7748700
5A,Calea Severinului,200233,44.3280554,23.7750302
5A,Calea Severinului,200233,44.3279980,23.7749897
5A,Calea Severinului,200233,44.3280986,23.7748177
5A,Calea Severinului,200233,44.3280209,23.7747643
5A,Calea Severinului,200233,44.3278018,23.7748513
5A,Calea Severinului,200233,44.3278547,23.7748886
5A,Calea Severinului,200233,44.3279439,23.7747115
5A,Calea Severinului,200233,44.3278800,23.7746676
5A,Calea Severinului,200233,44.3277436,23.7748103
5A,Calea Severinului,200233,44.3277036,23.7745465
5A,Calea Severinului,200233,44.3274784,23.7746233
5A,Calea Severinului,200233,44.3275341,23.7744302
95,Strada Caracal,200553,44.3023817,23.8203241
95,Strada Caracal,200553,44.3024000,23.8202517
1,Strada Tabaci,200642,44.3062575,23.7925743
18,Strada Frații Buzești,200381,44.3143573,23.7988228
18,Strada Frații Buzești,200381,44.3143397,23.7989368
A4,Calea București,200515,44.3159159,23.8198131
51,Bulevardul Carol I,200062,44.3238566,23.8046491
35,Bulevardul Nicolae Titulescu,200219,44.3260264,23.7859994
1B,Strada Narciselor,200332,44.3047852,23.7972143
35,Bulevardul Nicolae Titulescu,200219,44.3259749,23.7863904
88,Strada George Enescu,200232,44.3344024,23.7798535
51,Strada Alexandru Macedonski,200383,44.3120108,23.7999099
26,Strada Fântâna Popova,200319,44.2967784,23.8028104
22,Strada Fântâna Popova,200319,44.2972370,23.8025379
20,Strada Fântâna Popova,200319,44.2972964,23.8025124
16,Strada Fântâna Popova,200319,44.2972126,23.8019695
18,Strada Fântâna Popova,200319,44.2971867,23.8017949
14,Strada Fântâna Popova,200319,44.2973940,23.8024762
12,Strada Fântâna Popova,200319,44.2974671,23.8024336
10,Strada Fântâna Popova,200319,44.2975448,23.8024017
6,Strada Fântâna Popova,200319,44.2976515,23.8023570
"nr. 11L, bl. 84",Strada Grigore Pleșoianu,200778,44.3186087,23.8316884
74,Strada Vasile Alecsandri,200463,44.3210016,23.8100349
101,Calea București,200477,44.3170146,23.8172423
103,Calea București,200477,44.3168400,23.8183922
33,Calea București,200677,44.3196663,23.8033249
57,Calea București,200675,44.3190824,23.8068889
61,Calea București,200675,44.3192637,23.8073771
95,Calea București,200473,44.3175745,23.8144178
18,Strada Păstorului,200463,44.3227040,23.8155824
66,Bulevardul 1 Mai,200638,44.3049118,23.7944514
4,Strada C.D. Fortunescu,200730,44.3151717,23.8005288
6B,Strada Alexandru Ioan Cuza,400529,44.3173589,23.8065620
19,Strada Madona Dudu,200410,44.3166941,23.7925297
A21-22,Calea București,200811,44.3185700,23.8092961
50,Calea Unirii,200409,44.3141549,23.7957348
80,Calea București,200440,44.3118480,23.8325777
45,Bulevardul Gheorghe Chițu,200347,44.3084458,23.8037270
12,Strada Nicolae Iorga,200008,44.3248126,23.8107461
97,Bulevardul Decebal,200588,44.3088308,23.8356428
1,Strada Madona Dudu,200410,44.3160940,23.7944699
1,Strada Alexandru Ioan Cuza,200585,44.3184821,23.7949419
2,Strada Ion Maiorescu,200418,44.3187611,23.7912975
19,Calea Unirii,200585,44.3179727,23.7956564
3,Strada Alexandru Ioan Cuza,200585,44.3185507,23.7952303
5,Strada Alexandru Ioan Cuza,200585,44.3187719,23.7957956
9,Strada Mihail Kogălniceanu,200390,44.3159119,23.7967551
5A,Calea Severinului,200233,44.3277761,23.7751046
1,Strada Cloșca,200500,44.3137543,23.8179553
93,Calea București,200753,44.3184531,23.8137676
7,Strada Alexandru Ioan Cuza,200585,44.3187650,23.7966219
146,Strada Caracal,200746,44.3039060,23.8130009
81,Strada Caracal,200542,44.3044912,23.8140787
72,Strada George Enescu,200668,44.3320279,23.7834201
72,Calea București,200446,44.3121297,23.8272469
25,Strada Frații Buzești,200381,44.3143061,23.7998422
1,Strada Theodor Aman,200734,44.3179967,23.7973479
2,Strada Ion Maiorescu,200418,44.3179928,23.7912083
5,Strada Theodor Aman,200734,44.3171961,23.7975126
11,Calea București,200678,44.3205945,23.7984859
6,Strada Olteț,200388,44.3173822,23.7966489
4,Strada Alexandru Ioan Cuza,200395,44.3181311,23.7981274
13,Calea București,200678,44.3204629,23.7989676
7,Strada Theodor Aman,200389,44.3162590,23.7978619
2,Strada Petru Rareș,200349,44.3088289,23.7977006
3,Strada Vântului,200577,44.3066466,23.8162741
21,Strada Electroputere,200568,44.3063963,23.8227525
160,Strada Caracal,200746,44.2992720,23.8257876
176,Strada Caracal,200746,44.2987921,23.8305115
150,Strada Caracal,200746,44.3015310,23.8180220
1,Strada Rovinari,200533,44.3097742,23.8121536
7,Strada Principatele Unite,200138,44.3228912,23.7947811
51C,Calea București,200678,44.3197984,23.8060816
48,Strada Henri Coandă,200556,44.3110195,23.8213271
211,Strada Împăratul Traian,200501,44.3103605,23.8195407
29,Calea București,200678,44.3200202,23.8015716
113,Strada Vasile Alecsandri,200463,44.3212970,23.8170380
17,Strada Alexandru Ioan Cuza,200585,44.3185128,23.8026408
50,Strada Putnei,200513,44.3145701,23.8210840
164,Strada Caracal,200746,44.2993211,23.8272767
10,Strada Sergent Constantin Popescu,200089,44.3292871,23.8087906
4,Strada Doctor Nicolae Ionescu-Sisești,200303,44.2973167,23.7977386
9,Strada Alexandru Ioan Cuza,200402,44.3189194,23.7974542
1,Strada Tabaci,200642,44.3052737,23.7916386
68,Bulevardul 1 Mai,200638,44.3048247,23.7946816
1,Strada Tabaci,200642,44.3051989,23.7929638
4,Strada Marin Sorescu,200642,44.3079526,23.7943620
2,Strada Petru Rareș,200349,44.3088188,23.7979724
21,Calea Unirii,200732,44.3169427,23.7954783
2,Strada Olteț,200395,44.3174167,23.7954756
3,Strada Madona Dudu,200410,44.3162336,23.7940116
2,Strada Felix Aderca,200413,44.3160027,23.7940046
72,Strada Amaradia,200170,44.3326443,23.7956779
59,Strada Amaradia,200170,44.3323920,23.7929447
99,Calea București,200473,44.3176558,23.8163887
107,Calea București,200478,44.3167737,23.8226461
1,Strada Filantropiei,200143,44.3220257,23.7918970
8,Strada Părului,200346,44.3108084,23.8012957
68,Bulevardul Oltenia,200253,44.3354423,23.7807582
108,Bulevardul Nicolae Titulescu,200154,44.3276137,23.7802268
bloc13 nr14,Strada Ion D. Sîrbu,200561,44.3051746,23.8187465
19,Calea București,200678,44.3203288,23.7997547
10,Strada Iancu Jianu,200142,44.3224846,23.7897840
20,Strada Alexandru Ioan Cuza,200396,44.3177195,23.8028180
39,Calea București,200678,44.3196418,23.8041308
97,Calea București,200473,44.3175595,23.8151126
59,Calea București,200675,44.3191823,23.8071446
105,Calea București,200477,44.3165173,23.8199641
7,Strada Nicolae Bălcescu,200676,44.3196236,23.8043764
103,Calea București,200477,44.3167440,23.8188064
101,Calea București,200477,44.3169651,23.8176554
43,Calea București,200675,44.3194344,23.8052122
35,Calea București,200677,44.3196943,23.8035507
95,Calea București,200473,44.3176206,23.8143428
91,Calea București,200473,44.3178441,23.8131233
85,Calea București,200473,44.3180725,23.8120437
115,Calea București,200620,44.3153481,23.8270604
5,Strada Bucovina,200026,44.3249658,23.8158755
136,Bulevardul Dacia,200044,44.3273842,23.8159519
92,Bulevardul 1 Mai,200737,44.3007857,23.7978523
2,Strada Ion Maiorescu,200418,44.3190099,23.7921256
2,Strada Ion Maiorescu,200418,44.3181446,23.7915941
4,Strada Ion Maiorescu,200760,44.3176783,23.7916091
19,Strada Libertății,200421,44.3191697,23.7856806
19,Strada Libertății,200421,44.3195987,23.7850775
19,Strada Libertății,200421,44.3192724,23.7847019
19,Strada Libertății,200421,44.3199541,23.7856436
19,Strada Libertății,200421,44.3185394,23.7857534
14,Strada Madona Dudu,200410,44.3173938,23.7898962
14,Strada Madona Dudu,200410,44.3177494,23.7897846
6,Strada Ion Maiorescu,200760,44.3173357,23.7913913
1,Strada Frații Buzești,200730,44.3174329,23.7993969
13,Strada Romain Rolland,200730,44.3172830,23.7987172
13,Strada Olteț,200395,44.3177121,23.7988512
40,Strada Lipscani,200731,44.3168318,23.7988402
2,Strada Frații Buzești,200730,44.3165544,23.7988284
1A,Strada Frații Buzești,200730,44.3169803,23.7992323
15,Strada Olteț,200395,44.3177264,23.7992930
99,Bulevardul Nicolae Romanescu,200738,44.2921726,23.7999769
15,Strada Constantin Brâncuși,200139,44.3254600,23.7945315
17,Strada Constantin Brâncuși,200139,44.3258502,23.7959765
4,Strada Brazda lui Novac,200690,44.3264776,23.7966848
12,Strada Doljului,200127,44.3287640,23.8000289
87,Strada Brazda lui Novac,200690,44.3302052,23.8037336
6,Strada General Ștefan Fălcoianu,200075,44.3305282,23.8018840
3,Strada Ion Țuculescu,200438,44.3125524,23.8390072
12,Strada Mihail Străjan,200010,44.3196536,23.8237329
41A,Bulevardul Carol I,200692,44.3233620,23.8034059
4,Strada Lămâiței,200116,44.3271735,23.8069826
7,Strada George Enescu,200144,44.3259836,23.7895949
40,Bulevardul Nicolae Titulescu,200142,44.3255062,23.7893991
9,Strada Pașcani,200151,44.3299571,23.7812738
9A,Strada Pașcani,200151,44.3291258,23.7798729
64,Bulevardul Nicolae Titulescu,200142,44.3272378,23.7854070
1,Strada Renașterii,200187,44.3255414,23.7819284
7,Strada Aristizza Romanescu,200222,44.3353247,23.7752417
148,Strada Caracal,200746,44.3011583,23.8153105
65,Bulevardul 1 Mai,200355,44.3036943,23.7967883
63,Bulevardul 1 Mai,200355,44.3040182,23.7965978
61,Bulevardul 1 Mai,200355,44.3043142,23.7963093
1,Strada Narciselor,200332,44.3046144,23.7970334
5,Strada Narciselor,200332,44.3045285,23.7965179
3,Strada Narciselor,200332,44.3045842,23.7967048
53,Bulevardul 1 Mai,200355,44.3053857,23.7954857
51,Bulevardul 1 Mai,200355,44.3057681,23.7951726
47,Bulevardul 1 Mai,200355,44.3062520,23.7947990
49,Bulevardul 1 Mai,200355,44.3060284,23.7950558
12,Strada Independenței,200338,44.3065143,23.7953324
68,Bulevardul 1 Mai,200638,44.3046862,23.7949810
68,Bulevardul 1 Mai,200638,44.3042628,23.7947386
66,Bulevardul 1 Mai,200638,44.3053225,23.7945307
144,Strada Brestei,200207,44.3254464,23.7741530
146,Strada Brestei,200207,44.3260480,23.7734103
35,Bulevardul Nicolae Titulescu,200219,44.3261069,23.7860215
2,Strada Theodor Aman,200389,44.3172040,23.7970876
1,Strada Romain Rolland,200389,44.3171688,23.7966338
3,Strada Romain Rolland,200389,44.3171788,23.7968204
3,Strada Lipscani,200731,44.3167747,23.7967310
2,Strada Lipscani,200731,44.3162107,23.7956992
2,Strada Lipscani,200731,44.3163475,23.7958084
1,Strada Mihail Kogălniceanu,200390,44.3157159,23.7955665
3,Strada Felix Aderca,200413,44.3158752,23.7933912
1,Strada Felix Aderca,200413,44.3163000,23.7933995
1,Strada Felix Aderca,200413,44.3161025,23.7934225
9,Strada Tudor Vladimirescu,200534,44.3127809,23.8045403
7-9,Strada Alexandru Macedonski,200383,44.3155844,23.8045281
26,Strada Doctor Victor Gomoiu,200681,44.2998240,23.7937294
22,Strada Doctor Victor Gomoiu,200681,44.2995250,23.7940965
24,Strada Doctor Victor Gomoiu,200681,44.2996784,23.7938925
20,Strada Doctor Victor Gomoiu,200681,44.2993179,23.7942900
10,Strada Doctor Ion Cantacuzino,200681,44.2992704,23.7946070
7,Strada Doctor Ion Cantacuzino,200682,44.2989322,23.7950832
9,Strada Doctor Ion Cantacuzino,200682,44.2988790,23.7947271
18,Strada Doctor Victor Gomoiu,200681,44.2987353,23.7945502
16,Strada Doctor Victor Gomoiu,200681,44.2985196,23.7945924
14,Strada Doctor Victor Gomoiu,200681,44.2981395,23.7946161
14A,Strada Doctor Victor Gomoiu,200681,44.2979618,23.7947874
15A,Strada Doctor Ștefan Berceanu,200683,44.2979673,23.7951400
9,Strada Doctor Ștefan Berceanu,200682,44.2982213,23.7951864
11,Strada Doctor Ștefan Berceanu,200682,44.2984407,23.7951086
13,Strada Doctor Ștefan Berceanu,200682,44.2986580,23.7951596
54,Bulevardul Nicolae Romanescu,200738,44.2969360,23.7984027
12,Strada Bibescu,200421,44.3203191,23.7896493
2,Strada Ludwig van Beethoven,200218,44.3221002,23.7869611
129,Strada Brestei,200177,44.3219751,23.7774088
27D,Strada Tismana,200641,44.3025959,23.7853804
129,Calea București,200617,44.3146009,23.8306386
131,Calea București,200617,44.3145563,23.8308539
133,Calea București,200617,44.3145329,23.8310871
139,Calea București,200620,44.3138603,23.8367824
141,Calea București,200620,44.3138156,23.8372522
143,Calea București,200620,44.3139553,23.8374962
127,Calea București,200617,44.3147071,23.8297665
127,Calea București,200617,44.3146479,23.8299683
127,Calea București,200617,44.3146425,23.8301694
135,Calea București,200617,44.3144698,23.8315322
135,Calea București,200617,44.3144214,23.8317391
135,Calea București,200617,44.3144192,23.8319508
135,Calea București,200617,44.3145715,23.8320073
2,Strada Eustațiu Stoenescu,200618,44.3142040,23.8381843
4,Strada Eustațiu Stoenescu,200618,44.3141858,23.8384445
6,Strada Eustațiu Stoenescu,200618,44.3141676,23.8387046
125,Calea București,200617,44.3147795,23.8292112
137,Calea București,200618,44.3144305,23.8324743
107,Calea București,200478,44.3160101,23.8235562
107,Calea București,200478,44.3161639,23.8224815
107,Calea București,200478,44.3162658,23.8220884
107,Calea București,200478,44.3163524,23.8223417
109,Calea București,200516,44.3156926,23.8240237
93A,Calea București,200473,44.3179760,23.8138492
83,Calea București,200523,44.3182208,23.8112371
81,Calea București,200523,44.3182790,23.8109491
79,Calea București,200523,44.3184065,23.8104558
77,Calea București,200523,44.3186040,23.8104204
71,Calea București,200523,44.3188691,23.8094881
73,Calea București,200523,44.3187893,23.8098209
75,Calea București,200523,44.3187171,23.8101507
69,Calea București,200523,44.3186944,23.8092164
67,Calea București,200523,44.3187422,23.8089143
65,Calea București,200523,44.3188301,23.8085932
63,Calea București,200523,44.3189842,23.8084449
26,Calea Severinului,200222,44.3353082,23.7694539
55,Calea București,200675,44.3192084,23.8066066
57,Calea București,200675,44.3191480,23.8068684
61,Calea București,200675,44.3193056,23.8074041
49,Calea București,200678,44.3195023,23.8061424
53,Calea București,200678,44.3194524,23.8064867
41,Calea București,200675,44.3194879,23.8049109
45,Calea București,200675,44.3193833,23.8055467
47,Calea București,200675,44.3193455,23.8058561
9,Strada Nicolae Bălcescu,200676,44.3198169,23.8044334
31,Calea București,200677,44.3197948,23.8029423
33,Calea București,200677,44.3197432,23.8032555
37,Calea București,200677,44.3196470,23.8038358
25,Calea București,200678,44.3202746,23.8008613
27,Calea București,200678,44.3202225,23.8012070
29,Calea București,200678,44.3201717,23.8015489
6,Bulevardul Carol I,200677,44.3201215,23.8027352
23,Calea București,200678,44.3202076,23.8005068
21,Calea București,200678,44.3202626,23.8003308
1,Strada Jean Negulescu,200678,44.3205303,23.7998548
17,Calea București,200678,44.3203859,23.7994166
15,Calea București,200678,44.3207376,23.7990728
1,Strada Bibescu,200582,44.3207932,23.7912574
86,Calea București,200436,44.3128271,23.8353575
95,Calea București,200436,44.3123681,23.8355943
93,Bulevardul Decebal,200436,44.3126538,23.8356285
88,Calea București,200436,44.3129475,23.8364586
91,Bulevardul Decebal,200436,44.3128107,23.8360400
86,Calea București,200436,44.3129885,23.8357730
88,Calea București,200436,44.3131719,23.8369598
8,Strada Tehnicii,200440,44.3130002,23.8369062
88A,Calea București,200436,44.3131400,23.8371726
6,Strada Tehnicii,200440,44.3126294,23.8368417
4,Strada Tehnicii,200440,44.3123462,23.8367412
4,Strada Tehnicii,200440,44.3126063,23.8371874
97,Calea București,200436,44.3123254,23.8359376
99,Calea București,200436,44.3123768,23.8362525
88,Calea București,200436,44.3131634,23.8362474
51,Strada Bariera Vâlcii,200100,44.3347605,23.8160339
107,Bulevardul Decebal,200440,44.3090902,23.8353910
8,Bulevardul Nicolae Titulescu,200136,44.3230248,23.7941339
35A,Strada Spania,200513,44.3138873,23.8198149
39,Strada Păltiniș,200128,44.3257951,23.8023313
7,Strada Dezrobirii,200519,44.3193147,23.8100225
5,Strada Dezrobirii,200519,44.3192805,23.8094446
34,Strada Doctor Dimitrie Gerota,200754,44.2993573,23.7890130
6A,Strada Războieni,200667,44.3289537,23.7842857
4,Strada Romul,200403,44.3199804,23.7968741
2,Strada Romul,200403,44.3197695,23.7968693
150A,Strada Caracal,200746,44.3012148,23.8196547
25,Bulevardul 1 Mai,200354,44.3089304,23.7928526
104,Bulevardul Nicolae Titulescu,200154,44.3272822,23.7814373
56,Bulevardul Nicolae Romanescu,200738,44.2967310,23.7983308
58,Bulevardul Nicolae Romanescu,200738,44.2965979,23.7982135
60,Bulevardul Nicolae Romanescu,200738,44.2961349,23.7985172
52,Bulevardul Nicolae Romanescu,200738,44.2971565,23.7985506
113,Bulevardul Carol I,200057,44.3271991,23.8119162
11,Strada Nicolae Bălcescu,200676,44.3201102,23.8044979
14,Strada General Doctor Ion Cernătescu,200089,44.3283016,23.8095467
42,Strada România Muncitoare,200396,44.3172620,23.8004261
88,Strada George Enescu,200232,44.3345790,23.7801466
90,Strada George Enescu,200232,44.3349036,23.7798849
12,Strada General Doctor Ion Cernătescu,200089,44.3281012,23.8096428
26,Strada Făgăraș,200158,44.3327994,23.7912572
21,Strada General Doctor Ion Cernătescu,200089,44.3299915,23.8091505
120,Bulevardul Dacia,200089,44.3301584,23.8092254
116,Bulevardul Dacia,200089,44.3303055,23.8087382
112,Bulevardul Dacia,200089,44.3304505,23.8083466
24,Strada Făgăraș,200158,44.3326111,23.7910411
22,Strada Făgăraș,200158,44.3323631,23.7908998
14,Strada Făgăraș,200158,44.3311765,23.7908324
8,Strada Făgăraș,200158,44.3304424,23.7908672
51,Strada Opanez,200158,44.3302498,23.7917306
53,Strada Amaradia,200158,44.3304674,23.7924733
47,Strada Opanez,200158,44.3301703,23.7902616
43,Strada Amaradia,200158,44.3298832,23.7896975
45,Strada Amaradia,200158,44.3300594,23.7899270
21,Strada Făgăraș,200158,44.3321501,23.7903147
19,Strada Făgăraș,200158,44.3318893,23.7903264
23,Strada Făgăraș,200158,44.3324112,23.7903116
27,Strada Făgăraș,200158,44.3326635,23.7901172
25,Strada Făgăraș,200158,44.3326635,23.7903800
88,Strada George Enescu,200232,44.3343650,23.7798520
92,Strada George Enescu,200232,44.3350582,23.7801544
1,Strada Alecu Russo,200321,44.2942635,23.8145325
3,Strada Alecu Russo,200321,44.2943862,23.8146297
5,Strada Alecu Russo,200321,44.2944999,23.8147293
7,Strada Alecu Russo,200321,44.2946184,23.8148273
9,Strada Alecu Russo,200321,44.2947357,23.8149372
11,Strada Alecu Russo,200321,44.2948518,23.8150267
13,Strada Alecu Russo,200321,44.2949727,23.8151264
118,Strada Potelu,200317,44.2947342,23.8145757
112,Strada Potelu,200317,44.2943806,23.8142840
114,Strada Potelu,200317,44.2944943,23.8143854
116,Strada Potelu,200317,44.2946138,23.8144847
120,Strada Potelu,200317,44.2948438,23.8146742
122,Strada Potelu,200317,44.2949623,23.8147875
124,Strada Potelu,200317,44.2950760,23.8148939
8,Strada Cristian Tell,200321,44.2942778,23.8155320
10,Strada Cristian Tell,200321,44.2942266,23.8156831
12,Strada Cristian Tell,200321,44.2941763,23.8158405
14,Strada Cristian Tell,200321,44.2941260,23.8160003
9,Strada Cristian Tell,200321,44.2944536,23.8159044
7,Strada Cristian Tell,200321,44.2945024,23.8157554
5,Strada Cristian Tell,200321,44.2945572,23.8155979
3,Strada Cristian Tell,200321,44.2946060,23.8154446
1,Strada Cristian Tell,200321,44.2946563,23.8152829
6,Strada Cristian Tell,200321,44.2943225,23.8153765
5,Strada Dimitrie Cantemir,200321,44.2940849,23.8151849
7,Strada Dimitrie Cantemir,200321,44.2940406,23.8153382
9,Strada Dimitrie Cantemir,200321,44.2939873,23.8154978
14,Strada Costache Negruzzi,200321,44.2946014,23.8164068
12,Strada Costache Negruzzi,200321,44.2946547,23.8162450
10,Strada Costache Negruzzi,200321,44.2947004,23.8160896
8,Strada Costache Negruzzi,200321,44.2947492,23.8159364
6,Strada Costache Negruzzi,200321,44.2947979,23.8157831
1,Strada Dimitrie Cantemir,200321,44.2941899,23.8148928
3,Strada Dimitrie Cantemir,200321,44.2941593,23.8149904
2,Strada Cristian Tell,200321,44.2944095,23.8150738
4,Strada Cristian Tell,200321,44.2943788,23.8151714
11,Strada Dimitrie Cantemir,200321,44.2939418,23.8157079
13,Strada Dimitrie Cantemir,200321,44.2939055,23.8158215
11,Strada Cristian Tell,200321,44.2944188,23.8161012
13,Strada Cristian Tell,200321,44.2943824,23.8162148
2,Strada Costache Negruzzi,200321,44.2948789,23.8154819
4,Strada Costache Negruzzi,200321,44.2948483,23.8155796
16,Strada Costache Negruzzi,200321,44.2944842,23.8165803
18,Strada Costache Negruzzi,200321,44.2943518,23.8164905
36,Strada Fântâna Popova,200319,44.2948974,23.8028488
30,Strada Fântâna Popova,200319,44.2947492,23.8018801
2,Calea Severinului,200222,44.3283238,23.7779126
68,Bulevardul Oltenia,200253,44.3356266,23.7816164
68,Bulevardul Oltenia,200253,44.3358816,23.7815604
88,Strada George Enescu,200232,44.3346247,23.7795688
41,Strada Doctor Victor Papilian,200754,44.3017722,23.7886567
13,Strada Madona Dudu,200410,44.3167237,23.7900906
1,Strada Alexandru Odobescu,200377,44.3161291,23.7872973
12,Strada Brândușa,200421,44.3179738,23.7887529
11,Calea Severinului,200768,44.3366508,23.7651930
11,Strada Nanterre,200485,44.3163681,23.8118922
3,Strada Jean Negulescu,200678,44.3210847,23.8000599
12,Strada Mihail Străjan,200010,44.3196186,23.8237721
115,Calea Severinului,200769,44.3433558,23.7563024
20,Strada Vasile Alecsandri,200463,44.3213146,23.8053393
109,Strada Caracal,200746,44.3004388,23.8289909
19,Strada Libertății,200421,44.3193889,23.7865397
