House number,Street name,Postal code,Latitude,Longitude
12,улица Машкарина,302042,52.9259278,36.0151016
37,улица Ленина,302028,52.9697087,36.0635917
4,2-я Посадская улица,302026,52.9580649,36.0619849
4,улица Панчука,302001,52.9555860,36.0624539
6,Красноармейская улица,302040,52.9772887,36.0693596
38,Октябрьская улица,302028,52.9744900,36.0624387
5,Пионерская улица,302028,52.9742984,36.0634624
2Б/1,улица Цветаева,302028,52.9807615,36.0418451
4,улица 5-й Орловской Стрелковой Дивизии,302010,52.9325003,36.0513423
16,улица Тургенева,302028,52.9673895,36.0622429
72,Пожарная улица,302040,52.9837961,36.0839505
62,Приборостроительная улица,302020,52.9854030,36.0639958
4,Октябрьская улица,302028,52.9678658,36.0536675
28К,Полесская улица,302020,52.9788810,36.0429711
6,Машиностроительная улица,302008,52.9189386,35.9900656
1Б,улица Цветаева,302020,52.9818573,36.0417366
46,улица Тургенева,302028,52.9723091,36.0503845
45А,улица Максима Горького,302040,52.9746246,36.0690384
45А,улица Максима Горького,302040,52.9745560,36.0689316
3А,улица Машкарина,302042,52.9248107,36.0183664
358,Комсомольская улица,302010,52.9300016,36.0269598
1,улица Гагарина,302001,52.9636994,36.0693516
88,Комсомольская улица,302026,52.9531249,36.0609294
86,Карачевское шоссе,302014,52.9477169,36.0259840
79Б,Карачевское шоссе,302030,52.9453158,36.0269355
1,Красноармейская улица,302040,52.9770059,36.0680495
19 с1,Наугорское шоссе,302020,52.9867202,36.0418248
26,улица Розы Люксембург,302001,52.9572994,36.0695395
56,Московское шоссе,302029,52.9900170,36.1243393
3,Раздольный переулок,302023,53.0002484,36.1061751
57,Приборостроительная улица,302020,52.9949278,36.0401412
5,улица Михалицына,302023,52.9891150,36.1177008
1,площадь Мира,302030,52.9677553,36.0745637
175,Московское шоссе,302025,53.0168509,36.1593725
1,улица Лескова,302028,52.9727403,36.0477673
47,Часовая улица,302019,52.9675739,36.0274675
41,Часовая улица,302019,52.9674640,36.0281408
41,Часовая улица,302019,52.9675288,36.0280417
47,Часовая улица,302019,52.9676007,36.0273486
1А,улица Пархоменко,302019,52.9684610,36.0296224
32,улица Трудовых Резервов,302019,52.9661092,36.0328755
37,Часовая улица,302019,52.9674409,36.0309316
34,улица Трудовых Резервов,302019,52.9662962,36.0303718
25,улица Генерала Родина,302019,52.9677274,36.0341529
33,Часовая улица,302019,52.9678213,36.0328799
30,Инженерная улица,302019,52.9662481,36.0361487
7,Инженерная улица,302019,52.9657576,36.0390152
5,Инженерная улица,302019,52.9657486,36.0394093
14Б,переулок Восход,302019,52.9695844,36.0387016
14,переулок Восход,302019,52.9701793,36.0391087
4,Весёлая улица,302019,52.9714105,36.0391170
2А,Весёлая улица,302019,52.9718574,36.0400946
24,Весёлая улица,302019,52.9716092,36.0332681
28,Весёлая улица,302019,52.9719068,36.0309929
2Г,Весёлая улица,302019,52.9721477,36.0339862
61,Комсомольская улица,302010,52.9547854,36.0636408
28,улица 60-летия Октября,302040,52.9813254,36.0703477
20,улица Машкарина,302042,52.9245404,36.0091142
8,улица Машкарина,302042,52.9253249,36.0150932
16,улица Машкарина,302042,52.9245013,36.0108132
3,Саханская улица,302042,52.9257874,36.0167886
14,улица Машкарина,302042,52.9242435,36.0127267
4,улица Машкарина,302042,52.9247878,36.0157404
6,улица Машкарина,302042,52.9255345,36.0161697
3,Кромская улица,302042,52.9261335,36.0197148
5,Кромская улица,302042,52.9265024,36.0192545
7,Кромская улица,302042,52.9268858,36.0186281
57,Планерная улица,302042,52.9267680,36.0132936
53,Планерная улица,302042,52.9281977,36.0163524
11,Кромская улица,302042,52.9272227,36.0172179
9,Кромская улица,302042,52.9275141,36.0180289
59,Планерная улица,302042,52.9272370,36.0125755
67,Планерная улица,302042,52.9268132,36.0102854
69,Планерная улица,302042,52.9261812,36.0101442
65,Планерная улица,302042,52.9258979,36.0119910
50,Планерная улица,302042,52.9287807,36.0134946
54,Планерная улица,302042,52.9282886,36.0109277
62,Планерная улица,302042,52.9279469,36.0084475
56,Планерная улица,302042,52.9284635,36.0096299
4,2-я Посадская улица,302026,52.9579254,36.0623952
12,Соляной переулок,302026,52.9543142,36.0592379
44,Комсомольская улица,302001,52.9583058,36.0643062
1,Щепная площадь,302026,52.9519739,36.0564516
12,Щепная площадь,302026,52.9516184,36.0553290
10,Щепная площадь,302026,52.9521904,36.0560454
48,Ливенская улица,302004,52.9537320,36.1067570
48Б,Ливенская улица,302004,52.9528268,36.1072939
30А,Ливенская улица,302004,52.9541787,36.1050525
30,Ливенская улица,302004,52.9547162,36.1041743
1,Высокая улица,302031,52.9712332,36.1254793
267,Комсомольская улица,302010,52.9301353,36.0308749
263,Комсомольская улица,302010,52.9306659,36.0319999
269,Комсомольская улица,302010,52.9295566,36.0298314
1,улица Чечневой,302042,52.9240365,36.0078471
75,Планерная улица,302042,52.9251908,36.0082944
48А,Ливенская улица,302004,52.9529386,36.1061722
30Б,Ливенская улица,302004,52.9536303,36.1053783
2А,Трамвайный переулок,302030,52.9692815,36.0845485
29,улица Пушкина,302030,52.9683040,36.0833755
13,Речной переулок,302004,52.9635422,36.0783299
92,набережная Дубровинского,302002,52.9728351,36.0757018
2В,Трамвайный переулок,302030,52.9695506,36.0842196
11,улица Герцена,302030,52.9728616,36.0834992
4,Трамвайный переулок,302030,52.9699904,36.0851428
13,улица Герцена,302030,52.9734027,36.0828919
23,улица Фомина,302030,52.9650103,36.0787169
12,улица Фомина,302004,52.9641189,36.0785011
17,улица Герцена,302030,52.9738839,36.0823649
9,улица Герцена,302030,52.9725013,36.0838847
94,набережная Дубровинского,302002,52.9734714,36.0771444
2,Товарный переулок,302006,52.9757964,36.1106301
45,улица Пушкина,302030,52.9690379,36.0870156
51А,Советская улица,302002,52.9722947,36.0774725
60Б,набережная Дубровинского,302030,52.9658296,36.0754804
2Б,Трамвайный переулок,302030,52.9698065,36.0845012
62,набережная Дубровинского,302030,52.9661239,36.0747016
23,Советская улица,302002,52.9710464,36.0742750
10,Новосильская улица,302030,52.9653614,36.0795637
11,Речной переулок,302004,52.9638116,36.0773466
2,площадь Поликарпова,302030,52.9701217,36.0835460
24,улица Пушкина,302030,52.9676685,36.0821219
12,Новосильская улица,302030,52.9656595,36.0802613
3,Новосильская улица,302030,52.9656863,36.0781188
7,Новосильская улица,302030,52.9659406,36.0794518
19,Советская улица,302002,52.9706733,36.0745709
5,улица Революции,302002,52.9716073,36.0810552
45,Планерная улица,302010,52.9289093,36.0205957
402,Комсомольская улица,302010,52.9279786,36.0198833
392,Комсомольская улица,302010,52.9287233,36.0212399
47,Планерная улица,302010,52.9287205,36.0193816
255,Комсомольская улица,302043,52.9335959,36.0368058
382,Комсомольская улица,302010,52.9276670,36.0234487
51,Планерная улица,302010,52.9281074,36.0183014
49,Планерная улица,302010,52.9284167,36.0188531
253А,Комсомольская улица,302043,52.9338071,36.0375608
378,Комсомольская улица,302010,52.9279317,36.0239088
300,Комсомольская улица,302010,52.9344928,36.0363617
376,Комсомольская улица,302010,52.9281851,36.0243865
310,Комсомольская улица,302010,52.9348627,36.0343552
372,Комсомольская улица,302010,52.9287700,36.0254474
406,Комсомольская улица,302010,52.9272703,36.0194472
2,переулок Дарвина,302010,52.9331351,36.0361734
388,Комсомольская улица,302010,52.9281691,36.0220901
338,Комсомольская улица,302010,52.9320510,36.0306286
4,переулок Дарвина,302010,52.9327538,36.0368125
346,Комсомольская улица,302010,52.9303994,36.0283537
1,переулок Дарвина,302010,52.9330379,36.0370744
354,Комсомольская улица,302010,52.9301434,36.0278840
340,Комсомольская улица,302010,52.9308464,36.0297963
362,Комсомольская улица,302010,52.9301383,36.0256426
364,Комсомольская улица,302010,52.9304099,36.0252313
350,Комсомольская улица,302010,52.9311478,36.0265650
366,Комсомольская улица,302010,52.9306909,36.0247873
352,Комсомольская улица,302010,52.9314542,36.0261210
306,Комсомольская улица,302010,52.9347083,36.0354094
368,Комсомольская улица,302010,52.9290205,36.0259272
370,Комсомольская улица,302010,52.9299921,36.0243909
360,Комсомольская улица,302010,52.9292783,36.0263568
37,Планерная улица,302010,52.9311406,36.0243531
384,Комсомольская улица,302010,52.9270472,36.0229931
356,Комсомольская улица,302010,52.9295068,36.0274282
386,Комсомольская улица,302010,52.9274204,36.0223655
358,Комсомольская улица,302010,52.9299094,36.0268207
380,Комсомольская улица,302010,52.9288933,36.0224409
404,Комсомольская улица,302010,52.9262903,36.0209698
396,Комсомольская улица,302010,52.9265514,36.0214187
312,Комсомольская улица,302010,52.9341877,36.0345393
394,Комсомольская улица,302010,52.9268104,36.0218847
31,Планерная улица,302010,52.9321298,36.0258208
61,Планерная улица,302042,52.9266478,36.0124018
39,Планерная улица,302010,52.9300075,36.0195747
29,Планерная улица,302010,52.9323716,36.0264855
314,Комсомольская улица,302010,52.9335942,36.0347773
261,Комсомольская улица,302010,52.9320048,36.0339539
328,Комсомольская улица,302010,52.9330760,36.0311545
324,Комсомольская улица,302010,52.9336541,36.0321833
316,Комсомольская улица,302010,52.9342895,36.0333496
36,Автовокзальная улица,302010,52.9325997,36.0386888
334,Комсомольская улица,302010,52.9318230,36.0315845
8,Кромская улица,302042,52.9291055,36.0174003
3,переулок Дарвина,302010,52.9325029,36.0379997
344,Комсомольская улица,302010,52.9316360,36.0273376
390,Комсомольская улица,302010,52.9284367,36.0216582
332,Комсомольская улица,302010,52.9324236,36.0313007
342,Комсомольская улица,302010,52.9306569,36.0288094
259,Комсомольская улица,302010,52.9325083,36.0348403
257,Комсомольская улица,302010,52.9329212,36.0356072
322,Комсомольская улица,302010,52.9327062,36.0331613
33,Планерная улица,302010,52.9316039,36.0250891
17,улица 6-й Орловской Дивизии,302024,52.9331430,36.0945399
19,улица 6-й Орловской Дивизии,302024,52.9335885,36.0962743
13,улица 6-й Орловской Дивизии,302024,52.9328780,36.0928076
4,Полярный переулок,302040,52.9852142,36.0785913
54,улица Металлургов,302038,53.0169714,36.1390138
86,Раздольная улица,302038,53.0194502,36.1410297
82Б,Раздольная улица,302038,53.0181134,36.1387436
88,Раздольная улица,302038,53.0196734,36.1431794
84,Раздольная улица,302038,53.0182851,36.1406631
50,улица Металлургов,302038,53.0171742,36.1412635
251,Комсомольская улица,302043,52.9348718,36.0389926
253,Комсомольская улица,302043,52.9342875,36.0379770
245,Комсомольская улица,302043,52.9351603,36.0410425
6,Авиационная улица,302043,52.9373427,36.0356231
2,Авиационная улица,302043,52.9361773,36.0371079
24,Автовокзальная улица,302043,52.9353815,36.0423801
249,Комсомольская улица,302043,52.9354371,36.0400154
243,Комсомольская улица,302043,52.9359341,36.0420643
304,Комсомольская улица,302010,52.9354460,36.0354015
26,Автовокзальная улица,302043,52.9347915,36.0415995
247А,Комсомольская улица,302043,52.9356507,36.0408106
30,Автовокзальная улица,302043,52.9337336,36.0401680
249А,Комсомольская улица,302043,52.9348638,36.0403108
77А,Автовокзальная улица,302010,52.9322736,36.0392679
5,переулок Дарвина,302010,52.9317029,36.0398989
28,Автовокзальная улица,302043,52.9342015,36.0408050
247,Комсомольская улица,302043,52.9361114,36.0412446
302,Комсомольская улица,302010,52.9352250,36.0363272
107,улица Латышских Стрелков,302043,52.9381576,36.0360620
282,Комсомольская улица,302043,52.9360034,36.0387689
288,Комсомольская улица,302043,52.9373523,36.0370784
274,Комсомольская улица,302043,52.9371472,36.0395369
286,Комсомольская улица,302043,52.9370819,36.0379633
284,Комсомольская улица,302043,52.9365437,36.0383729
50,Речной переулок,302004,52.9648708,36.0868521
32,2-я Курская улица,302004,52.9647166,36.0878333
42,улица Русанова,302004,52.9628514,36.0881165
35,3-я Курская улица,302004,52.9640678,36.0861070
58,набережная Дубровинского,302030,52.9636731,36.0767155
2,Новосильская улица,302030,52.9642796,36.0759225
50,набережная Дубровинского,302004,52.9636455,36.0769553
52,2-я Курская улица,302004,52.9625913,36.0892501
31,Рощинская улица,302038,53.0186043,36.1446573
37,Рощинская улица,302038,53.0189349,36.1430285
48,улица Металлургов,302038,53.0150662,36.1422518
46,улица Металлургов,302038,53.0153036,36.1406345
17,Рощинская улица,302025,53.0160049,36.1484042
19,Рощинская улица,302025,53.0167965,36.1474911
15,Рощинская улица,302025,53.0151614,36.1467564
23,Рощинская улица,302038,53.0160456,36.1462675
18,улица Металлургов,302025,53.0127632,36.1464227
2,улица Металлургов,302025,53.0116976,36.1490855
11,Рощинская улица,302025,53.0151633,36.1484072
13,Рощинская улица,302025,53.0151614,36.1475864
24,улица Металлургов,302025,53.0133009,36.1434135
165,Московское шоссе,302025,53.0122153,36.1493177
167,Московское шоссе,302025,53.0127361,36.1495661
8,улица Металлургов,302025,53.0116096,36.1476961
6,улица Металлургов,302025,53.0112214,36.1483647
12,улица Металлургов,302025,53.0120968,36.1470487
157,Московское шоссе,302025,53.0107505,36.1493184
178,Московское шоссе,302025,53.0096958,36.1576401
180,Московское шоссе,302025,53.0093583,36.1584139
174,Московское шоссе,302025,53.0104259,36.1562631
170,Московское шоссе,302025,53.0092670,36.1563095
166,Московское шоссе,302025,53.0094120,36.1538528
11А,Рощинская улица,302025,53.0144047,36.1490307
32,улица Металлургов,302025,53.0139533,36.1425007
21,Рощинская улица,302038,53.0167080,36.1464793
171,Московское шоссе,302025,53.0127081,36.1517729
9А,Рощинская улица,302025,53.0150259,36.1490564
163,Московское шоссе,302025,53.0118243,36.1520151
16,улица Металлургов,302025,53.0121816,36.1454894
3,Рощинская улица,302025,53.0139488,36.1514659
163А,Московское шоссе,302025,53.0124359,36.1533157
161,Московское шоссе,302025,53.0110368,36.1514347
17А,Рощинская улица,302025,53.0158576,36.1476096
169,Московское шоссе,302025,53.0118770,36.1504204
44,улица Металлургов,302038,53.0150318,36.1451467
38,улица Металлургов,302038,53.0149100,36.1441943
10,улица Металлургов,302025,53.0116360,36.1463804
14А,улица Металлургов,302025,53.0133987,36.1466519
25,Рощинская улица,302038,53.0156572,36.1456013
34,улица Металлургов,302025,53.0144808,36.1425988
22,улица Металлургов,302025,53.0131212,36.1453288
4,улица Металлургов,302025,53.0109265,36.1474294
40,улица Металлургов,302038,53.0155055,36.1445363
36,улица Металлургов,302025,53.0145622,36.1436172
28,улица Металлургов,302025,53.0138814,36.1438945
7,Рощинская улица,302025,53.0135033,36.1496362
13А,Рощинская улица,302025,53.0142409,36.1480474
26,улица Металлургов,302025,53.0134875,36.1445429
15А,Рощинская улица,302025,53.0141628,36.1471844
1,Рощинская улица,302025,53.0132341,36.1527333
153,Московское шоссе,302025,53.0086278,36.1481562
5,Рощинская улица,302025,53.0145292,36.1499865
9,Рощинская улица,302025,53.0140558,36.1496776
49,Раздольная улица,302038,53.0168649,36.1329443
55,Раздольная улица,302038,53.0172625,36.1344148
19,улица Металлургов,302038,53.0177849,36.1319821
45,Раздольная улица,302038,53.0156198,36.1327053
43,Раздольная улица,302038,53.0149479,36.1317252
23,улица Металлургов,302038,53.0175617,36.1301003
21,улица Металлургов,302038,53.0170564,36.1309636
1,Привокзальный переулок,302006,52.9769817,36.1092007
3,Багажный переулок,302006,52.9766138,36.1097151
3,Привокзальный переулок,302006,52.9765801,36.1089166
1,Багажный переулок,302006,52.9764907,36.1106970
5,Привокзальный переулок,302006,52.9763289,36.1085708
30,Привокзальная улица,302006,52.9722696,36.1120854
78,Ливенская улица,302004,52.9458652,36.1173267
78Б,Ливенская улица,302004,52.9465781,36.1165338
139,Московское шоссе,302025,53.0044187,36.1415906
151,Московское шоссе,302025,53.0066531,36.1447929
1,улица Металлургов,302025,53.0099383,36.1473489
4,переулок Матроса Силякова,302025,53.0081512,36.1457200
5,переулок Матроса Силякова,302025,53.0091495,36.1455025
6,переулок Матроса Силякова,302025,53.0087508,36.1466060
1,переулок Матроса Силякова,302025,53.0083724,36.1443225
3,улица Металлургов,302025,53.0103754,36.1466238
7,переулок Матроса Силякова,302025,53.0095990,36.1460667
8,переулок Матроса Силякова,302025,53.0093658,36.1474791
2,переулок Матроса Силякова,302025,53.0075510,36.1448285
3,переулок Матроса Силякова,302025,53.0087518,36.1449347
9Б,улица Маринченко,302025,53.0075679,36.1400674
147,Московское шоссе,302025,53.0060400,36.1409320
2,улица Бурова,302025,53.0049097,36.1402717
1,улица Маринченко,302025,53.0070405,36.1430678
6,улица Бурова,302025,53.0058356,36.1391329
15,улица Маринченко,302025,53.0088622,36.1376521
14,улица Бурова,302025,53.0065417,36.1368058
26,улица Бурова,302025,53.0082429,36.1354800
3,улица Маринченко,302025,53.0068120,36.1418491
5,улица Маринченко,302025,53.0073912,36.1425900
7,улица Маринченко,302025,53.0077055,36.1420974
9,улица Маринченко,302025,53.0079805,36.1408221
18,улица Бурова,302025,53.0072628,36.1356913
10,улица Бурова,302025,53.0057682,36.1378188
20,улица Бурова,302025,53.0085786,36.1366976
8,улица Бурова,302025,53.0064306,36.1402083
4,улица Бурова,302025,53.0051424,36.1389915
143,Московское шоссе,302025,53.0055124,36.1402715
11,улица Маринченко,302025,53.0086064,36.1396800
22,улица Бурова,302025,53.0081482,36.1378388
13,улица Маринченко,302025,53.0088155,36.1387721
19,улица Маринченко,302038,53.0097688,36.1380408
19А,улица Маринченко,302038,53.0092785,36.1366810
16,улица Маринченко,302025,53.0106746,36.1397784
2,улица Маринченко,302025,53.0076356,36.1438245
14,улица Маринченко,302025,53.0101952,36.1405296
15,улица Металлургов,302025,53.0128647,36.1424188
8,улица Маринченко,302025,53.0092625,36.1419286
13,улица Металлургов,302025,53.0123191,36.1433415
12,улица Маринченко,302025,53.0097062,36.1412567
4,улица Маринченко,302025,53.0081165,36.1431073
7,улица Металлургов,302025,53.0109030,36.1448071
4А,улица Маринченко,302025,53.0087590,36.1435415
9,улица Металлургов,302025,53.0117166,36.1443539
11,улица Металлургов,302025,53.0114483,36.1438971
5,улица Металлургов,302025,53.0111756,36.1452712
18,улица Маринченко,302025,53.0115422,36.1397927
64,Раздольная улица,302038,53.0110868,36.1279827
62,Раздольная улица,302038,53.0105692,36.1271340
68,Раздольная улица,302038,53.0114190,36.1294564
74,Раздольная улица,302038,53.0128393,36.1304461
38,улица Бурова,302038,53.0103050,36.1286443
66,Раздольная улица,302038,53.0109779,36.1289070
5,улица Космонавтов,302038,53.0093528,36.1340059
70,Раздольная улица,302038,53.0120178,36.1292622
23,улица Маринченко,302038,53.0101647,36.1344531
21,улица Маринченко,302038,53.0102929,36.1355897
68Б,Раздольная улица,302038,53.0106706,36.1312595
31,улица Маринченко,302038,53.0127799,36.1318076
36,улица Бурова,302038,53.0093756,36.1287194
72,Раздольная улица,302038,53.0120024,36.1308068
32,улица Бурова,302038,53.0089036,36.1299621
40,улица Бурова,302038,53.0099447,36.1273300
5,Рижский переулок,302010,52.9301763,36.0328866
1,Рижский переулок,302010,52.9297585,36.0338540
7,Рижский переулок,302010,52.9303719,36.0328842
1А,Рижский переулок,302010,52.9295594,36.0341596
3,Рижский переулок,302010,52.9299422,36.0335363
72,Черкасская улица,302026,52.9561065,36.0755506
47Б,Октябрьская улица,302040,52.9772890,36.0650952
3,улица Пролетарская Гора,302028,52.9706890,36.0677596
36,Черкасская улица,302001,52.9598421,36.0738181
28,улица Максима Горького,302028,52.9711611,36.0658159
26,улица Сурена Шаумяна,302028,52.9756722,36.0591559
47А,Октябрьская улица,302028,52.9769172,36.0644856
49,Октябрьская улица,302040,52.9776415,36.0655575
37А,улица Салтыкова-Щедрина,302028,52.9736928,36.0647487
18,улица Сурена Шаумяна,302028,52.9753971,36.0602004
30,Октябрьская улица,302028,52.9738944,36.0615423
35,улица Салтыкова-Щедрина,302028,52.9727825,36.0635717
52,Октябрьская улица,302040,52.9784095,36.0682383
16,улица Сурена Шаумяна,302028,52.9750662,36.0597366
52,улица Розы Люксембург,302001,52.9576734,36.0741276
41,Октябрьская улица,302028,52.9748095,36.0606787
11,Красноармейская улица,302040,52.9786839,36.0649455
32,улица Сурена Шаумяна,302028,52.9779523,36.0621362
16,Почтовый переулок,302028,52.9684912,36.0657569
5,Пионерская улица,302028,52.9741829,36.0635846
5,бульвар Победы,302028,52.9737868,36.0573877
2,улица Сурена Шаумяна,302028,52.9730232,36.0555090
4,Пионерская улица,302028,52.9762350,36.0613096
35А,улица Гагарина,302001,52.9591734,36.0731713
4,улица Сурена Шаумяна,302028,52.9736487,36.0563482
21,Пионерская улица,302028,52.9760040,36.0601734
28,улица Сурена Шаумяна,302028,52.9769218,36.0607383
8,Полесская улица,302028,52.9728892,36.0566212
6,Пионерская улица,302028,52.9763509,36.0605958
36,улица Сурена Шаумяна,302028,52.9783997,36.0627375
76,Черкасская улица,302026,52.9554516,36.0756596
6,бульвар Победы,302028,52.9742193,36.0589613
34,улица Сурена Шаумяна,302028,52.9777435,36.0625562
7,бульвар Победы,302028,52.9731500,36.0574492
2А,улица Дмитрия Блынского,302025,52.9987721,36.1306588
7,улица Орловских Партизан,302025,53.0007614,36.1327177
113Б,Московское шоссе,302025,52.9995153,36.1326104
113А,Московское шоссе,302025,53.0003071,36.1352178
9,улица Орловских Партизан,302025,53.0004644,36.1315251
3,улица Орловских Партизан,302025,53.0010125,36.1339209
10,улица Дмитрия Блынского,302025,53.0011277,36.1271026
5,улица Орловских Партизан,302025,53.0017295,36.1326308
2,улица Дмитрия Блынского,302025,52.9994003,36.1312550
113,Московское шоссе,302025,52.9993595,36.1347808
8,улица Дмитрия Блынского,302025,53.0005659,36.1276706
111,Московское шоссе,302025,52.9980512,36.1317185
12,улица Дмитрия Блынского,302025,53.0007923,36.1260110
4,улица Дмитрия Блынского,302025,52.9991418,36.1295409
8,Паровозная улица,302029,52.9823643,36.1145517
6,Паровозная улица,302029,52.9826729,36.1139318
13,Московское шоссе,302029,52.9864978,36.1155933
9,Московское шоссе,302029,52.9859417,36.1130923
5,Паровозная улица,302029,52.9834625,36.1143718
13,Паровозная улица,302029,52.9824737,36.1158032
2,Тульская улица,302029,52.9855340,36.1177061
11,Московское шоссе,302029,52.9861272,36.1140056
5,Московское шоссе,302029,52.9858744,36.1105039
11,Паровозная улица,302029,52.9826936,36.1155762
17,Московское шоссе,302029,52.9868687,36.1170133
20,улица Лазо,302029,52.9832655,36.1162398
3,Московское шоссе,302029,52.9855908,36.1097427
12,Паровозная улица,302029,52.9809839,36.1161288
9,Паровозная улица,302029,52.9829551,36.1152907
7,Паровозная улица,302029,52.9832252,36.1151579
15,Московское шоссе,302029,52.9866856,36.1163547
10,Паровозная улица,302029,52.9817354,36.1152721
1,Московское шоссе,302029,52.9853460,36.1105002
41,улица Максима Горького,302028,52.9728452,36.0662145
2,Жилинская улица,302040,52.9849279,36.0768131
238,Комсомольская улица,302043,52.9403338,36.0468326
235А,Комсомольская улица,302043,52.9394686,36.0474125
235,Комсомольская улица,302043,52.9391438,36.0465673
193,Комсомольская улица,302016,52.9423670,36.0524522
3,Карачевское шоссе,302005,52.9415856,36.0472526
204,Комсомольская улица,302016,52.9429338,36.0501012
192,Комсомольская улица,302016,52.9438823,36.0526041
200,Комсомольская улица,302016,52.9426371,36.0509248
206,Комсомольская улица,302016,52.9420400,36.0499246
198,Комсомольская улица,302016,52.9438689,36.0514328
77,Комсомольская улица,302026,52.9532258,36.0628988
60,улица Маяковского,302026,52.9521965,36.0689148
17,Песковская улица,302026,52.9521349,36.0657828
65,Комсомольская улица,302026,52.9536608,36.0633340
62,улица Маяковского,302026,52.9518056,36.0689651
6,улица Нормандия-Неман,302026,52.9524591,36.0664783
8,улица Нормандия-Неман,302026,52.9525819,36.0671054
93,улица Нормандия-Неман,302026,52.9548547,36.0759199
101,улица Нормандия-Неман,302026,52.9560920,36.0790763
99,улица Нормандия-Неман,302026,52.9550359,36.0790178
51,улица Гагарина,302001,52.9554522,36.0743580
20,улица Красина,302001,52.9545710,36.0674266
27,улица Нормандия-Неман,302026,52.9536138,36.0683117
64,улица Маяковского,302026,52.9514235,36.0691554
57,2-я Курская улица,302004,52.9623407,36.0903439
47А,улица Русанова,302004,52.9639302,36.0898101
72,1-я Курская улица,302004,52.9610778,36.0931856
63,2-я Курская улица,302004,52.9607053,36.0923961
63А,2-я Курская улица,302004,52.9611183,36.0919958
21,улица 5 Августа,302004,52.9621771,36.0912848
54,улица 5-го Августа,302004,52.9617415,36.0924847
29,Магазинная улица,302004,52.9602759,36.0926709
31,4-я Курская улица,302004,52.9631247,36.0837457
48,Речной переулок,302004,52.9640531,36.0850698
2,2-я Курская улица,302030,52.9677547,36.0851958
44,улица Пушкина,302030,52.9677340,36.0839814
46,улица Пушкина,302030,52.9679938,36.0847945
27,улица 6-й Орловской Дивизии,302024,52.9345065,36.0966402
23,улица 6-й Орловской Дивизии,302024,52.9340814,36.0950294
3,Узловая улица,302024,52.9338811,36.0891015
21,улица 6-й Орловской Дивизии,302024,52.9339383,36.0943154
11,улица 6-й Орловской Дивизии,302024,52.9325145,36.0910789
1,Узловая улица,302024,52.9327513,36.0893426
25,улица 6-й Орловской Дивизии,302024,52.9342771,36.0957773
13,Бетонный переулок,302010,52.9261026,36.0359186
3,Бетонный переулок,302010,52.9267957,36.0342504
9,Бетонный переулок,302010,52.9266311,36.0350287
12,Бетонный переулок,302010,52.9267759,36.0358923
17,Бетонный переулок,302010,52.9258626,36.0344306
11,Бетонный переулок,302010,52.9262947,36.0353597
236,Комсомольская улица,302043,52.9411359,36.0463501
240,Комсомольская улица,302043,52.9404586,36.0460376
244,Комсомольская улица,302043,52.9405800,36.0449944
248А,Комсомольская улица,302043,52.9391486,36.0445741
5,Машиностроительная улица,302008,52.9180414,36.0013297
3,Машиностроительная улица,302008,52.9175094,36.0021182
1,Машиностроительная улица,302008,52.9169185,36.0030168
28,Приборостроительная улица,302027,52.9861554,36.0709412
34,Приборостроительная улица,302027,52.9854616,36.0691914
26,Приборостроительная улица,302027,52.9853825,36.0706546
18,Приборостроительная улица,302040,52.9845608,36.0748247
32,Приборостроительная улица,302027,52.9861898,36.0702090
103,улица Максима Горького,302040,52.9841164,36.0803658
47,улица Максима Горького,302040,52.9783135,36.0726214
30,Приборостроительная улица,302027,52.9854200,36.0699238
2,Полярный переулок,302040,52.9845292,36.0782582
5,Наугорское шоссе,302020,52.9804852,36.0489333
8,Приборостроительная улица,302040,52.9840970,36.0793611
38,Приборостроительная улица,302027,52.9854941,36.0684561
36,Приборостроительная улица,302027,52.9862367,36.0694795
54,Приборостроительная улица,302027,52.9865214,36.0661082
60,Приборостроительная улица,302027,52.9856690,36.0647348
44,Приборостроительная улица,302027,52.9856595,36.0670986
48,Приборостроительная улица,302027,52.9860523,36.0666513
46,Приборостроительная улица,302027,52.9864503,36.0673578
52,Приборостроительная улица,302027,52.9857076,36.0660905
56,Приборостроительная улица,302027,52.9852952,36.0654461
42,Приборостроительная улица,302027,52.9851675,36.0676335
50,Приборостроительная улица,302027,52.9868713,36.0667547
10,улица Картукова,302020,52.9939426,36.0385833
9,улица Картукова,302015,52.9921827,36.0390161
90,Наугорское шоссе,302015,52.9924349,36.0360910
57,Приборостроительная улица,302020,52.9946775,36.0397600
7,улица Картукова,302015,52.9920777,36.0377094
6,улица Картукова,302020,52.9915529,36.0432086
2,улица Картукова,302020,52.9907034,36.0447626
4,улица Картукова,302020,52.9911482,36.0440474
47,Приборостроительная улица,302020,52.9923126,36.0444406
45,Приборостроительная улица,302020,52.9915375,36.0457072
11,улица Картукова,302015,52.9930241,36.0374716
55,Приборостроительная улица,302020,52.9942905,36.0410886
9,Наугорское шоссе,302020,52.9842477,36.0450461
52,Наугорское шоссе,302020,52.9853728,36.0453354
4,улица Цветаева,302020,52.9847441,36.0471984
3,улица Цветаева,302020,52.9849482,36.0464452
6,улица Цветаева,302020,52.9850704,36.0476475
2,улица Цветаева,302020,52.9844011,36.0466691
11,Наугорское шоссе,302020,52.9847726,36.0444911
48,Наугорское шоссе,302020,52.9836933,36.0471370
5,улица Цветаева,302020,52.9853076,36.0470339
34А,Октябрьская улица,302028,52.9741911,36.0620012
33,улица Салтыкова-Щедрина,302028,52.9725013,36.0628265
2,бульвар Победы,302028,52.9727420,36.0617678
40,Октябрьская улица,302028,52.9748507,36.0625840
11,улица 7 Ноября,302028,52.9654978,36.0601490
9,улица 7 Ноября,302028,52.9649805,36.0597893
13,улица 7 Ноября,302028,52.9659520,36.0592122
2,улица Максима Горького,302028,52.9652779,36.0576375
15,улица 7 Ноября,302028,52.9650278,36.0583537
16,улица Машкарина,302042,52.9250242,36.0102636
56,2-я Курская улица,302004,52.9605144,36.0896428
48,улица 5 Августа,302004,52.9606244,36.0891036
50,улица 5 Августа,302004,52.9612683,36.0915835
54,2-я Курская улица,302004,52.9608485,36.0903064
42Б,4-я Курская улица,302004,52.9627897,36.0819643
42Д,4-я Курская улица,302004,52.9629633,36.0825896
19А,улица Русанова,302004,52.9620969,36.0820291
75А,Карачевское шоссе,302005,52.9463635,36.0319432
6,Карачевское шоссе,302016,52.9426627,36.0475929
150,Васильевская улица,302005,52.9483834,36.0358157
74Д,улица Спивака,302005,52.9449626,36.0307387
54,Карачевское шоссе,302005,52.9466826,36.0387658
127,Васильевская улица,302005,52.9496690,36.0397858
17,Маслозаводской переулок,302043,52.9394400,36.0517980
148,Васильевская улица,302005,52.9486060,36.0362795
146,Васильевская улица,302005,52.9488162,36.0367255
227,Комсомольская улица,302016,52.9417478,36.0512961
13,Орлицкий переулок,302005,52.9445231,36.0412664
6,улица Калинина,302005,52.9482029,36.0413434
11,улица Федотовой,302005,52.9477842,36.0296135
56А,Карачевское шоссе,302005,52.9471973,36.0374440
7,Балтийский переулок,302010,52.9311955,36.0346472
68,улица Спивака,302005,52.9485812,36.0309397
4,Тамбовская улица,302005,52.9436295,36.0351675
6,улица Достоевского,302005,52.9486999,36.0443287
20,Карачевский переулок,302016,52.9461850,36.0521281
13,Ватная улица,302005,52.9487853,36.0289675
64,Карачевское шоссе,302005,52.9468102,36.0357428
23,Карачевский переулок,302016,52.9458489,36.0518084
4,Кромское шоссе,302010,52.9210189,36.0115199
56,Карачевское шоссе,302005,52.9467195,36.0380542
11,улица Достоевского,302005,52.9487046,36.0412443
79,улица Латышских Стрелков,302016,52.9436709,36.0467718
8,улица Достоевского,302005,52.9487481,36.0429648
33А,Планерная улица,302010,52.9323679,36.0237204
82,Карачевское шоссе,302005,52.9471694,36.0291524
79Б к5,Карачевское шоссе,302005,52.9455465,36.0263367
13,улица Федотовой,302005,52.9478601,36.0284669
10,улица Достоевского,302005,52.9497791,36.0420891
27,Ботанический переулок,302016,52.9408657,36.0521669
154,Васильевская улица,302005,52.9479337,36.0349025
45,улица Латышских Стрелков,302016,52.9447050,36.0492380
22,Ватная улица,302005,52.9490891,36.0284720
42,Автовокзальная улица,302010,52.9312518,36.0363337
3,Балтийский переулок,302010,52.9307691,36.0340023
4,Ботанический переулок,302016,52.9427939,36.0539256
27,улица Андреева,302005,52.9487039,36.0283656
74А,улица Спивака,302005,52.9440673,36.0292289
58,Карачевское шоссе,302005,52.9467413,36.0373766
4А,улица Калинина,302005,52.9476762,36.0412954
11,Ватная улица,302005,52.9487571,36.0296606
70,улица Спивака,302005,52.9481327,36.0308850
5,Балтийский переулок,302010,52.9309820,36.0344279
10,улица Федотовой,302005,52.9480693,36.0304066
18,улица Федотовой,302005,52.9482210,36.0273215
161,Васильевская улица,302005,52.9477293,36.0357245
4,улица Достоевского,302005,52.9478067,36.0447960
194,Комсомольская улица,302016,52.9443318,36.0520517
4,улица Калинина,302005,52.9474489,36.0407561
84,Карачевское шоссе,302005,52.9471856,36.0283736
15,улица Достоевского,302005,52.9493011,36.0404151
165,Васильевская улица,302005,52.9472629,36.0346930
13,улица Достоевского,302005,52.9490414,36.0409745
20,Ватная улица,302005,52.9491124,36.0290586
163,Васильевская улица,302005,52.9474920,36.0352053
66,Карачевское шоссе,302005,52.9468374,36.0351551
80,Карачевское шоссе,302005,52.9471388,36.0298429
21,Карачевский переулок,302016,52.9453508,36.0526477
9,улица Достоевского,302005,52.9484795,36.0421387
4,Цветочный проезд,302016,52.9449094,36.0506746
8,Карачевское шоссе,302016,52.9429672,36.0465070
152,Васильевская улица,302005,52.9481686,36.0353750
43,улица Латышских Стрелков,302016,52.9456433,36.0507686
16,Ватная улица,302005,52.9490852,36.0296671
5,улица Садовского,302005,52.9474738,36.0421362
157,Васильевская улица,302005,52.9481875,36.0367399
1,Балтийский переулок,302010,52.9304980,36.0337409
40,Автовокзальная улица,302010,52.9314824,36.0366576
18,Ватная улица,302005,52.9491252,36.0303035
31,улица Андреева,302005,52.9475224,36.0283107
9,Ватная улица,302005,52.9487234,36.0303685
50,Автовокзальная улица,302010,52.9300061,36.0347383
29,улица Андреева,302005,52.9483091,36.0283302
196,Комсомольская улица,302016,52.9432748,36.0517629
14,улица Федотовой,302005,52.9481658,36.0288134
191,Комсомольская улица,302016,52.9435524,36.0540189
68,Карачевское шоссе,302005,52.9469591,36.0342488
159,Васильевская улица,302005,52.9479558,36.0362270
202,Комсомольская улица,302016,52.9434244,36.0507679
62,Карачевское шоссе,302005,52.9467918,36.0363079
4,переулок Циолковского,302005,52.9492304,36.0435793
15,Маслозаводской переулок,302043,52.9397969,36.0517904
7,улица Садовского,302005,52.9483683,36.0437994
78,Карачевское шоссе,302005,52.9470642,36.0305451
123,Васильевская улица,302005,52.9505140,36.0415133
73А,улица Нормандия-Неман,302026,52.9541815,36.0748263
52А,улица Панчука,302001,52.9609112,36.0540043
42А,1-я Посадская улица,302001,52.9603845,36.0701640
62,Карачевская улица,302026,52.9567615,36.0589406
36,1-я Посадская улица,302001,52.9602225,36.0690330
33,улица Гагарина,302001,52.9591418,36.0719979
25,Заводская улица,302026,52.9492092,36.0813070
27,улица Гагарина,302001,52.9595580,36.0717715
40,улица Гагарина,302001,52.9595635,36.0710835
34,улица Розы Люксембург,302001,52.9574385,36.0703520
11,Заводская улица,302026,52.9504263,36.0814178
24,улица Розы Люксембург,302001,52.9572405,36.0693069
22,Заводская улица,302026,52.9502280,36.0807233
14,Заводская улица,302026,52.9508383,36.0807388
34,улица Энгельса,302001,52.9599239,36.0554685
13,улица Зелёный Ров,302001,52.9612223,36.0564603
18,улица Красина,302001,52.9545643,36.0664128
15,улица Зелёный Ров,302001,52.9615654,36.0564704
27,Заводская улица,302026,52.9490110,36.0813070
31,улица Розы Люксембург,302001,52.9578327,36.0699736
50,улица Розы Люксембург,302001,52.9577858,36.0720953
30,Заводская улица,302026,52.9494572,36.0806281
185,Комсомольская улица,302016,52.9450731,36.0560003
53А,улица Розы Люксембург,302001,52.9586015,36.0746866
17,Заводская улица,302026,52.9498310,36.0813373
40,улица Панчука,302001,52.9600636,36.0552811
3,улица Зелёный Ров,302001,52.9605717,36.0564987
28,Заводская улица,302026,52.9496140,36.0806358
29,улица Гагарина,302001,52.9594393,36.0718442
140,Комсомольская улица,302016,52.9478001,36.0576393
30,улица Розы Люксембург,302001,52.9573698,36.0699020
49,улица Красина,302001,52.9562212,36.0723781
22,улица МОПРА,302026,52.9503593,36.0582683
1,Богоявленская площадь,302001,52.9659651,36.0696978
21А,улица Розы Люксембург,302001,52.9580524,36.0690594
51,улица Розы Люксембург,302001,52.9583240,36.0732585
23,улица Розы Люксембург,302001,52.9575229,36.0691865
20,улица Панчука,302001,52.9566591,36.0597092
28,1-я Посадская улица,302001,52.9600129,36.0679478
106,Комсомольская улица,302026,52.9502079,36.0600717
29,улица Розы Люксембург,302001,52.9576760,36.0699335
48,улица Розы Люксембург,302001,52.9577285,36.0718056
13,Заводская улица,302026,52.9502165,36.0814023
32,улица Энгельса,302001,52.9599635,36.0560509
32,Заводская улица,302026,52.9492970,36.0806281
38,1-я Посадская улица,302001,52.9602407,36.0692970
37-41,улица Красина,302001,52.9561623,36.0711849
50,улица Гагарина,302001,52.9587042,36.0716597
31,улица Красина,302001,52.9558575,36.0697167
42,улица Панчука,302001,52.9602123,36.0551273
34,улица Гагарина,302001,52.9599975,36.0709301
45,улица Розы Люксембург,302001,52.9581283,36.0719386
33,улица Красина,302001,52.9558908,36.0699682
15,Заводская улица,302026,52.9500180,36.0814023
26,улица Энгельса,302001,52.9600765,36.0564420
47,Карачевская улица,302026,52.9562515,36.0590731
58,улица Гагарина,302001,52.9574418,36.0722361
23,1-я Пушкарная улица,302001,52.9615292,36.0551994
42,Карачевская улица,302001,52.9594121,36.0618618
41,улица Розы Люксембург,302001,52.9579742,36.0714730
56,улица Гагарина,302001,52.9575925,36.0721568
38,улица Гагарина,302001,52.9597215,36.0710997
21,улица Розы Люксембург,302001,52.9577556,36.0689012
23,улица Гагарина,302001,52.9605134,36.0712086
97А,Карачевская улица,302005,52.9500286,36.0516650
9,Заводская улица,302026,52.9506285,36.0814178
21,1-я Пушкарная улица,302001,52.9616269,36.0557274
22,улица Розы Люксембург,302001,52.9571897,36.0690145
24,Заводская улица,302026,52.9499950,36.0806281
31,улица Гагарина,302001,52.9592919,36.0718674
7,Заводская улица,302026,52.9508383,36.0814331
44,улица Панчука,302001,52.9603343,36.0548431
46,улица Розы Люксембург,302001,52.9576715,36.0716111
42,1-я Посадская улица,302001,52.9603458,36.0697711
31,1-я Пушкарная улица,302001,52.9612159,36.0542244
89,Комсомольская улица,302026,52.9521058,36.0650399
19,Заводская улица,302026,52.9496213,36.0813220
2,проезд Связистов,302001,52.9558615,36.0600448
50,улица Панчука,302001,52.9606415,36.0543866
19,улица Розы Люксембург,302001,52.9574635,36.0685613
40,улица Розы Люксембург,302001,52.9575814,36.0712232
50А,улица Гагарина,302001,52.9586575,36.0713411
29,1-я Пушкарная улица,302001,52.9612879,36.0544808
26,Заводская улица,302026,52.9497970,36.0806281
60,улица Гагарина,302001,52.9572135,36.0723244
5,улица Зелёный Ров,302001,52.9607278,36.0565109
51А,улица Розы Люксембург,302001,52.9585206,36.0731024
169,Комсомольская улица,302016,52.9459887,36.0572380
48,улица Гагарина,302001,52.9588291,36.0712324
43,улица Розы Люксембург,302001,52.9580586,36.0717427
32,улица Розы Люксембург,302001,52.9574045,36.0701193
18,Заводская улица,302026,52.9506360,36.0807388
54,улица Гагарина,302001,52.9583445,36.0717911
25,1-я Пушкарная улица,302001,52.9609922,36.0552680
183,Комсомольская улица,302016,52.9455246,36.0566214
1,улица Зелёный Ров,302001,52.9604549,36.0562449
35,улица Красина,302001,52.9559311,36.0702521
36,улица Гагарина,302001,52.9598642,36.0709578
20А,Заводская улица,302026,52.9504263,36.0807233
27,улица Розы Люксембург,302001,52.9576363,36.0696933
3,улица Абрамова и Соколова,302004,52.9554846,36.1022980
21,Ливенская улица,302004,52.9549985,36.1076336
13,Элеваторный переулок,302004,52.9595644,36.1017001
88,улица Емельяна Пугачёва,302004,52.9625027,36.0975320
2,Трамвайный переулок,302030,52.9695638,36.0851330
36,Московская улица,302030,52.9728296,36.0897618
86,улица Фомина,302004,52.9599652,36.0819938
18,улица 5-го Августа,302004,52.9603836,36.0862307
3,Новосильский переулок,302030,52.9687979,36.0832886
106,Московская улица,302006,52.9779407,36.1030843
68,улица Фомина,302004,52.9612232,36.0809925
64,улица Фомина,302004,52.9614907,36.0807083
11,улица Степана Разина,302002,52.9728231,36.0744856
66,улица 5 Августа,302004,52.9627266,36.0968584
119,Грузовая улица,302006,52.9737229,36.1100452
118,Московская улица,302006,52.9801789,36.1072300
104,Московская улица,302006,52.9775278,36.1025801
2,Аптечный переулок,302006,52.9763461,36.1006878
74,набережная Дубровинского,302002,52.9700752,36.0717185
84,улица Фомина,302004,52.9601165,36.0818887
66,улица Фомина,302004,52.9613562,36.0808398
1,Детский переулок,302006,52.9760972,36.1000726
15,Советская улица,302002,52.9699957,36.0739279
6,Новосильская улица,302030,52.9644605,36.0774115
2,Привокзальная улица,302006,52.9801701,36.1078318
90,улица Емельяна Пугачёва,302004,52.9622784,36.0971825
58,Московская улица,302030,52.9740814,36.0940822
102,Московская улица,302006,52.9773524,36.1017199
100,Московская улица,302006,52.9769907,36.1008355
25,Советская улица,302002,52.9709515,36.0760457
13,улица Ляшко,302006,52.9770939,36.1073406
70,улица Фомина,302004,52.9611082,36.0810688
12,Привокзальная улица,302006,52.9768630,36.1111915
54,1-я Курская улица,302004,52.9630842,36.0914461
2Б,улица Герцена,302030,52.9728720,36.0857874
11,улица Ляшко,302006,52.9773342,36.1069705
74,улица Фомина,302004,52.9608757,36.0813246
62,улица Фомина,302004,52.9617532,36.0805118
121,Грузовая улица,302006,52.9735814,36.1111889
10,Привокзальная улица,302006,52.9774368,36.1102527
60,Московская улица,302030,52.9741712,36.0947264
88,2-я Курская улица,302004,52.9601555,36.0910797
98,Московская улица,302006,52.9766197,36.0999103
27,Южный переулок,302031,52.9714659,36.1289757
3,Новосильское шоссе,302031,52.9691772,36.1270446
29,Южный переулок,302031,52.9715578,36.1293111
29,Елецкая улица,302029,52.9818799,36.1203438
79,Южный переулок,02031,52.9738988,36.1383652
124,улица Поликарпова,02031,52.9728384,36.1375839
111,Андриабужная улица,02031,52.9725361,36.1392974
117,Андриабужная улица,02031,52.9719989,36.1396466
4,Деревообделочная улица,302031,52.9723262,36.1277109
112,Андриабужная улица,02031,52.9720864,36.1391548
35,Елецкая улица,302029,52.9807277,36.1213524
6,Гвардейская улица,302029,52.9812777,36.1216452
109,Андриабужная улица,02031,52.9726909,36.1391432
31,Елецкая улица,302029,52.9815420,36.1205677
8,Деревообделочная улица,302031,52.9725466,36.1284110
114,Гвардейская улица,302031,52.9704999,36.1310739
60,Калужская улица,02031,52.9735364,36.1392132
110,Андриабужная улица,02031,52.9722551,36.1390832
92,Елецкая улица,302031,52.9718256,36.1291010
108,Андриабужная улица,02031,52.9724555,36.1389375
5,Деповская улица,302029,52.9826549,36.1211479
83,Южный переулок,02031,52.9741173,36.1392200
5,Южный переулок,302031,52.9702735,36.1237519
77,Южный переулок,02031,52.9737810,36.1380223
90,Елецкая улица,302031,52.9721728,36.1287189
101,Андриабужная улица,02031,52.9733816,36.1386426
7,Деповская улица,302029,52.9828653,36.1215715
97,Паровозная улица,302029,52.9710162,36.1249384
129,улица Поликарпова,02031,52.9731488,36.1377794
106,Андриабужная улица,02031,52.9726208,36.1388250
98,Андриабужная улица,02031,52.9732476,36.1383539
99,Андриабужная улица,02031,52.9735694,36.1385114
114,Андриабужная улица,02031,52.9719102,36.1392642
102,Андриабужная улица,02031,52.9729297,36.1385751
21,Южный переулок,302031,52.9712008,36.1279549
115,Андриабужная улица,02031,52.9721957,36.1395328
93,Полевая улица,302031,52.9717009,36.1274924
8,Гвардейская улица,302029,52.9809355,36.1219627
4,Паровозная улица,302029,52.9833257,36.1127383
58,Калужская улица,02031,52.9737040,36.1391270
81,Южный переулок,02031,52.9740398,36.1388843
4,Светофорный переулок,302029,52.9715377,36.1221692
106,Гвардейская улица,302011,52.9707110,36.1309052
3,Деповская улица,302029,52.9823880,36.1205646
11,Новосильское шоссе,302031,52.9646384,36.1370621
89,Полевая улица,302031,52.9721458,36.1271704
120,улица Поликарпова,02031,52.9732078,36.1373107
26,Тульская улица,302029,52.9830955,36.1213478
91,Полевая улица,302031,52.9719654,36.1273166
18к1,Южный переулок,302031,52.9718443,36.1321539
26,улица Шульгина,302031,52.9839349,36.1228273
2,Светофорный переулок,302029,52.9703627,36.1230011
60,Паровозная улица,302029,52.9729615,36.1221053
4,Гвардейская улица,302029,52.9817680,36.1211905
122,улица Поликарпова,02031,52.9730369,36.1374399
100,Андриабужная улица,02031,52.9730824,36.1384751
62,Паровозная улица,302029,52.9718263,36.1230807
95,Полевая улица,302031,52.9716315,36.1280790
2,Гвардейская улица,302029,52.9821285,36.1209370
103,Андриабужная улица,02031,52.9731667,36.1388158
1,Новосильское шоссе,302031,52.9694154,36.1265843
104,Андриабужная улица,02031,52.9727504,36.1386862
75,Южный переулок,02031,52.9736647,36.1374963
113,Андриабужная улица,02031,52.9723511,36.1393950
25,Южный переулок,302031,52.9713975,36.1286688
105,Андриабужная улица,02031,52.9730254,36.1388946
62,Калужская улица,02031,52.9732600,36.1392133
33,Елецкая улица,302029,52.9810277,36.1210511
112,Гвардейская улица,302011,52.9704155,36.1307668
23,Южный переулок,302031,52.9713081,36.1283337
4,Контактная улица,302029,52.9836231,36.1218330
58,Паровозная улица,302029,52.9726040,36.1210702
127,улица Поликарпова,02031,52.9733303,36.1376976
11к1,Новосильское шоссе,302031,52.9683129,36.1286549
96,Андриабужная улица,02031,52.9734682,36.1382066
48,улица Кустова,302023,53.0025917,36.1027524
14,Силикатная улица,302023,53.0080685,36.1034020
23,Раздольная улица,302023,53.0040939,36.1097023
24,Артельный переулок,302023,52.9876821,36.1093779
28,Силикатная улица,302023,53.0090768,36.1042541
6,улица Кузнецова,302023,53.0053307,36.1094411
10,Силикатная улица,302023,53.0090852,36.1026438
2,Силикатная улица,302023,53.0096718,36.1035812
10,Артельный переулок,302023,52.9909296,36.1121489
1,Раздольная улица,302009,53.0012472,36.0864553
16,Силикатная улица,302023,53.0079912,36.1025015
3,улица Кукушкина,302023,53.0055509,36.1064497
11,улица Льва Толстого,302009,52.9965233,36.0898112
2А,Силикатная улица,302023,53.0101401,36.1043597
20,Артельный переулок,302023,52.9879612,36.1105304
4,Артельный переулок,302023,52.9914978,36.1146155
26,Силикатная улица,302023,53.0083619,36.1041135
8,улица Кузнецова,302023,53.0048884,36.1098315
24,Силикатная улица,302023,53.0076605,36.1040044
8,Силикатная улица,302023,53.0089242,36.1034592
2,улица Кузнецова,302023,53.0065655,36.1089271
24А,Силикатная улица,302023,53.0070720,36.1040124
5,улица Кукушкина,302023,53.0053822,36.1072805
9/10,Северная улица,302009,53.0062108,36.0974190
17,улица Льва Толстого,302009,52.9975613,36.0898874
18,Силикатная улица,302023,53.0072962,36.1032419
4,Силикатная улица,302023,53.0096010,36.1027447
2Б,Силикатная улица,302023,53.0105188,36.1037965
1,улица Пролетарская Гора,302028,52.9697888,36.0664134
5,улица Андрианова,302040,52.9871993,36.0798911
119,улица Максима Горького,302040,52.9879751,36.0793062
5,Костомаровская улица,302040,52.9889019,36.0797317
132А,Октябрьская улица,302040,52.9881397,36.0771382
117,улица Максима Горького,302040,52.9879749,36.0800258
115,улица Максима Горького,302040,52.9879812,36.0811030
6,улица Орловских Партизан,302025,53.0016179,36.1370036
4,улица Орловских Партизан,302025,53.0011973,36.1355445
126,Октябрьская улица,302040,52.9859949,36.0743669
17,Приборостроительная улица,302040,52.9837263,36.0753040
124,Октябрьская улица,302040,52.9860750,36.0755829
4,улица Андрианова,302040,52.9863752,36.0765307
2,улица Андрианова,302040,52.9869291,36.0755235
8,улица Андрианова,302040,52.9858217,36.0795550
12А,улица Андрианова,302040,52.9862409,36.0805352
27,Пожарная улица,302040,52.9807721,36.0828462
16,улица 60-летия Октября,302040,52.9804595,36.0756516
50,улица Максима Горького,302040,52.9799253,36.0768469
24,улица 60-летия Октября,302040,52.9811386,36.0728403
67,улица Максима Горького,302040,52.9814561,36.0778846
25,Пожарная улица,302040,52.9810947,36.0816547
14,улица 60-летия Октября,302040,52.9798875,36.0752306
63,улица Максима Горького,302040,52.9807068,36.0761673
21,Приборостроительная улица,302040,52.9833087,36.0737327
63А,улица Максима Горького,302040,52.9813761,36.0743372
82,улица Максима Горького,302040,52.9818544,36.0793262
23,улица 8 Марта,302040,52.9799267,36.0796572
25,улица 8 Марта,302040,52.9801235,36.0805199
22,улица 60-летия Октября,302040,52.9809524,36.0734302
65,улица Максима Горького,302040,52.9808184,36.0769791
21,улица 8 Марта,302040,52.9797454,36.0788038
69,улица Максима Горького,302040,52.9814402,36.0768361
62,Октябрьская улица,302040,52.9823838,36.0716396
18,улица 60-летия Октября,302040,52.9805537,36.0747378
50А,улица Максима Горького,302040,52.9794643,36.0768321
52,улица Максима Горького,302040,52.9808011,36.0782935
51,улица Максима Горького,302040,52.9800941,36.0761940
58,улица Максима Горького,302040,52.9816548,36.0815707
20,улица 60-летия Октября,302040,52.9807503,36.0740700
28,улица 60-летия Октября,302040,52.9812702,36.0706745
27,улица 8 Марта,302040,52.9800958,36.0820394
19,Приборостроительная улица,302040,52.9830119,36.0746469
15,Приборостроительная улица,302040,52.9827634,36.0757304
60,улица Максима Горького,302040,52.9819646,36.0814393
49,Полесская улица,302028,52.9771871,36.0428647
55,Полесская улица,302028,52.9779662,36.0417058
45,Полесская улица,302028,52.9765015,36.0443475
53,Полесская улица,302028,52.9775669,36.0436189
46,улица Матросова,302028,52.9762340,36.0451465
47,Полесская улица,302028,52.9768442,36.0436323
43,Полесская улица,302028,52.9767902,36.0452678
51,Полесская улица,302028,52.9775145,36.0422056
52,улица Матросова,302028,52.9748627,36.0419461
48,улица Матросова,302028,52.9751294,36.0434927
56,улица Матросова,302028,52.9762936,36.0407139
50,улица Матросова,302028,52.9752459,36.0426492
19,улица 8 Марта,302040,52.9795348,36.0778422
17,улица Лескова,302040,52.9787117,36.0552468
9,улица Матросова,302020,52.9769290,36.0478672
2,улица Лескова,302028,52.9726459,36.0489127
7,улица Осипенко,302028,52.9737668,36.0464902
50,улица Тургенева,302028,52.9732037,36.0474890
10,улица Лескова,302028,52.9742342,36.0496582
52,улица Тургенева,302028,52.9736044,36.0458900
48,улица Тургенева,302028,52.9724125,36.0493460
4,улица Генерала Жадова,302019,52.9732683,36.0340675
43,улица Тургенева,302028,52.9720149,36.0491040
45,улица Тургенева,302028,52.9718466,36.0482435
41,улица Тургенева,302028,52.9715737,36.0495659
41,Планерная улица,302010,52.9298333,36.0212164
43,Планерная улица,302010,52.9295726,36.0200084
29,Наугорское шоссе,302020,52.9901210,36.0343694
6,Ягодный переулок,302027,52.9875940,36.0726933
4,Ягодный переулок,302027,52.9864115,36.0720890
8,Ягодный переулок,302027,52.9888072,36.0733336
25А,улица Игнатова,302027,52.9884589,36.0642078
5,Ягодный переулок,302027,52.9869461,36.0708668
64,Приборостроительная улица,302027,52.9865286,36.0639420
10,улица Матвеева,302027,52.9866308,36.0617598
25,улица Игнатова,302027,52.9890843,36.0655485
17,улица Игнатова,302027,52.9899439,36.0687686
7,Ягодный переулок,302027,52.9874456,36.0707360
15,Ягодный переулок,302027,52.9886811,36.0712671
68,Приборостроительная улица,302027,52.9865619,36.0632125
16,улица Матвеева,302027,52.9888538,36.0626357
27,улица Игнатова,302027,52.9897165,36.0661275
23,улица Игнатова,302027,52.9887087,36.0662200
33,улица Игнатова,302027,52.9896672,36.0627902
9,Ягодный переулок,302027,52.9879288,36.0706601
70,Приборостроительная улица,302027,52.9854359,36.0623832
31,улица Игнатова,302027,52.9891664,36.0639440
29А,улица Игнатова,302027,52.9889155,36.0648690
18,улица Матвеева,302027,52.9892749,36.0627150
66,Приборостроительная улица,302027,52.9856941,36.0632832
21,улица Игнатова,302027,52.9890529,36.0670248
13А,улица Игнатова,302027,52.9883060,36.0658534
17,Ягодный переулок,302027,52.9890893,36.0722324
19,улица Игнатова,302027,52.9898350,36.0672537
62,Приборостроительная улица,302027,52.9856585,36.0640298
11,улица Игнатова,302027,52.9891231,36.0691524
13,Ягодный переулок,302027,52.9877956,36.0716254
13,улица Игнатова,302027,52.9886470,36.0683784
14,улица Матвеева,302027,52.9884434,36.0625664
5,улица Игнатова,302027,52.9897042,36.0718920
15,улица Игнатова,302027,52.9892332,36.0678233
72,Приборостроительная улица,302027,52.9865962,36.0624392
7,улица Игнатова,302027,52.9898080,36.0705604
31,улица Матвеева,302027,52.9889545,36.0609338
29,улица Матвеева,302027,52.9885538,36.0608573
43,улица Игнатова,302027,52.9900808,36.0564997
42,улица Цветаева,302027,52.9891953,36.0556048
76,Приборостроительная улица,302027,52.9880671,36.0538606
44,улица Цветаева,302027,52.9898223,36.0554309
46,улица Цветаева,302027,52.9895166,36.0562411
37,улица Игнатова,302027,52.9896727,36.0595757
25,улица Матвеева,302027,52.9888230,36.0589084
38,улица Цветаева,302027,52.9886239,36.0547260
17,улица Матвеева,302027,52.9881498,36.0586199
41,улица Игнатова,302027,52.9900037,36.0579427
33,улица Матвеева,302027,52.9893901,36.0609914
15,улица Матвеева,302027,52.9881138,36.0593707
40,улица Цветаева,302027,52.9892347,36.0545494
13,улица Матвеева,302027,52.9880587,36.0601366
27,улица Матвеева,302027,52.9887688,36.0596546
35,улица Игнатова,302027,52.9897688,36.0610645
39,улица Игнатова,302027,52.9895090,36.0578783
19,улица Матвеева,302027,52.9881992,36.0578445
36,улица Цветаева,302027,52.9886605,36.0536764
23,улица Матвеева,302027,52.9888682,36.0581405
58,Октябрьская улица,302040,52.9799088,36.0692030
32,улица Лескова,302040,52.9817649,36.0631898
30,улица Лескова,302040,52.9812964,36.0632079
3А,улица Ломоносова,302040,52.9811156,36.0662177
1,улица Ломоносова,302040,52.9814046,36.0681105
59,Октябрьская улица,302040,52.9806406,36.0673202
11,улица Ломоносова,302040,52.9815043,36.0649134
50,Октябрьская улица,302040,52.9783829,36.0673367
16,Красноармейская улица,302040,52.9810326,36.0614013
34,улица Лескова,302040,52.9814059,36.0639556
36,улица Лескова,302040,52.9819976,36.0646680
57,Октябрьская улица,302040,52.9805207,36.0682772
60,Октябрьская улица,302040,52.9805584,36.0698000
5,улица Ломоносова,302040,52.9818304,36.0666673
7,улица Ломоносова,302040,52.9819888,36.0659248
56,Октябрьская улица,302040,52.9792682,36.0685347
26,улица Лескова,302040,52.9815757,36.0619442
8,Пионерская улица,302028,52.9770389,36.0592093
13А,улица Сурена Шаумяна,302028,52.9735357,36.0549048
28,улица 7 Ноября,302028,52.9680096,36.0560737
15А,улица Сурена Шаумяна,302028,52.9739529,36.0554506
9,бульвар Победы,302028,52.9747614,36.0555612
15,улица Салтыкова-Щедрина,302028,52.9678732,36.0569055
11,бульвар Победы,302028,52.9749831,36.0550853
16,улица 7 Ноября,302028,52.9656134,36.0610389
37,улица Ленина,302028,52.9696246,36.0635401
11,Полесская улица,302028,52.9724432,36.0549671
14,Почтовый переулок,302028,52.9679041,36.0656681
28,улица Ленина,302028,52.9684238,36.0650476
39,улица Тургенева,302028,52.9716124,36.0503463
37,улица Ленина,302028,52.9692401,36.0636627
17А,улица Салтыкова-Щедрина,302028,52.9686707,36.0569081
37,улица Тургенева,302028,52.9715560,36.0511684
23,улица Генерала Жадова,302019,52.9724254,36.0321273
19,улица Генерала Жадова,302019,52.9725296,36.0349008
8,Весёлая улица,302019,52.9717550,36.0385139
48,улица Генерала Родина,302019,52.9720335,36.0365223
2,улица Генерала Жадова,302019,52.9729571,36.0370479
14,Весёлая улица,302019,52.9714667,36.0367481
12,Весёлая улица,302019,52.9717127,36.0373284
56,улица Генерала Родина,302019,52.9741925,36.0365977
54,улица Генерала Родина,302019,52.9737074,36.0377412
2,Весёлая улица,302019,52.9719226,36.0393491
9,улица Генерала Жадова,302019,52.9722184,36.0385953
65,улица Генерала Родина,302019,52.9722107,36.0349494
10,Весёлая улица,302019,52.9713601,36.0378180
50,улица Генерала Родина,302019,52.9723663,36.0362795
22,Весёлая улица,302019,52.9715571,36.0336780
20,Весёлая улица,302019,52.9715226,36.0342510
13,улица Генерала Жадова,302019,52.9723596,36.0371226
52,улица Генерала Родина,302019,52.9737545,36.0368306
24,Весёлая улица,302019,52.9716692,36.0328752
25,улица Генерала Жадова,302019,52.9727844,36.0312677
4,улица Антонова,302020,52.9839652,36.0435535
1А,улица Цветаева,302020,52.9838933,36.0447629
2,улица Антонова,302020,52.9836476,36.0441177
8,улица Цветаева,302020,52.9846203,36.0479262
42,Наугорское шоссе,302020,52.9825934,36.0482445
50,Наугорское шоссе,302020,52.9839894,36.0475780
11А,Наугорское шоссе,302020,52.9843634,36.0438154
3,улица Антонова,302020,52.9842687,36.0422222
6,улица Антонова,302020,52.9842860,36.0429496
8,улица Антонова,302020,52.9846117,36.0423521
46,Наугорское шоссе,302020,52.9834011,36.0479378
44А,Наугорское шоссе,302020,52.9828473,36.0489570
1,улица Грановского,302020,52.9855899,36.0473739
5,улица Антонова,302020,52.9836281,36.0433699
1,улица Антонова,302020,52.9839601,36.0425156
5А,улица Цветаева,302020,52.9864142,36.0481046
209,Октябрьская улица,302027,52.9905467,36.0752691
213,Октябрьская улица,302027,52.9914960,36.0755736
1,улица Андрианова,302040,52.9873370,36.0768778
2,Ягодный переулок,302027,52.9851793,36.0716725
11,улица 60-летия Октября,302040,52.9795776,36.0727254
17,улица 60-летия Октября,302040,52.9801979,36.0705074
49,улица Максима Горького,302040,52.9788480,36.0746355
9,улица 60-летия Октября,302040,52.9791957,36.0735369
32,улица Колпакчи,302040,52.9782067,36.0838038
32,Пожарная улица,302040,52.9797856,36.0852532
5,Огородный переулок,302040,52.9772383,36.0820189
26,улица Колпакчи,302040,52.9778201,36.0826171
9,Огородный переулок,302040,52.9775552,36.0834754
18,улица Колпакчи,302040,52.9776489,36.0816912
7,Огородный переулок,302040,52.9774070,36.0828224
31,улица Колпакчи,302040,52.9784796,36.0834144
37,Октябрьская улица,302028,52.9741697,36.0609116
45А,улица Максима Горького,302040,52.9746556,36.0689941
28,Октябрьская улица,302028,52.9736426,36.0609295
39,Октябрьская улица,302028,52.9745856,36.0611892
43,Октябрьская улица,302028,52.9748865,36.0618783
45,Октябрьская улица,302028,52.9751664,36.0620568
4,улица Салтыкова-Щедрина,302028,52.9665435,36.0561393
8,Почтовый переулок,302028,52.9662441,36.0662674
3,Ягодный переулок,302027,52.9871579,36.0700264
310 к1,Комсомольская улица,302010,52.9353656,36.0324869
2,Саханская улица,302042,52.9256281,36.0197147
47,улица Тургенева,302028,52.9714245,36.0485644
92,Наугорское шоссе,302015,52.9931392,36.0354032
94,Наугорское шоссе,302015,52.9935454,36.0348593
2,Цветочный проезд,302016,52.9452141,36.0510371
4А,Цветочный проезд,302016,52.9450642,36.0499982
10,Приборостроительная улица,302040,52.9841773,36.0780491
15Г,Кромская улица,302042,52.9283262,36.0153402
78,Пожарная улица,302040,52.9849489,36.0838469
29,улица Колпакчи,302040,52.9784998,36.0826061
2,Балтийский переулок,302010,52.9302720,36.0341340
52,Карачевское шоссе,302005,52.9466633,36.0393243
60,Карачевское шоссе,302005,52.9468397,36.0367907
14,Ватная улица,302005,52.9489944,36.0309352
1,улица Калинина,302005,52.9469642,36.0393522
32,Покровская улица,302002,52.9705230,36.0729762
23,улица Родзевича-Белевича,302038,53.0189228,36.1306082
19,улица Металлургов,302038,53.0184275,36.1326308
21,улица Родзевича-Белевича,302038,53.0182173,36.1311149
19Б,улица Металлургов,302038,53.0176474,36.1332520
53,Раздольная улица,302038,53.0168590,36.1346774
43А,Раздольная улица,302038,53.0154949,36.1310034
17,улица Бурова,302038,53.0080017,36.1292103
52,улица Металлургов,302038,53.0167746,36.1400287
122,Октябрьская улица,302040,52.9851172,36.0739155
59,Приборостроительная улица,302020,52.9954180,36.0390870
96,Наугорское шоссе,302015,52.9935958,36.0358471
5,Пожарная улица,302040,52.9781076,36.0845935
26,Октябрьская улица,302028,52.9716684,36.0599955
3,улица Лескова,302028,52.9736515,36.0485170
51,Раздольная улица,302038,53.0164074,36.1334498
38,Октябрьская улица,302028,52.9744303,36.0624333
30,Пожарная улица,302040,52.9793617,36.0851172
28,Пожарная улица,302040,52.9789266,36.0861139
66,улица 8 Марта,302040,52.9793798,36.0833308
24,Карьерная улица,302040,52.9828166,36.0819594
33,Пожарная улица,302040,52.9832938,36.0825493
54,Пожарная улица,302040,52.9823227,36.0829282
100,улица Максима Горького,302040,52.9844378,36.0818258
75,Октябрьская улица,302027,52.9864404,36.0730717
77,Октябрьская улица,302027,52.9872238,36.0736015
79,Октябрьская улица,302027,52.9881466,36.0742690
120,Октябрьская улица,302040,52.9847959,36.0731546
44,улица Максима Горького,302040,52.9785666,36.0759390
15,улица 60-летия Октября,302040,52.9800331,36.0711388
11Б,улица 60-летия Октября,302040,52.9798503,36.0730349
23,1-я Посадская улица,302026,52.9605545,36.0688399
1,Красноармейская улица,302040,52.9769831,36.0679940
4,улица 5-й Орловской Стрелковой Дивизии,302010,52.9323655,36.0507067
11А,Орёлстроевская улица,302011,52.9320278,36.0475836
41Б,Раздольная улица,302038,53.0152119,36.1289845
52,улица Латышских Стрелков,302016,52.9456095,36.0491304
13А,улица Ермолова,302040,52.9770072,36.0773157
1,улица Максима Горького,302028,52.9658168,36.0569453
2,улица Салтыкова-Щедрина,302028,52.9660688,36.0563701
116,Гвардейская улица,302031,52.9702992,36.1312037
25,Ливенская улица,302004,52.9544789,36.1077477
6А,улица Калинина,302005,52.9476311,36.0401015
108,Комсомольская улица,302026,52.9496622,36.0602346
90,Раздольная улица,302038,53.0207831,36.1427197
2,улица Куйбышева,302020,52.9865520,36.0490020
6,улица Куйбышева,302020,52.9872740,36.0482685
4,улица Куйбышева,302020,52.9868184,36.0485309
11,улица Цветаева,302020,52.9871365,36.0499217
62,Наугорское шоссе,302020,52.9867343,36.0435955
7,улица Цветаева,302020,52.9867387,36.0493294
9,улица Цветаева,302020,52.9869315,36.0496366
80,Приборостроительная улица,302020,52.9926547,36.0462828
70,Наугорское шоссе,302020,52.9881080,36.0427361
19,Наугорское шоссе,302015,52.9869256,36.0414265
19А,Наугорское шоссе,302015,52.9865614,36.0409210
21,Наугорское шоссе,302015,52.9869697,36.0397355
34,улица Бурова,302038,53.0097883,36.1295784
20,бульвар Молодёжи,302005,52.9530553,36.0219757
12,бульвар Молодёжи,302005,52.9513362,36.0218369
4,бульвар Молодёжи,302005,52.9498258,36.0217511
18,бульвар Молодёжи,302005,52.9519235,36.0216186
16,бульвар Молодёжи,302005,52.9524960,36.0206486
9,улица Алроса,302014,52.9523468,36.0232501
8,улица Емлютина,302005,52.9500283,36.0153893
5,улица Алроса,302007,52.9507256,36.0231334
3,улица Алроса,302005,52.9507953,36.0242435
6,бульвар Молодёжи,302005,52.9509512,36.0193788
12,улица Емлютина,302005,52.9513575,36.0138680
14,бульвар Молодёжи,302005,52.9525387,36.0195320
7,улица Алроса,302014,52.9524231,36.0243382
48,улица Гайдара,302009,52.9993229,36.0870884
42А,Приборостроительная улица,302027,52.9852660,36.0665571
1,Кинопрокатный переулок,302040,52.9787277,36.0819141
18,Черепичная улица,302005,52.9414672,36.0369493
2,улица Орловских Партизан,302025,53.0005640,36.1362708
137к5А,Московское шоссе,302025,53.0038859,36.1389659
6,Речной переулок,302004,52.9634085,36.0803499
123,Грузовая улица,302006,52.9731669,36.1111478
2,Карачевское шоссе,302016,52.9418910,36.0488748
4,Карачевское шоссе,302016,52.9422788,36.0482369
21,Раздольная улица,302023,53.0034869,36.1095586
94,Карачевское шоссе,302005,52.9488551,36.0226354
71А,улица Максима Горького,302040,52.9816005,36.0752527
49А,Октябрьская улица,302028,52.9780372,36.0646246
8,улица 8 Марта,302040,52.9788248,36.0794049
10,бульвар Молодёжи,302005,52.9506221,36.0217837
30/2,улица Красина,302001,52.9552206,36.0682396
2,улица Емлютина,302007,52.9492940,36.0132314
1,бульвар Молодёжи,302005,52.9491500,36.0172920
11,бульвар Молодёжи,302005,52.9526099,36.0177655
15,бульвар Молодёжи,302005,52.9520654,36.0164578
16,улица Емлютина,302007,52.9521317,36.0148413
17,бульвар Молодёжи,302005,52.9528471,36.0165878
18,улица Емлютина,302007,52.9529072,36.0149553
14,улица Емлютина,302007,52.9527413,36.0137180
4,улица Зеленина,302005,52.9542935,36.0184197
6,улица Зеленина,302014,52.9542075,36.0167080
8,улица Зеленина,302014,52.9542855,36.0142977
10,улица Зеленина,302014,52.9547575,36.0154015
1Г,бульвар Молодёжи,302005,52.9487950,36.0169590
1А,бульвар Молодёжи,302005,52.9492052,36.0163988
17,улица Маринченко,302038,53.0093052,36.1391390
109,Наугорское шоссе,302015,52.9997089,36.0197956
9,улица Маринченко,302025,53.0080702,36.1405895
10,улица Кузнецова,302023,53.0045338,36.1111860
25,Раздольная улица,302023,53.0039881,36.1109803
1,улица Кустова,302023,53.0067532,36.1063885
19,Раздольная улица,302023,53.0039795,36.1086045
27,Раздольная улица,302023,53.0046727,36.1125248
1,улица Кукушкина,302023,53.0065747,36.1071991
6,Артельный переулок,302023,52.9910785,36.1143682
6А,Артельный переулок,302023,52.9910914,36.1151706
46,улица Бурова,302038,53.0131495,36.1234178
1,улица Родзевича-Белевича,302038,53.0136254,36.1240904
73,Планерная улица,302042,52.9262104,36.0076478
71,Планерная улица,302042,52.9264037,36.0086992
2Б/2,улица Цветаева,302028,52.9807964,36.0426163
1,улица Кукушкина,302023,53.0066355,36.1076226
12,улица 5-й Орловской Стрелковой Дивизии,302010,52.9288269,36.0462239
16,улица 5-й Орловской Стрелковой Дивизии,302010,52.9285553,36.0452326
18,улица 5-й Орловской Стрелковой Дивизии,302010,52.9285025,36.0441728
14,улица 5-й Орловской Стрелковой Дивизии,302010,52.9275648,36.0441988
7,Орёлстроевская улица,302010,52.9327100,36.0466582
9Б,улица Маринченко,302025,53.0073239,36.1396304
4А,площадь Поликарпова,302030,52.9702382,36.0842649
4,площадь Поликарпова,302030,52.9702727,36.0848922
23,улица Гагарина,302001,52.9601162,36.0717710
176,Московское шоссе,302025,53.0105187,36.1579857
15,Орёлстроевская улица,302011,52.9304575,36.0424474
110,Гвардейская улица,302011,52.9703556,36.1305155
2,Базовая улица,302020,52.9883823,36.0371614
26,Раздольная улица,302023,53.0023482,36.1107459
24,Раздольная улица,302023,53.0016347,36.1098191
6,Весёлая улица,302019,52.9713434,36.0385451
9,улица Генерала Жадова,302019,52.9722733,36.0388845
11,улица Генерала Жадова,302019,52.9722481,36.0379645
20,улица Емлютина,302014,52.9555825,36.0141414
3,улица Полковника Старинова,302014,52.9565079,36.0171681
5,улица Полковника Старинова,302014,52.9565708,36.0158094
22,улица Емлютина,302014,52.9566201,36.0143368
134,Октябрьская улица,302040,52.9881119,36.0759676
60,улица Генерала Родина,302019,52.9742741,36.0387296
155А,Московское шоссе,302025,53.0100760,36.1498919
155,Московское шоссе,302025,53.0106617,36.1505545
172А,Московское шоссе,302025,53.0109418,36.1558985
172,Московское шоссе,302025,53.0105839,36.1553608
1,Коллективная улица,302005,52.9498265,36.0310846
66,улица Спивака,302005,52.9493829,36.0310324
2,улица Зеленина,302005,52.9541079,36.0217842
1 к1,Зареченская улица,302014,52.9566342,36.0218601
3,улица Машкарина,302042,52.9249150,36.0194599
3А,улица Машкарина,302042,52.9248492,36.0186285
31 к1,Планерная улица,302010,52.9322580,36.0243617
31 к2,Планерная улица,302010,52.9317190,36.0228506
11Б,Выставочная улица,302008,52.9123311,36.0065451
4,Кромское шоссе,302042,52.9213309,36.0104946
19,Выставочная улица,302008,52.9109244,36.0073704
33,Выставочная улица,302008,52.9099834,36.0078044
41,Выставочная улица,302008,52.9097300,36.0082544
18,Артельный переулок,302023,52.9879279,36.1115781
22,Артельный переулок,302023,52.9875470,36.1106600
26,Артельный переулок,302023,52.9881019,36.1094642
28,Артельный переулок,302023,52.9881228,36.1086282
15,Межевой переулок,302029,52.9939407,36.1202921
9,Межевой переулок,302029,52.9930420,36.1217996
11,Межевой переулок,302029,52.9935535,36.1212645
37Б,Раздольная улица,302028,53.0138470,36.1265009
20,Покровская улица,302002,52.9707138,36.0737439
76,набережная Дубровинского,302002,52.9709719,36.0716626
74А,набережная Дубровинского,302002,52.9695834,36.0720414
11,Советская улица,302002,52.9694916,36.0727699
7,Лазурная улица,302028,52.9745753,36.0478899
2,улица Осипенко,302028,52.9740771,36.0471896
49,улица Розы Люксембург,302001,52.9583826,36.0725950
33,улица Розы Люксембург,302001,52.9582189,36.0707774
2А,улица Калинина,302005,52.9479496,36.0418294
5,улица Достоевского,302005,52.9472481,36.0434532
54,улица Латышских Стрелков,302016,52.9451327,36.0478415
9,Маслозаводской переулок,302043,52.9401557,36.0523600
5,Маслозаводской переулок,302043,52.9401543,36.0510309
4,проезд Связистов,302001,52.9554864,36.0596770
14,Солнцевская улица,302005,52.9427936,36.0344976
45А,улица Красина,302001,52.9563166,36.0719617
251А,Комсомольская улица,302043,52.9344152,36.0392463
39,2-я Курская улица,302004,52.9640203,36.0890607
65,1-я Курская улица,302004,52.9620560,36.0949380
3,улица Садовского,302005,52.9471152,36.0414401
111Г,Московское шоссе,302025,52.9987172,36.1328852
16А,Московское шоссе,302029,52.9856544,36.1156912
29,улица 8 Марта,302040,52.9803221,36.0833830
10,улица Розы Люксембург,302001,52.9562593,36.0660625
15,улица Цветаева,302027,52.9904867,36.0526930
12А,улица Андрианова,302040,52.9861911,36.0813288
79Б,Карачевское шоссе,302005,52.9461070,36.0265199
42,улица Гагарина,302001,52.9594318,36.0712128
44,улица Гагарина,302001,52.9592848,36.0712457
46,улица Гагарина,302001,52.9591460,36.0712868
40А,1-я Посадская улица,302001,52.9599266,36.0697687
38А,1-я Посадская улица,302001,52.9599423,36.0694101
30,1-я Посадская улица,302001,52.9601076,36.0682560
32,1-я Посадская улица,302001,52.9601404,36.0685574
62,улица Гагарина,302001,52.9570324,36.0724905
64,улица Гагарина,302001,52.9567942,36.0724300
9,улица Зелёный Ров,302001,52.9610682,36.0559950
11,улица Зелёный Ров,302001,52.9609932,36.0565917
7,улица Зелёный Ров,302001,52.9608853,36.0565730
3Б,улица Машкарина,302042,52.9264823,36.0155187
3Б,улица Машкарина,302042,52.9264831,36.0156501
16,улица Машкарина,302042,52.9251649,36.0107006
400,Комсомольская улица,302010,52.9277212,36.0202981
12,улица Машкарина,302042,52.9259652,36.0150888
12,улица Машкарина,302042,52.9258617,36.0143353
12,улица Машкарина,302042,52.9259045,36.0147813
3,Саханская улица,302042,52.9261157,36.0158827
3,Саханская улица,302042,52.9260636,36.0155990
2,улица Грановского,302020,52.9859258,36.0473851
19,Пионерская улица,302028,52.9754856,36.0611845
10,улица Машкарина,302042,52.9246327,36.0143329
10,улица Машкарина,302042,52.9251161,36.0140941
52,Планерная улица,302042,52.9284448,36.0120058
211,Октябрьская улица,302027,52.9909294,36.0760740
5Б,Ипподромный переулок,302020,52.9843308,36.0541077
9,Ипподромный переулок,302020,52.9850629,36.0551026
5,Ипподромный переулок,302020,52.9836608,36.0533834
1,Поселковая улица,302024,52.9350139,36.0716429
50,улица 5-го Августа,302004,52.9612971,36.0920130
31А,улица Красина,302001,52.9560159,36.0696607
60А,улица Гагарина,302001,52.9570640,36.0720202
44,улица Розы Люксембург,302001,52.9576277,36.0713998
36,улица Розы Люксембург,302001,52.9573668,36.0709818
30А,улица Розы Люксембург,302001,52.9570913,36.0699653
28,улица Розы Люксембург,302001,52.9572474,36.0697678
53Б,улица Розы Люксембург,302001,52.9585254,36.0743705
46,1-я Посадская улица,302001,52.9607692,36.0727483
34,1-я Посадская улица,302001,52.9601709,36.0688364
40,1-я Посадская улица,302001,52.9602394,36.0695639
32,улица Гагарина,302001,52.9601261,36.0708783
40А,улица Гагарина,302001,52.9594816,36.0707625
48А,улица Гагарина,302001,52.9587211,36.0710215
33А,улица Розы Люксембург,302001,52.9582543,36.0701068
25,улица Розы Люксембург,302001,52.9576165,36.0694028
4 к2,Зареченская улица,302014,52.9582188,36.0185246
2 к2,Зареченская улица,302014,52.9580318,36.0204021
2 к3,Зареченская улица,302014,52.9574545,36.0206991
4 к1,Зареченская улица,302014,52.9575066,36.0195136
2 к1,Зареченская улица,302014,52.9575983,36.0219604
23,Московское шоссе,302029,52.9876603,36.1188735
1,улица Михалицына,302023,52.9882324,36.1190396
25,улица Андреева,302005,52.9494931,36.0283976
28,Тульская улица,302029,52.9825791,36.1218265
24,Тульская улица,302029,52.9833333,36.1211210
6,Деревообделочная улица,302031,52.9724399,36.1280948
89/2,Полевая улица,302031,52.9722445,36.1274755
48А,улица Панчука,302001,52.9605665,36.0550840
48,улица Панчука,302001,52.9604939,36.0549161
28,улица Энгельса,302001,52.9601315,36.0561704
3А,улица Зелёный Ров,302001,52.9602384,36.0562063
1А,улица Зелёный Ров,302001,52.9605308,36.0560681
33,1-я Пушкарная улица,302001,52.9611146,36.0538748
27,1-я Пушкарная улица,302001,52.9613573,36.0546995
76,улица Фомина,302004,52.9607340,36.0814566
78,улица Фомина,302004,52.9604960,36.0814209
80,улица Фомина,302004,52.9604027,36.0817190
38,улица Фомина,302004,52.9633319,36.0792199
40,улица Фомина,302004,52.9631532,36.0792920
42,улица Фомина,302004,52.9630094,36.0794962
44,улица Фомина,302004,52.9628856,36.0795837
46,улица Фомина,302004,52.9627561,36.0796803
52,улица Фомина,302004,52.9624469,36.0799823
54,улица Фомина,302004,52.9623196,36.0801118
56,улица Фомина,302004,52.9622489,36.0801776
58,улица Фомина,302004,52.9620718,36.0803150
60,улица Фомина,302004,52.9619682,36.0803789
107,Андриабужная улица,02031,52.9728606,36.1390222
68,улица Генерала Родина,302021,52.9776983,36.0377304
48 к1,улица Космонавтов,302029,52.9948902,36.1237918
30 к1,улица Кузнецова,302029,52.9957027,36.1241993
30 к2,улица Кузнецова,302029,52.9957173,36.1253686
30 к3,улица Кузнецова,302029,52.9952907,36.1263520
48 к3,улица Космонавтов,302029,52.9943734,36.1267284
23,улица Андреева,302005,52.9499282,36.0284353
46,улица Панчука,302001,52.9605672,36.0547121
20А,улица Металлургов,302025,53.0123485,36.1449120
6к2,Зареченская улица,302014,52.9581538,36.0165261
6 к1,Зареченская улица,302014,52.9575732,36.0173954
6 к4,Зареченская улица,302014,52.9575969,36.0162284
6к3,Зареченская улица,302014,52.9578015,36.0149336
4к3,Зареченская улица,302014,52.9575717,36.0184466
49,Карачевская улица,302026,52.9559210,36.0591544
14А,Воскресенский переулок,302001,52.9613582,36.0687212
1А,Поселковая улица,302024,52.9331887,36.0728187
7,Тульская улица,302029,52.9855085,36.1194693
83,Паровозная улица,302029,52.9727312,36.1232973
26,улица Правый Берег р. Орлик,302001,52.9640730,36.0670870
4,Гостиная улица,302001,52.9638034,36.0675916
6А,улица Гагарина,302001,52.9636737,36.0666769
6,Гостинная улица,302001,52.9634014,36.0669561
61,2-я Курская улица,302004,52.9603564,36.0916059
34,Заводская улица,302026,52.9489100,36.0806160
20,улица Металлургов,302025,53.0126240,36.1444879
41,Рощинская улица,302038,53.0208727,36.1435337
1,улица Ленина,302028,52.9713945,36.0631542
272,Комсомольская улица,302043,52.9377706,36.0400946
8,улица 8 Марта,302040,52.9784325,36.0790829
1,улица Картукова,302020,52.9898815,36.0434453
68,Октябрьская улица,302040,52.9820168,36.0747146
3,улица Космонавтов,302038,53.0086151,36.1333152
35,Раздольная улица,302038,53.0114006,36.1257135
248,Комсомольская улица,302043,52.9393352,36.0449306
34,2-я Курская улица,302004,52.9638547,36.0882781
7А,бульвар Победы,302028,52.9743233,36.0561359
53,Комсомольская улица,302001,52.9557346,36.0646062
8,бульвар Молодёжи,302005,52.9508795,36.0204807
7,бульвар Молодёжи,302005,52.9510484,36.0160714
9,бульвар Молодёжи,302005,52.9511028,36.0149718
1,улица Алроса,302007,52.9498516,36.0242477
2,бульвар Молодёжи,302005,52.9499905,36.0191783
3,бульвар Молодёжи,302005,52.9500535,36.0177085
10,улица Емлютина,302007,52.9501717,36.0130248
98,Карачевское шоссе,302007,52.9483648,36.0174295
100,Карачевское шоссе,302007,52.9484068,36.0159838
102,Карачевское шоссе,302007,52.9484424,36.0145193
104,Карачевское шоссе,302007,52.9484937,36.0130432
5,бульвар Молодёжи,302005,52.9509878,36.0175320
64,улица Генерала Родина,302019,52.9751587,36.0368284
10,Кромская улица,302042,52.9295697,36.0183152
48 к2,улица Космонавтов,302029,52.9944475,36.1251558
29,Рощинская улица,302038,53.0179996,36.1453796
27,Рощинская улица,302038,53.0176129,36.1460194
17,Советская улица,302002,52.9704600,36.0754021
29,Советская улица,302002,52.9714887,36.0749043
28,Покровская улица,302002,52.9712434,36.0732227
90,набережная Дубровинского,302002,52.9725311,36.0737714
88,набережная Дубровинского,302002,52.9720122,36.0729397
86,набережная Дубровинского,302002,52.9713907,36.0721698
1,Новосильский переулок,302030,52.9696285,36.0833230
30,Советская улица,302002,52.9711781,36.0791765
96,набережная Дубровинского,302030,52.9741853,36.0800050
32,Черкасская улица,302001,52.9619850,36.0724146
52,3-я Курская улица,302004,52.9633319,36.0856934
5,Орёлстроевская улица,302011,52.9333438,36.0480563
9,Орёлстроевская улица,302011,52.9320213,36.0453208
13,Орёлстроевская улица,302011,52.9315252,36.0443030
54,2-я Курская улица,302030,52.9677935,36.0865319
54,улица Пушкина,302030,52.9681171,36.0861818
54А,улица Пушкина,302030,52.9682439,36.0866573
35,Планерная улица,302010,52.9312981,36.0236190
