House number,Street name,Postal code,Latitude,Longitude
33,Кавказская улица,369000,44.2334803,42.0506416
21,площадь Кирова,369000,44.2268087,42.0554704
13,Пятигорское шоссе,369000,44.2495568,42.0791523
56,проспект Ленина,369000,44.2231916,42.0457487
22,Кавказская улица,369000,44.2328897,42.0478940
35Г,улица Космонавтов,369015,44.1955109,42.0477600
272А,проспект Ленина,369000,44.2007084,42.0385783
66,Пушкинская улица,369000,44.2262909,42.0512618
66,Пушкинская улица,369000,44.2280219,42.0518390
118Г,Шоссейная улица,369012,44.2230331,42.0808719
37,Кавказская улица,369000,44.2331327,42.0520315
"8, строение 13",улица Нахимова,634000,44.2334902,42.0523555
65,улица Лободина,369012,44.2030215,42.0548570
1А,Парковая улица,369012,44.2053127,42.0488654
9,Парковая улица,369012,44.2031321,42.0488342
72,улица Доватора,369012,44.2048252,42.0541056
7,Парковая улица,369012,44.2037706,42.0484303
22,улица Умара Алиева,369000,44.2220569,42.0500619
82,Пушкинская улица,369000,44.2256150,42.0512986
84,Пушкинская улица,369000,44.2252846,42.0512434
84,Пушкинская улица,369000,44.2249675,42.0511903
13,Одесский переулок,369000,44.2189872,42.0485436
15,Одесский переулок,369000,44.2189279,42.0494215
56,Октябрьская улица,369000,44.2404198,42.0600199
88,улица Крупской,369000,44.2395174,42.0601527
10,Октябрьская улица,369000,44.2467578,42.0591639
101,улица Карла Маркса,369000,44.2431620,42.0566093
10,Интернациональная улица,369000,44.2379745,42.0604437
112,улица Карла Маркса,369000,44.2425642,42.0572591
124А,улица Карла Маркса,369000,44.2430356,42.0579283
16,Октябрьская улица,369000,44.2459619,42.0597274
160А,улица Карла Маркса,369000,44.2456065,42.0584262
162А,улица Карла Маркса,369000,44.2465857,42.0584906
160,улица Карла Маркса,369000,44.2463734,42.0577769
162,улица Карла Маркса,369000,44.2468042,42.0578722
164,улица Карла Маркса,369000,44.2471731,42.0579571
168,улица Карла Маркса,369000,44.2479149,42.0582236
17,Октябрьская улица,369000,44.2421145,42.0611293
166,улица Карла Маркса,369000,44.2475268,42.0580196
19,Октябрьская улица,369000,44.2417773,42.0613272
21,Октябрьская улица,369003,44.2413306,42.0615214
23,Октябрьская улица,369003,44.2414815,42.0622615
3,Октябрьская улица,369000,44.2470198,42.0599835
30,Октябрьская улица,369000,44.2452484,42.0598595
32,Октябрьская улица,369000,44.2446247,42.0597530
34,Октябрьская улица,369000,44.2437796,42.0591450
3А,Пятигорское шоссе,369000,44.2472498,42.0608886
3Б,Пятигорское шоссе,369000,44.2471512,42.0619109
3,Пятигорское шоссе,369000,44.2466937,42.0613388
4,Октябрьская улица,369000,44.2475367,42.0586235
40,Октябрьская улица,369000,44.2436338,42.0599937
42,Октябрьская улица,369000,44.2433599,42.0601389
42А,Зелёная улица,369000,44.2403144,42.0581847
44,Зелёная улица,369000,44.2408320,42.0582623
46,Зелёная улица,369000,44.2412423,42.0583851
46,Октябрьская улица,369000,44.2429417,42.0596194
48,Октябрьская улица,369000,44.2420902,42.0594841
5,Октябрьская улица,369000,44.2451060,42.0606973
50,Октябрьская улица,369000,44.2427404,42.0591129
56А,Октябрьская улица,369000,44.2415173,42.0591314
50А,Октябрьская улица,369000,44.2430746,42.0586528
52,Октябрьская улица,369000,44.2419778,42.0603537
52А,Октябрьская улица,369000,44.2417779,42.0594509
56,Октябрьская улица,369000,44.2411032,42.0599177
5А,Октябрьская улица,369000,44.2457301,42.0608261
6,Интернациональная улица,369000,44.2386652,42.0596145
6,Октябрьская улица,369000,44.2473690,42.0589996
7,Октябрьская улица,369000,44.2440778,42.0608071
73,улица Крупской,369000,44.2400655,42.0588433
75,улица Крупской,369000,44.2400044,42.0599525
8,Интернациональная улица,369000,44.2382555,42.0595218
8,Октябрьская улица,369000,44.2470117,42.0589770
86,улица Крупской,369000,44.2395369,42.0593178
9,Интернациональная улица,369000,44.2387234,42.0605897
91А,Партизанская улица,369000,44.2378810,42.0594465
95,Партизанская улица,369000,44.2377347,42.0612844
28,Октябрьская улица,369000,44.2456030,42.0598553
13-13А,площадь Кирова,369000,44.2293513,42.0559547
18,улица Гагарина,369000,44.2310801,42.0460469
54А,проспект Ленина,369000,44.2242340,42.0448211
27,Линейный переулок,369000,44.2192749,42.0772551
13Г,Пятигорское шоссе,369000,44.2490594,42.0709193
50/2,проспект Ленина,369000,44.2264027,42.0461823
50/1,проспект Ленина,369000,44.2264450,42.0457054
16,улица Ворошилова,369000,44.2246630,42.0525179
3,Кооперативная улица,369000,44.2299162,42.0463333
2А,Октябрьская улица,369000,44.2499404,42.0564440
2А,Октябрьская улица,369000,44.2504797,42.0566606
2А,Октябрьская улица,369000,44.2500097,42.0573747
2А,Октябрьская улица,369000,44.2493656,42.0568893
33,Кавказская улица,369000,44.2331399,42.0507994
33,улица Лободина,369002,44.2036858,42.0423360
6,Заводской переулок,369004,44.2329360,42.0552120
5,Тупиковый переулок,369000,44.2294407,42.0562392
56,Октябрьская улица,369000,44.2404033,42.0590610
39,Зелёная улица,369000,44.2404971,42.0576644
41,Зелёная улица,369000,44.2406229,42.0578481
43,Зелёная улица,369000,44.2407676,42.0578804
45,Зелёная улица,369000,44.2409012,42.0578961
47,Зелёная улица,369000,44.2410558,42.0579494
47/2,Зелёная улица,369000,44.2411903,42.0579655
49,Зелёная улица,369000,44.2413389,42.0579317
51А,Зелёная улица,369000,44.2415604,42.0580672
51,Зелёная улица,369000,44.2414559,42.0579941
35,Зелёная улица,369000,44.2400692,42.0577615
23Б,Октябрьская улица,369003,44.2408449,42.0623223
21А,Октябрьская улица,369003,44.2409242,42.0615009
128,4,369000,44.2249963,42.0438513
124,4,369000,44.2251737,42.0438843
29,Московская улица,369004,44.2332394,42.0586350
12,Зелёная улица,369000,44.2368305,42.0569933
14,Зелёная улица,369000,44.2370534,42.0570557
16,Зелёная улица,369000,44.2371647,42.0570863
18,Зелёная улица,369000,44.2373158,42.0570996
33,Зелёная улица,369000,44.2396709,42.0576016
29,Зелёная улица,369000,44.2391443,42.0574035
31,Зелёная улица,369000,44.2393108,42.0573069
31,Зелёная улица,369000,44.2394383,42.0574261
84,улица Крупской,369000,44.2396987,42.0580742
32,Зелёная улица,369000,44.2389348,42.0577428
34,Зелёная улица,369000,44.2390978,42.0577933
40,Зелёная улица,369000,44.2392408,42.0578242
42,Зелёная улица,369000,44.2393960,42.0578539
19,Зелёная улица,369000,44.2382980,42.0572049
27,Зелёная улица,369000,44.2388555,42.0573480
30,Зелёная улица,369000,44.2387789,42.0577167
26,Зелёная улица,369000,44.2384074,42.0576371
28,Зелёная улица,369000,44.2386018,42.0576808
25,Зелёная улица,369000,44.2387143,42.0573350
23,Зелёная улица,369000,44.2385829,42.0573063
21,Зелёная улица,369000,44.2384450,42.0572425
24,Зелёная улица,369000,44.2381599,42.0575784
17,Зелёная улица,369000,44.2381633,42.0571963
15,Зелёная улица,369000,44.2380011,42.0571482
11,Зелёная улица,369000,44.2375152,42.0567872
13,Зелёная улица,369000,44.2377088,42.0568169
27,Интернациональная улица,369000,44.2364729,42.0603803
25,Интернациональная улица,369000,44.2366112,42.0603227
25,Интернациональная улица,369000,44.2367409,42.0602341
23,Интернациональная улица,369000,44.2368834,42.0601660
21,Интернациональная улица,369000,44.2369912,42.0601701
21,Интернациональная улица,369000,44.2370882,42.0602009
105/2,Партизанская улица,369000,44.2376381,42.0630318
105А/1,Партизанская улица,369000,44.2379427,42.0629200
75,Зелёная улица,369000,44.2433140,42.0586876
77,Зелёная улица,369000,44.2434210,42.0586963
79,Зелёная улица,369000,44.2435560,42.0583957
81,Зелёная улица,369000,44.2436582,42.0587029
83,Зелёная улица,369000,44.2438488,42.0586922
85,Зелёная улица,369000,44.2439836,42.0587589
87,Зелёная улица,369000,44.2446320,42.0582499
89,Зелёная улица,369000,44.2449782,42.0582191
91,Зелёная улица,369000,44.2450931,42.0582150
45,Зелёная улица,369000,44.2450374,42.0588223
35,улица Космонавтов,369000,44.1963643,42.0446261
27Г,Октябрьская улица,369003,44.2405027,42.0621682
20,улица Гутякулова,369009,44.2473205,42.0423298
27А,Октябрьская улица,369003,44.2402419,42.0616103
27,Октябрьская улица,369003,44.2404666,42.0614547
62А,улица Свободы,369009,44.2539541,42.0534552
