House number,Street name,Postal code,Latitude,Longitude
12 к7,улица Карла Маркса,450077,54.7255085,55.9414494
32,улица Заки Валиди,450074,54.7205918,55.9316881
47,улица Кирова,450077,54.7291298,55.9633544
41,Российская улица,450104,54.7789741,56.0368797
41,Российская улица,450104,54.7790908,56.0369268
43,Российская улица,450104,54.7777786,56.0363567
43,Российская улица,450104,54.7781486,56.0365281
19,Вологодская улица,450068,54.8112722,56.1295082
171/3,улица Менделеева,450000,54.7203972,56.0035499
173,улица Менделеева,450080,54.7201032,56.0083759
177,улица Менделеева,450080,54.7207201,56.0092784
14,улица Степана Кувыкина,450092,54.7041617,55.9979898
10/1,улица Мубарякова,450092,54.6955859,55.9967126
12,улица Рабкоров,450092,54.7029017,55.9979685
2 к1,Армянская улица,450095,54.6856833,55.8127836
2,Армянская улица,450095,54.6856123,55.8129548
15/1,улица Юрия Гагарина,450099,54.7664489,56.0562782
23,улица Степана Кувыкина,450106,54.7052788,55.9971150
35,улица Якуба Коласа,450095,54.6950299,55.8091322
18,Майкопская улица,450095,54.6930274,55.8101901
18,Майкопская улица,450095,54.6928910,55.8099434
12,Владивостокская улица,450078,54.7346122,55.9858833
15,Владивостокская улица,450078,54.7329071,55.9857304
2,Армянская улица,450095,54.6855108,55.8131430
52,улица Софьи Перовской,450074,54.6977378,55.9910081
3,улица Мустая Карима,450077,54.7274894,55.9439600
41,Российская улица,450104,54.7792962,56.0371306
43,Российская улица,450104,54.7784674,56.0366800
26,проспект Салавата Юлаева,450022,54.7211521,55.9830616
24,проспект Салавата Юлаева,450022,54.7206068,55.9820751
60,проспект Салавата Юлаева,450071,54.7516363,56.0209070
19,улица Ферина,450039,54.7816747,56.1319193
205А,улица Менделеева,450071,54.7417259,56.0271454
24,улица Блюхера,450075,54.7814657,56.0282999
2В,Оренбургская улица,450002,54.7404505,55.9777431
133А,Интернациональная улица,450038,54.8030382,56.1100410
133А,Интернациональная улица,450038,54.8029835,56.1088745
14,улица Максима Рыльского,450105,54.7682706,56.0700573
4/2Е,проспект Октября,450001,54.7404383,55.9883743
205А,улица Менделеева,450071,54.7417744,56.0264329
205А,улица Менделеева,450071,54.7412945,56.0275397
5,Кировоградская улица,450001,54.7458742,55.9757441
19,улица Ферина,450039,54.7815765,56.1319222
14,улица Рабкоров,450092,54.7028084,55.9985980
14,улица Рабкоров,450092,54.7027787,55.9987957
8/1,улица Рабкоров,450106,54.7032409,55.9932558
23,улица Степана Кувыкина,450106,54.7053740,55.9970625
1/2,проспект Октября,450001,54.7398469,55.9825691
4,улица Энтузиастов,450096,54.7560976,56.0209896
4,улица Мира,450064,54.8128416,56.0587908
6,Нежинская улица,450064,54.8159670,56.0667800
6,Нежинская улица,450064,54.8158832,56.0668039
6,Нежинская улица,450064,54.8158693,56.0667598
73/1,улица Чернышевского,450077,54.7293591,55.9449385
41 к1,улица 50 лет СССР,450071,54.7491464,56.0213931
7,улица Крупской,450077,54.7267876,55.9501610
1,улица Заки Валиди,450076,54.7221704,55.9276220
205А,улица Менделеева,450071,54.7412609,56.0270796
64/1,Бакалинская улица,450022,54.7197994,55.9897840
27,Бакалинская улица,450022,54.7169349,55.9838350
22,Айская улица,450078,54.7180568,55.9796682
99,улица Пархоменко,450005,54.7349834,55.9641709
3,Архитектурная улица,450112,54.8177847,56.0786995
3,Архитектурная улица,450112,54.8178475,56.0787523
19,Бакалинская улица,450047,54.7179153,55.9893919
19,Бакалинская улица,450047,54.7181231,55.9895533
225,улица Ахметова,450017,54.7805264,55.8882200
275,улица Ахметова,450017,54.7825510,55.8869175
205А,улица Менделеева,450071,54.7416577,56.0268418
46,проспект Октября,450009,54.7526340,56.0020145
97,проспект Октября,450075,54.7794378,56.0303109
97,проспект Октября,450104,54.7794621,56.0304062
97,проспект Октября,450104,54.7792718,56.0302299
71В,проспект Октября,450054,54.7662659,56.0178317
62,улица Рихарда Зорге,450054,54.7671728,56.0109640
62,улица Рихарда Зорге,450054,54.7671334,56.0109438
105/1,проспект Октября,450075,54.7819021,56.0315538
105/3,проспект Октября,450075,54.7814267,56.0305478
127,улица Мингажева,450005,54.7354374,55.9708093
119,проспект Октября,450075,54.7881361,56.0345425
1,бульвар Давлеткильдеева,450098,54.7669172,56.0295898
47,проспект Салавата Юлаева,450078,54.7234025,55.9832012
7,улица Гафури,450076,54.7211881,55.9249159
72 к1,улица Гоголя,450015,54.7310912,55.9412510
8,Сочинская улица,450103,54.7085022,55.9675503
8/1,Сочинская улица,450103,54.7075603,55.9666739
9,улица Заки Валиди,450076,54.7217845,55.9321598
7,улица Аксакова,450076,54.7219642,55.9323534
9,улица Заки Валиди,450076,54.7218545,55.9320448
9,улица Заки Валиди,450076,54.7218725,55.9319294
9,улица Заки Валиди,450076,54.7218788,55.9318891
54/1,улица Пушкина,450076,54.7227777,55.9300957
54/1,улица Пушкина,450076,54.7228236,55.9301175
54/1,улица Пушкина,450076,54.7230723,55.9302356
6,улица Гафури,450076,54.7240404,55.9285295
51,улица Свердлова,450076,54.7269743,55.9315838
19,Коммунистическая улица,450076,54.7288573,55.9320173
19,Коммунистическая улица,450076,54.7288206,55.9322428
19,Коммунистическая улица,450076,54.7288323,55.9324993
19,Коммунистическая улица,450076,54.7288648,55.9325491
25/1,улица Гафури,450076,54.7271636,55.9277714
38,улица Свердлова,450076,54.7271747,55.9261713
49,улица Ульяновых,450112,54.8226311,56.0787250
46/1,Транспортная улица,450043,54.7805444,56.1187490
10 к26,улица имени Фронтовых Бригад,450043,54.7734054,56.1245321
6,улица Гафури,450076,54.7242939,55.9286496
205А,улица Менделеева,450071,54.7411880,56.0265709
45А,Сарапульская улица,450018,54.6996912,55.9510650
9 к2,улица Набережная реки Уфы,450073,54.7589630,56.0598497
3/4,улица Набережная реки Уфы,450073,54.7624511,56.0515936
21/4,улица им. города Галле,450059,54.7476767,55.9892978
21,Чебоксарская улица,450095,54.6835340,55.8030300
65/15,улица Ульяновых,450103,54.7044334,55.9756317
23,улица Софьи Перовской,450092,54.6958070,55.9980262
15,Комсомольская улица,450001,54.7406654,55.9928843
50Б,Центральная улица,450095,54.6917744,55.8182125
2,улица Глинки,450039,54.7855968,56.1288006
20,улица Энтузиастов,450099,54.7566855,56.0339230
2,улица Ферина,450030,54.7886113,56.1289559
14,улица Ферина,450039,54.7822449,56.1304774
5,улица Дмитрия Донского,450065,54.8256841,56.0905987
53,улица Деревенская Переправа,450003,54.7459418,55.9140883
3,улица Чудинова,450075,54.7965176,56.0342549
10,Глумилинская улица,450098,54.7743041,56.0384313
3,улица Академика Ураксина,450103,54.7028200,55.9801178
114А,улица Менделеева,450106,54.7117292,55.9916986
4/1,проспект Октября,450001,54.7408523,55.9868827
51,Черниковская улица,450068,54.8081669,56.1173628
29/1,улица Бессонова,450097,54.7402870,55.9991810
205А,улица Менделеева,450071,54.7415428,56.0274389
205А,улица Менделеева,450071,54.7415450,56.0272220
221,Революционная улица,450078,54.7311786,55.9891289
109,Коммунистическая улица,450077,54.7202103,55.9638511
8,улица 50 лет СССР,450059,54.7575748,55.9996096
3,улица Лётчика Кобелева,450043,54.7790843,56.1346064
33,улица Ферина,450043,54.7772445,56.1319131
205А,улица Менделеева,450071,54.7413412,56.0269529
106,улица Достоевского,450077,54.7317396,55.9608770
16,улица Георгия Мушникова,450039,54.7778482,56.1157807
2,улица Новосёлов,450039,54.7837104,56.1237249
2,улица Новосёлов,450039,54.7837462,56.1233478
14,проспект Октября,450001,54.7455363,55.9929303
19/2,бульвар Хадии Давлетшиной,450097,54.7339493,55.9956864
205А,улица Менделеева,450071,54.7412220,56.0269153
21,улица Набережная реки Уфы,450099,54.7620271,56.0708976
106,улица Достоевского,450077,54.7316361,55.9614012
52/2,улица Софьи Перовской,450074,54.6965146,55.9906523
4/4,улица Маршала Жукова,450099,54.7660599,56.0506444
133,проспект Октября,450075,54.7932156,56.0369111
9,бульвар Баландина,450043,54.7808366,56.1285905
205А,улица Менделеева,450071,54.7415239,56.0275698
35,улица Рихарда Зорге,450059,54.7580248,55.9950146
205А,улица Менделеева,450071,54.7414330,56.0267060
11/1,улица Максима Рыльского,450105,54.7707054,56.0721642
42/3,улица 50 лет СССР,450071,54.7476981,56.0217777
42/1,улица 50 лет СССР,450071,54.7471168,56.0220458
205А,улица Менделеева,450071,54.7413939,56.0269690
299,улица Ахметова,450017,54.7899390,55.8793026
205А,улица Менделеева,450071,54.7416679,56.0275697
9/8,Бакалинская улица,450047,54.7163453,55.9931589
49/1,улица Лесотехникума,450071,54.7517717,56.0290841
137,улица Менделеева,450106,54.7135578,55.9932514
6,улица Минигали Губайдуллина,450022,54.7205313,56.0012856
205А,улица Менделеева,450071,54.7411725,56.0263199
205А,улица Менделеева,450071,54.7417732,56.0275965
205А,улица Менделеева,450071,54.7417825,56.0269207
201/1,улица Ахметова,450017,54.7754861,55.8917368
201/1,улица Ахметова,450017,54.7754587,55.8917485
217,Менделеева улица,450071,54.7492731,56.0306384
2А,улица Чудинова,450075,54.7952792,56.0302343
205А,улица Менделеева,450071,54.7413821,56.0275344
4,Ул.Архитектора Калимуллина,450095,54.6975557,55.8611828
61,Глазовская улица,450095,54.6914194,55.8371142
23Б,улица Менделеева,450106,54.7115937,55.9878074
23,улица Менделеева,450103,54.7117389,55.9886195
23,улица Менделеева,450103,54.7118164,55.9888218
23,улица Менделеева,450103,54.7118431,55.9882343
205А,улица Менделеева,450071,54.7418073,56.0274570
176,Рубежная улица,450018,54.6783939,55.9302320
205А,улица Менделеева,450071,54.7411179,56.0274807
205А,улица Менделеева,450071,54.7411780,56.0274888
97,проспект Октября,450075,54.7793624,56.0302728
97,проспект Октября,450075,54.7795819,56.0303637
211/2,Менделеева улица,450071,54.7460580,56.0290769
40/1а,Большая Шерстомойная улица,450003,54.7429612,55.9254393
24,Кавказская улица,450103,54.7081508,55.9787513
26,Кавказская улица,450103,54.7086031,55.9794871
26,Кавказская улица,450103,54.7085790,55.9794375
205А,улица Менделеева,450071,54.7419079,56.0265291
4,улица Аксакова,450076,54.7192451,55.9302011
52/2,Транспортная улица,450039,54.7831236,56.1182274
44,Транспортная улица,450043,54.7795164,56.1184506
4,улица 50-летия Октября,450005,54.7352376,55.9616164
73/1,проспект Октября,450096,54.7627246,56.0093241
50,улица Рихарда Зорге,450083,54.7615177,56.0015626
113,Комсомольская улица,450054,54.7575641,56.0110496
40/2,улица Рихарда Зорге,450059,54.7572779,55.9972336
12,улица Карла Маркса,450077,54.7249412,55.9426986
12/1,улица Рихарда Зорге,450059,54.7493963,55.9881981
17/1,улица Набережная реки Уфы,450073,54.7608948,56.0638484
38/2,улица Баязита Бикбая,450073,54.7613352,56.0641729
15,улица Набережная реки Уфы,450073,54.7608031,56.0626983
17,улица Набережная реки Уфы,450073,54.7603927,56.0635226
19,улица Набережная реки Уфы,450073,54.7605147,56.0647792
15/1,улица Набережная реки Уфы,450073,54.7613558,56.0629488
47/1,набережная реки Уфы,450105,54.7715497,56.0829351
36,улица Юрия Гагарина,450105,54.7644337,56.0672874
12 к8,улица Карла Маркса,450077,54.7260845,55.9423014
12 к3,улица Карла Маркса,450077,54.7233508,55.9412870
12 к8,улица Карла Маркса,450077,54.7262718,55.9423566
12 к3,улица Карла Маркса,450077,54.7234904,55.9421843
12 к4,улица Карла Маркса,450077,54.7235371,55.9404433
12 к2,улица Карла Маркса,450077,54.7240467,55.9418630
12 к3,улица Карла Маркса,450077,54.7230782,55.9419544
12 к5,улица Карла Маркса,450077,54.7240950,55.9405038
106,Российская улица,450098,54.7684862,56.0266850
114/1,проспект Октября,450098,54.7693417,56.0248595
106/2,проспект Октября,450098,54.7668973,56.0218950
114/2,проспект Октября,450098,54.7689955,56.0256875
114,проспект Октября,450098,54.7698518,56.0244019
114/3,проспект Октября,450098,54.7693182,56.0260658
126/6,проспект Октября,450098,54.7735933,56.0298806
108,проспект Октября,450098,54.7681596,56.0216394
112/1,проспект Октября,450098,54.7687871,56.0236270
106,проспект Октября,450098,54.7674004,56.0206876
110,проспект Октября,450098,54.7689392,56.0226232
106/3,проспект Октября,450098,54.7666624,56.0225001
106/1,проспект Октября,450098,54.7671541,56.0213029
107,Революционная улица,450005,54.7339987,55.9648943
131,Революционная улица,450005,54.7333325,55.9693149
108,улица Пархоменко,450005,54.7356101,55.9650895
109,Революционная улица,450005,54.7338072,55.9661119
12,улица 50-летия Октября,450005,54.7359426,55.9660242
7,улица 50-летия Октября,450005,54.7361023,55.9625920
106/1,улица Пархоменко,450005,54.7350353,55.9658612
99,Революционная улица,450005,54.7343616,55.9627404
99,улица Пархоменко,450005,54.7351364,55.9641684
121,улица Мингажева,450005,54.7336657,55.9700432
97,улица Пархоменко,450005,54.7343795,55.9637177
97/99,Революционная улица,450005,54.7344482,55.9621116
97,Революционная улица,450005,54.7345771,55.9613989
9,улица 50-летия Октября,450005,54.7362955,55.9631246
106,улица Пархоменко,450005,54.7351029,55.9648737
129,Революционная улица,450005,54.7335057,55.9681094
104,улица Пархоменко,450005,54.7345221,55.9646038
5,улица 50-летия Октября,450005,54.7359085,55.9613986
28,улица Ферина,450043,54.7753555,56.1304011
14/1,проспект Октября,450001,54.7446666,55.9927746
137/2,Комсомольская улица,450054,54.7606109,56.0143497
135,Комсомольская улица,450054,54.7595743,56.0141672
84/3,проспект Октября,450054,54.7646872,56.0187624
86/3,проспект Октября,450054,54.7636404,56.0198136
74,проспект Октября,450054,54.7621362,56.0139961
70/2,проспект Октября,450054,54.7604602,56.0134025
153/1,Комсомольская улица,450054,54.7620602,56.0197871
80/2,проспект Октября,450054,54.7625947,56.0183804
86/1,проспект Октября,450054,54.7650810,56.0192480
74/2,проспект Октября,450054,54.7615652,56.0165225
92/1,проспект Октября,450054,54.7651075,56.0215620
84,проспект Октября,450054,54.7647814,56.0173611
84/1,проспект Октября,450054,54.7639104,56.0177498
92,проспект Октября,450054,54.7656937,56.0208891
82/3,проспект Октября,450054,54.7632848,56.0193194
86/2,проспект Октября,450054,54.7639750,56.0203041
82,проспект Октября,450054,54.7639097,56.0162733
137/1,Комсомольская улица,450054,54.7600987,56.0138001
72,проспект Октября,450054,54.7613552,56.0132512
82/1,проспект Октября,450054,54.7635125,56.0172647
149/2,Комсомольская улица,450054,54.7620557,56.0178752
86,проспект Октября,450054,54.7653845,56.0182373
90,проспект Октября,450054,54.7661104,56.0199122
82/2,проспект Октября,450054,54.7629419,56.0188759
88/1,проспект Октября,450054,54.7654674,56.0197270
78,проспект Октября,450054,54.7629924,56.0151070
80/1,проспект Октября,450054,54.7631384,56.0167995
92/2,проспект Октября,450054,54.7643854,56.0210866
84/2,проспект Октября,450054,54.7643042,56.0182620
45/6,улица Рихарда Зорге,450059,54.7621114,55.9993152
49,улица Рихарда Зорге,450083,54.7629561,56.0010365
6/3,Парковая улица,450083,54.7611730,55.9945723
4А,улица Левченко,450001,54.7420329,55.9852961
9,проспект Октября,450001,54.7423120,55.9870310
3,Привокзальная площадь,450015,54.7485552,55.9483658
17,улица Рихарда Зорге,450059,54.7524198,55.9868691
4/3,проспект Октября,450001,54.7409731,55.9891808
5/1,улица Братьев Кадомцевых,450059,54.7527023,55.9919324
123/1,улица Мингажева,450005,54.7345145,55.9694358
101,улица Достоевского,450005,54.7322408,55.9615405
111/1,Революционная улица,450005,54.7343694,55.9673753
89,улица Достоевского,450005,54.7327985,55.9585257
14,улица 50-летия Октября,450005,54.7355292,55.9671514
93,улица Пархоменко,450005,54.7330495,55.9623138
127/1,улица Мингажева,450005,54.7357046,55.9698724
111,улица Достоевского,450005,54.7314245,55.9655501
125/2,улица Мингажева,450005,54.7350182,55.9694703
96/1,улица Пархоменко,450005,54.7328439,55.9656158
125,улица Мингажева,450005,54.7350155,55.9702958
58,Революционная улица,450005,54.7336361,55.9617310
100/102,улица Цюрупы,450005,54.7335562,55.9577920
106/2,улица Пархоменко,450005,54.7347989,55.9668389
129,улица Мингажева,450005,54.7363131,55.9712656
97,улица Достоевского,450005,54.7325035,55.9585854
95,улица Пархоменко,450005,54.7334898,55.9633879
125/1,улица Мингажева,450005,54.7353368,55.9689724
94/1,улица Пархоменко,450005,54.7319173,55.9650089
121А,улица Мингажева,450005,54.7339550,55.9688163
6/8,улица 50-летия Октября,450005,54.7354628,55.9632363
52,Революционная улица,450005,54.7342012,55.9588930
123,улица Мингажева,450005,54.7343313,55.9703558
20/1,улица 50-летия Октября,450005,54.7363682,55.9704108
127,улица Мингажева,450005,54.7356554,55.9709610
102,улица Цюрупы,450005,54.7339270,55.9579684
99,улица Достоевского,450005,54.7322238,55.9603202
60,Революционная улица,450005,54.7338482,55.9626115
66,Революционная улица,450005,54.7333318,55.9658482
111,Революционная улица,450005,54.7339714,55.9672101
98,улица Цюрупы,450005,54.7327151,55.9575730
14,улица 50-летия Октября,450005,54.7361488,55.9672154
100/1,улица Цюрупы,450005,54.7333783,55.9586793
100,улица Цюрупы,450005,54.7331628,55.9575994
31/33,Кустарная улица,450005,54.7322922,55.9662247
18,улица 50-летия Октября,450005,54.7364388,55.9689993
96/98,улица Пархоменко,450005,54.7333508,55.9643240
56,Революционная улица,450005,54.7340734,55.9610986
103,улица Достоевского,450005,54.7321495,55.9622046
111/2,Революционная улица,450005,54.7348015,55.9677011
84/94,улица Пархоменко,450005,54.7325067,55.9641589
16/1,улица 50-летия Октября,450005,54.7351440,55.9679000
20,улица 50-летия Октября,450005,54.7366713,55.9706262
121/2,улица Мингажева,450005,54.7345711,55.9682995
109,улица Достоевского,450005,54.7315358,55.9645913
89А,улица Достоевского,450005,54.7326873,55.9589991
35/37,Кустарная улица,450005,54.7328347,55.9664724
121/3,улица Мингажева,450005,54.7341054,55.9682050
99А,улица Пархоменко,450005,54.7351634,55.9635670
27/29,Кустарная улица,450005,54.7318474,55.9659709
97/1,улица Достоевского,450005,54.7331363,55.9596684
16,улица 50-летия Октября,450005,54.7362754,55.9680993
107,улица Достоевского,450005,54.7317604,55.9636497
104/1,улица Пархоменко,450005,54.7344329,55.9659455
105,улица Достоевского,450005,54.7320564,55.9628473
54,Революционная улица,450005,54.7339726,55.9601169
24,улица 50-летия Октября,450078,54.7371176,55.9769991
165,Революционная улица,450005,54.7329437,55.9717828
156,улица Мингажева,450005,54.7335478,55.9710990
163,Революционная улица,450005,54.7331249,55.9710829
167А,Революционная улица,450005,54.7327740,55.9743900
158,улица Мингажева,450005,54.7340913,55.9713807
167/1,Революционная улица,450005,54.7330999,55.9734176
173,Революционная улица,450005,54.7320123,55.9782864
167,Революционная улица,450005,54.7327150,55.9732056
167/2,Революционная улица,450005,54.7336387,55.9726805
167/3,Революционная улица,450005,54.7337197,55.9740589
171,Революционная улица,450005,54.7325795,55.9769342
110,улица Достоевского,450077,54.7312541,55.9638002
20,улица Ленина,450077,54.7236496,55.9468129
110/1,улица Достоевского,450073,54.7308504,55.9634517
45,улица Кирова,450077,54.7296617,55.9618817
156/1,Революционная улица,450078,54.7297644,55.9867414
91,улица Кирова,450078,54.7282924,55.9740655
4/1,бульвар Тюлькина,450098,54.7682436,56.0351170
108,Российская улица,450098,54.7678839,56.0286182
105/3,проспект Октября,450075,54.7811208,56.0304176
93/1,проспект Октября,450104,54.7781322,56.0291227
20/1,улица Блюхера,450075,54.7806803,56.0269039
18/1,улица Блюхера,450075,54.7804414,56.0259525
93,проспект Октября,450104,54.7780027,56.0299191
99,проспект Октября,450104,54.7797842,56.0306063
24,улица Блюхера,450075,54.7813907,56.0284030
87/5,проспект Октября,450104,54.7757771,56.0281686
89,проспект Октября,450104,54.7762462,56.0290516
93/2,проспект Октября,450104,54.7782295,56.0284715
107/1,проспект Октября,450075,54.7836585,56.0314750
115/2,проспект Октября,450075,54.7870371,56.0322411
4,Уфимское шоссе,450104,54.7806309,56.0389484
9,Зеленогорская улица,450104,54.7760210,56.0465232
12,бульвар Славы,450075,54.7900523,56.0319939
115/3,проспект Октября,450075,54.7872029,56.0313017
43/5,Российская улица,450104,54.7770145,56.0397059
2/1,улица Николая Кузнецова,450075,54.7853848,56.0303699
7,улица Блюхера,450075,54.7869897,56.0284548
17,улица Блюхера,450075,54.7903025,56.0305310
19,улица Блюхера,450075,54.7912644,56.0309810
17,Зеленогорская улица,450104,54.7779208,56.0470663
79/2,проспект Октября,450075,54.7740561,56.0232046
2,улица Николая Кузнецова,450075,54.7857743,56.0303126
13,Зеленогорская улица,450104,54.7768487,56.0467717
41/4,Российская улица,450104,54.7786396,56.0388116
47,Российская улица,450104,54.7765302,56.0374108
43,Российская улица,450104,54.7780202,56.0365245
25/2,Уфимское шоссе,450104,54.7862181,56.0472330
26/3,улица Шота Руставели,450081,54.7910087,56.0483863
91/3,проспект Октября,450104,54.7775100,56.0285238
79/1,проспект Октября,450075,54.7732534,56.0216427
78/1,проспект Октября,450054,54.7625685,56.0157483
108/1,проспект Октября,450098,54.7673312,56.0230691
137,Комсомольская улица,450054,54.7599504,56.0149333
84/4,проспект Октября,450054,54.7639591,56.0193609
112/4,проспект Октября,450098,54.7681092,56.0248847
74/1,проспект Октября,450054,54.7616159,56.0146412
112/2,проспект Октября,450098,54.7681497,56.0239279
75,улица Цюрупы,450077,54.7282150,55.9540115
78/1,улица Цюрупы,450077,54.7285569,55.9564976
102,улица Ленина,450006,54.7383609,55.9544835
55,Революционная улица,450006,54.7356326,55.9550064
37,улица Запотоцкого,450015,54.7418527,55.9457183
86,улица Цюрупы,450005,54.7326503,55.9573265
43,Революционная улица,450015,54.7362447,55.9505262
3,улица Минигали Губайдуллина,450080,54.7180351,56.0039194
21,улица Минигали Губайдуллина,450022,54.7222012,55.9943279
6,Баргузинская улица,450022,54.7206364,55.9970248
15,улица Степана Злобина,450022,54.7207953,55.9979466
17,улица Минигали Губайдуллина,450022,54.7214975,55.9964105
17/1,улица Минигали Губайдуллина,450022,54.7210903,55.9964238
6,улица Степана Злобина,450022,54.7179812,55.9956813
22/1А,улица Степана Злобина,450022,54.7187801,55.9981091
24,проспект Салавата Юлаева,450022,54.7205671,55.9816582
19,улица Минигали Губайдуллина,450022,54.7220772,55.9953530
137 к1,улица Менделеева,450022,54.7140438,55.9929736
114/2,улица Менделеева,450106,54.7108097,55.9922572
22/2,улица Рабкоров,450092,54.7003171,56.0040099
23/1,улица Софьи Перовской,450092,54.6957719,55.9996738
14,улица Мубарякова,450092,54.6978906,55.9989151
20/1,улица Мубарякова,450092,54.6992041,56.0019713
21/4,улица Софьи Перовской,450092,54.6968413,55.9991524
21/3,улица Софьи Перовской,450092,54.6963578,55.9995993
21/2,улица Софьи Перовской,450092,54.6962619,55.9989727
19/2,улица Софьи Перовской,450092,54.6964351,55.9972975
19,улица Степана Кувыкина,450106,54.7029143,55.9960420
15/1,улица Софьи Перовской,450103,54.6995574,55.9903256
21,улица Софьи Перовской,450092,54.6960050,55.9976779
10/1,улица Академика Королёва,450105,54.7746220,56.0744900
1,Привокзальная площадь,450015,54.7475166,55.9475900
39,Вокзальная улица,450015,54.7465128,55.9453088
39А,Вокзальная улица,450015,54.7466131,55.9460228
14,улица Авроры,450092,54.7037992,56.0082405
14,улица Авроры,450092,54.7040307,56.0093418
205А,улица Менделеева,450071,54.7414231,56.0269762
92,улица Лесотехникума,450071,54.7514788,56.0271604
227,улица Менделеева,450071,54.7529654,56.0311377
225,улица Менделеева,450071,54.7524235,56.0309663
47,улица Лесотехникума,450071,54.7526795,56.0274825
229,улица Менделеева,450071,54.7534115,56.0312306
169/3,Революционная улица,450005,54.7337808,55.9756483
12,улица 8 Марта,450005,54.7358515,55.9763789
13,улица Рихарда Зорге,450059,54.7512387,55.9860587
19/4,улица Рихарда Зорге,450059,54.7541357,55.9830440
15/2,Заводская улица,450001,54.7382891,55.9937159
89,проспект Салавата Юлаева,450071,54.7500704,56.0144840
1/1,Уфимское шоссе,450104,54.7819473,56.0390562
51,улица Свердлова,450076,54.7272926,55.9316131
199,Кольцевая улица,450068,54.8142431,56.1294959
27/1,Вологодская улица,450068,54.8149387,56.1284000
27А,Вологодская улица,450068,54.8145083,56.1277678
195,Кольцевая улица,450068,54.8138031,56.1280289
203/2,Кольцевая улица,450068,54.8140118,56.1313114
197,Кольцевая улица,450068,54.8137465,56.1289298
62А,улица Рихарда Зорге,450054,54.7657908,56.0101526
16,улица Карла Маркса,450077,54.7281570,55.9423635
19,улица Мустая Карима,450008,54.7302100,55.9451004
5,улица Мустая Карима,450077,54.7278529,55.9441552
55/2 к1,улица Карла Маркса,450015,54.7327368,55.9422761
51/1,улица Карла Маркса,450015,54.7313619,55.9416296
45 к1,Коммунистическая улица,450077,54.7274406,55.9425643
18/2,улица Карла Маркса,450077,54.7279634,55.9434574
11,улица Мустая Карима,450077,54.7283388,55.9446144
55к2,улица Карла Маркса,450015,54.7318758,55.9419662
2к5,улица Шафиева,450083,54.7644700,55.9925889
2,улица Шафиева,450083,54.7659856,55.9927936
37,улица Запотоцкого,450015,54.7423025,55.9449463
7,улица Подвойского,450015,54.7399147,55.9430009
91,улица Аксакова,450076,54.7320051,55.9370788
45,улица Аксакова,450076,54.7247795,55.9328093
70,улица Зенцова,450076,54.7325065,55.9349170
39/2,Революционная улица,450015,54.7370328,55.9478638
132 к3,улица Достоевского,450005,54.7297218,55.9662520
19,улица 50-летия Октября,450006,54.7380415,55.9711229
132 к8,улица Достоевского,450005,54.7299473,55.9681415
13/1,улица 50-летия Октября,450005,54.7374128,55.9679567
132 к4,улица Достоевского,450005,54.7292799,55.9673355
102,Айская улица,450078,54.7272564,55.9736300
132 к6,улица Достоевского,450005,54.7300704,55.9659128
132 к13,улица Достоевского,450005,54.7304661,55.9680435
132 к2,улица Достоевского,450005,54.7295785,55.9656183
41,Борисоглебская улица,450068,54.8125340,56.1200752
14,улица Ленина,450077,54.7219650,55.9467074
108,улица Чернышевского,450077,54.7273305,55.9547965
3А к2,улица Октябрьской Революции,450077,54.7231344,55.9483577
3А к1,улица Октябрьской Революции,450077,54.7238958,55.9474266
76,улица Цюрупы,450077,54.7281666,55.9559110
3А к3,улица Октябрьской Революции,450077,54.7242460,55.9487377
3А к2,улица Октябрьской Революции,450077,54.7234015,55.9489113
20/2,улица Ленина,450077,54.7235749,55.9471947
202/1,Кольцевая улица,450068,54.8131793,56.1327804
14,Советская улица,450008,54.7201455,55.9469988
8,улица Цюрупы,450008,54.7178865,55.9496747
24/1,Госпитальная улица,450076,54.7307134,55.9286045
34,Лесопильная улица,450076,54.7307696,55.9281588
24,улица Султанова,450076,54.7306190,55.9273642
16/1,улица Мустая Карима,450052,54.7292992,55.9477973
21/2,улица Гафури,450076,54.7259945,55.9279109
22А,улица Чернышевского,450076,54.7317710,55.9276512
79,улица Гоголя,450076,54.7336738,55.9404762
2А,Театральная улица,450077,54.7212360,55.9424532
26А,улица Гоголя,450025,54.7223384,55.9364166
3,улица Карла Маркса,450008,54.7191639,55.9372101
26,улица Гоголя,450025,54.7221579,55.9362563
28,улица Гоголя,450025,54.7227560,55.9365401
4,улица Зайнуллы Расулева,450057,54.7135634,55.9516170
19,Коммунистическая улица,450076,54.7290494,55.9322621
19/1,Коммунистическая улица,450076,54.7294976,55.9319183
39/1,улица Свердлова,450076,54.7261300,55.9374090
2,Театральная улица,450077,54.7204534,55.9421474
24,улица Карла Маркса,450015,54.7295912,55.9433954
50,улица Тукаева,450057,54.7157859,55.9480046
34,улица Заки Валиди,450008,54.7184586,55.9405233
79,улица Пушкина,450000,54.7231834,55.9387675
4/4,улица Лётчиков,450010,54.7955261,55.8614521
19,Вологодская улица,450068,54.8114108,56.1295060
172/1,Кольцевая улица,450068,54.8101308,56.1246105
21/1,бульвар Ибрагимова,450015,54.7451919,55.9540324
14А,Новосибирская улица,450059,54.7532859,55.9755856
2,Новосибирская улица,450059,54.7524174,55.9757445
2 к1,Новосибирская улица,450059,54.7533150,55.9764932
2,Новосибирская улица,450059,54.7524273,55.9766519
84,улица Адмирала Ушакова,450068,54.8189324,56.1306898
75,улица Коммунаров,450068,54.8179037,56.1307627
51/1,улица Свободы,450065,54.8250432,56.1112379
92/1,улица Богдана Хмельницкого,450065,54.8170053,56.1198866
88/1,улица Богдана Хмельницкого,450065,54.8167798,56.1206813
114/2,улица Пушкина,450057,54.7180274,55.9549050
8,Новомостовая улица,450057,54.7175548,55.9540590
74,улица Адмирала Ушакова,450068,54.8139441,56.1342503
72,улица Адмирала Ушакова,450068,54.8130324,56.1348110
70,улица Адмирала Ушакова,450068,54.8123315,56.1344230
70/1,улица Адмирала Ушакова,450068,54.8124211,56.1333994
68,улица Адмирала Ушакова,450068,54.8122815,56.1354660
19/3,Вологодская улица,450068,54.8117489,56.1324308
69,улица Коммунаров,450068,54.8172102,56.1271103
125,улица Богдана Хмельницкого,450065,54.8185321,56.1188837
126/1а,улица Богдана Хмельницкого,450065,54.8192049,56.1182564
123,улица Богдана Хмельницкого,450065,54.8182640,56.1205586
127/1,улица Богдана Хмельницкого,450065,54.8197595,56.1177337
9/1,Зеленогорская улица,450104,54.7767733,56.0454467
134/7,улица Менделеева,450022,54.7162996,56.0081423
134А,улица Менделеева,450092,54.7138894,56.0067292
7,Вологодская улица,450068,54.8086542,56.1315352
7,бульвар Плеханова,450068,54.8087391,56.1346717
3,бульвар Плеханова,450068,54.8085512,56.1333425
9,Вологодская улица,450068,54.8089952,56.1311843
1,бульвар Плеханова,450068,54.8084619,56.1323491
5,бульвар Плеханова,450068,54.8091102,56.1334056
4,улица Машиностроителей,450038,54.8046122,56.1129506
129,улица Богдана Хмельницкого,450065,54.8193395,56.1163498
66,Вологодская улица,450065,54.8198967,56.1188918
49/1,улица Богдана Хмельницкого,450068,54.8094915,56.1280644
68,Вологодская улица,450065,54.8204870,56.1180183
64,Вологодская улица,450065,54.8196354,56.1208281
179,Кольцевая улица,450068,54.8119505,56.1206086
61,Кремлёвская улица,450065,54.8190534,56.1140802
47/2,улица Свободы,450065,54.8242148,56.1102983
139,Вологодская улица,450065,54.8231561,56.1104879
53,улица Свободы,450065,54.8251722,56.1124811
146,Вологодская улица,450065,54.8231860,56.1085935
144,Вологодская улица,450065,54.8229756,56.1092795
242,улица Димитрова,450065,54.8254690,56.1118844
142,Вологодская улица,450065,54.8228402,56.1098138
39,улица Свободы,450065,54.8226976,56.1103414
47/1,улица Свободы,450065,54.8243448,56.1109033
141/1,Вологодская улица,450065,54.8241094,56.1097442
51/2,улица Свободы,450065,54.8248437,56.1106812
133,улица Богдана Хмельницкого,450065,54.8200111,56.1137483
76/1,Вологодская улица,450065,54.8208585,56.1146570
131,улица Богдана Хмельницкого,450065,54.8195481,56.1155701
76,Вологодская улица,450065,54.8213936,56.1150642
78,Вологодская улица,450065,54.8218198,56.1135702
134,улица Богдана Хмельницкого,450065,54.8198226,56.1103410
61/3,Кремлёвская улица,450065,54.8193915,56.1128645
132,улица Богдана Хмельницкого,450065,54.8198734,56.1110898
128,улица Богдана Хмельницкого,450065,54.8197036,56.1116962
65 к1,Кремлёвская улица,450065,54.8197790,56.1147074
127,улица Богдана Хмельницкого,450065,54.8191264,56.1170914
143/1,улица Богдана Хмельницкого,450065,54.8203552,56.1142030
126,улица Богдана Хмельницкого,450065,54.8195443,56.1122580
135,улица Богдана Хмельницкого,450065,54.8204009,56.1121758
159,Интернациональная улица,450068,54.8009379,56.1218600
31,Уссурийская улица,450068,54.8038449,56.1296206
10,улица Вострецова,450068,54.8023706,56.1259881
187/3,Интернациональная улица,450068,54.8034292,56.1316805
1,улица Вострецова,450068,54.8009484,56.1246873
8,улица Карима Хакимова,450068,54.8026838,56.1179896
50/1,Черниковская улица,450068,54.8062933,56.1261597
179/1,Интернациональная улица,450068,54.8013781,56.1311274
10,улица Орджоникидзе,450068,54.8037714,56.1175570
9,улица Орджоникидзе,450068,54.8052632,56.1243463
4/1,улица Вострецова,450068,54.8009654,56.1272521
7,улица Вострецова,450068,54.8022871,56.1252744
187/1,Интернациональная улица,450068,54.8032950,56.1335453
5,улица Вострецова,450068,54.8017168,56.1247534
14/1,улица Вострецова,450068,54.8037307,56.1271228
189,Интернациональная улица,450068,54.8024189,56.1356153
13/1,улица Орджоникидзе,450068,54.8062218,56.1253086
173/1,Интернациональная улица,450068,54.8010067,56.1293826
26,улица Орджоникидзе,450068,54.8046406,56.1261579
8/1,улица Вострецова,450068,54.8017790,56.1273343
24,Вологодская улица,450068,54.8065594,56.1311569
181/1,Интернациональная улица,450068,54.8016739,56.1320949
193/1,Интернациональная улица,450068,54.8032968,56.1348546
161,Интернациональная улица,450068,54.8014592,56.1228303
8,улица Вострецова,450068,54.8018579,56.1262747
179/3,Интернациональная улица,450068,54.8020400,56.1304335
2,улица Карима Хакимова,450068,54.8013395,56.1174272
26/2,улица Орджоникидзе,450068,54.8042001,56.1271497
4,улица Вострецова,450068,54.8010584,56.1261867
16,улица Орджоникидзе,450068,54.8033947,56.1195907
11,улица Орджоникидзе,450068,54.8053966,56.1250154
171/1,Интернациональная улица,450068,54.8009991,56.1287968
155,Интернациональная улица,450068,54.8010535,56.1205460
181/2,Интернациональная улица,450068,54.8020582,56.1316642
6,улица Карима Хакимова,450068,54.8020371,56.1179945
15,улица Орджоникидзе,450068,54.8056231,56.1271893
187/2,Интернациональная улица,450068,54.8030416,56.1328295
3,улица Вострецова,450068,54.8013262,56.1247132
6,улица Богдана Хмельницкого,450068,54.8023943,56.1322633
193,Интернациональная улица,450068,54.8030921,56.1355332
32/1,улица Орджоникидзе,450068,54.8046735,56.1301287
12,улица Вострецова,450068,54.8030539,56.1261935
7,улица Орджоникидзе,450068,54.8051499,56.1237101
6/1,улица Вострецова,450068,54.8013731,56.1272957
28,Вологодская улица,450068,54.8077387,56.1303352
14,улица Вострецова,450068,54.8041102,56.1260231
12,улица Орджоникидзе,450068,54.8036567,56.1182331
13,улица Орджоникидзе,450068,54.8055013,56.1257262
163,Интернациональная улица,450068,54.8008191,56.1232557
175/1,Интернациональная улица,450068,54.8010224,56.1301319
8,улица Орджоникидзе,450068,54.8039091,56.1169048
185/1,Интернациональная улица,450068,54.8024548,56.1329310
153,Интернациональная улица,450068,54.8011221,56.1189586
26,Вологодская улица,450068,54.8072175,56.1306356
181/3,Интернациональная улица,450068,54.8023314,56.1313659
9,улица Вострецова,450068,54.8030515,56.1251540
193/2,Интернациональная улица,450068,54.8034989,56.1341904
167,Интернациональная улица,450068,54.8006939,56.1259610
36,улица Орджоникидзе,450068,54.8053508,56.1319552
4 к1,улица Орджоникидзе,450068,54.8035314,56.1152151
26/1,улица Орджоникидзе,450068,54.8044615,56.1267395
179/2,Интернациональная улица,450068,54.8017524,56.1307003
4,улица Карима Хакимова,450068,54.8016883,56.1177079
6,улица Вострецова,450068,54.8014520,56.1262279
19,Вологодская улица,450068,54.8061295,56.1296928
10,улица Богдана Хмельницкого,450068,54.8027043,56.1318522
14,улица Орджоникидзе,450068,54.8035251,56.1188855
5,улица Орджоникидзе,450068,54.8050254,56.1230711
64/2,улица Адмирала Ушакова,450068,54.8115043,56.1340396
60,улица Адмирала Ушакова,450068,54.8107209,56.1366862
62/1,улица Адмирала Ушакова,450068,54.8108045,56.1345654
15/2,Вологодская улица,450068,54.8108384,56.1330537
64/1,улица Адмирала Ушакова,450068,54.8116583,56.1347833
62,улица Адмирала Ушакова,450068,54.8107126,56.1356204
64,улица Адмирала Ушакова,450068,54.8114251,56.1360040
69/3,проспект Октября,450054,54.7662095,56.0118540
72,улица Рихарда Зорге,450075,54.7702674,56.0145772
69,проспект Октября,450054,54.7653277,56.0153281
69/2,проспект Октября,450054,54.7660003,56.0114296
70,улица Рихарда Зорге,450075,54.7693214,56.0138814
156/1,Комсомольская улица,450098,54.7648989,56.0291299
61/2,Кремлёвская улица,450065,54.8182656,56.1134289
59/2,Кремлёвская улица,450065,54.8188997,56.1131673
128,Кольцевая улица,450038,54.8141999,56.1043144
43,Первомайская улица,450112,54.8149157,56.0858087
45,Первомайская улица,450112,54.8144137,56.0871622
43,Кольцевая улица,450112,54.8231178,56.0700952
22,улица Калинина,450112,54.8178069,56.0835988
1,улица 40 лет Октября,450112,54.8170528,56.0861527
1,улица 40 лет Октября,450112,54.8175152,56.0870581
21,улица Победы,450112,54.8172068,56.0845765
129/1,Интернациональная улица,450038,54.8063559,56.1086746
129/2,Интернациональная улица,450038,54.8061646,56.1094055
92/1,Первомайская улица,450038,54.8069325,56.1089946
96,Первомайская улица,450038,54.8068542,56.1099253
131/1,Интернациональная улица,450038,54.8049262,56.1100395
133,Интернациональная улица,450038,54.8053613,56.1098892
135,Интернациональная улица,450038,54.8052248,56.1110884
125/1,Интернациональная улица,450038,54.8059349,56.1075362
9,улица Машиностроителей,450038,54.8054583,56.1121011
127/1,Интернациональная улица,450038,54.8065730,56.1079877
131,Интернациональная улица,450038,54.8054331,56.1087465
100,Первомайская улица,450038,54.8062535,56.1122433
129,Интернациональная улица,450038,54.8054761,56.1074513
9/1,улица Машиностроителей,450038,54.8060584,56.1108468
153/1,Интернациональная улица,450068,54.8017695,56.1194344
47,улица Чернышевского,450076,54.7310416,55.9349016
14/1,улица Адмирала Макарова,450081,54.7921620,56.0531821
14,улица Адмирала Макарова,450081,54.7921640,56.0542714
12/2,улица 8 Марта,450005,54.7354869,55.9754897
12/1,улица 8 Марта,450005,54.7351526,55.9757034
54/1 к1,улица Свободы,450065,54.8290890,56.1201085
83,улица Дмитрия Донского,450065,54.8222960,56.1066698
84/1 к5,улица Свободы,450065,54.8292834,56.1256105
107/3,Вологодская улица,450065,54.8206421,56.1199925
29,улица Свободы,450065,54.8208552,56.1076386
4,Пекинская улица,450065,54.8157057,56.1061891
38/1,улица Свободы,450065,54.8169870,56.1081028
8,Пекинская улица,450065,54.8154027,56.1071904
14В,Пекинская улица,450065,54.8144132,56.1084580
10,Пекинская улица,450065,54.8152793,56.1077048
34,улица Свободы,450065,54.8153927,56.1050884
14Б,Пекинская улица,450065,54.8144274,56.1089693
149А,Кольцевая улица,450038,54.8140983,56.1084812
137,Кольцевая улица,450065,54.8147347,56.1052411
6,Пекинская улица,450065,54.8155424,56.1067132
12,Пекинская улица,450065,54.8150185,56.1082913
14А,Пекинская улица,450065,54.8146584,56.1081380
145А,Кольцевая улица,450038,54.8142282,56.1080142
30/1,Борисоглебская улица,450068,54.8138388,56.1176891
30,Борисоглебская улица,450068,54.8139774,56.1184000
30/2,Борисоглебская улица,450068,54.8136921,56.1169344
11А,улица Авроры,450092,54.6987034,56.0072223
11,бульвар Плеханова,450068,54.8093677,56.1365495
56,улица Адмирала Ушакова,450068,54.8098043,56.1371965
11/1,бульвар Плеханова,450068,54.8097235,56.1361003
9,бульвар Плеханова,450068,54.8098944,56.1354882
13,бульвар Плеханова,450068,54.8092128,56.1371943
9/1,бульвар Плеханова,450068,54.8089969,56.1358948
2,улица Адмирала Ушакова,450068,54.8089520,56.1387460
32,Вологодская улица,450068,54.8096367,56.1292256
32/1,Вологодская улица,450068,54.8093617,56.1293570
141,Интернациональная улица,450068,54.8034722,56.1134207
139,Интернациональная улица,450068,54.8037611,56.1128582
5,улица Карима Хакимова,450068,54.8022331,56.1162645
147,Интернациональная улица,450068,54.8018881,56.1150885
149,Интернациональная улица,450068,54.8015513,56.1157225
4/1,улица Машиностроителей,450038,54.8039944,56.1136403
145,Интернациональная улица,450068,54.8021406,56.1148400
143,Интернациональная улица,450068,54.8025027,56.1142515
3,улица Карима Хакимова,450068,54.8018903,56.1159787
52,улица Коммунаров,450068,54.8148745,56.1199105
15/1,Заводская улица,450097,54.7380370,55.9955019
23,улица Бабушкина,450001,54.7439394,55.9856801
35А к6,Малая Гражданская улица,450059,54.7506569,55.9795919
5,улица Рихарда Зорге,450059,54.7483487,55.9827295
3А к4,Гурьевская улица,450022,54.7134904,55.9844283
3А литА,Гурьевская улица,450022,54.7127847,55.9836784
3А к35,Гурьевская улица,450022,54.7131664,55.9841487
3В,Гурьевская улица,450022,54.7130628,55.9881277
3А к13/2,Гурьевская улица,450022,54.7131698,55.9856234
3А к28,Гурьевская улица,450022,54.7139904,55.9837766
3А к45,Гурьевская улица,450022,54.7128699,55.9870136
37/3,бульвар Ибрагимова,450006,54.7435489,55.9601027
92Б,Индустриальное шоссе,450027,54.8013055,56.0964455
15/1,Трамвайная улица,450027,54.7996810,56.0945282
21,Трамвайная улица,450027,54.7997515,56.0980125
42/2,Индустриальное шоссе,450027,54.8029275,56.0960277
19,Трамвайная улица,450027,54.7998880,56.0967522
162А,улица Менделеева,450071,54.7496831,56.0326855
162,улица Менделеева,450071,54.7500230,56.0330666
4Б к1,Владивостокская улица,450078,54.7278951,55.9894686
14/2,улица Минигали Губайдуллина,450022,54.7234664,55.9944031
8/2,улица Минигали Губайдуллина,450080,54.7232933,55.9956996
5/3,улица Гали Ибрагимова,450080,54.7257451,55.9967185
5/2,улица Гали Ибрагимова,450080,54.7261772,55.9982259
7,улица Карима Хакимова,450068,54.8025612,56.1167368
18/2,улица Орджоникидзе,450068,54.8024947,56.1205455
7А,улица Карима Хакимова,450068,54.8029943,56.1170437
8/1,улица Карима Хакимова,450068,54.8025201,56.1190772
7/1,улица Карима Хакимова,450068,54.8033588,56.1161263
18/1,улица Орджоникидзе,450068,54.8031625,56.1202326
141/1,Интернациональная улица,450038,54.8031043,56.1139477
46,Айская улица,450078,54.7254402,55.9776194
128А,улица Кирова,450078,54.7249018,55.9827389
128/1,улица Кирова,450078,54.7242433,55.9807682
6/1,проспект Октября,450001,54.7426684,55.9907064
16/1,улица Загира Исмагилова,450103,54.6984708,55.9820534
1/9,Самаркандская улица,450049,54.7831923,56.0608915
88В,улица Новожёнова,450049,54.7864468,56.0618683
51,улица Маршала Жукова,450049,54.7850781,56.0737504
3/1,Самаркандская улица,450049,54.7825180,56.0611328
1/2,Самаркандская улица,450049,54.7829881,56.0623046
11,улица Новожёнова,450049,54.7840114,56.0699910
14,улица Загира Исмагилова,450103,54.6978514,55.9820536
11,улица Софьи Перовской,450103,54.6992898,55.9861777
11,улица Софьи Перовской,450103,54.6995283,55.9862074
3А к19,Гурьевская улица,450022,54.7151133,55.9873257
3А к15,Гурьевская улица,450022,54.7143968,55.9858670
3А к17,Гурьевская улица,450022,54.7153050,55.9846598
3А к55,Гурьевская улица,450022,54.7139935,55.9860558
3А к16,Гурьевская улица,450022,54.7145638,55.9858506
3А к6,Гурьевская улица,450022,54.7151666,55.9843287
3А к8,Гурьевская улица,450022,54.7155233,55.9853098
3,улица Ферина,450039,54.7855625,56.1318704
14,улица Ферина,450039,54.7826733,56.1303485
19/3,улица Ферина,450039,54.7813958,56.1347605
15/1,улица Ферина,450039,54.7829033,56.1320300
2,улица Ферина,450030,54.7885783,56.1311368
13/1,улица Ферина,450039,54.7829110,56.1342396
4А,улица Глинки,450039,54.7858251,56.1260638
5,улица Глинки,450039,54.7869281,56.1293314
37,Сельская Богородская улица,450039,54.7877037,56.1336065
24,улица Ферина,450043,54.7773234,56.1304179
6,Петрозаводская улица,450030,54.7961484,56.1421464
4,Петрозаводская улица,450030,54.7961556,56.1409084
10,Петрозаводская улица,450030,54.7961322,56.1438923
12,Петрозаводская улица,450030,54.7961062,56.1445638
2,Петрозаводская улица,450030,54.7960997,56.1399081
6А,Петрозаводская улица,450030,54.7953528,56.1417645
8,Петрозаводская улица,450030,54.7960749,56.1430408
3А к40,Гурьевская улица,450022,54.7161901,55.9867522
3А к9,Гурьевская улица,450022,54.7159243,55.9853939
3А к22,Гурьевская улица,450022,54.7134358,55.9873539
3А к5,Гурьевская улица,450022,54.7147595,55.9838307
3А к25,Гурьевская улица,450022,54.7148018,55.9822580
3А к11,Гурьевская улица,450022,54.7147736,55.9859343
3А,Гурьевская улица,450022,54.7135780,55.9881682
3А/1,Гурьевская улица,450022,54.7149164,55.9862726
3А к2А,Гурьевская улица,450022,54.7143326,55.9834639
3А к30,Гурьевская улица,450022,54.7152054,55.9867359
3А к31,Гурьевская улица,450022,54.7150342,55.9856457
3А к14,Гурьевская улица,450022,54.7138530,55.9847651
3А к18,Гурьевская улица,450022,54.7136094,55.9854205
42,улица Софьи Перовской,450103,54.6985085,55.9857763
42,улица Софьи Перовской,450103,54.6986060,55.9853163
44,улица Софьи Перовской,450103,54.6980406,55.9864051
46,улица Софьи Перовской,450103,54.6978581,55.9875116
46,улица Софьи Перовской,450103,54.6983108,55.9877024
50,улица Софьи Перовской,450103,54.6974949,55.9896653
48,улица Софьи Перовской,450103,54.6976706,55.9885749
50,улица Софьи Перовской,450103,54.6979432,55.9898912
42/1,улица Софьи Перовской,450103,54.6978522,55.9853839
42/2,улица Софьи Перовской,450103,54.6971925,55.9849707
42/2,улица Софьи Перовской,450103,54.6972415,55.9848284
44/2,улица Софьи Перовской,450103,54.6969900,55.9859236
10,улица Загира Исмагилова,450103,54.6965759,55.9841779
44/3,улица Софьи Перовской,450103,54.6964255,55.9852197
48/1,улица Софьи Перовской,450103,54.6966934,55.9878736
48/2,улица Софьи Перовской,450103,54.6961898,55.9871422
6/1,улица Загира Исмагилова,450103,54.6956821,55.9864433
1,улица Загира Исмагилова,450074,54.6939441,55.9873769
6,улица Зайнаб Биишевой,450103,54.6953037,55.9830189
4,улица Зайнаб Биишевой,450103,54.6948327,55.9833439
9,улица Зайнаб Биишевой,450103,54.6959225,55.9832361
5,улица Загира Исмагилова,450103,54.6953173,55.9847436
7,улица Загира Исмагилова,450103,54.6955861,55.9839235
3,улица Загира Исмагилова,450103,54.6948081,55.9851507
5,улица Загира Исмагилова,450103,54.6951140,55.9843729
2/2,улица Загира Исмагилова,450103,54.6957328,55.9881553
2/1,улица Загира Исмагилова,450103,54.6955679,55.9885265
50/3,улица Софьи Перовской,450103,54.6962922,55.9885966
55/2,улица Софьи Перовской,450103,54.6961838,55.9889882
13/1,улица Софьи Перовской,450103,54.6999999,55.9888391
13Б,улица Софьи Перовской,450103,54.6991293,55.9887854
13В,улица Софьи Перовской,450103,54.6993036,55.9892126
13А,улица Софьи Перовской,450103,54.6990264,55.9883071
13,улица Софьи Перовской,450103,54.6990703,55.9877700
13Г,улица Софьи Перовской,450103,54.6995981,55.9894126
13/4,улица Софьи Перовской,450103,54.7011697,55.9895217
13/4,улица Софьи Перовской,450103,54.7012190,55.9900958
13/5,улица Софьи Перовской,450103,54.7015104,55.9887217
13/3,улица Софьи Перовской,450103,54.7015820,55.9880893
2,улица Загира Исмагилова,450103,54.6948119,55.9880904
6,улица Загира Исмагилова,450103,54.6953876,55.9855612
8,улица Загира Исмагилова,450103,54.6959172,55.9846695
52/2,улица Софьи Перовской,450074,54.6963001,55.9910545
11/3,улица Софьи Перовской,450103,54.7009874,55.9864531
43,Сочинская улица,450103,54.7055200,55.9743249
8,Сочинская улица,450103,54.7082521,55.9679337
2/1,улица Муксинова,450103,54.6925645,55.9950731
1,проспект Октября,450001,54.7403157,55.9845439
16,улица Загира Исмагилова,450103,54.6982823,55.9810868
54,улица Софьи Перовской,450074,54.6971789,55.9921812
1Б,Армавирская улица,450103,54.6963514,55.9899521
11/2,улица Софьи Перовской,450103,54.7002873,55.9860341
11/1,улица Софьи Перовской,450103,54.7001848,55.9862876
2,улица Ферина,450039,54.7795258,56.1793380
1,улица Космонавтов,450062,54.8184946,56.0585901
9,улица Космонавтов,450044,54.8190685,56.0642327
18,улица Ульяновых,450112,54.8142453,56.0722881
5/1,улица Конституции,450044,54.8238291,56.0667824
1,улица Конституции,450064,54.8249320,56.0652042
69,улица Дмитрия Донского,450065,54.8228334,56.1042715
65,улица Дмитрия Донского,450065,54.8234078,56.1021738
21/1,улица Победы,450112,54.8172603,56.0837881
67,улица Дмитрия Донского,450065,54.8229377,56.1035507
69А,улица Дмитрия Донского,450065,54.8230103,56.1053464
2,улица Огарёва,450081,54.7891621,56.0613195
2,Трамвайная улица,450026,54.7967116,56.0607043
2 к1,улица Огарёва,450081,54.7902131,56.0615758
18,Бородинская улица,450074,54.6863336,55.9856770
66,Кремлёвская улица,450035,54.8185176,56.1146344
86,Первомайская улица,450038,54.8080417,56.1062345
141,Вологодская улица,450065,54.8235072,56.1097308
250,улица Димитрова,450065,54.8251245,56.1087487
43А,Первомайская улица,450112,54.8150040,56.0871094
4,улица Свободы,450061,54.8082392,56.0991407
25,Черниковская улица,450038,54.8116583,56.1070201
127,Интернациональная улица,450038,54.8058297,56.1062767
31,Борисоглебская улица,450068,54.8147732,56.1186997
113,Интернациональная улица,450061,54.8077799,56.0993738
98,Первомайская улица,450038,54.8068569,56.1113795
24,Архитектурная улица,450112,54.8151438,56.0881685
125/2,Интернациональная улица,450038,54.8064143,56.1059926
244,улица Димитрова,450065,54.8255744,56.1108457
66/2,Первомайская улица,450061,54.8097145,56.0969295
29,Борисоглебская улица,450065,54.8153432,56.1184405
84,Первомайская улица,450038,54.8082831,56.1054385
90/1,Первомайская улица,450038,54.8072753,56.1078054
22,Архитектурная улица,450112,54.8156051,56.0866678
66/2,Первомайская улица,4500029,54.8098586,56.0964185
28,Борисоглебская улица,450065,54.8144265,56.1176679
68/3,Первомайская улица,450061,54.8095606,56.0974255
248,улица Димитрова,450065,54.8253347,56.1096795
92,улица Богдана Хмельницкого,450065,54.8176277,56.1198165
94,улица Богдана Хмельницкого,450065,54.8177728,56.1186551
88/1,Первомайская улица,450038,54.8076632,56.1068878
246,улица Димитрова,450065,54.8254718,56.1103389
143А,Вологодская улица,450065,54.8242204,56.1091669
125,Интернациональная улица,450038,54.8061565,56.1051380
76,Кремлёвская улица,450065,54.8205306,56.1165371
60 к2,улица Ульяновых,450112,54.8260068,56.0841700
60,улица Ульяновых,450112,54.8256014,56.0833506
76,Кремлёвская улица,450065,54.8200625,56.1160512
4,Сельская улица,450028,54.7557680,56.2414537
2,Сельская улица,450028,54.7550932,56.2409162
62,Гвардейская улица,450028,54.7559118,56.2472590
58,Гвардейская улица,450028,54.7573393,56.2451301
4,Мечетлинская улица,450028,54.7645184,56.2362070
6/2,Касимовская улица,450028,54.7546184,56.2438949
60,Гвардейская улица,450028,54.7568229,56.2463997
9,Сельская улица,450028,54.7580034,56.2339312
2 к1,Мечетлинская улица,450028,54.7649716,56.2372759
61,улица Свободы,450065,54.8312002,56.1169146
24/2,Уфимское шоссе,450104,54.7851318,56.0523015
35/1к1,улица Пушкина,450093,54.7255452,55.9245002
42,улица Пушкина,450076,54.7245070,55.9255604
12,Выгонная улица,450003,54.7413695,55.9147021
60,улица Нехаева,450003,54.7291083,55.9133640
2,Заозёрная улица,450003,54.7283693,55.9085284
10,Выгонная улица,450003,54.7416360,55.9134951
15/4,улица Деревенская Переправа,450019,54.7509364,55.9093118
3А,Элеваторная улица,450018,54.6647865,55.9415525
5,Элеваторная улица,450018,54.6656620,55.9414393
3Б,Элеваторная улица,450018,54.6657272,55.9422251
7/1,Элеваторная улица,450018,54.6653431,55.9435839
3,Элеваторная улица,450018,54.6652184,55.9420400
7,Элеваторная улица,450018,54.6659656,55.9439180
7,улица Машиностроителей,450038,54.8046388,56.1112660
16,Севастопольская улица,450032,54.8248975,56.0993857
1,Путейская улица,450065,54.8346437,56.1147601
1А,Путейская улица,450065,54.8333730,56.1142969
13Б,Инициативная улица,450036,54.8314450,56.0939738
13Б,Инициативная улица,450036,54.8311068,56.0931019
12,Инициативная улица,450065,54.8342808,56.0964780
2/2,Инициативная улица,450036,54.8313926,56.0929570
5,улица Комарова,450044,54.8195631,56.0558615
17,Стерлитамакская улица,450006,54.7520702,55.9682410
16,Стерлитамакская улица,450006,54.7519541,55.9677886
15,Стерлитамакская улица,450006,54.7522015,55.9680901
19,Стерлитамакская улица,450006,54.7518996,55.9684213
14,Стерлитамакская улица,450006,54.7521366,55.9673226
10,улица Суворова,450068,54.8026729,56.1290487
2,улица Богдана Хмельницкого,450068,54.8019482,56.1327534
10,улица Суворова,450068,54.8024719,56.1289345
14,улица Богдана Хмельницкого,450068,54.8030311,56.1313969
20,улица Богдана Хмельницкого,450068,54.8034457,56.1303713
32,Уссурийская улица,450068,54.8033144,56.1296092
30,Уссурийская улица,450068,54.8032347,56.1284756
18,улица Богдана Хмельницкого,450068,54.8034056,56.1309916
171,Интернациональная улица,450068,54.8007201,56.1284456
181/4,Интернациональная улица,450068,54.8027099,56.1303281
54,улица Коммунаров,450068,54.8152381,56.1205107
19,Алтайская улица,450076,54.7242159,55.9203258
2,проспект Октября,450001,54.7395642,55.9854292
157,улица Менделеева,450022,54.7183063,56.0055794
30 к1,Амурская улица,450078,54.7206668,55.9737140
20А,улица Рабкоров,450092,54.7021760,56.0027658
7/1,Индустриальное шоссе,450027,54.8068024,56.0865789
7,Индустриальное шоссе,450027,54.8068491,56.0876931
6,улица Машиностроителей,450038,54.8053917,56.1131319
42,Набережная улица,450103,54.7083288,55.9658425
1,улица Испытателей,450074,54.6887507,55.9856505
44,Набережная улица,450103,54.7085710,55.9657359
46,Набережная улица,450103,54.7088140,55.9654947
40,Набережная улица,450103,54.7081065,55.9659898
14/1,Дагестанская улица,450050,54.7140487,55.8378246
65,улица Заки Валиди,450057,54.7174154,55.9524777
2,Армянская улица,450095,54.6855605,55.8130525
50А,улица Тукаева,450057,54.7155321,55.9492921
10,Майкопская улица,450095,54.6936662,55.8110715
183,Интернациональная улица,450068,54.8023781,56.1344766
33,2-й Кронштадтский переулок,450092,54.7060427,56.0035877
37,2-й Кронштадтский переулок,450092,54.7062830,56.0037239
48,2-й Кронштадтский переулок,450092,54.7063469,56.0042910
43,2-й Кронштадтский переулок,450092,54.7066641,56.0038866
46,2-й Кронштадтский переулок,450092,54.7061137,56.0041327
6,Боровая улица,450030,54.8058566,56.1683927
14/2,Боровая улица,450030,54.8067899,56.1690806
13,Боровая улица,450030,54.8069562,56.1678526
8,Боровая улица,450030,54.8062355,56.1682963
55,улица Рихарда Зорге,450054,54.7648830,56.0041222
229/1,улица Менделеева,450071,54.7532093,56.0299325
1,Большая Гражданская улица,450059,54.7524517,55.9803706
10 к26,улица имени Фронтовых Бригад,450043,54.7731983,56.1245468
6/1,Сельская Богородская улица,450030,54.7901638,56.1386815
2 к1,Сельская Богородская улица,450030,54.7980002,56.1381085
9/1,улица Вострецова,450068,54.8030520,56.1244430
3,улица Орджоникидзе,450068,54.8052356,56.1214861
6/3,Кавказская улица,450103,54.7046125,55.9754686
6,улица Защитников Отечества,450007,54.7912214,55.9467405
191,Интернациональная улица,450068,54.8027327,56.1357420
132 к5,улица Достоевского,450005,54.7296080,55.9675362
167,Революционная улица,450005,54.7325555,55.9741962
169,Революционная улица,450005,54.7324744,55.9752548
169/2,Революционная улица,450005,54.7330896,55.9760783
17,Кустарная улица,450077,54.7301779,55.9646767
14,улица Ленина,450077,54.7220826,55.9460363
2,улица 50-летия Октября,450005,54.7349104,55.9604563
20,улица Ленина,450077,54.7240173,55.9468692
7,улица 50-летия Октября,450005,54.7360945,55.9618914
9,улица 50-летия Октября,450005,54.7362920,55.9638183
127/1,улица Мингажева,450005,54.7359313,55.9691601
5,улица 50-летия Октября,450005,54.7359000,55.9606675
2,улица Володарского,450001,54.7404499,55.9797980
83,улица Зенцова,450076,54.7350847,55.9354509
2,Интернациональная улица,450064,54.8098868,56.0558950
7,1-й Донбасский переулок,450095,54.6943632,55.8076897
7,1-й Донбасский переулок,450095,54.6943457,55.8075727
1,1-й Донбасский переулок,450095,54.6947718,55.8080524
12,Майкопская улица,450095,54.6935403,55.8108775
16,Майкопская улица,450095,54.6931862,55.8103857
18,Майкопская улица,450095,54.6929700,55.8100778
14,Майкопская улица,450095,54.6933217,55.8105989
11,1-й Донбасский переулок,450095,54.6941021,55.8072808
3,1-й Донбасский переулок,450095,54.6946070,55.8079001
9,1-й Донбасский переулок,450095,54.6942541,55.8074730
5,1-й Донбасский переулок,450095,54.6944960,55.8078570
13,1-й Донбасский переулок,450095,54.6939091,55.8071278
39,улица Якуба Коласа,450095,54.6948983,55.8081971
35,улица Якуба Коласа,450095,54.6949779,55.8090975
41,улица Якуба Коласа,450095,54.6948260,55.8077283
43,улица Якуба Коласа,450095,54.6947316,55.8070807
10,1-й Донбасский переулок,450095,54.6940940,55.8068209
12,1-й Донбасский переулок,450095,54.6941821,55.8065948
14,1-й Донбасский переулок,450095,54.6942770,55.8062575
16,1-й Донбасский переулок,450095,54.6943924,55.8059982
37/1,улица Якуба Коласа,450095,54.6949841,55.8087438
4,1-й Донбасский переулок,450095,54.6945807,55.8074156
45,улица Якуба Коласа,450095,54.6946987,55.8068006
47,улица Якуба Коласа,450095,54.6946335,55.8065771
49,улица Якуба Коласа,450095,54.6945891,55.8062687
51,улица Якуба Коласа,450095,54.6945073,55.8057230
6,1-й Донбасский переулок,450095,54.6943982,55.8071854
8,1-й Донбасский переулок,450095,54.6942708,55.8070218
40,улица Софьи Перовской,452074,54.6982308,55.9840312
10,Донбасская улица,450095,54.6942685,55.8082841
12,Донбасская улица,450095,54.6941271,55.8081372
14,Донбасская улица,450095,54.6940198,55.8079903
16,Донбасская улица,450095,54.6938687,55.8078127
18,Донбасская улица,450095,54.6937131,55.8076189
37/2,улица Якуба Коласа,450095,54.6949607,55.8085947
4,Донбасская улица,450095,54.6946351,55.8087667
6,Донбасская улица,450095,54.6945350,55.8086289
8,Донбасская улица,450095,54.6943948,55.8084718
10,Архангельский переулок,450095,54.6942045,55.8094020
11,Донбасская улица,450095,54.6941607,55.8087199
12,Архангельский переулок,450095,54.6939830,55.8091790
13,Донбасская улица,450095,54.6940420,55.8085514
14,Архангельский переулок,450095,54.6937889,55.8089921
15,Донбасская улица,450095,54.6938343,55.8083441
16,Архангельский переулок,450095,54.6936549,55.8087702
18,Архангельский переулок,450095,54.6935177,55.8086591
27,улица Якуба Коласа,450095,54.6946111,55.8110906
29,улица Якуба Коласа,450095,54.6947361,55.8105815
3,Донбасская улица,450095,54.6947703,55.8095492
31,улица Якуба Коласа,450095,54.6947421,55.8101082
33,улица Якуба Коласа,450095,54.6949616,55.8096454
4,Архангельский переулок,450095,54.6946197,55.8100079
5,Донбасская улица,450095,54.6946425,55.8093042
6,Архангельский переулок,450095,54.6944762,55.8098142
7,Донбасская улица,450095,54.6944462,55.8090632
8,Архангельский переулок,450095,54.6943364,55.8095747
9,Донбасская улица,450095,54.6942861,55.8088894
10,Майкопский переулок,450095,54.6939540,55.8103150
11,Архангельский переулок,450095,54.6940034,55.8096219
11,Майкопский переулок,450095,54.6937055,55.8103869
12,Майкопский переулок,450095,54.6938334,55.8100969
13,Архангельский переулок,450095,54.6938964,55.8095081
14,Майкопский переулок,450095,54.6936175,55.8099033
15,Архангельский переулок,450095,54.6937373,55.8093097
15,Майкопский переулок,450095,54.6935751,55.8102146
16,Майкопский переулок,450095,54.6935324,55.8097659
17,Архангельский переулок,450095,54.6935897,55.8091369
17,Майкопский переулок,450095,54.6933102,55.8099245
18,Майкопский переулок,450095,54.6934014,55.8096654
19,Архангельский переулок,450095,54.6934434,55.8089971
2,Майкопская улица,450095,54.6943820,55.8119089
20,Майкопский переулок,450095,54.6932683,55.8094555
23,улица Якуба Коласа,450095,54.6944460,55.8116354
25,улица Якуба Коласа,450095,54.6944927,55.8113315
3,Архангельский переулок,450095,54.6946131,55.8103620
3,Майкопский переулок,450095,54.6943456,55.8111880
4,Майкопская улица,450095,54.6941853,55.8115546
5,Архангельский переулок,450095,54.6944259,55.8101372
5,Майкопский переулок,450095,54.6941917,55.8110180
6,Майкопская улица,450095,54.6940115,55.8114200
6,Майкопский переулок,450095,54.6943231,55.8107074
7,Архангельский переулок,450095,54.6942762,55.8100107
7,Майкопский переулок,450095,54.6939600,55.8108360
8,Майкопская улица,450095,54.6938739,55.8112622
8,Майкопский переулок,450095,54.6941724,55.8103471
9,Архангельский переулок,450095,54.6941454,55.8098557
9,Майкопский переулок,450095,54.6938583,55.8105693
1,Донбасская улица,450095,54.6949031,55.8095811
1,Майкопская улица,450095,54.6942539,55.8122916
11,улица Якуба Коласа,450095,54.6939568,55.8137245
13,улица Якуба Коласа,450095,54.6940421,55.8134500
15,улица Якуба Коласа,450095,54.6940930,55.8130365
3,улица Якуба Коласа,450095,54.6936327,55.8150047
5,улица Якуба Коласа,450095,54.6937181,55.8146591
7,улица Якуба Коласа,450095,54.6937602,55.8144291
9,улица Якуба Коласа,450095,54.6938468,55.8141497
10,Чебоксарская улица,450095,54.6928519,55.8144135
12,Чебоксарская улица,450095,54.6926449,55.8141001
14,Чебоксарская улица,450095,54.6923922,55.8137951
16,Чебоксарская улица,450095,54.6922592,55.8135730
18,Чебоксарская улица,450095,54.6921133,55.8133601
2,Чебоксарская улица,450095,54.6935632,55.8153688
20,Чебоксарская улица,450095,54.6919757,55.8131683
22,Чебоксарская улица,450095,54.6918757,55.8130643
24,Чебоксарская улица,450095,54.6916940,55.8128277
3,переулок Якуба Коласа,450095,54.6934307,55.8147896
4,Чебоксарская улица,450095,54.6933735,55.8150913
5,переулок Якуба Коласа,450095,54.6930648,55.8143835
6,Чебоксарская улица,450095,54.6932657,55.8149846
7,переулок Якуба Коласа,450095,54.6929538,55.8141770
8,Чебоксарская улица,450095,54.6929680,55.8146689
9,переулок Якуба Коласа,450095,54.6927500,55.8139061
10,переулок Якуба Коласа,450095,54.6930234,55.8138896
12,переулок Якуба Коласа,450095,54.6928764,55.8137174
14,переулок Якуба Коласа,450095,54.6926597,55.8134479
16,переулок Якуба Коласа,450095,54.6925844,55.8133132
18,переулок Якуба Коласа,450095,54.6923700,55.8130691
20,переулок Якуба Коласа,450095,54.6923029,55.8129801
22,переулок Якуба Коласа,450095,54.6920971,55.8127550
24,переулок Якуба Коласа,450095,54.6919496,55.8125559
26,переулок Якуба Коласа,450095,54.6917967,55.8123487
4,переулок Якуба Коласа,450095,54.6934618,55.8142986
6,переулок Якуба Коласа,450095,54.6933365,55.8142497
8,переулок Якуба Коласа,450095,54.6932013,55.8140354
35,улица Черняховского,450095,54.6936290,55.8138649
37,улица Черняховского,450095,54.6935426,55.8137504
39,улица Черняховского,450095,54.6933781,55.8135676
41,улица Черняховского,450095,54.6931622,55.8132989
43,улица Черняховского,450095,54.6930859,55.8132082
45,улица Черняховского,450095,54.6928810,55.8129665
47,улица Черняховского,450095,54.6927817,55.8128457
48,улица Черняховского,450095,54.6936993,55.8134054
49,улица Черняховского,450095,54.6925612,55.8126071
50,улица Черняховского,450095,54.6935064,55.8131563
51,улица Черняховского,450095,54.6924934,55.8124832
57,улица Черняховского,450095,54.6919753,55.8118647
52,улица Черняховского,450095,54.6933845,55.8129644
53,улица Черняховского,450095,54.6922771,55.8122434
54,улица Черняховского,450095,54.6931852,55.8127014
55,улица Черняховского,450095,54.6921699,55.8121234
56,улица Черняховского,450095,54.6929852,55.8126082
58,улица Черняховского,450095,54.6929381,55.8124445
60,улица Черняховского,450095,54.6927261,55.8122353
62,улица Черняховского,450095,54.6926293,55.8120914
64,улица Черняховского,450095,54.6924745,55.8118869
66,улица Черняховского,450095,54.6923479,55.8117295
68,улица Черняховского,450095,54.6921627,55.8114702
10,переулок Черняховского,450095,54.6936661,55.8122618
13,переулок Черняховского,450095,54.6929483,55.8118140
12,переулок Черняховского,450095,54.6935304,55.8119751
13,Майкопская улица,450095,54.6933480,55.8112457
15,переулок Черняховского,450095,54.6928271,55.8116598
14,переулок Черняховского,450095,54.6933871,55.8119215
15,Майкопская улица,450095,54.6932038,55.8110130
16,переулок Черняховского,450095,54.6932230,55.8116867
17,Майкопская улица,450095,54.6929854,55.8107172
18,переулок Черняховского,450095,54.6930150,55.8114293
20,переулок Черняховского,450095,54.6928512,55.8112067
3,Майкопская улица,450095,54.6940979,55.8120919
3,переулок Черняховского,450095,54.6936960,55.8127281
4,переулок Черняховского,450095,54.6938802,55.8129175
5,Майкопская улица,450095,54.6939644,55.8119461
5,переулок Черняховского,450095,54.6935393,55.8126089
6,переулок Черняховского,450095,54.6939840,55.8125894
7,Майкопская улица,450095,54.6938470,55.8117802
9,переулок Черняховского,450095,54.6931964,55.8121821
8,переулок Черняховского,450095,54.6937928,55.8123930
9,Майкопская улица,450095,54.6936301,55.8115509
11,переулок Черняховского,450095,54.6930766,55.8120507
34,Кировоградская улица,450001,54.7470902,55.9726747
36/2,Кировоградская улица,450001,54.7474847,55.9741331
87,улица Правды,450095,54.6954063,55.8125226
10,Архангельская улица,450095,54.6918473,55.8108034
12,Архангельская улица,450095,54.6920025,55.8105056
14,Архангельская улица,450095,54.6921091,55.8101347
17,переулок Черняховского,450095,54.6926170,55.8114615
19,Майкопская улица,450095,54.6928533,55.8106157
19,переулок Черняховского,450095,54.6924906,55.8112913
21,Майкопская улица,450095,54.6926829,55.8103794
21,переулок Черняховского,450095,54.6923165,55.8111081
22,переулок Черняховского,450095,54.6926803,55.8110764
23,Майкопская улица,450095,54.6925990,55.8102930
23,переулок Черняховского,450095,54.6921749,55.8108526
24,переулок Черняховского,450095,54.6925211,55.8108673
26,переулок Черняховского,450095,54.6924231,55.8107553
27,Майкопская улица,450095,54.6921991,55.8098093
28,переулок Черняховского,450095,54.6922271,55.8105551
15,Архангельская улица,450095,54.6919180,55.8094938
7,переулок Черняховского,450095,54.6933995,55.8123777
70,улица Черняховского,450095,54.6919727,55.8113293
72,улица Черняховского,450095,54.6917581,55.8110876
31,Южная улица,450104,54.7738232,56.0403791
35,Кольская улица,450104,54.7743611,56.0405018
41,Южная улица,450104,54.7744369,56.0397146
45,Кольская улица,450104,54.7750142,56.0396782
43,Южная улица,450104,54.7745874,56.0395079
31,Кольская улица,450104,54.7741604,56.0407581
45,Южная улица,450104,54.7746493,56.0393356
29,Кольская улица,450104,54.7740476,56.0409119
27,Кольская улица,450104,54.7738835,56.0411090
33,Южная улица,450104,54.7739251,56.0403124
39,Южная улица,450104,54.7742917,56.0397720
47,Южная улица,450104,54.7747807,56.0391782
43,Кольская улица,450104,54.7748521,56.0398657
41,Кольская улица,450104,54.7747875,56.0400039
37,Южная улица,450104,54.7741613,56.0399524
37,Кольская улица,450104,54.7744910,56.0404491
82А,Комсомольская улица,450037,54.7485140,56.0027466
82,Комсомольская улица,450037,54.7486461,56.0025754
3,Вишерская улица,450037,54.7484651,56.0030259
12,Владивостокская улица,450078,54.7336356,55.9865561
2,улица Джалиля Киекбаева,450078,54.7357492,55.9876306
6,бульвар Хадии Давлетшиной,450001,54.7377740,55.9877508
26,Чебоксарская улица,450095,54.6914855,55.8125880
26А,переулок Якуба Коласа,450095,54.6916513,55.8121670
28,Чебоксарская улица,450095,54.6913589,55.8123456
4,Архангельская улица,450095,54.6914543,55.8119272
59,улица Черняховского,450095,54.6918464,55.8117177
61,улица Черняховского,450095,54.6915677,55.8116337
29,Мелеузовская улица,450069,54.7683754,56.2233296
31,Мелеузовская улица,450069,54.7679036,56.2235101
11,Архангельская улица,450095,54.6917042,55.8100579
13,Чебоксарский переулок,450095,54.6910448,55.8095697
15,Чебоксарский переулок,450095,54.6908519,55.8092985
17,Чебоксарский переулок,450095,54.6906928,55.8091539
18,Чебоксарский переулок,450095,54.6910904,55.8091142
19,Чебоксарский переулок,450095,54.6905786,55.8090176
20,Чебоксарский переулок,450095,54.6909730,55.8089724
21,Чебоксарский переулок,450095,54.6904114,55.8087562
22,Чебоксарский переулок,450095,54.6906965,55.8086553
23,Чебоксарский переулок,450095,54.6902957,55.8086505
24,Чебоксарский переулок,450095,54.6905985,55.8085385
25,Чебоксарский переулок,450095,54.6901462,55.8084753
26,Чебоксарский переулок,450095,54.6904522,55.8083689
27,Чебоксарский переулок,450095,54.6899726,55.8082528
28,Чебоксарский переулок,450095,54.6903075,55.8082019
3,2-й Донбасский переулок,450095,54.6906482,55.8110355
3,Архангельская улица,450095,54.6911404,55.8114015
30,Чебоксарский переулок,450095,54.6901548,55.8080212
32,Чебоксарская улица,450095,54.6909591,55.8117419
32,Чебоксарский переулок,450095,54.6899619,55.8078098
34,Чебоксарская улица,450095,54.6907518,55.8115607
34,Чебоксарский переулок,450095,54.6897915,55.8080239
36,Чебоксарская улица,450095,54.6905736,55.8112763
38,Чебоксарская улица,450095,54.6903363,55.8109530
4,2-й Донбасский переулок,450095,54.6908895,55.8111143
40,Чебоксарская улица,450095,54.6902257,55.8108141
42,Чебоксарская улица,450095,54.6901114,55.8106569
44,Чебоксарская улица,450095,54.6900118,55.8105192
46,Чебоксарская улица,450095,54.6898350,55.8102746
48,Чебоксарская улица,450095,54.6897134,55.8101431
5,2-й Донбасский переулок,450095,54.6907372,55.8107917
5,Архангельская улица,450095,54.6912464,55.8110973
50,Чебоксарская улица,450095,54.6895801,55.8099672
52,Чебоксарская улица,450095,54.6894291,55.8097252
54,Чебоксарская улица,450095,54.6892835,55.8095139
56,Чебоксарская улица,450095,54.6891758,55.8093818
58,Чебоксарская улица,450095,54.6889733,55.8091147
6,2-й Донбасский переулок,450095,54.6909963,55.8108271
60,Чебоксарская улица,450095,54.6888570,55.8088470
62,Чебоксарская улица,450095,54.6886751,55.8087254
69,улица Черняховского,450095,54.6908484,55.8105238
7,Архангельская улица,450095,54.6914568,55.8106832
73,улица Черняховского,450095,54.6904665,55.8101128
75,улица Черняховского,450095,54.6903494,55.8100125
78,улица Черняховского,450095,54.6909907,55.8101447
79,улица Черняховского,450095,54.6902312,55.8098788
8,2-й Донбасский переулок,450095,54.6911498,55.8103512
80,улица Черняховского,450095,54.6908645,55.8099893
81,улица Черняховского,450095,54.6901232,55.8098169
82,улица Черняховского,450095,54.6907122,55.8098045
83,улица Черняховского,450095,54.6899913,55.8095936
84,улица Черняховского,450095,54.6905678,55.8096333
85,улица Черняховского,450095,54.6898924,55.8094717
86,улица Черняховского,450095,54.6904178,55.8094544
87,улица Черняховского,450095,54.6897845,55.8093046
88,улица Черняховского,450095,54.6902109,55.8092027
89,улица Черняховского,450095,54.6896344,55.8091630
8А,2-й Донбасский переулок,450095,54.6913894,55.8099756
9,Архангельская улица,450095,54.6915651,55.8103703
90,улица Черняховского,450095,54.6901154,55.8091004
91,улица Черняховского,450095,54.6895366,55.8090193
92,улица Черняховского,450095,54.6899699,55.8089253
93,улица Черняховского,450095,54.6893809,55.8088502
94,улица Черняховского,450095,54.6897585,55.8086775
95,улица Черняховского,450095,54.6892422,55.8086988
95,улица Черняховского,450095,54.6891081,55.8085316
96,улица Черняховского,450095,54.6896107,55.8084908
97,улица Черняховского,450095,54.6889759,55.8083831
98,улица Черняховского,450095,54.6892919,55.8080890
1,Илишевская улица,450095,54.6927168,55.8027371
10,Илишевская улица,450095,54.6919876,55.8029222
12,Илишевская улица,450095,54.6918342,55.8031122
14,Илишевская улица,450095,54.6917421,55.8032470
15,2-й Донбасский переулок,450095,54.6929635,55.8051198
16,Илишевская улица,450095,54.6915556,55.8034373
17,2-й Донбасский переулок,450095,54.6930678,55.8048727
18,Илишевская улица,450095,54.6914519,55.8035649
19,2-й Донбасский переулок,450095,54.6931722,55.8046086
2,Илишевская улица,450095,54.6925990,55.8023346
20,Илишевская улица,450095,54.6912061,55.8038370
22,Илишевская улица,450095,54.6910036,55.8040188
24,Илишевская улица,450095,54.6908768,55.8041853
26,Илишевская улица,450095,54.6907243,55.8043673
28,Илишевская улица,450095,54.6905989,55.8044760
30,Илишевская улица,450095,54.6903927,55.8047826
32,Илишевская улица,450095,54.6902802,55.8047993
34,Илишевская улица,450095,54.6901225,55.8050223
36,Илишевская улица,450095,54.6899795,55.8050681
38,Илишевская улица,450095,54.6898390,55.8052864
4,Илишевская улица,450095,54.6923720,55.8025796
40,Илишевская улица,450095,54.6896782,55.8055464
44,Армянская улица,450095,54.6926680,55.8044210
44А,Армянская улица,450095,54.6926651,55.8047536
46,Армянская улица,450095,54.6928417,55.8042861
48,Армянская улица,450095,54.6929870,55.8041071
6,Илишевская улица,450095,54.6922608,55.8026925
8,Илишевская улица,450095,54.6921367,55.8028238
1,Раевская улица,450095,54.6927890,55.8008342
10,Раевская улица,450095,54.6917971,55.8009200
13,Раевская улица,450095,54.6918656,55.8019349
14,Раевская улица,450095,54.6915954,55.8010975
15,Раевская улица,450095,54.6917373,55.8020650
16,Раевская улица,450095,54.6914859,55.8012691
19,Раевская улица,450095,54.6916005,55.8022543
2,Раевская улица,450095,54.6926446,55.8003162
20,Раевская улица,450095,54.6912892,55.8014082
21,Раевская улица,450095,54.6914021,55.8023638
22,Раевская улица,450095,54.6911405,55.8015412
25,Раевская улица,450095,54.6911695,55.8025947
26,Раевская улица,450095,54.6909182,55.8015975
27,Раевская улица,450095,54.6910567,55.8027101
28,Раевская улица,450095,54.6908104,55.8019112
29,Раевская улица,450095,54.6908771,55.8026598
30,Раевская улица,450095,54.6906479,55.8020324
30А,Раевская улица,450095,54.6904359,55.8023460
30Б,Раевская улица,450095,54.6899964,55.8027249
31,Раевская улица,450095,54.6907403,55.8032248
32,Раевская улица,450095,54.6903145,55.8018578
33,Раевская улица,450095,54.6905522,55.8034616
34,Раевская улица,450095,54.6901537,55.8019762
35,Раевская улица,450095,54.6904171,55.8036035
36,Раевская улица,450095,54.6899638,55.8021419
37,Раевская улица,450095,54.6902615,55.8037544
38,Раевская улица,450095,54.6898561,55.8022632
39,Раевская улица,450095,54.6901075,55.8038995
4,Раевская улица,450095,54.6924864,55.8004985
41,Раевская улица,450095,54.6900015,55.8041775
5,Раевская улица,450095,54.6923512,55.8014230
51,Донбасская улица,450095,54.6908309,55.8035237
7,Раевская улица,450095,54.6922452,55.8017720
8,Раевская улица,450095,54.6919477,55.8008046
9,Раевская улица,450095,54.6920622,55.8017159
10,Бижбулякская улица,450095,54.6928280,55.8019870
11,Бижбулякская улица,450095,54.6924424,55.8018246
12,Бижбулякская улица,450095,54.6927288,55.8017141
14,Бижбулякская улица,450095,54.6926652,55.8014940
16,Бижбулякская улица,450095,54.6925404,55.8011588
2,Бижбулякская улица,450095,54.6931378,55.8029978
4,Бижбулякская улица,450095,54.6930779,55.8028288
6,Бижбулякская улица,450095,54.6929911,55.8024982
8,Бижбулякская улица,450095,54.6929116,55.8022534
9,Бижбулякская улица,450095,54.6925409,55.8021296
21,Ермекеевская улица,450095,54.6901096,55.8013081
22,Ермекеевская улица,450095,54.6899778,55.8008770
23,Ермекеевская улица,450095,54.6899833,55.8014482
24,Ермекеевская улица,450095,54.6898617,55.8009942
50,Донбасская улица,450095,54.6911221,55.8034707
52,Донбасская улица,450095,54.6910528,55.8032850
58,Донбасская улица,450095,54.6906012,55.8015752
60,Донбасская улица,450095,54.6904072,55.8013112
62,Донбасская улица,450095,54.6903401,55.8010199
20,Майкопская улица,450095,54.6929132,55.8076733
1,Кандринская улица,450095,54.6920332,55.7981926
10,Ермекеевская улица,450095,54.6910089,55.7998866
11,Ермекеевская улица,450095,54.6909814,55.8004448
11,Кандринская улица,450095,54.6909753,55.7991534
12,Ермекеевская улица,450095,54.6908554,55.8000410
13,Ермекеевская улица,450095,54.6908679,55.8005725
13,Кандринская улица,450095,54.6908279,55.7993020
14,Ермекеевская улица,450095,54.6907020,55.8001949
15,Бижбулякская улица,450095,54.6920688,55.8006392
15,Ермекеевская улица,450095,54.6906907,55.8007252
15,Кандринская улица,450095,54.6906704,55.7994684
16,Ермекеевская улица,450095,54.6905485,55.8003281
17,Бижбулякская улица,450095,54.6919665,55.8003019
17,Ермекеевская улица,450095,54.6905824,55.8008308
17,Кандринская улица,450095,54.6905415,55.7995959
18,Бижбулякская улица,450095,54.6923671,55.8006444
18,Ермекеевская улица,450095,54.6904478,55.8004402
19,Бижбулякская улица,450095,54.6918740,55.8000278
19,Кандринская улица,450095,54.6904249,55.7997374
2,Кандринская улица,450095,54.6913538,55.7970148
2/1,Кандринская улица,450095,54.6910589,55.7982267
2/2,Кандринская улица,450095,54.6905862,55.7986185
20,Бижбулякская улица,450095,54.6922516,55.8002142
21,Бижбулякская улица,450095,54.6917660,55.7996833
21,Кандринская улица,450095,54.6902694,55.7998649
22,Бижбулякская улица,450095,54.6921777,55.7999856
23,Бижбулякская улица,450095,54.6916370,55.7992393
23,Кандринская улица,450095,54.6900423,55.8000560
24,Бижбулякская улица,450095,54.6920683,55.7996798
25,Бижбулякская улица,450095,54.6915542,55.7990148
25,Кандринская улица,450095,54.6898070,55.8003109
26,Бижбулякская улица,450095,54.6920080,55.7994688
27,Кандринская улица,450095,54.6896696,55.8004988
28,Бижбулякская улица,450095,54.6919098,55.7991825
2А,Кандринская улица,450095,54.6897634,55.7978295
3,Ермекеевская улица,450095,54.6915341,55.7999316
3,Кандринская улица,450095,54.6917138,55.7985159
30,Бижбулякская улица,450095,54.6918299,55.7989932
32,Бижбулякская улица,450095,54.6917696,55.7987239
4,Ермекеевская улица,450095,54.6914039,55.7994912
4,Кандринская улица,452167,54.6899524,55.7989447
5,Ермекеевская улица,450095,54.6913995,55.8000393
5,Кандринская улица,450095,54.6914925,55.7987347
6,Ермекеевская улица,450095,54.6912722,55.7996263
64,Донбасская улица,450095,54.6902235,55.8006106
66,Донбасская улица,450095,54.6901340,55.8003549
7,Ермекеевская улица,450095,54.6912564,55.8001895
7,Кандринская улица,450095,54.6912310,55.7989480
8,Ермекеевская улица,450095,54.6911391,55.7997765
85,улица Якуба Коласа,450095,54.6925521,55.7998910
87,улица Якуба Коласа,450095,54.6924876,55.7996799
89,улица Якуба Коласа,450095,54.6924259,55.7993814
9,Ермекеевская улица,450095,54.6911291,55.8003047
9,Кандринская улица,450095,54.6911226,55.7990330
91,улица Якуба Коласа,450095,54.6923137,55.7991995
93,улица Якуба Коласа,450095,54.6922380,55.7988865
95,улица Якуба Коласа,450095,54.6921721,55.7986973
2Б,Кандринская улица,450095,54.6906440,55.7975320
10,2-й Донбасский переулок,450095,54.6931149,55.8054863
12,2-й Донбасский переулок,450095,54.6932046,55.8052360
14,2-й Донбасский переулок,450095,54.6933048,55.8050037
15,1-й Донбасский переулок,450095,54.6936688,55.8069890
16,2-й Донбасский переулок,450095,54.6934143,55.8048025
17,1-й Донбасский переулок,450095,54.6937880,55.8066701
18,2-й Донбасский переулок,450095,54.6935742,55.8045458
19,1-й Донбасский переулок,450095,54.6938817,55.8064363
20,2-й Донбасский переулок,450095,54.6934248,55.8043615
20,Донбасская улица,450095,54.6935034,55.8073926
21,1-й Донбасский переулок,450095,54.6939802,55.8061950
22,Донбасская улица,450095,54.6933668,55.8072201
23,1-й Донбасский переулок,450095,54.6940883,55.8059441
25,1-й Донбасский переулок,450095,54.6941837,55.8056994
27,1-й Донбасский переулок,450095,54.6942981,55.8054120
27,Архангельская улица,450095,54.6930171,55.8067829
28,Архангельская улица,450095,54.6932365,55.8070578
29,Архангельская улица,450095,54.6931299,55.8065106
30,Архангельская улица,450095,54.6933949,55.8067154
31,Архангельская улица,450095,54.6932111,55.8063044
32,Архангельская улица,450095,54.6935114,55.8064446
33,Архангельская улица,450095,54.6933080,55.8060816
34,Архангельская улица,450095,54.6936211,55.8061752
35,Архангельская улица,450095,54.6934018,55.8058809
36,Архангельская улица,450095,54.6937180,55.8059193
37,Архангельская улица,450095,54.6935050,55.8056058
38,Архангельская улица,450095,54.6938372,55.8056279
39,Архангельская улица,450095,54.6935992,55.8053742
40,Архангельская улица,450095,54.6939661,55.8053673
41,Архангельская улица,450095,54.6936862,55.8051191
42,Архангельская улица,450095,54.6940660,55.8050779
43,Архангельская улица,450095,54.6937991,55.8048359
44,Архангельская улица,450095,54.6941812,55.8048649
45,Архангельская улица,450095,54.6938721,55.8046516
50,Армянская улица,450095,54.6931981,55.8039598
52,Армянская улица,450095,54.6934907,55.8036376
57,улица Якуба Коласа,450095,54.6940120,55.8043382
59,улица Якуба Коласа,450095,54.6939326,55.8041017
61,улица Якуба Коласа,450095,54.6938515,55.8038989
63,улица Якуба Коласа,450095,54.6937863,55.8036514
67,улица Якуба Коласа,450095,54.6934307,55.8027349
69,улица Якуба Коласа,450095,54.6933640,55.8024421
71,улица Якуба Коласа,450095,54.6933089,55.8022164
73,улица Якуба Коласа,450095,54.6932221,55.8019485
75,улица Якуба Коласа,450095,54.6931653,55.8017038
77,улица Якуба Коласа,450095,54.6930584,55.8014398
79,улица Якуба Коласа,450095,54.6930040,55.8012555
25,Ермекеевская улица,450095,54.6897802,55.8016440
26,Ермекеевская улица,450095,54.6896442,55.8012096
27,Ермекеевская улица,450095,54.6896651,55.8017744
28,Ермекеевская улица,450095,54.6895166,55.8013363
29,Ермекеевская улица,450095,54.6894810,55.8019445
29,Кандринская улица,450095,54.6894729,55.8006666
30,Ермекеевская улица,450095,54.6893471,55.8014992
31,Ермекеевская улица,450095,54.6893659,55.8020241
31,Кандринская улица,450095,54.6893448,55.8007751
32,Ермекеевская улица,450095,54.6892383,55.8015970
33,Ермекеевская улица,450095,54.6892111,55.8022124
33,Кандринская улица,450095,54.6892035,55.8009172
34,Ермекеевская улица,450095,54.6890458,55.8017744
35,Ермекеевская улица,450095,54.6890541,55.8023210
35,Кандринская улица,450095,54.6890674,55.8010512
36,Ермекеевская улица,450095,54.6889286,55.8019047
37,Ермекеевская улица,450095,54.6889160,55.8025056
37,Кандринская улица,450095,54.6888854,55.8012286
38,Ермекеевская улица,450095,54.6887737,55.8020531
39,Ермекеевская улица,450095,54.6887633,55.8026359
39,Кандринская улица,450095,54.6887619,55.8013371
40,Раевская улица,450095,54.6896986,55.8025128
41,Кандринская улица,450095,54.6885904,55.8014893
42,Майкопская улица,450095,54.6895009,55.8048606
42,Раевская улица,450095,54.6895877,55.8026251
43,Раевская улица,450095,54.6897054,55.8041591
44,Майкопская улица,450095,54.6893890,55.8044894
44,Раевская улица,450095,54.6893241,55.8030378
44А,Майкопская улица,450095,54.6893283,55.8042785
45,Раевская улица,450095,54.6895118,55.8035627
45А,Раевская улица,450095,54.6896202,55.8038859
46А,Майкопская улица,450095,54.6892911,55.8040686
48,Майкопская улица,450095,54.6890562,55.8034034
50,Майкопская улица,450095,54.6889453,55.8031139
52,Майкопская улица,450095,54.6886296,55.8022096
54,Майкопская улица,450095,54.6884324,55.8016476
56,Майкопская улица,450095,54.6883285,55.8005928
56А,Майкопская улица,450095,54.6885358,55.7994534
57,Майкопская улица,450095,54.6881319,55.8027323
59,Майкопская улица,450095,54.6875688,55.8006458
6,Кандринская улица,450095,54.6892964,55.7992904
61,Майкопская улица,450095,54.6870363,55.7997332
61,Майкопская улица,450095,54.6872558,55.7995210
62/1,Чебоксарская улица,450095,54.6876948,55.8066873
64,Чебоксарская улица,450095,54.6868530,55.8054932
58,Майкопская улица,450095,54.6880094,55.7994937
67,Майкопская улица,450095,54.6857607,55.7948780
65,Майкопская улица,450095,54.6855661,55.7960370
62,Майкопская улица,450095,54.6867395,55.7936152
58/1,Майкопская улица,450095,54.6877417,55.7993160
60,Майкопская улица,450095,54.6870175,55.7960326
58/2,Майкопская улица,450095,54.6874407,55.7968293
5,Майкопская улица,450095,54.6865935,55.7976372
63,Майкопская улица,450095,54.6861132,55.7963330
58/2,Майкопская улица,450095,54.6872503,55.7970679
4,Крайняя улица,450095,54.6835380,55.7967994
4/1,Крайняя улица,450095,54.6841157,55.7956789
65/2,Майкопская улица,450095,54.6844014,55.7952942
72/1,Чебоксарская улица,450095,54.6838219,55.7993547
11/1,Чебоксарская улица,450095,54.6868555,55.8075892
12,Чебоксарская улица,450095,54.6875493,55.8086256
62,Чебоксарская улица,450095,54.6877813,55.8071816
64,Чебоксарская улица,450095,54.6867693,55.8051684
66,Чебоксарская улица,450095,54.6863235,55.8045403
12,Чебоксарская улица,450095,54.6876640,55.8103153
17/2,Чебоксарская улица,450095,54.6842860,55.8071425
21/1 к1,Чебоксарская улица,450095,54.6823732,55.8061631
21/1 к2,Чебоксарская улица,450095,54.6829226,55.8064484
21/1 к3,Чебоксарская улица,450095,54.6838391,55.8064396
21/1 к4,Чебоксарская улица,450095,54.6837177,55.8049534
21/1,Чебоксарская улица,450095,54.6828632,55.8051220
21/1,Чебоксарская улица,450095,54.6825976,55.8049473
23,Чебоксарская улица,450095,54.6826698,55.8018113
23,Чебоксарская улица,450095,54.6822121,55.8016573
80,Центральная улица,450095,54.6849581,55.8113331
15,улица Загира Исмагилова,450074,54.6971197,55.9810040
17,улица Загира Исмагилова,450074,54.6975073,55.9804141
19,улица Загира Исмагилова,450074,54.6979031,55.9798852
53В,Центральная улица,450024,54.6771676,55.8080523
53 к3 с1,Центральная улица,450024,54.6772257,55.8062001
57,Центральная улица,450024,54.6779374,55.8052656
49/1,Центральная улица,450024,54.6777694,55.8059979
53/1,Центральная улица,450024,54.6769557,55.8065259
51,Центральная улица,450024,54.6778701,55.8068042
53Б,Центральная улица,450024,54.6775746,55.8088878
53А,Центральная улица,450024,54.6773527,55.8094552
53,Центральная улица,450024,54.6775068,55.8068154
53/2,Центральная улица,450024,54.6781187,55.8080566
53 к2,Центральная улица,450024,54.6787309,55.8080072
19,Центральная улица,452167,54.6955266,55.8296928
38,улица Софьи Перовской,450074,54.6987187,55.9833008
13Б,Инициативная улица,450036,54.8308251,56.0923552
78/3,проспект Октября,450054,54.7626287,56.0176238
13,улица Новожёнова,450049,54.7838431,56.0718123
92А,улица Новожёнова,450049,54.7851578,56.0728729
147,Российская улица,450098,54.7763525,56.0360306
39,Кольская улица,450104,54.7746039,56.0402130
29,Южная улица,450104,54.7736902,56.0405183
35,Южная улица,450104,54.7740634,56.0400713
0,Гатчинская улица,450095,54.6960902,55.8110952
0,улица Ильича,450095,54.6959828,55.8107823
0,улица Ильича,450095,54.6957477,55.8110243
0,улица Ильича,450095,54.6957418,55.8102195
0,улица Ильича,450095,54.6955693,55.8107219
11,Селенгинская улица,450095,54.6956239,55.8150569
13,Селенгинская улица,450095,54.6958312,55.8148150
13,улица Ильича,450095,54.6959945,55.8129050
13А,улица Ильича,450095,54.6958815,55.8126830
15,Селенгинская улица,450095,54.6959530,55.8144926
15,улица Ильича,450095,54.6962109,55.8125907
15А,Селенгинская улица,450095,54.6960824,55.8143516
15А,улица Ильича,450095,54.6963413,55.8124103
17,Селенгинская улица,450095,54.6968384,55.8133121
17,улица Ильича,450095,54.6964598,55.8121642
17А,Селенгинская улица,450095,54.6966675,55.8135642
17А,улица Ильича,450095,54.6965877,55.8118198
17Б,Селенгинская улица,450095,54.6967389,55.8131050
19,Селенгинская улица,450095,54.6970920,55.8129492
20,улица Ильича,450095,54.6964355,55.8132099
22,улица Ильича,450095,54.6965089,55.8127240
24,Селенгинская улица,450095,54.6955291,55.8159324
24,улица Ильича,450095,54.6967391,55.8124076
24А,улица Ильича,450095,54.6968490,55.8122278
26,Селенгинская улица,450095,54.6956689,55.8157151
28,Селенгинская улица,450095,54.6958870,55.8153911
29,улица Ермоловой,450095,54.6959317,55.8163629
30,Селенгинская улица,450095,54.6960315,55.8151820
31,улица Ермоловой,450095,54.6960490,55.8161484
32,Селенгинская улица,450095,54.6961879,55.8149360
33,улица Ермоловой,450095,54.6962405,55.8157037
34,улица Ермоловой,450095,54.6966269,55.8160358
35,улица Ермоловой,450095,54.6964358,55.8156124
35,улица Ермоловой,450095,54.6971899,55.8144149
36,улица Ермоловой,450095,54.6973624,55.8149426
36А,улица Ермоловой,450095,54.6974781,55.8147164
37,улица Ермоловой,450095,54.6966771,55.8151079
37,улица Ермоловой,450095,54.6973574,55.8142409
38,Селенгинская улица,450095,54.6969249,55.8138165
38,улица Ермоловой,450095,54.6978098,55.8142699
39,улица Ермоловой,450095,54.6975568,55.8138639
40,Селенгинская улица,450095,54.6971571,55.8134720
40,улица Ермоловой,450095,54.6981388,55.8137831
40А,Селенгинская улица,450095,54.6973160,55.8132301
41,улица Ермоловой,450095,54.6977646,55.8135305
42,Селенгинская улица,450095,54.6976074,55.8127503
43,улица Ермоловой,450095,54.6978725,55.8131626
7,Селенгинская улица,450095,54.6950896,55.8159055
82,улица Правды,450095,54.6956756,55.8122999
82/2,улица Правды,450095,54.6961101,55.8115566
84/2,улица Правды,450095,54.6963298,55.8114693
86,улица Правды,450095,54.6955676,55.8113120
9,Селенгинская улица,450095,54.6952428,55.8155870
9Б,Селенгинская улица,450095,54.6954343,55.8153475
28,Ильменская улица,450095,54.6982835,55.8166425
30,Ильменская улица,450095,54.6984158,55.8165688
32,Ильменская улица,450095,54.6985432,55.8163629
34,Ильменская улица,450095,54.6986454,55.8161745
36,Ильменская улица,450095,54.6988582,55.8159048
38,Ильменская улица,450095,54.6989755,55.8157077
39,Ильменская улица,450095,54.6982318,55.8162132
40,Ильменская улица,450095,54.6991099,55.8154394
40,улица 18-го Партсъезда,450095,54.6979499,55.8157334
41,Гатчинская улица,450095,54.6992386,55.8156932
41,Ильменская улица,450095,54.6986110,55.8156515
41,улица 18-го Партсъезда,450095,54.6977177,55.8153028
42,улица 18-го Партсъезда,450095,54.6981205,55.8154833
42,улица Ермоловой,450095,54.6983954,55.8134084
43,Ильменская улица,450095,54.6987295,55.8150938
43,улица 18-го Партсъезда,450095,54.6981205,55.8146918
44,улица 18-го Партсъезда,450095,54.6983338,55.8151183
44,улица Ермоловой,450095,54.6987105,55.8133878
45,Ильменская улица,450095,54.6990109,55.8145863
45,улица 18-го Партсъезда,450095,54.6983670,55.8143679
46,улица 18-го Партсъезда,450095,54.6985542,55.8147739
47,Ильменская улица,450095,54.6992953,55.8145791
47,улица 18-го Партсъезда,450095,54.6986940,55.8139373
48,улица 18-го Партсъезда,450095,54.6988551,55.8142531
1,3-я улица Строителей,450095,54.7029070,55.8020291
10,1-я улица Строителей,450095,54.7024271,55.8034385
10,2-я улица Строителей,450095,54.6985085,55.8035915
10,улица Баланово,450014,54.7048690,55.8092806
11,3-я улица Строителей,450095,54.7018446,55.8024315
11,улица Баланово,450014,54.7045063,55.8066308
12,1-я улица Строителей,450095,54.7022448,55.8034669
12,2-я улица Строителей,450095,54.6982813,55.8035014
12,улица Баланово,450014,54.7051630,55.8092401
13,3-я улица Строителей,450095,54.7016549,55.8024987
13,улица Баланово,450014,54.7048100,55.8063992
14,2-я улица Строителей,450095,54.6980454,55.8033361
14,улица Баланово,450014,54.7037215,55.8078604
15,3-я улица Строителей,450095,54.7014039,55.8025428
15,улица Баланово,450014,54.7049988,55.8063831
16,2-я улица Строителей,450095,54.6978616,55.8032198
17,3-я улица Строителей,450095,54.7011962,55.8026514
17,улица Баланово,450014,54.7051648,55.8062503
18,1-я улица Строителей,450095,54.7018309,55.8034798
18,2-я улица Строителей,450095,54.6973818,55.8029286
18,улица Баланово,450014,54.7040177,55.8078902
19,3-я улица Строителей,450095,54.7009840,55.8027445
2,2-я улица Строителей,450095,54.6988550,55.8048288
2,улица Баланово,450014,54.7039824,55.8095807
2/1,улица Баланово,450014,54.7036976,55.8092330
20,1-я улица Строителей,450095,54.7013362,55.8038444
20,3-я улица Строителей,450095,54.7006819,55.8022136
20,улица Баланово,450014,54.7042082,55.8075941
21,3-я улица Строителей,450095,54.7007359,55.8028712
22,3-я улица Строителей,450095,54.7003546,55.8023249
23,3-я улица Строителей,450095,54.7005102,55.8029461
24,1-я улица Строителей,450095,54.7011136,55.8039402
24,3-я улица Строителей,450095,54.7000438,55.8024853
24,улица Баланово,450014,54.7043218,55.8075269
25,3-я улица Строителей,450095,54.7003153,55.8030164
26,1-я улица Строителей,450095,54.7006939,55.8040923
26,улица Баланово,450014,54.7045772,55.8074182
27,3-я улица Строителей,450095,54.6998763,55.8032197
27А,3-я улица Строителей,450095,54.6999314,55.8036875
28,1-я улица Строителей,450095,54.7005032,55.8041794
29,3-я улица Строителей,450095,54.6991407,55.8030079
29А,3-я улица Строителей,450095,54.6995302,55.8036881
3,3-я улица Строителей,450095,54.7027080,55.8020826
3,улица Баланово,450014,54.7035963,55.8070304
30,1-я улица Строителей,450095,54.7002358,55.8041676
30,3-я улица Строителей,450095,54.6998346,55.8025421
30,улица Баланово,450014,54.7049433,55.8071958
30А,3-я улица Строителей,450095,54.6994319,55.8024368
31,3-я улица Строителей,450095,54.6986720,55.8027645
31А,3-я улица Строителей,450095,54.6989111,55.8028576
32,1-я улица Строителей,450095,54.7000116,55.8043816
32,3-я улица Строителей,450095,54.6991545,55.8022963
32,улица Баланово,450014,54.7050599,55.8070977
34,1-я улица Строителей,450095,54.6996328,55.8045383
34,3-я улица Строителей,450095,54.6987916,55.8020293
34А,1-я улица Строителей,450095,54.6995790,55.8040501
35,3-я улица Строителей,450095,54.6983013,55.8026972
36,1-я улица Строителей,450095,54.6993674,55.8046709
36,улица Баланово,450014,54.7052302,55.8069993
4,1-я улица Строителей,450095,54.7030808,55.8031081
4,2-я улица Строителей,450095,54.6987800,55.8045240
4,улица Баланово,450014,54.7042979,55.8094692
40,улица Баланово,450014,54.7055409,55.8069165
5,3-я улица Строителей,450095,54.7024915,55.8021581
5,улица Баланово,450014,54.7038362,55.8069644
6,1-я улица Строителей,450095,54.7028799,55.8032342
6,2-я улица Строителей,450095,54.6987656,55.8041672
6,улица Баланово,450014,54.7045990,55.8093537
7,3-я улица Строителей,450095,54.7022658,55.8022488
7,улица Баланово,450014,54.7039691,55.8068752
8,1-я улица Строителей,450095,54.7026467,55.8033427
8,2-я улица Строителей,450095,54.6987794,55.8036172
9,3-я улица Строителей,450095,54.7020406,55.8023760
9,улица Баланово,450014,54.7041851,55.8067692
1,переулок Баланово,450014,54.7058897,55.8114802
10,переулок Баланово,450014,54.7066480,55.8082469
10,улица Гилёва,450014,54.7054433,55.8047310
11,переулок Баланово,450014,54.7058875,55.8094021
12,переулок Баланово,450014,54.7068402,55.8082505
12,улица Гилёва,450014,54.7053824,55.8044366
13,переулок Баланово,450014,54.7056461,55.8088415
14,переулок Баланово,450014,54.7070642,55.8083309
14,улица Гилёва,450014,54.7053435,55.8041080
15,переулок Баланово,450014,54.7059024,55.8083149
16,переулок Баланово,450014,54.7071783,55.8083565
16,улица Гилёва,450014,54.7053133,55.8036357
16/1,улица Гилёва,450014,54.7060728,55.8036060
17,переулок Баланово,450014,54.7059562,55.8079694
18,переулок Баланово,450014,54.7072819,55.8083968
19,переулок Баланово,450014,54.7059235,55.8077353
19,улица Баланово,450014,54.7057602,55.8059607
2,переулок Баланово,450014,54.7062130,55.8094103
2,улица Гилёва,450014,54.7055773,55.8059532
20,переулок Баланово,450014,54.7074488,55.8084553
21,переулок Баланово,450014,54.7060291,55.8075012
21,улица Баланово,450014,54.7059129,55.8060521
22,переулок Баланово,450014,54.7075925,55.8085028
23,переулок Баланово,450014,54.7060444,55.8072461
23,улица Баланово,450014,54.7061041,55.8057879
24,переулок Баланово,450014,54.7077276,55.8085394
25,переулок Баланово,450014,54.7063204,55.8075812
25,улица Баланово,450014,54.7061939,55.8061591
26,переулок Баланово,450014,54.7078587,55.8085540
27,переулок Баланово,450014,54.7067324,55.8077093
27,улица Баланово,450014,54.7063838,55.8062336
28,переулок Баланово,450014,54.7079727,55.8086162
29,переулок Баланово,450014,54.7069120,55.8077349
29,улица Баланово,450014,54.7064958,55.8062719
3,переулок Баланово,450014,54.7057016,55.8110706
30,переулок Баланово,450014,54.7083224,55.8086482
31,переулок Баланово,450014,54.7070600,55.8075264
31,улица Баланово,450014,54.7065867,55.8063085
32,переулок Баланово,450014,54.7084962,55.8085112
33,переулок Баланово,450014,54.7073384,55.8078756
33,улица Баланово,450014,54.7066839,55.8063195
34,переулок Баланово,450014,54.7086166,55.8084608
35,переулок Баланово,450014,54.7074989,55.8079524
35,улица Баланово,450014,54.7068065,55.8063487
36,переулок Баланово,450014,54.7088750,55.8083703
37,переулок Баланово,450014,54.7076579,55.8080384
37,улица Баланово,450014,54.7069882,55.8063945
38,переулок Баланово,450014,54.7090841,55.8083367
39,переулок Баланово,450014,54.7081476,55.8076196
39,улица Баланово,450014,54.7072227,55.8063379
4,переулок Баланово,450014,54.7063090,55.8089346
4,улица Гилёва,450014,54.7055220,55.8056878
40,переулок Баланово,450014,54.7093500,55.8082358
41,переулок Баланово,450014,54.7079537,55.8081005
41,улица Баланово,450014,54.7073754,55.8062619
42,переулок Баланово,450014,54.7096758,55.8081608
42,улица Баланово,450014,54.7057063,55.8067518
43,переулок Баланово,450014,54.7080277,55.8081481
43,улица Баланово,450014,54.7075185,55.8062464
44,улица Баланово,450014,54.7059573,55.8066418
45,переулок Баланово,450014,54.7081587,55.8081810
45,улица Баланово,450014,54.7076833,55.8062062
45А,улица Баланово,450014,54.7077805,55.8059135
45Б,улица Баланово,450014,54.7080784,55.8059849
46,улица Баланово,450014,54.7063542,55.8069559
47,переулок Баланово,450014,54.7084086,55.8080968
47,улица Баланово,450014,54.7076811,55.8046995
48,улица Баланово,450014,54.7065001,55.8068059
49,переулок Баланово,450014,54.7088578,55.8079410
49,улица Баланово,450014,54.7070887,55.8041099
5,переулок Баланово,450014,54.7058495,55.8106829
50,улица Баланово,450014,54.7066353,55.8070473
51,переулок Баланово,450014,54.7095058,55.8077567
52,улица Баланово,450014,54.7068572,55.8067877
53,улица Баланово,450014,54.7074298,55.8040374
54,улица Баланово,450014,54.7070578,55.8069632
55,улица Баланово,450014,54.7072573,55.8036467
56,улица Баланово,450014,54.7071889,55.8068023
57,улица Баланово,450014,54.7065936,55.8042413
58,улица Баланово,450014,54.7073600,55.8067803
6,переулок Баланово,450014,54.7062769,55.8085636
6,улица Гилёва,450014,54.7055129,55.8053699
60,улица Баланово,450014,54.7075966,55.8067547
62,улица Баланово,450014,54.7078396,55.8066559
64,улица Баланово,450014,54.7079875,55.8065572
66,улица Баланово,450014,54.7084160,55.8068843
68,улица Баланово,450014,54.7085030,55.8068626
7,переулок Баланово,450014,54.7058257,55.8102432
70,улица Баланово,450014,54.7085926,55.8066325
72,улица Баланово,450014,54.7087585,55.8067385
72/2,улица Баланово,450014,54.7092321,55.8072609
74,улица Баланово,450014,54.7089318,55.8065782
76,улица Баланово,450014,54.7098299,55.8059086
76/2,улица Баланово,450014,54.7090381,55.8048974
8,переулок Баланово,450014,54.7063366,55.8081367
8,улица Гилёва,450014,54.7055030,55.8049632
9,переулок Баланово,450014,54.7057069,55.8097065
143,Вологодская улица,450065,54.8238199,56.1090701
133А,Интернациональная улица,450038,54.8033703,56.1099292
1,Воеводская улица,450014,54.7064314,55.7944100
1,переулок Гилёва,450014,54.7027327,55.7934821
1,улица Гилёва,450014,54.7051836,55.8057684
10,Воеводская улица,450014,54.7060843,55.7883121
101,улица Гилёва,450014,54.7026497,55.7911894
11,Воеводская улица,450014,54.7057255,55.7876641
11,улица Гилёва,450014,54.7046656,55.8017113
12,Воеводская улица,450014,54.7060550,55.7879308
13,Воеводская улица,450014,54.7052205,55.7858148
13,улица Гилёва,450014,54.7046461,55.8010079
15,Воеводская улица,450014,54.7052439,55.7855010
15,улица Гилёва,450014,54.7046188,55.8004796
16,Воеводская улица,450014,54.7058503,55.7857709
17,улица Гилёва,450014,54.7045543,55.7999166
18,Воеводская улица,450014,54.7057996,55.7853492
34,улица Гилёва,450014,54.7049462,55.7996001
18,улица Гилёва,450014,54.7052191,55.8025631
19,Воеводская улица,450014,54.7051777,55.7847484
19,улица Гилёва,450014,54.7045354,55.7996392
2,переулок Гилёва,450014,54.7033678,55.7932499
20,улица Гилёва,450014,54.7051666,55.8022000
21,Воеводская улица,450014,54.7052108,55.7839184
21,улица Гилёва,450014,54.7044937,55.7993137
22,улица Гилёва,450014,54.7051288,55.8019503
23,Воеводская улица,450014,54.7051874,55.7836214
23,улица Гилёва,450014,54.7044620,55.7990265
24,улица Гилёва,450014,54.7051240,55.8016913
25,Воеводская улица,450014,54.7049261,55.7834830
25,улица Гилёва,450014,54.7044223,55.7987682
26,улица Гилёва,450014,54.7050406,55.8011922
27,Воеводская улица,450014,54.7049320,55.7829229
27,улица Гилёва,450014,54.7043669,55.7982704
28,улица Гилёва,450014,54.7050575,55.8009506
29,Воеводская улица,450014,54.7047294,55.7822103
29,улица Гилёва,450014,54.7043059,55.7978320
3,Воеводская улица,450014,54.7063817,55.7941093
3,переулок Гилёва,450014,54.7025361,55.7931546
3,улица Гилёва,450014,54.7049669,55.8048573
30,улица Гилёва,450014,54.7050220,55.8004413
31,Воеводская улица,450014,54.7046908,55.7819478
31,улица Гилёва,450014,54.7042893,55.7973513
32,улица Гилёва,450014,54.7049831,55.8000577
33,улица Гилёва,450014,54.7042123,55.7972062
35,улица Гилёва,450014,54.7041840,55.7966717
35/1,улица Гилёва,450014,54.7039754,55.7967694
36,улица Гилёва,450014,54.7048785,55.7993331
37,улица Гилёва,450014,54.7041154,55.7961358
38,улица Гилёва,450014,54.7048914,55.7990619
39,улица Гилёва,450014,54.7041528,55.7959089
4,Воеводская улица,450014,54.7061541,55.7896576
4,переулок Гилёва,450014,54.7021808,55.7927640
40,улица Гилёва,450014,54.7048552,55.7986215
41,улица Гилёва,450014,54.7040583,55.7957422
42,улица Гилёва,450014,54.7048470,55.7984230
43,улица Гилёва,450014,54.7040475,55.7951496
44,улица Гилёва,450014,54.7048136,55.7981927
45,улица Гилёва,450014,54.7039910,55.7947481
46,улица Гилёва,450014,54.7048031,55.7979701
47,улица Гилёва,450014,54.7039740,55.7944534
48,улица Гилёва,450014,54.7047670,55.7976604
49,улица Гилёва,450014,54.7038475,55.7942113
5,Воеводская улица,450014,54.7061999,55.7930195
5,переулок Гилёва,450014,54.7022914,55.7937420
5,улица Гилёва,450014,54.7049556,55.8039599
50,улица Гилёва,450014,54.7047390,55.7973085
51,улица Гилёва,450014,54.7039128,55.7936944
52,улица Гилёва,450014,54.7047066,55.7970124
53,улица Гилёва,450014,54.7044114,55.7945627
54,улица Гилёва,450014,54.7047573,55.7966818
55,улица Гилёва,450014,54.7047199,55.7931337
56,улица Гилёва,450014,54.7046461,55.7964422
57,улица Гилёва,450014,54.7045779,55.7929927
58,улица Гилёва,450014,54.7046305,55.7959900
59,улица Гилёва,450014,54.7041301,55.7926965
6,переулок Гилёва,450014,54.7020945,55.7927333
60,улица Гилёва,450014,54.7045837,55.7957672
61,улица Гилёва,450014,54.7043999,55.7919283
61/1,улица Гилёва,450014,54.7042177,55.7923584
63,улица Гилёва,450014,54.7043497,55.7915962
63/1,улица Гилёва,450014,54.7040322,55.7923303
64,улица Гилёва,450014,54.7045701,55.7953859
65,улица Гилёва,450014,54.7042568,55.7912987
66,улица Гилёва,450014,54.7045334,55.7949129
67,улица Гилёва,450014,54.7040865,55.7911339
68,улица Гилёва,450014,54.7050470,55.7931073
69,улица Гилёва,450014,54.7040788,55.7906206
7,Воеводская улица,450014,54.7052993,55.7896004
7,переулок Гилёва,450014,54.7018635,55.7934716
7,улица Гилёва,450014,54.7047752,55.8022972
70,улица Гилёва,450014,54.7049429,55.7928463
71,улица Гилёва,450014,54.7040140,55.7903951
72,улица Гилёва,450014,54.7048714,55.7924728
73,улица Гилёва,450014,54.7038612,55.7899264
74,улица Гилёва,450014,54.7047553,55.7919275
75,улица Гилёва,450014,54.7035557,55.7899647
76,улица Гилёва,450014,54.7046652,55.7915902
77,улица Гилёва,450014,54.7037392,55.7896485
78,улица Гилёва,450014,54.7045904,55.7911939
79,улица Гилёва,450014,54.7035752,55.7893198
8,Воеводская улица,450014,54.7061038,55.7887676
8,переулок Гилёва,450014,54.7018307,55.7924497
80,улица Гилёва,450014,54.7044181,55.7905849
81,улица Гилёва,450014,54.7033821,55.7890592
82,улица Гилёва,450014,54.7043532,55.7902898
83,улица Гилёва,450014,54.7033603,55.7887257
84,улица Гилёва,450014,54.7042451,55.7899592
85,улица Гилёва,450014,54.7031571,55.7883525
86,улица Гилёва,450014,54.7041584,55.7896253
87,улица Гилёва,450014,54.7030348,55.7881022
88,улица Гилёва,450014,54.7039634,55.7893312
89,улица Гилёва,450014,54.7029134,55.7879067
9,Воеводская улица,450014,54.7054647,55.7893236
9,переулок Гилёва,450014,54.7017026,55.7932232
9,улица Гилёва,450014,54.7045957,55.8020556
90,улица Гилёва,450014,54.7038414,55.7889534
91,улица Гилёва,450014,54.7027834,55.7876041
92,улица Гилёва,450014,54.7036887,55.7885768
92Б,улица Гилёва,450014,54.7036698,55.7875590
93,улица Гилёва,450014,54.7025290,55.7870985
94А,улица Гилёва,450014,54.7031471,55.7867247
95,улица Гилёва,450014,54.7020751,55.7903371
96,улица Гилёва,450014,54.7030176,55.7858244
97,улица Гилёва,450014,54.7022152,55.7906074
99,улица Гилёва,450014,54.7024761,55.7909418
18/5,улица Правды,450095,54.7045026,55.8327412
112,Комсомольская улица,450058,54.7524541,56.0077991
65/8,улица Ульяновых,450029,54.8309369,56.0819146
65 к7,улица Ульяновых,450029,54.8318660,56.0876675
65 к16,улица Ульяновых,450029,54.8304042,56.0835370
66,улица Ульяновых,450029,54.8343335,56.0905257
67,улица Ульяновых,450112,54.8336358,56.0885181
28Б,Силикатная улица,450003,54.7450891,55.9212810
57,Рабочая улица,450003,54.7448888,55.9141948
20,Силикатная улица,450003,54.7454737,55.9187373
7/1,Цветочная улица,450112,54.8083119,56.0642795
73 к1,проспект Октября,450075,54.7679427,56.0158737
7,улица Бабушкина,450001,54.7450836,55.9796175
15,улица Коммунаров,450035,54.8111220,56.1130725
15,Комсомольская улица,450001,54.7413403,55.9921827
217А,улица Менделеева,450071,54.7521944,56.0328629
86/6,улица Свободы,450065,54.8405362,56.1169749
132 к7,улица Достоевского,450005,54.7303717,55.9659503
12/5,улица Юрия Гагарина,450073,54.7624295,56.0534026
106,улица Кустарёво,450014,54.7364503,55.8300270
11/1 к4,улица Рихарда Зорге,450059,54.7514683,55.9826106
32,проспект Салавата Юлаева,450077,54.7254403,55.9909040
3,проезд Станиславского,450099,54.7791981,56.0538999
26,проспект Салавата Юлаева,450022,54.7211827,55.9831117
60,проспект Салавата Юлаева,450071,54.7517105,56.0209103
4Б к4,Владивостокская улица,450078,54.7288710,55.9901682
4Б,Владивостокская улица,450078,54.7288427,55.9912492
7/3,Цветочная улица,450112,54.8077175,56.0654426
9,улица Чайковского,450081,54.7894379,56.0529686
3А к26,Гурьевская улица,450022,54.7142654,55.9873549
3А к20,Гурьевская улица,450022,54.7144134,55.9869422
15,улица Генерала Кусимова,450050,54.7144250,55.8440992
169,улица Менделеева,450022,54.7189116,56.0064939
2,Лесопильная улица,450076,54.7331356,55.9190134
17,3-я Районная улица,450097,54.7332793,55.9994623
3А к33,Гурьевская улица,450022,54.7130577,55.9847512
19 к1,Силикатная улица,450003,54.7451709,55.9230630
4/1,Благоварская улица,450019,54.7378552,55.8978666
44К,Рабочая улица,450003,54.7455475,55.9160347
4/5,Благоварская улица,450019,54.7382005,55.8950447
42,Большая Шерстомойная улица,450003,54.7422433,55.9277082
217Б,улица Менделеева,450071,54.7536255,56.0331405
3,Бакалинская улица,450106,54.7119316,55.9977159
17,улица Генерала Кусимова,450050,54.7156160,55.8428518
6,улица Минигали Губайдуллина,450022,54.7204902,56.0014782
13,Сельская Богородская улица,450030,54.7943451,56.1397769
11А,Сельская Богородская улица,450030,54.7954253,56.1407213
13А,Сельская Богородская улица,450030,54.7944754,56.1406679
15,Сельская Богородская улица,450030,54.7934762,56.1397528
152/1,улица Менделеева,450080,54.7224566,56.0181022
162/3,улица Менделеева,450071,54.7498824,56.0369570
158,улица Менделеева,450080,54.7247856,56.0200130
26,улица Уфимское Шоссе,450049,54.7874494,56.0567644
2,Высотная улица,450103,54.7085935,55.9799578
26,Кавказская улица,450103,54.7085100,55.9794248
22,Айская улица,450078,54.7179201,55.9801175
96А,Комсомольская улица,450009,54.7494262,56.0034062
133А к1,Интернациональная улица,450038,54.8030894,56.1088914
180,Рубежная улица,450018,54.6813668,55.9321984
182,Рубежная улица,450018,54.6817911,55.9324311
1,Алтайская улица,450076,54.7216021,55.9198100
4,Алтайская улица,450076,54.7220872,55.9188354
29,Дагестанская улица,450014,54.7126889,55.8341973
25,Дагестанская улица,450014,54.7121527,55.8344491
29/1,улица Урицкого,450076,54.7271532,55.9231292
133А,Интернациональная улица,450038,54.8025472,56.1093528
133А,Интернациональная улица,450038,54.8025315,56.1096612
32/2,улица Орджоникидзе,450068,54.8052331,56.1298221
33,Уссурийская улица,450068,54.8046084,56.1314553
135/1,улица Машиностроителей,450038,54.8023973,56.1110175
14,улица Нуриманова,450076,54.7304558,55.9280127
2к1,Лесопильная улица,450076,54.7330365,55.9186961
2,бульвар Баландина,450039,54.7816511,56.1378429
27,набережная реки Уфы,450099,54.7625184,56.0718131
28А,улица Максима Рыльского,450105,54.7635262,56.0744107
3,улица Испытателей,450074,54.6884746,55.9853331
1А,улица Испытателей,450074,54.6889003,55.9855712
7,улица Испытателей,450074,54.6881934,55.9845404
5,улица Испытателей,450074,54.6883213,55.9847784
9,улица Испытателей,450074,54.6880710,55.9843119
11,улица Испытателей,450074,54.6879492,55.9840863
33Г,улица Пугачёва,450074,54.6877820,55.9837809
33В,улица Пугачёва,450074,54.6876579,55.9834764
14,Альпийский переулок,450074,54.6873726,55.9837778
12,Альпийский переулок,450074,54.6875769,55.9842240
10,Альпийский переулок,450074,54.6876948,55.9844436
8,Альпийский переулок,450074,54.6878223,55.9847333
4,Альпийский переулок,450074,54.6880559,55.9851203
19,улица Генерала Кусимова,450050,54.7165715,55.8416759
19/1,улица Генерала Кусимова,450050,54.7160629,55.8400047
11,улица Генерала Кусимова,450050,54.7120051,55.8475203
1/2,Центральная улица,450095,54.7022943,55.8451343
4,Бородинская улица,450074,54.6875532,55.9865530
6,Бородинская улица,450074,54.6874010,55.9864350
8,Бородинская улица,450074,54.6872137,55.9862932
10,Бородинская улица,450074,54.6870269,55.9861655
12,Бородинская улица,450074,54.6868967,55.9860384
14,Бородинская улица,450074,54.6867532,55.9859656
16,Бородинская улица,450074,54.6865840,55.9856441
2,Бородинская улица,450074,54.6878443,55.9867218
60,улица Карла Маркса,450006,54.7464519,55.9537749
62,улица Карла Маркса,450091,54.7472379,55.9548050
1/1,Альпийский переулок,450074,54.6878213,55.9854217
19/5,улица Рихарда Зорге,450059,54.7539886,55.9865395
38,улица Софьи Перовской,450074,54.6981189,55.9830725
11,Дагестанская улица,450024,54.7125464,55.8441914
12,Дагестанская улица,450050,54.7132829,55.8456223
5 к1,Рижская улица,450019,54.7435346,55.8986395
1/1,улица Муксинова,450074,54.6934098,55.9928878
1/1,улица Муксинова,450074,54.6934685,55.9919937
2/1,Юбилейная улица,450029,54.8398103,56.0809867
4/3,Юбилейная улица,450029,54.8409686,56.0818655
4,Юбилейная улица,450029,54.8413353,56.0796213
3/1,Юбилейная улица,450029,54.8387873,56.0817476
1 к3,Юбилейная улица,450029,54.8382709,56.0796757
4 к1,Юбилейная улица,450029,54.8394993,56.0798659
с25,Дагестанская улица,450014,54.7132315,55.8339357
3А к50,Гурьевская улица,450022,54.7153517,55.9823229
3А к34,Гурьевская улица,450022,54.7150641,55.9829151
144А,проспект Октября,450055,54.7829496,56.0337460
23,Карьерная улица,450003,54.7279647,55.9025063
19А,Северная улица,450097,54.7368002,56.0024455
2/1,бульвар Баландина,450039,54.7813381,56.1373868
10,улица Валерия Лесунова,450039,54.7828132,56.1376301
4,улица Джалиля Киекбаева,450078,54.7350679,55.9875868
6,улица Джалиля Киекбаева,450078,54.7344139,55.9883327
58/2,Майкопская улица,450095,54.6870286,55.7972049
15,Интернациональная улица,450064,54.8115181,56.0611192
8,улица Комарова,450064,54.8118516,56.0582369
1/3,улица Маршала Жукова,450099,54.7657189,56.0467986
2/4,улица Лётчиков,450010,54.7938887,55.8545879
2 к1,улица Лётчиков,450010,54.7926064,55.8541296
2/7,улица Лётчиков,450010,54.7944617,55.8511800
18,улица Лётчиков,450010,54.7951662,55.8682526
16/1,улица Лётчиков,450010,54.7952735,55.8671717
20,улица Лётчиков,450010,54.7955724,55.8695708
14/1,улица Лётчиков,450010,54.7957563,55.8667317
25,Дагестанская улица,450014,54.7124030,55.8348419
65,проспект Салавата Юлаева,450078,54.7306777,55.9955544
10/1,улица Авроры,450092,54.6989843,56.0071216
176,Рубежная улица,450018,54.6784102,55.9301851
168,Рубежная улица,450018,54.6673292,55.9314735
83,улица Александра Спивака,450033,54.8335580,56.1681942
83/1,улица Александра Спивака,450033,54.8334598,56.1687066
11,улица Худайбердина,450077,54.7280312,55.9576335
10/1,улица Валерия Лесунова,450039,54.7826388,56.1364775
17/2,улица Ферина,450039,54.7822474,56.1347140
19,проспект Октября,450059,54.7466184,55.9921336
29,Дагестанская улица,450014,54.7129547,55.8345807
13,Дагестанская улица,450050,54.7117692,55.8446726
10А,улица Первопроходцев,450074,54.6933797,55.9778691
10Г,улица Первопроходцев,450074,54.6932960,55.9780176
12Б,улица Первопроходцев,450074,54.6931982,55.9781373
12В,улица Первопроходцев,450074,54.6931168,55.9782699
12Г,улица Первопроходцев,450074,54.6930204,55.9784037
14А,улица Первопроходцев,450074,54.6929404,55.9785322
14Б,улица Первопроходцев,450074,54.6928540,55.9786780
62/1,улица Карла Маркса,450091,54.7467051,55.9547460
107Б,проспект Октября,450075,54.7829977,56.0305259
1/1а,Сосновская улица,450033,54.8246715,56.1828247
1/3,Сосновская улица,450033,54.8254478,56.1841887
1А,улица Чехова,450033,54.8261418,56.1828220
74,улица Александра Спивака,450033,54.8325873,56.1695445
64,Пришкольная улица,450033,54.8320982,56.1699437
49/1,Инженерная улица,450033,54.8324719,56.1703511
49,Инженерная улица,450033,54.8322510,56.1708799
51,Инженерная улица,450033,54.8329727,56.1714135
76,улица Александра Спивака,450033,54.8330316,56.1704663
11,Юшатырская улица,450033,54.8333788,56.1708150
64/1,Бакалинская улица,450022,54.7199400,55.9896441
64/3,Бакалинская улица,450022,54.7207867,55.9911591
64/2,Бакалинская улица,450022,54.7207267,55.9899413
17,улица 50-летия Октября,450005,54.7373496,55.9692619
4,улица Аксакова,450076,54.7191261,55.9310784
8,бульвар Давлеткильдеева,450098,54.7652171,56.0312091
6,Глумилинская улица,450098,54.7730804,56.0389738
10,Глумилинская улица,450098,54.7744015,56.0384999
4,Глумилинская улица,450098,54.7722857,56.0387344
8,Глумилинская улица,450098,54.7738222,56.0388698
67,улица Ленина,450006,54.7399956,55.9543212
5,Научная улица,450054,54.7655877,56.0125236
71В,проспект Октября,450054,54.7663160,56.0178512
63/4,улица Рихарда Зорге,450075,54.7687662,56.0107756
63/6,улица Рихарда Зорге,450075,54.7696034,56.0101667
63/5,улица Рихарда Зорге,450075,54.7691973,56.0113502
67,улица Рихарда Зорге,450075,54.7706132,56.0132384
69,улица Рихарда Зорге,450075,54.7709624,56.0139779
5 к1,улица 50-летия Октября,450005,54.7354426,55.9600391
4,Благоварская улица,450019,54.7385746,55.8977558
15А,улица Софьи Перовской,450103,54.6981450,55.9920324
6/1А,Сельская Богородская улица,450030,54.7887364,56.1385963
6А,Сельская Богородская улица,450030,54.7891002,56.1386304
174,Рубежная улица,450018,54.6745690,55.9287628
133А,Интернациональная улица,450038,54.8027608,56.1091784
51/2,улица Геологов,450074,54.6858084,55.9837588
51/1,улица Геологов,450074,54.6853246,55.9828393
51,улица Геологов,450074,54.6848401,55.9819188
2,улица Испытателей,450074,54.6892859,55.9843237
8,улица Валерия Лесунова,450039,54.7842130,56.1374336
6,улица Валерия Лесунова,450039,54.7857398,56.1374372
75 к2,улица Зорге,450075,54.7761916,56.0177130
15/1,улица Генерала Кусимова,450050,54.7137103,55.8424678
15/2,улица Генерала Кусимова,450050,54.7131004,55.8409842
10/2,Дагестанская улица,450050,54.7123817,55.8392541
1/3,Центральная улица,450095,54.7018470,55.8449517
72/2,улица Свердлова,450076,54.7256105,55.9329324
225,улица Ахметова,450017,54.7805143,55.8874488
75,улица Рихарда Зорге,450075,54.7735413,56.0165864
273,улица Ахметова,450017,54.7824674,55.8867827
7,улица Цюрупы,450077,54.7191487,55.9489418
71/1,проспект Октября,450054,54.7664394,56.0177577
70/2,улица Рихарда Зорге,450075,54.7689530,56.0151372
70/2,улица Рихарда Зорге,450075,54.7686552,56.0150723
70/2,улица Рихарда Зорге,450075,54.7683204,56.0155132
70/1,улица Рихарда Зорге,450075,54.7681934,56.0150572
62,улица Рихарда Зорге,450054,54.7672673,56.0112025
93/1А,проспект Октября,450104,54.7777440,56.0293034
91,проспект Октября,450104,54.7771274,56.0297243
91/2,проспект Октября,450104,54.7772916,56.0297822
107/3,проспект Октября,450075,54.7828020,56.0313057
107А,проспект Октября,450075,54.7823678,56.0316696
23А,проспект Октября,450059,54.7472518,55.9919819
23/1,проспект Октября,450059,54.7471738,55.9921517
7А,проспект Октября,450001,54.7415780,55.9863380
123А,проспект Октября,450075,54.7893675,56.0353384
158Д,улица Менделеева,450080,54.7244077,56.0289973
24/1,Кавказская улица,450103,54.7083114,55.9790553
170,улица Менделеева,450071,54.7504466,56.0322739
217А к1,улица Менделеева,450071,54.7497740,56.0342212
162/1,улица Менделеева,450071,54.7494323,56.0318394
22,улица Бориса Домашникова,450015,54.7409636,55.9430830
16,Стерлитамакская улица,450006,54.7519541,55.9676062
35,Кубанская улица,450081,54.7900107,56.0508214
33,Кубанская улица,450081,54.7903429,56.0506617
31/3,Кубанская улица,450081,54.7906246,56.0505290
65А к1,улица Ленина,450006,54.7384127,55.9519246
63,бульвар Ибрагимова,450006,54.7395529,55.9728258
63,бульвар Ибрагимова,450006,54.7396807,55.9732428
61,бульвар Ибрагимова,450006,54.7396734,55.9722447
65/4 к1,улица Ленина,450006,54.7380637,55.9520730
65/1,улица Ленина,450006,54.7378871,55.9519764
41/1,Революционная улица,450015,54.7364447,55.9506737
93/2А,проспект Октября,450104,54.7779855,56.0280269
1,бульвар Давлеткильдеева,450098,54.7667840,56.0300578
2,Таганайская улица,450007,54.7979858,55.9607000
33,Тальковая улица,450007,54.7958940,55.9561377
6,Таганайская улица,450007,54.7986083,55.9604911
37,Тальковая улица,450007,54.7977249,55.9584093
10,Таганайская улица,450007,54.7984888,55.9594590
8,Таганайская улица,450007,54.7986801,55.9599609
4,Таганайская улица,450007,54.7983134,55.9608013
40,Тальковая улица,450007,54.7971526,55.9597799
36,Тальковая улица,450007,54.7952990,55.9575503
27,улица Георгия Мушникова,450039,54.7857564,56.1111327
33 к1,Бакалинская улица,450047,54.7171650,55.9818988
10/1,улица Минигали Губайдуллина,450022,54.7228977,55.9965688
33,Сельская Богородская улица,450030,54.7876727,56.1376286
64/1,улица Заки Валиди,450057,54.7149598,55.9558751
51,улица Карла Маркса,450015,54.7311500,55.9430541
49,улица Карла Маркса,450015,54.7308438,55.9429238
51/3,улица Карла Маркса,450015,54.7312788,55.9422835
72 к1,улица Гоголя,450015,54.7310596,55.9413045
11 к1,улица Мустая Карима,450077,54.7279846,55.9443058
7 к1,улица Мустая Карима,450077,54.7280842,55.9441952
16/1,улица Карла Маркса,450077,54.7279061,55.9424776
45/3,Коммунистическая улица,450077,54.7276827,55.9432410
45Б,Коммунистическая улица,450077,54.7274703,55.9428267
45А,Коммунистическая улица,450077,54.7271461,55.9437359
3 к2,улица Мустая Карима,450077,54.7273172,55.9441121
3,улица Мустая Карима,450077,54.7274963,55.9440741
5А,улица 50 лет СССР,450059,54.7576937,56.0014923
53/1,улица Карла Маркса,450015,54.7328563,55.9435123
14,улица Лётчиков,450010,54.7950328,55.8668223
20/1,улица Ленина,450077,54.7234396,55.9469684
45/2,улица Пушкина,450076,54.7253836,55.9314972
2Б,Большая Гражданская улица,450059,54.7534605,55.9813268
2Д,Большая Гражданская улица,450059,54.7536451,55.9816823
2А,Большая Гражданская улица,450059,54.7529165,55.9815816
11/1 к3,улица Рихарда Зорге,450059,54.7511229,55.9809020
1 к1,Большая Гражданская улица,450059,54.7519160,55.9809548
38А,Малая Гражданская улица,450059,54.7509048,55.9802840
35А к5,Малая Гражданская улица,450059,54.7512062,55.9787159
35А к2,Малая Гражданская улица,450059,54.7514503,55.9780735
35А к4,Малая Гражданская улица,450059,54.7513533,55.9773761
35А к1,Малая Гражданская улица,450059,54.7508770,55.9779380
35А,Малая Гражданская улица,450059,54.7506216,55.9784326
35А к4,Малая Гражданская улица,450059,54.7508068,55.9772992
2 к4,Новосибирская улица,450059,54.7529882,55.9754043
2 к2,Новосибирская улица,450059,54.7531078,55.9761455
14 к1,Новосибирская улица,450059,54.7539730,55.9760781
2А,Новосибирская улица,450059,54.7537227,55.9764314
17,улица Энтузиастов,450098,54.7607478,56.0363445
44,Кооперативная улица,450018,54.6945837,55.9455224
42,Кооперативная улица,450018,54.6943800,55.9459942
40,Кооперативная улица,450018,54.6942551,55.9462740
34,Кооперативная улица,450018,54.6941379,55.9473344
158/2,улица Цюрупы,450006,54.7445904,55.9642375
3А к1,Гурьевская улица,450022,54.7131399,55.9868909
3А к10/1,Гурьевская улица,450022,54.7143693,55.9847959
3А к57,Гурьевская улица,450022,54.7147578,55.9868918
3А к56,Гурьевская улица,450022,54.7145947,55.9873022
3А к9А,Гурьевская улица,450022,54.7158122,55.9861833
25/1,Левобережная улица,450018,54.7095865,55.9420959
37,Левобережная улица,450018,54.7101347,55.9389956
63А,Кооперативная улица,450018,54.6958992,55.9352265
32,Сарапульская улица,450018,54.6943480,55.9478660
90,Сарапульская улица,450018,54.6945454,55.9480740
92,Сарапульская улица,450018,54.6944155,55.9482241
126,Линейная улица,450019,54.7468950,55.9118883
17Б,улица Деревенская Переправа,450019,54.7504517,55.9133877
88,Сарапульская улица,450018,54.6948598,55.9481274
12А,Красногорская улица,450018,54.6950490,55.9477988
84,Флотская улица,450018,54.6965568,55.9512295
10А,Красногорская улица,450018,54.6952838,55.9468219
10Б,Красногорская улица,450018,54.6951440,55.9466690
10,Красногорская улица,450018,54.6952145,55.9473036
12,Красногорская улица,450018,54.6952130,55.9480314
72В,Сарапульская улица,450018,54.6987261,55.9481859
69,улица Зои Космодемьянской,450018,54.7005642,55.9553324
22,Школьная улица,450018,54.7005209,55.9560927
10 к3,улица Академика Королёва,450105,54.7753466,56.0740535
3/7,улица Блюхера,450075,54.7824257,56.0147492
3/6,улица Блюхера,450075,54.7819724,56.0154419
9 к3,улица Комарова,450064,54.8256483,56.0572402
9/3,улица Комарова,450064,54.8261737,56.0571158
127,улица Мусы Джалиля,450014,54.7116002,55.8206799
21/5,проспект Октября,450059,54.7478734,55.9887059
10,улица Фатыха Иксанова,450007,54.7970563,55.9518358
15,Артезианская улица,450007,54.7970664,55.9528347
5,Таганайская улица,450007,54.7980408,55.9571527
30,Артезианская улица,450007,54.7982407,55.9565300
28,Артезианская улица,450007,54.7979482,55.9561640
18,Артезианская улица,450007,54.7961680,55.9539402
20,Артезианская улица,450007,54.7964625,55.9543046
22,Артезианская улица,450007,54.7967654,55.9546793
24,Артезианская улица,450007,54.7970645,55.9550493
5,улица Бану Валеевой,450007,54.7963567,55.9550656
33/1,Дагестанская улица,450050,54.7133803,55.8312521
10,Владивостокская улица,450078,54.7319996,55.9884591
102,улица Менделеева,450106,54.7103823,55.9861555
35,улица Пугачёва,450074,54.6872676,55.9834209
35/1,улица Пугачёва,450074,54.6870286,55.9828178
21,улица Испытателей,450074,54.6860942,55.9816649
34,улица Геологов,450074,54.6848738,55.9798105
10,улица Академика Гатауллина,450074,54.6930886,55.9729669
10,Солнечногорская улица,450074,54.6944437,55.9724907
8,Солнечногорская улица,450074,54.6942195,55.9714582
9,улица Академика Гатауллина,450074,54.6939073,55.9722630
12,Солнечногорская улица,450074,54.6940426,55.9733652
2,улица Геофизиков,450074,54.6940849,55.9756349
81/1,улица Аксакова,450076,54.7319569,55.9357033
11/1,Коммунистическая улица,450076,54.7301480,55.9280150
8,улица Джалиля Киекбаева,450078,54.7338310,55.9889352
3/3,улица Лётчика Кобелева,450043,54.7781514,56.1344248
8А,улица Валерия Лесунова,450039,54.7836451,56.1367655
6А,улица Валерия Лесунова,450039,54.7852099,56.1367597
4А,улица Валерия Лесунова,450039,54.7868514,56.1364186
35,Сельская Богородская улица,450039,54.7871131,56.1350149
2,Сельская Богородская улица,450030,54.7884975,56.1266980
2,Глумилинская улица,450098,54.7715353,56.0381592
10,улица Рудольфа Нуриева,450098,54.7606526,56.0309115
11,улица Энтузиастов,450098,54.7584765,56.0318415
6,улица Рудольфа Нуриева,450098,54.7588067,56.0311506
20,бульвар Давлеткильдеева,450098,54.7613962,56.0346184
18,бульвар Давлеткильдеева,450098,54.7622899,56.0342499
16,бульвар Давлеткильдеева,450098,54.7630830,56.0343408
156/4,улица Менделеева,450080,54.7218078,56.0238164
156/5,улица Менделеева,450080,54.7221747,56.0236404
152/4,Менделеева улица,450080,54.7216337,56.0188606
11,бульвар Баландина,450043,54.7807888,56.1281248
12/5,улица Юрия Гагарина,450073,54.7625211,56.0536797
3,Сельская улица,450028,54.7565385,56.2343711
151/1,улица Пархоменко,450001,54.7439975,55.9663860
156,улица Ленина,450006,54.7471930,55.9604169
156,улица Ленина,450006,54.7469844,55.9599700
156,улица Ленина,450006,54.7467337,55.9606505
18,улица Мухаметгалея Искужина,450007,54.7953687,55.9515682
20,улица Мухаметгалея Искужина,450007,54.7958215,55.9504654
13,Артезианская улица,450007,54.7965186,55.9531231
83,улица Ленина,450006,54.7434590,55.9565429
174,улица Ленина,450006,54.7476700,55.9603941
13,Пермская улица,450006,54.7475825,55.9607451
176,улица Ленина,450006,54.7479467,55.9604071
178,улица Ленина,450006,54.7481108,55.9605148
180,улица Ленина,450006,54.7483051,55.9606450
65/2,улица Академика Курчатова,450095,54.6684504,55.9122688
65/6,улица Академика Курчатова,450095,54.6684467,55.9139330
65/7,улица Академика Курчатова,450095,54.6682268,55.9144296
65/10,улица Академика Курчатова,450095,54.6670726,55.9160457
65/11,улица Академика Курчатова,450095,54.6672155,55.9165351
65/8,улица Академика Курчатова,450095,54.6675981,55.9151373
31/2,улица Степана Злобина,450022,54.7251689,55.9956160
3/2,Лесной проезд,450071,54.7376949,56.0175180
1/2,улица Маршала Жукова,450100,54.7655237,56.0475895
16,улица Юрия Гагарина,450073,54.7640028,56.0576011
6,Сельская Богородская улица,450030,54.7883986,56.1191399
69/1,улица Фурманова,450030,54.8002608,56.1568033
63,улица Фурманова,450030,54.7998805,56.1566945
4,бульвар Тухвата Янаби,450043,54.7757431,56.1235846
22,Силикатная улица,450003,54.7453990,55.9196513
2 к1,Богатырская улица,450003,54.7398054,55.9118287
29,улица Ферина,450043,54.7784238,56.1327302
29/1,Первомайская улица,450112,54.8168860,56.0784256
63,Рабочая улица,450003,54.7453162,55.9151679
65,Рабочая улица,450003,54.7454197,55.9153155
36 к1,Рабочая улица,45003,54.7443463,55.9154677
48А,улица Деревенская Переправа,450019,54.7481818,55.9097620
44А,Рабочая улица,450003,54.7456136,55.9163206
13А,Малая Лесопильная улица,450003,54.7364831,55.9136690
6А,улица Евгения Столярова,450095,54.6980564,55.8562475
22,Российская улица,450055,54.7892386,56.0402781
17/1,Кавказская улица,450103,54.7071420,55.9749064
169,Интернациональная улица,450068,54.8006777,56.1273885
57,улица Фурманова,450030,54.7992446,56.1540437
51,улица Фурманова,450030,54.7991919,56.1526271
55,улица Фурманова,450030,54.7993110,56.1530277
4,улица Хетагурова,450030,54.7994031,56.1526851
6,улица Хетагурова,450030,54.7996522,56.1526821
8,улица Хетагурова,450030,54.7998953,56.1526786
10,улица Хетагурова,450030,54.8001534,56.1526557
12,улица Хетагурова,450030,54.8004254,56.1526132
14,улица Хетагурова,450030,54.8005890,56.1525580
14А,улица Хетагурова,450030,54.8009751,56.1524645
16,улица Хетагурова,450030,54.8012414,56.1523290
19,улица Хетагурова,450030,54.8007973,56.1516776
17,улица Хетагурова,450030,54.8006491,56.1519696
15,улица Хетагурова,450030,54.8004344,56.1520359
13,улица Хетагурова,450030,54.8002094,56.1521054
11,улица Хетагурова,450030,54.8000082,56.1519779
9,улица Хетагурова,450030,54.7997996,56.1521211
7,улица Хетагурова,450030,54.7996012,56.1521073
5,улица Хетагурова,450030,54.7994041,56.1522101
3,улица Хетагурова,450030,54.7991958,56.1522245
49,улица Фурманова,450030,54.7989856,56.1523132
47,улица Фурманова,450030,54.7989043,56.1518868
45А,улица Фурманова,450030,54.7988320,56.1515265
41,улица Фурманова,450030,54.7987952,56.1511089
43,улица Фурманова,450030,54.7989386,56.1508369
4,улица Белинского,450030,54.7992357,56.1509584
6,улица Белинского,450030,54.7995400,56.1509377
8,улица Белинского,450030,54.7997282,56.1509266
10,улица Белинского,450030,54.7998806,56.1508099
12,улица Белинского,450030,54.8001472,56.1509195
14,улица Белинского,450030,54.8003426,56.1508964
16,улица Белинского,450030,54.8005765,56.1509388
18,улица Белинского,450030,54.8007651,56.1508555
20,улица Белинского,450030,54.8009463,56.1508921
15,улица Белинского,450030,54.8003504,56.1503156
13,улица Белинского,450030,54.8001229,56.1502537
11,улица Белинского,450030,54.7999582,56.1501990
9,улица Белинского,450030,54.7997389,56.1503538
7А,улица Белинского,450030,54.7995045,56.1503816
7,улица Белинского,450030,54.7993430,56.1503445
33,Прессовая улица,450030,54.8009660,56.1486668
2А,улица Белинского,450030,54.7980728,56.1508356
2Б,улица Белинского,450030,54.7978349,56.1510510
1Б,улица Белинского,450030,54.7978662,56.1503376
4,Прессовая улица,450030,54.7977305,56.1499417
161,Байкальская улица,450030,54.7976241,56.1503304
159,Байкальская улица,450030,54.7974752,56.1502074
2А,Прессовая улица,450030,54.7975191,56.1496092
158,Байкальская улица,450030,54.7974198,56.1500658
156,Байкальская улица,450030,54.7973446,56.1499326
154,Байкальская улица,450030,54.7972448,56.1497165
153,Байкальская улица,450030,54.7971960,56.1496090
152,Байкальская улица,450030,54.7971718,56.1494826
2,Прессовая улица,450030,54.7972520,56.1491466
133,Байкальская улица,450030,54.7961607,56.1464976
17,Тихорецкая улица,450037,54.7486425,56.0032480
5,улица Мамина-Сибиряка,450099,54.7570916,56.0397585
28,Чермасанская улица,450105,54.7735465,56.0519261
26,Чермасанская улица,450105,54.7736043,56.0517370
61А,Кулундинская улица,450105,54.7734658,56.0513892
24,Чермасанская улица,450105,54.7736748,56.0514613
22,Чермасанская улица,450105,54.7738304,56.0514551
20,Чермасанская улица,450105,54.7739294,56.0515229
18,Чермасанская улица,450105,54.7740990,56.0516000
16,Чермасанская улица,450105,54.7742033,56.0516853
14,Чермасанская улица,450105,54.7743782,56.0518025
12,Чермасанская улица,450105,54.7744912,56.0518950
10,Чермасанская улица,450105,54.7746068,56.0519633
8,Чермасанская улица,450105,54.7747359,56.0519966
6,Чермасанская улица,450105,54.7748915,56.0521383
4,Чермасанская улица,450105,54.7750046,56.0522084
2,Чермасанская улица,450105,54.7751791,56.0523434
35,Кулундинская улица,450105,54.7752763,56.0518244
173,улица Ахметова,450017,54.7716090,55.8937466
175,улица Ахметова,450017,54.7717571,55.8936575
177,улица Ахметова,450017,54.7719501,55.8935623
179,улица Ахметова,450017,54.7721298,55.8934244
181,улица Ахметова,450017,54.7723143,55.8933564
183,улица Ахметова,450017,54.7724222,55.8933097
185,улица Ахметова,450017,54.7726015,55.8929795
187,улица Ахметова,450017,54.7727579,55.8929155
189,улица Ахметова,450017,54.7729341,55.8925581
23,Союзная улица,450017,54.7862206,55.8768588
15,Пляжная улица,450007,54.8038679,55.9371273
48,Пляжная улица,450007,54.8043483,55.9363520
16,2-я Аэродромная улица,450007,54.8054804,55.9386572
48,Стартовая улица,450007,54.8022316,55.9444029
47,Вертолетная улица,450007,54.8021701,55.9433730
49,Вертолетная улица,450007,54.8019841,55.9434101
53,Вертолетная улица,450007,54.8015779,55.9433952
55,Вертолетная улица,450007,54.8013514,55.9434335
57,Вертолетная улица,450007,54.8011230,55.9434135
59,Вертолетная улица,450007,54.8008867,55.9434923
65,Вертолетная улица,450007,54.8002240,55.9435427
67,Вертолетная улица,450007,54.8000462,55.9435033
69,Вертолетная улица,450007,54.7997146,55.9435869
71,Вертолетная улица,450007,54.7995187,55.9437732
73,Вертолетная улица,450007,54.7993422,55.9435895
75,Вертолетная улица,450007,54.7990559,55.9435869
77,Вертолетная улица,450007,54.7988519,55.9435680
50,Стартовая улица,450007,54.8020321,55.9449180
52,Стартовая улица,450007,54.8018172,55.9448532
56,Стартовая улица,450007,54.8013553,55.9449916
60,Стартовая улица,450007,54.8008794,55.9449602
62,Стартовая улица,450007,54.8006672,55.9448995
64,Стартовая улица,450007,54.8004649,55.9449634
66,Стартовая улица,450007,54.8002114,55.9448150
68,Стартовая улица,450007,54.8000255,55.9450070
70,Стартовая улица,450007,54.7997795,55.9450396
74,Стартовая улица,450007,54.7992731,55.9450281
76,Стартовая улица,450007,54.7991370,55.9450583
78,Стартовая улица,450007,54.7989016,55.9450107
4А,Баварская улица,450007,54.7881225,55.9533812
25А,Молодёжная улица,450007,54.7879444,55.9532999
7,улица Защитников Отечества,450007,54.7885438,55.9484521
1,улица Защитников Отечества,450007,54.7879172,55.9490227
1/1,улица Надежды,450007,54.7895320,55.9490142
96,улица Розы Люксембург,450068,54.8166562,56.1295075
128,Глазовская улица,450095,54.6898073,55.8259870
126А,Глазовская улица,450095,54.6900039,55.8264525
126,Глазовская улица,450095,54.6900471,55.8266622
124,Глазовская улица,450095,54.6901296,55.8269003
122,Глазовская улица,450095,54.6902168,55.8271735
120,Глазовская улица,450095,54.6903691,55.8273897
118,Глазовская улица,450095,54.6903966,55.8278352
114,Глазовская улица,450095,54.6906559,55.8285194
112,Глазовская улица,450095,54.6907444,55.8288175
110,Глазовская улица,450095,54.6908852,55.8291803
108,Глазовская улица,450095,54.6909524,55.8294935
102,Глазовская улица,450095,54.6910736,55.8301589
100,Глазовская улица,450095,54.6908307,55.8306024
98,Глазовская улица,450095,54.6911338,55.8306952
96,Глазовская улица,450095,54.6912066,55.8309387
94,Глазовская улица,450095,54.6912415,55.8313086
92,Глазовская улица,450095,54.6913644,55.8317497
90,Глазовская улица,450095,54.6910841,55.8321595
88,Глазовская улица,450095,54.6913501,55.8323503
86А,Глазовская улица,450095,54.6913949,55.8326194
84,Глазовская улица,450095,54.6915795,55.8329033
80,Глазовская улица,450095,54.6915252,55.8334543
78,Глазовская улица,450095,54.6913260,55.8338700
76,Глазовская улица,450095,54.6914360,55.8342519
74,Глазовская улица,450095,54.6914853,55.8345563
72,Глазовская улица,450095,54.6915243,55.8348024
70,Глазовская улица,450095,54.6915611,55.8351799
68,Глазовская улица,450095,54.6915504,55.8355162
66,Глазовская улица,450095,54.6916590,55.8359217
64,Глазовская улица,450095,54.6916157,55.8362723
62,Глазовская улица,450095,54.6916219,55.8365874
60,Глазовская улица,450095,54.6916322,55.8371353
54,Глазовская улица,450095,54.6916798,55.8379722
58,Глазовская улица,450095,54.6917301,55.8373780
56/А,Глазовская улица,450095,54.6916865,55.8377019
69,Глазовская улица,450095,54.6912966,55.8349195
63А,Глазовская улица,450095,54.6914024,55.8358764
63А,Глазовская улица,450095,54.6914024,55.8362877
63,Глазовская улица,450095,54.6914072,55.8365682
61А,Глазовская улица,450095,54.6913913,55.8368208
59,Глазовская улица,450095,54.6913779,55.8375551
57,Глазовская улица,450095,54.6914106,55.8378682
57А,Глазовская улица,450095,54.6914128,55.8382162
55,Глазовская улица,450095,54.6914262,55.8384552
53,Глазовская улица,450095,54.6914217,55.8389219
51,Глазовская улица,450095,54.6913739,55.8393121
47,Глазовская улица,450095,54.6914326,55.8400368
96,Ташкентская улица,450051,54.8408361,56.1538053
2,улица Мечникова,450033,54.8260298,56.1870878
1/2,Сосновская улица,450033,54.8248897,56.1844133
1/1,Сосновская улица,450033,54.8247124,56.1838866
11,улица Мечникова,450033,54.8248665,56.1861254
142,Сосновская улица,450033,54.8125807,56.1614908
4 к1,улица Зелёная Роща,450045,54.9176949,56.0713674
1 к3,Бирский тракт,450045,54.9203033,56.0753538
43,Заозёрная улица,450019,54.7324730,55.9093665
24,Щепетовская улица,450003,54.7269183,55.9030465
40,Ленинградская улица,450019,54.7466289,55.9093785
32,Инзерская улица,450019,54.7467467,55.9092794
30,Инзерская улица,450019,54.7466493,55.9088062
30А,Инзерская улица,450019,54.7466508,55.9085913
28,Инзерская улица,450019,54.7466204,55.9083895
26,Инзерская улица,450019,54.7465617,55.9081615
26А,Инзерская улица,450019,54.7465302,55.9079614
24,Инзерская улица,450019,54.7463738,55.9075329
22,Инзерская улица,450019,54.7463106,55.9072985
20,Инзерская улица,450019,54.7462343,55.9069545
20А,Инзерская улица,450019,54.7461772,55.9067017
18,Инзерская улица,450019,54.7461209,55.9064885
16,Инзерская улица,450019,54.7460495,55.9061629
16А,Инзерская улица,450019,54.7460098,55.9059621
14,Инзерская улица,450019,54.7459438,55.9057519
12,Инзерская улица,450019,54.7459665,55.9053537
10,Инзерская улица,450019,54.7458503,55.9050847
8/1,Инзерская улица,450019,54.7458162,55.9047609
6,Инзерская улица,450019,54.7457510,55.9044289
4,Инзерская улица,450019,54.7455874,55.9041667
1А,Смоленская улица,450019,54.7450453,55.9039712
1,Смоленская улица,450019,54.7450097,55.9041969
3,Смоленская улица,450019,54.7450269,55.9045831
5,Смоленская улица,450019,54.7450993,55.9048916
11,Смоленская улица,450019,54.7453072,55.9056756
7,Смоленская улица,450019,54.7451933,55.9052352
9,Смоленская улица,450019,54.7452541,55.9054508
21,Смоленская улица,450019,54.7455987,55.9065619
13,Смоленская улица,450019,54.7454112,55.9059523
15А,Смоленская улица,450019,54.7455409,55.9063849
23,Смоленская улица,450019,54.7456544,55.9068274
25,Смоленская улица,450019,54.7456967,55.9070930
25А,Смоленская улица,450019,54.7457469,55.9072670
27,Смоленская улица,450019,54.7458312,55.9076650
29,Смоленская улица,450019,54.7459062,55.9080005
31,Смоленская улица,450019,54.7460193,55.9082063
33,Смоленская улица,450019,54.7460370,55.9084637
35,Смоленская улица,450019,54.7462547,55.9087208
37,Смоленская улица,450019,54.7462508,55.9091031
40А,Ленинградская улица,450019,54.7465063,55.9095183
42,Ленинградская улица,450019,54.7463858,55.9096952
42А,Астраханская улица,450019,54.7341564,55.9083674
33,Придорожная улица,450003,54.7434303,55.9154246
34А,Большая Заливная улица,450003,54.7410022,55.9199591
49a,Большая Заливная улица,450003,54.7420404,55.9205120
51f,Большая Заливная улица,450003,54.7422275,55.9206302
55,Большая Заливная улица,450003,54.7424939,55.9210874
57,Большая Заливная улица,450003,54.7425938,55.9212131
57,Большая Заливная улица,450003,54.7427070,55.9212617
59,Большая Заливная улица,450003,54.7427851,55.9214470
61,Большая Заливная улица,450003,54.7428804,55.9215228
63,Большая Заливная улица,450003,54.7430321,55.9217495
65,Большая Заливная улица,450003,54.7431365,55.9218240
65,Большая Заливная улица,450003,54.7432316,55.9218587
67,Большая Заливная улица,450003,54.7433176,55.9221546
69,Большая Заливная улица,450003,54.7434798,55.9223733
71,Большая Шерстомойная улица,450003,54.7436115,55.9225742
45,2-я Придорожная улица,450003,54.7408527,55.9207913
45a,2-я Придорожная улица,450003,54.7410618,55.9206731
43,2-я Придорожная улица,450003,54.7410116,55.9204560
41,2-я Придорожная улица,450003,54.7411319,55.9203368
36,Большая Заливная улица,450003,54.7412228,55.9201557
38,Большая Заливная улица,450003,54.7413777,55.9204082
40,Большая Заливная улица,450003,54.7414676,55.9204899
42,Большая Заливная улица,450003,54.7415150,55.9206430
44,Большая Заливная улица,450003,54.7417453,55.9208184
46,Большая Заливная улица,450003,54.7418018,55.9210149
48,Большая Заливная улица,450003,54.7419295,55.9210243
50,Большая Заливная улица,450003,54.7420459,55.9211356
52Б,Большая Заливная улица,450003,54.7421317,55.9212301
54/1,Большая Заливная улица,450003,54.7423408,55.9215165
54,Большая Заливная улица,450003,54.7422742,55.9214090
56А,Большая Заливная улица,450003,54.7424478,55.9215949
56,Большая Заливная улица,450003,54.7425173,55.9217022
58,Большая Заливная улица,450003,54.7426027,55.9217845
62,Большая Заливная улица,450003,54.7428226,55.9220630
60,Большая Заливная улица,450003,54.7426116,55.9220420
64,Большая Заливная улица,450003,54.7429015,55.9221706
68,Большая Заливная улица,450003,54.7430100,55.9223929
68к1,Большая Заливная улица,450003,54.7430661,55.9225881
68,Большая Заливная улица,450003,54.7432107,55.9227117
70,Большая Заливная улица,450003,54.7433089,55.9228104
72,Большая Заливная улица,450003,54.7433792,55.9230575
33,Заливной переулок,450003,54.7433851,55.9234497
74,Большая Заливная улица,450003,54.7435016,55.9231954
29,Гурьевская улица,450022,54.7126616,55.9882660
33,улица Пугачёва,450074,54.6874329,55.9829231
10,Спасский переулок,450074,54.6871345,55.9848217
6,Высотная улица,450103,54.7083248,55.9809090
8,Высотная улица,450103,54.7081673,55.9810975
2Л,Тенистый переулок,450000,54.5443391,55.9405680
14,Хрустальная улица,450591,54.5994458,55.9494307
16,Агатовская улица,450591,54.6030248,55.9319625
10,Окольная улица,450591,54.6029392,55.9274674
35,Рубиновая улица,450000,54.6005639,55.9381439
25,Строгановская улица,450591,54.5993795,55.9337175
27,Строгановская улица,450591,54.5997216,55.9337253
29,Строгановская улица,450591,54.5999571,55.9337121
31,Строгановская улица,450591,54.6001692,55.9336839
33,Строгановская улица,450591,54.6004116,55.9336812
35,Строгановская улица,450591,54.6006802,55.9336662
34,Подлесная улица,450591,54.6007483,55.9327704
32,Подлесная улица,450591,54.6004059,55.9327775
30,Подлесная улица,450591,54.6002515,55.9328381
30А,Подлесная улица,450591,54.6001196,55.9328546
28,Подлесная улица,450591,54.5999628,55.9327927
26,Подлесная улица,450591,54.5996911,55.9328876
24,Подлесная улица,450591,54.5993792,55.9328536
20,Светлая улица,450591,54.5977435,55.9359230
14,Ямская улица,450000,54.5967885,55.9373701
9,Подлесная улица,450000,54.5965276,55.9322837
13/1,Аркаимская улица,450000,54.5963572,55.9286623
19,Столбовая улица,450000,54.6470990,55.9276505
2Б,улица Первопроходцев,450074,54.6936772,55.9748326
6,Солнечногорская улица,450074,54.6946288,55.9705751
7,улица Булата Имашева,450074,54.6925460,55.9719140
4,Солнечногорская улица,450074,54.6943776,55.9695240
5,улица Академика Гатауллина,450074,54.6940775,55.9703701
9,улица Булата Имашева,450074,54.6922199,55.9729014
56,улица Софьи Перовской,450074,54.6966692,55.9943843
2/6,улица Лётчиков,450010,54.7942433,55.8523843
9,бульвар Назара Наджми,450074,54.6942342,55.9684001
7,Артезианская улица,450007,54.7959105,55.9514016
88Г,улица Чехова,450033,54.8343342,56.1968087
64/4,Бакалинская улица,450022,54.7204533,55.9925289
8,Интернациональная улица,450064,54.8110908,56.0649529
8/1,Интернациональная улица,450064,54.8110408,56.0655350
8/2,Интернациональная улица,450064,54.8110785,56.0659336
10,Интернациональная улица,450064,54.8110697,56.0663806
71 к1,улица Рихарда Зорге,450075,54.7715848,56.0122088
15,бульвар Назара Наджми,450074,54.6917017,55.9678317
11,бульвар Назара Наджми,450074,54.6934086,55.9682521
3,улица Булата Имашева,450074,54.6927806,55.9691075
6,улица Булата Имашева,450074,54.6915438,55.9697968
7/1,улица Просвещения,450074,54.6901607,55.9703382
5,улица Просвещения,450074,54.6899068,55.9692343
7,улица Просвещения,450074,54.6896074,55.9702614
11,улица Просвещения,450074,54.6894181,55.9721955
11/1,улица Просвещения,450074,54.6900059,55.9721745
80,улица Менделеева,450106,54.7107355,55.9834149
8 к1,Высотная улица,450103,54.7079422,55.9804985
12,улица Булата Имашева,450074,54.6909899,55.9726116
12,улица Асхата Мирзагитова,450007,54.7813661,55.9614715
20,Природная улица,450007,54.7812802,55.9627821
10,улица Асхата Мирзагитова,450007,54.7802672,55.9612545
10/1,улица Асхата Мирзагитова,450007,54.7801812,55.9625653
2,Баварская улица,450007,54.7873924,55.9528040
9,Артезианская улица,450007,54.7959564,55.9522817
6,улица Фатыха Иксанова,450007,54.7964130,55.9511880
11,Артезианская улица,450007,54.7964848,55.9521434
7,улица Бану Валеевой,450007,54.7976772,55.9536310
17,Артезианская улица,450007,54.7971297,55.9538263
14,улица Фатыха Иксанова,450007,54.7976404,55.9526031
7,улица Фатыха Иксанова,450007,54.7976764,55.9513996
5,улица Фатыха Иксанова,450007,54.7973825,55.9510303
3,улица Фатыха Иксанова,450007,54.7971085,55.9506860
1,улица Фатыха Иксанова,450007,54.7968149,55.9503170
58,Стартовая улица,450007,54.8010354,55.9449831
10,улица Евгения Столярова,450095,54.6960275,55.8555377
90,улица Гафури,450052,54.7353897,55.9333381
88,улица Гафури,450052,54.7350619,55.9331769
17/1,улица Софьи Перовской,450103,54.6981504,55.9928996
10,улица Булата Имашева,450074,54.6913723,55.9717347
2Б,улица Лётчиков,450010,54.7919261,55.8528659
18/6,Уфимское шоссе,450104,54.7807187,56.0468999
19,бульвар Назара Наджми,450074,54.6900290,55.9673109
19/1,бульвар Назара Наджми,450074,54.6903205,55.9684204
3,улица Просвещения,450074,54.6897233,55.9683237
9,улица Просвещения,450074,54.6897415,55.9711852
10/1,улица Булата Имашева,450074,54.6908686,55.9715249
8,улица Булата Имашева,450074,54.6911325,55.9707102
6/1,улица Булата Имашева,450074,54.6910061,55.9696019
13,бульвар Назара Наджми,450074,54.6926480,55.9680407
4,улица Булата Имашева,450074,54.6912843,55.9687510
17,бульвар Назара Наджми,450074,54.6911666,55.9676338
1,улица Героя Зорина,450074,54.6840982,55.9792867
3,улица Героя Зорина,450074,54.6835922,55.9800838
5,улица Героя Зорина,450074,54.6831046,55.9808521
6,улица Бехтерева,450103,54.7119078,55.9687763
6/1,бульвар Героев Труда,450014,54.6985583,55.7998443
57,проспект Дружбы Народов,450017,54.7717196,55.9007594
59,проспект Дружбы Народов,450017,54.7720522,55.8999273
61,проспект Дружбы Народов,450017,54.7723786,55.8990849
55,проспект Дружбы Народов,450017,54.7714139,55.9017797
57/1,проспект Дружбы Народов,450017,54.7709062,55.8998016
59/1,проспект Дружбы Народов,450017,54.7712505,55.8989205
61/1,проспект Дружбы Народов,450017,54.7715941,55.8980409
7,бульвар Назара Наджми,450074,54.6947933,55.9685983
8,Яркий бульвар,450095,54.6962512,55.8580320
7,Кустаревская набережная,450095,54.6994088,55.8534528
9,Кустаревская набережная,450095,54.6981392,55.8529525
11,Кустаревская набережная,450095,54.6976506,55.8528885
9,Яркий бульвар,450095,54.6970821,55.8584002
11,Яркий бульвар,450095,54.6968713,55.8594945
13,Яркий бульвар,450095,54.6966698,55.8604708
3,улица Евгения Столярова,450095,54.6981002,55.8590704
3/1,улица Евгения Столярова,450095,54.6978244,55.8601359
4,Архитектора Калимуллина,450095,54.6975488,55.8612011
15,Кустаревская набережная,450095,54.6964224,55.8531336
13,Кустаревская набережная,450095,54.6969259,55.8531675
40А,Тальковая улица,450007,54.7968749,55.9608203
3А к10,Гурьевская улица,450022,54.7139581,55.9851010
3А к7,Гурьевская улица,450022,54.7153963,55.9850413
3А к41,Гурьевская улица,450022,54.7150724,55.9876826
3А к29,Гурьевская улица,450022,54.7139643,55.9873787
9,улица Гази Загитова,450010,54.7906921,55.8455173
9/1,улица Гази Загитова,450010,54.7903510,55.8443341
47/1,улица Мира,450044,54.8242505,56.0692331
52,Российская улица,450055,54.7858526,56.0383953
131,Коммунистическая улица,450077,54.7170201,55.9661220
2А,Центральная улица,450095,54.7030135,55.8440162
15/1,улица Энтузиастов,450098,54.7590777,56.0354023
46,Кооперативная улица,450018,54.6946804,55.9450291
33,Кольская улица,450104,54.7742937,56.0406251
10,улица Асхата Мирзагитова,450007,54.7791838,55.9610407
15,улица Асхата Мирзагитова,450007,54.7790978,55.9623517
47/1,Российская улица,450104,54.7764661,56.0386951
47/2,Российская улица,450104,54.7757989,56.0395196
8,улица Генерала Ишбулатова,450014,54.7096749,55.8095323
8/1,улица Генерала Ишбулатова,450014,54.7094882,55.8106418
8/2,улица Генерала Ишбулатова,450014,54.7101853,55.8100944
8/4,улица Генерала Ишбулатова,450014,54.7104245,55.8118201
8/3,улица Генерала Ишбулатова,450014,54.7096426,55.8120800
17,улица Сагита Агиша,450080,54.7266881,56.0098080
19,улица Сагита Агиша,450080,54.7260197,56.0088389
7Б,улица Белинского,450030,54.7995531,56.1498841
2,улица Белинского,450030,54.7990834,56.1508494
10А,улица Белинского,450030,54.7999702,56.1508153
13А,Прибельская улица,450074,54.6865677,55.9554965
5/8,улица Блюхера,450075,54.7808371,56.0221103
3Г,улица Блюхера,450075,54.7811510,56.0221143
5/8Б,улица Блюхера,450075,54.7810398,56.0227414
3/1,улица Лётчика Кобелева,450043,54.7781521,56.1364111
3/2,улица Лётчика Кобелева,450043,54.7781504,56.1354162
8/1,улица Валерия Лесунова,450039,54.7831277,56.1355591
13/2,Трамвайная улица,450027,54.7996654,56.0917158
3,улица Воинов-Интернационалистов,450104,54.7805960,56.0503940
10,улица Джалиля Киекбаева,450078,54.7334469,55.9898766
70,проспект Октября,450054,54.7604744,56.0121256
70/1,проспект Октября,450054,54.7609108,56.0127076
73,улица Гафури,450076,54.7308100,55.9294997
130,улица Кирова,450078,54.7254976,55.9826509
90/2,бульвар Ибрагимова,450005,54.7387626,55.9692505
156Г,улица Пархоменко,450001,54.7449312,55.9706290
11/2,улица Гази Загитова,450010,54.7907543,55.8426774
11/1,улица Гази Загитова,450010,54.7914823,55.8427940
11,улица Гази Загитова,450010,54.7917556,55.8439551
7,улица Гази Загитова,450010,54.7895882,55.8470013
2,улица Дмитрия Купцова,450010,54.7927760,55.8444770
6,улица Дмитрия Купцова,450010,54.7933787,55.8465294
4,улица Дмитрия Купцова,450010,54.7931255,55.8453947
2Б,улица Сагита Агиша,450080,54.7288959,56.0005501
10/1,Яркий бульвар,450095,54.6953806,55.8595301
8/1,Яркий бульвар,450095,54.6957258,55.8577725
10,Яркий бульвар,450095,54.6958913,55.8598519
3А,улица Евгения Столярова,450095,54.6975488,55.8588106
15/3,улица Рихарда Зорге,450059,54.7522223,55.9820462
106/3,Комсомольская улица,450037,54.7509650,56.0072039
15,улица имени Фронтовых Бригад,450043,54.7748718,56.1349686
18,Черниковская улица,450038,54.8111729,56.1057208
4,Нежинская улица,450064,54.8162234,56.0652460
4/1,Нежинская улица,450064,54.8158114,56.0645739
1 к1,Центральная улица,450095,54.7039911,55.8473978
5,улица Булата Имашева,450074,54.6924059,55.9704269
15,Смоленская улица,450019,54.7455693,55.9059658
8,Инзерская улица,450019,54.7457432,55.9046285
14А,Инзерская улица,450019,54.7459859,55.9054445
24А,Инзерская улица,450019,54.7464522,55.9076218
19,улица Красина,450052,54.7344664,55.9329982
15,Коммунистическая улица,450076,54.7295315,55.9291336
50/2,Кремлёвская улица,450065,54.8152450,56.1131345
1/1к1,улица Пугачёва,450074,54.6951052,55.9752548
1В,улица Пугачёва,450074,54.6925126,55.9795589
65/6,улица Ленина,450015,54.7411596,55.9516495
3,улица Академика Курчатова,450000,54.6484432,55.9183632
1,улица Лётчика Кобелева,450043,54.7783996,56.1373318
6,Путейская улица,450065,54.8350174,56.1142704
299,улица Ахметова,450017,54.7898196,55.8794802
16,улица Авроры,450092,54.7078772,56.0104625
12,улица Авроры,450092,54.7011708,56.0077447
133/5,улица Пархоменко,450006,54.7433679,55.9652607
76,улица Рихарда Зорге,450075,54.7709612,56.0160284
10А,Комсомольская улица,450097,54.7401383,55.9937313
17/3,улица Рихарда Зорге,450059,54.7532092,55.9844473
55,Большая Заливная улица,450003,54.7424156,55.9210134
64,Большая Заливная улица,450003,54.7429334,55.9223221
19,Апрельская улица,450028,54.7593152,56.2337780
49,Центральная улица,450024,54.6780771,55.8060230
53 к3,Центральная улица,450024,54.6780403,55.8093001
53/3,Центральная улица,450024,54.6785097,55.8093164
18/4,улица Правды,450095,54.7037217,55.8331238
12/1к1,улица Сергея Вострецова,450068,54.8032725,56.1273946
150/1,Новороссийская улица,450024,54.7124653,55.8168832
89/1А,проспект Октября,450104,54.7765636,56.0287661
135/1,проспект Октября,450075,54.7949368,56.0367841
160,Байкальская улица,450030,54.7975157,56.1502847
1,улица Белинского,450030,54.7979294,56.1505888
30,улица Орджоникидзе,450068,54.8050937,56.1283188
3,улица Генерала Рыленко,450074,54.6962116,55.9935697
8,улица Даяна Мурзина,450018,54.6754507,55.9216986
8А,Шайхзады Бабича,450104,54.7739750,56.0363949
7/1,Глумилинская улица,450104,54.7740506,56.0368381
7,Глумилинская улица,450104,54.7739500,56.0373048
162/1,улица Ленина,450006,54.7475967,55.9620118
7А,улица Энтузиастов,450096,54.7578234,56.0278352
9к1,улица Георгия Мушникова,450039,54.7775089,56.1143838
5,улица Рудольфа Нуреева,450096,54.7583207,56.0295587
6 к1,улица Машинистов,450095,54.7020490,55.8566021
67,Глазовская улица,450095,54.6912215,55.8355354
55А,Глазовская улица,450095,54.6914254,55.8386711
82,Глазовская улица,450095,54.6910129,55.8334079
60А,Глазовская улица,450095,54.6917595,55.8368534
2/1,Баварская улица,450007,54.7873639,55.9536338
5/2,улица Конституции,450044,54.8240918,56.0674645
10 к1,Комсомольская улица,450097,54.7400537,55.9940491
13/1,улица Рихарда Зорге,450059,54.7516586,55.9847163
31/1,улица Юрия Гагарина,450105,54.7670706,56.0695927
311,улица Ахметова,450017,54.7914549,55.8773547
156/1А,улица Менделеева,450080,54.7217636,56.0214002
151/2,улица Пархоменко,450001,54.7440886,55.9656992
1/4,Цветочная улица,450112,54.8059123,56.0723908
82к5,улица Свободы,450065,54.8292588,56.1240552
1,Вокзальная улица,450015,54.7430847,55.9370576
48/8,улица имени Фронтовых Бригад,450043,54.7743539,56.1346614
5,улица Коммунаров,450035,54.8107528,56.1120604
19,Фруктовая улица,450104,54.7763904,56.0460067
66,Пляжная улица,450007,54.8012986,55.9364382
18,улица Авроры,450092,54.7099290,56.0098512
50/1,Кремлёвская улица,450065,54.8153552,56.1123259
6,улица им. города Галле,450009,54.7461794,55.9954896
1/3,улица Блюхера,450075,54.7790796,56.0212180
7,улица Коммунаров,450035,54.8114117,56.1126655
65/9,улица Академика Курчатова,450095,54.6678981,55.9154600
156,проспект Октября,450055,54.7858531,56.0355849
82,улица Пушкина,450076,54.7228050,55.9378762
32,Большая Заливная улица,450003,54.7431711,55.9237533
34,Большая Заливная улица,450003,54.7432945,55.9239473
19Б,Силикатная улица,450003,54.7451983,55.9223206
126В,Линейная улица,450019,54.7466424,55.9121341
1а к1,Лесозаводская улица,450019,54.7436016,55.9013006
65/6a,улица Ленина,450006,54.7389553,55.9539791
24,Кавказская улица,450103,54.7080921,55.9787278
6,Ландшафтная улица,450902,54.6659056,56.0779210
10/1,улица Минигали Губайдуллина,450080,54.7224068,55.9967100
10/1,улица Минигали Губайдуллина,450080,54.7228390,55.9957935
82,улица Свободы,450061,54.8297746,56.1174162
73,Стартовая улица,450007,54.7998468,55.9455972
77,Стартовая улица,450007,54.7994665,55.9455854
72,Стартовая улица,450007,54.7995854,55.9444949
63,Вертолетная улица,450007,54.8004741,55.9436247
61,Вертолетная улица,450007,54.8006534,55.9435839
51,Вертолетная улица,450007,54.8017988,55.9439450
47А,Вертолетная улица,450007,54.8022248,55.9439895
54,Стартовая улица,450007,54.8015770,55.9449202
86/5,улица Свободы,450065,54.8396823,56.1198391
8,улица Рафита Исламова,450069,54.7796452,56.2133489
10,улица Рафита Исламова,450069,54.7795599,56.2131424
12,улица Рафита Исламова,450069,54.7795614,56.2129436
6,Кандринская улица,450095,54.6894778,55.7990597
64,Гвардейская улица,450028,54.7554585,56.2479069
99А,улица Достоевского,450005,54.7330635,55.9608178
5/2,улица Авроры,450092,54.6959609,56.0018914
47,Коммунистическая улица,450077,54.7269994,55.9440691
13/2,улица Софьи Перовской,450103,54.7006352,55.9882384
5/1,бульвар Плеханова,450068,54.8091422,56.1323893
37А,улица Пугачёва,450074,54.6868186,55.9836243
53,проспект Дружбы Народов,450017,54.7704534,55.9028929
55/1,проспект Дружбы Народов,450017,54.7704961,55.9012429
132 к1,улица Достоевского,450005,54.7288655,55.9670304
9,бульвар Хадии Давлетшиной,450097,54.7371291,55.9927859
24,Бородинская улица,450074,54.6828395,55.9815806
6,улица Евгения Столярова,450095,54.6976525,55.8568894
11,улица Даяна Мурзина,450018,54.6739819,55.9197544
13,улица Даяна Мурзина,450018,54.6751151,55.9189609
8,улица Мечтателей,450075,54.7119815,55.8423995
6,улица Мечтателей,450075,54.7112313,55.8410765
16,Миловская улица,450010,54.7928760,55.8485429
44,улица Максима Горького,450044,54.8247640,56.0682407
24,Российская улица,450055,54.7885017,56.0399489
20,Российская улица,450055,54.7902269,56.0407344
1 к2,улица Лётчиков,450010,54.7910848,55.8533813
50,Российская улица,450055,54.7864364,56.0391277
54А,Российская улица,450055,54.7854924,56.0386041
11 к2,улица Набережная реки Уфы,450073,54.7613231,56.0611948
13,улица Энтузиастов,450098,54.7591952,56.0334696
15,улица Энтузиастов,450098,54.7601040,56.0350374
7А,улица Архитектора Рехмукова,450098,54.7636007,56.0305275
7,улица Архитектора Рехмукова,450098,54.7631848,56.0310501
128А к2,улица Кирова,450078,54.7251380,55.9810959
128 к2,улица Кирова,450078,54.7255120,55.9806066
126,улица Кирова,450078,54.7258435,55.9795341
353,улица Ахметова,450010,54.7959235,55.8688224
355,улица Ахметова,450010,54.7961572,55.8680470
7,улица Воинов-Интернационалистов,450104,54.7806846,56.0481208
24/1,Уфимское шоссе,450104,54.7849446,56.0513581
123,улица Пархоменко,450006,54.7394511,55.9651164
29,улица Гоголя,450076,54.7252182,55.9358785
41,улица Степана Кувыкина,450106,54.7112173,55.9999946
30,Дуванский бульвар,450106,54.7115798,55.9987514
5,улица Гали Ибрагимова,450080,54.7246694,55.9993401
5/1,улица Гали Ибрагимова,450080,54.7253458,55.9978414
28,улица Ленина,450077,54.7263569,55.9482290
80/2А,улица Свободы,450065,54.8249555,56.1193597
80/3,улица Свободы,450065,54.8242916,56.1214193
80/2,улица Свободы,450065,54.8246262,56.1201387
32,Прибельская улица,450074,54.6867837,55.9561086
34,Прибельская улица,450074,54.6870842,55.9563993
20,Бородинская улица,450074,54.6859752,55.9851380
20/1,Бородинская улица,450074,54.6862154,55.9846261
53,улица Геологов,450074,54.6847349,55.9836085
11,Бородинская улица,450074,54.6824276,55.9847048
11/1,Бородинская улица,450074,54.6819670,55.9854534
9/1,Бородинская улица,450074,54.6823960,55.9859656
9,Бородинская улица,450074,54.6829316,55.9850974
11/1,улица Даяна Мурзина,450018,54.6735266,55.9178371
12,улица Академика Сулейманова,450018,54.6747241,55.9170221
9/1,улица Даяна Мурзина,450018,54.6722866,55.9186950
10,улица Академика Сулейманова,450018,54.6743329,55.9150639
7/1,улица Даяна Мурзина,450018,54.6710717,55.9195144
7,улица Даяна Мурзина,450018,54.6715012,55.9214462
9,улица Даяна Мурзина,450018,54.6727195,55.9206171
21,улица Лесотехникума,450096,54.7554265,56.0266608
16,улица Энтузиастов,450096,54.7567442,56.0302784
1,улица Рудольфа Нуреева,450096,54.7550521,56.0290016
14,улица Энтузиастов,450096,54.7569124,56.0283580
12,улица Энтузиастов,450096,54.7567658,56.0262101
10,улица Энтузиастов,450096,54.7566622,56.0257008
7Б,улица Энтузиастов,450096,54.7574961,56.0263975
7,улица Энтузиастов,450096,54.7578336,56.0260770
13/1,улица Энтузиастов,450098,54.7588056,56.0338284
16,улица Рудольфа Нуреева,450098,54.7638366,56.0341565
14А,улица Рудольфа Нуреева,450098,54.7621862,56.0329310
14,улица Рудольфа Нуреева,450098,54.7629831,56.0330423
12,бульвар Давлеткильдеева,450098,54.7646278,56.0325123
5,бульвар Давлеткильдеева,450098,54.7656341,56.0333348
15/3,Заводская улица,450097,54.7383310,55.9947030
18,улица Аксакова,450076,54.7232039,55.9343053
49,улица Чернышевского,450076,54.7310038,55.9356004
49/1,улица Чернышевского,450076,54.7312892,55.9352255
93Б,улица Аксакова,450076,54.7324681,55.9370924
93,улица Аксакова,450076,54.7324331,55.9372754
93А,улица Аксакова,450076,54.7325496,55.9366628
62,улица Красина,450076,54.7328258,55.9366334
81,улица Аксакова,450076,54.7312332,55.9364054
19/1,улица Красина,450052,54.7341186,55.9329027
71/1,улица Гафури,450076,54.7300563,55.9295316
71,улица Гафури,450076,54.7301557,55.9291452
77,улица Гафури,450076,54.7311842,55.9301143
28,улица Чернышевского,450076,54.7313041,55.9297780
11,Коммунистическая улица,450076,54.7297135,55.9280512
11/2,Коммунистическая улица,450076,54.7299562,55.9277288
24,улица Чернышевского,450076,54.7314277,55.9279952
56,улица Гафури,450076,54.7308132,55.9313615
6,улица Султанова,450076,54.7286393,55.9265928
39/3,Революционная улица,450015,54.7372423,55.9488989
5,Яркий бульвар,450095,54.6974914,55.8546269
4,улица Евгения Столярова,450095,54.6988710,55.8579716
4А,улица Евгения Столярова,450095,54.6989342,55.8568542
4Б,улица Евгения Столярова,450095,54.6987963,55.8556505
9А,Кустаревская набережная,450095,54.6985654,55.8544419
4,улица Машинистов,450095,54.6997989,55.8548370
6,улица Машинистов,450095,54.6999646,55.8561186
8,улица Машинистов,450095,54.7000091,55.8574464
2,улица Евгения Столярова,450095,54.6998983,55.8589394
1,улица Архитектора Калимуллина,450095,54.6990950,55.8640848
38,Тальковая улица,450007,54.7959279,55.9594482
9А,Баварская улица,450007,54.7878962,55.9518429
9Б,Баварская улица,450007,54.7879208,55.9519516
1А,Баварская улица,450007,54.7872818,55.9522846
1Б,Баварская улица,450007,54.7873415,55.9522829
3А,Баварская улица,450007,54.7874885,55.9522750
3Б,Баварская улица,450007,54.7875514,55.9522733
5А,Баварская улица,450007,54.7876932,55.9522793
5Б,Баварская улица,450007,54.7877565,55.9522775
11А,Баварская улица,450007,54.7883009,55.9523492
11Б,Баварская улица,450007,54.7883530,55.9523540
11В,Баварская улица,450007,54.7884049,55.9523589
11Г,Баварская улица,450007,54.7884569,55.9523637
2Г,Мартовская улица,450007,54.7883130,55.9519627
2В,Мартовская улица,450007,54.7882810,55.9518781
2Б,Мартовская улица,450007,54.7882489,55.9517936
2А,Мартовская улица,450007,54.7882168,55.9517090
3Г,Мартовская улица,450007,54.7888114,55.9524366
3В,Мартовская улица,450007,54.7887832,55.9523624
3Б,Мартовская улица,450007,54.7887551,55.9522881
3А,Мартовская улица,450007,54.7887269,55.9522138
1И,Мартовская улица,450007,54.7886403,55.9519856
1Ж,Мартовская улица,450007,54.7886115,55.9519098
1Е,Мартовская улица,450007,54.7885828,55.9518340
1Д,Мартовская улица,450007,54.7885540,55.9517582
1Г,Мартовская улица,450007,54.7885253,55.9516824
1В,Мартовская улица,450007,54.7884965,55.9516066
1Б,Мартовская улица,450007,54.7884677,55.9515308
1А,Мартовская улица,450007,54.7884389,55.9514549
12Д,Мартовская улица,450007,54.7887690,55.9540375
12Г,Мартовская улица,450007,54.7887816,55.9541251
12В,Мартовская улица,450007,54.7887939,55.9542128
12Б,Мартовская улица,450007,54.7888064,55.9543004
12А,Мартовская улица,450007,54.7888187,55.9543880
12Е,Мартовская улица,450007,54.7887567,55.9539499
10А,Мартовская улица,450007,54.7882995,55.9535939
10Б,Мартовская улица,450007,54.7883544,55.9535949
10В,Мартовская улица,450007,54.7884091,55.9535958
10Г,Мартовская улица,450007,54.7884640,55.9535968
8Е,Мартовская улица,450007,54.7883644,55.9531366
8Д,Мартовская улица,450007,54.7884153,55.9531375
8Г,Мартовская улица,450007,54.7884663,55.9531384
8В,Мартовская улица,450007,54.7885172,55.9531393
8Б,Мартовская улица,450007,54.7885681,55.9531401
8А,Мартовская улица,450007,54.7886190,55.9531410
6И,Мартовская улица,450007,54.7882674,55.9528150
6Ж,Мартовская улица,450007,54.7883208,55.9528200
6Е,Мартовская улица,450007,54.7883743,55.9528250
6Д,Мартовская улица,450007,54.7884279,55.9528299
6Г,Мартовская улица,450007,54.7884814,55.9528349
6В,Мартовская улица,450007,54.7885348,55.9528399
6Б,Мартовская улица,450007,54.7885883,55.9528449
6А,Мартовская улица,450007,54.7886419,55.9528498
7А,Баварская улица,450007,54.7879097,55.9522779
7Б,Баварская улица,450007,54.7879691,55.9522762
7В,Баварская улица,450007,54.7880287,55.9522745
7Г,Баварская улица,450007,54.7880880,55.9522727
2/4Е,Баварская улица,450007,54.7876360,55.9541820
2/4Д,Баварская улица,450007,54.7875787,55.9541848
2/4Г,Баварская улица,450007,54.7875215,55.9541876
2/4В,Баварская улица,450007,54.7874642,55.9541904
2/4Б,Баварская улица,450007,54.7874069,55.9541933
2/4А,Баварская улица,450007,54.7873497,55.9541961
2/4,Баварская улица,450007,54.7872924,55.9541989
2/4Ж,Баварская улица,450007,54.7876932,55.9541792
2/2,Баварская улица,450007,54.7870810,55.9531648
2/2А,Баварская улица,450007,54.7871538,55.9531614
2/2Б,Баварская улица,450007,54.7872268,55.9531580
2/2В,Баварская улица,450007,54.7872998,55.9531546
2/2Г,Баварская улица,450007,54.7873726,55.9531512
2/2Д,Баварская улица,450007,54.7874438,55.9530979
7Б,Мартовская улица,450007,54.7889783,55.9536289
7В,Мартовская улица,450007,54.7889908,55.9537172
7Г,Мартовская улица,450007,54.7890033,55.9538055
7Д,Мартовская улица,450007,54.7890158,55.9538936
7Е,Мартовская улица,450007,54.7890283,55.9539819
7Ж,Мартовская улица,450007,54.7890407,55.9540701
7И,Мартовская улица,450007,54.7890532,55.9541584
5Е,Мартовская улица,450007,54.7889423,55.9532729
5Д,Мартовская улица,450007,54.7889300,55.9531863
5Г,Мартовская улица,450007,54.7889178,55.9530996
5В,Мартовская улица,450007,54.7889055,55.9530130
5Б,Мартовская улица,450007,54.7888932,55.9529263
5А,Мартовская улица,450007,54.7888809,55.9528397
7А,Мартовская улица,450007,54.7889658,55.9535407
7,улица Дмитрия Купцова,450010,54.7944595,55.8476711
2Д,улица Лётчиков,450010,54.7917395,55.8497477
1/8,улица Лётчиков,450010,54.7907022,55.8516983
37/1,Союзная улица,450010,54.7924450,55.8670934
10,Комсомольская улица,450097,54.7403147,55.9941412
12,Комсомольская улица,450097,54.7412003,55.9948881
12/1,Комсомольская улица,450097,54.7406729,55.9946373
2,улица Заки Валиди,450076,54.7212033,55.9288319
162,улица Ленина,450006,54.7482746,55.9613799
2/1,улица Степана Злобина,450022,54.7169907,55.9944073
29,улица Акназарова,450022,54.7176873,55.9949577
24,Уфимское шоссе,450104,54.7846470,56.0505386
5,улица Воинов-Интернационалистов,450104,54.7806196,56.0492757
3,улица Лётчика Кобелева,450043,54.7790759,56.1350125
39,улица Ферина,450043,54.7754949,56.1325681
27,улица Маяковского,450112,54.8141727,56.0763446
11,улица Маяковского,450112,54.8146177,56.0775040
16,улица Шумавцова,450112,54.8149296,56.0763216
23,Пекинская улица,450065,54.8146341,56.1118145
25,Пекинская улица,450065,54.8144724,56.1124268
27,Пекинская улица,450065,54.8143808,56.1130065
44/1,улица Максима Горького,450044,54.8241860,56.0682081
47,улица Мира,450044,54.8243408,56.0702773
46,улица Максима Горького,450044,54.8250555,56.0692334
49,улица Мира,450044,54.8249059,56.0702105
8,Первомайская улица,450044,54.8204792,56.0626373
19/2,улица Орджоникидзе,450068,54.8066907,56.1292852
30/1,улица Орджоникидзе,450068,54.8045447,56.1292796
6,улица Фурманова,450030,54.7981185,56.1409683
1/1,Новороссийская улица,450095,54.6964815,55.8250377
1,Новороссийская улица,450095,54.6961664,55.8256330
10,улица Чапаева,450078,54.7221796,55.9734007
11,улица Мечтателей,450075,54.7150499,55.8459598
13,улица Мечтателей,450075,54.7156606,55.8475816
18,улица Генерала Кусимова,450075,54.7161981,55.8449247
15,улица Мечтателей,450075,54.7162722,55.8491505
3,улица Шафиева,450083,54.7652890,55.9999133
156/1,улица Менделеева,450080,54.7222103,56.0221120
156,улица Менделеева,450080,54.7228876,56.0211007
156/6,улица Менделеева,450080,54.7229603,56.0226311
156/2,улица Менделеева,450080,54.7215890,56.0228007
156/3,улица Менделеева,450080,54.7213145,56.0237645
152/3,улица Менделеева,450080,54.7220601,56.0179205
22,улица Софьи Перовской,450103,54.7003191,55.9791922
94,Комсомольская улица,450037,54.7488503,56.0037162
8,улица Генерала Рыленко,450074,54.6956700,55.9897053
14,Магистральная улица,450050,54.7103255,55.8290133
45,улица Степана Кувыкина,450106,54.7126651,56.0005792
128/1,улица Менделеева,450106,54.7134639,56.0003327
4,Балакинская улица,450106,54.7128431,55.9986217
1/1,улица Менделеева,450103,54.7112740,55.9691847
75,улица Ленина,450006,54.7420928,55.9553455
47/3,Российская улица,450104,54.7765653,56.0414056
4,улица Степана Злобина,450022,54.7176452,55.9944092
2,улица Степана Злобина,450022,54.7172619,55.9939281
39,Айская улица,450047,54.7175657,55.9773039
33/2,Бакалинская улица,450047,54.7166758,55.9824753
1/2,Владивостокская улица,450078,54.7280497,55.9869715
54/1,Караидельская улица,450047,54.7145046,55.9900600
10,улица Менделеева,450103,54.7094940,55.9700714
55,улица Свободы,450065,54.8260479,56.1123423
13/1,улица Октябрьской Революции,450077,54.7238694,55.9531781
109,Коммунистическая улица,450077,54.7201836,55.9632231
19,Кустарная улица,450077,54.7304983,55.9650206
21,улица Правды,450095,54.7019262,55.8287210
60,улица Юрия Гагарина,450105,54.7743038,56.0795501
132/1,улица Менделеева,450022,54.7164499,56.0054757
132,улица Менделеева,450022,54.7158371,56.0042430
