House number,Street name,Postal code,Latitude,Longitude
80,Рига,7015,43.8465458,25.9861652
80,Рига,7015,43.8463175,25.9863047
12,Солун,7001,43.8520835,25.9665755
7,Студентска,7020,43.8548770,25.9695980
65,Борисова,7000,43.8405339,25.9550420
4,Бул. Васил Левски,7015,43.8305775,25.9705476
3,пл. Свобода,7000,43.8497349,25.9542461
36,Ангел Кънчев,7000,43.8483674,25.9583442
6,Симеон Велики,7000,43.8471397,25.9546302
5,Пирот,7000,43.8484289,25.9510136
1,Аксаков,7012,43.8401766,25.9505281
1,Аксаков,7012,43.8402154,25.9505120
21,Зайчар,7002,43.8517849,25.9598703
16,Давид,7000,43.8394830,25.9548479
26,Хаджи Димитър,7000,43.8556044,25.9570521
13,Уилям Гладстон,7000,43.8471494,25.9523616
8,Борисова,7000,43.8479845,25.9542702
36,Муткурова,7000,43.8471728,25.9574354
121,бул. Липник,7005,43.8546222,25.9903573
121,бул. Липник,7005,43.8540187,25.9905236
69,Александровска,7000,43.8505500,25.9548159
5,Константин Иречек,7000,43.8464980,25.9508469
13,бул. България,7000,43.8012226,25.9124079
1,Баба Тонка,7000,43.8491275,25.9521792
15,Янтра,7015,43.8552829,25.9696914
15,Янтра,7015,43.8553678,25.9697025
16,Луи Айер,7015,43.8317664,25.9603610
6,бул. Липник,7000,43.8516913,26.0011711
2,Митрополит Григорий,7004,43.8580107,25.9727067
123А,бул. Липник,7005,43.8535361,25.9914264
4,Цариброд,7000,43.8472781,25.9500481
2,Цариброд,7000,43.8473024,25.9501654
3,Духовно възраждане,7000,43.8496999,25.9501531
1,Котовск,7013,43.8506400,25.9849672
18,Кирил Старцев,7000,43.8502072,25.9506777
113-А,бул. Липник,7000,43.8516631,25.9836939
1,пл. „Княз Александър Батенберг“,7000,43.8437735,25.9486880
56,бул. 3-ти март,7000,43.8187887,25.9286989
15,Александровска,7015,43.8451120,25.9488206
1,бул. Цар Фердинанд,7000,43.8518946,25.9565812
1,Видин,7012,43.8425726,25.9536445
121Д,бул. Липник,7000,43.8545222,25.9901774
26,Александровска,7000,43.8477804,25.9515420
40,бул. Христо Ботев,7000,43.8296929,25.9739720
26,Alexandrovska,7000,43.8475182,25.9512295
10,Юндола,7005,43.8484073,25.9825802
15,Байкал,7005,43.8479818,25.9817246
17,Байкал,7005,43.8480843,25.9821671
6,Алея Бели брези,7005,43.8489431,25.9814805
4,Алея Бели брези,7005,43.8488957,25.9810714
6,Алея Бели брези,7005,43.8486852,25.9807180
1,бул. Христо Ботев,7018,43.8322795,25.9720176
2,Черно море,7000,43.8478759,25.9517692
5,пл. Свобода,7000,43.8488985,25.9548314
14,Никола Й. Вапцаров,7015,43.8234102,25.9710190
8,Никола Й. Вапцаров,7015,43.8244991,25.9685477
12,Никола Й. Вапцаров,7015,43.8231358,25.9700777
18,Стоян Михайловски,7015,43.8240863,25.9740048
41,Княжеска,7000,43.8493357,25.9524712
6,Борисова,7000,43.8473037,25.9534362
2,Симеон Велики,7000,43.8469558,25.9541186
15,Борисова,7000,43.8466671,25.9541214
94,Петрохан,7005,43.8438661,25.9791927
96,Петрохан,7005,43.8438273,25.9798146
100,Петрохан,7005,43.8442524,25.9815499
98,Петрохан,7005,43.8442333,25.9809265
104,Петрохан,7005,43.8448348,25.9831937
73,Петрохан,7005,43.8456955,25.9834848
102,Петрохан,7005,43.8447848,25.9825696
65,Петрохан,7005,43.8445888,25.9803026
7,Околчица,7005,43.8455206,25.9787870
92,Петрохан,7005,43.8435537,25.9785633
36,Захари Стоянов,7005,43.8454228,25.9803896
13,Околчица,7005,43.8446416,25.9791701
11,Околчица,7005,43.8450721,25.9789820
89,Плиска,7004,43.8598413,25.9755804
91,Плиска,7004,43.8607911,25.9775030
142,Алея Възраждане,7004,43.8627705,25.9785576
7,Скопие,7004,43.8614149,25.9786596
156,Доростол,7004,43.8623961,25.9798292
138,Доростол,7004,43.8616906,25.9791125
148,Доростол,7004,43.8620134,25.9794708
147,Доростол,7004,43.8628127,25.9794828
135,Доростол,7004,43.8624995,25.9790171
6,Скопие,7004,43.8614845,25.9780372
14,ТЕЦ Изток,7009,43.8708391,26.0119079
14,Изток,7009,43.8709535,26.0120938
48,бул. Тутракан,7009,43.8718786,26.0146622
2,ТЕЦ Изток,7009,43.8712623,26.0138090
1,Аксаков,7012,43.8401818,25.9506357
11,Цар Шишман,7012,43.8406202,25.9501475
1,Мария Луиза,7012,43.8404953,25.9507220
122,Борисова,7012,43.8348494,25.9555236
124,Борисова,7012,43.8344168,25.9552336
152,бул.Цар Освободител,7012,43.8360203,25.9580707
2,Георги Бенковски,7012,43.8379803,25.9602333
41,Борисова,7000,43.8430107,25.9550932
6,пл. Свобода,7000,43.8476945,25.9545524
1,Сент Уан,7001,43.8369099,25.9509503
10,Николай Здравков,7012,43.8409663,25.9502053
14,Княз Александър Дондуков-Корсаков,7012,43.8409945,25.9508585
113,Борисова,7012,43.8354064,25.9560995
121,Борисова,7012,43.8349954,25.9561596
90,6-ти септември,7012,43.8347550,25.9564954
111,Борисова,7012,43.8358217,25.9560382
120,Борисова,7012,43.8356452,25.9552538
96,Борисова,7012,43.8365863,25.9552630
2,пл. Св. Троица,7000,43.8484782,25.9555542
3,Йоаким Груев,7015,43.8225991,25.9743671
8,Студентска,7017,43.8544000,25.9702982
40,Алеи Възраждане,7004,43.8591019,25.9709840
50,Алеи Възраждане,7004,43.8593815,25.9715765
51,Доростол,7004,43.8588379,25.9716325
38Г,Алеи Възраждане,7004,43.8588594,25.9703076
47,Доростол,7004,43.8585133,25.9709506
38А,Алеи Възраждане,7004,43.8584269,25.9692836
38,Алеи Възраждане,7004,43.8585720,25.9697384
36Б,Алеи Възраждане,7004,43.8580549,25.9690999
31,Доростол,7004,43.8575831,25.9687394
5,Доростол,7004,43.8567417,25.9672984
1,Янтра,7004,43.8576240,25.9678734
3,Доростол,7004,43.8564738,25.9667261
2,Янтра,7004,43.8572102,25.9674844
16,Алеи Възраждане,7004,43.8570288,25.9669465
1,Доростол,7004,43.8562100,25.9661910
20,Рила,7012,43.8426556,25.9500546
11,Константин Иречек,7000,43.8465033,25.9516750
55,Муткурова,7000,43.8457174,25.9582688
13,Изола планина,7015,43.8310035,25.9634705
9,Уилям Гладстон,7000,43.8473424,25.9528146
68,Згориград,7006,43.8415980,25.9744913
4,Ради Иванов,7019,43.8336170,25.9791822
14,Ради Иванов,7019,43.8326584,25.9786769
2,Ради Иванов,7019,43.8336233,25.9781453
3,Тодор Икономов,7019,43.8327774,25.9779989
7,Тодор Икономов,7019,43.8324844,25.9797879
5,Ради Иванов,7019,43.8329060,25.9805692
3,Ради Иванов,7019,43.8335599,25.9815981
1,Ради Иванов,7019,43.8347074,25.9821292
10,Ради Иванов,7019,43.8346827,25.9816236
8,Ради Иванов,7019,43.8346840,25.9807689
6,Ради Иванов,7019,43.8343380,25.9800293
1,Илинден,7015,43.8294612,25.9726929
1,Княз Александър Дондуков-Корсаков,7000,43.8441698,25.9494219
1,пл. Св. Троица,7000,43.8476406,25.9568532
7,Св. Наум,7002,43.8534438,25.9632055
4,Тодор Икономов,7019,43.8319672,25.9758328
1,Михаил Хаджикостов,7019,43.8313796,25.9752594
3,Михаил Хаджикостов,7019,43.8311002,25.9748474
2,Михаил Хаджикостов,7019,43.8323395,25.9744526
4,Михаил Хаджикостов,7019,43.8317553,25.9740368
6,Михаил Хаджикостов,7019,43.8313258,25.9739173
8,Михаил Хаджикостов,7019,43.8309230,25.9740432
4,Ганчо Карамаджраков,7019,43.8304917,25.9776048
1,Никола Табаков,7019,43.8299438,25.9783508
1,Ганчо Карамаджраков,7019,43.8299138,25.9760249
7,Михаил Хаджикостов,7019,43.8287997,25.9779971
2,Никола Табаков,7019,43.8294111,25.9787135
6,Ганчо Карамаджраков,7019,43.8306422,25.9790336
9,Михаил Хаджикостов,7019,43.8288835,25.9798105
61,Стрешер планина,7015,43.8310890,25.9695690
38,бул. Христо Ботев,7020,43.8321247,25.9684854
18,Иван Вазов,7000,43.8444445,25.9511942
16,Асен Златаров,7000,43.8487100,25.9564246
4,Петко Д. Петков,7000,43.8495229,25.9556683
20,Ангел Кънчев,7000,43.8485060,25.9570728
1,Ангел Кънчев,7000,43.8491382,25.9561532
9,Стоян Михайловски,7015,43.8232296,25.9741612
4,Площад Оборище,7000,43.8453035,25.9588079
33,Оборище,7000,43.8447005,25.9588679
7,Пенчо Славейков,7000,43.8445032,25.9520863
13,бул. Генерал Скобелев,7000,43.8446958,25.9523006
24,Иван Вазов,7000,43.8451900,25.9520517
20,Иван Вазов,7000,43.8451323,25.9516991
6,Атанас Буров,7000,43.8450362,25.9525507
10,Атанас Буров,7000,43.8447384,25.9526386
26,Хан Аспарух,7000,43.8462758,25.9570409
28,Хан Аспарух,7000,43.8465311,25.9575975
18,Хан Аспарух,7000,43.8459540,25.9570391
52,бул. Генерал Скобелев,7000,43.8447703,25.9571144
16,Борисова,7000,43.8461548,25.9536142
78,Плиска,7004,43.8574754,25.9722875
43,Плиска,7004,43.8572690,25.9700305
56,Плиска,7004,43.8566829,25.9706470
2А,Митрополит Григорий,7004,43.8573154,25.9731826
23,Студентска,7004,43.8554261,25.9706558
9,Студентска,7004,43.8552732,25.9699541
52,Плиска,7004,43.8560461,25.9692497
5,Григор Пърличев,7015,43.8303344,25.9698369
157,Никола Й. Вапцаров,7015,43.8259185,25.9721992
1,Горазд,7000,43.8474283,25.9575351
9Б,Д-р Петър Берон,7000,43.8467342,25.9556163
1-3,Добри Немиров,7000,43.8453402,25.9497986
4,Симеон Велики,7000,43.8470320,25.9543986
6,Симеон Велики,7000,43.8470082,25.9547218
46,бул. Цар Освободител,7000,43.8471541,25.9595198
8,Петко Д. Петков,7000,43.8496282,25.9573148
6,Асен Златаров,7000,43.8502298,25.9563847
10,Петко Д. Петков,7000,43.8497468,25.9581736
38,Ангел Кънчев,7000,43.8481486,25.9587782
6,Петко Каравелов,7000,43.8503678,25.9557799
27,Ангел Кънчев,7000,43.8484227,25.9586523
7,Петко Каравелов,7000,43.8501655,25.9560093
21,Муткурова,7000,43.8492303,25.9579835
6,Петко Д. Петков,7000,43.8496013,25.9563423
1,Атон,7000,43.8489389,25.9583904
17,Муткурова,7000,43.8495692,25.9579515
12,Асен Златаров,7000,43.8492439,25.9566176
22,Муткурова,7000,43.8493763,25.9575593
42А,бул. Цар Освободител,7000,43.8479460,25.9591452
21,Петко Д. Петков,7000,43.8500542,25.9571379
28,Муткурова,7000,43.8488123,25.9576607
25,Муткурова,7000,43.8489078,25.9579815
36,бул. Цар Освободител,7000,43.8490944,25.9587888
37,Муткурова,7000,43.8478374,25.9581309
28,бул. Цар Освободител,7000,43.8495518,25.9584786
40,бул. Цар Освободител,7000,43.8487110,25.9590417
24,Муткурова,7000,43.8491270,25.9575829
6,Атон,7000,43.8487348,25.9585893
4,Бистрица,7002,43.8493627,25.9599577
30,Муткурова,7000,43.8482662,25.9576827
1,Никола Й. Вапцаров,7015,43.8281373,25.9701984
1А,Никола Й. Вапцаров,7015,43.8271466,25.9690052
6,Цанко Церковски,7015,43.8297408,25.9669914
4,Капитан Петко войвода,7015,43.8245249,25.9727671
1,Христо Ясенов,7015,43.8298554,25.9655715
14,Григор Пърличев,7015,43.8285124,25.9678981
8,Григор Пърличев,7015,43.8280500,25.9678237
18,Никола Й. Вапцаров,7015,43.8256951,25.9748331
2,Капитан Петко войвода,7015,43.8250996,25.9738822
3,Илинден,7015,43.8289583,25.9732787
22,Никола Й. Вапцаров,7015,43.8291148,25.9739751
2,Илинден,7015,43.8296360,25.9716362
6,Стоян Михайловски,7015,43.8250761,25.9765484
6,Александър Хаджирусет,7015,43.8235758,25.9751468
1,Григор Пърличев,7015,43.8288084,25.9690267
60,бул. Христо Ботев,7015,43.8259685,25.9780231
10,Александър Хаджирусет,7015,43.8229791,25.9749020
1Б,Никола Й. Вапцаров,7015,43.8267982,25.9684567
21,Никола Й. Вапцаров,7015,43.8283693,25.9743726
2,Никола Й. Вапцаров,7015,43.8284173,25.9695114
4,Даме Груев,7015,43.8274168,25.9712322
2,Христо Ясенов,7015,43.8289390,25.9659631
12,Стоян Михайловски,7015,43.8242566,25.9761862
9,Никола Й. Вапцаров,7015,43.8242194,25.9700123
1,Даме Груев,7015,43.8287838,25.9718986
5,Александър Хаджирусет,7015,43.8235843,25.9760143
4,Никола Й. Вапцаров,7015,43.8257655,25.9669571
7,Никола Й. Вапцаров,7015,43.8248498,25.9693800
6,Никола Й. Вапцаров,7015,43.8253611,25.9676141
4,Цанко Церковски,7015,43.8297254,25.9683743
5,Даме Груев,7015,43.8251856,25.9699003
13,Никола Й. Вапцаров,7015,43.8250255,25.9715305
11,Никола Й. Вапцаров,7015,43.8245682,25.9710057
15,Никола Й. Вапцаров,7015,43.8255022,25.9722340
3,Александър Хаджирусет,7015,43.8248168,25.9758035
5,Никола Й. Вапцаров,7015,43.8256504,25.9683282
3,Никола Й. Вапцаров,7015,43.8260894,25.9680224
17,Никола Й. Вапцаров,7015,43.8275741,25.9759483
56,бул. Христо Ботев,7015,43.8269566,25.9780568
48,бул. Христо Ботев,7015,43.8270627,25.9776083
52,бул. Христо Ботев,7015,43.8267256,25.9776024
44,бул. Христо Ботев,7015,43.8274816,25.9772673
35,бул. Гоце Делчев,7015,43.8272898,25.9656920
8,Даме Груев,7015,43.8273753,25.9697341
10,Даме Груев,7015,43.8269931,25.9697757
19,Никола Й. Вапцаров,7015,43.8280131,25.9751305
3,Даме Груев,7015,43.8274603,25.9727607
6,Даме Груев,7015,43.8258885,25.9693728
4,Даме Груев,7015,43.8261498,25.9706352
14,Студен кладенец,7015,43.8302709,25.9637599
4,Гео Милев,7015,43.8313659,25.9664148
2,Гео Милев,7015,43.8315364,25.9668074
23,Студен кладенец,7015,43.8307277,25.9651726
37,Студен кладенец,7015,43.8299569,25.9641217
25,Студен кладенец,7015,43.8305464,25.9648586
27,Студен кладенец,7015,43.8303521,25.9645413
6,Гео Милев,7015,43.8310062,25.9658943
6,Св. Георги,7012,43.8356624,25.9542972
109,Николаевска,7012,43.8349516,25.9543543
4,Тодор Каблешков,7012,43.8362797,25.9536646
111,Муткурова,7012,43.8388488,25.9577495
140,бул.Цар Освободител,7012,43.8379106,25.9584271
101,Николаевска,7012,43.8358638,25.9537412
84,Муткурова,7012,43.8381837,25.9569706
130,бул.Цар Освободител,7012,43.8389323,25.9582994
23,Тодор Каблешков,7012,43.8372935,25.9570801
135,бул.Цар Освободител,7012,43.8377016,25.9595918
20,Св. Георги,7012,43.8360773,25.9572427
82,6-ти септември,7012,43.8357496,25.9565710
91,Борисова,7012,43.8375884,25.9562845
94,Борисова,7012,43.8375244,25.9551309
81,Борисова,7012,43.8384694,25.9561614
24,Св. Климент Охридски,7012,43.8355685,25.9576446
99,Борисова,7012,43.8366866,25.9564161
18,Св. Георги,7012,43.8360321,25.9564658
84,6-ти септември,7012,43.8354157,25.9566170
86,6-ти септември,7012,43.8350735,25.9566642
48,Видин,7012,43.8353055,25.9545102
137,бул.Цар Освободител,7012,43.8372286,25.9596319
107,Борисова,7012,43.8362682,25.9560306
11,Казанлък,7015,43.8338283,25.9650045
5,Вихрен,7015,43.8337398,25.9641589
14,бул. Гоце Делчев,7016,43.8304032,25.9587485
23,Стрешер планина,7015,43.8324369,25.9639613
18,бул. Гоце Делчев,7016,43.8300014,25.9593264
9,Луи Айер,7015,43.8321423,25.9598456
22,бул. Гоце Делчев,7016,43.8295853,25.9599184
19,Студен кладенец,7015,43.8318497,25.9662838
20,бул. Гоце Делчев,7016,43.8297402,25.9596155
10,Луи Айер,7015,43.8312726,25.9605957
26,Ловеч,7015,43.8327653,25.9609601
16,бул. Гоце Делчев,7016,43.8302099,25.9589701
17,Студен кладенец,7015,43.8320955,25.9665998
21,Студен кладенец,7015,43.8315980,25.9659715
5,Луи Айер,7015,43.8316070,25.9595991
11,Изола планина,7015,43.8314979,25.9633527
6,Луи Айер,7015,43.8309900,25.9602177
8,Луи Айер,7015,43.8315471,25.9603557
12,Луи Айер,7015,43.8320636,25.9604481
17,Мермер камък,7015,43.8320077,25.9632564
21,Мария Луиза,7012,43.8411944,25.9542873
19,Мария Луиза,7012,43.8408022,25.9529001
27,Борисова,7000,43.8451195,25.9545337
1,Генерал Гурко,7012,43.8434509,25.9533918
40,Борисова,7000,43.8436414,25.9540285
3,бул. Мидия-Енос,7001,43.8320585,25.9526324
38,Борисова,7000,43.8440848,25.9539572
15,Атанас Буров,7000,43.8442283,25.9533226
5,бул. Мидия-Енос,7001,43.8318606,25.9520960
7,бул. Мидия-Енос,7001,43.8316468,25.9515436
9,бул. Мидия-Енос,7001,43.8312714,25.9510962
32,Борисова,7000,43.8446247,25.9538675
29,Борисова,7000,43.8446631,25.9544141
1,бул. Мидия-Енос,7001,43.8322816,25.9531744
8,бул. Мидия-Енос,7001,43.8324276,25.9510864
26,Цар Асен,7000,43.8430689,25.9587893
33,Панайот Хитов,7000,43.8422775,25.9576047
34,Панайот Хитов,7012,43.8425270,25.9555727
2,Цариград,7012,43.8420619,25.9558287
46,Панайот Хитов,7012,43.8423807,25.9561110
4,Цариград,7012,43.8416966,25.9557209
81,Мальовица,7016,43.8259782,25.9515595
79,Мальовица,7016,43.8261807,25.9520577
75,Мальовица,7016,43.8265924,25.9530818
77,Мальовица,7016,43.8263745,25.9525862
73,Мальовица,7016,43.8268731,25.9537171
15,Хан Крум,7000,43.8468108,25.9561863
6,Тулча,7004,43.8561500,25.9754267
4,Цветница,7004,43.8578907,25.9770013
6,Доростол,7002,43.8549799,25.9648800
12,Доростол,7002,43.8554241,25.9656655
12,Студентска,7004,43.8567953,25.9747269
2,Сан Стефано,7002,43.8555901,25.9660621
30,Доростол,7004,43.8577925,25.9703107
5,Тулча,7004,43.8583154,25.9750884
28,Доростол,7004,43.8572786,25.9692575
1,Воден,7002,43.8546611,25.9644622
3,Митрополит Григорий,7004,43.8550791,25.9757928
94,Плиска,7004,43.8580368,25.9735259
8,Доростол,7002,43.8552342,25.9652652
19,Плиска,7002,43.8557625,25.9675667
7,Тулча,7004,43.8583103,25.9757606
45,Студентска,7004,43.8567568,25.9733301
9,Тулча,7004,43.8576795,25.9752438
4,Тулча,7004,43.8576464,25.9738822
1,Тулча,7004,43.8583153,25.9744887
11,Тулча,7004,43.8581948,25.9764772
5,Плиска,7002,43.8551447,25.9661560
3,Плиска,7002,43.8547741,25.9653598
1,Митрополит Григорий,7004,43.8562352,25.9747809
5,Сан Стефано,7002,43.8556621,25.9665041
88,Петрохан,7005,43.8431995,25.9773025
30,Тича,7006,43.8449486,25.9753757
4,Марин Дринов,7004,43.8566782,25.9723092
9,Борислав,7004,43.8564219,25.9716052
37,Мальовица,7016,43.8269984,25.9545337
36,Троян,7016,43.8277903,25.9613917
6,Левента,7016,43.8272801,25.9611724
5,Левента,7016,43.8278222,25.9606915
4,Левента,7016,43.8273330,25.9603476
3,Левента,7016,43.8281032,25.9604182
34,Троян,7016,43.8281035,25.9612558
7,Тинтява,7016,43.8286641,25.9594390
11,Тинтява,7016,43.8281386,25.9594867
3,Мальовица,7016,43.8283827,25.9585459
3,Матей Попов,7016,43.8273112,25.9594686
28,бул. Гоце Делчев,7016,43.8286346,25.9616069
26,бул. Гоце Делчев,7016,43.8292131,25.9608499
30,бул. Гоце Делчев,7016,43.8279236,25.9624768
31,Люляк,7000,43.8433178,25.9619423
1,Пазарна,7000,43.8429593,25.9616539
109,бул. Цар Освободител,7000,43.8430789,25.9608865
26,Изола планина,7015,43.8288269,25.9636954
14,Воден,7020,43.8524175,25.9658960
3,Плевен,7020,43.8522587,25.9682660
11,Воден,7020,43.8520910,25.9671896
86,бул. Цар Освободител,7000,43.8412675,25.9595318
4,Капитан Маринов,7020,43.8512127,25.9683305
22,Изола планина,7015,43.8297166,25.9627436
9,Шейново,7020,43.8539533,25.9666424
2,Св. Св. Кирил и Методий,7020,43.8533456,25.9652986
3,Аксаков,7012,43.8399580,25.9510164
24,Солун,7020,43.8518585,25.9655057
2,Неофит Рилски,7020,43.8536435,25.9650312
2,Никюп,7020,43.8528000,25.9683056
6,Сан Стефано,7020,43.8542734,25.9671860
2,Плиска,7020,43.8542094,25.9656036
41,Цар Асен,7012,43.8410475,25.9592528
26,Солун,7020,43.8531328,25.9645386
2,Плевен,7020,43.8515812,25.9678317
1,Плевен,7020,43.8515161,25.9665378
2,Мадарски Конник,7020,43.8536606,25.9685005
4,Мадарски Конник,7020,43.8528542,25.9691864
1,Приста,7020,43.8529781,25.9655079
6,Константин Иречек,7000,43.8462045,25.9508617
45,Мария Луиза,7012,43.8406001,25.9585541
20,Драган Цанков,7012,43.8416869,25.9513586
18,Драган Цанков,7012,43.8424613,25.9513518
16,Давид,7012,43.8393332,25.9545904
28,Изола планина,7015,43.8288921,25.9645040
30,Изола планина,7015,43.8283395,25.9647160
19,Княз Александър Дондуков-Корсаков,7012,43.8414861,25.9509047
31,бул. Генерал Скобелев,7000,43.8452316,25.9564394
15,Д-р Петър Берон,7000,43.8457645,25.9558875
24,Чипровци,7006,43.8444024,25.9729114
22,Чипровци,7006,43.8442728,25.9721121
28,Чипровци,7006,43.8449246,25.9745937
4,Поп Богомил,7000,43.8455417,25.9564281
26,Чипровци,7006,43.8446843,25.9736581
13,Д-р Петър Берон,7000,43.8462430,25.9557006
27,Д-р Петър Берон,7000,43.8450625,25.9559330
5,Зорница,7018,43.8368441,25.9746665
1,Филип Станиславов,7018,43.8366489,25.9728245
2,Филип Станиславов,7018,43.8377975,25.9754754
7,Слави Шкаров,7018,43.8377541,25.9725829
7,Мальовица,7016,43.8279094,25.9574811
23,Мальовица,7016,43.8277219,25.9569538
5,Мальовица,7016,43.8280986,25.9580228
50,Панайот Хитов,7012,43.8418175,25.9574410
48,Панайот Хитов,7012,43.8420773,25.9567036
3,Жол Паскин,7012,43.8402302,25.9561877
13,Цариград,7012,43.8411895,25.9562016
4,Опълчнеска,7018,43.8364034,25.9693094
2,Опълчнеска,7018,43.8360272,25.9693610
6,Опълчнеска,7018,43.8373121,25.9688203
1,Слави Шкаров,7018,43.8363508,25.9702043
1,Осоговска планина,7001,43.8353362,25.9614155
4Б,Стара планина,7012,43.8373899,25.9610394
1,Кърджали,7001,43.8360531,25.9610861
5,Осоговска планина,7001,43.8350495,25.9616641
4А,Стара планина,7012,43.8373378,25.9605664
9,Доспат,7001,43.8355830,25.9612391
2,Стара планина,7012,43.8373225,25.9600567
7,Доспат,7001,43.8354247,25.9610082
2,Осоговска планина,7001,43.8355473,25.9608349
3,Осоговска планина,7001,43.8352418,25.9617263
6,Цариброд,7000,43.8472976,25.9493645
16,бул. Генерал Скобелев,7012,43.8433794,25.9515305
22,бул. Генерал Скобелев,7000,43.8442672,25.9522610
17,Рила,7012,43.8429511,25.9521684
7,Църковна независимост,7000,43.8500043,25.9522586
1,бул. Цар Освободител,7002,43.8517369,25.9576471
3,Белоградчик,7002,43.8521140,25.9578907
70,Александровска,7000,43.8513916,25.9565164
3,Петко Каравелов,7000,43.8505447,25.9569159
11,Киев,7013,43.8512489,25.9953339
1,Киев,7013,43.8511000,25.9917949
1,Орфей,7013,43.8516130,25.9943495
9,Киев,7013,43.8510819,25.9943516
5,Киев,7013,43.8510708,25.9930165
76,бул. Липник,7013,43.8518452,25.9932485
2,Яна Войвода,7013,43.8519817,25.9965150
7,Киев,7013,43.8511528,25.9936284
14,Рига,7013,43.8491975,25.9935139
20,Рига,7013,43.8502900,25.9957366
3,Киев,7013,43.8509992,25.9924265
18,Рига,7013,43.8498877,25.9950961
78,бул. Липник,7013,43.8518874,25.9952189
23,Сливница,7000,43.8449853,25.9584346
74,бул. Цар Освободител,7000,43.8427886,25.9600301
26,Сливница,7000,43.8444776,25.9576039
19,Сливница,7000,43.8447167,25.9575559
31,Оборище,7000,43.8444002,25.9585006
21,Сливница,7000,43.8450374,25.9578511
2,Димчо Дебелянов,7006,43.8423338,25.9670337
1,Димчо Дебелянов,7006,43.8432059,25.9683647
1,Вискяр планина,7006,43.8419410,25.9666229
4,Димчо Дебелянов,7006,43.8421666,25.9678402
14,Мала планина,7006,43.8429054,25.9672340
55,Видин,7012,43.8353803,25.9548890
14,Чипровци,7006,43.8422477,25.9694010
41,Тодор Каблешков,7012,43.8373187,25.9546118
10,Чипровци,7006,43.8416440,25.9690635
51,Видин,7012,43.8363359,25.9547339
35,Видин,7012,43.8382345,25.9544730
18,Чипровци,7006,43.8428814,25.9697726
35А,Д-р Петър Берон,7000,43.8441189,25.9561560
2,Българка,7006,43.8439218,25.9677752
3,Поп Богомил,7000,43.8457992,25.9564121
39,Д-р Петър Берон,7000,43.8437708,25.9561682
87,Борисова,7012,43.8379241,25.9558597
75,Борисова,7012,43.8388036,25.9556969
97,Борисова,7012,43.8370518,25.9560124
12,Пловдив,7001,43.8326467,25.9540527
7,Златарица,7001,43.8322902,25.9537028
14,Пловдив,7001,43.8324494,25.9542083
10,бул. Гоце Делчев,7016,43.8307446,25.9584806
4,бул. Генерал Скобелев,7012,43.8423681,25.9489802
7,Цариброд,7000,43.8468774,25.9492952
2,Нови Сад,7013,43.8496434,25.9898926
12,Рига,7013,43.8491012,25.9922039
10,Рига,7013,43.8487487,25.9909283
3,Орлово гнездо,7013,43.8484269,25.9916345
1,Гюргево,7013,43.8475090,25.9893361
2,Рени,7013,43.8503992,25.9862983
2,Гюргево,7013,43.8477410,25.9886965
1,Измаил,7013,43.8490773,25.9864663
6,Рени,7013,43.8500267,25.9887421
4,Рига,7013,43.8472014,25.9877106
6,Рига,7013,43.8474665,25.9881824
4,Рени,7013,43.8502259,25.9874270
1,Орлово гнездо,7013,43.8479480,25.9901168
1,Прага,7013,43.8485144,25.9933761
4,Нови Сад,7013,43.8480921,25.9904825
11,Измаил,7013,43.8491112,25.9891675
64,бул. Липник,7013,43.8509591,25.9866599
2,Милкова ливада,7006,43.8370819,25.9649327
16,Милкова ливада,7006,43.8383183,25.9674846
12,Милкова ливада,7006,43.8377315,25.9667237
123,бул.Цар Освободител,7012,43.8398880,25.9607416
5,Студентска,7020,43.8545863,25.9689107
25,Св. Св. Кирил и Методий,7020,43.8550416,25.9684931
12,Янтра,7020,43.8551671,25.9693268
16,Янтра,7020,43.8549614,25.9695179
50,Неофит Рилски,7004,43.8555896,25.9695879
8,бул. Славянски,7000,43.8468147,25.9471609
3,Цариброд,7000,43.8469899,25.9497956
1,Цар Калоян,7000,43.8463329,25.9467200
1,Цар Калоян,7000,43.8465535,25.9466186
4,Хан Крум,7000,43.8463982,25.9545843
1,Цар Калоян,7000,43.8467708,25.9465224
4,Плевен,7020,43.8520628,25.9693692
47,Св. Св. Кирил и Методий,7004,43.8558910,25.9702073
3,Родопи,7005,43.8514892,25.9751411
1,Родопи,7005,43.8511628,25.9747422
5,Родопи,7005,43.8517711,25.9756399
2,Родопи,7005,43.8514443,25.9762307
1,Люлин планина,7005,43.8505602,25.9755448
3,Ген. Паренсов,7000,43.8478003,25.9586299
28,Александровска,7000,43.8476523,25.9514510
59,Доростол,7004,43.8600011,25.9728668
83,Плиска,7004,43.8593373,25.9736660
2,Рупел,7005,43.8506988,25.9765679
2,Никола Петков,7005,43.8522447,25.9776902
4,Родопи,7005,43.8518471,25.9769587
6,Никола Петков,7005,43.8510467,25.9779795
4,Никола Петков,7005,43.8517810,25.9785037
32,Захари Стоянов,7005,43.8473222,25.9803015
64,Чипровци,7005,43.8489988,25.9791464
11,Сребърна,7005,43.8490326,25.9779121
1,Сребърна,7005,43.8495017,25.9769263
22,Захари Стоянов,7005,43.8476857,25.9801353
5,Сребърна,7005,43.8492665,25.9770797
6,Алея Момина сълза,7005,43.8477068,25.9793856
8,Алея Горски теменуги,7005,43.8492188,25.9776486
5,Алея Горски теменуги,7005,43.8496850,25.9774634
66,Згориград,7006,43.8409120,25.9725302
5,Алея Момина сълза,7005,43.8480385,25.9789829
4,Алея Горски теменуги,7005,43.8494322,25.9775154
62,Чипровци,7005,43.8486452,25.9788032
6,Алея Синчец,7005,43.8492392,25.9779483
10,Захари Стоянов,7005,43.8482159,25.9798900
9,Сребърна,7005,43.8487581,25.9775019
60,Чипровци,7005,43.8482772,25.9784648
1,Байкал,7005,43.8469398,25.9790421
2,Алея Синчец,7005,43.8495913,25.9778202
66,Чипровци,7005,43.8494936,25.9794104
7,Алея Момина сълза,7005,43.8483122,25.9793543
58,Чипровци,7005,43.8478951,25.9781333
1,Алея Момина сълза,7005,43.8475187,25.9781990
4,Алея Синчец,7005,43.8494027,25.9778447
45,Чипровци,7005,43.8488149,25.9781083
5,Байкал,7005,43.8471112,25.9797322
2,Алея Момина сълза,7005,43.8471529,25.9786136
56,Чипровци,7005,43.8475488,25.9777856
70,Згориград,7006,43.8423601,25.9763218
52,бул. Липник,7005,43.8499876,25.9777839
14,Захари Стоянов,7005,43.8480338,25.9799783
1,Околчица,7005,43.8469159,25.9782027
3,Алея Момина сълза,7005,43.8477828,25.9785812
4,Алея Момина сълза,7005,43.8474289,25.9789868
54,бул. Липник,7005,43.8500472,25.9789834
47,Чипровци,7005,43.8492237,25.9783908
53,Чипровци,7005,43.8496833,25.9787818
48,Лозен планина,7006,43.8459768,25.9741901
1,Лисец планина,7006,43.8467917,25.9697618
18,Тича,7006,43.8459326,25.9749276
7,Сърнена гора,7005,43.8462713,25.9715710
2,Чипровци,7006,43.8433156,25.9675972
2,Лозен планина,7006,43.8443232,25.9680808
9,Сърнена гора,7005,43.8457839,25.9717990
1,Голям Богдан,7005,43.8466655,25.9731601
3,Лисец планина,7005,43.8455293,25.9700632
4,Крали Марко,7006,43.8453482,25.9680956
17,Лозен планина,7005,43.8450553,25.9691445
21,Чипровци,7006,43.8445567,25.9704097
24,Сърнена гора,7006,43.8450358,25.9709892
31,Лозен планина,7005,43.8463732,25.9740754
1,Лозен планина,7006,43.8448629,25.9683284
27,Чипровци,7006,43.8453391,25.9730926
29,Чипровци,7006,43.8454989,25.9736967
23,Чипровци,7006,43.8449862,25.9717223
25,Сакар планина,7006,43.8451669,25.9723934
3,Самодивец,7006,43.8465039,25.9695193
1,Чипровци,7006,43.8441181,25.9686805
16,Опълчнеска,7018,43.8391126,25.9734146
2,Слави Шкаров,7018,43.8371214,25.9700900
4,Слави Шкаров,7018,43.8374011,25.9701103
12,Опълчнеска,7018,43.8386520,25.9715054
10,Опълчнеска,7018,43.8384243,25.9707724
18,Опълчнеска,7018,43.8392547,25.9746662
2,Изгрев,7018,43.8396363,25.9765511
5,Слави Шкаров,7018,43.8380320,25.9714194
8,Опълчнеска,7018,43.8381420,25.9700611
22,Ибър,7006,43.8390210,25.9654734
2,Герлово,7006,43.8444532,25.9749321
57,Димчо Дебелянов,7006,43.8437545,25.9725639
61,Димчо Дебелянов,7006,43.8439779,25.9733513
59,Димчо Дебелянов,7006,43.8438678,25.9729553
90,Петрохан,7005,43.8433646,25.9779554
4,Болярска,7002,43.8516138,25.9584615
2,Гургулят,7002,43.8535503,25.9600202
2,Зайчар,7002,43.8526305,25.9590825
21,Зайчар,7002,43.8518231,25.9599182
9,Коледница,7002,43.8521985,25.9590457
90,Александровска,7002,43.8528960,25.9585284
5,Княз Александър Дондуков-Корсаков,7000,43.8434972,25.9494634
22,Доростол,7002,43.8561509,25.9668390
25,Плиска,7002,43.8561313,25.9682139
20,Доростол,7002,43.8559901,25.9666550
4,Янтра,7002,43.8565869,25.9680673
9,Янтра,7004,43.8564098,25.9687088
36,Плиска,7020,43.8555789,25.9683737
4,Плиска,7020,43.8550307,25.9673234
17,Плиска,7002,43.8554605,25.9668861
118,бул. България,7016,43.8317179,25.9564147
62,бул. Липник,7005,43.8504528,25.9813844
36,Цар Фердинанд,7000,43.8529360,25.9523031
34,бул. Цар Фердинанд,7000,43.8529695,25.9528173
14,бул. Цар Фердинанд,7000,43.8528804,25.9551185
8,Студентска,7017,43.8536884,25.9724511
1,Алея Лилия,7002,43.8592199,25.9632345
105А,бул. Цар Освободител,7000,43.8442297,25.9613316
8,Студентска,7017,43.8539661,25.9691329
4Б,Константин Димчев,7000,43.8442220,25.9501388
12А,Цар Самуил,7012,43.8419481,25.9508511
12,Цар Калоян,7000,43.8454299,25.9465628
40,Дондуков-Корсаков,7012,43.8367667,25.9531316
60,бул. Генерал Скобелев,7000,43.8454066,25.9582584
8,Богдан войвода,7002,43.8544336,25.9593072
1,Войводова,7000,43.8530863,25.9529895
3,Боянци,7002,43.8513841,25.9588678
2,бул. Цар Фердинанд,7000,43.8528742,25.9556557
10,Янтра,7020,43.8552489,25.9690849
3,Васил Петлешков,7000,43.8532952,25.9548307
81,Доростол,7004,43.8607153,25.9753961
110,Алеи Възраждане,7004,43.8616308,25.9760903
14,Майор Атанас Узунов,7002,43.8552873,25.9593323
20,Хаджи Димитър,7002,43.8550317,25.9579142
23,Богдан войвода,7002,43.8548143,25.9593373
102,Алеи Възраждане,7004,43.8613539,25.9754722
2,Въча,7004,43.8607630,25.9744158
15,Богдан войвода,7002,43.8545498,25.9586920
4,Майор Атанас Узунов,7002,43.8564297,25.9578954
92,Алеи Възраждане,7004,43.8610901,25.9749134
22,Майор Атанас Узунов,7002,43.8550381,25.9596218
24,Васил Петлешков,7002,43.8549537,25.9588356
8,Майор Атанас Узунов,7002,43.8561554,25.9581819
8,Сан Стефано,7020,43.8544022,25.9679284
54,Плиска,7004,43.8562431,25.9697022
26,Доростол,7004,43.8567920,25.9688897
2,пл. Дунав,7000,43.8446788,25.9464780
1,Алея Еделвайс,7005,43.8501831,25.9815487
22,Стоян Михайловски,7015,43.8237825,25.9733886
7,Тетово,7020,43.8501293,25.9655850
6,Велес,7020,43.8505605,25.9658216
45,Солун,7020,43.8511200,25.9650222
1,Яне Сандански,7020,43.8507139,25.9633980
2,Велес,7020,43.8503879,25.9656208
бл. 35,Солун,7020,43.8502914,25.9660854
23,Солун,7020,43.8489484,25.9673260
108,бул. Липник,7013,43.8530542,26.0033682
110,бул. Липник,7013,43.8530057,26.0043873
112,бул. Липник,7013,43.8526588,26.0040533
114,бул. Липник,7013,43.8524959,26.0034073
82,бул. Липник,7013,43.8526706,25.9987069
12,Браила,7013,43.8522768,25.9993144
6,Райна Княгиня,7013,43.8520582,25.9985080
80,бул. Липник,7013,43.8523825,25.9973766
4,Райна Княгиня,7013,43.8519855,25.9980262
2,Райна Княгиня,7013,43.8519361,25.9975127
1,Яна Войвода,7013,43.8517113,25.9970422
24,Рига,7013,43.8514129,25.9993599
22,Рига,7013,43.8514045,25.9984912
11,Прага,7013,43.8510550,25.9998797
26,Рига,7013,43.8508178,25.9992321
2,Будапеща,7013,43.8502717,25.9966977
3,Прага,7013,43.8495429,25.9963037
5,Прага,7013,43.8490517,25.9949060
3,Измаил,7013,43.8495769,25.9868635
5,Измаил,7013,43.8496368,25.9873829
9,Измаил,7013,43.8495025,25.9885862
3,Котовск,7013,43.8497961,25.9863041
1,Котовск,7013,43.8499351,25.9857578
8,Рига,7013,43.8482145,25.9894199
2,Рига,7013,43.8470183,25.9869332
9,Котовск,7013,43.8464033,25.9866750
72,бул. Липник,7013,43.8515103,25.9909359
2,Братислава,7013,43.8508851,25.9907186
14,Юндола,7005,43.8469109,25.9825673
21,Захари Стоянов,7005,43.8463221,25.9818418
23,Захари Стоянов,7005,43.8459424,25.9821310
25,Захари Стоянов,7005,43.8455636,25.9824015
16,Юндола,7005,43.8464613,25.9834078
80,Рига,7015,43.8463629,25.9860979
10,Алея Бели брези,7005,43.8485121,25.9816072
5,Захари Стоянов,7005,43.8488496,25.9804439
6,Алея Бели брези,7005,43.8485952,25.9804476
1,Юндола,7005,43.8491457,25.9828013
1,Алея Бели хризантеми,7005,43.8490621,25.9832773
3,Юндола,7005,43.8488989,25.9828471
3,Алея Бели хризантеми,7005,43.8488225,25.9833091
5,Алея Бели хризантеми,7005,43.8485788,25.9833539
5,Юндола,7005,43.8486493,25.9829180
7,Юндола,7005,43.8484221,25.9829970
7,Юндола,7005,43.8483377,25.9833883
9,Юндола,7005,43.8481774,25.9830639
11,Юндола,7005,43.8478142,25.9832930
2,Юндола,7005,43.8500571,25.9821576
6,Алея Еделвайс,7005,43.8497507,25.9811690
8,Алея Еделвайс,7005,43.8495592,25.9816722
4,Юндола,7005,43.8496100,25.9821391
69,Доростол,7004,43.8599862,25.9735168
74,Алеи Възраждане,7004,43.8604638,25.9735001
100,Доростол,7004,43.8597364,25.9744803
96,Плиска,7004,43.8587404,25.9745227
102,Плиска,7004,43.8592901,25.9758261
2,алея Иглика,7004,43.8587231,25.9754541
4,алея Иглика,7004,43.8590044,25.9759684
1,алея Топола,7004,43.8587747,25.9761946
2,алея Топола,7004,43.8585905,25.9765009
13,Тулча,7004,43.8584337,25.9768660
6,алея Топола,7004,43.8586488,25.9773035
4,алея Топола,7004,43.8588195,25.9770105
6,алея Иглика,7004,43.8592967,25.9765036
3,алея Топола,7004,43.8590829,25.9767040
2,Битоля,7004,43.8595390,25.9769834
4,Битоля,7004,43.8593065,25.9771582
6,Битоля,7004,43.8590744,25.9773956
8,Битоля,7004,43.8587314,25.9777577
13,Битоля,7004,43.8591835,25.9784151
4,алея Ела,7004,43.8592040,25.9789538
6,алея Ела,7004,43.8595064,25.9795467
11,Битоля,7004,43.8594291,25.9780645
9,Битоля,7004,43.8596699,25.9777096
7,Битоля,7004,43.8599015,25.9773577
108,Плиска,7004,43.8599717,25.9777844
112,Плиска,7004,43.8602954,25.9781374
114,Плиска,7004,43.8601209,25.9783440
116,Плиска,7004,43.8605556,25.9786625
118,Плиска,7004,43.8603896,25.9789541
120,Плиска,7004,43.8608133,25.9791946
122,Плиска,7004,43.8606341,25.9794069
7,алея Ела,7004,43.8602685,25.9803451
8,алея Ела,7004,43.8597908,25.9801481
5,алея Ела,7004,43.8599488,25.9795827
3,алея Ела,7004,43.8596344,25.9789370
128,Алеи Възраждане,7004,43.8621147,25.9768089
85,Доростол,7004,43.8618271,25.9774111
114,Доростол,7004,43.8612643,25.9774313
112,Доростол,7004,43.8610674,25.9770232
110,Доростол,7004,43.8608581,25.9766039
32,Доростол,7004,43.8581047,25.9709575
14,Алеи Възраждане,7004,43.8570397,25.9664396
8,Алеи Възраждане,7004,43.8568351,25.9660770
4,Алеи Възраждане,7004,43.8566637,25.9656504
1,Сан Стефано,7004,43.8564066,25.9658229
3,Сакар планина,7005,43.8470377,25.9728325
23,Козница планина,7005,43.8473388,25.9739441
5,Сърнена гора,7005,43.8467878,25.9713018
2,Сакар планина,7005,43.8468367,25.9719615
56,Димчо Дебелянов,7006,43.8429608,25.9704520
62,Димчо Дебелянов,7006,43.8430304,25.9711357
64,Димчо Дебелянов,7006,43.8431510,25.9717829
18,Буная,7006,43.8420986,25.9717390
16,Буная,7006,43.8424611,25.9715801
18,Тича,7006,43.8454694,25.9745152
73,Димчо Дебелянов,7006,43.8440456,25.9748419
74,Димчо Дебелянов,7006,43.8435135,25.9734394
36,Сакар планина,7006,43.8430017,25.9739376
3,Димчо Дебелянов,7006,43.8434084,25.9699885
1,Буная,7006,43.8427110,25.9718351
110,Мальовица,7016,43.8248497,25.9481834
112,Мальовица,7016,43.8245492,25.9479500
114,Мальовица,7016,43.8241948,25.9477663
4,Матей Попов,7016,43.8277931,25.9589479
6,Матей Попов,7016,43.8276448,25.9585262
8,Матей Попов,7016,43.8274892,25.9580835
10,Матей Попов,7016,43.8274242,25.9576041
35,Клисура,7016,43.8271388,25.9550897
85,Николаевска,7012,43.8364075,25.9527511
107,Николаевска,7012,43.8353533,25.9538046
2,Братя Миладинови,7001,43.8339042,25.9531760
4,Братя Миладинови,7001,43.8339085,25.9526656
6,Братя Миладинови,7001,43.8339420,25.9519781
5,Антим I,7001,43.8345417,25.9523141
1,Антим I,7001,43.8344271,25.9533079
7,Антим I,7001,43.8345583,25.9512123
53,Стефан Стамболов,7001,43.8341729,25.9511527
55,Стефан Стамболов,7001,43.8338272,25.9510724
57,Стефан Стамболов,7001,43.8331774,25.9506805
16,Кръстец,7016,43.8254242,25.9448684
12,Кръстец,7016,43.8260480,25.9455769
10,Кръстец,7016,43.8262907,25.9458921
8,Кръстец,7016,43.8265497,25.9461809
6,Кръстец,7016,43.8268139,25.9466247
4,Кръстец,7016,43.8271241,25.9471602
2,Кръстец,7016,43.8274097,25.9475302
5,Добри Войников,7015,43.8218795,25.9738855
4,Йоаким Груев,7015,43.8223622,25.9734585
11,Стоян Михайловски,7015,43.8226378,25.9730878
13,Цар Асен,7000,43.8435955,25.9594531
46,бул. Генерал Скобелев,7000,43.8445545,25.9555801
27,Рила,7012,43.8428995,25.9537949
44А,Борисова,7012,43.8429074,25.9541502
39,Панайот Хитов,7000,43.8422635,25.9580212
41,Панайот Хитов,7000,43.8425089,25.9576708
38,6-ти септември,7012,43.8414127,25.9568047
1,Никола Петков,7005,43.8526158,25.9797778
2,Руй планина,7005,43.8527856,25.9804592
2,Едуард Винтер,7005,43.8518675,25.9800818
4,Едуард Винтер,7005,43.8511653,25.9801782
6,Едуард Винтер,7005,43.8510901,25.9795730
2,инж. Бъркли,7005,43.8518212,25.9794343
4,Руй планина,7005,43.8516192,25.9807382
8,Захари Стоянов,7005,43.8484252,25.9797317
5,Проф. Д. Баларев,7005,43.8542020,25.9830381
24,Панайот Волов,7012,43.8380960,25.9533119
52,Николаевска,7012,43.8381115,25.9503467
9,Видин,7012,43.8412528,25.9540498
10,Видин,7012,43.8413046,25.9536280
24,Николай Здравков,7012,43.8414047,25.9530281
18,Николай Здравков,7012,43.8411754,25.9517517
54,Борисова,7012,43.8418724,25.9543190
4,Генерал Гурко,7012,43.8432217,25.9525673
13,Драган Цанков,7012,43.8424772,25.9517879
9,Рила,7012,43.8430680,25.9503759
11,Рила,7012,43.8430431,25.9507522
21,Княз Александър Дондуков-Корсаков,7012,43.8411254,25.9512616
25,Княз Александър Дондуков-Корсаков,7012,43.8408510,25.9515613
34,Д-р Петър Берон,7000,43.8442720,25.9556758
6,Драгоман,7000,43.8421625,25.9456932
14,19-ти февруари,7000,43.8416613,25.9463868
18,19-ти февруари,7000,43.8414189,25.9468521
14,Света гора,7000,43.8415837,25.9452054
12,Света гора,7000,43.8414636,25.9457187
27,Македония,7001,43.8325703,25.9490422
8,Сент Уан,7000,43.8371315,25.9502468
87,Йосиф Дайнелов,7016,43.8258818,25.9481011
17,Майор Атанас Узунов,7002,43.8562302,25.9593319
2,Капитан Маринов,7020,43.8502253,25.9674766
10,Студентска,7004,43.8559159,25.9740014
1-3,Добри Немиров,7000,43.8454188,25.9498176
24,Д-р Петър Берон,7000,43.8450243,25.9555026
19,Зайчар,7002,43.8519263,25.9598882
18,ТЕЦ Изток,7009,43.8708266,26.0113614
300,бул. България,7009,43.8671847,26.0165351
73,Доростол,7004,43.8600155,25.9738942
71,Доростол,7004,43.8598373,25.9737224
100,Плиска,7004,43.8589899,25.9752068
36,Доростол,7004,43.8587354,25.9726513
9,Прага,7013,43.8503977,25.9984769
7,Прага,7013,43.8500693,25.9977646
22,Рига,7013,43.8513185,25.9976739
1,Будапеща,7013,43.8514677,25.9965084
74,бул. Липник,7013,43.8517030,25.9921199
13,Юндола,7005,43.8473884,25.9835587
17,Юндола,7005,43.8470785,25.9837111
50,бул. Липник,7005,43.8497845,25.9768630
13,Богдан войвода,7002,43.8540601,25.9581998
13А,Богдан войвода,7002,43.8542132,25.9584217
1А,Муткурова,7000,43.8511778,25.9567024
3,Муткурова,7000,43.8510424,25.9568494
13,Петко Д. Петков,7000,43.8499123,25.9562678
9,Петко Д. Петков,7000,43.8498154,25.9556547
12,Муткурова,7000,43.8500993,25.9573756
32,бул. Цар Освободител,7000,43.8492993,25.9586588
43,Хан Аспарух,7000,43.8470664,25.9592542
44,бул. Цар Освободител,7000,43.8474885,25.9594954
9А,Д-р Петър Берон,7000,43.8468848,25.9554526
2,Атанас Буров,7000,43.8469195,25.9518273
17,Константин Иречек,7000,43.8465379,25.9520305
9,Константин Иречек,7000,43.8464814,25.9512789
7,Константин Иречек,7000,43.8464713,25.9510445
14,Цар Калоян,7000,43.8450818,25.9465572
19,Д-р Петър Берон,7000,43.8455106,25.9557340
21,Д-р Петър Берон,7000,43.8452782,25.9558050
18,Константин Иречек,7000,43.8462612,25.9525524
2,Света гора,7000,43.8413623,25.9466411
80,Николаевска,7001,43.8341767,25.9539664
4,бул. Мидия-Енос,7001,43.8328946,25.9520274
4,бул. Мидия-Енос,7001,43.8329755,25.9525867
4,бул. Мидия-Енос,7001,43.8332202,25.9528483
4,бул. Мидия-Енос,7001,43.8334319,25.9533173
10,Цар Самуил,7012,43.8417797,25.9498434
5,Цар Шишман,7012,43.8414498,25.9497129
11,Николай Здравков,7012,43.8412017,25.9498989
12,Княз Александър Дондуков-Корсаков,7012,43.8414170,25.9504545
13,Николай Здравков,7012,43.8412805,25.9503052
9,Княз Александър Дондуков-Корсаков,7012,43.8423768,25.9500495
19,Давид,7012,43.8397520,25.9547381
17,Давид,7012,43.8397772,25.9545396
15,Давид,7012,43.8398870,25.9544122
22,Неофит Бозвели,7012,43.8387229,25.9545400
88,Борисова,7012,43.8385923,25.9549090
90,Борисова,7012,43.8381998,25.9549686
23,Оборище,7000,43.8440960,25.9578918
19,Оборище,7000,43.8438593,25.9574840
15,Оборище,7000,43.8437517,25.9572539
14,6-ти септември,7000,43.8440305,25.9566446
9,Оборище,7000,43.8433859,25.9567449
3,Оборище,7000,43.8432234,25.9564730
38,Д-р Петър Берон,7000,43.8436710,25.9555770
38,Д-р Петър Берон,7000,43.8431211,25.9558205
70,Муткурова,7012,43.8409609,25.9576704
33,6-ти септември,7012,43.8409071,25.9570624
31,6-ти септември,7012,43.8411964,25.9571816
36,6-ти септември,7012,43.8417312,25.9568471
15,Цариград,7012,43.8409920,25.9561297
49,Борисова,7012,43.8419600,25.9550432
111,бул. Цар Освободител,7000,43.8428506,25.9611643
15,Люляк,7000,43.8448676,25.9616475
2,Ганчо Карамаджраков,7019,43.8293203,25.9775614
3,Ганчо Карамаджраков,7019,43.8307225,25.9763808
5,Михаил Хаджикостов,7019,43.8303198,25.9754838
31,Мальовица,7016,43.8274152,25.9559290
33,Мальовица,7016,43.8272839,25.9556826
115,бул. Липник,7005,43.8513533,25.9816394
2,Кърджали,7001,43.8358209,25.9610960
6A,Доспат,7001,43.8357008,25.9612045
5,Константин Иречек,7000,43.8465201,25.9508274
13,Драма,7020,43.8479641,25.9659341
13,Драма,7020,43.8483504,25.9663531
7,Будапеща,7013,43.8510175,25.9967273
22,Рига,7013,43.8511905,25.9970054
11,Киев,7013,43.8513868,25.9959892
2,Цариброд,7000,43.8473357,25.9501341
4,Цариброд,7000,43.8473143,25.9500307
12,Пирот,7000,43.8482817,25.9502602
41,Искър,7003,43.8631069,25.9891713
14,Атанас Буров,7000,43.8444389,25.9527433
106,Плиска,7004,43.8599092,25.9767710
2,алея Иглика,7004,43.8586795,25.9755238
124,Плиска,7004,43.8612170,25.9797653
16,6-ти септември,7000,43.8438716,25.9567477
18,6-ти септември,7000,43.8437030,25.9568606
21,Оборище,7000,43.8439795,25.9576845
39,Борисова,7000,43.8433454,25.9549616
2,Асен Златаров,7000,43.8507513,25.9557388
2,Яне Сандански,7020,43.8506075,25.9629982
104,Плиска,7004,43.8597096,25.9765067
2,Алея Еделвайс,7005,43.8495620,25.9803498
4,Алея Еделвайс,7005,43.8496964,25.9807409
