House number,Street name,Postal code,Latitude,Longitude
171,улица Морозова,167002,61.6415251,50.8079442
16/1,улица Мира,167026,61.7975220,50.7505379
70,улица Красных Партизан,167031,61.6745852,50.8145427
66,улица Красных Партизан,167000,61.6747387,50.8172261
124/3,Октябрьский проспект,167031,61.6750207,50.8099435
12,Покровский бульвар,167005,61.6968529,50.8102492
16,улица Чернова,167006,61.6666154,50.8179909
89,улица Ленина,167000,61.6642647,50.8446300
20,улица Чернова,167006,61.6660891,50.8175993
8,улица Менделеева,167026,61.8028023,50.7348042
8,улица Менделеева,167026,61.8027212,50.7348256
8,улица Менделеева,167026,61.8027719,50.7344501
4,Ухтинское шоссе,167026,61.7997657,50.7363169
11/1,улица Мира,167026,61.8021861,50.7483323
6,улица Космонавтов,167026,61.8010349,50.7460430
8/1,улица Мира,167026,61.8019038,50.7475426
8/1,улица Мира,167026,61.8017213,50.7472422
10/1,улица Мира,167026,61.8005883,50.7488756
16/1,улица Мира,167026,61.7973990,50.7504341
18/1,улица Мира,167026,61.7971885,50.7506058
18/1,улица Мира,167026,61.7971150,50.7506165
18/1,улица Мира,167026,61.7970516,50.7506058
18/1,улица Мира,167026,61.7969756,50.7506058
18/1,улица Мира,167026,61.7968868,50.7506165
20/1,улица Мира,167026,61.7966333,50.7505950
20/1,улица Мира,167026,61.7964280,50.7504824
36/1,проспект Бумажников,167021,61.7830873,50.7464062
31,улица Славы,167021,61.7804080,50.7433336
2/24,Лесопарковая улица,167000,61.6619945,50.7867026
62Б,Первомайская улица,167000,61.6685481,50.8255935
80,улица Клары Цеткин,167000,61.6742464,50.8217887
31,улица Лыткина,167005,61.6933934,50.8144815
31,улица Лыткина,167005,61.6933677,50.8146274
9,Покровский бульвар,167005,61.6957784,50.8094437
11,Покровский бульвар,167005,61.6955409,50.8088452
11,Покровский бульвар,167005,61.6955780,50.8086179
10,Покровский бульвар,167005,61.6968610,50.8105102
4,Покровский бульвар,167005,61.6977200,50.8144309
4,Покровский бульвар,167005,61.6979364,50.8148157
4,Покровский бульвар,167005,61.6979783,50.8147016
4,Покровский бульвар,167005,61.6980369,50.8147980
4,Покровский бульвар,167005,61.6978960,50.8146975
2/38,Лесопарковая улица,167023,61.6605504,50.7851625
85А,Коммунистическая улица,167023,61.6580644,50.7960290
117,улица Карла Маркса,167031,61.6826390,50.8153857
156,улица Карла Маркса,167031,61.6795493,50.8176401
38,улица Чкалова,167031,61.6786751,50.8098149
12,Покровский бульвар,167005,61.6968123,50.8100676
9,Покровский бульвар,167005,61.6959773,50.8102307
31,улица Лыткина,167005,61.6932993,50.8149991
11,Покровский бульвар,167005,61.6953148,50.8084690
45,улица Мира,167000,61.7850731,50.7590139
141,Октябрьский проспект,167005,61.6980917,50.8020071
131/3,Октябрьский проспект,167005,61.6903672,50.8038971
2,Покровский бульвар,167005,61.6989542,50.8138860
9,Покровский бульвар,167005,61.6959530,50.8101155
11,Покровский бульвар,167005,61.6952176,50.8091683
89,улица Морозова,167023,61.6575780,50.7930653
3,улица Морозова,167023,61.6560186,50.7927810
333,Тентюковская улица,167005,61.6974856,50.8178942
229,улица Карла Маркса,167000,61.6671309,50.8249244
220,Октябрьский проспект,167005,61.7063644,50.8051789
218,Октябрьский проспект,167005,61.7049684,50.8060533
320 к2,Тентюковская улица,167005,61.7034732,50.8078557
320,Тентюковская улица,167005,61.7039780,50.8065908
320 к3,Тентюковская улица,167005,61.7033078,50.8089395
320 к4,Тентюковская улица,167005,61.7031226,50.8068059
222,Октябрьский проспект,167005,61.7062067,50.8031780
330,Тентюковская улица,167005,61.7065347,50.8072764
328,Тентюковская улица,167005,61.7052481,50.8080596
320 к1,Тентюковская улица,167005,61.7041196,50.8083299
216,Октябрьский проспект,167005,61.7052812,50.8039987
172,Интернациональная улица,167000,61.6649610,50.8351806
49,Октябрьский проспект,167001,61.6628329,50.8163317
214,улица Карла Маркса,167000,61.6667207,50.8233697
30,Коммунистическая улица,167000,61.6663341,50.8208719
147,Интернациональная улица,167000,61.6679099,50.8329083
18/1,улица Малышева,167005,61.6907674,50.8101775
174,Октябрьский проспект,167005,61.6928371,50.8119313
170,Октябрьский проспект,167005,61.6920011,50.8080949
180,Октябрьский проспект,167005,61.6933126,50.8078125
16,улица Малышева,167005,61.6907108,50.8116601
25,Петрозаводская улица,167005,61.6942531,50.8098822
174,Октябрьский проспект,167005,61.6936485,50.8116780
176,Октябрьский проспект,167005,61.6932508,50.8105223
178,Октябрьский проспект,167005,61.6931939,50.8093390
176/1,Октябрьский проспект,167005,61.6929543,50.8101319
14,улица Малышева,167005,61.6920212,50.8137768
14,улица Малышева,167005,61.6915848,50.8144487
12,улица Малышева,167005,61.6908177,50.8136152
12,улица Малышева,167005,61.6904104,50.8147326
176/2,Октябрьский проспект,167005,61.6936069,50.8099835
10/2,улица Малышева,167005,61.6910406,50.8158727
10,улица Малышева,167005,61.6906570,50.8158428
21,Петрозаводская улица,167005,61.6928859,50.8163938
19,Петрозаводская улица,167005,61.6926103,50.8186661
21/1,Петрозаводская улица,167005,61.6931618,50.8152010
6/1,улица Малышева,167005,61.6905051,50.8192578
4,улица Малышева,167005,61.6908306,50.8203041
2,улица Малышева,167005,61.6905514,50.8210063
19,улица Малышева,167005,61.6898814,50.8150789
10,Печорская улица,167005,61.6848447,50.8154002
16А,Печорская улица,167005,61.6857583,50.8145889
24,Печорская улица,167005,61.6859585,50.8136001
26,Печорская улица,167005,61.6865774,50.8137345
31,улица Малышева,167005,61.6895630,50.8127659
22,Печорская улица,167005,61.6856220,50.8133347
25,улица Малышева,167005,61.6883223,50.8137891
33/1,улица Малышева,167005,61.6893242,50.8129224
30/2,Печорская улица,167005,61.6871531,50.8122733
23,улица Малышева,167005,61.6892823,50.8139304
18А,Печорская улица,167005,61.6851743,50.8138781
24/1,Печорская улица,167005,61.6862606,50.8135239
18,Печорская улица,167005,61.6848746,50.8141130
30/1,Печорская улица,167005,61.6875871,50.8121585
26/1,Печорская улица,167005,61.6862701,50.8141284
5,Слободская улица,167026,61.8054456,50.7478489
53/1,улица Куратова,167000,61.6643511,50.8345619
176,Интернациональная улица,167000,61.6642674,50.8369856
125,Первомайская улица,167000,61.6636476,50.8365213
119,Первомайская улица,167000,61.6643033,50.8336217
121,Первомайская улица,167000,61.6637807,50.8346481
174,Интернациональная улица,167000,61.6645748,50.8362003
166,Интернациональная улица,167000,61.6652902,50.8339891
115,Первомайская улица,167000,61.6650197,50.8319473
147,Первомайская улица,167000,61.6621293,50.8390315
147/1,Первомайская улица,167000,61.6624923,50.8395096
145,Первомайская улица,167000,61.6624377,50.8378508
49,улица Пушкина,167004,61.6622742,50.8365431
179/1,Интернациональная улица,167000,61.6643250,50.8381458
149А,Первомайская улица,167000,61.6625153,50.8400504
82,улица Ленина,167000,61.6656356,50.8401823
100,улица Ленина,167000,61.6638662,50.8421414
86/1,Первомайская улица,167000,61.6633023,50.8327855
73/1,улица Куратова,167000,61.6631348,50.8320970
96,Первомайская улица,167000,61.6628599,50.8354913
92/3,Первомайская улица,167000,61.6628275,50.8345339
23,улица Орджоникидзе,167000,61.6723033,50.8294356
20,улица Бабушкина,167000,61.6707497,50.8321849
54,улица Ленина,167000,61.6709758,50.8329291
50,улица Ленина,167000,61.6714064,50.8328791
50А,улица Ленина,167000,61.6713131,50.8323503
83/1,Первомайская улица,167000,61.6663835,50.8306717
83,Первомайская улица,167000,61.6664221,50.8300031
160А,Интернациональная улица,167000,61.6660466,50.8325857
87,Первомайская улица,167000,61.6659559,50.8319068
80,улица Ленина,167000,61.6659815,50.8393119
35,улица Куратова,167000,61.6659867,50.8373393
150,Интернациональная улица,167000,61.6666945,50.8313655
9,Коммунистическая улица,167000,61.6677695,50.8359196
7,Южная улица,167004,61.6608529,50.8355198
5,Южная улица,167004,61.6609663,50.8367856
68,улица Пушкина,167000,61.6612020,50.8321104
4,Южная улица,167004,61.6604620,50.8346261
53,улица Пушкина,167004,61.6618883,50.8358362
55,улица Пушкина,167004,61.6614129,50.8352816
51,улица Пушкина,167004,61.6617181,50.8367521
36,улица Домны Каликовой,167000,61.6629139,50.8421440
149,Первомайская улица,167000,61.6617689,50.8400557
208,улица Карла Маркса,167000,61.6683022,50.8227962
4,улица Чернова,167000,61.6675350,50.8219273
6,улица Чернова,167000,61.6672865,50.8208659
206,улица Карла Маркса,167000,61.6687771,50.8222397
60,Первомайская улица,167000,61.6691510,50.8256620
70Б,Первомайская улица,167000,61.6675977,50.8265935
231,улица Карла Маркса,167000,61.6666624,50.8253722
227,улица Карла Маркса,167000,61.6679012,50.8240851
72,Первомайская улица,167000,61.6670128,50.8271111
20,Коммунистическая улица,167000,61.6666624,50.8262416
4/2,Печорская улица,167005,61.6865161,50.8188400
15,улица Малышева,167005,61.6889690,50.8171085
1,улица Малышева,167005,61.6890531,50.8212029
17,улица Малышева,167005,61.6891859,50.8152688
21,улица Малышева,167005,61.6883508,50.8151694
5,улица Малышева,167005,61.6881898,50.8191535
11,улица Малышева,167005,61.6895177,50.8170746
1А,улица Малышева,167005,61.6894625,50.8209316
4,Печорская улица,167005,61.6869614,50.8205063
3,улица Малышева,167005,61.6891507,50.8199706
13,улица Малышева,167005,61.6885509,50.8171665
6,Печорская улица,167005,61.6856809,50.8203313
3/1,улица Малышева,167005,61.6887724,50.8194357
9,улица Малышева,167005,61.6890600,50.8187811
32,Октябрьский проспект,167001,61.6631481,50.8173510
44,Коммунистическая улица,167001,61.6637571,50.8132385
42,Октябрьский проспект,167001,61.6648632,50.8156032
26,Октябрьский проспект,167001,61.6625242,50.8179925
23,Коммунистическая улица,167000,61.6644859,50.8228845
68,Первомайская улица,167000,61.6676487,50.8271781
23А,Коммунистическая улица,167000,61.6639783,50.8227003
23Б,Коммунистическая улица,167000,61.6648883,50.8225459
27А,Коммунистическая улица,167001,61.6643746,50.8195768
218,улица Карла Маркса,167000,61.6634504,50.8245339
220,улица Карла Маркса,167000,61.6628882,50.8242310
222,улица Карла Маркса,167000,61.6621676,50.8238337
66,улица Куратова,167000,61.6625991,50.8274531
216,улица Карла Маркса,167000,61.6640345,50.8248447
21А,Коммунистическая улица,167000,61.6648161,50.8236988
85А,улица Куратова,167000,61.6620157,50.8279518
91,улица Куратова,167000,61.6609441,50.8268044
85/2,улица Куратова,167000,61.6616606,50.8280914
10,Октябрьский проспект,167000,61.6594075,50.8270580
7,Западная улица,167000,61.6615622,50.8288435
1,Сысольское шоссе,167004,61.6595721,50.8339598
224,улица Карла Маркса,167000,61.6615086,50.8234621
78А,улица Пушкина,167000,61.6620963,50.8299930
78,улица Пушкина,167000,61.6618531,50.8305887
7/1,Сысольское шоссе,167004,61.6556591,50.8317398
10/2,Гаражная улица,167000,61.6552944,50.8292314
10/5,Гаражная улица,167000,61.6551839,50.8274094
10/1,Гаражная улица,167000,61.6554170,50.8287834
7/9,Сысольское шоссе,167000,61.6557187,50.8334188
7,Сысольское шоссе,167004,61.6549020,50.8313687
28А,Сысольское шоссе,167004,61.6541125,50.8282462
7/11,Сысольское шоссе,167004,61.6548084,50.8329811
89,улица Пушкина,167004,61.6548445,50.8271738
10,Гаражная улица,167000,61.6554974,50.8279905
85,улица Пушкина,167000,61.6564967,50.8275862
87,улица Пушкина,167004,61.6561783,50.8274615
110,улица Пушкина,167004,61.6564923,50.8263423
7/8,Сысольское шоссе,167000,61.6559950,50.8335403
52,Петрозаводская улица,167005,61.6953518,50.8113962
40,Петрозаводская улица,167005,61.6943115,50.8150452
12,Покровский бульвар,167005,61.6968904,50.8100764
11,Покровский бульвар,167005,61.6953849,50.8087989
103,Тентюковская улица,167005,61.6963360,50.8144699
40/1,Петрозаводская улица,167005,61.6941932,50.8165452
54/1,Петрозаводская улица,167005,61.6954127,50.8097954
97,Тентюковская улица,167005,61.6961528,50.8166589
7,Покровский бульвар,167005,61.6958830,50.8112211
42,Петрозаводская улица,167005,61.6946402,50.8154922
8,Покровский бульвар,167005,61.6973887,50.8119458
93,Тентюковская улица,167005,61.6969179,50.8180136
89,Тентюковская улица,167005,61.6961435,50.8185912
87,Тентюковская улица,167005,61.6960125,50.8193034
95,Тентюковская улица,167005,61.6962811,50.8178188
3,Покровский бульвар,167005,61.6963624,50.8130917
54,Петрозаводская улица,167005,61.6949168,50.8104654
56,Петрозаводская улица,167005,61.6947750,50.8125012
87/2,Тентюковская улица,167005,61.6956018,50.8184833
113,Тентюковская улица,167005,61.6978769,50.8117555
196,Октябрьский проспект,167005,61.6990677,50.8083662
200,Октябрьский проспект,167005,61.6991086,50.8069276
2,Покровский бульвар,167005,61.6987597,50.8139044
194,Октябрьский проспект,167005,61.6984373,50.8081225
6,улица Ветеранов,167005,61.6998498,50.8093572
4,улица Ветеранов,167005,61.6999129,50.8108868
198,Октябрьский проспект,167005,61.6984213,50.8067294
121,Тентюковская улица,167005,61.6989247,50.8122771
123,Тентюковская улица,167005,61.6988470,50.8103983
188,Октябрьский проспект,167005,61.6976980,50.8082967
131,Тентюковская улица,167005,61.6997428,50.8129431
115,Тентюковская улица,167005,61.6983228,50.8128440
8,улица Ветеранов,167005,61.6992548,50.8095680
186,Октябрьский проспект,167005,61.6972587,50.8089930
184,Октябрьский проспект,167005,61.6974414,50.8069463
10,улица Ветеранов,167005,61.6997258,50.8078289
182,Октябрьский проспект,167005,61.6968112,50.8077758
134,Тентюковская улица,167005,61.7013460,50.8164462
132,Тентюковская улица,167005,61.7016433,50.8151422
136,Тентюковская улица,167005,61.6998926,50.8143883
126,Тентюковская улица,167005,61.7009175,50.8150285
5,улица Ветеранов,167005,61.7006823,50.8108978
124,Тентюковская улица,167005,61.7006169,50.8136573
130,Тентюковская улица,167005,61.7015238,50.8143075
12,улица Ветеранов,167005,61.6996865,50.8062961
136 с1,Тентюковская улица,167005,61.6998801,50.8137369
138/1,Тентюковская улица,167005,61.6995821,50.8156193
1/2,улица Малышева,167005,61.6889745,50.8205731
15/1,улица Малышева,167005,61.6889765,50.8157575
8/3,улица Ветеранов,167005,61.6993201,50.8102297
353,Тентюковская улица,167005,61.6989791,50.8174721
151/1,Тентюковская улица,167014,61.7096877,50.8053527
465,Тентюковская улица,167014,61.7108811,50.8072423
503А,Тентюковская улица,167014,61.7128990,50.8083850
503,Тентюковская улица,167014,61.7127966,50.8074831
505/1,Тентюковская улица,167014,61.7133400,50.8094584
198,Тентюковская улица,167014,61.7132412,50.8079446
27,Петрозаводская улица,167005,61.6952439,50.8018507
29,Петрозаводская улица,167005,61.6942786,50.7986370
131/6,Октябрьский проспект,167000,61.6908541,50.7997901
69,Печорская улица,167000,61.6818587,50.7932765
102,улица Морозова,167023,61.6530811,50.7987842
54,улица Димитрова,167023,61.6559007,50.7982454
52,улица Димитрова,167023,61.6561546,50.7992335
48,улица Димитрова,167023,61.6550304,50.7985820
102/1,улица Морозова,167023,61.6527548,50.7994513
46,улица Димитрова,167023,61.6557007,50.8010155
100,улица Морозова,167023,61.6537925,50.7980356
180/1,улица Карла Маркса,167000,61.6754902,50.8181334
174,улица Карла Маркса,167031,61.6766375,50.8178243
156,улица Карла Маркса,167031,61.6795348,50.8176602
21,улица Чкалова,167031,61.6792650,50.8164665
164,улица Карла Маркса,167031,61.6783563,50.8154808
178,улица Карла Маркса,167000,61.6755071,50.8168557
180,улица Карла Маркса,167031,61.6755881,50.8195678
138,Октябрьский проспект,167031,61.6765945,50.8113406
158,улица Карла Маркса,167031,61.6786613,50.8163902
136,Октябрьский проспект,167031,61.6764166,50.8099522
160,улица Карла Маркса,167031,61.6789838,50.8182163
141,Первомайская улица,167000,61.6626605,50.8383966
143,Первомайская улица,167000,61.6628539,50.8385453
47А,улица Ленина,167000,61.6703276,50.8367004
57,улица Ленина,167000,61.6690260,50.8383211
20,Советская улица,167000,61.6702016,50.8381465
30,Советская улица,167000,61.6683956,50.8403342
5,улица Пушкина,167000,61.6683979,50.8491142
45,Советская улица,167000,61.6678917,50.8424186
47,Советская улица,167000,61.6675492,50.8430582
13,улица Куратова,167000,61.6681929,50.8432663
49,Советская улица,167000,61.6672655,50.8440351
11,улица Бабушкина,167000,61.6705741,50.8354411
7Б,улица Пушкина,167000,61.6683939,50.8473735
35,улица Кирова,167000,61.6674617,50.8484400
26,улица Домны Каликовой,167000,61.6649913,50.8458003
45/7,Сысольское шоссе,167000,61.6387307,50.8151508
90/3,Первомайская улица,167000,61.6635725,50.8334201
83,улица Куратова,167000,61.6626571,50.8290867
79,улица Куратова,167000,61.6630500,50.8297856
3/1,Сысольское шоссе,167000,61.6580492,50.8327187
81,улица Куратова,167000,61.6624614,50.8284630
37,улица Домны Каликовой,167000,61.6631566,50.8441127
39,улица Кирова,167000,61.6670556,50.8500593
16,Октябрьский проспект,167001,61.6603796,50.8207005
146,Интернациональная улица,167000,61.6670630,50.8324092
162,улица Карла Маркса,167031,61.6783971,50.8173302
19,Советская улица,167000,61.6711033,50.8384365
11,Советская улица,167000,61.6725515,50.8375059
17,Советская улица,167000,61.6716342,50.8379724
4,Советская улица,167000,61.6738206,50.8361949
10,Советская улица,167000,61.6720330,50.8368999
6,Советская улица,167000,61.6733551,50.8362252
4,улица Орджоникидзе,167000,61.6736996,50.8377616
12,улица Димитрова,167001,61.6593008,50.8123630
58,Октябрьский проспект,167001,61.6665137,50.8160871
22,улица Димитрова,167001,61.6594221,50.8091076
77,Коммунистическая улица,167023,61.6587297,50.7990090
191,улица Карла Маркса,167000,61.6754416,50.8210253
78,Коммунистическая улица,167023,61.6595970,50.7966893
8,улица Морозова,167023,61.6565941,50.7955511
16,улица Димитрова,167001,61.6590718,50.8114319
21,улица Морозова,167023,61.6597305,50.7922856
14,улица Чернова,167001,61.6669295,50.8174662
76А,Коммунистическая улица,167023,61.6615299,50.7958004
160,улица Морозова,167002,61.6445758,50.8064190
76,Октябрьский проспект,167001,61.6679405,50.8158436
31,улица Морозова,167023,61.6617964,50.7923366
6,улица Димитрова,167001,61.6604308,50.8157398
34,улица Старовского,167023,61.6597310,50.8048442
68,Коммунистическая улица,167023,61.6621818,50.7984736
73,Коммунистическая улица,167023,61.6594766,50.8021036
83,Коммунистическая улица,167023,61.6574400,50.7965296
66,Октябрьский проспект,167001,61.6673469,50.8164398
20,улица Димитрова,167001,61.6581023,50.8093794
24,улица Димитрова,167001,61.6592521,50.8083773
86,Коммунистическая улица,167023,61.6602894,50.7932918
172,улица Морозова,167002,61.6432317,50.8101644
80,Коммунистическая улица,167023,61.6602240,50.7954078
45,Октябрьский проспект,167001,61.6617707,50.8156996
57,улица Красных Партизан,167000,61.6740828,50.8176129
18,улица Димитрова,167001,61.6588613,50.8105712
170,улица Морозова,167002,61.6440717,50.8095497
4,улица Димитрова,167001,61.6606170,50.8165420
59,улица Старовского,167001,61.6590876,50.8076709
10,улица Чернова,167001,61.6673155,50.8190330
166,улица Морозова,167002,61.6424000,50.8085259
75,Коммунистическая улица,167023,61.6592577,50.8011783
43,Октябрьский проспект,167001,61.6619592,50.8164926
76,Коммунистическая улица,167023,61.6605474,50.7968081
47,Октябрьский проспект,167001,61.6616017,50.8149049
29,улица Морозова,167023,61.6616226,50.7910933
6,улица Морозова,167023,61.6573107,50.7947962
23,улица Морозова,167023,61.6606287,50.7917185
72,Октябрьский проспект,167001,61.6673796,50.8152967
16,улица Чернова,167001,61.6665008,50.8174965
64,Октябрьский проспект,167001,61.6670551,50.8156199
2,улица Димитрова,167001,61.6607844,50.8173077
33,улица Морозова,167023,61.6621648,50.7933885
164,улица Морозова,167002,61.6431159,50.8061092
24,улица Кирова,167000,61.6741344,50.8391060
82,Коммунистическая улица,167023,61.6612159,50.7943741
158,улица Морозова,167002,61.6436822,50.8072437
79,Коммунистическая улица,167023,61.6585095,50.7980685
71,Коммунистическая улица,167023,61.6596955,50.8030293
197,улица Карла Маркса,167000,61.6745832,50.8213645
44А,Коммунистическая улица,167001,61.6646034,50.8099076
81,Коммунистическая улица,167023,61.6582922,50.7971240
1,Лесозаводская улица,167009,61.6579486,50.8882019
49,Лесозаводская улица,167009,61.6540032,50.8629084
47,Лесозаводская улица,167009,61.6543016,50.8630714
53А,Северная улица,167009,61.6507272,50.8768747
14,Октябрьский проспект,167000,61.6600813,50.8217063
4,улица Морозова,167023,61.6580089,50.7940423
14/1,улица Димитрова,167001,61.6609526,50.8118041
57,улица Старовского,167001,61.6606867,50.8059306
49/1,Октябрьский проспект,167001,61.6631519,50.8160652
7,улица Морозова,167023,61.6592598,50.7907617
51А,улица Старовского,167016,61.6644565,50.8035390
84,Коммунистическая улица,167023,61.6599094,50.7946936
39/1,Коммунистическая улица,167001,61.6612073,50.8134499
28,улица Старовского,167023,61.6619919,50.8027155
49,Коммунистическая улица,167001,61.6604438,50.8092513
32,улица Старовского,167023,61.6611499,50.8028484
184,улица Карла Маркса,167000,61.6734384,50.8202234
50А,улица Орджоникидзе,167031,61.6725970,50.8194135
33/3,Сысольское шоссе,167000,61.6402908,50.8222669
137,улица Морозова,167002,61.6427738,50.8020659
173,улица Морозова,167002,61.6406345,50.8094055
123,улица Морозова,167002,61.6448990,50.8009006
151,улица Морозова,167002,61.6421466,50.8040710
129,улица Морозова,167002,61.6441423,50.8017830
156/1,улица Морозова,167002,61.6449750,50.8029624
108,улица Морозова,167023,61.6511715,50.8008059
117А,улица Морозова,167023,61.6466189,50.7990530
161,улица Морозова,167002,61.6415009,50.8041329
111,улица Морозова,167023,61.6507401,50.7972472
27/10,Сысольское шоссе,167004,61.6464712,50.8297173
104,улица Морозова,167023,61.6524232,50.7992267
131,улица Морозова,167002,61.6437537,50.8014344
29/6,Сысольское шоссе,167000,61.6432425,50.8227043
183,улица Морозова,167002,61.6404651,50.8052175
111/2,улица Морозова,167023,61.6509510,50.7961651
171,улица Морозова,167002,61.6414902,50.8077438
163,улица Морозова,167002,61.6416130,50.8056383
159,улица Морозова,167002,61.6416237,50.8035199
110/1,улица Морозова,167023,61.6511597,50.8035013
111/3,улица Морозова,167023,61.6501148,50.7963939
127,улица Морозова,167002,61.6443620,50.8012050
31,Сысольское шоссе,167000,61.6417928,50.8264145
185,улица Морозова,167002,61.6401287,50.8046654
157,улица Морозова,167002,61.6411483,50.8029676
47/2,Сысольское шоссе,167000,61.6377648,50.8159164
119,улица Морозова,167002,61.6455512,50.8004996
22,Пришкольная улица,167002,61.6392278,50.8057203
110,улица Морозова,167023,61.6514787,50.8023108
187,улица Морозова,167002,61.6400542,50.8057026
27/15,Сысольское шоссе,167004,61.6464144,50.8319767
135,улица Морозова,167002,61.6434245,50.8016516
108/1,улица Морозова,167023,61.6514184,50.8015554
121,улица Морозова,167002,61.6453698,50.8002348
91,улица Морозова,167023,61.6519561,50.7969542
110/8,улица Морозова,167023,61.6515803,50.8035393
3А,улица Морозова,167023,61.6568862,50.7933051
29/5,Сысольское шоссе,167000,61.6425459,50.8235283
29/2,Сысольское шоссе,167000,61.6428157,50.8259469
197,улица Морозова,167002,61.6386464,50.8056091
177,улица Морозова,167002,61.6395478,50.8071865
115/2,улица Морозова,167023,61.6482397,50.7974761
31/1,Сысольское шоссе,167000,61.6413162,50.8261146
155,улица Морозова,167002,61.6419449,50.8025234
191,улица Морозова,167002,61.6397541,50.8058865
31/3,Сысольское шоссе,167000,61.6418017,50.8253457
115/3,улица Морозова,167023,61.6478714,50.7977024
27/14,Сысольское шоссе,167004,61.6464976,50.8316895
7,улица Жакова,167002,61.6390200,50.8072158
193,улица Морозова,167002,61.6395110,50.8049325
33/2,Сысольское шоссе,167000,61.6404653,50.8217793
110/9,улица Морозова,167023,61.6515809,50.8039258
29/3,Сысольское шоссе,167000,61.6421884,50.8259630
113/3,улица Морозова,167023,61.6495849,50.7975153
112/6,улица Пушкина,167000,61.6542628,50.8238820
13,Гаражная улица,167000,61.6564318,50.8232635
105,улица Пушкина,167004,61.6521805,50.8268061
136,улица Пушкина,167004,61.6447717,50.8186126
228,улица Карла Маркса,167000,61.6600127,50.8226203
122,улица Пушкина,167004,61.6497843,50.8219091
42,улица Димитрова,167023,61.6568692,50.8052516
44/1,Колхозная улица,167000,61.6490588,50.8365329
4/6,Гаражная улица,167000,61.6555010,50.8192516
122,Станционная улица,167002,61.6451798,50.8156496
29/2,Октябрьский проспект,167004,61.6584067,50.8244595
8/2,Гаражная улица,167000,61.6551244,50.8238642
98,улица Пушкина,167004,61.6582513,50.8275226
4/7,Гаражная улица,167000,61.6557226,50.8190675
135/5,улица Пушкина,167004,61.6480476,50.8233670
2,Вороншорский проезд,167004,61.6585129,50.8255034
133А,улица Пушкина,167004,61.6498038,50.8242816
42,улица Старовского,167001,61.6581932,50.8066288
139,улица Пушкина,167004,61.6461757,50.8206392
62,Сысольское шоссе,167004,61.6494212,50.8272924
9/1,Гаражная улица,167000,61.6577897,50.8206220
29/5,Октябрьский проспект,167004,61.6583396,50.8235249
112/7,улица Пушкина,167000,61.6545023,50.8241860
13,улица Маркова,167004,61.6490338,50.8270800
1/3,улица Димитрова,167000,61.6588248,50.8167301
9/3,Гаражная улица,167000,61.6565771,50.8221249
137,улица Пушкина,167004,61.6470708,50.8212483
226,улица Карла Маркса,167000,61.6607975,50.8230623
8,Гаражная улица,167000,61.6554872,50.8237235
50,улица Димитрова,167023,61.6569818,50.7996985
134,улица Пушкина,167004,61.6457246,50.8194945
133/3,улица Пушкина,167004,61.6496309,50.8246297
61,улица Старовского,167001,61.6583139,50.8082246
6/6,Гаражная улица,167000,61.6549495,50.8201619
141,улица Пушкина,167004,61.6451165,50.8199125
73/1,Коммунистическая улица,167023,61.6588498,50.8045410
74А,Сысольское шоссе,167004,61.6435782,50.8195976
22,улица Маркова,167004,61.6478780,50.8296349
132,улица Пушкина,167004,61.6468984,50.8203506
5А,Гаражная улица,167000,61.6577205,50.8166503
20А,улица Димитрова,167001,61.6578583,50.8081349
140,улица Пушкина,167004,61.6437140,50.8176894
4/2,Гаражная улица,167000,61.6554570,50.8202697
41,Октябрьский проспект,167001,61.6613518,50.8176567
112/8,улица Пушкина,167000,61.6547133,50.8244046
70,Сысольское шоссе,167004,61.6463760,50.8240792
127/2,улица Пушкина,167004,61.6506626,50.8247327
3/10,улица Димитрова,167000,61.6557472,50.8104680
22/1,улица Маркова,167004,61.6481397,50.8297510
6/1,Гаражная улица,167000,61.6545288,50.8219399
1,Гаражная улица,167000,61.6576904,50.8135185
145/1,улица Пушкина,167004,61.6438648,50.8184345
18,Октябрьский проспект,167001,61.6608413,50.8198958
10,улица Димитрова,167001,61.6595583,50.8135058
4/1,Гаражная улица,167000,61.6555681,50.8199627
120,улица Пушкина,167004,61.6500791,50.8206287
112/2,улица Пушкина,167000,61.6546526,50.8250042
2/1,Гаражная улица,167000,61.6556109,50.8126094
115,улица Пушкина,167004,61.6515777,50.8255487
108/5,улица Пушкина,167004,61.6574209,50.8267257
5,Гаражная улица,167000,61.6583150,50.8162095
11/1,Гаражная улица,167000,61.6577000,50.8235488
29/3,Октябрьский проспект,167004,61.6581189,50.8241213
3/5,улица Димитрова,167000,61.6556473,50.8096398
56/1,Сысольское шоссе,167004,61.6507534,50.8277365
44/3,Колхозная улица,167000,61.6493894,50.8364062
46,улица Старовского,167023,61.6582522,50.8053857
29/1,Октябрьский проспект,167004,61.6581748,50.8250804
27А,Сысольское шоссе,167004,61.6476139,50.8310999
128,улица Пушкина,167004,61.6490907,50.8213862
114,Станционная улица,167002,61.6455208,50.8169341
6/5,Гаражная улица,167000,61.6544173,50.8201342
35/2,улица Катаева,167016,61.6646298,50.7998568
37,улица Катаева,167023,61.6645341,50.7974291
21/3,улица Катаева,167016,61.6646413,50.8011458
44/2,Коммунистическая улица,167001,61.6645098,50.8078115
11/2,улица Катаева,167001,61.6654508,50.8109146
35А,улица Катаева,167016,61.6641958,50.8004004
27А,улица Катаева,167016,61.6649963,50.7987646
45,улица Катаева,167023,61.6641764,50.7905015
62/2,Коммунистическая улица,167023,61.6614198,50.8016329
62А,Коммунистическая улица,167023,61.6619665,50.8011779
21А,улица Катаева,167016,61.6652255,50.8007518
51,улица Катаева,167023,61.6637871,50.7943449
4А,Парковый проезд,167016,61.6642193,50.7995143
11А,улица Катаева,167016,61.6657607,50.8044475
62/3,Коммунистическая улица,167023,61.6617941,50.8015634
37/2,улица Катаева,167023,61.6639346,50.7977388
2a,Парковый проезд,167016,61.6645802,50.7990936
33А,улица Катаева,167023,61.6646374,50.7958381
50,улица Маегова,167016,61.6657983,50.8052402
62/5,Коммунистическая улица,167023,61.6614519,50.8020037
33/1,улица Катаева,167023,61.6647648,50.7962157
35/3,улица Катаева,167023,61.6634564,50.7996288
51,улица Катаева,167023,61.6640355,50.7960065
46/2,Коммунистическая улица,167001,61.6631876,50.8084052
41/1,улица Оплеснина,167016,61.6679596,50.8012043
37/2,улица Морозова,167023,61.6628492,50.7917967
23А,улица Катаева,167016,61.6651590,50.8002046
47,улица Маегова,167016,61.6655293,50.8060347
37/1,улица Катаева,167023,61.6634004,50.7953889
51/1,улица Катаева,167023,61.6638008,50.7934939
45,улица Маегова,167016,61.6658529,50.8058602
37/1,улица Морозова,167023,61.6629340,50.7911127
25/2,улица Морозова,167023,61.6607832,50.7943097
29,улица Оплеснина,167001,61.6689593,50.8102173
21,улица Катаева,167016,61.6659435,50.8073295
11,улица Катаева,167001,61.6653752,50.8103764
19А,улица Катаева,167016,61.6653706,50.8014855
39,улица Катаева,167023,61.6645906,50.7947952
35/1,улица Морозова,167023,61.6625405,50.7955426
21/2,улица Катаева,167016,61.6649658,50.8009644
27,улица Морозова,167023,61.6613391,50.7926504
43/1,улица Катаева,167023,61.6639243,50.7933371
16/1,улица Старовского,167016,61.6684442,50.8012871
74,Коммунистическая улица,167023,61.6617060,50.7972220
20,улица Маегова,167016,61.6692263,50.8036433
43/1,улица Морозова,167023,61.6636560,50.7907947
46/4,Коммунистическая улица,167001,61.6633891,50.8090835
25А,улица Катаева,167016,61.6651359,50.7994867
25,улица Морозова,167023,61.6608427,50.7928976
47,улица Катаева,167023,61.6643327,50.7921386
98,улица Красных Партизан,167031,61.6741565,50.8083307
101,Октябрьский проспект,167031,61.6742137,50.8092263
99,Октябрьский проспект,167031,61.6738921,50.8093329
81,улица Красных Партизан,167031,61.6737482,50.8074041
79,улица Красных Партизан,167031,61.6738285,50.8083135
15,улица Кутузова,167011,61.6792121,50.8271432
13,улица Кутузова,167011,61.6794693,50.8289800
158,Октябрьский проспект,167031,61.6798747,50.8088922
28,улица Чкалова,167031,61.6788445,50.8122817
2/2,Огородная улица,167031,61.6809439,50.8091365
158,Октябрьский проспект,167031,61.6794003,50.8093711
30,улица Чкалова,167031,61.6784868,50.8112754
8,Огородная улица,167031,61.6797809,50.8110338
12,Советская улица,167000,61.6719455,50.8360856
2,Советская улица,167000,61.6741816,50.8359054
23,улица Ленина,167000,61.6749588,50.8341422
14,улица Орджоникидзе,167000,61.6731039,50.8342076
10,улица Орджоникидзе,167000,61.6731904,50.8353309
15,улица Орджоникидзе,167000,61.6726838,50.8343477
119/1,Октябрьский проспект,167031,61.6772764,50.8077275
111,Октябрьский проспект,167031,61.6757666,50.8089025
33,улица Ленина,167000,61.6725967,50.8334004
17,улица Орджоникидзе,167000,61.6725345,50.8321567
21,улица Орджоникидзе,167000,61.6722618,50.8308588
54,улица Горького,167000,61.6736278,50.8302237
113,Интернациональная улица,167000,61.6727508,50.8296773
27,улица Ленина,167000,61.6736211,50.8328881
25,улица Ленина,167000,61.6741722,50.8329052
13,улица Оплеснина,167000,61.6693779,50.8194371
17,улица Оплеснина,167000,61.6690070,50.8178750
27,улица Оплеснина,167000,61.6691804,50.8132169
26,улица Юхнина,167031,61.6702190,50.8170655
49А,улица Орджоникидзе,167000,61.6714850,50.8188301
41,улица Ленина,167000,61.6714640,50.8339986
34,улица Ленина,167000,61.6735607,50.8321243
16,улица Орджоникидзе,167000,61.6734394,50.8339673
43,улица Орджоникидзе,167000,61.6716740,50.8231983
9,улица Горького,167000,61.6747614,50.8381831
22,улица Кирова,167000,61.6746593,50.8393372
17,улица Ленина,167000,61.6759737,50.8330792
166/1,Октябрьский проспект,167005,61.6901706,50.8075103
58,улица Ленина,167000,61.6701220,50.8337646
20,проезд Мичурина,167000,61.6563888,50.8392271
13/2,Сысольское шоссе,167000,61.6562051,50.8372407
13,Сысольское шоссе,167000,61.6554998,50.8360083
40/3,Колхозная улица,167000,61.6562307,50.8414680
16,Южная улица,167000,61.6584266,50.8402588
40/2,Колхозная улица,167000,61.6564225,50.8414014
40А,Колхозная улица,167000,61.6562175,50.8421570
16,улица Мичурина,167000,61.6563238,50.8394023
40/1,Колхозная улица,167000,61.6559341,50.8419868
30,Южная улица,167000,61.6579568,50.8433934
38/6,Колхозная улица,167000,61.6565725,50.8420348
30/2,Южная улица,167000,61.6578941,50.8442932
13/3,Сысольское шоссе,167000,61.6561533,50.8377169
11,улица Оплеснина,167000,61.6695103,50.8202647
49,улица Орджоникидзе,167000,61.6711808,50.8202153
51,улица Орджоникидзе,167000,61.6712935,50.8174346
53,Первомайская улица,167000,61.6684468,50.8282805
47,Первомайская улица,167000,61.6710628,50.8262981
92,Интернациональная улица,167000,61.6721007,50.8279845
22,улица Орджоникидзе,167000,61.6729271,50.8310357
94,Интернациональная улица,167000,61.6718319,50.8283827
27,Советская улица,167000,61.6701699,50.8395423
21А,Советская улица,167000,61.6705788,50.8390771
78/1,Первомайская улица,167000,61.6644373,50.8303066
80/1,Первомайская улица,167000,61.6645056,50.8309964
201,улица Карла Маркса,167000,61.6735273,50.8210679
196,улица Карла Маркса,167031,61.6723329,50.8205965
199,улица Карла Маркса,167000,61.6741248,50.8208713
93,Октябрьский проспект,167031,61.6725437,50.8095444
6,улица Юхнина,167000,61.6733265,50.8134880
63,улица Орджоникидзе,167000,61.6710908,50.8130085
52,улица Орджоникидзе,167031,61.6717144,50.8164688
61А,улица Орджоникидзе,167031,61.6711154,50.8139532
58,улица Орджоникидзе,167031,61.6715876,50.8148355
34,Первомайская улица,167000,61.6739829,50.8229922
102,Интернациональная улица,167000,61.6731566,50.8278080
99,Интернациональная улица,167000,61.6734531,50.8287173
97,Интернациональная улица,167000,61.6738522,50.8293439
48,улица Красных Партизан,167000,61.6750618,50.8263984
41,Советская улица,167000,61.6686138,50.8410171
23,Советская улица,167000,61.6708418,50.8395897
29,Советская улица,167000,61.6704839,50.8399963
200,улица Карла Маркса,167000,61.6703366,50.8212368
4,улица Оплеснина,167000,61.6709316,50.8229063
30,улица Оплеснина,167031,61.6699340,50.8151280
32,улица Оплеснина,167031,61.6696457,50.8143735
24,улица Оплеснина,167031,61.6697724,50.8161015
20,улица Оплеснина,167031,61.6699191,50.8179533
18,улица Оплеснина,167031,61.6699838,50.8187232
34,улица Оплеснина,167031,61.6697123,50.8135928
22,улица Оплеснина,167031,61.6698656,50.8170528
36,улица Оплеснина,167031,61.6695121,50.8127980
77,Октябрьский проспект,167031,61.6698877,50.8108172
100,Октябрьский проспект,167031,61.6708771,50.8114763
94,Октябрьский проспект,167031,61.6702940,50.8133365
92,Октябрьский проспект,167031,61.6702460,50.8126266
75,Октябрьский проспект,167031,61.6694356,50.8109523
90,Октябрьский проспект,167031,61.6699455,50.8126326
96,Октябрьский проспект,167031,61.6703987,50.8116342
98,Октябрьский проспект,167031,61.6705550,50.8124362
194/1,Октябрьский проспект,167005,61.6982322,50.8087584
204,улица Карла Маркса,167000,61.6693231,50.8217118
49/2,улица Орджоникидзе,167000,61.6712245,50.8187654
51/1,улица Орджоникидзе,167000,61.6711311,50.8179969
84,улица Клары Цеткин,167000,61.6734389,50.8224953
80,Октябрьский проспект,167001,61.6688013,50.8127672
102,Октябрьский проспект,167031,61.6716833,50.8110954
62/1,улица Орджоникидзе,167031,61.6717599,50.8125433
105,Октябрьский проспект,167031,61.6748836,50.8092259
107,Октябрьский проспект,167031,61.6751722,50.8091256
4,улица Юхнина,167000,61.6733911,50.8146110
85,Октябрьский проспект,167031,61.6707948,50.8104780
81,Октябрьский проспект,167031,61.6703504,50.8106266
74,Октябрьский проспект,167001,61.6679106,50.8146954
8,улица Чернова,167000,61.6670260,50.8197620
8/1,улица Чернова,167000,61.6675435,50.8196162
110,Интернациональная улица,167000,61.6688211,50.8292626
28,улица Кирова,167000,61.6730259,50.8394735
3,улица Орджоникидзе,167000,61.6730556,50.8385289
13/8,улица Свободы,167000,61.6771421,50.8381612
77,Интернациональная улица,167000,61.6759000,50.8277111
30/4,Лесопарковая улица,167000,61.6448956,50.7909598
30,Лесопарковая улица,167000,61.6446919,50.7901702
38/3,Лесопарковая улица,167000,61.6415158,50.7948605
32/6,Лесопарковая улица,167002,61.6441491,50.7966465
32/4,Лесопарковая улица,167000,61.6428927,50.7943304
32/2,Лесопарковая улица,167000,61.6441545,50.7958926
34,Лесопарковая улица,167000,61.6429102,50.7914363
36/3,Лесопарковая улица,167002,61.6428979,50.7960361
38/2,Лесопарковая улица,167000,61.6416371,50.7932932
38,Лесопарковая улица,167000,61.6412962,50.7946500
38/1,Лесопарковая улица,167000,61.6413676,50.7935283
32,Лесопарковая улица,167000,61.6433382,50.7912176
36/2,Лесопарковая улица,167002,61.6438896,50.7971938
15,улица Морозова,167000,61.6629384,50.7874794
36,Лесопарковая улица,167000,61.6423327,50.7954500
144,Интернациональная улица,167000,61.6672798,50.8323324
20,Первомайская улица,167031,61.6778119,50.8226342
32,Интернациональная улица,167031,61.6779143,50.8254592
9,Первомайская улица,167031,61.6778432,50.8243547
31,улица Свободы,167000,61.6762624,50.8276450
24,улица Ленина,167000,61.6745256,50.8305518
111,улица Ленина,167000,61.6637889,50.8457315
98/1,Интернациональная улица,167000,61.6713319,50.8284089
49,Первомайская улица,167000,61.6711635,50.8270590
25,улица Бабушкина,167000,61.6698309,50.8285556
28,Коммунистическая улица,167000,61.6657730,50.8218518
2,улица Куратова,167000,61.6686787,50.8422841
28,Советская улица,167000,61.6686275,50.8399914
221,улица Карла Маркса,167000,61.6691911,50.8226333
198,улица Карла Маркса,167000,61.6707103,50.8211155
39А,улица Кирова,167000,61.6673478,50.8504707
14,улица Домны Каликовой,167000,61.6679184,50.8502456
7/2,улица Пушкина,167000,61.6680197,50.8486316
5/2,улица Пушкина,167000,61.6678869,50.8492506
7,улица Пушкина,167000,61.6682854,50.8480471
29,улица Свободы,167000,61.6761392,50.8286315
125,Октябрьский проспект,167031,61.6834944,50.8075649
20/2,улица Пушкина,167000,61.6666889,50.8409714
201А,улица Карла Маркса,167000,61.6729621,50.8219169
29,улица Орджоникидзе,167000,61.6721793,50.8275089
85,улица Куратова,167000,61.6617484,50.8275976
26,Советская улица,167000,61.6689571,50.8397290
49/1,улица Ленина,167000,61.6700331,50.8353170
16А,улица Куратова,167000,61.6675471,50.8391776
228/1,улица Карла Маркса,167001,61.6605536,50.8220421
22,Октябрьский проспект,167001,61.6613639,50.8212582
228/2,улица Карла Маркса,167001,61.6610345,50.8218832
20А,улица Чернова,167001,61.6658585,50.8166449
26,Коммунистическая улица,167000,61.6659128,50.8228426
229/1,улица Карла Маркса,167000,61.6671061,50.8260111
29,улица 28-й Невельской Дивизии,167031,61.6754011,50.8079885
31,улица 28-й Невельской Дивизии,167031,61.6750162,50.8081260
83,Октябрьский проспект,167031,61.6703596,50.8098075
79,Октябрьский проспект,167031,61.6697548,50.8100082
69,улица Орджоникидзе,167031,61.6707866,50.8089663
42,улица Оплеснина,167031,61.6693075,50.8103755
44,улица Оплеснина,167031,61.6692383,50.8095521
67,улица Орджоникидзе,167031,61.6708448,50.8098301
57,улица 28-й Невельской Дивизии,167031,61.6706470,50.8083447
71,улица Орджоникидзе,167016,61.6709351,50.8076167
59,улица 28-й Невельской Дивизии,167031,61.6701882,50.8084183
5,Печорская улица,167031,61.6844461,50.8115234
7,Печорская улица,167031,61.6845328,50.8110859
1,улица Папанина,167031,61.6845605,50.8102306
152,Октябрьский проспект,167031,61.6820154,50.8109886
62А,улица Свободы,167000,61.6777311,50.8299710
22А,улица Катаева,167023,61.6645472,50.7904343
22/1,улица Старовского,167016,61.6637650,50.8023455
1/2,Гаражная улица,167000,61.6578016,50.8114759
41,улица Катаева,167023,61.6643572,50.7937885
22,улица Катаева,167023,61.6648058,50.7897098
43,улица Катаева,167023,61.6642952,50.7931732
26/1,улица Чкалова,167031,61.6802388,50.8135233
39,Пермская улица,167009,61.6434009,50.8777144
4,Пермская улица,167009,61.6428723,50.8767877
45,Пермская улица,167009,61.6427231,50.8782180
43,Пермская улица,167009,61.6428326,50.8774837
124/3,Октябрьский проспект,167031,61.6750484,50.8099354
131/1,Интернациональная улица,167000,61.6696304,50.8310233
47/1,улица Морозова,167016,61.6683097,50.7928403
1/4,улица Димитрова,167000,61.6585647,50.8186321
39,Набережная улица,167009,61.6410924,50.8761188
40,Набережная улица,167009,61.6416152,50.8757910
36,Набережная улица,167009,61.6411514,50.8754433
37,Набережная улица,167009,61.6408570,50.8759663
41,Набережная улица,167009,61.6415024,50.8764812
30,Набережная улица,167009,61.6404519,50.8749351
35,Набережная улица,167009,61.6406205,50.8757483
39,Набережная улица,167009,61.6413128,50.8762785
42,Набережная улица,167009,61.6418323,50.8759413
44,Набережная улица,167009,61.6420836,50.8761238
38,Набережная улица,167009,61.6413981,50.8756259
43,Набережная улица,167009,61.6417853,50.8766431
26,Набережная улица,167009,61.6399876,50.8739731
45,Набережная улица,167009,61.6420181,50.8768173
34,Набережная улица,167009,61.6409005,50.8752506
28,Набережная улица,167009,61.6402329,50.8747302
176,улица Карла Маркса,167000,61.6760554,50.8178192
45/1,улица Чкалова,167000,61.6772265,50.8061551
50/6,улица Чкалова,167000,61.6788189,50.8058284
50/2,улица Чкалова,167000,61.6780371,50.8062106
3,Строительная улица,167009,61.6501779,50.8671628
134,улица Энгельса,167031,61.6798578,50.8238360
29,Восточная улица,167031,61.6799019,50.8225953
1/2,Советская улица,167000,61.6763965,50.8372381
45,улица Старовского,167016,61.6659920,50.8033175
44/38,улица Старовского,167023,61.6575303,50.8068737
82,Сысольское шоссе,167004,61.6433643,50.8166717
72,Сысольское шоссе,167004,61.6453985,50.8224083
72/1,Сысольское шоссе,167004,61.6451132,50.8218224
46/7,Коммунистическая улица,167001,61.6628082,50.8099208
33,улица Кирова,167000,61.6678989,50.8474036
1А,Песчаная улица,167000,61.6782223,50.8586568
65,Октябрьский проспект,167001,61.6676240,50.8106467
67,Октябрьский проспект,167001,61.6681068,50.8104961
63,Октябрьский проспект,167001,61.6671221,50.8107861
5,улица Маегова,167016,61.6699663,50.8053672
56,улица Оплеснина,167016,61.6687776,50.8046157
54,улица Оплеснина,167016,61.6688992,50.8054391
11,Парковая улица,167016,61.6688347,50.7986241
10,Карьерная улица,167016,61.6702569,50.7995415
17,Дальняя улица,167016,61.6686195,50.7959691
17/1,улица Маегова,167016,61.6695528,50.8047562
19,Дальняя улица,167016,61.6687127,50.7969595
8,Карьерная улица,167016,61.6699861,50.7990610
19/1,улица Маегова,167016,61.6691851,50.8048878
60,улица Оплеснина,167016,61.6680997,50.7969678
73/2,улица Орджоникидзе,167016,61.6718543,50.8044558
32,Парковая улица,167016,61.6688846,50.7978059
48/2,Коммунистическая улица,167001,61.6629213,50.8072302
77/2,Коммунистическая улица,167023,61.6580767,50.8004696
1/1,Сысольское шоссе,167004,61.6591118,50.8335692
40,Ручейная улица,167023,61.6685985,50.7777665
34,Ручейная улица,167023,61.6675399,50.7768432
38,Ручейная улица,167023,61.6680614,50.7771554
138/1,Октябрьский проспект,167031,61.6765792,50.8127480
168,улица Морозова,167002,61.6435417,50.8086523
5,2-я Новосельская улица,167002,61.6458212,50.8127466
21/1,Станционная улица,167002,61.6452011,50.8126739
3,2-я Новосельская улица,167002,61.6457133,50.8131473
9,2-я Новосельская улица,167002,61.6459785,50.8122108
162,улица Морозова,167002,61.6439753,50.8056115
10/9,2-я Промышленная улица,167000,61.7340626,50.7626512
10/1,2-я Промышленная улица,167000,61.7330826,50.7624643
34,1-я Промышленная улица,167000,61.7295156,50.7620318
15,1-я Промышленная улица,167000,61.7293741,50.7702763
10/10,2-я Промышленная улица,167000,61.7335140,50.7641311
19,1-я Промышленная улица,167000,61.7287271,50.7690978
86/1,4-я Промышленная улица,167000,61.7277353,50.7396462
74/1,4-я Промышленная улица,167000,61.7295546,50.7416210
86/2 ст2,4-я Промышленная улица,167000,61.7281066,50.7402285
26,4-я Промышленная улица,167000,61.7316976,50.7497500
82,4-я Промышленная улица,167000,61.7271794,50.7412451
76,4-я Промышленная улица,167000,61.7293851,50.7402852
86/2,4-я Промышленная улица,167000,61.7280071,50.7400000
86,4-я Промышленная улица,167000,61.7273871,50.7394971
12,4-я Промышленная улица,167000,61.7320784,50.7513884
74,4-я Промышленная улица,167000,61.7295206,50.7409599
3,1-я Промышленная улица,167000,61.7301083,50.7741913
3/2,1-я Промышленная улица,167000,61.7305887,50.7739555
14,1-я Промышленная улица,167000,61.7315316,50.7693063
12,1-я Промышленная улица,167000,61.7340807,50.7697175
10,1-я Промышленная улица,167000,61.7332776,50.7702320
30,1-я Промышленная улица,167000,61.7310281,50.7668575
10/20,2-я Промышленная улица,167000,61.7350607,50.7621925
12,2-я Промышленная улица,167000,61.7362800,50.7684735
10/2,2-я Промышленная улица,167000,61.7316090,50.7634677
10/28,2-я Промышленная улица,167000,61.7353199,50.7687053
10/26,2-я Промышленная улица,167000,61.7346109,50.7689042
10/5,2-я Промышленная улица,167000,61.7325056,50.7618677
10/25,2-я Промышленная улица,167000,61.7346303,50.7682844
10/32,2-я Промышленная улица,167000,61.7360278,50.7662282
8,2-я Промышленная улица,167000,61.7328023,50.7603318
11,1-я Промышленная улица,167000,61.7296916,50.7722355
9/3,1-я Промышленная улица,167000,61.7289972,50.7718481
7,1-я Промышленная улица,167000,61.7292262,50.7731517
10,Петрозаводская улица,167005,61.6864236,50.8237835
77/1,Коммунистическая улица,167023,61.6586908,50.7996364
2,улица Ветеранов,167005,61.7000505,50.8121286
170/1,улица Морозова,167002,61.6438519,50.8082833
461,Тентюковская улица,167014,61.7104966,50.8057220
64,Интернациональная улица,167000,61.6755673,50.8261328
13/2,улица Горького,167000,61.6742704,50.8352067
4,проспект Бумажников,167026,61.8130048,50.7346446
1А,улица Мира,167026,61.8061310,50.7409140
202,улица Морозова,167000,61.6389159,50.8199854
355,Тентюковская улица,167005,61.6993209,50.8147472
301,Тентюковская улица,167005,61.6968696,50.8210938
58,Петрозаводская улица,167005,61.6945200,50.8125713
12,Ухтинское шоссе,167026,61.8036523,50.7320628
14,Ухтинское шоссе,167026,61.8044779,50.7311085
8/1,улица Калинина,167026,61.8105713,50.7360845
6,проспект Бумажников,167026,61.8062823,50.7370995
8,проспект Бумажников,167026,61.8054135,50.7365928
19,улица Калинина,167026,61.8069182,50.7355249
8/1,Ухтинское шоссе,167026,61.8020692,50.7330779
10,проспект Бумажников,167026,61.8041894,50.7379033
2/12,проспект Бумажников,167026,61.8033662,50.7374812
4,улица Менделеева,167026,61.8031480,50.7364800
6,улица Менделеева,167026,61.8028751,50.7356695
8,улица Менделеева,167026,61.8027491,50.7346217
1,улица Мира,167026,61.8058454,50.7430378
3,Слободская улица,167026,61.8066534,50.7476316
1,Слободская улица,167026,61.8056531,50.7463422
9,Ельная улица,167021,61.7711266,50.7445357
52,Ухтинское шоссе,167026,61.8182224,50.7266454
4/4,проспект Бумажников,167026,61.8111980,50.7353930
116,улица Карла Маркса,167031,61.6825830,50.8141387
2,улица Католикова,167031,61.6821193,50.8145491
4,улица Католикова,167031,61.6820381,50.8141737
76,улица Куратова,167000,61.6598062,50.8240892
43,улица Старовского,167016,61.6662154,50.8031306
6,улица Катаева,167016,61.6666517,50.8080089
12,Кирпичная улица,167016,61.6672076,50.8064332
35А,улица Оплеснина,167016,61.6681333,50.8073794
21,Кирпичная улица,167016,61.6680129,50.8061126
20,улица Катаева,167023,61.6645969,50.7910575
78/2,Первомайская улица,167000,61.6642029,50.8296369
156,Октябрьский проспект,167031,61.6807143,50.8085064
182/1,улица Карла Маркса,167000,61.6734795,50.8192540
184/3,улица Карла Маркса,167000,61.6731140,50.8192882
108,улица Карла Маркса,167031,61.6836707,50.8132757
144/1,Станционная улица,167002,61.6432511,50.8127461
173А,улица Морозова,167002,61.6410499,50.8088461
201,улица Морозова,167002,61.6403755,50.8114334
203,улица Морозова,167002,61.6396196,50.8116869
11,улица Жакова,167002,61.6383015,50.8078179
7,улица Клары Цеткин,167031,61.6843319,50.8170819
113А,улица Морозова,167023,61.6489738,50.7973062
119/1,улица Морозова,167002,61.6456611,50.7996045
177,улица Карла Маркса,167031,61.6777124,50.8198804
4/2,Южная улица,167004,61.6596088,50.8368615
56,улица Домны Каликовой,167004,61.6601067,50.8375675
54,улица Домны Каликовой,167004,61.6601196,50.8380567
11,Южная улица,167004,61.6602866,50.8371117
6,Южная улица,167004,61.6593270,50.8382445
73,улица Домны Каликовой,167004,61.6591361,50.8381919
33,Набережная улица,167009,61.6403837,50.8755755
31,Набережная улица,167009,61.6401623,50.8754091
23,Набережная улица,167009,61.6388592,50.8741112
27,Набережная улица,167009,61.6393575,50.8746042
24,Набережная улица,167009,61.6394203,50.8739844
22,Набережная улица,167009,61.6390970,50.8736233
26/5,Лесопарковая улица,167000,61.6453152,50.7932720
104/4,улица Морозова,167023,61.6518437,50.7991944
27/2,Сысольское шоссе,167000,61.6457061,50.8286308
3,улица Ветеранов,167005,61.7007221,50.8117427
192,улица Морозова,167002,61.6419012,50.8128912
194,улица Морозова,167002,61.6417086,50.8142823
160,Станционная улица,167002,61.6419403,50.8118478
233,Тентюковская улица,167005,61.6929882,50.8223342
267,Тентюковская улица,167005,61.6943398,50.8221347
273,Тентюковская улица,167005,61.6948018,50.8220535
20/7,улица Димитрова,167001,61.6584506,50.8092385
20/1,улица Димитрова,167001,61.6587651,50.8095947
38,улица Сорвачева,167011,61.6825376,50.8340398
63А,улица Орджоникидзе,167000,61.6706011,50.8140369
89,улица Морозова,167023,61.6575477,50.7928777
36/1,улица Старовского,167023,61.6595932,50.8062110
113/1,улица Морозова,167023,61.6494325,50.7988734
31,Октябрьский проспект,167000,61.6586085,50.8228690
39,Сысольское шоссе,167000,61.6401457,50.8174444
3/14,улица Димитрова,167000,61.6548375,50.8100787
6,Гаражная улица,167000,61.6549527,50.8223701
6А,Гаражная улица,167000,61.6550164,50.8209744
112/3,улица Морозова,167023,61.6510445,50.8004574
168/1,улица Морозова,167002,61.6430544,50.8087101
21/2,Станционная улица,167002,61.6451268,50.8119015
143,улица Пушкина,167004,61.6455190,50.8207712
76,Сысольское шоссе,167004,61.6432416,50.8190592
72/2,Сысольское шоссе,167004,61.6447009,50.8213753
150,Станционная улица,167002,61.6428183,50.8123753
78,Сысольское шоссе,167004,61.6430885,50.8184706
80,Сысольское шоссе,167004,61.6432115,50.8179874
138,улица Пушкина,167004,61.6443964,50.8178836
190,улица Морозова,167002,61.6426336,50.8139312
129/1,улица Морозова,167002,61.6439636,50.8021869
156/2,улица Морозова,167002,61.6444966,50.8031340
169/1,улица Морозова,167002,61.6418018,50.8076314
78/1,Коммунистическая улица,167023,61.6600078,50.7974902
61,Сысольское шоссе,167000,61.6347444,50.8179372
63,Сысольское шоссе,167000,61.6341624,50.8208374
63/2,Сысольское шоссе,167000,61.6349583,50.8211996
57,Сысольское шоссе,167000,61.6359274,50.8171571
178,улица Морозова,167002,61.6417884,50.8106517
174,улица Морозова,167002,61.6415876,50.8100313
6,2-я Новосельская улица,167002,61.6460062,50.8131239
2,2-я Новосельская улица,167002,61.6458210,50.8137916
182/1,улица Морозова,167002,61.6414022,50.8105451
182,улица Морозова,167002,61.6415643,50.8107361
179,улица Морозова,167002,61.6400359,50.8070683
72/1,Коммунистическая улица,167023,61.6604086,50.7979869
106,улица Морозова,167023,61.6519596,50.8029814
127/1,улица Морозова,167002,61.6438692,50.8005398
36/5,Лесопарковая улица,167002,61.6443235,50.7972592
144/2,Станционная улица,167002,61.6431163,50.8133591
132,Станционная улица,167002,61.6446182,50.8157571
130,Станционная улица,167002,61.6445175,50.8137246
144/3,Станционная улица,167002,61.6436052,50.8134290
138/1,Станционная улица,167002,61.6439801,50.8140999
142,Станционная улица,167002,61.6438822,50.8127330
130/1,Станционная улица,167002,61.6441727,50.8130234
138,Станционная улица,167002,61.6439938,50.8134668
106,улица Пушкина,167004,61.6576263,50.8272355
27/1,Октябрьский проспект,167004,61.6586087,50.8246210
2,Гаражный проезд,167004,61.6578509,50.8254961
6,Гаражный проезд,167004,61.6577973,50.8262824
4,Гаражный проезд,167004,61.6578552,50.8259082
97/1,улица Пушкина,167004,61.6536409,50.8262864
32,Сысольское шоссе,167004,61.6538437,50.8290265
91,улица Пушкина,167004,61.6547538,50.8280362
103/1,улица Пушкина,167004,61.6532583,50.8276320
20,Сысольское шоссе,167000,61.6549745,50.8300575
50,улица Куратова,167000,61.6642570,50.8313575
42,улица Куратова,167000,61.6648576,50.8329576
117,Первомайская улица,167000,61.6646278,50.8324096
85/1,Первомайская улица,167000,61.6659889,50.8314068
27,Коммунистическая улица,167001,61.6640427,50.8198608
56,Первомайская улица,167000,61.6695790,50.8252193
3/1,улица Оплеснина,167000,61.6697610,50.8242619
227/3,улица Карла Маркса,167000,61.6682154,50.8248811
227/1,улица Карла Маркса,167000,61.6679047,50.8251791
55/5,Октябрьский проспект,167001,61.6656878,50.8125408
46/6,Коммунистическая улица,167001,61.6630107,50.8107967
46/5,Коммунистическая улица,167001,61.6632220,50.8116675
36,Станционная улица,167004,61.6487389,50.8193709
5/13,Сысольское шоссе,167000,61.6565886,50.8332494
5/9,Сысольское шоссе,167000,61.6567311,50.8338489
5/1,Сысольское шоссе,167000,61.6568175,50.8322742
5/7,Сысольское шоссе,167000,61.6568549,50.8333865
3/3,Сысольское шоссе,167000,61.6573548,50.8326931
3/4,Сысольское шоссе,167000,61.6572758,50.8333083
16/3,Южная улица,167000,61.6579952,50.8402830
11,Западная улица,167000,61.6607003,50.8290863
1,Гаражный проезд,167004,61.6581372,50.8258108
1/8,Сысольское шоссе,167004,61.6589312,50.8336061
45/3,Сысольское шоссе,167000,61.6382050,50.8164273
114А,Первомайская улица,167004,61.6612109,50.8396045
110,Первомайская улица,167004,61.6613289,50.8375080
50,улица Домны Каликовой,167004,61.6603463,50.8385608
8,Южная улица,167004,61.6591847,50.8387133
114,Первомайская улица,167004,61.6610112,50.8385559
72/3,Коммунистическая улица,167023,61.6606058,50.7987897
35/1,улица Катаева,167016,61.6647486,50.8003425
35/1,улица Катаева,167016,61.6645515,50.8005148
48,улица Катаева,167016,61.6659947,50.7924608
5,улица Кутузова,167011,61.6796320,50.8372290
54,Интернациональная улица,167000,61.6761305,50.8255520
2,улица Ленина,167000,61.6760501,50.8294365
81,Интернациональная улица,167000,61.6755890,50.8289538
50,улица Красных Партизан,167000,61.6750665,50.8250324
129,улица Карла Маркса,167031,61.6811934,50.8176519
1,Петрозаводская улица,167005,61.6849481,50.8207105
300,Тентюковская улица,167005,61.7016517,50.8104383
304,Тентюковская улица,167005,61.7014081,50.8079650
308,Тентюковская улица,167005,61.7023078,50.8074028
208,Октябрьский проспект,167005,61.7019285,50.8055021
214,Октябрьский проспект,167005,61.7039770,50.8046278
212,Октябрьский проспект,167005,61.7032851,50.8050871
7,улица Ветеранов,167005,61.7005061,50.8093283
33,Петрозаводская улица,167005,61.6952358,50.8005866
33/1,Петрозаводская улица,167005,61.6945307,50.8005586
33/2,Петрозаводская улица,167005,61.6940492,50.8006800
121А,Первомайская улица,167000,61.6641972,50.8354006
121А,Первомайская улица,167000,61.6638523,50.8356119
174/1,Интернациональная улица,167000,61.6644352,50.8359565
60/1,улица Домны Каликовой,167004,61.6582365,50.8359354
81,улица Домны Каликовой,167000,61.6580170,50.8375422
19,Стандартный проезд,167016,61.6661002,50.8043520
8,Стандартный проезд,167016,61.6673378,50.8030986
4,Стандартный проезд,167016,61.6677076,50.8031055
2,Стандартный проезд,167016,61.6679235,50.8030387
41,улица Оплеснина,167016,61.6681933,50.8028938
20,Стандартный проезд,167016,61.6660438,50.8038899
7,Стандартный проезд,167016,61.6673541,50.8038389
5,Стандартный проезд,167016,61.6675422,50.8037446
3,Стандартный проезд,167016,61.6677760,50.8036397
6,Стандартный проезд,167016,61.6675092,50.8031814
47/2,улица Морозова,167016,61.6686448,50.7931674
6А,Карьерная улица,167016,61.6699959,50.8028569
4,Карьерный проезд,167016,61.6704886,50.8026752
6А,Карьерный проезд,167016,61.6706425,50.8026179
6,Карьерный проезд,167016,61.6707292,50.8024043
8,Карьерный проезд,167016,61.6709630,50.8023261
11,улица Старовского,167016,61.6699367,50.8016990
9,улица Старовского,167016,61.6701044,50.8014808
1,улица Старовского,167016,61.6711712,50.8011381
1А,улица Старовского,167016,61.6714199,50.8010106
10,улица Старовского,167016,61.6703799,50.8007130
11,Дальняя улица,167016,61.6692275,50.7957650
24,Карьерная улица,167016,61.6692575,50.7961487
5,Национальная улица,167016,61.6698084,50.7942793
1,Октябрьский проспект,167004,61.6582336,50.8317863
5,Гаражный проезд,167004,61.6580325,50.8267134
8,Вороншорский проезд,167004,61.6583251,50.8268884
4,Вороншорский проезд,167004,61.6584233,50.8259721
9,Вороншорский проезд,167004,61.6585527,50.8265186
11,Октябрьский проспект,167004,61.6587524,50.8281182
13,Октябрьский проспект,167004,61.6588112,50.8276429
15,Октябрьский проспект,167004,61.6588683,50.8271996
17,Октябрьский проспект,167004,61.6589247,50.8267476
19,Октябрьский проспект,167004,61.6589846,50.8262898
21,Октябрьский проспект,167004,61.6590412,50.8258467
21,улица Маегова,167016,61.6694083,50.8053710
2,улица 28-й Невельской Дивизии,167016,61.6695756,50.8064296
85,улица Громова,167031,61.6820222,50.8022502
50/4,улица Чкалова,167000,61.6785801,50.8042722
52,улица Чкалова,167000,61.6778547,50.8044459
50/3,улица Чкалова,167000,61.6785268,50.8049056
50/18,улица Чкалова,167031,61.6806772,50.8055319
41/1,Коммунистическая улица,167001,61.6619927,50.8093446
117,улица Карла Маркса,167031,61.6827430,50.8154634
110,Тентюковская улица,167005,61.6909380,50.8229748
70/1,Коммунистическая улица,167023,61.6607422,50.7994973
2,Кирпичная улица,167016,61.6677036,50.8068701
21А,Кирпичная улица,167016,61.6676464,50.8062588
73/1,улица Орджоникидзе,167016,61.6716687,50.8052275
22,Советская улица,167000,61.6697662,50.8387929
55,улица Ленина,167000,61.6694945,50.8375934
19/1,улица Бабушкина,167000,61.6702095,50.8327951
18/1,Советская улица,167000,61.6705361,50.8371312
35,Советская улица,167000,61.6690846,50.8404892
108/3,Интернациональная улица,167000,61.6694759,50.8286369
1,улица Бабушкина,167000,61.6713792,50.8398215
53,улица Куратова,167000,61.6648383,50.8343643
156/1,Октябрьский проспект,167031,61.6801388,50.8086100
9,Огородная улица,167031,61.6838451,50.8085705
156,Октябрьский проспект,167031,61.6804729,50.8086629
158А,Октябрьский проспект,167031,61.6793644,50.8085358
158А,Октябрьский проспект,167031,61.6795724,50.8083827
140,Октябрьский проспект,167031,61.6766518,50.8136729
13,Советская улица,167000,61.6722396,50.8382143
2А,улица Орджоникидзе,167000,61.6734891,50.8387261
22,Южная улица,167000,61.6582683,50.8412177
24,Южная улица,167000,61.6582090,50.8423939
38,Колхозная улица,167000,61.6572075,50.8420314
45,улица Кирова,167000,61.6668202,50.8508133
1,улица Куратова,167000,61.6692748,50.8468113
3,улица Куратова,167000,61.6692678,50.8457946
2,улица Пушкина,167000,61.6687302,50.8467050
2/1,улица Пушкина,167000,61.6690485,50.8472888
29,улица Кирова,167000,61.6683934,50.8461525
27,улица Кирова,167000,61.6686493,50.8454817
6,улица Пушкина,167000,61.6675987,50.8445801
30/1,улица Пушкина,167000,61.6649412,50.8391613
37,улица Куратова,167000,61.6652561,50.8364013
179,Интернациональная улица,167000,61.6645768,50.8375695
30,улица Пушкина,167000,61.6649195,50.8397614
28,улица Пушкина,167000,61.6652436,50.8404441
16,улица Пушкина,167000,61.6666820,50.8431551
87,улица Ленина,167000,61.6656821,50.8413084
75,улица Ленина,167000,61.6663870,50.8400945
77,улица Ленина,167000,61.6659495,50.8405234
23,улица Куратова,167000,61.6670027,50.8408108
36,Советская улица,167000,61.6671337,50.8419184
23,улица Свободы,167000,61.6770633,50.8333370
116,улица Ленина,167981,61.6630870,50.8461062
110,улица Ленина,167000,61.6633330,50.8452004
118,улица Ленина,167000,61.6627517,50.8465197
108,улица Ленина,167000,61.6635327,50.8446994
84,улица Ленина,167000,61.6645496,50.8424217
100/2,улица Ленина,167000,61.6638948,50.8411009
34,улица Домны Каликовой,167000,61.6637470,50.8436093
46,улица Кирова,167000,61.6682171,50.8448670
92/1,Первомайская улица,167000,61.6629877,50.8341449
73/7,улица Куратова,167000,61.6626196,50.8325478
83А,улица Куратова,167000,61.6620806,50.8287425
72,улица Куратова,167004,61.6605512,50.8248502
1/6,Сысольское шоссе,167004,61.6587283,50.8353694
21/1,Коммунистическая улица,167000,61.6643366,50.8238348
41/2,Коммунистическая улица,167001,61.6617689,50.8103247
85А,Коммунистическая улица,167023,61.6581022,50.7958488
3/2,Сысольское шоссе,167000,61.6576501,50.8324863
5/8,Сысольское шоссе,167000,61.6570198,50.8338806
12/1,Пермская улица,167009,61.6376795,50.8696254
44/3,Коммунистическая улица,167001,61.6649354,50.8113611
1,улица Морозова,167023,61.6580520,50.7915607
44/1,улица Димитрова,167023,61.6566337,50.8026205
48,улица Старовского,167023,61.6577183,50.8030183
1/1,Республиканская улица,167009,61.6358108,50.8598519
1/3,Республиканская улица,167009,61.6355660,50.8602097
1/2,Республиканская улица,167009,61.6358214,50.8606633
1/3,Кочпонская улица,167009,61.6355968,50.8615133
1/4,Кочпонская улица,167009,61.6353229,50.8615417
1/5,Кочпонская улица,167009,61.6354984,50.8619760
1/1,Кочпонская улица,167009,61.6351987,50.8610156
11,улица Орджоникидзе,167000,61.6727975,50.8353946
6,Кочпонская улица,167009,61.6369192,50.8645647
7,Кочпонская улица,167009,61.6371581,50.8651811
7/1,Кочпонская улица,167009,61.6370633,50.8649581
41/2,Пермская улица,167009,61.6421495,50.8773081
41/1,Пермская улица,167009,61.6422865,50.8765772
33,Пермская улица,167009,61.6428265,50.8748044
31/1,Пермская улица,167009,61.6431029,50.8760503
227/2,улица Карла Маркса,167000,61.6682502,50.8250362
38,улица Бабушкина,167000,61.6701193,50.8275948
51,Первомайская улица,167000,61.6702413,50.8267630
17/2,улица Оплеснина,167000,61.6690890,50.8188572
17/3,улица Оплеснина,167000,61.6689284,50.8168933
24/1,улица Юхнина,167000,61.6707603,50.8164147
51/2,улица Орджоникидзе,167000,61.6715204,50.8178185
49/5,улица Орджоникидзе,167000,61.6716050,50.8199266
51/1,Коммунистическая улица,167001,61.6605271,50.8080812
44/5,улица Димитрова,167023,61.6580504,50.8035155
87/1,улица Морозова,167023,61.6534257,50.7958570
100/1,улица Морозова,167023,61.6536495,50.7995222
100/2,улица Морозова,167023,61.6533701,50.7995256
104/1,улица Морозова,167023,61.6530505,50.7999880
104/2,улица Морозова,167023,61.6531820,50.7996749
104/3,улица Морозова,167023,61.6527245,50.8004279
91/1,улица Морозова,167023,61.6518459,50.7964641
112/5,улица Морозова,167023,61.6517728,50.8002736
112/4,улица Морозова,167023,61.6514520,50.8004723
111/5,улица Морозова,167023,61.6496407,50.7964870
115/4,улица Морозова,167023,61.6477361,50.7975156
117/3,улица Морозова,167023,61.6470703,50.7977997
68,Ухтинское шоссе,167026,61.8302221,50.7299893
60/17,Ухтинское шоссе,167026,61.8285007,50.7158000
40/7,Ухтинское шоссе,167026,61.8148757,50.7300758
31/2,Сысольское шоссе,167000,61.6424417,50.8270387
45,Сысольское шоссе,167000,61.6382006,50.8152000
27/1,Сысольское шоссе,167000,61.6469819,50.8285788
22/5,улица Маркова,167004,61.6471860,50.8303408
22/6,улица Маркова,167004,61.6470988,50.8309936
22/4,улица Маркова,167004,61.6474431,50.8305117
151,Тентюковская улица,167014,61.7100290,50.8050187
455/1,Тентюковская улица,167014,61.7098956,50.8071526
13/6,улица Ветеранов,167005,61.7019246,50.8063096
13/4,улица Ветеранов,167005,61.7019432,50.8066326
13/3,улица Ветеранов,167005,61.7020751,50.8069353
13/5,улица Ветеранов,167005,61.7011175,50.8067019
13/2,улица Ветеранов,167005,61.7011155,50.8070309
13/1,улица Ветеранов,167005,61.7012395,50.8073478
11,улица Ветеранов,167005,61.7013236,50.8094494
9,улица Ветеранов,167005,61.7005009,50.8078858
10/1,улица Ветеранов,167005,61.6997813,50.8072518
8/1,улица Ветеранов,167005,61.6999841,50.8085522
8/2,улица Ветеранов,167005,61.6999082,50.8087234
8/4,улица Ветеранов,167005,61.6997506,50.8087546
192,Октябрьский проспект,167005,61.6983826,50.8092962
115/1,Тентюковская улица,167005,61.6981004,50.8131814
136/1,Тентюковская улица,167005,61.7003816,50.8143630
126/1,Тентюковская улица,167005,61.7007141,50.8155063
353/1,Тентюковская улица,167005,61.6993963,50.8164930
353/3,Тентюковская улица,167005,61.6995811,50.8171872
363,Тентюковская улица,167005,61.6990775,50.8193423
85/1,Тентюковская улица,167005,61.6958159,50.8196339
160/4,Октябрьский проспект,167005,61.6880712,50.8120010
34/2,Печорская улица,167005,61.6872188,50.8144226
4/4,Печорская улица,167005,61.6877628,50.8170600
4/10,Печорская улица,167005,61.6871100,50.8200499
19А,улица Малышева,167005,61.6899637,50.8136120
33/1,улица Малышева,167005,61.6893126,50.8124129
15,Петрозаводская улица,167005,61.6886361,50.8213144
22,Петрозаводская улица,167005,61.6901235,50.8227495
17,улица Громова,167011,61.6842589,50.8254813
21,Депутатская улица,167011,61.6843267,50.8240757
3,Тентюковский переулок,167011,61.6841114,50.8235545
17,Депутатский переулок,167011,61.6833034,50.8230129
46,улица Крупской,167011,61.6830312,50.8229008
19,Депутатский переулок,167011,61.6833294,50.8225913
50,улица Крупской,167011,61.6829870,50.8221322
21,Депутатский переулок,167011,61.6833314,50.8222224
23,Депутатский переулок,167011,61.6833519,50.8217625
109,улица Энгельса,167011,61.6835457,50.8212864
103А,улица Энгельса,167031,61.6841455,50.8212620
103,улица Энгельса,167031,61.6840213,50.8206771
31,улица Громова,167031,61.6844462,50.8214001
35/3,Восточная улица,167011,61.6808905,50.8240175
35/4,Восточная улица,167011,61.6808850,50.8243825
21,Тентюковская улица,167011,61.6835587,50.8316036
19,Тентюковская улица,167011,61.6834797,50.8322505
23,улица Сорвачева,167011,61.6832503,50.8328949
17,Тентюковская улица,167011,61.6832093,50.8314199
15,Тентюковская улица,167011,61.6828451,50.8314981
15/1,Тентюковская улица,167011,61.6827753,50.8319512
21,улица Сорвачева,167011,61.6829172,50.8328451
13,Тентюковская улица,167011,61.6825851,50.8315939
15,улица Сорвачева,167011,61.6823907,50.8331580
14,улица Крупской,167011,61.6822365,50.8324525
19,улица Сорвачева,167011,61.6831415,50.8336319
17,улица Сорвачева,167011,61.6827922,50.8334923
80,улица Сорвачева,167011,61.6837056,50.8334818
39,улица Микушева,167011,61.6841804,50.8357112
33,улица Микушева,167011,61.6839399,50.8359270
66,улица Сорвачева,167011,61.6840033,50.8351107
64,улица Сорвачева,167011,61.6837483,50.8351811
78,Тентюковская улица,167011,61.6835567,50.8338348
60/1,улица Сорвачева,167011,61.6835969,50.8356950
31,улица Микушева,167011,61.6837655,50.8360768
29,улица Микушева,167011,61.6835606,50.8361679
60,улица Сорвачева,167011,61.6834621,50.8351639
58,улица Сорвачева,167011,61.6832545,50.8343942
37,улица Микушева,167011,61.6841453,50.8361928
35,улица Микушева,167011,61.6840951,50.8365488
27,улица Микушева,167011,61.6837532,50.8368547
23,улица Микушева,167011,61.6832914,50.8369653
21,улица Микушева,167011,61.6829441,50.8373638
7,Тентюковская улица,167011,61.6818351,50.8313380
13,улица Сорвачева,167011,61.6820196,50.8332378
11,улица Сорвачева,167011,61.6817083,50.8332867
9,улица Сорвачева,167011,61.6813943,50.8331904
3,Тентюковская улица,167011,61.6814682,50.8308250
3А,улица Крупской,167011,61.6813430,50.8322133
28,улица Кутузова,167011,61.6804842,50.8322629
7/1,улица Сорвачева,167011,61.6809332,50.8328457
8,Интернациональная улица,167011,61.6804134,50.8284868
21А,улица Сорвачева,167011,61.6828694,50.8323360
19А,улица Сорвачева,167011,61.6829965,50.8333967
40,улица Сорвачева,167011,61.6828993,50.8339891
38,улица Громова,167031,61.6845344,50.8187155
40,улица Громова,167031,61.6844300,50.8180352
102,улица Энгельса,167031,61.6844804,50.8195641
39/1,улица Громова,167031,61.6844265,50.8191656
41,улица Громова,167031,61.6841125,50.8185278
104,улица Энгельса,167031,61.6842207,50.8197533
106,улица Энгельса,167031,61.6840519,50.8200047
120,улица Энгельса,167031,61.6820571,50.8218476
11,улица Папанина,167031,61.6833903,50.8107999
13,улица Папанина,167031,61.6832313,50.8109665
9,Печорская улица,167031,61.6844877,50.8106698
80,улица Громова,167031,61.6842103,50.8110056
28,Восточная улица,167031,61.6797337,50.8228985
4,Овражная улица,167031,61.6793615,50.8233667
28,улица Маегова,167016,61.6683307,50.8040963
39,улица Оплеснина,167016,61.6682554,50.8034118
25,улица Старовского,167016,61.6681110,50.8023137
121/3,улица Морозова,167002,61.6452080,50.7989962
123/3,улица Морозова,167002,61.6449116,50.7992235
127/5,улица Морозова,167002,61.6442812,50.8003059
127/2,улица Морозова,167002,61.6441343,50.8000606
155/2,улица Морозова,167002,61.6421005,50.8013526
143,улица Морозова,167002,61.6426645,50.8044477
141,улица Морозова,167002,61.6425414,50.8048840
145,улица Морозова,167002,61.6424180,50.8053196
147,улица Морозова,167002,61.6422948,50.8057364
4,2-я Новосельская улица,167002,61.6459265,50.8134795
10,Ярославская улица,167002,61.6471332,50.8123601
175/2,улица Морозова,167002,61.6407716,50.8074474
5,Давпон,167002,61.6385120,50.8134007
47/1,Сысольское шоссе,167000,61.6375218,50.8158276
47/3,Сысольское шоссе,167000,61.6375461,50.8163546
45/4,Сысольское шоссе,167000,61.6378108,50.8164984
45/6,Сысольское шоссе,167000,61.6378916,50.8150230
47,Сысольское шоссе,167000,61.6375922,50.8148638
47/6,Сысольское шоссе,167000,61.6375511,50.8144692
61/1,Сысольское шоссе,167000,61.6348091,50.8188174
202А,улица Морозова,167000,61.6395932,50.8200422
27/13,Сысольское шоссе,167004,61.6466504,50.8311743
27/11,Сысольское шоссе,167004,61.6468454,50.8300665
27/3,Сысольское шоссе,167000,61.6466894,50.8274080
135/2,улица Пушкина,167000,61.6484995,50.8235520
135/1,улица Пушкина,167000,61.6486252,50.8229382
130/1,улица Пушкина,167004,61.6484389,50.8199422
143/1,улица Пушкина,167004,61.6450303,50.8208231
80/1,Сысольское шоссе,167004,61.6434490,50.8179231
122/1,Станционная улица,167002,61.6450234,50.8150439
120,Станционная улица,167002,61.6454402,50.8152771
118,Станционная улица,167002,61.6455325,50.8149157
118/1,Станционная улица,167002,61.6458340,50.8150386
112,Станционная улица,167002,61.6459340,50.8154856
112/1,Станционная улица,167002,61.6457978,50.8160075
120/1,Станционная улица,167002,61.6457513,50.8157380
3/1,Гаражная улица,167000,61.6577088,50.8149466
3/2,Гаражная улица,167000,61.6579092,50.8153025
9/5,Гаражная улица,167000,61.6576565,50.8219270
27,Гаражная улица,167004,61.6568149,50.8292576
25/1,Гаражная улица,167000,61.6556231,50.8301858
10/3,Гаражная улица,167000,61.6551822,50.8294272
10/6,Гаражная улица,167000,61.6547342,50.8290097
127А,улица Пушкина,167004,61.6509971,50.8250072
14,Южная улица,167000,61.6588445,50.8401944
18,Южная улица,167000,61.6586680,50.8406936
24/2,Южная улица,167000,61.6580172,50.8432557
24/3,Южная улица,167000,61.6581735,50.8434491
28,Южная улица,167000,61.6577041,50.8435985
85,улица Домны Каликовой,167000,61.6566558,50.8368543
10А,проезд Мичурина,167000,61.6565099,50.8376262
6,проезд Мичурина,167000,61.6569002,50.8369437
10,проезд Мичурина,167000,61.6568064,50.8377622
12,проезд Мичурина,167000,61.6566837,50.8382926
16,проезд Мичурина,167000,61.6566184,50.8393653
40/10,Колхозная улица,167000,61.6561940,50.8406895
42,улица Мичурина,167000,61.6574266,50.8376594
44,улица Мичурина,167000,61.6573768,50.8380873
48,улица Мичурина,167000,61.6572570,50.8391451
50,улица Мичурина,167000,61.6572068,50.8394887
52,улица Мичурина,167000,61.6571531,50.8398741
56,улица Мичурина,167000,61.6570485,50.8406568
45,улица Мичурина,167000,61.6576352,50.8388033
47,улица Мичурина,167000,61.6576146,50.8391924
49,улица Мичурина,167000,61.6574966,50.8395777
51,улица Мичурина,167000,61.6574384,50.8400169
53,улица Мичурина,167000,61.6573951,50.8404313
2,проезд 20 МЮД,167004,61.6590198,50.8385724
4,проезд 20 МЮД,167004,61.6588268,50.8385822
6,проезд 20 МЮД,167004,61.6586201,50.8385662
8,проезд 20 МЮД,167004,61.6584173,50.8384851
10,проезд 20 МЮД,167004,61.6581992,50.8381658
7,проезд 20 МЮД,167000,61.6578620,50.8389139
16,Красноармейская улица,167000,61.6596028,50.8421963
18,Красноармейская улица,167000,61.6592538,50.8418740
20,Красноармейская улица,167000,61.6591090,50.8417154
17,Южная улица,167000,61.6589182,50.8415109
6,Загородная улица,167000,61.6597155,50.8412917
8,Загородная улица,167000,61.6596268,50.8416585
13,Ижемская улица,167000,61.6598197,50.8408392
15/4,Южная улица,167000,61.6598246,50.8398759
4,Загородная улица,167000,61.6599808,50.8402923
218,Интернациональная улица,167000,61.6616673,50.8438032
220,Интернациональная улица,167000,61.6615135,50.8441380
157,Первомайская улица,167000,61.6611843,50.8424057
159,Первомайская улица,167000,61.6610225,50.8429033
161,Первомайская улица,167000,61.6608515,50.8433828
4,Красноармейская улица,167000,61.6613806,50.8434340
49,улица Домны Каликовой,167000,61.6624178,50.8433322
44/1,улица Домны Каликовой,167000,61.6616336,50.8406242
196/1,Интернациональная улица,167000,61.6622636,50.8401566
196,Первомайская улица,167000,61.6627407,50.8402236
89,улица Ленина,167000,61.6649716,50.8437416
88,Советская улица,167000,61.6635481,50.8511642
83/2,улица Куратова,167000,61.6624103,50.8293759
78/3,улица Куратова,167000,61.6623665,50.8295035
73/2,улица Куратова,167000,61.6626183,50.8320924
73/4,улица Куратова,167000,61.6627595,50.8322099
92/2,Первомайская улица,167000,61.6628871,50.8343480
80/2,Первомайская улица,167000,61.6644250,50.8307928
23/1,Коммунистическая улица,167000,61.6651132,50.8231927
21/2,Коммунистическая улица,167000,61.6645616,50.8241854
25/1,Коммунистическая улица,167000,61.6640316,50.8215874
25,Коммунистическая улица,167000,61.6643533,50.8210838
24,Октябрьский проспект,167001,61.6617990,50.8194327
59,Коммунистическая улица,167023,61.6606446,50.8040893
85/2,Первомайская улица,167000,61.6658312,50.8305716
19/3,улица Бабушкина,167000,61.6699397,50.8326883
19/2,улица Бабушкина,167000,61.6699935,50.8325617
19/5,улица Бабушкина,167000,61.6700134,50.8326757
8,улица Куратова,167000,61.6679319,50.8390738
63/1,улица Ленина,167000,61.6677817,50.8381769
61,улица Ленина,167000,61.6682846,50.8389000
82/1,улица Ленина,167000,61.6654358,50.8396285
77/1,улица Ленина,167000,61.6663926,50.8406379
79,улица Ленина,167000,61.6664200,50.8409955
47А,Советская улица,167000,61.6673972,50.8437107
46/1,улица Кирова,167000,61.6680739,50.8449483
46/2,улица Кирова,167000,61.6680410,50.8448480
31,улица Кирова,167000,61.6681550,50.8468295
5/1,улица Пушкина,167000,61.6682473,50.8487676
31/1,улица Кирова,167000,61.6681880,50.8475326
12,улица Домны Каликовой,167000,61.6681998,50.8509979
27,Береговая улица,167000,61.6689580,50.8498175
31,Береговая улица,167000,61.6685774,50.8511235
133/1,Октябрьский проспект,167000,61.6915454,50.7992633
133,Октябрьский проспект,167000,61.6915521,50.8000465
164,Октябрьский проспект,167005,61.6888722,50.8092204
162,Октябрьский проспект,167005,61.6884893,50.8098787
162/1,Октябрьский проспект,167005,61.6880904,50.8093710
160/2,Октябрьский проспект,167005,61.6877875,50.8114474
39,Петрозаводская улица,167005,61.6923827,50.7997755
27/4,Петрозаводская улица,167005,61.6948280,50.8036122
29/1,Петрозаводская улица,167005,61.6938436,50.7980355
202/2,улица Морозова,167000,61.6402634,50.8197475
24/1,улица Кирова,167000,61.6737898,50.8395133
5/1,улица Бабушкина,167000,61.6711758,50.8396887
4/1,Коммунистическая улица,167000,61.6701133,50.8401018
17А,Коммунистическая улица,167000,61.6669955,50.8308442
15,Коммунистическая улица,167000,61.6672029,50.8316985
17,Коммунистическая улица,167000,61.6672265,50.8311019
19А,Коммунистическая улица,167000,61.6669917,50.8302404
142,Интернациональная улица,167000,61.6674096,50.8319262
30,улица Орджоникидзе,167000,61.6725309,50.8276765
41,Первомайская улица,167000,61.6731831,50.8260188
31,Первомайская улица,167000,61.6735532,50.8263020
78,4-я Промышленная улица,167000,61.7289378,50.7429570
80,4-я Промышленная улица,167000,61.7280062,50.7430836
5/3,Сысольское шоссе,167000,61.6571169,50.8329642
5/5,Сысольское шоссе,167000,61.6570876,50.8331209
5/4,Сысольское шоссе,167000,61.6568803,50.8328509
5/6,Сысольское шоссе,167000,61.6568542,50.8330067
5/10,Сысольское шоссе,167000,61.6565738,50.8337928
32,улица Ленина,167000,61.6734584,50.8314853
207А,улица Карла Маркса,167000,61.6724764,50.8218470
207,улица Карла Маркса,167000,61.6724183,50.8213816
50,улица Орджоникидзе,167031,61.6719487,50.8188521
50/1,улица Орджоникидзе,167031,61.6718939,50.8180707
50/2,улица Орджоникидзе,167031,61.6720186,50.8196429
59,улица Красных Партизан,167000,61.6741264,50.8146094
120,Октябрьский проспект,167000,61.6730731,50.8125477
122,Октябрьский проспект,167000,61.6735376,50.8115301
61,улица Красных Партизан,167000,61.6739849,50.8125436
118,Октябрьский проспект,167031,61.6726734,50.8110846
60,улица Орджоникидзе,167031,61.6716413,50.8138005
10,улица Морозова,167023,61.6557300,50.7962058
36,улица Старовского,167023,61.6591093,50.8066232
75/2,Коммунистическая улица,167023,61.6584193,50.8012534
13А,улица Горького,167000,61.6745555,50.8346915
75/1,улица Орджоникидзе,167016,61.6706130,50.8051743
8/1,Печорская улица,167005,61.6849461,50.8201679
13/1,Тентюковская улица,167011,61.6824817,50.8322447
1/1,Покровский бульвар,167005,61.6970510,50.8149374
13,улица Жакова,167002,61.6379299,50.8082482
4,Ученический переулок,167031,61.6807768,50.8136881
102/1,Октябрьский проспект,167031,61.6717335,50.8114395
69/2,Октябрьский проспект,167001,61.6682698,50.8108066
5,Вороншорский проезд,167004,61.6587720,50.8256897
26/1,улица 28-й Невельской Дивизии,167016,61.6676749,50.8078998
24/1,улица 28-й Невельской Дивизии,167001,61.6684197,50.8078048
31/1,улица Бабушкина,167000,61.6687620,50.8282994
36,улица Бабушкина,167000,61.6705514,50.8279633
38/1,улица Бабушкина,167000,61.6704404,50.8277350
5,1-я Промышленная улица,167000,61.7302774,50.7724134
5/1,1-я Промышленная улица,167000,61.7303093,50.7729162
54/1,улица Горького,167000,61.6733593,50.8298474
6/2,Гаражная улица,167000,61.6543006,50.8225658
54/1,улица Димитрова,167023,61.6561109,50.7973132
215,Интернациональная улица,167000,61.6618336,50.8454890
119/1,Интернациональная улица,167000,61.6714659,50.8300177
109,Интернациональная улица,167000,61.6731450,50.8302074
106/3,Интернациональная улица,167000,61.6708430,50.8279576
106/2,Интернациональная улица,167000,61.6706711,50.8276386
17/1,Интернациональная улица,167000,61.6782024,50.8271532
102,улица Карла Маркса,167031,61.6838817,50.8120926
197/1,улица Карла Маркса,167000,61.6744662,50.8214175
228/3,улица Карла Маркса,167001,61.6607979,50.8219947
20А,улица Катаева,167023,61.6647183,50.7909065
22/1,улица Катаева,167023,61.6645267,50.7892437
67,улица Клары Цеткин,167000,61.6761795,50.8227060
38/1,Колхозная улица,167000,61.6578519,50.8419061
18/1,Коммунистическая улица,167000,61.6681669,50.8299195
8,Кочпонская улица,167009,61.6374257,50.8657748
2,Красноармейская улица,167000,61.6612648,50.8439590
19,улица Кутузова,167000,61.6780903,50.8283535
21/1,улица Ленина,167000,61.6748960,50.8324449
13/1,улица Кутузова,167011,61.6795798,50.8305507
4,улица Ленина,167000,61.6763363,50.8305095
6,улица Ленина,167000,61.6759722,50.8313024
106/2,улица Морозова,167023,61.6518155,50.8033492
106/3,улица Морозова,167023,61.6517449,50.8027544
106/4,улица Морозова,167023,61.6521928,50.8028124
25,Набережная улица,167009,61.6391279,50.8743162
1,2-я Новосельская улица,167002,61.6455951,50.8134056
31/2,Пермская улица,167009,61.6438929,50.8752503
9/1,Огородная улица,167031,61.6837972,50.8090304
41/5,улица Оплеснина,167016,61.6678958,50.8003449
83,улица Орджоникидзе,167016,61.6716407,50.8034990
19/1,улица Юхнина,167000,61.6709021,50.8180379
29/1,Первомайская улица,167000,61.6727194,50.8256062
26/2,Печорская улица,167005,61.6866535,50.8130585
34/1,Печорская улица,167005,61.6875017,50.8140769
34/14,Печорская улица,167005,61.6869460,50.8140305
4/1,Печорская улица,167005,61.6862632,50.8196326
7А,улица Пушкина,167000,61.6685502,50.8474032
20/1,Советская улица,167000,61.6700339,50.8377684
38/1,Советская улица,167000,61.6671315,50.8429701
38,Советская улица,167000,61.6668895,50.8425054
144/4,Станционная улица,167002,61.6434853,50.8124993
55/2,улица Старовского,167016,61.6638425,50.8048788
55/4,улица Старовского,167016,61.6639447,50.8053830
11/1,Тентюковская улица,167011,61.6823267,50.8314015
267,Тентюковская улица,167005,61.6944784,50.8226102
507,Тентюковская улица,167014,61.7122099,50.8062309
5,Тентюковская улица,167011,61.6816234,50.8312322
302,Тентюковская улица,167005,61.7011934,50.8118032
106А,улица Энгельса,167031,61.6839594,50.8200490
138,улица Энгельса,167031,61.6795889,50.8243952
26/1,улица Юхнина,167000,61.6702936,50.8165939
9,Южная улица,167004,61.6604934,50.8364520
226А,улица Карла Маркса,167001,61.6607078,50.8221260
222/1,улица Карла Маркса,167000,61.6625782,50.8236408
20А,улица Кутузова,167011,61.6800928,50.8316408
34,улица Кутузова,167011,61.6806210,50.8314673
50,Интернациональная улица,167000,61.6765192,50.8247142
50,улица Клары Цеткин,167031,61.6781046,50.8211395
15,улица Водопьянова,167031,61.6808561,50.8189895
66/6,Печорская улица,167000,61.6876025,50.7919730
66/5,Печорская улица,167000,61.6874021,50.7919299
66/4,Печорская улица,167000,61.6872157,50.7912150
66/2,Печорская улица,167000,61.6870398,50.7921690
66/1,Печорская улица,167000,61.6865965,50.7925224
64/7,Печорская улица,167000,61.6859288,50.7933879
64/1,Печорская улица,167000,61.6853712,50.7935979
64,Печорская улица,167000,61.6852669,50.7942944
62/2,Печорская улица,167000,61.6858893,50.7944569
68/10,Печорская улица,167000,61.6852172,50.7910292
68/7,Печорская улица,167000,61.6861627,50.7914661
68/8,Печорская улица,167000,61.6863604,50.7912167
67/7,Печорская улица,167000,61.6839850,50.7917401
67/8,Печорская улица,167000,61.6840804,50.7923093
67/11,Печорская улица,167000,61.6843621,50.7925816
67/12,Печорская улица,167000,61.6844102,50.7931292
67/13,Печорская улица,167000,61.6844813,50.7936132
67/14,Печорская улица,167000,61.6848615,50.7936809
67/15,Печорская улица,167000,61.6845936,50.7943195
69/1,Печорская улица,167000,61.6825047,50.7950262
4,Печорский переулок,167000,61.6844313,50.7959445
6,Печорский переулок,167000,61.6842472,50.7961599
5,Печорский переулок,167000,61.6841687,50.7969456
8,"Печорский пер., 8",167000,61.6839525,50.7964628
10,Печорский переулок,167000,61.6837450,50.7966831
14/1,Печорский переулок,167000,61.6830794,50.7963339
123/15 к1,Октябрьский проспект,167031,61.6824576,50.8063406
125/3,Октябрьский проспект,167031,61.6825408,50.8074216
123/15,Октябрьский проспект,167031,61.6820875,50.8071557
50/14,улица Чкалова,167000,61.6802381,50.8038021
50/10,улица Чкалова,167000,61.6797572,50.8040462
50/11,улица Чкалова,167000,61.6797773,50.8042771
50/12,улица Чкалова,167000,61.6798469,50.8045484
50/13,улица Чкалова,167000,61.6800651,50.8049650
50/17,улица Чкалова,167000,61.6801623,50.8055981
50/9,улица Чкалова,167000,61.6798326,50.8057096
50/15,улица Чкалова,167000,61.6795534,50.8058185
50/7,улица Чкалова,167000,61.6790325,50.8041188
8/2,улица 28-й Невельской Дивизии,167031,61.6747328,50.8061070
100/1,улица Красных Партизан,167031,61.6740572,50.8075772
104,улица Красных Партизан,167031,61.6754814,50.8059844
45,улица Чкалова,167000,61.6770315,50.8056787
333,Тентюковская улица,167005,61.6973250,50.8190324
68,улица Громова,167031,61.6832219,50.8123832
10/22,2-я Промышленная улица,167000,61.7352121,50.7662217
11/1,улица Крупской,167011,61.6818423,50.8318371
149,улица Морозова,167002,61.6428363,50.8035747
165,улица Морозова,167002,61.6409301,50.8052222
56,улица Димитрова,167023,61.6569042,50.7970437
40/2,Петрозаводская улица,167005,61.6945573,50.8148111
44/1,Петрозаводская улица,167005,61.6950473,50.8146933
10/1,улица Малышева,167005,61.6918603,50.8169929
8,улица Малышева,167005,61.6917115,50.8185570
121,улица Пушкина,167004,61.6511776,50.8262695
4/4,Гаражная улица,167000,61.6550924,50.8191758
6/3,Гаражная улица,167000,61.6541768,50.8217554
29/10,Сысольское шоссе,167000,61.6452071,50.8249504
30/1,Южная улица,167000,61.6579470,50.8438599
13/1,Сысольское шоссе,167000,61.6563365,50.8368047
103,улица Морозова,167023,61.6528381,50.7962826
105,улица Морозова,167023,61.6522829,50.7965552
173/1,улица Морозова,167002,61.6408867,50.8098619
88,Коммунистическая улица,167023,61.6590965,50.7945922
210,улица Карла Маркса,167000,61.6678282,50.8229264
58,улица Домны Каликовой,167004,61.6589563,50.8372521
60,улица Домны Каликовой,167004,61.6581968,50.8368289
106/1,местечко Дырнос,167000,61.6807174,50.7904062
69,Печорская улица,167000,61.6818311,50.7933412
67/17,Печорская улица,167000,61.6837649,50.7937618
67,Печорская улица,167000,61.6833187,50.7932153
71,Печорская улица,167000,61.6805947,50.7943273
218,Октябрьский проспект,167005,61.7052166,50.8059901
330,Тентюковская улица,167005,61.7063159,50.8073307
220,Октябрьский проспект,167005,61.7060938,50.8052605
222,Октябрьский проспект,167005,61.7059165,50.8032515
25,Октябрьский проспект,167004,61.6590575,50.8248974
25/4,Гаражная улица,167004,61.6564217,50.8287909
93,Восточная улица,167981,61.6893648,50.8267024
13,улица Кутузова,167011,61.6792449,50.8304294
38,улица Ленина,167000,61.6729482,50.8320038
115,Интернациональная улица,167000,61.6719818,50.8292552
28/1,Советская улица,167000,61.6685906,50.8393890
14,Колхозная улица,167000,61.6623376,50.8476129
1,Интернациональный переулок,167000,61.6623771,50.8466251
222,Интернациональная улица,167000,61.6610025,50.8446686
208,Октябрьский проспект,167005,61.7021502,50.8057216
224,Интернациональная улица,167000,61.6607677,50.8456366
223,улица Карла Маркса,167000,61.6687961,50.8231443
5,Огородная улица,167031,61.6841918,50.8086121
1/1,улица Папанина,167031,61.6838439,50.8104680
9/2,Огородная улица,167031,61.6800207,50.8119175
6/2,Огородная улица,167031,61.6798900,50.8102333
70,улица Громова,167031,61.6836226,50.8121683
172/1,улица Карла Маркса,167031,61.6763871,50.8187731
9,улица Жакова,167002,61.6388344,50.8083042
365,Тентюковская улица,167005,61.6993135,50.8189548
361,Тентюковская улица,167005,61.6988907,50.8195398
373,Тентюковская улица,167005,61.7006735,50.8179054
377,Тентюковская улица,167005,61.7010296,50.8175370
375,Тентюковская улица,167005,61.7008082,50.8177628
36/1,Советская улица,167000,61.6673730,50.8423857
13,Солнечная 2-й проезд,​168220,61.6377938,50.7801900
12,Солнечная 5-й проезд,​168220,61.6374548,50.7837706
2,улица Сергея Худяева,168220,61.6372281,50.7764873
14,Солнечная 4-й проезд,​168220,61.6375550,50.7820207
13,Солнечная 5-й проезд,​168220,61.6375046,50.7830840
15,Уездная улица,167000,61.6368021,50.8007171
13,Уездная улица,167000,61.6370012,50.8005586
11,Уездная улица,167000,61.6372319,50.8003655
5,Уездная улица,167000,61.6378740,50.7998781
7,Уездная улица,167000,61.6376472,50.8000517
3,Уездная улица,167000,61.6380764,50.7996888
4,Сыктывдинская улица,167000,61.6384143,50.8002341
11,Сыктывдинская улица,167000,61.6384487,50.8009019
13,Сыктывдинская улица,167000,61.6382435,50.8010977
15,Сыктывдинская улица,167000,61.6380142,50.8012990
17,Сыктывдинская улица,167000,61.6377275,50.8016047
19,Сыктывдинская улица,167000,61.6373990,50.8018153
21,Сыктывдинская улица,167000,61.6371605,50.8020258
23,Сыктывдинская улица,167000,61.6369630,50.8021625
18,Сыктывдинская улица,167000,61.6368330,50.8015698
16,Сыктывдинская улица,167000,61.6370534,50.8013499
14,Сыктывдинская улица,167000,61.6372700,50.8011943
12,Сыктывдинская улица,167000,61.6375058,50.8009529
10,Сыктывдинская улица,167000,61.6377084,50.8008322
8,Сыктывдинская улица,167000,61.6379237,50.8006149
6,Сыктывдинская улица,167000,61.6381408,50.8004454
30,Печорская улица,167005,61.6870381,50.8107893
7,улица Малышева,167005,61.6897307,50.8200704
24,улица Малышева,167005,61.6906964,50.8092046
18,улица Малышева,167005,61.6909725,50.8103037
14/2,улица Малышева,167005,61.6924039,50.8148688
19,улица Малышева,167005,61.6899717,50.8141629
42/4,Колхозная улица,167000,61.6507731,50.8376057
3,проезд Геологов,167000,61.7174482,50.7988991
8,проезд Геологов,167000,61.7175852,50.7982205
1/2,проезд Геологов,167000,61.7169009,50.7977244
1/1,проезд Геологов,167000,61.7167497,50.7978308
1/3,проезд Геологов,167000,61.7170475,50.7976294
148,Тентюковская улица,167014,61.7105409,50.8064685
154,Тентюковская улица,167014,61.7107100,50.8084416
146,Тентюковская улица,167014,61.7107500,50.8066283
176,Тентюковская улица,167014,61.7126078,50.8045886
475,Тентюковская улица,167014,61.7119228,50.8070558
469,Тентюковская улица,167014,61.7110516,50.8081542
499,Тентюковская улица,167014,61.7124508,50.8085861
463,Тентюковская улица,167014,61.7110119,50.8052991
511,Тентюковская улица,167014,61.7114128,50.8045709
517,Тентюковская улица,167014,61.7121968,50.8043270
515,Тентюковская улица,167014,61.7119451,50.8043337
513,Тентюковская улица,167014,61.7116884,50.8042764
519,Тентюковская улица,167014,61.7123399,50.8034934
523,Тентюковская улица,167014,61.7125855,50.8029746
525,Тентюковская улица,167014,61.7128062,50.8027749
166/1,Тентюковская улица,167014,61.7116770,50.8062130
6,Дальняя улица,167016,61.6703196,50.7947652
2/1,улица Катаева,167001,61.6669174,50.8102382
50/3,улица Орджоникидзе,167031,61.6721706,50.8195559
192/2,улица Карла Маркса,167000,61.6729980,50.8197667
192/1,улица Карла Маркса,167000,61.6728851,50.8199635
194/1,улица Карла Маркса,167000,61.6727115,50.8198407
87,улица Морозова,167023,61.6534520,50.7964956
127/6,улица Морозова,167002,61.6442393,50.7999944
5,улица Жакова,167002,61.6392144,50.8091517
10/3,2-я Промышленная улица,167000,61.7328011,50.7603251
15,1-я Промышленная улица,167000,61.7297243,50.7701562
79,1-я Промышленная улица,167000,61.7252091,50.7649377
36/5,2-я Промышленная улица,167000,61.7369858,50.7636967
13,местечко Койты,167026,61.8372092,50.6965777
74,Ухтинское шоссе,167026,61.8323507,50.7199131
125,Ухтинское шоссе,168200,61.8621316,50.6906348
4,проспект Бумажников,167026,61.8128690,50.7344890
4/10,проспект Бумажников,167026,61.8138873,50.7327392
320 к4,Тентюковская улица,167005,61.7032962,50.8067518
13,1-я Промышленная улица,167000,61.7298902,50.7715250
207/1,улица Морозова,167002,61.6389923,50.8115355
40,улица Папанина,167031,61.6806307,50.8129163
10,Кирпичная улица,167016,61.6674082,50.8073033
38/1,улица Папанина,167031,61.6811625,50.8123916
40 к1,улица Папанина,167031,61.6804056,50.8118730
113/1,Тентюковская улица,167005,61.6979276,50.8130096
124/1,Тентюковская улица,167005,61.7003858,50.8133533
98,Интернациональная улица,167000,61.6712660,50.8281813
168/1,Октябрьский проспект,167005,61.6922514,50.8073098
4/11,Печорская,167005,61.6868282,50.8200228
4/7,Печорская улица,167005,61.6864863,50.8176056
131,улица Карла Маркса,167031,61.6804255,50.8180328
120/1,улица Энгельса,167031,61.6821556,50.8216439
8/3,Огородная улица,167031,61.6799056,50.8107301
29,Первомайская улица,167000,61.6730642,50.8254931
61,улица Клары Цеткин,167000,61.6768139,50.8226162
50/12,улица Орджоникидзе,167000,61.6732543,50.8187429
30/3,Печорская улица,167005,61.6865164,50.8122564
26/3,Печорская улица,167005,61.6866632,50.8127217
72/2,Коммунистическая улица,167023,61.6605225,50.7984803
37А,улица Катаева,167023,61.6645951,50.7984809
13,1-я Промышленная улица,167000,61.7300121,50.7712692
13,1-я Промышленная улица,167000,61.7299461,50.7717032
13,1-я Промышленная улица,167000,61.7299354,50.7714305
475,Тентюковская улица,167014,61.7115478,50.8073440
28/1,улица Оплеснина,167000,61.6702672,50.8148353
56/1,улица Орджоникидзе,167031,61.6719143,50.8146177
22,Карьерная улица,167016,61.6692943,50.7964838
9,Карьерный проезд,167016,61.6711105,50.8015870
73/4,улица Орджоникидзе,167016,61.6714007,50.8054611
83/1,улица Орджоникидзе,167016,61.6716447,50.8040522
210,Октябрьский проспект,167005,61.7025740,50.8053814
138,Тентюковская улица,167005,61.7004283,50.8157922
353/2,Тентюковская улица,167005,61.6994575,50.8168649
123/1,улица Морозова,167002,61.6444946,50.7997338
121/2,улица Морозова,167002,61.6457477,50.7985145
32/10,Лесопарковая улица,167002,61.6449366,50.7973391
30/6,Лесопарковая улица,167000,61.6442680,50.7904984
52,Сысольское шоссе,167004,61.6515488,50.8279284
89/1,улица Пушкина,167004,61.6548918,50.8266079
5/12,Сысольское шоссе,167000,61.6566744,50.8343850
7/10 ст2,Сысольское шоссе,167000,61.6555655,50.8333509
7/10,Сысольское шоссе,167000,61.6554859,50.8339935
23,Гаражная улица,167004,61.6558874,50.8273622
21,местечко Койты,167026,61.8456961,50.6883847
66,Ухтинское шоссе,167026,61.8273769,50.7356960
40,местечко Койты,167026,61.8464024,50.6939904
1,ул. Мелиораторов,167000,61.7227039,50.7521144
91/1,местечко Дырнос,167000,61.6752367,50.7743958
94,Первомайская улица,167000,61.6630205,50.8336455
55А,Октябрьский проспект,167001,61.6656024,50.8115491
6/4,Лесопарковая улица,167000,61.6565377,50.7862858
3,улица Морозова,167023,61.6538637,50.7938286
50/6,местечко Дырнос,167000,61.6790307,50.7887849
50/7,местечко Дырнос,167000,61.6791512,50.7885029
106,местечко Дырнос,167000,61.6789072,50.7890385
48,Колхозная улица,167000,61.6445415,50.8327344
15/1,Лесозаводская улица,167009,61.6638698,50.8899324
15,Солнечная 4-й проезд,​168220,61.6376343,50.7808692
8,Солнечная 7-й проезд,​168220,61.6372929,50.7870800
7,Солнечная 7-й проезд,​168220,61.6373103,50.7865018
315,Тентюковская улица,167005,61.6972252,50.8215549
19,улица Малышева,167005,61.6899123,50.8148606
12/1,улица Малышева,167005,61.6913854,50.8134737
302/1,Тентюковская улица,167005,61.7013752,50.8114343
212,улица Карла Маркса,167000,61.6672190,50.8226547
48,Первомайская улица,167000,61.6718500,50.8245731
50,Первомайская улица,167000,61.6715428,50.8245747
54,Первомайская улица,167000,61.6708698,50.8242088
213,улица Карла Маркса,167000,61.6707302,50.8220310
31,улица Бабушкина,167000,61.6692405,50.8276479
108,Интернациональная улица,167000,61.6693139,50.8292721
108А,Интернациональная улица,167000,61.6691645,50.8286284
33/45,улица Орджоникидзе,167000,61.6719349,50.8263802
31/1,улица Орджоникидзе,167000,61.6718825,50.8272092
92А,Интернациональная улица,167000,61.6718695,50.8275559
53,Первомайская улица,167000,61.6684262,50.8282625
126/1,Интернациональная улица,167000,61.6686125,50.8294917
126,Интернациональная улица,167000,61.6687082,50.8299540
135,Интернациональная улица,167000,61.6693228,50.8321380
133,Интернациональная улица,167000,61.6689801,50.8315190
83/1,Коммунистическая улица,167023,61.6576939,50.7961803
56 к1,улица Димитрова,167023,61.6571292,50.7977365
29,Южная улица,167000,61.6584917,50.8446984
38/6,Колхозная улица,167000,61.6565725,50.8421414
40/11,Колхозная улица,167000,61.6565599,50.8404714
73,улица Ленина,167000,61.6666086,50.8392524
1/11,Сысольское шоссе,167004,61.6595240,50.8359777
1/2,Сысольское шоссе,167004,61.6596526,50.8347819
9/1,Южная улица,167004,61.6605423,50.8373800
52,улица Домны Каликовой,167004,61.6606908,50.8376761
112/1,Первомайская улица,167004,61.6616259,50.8378892
112,Первомайская улица,167004,61.6617419,50.8382769
47,улица Пушкина,167000,61.6630761,50.8382495
3/5,Дырнос,167000,61.6734831,50.7889991
3,Дырнос,167000,61.6744676,50.7901121
1,Дырнос,167000,61.6743231,50.7917227
166,Октябрьский проспект,167005,61.6902113,50.8077990
164,Октябрьский проспект,167005,61.6888603,50.8092204
162,Октябрьский проспект,167005,61.6884893,50.8102113
162/3,Октябрьский проспект,167005,61.6880299,50.8103525
119А,Октябрьский проспект,167031,61.6775364,50.8075167
119/2,Октябрьский проспект,167031,61.6769501,50.8068712
14А,улица 28-й Невельской Дивизии,167031,61.6761442,50.8069168
27/1,улица 28-й Невельской Дивизии,167031,61.6753631,50.8074966
35/1,улица 28-й Невельской Дивизии,167031,61.6747487,50.8077232
33,улица 28-й Невельской Дивизии,167031,61.6744674,50.8071790
100,улица Красных Партизан,167031,61.6741455,50.8062721
67/19,Печорская улица,167000,61.6831026,50.7948975
62,Печорская улица,167000,61.6853049,50.7951253
62/1,Печорская улица,167000,61.6857246,50.7949966
64/4,Печорская улица,167000,61.6856629,50.7934393
64/2,Печорская улица,167000,61.6852298,50.7923835
64/3,Печорская улица,167000,61.6855156,50.7922475
66,Печорская улица,167000,61.6867651,50.7917856
66/7,Печорская улица,167000,61.6865244,50.7910443
68/5,Печорская улица,167000,61.6858766,50.7911006
67/9,Печорская улица,167000,61.6843956,50.7916281
7,улица Малышева,167005,61.6897175,50.8193672
197,Интернациональная улица,167000,61.6633577,50.8409925
100/1,улица Ленина,167000,61.6641603,50.8413526
23,улица Пушкина,167000,61.6657345,50.8431609
16,Печорская улица,167005,61.6848559,50.8147914
20,Печорская улица,167005,61.6848933,50.8134122
4/2,Печорская улица,167005,61.6865119,50.8190018
34,Печорская улица,167005,61.6871721,50.8135490
100,улица Карла Маркса,167031,61.6842167,50.8124455
51,улица Громова,167031,61.6836482,50.8164065
145/2,улица Карла Маркса,167031,61.6814368,50.8183181
5,улица Оплеснина,167000,61.6699464,50.8230078
7,улица Оплеснина,167000,61.6697038,50.8223624
227А,улица Карла Маркса,167000,61.6680573,50.8247334
227/4,улица Карла Маркса,167000,61.6677320,50.8249995
70,Первомайская улица,167000,61.6674399,50.8256830
229,улица Карла Маркса,167000,61.6672359,50.8248298
70А,Первомайская улица,167000,61.6680271,50.8261031
32,улица Чкалова,167031,61.6787289,50.8111621
457,Тентюковская улица,167014,61.7109819,50.8094373
38,Петрозаводская улица,167005,61.6938111,50.8179118
21,Коммунистическая улица,167000,61.6652421,50.8243300
78,Первомайская улица,167000,61.6647983,50.8300431
81,Тентюковская улица,167005,61.6945472,50.8201749
165/4,улица Морозова,167002,61.6407928,50.8020507
165/5,улица Морозова,167002,61.6411163,50.8018509
73/6,улица Куратова,167000,61.6623619,50.8319864
86,Первомайская улица,167000,61.6635285,50.8325766
86/2,Первомайская улица,167000,61.6635540,50.8320669
77/1,улица Куратова,167000,61.6631821,50.8310848
77/2,улица Куратова,167000,61.6631402,50.8305679
88/1,Коммунистическая улица,167023,61.6588591,50.7935823
92,Коммунистическая улица,167023,61.6594208,50.7937594
25/1,улица Морозова,167023,61.6607653,50.7936554
43,улица Морозова,167023,61.6636125,50.7899738
48,Коммунистическая улица,167001,61.6625160,50.8080692
48А,Коммунистическая улица,167001,61.6624224,50.8065792
46,Коммунистическая улица,167001,61.6631544,50.8106071
53,Октябрьский проспект,167001,61.6641839,50.8142824
55/2,Октябрьский проспект,167001,61.6654105,50.8117664
55/1,Октябрьский проспект,167001,61.6652315,50.8117295
55,улица Старовского,167016,61.6633832,50.8039484
51,улица Старовского,167016,61.6638785,50.8039226
29,улица Катаева,167016,61.6650183,50.8040448
9,улица Катаева,167016,61.6660904,50.8090275
27/1,Петрозаводская улица,167005,61.6942459,50.8036836
40,Дырнос,167016,61.6755306,50.7880427
175/1,улица Морозова,167002,61.6406164,50.8071089
181,улица Морозова,167002,61.6405649,50.8063703
207,улица Морозова,167002,61.6390560,50.8130003
8,улица Димитрова,167001,61.6603888,50.8143421
14,улица Димитрова,167001,61.6599370,50.8113569
8А,Печорская улица,167005,61.6856393,50.8184301
41,Коммунистическая улица,167001,61.6621165,50.8104390
43,Коммунистическая улица,167001,61.6614431,50.8094059
39,Коммунистическая улица,167001,61.6620738,50.8121072
37,Коммунистическая улица,167001,61.6622402,50.8128082
35,Коммунистическая улица,167001,61.6624067,50.8135083
40,Октябрьский проспект,167001,61.6644919,50.8162733
40,улица Орджоникидзе,167000,61.6725700,50.8241490
32,Первомайская улица,167000,61.6732435,50.8234956
36,Первомайская улица,167000,61.6742753,50.8234231
58,Интернациональная улица,167000,61.6758281,50.8257018
15,Первомайская улица,167000,61.6754303,50.8250547
95,Интернациональная улица,167000,61.6743522,50.8288927
44,улица Красных Партизан,167000,61.6756775,50.8295155
85,Интернациональная улица,167000,61.6753939,50.8276990
27,улица Громова,167000,61.6839627,50.8226106
16,Депутатский переулок,167011,61.6835490,50.8221082
39,улица Громова,167031,61.6843470,50.8188350
4,улица Водопьянова,167031,61.6822782,50.8209988
35/1,Восточная улица,167011,61.6810438,50.8243401
4,Петрозаводская улица,167000,61.6855070,50.8246888
11,Первомайская улица,167000,61.6759141,50.8246848
185,улица Карла Маркса,167031,61.6763843,50.8207773
183,улица Карла Маркса,167031,61.6768094,50.8201907
23/1,улица Чкалова,167031,61.6779256,50.8142562
119,улица Карла Маркса,167031,61.6821415,50.8162777
22,улица Старовского,167016,61.6645339,50.8018107
31,улица Лыткина,167005,61.6931802,50.8140451
16,Покровский бульвар,167005,61.6962850,50.8077191
167,улица Морозова,167002,61.6420121,50.8062877
169,улица Морозова,167002,61.6417576,50.8070704
90,Первомайская улица,167000,61.6638372,50.8326861
80,Первомайская улица,167000,61.6645934,50.8313016
40А,улица Куратова,167000,61.6651973,50.8329284
158,Интернациональная улица,167000,61.6662565,50.8331718
152,Интернациональная улица,167000,61.6666333,50.8323981
75А,улица Ленина,167000,61.6667281,50.8399472
17,улица Куратова,167000,61.6672237,50.8404359
34,Советская улица,167000,61.6675648,50.8417316
50,Советская улица,167000,61.6669048,50.8434271
22,улица Пушкина,167000,61.6661369,50.8418851
20/1,улица Пушкина,167000,61.6665950,50.8416984
15,улица Куратова,167000,61.6680329,50.8428128
4,улица Куратова,167000,61.6682858,50.8420795
7,Коммунистическая улица,167000,61.6693483,50.8408758
5,Коммунистическая улица,167000,61.6697599,50.8411902
3,Коммунистическая улица,167000,61.6698528,50.8417438
18,улица Куратова,167000,61.6674730,50.8390115
28/2,Советская улица,167000,61.6686542,50.8390447
6,улица Куратова,167000,61.6677548,50.8400020
24,Советская улица,167000,61.6692373,50.8393707
59,улица Ленина,167000,61.6690488,50.8389538
74,улица Ленина,167000,61.6668435,50.8368378
157,Интернациональная улица,167000,61.6668377,50.8337472
13,улица Горького,167000,61.6746088,50.8355054
20,улица Горького,167000,61.6750909,50.8353494
23А,улица Ленина,167000,61.6745802,50.8335603
21,улица Ленина,167000,61.6751490,50.8327265
12,Интернациональная улица,167011,61.6803401,50.8281157
36,улица Кутузова,167011,61.6804489,50.8300074
1,Тентюковская улица,167011,61.6812267,50.8308100
18,улица Кутузова,167011,61.6801493,50.8325872
16,улица Кутузова,167011,61.6802002,50.8335251
18/1,улица Кутузова,167011,61.6805522,50.8328662
3,улица Крупской,167011,61.6819540,50.8325995
11/2,Тентюковская улица,167011,61.6823082,50.8315319
11/3,Тентюковская улица,167011,61.6822896,50.8316632
11/4,Тентюковская улица,167011,61.6822688,50.8317946
15А,Тентюковская улица,167011,61.6826539,50.8322942
50,улица Чкалова,167000,61.6778720,50.8053217
50/11,улица Чкалова,167000,61.6782089,50.8049594
6,улица 28-й Невельской Дивизии,167000,61.6773873,50.8053222
50/5,улица Чкалова,167000,61.6788701,50.8048772
50/8,улица Чкалова,167000,61.6792840,50.8047112
37,Сысольское шоссе,167000,61.6406006,50.8179998
33,Сысольское шоссе,167000,61.6409985,50.8202804
29,Сысольское шоссе,167000,61.6436347,50.8233806
29/4,Сысольское шоссе,167000,61.6427532,50.8216352
29/7,Сысольское шоссе,167000,61.6429956,50.8214153
29/1,Сысольское шоссе,167000,61.6437217,50.8253366
29/14,Сысольское шоссе,167000,61.6443125,50.8263279
29/12,Сысольское шоссе,167000,61.6450458,50.8271180
25/1,Сысольское шоссе,167000,61.6476518,50.8274589
27/12,Сысольское шоссе,167004,61.6467427,50.8306118
25,Сысольское шоссе,167004,61.6474236,50.8289305
24,улица Маркова,167004,61.6471272,50.8326892
20,улица Маркова,167004,61.6481960,50.8284262
66,Сысольское шоссе,167000,61.6479767,50.8255777
64,Сысольское шоссе,167000,61.6485112,50.8260436
68,Сысольское шоссе,167004,61.6472914,50.8251673
135/8,улица Пушкина,167004,61.6465583,50.8219711
74,Сысольское шоссе,167004,61.6441063,50.8203314
145,улица Пушкина,167004,61.6440832,50.8194661
7,Гаражная улица,167000,61.6576517,50.8171954
7/2,Гаражная улица,167000,61.6576923,50.8188303
9/5а,Гаражная улица,167000,61.6577705,50.8202269
9/2,Гаражная улица,167000,61.6572503,50.8217930
11,Гаражная улица,167000,61.6572991,50.8233473
31,Пермская улица,167009,61.6431498,50.8754809
35,Пермская улица,167009,61.6430308,50.8748254
29,Набережная улица,167009,61.6399464,50.8752080
10,Набережная улица,167009,61.6370318,50.8706955
216,Октябрьский проспект,167005,61.7049954,50.8040699
328,Тентюковская улица,167005,61.7054120,50.8080942
4,Коммунистическая улица,167000,61.6698917,50.8398588
25,Советская улица,167000,61.6703604,50.8389940
38/1,улица Кирова,167000,61.6704085,50.8406607
38/3,улица Кирова,167000,61.6708548,50.8399511
38/4,улица Кирова,167000,61.6706648,50.8403656
38/2,улица Кирова,167000,61.6709679,50.8402807
5,улица Бабушкина,167000,61.6711760,50.8392521
38,улица Кирова,167000,61.6710511,50.8409357
21,Советская улица,167000,61.6707528,50.8387224
40,улица Кирова,167000,61.6703154,50.8416033
4,Гаражная улица,167000,61.6558209,50.8151088
4/10,Гаражная улица,167000,61.6557419,50.8166201
2,Гаражная улица,167000,61.6561233,50.8120086
176,улица Морозова,167002,61.6418127,50.8101456
135,улица Пушкина,167004,61.6478647,50.8224805
135/6,улица Пушкина,167004,61.6477832,50.8240339
130,улица Пушкина,167004,61.6484269,50.8207851
32/3,Лесопарковая улица,167000,61.6418523,50.7926370
36/1,Лесопарковая улица,167000,61.6432360,50.7966610
156,улица Морозова,167002,61.6443075,50.8042807
1/3,Сысольское шоссе,167000,61.6585649,50.8346721
50/4,улица Орджоникидзе,167031,61.6723688,50.8194951
192,улица Карла Маркса,167031,61.6727826,50.8201976
182,улица Карла Маркса,167000,61.6741859,50.8195021
1,Нагорный проезд,167031,61.6722617,50.8155954
525/1,Тентюковская улица,167014,61.7128789,50.8024070
521,Тентюковская улица,167014,61.7124120,50.8030880
51,Октябрьский проспект,167001,61.6631119,50.8154598
33,Коммунистическая улица,167001,61.6631766,50.8143716
43/1,Октябрьский проспект,167001,61.6619588,50.8171589
32,улица Орджоникидзе,167000,61.6725109,50.8273764
100,Интернациональная улица,167000,61.6741826,50.8274927
78,Интернациональная улица,167000,61.6738794,50.8267224
33,улица Красных Партизан,167000,61.6745414,50.8263941
111,Интернациональная улица,167000,61.6730654,50.8292287
70,улица Красных Партизан,167031,61.6745640,50.8129433
42/3,Колхозная улица,167000,61.6514457,50.8386848
109,улица Морозова,167023,61.6512277,50.7972161
2/1,улица 28-й Невельской Дивизии,167016,61.6695613,50.8060986
54/1,улица Оплеснина,167016,61.6692623,50.8062525
54А,улица Оплеснина,167016,61.6690361,50.8062009
35,улица Оплеснина,167016,61.6685028,50.8068231
4,Кирпичная улица,167016,61.6680668,50.8067224
6/1,Кирпичная улица,167016,61.6675802,50.8073795
60,Сысольское шоссе,167004,61.6500154,50.8273629
60/2,Сысольское шоссе,167004,61.6500053,50.8261607
129А,улица Пушкина,167004,61.6502300,50.8244847
4,проезд Геологов,167000,61.7178035,50.7986616
36,улица Ленина,167000,61.6732778,50.8321648
38,Октябрьский проспект,167001,61.6636449,50.8172535
31/1,Коммунистическая улица,167001,61.6638684,50.8172199
29,Коммунистическая улица,167001,61.6636885,50.8189433
31,Коммунистическая улица,167001,61.6641475,50.8182458
36,Октябрьский проспект,167001,61.6632901,50.8176404
18/1,Октябрьский проспект,167001,61.6611894,50.8199580
80,улица Клары Цеткин,167000,61.6740238,50.8217762
11/1,Октябрьский проспект,167004,61.6587621,50.8283539
3,Гаражный проезд,167004,61.6580860,50.8262610
8,Гаражный проезд,167004,61.6577157,50.8267649
5,Октябрьский проспект,167004,61.6585956,50.8289179
95А,улица Куратова,167000,61.6602364,50.8270848
56,Лесопарковая улица,167000,61.6382170,50.8025315
60,Лесопарковая улица,167000,61.6370722,50.8033419
1,Вороншорский проезд,167004,61.6589472,50.8245917
2/1,Вороншорский проезд,167004,61.6585709,50.8248621
27,Октябрьский проспект,167004,61.6589914,50.8240998
6,Вороншорский проезд,167004,61.6583730,50.8264143
29/4,Октябрьский проспект,167004,61.6578457,50.8243348
45/2,Сысольское шоссе,167000,61.6385623,50.8157562
115,улица Морозова,167023,61.6477419,50.7990429
175,улица Морозова,167002,61.6400704,50.8092635
128,Станционная улица,167002,61.6448279,50.8142814
90,Сысольское шоссе,167000,61.6418686,50.8168380
14,Западная улица,167000,61.6601256,50.8291123
92,улица Пушкина,167000,61.6599072,50.8295200
96,улица Пушкина,167000,61.6591572,50.8284551
75,улица Пушкина,167000,61.6593340,50.8295643
11,Депутатская улица,167011,61.6832050,50.8237207
15,Депутатский переулок,167011,61.6832948,50.8233654
111,улица Энгельса,167011,61.6833846,50.8214306
1/4,Сысольское шоссе,167000,61.6586293,50.8333590
3/6,Сысольское шоссе,167000,61.6577603,50.8340510
3/5,Сысольское шоссе,167000,61.6575231,50.8345182
5/11,Сысольское шоссе,167000,61.6569334,50.8344812
5/14,Сысольское шоссе,167000,61.6565934,50.8351887
62,улица Домны Каликовой,167000,61.6574875,50.8364007
7/6,Сысольское шоссе,167000,61.6563450,50.8333926
7/3,Сысольское шоссе,167000,61.6561748,50.8319314
53,Коммунистическая улица,167001,61.6612676,50.8063502
47,Коммунистическая улица,167001,61.6612080,50.8078139
45,Коммунистическая улица,167001,61.6613816,50.8085700
51,Коммунистическая улица,167001,61.6600654,50.8077724
46/1,улица Димитрова,167023,61.6564762,50.8016535
44/4,улица Димитрова,167023,61.6566311,50.8013101
12,улица Морозова,167023,61.6548947,50.7968611
16,1-я Промышленная улица,167000,61.7316877,50.7679660
8,1-я Промышленная улица,167000,61.7322396,50.7706590
28,4-я Промышленная улица,167000,61.7314071,50.7506632
36,2-я Промышленная улица,167000,61.7367582,50.7642587
10/30,2-я Промышленная улица,167000,61.7357410,50.7675443
10/16,2-я Промышленная улица,167000,61.7346856,50.7647174
10,2-я Промышленная улица,167000,61.7320972,50.7631482
127,Тентюковская улица,167005,61.6995366,50.8120503
19,Коммунистическая улица,167000,61.6667950,50.8299102
85,Первомайская улица,167000,61.6657206,50.8313766
90,Интернациональная улица,167000,61.6722555,50.8283087
119,Интернациональная улица,167000,61.6715445,50.8294442
106,Интернациональная улица,167000,61.6705986,50.8286450
20/1,улица Бабушкина,167000,61.6710398,50.8323672
48,улица Ленина,167000,61.6719919,50.8321470
48/1,улица Ленина,167000,61.6715627,50.8320885
43,улица Ленина,167000,61.6710878,50.8342763
39,улица Ленина,167000,61.6721461,50.8346047
8,Советская улица,167000,61.6726741,50.8363929
8/1,Советская улица,167000,61.6724272,50.8363548
20,Колхозная улица,167000,61.6607077,50.8464031
131,Интернациональная улица,167000,61.6696049,50.8304913
23,улица Бабушкина,167000,61.6700786,50.8305674
21/2,улица Бабушкина,167000,61.6700981,50.8312172
21А,улица Бабушкина,167000,61.6697820,50.8317358
56,улица Ленина,167000,61.6695880,50.8330986
19,улица Бабушкина,167000,61.6704071,50.8330865
19/4,улица Бабушкина,167000,61.6697584,50.8326716
60,улица Ленина,167000,61.6693510,50.8341104
45,улица Ленина,167000,61.6705559,50.8344432
49,улица Ленина,167000,61.6701530,50.8347591
16,Советская улица,167000,61.6709067,50.8368943
18,Советская улица,167000,61.6705458,50.8378035
47/1,улица Ленина,167000,61.6705350,50.8369429
16/1,Советская улица,167000,61.6704939,50.8365512
18/2,Советская улица,167000,61.6702553,50.8375687
53,улица Ленина,167000,61.6699212,50.8366159
6,Коммунистическая улица,167000,61.6695026,50.8381146
2,Коммунистическая улица,167000,61.6700517,50.8407974
44/2,улица Димитрова,167023,61.6578127,50.8043366
44/3,улица Димитрова,167023,61.6576681,50.8047976
2,Интернациональный переулок,167000,61.6619317,50.8469614
44,улица Кирова,167000,61.6694788,50.8424562
25,улица Кирова,167000,61.6688803,50.8448880
3,улица Пушкина,167000,61.6686524,50.8482990
15,Южная улица,167000,61.6598038,50.8395578
200,Интернациональная улица,167000,61.6618116,50.8423513
221,Интернациональная улица,167000,61.6615743,50.8462906
21,Первомайская улица,167000,61.6744281,50.8252981
131/7,Октябрьский проспект,167000,61.6886771,50.8060081
36,Петрозаводская улица,167005,61.6943074,50.8171993
104,улица Пушкина,167000,61.6551024,50.8251557
112/9,улица Пушкина,167000,61.6547726,50.8241046
8/4,Гаражная улица,167000,61.6546356,50.8232151
112/10,улица Пушкина,167000,61.6548129,50.8237718
89/3,улица Пушкина,167000,61.6550074,50.8273915
7/12,Сысольское шоссе,167004,61.6547736,50.8319114
9,Сысольское шоссе,167004,61.6539240,50.8310357
11,Сысольское шоссе,167004,61.6531653,50.8310249
9,Гаражная улица,167000,61.6567996,50.8208573
25,Гаражная улица,167004,61.6559504,50.8290937
83,улица Пушкина,167000,61.6568975,50.8273586
31,Гаражная улица,167000,61.6557745,50.8306058
25 ст1,Гаражная улица,167000,61.6561423,50.8307467
29,Гаражная улица,167000,61.6564126,50.8307705
148,Октябрьский проспект,167031,61.6773668,50.8095984
13/4,Сысольское шоссе,167000,61.6563399,50.8373709
40/30,Колхозная улица,167000,61.6558355,50.8387993
40/29,Колхозная улица,167000,61.6562135,50.8399876
40/28,Колхозная улица,167000,61.6563498,50.8398396
46,улица Мичурина,167000,61.6573142,50.8385924
54,улица Мичурина,167000,61.6571033,50.8402622
36,улица Пушкина,167000,61.6637187,50.8374902
112/1,улица Морозова,167023,61.6515593,50.7994622
112,улица Морозова,167023,61.6510659,50.7996472
112/8,улица Морозова,167023,61.6515824,50.8006035
99,улица Морозова,167023,61.6540099,50.7959345
106/2,Тентюковская улица,167005,61.6900196,50.8239800
82,Тентюковская улица,167005,61.6896523,50.8249656
327,Тентюковская улица,167005,61.6978955,50.8169518
2,Крутая улица,167000,61.6770090,50.8251686
1/1,Гаражная улица,167000,61.6576707,50.8105894
61Б,улица Орджоникидзе,167000,61.6708216,50.8148379
59,улица Орджоникидзе,167031,61.6707129,50.8158460
100/1,Сысольское шоссе,167000,61.6409825,50.8154526
63/1,Сысольское шоссе,167000,61.6344847,50.8203096
142,улица Морозова,167002,61.6456435,50.8043898
320 к3,Тентюковская улица,167005,61.7034539,50.8089043
320 к2,Тентюковская улица,167005,61.7036571,50.8077713
320 к1,Тентюковская улица,167005,61.7042972,50.8082675
320,Тентюковская улица,167005,61.7041481,50.8065435
306,Тентюковская улица,167005,61.7025048,50.8095337
78,улица Ленина,167000,61.6662847,50.8384919
2,улица Катаева,167016,61.6664105,50.8070692
4,улица Катаева,167016,61.6667740,50.8072397
58А,улица Оплеснина,167016,61.6682854,50.7996027
58,улица Оплеснина,167016,61.6686087,50.8029965
1,Стандартный проезд,167016,61.6680061,50.8035981
10,улица Катаева,167016,61.6660292,50.8024346
18,улица Старовского,167016,61.6662988,50.8024575
14А,улица Катаева,167016,61.6656175,50.7996613
29,Парковая улица,167016,61.6659035,50.7993889
16,улица Катаева,167016,61.6654456,50.7986825
47,улица Морозова,167016,61.6678103,50.7927139
44/4,Колхозная улица,167000,61.6494784,50.8358845
77,улица Куратова,167000,61.6634297,50.8307389
25,Первомайская улица,167000,61.6737619,50.8256644
3,Советская улица,167000,61.6744367,50.8371120
8,улица Орджоникидзе,167000,61.6739048,50.8350877
55А,улица Старовского,167016,61.6634229,50.8054873
14,улица Катаева,167016,61.6663155,50.8009904
91,улица Куратова,167000,61.6601262,50.8259213
9,Советская улица,167000,61.6729139,50.8378141
18,Коммунистическая улица,167000,61.6680607,50.8296809
22,улица Бабушкина,167000,61.6707745,50.8307238
167,Интернациональная улица,167000,61.6660820,50.8353792
10,Коммунистическая улица,167000,61.6688447,50.8326639
3,Октябрьский проспект,167004,61.6583089,50.8304884
2,проспект Бумажников,167026,61.8232037,50.7273251
109/2,улица Морозова,167023,61.6516279,50.7971969
107,улица Морозова,167023,61.6515334,50.7967243
2,улица Морозова,167023,61.6590329,50.7929591
27/2,Петрозаводская улица,167005,61.6951235,50.8030190
50,Коммунистическая улица,167016,61.6620212,50.8043035
35/75,улица Свободы,167000,61.6763403,50.8267739
25,улица Свободы,167000,61.6767452,50.8296455
10,Покровский бульвар,167005,61.6969029,50.8112522
6,Покровский бульвар,167005,61.6974199,50.8132492
1,Покровский бульвар,167005,61.6968661,50.8138834
12,улица Маркова,167000,61.6490325,50.8237064
8,Коммунистическая улица,167000,61.6682788,50.8342991
2,проспект Бумажников,167026,61.8153690,50.7367067
125,Ухтинское шоссе,168200,61.8621316,50.6906348
12,Петрозаводская улица,167005,61.6873375,50.8236599
6,улица Малышева,167005,61.6907329,50.8178082
