House number,Street name,Postal code,Latitude,Longitude
52А,улица Ленина,169900,67.4998169,64.0646057
10Б,Тиманская улица,169907,67.5123347,64.0573300
6,Тиманская улица,169907,67.5105092,64.0617048
15,улица Мира,169900,67.4937641,64.0482622
11,улица Ломоносова,169900,67.4979979,64.0550870
10Б,Тиманская улица,169907,67.5122536,64.0572801
24,бульвар Пищевиков,169908,67.5026933,64.0720831
26,Ленинградская улица,169903,67.4987082,64.0390624
18А,бульвар Пищевиков,169900,67.5005360,64.0664398
18А,бульвар Пищевиков,169900,67.4999733,64.0661348
18,бульвар Пищевиков,169900,67.5007229,64.0676217
52А,улица Ленина,169900,67.4992808,64.0643220
50,улица Ленина,169900,67.4991090,64.0628200
15,улица Гагарина,169912,67.5052785,64.0491947
10,Локомотивная улица,169905,67.4737777,64.0254892
8,улица Чернова,169900,67.5078775,64.0559575
8,улица Ленина,169900,67.4913837,64.0441852
10,улица Ленина,169900,67.4916396,64.0449258
21,Московская улица,169900,67.4921555,64.0376113
11,улица Дончука,169906,67.5016061,64.0490986
16,улица Ленина,169900,67.4921791,64.0465381
18,улица Ленина,169900,67.4924337,64.0473083
12,улица Ленина,169900,67.4918874,64.0456341
43,бульвар Пищевиков,169900,67.5062870,64.0768975
6,Путейская улица,169908,67.5099658,64.0851389
10,улица Димитрова,169900,67.5081627,64.0517934
24,улица Ленина,169900,67.4931478,64.0493516
16А,Привокзальная улица,169905,67.4730293,64.0285047
4,улица Димитрова,169912,67.5062850,64.0490850
4/1,Сангородок,169907,67.5140356,64.0730682
25А,Привокзальная улица,169905,67.4740729,64.0264097
12,Московская улица,169900,67.4923189,64.0360127
6А,Московская улица,169900,67.4933396,64.0323974
9,улица Лермонтова,169915,67.5187705,64.0757740
6А,Тиманская улица,169907,67.5108779,64.0616015
2Б,улица Чернова,169900,67.5061639,64.0628974
7А,улица Лермонтова,169915,67.5181100,64.0762810
8Б,Московская улица,169900,67.4924082,64.0324658
6А,улица Гагарина,169900,67.5059147,64.0599989
14,Привокзальная улица,169905,67.4706860,64.0276542
12,улица Комарова,169915,67.5195623,64.0716405
7,улица Чернова,169900,67.5075043,64.0558300
5Б,улица Чернова,169900,67.5065673,64.0573392
11А,улица Лермонтова,169915,67.5191186,64.0735243
38,Привокзальная улица,169905,67.4777083,64.0337134
18,Привокзальная улица,169905,67.4718094,64.0289212
8А/2,улица Гагарина,169900,67.5058592,64.0570261
53Б,улица Ленина,169900,67.5068253,64.0650059
11,улица Горняков,169900,67.4935075,64.0294925
4Б,улица Чернова,169900,67.5063745,64.0599873
2,улица Чернова,169900,67.5076043,64.0636577
8А/1,улица Гагарина,169900,67.5057592,64.0588049
25А,Привокзальная улица,169905,67.4713059,64.0273015
6,улица Димитрова,169912,67.5071125,64.0495109
8А,улица Гагарина,169900,67.5060639,64.0580284
17,бульвар Пищевиков,169900,67.5004331,64.0688225
27,Московская улица,169900,67.4910781,64.0397844
11,улица Энгельса,169906,67.4966113,64.0668985
26,улица Некрасова,169915,67.5197854,64.0648086
9,улица Мира,169900,67.4930181,64.0503441
11,бульвар Пищевиков,169906,67.4952318,64.0642868
29А,улица Ленина,169906,67.4950770,64.0514716
53В,улица Ленина,169900,67.5071012,64.0642334
50,улица Ленина,169900,67.4990796,64.0631784
29,Московская улица,169900,67.4909378,64.0407230
6,улица Ленина,169900,67.4911625,64.0434597
4,улица Ленина,169900,67.4908742,64.0428000
2,улица Ленина,169900,67.4904084,64.0419754
31В,улица Ленина,169906,67.4955284,64.0521774
1,улица Маяковского,169906,67.4961797,64.0611909
20,Водопроводная улица,169915,67.5280158,64.0632862
19А,Врачебная улица,169915,67.5307702,64.0617501
48Б,улица Ленина,169900,67.4981134,64.0646350
27А,улица Матвеева,169905,67.4814807,64.0235579
32А,Привокзальная улица,169905,67.4743325,64.0318595
54,улица Ленина,169900,67.5001951,64.0637515
52Б,улица Ленина,169900,67.4994630,64.0658068
5,улица Мира,169900,67.4921294,64.0514581
48А,улица Ленина,169900,67.4982383,64.0664882
23А,бульвар Пищевиков,169900,67.5040413,64.0711319
15,бульвар Пищевиков,169900,67.4986175,64.0683075
27А,улица Ленина,169906,67.4951876,64.0501823
3,улица Маяковского,169906,67.4954882,64.0609510
17А,бульвар Пищевиков,169900,67.4992873,64.0670104
4,улица Маяковского,169906,67.4951491,64.0612363
6,бульвар Пищевиков,169900,67.4937287,64.0597399
4,улица Ломоносова,169900,67.4982112,64.0581752
4,улица Чернова,169900,67.5077884,64.0612709
15А,Привокзальная улица,169905,67.4712230,64.0250301
17Б,бульвар Пищевиков,169900,67.4995458,64.0685583
3В,Промышленной индустрии,169900,67.4988931,64.0766719
9,Привокзальная улица,169905,67.4683943,64.0193350
16,Привокзальная улица,169905,67.4716224,64.0268349
2,улица Маяковского,169906,67.4958416,64.0609999
1,площадь Мира,169900,67.4943715,64.0482472
50А,улица Ленина,169900,67.4987670,64.0647509
38А,улица Ленина,169900,67.4954164,64.0588676
5,улица Маяковского,169906,67.4948347,64.0597748
26,улица Ленина,169906,67.4935080,64.0513524
10,улица Лермонтова,169915,67.5193041,64.0780546
9,бульвар Пищевиков,169900,67.4944320,64.0627726
3А,бульвар Пищевиков,169900,67.4930863,64.0564677
12,бульвар Пищевиков,169906,67.4953910,64.0657391
11А,бульвар Пищевиков,169906,67.4953531,64.0632884
7А,бульвар Пищевиков,169900,67.4942914,64.0600782
16А,улица Ленина,169900,67.4920374,64.0490128
72А,улица Ленина,169900,67.5066340,64.0683496
4,Возейская улица,169900,67.5071672,64.0689093
31,улица Ленина,169906,67.4951626,64.0538784
29,улица Ленина,169906,67.4947356,64.0523524
8А,улица Мира,169900,67.4934467,64.0527480
17В,улица Мира,169900,67.4937871,64.0446455
6,улица Мира,169900,67.4929135,64.0525550
1,Привокзальная площадь,169905,67.4698663,64.0253516
22,Парковая улица,169900,67.4938422,64.0425727
31А,улица Ленина,169906,67.4954130,64.0533810
29,улица Матвеева,169905,67.4818694,64.0247192
6Б,улица Мира,169900,67.4934875,64.0537200
33А,улица Ленина,169906,67.4957603,64.0535806
6А,улица Мира,169900,67.4930983,64.0534834
62,улица Ленина,169900,67.5036858,64.0658280
3Б,бульвар Пищевиков,169900,67.4934344,64.0658041
68Б,улица Ленина,169900,67.5059771,64.0666158
6,улица Гагарина,169900,67.5049371,64.0597265
5А,улица Чернова,169900,67.5070705,64.0596608
12А,улица Гагарина,169912,67.5060627,64.0538030
10А,улица Гагарина,169912,67.5059622,64.0548072
19,бульвар Пищевиков,169900,67.5010867,64.0687717
6А,улица Дончука,169906,67.5008018,64.0556527
23,бульвар Пищевиков,169900,67.5038824,64.0702433
64Б,улица Ленина,169900,67.5048624,64.0695688
6,улица Дончука,169906,67.5004058,64.0550359
66В,улица Ленина,169900,67.5049635,64.0683874
68А,улица Ленина,169900,67.5060320,64.0686970
3,улица Чернова,169900,67.5069609,64.0617502
66А,улица Ленина,169900,67.5055256,64.0684352
5,Дорожная улица,169900,67.5013043,64.0389158
7,Дорожная улица,169900,67.5016811,64.0381852
8,Дорожная улица,169906,67.5017797,64.0361701
6,Дорожная улица,169906,67.5013299,64.0371646
3,Дорожная улица,169900,67.5010647,64.0397042
2А,улица Яновского,169906,67.5026552,64.0584082
9,улица Ломоносова,169900,67.4978551,64.0557366
48,улица Ленина,169900,67.4985066,64.0628799
13,улица Гагарина,169912,67.5051323,64.0512117
2А,улица Чернова,169900,67.5066253,64.0630716
33А,бульвар Пищевиков,169900,67.5049246,64.0709604
12,улица Горняков,169900,67.4929924,64.0295342
14,улица Горняков,169900,67.4931835,64.0300355
2,Парковая улица,169900,67.4908190,64.0332863
17,улица Пушкина,169900,67.4910403,64.0328506
21,бульвар Пищевиков,169900,67.5027561,64.0696773
32,Привокзальная улица,169905,67.4738616,64.0296451
21,Привокзальная улица,169905,67.4727565,64.0265072
27,улица Ленина,169906,67.4942919,64.0513677
30А,улица Ленина,169900,67.4936898,64.0550469
36Б,улица Ленина,169906,67.4946659,64.0588154
30Б,улица Ленина,169900,67.4937443,64.0566295
66Б,улица Ленина,169900,67.5050360,64.0673914
58В,улица Ленина,169900,67.5013277,64.0657859
60,улица Ленина,169900,67.5026027,64.0655379
56,улица Ленина,169900,67.5007414,64.0639956
20А,бульвар Пищевиков,169900,67.5017132,64.0675972
14,улица Ленина,169900,67.4917716,64.0467315
2А,улица Энгельса,169906,67.4964078,64.0621903
3А,улица Чернова,169900,67.5069800,64.0606471
58,Авиационная улица,169901,67.4902596,64.0044617
20,бульвар Пищевиков,169900,67.5017479,64.0697799
58Б,улица Ленина,169900,67.5018056,64.0661419
38,улица Ленина,169900,67.4960982,64.0583237
56А,улица Ленина,169900,67.5008518,64.0659144
8,Возейская улица,169900,67.5067695,64.0721810
35А,бульвар Пищевиков,169900,67.5051275,64.0740200
37,бульвар Пищевиков,169900,67.5055617,64.0757057
33,бульвар Пищевиков,169900,67.5053143,64.0724797
33В,бульвар Пищевиков,169900,67.5058327,64.0714084
24,бульвар Пищевиков,169908,67.5025178,64.0725494
18,бульвар Пищевиков,169900,67.5003410,64.0675397
12,улица Дончука,169906,67.5020116,64.0492063
8,улица Дончука,169906,67.5011042,64.0534755
54А,улица Ленина,169900,67.5003526,64.0652424
6,Тиманская улица,169907,67.5105489,64.0611915
60Б,улица Ленина,169900,67.5032412,64.0686141
11А,улица Димитрова,169912,67.5079561,64.0469738
13,улица Димитрова,169912,67.5085679,64.0478575
10Б,Шахтёрская набережная,169912,67.5074296,64.0420781
4,Шахтёрская набережная,169912,67.5051435,64.0428442
6,Шахтёрская набережная,169912,67.5055025,64.0414100
2,Шахтёрская набережная,169912,67.5047146,64.0444188
8А,улица Дончука,169906,67.5018841,64.0527443
10А,улица Дончука,169906,67.5026208,64.0494494
18А,бульвар Пищевиков,169900,67.5002573,64.0662579
62Б,улица Ленина,169900,67.5034407,64.0667611
12А,Шахтёрская набережная,169912,67.5085584,64.0424946
64А,улица Ленина,169900,67.5044320,64.0677740
41,бульвар Пищевиков,169900,67.5060555,64.0753546
7,улица Димитрова,169912,67.5066675,64.0479050
15/1,улица Димитрова,169912,67.5083771,64.0465106
64,улица Ленина,169900,67.5040452,64.0687348
58А,улица Ленина,169900,67.5022729,64.0667208
29,бульвар Пищевиков,169900,67.5039615,64.0720367
27,бульвар Пищевиков,169900,67.5033888,64.0710593
15,улица Горняков,169900,67.4938963,64.0307705
9,улица Чернова,169900,67.5073533,64.0543877
2,Ленинградская улица,169900,67.4943618,64.0330048
3А,улица Яновского,169906,67.5028521,64.0575655
8А,улица Чернова,169900,67.5070779,64.0574229
14,улица Дончука,169906,67.5023863,64.0437525
6Б,улица Гагарина,169900,67.5055684,64.0610970
23,Московская улица,169900,67.4917398,64.0384152
15А,улица Димитрова,169912,67.5090612,64.0466048
5А,Ленинградская улица,169900,67.4967188,64.0331433
15,Московская улица,169906,67.4929832,64.0355538
15/2,улица Димитрова,169912,67.5090981,64.0455312
18,улица Дончука,169906,67.5027324,64.0387936
10,улица Дончука,169906,67.5016500,64.0516850
7,улица Энгельса,169906,67.4967536,64.0650437
10,улица Энгельса,169906,67.4959829,64.0655835
68,улица Ленина,169900,67.5058893,64.0673001
52,улица Ленина,169900,67.4996163,64.0634913
5,улица Энгельса,169906,67.4968146,64.0640859
9,улица Энгельса,169906,67.4966809,64.0659525
57В,улица Ленина,169907,67.5120543,64.0657796
11,улица Димитрова,169912,67.5077005,64.0483793
5,улица Победы,169901,67.4913887,64.0362816
27А,Московская улица,169900,67.4912746,64.0404344
25,Московская улица,169900,67.4914337,64.0391492
20,Московская улица,169901,67.4908126,64.0391934
18,Московская улица,169901,67.4912158,64.0384926
11,улица Победы,169901,67.4908130,64.0376330
9,улица Победы,169901,67.4910093,64.0371868
7,улица Победы,169901,67.4912109,64.0367509
16,Московская улица,169901,67.4915265,64.0376918
4,улица Мира,169900,67.4924364,64.0535481
5А,Ленинградская улица,169900,67.4959161,64.0328851
17,Ленинградская улица,169903,67.4970388,64.0378130
9А,Стадионная улица,169903,67.4981339,64.0340075
8,Московская улица,169900,67.4930604,64.0342592
14,Московская улица,169901,67.4918631,64.0367373
5,улица Чернова,169900,67.5070910,64.0587028
32,улица Ленина,169906,67.4948828,64.0545625
32А,улица Ленина,169906,67.4945110,64.0552402
30,улица Ленина,169906,67.4943535,64.0540063
10А,улица Чернова,169900,67.5076431,64.0579951
5,Московская улица,169900,67.4937900,64.0337558
10,улица Ленина,169906,67.4949237,64.0633887
9А,бульвар Пищевиков,169900,67.4948466,64.0616900
36,улица Ленина,169906,67.4954991,64.0564363
11Б,улица Ленина,169900,67.4928820,64.0418308
36А,улица Ленина,169900,67.4951519,64.0570772
33Б,бульвар Пищевиков,169900,67.5053439,64.0711601
60А,улица Ленина,169900,67.5027592,64.0670239
28,улица Ленина,169906,67.4942432,64.0525981
52А,улица Ленина,169900,67.4995469,64.0645617
28А,улица Ленина,169906,67.4939317,64.0533746
12,улица Энгельса,169906,67.4959301,64.0664854
6,Возейская улица,169900,67.5064977,64.0703380
15/3,улица Димитрова,169912,67.5098355,64.0468790
1А,улица Мира,169906,67.4916158,64.0533658
10,Московская улица,169900,67.4926657,64.0351409
3,улица Мира,169906,67.4918852,64.0525781
4,Спортивный переулок,169903,67.4969311,64.0366417
8Б,улица Мира,169900,67.4930925,64.0546200
16А,улица Дончука,169900,67.5020689,64.0407821
1,Дорожная улица,169900,67.5016292,64.0404017
7,улица Лермонтова,169915,67.5183056,64.0769593
9,Дорожная улица,169900,67.5020016,64.0374291
4,Дорожная улица,169906,67.5008826,64.0382495
8,улица Димитрова,169912,67.5078589,64.0498803
3,Парковая улица,169900,67.4914283,64.0338422
51,улица Ленина,169900,67.5050280,64.0630985
7Б,улица Чернова,169900,67.5067125,64.0553268
20,улица Дончука,169906,67.5023606,64.0368774
12,улица Мира,169900,67.4949705,64.0483046
14,Возейская улица,169900,67.5066736,64.0766302
30,Парковая улица,169900,67.4955688,64.0474717
10А,Шахтёрская набережная,169912,67.5075215,64.0411972
10,Шахтёрская набережная,169912,67.5075750,64.0402225
2,Деповской переулок,169908,67.5033874,64.0779006
5,Парковая улица,169900,67.4918096,64.0350329
7,улица Мира,169900,67.4926239,64.0510918
2,бульвар Пищевиков,169900,67.4925337,64.0561528
35,бульвар Пищевиков,169900,67.5052650,64.0750150
2А,бульвар Пищевиков,169900,67.4926136,64.0550477
34А,улица Ленина,169900,67.4943701,64.0574234
35,улица Ленина,169906,67.4959793,64.0562903
9,улица Горняков,169900,67.4933858,64.0287079
2В,бульвар Пищевиков,169906,67.4928249,64.0625850
1А,площадь Металлистов,169900,67.4902446,64.0405352
7,бульвар Пищевиков,169900,67.4938414,64.0610906
37А,улица Ленина,169906,67.4963578,64.0561411
22,Московская улица,169901,67.4904363,64.0392281
32Б,улица Ленина,169900,67.4941561,64.0556964
3,бульвар Пищевиков,169900,67.4926191,64.0574449
2,улица Мира,169900,67.4920414,64.0546387
4,бульвар Пищевиков,169900,67.4931404,64.0579676
5А,бульвар Пищевиков,169900,67.4937007,64.0582428
13,улица Победы,169901,67.4905761,64.0380904
33,улица Ленина,169906,67.4956349,64.0551751
5,бульвар Пищевиков,169900,67.4932286,64.0593092
34,улица Ленина,169906,67.4949730,64.0558901
31,бульвар Пищевиков,169900,67.5045575,64.0730550
8,бульвар Пищевиков,169900,67.4943202,64.0615385
8А,Московская улица,169900,67.4927862,64.0334234
1,бульвар Пищевиков,169906,67.4920136,64.0556852
15А,бульвар Пищевиков,169900,67.4987125,64.0676289
4А,улица Мира,169900,67.4927560,64.0542377
35А,улица Ленина,169906,67.4960570,64.0551757
14,Шахтёрская набережная,169912,67.5088509,64.0408541
16,Шахтёрская набережная,169912,67.5091579,64.0423641
12,Шахтёрская набережная,169912,67.5081691,64.0415517
15/4,улица Димитрова,169912,67.5097294,64.0478653
15/5,улица Димитрова,169912,67.5093284,64.0477851
42,улица Ленина,169900,67.4964836,64.0594381
2,улица Энгельса,169900,67.4965240,64.0606417
38/2,улица Ленина,169900,67.4956511,64.0576892
3Б,улица Мира,169906,67.4914408,64.0507070
14,бульвар Пищевиков,169900,67.4979949,64.0676017
58,улица Ленина,169900,67.5018551,64.0644655
62А,улица Ленина,169900,67.5038596,64.0675466
66,улица Ленина,169900,67.5051629,64.0660895
70,улица Ленина,169900,67.5066883,64.0669066
12,Возейская улица,169900,67.5067745,64.0750903
10Б,улица Чернова,169900,67.5078181,64.0593679
1,улица Проминдустрии,169900,67.4961947,64.0707397
3,улица Проминдустрии,169900,67.4953642,64.0733374
14,Парковая улица,169900,67.4926874,64.0389136
16,Парковая улица,169900,67.4929549,64.0398411
17,Московская улица,169900,67.4926257,64.0364130
9,Парковая улица,169900,67.4924719,64.0371372
7,Парковая улица,169900,67.4920836,64.0359368
3А,улица Проминдустрии,169900,67.4976933,64.0755586
13,улица Горняков,169900,67.4938518,64.0300146
23,Комсомольская улица,169900,67.4948598,64.0311538
1,Ленинградская улица,169900,67.4949654,64.0320971
4А,улица Ленина,169901,67.4910976,64.0443269
5,улица Пушкина,169900,67.4925072,64.0287551
10,улица Горняков,169900,67.4927732,64.0287055
25,улица Ленина,169906,67.4942707,64.0499645
8,Шахтёрская набережная,169912,67.5063282,64.0404808
24,бульвар Пищевиков,169900,67.4997613,64.0724661
2,улица Чехова,169915,67.5267269,64.0906806
25,Ленинградская улица,169903,67.4981005,64.0406093
30,Автозаводская улица,169908,67.4977066,64.0957837
3А,улица Мира,169906,67.4912439,64.0513616
35В,бульвар Пищевиков,169900,67.5052208,64.0762567
51,улица Некрасова,169915,67.5209260,64.0510142
38/1,улица Ленина,169900,67.4958553,64.0587739
3,улица Энгельса,169900,67.4969335,64.0633102
7А,улица Энгельса,169900,67.4973078,64.0649485
37А,улица Матвеева,169905,67.4838554,64.0219711
2,Путейская улица,169908,67.5120277,64.0915884
1,Коммунистическая улица,169915,67.5456664,64.0884376
26,улица Мира,169903,67.4988146,64.0391443
2,улица Димитрова,169912,67.5050636,64.0481781
8,Транспортная улица,169900,67.4910410,64.0496450
3,Привокзальная площадь,169905,67.4701738,64.0268952
2,Привокзальная площадь,169905,67.4708022,64.0263885
32,Привокзальная улица,169905,67.4747654,64.0306285
39,Привокзальная улица,169905,67.4759545,64.0325779
38,Привокзальная улица,169905,67.4778616,64.0339135
32,Привокзальная улица,169905,67.4790367,64.0398359
23,Привокзальная улица,169905,67.4733201,64.0271283
8,Деповской переулок,169908,67.5013850,64.0816833
22,3-я Линейная улица,169915,67.5255467,64.0777072
2,улица Чехова,169915,67.5301719,64.0978033
16,улица Дончука,169900,67.5026316,64.0411030
9,улица Димитрова,169912,67.5073551,64.0467118
