House number,Street name,Postal code,Latitude,Longitude
18-А,вулиця Степана Бандери,07400,50.5143973,30.8137269
316/2,Київська вулиця,07400,50.5266893,30.7964553
302,Київська вулиця,07400,50.5180815,30.7873984
5,вулиця Героїв Небесної Сотні,07400,50.5106392,30.7874988
3,бульвар Незалежності,07400,50.5133831,30.7935676
4-Б,вулиця Марії Лагунової,07400,50.5130869,30.7900503
3,бульвар Незалежності,07400,50.5131843,30.7933735
3,бульвар Незалежності,07400,50.5129663,30.7931695
3,бульвар Незалежності,07400,50.5130407,30.7932827
14,вулиця Героїв України,07400,50.5123818,30.7878116
7,бульвар Незалежності,07400,50.5142133,30.7950436
6,бульвар Незалежності,07400,50.5141138,30.7966134
6,бульвар Незалежності,07400,50.5142160,30.7967682
12,бульвар Незалежності,07400,50.5171318,30.8011658
2,бульвар Незалежності,07400,50.5110744,30.7919703
7,бульвар Незалежності,07400,50.5144399,30.7953904
17,бульвар Незалежності,07406,50.5187675,30.8019989
2,бульвар Незалежності,07400,50.5111523,30.7920835
7,бульвар Незалежності,07400,50.5142783,30.7951431
7,бульвар Незалежності,07400,50.5141517,30.7949493
6,бульвар Незалежності,07400,50.5135007,30.7956846
7,бульвар Незалежності,07400,50.5148862,30.7959598
3,вулиця Олександра Білана,07404,50.5010492,30.7459258
13,бульвар Незалежності,07400,50.5167653,30.7990375
7,вулиця Грушевського,07400,50.5040712,30.7866956
2,вулиця Ярослава Мудрого,07401,50.4987628,30.7712614
166,Київська вулиця,07401,50.4987171,30.7708485
5,вулиця Героїв Небесної Сотні,07400,50.5105086,30.7874832
20-А,вулиця Симона Петлюри,07406,50.5218951,30.8026943
9-А,бульвар Незалежності,07400,50.5157861,30.7958746
10,вулиця Володимира Великого,07403,50.5112116,30.8327572
23,вулиця Металургів,07400,50.5215713,30.8088001
7,вулиця Героїв України,07400,50.5139914,30.7867930
6,бульвар Незалежності,07400,50.5138073,30.7961490
90,вулиця Ярослава Мудрого,07400,50.5020093,30.7889827
60-В,вулиця Чорних Запорожців,07406,50.5207791,30.7964955
18,вулиця Степана Бандери,07400,50.5145516,30.8125003
7,бульвар Незалежності,07400,50.5147964,30.7958562
1,вулиця Ярослава Мудрого,07401,50.4994765,30.7739156
20-А,вулиця Симона Петлюри,07406,50.5218975,30.8028457
24,вулиця Симона Петлюри,07406,50.5221873,30.8022842
219,Київська вулиця,07400,50.5063779,30.7767612
10-В,вулиця Шевченка,07402,50.5092742,30.7686560
20/2,вулиця Олега Онікієнка,07403,50.5094206,30.8202045
3,вулиця Героїв УПА,07400,50.5104658,30.7967834
21,вулиця Сергія Москаленка,07403,50.5072226,30.8260536
150,Київська вулиця,07401,50.4979377,30.7664158
7,бульвар Незалежності,07400,50.5139570,30.7946513
139а,Київська вулиця,07401,50.4985451,30.7665008
76,вулиця Чорних Запорожців,07405,50.5237058,30.7916946
13,вулиця Героїв Небесної Сотні,07400,50.5079886,30.7835691
23,вулиця Сергія Москаленка,07403,50.5073400,30.8258209
16,вулиця Сергія Москаленка,07403,50.5065409,30.8261390
2,вулиця Володимира Великого,07403,50.5072691,30.8276052
2,вулиця Ярослава Мудрого,07401,50.4986498,30.7712906
18,вулиця Шевченка,07400,50.5135555,30.7591922
68,вулиця Шолом-Алейхема,07400,50.5068087,30.7797916
47-А,вулиця Чорних Запорожців,07400,50.5188272,30.7962530
10,вулиця Володимира Великого,07403,50.5110660,30.8325689
24,вулиця Симона Петлюри,07406,50.5223244,30.8020644
7,вулиця Грушевського,07400,50.5039299,30.7868269
22б,бульвар Незалежності,07400,50.5269409,30.8147948
36,вулиця Ярослава Мудрого,07401,50.5002469,30.7796892
4,вулиця Володимира Великого,07403,50.5084266,30.8295413
10,вулиця Володимира Великого,07403,50.5109804,30.8324554
6,бульвар Незалежності,07400,50.5137051,30.7959942
8Б,Олімпійська вулиця,07403,50.5082530,30.8356031
25,вулиця Сергія Москаленка,07403,50.5065268,30.8276941
3,бульвар Незалежності,07400,50.5127569,30.7927739
10,вулиця Володимира Великого,07403,50.5112761,30.8328390
2,бульвар Незалежності,07400,50.5116032,30.7927988
43,вулиця Драгоманова,07400,50.5272834,30.7856950
45,вулиця Драгоманова,07400,50.5272110,30.7853108
53,вулиця Драгоманова,07400,50.5265140,30.7828355
57,вулиця Драгоманова,07400,50.5261985,30.7819356
9,провулок Драгоманова,07400,50.5256756,30.7817788
1,провулок Драгоманова,07400,50.5261641,30.7833686
143,вулиця Драгоманова,07400,50.5213975,30.7672656
133,вулиця Драгоманова,07400,50.5218315,30.7691009
123,вулиця Драгоманова,07400,50.5221606,30.7711857
119,вулиця Драгоманова,07400,50.5226637,30.7718589
105,вулиця Драгоманова,07400,50.5234735,30.7742997
77,вулиця Драгоманова,07400,50.5249805,30.7783679
87,вулиця Драгоманова,07400,50.5245439,30.7768954
89,вулиця Драгоманова,07400,50.5244553,30.7766298
24/26,вулиця Куліша,07405,50.5249379,30.7803766
22,вулиця Куліша,07400,50.5253499,30.7806080
11,провулок Драгоманова,07400,50.5256739,30.7813107
12,вулиця Куліша,07400,50.5257285,30.7831407
4,вулиця Куліша,07400,50.5264591,30.7839795
2А,вулиця Куліша,07400,50.5262281,30.7848224
247,Київська вулиця,07405,50.5165224,30.7841583
76,Благодатна вулиця,04404,50.4983907,30.7505760
40,вулиця Шолом-Алейхема,07400,50.5039810,30.7771124
7-А,Олімпійська вулиця,07403,50.5083660,30.8334864
25,вулиця Сергія Москаленка,07403,50.5066642,30.8274148
2,вулиця Вʼячеслава Чорновола,07405,50.5161199,30.7821317
39,вулиця Сергія Москаленка,07403,50.5044313,30.8319037
27,вулиця Сергія Москаленка,07403,50.5070020,30.8265389
6/1,Олімпійська вулиця,07403,50.5075088,30.8331102
2-А,Олімпійська вулиця,07403,50.5053473,30.8302112
2-А,Олімпійська вулиця,07403,50.5054188,30.8303375
10,Олімпійська вулиця,07403,50.5088999,30.8351262
4,вулиця Володимира Великого,07403,50.5083960,30.8294049
25,вулиця Сергія Москаленка,07403,50.5065548,30.8276362
4,Олімпійська вулиця,07403,50.5063435,30.8330230
4,Олімпійська вулиця,07403,50.5062342,30.8330203
4,Олімпійська вулиця,07403,50.5061551,30.8329164
49,вулиця Сергія Москаленка,07403,50.5058912,30.8334771
49,вулиця Сергія Москаленка,07403,50.5056570,30.8336776
41,вулиця Сергія Москаленка,07403,50.5040693,30.8328972
43,вулиця Сергія Москаленка,07403,50.5044896,30.8326684
43,вулиця Сергія Москаленка,07403,50.5044217,30.8326709
10,вулиця Володимира Великого,07403,50.5111430,30.8326678
2,вулиця Володимира Великого,07403,50.5077867,30.8283451
2,вулиця Володимира Великого,07403,50.5076895,30.8281976
45,вулиця Ярослава Мудрого,07400,50.5019276,30.7840373
157,Київська вулиця,07401,50.5001807,30.7717102
253,Київська вулиця,07405,50.5201512,30.7867904
39,вулиця Сергія Москаленка,07403,50.5044329,30.8322297
14А,вулиця Шевченка,07400,50.5120736,30.7622569
5,вулиця Олександра Білана,07404,50.5014144,30.7475128
292,Київська вулиця,07400,50.5140975,30.7840691
8Б,Олімпійська вулиця,07403,50.5084720,30.8359695
10,вулиця Володимира Великого,07403,50.5112267,30.8329537
25/1,вулиця Сергія Москаленка,07403,50.5064914,30.8279490
39,бульвар Незалежності,07400,50.5274193,30.8135308
2,вулиця Володимира Великого,07403,50.5073932,30.8277815
2,вулиця Володимира Великого,07403,50.5075079,30.8279420
5,вулиця Олександра Білана,07404,50.5014106,30.7472941
5,вулиця Олександра Білана,07404,50.5012286,30.7466114
3,вулиця Олександра Білана,07404,50.5009922,30.7456946
14-А,вулиця Гельсінської Групи,07403,50.5161100,30.8255395
57,вулиця Олега Онікієнка,07403,50.5091836,30.8123882
3,Олімпійська вулиця,07403,50.5069908,30.8308493
139,вулиця Академіка Амосова,07400,50.5109563,30.7630461
25,вулиця Сергія Москаленка,07403,50.5065927,30.8275666
61,вулиця Олега Онікієнка,07403,50.5094601,30.8177266
61,вулиця Олега Онікієнка,07403,50.5094163,30.8174971
93,вулиця Шолом-Алейхема,07400,50.5110269,30.7840956
24,вулиця Симона Петлюри,07406,50.5222346,30.8022106
24,вулиця Симона Петлюри,07406,50.5222892,30.8021208
20-А,вулиця Симона Петлюри,07406,50.5219618,30.8022878
20-А,вулиця Симона Петлюри,07406,50.5220010,30.8026872
20-А,вулиця Симона Петлюри,07406,50.5219532,30.8027677
54,вулиця Короленка,07402,50.5191807,30.7972671
5,вулиця Героїв Небесної Сотні,07400,50.5105091,30.7877217
20,вулиця Героїв України,07400,50.5103938,30.7911800
243,Київська вулиця,07405,50.5170076,30.7843701
239,Київська вулиця,07405,50.5149214,30.7832802
239,Київська вулиця,07405,50.5146639,30.7828765
21,вулиця Симона Петлюри,07406,50.5243834,30.7961612
243-А,Київська вулиця,07405,50.5165402,30.7829655
239,Київська вулиця,07405,50.5147957,30.7823777
24,Вокзальна вулиця,07403,50.5116306,30.8108270
30,Вокзальна вулиця,07403,50.5119780,30.8115618
14-Б/1,вулиця Гельсінської Групи,07403,50.5169117,30.8236097
2,вулиця Вʼячеслава Чорновола,07405,50.5164325,30.7815063
4,Київська вулиця,07401,50.4913613,30.7431553
2,бульвар Незалежності,07400,50.5121670,30.7936295
39,вулиця Сергія Москаленка,07403,50.5043319,30.8321099
239,Київська вулиця,07405,50.5149138,30.7829148
25/1,вулиця Сергія Москаленка,07403,50.5064178,30.8281073
30,вулиця Василя Симоненка,07400,50.5167268,30.7767035
7,бульвар Незалежності,07400,50.5145106,30.7956407
239,Київська вулиця,07405,50.5147516,30.7827282
16,вулиця Сергія Москаленка,07403,50.5066784,30.8258414
67,вулиця Короленка,07400,50.5212468,30.7899809
49,вулиця Сергія Москаленка,07403,50.5055783,30.8337656
4,вулиця Ярослава Мудрого,07401,50.4989463,30.7730983
7,вулиця Грушевського,07400,50.5037882,30.7867564
111,вулиця Василя Симоненка,07405,50.5226018,30.7886374
53,вулиця Сергія Москаленка,07403,50.5069246,30.8348830
2-А,Олімпійська вулиця,07403,50.5054173,30.8304059
2-Б,вулиця Василя Симоненка,07402,50.5099593,30.7741291
4,Київська вулиця,07401,50.4913030,30.7428713
16,вулиця Сергія Москаленка,07403,50.5067634,30.8256922
21А,вулиця Героїв України,07400,50.5099701,30.7937965
25,вулиця Сергія Москаленка,07403,50.5066297,30.8274859
4,вулиця Володимира Великого,07403,50.5082940,30.8292577
20,Соборна вулиця,07405,50.5192288,30.7835140
6,вулиця Вʼячеслава Чорновола,07405,50.5165210,30.7800672
16,вулиця Сергія Москаленка,07403,50.5065991,30.8261661
16,вулиця Сергія Москаленка,07403,50.5067963,30.8255863
21,вулиця Сергія Москаленка,07403,50.5071144,30.8262674
21,вулиця Сергія Москаленка,07403,50.5072542,30.8259859
21,вулиця Сергія Москаленка,07403,50.5071462,30.8262015
21,вулиця Сергія Москаленка,07403,50.5071799,30.8261378
14,вулиця Героїв України,07400,50.5123475,30.7878748
1,вулиця Ярослава Мудрого,07401,50.4994938,30.7737690
51,вулиця Сергія Москаленка,07403,50.5061670,30.8340534
2,вулиця Ярослава Мудрого,07401,50.4987519,30.7714550
161,Київська вулиця,07401,50.5008467,30.7725111
150-А,Київська вулиця,07401,50.4977944,30.7662202
21,вулиця Героїв України,07400,50.5104474,30.7935142
14,Виноградна вулиця,07405,50.5136856,30.7775742
14/1,Виноградна вулиця,07405,50.5136454,30.7777163
14/2,Виноградна вулиця,07405,50.5136054,30.7778574
14/3,Виноградна вулиця,07405,50.5135659,30.7779969
13,Соборна вулиця,07405,50.5134185,30.7785175
13/1,Соборна вулиця,07405,50.5134486,30.7784113
13а,Соборна вулиця,07405,50.5134909,30.7782619
13а/1,Соборна вулиця,07405,50.5135213,30.7781546
11,Соборна вулиця,07405,50.5132438,30.7784043
11/1,Соборна вулиця,07405,50.5132748,30.7782902
11а,Соборна вулиця,07405,50.5133152,30.7781414
11а/1,Соборна вулиця,07405,50.5133453,30.7780305
12/3,Виноградна вулиця,07405,50.5133786,30.7778643
12/2,Виноградна вулиця,07405,50.5134181,30.7777227
12/1,Виноградна вулиця,07405,50.5134586,30.7775775
12,Виноградна вулиця,07405,50.5134979,30.7774366
241,Київська вулиця,07405,50.5155398,30.7831190
107б,вулиця Василя Симоненка,07405,50.5227777,30.7872016
3,вулиця Павла Чубинського,07405,50.5257137,30.7884428
60-Г,вулиця Чорних Запорожців,07406,50.5208651,30.7963562
61,вулиця Олега Онікієнка,07403,50.5092533,30.8169166
16-Г,вулиця Сергія Москаленка,07403,50.5063895,30.8266264
18-А,Підприємницька вулиця,07403,50.5019350,30.8212767
1,Виробнича вулиця,07403,50.5179663,30.8501248
2,Підприємницька вулиця,07403,50.5012973,30.8261083
30,вулиця Броварської Сотні,07403,50.5027533,30.8397969
4,Холодильний провулок,07403,50.5080912,30.8180451
4-А,Холодильний провулок,07403,50.5080939,30.8181975
2,Холодильний провулок,07403,50.5083259,30.8175731
2-А,Холодильний провулок,07403,50.5082959,30.8177426
16,бульвар Незалежності,07400,50.5170748,30.8043931
16,бульвар Незалежності,07400,50.5169858,30.8041748
1,вулиця Героїв України,07400,50.5148185,30.7849570
1,вулиця Героїв України,07400,50.5148374,30.7849009
1,вулиця Героїв України,07400,50.5148528,30.7848546
1,вулиця Героїв України,07400,50.5148706,30.7848083
8-В,вулиця Вʼячеслава Чорновола,07405,50.5170938,30.7796924
22,вулиця Симона Петлюри,07406,50.5221063,30.8024493
5,вулиця Олександра Білана,07404,50.5014689,30.7476882
2а,вулиця Лесі Українки,07404,50.5014155,30.7450101
20-Б,вулиця Героїв України,07400,50.5095774,30.7900663
7,бульвар Незалежності,07400,50.5145718,30.7957334
7,бульвар Незалежності,07400,50.5144493,30.7955480
7,бульвар Незалежності,07400,50.5140890,30.7948533
7,бульвар Незалежності,07400,50.5140240,30.7947538
7,бульвар Незалежності,07400,50.5145470,30.7958264
7,бульвар Незалежності,07400,50.5140206,30.7945474
7,бульвар Незалежності,07400,50.5143493,30.7952518
7,бульвар Незалежності,07400,50.5147338,30.7957526
3,бульвар Незалежності,07400,50.5125210,30.7924164
3,бульвар Незалежності,07400,50.5128920,30.7930563
3,бульвар Незалежності,07400,50.5130543,30.7933728
20-Б,вулиця Героїв України,07400,50.5100166,30.7898369
107-А,вулиця Василя Симоненка,07405,50.5227418,30.7864348
107-А,вулиця Василя Симоненка,07405,50.5227438,30.7862986
39,вулиця Сергія Москаленка,07403,50.5044373,30.8320753
4,Олімпійська вулиця,07403,50.5063811,30.8329519
2-А,вулиця Василя Симоненка,07402,50.5095340,30.7733760
125,вулиця Олега Онікієнка,07403,50.5174921,30.8298501
125,вулиця Олега Онікієнка,07403,50.5176259,30.8311839
24,Вокзальна вулиця,07437,50.5119184,30.8111285
2,бульвар Незалежності,07400,50.5122596,30.7937658
16,вулиця Сергія Москаленка,07403,50.5068356,30.8255012
16,вулиця Сергія Москаленка,07403,50.5065714,30.8262370
16,вулиця Сергія Москаленка,07403,50.5066821,30.8259291
16,вулиця Сергія Москаленка,07403,50.5066269,30.8260535
16,вулиця Сергія Москаленка,07403,50.5066269,30.8261072
241,Київська вулиця,07400,50.5157601,30.7832024
316,Київська вулиця,07406,50.5264382,30.7958281
316,Київська вулиця,07406,50.5264382,30.7958281
6,бульвар Незалежності,07400,50.5133986,30.7955298
6,бульвар Незалежності,07400,50.5140116,30.7964586
6,бульвар Незалежності,07400,50.5139095,30.7963038
6,бульвар Незалежності,07400,50.5136029,30.7958394
4,Олімпійська вулиця,07403,50.5064062,30.8329046
4,Олімпійська вулиця,07403,50.5063059,30.8330940
8-В,вулиця Вʼячеслава Чорновола,07405,50.5174465,30.7793404
34,вулиця Василя Симоненка,07405,50.5176685,30.7784051
23,вулиця Сергія Москаленка,07403,50.5072969,30.8259054
11Д,вулиця Симона Петлюри,07400,50.5170550,30.8093391
30,вулиця Василя Симоненка,07400,50.5166751,30.7766796
30а,вулиця Василя Симоненка,07400,50.5155274,30.7757890
30а,вулиця Василя Симоненка,07400,50.5159872,30.7760284
30а,вулиця Василя Симоненка,07400,50.5160405,30.7763649
19,вулиця Павла Чубинського,07400,50.5241327,30.7811947
331,Київська вулиця,07400,50.5240345,30.7909630
253,Київська вулиця,07400,50.5217439,30.7876802
9,вулиця Героїв України,07400,50.5133516,30.7878026
1,вулиця Леоніда Каденюка,07403,50.5085021,30.8278769
1-В,вулиця Леоніда Каденюка,07403,50.5084623,30.8279610
36-А,вулиця Ярослава Мудрого,07401,50.4999026,30.7799285
36,вулиця Ярослава Мудрого,07401,50.5002515,30.7797451
1-А,вулиця Аркадія Голуба,07400,50.4995059,30.7847499
1,вулиця Аркадія Голуба,07400,50.4986844,30.7852303
1-Б,вулиця Аркадія Голуба,07400,50.4993295,30.7858642
5-Б,вулиця Аркадія Голуба,07400,50.4996400,30.7871970
15,вулиця Героїв України,07400,50.5119534,30.7911853
14,вулиця Героїв України,07400,50.5121812,30.7880455
292,Київська вулиця,07400,50.5138324,30.7839644
9,вулиця Героїв України,07400,50.5135727,30.7875088
20,вулиця Героїв України,07400,50.5102161,30.7908922
4,бульвар Незалежності,07400,50.5126261,30.7952046
4-А,бульвар Незалежності,07400,50.5124557,30.7964463
6-А,бульвар Незалежності,07400,50.5130663,30.7958992
6,бульвар Незалежності,07400,50.5137786,30.7961952
10-А,бульвар Незалежності,07400,50.5146252,30.7997618
10-Б,бульвар Незалежності,07400,50.5151829,30.7996918
7-А,вулиця Героїв УПА,07400,50.5122624,30.7976109
18,вулиця Героїв України,07400,50.5104685,30.7900723
170,Київська вулиця,07401,50.5009551,30.7735206
21,вулиця Героїв України,07400,50.5102086,30.7937066
5,вулиця Героїв Небесної Сотні,07400,50.5105634,30.7876237
1,вулиця Героїв Небесної Сотні,07400,50.5108764,30.7881182
14-А,вулиця Героїв України,07400,50.5117788,30.7871818
12-А,вулиця Героїв України,07400,50.5117346,30.7861879
15-Б,вулиця Героїв Небесної Сотні,07400,50.5076287,30.7808555
3,вулиця Грушевського,07400,50.5069244,30.7812726
3,вулиця Грушевського,07400,50.5065249,30.7827264
53а,вулиця Ярослава Мудрого,07400,50.5026971,30.7864723
4,площа Шевченка,07401,50.5000102,30.7736604
166,Київська вулиця,07401,50.4986371,30.7703637
4,вулиця Марії Лагунової,07400,50.5145077,30.7905207
5-А,бульвар Незалежності,07400,50.5140303,30.7912002
57-А,вулиця Чорних Запорожців,07400,50.5191052,30.7921715
3,вулиця Гродзиського Повіту,07400,50.4984459,30.7840460
5,вулиця Аркадія Голуба,07400,50.4987278,30.7866315
17-А,вулиця Марії Лагунової,07400,50.5185154,30.7938762
92,вулиця Ярослава Мудрого,07400,50.5027403,30.7903391
1-А,вулиця Грушевського,07400,50.4998829,30.7883506
14,вулиця Шевченка,07400,50.5111828,30.7656222
14-А,вулиця Шевченка,07400,50.5118152,30.7641255
153,Київська вулиця,07401,50.4993910,30.7697158
306-А,Київська вулиця,07400,50.5187593,30.7900193
2,вулиця Грушевського,07400,50.5010922,30.7900766
45,вулиця Ярослава Мудрого,07400,50.5018225,30.7836443
47/1,вулиця Ярослава Мудрого,07400,50.5034355,30.7826160
93,вулиця Шолом-Алейхема,07400,50.5108777,30.7845626
3А,вулиця Героїв УПА,07400,50.5108651,30.7962602
5-А,вулиця Аркадія Голуба,07400,50.4992772,30.7875412
286,Київська вулиця,07400,50.5127531,30.7831411
306,Київська вулиця,07400,50.5191945,30.7887499
302,Київська вулиця,07400,50.5183031,30.7875889
298,Київська вулиця,07400,50.5167120,30.7867804
3-А,вулиця Марії Лагунової,07400,50.5150249,30.7882190
15/3,вулиця Марії Лагунової,07400,50.5175658,30.7931915
15/4,вулиця Марії Лагунової,07400,50.5177039,30.7929642
15/5,вулиця Марії Лагунової,07400,50.5178502,30.7927336
15/7,вулиця Марії Лагунової,07400,50.5181287,30.7921656
15/1,вулиця Марії Лагунової,07400,50.5172146,30.7937581
15/2,вулиця Марії Лагунової,07400,50.5173419,30.7933897
2,вулиця Шевченка,07402,50.5074793,30.7744326
8,вулиця Шевченка,07402,50.5089460,30.7710312
21,вулиця Шевченка,07400,50.5074628,30.7718440
12-А,вулиця Шевченка,07400,50.5099052,30.7677098
4-А,вулиця Шевченка,07400,50.5088219,30.7733333
11-А,вулиця Симона Петлюри,07402,50.5176154,30.8080779
23,бульвар Незалежності,07400,50.5215345,30.8042977
54-Б,вулиця Чорних Запорожців,07400,50.5202537,30.7996811
19-А,бульвар Незалежності,07406,50.5200392,30.8011733
39,бульвар Незалежності,07400,50.5272086,30.8131966
14-Б,бульвар Незалежності,07400,50.5191854,30.8050563
14-Б,бульвар Незалежності,07400,50.5188081,30.8039714
13,вулиця Симона Петлюри,07406,50.5211111,30.8024860
13-А,вулиця Симона Петлюри,07406,50.5211970,30.8014912
5,вулиця Олександра Білана,07404,50.5013344,30.7469690
137,Київська вулиця,07401,50.4986194,30.7654541
14-А,вулиця Шевченка,07400,50.5122132,30.7624518
4-А,вулиця Броварської Сотні,07403,50.5034270,30.8423998
3,вулиця Геологів,07404,50.5004432,30.7460224
3,вулиця Олександра Білана,07404,50.5010471,30.7457825
60,вулиця Чорних Запорожців,07406,50.5198515,30.7957990
15,вулиця Симона Петлюри,07406,50.5217243,30.8002934
19/1,вулиця Симона Петлюри,07406,50.5223092,30.7956485
74,вулиця Короленка,07400,50.5234442,30.7922759
46,Харківська вулиця,07400,50.5164599,30.8055218
20/2,вулиця Олега Онікієнка,07403,50.5092567,30.8202685
25/1,вулиця Сергія Москаленка,07403,50.5065043,30.8281993
3,вулиця Сергія Москаленка,07403,50.5089717,30.8237233
20,вулиця Олега Онікієнка,07403,50.5092859,30.8192101
14-А,вулиця Олега Онікієнка,07403,50.5088411,30.8187698
18,вулиця Олега Онікієнка,07403,50.5091568,30.8186331
6,вулиця Сергія Москаленка,07403,50.5082921,30.8224709
2-А,вулиця Сергія Москаленка,07403,50.5087222,30.8202596
2,вулиця Сергія Москаленка,07403,50.5085452,30.8208204
16,вулиця Олега Онікієнка,07403,50.5090491,30.8181462
4,вулиця Сергія Москаленка,07403,50.5087876,30.8215062
14,вулиця Олега Онікієнка,07403,50.5089313,30.8175783
10,вулиця Олега Онікієнка,07403,50.5085768,30.8166496
10-А,вулиця Сергія Москаленка,07403,50.5077586,30.8235144
10,вулиця Сергія Москаленка,07403,50.5076300,30.8228462
12,вулиця Олега Онікієнка,07403,50.5086473,30.8171212
12,вулиця Сергія Москаленка,07403,50.5073418,30.8234621
18-А,вулиця Степана Бандери,07400,50.5147090,30.8133082
3,вулиця Павла Чубинського,07405,50.5259185,30.7890587
12,вулиця Лесі Українки,07404,50.5018881,30.7474285
3,вулиця Аркадія Голуба,07400,50.4980664,30.7858591
18,вулиця Степана Бандери,07400,50.5145426,30.8125669
24,вулиця Симона Петлюри,07406,50.5222974,30.8022798
17,вулиця Грушевського,07400,50.5063051,30.7798252
155,Київська вулиця,07401,50.4996514,30.7712888
2,вулиця Ярослава Мудрого,07401,50.4987242,30.7714627
3,вулиця Ярослава Мудрого,07401,50.4997001,30.7749186
152,Київська вулиця,07401,50.4980253,30.7668826
13-А,вулиця Броварської Сотні,07403,50.5091295,30.8423334
4,Лісова вулиця,07400,50.5301147,30.8024841
10,вулиця Володимира Великого,07403,50.5109418,30.8324880
6-А,вулиця Володимира Великого,07403,50.5095143,30.8309959
15,вулиця Сергія Москаленка,07403,50.5084698,30.8256298
13,вулиця Сергія Москаленка,07403,50.5087738,30.8260954
8,вулиця Володимира Великого,07403,50.5101140,30.8315773
16,вулиця Броварської Сотні,07403,50.5101986,30.8343626
1,Олімпійська вулиця,07403,50.5061836,30.8305125
11,вулиця Сергія Москаленка,07403,50.5089622,30.8257782
1-Б,Олімпійська вулиця,07403,50.5070606,30.8290770
4-А,вулиця Володимира Великого,07403,50.5075657,30.8304895
12,вулиця Броварської Сотні,07403,50.5111166,30.8332827
3,Олімпійська вулиця,07403,50.5070177,30.8312562
4,вулиця Володимира Великого,07403,50.5081088,30.8290933
9,вулиця Сергія Москаленка,07403,50.5086539,30.8253234
5,Олімпійська вулиця,07403,50.5079396,30.8323801
10-А,вулиця Володимира Великого,07403,50.5105933,30.8332088
1-А,Олімпійська вулиця,07403,50.5066496,30.8296959
7,вулиця Сергія Москаленка,07403,50.5083434,30.8248839
10-Б,вулиця Володимира Великого,07403,50.5100905,30.8335030
2,вулиця Володимира Великого,07403,50.5075057,30.8280368
8-А,вулиця Володимира Великого,07403,50.5094407,30.8326151
9-А,Олімпійська вулиця,07403,50.5096643,30.8338119
2-Б,вулиця Сергія Москаленка,07403,50.5082206,30.8204502
2/1,вулиця Сергія Москаленка,07403,50.5080292,30.8212926
12-А,вулиця Сергія Москаленка,07403,50.5067676,30.8227895
8,вулиця Олега Онікієнка,07403,50.5075848,30.8171889
10-А/1,Олімпійська вулиця,07403,50.5094047,30.8358313
8,Олімпійська вулиця,07403,50.5082913,30.8343327
10-А,Олімпійська вулиця,07403,50.5089673,30.8363222
8-Б,Олімпійська вулиця,07403,50.5082381,30.8356772
8-А,Олімпійська вулиця,07403,50.5076979,30.8344631
6/2,Олімпійська вулиця,07403,50.5074904,30.8334945
6,Олімпійська вулиця,07403,50.5068309,30.8337730
2-А,Олімпійська вулиця,07403,50.5052510,30.8312666
6-А,Олімпійська вулиця,07403,50.5071913,30.8328383
27-А,вулиця Героїв України,07400,50.5070418,30.7970569
2-Б,вулиця Олега Онікієнка,07403,50.5056452,30.8032727
55,вулиця Ярослава Мудрого,07400,50.5048356,30.7936344
38,вулиця Симона Петлюри,07400,50.5250214,30.7974245
96,вулиця Ярослава Мудрого,07400,50.5028489,30.7919128
27-Б,вулиця Фіалковського,07404,50.5038971,30.7554697
2,Білодібровна вулиця,07404,50.5018331,30.7514864
2-А,Білодібровна вулиця,07404,50.5024129,30.7509294
4-А,Білодібровна вулиця,07404,50.5036375,30.7500013
4,Білодібровна вулиця,07404,50.5030725,30.7502501
95,Київська вулиця,07402,50.4961412,30.7571143
16-Б,бульвар Незалежності,07400,50.5174791,30.8058026
16,бульвар Незалежності,07400,50.5169656,30.8043756
2-Б,вулиця Олега Онікієнка,07403,50.5063365,30.8134144
4-А,вулиця Олега Онікієнка,07403,50.5067213,30.8119779
4,вулиця Олега Онікієнка,07403,50.5062658,30.8122065
14/1,бульвар Незалежності,07400,50.5175641,30.8044208
20-А,вулиця Симона Петлюри,07406,50.5219447,30.8027635
47,вулиця Металургів,07406,50.5255546,30.7988689
56-Б,вулиця Чорних Запорожців,07406,50.5194295,30.7970879
54,вулиця Чорних Запорожців,07402,50.5190939,30.7972093
47-А,вулиця Чорних Запорожців,07400,50.5188664,30.7962273
28,бульвар Незалежності,07400,50.5320403,30.8250586
21/1,вулиця Шевченка,07400,50.5068892,30.7702617
225/14,Київська вулиця,07405,50.5108871,30.7800761
225/10,Київська вулиця,07405,50.5120735,30.7793857
225/11,Київська вулиця,07405,50.5114722,30.7798104
225/12,Київська вулиця,07405,50.5113059,30.7803911
225/9,Київська вулиця,07405,50.5117195,30.7791509
225/6,Київська вулиця,07405,50.5105708,30.7783405
225/5,Київська вулиця,07405,50.5102509,30.7780780
225/4,Київська вулиця,07405,50.5099261,30.7778389
225/10-А,Київська вулиця,07405,50.5129147,30.7778909
225/2,Київська вулиця,07405,50.5092889,30.7773495
225/3,Київська вулиця,07405,50.5096011,30.7776177
255/8,Київська вулиця,07405,50.5112217,30.7788734
225/7,Київська вулиця,07405,50.5108759,30.7786022
225/1,Київська вулиця,07405,50.5089555,30.7770866
223-А,Київська вулиця,07402,50.5078817,30.7777234
4-Б,вулиця Шевченка,07400,50.5091296,30.7749774
64,Київська вулиця,07401,50.4933834,30.7524960
1,вулиця Геологів,07404,50.4999576,30.7414827
2,вулиця Геологів,07404,50.5010427,30.7448733
4,вулиця Геологів,07404,50.5008221,30.7450252
14,Білодібровна вулиця,07404,50.5048682,30.7539963
47,бульвар Незалежності,07400,50.5290557,30.8149972
1,вулиця Січових Стрільців,07400,50.5243368,30.8145636
3,вулиця Сергія Москаленка,07403,50.5090598,30.8237562
2,Петропавлівська вулиця,07401,50.4987644,30.7662493
62-А,вулиця Чорних Запорожців,07406,50.5212373,30.7968763
62-А,вулиця Чорних Запорожців,07406,50.5212889,30.7969903
64-В,вулиця Чорних Запорожців,07406,50.5211365,30.7966080
64-Г,вулиця Чорних Запорожців,07406,50.5214116,30.7962122
1,провулок Митрополита Андрея Шептицького,07406,50.5195640,30.8002519
15,вулиця Драгоманова,07400,50.5282861,30.7927181
3,вулиця Драгоманова,07400,50.5267406,30.7917826
5,вулиця Драгоманова,07400,50.5269976,30.7919840
67,вулиця Драгоманова,07405,50.5253798,30.7801019
28,вулиця Броварської Сотні,07403,50.5049870,30.8419212
10,провулок Корольова,07400,50.5104069,30.7824116
221-Б,Київська вулиця,07402,50.5073375,30.7773392
5,вулиця Радистів,07403,50.5037390,30.8030986
2/1,вулиця Олега Оникієнка,07403,50.5040177,30.8011323
1-В,вулиця Аркадія Голуба,07400,50.5000143,30.7864753
2,Олімпійська вулиця,07403,50.5058514,30.8312546
4,Олімпійська вулиця,07403,50.5062477,30.8326485
2,вулиця Січових Стрільців,07402,50.5227103,30.8218266
1,вулиця Володимира Великого,07403,50.5080599,30.8275675
80,Благодатна вулиця,04404,50.4979335,30.7528104
8-А,бульвар Незалежності,07400,50.5140976,30.7983189
60-Д,вулиця Чорних Запорожців,07406,50.5204823,30.7969994
60/1,вулиця Чорних Запорожців,07406,50.5209787,30.7961380
14,вулиця Шевченка,07400,50.5113880,30.7645383
21,вулиця Шевченка,07400,50.5074593,30.7701690
47,вулиця Ярослава Мудрого,07400,50.5021536,30.7828451
15-Б,бульвар Незалежності,07400,50.5191310,30.7994397
23/1,вулиця Симона Петлюри,07406,50.5245923,30.7935961
161-А,Броварський проспект,02089,50.4920461,30.7401290
10,Олімпійська вулиця,07403,50.5088121,30.8352485
7-А,Олімпійська вулиця,07403,50.5090032,30.8338598
5,вулиця Броварської Сотні,07403,50.5127692,30.8335560
25,вулиця Сергія Москаленка,07403,50.5069069,30.8273763
25,вулиця Сергія Москаленка,07403,50.5066403,30.8276238
16,вулиця Сергія Москаленка,07403,50.5063115,30.8254762
88,вулиця Ярослава Мудрого,07400,50.5018275,30.7874321
3-Б,вулиця Грушевського,07400,50.5014671,30.7884518
3-А,вулиця Грушевського,07400,50.5007333,30.7878896
1-Б,вулиця Грушевського,07400,50.5005069,30.7888586
1,вулиця Грушевського,07400,50.5005902,30.7891788
13,вулиця Броварської Сотні,07403,50.5079154,30.8404017
3-А,вулиця Броварської Сотні,07403,50.5133697,30.8305947
134,вулиця Олега Онікієнка,07403,50.5207765,30.8417105
2,Виробнича вулиця,07403,50.5196792,30.8438748
1,Базова вулиця,07403,50.5195948,30.8422344
61,вулиця Олега Онікієнка,07403,50.5115520,30.8153116
62,Обʼїзна дорога,07400,50.4912607,30.8287531
68,Обʼїзна дорога,07400,50.4852502,30.8261419
1,вулиця Воробйова,07403,50.5108280,30.8373765
9А,вулиця Броварської Сотні,07403,50.5107624,30.8359414
15,вулиця Вʼячеслава Чорновола,07405,50.5163490,30.7782180
9,вулиця Вʼячеслава Чорновола,07405,50.5161259,30.7789777
11,вулиця Вʼячеслава Чорновола,07405,50.5153080,30.7783778
3,вулиця Броварської Сотні,07403,50.5140480,30.8300250
5,Олімпійська вулиця,07403,50.5079395,30.8323853
21,вулиця Сергія Москаленка,07403,50.5072011,30.8261390
35,вулиця Сергія Москаленка,07403,50.5061595,30.8287313
17,вулиця Броварської Сотні,07403,50.5075064,30.8426790
2,вулиця Металургів,07400,50.5218453,30.8110219
2А,вулиця Лесі Українки,07404,50.5013644,30.7448469
13,вулиця Вʼячеслава Чорновола,07405,50.5158062,30.7778569
243,Київська вулиця,07405,50.5167712,30.7841198
245,Київська вулиця,07405,50.5174982,30.7832517
34,вулиця Ярослава Мудрого,07401,50.5000144,30.7788210
32,вулиця Ярослава Мудрого,07401,50.4997694,30.7784656
1,вулиця Дмитра Гамалія,07401,50.5205445,30.7783855
45,вулиця Василя Симоненка,07405,50.5150573,30.7744732
8-Б,вулиця Олега Оникієнка,07403,50.5069815,30.8198194
8-А,вулиця Олега Онікієнка,07403,50.5067922,30.8184348
15-А,вулиця Броварської Сотні,07403,50.5107823,30.8456265
265,Київська вулиця,07405,50.5258825,30.7910874
58-А,вулиця Чорних Запорожців,07400,50.5192521,30.7964481
60,Обʼїзна дорога,07400,50.4943942,30.8283356
7,вулиця Володимира Савченка,07400,50.5179463,30.7968978
12,Львівська вулиця,07400,50.5138385,30.7935007
219,Київська вулиця,07400,50.5064923,30.7768107
8-Б,вулиця Сергія Москаленка,07403,50.5066938,30.8220441
21,вулиця Металургів,07400,50.5209520,30.8116979
18в,бульвар Незалежності,07400,50.5223375,30.8117309
2А,вулиця Січових Стрільців,07402,50.5213716,30.8166988
55,вулиця Ярослава Мудрого,07400,50.5046432,30.7929351
2,Київська вулиця,07400,50.4910399,30.7424862
15,вулиця Івана Пулюя,07400,50.4914260,30.7848539
60-В,вулиця Чорних Запорожців,07406,50.5204410,30.7963884
3,провулок Чорних Запорожців,07406,50.5201016,30.7962851
1,провулок Чорних Запорожців,07406,50.5202257,30.7960811
20,вулиця Симона Петлюри,07400,50.5219043,30.8033437
21-Б,вулиця Симона Петлюри,07406,50.5233985,30.7957704
5,Порошкова вулиця,07400,50.5301211,30.8222790
2,Порошкова вулиця,07400,50.5286922,30.8194895
53,бульвар Незалежності,07402,50.5294593,30.8187120
36-А,вулиця Симона Петлюри,07406,50.5250054,30.7980564
241,Київська вулиця,07405,50.5158246,30.7834236
14,Підприємницька вулиця,07403,50.5027159,30.8230658
61,вулиця Олега Оникієнка,07403,50.5128814,30.8156453
243-А,Київська вулиця,07405,50.5165613,30.7831207
2-А,вулиця Вʼячеслава Чорновола,07405,50.5167422,30.7822361
7,Підприємницька вулиця,07403,50.5017716,30.8299610
6,вулиця Євгенія Зеленського,07400,50.4916017,30.7482314
52,вулиця Злагоди,07400,50.5191096,30.7767104
2,бульвар Незалежності,07400,50.5115825,30.7933066
4,Козацька вулиця,07405,50.5238322,30.7808930
51,вулиця Драгоманова,07400,50.5266346,30.7832420
49,вулиця Драгоманова,07400,50.5267923,30.7837991
9,вулиця Стефаника,07400,50.5267584,30.7845284
55,вулиця Драгоманова,07400,50.5263468,30.7823219
59,вулиця Драгоманова,07400,50.5260744,30.7816828
63,вулиця Драгоманова,07400,50.5257888,30.7808427
65,вулиця Драгоманова,07400,50.5255813,30.7805851
41,вулиця Драгоманова,07400,50.5273148,30.7861021
47,вулиця Драгоманова,07400,50.5271537,30.7849586
145,вулиця Драгоманова,07400,50.5211327,30.7671167
141,вулиця Драгоманова,07400,50.5213642,30.7676820
139,вулиця Драгоманова,07400,50.5214363,30.7680891
137,вулиця Драгоманова,07400,50.5215868,30.7683898
135,вулиця Драгоманова,07400,50.5216303,30.7688408
131,вулиця Драгоманова,07400,50.5218797,30.7694771
129,вулиця Драгоманова,07400,50.5219700,30.7699163
127,вулиця Драгоманова,07400,50.5220412,30.7703810
125,вулиця Драгоманова,07400,50.5221418,30.7707458
121,вулиця Драгоманова,07400,50.5224075,30.7715706
97,вулиця Драгоманова,07400,50.5238184,30.7755235
99,вулиця Драгоманова,07400,50.5237728,30.7751647
101,вулиця Драгоманова,07400,50.5236854,30.7748757
103,вулиця Драгоманова,07400,50.5235763,30.7746015
107,вулиця Драгоманова,07400,50.5233738,30.7740423
109,вулиця Драгоманова,07400,50.5232654,30.7737627
111,вулиця Драгоманова,07400,50.5231559,30.7734488
113,вулиця Драгоманова,07400,50.5230430,30.7731739
115,вулиця Драгоманова,07400,50.5229321,30.7728513
117,вулиця Драгоманова,07400,50.5227428,30.7725369
73,вулиця Драгоманова,07400,50.5251800,30.7790445
75,вулиця Драгоманова,07400,50.5250934,30.7787233
79,вулиця Драгоманова,07400,50.5248291,30.7781413
81,вулиця Драгоманова,07400,50.5247575,30.7778784
83,вулиця Драгоманова,07400,50.5246365,30.7775619
85,вулиця Драгоманова,07400,50.5244868,30.7774037
91,вулиця Драгоманова,07400,50.5242796,30.7764837
93/95,вулиця Драгоманова,07400,50.5240707,30.7759036
3,Козацька вулиця,07400,50.5220679,30.7817789
5,Козацька вулиця,07400,50.5218453,30.7819205
1,Козацька вулиця,07400,50.5222366,30.7816587
2А,Козацька вулиця,07405,50.5248802,30.7798450
7,провулок Драгоманова,07400,50.5258431,30.7822451
5,провулок Драгоманова,07400,50.5259584,30.7826130
3,провулок Драгоманова,07400,50.5260482,30.7831480
14,вулиця Куліша,07400,50.5255875,30.7824215
16,вулиця Куліша,07400,50.5254996,30.7820802
18,вулиця Куліша,07400,50.5253578,30.7815518
20,вулиця Куліша,07400,50.5251559,30.7808018
10,вулиця Куліша,07400,50.5259695,30.7837478
8,вулиця Куліша,07400,50.5261577,30.7843470
6,вулиця Куліша,07400,50.5262695,30.7840801
2Б,вулиця Куліша,07400,50.5259650,30.7850551
2,вулиця Куліша,07400,50.5265098,30.7845492
253,Київська вулиця,07400,50.5217256,30.7875408
253,Київська вулиця,07405,50.5210048,30.7862494
1,Київська вулиця,07401,50.4923856,30.7428325
6,вулиця Марії Лагунової,07400,50.5154441,30.7916368
92,Київська вулиця,07401,50.4954404,30.7575066
2,вулиця Броварської Сотні,07403,50.5043936,30.8448024
4,вулиця Броварської Сотні,07403,50.5040034,30.8454903
6,вулиця Броварської Сотні,07403,50.5037010,30.8460744
8,вулиця Броварської Сотні,07403,50.5043012,30.8441142
1,вулиця Броварської Сотні,07403,50.5049000,30.8461628
1-А,вулиця Володимира Савченка,07400,50.5183829,30.7961893
57-А,вулиця Чорних Запорожців,07400,50.5190466,30.7922274
17-А,вулиця Марії Лагунової,07400,50.5183496,30.7937179
306-А,Київська вулиця,07400,50.5186168,30.7905024
11-А,вулиця Марії Лагунової,07400,50.5175687,30.7900926
306,Київська вулиця,07400,50.5191693,30.7886794
21-В,вулиця Симона Петлюри,07406,50.5234260,30.7943801
35,Батуринська вулиця,07403,50.5067796,30.8111999
6-А,вулиця Вʼячеслава Чорновола,07405,50.5176506,30.7809955
6,вулиця Вʼячеслава Чорновола,07405,50.5165647,30.7802605
4,вулиця Вʼячеслава Чорновола,07405,50.5169147,30.7812712
247,Київська вулиця,07405,50.5179135,30.7850532
68,вулиця Шолом-Алейхема,07400,50.5067003,30.7797128
2,вулиця Вʼячеслава Чорновола,07405,50.5162658,30.7819376
45,вулиця Сергія Москаленка,07403,50.5048363,30.8325221
43,вулиця Сергія Москаленка,07403,50.5044898,30.8327547
41,вулиця Сергія Москаленка,07403,50.5041542,30.8329866
47,вулиця Сергія Москаленка,07403,50.5052119,30.8327929
49,вулиця Сергія Москаленка,07403,50.5051905,30.8340709
51,вулиця Сергія Москаленка,07403,50.5061226,30.8342041
117,вулиця Василя Симоненка,07405,50.5231677,30.7876494
257,Київська вулиця,07405,50.5229181,30.7896347
261-А,Київська вулиця,07405,50.5242582,30.7889419
263,Київська вулиця,07405,50.5242959,30.7899591
9-А,вулиця Павла Чубинського,07405,50.5242748,30.7863324
265/2,Київська вулиця,07405,50.5252392,30.7905989
265/3,Київська вулиця,07405,50.5257855,30.7901097
11,вулиця Павла Чубинського,07405,50.5234170,30.7856732
255-А,Київська вулиця,07405,50.5224520,30.7892564
3а,вулиця Грушевського,07400,50.5004241,30.7878955
1-Б,вулиця Грушевського,07400,50.5002091,30.7881775
249-А,Київська вулиця,07405,50.5185780,30.7832583
249,Київська вулиця,07405,50.5185443,30.7840994
249-Б,Київська вулиця,07405,50.5184906,30.7823369
63,вулиця Василя Симоненка,07405,50.5177159,30.7765754
10-А,вулиця Вʼячеслава Чорновола,07405,50.5179923,30.7759463
12,вулиця Вʼячеслава Чорновола,07405,50.5180370,30.7756168
12-А,вулиця Вʼячеслава Чорновола,07405,50.5181860,30.7752743
44,вулиця Злагоди,07405,50.5183329,30.7750498
46,вулиця Злагоди,07405,50.5185234,30.7751900
12,вулиця Чупринки,07405,50.5185562,30.7756204
35,вулиця Злагоди,07405,50.5183031,30.7744852
27,вулиця Сергія Москаленка,07403,50.5070530,30.8265844
6/1,Олімпійська вулиця,07403,50.5075191,30.8331583
12-А,Олімпійська вулиця,07403,50.5086907,30.8375821
7,Олімпійська вулиця,07403,50.5088485,30.8331545
7-А,Олімпійська вулиця,07403,50.5086215,30.8335318
4,Олімпійська вулиця,07403,50.5062755,30.8330003
8,вулиця Поповича,07403,50.5085408,30.8266038
17,вулиця Сергія Москаленка,07403,50.5078573,30.8249793
5,вулиця Сергія Москаленка,07403,50.5081396,30.8243577
8-А,вулиця Сергія Москаленка,07403,50.5074854,30.8215037
2,вулиця Сергія Москаленка,07403,50.5090936,30.8210589
71,вулиця Олега Онікієнка,07403,50.5110780,30.8214748
73,вулиця Олега Онікієнка,07403,50.5113222,30.8219007
75,вулиця Олега Онікієнка,07403,50.5116378,30.8224414
69,вулиця Олега Онікієнка,07403,50.5107304,30.8208660
69-Б,вулиця Олега Онікієнка,07403,50.5112979,30.8199667
71-А,вулиця Олега Онікієнка,07403,50.5113677,30.8204064
73-Б,вулиця Олега Онікієнка,07403,50.5114399,30.8208244
17,Вокзальний провулок,07403,50.5095395,30.8138697
39,вулиця Сергія Москаленка,07403,50.5045190,30.8319706
14,вулиця Шевченка,07400,50.5106310,30.7650383
28,вулиця Ярослава Мудрого,07401,50.4996549,30.7779260
28-А,вулиця Ярослава Мудрого,07401,50.4993442,30.7786780
222,Київська вулиця,07400,50.5059560,30.7773985
151а,Київська вулиця,07401,50.4995999,30.7684081
5,вулиця Геологів,07404,50.5000024,30.7462523
19,вулиця Сергія Москаленка,07403,50.5075622,30.8256378
19-А,вулиця Сергія Москаленка,07403,50.5076897,30.8263707
125,вулиця Олега Онікієнка,07403,50.5171814,30.8315803
3,вулиця Броварської Сотні,07403,50.5142254,30.8294110
127,вулиця Олега Онікієнка,07403,50.5182911,30.8337427
129А,вулиця Олега Онікієнка,07403,50.5198500,30.8348564
129,вулиця Олега Онікієнка,07403,50.5200094,30.8363875
131,вулиця Олега Онікієнка,07403,50.5231484,30.8397476
14,Білодібровна вулиця,07404,50.5049354,30.7539368
6,вулиця Лесі Українки,07404,50.5017552,30.7461173
4,вулиця Лесі Українки,07404,50.5016600,30.7457390
2Б,вулиця Лесі Українки,07404,50.5015075,30.7453885
8,вулиця Лесі Українки,07404,50.5018478,30.7465162
10,вулиця Лесі Українки,07404,50.5019253,30.7470007
14,вулиця Лесі Українки,07404,50.5019783,30.7480590
16,вулиця Лесі Українки,07404,50.5019989,30.7484497
18,вулиця Лесі Українки,07404,50.5020237,30.7488436
20,вулиця Лесі Українки,07404,50.5020511,30.7492423
22,вулиця Лесі Українки,07404,50.5020639,30.7496411
24,вулиця Лесі Українки,07404,50.5021095,30.7501951
26/2,вулиця Лесі Українки,07404,50.5021998,30.7507435
11,вулиця Олександра Білана,07404,50.5014482,30.7481350
13,вулиця Олександра Білана,07404,50.5014681,30.7485249
15,вулиця Олександра Білана,07404,50.5014683,30.7489190
17,вулиця Олександра Білана,07404,50.5015218,30.7493087
19,вулиця Олександра Білана,07404,50.5015595,30.7497021
21,вулиця Олександра Білана,07404,50.5015486,30.7501545
16-Г,вулиця Сергія Москаленка,07403,50.5062930,30.8267407
16,вулиця Сергія Москаленка,07403,50.5064571,30.8264044
23-А,вулиця Гельсінської Групи,07403,50.5173315,30.8219060
14-А,вулиця Гельсінської Групи,07403,50.5161587,30.8253537
14-Б,вулиця Гельсінської Групи,07403,50.5162695,30.8241144
88,вулиця Грушевського,07400,50.5020650,30.7879763
4,вулиця Аркадія Голуба,07400,50.5013231,30.7878807
24,вулиця Ярослава Мудрого,07401,50.4993913,30.7773502
90,вулиця Ярослава Мудрого,07400,50.5023336,30.7892515
90,вулиця Ярослава Мудрого,07400,50.5024028,30.7888553
90-А,вулиця Ярослава Мудрого,07400,50.5022251,30.7896978
16,вулиця Сергія Москаленка,07403,50.5070050,30.8253777
20,Гетьманська вулиця,07403,50.5067396,30.8082553
22,Гетьманська вулиця,07403,50.5067907,30.8085290
16,Гетьманська вулиця,07403,50.5066115,30.8077055
42,Гетьманська вулиця,07403,50.5074509,30.8116377
6,вулиця Олега Онікієнка,07403,50.5081820,30.8146032
6,вулиця Олега Онікієнка,07403,50.5075437,30.8148861
57,вулиця Олега Онікієнка,07403,50.5086432,30.8110241
10,Вокзальна вулиця,07403,50.5093746,30.8075122
9,Вокзальна вулиця,07403,50.5091161,30.8067455
57,вулиця Олега Онікієнка,07403,50.5085534,30.8128594
3,Батуринська вулиця,07403,50.5057106,30.8059637
1-А,Батуринська вулиця,07403,50.5055948,30.8054456
31-А,Батуринська вулиця,07403,50.5067703,30.8105813
21-А,Батуринська вулиця,07403,50.5064304,30.8089661
6,Батуринська вулиця,07403,50.5052067,30.8063294
8,Батуринська вулиця,07403,50.5054138,30.8065959
2,вулиця Олега Онікієнка,07403,50.5069271,30.8131890
139,вулиця Академіка Амосова,07400,50.5109984,30.7629750
77,вулиця Олега Онікієнка,07403,50.5123659,30.8228403
61,вулиця Олега Онікієнка,07403,50.5093920,30.8174072
8/1,Олімпійська вулиця,07403,50.5082593,30.8349991
239,Київська вулиця,07405,50.5148959,30.7827195
21-А,вулиця Грушевського,07400,50.5034256,30.7803967
21-А,вулиця Героїв України,07400,50.5100201,30.7938651
1,Вокзальна вулиця,07403,50.5113963,30.8094130
7,Вокзальна вулиця,07403,50.5128452,30.8117371
22,Вокзальна вулиця,07403,50.5112025,30.8098683
3/1,Вокзальна вулиця,07403,50.5120436,30.8107612
24,Вокзальна вулиця,07403,50.5118176,30.8111821
38,Вокзальна вулиця,07403,50.5119253,30.8113350
32,Вокзальна вулиця,07403,50.5121317,30.8115657
40,Вокзальна вулиця,07403,50.5128334,30.8124878
5,Вокзальна вулиця,07403,50.5131049,30.8131145
52,Вокзальна вулиця,07403,50.5133373,30.8133621
16/1,вулиця Сергія Москаленка,07403,50.5050243,30.8247965
52,вулиця Металургів,07400,50.5283391,30.7988633
53/1,бульвар Незалежності,07400,50.5314441,30.8218460
9/1,вулиця Гельсінської Групи,07403,50.5157602,30.8249468
18,Соборна вулиця,07405,50.5184393,30.7816339
30-А,вулиця Василя Симоненка,07400,50.5157878,30.7761494
47,вулиця Ярослава Мудрого,07400,50.5025758,30.7821083
31,бульвар Незалежності,07400,50.5250736,30.8103392
61,вулиця Олега Онікієнка,07403,50.5111161,30.8181869
6,Підприємницька вулиця,07403,50.5012984,30.8245136
18,вулиця Сергія Москаленка,07403,50.5039841,30.8292083
16-Б,вулиця Сергія Москаленка,07403,50.5051026,30.8277698
18,Підприємницька вулиця,07403,50.5032012,30.8216886
20,Підприємницька вулиця,07403,50.5039705,30.8186983
107-Б,вулиця Василя Симоненка,07405,50.5228647,30.7871145
105,вулиця Василя Симоненка,07405,50.5228729,30.7847869
111,вулиця Василя Симоненка,07405,50.5227786,30.7886477
23а,вулиця Гельсінської Групи,07403,50.5168298,30.8210790
2,Порошкова вулиця,07400,50.5276947,30.8237877
18-А,Підприємницька вулиця,07403,50.4995374,30.8225003
30,вулиця Василя Симоненка,07400,50.5166270,30.7770758
20,Соборна вулиця,07405,50.5193305,30.7835965
247/1,Київська вулиця,07405,50.5179221,30.7838446
30/1,вулиця Василя Симоненка,07405,50.5158701,30.7771294
251,Київська вулиця,07405,50.5189479,30.7854967
64,Київська вулиця,07401,50.4934389,30.7524869
3,Базова вулиця,07403,50.5191726,30.8432232
8,Виробнича вулиця,07403,50.5164085,30.8494716
8А,вулиця Куліша,07400,50.5247639,30.7810153
9А,вулиця Куліша,07400,50.5247597,30.7816890
6А,вулиця Куліша,07400,50.5251729,30.7829003
7,вулиця Куліша,07400,50.5253852,30.7835758
3,вулиця Куліша,07400,50.5257851,30.7846332
20/1,Соборна вулиця,07405,50.5190113,30.7841318
12,Олімпійська вулиця,07403,50.5078349,30.8370241
9,Східна вулиця,07403,50.5038179,30.8364663
221-В,Київська вулиця,07401,50.5071959,30.7761883
2,вулиця Миколи Міхновського,07403,50.5088458,30.8273055
2,вулиця Будівельників,07403,50.5088208,30.8387954
2-Б,вулиця Олега Онікієнка,07403,50.5056713,30.8032072
13,вулиця Героїв Небесної Сотні,07400,50.5084966,30.7831891
10,провулок Корольова,07400,50.5102772,30.7828541
8,вулиця Вʼячеслава Чорновола,07405,50.5170088,30.7788753
8-Б,вулиця Вʼячеслава Чорновола,07405,50.5172984,30.7777973
8-В,вулиця Вʼячеслава Чорновола,07405,50.5172713,30.7796310
34,вулиця Василя Симоненка,07405,50.5177535,30.7783335
32,вулиця Василя Симоненка,07405,50.5179419,30.7777274
21,Соборна вулиця,07405,50.5178546,30.7793428
251-А,Київська вулиця,07405,50.5194077,30.7844568
107,вулиця Василя Симоненка,07405,50.5228738,30.7856113
107-А,вулиця Василя Симоненка,07405,50.5228660,30.7863678
13,вулиця Павла Чубинського,07405,50.5243455,30.7846735
9,вулиця Павла Чубинського,07405,50.5247592,30.7859393
28,вулиця Симона Петлюри,07406,50.5226566,30.8017464
70,вулиця Василя Симоненка,07405,50.5218218,30.7846331
68,вулиця Василя Симоненка,07405,50.5216513,30.7843712
66,вулиця Василя Симоненка,07405,50.5214755,30.7844752
10,Козацька вулиця,07405,50.5211614,30.7835745
64,вулиця Василя Симоненка,07405,50.5212189,30.7842636
62,вулиця Василя Симоненка,07405,50.5213354,30.7839225
4,вулиця Вʼячеслава Чорновола,07405,50.5170088,30.7814138
235,Київська вулиця,07400,50.5122820,30.7811085
1,провулок Івана Сокура,07405,50.5134167,30.7812300
235-А,Київська вулиця,07405,50.5128194,30.7806351
16,бульвар Незалежності,07400,50.5203628,30.8067621
13,вулиця Павла Полуботка,07404,50.4998659,30.7563757
5-А,бульвар Незалежності,07400,50.5140594,30.7912582
8-А,бульвар Незалежності,07400,50.5141966,30.7982192
3-А,вулиця Марії Лагунової,07400,50.5149408,30.7881317
1,вулиця Павла Чубинського,07405,50.5254388,30.7895677
1,вулиця Павла Чубинського,07405,50.5253343,30.7895836
37,вулиця Сергія Москаленка,07403,50.5055159,30.8297326
3,вулиця Ярослава Мудрого,07401,50.4999835,30.7748769
6,вулиця Євгена Сверстюка,07401,50.5010905,30.7782289
6,вулиця Євгена Сверстюка,07401,50.5011736,30.7780581
14-А,вулиця Олега Онікієнка,07403,50.5087319,30.8185288
298,Київська вулиця,07400,50.5166521,30.7866875
18-А,вулиця Марії Лагунової,07400,50.5168515,30.7954734
6,вулиця Марії Лагунової,07400,50.5154333,30.7916669
1,Київська вулиця,07401,50.4923941,30.7428837
74,вулиця Чорних Запорожців,07406,50.5229910,30.7924815
161,Київська вулиця,07401,50.5007832,30.7723494
4,вулиця Винниченка,07401,50.5028687,30.7700394
4,вулиця Винниченка,07401,50.5026566,30.7695682
130,Благодатна вулиця,07401,50.4993285,30.7608794
130,Благодатна вулиця,07401,50.4992708,30.7611731
165,Київська вулиця,07401,50.5011075,30.7726895
177,Київська вулиця,07401,50.5029044,30.7738049
54,Вокзальна вулиця,07403,50.5142711,30.8149658
32,вулиця Броварської Сотні,07403,50.5036267,30.8416615
6,Козацька вулиця,07405,50.5234988,30.7811557
2,Козацька вулиця,07405,50.5245915,30.7800223
69,вулиця Драгоманова,07405,50.5254046,30.7797994
71,вулиця Драгоманова,07405,50.5253012,30.7793996
2в,Козацька вулиця,07405,50.5251247,30.7795548
19,вулиця Павла Чубинського,07405,50.5239883,30.7814357
19,вулиця Павла Чубинського,07400,50.5237003,30.7817325
11-Д,вулиця Симона Петлюри,07400,50.5170561,30.8093397
15,вулиця Металургів,07402,50.5196437,30.8155531
5,Підприємницька вулиця,07403,50.5029965,30.8307547
5,Підприємницька вулиця,07403,50.5026950,30.8300561
21,вулиця Ірини Цвілої,07400,50.5114588,30.7964928
17-А,вулиця Грушевського,07400,50.5046358,30.7791729
11,Базова вулиця,07403,50.5176021,30.8462309
30,вулиця Броварської Сотні,07403,50.5030184,30.8400227
30-А,вулиця Броварської Сотні,07403,50.5036491,30.8409024
32-А,вулиця Броварської Сотні,07403,50.5031892,30.8412247
6,Холодильний провулок,07403,50.5078206,30.8179749
8,Холодильний провулок,07403,50.5077826,30.8184042
12,Холодильний провулок,07403,50.5077274,30.8193772
10,Холодильний провулок,07403,50.5077892,30.8189088
14,Холодильний провулок,07403,50.5076675,30.8197603
16,Холодильний провулок,07403,50.5076188,30.8202922
16,Холодильний провулок,07403,50.5072931,30.8202471
8-В,вулиця Олега Онікієнка,07403,50.5072348,30.8183348
14-Б,бульвар Незалежності,07400,50.5187443,30.8048813
38,вулиця Злагоди,07405,50.5169337,30.7748151
37,вулиця Злагоди,07405,50.5185491,30.7745609
15,вулиця Павла Чубинського,07405,50.5239642,30.7834376
1-Б,вулиця Леоніда Каденюка,07403,50.5096080,30.8260270
1,вулиця Ярослава Мудрого,07401,50.4995391,30.7741210
18,вулиця Ярослава Мудрого,07401,50.4995018,30.7765595
154,Київська вулиця,07401,50.4981591,30.7677973
54,вулиця Будівельників,07403,50.5147320,30.8477979
20-Б,вулиця Героїв України,07400,50.5095830,30.7902078
1,Батуринська вулиця,07403,50.5056125,30.8055310
26/1,вулиця Лесі Українки,07404,50.5021347,30.7507773
91,Київська вулиця,07404,50.4963669,30.7568516
15-Г,вулиця Грушевського,07400,50.5054166,30.7840932
49,вулиця Сергія Москаленка,07403,50.5055074,30.8338208
49,вулиця Сергія Москаленка,07403,50.5058219,30.8335794
28,вулиця Ярослава Мудрого,07401,50.4993686,30.7780604
28,вулиця Ярослава Мудрого,07401,50.4990851,30.7781893
55,вулиця Сергія Москаленка,07403,50.5068201,30.8359376
"261, секція 1",Київська вулиця,07405,50.5233784,30.7892642
"261, секція 3",Київська вулиця,07405,50.5238428,30.7896677
131/2,вулиця Олега Онікієнка,07403,50.5217823,30.8395903
45,вулиця Василя Симоненка,07405,50.5150958,30.7744116
4,вулиця Павла Чубинського,07405,50.5263747,30.7877894
4,вулиця Павла Чубинського,07405,50.5264428,30.7877765
23,вулиця Сергія Москаленка,07403,50.5074022,30.8259733
15-А,вулиця Павла Чубинського,07405,50.5235792,30.7838828
13-А,вулиця Павла Чубинського,07405,50.5238467,30.7850082
7,вулиця Павла Чубинського,07405,50.5250709,30.7871768
7-А,вулиця Павла Чубинського,07405,50.5246643,30.7875209
46а,вулиця Василя Симоненка,07400,50.5153981,30.7749018
46,вулиця Василя Симоненка,07400,50.5152157,30.7747494
30,Симоненка,07400,50.5162101,30.7772575
30/30а,вулиця Василя Симоненка,07400,50.5159182,30.7766394
2,вулиця Вʼячеслава Чорновола,07400,50.5154809,30.7819319
30,Симоненка,07400,50.5236673,30.7820279
6,вулиця Володимира Великого,07403,50.5087938,30.8305940
80,Благодатна вулиця,04404,50.4979235,30.7524000
15-Б,бульвар Незалежності,07400,50.5191991,30.7995611
13,вулиця Героїв Небесної Сотні,07400,50.5085031,30.7832235
11-А,вулиця Марії Лагунової,07400,50.5172235,30.7907356
2-Б,бульвар Незалежності,07400,50.5119050,30.7949694
9,Підприємницька вулиця,07403,50.5013961,30.8285599
3,вулиця Гродзиського Повіту,07400,50.4980800,30.7842556
153,Київська вулиця,07401,50.4995056,30.7698677
3,бульвар Незалежності,07400,50.5129669,30.7929261
53,вулиця Сергія Москаленка,07403,50.5065271,30.8350297
7,бульвар Незалежності,07400,50.5145424,30.7953501
27-Б,вулиця Фіалковського,07404,50.5038653,30.7551796
