House number,Street name,Postal code,Latitude,Longitude
233,Baldridgeburn,KY12 9EG,56.0772292,-3.4774444
80,Rumblingwell,KY12 9AS,56.0779866,-3.4809527
22,Whimbrel Place,KY11 8EX,56.0785589,-3.3957142
29,Malcolm Street,KY11 4TS,56.0633258,-3.4446562
13,Nethertown Broad Street,KY12 7DS,56.0664506,-3.4565837
21,Chalmers Street,KY12 8AT,56.0716888,-3.4663931
142,Hospital Hill,KY11 3AU,56.0613429,-3.4446112
8,Blackburn Avenue,KY12 9BQ,56.0815929,-3.4881170
131,Garvock Hill,KY11 4JU,56.0757198,-3.4262229
Unit 7a,Whimbrel Place,KY11 8EX,56.0775140,-3.3948662
Unit 7b,Whimbrel Place,KY11 8EX,56.0774194,-3.3948479
42,East Port,KY12 7JB,56.0717763,-3.4571935
73,Main Street,KY11 8EE,56.0807942,-3.4031725
127,High Street,KY12 7DR,56.0712923,-3.4597091
115,High Street,KY12 7DR,56.0713673,-3.4602294
1,East Port,KY12 7JG,56.0714604,-3.4587134
92,High Street,KY12 7DP,56.0715386,-3.4605131
96-98,High Street,KY12 7DP,56.0715491,-3.4603548
7,East Port,KY12 7JG,56.0715009,-3.4585036
10,Cross Wynd,KY12 7AP,56.0717359,-3.4616082
104 -106,High Street,KY12 7DP,56.0715630,-3.4600139
45,Carnegie Drive,KY12 7AN,56.0727893,-3.4616327
64,Pilmuir Street,KY12 0QG,56.0749050,-3.4611854
39-41,Chalmers Street,KY12 8AT,56.0719545,-3.4666040
9,Chalmers Street,KY12 8AT,56.0714243,-3.4661872
131,Garvock Hill,KY11 4JU,56.0757041,-3.4261335
74,Appin Crescent,KY12 7QS,56.0737830,-3.4494200
87,Main Street,KY12 0EN,56.0889996,-3.4389821
37,Canmore Street,KY12 7NX,56.0700446,-3.4577503
23,Guildhall Street,KY12 7NR,56.0705925,-3.4617146
23,Guildhall Street,KY12 7NR,56.0707257,-3.4617146
10,Guildhall Street,KY12 7NS,56.0710701,-3.4614866
18,Guildhall Street,KY12 7NS,56.0709263,-3.4614705
20,Guildhall Street,KY12 7NS,56.0708620,-3.4614491
24,Guildhall Street,KY12 7NS,56.0708290,-3.4614437
26-28,Guildhall Street,KY12 7NS,56.0707452,-3.4614410
12,Abbot Street,KY12 7NW,56.0706628,-3.4622698
8,Maygate,KY12 7NH,56.0707961,-3.4635171
11,Carnegie Drive,KY12 7AN,56.0727823,-3.4632640
82,Halbeath Road,KY12 7RS,56.0769938,-3.4350674
7,Halbeath Road,KY12 7QZ,56.0742355,-3.4438547
80,Pilmuir Street,KY12 0LN,56.0767564,-3.4610797
3,Craigluscar Lane,KY12 9JB,56.0847350,-3.4984576
27,Bridge Street,KY12 8AQ,56.0710520,-3.4651240
11,Broomhead Drive,KY12 9DT,56.0770557,-3.4655717
13,Abbey Park Place,KY12 7PT,56.0696654,-3.4599712
6-8,Halbeath Road,KY12 7QX,56.0744426,-3.4444262
62,Hospital Hill,KY11 3AT,56.0621754,-3.4467394
85,Main Street,KY12 0EN,56.0889684,-3.4389899
6,Castle Drive,KY11 8GG,56.0489664,-3.4217521
47,Aberdour Road,KY11 4PB,56.0608522,-3.4373104
3,Aberdour Road,KY11 4PB,56.0611108,-3.4435582
7,Pitreavie Court,KY11 8UU,56.0487672,-3.4331120
15,Pitreavie Court,KY11 8UU,56.0483266,-3.4345447
6,Canmore Street,KY12 7PX,56.0706697,-3.4606494
10,Canmore Street,KY12 7NT,56.0704648,-3.4597872
95-97,Campbell Street,KY12 0QW,56.0743865,-3.4578952
12,Fyne Brae,KY11 8XG,56.0756895,-3.4036798
165,Robertson Road,KY12 0BL,56.0828812,-3.4323169
43,Bellyeoman Road,KY12 0AE,56.0761413,-3.4471778
11-13,East Port,KY12 7JY,56.0713955,-3.4582391
79â€“83,High Street,KY12 7DR,56.0712186,-3.4613631
1,Castle View,KY11 8PF,56.0485523,-3.4155171
9,Guildhall Street,KY12 7NR,56.0709478,-3.4617544
19,Abbey Park Place,KY12 7PT,56.0697811,-3.4583569
14,St Margaret Street,KY12 7NU,56.0700615,-3.4614083
60,Pilmuir Street,KY12 0QG,56.0748567,-3.4608348
6,Alderston Drive,KY12 0XU,56.0817380,-3.4361352
120,Halbeath Road,KY11 4LA,56.0788563,-3.4237030
50,Rumblingwell,KY12 9AS,56.0780705,-3.4805160
174,Golfdrum Street,KY12 8DX,56.0754299,-3.4747619
209,Baldridgeburn,KY12 9EG,56.0769245,-3.4764665
199,Baldridgeburn,KY12 9EG,56.0770001,-3.4762101
191-193,Baldridgeburn,KY12 9EG,56.0768784,-3.4758642
90,Campbell Street,KY12 0QL,56.0748489,-3.4578089
40-48,Campbell Street,KY12 0QJ,56.0747547,-3.4594222
39,Priory Lane,KY12 7DU,56.0679610,-3.4596515
131,Garvock Hill,KY11 4JU,56.0758331,-3.4263494
139,Halbeath Road,KY11 4LA,56.0778141,-3.4245474
22,Townhill Road,KY12 0QX,56.0748434,-3.4517200
25,Townhill Road,KY12 0QY,56.0749206,-3.4512954
17,Bellyeoman Road,KY12 0AE,56.0750700,-3.4498702
"19,21",Bellyeoman Road,KY12 0AE,56.0751118,-3.4494434
27-29,Bellyeoman Road,KY12 0AE,56.0752268,-3.4491787
10,Bellyeoman Road,KY12 0AD,56.0757123,-3.4493478
"3,5",Bellyeoman Road,KY12 0AE,56.0749245,-3.4511432
31,Albany Street,KY12 0QX,56.0751193,-3.4532932
126,Grieve Street,KY12 8DW,56.0745492,-3.4744702
73,Elgin Street,KY12 7SD,56.0645763,-3.4589714
2,Tay Terrace,KY11 4BS,56.0654207,-3.4254843
4,Tay Terrace,KY11 4BS,56.0653599,-3.4254720
6,Ross Street,KY12 0AN,56.0779680,-3.4484253
8,Ross Street,KY12 0AN,56.0779540,-3.4482735
12,Ross Street,KY12 0AN,56.0779237,-3.4478441
10,Ross Street,KY12 0AN,56.0779407,-3.4480179
16,Ross Street,KY12 0AN,56.0778841,-3.4473668
14,Ross Street,KY12 0AN,56.0778998,-3.4475491
20,Ross Street,KY12 0AN,56.0778561,-3.4469534
18,Ross Street,KY12 0AN,56.0778717,-3.4471374
24,Ross Street,KY12 0AN,56.0778073,-3.4465169
22,Ross Street,KY12 0AN,56.0778196,-3.4466793
"6,8",Robertson Road,KY12 0AS,56.0791648,-3.4481004
"14,16",Robertson Road,KY12 0AS,56.0790748,-3.4477556
"18,20",Robertson Road,KY12 0AS,56.0790386,-3.4476185
"30,32",Robertson Road,KY12 0AS,56.0788571,-3.4470529
"34,36",Robertson Road,KY12 0AS,56.0788127,-3.4469252
"22,24",Robertson Road,KY12 0AS,56.0789650,-3.4474279
"26,28",Robertson Road,KY12 0AS,56.0789170,-3.4472792
"17,19",Robertson Road,KY12 0AS,56.0793692,-3.4475070
"13,15",Robertson Road,KY12 0AS,56.0794036,-3.4476365
"9,11",Robertson Road,KY12 0AS,56.0794572,-3.4478509
"5,7",Robertson Road,KY12 0AS,56.0794887,-3.4479837
"25,27",Robertson Road,KY12 0AS,56.0792871,-3.4471783
"21,23",Robertson Road,KY12 0AS,56.0793232,-3.4472991
"33,35",Robertson Road,KY12 0AS,56.0791795,-3.4468816
"29,31",Robertson Road,KY12 0AS,56.0792240,-3.4470104
"41,43",Robertson Road,KY12 0AS,56.0790717,-3.4465760
"37,39",Robertson Road,KY12 0AS,56.0791083,-3.4466874
"44,46",Robertson Road,KY12 0AS,56.0787006,-3.4465738
"40,42",Robertson Road,KY12 0AS,56.0787369,-3.4466912
"45,47",Robertson Road,KY12 0AR,56.0788425,-3.4458100
"49,51",Robertson Road,KY12 0AR,56.0788162,-3.4456879
"53,55",Robertson Road,KY12 0AR,56.0787778,-3.4454767
"57,59",Robertson Road,KY12 0AR,56.0787559,-3.4453309
"4,6",Haig Crescent,KY12 0BD,56.0791710,-3.4453712
8.10,Haig Crescent,KY12 0BD,56.0791458,-3.4452319
"10,12",Beatty Place,KY12 0BE,56.0797431,-3.4463703
"6,8",Beatty Place,KY12 0BE,56.0797175,-3.4462306
"18,20",Beatty Place,KY12 0BE,56.0798064,-3.4466927
"14,16",Beatty Place,KY12 0BE,56.0797874,-3.4465668
"26,28",Beatty Place,KY12 0BE,56.0798361,-3.4470641
"22,24",Beatty Place,KY12 0BE,56.0798232,-3.4469164
"49,51",Craigmyle Street,KY12 0BT,56.0805592,-3.4449857
"53,55",Craigmyle Street,KY12 0BT,56.0805678,-3.4448489
"45,47",Craigmyle Street,KY12 0BT,56.0805302,-3.4451734
"41,43",Craigmyle Street,KY12 0BT,56.0805205,-3.4453077
"61,63",Craigmyle Street,KY12 0BT,56.0805794,-3.4445287
"57,59",Craigmyle Street,KY12 0BT,56.0805692,-3.4446584
"37,39",Craigmyle Street,KY12 0BT,56.0805046,-3.4455123
"33,35",Craigmyle Street,KY12 0BT,56.0804932,-3.4456644
"54,56",Craigmyle Street,KY12 0BT,56.0802657,-3.4449501
"50,52",Craigmyle Street,KY12 0BT,56.0802563,-3.4450828
"62,64",Craigmyle Street,KY12 0BT,56.0802894,-3.4446206
"58,60",Craigmyle Street,KY12 0BT,56.0802797,-3.4447522
"70,72",Craigmyle Street,KY12 0BT,56.0803293,-3.4442731
"66,68",Craigmyle Street,KY12 0BT,56.0803177,-3.4444191
"31,33",Adamson Crescent,KY12 0AZ,56.0799809,-3.4447535
"35,37",Adamson Crescent,KY12 0AZ,56.0799927,-3.4446050
"23,25",Adamson Crescent,KY12 0AZ,56.0799074,-3.4451656
"27,29",Adamson Crescent,KY12 0AZ,56.0799387,-3.4450324
"15,17",Adamson Crescent,KY12 0AZ,56.0797829,-3.4455409
"19,21",Adamson Crescent,KY12 0AZ,56.0798322,-3.4454181
"19,21",Haig Crescent,KY12 0BD,56.0793444,-3.4441987
"23,25",Haig Crescent,KY12 0BD,56.0793419,-3.4440501
"11,13",Haig Crescent,KY12 0BD,56.0793429,-3.4445695
"15,17",Haig Crescent,KY12 0BD,56.0793357,-3.4444200
"27,29",Haig Crescent,KY12 0BD,56.0793319,-3.4438423
"31,33",Haig Crescent,KY12 0BD,56.0793381,-3.4436944
"35,37",Haig Crescent,KY12 0BD,56.0793826,-3.4434170
"39,41",Haig Crescent,KY12 0BD,56.0794310,-3.4432920
"43,45",Haig Crescent,KY12 0BD,56.0795092,-3.4431049
"47,49",Haig Crescent,KY12 0BD,56.0795574,-3.4429831
"68,70",Haig Crescent,KY12 0BD,56.0794377,-3.4424748
"72,74",Haig Crescent,KY12 0BD,56.0794854,-3.4423553
"60,62",Haig Crescent,KY12 0BD,56.0793172,-3.4427619
"64,66",Haig Crescent,KY12 0BD,56.0793670,-3.4426409
"52,54",Haig Crescent,KY12 0BD,56.0791988,-3.4430528
"56,58",Haig Crescent,KY12 0BD,56.0792462,-3.4429264
"44,46",Haig Crescent,KY12 0BD,56.0790956,-3.4433737
"48,50",Haig Crescent,KY12 0BD,56.0791313,-3.4432416
"117,119",Robertson Road,KY12 0AR,56.0789001,-3.4425479
"121,123",Robertson Road,KY12 0AR,56.0789465,-3.4424241
"137,139",Robertson Road,KY12 0AR,56.0792124,-3.4417378
"133,135",Robertson Road,KY12 0AR,56.0791643,-3.4418597
"87,89",Adamson Crescent,KY12 0AZ,56.0797608,-3.4416896
"91,93",Adamson Crescent,KY12 0AZ,56.0797228,-3.4415514
"99,101",Adamson Crescent,KY12 0AZ,56.0796182,-3.4412165
"95,97",Adamson Crescent,KY12 0AZ,56.0796567,-3.4413478
"83,85",Adamson Crescent,KY12 0AZ,56.0798266,-3.4419058
"79,81",Adamson Crescent,KY12 0AZ,56.0798646,-3.4420363
"75,77",Adamson Crescent,KY12 0AZ,56.0799236,-3.4422591
"71,73",Adamson Crescent,KY12 0AZ,56.0799559,-3.4424019
"67,69",Adamson Crescent,KY12 0AZ,56.0800011,-3.4426472
"63,65",Adamson Crescent,KY12 0AZ,56.0800196,-3.4427898
"59,61",Adamson Crescent,KY12 0AZ,56.0800430,-3.4430417
"50,52",Lauder Street,KY12 0BX,56.0810076,-3.4448460
"54,56",Lauder Street,KY12 0BX,56.0810080,-3.4447168
"42,44",Lauder Street,KY12 0BX,56.0810036,-3.4452312
"46,48",Lauder Street,KY12 0BX,56.0810040,-3.4451019
"41,43",Lauder Street,KY12 0BX,56.0812745,-3.4452320
"45,47",Lauder Street,KY12 0BX,56.0812747,-3.4451028
"33,35",Lauder Street,KY12 0BX,56.0813075,-3.4456027
"37,39",Lauder Street,KY12 0BX,56.0812980,-3.4454659
"34,36",Lauder Street,KY12 0BX,56.0810123,-3.4456659
"38,40",Lauder Street,KY12 0BX,56.0810063,-3.4455380
"26,28",Lauder Street,KY12 0BX,56.0810262,-3.4460173
"30,32",Lauder Street,KY12 0BX,56.0810202,-3.4458895
"18,20",Lauder Street,KY12 0BX,56.0810762,-3.4464306
"22,24",Lauder Street,KY12 0BX,56.0810628,-3.4463044
"10,12",Lauder Street,KY12 0BX,56.0811157,-3.4467986
"14,16",Lauder Street,KY12 0BX,56.0811024,-3.4466725
"17,19",Lauder Street,KY12 0BX,56.0813557,-3.4463315
"21,23",Lauder Street,KY12 0BX,56.0813423,-3.4462054
"25,27",Lauder Street,KY12 0BX,56.0813294,-3.4459623
"29,31",Lauder Street,KY12 0BX,56.0813213,-3.4458348
"9,11",Lauder Street,KY12 0BX,56.0814013,-3.4467185
"13,15",Lauder Street,KY12 0BX,56.0813843,-3.4465695
"9,11",Donald Street,KY12 0BY,56.0821108,-3.4460285
"13,15",Donald Street,KY12 0BY,56.0821217,-3.4458924
"17,19",Donald Street,KY12 0BY,56.0821452,-3.4456062
"21,23",Donald Street,KY12 0BY,56.0821543,-3.4454683
"25,27",Donald Street,KY12 0BY,56.0821814,-3.4451742
"29,31",Donald Street,KY12 0BY,56.0821910,-3.4450398
"1,3",Donald Street,KY12 0BY,56.0820978,-3.4464451
"5,7",Donald Street,KY12 0BY,56.0820952,-3.4463064
2,Kingseat Road,KY12 0DD,56.0830158,-3.4458861
4,Kingseat Road,KY12 0DD,56.0830336,-3.4457147
2,York Place,KY12 0DA,56.0827848,-3.4449862
1,York Place,KY12 0DA,56.0828023,-3.4448352
4,York Place,KY12 0DA,56.0827487,-3.4453727
3,York Place,KY12 0DA,56.0827637,-3.4452210
6,York Place,KY12 0DA,56.0827320,-3.4457863
5,York Place,KY12 0DA,56.0827470,-3.4456346
6,Kingseat Road,KY12 0DD,56.0830585,-3.4455091
8,Kingseat Road,KY12 0DD,56.0830786,-3.4453410
10,Kingseat Road,KY12 0DD,56.0830998,-3.4451390
12,Kingseat Road,KY12 0DD,56.0831193,-3.4449770
11,York Place,KY12 0DA,56.0824609,-3.4453053
12,York Place,KY12 0DA,56.0824757,-3.4451539
13,York Place,KY12 0DA,56.0824944,-3.4449147
14,York Place,KY12 0DA,56.0825090,-3.4447630
9,York Place,KY12 0DA,56.0824095,-3.4457021
10,York Place,KY12 0DA,56.0824241,-3.4455504
7,York Place,KY12 0DA,56.0825915,-3.4459879
8,York Place,KY12 0DA,56.0825069,-3.4459609
"53,55",Lauder Street,KY12 0BX,56.0812766,-3.4447254
"49,51",Lauder Street,KY12 0BX,56.0812763,-3.4448547
"39,41",Adamson Crescent,KY12 0AZ,56.0800125,-3.4443166
"43,45",Adamson Crescent,KY12 0AZ,56.0800220,-3.4441414
21,Christie Street,KY12 0AQ,56.0775351,-3.4482497
19,Christie Street,KY12 0AQ,56.0774570,-3.4482558
15,Christie Street,KY12 0AQ,56.0772832,-3.4482921
17,Christie Street,KY12 0AQ,56.0773612,-3.4482859
5,Christie Street,KY12 0AQ,56.0767926,-3.4483702
7,Christie Street,KY12 0AQ,56.0768555,-3.4483656
"62,64",Robertson Road,KY12 0AP,56.0784112,-3.4452682
"66,68",Robertson Road,KY12 0AP,56.0783993,-3.4450879
"58,60",Robertson Road,KY12 0AP,56.0784460,-3.4455300
"54,56",Robertson Road,KY12 0AP,56.0784736,-3.4457061
"65,67",Robertson Road,KY12 0AR,56.0787366,-3.4449275
"61,63",Robertson Road,KY12 0AR,56.0787511,-3.4451041
"16,18",Haig Crescent,KY12 0BD,56.0790824,-3.4448202
"12,14",Haig Crescent,KY12 0BD,56.0791002,-3.4449956
"20,22",Haig Crescent,KY12 0BD,56.0790734,-3.4445763
"24,26",Haig Crescent,KY12 0BD,56.0790651,-3.4444318
"32,34",Haig Crescent,KY12 0BD,56.0790608,-3.4440574
"28,20",Haig Crescent,KY12 0BD,56.0790618,-3.4442075
"73,75",Robertson Road,KY12 0AR,56.0786883,-3.4445404
"69,71",Robertson Road,KY12 0AR,56.0786971,-3.4446907
"81,83",Robertson Road,KY12 0AR,56.0786601,-3.4441559
"77,79",Robertson Road,KY12 0AR,56.0786693,-3.4443059
"74,76",Robertson Road,KY12 0AP,56.0783732,-3.4447108
"70,72",Robertson Road,KY12 0AP,56.0783833,-3.4448633
"82,84",Robertson Road,KY12 0AP,56.0783474,-3.4443420
"78,80",Robertson Road,KY12 0AP,56.0783570,-3.4444944
"97,99",Robertson Road,KY12 0AR,56.0786270,-3.4434849
"93,95",Robertson Road,KY12 0AR,56.0786295,-3.4436333
"105,107",Robertson Road,KY12 0AR,56.0786919,-3.4430998
"101,103",Robertson Road,KY12 0AR,56.0786626,-3.4432389
"85,87",Robertson Road,KY12 0AR,56.0786588,-3.4439417
"89,91",Robertson Road,KY12 0AR,56.0786522,-3.4438099
"109,111",Robertson Road,KY12 0AR,56.0787631,-3.4428954
"113,115",Robertson Road,KY12 0AR,56.0788202,-3.4427435
"129,131",Robertson Road,KY12 0AR,56.0790948,-3.4420834
"125,127",Robertson Road,KY12 0AR,56.0790387,-3.4422343
1,Cleish Road,KY11 4DB,56.0655603,-3.4212586
82,James Street,KY12 7QF,56.0724306,-3.4550975
83,James Street,KY12 7QF,56.0725676,-3.4550931
80,James Street,KY12 7QF,56.0721343,-3.4550859
81,James Street,KY12 7QF,56.0722885,-3.4551020
78,James Street,KY12 7QF,56.0721007,-3.4552512
72,James Street,KY12 7QF,56.0721063,-3.4558633
74,James Street,KY12 7QF,56.0721048,-3.4556569
76,James Street,KY12 7QF,56.0721027,-3.4554523
56,Bennachie Way,KY11 8JA,56.0624023,-3.3977473
54,Bennachie Way,KY11 8JA,56.0623131,-3.3977600
52,Bennachie Way,KY11 8JA,56.0622264,-3.3977734
2,Old Linburn Road,KY11 4UP,56.0729101,-3.4178934
58,Bennachie Way,KY11 8JA,56.0623958,-3.3983415
60,Bennachie Way,KY11 8JA,56.0623075,-3.3983402
62,Bennachie Way,KY11 8JA,56.0622219,-3.3983142
50,Bennachie Way,KY11 8JA,56.0623397,-3.3974022
45,Lorimer Gardens,KY12 0BJ,56.0805830,-3.4341014
41,Lorimer Gardens,KY12 0BJ,56.0806420,-3.4343402
37,Lorimer Gardens,KY12 0BJ,56.0807484,-3.4345254
32,Paton Street,KY12 0BU,56.0807549,-3.4438112
34,Paton Street,KY12 0BU,56.0806974,-3.4437979
13,Willowbank Brae,KY12 0FA,56.0807023,-3.4426936
11,Willowbank Brae,KY12 0FA,56.0806887,-3.4427912
9,Willowbank Brae,KY12 0FA,56.0806754,-3.4428887
7,Willowbank Brae,KY12 0FA,56.0806618,-3.4429863
5,Willowbank Brae,KY12 0FA,56.0806369,-3.4433035
3,Willowbank Brae,KY12 0FA,56.0806300,-3.4433998
1,Willowbank Brae,KY12 0FA,56.0806230,-3.4434961
19,Willowbank Brae,KY12 0FA,56.0807287,-3.4422407
17,Willowbank Brae,KY12 0FA,56.0807265,-3.4423377
25,Willowbank Brae,KY12 0FA,56.0805035,-3.4421136
23,Willowbank Brae,KY12 0FA,56.0805576,-3.4421172
21,Willowbank Brae,KY12 0FA,56.0806117,-3.4421207
14,Willowbank Brae,KY12 0FA,56.0804665,-3.4427474
12,Willowbank Brae,KY12 0FA,56.0804541,-3.4428365
10,Willowbank Brae,KY12 0FA,56.0804418,-3.4429250
8,Willowbank Brae,KY12 0FA,56.0804224,-3.4431951
6,Willowbank Brae,KY12 0FA,56.0804154,-3.4432854
4,Willowbank Brae,KY12 0FA,56.0804119,-3.4436091
2,Willowbank Brae,KY12 0FA,56.0804110,-3.4437003
"51,53",Adamson Crescent,KY12 0AZ,56.0800468,-3.4434526
"47,49",Adamson Crescent,KY12 0AZ,56.0800405,-3.4436291
27,Shields Road,KY11 4DY,56.0685369,-3.4255359
29,Shields Road,KY11 4DY,56.0685844,-3.4255751
31,Shields Road,KY11 4DY,56.0686261,-3.4256076
33,Shields Road,KY11 4DY,56.0686742,-3.4256339
75,Main Street,KY12 0EN,56.0889174,-3.4380976
1-3,Glen Beasdale Court,KY11 8TJ,56.0597512,-3.4338358
8,Cleish Road,KY11 4DE,56.0656658,-3.4208090
6,Cleish Road,KY11 4DE,56.0657123,-3.4209029
4,Cleish Road,KY11 4DE,56.0657534,-3.4209863
2,Cleish Road,KY11 4DE,56.0657953,-3.4210728
6,Blackwood Green,KY11 8QG,56.0500787,-3.4199133
2,Blackwood Green,KY11 8QG,56.0503085,-3.4198213
8,Blackwood Green,KY11 8QG,56.0499421,-3.4199901
1,Blackwood Green,KY11 8QG,56.0500280,-3.4192529
3,Blackwood Green,KY11 8QG,56.0499560,-3.4194508
10,Blackwood Green,KY11 8QG,56.0498004,-3.4199528
18,Blackwood Green,KY11 8QG,56.0491984,-3.4192810
16,Blackwood Green,KY11 8QG,56.0493977,-3.4196519
12,Blackwood Green,KY11 8QG,56.0496504,-3.4198327
14,Blackwood Green,KY11 8QG,56.0495232,-3.4197836
4,Blackwood Green,KY11 8QG,56.0502574,-3.4200430
120,Aberdour Road,KY11 4QY,56.0611650,-3.4284747
13,Calaisburn Place,KY11 4RD,56.0613757,-3.4281038
11,Calaisburn Place,KY11 4RD,56.0612966,-3.4281023
7,Calaisburn Place,KY11 4RD,56.0611305,-3.4280992
9,Calaisburn Place,KY11 4RD,56.0612135,-3.4281007
1,Calaisburn Place,KY11 4RD,56.0611203,-3.4276731
3,Calaisburn Place,KY11 4RD,56.0611193,-3.4278218
5,Calaisburn Place,KY11 4RD,56.0611183,-3.4279719
2,Calaisburn Place,KY11 4RD,56.0609570,-3.4272168
15,Calaisburn Place,KY11 4RD,56.0614774,-3.4280821
17,Calaisburn Place,KY11 4RD,56.0615604,-3.4280837
19,Calaisburn Place,KY11 4RD,56.0616434,-3.4281153
21,Calaisburn Place,KY11 4RD,56.0617266,-3.4281167
4,Calaisburn Place,KY11 4RD,56.0610737,-3.4272381
6,Calaisburn Place,KY11 4RD,56.0611455,-3.4272403
10,Calaisburn Place,KY11 4RD,56.0613285,-3.4272459
8,Calaisburn Place,KY11 4RD,56.0612567,-3.4272436
14,Calaisburn Place,KY11 4RD,56.0615139,-3.4272489
12,Calaisburn Place,KY11 4RD,56.0614420,-3.4272466
18,Calaisburn Place,KY11 4RD,56.0617021,-3.4272531
16,Calaisburn Place,KY11 4RD,56.0616302,-3.4272507
22,Calaisburn Place,KY11 4RD,56.0618854,-3.4273326
20,Calaisburn Place,KY11 4RD,56.0618135,-3.4273303
25,Calaisburn Place,KY11 4RD,56.0614916,-3.4277476
23,Calaisburn Place,KY11 4RD,56.0614233,-3.4277454
27,Calaisburn Place,KY11 4RD,56.0616082,-3.4277068
29,Calaisburn Place,KY11 4RD,56.0616983,-3.4277506
33,Calaisburn Place,KY11 4RD,56.0618860,-3.4279592
31,Calaisburn Place,KY11 4RD,56.0618183,-3.4279571
35,Calaisburn Place,KY11 4RD,56.0620004,-3.4279816
37,Calaisburn Place,KY11 4RD,56.0620723,-3.4279839
39,Calaisburn Place,KY11 4RD,56.0621873,-3.4279920
41,Calaisburn Place,KY11 4RD,56.0622591,-3.4279943
43,Calaisburn Place,KY11 4RD,56.0623719,-3.4279952
45,Calaisburn Place,KY11 4RD,56.0624959,-3.4278934
47,Calaisburn Place,KY11 4RD,56.0624991,-3.4277030
49,Calaisburn Place,KY11 4RD,56.0624998,-3.4275743
50,Calaisburn Place,KY11 4RD,56.0625005,-3.4274449
48,Calaisburn Place,KY11 4RD,56.0625011,-3.4273157
46,Calaisburn Place,KY11 4RD,56.0625013,-3.4271866
30,Calaisburn Place,KY11 4RD,56.0619706,-3.4271070
32,Calaisburn Place,KY11 4RD,56.0620383,-3.4271094
34,Calaisburn Place,KY11 4RD,56.0621062,-3.4270897
38,Calaisburn Place,KY11 4RD,56.0622420,-3.4270726
36,Calaisburn Place,KY11 4RD,56.0621740,-3.4270922
42,Calaisburn Place,KY11 4RD,56.0623770,-3.4270553
40,Calaisburn Place,KY11 4RD,56.0623094,-3.4270751
44,Calaisburn Place,KY11 4RD,56.0624446,-3.4270575
24,Calaisburn Place,KY11 4RD,56.0619892,-3.4274522
26,Calaisburn Place,KY11 4RD,56.0620725,-3.4274239
28,Calaisburn Place,KY11 4RD,56.0621556,-3.4274259
9,Aberdour Road,KY11 4PB,56.0611362,-3.4424011
5,Blackwood Green,KY11 8QG,56.0497620,-3.4194142
7,Blackwood Green,KY11 8QG,56.0495736,-3.4192483
8,Lorimer Gardens,KY12 0BJ,56.0814807,-3.4325512
4,Lorimer Gardens,KY12 0BJ,56.0815207,-3.4323050
12,Lorimer Gardens,KY12 0BJ,56.0814290,-3.4327994
20,Lorimer Gardens,KY12 0BJ,56.0813458,-3.4332478
11,Balfour Court,KY12 0BH,56.0794048,-3.4388324
10,Balfour Court,KY12 0BH,56.0794770,-3.4388578
9,Balfour Court,KY12 0BH,56.0795492,-3.4388833
8,Balfour Court,KY12 0BH,56.0796197,-3.4389074
40,Craigston Drive,KY12 0XE,56.0782518,-3.4349592
42,Craigston Drive,KY12 0XE,56.0781956,-3.4349106
34,Craigston Drive,KY12 0XE,56.0784403,-3.4350958
36,Craigston Drive,KY12 0XE,56.0783913,-3.4350581
30,Craigston Drive,KY12 0XE,56.0785873,-3.4352205
28,Craigston Drive,KY12 0XE,56.0786581,-3.4352930
32,Craigston Drive,KY12 0XE,56.0785281,-3.4351730
44,Craigston Drive,KY12 0XE,56.0781368,-3.4348571
38,Craigston Drive,KY12 0XE,56.0783456,-3.4350243
6,Myers Court,KY12 0XF,56.0785832,-3.4338599
2,Myers Court,KY12 0XF,56.0787360,-3.4339962
30,Killochan Way,KY12 0XT,56.0806056,-3.4350647
31,Killochan Way,KY12 0XT,56.0805125,-3.4349648
44,Killochan Way,KY12 0XT,56.0805127,-3.4356574
45,Killochan Way,KY12 0XT,56.0803921,-3.4358557
47,Killochan Way,KY12 0XT,56.0802672,-3.4360000
9,Craigston Drive,KY12 0XE,56.0784147,-3.4343209
4,Myers Court,KY12 0XF,56.0786753,-3.4339332
12,Myers Court,KY12 0XF,56.0783686,-3.4336949
10,Myers Court,KY12 0XF,56.0784422,-3.4337456
8,Myers Court,KY12 0XF,56.0785375,-3.4338235
41,Killochan Way,KY12 0XT,56.0802184,-3.4354506
38,Killochan Way,KY12 0XT,56.0802434,-3.4351972
35,Killochan Way,KY12 0XT,56.0802719,-3.4349421
32,Killochan Way,KY12 0XT,56.0803017,-3.4346485
11,Kingseat Road,KY12 0DD,56.0835773,-3.4438921
7,Kingseat Road,KY12 0DD,56.0835338,-3.4444330
175,Townhill Road,KY12 0DQ,56.0834754,-3.4450116
3,Kingseat Road,KY12 0DD,56.0833702,-3.4453583
1,Kingseat Road,KY12 0DD,56.0832862,-3.4456153
9,Blackwood Green,KY11 8QG,56.0494098,-3.4190084
1,Elliot Street,KY11 4TF,56.0657265,-3.4531186
9,Craigievar Close,KY12 0XY,56.0799661,-3.4273151
7,Craigievar Close,KY12 0XY,56.0799413,-3.4275144
5,Craigievar Close,KY12 0XY,56.0799237,-3.4277287
3,Craigievar Close,KY12 0XY,56.0799150,-3.4279471
1,Craigievar Close,KY12 0XY,56.0799131,-3.4281531
11,Craigievar Close,KY12 0XY,56.0799511,-3.4271007
14,Craigievar Close,KY12 0XY,56.0796755,-3.4267698
12,Craigievar Close,KY12 0XY,56.0796515,-3.4269970
10,Craigievar Close,KY12 0XY,56.0796273,-3.4271687
8,Craigievar Close,KY12 0XY,56.0795854,-3.4273621
6,Craigievar Close,KY12 0XY,56.0796796,-3.4277863
4,Craigievar Close,KY12 0XY,56.0795687,-3.4277054
2,Craigievar Close,KY12 0XY,56.0794604,-3.4276656
71,Craigston Park,KY12 0XZ,56.0796633,-3.4283542
73,Craigston Park,KY12 0XZ,56.0795910,-3.4284737
75,Craigston Park,KY12 0XZ,56.0795255,-3.4286377
77,Craigston Park,KY12 0XZ,56.0796395,-3.4288874
79,Craigston Park,KY12 0XZ,56.0796874,-3.4292763
81,Craigston Park,KY12 0XZ,56.0796718,-3.4294076
83,Craigston Park,KY12 0XZ,56.0796280,-3.4294803
85,Craigston Park,KY12 0XZ,56.0795821,-3.4295907
87,Craigston Park,KY12 0XZ,56.0794921,-3.4292280
89,Craigston Park,KY12 0XZ,56.0792747,-3.4288149
91,Craigston Park,KY12 0XZ,56.0792546,-3.4289648
93,Craigston Park,KY12 0XZ,56.0791890,-3.4292519
95,Craigston Park,KY12 0XZ,56.0791520,-3.4294088
97,Craigston Park,KY12 0XZ,56.0791499,-3.4296187
101,Craigston Park,KY12 0XZ,56.0792902,-3.4297903
99,Craigston Park,KY12 0XZ,56.0792433,-3.4297204
103,Craigston Park,KY12 0XZ,56.0794811,-3.4298924
105,Craigston Park,KY12 0XZ,56.0794316,-3.4300479
107,Craigston Park,KY12 0XZ,56.0793958,-3.4301402
69,Craigston Park,KY12 0XZ,56.0799205,-3.4283456
67,Craigston Park,KY12 0XZ,56.0799168,-3.4285237
65,Craigston Park,KY12 0XZ,56.0799357,-3.4286861
63,Craigston Park,KY12 0XZ,56.0799472,-3.4288530
61,Craigston Park,KY12 0XZ,56.0799353,-3.4290247
59,Craigston Park,KY12 0XZ,56.0799640,-3.4292079
57,Craigston Park,KY12 0XZ,56.0799753,-3.4294041
55,Craigston Park,KY12 0XZ,56.0799647,-3.4296098
53,Craigston Park,KY12 0XZ,56.0799109,-3.4298559
51,Craigston Park,KY12 0XZ,56.0798106,-3.4300210
49,Craigston Park,KY12 0XZ,56.0797352,-3.4301833
56,Craigston Park,KY12 0XZ,56.0787044,-3.4317935
54,Craigston Park,KY12 0XZ,56.0788144,-3.4317403
52,Craigston Park,KY12 0XZ,56.0789086,-3.4316506
50,Craigston Park,KY12 0XZ,56.0790279,-3.4314218
48,Craigston Park,KY12 0XZ,56.0790776,-3.4315562
46,Craigston Park,KY12 0XZ,56.0791182,-3.4316379
44,Craigston Park,KY12 0XZ,56.0792337,-3.4316550
42,Craigston Park,KY12 0XZ,56.0793232,-3.4316818
40,Craigston Park,KY12 0XZ,56.0794163,-3.4317132
38,Craigston Park,KY12 0XZ,56.0795145,-3.4317446
36,Craigston Park,KY12 0XZ,56.0794729,-3.4313184
34,Craigston Park,KY12 0XZ,56.0794475,-3.4310960
32,Craigston Park,KY12 0XZ,56.0794367,-3.4308840
30,Craigston Park,KY12 0XZ,56.0795018,-3.4307334
28,Craigston Park,KY12 0XZ,56.0795368,-3.4306492
26,Craigston Park,KY12 0XZ,56.0795957,-3.4304968
24,Craigston Park,KY12 0XZ,56.0797215,-3.4307902
22,Craigston Park,KY12 0XZ,56.0797174,-3.4310628
20,Craigston Park,KY12 0XZ,56.0797036,-3.4312308
18,Craigston Park,KY12 0XZ,56.0797044,-3.4314208
16,Craigston Park,KY12 0XZ,56.0796957,-3.4315977
14,Craigston Park,KY12 0XZ,56.0796590,-3.4317964
12,Craigston Park,KY12 0XZ,56.0796595,-3.4319745
10,Craigston Park,KY12 0XZ,56.0796297,-3.4321220
8,Craigston Park,KY12 0XZ,56.0796209,-3.4322286
6,Craigston Park,KY12 0XZ,56.0795841,-3.4323773
4,Craigston Park,KY12 0XZ,56.0795729,-3.4324933
2,Craigston Park,KY12 0XZ,56.0795322,-3.4327128
1,Craigston Park,KY12 0XZ,56.0798751,-3.4328072
3,Craigston Park,KY12 0XZ,56.0798369,-3.4326296
5,Craigston Park,KY12 0XZ,56.0800048,-3.4328272
7,Craigston Park,KY12 0XZ,56.0801130,-3.4328827
9,Craigston Park,KY12 0XZ,56.0801267,-3.4324832
11,Craigston Park,KY12 0XZ,56.0801734,-3.4323063
13,Craigston Park,KY12 0XZ,56.0801555,-3.4321044
15,Craigston Park,KY12 0XZ,56.0799975,-3.4320870
17,Craigston Park,KY12 0XZ,56.0798967,-3.4321052
19,Craigston Park,KY12 0XZ,56.0799528,-3.4318118
21,Craigston Park,KY12 0XZ,56.0799737,-3.4317105
23,Craigston Park,KY12 0XZ,56.0799715,-3.4315289
25,Craigston Park,KY12 0XZ,56.0801552,-3.4317132
27,Craigston Park,KY12 0XZ,56.0802728,-3.4316382
29,Craigston Park,KY12 0XZ,56.0802435,-3.4313393
31,Craigston Park,KY12 0XZ,56.0802319,-3.4311241
33,Craigston Park,KY12 0XZ,56.0801587,-3.4309231
35,Craigston Park,KY12 0XZ,56.0799839,-3.4310113
37,Craigston Park,KY12 0XZ,56.0799884,-3.4306992
39,Craigston Park,KY12 0XZ,56.0801074,-3.4306148
41,Craigston Park,KY12 0XZ,56.0801188,-3.4303866
43,Craigston Park,KY12 0XZ,56.0800352,-3.4302212
2,Craigston Park,KY12 0XE,56.0796764,-3.4331974
4,Craigston Park,KY12 0XE,56.0796016,-3.4332506
6,Craigston Park,KY12 0XE,56.0794571,-3.4332757
8,Craigston Park,KY12 0XE,56.0794147,-3.4333357
10,Craigston Drive,KY12 0XE,56.0793297,-3.4334627
12,Craigston Drive,KY12 0XE,56.0792816,-3.4335740
14,Craigston Drive,KY12 0XE,56.0792137,-3.4337311
16,Craigston Drive,KY12 0XE,56.0791675,-3.4338488
18,Craigston Drive,KY12 0XE,56.0791140,-3.4340063
20,Craigston Drive,KY12 0XE,56.0790758,-3.4341298
22,Craigston Drive,KY12 0XE,56.0790284,-3.4342825
24,Craigston Drive,KY12 0XE,56.0790056,-3.4343686
26,Craigston Drive,KY12 0XE,56.0789747,-3.4344984
1,Craigston Drive,KY12 0XE,56.0786529,-3.4343280
3,Craigston Drive,KY12 0XE,56.0786207,-3.4344268
5,Craigston Drive,KY12 0XE,56.0786013,-3.4345041
7,Craigston Drive,KY12 0XE,56.0785733,-3.4346048
11,Craigston Drive,KY12 0XE,56.0783596,-3.4342665
13,Craigston Drive,KY12 0XE,56.0783038,-3.4342140
15,Craigston Drive,KY12 0XE,56.0781548,-3.4343417
17,Craigston Drive,KY12 0XE,56.0781329,-3.4344542
46,Craigston Drive,KY12 0XE,56.0780984,-3.4345812
1,Myers Court,KY12 0XF,56.0787899,-3.4335319
3,Myers Court,KY12 0XF,56.0788164,-3.4334314
5,Myers Court,KY12 0XF,56.0788452,-3.4333306
7,Myers Court,KY12 0XF,56.0789149,-3.4331727
9,Myers Court,KY12 0XF,56.0789435,-3.4330696
11,Myers Court,KY12 0XF,56.0789809,-3.4329974
13,Myers Court,KY12 0XF,56.0790280,-3.4329086
15,Myers Court,KY12 0XF,56.0789626,-3.4326339
17,Myers Court,KY12 0XF,56.0788914,-3.4325873
19,Myers Court,KY12 0XF,56.0788410,-3.4325485
32,Myers Court,KY12 0XF,56.0787399,-3.4324657
30,Myers Court,KY12 0XF,56.0786966,-3.4324054
26,Myers Court,KY12 0XF,56.0786307,-3.4323311
22,Myers Court,KY12 0XF,56.0784986,-3.4326561
24,Myers Court,KY12 0XF,56.0785338,-3.4325677
20,Myers Court,KY12 0XF,56.0784848,-3.4327672
18,Myers Court,KY12 0XF,56.0785525,-3.4332562
16,Myers Court,KY12 0XF,56.0784927,-3.4332238
14,Myers Court,KY12 0XF,56.0784343,-3.4331940
1,Kames Place,KY12 0XB,56.0798556,-3.4349613
3,Kames Place,KY12 0XB,56.0798710,-3.4348313
5,Kames Place,KY12 0XB,56.0798862,-3.4347056
7,Kames Place,KY12 0XB,56.0798916,-3.4345519
9,Kames Place,KY12 0XB,56.0799113,-3.4343449
11,Kames Place,KY12 0XB,56.0799282,-3.4342626
13,Kames Place,KY12 0XB,56.0799270,-3.4341618
15,Kames Place,KY12 0XB,56.0799470,-3.4340700
17,Kames Place,KY12 0XB,56.0799779,-3.4338966
19,Kames Place,KY12 0XB,56.0800044,-3.4337942
21,Kames Place,KY12 0XB,56.0800304,-3.4336914
23,Kames Place,KY12 0XB,56.0799386,-3.4334475
25,Kames Place,KY12 0XB,56.0798794,-3.4334285
24,Kames Place,KY12 0XB,56.0798286,-3.4333989
22,Kames Place,KY12 0XB,56.0797675,-3.4333716
20,Kames Place,KY12 0XB,56.0796457,-3.4336197
18,Kames Place,KY12 0XB,56.0796247,-3.4337542
16,Kames Place,KY12 0XB,56.0795881,-3.4339164
14,Kames Place,KY12 0XB,56.0795718,-3.4340082
12,Kames Place,KY12 0XB,56.0795674,-3.4341894
10,Kames Place,KY12 0XB,56.0795533,-3.4342833
8,Kames Place,KY12 0XB,56.0795550,-3.4344746
6,Kames Place,KY12 0XB,56.0795458,-3.4345742
4,Kames Place,KY12 0XB,56.0795654,-3.4346870
2,Kames Place,KY12 0XB,56.0795682,-3.4349723
1,Drummond Place,KY12 0XA,56.0795483,-3.4351223
3,Drummond Place,KY12 0XA,56.0795376,-3.4352509
5,Drummond Place,KY12 0XA,56.0795362,-3.4354874
7,Drummond Place,KY12 0XA,56.0795289,-3.4356389
9,Drummond Place,KY12 0XA,56.0795285,-3.4357739
11,Drummond Place,KY12 0XA,56.0795378,-3.4359890
12,Drummond Place,KY12 0XA,56.0795502,-3.4361241
15,Drummond Place,KY12 0XA,56.0795627,-3.4362577
17,Drummond Place,KY12 0XA,56.0797146,-3.4367715
19,Drummond Place,KY12 0XA,56.0797486,-3.4369245
24,Drummond Place,KY12 0XA,56.0802910,-3.4372266
22,Drummond Place,KY12 0XA,56.0802073,-3.4371056
20,Drummond Place,KY12 0XA,56.0800605,-3.4368877
18,Drummond Place,KY12 0XA,56.0800121,-3.4367601
16,Drummond Place,KY12 0XA,56.0799705,-3.4366446
14,Drummond Place,KY12 0XA,56.0798970,-3.4364494
12,Drummond Place,KY12 0XA,56.0798973,-3.4362804
10,Drummond Place,KY12 0XA,56.0798409,-3.4361507
8,Drummond Place,KY12 0XA,56.0798228,-3.4359018
6,Drummond Place,KY12 0XA,56.0798264,-3.4357608
4,Drummond Place,KY12 0XA,56.0798287,-3.4356197
2,Drummond Place,KY12 0XA,56.0798331,-3.4354360
2,Torwood Place,KY12 0XD,56.0795796,-3.4367076
4,Torwood Place,KY12 0XD,56.0795081,-3.4367193
6,Torwood Place,KY12 0XD,56.0793804,-3.4365562
8,Torwood Place,KY12 0XD,56.0793349,-3.4364525
10,Torwood Place,KY12 0XD,56.0792851,-3.4362424
12,Torwood Place,KY12 0XD,56.0792627,-3.4361134
14,Torwood Place,KY12 0XD,56.0792357,-3.4359005
16,Torwood Place,KY12 0XD,56.0792196,-3.4357741
18,Torwood Place,KY12 0XD,56.0792044,-3.4355443
20,Torwood Place,KY12 0XD,56.0792005,-3.4354144
22,Torwood Place,KY12 0XD,56.0791989,-3.4352137
24,Torwood Place,KY12 0XD,56.0792003,-3.4351151
26,Torwood Place,KY12 0XD,56.0791815,-3.4349330
28,Torwood Place,KY12 0XD,56.0791885,-3.4348358
32,Torwood Place,KY12 0XD,56.0793459,-3.4345559
30,Torwood Place,KY12 0XD,56.0792800,-3.4345463
1,Killochan Way,KY12 0XT,56.0804160,-3.4364716
5,Killochan Way,KY12 0XT,56.0804795,-3.4365861
6,Killochan Way,KY12 0XT,56.0805091,-3.4366331
7,Killochan Way,KY12 0XT,56.0805365,-3.4366778
8,Killochan Way,KY12 0XT,56.0806237,-3.4369385
9,Killochan Way,KY12 0XT,56.0806556,-3.4368739
10,Killochan Way,KY12 0XT,56.0807543,-3.4366753
11,Killochan Way,KY12 0XT,56.0807871,-3.4366116
12,Killochan Way,KY12 0XT,56.0808679,-3.4364131
13,Killochan Way,KY12 0XT,56.0809264,-3.4363195
14,Killochan Way,KY12 0XT,56.0810118,-3.4361450
15,Killochan Way,KY12 0XT,56.0810473,-3.4360720
16,Killochan Way,KY12 0XT,56.0811594,-3.4358850
17,Killochan Way,KY12 0XT,56.0812047,-3.4357592
18,Killochan Way,KY12 0XT,56.0812812,-3.4355480
19,Killochan Way,KY12 0XT,56.0812904,-3.4354659
20,Killochan Way,KY12 0XT,56.0812995,-3.4353817
21,Killochan Way,KY12 0XT,56.0811318,-3.4354356
22,Killochan Way,KY12 0XT,56.0810453,-3.4354060
23,Killochan Way,KY12 0XT,56.0808182,-3.4355313
24,Killochan Way,KY12 0XT,56.0808256,-3.4354654
25,Killochan Way,KY12 0XT,56.0808326,-3.4353972
26,Killochan Way,KY12 0XT,56.0808463,-3.4352794
27,Killochan Way,KY12 0XT,56.0808534,-3.4352146
28,Killochan Way,KY12 0XT,56.0808606,-3.4351456
29,Killochan Way,KY12 0XT,56.0808677,-3.4350800
33,Killochan Way,KY12 0XT,56.0802950,-3.4347497
34,Killochan Way,KY12 0XT,56.0802881,-3.4348206
36,Killochan Way,KY12 0XT,56.0802649,-3.4350077
37,Killochan Way,KY12 0XT,56.0802578,-3.4350727
39,Killochan Way,KY12 0XT,56.0802369,-3.4352628
40,Killochan Way,KY12 0XT,56.0802302,-3.4353306
42,Killochan Way,KY12 0XT,56.0802112,-3.4355152
43,Killochan Way,KY12 0XT,56.0802040,-3.4355820
46,Killochan Way,KY12 0XT,56.0803406,-3.4358752
48,Killochan Way,KY12 0XT,56.0802105,-3.4359979
2,Killochan Way,KY12 0XT,56.0806030,-3.4360635
4,Killochan Way,KY12 0XT,56.0806639,-3.4362179
3,Killochan Way,KY12 0XT,56.0807928,-3.4359392
2a-f,Lorimer Gardens,KY12 0BJ,56.0815538,-3.4320400
6,Lorimer Gardens,KY12 0BJ,56.0815016,-3.4324119
10,Lorimer Gardens,KY12 0BJ,56.0814585,-3.4326637
14,Lorimer Gardens,KY12 0BJ,56.0814108,-3.4329001
16,Lorimer Gardens,KY12 0BJ,56.0813927,-3.4329957
18,Lorimer Gardens,KY12 0BJ,56.0813753,-3.4330887
22,Lorimer Gardens,KY12 0BJ,56.0813156,-3.4333951
24,Lorimer Gardens,KY12 0BJ,56.0812859,-3.4335438
26,Lorimer Gardens,KY12 0BJ,56.0812402,-3.4337976
28,Lorimer Gardens,KY12 0BJ,56.0811490,-3.4340863
34,Lorimer Gardens,KY12 0BJ,56.0808702,-3.4339601
36,Lorimer Gardens,KY12 0BJ,56.0808966,-3.4338844
38,Lorimer Gardens,KY12 0BJ,56.0809281,-3.4338215
40,Lorimer Gardens,KY12 0BJ,56.0809456,-3.4337389
42,Lorimer Gardens,KY12 0BJ,56.0809689,-3.4336332
44,Lorimer Gardens,KY12 0BJ,56.0809942,-3.4335577
46,Lorimer Gardens,KY12 0BJ,56.0810264,-3.4334923
48,Lorimer Gardens,KY12 0BJ,56.0810434,-3.4334098
46,Lorimer Gardens,KY12 0BJ,56.0810651,-3.4333073
48,Lorimer Gardens,KY12 0BJ,56.0810881,-3.4332319
50,Lorimer Gardens,KY12 0BJ,56.0810929,-3.4331465
52,Lorimer Gardens,KY12 0BJ,56.0811096,-3.4330603
54,Lorimer Gardens,KY12 0BJ,56.0811372,-3.4329133
56,Lorimer Gardens,KY12 0BJ,56.0811613,-3.4327898
58,Lorimer Gardens,KY12 0BJ,56.0811875,-3.4326223
60,Lorimer Gardens,KY12 0BJ,56.0812047,-3.4324965
62,Lorimer Gardens,KY12 0BJ,56.0812153,-3.4323175
64,Lorimer Gardens,KY12 0BJ,56.0812001,-3.4322005
81,Lorimer Gardens,KY12 0BJ,56.0811088,-3.4320614
79,Lorimer Gardens,KY12 0BJ,56.0810499,-3.4320579
77,Lorimer Gardens,KY12 0BJ,56.0809588,-3.4321426
75,Lorimer Gardens,KY12 0BJ,56.0809089,-3.4322390
73,Lorimer Gardens,KY12 0BJ,56.0808658,-3.4323864
71,Lorimer Gardens,KY12 0BJ,56.0808308,-3.4324867
69,Lorimer Gardens,KY12 0BJ,56.0808939,-3.4326547
67,Lorimer Gardens,KY12 0BJ,56.0808756,-3.4327619
65,Lorimer Gardens,KY12 0BJ,56.0808437,-3.4328961
63,Lorimer Gardens,KY12 0BJ,56.0808164,-3.4330083
61,Lorimer Gardens,KY12 0BJ,56.0807801,-3.4331238
59,Lorimer Gardens,KY12 0BJ,56.0807559,-3.4332196
57,Lorimer Gardens,KY12 0BJ,56.0807178,-3.4333412
55,Lorimer Gardens,KY12 0BJ,56.0806858,-3.4334545
53,Lorimer Gardens,KY12 0BJ,56.0806466,-3.4335761
51,Lorimer Gardens,KY12 0BJ,56.0806213,-3.4336689
49,Lorimer Gardens,KY12 0BJ,56.0805940,-3.4338103
47,Lorimer Gardens,KY12 0BJ,56.0805757,-3.4339262
43,Lorimer Gardens,KY12 0BJ,56.0806081,-3.4342025
39,Lorimer Gardens,KY12 0BJ,56.0806745,-3.4344275
35,Lorimer Gardens,KY12 0BJ,56.0807916,-3.4345698
33,Lorimer Gardens,KY12 0BJ,56.0808317,-3.4345992
31,Lorimer Gardens,KY12 0BJ,56.0808778,-3.4346289
13-27,Lorimer Gardens,KY12 0BJ,56.0813694,-3.4349354
11,Lorimer Gardens,KY12 0BJ,56.0814340,-3.4343895
7-9,Lorimer Gardens,KY12 0BJ,56.0816194,-3.4336129
4,Alderston Drive,KY12 0XU,56.0817805,-3.4360162
3,Balfour Court,KY12 0BH,56.0797927,-3.4383900
2,Balfour Court,KY12 0BH,56.0797228,-3.4383462
1,Balfour Court,KY12 0BH,56.0796586,-3.4382838
4,Balfour Court,KY12 0BH,56.0799207,-3.4386591
5,Balfour Court,KY12 0BH,56.0798751,-3.4387586
6,Balfour Court,KY12 0BH,56.0798229,-3.4388422
7,Balfour Court,KY12 0BH,56.0797568,-3.4389055
12,Balfour Court,KY12 0BH,56.0792749,-3.4387625
13,Balfour Court,KY12 0BH,56.0792156,-3.4386863
14,Balfour Court,KY12 0BH,56.0791703,-3.4385867
15,Balfour Court,KY12 0BH,56.0791320,-3.4384653
16,Balfour Court,KY12 0BH,56.0793059,-3.4381359
17,Balfour Court,KY12 0BH,56.0792358,-3.4380871
18,Balfour Court,KY12 0BH,56.0791777,-3.4380160
19,Balfour Court,KY12 0BH,56.0791272,-3.4379256
20,Balfour Court,KY12 0BH,56.0790846,-3.4378103
21,Balfour Court,KY12 0BH,56.0792835,-3.4376110
22,Balfour Court,KY12 0BH,56.0793529,-3.4376278
23,Balfour Court,KY12 0BH,56.0794216,-3.4376659
24,Balfour Court,KY12 0BH,56.0794833,-3.4377335
25,Balfour Court,KY12 0BH,56.0798027,-3.4376197
1,Kilmartin Way,KY12 0BQ,56.0791746,-3.4394832
2-30,Kilmartin Way,KY12 0BQ,56.0790686,-3.4403257
31-34,Kilmartin Way,KY12 0BQ,56.0788583,-3.4411291
35-38,Kilmartin Way,KY12 0BQ,56.0790465,-3.4409884
90,Robertson Road,KY12 0AP,56.0788155,-3.4415681
1,Kinnaird Place,KY12 0XL,56.0830568,-3.4328321
3,Kinnaird Place,KY12 0XL,56.0830457,-3.4328796
9,Kinnaird Place,KY12 0XL,56.0829771,-3.4330909
11,Kinnaird Place,KY12 0XL,56.0829562,-3.4332082
13,Kinnaird Place,KY12 0XL,56.0829593,-3.4335857
5,Kinnaird Place,KY12 0XL,56.0830256,-3.4329401
7,Kinnaird Place,KY12 0XL,56.0830131,-3.4329958
15,Kinnaird Place,KY12 0XL,56.0828973,-3.4335837
17,Kinnaird Place,KY12 0XL,56.0828204,-3.4334987
19,Kinnaird Place,KY12 0XL,56.0827635,-3.4334828
21,Kinnaird Place,KY12 0XL,56.0827680,-3.4339938
23,Kinnaird Place,KY12 0XL,56.0827994,-3.4340111
25,Kinnaird Place,KY12 0XL,56.0828320,-3.4340322
27,Kinnaird Place,KY12 0XL,56.0828649,-3.4340746
29,Kinnaird Place,KY12 0XL,56.0828966,-3.4340905
31,Kinnaird Place,KY12 0XL,56.0827778,-3.4345527
33,Kinnaird Place,KY12 0XL,56.0827338,-3.4345244
35,Kinnaird Place,KY12 0XL,56.0826729,-3.4344528
37,Kinnaird Place,KY12 0XL,56.0826395,-3.4344281
39,Kinnaird Place,KY12 0XL,56.0826029,-3.4344216
41,Kinnaird Place,KY12 0XL,56.0825721,-3.4344003
43,Kinnaird Place,KY12 0XL,56.0825837,-3.4348037
45,Kinnaird Place,KY12 0XL,56.0825751,-3.4348539
47,Kinnaird Place,KY12 0XL,56.0825576,-3.4349245
49,Kinnaird Place,KY12 0XL,56.0825473,-3.4349821
51,Kinnaird Place,KY12 0XL,56.0825375,-3.4352688
53,Kinnaird Place,KY12 0XL,56.0825051,-3.4352212
55,Kinnaird Place,KY12 0XL,56.0824612,-3.4352438
57,Kinnaird Place,KY12 0XL,56.0824291,-3.4352219
59,Kinnaird Place,KY12 0XL,56.0823977,-3.4352076
61,Kinnaird Place,KY12 0XL,56.0823811,-3.4357108
63,Kinnaird Place,KY12 0XL,56.0823676,-3.4357698
65,Kinnaird Place,KY12 0XL,56.0823542,-3.4358290
67,Kinnaird Place,KY12 0XL,56.0823392,-3.4358920
69,Kinnaird Place,KY12 0XL,56.0825191,-3.4358286
71,Kinnaird Place,KY12 0XL,56.0825694,-3.4358788
54,Kinnaird Place,KY12 0XL,56.0826845,-3.4359869
52,Kinnaird Place,KY12 0XL,56.0827153,-3.4360017
50,Kinnaird Place,KY12 0XL,56.0827505,-3.4360248
48,Kinnaird Place,KY12 0XL,56.0827877,-3.4360360
46,Kinnaird Place,KY12 0XL,56.0828203,-3.4360512
44,Kinnaird Place,KY12 0XL,56.0828164,-3.4355461
42,Kinnaird Place,KY12 0XL,56.0828257,-3.4354857
40,Kinnaird Place,KY12 0XL,56.0828427,-3.4354224
38,Kinnaird Place,KY12 0XL,56.0828526,-3.4353647
28,Kinnaird Place,KY12 0XL,56.0828870,-3.4350823
30,Kinnaird Place,KY12 0XL,56.0829167,-3.4350975
32,Kinnaird Place,KY12 0XL,56.0829484,-3.4351227
34,Kinnaird Place,KY12 0XL,56.0829835,-3.4351319
36,Kinnaird Place,KY12 0XL,56.0830155,-3.4351470
26,Kinnaird Place,KY12 0XL,56.0829928,-3.4346949
24,Kinnaird Place,KY12 0XL,56.0830097,-3.4346012
22,Kinnaird Place,KY12 0XL,56.0830450,-3.4344387
20,Kinnaird Place,KY12 0XL,56.0830593,-3.4343654
18,Kinnaird Place,KY12 0XL,56.0830970,-3.4341954
16,Kinnaird Place,KY12 0XL,56.0831124,-3.4341191
14,Kinnaird Place,KY12 0XL,56.0831371,-3.4339533
12,Kinnaird Place,KY12 0XL,56.0831533,-3.4338732
10,Kinnaird Place,KY12 0XL,56.0831594,-3.4335154
8,Kinnaird Place,KY12 0XL,56.0831826,-3.4334634
6,Kinnaird Place,KY12 0XL,56.0832097,-3.4334111
4,Kinnaird Place,KY12 0XL,56.0832388,-3.4333813
2,Kinnaird Place,KY12 0XL,56.0832732,-3.4333365
2,Colliston Road,KY12 0XW,56.0836994,-3.4322169
4,Colliston Road,KY12 0XW,56.0836183,-3.4322422
6,Colliston Road,KY12 0XW,56.0835381,-3.4322950
8,Colliston Road,KY12 0XW,56.0834710,-3.4323428
10,Colliston Road,KY12 0XW,56.0833527,-3.4324341
12,Colliston Road,KY12 0XW,56.0833285,-3.4325678
14,Colliston Road,KY12 0XW,56.0833680,-3.4327700
16,Colliston Road,KY12 0XW,56.0833993,-3.4328706
18,Colliston Road,KY12 0XW,56.0834507,-3.4330063
20,Colliston Road,KY12 0XW,56.0834930,-3.4331105
22,Colliston Road,KY12 0XW,56.0835910,-3.4327674
24,Colliston Road,KY12 0XW,56.0836889,-3.4326481
26,Colliston Road,KY12 0XW,56.0837748,-3.4330747
28,Colliston Road,KY12 0XW,56.0837056,-3.4331794
30,Colliston Road,KY12 0XW,56.0835618,-3.4333422
32,Colliston Road,KY12 0XW,56.0835992,-3.4334497
34,Colliston Road,KY12 0XW,56.0836649,-3.4336233
36,Colliston Road,KY12 0XW,56.0836855,-3.4337098
38,Colliston Road,KY12 0XW,56.0837063,-3.4338929
40,Colliston Road,KY12 0XW,56.0837111,-3.4339885
42,Colliston Road,KY12 0XW,56.0837056,-3.4341802
44,Colliston Road,KY12 0XW,56.0836917,-3.4342720
46,Colliston Road,KY12 0XW,56.0835669,-3.4345069
48,Colliston Road,KY12 0XW,56.0836094,-3.4345717
50,Colliston Road,KY12 0XW,56.0837048,-3.4346376
52,Colliston Road,KY12 0XW,56.0837494,-3.4346679
54,Colliston Road,KY12 0XW,56.0837852,-3.4348710
58,Colliston Road,KY12 0XW,56.0837611,-3.4349792
58,Colliston Road,KY12 0XW,56.0837696,-3.4351246
60,Colliston Road,KY12 0XW,56.0837420,-3.4352156
62,Colliston Road,KY12 0XW,56.0834220,-3.4351167
64,Colliston Road,KY12 0XW,56.0834709,-3.4351483
66,Colliston Road,KY12 0XW,56.0835793,-3.4351605
68,Colliston Road,KY12 0XW,56.0836228,-3.4351898
70,Colliston Road,KY12 0XW,56.0837145,-3.4353482
72,Colliston Road,KY12 0XW,56.0836952,-3.4354398
74,Colliston Road,KY12 0XW,56.0836699,-3.4355596
76,Colliston Road,KY12 0XW,56.0836503,-3.4356484
78,Colliston Road,KY12 0XW,56.0833912,-3.4355800
80,Colliston Road,KY12 0XW,56.0833435,-3.4355463
82,Colliston Road,KY12 0XW,56.0835293,-3.4357038
84,Colliston Road,KY12 0XW,56.0834991,-3.4357722
86,Colliston Road,KY12 0XW,56.0834715,-3.4358918
88,Colliston Road,KY12 0XW,56.0834591,-3.4359638
90,Colliston Road,KY12 0XW,56.0833829,-3.4360720
92,Colliston Road,KY12 0XW,56.0833643,-3.4361599
94,Colliston Road,KY12 0XW,56.0833265,-3.4362835
96,Colliston Road,KY12 0XW,56.0833080,-3.4363728
98,Colliston Road,KY12 0XW,56.0832738,-3.4364954
100,Colliston Road,KY12 0XW,56.0832539,-3.4365865
51,Colliston Road,KY12 0XW,56.0831383,-3.4363284
49,Colliston Road,KY12 0XW,56.0830895,-3.4362977
47,Colliston Road,KY12 0XW,56.0829323,-3.4363491
45,Colliston Road,KY12 0XW,56.0829463,-3.4362769
45,Colliston Road,KY12 0XW,56.0829693,-3.4361643
43,Colliston Road,KY12 0XW,56.0829858,-3.4360894
39,Colliston Road,KY12 0XW,56.0830666,-3.4357114
37,Colliston Road,KY12 0XW,56.0830837,-3.4356339
35,Colliston Road,KY12 0XW,56.0831062,-3.4355304
33,Colliston Road,KY12 0XW,56.0831219,-3.4354570
31,Colliston Road,KY12 0XW,56.0831421,-3.4353323
29,Colliston Road,KY12 0XW,56.0831723,-3.4351951
27,Colliston Road,KY12 0XW,56.0832426,-3.4348874
25,Colliston Road,KY12 0XW,56.0832620,-3.4347990
23,Colliston Road,KY12 0XW,56.0833018,-3.4346138
21,Colliston Road,KY12 0XW,56.0833213,-3.4345263
19,Colliston Road,KY12 0XW,56.0833639,-3.4343539
17,Colliston Road,KY12 0XW,56.0833777,-3.4342647
15,Colliston Road,KY12 0XW,56.0834202,-3.4341088
13,Colliston Road,KY12 0XW,56.0834313,-3.4340396
11,Colliston Road,KY12 0XW,56.0834503,-3.4339617
9,Colliston Road,KY12 0XW,56.0833759,-3.4336906
7,Colliston Road,KY12 0XW,56.0833384,-3.4336295
5,Colliston Road,KY12 0XW,56.0831053,-3.4325722
3,Colliston Road,KY12 0XW,56.0830805,-3.4325142
1,Colliston Road,KY12 0XW,56.0830415,-3.4324684
2,Farnell Way,KY12 0SR,56.0842121,-3.4342218
4,Farnell Way,KY12 0SR,56.0842194,-3.4344123
6,Farnell Way,KY12 0SR,56.0843968,-3.4341870
8,Farnell Way,KY12 0SR,56.0844497,-3.4341829
10,Farnell Way,KY12 0SR,56.0844692,-3.4338360
12,Farnell Way,KY12 0SR,56.0844844,-3.4337600
14,Farnell Way,KY12 0SR,56.0844820,-3.4333814
16,Farnell Way,KY12 0SR,56.0844340,-3.4333859
18,Farnell Way,KY12 0SR,56.0843390,-3.4334138
20,Farnell Way,KY12 0SR,56.0842858,-3.4334179
22,Farnell Way,KY12 0SR,56.0841804,-3.4334406
24,Farnell Way,KY12 0SR,56.0841901,-3.4337286
26,Farnell Way,KY12 0SR,56.0841740,-3.4338467
28,Farnell Way,KY12 0SR,56.0841717,-3.4340277
30,Farnell Way,KY12 0XW,56.0840223,-3.4325029
32,Farnell Way,KY12 0XW,56.0841294,-3.4325791
34,Farnell Way,KY12 0XW,56.0841477,-3.4328182
36,Farnell Way,KY12 0XW,56.0841707,-3.4329820
38,Farnell Way,KY12 0SR,56.0844159,-3.4329449
40,Farnell Way,KY12 0SR,56.0844216,-3.4327644
42,Farnell Way,KY12 0SR,56.0844075,-3.4326786
44,Farnell Way,KY12 0SR,56.0844395,-3.4325063
46,Farnell Way,KY12 0SR,56.0844502,-3.4324397
48,Farnell Way,KY12 0SR,56.0844913,-3.4322736
50,Farnell Way,KY12 0SR,56.0844992,-3.4322025
52,Farnell Way,KY12 0SR,56.0845247,-3.4320363
54,Farnell Way,KY12 0SR,56.0845554,-3.4319494
56,Farnell Way,KY12 0SR,56.0843677,-3.4318235
58,Farnell Way,KY12 0SR,56.0842250,-3.4320646
60,Farnell Way,KY12 0SR,56.0841345,-3.4321775
62,Farnell Way,KY12 0SR,56.0840090,-3.4320598
64,Farnell Way,KY12 0SR,56.0839605,-3.4320601
73,Farnell Way,KY12 0SR,56.0839087,-3.4316232
71,Farnell Way,KY12 0SR,56.0839452,-3.4315868
69,Farnell Way,KY12 0SR,56.0840467,-3.4315888
67,Farnell Way,KY12 0SR,56.0840981,-3.4315724
65,Farnell Way,KY12 0SR,56.0841928,-3.4315004
63,Farnell Way,KY12 0SR,56.0842780,-3.4313394
61,Farnell Way,KY12 0SR,56.0843937,-3.4312859
59,Farnell Way,KY12 0SR,56.0844969,-3.4313069
57,Farnell Way,KY12 0SR,56.0845342,-3.4313176
55,Farnell Way,KY12 0SR,56.0846317,-3.4313101
53,Farnell Way,KY12 0SR,56.0847292,-3.4313308
51,Farnell Way,KY12 0SR,56.0848319,-3.4314281
49,Farnell Way,KY12 0SR,56.0849451,-3.4313724
47,Farnell Way,KY12 0SR,56.0850834,-3.4315475
45,Farnell Way,KY12 0SR,56.0850707,-3.4317554
43,Farnell Way,KY12 0SR,56.0850755,-3.4318536
41,Farnell Way,KY12 0SR,56.0850307,-3.4320723
39,Farnell Way,KY12 0SR,56.0848623,-3.4319873
37,Farnell Way,KY12 0SR,56.0847605,-3.4319568
35,Farnell Way,KY12 0SR,56.0847872,-3.4322848
33,Farnell Way,KY12 0SR,56.0847561,-3.4324916
31,Farnell Way,KY12 0SR,56.0848017,-3.4339122
29,Farnell Way,KY12 0SR,56.0847375,-3.4340598
27,Farnell Way,KY12 0SR,56.0847030,-3.4342587
25,Farnell Way,KY12 0SR,56.0846531,-3.4344618
23,Farnell Way,KY12 0SR,56.0845848,-3.4345967
21,Farnell Way,KY12 0SR,56.0845695,-3.4346929
19,Farnell Way,KY12 0SR,56.0845185,-3.4348598
17,Farnell Way,KY12 0SR,56.0844961,-3.4349517
15,Farnell Way,KY12 0SR,56.0844681,-3.4351688
13,Farnell Way,KY12 0SR,56.0843742,-3.4355005
11,Farnell Way,KY12 0SR,56.0842702,-3.4354360
9,Farnell Way,KY12 0SR,56.0842138,-3.4354004
7,Farnell Way,KY12 0SR,56.0841402,-3.4352596
1,Farnell Way,KY12 0SR,56.0841025,-3.4352541
3,Farnell Way,KY12 0SR,56.0842015,-3.4349352
5,Farnell Way,KY12 0SR,56.0842138,-3.4348316
1,Ellon Place,KY12 0SS,56.0848346,-3.4338118
3,Ellon Place,KY12 0SS,56.0848890,-3.4336613
5,Ellon Place,KY12 0SS,56.0849107,-3.4335704
7,Ellon Place,KY12 0SS,56.0849447,-3.4334052
9,Ellon Place,KY12 0SS,56.0850057,-3.4332390
11,Ellon Place,KY12 0SS,56.0850511,-3.4329926
13,Ellon Place,KY12 0SS,56.0850685,-3.4328925
15,Ellon Place,KY12 0SS,56.0850751,-3.4324714
17,Ellon Place,KY12 0SS,56.0849687,-3.4324424
8,Ellon Place,KY12 0SS,56.0846720,-3.4328991
6,Ellon Place,KY12 0SS,56.0847814,-3.4329035
4,Ellon Place,KY12 0SS,56.0848360,-3.4329143
2,Ellon Place,KY12 0SS,56.0847079,-3.4333848
1,Alderston Court,KY12 0YW,56.0841284,-3.4373021
2,Alderston Court,KY12 0YW,56.0841474,-3.4371998
3,Alderston Court,KY12 0YW,56.0841677,-3.4370930
4,Alderston Court,KY12 0YW,56.0841811,-3.4369968
5,Alderston Court,KY12 0YW,56.0841993,-3.4368955
6,Alderston Court,KY12 0YW,56.0842125,-3.4368125
7,Alderston Court,KY12 0YW,56.0842255,-3.4367292
"8, 9",Alderston Court,KY12 0YW,56.0842451,-3.4365835
"10, 11",Alderston Court,KY12 0YW,56.0842691,-3.4364340
12,Alderston Court,KY12 0XW,56.0844347,-3.4361759
13,Alderston Court,KY12 0XW,56.0843923,-3.4361351
14,Alderston Court,KY12 0XW,56.0843431,-3.4360872
15,Alderston Court,KY12 0XW,56.0843001,-3.4360449
16-21,Alderston Drive,KY12 0XW,56.0838990,-3.4364589
19,Alderston Drive,KY12 0XU,56.0839071,-3.4374868
17,Alderston Drive,KY12 0XU,56.0838288,-3.4378364
15,Alderston Drive,KY12 0XU,56.0837516,-3.4381303
13,Alderston Drive,KY12 0XU,56.0837186,-3.4384262
11,Alderston Drive,KY12 0XU,56.0835931,-3.4387042
9,Alderston Drive,KY12 0XU,56.0835047,-3.4390246
42,Kingseat Road,KY12 0DD,56.0836412,-3.4403965
40,Kingseat Road,KY12 0DD,56.0835768,-3.4407159
38,Kingseat Road,KY12 0DD,56.0835990,-3.4410150
36,Kingseat Road,KY12 0DD,56.0835764,-3.4411729
34,Kingseat Road,KY12 0DD,56.0835184,-3.4414206
32,Kingseat Road,KY12 0DD,56.0834745,-3.4416504
30,Kingseat Road,KY12 0DD,56.0834359,-3.4418777
28,Kingseat Road,KY12 0DD,56.0833893,-3.4421074
26,Kingseat Road,KY12 0DD,56.0833227,-3.4423239
24,Kingseat Road,KY12 0DD,56.0832981,-3.4425221
22,Kingseat Road,KY12 0DD,56.0833313,-3.4428944
20,Kingseat Road,KY12 0DD,56.0832123,-3.4432216
18,Kingseat Road,KY12 0DD,56.0832138,-3.4434926
16,Kingseat Road,KY12 0DD,56.0830976,-3.4437876
14,Kingseat Road,KY12 0DD,56.0830433,-3.4441236
9,Kingseat Road,KY12 0DD,56.0835527,-3.4443211
2,Balvaird Place,KY12 0XR,56.0831288,-3.4397528
4,Balvaird Place,KY12 0XR,56.0831791,-3.4399695
6,Balvaird Place,KY12 0XR,56.0831802,-3.4402731
8,Balvaird Place,KY12 0XR,56.0831530,-3.4405579
10,Balvaird Place,KY12 0XR,56.0831096,-3.4407790
12,Balvaird Place,KY12 0XR,56.0830350,-3.4410269
14,Balvaird Place,KY12 0XR,56.0828619,-3.4412383
16,Balvaird Place,KY12 0XR,56.0827131,-3.4412117
18,Balvaird Place,KY12 0XR,56.0825849,-3.4412617
20,Balvaird Place,KY12 0XR,56.0824408,-3.4413342
22,Balvaird Place,KY12 0XR,56.0822618,-3.4412617
24,Balvaird Place,KY12 0XR,56.0821488,-3.4410759
26,Balvaird Place,KY12 0XR,56.0822058,-3.4407094
28,Balvaird Place,KY12 0XR,56.0822711,-3.4404405
30,Balvaird Place,KY12 0XR,56.0823613,-3.4401253
13,Balvaird Place,KY12 0XR,56.0826158,-3.4401292
11,Balvaird Place,KY12 0XR,56.0825840,-3.4403504
9,Balvaird Place,KY12 0XR,56.0825497,-3.4407577
7,Balvaird Place,KY12 0XR,56.0827060,-3.4407166
5,Balvaird Place,KY12 0XR,56.0828654,-3.4405303
3,Balvaird Place,KY12 0XR,56.0828963,-3.4403106
1,Balvaird Place,KY12 0XR,56.0828697,-3.4400182
1,Beldorney Place,KY12 0XN,56.0826900,-3.4394339
3,Beldorney Place,KY12 0XN,56.0827854,-3.4392255
5,Beldorney Place,KY12 0XN,56.0828418,-3.4390276
0,Beldorney Place,KY12 0XN,56.0828483,-3.4388637
11,Beldorney Place,KY12 0XN,56.0828971,-3.4386596
13,Beldorney Place,KY12 0XN,56.0829411,-3.4385129
13,Beldorney Place,KY12 0XN,56.0829866,-3.4383161
15,Beldorney Place,KY12 0XN,56.0830593,-3.4381831
17,Beldorney Place,KY12 0XN,56.0831101,-3.4379783
19,Beldorney Place,KY12 0XN,56.0831666,-3.4378104
21,Beldorney Place,KY12 0XN,56.0832612,-3.4375540
23,Beldorney Place,KY12 0XN,56.0833401,-3.4372558
25,Beldorney Place,KY12 0XN,56.0832631,-3.4370173
32,Beldorney Place,KY12 0XN,56.0831072,-3.4369013
30,Beldorney Place,KY12 0XN,56.0828987,-3.4369857
28,Beldorney Place,KY12 0XN,56.0829002,-3.4372306
26,Beldorney Place,KY12 0XN,56.0828763,-3.4374350
24,Beldorney Place,KY12 0XN,56.0828510,-3.4376383
22,Beldorney Place,KY12 0XN,56.0827886,-3.4377716
20,Beldorney Place,KY12 0XN,56.0827235,-3.4379838
18,Beldorney Place,KY12 0XN,56.0826847,-3.4381185
16,Beldorney Place,KY12 0XN,56.0826167,-3.4382605
14,Beldorney Place,KY12 0XN,56.0825857,-3.4384634
12,Beldorney Place,KY12 0XN,56.0825389,-3.4386691
10,Beldorney Place,KY12 0XN,56.0824952,-3.4388217
8,Beldorney Place,KY12 0XN,56.0824441,-3.4390132
6,Beldorney Place,KY12 0XN,56.0824206,-3.4391770
4,Beldorney Place,KY12 0XN,56.0823728,-3.4393854
2,Beldorney Place,KY12 0XN,56.0823185,-3.4395345
2,Ormiston Park,KY12 0XG,56.0819664,-3.4400841
6,Ormiston Park,KY12 0XG,56.0818932,-3.4403880
8,Ormiston Park,KY12 0XG,56.0818955,-3.4406400
10,Ormiston Park,KY12 0XG,56.0819032,-3.4409184
4,Ormiston Park,KY12 0XG,56.0819120,-3.4402913
12,Ormiston Park,KY12 0XG,56.0818812,-3.4412166
14,Ormiston Park,KY12 0XG,56.0818314,-3.4413102
16,Ormiston Park,KY12 0XG,56.0816787,-3.4411270
15,Ormiston Park,KY12 0XG,56.0816125,-3.4410932
13,Ormiston Park,KY12 0XG,56.0814425,-3.4410339
11,Ormiston Park,KY12 0XG,56.0814567,-3.4408771
9,Ormiston Park,KY12 0XG,56.0815120,-3.4406448
7,Ormiston Park,KY12 0XG,56.0815850,-3.4403949
5,Ormiston Park,KY12 0XG,56.0816483,-3.4401415
3,Ormiston Park,KY12 0XG,56.0816540,-3.4400471
1,Ormiston Park,KY12 0XG,56.0816926,-3.4397782
2,Kenmure Place,KY12 0XH,56.0814771,-3.4394988
4,Kenmure Place,KY12 0XH,56.0814154,-3.4396467
6,Kenmure Place,KY12 0XH,56.0812913,-3.4397201
8,Kenmure Place,KY12 0XH,56.0811911,-3.4397686
10,Kenmure Place,KY12 0XH,56.0810716,-3.4398609
12,Kenmure Place,KY12 0XH,56.0812209,-3.4400914
14,Kenmure Place,KY12 0XH,56.0812854,-3.4402913
16,Kenmure Place,KY12 0XH,56.0812840,-3.4404734
18,Kenmure Place,KY12 0XH,56.0812264,-3.4407878
20,Kenmure Place,KY12 0XH,56.0811317,-3.4408866
22,Kenmure Place,KY12 0XH,56.0809756,-3.4406897
24,Kenmure Place,KY12 0XH,56.0809380,-3.4405411
26,Kenmure Place,KY12 0XH,56.0809074,-3.4403021
28,Kenmure Place,KY12 0XH,56.0808806,-3.4399311
30,Kenmure Place,KY12 0XH,56.0807794,-3.4400236
32,Kenmure Place,KY12 0XH,56.0806296,-3.4401427
34,Kenmure Place,KY12 0XH,56.0804983,-3.4399873
36,Kenmure Place,KY12 0XH,56.0804599,-3.4399302
38,Kenmure Place,KY12 0XH,56.0803846,-3.4397648
40,Kenmure Place,KY12 0XH,56.0803582,-3.4396397
42,Kenmure Place,KY12 0XH,56.0803982,-3.4392405
44,Kenmure Place,KY12 0XH,56.0803370,-3.4392354
46,Kenmure Place,KY12 0XH,56.0802487,-3.4393826
48,Kenmure Place,KY12 0XH,56.0801794,-3.4393742
49,Kenmure Place,KY12 0XH,56.0807787,-3.4380725
47,Kenmure Place,KY12 0XH,56.0807192,-3.4382309
45,Kenmure Place,KY12 0XH,56.0806447,-3.4384176
43,Kenmure Place,KY12 0XH,56.0806044,-3.4385902
41,Kenmure Place,KY12 0XH,56.0806144,-3.4388033
39,Kenmure Place,KY12 0XH,56.0806927,-3.4390080
37,Kenmure Place,KY12 0XH,56.0805916,-3.4391686
35,Kenmure Place,KY12 0XH,56.0806097,-3.4394894
33,Kenmure Place,KY12 0XH,56.0806407,-3.4395765
31,Kenmure Place,KY12 0XH,56.0807852,-3.4395393
29,Kenmure Place,KY12 0XH,56.0808461,-3.4394828
27,Kenmure Place,KY12 0XH,56.0810347,-3.4393920
25,Kenmure Place,KY12 0XH,56.0809906,-3.4392544
23,Kenmure Place,KY12 0XH,56.0809592,-3.4391713
21,Kenmure Place,KY12 0XH,56.0809150,-3.4389707
19,Kenmure Place,KY12 0XH,56.0809049,-3.4388292
17,Kenmure Place,KY12 0XH,56.0809154,-3.4386251
15,Kenmure Place,KY12 0XH,56.0809450,-3.4385143
13,Kenmure Place,KY12 0XH,56.0809774,-3.4383831
11,Kenmure Place,KY12 0XH,56.0810066,-3.4382673
9,Kenmure Place,KY12 0XH,56.0812207,-3.4384324
7,Kenmure Place,KY12 0XH,56.0811954,-3.4385381
5,Kenmure Place,KY12 0XH,56.0811626,-3.4388402
3,Kenmure Place,KY12 0XH,56.0811913,-3.4389386
1,Kenmure Place,KY12 0XH,56.0812607,-3.4391032
1,Neidpath Place,KY12 0XJ,56.0816885,-3.4378820
3,Neidpath Place,KY12 0XJ,56.0816587,-3.4381117
5,Neidpath Place,KY12 0XJ,56.0816063,-3.4383275
7,Neidpath Place,KY12 0XJ,56.0816025,-3.4385543
9,Neidpath Place,KY12 0XJ,56.0816241,-3.4388191
11,Neidpath Place,KY12 0XJ,56.0816911,-3.4389735
13,Neidpath Place,KY12 0XJ,56.0817570,-3.4391799
15,Neidpath Place,KY12 0XJ,56.0818391,-3.4393527
17,Neidpath Place,KY12 0XJ,56.0819767,-3.4393955
19,Neidpath Place,KY12 0XJ,56.0821108,-3.4392076
21,Neidpath Place,KY12 0XJ,56.0821387,-3.4388737
23,Neidpath Place,KY12 0XJ,56.0820228,-3.4387187
25,Neidpath Place,KY12 0XJ,56.0818777,-3.4386583
27,Neidpath Place,KY12 0XJ,56.0818365,-3.4384541
29,Neidpath Place,KY12 0XJ,56.0819118,-3.4382654
31,Neidpath Place,KY12 0XJ,56.0820442,-3.4382769
33,Neidpath Place,KY12 0XJ,56.0821815,-3.4383432
35,Neidpath Place,KY12 0XJ,56.0823113,-3.4382922
37,Neidpath Place,KY12 0XJ,56.0823989,-3.4379602
39,Neidpath Place,KY12 0XJ,56.0823695,-3.4376910
41,Neidpath Place,KY12 0XJ,56.0822146,-3.4376106
43,Neidpath Place,KY12 0XJ,56.0820500,-3.4377002
40,Neidpath Place,KY12 0XJ,56.0820412,-3.4373932
38,Neidpath Place,KY12 0XJ,56.0820402,-3.4372063
36,Neidpath Place,KY12 0XJ,56.0820839,-3.4369862
34,Neidpath Place,KY12 0XJ,56.0821584,-3.4368116
32,Neidpath Place,KY12 0XJ,56.0822795,-3.4371550
30,Neidpath Place,KY12 0XJ,56.0823903,-3.4372252
28,Neidpath Place,KY12 0XJ,56.0825474,-3.4373132
26,Neidpath Place,KY12 0XJ,56.0826362,-3.4369964
24,Neidpath Place,KY12 0XJ,56.0826795,-3.4366512
22,Neidpath Place,KY12 0XJ,56.0825595,-3.4365263
20,Neidpath Place,KY12 0XJ,56.0824301,-3.4364681
18,Neidpath Place,KY12 0XJ,56.0823235,-3.4363582
16,Neidpath Place,KY12 0XJ,56.0822281,-3.4362449
14,Neidpath Place,KY12 0XJ,56.0820873,-3.4360454
12,Neidpath Place,KY12 0XJ,56.0820216,-3.4362304
10,Neidpath Place,KY12 0XJ,56.0819578,-3.4364140
8,Neidpath Place,KY12 0XJ,56.0818825,-3.4365873
6,Neidpath Place,KY12 0XJ,56.0818125,-3.4367774
4,Neidpath Place,KY12 0XJ,56.0817589,-3.4370040
2,Neidpath Place,KY12 0XJ,56.0817488,-3.4373468
"1,3",Adamson Crescent,KY12 0AZ,56.0791361,-3.4462939
"5,7",Adamson Crescent,KY12 0AZ,56.0791977,-3.4462344
9,Adamson Crescent,KY12 0AZ,56.0793467,-3.4460910
"11,13",Adamson Crescent,KY12 0AZ,56.0797575,-3.4458012
"70,72",Adamson Crescent,KY12 0AZ,56.0794511,-3.4416937
"68,66",Adamson Crescent,KY12 0AZ,56.0794908,-3.4418191
64,Adamson Crescent,KY12 0AZ,56.0795685,-3.4420540
62,Adamson Crescent,KY12 0AZ,56.0797381,-3.4427026
"58,60",Adamson Crescent,KY12 0AZ,56.0797671,-3.4429862
"54,56",Adamson Crescent,KY12 0AZ,56.0797768,-3.4431299
"50,52",Adamson Crescent,KY12 0AZ,56.0797780,-3.4433816
"46,48",Adamson Crescent,KY12 0AZ,56.0797721,-3.4435626
"42,44",Adamson Crescent,KY12 0AZ,56.0797606,-3.4438150
"38,40",Adamson Crescent,KY12 0AZ,56.0797535,-3.4439491
"34,36",Adamson Crescent,KY12 0AZ,56.0797423,-3.4441908
"30,32",Adamson Crescent,KY12 0AZ,56.0797320,-3.4443722
"26,28",Adamson Crescent,KY12 0AZ,56.0797142,-3.4446231
"22,24",Adamson Crescent,KY12 0AZ,56.0796993,-3.4447661
"18,20",Adamson Crescent,KY12 0AZ,56.0796546,-3.4449974
"14,16",Adamson Crescent,KY12 0AZ,56.0796139,-3.4451234
12,Adamson Crescent,KY12 0AZ,56.0795081,-3.4453666
10,Adamson Crescent,KY12 0AZ,56.0792121,-3.4457052
"6,8",Adamson Crescent,KY12 0AZ,56.0790785,-3.4458107
"2,4",Adamson Crescent,KY12 0AZ,56.0790150,-3.4458638
1,Haig Crescent,KY12 0BD,56.0794486,-3.4453395
"3,5",Haig Crescent,KY12 0BD,56.0793936,-3.4449941
"7,9",Haig Crescent,KY12 0BD,56.0793710,-3.4448238
51,Haig Crescent,KY12 0BD,56.0796771,-3.4426831
76,Haig Crescent,KY12 0BD,56.0795681,-3.4421747
"40,42",Haig Crescent,KY12 0BD,56.0790592,-3.4436583
"36,38",Haig Crescent,KY12 0BD,56.0790504,-3.4438359
2,Haig Crescent,KY12 0AZ,56.0792281,-3.4455838
1,Beatty Place,KY12 0BE,56.0794083,-3.4461160
"3,5",Beatty Place,KY12 0BE,56.0794837,-3.4463538
"7,9",Beatty Place,KY12 0BE,56.0795103,-3.4464977
"11,13",Beatty Place,KY12 0BE,56.0795303,-3.4467140
"15,17",Beatty Place,KY12 0BE,56.0795468,-3.4468392
"19,21",Beatty Place,KY12 0BE,56.0795858,-3.4470456
"23,25",Beatty Place,KY12 0BE,56.0795984,-3.4471920
"27,29",Beatty Place,KY12 0BE,56.0797251,-3.4475881
"30,32",Beatty Place,KY12 0BE,56.0798231,-3.4475450
"2,4",Beatty Place,KY12 0BE,56.0797426,-3.4459791
147,Robertson Road,KY12 0AR,56.0795625,-3.4408328
145,Robertson Road,KY12 0AR,56.0795242,-3.4409417
143,Robertson Road,KY12 0AR,56.0793487,-3.4413867
141,Robertson Road,KY12 0AR,56.0793199,-3.4414704
4,Robertson Road,KY12 0AS,56.0791423,-3.4483285
"46,48",Robertson Road,KY12 0AP,56.0785234,-3.4460866
"50,52",Robertson Road,KY12 0AP,56.0784938,-3.4459511
86,Robertson Road,KY12 0AP,56.0783289,-3.4440825
88,Robertson Road,KY12 0AP,56.0782737,-3.4440502
"1,3",Craigmyle Street,KY12 0BT,56.0803650,-3.4473589
"5,7",Craigmyle Street,KY12 0BT,56.0803680,-3.4472030
"9,11",Craigmyle Street,KY12 0BT,56.0804198,-3.4469367
"13,15",Craigmyle Street,KY12 0BT,56.0805028,-3.4468328
"17,19",Craigmyle Street,KY12 0BT,56.0805735,-3.4465652
"21,23",Craigmyle Street,KY12 0BT,56.0805878,-3.4463908
"25,27",Craigmyle Street,KY12 0BT,56.0805615,-3.4460936
"29,31",Craigmyle Street,KY12 0BT,56.0805006,-3.4459544
"46,48",Craigmyle Street,KY12 0BT,56.0802512,-3.4452829
"42,44",Craigmyle Street,KY12 0BT,56.0802384,-3.4454337
"38,40",Craigmyle Street,KY12 0BT,56.0802143,-3.4456785
"34,36",Craigmyle Street,KY12 0BT,56.0801947,-3.4458560
"30,32",Craigmyle Street,KY12 0BT,56.0801447,-3.4461110
"26,28",Craigmyle Street,KY12 0BT,56.0801311,-3.4462900
"22,24",Craigmyle Street,KY12 0BT,56.0801364,-3.4465752
"18,20",Craigmyle Street,KY12 0BT,56.0801278,-3.4467576
"14,16",Craigmyle Street,KY12 0BT,56.0801113,-3.4469925
"10,12",Craigmyle Street,KY12 0BT,56.0801002,-3.4471343
"6,8",Craigmyle Street,KY12 0BT,56.0800942,-3.4473699
"2,4",Craigmyle Street,KY12 0BT,56.0801025,-3.4475210
"4,6",Donald Street,KY12 0BY,56.0818299,-3.4465212
"8,10",Donald Street,KY12 0BY,56.0818260,-3.4463565
"12,14",Donald Street,KY12 0BY,56.0818355,-3.4461312
"16,18",Donald Street,KY12 0BY,56.0818467,-3.4459945
"20,22",Donald Street,KY12 0BY,56.0818620,-3.4458015
"24,26",Donald Street,KY12 0BY,56.0818734,-3.4456643
"28,30",Donald Street,KY12 0BY,56.0818885,-3.4454659
"32,34",Donald Street,KY12 0BY,56.0819001,-3.4453302
"36,38",Donald Street,KY12 0BY,56.0819192,-3.4451245
"40,42",Donald Street,KY12 0BY,56.0819320,-3.4449657
12,Paton Street,KY12 0BZ,56.0821829,-3.4441806
14,Paton Street,KY12 0BZ,56.0820862,-3.4441398
4,Hawthorn Park,KY12 0DY,56.0826857,-3.4437499
3,Hawthorn Park,KY12 0DY,56.0826642,-3.4439485
2,Hawthorn Grove,KY12 0DZ,56.0823230,-3.4420408
15,Hawthorn Park,KY12 0DY,56.0825989,-3.4419462
16,Hawthorn Park,KY12 0DY,56.0825847,-3.4423115
4,Paton Street,KY12 0BZ,56.0826800,-3.4443103
6,Paton Street,KY12 0BZ,56.0825796,-3.4442856
4A,Paton Street,KY12 0BZ,56.0828452,-3.4443759
2A,Paton Street,KY12 0BZ,56.0831521,-3.4444529
2,Paton Street,KY12 0BZ,56.0830160,-3.4444184
8,Paton Street,KY12 0BZ,56.0824285,-3.4442337
10,Paton Street,KY12 0BZ,56.0823325,-3.4442152
35,Paton Street,KY12 0BU,56.0806004,-3.4442654
33,Paton Street,KY12 0BU,56.0806451,-3.4442046
"29,31",Paton Street,KY12 0BU,56.0807800,-3.4442617
"25,27",Paton Street,KY12 0BU,56.0808508,-3.4442810
23,Paton Street,KY12 0BU,56.0809780,-3.4443056
21,Paton Street,KY12 0BU,56.0810084,-3.4443930
19,Paton Street,KY12 0BU,56.0812851,-3.4444753
17,Paton Street,KY12 0BU,56.0813305,-3.4444164
"13,15",Paton Street,KY12 0BU,56.0815777,-3.4445076
"9,11",Paton Street,KY12 0BU,56.0816600,-3.4445275
7,Paton Street,KY12 0BU,56.0819216,-3.4445936
5,Paton Street,KY12 0BU,56.0819502,-3.4446759
3,Paton Street,KY12 0BU,56.0822261,-3.4447777
1,Paton Street,KY12 0BU,56.0822627,-3.4446804
17,Hawthorn Grove,KY12 0DZ,56.0819010,-3.4436323
16,Hawthorn Grove,KY12 0DZ,56.0819814,-3.4434676
15,Hawthorn Grove,KY12 0DZ,56.0819923,-3.4433701
14,Hawthorn Grove,KY12 0DZ,56.0820136,-3.4431873
13,Hawthorn Grove,KY12 0DZ,56.0820228,-3.4431083
12,Hawthorn Grove,KY12 0DZ,56.0820464,-3.4429296
11,Hawthorn Grove,KY12 0DZ,56.0820618,-3.4427854
10,Hawthorn Grove,KY12 0DZ,56.0820767,-3.4425953
9,Hawthorn Grove,KY12 0DZ,56.0820813,-3.4424967
8,Hawthorn Grove,KY12 0DZ,56.0820959,-3.4422464
7,Hawthorn Grove,KY12 0DZ,56.0820940,-3.4421617
6,Hawthorn Grove,KY12 0DZ,56.0820662,-3.4419571
5,Hawthorn Grove,KY12 0DZ,56.0821499,-3.4417626
4,Hawthorn Grove,KY12 0DZ,56.0822838,-3.4417895
2,Hawthorn Grove,KY12 0DZ,56.0823094,-3.4424649
1,Hawthorn Grove,KY12 0DZ,56.0821847,-3.4437591
1,Hawthorn Park,KY12 0DY,56.0823633,-3.4437646
2,Hawthorn Park,KY12 0DY,56.0824806,-3.4437971
5,Hawthorn Park,KY12 0DY,56.0827103,-3.4434491
6,Hawthorn Park,KY12 0DY,56.0827637,-3.4430970
7,Hawthorn Park,KY12 0DY,56.0828042,-3.4428875
8,Hawthorn Park,KY12 0DY,56.0828245,-3.4426965
9,Hawthorn Park,KY12 0DY,56.0828645,-3.4425048
10,Hawthorn Park,KY12 0DY,56.0828856,-3.4422705
11,Hawthorn Park,KY12 0DY,56.0829227,-3.4420317
12,Hawthorn Park,KY12 0DY,56.0829329,-3.4417914
13,Hawthorn Park,KY12 0DY,56.0827907,-3.4416749
14,Hawthorn Park,KY12 0DY,56.0826648,-3.4417435
17,Hawthorn Park,KY12 0DY,56.0825884,-3.4425017
18,Hawthorn Park,KY12 0DY,56.0825515,-3.4426839
19,Hawthorn Park,KY12 0DY,56.0825129,-3.4428649
20,Hawthorn Park,KY12 0DY,56.0824918,-3.4430576
21,Hawthorn Park,KY12 0DY,56.0824511,-3.4432519
22,Hawthorn Grove,KY12 0DY,56.0822320,-3.4432438
60,Bellyeoman Road,KY12 0BB,56.0779558,-3.4444422
58,Bellyeoman Road,KY12 0BB,56.0778191,-3.4446828
56,Bellyeoman Road,KY12 0BB,56.0774185,-3.4454272
54,Bellyeoman Road,KY12 0BB,56.0773019,-3.4456151
52,Bellyeoman Road,KY12 0BB,56.0772254,-3.4457973
50,Bellyeoman Road,KY12 0BB,56.0771131,-3.4459431
48,Bellyeoman Road,KY12 0BB,56.0770178,-3.4461210
46,Bellyeoman Road,KY12 0BB,56.0769335,-3.4463012
44,Bellyeoman Road,KY12 0BB,56.0768482,-3.4465036
42,Bellyeoman Road,KY12 0BB,56.0767618,-3.4466814
40,Bellyeoman Road,KY12 0BB,56.0766634,-3.4468879
38,Bellyeoman Road,KY12 0BB,56.0765825,-3.4470497
36,Bellyeoman Road,KY12 0BB,56.0764965,-3.4472230
34,Bellyeoman Road,KY12 0BB,56.0763992,-3.4474132
32,Bellyeoman Road,KY12 0BB,56.0763189,-3.4476233
30,Bellyeoman Road,KY12 0BB,56.0762352,-3.4478241
28,Bellyeoman Road,KY12 0AD,56.0761555,-3.4480251
26,Bellyeoman Road,KY12 0AD,56.0761187,-3.4481165
24,Bellyeoman Road,KY12 0AD,56.0760864,-3.4482035
22,Bellyeoman Road,KY12 0AD,56.0760494,-3.4482861
20,Bellyeoman Road,KY12 0AD,56.0760193,-3.4483695
18,Bellyeoman Road,KY12 0AD,56.0759823,-3.4484532
16,Bellyeoman Road,KY12 0AD,56.0759505,-3.4485358
14,Bellyeoman Road,KY12 0AD,56.0758979,-3.4486343
12,Bellyeoman Road,KY12 0AD,56.0756842,-3.4491494
1,Beck Crescent,KY12 0BA,56.0777022,-3.4449234
3,Beck Crescent,KY12 0BA,56.0781204,-3.4447806
5,Beck Crescent,KY12 0BA,56.0780311,-3.4451810
7,Beck Crescent,KY12 0BA,56.0780784,-3.4454068
9,Beck Crescent,KY12 0BA,56.0781704,-3.4456835
14,Beck Crescent,KY12 0BA,56.0782043,-3.4466770
12,Beck Crescent,KY12 0BA,56.0781056,-3.4464164
10,Beck Crescent,KY12 0BA,56.0780221,-3.4460648
8,Beck Crescent,KY12 0BA,56.0779268,-3.4458173
6,Beck Crescent,KY12 0BA,56.0778437,-3.4455948
4,Beck Crescent,KY12 0BA,56.0777074,-3.4454801
2,Beck Crescent,KY12 0BA,56.0774938,-3.4452810
2,Christie Street,KY12 0AQ,56.0758438,-3.4491371
4,Christie Street,KY12 0AQ,56.0759168,-3.4491295
6,Christie Street,KY12 0AQ,56.0760134,-3.4491247
8,Christie Street,KY12 0AQ,56.0760814,-3.4491169
10,Christie Street,KY12 0AQ,56.0761945,-3.4490822
12,Christie Street,KY12 0AQ,56.0763157,-3.4490549
14,Christie Street,KY12 0AQ,56.0764307,-3.4490682
16,Christie Street,KY12 0AQ,56.0765435,-3.4490235
18,Christie Street,KY12 0AQ,56.0766574,-3.4490039
20,Christie Street,KY12 0AQ,56.0767551,-3.4489893
22,Christie Street,KY12 0AQ,56.0768197,-3.4489822
24,Christie Street,KY12 0AQ,56.0768997,-3.4489720
23,Christie Street,KY12 0AQ,56.0776645,-3.4482628
15,Christie Street,KY12 0AQ,56.0771727,-3.4483316
11,Christie Street,KY12 0AQ,56.0770446,-3.4483571
9,Christie Street,KY12 0AQ,56.0769594,-3.4483650
3,Christie Street,KY12 0AQ,56.0764198,-3.4484677
1,Christie Street,KY12 0AQ,56.0762918,-3.4484985
"5A,7",Bellyeoman Road,KY12 0AE,56.0749371,-3.4509844
51,Bellyeoman Road,KY12 0AE,56.0764265,-3.4465714
53,Bellyeoman Road,KY12 0AE,56.0765237,-3.4462737
1,Dick Street,KY12 0AG,56.0765582,-3.4480750
3,Dick Street,KY12 0AG,56.0766646,-3.4478431
5,Dick Street,KY12 0AG,56.0767511,-3.4476148
7,Dick Street,KY12 0AG,56.0768410,-3.4474064
9,Dick Street,KY12 0AG,56.0769078,-3.4472547
11,Dick Street,KY12 0AG,56.0770107,-3.4470880
13,Dick Street,KY12 0AG,56.0770760,-3.4468824
15,Dick Street,KY12 0AG,56.0772753,-3.4466243
17,Dick Street,KY12 0AG,56.0773746,-3.4464422
19,Dick Street,KY12 0AG,56.0775034,-3.4462040
21,Dick Street,KY12 0AG,56.0776570,-3.4460556
23,Dick Street,KY12 0AG,56.0777626,-3.4462331
12,Dick Street,KY12 0AG,56.0775584,-3.4469645
10,Dick Street,KY12 0AG,56.0774667,-3.4470205
8,Dick Street,KY12 0AG,56.0773051,-3.4473291
6,Dick Street,KY12 0AG,56.0772294,-3.4474967
4,Dick Street,KY12 0AG,56.0771474,-3.4476676
2,Dick Street,KY12 0AG,56.0770805,-3.4478202
2,Ross Street,KY12 0AN,56.0780001,-3.4488681
4,Ross Street,KY12 0AN,56.0779863,-3.4487078
13,Ross Street,KY12 0AN,56.0775979,-3.4473767
11,Ross Street,KY12 0AN,56.0776078,-3.4475389
9,Ross Street,KY12 0AN,56.0776190,-3.4478332
7,Ross Street,KY12 0AN,56.0776743,-3.4487539
5,Ross Street,KY12 0AN,56.0776899,-3.4488945
3,Ross Street,KY12 0AN,56.0776968,-3.4490163
1,Ross Street,KY12 0AN,56.0777036,-3.4491514
8,Methven Drive,KY12 0AH,56.0773459,-3.4488405
6,Methven Drive,KY12 0AH,56.0773614,-3.4489724
4,Methven Drive,KY12 0AH,56.0773686,-3.4491229
2,Methven Drive,KY12 0AH,56.0773813,-3.4492578
5,Methven Drive,KY12 0AH,56.0770450,-3.4489090
3,Methven Drive,KY12 0AH,56.0770550,-3.4491086
1,Methven Drive,KY12 0AH,56.0770860,-3.4493820
1,Witchbrae,KY12 0LQ,56.0754493,-3.4496591
3,Witchbrae,KY12 0LQ,56.0755685,-3.4496617
5,Witchbrae,KY12 0LQ,56.0756880,-3.4496220
7,Witchbrae,KY12 0LQ,56.0757975,-3.4496221
9,Witchbrae,KY12 0LQ,56.0759164,-3.4495658
10,Witchbrae,KY12 0LQ,56.0757712,-3.4500614
8,Witchbrae,KY12 0LQ,56.0756612,-3.4500822
6,Witchbrae,KY12 0LQ,56.0755533,-3.4501120
4,Witchbrae,KY12 0LQ,56.0754375,-3.4501691
2,Witchbrae,KY12 0LQ,56.0752820,-3.4501469
8,Bellyeoman Road,KY12 0AD,56.0751903,-3.4506360
4,Bellyeoman Road,KY12 0AD,56.0752001,-3.4510610
2,Bellyeoman Road,KY12 0AD,56.0752045,-3.4511789
12-22,Witchbrae,KY12 0AQ,56.0763761,-3.4496978
1,Aberdour Road,KY11 4PB,56.0610118,-3.4436936
7,Pittsburgh Road,KY11 8DX,56.0809848,-3.4042636
11,Whimbrel Place,KY11 8EX,56.0768183,-3.3943895
