House number,Street name,Postal code,Latitude,Longitude
16,Bulevardi Bujar Bishanaku,4001,42.0700074,19.5095596
6,Rruga Pashko Vasa,4001,42.0619049,19.5168395
2,Rruga Hoxha Tasim,4007,42.0742496,19.5033725
23,Rruga Hamz Kazazi,4001,42.0663236,19.5072590
7,Rruga Besnik Sykja,4001,42.0645021,19.5117836
123,Rruga Marin Biçikemi,4001,42.0648743,19.5183566
107,Rruga Marin Beçikemi,4001,42.0650716,19.5199679
12,Bulevardi Zogu I,4001,42.0603130,19.5047546
10,Rruga Hoxhe Kadria,4001,42.0681913,19.4978047
21,Rruga Memej,4001,42.0734341,19.5108744
19,Rruga Memej,4001,42.0733679,19.5109174
17,Rruga Memej,4001,42.0732649,19.5109744
14,Rruga Qukej,4001,42.0699712,19.5108410
5,Rruga Ndoc Çoba,4001,42.0656165,19.5134586
8,Rruga Tepe,4001,42.0554466,19.5177751
10,Rruga Wilson,4001,42.0661281,19.5118773
61,Rruga e Gurakuqve,4001,42.0673063,19.5183135
25,Rruga Risto Siliqi,4001,42.0623547,19.5148611
25,Rruga Risto Siliqi,4001,42.0624561,19.5150729
2,Rruga Edith Durham,4001,42.0627027,19.5152672
25,Rruga Risto Siliqi,4001,42.0624022,19.5148159
4,Rruga Gerçari,4001,42.0799490,19.5126041
107,Rruga Marin Biçikemi,4001,42.0653612,19.5199337
42,Rruga At Gjergj Fishta,4000,42.0675184,19.5154324
39,Rruga Hasan Riza Pasha,4001,42.0686599,19.5149850
21,Rruga 13 Dhjetori,4001,42.0645461,19.5097952
9,Bulevardi Skënderbeu,4001,42.0662616,19.5153432
87,Rruga Kol Idromeno,4001,42.0675239,19.5146474
2,Rruga Djepaxhijej,4001,42.0699948,19.5065732
154,Rruga Levizja e Postribes,4001,42.0801870,19.5223711
42,Rruga Kardinal Mikel Koliqi,4001,42.0712582,19.5186062
2,Sheshi 2 Prilli,4001,42.0657556,19.5104968
30,Rruga Studenti,4001,42.0658471,19.5091640
22,Sheshi Demokracia,4001,42.0679155,19.5109505
40,Rruga Studenti,4001,42.0654206,19.5087013
28,Rruga Studenti,4001,42.0663298,19.5091819
4,Rruga 13 Dhjetori,4001,42.0656500,19.5112076
11,Rruga Kongresi i Manastirit,4001,42.0675507,19.5095644
1,Bulevardi Skënderbeu,4001,42.0668754,19.5143340
14,Bulevardi Zogu I,4001,42.0638634,19.5074060
30,Bulevardi Zogu I,4001,42.0632523,19.5068247
24,Bulevardi Zogu I,4001,42.0633938,19.5069413
13,Bulevardi Zogu I,4001,42.0635889,19.5077139
19,Bulevardi Zogu I,4001,42.0631329,19.5071880
2,Rruga 13 Dhjetori,4001,42.0652341,19.5114697
1,Rruga Studenti,4001,42.0674655,19.5117675
22,Rruga Studenti,4001,42.0666289,19.5101062
18,Rruga Jeronim De Rada,4001,42.0709061,19.5158195
2,Rruga Jeronim De Rada,4001,42.0699832,19.5170465
3,Rruga Kardinal Mikel Koliqi,4001,42.0720847,19.5209976
67,Rruga Martin Camaj,4001,42.0746199,19.5153394
42,Rruga Martin Camaj,4001,42.0746578,19.5159670
44,Rruga Martin Camaj,4001,42.0746953,19.5164161
32,Rruga Oso Kuka,4001,42.0692908,19.5092334
16,Rruga Jeronim De Rada,4001,42.0710926,19.5160703
110,Bulevardi Zogu I,4001,42.0606912,19.5044996
1,Rruga e Jezuiteve,4001,42.0633911,19.5152231
46,Bulevardi Skënderbeu,4001,42.0652569,19.5157247
49,Bulevardi Zogu I,4001,42.0619061,19.5060314
36,Bulevardi Zogu I,4001,42.0621590,19.5058152
61,Bulevardi Zogu I,4001,42.0616606,19.5058345
56,Bulevardi Skënderbeu,4001,42.0648882,19.5162187
1,Rruga Myzafer Pipa,4001,42.0663189,19.5072740
3,Bulevardi Skënderbeu,4001,42.0664378,19.5147192
48,Rruga Myzafer Pipa,4001,42.0660983,19.5065520
58,Bulevardi Zogu I,4001,42.0616751,19.5053672
11,Bulevardi Skënderbeu,4001,42.0658182,19.5155646
6,Rruga e Jezuiteve,4001,42.0635202,19.5154858
23,Rruga Don Bosko,4001,42.0636308,19.5132224
12,Rruga Don Bosko,4001,42.0637418,19.5140378
53,Bulevardi Zogu I,4001,42.0617747,19.5062377
21,Bulevardi Skënderbeu,4001,42.0652963,19.5162900
8,Bulevardi Skënderbeu,4001,42.0663402,19.5142970
58,Rruga Myzafer Pipa,4001,42.0658882,19.5062931
26,Rruga Myzafer Pipa,4001,42.0664746,19.5067163
36,Bulevardi Skënderbeu,4001,42.0656127,19.5152582
17,Bulevardi Skënderbeu,4001,42.0655326,19.5159462
18,Rruga Edith Durham,4001,42.0637213,19.5160737
2,Rruga 28 Nëntori,4001,42.0665579,19.5130613
14,Bulevardi Skënderbeu,4001,42.0660130,19.5143563
181,Bulevardi Zogu I,4001,42.0602463,19.5047566
83,Bulevardi Mehmet Pashë Plaku,4000,42.0585555,19.5070395
22,Bulevardi Skënderbeu,4001,42.0658816,19.5147313
31,Rruga e Bunës,4001,42.0364951,19.4954370
29,Rruga e Bunës,4001,42.0366510,19.4960589
40,Rruga e Bunës,4001,42.0349947,19.4947425
21,Rruga e Bunës,4001,42.0372316,19.4965518
6,Rruga e Bunës,4001,42.0371731,19.4944068
24,Rruga e Bunës,4001,42.0362054,19.4944437
10,Rruga e Shegave,4001,42.0383944,19.4941814
2,Rruga Labeania,4001,42.0399877,19.4935689
12,Rruga e Shegave,4001,42.0386223,19.4942069
38,Rruga e Bunës,4001,42.0349873,19.4952246
27,Rruga e Bunës,4001,42.0368881,19.4961403
12,Rruga e Bunës,4001,42.0369604,19.4940120
20,Rruga e Bunës,4001,42.0363493,19.4949498
3,Rruga e Bunës,4001,42.0379042,19.4945839
10,Rruga Labeania,4001,42.0389052,19.4941325
6,Rruga e Shegave,4001,42.0384839,19.4943941
9,Rruga e Bërdices,4001,42.0363733,19.4970254
25,Rruga e Bunës,4001,42.0369845,19.4968384
36,Rruga e Bunës,4001,42.0353446,19.4955348
1,Rruga e Bërdices,4001,42.0361443,19.4955014
1,Rruga e Shegave,4001,42.0387263,19.4959195
12,Rruga Labeania,4001,42.0389040,19.4944221
32,Rruga e Bunës,4001,42.0356229,19.4950482
15,Rruga e Bunës,4001,42.0373744,19.4947963
15,Rruga e Bërdices,4001,42.0361649,19.4972305
3,Rruga e Bërdices,4001,42.0363769,19.4958568
5,Rruga e Bërdices,4001,42.0365224,19.4961305
42,Rruga e Bunës,4001,42.0349035,19.4949459
10,Rruga e Bunës,4001,42.0369976,19.4942192
22,Rruga e Bunës,4001,42.0362654,19.4947247
1,Rruga e Bunës,4001,42.0380442,19.4945391
7,Rruga e Bërdices,4001,42.0365824,19.4965424
7,Rruga e Katalines,4001,42.0392728,19.4936123
41,Rruga e Shegave,4001,42.0385055,19.4938805
44,Rruga e Bunës,4001,42.0347793,19.4951853
3,Rruga e Shegave,4001,42.0386069,19.4959406
26,Rruga e Bunës,4001,42.0357762,19.4942398
10,Rruga e Bërdices,4001,42.0351374,19.4968271
4,Rruga e Bunës,4001,42.0376057,19.4941716
19,Rruga e Bërdices,4001,42.0359001,19.4972202
14,Rruga Labeania,4001,42.0387088,19.4945777
19,Rruga Besnik Sykja,4001,42.0642464,19.5117731
25,Rruga Don Bosko,4001,42.0640508,19.5130745
40,Rruga Dom Bosko,4001,42.0649653,19.5126731
33,Rruga Don Bosko,4001,42.0643132,19.5127863
38,Rruga Dom Bosko,4001,42.0648563,19.5128154
29,Rruga 28 Nëntori,4001,42.0651688,19.5125714
34,Rruga e Shirokes,4007,42.0597461,19.4530428
117,Bulevardi Mehmet Pashë Plaku,4001,42.0572329,19.5027973
2,Rruga e Katalines,4001,42.0407734,19.4929968
20,Rruga At Gjergj Fishta,4000,42.0674244,19.5165080
18,Rruga At Gjergj Fishta,4000,42.0671679,19.5166095
21,Rruga e Bërdices,4001,42.0357600,19.4971661
23,Rruga e Bërdices,4001,42.0357403,19.4970737
6,Rruga e Bërdices,4001,42.0356246,19.4965527
4,Rruga e Bërdices,4001,42.0360320,19.4963318
12,Rruga e Bërdices,4001,42.0361638,19.4966146
16,Rruga e Bunës,4001,42.0366003,19.4943561
18,Rruga e Bunës,4001,42.0366403,19.4944919
14,Rruga e Bunës,4001,42.0365596,19.4940202
5,Rruga e Bunës,4001,42.0375814,19.4947463
26,Bulevardi Skënderbeu,4001,42.0657064,19.5146353
30,Bulevardi Skënderbeu,4001,42.0654887,19.5145553
28,Bulevardi Skënderbeu,4001,42.0656043,19.5145220
19,Rruga Jorgji Karamitri,4001,42.0632310,19.5117982
42,Bulevardi Skënderbeu,4001,42.0652978,19.5153466
52,Bulevardi Skënderbeu,4001,42.0650622,19.5153713
34,Bulevardi Skënderbeu,4001,42.0655012,19.5148868
118,Rruga Marin Beçikemi,4001,42.0656231,19.5185126
6,Bulevardi Skënderbeu,4001,42.0662272,19.5141744
25,Rruga At Gjergj Fishta,4001,42.0668891,19.5155062
76,Bulevardi Skënderbeu,4001,42.0643976,19.5162590
8,Rruga Marije Kraja,4001,42.0637705,19.5224368
4,Rruga At Gjergj Fishta,4001,42.0670727,19.5172826
16,Rruga Berdicej,4001,42.0660914,19.5173359
70,Bulevardi Skënderbeu,4001,42.0645823,19.5165329
26,Rruga e Jezuiteve,4001,42.0641309,19.5149521
19,Rruga At Gjergj Fishta,4001,42.0669160,19.5166750
10,Rruga Marije Kraja,4001,42.0638878,19.5224526
32,Bulevardi Skënderbeu,4001,42.0653133,19.5147242
1,Rruga Palokë Kurti,4001,42.0659848,19.5157657
55,Rruga Justin Godard,4001,42.0643443,19.5194917
13,Rruga Gjuhadol,4001,42.0660640,19.5181104
148,Rruga Marin Beçikemi,4001,42.0647285,19.5175962
24,Rruga e Jezuiteve,4001,42.0640205,19.5150594
8,Rruga At Gjergj Fishta,4001,42.0669226,19.5170071
25,Rruga e Jezuiteve,4001,42.0648923,19.5154659
6,Rruga Pashko Gjeçi,4001,42.0636525,19.5225576
5,Rruga Berdicej,4001,42.0659266,19.5176957
14,Rruga Edith Durham,4001,42.0640196,19.5159730
10,Rruga Agron,4001,42.0454161,19.4894485
3,Balli i Urës,4001,42.0500992,19.4930187
33,Rruga e Qafes,4001,42.0510350,19.4953986
4,Rruga Agron,4001,42.0472484,19.4910930
6,Rruga Agron,4001,42.0459007,19.4898609
2,Rruga Agron,4001,42.0474632,19.4911773
6,Rruga e Shirokes,4001,42.0545285,19.4872700
27,Rruga Roza Lejn,4001,42.0562513,19.5222907
51,Rruga Roza Lejn,4001,42.0582846,19.5209232
6,Rruga Roza Lejn,4001,42.0560238,19.5229622
7,Rruga e Murgeshave,4001,42.0671433,19.5185048
48,Rruga Roza Lejn,4001,42.0580602,19.5215276
26,Rruga Roza Lejn,4001,42.0578223,19.5228574
20,Rruga e Gurazezve,4001,42.0683048,19.5184670
36,Rruga Roza Lejn,4001,42.0577950,19.5220871
20,Rruga Marin Biçikemi,4001,42.0680168,19.5223211
22,Rruga Roza Lejn,4001,42.0574648,19.5221937
12,Rruga Roza Lejn,4001,42.0566012,19.5225818
52,Rruga Roza Lejn,4001,42.0582493,19.5212991
54,Rruga Roza Lejn,4001,42.0584090,19.5212083
41,Rruga Roza Lejn,4001,42.0576263,19.5213992
69,Rruga Marin Beçikemi,4001,42.0670663,19.5215940
23,Rruga Gjuhadol,4001,42.0665080,19.5178806
38,Rruga Gjuhadol,4001,42.0677665,19.5175416
8,Rruga e Gurazezve,4001,42.0679395,19.5177769
32,Rruga Roza Lejn,4001,42.0580085,19.5223807
2,Rruga Marin Beçikemi,4001,42.0695497,19.5239313
16,Rruga Roza Lejn,4001,42.0569993,19.5223371
22,Rruga e Gurazezve,4001,42.0682861,19.5186677
19,Rruga Gjuhadol,4001,42.0662026,19.5180493
7,Rruga Gjuhadol,4001,42.0658021,19.5186029
39,Rruga Roza Lejn,4001,42.0574031,19.5214758
2,Rruga Roza Lejn,4001,42.0558094,19.5230688
5,Rruga Roza Lejn,4001,42.0553190,19.5228236
37,Rruga Roza Lejn,4001,42.0572820,19.5216777
13,Rruga Roza Lejn,4001,42.0551568,19.5222148
35,Rruga Roza Lejn,4001,42.0571026,19.5218160
44,Rruga Roza Lejn,4001,42.0577103,19.5217227
11,Rruga Roza Lejn,4001,42.0553223,19.5224468
38,Rruga Roza Lejn,4001,42.0575665,19.5217932
9,Rruga Roza Lejn,4001,42.0554614,19.5226613
15,Rruga Roza Lejn,4001,42.0553606,19.5218951
12,Rruga Zogej,4007,42.0613432,19.4450290
14,Rruga e Zogajve,4007,42.0644336,19.4351092
18,Rruga Zogej,4007,42.0681418,19.4250898
55,Rruga e Shirokes,4001,42.0541951,19.4885176
8,Rruga e Shirokes,4001,42.0543404,19.4779108
49,Rruga e Shirokes,4001,42.0540891,19.4888787
47,Rruga e Shirokes,4001,42.0521842,19.4903792
51,Rruga Gjylbegaj,4001,42.0683028,19.5098532
24,Rruga Studenti,4000,42.0662638,19.5096560
9,Rruga Besnik Sykja,4001,42.0645296,19.5115457
77,Rruga Kol Idromeno,4001,42.0679891,19.5150098
60,Bulevardi Zogu I,4001,42.0616836,19.5048248
6,Bulevardi Zogu I,4001,42.0646893,19.5075527
64,Bulevardi Zogu I,4001,42.0618984,19.5043213
150,Rruga Myzafer Pipa,4001,42.0633448,19.5038103
162,Rruga Myzafer Pipa,4001,42.0628795,19.5036221
31,Rruga Myzafer Pipa,4001,42.0651530,19.5061728
73,Rruga Myzafer Pipa,4001,42.0638742,19.5051146
107,Rruga Myzafer Pipa,4001,42.0622087,19.5041321
29,Bulevardi Zogu I,4001,42.0624312,19.5067967
126,Rruga Myzafer Pipa,4001,42.0639800,19.5045870
91,Bulevardi Zogu I,4001,42.0611399,19.5057704
48,Bulevardi Zogu I,4001,42.0620131,19.5045670
26,Rruga Dom Bosko,4001,42.0642977,19.5132669
91,Rruga Myzafer Pipa,4001,42.0628437,19.5043528
105,Rruga Myzafer Pipa,4001,42.0622954,19.5039539
41,Rruga Myzafer Pipa,4001,42.0649035,19.5060199
154,Rruga Myzafer Pipa,4001,42.0631070,19.5038476
77,Bulevardi Zogu I,4001,42.0613870,19.5056022
20,Sheshi Demokracia,4001,42.0676443,19.5123249
74,Bulevardi Zogu I,4001,42.0614866,19.5049169
89,Rruga Myzafer Pipa,4001,42.0629784,19.5044563
90,Bulevardi Zogu I,4001,42.0610399,19.5045557
8,Rruga 28 Nëntori,4001,42.0659623,19.5128990
57,Rruga Myzafer Pipa,4001,42.0644146,19.5055882
1,Rruga Gasper Beltoja,4001,42.0627510,19.5042462
6,Rruga Gasper Beltoja,4001,42.0624875,19.5044178
130,Rruga Myzafer Pipa,4001,42.0638585,19.5046357
62,Rruga Myzafer Pipa,4001,42.0657123,19.5062324
69,Bulevardi Zogu I,4001,42.0613754,19.5059720
136,Rruga Myzafer Pipa,4001,42.0637371,19.5046464
12,Rruga Kongresi i Lushnjes,4001,42.0632304,19.5056377
3,Rruga Myzafer Pipa,4001,42.0662066,19.5071446
18,Rruga Kongresi i Lushnjes,4001,42.0632976,19.5054164
76,Bulevardi Zogu I,4001,42.0613027,19.5047747
53,Rruga Myzafer Pipa,4001,42.0645874,19.5056448
87,Rruga Myzafer Pipa,4001,42.0630898,19.5048174
19,Rruga Myzafer Pipa,4001,42.0655754,19.5065009
55,Rruga Myzafer Pipa,4001,42.0644926,19.5056797
92,Bulevardi Zogu I,4001,42.0609702,19.5047530
3,Rruga Gasper Beltoja,4001,42.0626983,19.5044500
25,Rruga Myzafer Pipa,4001,42.0652855,19.5063228
124,Rruga Myzafer Pipa,4001,42.0639745,19.5048170
65,Rruga Myzafer Pipa,4001,42.0639520,19.5052313
56,Bulevardi Zogu I,4001,42.0616903,19.5050956
146,Rruga Myzafer Pipa,4001,42.0632867,19.5042181
81,Rruga Myzafer Pipa,4001,42.0635087,19.5047391
19,Rruga Kongresi i Lushnjes,4001,42.0625001,19.5048255
95,Bulevardi Zogu I,4001,42.0611944,19.5054776
30,Rruga Dom Bosko,4001,42.0644746,19.5131116
1,Rruga 28 Nëntori,4001,42.0649259,19.5121976
83,Rruga Myzafer Pipa,4001,42.0633082,19.5044779
19,Rruga 13 Dhjetori,4001,42.0643020,19.5103213
166,Rruga Myzafer Pipa,4001,42.0626425,19.5033268
63,Rruga Myzafer Pipa,4001,42.0641776,19.5052471
16,Rruga Kongresi i Lushnjes,4001,42.0634575,19.5055105
11,Rruga Myzafer Pipa,4001,42.0658193,19.5067739
6,Rruga Kongresi i Lushnjes,4001,42.0628442,19.5059891
13,Rruga Kongresi i Manastirit,4001,42.0671985,19.5098602
28,Rruga Dom Bosko,4001,42.0643965,19.5131989
22,Rruga Kongresi i Lushnjes,4001,42.0635769,19.5053908
17,Rruga Kongresi i Lushnjes,4001,42.0625332,19.5047340
25,Rruga Kongresi i Lushnjes,4001,42.0625411,19.5049535
75,Bulevardi Zogu I,4001,42.0611521,19.5060829
132,Rruga Myzafer Pipa,4001,42.0638332,19.5044996
79,Rruga Myzafer Pipa,4001,42.0635413,19.5046713
13,Rruga Myzafer Pipa,4001,42.0656905,19.5066935
85,Bulevardi Zogu I,4001,42.0610761,19.5060277
144,Rruga Myzafer Pipa,4001,42.0634125,19.5042495
120,Rruga Myzafer Pipa,4001,42.0641674,19.5049533
99,Bulevardi Zogu I,4001,42.0610585,19.5053454
164,Rruga Myzafer Pipa,4001,42.0628171,19.5034158
26,Bulevardi Zogu I,4001,42.0634114,19.5066951
39,Rruga Myzafer Pipa,4001,42.0649514,19.5061659
2,Rruga Dr. Selaudin Bekteshi,4001,42.0681858,19.5145689
16,Bulevardi Zogu I,4001,42.0638210,19.5071018
105,Bulevardi Zogu I,4001,42.0607752,19.5055045
4,Rruga Dr. Selaudin Bekteshi,4001,42.0682968,19.5144777
34,Bulevardi Zogu I,4001,42.0627826,19.5063755
32,Bulevardi Zogu I,4001,42.0630572,19.5066172
6,Rruga 28 Nëntori,4001,42.0652613,19.5129167
1,Rruga 13 Dhjetori,4001,42.0644913,19.5108722
97,Bulevardi Zogu I,4001,42.0608938,19.5058523
39,Rruga 28 Nëntori,4001,42.0647423,19.5123952
9,Rruga 28 Nëntori,4001,42.0653349,19.5126871
9,Rruga Kongresi i Manastirit,4001,42.0681370,19.5094507
46,Rruga Arkitekt Sinani,4001,42.0624385,19.5079779
19,Sheshi Demokracia,4001,42.0676920,19.5124154
89,Rruga Kolë Idromeno,4001,42.0671274,19.5145173
7,Rruga Kongresi i Manastirit,4001,42.0682829,19.5096446
41,Rruga Dom Bosko,4001,42.0649210,19.5123920
68,Bulevardi Zogu I,4001,42.0616389,19.5043554
38,Rruga Studenti,4001,42.0657336,19.5087416
2,Rruga Don Bosko,4001,42.0626999,19.5146359
2,Rruga Edith Durham,4001,42.0625030,19.5150776
2,Bulevardi Skënderbeu,4001,42.0664825,19.5139990
40,Bulevardi Skënderbeu,4001,42.0651775,19.5149976
24,Rruga Baron Franz Nopcsa,4001,42.0651728,19.5145733
38,Bulevardi Skënderbeu,4001,42.0654655,19.5154585
27,Rruga e Jezuiteve,4001,42.0649398,19.5156981
78,Bulevardi Skënderbeu,4001,42.0644398,19.5168411
4,Bulevardi Skënderbeu,4001,42.0661790,19.5139562
18,Rruga e Jezuiteve,4001,42.0639626,19.5154679
80,Bulevardi Skënderbeu,4001,42.0643219,19.5169984
2,Rruga e Jezuiteve,4001,42.0634022,19.5156985
8,Rruga Don Bosko,4001,42.0630958,19.5142178
18,Rruga Gjuhadol,4001,42.0664055,19.5182631
20,Rruga Gjuhadol,4001,42.0665264,19.5180738
18,Bulevardi Skënderbeu,4001,42.0658336,19.5141201
20,Bulevardi Skënderbeu,4001,42.0658854,19.5142491
65,Rruga Gjuhadol,4001,42.0677784,19.5171781
5,Rruga e Murgeshave,4001,42.0669889,19.5182817
51,Rruga Gjuhadol,4001,42.0674988,19.5175291
2,Rruga e Gurazezve,4001,42.0676947,19.5177624
15,Rruga Berdicej,4001,42.0655744,19.5174358
116,Rruga Marin Beçikemi,4001,42.0654706,19.5186873
59,Rruga Gjuhadol,4001,42.0675091,19.5169650
14,Rruga Gjuhadol,4001,42.0662571,19.5184899
10,Rruga Gjuhadol,4001,42.0660991,19.5184840
37,Rruga At Gjergj Fishta,4001,42.0666912,19.5150332
35,Rruga Kol Idromeno,4001,42.0682350,19.5164389
11,Rruga At Gjergj Fishta,4001,42.0664718,19.5168289
25,Rruga Gjuhadol,4001,42.0666298,19.5177187
8,Rruga Gjuhadol,4001,42.0659519,19.5186578
12,Rruga Berdicej,4001,42.0661885,19.5176975
20,Rruga Berdicej,4001,42.0659535,19.5171476
26,Rruga Berdicej,4001,42.0660853,19.5170954
12,Rruga At Gjergj Fishta,4001,42.0670367,19.5169080
22,Rruga Gjuhadol,4001,42.0667189,19.5179883
6,Rruga Gjuhadol,4001,42.0658773,19.5187486
33,Rruga Gjuhadol,4001,42.0672688,19.5176051
8,Rruga Berdicej,4001,42.0663531,19.5175230
11,Rruga Berdicej,4001,42.0658454,19.5175113
57,Rruga Gjuhadol,4001,42.0676680,19.5173838
2,Rruga At Gjergj Fishta,4001,42.0668640,19.5173718
6,Rruga At Gjergj Fishta,4001,42.0668529,19.5171498
4,Rruga Gjuhadol,4001,42.0658122,19.5188136
24,Rruga Berdicej,4001,42.0658777,19.5170403
42,Rruga Gjuhadol,4001,42.0680510,19.5173344
83,Rruga Gjuhadol,4001,42.0680604,19.5170930
1,Rruga e Murgeshave,4001,42.0667742,19.5181606
36,Rruga Gjuhadol,4001,42.0675923,19.5176649
21,Rruga Kol Idromeno,4001,42.0682693,19.5167382
23,Rruga Kol Idromeno,4001,42.0682049,19.5168108
1,Rruga e Gurazezve,4001,42.0680566,19.5176807
17,Rruga At Gjergj Fishta,4001,42.0666888,19.5171558
34,Rruga Gjuhadol,4001,42.0676368,19.5178827
31,Bulevardi Skënderbeu,4001,42.0651475,19.5170348
31,Rruga Gjuhadol,4001,42.0671273,19.5174135
33,Bulevardi Skënderbeu,4001,42.0646305,19.5171898
13,Rruga Berdicej,4001,42.0657047,19.5175095
24,Rruga Gjuhadol,4001,42.0669044,19.5179095
85,Rruga Gjuhadol,4001,42.0681898,19.5170537
28,Rruga At Gjergj Fishta,4001,42.0675842,19.5165712
35,Rruga Gjuhadol,4001,42.0671903,19.5173785
9,Rruga e Murgeshave,4001,42.0671284,19.5187866
7,Bulevardi Skënderbeu,4001,42.0663596,19.5151561
6,Rruga Don Bosko,4001,42.0629933,19.5144750
25,Bulevardi Skënderbeu,4001,42.0652422,19.5167780
16,Rruga Gjuhadol,4001,42.0664512,19.5184767
31,Rruga Kol Idromeno,4001,42.0680500,19.5163171
4,Rruga Berdicej,4001,42.0664292,19.5177821
6,Rruga e Gurazezve,4001,42.0678076,19.5178285
3,Rruga e Gurazezve,4001,42.0682829,19.5176199
16,Bulevardi Skënderbeu,4001,42.0659789,19.5140932
47,Rruga Gjuhadol,4001,42.0674300,19.5173164
28,Rruga Gjuhadol,4001,42.0672840,19.5177836
45,Rruga Gjuhadol,4001,42.0673964,19.5171136
27,Rruga Gjuhadol,4001,42.0670468,19.5176111
3,Rruga Palokë Kurti,4001,42.0661396,19.5157586
7,Rruga At Gjergj Fishta,4001,42.0665153,19.5172185
44,Rruga Gjuhadol,4001,42.0681373,19.5174428
6,Rruga Pashko Vasa,4001,42.0618400,19.5169181
25,Rruga Edith Durham,4001,42.0625819,19.5155179
10,Rruga Aleksander Sirdani,4001,42.0610875,19.5163626
77,Rruga Gjuhadol,4001,42.0678498,19.5166707
9,Rruga Kol Idromeno,4001,42.0688568,19.5167098
61,Rruga Kol Idromeno,4001,42.0683978,19.5157994
45,Rruga Kol Idromeno,4001,42.0684408,19.5160860
17,Rruga Jorgji Karamitri,4001,42.0634242,19.5114861
32,Rruga At Gjergj Fishta,4001,42.0677242,19.5164605
81,Rruga Gjuhadol,4001,42.0679748,19.5168188
79,Rruga Kol Idromeno,4001,42.0677725,19.5151041
63,Rruga Kol Idromeno,4001,42.0682910,19.5157172
39,Rruga Gjuhadol,4001,42.0672704,19.5170643
101,Rruga Gjuhadol,4001,42.0688403,19.5169353
38,Rruga At Gjergj Fishta,4001,42.0677861,19.5156792
35,Rruga At Gjergj Fishta,4001,42.0670161,19.5148748
21,Rruga Jorgji Karamitri,4001,42.0628969,19.5118480
46,Rruga At Gjergj Fishta,4001,42.0673637,19.5152431
40,Rruga At Gjergj Fishta,4001,42.0676732,19.5158261
13,Rruga Kol Idromeno,4001,42.0685559,19.5166111
75,Rruga Kol Idromeno,4001,42.0678486,19.5152680
36,Rruga At Gjergj Fishta,4001,42.0678473,19.5158739
15,Rruga Kol Idromeno,4001,42.0685168,19.5164885
65,Rruga Kol Idromeno,4001,42.0680557,19.5158786
93,Rruga Gjuhadol,4001,42.0686008,19.5169828
99,Rruga Gjuhadol,4001,42.0687202,19.5168205
97,Rruga Gjuhadol,4001,42.0686823,19.5166590
39,Rruga Kol Idromeno,4001,42.0685844,19.5161618
69,Rruga Kol Idromeno,4001,42.0679818,19.5156288
53,Rruga Kol Idromeno,4001,42.0681049,19.5160715
47,Rruga Kol Idromeno,4001,42.0682765,19.5161947
75,Rruga Gjuhadol,4001,42.0676951,19.5165695
33,Rruga At Gjergj Fishta,4001,42.0672026,19.5148755
52,Rruga At Gjergj Fishta,4001,42.0675907,19.5149251
11,Rruga Kol Idromeno,4001,42.0687003,19.5164371
17,Rruga Kol Idromeno,4001,42.0684090,19.5167353
29,Rruga Kol Idromeno,4001,42.0680349,19.5167366
19,Rruga Kol Idromeno,4001,42.0684438,19.5168355
50,Rruga At Gjergj Fishta,4001,42.0674934,19.5150061
54,Rruga At Gjergj Fishta,4001,42.0673094,19.5146896
41,Rruga Kol Idromeno,4001,42.0684917,19.5162211
51,Rruga Kol Idromeno,4001,42.0682252,19.5160803
24,Rruga Kol Idromeno,4001,42.0691111,19.5156213
7,Rruga Jeronim De Rada,4001,42.0696970,19.5167139
14,Rruga Jeronim De Rada,4001,42.0706830,19.5164961
8,Rruga Fushë Çelë,4001,42.0682161,19.5134759
22,Rruga Fushë Çelë,4001,42.0680850,19.5131491
14,Rruga Martin Camaj,4001,42.0722603,19.5155403
33,Rruga Jeronim De Rada,4001,42.0706164,19.5154705
7,Rruga Dr. Selaudin Bekteshi,4001,42.0686599,19.5134467
37,Rruga Jeronim De Rada,4001,42.0707774,19.5152651
2,Rruga Martin Camaj,4001,42.0712527,19.5153067
8,Rruga Vaso Kadia,4001,42.0698729,19.5153538
16,Rruga Fushë Çelë,4001,42.0683958,19.5131584
12,Rruga Vaso Kadia,4001,42.0696834,19.5151028
16,Rruga Martin Camaj,4001,42.0725136,19.5155266
1,Rruga Teuta,4001,42.0680002,19.5128110
11,Rruga Studenti,4001,42.0671864,19.5117919
4,Rruga Vaso Kadia,4001,42.0702888,19.5156765
21,Rruga Vladimir Jani,4001,42.0716630,19.5181748
9,Rruga Dr. Selaudin Bekteshi,4001,42.0685608,19.5132362
12,Rruga Martin Camaj,4001,42.0721633,19.5154529
17,Rruga Teuta,4001,42.0680529,19.5127017
36,Rruga Kol Idromeno,4001,42.0684831,19.5150649
5,Rruga Studenti,4001,42.0674018,19.5116132
7,Rruga Studenti,4001,42.0673608,19.5116823
76,Rruga Kardinal Mikel Koliqi,4001,42.0699599,19.5175200
8,Rruga Jeronim De Rada,4001,42.0702253,19.5171747
8,Rruga Kol Idromeno,4001,42.0692479,19.5168704
8,Rruga Dr. Selaudin Bekteshi,4001,42.0688062,19.5138698
2,Rruga Teuta,4001,42.0673214,19.5125703
4,Rruga Kol Idromeno,4001,42.0693500,19.5169239
10,Rruga Fushë Çelë,4001,42.0681084,19.5133938
3,Rruga Jeronim De Rada,4001,42.0696144,19.5170296
12,Rruga Dr. Selaudin Bekteshi,4001,42.0690237,19.5136159
31,Rruga Jeronim De Rada,4001,42.0705182,19.5156670
5,Rruga Andon Ballaçi,4001,42.0719939,19.5157442
2,Rruga Hasan Riza Pasha,4001,42.0698690,19.5159278
20,Rruga Fushë Çelë,4001,42.0683418,19.5130227
17,Rruga Jeronim De Rada,4001,42.0699416,19.5165976
18,Rruga Martin Camaj,4001,42.0731957,19.5156423
6,Rruga Jeronim De Rada,4001,42.0701115,19.5169847
23,Rruga Jeronim De Rada,4001,42.0702881,19.5160102
27,Rruga Jeronim De Rada,4001,42.0704189,19.5158483
6,Rruga Dr. Selaudin Bekteshi,4001,42.0685819,19.5141982
10,Rruga Vaso Kadia,4001,42.0697131,19.5152414
1,Rruga Jeronim De Rada,4001,42.0695808,19.5170605
2,Rruga Fushë Çelë,4001,42.0684381,19.5137254
19,Rruga Jeronim De Rada,4001,42.0699981,19.5165298
49,Rruga Hasan Riza Pasha,4001,42.0684499,19.5145774
35,Rruga Jeronim De Rada,4001,42.0707508,19.5154350
14,Rruga Kol Idromeno,4001,42.0689747,19.5164221
11,Rruga Dr. Selaudin Bekteshi,4001,42.0685997,19.5130708
10,Rruga Dr. Selaudin Bekteshi,4001,42.0688496,19.5137652
4,Rruga Martin Camaj,4001,42.0714944,19.5152292
2,Rruga Andon Ballaçi,4001,42.0718640,19.5155005
6,Rruga Martin Camaj,4001,42.0716799,19.5152323
10,Rruga Martin Camaj,4001,42.0719418,19.5153084
5,Rruga Dr. Selaudin Bekteshi,4001,42.0685289,19.5134266
13,Rruga Dr. Selaudin Bekteshi,4001,42.0688433,19.5132287
44,Rruga Kol Idromeno,4001,42.0682480,19.5150137
30,Rruga Kol Idromeno,4001,42.0686400,19.5157635
10,Rruga Jeronim De Rada,4001,42.0703375,19.5171203
10,Rruga Andon Ballaçi,4001,42.0714773,19.5158060
18,Rruga Kol Idromeno,4001,42.0687547,19.5160364
50,Rruga Kardinal Mikel Koliqi,4001,42.0709375,19.5181784
21,Rruga Hasan Riza Pasha,4001,42.0693453,19.5161073
8,Rruga Martin Camaj,4001,42.0718326,19.5152613
10,Rruga 28 Nëntori,4001,42.0657264,19.5126231
28,Rruga Vaso Kadia,4001,42.0689581,19.5141227
28,Rruga Kol Idromeno,4001,42.0686713,19.5159167
6,Rruga Kol Idromeno,4001,42.0693744,19.5166695
5,Rruga Jeronim De Rada,4001,42.0696890,19.5168586
14,Rruga Vaso Kadia,4001,42.0694541,19.5147891
1,Rruga Dr. Selaudin Bekteshi,4001,42.0685074,19.5137420
46,Rruga Kol Idromeno,4001,42.0681595,19.5148846
18,Rruga Vaso Kadia,4001,42.0692064,19.5144554
4,Rruga Andon Ballaçi,4001,42.0717535,19.5156461
1,Rruga Andon Ballaçi,4001,42.0722230,19.5158099
12,Rruga Fushë Çelë,4001,42.0683539,19.5135168
1,Rruga Teuta,4001,42.0680464,19.5129383
12,Rruga Jeronim De Rada,4001,42.0703579,19.5166588
3,Rruga Dr. Selaudin Bekteshi,4001,42.0685502,19.5136224
19,Rruga Andon Ballaçi,4001,42.0716046,19.5160082
78,Rruga Kardinal Mikel Koliqi,4001,42.0699044,19.5174411
29,Rruga Jeronim De Rada,4001,42.0704714,19.5157462
33,Rruga Hasan Riza Pasha,4001,42.0689201,19.5152715
34,Rruga Kolë Idromeno,4001,42.0685954,19.5155684
6,Rruga Fushë Çelë,4001,42.0683207,19.5135869
20,Rruga Jeronim De Rada,4001,42.0710426,19.5154208
15,Rruga Andon Ballaçi,4001,42.0716688,19.5159776
26,Rruga 28 Nëntori,4001,42.0652916,19.5120508
6,Rruga Vaso Kadia,4001,42.0700802,19.5154646
9,Rruga Jeronim De Rada,4001,42.0697631,19.5167304
2,Rruga Kol Idromeno,4001,42.0694440,19.5170464
15,Rruga Kardinal Mikel Koliqi,4001,42.0718959,19.5202304
51,Rruga Ludovik Saraçi,4001,42.0690264,19.5183464
65,Bulevardi Zogu I,4001,42.0612801,19.5063508
58,Rruga Gjuhadol,4001,42.0685831,19.5174663
66,Rruga Gjuhadol,4001,42.0687420,19.5174095
13,Rruga e Gurazezve,4001,42.0685112,19.5183050
5,Rruga Kol Idromeno,4001,42.0692143,19.5171485
12,Rruga e Gurazezve,4001,42.0679815,19.5179891
7,Rruga e Gurazezve,4001,42.0684397,19.5178883
65,Rruga Ludovik Saraçi,4001,42.0691463,19.5172592
27,Rruga e Gurazezve,4001,42.0687323,19.5184421
21,Bulevardi Zogu I,4001,42.0627109,19.5068310
59,Rruga Ludovik Saraçi,4001,42.0691135,19.5177777
62,Rruga Gjuhadol,4001,42.0685874,19.5171529
27,Bulevardi Zogu I,4001,42.0623310,19.5064696
57,Rruga Ludovik Saraçi,4001,42.0689455,19.5179818
42,Rruga e Gurazezve,4001,42.0685861,19.5193603
114,Rruga Marin Beçikemi,4001,42.0656725,19.5189901
55,Bulevardi Zogu I,4001,42.0615792,19.5061419
14,Rruga e Gurazezve,4001,42.0681264,19.5180770
31,Rruga e Gurazezve,4001,42.0689000,19.5186097
108,Rruga Marin Beçikemi,4001,42.0658397,19.5192046
21,Rruga e Gurazezve,4001,42.0686697,19.5188508
25,Bulevardi Zogu I,4001,42.0625068,19.5066310
44,Rruga e Gurazezve,4001,42.0687283,19.5193994
23,Rruga e Gurazezve,4001,42.0687760,19.5187606
1,Rruga Kol Idromeno,4001,42.0693951,19.5173681
37,Rruga e Gurazezve,4001,42.0687490,19.5190822
33,Rruga e Gurazezve,4001,42.0688444,19.5189102
47,Bulevardi Zogu I,4001,42.0620545,19.5061829
93,Rruga Kardinal Mikel Koliqi,4001,42.0695459,19.5174259
19,Rruga e Gurazezve,4001,42.0685816,19.5185913
70,Rruga Gjuhadol,4001,42.0688528,19.5173587
32,Rruga e Gurazezve,4001,42.0686490,19.5191221
25,Rruga e Gurazezve,4001,42.0688495,19.5187032
33,Rruga Ludovik Saraçi,4001,42.0690137,19.5199054
43,Bulevardi Zogu I,4001,42.0621582,19.5063033
18,Rruga e Gurazezve,4001,42.0680713,19.5183016
57,Bulevardi Zogu I,4001,42.0615208,19.5063510
16,Rruga e Gurazezve,4001,42.0679748,19.5182500
30,Rruga e Gurazezve,4001,42.0685862,19.5190047
72,Rruga Gjuhadol,4001,42.0690331,19.5171686
63,Bulevardi Zogu I,4001,42.0611759,19.5065111
10,Rruga e Gurazezve,4001,42.0679491,19.5178924
77,Rruga Kardinal Mikel Koliqi,4001,42.0699632,19.5178502
64,Rruga Gjuhadol,4001,42.0687178,19.5171912
56,Rruga Gjuhadol,4001,42.0684868,19.5172262
11,Rruga e Gurazezve,4001,42.0687516,19.5180979
68,Rruga Gjuhadol,4001,42.0688477,19.5171301
3,Rruga Kol Idromeno,4001,42.0692909,19.5173346
5,Rruga e Gurazezve,4001,42.0683209,19.5177849
45,Rruga e Gurazezve,4001,42.0688316,19.5193500
28,Rruga e Gurazezve,4001,42.0684345,19.5189006
89,Bulevardi Zogu I,4001,42.0610022,19.5059369
9,Rruga e Gurazezve,4001,42.0684539,19.5181201
41,Rruga e Gurazezve,4001,42.0688368,19.5191660
26,Rruga e Gurazezve,4001,42.0685371,19.5188250
17,Bulevardi Zogu I,4001,42.0631300,19.5075285
106,Rruga Ludovik Saraçi,4001,42.0695068,19.5176180
102,Bulevardi Zogu I,4001,42.0609929,19.5038337
122,Bulevardi Zogu I,4001,42.0605070,19.5037994
86,Bulevardi Zogu I,4001,42.0610924,19.5043518
140,Bulevardi Zogu I,4001,42.0597454,19.5037075
12,Rruga Abaz Golemi,4001,42.0609886,19.5035671
43,Rruga Kongresi i Lushnjes,4001,42.0631266,19.5051276
52,Bulevardi Zogu I,4001,42.0619969,19.5048463
21,Rruga Kongresi i Lushnjes,4001,42.0623287,19.5050783
134,Bulevardi Zogu I,4001,42.0601197,19.5037594
136,Bulevardi Zogu I,4001,42.0601087,19.5040199
62,Bulevardi Zogu I,4001,42.0618223,19.5046312
33,Rruga Kongresi i Lushnjes,4001,42.0626329,19.5052746
112,Bulevardi Zogu I,4001,42.0606690,19.5041347
5,Rruga Kongresi i Lushnjes,4001,42.0625979,19.5057672
120,Bulevardi Zogu I,4001,42.0605370,19.5037000
3,Sheshi Parrucë,4001,42.0648597,19.5082454
13,Rruga Haxhi Idriz Boksi,4001,42.0601213,19.5033918
80,Bulevardi Zogu I,4001,42.0612811,19.5043474
118,Bulevardi Zogu I,4001,42.0605201,19.5034775
13,Rruga Kongresi i Lushnjes,4001,42.0621603,19.5049808
23,Rruga Kongresi i Lushnjes,4001,42.0624458,19.5051967
8,Rruga Kongresi i Lushnjes,4001,42.0630624,19.5062338
18,Bulevardi Zogu I,4001,42.0636674,19.5067945
10,Bulevardi Zogu I,4001,42.0643879,19.5077833
7,Rruga Kongresi i Lushnjes,4001,42.0624397,19.5056071
100,Bulevardi Zogu I,4001,42.0610858,19.5039602
130,Bulevardi Zogu I,4001,42.0603914,19.5042798
114,Bulevardi Zogu I,4001,42.0607602,19.5037422
2,Bulevardi Zogu I,4001,42.0645252,19.5079178
41,Rruga Kongresi i Lushnjes,4001,42.0630227,19.5050611
15,Rruga Haxhi Idriz Boksi,4001,42.0599808,19.5032498
88,Bulevardi Zogu I,4001,42.0611183,19.5045593
10,Rruga Kongresi i Lushnjes,4001,42.0630283,19.5059532
96,Bulevardi Zogu I,4001,42.0609852,19.5041958
12,Bulevardi Zogu I,4001,42.0642436,19.5077129
39,Rruga Kongresi i Lushnjes,4001,42.0628943,19.5052570
10,Rruga Abaz Golemi,4001,42.0607970,19.5031977
42,Bulevardi Zogu I,4001,42.0620060,19.5051561
85,Rruga Myzafer Pipa,4001,42.0631583,19.5046000
8,Rruga Abaz Golemi,4001,42.0602289,19.5033695
1,Sheshi Demokracia,4001,42.0688957,19.5110675
139,Rruga Myzafer Pipa,4001,42.0612981,19.5030241
121,Rruga Myzafer Pipa,4001,42.0617144,19.5034947
153,Rruga Myzafer Pipa,4001,42.0610372,19.5026403
78,Bulevardi Zogu I,4001,42.0613408,19.5045109
117,Rruga Myzafer Pipa,4001,42.0621888,19.5035019
141,Rruga Myzafer Pipa,4001,42.0614554,19.5027844
151,Rruga Myzafer Pipa,4001,42.0609952,19.5028700
3,Rruga Haxhi Idriz Boksi,4001,42.0604511,19.5026741
4,Rruga Abaz Golemi,4001,42.0605612,19.5029576
5,Rruga Haxhi Idriz Boksi,4001,42.0604144,19.5028019
7,Rruga Haxhi Idriz Boksi,4001,42.0604518,19.5029588
111,Rruga Myzafer Pipa,4001,42.0620828,19.5038989
16,Rruga Abaz Golemi,4001,42.0611730,19.5032732
7,Rruga Abaz Golemi,4001,42.0608242,19.5027016
104,Bulevardi Zogu I,4001,42.0608675,19.5042435
131,Rruga Myzafer Pipa,4001,42.0616100,19.5028879
15,Rruga Abaz Golemi,4001,42.0613516,19.5032158
127,Rruga Myzafer Pipa,4001,42.0616438,19.5029843
11,Rruga Abaz Golemi,4001,42.0611339,19.5029843
133,Rruga Myzafer Pipa,4001,42.0614652,19.5030176
11,Rruga Haxhi Idriz Boksi,4001,42.0602107,19.5030034
1,Rruga Haxhi Idriz Boksi,4001,42.0605598,19.5026595
1,Rruga Osja i Falltores,4001,42.0603178,19.5023089
180,Bulevardi Zogu I,4001,42.0582470,19.5016080
168,Bulevardi Zogu I,4001,42.0584107,19.5025045
3,Rruga Osja i Falltores,4001,42.0601632,19.5021750
49,Rruga Osja i Falltores,4001,42.0586189,19.5012849
182,Bulevardi Zogu I,4001,42.0580700,19.5017914
144,Bulevardi Zogu I,4001,42.0591022,19.5029913
26,Rruga Haxhi Idriz Boksi,4001,42.0591552,19.5024654
176,Bulevardi Zogu I,4001,42.0580573,19.5022240
34,Rruga Haxhi Idriz Boksi,4001,42.0593971,19.5032540
170,Bulevardi Zogu I,4001,42.0582431,19.5022709
148,Bulevardi Zogu I,4001,42.0588144,19.5027566
158,Bulevardi Zogu I,4001,42.0585317,19.5025258
33,Rruga Osja i Falltores,4001,42.0590134,19.5019013
14,Rruga Faik Konica,4001,42.0582412,19.5011551
138,Bulevardi Zogu I,4001,42.0599619,19.5038906
30,Rruga Haxhi Idriz Boksi,4001,42.0593973,19.5029443
43,Rruga Osja i Falltores,4001,42.0587952,19.5013519
45,Rruga Osja i Falltores,4001,42.0585141,19.5017496
119,Rruga Myzafer Pipa,4001,42.0619085,19.5031616
162,Bulevardi Zogu I,4001,42.0587470,19.5019304
146,Bulevardi Zogu I,4001,42.0590554,19.5030938
15,Rruga Osja i Falltores,4001,42.0595126,19.5019420
53,Rruga Osja i Falltores,4001,42.0584957,19.5011429
29,Rruga Osja i Falltores,4001,42.0591260,19.5016175
16,Rruga Haxhi Idriz Boksi,4001,42.0597528,19.5030892
39,Rruga Osja i Falltores,4001,42.0588987,19.5014492
10,Rruga Haxhi Idriz Boksi,4001,42.0597418,19.5027807
41,Rruga Osja i Falltores,4001,42.0587872,19.5015937
178,Bulevardi Zogu I,4001,42.0582763,19.5017653
4,Rruga Haxhi Idriz Boksi,4001,42.0601025,19.5027164
35,Rruga Osja i Falltores,4001,42.0592988,19.5020625
13,Rruga Osja i Falltores,4001,42.0597056,19.5020033
28,Rruga Haxhi Idriz Boksi,4001,42.0591854,19.5027764
164,Bulevardi Zogu I,4001,42.0585913,19.5021211
9,Rruga Osja i Falltores,4001,42.0597538,19.5023993
22,Rruga Haxhi Idriz Boksi,4001,42.0588542,19.5020341
55,Rruga Osja i Falltores,4001,42.0583810,19.5013757
6,Rruga Haxhi Idriz Boksi,4001,42.0599570,19.5026280
23,Rruga Osja i Falltores,4001,42.0593571,19.5016187
17,Rruga Osja i Falltores,4001,42.0594916,19.5017094
150,Bulevardi Zogu I,4001,42.0587658,19.5028344
25,Rruga Osja i Falltores,4001,42.0592537,19.5017615
152,Bulevardi Zogu I,4001,42.0589305,19.5024600
142,Bulevardi Zogu I,4001,42.0592213,19.5032264
27,Rruga Osja i Falltores,4001,42.0592044,19.5016484
2,Rruga Haxhi Idriz Boksi,4001,42.0601939,19.5024952
20,Rruga Haxhi Idriz Boksi,4001,42.0592836,19.5022775
37,Rruga Osja i Falltores,4001,42.0590147,19.5015604
2,Rruga Faik Konica,4001,42.0577718,19.5017080
24,Rruga Haxhi Idriz Boksi,4001,42.0589779,19.5022475
156,Bulevardi Zogu I,4001,42.0587274,19.5024466
186,Bulevardi Zogu I,4001,42.0577474,19.5018045
11,Rruga Osja i Falltores,4001,42.0595590,19.5022357
21,Rruga Osja i Falltores,4001,42.0593734,19.5017989
14,Rruga Haxhi Idriz Boksi,4001,42.0598285,19.5029989
184,Bulevardi Zogu I,4001,42.0578704,19.5020226
16,Rruga Faik Konica,4001,42.0581151,19.5010010
172,Bulevardi Zogu I,4001,42.0584257,19.5020666
8,Rruga Faik Konica,4001,42.0579324,19.5014154
35,Rruga Myzafer Pipa,4001,42.0648287,19.5064048
103,Rruga Myzafer Pipa,4001,42.0624714,19.5039377
5,Rruga Myzafer Pipa,4001,42.0661484,19.5070803
1,Sheshi Parrucë,4001,42.0644828,19.5089055
3,Bulevardi Zogu I,4001,42.0641582,19.5087967
33,Rruga Myzafer Pipa,4001,42.0649834,19.5065953
29,Rruga Kongresi i Lushnjes,4001,42.0626564,19.5046746
9,Rruga Myzafer Pipa,4001,42.0660868,19.5069667
4,Rruga Gasper Beltoja,4001,42.0625604,19.5041322
34,Rruga Kongresi i Lushnjes,4001,42.0634616,19.5048387
21,Rruga Myzafer Pipa,4001,42.0654684,19.5064102
77,Rruga Myzafer Pipa,4001,42.0636138,19.5048182
7,Rruga Gasper Beltoja,4001,42.0626375,19.5045650
115,Rruga Myzafer Pipa,4001,42.0623026,19.5035453
7,Bulevardi Zogu I,4001,42.0642048,19.5082831
15,Rruga Kongresi i Lushnjes,4001,42.0624324,19.5045891
97,Rruga Myzafer Pipa,4001,42.0626458,19.5038701
51,Bulevardi Zogu I,4001,42.0618099,19.5059642
93,Rruga Myzafer Pipa,4001,42.0629247,19.5041158
1,Bulevardi Zogu I,4001,42.0643202,19.5084531
47,Rruga Myzafer Pipa,4001,42.0647512,19.5062245
7,Rruga Myzafer Pipa,4001,42.0660716,19.5071094
47,Rruga Kongresi i Lushnjes,4001,42.0632156,19.5048992
75,Rruga Myzafer Pipa,4001,42.0637425,19.5049309
9,Rruga Haxhi Idriz Boksi,4001,42.0603064,19.5029198
45,Rruga Kongresi i Lushnjes,4001,42.0632867,19.5048958
53,Rruga Kongresi i Lushnjes,4001,42.0633762,19.5046063
9,Bulevardi Zogu I,4001,42.0640639,19.5081426
14,Rruga Kongresi i Lushnjes,4001,42.0634956,19.5056515
28,Rruga Kongresi i Lushnjes,4001,42.0633917,19.5050653
51,Rruga Myzafer Pipa,4001,42.0647219,19.5058724
51,Rruga Kongresi i Lushnjes,4001,42.0633194,19.5047335
61,Rruga Myzafer Pipa,4001,42.0642131,19.5053956
33,Rruga Kole Heqimi,4001,42.0735482,19.5225929
59,Rruga Roza Lejn,4001,42.0592913,19.5203097
53,Rruga Roza Lejn,4001,42.0584305,19.5208362
40,Rruga Roza Lejn,4001,42.0576913,19.5219025
52,Rruga Dr. Ali Spahia,4001,42.0756037,19.5196501
45,Rruga Roza Lejn,4001,42.0577666,19.5212080
58,Rruga Roza Lejn,4001,42.0589184,19.5210558
42,Rruga Roza Lejn,4001,42.0578175,19.5218556
46,Rruga Roza Lejn,4001,42.0579235,19.5216912
55,Rruga Roza Lejn,4001,42.0585909,19.5207131
47,Rruga Roza Lejn,4001,42.0578976,19.5211238
8,Rruga Tepe,4001,42.0554390,19.5178470
62,Rruga Roza Lejn,4001,42.0591641,19.5207106
31,Rruga Pazarit,4001,42.0491239,19.4924070
27,Rruga e Qafes,4001,42.0505053,19.4950487
214,Rruga Myzafer Pipa,4001,42.0609652,19.5021624
14,Rruga Osja i Falltores,4001,42.0601471,19.5019080
11,Rruga Krajej,4001,42.0709709,19.5032279
38,Rruga Osja i Falltores,4001,42.0592691,19.5013834
5,Rruga Eqrem Çabej,4001,42.0614942,19.5018306
222,Rruga Myzafer Pipa,4001,42.0607633,19.5022281
206,Rruga Myzafer Pipa,4001,42.0612403,19.5018239
198,Rruga Myzafer Pipa,4001,42.0612146,19.5021383
98,Rruga Myzafer Pipa,4001,42.0646862,19.5054526
186,Rruga Myzafer Pipa,4001,42.0617904,19.5028211
11,Rruga Eqrem Çabej,4001,42.0615433,19.5014723
6,Rruga Eqrem Çabej,4001,42.0618373,19.5022075
184,Rruga Myzafer Pipa,4001,42.0619518,19.5026576
30,Rruga Osja i Falltores,4001,42.0595233,19.5014844
100,Rruga Myzafer Pipa,4001,42.0646635,19.5052994
218,Rruga Myzafer Pipa,4001,42.0608480,19.5022589
28,Rruga Osja i Falltores,4001,42.0596889,19.5013646
45,Rruga Golemit,4001,42.0795155,19.5197546
59,Rruga Martin Camaj,4001,42.0739691,19.5152057
29,Rruga Europa,4001,42.0763504,19.5152437
2,Rruga Europa,4001,42.0762221,19.5158032
8,Rruga Europa,4001,42.0775517,19.5154515
39,Rruga Golemit,4001,42.0799067,19.5200045
21,Rruga Europa,4001,42.0761430,19.5147508
49,Rruga Golemit,4001,42.0796561,19.5202069
72,Rruga Lekë Dukagjini,4001,42.0704044,19.5119162
31,Rruga Europa,4001,42.0766209,19.5148660
9,Rruga Memej,4001,42.0727074,19.5113171
29,Rruga Qukej,4001,42.0703819,19.5103617
1,Rruga Memej,4001,42.0722990,19.5117609
33,Rruga Europa,4001,42.0773739,19.5150221
44,Rruga Osja i Falltores,4001,42.0589111,19.5008982
37,Rruga Golemit,4001,42.0798733,19.5197523
27,Rruga Europa,4001,42.0763109,19.5149693
6,Rruga Europa,4001,42.0768676,19.5156398
37,Rruga Martin Camaj,4001,42.0727424,19.5149682
39,Rruga Martin Camaj,4001,42.0729041,19.5150143
29,Rruga Martin Camaj,4001,42.0719632,19.5149026
27,Rruga Martin Camaj,4001,42.0718752,19.5148883
55,Rruga Martin Camaj,4001,42.0734470,19.5150568
47,Rruga Martin Camaj,4001,42.0731486,19.5150214
43,Rruga Martin Camaj,4001,42.0729377,19.5147844
45,Rruga Martin Camaj,4001,42.0730383,19.5149765
25,Rruga Martin Camaj,4001,42.0716905,19.5148618
41,Rruga Martin Camaj,4001,42.0728640,19.5146174
32,Rruga Martin Camaj,4001,42.0740497,19.5158496
40,Rruga Martin Camaj,4001,42.0743825,19.5159173
53,Rruga Martin Camaj,4001,42.0733734,19.5148930
34,Rruga Martin Camaj,4001,42.0741311,19.5158306
4,Sheshi Tophanë,4001,42.0606978,19.5018281
12,Rruga Studenti,4001,42.0669084,19.5099994
22,Rruga Osja i Falltores,4001,42.0600240,19.5016083
7,Rruga Eqrem Çabej,4001,42.0615983,19.5019330
40,Rruga Osja i Falltores,4001,42.0591248,19.5012292
2,Rruga Osja i Falltores,4001,42.0605238,19.5021362
42,Rruga Osja i Falltores,4001,42.0589572,19.5011912
3,Rruga Eqrem Çabej,4001,42.0614523,19.5019959
6,Rruga Osja i Falltores,4001,42.0604235,19.5020668
196,Rruga Myzafer Pipa,4001,42.0611769,19.5023907
3,Sheshi Tophanë,4001,42.0606028,19.5018047
1,Rruga Eqrem Çabej,4001,42.0615517,19.5020936
4,Rruga Osja i Falltores,4001,42.0605311,19.5018510
220,Rruga Myzafer Pipa,4001,42.0608579,19.5019765
192,Rruga Myzafer Pipa,4001,42.0614777,19.5025466
8,Rruga Osja i Falltores,4001,42.0604355,19.5018607
194,Rruga Myzafer Pipa,4001,42.0613976,19.5024726
6,Rruga Studenti,4001,42.0669435,19.5104221
12,Rruga Osja i Falltores,4001,42.0603277,19.5017564
24,Rruga Osja i Falltores,4001,42.0597988,19.5015780
10,Rruga Studenti,4001,42.0669686,19.5102194
3,Rruga Agron,4001,42.0431940,19.4892923
53,Rruga e Shirokes,4001,42.0542315,19.4883254
180,Rruga Myzafer Pipa,4001,42.0620346,19.5030764
80,Rruga Myzafer Pipa,4001,42.0655787,19.5054957
112,Rruga Myzafer Pipa,4001,42.0645942,19.5047644
170,Rruga Myzafer Pipa,4001,42.0626534,19.5030402
70,Rruga Myzafer Pipa,4001,42.0655618,19.5061200
156,Rruga Myzafer Pipa,4001,42.0630872,19.5034723
4,Rruga Myzafer Pipa,4001,42.0667229,19.5071334
6,Rruga Myzafer Pipa,4001,42.0669146,19.5068890
28,Rruga Kongresi i Manastirit,4001,42.0681011,19.5091508
40,Rruga Myzafer Pipa,4001,42.0668774,19.5060800
86,Rruga Myzafer Pipa,4001,42.0653197,19.5057637
42,Rruga Myzafer Pipa,4001,42.0665572,19.5060889
44,Rruga Myzafer Pipa,4001,42.0665605,19.5064152
116,Rruga Myzafer Pipa,4001,42.0643130,19.5043650
142,Rruga Myzafer Pipa,4001,42.0635583,19.5044762
104,Rruga Myzafer Pipa,4001,42.0644265,19.5052037
72,Rruga Myzafer Pipa,4001,42.0658149,19.5059962
82,Rruga Myzafer Pipa,4001,42.0654711,19.5058159
2,Rruga Eqrem Çabej,4001,42.0616381,19.5024638
32,Rruga Myzafer Pipa,4001,42.0668273,19.5063260
1,Rruga Uruçej,4001,42.0675940,19.5040703
114,Rruga Myzafer Pipa,4001,42.0644742,19.5045578
2,Rruga Myzafer Pipa,4001,42.0665599,19.5072083
188,Rruga Myzafer Pipa,4001,42.0617283,19.5027199
123,Rruga Myzafer Pipa,4001,42.0616159,19.5032024
125,Rruga Myzafer Pipa,4001,42.0617052,19.5031031
140,Rruga Myzafer Pipa,4001,42.0636629,19.5045255
20,Rruga Myzafer Pipa,4001,42.0661876,19.5068374
94,Rruga Myzafer Pipa,4001,42.0651259,19.5058862
174,Rruga Myzafer Pipa,4001,42.0625823,19.5028094
3,Rruga Uruçej,4001,42.0677123,19.5040448
16,Rruga Myzafer Pipa,4001,42.0663200,19.5070074
190,Rruga Myzafer Pipa,4001,42.0616480,19.5026485
60,Rruga Myzafer Pipa,4001,42.0657930,19.5062069
5,Rruga Uruçej,4001,42.0678067,19.5038400
14,Rruga Eqrem Çabej,4001,42.0617450,19.5019512
3,Rruga Gjylbegaj,4001,42.0683928,19.5100207
168,Rruga Myzafer Pipa,4001,42.0627150,19.5030929
24,Rruga Myzafer Pipa,4001,42.0663502,19.5067394
182,Rruga Myzafer Pipa,4001,42.0619746,19.5029557
76,Rruga Myzafer Pipa,4001,42.0658389,19.5058868
18,Rruga Myzafer Pipa,4001,42.0662978,19.5069051
24,Rruga Eqrem Çabej,4001,42.0617515,19.5015105
178,Rruga Myzafer Pipa,4001,42.0621712,19.5029527
78,Rruga Myzafer Pipa,4001,42.0658306,19.5057634
46,Rruga Myzafer Pipa,4001,42.0661824,19.5060144
96,Rruga Myzafer Pipa,4001,42.0648564,19.5053435
18,Rruga Eqrem Çabej,4001,42.0620547,19.5016972
10,Rruga Eqrem Çabej,4001,42.0617146,19.5021165
12,Rruga Eqrem Çabej,4001,42.0621433,19.5019634
106,Rruga Myzafer Pipa,4001,42.0644733,19.5050514
68,Rruga Myzafer Pipa,4001,42.0653379,19.5060661
10,Rruga Myzafer Pipa,4001,42.0667765,19.5065406
34,Rruga Myzafer Pipa,4001,42.0667239,19.5063801
8,Rruga Myzafer Pipa,4001,42.0667678,19.5066800
81,Rruga Nazmi Kryeziu,4001,42.0705365,19.5099887
7,Rruga Qukej,4001,42.0694389,19.5103731
28,Rruga Qukej,4001,42.0704860,19.5106157
23,Rruga Qukej,4001,42.0698385,19.5098221
16,Bulevardi Bujar Bishanaku,4001,42.0699079,19.5095269
24,Rruga Qukej,4001,42.0703935,19.5107615
18,Rruga Qukej,4001,42.0700717,19.5105855
11,Rruga Qukej,4001,42.0698866,19.5097533
68,Rruga Lekë Dukagjini,4001,42.0705163,19.5117946
5,Rruga Qukej,4001,42.0695445,19.5105085
12,Rruga Qukej,4001,42.0699329,19.5106870
20,Rruga Qukej,4001,42.0702081,19.5107420
9,Rruga Qukej,4001,42.0697038,19.5098581
22,Rruga Qukej,4001,42.0702834,19.5108220
6,Rruga Qukej,4001,42.0698587,19.5109388
7,Rruga Leke Dukagjini,4001,42.0725130,19.5144531
61,Rruga Martin Camaj,4001,42.0742281,19.5152609
57,Rruga Martin Camaj,4001,42.0736158,19.5151532
1,Rruga Leke Dukagjini,4001,42.0726923,19.5146508
49,Rruga Martin Camaj,4001,42.0732087,19.5146903
35,Rruga Europa,4001,42.0778119,19.5148547
63,Rruga Martin Camaj,4001,42.0743943,19.5152878
5,Rruga Dasho Shkreli,4001,42.0775773,19.5148089
3,Rruga Dasho Shkreli,4001,42.0776899,19.5147430
129,Rruga Dasho Shkreli,4001,42.0776575,19.5053699
1,Rruga Dasho Shkreli,4001,42.0779854,19.5145482
7,Rruga Memej,4001,42.0725791,19.5114409
5,Rruga Memej,4001,42.0724459,19.5113003
3,Rruga Memej,4001,42.0724736,19.5115031
23,Rruga e Tafilicve,4001,42.0730382,19.5090292
11,Rruga Memej,4001,42.0731765,19.5111020
42,Rruga Kadukej,4001,42.0725607,19.5086554
70,Rruga Golemit,4001,42.0818824,19.5234647
15,Rruga Dr. Lito,4001,42.0748061,19.5219140
35,Rruga Golemit,4001,42.0798238,19.5195290
44,Rruga Golemit,4001,42.0809263,19.5222042
47,Rruga Golemit,4001,42.0795941,19.5200062
73,Rruga Golemit,4001,42.0819276,19.5223146
60,Rruga Golemit,4001,42.0814706,19.5230418
58,Rruga Golemit,4001,42.0812922,19.5227728
4,Rruga Justin Godard,4001,42.0625468,19.5209022
21,Rruga Roza Lejn,4001,42.0557237,19.5224643
24,Rruga Roza Lejn,4001,42.0575677,19.5225081
4,Rruga Besëlidhja,4001,42.0605731,19.5205551
8,Rruga Roza Lejn,4001,42.0562379,19.5228877
7,Rruga Roza Lejn,4001,42.0555820,19.5228975
20,Rruga Roza Lejn,4001,42.0571894,19.5221981
19,Rruga Roza Lejn,4001,42.0556126,19.5222560
9/103,Rruga Draçin,4001,42.0561839,19.5149423
18,Rruga Roza Lejn,4001,42.0570772,19.5221319
10,Rruga Roza Lejn,4001,42.0563757,19.5226855
18,Rruga Justin Godard,4001,42.0636725,19.5202113
17,Rruga Roza Lejn,4001,42.0554803,19.5220931
47,Rruga Revolucioni Antikomunist Hungarez,4001,42.0614307,19.5255840
3,Rruga Ded Gjon Luli,4001,42.0597257,19.5215212
69,Bulevardi Mehmet Pashë Plaku,4001,42.0594629,19.5091130
10,Rruga Boriçej,4001,42.0599306,19.5109231
57,Rruga Ahmet Efendi Kalaja,4001,42.0599329,19.5122108
9,Rruga Labeania,4001,42.0395674,19.4946621
25,Rruga e Shegave,4001,42.0381079,19.4951210
13,Rruga e Shegave,4001,42.0384596,19.4953418
33,Rruga Labeania,4001,42.0388090,19.4949973
29,Rruga Labeania,4001,42.0389689,19.4947763
13,Rruga Labeania,4001,42.0393300,19.4946229
31,Rruga Bexhene,4001,42.0437410,19.4934306
1,Rruga Labeania,4001,42.0399441,19.4940650
3,Rruga Labeania,4001,42.0396574,19.4942078
29,Rruga e Shegave,4001,42.0383743,19.4950374
25,Rruga Labeania,4001,42.0390919,19.4947724
17,Rruga e Shegave,4001,42.0382230,19.4954867
43,Rruga e Katalines,4001,42.0358237,19.4916485
11,Rruga e Katalines,4001,42.0385259,19.4933296
1,Rruga e Katalines,4001,42.0407346,19.4938439
15,Rruga e Katalines,4001,42.0385524,19.4929223
8,Rruga Labeania,4001,42.0390816,19.4943763
29,Rruga e Katalines,4001,42.0369133,19.4916928
39,Rruga e Katalines,4001,42.0362594,19.4912906
13,Rruga e Bunës,4001,42.0373747,19.4955882
41,Rruga e Katalines,4001,42.0361202,19.4912790
35,Rruga e Katalines,4001,42.0364323,19.4919999
6,Rruga Labeania,4001,42.0396942,19.4937337
33,Rruga e Katalines,4001,42.0365111,19.4916422
2,Rruga e Shegave,4001,42.0388620,19.4951817
3,Rruga e Katalines,4001,42.0406971,19.4935804
17,Rruga e Bunës,4001,42.0370666,19.4958407
8,Rruga e Bunës,4001,42.0369537,19.4945520
11,Rruga e Bunës,4001,42.0375997,19.4958361
27,Rruga e Katalines,4001,42.0369830,19.4921177
5,Rruga e Shegave,4001,42.0385378,19.4958167
37,Rruga e Katalines,4001,42.0361905,19.4916817
7,Rruga e Shegave,4001,42.0387073,19.4955329
13,Rruga e Katalines,4001,42.0380658,19.4935608
22,Rruga Mbreti Gent,4001,42.0551426,19.4992355
18,Rruga Ethem Osmani,4001,42.0561948,19.4990097
1,Rruga Fushë Çelë,4001,42.0677415,19.5140218
35,Rruga Dom Bosko,4001,42.0645272,19.5126658
2,Shëtitorja e Molos,4001,42.0541547,19.4974716
13,Rruga Studenti,4001,42.0671407,19.5119207
4,Rruga e Shirokes,4001,42.0546451,19.4873429
8,Rruga Agron,4001,42.0456644,19.4896167
11,Rruga Jeronim De Rada,4001,42.0698038,19.5167024
15,Rruga Jeronim De Rada,4001,42.0698831,19.5166236
25,Rruga Jeronim De Rada,4001,42.0703475,19.5159152
4,Rruga Europa,4001,42.0764485,19.5158659
41,Rruga Golemit,4001,42.0799898,19.5203088
43,Rruga Golemit,4001,42.0794236,19.5194573
51,Rruga Golemit,4001,42.0800253,19.5204805
4,Rruga Fushë Çelë,4001,42.0683869,19.5136635
25,Rruga Kol Idromeno,4001,42.0681488,19.5167610
27,Rruga Kol Idromeno,4001,42.0680808,19.5168904
33,Rruga Kol Idromeno,4001,42.0681514,19.5163511
37,Rruga Kol Idromeno,4001,42.0686307,19.5162512
43,Rruga Kol Idromeno,4001,42.0685270,19.5160788
49,Rruga Kol Idromeno,4001,42.0683155,19.5162681
57,Rruga Kol Idromeno,4001,42.0683515,19.5159001
59,Rruga Kol Idromeno,4001,42.0684526,19.5158917
69,Rruga Kol Idromeno,4001,42.0681414,19.5154435
7,Rruga Kol Idromeno,4001,42.0689359,19.5168913
73,Rruga Kol Idromeno,4001,42.0680457,19.5151788
81,Rruga Kol Idromeno,4001,42.0679004,19.5149897
83,Rruga Kol Idromeno,4001,42.0678188,19.5148567
85,Rruga Kol Idromeno,4001,42.0677286,19.5147835
1,Rruga At Gjergj Fishta,4001,42.0668491,19.5176776
13,Rruga At Gjergj Fishta,4001,42.0665043,19.5169184
15,Rruga At Gjergj Fishta,4001,42.0666362,19.5170351
16,Rruga At Gjergj Fishta,4001,42.0670268,19.5167016
16,Rruga Kol Idromeno,4001,42.0689309,19.5163441
21,Rruga At Gjergj Fishta,4001,42.0670085,19.5165098
24,Rruga At Gjergj Fishta,4001,42.0673112,19.5159655
3,Rruga At Gjergj Fishta,4001,42.0666958,19.5175232
30,Rruga At Gjergj Fishta,4001,42.0676728,19.5164167
40,Rruga Kol Idromeno,4001,42.0683475,19.5153010
44,Rruga At Gjergj Fishta,4001,42.0673205,19.5153137
5,Rruga At Gjergj Fishta,4001,42.0666660,19.5174243
9,Rruga At Gjergj Fishta,4001,42.0663975,19.5171181
26,Rruga At Gjergj Fishta,4000,42.0675729,19.5162610
10,Bulevardi Skënderbeu,4001,42.0661777,19.5145182
13,Bulevardi Skënderbeu,4001,42.0656616,19.5157668
15,Bulevardi Skënderbeu,4001,42.0656233,19.5158183
19,Bulevardi Skënderbeu,4001,42.0654424,19.5160676
23,Rruga e Jezuiteve,4001,42.0647661,19.5154771
5,Bulevardi Skënderbeu,4001,42.0664271,19.5151172
54,Bulevardi Skënderbeu,4001,42.0650302,19.5160022
68,Bulevardi Skënderbeu,4001,42.0647051,19.5164675
1,Rruga Gjuhadol,4001,42.0655304,19.5188060
2,Rruga Gjuhadol,4001,42.0657379,19.5188944
5,Rruga Gjuhadol,4001,42.0657226,19.5186618
10,Rruga Berdicej,4001,42.0662471,19.5175803
14,Rruga Berdicej,4001,42.0662187,19.5174505
15,Rruga Gjuhadol,4001,42.0661048,19.5182615
17,Rruga Berdicej,4001,42.0656597,19.5173632
18,Rruga Berdicej,4001,42.0659693,19.5174410
19,Rruga Berdicej,4001,42.0657160,19.5173048
2,Rruga Berdicej,4001,42.0662744,19.5178717
2,Rruga Murgeshave,4001,42.0666003,19.5182870
21,Rruga Berdicej,4001,42.0656309,19.5172589
21,Rruga Gjuhadol,4001,42.0664039,19.5179652
22,Rruga Berdicej,4001,42.0660284,19.5170567
29,Rruga Gjuhadol,4001,42.0671830,19.5176124
30,Rruga Gjuhadol,4001,42.0674265,19.5177530
32,Rruga Gjuhadol,4001,42.0675208,19.5176666
37,Rruga Gjuhadol,4001,42.0671542,19.5172112
40,Rruga Gjuhadol,4001,42.0679618,19.5174044
41,Rruga Gjuhadol,4001,42.0672392,19.5171504
43,Rruga Gjuhadol,4001,42.0673558,19.5171901
46,Rruga Gjuhadol,4001,42.0681516,19.5173068
49,Rruga Gjuhadol,4001,42.0673985,19.5175576
50,Rruga Gjuhadol,4001,42.0683396,19.5172470
52,Rruga Gjuhadol,4001,42.0684078,19.5172300
53,Rruga Gjuhadol,4001,42.0675066,19.5174229
55,Rruga Gjuhadol,4001,42.0675863,19.5174732
6,Rruga Berdicej,4001,42.0662352,19.5177929
60,Rruga Gjuhadol,4001,42.0686628,19.5174549
61,Rruga Gjuhadol,4001,42.0675920,19.5168802
65,Rruga Gjuhadol,4001,42.0678049,19.5173252
71,Rruga Gjuhadol,4001,42.0676625,19.5167655
79,Rruga Gjuhadol,4001,42.0678686,19.5168357
87,Rruga Gjuhadol,4001,42.0683188,19.5170167
89,Rruga Gjuhadol,4001,42.0684147,19.5169899
91,Rruga Gjuhadol,4001,42.0684964,19.5169925
102,Rruga Ludovik Saraçi,4001,42.0692380,19.5181193
15,Rruga e Gurazezve,4001,42.0686404,19.5182960
17,Rruga e Gurazezve,4001,42.0685397,19.5184351
24,Rruga e Gurazezve,4001,42.0682922,19.5187580
29,Rruga e Gurazezve,4001,42.0688446,19.5183230
35,Rruga e Gurazezve,4001,42.0688548,19.5190793
39,Rruga e Gurazezve,4001,42.0687647,19.5191693
4,Rruga e Gurazezve,4001,42.0678219,19.5179812
40,Rruga e Gurazezve,4001,42.0686989,19.5192235
43,Rruga e Gurazezve,4001,42.0688332,19.5192397
49,Rruga Ludovik Saraçi,4001,42.0689661,19.5185555
53,Rruga Ludovik Saraçi,4001,42.0690820,19.5181709
55,Rruga Ludovik Saraçi,4001,42.0691070,19.5180446
61,Rruga Ludovik Saraçi,4001,42.0689993,19.5176418
63,Rruga Ludovik Saraçi,4001,42.0691649,19.5175608
67,Rruga Ludovik Saraçi,4001,42.0691576,19.5174046
89,Rruga Kardinal Mikel Koliqi,4001,42.0696678,19.5175293
91,Rruga Kardinal Mikel Koliqi,4001,42.0696085,19.5174803
11,Bulevardi Zogu I,4001,42.0636899,19.5077491
15,Bulevardi Zogu I,4001,42.0633447,19.5074193
2,Sheshi Parrucë,4001,42.0644367,19.5086626
20,Bulevardi Zogu I,4001,42.0636038,19.5066984
22,Bulevardi Zogu I,4001,42.0635107,19.5070547
23,Bulevardi Zogu I,4001,42.0625402,19.5069688
3,Rruga e Murgeshave,4001,42.0669029,19.5183844
31,Bulevardi Zogu I,4001,42.0623907,19.5068202
4,Bulevardi Zogu I,4001,42.0646261,19.5078315
45,Bulevardi Zogu I,4001,42.0621128,19.5062584
59,Bulevardi Zogu I,4001,42.0614350,19.5062944
67,Bulevardi Zogu I,4001,42.0613039,19.5062629
8,Bulevardi Zogu I,4001,42.0644905,19.5076193
87,Bulevardi Zogu I,4001,42.0609875,19.5060089
18,Rruga Kol Idromeno,4001,42.0687946,19.5161134
24,Rruga Tepe,4001,42.0562481,19.5165266
17,Rruga Besnik Sykja,4001,42.0643238,19.5118805
18,Rruga Kol Idromeno,4001,42.0688688,19.5162025
4,Balli i Urës,4001,42.0505585,19.4931721
3,Rruga Jeronim De Rada,4001,42.0696567,19.5169964
78,Rruga Kardinal Mikel Koliqi,4001,42.0698353,19.5172939
78,Rruga Kardinal Mikel Koliqi,4001,42.0699077,19.5172447
78,Rruga Kardinal Mikel Koliqi,4001,42.0698807,19.5172891
13,Rruga Jeronim De Rada,4001,42.0698437,19.5166738
17,Shëtitorja e Molos,4001,42.0514530,19.4931080
24,Rruga Pazarit,4001,42.0507070,19.4936925
20,Rruga Ethem Osmani,4001,42.0559046,19.4987988
170,Rruga Dasho Shkreli,4001,42.0778140,19.5050829
7,Rruga Kol Idromeno,4001,42.0688961,19.5167980
10,Rruga Kol Idromeno,4001,42.0691480,19.5167320
101,Rruga Gjuhadol,4001,42.0687793,19.5169430
12,Rruga Kol Idromeno,4001,42.0690796,19.5165225
9,Rruga Kol Idromeno,4001,42.0688010,19.5166005
67,Rruga Kol Idromeno,4001,42.0682539,19.5155443
40,Rruga Kol Idromeno,4001,42.0683911,19.5151583
2,Rruga Dr. Selaudin Bekteshi,4001,42.0681472,19.5146384
46,Rruga Kol Idromeno,4001,42.0680632,19.5147440
46,Rruga Kol Idromeno,4001,42.0681155,19.5148032
46,Rruga Kol Idromeno,4001,42.0680993,19.5147029
1,Sheshi Tophanë,4001,42.0607181,19.5024690
6,Rruga Studenti,4001,42.0668783,19.5104969
48,Rruga Gjuhadol,4001,42.0682320,19.5173123
2,Rruga Edith Durham,4001,42.0640820,19.5167351
46,Rruga Justin Godard,4001,42.0645531,19.5201233
2,Rruga Martin Camaj,4001,42.0713616,19.5152627
888,Rruga Nazmi Kryeziu,4001,42.0731583,19.5146043
20,Rruga Osja i Falltores,4001,42.0599920,19.5018057
31,Rruga Qukej,4001,42.0704437,19.5102675
19,Rruga Haxhi Idriz Boksi,4001,42.0597028,19.5034124
12,Rruga Haxhi Idriz Boksi,4001,42.0598887,19.5028979
5,Rruga Ded Gjon Luli,4001,42.0595955,19.5215850
67,Rruga Gjuhadol,4001,42.0679306,19.5172474
33,Rruga Zabelej,4001,42.0812677,19.5009413
31,Rruga Zabelej,4001,42.0807728,19.5009675
33,Rruga Zabelej,4001,42.0810245,19.5009899
29,Rruga Zabelej,4001,42.0805424,19.5010489
16,Rruga,4001,42.0529831,19.4872898
17,Rruga Haxhi Idriz Boksi,4001,42.0598035,19.5033114
20,Rruga 28 Nëntori,4001,42.0654365,19.5124229
10,Rruga Faik Konica,4001,42.0579831,19.5012506
3,Rruga Faik Konica,4001,42.0575841,19.5011686
14,Rruga Myzafer Pipa,4001,42.0664101,19.5071098
160,Rruga Myzafer Pipa,4001,42.0628742,19.5038250
16,Rruga Osja i Falltores,4001,42.0601681,19.5017694
37,Rruga Kongresi i Lushnjes,4001,42.0627402,19.5056209
52,Rruga Justin Godard,4001,42.0643908,19.5196936
54,Rruga Justin Godard,4001,42.0645275,19.5198308
56,Rruga Justin Godard,4001,42.0645991,19.5196649
50,Rruga Justin Godard,4001,42.0644342,19.5198940
66,Rruga Justin Godard,4001,42.0646521,19.5195772
66,Rruga Justin Godard,4001,42.0647651,19.5194971
78,Rruga Kardinal Mikel Koliqi,4001,42.0698095,19.5173274
37,Rruga e Qafes,4001,42.0512035,19.4954738
14,Rruga Dr. Selaudin Bekteshi,4001,42.0682153,19.5132914
12,Rruga Don Bosko,4001,42.0636982,19.5140464
39,Rruga Hasan Riza Pasha,4000,42.0686393,19.5149262
25,Bulevardi Skënderbeu,4001,42.0653162,19.5167866
4,Rruga Besnik Sykja,4001,42.0644360,19.5116758
2,Rruga Teuta,4001,42.0672627,19.5127185
36,Rruga Dr. Lito,4001,42.0747250,19.5219671
3,Rruga Kol Idromeno,4001,42.0693366,19.5172674
48,Rruga Gjuhadol,4001,42.0683439,19.5175010
11,Rruga e Bërdices,4001,42.0361370,19.4969272
19,Rruga e Bunës,4001,42.0370863,19.4961769
7,Rruga e Bunës,4001,42.0377961,19.4954993
9,Rruga e Bunës,4001,42.0376936,19.4956618
31,Rruga e Katalines,4001,42.0365862,19.4917334
2,Rruga e Bërdices,4001,42.0357504,19.4960652
5,Rruga e Katalines,4001,42.0401594,19.4929347
25,Rruga e Katalines,4001,42.0379580,19.4918626
23,Rruga e Katalines,4001,42.0380294,19.4918865
21,Rruga e Katalines,4001,42.0380033,19.4917816
4,Rruga e Shegave,4001,42.0385603,19.4945568
35,Rruga e Shegave,4001,42.0383452,19.4948195
27,Rruga e Shegave,4001,42.0380595,19.4949148
15,Rruga e Shegave,4001,42.0382498,19.4956038
19,Rruga e Shegave,4001,42.0381347,19.4956059
21,Rruga e Shegave,4001,42.0380920,19.4954115
9,Rruga e Shegave,4001,42.0385963,19.4954310
11,Rruga e Shegave,4001,42.0386400,19.4952974
33,Rruga e Bunës,4001,42.0364079,19.4955435
8,Rruga e Bërdices,4001,42.0355059,19.4965751
28,Rruga e Bunës,4001,42.0354444,19.4945677
30,Rruga e Bunës,4001,42.0353893,19.4947239
34,Rruga e Bunës,4001,42.0354300,19.4954487
21,Rruga Labeania,4001,42.0391971,19.4948110
27,Rruga Labeania,4001,42.0392223,19.4949503
31,Rruga Labeania,4001,42.0389517,19.4950743
17,Rruga e Katalines,4001,42.0392757,19.4923294
19,Rruga e Katalines,4001,42.0391092,19.4919944
5,Rruga Labeania,4001,42.0397509,19.4943128
23,Rruga e Shegave,4001,42.0381409,19.4952853
23,Rruga Labeania,4001,42.0390133,19.4946352
19,Rruga Labeania,4001,42.0391801,19.4947034
17,Rruga Labeania,4001,42.0392553,19.4946189
15,Rruga Labeania,4001,42.0392876,19.4943805
7,Rruga Labeania,4001,42.0396719,19.4945385
20,Rruga Jorgji Karamitri,4001,42.0632372,19.5114733
18,Rruga Teuta,4001,42.0682598,19.5131131
46,Rruga Jeronim De Rada,4001,42.0705365,19.5154170
31,Rruga At Gjergj Fishta,4001,42.0671675,19.5150834
7,Rruga Palokë Kurti,4001,42.0661439,19.5159124
25,Rruga Andon Ballaçi,4001,42.0714060,19.5160937
9,Rruga Andon Ballaçi,4001,42.0718952,19.5157693
52,Rruga Kardinal Mikel Koliqi,4001,42.0708922,19.5180919
17,Rruga e Bërdices,4001,42.0360780,19.4972771
9,Rruga e Katalines,4001,42.0392145,19.4938473
33,Rruga e Shegave,4001,42.0382985,19.4949138
31,Rruga e Shegave,4001,42.0382754,19.4950532
8,Rruga e Shegave,4001,42.0383094,19.4944418
16,Rruga Labeania,4001,42.0386335,19.4948508
37,Rruga e Shegave,4001,42.0381824,19.4941137
39,Rruga e Shegave,4001,42.0381247,19.4939907
152,Rruga Myzafer Pipa,4001,42.0631614,19.5040669
26,Rruga Qukej,4001,42.0702847,19.5106025
128,Rruga Myzafer Pipa,4001,42.0638616,19.5047605
148,Rruga Myzafer Pipa,4001,42.0633445,19.5040711
9,Rruga Abaz Golemi,4001,42.0609072,19.5029870
14,Rruga Abaz Golemi,4001,42.0609830,19.5032877
172,Rruga Myzafer Pipa,4001,42.0624632,19.5030612
176,Rruga Myzafer Pipa,4001,42.0622865,19.5029721
20,Rruga Eqrem Çabej,4001,42.0618620,19.5016883
22,Rruga Eqrem Çabej,4001,42.0618993,19.5014691
94,Bulevardi Zogu I,4001,42.0608715,19.5044442
106,Bulevardi Zogu I,4001,42.0608169,19.5043628
46,Bulevardi Zogu I,4001,42.0621551,19.5047182
44,Bulevardi Zogu I,4001,42.0621524,19.5048198
54,Bulevardi Zogu I,4001,42.0619269,19.5048819
9,Rruga Kongresi i Lushnjes,4001,42.0621342,19.5054115
11,Rruga Kongresi i Lushnjes,4001,42.0621632,19.5052169
40,Bulevardi Zogu I,4001,42.0619149,19.5053352
43,Rruga Myzafer Pipa,4001,42.0648468,19.5061520
23,Rruga Myzafer Pipa,4001,42.0653281,19.5064238
54,Rruga Myzafer Pipa,4001,42.0658431,19.5065374
56,Rruga Myzafer Pipa,4001,42.0657899,19.5064631
50,Rruga Myzafer Pipa,4001,42.0659417,19.5066334
32,Rruga Osja i Falltores,4001,42.0594065,19.5013318
36,Rruga Osja i Falltores,4001,42.0593032,19.5009995
147,Rruga Myzafer Pipa,4001,42.0612141,19.5027590
143,Rruga Myzafer Pipa,4001,42.0613411,19.5027614
36,Rruga Haxhi Idriz Boksi,4001,42.0595846,19.5030795
32,Rruga Haxhi Idriz Boksi,4001,42.0593577,19.5027824
4,Rruga Faik Konica,4001,42.0578131,19.5015970
57,Rruga Osja i Falltores,4001,42.0582344,19.5013765
28,Bulevardi Zogu I,4001,42.0634337,19.5066339
38,Bulevardi Zogu I,4001,42.0619897,19.5054019
50,Bulevardi Zogu I,4001,42.0620010,19.5047657
66,Bulevardi Zogu I,4001,42.0617264,19.5046268
70,Bulevardi Zogu I,4001,42.0616066,19.5045294
72,Bulevardi Zogu I,4001,42.0615590,19.5048757
82,Bulevardi Zogu I,4001,42.0612592,19.5039821
98,Bulevardi Zogu I,4001,42.0610530,19.5040642
108,Bulevardi Zogu I,4001,42.0608110,19.5044407
116,Bulevardi Zogu I,4001,42.0606322,19.5037035
126,Bulevardi Zogu I,4001,42.0604287,19.5039571
124,Bulevardi Zogu I,4001,42.0605207,19.5039758
128,Bulevardi Zogu I,4001,42.0604501,19.5040775
154,Bulevardi Zogu I,4001,42.0588002,19.5025020
160,Bulevardi Zogu I,4001,42.0586567,19.5022812
166,Bulevardi Zogu I,4001,42.0584805,19.5022335
132,Bulevardi Zogu I,4001,42.0603381,19.5034958
1,Rruga Kongresi i Lushnjes,4001,42.0625825,19.5059813
20,Rruga Kongresi i Lushnjes,4001,42.0633212,19.5052728
32,Rruga Kongresi i Lushnjes,4001,42.0634154,19.5049224
5,Rruga Gasper Beltoja,4001,42.0626252,19.5043840
95,Rruga Myzafer Pipa,4001,42.0628208,19.5040910
137,Rruga Myzafer Pipa,4001,42.0613850,19.5029671
135,Rruga Myzafer Pipa,4001,42.0615249,19.5028350
5,Sheshi Tophanë,4001,42.0607083,19.5022165
10,Rruga Osja i Falltores,4001,42.0604656,19.5017388
18,Rruga Osja i Falltores,4001,42.0600962,19.5018753
26,Rruga Osja i Falltores,4001,42.0597839,19.5013860
34,Rruga Osja i Falltores,4001,42.0594468,19.5011522
50,Rruga Osja i Falltores,4001,42.0586485,19.5008607
5,Rruga Osja i Falltores,4001,42.0599599,19.5023624
7,Rruga Osja i Falltores,4001,42.0598991,19.5022741
8,Rruga Haxhi Idriz Boksi,4001,42.0597588,19.5026540
18,Rruga Haxhi Idriz Boksi,4001,42.0597204,19.5025819
19,Rruga Osja i Falltores,4001,42.0594308,19.5016774
51,Rruga Osja i Falltores,4001,42.0585071,19.5013792
46,Rruga Osja i Falltores,4001,42.0588186,19.5009089
48,Rruga Osja i Falltores,4001,42.0586922,19.5010181
5,Rruga Faik Konica,4001,42.0578136,19.5009430
6,Rruga Faik Konica,4001,42.0578462,19.5014922
12,Rruga Faik Konica,4001,42.0580243,19.5011161
9,Rruga Eqrem Çabej,4001,42.0615724,19.5017143
8,Rruga Eqrem Çabej,4001,42.0616654,19.5022171
5,Rruga Abaz Golemi,4001,42.0607606,19.5027657
1,Rruga Abaz Golemi,4001,42.0606192,19.5027694
216,Rruga Myzafer Pipa,4001,42.0609736,19.5023539
212,Rruga Myzafer Pipa,4001,42.0609608,19.5020455
2,Sheshi Tophanë,4001,42.0606928,19.5025647
3,Rruga Abaz Golemi,4001,42.0607236,19.5026442
13,Rruga Abaz Golemi,4001,42.0612134,19.5030801
6,Rruga Abaz Golemi,4001,42.0603217,19.5031424
2,Rruga Abaz Golemi,4001,42.0605055,19.5028972
122,Rruga Myzafer Pipa,4001,42.0642244,19.5050887
118,Rruga Myzafer Pipa,4001,42.0642786,19.5048409
22,Rruga Myzafer Pipa,4001,42.0662582,19.5068649
59,Rruga Myzafer Pipa,4001,42.0642830,19.5053082
69,Rruga Myzafer Pipa,4001,42.0641198,19.5051875
30,Rruga Kongresi i Lushnjes,4001,42.0637107,19.5051546
158,Rruga Myzafer Pipa,4001,42.0629219,19.5039060
129,Rruga Myzafer Pipa,4001,42.0615018,19.5031185
149,Rruga Myzafer Pipa,4001,42.0611058,19.5028695
202,Rruga Myzafer Pipa,4001,42.0610543,19.5023868
208,Rruga Myzafer Pipa,4001,42.0610877,19.5017393
27,Rruga Myzafer Pipa,4001,42.0651940,19.5064199
17,Rruga Myzafer Pipa,4001,42.0655289,19.5066166
15,Rruga Myzafer Pipa,4001,42.0655872,19.5067861
210,Rruga Myzafer Pipa,4001,42.0610303,19.5018839
134,Rruga Myzafer Pipa,4001,42.0637890,19.5046950
110,Rruga Myzafer Pipa,4001,42.0646166,19.5048972
108,Rruga Myzafer Pipa,4001,42.0645172,19.5049456
102,Rruga Myzafer Pipa,4001,42.0646096,19.5054076
90,Rruga Myzafer Pipa,4001,42.0652624,19.5058226
92,Rruga Myzafer Pipa,4001,42.0651885,19.5058229
84,Rruga Myzafer Pipa,4001,42.0653805,19.5058041
88,Rruga Myzafer Pipa,4001,42.0653342,19.5059118
74,Rruga Myzafer Pipa,4001,42.0659531,19.5059690
66,Rruga Myzafer Pipa,4001,42.0655495,19.5062630
64,Rruga Myzafer Pipa,4001,42.0656297,19.5063074
52,Rruga Myzafer Pipa,4001,42.0659581,19.5064108
28,Rruga Myzafer Pipa,4001,42.0668716,19.5064196
38,Rruga Myzafer Pipa,4001,42.0669201,19.5062017
30,Rruga Myzafer Pipa,4001,42.0669278,19.5063589
36,Rruga Myzafer Pipa,4001,42.0667426,19.5064489
12,Rruga Myzafer Pipa,4001,42.0665510,19.5069003
155,Rruga Myzafer Pipa,4001,42.0609413,19.5025295
145,Rruga Myzafer Pipa,4001,42.0612341,19.5028816
113,Rruga Myzafer Pipa,4001,42.0621024,19.5037684
109,Rruga Myzafer Pipa,4001,42.0621577,19.5042479
101,Rruga Myzafer Pipa,4001,42.0625366,19.5038411
99,Rruga Myzafer Pipa,4001,42.0625999,19.5037846
26,Rruga Kongresi i Lushnjes,4001,42.0636006,19.5051708
24,Rruga Kongresi i Lushnjes,4001,42.0635676,19.5052668
49,Rruga Myzafer Pipa,4001,42.0647863,19.5060816
45,Rruga Myzafer Pipa,4001,42.0648278,19.5062677
71,Rruga Myzafer Pipa,4001,42.0640047,19.5050707
67,Rruga Myzafer Pipa,4001,42.0639743,19.5051527
37,Rruga Myzafer Pipa,4001,42.0649207,19.5063175
29,Rruga Myzafer Pipa,4001,42.0650892,19.5066932
4,Rruga Kongresi i Lushnjes,4001,42.0627957,19.5061665
2,Rruga Kongresi i Lushnjes,4001,42.0627393,19.5061197
10,Rruga Gasper Beltoja,4001,42.0624265,19.5044770
8,Rruga Gasper Beltoja,4001,42.0624901,19.5045122
2,Rruga Gasper Beltoja,4001,42.0625761,19.5039876
31,Rruga Kongresi i Lushnjes,4001,42.0627352,19.5047783
27,Rruga Kongresi i Lushnjes,4001,42.0626052,19.5048254
9,Rruga Gasper Beltoja,4001,42.0625220,19.5046253
35,Rruga Kongresi i Lushnjes,4001,42.0626089,19.5054268
49,Rruga Kongresi i Lushnjes,4001,42.0632347,19.5047671
16,Rruga Eqrem Çabej,4001,42.0617105,19.5018234
4,Rruga Eqrem Çabej,4001,42.0618669,19.5023388
37,Rruga Europa,4001,42.0779509,19.5147941
33,Rruga Qukej,4001,42.0705568,19.5102532
15,Rruga Memej,4001,42.0732542,19.5111454
13,Rruga Memej,4001,42.0731942,19.5111948
1,Rruga Roza Lejn,4001,42.0550686,19.5223827
28,Rruga Roza Lejn,4001,42.0580975,19.5229612
14,Rruga Roza Lejn,4001,42.0567966,19.5223881
33,Rruga Roza Lejn,4001,42.0568708,19.5220695
29,Rruga Roza Lejn,4001,42.0563825,19.5221986
25,Rruga Roza Lejn,4001,42.0558848,19.5226916
14,Rruga Marije Kraja,4001,42.0640651,19.5222337
12,Rruga Marije Kraja,4001,42.0640405,19.5224215
17,Rruga Don Bosko,4001,42.0629175,19.5139406
31,Rruga Bexhene,4001,42.0436299,19.4935748
4,Rruga Roza Lejn,4001,42.0558780,19.5230035
49,Rruga Roza Lejn,4001,42.0581517,19.5210083
3,Rruga Roza Lejn,4001,42.0551834,19.5226108
23,Rruga Roza Lejn,4001,42.0558245,19.5225998
31,Rruga Roza Lejn,4001,42.0566187,19.5220988
43,Rruga Roza Lejn,4001,42.0577028,19.5212765
57,Rruga Roza Lejn,4001,42.0591203,19.5203835
30,Rruga Roza Lejn,4001,42.0580725,19.5225608
34,Rruga Roza Lejn,4001,42.0578587,19.5222169
56,Rruga Roza Lejn,4001,42.0587694,19.5212041
60,Rruga Roza Lejn,4001,42.0588157,19.5208622
31,Rruga e Qafes,4001,42.0508086,19.4952892
29,Rruga e Qafes,4001,42.0506288,19.4951710
25,Rruga e Qafes,4001,42.0500076,19.4950991
104,Rruga Ludovik Saraçi,4001,42.0693399,19.5179275
5,Bulevardi Skënderbeu,4001,42.0663728,19.5150546
71,Rruga Kol Idromeno,4001,42.0680215,19.5154340
32,Rruga Kol Idromeno,4001,42.0684698,19.5154103
110,Rruga Marin Beçikemi,4001,42.0657943,19.5191112
78,Rruga Kardinal Mikel Koliqi,4001,42.0698600,19.5173665
20,Rruga Mbreti Gent,4001,42.0552605,19.4995946
20,Rruga Agron,4001,42.0432538,19.4898527
9,Rruga Qukej,4001,42.0694021,19.5104520
48,Rruga Justin Godard,4001,42.0644840,19.5200629
1,Rruga Palokë Kurti,4001,42.0660806,19.5157989
72,Rruga Lekë Dukagjini,4001,42.0705224,19.5118560
8,Rruga e Shirokes,4001,42.0543166,19.4780946
7,Rruga Marin Biçikemi,4001,42.0686326,19.5243221
23,Rruga At Gjergj Fishta,4000,42.0669826,19.5160229
