House number,Street name,Postal code,Latitude,Longitude
67,Strada Drumul de Centură,800248,45.4188953,28.0051826
23,Strada Saturn,800344,45.4215650,28.0290614
72,Bulevardul George Coșbuc,800385,45.4334996,28.0369423
24,Strada General Alexandru Cernat,800087,45.4270530,28.0411487
1,Strada Nicolae Bălcescu,800041,45.4341734,28.0538836
1bis,Strada Nicolae Bălcescu,800041,45.4343589,28.0538859
16,Strada Domnească,800015,45.4341548,28.0554974
98,Strada Domnească,800201,45.4460940,28.0546811
1,Strada Plantelor,800052,45.4330886,28.0491910
7,Strada Plantelor,800052,45.4334309,28.0491524
9,Strada Plantelor,800052,45.4337028,28.0492393
11,Strada Plantelor,800052,45.4338353,28.0492545
13,Strada Plantelor,800052,45.4339553,28.0492559
44,Strada Aurel Vlaicu,800508,45.4482562,28.0296489
38,Strada Aurel Vlaicu,800508,45.4482839,28.0302967
21,Strada Aurel Vlaicu,800692,45.4481606,28.0303057
27,Strada Aurel Vlaicu,800692,45.4481227,28.0296547
65,Strada Aurel Vlaicu,800508,45.4479539,28.0257083
47,Strada Aurel Vlaicu,800508,45.4480070,28.0270481
19,Strada Aurel Vlaicu,800508,45.4482297,28.0313924
13,Strada Aurel Vlaicu,800508,45.4482645,28.0321730
11,Strada Aurel Vlaicu,800508,45.4482714,28.0323213
5,Strada Aurel Vlaicu,800508,45.4483062,28.0331018
3,Strada Aurel Vlaicu,800508,45.4483158,28.0333996
1,Strada Aurel Vlaicu,800508,45.4483249,28.0335806
2,Strada Aurel Vlaicu,800508,45.4484793,28.0349572
6,Strada Aurel Vlaicu,800508,45.4484506,28.0342008
8,Strada Aurel Vlaicu,800508,45.4484641,28.0340413
12,Strada Aurel Vlaicu,800508,45.4484371,28.0332898
14,Strada Aurel Vlaicu,800508,45.4484192,28.0330834
20,Strada Aurel Vlaicu,800508,45.4483939,28.0323239
22,Strada Aurel Vlaicu,800508,45.4483859,28.0321708
28,Strada Aurel Vlaicu,800508,45.4483464,28.0313907
30,Strada Aurel Vlaicu,800508,45.4483385,28.0312307
36,Strada Aurel Vlaicu,800508,45.4482970,28.0304605
28,Strada Năruja,800509,45.4497571,28.0303298
9,Strada Cotești,800509,45.4484086,28.0312308
29,Strada Cotești,800509,45.4498069,28.0311249
7,Strada Cotești,800509,45.4481386,28.0312616
1,Strada Cotești,800509,45.4474548,28.0313135
8,Strada Cotești,800509,45.4481497,28.0313715
2,Strada Cotești,800509,45.4474659,28.0314233
10,Strada Cotești,800509,45.4484344,28.0313540
22,Strada Cotești,800509,45.4495389,28.0312581
8,Bulevardul Milcov,800509,45.4498412,28.0340232
2,Bulevardul Milcov,800509,45.4498640,28.0348749
10,Bulevardul Milcov,800509,45.4498382,28.0339291
26,Bulevardul Milcov,800509,45.4497126,28.0312594
23,Strada Odobești,800509,45.4495527,28.0320845
9,Strada Odobești,800509,45.4484722,28.0321719
7,Strada Odobești,800509,45.4479817,28.0322210
1,Strada Odobești,800509,45.4472978,28.0322778
8,Strada Odobești,800509,45.4479782,28.0323164
2,Strada Odobești,800509,45.4472943,28.0323682
24,Strada Odobești,800509,45.4495493,28.0322025
10,Strada Odobești,800509,45.4484803,28.0322886
9,Strada Focșani,800509,45.4486414,28.0331059
23,Strada Focșani,800509,45.4495855,28.0330113
18,Strada Focșani,800509,45.4494805,28.0331560
10,Strada Focșani,800509,45.4486560,28.0332273
8,Strada Focșani,800509,45.4480882,28.0332687
1,Strada Focșani,800509,45.4474079,28.0332301
2,Strada Focșani,800509,45.4474044,28.0333205
7,Strada Focșani,800509,45.4480918,28.0331733
1,Strada Vizantea,800508,45.4486195,28.0340689
13,Strada Vizantea,800508,45.4495568,28.0339890
2,Strada Vizantea,800508,45.4486149,28.0341950
6,Strada Vizantea,800508,45.4489957,28.0341604
1,Strada Pictor Nicolae Grigorescu,800507,45.4491225,28.0349653
5,Strada Pictor Nicolae Grigorescu,800507,45.4490885,28.0342816
2,Strada Pictor Nicolae Grigorescu,800507,45.4492331,28.0349534
6,Strada Pictor Nicolae Grigorescu,800507,45.4491960,28.0342997
8,Strada Vizantea,800508,45.4492410,28.0341239
14,Strada Vizantea,800508,45.4496143,28.0340844
3,Bulevardul Milcov,800509,45.4497142,28.0343952
1,Bulevardul Milcov,800509,45.4497205,28.0347295
235,Bulevardul George Coșbuc,800506,45.4492972,28.0349818
241,Bulevardul George Coșbuc,800506,45.4497195,28.0349365
233,Bulevardul George Coșbuc,800506,45.4490015,28.0350009
227,Bulevardul George Coșbuc,800506,45.4485743,28.0350437
219,Bulevardul George Coșbuc,800385,45.4408884,28.0356931
205,Bulevardul George Coșbuc,800385,45.4391581,28.0358561
221,Bulevardul George Coșbuc,800506,45.4428621,28.0355058
225,Bulevardul George Coșbuc,800506,45.4478473,28.0350501
173,Bulevardul George Coșbuc,800385,45.4369854,28.0362076
203,Bulevardul George Coșbuc,800385,45.4387355,28.0360589
143,Bulevardul George Coșbuc,800385,45.4356987,28.0363253
171,Bulevardul George Coșbuc,800385,45.4369314,28.0362153
141,Bulevardul George Coșbuc,800385,45.4356185,28.0363344
113,Bulevardul George Coșbuc,800385,45.4344535,28.0364396
11,Bulevardul Milcov,800509,45.4496076,28.0313377
22,Bulevardul George Coșbuc,800378,45.4306189,28.0371005
28,Bulevardul George Coșbuc,800378,45.4309276,28.0370714
36,Bulevardul George Coșbuc,800378,45.4313369,28.0370588
44,Bulevardul George Coșbuc,800378,45.4318140,28.0370124
46,Bulevardul George Coșbuc,800378,45.4318998,28.0369983
64,Bulevardul George Coșbuc,800378,45.4329072,28.0369026
74,Bulevardul George Coșbuc,800385,45.4337304,28.0367664
80,Bulevardul George Coșbuc,800385,45.4343815,28.0367155
82,Bulevardul George Coșbuc,800385,45.4345561,28.0367052
102,Bulevardul George Coșbuc,800385,45.4354325,28.0366345
104,Bulevardul George Coșbuc,800385,45.4355173,28.0366319
118,Bulevardul George Coșbuc,800385,45.4363794,28.0365754
120,Bulevardul George Coșbuc,800385,45.4365214,28.0365688
130,Bulevardul George Coșbuc,800385,45.4375346,28.0364907
132,Bulevardul George Coșbuc,800385,45.4378348,28.0364677
134,Bulevardul George Coșbuc,800385,45.4384746,28.0364069
136,Bulevardul George Coșbuc,800385,45.4389857,28.0362765
148,Bulevardul George Coșbuc,800385,45.4401995,28.0361577
150,Bulevardul George Coșbuc,800385,45.4404637,28.0361737
162,Bulevardul George Coșbuc,800385,45.4411380,28.0361159
164,Bulevardul George Coșbuc,800137,45.4414463,28.0360806
172,Bulevardul George Coșbuc,800137,45.4420564,28.0360196
174,Bulevardul George Coșbuc,800137,45.4432045,28.0359055
178,Bulevardul George Coșbuc,800506,45.4439444,28.0357819
188,Bulevardul George Coșbuc,800506,45.4444918,28.0357231
190,Bulevardul George Coșbuc,800506,45.4447177,28.0357426
250,Bulevardul George Coșbuc,800506,45.4474030,28.0354857
228,Bulevardul George Coșbuc,800506,45.4465295,28.0355644
230,Bulevardul George Coșbuc,800506,45.4466175,28.0355541
316,Bulevardul George Coșbuc,800506,45.4538559,28.0348636
290,Bulevardul George Coșbuc,800506,45.4526517,28.0349696
256,Bulevardul George Coșbuc,800506,45.4495294,28.0352572
318,Bulevardul George Coșbuc,800506,45.4540506,28.0348462
360,Bulevardul George Coșbuc,800506,45.4559347,28.0346172
362,Bulevardul George Coșbuc,800157,45.4561955,28.0346213
400,Bulevardul George Coșbuc,800157,45.4581583,28.0344327
402,Bulevardul George Coșbuc,800157,45.4583315,28.0343400
436,Bulevardul George Coșbuc,800157,45.4610409,28.0341192
258,Bulevardul George Coșbuc,800506,45.4510143,28.0351485
288,Bulevardul George Coșbuc,800506,45.4524191,28.0350168
432,Bulevardul George Coșbuc,800157,45.4604930,28.0341638
430,Bulevardul George Coșbuc,800157,45.4601254,28.0341940
438,Bulevardul George Coșbuc,800157,45.4612072,28.0340824
468,Bulevardul George Coșbuc,800157,45.4639335,28.0336507
251,Bulevardul George Coșbuc,800506,45.4517898,28.0346966
249,Bulevardul George Coșbuc,800506,45.4505395,28.0348270
243,Bulevardul George Coșbuc,800506,45.4499397,28.0348944
247,Bulevardul George Coșbuc,800506,45.4503411,28.0348591
2,Strada Călărași,800507,45.4504512,28.0347701
14,Strada Călărași,800507,45.4503838,28.0337327
1,Strada Călărași,800507,45.4503788,28.0347767
11,Strada Călărași,800507,45.4503065,28.0337113
155,Strada Morilor,800381,45.4289810,28.0390962
119,Strada Morilor,800381,45.4308699,28.0388848
121,Strada Morilor,800381,45.4306813,28.0389076
90,Strada Morilor,800381,45.4320797,28.0386360
93,Strada Morilor,800381,45.4320890,28.0387266
120,Strada Morilor,800381,45.4307630,28.0388107
118,Strada Morilor,800381,45.4308177,28.0388045
130,Strada Morilor,800381,45.4299981,28.0389042
2,Strada Zorilor,800382,45.4308940,28.0405480
16,Strada Zorilor,800382,45.4308031,28.0389624
1,Strada Zorilor,800382,45.4308498,28.0405558
15,Strada Zorilor,800382,45.4307442,28.0389600
2,Aleea Morilor,800381,45.4321792,28.0385194
8,Aleea Morilor,800381,45.4321392,28.0379075
1,Aleea Morilor,800381,45.4321144,28.0385262
7,Aleea Morilor,800381,45.4320846,28.0379211
88,Strada Morilor,800381,45.4322104,28.0386170
70,Strada Morilor,800387,45.4340038,28.0384632
72,Strada Morilor,800381,45.4334984,28.0384736
67,Strada Morilor,800381,45.4335207,28.0385900
65,Strada Morilor,800387,45.4337355,28.0385696
91,Strada Morilor,800381,45.4321829,28.0387157
51,Strada Morilor,800387,45.4346699,28.0385880
53,Strada Morilor,800387,45.4345500,28.0385785
1,Strada Teiului,800388,45.4346514,28.0386378
9,Strada Teiului,800388,45.4346109,28.0393303
2,Strada Teiului,800388,45.4345918,28.0386314
8,Strada Teiului,800388,45.4345566,28.0392749
138,Strada Mihai Eminescu,800390,45.4362801,28.0384154
123,Strada Mihai Eminescu,800390,45.4361578,28.0384284
38,Strada Morilor,800387,45.4363893,28.0385377
40,Strada Morilor,800387,45.4358847,28.0385325
27,Strada Morilor,800387,45.4358691,28.0386495
25,Strada Morilor,800387,45.4363555,28.0386859
19,Strada Morilor,800387,45.4372648,28.0386823
17,Strada Morilor,800387,45.4375588,28.0387091
13,Strada Morilor,800387,45.4378865,28.0387299
7,Strada Morilor,800387,45.4384015,28.0387481
11,Strada Morilor,800387,45.4380218,28.0387221
10,Strada Morilor,800387,45.4384417,28.0386269
20,Strada Morilor,800387,45.4373187,28.0385255
18,Strada Morilor,800387,45.4375041,28.0385521
128,Strada Basarabiei,800113,45.4421071,28.0390665
18,Piața Victoriei,800114,45.4417340,28.0412905
110,Strada Basarabiei,800113,45.4425472,28.0408738
112,Strada Basarabiei,800113,45.4425004,28.0406290
2,Piața Victoriei,800114,45.4421797,28.0430895
33,Strada 9 Mai 1945,800261,45.4461126,28.0178148
47,Strada 9 Mai 1945,800261,45.4464678,28.0164422
31,Strada 9 Mai 1945,800261,45.4460092,28.0181945
1,Strada 9 Mai 1945,800261,45.4451535,28.0214945
1,Strada Nicolae Mantu,800253,45.4429221,28.0086505
2,Strada Nicolae Mantu,800253,45.4428663,28.0088066
30,Strada Nicolae Mantu,800253,45.4452846,28.0103096
28,Strada Nicolae Mantu,800253,45.4451008,28.0101741
27,Strada Nicolae Mantu,800253,45.4454026,28.0100951
26,Strada Nicolae Mantu,800253,45.4450568,28.0100717
29,Strada Nicolae Mantu,800253,45.4460751,28.0106887
32,Strada Nicolae Mantu,800253,45.4458424,28.0106703
35,Strada Nicolae Mantu,800253,45.4467669,28.0110620
38,Strada Nicolae Mantu,800253,45.4467626,28.0112426
109,Strada Poșta Veche,800134,45.4447628,28.0393586
107,Strada Poșta Veche,800134,45.4445431,28.0395106
105,Strada Poșta Veche,800134,45.4444635,28.0395609
76,Strada Poșta Veche,800134,45.4449237,28.0393865
78,Strada Poșta Veche,800134,45.4450207,28.0396158
80,Strada Poșta Veche,800134,45.4451256,28.0397091
82,Strada Poșta Veche,800134,45.4452590,28.0396146
84,Strada Poșta Veche,800134,45.4453527,28.0395571
86,Strada Poșta Veche,800134,45.4455773,28.0395243
88,Strada Poșta Veche,800134,45.4456315,28.0395898
90,Strada Poșta Veche,800134,45.4456089,28.0395097
92,Strada Poșta Veche,800134,45.4455728,28.0393708
94,Strada Poșta Veche,800134,45.4450062,28.0393245
100,Strada Poșta Veche,800134,45.4453809,28.0390537
102,Strada Poșta Veche,800134,45.4454554,28.0389961
123,Strada Poșta Veche,800134,45.4454716,28.0388314
108,Strada Poșta Veche,800134,45.4458415,28.0387390
125,Strada Poșta Veche,800134,45.4458133,28.0385933
133,Strada Poșta Veche,800134,45.4464746,28.0383089
48,Strada Gării,800217,45.4438152,28.0532118
54,Strada Gării,800217,45.4437887,28.0527870
55,Strada Gării,800217,45.4436846,28.0529584
62,Strada Gării,800217,45.4437529,28.0522690
1,Strada Roșiori,800073,45.4289863,28.0525868
14,Strada Domnească,800035,45.4338252,28.0558097
32,Strada Saturn,800339,45.4211396,28.0284392
207,Bulevardul George Coșbuc,800385,45.4456800,28.0358526
41,Strada Brăilei,800306,45.4281615,28.0379233
41,Strada Brăilei,800306,45.4282744,28.0381165
41,Strada Brăilei,800306,45.4282678,28.0382021
23,Strada Crinului,800510,45.4458256,28.0226275
55,Strada Sfântul Spiridon,800051,45.4370117,28.0489560
53,Strada Sfântul Spiridon,800051,45.4368046,28.0489276
32,Strada General Ioan Dragalina,800290,45.4390522,28.0291405
316,Strada Traian,800179,45.4624048,28.0374030
214,Strada Traian,800150,45.4474227,28.0450173
177,Strada Traian,800150,45.4469280,28.0451028
305,Strada Traian,800179,45.4597015,28.0384891
163,Strada Traian,800150,45.4461123,28.0455134
205,Strada Traian,800186,45.4531747,28.0418788
176,Strada Traian,800150,45.4453124,28.0461003
255,Strada Traian,800186,45.4566249,28.0401133
351,Strada Traian,800179,45.4617236,28.0374586
299,Strada Traian,800179,45.4591630,28.0387912
226,Strada Traian,800150,45.4481110,28.0446706
262,Strada Traian,800179,45.4570542,28.0401038
139,Strada Traian,800150,45.4449824,28.0460868
192,Strada Traian,800150,45.4461492,28.0456973
261,Strada Traian,800179,45.4571078,28.0398245
349,Strada Traian,800179,45.4615605,28.0375686
237,Strada Traian,800186,45.4549137,28.0409900
281,Strada Traian,800179,45.4581905,28.0393048
228,Strada Traian,800186,45.4512310,28.0431145
288,Strada Traian,800179,45.4584093,28.0394545
133,Strada Traian,800150,45.4445354,28.0463267
194,Strada Traian,800150,45.4463100,28.0455643
197,Strada Traian,800150,45.4481067,28.0444996
212,Strada Traian,800150,45.4473923,28.0450309
331,Strada Traian,800179,45.4606449,28.0380514
219,Strada Traian,800186,45.4540151,28.0414523
279,Strada Traian,800179,45.4581028,28.0393592
244,Strada Traian,800186,45.4522092,28.0425830
125,Strada Traian,800150,45.4441744,28.0465085
292,Strada Traian,800179,45.4608568,28.0381712
179,Strada Traian,800150,45.4470260,28.0450650
329,Strada Traian,800179,45.4605388,28.0380764
165,Strada Traian,800150,45.4462939,28.0454127
217,Strada Traian,800186,45.4538748,28.0415179
241,Strada Traian,800186,45.4560737,28.0403859
359,Strada Traian,800179,45.4623267,28.0371675
80,Strada Frunzei,800493,45.4273173,28.0194469
4,Aleea Meteo,800179,45.4726720,28.0312488
195,Bulevardul George Coșbuc,800385,45.4382137,28.0359960
44,Strada Nae Leonard,800289,45.4356629,28.0271019
22,Strada Victor Vâlcovici,800607,45.4123747,28.0170278
Statie tramvai,Strada Traian,800003,45.4377995,28.0493267
35,Bulevardul Siderurgiștilor,800245,45.4372838,28.0230249
1,Strada 1 Decembrie 1918,800258,45.4420417,28.0211206
23,Strada 1 Decembrie 1918,800511,45.4459936,28.0233736
1,Strada Feroviarilor,800538,45.4503477,28.0192108
8,Bulevardul Traian Vuia,800524,45.4540431,28.0244090
48,Strada Roșiori,800044,45.4290130,28.0505179
53,Strada Traian,800049,45.4356722,28.0504717
17,Strada General Alexandru Cernat,800087,45.4269996,28.0410709
26,Strada Română,800122,45.4271643,28.0412490
40,Strada General Alexandru Cernat,800087,45.4277907,28.0411670
42,Strada General Alexandru Cernat,800087,45.4280209,28.0411351
44,Strada General Alexandru Cernat,800087,45.4283149,28.0410941
45,Strada General Alexandru Cernat,800087,45.4283167,28.0408423
6,Strada General Alexandru Cernat,800087,45.4259758,28.0413994
4,Strada Basarabiei,800201,45.4463487,28.0556841
159,Strada Traian,800150,45.4458294,28.0455880
160-162,Strada Morilor,800305,45.4280237,28.0387630
251,Bulevardul George Coșbuc,800506,45.4507596,28.0313093
19,Drumul Viilor,800248,45.4386351,28.0069632
2,Strada Maior Iancu Fotea,800017,45.4374490,28.0553710
6A,Strada Regiment 11 Siret,800340,45.4190410,28.0320660
141,Strada Domnească,800163,45.4507825,28.0504738
141,Strada Domnească,800163,45.4367033,28.0508377
9,Strada Ana Ipătescu,800211,45.4391578,28.0642558
10bis,Strada Colonel Nicolae Holban,800217,45.4431619,28.0548428
5-7,Strada General Lahovary,800021,45.4364661,28.0540794
25,Bulevardul Brăilei,800083,45.4296189,28.0439858
112,Strada Nicolae Bălcescu,800217,45.4440694,28.0515102
2A,Bulevardul Siderurgiștilor,800364,45.4284217,28.0250687
21,Bulevardul Siderurgiștilor,800479,45.4337484,28.0251522
22,Bulevardul Siderurgiștilor,800375,45.4337859,28.0258305
1,Bulevardul George Coșbuc,800378,45.4288947,28.0367320
19,Bulevardul George Coșbuc,800357,45.4304399,28.0364202
1E,Strada Constructorilor,800365,45.4302507,28.0299191
19,Bulevardul Siderurgiștilor,800479,45.4332588,28.0250742
20,Strada Traian,800043,45.4346072,28.0511567
18,Strada Traian,800043,45.4346367,28.0518265
16,Strada Traian,800043,45.4346223,28.0517924
14,Strada Traian,800043,45.4342596,28.0514292
18,Strada Domnească,800015,45.4344614,28.0555537
3A,Bulevardul Galați,800650,45.4044680,28.0195565
3A,Bulevardul Galați,800650,45.4043397,28.0196962
3A,Bulevardul Galați,800650,45.4045360,28.0194597
5,Strada Grigore Ventura,800558,45.4559385,28.0287440
60,Bulevardul Dunărea,800647,45.4094537,28.0172976
25,Strada 1 Decembrie 1918,800511,45.4478884,28.0246530
24,Strada Domnească,800008,45.4361146,28.0565355
188,Bulevardul George Coșbuc,800506,45.4445072,28.0359017
8,Strada Mavromol,800041,45.4347880,28.0541931
6A,Strada Strungarilor,800584,45.4154441,28.0141931
21,Bulevardul George Coșbuc,800357,45.4315362,28.0360268
257,Bulevardul George Coșbuc,800157,45.4594811,28.0331847
2,Strada Fagului,800694,45.4346632,28.0184110
66,Strada Domnească,800600,45.4412673,28.0562951
3,Strada Barboși,800400,45.4196687,28.0142441
1,Strada Oradea,800687,45.4217954,28.0205443
246,Bulevardul Brăilei,800628,45.4153220,28.0091738
14,Strada Armata Poporului,800078,45.4266893,28.0457989
42A,Bulevardul Dunărea,800657,45.4090177,28.0102290
42A,Bulevardul Dunărea,800636,45.4090177,28.0102290
42A,Bulevardul Dunărea,800636,45.4092041,28.0098856
42A,Bulevardul Dunărea,800636,45.4089273,28.0104864
41,Strada Brăilei,800306,45.4281751,28.0382748
41,Strada Brăilei,800306,45.4281562,28.0384035
132,Bulevardul Brăilei,800098,45.4291727,28.0400431
17,Strada Gheorghe Asachi,800494,45.4306329,28.0190537
259,Strada Traian,800129,45.4569888,28.0398597
257,Strada Traian,800129,45.4567588,28.0400036
269,Strada Brăilei,800628,45.4077991,27.9769632
3,Bulevardul Milcov,800675,45.4502834,28.0258898
12,Strada Oțelarilor,800598,45.4153400,28.0202500
82,Strada Brăilei,800098,45.4308919,28.0447884
399,Strada Traian,800179,45.4678721,28.0342129
41,Bulevardul Siderurgiștilor,800245,45.4382440,28.0222545
63,Strada Armata Poporului,800078,45.4262851,28.0453014
73,Strada Armata Poporului,800078,45.4258606,28.0444083
34,Strada Nae Leonard,800694,45.4461139,28.0293666
39,Strada Nae Leonard,800282,45.4463604,28.0281281
257,Bulevardul George Coșbuc,800157,45.4593616,28.0332832
16,Strada Armata Poporului,800078,45.4266933,28.0450953
16,Strada Ovidiu,800402,45.4267622,28.0451775
14A,Strada Oțelarilor,800592,45.4147265,28.0191696
189,Strada Brăilei,800612,45.4157950,28.0112783
189,Strada Brăilei,800612,45.4158110,28.0112569
189,Strada Brăilei,800612,45.4159513,28.0114701
189,Strada Brăilei,800612,45.4160295,28.0117490
189,Strada Brăilei,800612,45.4161867,28.0119381
189,Strada Brăilei,800612,45.4162723,28.0122117
189,Strada Brăilei,800612,45.4164399,28.0124303
189,Strada Brăilei,800612,45.4157113,28.0109913
22,Strada Nicolae Bălcescu,800001,45.4368418,28.0529681
5B,Strada Oțelarilor,800598,45.4153220,28.0210814
25,Bulevardul Siderurgiștilor,800480,45.4342235,28.0241050
4,Strada Nicolae Bălcescu,800041,45.4348926,28.0548154
13,Strada Ovidiu,800080,45.4266020,28.0443020
16,Strada 1 Decembrie 1918,800265,45.4444271,28.0231866
59,Strada Armata Poporului,800078,45.4264678,28.0457462
24,Strada Domnească,800008,45.4359919,28.0562621
205,Bulevardul Brăilei,800628,45.4140164,28.0077558
205,Bulevardul Brăilei,800628,45.4138883,28.0078792
205,Bulevardul Brăilei,800628,45.4137465,28.0072587
205,Bulevardul Brăilei,800628,45.4139812,28.0075591
205,Bulevardul Brăilei,800628,45.4136674,28.0069529
205,Bulevardul Brăilei,800628,45.4135733,28.0067508
2,Strada Anghel Saligny,800686,45.4301467,28.0222402
199,Strada Traian,800150,45.4496258,28.0431102
290,Strada Traian,800179,45.4598060,28.0396093
66,Bulevardul Milcov,800535,45.4525460,28.0173006
2,Strada Alba Iulia,800298,45.4422469,28.0259776
2,Strada Alba Iulia,800298,45.4419890,28.0269634
22,Strada Cloșca,800324,45.4251429,28.0237750
26,Strada Saturn,800325,45.4229271,28.0265885
1,Strada Regiment 11 Siret,800322,45.4269826,28.0321953
7,Strada Nae Leonard,800289,45.4375307,28.0269334
9,Strada Nae Leonard,800241,45.4380773,28.0270533
18,Strada Cluj,800240,45.4384229,28.0263274
15,Strada Nae Leonard,800241,45.4387118,28.0270586
11,Strada Nae Leonard,800241,45.4385645,28.0274561
13,Strada Nae Leonard,800241,45.4391085,28.0272906
20,Strada Cluj,800240,45.4393460,28.0265713
130,Strada Anghel Saligny,800239,45.4395744,28.0257539
19,Strada Cluj,800240,45.4391700,28.0259298
128,Strada Anghel Saligny,800239,45.4391419,28.0253988
17,Strada Cluj,800240,45.4387015,28.0257134
126,Strada Anghel Saligny,800288,45.4383851,28.0250343
15,Strada Cluj,800240,45.4383260,28.0255384
2,Strada Eremia Grigorescu,800287,45.4376803,28.0252904
17,Strada Nae Leonard,800241,45.4395945,28.0276437
14,Strada Nae Leonard,800242,45.4384025,28.0284594
12,Strada Nae Leonard,800242,45.4380208,28.0281498
10,Strada Nae Leonard,800242,45.4377389,28.0280015
8,Strada Nae Leonard,800242,45.4372209,28.0277047
8,Strada Nae Leonard,800242,45.4371611,28.0280879
3,Strada Eremia Grigorescu,800230,45.4369950,28.0252772
1,Strada Eremia Grigorescu,800230,45.4370456,28.0258149
7,Strada Cluj,800231,45.4366413,28.0258969
5,Strada Cluj,800231,45.4359824,28.0258336
9,Strada Cluj,800240,45.4364354,28.0254746
11,Strada Cluj,800240,45.4365323,28.0250821
3,Strada Cluj,800231,45.4352468,28.0262322
1,Strada Nae Leonard,800289,45.4348579,28.0267785
26,Bulevardul Siderurgiștilor,800234,45.4348363,28.0261378
6,Strada Nae Leonard,800242,45.4365711,28.0278003
4,Strada Nae Leonard,800242,45.4359931,28.0275077
2,Strada Nae Leonard,800242,45.4354595,28.0276005
10,Strada Cluj,800240,45.4360932,28.0264170
30,Bulevardul Siderurgiștilor,800235,45.4371496,28.0242657
30,Bulevardul Siderurgiștilor,800235,45.4365975,28.0242753
30,Bulevardul Siderurgiștilor,800235,45.4359277,28.0247580
24,Bulevardul Siderurgiștilor,800234,45.4350836,28.0253988
24,Bulevardul Siderurgiștilor,800234,45.4343284,28.0258306
24,Bulevardul Siderurgiștilor,800234,45.4342617,28.0264739
9,Strada Gheorghe Doja,800354,45.4341907,28.0280223
2,Strada Cluj,800288,45.4343496,28.0280471
3,Strada Nae Leonard,800289,45.4363427,28.0269438
5,Strada Nae Leonard,800289,45.4368920,28.0269012
13,Strada Cluj,800240,45.4360486,28.0251998
1,Strada Gheorghe Asachi,800487,45.4303796,28.0241955
16,Strada Nae Leonard,800242,45.4394495,28.0285199
19,Strada Nae Leonard,800241,45.4401313,28.0274049
167,Bulevardul Brăilei,800343,45.4276144,28.0324081
165,Bulevardul Brăilei,800310,45.4276686,28.0330955
163,Bulevardul Brăilei,800309,45.4277417,28.0337938
161,Bulevardul Brăilei,800320,45.4278066,28.0344731
159,Bulevardul Brăilei,800319,45.4278635,28.0351768
157,Bulevardul Brăilei,800319,45.4279566,28.0357648
155,Bulevardul Brăilei,800319,45.4280162,28.0364664
1,Strada Regiment 11 Siret,800322,45.4263775,28.0332637
3,Strada Regiment 11 Siret,800316,45.4258829,28.0340458
47,Strada Regiment 11 Siret,800318,45.4274609,28.0363525
45,Strada Regiment 11 Siret,800318,45.4275910,28.0372464
41,Strada Regiment 11 Siret,800313,45.4269050,28.0357336
43,Strada Regiment 11 Siret,800313,45.4269691,28.0369218
37,Strada Regiment 11 Siret,800312,45.4262891,28.0367780
39,Strada Regiment 11 Siret,800312,45.4264678,28.0373182
35,Strada Regiment 11 Siret,800312,45.4257256,28.0374566
29,Strada Regiment 11 Siret,800311,45.4250375,28.0373499
31,Strada Regiment 11 Siret,800311,45.4252205,28.0378734
29bis,Strada Regiment 11 Siret,800311,45.4253403,28.0384476
27,Strada Regiment 11 Siret,800311,45.4244887,28.0380123
33,Strada Regiment 11 Siret,800311,45.4256684,28.0362608
25,Strada Regiment 11 Siret,800311,45.4244256,28.0367904
19,Strada Regiment 11 Siret,800331,45.4236855,28.0367901
30,Strada Regiment 11 Siret,800333,45.4217830,28.0359507
32,Strada Regiment 11 Siret,800333,45.4220423,28.0363924
34,Strada Regiment 11 Siret,800302,45.4223056,28.0368285
36,Strada Regiment 11 Siret,800302,45.4225744,28.0372757
38,Strada Regiment 11 Siret,800302,45.4228679,28.0377036
40,Strada Regiment 11 Siret,800302,45.4231396,28.0381509
42,Strada Regiment 11 Siret,800302,45.4234221,28.0385787
44,Strada Regiment 11 Siret,800302,45.4236937,28.0390314
22,Strada Regiment 11 Siret,800333,45.4214198,28.0339672
20,Strada Regiment 11 Siret,800332,45.4209153,28.0338091
18,Strada Regiment 11 Siret,800332,45.4204187,28.0336649
16,Strada Regiment 11 Siret,800332,45.4199088,28.0335239
12,Strada Regiment 11 Siret,800332,45.4229876,28.0332138
14,Strada Regiment 11 Siret,800332,45.4227847,28.0328127
8,Strada Regiment 11 Siret,800317,45.4239008,28.0329529
10,Strada Regiment 11 Siret,800317,45.4236978,28.0325470
4,Strada Regiment 11 Siret,800340,45.4248140,28.0326727
6,Strada Regiment 11 Siret,800340,45.4246110,28.0322764
9,Strada Regiment 11 Siret,800330,45.4245483,28.0338032
15,Strada Regiment 11 Siret,800330,45.4236448,28.0340689
17,Strada Regiment 11 Siret,800331,45.4230231,28.0348190
21,Strada Regiment 11 Siret,800331,45.4234700,28.0356595
7,Strada Regiment 11 Siret,800330,45.4249681,28.0342968
13,Strada Regiment 11 Siret,800330,45.4240425,28.0345846
5,Strada Regiment 11 Siret,800316,45.4254747,28.0335235
23,Strada Regiment 11 Siret,800331,45.4228309,28.0356519
46,Strada Regiment 11 Siret,800302,45.4245410,28.0396127
2,Strada Saturn,800344,45.4270931,28.0285511
10,Strada Saturn,800344,45.4256958,28.0284062
18,Strada Saturn,800338,45.4242548,28.0281627
4,Strada Saturn,800344,45.4262573,28.0286497
6,Strada Saturn,800344,45.4262100,28.0280730
12,Strada Saturn,800344,45.4248400,28.0284825
14,Strada Saturn,800344,45.4247920,28.0278407
22,Strada Saturn,800339,45.4233940,28.0276604
20,Strada Saturn,800338,45.4234432,28.0282286
16,Strada Saturn,800344,45.4252469,28.0272658
8,Strada Saturn,800344,45.4266324,28.0274046
5,Strada Saturn,800339,45.4246287,28.0295606
7,Strada Saturn,800344,45.4238955,28.0294326
9,Strada Saturn,800344,45.4231594,28.0293033
24,Strada Saturn,800339,45.4238123,28.0270170
34,Strada Saturn,800339,45.4218750,28.0283681
32,Strada Saturn,800339,45.4220768,28.0278506
30,Strada Saturn,800325,45.4222795,28.0273379
173,Strada Brăilei,800345,45.4272694,28.0275825
12,Strada Arad,800323,45.4265788,28.0268620
10,Strada Arad,800323,45.4266073,28.0264480
8,Strada Arad,800345,45.4267389,28.0260779
1,Strada Arad,800323,45.4255450,28.0267630
1,Strada Arad,800323,45.4247204,28.0268918
5,Strada Cloșca,800324,45.4244550,28.0264839
3,Strada Cloșca,800324,45.4240111,28.0259595
13,Strada Cloșca,800346,45.4210140,28.0281972
11,Strada Cloșca,800346,45.4216704,28.0274043
33,Strada Cloșca,800346,45.4231099,28.0258835
9,Strada Cloșca,800324,45.4224632,28.0265699
1,Strada Cloșca,800324,45.4241577,28.0258217
16,Bulevardul Siderurgiștilor,800374,45.4323263,28.0259280
18,Bulevardul Siderurgiștilor,800374,45.4324037,28.0265839
12,Bulevardul Siderurgiștilor,800374,45.4312566,28.0257305
14,Bulevardul Siderurgiștilor,800374,45.4313209,28.0263820
8,Bulevardul Siderurgiștilor,800364,45.4301775,28.0255497
10,Bulevardul Siderurgiștilor,800364,45.4302486,28.0262043
6,Bulevardul Siderurgiștilor,800364,45.4291931,28.0259963
4,Bulevardul Siderurgiștilor,800364,45.4291119,28.0253670
35,Strada Constructorilor,800372,45.4331586,28.0271238
33,Strada Constructorilor,800372,45.4331291,28.0277218
31,Strada Constructorilor,800361,45.4330873,28.0283158
29,Strada Constructorilor,800361,45.4330664,28.0288979
27,Strada Constructorilor,800361,45.4330336,28.0295039
17,Strada Constructorilor,800371,45.4313561,28.0285994
15,Strada Constructorilor,800365,45.4312427,28.0291725
5,Strada Constructorilor,800365,45.4295742,28.0282860
3,Strada Constructorilor,800365,45.4294608,28.0288680
19,Strada Constructorilor,800371,45.4316352,28.0279890
13,Strada Constructorilor,800365,45.4309472,28.0297904
7,Strada Constructorilor,800365,45.4298667,28.0276622
1,Strada Constructorilor,800365,45.4291712,28.0294800
25,Strada Constructorilor,800371,45.4327221,28.0301066
21,Strada Constructorilor,800371,45.4321616,28.0289804
9,Strada Constructorilor,800365,45.4303949,28.0286495
29,Strada Constructorilor,800361,45.4311398,28.0273570
20,Bulevardul Siderurgiștilor,800375,45.4332634,28.0260803
22,Bulevardul Siderurgiștilor,800375,45.4336853,28.0259549
22,Bulevardul Siderurgiștilor,800375,45.4337475,28.0265416
12,Strada Gheorghe Doja,800373,45.4336424,28.0285788
2,Bulevardul Siderurgiștilor,800364,45.4280900,28.0258526
26,Strada Constructorilor,800352,45.4323481,28.0327803
28,Strada Constructorilor,800352,45.4324769,28.0332996
18,Strada Constructorilor,800352,45.4318013,28.0323621
12,Strada Constructorilor,800360,45.4305744,28.0324724
6,Strada Constructorilor,800360,45.4300320,28.0320358
30,Strada Constructorilor,800352,45.4328577,28.0338827
24,Strada Constructorilor,800352,45.4325161,28.0316457
16,Strada Constructorilor,800352,45.4316120,28.0314887
10,Strada Constructorilor,800360,45.4307362,28.0313453
4,Strada Constructorilor,800360,45.4298513,28.0311958
8,Strada Constructorilor,800360,45.4303245,28.0306893
2,Strada Constructorilor,800360,45.4294561,28.0305248
14,Strada Constructorilor,800360,45.4312111,28.0308447
22,Strada Constructorilor,800352,45.4320977,28.0309941
39,Bulevardul George Coșbuc,800350,45.4330939,28.0345039
37,Bulevardul George Coșbuc,800350,45.4330843,28.0350251
35,Bulevardul George Coșbuc,800350,45.4330590,28.0355680
25,Bulevardul George Coșbuc,800357,45.4315913,28.0346148
23,Bulevardul George Coșbuc,800357,45.4315472,28.0351577
21,Bulevardul George Coșbuc,800357,45.4314872,28.0357006
11,Bulevardul George Coșbuc,800378,45.4299513,28.0347752
9,Bulevardul George Coșbuc,800378,45.4298922,28.0353069
7,Bulevardul George Coșbuc,800378,45.4298422,28.0358523
27,Bulevardul George Coșbuc,800357,45.4318216,28.0340752
13,Bulevardul George Coșbuc,800378,45.4302058,28.0342116
5,Bulevardul George Coșbuc,800378,45.4292071,28.0358092
33,Bulevardul George Coșbuc,800350,45.4323325,28.0351023
19,Bulevardul George Coșbuc,800357,45.4307275,28.0352245
3,Bulevardul George Coșbuc,800378,45.4294646,28.0365336
17,Bulevardul George Coșbuc,800357,45.4311098,28.0363752
31,Bulevardul George Coșbuc,800350,45.4327242,28.0362628
16,Strada Cluj,800240,45.4376719,28.0262640
14,Strada Cluj,800240,45.4372845,28.0263066
34,Bulevardul Siderurgiștilor,800279,45.4378322,28.0240330
5,Strada Eremia Grigorescu,800230,45.4384946,28.0233616
7,Strada Eremia Grigorescu,800230,45.4394911,28.0227366
8,Strada Eremia Grigorescu,800287,45.4397123,28.0235387
153,Strada Anghel Saligny,800288,45.4384798,28.0240903
6,Strada Eremia Grigorescu,800287,45.4390165,28.0241058
155,Strada Anghel Saligny,800288,45.4391491,28.0245243
157,Strada Anghel Saligny,800239,45.4399167,28.0247109
123,Strada Basarabiei,800238,45.4401364,28.0239602
125,Strada Basarabiei,800238,45.4400946,28.0231644
32,Bulevardul Siderurgiștilor,800235,45.4372539,28.0237346
32,Bulevardul Siderurgiștilor,800235,45.4375546,28.0234715
36,Bulevardul Siderurgiștilor,800279,45.4380550,28.0230849
36,Bulevardul Siderurgiștilor,800279,45.4386100,28.0226081
38,Bulevardul Siderurgiștilor,800279,45.4391336,28.0222340
38,Bulevardul Siderurgiștilor,800279,45.4395448,28.0218628
38,Bulevardul Siderurgiștilor,800279,45.4399712,28.0216920
38,Bulevardul Siderurgiștilor,800279,45.4400993,28.0222879
150,Strada Basarabiei,800280,45.4405710,28.0225375
40,Bulevardul Siderurgiștilor,800259,45.4408504,28.0215143
2,Strada 1 Decembrie 1918,800294,45.4415662,28.0216214
2,Strada 1 Decembrie 1918,800294,45.4419968,28.0219212
2,Strada 1 Decembrie 1918,800294,45.4420083,28.0222609
4,Strada 1 Decembrie 1918,800251,45.4424669,28.0224014
4,Strada 1 Decembrie 1918,800251,45.4427875,28.0222542
4,Strada 1 Decembrie 1918,800251,45.4434055,28.0225993
4,Strada 1 Decembrie 1918,800251,45.4438866,28.0229070
193,Strada Tecuci,800295,45.4417694,28.0229949
148,Strada Basarabiei,800280,45.4411909,28.0224025
146,Strada Basarabiei,800280,45.4412433,28.0228136
191,Strada Tecuci,800295,45.4413873,28.0236662
142,Strada Basarabiei,800294,45.4407058,28.0239256
189,Strada Tecuci,800295,45.4412416,28.0244481
144,Strada Basarabiei,800294,45.4410283,28.0237835
45,Bulevardul Siderurgiștilor,800245,45.4398300,28.0204622
45,Bulevardul Siderurgiștilor,800245,45.4392672,28.0213383
41,Bulevardul Siderurgiștilor,800245,45.4386868,28.0217540
41,Bulevardul Siderurgiștilor,800245,45.4381959,28.0221891
35,Bulevardul Siderurgiștilor,800245,45.4373564,28.0227864
35,Bulevardul Siderurgiștilor,800245,45.4366959,28.0232697
35,Bulevardul Siderurgiștilor,800245,45.4361300,28.0233067
29,Bulevardul Siderurgiștilor,800481,45.4360674,28.0238439
31,Bulevardul Siderurgiștilor,800481,45.4357672,28.0241181
33,Bulevardul Siderurgiștilor,800481,45.4351852,28.0245165
27,Bulevardul Siderurgiștilor,800480,45.4348578,28.0242198
25,Bulevardul Siderurgiștilor,800480,45.4344196,28.0249583
25,Bulevardul Siderurgiștilor,800480,45.4342362,28.0244044
19,Bulevardul Siderurgiștilor,800479,45.4337952,28.0243949
21,Bulevardul Siderurgiștilor,800479,45.4336869,28.0249802
23,Bulevardul Siderurgiștilor,800480,45.4332836,28.0250199
19,Bulevardul Siderurgiștilor,800479,45.4327567,28.0249473
15,Bulevardul Siderurgiștilor,800479,45.4319273,28.0248058
15,Bulevardul Siderurgiștilor,800479,45.4314665,28.0245444
7,Strada Neajlov,800477,45.4294740,28.0232503
5,Strada Neajlov,800477,45.4291096,28.0235755
9,Bulevardul Siderurgiștilor,800478,45.4290273,28.0240164
17,Bulevardul Siderurgiștilor,800479,45.4331251,28.0242983
2,Strada Gheorghe Asachi,800494,45.4314500,28.0236563
4,Strada Arad,800345,45.4272051,28.0268758
6,Strada Arad,800345,45.4272788,28.0262159
1A,Strada Cloșca,800324,45.4270124,28.0252976
198,Strada Tecuci,800295,45.4409835,28.0273774
21,Strada Nae Leonard,800297,45.4411346,28.0280847
23,Strada Nae Leonard,800297,45.4413959,28.0276975
25,Strada Nae Leonard,800297,45.4418834,28.0280259
27,Strada Nae Leonard,800297,45.4425700,28.0283175
2,Strada Alba Iulia,800298,45.4424463,28.0272998
208,Strada Tecuci,800269,45.4423869,28.0229841
212,Strada Tecuci,800269,45.4427693,28.0230474
210,Strada Tecuci,800269,45.4425507,28.0236544
206,Strada Tecuci,800280,45.4422381,28.0240956
5,Strada Sucevei,800268,45.4430167,28.0232145
204,Strada Tecuci,800272,45.4418345,28.0246637
1,Strada Sucevei,800273,45.4426151,28.0245019
3,Strada Sucevei,800273,45.4431848,28.0235315
6,Strada 1 Decembrie 1918,800251,45.4437316,28.0233054
6,Strada Sucevei,800268,45.4436204,28.0237183
4,Strada Sucevei,800268,45.4434702,28.0241611
2,Strada Călugăreni,800267,45.4430840,28.0249300
2,Strada Sucevei,800281,45.4425227,28.0251943
1bis,Strada Alba Iulia,800281,45.4427017,28.0261329
1,Strada Alba Iulia,800281,45.4427967,28.0265834
1,Strada Energiei,800247,45.4389186,28.0205336
3,Strada Energiei,800247,45.4380174,28.0203578
2,Strada Energiei,800247,45.4381219,28.0193579
1,Strada Fagului,800246,45.4371609,28.0201069
5,Strada Fagului,800501,45.4361811,28.0196317
2,Strada Fagului,800246,45.4367264,28.0191514
4,Strada Fagului,800246,45.4368439,28.0185944
6,Strada Fagului,800501,45.4361282,28.0184303
1,Strada Gheorghe Doja,800501,45.4353995,28.0196496
2,Strada Gheorghe Doja,800501,45.4346033,28.0192392
3,Strada Slănic,800500,45.4342214,28.0190691
17,Strada Lebedei,800500,45.4337874,28.0186994
19,Strada Lebedei,800466,45.4344394,28.0174303
19,Strada Brândușei,800465,45.4340989,28.0172114
17,Strada Brândușei,800465,45.4337568,28.0169769
8,Strada Lebedei,800466,45.4354638,28.0165257
10,Strada Lebedei,800466,45.4350329,28.0166362
8,Strada Blaj,800463,45.4342242,28.0157725
11,Strada Lebedei,800500,45.4327492,28.0180773
21,Strada Lebedei,800466,45.4344703,28.0164800
9,Strada Lebedei,800474,45.4321682,28.0175067
7,Strada Lebedei,800495,45.4320259,28.0180071
5,Strada Lebedei,800495,45.4317643,28.0184522
3,Strada Brândușei,800470,45.4320718,28.0168916
11,Strada Brândușei,800470,45.4331781,28.0156912
13,Strada Brândușei,800470,45.4330358,28.0161801
4,Strada Blaj,800472,45.4320673,28.0151978
2,Strada Blaj,800472,45.4319249,28.0156981
5,Strada Brândușei,800470,45.4318790,28.0162168
15,Strada Brândușei,800470,45.4335366,28.0164776
2,Strada Brândușei,800471,45.4314196,28.0174764
1,Strada Brândușei,800470,45.4309209,28.0178046
6,Strada Gheorghe Asachi,800494,45.4294954,28.0175029
4,Strada Gheorghe Asachi,800494,45.4293463,28.0179888
2,Strada Gheorghe Asachi,800494,45.4291991,28.0184828
11,Strada Gheorghe Asachi,800494,45.4299862,28.0187734
13,Strada Macedonă,800449,45.4282953,28.0180359
11,Strada Macedonă,800449,45.4280631,28.0172956
9,Strada Macedonă,800449,45.4280830,28.0167326
7,Strada Macedonă,800459,45.4284307,28.0163694
9,Strada Gheorghe Asachi,800456,45.4300829,28.0177013
3,Strada Gheorghe Asachi,800456,45.4287671,28.0172778
6,Strada Blaj,800472,45.4328185,28.0149739
7,Strada Brândușei,800470,45.4325148,28.0159595
3,Strada Lebedei,800495,45.4311376,28.0188209
10,Strada Gheorghe Asachi,800457,45.4298525,28.0168890
8,Strada Gheorghe Asachi,800457,45.4294355,28.0168530
15,Strada Blaj,800463,45.4345921,28.0152265
13,Strada Blaj,800463,45.4342477,28.0150313
9,Strada Blaj,800463,45.4329385,28.0142730
7,Strada Blaj,800463,45.4325800,28.0141367
11,Strada Mihail Sadoveanu,800460,45.4303672,28.0135499
9,Strada Mihail Sadoveanu,800460,45.4300018,28.0133880
5,Strada Mihail Sadoveanu,800452,45.4286154,28.0130865
3,Strada Mihail Sadoveanu,800452,45.4282799,28.0128900
3,Strada Blaj,800472,45.4316096,28.0147585
15,Strada Mihail Sadoveanu,800460,45.4307703,28.0144727
13,Strada Mihail Sadoveanu,800460,45.4308777,28.0135399
5,Strada Blaj,800472,45.4320366,28.0140847
11,Strada Blaj,800463,45.4335698,28.0147100
10,Strada Mihail Sadoveanu,800460,45.4299524,28.0141863
1,Strada Macedonă,800459,45.4295269,28.0145662
3,Strada Macedonă,800459,45.4293775,28.0150476
5,Strada Gheorghe Asachi,800456,45.4296836,28.0162356
7,Strada Gheorghe Asachi,800456,45.4300711,28.0153945
7,Strada Mihail Sadoveanu,800460,45.4293414,28.0132141
1,Strada Mihail Sadoveanu,800452,45.4276107,28.0126990
6,Strada Mihail Sadoveanu,800452,45.4278158,28.0140974
4,Strada Macedonă,800449,45.4278266,28.0152488
4,Strada Mihail Sadoveanu,800452,45.4276714,28.0145846
2,Strada Macedonă,800449,45.4284981,28.0150183
8,Strada Mihail Sadoveanu,800460,45.4283113,28.0137911
9,Strada Teleajen,800450,45.4269648,28.0132540
7,Strada Teleajen,800450,45.4270556,28.0142491
5,Strada Teleajen,800450,45.4271361,28.0152369
3,Strada Teleajen,800450,45.4272313,28.0162219
1,Strada Teleajen,800450,45.4273412,28.0172224
63,Strada Barboși,800683,45.4255072,28.0117211
53,Strada Barboși,800403,45.4242996,28.0114883
57,Strada Barboși,800403,45.4249413,28.0117696
46,Strada Barboși,800428,45.4237487,28.0115464
61,Strada Barboși,800442,45.4253954,28.0124659
59,Strada Barboși,800442,45.4254911,28.0129315
51,Strada Barboși,800403,45.4241523,28.0123343
49,Strada Barboși,800403,45.4241902,28.0128196
41,Strada Barboși,800402,45.4228985,28.0121616
39,Strada Barboși,800402,45.4229414,28.0126503
55,Strada Barboși,800403,45.4247833,28.0127602
45,Strada Barboși,800403,45.4235309,28.0125643
35,Strada Barboși,800401,45.4222874,28.0125926
43,Strada Barboși,800402,45.4230108,28.0113684
13,Strada Barboși,800400,45.4228390,28.0130145
7,Strada Barboși,800400,45.4218718,28.0131160
31,Strada Barboși,800401,45.4214705,28.0123424
29,Strada Barboși,800401,45.4216248,28.0127903
5,Strada Galații Noi,800422,45.4210174,28.0131301
21,Strada Barboși,800400,45.4208784,28.0124060
43,Strada Oltului,800430,45.4256637,28.0170745
45,Strada Oltului,800430,45.4256115,28.0166016
47,Strada Oltului,800430,45.4261325,28.0167413
41,Strada Oltului,800683,45.4251924,28.0171345
41,Strada Oltului,800683,45.4244536,28.0170791
39,Strada Oltului,800683,45.4239528,28.0169555
10,Strada Narciselor,800683,45.4239302,28.0164678
12,Strada Narciselor,800683,45.4242154,28.0167313
25,Strada Narciselor,800437,45.4239931,28.0159913
29,Strada Narciselor,800437,45.4241140,28.0155506
31,Strada Narciselor,800443,45.4241612,28.0150775
7,Strada Iasomiei,800415,45.4232842,28.0141165
12,Strada Iasomiei,800415,45.4232916,28.0145159
4,Strada Iasomiei,800415,45.4225016,28.0145322
9,Strada Iasomiei,800436,45.4241405,28.0140988
4,Strada Jiului,800687,45.4237543,28.0153251
14,Strada Iasomiei,800415,45.4239758,28.0146020
10,Strada Barboși,800421,45.4218760,28.0136725
5,Strada Iasomiei,800415,45.4226334,28.0140018
3,Strada Iasomiei,800415,45.4218147,28.0140589
8,Strada Galații Noi,800422,45.4214358,28.0136086
6,Strada Barboși,800436,45.4243107,28.0137619
6,Strada Jiului,800437,45.4237813,28.0138120
12A,Strada Barboși,800428,45.4231066,28.0136570
12,Strada Barboși,800428,45.4257428,28.0139695
4,Strada Galații Noi,800422,45.4204134,28.0122166
15,Strada Oltului,800444,45.4185128,28.0119630
19,Strada Oltului,800444,45.4192310,28.0133674
17,Strada Oltului,800444,45.4189516,28.0128278
21,Strada Oltului,800444,45.4195385,28.0139465
13,Strada Oltului,800424,45.4182386,28.0113762
4,Strada Doctor Petru Groza,800423,45.4196383,28.0113397
2,Strada Doctor Petru Groza,800423,45.4192188,28.0113913
3,Strada Barboși,800400,45.4198009,28.0135535
4,Strada Lebedei,800466,45.4350776,28.0177630
11bis,Strada Blaj,800463,45.4335619,28.0140568
1,Strada Mihail Sadoveanu,800452,45.4310173,28.0149130
16,Strada Mihail Sadoveanu,800460,45.4307255,28.0161770
27,Strada Barboși,800401,45.4223255,28.0116157
38,Strada Barboși,800428,45.4214154,28.0114468
13,Strada Cosminului,800432,45.4249709,28.0178096
17,Strada Cosminului,800432,45.4257514,28.0178161
19,Strada Cosminului,800432,45.4261044,28.0181365
34,Strada Oltului,800430,45.4264011,28.0175949
15,Strada Cosminului,800432,45.4254385,28.0179888
32,Strada Oltului,800430,45.4253525,28.0175699
5,Strada Cosminului,800443,45.4228208,28.0181179
7,Strada Cosminului,800443,45.4231919,28.0178880
10,Strada Argeșului,800445,45.4224396,28.0179099
30,Strada Oltului,800444,45.4228240,28.0177006
8,Strada Cosminului,800682,45.4230148,28.0185536
25,Strada Frunzei,800684,45.4235941,28.0191364
11,Strada Frunzei,800684,45.4226272,28.0191973
5,Strada Frunzei,800684,45.4219128,28.0193162
28,Strada Oltului,800444,45.4216931,28.0177575
3,Strada Cosminului,800443,45.4215583,28.0181919
26,Strada Oltului,800444,45.4212438,28.0177371
1,Strada Cosminului,800682,45.4210176,28.0181101
6,Strada Cosminului,800682,45.4217381,28.0187158
2,Strada Cosminului,800682,45.4207083,28.0183211
4,Strada Cosminului,800682,45.4211284,28.0186315
29,Strada Oltului,800444,45.4211613,28.0168622
24,Strada Oltului,800444,45.4209013,28.0172929
23,Strada Oltului,800444,45.4199786,28.0147789
25,Strada Oltului,800444,45.4203114,28.0153814
27,Strada Oltului,800444,45.4205869,28.0159442
2,Strada Mioriței,800411,45.4196244,28.0163851
1,Strada Mioriței,800411,45.4193218,28.0157587
3,Strada Mioriței,800446,45.4195366,28.0155567
4,Strada Mioriței,800446,45.4198919,28.0162675
2,Strada Barboși,800442,45.4192431,28.0151564
20,Strada Oltului,800444,45.4197105,28.0151458
22,Strada Oltului,800444,45.4202068,28.0161247
1,Strada Turturelelor,800445,45.4201485,28.0168628
1,Strada Enăchiță Văcărescu,800425,45.4186134,28.0138385
4,Strada Vădeni,800425,45.4184686,28.0134349
2,Strada Vădeni,800410,45.4182579,28.0136702
16,Strada Oltului,800424,45.4186931,28.0132104
12,Strada Oltului,800424,45.4176837,28.0111796
14,Strada Oltului,800424,45.4181446,28.0122397
10,Strada Oltului,800424,45.4172884,28.0103217
9,Strada Oltului,800424,45.4173510,28.0096487
7,Strada Oltului,800424,45.4168717,28.0087186
6,Strada Oltului,800415,45.4163901,28.0085771
3,Strada Brașov,800397,45.4168101,28.0104921
1,Strada Brașov,800397,45.4170737,28.0107408
3,Strada Ileana Cosânzeana,800415,45.4159884,28.0088990
1,Strada Ileana Cosânzeana,800415,45.4162269,28.0092378
2,Strada Vrancei,800415,45.4158788,28.0084721
11,Strada Oltului,800424,45.4177481,28.0103579
5,Strada Oltului,800415,45.4165357,28.0079196
2,Strada Textiliștilor,800581,45.4182154,28.0168278
3,Strada Textiliștilor,800581,45.4169038,28.0149816
4,Strada Textiliștilor,800581,45.4177282,28.0157196
6,Strada Textiliștilor,800581,45.4173636,28.0150016
8,Strada Textiliștilor,800581,45.4170159,28.0143037
2,Strada Strungarilor,800613,45.4164281,28.0131195
19,Strada Lăcătușilor,800615,45.4161557,28.0129471
17,Strada Lăcătușilor,800615,45.4159827,28.0125651
15,Strada Lăcătușilor,800615,45.4157744,28.0121840
13,Strada Lăcătușilor,800615,45.4155771,28.0117979
2,Strada Lăcătușilor,800616,45.4141723,28.0126380
6,Strada Strungarilor,800584,45.4153240,28.0136826
12,Strada Zidarilor,800587,45.4135463,28.0157178
10,Strada Zidarilor,800587,45.4133698,28.0153447
8,Strada Zidarilor,800587,45.4131874,28.0149899
1,Strada Strungarilor,800580,45.4162956,28.0141643
2,Strada Costache Conachi,800643,45.4175176,28.0171639
4,Strada Costache Conachi,800643,45.4167526,28.0178980
6,Strada Costache Conachi,800643,45.4165716,28.0175384
8,Strada Costache Conachi,800643,45.4160260,28.0186940
3,Strada Zidarilor,800586,45.4141396,28.0148918
16,Strada Laminoriștilor,800640,45.4148035,28.0171602
9,Strada Lăcătușilor,800615,45.4147729,28.0112274
7,Strada Lăcătușilor,800615,45.4145007,28.0114996
5,Strada Lăcătușilor,800615,45.4142364,28.0117782
3,Strada Lăcătușilor,800615,45.4139721,28.0120505
1,Strada Lăcătușilor,800615,45.4137020,28.0124017
2,Strada Zidarilor,800587,45.4131912,28.0131620
7,Strada Laminoriștilor,800594,45.4162167,28.0207268
3,Strada Laminoriștilor,800593,45.4167305,28.0217392
10,Strada Laminoriștilor,800640,45.4167497,28.0202588
6,Strada Laminoriștilor,800640,45.4171355,28.0210120
4,Strada Laminoriștilor,800640,45.4173267,28.0213889
2,Strada Laminoriștilor,800640,45.4175096,28.0217766
8,Strada Laminoriștilor,800640,45.4169376,28.0206339
1,Strada Costache Conachi,800577,45.4177469,28.0178302
3,Strada Costache Conachi,800577,45.4173810,28.0182041
5,Strada Costache Conachi,800577,45.4170225,28.0185787
7,Strada Costache Conachi,800577,45.4166663,28.0189441
9,Strada Costache Conachi,800644,45.4164001,28.0194014
11,Strada Costache Conachi,800644,45.4165933,28.0197743
9,Strada Laminoriștilor,800594,45.4158778,28.0203121
5,Strada Laminoriștilor,800593,45.4164056,28.0213430
1,Strada Laminoriștilor,800593,45.4169215,28.0223545
2,Strada Stadionului,800595,45.4177448,28.0220553
4,Strada Stadionului,800595,45.4172177,28.0228159
11,Strada Laminoriștilor,800594,45.4156823,28.0199136
13,Strada Laminoriștilor,800641,45.4149496,28.0185093
15,Strada Laminoriștilor,800641,45.4147656,28.0181642
17,Strada Laminoriștilor,800641,45.4145826,28.0178403
19,Strada Laminoriștilor,800641,45.4143904,28.0174689
21,Strada Laminoriștilor,800641,45.4142020,28.0171267
5,Strada Strungarilor,800642,45.4153622,28.0151828
7,Strada Strungarilor,800642,45.4147574,28.0158024
9,Strada Strungarilor,800642,45.4141624,28.0164156
8,Strada Strungarilor,800584,45.4139373,28.0157740
4,Strada Zidarilor,800587,45.4129683,28.0138759
6,Strada Zidarilor,800587,45.4128732,28.0145171
6,Strada Lăcătușilor,800616,45.4148394,28.0119930
1,Strada Textiliștilor,800581,45.4174819,28.0162124
14,Strada Laminoriștilor,800640,45.4153886,28.0183618
12,Strada Laminoriștilor,800640,45.4160847,28.0195856
1,Strada Zidarilor,800586,45.4134842,28.0138990
3bis,Strada Zidarilor,800586,45.4138921,28.0142922
11,Strada Lăcătușilor,800615,45.4153355,28.0114343
15,Strada Cluj,800240,45.4379006,28.0255138
20,Strada Cluj,800240,45.4390195,28.0265411
12,Strada Cluj,800240,45.4365677,28.0264377
12,Strada Cluj,800240,45.4369746,28.0263742
54,Strada Domnească,800008,45.4401915,28.0570150
50,Strada Regiment 11 Siret,800302,45.4271238,28.0382476
48,Strada Regiment 11 Siret,800302,45.4263275,28.0388365
6,Strada Constantin Brâncoveanu,800058,45.4286182,28.0424833
4,Strada Constantin Brâncoveanu,800058,45.4288411,28.0432315
2,Strada Constantin Brâncoveanu,800058,45.4290709,28.0439815
4,Strada Roșiori,800083,45.4292433,28.0460269
4bis,Strada Roșiori,800083,45.4283792,28.0467302
4bis,Strada Roșiori,800083,45.4278873,28.0469946
8,Strada Armata Poporului,800057,45.4280822,28.0463149
10,Strada Armata Poporului,800057,45.4277424,28.0465537
6,Strada Armata Poporului,800057,45.4283188,28.0460872
6,Strada Roșiori,800055,45.4277092,28.0474824
16,Strada Mărășești,800056,45.4271398,28.0484525
8,Strada Roșiori,800055,45.4275428,28.0483275
10,Strada Română,800076,45.4279761,28.0425050
8,Strada Ovidiu,800084,45.4277670,28.0432925
6,Strada Ovidiu,800084,45.4278033,28.0441900
16,Strada Armata Poporului,800078,45.4264161,28.0451869
16,Strada Armata Poporului,800078,45.4262457,28.0448307
14,Strada Armata Poporului,800078,45.4267157,28.0458203
12,Strada Armata Poporului,800078,45.4272919,28.0461930
1,Strada Ovidiu,800080,45.4273112,28.0457009
3,Strada Ovidiu,800080,45.4272242,28.0453102
5,Strada Ovidiu,800080,45.4272039,28.0447951
7,Strada Ovidiu,800080,45.4272954,28.0441972
11,Strada Ovidiu,800080,45.4271885,28.0438301
9,Strada Ovidiu,800080,45.4267423,28.0446610
13,Strada Ovidiu,800080,45.4265714,28.0443529
103,Strada Armata Poporului,800078,45.4246262,28.0430151
101,Strada Armata Poporului,800078,45.4246803,28.0434718
99,Strada Armata Poporului,800078,45.4247626,28.0439192
2,Strada Ciprian Porumbescu,800304,45.4262747,28.0404302
5,Strada General Alexandru Cernat,800303,45.4262113,28.0409791
15,Strada General Alexandru Cernat,800303,45.4257434,28.0407617
2,Strada General Alexandru Cernat,800087,45.4249237,28.0420465
2,Strada General Alexandru Cernat,800087,45.4250554,28.0417371
4,Strada General Alexandru Cernat,800087,45.4254550,28.0415912
1,Strada Română,800122,45.4255084,28.0420807
3,Strada Română,800122,45.4251637,28.0426147
3,Strada Română,800122,45.4255902,28.0425923
2,Strada Română,800076,45.4255876,28.0431197
2,Strada Română,800076,45.4255821,28.0434534
4,Strada Română,800076,45.4259459,28.0427549
4,Strada Română,800076,45.4261358,28.0425923
6,Strada Română,800076,45.4268958,28.0424721
6,Strada Română,800076,45.4265477,28.0425374
8,Strada Română,800076,45.4271869,28.0424305
8,Strada Română,800076,45.4274118,28.0424182
8,Strada Română,800076,45.4274300,28.0426651
8,Strada Română,800076,45.4272908,28.0430601
20,Strada Armata Poporului,800085,45.4262602,28.0435660
24,Strada Armata Poporului,800085,45.4261486,28.0431942
22,Strada Armata Poporului,800085,45.4268570,28.0429139
15,Strada Ovidiu,800080,45.4268714,28.0435132
15,Strada Ovidiu,800080,45.4265928,28.0437845
15,Strada Ovidiu,800080,45.4263997,28.0439682
18,Strada Armata Poporului,800085,45.4259945,28.0441132
2,Strada Roșiori,800066,45.4298319,28.0453387
27,Strada Roșiori,800073,45.4293054,28.0467946
41,Strada Alexandru Lăpușneanu,800072,45.4301836,28.0483273
7,Strada Petru Rareș,800071,45.4310450,28.0498519
18,Aleea Melodiei,800050,45.4315669,28.0516289
16,Strada Alexandru Lăpușneanu,800072,45.4302941,28.0467938
12,Strada Petru Rareș,800071,45.4311685,28.0483046
8,Aleea Melodiei,800069,45.4320594,28.0498305
18,Strada Alexandru Lăpușneanu,800063,45.4300689,28.0472299
20,Strada Alexandru Lăpușneanu,800063,45.4297412,28.0474962
22,Strada Alexandru Lăpușneanu,800063,45.4293780,28.0476545
24,Strada Alexandru Lăpușneanu,800063,45.4290458,28.0479264
18,Strada Petru Rareș,800065,45.4302483,28.0491686
39,Strada Alexandru Lăpușneanu,800064,45.4299162,28.0494405
16,Strada Petru Rareș,800065,45.4306117,28.0490103
14,Strada Petru Rareș,800065,45.4309393,28.0487439
14,Aleea Melodiei,800069,45.4311399,28.0507043
16,Aleea Melodiei,800062,45.4308079,28.0509763
12,Aleea Melodiei,800069,45.4315033,28.0505461
10,Aleea Melodiei,800069,45.4318310,28.0502797
28,Strada Alexandru Lăpușneanu,800063,45.4298767,28.0503293
30,Strada Alexandru Lăpușneanu,800063,45.4295687,28.0503430
35,Strada Roșiori,800055,45.4293424,28.0505993
10,Strada Roșiori,800055,45.4281771,28.0485380
12,Strada Roșiori,800055,45.4281134,28.0493555
14,Strada Roșiori,800055,45.4286467,28.0504139
16,Strada Roșiori,800055,45.4292300,28.0514475
7,Strada Traian,800043,45.4313324,28.0529258
5,Strada Traian,800043,45.4309779,28.0531704
3,Strada Traian,800043,45.4306201,28.0534051
1A,Strada Traian,800043,45.4302417,28.0533388
1,Strada Traian,800043,45.4300832,28.0529006
9,Strada Traian,800043,45.4316900,28.0526747
11,Strada Traian,800043,45.4320354,28.0524319
13,Strada Traian,800043,45.4324163,28.0521598
39,Strada Roșiori,800055,45.4300406,28.0512838
37,Strada Roșiori,800055,45.4297438,28.0514936
41,Strada Roșiori,800055,45.4303825,28.0510261
20,Aleea Melodiei,800044,45.4306347,28.0522819
1,Strada Romulus,800043,45.4308713,28.0526220
3,Strada Romulus,800050,45.4315363,28.0521326
1,Aleea Melodiei,800069,45.4302685,28.0518354
18,Strada Roșiori,800044,45.4295591,28.0524052
1,Strada Arhipelag,800045,45.4287095,28.0516104
3,Strada Arhipelag,800055,45.4282969,28.0507079
5,Strada Arhipelag,800055,45.4278317,28.0496711
4,Strada Domnească,800035,45.4303112,28.0554682
2,Strada Traian,800043,45.4322102,28.0531295
2bis,Strada Traian,800043,45.4327268,28.0532482
4bis,Strada Traian,800043,45.4327818,28.0536393
4,Strada Traian,800043,45.4323811,28.0537485
144,Strada Domnească,800163,45.4537169,28.0503378
142,Strada Domnească,800163,45.4532480,28.0503905
140,Strada Domnească,800163,45.4529197,28.0508317
2,Strada Parcului,800164,45.4538431,28.0528616
1,Strada Parcului,800164,45.4535015,28.0529986
56,Strada Domnească,800008,45.4406487,28.0567321
40,Bulevardul Siderurgiștilor,800259,45.4405406,28.0221206
14,Strada Nae Leonard,800242,45.4392886,28.0281847
14,Strada Nae Leonard,800242,45.4387998,28.0283115
12,Strada Nae Leonard,800242,45.4385191,28.0279778
204,Strada Tecuci,800272,45.4421220,28.0250811
208,Strada Tecuci,800269,45.4421110,28.0235335
2,Strada Sucevei,800281,45.4427532,28.0255965
9,Strada Feroviarilor,800261,45.4476825,28.0162534
27,Bulevardul Milcov,800567,45.4496965,28.0203203
5,Strada Ionel Fernic,800536,45.4559640,28.0201024
9,Strada Camil Ressu,800529,45.4530932,28.0209571
225,Bulevardul George Coșbuc,800506,45.4478560,28.0344213
8,Strada Egalității,800016,45.4335455,28.0586602
12,Strada Aviator Mircea Zorileanu,800677,45.4527253,28.0266720
12,Strada Aviator Mircea Zorileanu,800677,45.4526913,28.0261345
13,Bulevardul Milcov,800514,45.4489697,28.0289626
41,Strada Nicolae Bălcescu,800001,45.4407235,28.0508505
5,Bulevardul Siderurgiștilor,800478,45.4280758,28.0236603
7,Bulevardul Siderurgiștilor,800478,45.4277665,28.0225601
7,Bulevardul Siderurgiștilor,800478,45.4276557,28.0229339
21,Bulevardul Marea Unire,800329,45.4235772,28.0403345
2,Strada Regiment 11 Siret,800322,45.4259368,28.0316301
117,Strada Anghel Saligny,800484,45.4319601,28.0205370
"30,32,34",Bulevardul George Coșbuc,800378,45.4311749,28.0374460
66,Bulevardul George Coșbuc,800378,45.4330635,28.0370967
"68,70",Bulevardul George Coșbuc,800378,45.4332331,28.0370297
253,Bulevardul George Coșbuc,800506,45.4548551,28.0334271
148,Bulevardul George Coșbuc,800385,45.4401195,28.0363757
176,Bulevardul George Coșbuc,800137,45.4437426,28.0359590
176,Bulevardul George Coșbuc,800137,45.4437168,28.0361418
29,Strada Doctor Petru Groza,800423,45.4215149,28.0080162
1,Strada Doctor Petru Groza,800423,45.4215842,28.0084412
199,Bulevardul Brăilei,800626,45.4143096,28.0088787
2,Strada Furnaliștilor,800629,45.4137115,28.0086948
203,Bulevardul Brăilei,800627,45.4140923,28.0083136
6bis,Strada Furnaliștilor,800629,45.4133090,28.0074020
205,Strada Brăilei,800628,45.4135385,28.0072296
4,Strada Furnaliștilor,800629,45.4134405,28.0088820
1,Strada Furnaliștilor,800663,45.4136005,28.0095206
2bis,Strada Stadionului,800595,45.4179956,28.0223730
111,Strada Domnească,800201,45.4469077,28.0534199
1,Strada Victor Papilian,800517,45.4506041,28.0273029
38,Bulevardul Milcov,800675,45.4503861,28.0268311
36,Bulevardul Milcov,800675,45.4499193,28.0271041
30,Bulevardul Milcov,800514,45.4498410,28.0282599
5,Strada Zidarilor,800586,45.4144313,28.0132271
177,Strada Brăilei,800578,45.4192546,28.0189717
3A,Bulevardul Galați,800650,45.4050106,28.0206395
5,Strada Stadionului,800595,45.4154325,28.0247617
2,Bulevardul George Coșbuc,800378,45.4299722,28.0376631
111,Strada Domnească,800201,45.4477766,28.0526474
59-61,Strada Nicolae Bălcescu,800001,45.4432996,28.0515392
59-61,Strada Nicolae Bălcescu,800001,45.4433654,28.0511398
63-65,Strada Gării,800003,45.4431609,28.0498146
7,Strada Barboși,800400,45.4198100,28.0120644
318,Strada Traian,800179,45.4630339,28.0380177
55,Strada Basarabiei,800002,45.4440292,28.0482898
47,Strada Basarabiei,800002,45.4438248,28.0474216
142,Strada Traian,800003,45.4436211,28.0473255
142,Strada Traian,800003,45.4433843,28.0474688
84,Strada Gării,800003,45.4435929,28.0484383
65,Strada Gării,800003,45.4429781,28.0476396
65,Strada Gării,800003,45.4430467,28.0479428
65,Strada Gării,800003,45.4431207,28.0482499
65,Strada Gării,800003,45.4430961,28.0486022
166,Strada Traian,800150,45.4425475,28.0477298
164,Strada Traian,800003,45.4420566,28.0479805
136,Strada Traian,800003,45.4414042,28.0484036
134,Strada Traian,800003,45.4409792,28.0486598
95,Strada Traian,800112,45.4418128,28.0473410
91,Strada Traian,800112,45.4420480,28.0472828
85,Strada Traian,800112,45.4418311,28.0468957
87,Strada Traian,800112,45.4422199,28.0467028
89,Strada Traian,800112,45.4426992,28.0464656
69,Strada Basarabiei,800113,45.4435899,28.0463715
97,Strada Traian,800112,45.4431311,28.0467220
97,Strada Traian,800112,45.4425557,28.0469807
5,Strada Doctor Nicolae Alexandrescu,800121,45.4407431,28.0456029
1,Strada Doctor Nicolae Alexandrescu,800121,45.4398032,28.0461464
3,Strada Doctor Nicolae Alexandrescu,800121,45.4402441,28.0460317
8,Strada Doctor Nicolae Alexandrescu,800121,45.4410637,28.0466263
6,Strada Doctor Nicolae Alexandrescu,800121,45.4406029,28.0468555
79,Strada Traian,800112,45.4407861,28.0474715
75,Strada Traian,800112,45.4399989,28.0479236
4,Strada Doctor Nicolae Alexandrescu,800121,45.4401376,28.0469446
2,Strada Doctor Nicolae Alexandrescu,800121,45.4397107,28.0473159
77,Strada Traian,800112,45.4400153,28.0483247
81,Strada Traian,800112,45.4405414,28.0480767
10,Strada Movilei,800121,45.4393823,28.0463458
2,Strada Movilei,800121,45.4394076,28.0477395
66,Strada Traian,800112,45.4388564,28.0495814
64,Strada Traian,800112,45.4387021,28.0497888
62,Strada Traian,800112,45.4384879,28.0497772
60,Strada Traian,800049,45.4381832,28.0499199
58,Strada Traian,800049,45.4379391,28.0501018
56,Strada Traian,800049,45.4377415,28.0503558
54,Strada Traian,800049,45.4375139,28.0502613
34,Strada Tecuci,800120,45.4379197,28.0505150
32bis,Strada Tecuci,800120,45.4379034,28.0509963
8,Strada Tecuci,800120,45.4372941,28.0507480
4,Strada Tecuci,800120,45.4371320,28.0515984
17,Strada Nicolae Bălcescu,800120,45.4370117,28.0523960
17A,Strada Nicolae Bălcescu,800120,45.4363966,28.0524658
3,Strada Tecuci,800120,45.4366995,28.0516591
3,Strada Tecuci,800120,45.4367475,28.0510493
5,Strada Tecuci,800052,45.4361521,28.0509714
28,Strada Nicolae Bălcescu,800001,45.4368712,28.0530330
26,Strada Nicolae Bălcescu,800001,45.4366636,28.0529554
24,Strada Nicolae Bălcescu,800001,45.4364719,28.0531202
22,Strada Nicolae Bălcescu,800001,45.4362817,28.0532834
32,Strada Nicolae Bălcescu,800001,45.4366267,28.0534374
34,Strada Traian,800049,45.4356047,28.0513575
13,Strada Nicolae Bălcescu,800041,45.4356927,28.0521054
13A,Strada Nicolae Bălcescu,800041,45.4357224,28.0517934
5,Strada Vlad Țepeș,800099,45.4302920,28.0425831
3,Strada Vlad Țepeș,800099,45.4305274,28.0432811
1,Strada Vlad Țepeș,800099,45.4307842,28.0439457
43,Bulevardul Siderurgiștilor,800245,45.4388642,28.0210513
7,Strada Energiei,800247,45.4382022,28.0214457
9,Strada Energiei,800247,45.4383169,28.0207196
5,Strada Energiei,800247,45.4376936,28.0215066
3,Strada Fagului,800246,45.4370663,28.0202398
109,Strada Frunzei,800493,45.4369885,28.0209848
114,Strada Frunzei,800485,45.4371249,28.0220334
39,Bulevardul Siderurgiștilor,800245,45.4366040,28.0228682
151,Strada Anghel Saligny,800484,45.4362352,28.0225935
151,Strada Anghel Saligny,800484,45.4355382,28.0224106
149,Strada Anghel Saligny,800484,45.4352545,28.0222830
147,Strada Anghel Saligny,800484,45.4349418,28.0221188
145,Strada Anghel Saligny,800484,45.4354781,28.0228641
110,Strada Frunzei,800485,45.4356961,28.0219511
5,Strada Gheorghe Doja,800486,45.4348032,28.0220336
124,Strada Anghel Saligny,800488,45.4354171,28.0233973
122,Strada Anghel Saligny,800488,45.4347892,28.0237086
7,Strada Gheorghe Doja,800486,45.4346199,28.0233406
7,Strada Fagului,800501,45.4358345,28.0199324
9,Strada Fagului,800501,45.4355308,28.0197530
2,Strada Răzoare,800502,45.4360189,28.0203560
3,Strada Gheorghe Doja,800501,45.4351306,28.0207323
105,Strada Frunzei,800493,45.4336075,28.0201952
2,Strada Slănic,800500,45.4337280,28.0197995
4,Strada Slănic,800500,45.4331763,28.0197472
103,Strada Frunzei,800493,45.4326248,28.0196619
102,Strada Frunzei,800493,45.4334602,28.0205819
106,Strada Frunzei,800493,45.4333714,28.0209572
143,Strada Anghel Saligny,800484,45.4333072,28.0213762
104,Strada Frunzei,800493,45.4329701,28.0205614
108,Strada Frunzei,800485,45.4338600,28.0213885
4,Strada Gheorghe Doja,800501,45.4342131,28.0202820
6,Strada Gheorghe Doja,800486,45.4339246,28.0215243
141,Strada Anghel Saligny,800484,45.4330424,28.0215887
101,Strada Frunzei,800499,45.4325212,28.0192025
1,Strada Slănic,800500,45.4326356,28.0186921
110,Strada Anghel Saligny,800488,45.4319365,28.0226067
116,Strada Anghel Saligny,800488,45.4327639,28.0229609
120,Strada Anghel Saligny,800488,45.4335576,28.0233900
118,Strada Anghel Saligny,800488,45.4332105,28.0233316
2,Strada Gheorghe Doja,800501,45.4337556,28.0231206
114,Strada Anghel Saligny,800488,45.4329904,28.0223070
112,Strada Anghel Saligny,800488,45.4320657,28.0231530
108,Strada Anghel Saligny,800488,45.4314062,28.0225491
17,Bulevardul Siderurgiștilor,800479,45.4326356,28.0240272
106,Strada Anghel Saligny,800491,45.4316723,28.0217460
1,Strada Griviței,800209,45.4348895,28.0646081
2,Strada Măgura,800276,45.4435429,28.0259987
4,Strada Măgura,800276,45.4438307,28.0258772
3,Strada Podul Înalt,800267,45.4449496,28.0264999
17,Strada Călugăreni,800690,45.4468209,28.0260272
15,Strada Călugăreni,800267,45.4464694,28.0258505
16,Strada 1 Decembrie 1918,800511,45.4471682,28.0253820
14,Strada 1 Decembrie 1918,800511,45.4465015,28.0249930
12,Strada Podul Înalt,800267,45.4467417,28.0255096
23,Strada Călugăreni,800690,45.4465594,28.0263306
10,Strada 1 Decembrie 1918,800265,45.4453462,28.0243007
3,Strada Călugăreni,800274,45.4447150,28.0243939
10,Strada Călugăreni,800267,45.4444600,28.0246821
7,Strada Călugăreni,800274,45.4445584,28.0251796
8,Strada Călugăreni,800267,45.4443656,28.0262588
9,Strada Alba Iulia,800281,45.4446392,28.0272457
16,Strada Călugăreni,800274,45.4459174,28.0269565
22,Strada Călugăreni,800274,45.4466344,28.0268300
18,Strada Călugăreni,800274,45.4465530,28.0277431
20,Strada Călugăreni,800274,45.4467856,28.0274719
43,Strada Nae Leonard,800282,45.4463054,28.0285138
41,Strada Nae Leonard,800282,45.4459593,28.0287399
37,Strada Nae Leonard,800282,45.4457278,28.0280946
7,Strada Alba Iulia,800281,45.4440344,28.0275117
5,Strada Alba Iulia,800281,45.4437471,28.0268021
4,Strada Călugăreni,800267,45.4437006,28.0252551
3,Strada Alba Iulia,800281,45.4434864,28.0269275
11,Strada Alba Iulia,800281,45.4447076,28.0277888
1,Strada Podul Înalt,800275,45.4450524,28.0269542
6,Strada Olănești,800690,45.4443932,28.0239149
1,Strada Călugăreni,800274,45.4439565,28.0246366
5,Strada Podul Înalt,800267,45.4454103,28.0250282
11,Strada Călugăreni,800267,45.4453934,28.0256278
13,Strada Călugăreni,800267,45.4459157,28.0258162
21,Strada Călugăreni,800690,45.4473560,28.0259369
19,Strada Călugăreni,800690,45.4470686,28.0260842
25,Strada Călugăreni,800690,45.4472274,28.0265439
1,Strada Aviatorilor,800283,45.4466329,28.0289890
3,Strada Aviatorilor,800283,45.4468879,28.0282148
35,Strada Nae Leonard,800282,45.4454235,28.0283914
6,Strada Podul Înalt,800267,45.4454856,28.0273066
6,Strada Podul Înalt,800267,45.4455972,28.0264594
10,Strada Călugăreni,800267,45.4442763,28.0265798
12,Strada Călugăreni,800274,45.4449329,28.0261221
24,Strada Călugăreni,800274,45.4472721,28.0274364
39,Strada Nae Leonard,800282,45.4459968,28.0276844
2,Strada Aviatorilor,800691,45.4473392,28.0291002
21,Strada Aurel Vlaicu,800692,45.4478935,28.0289299
45,Strada Nae Leonard,800282,45.4478132,28.0293154
4,Strada Aviatorilor,800691,45.4476903,28.0278285
25,Strada Aurel Vlaicu,800692,45.4479520,28.0279502
23,Strada Aurel Vlaicu,800692,45.4478876,28.0283449
9,Strada Călugăreni,800274,45.4449827,28.0254432
5,Strada Călugăreni,800274,45.4448567,28.0249302
10,Strada Podul Înalt,800267,45.4462381,28.0255871
8,Strada Podul Înalt,800267,45.4460774,28.0252411
14,Strada Călugăreni,800274,45.4459021,28.0263931
2,Strada Podul Înalt,800281,45.4452198,28.0280404
8,Strada 1 Decembrie 1918,800265,45.4449055,28.0235179
8,Strada 1 Decembrie 1918,800265,45.4458401,28.0241906
12,Strada 1 Decembrie 1918,800511,45.4477771,28.0252630
12,Strada 1 Decembrie 1918,800511,45.4473556,28.0249875
12,Strada 1 Decembrie 1918,800511,45.4465746,28.0245588
18,Strada Feroviarilor,800563,45.4473637,28.0130395
20,Strada Feroviarilor,800563,45.4477008,28.0132341
22,Strada Feroviarilor,800563,45.4480212,28.0134321
24,Strada Feroviarilor,800563,45.4483838,28.0138393
17,Strada Feroviarilor,800564,45.4473679,28.0148187
25,Strada Feroviarilor,800564,45.4474070,28.0152612
15,Strada Feroviarilor,800261,45.4480719,28.0155557
21,Strada Feroviarilor,800564,45.4469977,28.0160354
23,Strada Feroviarilor,800564,45.4468708,28.0165082
19,Strada Feroviarilor,800564,45.4471072,28.0155696
11,Strada Feroviarilor,800261,45.4482196,28.0168958
9,Strada Feroviarilor,800261,45.4482875,28.0181473
7,Strada Feroviarilor,800261,45.4487376,28.0192006
5,Strada Feroviarilor,800261,45.4489096,28.0188026
3,Strada Feroviarilor,800261,45.4490296,28.0184028
4,Strada Feroviarilor,800261,45.4493877,28.0179265
14,Strada Feroviarilor,800563,45.4494780,28.0174399
12,Strada Feroviarilor,800261,45.4494502,28.0168976
10,Strada Feroviarilor,800261,45.4498309,28.0165012
8,Strada Feroviarilor,800261,45.4488834,28.0160225
8,Strada Feroviarilor,800261,45.4492994,28.0161408
6,Strada Feroviarilor,800261,45.4488108,28.0171377
16,Strada Feroviarilor,800563,45.4502815,28.0174223
2,Strada Feroviarilor,800538,45.4502313,28.0181472
1,Strada Feroviarilor,800538,45.4499400,28.0190005
50,Bulevardul Milcov,800528,45.4505241,28.0227679
52,Bulevardul Milcov,800528,45.4505603,28.0219935
54,Bulevardul Milcov,800528,45.4506315,28.0214168
56,Bulevardul Milcov,800535,45.4507169,28.0208526
58,Bulevardul Milcov,800535,45.4507898,28.0202848
62,Bulevardul Milcov,800535,45.4511930,28.0199938
1,Strada Camil Ressu,800529,45.4510924,28.0210039
2,Strada Ionel Fernic,800537,45.4517868,28.0195899
4,Strada Ionel Fernic,800537,45.4517813,28.0201016
8,Strada Ionel Fernic,800537,45.4525934,28.0195204
7,Strada Camil Ressu,800529,45.4523959,28.0218481
11,Strada Camil Ressu,800529,45.4534166,28.0219427
15,Bulevardul Traian Vuia,800532,45.4531885,28.0229800
9,Bulevardul Traian Vuia,800531,45.4522068,28.0229049
4,Strada Camil Ressu,800530,45.4517299,28.0224224
3,Bulevardul Traian Vuia,800531,45.4511778,28.0227965
3,Strada Camil Ressu,800529,45.4513961,28.0217209
5,Strada Camil Ressu,800529,45.4520491,28.0212950
13,Strada Camil Ressu,800539,45.4525867,28.0211821
9,Strada Camil Ressu,800529,45.4528332,28.0200619
16,Strada Ionel Fernic,800545,45.4539377,28.0193990
14,Strada Ionel Fernic,800545,45.4539128,28.0188899
2,Strada Nucului,800544,45.4538767,28.0200598
4,Strada Nucului,800544,45.4538431,28.0206636
6,Strada Nucului,800544,45.4538663,28.0212171
8,Strada Camil Ressu,800530,45.4527263,28.0225756
13,Strada Camil Ressu,800539,45.4537359,28.0226507
16,Strada Camil Ressu,800543,45.4542142,28.0224282
21bis,Bulevardul Traian Vuia,800542,45.4540140,28.0230873
5,Bulevardul Traian Vuia,800531,45.4514054,28.0232987
7,Bulevardul Traian Vuia,800531,45.4518754,28.0233696
11,Bulevardul Traian Vuia,800532,45.4523732,28.0234350
13,Bulevardul Traian Vuia,800532,45.4528960,28.0235226
19,Bulevardul Traian Vuia,800532,45.4538277,28.0235907
6,Strada Camil Ressu,800530,45.4523088,28.0224602
1,Bulevardul Traian Vuia,800531,45.4510265,28.0232358
17,Bulevardul Traian Vuia,800532,45.4533548,28.0235563
6,Strada Ionel Fernic,800537,45.4524396,28.0200960
12,Strada Ionel Fernic,800537,45.4532599,28.0195231
10,Strada Ionel Fernic,800537,45.4530972,28.0189293
18,Strada Ionel Fernic,800545,45.4545243,28.0188890
24,Strada Ionel Fernic,800552,45.4556301,28.0192318
22,Strada Ionel Fernic,800545,45.4550558,28.0191761
27,Bulevardul Traian Vuia,800542,45.4549038,28.0227694
2,Strada Camil Ressu,800530,45.4512867,28.0223634
60,Bulevardul Milcov,800535,45.4509154,28.0197373
3,Strada Nucului,800544,45.4543676,28.0214774
1,Strada Nucului,800544,45.4543197,28.0202578
10,Strada Camil Ressu,800530,45.4533159,28.0225573
21,Bulevardul Traian Vuia,800542,45.4543101,28.0235584
1,Strada Ionel Fernic,800536,45.4510686,28.0189024
5,Strada Ionel Fernic,800536,45.4522137,28.0187413
3,Strada Ionel Fernic,800536,45.4516304,28.0189032
7,Strada Ionel Fernic,800545,45.4528504,28.0180745
9,Strada Ionel Fernic,800545,45.4535901,28.0179969
69,Strada Ionel Fernic,800536,45.4519291,28.0180804
71,Strada Ionel Fernic,800536,45.4510827,28.0181393
41,Strada Ionel Fernic,800572,45.4537190,28.0165399
61,Strada Ionel Fernic,800573,45.4537195,28.0155535
57,Strada Ionel Fernic,800573,45.4530097,28.0152761
67,Strada Ionel Fernic,800573,45.4532815,28.0163030
55,Strada Ionel Fernic,800573,45.4532508,28.0158674
59,Strada Ionel Fernic,800573,45.4534510,28.0148609
65,Strada Ionel Fernic,800573,45.4524308,28.0154062
39,Strada Ionel Fernic,800572,45.4542335,28.0172230
63,Strada Ionel Fernic,800573,45.4527624,28.0157400
53,Strada Ionel Fernic,800572,45.4527604,28.0149923
51,Strada Ionel Fernic,800572,45.4530370,28.0145142
49,Strada Ionel Fernic,800572,45.4536293,28.0144456
47,Strada Ionel Fernic,800572,45.4539415,28.0148747
33,Strada Ionel Fernic,800571,45.4547405,28.0159598
45,Strada Ionel Fernic,800572,45.4545484,28.0149807
43,Strada Ionel Fernic,800572,45.4550926,28.0153564
29,Strada Ionel Fernic,800571,45.4556317,28.0158012
27,Strada Ionel Fernic,800571,45.4561104,28.0162194
25,Strada Ionel Fernic,800571,45.4566125,28.0168501
23,Strada Ionel Fernic,800571,45.4569065,28.0174838
23A,Strada Ionel Fernic,800571,45.4564417,28.0174762
17,Strada Ionel Fernic,800553,45.4559507,28.0177855
19,Strada Ionel Fernic,800553,45.4563146,28.0185213
26,Strada Ionel Fernic,800552,45.4563530,28.0191136
30,Strada Ionel Fernic,800574,45.4570718,28.0190887
11,Strada Ionel Fernic,800545,45.4569371,28.0183387
15,Strada Ionel Fernic,800545,45.4552454,28.0183663
17,Strada Ionel Fernic,800553,45.4556836,28.0184835
13A,Strada Ionel Fernic,800545,45.4553648,28.0173310
13,Strada Ionel Fernic,800545,45.4551814,28.0173449
43,Bulevardul Traian Vuia,800550,45.4574421,28.0216432
41,Bulevardul Traian Vuia,800550,45.4571508,28.0224391
31,Bulevardul Traian Vuia,800542,45.4561172,28.0230378
28,Strada Ionel Fernic,800552,45.4567067,28.0199140
45,Bulevardul Traian Vuia,800550,45.4577201,28.0220976
37,Bulevardul Traian Vuia,800550,45.4566639,28.0227245
16,Bulevardul Traian Vuia,800549,45.4565353,28.0237575
20,Bulevardul Traian Vuia,800549,45.4575958,28.0231747
18,Bulevardul Traian Vuia,800549,45.4570670,28.0234562
29,Bulevardul Traian Vuia,800542,45.4555326,28.0229729
35,Bulevardul Traian Vuia,800550,45.4561458,28.0223706
39,Bulevardul Traian Vuia,800550,45.4568685,28.0218290
33,Bulevardul Traian Vuia,800550,45.4555381,28.0222406
24,Bulevardul Traian Vuia,800549,45.4582000,28.0229287
17,Strada Grigore Ventura,800559,45.4571859,28.0250421
B2,Strada Grigore Ventura,800559,45.4572463,28.0259786
3,Strada Grigore Ventura,800558,45.4567754,28.0268759
7,Strada Grigore Ventura,800558,45.4572498,28.0265827
13,Strada Grigore Ventura,800559,45.4576941,28.0262949
19,Strada Grigore Ventura,800559,45.4581277,28.0260284
21,Strada Grigore Ventura,800559,45.4585790,28.0257583
10,Bulevardul Henri Coandă,800557,45.4559561,28.0262256
14,Bulevardul Henri Coandă,800557,45.4559348,28.0256765
18,Bulevardul Henri Coandă,800679,45.4559064,28.0251221
21,Bulevardul Traian Vuia,800542,45.4572477,28.0243195
22,Bulevardul Traian Vuia,800549,45.4580020,28.0236133
15,Strada Grigore Ventura,800559,45.4579592,28.0254628
14,Bulevardul Traian Vuia,800556,45.4566157,28.0243610
1,Strada Grigore Ventura,800558,45.4566108,28.0263499
20,Bulevardul Henri Coandă,800679,45.4563824,28.0257116
6,Bulevardul Henri Coandă,800557,45.4555414,28.0275995
12,Bulevardul Traian Vuia,800556,45.4559122,28.0242534
16,Bulevardul Henri Coandă,800557,45.4554870,28.0245726
5,Strada Grigore Ventura,800558,45.4559374,28.0271347
8,Bulevardul Henri Coandă,800557,45.4554433,28.0259923
11,Strada Ionel Fernic,800545,45.4543977,28.0178065
35,Strada Ionel Fernic,800572,45.4545642,28.0171596
37,Strada Ionel Fernic,800572,45.4542724,28.0165529
41,Strada Ionel Fernic,800572,45.4558814,28.0172804
50,Bulevardul Traian Vuia,800549,45.4546592,28.0253892
15,Bulevardul Henri Coandă,800522,45.4547584,28.0260611
15,Bulevardul Henri Coandă,800522,45.4548023,28.0267207
13A,Bulevardul Henri Coandă,800522,45.4545657,28.0270442
13,Bulevardul Henri Coandă,800522,45.4548777,28.0280115
18,Bulevardul Henri Coandă,800679,45.4545644,28.0285662
18bis,Bulevardul Henri Coandă,800679,45.4542790,28.0285524
18bis,Bulevardul Henri Coandă,800679,45.4539410,28.0286040
2,Strada Aviator Mircea Zorileanu,800677,45.4529685,28.0250790
6,Strada Aviator Mircea Zorileanu,800677,45.4518154,28.0248856
10,Strada Aviator Mircea Zorileanu,800677,45.4510920,28.0247638
8,Bulevardul Traian Vuia,800524,45.4537809,28.0245848
6,Bulevardul Traian Vuia,800524,45.4528392,28.0244600
4,Bulevardul Traian Vuia,800524,45.4519316,28.0243592
2,Bulevardul Traian Vuia,800524,45.4509892,28.0242235
5,Strada Aviator Mircea Zorileanu,800677,45.4519432,28.0264251
9,Strada Victor Papilian,800517,45.4519748,28.0268992
48,Bulevardul Milcov,800525,45.4503945,28.0244273
28,Bulevardul Milcov,800514,45.4498960,28.0294341
1,Strada Aviator Mircea Zorileanu,800677,45.4526549,28.0255830
4,Strada Aviator Mircea Zorileanu,800677,45.4519600,28.0253736
8,Strada Aviator Mircea Zorileanu,800677,45.4513074,28.0253184
12,Strada Aviator Mircea Zorileanu,800677,45.4510832,28.0256427
7,Strada Aviator Mircea Zorileanu,800677,45.4512960,28.0261019
4,Strada Victor Papilian,800676,45.4514621,28.0277092
6,Strada Victor Papilian,800676,45.4514797,28.0282803
8,Strada Caișilor,800516,45.4502718,28.0278769
6,Strada Caișilor,800516,45.4502842,28.0283460
4,Strada Caișilor,800516,45.4503139,28.0288410
2,Strada Caișilor,800516,45.4503392,28.0293039
25,Strada Năruja,800515,45.4509144,28.0297750
3,Strada Caișilor,800516,45.4508915,28.0292100
27,Strada Năruja,800515,45.4513705,28.0287402
29,Strada Năruja,800515,45.4518725,28.0288044
25,Strada Năruja,800515,45.4518931,28.0293842
25,Strada Năruja,800515,45.4519206,28.0299434
25,Strada Năruja,800515,45.4525881,28.0299450
7,Strada Victor Papilian,800517,45.4515193,28.0268130
5,Strada Victor Papilian,800517,45.4512603,28.0268095
8,Strada Victor Papilian,800676,45.4519719,28.0278665
1,Strada Caișilor,800516,45.4506653,28.0281043
2,Strada Victor Papilian,800676,45.4509633,28.0279854
21,Strada Năruja,800515,45.4502460,28.0299111
42,Bulevardul Milcov,800675,45.4507374,28.0261586
46,Bulevardul Milcov,800675,45.4507148,28.0253921
34,Strada Nae Leonard,800694,45.4461210,28.0295446
32,Strada Nae Leonard,800694,45.4454956,28.0290808
9,Strada Nufărului,800694,45.4452397,28.0294048
30,Strada Nae Leonard,800694,45.4448737,28.0288484
28,Strada Nae Leonard,800694,45.4443664,28.0288931
7,Strada Nufărului,800694,45.4442984,28.0292415
26,Strada Nae Leonard,800694,45.4438713,28.0289133
24,Strada Nae Leonard,800694,45.4433347,28.0289434
5,Strada Nufărului,800694,45.4436223,28.0293242
22,Strada Nae Leonard,800297,45.4425973,28.0289457
20,Strada Nae Leonard,800297,45.4419286,28.0289671
3,Strada Nufărului,800298,45.4424434,28.0292983
1,Strada Nufărului,800298,45.4414915,28.0293691
18,Strada Nae Leonard,800297,45.4412545,28.0289631
140,Strada Basarabiei,800294,45.4410362,28.0299067
2,Strada Nufărului,800298,45.4413602,28.0300106
44,Bulevardul Siderurgiștilor,800259,45.4407491,28.0167949
44,Bulevardul Siderurgiștilor,800259,45.4406010,28.0180254
42,Bulevardul Siderurgiștilor,800259,45.4405890,28.0191805
42,Bulevardul Siderurgiștilor,800259,45.4409334,28.0201784
1,Strada 1 Decembrie 1918,800258,45.4415652,28.0207719
1,Strada 1 Decembrie 1918,800258,45.4420452,28.0210693
1,Strada 1 Decembrie 1918,800258,45.4424218,28.0207382
209,Strada Tecuci,800252,45.4426249,28.0200196
211,Strada Tecuci,800252,45.4429746,28.0186929
219,Strada Tecuci,800252,45.4421276,28.0188750
221,Strada Tecuci,800252,45.4422482,28.0184680
223,Strada Tecuci,800252,45.4423761,28.0180357
225,Strada Tecuci,800252,45.4424805,28.0176323
217,Strada Tecuci,800252,45.4425483,28.0190819
9,Strada 1 Decembrie 1918,800258,45.4434213,28.0209870
7,Strada 1 Decembrie 1918,800258,45.4428145,28.0214632
11,Strada 1 Decembrie 1918,800258,45.4437890,28.0215773
15,Strada 1 Decembrie 1918,800258,45.4443732,28.0218548
13,Strada 1 Decembrie 1918,800258,45.4442690,28.0222627
17,Strada 1 Decembrie 1918,800511,45.4454425,28.0228830
23,Strada 1 Decembrie 1918,800511,45.4464367,28.0235477
21,Strada 1 Decembrie 1918,800511,45.4466085,28.0230834
5,Strada 1 Decembrie 1918,800258,45.4421631,28.0204804
1,Strada Victor Vâlcovici,800602,45.4140753,28.0227739
61,Bulevardul Dunărea,800609,45.4141197,28.0240502
12,Strada Stadionului,800599,45.4146109,28.0240642
10,Strada Stadionului,800599,45.4149804,28.0238872
8,Strada Stadionului,800599,45.4153480,28.0237111
6,Strada Stadionului,800599,45.4157331,28.0235210
2,Strada Victor Vâlcovici,800600,45.4145489,28.0235302
6,Strada Victor Vâlcovici,800600,45.4150636,28.0232380
4,Strada Victor Vâlcovici,800600,45.4144995,28.0229081
8,Strada Victor Vâlcovici,800601,45.4154382,28.0228075
4A,Strada Stadionului,800595,45.4161578,28.0232009
12,Strada Victor Vâlcovici,800601,45.4144706,28.0209798
10,Strada Victor Vâlcovici,800601,45.4149555,28.0219204
3,Strada Victor Vâlcovici,800668,45.4141180,28.0213454
13,Strada Victor Vâlcovici,800668,45.4139160,28.0210491
18,Strada Victor Vâlcovici,800601,45.4130876,28.0201470
23,Strada Victor Vâlcovici,800668,45.4133023,28.0205573
21,Strada Victor Vâlcovici,800668,45.4135220,28.0206076
22,Strada Victor Vâlcovici,800607,45.4122760,28.0168403
35,Strada Victor Vâlcovici,800608,45.4119780,28.0172312
60,Bulevardul Dunărea,800647,45.4101025,28.0187076
1A,Bulevardul Dunărea,800630,45.4126146,28.0072971
3,Bulevardul Dunărea,800664,45.4123332,28.0079797
3A,Bulevardul Dunărea,800664,45.4118633,28.0081198
6,Strada Furnaliștilor,800629,45.4130191,28.0093462
3,Strada Furnaliștilor,800622,45.4133311,28.0102929
5,Strada Furnaliștilor,800622,45.4128153,28.0108828
7,Strada Furnaliștilor,800622,45.4122689,28.0114322
8,Strada Furnaliștilor,800623,45.4124575,28.0102789
19B,Strada Războieni,800114,45.4426204,28.0425707
19A,Strada Războieni,800114,45.4424520,28.0427940
19,Strada Războieni,800114,45.4422254,28.0424618
50,Bulevardul Siderurgiștilor,800259,45.4413189,28.0114534
50,Bulevardul Siderurgiștilor,800259,45.4422215,28.0133994
50,Bulevardul Siderurgiștilor,800259,45.4428518,28.0134478
50,Bulevardul Siderurgiștilor,800259,45.4422150,28.0139431
50,Bulevardul Siderurgiștilor,800259,45.4425163,28.0139561
50,Bulevardul Siderurgiștilor,800259,45.4428518,28.0139929
50,Bulevardul Siderurgiștilor,800259,45.4431347,28.0140033
50,Bulevardul Siderurgiștilor,800259,45.4431662,28.0134688
50,Bulevardul Siderurgiștilor,800259,45.4434413,28.0134740
50,Bulevardul Siderurgiștilor,800259,45.4437557,28.0132854
50,Bulevardul Siderurgiștilor,800259,45.4437662,28.0128242
50,Bulevardul Siderurgiștilor,800259,45.4434440,28.0129970
50,Bulevardul Siderurgiștilor,800259,45.4425295,28.0134111
130,Strada Domnească,800201,45.4502128,28.0522760
128,Strada Domnească,800201,45.4501626,28.0530620
139bis,Strada Domnească,800201,45.4500829,28.0516588
137,Strada Domnească,800201,45.4496830,28.0514487
135,Strada Domnească,800201,45.4494844,28.0517683
116,Strada Domnească,800201,45.4488500,28.0532336
29,Strada Științei,800146,45.4469586,28.0505345
29,Strada Științei,800146,45.4469586,28.0508319
176,Strada Traian,800150,45.4450373,28.0464297
135,Strada Traian,800150,45.4446910,28.0460141
135,Strada Traian,800150,45.4445562,28.0455235
135,Strada Traian,800150,45.4445170,28.0458346
75,Strada Domnească,800215,45.4422005,28.0535736
1,Aleea Trandafirilor,800008,45.4417005,28.0539418
74,Strada Nicolae Bălcescu,800001,45.4411598,28.0532089
7,Aleea Trandafirilor,800008,45.4417246,28.0551932
14,Strada Eroilor,800119,45.4404433,28.0544036
16,Strada Eroilor,800119,45.4403521,28.0541323
7A,Strada Eroilor,800119,45.4399849,28.0539002
16,Strada Mihai Bravu,800222,45.4453443,28.0571585
46bis,Strada Nicolae Bălcescu,800017,45.4384215,28.0536963
46,Strada Nicolae Bălcescu,800017,45.4383560,28.0532485
23,Strada Portului,800025,45.4326200,28.0623327
40,Bulevardul Milcov,800675,45.4503887,28.0262537
239,Strada Traian,800186,45.4555188,28.0405493
254,Strada Traian,800186,45.4557567,28.0411120
252,Strada Traian,800186,45.4547302,28.0426442
36,Strada Saturn,800339,45.4184410,28.0293123
6,Strada Călugăreni,800267,45.4440565,28.0255375
31,Strada Roșiori,800055,45.4290461,28.0491317
24,Strada Regiment 11 Siret,800333,45.4224638,28.0335188
14B,Strada Regiment 11 Siret,800332,45.4221809,28.0337163
190,Strada General Alexandru Cernat,800105,45.4374011,28.0416343
8,Strada Arieșului,800112,45.4388116,28.0510368
25,Strada Basarabiei,800201,45.4449169,28.0519486
20,Strada Cezar,800190,45.4534799,28.0421836
20,Strada Cezar,800190,45.4536866,28.0429605
169,Strada Domnească,800189,45.4555304,28.0481320
20,Strada Cezar,800190,45.4537828,28.0424685
27,Strada Științei,800146,45.4577005,28.0451500
7A,Strada Strungarilor,800642,45.4152442,28.0167682
2,Strada Costache Conachi,800643,45.4163619,28.0171425
31,Strada Strungarilor,800642,45.4163690,28.0151850
1,Strada Galații Noi,800422,45.4206179,28.0114812
8,Strada Doctor Petru Groza,800423,45.4207627,28.0110510
2,Strada Galații Noi,800422,45.4203066,28.0114018
6,Strada Doctor Petru Groza,800423,45.4200642,28.0111158
"73,75",Strada Gheorghe Doja,800291,45.4340961,28.0291531
25,Strada Constructorilor,800371,45.4342898,28.0301973
5,Bulevardul Henri Coandă,800522,45.4536338,28.0292117
59-61,Strada Gării,800001,45.4432620,28.0507295
59-61,Strada Nicolae Bălcescu,800001,45.4428795,28.0508885
2,Strada Constructorilor,800360,45.4288031,28.0303586
47C,Strada Aurel Vlaicu,800508,45.4478375,28.0270370
203,Strada Traian,800186,45.4521050,28.0418104
28,Strada Saturn,800325,45.4228014,28.0278135
28,Strada Saturn,800325,45.4227379,28.0271821
28,Strada Saturn,800325,45.4228409,28.0282457
28,Strada Saturn,800325,45.4227596,28.0273971
28,Strada Saturn,800325,45.4227804,28.0276086
28,Strada Saturn,800325,45.4228229,28.0280294
232,Bulevardul George Coșbuc,800506,45.4469237,28.0359890
19A,Strada Portului,800025,45.4319067,28.0605076
28,Strada Basarabiei,800146,45.4452112,28.0509899
13,Strada Lebedei,800500,45.4330265,28.0185911
15,Strada Lebedei,800500,45.4333662,28.0188165
23,Strada Portului,800025,45.4325769,28.0626106
23,Strada Portului,800025,45.4323902,28.0621813
1,Bulevardul Galați,800650,45.4064974,28.0197972
56,Strada Nicolae Bălcescu,800001,45.4392048,28.0527611
3,Strada Oltului,800415,45.4157134,28.0073417
349,Strada Traian,800179,45.4612720,28.0373000
156A,Strada Brăilei,800685,45.4245435,28.0222432
13-15,Strada Sfântul Spiridon,800051,45.4339744,28.0498578
161 B,Bulevardul Brăilei,800320,45.4271431,28.0342075
36,Bulevardul Siderurgiștilor,800279,45.4376829,28.0225058
160-162,Strada Morilor,800305,45.4278969,28.0384232
251,Bulevardul George Coșbuc,800506,45.4522685,28.0314542
2,Strada Instrucției,800021,45.4329968,28.0538539
6,Strada Brândușei,800464,45.4335751,28.0177219
6,Strada Brândușei,800464,45.4330929,28.0175172
12 bis,Strada Călugăreni,800274,45.4429789,28.0253436
3,Strada Măgura,800284,45.4431049,28.0258527
2,Strada Egalității,800029,45.4322863,28.0586265
257,Bulevardul George Coșbuc,800157,45.4598243,28.0336668
36,Bulevardul Siderurgiștilor,800279,45.4377385,28.0226459
32,Strada Saturn,800339,45.4213560,28.0281155
61,Strada Domnească,800008,45.4414619,28.0557395
1,Strada Saturn,800344,45.4275020,28.0295038
1,Strada General Alexandru Cernat,800303,45.4249793,28.0410317
24,Strada Alexandru Lăpușneanu,800063,45.4286606,28.0483288
2,Strada Constantin Brâncoveanu,800058,45.4291877,28.0451670
221,Bulevardul George Coșbuc,800506,45.4420941,28.0356072
303,Strada Traian,800179,45.4634369,28.0392953
47A,Strada A.I. Cuza,800216,45.4407527,28.0572228
33,Strada Roșiori,800055,45.4292315,28.0496772
320,Strada Traian,800179,45.4644973,28.0364580
1,Strada Costache Conachi,800577,45.4171301,28.0165625
117,Strada Științei,800189,45.4557564,28.0452483
63,Strada Portului,800211,45.4361580,28.0684816
132,Strada Alexandru Moruzzi,800223,45.4437277,28.0858091
64,Strada Eroilor,800119,45.4396978,28.0491446
29,Strada Oltului,800445,45.4221048,28.0181066
1,Strada Stadionului,800595,45.4205965,28.0208138
1,Strada Furnaliștilor,800663,45.4142595,28.0096899
12,Strada Domnească,807036,45.4366920,28.0554270
4,Strada Soseaua Smardan,800701,45.4633096,27.9664364
88,Strada Domnească,800215,45.4444247,28.0557317
56,Strada Portului,800211,45.4408071,28.0761090
2,Strada Furnaliștilor,800629,45.4142650,28.0093280
1,Strada Furnaliștilor,800663,45.4140348,28.0098403
1,Strada Furnaliștilor,800663,45.4140195,28.0096755
3,Strada Cloșca,800324,45.4241979,28.0265046
3,Strada Cloșca,800324,45.4239374,28.0265208
3,Strada Cloșca,800324,45.4236749,28.0265383
2,Strada Furnaliștilor,800629,45.4136613,28.0076935
93,Strada Domnească,800215,45.4449915,28.0547429
95,Strada Domnească,800215,45.4450941,28.0546430
14A,Strada Oțelarilor,800592,45.4147092,28.0191278
2,Strada Oltului,800415,45.4155627,28.0065747
4A,Strada Stadionului,800595,45.4162625,28.0231458
177,Strada Brăilei,800578,45.4190818,28.0180020
177,Strada Brăilei,800578,45.4197004,28.0188403
3,Bulevardul Dunărea,800664,45.4124513,28.0082201
3A,Bulevardul Dunărea,800664,45.4120848,28.0078876
3A,Bulevardul Dunărea,800664,45.4118530,28.0084568
3A,Bulevardul Dunărea,800664,45.4119844,28.0087052
35,Strada Gării,800222,45.4420372,28.0575207
32,Strada Nicolae Bălcescu,800001,45.4368271,28.0535222
32,Strada Nicolae Bălcescu,800001,45.4364530,28.0535918
46bis,Strada Nicolae Bălcescu,800017,45.4382346,28.0538544
46,Strada Nicolae Bălcescu,800017,45.4381739,28.0533966
181,Strada Morilor,800402,45.4276961,28.0394274
199,Strada Brăilei,800626,45.4141476,28.0085804
7,Strada 1 Decembrie 1918,800258,45.4432456,28.0217471
7,Strada 1 Decembrie 1918,800258,45.4428295,28.0209390
74,Bulevardul George Coșbuc,800305,45.4338175,28.0369967
3,Strada Furnaliștilor,800622,45.4115187,28.0112127
177,Strada Brăilei,800578,45.4190371,28.0194820
