House number,Street name,Postal code,Latitude,Longitude
55,вуліца Дамброўскага,230002,53.7070990,23.7970750
113А,вуліца Дзяржынскага,230005,53.7052261,23.8406149
87/1,вуліца Максіма Горкага,230015,53.7020720,23.8188081
38,бульвар Ленінскага Камсамола,230009,53.6974359,23.8080402
30,вуліца Пушкіна,230012,53.6967614,23.8318034
24,вуліца Максіма Горкага,230029,53.6927456,23.8229738
75,вуліца Каліноўскага,230030,53.6903663,23.8017884
75,вуліца Каліноўскага,230030,53.6903649,23.8016092
9,вуліца Элізы Ажэшкі,230023,53.6833300,23.8360081
6,Віленская вуліца,230023,53.6827988,23.8313089
51,вуліца Лізы Чайкінай,230027,53.6661910,23.7881100
8,вуліца Леніна,230025,53.6789627,23.8405765
2,вуліца Белыя Росы,230005,53.7169221,23.8413360
60Ж,праспект Касманаўтаў,230003,53.6790473,23.8697068
56,вуліца Пестрака,230026,53.6509446,23.8367267
73,Пралетарская вуліца,230003,53.6854014,23.8569616
10,вуліца Гагарына,230011,53.6717023,23.8197537
12,вуліца Таўлая,230008,53.6951243,23.8536982
42,вуліца Элізы Ажэшкі,230023,53.6863463,23.8452421
94,вуліца Савецкіх Пагранічнікаў,230024,53.6709791,23.8073782
49,вуліца Максіма Горкага,230029,53.6917700,23.8253511
2,Малышчынская вуліца,230021,53.7110159,23.8504234
43,Азёрская шаша,230003,53.6901942,23.8675367
204А,вуліца Фолюш,230006,53.6620902,23.7821030
11,вуліца Гая,230010,53.6627554,23.8393277
3,вуліца Камарова,230009,53.7094651,23.8118976
12,вуліца Леніна,230023,53.6795977,23.8405206
100/1,праспект Касманаўтаў,230013,53.6723926,23.8928719
45,вуліца Урублеўскага,230009,53.7062082,23.8063026
45,вуліца Шчорса,230003,53.6784018,23.8613994
81,праспект Касманаўтаў,230003,53.6725208,23.8627489
91,вуліца Максіма Горкага,230025,53.7120673,23.8154649
91,вуліца Максіма Горкага,230025,53.7121136,23.8162382
2/1,вуліца Дзяржынскага,230025,53.6861237,23.8340488
54,вуліца Ліможа,230021,53.7167116,23.8492749
2,вуліца Кабяка,230020,53.6417997,23.8447022
22,вуліца Лялевеля,230001,53.6647346,23.8197862
29,вуліца Карла Маркса,230025,53.6766795,23.8382976
23,вуліца Будзённага,230004,53.6850487,23.8470318
29,вуліца Карла Маркса,231731,53.6765393,23.8382485
10,Дамініканская вуліца,230023,53.6812781,23.8283181
8,вуліца Стэфана Баторыя,230025,53.6768931,23.8302989
21А,праспект Кляцкова,230020,53.6465609,23.8469911
51,вуліца Лізы Чайкінай,230027,53.6663534,23.7882743
25,вуліца Антонава,230025,53.6737030,23.8403360
70,вуліца Вольгі Соламавай,230027,53.6664798,23.7887348
37,вуліца Ціміразева,230005,53.6929792,23.8477592
37,вуліца Ціміразева,230023,53.6930102,23.8476818
3А,вуліца Багуцкага,230002,53.7104174,23.8059957
81,праспект Касманаўтаў,230003,53.6727579,23.8631434
91,вуліца Максіма Горкага,230009,53.7122466,23.8155388
2,Паўднёвая вуліца,230019,53.6438420,23.8722346
41,вуліца Пушкіна,230012,53.6978041,23.8273577
6,вуліца Карскага,230003,53.6865645,23.8799722
39,Азёрская шаша,230003,53.6901779,23.8658397
1,Савецкая вуліца,230023,53.6789263,23.8295718
14,вуліца Элізы Ажэшкі,230023,53.6831232,23.8342070
5,вуліца Багуцкага,230002,53.7102528,23.8043173
28,вуліца Пучкова,230001,53.6560722,23.8115602
2Е,Панямуньская вуліца,220000,53.6663126,23.8688026
18,завулак Дзяржынскага,230005,53.6987195,23.8303079
18,завулак Дзяржынскага,230005,53.6988338,23.8302141
42,вуліца Элізы Ажэшкі,230023,53.6864054,23.8452020
42,вуліца Элізы Ажэшкі,230023,53.6865516,23.8453268
42,вуліца Элізы Ажэшкі,230023,53.6865269,23.8452235
94,вуліца Урублеўскага,230002,53.7084496,23.8035893
86,вуліца Урублеўскага,230002,53.7077948,23.8042070
12,Калючынская вуліца,230025,53.6806873,23.8318952
1,вуліца Гарнавых,230011,53.6708191,23.8238626
1,вуліца Гарнавых,230011,53.6708071,23.8241448
17,Індурская шаша,230026,53.6369085,23.8408462
11,Індустрыяльная вуліца,230001,53.6599289,23.7959566
18/3,вуліца Гагарына,230011,53.6726415,23.8107305
84/1,праспект Янкі Купалы,230010,53.6570342,23.8535788
41,вуліца Белуша,230025,53.6715588,23.8525871
29,вуліца Карла Маркса,230025,53.6768005,23.8377028
31,вуліца Карла Маркса,230025,53.6760406,23.8387432
25,Савецкая вуліца,230023,53.6817087,23.8317998
11,Замкавая вуліца,230023,53.6782640,23.8260650
32Б,вуліца Ліможа,230021,53.7113625,23.8490592
2,Паўднёвая вуліца,230019,53.6439610,23.8721154
105,вуліца Максіма Горкага,230015,53.7223924,23.8263407
24,вуліца Карскага,230013,53.6788648,23.8956173
4А,вуліца Волкава,230018,53.6314354,23.8109932
1,завулак Перамогі,230026,53.6618018,23.8283089
36,вуліца Пестрака,230026,53.6544542,23.8358723
149,вуліца Вольгі Соламавай,230006,53.6577086,23.7798245
27,вуліца Захарава,230023,53.6785249,23.8449625
3,Камунальная вуліца,230029,53.6890582,23.8219782
11,вуліца Карла Маркса,230025,53.6777358,23.8326635
29,вуліца Карскага,230003,53.6871602,23.8782593
95,вуліца Савецкіх Пагранічнікаў,230024,53.6718705,23.8072238
10А,вуліца Дзяржынскага,230005,53.6869784,23.8344853
22,вуліца Перамогі,230026,53.6558578,23.8312738
2,вуліца Пестрака,230026,53.6588990,23.8356399
11,вуліца Славінскага,230026,53.6472814,23.8276530
36А,вуліца Пестрака,230026,53.6538635,23.8363947
38А,вуліца Шчорса,230003,53.6803474,23.8614922
89А,вуліца Максіма Горкага,230005,53.7057648,23.8268356
89А,вуліца Максіма Горкага,230005,53.7057800,23.8269596
91,вуліца Максіма Горкага,230005,53.7082152,23.8169605
20Б,вуліца Белуша,230025,53.6723891,23.8506294
11,вуліца Карла Маркса,230025,53.6776738,23.8329914
121,вуліца Максіма Горкага,230015,53.7207236,23.8273990
45,вуліца Элізы Ажэшкі,230023,53.6857757,23.8450843
45,вуліца Элізы Ажэшкі,230023,53.6858050,23.8451682
2,вуліца Пестрака,230026,53.6586809,23.8356318
2,вуліца Пестрака,230026,53.6586277,23.8355541
21,бульвар Ленінскага Камсамола,230009,53.7014979,23.8116457
21,бульвар Ленінскага Камсамола,230009,53.7015157,23.8116022
17,вуліца Дубко,230005,53.7014004,23.8334245
80/3,праспект Янкі Купалы,230010,53.6566076,23.8498716
14,вуліца Крылова,230001,53.6633222,23.8176146
24,вуліца Дарвіна,230011,53.6713238,23.8240868
29,вуліца Элізы Ажэшкі,230023,53.6847911,23.8422490
29,вуліца Элізы Ажэшкі,230023,53.6848325,23.8424092
17,Акадэмічная вуліца,230029,53.6890478,23.8396710
24,вуліца Карскага,230013,53.6788293,23.8957145
28,вуліца Будзённага,230023,53.6810956,23.8423323
256,вуліца Суворава,230768,53.6513143,23.7903175
11,вуліца Шчорса,230025,53.6791374,23.8514079
7А,вуліца Брыкеля,230005,53.7006096,23.8464811
21,Калючынская вуліца,230025,53.6795573,23.8309190
2,Сакольскі завулак,230001,53.6496943,23.7945014
2,вуліца Крамко,230019,53.6429217,23.8714445
5,вуліца Леніна,230025,53.6795016,23.8409751
5А,вуліца Рэпіна,230027,53.6629021,23.7908432
9,Аўтамабільная вуліца,230026,53.6411316,23.8043264
64,Сацыялістычная вуліца,230025,53.6753998,23.8332729
1,вуліца Віктара Глухава,230021,53.7168485,23.8682014
11,вуліца Карла Маркса,230025,53.6776954,23.8326949
18,вуліца Обухава,230003,53.6781578,23.8692074
113А,вуліца Дзяржынскага,230602,53.7052452,23.8405569
37,вуліца Ціміразева,230023,53.6930884,23.8477885
18,вуліца Рэйманта,230029,53.6913660,23.8299758
1,вуліца Розы Люксембург,230029,53.6910246,23.8290949
21А,Гаспадарчая вуліца,230005,53.7111981,23.8256191
7,Вялікая Траецкая вуліца,230023,53.6826193,23.8304233
94,вуліца Савецкіх Пагранічнікаў,230024,53.6709828,23.8075583
81А,праспект Касманаўтаў,230012,53.6735458,23.8635311
4,праспект Касманаўтаў,230003,53.6760302,23.8483018
81,праспект Касманаўтаў,230003,53.6717765,23.8629620
8,вуліца Ціміразева,230023,53.6889851,23.8454793
20,вуліца Сакалоўскага,230001,53.6601241,23.8055776
6,вуліца Віктара Саяпіна,230007,53.7208999,23.8639855
258,вуліца Суворава,230001,53.6505161,23.7880757
31,вуліца Пушкіна,230012,53.6959557,23.8357150
24,Ткацкая вуліца,230016,53.6760934,23.7702041
18,Савецкая вуліца,230023,53.6824627,23.8315209
35,Маставая вуліца,230025,53.6753684,23.8275239
3Д,вуліца Багуцкага,230002,53.7119279,23.8042199
31,вуліца Дамброўскага,230002,53.7024865,23.7984484
19,вуліца Дамброўскага,230002,53.7021081,23.8001996
33,вуліца Дамброўскага,230002,53.7034634,23.8003189
39,вуліца Дамброўскага,230002,53.7039456,23.7980347
47А,вуліца Дамброўскага,230002,53.7054572,23.7975638
55,вуліца Дамброўскага,230002,53.7070155,23.7970933
41,вуліца Дамброўскага,230002,53.7050003,23.7998284
49,вуліца Дамброўскага,230002,53.7066085,23.7992925
74,вуліца Урублеўскага,230002,53.7055625,23.8026500
65,вуліца Дамброўскага,230002,53.7091240,23.8029232
86/1,вуліца Урублеўскага,230002,53.7072299,23.8043050
76,вуліца Урублеўскага,230002,53.7052340,23.8014100
76А,вуліца Урублеўскага,230002,53.7043874,23.8018270
61А,вуліца Дамброўскага,230002,53.7090889,23.8025167
5,вуліца Камарова,230029,53.7094558,23.8100754
133,вуліца Дзяржынскага,230015,53.7115210,23.8424263
46,вуліца Ліможа,230021,53.7130871,23.8459953
129 к1,вуліца Дзяржынскага,230005,53.7117810,23.8446979
103/1,вуліца Дзяржынскага,230005,53.7021915,23.8430350
12,вуліца Ліможа,230005,53.7040360,23.8482311
113А,вуліца Дзяржынскага,230005,53.7051975,23.8407941
10,вуліца Брыкеля,230005,53.7015573,23.8453574
8,вуліца Брыкеля,230005,53.7016329,23.8448023
123А,вуліца Дзяржынскага,230005,53.7056002,23.8420686
101А,вуліца Дзяржынскага,230005,53.7033586,23.8407797
11,вуліца Ліможа,230005,53.7040630,23.8523428
42,вуліца Курчатава,230005,53.7039599,23.8560760
17,вуліца Астроўскага,230029,53.6902089,23.8335639
10,вуліца Каложа,230029,53.6796597,23.8172318
1,вуліца Найдуса,230023,53.6817387,23.8309829
6,Савецкая вуліца,230025,53.6800265,23.8297964
51,Вялікая Траецкая вуліца,230023,53.6797153,23.8264352
23,Калючынская вуліца,230025,53.6790735,23.8305605
12,вуліца Урыцкага,230025,53.6808190,23.8333442
11,вуліца Элізы Ажэшкі,230023,53.6835108,23.8367613
53,вуліца Дамброўскага,230002,53.7071809,23.7968665
23А,вуліца Дамброўскага,230002,53.7023441,23.7990631
40А,вуліца Міхася Васілька,230023,53.6823291,23.8377747
38,вуліца Міхася Васілька,230023,53.6822656,23.8383243
34,вуліца Міхася Васілька,230023,53.6821034,23.8381189
32,вуліца Міхася Васілька,230023,53.6819672,23.8381051
28,вуліца Міхася Васілька,230023,53.6818770,23.8376295
29,вуліца Міхася Васілька,230023,53.6820920,23.8386662
31/1,вуліца Міхася Васілька,230023,53.6823913,23.8393779
33,вуліца Міхася Васілька,230023,53.6828247,23.8382059
31,вуліца Міхася Васілька,230023,53.6825783,23.8390808
30,вуліца Міхася Васілька,230023,53.6818849,23.8380319
23,вуліца Міхася Васілька,230023,53.6816855,23.8390549
25,вуліца Церашковай,230023,53.6946345,23.8460362
23,вуліца Будзённага,230004,53.6850985,23.8472610
23А,вуліца Будзённага,230004,53.6852010,23.8477410
48А,вуліца Будзённага,230003,53.6840927,23.8445384
46,вуліца Будзённага,230023,53.6833643,23.8449424
42А,вуліца Элізы Ажэшкі,230023,53.6872504,23.8441676
7,Акадэмічная вуліца,230023,53.6870632,23.8405212
8,вуліца 1 Мая,230023,53.6872236,23.8371524
4,вуліца Максіма Багдановіча,230023,53.6876862,23.8370332
39,вуліца 17 Верасня,230023,53.6887669,23.8386329
30,вуліца Ліможа,230021,53.7083112,23.8480021
7,вуліца Ліможа,230005,53.7036533,23.8502274
97А,вуліца Дзяржынскага,230005,53.7015143,23.8409238
14,вуліца Кабяка,230026,53.6454680,23.8546942
115,вуліца Савецкіх Пагранічнікаў,230024,53.6737064,23.7971615
115/4-1,вуліца Савецкіх Пагранічнікаў,230027,53.6739546,23.7983864
2,вуліца Рэпіна,230027,53.6621708,23.7924710
2,вуліца Паповіча,230024,53.6743263,23.8051507
61А,вуліца Дамброўскага,230002,53.7089828,23.7964964
61Б,вуліца Дамброўскага,230002,53.7106431,23.7968314
2А,вуліца Паповіча,230024,53.6743436,23.8059132
18/2,вуліца Гагарына,230024,53.6722999,23.8138079
6,вуліца Каложа,230029,53.6784288,23.8186296
5,вуліца Перамогі,230026,53.6645010,23.8279729
6,вуліца Касцюшкі,230003,53.6830327,23.8498365
59,вуліца Фурсенкі,230028,53.6248404,23.8561870
58,вуліца Шчорса,230003,53.6837000,23.8594425
73,Пралетарская вуліца,230003,53.6854416,23.8568212
64,праспект Касманаўтаў,230003,53.6742646,23.8666147
58А,праспект Касманаўтаў,230003,53.6761939,23.8652986
60А,праспект Касманаўтаў,230003,53.6760500,23.8671072
15,завулак Дзяржынскага,230005,53.6999785,23.8284130
3,Акадэмічная вуліца,230023,53.6864420,23.8412713
42,Гаспадарчая вуліца,230005,53.7168944,23.8268763
21,Гаспадарчая вуліца,230005,53.7111417,23.8261379
94,вуліца Дзяржынскага,230005,53.7061607,23.8355819
5,вуліца Леніна,230023,53.6796785,23.8411862
5/1,вуліца Леніна,230023,53.6796987,23.8418438
5/2,вуліца Леніна,230023,53.6793639,23.8414377
96А,праспект Кляцкова,230010,53.6539919,23.8532728
22 к4,вуліца Перамогі,230003,53.6558390,23.8317840
16,вуліца Перамогі,230026,53.6596381,23.8339960
21,Збажовая вуліца,230026,53.6681018,23.8350745
54,Сакольская вуліца,230001,53.6481275,23.7935652
127,вуліца Суворава,230001,53.6567098,23.8020085
22,Прамысловы праезд,230005,53.7143959,23.7995258
7,вуліца Багуцкага,230002,53.7113410,23.8038324
69,вуліца Дамброўскага,230002,53.7117861,23.8036366
7А,вуліца Багуцкага,230002,53.7124033,23.8041824
11А,вуліца Багуцкага,230002,53.7138585,23.8011277
5,вуліца Багуцкага,230002,53.7102483,23.8041352
16В,завулак Перамогі,230023,53.6549585,23.8146919
24,вуліца Цітова,230001,53.6677673,23.8170095
4,вуліца Славінскага,230026,53.6432013,23.8267366
35,вуліца Перамогі,230026,53.6541895,23.8300434
39А,вуліца Пушкіна,230012,53.6975281,23.8284718
18,завулак Дзяржынскага,230005,53.6989155,23.8302014
27,Мясніцкая вуліца,230005,53.7224906,23.8263175
4Б,праспект Касманаўтаў,230025,53.6769144,23.8494323
60/1,праспект Касманаўтаў,230003,53.6787508,23.8662927
16,Азёрская шаша,230003,53.6909496,23.8681319
11,Панямуньская вуліца,230003,53.6653759,23.8708145
1,вуліца Якуба Коласа,230003,53.6844027,23.8714785
6А,вуліца Карскага,230003,53.6866577,23.8800175
64,Сацыялістычная вуліца,230025,53.6755283,23.8330667
21,вуліца Дамброўскага,230002,53.7019739,23.7989921
23,вуліца Дамброўскага,230002,53.7024347,23.7998507
25,вуліца Дамброўскага,230002,53.7025311,23.8004916
51,вуліца Дамброўскага,230002,53.7074583,23.7966742
53,вуліца Дамброўскага,230002,53.7075003,23.7970006
55,вуліца Дамброўскага,230002,53.7075923,23.7976296
43,вуліца Дамброўскага,230002,53.7059168,23.7971116
45,вуліца Дамброўскага,230002,53.7059477,23.7974618
47,вуліца Дамброўскага,230002,53.7062089,23.7980952
35,вуліца Дамброўскага,230002,53.7044497,23.7975913
37,вуліца Дамброўскага,230002,53.7044691,23.7979312
39,вуліца Дамброўскага,230002,53.7047223,23.7985658
27,вуліца Дамброўскага,230002,53.7029061,23.7980927
29,вуліца Дамброўскага,230002,53.7029699,23.7984327
31,вуліца Дамброўскага,230002,53.7032391,23.7990582
21А,вуліца Дамброўскага,230002,53.7017748,23.7980732
61,вуліца Дамброўскага,230002,53.7086963,23.7995864
57,вуліца Дамброўскага,230002,53.7080035,23.7991015
57А,вуліца Дамброўскага,230002,53.7076500,23.7988872
25А,вуліца Дамброўскага,230002,53.7025327,23.8016720
62,вуліца Урублеўскага,230002,53.7042155,23.8035675
66,вуліца Урублеўскага,230002,53.7034525,23.8020905
64,вуліца Урублеўскага,230002,53.7038285,23.8028330
60,вуліца Урублеўскага,230002,53.7046025,23.8043170
70,вуліца Урублеўскага,230002,53.7057777,23.8042515
72,вуліца Урублеўскага,230002,53.7056767,23.8035872
86,вуліца Урублеўскага,230002,53.7078870,23.8041225
94,вуліца Урублеўскага,230002,53.7084020,23.8029330
88,вуліца Урублеўскага,230002,53.7077248,23.8033657
90,вуліца Урублеўскага,230002,53.7076246,23.8026837
84,вуліца Урублеўскага,230002,53.7062739,23.8006954
82,вуліца Урублеўскага,230002,53.7060260,23.8011435
86/1,вуліца Урублеўскага,230002,53.7070272,23.8034709
78/1,вуліца Урублеўскага,230002,53.7063809,23.8019674
63,вуліца Дамброўскага,230002,53.7089251,23.8022197
35,бульвар Ленінскага Камсамола,230009,53.6992145,23.8043956
4,вуліца Багуцкага,230002,53.7094489,23.8060348
6,вуліца Багуцкага,230002,53.7096945,23.8077405
2,вуліца Багуцкага,230002,53.7099357,23.8094435
10,вуліца Багуцкага,230002,53.7094335,23.8053526
8,вуліца Багуцкага,230002,53.7096722,23.8070317
2А,вуліца Багуцкага,230002,53.7099144,23.8087384
104,вуліца Максіма Горкага,230009,53.7103851,23.8136378
37,вуліца Урублеўскага,230009,53.7055785,23.8068358
39,вуліца Урублеўскага,230009,53.7061631,23.8065943
35,вуліца Урублеўскага,230009,53.7049972,23.8070833
11,бульвар Ленінскага Камсамола,230009,53.6999118,23.8142482
7А,вуліца Урублеўскага,230009,53.7021472,23.8080913
78 к1,вуліца Максіма Горкага,230009,53.6974642,23.8189609
45,вуліца Льва Талстога,230029,53.6963759,23.8191293
169,вуліца Дзяржынскага,230005,53.7150503,23.8409426
44,вуліца Ліможа,230021,53.7134847,23.8471457
11,2-і завулак Дзяржынскага,230021,53.7100257,23.8457357
3,2-і завулак Дзяржынскага,230005,53.7099273,23.8436812
19,2-і завулак Дзяржынскага,230021,53.7101184,23.8478025
36,вуліца Ліможа,230021,53.7126495,23.8480340
34,вуліца Ліможа,230021,53.7121458,23.8485875
38,вуліца Ліможа,230021,53.7129341,23.8490233
42,вуліца Ліможа,230021,53.7135952,23.8486366
21,вуліца Белыя Росы,230021,53.7153869,23.8483200
50,вуліца Ліможа,230021,53.7146949,23.8488368
48А,вуліца Ліможа,230021,53.7144855,23.8480713
11,вуліца Белыя Росы,230021,53.7155023,23.8462482
15,вуліца Белыя Росы,230021,53.7149899,23.8467755
53,вуліца Ліможа,230021,53.7150395,23.8504210
43,вуліца Белыя Росы,230021,53.7144966,23.8544343
45/2,вуліца Ліможа,230021,53.7133972,23.8501682
45,вуліца Ліможа,230021,53.7138266,23.8504789
45/1,вуліца Ліможа,230021,53.7129759,23.8504897
49,вуліца Ліможа,230021,53.7142210,23.8504320
43,вуліца Ліможа,230021,53.7126966,23.8517830
47,вуліца Ліможа,230021,53.7140349,23.8517519
45Б,вуліца Ліможа,230021,53.7133677,23.8521391
45А,вуліца Ліможа,230021,53.7133712,23.8512086
37А,вуліца Ліможа,230021,53.7123127,23.8517491
37,вуліца Ліможа,230021,53.7120316,23.8523909
31А,вуліца Ліможа,230021,53.7117824,23.8513196
39,вуліца Ліможа,230021,53.7121703,23.8501597
54,вуліца Таўлая,230021,53.7115702,23.8571704
72,вуліца Таўлая,230021,53.7135822,23.8571375
62,вуліца Таўлая,230021,53.7124254,23.8571711
56,вуліца Таўлая,230021,53.7119923,23.8576460
64,вуліца Таўлая,230021,53.7127778,23.8571355
68,вуліца Таўлая,230021,53.7131776,23.8576234
78,вуліца Таўлая,230021,53.7144139,23.8577581
17,Малышчынская вуліца,230021,53.7114576,23.8562478
23,Малышчынская вуліца,230021,53.7110911,23.8579736
27/1,вуліца Ліможа,230021,53.7099816,23.8518973
95/1,вуліца Дзяржынскага,230005,53.7014415,23.8427718
103,вуліца Дзяржынскага,230005,53.7020200,23.8419070
99,вуліца Дзяржынскага,230005,53.7022242,23.8408284
97,вуліца Дзяржынскага,230005,53.7016923,23.8409227
95,вуліца Дзяржынскага,230005,53.7015145,23.8412314
105,вуліца Дзяржынскага,230005,53.7023976,23.8416409
113,вуліца Дзяржынскага,230005,53.7046702,23.8417094
115,вуліца Дзяржынскага,230005,53.7040989,23.8426062
117,вуліца Дзяржынскага,230005,53.7044693,23.8433700
121,вуліца Дзяржынскага,230005,53.7049332,23.8440676
125,вуліца Дзяржынскага,230005,53.7052433,23.8447711
123,вуліца Дзяржынскага,230005,53.7055300,23.8436245
18,вуліца Ліможа,230005,53.7044153,23.8461201
16,вуліца Ліможа,230005,53.7042385,23.8473460
14,вуліца Ліможа,230005,53.7036815,23.8470000
22,вуліца Ліможа,230005,53.7046621,23.8481858
24,вуліца Ліможа,230005,53.7048935,23.8471582
26,вуліца Ліможа,230005,53.7055260,23.8480630
4,вуліца Ліможа,230005,53.7025575,23.8490233
2,вуліца Ліможа,230005,53.7018848,23.8490284
1/1,вуліца Ліможа,230005,53.7018200,23.8501537
20,вуліца Брыкеля,230005,53.7020115,23.8479833
6,вуліца Ліможа,230005,53.7028698,23.8480031
1/2,вуліца Ліможа,230005,53.7026148,23.8501324
18,вуліца Брыкеля,230005,53.7022591,23.8469371
16,вуліца Брыкеля,230005,53.7014756,23.8476630
14,вуліца Брыкеля,230005,53.7018245,23.8461771
10,вуліца Ліможа,230005,53.7032050,23.8485055
1/4,вуліца Ліможа,230005,53.7031935,23.8504908
9,вуліца Ліможа,230005,53.7037832,23.8507947
22/4,вуліца Брыкеля,230005,53.7020077,23.8536889
44,вуліца Таўлая,230005,53.7035642,23.8572174
32/2,вуліца Таўлая,230005,53.7002188,23.8558641
32/3,вуліца Таўлая,230005,53.7001842,23.8553857
32/1,вуліца Таўлая,230005,53.7002705,23.8563544
1/3,вуліца Ліможа,230005,53.7024488,23.8512763
123 к1,вуліца Дзяржынскага,230005,53.7053887,23.8421536
63,вуліца Дзяржынскага,230005,53.7017953,23.8403101
65,вуліца Дзяржынскага,230005,53.7020666,23.8403176
67,вуліца Дзяржынскага,230005,53.7023540,23.8403230
30,вуліца Таўлая,230005,53.6996690,23.8547848
22/5,вуліца Брыкеля,230005,53.7024475,23.8548840
22/7,вуліца Брыкеля,230005,53.7011061,23.8543244
36/1,вуліца Таўлая,230005,53.7008829,23.8572857
30А,вуліца Таўлая,230005,53.6999614,23.8543964
28,вуліца Ліможа,230005,53.7053841,23.8466019
26,вуліца Курчатава,230005,53.7063354,23.8453027
119,вуліца Дзяржынскага,230005,53.7048726,23.8428055
21/1,вуліца Брыкеля,230008,53.6985391,23.8521897
42,вуліца Церашковай,230008,53.6959684,23.8517010
28/5,вуліца Церашковай,230008,53.6958780,23.8443823
18,вуліца Церашковай,230008,53.6961795,23.8421198
32,вуліца Ліможа,230021,53.7101667,23.8488968
19,вуліца Белыя Росы,230021,53.7154687,23.8476698
95/2,вуліца Дзяржынскага,230005,53.7017553,23.8440315
22,вуліца 1 Мая,230023,53.6880264,23.8409408
45,вуліца Элізы Ажэшкі,230023,53.6857854,23.8451217
7,вуліца Будзённага,230023,53.6804613,23.8432594
42,вуліца Міхася Васілька,230023,53.6827411,23.8375371
40,вуліца Міхася Васілька,230023,53.6824982,23.8380836
4,вуліца Міхася Васілька,230025,53.6790476,23.8366489
10,вуліца Міхася Васілька,230025,53.6795421,23.8369282
14,вуліца Міхася Васілька,230025,53.6800506,23.8371662
10 к2,вуліца Міхася Васілька,230025,53.6798958,23.8366393
14А,вуліца Міхася Васілька,230025,53.6802100,23.8368372
16,вуліца Міхася Васілька,230025,53.6803931,23.8373384
12,вуліца Леніна,230023,53.6796510,23.8405719
18,вуліца Леніна,230025,53.6802493,23.8403806
7,вуліца Міхася Васілька,230025,53.6796083,23.8373248
7А,вуліца Міхася Васілька,230025,53.6794219,23.8375523
11,вуліца Міхася Васілька,230025,53.6804358,23.8377325
9,вуліца Міхася Васілька,230025,53.6802414,23.8376559
5,вуліца Міхася Васілька,230025,53.6791738,23.8375057
58,Сацыялістычная вуліца,230025,53.6762884,23.8335124
25,вуліца Карла Маркса,230025,53.6772015,23.8357212
21,2-і завулак Дзяржынскага,230021,53.7105678,23.8481072
17,2-і завулак Дзяржынскага,230021,53.7100647,23.8468747
8/3,вуліца Кабяка,230020,53.6452943,23.8471488
10,праспект Кляцкова,230026,53.6518029,23.8402290
88,праспект Янкі Купалы,230010,53.6543469,23.8528394
80,праспект Янкі Купалы,230010,53.6556668,23.8497875
15,вуліца Гая,230010,53.6620022,23.8414844
64,праспект Янкі Купалы,230010,53.6613991,23.8425823
3,вуліца Славінскага,230026,53.6484610,23.8309387
70,вуліца Вольгі Соламавай,230027,53.6668496,23.7889524
15/217,вуліца Фолюш,230006,53.6598907,23.7807598
143,вуліца Вольгі Соламавай,230006,53.6600056,23.7777369
88,вуліца Вольгі Соламавай,230027,53.6623872,23.7843681
48,вуліца Паповіча,230024,53.6666016,23.8047214
19,вуліца Багуцкага,230002,53.7091642,23.7973367
68,вуліца Дамброўскага,230002,53.7128023,23.7966627
75,вуліца Дамброўскага,230002,53.7128073,23.7981596
23,вуліца Суворава,230001,53.6603870,23.8108627
25,вуліца Суворава,230001,53.6607616,23.8099994
19,вуліца Суворава,230001,53.6612439,23.8118662
15,вуліца Суворава,230001,53.6614285,23.8135641
18,вуліца Гагарына,230024,53.6722719,23.8097178
74,вуліца Падпярэселка,230030,53.6866452,23.8127013
26,вуліца Дарвіна,230011,53.6715829,23.8234459
32,вуліца Серафімовіча,230029,53.6914761,23.8177064
11,Вялікая Траецкая вуліца,230000,53.6823563,23.8299960
7,Вялікая Траецкая вуліца,230023,53.6826195,23.8304234
5,вуліца Розы Люксембург,230029,53.6913784,23.8299124
31А,вуліца Славацкага,230029,53.6922644,23.8266790
17,вуліца Славацкага,230029,53.6909637,23.8290115
11,вуліца Астроўскага,230009,53.6903507,23.8312157
57,Падольная вуліца,230025,53.6694715,23.8393034
53,Падольная вуліца,230025,53.6695716,23.8391137
32,вуліца Дзяржынскага,230023,53.6892888,23.8356191
16,3-і Асенні завулак,230028,53.6263847,23.8457730
61,Асенняя вуліца,230028,53.6261779,23.8429952
1А,Парахавы завулак,230025,53.6747690,23.8468149
18,вуліца Белуша,230025,53.6729619,23.8479612
3,вуліца Белыя Росы,230021,53.7153649,23.8432035
7,вуліца Белыя Росы,230021,53.7155214,23.8446894
24,праспект Касманаўтаў,230003,53.6750030,23.8571038
13,Азёрская шаша,230003,53.6879144,23.8590012
30Б,вуліца Таўлая,230005,53.7004283,23.8538893
54,вуліца Шчорса,230003,53.6819106,23.8608726
33,Чыгуначная вуліца,230003,53.6867434,23.8682047
15,вуліца Паповіча,230024,53.6685640,23.8007665
5А,вуліца Рэпіна,230027,53.6628881,23.7908678
96,вуліца Савецкіх Пагранічнікаў,230024,53.6724696,23.8044731
28,вуліца Курчатава,230005,53.7063904,23.8475758
28А,вуліца Ліможа,230005,53.7060983,23.8488468
27,вуліца Элізы Ажэшкі,230023,53.6849396,23.8421473
2,Маладзёжная вуліца,230025,53.6783367,23.8356336
76А,вуліца Суворава,230001,53.6602332,23.8189224
54,вуліца Ліможа,230021,53.7166320,23.8483796
54,вуліца Ліможа,230021,53.7168049,23.8492180
42,вуліца Будзённага,230023,53.6821962,23.8436862
4Б,вуліца Болдзіна,230030,53.6946175,23.8020694
3,вуліца Багуцкага,230002,53.7108315,23.8095190
1,вуліца Галавічы,230016,53.6752799,23.7691406
258,вуліца Суворава,230001,53.6505625,23.7882002
64,вуліца Дамброўскага,230002,53.7092351,23.7938237
19,праспект Кляцкова,230020,53.6476232,23.8467797
19А,вуліца Суворава,230001,53.6607619,23.8123936
21,вуліца Суворава,230001,53.6604851,23.8122070
51,вуліца Ліможа,230021,53.7146451,23.8501094
29А,вуліца Пушкіна,230012,53.6956051,23.8350144
9,Малышчынская вуліца,230021,53.7115574,23.8539936
7,Малышчынская вуліца,230021,53.7118779,23.8542151
15,Малышчынская вуліца,230021,53.7111833,23.8555758
82,вуліца Таўлая,230021,53.7145151,23.8560068
24,Малышчынская вуліца,230021,53.7110639,23.8571310
35,вуліца Ліможа,230021,53.7117287,23.8506949
48,вуліца Ліможа,230021,53.7140707,23.8484493
74,вуліца Таўлая,230021,53.7141042,23.8572988
53,вуліца Белыя Росы,230021,53.7147043,23.8574364
21,Малышчынская вуліца,230021,53.7107375,23.8578208
49,вуліца Белыя Росы,230021,53.7147524,23.8569306
47,вуліца Белыя Росы,230021,53.7148124,23.8562585
66,вуліца Таўлая,230021,53.7127634,23.8576688
13,вуліца Белыя Росы,230021,53.7152042,23.8458691
45,вуліца Белыя Росы,230021,53.7146511,23.8532351
31,вуліца Ліможа,230021,53.7117296,23.8518955
23,вуліца Белыя Росы,230021,53.7154973,23.8507666
25,вуліца Ліможа,230021,53.7100178,23.8505001
27/3,вуліца Ліможа,230021,53.7095607,23.8539987
5,Малышчынская вуліца,230021,53.7120125,23.8533167
27/2,вуліца Ліможа,230021,53.7097657,23.8529517
8,Малышчынская вуліца,230021,53.7101015,23.8552240
10А,Малышчынская вуліца,230021,53.7098991,23.8567614
10,Малышчынская вуліца,230021,53.7100348,23.8562870
4А,Малышчынская вуліца,230021,53.7104389,23.8537296
2,Малышчынская вуліца,230021,53.7108855,23.8504978
1А,вуліца Белыя Росы,230005,53.7156254,23.8413563
1,вуліца Белыя Росы,230005,53.7156252,23.8420340
9,вуліца Белыя Росы,230021,53.7148909,23.8445995
23,2-і завулак Дзяржынскага,230021,53.7106306,23.8486086
167,вуліца Дзяржынскага,230005,53.7145017,23.8408031
163,вуліца Дзяржынскага,230005,53.7140729,23.8414004
48В,вуліца Ліможа,230021,53.7140813,23.8443276
48Б,вуліца Ліможа,230021,53.7140825,23.8451939
1Б,2-і завулак Дзяржынскага,230005,53.7099196,23.8426705
1А,2-і завулак Дзяржынскага,230005,53.7101864,23.8419141
3А,вуліца Белыя Росы,230021,53.7149582,23.8430045
8А,Малышчынская вуліца,230021,53.7101005,23.8556945
41,вуліца Белыя Росы,230021,53.7148943,23.8549721
6,Утульная вуліца,230014,53.7521852,23.8535179
42,вуліца Ваньковіча,230014,53.7494155,23.8494450
12,вуліца Духінскага,230014,53.7517313,23.8510374
62,Гожская вуліца,230014,53.7518072,23.8476540
8,Утульная вуліца,230014,53.7522855,23.8531785
7,вуліца Бакштанскага,230014,53.7495150,23.8460480
10,Утульная вуліца,230014,53.7524337,23.8528261
62,вуліца Альхімовіча,230014,53.7508816,23.8508856
54,вуліца Ваньковіча,230014,53.7504139,23.8517501
4,Утульная вуліца,230014,53.7521123,23.8538213
70,Гожская вуліца,230014,53.7526074,23.8494181
3,вуліца Духінскага,230014,53.7522210,23.8486500
20,вуліца Жалкоўскага,230014,53.7497148,23.8487844
22,вуліца Жалкоўскага,230014,53.7495528,23.8490328
37,вуліца Дуброва,230014,53.7508120,23.8442640
1А,вуліца Крамко,230028,53.6423386,23.8734909
11,Стралковая вуліца,230019,53.6385987,23.8558169
11А,Стралковая вуліца,230019,53.6389419,23.8565199
12,Паўднёвая вуліца,230019,53.6389372,23.8619063
12,вуліца Крамко,230019,53.6389096,23.8631896
12А,вуліца Крамко,230019,53.6384454,23.8628496
12А,Паўднёвая вуліца,230019,53.6385636,23.8610739
14,вуліца Крамко,230019,53.6378394,23.8615147
14А,вуліца Крамко,230019,53.6379062,23.8607832
15,Паўднёвая вуліца,230019,53.6404698,23.8619064
15А,Паўднёвая вуліца,230019,53.6400689,23.8614710
17,Паўднёвая вуліца,230019,53.6398381,23.8600079
19,Паўднёвая вуліца,230019,53.6390142,23.8590858
19А,Паўднёвая вуліца,230019,53.6388420,23.8583402
21,Паўднёвая вуліца,230019,53.6383070,23.8572626
21А,Паўднёвая вуліца,230019,53.6378693,23.8565589
3А,Паўднёвая вуліца,230019,53.6444321,23.8689180
6,вуліца Хімікаў,230019,53.6429575,23.8610935
7,Стралковая вуліца,230019,53.6396077,23.8580855
8,вуліца Хімікаў,230019,53.6424980,23.8617017
52Б,вуліца Таўлая,230021,53.7102029,23.8592197
41,Малышчынская вуліца,230021,53.7121004,23.8671429
21,вуліца Ліможа,230021,53.7091209,23.8508037
27,Малышчынская вуліца,230021,53.7116633,23.8614355
31,Малышчынская вуліца,230021,53.7114953,23.8647026
33,Малышчынская вуліца,230021,53.7114865,23.8655835
39,Малышчынская вуліца,230021,53.7116321,23.8672856
43,Малышчынская вуліца,230021,53.7120844,23.8682088
46,вуліца Таўлая,230021,53.7082578,23.8558209
46А,вуліца Таўлая,230021,53.7084345,23.8549546
48,вуліца Таўлая,230021,53.7078341,23.8569940
50,вуліца Таўлая,230021,53.7075401,23.8586963
52А,вуліца Таўлая,230021,53.7095799,23.8595780
55,вуліца Белыя Росы,230021,53.7140888,23.8597083
57,вуліца Белыя Росы,230021,53.7140209,23.8606359
63,вуліца Таўлая,230021,53.7124440,23.8613406
67,вуліца Таўлая,230021,53.7129436,23.8594742
71,вуліца Белыя Росы,230021,53.7132321,23.8649282
71А,вуліца Белыя Росы,230021,53.7129551,23.8645935
73,вуліца Белыя Росы,230021,53.7130753,23.8658348
45/4,вуліца Ліможа,230021,53.7138263,23.8501617
7,вуліца Дамейкі,230028,53.6239709,23.8568613
100 к120,праспект Касманаўтаў,230013,53.6768649,23.8944266
100 к115,праспект Касманаўтаў,230013,53.6777179,23.8957591
45,вуліца Урублеўскага,230009,53.7055705,23.8066951
58,вуліца Урублеўскага,230002,53.7038296,23.8042440
78,вуліца Урублеўскага,230002,53.7065485,23.8038622
68,вуліца Урублеўскага,230002,53.7053992,23.8050893
41,вуліца Ліможа,230021,53.7126161,23.8503475
46Б,вуліца Таўлая,230021,53.7065514,23.8583137
59,вуліца Белыя Росы,230021,53.7132750,23.8609503
41,праспект Кляцкова,230020,53.6473946,23.8534715
79,вуліца Белыя Росы,230021,53.7127815,23.8672829
12,Малышчынская вуліца,230021,53.7099025,23.8579414
52,вуліца Таўлая,230021,53.7090356,23.8567309
50Г,вуліца Таўлая,230021,53.7086183,23.8577879
56Б,вуліца Дзяржынскага,230005,53.6968207,23.8373108
67А,вуліца Таўлая,230021,53.7133477,23.8594477
48/2,вуліца Ліможа,230021,53.7143640,23.8468146
48/1,вуліца Ліможа,230021,53.7140571,23.8470300
13,2-і завулак Дзяржынскага,230021,53.7104687,23.8460606
15,2-і завулак Дзяржынскага,230021,53.7105178,23.8465620
9,2-і завулак Дзяржынскага,230021,53.7099376,23.8448329
7,2-і завулак Дзяржынскага,230005,53.7104098,23.8444803
5,2-і завулак Дзяржынскага,230005,53.7103986,23.8439925
81,Грандзіцкая вуліца,230014,53.7258293,23.8153002
43,Валейбольная вуліца,230016,53.6662879,23.7260932
26,Цэнтральная вуліца,230028,53.6249459,23.8538410
2Е,Панямуньская вуліца,220000,53.6663397,23.8686714
50В,вуліца Таўлая,230021,53.7088809,23.8585363
15А,праспект Кляцкова,230020,53.6483913,23.8445760
10 к11,Скідзельская шаша,230003,53.6661474,23.9244207
10,Скідзельская шаша,230003,53.6678053,23.9262964
81,вуліца Белыя Росы,230021,53.7129477,23.8685615
85,вуліца Белыя Росы,230021,53.7126874,23.8690191
77,вуліца Белыя Росы,230021,53.7131939,23.8671759
23Б,вуліца Ліможа,230021,53.7091722,23.8524028
18,Скідзельская шаша,230003,53.6652979,23.9322612
18,Скідзельская шаша,230003,53.6639406,23.9417163
2,вуліца Белыя Росы,230005,53.7169034,23.8413452
61,вуліца Белыя Росы,230021,53.7140122,23.8617638
83,вуліца Белыя Росы,230021,53.7129058,23.8689209
7,вуліца Курчатава,230009,53.7061149,23.8120314
21,Акульная вуліца,230001,53.6517824,23.7995010
65,Валейбольная вуліца,230016,53.6689517,23.7240235
48,вуліца Шчорса,230003,53.6819099,23.8601763
1,вуліца Крамко,230028,53.6428591,23.8728112
2,вуліца Крамко,230028,53.6428685,23.8715596
20,вуліца Ліможа,230005,53.7049430,23.8491013
25,Малышчынская вуліца,230021,53.7116288,23.8600334
31,вуліца Белыя Росы,230021,53.7148054,23.8518980
29,вуліца Белыя Росы,230021,53.7150433,23.8511768
44А,вуліца Таўлая,230021,53.7058227,23.8581618
46В,вуліца Таўлая,230021,53.7068115,23.8578687
19,вуліца Дубко,230005,53.7017508,23.8385691
2,Паўднёвая вуліца,230019,53.6437823,23.8718921
66,вуліца Серафімовіча,230029,53.6964780,23.8169155
23,вуліца Ліможа,230021,53.7088314,23.8524177
23А,вуліца Ліможа,230021,53.7086493,23.8533289
27А,Малышчынская вуліца,230021,53.7119558,23.8619307
23,вуліца Крамко,230019,53.6383457,23.8663935
25,вуліца Крамко,230019,53.6379276,23.8654564
6,вуліца Цёткі,230030,53.6833924,23.8038737
12А,Малышчынская вуліца,230021,53.7096358,23.8573598
58,вуліца Таўлая,230021,53.7120147,23.8555674
3,вуліца Ліможа,230005,53.7033584,23.8514063
103/2,вуліца Брыкеля,230005,53.7029244,23.8441427
44Б,вуліца Таўлая,230021,53.7058223,23.8576722
15,вуліца Вялікая Альшанка,230018,53.6226557,23.8144494
12,Экзатычная вуліца,230014,53.7224162,23.8524187
115,вуліца Савецкіх Пагранічнікаў,230024,53.6736519,23.7979367
29А,вуліца Кабяка,230019,53.6441028,23.8619249
29,вуліца Кабяка,230019,53.6439224,23.8612071
82,праспект Янкі Купалы,230010,53.6574033,23.8519256
118,Гожская вуліца,230014,53.7553180,23.8609593
120,Гожская вуліца,230014,53.7555766,23.8607946
124,Гожская вуліца,230014,53.7560777,23.8604889
45,вуліца Лапенскі Гасцінец,230014,53.7558236,23.8618163
128,Гожская вуліца,230014,53.7561288,23.8612470
33,Зацішная вуліца,230014,53.7521646,23.8572627
1,вуліца Лапенскі Гасцінец,230014,53.7513895,23.8607306
20,вуліца Сонгіна,230014,53.7537327,23.8597287
19,вуліца Сонгіна,230014,53.7536736,23.8604826
25,вуліца Лапенскі Гасцінец,230014,53.7542997,23.8614697
7,вуліца Лапенскі Гасцінец,230014,53.7520995,23.8609664
29,Зацішная вуліца,230014,53.7524451,23.8580369
27,вуліца Сонгіна,230014,53.7528706,23.8601391
41,вуліца Лапенскі Гасцінец,230014,53.7553732,23.8617139
15,вуліца Лапенскі Гасцінец,230014,53.7532958,23.8612697
14,вуліца Сонгіна,230014,53.7543661,23.8596189
5,вуліца Лапенскі Гасцінец,230014,53.7519160,23.8609077
26,вуліца Сонгіна,230014,53.7530803,23.8595804
21,вуліца Сонгіна,230014,53.7534799,23.8603181
29,вуліца Лапенскі Гасцінец,230014,53.7548787,23.8616125
23,вуліца Лапенскі Гасцінец,230014,53.7541136,23.8614318
33,вуліца Лапенскі Гасцінец,230014,53.7548034,23.8607047
21,вуліца Юндзілы,230014,53.7519808,23.8570874
122,вуліца Ражанскага,230014,53.7514362,23.8603215
17,вуліца Лапенскі Гасцінец,230014,53.7534967,23.8613102
69,вуліца Ваньковіча,230014,53.7526071,23.8557459
106,вуліца Ражанскага,230014,53.7515990,23.8576679
13,вуліца Лапенскі Гасцінец,230014,53.7531099,23.8612291
18,вуліца Сонгіна,230014,53.7538943,23.8596400
3,вуліца Лапенскі Гасцінец,230014,53.7517312,23.8608823
110,вуліца Ражанскага,230014,53.7521084,23.8580740
116,вуліца Ражанскага,230014,53.7516500,23.8585929
36,вуліца Сонгіна,230014,53.7515869,23.8592303
7,вуліца Сонгіна,230014,53.7550496,23.8597327
17,вуліца Юндзіла,230014,53.7524737,23.8560745
15,вуліца Сонгіна,230014,53.7540666,23.8605605
120,вуліца Ражанскага,230014,53.7514379,23.8599388
22,вуліца Сонгіна,230014,53.7534983,23.8596649
21,вуліца Лапенскі Гасцінец,230014,53.7538979,23.8613501
13,вуліца Сонгіна,230014,53.7542976,23.8604630
19,вуліца Лапенскі Гасцінец,230014,53.7537093,23.8613277
22,Зацішная вуліца,230014,53.7527101,23.8573945
22,вуліца Духінскага,230014,53.7515615,23.8528878
80,вуліца Ваньковіча,230014,53.7534577,23.8562462
33,вуліца Забалоцкага,230014,53.7541720,23.8561441
34,вуліца Забалоцкага,230014,53.7546721,23.8565512
27,вуліца Забалоцкага,230014,53.7536489,23.8556588
11,Зацішная вуліца,230014,53.7543679,23.8585896
35,вуліца Забалоцкага,230014,53.7538833,23.8563952
25,вуліца Забалоцкага,230014,53.7533715,23.8551848
14,вуліца Духінскага,230014,53.7516156,23.8514255
14,Зацішная вуліца,230014,53.7538004,23.8580406
17,вуліца Забалоцкага,230014,53.7536281,23.8543010
96,Гожская вуліца,230014,53.7549678,23.8559871
24,Зацішная вуліца,230014,53.7525340,23.8571322
3,вуліца Юндзіла,230014,53.7534344,23.8536916
71,вуліца Ваньковіча,230014,53.7528729,23.8560581
19,вуліца Духінскага,230014,53.7509088,23.8519999
8,Зацішная вуліца,230014,53.7544172,23.8577164
17,вуліца Духінскага,230014,53.7511372,23.8516588
94,Гожская вуліца,230014,53.7548617,23.8556464
11,вуліца Юндзіла,230014,53.7529218,23.8548908
7,вуліца Забалоцкага,230014,53.7521249,23.8510558
14,вуліца Юндзіла,230014,53.7523944,23.8547374
17,Зацішная вуліца,230014,53.7537794,23.8587352
65,вуліца Ваньковіча,230014,53.7510185,23.8543188
5,вуліца Юндзіла,230014,53.7532314,23.8539571
18,вуліца Забалоцкага,230014,53.7530582,23.8517936
1,Утульная вуліца,230014,53.7515866,23.8541160
7,вуліца Юндзіла,230014,53.7531564,23.8542569
9,Утульная вуліца,230014,53.7520304,23.8526354
14,вуліца Забалоцкага,230014,53.7527071,23.8510206
30,вуліца Забалоцкага,230014,53.7544564,23.8557968
2,Зацішная вуліца,230014,53.7552422,23.8569954
92,Гожская вуліца,230014,53.7546849,23.8551439
16,вуліца Духінскага,230014,53.7516286,23.8519239
62,вуліца Ваньковіча,230014,53.7511661,23.8535172
84,вуліца Ваньковіча,230014,53.7538123,23.8572089
70,вуліца Ваньковіча,230014,53.7521589,23.8546001
9,вуліца Юндзіла,230014,53.7530187,23.8546037
39,вуліца Забалоцкага,230014,53.7541371,23.8568647
98,Гожская вуліца,230014,53.7551527,23.8564920
7,Утульная вуліца,230014,53.7519219,23.8531247
36,вуліца Забалоцкага,230014,53.7547706,23.8569252
12,Зацішная вуліца,230014,53.7540071,23.8580227
73,вуліца Ваньковіча,230014,53.7530498,23.8563683
28,вуліца Забалоцкага,230014,53.7543369,23.8553644
12,вуліца Юндзіла,230014,53.7525398,23.8543175
78,вуліца Ваньковіча,230014,53.7533070,23.8559459
24,вуліца Духінскага,230014,53.7514722,23.8526016
82,вуліца Ваньковіча,230014,53.7535915,23.8566187
21,вуліца Забалоцкага,230014,53.7538244,23.8548882
12,Утульная вуліца,230014,53.7526405,23.8524552
15,вуліца Духінскага,230014,53.7512909,23.8512738
9,Зацішная вуліца,230014,53.7545525,23.8583779
60,вуліца Ваньковіча,230014,53.7510488,23.8532066
20,вуліца Духінскага,230014,53.7518951,23.8524656
13,Утульная вуліца,230014,53.7524436,23.8518698
44,вуліца Ваньковіча,230014,53.7496310,23.8497282
80,Гожская вуліца,230014,53.7531640,23.8507935
78,Гожская вуліца,230014,53.7530762,23.8505149
69,вуліца Альхімовіча,230014,53.7507219,23.8496886
24,вуліца Забалоцкага,230014,53.7541103,23.8545597
98,вуліца Ражанскага,230014,53.7504376,23.8540736
71,вуліца Альхімовіча,230014,53.7506547,23.8501437
76,Гожская вуліца,230014,53.7529441,23.8502302
73,вуліца Альхімовіча,230014,53.7505625,23.8504230
88,Гожская вуліца,230014,53.7544084,23.8542195
9,вуліца Духінскага,230014,53.7515185,23.8498771
74,Гожская вуліца,230014,53.7528469,23.8500112
12,вуліца Забалоцкага,230014,53.7525780,23.8507290
10,вуліца Забалоцкага,230014,53.7523559,23.8505160
51,вуліца Ваньковіча,230014,53.7494564,23.8505128
26,вуліца Забалоцкага,230014,53.7541979,23.8550126
72,Гожская вуліца,230014,53.7527459,23.8496928
16,вуліца Жалкоўскага,230014,53.7501686,23.8482007
7,вуліца Духінскага,230014,53.7517317,23.8496419
77,вуліца Альхімовіча,230014,53.7501273,23.8511314
2,вуліца Забалоцкага,230014,53.7512382,23.8496994
90,вуліца Ражанскага,230014,53.7498434,23.8522056
8,вуліца Духінскага,230014,53.7519927,23.8502615
53,вуліца Ваньковіча,230014,53.7496399,23.8509099
49А,вуліца Ваньковіча,230014,53.7492929,23.8501599
48,вуліца Альхімовіча,230014,53.7514764,23.8485389
48,вуліца Ваньковіча,230014,53.7498736,23.8506186
59,вуліца Альхімовіча,230014,53.7508024,23.8474003
49,вуліца Ваньковіча,230014,53.7491436,23.8497270
64,Гожская вуліца,230014,53.7520504,23.8480613
79,вуліца Альхімовіча,230014,53.7498414,23.8514669
6,вуліца Духінскага,230014,53.7521335,23.8497890
4,вуліца Духінскага,230014,53.7522199,23.8494884
60,вуліца Альхімовіча,230014,53.7509660,23.8505759
90,Гожская вуліца,230014,53.7545324,23.8547106
14,вуліца Жалкоўскага,230014,53.7504443,23.8479354
50,вуліца Ваньковіча,230014,53.7500100,23.8508650
29,вуліца Баліцкага,230028,53.6181884,23.8359029
44А,вуліца Агінскага,230017,53.6243750,23.8063916
1,Прыгарадная вуліца,230030,53.6711481,23.8419046
33,Айчынная вуліца,230026,53.6165664,23.8199172
18,вуліца Напалеона Орды,230018,53.6194695,23.8084155
37,вуліца Агінскага,230017,53.6208685,23.8056548
39,вуліца Агінскага,230017,53.6212019,23.8050322
43,вуліца Агінскага,230017,53.6215117,23.8038009
47,вуліца Курчатава,230021,53.7061254,23.8568157
45,вуліца Курчатава,230021,53.7061477,23.8562771
50Б,вуліца Таўлая,230021,53.7087031,23.8598111
5,вуліца Гагарына,230011,53.6719856,23.8214885
58А,праспект Касманаўтаў,230003,53.6763744,23.8654362
22,вуліца Кабяка,230020,53.6460610,23.8570664
13,Малышчынская вуліца,230021,53.7112554,23.8545802
17,вуліца Багуцкага,230002,53.7099993,23.8004012
37,Пераломская вуліца,230014,53.7314153,23.8374604
39,Пераломская вуліца,230014,53.7312842,23.8371598
14,Індурская шаша,230020,53.6452776,23.8431552
14,Вішнявецкая вуліца,230020,53.6422546,23.8531192
8,вуліца Дзяржынскага,230023,53.6863800,23.8336470
4,Малышчынская вуліца,230021,53.7105811,23.8527573
58,вуліца Таўлая,230021,53.7120446,23.8553972
2А,Малышчынская вуліца,230021,53.7108379,23.8515951
19,вуліца 1 Мая,230023,53.6877449,23.8453063
3А,вуліца Багуцкага,230002,53.7104684,23.8059086
45,вуліца Карскага,230013,53.6774773,23.8876633
25,вуліца Барыса Булата,230016,53.6595992,23.7525040
27,вуліца Барыса Булата,230016,53.6595921,23.7521371
21,вуліца Барыса Булата,230016,53.6596268,23.7532907
23,вуліца Барыса Булата,230016,53.6596272,23.7528984
19,вуліца Барыса Булата,230016,53.6596281,23.7537085
17,вуліца Барыса Булата,230016,53.6596097,23.7541367
15,вуліца Барыса Булата,230016,53.6596079,23.7544675
18,вуліца Арцёма Барычэўскага,230016,53.6591131,23.7521355
16,вуліца Арцёма Барычэўскага,230016,53.6591146,23.7524825
10,вуліца Арцёма Барычэўскага,230016,53.6591317,23.7541186
8,вуліца Арцёма Барычэўскага,230016,53.6591275,23.7544860
4,вуліца Івана Молакава,230016,53.6583780,23.7529602
3,вуліца Івана Молакава,230016,53.6583840,23.7536242
5,вуліца Івана Молакава,230016,53.6581869,23.7536189
8,вуліца Мікалая Аўчыннікава,230016,53.6583858,23.7544650
7,вуліца Івана Молакава,230016,53.6579998,23.7536241
10,вуліца Мікалая Аўчыннікава,230016,53.6582006,23.7544695
12,вуліца Мікалая Аўчыннікава,230016,53.6579979,23.7544661
6,вуліца Івана Молакава,230016,53.6581946,23.7529663
8,вуліца Івана Молакава,230016,53.6579999,23.7529658
7,вуліца Мікалая Аслікоўскага,230016,53.6583789,23.7521179
9,вуліца Мікалая Аслікоўскага,230016,53.6581873,23.7521192
11,вуліца Мікалая Аслікоўскага,230016,53.6580024,23.7521212
60А,праспект Касманаўтаў,230003,53.6764261,23.8667682
13,вуліца Барыса Булата,230016,53.6596416,23.7552741
11,вуліца Барыса Булата,230016,53.6596400,23.7558701
3,вуліца Мікалая Аўчыннікава,230016,53.6592421,23.7551033
4,вуліца Пятра Кажамякіна,230016,53.6592422,23.7560146
11,вуліца Арцёма Барычэўскага,230016,53.6587338,23.7520921
9,вуліца Арцёма Барычэўскага,230016,53.6587337,23.7525458
7,вуліца Арцёма Барычэўскага,230016,53.6587352,23.7529646
5,вуліца Арцёма Барычэўскага,230016,53.6587509,23.7540486
3,вуліца Арцёма Барычэўскага,230016,53.6587520,23.7555613
14,вуліца Арцёма Барычэўскага,230016,53.6591744,23.7529964
12,вуліца Арцёма Барычэўскага,230016,53.6591636,23.7536014
16,вуліца Віктара Бабкова,230016,53.6578037,23.7522168
14,вуліца Віктара Бабкова,230016,53.6578077,23.7528870
12,вуліца Віктара Бабкова,230016,53.6578169,23.7537098
10,вуліца Віктара Бабкова,230016,53.6578126,23.7543938
8,вуліца Віктара Бабкова,230016,53.6578121,23.7552179
6,вуліца Віктара Бабкова,230016,53.6578126,23.7558998
9,вуліца Мікалая Аўчыннікава,230016,53.6582020,23.7551383
11,вуліца Мікалая Аўчыннікава,230016,53.6580029,23.7551366
8,вуліца Пятра Кажамякіна,230016,53.6583741,23.7559495
10,вуліца Пятра Кажамякіна,230016,53.6581849,23.7559754
12,вуліца Пятра Кажамякіна,230016,53.6579917,23.7559647
1,вуліца Арцёма Барычэўскага,230016,53.6587608,23.7570742
5,вуліца Пятра Кажамякіна,230016,53.6582335,23.7566144
3,вуліца Барыса Булата,230016,53.6582385,23.7575485
4,вуліца Віктара Бабкова,230016,53.6578027,23.7567776
2,вуліца Віктара Бабкова,230016,53.6578053,23.7573808
25,вуліца Віктара Бабкова,230016,53.6574283,23.7521334
23,вуліца Віктара Бабкова,230016,53.6574211,23.7525587
13,вуліца Віктара Бабкова,230016,53.6574342,23.7544910
15,вуліца Віктара Бабкова,230016,53.6574361,23.7540922
21,вуліца Віктара Бабкова,230016,53.6574371,23.7529530
19,вуліца Віктара Бабкова,230016,53.6574364,23.7533321
17,вуліца Віктара Бабкова,230016,53.6574361,23.7537037
11,вуліца Віктара Бабкова,230016,53.6574292,23.7551704
9,вуліца Віктара Бабкова,230016,53.6574378,23.7555849
7,вуліца Віктара Бабкова,230016,53.6574236,23.7559774
5,вуліца Віктара Бабкова,230016,53.6574167,23.7563737
3,вуліца Віктара Бабкова,230016,53.6574250,23.7567336
1,вуліца Віктара Бабкова,230016,53.6574219,23.7571181
24 к4,вуліца Карскага,230013,53.6791119,23.8957671
45,Валейбольная вуліца,230016,53.6664383,23.7259254
26,Пераломская вуліца,230014,53.7322880,23.8382178
6,вуліца Мілевіча,230014,53.7525101,23.8594041
17,вуліца Гарнавых,230001,53.6683743,23.8201098
25,вуліца Белыя Росы,230021,53.7155006,23.8512091
77,вуліца Максіма Горкага,230009,53.7004236,23.8216624
11,вуліца Славінскага,230026,53.6472900,23.8274183
31,Зацішная вуліца,230014,53.7523067,23.8576440
26,вуліца Духінскага,230014,53.7513282,23.8522169
28,вуліца Духінскага,230014,53.7510936,23.8523933
4,вуліца Сонгіна,230014,53.7553867,23.8586899
70,вуліца Альхімовіча,230014,53.7500945,23.8519434
46Г,вуліца Таўлая,230021,53.7069082,23.8568793
46Д,вуліца Таўлая,230021,53.7071267,23.8564481
2,вуліца Карскага,230003,53.6894193,23.8788858
18,завулак Дзяржынскага,230005,53.6990791,23.8309993
21А,Гаспадарчая вуліца,230005,53.7111954,23.8256018
24 к2,вуліца Карскага,230013,53.6787679,23.8959927
24 к1,вуліца Карскага,230013,53.6787314,23.8962828
18,Вучнёўская вуліца,230014,53.7308415,23.8257567
22/1,вуліца Таўлая,230008,53.6959375,23.8550770
54А,вуліца Дзяржынскага,230005,53.6948319,23.8388192
4,вуліца Жалкоўскага,230014,53.7513826,23.8467782
1,вуліца Забалоцкага,230014,53.7510710,23.8501484
18,вуліца Духінскага,230014,53.7517482,23.8522034
11,Утульная вуліца,230014,53.7522984,23.8521633
66,вуліца Альхімовіча,230014,53.7505813,23.8512941
64,вуліца Ваньковіча,230014,53.7512624,23.8537329
3,Утульная вуліца,230014,53.7517061,23.8537610
5,Утульная вуліца,230014,53.7517993,23.8534618
8,вуліца Забалоцкага,230014,53.7521838,23.8503426
3А,вуліца Духінскага,230014,53.7520126,23.8489277
5,вуліца Духінскага,230014,53.7518527,23.8492478
10,вуліца Юндзіла,230014,53.7526630,23.8539542
6,вуліца Юндзіла,230014,53.7529242,23.8532576
23,вуліца Забалоцкага,230014,53.7536369,23.8550266
29,вуліца Забалоцкага,230014,53.7539693,23.8553882
75,вуліца Ваньковіча,230014,53.7531501,23.8566236
77,вуліца Ваньковіча,230014,53.7532817,23.8568853
26,Зацішная вуліца,230014,53.7524561,23.8568317
57,вуліца Ваньковіча,230014,53.7504132,23.8526798
55,вуліца Ваньковіча,230014,53.7502482,23.8522616
75,вуліца Альхімовіча,230014,53.7504761,23.8507121
81,вуліца Альхімовіча,230014,53.7496438,23.8517216
92,вуліца Ражанскага,230014,53.7499245,23.8526831
94,вуліца Ражанскага,230014,53.7501559,23.8531211
100,вуліца Ражанскага,230014,53.7506595,23.8543012
63,вуліца Ваньковіча,230014,53.7509510,23.8539654
61,вуліца Ваньковіча,230014,53.7508112,23.8535337
108,вуліца Ражанскага,230014,53.7515970,23.8580155
25,вуліца Сонгіна,230014,53.7531133,23.8601603
23,вуліца Сонгіна,230014,53.7532913,23.8603889
17,вуліца Сонгіна,230014,53.7538886,23.8604698
3,вуліца Сонгіна,230014,53.7554182,23.8593909
6,вуліца Сонгіна,230014,53.7551921,23.8588508
8,вуліца Сонгіна,230014,53.7549948,23.8590653
31,вуліца Лапенскі Гасцінец,230014,53.7549068,23.8611327
27,вуліца Лапенскі Гасцінец,230014,53.7545561,23.8615468
43,вуліца Лапенскі Гасцінец,230014,53.7556540,23.8617926
122,Гожская вуліца,230014,53.7558553,23.8607252
15,Зацішная вуліца,230014,53.7539544,23.8587586
13,Зацішная вуліца,230014,53.7541651,23.8586993
7,Зацішная вуліца,230014,53.7546838,23.8582506
5,Зацішная вуліца,230014,53.7548170,23.8581253
3,Зацішная вуліца,230014,53.7549573,23.8580079
37,вуліца Забалоцкага,230014,53.7539759,23.8570078
86,вуліца Ваньковіча,230014,53.7536957,23.8575557
57,бульвар Ленінскага Камсамола,230030,53.6977591,23.7898749
55,бульвар Ленінскага Камсамола,230017,53.6979395,23.7924240
59,бульвар Ленінскага Камсамола,230030,53.6999718,23.7900142
31,вуліца Гарнавых,230001,53.6659964,23.8185959
36А,вуліца Пучкова,230001,53.6516395,23.8055734
31,вуліца Пучкова,230001,53.6534301,23.8057136
48Б,вуліца Будзённага,230003,53.6845749,23.8445382
61,вуліца Таўлая,230021,53.7122121,23.8596899
35,Маставая вуліца,230025,53.6753665,23.8275484
55,вуліца Ліможа,230021,53.7166777,23.8501265
110,вуліца Дзяржынскага,230005,53.7135136,23.8391530
113/3,вуліца Дзяржынскага,230005,53.7052891,23.8415332
59,вуліца Белыя Росы,230021,53.7132685,23.8609374
17,вуліца Дамброўскага,230009,53.7013182,23.8006042
39,Аульская вуліца,230003,53.6680286,23.9589919
48,Сакольская вуліца,230001,53.6495930,23.7943103
41,вуліца Агінскага,230017,53.6213413,23.8045475
19,Зацішная вуліца,230014,53.7535447,23.8586392
21,Зацішная вуліца,230014,53.7533482,23.8585956
9,вуліца Забалоцкага,230014,53.7523222,23.8512031
96,вуліца Ражанскага,230014,53.7503027,23.8536683
88,вуліца Ражанскага,230014,53.7492337,23.8509971
86,вуліца Ражанскага,230014,53.7487728,23.8499271
9,Малінавая вуліца,230014,53.7555559,23.8365525
9,вуліца Багуцкага,230002,53.7115955,23.8024535
9Б,вуліца Шчорса,230025,53.6782718,23.8499940
29,вуліца Крамко,230019,53.6364065,23.8614174
60,вуліца Карскага,230003,53.6664036,23.8934659
60/1,вуліца Карскага,230003,53.6663243,23.8929611
37,вуліца Белыя Росы,230021,53.7150455,23.8536719
39,вуліца Белыя Росы,230021,53.7150447,23.8544629
121/1,вуліца Дзяржынскага,230005,53.7043254,23.8445349
24,вуліца Курчатава,230005,53.7062518,23.8439191
18А,вуліца Напалеона Орды,230018,53.6191209,23.8079249
8,вуліца Садакова,230028,53.6283321,23.8536793
59,вуліца Фурсенкі,230028,53.6248332,23.8562331
46,вуліца Лялевеля,230001,53.6660244,23.8138421
1,вуліца Сухамбаева,230029,53.6949944,23.8165495
92,вуліца Урублеўскага,230002,53.7078442,23.8007538
40,вуліца Пушкіна,230012,53.6963408,23.8269492
48,вуліца 17 Верасня,230023,53.6901354,23.8441769
69,Пралетарская вуліца,230003,53.6847191,23.8558991
23,вуліца Міхася Васілька,230023,53.6817314,23.8390034
18,вуліца Белуша,230025,53.6730438,23.8481542
2,Бярозавая вуліца,230003,53.6780922,23.8550390
15,вуліца Міру,230024,53.6743792,23.8083253
10Б,вуліца Болдзіна,230009,53.6931242,23.8047642
42А,вуліца Элізы Ажэшкі,230023,53.6871420,23.8443602
24,вуліца Напалеона Орды,230017,53.6186488,23.8066356
50А,вуліца Таўлая,230021,53.7078793,23.8585030
22/1,вуліца Брыкеля,230005,53.7014354,23.8507974
22/2,вуліца Брыкеля,230005,53.7013393,23.8517365
22/3,вуліца Брыкеля,230005,53.7012459,23.8526660
21,Збажовая вуліца,230026,53.6682249,23.8348039
22,вуліца 1 Мая,230023,53.6880370,23.8405771
23,Айчынная вуліца,230018,53.6186622,23.8200662
25,Айчынная вуліца,230018,53.6182474,23.8201215
27,Айчынная вуліца,230018,53.6178391,23.8201518
24,вуліца Францішка Багушэвіча,230018,53.6154555,23.8137269
7,вуліца Славінскага,230026,53.6480471,23.8289758
70,вуліца Таўлая,230021,53.7135922,23.8576451
30А,вуліца Шчорса,230003,53.6813342,23.8574579
53,бульвар Ленінскага Камсамола,230030,53.6961117,23.7926318
5,вуліца Ліможа,230005,53.7030038,23.8524418
2,вуліца Віктара Саяпіна,230021,53.7186568,23.8631769
57,Асфальтавая вуліца,230021,53.7180522,23.8637800
61,Асфальтавая вуліца,230021,53.7177187,23.8656208
2А,вуліца Віктара Саяпіна,230021,53.7190479,23.8629935
59,Асфальтавая вуліца,230021,53.7179112,23.8642962
4А,вуліца Віктара Саяпіна,230021,53.7197947,23.8642142
4,вуліца Віктара Саяпіна,230021,53.7196559,23.8635434
63,Асфальтавая вуліца,230021,53.7174183,23.8670180
63А,Асфальтавая вуліца,230021,53.7178088,23.8673405
2,вуліца Карскага,230003,53.6899108,23.8799793
33,бульвар Ленінскага Камсамола,230010,53.6987126,23.8050369
33,вуліца Белыя Росы,230021,53.7144928,23.8513909
4Б,вуліца Віктара Саяпіна,230021,53.7195320,23.8650512
61А,Асфальтавая вуліца,230021,53.7186103,23.8662091
53,праспект Янкі Купалы,230026,53.6562447,23.8421570
31,Айчынная вуліца,230026,53.6169746,23.8198630
16А,вуліца Воінаў-Інтэрнацыяналістаў,230025,53.6657366,23.8561006
113Б,вуліца Дзяржынскага,230005,53.7054341,23.8412242
16,вуліца Крамко,230019,53.6372783,23.8596218
21,вуліца 1 Мая,230023,53.6876413,23.8457898
2,вуліца Паповіча,230024,53.6740324,23.8058697
12,вуліца Віктара Глухава,230007,53.7210396,23.8742168
101,вуліца Дзяржынскага,230005,53.7029778,23.8408383
6,вуліца Віктара Саяпіна,230007,53.7206298,23.8641795
125,вуліца Максіма Горкага,230005,53.7199660,23.8075489
60/2,вуліца Карскага,230003,53.6668416,23.8934374
16,вуліца Міхася Васілька,230025,53.6805743,23.8374206
34/1,вуліца Пестрака,230026,53.6534523,23.8393241
5,вуліца Ліможа,230005,53.7029603,23.8525242
92,вуліца Урублеўскага,230002,53.7074346,23.8007227
34/1,вуліца Пестрака,230026,53.6537088,23.8389969
55,праспект Янкі Купалы,230026,53.6537762,23.8416558
32Б,вуліца Ліможа,230021,53.7114727,23.8487846
