House number,Street name,Postal code,Latitude,Longitude
135,Соборний проспект,69005,47.8390256,35.1372249
59,Наукового Містечка вулиця,69017,47.8377901,35.0778713
27-А,Ювілейний проспект,69097,47.8167727,35.0476306
12,бульвар Шевченка,69037,47.8494759,35.1137145
16,бульвар Шевченка,69037,47.8482656,35.1123470
15-Б,Новокузнецька вулиця,69118,47.7833130,35.1794323
9,Лермонтова вулиця,69035,47.8405599,35.1283246
4,Ладозька вулиця,69096,47.8853608,35.0718290
30,Чумаченка вулиця,69104,47.7788990,35.2224137
158,Соборний проспект,69005,47.8374236,35.1429880
72,вулиця Незалежної України,69035,47.8460783,35.1309959
90,вулиця Перемоги,69000,47.8381840,35.1508103
26/67а,Центральний бульвар,69000,47.8334311,35.1319214
74,Південне шосе,69008,47.8586935,35.1622870
22,Центральний бульвар,69000,47.8349415,35.1338939
11,Павлокічкаська вулиця,69106,47.8851196,35.1663903
241,вулиця Шевченка,69007,47.8450303,35.1966215
2,Рекордна вулиця,69032,47.8635241,35.1057814
49/10,вулиця Чумаченка,69104,47.7799640,35.2069730
6,Цитрусова вулиця,69071,47.8400213,35.2158955
17,Чумаченка,69061,47.7829334,35.2290543
41,Лізи Чайкіної вулиця,69067,47.8937204,35.1453393
1,вулиця Аваліані,69000,47.8281042,35.1851595
94,Фортечна вулиця,69000,47.8286584,35.1856017
40-Б,Чарівна вулиця,69071,47.8370610,35.2087904
105-А,вулиця Перемоги,69005,47.8313931,35.1384799
7а,Ореховское шоссе,69050,47.7933071,35.2368051
155,Соборний проспект,69035,47.8475120,35.1227512
9,Маршала Судця вулиця,69124,47.8285932,35.0204345
14,Лермонтова вулиця,69035,47.8421415,35.1287848
135,Соборний проспект,69000,47.8395527,35.1373100
30,Чумаченка вулиця,69104,47.7789509,35.2220926
121в,Космічна вулиця,69002,47.7887036,35.2244298
56,Автозаводська вулиця,69118,47.7725673,35.1917465
5,Фортечна вулиця,69002,47.8190672,35.1642580
31,Благовіщенська вулиця,69063,47.8102232,35.1821374
3,Узбекистанська вулиця,69000,47.8780941,35.0249329
37-А,Товариська вулиця,69121,47.8888168,35.0633202
6,проспект Металургів,69006,47.8610404,35.1068506
65-В,вулиця Сергія Синенка,69041,47.8627102,35.0306037
47,вулиця Карпенка-Карого,69000,47.8316994,35.2390137
32а к52,Поштова вулиця,69063,47.8131103,35.1795818
1,Глазунова вулиця,69106,47.8867989,35.1692634
12,Глазунова вулиця,69106,47.8863863,35.1664011
12,Глазунова вулиця,69106,47.8864135,35.1664905
12,Глазунова вулиця,69106,47.8864286,35.1665490
2,Глазунова вулиця,69106,47.8870669,35.1687798
9,Глазунова вулиця,69106,47.8860879,35.1664739
16а,Авраменка вулиця,69120,47.8547807,35.2331149
13,ОСОК «Молочник»,69013,47.8411255,35.2519056
13,Натальївська дорога,69013,47.8410711,35.2518944
13,Натальївська дорога,69013,47.8407677,35.2517155
75,улица Победы,69005,47.8361168,35.1256523
75,улица Победы,69005,47.8356743,35.1255035
3,проспект Маяковського,69035,47.8436992,35.1274776
9,вулиця Якова Новицького,69005,47.8402659,35.1338538
2,Червонополянська вулиця,69034,47.8541092,35.1959808
180,Соборний проспект,69035,47.8424408,35.1337817
180,Соборний проспект,69035,47.8424130,35.1337409
25,Чумаченка вулиця,69104,47.7778184,35.2227104
38,Сковороди вулиця,69089,47.8728840,35.0074487
49,вулиця Трансформаторників,69065,47.8833958,35.0484706
49,вулиця Трансформаторників,69065,47.8834009,35.0484655
8-А,Олександра Матросова вулиця,69005,47.8460688,35.1450570
24,Лермонтова вулиця,69035,47.8393968,35.1251952
23,Поштова вулиця,69063,47.8086940,35.1845133
6,вулиця Святого Миколая,69063,47.8087610,35.1840836
7,вулиця Святого Миколая,69063,47.8082911,35.1838544
26,Каховська вулиця,69096,47.8804352,35.0792916
25,Волгоградська вулиця,69035,47.8504334,35.1348941
66,Соборний проспект,69000,47.8150527,35.1790312
66,Соборний проспект,69000,47.8153872,35.1786718
1,Семафорна вулиця,69095,47.8306714,35.1681431
249,Цегельна вулиця,69092,47.8146330,35.2139883
1,Пантелеймона Куліша вулиця,69089,47.8762935,35.0065339
21,Лермонтова вулиця,69005,47.8383482,35.1269615
21,Лермонтова вулиця,69005,47.8383623,35.1269362
21,Лермонтова вулиця,69005,47.8383344,35.1269865
4 кв36,Фортечна вулиця,69061,47.8182292,35.1644134
21,Центральний бульвар,69005,47.8326449,35.1338620
21,Центральний бульвар,69005,47.8326685,35.1338835
21,Центральний бульвар,69005,47.8326667,35.1338908
21,Центральний бульвар,69005,47.8326649,35.1338955
21,Центральний бульвар,69005,47.8326636,35.1338995
21,Центральний бульвар,69005,47.8326626,35.1339033
159,Соборний проспект,69035,47.8486449,35.1205230
53,Новокузнецька вулиця,69015,47.7717914,35.1849512
6,вулиця Незалежної України,69006,47.8630136,35.1004121
20,проспект Моторобудівників,69068,47.8134593,35.1948612
12-А,Новокузнецька вулиця,69118,47.7805565,35.1841173
129-Б,Чарівна вулиця,69071,47.8392273,35.2200575
129-Б,Чарівна вулиця,69071,47.8391900,35.2199899
121,Чарівна вулиця,69071,47.8377977,35.2129172
15В,Чумаченко,69104,47.7814583,35.2346450
2,Сергія Тюленіна вулиця,69000,47.8426639,35.0906619
13,Василя Сергієнка вулиця,69076,47.8206287,35.0371871
30б/6,Чумаченка вулиця,69104,47.7791474,35.2203452
1а / 42,Сєдова вулиця,69035,47.8427613,35.1411115
13,Чубанова,69000,47.8027378,35.1720643
1,Патріотична вулиця,69061,47.8513953,35.1082569
108-А,вулиця Гоголя,69095,47.8258245,35.1728070
36,Оріхівське шосе,69061,47.7882281,35.2710562
51,Соборний проспект,69000,47.8174297,35.1751655
186,Соборний проспект,69035,47.8443335,35.1298543
4,Ладозька вулиця,69096,47.8854239,35.0717300
3,Січі вулиця,69017,47.8354912,35.0793266
3,Ентузіастів вулиця,69097,47.8105067,35.0482990
2,Харчова вулиця,69014,47.8270042,35.2206932
224,Соборний проспект,69063,47.8593576,35.1024330
13,Запорізька вулиця,69002,47.8246478,35.1630005
68/32,вулиця Василя Сергієнка,69061,47.8240393,35.0416148
6,проспект Металургів,69006,47.8612400,35.1063471
40,Каховська вулиця,69000,47.8872310,35.0863691
4,Лермонтова вулиця,69035,47.8451194,35.1321518
58,Патріотична вулиця,69005,47.8383554,35.1312717
21,Чумаченка вулиця,69000,47.7821921,35.2293336
155-А,Чарівна вулиця,69000,47.8435362,35.2287758
1-Г,Базова вулиця,69014,47.8402643,35.2426073
17,Перша Ливарна вулиця,69002,47.8171194,35.1708888
91,Соборний проспект,69095,47.8266056,35.1643533
145,Чарівна вулиця,69071,47.8404634,35.2224879
5,Цитрусова вулиця,69071,47.8390094,35.2136203
121,Чарівна вулиця,69071,47.8378213,35.2134179
3,Центральний бульвар,69005,47.8355671,35.1386202
3,Центральний бульвар,69005,47.8364278,35.1393833
121,Чарівна вулиця,69071,47.8379588,35.2128641
159,Соборний проспект,69035,47.8484860,35.1209183
171,Соборний проспект,69037,47.8521890,35.1142819
155,Соборний проспект,69035,47.8475367,35.1227164
156,Соборний проспект,69005,47.8365774,35.1441027
45,вулиця Перемоги,69061,47.8450320,35.1111923
186,Соборний проспект,69035,47.8448933,35.1295316
26,Історична вулиця,69106,47.8871589,35.1619288
39,Незалежної України,69126,47.8534469,35.1188798
124,Космічна вулиця,69050,47.7857929,35.2325408
21,Чумаченка вулиця,69104,47.7824334,35.2294007
115-Б,вулиця Перемоги,69005,47.8303436,35.1423016
29f,Ювілейний проспект,69076,47.8164042,35.0425367
182,Соборний проспект,69000,47.8427791,35.1327417
5,проспект Металургів,69006,47.8612623,35.1069746
2,Рекордна вулиця,69032,47.8631417,35.1079739
12-А,проспект Металургів,69006,47.8607836,35.1053985
12-А,проспект Металургів,69006,47.8607539,35.1055250
10-А,Антенна вулиця,69000,47.8496631,35.1531021
62,вулиця Незалежної України,69001,47.8509631,35.1221107
119,Космічна вулиця,69000,47.7888692,35.2189139
25,Чумаченка вулиця,69104,47.7776862,35.2227900
30,Чумаченка вулиця,69104,47.7789700,35.2219592
2,Музична вулиця,69083,47.7942447,35.2225468
40,вулиця Чумаченка,69104,47.7810538,35.2063234
15,Полякова вулиця,69098,47.8508061,35.2282599
30,Героїв 93-ї Бригади вулиця,69114,47.8235362,35.0422696
14,вулиця Сталеварів,69035,47.8457819,35.1236895
20,бульвар Шевченка,69018,47.8471944,35.1112237
16,Північно-Кільцева вулиця,69104,47.7833533,35.2238441
16,Північно-Кільцева вулиця,69104,47.7832400,35.2243272
118В,Космічна вулиця,69050,47.7853394,35.2268270
3,Північне шосе,69006,47.8647747,35.1113595
7,вулиця Петра Сагайдачного,69096,47.8840910,35.0729623
42,Хортицьке шосе,69124,47.8351598,35.0108800
20,Рубана вулиця,69124,47.8347935,35.0143089
28,Хортицьке шосе,69124,47.8299547,35.0171840
6а,Дорошенка вулиця,69124,47.8373367,35.0186042
6,Дорошенка вулиця,69124,47.8372703,35.0193914
4,Дорошенка вулиця,69124,47.8365839,35.0189607
8,Дорошенка вулиця,69124,47.8368940,35.0177602
14,Дорошенка вулиця,69124,47.8382718,35.0181707
10,Дорошенка вулиця,69124,47.8376277,35.0176250
14,Рубана вулиця,69124,47.8368019,35.0206535
89,Соборний проспект,69095,47.8259896,35.1647660
107,вулиця Перемоги,69005,47.8314842,35.1399682
149,Соборний проспект,69035,47.8438749,35.1291956
147,Соборний проспект,69000,47.8425740,35.1310361
10-А,Бочарова вулиця,69098,47.8460818,35.2273608
24,Бочарова вулиця,69098,47.8506242,35.2254875
18,Павлокічкаська вулиця,69106,47.8870167,35.1660947
15,Павлокічкаська вулиця,69106,47.8867865,35.1651453
15,Павлокічкаська вулиця,69106,47.8864807,35.1653062
17,Павлокічкаська вулиця,69106,47.8862469,35.1647992
20-Б,Історична вулиця,69106,47.8864249,35.1635614
20-А,Історична вулиця,69106,47.8857559,35.1639678
1,Євпаторійська вулиця,69106,47.8884879,35.1671116
18,Оптимістична вулиця,69106,47.8841378,35.1616379
16,Історична вулиця,69106,47.8844777,35.1645965
13,Павлокічкаська вулиця,69106,47.8849705,35.1654118
14,Історична вулиця,69106,47.8841072,35.1650899
11,Павлокічкаська вулиця,69106,47.8852188,35.1663238
18Б,Історична вулиця,69106,47.8851468,35.1645857
18а,Історична вулиця,69106,47.8849814,35.1639688
14,Оптимістична вулиця,69106,47.8833286,35.1644666
75,вулиця Перемоги,69005,47.8359043,35.1258146
37-А,Товариська вулиця,69121,47.8889601,35.0631288
39,Товариська вулиця,69121,47.8905375,35.0645005
18,Рекордна вулиця,69001,47.8525817,35.1235827
32,Зернова вулиця,69121,47.8892829,35.0618096
36,Зернова вулиця,69121,47.8896720,35.0613346
56/25,Товариська вулиця,69121,47.8882456,35.0647762
26-Г,Рекордна вулиця,69000,47.8502363,35.1277262
42,Зернова вулиця,69121,47.8913779,35.0629782
17,Запорізького Козацтва вулиця,69097,47.8113606,35.0475266
6,Запорізького Козацтва вулиця,69097,47.8096908,35.0528962
13,Запорізького Козацтва вулиця,69097,47.8096948,35.0503677
11,Запорізького Козацтва вулиця,69097,47.8090417,35.0512676
3а,Запорізького Козацтва вулиця,69097,47.8079771,35.0523395
13а,Запорізького Козацтва вулиця,69097,47.8088571,35.0492313
15а,Запорізького Козацтва вулиця,69097,47.8091354,35.0487217
11а,Запорізького Козацтва вулиця,69097,47.8086073,35.0497508
15б,Запорізького Козацтва вулиця,69097,47.8094628,35.0482858
1,Запорізького Козацтва вулиця,69097,47.8070940,35.0531474
3,Ентузіастів вулиця,69097,47.8105427,35.0482188
15,Запорізького Козацтва вулиця,69097,47.8103482,35.0494634
5,Ентузіастів вулиця,69097,47.8098483,35.0473820
10а,Лахтинська вулиця,69076,47.8143686,35.0441666
4,Ентузіастів вулиця,69097,47.8106977,35.0462180
11,Ентузіастів вулиця,69097,47.8090584,35.0457751
10,вулиця Героїв 93-ї Бригади,69114,47.8205020,35.0475186
20,вулиця Василя Сергієнка,69097,47.8068248,35.0448971
20-А,вулиця Василя Сергієнка,69097,47.8063542,35.0444017
14,вулиця Василя Сергієнка,69097,47.8071245,35.0466015
14-А,вулиця Василя Сергієнка,69097,47.8071064,35.0457241
9,вулиця Омельченка,69068,47.8188928,35.1985588
1,Рекордна вулиця,69032,47.8596813,35.1137054
3,14-го Жовтня вулиця,69123,47.8244643,35.0286356
6,Хортицьке шосе,69123,47.8242899,35.0255852
12,Хортицьке шосе,69123,47.8248595,35.0239751
10а,Хортицьке шосе,69123,47.8258788,35.0245400
14,Хортицьке шосе,69123,47.8261201,35.0225632
19,Будівельників бульвар,69123,47.8279712,35.0247304
18,Хортицьке шосе,69123,47.8267216,35.0208387
21а,Будівельників бульвар,69123,47.8289099,35.0251669
26,Маршала Судця вулиця,69123,47.8277137,35.0192079
20,Хортицьке шосе,69123,47.8279244,35.0206098
23,Чумаченка вулиця,69104,47.7786524,35.2263053
40-А,вулиця Володимира Українця,69015,47.7718947,35.1870949
60,Автозаводська вулиця,69015,47.7732392,35.1934795
48,Автозаводська вулиця,69015,47.7758339,35.1909368
54,Автозаводська вулиця,69015,47.7740536,35.1922648
50-А,Автозаводська вулиця,69015,47.7748166,35.1890075
56,Автозаводська вулиця,69015,47.7732220,35.1913276
162-Б,Соборний проспект,69005,47.8391964,35.1425294
2,вулиця Яценка,69057,47.8341994,35.1444333
1-А,вулиця Яценка,69057,47.8365379,35.1473874
186,Соборний проспект,69035,47.8445741,35.1301148
1-А,Гагаріна вулиця,69057,47.8369123,35.1471171
1,Гагаріна вулиця,69057,47.8368212,35.1462385
31,Новокузнецька вулиця,69118,47.7786913,35.1830868
29,Новокузнецька вулиця,69118,47.7794102,35.1827611
44,Автозаводська вулиця,69118,47.7785217,35.1884147
42,Автозаводська вулиця,69118,47.7787147,35.1892447
16-А,Новокузнецька вулиця,69118,47.7800208,35.1844001
27-А,Новокузнецька вулиця,69118,47.7798265,35.1829782
12-А,Новокузнецька вулиця,69118,47.7805621,35.1843454
63,проспект Героїв Національної Гвардії України,69118,47.7754905,35.1764113
67,проспект Героїв Національної Гвардії України,69118,47.7748681,35.1775990
67,проспект Героїв Національної Гвардії України,69118,47.7747144,35.1768008
16,Водограйна вулиця,69118,47.7793684,35.1809071
65,проспект Героїв Національної Гвардії України,69118,47.7754344,35.1771562
65-А,проспект Героїв Національної Гвардії України,69118,47.7759681,35.1788313
27,Новокузнецька вулиця,69118,47.7799892,35.1824552
65,проспект Героїв Національної Гвардії України,69118,47.7758899,35.1774113
65-А,проспект Героїв Національної Гвардії України,69118,47.7761232,35.1781325
59,проспект Героїв Національної Гвардії України,69118,47.7770498,35.1780725
65-Б,проспект Героїв Національної Гвардії України,69118,47.7752385,35.1791618
5,Новокузнецька вулиця,69118,47.7841851,35.1826584
3,Новокузнецька вулиця,69118,47.7848908,35.1822945
41,проспект Героїв Національної Гвардії України,69118,47.7823241,35.1776356
5,Водограйна вулиця,69118,47.7814299,35.1790108
39,проспект Героїв Національної Гвардії України,69118,47.7821199,35.1769454
37,проспект Героїв Національної Гвардії України,69118,47.7816322,35.1766947
31,проспект Героїв Національної Гвардії України,69118,47.7830395,35.1756875
43,проспект Героїв Національної Гвардії України,69118,47.7821877,35.1783549
10,Новокузнецька вулиця,69118,47.7816971,35.1852239
41,вулиця Володимира Українця,69118,47.7743882,35.1821518
5-А,вулиця Володимира Українця,69118,47.7843695,35.1811487
5-Г,вулиця Володимира Українця,69118,47.7846186,35.1804747
12-В,Центральний бульвар,69005,47.8365855,35.1308023
2,проспект Героїв Національної Гвардії України,69118,47.7882007,35.1758741
64,вулиця Жуковського,69061,47.8179572,35.1846761
1,Привокзальна вулиця,69118,47.7909321,35.1798897
1,Привокзальна вулиця,69118,47.7897397,35.1798522
25,бульвар Шевченка,69001,47.8465133,35.1119851
95,вулиця Перемоги,69005,47.8299873,35.1359937
107-Б,вулиця Перемоги,69005,47.8320177,35.1401706
105-А,вулиця Перемоги,69005,47.8315085,35.1384387
103-А,вулиця Перемоги,69005,47.8309615,35.1366035
93-В,вулиця Перемоги,69005,47.8315888,35.1367060
21,Центральний бульвар,69005,47.8322552,35.1339071
107-А,вулиця Перемоги,69005,47.8315975,35.1392865
19,Центральний бульвар,69005,47.8326429,35.1344222
95-Б,вулиця Перемоги,69005,47.8305878,35.1360358
25,Дудикіна вулиця,69065,47.8724472,35.0523705
40,Кияшка вулиця,69065,47.8721375,35.0549537
42,Кияшка вулиця,69065,47.8723417,35.0537461
26-А,Дудикіна вулиця,69065,47.8730086,35.0509531
24-А,Дудикіна вулиця,69065,47.8734898,35.0519402
210-А,Соборний проспект,69037,47.8528241,35.1160345
6,бульвар Шевченка,69037,47.8511938,35.1137751
16,Північно-Кільцева вулиця,69104,47.7832197,35.2244400
16,Північно-Кільцева вулиця,69104,47.7832156,35.2244532
1/12,Трегубова вулиця,69000,47.8668016,35.0546576
71-А,вулиця Сергія Синенка,69041,47.8631799,35.0257312
79а,Сергія Синенка вулиця,69041,47.8603055,35.0293430
65-А,вулиця Сергія Синенка,69041,47.8623075,35.0280394
71,вулиця Сергія Синенка,69041,47.8638045,35.0261697
77,Сергія Синенка вулиця,69041,47.8612502,35.0288743
77а,Сергія Синенка вулиця,69041,47.8610615,35.0272993
67-А,вулиця Сергія Синенка,69041,47.8635106,35.0280005
81,Сергія Синенка вулиця,69041,47.8605639,35.0275220
83,Сергія Синенка вулиця,69041,47.8604974,35.0259423
65,вулиця Сергія Синенка,69041,47.8634062,35.0302324
67,вулиця Сергія Синенка,69041,47.8641924,35.0284693
75,Сергія Синенка вулиця,69041,47.8616064,35.0273086
69-А,вулиця Сергія Синенка,69041,47.8629736,35.0277805
79,Сергія Синенка вулиця,69041,47.8607622,35.0291005
81а,Сергія Синенка вулиця,69041,47.8600340,35.0278198
65-В,вулиця Сергія Синенка,69041,47.8625056,35.0305367
79б,Сергія Синенка вулиця,69041,47.8609021,35.0302322
69,вулиця Сергія Синенка,69041,47.8639977,35.0273287
65-Б,вулиця Сергія Синенка,69041,47.8618009,35.0288005
18,Звенигородська вулиця,69093,47.8853190,35.0093501
12,Звенигородська вулиця,69093,47.8846681,35.0132873
10,Звенигородська вулиця,69093,47.8841407,35.0122944
6,Звенигородська вулиця,69093,47.8843154,35.0142955
5,вулиця Руставі,69093,47.8849135,35.0171985
16,Звенигородська вулиця,69093,47.8846982,35.0111164
17,Академіка Александрова вулиця,69093,47.8866543,35.0078591
18а,Звенигородська вулиця,69093,47.8857374,35.0091965
11а,Академіка Александрова вулиця,69093,47.8856828,35.0108080
9,Академіка Александрова вулиця,69093,47.8858400,35.0119307
20,Звенигородська вулиця,69093,47.8858385,35.0084827
3,Академіка Александрова вулиця,69093,47.8857837,35.0161265
5,Академіка Александрова вулиця,69093,47.8854496,35.0147853
22,Звенигородська вулиця,69093,47.8862580,35.0079426
15,Академіка Александрова вулиця,69093,47.8863908,35.0088154
13,Академіка Александрова вулиця,69093,47.8865003,35.0095620
11,Академіка Александрова вулиця,69093,47.8863614,35.0108529
44а,Хортицьке шосе,69124,47.8367458,35.0102969
14-В,Базарна вулиця,69063,47.8091443,35.1846116
14-А,Базарна вулиця,69063,47.8095598,35.1844543
14-Б,Базарна вулиця,69063,47.8093576,35.1850145
4,Поштова вулиця,69063,47.8080814,35.1876013
18,Водограйна вулиця,69118,47.7802346,35.1817269
26,Соборний проспект,69063,47.8090731,35.1861287
24,Соборний проспект,69063,47.8086205,35.1863911
22,Соборний проспект,69063,47.8081253,35.1864482
38,Соборний проспект,69063,47.8098623,35.1852083
36,Базарна вулиця,69063,47.8094962,35.1856257
41,Соборний проспект,69063,47.8127944,35.1806028
23,Поштова вулиця,69063,47.8086546,35.1844482
63,проспект Героїв Національної Гвардії України,69118,47.7750924,35.1760364
38,Європейська вулиця,69104,47.7762930,35.2141065
12,бульвар Шевченка,69037,47.8494017,35.1135891
28,вулиця Героїв 93-ї Бригади,69114,47.8236942,35.0426129
30,вулиця Героїв 93-ї Бригади,36114,47.8237340,35.0419334
60,Товариська вулиця,69121,47.8916392,35.0679717
43,Товариська вулиця,69121,47.8916100,35.0660292
41,Товариська вулиця,69121,47.8914475,35.0649582
41-А,Товариська вулиця,69121,47.8912253,35.0647700
35,вулиця Професора Толока,69121,47.8925140,35.0664282
39-А,Зернова вулиця,69121,47.8911777,35.0638837
44,Зернова вулиця,69121,47.8920006,35.0636386
27-А,вулиця Професора Толока,69096,47.8884402,35.0705823
25-А,вулиця Професора Толока,69096,47.8895736,35.0715105
21,вулиця Професора Толока,69096,47.8879735,35.0717415
19,вулиця Професора Толока,69096,47.8876911,35.0727959
29,вулиця Професора Толока,69121,47.8898444,35.0699841
22,вулиця Професора Толока,69096,47.8905194,35.0727166
39,Товариська вулиця,69121,47.8902331,35.0638072
31,вулиця Професора Толока,69121,47.8905992,35.0680527
40-А,Ладозька вулиця,69121,47.8896946,35.0671723
4,Ладозька вулиця,69096,47.8852846,35.0719791
68а,Товариська вулиця,69121,47.8944721,35.0716204
66-А,Товариська вулиця,69121,47.8936229,35.0713594
9/12,Бородинська вулиця,69096,47.8857405,35.0742199
28,вулиця Професора Толока,69121,47.8912863,35.0715984
25,Бородинська вулиця,69096,47.8903136,35.0769851
35,Дніпровські Пороги вулиця,69121,47.8951077,35.0723253
70,Товариська вулиця,69121,47.8952304,35.0709028
22,вулиця Богдана Хмельницького,69066,47.8561823,35.1001670
28-А,вулиця Миколи Корищенка,69014,47.8279308,35.2337139
14-Б,Бочарова вулиця,69098,47.8471028,35.2254291
8-А,Бочарова вулиця,69098,47.8452382,35.2270475
12,Бочарова вулиця,69098,47.8460984,35.2252435
16,Бочарова вулиця,69098,47.8468275,35.2227968
6,Бочарова вулиця,69098,47.8443587,35.2265974
10,Бочарова вулиця,69098,47.8451123,35.2253421
14,Бочарова вулиця,69098,47.8460980,35.2238093
8,Бочарова вулиця,69098,47.8447216,35.2259833
8-Б,Бочарова вулиця,69098,47.8452056,35.2279200
18,Бочарова вулиця,69098,47.8481020,35.2227810
16-А,Бочарова вулиця,69098,47.8479814,35.2242000
7,Бочарова вулиця,69071,47.8442658,35.2231430
14-А,Бочарова вулиця,69098,47.8478289,35.2248905
16-Б,Бочарова вулиця,69098,47.8480316,35.2234840
12-А,Бочарова вулиця,69098,47.8465791,35.2263785
20,вулиця Пархоменка,69098,47.8482595,35.2271489
20-А,вулиця Пархоменка,69098,47.8488202,35.2262651
24-А,Бочарова вулиця,69098,47.8495987,35.2249983
22,Бочарова вулиця,69098,47.8506050,35.2246974
22-А,Бочарова вулиця,69098,47.8493719,35.2238493
277-А,вулиця Шевченка,69007,47.8443525,35.2052147
24-Б,Бочарова вулиця,69098,47.8499984,35.2260190
64,вулиця Перемоги,69005,47.8356588,35.1222705
75,Соборний проспект,69002,47.8198002,35.1721607
6,Скіфська вулиця,69057,47.8412379,35.1455578
1-А,Фанатська вулиця,69006,47.8626966,35.1057239
1,Фанатська вулиця,69006,47.8628083,35.1062986
9,Верхня вулиця,69032,47.8548143,35.1024257
5,Фортечна вулиця,69002,47.8192668,35.1646403
4-А,Сєдова вулиця,69035,47.8434238,35.1432604
25-А,вулиця Героїв Крут,69001,47.8486615,35.1058468
17,вулиця Героїв Крут,69001,47.8501111,35.1073972
31,вулиця Героїв Крут,69001,47.8476842,35.1044869
19,вулиця Героїв Крут,69001,47.8499118,35.1067344
26,бульвар Шевченка,69001,47.8455469,35.1088532
9,вулиця Воззʼєднання України,69001,47.8493497,35.1078664
7,вулиця Воззʼєднання України,69001,47.8495757,35.1074130
32,вулиця Воззʼєднання України,69001,47.8470075,35.1097706
130,Гвардійський бульвар,69061,47.8420962,35.1067587
36,Чарівна вулиця,69071,47.8362082,35.2064026
2,Олімпійська вулиця,69104,47.7764099,35.2217506
180,Соборний проспект,69035,47.8424359,35.1337535
44,Європейська вулиця,69104,47.7754852,35.2136086
40,Європейська вулиця,69104,47.7758787,35.2138856
10А,Північно-Кільцева вулиця,69095,47.7842803,35.2206444
9б,Північно-Кільцева вулиця,69095,47.7869373,35.2175123
2,Олімпійська вулиця,69104,47.7765191,35.2225123
14-А,Європейська вулиця,69000,47.7823270,35.2146693
116A,Космічна вулиця,69050,47.7865625,35.2242959
10,Північно-Кільцева вулиця,69095,47.7844146,35.2220364
12,Північно-Кільцева вулиця,69095,47.7842261,35.2230609
124,Космічна вулиця,69117,47.7860562,35.2313851
13Б,Чумаченка вулиця,69104,47.7829203,35.2324809
15в,Чумаченка вулиця,69104,47.7814167,35.2347035
15г,Чумаченка вулиця,69104,47.7809349,35.2360125
23в,Чумаченка вулиця,69104,47.7781361,35.2272457
26б,Чумаченка вулиця,69000,47.7802056,35.2234674
87,Космічна вулиця,69095,47.7904954,35.2151352
89,Космічна вулиця,69095,47.7905589,35.2157472
98,Космічна вулиця,69095,47.7899780,35.2140663
21,Північно-Кільцева вулиця,69059,47.7850661,35.2252498
87,вулиця Жуковського,69095,47.8261344,35.1731988
20,вулиця Стешенка,69015,47.7706495,35.1915841
60,Товариська вулиця,69121,47.8911616,35.0669976
68а,Товариська вулиця,69121,47.8945314,35.0722195
1,Привокзальна вулиця,69118,47.7901980,35.1783036
12,вулиця Героїв 93-ї Бригади,69114,47.8209991,35.0471527
14,вулиця Героїв 93-ї Бригади,69114,47.8210104,35.0464470
16,вулиця Героїв 93-ї Бригади,69114,47.8216785,35.0466644
16,вулиця Козака Бабури,69076,47.8169729,35.0320616
133-Б,Поштова вулиця,69002,47.8229685,35.1653192
90,Святоволодимирівська вулиця,69040,47.7879762,35.1956654
101,Садова вулиця,69040,47.7865651,35.1957199
2,Узбекистанська вулиця,69093,47.8774918,35.0214663
12,Зестафонська вулиця,69093,47.8803415,35.0194022
10,Зестафонська вулиця,69093,47.8796778,35.0203567
22,Зестафонська вулиця,69093,47.8814433,35.0181485
8,Зестафонська вулиця,69093,47.8788822,35.0205045
5,Зестафонська вулиця,69093,47.8791634,35.0188414
3,Зестафонська вулиця,69093,47.8782173,35.0195410
1,Зестафонська вулиця,69093,47.8774818,35.0201290
7,Ентузіастів вулиця,69097,47.8096534,35.0465262
18,Світла вулиця,69097,47.8162291,35.0531648
8-А,Брюллова вулиця,69000,47.8267352,35.2025551
15,Героїв 37-го батальйону вулиця,69089,47.8641983,35.0082829
53,Теплична вулиця,69021,47.8880915,35.2371607
37,вулиця 8 Березня,69068,47.8367916,35.2005633
39,вулиця 8 Березня,69068,47.8369513,35.2005998
35,вулиця 8 Березня,69068,47.8364800,35.2004912
41,вулиця 8 Березня,69068,47.8373211,35.2006605
5-Б,вулиця Володимира Українця,69118,47.7837114,35.1804559
5-В,вулиця Володимира Українця,69118,47.7840966,35.1799693
7-А,Парамонова вулиця,69059,47.7833649,35.2136950
8-А,Європейська вулиця,69104,47.7835557,35.2153481
8A,Європейська вулиця,69104,47.7836026,35.2152506
4-В,вулиця Магара,69059,47.7864001,35.2103284
22-А,Космічна вулиця,69027,47.7968695,35.1988141
32,Лазаретна вулиця,69027,47.7972500,35.1983313
34,Лазаретна вулиця,69027,47.7973327,35.1987523
26-А,Космічна вулиця,69027,47.7984502,35.1969976
24-А,Космічна вулиця,69027,47.7986274,35.1963862
19А,Портова вулиця,69006,47.8661357,35.1064353
19,Портова вулиця,69006,47.8659561,35.1062518
119,Космічна вулиця,69095,47.7893702,35.2177510
85,Космічна вулиця,69095,47.7909163,35.2136656
81,Космічна вулиця,69095,47.7913543,35.2127797
13а,Європейська вулиця,69104,47.7768518,35.2176417
7,Олімпійська вулиця,69104,47.7771313,35.2239826
65,Фортечна вулиця,69002,47.8245652,35.1740800
13В,Чумаченка,69100,47.7807964,35.2321598
7а,Оріхівське шосе,69050,47.7932822,35.2378175
1,Звенигородська вулиця,69093,47.8818644,35.0150715
1,вулиця Руставі,69093,47.8837698,35.0164754
2,Звенигородська вулиця,69093,47.8830447,35.0156201
3,Звенигородська вулиця,69093,47.8826677,35.0132498
5,Звенигородська вулиця,69093,47.8832834,35.0116328
7-А,вулиця Руставі,69093,47.8851381,35.0175421
7,Звенигородська вулиця,69093,47.8838526,35.0100788
8,Звенигородська вулиця,69093,47.8838112,35.0136359
9а,Звенигородська вулиця,69093,47.8837927,35.0076919
14,Ладозька вулиця,69096,47.8858818,35.0727649
18-А,Ладозька вулиця,69096,47.8865304,35.0721116
18,Ладозька вулиця,69096,47.8862011,35.0719428
23,Будівельників бульвар,69123,47.8297560,35.0247586
57,Лізи Чайкіної вулиця,69067,47.8950568,35.1502536
8,Перспективна вулиця,69000,47.8957168,35.1605235
86,Республіканська вулиця,69067,47.8967320,35.1454641
67А,Історична вулиця,69067,47.8968279,35.1546860
42/50,Алмазна вулиця,69000,47.8956038,35.1482824
63,Лізи Чайкіної вулиця,69067,47.8955409,35.1519601
106,Історична вулиця,69067,47.8980555,35.1556631
69,Історична вулиця,69067,47.8975446,35.1551106
4,Тенісна вулиця,69067,47.8952358,35.1494297
73,Історична вулиця,69067,47.8984803,35.1545408
30,Вроцлавська вулиця,69067,47.8964052,35.1507155
67,Історична вулиця,69067,47.8970573,35.1554226
57,Алмазна вулиця,69067,47.8973612,35.1510176
57,Ніжинська вулиця,69067,47.9000120,35.1447082
6,Тенісна вулиця,69067,47.8956297,35.1491939
73,Лізи Чайкіної вулиця,69067,47.8963466,35.1550282
12А,Тенісна вулиця,69067,47.8973051,35.1475775
5,Вроцлавська вулиця,69067,47.8959799,35.1504241
60,Лізи Чайкіної вулиця,69067,47.8942389,35.1512879
3,Вроцлавська вулиця,69067,47.8955729,35.1506373
61,Лізи Чайкіної вулиця,69067,47.8954613,35.1512709
28,Вроцлавська вулиця,69067,47.8959491,35.1509824
73А,Історична вулиця,69067,47.8988068,35.1538566
7,Вроцлавська вулиця,69067,47.8963654,35.1502136
3,Ракушечний провулок,69067,47.8966576,35.1519129
59,Ніжинська вулиця,69067,47.9004111,35.1462894
38,вулиця Добровольчих батальйонів,69067,47.8889700,35.1526355
15,Тенісна вулиця,69067,47.8974210,35.1463998
67,Алмазна вулиця,69067,47.8979958,35.1534320
51,Перспективна вулиця,69000,47.8947614,35.1615043
65А,Лізи Чайкіної вулиця,69067,47.8964445,35.1525592
65,Історична вулиця,69067,47.8966018,35.1556425
71,Історична вулиця,69067,47.8979230,35.1547216
59,Лізи Чайкіної вулиця,69067,47.8952180,35.1507508
54,Алмазна вулиця,69067,47.8976015,35.1537747
52,Алмазна вулиця,69067,47.8970553,35.1515202
11А,Тенісна вулиця,69067,47.8971360,35.1469340
65,Лізи Чайкіної вулиця,69067,47.8957642,35.1526633
92,Республіканська вулиця,69067,47.8978362,35.1445065
32,Вроцлавська вулиця,69067,47.8968395,35.1506409
55,Лізи Чайкіної вулиця,69067,47.8949151,35.1497364
64,Ніжинська вулиця,69067,47.8991265,35.1436869
40,Ніжинська вулиця,69067,47.8971696,35.1381494
37-В,Історична вулиця,69009,47.8892952,35.1594797
37-А,Історична вулиця,69009,47.8883407,35.1600620
37-Б,Історична вулиця,69009,47.8888386,35.1597568
9,Павлокічкаська вулиця,69106,47.8837461,35.1668114
96,Республіканська вулиця,69067,47.8986596,35.1440000
1,Ракушечний провулок,69067,47.8969657,35.1529259
94,Республіканська вулиця,69067,47.8982642,35.1442469
22,Історична вулиця,69106,47.8872858,35.1625349
14,Миру,69000,47.8468795,35.1196157
33,вулиця Леоніда Жаботинського,69035,47.8437074,35.1252647
25,бульвар Шевченка,69001,47.8469155,35.1128450
8-Б,проспект Металургів,69032,47.8607554,35.1066648
9-А,Рекордна вулиця,69032,47.8606158,35.1090771
13В,Портова вулиця,69006,47.8654682,35.1061998
3-А,Північне шосе,69006,47.8652111,35.1119928
5,Північне шосе,69005,47.8656692,35.1111472
6-А,Рекордна вулиця,69006,47.8621512,35.1068384
4,вулиця Миру,69019,47.8519248,35.1257102
5а,Північне шосе,69006,47.8661660,35.1108166
3-В,Північне шосе,69006,47.8657809,35.1102443
3-Б,Північне шосе,69006,47.8651312,35.1109728
48,Українська вулиця,69095,47.8304646,35.1662364
15,Братська вулиця,69069,47.8757018,35.0430456
15,Братська вулиця,69069,47.8756110,35.0429054
118В,Космічна вулиця,69000,47.7851651,35.2272186
36/2,Кияшка вулиця,69065,47.8715511,35.0591900
15,вулиця Жуковського,69000,47.8100183,35.1918324
107,Академіка Амосова вулиця,69063,47.8103861,35.1771954
70-Б,вулиця Жуковського,69002,47.8243531,35.1773467
27,Шкільна вулиця,69002,47.8191141,35.1676360
182,Кругова вулиця,69068,47.8178827,35.1879919
102,Кругова вулиця,69068,47.8188300,35.1878278
103,Кругова вулиця,69068,47.8180653,35.1883888
73,Кругова вулиця,69068,47.8188990,35.1890049
1,Семафорна вулиця,69095,47.8306759,35.1681579
40-А,вулиця Віктора Духовченка,69000,47.8454007,35.1953281
241,вулиця Шевченка,69007,47.8451228,35.1965942
3,вулиця Аваліані,69000,47.8277949,35.1862593
85,Поштова вулиця,69002,47.8182766,35.1728056
2,Академіка Климова вулиця,69068,47.8147919,35.1932130
12,Богдана Завади вулиця,69120,47.8576787,35.2376189
118в,Космічна вулиця,69050,47.7851350,35.2270135
17,Харчова вулиця,69014,47.8292250,35.2222792
30,Волзька вулиця,69014,47.8308094,35.2242145
35,Харчова вулиця,69014,47.8297790,35.2234776
14,вулиця Карпенка-Карого,69014,47.8331477,35.2197858
2,Вітчизняний бульвар,69014,47.8290160,35.2202070
2,Вітчизняний бульвар,69014,47.8294869,35.2200389
5,Окружна вулиця,69014,47.8294653,35.2208390
1,Куликовська вулиця,69014,47.8295700,35.2209024
8,Харчова вулиця,69014,47.8285664,35.2207782
35,вулиця Олексія Поради,69014,47.8280604,35.2218344
37,вулиця Олексія Поради,69014,47.8278895,35.2223471
39,вулиця Олексія Поради,69014,47.8279985,35.2230323
43,вулиця Олексія Поради,69014,47.8275225,35.2235000
41,вулиця Олексія Поради,69014,47.8276116,35.2242688
16,Вітчизняний бульвар,69014,47.8317510,35.2197933
20-А,Вітчизняний бульвар,69014,47.8323459,35.2196431
15,Вітчизняний бульвар,69014,47.8327254,35.2187570
27,Куликовська вулиця,69014,47.8322500,35.2203502
15,Харчова вулиця,69014,47.8286412,35.2215170
2,Портова вулиця,69006,47.8658418,35.1058484
17,вулиця Карпенка-Карого,69014,47.8337868,35.2230292
7,вулиця Карпенка-Карого,69014,47.8335382,35.2197187
5-А,вулиця Карпенка-Карого,69014,47.8337669,35.2190791
7-А,вулиця Карпенка-Карого,69014,47.8339268,35.2198463
11-Б,вулиця Карпенка-Карого,69014,47.8343643,35.2206580
2-В,Космічна вулиця,69027,47.8005164,35.1896899
4,Космічна вулиця,69027,47.8004735,35.1900682
2,Харчова вулиця,69014,47.8268952,35.2199313
2,Харчова вулиця,69014,47.8270785,35.2208940
26,Червона вулиця,69068,47.8180568,35.1897072
26,Червона вулиця,69068,47.8184028,35.1895422
42-А,проспект Моторобудівників,69068,47.8229827,35.1981514
35,Возрождения,690014,47.8184583,35.2107277
26,Маршала Судця вулиця,69123,47.8279122,35.0195840
36,Молочна вулиця,69060,47.8080854,35.2374810
152,Новомосковська вулиця,69027,47.8067498,35.2004730
26,Севастопольська вулиця,69092,47.8117072,35.1997078
10,Істоміна вулиця,69000,47.8630293,35.0118352
26,Космічна вулиця,69027,47.7980508,35.1972990
7,Сланцева вулиця,69083,47.8058780,35.2207181
16,Сланцева вулиця,69083,47.8064421,35.2214398
5,Сланцева вулиця,69083,47.8057257,35.2208810
14,Сланцева вулиця,69083,47.8063145,35.2216376
12,Сланцева вулиця,69083,47.8062327,35.2213707
3,Сланцева вулиця,69083,47.8055929,35.2208595
18,Сланцева вулиця,69083,47.8065601,35.2213953
51,Закарпатська вулиця,69083,47.8050559,35.2199630
1,Сланцева вулиця,69083,47.8054715,35.2208649
10,Сланцева вулиця,69083,47.8060838,35.2213630
53,Закарпатська вулиця,69083,47.8049984,35.2201740
1-Б,Сланцева вулиця,69083,47.8051550,35.2205046
17,Сланцева вулиця,69083,47.8067351,35.2210466
13-А,Сланцева вулиця,69083,47.8063917,35.2208487
6,Сланцева вулиця,69083,47.8057909,35.2212732
8,Сланцева вулиця,69083,47.8059406,35.2213199
15,Сланцева вулиця,69083,47.8065002,35.2210135
11,Сланцева вулиця,69083,47.8061092,35.2209352
4,Сланцева вулиця,69083,47.8056857,35.2212885
13,Сланцева вулиця,69083,47.8062375,35.2209487
43,Закарпатська вулиця,69083,47.8051372,35.2189173
47,Закарпатська вулиця,69083,47.8050989,35.2193425
2,Сланцева вулиця,69083,47.8054564,35.2212392
49,Закарпатська вулиця,69083,47.8050735,35.2195685
45,Закарпатська вулиця,69083,47.8052203,35.2190839
9,Сланцева вулиця,69083,47.8059777,35.2208545
6,проспект Металлургов,69006,47.8610803,35.1066627
2,проспект Металургів,69032,47.8617899,35.1076290
1,проспект Металургів,69032,47.8622593,35.1085433
2-Г,проспект Металургів,69032,47.8626740,35.1089767
18,вулиця Стешенка,69015,47.7700354,35.1896327
2,Рекордна вулиця,69006,47.8628984,35.1073487
5,вулиця Кошового,69001,47.8409835,35.1020692
16,Кругова вулиця,69000,47.8303071,35.1861581
4,Антенна вулиця,690054,47.8474913,35.1487139
218-А,Соборний проспект,69000,47.8585246,35.1047116
44-А,Новокузнецька вулиця,69118,47.7714476,35.1882660
114,Олександрівська вулиця,69005,47.8265604,35.1682126
11-А,вулиця Карпенка-Карого,69014,47.8340202,35.2209092
38,Ферросплвна вулиця,69000,47.8546135,35.1290921
38,Ферросплавна вулиця,69000,47.8542028,35.1306341
1,вулиця Миру,69000,47.8511434,35.1276039
38,Ферросплавна вулиця,69000,47.8537473,35.1289977
3,Заводська вулиця,69000,47.8556399,35.1315963
1-А,Діагональна вулиця,69000,47.8580124,35.1325676
54,Південне шосе,69000,47.8556341,35.1329045
38,Ферросплавна вулиця,69000,47.8548363,35.1303678
21,Південне шосе,69000,47.8579041,35.1296571
1,Ферросплавна вулиця,69000,47.8574877,35.1245449
1,Ферросплавна вулиця,69000,47.8583733,35.1252936
12,Південне шосе,69000,47.8602463,35.1209023
13,Південне шосе,69000,47.8601482,35.1202198
14,Парковий бульвар,69000,47.8656796,35.0959549
6-А,Спортивна вулиця,69000,47.8627070,35.0984411
7,Південноукраїнська вулиця,69000-69499,47.8494183,35.1183831
232,Скворцова вулиця,69009,47.8983292,35.1773015
5,Піщана вулиця,69089,47.8644606,35.0199389
50,вулиця Черняховського,69065,47.8825673,35.0562891
6,Учнівська вулиця,69065,47.8814059,35.0563008
6,Барикадна вулиця,69031,47.7638671,35.2083430
125,Космічна вулиця,69050,47.7877434,35.2273954
17,вулиця Миколи Корищенка,69014,47.8294824,35.2339892
5,Привокзальна вулиця,69061,47.7934170,35.1827048
27,Героїв 55-ї бригади вулиця,69068,47.8348479,35.1957869
7,вулиця Володимира Українця,69118,47.7836904,35.1811774
18/30,вулиця Карпенка-Карого,69014,47.8331995,35.2206918
3,Січі вулиця,69017,47.8355117,35.0792895
56,Наукового Містечка вулиця,69017,47.8364853,35.0832698
10,Водограйна вулиця,69118,47.7788876,35.1799340
13,ОСОК «Молочник»,69013,47.8406996,35.2516773
13,ОСОК «Молочник»,69013,47.8407436,35.2516763
13,ОСОК «Молочник»,69013,47.8407354,35.2517126
5-В,улица Базовая,69013,47.8412010,35.2491530
13,ОСОК «Молочник»,69013,47.8408930,35.2517953
104,Республіканська вулиця,69067,47.8998821,35.1432351
102,Республіканська вулиця,69067,47.8997235,35.1433705
106,Республіканська вулиця,69067,47.9000130,35.1431805
108,Республіканська вулиця,69067,47.9001430,35.1430899
110,Республіканська вулиця,69067,47.9002869,35.1430164
112,Республіканська вулиця,69067,47.9004561,35.1430165
114,Республіканська вулиця,69067,47.9005719,35.1428421
116,Республіканська вулиця,69067,47.9007187,35.1428552
118,Республіканська вулиця,69067,47.9008387,35.1427085
120,Республіканська вулиця,69067,47.9010084,35.1425579
107,Республіканська вулиця,69067,47.8996430,35.1428423
109,Республіканська вулиця,69067,47.8997402,35.1427390
111,Республіканська вулиця,69067,47.8998658,35.1427713
113,Республіканська вулиця,69067,47.8999675,35.1426944
115,Республіканська вулиця,69067,47.9000808,35.1426065
117,Республіканська вулиця,69067,47.9002048,35.1425569
119,Республіканська вулиця,69067,47.9003332,35.1424995
121,Республіканська вулиця,69067,47.9005167,35.1423913
123,Республіканська вулиця,69067,47.9006896,35.1423190
125,Республіканська вулиця,69067,47.9009037,35.1421531
9,Річкова вулиця,69067,47.9002948,35.1435933
11,Річкова вулиця,69067,47.9004147,35.1435191
13,Річкова вулиця,69067,47.9005331,35.1434518
15,Річкова вулиця,69067,47.9007051,35.1433488
17,Річкова вулиця,69067,47.9008335,35.1432649
5,Річкова вулиця,69067,47.9000068,35.1437602
51,Ніжинська вулиця,69067,47.8995221,35.1434659
53,Ніжинська вулиця,69067,47.8995749,35.1437126
1,Річкова вулиця,69067,47.8996475,35.1439736
3,Річкова вулиця,69067,47.8998668,35.1438288
7,Річкова вулиця,69067,47.9001247,35.1436650
37,Тенісна вулиця,69067,47.9014659,35.1444060
50,Олександра Невського вулиця,69067,47.9013571,35.1439271
10,Річкова вулиця,69067,47.9010013,35.1436391
12,Річкова вулиця,69067,47.9012280,35.1435130
8,Річкова вулиця,69067,47.9007127,35.1438179
6,Річкова вулиця,69067,47.9004472,35.1439748
4,Річкова вулиця,69067,47.9002016,35.1441191
44,Олександра Невського вулиця,69067,47.9010795,35.1428403
21,Річкова вулиця,69067,47.9011716,35.1430967
19,Річкова вулиця,69067,47.9009857,35.1431683
3-А,улица Базовая,69014,47.8397210,35.2441744
4,Дегтярьова вулиця,69089,47.8741498,35.0086852
13Б,Чумаченка вулиця,69104,47.7834958,35.2322075
57-А,Поштова вулиця,69063,47.8141030,35.1774259
68,Товариська вулиця,69121,47.8948252,35.0708305
60,Дніпровські Пороги вулиця,69096,47.8968572,35.0748265
13-Б,Новокузнецька вулиця,69118,47.7826801,35.1827607
128,Республіканська вулиця,69067,47.9019166,35.1421186
126,Республіканська вулиця,69067,47.9017605,35.1421850
124,Республіканська вулиця,69067,47.9015917,35.1422072
122,Республіканська вулиця,69067,47.9014212,35.1423439
53,Олександра Невського вулиця,69067,47.9019006,35.1440034
51,Олександра Невського вулиця,69067,47.9018280,35.1437575
49,Олександра Невського вулиця,69067,47.9017692,35.1435778
47,Олександра Невського вулиця,69067,47.9017253,35.1434051
45,Олександра Невського вулиця,69067,47.9016831,35.1432105
43,Олександра Невського вулиця,69067,47.9016510,35.1429922
39,Олександра Невського вулиця,69067,47.9015310,35.1426283
41,Олександра Невського вулиця,69067,47.9016193,35.1428463
134,Республіканська вулиця,69067,47.9025278,35.1419593
20,проспект Моторобудівників,69068,47.8133951,35.1951263
55,Запоріжбудівська вулиця,69067,47.8999338,35.1406566
45,Запоріжбудівська вулиця,69067,47.8991347,35.1406231
54,Запоріжбудівська вулиця,69067,47.9001648,35.1419589
48,Запоріжбудівська вулиця,69067,47.8997852,35.1419548
3,Невельського провулок,69067,47.8974951,35.1432466
1,Невельського провулок,69067,47.8973651,35.1433294
7,Невельського провулок,69067,47.8977548,35.1430948
15,Невельського провулок,69067,47.8983554,35.1427162
17,Невельського провулок,69067,47.8985300,35.1426287
19,Невельського провулок,69067,47.8986701,35.1425497
87,Республіканська вулиця,69067,47.8978463,35.1439447
95,Республіканська вулиця,69067,47.8984428,35.1436030
97,Республіканська вулиця,69067,47.8986029,35.1435229
130,Республіканська вулиця,69067,47.9022271,35.1420346
57,Запоріжбудівська вулиця,69067,47.9001291,35.1406442
53,Запоріжбудівська вулиця,69067,47.8997041,35.1406124
49,Запоріжбудівська вулиця,69067,47.8994013,35.1406295
47,Запоріжбудівська вулиця,69067,47.8992570,35.1406339
43,Запоріжбудівська вулиця,69067,47.8989795,35.1406078
41,Запоріжбудівська вулиця,69067,47.8988466,35.1406114
51,Запоріжбудівська вулиця,69067,47.8995409,35.1406161
103,Республіканська вулиця,69067,47.8990913,35.1432631
40,Запоріжбудівська вулиця,69067,47.8990866,35.1419427
38,Олександра Невського вулиця,69067,47.9008470,35.1419645
60,Запоріжбудівська вулиця,69067,47.9005816,35.1419622
58,Запоріжбудівська вулиця,69067,47.9004517,35.1419515
56,Запоріжбудівська вулиця,69067,47.9002988,35.1419783
52,Запоріжбудівська вулиця,69067,47.9000231,35.1419508
50,Запоріжбудівська вулиця,69067,47.8998864,35.1419609
5,Невельського провулок,69067,47.8976167,35.1431749
9,Невельського провулок,69067,47.8978960,35.1429854
11,Невельського провулок,69067,47.8980703,35.1428966
13,Невельського провулок,69067,47.8982115,35.1428051
21,Невельського провулок,69067,47.8988881,35.1424091
81,Олеся Гончара вулиця,69067,47.8974620,35.1436506
83,Олеся Гончара вулиця,69067,47.8975320,35.1439179
85,Олеся Гончара вулиця,69067,47.8975855,35.1441194
89,Республіканська вулиця,69067,47.8980050,35.1438575
91,Республіканська вулиця,69067,47.8981465,35.1437803
93,Республіканська вулиця,69067,47.8982970,35.1436999
62,Ніжинська вулиця,69067,47.8990248,35.1430103
60,Ніжинська вулиця,69067,47.8989711,35.1427769
101,Республіканська вулиця,69067,47.8989025,35.1433563
99,Республіканська вулиця,69067,47.8987458,35.1434215
42,Запоріжбудівська вулиця,69067,47.8994175,35.1419666
44,Запоріжбудівська вулиця,69067,47.8995451,35.1419431
46,Запоріжбудівська вулиця,69067,47.8996549,35.1419518
105,Республіканська вулиця,69067,47.8993818,35.1430699
132,Республіканська вулиця,69067,47.9023751,35.1420480
129-Б,Чарівна вулиця,69071,47.8391897,35.2198741
126б,Космічна вулиця,69117,47.7857193,35.2329298
1а,Запорізького Козацтва вулиця,69097,47.8065527,35.0536006
45,Краєвидна вулиця,69096,47.9322243,35.0934742
40,Алмазна вулиця,69067,47.8960640,35.1478946
1а,Ленська вулиця,96096,47.9098161,35.0936185
69,Алмазна вулиця,69067,47.8981502,35.1540768
24,Карельский провулок,69067,47.8984056,35.1530901
22,Карельский провулок,69067,47.8981660,35.1529601
20,Карельский провулок,69067,47.8982861,35.1526455
18,Карельский провулок,69067,47.8982278,35.1523110
53А,Лізи Чайкіної вулиця,69067,47.8946976,35.1490303
1А,Тенісна вулиця,69067,47.8945146,35.1480715
3А,Тенісна вулиця,69067,47.8947162,35.1479949
5,Тенісна вулиця,69067,47.8954023,35.1474740
5,Тенісна вулиця,69067,47.8954396,35.1474508
5,Тенісна вулиця,69067,47.8954764,35.1474287
40,Ніжинська вулиця,69067,47.8976966,35.1384935
40,Ніжинська вулиця,69067,47.8971514,35.1384878
136,Республіканська вулиця,69067,47.9026768,35.1419719
140,Республіканська вулиця,69067,47.9043335,35.1418580
20,Парамонова вулиця,69061,47.7851282,35.2041667
4-В,вулиця Магара,69059,47.7863789,35.2103517
4а,Північно-Кільцева вулиця,69000,47.7844517,35.2162357
116А,Космічна вулиця,69050,47.7864864,35.2240819
21,Північно-Кільцева вулиця,69059,47.7853051,35.2255458
159-А,вулиця Ігоря Сікорського,69007,47.8496088,35.1985172
91,вулиця Перемоги,69005,47.8314854,35.1340320
7Б,Центральна вулиця,69061,47.8750606,35.2768300
173-А,Соборний проспект,69037,47.8536276,35.1097952
117,Машинна вулиця,69021,47.8694732,35.2103998
117,Машинна вулиця,69021,47.8695429,35.2107564
117,Машинна вулиця,69021,47.8696434,35.2099769
60,Магістральна вулиця,69014,47.8326988,35.2159198
8,проспект Металургів,69006,47.8611568,35.1058938
11,Добролюбова вулиця,69006,47.8601459,35.1031579
67,вулиця Віктора Духовченка,69000,47.8454748,35.1946459
67-А,вулиця Віктора Духовченка,69000,47.8456218,35.1945712
69,вулиця Віктора Духовченка,69000,47.8459058,35.1945359
26б,Чумаченка вулиця,69104,47.7802370,35.2234983
10,вулиця Дмитра Вишневецького,69096,47.8832706,35.0746730
115-Б,вулиця Перемоги,69005,47.8303102,35.1422085
83,Академіка Амосова вулиця,69063,47.8083902,35.1781438
12-В,Центральний бульвар,69005,47.8365855,35.1308023
12-В,Центральний бульвар,69005,47.8365855,35.1308023
23,вулиця Стешенка,69015,47.7725183,35.1923896
7-А,Парамонова вулиця,69059,47.7833484,35.2136938
