House number,Street name,Postal code,Latitude,Longitude
3401,Bromley Lane,80601,39.9733136,-104.7823568
140,Bush Street,80601,39.9844220,-104.8231105
12045,Moline Street,80640,39.9153337,-104.8540633
269,East Bridge Street,80601,39.9870774,-104.8198555
737,South Main Street,80601,39.9750475,-104.8259593
1790,East Bridge Street,80601,39.9864968,-104.8008480
2315,Prairie Center Parkway,80601,39.9525274,-104.7811107
15958,County Road 4,80603,40.0146496,-104.7550807
1610,Prairie Center Parkway,80601,39.9646483,-104.7685781
1072,Prairie Center Parkway,80601,39.9712480,-104.7703710
96,North 50th Avenue,80601,39.9880461,-104.7502507
96,North 50th Avenue,80601,39.9879732,-104.7502496
96,North 50th Avenue,80601,39.9878989,-104.7502496
96,North 50th Avenue,80601,39.9878435,-104.7502480
2700,East Bridge Street,80601,39.9865059,-104.7914117
2730,East Bridge Street,80601,39.9864679,-104.7910389
125,West Bridge Street,80601,39.9873856,-104.8268970
125,West Bridge Street,80601,39.9873486,-104.8265750
125,West Bridge Street,80601,39.9873342,-104.8261430
119,West Bridge Street,80601,39.9871804,-104.8258260
119,West Bridge Street,80601,39.9872877,-104.8258200
119,West Bridge Street,80601,39.9873986,-104.8258120
233,North Main Street,80601,39.9905914,-104.8205000
55,North Kuner Road,80601,39.9876061,-104.8249448
992,South 4th Avenue,80601,39.9698851,-104.8177330
240,West Jessup Street,80601,39.9772974,-104.8256650
1821,East Bridge Street,80601,39.9873585,-104.7996994
79,East Bromley Lane,80601,39.9726913,-104.8225897
21,County Road 27,80603,40.0006691,-104.8172179
119,East Bridge Street,80601,39.9869700,-104.8217200
139,North Main Street,80601,39.9886538,-104.8211080
275,South 4th Avenue,80601,39.9824122,-104.8184526
177,East Bridge Street,80601,39.9870175,-104.8207031
4833,East Bridge Street,80601,39.9873527,-104.7547663
125,West Bridge Street,80601,39.9874495,-104.8268254
13300,Riverdale Road,80602,39.9341412,-104.8731986
356,Longspur Drive,80601,39.9824264,-104.7460619
140,Bush Street,80601,39.9845845,-104.8235123
250,Pavilions Place,80601,39.9826448,-104.8234042
1111,Judicial Center Drive,80601,39.9677886,-104.7650454
1100,Judicial Center Drive,80601,39.9692815,-104.7607557
1000,Judicial Center Drive,80601,39.9713654,-104.7601935
4980,East Bromley Lane,80601,39.9692377,-104.7581984
1150,Prairie Center Parkway,80601,39.9691150,-104.7698070
1600,Prairie Center Parkway,80601,39.9646560,-104.7688915
2440,Buckley Road,80601,39.9517333,-104.7869313
2435,Prairie Center Parkway,80601,39.9517887,-104.7854131
2433,Prairie Center Parkway,80601,39.9519948,-104.7850952
2425,Prairie Center Parkway,80601,39.9528299,-104.7841677
2269,Prairie Center Parkway,80601,39.9553238,-104.7815471
2253,Prairie Center Parkway,80601-7000,39.9556611,-104.7810821
2171,Prairie Center Parkway,80601-7000,39.9563690,-104.7805057
3494,Eagle Boulevard,80601,39.9584014,-104.7793585
2017,Prairie Center Parkway,80601,39.9580979,-104.7775042
2025,Prairie Center Parkway,80601,39.9569335,-104.7780281
2035,Prairie Center Parkway,80601,39.9568521,-104.7769596
2121,Prairie Center Parkway,80601,39.9560774,-104.7770361
2211,Prairie Center Parkway,80601,39.9541024,-104.7791122
2223,Prairie Center Parkway,80601,39.9535637,-104.7799397
2227,Prairie Center Parkway,80601,39.9531097,-104.7799574
2237,Prairie Center Parkway,80601,39.9538199,-104.7803885
2239,Prairie Center Parkway,80601,39.9535585,-104.7807039
2241,Prairie Center Parkway,80601,39.9536822,-104.7810016
2325,Prairie Center Parkway,80601,39.9528879,-104.7814015
2315,Prairie Center Parkway,80601,39.9525948,-104.7809685
2301,Prairie Center Parkway,80601,39.9527128,-104.7803746
1950,Prairie Center Parkway,80601,39.9595247,-104.7717217
2180,Medical Center Drive,80601,39.9605064,-104.7689312
2707,Bromley Lane,80601,39.9728697,-104.7877436
385,East Bromley Lane,80601,39.9728750,-104.8186786
411,East Bromley Lane,80601,39.9727184,-104.8176143
385,East Bromley Lane,80601,39.9728202,-104.8189297
55,West Bromley Lane,80601,39.9725971,-104.8236562
190,West Bromley Lane,80601,39.9713449,-104.8265968
70,West Bromley Lane,80601,39.9715016,-104.8248173
64,West Bromley Lane,80601,39.9718235,-104.8234706
60,West Bromley Lane,80601,39.9695646,-104.8238751
500,East Bromley Lane,80601,39.9704138,-104.8160868
4430,South Adams County Parkway,80601,39.9238425,-104.8126375
3401,Bromley Lane,80601,39.9733025,-104.7823904
12909,East 120th Avenue,80640,39.9159983,-104.8402244
12915,East 120th Avenue,80640,39.9156067,-104.8339784
1600,Prairie Center Parkway,80601,39.9639606,-104.7686877
4880,East Bromley Lane,80601,39.9718677,-104.7560456
500,Cooperative Way,80603,39.9782161,-104.7421206
70,West Bridge Street,80601,39.9865294,-104.8251193
70,West Bridge Street,80601,39.9862323,-104.8251854
327,East Bridge Street,80601,39.9870890,-104.8190460
300,Strong Street,80601,39.9875664,-104.8195568
30,North 4th Avenue,80601,39.9871014,-104.8178430
500,South 4th Avenue,80601,39.9864148,-104.8176428
89,North 6th Avenue,80601,39.9881872,-104.8161295
15190,Brighton Road,80601,39.9719796,-104.8279719
15150,Brighton Road,80601,39.9714812,-104.8280311
15120,Brighton Road,80601,39.9709328,-104.8280672
895,South Kuner Road,80601,39.9726989,-104.8280441
710,Platte River Boulevard,80601,39.9754990,-104.8277157
720,Platte River Boulevard,80601,39.9754485,-104.8285374
893,South Kuner Road,80601,39.9732990,-104.8295112
15151,Brighton Road,80601,39.9714377,-104.8291597
992,Platte River Boulevard,80601,39.9707684,-104.8292537
404,West Bromley Lane,80601,39.9720615,-104.8288118
15040,Brighton Road,80601,39.9693920,-104.8281990
1229,Fulton Avenue,80601,39.9663416,-104.8246893
1095,South 4th Avenue,80601,39.9694662,-104.8196943
180,East Bromley Lane,80601,39.9717696,-104.8213218
167,West Bromley Lane,80601,39.9728514,-104.8252814
962,South 4th Avenue,80601,39.9705658,-104.8178190
992,South 4th Avenue,80601,39.9717285,-104.8178044
410,East Bromley Lane,80601,39.9717135,-104.8174394
490,East Bromley Lane,80601,39.9718522,-104.8167608
550,East Bromley Lane,80601,39.9718734,-104.8160411
570,East Bromley Lane,80601,39.9718295,-104.8157755
1852,East Bromley Lane,80601,39.9710367,-104.8000503
1594,East Bromley Lane,80601,39.9713928,-104.8025618
2801,Purcel Street,80601,39.9764842,-104.7892581
18875,Bromley Lane,80601,39.9762265,-104.7641845
725,South Main Street,80601,39.9760085,-104.8261129
725,South Main Street,80601,39.9758626,-104.8255865
706,South Main Street,80601,39.9757957,-104.8248890
700,South Main Street,80601,39.9759237,-104.8248121
601,South Main Street,80601,39.9772322,-104.8245900
601,South Main Street,80601,39.9772541,-104.8247770
835,South Kuner Road,80601,39.9738541,-104.8281079
55,West Bromley Lane,80601,39.9732656,-104.8235552
100,West Southern Street,80601,39.9791390,-104.8243454
505,South Main Street,80601,39.9790792,-104.8238322
425,South Main Street,80601,39.9805126,-104.8234111
345,South Main Street,80601,39.9807939,-104.8233286
305,Pavilions Place,80601,39.9818660,-104.8239425
59,Bush Street,80601,39.9856185,-104.8231198
15,South Main Street,80601,39.9862159,-104.8220264
75,South Main Street,80601,39.9854335,-104.8221539
174,South Main Street,80601,39.9839450,-104.8219433
130,South Main Street,80601,39.9847880,-104.8217553
60,South Main Street,80601,39.9858024,-104.8214361
103,East Bridge Street,80601,39.9870358,-104.8221775
177,East Bridge Street,80601,39.9870243,-104.8207067
567,East Bromley Lane,80601,39.9727703,-104.8159649
820,South 5th Avenue,80601,39.9735744,-104.8160283
859,South 4th Avenue,80601,39.9733277,-104.8187586
400,South 4th Avenue,80601,39.9788892,-104.8171267
305,South 5th Avenue,80601,39.9813236,-104.8174322
270,South 8th Avenue,80601,39.9815822,-104.8104407
830,East Bridge Street,80601,39.9860026,-104.8118835
879,Jessup Street,80601,39.9784468,-104.8102846
4900,East Bromley Lane,80601,39.9712616,-104.7556427
4040,East Bromley Lane,80601,39.9718153,-104.7698534
4112,East Bromley Lane,80601,39.9719362,-104.7692271
4114,East Bromley Lane,80601,39.9719456,-104.7686533
1111,Judicial Center Drive,80601,39.9689099,-104.7656162
510,South 27th Avenue,80601,39.9782682,-104.7888133
5,South Firehouse Road,80601,39.9863705,-104.7903256
452,Sunshine Way,80601,39.9954227,-104.7663622
4780,East Bromley Lane,80601,39.9719979,-104.7573324
4780,East Bromley Lane,80601,39.9717444,-104.7573461
4780,Bromley Lane,80601,39.9717308,-104.7571129
4740,East Bromley Lane,80601,39.9719789,-104.7579375
2275,Prairie Center Parkway,80601-7000,39.9548987,-104.7819169
1205,South 27th Avenue,80601,39.9679466,-104.7910283
3876,Bromley Lane,80601,39.9719076,-104.7729987
3876,East Bromley Lane,80601,39.9716205,-104.7729882
1605,East Bridge Street,80601,39.9879154,-104.8014573
1795,East Bridge Street,80601,39.9872305,-104.8010939
1821,East Bridge Street,80601,39.9873010,-104.7998659
1351,East Bridge Street,80601,39.9870097,-104.8040002
1505,East Bridge Street,80601,39.9871027,-104.8032154
1454,Myrtle Street,80601,39.9890621,-104.8039634
5191,East Bridge Street,80601,39.9874531,-104.7493212
4103,East Bridge Street,80601,39.9877166,-104.7694430
4103,East Bridge Street,80601,39.9884922,-104.7694797
133,South 27th Avenue,80601,39.9847930,-104.7913529
2350,East Bridge Street,80601,39.9855616,-104.7935010
2210,East Bridge Street,80601,39.9864027,-104.7945006
2380,East Bridge Street,80601,39.9864143,-104.7930182
2150,East Bridge Street,80601,39.9865058,-104.7954859
1850,East Bridge Street,80601,39.9862723,-104.7985391
1929,Egbert Street,80601,39.9839734,-104.7987330
1351,East Bridge Street,80601,39.9872105,-104.8040140
1351,East Bridge Street,80601,39.9870854,-104.8043031
1810,East Bridge Street,80601,39.9865152,-104.8002147
2150,East Bridge Street,80601,39.9862313,-104.7955698
2020,East Bridge Street,80601,39.9864895,-104.7974119
2060,East Bridge Street,80601,39.9864329,-104.7965415
2040,East Bridge Street,80601,39.9864858,-104.7968446
79,East Bromley Lane,80601,39.9727276,-104.8225863
12410,East 136th Avenue,80601,39.9407577,-104.8438151
36,North 50th Avenue,80601,39.9874443,-104.7515394
100,North 50th Avenue,80601,39.9886895,-104.7498869
2700,East Bridge Street,80601,39.9864982,-104.7913453
178,South 6th Avenue,80601,39.9841129,-104.8157666
825,South Kuner Road,80601,39.9742203,-104.8294722
825,South Kuner Road,80601,39.9745247,-104.8292888
825,South Kuner Road,80601,39.9749089,-104.8295078
891,South Kuner Road,80601,39.9735314,-104.8281383
21,South 1st Avenue,80601,39.9864004,-104.8227005
1966,Prairie Center Parkway,80601,39.9585092,-104.7718797
124,West Bridge Street,80601,39.9864642,-104.8266694
126,West Bridge Street,80601,39.9864331,-104.8271252
126,West Bridge Street,80601,39.9864329,-104.8270303
128,West Bridge Street,80601,39.9864469,-104.8272678
479,South 4th Avenue,80601,39.9791502,-104.8183714
124,South 40th Avenue,80601,39.9851414,-104.7704143
920,East Bridge Street,80601,39.9865116,-104.8106984
920,East Bridge Street,80601,39.9863894,-104.8107075
875,East Bridge Street,80601,39.9873002,-104.8117029
855,East Bridge Street,80601,39.9872751,-104.8120622
909,East Bridge Street,80601,39.9871861,-104.8109441
985,East Bridge Street,80601,39.9870500,-104.8104705
1001,East Bridge Street,80601,39.9870859,-104.8098107
1012,East 160th Avenue,80601-2231,39.9864042,-104.8095105
1020,East Bridge Street,80601,39.9865334,-104.8092455
1024,East Bridge Street,80601,39.9864134,-104.8092048
1150,East Bridge Street,80601,39.9865592,-104.8079140
1093,East Bridge Street,80601,39.9870422,-104.8091090
1121,East Bridge Street,80601,39.9871608,-104.8082137
1190,East Bridge Street,80601,39.9864115,-104.8073079
1212,East Bridge Street,80601,39.9864659,-104.8064635
36,South 12th Avenue,80601,39.9861358,-104.8064634
1300,East Bridge Street,80601,39.9865702,-104.8052051
1295,East Bridge Street,80601,39.9871369,-104.8059736
1266,Strong Street,80601,39.9874509,-104.8061438
1245,East Bridge Street,80601,39.9870794,-104.8064076
1205,East Bridge Street,80601,39.9869939,-104.8066575
17,North 12th Avenue,80601,39.9870303,-104.8071679
1181,East Bridge Street,80601,39.9870392,-104.8073491
1135,East Bridge Street,80601,39.9870318,-104.8080001
2204,Medical Center Drive,80601,39.9600614,-104.7694661
2212,Medical Center Drive,80601,39.9597338,-104.7702002
99,North Kuner Road,80601,39.9881422,-104.8245083
108,West Walnut Street,80601,39.9884897,-104.8256414
195,South Kuner Road,80601,39.9843106,-104.8251595
355,West Egbert Street,80601,39.9847899,-104.8267741
200,Great Western Road,80601,39.9901459,-104.8218227
227,North Main Street,80601,39.9901218,-104.8207888
218,North Main Street,80601,39.9895728,-104.8204036
238,North Main Street,80601,39.9901724,-104.8202251
231,North Main Street,80601,39.9903176,-104.8207010
325,Kuner Road,80601,39.9934246,-104.8248847
315,East Bromley Lane,80601,39.9727831,-104.8193355
612,East Bridge Street,80601,39.9864976,-104.8150312
607,East Bridge Street,80601,39.9870319,-104.8150430
12354,County Road 2,80601,40.0006011,-104.8211357
12354,County Road 2,80601,40.0007075,-104.8211234
12465,County Road 2,80603,40.0006525,-104.8205468
199,West Southern Street,80601,39.9802690,-104.8246464
948,Platte River Boulevard,80601,39.9711931,-104.8299523
15110,Brighton Road,80601,39.9703637,-104.8283004
14900,Brighton Road,80601,39.9678985,-104.8287505
14880,Brighton Road,80601,39.9672570,-104.8299574
190,Great Western Road,80601,39.9895600,-104.8219430
385,East Bromley Lane,80601,39.9726395,-104.8186613
435,South 4th Avenue,80601,39.9796693,-104.8185342
1600,East Bridge Street,80601,39.9864785,-104.8021030
1820,East Bridge Street,80601,39.9863830,-104.7997250
1830,East Bridge Street,80601,39.9863635,-104.7992195
68,North 18th Avenue,80601,39.9880940,-104.8001850
21,County Road 27,80603,40.0006666,-104.8170500
455,County Road 2 1/4,80603,40.0035385,-104.8190665
1999,Jennifer Court,80601,39.9979450,-104.7984900
2311,East Bridge Street,80601,39.9875785,-104.7940465
573,South 4th Avenue,80601,39.9777435,-104.8184754
501,South Main Street,80601,39.9794264,-104.8235615
850,East 168th Avenue,80601,39.9998457,-104.8111143
1800,Longs Peak Street,80601,39.9911300,-104.8002475
400,North 19th Avenue,80601,39.9943833,-104.7979650
600,North 19th Avenue,80601,39.9967939,-104.7980801
266,South 5th Avenue,80601,39.9824115,-104.8164485
75,South 13th Avenue,80601,39.9855917,-104.8059246
2025,East Egbert Street,80601,39.9841800,-104.7965425
2220,East Bridge Street,80601,39.9863955,-104.7941425
1895,Egbert Street,80601,39.9840375,-104.7996250
1400,Skeel Street,80601,39.9812840,-104.8048330
401,South 27th Avenue,80601,39.9791720,-104.7905685
90,South 18th Avenue,80601,39.9850121,-104.7998871
141,South 20th Avenue,80601,39.9850550,-104.7984890
2564,East Bridge Street,80601,39.9863776,-104.7921477
235,South 27th Avenue,80601,39.9831035,-104.7911102
15855,East 144th Avenue,80601,39.9584475,-104.8027991
15605,East 144th Avenue,80601,39.9589321,-104.8048776
15650,East 144th Avenue,80601,39.9585621,-104.8049554
12466,County Road 2 1/4,80601,40.0027169,-104.8200695
4242,East Bromley Lane,80601,39.9709468,-104.7681534
3551,Southern Street,80601,39.9805618,-104.7827358
10,Chapel Hill Drive,80601,39.9873910,-104.7723925
88,North 40th Avenue,80601,39.9873580,-104.7702820
19,North 42nd Avenue,80601,39.9872837,-104.7680998
41,North 42nd Avenue,80601,39.9877367,-104.7689472
49,North 42nd Avenue,80601,39.9875773,-104.7689452
29,North 42nd Avenue,80601,39.9874190,-104.7689465
21,North 42nd Avenue,80601,39.9872903,-104.7689420
340,South 45th Avenue,80601,39.9826925,-104.7602280
13,Homestead Way,80601,39.9874818,-104.7648246
580,North 45th Avenue,80601,39.9981755,-104.7614505
530,North 45th Avenue,80601,39.9968285,-104.7614565
4410,Oxbow Drive,80601,39.9982406,-104.7636808
4430,Oxbow Drive,80601,39.9982426,-104.7632864
4450,Oxbow Drive,80601,39.9982538,-104.7629525
4415,Horseshoe Place,80601,39.9979585,-104.7635315
4435,Horseshoe Place,80601,39.9979440,-104.7631865
4455,Horseshoe Place,80601,39.9979480,-104.7627830
4470,Oxbow Drive,80601,39.9982390,-104.7625710
4475,Horseshoe Place,80601,39.9979460,-104.7624560
4490,Oxbow Drive,80601,39.9982435,-104.7622570
4495,Horseshoe Place,80601,39.9979545,-104.7621035
525,Grain Court,80601,39.9967079,-104.7610766
535,Grain Court,80601,39.9970337,-104.7610472
540,North 45th Avenue,80601,39.9971100,-104.7614377
545,Grain Court,80601,39.9973640,-104.7610579
550,North 45th Avenue,80601,39.9973944,-104.7614641
547,North 45th Avenue,80601,39.9973033,-104.7621243
555,Grain Court,80601,39.9976791,-104.7610749
565,Grain Court,80601,39.9980161,-104.7610653
575,Grain Court,80601,39.9982108,-104.7610144
560,North 45th Avenue,80601,39.9976585,-104.7614439
570,North 45th Avenue,80601,39.9979167,-104.7614341
552,Daylight Court,80601,39.9975275,-104.7625110
542,Daylight Court,80601,39.9972775,-104.7625235
532,Daylight Court,80601,39.9970275,-104.7625015
522,Daylight Court,80601,39.9967290,-104.7625100
527,North 45th Avenue,80601,39.9967730,-104.7621290
537,North 45th Avenue,80601,39.9970480,-104.7621085
557,North 45th Avenue,80601,39.9975515,-104.7621005
5043,East Bridge Street,80601,39.9872547,-104.7508615
5127,East Bridge Street,80601,39.9873216,-104.7501509
2133,Prairie Center Parkway,80601,39.9557770,-104.7772836
2555,Prairie Center Parkway,80601,39.9494842,-104.7863566
3128,Eagle Boulevard,80601,39.9572093,-104.7849245
2287,Prairie Center Parkway,80601,39.9546020,-104.7821888
2021,Prairie Center Parkway,80601,39.9575708,-104.7769818
189,South 50th Avenue,80601,39.9847695,-104.7529647
163,South 50th Avenue,80601,39.9852382,-104.7528895
189,South 50th Avenue,80601,39.9847807,-104.7528224
4900,East Bridge Street,80601,39.9862816,-104.7541451
4900,East Bridge Street,80601,39.9865815,-104.7541562
4850,East Bridge Street,80601,39.9865727,-104.7546795
414,Mount Lincoln Street,80601,39.9827225,-104.7628960
356,Longspur Drive,80601,39.9813690,-104.7442423
15559,East 168th Avenue,80603,40.0011820,-104.7624255
4951,East Bridge Street,80601,39.9873701,-104.7539397
4951,East Bridge Street,80601,39.9873863,-104.7535585
4765,East Bridge Street,80601,39.9872993,-104.7555224
13,North 50th Avenue,80601,39.9873898,-104.7529320
20660,East Frontage Road,80603,39.9756194,-104.7447415
