House number,Street name,Postal code,Latitude,Longitude
4000,E Quincy Ave,80113,39.6338767,-104.9419247
3600,South Clarkson Street,80113,39.6498609,-104.9777746
4500,East Hampden Avenue,80113,39.6524105,-104.9329780
4500,East Hampden Avenue,80113,39.6521441,-104.9335277
1400,East Hampden Avenue,80113,39.6528709,-104.9708134
1400,East Hampden Avenue,80113,39.6526987,-104.9710128
1400,East Hampden Avenue,80113,39.6529700,-104.9707030
1400,East Hampden Avenue,80113,39.6527570,-104.9709510
1400,East Hampden Avenue,80113,39.6527975,-104.9708965
4125,South University Boulevard,80113,39.6434187,-104.9675561
3501,South Colorado Boulevard,80113,39.6522428,-104.9415321
3600,South Clarkson Street,80113,39.6508939,-104.9768820
3600,South Clarkson Street,80113,39.6499060,-104.9778118
4545,South University Boulevard,80113,39.6335141,-104.9610979
6190,East Quincy Avenue,80111,39.6378493,-104.9173042
3940,South Bellaire Street,80113,39.6448879,-104.9371682
3920,South Bellaire Street,80113,39.6452434,-104.9371815
4300,East Mansfield Avenue,80113,39.6455787,-104.9371220
4021,South Bellaire Street,80113,39.6433499,-104.9377408
4001,South Bellaire Street,80113,39.6437047,-104.9377339
3961,South Bellaire Street,80113,39.6443569,-104.9377238
3941,South Bellaire Street,80113,39.6447385,-104.9377209
3921,South Bellaire Street,80113,39.6451113,-104.9377468
3901,South Bellaire Street,80113,39.6455213,-104.9377085
4000,South Ash Street,80113,39.6442907,-104.9385267
3960,South Colorado Boulevard,80113,39.6444065,-104.9399830
3920,South Ash Street,80113,39.6451182,-104.9382367
3900,South Ash Street,80113,39.6455176,-104.9382361
4100,East Mansfield Avenue,80113,39.6452874,-104.9389342
3900,South Colorado Boulevard,80113,39.6453256,-104.9398813
4021,South Dexter Street,80113,39.6434867,-104.9333562
3912,South Cherry Street,80113,39.6452499,-104.9338915
3921,South Dexter Street,80113,39.6452223,-104.9333333
4020,South Cherry Street,80113,39.6435536,-104.9339167
3981,South Dexter Street,80113,39.6442016,-104.9333776
3960,South Cherry Street,80113,39.6445591,-104.9338844
4001,South Dexter Street,80113,39.6438429,-104.9334073
3980,South Cherry Street,80113,39.6442214,-104.9338844
3900,South Cherry Street,80113,39.6455598,-104.9339010
3961,South Dexter Street,80113,39.6445408,-104.9333618
3941,South Dexter Street,80113,39.6448809,-104.9333568
3901,South Dexter Street,80113,39.6455735,-104.9333854
4000,South Cherry Street,80113,39.6438825,-104.9339094
4040,South Cherry Street,80113,39.6431932,-104.9339152
4060,South Cherry Street,80113,39.6428399,-104.9339503
4085,South Dexter Street,80113,39.6424772,-104.9334277
4041,South Dexter Street,80113,39.6431400,-104.9333886
4080,South Cherry Street,80113,39.6424587,-104.9339237
4061,South Dexter Street,80113,39.6428022,-104.9334257
4720,East Oxford Avenue,80113,39.6418860,-104.9331941
4700,East Oxford Avenue,80113,39.6419670,-104.9336303
4740,East Oxford Avenue,80113,39.6419983,-104.9328450
4620,East Oxford Avenue,80113,39.6419793,-104.9339854
4450,East Oxford Place,80113,39.6413270,-104.9357426
4500,East Oxford Place,80113,39.6413254,-104.9353171
4600,East Oxford Place,80113,39.6413837,-104.9344956
4400,East Oxford Place,80113,39.6413371,-104.9363498
4550,East Oxford Place,80113,39.6413442,-104.9349067
3941,South Cherry Street,80113,39.6449389,-104.9344884
4121,South Cherry Street,80113,39.6419579,-104.9346125
4081,South Cherry Street,80113,39.6425876,-104.9345896
3925,South Cherry Street,80113,39.6453048,-104.9345170
4101,South Cherry Street,80113,39.6422697,-104.9345355
4021,South Cherry Street,80113,39.6436017,-104.9345429
3955,South Cherry Street,80113,39.6445928,-104.9344898
4061,South Cherry Street,80113,39.6429284,-104.9345574
4100,South Clermont Street,80113,39.6421358,-104.9350850
3920,South Clermont Street,80113,39.6452593,-104.9350374
4041,South Cherry Street,80113,39.6432608,-104.9345259
4120,South Clermont Street,80113,39.6417978,-104.9350941
3950,South Clermont Street,80113,39.6448726,-104.9350093
3900,South Clermont Street,80113,39.6455478,-104.9350381
4060,South Clermont Street,80113,39.6428582,-104.9350602
3975,South Cherry Street,80113,39.6442952,-104.9345213
4090,South Clermont Street,80113,39.6424934,-104.9350609
4000,South Clermont Street,80113,39.6437767,-104.9350470
3901,South Cherry Street,80113,39.6455834,-104.9345409
4030,South Clermont Street,80113,39.6433411,-104.9350515
4001,South Cherry Street,80113,39.6439381,-104.9345299
3981,South Clermont Street,80113,39.6441361,-104.9356203
3921,South Clermont Street,80113,39.6452566,-104.9355927
3901,South Clermont Street,80113,39.6455820,-104.9355973
3960,South Birch Street,80113,39.6442941,-104.9361485
3940,South Birch Street,80113,39.6446802,-104.9360880
3961,South Clermont Street,80113,39.6444719,-104.9356168
3980,South Birch Street,80113,39.6439822,-104.9361315
3941,South Clermont Street,80113,39.6448594,-104.9355951
3900,South Birch Street,80113,39.6455162,-104.9360407
3920,South Birch Street,80113,39.6451524,-104.9360991
4000,South Birch Street,80113,39.6436234,-104.9361445
4040,South Birch Street,80113,39.6428691,-104.9361491
4020,South Birch Street,80113,39.6432617,-104.9361248
4041,South Clermont Street,80113,39.6430322,-104.9356202
4001,South Clermont Street,80113,39.6437646,-104.9356253
4021,South Clermont Street,80113,39.6434045,-104.9356018
4061,South Clermont Street,80113,39.6426927,-104.9356153
4060,South Birch Street,80113,39.6424995,-104.9361513
4121,South Clermont Street,80113,39.6418168,-104.9356447
4100,South Birch Street,80113,39.6420957,-104.9361408
4081,South Clermont Street,80113,39.6422230,-104.9356538
4120,South Birch Street,80113,39.6417953,-104.9361579
4121,South Birch Street,80113,39.6418091,-104.9367193
4081,South Birch Street,80113,39.6421843,-104.9367086
4120,South Bellaire Street,80113,39.6419934,-104.9371600
4100,South Bellaire Street,80113,39.6423403,-104.9371831
4061,South Birch Street,80113,39.6425786,-104.9367190
4060,South Bellaire Street,80113,39.6426608,-104.9372462
4021,South Birch Street,80113,39.6433608,-104.9366543
4041,South Birch Street,80113,39.6429902,-104.9366997
4040,South Bellaire Street,80113,39.6430428,-104.9372287
4020,South Bellaire Street,80113,39.6434330,-104.9372323
4001,South Birch Street,80113,39.6436494,-104.9366791
3981,South Birch Street,80113,39.6440384,-104.9366909
4000,South Bellaire Street,80113,39.6437968,-104.9372182
3980,South Bellaire Street,80113,39.6441361,-104.9371841
3961,South Birch Street,80113,39.6444048,-104.9366600
3960,South Bellaire Street,80113,39.6445310,-104.9371651
3941,South Birch Street,80113,39.6448140,-104.9366653
3921,South Birch Street,80113,39.6452200,-104.9366417
3901,South Birch Street,80113,39.6455479,-104.9367094
4240,South Bellaire Circle,80113,39.6392455,-104.9356737
4205,South Bellaire Circle,80113,39.6394909,-104.9363969
4211,South Bellaire Circle,80113,39.6397169,-104.9373789
4209,South Bellaire Circle,80113,39.6394487,-104.9374041
4207,South Bellaire Circle,80113,39.6394780,-104.9368840
4203,South Bellaire Circle,80113,39.6393293,-104.9381481
4217,South Bellaire Circle,80113,39.6400828,-104.9373700
4270,South Bellaire Circle,80113,39.6396064,-104.9347994
4227,South Bellaire Circle,80113,39.6410748,-104.9376350
4260,South Bellaire Circle,80113,39.6395797,-104.9354465
4295,South Bellaire Circle,80113,39.6405673,-104.9342750
4219,South Bellaire Circle,80113,39.6401517,-104.9381421
4225,South Bellaire Circle,80113,39.6409452,-104.9380626
4290,South Bellaire Circle,80113,39.6397336,-104.9335799
4235,South Bellaire Circle,80113,39.6407326,-104.9368450
4265,South Bellaire Circle,80113,39.6403747,-104.9355099
4280,South Bellaire Circle,80113,39.6397316,-104.9342080
4229,South Bellaire Circle,80113,39.6409203,-104.9372307
4275,South Bellaire Circle,80113,39.6402866,-104.9350702
4285,South Bellaire Circle,80113,39.6403109,-104.9346453
4245,South Bellaire Circle,80113,39.6405798,-104.9363680
4298,South Bellaire Circle,80113,39.6401897,-104.9334932
4255,South Bellaire Circle,80113,39.6404664,-104.9359825
4237,South Bellaire Circle,80113,39.6400776,-104.9366276
4223,South Bellaire Circle,80113,39.6405356,-104.9381302
4215,South Bellaire Circle,80113,39.6397128,-104.9381565
4221,South Bellaire Circle,80113,39.6404041,-104.9373516
4205,South Dahlia Street,80113,39.6401675,-104.9324494
4193,South Dahlia Street,80113,39.6410361,-104.9329562
4215,South Dahlia Street,80113,39.6397266,-104.9321179
4201,South Dahlia Street,80113,39.6405798,-104.9326643
4225,South Eudora Street,80113,39.6405421,-104.9311782
4245,South Eudora Street,80113,39.6401780,-104.9310690
4204,South Dahlia Street,80113,39.6402889,-104.9317808
4216,South Dahlia Street,80113,39.6396297,-104.9313726
4210,South Dahlia Street,80113,39.6399921,-104.9315879
4184,South Dahlia Street,80113,39.6406736,-104.9318702
4144,South Dahlia Street,80113,39.6414434,-104.9315946
4164,South Dahlia Street,80113,39.6410207,-104.9317534
4124,South Dahlia Street,80113,39.6417708,-104.9316288
4183,South Eudora Street,80113,39.6409821,-104.9311366
4888,East Oxford Avenue,80113,39.6418044,-104.9310065
4153,South Eudora Street,80113,39.6413698,-104.9310519
4070,South Hudson Way,80113,39.6424566,-104.9316102
4060,South Hudson Way,80113,39.6424057,-104.9310371
4000,South Dahlia Street,80113,39.6436752,-104.9315774
3921,Nassau Circle West,80110,39.6452062,-104.9310900
3920,South Dahlia Street,80113,39.6452127,-104.9315519
3910,South Dahlia Street,80113,39.6456559,-104.9315409
3961,Nassau Circle West,80110,39.6445289,-104.9310620
4020,South Dahlia Street,80113,39.6432851,-104.9315435
3940,South Dahlia Street,80113,39.6448289,-104.9315586
4001,Nassau Circle West,80110,39.6436997,-104.9310848
4040,South Dahlia Street,80113,39.6429276,-104.9315944
3980,South Dahlia Street,80113,39.6440603,-104.9315798
4041,Nassau Circle West,80110,39.6429242,-104.9310729
3960,South Dahlia Street,80113,39.6444455,-104.9315647
3981,Nassau Circle West,80110,39.6441051,-104.9310680
3960,South Dexter Street,80113,39.6445431,-104.9327259
3980,South Dexter Street,80113,39.6441837,-104.9327082
3961,South Dahlia Street,80113,39.6445344,-104.9321895
4790,East Mansfield Avenue,80113,39.6455792,-104.9322332
4040,South Dexter Street,80113,39.6431866,-104.9327492
3920,South Dexter Street,80113,39.6452242,-104.9327380
3940,South Dexter Street,80113,39.6448799,-104.9327150
4071,South Dahlia Street,80113,39.6427934,-104.9322280
4000,South Dexter Street,80113,39.6438193,-104.9327577
3941,South Dahlia Street,80113,39.6448499,-104.9321878
4041,South Dahlia Street,80113,39.6431131,-104.9322418
4020,South Dexter Street,80113,39.6434594,-104.9327628
3921,South Dahlia Street,80113,39.6452283,-104.9322033
4021,South Dahlia Street,80113,39.6434824,-104.9322125
4070,South Dexter Street,80113,39.6424700,-104.9328172
4081,South Dahlia Street,80113,39.6424795,-104.9322342
4001,South Dahlia Street,80113,39.6438066,-104.9321931
4060,South Dexter Street,80113,39.6428059,-104.9327880
3900,South Dexter Street,80113,39.6455723,-104.9326967
3981,South Dahlia Street,80113,39.6442028,-104.9321861
3,Foxtail Circle,80113,39.6518407,-104.9579773
15,Foxtail Circle,80113,39.6522845,-104.9556516
10,Foxtail Circle,80113,39.6517931,-104.9558021
12,Foxtail Circle,80113,39.6516811,-104.9554571
22,Foxtail Circle,80113,39.6507977,-104.9551333
29,Foxtail Circle,80113,39.6512356,-104.9553955
25,Foxtail Circle,80113,39.6512990,-104.9561313
11,Foxtail Circle,80113,39.6525968,-104.9562387
14,Foxtail Circle,80113,39.6515617,-104.9551177
13,Foxtail Circle,80113,39.6523297,-104.9561778
17,Foxtail Circle,80113,39.6519870,-104.9550575
8,Foxtail Circle,80113,39.6518619,-104.9561103
6,Foxtail Circle,80113,39.6518856,-104.9564438
27,Foxtail Circle,80113,39.6512240,-104.9557872
7,Foxtail Circle,80113,39.6522895,-104.9568507
9,Foxtail Circle,80113,39.6525824,-104.9567713
4,Foxtail Circle,80113,39.6518597,-104.9568186
21,Foxtail Circle,80113,39.6514555,-104.9568863
23,Foxtail Circle,80113,39.6514030,-104.9565043
20,Foxtail Circle,80113,39.6508561,-104.9564604
19,Foxtail Circle,80113,39.6514189,-104.9573429
2,Foxtail Circle,80113,39.6516896,-104.9573348
5,Foxtail Circle,80113,39.6520721,-104.9573261
13,Sedgwick Drive,80113,39.6485811,-104.9497757
9,Sedgwick Drive,80113,39.6498701,-104.9498117
7,Sedgwick Drive,80113,39.6506304,-104.9498367
5,Sedgwick Drive,80113,39.6512655,-104.9498062
3,Sedgwick Drive,80113,39.6519205,-104.9497663
1,Sedgwick Drive,80113,39.6524977,-104.9497880
11,Sedgwick Drive,80113,39.6491440,-104.9497573
2,Sunrise Drive,80113,39.6468921,-104.9557252
6,Sunrise Drive,80113,39.6476380,-104.9577014
4,Sunrise Drive,80113,39.6470295,-104.9574920
8,Sunrise Drive,80113,39.6483236,-104.9574729
3,Sunrise Drive,80113,39.6463117,-104.9565501
12,Sunrise Drive,80113,39.6498368,-104.9572150
10,Sunrise Drive,80113,39.6490767,-104.9576809
21,Sandy Lake Road,80110,39.6466021,-104.9538142
14,Sandy Lake Road,80113,39.6468259,-104.9519423
16,Sandy Lake Road,80113,39.6462952,-104.9511950
10,Sandy Lake Road,80113,39.6474068,-104.9530818
6,Ravenswood Road,80113,39.6518595,-104.9518734
4,Ravenswood Road,80113,39.6524206,-104.9520846
3,Ravenswood Road,80113,39.6522288,-104.9530175
8,Sandy Lake Road,80113,39.6477484,-104.9530730
6,Sandy Lake Road,80113,39.6481263,-104.9530826
11,Sandy Lake Road,80113,39.6479944,-104.9541832
1,Sandy Lake Road,80113,39.6490902,-104.9536588
4,Sandy Lake Road,80113,39.6485130,-104.9531293
13,Sandy Lake Road,80113,39.6481131,-104.9537205
2,Sandy Lake Road,80113,39.6488980,-104.9530694
17,Sandy Lake Road,80113,39.6474219,-104.9536756
3,Sandy Lake Road,80113,39.6487331,-104.9537354
5,Sandy Lake Road,80113,39.6485042,-104.9540722
9,Sandy Lake Road,80113,39.6480513,-104.9546576
7,Sandy Lake Road,80113,39.6484543,-104.9545724
9,Wildrose Trail,80113,39.6512482,-104.9513084
3,Wildrose Trail,80113,39.6520068,-104.9535164
5,Wildrose Trail,80113,39.6518740,-104.9530477
6,Wildrose Trail,80113,39.6513295,-104.9530335
1,Wildrose Trail,80113,39.6520011,-104.9541995
2,Wildrose Trail,80113,39.6516248,-104.9539409
4,Wildrose Trail,80113,39.6514802,-104.9534396
4,Fieldstone Trail,80113,39.6522988,-104.9550672
1,Fieldstone Trail,80113,39.6525771,-104.9556544
2,Fieldstone Trail,80113,39.6525814,-104.9550950
1,Sunflower Place,80113,39.6525481,-104.9579861
75,Sedgwick Place,80113,39.6480046,-104.9493789
55,Sedgwick Place,80113,39.6461858,-104.9495165
79,Sedgwick Place,80113,39.6468975,-104.9496946
77,Sedgwick Place,80113,39.6475217,-104.9497821
4,Sunflower Place,80113,39.6523167,-104.9574310
2,Sunflower Place,80113,39.6525807,-104.9574554
1,Buell Mansion Parkway,80110,39.6472870,-104.9508038
2,Haystack Row,80113,39.6495060,-104.9508115
15,Buell Mansion Parkway,80110,39.6482644,-104.9520822
1,Haystack Row,80113,39.6500635,-104.9516546
4,Haystack Row,80113,39.6488547,-104.9512758
6,Buell Mansion Parkway,80110,39.6509214,-104.9539539
8,Buell Mansion Parkway,80110,39.6503434,-104.9539803
13,Buell Mansion Parkway,80110,39.6494682,-104.9538392
4,Redhawk Run,80113,39.6503546,-104.9535832
5,Redhawk Run,80113,39.6509107,-104.9530366
6,Redhawk Run,80113,39.6501906,-104.9530978
3,Redhawk Run,80113,39.6509007,-104.9535168
10,Buell Mansion Parkway,80110,39.6498155,-104.9534790
6,Gooseberry Lane,80113,39.6496929,-104.9546731
2,Black Swan Lane,80113,39.6525930,-104.9535789
4,Black Swan Lane,80113,39.6523294,-104.9535060
12,Buell Mansion Parkway,80110,39.6496526,-104.9530654
7,Redhawk Run,80113,39.6505231,-104.9530403
1,Black Swan Lane,80113,39.6522851,-104.9541554
4,Buell Mansion Parkway,80110,39.6512984,-104.9540528
11,Waterside Terrace,80113,39.6480227,-104.9563563
4,Gooseberry Lane,80113,39.6496864,-104.9551081
6,Waterside Terrace,80113,39.6491910,-104.9556391
2,Gooseberry Lane,80113,39.6495472,-104.9555315
3,Gooseberry Lane,80113,39.6501775,-104.9548320
1,Gooseberry Lane,80113,39.6500652,-104.9554231
9,Buell Mansion Parkway,80110,39.6505167,-104.9546413
2,Waterside Terrace,80113,39.6504417,-104.9555493
7,Waterside Terrace,80113,39.6489088,-104.9563524
5,Waterside Terrace,80113,39.6493813,-104.9563720
3,Waterside Terrace,80113,39.6498727,-104.9563584
1,Waterside Terrace,80113,39.6503365,-104.9563045
13,Waterside Terrace,80113,39.6476062,-104.9563100
9,Waterside Terrace,80113,39.6484696,-104.9563550
27,Covington Drive,80113,39.6510840,-104.9464996
39,Sedgwick Drive,80113,39.6513006,-104.9483623
11,Covington Drive,80113,39.6491449,-104.9447429
23,Covington Drive,80113,39.6504158,-104.9466435
3625,South Albion Street,80113,39.6507262,-104.9401658
40,Covington Court,80113,39.6496147,-104.9439866
22,Covington Drive,80113,39.6503822,-104.9459667
18,Sedgwick Drive,80113,39.6468968,-104.9481497
66,Sedgwick Place,80113,39.6461595,-104.9486208
14,Sedgwick Drive,80113,39.6477068,-104.9478573
3700,South Colorado Boulevard,80113,39.6486377,-104.9402397
43,Covington Court,80113,39.6504961,-104.9439266
30,Sedgwick Drive,80113,39.6482549,-104.9452175
41,Sedgwick Drive,80113,39.6519021,-104.9482200
19,Sedgwick Drive,80113,39.6468403,-104.9463459
3795,South Colorado Boulevard,80113,39.6479928,-104.9413754
44,Sedgwick Drive,80113,39.6515392,-104.9473902
15,Covington Drive,80113,39.6493020,-104.9456273
3601,South Albion Street,80113,39.6510790,-104.9401962
26,Covington Drive,80113,39.6507568,-104.9459306
8,Sedgwick Drive,80113,39.6491353,-104.9489334
5,Covington Drive,80113,39.6490534,-104.9434619
15,Sedgwick Drive,80113,39.6473237,-104.9474299
3681,South Albion Street,80113,39.6499381,-104.9402277
42,Covington Court,80113,39.6502235,-104.9439552
16,Covington Drive,80113,39.6498933,-104.9454119
4,Sedgwick Drive,80113,39.6512242,-104.9488932
21,Sedgwick Drive,80113,39.6469263,-104.9456876
3995,East Mansfield Avenue,80113,39.6462600,-104.9414836
20,Sedgwick Drive,80113,39.6462011,-104.9473495
13,Covington Drive,80113,39.6491813,-104.9452029
2,Sedgwick Drive,80113,39.6519041,-104.9488825
26,Sedgwick Drive,80113,39.6474075,-104.9444836
3890,South Colorado Boulevard,80113,39.6461377,-104.9402303
48,Sedgwick Drive,80113,39.6525991,-104.9476408
3535,South Albion Street,80113,39.6525819,-104.9402044
35,Sedgwick Drive,80113,39.6496469,-104.9486074
10,Covington Drive,80113,39.6496893,-104.9445610
31,Sedgwick Drive,80113,39.6486392,-104.9475934
3663,South Albion Street,80113,39.6503124,-104.9401902
46,Covington Court,80113,39.6509102,-104.9449417
18,Covington Drive,80113,39.6501100,-104.9457162
12,Sedgwick Drive,80113,39.6481498,-104.9483279
1,Covington Drive,80113,39.6489823,-104.9424366
29,Sedgwick Drive,80113,39.6482645,-104.9471181
3777,South Albion Street,80113,39.6478374,-104.9402606
44,Covington Court,80113,39.6509303,-104.9440577
27,Sedgwick Drive,80113,39.6479662,-104.9465529
16,Sedgwick Drive,80113,39.6473953,-104.9487582
24,Sedgwick Drive,80113,39.6468160,-104.9447387
3825,South Colorado Boulevard,80113,39.6473195,-104.9413412
38,Sedgwick Drive,80113,39.6497310,-104.9476806
45,Covington Court,80113,39.6509487,-104.9445029
3875,South Harrison Street,80113,39.6462081,-104.9425227
17,Covington Drive,80113,39.6494971,-104.9459322
6,Sedgwick Drive,80113,39.6501252,-104.9489341
7,Covington Drive,80113,39.6490505,-104.9438799
3651,South Colorado Boulevard,80113,39.6500461,-104.9426795
19,Covington Drive,80113,39.6497611,-104.9462510
10,Sedgwick Drive,80113,39.6485956,-104.9487654
3,Covington Drive,80113,39.6490329,-104.9429116
21,Covington Drive,80113,39.6500600,-104.9465168
3711,South Albion Street,80113,39.6482702,-104.9402526
48,Covington Court,80113,39.6502078,-104.9449394
14,Covington Drive,80113,39.6496858,-104.9450490
17,Sedgwick Drive,80113,39.6469409,-104.9470111
80,Sedgwick Place,80113,39.6467207,-104.9487285
34,Sedgwick Drive,80113,39.6488588,-104.9465503
22,Sedgwick Drive,80113,39.6462488,-104.9453238
52,Sedgwick Drive,80113,39.6526059,-104.9488427
28,Sedgwick Drive,80113,39.6480312,-104.9444859
42,Sedgwick Drive,80113,39.6508963,-104.9476669
3553,South Albion Street,80113,39.6521526,-104.9402094
33,Sedgwick Drive,80113,39.6490562,-104.9481089
3599,South Albion Street,80113,39.6514205,-104.9402240
47,Covington Court,80113,39.6505225,-104.9451442
28,Covington Drive,80113,39.6509597,-104.9456028
36,Sedgwick Drive,80113,39.6492764,-104.9471754
25,Covington Drive,80113,39.6507612,-104.9466245
3875,South Albion Street,80113,39.6467828,-104.9403080
41,Covington Court,80113,39.6498857,-104.9439905
25,Sedgwick Drive,80113,39.6476938,-104.9460158
3699,South Albion Street,80113,39.6495490,-104.9401704
23,Sedgwick Drive,80113,39.6474968,-104.9454793
3703,East Mansfield Avenue,80113,39.6468678,-104.9436294
40,Sedgwick Drive,80113,39.6502411,-104.9477754
49,Covington Court,80113,39.6501059,-104.9445459
32,Sedgwick Drive,80113,39.6485405,-104.9459059
37,Sedgwick Drive,80113,39.6506744,-104.9486378
9,Covington Drive,80113,39.6491313,-104.9443121
46,Sedgwick Drive,80113,39.6521549,-104.9471846
6,Parkway Drive,80113,39.6504319,-104.9352789
16,Parkway Drive,80113,39.6466949,-104.9372769
3,Crest Road,80113,39.6514724,-104.9333497
1,Cherry Blossom Lane,80113,39.6467990,-104.9329882
9,Middle Road,80113,39.6507192,-104.9374785
3805,South Dahlia Street,80113,39.6475897,-104.9323309
14,Cherry Lane Drive,80113,39.6483572,-104.9329672
3500,South Albion Street,80113,39.6527770,-104.9394235
15,Cherry Lane Drive,80113,39.6491664,-104.9345293
22,Cherry Lane Drive,80113,39.6463350,-104.9357006
3770,South Albion Street,80113,39.6481170,-104.9392884
11,Cherry Lane Drive,80113,39.6497885,-104.9346885
29,Cherry Lane Drive,80113,39.6490201,-104.9381535
4625,East Mansfield Avenue,80113,39.6461899,-104.9338023
3680,South Albion Street,80113,39.6498954,-104.9394070
10,Parkway Drive,80113,39.6491580,-104.9358132
7,Parkway Drive,80113,39.6502189,-104.9368467
2,Middle Road,80113,39.6507812,-104.9392459
10,Cherry Lane Drive,80113,39.6507034,-104.9333733
5,Cherry Lane Drive,80113,39.6515062,-104.9366696
9,Cherry Lane Drive,80113,39.6505585,-104.9346197
3625,South Dahlia Street,80113,39.6509074,-104.9323510
14,Parkway Drive,80113,39.6476876,-104.9367707
2,Cherry Lane Drive,80113,39.6515896,-104.9343737
23,Cherry Lane Drive,80113,39.6473450,-104.9360204
12,Cherry Lane Drive,80113,39.6498184,-104.9335121
8,Parkway Drive,80113,39.6499147,-104.9357417
9,Parkway Drive,80113,39.6491452,-104.9369310
1,Middle Road,80113,39.6515872,-104.9390221
5,Parkway Drive,80113,39.6510691,-104.9360693
3777,South Dahlia Street,80113,39.6482393,-104.9323110
48,Cherry Lane Drive,80113,39.6498059,-104.9323794
16,Cherry Lane Drive,80113,39.6467436,-104.9336751
5,Parkway Drive,80113,39.6507625,-104.9366423
24,Cherry Lane Drive,80113,39.6464620,-104.9362056
17,Parkway Drive,80113,39.6462953,-104.9384184
11,Parkway Drive,80113,39.6486536,-104.9373958
3650,South Albion Street,80113,39.6503631,-104.9392829
12,Parkway Drive,80113,39.6484566,-104.9360815
25,Cherry Lane Drive,80113,39.6465430,-104.9367566
4,Middle Road,80113,39.6501785,-104.9383695
3,Cherry Lane Drive,80113,39.6517094,-104.9374213
6,Middle Road,80113,39.6496669,-104.9376299
3645,South Dahlia Street,80113,39.6503315,-104.9322908
31,Cherry Lane Drive,80113,39.6494281,-104.9388172
3855,South Dahlia Street,80113,39.6467918,-104.9323686
19,Cherry Lane Drive,80113,39.6477887,-104.9346105
21,Cherry Lane Drive,80113,39.6474954,-104.9353822
6,Cherry Lane Drive,80113,39.6521374,-104.9355358
17,Cherry Lane Drive,80113,39.6484373,-104.9346254
15,Parkway Drive,80113,39.6471061,-104.9381888
3540,South Albion Street,80113,39.6522904,-104.9394240
1,Parkway Drive,80113,39.6526907,-104.9356696
26,Cherry Lane Drive,80113,39.6477278,-104.9383392
8,Cherry Lane Drive,80113,39.6526896,-104.9362733
18,Cherry Lane Drive,80113,39.6467523,-104.9344673
3,Middle Road,80113,39.6511195,-104.9379571
1,Cherry Lane Drive,80113,39.6524279,-104.9387088
3800,South Albion Street,80113,39.6471962,-104.9392462
4,Parkway Drive,80113,39.6519440,-104.9346379
3850,South Albion Street,80113,39.6463254,-104.9391168
13,Lynn Road,80110,39.6408429,-104.9546439
20,Cherry Hills Park Drive,80110,39.6445954,-104.9545709
3201,East Quincy Avenue,80113,39.6395593,-104.9508830
5,Lynn Road,80113,39.6418679,-104.9513562
10,Cherry Hills Park Drive,80110,39.6428788,-104.9508234
24,Lynn Road,80113,39.6419138,-104.9539004
15,Village Road,80113,39.6453336,-104.9496151
14,Lynn Road,80113,39.6408506,-104.9536313
18,Cherry Hills Park Drive,80110,39.6447058,-104.9568857
9,Village Road,80113,39.6426471,-104.9496917
23,Cherry Hills Park Drive,80110,39.6439378,-104.9528733
2,Lynn Road,80113,39.6415787,-104.9570631
1,Village Road,80113,39.6393207,-104.9494940
15,Cherry Hills Park Drive,80110,39.6427070,-104.9570102
8,Lynn Road,80113,39.6393086,-104.9525937
25,Cherry Hills Park Drive,80110,39.6437097,-104.9555268
10,Lynn Road,80113,39.6401298,-104.9573174
11,Village Road,80113,39.6436513,-104.9496959
7,Cherry Hills Park Drive,80110,39.6454781,-104.9517659
3,Lynn Road,80113,39.6419644,-104.9552471
13,Village Road,80113,39.6445667,-104.9497424
7,Lynn Road,80113,39.6397955,-104.9514388
26,Cherry Hills Park Drive,80110,39.6437949,-104.9567814
12,Lynn Road,80110,39.6407337,-104.9557510
6,Cherry Hills Park Drive,80110,39.6456570,-104.9530933
9,Cherry Hills Park Drive,80110,39.6439875,-104.9505604
12,Cherry Hills Park Drive,80110,39.6426967,-104.9533511
9,Lynn Road,80113,39.6392812,-104.9562719
7,Village Road,80113,39.6414631,-104.9496877
11,Cherry Hills Park Drive,80110,39.6427571,-104.9522303
4,Lynn Road,80113,39.6418355,-104.9526091
19,Cherry Hills Park Drive,80110,39.6444715,-104.9557930
8,Cherry Hills Park Drive,80110,39.6452883,-104.9507187
6,Lynn Road,80113,39.6401876,-104.9506196
16,Lynn Road,80113,39.6410568,-104.9507272
22,Cherry Hills Park Drive,80110,39.6444323,-104.9521929
20,Lynn Road,80113,39.6391591,-104.9539545
5,Village Road,80113,39.6407004,-104.9496180
9,Vista Road,80113,39.6413315,-104.9471726
3995,South Colorado Boulevard,80113,39.6434506,-104.9415375
4,Vista Road,80113,39.6401347,-104.9452196
2,Tamarac Lane,80113,39.6393312,-104.9436473
4095,South Colorado Boulevard,80113,39.6425214,-104.9425861
7,Vista Road,80113,39.6406836,-104.9469829
10,Village Road,80113,39.6431230,-104.9485749
3800,East Mansfield Avenue,80113,39.6452530,-104.9424390
1,Foxhill Road,80113,39.6454363,-104.9453070
3925,South Colorado Boulevard,80113,39.6444788,-104.9413788
2,Village Road,80113,39.6395653,-104.9481895
4000,South Colorado Boulevard,80113,39.6436941,-104.9400490
16,Vista Road,80113,39.6454788,-104.9464894
4181,South Colorado Boulevard,80113,39.6409989,-104.9420221
6,Tamarac Lane,80113,39.6420499,-104.9444840
14,Vista Road,80113,39.6440649,-104.9464193
8,Village Road,80113,39.6424619,-104.9484642
3902,East Mansfield Avenue,80113,39.6452986,-104.9413840
4191,South Colorado Boulevard,80113,39.6406903,-104.9413703
16,Village Road,80113,39.6453559,-104.9483494
12,Village Road,80113,39.6440135,-104.9483422
2,Foxhill Road,80113,39.6446539,-104.9448136
8,Tamarac Lane,80113,39.6437337,-104.9435579
4213,South Colorado Boulevard,80113,39.6398572,-104.9420459
10,Meadow Lane,80113,39.6419916,-104.9454224
13,Vista Road,80113,39.6442789,-104.9474442
3,Vista Road,80113,39.6395754,-104.9466752
3895,East Quincy Avenue,80113,39.6402260,-104.9429214
14,Village Road,80113,39.6446199,-104.9485504
6,Village Road,80113,39.6416136,-104.9484260
4101,South Colorado Boulevard,80113,39.6417715,-104.9416171
2,Vista Road,80113,39.6394232,-104.9456305
1,Tamarac Lane,80113,39.6394216,-104.9448959
20,Meadow Lane,80113,39.6426038,-104.9454668
12,Vista Road,80113,39.6433485,-104.9468216
5,Vista Road,80113,39.6401187,-104.9467764
3,Tamarac Lane,80113,39.6410422,-104.9452759
4141,South Colorado Boulevard,80113,39.6419402,-104.9424360
15,Vista Road,80113,39.6450418,-104.9473019
4,Village Road,80113,39.6405022,-104.9482582
10,Vista Road,80113,39.6424124,-104.9464545
4075,South Colorado Boulevard,80113,39.6432736,-104.9428303
30,Meadow Lane,80113,39.6435575,-104.9455057
4021,Nassau Circle West,80110,39.6433057,-104.9310340
5245,East Oxford Avenue,80113,39.6419979,-104.9268969
4001,South Hudson Way,80113,39.6431494,-104.9286370
4225,South Forest Circle,80113,39.6407953,-104.9295556
5441,Nassau Circle East,80113,39.6446111,-104.9239414
4216,South Hudson Parkway,80111,39.6406621,-104.9240351
5231,Nassau Circle East,80113,39.6456233,-104.9266126
5000,East Oxford Avenue,80113,39.6412690,-104.9295600
5010,Nassau Circle West,80110,39.6451799,-104.9292763
5430,Nassau Circle East,80113,39.6440264,-104.9234477
5581,East Oxford Avenue,80113,39.6417768,-104.9229397
5355,Nassau Circle East,80113,39.6428784,-104.9253648
5240,Nassau Circle East,80113,39.6424787,-104.9280747
4230,South Hudson Parkway,80111,39.6404709,-104.9235705
5315,Nassau Circle East,80113,39.6429008,-104.9262769
5130,Nassau Circle West,80110,39.6451489,-104.9282020
4266,South Elm Court,80113,39.6395651,-104.9295930
4010,South Holly Street,80111,39.6437704,-104.9222494
4255,South Forest Circle,80113,39.6409458,-104.9278104
5350,Sanford Circle East,80113,39.6433328,-104.9251659
5460,East Oxford Avenue,80113,39.6413776,-104.9242613
5295,Nassau Circle East,80113,39.6429397,-104.9267326
4000,Sanford Circle West,80110,39.6437528,-104.9304260
4276,South Eudora Street,80113,39.6401181,-104.9302771
3940,South Hudson Way,80113,39.6447227,-104.9271621
5380,Sanford Circle East,80113,39.6441129,-104.9245116
3981,South Holly Way,80113,39.6453848,-104.9234024
5330,Sanford Circle East,80113,39.6433002,-104.9256520
5191,Sanford Circle West,80110,39.6447513,-104.9278327
4040,South Hudson Way,80113,39.6424102,-104.9300009
4236,South Eudora Street,80113,39.6404775,-104.9304437
4990,Sanford Circle West,80110,39.6433702,-104.9294526
5390,Nassau Circle East,80113,39.6424550,-104.9242459
5163,East Oxford Avenue,80113,39.6420275,-104.9278303
5230,Sanford Circle East,80113,39.6442302,-104.9269035
4021,South Hudson Way,80113,39.6429189,-104.9293902
5439,East Oxford Avenue,80113,39.6419243,-104.9245224
4011,South Hudson Way,80113,39.6429877,-104.9289900
5123,East Princeton Avenue,80113,39.6395753,-104.9283223
5361,Nassau Circle East,80113,39.6456451,-104.9240416
4164,South Hudson Parkway,80111,39.6412885,-104.9256709
5251,Nassau Circle East,80113,39.6456368,-104.9261057
5070,Sanford Circle West,80110,39.6441047,-104.9292659
5420,Nassau Circle East,80113,39.6436259,-104.9234425
4051,South Holly Street,80111,39.6439308,-104.9228617
5330,Nassau Circle East,80113,39.6424434,-104.9256704
5368,East Oxford Avenue,80113,39.6413470,-104.9252229
5270,Nassau Circle East,80113,39.6424371,-104.9271427
4920,East Princeton Avenue,80113,39.6393407,-104.9306155
3980,Nassau Circle West,80110,39.6441332,-104.9304430
3981,South Hudson Way,80113,39.6435634,-104.9288396
3980,South Holly Street,80111,39.6447958,-104.9222637
4205,South Forest Circle,80113,39.6401450,-104.9297569
5421,Nassau Circle East,80113,39.6438444,-104.9240229
5397,East Oxford Avenue,80113,39.6419967,-104.9249643
5272,Nassau Circle East,80113,39.6451598,-104.9256572
4941,Nassau Circle West,80110,39.6453893,-104.9302570
5252,Nassau Circle East,80113,39.6451632,-104.9261257
5255,East Princeton Avenue,80113,39.6407505,-104.9269299
3921,South Hudson Way,80113,39.6451316,-104.9277245
5164,East Princeton Avenue,80113,39.6392273,-104.9276695
5411,Nassau Circle East,80113,39.6434214,-104.9240487
3991,South Holly Way,80113,39.6456773,-104.9231844
5300,Sanford Circle East,80113,39.6433159,-104.9260845
5151,Sanford Circle West,80110,39.6447835,-104.9283090
4031,South Hudson Way,80113,39.6428763,-104.9299422
4030,South Holly Street,80111,39.6431078,-104.9222831
5191,Nassau Circle West,80110,39.6456252,-104.9277564
5290,Sanford Circle East,80113,39.6442758,-104.9255412
5469,East Oxford Avenue,80113,39.6419066,-104.9240232
5265,Sanford Circle East,80113,39.6429139,-104.9274384
5052,East Princeton Avenue,80113,39.6394071,-104.9291602
5031,Sanford Circle West,80110,39.6445213,-104.9297749
4265,South Eudora Street,80113,39.6399028,-104.9308635
3960,South Hudson Way,80113,39.6437514,-104.9275279
5101,East Princeton Avenue,80113,39.6397720,-104.9287202
5311,Sanford Circle East,80113,39.6447924,-104.9246961
4295,South Forest Court,80113,39.6396087,-104.9261409
5251,Sanford Circle East,80113,39.6447511,-104.9261890
4991,Sanford Circle West,80110,39.6441508,-104.9299004
4020,South Hudson Way,80113,39.6424933,-104.9290540
4071,South Holly Street,80111,39.6431665,-104.9228744
5623,Southmoor Circle,80111,39.6393616,-104.9222996
5305,Sanford Circle East,80113,39.6437911,-104.9261265
5256,East Princeton Avenue,80113,39.6401804,-104.9264567
4265,Honey Locust Drive,80113,39.6396141,-104.9254586
3991,South Hudson Way,80113,39.6434131,-104.9283791
5134,East Oxford Avenue,80113,39.6413611,-104.9284190
4215,South Forest Circle,80113,39.6405276,-104.9298043
5332,Nassau Circle East,80113,39.6451610,-104.9246942
4208,South Hudson Parkway,80111,39.6407020,-104.9246746
5232,Nassau Circle East,80113,39.6451558,-104.9265661
5071,Sanford Circle West,80110,39.6447510,-104.9293417
5440,Nassau Circle East,80113,39.6445544,-104.9232851
4061,South Holly Street,80111,39.6435493,-104.9229028
5301,Nassau Circle East,80113,39.6456655,-104.9250879
5235,East Princeton Avenue,80113,39.6404692,-104.9275112
5210,Nassau Circle East,80113,39.6451867,-104.9270228
4211,South Hudson Parkway,80110,39.6399934,-104.9244209
5011,Nassau Circle West,80110,39.6456486,-104.9293564
3951,South Hudson Way,80113,39.6442447,-104.9279680
4020,South Holly Street,80111,39.6434675,-104.9222592
4245,South Forest Circle,80113,39.6409738,-104.9285680
5291,Sanford Circle East,80113,39.6447982,-104.9252389
5271,Nassau Circle East,80113,39.6456466,-104.9256002
3911,Nassau Circle West,80110,39.6456178,-104.9310100
4174,South Eudora Street,80113,39.6408865,-104.9304361
3980,South Hudson Way,80113,39.6433604,-104.9277104
5164,East Oxford Avenue,80113,39.6413876,-104.9278241
5395,Nassau Circle East,80113,39.6429182,-104.9243843
4248,South Hudson Parkway,80111,39.6405226,-104.9229131
5271,Sanford Circle East,80113,39.6447353,-104.9257699
5131,Nassau Circle West,80110,39.6456091,-104.9282318
4030,South Hudson Way,80113,39.6424499,-104.9295314
4050,South Holly Street,80111,39.6424166,-104.9222751
5633,Southmoor Circle,80111,39.6397111,-104.9223470
5325,Sanford Circle East,80113,39.6438756,-104.9251188
5236,East Princeton Avenue,80113,39.6398895,-104.9269227
5285,Sanford Circle East,80113,39.6436498,-104.9270044
3982,South Holly Way,80113,39.6448223,-104.9229532
5680,Happy Canyon Road,80111,39.6453428,-104.9222628
5542,East Oxford Avenue,80113,39.6412332,-104.9233652
4205,South Hudson Parkway,80110,39.6403619,-104.9259076
5133,East Oxford Avenue,80113,39.6419205,-104.9282989
5331,Nassau Circle East,80113,39.6456758,-104.9245925
4133,South Hudson Parkway,80110,39.6412763,-104.9267436
5275,Sanford Circle East,80113,39.6432836,-104.9272242
4950,Sanford Circle West,80110,39.6432542,-104.9299156
5400,Nassau Circle East,80113,39.6424699,-104.9236570
4041,South Holly Street,80111,39.6443529,-104.9228183
5070,Nassau Circle West,80110,39.6452008,-104.9287824
5350,Nassau Circle East,80113,39.6424318,-104.9252001
5285,East Oxford Avenue,80113,39.6420250,-104.9264297
4919,East Oxford Avenue,80113,39.6420110,-104.9302183
3941,Nassau Circle West,80110,39.6449437,-104.9308034
5582,East Oxford Avenue,80113,39.6412035,-104.9228964
3961,South Hudson Way,80113,39.6439413,-104.9280862
4235,South Forest Circle,80113,39.6409323,-104.9290599
5451,Nassau Circle East,80113,39.6449797,-104.9239347
5367,East Oxford Avenue,80113,39.6419205,-104.9254782
5335,Nassau Circle East,80113,39.6428973,-104.9258164
4989,East Oxford Avenue,80113,39.6417949,-104.9297552
4901,Nassau Circle West,80110,39.6456036,-104.9304896
4255,South Elm Court,80113,39.6394891,-104.9301974
5600,East Oxford Avenue,80111,39.6412263,-104.9223698
5375,Nassau Circle East,80113,39.6429091,-104.9248982
5194,East Oxford Avenue,80113,39.6413696,-104.9273280
5401,Nassau Circle East,80113,39.6431039,-104.9240277
4262,South Hudson Parkway,80111,39.6397961,-104.9230922
5295,Sanford Circle East,80113,39.6438697,-104.9265565
5110,Sanford Circle West,80110,39.6443291,-104.9289805
4050,South Hudson Way,80113,39.6424581,-104.9305497
4040,South Holly Street,80111,39.6427358,-104.9222881
4226,South Forest Circle,80113,39.6404164,-104.9290691
5310,Sanford Circle East,80113,39.6442218,-104.9250897
5430,East Oxford Avenue,80113,39.6413866,-104.9247511
5250,Nassau Circle East,80113,39.6424186,-104.9276422
5021,East Oxford Avenue,80113,39.6418814,-104.9292850
4910,Sanford Circle West,80110,39.6432603,-104.9304183
4123,South Eudora Street,80113,39.6415679,-104.9305689
3950,South Hudson Way,80113,39.6441423,-104.9273587
5370,Sanford Circle East,80113,39.6437184,-104.9244968
4173,South Hudson Parkway,80110,39.6408981,-104.9264681
5250,Sanford Circle East,80113,39.6442918,-104.9264190
4951,Sanford Circle West,80110,39.6437772,-104.9299587
3971,South Hudson Way,80113,39.6439823,-104.9286743
4134,South Eudora Street,80113,39.6411387,-104.9301003
5643,Southmoor Circle,80111,39.6400783,-104.9222967
5370,Nassau Circle East,80113,39.6424528,-104.9246986
5337,East Oxford Avenue,80113,39.6420013,-104.9259309
4021,South Ivanhoe Lane,80111,39.6444022,-104.9222212
4250,Honey Locust Drive,80113,39.6395305,-104.9245826
5022,East Oxford Avenue,80113,39.6413174,-104.9290038
4000,South Hudson Way,80113,39.6426280,-104.9285297
5091,East Oxford Avenue,80113,39.6418298,-104.9287962
5362,Nassau Circle East,80113,39.6452041,-104.9242533
4200,South Hudson Parkway,80111,39.6408437,-104.9252720
5310,Nassau Circle East,80113,39.6424224,-104.9261067
5030,Sanford Circle West,80110,39.6437202,-104.9293380
5410,Nassau Circle East,80113,39.6432290,-104.9234546
4091,South Holly Street,80111,39.6423842,-104.9228665
5302,Nassau Circle East,80113,39.6451986,-104.9251788
4271,South Hudson Parkway,80110,39.6395103,-104.9239750
3940,Nassau Circle West,80110,39.6447878,-104.9301127
5150,Sanford Circle West,80110,39.6443269,-104.9284597
3990,South Hudson Way,80113,39.6429865,-104.9279664
4070,South Holly Street,80111,39.6417376,-104.9222869
4256,South Forest Circle,80113,39.6403640,-104.9285049
5431,Nassau Circle East,80113,39.6442731,-104.9240176
5211,Nassau Circle East,80113,39.6456398,-104.9270616
3960,Nassau Circle West,80110,39.6445190,-104.9304212
5055,East Princeton Avenue,80113,39.6400265,-104.9291058
4275,South Forest Court,80113,39.6394258,-104.9273586
5193,East Oxford Avenue,80113,39.6419959,-104.9273926
5360,Sanford Circle East,80113,39.6433121,-104.9246356
4284,South Hudson Parkway,80111,39.6394334,-104.9230753
5280,Sanford Circle East,80113,39.6432929,-104.9265773
5111,Sanford Circle West,80110,39.6447798,-104.9288814
4041,South Hudson Way,80113,39.6428810,-104.9304084
4060,South Holly Street,80111,39.6420891,-104.9223039
5091,Nassau Circle West,80110,39.6456292,-104.9288174
5315,Sanford Circle East,80113,39.6438026,-104.9256445
5490,East Oxford Avenue,80113,39.6412577,-104.9238550
5231,Sanford Circle East,80113,39.6447321,-104.9267154
3990,South Holly Way,80113,39.6452608,-104.9227726
4971,Nassau Circle West,80110,39.6456061,-104.9298735
5541,East Oxford Avenue,80113,39.6417961,-104.9234850
4285,South Forest Court,80113,39.6395542,-104.9265871
5390,Sanford Circle East,80113,39.6445058,-104.9244695
4207,South Hudson Parkway,80110,39.6401057,-104.9252550
5290,Nassau Circle East,80113,39.6424332,-104.9265982
4950,Nassau Circle West,80110,39.6450614,-104.9297489
5402,Nassau Circle East,80113,39.6428372,-104.9234991
4081,South Holly Street,80111,39.6427695,-104.9228629
5653,Southmoor Circle,80111,39.6404434,-104.9222285
5270,Sanford Circle East,80113,39.6442895,-104.9259662
2460,East Quincy Avenue,80113,39.6379620,-104.9574330
2460,East Quincy Avenue,80113,39.6382889,-104.9573658
4500,East Hampden Avenue,80113,39.6523231,-104.9331722
3990,South Clermont Street,80113,39.6444034,-104.9350205
3940,South Cherry Street,80113,39.6448703,-104.9338527
1,Ravenswood Road,80113,39.6525615,-104.9530062
7,Buell Mansion Parkway,80110,39.6508275,-104.9545559
3800,East Hampden Avenue,80113,39.6521765,-104.9441169
4747,East Mansfield Avenue,80113,39.6462620,-104.9323859
15,Lynn Road,80113,39.6408011,-104.9526104
5195,East Princeton Avenue,80113,39.6399568,-104.9279171
