House number,Street name,Postal code,Latitude,Longitude
106,North Rubey Drive,80403,39.7655975,-105.2337487
1299,Washington Avenue,80401,39.7550326,-105.2207700
1216,Washington Avenue,80401,39.7549356,-105.2211450
16010,West 5th Avenue,80410,39.7227196,-105.1808067
605,Johnson Road,80401,39.7265079,-105.2013715
800,11th Street,80401,39.7563733,-105.2227444
1299,Washington Avenue,80401,39.7548932,-105.2206348
1310,Washington Avenue,80401,39.7541722,-105.2204895
1310,Maple Street,80401,39.7518482,-105.2248270
16950,West Colfax Avenue,80401,39.7235869,-105.1914470
16950,West Colfax Avenue,80401,39.7234998,-105.1916680
16950,West Colfax Avenue,80401,39.7236671,-105.1911800
16950,West Colfax Avenue,80401,39.7237415,-105.1910365
17509,South Golden Road,80401,39.7408672,-105.1966550
3050,Illinois Street,80401,39.7373685,-105.2116824
17708,South Golden Road,80401,39.7409759,-105.1996217
17732,South Golden Road,80401,39.7406866,-105.2005466
17730,South Golden Road,80401,39.7406774,-105.2003929
720,Golden Ridge Road,80401,39.7283243,-105.2087323
720,Golden Ridge Road,80401,39.7284656,-105.2086423
750,Heritage Road,80401,39.7286999,-105.2092149
750,Heritage Road,80401,39.7287052,-105.2091360
16925,Golden Hills Road,80401,39.7424548,-105.1903286
16821,West 16th Place,80401,39.7434244,-105.1902305
16823,West 16th Place,80401,39.7434222,-105.1903727
16825,West 16th Place,80401,39.7434232,-105.1904331
16827,West 16th Place,80401,39.7434153,-105.1905491
611,Corporate Circle,80401,39.7196100,-105.1919062
17301,West Colfax Avenue,80401,39.7238393,-105.1948112
412,Violet Street,80401,39.7230036,-105.1970050
14799,West 6th Avenue Frontage Road,80401,39.7243704,-105.1646418
1200,16th Street,80401,39.7496418,-105.2234400
17171,South Golden Road,80401,39.7391336,-105.1928435
14799,West 6th Avenue Frontage Road,80401,39.7244122,-105.1649718
16401,Table Mountain Parkway,80403,39.7795243,-105.1861090
393,North Washington Avenue,80403,39.7687016,-105.2350952
16351,West Colfax Avenue,80401,39.7281171,-105.1837070
17601,West Colfax Avenue,80401,39.7208631,-105.2009047
17731,West Colfax Avenue,80401,39.7209109,-105.2005037
18200,West Colfax Avenue,80401,39.7186242,-105.2051819
18180,West Colfax Avenue,80401,39.7185291,-105.2043599
1600,Illinois Street,80401,39.7496258,-105.2220360
14799,West 6th Avenue Frontage Road,80401,39.7242093,-105.1650430
14799,West 6th Avenue Frontage Road,80401,39.7239542,-105.1651330
1200,16th Street,80401,39.7495427,-105.2234970
414,Sunshine Parkway,80401,39.7643182,-105.2213524
1400,Maple Street,80401,39.7513417,-105.2244250
1511,Washington Avenue,80401,39.7526105,-105.2181216
17301,West Colfax Avenue,80401,39.7228629,-105.1959104
807,13th Street,80401,39.7542529,-105.2209265
700,Jefferson County Parkway,80401,39.7320849,-105.2065500
1117,Washington Avenue,80401,39.7557325,-105.2214458
134,Washington Avenue,80403,39.7650052,-105.2309270
144,Washington Avenue,80403,39.7649498,-105.2308610
132,Washington Avenue,80403,39.7650506,-105.2308740
922,Washington Avenue,80401,39.7574400,-105.2237421
922,Washington Avenue,80401,39.7574071,-105.2238111
109,North Rubey Drive,80403,39.7661758,-105.2325986
103,North Rubey Drive,80403,39.7652331,-105.2326278
514,9th Street,80401,39.7599169,-105.2216443
711,Washington Avenue,80401,39.7599584,-105.2249830
802,Washington Avenue,80401,39.7587850,-105.2250047
1217,Miner's Alley,80401,39.7547512,-105.2214785
811,12th Street,80401,39.7550677,-105.2217356
807,12th Street,80401,39.7551400,-105.2216089
17792,Lunnonhaus Drive,80401,39.7400324,-105.2004567
17784,Lunnonhaus Drive,80401,39.7399998,-105.2001699
17602,West 14th Avenue,80401,39.7385334,-105.1989474
1109,Miner's Alley,80401,39.7555597,-105.2222635
1111,Miner's Alley,80401,39.7554721,-105.2221826
1200,16th Street,80401,39.7495594,-105.2232890
1200,16th Street,80401,39.7496512,-105.2236300
1200,16th Street,80401,39.7497517,-105.2235610
1400,Maple Street,80401,39.7513465,-105.2243670
710,10th Street,80401,39.7583374,-105.2233189
16360,Table Mountain Parkway,80403,39.7809394,-105.1837986
2600,East Street,80401,39.7461380,-105.2075203
17211,South Golden Road,80401,39.7395113,-105.1942159
17720,South Golden Road,80401-6012,39.7406612,-105.1998394
16950,West Colfax Avenue,80401,39.7235317,-105.1915893
16950,West Colfax Avenue,80401,39.7236487,-105.1912411
16950,West Colfax Avenue,80401,39.7236185,-105.1913950
16035,Table Mountain Parkway,80403,39.7844683,-105.1775451
103,North Rubey Drive,80403,39.7649503,-105.2323133
393,North Washington Avenue,80403,39.7687156,-105.2346677
700,Jefferson County Parkway,80401,39.7317329,-105.2067578
700,Jefferson County Parkway,80401,39.7320974,-105.2074915
1100,Washington Avenue,80401,39.7560455,-105.2221660
700,12th Street,80401,39.7559393,-105.2206627
700,12th Street,80401,39.7559157,-105.2207089
701,12th Street,80401,39.7558099,-105.2203192
1030,Johnson Road,80401,39.7337991,-105.2000371
1323,Washington Avenue,80401,39.7539726,-105.2198484
720,14th Street,80401,39.7540290,-105.2196879
502,High Point Drive,80403,39.7584276,-105.2339789
504,High Point Drive,80403,39.7583078,-105.2339172
506,High Point Drive,80403,39.7582145,-105.2339633
508,High Point Drive,80403,39.7580897,-105.2340140
510,High Point Drive,80403,39.7580463,-105.2340430
512,High Point Drive,80403,39.7579225,-105.2341052
514,High Point Drive,80403,39.7578599,-105.2341331
516,High Point Drive,80403,39.7577314,-105.2341855
518,High Point Drive,80403,39.7576956,-105.2342030
520,High Point Drive,80403,39.7575747,-105.2342447
522,High Point Drive,80403,39.7575114,-105.2342678
524,High Point Drive,80403,39.7573821,-105.2342911
537,High Point Drive,80403,39.7570019,-105.2344482
535,High Point Drive,80403,39.7569874,-105.2342815
531,High Point Drive,80403,39.7571189,-105.2340643
533,High Point Drive,80403,39.7570307,-105.2341701
527,High Point Drive,80403,39.7572967,-105.2339653
529,High Point Drive,80403,39.7571964,-105.2340743
523,High Point Drive,80403,39.7574880,-105.2339031
525,High Point Drive,80403,39.7573609,-105.2339329
501,Canyon View Drive,80403,39.7578909,-105.2337150
503,Canyon View Drive,80403,39.7577795,-105.2336340
505,Canyon View Drive,80403,39.7577223,-105.2335984
507,Canyon View Drive,80403,39.7576092,-105.2335248
509,Canyon View Drive,80403,39.7575512,-105.2334915
511,Canyon View Drive,80403,39.7574403,-105.2334107
513,Canyon View Drive,80403,39.7573894,-105.2333742
515,Canyon View Drive,80403,39.7572787,-105.2333017
517,Canyon View Drive,80403,39.7571820,-105.2332415
519,Canyon View Drive,80403,39.7570696,-105.2331602
521,Canyon View Drive,80403,39.7569989,-105.2331837
523,Canyon View Drive,80403,39.7568781,-105.2332188
525,Canyon View Drive,80403,39.7568165,-105.2332385
527,Canyon View Drive,80403,39.7567173,-105.2333352
529,Canyon View Drive,80403,39.7567326,-105.2334380
531,Canyon View Drive,80403,39.7566475,-105.2335697
533,Canyon View Drive,80403,39.7566248,-105.2336424
535,Canyon View Drive,80403,39.7565394,-105.2337737
537,Canyon View Drive,80403,39.7565119,-105.2338503
539,Canyon View Drive,80403,39.7564267,-105.2339810
541,Canyon View Drive,80403,39.7564139,-105.2340469
543,Canyon View Drive,80403,39.7563380,-105.2341873
545,Canyon View Drive,80403,39.7562530,-105.2342267
547,Canyon View Drive,80403,39.7562034,-105.2343874
549,Canyon View Drive,80403,39.7561573,-105.2344224
551,Canyon View Drive,80403,39.7561594,-105.2345927
544,Canyon View Drive,80403,39.7565629,-105.2343513
546,Canyon View Drive,80403,39.7565899,-105.2345141
540,Canyon View Drive,80403,39.7566453,-105.2342515
538,Canyon View Drive,80403,39.7567151,-105.2341053
536,Canyon View Drive,80403,39.7567424,-105.2340576
534,Canyon View Drive,80403,39.7568203,-105.2339096
532,Canyon View Drive,80403,39.7568565,-105.2338441
530,Canyon View Drive,80403,39.7569269,-105.2336972
528,Canyon View Drive,80403,39.7569792,-105.2336802
526,Canyon View Drive,80403,39.7570552,-105.2335347
512,Canyon View Drive,80403,39.7573253,-105.2337476
514,Canyon View Drive,80403,39.7572130,-105.2336521
801,Iowa Drive,80403,39.7651974,-105.2312891
100,Washington Avenue,80403,39.7652804,-105.2310941
130,Washington Avenue,80403,39.7651546,-105.2308344
142,Washington Avenue,80403,39.7649970,-105.2307989
140,Washington Avenue,80403,39.7650534,-105.2306868
136,Washington Avenue,80403,39.7649272,-105.2310544
146,Washington Avenue,80403,39.7648616,-105.2309667
308,Washington Avenue,80403,39.7628290,-105.2284942
310,Washington Avenue,80403,39.7627921,-105.2284594
312,Washington Avenue,80403,39.7627202,-105.2283918
300,Washington Avenue,80403,39.7630428,-105.2286953
302,Washington Avenue,80403,39.7630047,-105.2286595
304,Washington Avenue,80403,39.7629485,-105.2286066
306,Washington Avenue,80403,39.7628785,-105.2285407
320,Washington Avenue,80403,39.7625457,-105.2282261
322,Washington Avenue,80403,39.7624858,-105.2281702
500,Parkview Court,80403,39.7588261,-105.2321536
502,Parkview Court,80403,39.7587259,-105.2320567
501,Parkview Court,80403,39.7589463,-105.2318272
503,Parkview Court,80403,39.7588619,-105.2317475
505,Parkview Court,80403,39.7587323,-105.2316375
507,Parkview Court,80403,39.7586425,-105.2315668
504,Parkview Court,80403,39.7586479,-105.2320726
506,Parkview Court,80403,39.7585565,-105.2319563
508,Parkview Court,80403,39.7584823,-105.2319402
510,Parkview Court,80403,39.7583926,-105.2318198
512,Parkview Court,80403,39.7583109,-105.2318161
514,Parkview Court,80403,39.7582219,-105.2317029
516,Parkview Court,80403,39.7581215,-105.2317241
518,Parkview Court,80403,39.7580298,-105.2316021
520,Parkview Court,80403,39.7579360,-105.2315497
522,Parkview Court,80403,39.7578470,-105.2314134
14799,West 6th Avenue Frontage Road,80401,39.7240342,-105.1650411
14799,West 6th Avenue Frontage Road,80401,39.7242600,-105.1651283
14799,West 6th Avenue Frontage Road,80401,39.7243634,-105.1647971
14799,West 6th Avenue Frontage Road,80401,39.7243594,-105.1649126
1208,Washington Avenue,80401,39.7550847,-105.2212990
915,Homestake Drive,80401,39.7421705,-105.2138286
560,Golden Ridge Road,80401,39.7266850,-105.2060512
1030,Johnson Road,80401,39.7338961,-105.1998237
1516,Illinois Street,80401,39.7503174,-105.2222891
1500,Illinois Street,80401,39.7508933,-105.2228195
1523,Illinois Street,80401,39.7509645,-105.2211956
924,16th Street,80401,39.7515816,-105.2203708
1005,14th Street,80401,39.7521251,-105.2220571
1651,Elm Street,80401,39.7490626,-105.2227497
1200,16th Street,80401,39.7499770,-105.2233777
1223,West Campus Road,80401,39.7503368,-105.2244024
1222,West Campus Road,80401,39.7504973,-105.2240900
1221,West Campus Road,80401,39.7506443,-105.2238220
1650,Arapahoe Street,80401,39.7506137,-105.2193816
700,Jefferson County Parkway,80401,39.7321019,-105.2071384
200,Jefferson County Parkway,80419,39.7310527,-105.2013106
16600,Table Mountain Parkway,80403,39.7758987,-105.1830371
16194,West 45th Drive,80403,39.7776277,-105.1832869
400,10,80401,39.7596755,-105.2200308
114,North Rubey Drive,80403,39.7673313,-105.2343925
1015,14th Street,80401,39.7519350,-105.2225579
1613,Illinois Street,80401,39.7502652,-105.2206975
920,15th Street,80401,39.7525617,-105.2211030
17500,South Golden Road,80401-2694,39.7394436,-105.1973165
1400,Utah Street,80401,39.7394071,-105.1955350
17171,South Golden Road,80401,39.7393950,-105.1929501
1600,Jackson Street,80401,39.7520203,-105.2169352
1600,Arapahoe Street,80401,39.7510650,-105.2197456
1701,Jackson Street,80401,39.7521675,-105.2155658
651,16th Street,80401,39.7525614,-105.2166314
17224,So Golden Road,80401,39.7388360,-105.1962861
17191,South Golden Road,80401,39.7380153,-105.1935621
17198,South Golden Road,80401,39.7372701,-105.1934342
803,14th Street,80401,39.7535242,-105.2199309
710,10th Street,80401,39.7582963,-105.2229837
600,12th Street,80401,39.7565120,-105.2199599
1100,Miners Alley,80401,39.7555856,-105.2227127
1301,Arapahoe Street,80401,39.7539207,-105.2212094
714,14th Street,80401,39.7541502,-105.2195109
16700,West Colfax Avenue,80401,39.7225204,-105.1873382
16900,West Colfax Avenue,80401,39.7225456,-105.1900644
16750,West Colfax Avenue,80401,39.7242468,-105.1888153
17150,West Colfax Avenue,80401,39.7222507,-105.1915705
17132,West Colfax Avenue,80401,39.7222025,-105.1934655
16800,West Colfax Avenue,80401,39.7242477,-105.1893228
1801,Jackson Street,80401,39.7510046,-105.2150933
601,16th Street,80401,39.7529727,-105.2161403
814,15th Street,80401,39.7527144,-105.2201312
1811,Elm Street,80401,39.7475857,-105.2211248
816,15th Street,80401,39.7528550,-105.2199543
1600,Illinois Street,80401,39.7496422,-105.2216518
1312,Illinois Street,80401,39.7519881,-105.2238624
1019,10th Street,80401,39.7559223,-105.2255734
1012,14th Street,80401,39.7525828,-105.2228439
1400,Illinois Street,80401,39.7514540,-105.2233301
1300,Illinois Street,80401,39.7523154,-105.2241415
1310,Maple Street,80401,39.7517685,-105.2250297
911,10th Street,80401,39.7566537,-105.2242669
17533,South Golden Road,80401,39.7410877,-105.1973937
17491,West 16th Avenue,80401,39.7433927,-105.1976279
1407,Ulysses Street,80401,39.7401333,-105.1949015
900,Jefferson County Parkway,80401,39.7320838,-105.2100186
17764,South Golden Road,80401,39.7415696,-105.2005572
969,Ulysses Street,80401,39.7315918,-105.1962485
102,North Rubey Drive,80403,39.7645020,-105.2329632
393,North Washington Avenue,80403,39.7687126,-105.2349095
107,North Rubey Drive,80403,39.7656698,-105.2320072
701,24th Street,80401,39.7441332,-105.2115217
16630,West Colfax Avenue,80401,39.7246764,-105.1856381
400,Corporate Circle,80401,39.7198875,-105.1944331
331,Corporate Circle,80401,39.7213155,-105.1943708
425,Corporate Circle,80401,39.7213715,-105.1932124
425,Corporate Circle,80401,39.7213721,-105.1925132
420,Corporate Circle,80401,39.7201405,-105.1960523
611,Corporate Circle,80401,39.7198676,-105.1920963
621,Corporate Circle,80401,39.7175090,-105.1917059
581,Conference Place,80401,39.7198991,-105.1905575
605,Johnson Road,80401,39.7262693,-105.1997600
1733,Maple Street,80401,39.7487344,-105.2211640
725,10th Street,80401,39.7574840,-105.2223097
1250,12th Street,80401,39.7526077,-105.2271037
1200,11th Street,80401,39.7535685,-105.2275603
1711,Illinois Street,80401,39.7494644,-105.2200944
1301,19th Street,80401,39.7460853,-105.2211997
1920,Jones Road,80401,39.7451794,-105.2221771
1922,Jones Road,80401,39.7450984,-105.2223296
1001,Vasquez Street,80401,39.7617006,-105.2151836
16899,West Colfax Avenue,80401,39.7245441,-105.1912972
17250,West Colfax Avenue,80401,39.7222803,-105.1947655
200,Violet Street,80401,39.7205715,-105.1964177
17101,West Colfax Avenue,80401,39.7240842,-105.1931959
1100,Johnson Road,80401,39.7352461,-105.1998173
1020,Johnson Road,80401,39.7338674,-105.1990258
720,Golden Ridge Road,80401,39.7284109,-105.2087779
750,Heritage Road,80401,39.7287285,-105.2091973
750,Heritage Road,80401,39.7284534,-105.2093684
700,Golden Ridge Road,80401,39.7281533,-105.2072596
16816,West 16th Place,80401,39.7431244,-105.1900769
16812,West 16th Place,80401,39.7430917,-105.1898493
16835,Golden Hills Road,80401,39.7426351,-105.1896744
1617,Salvia Street,80401,39.7428474,-105.1898014
16817,West 16th Place,80401,39.7434766,-105.1900175
1624,Salvia Street,80401,39.7432295,-105.1892108
1620,Salvia Street,80401,39.7429765,-105.1892011
6745,South Golden Road,80401,39.7424054,-105.1891399
16811,West 16th Place,80401,39.7435314,-105.1898021
16815,Golden Hills Road,80401,39.7425995,-105.1891770
1621,Salvia Street,80401,39.7430714,-105.1895985
1616,Salvia Street,80401,39.7427478,-105.1891960
17015,West 16th Place,80401,39.7434746,-105.1910082
16805,West 16th Place,80401,39.7434881,-105.1894769
17012,West 16th Place,80401,39.7431208,-105.1910141
17000,West 16th Place,80401,39.7431230,-105.1907721
17123,Golden Hills Place,80401,39.7428062,-105.1918282
1616,Ulysses Street,80401,39.7430731,-105.1923286
17035,Golden Hills Road,80401,39.7427815,-105.1913310
17003,Golden Hills Road,80401,39.7427794,-105.1907763
17103,Golden Hills Place,80401,39.7427835,-105.1915809
17118,West 16th Place,80401,39.7431145,-105.1917965
17100,West 16th Place,80401,39.7431145,-105.1915575
16845,Golden Hills Road,80401,39.7426458,-105.1900996
17124,West 16th Place,80401,39.7431510,-105.1920515
17024,West 16th Place,80401,39.7431141,-105.1913035
17131,Golden Hills Place,80401,39.7427997,-105.1920703
17121,West 16th Place,80401,39.7434641,-105.1918622
17033,West 16th Place,80401,39.7434613,-105.1913047
17205,West 16th Place,80401,39.7434678,-105.1923999
17203,West 16th Place,80401,39.7434885,-105.1921248
1617,Ulysses Street,80401,39.7430825,-105.1927530
17101,West 16th Place,80401,39.7434854,-105.1915894
17200,West 17th Place,80401,39.7437789,-105.1941142
17224,West 17th Place,80401,39.7437822,-105.1950860
1708,Rimrock Street,80401,39.7443789,-105.1940024
17218,West 17th Place,80401,39.7438267,-105.1948489
1700,Rimrock Street,80401,39.7439841,-105.1939419
1712,Rimrock Street,80401,39.7445343,-105.1940368
1704,Rimrock Street,80401,39.7441786,-105.1940002
17212,West 17th Place,80401,39.7438148,-105.1946134
17206,West 17th Place,80401,39.7437688,-105.1943816
1615,Ulysses Street,80401,39.7428642,-105.1928286
17215,West 17th Place,80401,39.7441979,-105.1947397
17208,Rimrock Drive,80401,39.7453097,-105.1945950
1603,Ulysses Street,80401,39.7422560,-105.1930231
17014,Golden Hills Road,80401,39.7424230,-105.1909592
1713,Rimrock Street,80401,39.7447347,-105.1945087
17202,Rimrock Street,80401,39.7453353,-105.1942507
1724,Rimrock Street,80401,39.7451188,-105.1939632
17220,Rimrock Drive,80401,39.7452776,-105.1951160
17217,Rimrock Drive,80401,39.7449240,-105.1951169
17214,Rimrock Drive,80401,39.7452882,-105.1948756
1709,Rimrock Street,80401,39.7444878,-105.1945355
17207,West 17th Place,80401,39.7442148,-105.1945119
17221,West 17th Place,80401,39.7441953,-105.1950360
17137,West 16th Avenue,80401,39.7419941,-105.1923129
17229,Rimrock Drive,80401,39.7448927,-105.1956936
1608,Ulysses Street,80401,39.7423893,-105.1924895
17226,Rimrock Drive,80401,39.7452682,-105.1955584
1607,Ulysses Street,80401,39.7424599,-105.1929435
17301,Rimrock Drive,80401,39.7452581,-105.1960234
1716,Rimrock Street,80401,39.7447396,-105.1940096
17232,Rimrock Drive,80401,39.7452730,-105.1958005
1611,Ulysses Street,80401,39.7426643,-105.1928740
1720,Rimrock Street,80401,39.7448973,-105.1940053
17205,Rimrock Drive,80401,39.7449329,-105.1945766
1529,Ulysses Street,80401,39.7418055,-105.1930137
17207,West 15th Place,80401,39.7416652,-105.1934835
1521,Ulysses Street,80401,39.7416154,-105.1932088
1500,Ulysses Street,80401,39.7405981,-105.1937913
17212,West 16th Avenue,80401,39.7420667,-105.1936900
1512,Ulysses Street,80401,39.7410532,-105.1932401
1508,Ulysses Street,80401,39.7409254,-105.1934501
1509,Ulysses Street,80401,39.7410764,-105.1938208
17208,West 16th Avenue,80401,39.7420214,-105.1934595
1504,Ulysses Street,80401,39.7407138,-105.1935917
17216,West 16th Avenue,80401,39.7421330,-105.1939502
1524,Ulysses Street,80401,39.7415198,-105.1927343
17211,West 15th Place,80401,39.7417425,-105.1937547
17219,West 15th Place,80401,39.7418320,-105.1942802
17215,West 15th Place,80401,39.7418394,-105.1939885
1513,Ulysses Street,80401,39.7412889,-105.1935707
17204,West 16th Avenue,80401,39.7418995,-105.1932325
1520,Ulysses Street,80401,39.7413646,-105.1929212
1528,Ulysses Street,80401,39.7416717,-105.1925446
1516,Ulysses Street,80401,39.7412252,-105.1931055
17331,Rimrock Drive,80401,39.7451787,-105.1972045
17501,Rimrock Drive,80401,39.7441057,-105.1979823
17337,Rimrock Drive,80401,39.7452470,-105.1974265
17417,Rimrock Drive,80401,39.7446202,-105.1983068
17421,Rimrock Drive,80401,39.7444242,-105.1982990
17343,Rimrock Drive,80401,39.7452470,-105.1976714
17401,Rimrock Drive,80401,39.7452300,-105.1979015
17405,Rimrock Drive,80401,39.7452430,-105.1982221
17413,Rimrock Drive,80401,39.7448234,-105.1982704
17314,West 17th Place,80401,39.7438117,-105.1960698
17424,West 17th Place,80401,39.7437949,-105.1974945
17325,Rimrock Drive,80401,39.7451650,-105.1969766
17406,West 17th Place,80401,39.7437956,-105.1967761
17320,West 17th Place,80401,39.7438051,-105.1963032
17418,West 17th Place,80401,39.7438060,-105.1972572
17400,West 17th Place,80401,39.7437804,-105.1965499
17412,West 17th Place,80401,39.7438161,-105.1970175
17425,Rimrock Drive,80401,39.7442572,-105.1981919
17319,Rimrock Drive,80401,39.7452073,-105.1967600
17311,West 17th Place,80401,39.7442008,-105.1959445
17317,West 17th Place,80401,39.7441818,-105.1962610
17407,West 17th Place,80401,39.7441719,-105.1968722
17515,West 17th Place,80401,39.7441812,-105.1971688
17326,Rimrock Drive,80401,39.7448123,-105.1969691
1714,West 17th Drive,80401,39.7445208,-105.1966218
1717,West 17th Drive,80401,39.7444363,-105.1973118
17308,Rimrock Drive,80401,39.7449117,-105.1963626
17423,West 17th Place,80401,39.7441515,-105.1974895
1726,West 17th Drive,80401,39.7446687,-105.1967811
1708,West 17th Drive,80401,39.7443808,-105.1963441
17336,Rimrock Drive,80401,39.7448447,-105.1973588
17422,Rimrock Drive,80401,39.7444039,-105.1976460
816,Washington Avenue,80401,39.7583662,-105.2246797
1810,Ford Street,80401,39.7511976,-105.2145455
1607,Washington Avenue,80401,39.7519522,-105.2178286
17784,Lunnonhaus Drive,80401,39.7400797,-105.2002628
17794,West 14th Avenue,80401,39.7383785,-105.2011469
3500,Illinois Street,80401,39.7338250,-105.2116509
3150,Illinois Street,80401,39.7355857,-105.2119639
3250,Illinois Street,80401,39.7354834,-105.2112229
1801,Moly Road,80401,39.7428379,-105.2230311
722,Washington Avenue,80401,39.7592723,-105.2254147
922,Washington Avenue,80401,39.7574984,-105.2237242
908,Washington Avenue,80401,39.7579213,-105.2240226
914,Washington Avenue,80401,39.7576615,-105.2238040
912,Washington Avenue,80401,39.7577881,-105.2239189
1299,Washington Avenue,80401,39.7550205,-105.2205010
1010,10th Street,80401,39.7562648,-105.2262915
17428,West 10th Avenue,80401,39.7316913,-105.1980780
17484,West 10th Avenue,80401,39.7319457,-105.1971236
17470,West 10th Avenue,80401,39.7322479,-105.1970589
17400,West 10th Avenue,80401,39.7312341,-105.1976693
17442,West 10th Avenue,80401,39.7321802,-105.1981521
17498,West 10th Avenue,80401,39.7318704,-105.1976143
17414,West 10th Avenue,80401,39.7314794,-105.1979579
615,Water Street,80401,39.7576157,-105.2213139
1012,Ford Street,80401,39.7578097,-105.2207666
104,North Rubey Drive,80403,39.7651806,-105.2335514
102,North Rubey Drive,80403,39.7647417,-105.2331624
103,North Ford Street,80403,39.7664609,-105.2279953
344,Goldco Circle,80403,39.7633049,-105.2280234
350,Gregory Drive,80403,39.7640603,-105.2273115
364,Goldco Circle,80403,39.7641400,-105.2278438
326,Gregory Drive,80403,39.7637942,-105.2269648
320,Gregory Drive,80403,39.7640838,-105.2269855
345,Gregory Drive,80403,39.7638864,-105.2271420
352,Goldco Circle,80403,39.7636368,-105.2281074
348,Goldco Circle,80403,39.7634720,-105.2281104
330,Gregory Drive,80403,39.7635905,-105.2270730
360,Goldco Circle,80403,39.7639868,-105.2279683
339,Gregory Drive,80403,39.7635300,-105.2273613
372,Goldco Circle,80403,39.7643653,-105.2275107
356,Goldco Circle,80403,39.7638217,-105.2280545
368,Goldco Circle,80403,39.7642584,-105.2276859
337,Gregory Drive,80403,39.7634139,-105.2274146
341,Gregory Drive,80403,39.7636662,-105.2272256
340,Goldco Circle,80403,39.7631475,-105.2279116
1350,North Ford Street,80403,39.7771866,-105.2321281
151,Heritage Road,80401,39.7178694,-105.2086403
16350,Table Mountain Parkway,80403,39.7821715,-105.1836758
1700,Maple Street,80401,39.7486524,-105.2220062
550,Spur Court,80403,39.7794660,-105.2307186
1291,North Ford Street,80403,39.7769577,-105.2310727
1265,North Ford Street,80403,39.7764645,-105.2310885
1375,North Ford Street,80403,39.7781015,-105.2309937
524,Wyoming Circle,80403,39.7794292,-105.2300619
500,Wyoming Circle,80403,39.7794310,-105.2296300
588,Spur Court,80403,39.7789839,-105.2310329
1351,North Ford Street,80403,39.7777795,-105.2310070
1313,North Ford Street,80403,39.7771232,-105.2310811
1253,North Ford Street,80403,39.7763058,-105.2310994
1325,North Ford Street,80403,39.7773021,-105.2310658
548,Spur Court,80403,39.7794553,-105.2305180
1337,North Ford Street,80403,39.7774657,-105.2310334
1241,North Ford Street,80403,39.7761313,-105.2311065
536,Wyoming Circle,80403,39.7793845,-105.2302756
1289,North Ford Street,80403,39.7767931,-105.2310811
512,Wyoming Circle,80403,39.7794315,-105.2298453
1227,North Ford Street,80403,39.7766285,-105.2311190
576,Spur Court,80403,39.7790306,-105.2312326
574,Spur Court,80403,39.7794495,-105.2311428
1363,North Ford Street,80403,39.7779458,-105.2310021
562,Spur Court,80403,39.7794551,-105.2309490
1390,Wyoming Street,80403,39.7783297,-105.2305133
1349,North Ford Street,80403,39.7776144,-105.2310211
2301,Ford Street,80401,39.7476266,-105.2103451
1391,Wyoming Circle,80403,39.7784910,-105.2299742
407,Wyoming Circle,80403,39.7774182,-105.2283254
1389,Wyoming Circle,80403,39.7783175,-105.2298937
1351,Wyoming Circle,80403,39.7775988,-105.2298911
432,Wyoming Circle,80403,39.7780690,-105.2278407
418,Wyoming Circle,80403,39.7775618,-105.2277319
1339,Wyoming Circle,80403,39.7774187,-105.2298677
461,Wyoming Circle,80403,39.7788246,-105.2285052
497,Wyoming Circle,80403,39.7790153,-105.2291801
470,Wyoming Circle,80403,39.7790606,-105.2280747
447,Wyoming Circle,80403,39.7784245,-105.2283900
405,Wyoming Circle,80403,39.7771708,-105.2282552
1422,Pine Ridge Road,80403,39.7788463,-105.2296274
444,Wyoming Circle,80403,39.7783207,-105.2278649
420,Wyoming Circle,80403,39.7778337,-105.2277621
1324,Pine Ridge Road,80403,39.7774986,-105.2294345
472,Wyoming Circle,80403,39.7792793,-105.2282991
485,Wyoming Circle,80403,39.7790114,-105.2289312
1407,Pine View Road,80403,39.7785664,-105.2290045
1362,Pine Ridge Road,80403,39.7780784,-105.2293998
1345,Pine View Road,80403,39.7777841,-105.2289262
1415,Pine View Road,80403,39.7787593,-105.2290661
473,Wyoming Circle,80403,39.7789698,-105.2286598
1315,Wyoming Circle,80403,39.7771144,-105.2296219
1381,Pine View Road,80403,39.7783771,-105.2289398
1336,Pine Ridge Road,80403,39.7776906,-105.2294261
1347,Pine View Road,80403,39.7779803,-105.2289130
541,Wyoming Circle,80403,39.7790258,-105.2300733
1363,Wyoming Circle,80403,39.7777680,-105.2298620
486,Wyoming Circle,80403,39.7794258,-105.2288564
1307,Pine View Road,80403,39.7770165,-105.2289320
1333,Pine View Road,80403,39.7775942,-105.2289028
419,Wyoming Circle,80403,39.7776414,-105.2283415
423,Wyoming Circle,80403,39.7780217,-105.2283479
425,Wyoming Circle,80403,39.7782198,-105.2283523
1314,Pine Ridge Road,80403,39.7773225,-105.2294228
1396,Pine Ridge Road,80403,39.7784631,-105.2294773
1321,Pine View Road,80403,39.7774051,-105.2289165
1303,Wyoming Circle,80403,39.7770575,-105.2294379
1327,Wyoming Circle,80403,39.7772480,-105.2298098
474,Wyoming Circle,80403,39.7794132,-105.2285888
593,Wyoming Circle,80403,39.7788153,-105.2301993
455,Wyoming Circle,80403,39.7786108,-105.2284451
1413,Wyoming Circle,80403,39.7786158,-105.2301064
1348,Pine Ridge Road,80403,39.7778830,-105.2294088
1309,Pine View Road,80403,39.7772140,-105.2289270
406,Wyoming Circle,80403,39.7772787,-105.2278196
1379,Pine View Road,80403,39.7781813,-105.2289066
421,Wyoming Circle,80403,39.7778276,-105.2283250
456,Wyoming Circle,80403,39.7785633,-105.2278990
1418,Pine Ridge Road,80403,39.7786600,-105.2295709
1387,Wyoming Circle,80403,39.7781207,-105.2298776
1434,Pine Ridge Road,80403,39.7790587,-105.2297133
1375,Wyoming Circle,80403,39.7779372,-105.2298597
1374,Pine Ridge Road,80403,39.7782769,-105.2294492
468,Wyoming Circle,80403,39.7788129,-105.2279485
1276,Mesa Court,80403,39.7764432,-105.2302873
1277,Mesa Court,80403,39.7765376,-105.2297636
1376,Wyoming Street,80403,39.7779780,-105.2303831
1352,Wyoming Street,80403,39.7776506,-105.2304041
1326,Wyoming Street,80403,39.7771479,-105.2303638
1249,Wyoming Street,80403,39.7759602,-105.2287562
1289,Mesa Court,80403,39.7766886,-105.2297488
1338,Wyoming Street,80403,39.7773107,-105.2303939
1265,Mesa Court,80403,39.7763704,-105.2297717
1284,Wyoming Street,80403,39.7763372,-105.2292713
1273,Wyoming Street,80403,39.7764832,-105.2287523
1184,Wyoming Street,80403,39.7753629,-105.2294028
1286,Wyoming Street,80403,39.7765536,-105.2293618
1196,Wyoming Street,80403,39.7755684,-105.2292933
1252,Wyoming Street,80403,39.7761390,-105.2292645
1388,Wyoming Street,80403,39.7781680,-105.2304222
1219,Mesa Court,80403,39.7758841,-105.2296616
1290,Mesa Court,80403,39.7767846,-105.2302469
1208,Mesa Court,80403,39.7757838,-105.2303020
1230,Wyoming Street,80403,39.7759536,-105.2292887
1288,Mesa Court,80403,39.7766079,-105.2302858
1227,Wyoming Street,80403,39.7757386,-105.2287592
1242,Mesa Court,80403,39.7761114,-105.2302906
1261,Wyoming Street,80403,39.7762408,-105.2287109
1254,Mesa Court,80403,39.7762941,-105.2302829
1253,Mesa Court,80403,39.7762041,-105.2297741
1220,Mesa Court,80403,39.7759585,-105.2303007
1201,Mesa Court,80403,39.7756285,-105.2297698
1172,Wyoming Street,80403,39.7752124,-105.2295919
1364,Wyoming Street,80403,39.7778179,-105.2304052
1218,Wyoming Street,80403,39.7757588,-105.2292765
1231,Mesa Court,80403,39.7760421,-105.2298001
1340,Wyoming Street,80403,39.7774985,-105.2304120
800,Jefferson County Parkway,80401,39.7308003,-105.2076428
920,12th Street,80401,39.7545478,-105.2234328
900,12th Street,80401,39.7548517,-105.2227525
711,12th Street,80401,39.7555983,-105.2205970
1200,Arapahoe Street,80401,39.7544905,-105.2224861
906,12th Street,80401,39.7548053,-105.2229161
1100,Arapahoe Street,80401,39.7552292,-105.2230706
619,14th Street,80401,39.7543487,-105.2182478
1717,Washington Avenue,80401,39.7509103,-105.2168209
1205,Cheyenne Street,80401,39.7541896,-105.2232034
701,12th Street,80401,39.7557065,-105.2203447
1001,13th Street,80401,39.7531282,-105.2228355
1511,Washington Avenue,80401,39.7525669,-105.2181240
715,12th Street,80401,39.7554278,-105.2207308
214,Cheyenne Street,80403,39.7621118,-105.2311199
1008,4th Street,80403,39.7612252,-105.2305144
310,Cheyenne Street,80403,39.7615900,-105.2306343
1024,4th Street,80403,39.7609071,-105.2310878
304,Cheyenne Street,80403,39.7616890,-105.2307353
300,Cheyenne Street,80403,39.7617913,-105.2308245
1016,4th Street,80403,39.7610593,-105.2307942
222,Cheyenne Street,80403,39.7618884,-105.2309231
1012,4th Street,80403,39.7611438,-105.2306524
218,Cheyenne Street,80403,39.7619917,-105.2310055
312,Cheyenne Street,80403,39.7614877,-105.2305309
1420,Washington Avenue,80401,39.7530175,-105.2196287
1004,4th Street,80403,39.7613530,-105.2304276
1020,4th Street,80403,39.7609825,-105.2309250
1615,Arapahoe Street,80401,39.7511919,-105.2186996
807,16th Street,80401,39.7517124,-105.2186501
1611,Arapahoe Street,80401,39.7513678,-105.2189470
815,16th Street,80401,39.7516093,-105.2187535
1620,Washington Avenue,80401,39.7513558,-105.2179311
1621,Arapahoe Street,80401,39.7510024,-105.2185300
1616,Washington Avenue,80401,39.7514864,-105.2180700
814,17th Street,80401,39.7511128,-105.2183389
1701,Washington Avenue,80401,39.7513098,-105.2171218
817,16th Street,80401,39.7515490,-105.2189154
1600,Washington Avenue,80401,39.7518517,-105.2183941
423,10th Street,80401,39.7589244,-105.2195825
1000,10th Street,80401,39.7564502,-105.2259753
400,18th Street,80401,39.7530145,-105.2127897
1523,Ford Street,80401,39.7536177,-105.2160066
1411,8th Street,80401,39.7552807,-105.2316397
1020,19th Street,80401,39.7482482,-105.2191466
2221,Ford Street,80401,39.7478884,-105.2108029
2120,Ford Street,80401,39.7485197,-105.2121649
1820,Jackson Street,80401,39.7503519,-105.2155098
1823,Ford Street,80401,39.7512244,-105.2136571
1500,West Campus Road,80401,39.7488540,-105.2254622
1600,West Campus Road,80401,39.7483517,-105.2247830
1550,West Campus Road,80401,39.7486714,-105.2250936
501,Maple Street,80403,39.7592085,-105.2311026
600,1st Street,80403,39.7661617,-105.2284109
602,1st Street,80403,39.7660274,-105.2285319
604,1st Street,80403,39.7659821,-105.2287189
624,1st Street,80403,39.7658050,-105.2289593
626,1st Street,80403,39.7657196,-105.2291143
1905,Tangent Way,80401,39.7417856,-105.2249841
1817,Moly Road,80401,39.7423661,-105.2237284
1903,Tangent Way,80401,39.7420793,-105.2253239
1909,Digger Drive,80401,39.7423079,-105.2249190
1907,Digger Drive,80401,39.7419208,-105.2246927
1911,Digger Drive,80401,39.7420249,-105.2242212
1913,Digger Drive,80401,39.7423634,-105.2244422
121,Heritage Road,80401,39.7163387,-105.2093550
17140,West Colfax Avenue,80401,39.7221948,-105.1926248
1803,West Campus Road,80401,39.7464317,-105.2231548
1807,West Campus Road,80401,39.7466673,-105.2224345
1869,West Campus Road,80401,39.7473776,-105.2227538
1770,Elm Street,80401,39.7476414,-105.2224727
1751,West Campus Road,80401,39.7470842,-105.2235981
1701,West Campus Road,80401,39.7474392,-105.2240259
1800,West Campus Road,80401,39.7470198,-105.2231880
519,Washington Avenue,80403,39.7610798,-105.2263375
520,Washington Avenue,80403,39.7608719,-105.2268054
522,Washington Avenue,80403,39.7608015,-105.2266979
619,6th Street,80403,39.7611915,-105.2246777
501,East Street,80403,39.7631639,-105.2241399
506,East Street,80403,39.7627864,-105.2241997
409,Ford Street,80403,39.7633817,-105.2252677
413,Ford Street,80403,39.7632302,-105.2251317
1626,Salvia Street,80401,39.7434785,-105.1891342
150,Capital Drive,80401,39.7175407,-105.1963081
150,Capital Drive,80401,39.7166951,-105.1962507
150,Capital Drive,80401,39.7170074,-105.1954128
1911,Sage Drive,80401,39.7455422,-105.2272119
1722,Illinois Street,80401,39.7487462,-105.2205353
16401,Table Mountain Parkway,80403,39.7796508,-105.1862338
4415,McIntyre Street,80403,39.7768238,-105.1754993
1200,Golden Circle,80401,39.7270214,-105.2085445
1150,Golden Circle,80401,39.7270678,-105.2077680
1250,Golden Circle,80401,39.7263974,-105.2087363
201,Iowa Drive,80403,39.7668702,-105.2285657
203,Iowa Drive,80403,39.7669899,-105.2283630
205,Iowa Drive,80403,39.7671024,-105.2281781
207,Iowa Drive,80403,39.7672109,-105.2279415
209,Iowa Drive,80403,39.7674464,-105.2279003
211,Iowa Drive,80403,39.7675783,-105.2280517
213,Iowa Drive,80403,39.7677503,-105.2281945
215,Iowa Drive,80403,39.7679079,-105.2283024
214,Iowa Drive,80403,39.7676707,-105.2286989
212,Iowa Drive,80403,39.7675333,-105.2285219
210,Iowa Drive,80403,39.7673933,-105.2284102
203,North Ford Street,80403,39.7671357,-105.2288438
207,North Ford Street,80403,39.7672692,-105.2289716
211,North Ford Street,80403,39.7674227,-105.2291079
600,Iowa Street,80403,39.7668337,-105.2291620
204,North Ford Street,80403,39.7669530,-105.2292573
208,North Ford Street,80403,39.7670514,-105.2293598
212,North Ford Street,80403,39.7671519,-105.2294717
216,North Ford Street,80403,39.7672692,-105.2295817
101,Ford Street,80403,39.7659660,-105.2276921
301,Iowa Court,80403,39.7676517,-105.2293441
303,Iowa Court,80403,39.7677443,-105.2291812
305,Iowa Court,80403,39.7678496,-105.2289867
307,Iowa Court,80403,39.7679129,-105.2288266
603,Iowa Street,80403,39.7664919,-105.2289775
104,East Street,80403,39.7660586,-105.2270123
108,East Street,80403,39.7658909,-105.2269192
112,East Street,80403,39.7657248,-105.2268445
200,East Street,80403,39.7655508,-105.2267714
202,East Street,80403,39.7653736,-105.2266755
204,East Street,80403,39.7651453,-105.2265714
208,East Street,80403,39.7647929,-105.2262096
210,East Street,80403,39.7646565,-105.2260169
300,East Street,80403,39.7645292,-105.2258076
304,East Street,80403,39.7644016,-105.2256135
308,East Street,80403,39.7642723,-105.2254843
312,East Street,80403,39.7641339,-105.2253780
316,East Street,80403,39.7639957,-105.2252513
400,East Street,80403,39.7638575,-105.2251215
404,East Street,80403,39.7637068,-105.2250149
408,East Street,80403,39.7635648,-105.2249190
412,East Street,80403,39.7634043,-105.2248144
405,Ford Street,80403,39.7635140,-105.2253920
401,Ford Street,80403,39.7636614,-105.2255244
317,Ford Street,80403,39.7637870,-105.2256531
313,Ford Street,80403,39.7639331,-105.2257858
309,Ford Street,80403,39.7640514,-105.2259017
305,Ford Street,80403,39.7641821,-105.2260246
301,Ford Street,80403,39.7643430,-105.2261752
221,Ford Street,80403,39.7645093,-105.2263181
217,Ford Street,80403,39.7646320,-105.2264401
213,Ford Street,80403,39.7648467,-105.2266374
209,Ford Street,80403,39.7650403,-105.2267872
205,Ford Street,80403,39.7652001,-105.2269302
201,Ford Street,80403,39.7653867,-105.2270930
113,Ford Street,80403,39.7655396,-105.2272425
109,Ford Street,80403,39.7656594,-105.2273914
105,Ford Street,80403,39.7658016,-105.2275187
205,East Street,80403,39.7653765,-105.2262502
207,East Street,80403,39.7650980,-105.2260756
211,East Street,80403,39.7649949,-105.2258892
215,East Street,80403,39.7648580,-105.2257179
303,East Street,80403,39.7647500,-105.2255042
311,East Street,80403,39.7644210,-105.2250688
401,East Street,80403,39.7640025,-105.2246975
407,East Street,80403,39.7638193,-105.2245808
411,East Street,80403,39.7636518,-105.2244645
415,East Street,80403,39.7634961,-105.2243550
419,East Street,80403,39.7633280,-105.2242494
410,Washington Avenue,80403,39.7618745,-105.2277167
408,Washington Avenue,80403,39.7620068,-105.2278856
402,Washington Avenue,80403,39.7621986,-105.2281000
220,Washington Avenue,80403,39.7632701,-105.2289794
216,Washington Avenue,80403,39.7633797,-105.2290884
212,Washington Avenue,80403,39.7634931,-105.2291881
208,Washington Avenue,80403,39.7636062,-105.2292882
204,Washington Avenue,80403,39.7637141,-105.2294019
200,Washington Avenue,80403,39.7638352,-105.2295024
336,Goldco Circle,80403,39.7630687,-105.2276686
330,Goldco Circle,80403,39.7630908,-105.2273597
324,Goldco Circle,80403,39.7632107,-105.2270478
320,Goldco Circle,80403,39.7633135,-105.2269024
316,Goldco Circle,80403,39.7634294,-105.2267585
308,Goldco Circle,80403,39.7636476,-105.2265984
304,Goldco Circle,80403,39.7638635,-105.2265492
300,Goldco Circle,80403,39.7640265,-105.2265469
222,Ford Street,80403,39.7641607,-105.2266073
218,Ford Street,80403,39.7642861,-105.2266776
214,Ford Street,80403,39.7644872,-105.2269026
210,Ford Street,80403,39.7646057,-105.2270163
717,2nd Street,80403,39.7641772,-105.2287676
721,2nd Street,80403,39.7640866,-105.2289132
725,2nd Street,80403,39.7640349,-105.2290819
190,Washington Avenue,80403,39.7641385,-105.2298193
1001,Golden Park Drive,80403,39.7634111,-105.2321541
910,Golden Park Place,80403,39.7633087,-105.2316299
905,Golden Park Drive,80403,39.7635413,-105.2316104
907,Golden Park Drive,80403,39.7634607,-105.2318372
1003,Golden Park Drive,80403,39.7632734,-105.2323080
1005,Golden Park Drive,80403,39.7631734,-105.2325350
1007,Golden Park Drive,80403,39.7630582,-105.2327551
1018,Golden Park Place,80403,39.7628065,-105.2327124
1016,Golden Park Place,80403,39.7629122,-105.2324874
1014,Golden Park Place,80403,39.7630302,-105.2322876
1012,Golden Park Place,80403,39.7631333,-105.2320692
1010,Golden Park Place,80403,39.7632167,-105.2318307
1019,Golden Park Place,80403,39.7624460,-105.2324548
1017,Golden Park Place,80403,39.7625744,-105.2322302
1015,Golden Park Place,80403,39.7626887,-105.2320212
1004,Golden Park Drive,80403,39.7634697,-105.2327523
1002,Golden Park Drive,80403,39.7635630,-105.2325286
1000,Golden Park Drive,80403,39.7636701,-105.2323133
906,Golden Park Drive,80403,39.7637805,-105.2320904
902,Golden Park Drive,80403,39.7639257,-105.2319030
904,Golden Park Drive,80403,39.7641048,-105.2317712
900,Golden Park Drive,80403,39.7642857,-105.2316694
405,Garden Glen Court,80401,39.7650640,-105.2245992
408,Garden Glen Court,80401,39.7649434,-105.2241006
410,Garden Street,80401,39.7648018,-105.2237601
420,Garden Street,80401,39.7646266,-105.2237490
425,Garden Street,80401,39.7645222,-105.2233042
430,Garden Street,80401,39.7642766,-105.2237729
434,Garden Street,80401,39.7640636,-105.2237705
440,Garden Street,80401,39.7638048,-105.2237358
429,Garden Street,80401,39.7642781,-105.2232903
421,Garden Street,80401,39.7640781,-105.2232602
512,Clark Street,80401,39.7638973,-105.2232920
423,Washington Avenue,80403,39.7618805,-105.2270695
419,Washington Avenue,80403,39.7620138,-105.2271718
417,Washington Avenue,80403,39.7621092,-105.2272717
411,Washington Avenue,80403,39.7622154,-105.2273579
509,Washington Avenue,80403,39.7613857,-105.2266106
515,Washington Avenue,80403,39.7612787,-105.2265240
505,Washington Avenue,80403,39.7615369,-105.2266929
501,Washington Avenue,80403,39.7616137,-105.2267767
1750,Jackson Street,80401,39.7513117,-105.2164190
1300,Washington Avenue,80401,39.7542919,-105.2206964
805,13th Street,80401,39.7541866,-105.2208599
502,Wyoming Street,80403,39.7751054,-105.2309121
1111,North Ford Street,80403,39.7753909,-105.2309209
1201,North Ford Street,80403,39.7756385,-105.2309044
600,Virginia Street,80403,39.7758476,-105.2315812
606,Virginia Street,80403,39.7758455,-105.2318230
612,Virginia Street,80403,39.7758779,-105.2320561
618,Virginia Street,80403,39.7758452,-105.2322909
624,Virginia Street,80403,39.7758434,-105.2325130
630,Virginia Street,80403,39.7758348,-105.2327478
636,Virginia Street,80403,39.7758477,-105.2329875
642,Virginia Street,80403,39.7758386,-105.2332210
1112,N Jackson Street,80403,39.7754761,-105.2334078
1106,N Jackson Street,80403,39.7752839,-105.2334247
1100,N Jackson Street,80403,39.7750738,-105.2333840
1056,N Jackson Street,80403,39.7748529,-105.2334283
1050,N Jackson Street,80403,39.7745822,-105.2334205
1044,N Jackson Street,80403,39.7743736,-105.2334106
601,Virginia Street,80403,39.7754641,-105.2315272
607,Virginia Street,80403,39.7754841,-105.2317545
613,Virginia Street,80403,39.7754960,-105.2320002
619,Virginia Street,80403,39.7754783,-105.2322441
625,Virginia Street,80403,39.7754917,-105.2324828
613,Virginia Street,80403,39.7754937,-105.2326948
1109,Virginia Street,80403,39.7754632,-105.2329288
638,Wyoming Street,80403,39.7751733,-105.2329354
632,Wyoming Street,80403,39.7751486,-105.2326987
626,Wyoming Street,80403,39.7751087,-105.2324632
620,Wyoming Street,80403,39.7751252,-105.2322276
614,Wyoming Street,80403,39.7751200,-105.2319958
608,Wyoming Street,80403,39.7751218,-105.2317632
1102,Wyoming Street,80403,39.7751622,-105.2315259
1070,Deer Springs Lane,80403,39.7751308,-105.2288775
1068,Deer Springs Lane,80403,39.7748557,-105.2287833
1056,Deer Springs Lane,80403,39.7745927,-105.2286543
1044,Deer Springs Lane,80403,39.7743311,-105.2285189
1032,Deer Springs Lane,80403,39.7740966,-105.2284323
1020,Deer Springs Lane,80403,39.7738629,-105.2282460
1029,Deer Springs Lane,80403,39.7737282,-105.2279545
1035,Deer Springs Lane,80403,39.7742427,-105.2279908
1812,Illinois Street,80401,39.7482217,-105.2199322
17005,West 16th Place,80401,39.7434549,-105.1907418
1315,Cody Trail,80403,39.7599276,-105.2331921
1313,Cody Trail,80403,39.7598633,-105.2329825
1311,Cody Trail,80403,39.7598339,-105.2327541
1309,Cody Trail,80403,39.7598013,-105.2325148
1307,Cody Trail,80403,39.7597557,-105.2322975
1305,Cody Trail,80403,39.7598133,-105.2320424
1303,Cody Trail,80403,39.7599330,-105.2318034
1301,Cody Trail,80403,39.7601621,-105.2317111
1306,Cody Trail,80403,39.7601842,-105.2324014
1310,Cody Trail,80403,39.7602126,-105.2326135
1312,Cody Trail,80403,39.7602437,-105.2328342
1314,Cody Trail,80403,39.7602834,-105.2330287
716,2nd Street,80403,39.7644209,-105.2291889
708,2nd Street,80403,39.7645684,-105.2289496
702,2nd Street,80403,39.7647907,-105.2289941
700,2nd Street,80403,39.7648013,-105.2285031
620,2nd Street,80403,39.7649138,-105.2283738
616,2nd Street,80403,39.7649912,-105.2282389
612,2nd Street,80403,39.7650579,-105.2280717
608,2nd Street,80403,39.7651549,-105.2279397
604,2nd Street,80403,39.7652410,-105.2277514
600,2nd Street,80403,39.7653098,-105.2276220
110,Ford Street,80403,39.7654567,-105.2277603
715,1st Street,80403,39.7649610,-105.2296263
711,1st Street,80403,39.7650685,-105.2294062
705,1st Street,80403,39.7651306,-105.2292461
631,1st Street,80403,39.7652232,-105.2291087
621,1st Street,80403,39.7653280,-105.2289814
621,1st Street,80403,39.7654058,-105.2288312
619,1st Street,80403,39.7654376,-105.2286273
617,1st Street,80403,39.7655244,-105.2285088
611,1st Street,80403,39.7656111,-105.2283862
713,2nd Street,80403,39.7642669,-105.2286491
709,2nd Street,80403,39.7643361,-105.2284739
705,2nd Street,80403,39.7644273,-105.2283354
701,2nd Street,80403,39.7646027,-105.2280590
621,2nd Street,80403,39.7646818,-105.2279088
613,2nd Street,80403,39.7647427,-105.2277424
609,2nd Street,80403,39.7648495,-105.2276072
605,2nd Street,80403,39.7648908,-105.2274350
601,2nd Street,80403,39.7649928,-105.2273105
622,1st Street,80403,39.7659110,-105.2288375
628,1st Street,80403,39.7656410,-105.2292516
702,1st Street,80403,39.7655659,-105.2293815
704,1st Street,80403,39.7654827,-105.2295677
706,1st Street,80403,39.7654829,-105.2297447
710,1st Street,80403,39.7652993,-105.2298089
160,Washington Avenue,80403,39.7645342,-105.2301506
154,Washington Avenue,80403,39.7646185,-105.2303002
152,Washington Avenue,80403,39.7647365,-105.2304350
150,Washington Avenue,80403,39.7648316,-105.2305997
617,Iowa Street,80403,39.7661315,-105.2292550
621,Iowa Street,80403,39.7661753,-105.2295642
623,Iowa Street,80403,39.7661112,-105.2297111
705,Iowa Street,80403,39.7660032,-105.2298522
711,Iowa Street,80403,39.7659053,-105.2300199
717,Iowa Street,80403,39.7657565,-105.2302856
728,Iowa Street,80403,39.7658180,-105.2310605
722,Iowa Street,80403,39.7659127,-105.2309711
718,Iowa Street,80403,39.7660265,-105.2307981
712,Iowa Street,80403,39.7660524,-105.2306231
706,Iowa Street,80403,39.7661992,-105.2305162
702,Iowa Street,80403,39.7662333,-105.2303438
318,North Columbine Street,80403,39.7664381,-105.2304602
648,Iowa Street,80403,39.7665269,-105.2298502
319,North Columbine Street,80403,39.7666876,-105.2300149
309,North Columbine Street,80403,39.7668196,-105.2301128
305,North Columbine Street,80403,39.7669081,-105.2302300
301,North Columbine Street,80403,39.7670643,-105.2302850
323,North Columbine Street,80403,39.7671730,-105.2303464
325,North Columbine Street,80403,39.7672838,-105.2304548
327,North Columbine Street,80403,39.7673961,-105.2305649
329,North Columbine Street,80403,39.7675052,-105.2306736
331,North Columbine Street,80403,39.7676131,-105.2307786
333,North Columbine Street,80403,39.7677209,-105.2308843
400,North Ford Street,80403,39.7681225,-105.2304630
320,North Ford Street,80403,39.7679792,-105.2304183
316,North Ford Street,80403,39.7678873,-105.2302759
312,North Ford Street,80403,39.7677855,-105.2301526
308,North Ford Street,80403,39.7677044,-105.2300212
304,North Ford Street,80403,39.7675952,-105.2299158
300,North Ford Street,80403,39.7674867,-105.2298024
220,North Ford Street,80403,39.7673903,-105.2296885
300,Iowa Court,80403,39.7679428,-105.2296526
302,Iowa Court,80403,39.7680263,-105.2294668
304,Iowa Court,80403,39.7681163,-105.2292886
301,Jackson Drive,80403,39.7663831,-105.2317714
303,Jackson Drive,80403,39.7664399,-105.2315335
718,Park Street,80403,39.7664795,-105.2311214
714,Park Street,80403,39.7666199,-105.2310391
310,North Columbine Street,80403,39.7667297,-105.2308650
312,North Columbine Street,80403,39.7667056,-105.2306324
304,North Columbine Street,80403,39.7668874,-105.2308520
300,North Columbine Street,80403,39.7670180,-105.2309945
316,Jackson Place,80403,39.7672996,-105.2321620
314,Jackson Place,80403,39.7674018,-105.2319493
334,Jackson Place,80403,39.7678336,-105.2314932
330,Jackson Place,80403,39.7677663,-105.2317308
328,Jackson Place,80403,39.7677072,-105.2319612
326,Jackson Place,80403,39.7676447,-105.2322033
318,Jackson Place,80403,39.7675971,-105.2324599
320,Jackson Place,80403,39.7674192,-105.2323616
323,Jackson Place,80403,39.7677235,-105.2328201
319,Jackson Place,80403,39.7678852,-105.2329523
325,Jackson Place,80403,39.7678913,-105.2326649
327,Jackson Place,80403,39.7679827,-105.2324442
329,Jackson Place,80403,39.7680430,-105.2322104
331,Jackson Place,80403,39.7681152,-105.2319797
333,Jackson Place,80403,39.7681753,-105.2317394
335,Jackson Place,80403,39.7682092,-105.2314903
337,Jackson Drive,80403,39.7684028,-105.2315479
306,Iowa Court,80403,39.7682397,-105.2291386
309,Iowa Drive,80403,39.7684273,-105.2293204
311,Iowa Drive,80403,39.7684144,-105.2295759
315,Iowa Drive,80403,39.7683629,-105.2298008
317,Iowa Drive,80403,39.7682378,-105.2299533
217,Iowa Drive,80403,39.7680299,-105.2284315
219,Iowa Drive,80403,39.7681812,-105.2285551
301,Iowa Drive,80403,39.7683706,-105.2287068
303,Iowa Drive,80403,39.7685519,-105.2287331
305,Iowa Drive,80403,39.7687426,-105.2288604
308,Iowa Drive,80403,39.7687729,-105.2291378
310,Iowa Drive,80403,39.7687675,-105.2293767
312,Iowa Drive,80403,39.7687633,-105.2296203
314,Iowa Drive,80403,39.7687419,-105.2298493
316,Iowa Drive,80403,39.7686358,-105.2300791
318,Iowa Drive,80403,39.7685423,-105.2302371
411,North Ford Street,80403,39.7687913,-105.2304860
619,Garden Street,80401,39.7620977,-105.2231889
613,Garden Street,80401,39.7623299,-105.2231898
609,Garden Street,80401,39.7625277,-105.2231855
605,Garden Street,80401,39.7627386,-105.2231987
601,Garden Street,80401,39.7629187,-105.2232291
523,Garden Street,80401,39.7631281,-105.2232072
521,Garden Street,80401,39.7633620,-105.2232032
515,Garden Street,80401,39.7634912,-105.2232206
511,Garden Street,80401,39.7636311,-105.2231437
500,Boyd Street,80401,39.7636385,-105.2226707
386,Boyd Street,80401,39.7635182,-105.2226785
524,Boyd Street,80401,39.7632765,-105.2226170
528,Boyd Street,80401,39.7630691,-105.2226491
600,Boyd Street,80401,39.7629210,-105.2225981
606,Boyd Street,80401,39.7626944,-105.2226096
610,Boyd Street,80401,39.7625049,-105.2226096
614,Boyd Street,80401,39.7622915,-105.2227257
623,Boyd Street,80401,39.7618600,-105.2221809
613,Boyd Street,80401,39.7621242,-105.2222203
611,Boyd Street,80401,39.7623054,-105.2221982
609,Boyd Street,80401,39.7624859,-105.2222139
607,Boyd Street,80401,39.7626666,-105.2222149
605,Boyd Street,80401,39.7627851,-105.2222337
603,Boyd Street,80401,39.7628784,-105.2222282
509,High Parkway,80401,39.7629674,-105.2217192
600,Sunshine Parkway,80401,39.7629459,-105.2214618
610,Sunshine Parkway,80401,39.7627624,-105.2215085
614,Sunshine Parkway,80401,39.7626355,-105.2215088
616,Sunshine Parkway,80401,39.7624993,-105.2214954
326,Sunshine Parkway,80401,39.7623356,-105.2214936
318,Sunshine Parkway,80401,39.7622229,-105.2214943
310,Sunshine Parkway,80401,39.7620597,-105.2215214
300,Sunshine Parkway,80401,39.7619416,-105.2214825
317,Sunshine Parkway,80401,39.7619578,-105.2209936
325,Sunshine Parkway,80401,39.7622116,-105.2209727
327,Sunshine Parkway,80401,39.7623595,-105.2208609
411,Lilly Lane,80401,39.7623313,-105.2205795
321,Sunshine Parkway,80401,39.7620687,-105.2207952
401,Lilly Lane,80401,39.7623225,-105.2203666
323,Lilly Lane,80401,39.7622817,-105.2201258
315,Lilly Lane,80401,39.7623104,-105.2198915
301,Lilly Lane,80401,39.7623182,-105.2196298
200,Lilly Lane,80401,39.7626371,-105.2189234
210,Lilly Lane,80401,39.7626065,-105.2191528
220,Lilly Lane,80401,39.7625991,-105.2194334
300,Lilly Lane,80401,39.7626196,-105.2196764
310,Lilly Lane,80401,39.7626693,-105.2198561
320,Lilly Lane,80401,39.7626065,-105.2200927
400,Lilly Lane,80401,39.7626409,-105.2203916
410,Lilly Lane,80401,39.7626089,-105.2206001
615,Sunshine Parkway,80401,39.7626000,-105.2210589
611,Sunshine Parkway,80401,39.7628321,-105.2209893
301,Sunshine Parkway,80401,39.7629754,-105.2210410
423,High Parkway,80401,39.7630169,-105.2207754
415,High Parkway,80401,39.7629589,-105.2205656
401,High Parkway,80401,39.7629613,-105.2203676
315,High Parkway,80401,39.7629257,-105.2198561
301,High Parkway,80401,39.7629438,-105.2196183
223,High Parkway,80401,39.7629642,-105.2194108
215,High Parkway,80401,39.7629606,-105.2191390
201,High Parkway,80401,39.7629692,-105.2189052
119,High Parkway,80401,39.7629288,-105.2186877
117,High Parkway,80401,39.7629192,-105.2184596
123,High Parkway,80401,39.7630860,-105.2181343
121,High Parkway,80401,39.7631291,-105.2177581
428,High Parkway,80401,39.7633486,-105.2210687
426,High Parkway,80401,39.7633202,-105.2207993
418,High Parkway,80401,39.7632970,-105.2205847
410,Dunn Road,80401,39.7635771,-105.2205547
421,Sunshine Parkway,80401,39.7638539,-105.2210491
419,Sunshine Parkway,80401,39.7641364,-105.2209960
416,Sunshine Parkway,80401,39.7641416,-105.2214927
418,Sunshine Parkway,80401,39.7640066,-105.2215894
420,Sunshine Parkway,80401,39.7638540,-105.2214481
500,Sunshine Parkway,80401,39.7637152,-105.2214691
504,Sunshine Parkway,80401,39.7635894,-105.2214432
508,Sunshine Parkway,80401,39.7634679,-105.2214704
500,High Parkway,80401,39.7632781,-105.2213905
510,High Parkway,80401,39.7632788,-105.2216757
423,Boyd Street,80401,39.7633259,-105.2221948
419,Boyd Street,80401,39.7634338,-105.2222372
383,Boyd Street,80401,39.7635854,-105.2222843
207,Boyd Street,80401,39.7637694,-105.2221991
209,Boyd Street,80401,39.7638728,-105.2222272
203,Boyd Street,80401,39.7640985,-105.2222742
401,Boyd Street,80401,39.7642443,-105.2222628
500,Clark Street,80401,39.7639059,-105.2226262
416,Boyd Street,80401,39.7643202,-105.2226901
412,Boyd Street,80401,39.7645153,-105.2227347
408,Boyd Street,80401,39.7646426,-105.2227074
404,Boyd Street,80401,39.7647912,-105.2226797
400,Boyd Street,80401,39.7649672,-105.2226306
524,Plateau Parkway,80401,39.7651408,-105.2224731
520,Plateau Parkway,80401,39.7651760,-105.2222478
516,Plateau Parkway,80401,39.7651779,-105.2220587
413,Boyd Street,80401,39.7645126,-105.2222065
409,Boyd Street,80401,39.7646430,-105.2221953
517,Plateau Parkway,80401,39.7648585,-105.2221731
511,Plateau Parkway,80401,39.7648537,-105.2219192
505,Plateau Parkway,80401,39.7647369,-105.2214878
427,Plateau Parkway,80401,39.7648365,-105.2211744
421,Plateau Parkway,80401,39.7648355,-105.2209533
405,Plateau Parkway,80401,39.7648630,-105.2204958
320,Dunn Road,80401,39.7641693,-105.2202443
312,Dunn Road,80401,39.7641766,-105.2198387
500,North Ford Street,80403,39.7691523,-105.2315340
609,Alaska Street,80403,39.7691797,-105.2318281
615,Alaska Street,80403,39.7690786,-105.2320811
621,Alaska Street,80403,39.7690721,-105.2323660
627,Alaska Street,80403,39.7690413,-105.2325954
633,Alaska Street,80403,39.7690587,-105.2328931
502,North Jackson Street,80403,39.7691346,-105.2332401
504,North Jackson Street,80403,39.7694855,-105.2332274
512,North Jackson Street,80403,39.7696875,-105.2332564
520,North Jackson Street,80403,39.7698824,-105.2332592
526,North Jackson Street,80403,39.7700710,-105.2332693
530,North Jackson Street,80403,39.7702666,-105.2332656
534,North Jackson Street,80403,39.7704590,-105.2333177
527,North Jackson Street,80403,39.7703221,-105.2327897
523,North Jackson Street,80403,39.7700977,-105.2327794
513,North Jackson Street,80403,39.7698913,-105.2327787
509,North Jackson Street,80403,39.7696476,-105.2327693
503,North Jackson Street,80403,39.7694427,-105.2327650
506,North Columbine Street,80403,39.7694254,-105.2323667
510,North Columbine Street,80403,39.7696415,-105.2324057
514,North Columbine Street,80403,39.7698489,-105.2324066
518,North Columbine Street,80403,39.7700721,-105.2324186
522,North Columbine Street,80403,39.7702802,-105.2324384
519,North Columbine Street,80403,39.7701594,-105.2319538
515,North Columbine Street,80403,39.7699506,-105.2319347
511,North Columbine Street,80403,39.7697287,-105.2319425
507,North Columbine Street,80403,39.7695401,-105.2319279
606,Alaska Street,80403,39.7695699,-105.2316138
508,North Ford Street,80403,39.7695866,-105.2313222
510,North Ford Street,80403,39.7698377,-105.2313463
512,North Ford Street,80403,39.7700674,-105.2313723
607,Texas Street,80403,39.7701061,-105.2316489
602,Texas Street,80403,39.7704026,-105.2313748
608,Texas Street,80403,39.7704754,-105.2316567
614,Texas Street,80403,39.7705625,-105.2319304
620,Texas Street,80403,39.7705931,-105.2322101
626,Texas Street,80403,39.7706455,-105.2324897
632,Texas Street,80403,39.7707036,-105.2327533
638,Texas Street,80403,39.7708355,-105.2330299
642,Texas Street,80403,39.7707406,-105.2332473
636,Joseph Circle,80403,39.7711004,-105.2337193
642,Joseph Circle,80403,39.7709285,-105.2337236
648,Joseph Circle,80403,39.7707410,-105.2337412
654,Joseph Circle,80403,39.7705483,-105.2337271
660,Joseph Circle,80403,39.7703741,-105.2337160
664,Joseph Circle,80403,39.7702163,-105.2337534
670,Joseph Circle,80403,39.7700161,-105.2337222
676,Joseph Circle,80403,39.7698452,-105.2337408
682,Joseph Circle,80403,39.7696763,-105.2337547
688,Joseph Circle,80403,39.7694836,-105.2337246
694,Joseph Circle,80403,39.7692524,-105.2338141
700,Joseph Circle,80403,39.7691063,-105.2340473
706,Joseph Circle,80403,39.7690260,-105.2343323
712,Joseph Circle,80403,39.7690939,-105.2346022
718,Joseph Circle,80403,39.7692060,-105.2348525
724,Joseph Circle,80403,39.7693491,-105.2350243
730,Joseph Circle,80403,39.7694928,-105.2351686
736,Joseph Circle,80403,39.7696419,-105.2352589
742,Joseph Circle,80403,39.7698084,-105.2353674
748,Joseph Circle,80403,39.7699843,-105.2354644
754,Joseph Circle,80403,39.7701500,-105.2355240
760,Joseph Circle,80403,39.7703274,-105.2355784
766,Joseph Circle,80403,39.7704821,-105.2356733
772,Joseph Circle,80403,39.7706658,-105.2357287
778,Joseph Circle,80403,39.7708394,-105.2356850
784,Joseph Circle,80403,39.7710347,-105.2357158
790,Joseph Circle,80403,39.7712086,-105.2357220
796,Joseph Circle,80403,39.7713780,-105.2356570
802,Joseph Circle,80403,39.7715500,-105.2356765
808,Joseph Circle,80403,39.7717114,-105.2356042
814,Joseph Circle,80403,39.7718919,-105.2355994
820,Joseph Circle,80403,39.7720482,-105.2355160
826,Joseph Circle,80403,39.7722090,-105.2354598
600,Joseph Circle,80403,39.7716961,-105.2350930
606,Joseph Circle,80403,39.7716295,-105.2348788
612,Joseph Circle,80403,39.7715865,-105.2346646
618,Joseph Circle,80403,39.7715298,-105.2344274
624,Joseph Circle,80403,39.7714991,-105.2342170
630,Joseph Circle,80403,39.7714453,-105.2340167
645,Joseph Circle,80403,39.7707462,-105.2342929
655,Joseph Circle,80403,39.7705457,-105.2342546
665,Joseph Circle,80403,39.7703723,-105.2343077
675,Joseph Circle,80403,39.7701684,-105.2342539
685,Joseph Circle,80403,39.7699981,-105.2342948
695,Joseph Circle,80403,39.7698297,-105.2343048
705,Joseph Circle,80403,39.7694712,-105.2343155
715,Joseph Circle,80403,39.7695848,-105.2345244
725,Joseph Circle,80403,39.7696947,-105.2346930
735,Joseph Circle,80403,39.7698905,-105.2347861
745,Joseph Circle,80403,39.7700482,-105.2349241
755,Joseph Circle,80403,39.7702139,-105.2349497
765,Joseph Circle,80403,39.7703738,-105.2349947
769,Joseph Circle,80403,39.7705263,-105.2351265
773,Joseph Circle,80403,39.7707211,-105.2351223
777,Joseph Circle,80403,39.7708990,-105.2351811
781,Joseph Circle,80403,39.7710816,-105.2351321
601,Joseph Circle,80403,39.7712435,-105.2351244
615,Joseph Circle,80403,39.7711333,-105.2347862
625,Joseph Circle,80403,39.7710978,-105.2345653
635,Joseph Circle,80403,39.7710514,-105.2343550
700,North Ford Street,80403,39.7714959,-105.2313968
827,North Ford Street,80403,39.7717765,-105.2314616
825,North Ford Street,80403,39.7717128,-105.2319078
442,Choke Cherry Court,80403,39.7746958,-105.2301665
434,Choke Cherry Court,80403,39.7747075,-105.2299205
422,Choke Cherry Court,80403,39.7747216,-105.2296993
408,Choke Cherry Court,80403,39.7747207,-105.2294380
402,Choke Cherry Court,80403,39.7745336,-105.2292508
411,Choke Cherry Court,80403,39.7742973,-105.2293279
421,Choke Cherry Court,80403,39.7742954,-105.2297301
433,Choke Cherry Court,80403,39.7742987,-105.2299527
437,Choke Cherry Court,80403,39.7743192,-105.2301908
1046,Ridge Road,80403,39.7740042,-105.2300375
432,Basalt Court,80403,39.7739876,-105.2297310
424,Basalt Court,80403,39.7740141,-105.2294708
412,Basalt Court,80403,39.7739848,-105.2291794
400,Basalt Court,80403,39.7738228,-105.2289645
415,Basalt Court,80403,39.7735786,-105.2291047
425,Basalt Court,80403,39.7735443,-105.2293630
435,Basalt Court,80403,39.7735670,-105.2296234
430,Aspen Place,80403,39.7732249,-105.2292058
420,Aspen Place,80403,39.7732419,-105.2289220
410,Aspen Place,80403,39.7732133,-105.2286476
401,Aspen Place,80403,39.7729884,-105.2285195
413,Aspen Place,80403,39.7727195,-105.2285632
427,Aspen Place,80403,39.7727674,-105.2289895
1010,Ridge Road,80403,39.7727901,-105.2292297
1020,Tucker Gulch Drive,80403,39.7736655,-105.2347644
1022,Tucker Gulch Drive,80403,39.7737887,-105.2345852
1024,Tucker Gulch Drive,80403,39.7739770,-105.2343734
1036,Tucker Gulch Drive,80403,39.7741663,-105.2342784
1039,Tucker Gulch Drive,80403,39.7744134,-105.2337812
1037,Tucker Gulch Drive,80403,39.7741926,-105.2337703
1035,Tucker Gulch Drive,80403,39.7739654,-105.2337761
1023,Tucker Gulch Drive,80403,39.7737147,-105.2338448
1021,Tucker Gulch Drive,80403,39.7735546,-105.2340566
1009,Tucker Gulch Way,80403,39.7733259,-105.2339078
1007,Tucker Gulch Way,80403,39.7730898,-105.2338737
995,Tucker Gulch Way,80403,39.7728723,-105.2337656
993,Tucker Gulch Way,80403,39.7725916,-105.2337725
990,Tucker Gulch Way,80403,39.7724553,-105.2341390
992,Tucker Gulch Way,80403,39.7726229,-105.2343587
1004,Tucker Gulch Way,80403,39.7728494,-105.2343973
1006,Tucker Gulch Way,80403,39.7730435,-105.2345519
1008,Tucker Gulch Way,80403,39.7732103,-105.2345890
1038,N Jackson Street,80403,39.7741730,-105.2333603
1032,N Jackson Street,80403,39.7739775,-105.2333701
1026,N Jackson Street,80403,39.7737809,-105.2333485
1020,N Jackson Street,80403,39.7735851,-105.2333668
1014,N Jackson Street,80403,39.7733870,-105.2333352
1008,N Jackson Street,80403,39.7731847,-105.2333805
1002,N Jackson Street,80403,39.7729896,-105.2333485
996,North Jackson Street,80403,39.7727840,-105.2332875
990,North Jackson Street,80403,39.7725509,-105.2332825
645,Idaho Street,80403,39.7723885,-105.2330374
637,Idaho Street,80403,39.7723590,-105.2327732
629,Idaho Street,80403,39.7723247,-105.2324244
623,Idaho Street,80403,39.7723328,-105.2322024
617,Idaho Street,80403,39.7723050,-105.2319380
609,Idaho Street,80403,39.7723293,-105.2316895
601,Idaho Street,80403,39.7723428,-105.2314470
639,Wyoming Street,80403,39.7747591,-105.2328964
627,Wyoming Street,80403,39.7747787,-105.2324966
1054,N Columbine Street,80403,39.7745795,-105.2324411
1048,N Columbine Street,80403,39.7743864,-105.2324797
1042,N Columbine Street,80403,39.7741971,-105.2324364
1036,N Columbine Street,80403,39.7739982,-105.2324328
1030,N Columbine Street,80403,39.7738001,-105.2324240
1024,N Columbine Street,80403,39.7736020,-105.2324191
1018,N Columbine Street,80403,39.7734085,-105.2324261
1012,N Columbine Street,80403,39.7732276,-105.2324234
1006,N Columbine Street,80403,39.7730208,-105.2323830
624,Idaho Street,80403,39.7727166,-105.2324007
632,Idaho Street,80403,39.7727844,-105.2326408
1003,N Jackson Street,80403,39.7729099,-105.2328050
1009,N Jackson Street,80403,39.7730957,-105.2328810
1015,N Jackson Street,80403,39.7732952,-105.2328873
1021,N Jackson Street,80403,39.7734948,-105.2328895
1027,N Jackson Street,80403,39.7736989,-105.2328729
1033,N Jackson Street,80403,39.7739213,-105.2328696
1039,N Jackson Street,80403,39.7741135,-105.2329079
1045,N Jackson Street,80403,39.7743150,-105.2329094
1051,N Jackson Street,80403,39.7745549,-105.2329299
615,Wyoming Street,80403,39.7747636,-105.2319833
603,Wyoming Street,80403,39.7747764,-105.2315809
1065,North Ford Street,80403,39.7747842,-105.2309720
1055,North Ford Street,80403,39.7746105,-105.2309895
1045,North Ford Street,80403,39.7744368,-105.2309590
1041,North Ford Street,80403,39.7742506,-105.2309994
1035,North Ford Street,80403,39.7740864,-105.2309782
1031,Meadow Run,80403,39.7737816,-105.2309385
1053,N Columbine Street,80403,39.7745118,-105.2319759
1047,N Columbine Street,80403,39.7743203,-105.2319928
1041,N Columbine Street,80403,39.7741301,-105.2319483
1035,N Columbine Street,80403,39.7739449,-105.2319630
1029,N Columbine Street,80403,39.7737510,-105.2319519
1023,N Columbine Street,80403,39.7735606,-105.2319393
1017,N Columbine Street,80403,39.7733641,-105.2319402
1011,N Columbine Street,80403,39.7731681,-105.2318911
1005,N Columbine Street,80403,39.7729681,-105.2319220
616,Idaho Street,80403,39.7727031,-105.2319028
608,Idaho Street,80403,39.7727075,-105.2316735
1000,North Ford Street,80403,39.7727345,-105.2314350
1004,North Ford Street,80403,39.7730023,-105.2314196
1010,North Ford Street,80403,39.7731870,-105.2314645
1016,North Ford Street,80403,39.7733873,-105.2314726
1022,North Ford Street,80403,39.7735928,-105.2314533
1028,North Ford Street,80403,39.7737845,-105.2314614
1034,North Ford Street,80403,39.7740014,-105.2314654
1040,North Ford Street,80403,39.7741883,-105.2314727
1046,North Ford Street,80403,39.7743880,-105.2314758
1052,North Ford Street,80403,39.7745928,-105.2314871
414,Garden Glen Court,80401,39.7658816,-105.2256430
412,Garden Glen Court,80401,39.7655562,-105.2250297
1025,Meadow Run,80403,39.7737537,-105.2306964
1023,Meadow Run,80403,39.7736127,-105.2305554
1021,Meadow Run,80403,39.7734521,-105.2304046
1015,Meadow Run,80403,39.7732779,-105.2302920
1013,Meadow Run,80403,39.7730704,-105.2302291
1011,Meadow Run,80403,39.7728771,-105.2302247
1014,Meadow Run,80403,39.7732502,-105.2308147
1012,Meadow Run,80403,39.7730645,-105.2307311
1010,Meadow Run,80403,39.7728802,-105.2307363
1000,Meadow Run,80403,39.7726756,-105.2307542
950,Meadow Run,80403,39.7724825,-105.2307496
945,Meadow Run,80403,39.7726234,-105.2302769
935,Meadow Run,80403,39.7725873,-105.2300046
925,Meadow Run,80403,39.7724202,-105.2298609
915,Meadow Run,80403,39.7722204,-105.2299623
905,Meadow Run,80403,39.7721325,-105.2302929
855,Meadow Run,80403,39.7719786,-105.2300422
910,Meadow Run,80403,39.7723019,-105.2307957
900,Meadow Run,80403,39.7720415,-105.2307891
870,Meadow Run,80403,39.7718157,-105.2308147
860,Meadow Run,80403,39.7716140,-105.2306168
850,Meadow Run,80403,39.7715995,-105.2303289
988,Ridge Road,80403,39.7725620,-105.2290177
900,Ridge Road,80403,39.7723844,-105.2288850
898,Ridge Road,80403,39.7722272,-105.2286523
868,Ridge Road,80403,39.7720128,-105.2284903
838,Ridge Road,80403,39.7718173,-105.2282954
800,Ridge Road,80403,39.7716922,-105.2281250
798,Ridge Road,80403,39.7715952,-105.2278728
768,Ridge Road,80403,39.7714616,-105.2276689
748,Ridge Road,80403,39.7713385,-105.2275130
728,Ridge Road,80403,39.7711860,-105.2273843
798,Cressman Court,80403,39.7711826,-105.2280622
748,Cressman Court,80403,39.7709761,-105.2280311
500,Cascade Drive,80403,39.7701800,-105.2275102
700,Cascade Drive,80403,39.7702454,-105.2281289
704,Cascade Drive,80403,39.7703480,-105.2281278
708,Cascade Drive,80403,39.7704431,-105.2281659
711,Cressman Court,80403,39.7705352,-105.2282340
701,Cressman Court,80403,39.7706705,-105.2282663
600,Cressman Court,80403,39.7702945,-105.2288163
608,Cressman Court,80403,39.7702265,-105.2286953
616,Cressman Court,80403,39.7702065,-105.2285588
601,Cressman Court,80403,39.7700472,-105.2289407
607,Cressman Court,80403,39.7699724,-105.2288587
611,Cressman Court,80403,39.7698779,-105.2287539
617,Cressman Court,80403,39.7698254,-105.2285645
697,Cascade Drive,80403,39.7698169,-105.2284226
629,Cascade Court,80403,39.7696564,-105.2283347
625,Cascade Court,80403,39.7696035,-105.2285452
621,Cascade Court,80403,39.7693713,-105.2283506
617,Cascade Court,80403,39.7694013,-105.2281818
613,Cascade Drive,80403,39.7691561,-105.2277943
607,Cascade Drive,80403,39.7691321,-105.2274965
601,Cascade Drive,80403,39.7691145,-105.2272754
841,Meadow Run,80403,39.7716127,-105.2294548
837,Meadow Run,80403,39.7715217,-105.2293170
833,Meadow Run,80403,39.7713862,-105.2291611
829,Meadow Run,80403,39.7712609,-105.2290340
825,Meadow Run,80403,39.7710848,-105.2289731
821,Meadow Run,80403,39.7709375,-105.2290259
817,Meadow Run,80403,39.7708000,-105.2290556
813,Meadow Run,80403,39.7706433,-105.2290640
809,Meadow Run,80403,39.7705108,-105.2291469
805,Meadow Run,80403,39.7703202,-105.2292432
800,Meadow Run,80403,39.7704737,-105.2294973
804,Meadow Run,80403,39.7705549,-105.2297208
810,Meadow Run,80403,39.7707520,-105.2297766
816,Meadow Run,80403,39.7708750,-105.2295415
820,Meadow Run,80403,39.7710082,-105.2294356
824,Meadow Run,80403,39.7711491,-105.2294941
505,Creekside Court,80403,39.7710486,-105.2297475
511,Creekside Court,80403,39.7707744,-105.2300563
516,Creekside Court,80403,39.7708551,-105.2302697
514,Creekside Court,80403,39.7710267,-105.2304942
512,Creekside Court,80403,39.7711442,-105.2302603
508,Creekside Court,80403,39.7712517,-105.2300499
504,Creekside Court,80403,39.7713262,-105.2298959
500,Creekside Court,80403,39.7714221,-105.2297760
698,Cascade Drive,80403,39.7699640,-105.2279642
686,Cascade Drive,80403,39.7698427,-105.2279172
674,Cascade Drive,80403,39.7696956,-105.2278541
662,Cascade Drive,80403,39.7695509,-105.2278439
650,Cascade Drive,80403,39.7694275,-105.2277530
620,Cascade Drive,80403,39.7694319,-105.2274777
600,Cascade Drive,80403,39.7693034,-105.2270175
590,Cascade Drive,80403,39.7695139,-105.2272291
570,Cascade Drive,80403,39.7696396,-105.2273923
550,Cascade Drive,80403,39.7697991,-105.2274287
520,Cascade Drive,80403,39.7699638,-105.2274808
454,Ridge Road,80403,39.7697836,-105.2252352
450,Ridge Road,80403,39.7698706,-105.2254626
444,Ridge Road,80403,39.7699924,-105.2258755
440,Ridge Road,80403,39.7700806,-105.2261222
434,Ridge Road,80403,39.7701998,-105.2263574
428,Ridge Road,80403,39.7703878,-105.2264645
422,Ridge Road,80403,39.7705960,-105.2265508
416,Ridge Road,80403,39.7707669,-105.2265068
410,Ridge Road,80403,39.7708858,-105.2261850
404,Ridge Road,80403,39.7709263,-105.2256404
400,Ridge Road,80403,39.7706432,-105.2252208
401,Ridge Road,80403,39.7701917,-105.2250404
407,Ridge Road,80403,39.7703217,-105.2254085
413,Ridge Road,80403,39.7704557,-105.2257020
419,Ridge Road,80403,39.7705715,-105.2259356
306,Cliff Line Road,80403,39.7686464,-105.2237765
304,Cliff Line Road,80403,39.7683263,-105.2235131
302,Cliff Line Road,80403,39.7680943,-105.2232269
300,Cliff Line Road,80403,39.7676512,-105.2231135
303,Cliff Line Road,80403,39.7678264,-105.2237646
305,Cliff Line Road,80403,39.7680420,-105.2239254
307,Cliff Line Road,80403,39.7681787,-105.2240877
309,Cliff Line Road,80403,39.7681141,-105.2244600
498,Snowberry Court,80403,39.7687165,-105.2373576
486,Snowberry Court,80403,39.7685142,-105.2373599
474,Snowberry Court,80403,39.7683455,-105.2372123
462,Snowberry Court,80403,39.7681698,-105.2370820
15200,West 6th Avenue Service Road,80419,39.7217615,-105.1702926
400,Indiana Street,80401,39.7223804,-105.1634925
600,Golden Ridge Road,80401,39.7272061,-105.2046524
315,Plateau Parkway,80401,39.7648876,-105.2196660
301,Plateau Parkway,80401,39.7648700,-105.2194568
406,Butte Parkway,80401,39.7646511,-105.2194545
410,Butte Parkway,80401,39.7644798,-105.2194839
414,Butte Parkway,80401,39.7643030,-105.2194860
416,Butte Parkway,80401,39.7641058,-105.2195345
202,Plateau Parkway,80401,39.7651854,-105.2188437
122,Plateau Parkway,80401,39.7652094,-105.2186067
118,Plateau Parkway,80401,39.7652122,-105.2183756
201,Plateau Parkway,80401,39.7648689,-105.2188472
403,Butte Parkway,80401,39.7648616,-105.2190875
407,Butte Parkway,80401,39.7646319,-105.2190739
409,Butte Parkway,80401,39.7642817,-105.2190152
411,Butte Parkway,80401,39.7640713,-105.2189932
415,Butte Parkway,80401,39.7638655,-105.2190163
417,Butte Parkway,80401,39.7636574,-105.2188778
420,Butte Parkway,80401,39.7637830,-105.2194324
222,Dunn Road,80401,39.7637426,-105.2197583
407,Dunn Road,80401,39.7636592,-105.2201448
324,High Parkway,80401,39.7633587,-105.2201176
320,High Parkway,80401,39.7632763,-105.2198880
300,High Parkway,80401,39.7632705,-105.2196325
230,High Parkway,80401,39.7632612,-105.2193730
216,High Parkway,80401,39.7632639,-105.2191866
204,High Parkway,80401,39.7632715,-105.2190096
124,High Parkway,80401,39.7632692,-105.2188300
120,High Parkway,80401,39.7632519,-105.2186508
116,High Parkway,80401,39.7633333,-105.2184722
112,High Parkway,80401,39.7634241,-105.2180386
416,Dunn Road,80401,39.7638521,-105.2205714
430,Peery Parkway,80401,39.7665747,-105.2216119
424,Peery Parkway,80401,39.7665365,-105.2213789
418,Peery Parkway,80401,39.7664796,-105.2211621
412,Peery Parkway,80401,39.7664353,-105.2209501
406,Peery Parkway,80401,39.7663263,-105.2207360
400,Peery Parkway,80401,39.7662885,-105.2205094
330,Peery Parkway,80401,39.7662103,-105.2203071
324,Peery Parkway,80401,39.7661626,-105.2200719
318,Peery Parkway,80401,39.7661162,-105.2198619
312,Peery Parkway,80401,39.7660577,-105.2196504
306,Peery Parkway,80401,39.7660353,-105.2194132
300,Peery Parkway,80401,39.7661102,-105.2191651
301,Peery Parkway,80401,39.7656289,-105.2192066
305,Peery Parkway,80401,39.7656210,-105.2194310
313,Peery Parkway,80401,39.7657223,-105.2197050
319,Peery Parkway,80401,39.7657609,-105.2199451
325,Peery Parkway,80401,39.7657857,-105.2201528
331,Peery Parkway,80401,39.7658644,-105.2203939
401,Peery Parkway,80401,39.7659409,-105.2205954
407,Peery Parkway,80401,39.7659852,-105.2208351
413,Peery Parkway,80401,39.7660176,-105.2210632
417,Peery Parkway,80401,39.7661290,-105.2213067
501,Peery Parkway,80401,39.7661560,-105.2216045
507,Peery Parkway,80401,39.7659498,-105.2218371
513,Peery Parkway,80401,39.7657273,-105.2218399
519,Peery Parkway,80401,39.7655064,-105.2215923
514,Plateau Parkway,80401,39.7651931,-105.2216060
500,Plateau Parkway,80401,39.7651916,-105.2212889
424,Plateau Parkway,80401,39.7651658,-105.2209788
416,Plateau Parkway,80401,39.7651558,-105.2207605
408,Plateau Parkway,80401,39.7652074,-105.2204958
400,Plateau Parkway,80401,39.7652118,-105.2202529
322,Plateau Parkway,80401,39.7652077,-105.2200494
316,Plateau Parkway,80401,39.7651874,-105.2198115
312,Plateau Parkway,80401,39.7651979,-105.2195641
300,Plateau Parkway,80401,39.7651940,-105.2193449
214,Plateau Parkway,80401,39.7651910,-105.2191244
402,Garden Glen Court,80401,39.7653339,-105.2241789
406,Garden Glen Court,80401,39.7653956,-105.2244673
410,Garden Glen Court,80401,39.7654558,-105.2247868
555,Peery Drive,80401,39.7664317,-105.2224695
500,Peery Parkway,80401,39.7662339,-105.2223037
506,Peery Parkway,80401,39.7660392,-105.2223204
512,Peery Parkway,80401,39.7658700,-105.2223513
518,Peery Parkway,80401,39.7656826,-105.2223632
524,Peery Parkway,80401,39.7655061,-105.2222531
321,Garden Street,80401,39.7660898,-105.2230199
323,Garden Street,80401,39.7656106,-105.2228263
324,Garden Street,80401,39.7657294,-105.2235650
400,Garden Street,80401,39.7653146,-105.2237408
401,Garden Street,80401,39.7652942,-105.2233120
407,Garden Street,80401,39.7649187,-105.2231685
818,Partridge Circle,80403,39.7669242,-105.2235214
816,Partridge Circle,80403,39.7665802,-105.2234245
814,Partridge Circle,80403,39.7663309,-105.2235628
812,Partridge Circle,80403,39.7661585,-105.2237746
810,Partridge Circle,80403,39.7660574,-105.2240544
808,Partridge Circle,80403,39.7660020,-105.2243759
806,Partridge Circle,80403,39.7660185,-105.2246966
804,Partridge Circle,80403,39.7661325,-105.2249476
802,Partridge Circle,80403,39.7662737,-105.2251465
800,Partridge Circle,80403,39.7663820,-105.2254310
720,Partridge Circle,80403,39.7665773,-105.2255517
714,Partridge Circle,80403,39.7667448,-105.2257324
706,Partridge Circle,80403,39.7670813,-105.2259827
320,Ptarmigan Street,80403,39.7670854,-105.2245140
310,Ptarmigan Street,80403,39.7671507,-105.2242998
807,Partridge Circle,80403,39.7664266,-105.2245129
809,Partridge Circle,80403,39.7664537,-105.2242254
815,Partridge Circle,80403,39.7665449,-105.2239531
311,Ptarmigan Street,80403,39.7667793,-105.2240246
317,Ptarmigan Street,80403,39.7667371,-105.2242312
323,Ptarmigan Street,80403,39.7666573,-105.2244767
329,Ptarmigan Street,80403,39.7665457,-105.2247599
330,Ptarmigan Street,80403,39.7668603,-105.2251903
499,White Ash Drive,80403,39.7687000,-105.2380367
487,White Ash Drive,80403,39.7684951,-105.2379332
475,White Ash Drive,80403,39.7683303,-105.2378537
463,White Ash Drive,80403,39.7681788,-105.2377595
461,White Ash Drive,80403,39.7680153,-105.2377040
459,White Ash Drive,80403,39.7678550,-105.2376551
447,White Ash Drive,80403,39.7676754,-105.2376679
435,White Ash Drive,80403,39.7675116,-105.2376504
423,White Ash Drive,80403,39.7673462,-105.2375441
411,White Ash Drive,80403,39.7672087,-105.2373531
424,Washington Street,80403,39.7674078,-105.2372151
436,Washington Street,80403,39.7675773,-105.2370848
448,Snowberry Court,80403,39.7677798,-105.2369854
450,Snowberry Court,80403,39.7679816,-105.2370353
390,18th Street,80401,39.7534800,-105.2128021
1312,Elm Street,80401,39.7508538,-105.2258114
814 1/2,17th Street,80401,39.7512859,-105.2185207
1101,18th Street,80401,39.7478960,-105.2204617
1219,17th Street,80401,39.7483817,-105.2222334
1001,16th Street,80401,39.7500962,-105.2201448
1005,16th Street,80401,39.7502473,-105.2203077
1225,17th Street,80401,39.7482081,-105.2224562
1710,Illinois Street,80401,39.7489578,-105.2205924
1704,Illinois Street,80401,39.7491741,-105.2207971
1700,Illinois Street,80401,39.7492997,-105.2209104
397,White Ash Drive,80403,39.7670319,-105.2368482
330,Washington Street,80403,39.7660961,-105.2375651
342,Washington Street,80403,39.7662586,-105.2376584
364,Washington Street,80403,39.7664332,-105.2376877
376,Washington Street,80403,39.7666170,-105.2376884
400,White Ash Drive,80403,39.7668561,-105.2376243
422,White Ash Drive,80403,39.7670034,-105.2378289
434,White Ash Drive,80403,39.7672445,-105.2380081
446,White Ash Drive,80403,39.7674744,-105.2381438
458,White Ash Drive,80403,39.7677598,-105.2381415
460,White Ash Drive,80403,39.7680247,-105.2382513
472,White Ash Drive,80403,39.7682423,-105.2383860
480,White Ash Drive,80403,39.7684569,-105.2385566
496,White Ash Drive,80403,39.7686559,-105.2385831
226,Washington Street,80403,39.7645323,-105.2376616
248,Washington Street,80403,39.7647137,-105.2376009
250,Washington Street,80403,39.7649117,-105.2375795
262,Washington Street,80403,39.7651095,-105.2375026
274,Washington Street,80403,39.7652903,-105.2374669
286,Washington Street,80403,39.7654661,-105.2374296
295,West Drive,80403,39.7654618,-105.2378949
283,West Drive,80403,39.7653014,-105.2379965
271,West Drive,80403,39.7651076,-105.2380720
269,West Drive,80403,39.7649391,-105.2380914
257,West Drive,80403,39.7647614,-105.2380961
245,West Drive,80403,39.7645708,-105.2381003
233,West Drive,80403,39.7644083,-105.2379818
211,West Drive,80403,39.7642517,-105.2378024
210,West Drive,80403,39.7638951,-105.2380517
222,West Drive,80403,39.7640389,-105.2382569
234,West Drive,80403,39.7642716,-105.2384861
258,West Drive,80403,39.7646249,-105.2386234
260,West Drive,80403,39.7649052,-105.2386164
272,West Drive,80403,39.7651317,-105.2385915
284,West Drive,80403,39.7653581,-105.2385172
328,Mesa View Way,80403,39.7656119,-105.2384332
394,White Ash Drive,80403,39.7667040,-105.2371166
360,White Ash Drive,80403,39.7665605,-105.2367388
382,White Ash Drive,80403,39.7666448,-105.2369231
197,White Ash Drive,80403,39.7647602,-105.2362605
269,White Ash Drive,80403,39.7654216,-105.2358977
281,White Ash Drive,80403,39.7655434,-105.2357448
293,White Ash Drive,80403,39.7657153,-105.2356767
299,White Ash Drive,80403,39.7658788,-105.2357856
311,White Ash Drive,80403,39.7660702,-105.2359422
323,White Ash Drive,80403,39.7662286,-105.2360281
335,White Ash Drive,80403,39.7664049,-105.2360573
347,White Ash Drive,80403,39.7665634,-105.2361248
359,White Ash Drive,80403,39.7667215,-105.2362372
361,White Ash Drive,80403,39.7669049,-105.2362822
373,White Ash Drive,80403,39.7670949,-105.2364105
385,White Ash Drive,80403,39.7671401,-105.2366634
287,Washington Street,80403,39.7656662,-105.2368805
299,Washington Street,80403,39.7658806,-105.2369437
231,Washington Street,80403,39.7660576,-105.2370047
333,Washington Street,80403,39.7662240,-105.2370796
355,Washington Street,80403,39.7663951,-105.2371491
254,White Ash Drive,80403,39.7652615,-105.2365231
266,White Ash Drive,80403,39.7654098,-105.2364458
278,White Ash Drive,80403,39.7655664,-105.2363657
290,White Ash Drive,80403,39.7657668,-105.2363407
312,White Ash Drive,80403,39.7659688,-105.2364424
324,White Ash Drive,80403,39.7661203,-105.2364995
346,White Ash Drive,80403,39.7662723,-105.2365620
358,White Ash Drive,80403,39.7664324,-105.2366003
113,White Ash Drive,80403,39.7636709,-105.2359937
135,White Ash Drive,80403,39.7637963,-105.2361207
147,White Ash Drive,80403,39.7639569,-105.2361818
159,White Ash Drive,80403,39.7641124,-105.2361935
161,White Ash Drive,80403,39.7642719,-105.2362145
173,White Ash Drive,80403,39.7644263,-105.2362325
185,White Ash Drive,80403,39.7645774,-105.2362724
210,White Ash Drive,80403,39.7649701,-105.2367378
212,White Ash Drive,80403,39.7651159,-105.2366222
251,Washington Street,80403,39.7651027,-105.2369892
263,Washington Street,80403,39.7652895,-105.2369178
180,Washington Street,80403,39.7636110,-105.2380862
168,Washington Street,80403,39.7633904,-105.2380694
156,Washington Street,80403,39.7631521,-105.2380065
144,Washington Street,80403,39.7629449,-105.2378777
132,Washington Street,80403,39.7627773,-105.2376512
110,Washington Street,80403,39.7626324,-105.2374183
108,Washington Street,80403,39.7624878,-105.2372013
1537,Wild Rose Court,80403,39.7632940,-105.2361891
1549,Wild Rose Court,80403,39.7631638,-105.2363462
1551,Wild Rose Court,80403,39.7630611,-105.2365471
1563,Wild Rose Court,80403,39.7631183,-105.2368222
1552,Wild Rose Court,80403,39.7633200,-105.2369473
1540,Wild Rose Court,80403,39.7635322,-105.2367925
1538,Wild Rose Court,80403,39.7635889,-105.2365168
121,Washington Street,80403,39.7630068,-105.2372284
133,Washington Street,80403,39.7631616,-105.2373923
165,Washington Street,80403,39.7633281,-105.2374939
177,Washington Street,80403,39.7635192,-105.2375328
189,Washington Street,80403,39.7636990,-105.2374719
191,Washington Street,80403,39.7638742,-105.2374100
213,Washington Street,80403,39.7640554,-105.2373049
225,Washington Street,80403,39.7642324,-105.2372238
231,Washington Street,80403,39.7644171,-105.2371364
249,Washington Street,80403,39.7646168,-105.2370911
136,White Ash Drive,80403,39.7637796,-105.2366895
148,White Ash Drive,80403,39.7639338,-105.2366777
150,White Ash Drive,80403,39.7640921,-105.2367147
162,White Ash Drive,80403,39.7642490,-105.2367419
174,White Ash Drive,80403,39.7643932,-105.2367685
186,White Ash Drive,80403,39.7645459,-105.2367586
198,White Ash Drive,80403,39.7647169,-105.2367799
1513,Coyote Court,80403,39.7621407,-105.2356659
1525,Coyote Court,80403,39.7621670,-105.2358694
1537,Coyote Court,80403,39.7622439,-105.2361196
177,Eagle Drive,80403,39.7627262,-105.2344044
129,Eagle Court,80403,39.7628952,-105.2344150
115,Eagle Court,80403,39.7630522,-105.2343441
625,Canyon Point Circle,80403,39.7618519,-105.2376336
647,Canyon Point Circle,80403,39.7620277,-105.2374633
659,Canyon Point Circle,80403,39.7622027,-105.2372748
444,Eagle Court,80403,39.7632151,-105.2343669
102,Eagle Court,80403,39.7632780,-105.2348618
114,Eagle Court,80403,39.7631684,-105.2349684
126,Eagle Court,80403,39.7629909,-105.2350511
1514,Coyote Court,80403,39.7625968,-105.2354713
1526,Coyote Court,80403,39.7626587,-105.2356889
1538,Coyote Court,80403,39.7626368,-105.2359390
1540,Coyote Court,80403,39.7624714,-105.2361730
690,Canyon Point Circle,80403,39.7624239,-105.2366323
189,Eagle Drive,80403,39.7625746,-105.2342689
155,Canyon Point Circle,80403,39.7622369,-105.2350932
197,Canyon Point Circle,80403,39.7620340,-105.2351681
219,Canyon Point Circle,80403,39.7618720,-105.2352565
225,Canyon Point Circle,80403,39.7617057,-105.2352715
257,Canyon Point Circle,80403,39.7615427,-105.2352789
298,Eagle Drive,80403,39.7613174,-105.2351462
276,Eagle Drive,80403,39.7613867,-105.2349901
254,Eagle Drive,80403,39.7615146,-105.2348703
242,Eagle Drive,80403,39.7616718,-105.2347986
238,Eagle Drive,80403,39.7618297,-105.2347835
226,Eagle Drive,80403,39.7619768,-105.2347682
214,Eagle Drive,80403,39.7621258,-105.2347714
202,Eagle Drive,80403,39.7622947,-105.2347508
180,Eagle Drive,80403,39.7624596,-105.2347806
168,Eagle Drive,80403,39.7625840,-105.2349545
678,Canyon Point Circle,80403,39.7622224,-105.2366677
656,Canyon Point Circle,80403,39.7620227,-105.2367850
654,Canyon Point Circle,80403,39.7618574,-105.2369157
632,Canyon Point Circle,80403,39.7617049,-105.2370825
610,Canyon Point Circle,80403,39.7615430,-105.2372419
515,Canyon Point Circle,80403,39.7603026,-105.2381420
537,Canyon Point Circle,80403,39.7604822,-105.2380488
549,Canyon Point Circle,80403,39.7607036,-105.2379715
561,Canyon Point Circle,80403,39.7609171,-105.2379747
583,Canyon Point Circle,80403,39.7611104,-105.2379697
1510,Quail Court,80403,39.7597435,-105.2354025
395,Canyon Point Circle,80403,39.7598414,-105.2350577
383,Canyon Point Circle,80403,39.7599927,-105.2349716
361,Canyon Point Circle,80403,39.7601618,-105.2348528
359,Canyon Point Circle,80403,39.7603438,-105.2347639
1591,Valley View Court,80403,39.7608883,-105.2374427
1589,Valley View Court,80403,39.7608702,-105.2371727
1577,Valley View Court,80403,39.7608169,-105.2369149
1565,Valley View Court,80403,39.7606818,-105.2366798
1553,Valley View Court,80403,39.7604676,-105.2365760
1541,Valley View Court,80403,39.7603349,-105.2362854
1540,Valley View Court,80403,39.7604578,-105.2359984
1542,Valley View Court,80403,39.7607326,-105.2360173
1554,Valley View Court,80403,39.7609157,-105.2362581
1566,Valley View Court,80403,39.7610742,-105.2364930
1578,Valley View Court,80403,39.7612060,-105.2367789
1580,Valley View Court,80403,39.7612708,-105.2370960
1582,Valley View Court,80403,39.7612803,-105.2373941
388,Canyon Point Circle,80403,39.7599287,-105.2359312
386,Canyon Point Circle,80403,39.7600418,-105.2357746
384,Canyon Point Circle,80403,39.7601327,-105.2355953
372,Canyon Point Circle,80403,39.7602530,-105.2354429
360,Canyon Point Circle,80403,39.7604224,-105.2353216
306,Canyon Point Circle,80403,39.7606501,-105.2352644
294,Canyon Point Circle,80403,39.7608276,-105.2353850
282,Canyon Point Circle,80403,39.7609797,-105.2355210
270,Canyon Point Circle,80403,39.7611042,-105.2356291
268,Canyon Point Circle,80403,39.7612735,-105.2357109
1525,Cougar Court,80403,39.7614943,-105.2357752
1549,Cougar Court,80403,39.7614172,-105.2362711
1551,Cougar Court,80403,39.7615693,-105.2365358
1542,Cougar Court,80403,39.7617907,-105.2364868
1540,Cougar Court,80403,39.7619236,-105.2362457
1538,Cougar Court,80403,39.7618839,-105.2360126
1526,Cougar Court,80403,39.7618624,-105.2357806
327,Canyon Point Circle,80403,39.7605156,-105.2347084
305,Canyon Point Circle,80403,39.7607041,-105.2347184
299,Eagle Drive,80403,39.7609827,-105.2348918
291,Eagle Drive,80403,39.7609743,-105.2346805
289,Eagle Drive,80403,39.7610394,-105.2344880
279,Eagle Drive,80403,39.7611907,-105.2343981
265,Eagle Drive,80403,39.7613501,-105.2344008
253,Eagle Drive,80403,39.7614902,-105.2343268
241,Eagle Drive,80403,39.7616448,-105.2342934
239,Eagle Drive,80403,39.7618111,-105.2343088
227,Eagle Drive,80403,39.7619540,-105.2342730
215,Eagle Drive,80403,39.7621059,-105.2342766
203,Eagle Drive,80403,39.7622652,-105.2342874
191,Eagle Drive,80403,39.7624097,-105.2342568
1514,Magpie Court,80403,39.7590088,-105.2362199
1506,Magpie Court,80403,39.7588582,-105.2360918
1496,Magpie Court,80403,39.7588221,-105.2358261
1484,Magpie Court,80403,39.7586477,-105.2355551
1472,Magpie Court,80403,39.7584258,-105.2355893
1461,Magpie Court,80403,39.7582984,-105.2358071
1473,Magpie Court,80403,39.7583304,-105.2360616
1485,Magpie Court,80403,39.7584551,-105.2362558
1497,Magpie Court,80403,39.7585662,-105.2364368
1509,Magpie Court,80403,39.7587044,-105.2365762
413,Canyon Point Circle,80403,39.7588423,-105.2367761
423,Canyon Point Circle,80403,39.7588416,-105.2370116
433,Canyon Point Circle,80403,39.7588513,-105.2372742
439,Canyon Point Circle,80403,39.7589428,-105.2375038
443,Canyon Point Circle,80403,39.7590455,-105.2377080
455,Canyon Point Circle,80403,39.7591681,-105.2379368
467,Canyon Point Circle,80403,39.7593446,-105.2380984
479,Canyon Point Circle,80403,39.7595565,-105.2382012
481,Canyon Point Circle,80403,39.7597616,-105.2382793
493,Canyon Point Circle,80403,39.7599493,-105.2382664
1509,Quail Court,80403,39.7593513,-105.2358067
1499,Quail Court,80403,39.7592303,-105.2356362
1487,Quail Court,80403,39.7592393,-105.2353301
1486,Quail Court,80403,39.7594121,-105.2351537
1498,Quail Court,80403,39.7596390,-105.2352196
1526,Meadowlark Lane,80403,39.7597352,-105.2361008
1538,Meadowlark Lane,80403,39.7598888,-105.2362633
1540,Meadowlark Lane,80403,39.7599973,-105.2365061
1552,Meadowlark Lane,80403,39.7601183,-105.2367390
1564,Meadowlark Lane,80403,39.7601409,-105.2369817
1576,Meadowlark Lane,80403,39.7600312,-105.2372182
1565,Meadowlark Lane,80403,39.7598026,-105.2372678
1553,Meadowlark Lane,80403,39.7596350,-105.2370572
1541,Meadowlark Lane,80403,39.7596353,-105.2367608
1539,Meadowlark Lane,80403,39.7595419,-105.2365557
1527,Meadowlark Lane,80403,39.7594237,-105.2363986
412,Canyon Point Circle,80403,39.7592870,-105.2366869
424,Canyon Point Circle,80403,39.7592727,-105.2369338
430,Canyon Point Circle,80403,39.7593096,-105.2371508
440,Canyon Point Circle,80403,39.7593768,-105.2373763
462,Canyon Point Circle,80403,39.7595139,-105.2375731
484,Canyon Point Circle,80403,39.7596774,-105.2377025
496,Canyon Point Circle,80403,39.7598797,-105.2377335
508,Canyon Point Circle,80403,39.7600817,-105.2376888
520,Canyon Point Circle,80403,39.7602653,-105.2375832
542,Canyon Point Circle,80403,39.7604433,-105.2374764
554,Canyon Point Circle,80403,39.7606368,-105.2373960
880,Brickyard Circle,80403,39.7822704,-105.2335747
801,Brickyard Circle,80403,39.7799903,-105.2331276
1318,Maple Street,80401,39.7514628,-105.2263449
619,6th Street,80403,39.7613041,-105.2247710
211,Violet Street,80401,39.7194370,-105.1973952
231,Violet Street,80401,39.7200658,-105.1974105
17270,West Colfax Avenue,80401,39.7215924,-105.1965429
399,North Washington Avenue,80403,39.7682758,-105.2347909
17999,West Colfax Avenue,80401,39.7200534,-105.2029357
404,Garden Street,80401,39.7651066,-105.2236850
323,High Parkway,80401,39.7629553,-105.2200999
399,North Washington Avenue,80403,39.7681977,-105.2351365
1509,Washington Avenue,80401,39.7527469,-105.2185594
879,North Ford Street,80403,39.7719238,-105.2327104
4409,McIntyre Street,80403,39.7765632,-105.1758727
18485,West Colfax Avenue,80401,39.7027295,-105.2058985
420,East Street,80403,39.7642128,-105.2248615
16500,West Colfax Avenue,80401,39.7226604,-105.1861993
17270,West Colfax Avenue,80401,39.7215573,-105.1961110
1400,Maple Street,80401,39.7512733,-105.2242959
1301,19th Street,80401,39.7480781,-105.2218112
1795,Elm Street,80401,39.7481656,-105.2216036
1640,8th Street,80401,39.7544611,-105.2341545
1620,8th Street,80401,39.7548431,-105.2336679
1111,Newstar Way,80403,39.7742344,-105.2357339
308,Cliff Line Road,80403,39.7687109,-105.2241703
700,Cressman Court,80403,39.7707602,-105.2278499
709,Cascade Drive,80403,39.7704328,-105.2286706
717,Cascade Drive,80403,39.7706306,-105.2286640
3152,Illinois Street,80401,39.7353826,-105.2085598
717,12th Street,80401,39.7554959,-105.2208040
517,Washington Avenue,80403,39.7612152,-105.2263741
17456,West 10th Avenue,80401,39.7322406,-105.1976046
1022,Ridge Road,80403,39.7732254,-105.2294693
317,Jackson Place,80403,39.7669710,-105.2322424
315,Jackson Place,80403,39.7669863,-105.2319826
313,Jackson Place,80403,39.7670501,-105.2317387
304,Jackson Drive,80403,39.7668814,-105.2315509
302,Jackson Drive,80403,39.7667790,-105.2317801
300,Jackson Drive,80403,39.7667606,-105.2320370
311,Jackson Place,80403,39.7671366,-105.2315308
2003,Infinity Circle,80401,39.7412350,-105.2232161
2011,Infinity Circle,80401,39.7409162,-105.2228604
2015,Infinity Circle,80401,39.7406146,-105.2228746
2017,Infinity Circle,80401,39.7401686,-105.2227862
2021,Infinity Circle,80401,39.7402517,-105.2237367
2023,Infinity Circle,80401,39.7404759,-105.2240752
2025,Infinity Circle,80401,39.7407724,-105.2243254
2027,Infinity Circle,80401,39.7409665,-105.2236546
2019,Infinity Circle,80401,39.7406686,-105.2232748
2015,Infinity Circle,80401,39.7405114,-105.2222818
2009,Infinity Circle,80401,39.7412733,-105.2222802
2007,Infinity Circle,80401,39.7415774,-105.2224854
2005,Infinity Circle,80401,39.7417621,-105.2228397
2001,Infinity Circle,80401,39.7413209,-105.2236424
1801,Moly Road,80401,39.7432616,-105.2234239
414,Sunshine Parkway,80401,39.7643659,-105.2215000
1101,Washington Avenue,80401,39.7561275,-105.2217112
1119,Washington Avenue,80401,39.7557132,-105.2212287
719,12th Street,80401,39.7553814,-105.2210013
1207,Washington Avenue,80401,39.7552745,-105.2209093
170,Washington Avenue,80403,39.7643460,-105.2299810
1706,Illinois Street,80401,39.7490670,-105.2207030
310,Jackson Place,80403,39.7675794,-105.2314912
312,Jackson Place,80403,39.7674885,-105.2317132
1021,Golden Park Place,80403,39.7623369,-105.2327131
1520,Jackson Street,80401,39.7527840,-105.2175554
17198,South Golden Road,80401,39.7372533,-105.1934382
301,Cliff Line Road,80403,39.7676071,-105.2235334
720,Iowa Street,80403,39.7659916,-105.2308576
615,Iowa Street,80403,39.7663323,-105.2293196
613,Iowa Street,80403,39.7663598,-105.2292462
611,Iowa Street,80403,39.7664128,-105.2291730
609,Iowa Street,80403,39.7664372,-105.2291019
708,1st Street,80403,39.7654187,-105.2297731
721,1st Street,80403,39.7649000,-105.2297394
704,2nd Street,80403,39.7646360,-105.2288082
712,2nd Street,80403,39.7644645,-105.2291163
100,Jefferson County Parkway,80401,39.7281842,-105.2015537
1856,West Campus Road,80401,39.7471067,-105.2221624
1500,Illinois Street,80401,39.7432254,-105.2242194
1620,Elm Street,80401,39.7488133,-105.2242154
