House number,Street name,Postal code,Latitude,Longitude
8701,West Woodard Drive,80227,39.6794470,-105.0945960
1263,South Dudley Street,80226,39.6939523,-105.0957960
885,South Garrison Street,80226,39.7013615,-105.1014530
9700,West 8th Avenue,80215,39.7283675,-105.1065220
6000,West 9th Avenue,80214,39.7310714,-105.0636251
700,Kipling Street,80215,39.7268783,-105.1073980
480,South Allison Parkway,80226,39.7076525,-105.0858342
690,Kipling Street,80215,39.7261457,-105.1071660
801,South Yarrow Street,80226,39.7032021,-105.0838675
1010,South Union Boulevard,80228-3312,39.6981613,-105.1289691
955,South Kipling Parkway,80226,39.6994381,-105.1109750
145,Union Boulevard,80228,39.7172348,-105.1336821
145,Union Boulevard,80228,39.7173483,-105.1336430
145,Union Boulevard,80228,39.7174639,-105.1336097
9200,West Alameda Avenue,80226,39.7103932,-105.1006090
289,South Garrison Street,80226,39.7116978,-105.1007440
2950,South Bear Creek Boulevard,80228,39.6669134,-105.1507509
10611,West Florida Avenue,80232,39.6908732,-105.1171378
14255,West Colfax Avenue,80401,39.7340398,-105.1601023
14255,West Colfax Drive,80401,39.7342629,-105.1596980
355,South Wadsworth Boulevard,80226,39.7102704,-105.0821569
150,South Union Boulevard,80228,39.7139109,-105.1329064
180,South Union Boulevard,80228,39.7128765,-105.1328360
150,South Union Boulevard,80228,39.7139885,-105.1329201
141,Union Boulevard,80228,39.7164925,-105.1349320
13111,West Alameda Parkway,80228,39.6984097,-105.1456780
13109,West Alameda Parkway,80228,39.6975574,-105.1453455
13107,West Alameda Parkway,80228,39.6982219,-105.1446514
13013,West Alameda Parkway,80228,39.6991057,-105.1440071
13151,West Alameda Parkway,80228,39.6964613,-105.1465820
204,Union Boulevard,80228,39.7184001,-105.1318750
12860,West Alameda Parkway,80228,39.6994832,-105.1418153
12410,West Alameda Parkway,80228,39.7033926,-105.1383390
12612,West Alameda Parkway,80228,39.7023430,-105.1382030
13161,West Alameda Parkway,80228,39.6955283,-105.1473562
12345,West Alameda Parkway,80228,39.7045585,-105.1392114
375,Union Boulevard,80228,39.7218369,-105.1327703
212,Union Boulevard,80228,39.7184881,-105.1318745
240,Union Boulevard,80228,39.7192360,-105.1318030
196,South Union Boulevard,80228,39.7124809,-105.1326790
14231,West Colfax Avenue,80401,39.7369721,-105.1601534
14401,West Colfax Avenue,80401,39.7338616,-105.1630917
555,South Allison Parkway,80226,39.7065099,-105.0842395
480,South Allison Parkway,80226,39.7080552,-105.0847205
445,South Allison Parkway,80226,39.7076451,-105.0863989
11500,West Hampden Avenue,80227,39.6522449,-105.1262261
8870,West Florida Avenue,80232,39.6888560,-105.0963410
7660,West Virginia Avenue,80226,39.7063114,-105.0819870
650,South Wadsworth Boulevard,80226,39.7050736,-105.0805590
650,South Wadsworth Boulevard,80226,39.7052055,-105.0806972
7830,West Alameda Avenue,80226,39.7100153,-105.0836530
7984,West Alameda Avenue,80226,39.7096067,-105.0856111
650,South Wadsworth Boulevard,80226,39.7046131,-105.0806620
570,South Wadsworth Boulevard,80226,39.7049440,-105.0801317
550,South Wadsworth Boulevard,80226,39.7065074,-105.0810080
7650,West Virginia Avenue,80226,39.7067798,-105.0819950
7850,West Alameda Boulevard,80226,39.7106714,-105.0837282
11088,West Jewell Avenue,80232,39.6811220,-105.1224003
10815,West Jewel Avenue,80232-4851,39.6825734,-105.1187203
1057,South Wadsworth Boulevard,80226,39.6979129,-105.0821811
1090,South Wadsworth Boulevard,80226,39.6970007,-105.0807460
1745,South Wadsworth Boulevard,80232,39.6845492,-105.0818015
7777,West Jewell Avenue,80232-6843,39.6837465,-105.0836460
7800,West Jewell Avenue,80232,39.6816863,-105.0842121
6569,West Colfax Avenue,80214-1803,39.7417850,-105.0669599
6601,West Colfax Avenue,80214-1837,39.7418820,-105.0690773
6363,West 13th Avenue,80214,39.7366771,-105.0666433
9091,West 13th Avenue,80215,39.7365690,-105.0994820
1298,Wadsworth Boulevard,80214,39.7366917,-105.0814295
1311,Oak Street,80215,39.7372861,-105.1199194
13400,West 6th Avenue Service Road,80228,39.7250788,-105.1521378
6585,West Colfax Avenue,80214-1803,39.7418103,-105.0684059
6465,West Colfax Avenue,80214-1801,39.7413482,-105.0666269
6583,West Colfax Avenue,80214-1803,39.7417716,-105.0683140
6677C,West Colfax Avenue,80214-1825,39.7418025,-105.0701009
6587,West Colfax Avenue,80214-1803,39.7418512,-105.0684650
6601B,West Colfax Avenue,80214-1838,39.7418148,-105.0688670
6467,West Colfax Avenue,80214-1801,39.7413938,-105.0666269
6655,West Colfax Avenue,80214-1805,39.7418305,-105.0697430
6571,West Colfax Avenue,80214-1803,39.7417485,-105.0670949
6461,West Colfax Avenue,80214-1801,39.7412534,-105.0666257
6597,West Colfax Avenue,80214-1803,39.7419217,-105.0686560
6719,West Colfax Avenue,80214-1833,39.7416752,-105.0710784
6593,West Colfax Avenue,80214-1803,39.7418899,-105.0685537
6759,West Colfax Avenue,80214,39.7411938,-105.0710800
6469,West Colfax Avenue,80214-1801,39.7411692,-105.0666257
940,Wadsworth Boulevard,80214,39.7317944,-105.0810540
940,Wadsworth Boulevard,80214,39.7316593,-105.0811030
940,Wadsworth Boulevard,80214,39.7317360,-105.0808970
1057,South Wadsworth Boulevard,80226,39.6980668,-105.0823302
1555,Quail Street,80215,39.7420445,-105.1252846
9797,West Colfax Avenue,80215,39.7412590,-105.1075530
5301,West Mississippi Avenue,80226,39.6969340,-105.0554775
14711,West Colfax Avenue,80401,39.7307386,-105.1648752
14711,West Colfax Avenue,80401,39.7309065,-105.1650443
14630,West Colfax Avenue,80401,39.7320688,-105.1637411
14630,West Colfax Avenue,80401,39.7320087,-105.1639668
14630,West Colfax Avenue,80401,39.7319751,-105.1641060
14710,West Colfax Avenue,80401,39.7304006,-105.1638487
14403,West Colfax Avenue,80401,39.7337127,-105.1631130
14357,West Colfax Avenue,80401,39.7364521,-105.1613411
14255,West Colfax Avenue,80401,39.7340625,-105.1598985
14255,West Colfax Avenue,80401,39.7341038,-105.1598099
14600,West Colfax Avenue,80401,39.7321324,-105.1635050
9160,West Colfax Avenue,80215,39.7393021,-105.0990050
9160,West Colfax Avenue,80215,39.7391257,-105.0987130
1990,Wadsworth Boulevard,80214,39.7471092,-105.0809846
905,South Kipling Parkway,80226,39.6999983,-105.1105970
11088,West Jewell,80232,39.6812895,-105.1225536
1545,South Kipling Parkway,80232,39.6905264,-105.1194557
6000,West 1st Avenue,80226,39.7181967,-105.0631380
105,Harlan Street,80226,39.7187662,-105.0630940
5989,West 1st Avenue,80226,39.7189219,-105.0623240
11903,West 6th Avenue Frontage Road,80401,39.7271045,-105.1294020
777 1/2,Simms Street,80401,39.7285590,-105.1289280
5800,West 6th Avenue,80214,39.7250544,-105.0606530
495,Sheridan Boulevard,80226,39.7233690,-105.0536530
1495,Simms Street,80401,39.7398444,-105.1287990
11599,West Colfax Avenue,80215,39.7405992,-105.1278070
11805,West Colfax Avenue,80215,39.7405889,-105.1309450
780,Indiana Street,80401,39.7283596,-105.1637710
780,Indiana Street,80401,39.7291311,-105.1640440
780,Indiana Street,80401,39.7287598,-105.1639850
898,Kipling Street,80215,39.7307726,-105.1091297
722,Kipling Street,80215,39.7285428,-105.1092230
898,Kipling Street,80215,39.7306406,-105.1092316
605,Garrison Street,80215,39.7260538,-105.1007420
8000,West Colfax Avenue,80204,39.7399991,-105.0864120
215,Union Boulevard,80228,39.7186540,-105.1332357
5200,West Colfax Avenue,80214,39.7398511,-105.0536600
1335,Wadsworth Boulevard,80214,39.7373764,-105.0818310
7595,West Colfax Avenue,80214,39.7406372,-105.0809040
7200,West Colfax Avenue,80214,39.7396059,-105.0778100
7590,West Colfax Avenue,80214,39.7398225,-105.0806760
7455,West Colfax Avenue,80214,39.7428585,-105.0805420
1355,Wadsworth Boulevard,80214,39.7378324,-105.0817840
1325,Vance Street,80214,39.7375529,-105.0799070
1395,Wadsworth Boulevard,80214,39.7380985,-105.0818710
10425,West Colfax Avenue,80215,39.7409892,-105.1167080
8303,West Colfax Avenue,80214,39.7405747,-105.0899580
9210,West Colfax Avenue,80215,39.7399663,-105.1004670
10403,West Colfax Avenue,80215,39.7408242,-105.1156530
10220,West Colfax Avenue,80215,39.7398366,-105.1125550
8405,West Colfax Avenue,80215,39.7406285,-105.0911480
7310,West Colfax Avenue,80214,39.7400330,-105.0793280
7455,West Colfax Avenue,80214,39.7422047,-105.0791590
7455,West Colfax Avenue,80214,39.7423492,-105.0786520
7355,West Colfax Avenue,80214,39.7405114,-105.0781100
7355,West Colfax Avenue,80214,39.7405198,-105.0784140
7455,West Colfax Avenue,80214,39.7423100,-105.0797660
7475,West Colfax Avenue,80214,39.7405180,-105.0792110
7475,West Colfax Avenue,80214,39.7406375,-105.0793130
7475,West Colfax Avenue,80214,39.7405386,-105.0794286
7611,West Colfax Avenue,80214,39.7405340,-105.0819010
7509,Wadsworth Boulevard,80214,39.7408580,-105.0818170
7611,West Colfax Avenue,80214,39.7406285,-105.0821260
1509,Wadsworth Boulevard,80214,39.7406806,-105.0817400
7611,West Colfax Avenue,80214,39.7405508,-105.0823110
1692,Wadsworth Boulevard,80214,39.7437021,-105.0810019
7475,West Colfax Avenue,80214,39.7406334,-105.0795653
7475,West Colfax Avenue,80214,39.7405560,-105.0798351
7475,West Colfax Avenue,80214,39.7405530,-105.0799757
7475,West Colfax Avenue,80214,39.7405938,-105.0796580
7205,West Colfax Avenue,80214,39.7406129,-105.0771621
7355,West Colfax Avenue,80214,39.7406254,-105.0782942
7205,West Colfax Avenue,80214,39.7405057,-105.0772723
99,South Wadsworth Boulevard,80226,39.7178500,-105.0819811
850,Wadsworth Boulevard,80214,39.7305296,-105.0810510
999,Wadsworth Boulevard,80214,39.7323789,-105.0819625
699,Wadsworth Boulevard,80214,39.7274551,-105.0819630
777,Wadsworth Boulevard,80214,39.7282017,-105.0819530
95,West 1st Avenue,80226,39.7183540,-105.0536678
95,Sheridan Boulevard,80226,39.7180765,-105.0537710
9106,West 6th Avenue,80215,39.7247215,-105.0986530
9138,West 6th Avenue,80215,39.7247256,-105.0994240
9090,West 6th Avenue,80215,39.7247617,-105.0982660
105,Sheridan Boulevard,80226,39.7189066,-105.0537103
9305,West Alameda Avenue,80226,39.7117577,-105.1020130
9255,West Alameda Avenue,80226,39.7121966,-105.1005960
480,South Kipling Street,80226,39.7075663,-105.1088300
480,South Kipling Street,80226,39.7077737,-105.1084970
975,South Kipling Parkway,80226,39.6994906,-105.1129770
961,South Kipling Parkway,80226,39.7001129,-105.1119550
9075,West Alameda Avenue,80226,39.7118271,-105.0984540
14387,West Colfax Avenue,80401,39.7352781,-105.1628840
10665,West Colfax Avenue,80215,39.7410530,-105.1179370
11353,West Colfax Avenue,80215,39.7408839,-105.1252470
1298,Wadsworth Boulevard,80214,39.7370469,-105.0812010
13701,West Jewell Avenue,80228,39.6826805,-105.1555460
389,South Wadsworth Boulevard,80226,39.7094784,-105.0829943
7740,West Alameda Avenue,80226,39.7105460,-105.0826312
13019,West Alameda Parkway,80228,39.6995191,-105.1451829
1990,Youngfield Street,80215,39.7470007,-105.1418784
14363,Colfax Avenue,80401,39.7362345,-105.1615965
14375,West Colfax Avenue,80401,39.7356313,-105.1624620
14237,West Colfax Avenue,80401,39.7369675,-105.1603800
6400,West 20th Avenue,80214,39.7472877,-105.0675240
6733,West Colfax Avenue,80214-1833,39.7415749,-105.0710830
10095,Lee Lane,80215,39.7451984,-105.1102297
7444,West Alaska Drive,80226,39.7090753,-105.0802669
11890,West Cedar Drive,80228,39.7117014,-105.1314120
560,Garrison Street,80226,39.7245761,-105.0996640
595,Garrison Street,80226,39.7247246,-105.1006590
9140,West 6th Avenue,80215,39.7247576,-105.0996730
9080,West 6th Avenue,80215,39.7248958,-105.0981660
9134,West 6th Avenue,80215,39.7247865,-105.0992170
9116,West 6th Avenue,80215,39.7247875,-105.0989660
610,Garrison Street,80215,39.7269794,-105.0997250
615,Garrison Street,80215,39.7263766,-105.1005782
608,Garrison Street,80215,39.7262161,-105.0997950
11595,West 6th Avenue Frontage Road,80215,39.7267530,-105.1272540
6400,West Colfax Avenue,80214-1801,39.7400894,-105.0677800
6400,West Colfax Avenue,80214-1801,39.7400666,-105.0675710
1194,South Pierce Street,80232,39.6951951,-105.0712220
750,Tabor Street,80401,39.7276423,-105.1299201
650,South Wadsworth Boulevard,80226,39.7048101,-105.0805760
7660,West Virginia Avenue,80226,39.7065435,-105.0820180
7700,West Virginia Avenue,80226,39.7067289,-105.0828320
7650,West Virginia Avenue,80226,39.7068230,-105.0822580
7700,West Virginia Avenue,80226,39.7068268,-105.0825810
650,South Wadsworth Boulevard,80226,39.7049316,-105.0806948
165,South Union Boulevard,80228,39.7132051,-105.1346511
218,Union Boulevard,80228,39.7185950,-105.1318740
14005,West Colfax Drive,80401,39.7361454,-105.1554420
860,Tabor Street,80401,39.7303385,-105.1290247
10705,West Colfax Avenue,80215,39.7427555,-105.1181550
12039,West Alameda Parkway,80228,39.7096567,-105.1371980
10600,West Colfax Avenue,80215,39.7396520,-105.1170390
3355,South Wadsworth Boulevard,80227,39.6545624,-105.0821799
7847,West Jewell Avenue,80232,39.6836438,-105.0857426
2484,Kipling Street,80215,39.7525392,-105.1092369
7220,West Jefferson Avenue,80235,39.6494637,-105.0775693
1208,Wadsworth Boulevard,80214,39.7354149,-105.0810658
6800,West Hampden Avenue,80227,39.6521773,-105.0733973
375,Union Boulevard,80228,39.7217114,-105.1327741
375,Union Boulevard,80228,39.7215230,-105.1327741
375,Union Boulevard,80228,39.7216178,-105.1327741
14500,West Colfax Drive,80401,39.7336453,-105.1572406
12820,West Alameda Parkway,80228,39.7004021,-105.1409739
627,South Depew Street,80226,39.7053467,-105.0589320
1555,South Kipling Parkway,80232,39.6910379,-105.1194186
7220,West Jefferson Avenue,80235,39.6496244,-105.0775793
7220,West Jefferson Avenue,80235,39.6495939,-105.0775746
13109,West Alameda Parkway,80228,39.6975379,-105.1453675
13107,West Alameda Parkway,80228,39.6983179,-105.1456528
13079,West Alameda Parkway,80228,39.6988066,-105.1457042
13049,West Alameda Parkway,80228,39.6992312,-105.1454077
13057,West Alameda Parkway,80228,39.6991414,-105.1455105
13015,West Alameda Parkway,80228,39.6994737,-105.1446955
12105,West Alameda Parkway,80228,39.7074170,-105.1362802
12039,West Alameda Parkway,80228,39.7103161,-105.1372075
12039,West Alameda Parkway,80228,39.7100272,-105.1372075
7475,West Colfax Avenue,80214,39.7405134,-105.0795340
5715,West 11th Avenue,80214,39.7351996,-105.0596632
2995,S. Estes Street,80227,39.6631139,-105.0963200
10750,West Colfax Avenue,80215,39.7394013,-105.1181258
10750,West Colfax Avenue,80215,39.7393972,-105.1177986
195,South Union Boulevard,80228,39.7122736,-105.1342480
385,Union Boulevard,80228,39.7223652,-105.1329170
360,Union Boulevard,80228,39.7214709,-105.1315830
11100,West Alameda Avenue,80226,39.7104920,-105.1229890
2775,South Estes Street,80227,39.6648268,-105.0973245
1896,S Quay St,80232,39.6824978,-105.0728985
12792,West Alameda Parkway,80228,39.7012661,-105.1397940
12792,West Alameda Parkway,80228,39.7014469,-105.1396270
12792,West Alameda Parkway,80228,39.7013403,-105.1397370
11111,West 8th Avenue,80215,39.7295129,-105.1218269
14710,West Colfax Avenue,80401,39.7301441,-105.1638560
200,Union Boulevard,80228,39.7186923,-105.1317430
10405,West Colfax Avenue,80215,39.7414394,-105.1146541
9797,West Colfax Avenue,80215,39.7405247,-105.1078831
14500,W Colfax Ave,80401,39.7337829,-105.1540710
12081,West Alameda Parkway,80228,39.7078243,-105.1359657
6101,West 11th Avenue,80214,39.7350727,-105.0641347
5799,West Colfax Avenue,80214,39.7408548,-105.0599426
1880,South Pierce Street,80232,39.6833619,-105.0709834
98,South Wadsworth Boulevard,80226,39.7159947,-105.0803677
98,South Wadsworth Boulevard,80226,39.7169413,-105.0797623
98,South Wadsworth Boulevard,80226,39.7180673,-105.0793779
225,South Sheridan Boulevard,80226,39.7124403,-105.0549220
225,South Sheridan Boulevard,80226,39.7126923,-105.0549330
6555,West Colfax Avenue,80214-1803,39.7418119,-105.0673999
1505,South Kipling Parkway,80232,39.6902893,-105.1177445
12364,West Alameda Parkway,80228,39.7028614,-105.1375370
7111,West Alameda Avenue,80226,39.7119958,-105.0759110
5066,South Wadsworth Boulevard,80123,39.6247548,-105.0894320
7000,West Alameda Avenue,80226,39.7105895,-105.0734984
7000,West Alameda Avenue,80226,39.7102681,-105.0734615
7215,West Alameda Avenue,80226,39.7116082,-105.0776838
7201,West Alameda Avenue,80226,39.7116136,-105.0773483
105,D Wadsworth Boulevard,80226,39.7187138,-105.0819878
200,Wadsworth Boulevard,80226,39.7197931,-105.0810275
200,Wadsworth Boulevard,80226,39.7198087,-105.0809242
2536,Kipling Street,80215,39.7538486,-105.1102544
85,Union Boulevard,80228,39.7144008,-105.1346501
3355,South Wadsworth Boulevard,80227,39.6546331,-105.0817941
1445,Depew Street,80214,39.7389999,-105.0581585
1447,Depew Street,80214,39.7390402,-105.0581046
1449,Depew Street,80214,39.7390896,-105.0581052
1449.5,Depew Street,80214,39.7391343,-105.0581544
1437,Depew Street,80214,39.7388145,-105.0581578
1439,Depew Street,80214,39.7388549,-105.0581040
1441,Depew Street,80214,39.7389042,-105.0581046
1443,Depew Street,80214,39.7389489,-105.0581538
1435,Depew Street,80214,39.7387332,-105.0581111
5615,West 14th Avenue,80214,39.7386961,-105.0581740
5619,West 14th Avenue,80214,39.7386963,-105.0582201
5621,West 14th Avenue,80214,39.7387332,-105.0582815
5621,West 14th Avenue,80214,39.7387308,-105.0584886
5629,West 14th Avenue,80214,39.7386939,-105.0584272
5625,West 14th Avenue,80214,39.7386937,-105.0583811
5623,West 14th Avenue,80214,39.7387309,-105.0583182
1520,Ames Street,80214,39.7411796,-105.0540860
1544,Ames Street,80214,39.7412307,-105.0542447
1550,Ames Street,80214,39.7413473,-105.0542335
1554,Ames Street,80214,39.7413859,-105.0542338
1569,Sheridan Boulevard,80214,39.7416480,-105.0535615
1571,Sheridan Boulevard,80214,39.7417020,-105.0535616
1577,Sheridan Boulevard,80214,39.7417578,-105.0535618
7455,West 12th Avenue,80214,39.7349692,-105.0798086
7459,West 12th Avenue,80214,39.7350570,-105.0798270
7465,West 12th Avenue,80214,39.7351508,-105.0798450
7469,West 12th Avenue,80214,39.7352359,-105.0798666
7489,West 12th Avenue,80214,39.7352366,-105.0799447
7485,West 12th Avenue,80214,39.7351482,-105.0799641
7479,West 12th Avenue,80214,39.7350617,-105.0799844
7475,West 12th Avenue,80214,39.7349740,-105.0800058
5400,West Colfax Avenue,80214,39.7401952,-105.0557263
5414,West Colfax Avenue,80214,39.7402088,-105.0559174
1401,Ingalls Street,80214,39.7386297,-105.0639735
1405,Ingalls Street,80214,39.7387369,-105.0639738
1481,Ingalls Street,80214,39.7397274,-105.0640249
1483,Ingalls Street,80214,39.7397274,-105.0640811
1485,Ingalls Street,80214,39.7397273,-105.0641566
1487,Ingalls Street,80214,39.7397272,-105.0641913
1412,Jay Street,80214,39.7389586,-105.0646364
1410,Jay Street,80214,39.7389349,-105.0645574
1432,Jay Street,80214,39.7391443,-105.0646012
1430,Jay Street,80214,39.7391549,-105.0646545
1404,Lamar Street,80214,39.7390852,-105.0671042
1406,Lamar Street,80214,39.7391192,-105.0671045
1408,Lamar Street,80214,39.7391708,-105.0671050
1410,Lamar Street,80214,39.7392027,-105.0671052
1390,Otis Street,80214,39.7383220,-105.0705752
6660,West 14th Avenue,80214,39.7383225,-105.0703451
1340,Otis Street,80214,39.7375213,-105.0706001
1330,Otis Street,80214,39.7374400,-105.0705682
1308,Marshall Street,80214,39.7369753,-105.0680607
1310,Marshall Street,80214,39.7370096,-105.0680903
1312,Marshall Street,80214,39.7370092,-105.0681536
1314,Marshall Street,80214,39.7370089,-105.0682234
1330,Marshall Street,80214,39.7374326,-105.0682382
1332,Marshall Street,80214,39.7374323,-105.0681599
1334,Marshall Street,80214,39.7374320,-105.0680821
1336,Marshall Street,80214,39.7374686,-105.0680490
1338,Marshall Street,80214,39.7375304,-105.0680490
1344,Marshall Street,80214,39.7375712,-105.0680817
1346,Marshall Street,80214,39.7375715,-105.0681515
1348,Marshall Street,80214,39.7375717,-105.0682195
1309,Otis Street,80214,39.7369824,-105.0710400
1307,Otis Street,80214,39.7369698,-105.0711067
1305,Otis Street,80214,39.7369199,-105.0711438
1303,Otis Street,80214,39.7368779,-105.0711305
1301,Otis Street,80214,39.7368369,-105.0711174
1336,Pierce Street,80214,39.7375357,-105.0716462
1348,Pierce Street,80214,39.7375945,-105.0716466
5240,West 9th Avenue,80214,39.7311695,-105.0541616
5242,West 9th Avenue,80214,39.7311687,-105.0542431
7573,West 12th Avenue,80214,39.7349408,-105.0802850
7575,West 12th Avenue,80214,39.7349420,-105.0804370
1105,Vance Street,80214,39.7340678,-105.0792335
1103,Vance Street,80214,39.7339882,-105.0792339
1142,Vance Street,80214,39.7343649,-105.0789214
1140,Vance Street,80214,39.7343818,-105.0788335
7300,West 13th Avenue,80214,39.7364170,-105.0782800
1295,Upham Street,80214,39.7363950,-105.0780294
1290,Upham Street,80214,39.7363676,-105.0777172
1280,Upham Street,80214,39.7363121,-105.0777171
7215,West 12th Avenue,80214,39.7348957,-105.0771371
7215,West 12th Avenue,80214,39.7348960,-105.0770955
7205,West 12th Avenue,80214,39.7348967,-105.0769512
7205,West 12th Avenue,80214,39.7348969,-105.0769083
1150,Teller Street,80214,39.7342789,-105.0764794
1150.5,Teller Street,80214,39.7342650,-105.0764800
1152,Teller Street,80214,39.7342057,-105.0764818
1152.5,Teller Street,80214,39.7341952,-105.0764822
7089,West 10th Avenue,80214,39.7332588,-105.0752184
7079,West 10th Avenue,80214,39.7332993,-105.0750431
1011,Pierce Street,80214,39.7340085,-105.0745576
1011,Pierce Street,80214,39.7340075,-105.0746061
1011,Pierce Street,80214,39.7339586,-105.0747416
1011,Pierce Street,80214,39.7339197,-105.0747417
1011,Pierce Street,80214,39.7338153,-105.0747145
1011,Pierce Street,80214,39.7338149,-105.0746115
1011,Pierce Street,80214,39.7338164,-105.0744426
1011,Pierce Street,80214,39.7337458,-105.0742694
1011,Pierce Street,80214,39.7338270,-105.0742701
1011,Pierce Street,80214,39.7339069,-105.0742708
1011,Pierce Street,80214,39.7339513,-105.0738819
1011,Pierce Street,80214,39.7339019,-105.0738810
1011,Pierce Street,80214,39.7338140,-105.0738567
1011,Pierce Street,80214,39.7338136,-105.0737798
1011,Pierce Street,80214,39.7338138,-105.0735721
1011,Pierce Street,80214,39.7338134,-105.0735003
1011,Pierce Street,80214,39.7338869,-105.0734671
1011,Pierce Street,80214,39.7339373,-105.0734675
1011,Pierce Street,80214,39.7339395,-105.0730561
1011,Pierce Street,80214,39.7338827,-105.0730558
1011,Pierce Street,80214,39.7338132,-105.0730154
1011,Pierce Street,80214,39.7338134,-105.0729403
1011,Pierce Street,80214,39.7338159,-105.0727420
1011,Pierce Street,80214,39.7338162,-105.0726695
1011,Pierce Street,80214,39.7338869,-105.0726354
1011,Pierce Street,80214,39.7339370,-105.0726353
6869,West 10th Avenue,80214,39.7334092,-105.0746942
6869,West 10th Avenue,80214,39.7333648,-105.0746953
6869,West 10th Avenue,80214,39.7334206,-105.0745773
6869,West 10th Avenue,80214,39.7333737,-105.0745766
6869,West 10th Avenue,80214,39.7334157,-105.0741067
6869,West 10th Avenue,80214,39.7333778,-105.0741070
6869,West 10th Avenue,80214,39.7334290,-105.0739644
6869,West 10th Avenue,80214,39.7333793,-105.0739637
6869,West 10th Avenue,80214,39.7334142,-105.0735372
6869,West 10th Avenue,80214,39.7333582,-105.0735372
6869,West 10th Avenue,80214,39.7333800,-105.0733741
6869,West 10th Avenue,80214,39.7333793,-105.0731811
6869,West 10th Avenue,80214,39.7334591,-105.0729954
6869,West 10th Avenue,80214,39.7333567,-105.0729950
1315,Upham Street,80214,39.7369232,-105.0781003
1305,Upham Street,80214,39.7368515,-105.0780983
1301,Upham Street,80214,39.7368018,-105.0780972
1365,Upham Street,80214,39.7377380,-105.0781007
1365.5,Upham Street,80214,39.7376377,-105.0781356
1383,Upham Street,80214,39.7378815,-105.0780905
1383,Upham Street,80214,39.7379638,-105.0780913
1385,Upham Street,80214,39.7380212,-105.0780919
1385,Upham Street,80214,39.7380792,-105.0780768
379,South Garrison Street,80226,39.7100039,-105.1006134
98,Wadsworth Blvd,80226,39.7168342,-105.0797589
13701,West Jewell Avenue,80228,39.6828034,-105.1560498
14500,West Colfax Avenue,80401,39.7313190,-105.1565967
14500,West Colfax Avenue,80401,39.7327704,-105.1562024
14500,West Colfax Avenue,80401,39.7310906,-105.1602447
14500,West Colfax Avenue,80401,39.7313877,-105.1591871
3355,South Yarrow Street,80227,39.6549167,-105.0837904
10815,West Jewell Avenue,80232,39.6826308,-105.1191910
2305,South Fenton Drive,80227,39.6742277,-105.0603145
12093,West Alameda Parkway,80228,39.7085445,-105.1354160
12087,w alameda Pkway,80228,39.7078703,-105.1359547
6735,Pierce Street,80214,39.7413757,-105.0710792
15584,West Warren Avenue,80028,39.6738106,-105.1818515
8805,West 14th Avenue,80215,39.7386924,-105.0963370
7070,West Alameda Avenue,80226,39.7105340,-105.0746940
12001,W Center Pl,80228,39.7042675,-105.1317968
14105,West Colfax Drive,80401,39.7354470,-105.1580138
10565,West Colfax Avenue,80215-3803,39.7427085,-105.1167475
3355,South Wadsworth Boulevard,80227,39.6553935,-105.0819162
14500,West Colfax Avenue,80401,39.7318821,-105.1552932
1535,South Kipling Parkway,80232,39.6898526,-105.1191409
6501,West Colfax Avenue,80214,39.7407594,-105.0683836
6501,West Colfax Avenue,80214,39.7409560,-105.0681986
6501,West Colfax Avenue,80214,39.7409576,-105.0684854
6501,West Colfax Avenue,80214,39.7409592,-105.0683649
6501,West Colfax Avenue,80214,39.7409001,-105.0682797
6501,West Colfax Avenue,80214,39.7408202,-105.0685166
7130,West 16th Avenue,80214,39.7413745,-105.0758968
7357,West Alaska Drive,80226,39.7093948,-105.0791000
7260,West Alaska Drive,80226,39.7087715,-105.0778374
8789,West Colfax Avenue,80215,39.7404848,-105.0951318
14417,West Colfax Avenue,80401,39.7332663,-105.1631505
7181,West Alaska Drive,80226,39.7093729,-105.0763616
12095,West Alameda Parkway,80228,39.7084108,-105.1354123
3333,South Wadsworth,80227,39.6562832,-105.0834342
8101,West Colfax Avenue,80204,39.7405643,-105.0870679
2109,South Wadsworth Boulevard,80227,39.6783808,-105.0821044
7380,West Alameda Avenue,80226,39.7099031,-105.0837110
10590,West Colfax Avenue,80215,39.7397074,-105.1162665
1567,Wadsworth Boulevard,80214,39.7415204,-105.0821950
7800,West Jewell Avenue,80232,39.6819158,-105.0842074
11254,W Ford DR,80226,39.6968315,-105.1229356
1650,South Deframe Street,80228,39.6842744,-105.1559022
1970,Kendall Street,80214,39.7470931,-105.0659485
1996,Kendall Street,80214,39.7472044,-105.0658999
1998,Kendall Street,80214,39.7473645,-105.0659240
1985,Jay Street,80214,39.7473527,-105.0653649
1981,Jay Street,80214,39.7472189,-105.0652811
1979,Jay Street,80214,39.7471212,-105.0653530
231,South Benton Street,80226,39.7126222,-105.0561149
233,South Benton Street,80226,39.7125837,-105.0561158
235,South Benton Street,80226,39.7125372,-105.0561168
237,South Benton Street,80226,39.7124926,-105.0561147
225,South Benton Street,80226,39.7126918,-105.0558870
227,South Benton Street,80226,39.7126943,-105.0559407
229,South Benton Street,80226,39.7126929,-105.0560027
235,South Fenton Street,80226,39.7126010,-105.0606475
237,South Fenton Street,80226,39.7126929,-105.0606209
97,South Sheridan Boulevard,80226,39.7154274,-105.0541919
85,South Sheridan Boulevard,80226,39.7155336,-105.0541877
77,South Sheridan Boulevard,80226,39.7156254,-105.0541863
75,South Sheridan Boulevard,80226,39.7158111,-105.0541769
95,South Sheridan Boulevard,80226,39.7159755,-105.0540201
95,Sheridan Boulevard,80226,39.7159740,-105.0538872
95,Sheridan Boulevard,80226,39.7159771,-105.0537518
95,Sheridan Boulevard,80226,39.7160782,-105.0537424
5498,West 1st Avenue,80226,39.7183649,-105.0560680
5494,West 1st Avenue,80226,39.7183677,-105.0559594
52,Depew Street,80226,39.7181277,-105.0576954
50,Depew Street,80226,39.7180510,-105.0576974
5650,West 1st Avenue,80226,39.7183067,-105.0589335
5640,West 1st Avenue,80226,39.7183044,-105.0586756
5665,West Ellsworth Avenue,80226,39.7175049,-105.0587785
5655,West Ellsworth Avenue,80226,39.7175106,-105.0589418
5810,West 1st Avenue,80226,39.7183688,-105.0607788
5800,West 1st Avenue,80226,39.7183649,-105.0606631
75,Fenton Street,80226,39.7181891,-105.0606652
65,Fenton Street,80226,39.7180967,-105.0606624
55,Fenton Street,80226,39.7179182,-105.0606644
45,Fenton Street,80226,39.7178218,-105.0606638
56,South Harlan Street,80226,39.7164267,-105.0624238
58,South Harlan Street,80226,39.7163013,-105.0624182
60,South Harlan Street,80226,39.7160013,-105.0624340
62,South Harlan Street,80226,39.7159074,-105.0624481
66,South Harlan Street,80226,39.7157442,-105.0624486
68,South Harlan Street,80226,39.7156566,-105.0624333
75,South Gray Street,80226,39.7154598,-105.0616967
67,South Gray Street,80226,39.7155265,-105.0616930
65,South Gray Street,80226,39.7156932,-105.0616944
63,South Gray Street,80226,39.7159443,-105.0617233
61,South Gray Street,80226,39.7160297,-105.0617248
166,South Kendall Street,80226,39.7131440,-105.0658109
168,South Kendall Street,80226,39.7130935,-105.0658159
160,South Kendall Street,80226,39.7132464,-105.0660307
150,South Kendall Street,80226,39.7134003,-105.0660375
146,South Kendall Street,80226,39.7136354,-105.0658494
148,South Kendall Street,80226,39.7135805,-105.0657643
142,South Kendall Street,80226,39.7139063,-105.0660263
6055,West Byers Place,80226,39.7123853,-105.0635594
6045,West Byers Place,80226,39.7123856,-105.0634453
250,South Ingalls Street,80226,39.7125159,-105.0636541
240,South Ingalls Street,80226,39.7125946,-105.0636518
6045,West Alameda Avenue,80226,39.7116082,-105.0634039
6045,West Alameda Avenue,80226,39.7115498,-105.0633051
6261,West Alameda Avenue,80226,39.7116819,-105.0658601
6251,West Alameda Avenue,80226,39.7116829,-105.0657773
6241,West Alameda Avenue,80226,39.7116826,-105.0657034
6231,West Alameda Avenue,80226,39.7116810,-105.0656383
6221,West Alameda Avenue,80226,39.7116834,-105.0655520
6211,West Alameda Avenue,80226,39.7116845,-105.0654622
6201,West Alameda Avenue,80226,39.7116869,-105.0653706
135,South Ingalls Street,80226,39.7142091,-105.0641202
125,South Ingalls Street,80226,39.7143893,-105.0641344
6190,West Bayaud Avenue,80226,39.7147325,-105.0647066
6192,West Bayaud Avenue,80226,39.7147287,-105.0648506
140,South Ingalls Street,80226,39.7141205,-105.0636777
142,South Ingalls Street,80226,39.7140038,-105.0636665
132,South Ingalls Street,80226,39.7142614,-105.0636703
130,South Ingalls Street,80226,39.7143857,-105.0636658
40,Ingalls Street,80226,39.7175623,-105.0636259
50,Ingalls Street,80226,39.7177279,-105.0636258
6160,West 1st Avenue,80226,39.7183430,-105.0646302
6170,West 1st Avenue,80226,39.7182388,-105.0646339
144,South Kendall Street,80226,39.7137476,-105.0660268
71,Jay Street,80226,39.7181510,-105.0654139
202,South Lamar Street,80226,39.7130599,-105.0671581
204,South Lamar Street,80226,39.7131671,-105.0671648
215,South Kendall Street,80226,39.7131343,-105.0669032
205,South Kendall Street,80226,39.7132254,-105.0669079
185,South Kendall Street,80226,39.7134831,-105.0665048
195,South Kendall Street,80226,39.7133817,-105.0664989
175,South Kendall Street,80226,39.7135734,-105.0665044
165,South Kendall Street,80226,39.7137148,-105.0665114
104,South Lamar Street,80226,39.7148101,-105.0671780
106,South Lamar Street,80226,39.7146884,-105.0671813
107,South Kendall Street,80226,39.7147495,-105.0668335
105,South Kendall Street,80226,39.7147544,-105.0665876
245,South Lamar Street,80226,39.7122664,-105.0676752
243,South Lamar Street,80226,39.7123399,-105.0676818
210,South Marshall Street,80226,39.7129504,-105.0681395
200,South Marshall Street,80226,39.7130119,-105.0681460
6460,West Cedar Place,80226,39.7133217,-105.0684363
6464,West Cedar Place,80226,39.7133206,-105.0685155
6577,West Cedar Avenue,80226,39.7132000,-105.0689828
6575,West Cedar Avenue,80226,39.7131994,-105.0688207
235,South Marshall Street,80226,39.7124996,-105.0685875
225,South Marshall Street,80226,39.7125975,-105.0685834
245,South Marshall Street,80226,39.7123159,-105.0686415
255,South Marshall Street,80226,39.7122520,-105.0686394
205,South Marshall Street,80226,39.7128043,-105.0686296
215,South Marshall Street,80226,39.7127350,-105.0686318
6597,West Cedar Avenue,80226,39.7131758,-105.0695578
6595,West Cedar Avenue,80226,39.7131779,-105.0694143
217,South Newland Street,80226,39.7131926,-105.0700357
207,South Newland Street,80226,39.7133160,-105.0700435
6668,West Cedar Place,80226,39.7133068,-105.0704114
6678,West Cedar Place,80226,39.7133101,-105.0705183
6688,West Cedar Place,80226,39.7132957,-105.0707448
6698,West Cedar Place,80226,39.7132991,-105.0708503
6753,West Cedar Place,80226,39.7137520,-105.0715337
6751,West Cedar Place,80226,39.7136872,-105.0714021
6703,West Cedar Place,80226,39.7136864,-105.0712041
6701,West Cedar Place,80226,39.7136878,-105.0710683
6675,West Cedar Place,80226,39.7138120,-105.0704693
6657,West Cedar Place,80226,39.7136815,-105.0704618
172,South Newland Street,80226,39.7138481,-105.0695597
162,South Newland Street,80226,39.7136807,-105.0695531
6535,West Cedar Place,80226,39.7137039,-105.0692144
6525,West Cedar Place,80226,39.7137014,-105.0690565
137,South Lamar Street,80226,39.7138526,-105.0678485
135,South Lamar Street,80226,39.7139217,-105.0677794
120,South Newland Street,80226,39.7140212,-105.0695086
122,South Newland Street,80226,39.7141650,-105.0695139
6510,West Bayaud Avenue,80226,39.7144492,-105.0689331
6520,West Bayaud Avenue,80226,39.7143137,-105.0688218
130,South Newland Street,80226,39.7154656,-105.0695440
128,South Newland Street,80226,39.7155242,-105.0695444
118,South Newland Street,80226,39.7156304,-105.0695233
116,South Newland Street,80226,39.7157145,-105.0695257
112,South Newland Street,80226,39.7158748,-105.0694318
100,South Newland Street,80226,39.7159032,-105.0695453
15,South Marshall Street,80226,39.7166172,-105.0691632
25,South Marshall Street,80226,39.7164944,-105.0691635
35,South Marshall Street,80226,39.7165399,-105.0688313
45,South Marshall Street,80226,39.7163633,-105.0688279
9998,West Colfax Avenue,80215,39.7397914,-105.1090405
150,South Union Boulevard,80228,39.7138583,-105.1329070
12091,West Alameda Parkway,80228,39.7079034,-105.1357502
6798,West Bayaud Avenue,80226,39.7146912,-105.0716004
6796,West Bayaud Avenue,80226,39.7146799,-105.0714967
6794,West Bayaud Avenue,80226,39.7146869,-105.0712852
6792,West Bayaud Avenue,80226,39.7146864,-105.0711310
94,South Newland Court,80226,39.7149342,-105.0708858
92,South Newland Court,80226,39.7150714,-105.0708144
143,South Newland Street,80226,39.7149560,-105.0701201
141,South Newland Street,80226,39.7150360,-105.0701171
107,South Newland Street,80226,39.7146748,-105.0700746
105,South Newland Street,80226,39.7146108,-105.0700824
82,South Newland Court,80226,39.7153492,-105.0707441
84,South Newland Court,80226,39.7152124,-105.0707422
64,South Newland Court,80226,39.7154861,-105.0707639
62,South Newland Court,80226,39.7156320,-105.0707721
91,South Newland Court,80226,39.7151489,-105.0714248
93,South Newland Court,80226,39.7150009,-105.0714198
94,South Pierce Street,80226,39.7150094,-105.0717858
92,South Pierce Street,80226,39.7151461,-105.0717946
90,South Pierce Street,80226,39.7152665,-105.0718714
80,South Pierce Street,80226,39.7154431,-105.0718632
81,South Newland Court,80226,39.7153234,-105.0713830
83,South Newland Court,80226,39.7154392,-105.0713637
63,South Newland Court,80226,39.7155764,-105.0713618
61,South Newland Court,80226,39.7157122,-105.0713731
60,South Pierce Street,80226,39.7157273,-105.0718553
70,South Pierce Street,80226,39.7155820,-105.0718464
50,South Pierce Street,80226,39.7158583,-105.0718528
40,South Pierce Street,80226,39.7159597,-105.0718521
43,South Newland Court,80226,39.7158551,-105.0713560
41,South Newland Court,80226,39.7159931,-105.0713575
44,South Newland Court,80226,39.7157712,-105.0707610
42,South Newland Court,80226,39.7158938,-105.0707578
34,South Newland Court,80226,39.7160347,-105.0707467
32,South Newland Court,80226,39.7161739,-105.0707472
21,South Newland Court,80226,39.7165631,-105.0713240
23,South Newland Court,80226,39.7164156,-105.0713679
31,South Newland Court,80226,39.7162778,-105.0714180
33,South Newland Court,80226,39.7161261,-105.0714056
24,South Newland Court,80226,39.7162893,-105.0707159
22,South Newland Court,80226,39.7164359,-105.0707175
98,Newland Court,80226,39.7182712,-105.0708210
96,Newland Court,80226,39.7181900,-105.0708215
6622,West 1st Avenue,80226,39.7182925,-105.0705219
6620,West 1st Avenue,80226,39.7182920,-105.0703787
93,Newland Street,80226,39.7182713,-105.0700781
91,Newland Street,80226,39.7181943,-105.0700786
87,Newland Street,80226,39.7179914,-105.0700780
85,Newland Street,80226,39.7178809,-105.0700732
63,Newland Street,80226,39.7176976,-105.0700798
61,Newland Street,80226,39.7176164,-105.0700803
47,Newland Street,80226,39.7174261,-105.0700742
45,Newland Street,80226,39.7173169,-105.0700767
31,Newland Street,80226,39.7171434,-105.0700759
29,Newland Street,80226,39.7170595,-105.0700746
21,Newland Street,80226,39.7169041,-105.0700738
19,Newland Street,80226,39.7167978,-105.0700726
16,Newland Court,80226,39.7167732,-105.0706254
18,Newland Court,80226,39.7168824,-105.0706266
26,Newland Court,80226,39.7170318,-105.0706223
28,Newland Court,80226,39.7171398,-105.0706227
46,Newland Court,80226,39.7173246,-105.0706311
48,Newland Court,80226,39.7174197,-105.0706305
66,Newland Court,80226,39.7176086,-105.0706294
68,Newland Court,80226,39.7176800,-105.0706307
76,Newland Court,80226,39.7178718,-105.0706531
78,Newland Court,80226,39.7179697,-105.0706543
12,South Pierce Street,80226,39.7164250,-105.0718382
10,South Pierce Street,80226,39.7165161,-105.0718421
20,Pierce Street,80226,39.7168516,-105.0719042
22,Pierce Street,80226,39.7170099,-105.0718979
32,Pierce Street,80226,39.7172539,-105.0719145
30,Pierce Street,80226,39.7171467,-105.0719126
95,Newland Court,80226,39.7182171,-105.0713050
97,Newland Court,80226,39.7183263,-105.0713028
89,Newland Court,80226,39.7180588,-105.0712934
87,Newland Court,80226,39.7179511,-105.0712959
69,Newland Court,80226,39.7177926,-105.0711936
67,Newland Court,80226,39.7177099,-105.0711920
59,Newland Court,80226,39.7175454,-105.0711101
57,Newland Court,80226,39.7174439,-105.0711142
39,Newland Court,80226,39.7173292,-105.0711046
37,Newland Court,80226,39.7171892,-105.0710980
27,Newland Court,80226,39.7170135,-105.0712744
29,Newland Court,80226,39.7170125,-105.0714031
19,Newland Court,80226,39.7167691,-105.0714082
17,Newland Court,80226,39.7167686,-105.0712705
30,South Pierce Street,80226,39.7161330,-105.0718571
20,South Pierce Street,80226,39.7162407,-105.0718565
7318,West Cedar Circle,80226,39.7128650,-105.0782522
7308,West Cedar Circle,80226,39.7128608,-105.0780929
7298,West Cedar Circle,80226,39.7128662,-105.0779268
7288,West Cedar Circle,80226,39.7128722,-105.0777557
7278,West Cedar Circle,80226,39.7128783,-105.0775864
7258,West Cedar Circle,80226,39.7128210,-105.0772817
7268,West Cedar Circle,80226,39.7128454,-105.0773990
7338,West Cedar Circle,80226,39.7128591,-105.0787085
7328,West Cedar Circle,80226,39.7128674,-105.0785486
7418,West Cedar Circle,80226,39.7128253,-105.0797069
7414,West Cedar Circle,80226,39.7128660,-105.0796015
7408,West Cedar Circle,80226,39.7128859,-105.0794353
7404,West Cedar Circle,80226,39.7129097,-105.0793147
7358,West Cedar Circle,80226,39.7129149,-105.0791667
7348,West Cedar Circle,80226,39.7128453,-105.0790432
7427,West Cedar Circle,80226,39.7129513,-105.0802160
7433,West Cedar Circle,80226,39.7130647,-105.0802153
7437,West Cedar Circle,80226,39.7131652,-105.0802030
7443,West Cedar Circle,80226,39.7132675,-105.0801342
7447,West Cedar Circle,80226,39.7133695,-105.0801405
7453,West Cedar Circle,80226,39.7135058,-105.0801467
7457,West Cedar Circle,80226,39.7136156,-105.0801473
7463,West Cedar Circle,80226,39.7137236,-105.0801478
7467,West Cedar Circle,80226,39.7138355,-105.0801485
7473,West Cedar Circle,80226,39.7139511,-105.0801495
183,South Vance Court,80226,39.7132460,-105.0791778
179,South Vance Court,80226,39.7133887,-105.0791896
173,South Vance Court,80226,39.7135002,-105.0791965
169,South Vance Court,80226,39.7136134,-105.0792043
163,South Vance Court,80226,39.7137268,-105.0792171
159,South Vance Court,80226,39.7138359,-105.0792594
153,South Vance Court,80226,39.7139443,-105.0792436
7466,West Cedar Circle,80226,39.7138188,-105.0796159
7472,West Cedar Circle,80226,39.7139519,-105.0796794
7462,West Cedar Circle,80226,39.7137432,-105.0796702
7456,West Cedar Circle,80226,39.7135976,-105.0796664
7452,West Cedar Circle,80226,39.7134764,-105.0796621
7446,West Cedar Circle,80226,39.7134086,-105.0795776
7442,West Cedar Circle,80226,39.7132941,-105.0796024
182,South Vance Court,80226,39.7132092,-105.0786660
178,South Vance Court,80226,39.7133520,-105.0786789
172,South Vance Court,80226,39.7134513,-105.0786941
168,South Vance Court,80226,39.7135699,-105.0787219
162,South Vance Court,80226,39.7136811,-105.0787107
158,South Vance Court,80226,39.7137952,-105.0787155
152,South Vance Court,80226,39.7138850,-105.0787040
151,South Upham Court,80226,39.7139125,-105.0783619
157,South Upham Court,80226,39.7138058,-105.0783642
161,South Upham Court,80226,39.7136986,-105.0783187
167,South Upham Court,80226,39.7135914,-105.0783016
171,South Upham Court,80226,39.7134740,-105.0782861
177,South Upham Court,80226,39.7133568,-105.0782736
7319,West Cedar Circle,80226,39.7132298,-105.0782624
180,South Upham Court,80226,39.7132576,-105.0777526
176,South Upham Court,80226,39.7133862,-105.0777666
170,South Upham Court,80226,39.7134875,-105.0777663
166,South Upham Court,80226,39.7136017,-105.0777687
160,South Upham Court,80226,39.7137199,-105.0777768
156,South Upham Court,80226,39.7138430,-105.0777687
150,South Upham Court,80226,39.7139464,-105.0778105
7232,West Cedar Circle,80226,39.7133981,-105.0773438
7238,West Cedar Circle,80226,39.7132724,-105.0773651
7228,West Cedar Circle,80226,39.7135099,-105.0773562
7218,West Cedar Circle,80226,39.7136254,-105.0773759
7212,West Cedar Circle,80226,39.7137392,-105.0773907
7208,West Cedar Circle,80226,39.7138518,-105.0774042
7202,West Cedar Circle,80226,39.7139616,-105.0774217
7477,West Cedar Circle,80226,39.7140646,-105.0801506
7483,West Cedar Circle,80226,39.7141722,-105.0801509
7487,West Cedar Circle,80226,39.7142808,-105.0801501
7493,West Cedar Circle,80226,39.7143912,-105.0801455
7495,West Cedar Circle,80226,39.7145026,-105.0801412
7497,West Cedar Circle,80226,39.7146393,-105.0801358
7476,West Cedar Circle,80226,39.7142505,-105.0796521
7482,West Cedar Circle,80226,39.7143562,-105.0796136
7486,West Cedar Circle,80226,39.7144785,-105.0795692
7492,West Cedar Circle,80226,39.7145878,-105.0795553
7496,West Cedar Circle,80226,39.7146883,-105.0795467
143,South Vance Court,80226,39.7142519,-105.0793323
133,South Vance Court,80226,39.7143569,-105.0792853
123,South Vance Court,80226,39.7144564,-105.0792292
113,South Vance Court,80226,39.7145794,-105.0792016
103,South Vance Court,80226,39.7146818,-105.0792356
142,South Vance Court,80226,39.7142492,-105.0786561
132,South Vance Court,80226,39.7143573,-105.0786440
122,South Vance Court,80226,39.7144714,-105.0786669
112,South Vance Court,80226,39.7145916,-105.0786554
102,South Vance Court,80226,39.7147068,-105.0786469
121,South Upham Court,80226,39.7144764,-105.0783092
131,South Upham Court,80226,39.7143629,-105.0783466
141,South Upham Court,80226,39.7142511,-105.0783458
111,South Upham Court,80226,39.7145933,-105.0782940
101,South Upham Court,80226,39.7147091,-105.0782839
140,South Upham Court,80226,39.7142594,-105.0777786
130,South Upham Court,80226,39.7143794,-105.0777671
120,South Upham Court,80226,39.7144889,-105.0777833
7202,West Maple Drive,80226,39.7142692,-105.0774312
7208,West Maple Drive,80226,39.7143846,-105.0774194
7212,West Maple Drive,80226,39.7144950,-105.0774108
7220,West Maple Drive,80226,39.7146050,-105.0773995
7228,West Maple Drive,80226,39.7147186,-105.0773869
110,South Upham Court,80226,39.7146024,-105.0777705
100,South Upham Court,80226,39.7147154,-105.0777589
80,South Upham Court,80226,39.7148977,-105.0777449
70,South Upham Court,80226,39.7150052,-105.0777410
7248,West Maple Drive,80226,39.7151062,-105.0774082
7238,West Maple Drive,80226,39.7150054,-105.0773679
7232,West Maple Drive,80226,39.7148990,-105.0773713
61,South Upham Court,80226,39.7151411,-105.0782611
71,South Upham Court,80226,39.7150089,-105.0782641
81,South Upham Court,80226,39.7148972,-105.0782682
82,South Vance Court,80226,39.7148954,-105.0786325
72,South Vance Court,80226,39.7150076,-105.0786286
62,South Vance Court,80226,39.7151366,-105.0786229
7444,West Maple Drive,80226,39.7148904,-105.0795258
7438,West Maple Drive,80226,39.7150008,-105.0795158
7434,West Maple Drive,80226,39.7151245,-105.0794756
63,South Vance Court,80226,39.7151217,-105.0791722
73,South Vance Court,80226,39.7149968,-105.0791998
83,South Vance Court,80226,39.7148805,-105.0792130
7449,West Maple Drive,80226,39.7149103,-105.0800750
7445,West Maple Drive,80226,39.7150481,-105.0800862
7439,West Maple Drive,80226,39.7151537,-105.0800849
7435,West Maple Drive,80226,39.7152625,-105.0800526
7425,West Maple Drive,80226,39.7154951,-105.0797872
7419,West Maple Drive,80226,39.7154787,-105.0796326
7415,West Maple Drive,80226,39.7154830,-105.0794812
7409,West Maple Drive,80226,39.7154842,-105.0793345
7405,West Maple Drive,80226,39.7154852,-105.0791875
7375,West Maple Drive,80226,39.7154840,-105.0790455
7365,West Maple Drive,80226,39.7154908,-105.0789029
7355,West Maple Drive,80226,39.7155037,-105.0787587
7345,West Maple Drive,80226,39.7155077,-105.0786184
7335,West Maple Drive,80226,39.7155091,-105.0784785
7325,West Maple Drive,80226,39.7155105,-105.0783415
7315,West Maple Drive,80226,39.7155124,-105.0781935
7245,West Maple Drive,80226,39.7155131,-105.0772688
7235,West Maple Drive,80226,39.7154892,-105.0771335
7255,West Maple Drive,80226,39.7154893,-105.0774074
7265,West Maple Drive,80226,39.7154953,-105.0775624
7275,West Maple Drive,80226,39.7155166,-105.0777082
7285,West Maple Drive,80226,39.7154724,-105.0778733
90,Quay Street,80226,39.7182736,-105.0728648
80,Quay Street,80226,39.7181732,-105.0728655
25,Quay Street,80226,39.7171927,-105.0733126
35,Quay Street,80226,39.7173249,-105.0733230
45,Quay Street,80226,39.7175222,-105.0733217
55,Quay Street,80226,39.7176583,-105.0733165
65,Quay Street,80226,39.7178637,-105.0733790
75,Quay Street,80226,39.7179860,-105.0733766
85,Quay Street,80226,39.7181116,-105.0733596
95,Quay Street,80226,39.7182803,-105.0733675
15,Quay Street,80226,39.7168625,-105.0733243
17,Quay Street,80226,39.7170187,-105.0733189
7331,West Archer Place,80226,39.7167886,-105.0784532
7361,West Archer Place,80226,39.7167841,-105.0787181
7285,West 1st Avenue,80226,39.7187110,-105.0780226
7365,West 1st Avenue,80226,39.7187320,-105.0789202
7335,West 1st Avenue,80226,39.7187105,-105.0786072
7325,West 1st Avenue,80226,39.7187703,-105.0784777
7309,West 2nd Circle,80226,39.7189617,-105.0783658
7319,West 2nd Circle,80226,39.7189852,-105.0782183
7295,West 1st Avenue,80226,39.7187562,-105.0781525
7328,West 2nd Circle,80226,39.7190273,-105.0786309
7338,West 2nd Circle,80226,39.7191170,-105.0787252
152,Vance Street,80226,39.7191349,-105.0789775
142,Vance Street,80226,39.7190224,-105.0790083
7339,West 2nd Circle,80226,39.7192895,-105.0780857
7329,West 2nd Circle,80226,39.7191783,-105.0780477
117,Teller Street,80226,39.7189736,-105.0772817
119,Teller Street,80226,39.7190876,-105.0772893
7204,West 1st Place,80226,39.7198981,-105.0773518
7202,West 1st Place,80226,39.7198934,-105.0770987
165,Teller Street,80226,39.7196746,-105.0776085
167,Teller Street,80226,39.7197544,-105.0776084
7359,West 2nd Circle,80226,39.7196046,-105.0781495
7349,West 2nd Circle,80226,39.7194887,-105.0781429
7368,West 2nd Circle,80226,39.7193990,-105.0786954
7358,West 2nd Circle,80226,39.7194557,-105.0786373
162,Vance Street,80226,39.7194001,-105.0789635
172,Vance Street,80226,39.7195232,-105.0789778
7379,West 2nd Circle,80226,39.7198631,-105.0785293
7369,West 2nd Circle,80226,39.7197995,-105.0784052
242,Vance Street,80226,39.7200448,-105.0788908
232,Vance Street,80226,39.7199463,-105.0788044
252,Vance Street,80226,39.7202425,-105.0789026
262,Vance Street,80226,39.7203044,-105.0787106
7223,West 1st Place,80226,39.7201860,-105.0783068
7221,West 1st Place,80226,39.7201954,-105.0780480
7219,West 1st Place,80226,39.7201991,-105.0778554
7217,West 1st Place,80226,39.7201887,-105.0775896
7205,West 1st Place,80226,39.7201937,-105.0774071
7203,West 1st Place,80226,39.7202017,-105.0771627
7216,West 1st Place,80226,39.7199010,-105.0775277
7218,West 1st Place,80226,39.7198898,-105.0777955
260,Upham Street,80226,39.7203761,-105.0776741
266,Upham Street,80226,39.7203633,-105.0778890
265,Upham Street,80226,39.7203742,-105.0783027
275,Upham Street,80226,39.7205301,-105.0783477
272,Vance Street,80226,39.7205462,-105.0786684
282,Vance Street,80226,39.7206394,-105.0787814
270,Upham Street,80226,39.7206858,-105.0777334
276,Upham Street,80226,39.7206965,-105.0775143
280,Upham Street,80226,39.7209446,-105.0777680
290,Upham Street,80226,39.7209945,-105.0776696
310,Upham Street,80226,39.7212042,-105.0776683
300,Upham Street,80226,39.7211631,-105.0777656
7310,West 3rd Avenue,80226,39.7210215,-105.0783244
295,Upham Street,80226,39.7208672,-105.0783116
7352,West 3rd Avenue,80226,39.7208836,-105.0786121
7350,West 3rd Avenue,80226,39.7209838,-105.0785998
7382,West 3rd Avenue,80226,39.7208586,-105.0789287
7380,West 3rd Avenue,80226,39.7209816,-105.0789231
233,Vance Street,80226,39.7201081,-105.0795869
243,Vance Street,80226,39.7201490,-105.0793747
223,Vance Street,80226,39.7198959,-105.0796635
213,Vance Street,80226,39.7198412,-105.0794701
173,Vance Street,80226,39.7195002,-105.0796134
183,Vance Street,80226,39.7196069,-105.0794596
153,Vance Street,80226,39.7191957,-105.0797005
163,Vance Street,80226,39.7193285,-105.0796973
143,Vance Street,80226,39.7190513,-105.0796380
133,Vance Street,80226,39.7189379,-105.0795181
7403,West 1st Avenue,80226,39.7187041,-105.0796541
7401,West 1st Avenue,80226,39.7187736,-105.0795217
98,South Wadsworth Boulevard,80226,39.7159571,-105.0805852
98,South Wadsworth Boulevard,80226,39.7159878,-105.0804714
98,South Wadsworth Boulevard,80226,39.7159961,-105.0802505
98,South Wadsworth Boulevard,80226,39.7160464,-105.0799694
98,South Wadsworth Boulevard,80226,39.7163985,-105.0797550
98,South Wadsworth Boulevard,80226,39.7165028,-105.0797473
98,South Wadsworth Boulevard,80226,39.7165928,-105.0797519
98,South Wadsworth Boulevard,80226,39.7166769,-105.0797566
98,South Wadsworth Boulevard,80226,39.7167694,-105.0797565
98,South Wadsworth Boulevard,80226,39.7170454,-105.0797673
98,South Wadsworth Boulevard,80226,39.7173939,-105.0797288
98,South Wadsworth Boulevard,80226,39.7178003,-105.0796441
98,South Wadsworth Boulevard,80226,39.7180621,-105.0795254
98,South Wadsworth Boulevard,80226,39.7180562,-105.0798271
290,Pierce Street,80226,39.7211183,-105.0718291
225,Otis Court,80226,39.7207223,-105.0713619
235,Otis Court,80226,39.7207891,-105.0713624
245,Otis Court,80226,39.7210615,-105.0713728
255,Otis Court,80226,39.7210800,-105.0712543
274,Otis Court,80226,39.7210927,-105.0710827
264,Otis Court,80226,39.7210788,-105.0709358
254,Otis Court,80226,39.7210341,-105.0706994
244,Otis Court,80226,39.7209124,-105.0706533
234,Otis Court,80226,39.7207832,-105.0707585
224,Otis Court,80226,39.7207052,-105.0708743
297,Newland Street,80226,39.7213402,-105.0701013
295,Newland Street,80226,39.7212829,-105.0700993
345,Lamar Street,80226,39.7222486,-105.0677098
370,Lamar Street,80226,39.7226275,-105.0671679
360,Lamar Street,80226,39.7224804,-105.0671905
6480,West 6th Avenue Frontage Road,80214,39.7251376,-105.0687711
6470,West 6th Avenue Frontage Road,80214,39.7251370,-105.0686037
6205,West 5th Place,80226,39.7248871,-105.0653154
6202,West 5th Place,80226,39.7244752,-105.0653074
6435,West 4th Avenue,80226,39.7232513,-105.0685165
6439,West 4th Avenue,80226,39.7232528,-105.0687117
6390,West 5th Avenue,80226,39.7236684,-105.0671621
6370,West 5th Avenue,80226,39.7237074,-105.0670391
109,Harlan Street,80226,39.7190199,-105.0629698
111,Harlan Street,80226,39.7190610,-105.0629695
113,Harlan Street,80226,39.7191022,-105.0629692
115,Harlan Street,80226,39.7191407,-105.0629690
117,Harlan Street,80226,39.7191763,-105.0629688
119,Harlan Street,80226,39.7192175,-105.0629685
121,Harlan Street,80226,39.7192587,-105.0629683
123,Harlan Street,80226,39.7192944,-105.0629681
125,Harlan Street,80226,39.7193301,-105.0629678
127,Harlan Street,80226,39.7193685,-105.0629676
575,Ingalls Street,80226,39.7248907,-105.0641463
585,Ingalls Street,80226,39.7250171,-105.0641446
6106,West 6th Avenue Frontage Road,80214,39.7251873,-105.0641464
6116,West 6th Avenue Frontage Road,80214,39.7251947,-105.0643042
596,Ingalls Street,80226,39.7251662,-105.0636154
594,Ingalls Street,80226,39.7251961,-105.0635033
582,Ingalls Street,80226,39.7250402,-105.0637096
580,Ingalls Street,80226,39.7248956,-105.0636923
570,Ingalls Street,80226,39.7247412,-105.0636807
560,Ingalls Street,80226,39.7246241,-105.0636765
530,Ingalls Street,80226,39.7244651,-105.0636361
520,Ingalls Street,80226,39.7243787,-105.0636418
555,Harlan Street,80226,39.7245926,-105.0630654
565,Harlan Street,80226,39.7247032,-105.0630565
575,Harlan Street,80226,39.7248834,-105.0629692
577,Harlan Street,80226,39.7250071,-105.0629703
593,Harlan Street,80226,39.7252018,-105.0631142
591,Harlan Street,80226,39.7251541,-105.0629664
5891,West 4th Avenue,80226,39.7233171,-105.0615949
5901,West 4th Avenue,80226,39.7233168,-105.0616863
430,Harlan Street,80226,39.7235093,-105.0624433
432,Harlan Street,80226,39.7236340,-105.0624661
530,Harlan Street,80226,39.7246042,-105.0624788
540,Harlan Street,80226,39.7246057,-105.0623289
549,Gray Court,80226,39.7245894,-105.0619095
539,Gray Court,80226,39.7245852,-105.0621298
559,Gray Court,80226,39.7248802,-105.0619334
569,Gray Court,80226,39.7249034,-105.0620454
560,Harlan Street,80226,39.7248831,-105.0622696
550,Harlan Street,80226,39.7248746,-105.0624548
538,Gray Court,80226,39.7245683,-105.0613663
548,Gray Court,80226,39.7245708,-105.0612311
558,Gray Court,80226,39.7248892,-105.0612551
568,Gray Court,80226,39.7248986,-105.0614060
589,Gray Court,80226,39.7251685,-105.0619258
599,Gray Court,80226,39.7251681,-105.0620739
590,Harlan Street,80226,39.7251742,-105.0622905
580,Harlan Street,80226,39.7251629,-105.0624429
598,Gray Court,80226,39.7251723,-105.0613981
588,Gray Court,80226,39.7251747,-105.0612477
5885,West 5th Avenue,80226,39.7244240,-105.0607978
5875,West 5th Avenue,80226,39.7242837,-105.0607710
5845,West 5th Avenue,80226,39.7242589,-105.0605791
5835,West 5th Avenue,80226,39.7242567,-105.0604170
5795,West 5th Avenue,80226,39.7242578,-105.0602202
5785,West 5th Avenue,80226,39.7242560,-105.0600461
5765,West 5th Avenue,80226,39.7242837,-105.0598930
5755,West 5th Avenue,80226,39.7242902,-105.0596762
5725,West 5th Avenue,80226,39.7242748,-105.0594539
5715,West 5th Avenue,80226,39.7242853,-105.0592634
5695,West 5th Avenue,80226,39.7242832,-105.0591029
5685,West 5th Avenue,80226,39.7242822,-105.0588999
5655,West 5th Avenue,80226,39.7242787,-105.0587037
5645,West 5th Avenue,80226,39.7242826,-105.0585348
5625,West 5th Avenue,80226,39.7242949,-105.0583150
5615,West 5th Avenue,80226,39.7243050,-105.0581258
5831,West 4th Avenue,80226,39.7233561,-105.0608050
5841,West 4th Avenue,80226,39.7234673,-105.0608011
5821,West 4th Avenue,80226,39.7233235,-105.0605689
5811,West 4th Avenue,80226,39.7233297,-105.0603756
5870,West 5th Avenue,80226,39.7237565,-105.0608041
5880,West 5th Avenue,80226,39.7238729,-105.0607975
5830,West 5th Avenue,80226,39.7238535,-105.0603950
5840,West 5th Avenue,80226,39.7238572,-105.0605691
5790,West 5th Avenue,80226,39.7238623,-105.0602435
5780,West 5th Avenue,80226,39.7238598,-105.0600367
465,Eaton Place,80226,39.7237040,-105.0597725
475,Eaton Place,80226,39.7238630,-105.0597691
470,Eaton Place,80226,39.7238888,-105.0592479
460,Eaton Place,80226,39.7237239,-105.0592422
5690,West 5th Avenue,80226,39.7239038,-105.0590425
5680,West 5th Avenue,80226,39.7238996,-105.0588873
5650,West 5th Avenue,80226,39.7238965,-105.0586951
5640,West 5th Avenue,80226,39.7238899,-105.0584915
5620,West 5th Avenue,80226,39.7238992,-105.0583107
5610,West 5th Avenue,80226,39.7238962,-105.0581407
5457,West 4th Avenue,80226,39.7235157,-105.0577527
5447,West 4th Avenue,80226,39.7235239,-105.0574568
589,Depew Court,80226,39.7247201,-105.0580317
587,Depew Court,80226,39.7246596,-105.0579385
585,Depew Court,80226,39.7246195,-105.0577114
583,Depew Court,80226,39.7246377,-105.0575497
590,Depew Court,80226,39.7247136,-105.0573554
588,Depew Court,80226,39.7248267,-105.0573435
592,Depew Court,80226,39.7249956,-105.0573477
594,Depew Court,80226,39.7250916,-105.0574491
596,Depew Court,80226,39.7251633,-105.0576527
598,Depew Court,80226,39.7251830,-105.0578039
5236,West 5th Avenue,80226,39.7239319,-105.0546607
5234,West 5th Avenue,80226,39.7239321,-105.0546098
5232,West 5th Avenue,80226,39.7239300,-105.0545710
5230,West 5th Avenue,80226,39.7239301,-105.0545202
5228,West 5th Avenue,80226,39.7239303,-105.0544693
5226,West 5th Avenue,80226,39.7239305,-105.0544185
5224,West 5th Avenue,80226,39.7239307,-105.0543646
5222,West 5th Avenue,80226,39.7239309,-105.0543137
5208,West 5th Avenue,80226,39.7239513,-105.0539316
5210,West 5th Avenue,80226,39.7239465,-105.0541080
5775,West 2nd Avenue,80226,39.7201048,-105.0601286
5785,West 2nd Avenue,80226,39.7200960,-105.0602849
5765,West 2nd Avenue,80226,39.7202495,-105.0600077
5755,West 2nd Avenue,80226,39.7202406,-105.0598686
5745,West 2nd Avenue,80226,39.7202470,-105.0596480
5735,West 2nd Avenue,80226,39.7202495,-105.0594950
5572,West 3rd Avenue,80226,39.7204844,-105.0585984
5562,West 3rd Avenue,80226,39.7206208,-105.0585976
5542,West 3rd Avenue,80226,39.7208529,-105.0585946
5532,West 3rd Avenue,80226,39.7208534,-105.0584134
5757,West 1st Avenue,80226,39.7187561,-105.0601956
5767,West 1st Avenue,80226,39.7187387,-105.0600597
139,Eaton Court,80226,39.7189020,-105.0599363
129,Eaton Court,80226,39.7189847,-105.0599349
159,Eaton Court,80226,39.7191699,-105.0601271
149,Eaton Court,80226,39.7192406,-105.0601376
179,Eaton Court,80226,39.7194055,-105.0598799
169,Eaton Court,80226,39.7194095,-105.0597356
178,Eaton Court,80226,39.7193749,-105.0594708
168,Eaton Court,80226,39.7193292,-105.0593729
158,Eaton Court,80226,39.7191329,-105.0593833
148,Eaton Court,80226,39.7190339,-105.0593768
138,Eaton Court,80226,39.7188607,-105.0594083
128,Eaton Court,80226,39.7187524,-105.0593954
5901,West 1st Avenue,80226,39.7188313,-105.0614182
5786,West 2nd Avenue,80226,39.7196829,-105.0602379
5776,West 2nd Avenue,80226,39.7196822,-105.0600424
5746,West 2nd Avenue,80226,39.7197066,-105.0596762
5756,West 2nd Avenue,80226,39.7197098,-105.0598510
5716,West 2nd Avenue,80226,39.7197186,-105.0592829
5726,West 2nd Avenue,80226,39.7197149,-105.0594714
322,Gray Street,80226,39.7216095,-105.0615519
5822,West 4th Avenue,80226,39.7228829,-105.0605370
5820,West 4th Avenue,80226,39.7228649,-105.0604187
5860,West 4th Avenue,80226,39.7226625,-105.0607863
5862,West 4th Avenue,80226,39.7225618,-105.0607850
5870,West 3rd Place,80226,39.7221711,-105.0608077
5860,West 3rd Place,80226,39.7220077,-105.0608013
5830,West 3rd Place,80226,39.7218608,-105.0606004
5820,West 3rd Place,80226,39.7218563,-105.0604290
5770,West 3rd Place,80226,39.7219033,-105.0602186
5760,West 3rd Place,80226,39.7219074,-105.0600417
5730,West 3rd Place,80226,39.7219816,-105.0598241
5720,West 3rd Place,80226,39.7219833,-105.0596908
5670,West 3rd Place,80226,39.7219639,-105.0595063
5660,West 3rd Place,80226,39.7219682,-105.0593406
345,Depew Street,80226,39.7218354,-105.0590509
347,Depew Street,80226,39.7219782,-105.0590546
5827,West 3rd Place,80226,39.7223869,-105.0601997
5825,West 3rd Place,80226,39.7223863,-105.0600642
5672,West 4th Avenue,80226,39.7229057,-105.0594764
5662,West 4th Avenue,80226,39.7229027,-105.0592967
5675,West 3rd Place,80226,39.7223461,-105.0594533
5665,West 3rd Place,80226,39.7223536,-105.0593140
355,Depew Street,80226,39.7223487,-105.0590593
357,Depew Street,80226,39.7225025,-105.0590505
375,Depew Street,80226,39.7227385,-105.0590612
377,Depew Street,80226,39.7228943,-105.0590499
5775,West 4th Avenue,80226,39.7233286,-105.0602025
5765,West 4th Avenue,80226,39.7233355,-105.0600223
425,Eaton Place,80226,39.7233116,-105.0597660
435,Eaton Place,80226,39.7234769,-105.0597664
420,Eaton Place,80226,39.7233037,-105.0592645
430,Eaton Place,80226,39.7234491,-105.0592616
5651,West 4th Avenue,80226,39.7233182,-105.0586563
5641,West 4th Avenue,80226,39.7233259,-105.0584805
5621,West 4th Avenue,80226,39.7233233,-105.0583045
5611,West 4th Avenue,80226,39.7233282,-105.0581113
334,Ingalls Street,80226,39.7221162,-105.0636487
336,Ingalls Street,80226,39.7220296,-105.0636445
319,Harlan Street,80226,39.7213511,-105.0630782
321,Harlan Street,80226,39.7214631,-105.0630724
335,Ingalls Street,80226,39.7220769,-105.0641768
333,Ingalls Street,80226,39.7219797,-105.0641785
329,Ingalls Street,80226,39.7218166,-105.0641736
327,Ingalls Street,80226,39.7216649,-105.0641608
289,Ingalls Street,80226,39.7211813,-105.0641662
287,Ingalls Street,80226,39.7210513,-105.0641749
317,Ingalls Street,80226,39.7213882,-105.0641579
319,Ingalls Street,80226,39.7215142,-105.0641673
247,Ingalls Street,80226,39.7204965,-105.0641697
257,Ingalls Street,80226,39.7206001,-105.0641698
267,Ingalls Street,80226,39.7207361,-105.0641676
277,Ingalls Street,80226,39.7209116,-105.0641736
309,Harlan Street,80226,39.7211885,-105.0634711
307,Harlan Street,80226,39.7211981,-105.0633902
314,Ingalls Street,80226,39.7211722,-105.0637279
312,Ingalls Street,80226,39.7209832,-105.0636795
303,Harlan Street,80226,39.7210494,-105.0630513
301,Harlan Street,80226,39.7209878,-105.0629859
170,Newland Street,80226,39.7198473,-105.0695374
180,Newland Street,80226,39.7200080,-105.0695358
175,Marshall Street,80226,39.7198385,-105.0689524
177,Marshall Street,80226,39.7199790,-105.0689692
185,Lamar Street,80226,39.7199301,-105.0677213
187,Lamar Street,80226,39.7199318,-105.0678970
195,Lamar Street,80226,39.7201462,-105.0677071
197,Lamar Street,80226,39.7201469,-105.0678919
215,Saulsbury Street,80226,39.7209319,-105.0759750
217,Saulsbury Street,80226,39.7210279,-105.0759527
367,Upham Street,80226,39.7223139,-105.0784345
361,Upham Street,80226,39.7223134,-105.0782962
371,Upham Street,80226,39.7225151,-105.0785427
377,Upham Street,80226,39.7225799,-105.0784329
381,Upham Street,80226,39.7227969,-105.0785710
387,Upham Street,80226,39.7229069,-105.0785208
388,Vance Street,80226,39.7229626,-105.0789502
382,Vance Street,80226,39.7228459,-105.0789490
378,Vance Street,80226,39.7226810,-105.0789324
372,Vance Street,80226,39.7225643,-105.0789317
368,Vance Street,80226,39.7224015,-105.0789762
362,Vance Street,80226,39.7222947,-105.0789768
360,Upham Street,80226,39.7223045,-105.0777986
366,Upham Street,80226,39.7223136,-105.0776480
370,Upham Street,80226,39.7225527,-105.0775966
376,Upham Street,80226,39.7226066,-105.0777159
390,Upham Street,80226,39.7228736,-105.0776886
396,Upham Street,80226,39.7229112,-105.0778179
397,Upham Street,80226,39.7228942,-105.0780814
391,Upham Street,80226,39.7228738,-105.0782302
386,Upham Street,80226,39.7228729,-105.0774007
380,Upham Street,80226,39.7227974,-105.0773762
340,Upham Street,80226,39.7214271,-105.0776693
330,Upham Street,80226,39.7213790,-105.0777643
7385,West 3rd Avenue,80226,39.7214007,-105.0789029
7375,West 3rd Avenue,80226,39.7214088,-105.0787066
7325,West 3rd Avenue,80226,39.7213929,-105.0784488
7315,West 3rd Avenue,80226,39.7213572,-105.0783327
5395,S Wadsworth Blvd,80123,39.6185188,-105.0925076
2601,South Lewis Way,80227,39.6688249,-105.1123665
2599,South Lewis Way,80227,39.6685010,-105.1130328
2589,South Lewis Way,80227,39.6695189,-105.1138284
10001,Morrison Road,80227,39.6693549,-105.1102927
2641,South Estes Street,80227,39.6686947,-105.0956877
3457,South Wadsworth Boulevard,80227,39.6542218,-105.0820173
3355,South Wadsworth Boulevard,80227,39.6552824,-105.0818307
3225,S Wadsworth Blvd,80227,39.6578075,-105.0834842
15600,West Morrison Road,80228,39.6514608,-105.1561023
9767,West Morrison Road,80227,39.6708596,-105.1030940
440,South Teller Street,80226,39.7083736,-105.0763076
7111,West Alaska Drive,80226,39.7094616,-105.0754000
7313,West Alaska Drive,80226,39.7097289,-105.0783338
444,South Wadsworth Boulevard,80226,39.7087274,-105.0806034
915,South Kipling Parkway,80226,39.7000151,-105.1111009
945,South Kipling Parkway,80226,39.6986196,-105.1117105
5250,South Wadsworth Boulevard,80123,39.6203014,-105.0905006
5258,South Wadsworth Boulevard,80123,39.6214967,-105.0882689
12035,West Alameda Parkway,80228,39.7102780,-105.1350204
12043,West Alameda Parkway,80228,39.7087470,-105.1373146
1998,South Kipling Parkway,80227-2079,39.6809538,-105.1193289
9200,West Alameda Avenue,80226,39.7104361,-105.1007769
10798,West Jewell Avenue,80232,39.6817813,-105.1176130
3170,South Wadsworth Boulevard,80227,39.6607646,-105.0809559
3150,South Wadsworth Boulevard,80227,39.6602566,-105.0791507
3234,S Wadsworth Blvd,80227,39.6575536,-105.0799286
5066,South Wadsworth Boulevard,80123,39.6256893,-105.0892291
7807,West Jewell Avenue,80232,39.6826101,-105.0851401
7637,West Jewell,80232,39.6825830,-105.0826645
1888,South Wadsworth Boulevard,80226,39.6832146,-105.0808085
1852,South Wadsworth Boulevard,80232,39.6841235,-105.0789082
7740,West Alameda Avenue,80226,39.7105966,-105.0826737
470,South Allison Parkway,80226,39.7085839,-105.0853694
489,South Wadsworth Boulevard,80226,39.7073285,-105.0834597
475,South Wadsworth,80226,39.7075868,-105.0835249
441,South Wadsworth Boulevard,80226-3110,39.7079408,-105.0835762
497,South Wadsworth,80226,39.7074072,-105.0820288
7260,West Jefferson,80235,39.6493225,-105.0794013
14255,West Colfax Avenue,80401,39.7341582,-105.1599185
14387,West Colfax Avenue,80401,39.7359907,-105.1621191
14255,West Colfax Avenue,80401,39.7348732,-105.1608131
1725,South Wright Street,80228,39.6860133,-105.1395706
857,South Van Gordon Court,80228,39.7011089,-105.1369531
12053,South Urban Street,80228,39.7097457,-105.1359887
305,South Union Boulevard,80228,39.7113004,-105.1353275
305,South Union Boulevard,80228,39.7109590,-105.1336323
305,South Union Boulevard,80228,39.7111364,-105.1345228
100,South Union Boulevard,80228,39.7143043,-105.1329446
65,South Union Boulevard,80228,39.7143363,-105.1338450
45,Union Boulevard,80228,39.7152854,-105.1338410
195,South Union Boulevard,80228,39.7124024,-105.1341869
12105,West Cedar Drive,80228,39.7126108,-105.1358029
12795,West Alameda Parkway,80228-2838,39.7008126,-105.1425554
12840,West Alameda Parkway,80228,39.6999796,-105.1413969
12810,West Alameda Parkway,80228,39.7008535,-105.1405132
12410,West Alameda Parkway,80228,39.7032811,-105.1380707
12408,West Alameda Parkway,80228,39.7037678,-105.1380422
12299,West Center Avenue,80228,39.7049176,-105.1356693
12180,West Alameda Parkway,80228,39.7054913,-105.1360879
12120,West Alameda Parkway,80228,39.7059240,-105.1359033
12190,West Alameda Parkway,80228,39.7051546,-105.1364498
12340,West Alameda Parkway,80228,39.7046153,-105.1370142
355,Union Boulevard,80228,39.7215227,-105.1336618
360,Union Boulevard,80228,39.7216576,-105.1313555
21,Van Gordon Street,80228,39.7214125,-105.1357152
12155,West Alameda Parkway,80228,39.7070358,-105.1371266
14277,West Colfax Avenue,80401,39.7341244,-105.1625717
1400,Denver West Boulevard,80401,39.7374033,-105.1542704
1350,Colorado Mills Parkway,80401,39.7357925,-105.1537636
14825,West Colfax Avenue,80401,39.7324234,-105.1663628
15059,West Colfax Avenue,80401,39.7323181,-105.1672217
13922,Denver West Parkway,80401,39.7448507,-105.1543882
490,Wadsworth Boulevard,80226,39.7236397,-105.0810688
7576,West 5th Avenue,80226,39.7235925,-105.0806974
7655,West 10th Avenue,80214,39.7338998,-105.0833253
7655,West 10th Avenue,80214,39.7334992,-105.0837018
14143,Denver West Parkway,80401,39.7427454,-105.1592907
13615,West Wesley Avenue,80228,39.6736581,-105.1528479
245,South Wadsworth Boulevard,80226-1517,39.7118691,-105.0819743
7700,West Virginia Avenue,80226,39.7067667,-105.0827266
777,South Wadsworth Boulevard,80226,39.7041775,-105.0825366
670,South Wadsworth Boulevard,80226,39.7042827,-105.0804012
777,South Wadsworth Boulevard,80226,39.7041136,-105.0830841
460,South Vance Street,80226-3305,39.7077666,-105.0789642
96,South Wadsworth Boulevard;Wadsworth Boulevard,80226,39.7181592,-105.0810289
88,South Wadsworth Boulevard;Wadsworth Boulevard,80226,39.7154802,-105.0810111
160,South Wadsworth Boulevard;Wadsworth Boulevard,80226,39.7197932,-105.0802164
55,Wadsworth Boulevard,80226,39.7177078,-105.0818969
200,South Wadsworth Boulevard;Wadsworth Boulevard,80226,39.7197980,-105.0809737
92,South Wadsworth Boulevard;Wadsworth Boulevard,80226,39.7164118,-105.0810133
15,Wadsworth Boulevard,80226,39.7168913,-105.0819082
85,Wadsworth Boulevard,80226,39.7179347,-105.0819966
98,Wadsworth Boulevard,80226,39.7170007,-105.0799830
90,South Wadsworth Boulevard,80226,39.7151855,-105.0808676
120,South Wadsworth Boulevard;Wadsworth Boulevard,80226,39.7192747,-105.0810748
94,South Wadsworth Boulevard;Wadsworth Boulevard,80226,39.7173511,-105.0810012
150,South Wadsworth Boulevard;Wadsworth Boulevard,80226,39.7196213,-105.0810556
25,Wadsworth Boulevard,80226,39.7171591,-105.0819064
440,South Wadsworth Boulevard,80226,39.7222837,-105.0803614
7456,West 5th Avenue,80226,39.7234675,-105.0796142
1275,South Teller Street,80226,39.7154276,-105.0758963
7301,West Alameda Avenue,80226,39.7116536,-105.0786146
2601,South Lewis Way,80227,39.6687156,-105.1125478
2601,South Lewis Way,80227,39.6685985,-105.1122560
9987,Morrison Road,80227,39.6694244,-105.1091567
9300,West Dartmouth Avenue,80227,39.6592802,-105.1009860
2589,South Lewis Way,80227,39.6694267,-105.1137466
2859,South Lewis Way,80227,39.6693257,-105.1136772
9800,West Dartmouth Place,80227,39.6585412,-105.1088868
10117,West Dartmouth Place,80227,39.6613767,-105.1157765
810,South Wadsworth Boulevard,80226,39.7033641,-105.0809152
13164,West Ohio Avenue,80226,39.7019997,-105.1462813
2000,S Kipling Pkwy,80227,39.6801880,-105.1191760
2010,South Oak Street,80227,39.6813614,-105.1177216
9101,West Jewell Avenue,80232-6447,39.6825494,-105.0992756
1234,South Wadsworth Boulevard,80226,39.6945641,-105.0811948
8690,West Jewell Avenue,80227,39.6818982,-105.0942812
341,Wright Street,80228,39.7214222,-105.1424747
15000,West Colfax Avenue,80401,39.7301803,-105.1675374
801,Indiana Street,80401,39.7292225,-105.1671800
15065,West Colfax Avenue,80401-4015,39.7318654,-105.1683784
6901,West Alameda Avenue,80226,39.7115264,-105.0730803
6701,West Alameda Avenue,80226,39.7120146,-105.0700696
6995,West Alameda Avenue,80226,39.7115374,-105.0741635
7198,West Cedar Avenue,80226,39.7127429,-105.0765808
6990,West Cedar Avenue,80226,39.7125654,-105.0741027
220,South Teller Street,80226,39.7123538,-105.0765014
7160,West Cedar Avenue,80226,39.7127368,-105.0762253
259,South Teller Street,80226,39.7122366,-105.0783571
6803,West Alameda Avenue,80226,39.7123823,-105.0726901
7030,West Cedar Avenue,80226,39.7127567,-105.0751035
7050,West Cedar Avenue,80226,39.7125552,-105.0752761
6980,West Cedar Avenue,80226,39.7125678,-105.0734759
7010,West Cedar Avenue,80226,39.7127556,-105.0747646
7098,West Cedar Avenue,80226,39.7125823,-105.0758450
6925,West Alameda Avenue,80226,39.7115027,-105.0735835
6801,West Alameda Avenue;West Alameda,80226,39.7115006,-105.0726423
7111,West Alameda Avenue,80226,39.7120617,-105.0753160
7390,West Hampden Avenue,80227,39.6515051,-105.0791110
3500,South Wadsworth Boulevard,80235,39.6514338,-105.0806566
7220,West Jefferson Avenue,80235,39.6494309,-105.0775991
7190,West Hampden Avenue,80227,39.6522192,-105.0755736
3605,South Wadsworth Boulevard,80235,39.6487304,-105.0824343
5375,South Wadsworth Boulevard,80123,39.6204502,-105.0922791
5395,South Wadsworth Boulevard,80123,39.6197072,-105.0922915
6791,West Colfax Avenue,80214-1833,39.7413141,-105.0714828
6441,West Colfax Avenue,80214-1801,39.7407435,-105.0664856
6435,West Colfax Avenue,80214-1801,39.7407800,-105.0678401
6715,West Colfax Avenue,80214-1833,39.7419846,-105.0710258
6615,West Colfax Avenue,80214-1805,39.7420028,-105.0694406
6579,West Colfax Avenue,80214-1803,39.7418129,-105.0681283
6599,West Colfax Avenue,80214-1803,39.7406911,-105.0692919
6796,West Colfax Avenue,80214,39.7398746,-105.0714987
6700,West Colfax Avenue,80214,39.7398575,-105.0710609
6575,West Colfax Avenue,80214-1803,39.7418855,-105.0675648
6501,West Colfax Avenue,80214,39.7408702,-105.0683868
6792,West 19th Place,80214,39.7454971,-105.0706218
6900,West Jefferson Avenue,80235,39.6500427,-105.0733670
6950,West Jefferson Avenue,80235,39.6492945,-105.0733953
5155,South Wadsworth Boulevard,80123,39.6231210,-105.0922583
11171,West Exposition Drive,80226,39.7031726,-105.1231591
2005,Moore Street,80215,39.7476791,-105.1162820
11611,West Colfax Avenue,80215,39.7406204,-105.1287362
11701,West Colfax Avenue,80215,39.7405280,-105.1299295
11911,West Colfax Avenue,80215,39.7404576,-105.1322057
6150,West 13th Avenue,80214,39.7363296,-105.0646255
1700,Wadsworth Boulevard,80214,39.7441716,-105.0809277
1692,Wadsworth Boulevard,80214,39.7435420,-105.0810252
50,South Kipling Street,80226,39.7172171,-105.1071489
384,South Wadsworth Boulevard,80226,39.7096567,-105.0809353
290,South Pierce Street,80226,39.7114165,-105.0719011
200,South Harlan Street,80226,39.7116363,-105.0623781
860,Tabor Street,80401,39.7313070,-105.1289524
896,Tabor Street,80401,39.7320034,-105.1289533
5800,West 6th Avenue Frontage Road,80214,39.7250504,-105.0606565
5788,West 6th Avenue,80214,39.7251976,-105.0584119
5788,West 6th Avenue,80214,39.7249291,-105.0591806
5420,West 6th Avenue;West 6th Avenue Frontage Road,80214,39.7248247,-105.0563188
495,Sheridan Boulevard,80226,39.7236423,-105.0536719
505,Sheridan Boulevard,80226,39.7244250,-105.0541212
5220,West 5th Avenue,80226,39.7239035,-105.0544893
11805,West Colfax Avenue,80215,39.7405755,-105.1308780
11795,West Colfax Avenue,80215,39.7406536,-105.1302587
14730,West Colfax Avenue,80401,39.7302651,-105.1649854
14760,West Colfax Avenue,80401,39.7315112,-105.1650237
14770,West Colfax Avenue,80401,39.7318469,-105.1647757
722,Kipling Street,80215,39.7285738,-105.1094258
9900,West 9th Avenue,80215,39.7308585,-105.1086131
830,Kipling Street,80215,39.7299289,-105.1090552
720,Kipling Street,80215,39.7282097,-105.1091522
722,Kipling Street,80215,39.7285708,-105.1092285
800,Kipling Street,80215,39.7295558,-105.1093525
920,Kipling Street,80215,39.7316294,-105.1089505
700,Kipling Street,80215,39.7268357,-105.1074143
710,Kipling Street,80215,39.7273663,-105.1088944
690,Kipling Street,80215,39.7261610,-105.1071698
5201,West Colfax Avenue,80214,39.7407533,-105.0536330
1345,Wadsworth Boulevard,80214,39.7376454,-105.0817896
1301,Wadsworth Boulevard,80214,39.7369349,-105.0820273
890,Wadsworth Boulevard,80214,39.7310045,-105.0810418
940,Wadsworth Boulevard,80214,39.7317156,-105.0810267
801,Wadsworth Boulevard,80214,39.7289882,-105.0821663
830,Wadsworth Boulevard,80214,39.7297398,-105.0810258
785,Wadsworth Boulevard,80214,39.7296252,-105.0825540
840,Wadsworth Boulevard,80214,39.7299750,-105.0810811
950,Wadsworth Boulevard,80214,39.7322382,-105.0810009
1200,Wadsworth Boulevard,80214,39.7349504,-105.0809827
815,Wadsworth Boulevard,80214,39.7300702,-105.0819510
1208,Wadsworth Boulevard,80214,39.7354366,-105.0810445
7490,West Colfax Avenue,80214,39.7397912,-105.0797088
7455,West Colfax Avenue,80214,39.7422379,-105.0803752
7355,West Colfax Avenue,80214,39.7405669,-105.0782650
7205,West Colfax Avenue,80214,39.7405610,-105.0770866
7455,West Colfax Avenue,80214,39.7427200,-105.0794212
7475,West Colfax Avenue,80214,39.7405809,-105.0796014
1350,Wadsworth Boulevard,80214,39.7375673,-105.0806941
1325,Vance Street,80214,39.7371601,-105.0795996
7400,West 14th Avenue,80214,39.7381970,-105.0796226
7200,West Colfax Avenue,80214,39.7392816,-105.0778435
1410,Vance Street,80214,39.7388687,-105.0785939
1420,Vance Street,80214,39.7393381,-105.0786453
7515,West 17th Avenue,80214,39.7441422,-105.0804643
1509,Wadsworth Boulevard,80214,39.7407648,-105.0817781
7611,West Colfax Avenue,80214,39.7405714,-105.0821178
1571,Wadsworth Boulevard,80214,39.7416922,-105.0818158
7700,West 14th Avenue,80214,39.7382560,-105.0828878
1220,Wadsworth Boulevard,80214,39.7357083,-105.0804969
6680,West Colfax Avenue,80214,39.7399605,-105.0704276
6630,West Colfax Avenue,80214,39.7400150,-105.0700350
6560,West Colfax Avenue,80214,39.7400538,-105.0692926
7004-7024,West Colfax Avenue,80214,39.7399881,-105.0751365
1475,Reed Street,80214,39.7393092,-105.0746769
7000,West Colfax Avenue,80214,39.7397538,-105.0747524
1990,Youngfield Street,80215,39.7470014,-105.1418777
100,South Wadsworth Boulevard;Wadsworth Boulevard,80226,39.7187758,-105.0811829
99,Wadsworth Boulevard,80226,39.7181684,-105.0819329
6610,West 14th Avenue,80214,39.7381220,-105.0700104
1204-1220,Pierce Street,80214,39.7351785,-105.0711100
1200-1202,Pierce Street,80214,39.7349928,-105.0716178
1160,Pierce Street,80214,39.7344768,-105.0713224
1450,Kendall Street,80214,39.7392811,-105.0657260
1325,Jay Street,80214,39.7371054,-105.0655929
6300,West Colfax Avenue,80214,39.7398687,-105.0667279
1440,Kendall Street,80214,39.7390128,-105.0657303
1325,Jay Street,80214,39.7374749,-105.0656130
1325,Jay Street,80214,39.7373578,-105.0652666
1325,Jay Street,80214,39.7372790,-105.0659287
1425,Kendall Street,80214,39.7388034,-105.0664627
6218,West Colfax Avenue,80214,39.7399830,-105.0656668
1340,Marshall Street,80214,39.7375014,-105.0681120
1325,Jay Street,80214,39.7376537,-105.0651843
6550,West 14th Avenue,80214,39.7377693,-105.0693417
6605,West 13th Avenue,80214,39.7370634,-105.0698526
1325,Jay Street,80214,39.7374134,-105.0651462
1325,Jay Street,80214,39.7370862,-105.0653589
6615,West 13th Avenue,80214,39.7373657,-105.0697821
6607,West 13th Avenue,80214,39.7373640,-105.0700698
1325,Jay Street,80214,39.7368662,-105.0653750
1325,Jay Street,80214,39.7372977,-105.0656448
1430,Kendall Street,80214,39.7387795,-105.0656765
1325,Jay Street,80214,39.7374999,-105.0651861
6799,West 13th Avenue,80214,39.7368871,-105.0717135
7240,West 12th Avenue,80214,39.7343743,-105.0771228
1100,Upham Street,80214,39.7336674,-105.0778517
5995,West 6th Avenue Frontage Road,80214,39.7260749,-105.0623904
5563,West 6th Avenue Frontage Road,80214,39.7263638,-105.0572088
627,Sheridan Boulevard,80214,39.7269443,-105.0541221
5351,West 6th Avenue Frontage Road,80214,39.7265292,-105.0558865
5255,West 9th Avenue,80214,39.7318068,-105.0548390
7101,West 1st Avenue,80226,39.7193327,-105.0740206
6795,West 1st Avenue,80226,39.7186648,-105.0719897
25,South Newland Street,80226,39.7159789,-105.0702539
6375,West 1st Avenue,80226,39.7187782,-105.0671101
6000,West 1st Avenue,80226,39.7182009,-105.0631434
6010,West 1st Avenue,80226,39.7183215,-105.0633486
5925,West 1st Avenue,80226,39.7188509,-105.0617563
207,Ingalls Street,80226,39.7200302,-105.0642016
6095,West 1st Avenue,80226,39.7189290,-105.0636605
5989,West 1st Avenue,80226,39.7189162,-105.0623238
6085,West 1st Avenue,80226,39.7189521,-105.0634836
85,Harlan Street,80226,39.7180425,-105.0631628
169,Harlan Street,80226,39.7191832,-105.0629881
105,Harlan Street,80226,39.7187833,-105.0631133
115,Ingalls Street,80226,39.7190539,-105.0645140
120,Jay Street,80226,39.7190320,-105.0646960
196,Ingalls Street,80226,39.7198603,-105.0635092
186,Ingalls Street,80226,39.7196663,-105.0635122
200,South Harlan Street,80226,39.7121501,-105.0617156
5801,West Alameda Avenue,80226,39.7116175,-105.0607367
150,South Harlan Street,80226,39.7142027,-105.0619765
5755,West Alameda Avenue,80226,39.7117209,-105.0597646
265,South Harlan Street,80226,39.7119423,-105.0630135
245,South Harlan Street,80226,39.7124784,-105.0631154
6001,West Alameda Avenue,80226,39.7116347,-105.0630779
5301,West 1st Avenue,80226,39.7192899,-105.0550488
5405,West 1st Avenue,80226,39.7188950,-105.0560343
185,Sheridan Boulevard,80226,39.7199583,-105.0537825
95,West 1st Avenue,80226,39.7183510,-105.0536618
5275,West 1st Avenue,80226,39.7192016,-105.0543598
95,Sheridan Boulevard,80226,39.7181023,-105.0537667
5220,West 3rd Avenue,80226,39.7207014,-105.0539138
207,Sheridan Boulevard,80226,39.7204755,-105.0538166
5250,West 1st Avenue,80226,39.7181747,-105.0541200
65,Sheridan Boulevard,80226,39.7177527,-105.0537058
6905,West Ellsworth Avenue,80226,39.7166929,-105.0733731
10,Reed Street,80226,39.7168296,-105.0737265
230,South Holland Street,80226,39.7121465,-105.1025894
9398,West Cedar Avenue,80226,39.7124776,-105.1026485
9305,West Cedar Avenue,80226,39.7130856,-105.1019275
9393,West Alameda Avenue,80226,39.7117472,-105.1025688
9483,West Alameda Avenue,80226,39.7117089,-105.1032697
207,South Garland Street,80226,39.7126385,-105.1021307
9483,West Alameda Avenue,80226,39.7116656,-105.1036551
480,South Kipling Street,80226,39.7076656,-105.1087447
460,South Kipling Street,80226,39.7087570,-105.1088004
9405,West Florida Avenue,80232,39.6904321,-105.1039320
1350,South Hoyt Street,80232,39.6921454,-105.1036979
565,South Vance Street,80226,39.7067830,-105.0801997
10101,West Mississippi Avenue,80226,39.6970871,-105.1108849
935,South Kipling Parkway,80226,39.6997975,-105.1108812
1020,South Flower Street,80226,39.6978188,-105.0987435
9075,West Alameda Avenue,80226,39.7121118,-105.0967780
9077,West Alameda Avenue,80226,39.7117476,-105.0974602
9077,West Alameda Avenue,80226,39.7121070,-105.0979703
180,South Garrison Street,80226,39.7129471,-105.0950799
13175,West Green Mountain Drive,8028,39.6934133,-105.1451037
1311,Oak Street,80215,39.7374188,-105.1200454
1068,Quail Street,80215,39.7325439,-105.1234139
938,Quail Street,80215,39.7318499,-105.1227466
10901,West 20th Avenue,80215,39.7477236,-105.1211915
10530,West 20th Avenue,80215,39.7467074,-105.1157633
1985,Miller Street,80215,39.7468451,-105.1149012
1855,South Wright Street,80228,39.6843710,-105.1387335
13175,West Green Mountain Drive,80228,39.6946875,-105.1447558
12017,West Alameda Parkway,80228,39.7091759,-105.1347035
13155,West Alameda Parkway,80228,39.6960224,-105.1469251
137,South Union Boulevard,80228,39.7149850,-105.1350638
50,Van Gordon Street,80228,39.7165463,-105.1360492
7310,West Alaska Drive,80226,39.7089984,-105.0788465
3900,South Wadsworth Boulevard,80235,39.6454512,-105.0801946
6695,West Colfax Avenue,80214-1825,39.7419594,-105.0704084
1700,Pierce Street,80214,39.7443585,-105.0715885
10555,West Colfax Avenue,80215,39.7430620,-105.1159085
7777,West Jewell Avenue,80232,39.6839442,-105.0841121
9195,West 6th Avenue,80215,39.7262202,-105.0983439
9197,West 6th Avenue,80215,39.7268004,-105.0983523
608,Garrison Street,80215,39.7264659,-105.0994928
610,Garrison Street,80215,39.7268208,-105.0994687
400,Independence Street,80226,39.7234667,-105.1060944
500,Kipling Street,80226,39.7227298,-105.1081745
200,Kipling Street,80226,39.7183294,-105.1082835
100,South Kipling Street,80226,39.7158804,-105.1084914
1135,S Union BLVD,80226,39.6962564,-105.1298023
620,Miller Court,80215,39.7264754,-105.1145476
10383,West 6th Avenue,80215,39.7261432,-105.1146030
10301,West 6th Avenue,80215,39.7262300,-105.1135050
13881,West Alaska Place,80228,39.7082341,-105.1552368
13131,West Cedar Drive,80228,39.7116270,-105.1471566
7301,West Ohio Avenue,80226,39.7034857,-105.0764406
679,South Reed Court,80226,39.7046976,-105.0752673
816,South Vance Street,80226,39.7034148,-105.0783459
679,South Reed Court,80226,39.7048136,-105.0752274
679,South Reed Court,80226,39.7041258,-105.0755031
700,South Reed Court,80226,39.7033335,-105.0732972
14195,West Colfax Avenue,80401,39.7359766,-105.1593511
14707,West Colfax Avenue,80401,39.7333351,-105.1641679
7180,West Hampden Avenue,80227,39.6520993,-105.0744115
7050,West Hampden Avenue,80227,39.6511930,-105.0731880
7655,West 10th Avenue,80214,39.7342234,-105.0848931
7832,West Oxford Circle,80235,39.6436014,-105.0858060
9150,West Cornell Place,80227,39.6611662,-105.1003133
11500,West Hampden Avenue,80227,39.6522330,-105.1260528
11500,West Hampden Avenue,80227,39.6498608,-105.1285060
701,South Rooney Road,80465,39.7019217,-105.1962262
701,South Rooney Road,80465,39.6998054,-105.1967811
695,South Rooney Road,80465,39.7027052,-105.1980931
1047,Ingalls Street,80214,39.7338118,-105.0641105
1027,Ingalls Street,80214,39.7334194,-105.0641191
6080,West Vassar Way,80227,39.6690420,-105.0623465
75,Harlan Street,80226,39.7177872,-105.0630197
65,Harlan Street,80226,39.7175591,-105.0630472
6500,West 13th Avenue,80214,39.7360962,-105.0690003
5505,West Colfax Avenue,80214,39.7407410,-105.0571739
5495,West Colfax Avenue,80214,39.7408511,-105.0563296
1572,Chase Street,80214,39.7414760,-105.0564735
1568,Chase Street,80214,39.7413646,-105.0565118
1562,Chase Street,80214,39.7412510,-105.0565047
1558,Chase Street,80214,39.7411357,-105.0564655
1578,Chase Street,80214,39.7415912,-105.0565456
1582,Chase Street,80214,39.7417096,-105.0564832
1588,Chase Street,80214,39.7418215,-105.0565272
1592,Chase Street,80214,39.7419338,-105.0565178
1598,Chase Street,80214,39.7420419,-105.0564672
1599,Benton Street,80214,39.7420413,-105.0558784
1595,Benton Street,80214,39.7419362,-105.0558376
1555,Benton Street,80214,39.7410827,-105.0558453
1559,Benton Street,80214,39.7411911,-105.0558235
1565,Benton Street,80214,39.7412946,-105.0558879
1569,Benton Street,80214,39.7414024,-105.0558266
1575,Benton Street,80214,39.7415111,-105.0558234
1579,Benton Street,80214,39.7416164,-105.0558354
1585,Benton Street,80214,39.7417255,-105.0558132
1595,Benton Street,80214,39.7418336,-105.0558196
5353,West Colfax Avenue,80214,39.7406633,-105.0553330
5301,West Colfax Avenue,80214,39.7406766,-105.0546968
1910,Denver West Drive,80401,39.7426246,-105.1638567
10625,West Colfax Avenue,80215,39.7408394,-105.1183949
2300,Urban Street,80215,39.7515149,-105.1324977
3290,South Newcombe Street,80227,39.6577753,-105.1173119
165,South Sheridan Boulevard,80226,39.7135113,-105.0537036
12759,West Nevada Place,80228,39.6999967,-105.1399487
11040,West Colfax Avenue,80215,39.7398202,-105.1106426
6205,West Colfax Avenue,80214,39.7405705,-105.0654613
6173,West Colfax Avenue,80214,39.7406402,-105.0645257
6111,West Colfax Avenue,80214,39.7406947,-105.0642357
2301,Wadsworth Boulevard,80204,39.7514523,-105.0823972
13922,West Utah Avenue,80228,39.6845838,-105.1536227
10101,West Mississippi Avenue,80226,39.6973399,-105.1109346
13139,West Alameda Parkway,80228,39.6971860,-105.1458572
12027,West Alameda Parkway,80228,39.7094211,-105.1353675
5717,West 11th Avenue,80214,39.7355873,-105.0597695
5715,West 11th Avenue,80214,39.7352102,-105.0595917
5885,West 11th Avenue,80214,39.7350811,-105.0613422
1160,Van Gordon Street,80401,39.7339739,-105.1347890
1166,Urban Street,80401,39.7341058,-105.1347050
1170,Urban Street,80401,39.7342454,-105.1346212
1200,Urban Street,80401,39.7343783,-105.1344414
1186,Urban Street,80401,39.7344943,-105.1341061
1210,Urban Street,80401,39.7347311,-105.1337031
1190,Urban Street,80401,39.7346450,-105.1338980
1220,Van Gordon Street,80401,39.7345997,-105.1348806
1201,Urban Street,80401,39.7349829,-105.1342058
15250,West Evans Avenue,80228,39.6777887,-105.1714854
1690,Upham Street,80214,39.7438010,-105.0775430
1710,Upham Street,80214,39.7441006,-105.0776000
1760,Upham Street,80214,39.7443971,-105.0775992
1830,Upham Street,80214,39.7447013,-105.0776160
1675,Upham Street,80214,39.7435040,-105.0782593
1685,Upham Street,80214,39.7438206,-105.0782569
1735,Upham Street,80214,39.7440439,-105.0781690
1825,Upham Street,80214,39.7447103,-105.0781608
1851,Upham Street,80214,39.7449527,-105.0781777
1690,Vance Street,80214,39.7438066,-105.0788203
1660,Vance Street,80214,39.7436420,-105.0788194
1650,Vance Street,80214,39.7434798,-105.0788199
1651,Vance Street,80214,39.7434771,-105.0794069
1675,Vance Street,80214,39.7437683,-105.0794082
1665,Vance Street,80214,39.7436117,-105.0794088
11500,West Security Avenue,80215,39.7371827,-105.1270923
1404,Quail Street,80215,39.7386001,-105.1223869
1897,South Wadsworth Boulevard,80232,39.6825375,-105.0817895
2200,Youngfield Street,80215,39.7506714,-105.1420994
1205,Benton Street,80204,39.7355184,-105.0559027
1301,Harlan Street,80214,39.7369321,-105.0631204
610,Coors Street,80215,39.7263042,-105.1521139
895,Tabor Street,80401,39.7308534,-105.1303942
11909,West 6th Avenue Frontage Road,80401,39.7264723,-105.1310009
11907,West 6th Avenue,80401,39.7269256,-105.1312141
1360,Garrison Street,80215,39.7373293,-105.0998137
6671,West Colfax Avenue,80214-1803,39.7405777,-105.0699461
5365,South Wadsworth Boulevard,80123,39.6212977,-105.0919111
5257,South Wadsworth Boulevard,80123,39.6223430,-105.0923650
6305,West 6th Avenue,80214,39.7261743,-105.0652204
10000,West Colfax Avenue,80215,39.7397383,-105.1099598
10140,West Colfax Avenue,80215,39.7395627,-105.1115482
10420,West Colfax Avenue,80215,39.7398346,-105.1147046
10450,West Colfax Avenue,80215,39.7398387,-105.1150466
10500,West Colfax Avenue,80215,39.7396626,-105.1153820
2775,South Estes Street,80227,39.6647790,-105.0963574
2805,South Estes Street,80227,39.6647772,-105.0976825
9785,West 9th Avenue,80215,39.7316423,-105.1059145
6387,West Alameda Avenue,80226,39.7116144,-105.0670578
6381,West Alameda Avenue,80226,39.7116080,-105.0667241
150,South Kipling Street,80226,39.7135014,-105.1076287
10395,West Colfax Avenue,80215,39.7406002,-105.1139426
10345,West Colfax Avenue,80215,39.7406995,-105.1132898
1515,Iris Street,80215,39.7407413,-105.1068604
9995,West Colfax Avenue,80215,39.7405828,-105.1091515
140,South Union Boulevard,80228,39.7143528,-105.1318428
1315,Colorado Mills Parkway,80401,39.7348773,-105.1541258
05370,West Ohio Avenue,80226,39.7013330,-105.0568151
5445,West Ohio Avenue,80226,39.7031799,-105.0568857
5370,West Ohio Avenue,80226,39.7019347,-105.0558380
5455,West Ohio Avenue,80226,39.7024887,-105.0560878
5390,West Colfax Avenue,80214,39.7400254,-105.0552232
1470,Chase Street,80214,39.7398546,-105.0564002
5480,West Colfax Avenue,80214,39.7400309,-105.0564902
5522,West Colfax Avenue,80214,39.7398763,-105.0571657
5600,West Colfax Avenue,80214,39.7398406,-105.0582704
1451,Depew Street,80214,39.7393730,-105.0582232
5660,West Colfax Avenue,80214,39.7400697,-105.0587278
5601,West Colfax Avenue,80214,39.7407424,-105.0581333
5637,West Colfax Avenue,80214,39.7406033,-105.0588488
5701,West Colfax Avenue,80214,39.7408639,-105.0593646
1471,Eaton Street,80214,39.7396977,-105.0594776
5700,West Colfax Avenue,80214,39.7399457,-105.0599213
5800,West Colfax Avenue,80214,39.7399465,-105.0606163
5830,West Colfax Avenue,80214,39.7398292,-105.0611108
1411,Fenton Street,80214,39.7390362,-105.0606585
5807,West Colfax Avenue,80214,39.7408348,-105.0605525
5809,West Colfax Avenue,80214,39.7410194,-105.0610198
5885,West Colfax Avenue,80214,39.7406577,-105.0611963
5885,West Colfax Avenue,80214,39.7407955,-105.0614720
5885,West Colfax Avenue,80214,39.7413415,-105.0614638
5885,West Colfax Avenue,80214,39.7413610,-105.0620692
5885,West Colfax Avenue,80214,39.7414251,-105.0619897
5885,West Colfax Avenue,80214,39.7415739,-105.0620505
5991,West Colfax Avenue,80214,39.7407987,-105.0621302
1590,Harlan Street,80214,39.7418376,-105.0622608
1595,Harlan Street,80214,39.7418962,-105.0629933
5900,West Colfax Avenue,80214,39.7399602,-105.0620364
6001,West Colfax Avenue,80214,39.7407579,-105.0631881
6060,West Colfax Avenue,80214,39.7399065,-105.0636180
6000,West Colfax Avenue,80214,39.7400213,-105.0629915
6100,West Colfax Avenue,80214,39.7399616,-105.0642493
6295,West Colfax Avenue,80214,39.7406893,-105.0658253
6091,West Colfax Avenue,80214,39.7405560,-105.0634787
1777,Newland Street,80214,39.7393233,-105.0703552
6800,West Colfax Avenue,80214,39.7400123,-105.0723713
9009,West Colfax Avenue,80215,39.7405665,-105.0984288
9300,West Colfax Avenue,80215,39.7397599,-105.1020460
715,Kipling Street,80215,39.7283020,-105.1107111
800,Tabor Street,80401,39.7296129,-105.1296168
12300,West Cedar Drive,80228,39.7118402,-105.1359645
10550,West Colfax Avenue,80215,39.7397447,-105.1156716
105,South Sheridan Boulevard,80226,39.7147087,-105.0536991
99,South Sheridan Boulevard,80226,39.7152494,-105.0538151
110,South Wadsworth Boulevard,80226,39.7146316,-105.0810290
150,South Wadsworth Boulevard,80226,39.7130318,-105.0810947
10250,West Mississippi Avenue,80226,39.6961032,-105.1132525
1421,Nelson Street,80215,39.7384191,-105.1173321
1315,Nelson Street,80215,39.7376402,-105.1172854
8180,West 20th Avenue,80033,39.7469339,-105.0881713
2300,Kipling Street,80215,39.7513262,-105.1091011
6433,West Alameda Avenue,80226,39.7115007,-105.0687692
6505,West Alameda Avenue,80226,39.7116488,-105.0689388
6425,West Alameda Avenue,80226,39.7115138,-105.0680701
6401,West Alameda Avenue,80226,39.7114901,-105.0677075
6101,West Alameda Avenue,80226,39.7118242,-105.0645094
6051,West Alameda Avenue,80226,39.7117629,-105.0639350
1420,Oak Street,80215,39.7382981,-105.1184809
1895,South Van Gordon Street,80228,39.6823778,-105.1328051
12198,West Jewell Drive,80228,39.6818093,-105.1327859
8442,West 24th Avenue,80215,39.7518776,-105.0913470
1685,Eaton Street,80214,39.7436778,-105.0596575
1655,Eaton Street,80214,39.7430017,-105.0593645
1590,Benton Street,80214,39.7420024,-105.0553132
1560,Ames Street,80214,39.7415120,-105.0541476
1570,Ames Street,80214,39.7416480,-105.0541793
1535,Ames Street,80214,39.7410826,-105.0546904
1547,Ames Street,80214,39.7412267,-105.0546857
1553,Ames Street,80214,39.7413689,-105.0546489
1555,Ames Street,80214,39.7415010,-105.0546578
1565,Ames Street,80214,39.7416376,-105.0546581
1573,Ames Street,80214,39.7417963,-105.0546565
1585,Ames Street,80214,39.7419331,-105.0546611
1595,Ames Street,80214,39.7420432,-105.0546826
1597,Eaton Street,80214,39.7420324,-105.0593261
255,Harlan Street,80226,39.7202073,-105.0631169
195,Harlan Street,80226,39.7199795,-105.0630113
185,Harlan Street,80226,39.7197642,-105.0629904
175,Harlan Street,80226,39.7195832,-105.0629929
2595,Kipling Street,80215,39.7544332,-105.1099716
1600,Hoyt Street,80215,39.7416908,-105.1032961
5246,West Colfax Avenue,80214,39.7401022,-105.0539572
1275,Sheridan Boulevard,80214,39.7363453,-105.0535032
1281,Sheridan Boulevard,80214,39.7364846,-105.0535177
1285,Sheridan Boulevard,80214,39.7366070,-105.0534986
1315,Sheridan Boulevard,80214,39.7369283,-105.0535457
1319,Sheridan Boulevard,80214,39.7371124,-105.0535075
1327,Sheridan Boulevard,80214,39.7372985,-105.0536804
1343,Sheridan Boulevard,80214,39.7375888,-105.0535133
1385,Sheridan Boulevard,80214,39.7379274,-105.0535245
1395,Sheridan Boulevard,80214,39.7382106,-105.0535331
1389A,Sheridan Boulevard,80214,39.7380413,-105.0535446
1220,Ames Street,80214,39.7353849,-105.0541384
1230,Ames Street,80214,39.7355189,-105.0541445
1240,Ames Street,80214,39.7356517,-105.0541453
1250,Ames Street,80214,39.7357880,-105.0541696
1260,Ames Street,80214,39.7359350,-105.0541711
1280,Ames Street,80214,39.7361964,-105.0541157
1270,Ames Street,80214,39.7360563,-105.0541432
1288,Ames Street,80214,39.7363416,-105.0541236
1290,Ames Street,80214,39.7364781,-105.0541060
5420,West 13th Avenue,80214,39.7366137,-105.0539014
1210,Benton Street,80214,39.7354552,-105.0551652
1212,Benton Street,80214,39.7355084,-105.0551653
1220,Benton Street,80214,39.7355552,-105.0551659
1222,Benton Street,80214,39.7356075,-105.0551670
1230,Benton Street,80214,39.7357349,-105.0553149
1240,Benton Street,80214,39.7360274,-105.0553163
1236,Benton Street,80214,39.7358926,-105.0553057
1232,Benton Street,80214,39.7357844,-105.0553154
1250,Benton Street,80214,39.7361920,-105.0553708
1254,Benton Street,80214,39.7363227,-105.0553288
1290,Benton Street,80214,39.7364739,-105.0553360
1292,Benton Street,80214,39.7365510,-105.0553225
5340,West 13th Avenue,80214,39.7365684,-105.0551770
5320,West 13th Avenue,80214,39.7365571,-105.0549820
1275,West 13th Avenue,80214,39.7365559,-105.0547895
5302,Ames Street,80214,39.7365672,-105.0546131
1271,Ames Street,80214,39.7363091,-105.0546457
1269,Ames Street,80214,39.7361705,-105.0546743
1263,Ames Street,80214,39.7360310,-105.0546462
1255,Ames Street,80214,39.7358952,-105.0546543
1247,Ames Street,80214,39.7357628,-105.0546572
1235,Ames Street,80214,39.7355572,-105.0546576
1320,Ames Street,80214,39.7371500,-105.0541085
1330,Ames Street,80214,39.7372771,-105.0541370
1334,Ames Street,80214,39.7374132,-105.0541240
1338,Ames Street,80214,39.7375155,-105.0541296
1340,Ames Street,80214,39.7376968,-105.0541235
1358,Ames Street,80214,39.7378085,-105.0540950
1362,Ames Street,80214,39.7379184,-105.0540723
1366,Ames Street,80214,39.7380339,-105.0541258
1370,Ames Street,80214,39.7381772,-105.0541245
1398,Ames Street,80214,39.7383366,-105.0541202
1342,Benton Street,80214,39.7374720,-105.0552598
1391,Ames Street,80214,39.7383031,-105.0546489
1361,Ames Street,80214,39.7380665,-105.0546583
1347,Ames Street,80214,39.7379301,-105.0546537
1345,Ames Street,80214,39.7377449,-105.0546645
1337,Ames Street,80214,39.7374882,-105.0549012
1333,Ames Street,80214,39.7372857,-105.0547261
1315,Ames Street,80214,39.7370975,-105.0546561
1305,Ames Street,80214,39.7369239,-105.0546379
5315,West 13th Avenue,80214,39.7369075,-105.0548719
5885,West 14th Avenue,80214,39.7390055,-105.0610924
6733,West 14th Avenue,80214,39.7386805,-105.0713423
6715,West 14th Avenue,80214,39.7386830,-105.0710668
1415,Otis Street,80214,39.7387813,-105.0709886
1427,Otis Street,80214,39.7389104,-105.0711520
1435,Otis Street,80214,39.7390647,-105.0711400
1442,Pierce Street,80214,39.7392772,-105.0711308
1281,Benton Street,80214,39.7361360,-105.0558325
1283,Benton Street,80214,39.7361892,-105.0558420
1285,Benton Street,80214,39.7362406,-105.0558433
1287,Benton Street,80214,39.7362903,-105.0558276
1289,Benton Street,80214,39.7363408,-105.0558291
1291,Benton Street,80214,39.7363918,-105.0558858
1293,Benton Street,80214,39.7364393,-105.0558871
1295,Benton Street,80214,39.7364899,-105.0558882
1297,Benton Street,80214,39.7365461,-105.0558814
5476,West 13th Avenue,80214,39.7365965,-105.0562738
5490,West 13th Avenue,80214,39.7364400,-105.0563820
1301,Benton Street,80214,39.7369107,-105.0559941
1303,Benton Street,80214,39.7369422,-105.0558535
1305,Benton Street,80214,39.7370791,-105.0559265
1315,Benton Street,80214,39.7372128,-105.0558232
1325,Benton Street,80214,39.7373560,-105.0558697
1335,Benton Street,80214,39.7375093,-105.0558525
1345,Benton Street,80214,39.7376063,-105.0559339
1355,Benton Street,80214,39.7377481,-105.0558005
1359,Benton Street,80214,39.7378549,-105.0558635
1365,Benton Street,80214,39.7379531,-105.0558035
1375,Benton Street,80214,39.7380647,-105.0558120
1395,Benton Street,80214,39.7381788,-105.0558028
1399,Benton Street,80214,39.7383131,-105.0558066
5495,West 13th Avenue,80214,39.7368716,-105.0564571
1314,Chase Street,80214,39.7370092,-105.0564691
1330,Chase Street,80214,39.7371737,-105.0564941
1332,Chase Street,80214,39.7372346,-105.0562721
1334,Chase Street,80214,39.7373305,-105.0564523
1336,Chase Street,80214,39.7373756,-105.0562057
1338,Chase Street,80214,39.7374841,-105.0565053
1340,Chase Street,80214,39.7376469,-105.0564591
1350,Chase Street,80214,39.7378676,-105.0564154
1360,Chase Street,80214,39.7380860,-105.0564811
1368,Chase Street,80214,39.7382056,-105.0562511
5450,West 14th Avenue,80214,39.7382946,-105.0562331
1395,West 14th Avenue,80214,39.7383246,-105.0569981
1361,Chase Street,80214,39.7382107,-105.0569941
1357,Chase Street,80214,39.7380542,-105.0570210
1349,Chase Street,80214,39.7378971,-105.0570447
1345,Chase Street,80214,39.7377262,-105.0570230
1337,Chase Street,80214,39.7375616,-105.0570479
1339,Chase Street,80214,39.7374729,-105.0570905
1341,Chase Street,80214,39.7376230,-105.0572480
1335,Chase Street,80214,39.7373855,-105.0569877
1325,Chase Street,80214,39.7371474,-105.0570785
1315,Chase Street,80214,39.7370227,-105.0570393
1305,Chase Street,80214,39.7368770,-105.0570228
1300,Depew Street,80214,39.7370098,-105.0575487
1318,Depew Street,80214,39.7372095,-105.0575053
1340,Depew Street,80214,39.7375004,-105.0576470
1330,Depew Street,80214,39.7377106,-105.0576660
1366,Depew Street,80214,39.7379118,-105.0576091
1370,Depew Street,80214,39.7380507,-105.0575901
1374,Depew Street,80214,39.7381793,-105.0576249
1384,Depew Street,80214,39.7383203,-105.0576117
1317,Harlan Street,80214,39.7371967,-105.0629693
1367,Harlan Street,80214,39.7378567,-105.0629976
1395,Harlan Street,80214,39.7383409,-105.0629484
1432,Depew Street,80214,39.7390700,-105.0575511
1448,Depew Street,80214,39.7396306,-105.0576607
1462,Depew Street,80214,39.7397558,-105.0576816
5227,West 14th Avenue,80214,39.7386978,-105.0539128
1400,Ames Street,80214,39.7386812,-105.0541980
1414,Ames Street,80214,39.7388483,-105.0541573
1420,Ames Street,80214,39.7389324,-105.0541572
1424,Ames Street,80214,39.7390152,-105.0541496
1426,Ames Street,80214,39.7391155,-105.0541253
1440,Ames Street,80214,39.7392362,-105.0540186
1444,Ames Street,80214,39.7393599,-105.0541275
1448,Ames Street,80214,39.7394529,-105.0541256
1454,Ames Street,80214,39.7395544,-105.0541311
1460,Ames Street,80214,39.7396588,-105.0541001
1466,Ames Street,80214,39.7397519,-105.0540993
1472,Ames Street,80214,39.7398654,-105.0541254
1401,Ames Street,80214,39.7386662,-105.0548323
1435,Ames Street,80214,39.7387760,-105.0546475
1437,Ames Street,80214,39.7389040,-105.0546470
1441,Ames Street,80214,39.7390246,-105.0546353
1445,Ames Street,80214,39.7391393,-105.0546254
1447,Ames Street,80214,39.7393141,-105.0546357
1451,Ames Street,80214,39.7394838,-105.0546364
1455,Ames Street,80214,39.7395899,-105.0546648
1465,Ames Street,80214,39.7397196,-105.0546594
1471,Ames Street,80214,39.7398417,-105.0546163
1475,Ames Street,80214,39.7399385,-105.0546004
1477,Ames Street,80214,39.7400159,-105.0546015
5300,West Colfax Avenue,80214,39.7401768,-105.0548882
1460,Benton Street,80214,39.7396251,-105.0553346
1452,Benton Street,80214,39.7393647,-105.0553378
1428,Benton Street,80214,39.7392438,-105.0552957
1422,Benton Street,80214,39.7390821,-105.0553036
1414,Benton Street,80214,39.7389781,-105.0553277
1408,Benton Street,80214,39.7388322,-105.0553115
1401,Benton Street,80214,39.7386263,-105.0557901
1407,Benton Street,80214,39.7386945,-105.0558305
1415,Benton Street,80214,39.7388146,-105.0558379
1417,Benton Street,80214,39.7389354,-105.0558207
1421,Benton Street,80214,39.7390421,-105.0558051
1427,Benton Street,80214,39.7392409,-105.0558157
1445,Benton Street,80214,39.7394110,-105.0558150
1455,Benton Street,80214,39.7395842,-105.0558602
1459,Benton Street,80214,39.7396919,-105.0558608
1461,Benton Street,80214,39.7398315,-105.0558104
1400,Chase Street,80214,39.7386776,-105.0564931
5427,West 14th Avenue,80214,39.7387080,-105.0562366
1410,Chase Street,80214,39.7388105,-105.0564954
1420,Chase Street,80214,39.7389398,-105.0565171
1416,Chase Street,80214,39.7389654,-105.0562629
1422,Chase Street,80214,39.7391037,-105.0564953
1426,Chase Street,80214,39.7392368,-105.0564736
1444,Chase Street,80214,39.7393805,-105.0564881
1450,Chase Street,80214,39.7394964,-105.0564703
1460,Chase Street,80214,39.7395964,-105.0564863
1484,Ames Street,80214,39.7400967,-105.0541583
1407,Chase Street,80214,39.7386757,-105.0570110
1405,Chase Street,80214,39.7386628,-105.0572273
1409,Chase Street,80214,39.7388167,-105.0572084
1435,Chase Street,80214,39.7390679,-105.0569926
1437,Chase Street,80214,39.7391702,-105.0570043
1441,Chase Street,80214,39.7393186,-105.0569917
1449,Chase Street,80214,39.7394425,-105.0569979
1455,Chase Street,80214,39.7395516,-105.0569852
1461,Chase Street,80214,39.7396519,-105.0569925
1465,Chase Street,80214,39.7397258,-105.0570317
1469,Chase Street,80214,39.7397981,-105.0570200
1450,S Pierce St,80232,39.6908689,-105.0714071
1410,Eaton Street,80214,39.7387083,-105.0588194
1432,Eaton Street,80214,39.7388878,-105.0588324
1438,Eaton Street,80214,39.7390207,-105.0588105
1444,Eaton Street,80214,39.7391501,-105.0587751
1450,Eaton Street,80214,39.7392977,-105.0588259
1458,Eaton Street,80214,39.7394459,-105.0588855
1466,Eaton Street,80214,39.7395585,-105.0588846
1472,Eaton Street,80214,39.7396879,-105.0588624
1576,Ames Street,80214,39.7417755,-105.0541603
1583,Sheridan Boulevard,80214,39.7419208,-105.0536910
1565,Sheridan Boulevard,80214,39.7415121,-105.0537059
1545,Sheridan Boulevard,80214,39.7412342,-105.0535067
1555,Sheridan Boulevard,80214,39.7413616,-105.0537307
1560,Benton Street,80214,39.7418471,-105.0553202
1556,Benton Street,80214,39.7417082,-105.0553091
1554,Benton Street,80214,39.7415749,-105.0553145
1550,Benton Street,80214,39.7413587,-105.0553005
1544,Benton Street,80214,39.7412231,-105.0553218
1536,Benton Street,80214,39.7410935,-105.0552965
1549,Chase Street,80214,39.7413399,-105.0569914
1553,Chase Street,80214,39.7413929,-105.0569916
1557,Chase Street,80214,39.7414469,-105.0569919
1569,Chase Street,80214,39.7416350,-105.0570102
1567,Chase Street,80214,39.7415810,-105.0570100
1563,Chase Street,80214,39.7415280,-105.0570098
1577,Chase Street,80214,39.7417144,-105.0569912
1579,Chase Street,80214,39.7417674,-105.0569914
1583,Chase Street,80214,39.7418214,-105.0569917
1595,Chase Street,80214,39.7420489,-105.0569873
1591,Chase Street,80214,39.7420181,-105.0572553
1593,Chase Street,80214,39.7419640,-105.0572551
1589,Chase Street,80214,39.7419110,-105.0572549
1461,Eaton Street,80214,39.7394885,-105.0593890
1457,Eaton Street,80214,39.7393541,-105.0593679
1435,Eaton Street,80214,39.7392124,-105.0593581
1425,Eaton Street,80214,39.7390850,-105.0593382
1407,Eaton Street,80214,39.7389396,-105.0593704
1405,Eaton Street,80214,39.7388220,-105.0593380
1401,Eaton Street,80214,39.7386872,-105.0593573
1400,Fenton Street,80214,39.7387887,-105.0599409
1430,Fenton Street,80214,39.7390691,-105.0600386
1440,Fenton Street,80214,39.7392166,-105.0599672
1450,Fenton Street,80214,39.7393182,-105.0598928
1460,Fenton Street,80214,39.7394818,-105.0599937
1391,Fenton Street,80214,39.7383859,-105.0605221
5880,West 14th Avenue,80214,39.7383197,-105.0609764
1390,Gray Street,80214,39.7380368,-105.0612225
1375,Gray Street,80214,39.7378840,-105.0617245
1385,Gray Street,80214,39.7380878,-105.0616906
1395,Gray Street,80214,39.7383734,-105.0616679
5910,West 14th Avenue,80214,39.7383094,-105.0619246
1390,Harlan Street,80214,39.7383848,-105.0624031
1388,Harlan Street,80214,39.7382290,-105.0623600
1370,Harlan Street,80214,39.7380496,-105.0622357
1429,Gray Street,80214,39.7390210,-105.0617139
1433,Gray Street,80214,39.7391854,-105.0617151
1453,Gray Street,80214,39.7393505,-105.0616634
1432,Harlan Street,80214,39.7392436,-105.0624110
1416,Harlan Street,80214,39.7389661,-105.0624376
1408,Harlan Street,80214,39.7388355,-105.0624230
1400,Harlan Street,80214,39.7386896,-105.0624288
1401,Harlan Street,80214,39.7389145,-105.0630181
1427,Harlan Street,80214,39.7394769,-105.0632040
1435,Harlan Street,80214,39.7396461,-105.0631120
1430,Ingalls Street,80214,39.7390884,-105.0634332
1400,Ingalls Street,80214,39.7387899,-105.0634074
7550,West 13th Avenue,80214,39.7363213,-105.0806324
1425,Ingalls Street,80214,39.7389205,-105.0640439
1435,Ingalls Street,80214,39.7390640,-105.0640320
1439,Ingalls Street,80214,39.7392529,-105.0640369
1437,Ingalls Street,80214,39.7391885,-105.0642802
1437,Ingalls Street,80214,39.7392811,-105.0642606
1441,Ingalls Street,80214,39.7393723,-105.0640473
1445,Ingalls Street,80214,39.7395537,-105.0640251
1406,Jay Street,80214,39.7386166,-105.0647036
1408,Jay Street,80214,39.7387741,-105.0646749
1440,Jay Street,80214,39.7393012,-105.0647239
1470,Jay Street,80214,39.7395234,-105.0646695
1472,Jay Street,80214,39.7396786,-105.0646924
1425,Jay Street,80214,39.7390042,-105.0652675
1435,Jay Street,80214,39.7392295,-105.0651825
1445,Jay Street,80214,39.7393636,-105.0653120
1469,Jay Street,80214,39.7394592,-105.0651557
1471,Jay Street,80214,39.7396197,-105.0651960
1473,Jay Street,80214,39.7397388,-105.0652108
1475,Jay Street,80214,39.7398541,-105.0651713
6212,West Colfax Avenue,80214,39.7399982,-105.0653063
6399,West 14th Avenue,80214,39.7387445,-105.0669053
6399,West 14th Avenue,80214,39.7389702,-105.0669056
1460,Lamar Street,80214,39.7395382,-105.0668884
1450,Lamar Street,80214,39.7394209,-105.0665776
1441,Kendall Street,80214,39.7393550,-105.0663720
1370,Otis Street,80214,39.7380824,-105.0705082
1360,Otis Street,80214,39.7378983,-105.0705261
1350,Otis Street,80214,39.7376790,-105.0705270
1310,Otis Street,80214,39.7373039,-105.0705210
6699,West 13th Avenue,80214,39.7369820,-105.0705267
1325,Marshall Street,80214,39.7373629,-105.0687133
1301,Marshall Street,80214,39.7368979,-105.0687853
6000,West 13th Avenue,80214,39.7363516,-105.0631971
5555,West 11th Avenue,80214,39.7352410,-105.0578181
1120,Depew Court,80214,39.7353386,-105.0581337
5575,West 11th Avenue,80214,39.7351453,-105.0583830
5901,West 11th Avenue,80214,39.7351019,-105.0615644
5985,West 11th Avenue,80214,39.7350803,-105.0623372
6720,West 14th Avenue,80214,39.7382604,-105.0711909
6710,West 14th Avenue,80214,39.7382734,-105.0710215
1385,Otis Street,80214,39.7380010,-105.0710792
1375,Otis Street,80214,39.7378650,-105.0710759
1365,Otis Street,80214,39.7377197,-105.0710663
1355,Otis Street,80214,39.7375861,-105.0710711
1345,Otis Street,80214,39.7374418,-105.0710456
1313,Otis Street,80214,39.7373100,-105.0710754
1311,Otis Street,80214,39.7371598,-105.0710466
6797,West 13th Avenue,80214,39.7368880,-105.0716231
6795,West 13th Avenue,80214,39.7368892,-105.0715368
6793,West 13th Avenue,80214,39.7368908,-105.0714462
1320,Pierce Street,80214,39.7371328,-105.0716663
1330,Pierce Street,80214,39.7373231,-105.0716923
1370,Pierce Street,80214,39.7378126,-105.0716582
1380,Pierce Street,80214,39.7379850,-105.0716604
1425,Newland Street,80214,39.7389537,-105.0699068
1400,Otis Street,80214,39.7387025,-105.0705909
1420,Otis Street,80214,39.7389923,-105.0705873
999,Eaton Street,80214,39.7328843,-105.0589576
989,Eaton Street,80214,39.7327444,-105.0589591
979,Eaton Street,80214,39.7325803,-105.0589591
969,Eaton Street,80214,39.7324198,-105.0589611
959,Eaton Street,80214,39.7321230,-105.0588998
958,Eaton Street,80214,39.7320575,-105.0587046
998,Eaton Street,80214,39.7328051,-105.0584851
978,Eaton Street,80214,39.7326611,-105.0584876
5689,West 10th Avenue,80214,39.7333360,-105.0587440
5699,West 10th Place,80214,39.7334722,-105.0589426
5701,West 10th Avenue,80214,39.7333957,-105.0592353
775,Sheridan Boulevard,80214,39.7290596,-105.0536762
895,Sheridan Boulevard,80204,39.7310052,-105.0536593
801,Sheridan Boulevard,80214,39.7298930,-105.0535965
825,Sheridan Boulevard,80214,39.7302746,-105.0536077
865,Sheridan Boulevard,80214,39.7305943,-105.0536114
5200,West 9th Avenue,80214,39.7310164,-105.0539038
5202,West 9th Avenue,80214,39.7311248,-105.0539620
5244,West 9th Avenue,80214,39.7309013,-105.0543435
5330,West 9th Avenue,80214,39.7306385,-105.0547210
5315,West 10th Avenue,80214,39.7334005,-105.0548467
5495,West 6th Avenue Frontage Road,80214,39.7267932,-105.0566905
7411,West 12th Avenue,80214,39.7350125,-105.0794441
7504,West 10th Avenue,80214,39.7322420,-105.0804579
7506,West 10th Avenue,80214,39.7324044,-105.0801562
7502,West 10th Avenue,80214,39.7325100,-105.0804937
7500,West 10th Avenue,80214,39.7327425,-105.0802879
1240,Pierce Street,80214,39.7354166,-105.0715396
7410,West 13th Avenue,80214,39.7362969,-105.0798947
1295,Vance Street,80214,39.7364017,-105.0793702
1285,Vance Street,80214,39.7361918,-105.0792906
1275,Vance Street,80214,39.7360370,-105.0792754
1265,Vance Street,80214,39.7358522,-105.0792819
1245,Vance Street,80214,39.7356415,-105.0792790
1227,Vance Street,80214,39.7354546,-105.0792740
7450,West 12th Avenue,80214,39.7345730,-105.0797921
7420,West 12th Avenue,80214,39.7346033,-105.0793193
1185,Vance Street,80214,39.7343678,-105.0792809
1081,Vance Street,80214,39.7337771,-105.0792901
1120,Vance Street,80214,39.7341186,-105.0787780
7390,West 12th Avenue,80214,39.7345314,-105.0788536
7380,West 12th Avenue,80214,39.7345811,-105.0785838
7310,West 12th Avenue,80214,39.7346180,-105.0781924
1175,Upham Street,80214,39.7344762,-105.0782407
1200,Vance Street,80214,39.7349275,-105.0787675
1208,Vance Street,80214,39.7350901,-105.0787430
1210,Vance Street,80214,39.7352178,-105.0787471
1216,Vance Street,80214,39.7353565,-105.0787600
1224,Vance Street,80214,39.7355010,-105.0787414
1230,Vance Street,80214,39.7356408,-105.0787452
1240,Vance Street,80214,39.7357796,-105.0787385
1270,Vance Street,80214,39.7362012,-105.0787782
1290,Vance Street,80214,39.7363858,-105.0787582
1251,Upham Street,80214,39.7357554,-105.0781145
1225,Upham Street,80214,39.7355475,-105.0780989
1215,Upham Street,80214,39.7353855,-105.0780944
1213,Upham Street,80214,39.7352355,-105.0783367
1211,Upham Street,80214,39.7351956,-105.0780762
7301,West 12th Avenue,80214,39.7349771,-105.0780926
7335,West 12th Avenue,80214,39.7349632,-105.0783361
7232,West 13th Avenue,80214,39.7363801,-105.0774073
7220,West 13th Avenue,80214,39.7363593,-105.0771898
7204,West 13th Avenue,80214,39.7362980,-105.0769455
1275,Teller Street,80214,39.7360461,-105.0770921
1265,Teller Street,80214,39.7359222,-105.0769389
1255,Teller Street,80214,39.7357359,-105.0769483
1245,Teller Street,80214,39.7355676,-105.0769466
1235,Teller Street,80214,39.7354081,-105.0769201
1225,Teller Street,80214,39.7352565,-105.0769497
1215,Teller Street,80214,39.7351136,-105.0769118
7295,West 12th Avenue,80214,39.7349621,-105.0773970
1200,Upham Street,80214,39.7349406,-105.0775897
1220,Upham Street,80214,39.7351221,-105.0776163
1226,Upham Street,80214,39.7352868,-105.0776027
1228,Upham Street,80214,39.7354360,-105.0775799
1232,Upham Street,80214,39.7355790,-105.0776190
1236,Upham Street,80214,39.7357408,-105.0775693
1238,Upham Street,80214,39.7358971,-105.0775627
1244,Upham Street,80214,39.7360911,-105.0776028
7150,West 12th Avenue,80214,39.7345432,-105.0764016
1070,Teller Street,80214,39.7339628,-105.0764200
1060,Teller Street,80214,39.7337972,-105.0764200
1075,Saulsbury Street,80214,39.7340366,-105.0757361
1065,Saulsbury Street,80214,39.7338710,-105.0757361
7171,West 10th Avenue,80214,39.7333257,-105.0762175
7101,Saulsbury Street,80214,39.7334649,-105.0756417
1175,Saulsbury Street,80214,39.7342787,-105.0757594
7100,West 12th Avenue,80214,39.7345495,-105.0757698
1060,Saulsbury Street,80214,39.7334584,-105.0752078
1150,Saulsbury Street,80214,39.7338180,-105.0751921
1160,Saulsbury Street,80214,39.7340730,-105.0752253
1180,Saulsbury Street,80214,39.7343350,-105.0752332
7010,West 12th Avenue,80214,39.7345703,-105.0750616
7000,West 12th Avenue,80214,39.7345857,-105.0746330
1175,Reed Street,80214,39.7343544,-105.0746271
6879,West 11th Avenue,80214,39.7345575,-105.0741173
6901,West 11th Avenue,80214,39.7345849,-105.0737137
6855,West 11th Avenue,80214,39.7345180,-105.0731693
6845,West 11th Avenue,80214,39.7345814,-105.0727997
1111,Pierce Street,80214,39.7345319,-105.0724083
6907,Reed Street,80214,39.7350347,-105.0735852
1205,Pierce Street,80214,39.7351071,-105.0725314
6695,West 13th Avenue,80214,39.7369841,-105.0701459
1325,Upham Street,80214,39.7370569,-105.0781765
1337,Upham Street,80214,39.7372000,-105.0782168
1345,Upham Street,80214,39.7373558,-105.0781872
1355,Upham Street,80214,39.7374939,-105.0781896
1375,Teller Street,80214,39.7380066,-105.0771817
1377,Teller Street,80214,39.7379808,-105.0769674
2636,Youngfield Street,80215,39.7547315,-105.1420901
5315,West 5th Avenue,80226,39.7242884,-105.0549154
5325,West 5th Avenue,80226,39.7243011,-105.0551497
5335,West 5th Avenue,80226,39.7243016,-105.0553288
5345,West 5th Avenue,80226,39.7243005,-105.0555304
5365,West 5th Avenue,80226,39.7243045,-105.0559463
5385,West 5th Avenue,80226,39.7243055,-105.0561521
5405,West 5th Avenue,80226,39.7243007,-105.0563456
5415,West 5th Avenue,80226,39.7243062,-105.0565583
5435,West 5th Avenue,80226,39.7243495,-105.0567962
5445,West 5th Avenue,80226,39.7242913,-105.0570276
5455,West 5th Avenue,80226,39.7243018,-105.0572384
5465,West 5th Avenue,80226,39.7243038,-105.0574490
5485,West 5th Avenue,80226,39.7243052,-105.0576465
5505,West 5th Avenue,80226,39.7242851,-105.0578699
5915,West 5th Avenue,80226,39.7243141,-105.0613170
5935,West 5th Avenue,80226,39.7242971,-105.0615782
5955,West 5th Avenue,80226,39.7242952,-105.0618451
5975,West 5th Avenue,80226,39.7243007,-105.0621560
5995,West 5th Avenue,80226,39.7243283,-105.0624468
560,Jay Street,80226,39.7251077,-105.0646673
508,Jay Street,80226,39.7247342,-105.0647574
545,Ingalls Street,80226,39.7247106,-105.0641958
553,Harlan Street,80226,39.7244111,-105.0629768
505,Harlan Street,80226,39.7241600,-105.0630195
500,Ingalls Street,80226,39.7241912,-105.0636472
535,Ingalls Street,80226,39.7244960,-105.0641560
525,Ingalls Street,80226,39.7243327,-105.0641975
515,Ingalls Street,80226,39.7241609,-105.0641581
500,Jay Street,80226,39.7241536,-105.0647502
502,Jay Street,80226,39.7243371,-105.0646747
504,Jay Street,80226,39.7245101,-105.0647350
431,Harlan Street,80226,39.7239533,-105.0629838
490,Ingalls Street,80226,39.7239130,-105.0636512
480,Ingalls Street,80226,39.7236843,-105.0636784
5990,West 5th Avenue,80226,39.7238920,-105.0624186
5950,West 5th Avenue,80226,39.7239117,-105.0617978
5930,West 5th Avenue,80226,39.7239319,-105.0615283
5500,West 5th Avenue,80226,39.7238871,-105.0578764
5480,West 5th Avenue,80226,39.7238970,-105.0576308
5470,West 5th Avenue,80226,39.7239283,-105.0574283
5460,West 5th Avenue,80226,39.7239249,-105.0572039
5440,West 5th Avenue,80226,39.7239240,-105.0569806
5430,West 5th Avenue,80226,39.7239085,-105.0567883
495,Benton Street,80226,39.7239580,-105.0564820
490,Benton Street,80226,39.7239385,-105.0559262
5970,West 5th Avenue,80226,39.7239112,-105.0621363
455,Ingalls Street,80226,39.7237935,-105.0641084
6150,West 5th Avenue,80226,39.7237712,-105.0644183
6190,West 5th Avenue,80226,39.7238043,-105.0647635
421,Harlan Street,80226,39.7237413,-105.0629818
411,Harlan Street,80226,39.7235442,-105.0629840
401,Harlan Street,80226,39.7233502,-105.0629654
6035,West 4th Avenue,80226,39.7232823,-105.0633268
400,Ingalls Street,80226,39.7232975,-105.0636069
400,Harlan Street,80226,39.7233145,-105.0624014
5949,West 4th Avenue,80226,39.7233203,-105.0618959
5885,West 4th Avenue,80226,39.7233040,-105.0613097
405,Ingalls Street,80226,39.7233862,-105.0641181
6145,West 4th Avenue,80226,39.7233767,-105.0644054
6195,West 4th Avenue,80226,39.7233904,-105.0647063
6250,West 6th Avenue Frontage Road,80214,39.7251603,-105.0659994
6300,West 6th Avenue Frontage Road,80214,39.7251572,-105.0662987
6380,West 6th Avenue Frontage Road,80214,39.7251384,-105.0669528
6390,West 6th Avenue Frontage Road,80214,39.7251330,-105.0672541
6245,West 5th Place,80226,39.7248502,-105.0656341
6265,West 5th Place,80226,39.7248921,-105.0659841
6305,West 5th Place,80226,39.7248774,-105.0662844
6365,West 5th Place,80226,39.7248662,-105.0666188
6385,West 5th Place,80226,39.7248800,-105.0669362
553,Kendall Court,80226,39.7247361,-105.0672708
525,Kendall Court,80226,39.7244549,-105.0672945
505,Kendall Court,80226,39.7241707,-105.0672843
500,Kendall Court,80226,39.7241654,-105.0667650
520,Kendall Court,80226,39.7244436,-105.0667971
6360,West 5th Place,80226,39.7244814,-105.0665348
6345,West 5th Avenue,80226,39.7241293,-105.0663991
6289,West 5th Avenue,80226,39.7241555,-105.0661004
6302,West 5th Place,80226,39.7245015,-105.0662392
6260,West 5th Place,80226,39.7244890,-105.0659542
6240,West 5th Place,80226,39.7245022,-105.0656291
507,Jay Street,80226,39.7242134,-105.0654169
6225,West 5th Avenue,80226,39.7241339,-105.0657660
6220,West 5th Avenue,80226,39.7237272,-105.0653342
490,Kendall Street,80226,39.7236888,-105.0659969
480,Kendall Street,80226,39.7234561,-105.0659974
430,Kendall Street,80226,39.7232264,-105.0659981
410,Kendall Street,80226,39.7229992,-105.0660035
380,Kendall Street,80226,39.7227662,-105.0659774
350,Kendall Street,80226,39.7225329,-105.0659754
405,Jay Street,80226,39.7232378,-105.0653551
415,Jay Street,80226,39.7235127,-105.0653348
330,Kendall Street,80226,39.7222792,-105.0660028
345,Kendall Street,80226,39.7222937,-105.0665700
375,Kendall Street,80226,39.7225697,-105.0665322
395,Kendall Street,80226,39.7228273,-105.0665336
425,Kendall Street,80226,39.7230534,-105.0665200
445,Kendall Street,80226,39.7232742,-105.0665320
485,Kendall Street,80226,39.7234949,-105.0665389
6320,West 5th Avenue,80226,39.7237388,-105.0665608
480,Lamar Street,80226,39.7234957,-105.0671459
440,Lamar Street,80226,39.7232723,-105.0671727
420,Lamar Street,80226,39.7230568,-105.0671674
390,Lamar Street,80226,39.7228188,-105.0671469
340,Lamar Street,80226,39.7222900,-105.0671691
399,Jay Street,80226,39.7228260,-105.0653841
397,Jay Street,80226,39.7225181,-105.0653042
395,Jay Street,80226,39.7222831,-105.0652834
365,Jay Street,80226,39.7220794,-105.0653018
335,Jay Street,80226,39.7218094,-105.0653052
325,Jay Street,80226,39.7215920,-105.0653442
305,Jay Street,80226,39.7213981,-105.0653638
550,Newland Street,80226,39.7250438,-105.0694049
6450,West 6th Avenue Frontage Road,80214,39.7250856,-105.0682985
6420,West 6th Avenue Frontage Road,80214,39.7251426,-105.0680026
6400,West 6th Avenue Frontage Road,80214,39.7250538,-105.0676509
540,Newland Street,80226,39.7247732,-105.0694740
520,Newland Street,80226,39.7244750,-105.0695054
476,Newland Street,80226,39.7242108,-105.0694003
505,Marshall Court,80226,39.7241312,-105.0691262
515,Marshall Court,80226,39.7243455,-105.0691302
535,Marshall Court,80226,39.7245987,-105.0691333
6489,West 5th Place,80226,39.7247671,-105.0688640
6469,West 5th Place,80226,39.7247660,-105.0685396
6459,West 5th Place,80226,39.7247620,-105.0682214
6429,West 5th Place,80226,39.7247639,-105.0678886
590,Lamar Court,80226,39.7245805,-105.0676406
550,Lamar Court,80226,39.7243498,-105.0676769
6411,West 5th Avenue,80226,39.7241248,-105.0676110
6459,West 5th Avenue,80226,39.7241237,-105.0681853
6479,West 5th Avenue,80226,39.7241509,-105.0685311
6480,West 5th Place,80226,39.7243736,-105.0685377
6450,West 5th Place,80226,39.7243811,-105.0682240
6400,West 5th Avenue,80226,39.7236873,-105.0677521
6440,West 5th Avenue,80226,39.7237044,-105.0680354
6460,West 5th Avenue,80226,39.7236925,-105.0683267
6490,West 5th Avenue,80226,39.7237108,-105.0686333
6510,West 5th Avenue,80226,39.7237049,-105.0689208
6520,West 5th Avenue,80226,39.7237170,-105.0692074
490,Newland Street,80226,39.7236545,-105.0695299
6585,West 4th Avenue,80226,39.7232801,-105.0694092
6455,West 4th Avenue,80226,39.7232510,-105.0689808
6425,West 4th Avenue,80226,39.7232724,-105.0681792
6415,West 4th Avenue,80226,39.7232803,-105.0679233
415,Lamar Street,80226,39.7233069,-105.0676849
6440,West 4th Avenue,80226,39.7228781,-105.0686062
6480,West 4th Avenue,80226,39.7228686,-105.0689024
6530,West 4th Avenue,80226,39.7228812,-105.0692157
390,Newland Street,80226,39.7228392,-105.0695553
360,Newland Street,80226,39.7226185,-105.0695468
6585,West 3rd Place,80226,39.7225929,-105.0692049
6479,West 3rd Place,80226,39.7225823,-105.0689020
6449,West 3rd Place,80226,39.7225811,-105.0686080
390,Lamar Court,80226,39.7228444,-105.0680814
360,Lamar Court,80226,39.7226126,-105.0680818
340,Lamar Court,80226,39.7223839,-105.0680536
6420,West 3rd Place,80226,39.7222164,-105.0682972
6430,West 3rd Place,80226,39.7222013,-105.0685931
6470,West 3rd Place,80226,39.7221957,-105.0689127
6550,West 3rd Place,80226,39.7222091,-105.0692207
6580,West 3rd Place,80226,39.7221996,-105.0695074
6555,West 3rd Avenue,80226,39.7219317,-105.0694855
6525,West 3rd Avenue,80226,39.7219347,-105.0691260
6485,West 3rd Avenue,80226,39.7219226,-105.0687339
6445,West 3rd Avenue,80226,39.7219005,-105.0683980
6425,West 3rd Avenue,80226,39.7219281,-105.0680590
325,Lamar Street,80226,39.7219636,-105.0677284
365,Lamar Street,80226,39.7225447,-105.0677271
395,Lamar Street,80226,39.7228394,-105.0677252
6600,West 6th Avenue Frontage Road,80214,39.7250329,-105.0701617
6660,West 6th Avenue Frontage Road,80214,39.7251011,-105.0708698
6690,West 6th Avenue Frontage Road,80214,39.7251427,-105.0712374
6700,West 6th Avenue Frontage Road,80214,39.7250504,-105.0716044
6750,West 6th Avenue Frontage Road,80214,39.7252001,-105.0719624
6800,West 6th Avenue Frontage Road,80214,39.7249506,-105.0724331
6850,West 6th Avenue Frontage Road,80214,39.7250727,-105.0728944
6900,West 6th Avenue Frontage Road,80214,39.7250493,-105.0733446
519,Newland Street,80226,39.7247963,-105.0700525
509,Newland Street,80226,39.7245963,-105.0700614
6611,West 5th Place,80226,39.7245473,-105.0703276
6621,West 5th Place,80226,39.7246416,-105.0706014
6711,West 5th Place,80226,39.7246225,-105.0708652
6721,West 5th Place,80226,39.7246528,-105.0711377
6741,West 5th Place,80226,39.7246558,-105.0714045
475,Newland Street,80226,39.7241439,-105.0701066
445,Newland Street,80226,39.7238498,-105.0700995
6685,West 4th Place,80226,39.7237931,-105.0703838
6695,West 4th Place,80226,39.7238049,-105.0706917
6705,West 4th Place,80226,39.7237932,-105.0710329
6725,West 4th Place,80226,39.7237899,-105.0713009
6765,West 4th Place,80226,39.7238031,-105.0716183
6795,West 4th Place,80226,39.7238069,-105.0719012
490,Pierce Street,80226,39.7241632,-105.0719400
6762,West 5th Place,80226,39.7242077,-105.0716604
6742,West 5th Place,80226,39.7242172,-105.0713943
6722,West 5th Place,80226,39.7241978,-105.0711195
6712,West 5th Place,80226,39.7242125,-105.0708684
6620,West 5th Place,80226,39.7241457,-105.0705956
6610,West 5th Place,80226,39.7241608,-105.0703508
6761,West 5th Place,80226,39.7246276,-105.0716758
6781,West 5th Place,80226,39.7246523,-105.0719114
6805,West 5th Avenue,80226,39.7243644,-105.0724398
6825,West 5th Avenue,80226,39.7242806,-105.0727376
6875,West 5th Avenue,80226,39.7242954,-105.0729755
6895,West 5th Avenue,80226,39.7243122,-105.0732659
6905,West 5th Avenue,80226,39.7243162,-105.0735114
6925,West 5th Avenue,80226,39.7242895,-105.0737804
6975,West 5th Avenue,80226,39.7242730,-105.0740440
6995,West 5th Avenue,80226,39.7243293,-105.0743190
7005,West 5th Avenue,80226,39.7243957,-105.0747200
7055,West 5th Avenue,80226,39.7244188,-105.0749932
7095,West 5th Avenue,80226,39.7244225,-105.0752979
570,Saulsbury Street,80226,39.7247455,-105.0752114
580,Saulsbury Street,80226,39.7250591,-105.0752280
7050,West 6th Avenue Frontage Road,80214,39.7251056,-105.0747147
7000,West 6th Avenue Frontage Road,80214,39.7250697,-105.0744067
6800,West 5th Avenue,80226,39.7238254,-105.0724841
6820,West 5th Avenue,80226,39.7238620,-105.0727126
6870,West 5th Avenue,80226,39.7238981,-105.0729752
6890,West 5th Avenue,80226,39.7238925,-105.0732460
6900,West 5th Avenue,80226,39.7238947,-105.0735255
6920,West 5th Avenue,80226,39.7238854,-105.0737740
6970,West 5th Avenue,80226,39.7238835,-105.0740359
6990,West 5th Avenue,80226,39.7239177,-105.0743158
7000,West 5th Avenue,80226,39.7239692,-105.0746180
7050,West 5th Avenue,80226,39.7240354,-105.0749218
7090,West 5th Avenue,80226,39.7239730,-105.0752796
7150,West 6th Avenue Frontage Road,80214,39.7251317,-105.0761162
575,Saulsbury Street,80226,39.7251265,-105.0758836
565,Saulsbury Street,80226,39.7247431,-105.0758235
561,Saulsbury Street,80226,39.7247035,-105.0765402
555,Saulsbury Street,80226,39.7244211,-105.0762242
537,Saulsbury Street,80226,39.7241195,-105.0761773
531,Saulsbury Street,80226,39.7239119,-105.0759779
411,Saulsbury Street,80226,39.7236147,-105.0759272
7185,West 4th Avenue,80226,39.7232862,-105.0766036
401,Teller Street,80226,39.7234492,-105.0770574
400,Teller Street,80226,39.7231154,-105.0772041
401,Saulsbury Street,80226,39.7233005,-105.0759785
410,Saulsbury Street,80226,39.7233518,-105.0753515
450,Saulsbury Street,80226,39.7236870,-105.0753407
7077,West 4th Avenue,80226,39.7234739,-105.0749900
7071,West 4th Avenue,80226,39.7233257,-105.0747967
7051,West 4th Avenue,80226,39.7233425,-105.0744582
6985,West 4th Avenue,80226,39.7233354,-105.0740821
6975,West 4th Avenue,80226,39.7233103,-105.0737999
6965,West 4th Avenue,80226,39.7233239,-105.0735369
6905,West 4th Avenue,80226,39.7233284,-105.0732757
6835,West 4th Avenue,80226,39.7233577,-105.0730116
6825,West 4th Avenue,80226,39.7233291,-105.0727254
6805,West 4th Avenue,80226,39.7233303,-105.0724881
403,Otis Street,80226,39.7233531,-105.0710657
6720,West 4th Place,80226,39.7233841,-105.0713499
6760,West 4th Place,80226,39.7234019,-105.0716448
6790,West 4th Place,80226,39.7233608,-105.0719208
380,Pierce Street,80226,39.7230021,-105.0719255
6745,West 3rd Place,80226,39.7229887,-105.0716336
6725,West 3rd Place,80226,39.7229569,-105.0713460
383,Otis Street,80226,39.7230025,-105.0710565
6680,West 4th Place,80226,39.7233922,-105.0704611
6600,West 4th Place,80226,39.7233951,-105.0701429
405,Newland Street,80226,39.7231644,-105.0700725
402,Otis Street,80226,39.7231677,-105.0705144
385,Newland Street,80226,39.7229430,-105.0700813
382,Otis Street,80226,39.7229543,-105.0705139
352,Otis Street,80226,39.7227625,-105.0705240
304,Otis Street,80226,39.7225398,-105.0704535
365,Newland Street,80226,39.7227104,-105.0700908
345,Newland Street,80226,39.7224747,-105.0701124
305,Newland Street,80226,39.7222556,-105.0700854
303,Newland Street,80226,39.7220675,-105.0700951
301,Newland Street,80226,39.7219245,-105.0700691
6783,West 3rd Avenue,80226,39.7219379,-105.0703839
6785,West 3rd Avenue,80226,39.7219209,-105.0706090
6787,West 3rd Avenue,80226,39.7218568,-105.0708380
6789,West 3rd Avenue,80226,39.7218389,-105.0710648
6791,West 3rd Avenue,80226,39.7218486,-105.0712856
6793,West 3rd Avenue,80226,39.7218240,-105.0714793
6795,West 3rd Avenue,80226,39.7218070,-105.0717346
6797,West 3rd Avenue,80226,39.7218105,-105.0719230
300,Pierce Street,80226,39.7222752,-105.0719227
6782,West 3rd Place,80226,39.7225238,-105.0718794
6742,West 3rd Place,80226,39.7225655,-105.0715049
6702,West 3rd Place,80226,39.7225280,-105.0711281
303,Otis Street,80226,39.7222976,-105.0710536
302,Otis Street,80226,39.7222663,-105.0705689
328,Quay Street,80226,39.7228860,-105.0729650
329,Pierce Street,80226,39.7228862,-105.0725833
323,Pierce Street,80226,39.7226813,-105.0725166
317,Pierce Street,80226,39.7224595,-105.0725323
305,Pierce Street,80226,39.7220313,-105.0724831
241,Pierce Street,80226,39.7218200,-105.0725126
235,Pierce Street,80226,39.7216077,-105.0724840
229,Pierce Street,80226,39.7214089,-105.0725075
223,Pierce Street,80226,39.7212018,-105.0725082
217,Pierce Street,80226,39.7210014,-105.0725079
211,Pierce Street,80226,39.7207902,-105.0724617
205,Pierce Street,80226,39.7205588,-105.0724843
6855,West 2nd Avenue,80226,39.7205498,-105.0727911
204,Quay Street,80226,39.7205548,-105.0731019
210,Quay Street,80226,39.7207841,-105.0731287
216,Quay Street,80226,39.7209997,-105.0730851
222,Quay Street,80226,39.7212102,-105.0731099
228,Quay Street,80226,39.7214106,-105.0730780
234,Quay Street,80226,39.7216175,-105.0730914
240,Quay Street,80226,39.7218170,-105.0730900
304,Quay Street,80226,39.7220303,-105.0730813
310,Quay Street,80226,39.7221903,-105.0730684
316,Quay Street,80226,39.7224427,-105.0730185
322,Quay Street,80226,39.7226447,-105.0729998
311,Pierce Street,80226,39.7222564,-105.0724968
6798,West 3rd Avenue,80226,39.7213731,-105.0719522
260,Pierce Street,80226,39.7208934,-105.0718786
240,Pierce Street,80226,39.7206892,-105.0718831
6795,West 2nd Avenue,80226,39.7205083,-105.0718804
6735,West 2nd Avenue,80226,39.7204910,-105.0714467
229,Newland Street,80226,39.7205567,-105.0704868
275,Newland Street,80226,39.7207729,-105.0701133
283,Newland Street,80226,39.7209294,-105.0701079
285,Newland Street,80226,39.7210786,-105.0701558
6780,West 3rd Avenue,80226,39.7215449,-105.0700452
6782,West 3rd Avenue,80226,39.7215542,-105.0702516
6784,West 3rd Avenue,80226,39.7215132,-105.0704549
6786,West 3rd Avenue,80226,39.7214038,-105.0706762
6788,West 3rd Avenue,80226,39.7214016,-105.0708809
6790,West 3rd Avenue,80226,39.7214117,-105.0710959
6792,West 3rd Avenue,80226,39.7214033,-105.0713049
6794,West 3rd Avenue,80226,39.7213809,-105.0715199
6796,West 3rd Avenue,80226,39.7214158,-105.0717447
205,Lamar Street,80226,39.7205619,-105.0676853
6495,West 2nd Avenue,80226,39.7205584,-105.0679052
225,Marshall Street,80226,39.7205524,-105.0689264
6585,West 2nd Avenue,80226,39.7205565,-105.0693322
200,Newland Street,80226,39.7205802,-105.0695711
260,Newland Street,80226,39.7208752,-105.0694992
294,Newland Street,80226,39.7210896,-105.0694740
290,Newland Street,80226,39.7215461,-105.0695470
6550,West 3rd Avenue,80226,39.7216307,-105.0691846
6480,West 3rd Avenue,80226,39.7215427,-105.0687715
265,Marshall Street,80226,39.7213207,-105.0688553
289,Marshall Street,80226,39.7210587,-105.0689065
285,Marshall Street,80226,39.7208473,-105.0688978
226,Marshall Street,80226,39.7205802,-105.0683947
256,Marshall Street,80226,39.7208087,-105.0683968
260,Marshall Street,80226,39.7211148,-105.0683406
270,Marshall Street,80226,39.7213462,-105.0682992
290,Marshall Street,80226,39.7215340,-105.0681910
6410,West 3rd Avenue,80226,39.7215413,-105.0677520
275,Lamar Street,80226,39.7213517,-105.0677113
295,Lamar Street,80226,39.7211338,-105.0677513
255,Lamar Street,80226,39.7208141,-105.0677538
201,Quay Street,80226,39.7205610,-105.0736231
6955,West 2nd Avenue,80226,39.7205447,-105.0739447
200,Reed Street,80226,39.7205542,-105.0742364
206,Reed Street,80226,39.7207777,-105.0742623
212,Reed Street,80226,39.7209904,-105.0742695
218,Reed Street,80226,39.7211962,-105.0742957
224,Reed Street,80226,39.7213938,-105.0742549
230,Reed Street,80226,39.7216070,-105.0742580
236,Reed Street,80226,39.7218150,-105.0742828
300,Reed Street,80226,39.7220401,-105.0742460
306,Reed Street,80226,39.7222368,-105.0741295
1885,South Wadsworth Boulevard,80232,39.6830927,-105.0818128
9995,West Colfax Avenue,80215,39.7406304,-105.1089024
2585,South Lewis Way,80227,39.6699455,-105.1134530
8525,West Alameda Avenue,80226,39.7115048,-105.0928026
3457,South Wadsworth Boulevard,80227,39.6542370,-105.0817589
66,South Van Gordon Street,80228,39.7141559,-105.1368688
1299,Pierce Street,80214,39.7363884,-105.0724501
6860,West 13th Avenue,80214,39.7364117,-105.0730210
6101,West 11th Avenue,80214,39.7351580,-105.0640895
5775,West 10th Avenue,80214,39.7333981,-105.0601243
5835,West 10th Avenue,80214,39.7334170,-105.0607231
1015,Gray Street,80214,39.7334377,-105.0618083
1029,Gray Street,80214,39.7337785,-105.0617977
1045,Gray Street,80214,39.7340461,-105.0617906
1055,Gray Street,80214,39.7342995,-105.0617895
1075,Gray Street,80214,39.7345895,-105.0618937
5980,West 11th Avenue,80214,39.7346001,-105.0622199
5990,West 11th Avenue,80214,39.7345263,-105.0624009
1070,Harlan Street,80214,39.7342496,-105.0623806
1050,Harlan Street,80214,39.7339688,-105.0623260
1040,Harlan Street,80214,39.7337725,-105.0623274
1020,Harlan Street,80214,39.7335769,-105.0622365
1000,Harlan Street,80214,39.7333660,-105.0623293
50,Yarrow Street,80226,39.7174394,-105.0836462
5,Yukon Street,80226,39.7168698,-105.0830197
25,Yukon Street,80226,39.7171209,-105.0829841
50,Yukon Street,80226,39.7174141,-105.0824201
20,Yukon Street,80226,39.7171682,-105.0824382
10,Yukon Street,80226,39.7168918,-105.0824229
65,Yukon Street,80226,39.7176965,-105.0830905
75,Yukon Street,80226,39.7179689,-105.0830602
45,Wadsworth Boulevard,80226,39.7174326,-105.0818907
70,Yukon Street,80226,39.7179983,-105.0824188
60,Yukon Street,80226,39.7177285,-105.0824372
70,Yarrow Street,80226,39.7179644,-105.0835684
80,Yarrow Street,80226,39.7182312,-105.0836253
680,Park Lane,80214,39.7276279,-105.0784544
1860,Denver West Drive,80401,39.7416945,-105.1642129
1880,Denver West Drive,80401,39.7424003,-105.1640933
1870,Denver West Drive,80401,39.7420050,-105.1639525
1920,Denver West Drive,80401,39.7427057,-105.1640549
1930,Denver West Drive,80401,39.7427154,-105.1635354
1960,Denver West Drive,80401,39.7430843,-105.1631928
1950,Denver West Drive,80401,39.7434287,-105.1635644
1970,Denver West Drive,80401,39.7434344,-105.1628378
1940,Denver West Drive,80401,39.7431331,-105.1639277
1600,Hoyt Street,80215,39.7416999,-105.1030745
7323,West Alaska Drive,80226,39.7093888,-105.0786619
7200,West Colfax Avenue,80214,39.7400128,-105.0780002
5540,West 3rd Place,80226,39.7219367,-105.0577328
15158,West Vassar Avenue,80228,39.6686795,-105.1681548
15164,West Vassar Avenue,80228,39.6686752,-105.1683301
15154,West Vassar Avenue,80228,39.6686790,-105.1679840
15148,West Vassar Avenue,80228,39.6686928,-105.1678187
15144,West Vassar Avenue,80228,39.6686800,-105.1676448
15168,West Vassar Avenue,80228,39.6687254,-105.1685806
2593,South Kendrick Court,80228,39.6688746,-105.1687136
2583,South Kendrick Court,80228,39.6690332,-105.1687011
2573,South Kendrick Court,80228,39.6691656,-105.1686829
2563,South Kendrick Court,80228,39.6692959,-105.1686875
2553,South Kendrick Court,80228,39.6694291,-105.1686942
2558,South Kendrick Court,80228,39.6694488,-105.1681473
2568,South Kendrick Court,80228,39.6693145,-105.1681831
2578,South Kendrick Court,80228,39.6691817,-105.1681822
2588,South Kendrick Court,80228,39.6690481,-105.1681571
10250,West Mississippi Avenue,80226,39.6961249,-105.1143297
10250,West Mississippi Avenue,80226,39.6957754,-105.1143741
5620,W 14th Ave,80214,39.7376918,-105.0587471
5400,West Cedar Avenue,80226,39.7129183,-105.0560050
245,South Benton Street,80226,39.7121266,-105.0559848
5401,West Alameda Avenue,80226,39.7117300,-105.0560776
290,South Chase Street,80226,39.7116991,-105.0565038
270,South Chase Street,80226,39.7119818,-105.0565243
250,South Chase Street,80226,39.7123411,-105.0565598
220,South Chase Street,80226,39.7126364,-105.0565521
200,South Chase Street,80226,39.7129006,-105.0565542
205,South Chase Street,80226,39.7129247,-105.0571687
225,South Chase Street,80226,39.7126002,-105.0571301
255,South Chase Street,80226,39.7122861,-105.0571295
265,South Chase Street,80226,39.7119874,-105.0571670
5505,West Alameda Avenue,80226,39.7116887,-105.0572225
290,South Depew Street,80226,39.7116512,-105.0577176
280,South Depew Street,80226,39.7120325,-105.0577006
270,South Depew Street,80226,39.7123389,-105.0576918
260,South Depew Street,80226,39.7126385,-105.0577119
250,South Depew Street,80226,39.7129188,-105.0576781
295,South Depew Street,80226,39.7117071,-105.0583613
288,South Eaton Street,80226,39.7116800,-105.0589010
270,South Eaton Street,80226,39.7120601,-105.0588902
275,South Depew Street,80226,39.7120749,-105.0583423
255,South Depew Street,80226,39.7123460,-105.0583415
240,South Eaton Street,80226,39.7123624,-105.0589091
220,South Eaton Street,80226,39.7126362,-105.0588751
235,South Depew Street,80226,39.7126375,-105.0582826
215,South Depew Street,80226,39.7128963,-105.0583225
200,South Eaton Street,80226,39.7128877,-105.0588765
265,South Fenton Street,80226,39.7121101,-105.0606123
255,South Fenton Street,80226,39.7123969,-105.0606224
205,South Fenton Street,80226,39.7129098,-105.0606384
200,South Fenton Street,80226,39.7128807,-105.0600278
220,South Fenton Street,80226,39.7126729,-105.0599811
240,South Fenton Street,80226,39.7123488,-105.0600120
245,South Eaton Street,80226,39.7123316,-105.0594473
225,South Eaton Street,80226,39.7126368,-105.0594545
205,South Eaton Street,80226,39.7128853,-105.0595088
275,South Eaton Street,80226,39.7120435,-105.0594485
5881,West Cedar Avenue,80226,39.7133030,-105.0612515
171,South Fenton Street,80226,39.7134910,-105.0611870
161,South Fenton Street,80226,39.7136975,-105.0611981
151,South Fenton Street,80226,39.7139059,-105.0612496
141,South Fenton Street,80226,39.7141297,-105.0611840
131,South Fenton Street,80226,39.7143265,-105.0612115
121,South Fenton Street,80226,39.7145129,-105.0612264
111,South Fenton Street,80226,39.7147104,-105.0611946
110,South Fenton Street,80226,39.7147115,-105.0606782
120,South Fenton Street,80226,39.7145108,-105.0606873
130,South Fenton Street,80226,39.7143126,-105.0606638
140,South Fenton Street,80226,39.7141283,-105.0606715
150,South Fenton Street,80226,39.7139263,-105.0606517
160,South Fenton Street,80226,39.7137218,-105.0606911
170,South Fenton Street,80226,39.7134964,-105.0606414
5781,West Cedar Avenue,80226,39.7133060,-105.0605579
5761,West Cedar Avenue,80226,39.7133293,-105.0599701
5741,West Cedar Avenue,80226,39.7133308,-105.0597158
5711,West Cedar Avenue,80226,39.7133094,-105.0593517
171,South Eaton Street,80226,39.7135123,-105.0593028
161,South Eaton Street,80226,39.7137297,-105.0592975
147,South Eaton Court,80226,39.7138494,-105.0596523
135,South Eaton Court,80226,39.7139766,-105.0599498
129,South Eaton Court,80226,39.7142480,-105.0601567
123,South Eaton Court,80226,39.7144490,-105.0601896
113,South Eaton Court,80226,39.7147035,-105.0601930
112,South Eaton Court,80226,39.7147365,-105.0596535
118,South Eaton Court,80226,39.7145390,-105.0596891
128,South Eaton Court,80226,39.7142853,-105.0595763
136,South Eaton Court,80226,39.7141637,-105.0593272
121,South Eaton Street,80226,39.7144941,-105.0593238
111,South Eaton Street,80226,39.7147389,-105.0593243
110,South Eaton Street,80226,39.7147250,-105.0588005
120,South Eaton Street,80226,39.7145519,-105.0588225
130,South Eaton Street,80226,39.7143339,-105.0588123
140,South Eaton Street,80226,39.7141264,-105.0587331
150,South Eaton Street,80226,39.7139374,-105.0587876
160,South Eaton Street,80226,39.7137439,-105.0587927
170,South Eaton Street,80226,39.7135424,-105.0588116
5681,West Cedar Avenue,80226,39.7133164,-105.0587576
191,South Depew Street,80226,39.7133417,-105.0582827
171,South Depew Street,80226,39.7135285,-105.0583117
161,South Depew Street,80226,39.7137395,-105.0582710
151,South Depew Street,80226,39.7139486,-105.0582903
145,South Depew Street,80226,39.7142183,-105.0583169
121,South Depew Street,80226,39.7144632,-105.0582759
111,South Depew Street,80226,39.7147179,-105.0582508
110,South Depew Street,80226,39.7147545,-105.0576869
120,South Depew Street,80226,39.7145387,-105.0577471
130,South Depew Street,80226,39.7143336,-105.0577382
140,South Depew Street,80226,39.7141471,-105.0577241
150,South Depew Street,80226,39.7139265,-105.0577192
160,South Depew Street,80226,39.7137017,-105.0576966
190,South Depew Street,80226,39.7134020,-105.0576386
5511,West Cedar Avenue,80226,39.7133557,-105.0572691
171,South Chase Street,80226,39.7135220,-105.0572468
161,South Chase Street,80226,39.7137146,-105.0572514
151,South Chase Street,80226,39.7139594,-105.0572596
141,South Chase Street,80226,39.7141421,-105.0572260
131,South Chase Street,80226,39.7143656,-105.0572460
121,South Chase Street,80226,39.7145570,-105.0572346
5510,West Bayaud Avenue,80226,39.7147384,-105.0572945
5480,West Bayaud Avenue,80226,39.7147554,-105.0566599
120,South Chase Street,80226,39.7145521,-105.0566597
130,South Chase Street,80226,39.7143490,-105.0567124
140,South Chase Street,80226,39.7141481,-105.0567096
150,South Chase Street,80226,39.7139324,-105.0567081
160,South Chase Street,80226,39.7137345,-105.0566979
170,South Chase Street,80226,39.7135380,-105.0566991
5481,West Cedar Avenue,80226,39.7133455,-105.0566597
191,South Benton Street,80226,39.7133592,-105.0562654
171,South Benton Street,80226,39.7135305,-105.0561992
161,South Benton Street,80226,39.7137419,-105.0561826
151,South Benton Street,80226,39.7139447,-105.0562018
141,South Benton Street,80226,39.7141546,-105.0561995
131,South Benton Street,80226,39.7143534,-105.0561939
121,South Benton Street,80226,39.7145595,-105.0561882
5410,West Bayaud Avenue,80226,39.7147602,-105.0562182
5380,West Bayaud Avenue,80226,39.7147664,-105.0556326
5340,West Bayaud Avenue,80226,39.7147528,-105.0552203
121,South Ames Street,80226,39.7145736,-105.0552072
120,South Benton Street,80226,39.7145672,-105.0556450
130,South Benton Street,80226,39.7143586,-105.0556629
131,South Ames Street,80226,39.7143565,-105.0552048
141,South Ames Street,80226,39.7141584,-105.0551888
140,South Benton Street,80226,39.7141495,-105.0556578
150,South Benton Street,80226,39.7139520,-105.0556668
151,South Ames Street,80226,39.7139545,-105.0551996
161,South Ames Street,80226,39.7137415,-105.0551983
160,South Benton Street,80226,39.7137375,-105.0556573
170,South Benton Street,80226,39.7135315,-105.0556567
190,South Benton Street,80226,39.7133594,-105.0556456
191,South Ames Street,80226,39.7133529,-105.0551840
171,South Ames Street,80226,39.7135296,-105.0552023
5310,West Bayaud Avenue,80226,39.7147540,-105.0546035
120,South Ames Street,80226,39.7145527,-105.0546020
130,South Ames Street,80226,39.7143598,-105.0546279
140,South Ames Street,80226,39.7141581,-105.0546310
150,South Ames Street,80226,39.7139497,-105.0546089
160,South Ames Street,80226,39.7137363,-105.0545767
170,South Ames Street,80226,39.7135420,-105.0546030
5311,West Bayaud Avenue,80226,39.7152088,-105.0547572
5341,West Bayaud Avenue,80226,39.7151875,-105.0550157
5361,West Bayaud Avenue,80226,39.7151876,-105.0552948
90,South Benton Drive,80226,39.7152177,-105.0556433
80,South Benton Drive,80226,39.7154799,-105.0554401
70,South Benton Drive,80226,39.7156777,-105.0552731
60,South Benton Drive,80226,39.7158395,-105.0550975
50,South Benton Drive,80226,39.7160545,-105.0547542
61,South Ames Street,80226,39.7158246,-105.0547296
71,South Ames Street,80226,39.7155981,-105.0547439
81,South Ames Street,80226,39.7154074,-105.0547285
5411,West Bayaud Avenue,80226,39.7151762,-105.0562690
85,South Benton Drive,80226,39.7153974,-105.0561417
79,South Benton Drive,80226,39.7156006,-105.0559637
73,South Benton Drive,80226,39.7157675,-105.0558979
67,South Benton Drive,80226,39.7159240,-105.0556669
61,South Benton Drive,80226,39.7161289,-105.0555749
55,South Benton Drive,80226,39.7162908,-105.0553644
49,South Benton Drive,80226,39.7164908,-105.0551281
43,South Benton Drive,80226,39.7164724,-105.0547947
37,South Ames Street,80226,39.7166597,-105.0547612
31,South Ames Street,80226,39.7168731,-105.0547807
21,South Ames Street,80226,39.7170627,-105.0547686
13,South Ames Street,80226,39.7172762,-105.0547639
11,Ames Street,80226,39.7174741,-105.0547573
23,Ames Street,80226,39.7176778,-105.0547632
33,Ames Street,80226,39.7178854,-105.0547758
41,Ames Street,80226,39.7180886,-105.0547365
5300,West 1st Avenue,80226,39.7184174,-105.0546356
5310,West 1st Avenue,80226,39.7183816,-105.0549182
5390,West 1st Avenue,80226,39.7183841,-105.0553400
80,Benton Street,80226,39.7181773,-105.0553497
40,Benton Street,80226,39.7179745,-105.0553984
30,Benton Street,80226,39.7177559,-105.0553799
20,Benton Street,80226,39.7175425,-105.0553356
10,Benton Street,80226,39.7173041,-105.0553716
12,South Chase Drive,80226,39.7171243,-105.0554192
18,South Chase Drive,80226,39.7168770,-105.0554899
24,South Chase Drive,80226,39.7166908,-105.0556160
28,South Chase Drive,80226,39.7165411,-105.0557659
34,South Chase Drive,80226,39.7163481,-105.0559357
40,South Chase Drive,80226,39.7161794,-105.0560744
50,South Chase Drive,80226,39.7160163,-105.0562235
60,South Chase Drive,80226,39.7158544,-105.0563684
70,South Chase Drive,80226,39.7156561,-105.0565287
80,South Chase Drive,80226,39.7154348,-105.0566519
90,South Chase Drive,80226,39.7151885,-105.0566888
30,Ames Street,80226,39.7179657,-105.0541890
20,Ames Street,80226,39.7177612,-105.0541922
10,Ames Street,80226,39.7175518,-105.0541764
12,South Ames Street,80226,39.7173427,-105.0541585
18,South Ames Street,80226,39.7171456,-105.0541808
24,South Ames Street,80226,39.7169345,-105.0541696
30,South Ames Street,80226,39.7167331,-105.0541767
36,South Ames Street,80226,39.7165132,-105.0541614
42,South Ames Street,80226,39.7162766,-105.0541583
55,Sheridan Boulevard,80226,39.7175410,-105.0536048
35,Sheridan Boulevard,80226,39.7169710,-105.0535535
25,Sheridan Boulevard,80226,39.7168052,-105.0535437
33,Sheridan Boulevard,80226,39.7169362,-105.0538239
19,South Sheridan Boulevard,80226,39.7163874,-105.0537008
51,Benton Street,80226,39.7181813,-105.0559092
41,Benton Street,80226,39.7179733,-105.0558872
31,Benton Street,80226,39.7177629,-105.0559016
21,Benton Street,80226,39.7175582,-105.0558905
11,Benton Street,80226,39.7173347,-105.0558846
15,South Chase Drive,80226,39.7170915,-105.0559593
21,South Chase Drive,80226,39.7168919,-105.0560621
27,South Chase Drive,80226,39.7167247,-105.0562000
33,South Chase Drive,80226,39.7165569,-105.0563539
41,South Chase Drive,80226,39.7163930,-105.0565360
51,South Chase Drive,80226,39.7162012,-105.0566717
61,South Chase Drive,80226,39.7160424,-105.0568027
71,South Chase Drive,80226,39.7158705,-105.0569565
81,South Chase Drive,80226,39.7156585,-105.0571045
91,South Chase Drive,80226,39.7154273,-105.0571997
95,South Chase Drive,80226,39.7152026,-105.0572274
96,South Depew Drive,80226,39.7151690,-105.0577330
90,South Depew Drive,80226,39.7153645,-105.0577125
80,South Depew Drive,80226,39.7155721,-105.0576649
70,South Depew Drive,80226,39.7157760,-105.0575990
60,South Depew Drive,80226,39.7159606,-105.0574893
50,South Depew Drive,80226,39.7161488,-105.0573568
40,South Depew Drive,80226,39.7163034,-105.0572248
34,South Depew Drive,80226,39.7164910,-105.0570529
28,South Depew Drive,80226,39.7166443,-105.0569029
24,South Depew Drive,80226,39.7168302,-105.0567500
18,South Depew Drive,80226,39.7170237,-105.0566056
14,South Depew Drive,80226,39.7172746,-105.0565742
10,Chase Street,80226,39.7174717,-105.0565088
20,Chase Street,80226,39.7176581,-105.0565634
30,Chase Street,80226,39.7178368,-105.0565486
40,Chase Street,80226,39.7180177,-105.0565817
5400,West 1st Avenue,80226,39.7182993,-105.0564762
95,South Depew Drive,80226,39.7151454,-105.0582449
91,South Depew Drive,80226,39.7153747,-105.0582553
81,South Depew Drive,80226,39.7155975,-105.0581792
71,South Depew Drive,80226,39.7158075,-105.0581101
61,South Depew Drive,80226,39.7160102,-105.0579963
51,South Depew Drive,80226,39.7162661,-105.0578691
41,South Depew Street,80226,39.7164896,-105.0579858
31,South Depew Street,80226,39.7166951,-105.0581452
21,South Depew Street,80226,39.7169399,-105.0582399
11,South Depew Street,80226,39.7171225,-105.0582831
10,South Eaton Street,80226,39.7171200,-105.0585967
20,South Eaton Street,80226,39.7168991,-105.0586048
30,South Eaton Street,80226,39.7166937,-105.0586050
40,South Eaton Street,80226,39.7164599,-105.0586225
50,South Eaton Street,80226,39.7162309,-105.0585846
60,South Eaton Street,80226,39.7160157,-105.0586273
70,South Eaton Street,80226,39.7158196,-105.0586984
80,South Eaton Street,80226,39.7155745,-105.0587394
90,South Eaton Street,80226,39.7153727,-105.0587807
98,South Eaton Street,80226,39.7151780,-105.0587247
32,South Depew Street,80226,39.7167086,-105.0574974
23,South Depew Drive,80226,39.7169295,-105.0572968
15,South Depew Drive,80226,39.7171438,-105.0571249
11,Chase Street,80226,39.7174003,-105.0570795
21,Chase Street,80226,39.7175931,-105.0570986
31,Chase Street,80226,39.7178074,-105.0570781
5510,West 1st Avenue,80226,39.7181492,-105.0571746
5590,West 1st Avenue,80226,39.7183719,-105.0576449
30,Depew Street,80226,39.7178155,-105.0577435
20,Depew Street,80226,39.7176181,-105.0577200
10,Depew Street,80226,39.7174099,-105.0577081
12,South Depew Street,80226,39.7172087,-105.0577132
22,South Depew Street,80226,39.7170083,-105.0577305
5660,West Ellsworth Avenue,80226,39.7174792,-105.0583460
35,Depew Street,80226,39.7177106,-105.0582644
40,Eaton Street,80226,39.7176842,-105.0589174
50,Eaton Street,80226,39.7178433,-105.0589132
54,Eaton Street,80226,39.7179361,-105.0588166
56,Eaton Street,80226,39.7180304,-105.0588420
5600,West 1st Avenue,80226,39.7183486,-105.0584796
5580,West 1st Avenue,80226,39.7183793,-105.0582535
5,Eaton Street,80226,39.7175278,-105.0594518
15,Eaton Street,80226,39.7177347,-105.0594305
55,Eaton Street,80226,39.7179425,-105.0594679
5700,West 1st Avenue,80226,39.7182206,-105.0593695
5710,West 1st Avenue,80226,39.7183232,-105.0597323
90,Fenton Street,80226,39.7183218,-105.0600503
40,Fenton Street,80226,39.7177056,-105.0600745
42,Fenton Street,80226,39.7178814,-105.0600735
10,Fenton Street,80226,39.7175516,-105.0600129
5805,West Ellsworth Avenue,80226,39.7175591,-105.0606112
5825,West Ellsworth Avenue,80226,39.7175386,-105.0608898
20,Gray Street,80226,39.7175913,-105.0612407
40,Gray Street,80226,39.7178257,-105.0612262
90,Gray Street,80226,39.7179998,-105.0611404
5890,West 1st Avenue,80226,39.7183438,-105.0611448
11,South Eaton Street,80226,39.7171352,-105.0591317
21,South Eaton Street,80226,39.7169595,-105.0591182
31,South Eaton Street,80226,39.7167748,-105.0591370
41,South Eaton Street,80226,39.7165514,-105.0591084
51,South Eaton Street,80226,39.7163612,-105.0591371
61,South Eaton Street,80226,39.7161289,-105.0591776
71,South Eaton Street,80226,39.7159117,-105.0592024
81,South Eaton Street,80226,39.7156571,-105.0592593
91,South Eaton Street,80226,39.7154310,-105.0592909
95,South Eaton Street,80226,39.7151542,-105.0593767
96,South Eaton Court,80226,39.7151553,-105.0596635
90,South Eaton Court,80226,39.7154367,-105.0596879
80,South Eaton Court,80226,39.7156751,-105.0596492
70,South Eaton Court,80226,39.7159077,-105.0596278
60,South Eaton Court,80226,39.7161391,-105.0596443
50,South Eaton Court,80226,39.7163578,-105.0596197
40,South Eaton Court,80226,39.7165458,-105.0596487
30,South Eaton Court,80226,39.7167625,-105.0596533
20,South Eaton Court,80226,39.7169564,-105.0596602
10,South Eaton Court,80226,39.7171283,-105.0596027
95,South Eaton Court,80226,39.7151570,-105.0601909
91,South Eaton Court,80226,39.7154588,-105.0602121
81,South Eaton Court,80226,39.7157083,-105.0602005
71,South Eaton Court,80226,39.7159197,-105.0601743
61,South Eaton Court,80226,39.7161474,-105.0601765
51,South Eaton Court,80226,39.7163348,-105.0601360
41,South Eaton Court,80226,39.7165631,-105.0601687
31,South Eaton Court,80226,39.7167652,-105.0601685
21,South Eaton Court,80226,39.7169741,-105.0601572
11,South Eaton Court,80226,39.7171285,-105.0602033
10,South Fenton Street,80226,39.7171210,-105.0606754
20,South Fenton Street,80226,39.7169107,-105.0606907
30,South Fenton Street,80226,39.7167192,-105.0606964
40,South Fenton Street,80226,39.7164957,-105.0607161
50,South Fenton Street,80226,39.7162698,-105.0607041
60,South Fenton Street,80226,39.7160456,-105.0607170
70,South Fenton Street,80226,39.7158317,-105.0606981
80,South Fenton Street,80226,39.7155700,-105.0606923
90,South Fenton Street,80226,39.7153443,-105.0606862
96,South Fenton Street,80226,39.7151501,-105.0607148
5881,West Bayaud Avenue,80226,39.7151127,-105.0612206
81,South Fenton Street,80226,39.7154577,-105.0611833
71,South Fenton Street,80226,39.7156839,-105.0612242
61,South Fenton Street,80226,39.7159339,-105.0611767
51,South Fenton Street,80226,39.7161536,-105.0611732
41,South Fenton Street,80226,39.7164281,-105.0612058
31,South Fenton Street,80226,39.7166369,-105.0612521
21,South Fenton Street,80226,39.7169090,-105.0612044
11,South Fenton Street,80226,39.7171153,-105.0612211
85,South Gray Street,80226,39.7151084,-105.0617520
5959,West Bayaud Avenue,80226,39.7150961,-105.0620015
80,South Harlan Street,80226,39.7150910,-105.0624162
74,South Harlan Street,80226,39.7152349,-105.0623861
70,South Harlan Street,80226,39.7154622,-105.0623503
30,South Harlan Street,80226,39.7168536,-105.0623939
20,South Harlan Street,80226,39.7172850,-105.0624577
214,South Ingalls Street,80226,39.7128439,-105.0635266
235,South Harlan Street,80226,39.7127998,-105.0630324
225,South Harlan Street,80226,39.7131241,-105.0631441
210,South Ingalls Street,80226,39.7130365,-105.0635273
175,South Harlan Street,80226,39.7134746,-105.0630805
155,South Harlan Street,80226,39.7138506,-105.0629953
150,South Ingalls Street,80226,39.7138150,-105.0636467
275,South Jay Street,80226,39.7119661,-105.0656914
280,South Jay Street,80226,39.7123820,-105.0646098
260,South Jay Street,80226,39.7126528,-105.0647949
220,South Jay Street,80226,39.7129295,-105.0647909
190,South Jay Street,80226,39.7132110,-105.0647848
180,South Jay Street,80226,39.7134056,-105.0647811
170,South Jay Street,80226,39.7137272,-105.0647902
130,South Jay Street,80226,39.7139983,-105.0646260
145,South Ingalls Street,80226,39.7140359,-105.0641189
120,South Jay Street,80226,39.7142169,-105.0647989
110,South Jay Street,80226,39.7144485,-105.0648106
123,South Ingalls Street,80226,39.7145654,-105.0641299
105,South Ingalls Street,80226,39.7147152,-105.0641558
120,South Ingalls Street,80226,39.7145398,-105.0636583
100,South Ingalls Street,80226,39.7147954,-105.0635894
105,South Harlan Street,80226,39.7147419,-105.0630535
115,South Harlan Street,80226,39.7145304,-105.0630499
121,South Harlan Street,80226,39.7143246,-105.0630674
125,South Harlan Street,80226,39.7140972,-105.0629946
90,Ingalls Street,80226,39.7183394,-105.0636327
80,Ingalls Street,80226,39.7181866,-105.0636461
70,Ingalls Street,80226,39.7180430,-105.0636580
60,Ingalls Street,80226,39.7178786,-105.0636632
55,Harlan Street,80226,39.7173904,-105.0630167
35,Harlan Street,80226,39.7171802,-105.0630539
25,Harlan Street,80226,39.7169623,-105.0630295
2,Ingalls Street,80226,39.7168956,-105.0636693
10,Ingalls Street,80226,39.7170558,-105.0636609
20,Ingalls Street,80226,39.7172239,-105.0636757
30,Ingalls Street,80226,39.7174007,-105.0636639
8,South Ingalls Street,80226,39.7167379,-105.0636688
18,South Ingalls Street,80226,39.7165621,-105.0636703
28,South Ingalls Street,80226,39.7164010,-105.0636350
38,South Ingalls Street,80226,39.7162394,-105.0636451
48,South Ingalls Street,80226,39.7160692,-105.0636354
35,South Harlan Street,80226,39.7164055,-105.0631292
15,South Harlan Street,80226,39.7165839,-105.0630070
59,South Harlan Street,80226,39.7162302,-105.0630167
65,South Harlan Street,80226,39.7159344,-105.0630596
75,South Harlan Street,80226,39.7157250,-105.0630367
68,South Ingalls Street,80226,39.7157478,-105.0636480
58,South Ingalls Street,80226,39.7159109,-105.0636499
72,South Ingalls Street,80226,39.7155800,-105.0636528
78,South Ingalls Street,80226,39.7154579,-105.0636380
80,South Ingalls Street,80226,39.7152996,-105.0636814
88,South Ingalls Street,80226,39.7151750,-105.0636466
90,South Ingalls Street,80226,39.7150299,-105.0636684
79,South Harlan Street,80226,39.7153917,-105.0630541
81,South Harlan Street,80226,39.7151965,-105.0630057
85,South Harlan Street,80226,39.7150227,-105.0630412
6120,West 1st Avenue,80226,39.7183357,-105.0643637
89,Ingalls Street,80226,39.7181732,-105.0641525
85,Ingalls Street,80226,39.7180352,-105.0641539
79,Ingalls Street,80226,39.7178997,-105.0641727
75,Ingalls Street,80226,39.7177678,-105.0641483
65,Ingalls Street,80226,39.7176256,-105.0641621
55,Ingalls Street,80226,39.7174900,-105.0641217
45,Ingalls Street,80226,39.7173502,-105.0641362
35,Ingalls Street,80226,39.7172164,-105.0641310
25,Ingalls Street,80226,39.7170733,-105.0641629
15,Ingalls Street,80226,39.7169401,-105.0641310
5,Ingalls Street,80226,39.7168043,-105.0641308
1,South Ingalls Street,80226,39.7166235,-105.0641594
25,South Ingalls Street,80226,39.7164956,-105.0641966
35,South Ingalls Street,80226,39.7162606,-105.0641488
45,South Ingalls Street,80226,39.7160835,-105.0641701
55,South Ingalls Street,80226,39.7159137,-105.0641536
67,South Ingalls Street,80226,39.7157543,-105.0641495
75,South Ingalls Street,80226,39.7156038,-105.0641482
77,South Ingalls Street,80226,39.7154735,-105.0641830
81,South Ingalls Street,80226,39.7153461,-105.0641763
87,South Ingalls Street,80226,39.7152068,-105.0641824
97,South Ingalls Street,80226,39.7150640,-105.0641515
98,South Jay Street,80226,39.7151680,-105.0648167
86,South Jay Street,80226,39.7153423,-105.0648324
80,South Jay Street,80226,39.7156820,-105.0648601
70,South Jay Street,80226,39.7159067,-105.0648392
60,South Jay Street,80226,39.7161053,-105.0648415
30,South Jay Street,80226,39.7164446,-105.0648202
50,South Jay Street,80226,39.7163021,-105.0648101
10,South Jay Street,80226,39.7166618,-105.0648247
14,Jay Street,80226,39.7168006,-105.0648207
20,Jay Street,80226,39.7169269,-105.0647743
26,Jay Street,80226,39.7170708,-105.0647995
32,Jay Street,80226,39.7171954,-105.0648130
38,Jay Street,80226,39.7173322,-105.0648153
48,Jay Street,80226,39.7174809,-105.0647932
54,Jay Street,80226,39.7176189,-105.0648293
60,Jay Street,80226,39.7177716,-105.0648093
66,Jay Street,80226,39.7179291,-105.0648107
80,Jay Street,80226,39.7181051,-105.0648793
6190,West 1st Avenue,80226,39.7182856,-105.0648494
285,South Jay Street,80226,39.7125726,-105.0657017
231,South Jay Street,80226,39.7129515,-105.0653387
227,South Jay Street,80226,39.7132227,-105.0654262
161,South Jay Street,80226,39.7138587,-105.0654348
221,South Jay Street,80226,39.7133892,-105.0653503
155,South Jay Street,80226,39.7140974,-105.0653490
125,South Jay Street,80226,39.7143027,-105.0653401
115,South Jay Street,80226,39.7144830,-105.0653704
140,South Kendall Street,80226,39.7140902,-105.0660146
120,South Kendall Street,80226,39.7142963,-105.0660161
110,South Kendall Street,80226,39.7145201,-105.0660027
105,South Jay Street,80226,39.7147245,-105.0653775
102,South Kendall Street,80226,39.7147507,-105.0657707
100,South Kendall Street,80226,39.7147400,-105.0660195
90,South Kendall Street,80226,39.7150776,-105.0659637
84,South Kendall Street,80226,39.7152806,-105.0659530
95,South Jay Street,80226,39.7150885,-105.0653803
85,South Jay Street,80226,39.7154671,-105.0653626
60,South Kendall Street,80226,39.7154750,-105.0659596
78,South Kendall Street,80226,39.7157132,-105.0660486
72,South Kendall Street,80226,39.7159431,-105.0660241
77,South Jay Street,80226,39.7157361,-105.0653955
71,South Jay Street,80226,39.7159271,-105.0653858
9,South Jay Street,80226,39.7161489,-105.0654111
62,South Kendall Street,80226,39.7163487,-105.0659897
66,South Kendall Street,80226,39.7161731,-105.0660078
7,South Jay Street,80226,39.7163774,-105.0653932
5,South Jay Street,80226,39.7165418,-105.0653726
8,South Kendall Street,80226,39.7165279,-105.0659732
5,Jay Street,80226,39.7169079,-105.0653665
2,Kendall Street,80226,39.7169262,-105.0660165
26,Kendall Street,80226,39.7171419,-105.0659523
25,Jay Street,80226,39.7171106,-105.0653955
29,Jay Street,80226,39.7173194,-105.0653521
30,Kendall Street,80226,39.7173350,-105.0659890
40,Kendall Street,80226,39.7175278,-105.0660185
31,Jay Street,80226,39.7175088,-105.0653582
65,Jay Street,80226,39.7177606,-105.0653382
75,Jay Street,80226,39.7179267,-105.0653502
70,Kendall Street,80226,39.7177135,-105.0659929
80,Kendall Street,80226,39.7179780,-105.0660176
90,Kendall Street,80226,39.7181414,-105.0660150
6290,West 1st Avenue,80226,39.7183088,-105.0659345
97,Jay Street,80226,39.7183148,-105.0653652
6300,West 1st Avenue,80226,39.7182961,-105.0665855
6360,West 1st Avenue,80226,39.7182804,-105.0670571
80,Lamar Street,80226,39.7179675,-105.0671554
85,Kendall Street,80226,39.7180715,-105.0665637
75,Kendall Street,80226,39.7177572,-105.0665294
70,Lamar Street,80226,39.7176976,-105.0669736
72,Lamar Street,80226,39.7174512,-105.0671507
45,Kendall Street,80226,39.7175074,-105.0665772
20,Lamar Street,80226,39.7172279,-105.0671402
25,Kendall Street,80226,39.7171852,-105.0665637
5,Kendall Street,80226,39.7169175,-105.0666151
10,Lamar Street,80226,39.7169403,-105.0671075
16,South Lamar Street,80226,39.7164749,-105.0671840
6380,West Ellsworth Avenue,80226,39.7163989,-105.0668830
5,South Kendall Street,80226,39.7165087,-105.0665162
15,South Kendall Street,80226,39.7161697,-105.0665473
36,South Lamar Street,80226,39.7161353,-105.0671299
40,South Lamar Street,80226,39.7158912,-105.0671024
45,South Kendall Street,80226,39.7158827,-105.0665450
55,South Kendall Street,80226,39.7156730,-105.0665441
50,South Lamar Street,80226,39.7156797,-105.0671102
60,South Lamar Street,80226,39.7154714,-105.0671387
66,South Lamar Street,80226,39.7152696,-105.0671224
90,South Lamar Street,80226,39.7150378,-105.0671120
95,South Kendall Street,80226,39.7149982,-105.0666831
75,South Kendall Street,80226,39.7152828,-105.0665209
65,South Kendall Street,80226,39.7154690,-105.0665411
125,South Kendall Street,80226,39.7145280,-105.0665231
130,South Lamar Street,80226,39.7145247,-105.0671538
140,South Lamar Street,80226,39.7142238,-105.0671205
160,South Lamar Street,80226,39.7138942,-105.0671528
145,South Kendall Street,80226,39.7141016,-105.0665733
135,South Kendall Street,80226,39.7143135,-105.0665432
180,South Lamar Street,80226,39.7134537,-105.0671575
170,South Lamar Street,80226,39.7136743,-105.0671784
210,South Lamar Street,80226,39.7128259,-105.0671680
220,South Lamar Street,80226,39.7126271,-105.0671680
261,South Lamar Street,80226,39.7116597,-105.0676253
255,South Lamar Street,80226,39.7118758,-105.0676881
253,South Lamar Street,80226,39.7120526,-105.0676839
235,South Lamar Street,80226,39.7125130,-105.0676829
230,South Marshall Street,80226,39.7125201,-105.0681680
220,South Marshall Street,80226,39.7126792,-105.0681604
225,South Lamar Street,80226,39.7128072,-105.0676952
6400,West Cedar Place,80226,39.7132961,-105.0677405
6432,West Cedar Place,80226,39.7133253,-105.0680096
294,South Newland Street,80226,39.7120228,-105.0689311
290,South Newland Street,80226,39.7123337,-105.0689288
250,South Newland Street,80226,39.7126514,-105.0689313
206,South Pierce Street,80226,39.7132043,-105.0719041
190,South Pierce Street,80226,39.7137774,-105.0718984
6677,West Cedar Place,80226,39.7137088,-105.0707316
6645,West Cedar Place,80226,39.7138903,-105.0701744
187,South Newland Street,80226,39.7140682,-105.0701638
177,South Newland Street,80226,39.7143683,-105.0701169
160,South Pierce Street,80226,39.7141745,-105.0711622
170,South Pierce Street,80226,39.7140155,-105.0716367
180,South Pierce Street,80226,39.7140696,-105.0719102
6485,West Cedar Place,80226,39.7137216,-105.0686209
6475,West Cedar Place,80226,39.7137572,-105.0684048
6445,West Cedar Place,80226,39.7138972,-105.0681106
125,South Lamar Street,80226,39.7141515,-105.0677456
115,South Lamar Street,80226,39.7143829,-105.0677816
6500,West Bayaud Avenue,80226,39.7143533,-105.0682802
107,South Lamar Street,80226,39.7145767,-105.0677298
105,South Lamar Street,80226,39.7146396,-105.0678341
110,South Newland Street,80226,39.7143542,-105.0694852
200,South Newland Street,80226,39.7146163,-105.0694762
6540,West Bayaud Avenue,80226,39.7146815,-105.0691379
6530,West Bayaud Avenue,80226,39.7146228,-105.0688525
99,South Marshall Street,80226,39.7150862,-105.0689022
198,South Newland Street,80226,39.7150278,-105.0695392
150,South Newland Street,80226,39.7152184,-105.0695543
97,South Marshall Street,80226,39.7152590,-105.0689037
95,South Marshall Street,80226,39.7156613,-105.0689057
99,South Lamar Street,80226,39.7150772,-105.0677888
91,South Lamar Street,80226,39.7152984,-105.0677299
80,South Marshall Street,80226,39.7156671,-105.0684198
95,South Lamar Street,80226,39.7156347,-105.0677497
35,South Lamar Street,80226,39.7160739,-105.0677716
49,South Marshall Street,80226,39.7160926,-105.0689230
98,South Newland Street,80226,39.7161435,-105.0693062
96,South Newland Street,80226,39.7160658,-105.0694395
25,South Lamar Street,80226,39.7163400,-105.0677376
21,South Lamar Street,80226,39.7165398,-105.0677468
19,South Lamar Street,80226,39.7167381,-105.0677418
40,South Marshall Street,80226,39.7163926,-105.0684511
34,South Marshall Street,80226,39.7166515,-105.0683988
30,South Marshall Street,80226,39.7169376,-105.0684087
15,Lamar Street,80226,39.7169368,-105.0677439
25,Lamar Street,80226,39.7172035,-105.0677433
85,Lamar Street,80226,39.7173949,-105.0678510
30,Marshall Street,80226,39.7172171,-105.0684275
70,Marshall Street,80226,39.7174945,-105.0683345
87,Lamar Street,80226,39.7175535,-105.0676883
71,Lamar Street,80226,39.7177442,-105.0677613
89,Lamar Street,80226,39.7179853,-105.0677647
80,Marshall Street,80226,39.7180142,-105.0683145
6440,West 1st Avenue,80226,39.7182918,-105.0683216
6420,West 1st Avenue,80226,39.7183178,-105.0680048
80,South Newland Street,80226,39.7163037,-105.0694468
9,South Marshall Street,80226,39.7168401,-105.0689186
28,South Newland Street,80226,39.7168268,-105.0691970
30,South Newland Street,80226,39.7167768,-105.0695437
40,South Newland Street,80226,39.7165938,-105.0695209
7,South Marshall Street,80226,39.7170952,-105.0688751
24,South Newland Street,80226,39.7170528,-105.0692230
20,South Newland Street,80226,39.7171120,-105.0695282
10,South Newland Street,80226,39.7175517,-105.0693989
60,Newland Street,80226,39.7179019,-105.0695688
40,Newland Street,80226,39.7176920,-105.0695616
77,Marshall Street,80226,39.7177383,-105.0688749
87,Marshall Street,80226,39.7179426,-105.0689569
80,Newland Street,80226,39.7180975,-105.0695679
6590,West 1st Avenue,80226,39.7183101,-105.0695127
6540,West 1st Avenue,80226,39.7182918,-105.0691343
6520,West 1st Avenue,80226,39.7182962,-105.0688990
6648,West Bayaud Avenue,80226,39.7147546,-105.0708137
139,South Newland Street,80226,39.7152696,-105.0701725
137,South Newland Street,80226,39.7154103,-105.0703128
14,Pierce Street,80226,39.7167474,-105.0719040
40,Pierce Street,80226,39.7174975,-105.0717953
60,Pierce Street,80226,39.7177405,-105.0718384
70,Pierce Street,80226,39.7179766,-105.0718523
90,Pierce Street,80226,39.7182283,-105.0717916
189,South Pierce Street,80226,39.7132414,-105.0725082
177,South Pierce Street,80226,39.7134322,-105.0724453
165,South Pierce Street,80226,39.7136426,-105.0724409
153,South Pierce Street,80226,39.7138574,-105.0724569
141,South Pierce Street,80226,39.7140396,-105.0724485
129,South Pierce Street,80226,39.7142547,-105.0724599
117,South Pierce Street,80226,39.7144600,-105.0724527
105,South Pierce Street,80226,39.7146482,-105.0724511
110,South Quay Street,80226,39.7146498,-105.0728744
122,South Quay Street,80226,39.7144635,-105.0728696
134,South Quay Street,80226,39.7142578,-105.0728499
146,South Quay Street,80226,39.7140506,-105.0728568
158,South Quay Street,80226,39.7138436,-105.0728640
170,South Quay Street,80226,39.7136372,-105.0728314
182,South Quay Street,80226,39.7134434,-105.0728455
194,South Quay Street,80226,39.7132481,-105.0727914
189,South Quay Street,80226,39.7132433,-105.0733634
177,South Quay Street,80226,39.7134332,-105.0733818
165,South Quay Street,80226,39.7136358,-105.0733960
153,South Quay Street,80226,39.7138457,-105.0733965
141,South Quay Street,80226,39.7140491,-105.0734037
129,South Quay Street,80226,39.7142546,-105.0733685
117,South Quay Street,80226,39.7144620,-105.0733774
105,South Quay Street,80226,39.7146423,-105.0733846
110,South Reed Street,80226,39.7146412,-105.0737586
122,South Reed Street,80226,39.7144664,-105.0737892
134,South Reed Street,80226,39.7142403,-105.0737832
146,South Reed Street,80226,39.7140369,-105.0737251
158,South Reed Street,80226,39.7138494,-105.0737862
170,South Reed Street,80226,39.7136346,-105.0737797
182,South Reed Street,80226,39.7134367,-105.0737867
194,South Reed Street,80226,39.7132421,-105.0737580
189,South Reed Street,80226,39.7132409,-105.0743522
177,South Reed Street,80226,39.7134375,-105.0742959
165,South Reed Street,80226,39.7136393,-105.0743185
153,South Reed Street,80226,39.7138481,-105.0743103
141,South Reed Street,80226,39.7140486,-105.0743226
129,South Reed Street,80226,39.7142576,-105.0743152
117,South Reed Street,80226,39.7144624,-105.0743046
105,South Reed Street,80226,39.7146310,-105.0743155
110,South Reed Court,80226,39.7146432,-105.0746731
122,South Reed Court,80226,39.7144564,-105.0747451
134,South Reed Court,80226,39.7142530,-105.0747350
146,South Reed Court,80226,39.7140571,-105.0747402
158,South Reed Court,80226,39.7138389,-105.0747294
170,South Reed Court,80226,39.7136318,-105.0747364
182,South Reed Court,80226,39.7134266,-105.0747273
194,South Reed Court,80226,39.7132393,-105.0747293
105,South Reed Court,80226,39.7146345,-105.0752570
117,South Reed Court,80226,39.7144500,-105.0752493
129,South Reed Court,80226,39.7142493,-105.0752349
141,South Reed Court,80226,39.7140431,-105.0752304
153,South Reed Court,80226,39.7138372,-105.0752487
165,South Reed Court,80226,39.7136301,-105.0752521
177,South Reed Court,80226,39.7134248,-105.0752289
189,South Reed Court,80226,39.7132382,-105.0752693
194,South Saulsbury Street,80226,39.7132250,-105.0755947
182,South Saulsbury Street,80226,39.7134253,-105.0756439
170,South Saulsbury Street,80226,39.7136292,-105.0756566
158,South Saulsbury Street,80226,39.7138469,-105.0755911
146,South Saulsbury Street,80226,39.7140426,-105.0756536
134,South Saulsbury Street,80226,39.7142468,-105.0756607
122,South Saulsbury Street,80226,39.7144538,-105.0756442
7090,West Bayaud Avenue,80226,39.7146552,-105.0756238
7130,West Bayaud Avenue,80226,39.7146486,-105.0762259
110,South Teller Street,80226,39.7146343,-105.0765538
122,South Teller Street,80226,39.7144487,-105.0765867
117,South Saulsbury Street,80226,39.7144542,-105.0761703
129,South Saulsbury Street,80226,39.7142480,-105.0761649
134,South Teller Street,80226,39.7142602,-105.0765820
146,South Teller Street,80226,39.7140204,-105.0765884
141,South Saulsbury Street,80226,39.7140394,-105.0761914
153,South Saulsbury Street,80226,39.7138332,-105.0761649
158,South Teller Street,80226,39.7138353,-105.0765998
170,South Teller Street,80226,39.7136291,-105.0765845
182,South Teller Street,80226,39.7134209,-105.0765833
194,South Teller Street,80226,39.7132328,-105.0765638
189,South Saulsbury Street,80226,39.7132350,-105.0761950
177,South Saulsbury Street,80226,39.7134218,-105.0761939
165,South Saulsbury Street,80226,39.7136292,-105.0761667
7248,West Cedar Circle,80226,39.7128484,-105.0771046
7424,West Cedar Circle,80226,39.7128307,-105.0799073
60,South Upham Court,80226,39.7151041,-105.0778133
7429,West Maple Drive,80226,39.7154628,-105.0800195
95,South Pierce Street,80226,39.7150950,-105.0724449
6835,West Bayaud Avenue,80226,39.7150578,-105.0728034
6865,West Bayaud Avenue,80226,39.7150743,-105.0730622
6895,West Bayaud Avenue,80226,39.7150553,-105.0733260
6925,West Bayaud Avenue,80226,39.7150799,-105.0735895
6945,West Bayaud Avenue,80226,39.7150549,-105.0738561
6965,West Bayaud Avenue,80226,39.7150522,-105.0741241
6985,West Bayaud Avenue,80226,39.7150683,-105.0743931
6980,West Archer Place,80226,39.7155547,-105.0740779
6950,West Archer Place,80226,39.7154525,-105.0738046
6920,West Archer Place,80226,39.7154505,-105.0735012
6890,West Archer Place,80226,39.7154374,-105.0732341
6830,West Archer Place,80226,39.7154567,-105.0727045
6860,West Archer Place,80226,39.7154402,-105.0729700
6800,West Archer Place,80226,39.7154014,-105.0724697
6805,West Archer Place,80226,39.7158721,-105.0724711
6835,West Archer Place,80226,39.7158393,-105.0727682
6875,West Archer Place,80226,39.7158481,-105.0731035
6915,West Archer Place,80226,39.7158369,-105.0734279
6965,West Archer Place,80226,39.7159536,-105.0737364
6930,West Ellsworth Avenue,80226,39.7163183,-105.0735523
10,South Reed Street,80226,39.7163447,-105.0738004
6900,West Ellsworth Avenue,80226,39.7162528,-105.0733017
6870,West Ellsworth Avenue,80226,39.7161992,-105.0730416
6840,West Ellsworth Avenue,80226,39.7161674,-105.0727515
6800,West Ellsworth Avenue,80226,39.7161089,-105.0724742
45,South Reed Street,80226,39.7157847,-105.0742531
25,South Reed Street,80226,39.7160210,-105.0743150
15,South Reed Street,80226,39.7162299,-105.0742982
5,South Reed Street,80226,39.7164411,-105.0743377
6805,West Ellsworth Avenue,80226,39.7165480,-105.0724909
6845,West Ellsworth Avenue,80226,39.7165819,-105.0727726
14,Quay Street,80226,39.7167567,-105.0727926
25,Pierce Street,80226,39.7167730,-105.0724641
27,Pierce Street,80226,39.7169229,-105.0724804
16,Quay Street,80226,39.7168952,-105.0728174
24,Quay Street,80226,39.7170324,-105.0728189
35,Pierce Street,80226,39.7170735,-105.0724673
37,Pierce Street,80226,39.7172312,-105.0724453
26,Quay Street,80226,39.7171694,-105.0728205
34,Quay Street,80226,39.7173067,-105.0728218
45,Pierce Street,80226,39.7173765,-105.0724704
47,Pierce Street,80226,39.7175266,-105.0724905
36,Quay Street,80226,39.7174426,-105.0728189
44,Quay Street,80226,39.7175767,-105.0728200
55,Pierce Street,80226,39.7176786,-105.0724465
46,Quay Street,80226,39.7177186,-105.0728210
57,Pierce Street,80226,39.7178155,-105.0724905
54,Quay Street,80226,39.7178575,-105.0728649
56,Quay Street,80226,39.7179934,-105.0728893
75,Pierce Street,80226,39.7180007,-105.0725482
85,Pierce Street,80226,39.7182971,-105.0725068
30,Reed Street,80226,39.7171812,-105.0737106
50,Reed Street,80226,39.7174548,-105.0737354
60,Reed Street,80226,39.7176632,-105.0737833
70,Reed Street,80226,39.7178775,-105.0738599
80,Reed Street,80226,39.7180801,-105.0738891
90,Reed Street,80226,39.7182618,-105.0738563
85,Reed Street,80226,39.7182588,-105.0744336
80,Reed Court,80226,39.7182583,-105.0749034
70,Reed Court,80226,39.7180786,-105.0749350
75,Reed Street,80226,39.7180760,-105.0743925
60,Reed Court,80226,39.7178840,-105.0749181
50,Reed Court,80226,39.7176789,-105.0748885
65,Reed Street,80226,39.7178694,-105.0743796
55,Reed Street,80226,39.7176636,-105.0743463
45,Reed Street,80226,39.7174527,-105.0743018
40,Reed Court,80226,39.7174648,-105.0748109
30,Reed Court,80226,39.7172594,-105.0747604
35,Reed Street,80226,39.7172995,-105.0742564
25,Reed Street,80226,39.7170538,-105.0742382
20,Reed Court,80226,39.7170553,-105.0747554
10,Reed Court,80226,39.7168741,-105.0747252
5,Reed Street,80226,39.7168730,-105.0742858
10,Teller Street,80226,39.7169804,-105.0766488
7165,West Ellsworth Avenue,80226,39.7169345,-105.0764011
7135,West Ellsworth Avenue,80226,39.7169430,-105.0761075
7105,West Ellsworth Avenue,80226,39.7169267,-105.0757708
5,Reed Court,80226,39.7169112,-105.0753419
35,Reed Court,80226,39.7171577,-105.0752755
55,Reed Court,80226,39.7173874,-105.0753568
7100,West Ellsworth Place,80226,39.7174045,-105.0757861
7130,West Ellsworth Place,80226,39.7174101,-105.0761283
7160,West Ellsworth Place,80226,39.7174032,-105.0763911
50,Teller Street,80226,39.7173781,-105.0766094
7075,West Ellsworth Place,80226,39.7178041,-105.0754750
7105,West Ellsworth Place,80226,39.7178222,-105.0757384
7135,West Ellsworth Place,80226,39.7178521,-105.0761078
7165,West Ellsworth Place,80226,39.7178003,-105.0764022
80,Teller Street,80226,39.7178571,-105.0766290
90,Teller Street,80226,39.7181424,-105.0766181
7190,West 1st Avenue,80226,39.7182180,-105.0763079
7184,West 1st Avenue,80226,39.7182519,-105.0761002
7180,West 1st Avenue,80226,39.7182234,-105.0758372
7100,West 1st Avenue,80226,39.7182667,-105.0754323
96,Teller Street,80226,39.7182825,-105.0766000
7210,West 1st Avenue,80226,39.7182089,-105.0771560
85,Teller Street,80226,39.7179104,-105.0771521
7201,West Ellsworth Avenue,80226,39.7176190,-105.0771728
7231,West Ellsworth Avenue,80226,39.7175910,-105.0774052
50,Upham Street,80226,39.7179280,-105.0777536
7290,West 1st Avenue,80226,39.7182478,-105.0777823
7270,West 1st Avenue,80226,39.7182306,-105.0775729
7300,West 1st Avenue,80226,39.7182316,-105.0784594
85,Upham Street,80226,39.7178956,-105.0783603
7331,West Ellsworth Avenue,80226,39.7176162,-105.0784664
7361,West Ellsworth Avenue,80226,39.7175928,-105.0787531
7391,West Ellsworth Avenue,80226,39.7176049,-105.0790070
7350,West 1st Avenue,80226,39.7178238,-105.0790640
7301,West Ellsworth Avenue,80226,39.7175916,-105.0782062
7291,West Ellsworth Avenue,80226,39.7176180,-105.0779393
7261,West Ellsworth Avenue,80226,39.7176056,-105.0776609
7391,West Bayaud Place,80226,39.7159424,-105.0790132
7361,West Bayaud Place,80226,39.7159373,-105.0787361
7331,West Bayaud Place,80226,39.7159430,-105.0784531
7301,West Bayaud Place,80226,39.7159264,-105.0781974
7291,West Bayaud Place,80226,39.7159295,-105.0779428
7261,West Bayaud Place,80226,39.7159446,-105.0776745
7231,West Bayaud Place,80226,39.7159337,-105.0773878
7201,West Bayaud Place,80226,39.7160001,-105.0771328
7200,West Archer Place,80226,39.7163374,-105.0771554
7230,West Archer Place,80226,39.7163137,-105.0774014
7280,West Archer Place,80226,39.7163404,-105.0776562
7290,West Archer Place,80226,39.7163253,-105.0779453
7300,West Archer Place,80226,39.7163427,-105.0781926
7360,West Archer Place,80226,39.7163140,-105.0787263
7330,West Archer Place,80226,39.7163362,-105.0784723
7390,West Archer Place,80226,39.7162613,-105.0790308
7391,West Archer Place,80226,39.7168017,-105.0789915
7301,West Archer Place,80226,39.7167683,-105.0782243
7291,West Archer Place,80226,39.7167912,-105.0779415
7261,West Archer Place,80226,39.7167807,-105.0776748
7231,West Archer Place,80226,39.7167654,-105.0774046
7201,West Archer Place,80226,39.7167963,-105.0771501
7200,West Ellsworth Avenue,80226,39.7171613,-105.0771448
7230,West Ellsworth Avenue,80226,39.7171524,-105.0773979
7260,West Ellsworth Avenue,80226,39.7171525,-105.0776714
7290,West Ellsworth Avenue,80226,39.7171663,-105.0779230
7300,West Ellsworth Avenue,80226,39.7171354,-105.0782048
7330,West Ellsworth Avenue,80226,39.7171663,-105.0784724
7360,West Ellsworth Avenue,80226,39.7171360,-105.0787362
7390,West Ellsworth Avenue,80226,39.7171363,-105.0790003
101,Teller Street,80226,39.7187563,-105.0771182
7227,West 1st Avenue,80226,39.7187527,-105.0776122
135,Teller Street,80226,39.7193683,-105.0771419
151,Teller Street,80226,39.7195997,-105.0772100
205,Teller Street,80226,39.7204394,-105.0771240
215,Teller Street,80226,39.7207603,-105.0770851
295,Teller Street,80226,39.7210227,-105.0771402
7405,West 1st Avenue,80226,39.7187216,-105.0799576
80,Yukon Street,80226,39.7182289,-105.0823231
45,Yukon Street,80226,39.7174685,-105.0830597
7700,West 1st Avenue,80226,39.7182251,-105.0831150
60,Yarrow Street,80226,39.7177176,-105.0836301
30,Yarrow Street,80226,39.7171180,-105.0836147
10,Yarrow Street,80226,39.7168645,-105.0835914
5595,West 1st Avenue,80226,39.7187770,-105.0576776
5525,West 1st Avenue,80226,39.7187815,-105.0573242
5505,West 1st Avenue,80226,39.7188206,-105.0569387
5475,West 1st Avenue,80226,39.7187878,-105.0565202
5495,West 1st Avenue,80226,39.7191250,-105.0567138
235,Sheridan Boulevard,80226,39.7204617,-105.0540792
5260,West 3rd Avenue,80226,39.7207253,-105.0545267
5230,West 3rd Avenue,80226,39.7209452,-105.0540920
5300,West 3rd Avenue,80226,39.7209065,-105.0550050
5316,West 3rd Avenue,80226,39.7209208,-105.0553779
5324,West 3rd Avenue,80226,39.7208095,-105.0555937
5400,West 3rd Avenue,80226,39.7208697,-105.0559715
5410,West 3rd Avenue,80226,39.7208477,-105.0562343
5430,West 3rd Avenue,80226,39.7207173,-105.0566898
5440,West 3rd Avenue,80226,39.7205398,-105.0567499
5470,West 3rd Avenue,80226,39.7208888,-105.0570507
5480,West 3rd Avenue,80226,39.7208758,-105.0573381
5490,West 3rd Avenue,80226,39.7207848,-105.0576842
5500,West 3rd Avenue,80226,39.7208314,-105.0579061
5502,West 3rd Avenue,80226,39.7208744,-105.0581476
5621,West 2nd Avenue,80226,39.7201378,-105.0581410
5625,West 2nd Avenue,80226,39.7201350,-105.0584392
5635,West 2nd Avenue,80226,39.7200963,-105.0587433
5655,West 2nd Avenue,80226,39.7201494,-105.0590548
5725,West 2nd Avenue,80226,39.7200985,-105.0593239
5780,West 3rd Avenue,80226,39.7208325,-105.0602432
5770,West 3rd Avenue,80226,39.7208487,-105.0599583
5760,West 3rd Avenue,80226,39.7208435,-105.0597361
5740,West 3rd Avenue,80226,39.7208548,-105.0594331
5720,West 3rd Avenue,80226,39.7208497,-105.0591828
5710,West 3rd Avenue,80226,39.7205310,-105.0590577
5805,West 1st Avenue,80226,39.7187894,-105.0607636
5895,West 1st Avenue,80226,39.7187830,-105.0610487
180,Harlan Street,80226,39.7194971,-105.0623543
5990,West 2nd Avenue,80226,39.7196699,-105.0623583
5880,West 2nd Avenue,80226,39.7196887,-105.0620578
5860,West 2nd Avenue,80226,39.7197086,-105.0617845
5850,West 2nd Avenue,80226,39.7196654,-105.0615085
5840,West 2nd Avenue,80226,39.7196838,-105.0612554
5830,West 2nd Avenue,80226,39.7197076,-105.0610130
5820,West 2nd Avenue,80226,39.7196873,-105.0608068
5810,West 2nd Avenue,80226,39.7196498,-105.0606216
5630,West 2nd Avenue,80226,39.7197198,-105.0590672
5620,West 2nd Avenue,80226,39.7197187,-105.0588171
5610,West 2nd Avenue,80226,39.7197368,-105.0585198
149,Depew Street,80226,39.7198181,-105.0582332
5825,West 2nd Avenue,80226,39.7201539,-105.0607379
5831,West 2nd Avenue,80226,39.7200929,-105.0610126
5835,West 2nd Avenue,80226,39.7200923,-105.0612695
5865,West 2nd Avenue,80226,39.7201099,-105.0617963
5985,West 2nd Avenue,80226,39.7200847,-105.0620523
200,Harlan Street,80226,39.7201010,-105.0624081
260,Harlan Street,80226,39.7204828,-105.0624322
280,Harlan Street,80226,39.7206814,-105.0624072
5986,West 3rd Avenue,80226,39.7207489,-105.0621878
5920,West 3rd Avenue,80226,39.7208646,-105.0618058
5900,West 3rd Avenue,80226,39.7207917,-105.0613401
5803,West 3rd Avenue,80226,39.7212753,-105.0612641
5953,West 3rd Avenue,80226,39.7212912,-105.0615529
5955,West 3rd Avenue,80226,39.7212795,-105.0618456
5965,West 3rd Avenue,80226,39.7212441,-105.0621200
5995,West 3rd Avenue,80226,39.7212628,-105.0623924
320,Harlan Street,80226,39.7214667,-105.0622412
344,Gray Street,80226,39.7218736,-105.0613488
354,Gray Street,80226,39.7221220,-105.0613987
360,Gray Street,80226,39.7223058,-105.0614231
370,Gray Street,80226,39.7225222,-105.0613906
380,Gray Street,80226,39.7227265,-105.0613895
5890,West 4th Avenue,80226,39.7228927,-105.0613542
385,Gray Street,80226,39.7227148,-105.0619565
5950,West 4th Avenue,80226,39.7229093,-105.0620203
390,Harlan Street,80226,39.7229095,-105.0624607
370,Harlan Street,80226,39.7225252,-105.0624354
380,Harlan Street,80226,39.7227066,-105.0624416
375,Gray Street,80226,39.7225098,-105.0619542
360,Harlan Street,80226,39.7223151,-105.0624820
350,Harlan Street,80226,39.7220961,-105.0624684
340,Harlan Street,80226,39.7218820,-105.0624523
355,Gray Street,80226,39.7220925,-105.0619272
365,Gray Street,80226,39.7222972,-105.0619285
330,Harlan Street,80226,39.7216694,-105.0623712
5840,West 4th Avenue,80226,39.7228995,-105.0607814
5865,West 3rd Place,80226,39.7223781,-105.0607565
5845,West 3rd Place,80226,39.7224556,-105.0605037
5770,West 4th Avenue,80226,39.7227083,-105.0601769
5760,West 4th Avenue,80226,39.7228563,-105.0597649
335,Depew Street,80226,39.7215746,-105.0589816
315,Depew Street,80226,39.7212947,-105.0590142
5745,West 3rd Avenue,80226,39.7212815,-105.0594012
5755,West 3rd Avenue,80226,39.7212859,-105.0597029
5775,West 3rd Avenue,80226,39.7212871,-105.0599651
5795,West 3rd Avenue,80226,39.7212778,-105.0602345
5695,West 4th Avenue,80226,39.7233468,-105.0589052
5340,West 5th Avenue,80226,39.7239163,-105.0555392
5330,West 5th Avenue,80226,39.7239298,-105.0553260
5310,West 5th Avenue,80226,39.7239142,-105.0549147
5320,West 5th Avenue,80226,39.7239110,-105.0551344
470,Benton Street,80226,39.7238055,-105.0559272
450,Benton Street,80226,39.7236286,-105.0559320
420,Benton Street,80226,39.7234609,-105.0559253
400,Benton Street,80226,39.7233048,-105.0558815
5373,West 4th Avenue,80226,39.7233581,-105.0552910
5363,West 4th Avenue,80226,39.7233195,-105.0551082
5353,West 4th Avenue,80226,39.7233323,-105.0549080
5335,West 4th Avenue,80226,39.7234330,-105.0547325
5325,West 4th Avenue,80226,39.7233969,-105.0545050
5407,West 4th Avenue,80226,39.7233796,-105.0569100
405,Benton Street,80226,39.7233023,-105.0563905
425,Benton Street,80226,39.7234548,-105.0563960
455,Benton Street,80226,39.7236341,-105.0564127
475,Benton Street,80226,39.7237923,-105.0564184
370,Benton Street,80226,39.7226738,-105.0561492
5380,West 4th Avenue,80226,39.7229315,-105.0561734
5360,West 4th Avenue,80226,39.7229085,-105.0559497
5340,West 4th Avenue,80226,39.7229169,-105.0557520
5330,West 4th Avenue,80226,39.7229191,-105.0555179
5310,West 4th Avenue,80226,39.7229208,-105.0553374
5300,West 4th Avenue,80226,39.7229422,-105.0551293
365,Ames Street,80226,39.7226729,-105.0551232
5345,West 3rd Place,80226,39.7223665,-105.0551994
5365,West 3rd Place,80226,39.7223928,-105.0555055
5375,West 3rd Place,80226,39.7223926,-105.0557675
5395,West 3rd Place,80226,39.7223684,-105.0560684
5415,West 3rd Place,80226,39.7223678,-105.0565687
5455,West 3rd Place,80226,39.7223807,-105.0569005
5475,West 3rd Place,80226,39.7223810,-105.0571117
5485,West 3rd Place,80226,39.7223535,-105.0573268
5545,West 3rd Place,80226,39.7223469,-105.0580658
5525,West 3rd Place,80226,39.7223525,-105.0578151
5575,West 3rd Place,80226,39.7223441,-105.0584401
5550,West 3rd Place,80226,39.7219642,-105.0580482
5580,West 3rd Place,80226,39.7219608,-105.0583735
340,Depew Street,80226,39.7219467,-105.0585401
330,Depew Street,80226,39.7216648,-105.0585334
320,Depew Street,80226,39.7214418,-105.0585311
310,Depew Street,80226,39.7212607,-105.0585159
5501,West 3rd Avenue,80226,39.7213132,-105.0580796
5475,West 3rd Avenue,80226,39.7212820,-105.0569947
5411,West 3rd Avenue,80226,39.7212979,-105.0566407
5407,West 3rd Avenue,80226,39.7212770,-105.0562814
5405,West 3rd Avenue,80226,39.7212709,-105.0559506
5395,West 3rd Avenue,80226,39.7212887,-105.0556770
5385,West 3rd Avenue,80226,39.7212803,-105.0553190
5355,West 3rd Avenue,80226,39.7213084,-105.0550148
5225,West 3rd Avenue,80226,39.7213375,-105.0542057
5215,West 3rd Avenue,80226,39.7212580,-105.0536060
305,Sheridan Boulevard,80226,39.7213605,-105.0535807
339,Sheridan Boulevard,80226,39.7217046,-105.0536187
345,Sheridan Boulevard,80226,39.7220088,-105.0542545
5340,West 3rd Place,80226,39.7219381,-105.0549982
5350,West 3rd Place,80226,39.7219820,-105.0552294
5360,West 3rd Place,80226,39.7219803,-105.0555202
5370,West 3rd Place,80226,39.7219395,-105.0557400
5380,West 3rd Place,80226,39.7219635,-105.0560632
5382,West 3rd Place,80226,39.7219742,-105.0562796
5410,West 3rd Place,80226,39.7219417,-105.0565328
5430,West 3rd Place,80226,39.7219403,-105.0567846
5450,West 3rd Place,80226,39.7219413,-105.0570009
5480,West 3rd Place,80226,39.7219410,-105.0572614
5530,West 3rd Place,80226,39.7219364,-105.0574758
6040,West 4th Avenue,80226,39.7228875,-105.0636559
6010,West 4th Avenue,80226,39.7228620,-105.0633440
397,Harlan Street,80226,39.7228839,-105.0630213
360,Ingalls Street,80226,39.7225399,-105.0634430
385,Harlan Street,80226,39.7225437,-105.0630441
365,Harlan Street,80226,39.7223320,-105.0630314
340,Ingalls Street,80226,39.7223331,-105.0634299
330,Ingalls Street,80226,39.7218617,-105.0636549
324,Ingalls Street,80226,39.7216284,-105.0636451
320,Ingalls Street,80226,39.7213891,-105.0636199
325,Harlan Street,80226,39.7216416,-105.0630013
327,Harlan Street,80226,39.7218426,-105.0630414
341,Harlan Street,80226,39.7220514,-105.0630806
390,Jay Street,80226,39.7228896,-105.0645966
395,Ingalls Street,80226,39.7228874,-105.0641749
375,Ingalls Street,80226,39.7227129,-105.0641843
365,Ingalls Street,80226,39.7224497,-105.0641658
355,Ingalls Street,80226,39.7222917,-105.0641773
190,Jay Street,80226,39.7197848,-105.0648226
180,Jay Street,80226,39.7195927,-105.0648148
200,Jay Street,80226,39.7200001,-105.0648563
210,Jay Street,80226,39.7200772,-105.0647276
230,Jay Street,80226,39.7201985,-105.0647906
290,Jay Street,80226,39.7204694,-105.0647590
298,Jay Street,80226,39.7207064,-105.0647624
310,Jay Street,80226,39.7213329,-105.0647771
308,Jay Street,80226,39.7211522,-105.0647885
320,Jay Street,80226,39.7216016,-105.0648275
332,Jay Street,80226,39.7217884,-105.0647527
334,Jay Street,80226,39.7220717,-105.0647589
336,Jay Street,80226,39.7222889,-105.0647778
340,Jay Street,80226,39.7225117,-105.0647599
380,Jay Street,80226,39.7227214,-105.0647578
299,Harlan Street,80226,39.7206331,-105.0633238
305,Harlan Street,80226,39.7211964,-105.0633041
6225,West 1st Avenue,80226,39.7188611,-105.0659125
6215,West 1st Avenue,80226,39.7187719,-105.0656148
6205,West 1st Avenue,80226,39.7187691,-105.0653200
133,Jay Street,80226,39.7191198,-105.0657314
155,Jay Street,80226,39.7193615,-105.0653822
185,Jay Street,80226,39.7195686,-105.0655676
211,Jay Street,80226,39.7197559,-105.0658322
201,Jay Street,80226,39.7197587,-105.0653139
221,Jay Street,80226,39.7200497,-105.0655468
215,Jay Street,80226,39.7200110,-105.0658815
231,Jay Street,80226,39.7203006,-105.0655358
190,Newland Street,80226,39.7202076,-105.0693908
185,Marshall Street,80226,39.7201665,-105.0689482
160,Newland Street,80226,39.7195121,-105.0695230
6490,West 2nd Avenue,80226,39.7201327,-105.0683527
180,Marshall Street,80226,39.7199651,-105.0683746
312,Reed Street,80226,39.7224533,-105.0740510
318,Reed Street,80226,39.7226699,-105.0740294
6960,West 4th Avenue,80226,39.7229018,-105.0739827
6940,West 4th Avenue,80226,39.7229068,-105.0735854
319,Quay Street,80226,39.7226756,-105.0735486
313,Quay Street,80226,39.7224593,-105.0735794
307,Quay Street,80226,39.7222352,-105.0735974
301,Quay Street,80226,39.7220314,-105.0736252
237,Quay Street,80226,39.7218210,-105.0736400
231,Quay Street,80226,39.7216199,-105.0736456
225,Quay Street,80226,39.7214131,-105.0736441
219,Quay Street,80226,39.7212066,-105.0736594
213,Quay Street,80226,39.7210000,-105.0736325
207,Quay Street,80226,39.7207865,-105.0736318
7000,West 4th Avenue,80226,39.7228516,-105.0746484
7050,West 4th Avenue,80226,39.7228272,-105.0749952
7090,West 4th Avenue,80226,39.7228037,-105.0752999
7092,West 4th Avenue,80226,39.7228093,-105.0755382
7100,West 4th Avenue,80226,39.7228254,-105.0757630
360,Saulsbury Street,80226,39.7225271,-105.0757667
350,Saulsbury Street,80226,39.7223409,-105.0757184
7065,West 3rd Place,80226,39.7222167,-105.0753025
7045,West 3rd Place,80226,39.7222300,-105.0749758
309;303,Reed Street,80226,39.7222971,-105.0746670
7055,West 2nd Avenue,80226,39.7205036,-105.0751062
202,Saulsbury Street,80226,39.7205631,-105.0754055
208,Saulsbury Street,80226,39.7207631,-105.0754720
203,Reed Street,80226,39.7205640,-105.0748151
215,Reed Street,80226,39.7209925,-105.0748040
221,Reed Street,80226,39.7211984,-105.0747920
214,Saulsbury Street,80226,39.7209786,-105.0754165
220,Saulsbury Street,80226,39.7211951,-105.0754459
227,Reed Street,80226,39.7213936,-105.0748084
233,Reed Street,80226,39.7215993,-105.0747928
7040,West 3rd Place,80226,39.7218136,-105.0748995
7060,West 3rd Place,80226,39.7218293,-105.0753840
226,Saulsbury Street,80226,39.7214049,-105.0754328
232,Saulsbury Street,80226,39.7216082,-105.0754362
209,Reed Street,80226,39.7207753,-105.0748011
330,Teller Street,80226,39.7217983,-105.0765569
237,Saulsbury Street,80226,39.7217915,-105.0759523
235,Saulsbury Street,80226,39.7215600,-105.0759695
320,Teller Street,80226,39.7215232,-105.0765419
300,Teller Street,80226,39.7212729,-105.0763718
225,Saulsbury Street,80226,39.7212902,-105.0759444
210,Teller Street,80226,39.7207813,-105.0766472
230,Teller Street,80226,39.7209852,-105.0763793
211,Saulsbury Street,80226,39.7207676,-105.0759355
205,Saulsbury Street,80226,39.7205539,-105.0759810
7155,West 2nd Avenue,80226,39.7204881,-105.0762997
204,Teller Street,80226,39.7205637,-105.0765809
340,Teller Street,80226,39.7220492,-105.0765928
365,Saulsbury Street,80226,39.7222498,-105.0762343
360,Teller Street,80226,39.7223394,-105.0766023
375,Saulsbury Street,80226,39.7224673,-105.0762353
370,Teller Street,80226,39.7225525,-105.0766059
390,Teller Street,80226,39.7227512,-105.0766431
7196,West 4th Avenue,80226,39.7229147,-105.0766081
395,Saulsbury Street,80226,39.7228848,-105.0762367
385,Saulsbury Street,80226,39.7226815,-105.0762304
7395,West 3rd Place,80226,39.7220522,-105.0789089
7355,West 3rd Place,80226,39.7220444,-105.0785997
7315,West 3rd Place,80226,39.7220351,-105.0783311
7390,West 3rd Place,80226,39.7216761,-105.0788916
7350,West 3rd Place,80226,39.7216787,-105.0786011
7310,West 3rd Place,80226,39.7216879,-105.0783376
7280,West 3rd Place,80226,39.7217091,-105.0777935
7240,West 3rd Place,80226,39.7216994,-105.0774612
7200,West 3rd Place,80226,39.7216756,-105.0771447
7245,West 3rd Place,80226,39.7220641,-105.0775554
7285,West 3rd Place,80226,39.7220370,-105.0777992
345,Teller Street,80226,39.7221204,-105.0771221
355,Teller Street,80226,39.7223143,-105.0772440
373,Teller Street,80226,39.7225623,-105.0771305
385,Teller Street,80226,39.7228086,-105.0771297
311,Teller Street,80226,39.7213602,-105.0771334
401,Independence Street,80226,39.7215746,-105.1062307
200,Kipling Street,80226,39.7199293,-105.1081986
1311,Oak Street,80215,39.7380866,-105.1200419
7166,West Custer Avenue,80226,39.7057571,-105.0759019
6300,West 13th Avenue,80214,39.7361305,-105.0663446
35,Van Gordon Street,80228,39.7152464,-105.1388156
"2800,2900",South Estes Street,80227,39.6651559,-105.0948442
5495,West 10th Place,80214,39.7337816,-105.0563195
7100,West 13th Avenue,80214,39.7355372,-105.0761201
14500,West Colfax Avenue,80401,39.7320679,-105.1585621
1255,South Wadsworth Boulevard,80232,39.6934590,-105.0839804
