House number,Street name,Postal code,Latitude,Longitude
1240,Main Street,80027,39.9823754,-105.1318726
992,West Via Appia Way,80027,39.9725464,-105.1635200
801,Main Street,80027,39.9779632,-105.1322840
1387,South Boulder Road,80027,39.9873814,-105.1235730
1349,East South Boulder Road,80027,39.9880784,-105.1256750
1075,East South Boulder Road,80027,39.9873279,-105.1300650
459,McCaslin Boulevard,80027,39.9650937,-105.1643320
459,South McCaslin Boulevard,80027,39.9646846,-105.1639792
1116,Dillon Road,80027,39.9608545,-105.1660610
1375,South Boulder Road,80027,39.9881433,-105.1239744
535,East South Boulder Road,80027,39.9875255,-105.1362290
1110,East South Boulder Road,80027,39.9864601,-105.1292070
1219,Courtesy Road,80027,39.9817593,-105.1281892
1301,Courtesy Road,80027,39.9823594,-105.1282750
1301,Courtesy Road,80027,39.9830376,-105.1282538
1190,Griffith Street,80027,39.9834651,-105.1285084
520,McCaslin Boulevard,80027,39.9628863,-105.1630120
191,S. McCaslin Blvd.,80027,39.9693699,-105.1643211
133,McCaslin Boulevard,80027,39.9699538,-105.1639420
956,Cherry Street,80026,39.9635843,-105.1620452
1001,Main Street,80027,39.9798027,-105.1322860
375,McCaslin Boulevard,80027,39.9662990,-105.1640364
1375,East South Boulder Road,80027,39.9881152,-105.1241660
100,Health Park Drive,80027,39.9519168,-105.1512098
80,Health Park Drive,80027,39.9510726,-105.1531861
2255,South 88th Street,80027,39.9509348,-105.1476853
2255,South 88th Street,80027,39.9515588,-105.1483921
1078,South 88th Street,80027,39.9513162,-105.1457157
133,McCaslin Boulevard,80027,39.9702841,-105.1639730
1132,West Dillon Road,80027,39.9614846,-105.1672439
994,West Dillon Road,80027,39.9607722,-105.1642079
7931,Marshall Drive,80027,39.9594247,-105.1678784
1030,East South Boulder Road,80027,39.9867036,-105.1314620
740,Main Street,80027,39.9776225,-105.1320035
901,Front Street,80027,39.9788420,-105.1312725
1124,Dillon Road,80027,39.9604329,-105.1660610
976,Dillon Road,80027,39.9598980,-105.1642220
994,West Dillon Road,80027,39.9604506,-105.1643398
901,Walnut Street,80027,39.9788064,-105.1319448
900,Main Street,80027,39.9788485,-105.1320145
915,Walnut Street,80027,39.9788115,-105.1317980
1817,Hwy. 42,80027,39.9885563,-105.1284270
650,South Taylor Avenue,80027,39.9597454,-105.1195503
640,Main Street,80027,39.9767247,-105.1319806
732,Main Street,80027,39.9775027,-105.1320230
947,Pine Street,80027,39.9771533,-105.1310942
935,Pine Street,80027,39.9769441,-105.1313208
480,West Dahlia Street,80027,39.9638144,-105.1584002
321,McCaslin Boulevard,80027,39.9664824,-105.1640170
332,McCaslin Boulevard,80027,39.9655973,-105.1615676
302,McCaslin Boulevard,80027,39.9657211,-105.1624846
459,McCaslin Boulevard,80027,39.9648389,-105.1639329
318,McCaslin Boulevard,80027,39.9656354,-105.1620943
356,McCaslin Boulevard,80027,39.9654661,-105.1614921
724,Main Street,80027,39.9773496,-105.1320140
729,Main Street,80027,39.9774010,-105.1320144
1140,East South Boulder Road,80027,39.9864684,-105.1289220
801,Grant Avenue,80027,39.9778849,-105.1361311
1055,Courtesy Road,80027,39.9799352,-105.1289501
1057,Courtesy Road,80027,39.9800046,-105.1289500
1061,Courtesy Road,80027,39.9801306,-105.1289511
1067,Courtesy Road,80027,39.9803188,-105.1289450
316,S McCaslin Blvd,80027,39.9656342,-105.1621920
282,Century Place,80027,39.9675330,-105.1666453
400,Centennial Parkway,80027,39.9650493,-105.1653388
1335 E.,South Boulder Road,80027,39.9873797,-105.1250707
80,Health Park Drive,80027,39.9510105,-105.1526080
1655,Courtesy Road,80027,39.9860986,-105.1282430
1065,Courtesy Road,80027,39.9802543,-105.1289438
1059,Courtesy Road,80027,39.9800674,-105.1289520
107,McCaslin Boulevard,80027,39.9714908,-105.1643779
1069,Courtesy Road,80027,39.9803812,-105.1289452
1071,Courtesy Road,80027,39.9804456,-105.1289460
1077,Courtesy Road,80027,39.9805328,-105.1284321
1001,Courtesy Road,80027,39.9798317,-105.1284250
169,Roosevelt Avenue,80027,39.9744886,-105.1329348
282,Century Place,80027,39.9670122,-105.1664441
1849,Cherry Street,80027,39.9654031,-105.1150777
824,South Street,80027,39.9795552,-105.1325454
1413,Hecla Way,80027,39.9882057,-105.1223700
901,Front Street,80027,39.9788506,-105.1309414
917,Front Street,80027,39.9791339,-105.1309139
901,Front Street,80027,39.9788490,-105.1310686
917,Front Street,80027,39.9792139,-105.1309190
1343,East South Boulder Road,80027,39.9881182,-105.1267160
931,Main Street,80027,39.9772544,-105.1306790
1655,Cannon Circle,80027,39.9859785,-105.1285160
988,Dillon Road,80027,39.9590516,-105.1646071
1360,South 96th Street,80027,39.9622328,-105.1273120
385,South Pierce Avenue,80027,39.9656952,-105.1233036
321,McCaslin Boulevard,80027,39.9664871,-105.1639160
355-A,Centennial Parkway,80027,39.9648832,-105.1723544
1345,East South Boulder Road,80027,39.9881132,-105.1265037
1655,Cannon Circle,80027,39.9861526,-105.1285150
1655,Cannon Circle,80027,39.9862625,-105.1285110
608,Main Street,80027,39.9761987,-105.1319636
397,South Taylor Avenue,80027,39.9653844,-105.1202334
1156,West Dillon Road,80027,39.9607513,-105.1666465
375,McCaslin Boulevard,80027,39.9660557,-105.1641873
375,McCaslin Boulevard,80027,39.9661677,-105.1640880
970,Front Street,80027,39.9791966,-105.1309174
1830;1860,Centennial Drive,80027,39.9882284,-105.1434350
745,East South Boulder Road,80027,39.9881859,-105.1344825
255,Regal Street,80027,39.9893317,-105.1410510
1970,Centennial Drive,80027,39.9894725,-105.1341571
1722,Garfield Avenue,80027,39.9874653,-105.1372764
2049,Eisenhower Drive,80027,39.9896808,-105.1489299
2000,Centennial Drive,80027,39.9896519,-105.1345892
1305,Hecla Drive,80027,39.9900971,-105.1272678
2038,Lakespur Lane,80027,39.9920585,-105.1191550
2013,Lakespur Lane,80027,39.9915764,-105.1194991
2029,Lakespur Lane,80027,39.9920457,-105.1196282
1755,Sweet Clover Lane,80027,39.9884075,-105.1216839
2005,Lakespur Lane,80027,39.9913222,-105.1194614
1870,Plaza Drive,80027,39.9899804,-105.1230268
2006,Lakespur Lane,80027,39.9911534,-105.1189384
2000,Lakespur Lane,80027,39.9909069,-105.1191363
2037,Lakespur Lane,80027,39.9921157,-105.1193798
1200,Locke Street,80027,39.9717637,-105.1281727
233,Ctc Boulevard,80027,39.9687983,-105.1132328
10101,Dillon Road,80020,39.9600191,-105.1170277
195,Ctc Boulevard,80027,39.9679820,-105.1133400
1500,South 96th Street,80020,39.9585850,-105.1278592
1297,South 104th Street,80020,39.9633629,-105.1132048
1788,Prairie Way,80027,39.9695055,-105.1166668
1772,Prairie Way,80027,39.9704351,-105.1167359
1326,South 96th Street,80027,39.9636486,-105.1267036
1750,East South Boulder Road,80027,39.9867542,-105.1177300
1501,Empire Drive,80027,39.9792708,-105.1248126
1355,East South Boulder Road,80027,39.9881274,-105.1253069
1057;1053,Century Drive,80027,39.9691728,-105.1653967
729,Front Street,80027,39.9774962,-105.1308906
727,Front Street,80027,39.9774356,-105.1308913
725,Front Street,80027,39.9773924,-105.1308904
1375,East South Boulder Road,80027,39.9884108,-105.1242539
1414,Hecla Way,80027,39.9873969,-105.1223426
1411,Hecla Way,80027,39.9885619,-105.1228529
400,Hutchinson Street,80027,39.9752134,-105.1383448
400,Hutchinson Street,80027,39.9751709,-105.1385330
401,Hutchinson Street,80027,39.9735936,-105.1392339
845,West Dahlia Street,80027,39.9694266,-105.1573088
845,West Dahlia Street,80027,39.9692491,-105.1576625
900,Via Appia Way,80027,39.9747843,-105.1574729
1132,Dillon Road,80027,39.9615895,-105.1672014
1171,Dillon Road,80027,39.9631447,-105.1670889
1164,Dillon Road,80027,39.9601031,-105.1677355
1200,West Dillon Road,80027,39.9613270,-105.1696561
1156,Dillon Road,80027,39.9606828,-105.1668223
1148,Dillon Road,80027,39.9609911,-105.1672222
585,McCaslin Boulevard,80027,39.9621952,-105.1651502
1100,Dillon Road,80027,39.9615668,-105.1661788
1116,Dillon Road,80027,39.9607547,-105.1660564
245,Century Circle,80027,39.9677108,-105.1651514
1450,Infinite Drive,80027,39.9664978,-105.1761792
215,Century Circle,80027,39.9682279,-105.1650533
956,West Cherry Street,80027,39.9637120,-105.1621545
578,McCaslin Boulevard,80027,39.9621662,-105.1634564
1070,Century Drive,80027,39.9683246,-105.1656733
1053,west Century Drive,80027,39.9689367,-105.1654281
910,West Cherry Street,80027,39.9637052,-105.1600842
972,Dillon Road,80027,39.9603907,-105.1638315
375,McCaslin Boulevard,80027,39.9661573,-105.1640596
357,Century Circle,80027,39.9663410,-105.1652860
269,McCaslin Boulevard,80027,39.9677803,-105.1642058
520,McCaslin Boulevard,80027,39.9628433,-105.1630451
939,Dillon Road,80027,39.9612497,-105.1627465
858,Coal Creek Circle,80027,39.9570131,-105.1603427
339,McCaslin Boulevard,80027,39.9664931,-105.1646332
400,Centennial Parkway,80027,39.9649686,-105.1652551
287,Century Circle,80027,39.9672408,-105.1656701
919,Dillon Road,80027,39.9605613,-105.1603970
1172,Century Drive,80027,39.9677212,-105.1692722
500,McCaslin Boulevard,80027,39.9636888,-105.1628677
275,Century Circle,80027,39.9669812,-105.1651336
282,Century Place,80027,39.9675322,-105.1663948
960,Dillon Road,80027,39.9598897,-105.1628736
248,Centennial Parkway,80027,39.9674389,-105.1700832
948,Dillon Road,80027,39.9589070,-105.1635074
259,Century Circle,80027,39.9674919,-105.1656855
459,McCaslin Boulevard,80027,39.9649015,-105.1641536
1157,Century Drive,80027,39.9688920,-105.1680514
321,McCaslin Boulevard,80027,39.9665222,-105.1641035
361,Centennial Parkway,80027,39.9675720,-105.1678274
511,East South Boulder Road,80027,39.9872505,-105.1362722
1137,East South Boulder Road,80027,39.9876407,-105.1286511
1200,Courtesy Road,80027,39.9820293,-105.1256303
824,Front Street,80027,39.9784053,-105.1305524
1325,South Boulder Road,80027,39.9873963,-105.1273102
1700,West South Boulder Road,80027,39.9866487,-105.1184024
1135,East South Boulder Road,80027,39.9872998,-105.1291987
1408,Hecla Way,80027,39.9872868,-105.1228103
1387,East South Boulder Road,80027,39.9873788,-105.1234900
1335,East South Boulder Road,80027,39.9872658,-105.1251710
1805,State Highway 42,80027,39.9884433,-105.1285152
955,Bella Vista Drive,80027,39.9711799,-105.1308613
1341,Main Street,80027,39.9840350,-105.1333839
1371,Plaza Drive,80027,39.9892003,-105.1236293
1345,East South Boulder Road,80027,39.9882062,-105.1251481
363,Centennial Parkway,80027,39.9629278,-105.1693251
361,Centennial Parkway,80027,39.9631667,-105.1711109
371,Centennial Parkway,80027,39.9641027,-105.1705596
1016,Jefferson Avenue,80027,39.9801198,-105.1343236
640,Main Street,80027,39.9766343,-105.1318668
902,Grant Avenue,80027,39.9789516,-105.1360778
925,Grant Avenue,80027,39.9793725,-105.1360811
740,Front Street,80027,39.9776679,-105.1305391
809,Main Street,80027,39.9780327,-105.1324149
701,Main Street,80027,39.9770196,-105.1324916
749,Main Street,80027,39.9775661,-105.1325633
1855,Plaza Drive,80027,39.9894166,-105.1247119
1075,East South Boulder Road,80027,39.9876630,-105.1299174
637,Front Street,80027,39.9766271,-105.1312823
1006,Pine Street,80027,39.9766219,-105.1303559
504,Eisenhower Drive,80027,39.9899730,-105.1474125
502,Eisenhower Drive,80027,39.9899557,-105.1471638
500,Eisenhower Drive,80027,39.9899564,-105.1469189
498,Eisenhower Drive,80027,39.9899319,-105.1466444
499,Eisenhower Drive,80027,39.9903872,-105.1465793
501,Eisenhower Drive,80027,39.9903754,-105.1468944
506,Eisenhower Drive,80027,39.9899650,-105.1476652
503,Eisenhower Drive,80027,39.9903713,-105.1471808
505,Eisenhower Drive,80027,39.9904035,-105.1474515
895,Via Appia Way,80027,39.9754855,-105.1594058
535,Fairfield Lane,80027,39.9648446,-105.1494404
1100,Courtesy Road,80027,39.9812776,-105.1285032
1410,Hecla Way,80027,39.9877326,-105.1228244
1655,Cannon Circle,80027,39.9861221,-105.1285944
500,County Road,80027,39.9749845,-105.1300090
700,Main Street,80027,39.9769877,-105.1318465
724,Main Street,80027,39.9772449,-105.1319193
740,Main Street,80027,39.9776332,-105.1319394
801,Main Street,80027,39.9779302,-105.1324131
813,Main Street,80027,39.9780960,-105.1324500
804,Main Street,80027,39.9779199,-105.1318783
820,Main Street,80027,39.9782271,-105.1317593
908,Main Street,80027,39.9789910,-105.1317858
931,Main Street,80027,39.9793938,-105.1323387
816,Main Street,80027,39.9781313,-105.1317997
920,Main Street,80027,39.9791676,-105.1318761
924,Main Street,80027,39.9792443,-105.1319075
833,Main Street,80027,39.9785448,-105.1323981
932,Main Street,80027,39.9793717,-105.1318321
817,Main Street,80027,39.9781663,-105.1324685
641,Main Street,80027,39.9766834,-105.1323311
717,Main Street,80027,39.9772865,-105.1323721
836,Main Street,80027,39.9784499,-105.1318684
608,Main Street,80027,39.9761838,-105.1318866
916,Main Street,80027,39.9790986,-105.1317884
901,Main Street,80027,39.9788877,-105.1323814
520,Main Street,80027,39.9749985,-105.1318754
1565,Main Street,80027,39.9858673,-105.1325971
1500,Main Street,80027,39.9847771,-105.1319335
1515,Main Street,80027,39.9855139,-105.1326885
524,Main Street,80027,39.9752364,-105.1319122
514,Main Street,80027,39.9748442,-105.1318740
808,Main Street,80027,39.9780343,-105.1318234
940,Main Street,80027,39.9794910,-105.1318519
1514,Main Street,80027,39.9850702,-105.1319448
1528,Main Street,80027,39.9858213,-105.1319538
1442,Main Street,80027,39.9845069,-105.1319400
1526,Main Street,80027,39.9855848,-105.1319338
1520,Main Street,80027,39.9853177,-105.1319411
1520,Main Street,80027,39.9851982,-105.1319585
1032,East South Boulder Road,80027,39.9865308,-105.1312338
1021,East South Boulder Road,80027,39.9872904,-105.1304453
1015,East South Boulder Road,80027,39.9876522,-105.1313313
1150,Pine Street,80027,39.9760867,-105.1285046
1110,East South Boulder Road,80027,39.9864231,-105.1292059
216,North 96th Street,80027,39.9919535,-105.1272259
1140,East South Boulder Road,80027,39.9864219,-105.1288948
1220,Summit View Drive,80027,39.9916218,-105.1286232
417,East Street,80027,39.9746511,-105.1283375
1212,South 96th Street,80027,39.9648736,-105.1277005
592,McCaslin Boulevard,80027,39.9617319,-105.1633612
594,McCaslin Boulevard,80027,39.9616843,-105.1637106
1017,East South Boulder Road,80027,39.9872328,-105.1307470
877,East South Boulder Road,80027,39.9875464,-105.1325781
1700,Centennial Drive,80027,39.9873164,-105.1330722
889,East South Boulder Road,80027,39.9871821,-105.1324624
1760,Centennial Drive,80027,39.9880677,-105.1331792
1818,Centennial Drive,80027,39.9885079,-105.1334737
1310,Hecla Drive,80027,39.9891372,-105.1262966
1351,Golden Eagle Way,80027,39.9936585,-105.1252935
1363,Golden Eagle Way,80027,39.9936075,-105.1249701
1369,Golden Eagle Way,80027,39.9936242,-105.1248226
1375,Golden Eagle Way,80027,39.9936434,-105.1246664
1381,Golden Eagle Way,80027,39.9936408,-105.1245101
1357,Golden Eagle Way,80027,39.9936478,-105.1251453
1555,West South Boulder Road,80027,39.9908819,-105.1188656
1125,Pine Street,80027,39.9771938,-105.1291893
1109,Pine Street,80027,39.9772054,-105.1293657
1105,Pine Street,80027,39.9771612,-105.1295774
1133,Pine Street,80027,39.9772585,-105.1290501
1145,Pine Street,80027,39.9772784,-105.1287934
1155,Pine Street,80027,39.9772876,-105.1285981
720,Front Street,80027,39.9772546,-105.1305085
706,Front Street,80027,39.9771294,-105.1305670
1100,Pine Street,80027,39.9766903,-105.1296775
992,Via Appia Way,80027,39.9725736,-105.1634232
415,East Street,80027,39.9745200,-105.1290589
419,East Street,80027,39.9746680,-105.1288981
2409,Hecla Drive,80027,39.9937936,-105.1240811
2401,Rose Court,80027,39.9935940,-105.1234516
2405,Hecla Drive,80027,39.9936743,-105.1240684
1391,Golden Eagle Way,80027,39.9935363,-105.1240993
2383,Golden Eagle Way,80027,39.9932084,-105.1256314
2379,Golden Eagle Way,80027,39.9931001,-105.1256877
2375,Golden Eagle Way,80027,39.9929028,-105.1257133
2387,Golden Eagle Way,80027,39.9929870,-105.1260713
2376,Hecla Drive,80027,39.9929128,-105.1234742
2380,Hecla Drive,80027,39.9930429,-105.1234535
1376,Golden Eagle Way,80027,39.9932139,-105.1244947
2385,Hecla Drive,80027,39.9932064,-105.1241338
1370,Golden Eagle Way,80027,39.9932026,-105.1246664
2381,Hecla Drive,80027,39.9930834,-105.1241038
2377,Hecla Drive,80027,39.9929487,-105.1240906
2372,Hecla Drive,80027,39.9927910,-105.1234935
1352,East Hecla Drive,80027,39.9929338,-105.1252333
1380,Golden Eagle Way,80027,39.9928852,-105.1244384
1362,Golden Eagle Way,80027,39.9929300,-105.1249149
1356,Golden Eagle Way,80027,39.9929121,-105.1250794
1368,Golden Eagle Way,80027,39.9929148,-105.1247482
1374,Golden Eagle Way,80027,39.9929051,-105.1245935
2266,Ella Court,80027,39.9924667,-105.1259681
2262,Ella Court,80027,39.9923450,-105.1260201
2260,Ella Court,80027,39.9922339,-105.1260942
2263,Golden Eagle Way,80027,39.9922660,-105.1255561
2406,Rose Court,80027,39.9936823,-105.1228721
2410,Rose Court,80027,39.9938731,-105.1228085
2400,Rose Court,80027,39.9935319,-105.1228538
1303,Empire Road,80027,39.9779367,-105.1260429
2388,Rose Court,80027,39.9931797,-105.1230939
2394,Rose Court,80027,39.9932567,-105.1228267
1349,Snowberry Lane,80027,39.9918904,-105.1254421
2384,Hecla Drive,80027,39.9931386,-105.1234253
1345,Snowberry Lane,80027,39.9918937,-105.1256104
1030,East South Boulder Road,80027,39.9866964,-105.1314662
1200,Lock Street,80027,39.9718501,-105.1285948
1001,Main Street,80027,39.9797972,-105.1323079
855,West Dillon Road,80027,39.9589157,-105.1576375
1315,Century Drive,80027,39.9722235,-105.1702395
135,Taylor Avenue,80027,39.9708025,-105.1198417
1533,South Arthur Avenue,80027,39.9686765,-105.1212981
1475,Arthur Avenue,80027,39.9683460,-105.1231451
1501,South Arthur Avenue,80027,39.9683617,-105.1219856
1500,Cherry Street,80027,39.9657970,-105.1216340
2369,Hecla Drive,80027,39.9927161,-105.1241146
2373,Hecla Drive,80027,39.9928386,-105.1240729
263,Campus Drive,80027,39.9515868,-105.1439767
1480,South Arthur Avenue,80027,39.9671562,-105.1225381
643,South Arthur Avenue,80027,39.9604513,-105.1236687
481,South Arthur Avenue,80027,39.9630910,-105.1244734
594,South Arthur Avenue,80027,39.9618534,-105.1231698
573,South Arthur Avenue,80027,39.9619460,-105.1241984
500,South Arthur Avenue,80027,39.9625452,-105.1233146
624,South Arthur Avenue,80027,39.9613795,-105.1230088
437,South Arthur Avenue,80027,39.9639503,-105.1248623
379,South Arthur Avenue,80027,39.9656206,-105.1254081
382,South Arthur Avenue,80027,39.9654634,-105.1243030
346,South Arthur Avenue,80027,39.9666412,-105.1244171
426,South Arthur Avenue,80027,39.9642248,-105.1238551
410,South Arthur Avenue,80027,39.9646997,-105.1240724
337,South Arthur Avenue,80027,39.9661726,-105.1256147
413,South Arthur Avenue,80027,39.9644098,-105.1251747
691,South Arthur Avenue,80027,39.9594635,-105.1221761
468,South Arthur Avenue,80027,39.9636661,-105.1227380
409,McCaslin Boulevard,80027,39.9657249,-105.1642137
1524,Main Street,80027,39.9854414,-105.1319620
1364,Golden Eagle Way,80027,39.9932169,-105.1249452
1358,East Hecla Drive,80027,39.9931983,-105.1251004
1685,Boxelder Street,80027,39.9623589,-105.1182417
1815,Boxelder Street,80027,39.9623784,-105.1150231
1797,Boxelder Street,80027,39.9623702,-105.1162341
1857,Boxelder Street,80027,39.9633683,-105.1152336
1753,Boxelder Street,80027,39.9622623,-105.1168443
1721,Boxelder Street,80027,39.9621975,-105.1177656
1722,Boxelder Street,80027,39.9634454,-105.1175953
1558,Cherry Street,80027,39.9644938,-105.1209789
315,Ctc Boulevard,80027,39.9667489,-105.1131469
185,South 104th Street,80027,39.9687204,-105.1102823
250,Ctc Boulevard,80027,39.9679926,-105.1117682
1200,Lock Street,80027,39.9713208,-105.1281603
2255,South 88th Street,80027,39.9520487,-105.1483597
240,McCaslin Boulevard,80027,39.9676797,-105.1616732
195,West Elm Street,80027,39.9755076,-105.1435242
193,West Elm Street,80027,39.9756255,-105.1432497
946,Saint Andrews Lane,80027,39.9548028,-105.1519554
944,Saint Andrews Lane,80027,39.9547763,-105.1522143
942,Saint Andrews Lane,80027,39.9547668,-105.1525331
938,Saint Andrews Lane,80027,39.9548094,-105.1527777
983,Saint Andrews Lane,80027,39.9541481,-105.1487470
352,Troon Court,80027,39.9544902,-105.1492490
943,Saint Andrews Lane,80027,39.9543884,-105.1522111
941,Saint Andrews Lane,80027,39.9543897,-105.1524430
936,Saint Andrews Lane,80027,39.9549049,-105.1529609
934,Saint Andrews Lane,80027,39.9550191,-105.1531805
932,Saint Andrews Lane,80027,39.9551371,-105.1533069
930,Saint Andrews Lane,80027,39.9552619,-105.1534319
928,Saint Andrews Lane,80027,39.9554217,-105.1535689
926,Saint Andrews Lane,80027,39.9555705,-105.1534429
924,Saint Andrews Lane,80027,39.9556525,-105.1532387
922,Saint Andrews Lane,80027,39.9557102,-105.1530701
920,Saint Andrews Lane,80027,39.9557698,-105.1528928
1043,Turnberry Circle,80027,39.9544692,-105.1531514
1041,Turnberry Circle,80027,39.9543877,-105.1533383
1039,Turnberry Circle,80027,39.9543748,-105.1535420
1037,Turnberry Circle,80027,39.9543728,-105.1537499
1035,Turnberry Circle,80027,39.9543824,-105.1539270
1033,Turnberry Circle,80027,39.9543983,-105.1541274
1031,Turnberry Circle,80027,39.9543816,-105.1543091
1029,Turnberry Circle,80027,39.9543619,-105.1545573
1027,Turnberry Circle,80027,39.9543655,-105.1547409
1025,Turnberry Circle,80027,39.9543756,-105.1549610
1023,Turnberry Circle,80027,39.9544125,-105.1551553
1021,Turnberry Circle,80027,39.9544730,-105.1553766
1019,Turnberry Circle,80027,39.9544939,-105.1555838
1017,Turnberry Circle,80027,39.9546097,-105.1558132
1015,Turnberry Circle,80027,39.9547695,-105.1558457
1013,Turnberry Circle,80027,39.9549064,-105.1557666
1011,Turnberry Circle,80027,39.9550008,-105.1555704
1009,Turnberry Circle,80027,39.9550872,-105.1554227
1007,Turnberry Circle,80027,39.9551896,-105.1552503
1005,Turnberry Circle,80027,39.9552805,-105.1551106
1003,Turnberry Circle,80027,39.9553618,-105.1549605
1036,Turnberry Circle,80027,39.9547637,-105.1535753
1034,Turnberry Circle,80027,39.9547558,-105.1538048
1032,Turnberry Circle,80027,39.9547558,-105.1540034
1030,Turnberry Circle,80027,39.9547845,-105.1541932
1028,Turnberry Circle,80027,39.9547868,-105.1544090
1026,Turnberry Circle,80027,39.9547434,-105.1546011
1024,Turnberry Circle,80027,39.9547297,-105.1549284
1006,Turnberry Circle,80027,39.9548642,-105.1549649
1004,Turnberry Circle,80027,39.9550088,-105.1547089
1002,Turnberry Circle,80027,39.9550589,-105.1545273
1000,Turnberry Circle,80027,39.9551116,-105.1543596
931,Saint Andrews Lane,80027,39.9552313,-105.1540780
933,Saint Andrews Lane,80027,39.9550584,-105.1539325
451,Muirfield Circle,80027,39.9555532,-105.1526592
453,Muirfield Circle,80027,39.9554599,-105.1528388
455,Muirfield Circle,80027,39.9552862,-105.1528645
457,Muirfield Circle,80027,39.9551183,-105.1527587
459,Muirfield Circle,80027,39.9550519,-105.1525380
461,Muirfield Circle,80027,39.9550931,-105.1522904
463,Muirfield Circle,80027,39.9552274,-105.1521915
465,Muirfield Circle,80027,39.9551965,-105.1519142
467,Muirfield Circle,80027,39.9551946,-105.1516879
469,Muirfield Circle,80027,39.9552398,-105.1514917
471,Muirfield Circle,80027,39.9552804,-105.1512943
473,Muirfield Circle,80027,39.9553920,-105.1511373
475,Muirfield Circle,80027,39.9556539,-105.1510191
807,West Mulberry Street,80027,39.9722413,-105.1521273
805,West Mulberry Street,80027,39.9722483,-105.1518541
803,West Mulberry Street,80027,39.9722553,-105.1516091
192,Mesa Court,80027,39.9685961,-105.1599618
187,Mesa Court,80027,39.9691098,-105.1599490
857,West Mulberry Street,80027,39.9700668,-105.1593261
855,West Mulberry Street,80027,39.9702194,-105.1594832
853,West Mulberry Street,80027,39.9702589,-105.1597372
851,West Mulberry Street,80027,39.9703411,-105.1599173
849,West Mulberry Street,80027,39.9704998,-105.1600478
836,West Mulberry Street,80027,39.9704923,-105.1591485
834,West Mulberry Street,80027,39.9706111,-105.1593277
832,West Mulberry Street,80027,39.9707605,-105.1594678
830,West Mulberry Street,80027,39.9709168,-105.1595777
828,West Mulberry Street,80027,39.9710987,-105.1595453
826,West Mulberry Street,80027,39.9712708,-105.1595037
808,West Mulberry Street,80027,39.9717909,-105.1580083
115,Crestview Court,80027,39.9714668,-105.1576906
841,West Mulberry Street,80027,39.9712136,-105.1600411
843,West Mulberry Street,80027,39.9710312,-105.1600851
845,West Mulberry Street,80027,39.9708516,-105.1600356
197,West Elm Street,80027,39.9753056,-105.1433550
191,West Elm Street,80027,39.9754385,-105.1430441
401,Spruce Street,80027,39.9779597,-105.1376139
801,Grant Avenue,80027,39.9779393,-105.1361202
825,Trail Ridge Drive,80027,39.9767102,-105.1598865
827,Trail Ridge Drive,80027,39.9766480,-105.1601756
829,Trail Ridge Drive,80027,39.9765694,-105.1604401
831,Trail Ridge Drive,80027,39.9764045,-105.1605795
833,Trail Ridge Drive,80027,39.9762322,-105.1608829
842,Trail Ridge Drive,80027,39.9764725,-105.1609435
1808,Garfield Avenue,80027,39.9883691,-105.1378333
436,Fireside Street,80027,39.9884803,-105.1375540
466,Fireside Street,80027,39.9885662,-105.1372764
494,Fireside Street,80027,39.9886835,-105.1370037
502,Fireside Street,80027,39.9888233,-105.1367563
540,Fireside Street,80027,39.9889572,-105.1364957
578,Fireside Street,80027,39.9890855,-105.1362520
608,Fireside Street,80027,39.9892045,-105.1360236
638,Fireside Street,80027,39.9893321,-105.1357120
664,Fireside Street,80027,39.9894998,-105.1354369
690,Fireside Street,80027,39.9896189,-105.1352631
697,Fireside Street,80027,39.9899422,-105.1354929
671,Fireside Street,80027,39.9898258,-105.1357277
639,Fireside Street,80027,39.9896998,-105.1359372
607,Fireside Street,80027,39.9895708,-105.1361532
599,Fireside Street,80027,39.9894782,-105.1363642
565,Fireside Street,80027,39.9893642,-105.1365751
539,Fireside Street,80027,39.9892498,-105.1367713
509,Fireside Street,80027,39.9891439,-105.1370158
493,Fireside Street,80027,39.9890418,-105.1372004
477,Fireside Street,80027,39.9889312,-105.1374084
435,Fireside Street,80027,39.9888398,-105.1376478
1846,Garfield Avenue,80027,39.9888326,-105.1379608
1850,Garfield Avenue,80027,39.9890527,-105.1381128
432,Sunnyside Street,80027,39.9891765,-105.1378997
468,Sunnyside Street,80027,39.9892912,-105.1376705
490,Sunnyside Street,80027,39.9893678,-105.1374461
504,Sunnyside Street,80027,39.9895026,-105.1372633
536,Sunnyside Street,80027,39.9896092,-105.1370198
570,Sunnyside Street,80027,39.9897006,-105.1368109
596,Sunnyside Street,80027,39.9897962,-105.1366068
606,Sunnyside Street,80027,39.9898679,-105.1363837
634,Sunnyside Street,80027,39.9899889,-105.1361680
662,Sunnyside Street,80027,39.9900862,-105.1359655
692,Sunnyside Street,80027,39.9902161,-105.1357383
683,Sunnyside Street,80027,39.9904242,-105.1362046
633,Sunnyside Street,80027,39.9903211,-105.1364308
1908,Sunnyside Circle,80027,39.9901773,-105.1367189
1954,Sunnyside Circle,80027,39.9903573,-105.1368566
1978,Sunnyside Circle,80027,39.9904190,-105.1371706
1989,Sunnyside Circle,80027,39.9903199,-105.1374139
1955,Sunnyside Circle,80027,39.9901285,-105.1374472
507,Sunnyside Street,80027,39.9898620,-105.1373238
477,Sunnyside Street,80027,39.9897581,-105.1375819
1992,Strathmore Street,80027,39.9901341,-105.1378111
1948,Strathmore Street,80027,39.9899295,-105.1377444
2016,Strathmore Street,80027,39.9903061,-105.1379861
2062,Strathmore Street,80027,39.9903404,-105.1382504
2053,Strathmore Street,80027,39.9903804,-105.1385939
2015,Strathmore Street,80027,39.9900485,-105.1384837
1987,Strathmore Street,80027,39.9898531,-105.1383554
1953,Strathmore Street,80027,39.9897205,-105.1381645
443,Sunnyside Street,80027,39.9895375,-105.1380755
411,Sunnyside Street,80027,39.9893770,-105.1383382
1950,Garfield Avenue,80027,39.9895872,-105.1385340
1990,Garfield Avenue,80027,39.9897413,-105.1386405
2012,Garfield Avenue,80027,39.9899066,-105.1388532
2042,Garfield Avenue,80027,39.9901053,-105.1389447
2082,Garfield Avenue,80027,39.9902635,-105.1390544
2098,Garfield Avenue,80027,39.9904266,-105.1392030
1853,Garfield Avenue,80027,39.9887454,-105.1385388
1865,Garfield Avenue,80027,39.9887715,-105.1388336
1877,Garfield Avenue,80027,39.9889201,-105.1390206
1889,Garfield Avenue,80027,39.9891056,-105.1392554
1903,Garfield Avenue,80027,39.9892085,-105.1389129
388,Peerless Street,80027,39.9894763,-105.1391091
366,Peerless Street,80027,39.9893709,-105.1393396
348,Peerless Street,80027,39.9892914,-105.1395883
324,Peerless Street,80027,39.9892043,-105.1398177
302,Peerless Street,80027,39.9892222,-105.1401106
307,Peerless Street,80027,39.9893813,-105.1403126
319,Peerless Street,80027,39.9896306,-105.1404545
335,Peerless Street,80027,39.9896561,-105.1400827
353,Peerless Street,80027,39.9896807,-105.1398382
367,Peerless Street,80027,39.9896825,-105.1395955
379,Peerless Street,80027,39.9897626,-105.1393633
380,Matchless Street,80027,39.9900768,-105.1395892
364,Matchless Street,80027,39.9900038,-105.1398121
338,Matchless Street,80027,39.9899397,-105.1400640
306,Matchless Street,80027,39.9899607,-105.1403505
294,Matchless Street,80027,39.9899279,-105.1406070
256,Matchless Street,80027,39.9898872,-105.1408369
228,Matchless Street,80027,39.9900441,-105.1410141
209,Matchless Street,80027,39.9901804,-105.1411927
211,Matchless Street,80027,39.9903872,-105.1412519
249,Matchless Street,80027,39.9904002,-105.1409101
283,Matchless Street,80027,39.9904083,-105.1406247
327,Matchless Street,80027,39.9903499,-105.1403552
363,Matchless Street,80027,39.9903491,-105.1400983
395,Matchless Street,80027,39.9903744,-105.1398373
294,Vulcan Street,80027,39.9909078,-105.1402256
282,Vulcan Street,80027,39.9908983,-105.1404925
266,Vulcan Street,80027,39.9909033,-105.1407783
248,Vulcan Street,80027,39.9908915,-105.1410517
234,Vulcan Street,80027,39.9908446,-105.1413462
220,Vulcan Street,80027,39.9908703,-105.1416626
212,Vulcan Street,80027,39.9910212,-105.1418605
217,Vulcan Street,80027,39.9912207,-105.1418316
229,Vulcan Street,80027,39.9913573,-105.1415804
231,Vulcan Street,80027,39.9913074,-105.1413246
243,Vulcan Street,80027,39.9912528,-105.1410302
269,Vulcan Street,80027,39.9912958,-105.1407865
285,Vulcan Street,80027,39.9912851,-105.1405488
2255,Garfield Avenue,80027,39.9913681,-105.1402523
298,Centennial Drive,80027,39.9916253,-105.1403940
282,Centennial Drive,80027,39.9916192,-105.1406808
264,Centennial Drive,80027,39.9916277,-105.1409709
248,Centennial Drive,80027,39.9916114,-105.1412686
226,Centennial Drive,80027,39.9916313,-105.1415731
208,Centennial Drive,80027,39.9916202,-105.1418536
344,Centennial Drive,80027,39.9916258,-105.1396309
356,Centennial Drive,80027,39.9915958,-105.1392302
2234,Garfield Avenue,80027,39.9913179,-105.1397057
2190,Garfield Avenue,80027,39.9910755,-105.1396420
2146,Garfield Avenue,80027,39.9908899,-105.1394286
2267,Evans Circle,80027,39.9912989,-105.1391732
2239,Evans Circle,80027,39.9910331,-105.1390351
2228,Evans Circle,80027,39.9910670,-105.1386404
2242,Evans Circle,80027,39.9913121,-105.1384364
2280,Evans Circle,80027,39.9915831,-105.1385195
410,Centennial Drive,80027,39.9916062,-105.1380970
2293,Crown Circle,80027,39.9915168,-105.1373749
2265,Crown Circle,80027,39.9913918,-105.1376767
2253,Crown Circle,80027,39.9911821,-105.1378415
2231,Crown Circle,80027,39.9909417,-105.1376827
2224,Crown Circle,80027,39.9909021,-105.1373358
2252,Crown Circle,80027,39.9911281,-105.1370620
2282,Crown Circle,80027,39.9913510,-105.1368937
2157,Centennial Drive,80027,39.9911135,-105.1365258
2143,Centennial Drive,80027,39.9909159,-105.1362774
541,Centennial Drive,80027,39.9918975,-105.1368418
533,Centennial Drive,80027,39.9919850,-105.1371400
529,Centennial Drive,80027,39.9920175,-105.1374686
515,Centennial Drive,80027,39.9920791,-105.1377505
510,Leader Circle,80027,39.9924739,-105.1377059
524,Leader Circle,80027,39.9924539,-105.1373642
532,Leader Circle,80027,39.9923819,-105.1368593
544,Leader Circle,80027,39.9926276,-105.1367035
549,Leader Circle,80027,39.9928917,-105.1369708
537,Leader Circle,80027,39.9929074,-105.1373291
513,Leader Circle,80027,39.9929043,-105.1377107
2388,Sunland Street,80027,39.9932614,-105.1378118
2390,Sunland Street,80027,39.9934624,-105.1375318
419,Sunland Street,80027,39.9937060,-105.1376286
415,Sunland Street,80027,39.9938911,-105.1379184
409,Sunland Street,80027,39.9936680,-105.1382354
2394,Evans Avenue,80027,39.9938152,-105.1386000
2398,Evans Avenue,80027,39.9939976,-105.1385659
2410,Evans Avenue,80027,39.9942564,-105.1386036
2418,Evans Avenue,80027,39.9944449,-105.1385835
2422,Evans Avenue,80027,39.9946595,-105.1385885
2321,Sunland Street,80027,39.9920891,-105.1383229
2323,Sunland Street,80027,39.9924148,-105.1383413
2339,Sunland Street,80027,39.9926574,-105.1383350
2355,Sunland Street,80027,39.9929398,-105.1383094
2371,Sunland Street,80027,39.9932091,-105.1383867
2398,Paramount Court,80027,39.9933582,-105.1388846
2376,Paramount Court,80027,39.9931095,-105.1389133
2352,Paramount Court,80027,39.9928403,-105.1387984
2324,Paramount Court,80027,39.9925899,-105.1389075
2317,Paramount Court,80027,39.9925072,-105.1391944
2325,Paramount Court,80027,39.9925752,-105.1395352
2349,Paramount Court,80027,39.9928829,-105.1395123
2371,Paramount Court,80027,39.9931394,-105.1394680
2395,Paramount Court,80027,39.9933764,-105.1394541
2392,Senator Court,80027,39.9934064,-105.1399405
2366,Senator Court,80027,39.9931649,-105.1399987
2348,Senator Court,80027,39.9928638,-105.1399311
2330,Senator Court,80027,39.9925668,-105.1400023
2322,Senator Court,80027,39.9924790,-105.1403141
2343,Senator Court,80027,39.9925891,-105.1406166
2351,Senator Court,80027,39.9928616,-105.1406816
2367,Senator Court,80027,39.9931729,-105.1405809
2389,Senator Court,80027,39.9933791,-105.1406340
2390,McKinley Avenue,80027,39.9933889,-105.1411497
2376,McKinley Avenue,80027,39.9931618,-105.1411617
2364,McKinley Avenue,80027,39.9929313,-105.1411721
2348,McKinley Avenue,80027,39.9926275,-105.1411621
2332,McKinley Avenue,80027,39.9923924,-105.1411705
217,Centennial Drive,80027,39.9920889,-105.1411337
253,Centennial Drive,80027,39.9920690,-105.1408242
285,Centennial Drive,80027,39.9921033,-105.1405023
309,Centennial Drive,80027,39.9920654,-105.1400891
343,Centennial Drive,80027,39.9921008,-105.1397655
377,Centennial Drive,80027,39.9921132,-105.1393897
419,Centennial Drive,80027,39.9920748,-105.1390305
453,Centennial Drive,80027,39.9920721,-105.1386810
173,Centennial Drive,80027,39.9920580,-105.1419310
2311,McKinley Avenue,80027,39.9921167,-105.1416449
2335,McKinley Avenue,80027,39.9923363,-105.1416816
2347,McKinley Avenue,80027,39.9925488,-105.1416934
2351,McKinley Avenue,80027,39.9927627,-105.1416632
2369,McKinley Avenue,80027,39.9929590,-105.1416897
2373,McKinley Avenue,80027,39.9931639,-105.1416957
2385,McKinley Avenue,80027,39.9933873,-105.1416709
2389,McKinley Avenue,80027,39.9935815,-105.1417142
2393,McKinley Avenue,80027,39.9937950,-105.1417311
2399,McKinley Avenue,80027,39.9940094,-105.1417021
186,Monarch Street,80027,39.9943226,-105.1417790
178,Monarch Street,80027,39.9943308,-105.1420370
162,Monarch Street,80027,39.9943191,-105.1422994
150,Monarch Street,80027,39.9942932,-105.1425530
134,Monarch Street,80027,39.9943118,-105.1427992
116,Monarch Street,80027,39.9943084,-105.1430445
108,Monarch Street,80027,39.9943348,-105.1433125
112,Monarch Court,80027,39.9943258,-105.1435662
138,Monarch Court,80027,39.9943361,-105.1438203
164,Monarch Court,80027,39.9943327,-105.1440791
186,Monarch Court,80027,39.9943312,-105.1443079
177,Monarch Court,80027,39.9947028,-105.1442187
133,Monarch Court,80027,39.9947059,-105.1439672
115,Monarch Court,80027,39.9947386,-105.1437237
401,Sunland Street,80027,39.9937657,-105.1391157
379,Sunland Street,80027,39.9938156,-105.1394184
365,Sunland Street,80027,39.9938200,-105.1397152
341,Sunland Street,80027,39.9938137,-105.1399895
231,Sunland Street,80027,39.9938173,-105.1402705
227,Sunland Street,80027,39.9938253,-105.1405662
215,Sunland Street,80027,39.9938312,-105.1408298
203,Sunland Street,80027,39.9938113,-105.1411577
2396,McKinley Avenue,80027,39.9940199,-105.1411719
2402,McKinley Avenue,80027,39.9943312,-105.1411741
214,Monarch Street,80027,39.9943098,-105.1409301
226,Monarch Street,80027,39.9942987,-105.1406880
238,Monarch Street,80027,39.9943047,-105.1404474
340,Monarch Street,80027,39.9943146,-105.1401792
356,Monarch Street,80027,39.9943164,-105.1399481
364,Monarch Street,80027,39.9943152,-105.1396913
376,Monarch Street,80027,39.9943576,-105.1394586
398,Monarch Street,80027,39.9944531,-105.1391307
2424,Evans Avenue,80027,39.9948857,-105.1387218
2426,Evans Avenue,80027,39.9950489,-105.1388534
2428,Evans Avenue,80027,39.9952184,-105.1389698
2430,Evans Avenue,80027,39.9953821,-105.1391047
395,Monarch Street,80027,39.9947818,-105.1393120
2429,Evans Avenue,80027,39.9950168,-105.1393846
377,Monarch Street,80027,39.9946989,-105.1396503
2435,Evans Avenue,80027,39.9951709,-105.1395080
364,Gorham Court,80027,39.9949910,-105.1398368
338,Gorham Court,80027,39.9950165,-105.1401567
335,Gorham Court,80027,39.9952497,-105.1402736
363,Gorham Court,80027,39.9954429,-105.1400913
2461,Evans Avenue,80027,39.9955904,-105.1398823
2483,Evans Avenue,80027,39.9957938,-105.1400055
2484,Senator Drive,80027,39.9957291,-105.1403093
2478,Senator Drive,80027,39.9955556,-105.1405381
2466,Senator Drive,80027,39.9953506,-105.1406446
2450,Senator Drive,80027,39.9951295,-105.1406825
2432,Senator Drive,80027,39.9949389,-105.1406683
2420,Senator Drive,80027,39.9947255,-105.1406761
317,Monarch Street,80027,39.9946918,-105.1404081
329,Monarch Street,80027,39.9946882,-105.1401671
353,Monarch Street,80027,39.9946800,-105.1399213
144,Jackson Drive,80027,39.9947112,-105.1422423
167,Monarch Street,80027,39.9946838,-105.1419485
175,Monarch Street,80027,39.9946954,-105.1417135
183,Monarch Street,80027,39.9946999,-105.1414390
199,Monarch Street,80027,39.9946761,-105.1411878
2431,Senator Drive,80027,39.9949415,-105.1411408
186,Jackson Drive,80027,39.9949989,-105.1414371
178,Jackson Drive,80027,39.9949915,-105.1417208
166,Jackson Drive,80027,39.9949663,-105.1419868
131,Monarch Street,80027,39.9946799,-105.1427623
117,Monarch Street,80027,39.9947604,-105.1430993
2412,Franklin Avenue,80027,39.9950013,-105.1431866
2428,Franklin Avenue,80027,39.9951267,-105.1430223
2456,Franklin Avenue,80027,39.9953003,-105.1428259
2472,Franklin Avenue,80027,39.9954286,-105.1426978
2488,Franklin Avenue,80027,39.9955563,-105.1425034
2490,Franklin Avenue,80027,39.9957113,-105.1423398
143,Jackson Drive,80027,39.9948875,-105.1427070
145,Jackson Drive,80027,39.9950743,-105.1425474
157,Jackson Drive,80027,39.9952238,-105.1423451
163,Jackson Drive,80027,39.9953322,-105.1421624
167,Jackson Drive,80027,39.9955328,-105.1419777
171,Jackson Drive,80027,39.9956153,-105.1416627
185,Jackson Drive,80027,39.9954021,-105.1414581
2459,Senator Drive,80027,39.9954027,-105.1411387
100,Health Park Drive,80027,39.9516225,-105.1515263
90,Health Park Drive,80027,39.9515720,-105.1524787
80,Health Park Drive,80027,39.9511255,-105.1528701
1078,South 88th Street,80027,39.9513324,-105.1461309
1032,South 88th Street,80027,39.9523598,-105.1465348
1044,South 88th Street,80027,39.9520324,-105.1465137
1056,South 88th Street,80027,39.9520231,-105.1460615
1068,South 88th Street,80027,39.9521891,-105.1459425
800,Coal Creek Circle,80027,39.9577630,-105.1569433
847,West Mulberry Street,80027,39.9706798,-105.1600103
1900,Taylor Avenue,80027,39.9701553,-105.1142524
101,South Taylor Avenue,80027,39.9715313,-105.1168948
785,East South Boulder Road,80027,39.9874089,-105.1338497
1828,Lakespur Lane,80027,39.9893920,-105.1199267
1829,Blue Star Lane,80027,39.9893863,-105.1194812
1806,Blue Star Lane,80027,39.9889292,-105.1190570
1836,Lakespur Lane,80027,39.9895264,-105.1198501
1821,Blue Star Lane,80027,39.9892586,-105.1195604
1813,Blue Star Lane,80027,39.9891284,-105.1196183
1844,Lakespur Lane,80027,39.9896997,-105.1198289
1837,Blue Star Lane,80027,39.9895355,-105.1194357
1830,Blue Star Lane,80027,39.9893211,-105.1189219
1804,Lakespur Lane,80027,39.9890085,-105.1200779
1846,Blue Star Lane,80027,39.9895925,-105.1188848
1849,Sweet Clover Lane,80027,39.9896697,-105.1215268
1814,Blue Star Lane,80027,39.9890608,-105.1190771
1845,Blue Star Lane,80027,39.9896999,-105.1194151
1833,Sweet Clover Lane,80027,39.9894137,-105.1217591
1820,Lakespur Lane,80027,39.9892576,-105.1199610
1854,Blue Star Lane,80027,39.9897281,-105.1188828
1822,Blue Star Lane,80027,39.9891897,-105.1190189
1838,Blue Star Lane,80027,39.9894426,-105.1188951
1907,Lakespur Lane,80027,39.9897574,-105.1203556
1125,Hillside Lane,80027,39.9723434,-105.1660289
994,Dillon Road,80027,39.9606543,-105.1642570
654,West Birch Court,80027,39.9891811,-105.1535443
1121,Hillside Lane,80027,39.9722181,-105.1661754
1113,Hillside Lane,80027,39.9719550,-105.1664893
1109,Hillside Lane,80027,39.9718151,-105.1666514
1105,Hillside Lane,80027,39.9716772,-105.1667920
1101,Hillside Lane,80027,39.9714665,-105.1668798
1100,Hillside Lane,80027,39.9713432,-105.1663381
1104,Hillside Lane,80027,39.9715605,-105.1662729
1108,Hillside Lane,80027,39.9716918,-105.1661190
1112,Hillside Lane,80027,39.9718226,-105.1659856
1116,Hillside Lane,80027,39.9719450,-105.1658143
1120,Hillside Lane,80027,39.9720964,-105.1656201
1124,Hillside Lane,80027,39.9722243,-105.1654753
1128,Hillside Lane,80027,39.9724070,-105.1653564
1132,Hillside Lane,80027,39.9725983,-105.1653335
1129,Hillside Lane,80027,39.9725055,-105.1658846
1136,Hillside Lane,80027,39.9727878,-105.1653851
1140,Hillside Lane,80027,39.9729572,-105.1655661
1144,Hillside Lane,80027,39.9730414,-105.1657591
1148,Hillside Lane,80027,39.9730632,-105.1660253
1152,Hillside Lane,80027,39.9730699,-105.1663450
1156,Hillside Lane,80027,39.9730586,-105.1666131
1160,Hillside Lane,80027,39.9730554,-105.1669083
1164,Hillside Lane,80027,39.9730493,-105.1673440
1167,Hillside Lane,80027,39.9727594,-105.1674983
1169,Hillside Lane,80027,39.9725679,-105.1673678
1165,Hillside Lane,80027,39.9725478,-105.1671098
1161,Hillside Lane,80027,39.9726519,-105.1669067
1133,Hillside Lane,80027,39.9726818,-105.1659603
1157,Hillside Lane,80027,39.9726969,-105.1663239
1137,West Enclave Circle,80027,39.9733805,-105.1678841
1139,West Enclave Circle,80027,39.9733952,-105.1675635
1141,West Enclave Circle,80027,39.9734060,-105.1672439
1143,West Enclave Circle,80027,39.9734268,-105.1669424
1145,West Enclave Circle,80027,39.9735181,-105.1665781
1147,West Enclave Circle,80027,39.9737168,-105.1662804
1135,West Enclave Circle,80027,39.9733765,-105.1681881
1133,West Enclave Circle,80027,39.9734664,-105.1684862
1230,West Enclave Circle,80027,39.9736204,-105.1687360
1226,West Pine Court,80027,39.9736283,-105.1691234
1224,West Pine Court,80027,39.9736518,-105.1694954
1222,West Pine Court,80027,39.9736637,-105.1697893
1214,West Pine Court,80027,39.9740366,-105.1702412
1210,West Pine Court,80027,39.9742241,-105.1699324
1206,West Pine Court,80027,39.9742862,-105.1696709
1202,West Pine Court,80027,39.9743551,-105.1693542
1127,West Enclave Circle,80027,39.9746111,-105.1690733
1125,West Enclave Circle,80027,39.9746901,-105.1686988
1126,West Enclave Circle,80027,39.9742043,-105.1683704
1124,West Enclave Circle,80027,39.9744256,-105.1681958
1122,West Enclave Circle,80027,39.9746203,-105.1680278
1149,West Enclave Circle,80027,39.9740156,-105.1663395
1151,West Enclave Circle,80027,39.9742998,-105.1663960
1152,West Enclave Circle,80027,39.9747107,-105.1670053
1154,West Enclave Circle,80027,39.9750086,-105.1669207
1120,West Enclave Circle,80027,39.9748149,-105.1678353
1118,West Enclave Circle,80027,39.9749771,-105.1675737
1116,West Enclave Circle,80027,39.9751629,-105.1674081
1123,West Enclave Circle,80027,39.9748484,-105.1684602
1121,West Enclave Circle,80027,39.9750234,-105.1682651
1119,West Enclave Circle,80027,39.9752033,-105.1680675
1117,West Enclave Circle,80027,39.9753763,-105.1678841
1155,West Enclave Circle,80027,39.9752091,-105.1663138
1157,West Enclave Circle,80027,39.9754500,-105.1662612
1159,West Enclave Circle,80027,39.9757057,-105.1662625
1161,West Enclave Circle,80027,39.9759474,-105.1662920
1158,West Enclave Circle,80027,39.9752425,-105.1668347
1160,West Enclave Circle,80027,39.9754727,-105.1668347
1162,West Enclave Circle,80027,39.9757430,-105.1668565
1164,West Enclave Circle,80027,39.9760029,-105.1668306
1114,West Enclave Circle,80027,39.9754048,-105.1672952
1112,West Enclave Circle,80027,39.9756270,-105.1672349
1110,West Enclave Circle,80027,39.9758590,-105.1672286
1115,West Enclave Circle,80027,39.9756222,-105.1678184
1113,West Enclave Circle,80027,39.9758698,-105.1678084
1111,West Enclave Circle,80027,39.9761451,-105.1677083
1109,West Enclave Circle,80027,39.9763142,-105.1674518
1107,West Enclave Circle,80027,39.9764253,-105.1671568
1105,West Enclave Circle,80027,39.9764174,-105.1668411
1103,West Enclave Circle,80027,39.9765393,-105.1665294
1101,West Enclave Circle,80027,39.9766026,-105.1662319
956,Eldorado Lane,80027,39.9740288,-105.1646065
948,Larkspur Lane,80027,39.9740428,-105.1642064
946,Larkspur Lane,80027,39.9739917,-105.1639003
944,Larkspur Lane,80027,39.9738272,-105.1638875
942,Larkspur Lane,80027,39.9736788,-105.1637834
940,Larkspur Lane,80027,39.9736207,-105.1635807
938,Larkspur Lane,80027,39.9737047,-105.1633833
936,Larkspur Lane,80027,39.9738391,-105.1632637
934,Larkspur Lane,80027,39.9739952,-105.1633093
932,Larkspur Lane,80027,39.9741051,-105.1630526
926,Eldorado Lane,80027,39.9744236,-105.1647051
924,Eldorado Lane,80027,39.9745840,-105.1646147
922,Eldorado Lane,80027,39.9747079,-105.1644201
951,Larkspur Lane,80027,39.9744397,-105.1643279
949,Larkspur Lane,80027,39.9744047,-105.1641250
920,Eldorado Lane,80027,39.9747100,-105.1641835
918,Eldorado Lane,80027,39.9746890,-105.1639643
916,Eldorado Lane,80027,39.9746757,-105.1637295
947,Larkspur Lane,80027,39.9743452,-105.1638793
945,Larkspur Lane,80027,39.9743060,-105.1636757
943,Larkspur Lane,80027,39.9743326,-105.1634573
914,Eldorado Lane,80027,39.9746960,-105.1635166
939,Larkspur Lane,80027,39.9746182,-105.1631379
941,Larkspur Lane,80027,39.9745042,-105.1632664
906,Eldorado Lane,80027,39.9743719,-105.1627690
904,Eldorado Lane,80027,39.9743019,-105.1625842
902,Eldorado Lane,80027,39.9742695,-105.1623803
900,Eldorado Lane,80027,39.9742559,-105.1621297
898,Larkspur Court,80027,39.9746732,-105.1623570
1574,White Violet Way,80027,39.9886243,-105.1196733
1566,White Violet Way,80027,39.9886263,-105.1198215
1558,White Violet Way,80027,39.9886600,-105.1199760
1918,Quail Circle,80027,39.9888641,-105.1470339
1922,Quail Circle,80027,39.9890667,-105.1469657
1936,Quail Circle,80027,39.9892639,-105.1469661
1944,Quail Circle,80027,39.9894659,-105.1469781
1950,Quail Circle,80027,39.9896071,-105.1472250
1964,Quail Circle,80027,39.9896743,-105.1475219
1976,Quail Circle,80027,39.9896771,-105.1477833
1979,Quail Circle,80027,39.9892685,-105.1477485
1982,Quail Circle,80027,39.9896333,-105.1480502
1900,Quail Circle,80027,39.9886825,-105.1471600
1995,Quail Circle,80027,39.9891515,-105.1479480
1911,Quail Circle,80027,39.9889630,-105.1476064
1937,Quail Circle,80027,39.9891601,-105.1474953
1998,Eisenhower Drive,80027,39.9894246,-105.1483740
480,West Dahlia Street,80027,39.9638172,-105.1585891
2095,Boxelder Street,80027,39.9631489,-105.1102570
765,East South Boulder Road,80027,39.9872027,-105.1345652
1754,Dogwood Street,80027,39.9658323,-105.1167372
1700,Dogwood Street,80027,39.9654004,-105.1168658
1800,Plaza Drive,80027,39.9899727,-105.1227204
2021,Lakespur Lane,80027,39.9918304,-105.1196934
700,Tech Ct.,80027,39.9593737,-105.1160074
739,South 104th Street,80027,39.9587722,-105.1105636
167,Taylor Avenue,80027,39.9702427,-105.1213584
183,Taylor Avenue,80027,39.9692370,-105.1223347
305,South Arthur Avenue,80027,39.9674754,-105.1260218
255,South Taylor Avenue,80027,39.9686516,-105.1205406
674,South Arthur Avenue,80027,39.9606704,-105.1228115
725,Tech Ct.,80027,39.9593649,-105.1178671
600,Tech Ct.,80027,39.9612606,-105.1169606
1933,Blue Star Lane,80027,39.9903977,-105.1194239
1925,Blue Star Lane,80027,39.9902539,-105.1194416
1917,Blue Star Lane,80027,39.9901251,-105.1194277
1909,Blue Star Lane,80027,39.9899724,-105.1194356
1924,Lakespur Lane,80027,39.9901163,-105.1198062
1916,Lakespur Lane,80027,39.9899746,-105.1197915
1908,Lakespur Lane,80027,39.9898506,-105.1198190
1901,Blue Star Lane,80027,39.9898376,-105.1194546
1934,Blue Star Lane,80027,39.9904059,-105.1188726
1902,Blue Star Lane,80027,39.9898775,-105.1188799
1910,Blue Star Lane,80027,39.9900214,-105.1188633
1918,Blue Star Lane,80027,39.9901346,-105.1188797
1926,Blue Star Lane,80027,39.9902732,-105.1188724
901-917,Front Street,80027,39.9790352,-105.1311270
966,Arapahoe Circle,80027,39.9754063,-105.1650079
965,Arapahoe Circle,80027,39.9754798,-105.1651780
967,Arapahoe Circle,80027,39.9756006,-105.1653277
969,Arapahoe Circle,80027,39.9757274,-105.1653723
971,Arapahoe Circle,80027,39.9759209,-105.1654057
973,Arapahoe Circle,80027,39.9760792,-105.1654143
1021,Willow Place,80027,39.9781129,-105.1647654
975,Arapahoe Circle,80027,39.9762343,-105.1654481
977,Arapahoe Circle,80027,39.9763775,-105.1653141
979,Arapahoe Circle,80027,39.9764907,-105.1651732
1039,Willow Place,80027,39.9766793,-105.1653434
1037,Willow Place,80027,39.9768420,-105.1654358
1035,Willow Place,80027,39.9770324,-105.1654446
1033,Willow Place,80027,39.9772049,-105.1654314
1031,Willow Place,80027,39.9773989,-105.1653920
1029,Willow Place,80027,39.9775686,-105.1653610
1027,Willow Place,80027,39.9777556,-105.1653391
1025,Willow Place,80027,39.9779556,-105.1652687
1023,Willow Place,80027,39.9780459,-105.1650378
1016,Arapahoe Circle,80027,39.9777435,-105.1641499
1000,Arapahoe Circle,80027,39.9776179,-105.1639383
1003,Honeysuckle Lane,80027,39.9775117,-105.1642668
1005,Honeysuckle Lane,80027,39.9774812,-105.1645439
583,West Mulberry Street,80027,39.9722378,-105.1513556
1002,Honeysuckle Lane,80027,39.9772792,-105.1636649
847,Trail Ridge Drive,80027,39.9771983,-105.1610407
845,Trail Ridge Drive,80027,39.9770266,-105.1612375
958,Arapahoe Circle,80027,39.9753571,-105.1647783
954,Arapahoe Circle,80027,39.9753585,-105.1645536
952,Arapahoe Circle,80027,39.9753556,-105.1643280
948,Arapahoe Circle,80027,39.9753717,-105.1641134
946,Arapahoe Circle,80027,39.9753633,-105.1638852
942,Arapahoe Circle,80027,39.9753688,-105.1636587
940,Arapahoe Circle,80027,39.9753770,-105.1634607
938,Arapahoe Circle,80027,39.9753981,-105.1632260
1004,Honeysuckle Lane,80027,39.9772108,-105.1639264
1006,Honeysuckle Lane,80027,39.9771877,-105.1641931
1008,Honeysuckle Lane,80027,39.9771091,-105.1644120
1010,Honeysuckle Lane,80027,39.9770563,-105.1646548
1012,Honeysuckle Lane,80027,39.9770181,-105.1649467
993,Arapahoe Circle,80027,39.9770575,-105.1636671
991,Arapahoe Circle,80027,39.9769532,-105.1639761
989,Arapahoe Circle,80027,39.9769275,-105.1641877
987,Arapahoe Circle,80027,39.9768124,-105.1644941
985,Arapahoe Circle,80027,39.9767659,-105.1647822
976,Arapahoe Circle,80027,39.9761053,-105.1649077
972,Arapahoe Circle,80027,39.9759235,-105.1649233
978,Arapahoe Circle,80027,39.9762639,-105.1647935
980,Arapahoe Circle,80027,39.9763741,-105.1645842
984,Arapahoe Circle,80027,39.9764926,-105.1643797
986,Arapahoe Circle,80027,39.9765463,-105.1641326
926,Arapahoe Circle,80027,39.9758900,-105.1628549
988,Arapahoe Circle,80027,39.9765803,-105.1639085
990,Arapahoe Circle,80027,39.9766107,-105.1636530
994,Arapahoe Circle,80027,39.9769539,-105.1631892
992,Arapahoe Circle,80027,39.9767360,-105.1634081
955,Arapahoe Circle,80027,39.9757293,-105.1640853
949,Arapahoe Circle,80027,39.9757290,-105.1638493
945,Arapahoe Circle,80027,39.9757306,-105.1636564
939,Arapahoe Circle,80027,39.9757369,-105.1634410
935,Arapahoe Circle,80027,39.9757521,-105.1632490
931,Arapahoe Circle,80027,39.9758215,-105.1630358
2097,Centennial Drive,80027,39.9904451,-105.1440346
2073,Centennial Drive,80027,39.9903124,-105.1440392
2051,West Centennial Drive,80027,39.9901602,-105.1440140
2039,West Centennial Drive,80027,39.9900222,-105.1440541
2005,West Centennial Drive,80027,39.9898744,-105.1440092
1991,Centennial Drive,80027,39.9897357,-105.1440168
1985,Centennial Drive,80027,39.9895904,-105.1440069
1977,Centennial Drive,80027,39.9894543,-105.1439830
307,Eisenhower Drive,80027,39.9892126,-105.1440123
280,West Cedar Way,80027,39.9900165,-105.1435037
273,Regal Street,80027,39.9896870,-105.1434737
287,West Cedar Way,80027,39.9903692,-105.1435049
284,Regal Street,80027,39.9893304,-105.1434416
305,West Hawthorn Court,80027,39.9884584,-105.1441416
319,West Hawthorn Court,80027,39.9885746,-105.1443300
335,West Hawthorn Court,80027,39.9885774,-105.1445782
347,West Hawthorn Court,80027,39.9884430,-105.1447259
332,West Hawthorn Court,80027,39.9882724,-105.1447582
320,West Hawthorn Court,80027,39.9881433,-105.1446196
306,West Hawthorn Court,80027,39.9880923,-105.1444435
302,Eisenhower Drive,80027,39.9887664,-105.1440067
314,Eisenhower Drive,80027,39.9887784,-105.1441978
322,Eisenhower Drive,80027,39.9888197,-105.1443659
330,Eisenhower Drive,80027,39.9888699,-105.1445558
348,Eisenhower Drive,80027,39.9888599,-105.1447636
358,Eisenhower Drive,80027,39.9887341,-105.1448964
366,Eisenhower Drive,80027,39.9885930,-105.1449631
376,Eisenhower Drive,80027,39.9884469,-105.1450425
384,Eisenhower Drive,80027,39.9883409,-105.1451646
386,Eisenhower Drive,80027,39.9882450,-105.1453319
392,Eisenhower Drive,80027,39.9881781,-105.1455204
398,Eisenhower Drive,80027,39.9881556,-105.1457150
404,Eisenhower Drive,80027,39.9882709,-105.1462638
416,Eisenhower Drive,80027,39.9883796,-105.1464035
426,Eisenhower Drive,80027,39.9885745,-105.1465474
430,Eisenhower Drive,80027,39.9887587,-105.1465773
448,Eisenhower Drive,80027,39.9890539,-105.1465849
452,Eisenhower Drive,80027,39.9892416,-105.1465242
462,Eisenhower Drive,80027,39.9894223,-105.1464195
470,Eisenhower Drive,80027,39.9896169,-105.1462870
484,Eisenhower Drive,80027,39.9899316,-105.1462961
493,Eisenhower Drive,80027,39.9903437,-105.1462705
487,Eisenhower Drive,80027,39.9902912,-105.1459812
481,Eisenhower Drive,80027,39.9901460,-105.1457726
479,Eisenhower Drive,80027,39.9899245,-105.1456410
475,Eisenhower Drive,80027,39.9897201,-105.1456321
471,Eisenhower Drive,80027,39.9895162,-105.1457136
467,Eisenhower Drive,80027,39.9893609,-105.1458707
455,Eisenhower Drive,80027,39.9891482,-105.1460182
439,Eisenhower Drive,80027,39.9889415,-105.1461078
417,Eisenhower Drive,80027,39.9886750,-105.1460431
389,Eisenhower Drive,80027,39.9885519,-105.1455462
385,Eisenhower Drive,80027,39.9886689,-105.1454216
371,Eisenhower Drive,80027,39.9888166,-105.1453939
363,Eisenhower Drive,80027,39.9889486,-105.1453140
357,Eisenhower Drive,80027,39.9890679,-105.1452051
349,Eisenhower Drive,80027,39.9891642,-105.1450337
347,Eisenhower Drive,80027,39.9892141,-105.1448810
333,Eisenhower Drive,80027,39.9892541,-105.1446883
325,Eisenhower Drive,80027,39.9892365,-105.1444982
317,Eisenhower Drive,80027,39.9892095,-105.1443038
2034,Eisenhower Drive,80027,39.9896558,-105.1483948
2066,Eisenhower Drive,80027,39.9899060,-105.1483951
510,Eisenhower Drive,80027,39.9899594,-105.1481633
508,Eisenhower Drive,80027,39.9899558,-105.1479102
507,Eisenhower Drive,80027,39.9903564,-105.1477310
509,Eisenhower Drive,80027,39.9903726,-105.1480078
511,Eisenhower Drive,80027,39.9903955,-105.1482926
517,Eisenhower Drive,80027,39.9904166,-105.1486871
519,Eisenhower Drive,80027,39.9903318,-105.1489335
2095,Eisenhower Drive,80027,39.9900774,-105.1489711
2073,Eisenhower Drive,80027,39.9898679,-105.1489325
2015,Eisenhower Drive,80027,39.9895014,-105.1489322
1999,Eisenhower Drive,80027,39.9893014,-105.1488525
1955,Quail Court,80027,39.9890630,-105.1486803
1919,Quail Court,80027,39.9889200,-105.1488499
1897,Quail Court,80027,39.9887142,-105.1489816
1875,Quail Court,80027,39.9885219,-105.1489732
1851,Quail Court,80027,39.9882582,-105.1488572
1830,Quail Court,80027,39.9881802,-105.1485985
1846,Quail Court,80027,39.9883735,-105.1482735
1888,Quail Court,80027,39.9886572,-105.1483893
1931,Eisenhower Drive,80027,39.9888198,-105.1482197
1865,Eisenhower Drive,80027,39.9886439,-105.1479536
1843,Eisenhower Drive,80027,39.9885308,-105.1477364
1827,Eisenhower Drive,80027,39.9883105,-105.1475822
1832,Eisenhower Drive,80027,39.9884510,-105.1470312
1818,Eisenhower Drive,80027,39.9882332,-105.1470011
1806,Eisenhower Drive,80027,39.9880182,-105.1470323
1791,Eisenhower Drive,80027,39.9880703,-105.1476633
1798,Eisenhower Drive,80027,39.9878339,-105.1471677
1779,Eisenhower Drive,80027,39.9879583,-105.1479154
1784,Eisenhower Drive,80027,39.9876771,-105.1474230
1772,Eisenhower Drive,80027,39.9876010,-105.1476309
1767,Eisenhower Drive,80027,39.9878560,-105.1481211
1753,Eisenhower Drive,80027,39.9877642,-105.1483530
1756,Eisenhower Drive,80027,39.9875095,-105.1478959
1748,Eisenhower Drive,80027,39.9874185,-105.1481185
1720,Eisenhower Drive,80027,39.9873419,-105.1483279
1715,Eisenhower Drive,80027,39.9873446,-105.1489248
1727,Eisenhower Drive,80027,39.9875849,-105.1487862
1735,Eisenhower Drive,80027,39.9876653,-105.1485550
2419,Franklin Avenue,80027,39.9949713,-105.1436905
2423,Franklin Avenue,80027,39.9951655,-105.1435891
2437,Franklin Avenue,80027,39.9953431,-105.1434274
2455,Franklin Avenue,80027,39.9954889,-105.1432392
2471,Franklin Avenue,80027,39.9956359,-105.1430812
2493,Franklin Avenue,80027,39.9957792,-105.1428825
2507,Franklin Avenue,80027,39.9959212,-105.1427047
2511,Franklin Avenue,80027,39.9960607,-105.1425270
2523,Franklin Avenue,80027,39.9961996,-105.1423729
2537,Franklin Avenue,80027,39.9963448,-105.1421769
2502,Franklin Avenue,80027,39.9958578,-105.1421450
2514,Franklin Avenue,80027,39.9959896,-105.1419754
2526,Franklin Avenue,80027,39.9961313,-105.1417963
2530,Franklin Avenue,80027,39.9962977,-105.1416367
2542,Franklin Avenue,80027,39.9964706,-105.1414915
2541,Franklin Avenue,80027,39.9965187,-105.1420155
2559,Franklin Avenue,80027,39.9967192,-105.1418729
2563,Franklin Avenue,80027,39.9968812,-105.1417613
2575,Franklin Avenue,80027,39.9970393,-105.1415985
2581,Franklin Avenue,80027,39.9972078,-105.1414302
2558,Franklin Avenue,80027,39.9966493,-105.1413541
2564,Franklin Avenue,80027,39.9968190,-105.1412217
2561,Evans Avenue,80027,39.9968528,-105.1408930
2593,Franklin Avenue,80027,39.9974403,-105.1413136
2598,Franklin Avenue,80027,39.9975466,-105.1410098
2584,Franklin Avenue,80027,39.9973928,-105.1407493
2572,Evans Avenue,80027,39.9971644,-105.1406222
2566,Evans Avenue,80027,39.9969941,-105.1404241
2543,Evans Avenue,80027,39.9966809,-105.1407168
2537,Evans Avenue,80027,39.9965006,-105.1405818
2548,Evans Avenue,80027,39.9968119,-105.1402769
2536,Evans Avenue,80027,39.9966406,-105.1401497
2521,Evans Avenue,80027,39.9963220,-105.1404421
2522,Evans Avenue,80027,39.9964772,-105.1400146
2515,Senator Drive,80027,39.9960984,-105.1403776
2514,Evans Avenue,80027,39.9963061,-105.1398737
2496,Evans Avenue,80027,39.9961209,-105.1397275
2488,Evans Avenue,80027,39.9959547,-105.1396000
2470,Evans Avenue,80027,39.9957719,-105.1394203
2464,Evans Avenue,80027,39.9956022,-105.1393216
2501,Sunrise Court,80027,39.9956891,-105.1410328
2517,Sunrise Court,80027,39.9958274,-105.1412375
2523,Sunrise Court,80027,39.9960517,-105.1413304
2536,Sunrise Court,80027,39.9962451,-105.1411249
2528,Sunrise Court,80027,39.9962001,-105.1408205
2518,Sunrise Court,80027,39.9960085,-105.1406574
275,West Cedar Way,80027,39.9903741,-105.1433033
253,West Cedar Way,80027,39.9903778,-105.1431358
231,West Cedar Way,80027,39.9903571,-105.1429482
215,West Cedar Way,80027,39.9903862,-105.1427544
268,West Cedar Way,80027,39.9900132,-105.1433114
256,West Cedar Way,80027,39.9900354,-105.1431313
224,West Cedar Way,80027,39.9900252,-105.1429431
202,West Cedar Way,80027,39.9899538,-105.1427217
193,West Cedar Way,80027,39.9902859,-105.1425012
189,West Cedar Way,80027,39.9901842,-105.1423250
167,West Cedar Way,80027,39.9900355,-105.1422741
155,West Cedar Way,80027,39.9898771,-105.1422600
191,Regal Street,80027,39.9896728,-105.1427236
139,West Cedar Way,80027,39.9897441,-105.1422627
123,West Cedar Way,80027,39.9895702,-105.1422837
235,Regal Street,80027,39.9897102,-105.1429288
247,Regal Street,80027,39.9897095,-105.1431065
269,Regal Street,80027,39.9896976,-105.1432813
258,Regal Street,80027,39.9893498,-105.1432444
226,Regal Street,80027,39.9893580,-105.1430275
192,Regal Street,80027,39.9893470,-105.1428176
164,Regal Street,80027,39.9892710,-105.1425961
130,Regal Street,80027,39.9892081,-105.1424142
108,Regal Street,80027,39.9891409,-105.1422528
115,Continental View Drive,80303,39.9872862,-105.1650685
125,Continental View Drive,80303,39.9875037,-105.1647437
1745,Continental View Drive,80027,39.9880261,-105.1647600
1871,Continental View Drive,80027,39.9896026,-105.1637338
1885,Continental View Drive,80027,39.9898876,-105.1638198
1899,Continental View Drive,80027,39.9902337,-105.1634441
1091,Azure Way,80027,39.9903036,-105.1624945
1084,Azure Way,80027,39.9898527,-105.1625152
1874,Continental View Drive,80027,39.9896245,-105.1625738
1836,Continental View Drive,80027,39.9891877,-105.1626475
1820,Continental View Drive,80027,39.9887408,-105.1626744
1788,Continental View Drive,80027,39.9883035,-105.1631476
1764,Continental View Drive,80027,39.9879066,-105.1636669
1094,West Choke Cherry Drive,80027,39.9873917,-105.1639553
1702,Continental View Drive,80027,39.9871546,-105.1640394
1811,West Choke Cherry Drive,80027,39.9886547,-105.1622416
1827,West Choke Cherry Drive,80027,39.9889415,-105.1621644
1843,West Choke Cherry Drive,80027,39.9891475,-105.1621005
1865,West Choke Cherry Drive,80027,39.9894360,-105.1619987
1881,West Choke Cherry Drive,80027,39.9896055,-105.1616431
1876,West Choke Cherry Drive,80027,39.9894604,-105.1612815
1854,West Choke Cherry Drive,80027,39.9891927,-105.1613297
1830,West Choke Cherry Drive,80027,39.9890008,-105.1615265
989,West Plum Circle,80027,39.9886708,-105.1616051
1039,Azure Way,80027,39.9903024,-105.1620209
1017,Azure Way,80027,39.9903097,-105.1614946
985,Azure Way,80027,39.9903142,-105.1611130
947,Azure Way,80027,39.9903021,-105.1606163
922,Azure Way,80027,39.9898760,-105.1605709
976,Azure Way,80027,39.9898777,-105.1610169
1010,Azure Way,80027,39.9898755,-105.1615030
1026,Azure Way,80027,39.9898798,-105.1620710
1815,West Barberry Court,80027,39.9885950,-105.1595226
1823,West Barberry Court,80027,39.9887000,-105.1594113
1839,West Barberry Court,80027,39.9887986,-105.1592743
1851,West Barberry Court,80027,39.9889216,-105.1591650
1867,West Barberry Court,80027,39.9890073,-105.1590475
1834,West Barberry Court,80027,39.9885692,-105.1589473
1822,West Barberry Court,80027,39.9884629,-105.1590618
1800,West Barberry Court,80027,39.9883653,-105.1592016
1778,Hays Drive,80027,39.9882576,-105.1589539
1760,Hays Drive,80027,39.9881557,-105.1588361
1752,West Barberry Circle,80027,39.9880993,-105.1594314
869,West Barberry Circle,80027,39.9877598,-105.1594460
865,West Barberry Circle,80027,39.9877487,-105.1592773
857,West Barberry Circle,80027,39.9877666,-105.1591104
856,West Barberry Circle,80027,39.9874053,-105.1590346
1736,West Barberry Circle,80027,39.9879276,-105.1596793
1724,West Barberry Circle,80027,39.9878217,-105.1597805
896,West Barberry Circle,80027,39.9873920,-105.1601066
888,West Barberry Circle,80027,39.9874004,-105.1599249
880,West Barberry Circle,80027,39.9874094,-105.1597498
874,West Barberry Circle,80027,39.9873973,-105.1595579
868,West Barberry Circle,80027,39.9874019,-105.1593886
862,West Barberry Circle,80027,39.9873914,-105.1592307
1711,West Barberry Circle,80027,39.9878051,-105.1603465
1727,West Barberry Circle,80027,39.9879331,-105.1602430
1739,West Barberry Circle,80027,39.9880541,-105.1601318
1743,West Barberry Circle,80027,39.9881465,-105.1600347
1755,West Barberry Circle,80027,39.9882590,-105.1599154
1767,West Barberry Circle,80027,39.9883615,-105.1597930
1075,West Choke Cherry Drive,80027,39.9877156,-105.1633633
1057,West Choke Cherry Drive,80027,39.9876895,-105.1630238
1021,West Choke Cherry Drive,80027,39.9877541,-105.1626504
1765,West Choke Cherry Drive,80027,39.9878968,-105.1624119
1714,West Choke Cherry Drive,80027,39.9873331,-105.1622196
1036,West Choke Cherry Drive,80027,39.9872156,-105.1625358
1058,West Choke Cherry Drive,80027,39.9871868,-105.1629241
1070,West Choke Cherry Drive,80027,39.9871779,-105.1632984
1082,West Choke Cherry Drive,80027,39.9872836,-105.1636146
1738,West Choke Cherry Drive,80027,39.9875748,-105.1619069
1766,West Choke Cherry Drive,80027,39.9878679,-105.1617211
1792,West Choke Cherry Drive,80027,39.9881575,-105.1615989
980,West Plum Circle,80027,39.9882082,-105.1613419
966,West Plum Circle,80027,39.9883013,-105.1609630
942,West Plum Circle,80027,39.9884809,-105.1607134
916,West Plum Circle,80027,39.9886658,-105.1604389
955,West Plum Circle,80027,39.9887581,-105.1612374
937,West Plum Circle,80027,39.9889474,-105.1610507
903,West Plum Circle,80027,39.9891660,-105.1608121
1863,West Plum Circle,80027,39.9893277,-105.1605535
1844,West Plum Circle,80027,39.9890892,-105.1600504
1866,West Plum Circle,80027,39.9893017,-105.1598726
1887,West Plum Circle,80027,39.9896261,-105.1605646
1888,West Plum Circle,80027,39.9896083,-105.1599343
1044,West Plum Circle,80027,39.9882137,-105.1626558
1793,West Choke Cherry Drive,80027,39.9881673,-105.1622150
672,West Hawthorn Street,80027,39.9877635,-105.1538322
1723,Madison Court,80027,39.9875100,-105.1538776
1705,Madison Court,80027,39.9872775,-105.1537223
1706,Madison Court,80027,39.9872728,-105.1533698
1722,Madison Court,80027,39.9875290,-105.1531730
650,West Hawthorn Street,80027,39.9877586,-105.1532200
600,West Hawthorn Street,80027,39.9877475,-105.1525148
1725,Fillmore Court,80027,39.9875023,-105.1525855
1707,Fillmore Court,80027,39.9872958,-105.1523622
1708,Fillmore Court,80027,39.9873059,-105.1519472
1726,Fillmore Court,80027,39.9875272,-105.1518724
550,West Hawthorn Street,80027,39.9878074,-105.1519196
1741,Polk Court,80027,39.9878076,-105.1515118
1733,Polk Court,80027,39.9875890,-105.1515366
1725,Polk Court,80027,39.9873209,-105.1514300
1714,Polk Court,80027,39.9872732,-105.1510959
1728,Polk Court,80027,39.9874803,-105.1507881
1740,Polk Court,80027,39.9879149,-105.1509652
550,West Laurel Court,80027,39.9880249,-105.1505632
544,West Laurel Court,80027,39.9878485,-105.1503927
538,West Laurel Court,80027,39.9877155,-105.1501828
522,West Laurel Court,80027,39.9875820,-105.1499189
505,West Laurel Court,80027,39.9876493,-105.1495530
513,West Laurel Court,80027,39.9879583,-105.1494689
527,West Laurel Court,80027,39.9881178,-105.1497287
539,West Laurel Court,80027,39.9881644,-105.1500171
545,West Laurel Court,80027,39.9883370,-105.1502241
538,West Ash Court,80027,39.9886846,-105.1500343
524,West Ash Court,80027,39.9885096,-105.1497781
516,West Ash Court,80027,39.9885354,-105.1494624
503,West Ash Court,80027,39.9887756,-105.1493481
519,West Ash Court,80027,39.9890341,-105.1494446
527,West Ash Court,80027,39.9890846,-105.1497429
1802,Tyler Avenue,80027,39.9891028,-105.1499796
1818,Tyler Avenue,80027,39.9893510,-105.1494072
1830,Tyler Avenue,80027,39.9895671,-105.1494006
1852,Tyler Avenue,80027,39.9897812,-105.1493795
1876,Tyler Avenue,80027,39.9899669,-105.1493506
1898,Tyler Avenue,80027,39.9902223,-105.1493671
513,West Cedar Place,80027,39.9902784,-105.1496960
529,West Cedar Place,80027,39.9902842,-105.1499917
535,West Cedar Place,80027,39.9902903,-105.1502497
524,West Cedar Place,80027,39.9898415,-105.1499712
532,West Cedar Place,80027,39.9898641,-105.1502381
540,West Cedar Place,80027,39.9898520,-105.1505238
541,West Cedar Place,80027,39.9903181,-105.1505210
557,West Cedar Place,80027,39.9902840,-105.1508101
556,West Cedar Place,80027,39.9898507,-105.1508114
563,West Cedar Place,80027,39.9903146,-105.1510847
570,West Cedar Place,80027,39.9898398,-105.1510886
571,West Cedar Place,80027,39.9902783,-105.1514169
1899,Polk Avenue,80027,39.9901032,-105.1516611
1877,Polk Avenue,80027,39.9898462,-105.1516741
1855,Polk Avenue,80027,39.9896571,-105.1516814
1833,Polk Avenue,80027,39.9894329,-105.1516846
569,West Beech Place,80027,39.9895193,-105.1511459
555,West Beech Place,80027,39.9895365,-105.1508415
547,West Beech Place,80027,39.9895310,-105.1505561
533,West Beech Place,80027,39.9895077,-105.1502602
1845,Tyler Avenue,80027,39.9895434,-105.1499845
544,West Beech Place,80027,39.9891222,-105.1505856
556,West Beech Place,80027,39.9891205,-105.1508685
568,West Beech Place,80027,39.9891035,-105.1511091
570,West Ash Street,80027,39.9888360,-105.1511320
1811,Polk Avenue,80027,39.9892230,-105.1516868
1805,Polk Avenue,80027,39.9890243,-105.1517207
574,West Ash Street,80027,39.9886848,-105.1513099
582,West Ash Street,80027,39.9885729,-105.1516166
586,West Ash Street,80027,39.9885243,-105.1519332
1802,Fillmore Court,80027,39.9889608,-105.1521715
598,West Ash Street,80027,39.9884952,-105.1521747
606,West Ash Street,80027,39.9884855,-105.1524705
618,West Ash Street,80027,39.9885066,-105.1527520
624,West Ash Street,80027,39.9884810,-105.1529999
1816,Fillmore Court,80027,39.9892045,-105.1521283
1834,Fillmore Court,80027,39.9894372,-105.1520807
1852,Fillmore Court,80027,39.9896959,-105.1523070
1853,Fillmore Court,80027,39.9896595,-105.1526751
1831,Fillmore Court,80027,39.9894079,-105.1528079
1815,Fillmore Court,80027,39.9891753,-105.1527451
1801,Fillmore Court,80027,39.9889251,-105.1527378
625,West Ash Street,80027,39.9889152,-105.1530144
643,West Ash Street,80027,39.9888924,-105.1533143
657,West Ash Street,80027,39.9889242,-105.1535820
671,West Ash Street,80027,39.9889156,-105.1538594
678,West Birch Court,80027,39.9892333,-105.1538853
648,West Birch Court,80027,39.9893089,-105.1532016
649,West Birch Court,80027,39.9895666,-105.1531835
653,West Birch Court,80027,39.9896993,-105.1535292
677,West Birch Court,80027,39.9896471,-105.1539164
670,West Ash Street,80027,39.9884948,-105.1538723
656,West Ash Street,80027,39.9884984,-105.1535980
642,West Ash Street,80027,39.9884787,-105.1532894
673,West Hawthorn Street,80027,39.9881772,-105.1538610
655,West Hawthorn Street,80027,39.9881731,-105.1535561
641,West Hawthorn Street,80027,39.9881640,-105.1532840
627,West Hawthorn Street,80027,39.9881626,-105.1529920
619,West Hawthorn Street,80027,39.9881616,-105.1527147
605,West Hawthorn Street,80027,39.9881700,-105.1524314
599,West Hawthorn Street,80027,39.9881865,-105.1521621
587,West Hawthorn Street,80027,39.9882161,-105.1518898
581,West Hawthorn Street,80027,39.9882403,-105.1516099
575,West Hawthorn Street,80027,39.9882492,-105.1513399
563,West Hawthorn Street,80027,39.9883370,-105.1510547
1753,Tyler Avenue,80027,39.9884524,-105.1508506
1777,Tyler Avenue,80027,39.9886045,-105.1506552
1791,Tyler Avenue,80027,39.9888294,-105.1505775
1383,Golden Eagle Way,80027,39.9939476,-105.1244863
2421,Rose Court,80027,39.9940268,-105.1229419
2265,Wynonna Court,80027,39.9929434,-105.1355449
2277,Wynonna Court,80027,39.9930799,-105.1356744
2289,Wynonna Court,80027,39.9932101,-105.1357693
2301,Wynonna Court,80027,39.9933594,-105.1358685
2313,Wynonna Court,80027,39.9935385,-105.1360012
2325,Wynonna Court,80027,39.9937361,-105.1359200
2332,Wynonna Court,80027,39.9938268,-105.1356689
2320,Wynonna Court,80027,39.9938298,-105.1354266
2308,Wynonna Court,80027,39.9938182,-105.1351876
2296,Wynonna Court,80027,39.9937161,-105.1349517
2284,Wynonna Court,80027,39.9935485,-105.1348864
2272,Wynonna Court,80027,39.9933567,-105.1349450
2260,Wynonna Court,80027,39.9932239,-105.1351224
757,Treece Street,80027,39.9927870,-105.1345649
779,Treece Street,80027,39.9928695,-105.1343941
801,Treece Street,80027,39.9929846,-105.1341898
823,Treece Street,80027,39.9930866,-105.1340066
845,Treece Street,80027,39.9931620,-105.1338191
867,Treece Street,80027,39.9932396,-105.1336269
889,Treece Street,80027,39.9933341,-105.1334159
903,Treece Street,80027,39.9934465,-105.1331447
917,Treece Street,80027,39.9935500,-105.1329658
931,Treece Street,80027,39.9936450,-105.1327544
945,Treece Street,80027,39.9937092,-105.1325305
959,Treece Street,80027,39.9937333,-105.1323203
973,Treece Street,80027,39.9937743,-105.1320921
987,Treece Street,80027,39.9937474,-105.1318619
1001,Treece Street,80027,39.9937283,-105.1316390
1015,Treece Street,80027,39.9936921,-105.1314268
1029,Treece Street,80027,39.9936574,-105.1311994
900,Treece Street,80027,39.9930523,-105.1329123
914,Treece Street,80027,39.9931490,-105.1327713
928,Treece Street,80027,39.9932170,-105.1325974
942,Treece Street,80027,39.9932776,-105.1323962
956,Treece Street,80027,39.9933197,-105.1321948
970,Treece Street,80027,39.9933487,-105.1319870
984,Treece Street,80027,39.9933351,-105.1317742
1004,Treece Street,80027,39.9933216,-105.1315503
1012,Treece Street,80027,39.9932614,-105.1313485
1025,Magpie Lane,80027,39.9929464,-105.1314936
1005,Magpie Lane,80027,39.9929738,-105.1316860
985,Magpie Lane,80027,39.9930272,-105.1318972
965,Magpie Lane,80027,39.9930045,-105.1321358
945,Magpie Lane,80027,39.9929757,-105.1323790
925,Magpie Lane,80027,39.9928698,-105.1325327
905,Magpie Lane,80027,39.9928200,-105.1327131
1118,Paschal Drive,80027,39.9938941,-105.1303524
1130,Paschal Drive,80027,39.9938920,-105.1301883
1144,Paschal Drive,80027,39.9938906,-105.1300453
1156,Paschal Drive,80027,39.9938902,-105.1298924
1178,Paschal Drive,80027,39.9938881,-105.1297469
2358,Park Lane,80027,39.9935718,-105.1299164
2366,Park Lane,80027,39.9935756,-105.1297636
2318,Park Lane,80027,39.9935509,-105.1303049
2310,Park Lane,80027,39.9934229,-105.1303556
2298,Park Lane,80027,39.9933356,-105.1304010
2290,Park Lane,80027,39.9931511,-105.1304775
2282,Park Lane,80027,39.9930526,-105.1305274
2274,Park Lane,80027,39.9929458,-105.1305648
2266,Park Lane,80027,39.9928343,-105.1306191
2214,Hecla Drive,80027,39.9922849,-105.1311023
2224,Hecla Drive,80027,39.9923992,-105.1311012
2232,Hecla Drive,80027,39.9925110,-105.1311051
2213,Park Lane,80027,39.9924583,-105.1307628
2205,Park Lane,80027,39.9924571,-105.1306041
2197,Park Lane,80027,39.9924587,-105.1304504
2189,Park Lane,80027,39.9924549,-105.1302954
2179,Park Lane,80027,39.9924551,-105.1301466
2171,Park Lane,80027,39.9924567,-105.1299944
2163,Park Lane,80027,39.9924549,-105.1298397
2155,Park Lane,80027,39.9924564,-105.1296882
2147,Park Lane,80027,39.9924532,-105.1295374
2256,Hecla Drive,80027,39.9928266,-105.1310219
2264,Hecla Drive,80027,39.9929417,-105.1309742
2272,Hecla Drive,80027,39.9930444,-105.1309295
2280,Hecla Drive,80027,39.9931436,-105.1308854
2288,Hecla Drive,80027,39.9932465,-105.1308431
2296,Hecla Drive,80027,39.9934380,-105.1307553
2304,Hecla Drive,80027,39.9935426,-105.1307048
2312,Hecla Drive,80027,39.9936516,-105.1306661
2320,Hecla Drive,80027,39.9937606,-105.1306189
842,Treece Street,80027,39.9928101,-105.1335124
856,Treece Street,80027,39.9928682,-105.1333896
870,Treece Street,80027,39.9929254,-105.1332757
2395,Evans Avenue,80027,39.9940120,-105.1390791
2411,Evans Avenue,80027,39.9942485,-105.1390510
711,West Birch Court,80027,39.9895802,-105.1545507
725,West Birch Court,80027,39.9895767,-105.1546718
739,West Birch Court,80027,39.9895679,-105.1548357
741,West Birch Court,80027,39.9895551,-105.1549616
749,West Birch Court,80027,39.9895937,-105.1551214
753,West Birch Court,80027,39.9895935,-105.1552470
757,West Birch Court,80027,39.9896565,-105.1554058
761,West Birch Court,80027,39.9896545,-105.1555336
773,West Birch Court,80027,39.9896342,-105.1557399
781,West Birch Court,80027,39.9895957,-105.1558231
795,West Birch Court,80027,39.9894359,-105.1558858
799,West Birch Court,80027,39.9893500,-105.1559192
796,West Birch Court,80027,39.9891897,-105.1558983
782,West Birch Court,80027,39.9891304,-105.1558505
774,West Birch Court,80027,39.9890391,-105.1556683
762,West Birch Court,80027,39.9890259,-105.1555532
756,West Birch Court,80027,39.9890538,-105.1553779
754,West Birch Court,80027,39.9890720,-105.1552539
748,West Birch Court,80027,39.9891190,-105.1550891
742,West Birch Court,80027,39.9891075,-105.1549670
738,West Birch Court,80027,39.9890775,-105.1548051
724,West Birch Court,80027,39.9890704,-105.1546821
710,West Birch Court,80027,39.9890899,-105.1545000
706,West Birch Court,80027,39.9890844,-105.1543951
1899,Regal Court,80027,39.9889175,-105.1418245
1867,Regal Court,80027,39.9886402,-105.1418297
1815,Regal Court,80027,39.9882213,-105.1418366
1888,Regal Court,80027,39.9886799,-105.1414099
1850,Regal Court,80027,39.9885591,-105.1414140
1817,Regal Court,80027,39.9884000,-105.1410885
1832,Regal Court,80027,39.9882743,-105.1414965
1753,Regal Court,80027,39.9876713,-105.1417547
1764,Regal Court,80027,39.9879471,-105.1414577
256,Regal Place,80027,39.9880089,-105.1410058
1736,Regal Court,80027,39.9878248,-105.1413149
2261,Golden Eagle Way,80027,39.9921659,-105.1256154
1932,Lakespur Lane,80027,39.9902539,-105.1198283
1803,Lakespur Lane,80027,39.9889991,-105.1206480
1811,Lakespur Lane,80027,39.9891453,-105.1206021
1819,Lakespur Lane,80027,39.9893027,-105.1205471
1827,Lakespur Lane,80027,39.9894378,-105.1205776
1826,Sweet Clover Lane,80027,39.9893993,-105.1211546
1818,Sweet Clover Lane,80027,39.9892517,-105.1212623
1810,Sweet Clover Lane,80027,39.9891108,-105.1212652
1802,Sweet Clover Lane,80027,39.9889702,-105.1212455
1915,Lakespur Lane,80027,39.9898920,-105.1203684
1923,Lakespur Lane,80027,39.9900305,-105.1203697
1931,Lakespur Lane,80027,39.9901652,-105.1203800
1889,Sweet Clover Lane,80027,39.9898149,-105.1206359
1881,Sweet Clover Lane,80027,39.9898166,-105.1208151
1873,Sweet Clover Lane,80027,39.9898216,-105.1209897
1865,Sweet Clover Lane,80027,39.9898076,-105.1211914
1857,Sweet Clover Lane,80027,39.9897952,-105.1214043
1841,Sweet Clover Lane,80027,39.9895493,-105.1216850
1825,Sweet Clover Lane,80027,39.9892704,-105.1218383
1817,Sweet Clover Lane,80027,39.9891005,-105.1218472
1809,Sweet Clover Lane,80027,39.9889705,-105.1217892
1801,Sweet Clover Lane,80027,39.9888323,-105.1217481
1775,Sweet Clover Lane,80027,39.9886314,-105.1216938
1550,White Violet Way,80027,39.9886217,-105.1201669
1542,White Violet Way,80027,39.9886314,-105.1203302
1534,White Violet Way,80027,39.9886312,-105.1204953
1526,White Violet Way,80027,39.9886289,-105.1206842
1518,White Violet Way,80027,39.9886358,-105.1208442
1510,White Violet Way,80027,39.9886212,-105.1210444
1502,White Violet Way,80027,39.9886232,-105.1211845
299,Pheasant Run,80027,39.9876171,-105.1441225
297,Pheasant Run,80027,39.9876147,-105.1440623
295,Pheasant Run,80027,39.9876147,-105.1440070
293,Pheasant Run,80027,39.9876151,-105.1439486
291,Pheasant Run,80027,39.9876150,-105.1438879
289,Pheasant Run,80027,39.9876151,-105.1438312
285,Pheasant Run,80027,39.9876159,-105.1437773
281,Pheasant Run,80027,39.9876163,-105.1437203
279,Pheasant Run,80027,39.9876200,-105.1435616
277,Pheasant Run,80027,39.9876200,-105.1435013
273,Pheasant Run,80027,39.9876201,-105.1434454
271,Pheasant Run,80027,39.9876201,-105.1433897
267,Pheasant Run,80027,39.9876202,-105.1433318
265,Pheasant Run,80027,39.9876201,-105.1432738
263,Pheasant Run,80027,39.9876196,-105.1432175
261,Pheasant Run,80027,39.9876189,-105.1431624
259,Pheasant Run,80027,39.9876189,-105.1431010
298,Pheasant Run,80027,39.9872413,-105.1441343
296,Pheasant Run,80027,39.9872412,-105.1440764
294,Pheasant Run,80027,39.9872411,-105.1440185
292,Pheasant Run,80027,39.9872409,-105.1439605
290,Pheasant Run,80027,39.9872406,-105.1439018
288,Pheasant Run,80027,39.9872400,-105.1438434
286,Pheasant Run,80027,39.9872398,-105.1437870
254,Pheasant Run,80027,39.9872283,-105.1433725
252,Pheasant Run,80027,39.9872331,-105.1433159
250,Pheasant Run,80027,39.9872382,-105.1432581
248,Pheasant Run,80027,39.9872431,-105.1432002
246,Pheasant Run,80027,39.9872478,-105.1431428
244,Pheasant Run,80027,39.9872524,-105.1430898
242,Pheasant Run,80027,39.9872557,-105.1430377
240,Pheasant Run,80027,39.9872606,-105.1429740
238,Pheasant Run,80027,39.9872393,-105.1427675
236,Pheasant Run,80027,39.9872616,-105.1427205
234,Pheasant Run,80027,39.9872844,-105.1426721
232,Pheasant Run,80027,39.9873080,-105.1426188
230,Pheasant Run,80027,39.9873314,-105.1425692
228,Pheasant Run,80027,39.9873522,-105.1425230
222,Pheasant Run,80027,39.9873720,-105.1424786
220,Pheasant Run,80027,39.9873968,-105.1424263
199,Pheasant Run,80027,39.9878639,-105.1427259
197,Pheasant Run,80027,39.9879085,-105.1427255
195,Pheasant Run,80027,39.9879532,-105.1427255
187,Pheasant Run,80027,39.9879978,-105.1427262
185,Pheasant Run,80027,39.9880433,-105.1427260
183,Pheasant Run,80027,39.9880863,-105.1427253
181,Pheasant Run,80027,39.9881308,-105.1427243
179,Pheasant Run,80027,39.9881741,-105.1427243
175,Pheasant Run,80027,39.9882179,-105.1427242
218,Pheasant Run,80027,39.9875596,-105.1422388
216,Pheasant Run,80027,39.9876061,-105.1422396
214,Pheasant Run,80027,39.9876462,-105.1422408
212,Pheasant Run,80027,39.9876887,-105.1422405
210,Pheasant Run,80027,39.9877332,-105.1422406
208,Pheasant Run,80027,39.9877789,-105.1422411
206,Pheasant Run,80027,39.9878244,-105.1422426
204,Pheasant Run,80027,39.9878645,-105.1422424
200,Pheasant Run,80027,39.9879087,-105.1422422
168,Pheasant Run,80027,39.9883363,-105.1422413
166,Pheasant Run,80027,39.9883803,-105.1422415
162,Pheasant Run,80027,39.9884242,-105.1422410
160,Pheasant Run,80027,39.9884683,-105.1422398
158,Pheasant Run,80027,39.9885133,-105.1422387
156,Pheasant Run,80027,39.9885570,-105.1422386
154,Pheasant Run,80027,39.9886020,-105.1422386
152,Pheasant Run,80027,39.9886458,-105.1422381
150,Pheasant Run,80027,39.9886901,-105.1422374
137,Pheasant Run,80027,39.9883648,-105.1427427
135,Pheasant Run,80027,39.9884055,-105.1427673
133,Pheasant Run,80027,39.9884438,-105.1427887
131,Pheasant Run,80027,39.9884842,-105.1428139
129,Pheasant Run,80027,39.9885256,-105.1428376
127,Pheasant Run,80027,39.9885661,-105.1428606
125,Pheasant Run,80027,39.9886066,-105.1428843
121,Pheasant Run,80027,39.9886480,-105.1429078
117,Pheasant Run,80027,39.9887261,-105.1431104
115,Pheasant Run,80027,39.9887222,-105.1431697
111,Pheasant Run,80027,39.9887190,-105.1432255
109,Pheasant Run,80027,39.9887156,-105.1432823
107,Pheasant Run,80027,39.9887126,-105.1433397
105,Pheasant Run,80027,39.9887093,-105.1433982
103,Pheasant Run,80027,39.9887064,-105.1434542
101,Pheasant Run,80027,39.9887030,-105.1435152
100,Pheasant Run,80027,39.9890637,-105.1434742
102,Pheasant Run,80027,39.9890678,-105.1434142
104,Pheasant Run,80027,39.9890717,-105.1433600
110,Pheasant Run,80027,39.9890751,-105.1433034
112,Pheasant Run,80027,39.9890797,-105.1432430
114,Pheasant Run,80027,39.9890841,-105.1431844
116,Pheasant Run,80027,39.9890874,-105.1431276
118,Pheasant Run,80027,39.9890907,-105.1430715
132,Pheasant Run,80027,39.9890214,-105.1426566
134,Pheasant Run,80027,39.9890016,-105.1426005
136,Pheasant Run,80027,39.9889832,-105.1425469
138,Pheasant Run,80027,39.9889642,-105.1424971
140,Pheasant Run,80027,39.9889445,-105.1424471
142,Pheasant Run,80027,39.9889254,-105.1423938
144,Pheasant Run,80027,39.9889063,-105.1423412
146,Pheasant Run,80027,39.9888883,-105.1422874
148,Pheasant Run,80027,39.9888685,-105.1422292
449,Pheasant Run,80027,39.9879043,-105.1458396
447,Pheasant Run,80027,39.9879057,-105.1457815
443,Pheasant Run,80027,39.9879067,-105.1457216
441,Pheasant Run,80027,39.9879074,-105.1456622
401,Pheasant Run,80027,39.9876678,-105.1454546
403,Pheasant Run,80027,39.9877139,-105.1454578
405,Pheasant Run,80027,39.9877586,-105.1454613
407,Pheasant Run,80027,39.9878025,-105.1454653
409,Pheasant Run,80027,39.9878485,-105.1454663
411,Pheasant Run,80027,39.9878920,-105.1454608
413,Pheasant Run,80027,39.9879342,-105.1454678
415,Pheasant Run,80027,39.9879815,-105.1454710
351,Pheasant Run,80027,39.9879420,-105.1451917
353,Pheasant Run,80027,39.9878959,-105.1451922
355,Pheasant Run,80027,39.9878504,-105.1451973
359,Pheasant Run,80027,39.9878070,-105.1451882
361,Pheasant Run,80027,39.9877590,-105.1451814
365,Pheasant Run,80027,39.9877159,-105.1451843
367,Pheasant Run,80027,39.9876733,-105.1451862
369,Pheasant Run,80027,39.9876276,-105.1451730
329,Pheasant Run,80027,39.9879406,-105.1449871
327,Pheasant Run,80027,39.9879423,-105.1449275
323,Pheasant Run,80027,39.9879440,-105.1448704
321,Pheasant Run,80027,39.9879463,-105.1448117
317,Pheasant Run,80027,39.9879088,-105.1446277
315,Pheasant Run,80027,39.9878639,-105.1446373
313,Pheasant Run,80027,39.9878178,-105.1446249
311,Pheasant Run,80027,39.9877762,-105.1446536
309,Pheasant Run,80027,39.9877322,-105.1446625
305,Pheasant Run,80027,39.9876873,-105.1446566
303,Pheasant Run,80027,39.9876446,-105.1446798
301,Pheasant Run,80027,39.9875985,-105.1446888
469,Pheasant Run,80027,39.9877147,-105.1461722
465,Pheasant Run,80027,39.9877435,-105.1461276
463,Pheasant Run,80027,39.9877728,-105.1460838
461,Pheasant Run,80027,39.9878054,-105.1460436
459,Pheasant Run,80027,39.9878328,-105.1459956
473,Pheasant Run,80027,39.9876674,-105.1463095
477,Pheasant Run,80027,39.9876376,-105.1463533
483,Pheasant Run,80027,39.9876080,-105.1463948
485,Pheasant Run,80027,39.9875765,-105.1464349
489,Pheasant Run,80027,39.9875446,-105.1464804
491,Pheasant Run,80027,39.9875141,-105.1465246
495,Pheasant Run,80027,39.9874855,-105.1465653
497,Pheasant Run,80027,39.9874526,-105.1466033
436,Pheasant Run,80027,39.9872445,-105.1461135
434,Pheasant Run,80027,39.9872539,-105.1460556
432,Pheasant Run,80027,39.9872697,-105.1459990
428,Pheasant Run,80027,39.9872785,-105.1459424
424,Pheasant Run,80027,39.9872800,-105.1458874
422,Pheasant Run,80027,39.9872882,-105.1458299
420,Pheasant Run,80027,39.9872970,-105.1457736
396,Pheasant Run,80027,39.9873180,-105.1455710
390,Pheasant Run,80027,39.9873087,-105.1455145
388,Pheasant Run,80027,39.9872983,-105.1454619
382,Pheasant Run,80027,39.9872853,-105.1454017
380,Pheasant Run,80027,39.9872795,-105.1453439
378,Pheasant Run,80027,39.9872713,-105.1452924
374,Pheasant Run,80027,39.9872622,-105.1452371
372,Pheasant Run,80027,39.9872531,-105.1451804
346,Pheasant Run,80027,39.9872509,-105.1450227
344,Pheasant Run,80027,39.9872504,-105.1449644
342,Pheasant Run,80027,39.9872484,-105.1449089
338,Pheasant Run,80027,39.9872501,-105.1448518
336,Pheasant Run,80027,39.9872467,-105.1447935
334,Pheasant Run,80027,39.9872479,-105.1447361
332,Pheasant Run,80027,39.9872481,-105.1446780
1862,Steel Street,80027,39.9895726,-105.1330502
1850,Steel Street,80027,39.9895129,-105.1330049
1838,Steel Street,80027,39.9894521,-105.1329593
1826,Steel Street,80027,39.9893927,-105.1329086
1814,Steel Street,80027,39.9893280,-105.1328547
1802,Steel Street,80027,39.9892603,-105.1328002
1866,Jules Lane,80027,39.9896829,-105.1327795
1854,Jules Lane,80027,39.9896142,-105.1327260
1842,Jules Lane,80027,39.9895598,-105.1326837
1830,Jules Lane,80027,39.9895093,-105.1326452
1818,Jules Lane,80027,39.9894543,-105.1326025
1806,Jules Lane,80027,39.9893888,-105.1325387
1863,Gallagher Lane,80027,39.9898582,-105.1324080
1851,Gallagher Lane,80027,39.9897943,-105.1323482
1839,Gallagher Lane,80027,39.9897419,-105.1323046
1827,Gallagher Lane,80027,39.9896833,-105.1322574
1815,Gallagher Lane,80027,39.9896231,-105.1322083
1803,Gallagher Lane,80027,39.9895614,-105.1321607
1864,Gallagher Lane,80027,39.9899875,-105.1321392
1852,Gallagher Lane,80027,39.9899164,-105.1321028
1840,Gallagher Lane,80027,39.9898591,-105.1320623
1828,Gallagher Lane,80027,39.9897960,-105.1320133
1816,Gallagher Lane,80027,39.9897433,-105.1319620
1804,Gallagher Lane,80027,39.9896925,-105.1319008
1867,Kalel Lane,80027,39.9901723,-105.1317730
1855,Kalel Lane,80027,39.9901081,-105.1317025
1843,Kalel Lane,80027,39.9900568,-105.1316585
1831,Kalel Lane,80027,39.9900055,-105.1316187
1819,Kalel Lane,80027,39.9899572,-105.1315796
1807,Kalel Lane,80027,39.9898845,-105.1315412
1868,Kalel Lane,80027,39.9903788,-105.1315704
1856,Kalel Lane,80027,39.9903094,-105.1315333
1844,Kalel Lane,80027,39.9902539,-105.1315005
1832,Kalel Lane,80027,39.9901933,-105.1314508
1820,Kalel Lane,80027,39.9901389,-105.1314040
1808,Kalel Lane,80027,39.9900858,-105.1313387
1942,Patti Lane,80027,39.9904145,-105.1324901
1930,Patti Lane,80027,39.9903412,-105.1324443
1918,Patti Lane,80027,39.9902843,-105.1324025
1906,Patti Lane,80027,39.9902233,-105.1323342
1965,Patti Lane,80027,39.9903954,-105.1328294
1953,Patti Lane,80027,39.9903384,-105.1327644
1941,Patti Lane,80027,39.9902941,-105.1327287
1929,Patti Lane,80027,39.9902443,-105.1326917
1917,Patti Lane,80027,39.9901933,-105.1326510
1905,Patti Lane,80027,39.9901136,-105.1326016
1962,Aldous Lane,80027,39.9902144,-105.1332139
1950,Aldous Lane,80027,39.9901492,-105.1331728
1938,Aldous Lane,80027,39.9900933,-105.1331309
1926,Aldous Lane,80027,39.9900298,-105.1330815
1914,Aldous Lane,80027,39.9899757,-105.1330313
1902,Aldous Lane,80027,39.9899168,-105.1329678
1964,Steel Street,80027,39.9900934,-105.1334691
1952,Steel Street,80027,39.9900321,-105.1333991
1940,Steel Street,80027,39.9899822,-105.1333587
1928,Steel Street,80027,39.9899248,-105.1333172
1916,Steel Street,80027,39.9898754,-105.1332721
1904,Steel Street,80027,39.9897975,-105.1332367
1940,Lakespur Lane,80027,39.9904031,-105.1197983
199,South Taylor Avenue,80027,39.9692340,-105.1206875
1340,South 96th Street,80027,39.9629203,-105.1274107
1006,Pine Street,80027,39.9767044,-105.1303559
131,West Cherry Street,80027,39.9659365,-105.1437968
525,S. McCaslin,80027,39.9633301,-105.1647318
1153,West Enclave Circle,80027,39.9748728,-105.1664431
1212,South Street,80027,39.9790469,-105.1286041
1781,Regal Court,80027,39.9879595,-105.1418415
1143,Summit View Drive,80027,39.9920502,-105.1302773
1149,Summit View Drive,80027,39.9920598,-105.1301245
1125,Summit View Drive,80027,39.9920601,-105.1307268
1119,Summit View Drive,80027,39.9920505,-105.1308796
1113,Summit View Drive,80027,39.9920566,-105.1310276
1107,Summit View Drive,80027,39.9920647,-105.1311560
1137,Summit View Drive,80027,39.9920556,-105.1304322
1131,Summit View Drive,80027,39.9920637,-105.1305606
1161,Summit View Drive,80027,39.9920513,-105.1298431
1155,Summit View Drive,80027,39.9920594,-105.1299714
1173,Summit View Drive,80027,39.9920569,-105.1295625
1167,Summit View Drive,80027,39.9920500,-105.1296909
1172,Summit View Drive,80027,39.9916078,-105.1295652
1166,Summit View Drive,80027,39.9916152,-105.1296957
1154,Summit View Drive,80027,39.9916118,-105.1299748
1160,Summit View Drive,80027,39.9916191,-105.1298429
1148,Summit View Drive,80027,39.9916095,-105.1301280
1142,Summit View Drive,80027,39.9916236,-105.1302776
1130,Summit View Drive,80027,39.9916175,-105.1305654
1136,Summit View Drive,80027,39.9916231,-105.1304363
1124,Summit View Drive,80027,39.9916144,-105.1307147
1118,Summit View Drive,80027,39.9916204,-105.1308439
1106,Summit View Drive,80027,39.9916140,-105.1311516
1112,Summit View Drive,80027,39.9916236,-105.1309988
2030,Lakespur Lane,80027,39.9918675,-105.1189373
2022,Lakespur Lane,80027,39.9916372,-105.1189235
1763,Sweet Clover Lane,80027,39.9884811,-105.1217253
2014,Lakespur Lane,80027,39.9913739,-105.1188892
9673,Dillon Road,80027,39.9583229,-105.1263304
10433,Dillon Road,80020,39.9582116,-105.1085799
375,Majestic View Drive,80303,39.9802564,-105.1694432
922,Arapahoe Court,80027,39.9754763,-105.1618209
1331,Hecla Drive,80027,39.9900914,-105.1263680
845,Coal Creek Circle,80027,39.9574459,-105.1582399
585,West Dillon Road,80027,39.9588778,-105.1499884
1849,Cherry Street,80027,39.9656553,-105.1147719
329,Campus Drive,80027,39.9519117,-105.1416064
