House number,Street name,Postal code,Latitude,Longitude
821,Duffield Court,80537,40.4005808,-105.0929138
2660,North Monroe Avenue,80538,40.4191499,-105.0669240
6085,Sky Pond Drive,80538,40.4202174,-104.9907536
5971,Sky Pond Drive,80538,40.4157174,-104.9891510
5915,Sky Pond Drive,80538,40.4118535,-104.9906420
5929,Sky Pond Drive,80538,40.4122416,-104.9904277
5875,Sky Pond Drive,80537,40.4157685,-104.9904414
623,North Denver Avenue,80538,40.3967472,-105.0469069
808,14th Street Southwest,80537,40.3779227,-105.0921740
2321,West Eisenhower Boulevard,80537,40.4085890,-105.1094007
2707,West Eisenhower Boulevard,80537,40.4078280,-105.1144841
1421,West Eisenhower Boulevard,80537,40.4075189,-105.0978547
6020,Stallion Drive,80538,40.4363692,-104.9887018
401,North Denver Avenue,80537,40.3958633,-105.0486920
863,North Cleveland Avenue,80537,40.4007131,-105.0747884
2293,West Eisenhower Boulevard,80537,40.4086862,-105.1089930
2237,West Eisenhower Boulevard,80537,40.4079837,-105.1084090
2295,West Eisenhower Boulevard,80538,40.4086883,-105.1090990
2225,West Eisenhower Boulevard,80537,40.4076928,-105.1084090
2231,West Eisenhower Boulevard,80537,40.4078504,-105.1084070
2293,West Eisenhower Boulevard,80537,40.4086846,-105.1089260
2241,West Eisenhower Boulevard,80537,40.4080963,-105.1084131
2243,West Eisenhower Boulevard,80537,40.4081888,-105.1084090
2287,West Eisenhower Boulevard,80537,40.4086884,-105.1086850
2285,West Eisenhower Boulevard,80537,40.4086887,-105.1086113
2291,West Eisenhower Boulevard,80537-3147,40.4086801,-105.1088510
2277,West Eisenhower Boulevard,80537,40.4086849,-105.1084120
2249,West Eisenhower Boulevard,80537,40.4083368,-105.1084090
950,East Eisenhower Boulevard,80537,40.4055854,-105.0638745
210,East 4th Street,80537,40.3953009,-105.0741848
6140,East Crossroads Boulevard,80537,40.4355658,-104.9868180
3720,Draft Horse Drive,80538-9005,40.4311874,-104.9837780
6130,Crossroads Boulevard,80538,40.4355990,-104.9871338
3716,Draft Horse Drive,80538-9005,40.4312164,-104.9844852
6100,Crossroads Boulevard,80538,40.4355975,-104.9873057
3718,Draft Horse Drive,80538-9005,40.4311920,-104.9842403
4045,Saint Cloud Drive,80538,40.4335702,-104.9861398
4065,Saint Cloud Drive,80538,40.4343470,-104.9858390
4025,Saint Cloud Drive,80538,40.4335205,-104.9869358
4025,Saint Cloud Drive,80538,40.4334127,-104.9870458
4045,Saint Cloud Drive,80538,40.4337192,-104.9861416
4065,Saint Cloud Drive,80538,40.4343470,-104.9860760
3686,Draft Horse Drive,80538,40.4299972,-104.9884199
3760,Byrd Drive,80538,40.4301353,-104.9944984
1651,Fall River Drive,80538-8715,40.4095085,-105.0074340
1647,Fall River Drive,80538,40.4095146,-105.0075942
1645,Fall River Drive,80538,40.4095177,-105.0077190
1657,Rocky Mountain Avenue,80538-8715,40.4094822,-105.0068931
1759,Rocky Mountain Avenue,80538,40.4097043,-105.0029010
1771,Rocky Mountain Avenue,80538,40.4098685,-105.0029060
1775,Rocky Mountain Avenue,80538,40.4099550,-105.0028070
2114,North Lincoln Avenue,80538,40.4145054,-105.0725150
2114,North Lincoln Avenue,80538,40.4145753,-105.0724255
2114,North Lincoln Avenue,80538,40.4146076,-105.0723830
2114,North Lincoln Avenue,80538,40.4145395,-105.0724656
2114,North Lincoln Avenue,80538,40.4144754,-105.0725636
530,North Cleveland Avenue,80537,40.3972648,-105.0743224
1243,North Lincoln Avenue,80537,40.4055563,-105.0733530
970,East Eisenhower Boulevard,80537,40.4068544,-105.0645610
982,East Eisenhower Boulevard,80537,40.4068525,-105.0642239
910,East Eisenhower Boulevard,80537,40.4056420,-105.0646539
986,East Eisenhower Boulevard,80537,40.4068512,-105.0641529
974,East Eisenhower Boulevard,80537,40.4068519,-105.0644519
978,East Eisenhower Boulevard,80537,40.4068519,-105.0643444
1702,East 9th Street,80537,40.4004663,-105.0535050
524,North Cleveland Avenue,80537,40.3971049,-105.0743268
544,East 6th Street,80537,40.3974025,-105.0743249
1451,West Eisenhower Boulevard,80537,40.4083458,-105.0979102
3200,Garfield Avenue,80538,40.4251950,-105.0769904
3200,North Garfield Avenue,80538,40.4250779,-105.0769869
1437,North Denver Avenue,80538,40.4082786,-105.0458379
1427,North Denver Avenue,80538,40.4083791,-105.0452297
1427,North Denver Avenue,80538,40.4083683,-105.0453161
5400,Stone Creek Circle,80538,40.4078206,-105.0003934
5400,Stone Creek Circle,80538,40.4079390,-105.0005275
5943,Sky Pond Drive,80538,40.4131407,-104.9899703
5943,Sky Pond Drive,80538,40.4129722,-104.9900776
5855,Sky Pond Drive,80538,40.4138677,-104.9904223
5865,Sky Pond Drive,80538,40.4142527,-104.9902610
1627,East 18th Street,80538,40.4112510,-105.0528200
373,North Denver Avenue,80538,40.3959480,-105.0461129
124,East 4th Street,80537,40.3953124,-105.0750800
5542,North Garfield Avenue,80538,40.4502042,-105.0765101
5486,North Garfield Avenue,80538,40.4495148,-105.0765810
1417,North Cleveland Avenue,80537,40.4077158,-105.0748702
1421,North Cleveland Avenue,80537,40.4078282,-105.0748639
105,East 37th Street,80538,40.4307014,-105.0769545
129,East 37th Street,80538,40.4309446,-105.0762699
269,East 29th Street,80538-2721,40.4245774,-105.0736599
3131,Garfield Avenue,80538,40.4250709,-105.0793300
2979,North Garfield Avenue,80538,40.4233707,-105.0790268
2997,North Garfield Avenue,80538,40.4238857,-105.0779166
3135,Garfield Avenue,80538,40.4250281,-105.0779737
232,East County Road 30,80525,40.4650895,-105.0747380
2985,North Garfield Avenue,80538,40.4237873,-105.0790450
1767,Rocky Mountain Avenue,80538,40.4097927,-105.0029070
1550,Fall River Drive,80538-8715,40.4084436,-105.0070605
1550,Fall River Drive,80538-8715,40.4085732,-105.0070310
1550,Fall River Drive,80538-8715,40.4086202,-105.0070163
1550,Fall River Drive,80538,40.4086682,-105.0069920
1550,Fall River Drive,80538-8715,40.4087948,-105.0069380
1550,Fall River Drive,80538-8715,40.4087305,-105.0069680
1569,Fall River Drive,80538,40.4083295,-105.0076970
1569,Fall River Drive,80538,40.4083269,-105.0078173
1569,Fall River Drive,80538,40.4087491,-105.0076480
1453,East Eisenhower Boulevard,80537,40.4086187,-105.0557959
3329,Garfield Avenue,80538,40.4267988,-105.0783524
133,East 37th Street,80538,40.4309433,-105.0761747
117,East 37th Street,80538,40.4309439,-105.0764963
105,East 37th Street,80538,40.4309416,-105.0768831
3507,Garfield Avenue,80538,40.4280000,-105.0780070
3151,Garfield Avenue,80538,40.4257419,-105.0781112
3033,North Garfield Avenue,80538,40.4243995,-105.0781044
109,East 37th Street,80538,40.4309477,-105.0766139
104,East 29th Street,80538,40.4213385,-105.0764589
261,East 29th Street,80538,40.4248867,-105.0745150
277,East 29th Street,80538,40.4239228,-105.0737280
281,East 29th Street,80538,40.4233398,-105.0737290
701,Clubhouse Drive,80537,40.3988141,-105.1421094
225,East 29th Street,80538,40.4226118,-105.0764140
216,East 29th Street,80538,40.4206514,-105.0742890
220,East 29th Street,80538,40.4207093,-105.0741124
228,East 29th Street,80538,40.4210392,-105.0741811
266,East 29th Street,80538,40.4206417,-105.0735728
262,East 29th Street,80538,40.4205317,-105.0735670
260,East 29th Street,80538,40.4204187,-105.0735657
256,East 29th Street,80538,40.4203175,-105.0735610
246,East 29th Street,80538,40.4203310,-105.0732308
284,East 29th Street,80538,40.4209323,-105.0732334
237,West 64th Street,80538,40.4553080,-105.0791856
237,West 64th Street,80538,40.4555753,-105.0791896
270,West 64th Street,80538,40.4544965,-105.0790550
2245,West Eisenhower Boulevard,80537,40.4082641,-105.1084110
436,North Lincoln Avenue,80537,40.3960899,-105.0730366
426,North Lincoln Avenue,80537,40.3960119,-105.0730398
1479,West Eisenhower Boulevard,80537,40.4079560,-105.0986703
1467,West Eisenhower Boulevard,80537,40.4079805,-105.0984879
6650,Harrison Avenue,80538,40.4609526,-105.0795935
395,West 67th Street,80538,40.4616224,-105.0816808
400,West 69th Street,80538,40.4623372,-105.0817140
239,West 67th Court,80538,40.4617733,-105.0789578
235,West 67th Court,80538,40.4617697,-105.0787920
231,West 67th Court,80538,40.4617758,-105.0786221
3153,Garfield Avenue,80538,40.4258763,-105.0781030
325,Southwest 12th Street,80537,40.3802844,-105.0815325
1650,Foxtrail Drive,80538,40.4084482,-105.0017617
1650,Foxtrail Drive,80538,40.4084133,-105.0017604
680,East Eisenhower Boulevard,80537,40.4069987,-105.0685714
541,East Eisenhower Boulevard,80537,40.4074833,-105.0694426
965,East 11th Street,80537,40.4045531,-105.0641646
6651,Franklin Avenue,80538,40.4607153,-105.0858585
1351,North Cleveland Avenue,80537,40.4070360,-105.0746848
365,East 27th Street,80538,40.4206556,-105.0716363
319,East 27th Street,80538,40.4206419,-105.0725889
2212,East 11th Street,80537,40.4025565,-105.0454340
1709,West Eisenhower Boulevard,80537,40.4075309,-105.1013699
325,East 4th Street,80537,40.3956446,-105.0725185
127,West 4th Street,80537,40.3956820,-105.0773446
5688,McWhinney Boulevard,80538,40.4088602,-104.9958827
5668,McWhinney Boulevard,80538,40.4089426,-104.9967825
1606,West Eisenhower Boulevard,80537,40.4069105,-105.1004697
1385,Sculptor Drive,80537,40.4067477,-105.0360340
250,West 65th Street,80538,40.4561250,-105.0804699
250,West 65th Street,80538,40.4574477,-105.0805568
1325,North Denver Avenue,80537,40.4046471,-105.0474234
1325,North Denver Avenue,80537,40.4046841,-105.0457594
1445,North Denver Avenue,80538,40.4081933,-105.0462456
1435,West 29th Street,80538,40.4220215,-105.0986090
815,14th Street Southwest,80537,40.3791491,-105.0905770
975,North Lincoln Avenue,80537,40.4020627,-105.0734817
1050,Eagle Drive,80537,40.3815489,-105.0974510
2627,Bluestem Willow Court,80538,40.4192327,-105.0121227
1483,West Eisenhower Boulevard,80537,40.4079878,-105.0987514
1747,Rocky Mountain Avenue,80538,40.4095872,-105.0029524
1040,Emergency Dr.,80537,40.3828130,-105.0794464
150,East 29th Street,80538,40.4206490,-105.0763356
350,West 37th Street,80538,40.4300628,-105.0792720
1727,Topaz Drive,80537,40.4069879,-105.0522625
1410,East 11th Street,80537,40.4024616,-105.0571711
1525,West Eisenhower Boulevard,80537-3117,40.4076463,-105.0995434
4850,Hahns Peak Drive,80538,40.4120733,-105.0079953
2316,North Lincoln Avenue,80538,40.4162510,-105.0727730
5705 N,Garfield Ave,80538,40.4532558,-105.0779591
200,West 71st Street,80538,40.4640758,-105.0790900
200,West 71st Street,80538,40.4641665,-105.0786286
5250,North Garfield Avenue,80538,40.4466457,-105.0769717
300,Adams Avenue,80537,40.3951125,-105.0691118
1350,East Eisenhower Boulevard,80537,40.4070231,-105.0575396
201,East 4th Street,80537,40.3957875,-105.0742815
1425,Rocky Mountain Avenue,80538-8861,40.4079832,-105.0030203
1455,Rocky Mountain Avenue,80538-8861,40.4078174,-105.0038009
1505,Rocky Mountain Avenue,80538-8715,40.4077604,-105.0055925
1545,Rocky Mountain Avenue,80538-8715,40.4077804,-105.0059589
1535,Rocky Mountain Avenue,80537,40.4077576,-105.0068106
1725,Rocky Mountain Avenue,80538-8851,40.4097608,-105.0039440
1675,Rocky Mountain Avenue,80538,40.4097026,-105.0059251
711,Madrone Drive,80538,40.4102425,-105.0686342
1975,Park Drive,80538,40.4183338,-105.0463347
899,East 5th Street,80537,40.3969060,-105.0651378
2116,West 29th Street,80537,40.4194395,-105.1023912
2115,West 29th Street,80538,40.4250936,-105.1085184
5835,Sky Pond Drive,80537,40.4130991,-104.9910124
5995,Sky Pond Drive,80538,40.4172583,-104.9883803
6025,Sky Pond Drive,80538-9013,40.4181575,-104.9903855
6075,Sky Pond Drive,80538,40.4195238,-104.9896045
5800,McWhinney Boulevard,80538-8839,40.4102685,-104.9940436
1325,North Denver Avenue,80537,40.4043764,-105.0465512
2555,East 13th Street,80537,40.4064791,-105.0408495
2305,East 13th Street,80537,40.4055377,-105.0440058
1355,Sculptor Drive,80537,40.4050768,-105.0372846
1100,Nickel Drive,80537,40.4044419,-105.0616867
1300,East Eisenhower Boulevard,80537,40.4070532,-105.0584592
1200,East Eisenhower Boulevard,80537,40.4064540,-105.0598252
1245,East Eisenhower Boulevard,80537-3925,40.4077785,-105.0592685
994,East Eisenhower Boulevard,80537-3922,40.4069801,-105.0636271
1310,East Eisenhower Boulevard,80537,40.4070318,-105.0579987
1437,East Eisenhower Boulevard,80538,40.4079201,-105.0549272
5605,Goldco Drive,80536,40.4495825,-104.9954774
6385,Byrd Drive,80538,40.4562817,-104.9945565
5840,Byrd Drive,80538,40.4529250,-104.9932792
5820,Piper Drive,80538,40.4533854,-104.9947410
6002,Byrd Drive,80538,40.4537770,-104.9929653
4040,Byrd Drive,80538,40.4338523,-104.9943396
4175,Byrd Drive,80538,40.4352698,-104.9977411
4250,Byrd Drive,80538-7074,40.4379950,-104.9940381
4230,Byrd Drive,80538,40.4365092,-104.9941799
4270,Byrd Drive,80538,40.4364718,-104.9953114
4150,Byrd Drive,80538,40.4350132,-104.9944955
2495,East 13th Street,80537,40.4056044,-105.0429932
2393,West Eisenhower Boulevard,80537,40.4076510,-105.1099381
2321,West Eisenhower Boulevard,80537,40.4087681,-105.1096383
815,14th Street Southwest,80537,40.3799221,-105.0918801
2003,West 8th Street,80537,40.4016508,-105.1053833
4705,Clydesdale Parkway,80538,40.4406814,-104.9900292
5280,Arena Circle,80538,40.4446352,-104.9870287
1809,West Eisenhower Road,80537-3132,40.4076659,-105.1021550
2013,West Eisenhower Boulevard,80537,40.4075942,-105.1053194
1519,West Eisenhower Boulevard,80537,40.4075414,-105.0989349
1525,West Eisenhower Boulevard,80537-3117,40.4075722,-105.0995381
1225,West Eisenhower Boulevard,80537-3128,40.4075225,-105.0957107
1510,West Eisenhower Boulevard,80537,40.4068461,-105.0986555
2222,West Eisenhower Boulevard,80537,40.4069317,-105.1084079
1810,West Eisenhower Boulevard,80539-0539,40.4066748,-105.1027787
808,West Eisenhower Boulevard,80537,40.4042988,-105.0877600
2707,North Wilson Avenue,80538,40.4183910,-105.1150420
2919,North Wilson Avenue,80538,40.4228393,-105.1169755
4000,West 22nd Street,80538,40.4140914,-105.1338249
4412,West Eisenhower Boulevard,80537,40.4070518,-105.1392318
325,South Taft Avenue,80537,40.3902648,-105.0979507
5420,Taft Avenue,80538,40.4492013,-105.0943858
1650,Foxtrail Drive,80538,40.4084297,-105.0017715
1620,Foxtrail Drive,80538,40.4088682,-105.0015717
5330,Stone Creek Circle,80538-8837,40.4085381,-105.0007667
807,West 29th Street,80538,40.4221370,-105.0872520
2941,North Garfield Avenue,80538,40.4227075,-105.0782040
2991,North Garfield Avenue,80538,40.4232350,-105.0779647
201,West 71st Street,80538-1160,40.4654185,-105.0797412
626,West 66th Street,80538,40.4592360,-105.0865922
6833,Franklin Avenue,80538,40.4623972,-105.0861992
7001,Franklin Avenue,80538,40.4637719,-105.0859606
1450,Fall River Drive,80538-7091,40.4078385,-105.0081273
1436,Hahns Peak Drive,80538-9061,40.4078780,-105.0103990
1412,Hahns Peak Drive,80538,40.4078809,-105.0109499
1450,North Boyd Lake Avenue,80538-9083,40.4079851,-105.0200550
1360,Sculptor Drive,80537-5159,40.4066045,-105.0346816
3675,Clydesdale Parkway,80538-9002,40.4310284,-104.9914632
1340,Sculptor Drive,80537,40.4058733,-105.0322680
3660,Draft Horse Drive,80538,40.4299641,-104.9901560
3915,Peralta Drive,80538,40.4324951,-104.9911248
3680,Draft Horse Drive,80538,40.4300290,-104.9893502
3800,Clydesdale Parkway,80538,40.4314346,-104.9890640
3595,Clydesdale Parkway,80538-9003,40.4298776,-104.9917039
4360,Saint Cloud Drive,80538,40.4367039,-104.9830163
2750,North Taft Avenue,80538,40.4193817,-105.0963928
251,Knobcone Drive,80538,40.4389771,-105.0756820
115,Knobcone Drive,80538,40.4386506,-105.0764655
4645,Sunview Drive,80538,40.4394997,-105.0755478
6502,Crossroads Boulevard,80538,40.4345435,-104.9801223
4150,Saint Cloud Drive,80538,40.4344387,-104.9833371
2695,Rocky Mountain Avenue,80538,40.4191604,-105.0013802
2725,Rocky Mountain Avenue,80538,40.4195912,-105.0017617
2915,Rocky Mountain Avenue,80538,40.4213671,-105.0027942
3005,Rocky Mountain Avenue,80538,40.4219629,-105.0032063
2205,Rocky Mountain Avenue,80538,40.4157673,-105.0029691
2217,Rocky Mountain Avenue,80538,40.4162580,-105.0041810
2403,Rocky Mountain Avenue,80538,40.4166064,-105.0025080
2415,Rocky Mountain Avenue,80538,40.4166748,-105.0020702
2427,Rocky Mountain Avenue,80538,40.4167584,-105.0014958
2433,Rocky Mountain Avenue,80538,40.4168437,-105.0010592
2263,Rocky Mountain Avenue,80538,40.4172348,-105.0022990
2275,Rocky Mountain Avenue,80538,40.4177311,-105.0014180
2409,Rocky Mountain Avenue,80538,40.4164668,-105.0020060
2421,Rocky Mountain Avenue,80538,40.4165593,-105.0014094
2313,Rocky Mountain Avenue,80538,40.4162224,-105.0017340
2325,Rocky Mountain Avenue,80538,40.4159891,-105.0023498
2301,Rocky Mountain Avenue,80538,40.4158370,-105.0019045
2307,Rocky Mountain Avenue,80538,40.4160438,-105.0015740
2235,Rocky Mountain Avenue,80538,40.4167366,-105.0036243
1405,Rocky Mountain Avenue,80538-8861,40.4087850,-105.0028028
3675,Precision Drive,80538,40.4290282,-105.0000904
213,East 29th Street,80538,40.4219980,-105.0758581
300,East Eisenhower Boulevard,80537-3901,40.4070024,-105.0727618
209,East 29th Street,80538-2721,40.4220494,-105.0751951
6092,Crossroads Boulevard,80538,40.4353464,-104.9883917
3285,West 22nd Street,80538,40.4181543,-105.1231226
295,East 29th Street,80538,40.4219991,-105.0742029
300,East 29th Street,80538,40.4214306,-105.0740865
296,East 29th Street,80538,40.4214374,-105.0732731
4650,Sunview Drive,80538,40.4410733,-105.0753204
1450,Cascade Avenue,80538,40.4079670,-105.1305438
4055,Byrd Drive,80538,40.4344007,-104.9966581
3760,Rocky Mountain Avenue,80538,40.4308552,-105.0004128
1380,North Denver Avenue,80537,40.4066312,-105.0438659
3070,West Eisenhower Boulevard,80537,40.4069852,-105.1189762
6046,Crossroads Boulevard,80538,40.4350741,-104.9893666
6140,Crossroads Boulevard,80538,40.4356134,-104.9867043
6130,Crossroads Boulevard,80538,40.4356511,-104.9872117
4164,Clydesdale Parkway,80538,40.4353758,-104.9875910
4140,Clydesdale Parkway,80538-9306,40.4347499,-104.9873557
160,West 65th Street,80538,40.4579481,-105.0784920
237,West 64th Street,80538,40.4554568,-105.0792557
279,West 64th Street,80538,40.4553096,-105.0799205
108,Knobcone Drive,80538,40.4379200,-105.0768006
120,West 45th Street,80538,40.4378646,-105.0779256
3800,East 15th Street,80538,40.4079053,-105.0217850
1417,Cheyenne Avenue,80538,40.4079338,-105.0510968
1655,East Eisenhower Boulevard,80537-4228,40.4078657,-105.0516898
1639,East Eisenhower Boulevard,80537,40.4079979,-105.0523034
1617,East Eisenhower Boulevard,80537,40.4079229,-105.0528290
3650,East 15th Street,80538,40.4080488,-105.0240477
3590,Draft Horse Court,80538,40.4300868,-104.9856464
3597,Draft Horse Court,80538,40.4299896,-104.9869501
4065,Saint Cloud Drive,80538,40.4343394,-104.9859645
4120,Clydesdale Parkway,80538,40.4343109,-104.9866041
6190,Crossroads Boulevard,80538,40.4355334,-104.9849465
4130,Clydesdale Parkway,80538,40.4346824,-104.9866831
4090,Clydesdale Parkway,80538,40.4343411,-104.9877469
3870,Byrd Drive,80538,40.4313422,-104.9949544
3880,Test Drive,80538,40.4326588,-104.9937278
3930,Byrd Drive,80538,40.4329777,-104.9950807
4900,Earhart Road,80538,40.4498104,-105.0054350
5500,Stone Creek Circle,80538,40.4086910,-104.9978138
1710,Foxtrail Drive,80538,40.4094085,-104.9980979
1641,Fall River Drive,80538,40.4098072,-105.0082651
1633,Fall River Drive,80538,40.4097764,-105.0088868
1715,Rocky Mountain Avenue,80538,40.4096540,-105.0048506
1601,Fall River Drive,80538-9063,40.4092759,-105.0106615
3210,Garfield Avenue,80538,40.4256161,-105.0759310
3216,North Garfield Avenue,80538,40.4257799,-105.0770979
3310,North Garfield Avenue,80538,40.4262471,-105.0768215
3204,North Garfield Avenue,80538,40.4254527,-105.0769461
233,East 29th Street,80538,40.4237951,-105.0769641
243,East 29th Street,80538,40.4245661,-105.0770841
2100,North Lincoln Avenue,80538,40.4140240,-105.0724692
2114,North Lincoln Avenue,80538,40.4145686,-105.0724835
2205,North Lincoln Avenue,80538,40.4152294,-105.0734095
2204,North Lincoln Avenue,80538,40.4153081,-105.0724856
2204,North Lincoln Avenue,80538,40.4150801,-105.0725185
2300,North Lincoln Avenue,80538,40.4159755,-105.0726059
375,West 71st Street,80538,40.4652878,-105.0812993
125,East 7th Street,80537,40.3989355,-105.0749612
4480,Clydesdale Parkway,80538,40.4387784,-104.9869697
1355,North Lincoln Avenue,80537,40.4069303,-105.0733685
1340,North Cleveland Avenue,80537-4727,40.4069522,-105.0740014
1330,Lincoln Avenue,80537,40.4064088,-105.0726800
300,North Adams Avenue,80537,40.3949244,-105.0686384
700,East 4th Street,80537,40.3946605,-105.0671443
860,North Cleveland Avenue,80537,40.4008024,-105.0738362
1451,North Boise Avenue,80538,40.4083940,-105.0541786
2320,North Lincoln Avenue,80538,40.4166850,-105.0724328
2480,North Lincoln Avenue,80538,40.4178914,-105.0726034
2400,North Lincoln Avenue,80538,40.4171109,-105.0725827
950,Des Moines Avenue,80537,40.4017554,-105.0414405
1371,Sculptor Drive,80537,40.4067143,-105.0394534
3451,Mountain Lion Drive,80537-8817,40.4068156,-105.0287370
3555,Mountain Lion Drive,80537,40.4068630,-105.0262431
3479,Mountain Lion Drive,80537-8817,40.4068170,-105.0278444
1383,Sculptor Drive,80537,40.4067888,-105.0379406
1602,East Eisenhower Boulevard,80537,40.4069702,-105.0533434
1805,Topaz Drive,80537,40.4069487,-105.0508350
1416,East Eisenhower Boulevard,80537,40.4068850,-105.0568026
1003,East Eisenhower Boulevard,80537,40.4077036,-105.0627340
1027,East Eisenhower Boulevard,80537,40.4078246,-105.0614137
1101,East Eisenhower Boulevard,80537,40.4077799,-105.0621892
706,East Eisenhower Boulevard,80537,40.4067035,-105.0679601
745,East 5th Street,80537,40.3967298,-105.0674544
5250,Garfield Avenue,80538,40.4465069,-105.0765956
5280,Garfield Avenue,80538,40.4470090,-105.0768213
883,North Cleveland Avenue,80537,40.4010986,-105.0748232
535,North Douglas Avenue,80537,40.3971944,-105.0911678
1398,6th Street Southeast,80537,40.3867726,-105.0574175
1382,6th Street Southeast,80537,40.3867828,-105.0576095
1366,6th Street Southeast,80537,40.3867675,-105.0578148
1350,6th Street Southeast,80537,40.3867714,-105.0580159
1334,6th Street Southeast,80537,40.3867670,-105.0582191
1318,6th Street Southeast,80537,40.3867713,-105.0584112
1302,6th Street Southeast,80537,40.3867693,-105.0586187
1399,6th Street Southeast,80537,40.3871462,-105.0574151
1382,6th Street Southeast,80537,40.3871529,-105.0576129
1367,6th Street Southeast,80537,40.3871606,-105.0578128
1351,6th Street Southeast,80537,40.3871559,-105.0580186
1335,6th Street Southeast,80537,40.3871623,-105.0582181
1319,6th Street Southeast,80537,40.3871606,-105.0584162
1303,6th Street Southeast,80537,40.3871654,-105.0586177
1205,East Eisenhower Boulevard,80537,40.4077514,-105.0596211
1119,East Eisenhower Boulevard,80537-3925,40.4077433,-105.0603392
1125,East Eisenhower Boulevard,80537-3925,40.4077189,-105.0598902
1117,East Eisenhower Boulevard,80537,40.4077113,-105.0609549
205,East Eisenhower Boulevard,80537,40.4078791,-105.0737926
1411,North Cleveland Avenue,80537,40.4075710,-105.0748378
201,South Boise Avenue,80537,40.3906715,-105.0551906
1300,14th Street Southwest,80537,40.3777192,-105.0947341
1230,14th Street Southwest,80537,40.3775565,-105.0939477
808,14th Street Southwest,80537,40.3777610,-105.0921144
1440,Diana Drive,80537,40.3775991,-105.0925972
814,East 16th Street,80538,40.4086893,-105.0662611
1500,Monroe Avenue,80538,40.4081740,-105.0674956
3470,East 15th Street,80538,40.4081035,-105.0287021
1475,North Denver Avenue,80538,40.4079858,-105.0475444
3448,Taft Avenue,80538,40.4269326,-105.0960922
1510,East 11th Street,80537,40.4025085,-105.0558028
1352,West Eisenhower Boulevard,80537,40.4069479,-105.0965239
250,West 65th Street,80538,40.4569310,-105.0810075
184,West 64th Street,80538,40.4536112,-105.0781989
120,West 64th Street,80538,40.4545521,-105.0782419
2000,Maple Drive,80538,40.4129151,-105.0697055
1853,Cheyenne Avenue,80538,40.4087000,-105.0501365
2598,Cub Lake Court,80538,40.4174222,-105.0169645
2582,Cub Lake Court,80538,40.4173898,-105.0171754
2566,Cub Lake Court,80538,40.4173231,-105.0173792
4255,Buffalo Mountain Drive,80538,40.4153871,-105.0198448
2658,Indian Grass Place,80538,40.4180841,-105.0168153
2620,Indian Grass Place,80538,40.4179108,-105.0166974
2659,Cub Lake Drive,80538,40.4183060,-105.0163684
2669,Cub Lake Drive,80538,40.4184256,-105.0162787
2679,Cub Lake Drive,80538,40.4185439,-105.0162354
2689,Cub Lake Drive,80538,40.4186581,-105.0161380
2705,Cub Lake Drive,80538,40.4190017,-105.0159187
2713,Cub Lake Drive,80538,40.4191378,-105.0158409
2721,Cub Lake Drive,80538,40.4192878,-105.0157291
2729,Cub Lake Drive,80538,40.4193945,-105.0155773
2737,Cub Lake Drive,80538,40.4194832,-105.0153968
2745,Cub Lake Drive,80538,40.4195200,-105.0152132
2753,Cub Lake Drive,80538,40.4195909,-105.0150367
2744,Cub Lake Drive,80538,40.4191179,-105.0150407
2720,Cub Lake Drive,80538,40.4190193,-105.0152532
2708,Cub Lake Drive,80538,40.4188661,-105.0153883
2702,Cub Lake Drive,80538,40.4187252,-105.0154542
2692,Cub Lake Drive,80538,40.4185104,-105.0156123
2768,Cub Lake Drive,80538,40.4194591,-105.0144039
2551,Cub Lake Court,80538,40.4176269,-105.0179213
2537,Cub Lake Court,80538,40.4175173,-105.0181336
2523,Cub Lake Court,80538,40.4173615,-105.0183163
2509,Cub Lake Court,80538,40.4170574,-105.0183147
2518,Cub Lake Court,80538,40.4169060,-105.0180028
2534,Cub Lake Court,80538,40.4169580,-105.0177212
4480,Long Pine Lake Drive,80538,40.4200464,-105.0152843
4460,Long Pine Lake Drive,80538,40.4199826,-105.0151209
4440,Long Pine Lake Drive,80538,40.4199203,-105.0149290
4420,Long Pine Lake Drive,80538,40.4198916,-105.0147535
2798,Cub Lake Drive,80538,40.4201560,-105.0141589
2792,Cub Lake Drive,80538,40.4199991,-105.0141966
2786,Cub Lake Drive,80538,40.4198776,-105.0142371
1115-1121,East 5th Street,80537,40.3969839,-105.0627690
1200,Eagle Drive,80537,40.3801830,-105.0974610
281,East 29th Street,80538,40.4230563,-105.0734611
4310,Lyric Falls Drive,80538,40.4145720,-105.0148693
4272,Lyric Falls Drive,80538,40.4145507,-105.0157248
4256,Lyric Falls Drive,80538,40.4145501,-105.0159627
4208,Lyric Falls Drive,80538,40.4147366,-105.0166115
4224,Lyric Falls Drive,80538,40.4146667,-105.0163785
4240,Lyric Falls Drive,80538,40.4146111,-105.0161711
4194,Lyric Falls Court,80538,40.4147254,-105.0170894
4182,Lyric Falls Court,80538,40.4147291,-105.0174026
4170,Lyric Falls Court,80538,40.4149215,-105.0176206
4171,Lyric Falls Court,80538,40.4151617,-105.0175742
4183,Lyric Falls Court,80538,40.4153291,-105.0173646
4189,Lyric Falls Court,80538,40.4152992,-105.0171084
4195,Lyric Falls Court,80538,40.4152409,-105.0169250
4201,Lyric Falls Drive,80538,40.4152235,-105.0167122
4215,Lyric Falls Drive,80538,40.4151969,-105.0165047
4229,Lyric Falls Drive,80538,40.4151334,-105.0163219
4243,Lyric Falls Drive,80538,40.4150866,-105.0161547
4305,Lyric Falls Drive,80538,40.4150023,-105.0150751
4317,Lyric Falls Drive,80538,40.4150775,-105.0148255
4285,Lyric Falls Drive,80538,40.4149763,-105.0155310
2296,Vermillion Creek Drive,80538,40.4157544,-105.0172237
2290,Vermillion Creek Drive,80538,40.4156986,-105.0170208
2286,Vermillion Creek Drive,80538,40.4156467,-105.0168518
2280,Vermillion Creek Drive,80538,40.4156024,-105.0166781
2276,Vermillion Creek Drive,80538,40.4155639,-105.0164969
2270,Vermillion Creek Drive,80538,40.4155298,-105.0163152
2266,Vermillion Creek Drive,80538,40.4155131,-105.0161095
2260,Vermillion Creek Drive,80538,40.4155040,-105.0159015
2240,Vermillion Creek Drive,80538,40.4155617,-105.0155850
2218,Vermillion Creek Drive,80538,40.4153932,-105.0155722
2212,Vermillion Creek Drive,80538,40.4152559,-105.0155676
2293,Vermillion Creek Drive,80538,40.4161066,-105.0168627
2287,Vermillion Creek Drive,80538,40.4160447,-105.0166818
2281,Vermillion Creek Drive,80538,40.4160213,-105.0164942
2275,Vermillion Creek Drive,80538,40.4159476,-105.0163240
2269,Vermillion Creek Drive,80538,40.4159215,-105.0160967
2263,Vermillion Creek Drive,80538,40.4159302,-105.0158862
2257,Vermillion Creek Drive,80538,40.4159610,-105.0157078
2251,Vermillion Creek Drive,80538,40.4160311,-105.0155220
2243,Vermillion Creek Drive,80538,40.4159623,-105.0152561
2235,Vermillion Creek Drive,80538,40.4157950,-105.0150483
2227,Vermillion Creek Drive,80538,40.4156205,-105.0150204
2221,Vermillion Creek Drive,80538,40.4154791,-105.0150503
2215,Vermillion Creek Drive,80538,40.4153184,-105.0150523
4293,Buffalo Mountain Drive,80538,40.4160077,-105.0177727
4299,Buffalo Mountain Drive,80538,40.4161417,-105.0176388
4305,Buffalo Mountain Drive,80538,40.4162732,-105.0175099
4313,Buffalo Mountain Drive,80538,40.4164333,-105.0173566
4321,Buffalo Mountain Drive,80538,40.4165260,-105.0171417
4337,Buffalo Mountain Drive,80538,40.4166376,-105.0167237
4345,Buffalo Mountain Drive,80538,40.4166932,-105.0164927
2451,Buffalo Mountain Court,80538,40.4168750,-105.0158009
2455,Buffalo Mountain Court,80538,40.4170611,-105.0158216
2461,Buffalo Mountain Court,80538,40.4172547,-105.0157639
2465,Buffalo Mountain Court,80538,40.4174346,-105.0156137
2471,Buffalo Mountain Court,80538,40.4175521,-105.0153498
2474,Buffalo Mountain Court,80538,40.4175145,-105.0150411
2468,Buffalo Mountain Court,80538,40.4173033,-105.0148887
2454,Buffalo Mountain Court,80538,40.4171119,-105.0149160
2450,Buffalo Mountain Court,80538,40.4169286,-105.0152115
2401,Bluestem Willow Drive,80538,40.4167316,-105.0149071
2415,Bluestem Willow Drive,80538,40.4168479,-105.0146771
2431,Bluestem Willow Drive,80538,40.4169296,-105.0144758
2518,Bluestem Willow Drive,80538,40.4172913,-105.0123854
2523,Bluestem Willow Drive,80538,40.4175805,-105.0129209
2572,Bluestem Willow Drive,80538,40.4185484,-105.0119782
2577,Bluestem Willow Drive,80538,40.4186304,-105.0125695
2563,Bluestem Willow Drive,80538,40.4184203,-105.0126241
2553,Bluestem Willow Drive,80538,40.4182110,-105.0127012
2503,Chaplin Creek Drive,80538,40.4171269,-105.0139715
2515,Chaplin Creek Drive,80538,40.4172805,-105.0141278
2527,Chaplin Creek Drive,80538,40.4175001,-105.0142460
4498,Chaplin Creek Drive,80538,40.4178127,-105.0142434
4486,Chaplin Creek Court,80538,40.4178378,-105.0145796
4474,Chaplin Creek Court,80538,40.4179142,-105.0148313
4462,Chaplin Creek Court,80538,40.4181511,-105.0149904
4459,Chaplin Creek Court,80538,40.4183805,-105.0149150
4471,Chaplin Creek Court,80538,40.4184909,-105.0145782
2553,Chaplin Creek Drive,80538,40.4182783,-105.0140240
2571,Chaplin Creek Drive,80538,40.4186796,-105.0138722
2579,Chaplin Creek Drive,80538,40.4188616,-105.0138472
2587,Chaplin Creek Drive,80538,40.4190703,-105.0137514
2605,Bluestem Willow Drive,80538,40.4193452,-105.0133607
2621,Bluestem Willow Drive,80538,40.4195538,-105.0133806
2649,Bluestem Willow Drive,80538,40.4197417,-105.0133141
2632,Bluestem Willow Drive,80538,40.4196450,-105.0128290
2664,Bluestem Willow Drive,80538,40.4198611,-105.0127896
545,East 11th Street,80537,40.4033792,-105.0693580
250,Southeast 5th Street,80537,40.3879463,-105.0736646
120,North Lincoln Avenue,80537,40.3932129,-105.0729898
155,West 64th Street,80538,40.4554035,-105.0781212
5450,McWhinney Boulevard,80538,40.4100679,-104.9995262
1605,Foxtrail Drive,80538,40.4095021,-105.0017491
1615,Foxtrail Drive,80538,40.4099917,-105.0018318
5401,Stone Creek Circle,80538,40.4087064,-104.9995282
4325,McWhinney Boulevard,80538,40.4101625,-105.0162817
4103,Saltbrush Court,80538,40.4204220,-105.0175066
4139,Saltbrush Court,80538,40.4204416,-105.0172673
4151,Saltbrush Court,80538,40.4204512,-105.0170345
4159,Saltbrush Court,80538,40.4204548,-105.0167926
4175,Saltbrush Court,80538,40.4204581,-105.0165166
4197,Saltbrush Court,80538,40.4203119,-105.0162981
2000,Boise Avenue,80538,40.4132902,-105.0515167
2500,Rocky Mountain Avenue,80538,40.4155035,-104.9977970
1635,North Lincoln Avenue,80538,40.4107305,-105.0734363
102,East 29th Street,80538,40.4213398,-105.0773562
1275,Eagle Drive,80537,40.3791758,-105.0994362
1119,Eagle Drive,80537,40.3808420,-105.0994073
1107,Eagle Drive,80537,40.3811268,-105.0986262
4176,Saltbrush Court,80538,40.4198226,-105.0166161
4156,Saltbrush Court,80538,40.4198806,-105.0168509
4142,Saltbrush Court,80538,40.4199836,-105.0170774
4102,Saltbrush Court,80538,40.4199672,-105.0173116
4102,Mandall Lakes Drive,80538,40.4207149,-105.0177582
4156,Mandall Lakes Drive,80538,40.4207124,-105.0175275
4198,Mandall Lakes Drive,80538,40.4207226,-105.0173170
4202,Mandall Lakes Drive,80538,40.4207357,-105.0171027
4228,Mandall Lakes Drive,80538,40.4207376,-105.0168849
4256,Mandall Lakes Drive,80538,40.4207564,-105.0166738
4284,Mandall Lakes Drive,80538,40.4207934,-105.0164599
2736,Saltbrush Drive,80538,40.4197076,-105.0172537
2728,Saltbrush Drive,80538,40.4195422,-105.0172692
2722,Saltbrush Drive,80538,40.4193765,-105.0172789
2706,Saltbrush Drive,80538,40.4193974,-105.0168879
2704,Saltbrush Drive,80538,40.4193338,-105.0166853
2809,Pawnee Creek Drive,80538,40.4206293,-105.0158183
2855,Pawnee Creek Drive,80538,40.4207684,-105.0159996
2895,Pawnee Creek Drive,80538,40.4208677,-105.0161833
2806,Pawnee Creek Drive,80538,40.4207813,-105.0151996
2810,Pawnee Creek Drive,80538,40.4209415,-105.0153603
2850,Pawnee Creek Drive,80538,40.4210738,-105.0155002
2876,Pawnee Creek Drive,80538,40.4211917,-105.0157168
2898,Pawnee Creek Drive,80538,40.4213323,-105.0159024
2703,Saltbrush Drive,80538,40.4189171,-105.0169556
2705,Saltbrush Drive,80538,40.4189673,-105.0171553
2707,Saltbrush Drive,80538,40.4189950,-105.0173625
2709,Saltbrush Drive,80538,40.4189933,-105.0175905
2715,Saltbrush Drive,80538,40.4190745,-105.0178242
2719,Saltbrush Drive,80538,40.4192804,-105.0178700
2725,Saltbrush Drive,80538,40.4194897,-105.0178547
2733,Saltbrush Drive,80538,40.4196643,-105.0178020
2741,Saltbrush Drive,80538,40.4198206,-105.0178554
2747,Saltbrush Drive,80538,40.4199695,-105.0178751
2753,Saltbrush Drive,80538,40.4201136,-105.0179637
2767,Saltbrush Drive,80538,40.4202827,-105.0180650
4098,Mandall Lakes Drive,80538,40.4205458,-105.0182380
4056,Mandall Lakes Drive,80538,40.4204733,-105.0184311
6310,Byrd Drive,80538,40.4545918,-104.9933888
2525,North Lincoln Avenue,80538,40.4183787,-105.0737192
2520,North Lincoln Avenue,80538,40.4188251,-105.0726286
4277,Taft Avenue,80538,40.4360190,-105.0972845
4320,Georgetown Drive,80538,40.4370818,-105.0995405
2985,North Taft Avenue,80538-2552,40.4228600,-105.0974002
237,East 29th Street,80538,40.4242841,-105.0769625
256,East 2nd Street,80537,40.3931927,-105.0739238
2564,Bluestem Willow Drive,80538,40.4183149,-105.0120346
2535,Bluestem Willow Drive,80538,40.4177964,-105.0128786
2545,Bluestem Willow Drive,80538,40.4180027,-105.0127806
2568,Chaplin Creek Drive,80538,40.4194297,-105.0128814
2584,Chaplin Creek Drive,80538,40.4187918,-105.0132756
2576,Chaplin Creek Drive,80538,40.4185978,-105.0133180
2568,Chaplin Creek Drive,80538,40.4183972,-105.0133862
2561,Chaplin Creek Drive,80538,40.4184736,-105.0139904
2560,Chaplin Creek Drive,80538,40.4181782,-105.0134677
2552,Chaplin Creek Drive,80538,40.4180243,-105.0135828
2544,Chaplin Creek Drive,80538,40.4178331,-105.0136825
2526,Chaplin Creek Drive,80538,40.4175858,-105.0136786
5428,North Garfield Avenue,80538,40.4489346,-105.0762607
125,West 43rd Street,80538,40.4368133,-105.0778471
3655,Garfield Avenue,80538,40.4295264,-105.0782579
3675,Garfield Avenue,80538,40.4300621,-105.0780168
3780,Garfield Avenue,80538,40.4312816,-105.0767878
3800,Garfield Avenue,80538,40.4316239,-105.0768302
3838,Garfield Avenue,80538,40.4318235,-105.0767805
4009,North Grant Avenue,80538,40.4331435,-105.0793723
3915,North Garfield Avenue,80538,40.4334994,-105.0783440
2121,North Lincoln Avenue,80538,40.4147780,-105.0733646
1702,North Cleveland Avenue,80538,40.4111670,-105.0737041
1440,North Lincoln Avenue,80538,40.4081324,-105.0722426
115,West 65th Street,80538,40.4589412,-105.0779986
251,West 65th Street,80538,40.4592246,-105.0795388
805,West 71st Street,80538,40.4643724,-105.0888652
3015,West 29th Street,80538,40.4234385,-105.1178720
3415,North Lincoln Avenue,80538,40.4270532,-105.0746430
1421,East Eisenhower Boulevard,80537,40.4078240,-105.0562139
601,North Cleveland Avenue,80537,40.3978042,-105.0748539
401,East Eisenhower Boulevard,80537,40.4075631,-105.0714176
425,East Eisenhower Boulevard,80537,40.4075378,-105.0708377
417,East Eisenhower Boulevard,80537,40.4075656,-105.0709659
120,West 43rd Street,80538,40.4358582,-105.0779500
4198,Garfield Avenue,80538,40.4357560,-105.0768075
4116,Garfield Avenue,80538,40.4346172,-105.0770275
4190,Garfield Avenue,80538,40.4348259,-105.0769884
103,East 42nd Street,80538,40.4353797,-105.0769179
4212,Garfield Avenue,80538,40.4360442,-105.0766231
446,East 29th Street,80538,40.4211685,-105.0706807
186,South Wilson Avenue,80537,40.3915719,-105.1153787
1355,East Eisenhower Boulevard,80537,40.4084483,-105.0565677
1730,West 12th Street,80537,40.4047712,-105.1008056
5688,Garfield Avenue,80538,40.4506677,-105.0767108
2585,North Lincoln Avenue,80538,40.4195409,-105.0732827
4201,Taft Avenue,80538,40.4352172,-105.0969358
502,East Eisenhower Boulevard,80537,40.4070377,-105.0701833
528,East Eisenhower Boulevard,80537,40.4070404,-105.0699186
505,East Eisenhower Boulevard,80537,40.4075434,-105.0700538
815,East 16th Street,80538,40.4094544,-105.0664316
617,East Eisenhower Boulevard,80537,40.4075687,-105.0686954
1403,Monroe Avenue,80537,40.4078948,-105.0685036
1421,Adams Avenue,80537,40.4075723,-105.0694413
640,East Eisenhower Boulevard,80537,40.4069667,-105.0691057
300,East 29th Street,80538,40.4212246,-105.0720238
2650,North Lincoln Avenue,80538,40.4197819,-105.0723238
2600,North Lincoln Avenue,80538,40.4194366,-105.0711063
320,East 27th Street,80538,40.4200180,-105.0724080
3317,North Lincoln Avenue,80538,40.4258753,-105.0732770
2110,Maple Drive,80538,40.4139320,-105.0701615
574,East 23rd Street,80538,40.4154523,-105.0699513
574,East 23rd Street,80538,40.4149560,-105.0695878
915,Deborah Drive,80537,40.3746562,-105.0915938
609,14th Street Southwest,80537,40.3794494,-105.0839974
668,Barboura Drive,80537,40.3803149,-105.0843014
246,Barberry Place,80537,40.3764555,-105.0815061
244,Barberry Place,80537,40.3773733,-105.0820335
240,Barberry Place,80537,40.3778441,-105.0808191
3975,Peralta Drive,80538,40.4342497,-104.9908657
4330,Clydesdale Parkway,80538,40.4364041,-104.9875163
6180,Crossroads Boulevard,80538,40.4355590,-104.9859403
606,East Eisenhower Boulevard,80537,40.4069533,-105.0694690
604,East Eisenhower Boulevard,80537,40.4069550,-105.0697064
1336,Washington Avenue,80537,40.4065872,-105.0701816
531,East Eisenhower Boulevard,80537,40.4076075,-105.0698852
533,East Eisenhower Boulevard,80537,40.4074770,-105.0696736
1400,East Eisenhower Boulevard,80537,40.4069418,-105.0571662
6403,Eden Garden Drive,80538,40.4566358,-105.0853356
6701,Franklin Avenue,80538,40.4615573,-105.0862676
3429,North Monroe Avenue,80538,40.4275464,-105.0694774
3695,North Monroe Avenue,80538,40.4290386,-105.0704311
1135,Rossum Drive,80537,40.4046225,-105.1426417
1140,Rossum Drive,80537,40.4040478,-105.1404383
5439,Cedar Valley Drive,80537,40.4046390,-105.1528610
701,Clubhouse Drive,80537,40.3988727,-105.1394616
2538,East 1st Street,80537,40.3890803,-105.0383501
1323,West 57th Street,80537,40.4546479,-105.0924973
2000,Cascade Avenue,80538,40.4129735,-105.1289292
4750,West First Street,80537,40.3908357,-105.1394972
731,North Namaqua Avenue,80537,40.4010593,-105.1275644
501,North Taft Avenue,80537,40.3968680,-105.1042157
990,South Lincoln Avenue,80537,40.3828442,-105.0714658
960,West First Street,80537,40.3872994,-105.0892366
3900,North Wilson Avenue,80538,40.4328333,-105.1127570
3305,North Lincoln Avenue,80538,40.4255139,-105.0731608
1350,East Eisenhower Boulevard,80537,40.4069944,-105.0575740
1360,East Eisenhower Boulevard,80537,40.4069876,-105.0573646
2500,North Garfield Avenue,80538,40.4184800,-105.0769352
403,East 27th Street,80538,40.4206723,-105.0709282
479,East 27th Street,80538,40.4206122,-105.0706413
1615,Fourth St. SE,80537,40.3910034,-105.0574909
6101,Sky Pond Drive,80538,40.4099391,-104.9891093
2550,Abarr Drive,80538,40.4176241,-105.0981925
2930,Mountain Lion Drive,80537,40.4042782,-105.0329529
3020,Mountain Lion Drive,80537,40.4044266,-105.0323982
3040,Mountain Lion Drive,80537,40.4046865,-105.0315580
3060,Mountain Lion Drive,80537,40.4040400,-105.0314513
3080,Mountain Lion Drive,80537,40.4035003,-105.0314360
2950,Mountain Lion Drive,80537,40.4036246,-105.0326185
2970,Mountain Lion Drive,80537,40.4031148,-105.0332096
2990,Mountain Lion Drive,80537,40.4036407,-105.0341272
2910,Mountain Lion Drive,80537,40.4043464,-105.0338557
2900,Mountain Lion Drive,80537,40.4042582,-105.0344125
103-155,East 71st Street,80538,40.4650917,-105.0769466
1730,West 12th Street,80537,40.4040895,-105.0998275
500,West 71st Street,80538,40.4642632,-105.0837807
4815,Hahns Peak Drive,80538,40.4134517,-105.0079970
4805,Hahns Peak Drive,80538,40.4130115,-105.0079480
4825,Hahns Peak Drive,80538,40.4136780,-105.0079000
4835,Hahns Peak Drive,80538,40.4136365,-105.0071795
4845,Hahns Peak Drive,80538,40.4136775,-105.0068280
4855,Hahns Peak Drive,80538,40.4136655,-105.0064405
4865,Hahns Peak Drive,80538,40.4133850,-105.0065455
4875,Hahns Peak Drive,80538,40.4130500,-105.0069425
4955,Hahns Peak Drive,80538,40.4130180,-105.0062195
4945,Hahns Peak Drive,80538,40.4134130,-105.0058315
4935,Hahns Peak Drive,80538,40.4138710,-105.0058480
4925,Hahns Peak Drive,80538,40.4141220,-105.0058705
4915,Hahns Peak Drive,80538,40.4141090,-105.0064950
4905,Hahns Peak Drive,80538,40.4141100,-105.0068220
4895,Hahns Peak Drive,80538,40.4141205,-105.0074540
4885,Hahns Peak Drive,80538,40.4141270,-105.0077785
4705,Hahns Peak Drive,80538,40.4141389,-105.0083949
4695,Hahns Peak Drive,80538,40.4141388,-105.0087220
4685,Hahns Peak Drive,80538,40.4141484,-105.0093322
4675,Hahns Peak Drive,80538,40.4141510,-105.0096556
4665,Hahns Peak Drive,80538,40.4141864,-105.0102892
4655,Hahns Peak Drive,80538,40.4141635,-105.0106607
4645,Hahns Peak Drive,80538,40.4141990,-105.0110658
4635,Hahns Peak Drive,80538,40.4137555,-105.0110305
4625,Hahns Peak Drive,80538,40.4133774,-105.0107350
4615,Hahns Peak Drive,80538,40.4131690,-105.0105330
4605,Hahns Peak Drive,80538,40.4127905,-105.0102094
4715,Hahns Peak Drive,80538,40.4129945,-105.0096320
4735,Hahns Peak Drive,80538,40.4134409,-105.0100872
4745,Hahns Peak Drive,80538,40.4137230,-105.0102710
4755,Hahns Peak Drive,80538,40.4136850,-105.0098455
4725,Hahns Peak Drive,80538,40.4132210,-105.0098578
4765,Hahns Peak Drive,80538,40.4136635,-105.0091950
4775,Hahns Peak Drive,80538,40.4136515,-105.0087530
4785,Hahns Peak Drive,80538,40.4134069,-105.0086701
2100,North Boise Avenue,80538,40.4144104,-105.0532247
4421,East Eisenhower Boulevard,80537,40.4088146,-105.0128049
6145,Crossroads Boulevard,80538,40.4364228,-104.9866342
307,West 49th Street,80538,40.4431554,-105.0804375
380,North Wilson Avenue,80537,40.3957160,-105.1134639
400,North Wilson Avenue,80537,40.3956123,-105.1091150
3070,West 29th Street,80538,40.4213799,-105.1197519
2605,Carlisle Drive,80537,40.3839979,-105.1132642
5275,Hahns Peak Drive,80538,40.4133886,-105.0040761
900,South Wilson Avenue,80537,40.3832635,-105.1155155
1506,North Cleveland Avenue,80538,40.4085010,-105.0741073
1502,North Cleveland Avenue,80538,40.4083793,-105.0740980
5300,North Boyd Lake Avenue,80538,40.4482921,-105.0191721
125,Knobcone Drive,80538,40.4391331,-105.0767000
3850,Byrd Drive,80538,40.4308224,-104.9948055
325,East 5th Street,80537,40.3970086,-105.0725427
2000,North Lincoln Avenue,80538,40.4133535,-105.0721876
701,Clubhouse Drive,80537,40.3993716,-105.1457957
