House number,Street name,Postal code,Latitude,Longitude
10604,Grant Drive,80233,39.8889340,-104.9819263
10900,Huron Street,80234,39.8941521,-104.9958140
1300,Malley Drive,80233,39.9035503,-104.9717576
11551,Wyco Drive,80233,39.9057589,-104.9656905
1451,Leroy Drive,80233,39.8897222,-104.9688889
11700,Irma Drive,80233,39.9084275,-104.9674100
10941,Irma Drive,80233,39.8951032,-104.9668400
11701,Community Center Drive,80233,39.9096018,-104.9884025
852,East 120th Avenue,80233,39.9135294,-104.9760759
950,East 120th Avenue,80233,39.9135294,-104.9752090
100,Community Center Drive,80233,39.9079295,-104.9848150
99,Community Center Drive,80233,39.9079718,-104.9848683
98,Community Center Drive,80233,39.9080090,-104.9849151
97,Community Center Drive,80233,39.9080478,-104.9849639
96,Community Center Drive,80233,39.9080860,-104.9850121
95,Community Center Drive,80233,39.9081199,-104.9850549
105,Community Center Drive,80233,39.9077699,-104.9848235
106,Community Center Drive,80233,39.9077355,-104.9848815
107,Community Center Drive,80233,39.9077037,-104.9849352
108,Community Center Drive,80233,39.9076690,-104.9849937
109,Community Center Drive,80233,39.9076413,-104.9850404
110,Community Center Drive,80233,39.9076101,-104.9850931
101,Community Center Drive,80233,39.9079195,-104.9846344
102,Community Center Drive,80233,39.9078793,-104.9846335
103,Community Center Drive,80233,39.9078176,-104.9846321
104,Community Center Drive,80233,39.9077622,-104.9846334
91,Community Center Drive,80233,39.9081691,-104.9853415
92,Community Center Drive,80233,39.9081823,-104.9852727
93,Community Center Drive,80233,39.9081936,-104.9852140
94,Community Center Drive,80233,39.9082071,-104.9851434
90,Community Center Drive,80233,39.9080431,-104.9853840
89,Community Center Drive,80233,39.9080115,-104.9854273
88,Community Center Drive,80233,39.9079785,-104.9854727
87,Community Center Drive,80233,39.9079364,-104.9855305
83,Community Center Drive,80233,39.9083442,-104.9858044
84,Community Center Drive,80233,39.9082945,-104.9858435
85,Community Center Drive,80233,39.9082611,-104.9858698
86,Community Center Drive,80233,39.9081991,-104.9859187
82,Community Center Drive,80233,39.9084499,-104.9856842
67,Community Center Drive,80233,39.9084154,-104.9864168
66,Community Center Drive,80233,39.9085371,-104.9867433
65,Community Center Drive,80233,39.9085488,-104.9868202
64,Community Center Drive,80233,39.9085571,-104.9868748
63,Community Center Drive,80233,39.9085698,-104.9869579
72,Community Center Drive,80233,39.9086847,-104.9863396
71,Community Center Drive,80233,39.9086378,-104.9863531
70,Community Center Drive,80233,39.9085880,-104.9863674
69,Community Center Drive,80233,39.9085344,-104.9863827
68,Community Center Drive,80233,39.9084812,-104.9863980
77,Community Center Drive,80233,39.9085865,-104.9859444
76,Community Center Drive,80233,39.9085938,-104.9859942
75,Community Center Drive,80233,39.9086044,-104.9860663
73,Community Center Drive,80233,39.9086271,-104.9862211
74,Community Center Drive,80233,39.9086164,-104.9861479
81,Community Center Drive,80233,39.9084968,-104.9857046
79,Community Center Drive,80233,39.9085989,-104.9857490
80,Community Center Drive,80233,39.9085502,-104.9857278
78,Community Center Drive,80233,39.9085749,-104.9858652
56,Community Center Drive,80233,39.9081189,-104.9867084
55,Community Center Drive,80233,39.9081064,-104.9866202
53,Community Center Drive,80233,39.9080888,-104.9864958
52,Community Center Drive,80233,39.9080832,-104.9864567
51,Community Center Drive,80233,39.9080698,-104.9863620
35,Community Center Drive,80233,39.9079524,-104.9860769
34,Community Center Drive,80233,39.9079233,-104.9860358
33,Community Center Drive,80233,39.9078883,-104.9859863
32,Community Center Drive,80233,39.9078566,-104.9859415
30,Community Center Drive,80233,39.9076776,-104.9857391
31,Community Center Drive,80233,39.9078083,-104.9858732
29,Community Center Drive,80233,39.9076383,-104.9856910
28,Community Center Drive,80233,39.9076129,-104.9856599
27,Community Center Drive,80233,39.9075629,-104.9855988
26,Community Center Drive,80233,39.9075328,-104.9855619
25,Community Center Drive,80233,39.9074886,-104.9855078
22,Community Center Drive,80233,39.9072405,-104.9852913
23,Community Center Drive,80233,39.9072705,-104.9852904
24,Community Center Drive,80233,39.9073177,-104.9852889
36,Community Center Drive,80233,39.9079768,-104.9861113
1,Community Center Drive,80233,39.9071676,-104.9871168
19,Community Center Drive,80233,39.9070595,-104.9852971
20,Community Center Drive,80233,39.9071336,-104.9852947
21,Community Center Drive,80233,39.9071634,-104.9852938
2,Community Center Drive,80233,39.9071668,-104.9870336
3,Community Center Drive,80233,39.9071664,-104.9869947
4,Community Center Drive,80233,39.9071655,-104.9869022
5,Community Center Drive,80233,39.9071651,-104.9868606
6,Community Center Drive,80233,39.9071643,-104.9867788
7,Community Center Drive,80233,39.9071712,-104.9866127
9,Community Center Drive,80233,39.9071688,-104.9864747
10,Community Center Drive,80233,39.9071669,-104.9863715
11,Community Center Drive,80233,39.9071664,-104.9863393
12,Community Center Drive,80233,39.9071649,-104.9862561
13,Community Center Drive,80233,39.9070809,-104.9860838
8,Community Center Drive,80233,39.9071695,-104.9865149
60,Community Center Drive,80233,39.9080403,-104.9871428
59,Community Center Drive,80233,39.9079817,-104.9871415
58,Community Center Drive,80233,39.9079426,-104.9871406
57,Community Center Drive,80233,39.9078809,-104.9871392
50,Community Center Drive,80233,39.9076640,-104.9871203
16,Community Center Drive,80233,39.9072393,-104.9860813
17,Community Center Drive,80233,39.9072928,-104.9860804
18,Community Center Drive,80233,39.9073371,-104.9860797
62,Community Center Drive,80233,39.9081452,-104.9871452
61,Community Center Drive,80233,39.9080886,-104.9871439
14,Community Center Drive,80233,39.9071508,-104.9860827
15,Community Center Drive,80233,39.9071848,-104.9860822
49,Community Center Drive,80233,39.9076124,-104.9871227
48,Community Center Drive,80233,39.9075732,-104.9871245
47,Community Center Drive,80233,39.9075013,-104.9871278
54,Community Center Drive,80233,39.9081002,-104.9865767
46,Community Center Drive,80233,39.9075355,-104.9866558
45,Community Center Drive,80233,39.9075953,-104.9865876
44,Community Center Drive,80233,39.9076361,-104.9865411
43,Community Center Drive,80233,39.9076766,-104.9864951
42,Community Center Drive,80233,39.9076254,-104.9863715
41,Community Center Drive,80233,39.9075861,-104.9863136
40,Community Center Drive,80233,39.9075584,-104.9862728
39,Community Center Drive,80233,39.9075142,-104.9862078
37,Community Center Drive,80233,39.9074685,-104.9861404
38,Community Center Drive,80233,39.9074941,-104.9861782
128,Community Center Drive,80233,39.9072658,-104.9838931
129,Community Center Drive,80233,39.9072226,-104.9838924
130,Community Center Drive,80233,39.9071763,-104.9838916
131,Community Center Drive,80233,39.9071331,-104.9838909
132,Community Center Drive,80233,39.9070622,-104.9838897
123,Community Center Drive,80233,39.9075028,-104.9841422
124,Community Center Drive,80233,39.9074533,-104.9840891
125,Community Center Drive,80233,39.9074233,-104.9840569
126,Community Center Drive,80233,39.9073684,-104.9839979
127,Community Center Drive,80233,39.9073074,-104.9838939
118,Community Center Drive,80233,39.9072949,-104.9842913
119,Community Center Drive,80233,39.9073353,-104.9842353
120,Community Center Drive,80233,39.9073671,-104.9841913
121,Community Center Drive,80233,39.9075776,-104.9842226
122,Community Center Drive,80233,39.9075308,-104.9841723
113,Community Center Drive,80233,39.9072572,-104.9847611
114,Community Center Drive,80233,39.9072194,-104.9847292
115,Community Center Drive,80233,39.9071834,-104.9846989
116,Community Center Drive,80233,39.9071362,-104.9846591
117,Community Center Drive,80233,39.9072499,-104.9843536
111,Community Center Drive,80233,39.9073588,-104.9848469
112,Community Center Drive,80233,39.9073029,-104.9847997
10410,Melody Drive,80234,39.8855924,-104.9929250
10410,Melody Drive,80234,39.8858064,-104.9926730
10600,Melody Drive,80234,39.8880023,-104.9926517
1050,West 104th Avenue,80234,39.8845909,-104.9995518
10701,Melody Drive,80234,39.8918703,-104.9936069
11900,Washington Street,80233,39.9126522,-104.9761940
1400,West 104th Avenue,80234,39.8843470,-105.0039872
1408,West 104th Avenue,80234,39.8843538,-105.0040210
1446,West 104th Avenue,80234,39.8843439,-105.0043210
1448,West 104th Avenue,80234,39.8843553,-105.0043994
1456,West 104th Avenue,80234,39.8843470,-105.0047207
1416,West 104th Avenue,80234,39.8843720,-105.0041147
1408,West 104th Avenue,80234,39.8843288,-105.0040712
100,East 120th Avenue,80233,39.9128725,-104.9875965
100,East 120th Avenue,80233,39.9136947,-104.9855750
100,East 120th Avenue,80233,39.9136921,-104.9858380
11355,York Street,80233,39.9025995,-104.9601230
420,East 120th Avenue,80233,39.9132940,-104.9825960
420,East 120th Avenue,80233,39.9129309,-104.9825703
970,West 104th Avenue,80234,39.8836815,-104.9976604
11920,North Washington Street,80233,39.9128622,-104.9773169
11920,Washington Street,80233,39.9127429,-104.9771210
311,West 104th Avenue,80234,39.8866384,-104.9902073
11195,Huron Street,80234,39.8993619,-104.9971810
560,Malley Drive,80233,39.9019352,-104.9792630
556,Malley Drive,80233,39.9019002,-104.9795322
1720,East 112th Avenue,80233,39.8991581,-104.9658709
1720,East 112th Avenue,80233,39.8992872,-104.9659274
10900,Huron Street,80234,39.8939605,-104.9958161
1050,West 104th Avenue,80234,39.8845910,-104.9994043
900,West 104th Avenue,80234,39.8834381,-104.9972741
1016,West 104th Avenue,80234,39.8838054,-104.9993126
1024,West 104th Avenue,80234,39.8838057,-104.9995138
11215,Washington Street,80233,39.8999500,-104.9780852
1000,West 104th Avenue,80234,39.8838400,-104.9980243
10621,Irma Drive,80233,39.8909437,-104.9655232
11674,North Huron Street,80234,39.9087320,-104.9957533
10701,Washington Street,80233,39.8909555,-104.9781085
11985,Washington Street,80233,39.9135673,-104.9782238
1,East Memorial Parkway,80233,39.9101684,-104.9897801
1571,East 120th Avenue,80241,39.9144894,-104.9683040
1801,East 120th Avenue,80241,39.9161662,-104.9659007
12204,Karls Lane,80241,39.9171331,-104.9671508
12200,Dairy Street,80241,39.9171165,-104.9654708
11178,Huron Street,80234,39.8992677,-104.9959945
11270,Huron Street,80234,39.9012160,-104.9960668
599,West 104th Avenue,80234,39.8857070,-104.9946881
475,West 115th Avenue,80234,39.9062756,-104.9923401
350,West 114th Avenue,80234,39.9017263,-104.9904397
11310,Melody Drive,80234,39.9026996,-104.9934840
11450,Melody Drive,80234,39.9038046,-104.9929692
744,West 116th Avenue,80234,39.9068019,-104.9963518
10647,Melody Drive,80234,39.8895240,-104.9947700
10819,Roseanna Drive,80234,39.8927107,-104.9976777
1563,Roseanna Drive,80234,39.8920047,-105.0054574
1577,West Roseanna Drive,80234,39.8921313,-105.0057774
1561,Roseanna Street,80234,39.8920852,-105.0054289
1581,Roseanna Drive,80234,39.8922555,-105.0054944
1555,Roseanna Drive,80234,39.8919238,-105.0052879
1595,Roseanna Drive,80234,39.8924352,-105.0058096
1599,Roseanna Drive,80234,39.8923334,-105.0058292
1567,Roseanna Drive,80234,39.8918943,-105.0055902
1565,Roseanna Drive,80234,39.8919055,-105.0055043
1575,Roseanna Drive,80234,39.8920725,-105.0058089
1573,Roseanna Drive,80234,39.8919719,-105.0058265
1551,Roseanna Drive,80234,39.8918537,-105.0053408
1569,Roseanna Drive,80234,39.8918489,-105.0057115
1585,Roseanna Drive,80234,39.8923222,-105.0054283
1571,Roseanna Drive,80234,39.8918799,-105.0057855
1559,Roseanna Drive,80234,39.8919856,-105.0052440
10689,Varese Lane,80234,39.8903137,-105.0152811
1028,West 104th Avenue,80234,39.8838059,-104.9996068
1012,West 104th Avenue,80234,39.8838053,-104.9992260
1006,West 104th Avenue,80234,39.8838048,-104.9989288
1008,West 104th Avenue,80234,39.8838050,-104.9990449
1004,West 104th Avenue,80234,39.8838046,-104.9988326
1010,West 104th Avenue,80234,39.8838051,-104.9991323
1020,West 104th Avenue,80234,39.8838056,-104.9994180
1061,West 99th Avenue,80260,39.8759884,-104.9996057
981,West 99th Avenue,80260,39.8759130,-104.9987776
11950,Huron Street,80234,39.9126484,-104.9945864
11655,Wyco Drive,80233,39.9070756,-104.9664568
241,West 104th Avenue,80234,39.8866624,-104.9900599
401,West 104th Avenue,80234,39.8858822,-104.9919265
261,West 104th Avenue,80234,39.8889862,-104.9887763
221,West 104th Avenue,80234,39.8857603,-104.9893831
241,West 104th Avenue,80234,39.8856047,-104.9901201
211,West 104th Avenue,80234,39.8858091,-104.9888848
281,West 104th Avenue,80234,39.8909988,-104.9885541
11701,Community Center Drive,80233,39.9095880,-104.9883986
10602,Melody Drive,80234,39.8892929,-104.9925021
10650,Melody Drive,80234,39.8901314,-104.9926201
341,West 104th Avenue,80234-4154,39.8909537,-104.9906411
10300,Bannock Street,80260,39.8831816,-104.9888602
11551,Wyco Drive,80233,39.9058549,-104.9659320
650,East 120th Avenue,80233-1133,39.9136343,-104.9792260
460,East 120th Avenue,80233,39.9136867,-104.9817020
750,East 120th Avenue,80233,39.9133548,-104.9772922
480,East 120th Avenue,80233,39.9137242,-104.9810601
480,East 120th Avenue,80233,39.9137381,-104.9808215
500,East 120th Avenue,80233,39.9122814,-104.9809396
540,East 120th Avenue,80233,39.9123506,-104.9801701
550,East 120th Avenue,80233,39.9124343,-104.9797723
11887,Washington Street,80233,39.9123107,-104.9786447
450,East 120th Avenue,80233,39.9123089,-104.9818549
10,East 120th Avenue,80233,39.9121368,-104.9888484
1123,Muriel Drive,80233,39.8968281,-104.9727078
101,East 113th Place,80223,39.9024473,-104.9870931
111,East 113th Place,80223,39.9024206,-104.9867022
100,Malley Drive,80233,39.9034051,-104.9861550
401,Malley Drive,80233,39.9040348,-104.9817922
650,Malley Drive,80233,39.9017947,-104.9786194
11421,Washington Street,80233,39.9036167,-104.9782848
501,Malley Drive,80233,39.9033056,-104.9786463
11416,Pearl Street,80233,39.9035442,-104.9786035
11495,Washington Street,80233,39.9062478,-104.9783578
11215,Washington Street,80233,39.8999884,-104.9780899
100,West 104th Avenue,80234,39.8848052,-104.9888223
160,West 104th Avenue,80234,39.8847358,-104.9894614
104,West 104th Avenue,80234,39.8839007,-104.9888478
290,West 104th Avenue,80260,39.8846618,-104.9906453
10410,Melody Drive,80234,39.8855902,-104.9929312
10420,Melody Drive,80234,39.8860765,-104.9928292
10450,Melody Drive,80234,39.8866570,-104.9929516
10520,Melody Drive,80234,39.8871299,-104.9928283
10545,Melody Drive,80234,39.8877842,-104.9938630
10950,Fox Run Parkway,80233,39.8953336,-104.9518691
10451,Huron Street,80234,39.8859534,-104.9972868
1030,West 104th Avenue,80234,39.8846784,-104.9990809
1040,West 104th Avenue,80234,39.8844931,-104.9991132
1050,West 104th Avenue,80234,39.8845639,-104.9994608
11456,Washington Street,80233,39.9057414,-104.9786333
10755,Washington Street,80233,39.8915874,-104.9791838
850,West 112th Avenue,80234,39.8993920,-104.9979915
11195,Huron Street,80234,39.8993601,-104.9971456
11370,Huron Street,80234,39.9029037,-104.9962723
555,West 112th Avenue,80234,39.9015064,-104.9945311
11210,Huron Street,80234,39.9002420,-104.9957728
1350,West 104th Avenue,80234,39.8845434,-105.0031747
1412,West 104th Avenue,80234,39.8843433,-105.0045394
11460,Huron Street,80234,39.9043123,-104.9961695
11470,Huron Street,80234,39.9047894,-104.9961195
11490,Huron Street,80234,39.9052706,-104.9959845
11310,Huron Street,80234,39.9016557,-104.9963351
2125,East 120th Avenue,80233,39.9144604,-104.9616572
2135,East 120th Avenue,80233,39.9144761,-104.9614227
2265,East 120th Avenue,80233,39.9146145,-104.9597280
2265,East 120th Avenue,80233,39.9143650,-104.9597599
2285,East 120th Avenue,80233,39.9146243,-104.9593378
2295,East 120th Avenue,80233,39.9145658,-104.9590137
2265,East 120th Avenue,80233,39.9148193,-104.9597865
12150,Race Street,80241,39.9153014,-104.9628012
12255,Claude Court,80214,39.9173500,-104.9615730
100,East 120th Avenue,80233,39.9129760,-104.9855768
100,East 120th Avenue,80233,39.9130230,-104.9875981
500,West 120th Avenue,80234,39.9135693,-104.9929542
11900,Grant Street,80233,39.9124362,-104.9841534
461,West 118th Avenue,80234,39.9112040,-104.9928332
481,West 118th Avenue,80234,39.9112022,-104.9931098
770,West 100th Place,80260,39.8782650,-104.9963346
750,West 100th Place,80260,39.8782345,-104.9960431
730,West 100th Place,80260,39.8782337,-104.9957522
710,West 100th Place,80260,39.8782683,-104.9954797
680,West 100th Place,80260,39.8782521,-104.9951941
550,Garland Drive,80233,39.8900397,-104.9797072
2180,East 112th Avenue,80233,39.8988592,-104.9618450
10580,Huron Street,80234,39.8885324,-104.9962826
536,Malley Drive,80233,39.9025668,-104.9796041
11050,Acoma Street,80234,39.8971461,-104.9882968
11040,Acoma Street,80234,39.8969357,-104.9882941
11030,Acoma Street,80234,39.8967368,-104.9883206
11020,Acoma Street,80234,39.8965319,-104.9882860
11010,Acoma Street,80234,39.8963251,-104.9883003
555,West 112th Avenue,80234,39.9010531,-104.9942280
530,Malley Drive,80233,39.9026481,-104.9796052
10478,Pearl Way,80233,39.8865958,-104.9786856
661,East 104th Place,80233,39.8860938,-104.9787131
10458,Pearl Way,80233,39.8864143,-104.9791333
10468,Pearl Way,80233,39.8865560,-104.9789628
10448,Pearl Way,80233,39.8862081,-104.9792470
10438,Pearl Way,80233,39.8860251,-104.9792724
641,East 104th Place,80233,39.8860485,-104.9789507
10457,Pearl Street,80233,39.8863184,-104.9787045
480,East 104th Place,80233,39.8856636,-104.9807838
460,East 104th Place,80233,39.8856725,-104.9810547
440,East 104th Place,80233,39.8856569,-104.9812783
420,East 104th Place,80233,39.8856485,-104.9815342
380,East 104th Place,80233,39.8856398,-104.9820026
400,East 104th Place,80233,39.8856421,-104.9817537
10190,Bannock Street,80260,39.8808877,-104.9888604
9580,Damon Drive,80260,39.8704719,-104.9906485
11799,Acoma Street,80234,39.9107702,-104.9919527
11789,Acoma Street,80234,39.9105795,-104.9919697
11779,Acoma Street,80234,39.9103410,-104.9919811
11769,Acoma Street,80234,39.9100895,-104.9920508
11759,Acoma Street,80234,39.9098604,-104.9920692
11749,Acoma Street,80234,39.9096904,-104.9920594
11739,Acoma Street,80234,39.9094877,-104.9920410
11830,Acoma Street,80234,39.9109554,-104.9913780
11790,Acoma Street,80234,39.9107728,-104.9914175
11780,Acoma Street,80234,39.9105594,-104.9914649
11770,Acoma Street,80234,39.9103631,-104.9914800
11760,Acoma Street,80234,39.9101411,-104.9914915
11750,Acoma Street,80234,39.9099705,-104.9914999
11740,Acoma Street,80234,39.9097244,-104.9915156
11730,Acoma Street,80234,39.9095487,-104.9915192
11720,Acoma Street,80234,39.9093243,-104.9915157
11698,Acoma Street,80234,39.9090962,-104.9915400
11690,Acoma Street,80234,39.9089688,-104.9915256
11688,Acoma Street,80234,39.9088436,-104.9915291
11680,Acoma Street,80234,39.9087261,-104.9915222
11678,Acoma Street,80234,39.9085978,-104.9914866
11670,Acoma Street,80234,39.9084742,-104.9914926
525,West 115th Avenue,80234,39.9060973,-104.9936226
11480,Cherokee Street,80234,39.9054458,-104.9912083
11450,Cherokee Street,80234,39.9043869,-104.9908550
531,West 115th Avenue,80234,39.9066459,-104.9944168
535,West 115th Avenue,80234,39.9060819,-104.9945397
11550,Huron Street,80234,39.9061090,-104.9960351
701,West 114th Avenue,80234,39.9037747,-104.9949966
2350,West 112th Avenue,80234,39.8977471,-105.0138544
241,West 104th Avenue,80234,39.8887307,-104.9905617
200,West 104th Avenue,80234,39.8848487,-104.9938899
10450,Pennsylvania Street,80233,39.8864008,-104.9801284
10460,Pennsylvania Street,80233,39.8866188,-104.9800743
10439,Pearl Way,80233,39.8860266,-104.9797473
10430,Pennsylvania Street,80233,39.8860261,-104.9801579
10440,Pennsylvania Street,80233,39.8862035,-104.9801521
10459,Pearl Way,80233,39.8864023,-104.9797282
10469,Pearl Way,80233,39.8866161,-104.9795859
10479,Pearl Way,80233,39.8867307,-104.9794166
10489,Pearl Way,80233,39.8868842,-104.9792043
10499,Pearl Way,80233,39.8869461,-104.9789712
10470,Pennsylvania Street,80233,39.8868239,-104.9799070
10480,Pennsylvania Street,80233,39.8869641,-104.9797210
10500,Pennsylvania Street,80233,39.8870878,-104.9795415
10550,Huron Street,80234,39.8879268,-104.9960898
11221,Washington Street,80233,39.9001657,-104.9780727
10770,Washington Street,80233,39.8915479,-104.9773182
10770,Washington Street,80233,39.8915322,-104.9770142
660,West 100th Place,80260,39.8782662,-104.9949287
640,West 100th Place,80260,39.8783188,-104.9946625
10393,Huron Street,80234,39.8846681,-104.9972109
10382,Monterey Circle,80260,39.8843245,-104.9944886
10372,Monterey Circle,80260,39.8843092,-104.9947326
10362,Monterey Circle,80260,39.8843248,-104.9950444
10352,Monterey Circle,80260,39.8843160,-104.9953464
10342,Monterey Circle,80260,39.8842532,-104.9956999
10332,Monterey Circle,80260,39.8840340,-104.9957408
10322,Monterey Circle,80260,39.8838185,-104.9957313
10312,Monterey Circle,80260,39.8836187,-104.9957337
10272,Monterey Circle,80260,39.8833286,-104.9955700
10252,Monterey Circle,80260,39.8830672,-104.9950505
10262,Monterey Circle,80260,39.8831778,-104.9952962
10242,Monterey Circle,80260,39.8829379,-104.9947388
10232,Monterey Circle,80260,39.8829686,-104.9944179
10222,Monterey Circle,80260,39.8830473,-104.9941147
10212,Monterey Circle,80260,39.8831595,-104.9938548
10301,Melody Drive,80260,39.8833651,-104.9934620
10311,Melody Drive,80260,39.8835980,-104.9935539
10321,Melody Drive,80260,39.8838155,-104.9935839
10331,Melody Drive,80260,39.8840388,-104.9935974
10341,Melody Drive,80260,39.8842895,-104.9935704
10332,Fox Court,80260,39.8840459,-104.9939795
10322,Fox Court,80260,39.8838094,-104.9939966
10312,Fox Court,80260,39.8836017,-104.9941631
10308,Fox Court,80260,39.8834695,-104.9944815
10304,Fox Court,80260,39.8834534,-104.9947992
10300,Fox Court,80260,39.8835233,-104.9951188
10323,Fox Court,80260,39.8837161,-104.9952824
10333,Fox Court,80260,39.8839511,-104.9951040
10353,Fox Court,80260,39.8839307,-104.9944834
10343,Fox Court,80260,39.8839549,-104.9947543
10342,Fox Court,80260,39.8843038,-104.9939875
10377,Monterey Circle,80260,39.8846901,-104.9944286
10371,Monterey Circle,80260,39.8847114,-104.9947265
10367,Monterey Circle,80260,39.8846812,-104.9950076
10361,Monterey Circle,80260,39.8846860,-104.9952993
10201,Monterey Circle,80260,39.8829426,-104.9933779
10211,Monterey Circle,80260,39.8828472,-104.9936204
10221,Monterey Circle,80260,39.8827019,-104.9938738
10231,Monterey Circle,80260,39.8825857,-104.9941304
10241,Monterey Circle,80260,39.8825273,-104.9944420
10247,Monterey Circle,80260,39.8825511,-104.9947374
10251,Monterey Circle,80260,39.8826320,-104.9950603
10261,Monterey Circle,80260,39.8827251,-104.9953020
10271,Monterey Circle,80260,39.8828472,-104.9955566
10281,Monterey Circle,80260,39.8829778,-104.9958217
10291,Monterey Circle,80260,39.8831409,-104.9960753
850,West 104th Avenue,80234,39.8846714,-104.9977099
11385,Grant Drive,80233,39.9022921,-104.9824991
10621,Irma Drive,80233,39.8907842,-104.9654071
10648,Huron Street,80234,39.8892134,-104.9963254
10648,Huron Street,80234,39.8892127,-104.9959844
10648,Huron Street,80234,39.8892147,-104.9955190
10648,Huron Street,80234,39.8895153,-104.9955182
10648,Huron Street,80234,39.8895132,-104.9959836
10648,Huron Street,80234,39.8895139,-104.9963245
10648,Huron Street,80234,39.8898764,-104.9954136
10648,Huron Street,80234,39.8898754,-104.9958146
10648,Huron Street,80234,39.8898751,-104.9963219
10648,Huron Street,80234,39.8901755,-104.9954149
10648,Huron Street,80234,39.8901745,-104.9958160
10648,Huron Street,80234,39.8901742,-104.9963273
10648,Huron Street,80234,39.8905344,-104.9954780
10648,Huron Street,80234,39.8905354,-104.9959889
10648,Huron Street,80234,39.8905362,-104.9963299
10648,Huron Street,80234,39.8908350,-104.9954753
10648,Huron Street,80234,39.8908360,-104.9959863
10648,Huron Street,80234,39.8908368,-104.9963273
10648,Huron Street,80234,39.8906868,-104.9957344
10648,Huron Street,80234,39.8900230,-104.9960690
10648,Huron Street,80234,39.8893623,-104.9957568
1720,East 112th Avenue,80233,39.8991796,-104.9660406
1720,East 112th Avenue,80233,39.8991566,-104.9658722
1720,East 112th Avenue,80233,39.8992886,-104.9659273
10790,Washington Street,80233,39.8922998,-104.9772180
10438,Ogden Street,80233,39.8857251,-104.9742962
1180,West 100th Avenue,80260,39.8779583,-105.0014393
1160,West 100th Avenue,80260,39.8779006,-105.0011227
1140,West 100th Avenue,80260,39.8778380,-105.0008454
1120,West 100th Avenue,80260,39.8777761,-105.0005273
1080,West 100th Avenue,80260,39.8777097,-105.0001833
1060,West 100th Avenue,80260,39.8776571,-104.9998961
1040,West 100th Avenue,80260,39.8775908,-104.9995769
1020,West 100th Avenue,80260,39.8775610,-104.9992427
1021,Niver Avenue,80260,39.8772277,-104.9992819
1041,Niver Avenue,80260,39.8772139,-104.9995703
1061,Niver Avenue,80260,39.8772935,-104.9999116
1081,Niver Avenue,80260,39.8773525,-105.0002259
1121,Niver Avenue,80260,39.8774108,-105.0005242
1141,Niver Avenue,80260,39.8774743,-105.0008400
1161,Niver Avenue,80260,39.8775380,-105.0011412
1181,Niver Avenue,80260,39.8776149,-105.0014503
9960,Croke Drive,80260,39.8770375,-105.0013911
1160,Niver Avenue,80260,39.8770502,-105.0009920
1070,Darwin Court,80260,39.8766475,-105.0005143
1141,West 99th Avenue,80260,39.8760094,-105.0004480
1161,West 99th Avenue,80260,39.8761409,-105.0007834
1225,West 99th Avenue,80260,39.8761706,-105.0014611
1247,West 98th Avenue,80260,39.8741928,-105.0015027
1227,West 98th Avenue,80260,39.8741332,-105.0012287
9820,Croke Drive,80260,39.8745087,-105.0014956
9830,Croke Drive,80260,39.8747209,-105.0014803
9813,Rapp Lane,80260,39.8746644,-105.0008651
9811,Rapp Lane,80260,39.8743452,-105.0007485
1167,West 98th Avenue,80260,39.8739793,-105.0007523
1187,West 98th Avenue,80260,39.8740274,-105.0009754
1226,West 98th Avenue,80260,39.8737231,-105.0012846
1186,West 98th Avenue,80260,39.8736251,-105.0010186
1166,West 98th Avenue,80260,39.8735477,-105.0007813
1146,West 98th Avenue,80260,39.8734472,-105.0005389
1126,West 98th Avenue,80260,39.8733560,-105.0002688
1145,West 97th Avenue,80260,39.8730025,-105.0004909
1125,West 97th Avenue,80260,39.8729333,-105.0002398
1085,West 97th Avenue,80260,39.8729295,-104.9999663
1065,West 97th Avenue,80260,39.8728517,-104.9996833
1045,West 97th Avenue,80260,39.8728708,-104.9993761
1025,West 97th Avenue,80260,39.8728672,-104.9991182
985,West 97th Avenue,80260,39.8728742,-104.9988461
965,West 97th Avenue,80260,39.8728633,-104.9986002
945,West 97th Avenue,80260,39.8728563,-104.9982845
925,West 97th Avenue,80260,39.8728670,-104.9980319
885,West 97th Avenue,80260,39.8728435,-104.9977626
865,West 97th Avenue,80260,39.8728713,-104.9975079
845,West 97th Avenue,80260,39.8728662,-104.9972251
825,West 97th Avenue,80260,39.8728506,-104.9970121
846,West 98th Avenue,80260,39.8733289,-104.9972432
826,West 98th Avenue,80260,39.8733160,-104.9969915
866,West 98th Avenue,80260,39.8733138,-104.9975106
886,West 98th Avenue,80260,39.8733294,-104.9977771
926,West 98th Avenue,80260,39.8733215,-104.9980480
946,West 98th Avenue,80260,39.8733189,-104.9983090
966,West 98th Avenue,80260,39.8733288,-104.9985578
986,West 98th Avenue,80260,39.8733062,-104.9988527
1026,West 98th Avenue,80260,39.8733262,-104.9990938
1046,West 98th Avenue,80260,39.8733101,-104.9993777
1066,West 98th Avenue,80260,39.8733133,-104.9996560
1086,West 98th Avenue,80260,39.8733444,-104.9999452
1165,West 97th Avenue,80260,39.8730815,-105.0007592
1185,West 97th Avenue,80260,39.8731610,-105.0010025
1225,West 97th Avenue,80260,39.8732415,-105.0012373
1245,West 97th Avenue,80260,39.8733337,-105.0014615
1265,West 97th Avenue,80260,39.8734707,-105.0017018
1264,West 97th Avenue,80260,39.8730679,-105.0019222
1244,West 97th Avenue,80260,39.8729711,-105.0016651
1224,West 97th Avenue,80260,39.8728703,-105.0013941
1184,West 97th Avenue,80260,39.8728027,-105.0011329
1164,West 97th Avenue,80260,39.8727169,-105.0009115
1144,West 97th Avenue,80260,39.8726357,-105.0006517
1124,West 97th Avenue,80260,39.8725591,-105.0003926
1084,West 97th Avenue,80260,39.8725076,-105.0001399
1064,West 97th Avenue,80260,39.8724664,-104.9998915
1044,West 97th Avenue,80260,39.8724608,-104.9995658
1024,West 97th Avenue,80260,39.8724690,-104.9993038
984,West 97th Avenue,80260,39.8724706,-104.9989933
964,West 97th Avenue,80260,39.8724828,-104.9987223
944,West 97th Avenue,80260,39.8724652,-104.9983818
924,West 97th Avenue,80260,39.8724810,-104.9981245
884,West 97th Avenue,80260,39.8724803,-104.9978411
864,West 97th Avenue,80260,39.8724804,-104.9975338
844,West 97th Avenue,80260,39.8724697,-104.9972605
824,West 97th Avenue,80260,39.8724711,-104.9970080
1183,West 96th Place,80260,39.8721196,-105.0012008
310,West 104th Avenue,80260,39.8840915,-104.9907440
560,Malley Drive,80233,39.9018084,-104.9792721
556,Malley Drive,80233,39.9018286,-104.9794873
11250,Huron Street,80234,39.9006921,-104.9958018
11919,Washington Street,80233,39.9129594,-104.9783361
11425,Community Center Drive,80233,39.9033445,-104.9885216
11450,Community Center Drive,80233,39.9052936,-104.9849364
11450,Community Center Drive,80233,39.9046979,-104.9849741
10828,Huron Street,80234,39.8926391,-104.9956895
11178,Huron Street,80234,39.8992873,-104.9957661
12200,Dairy Street,80241,39.9171069,-104.9655384
12204,Dairy Street,80241,39.9171705,-104.9655345
12220,Dairy Street,80241,39.9174080,-104.9655391
12216,Dairy Street,80241,39.9173438,-104.9655341
12212,Dairy Street,80241,39.9172855,-104.9655266
12208,Dairy Street,80241,39.9172289,-104.9655267
12240,Dairy Street,80241,39.9177694,-104.9655377
12244,Dairy Street,80241,39.9178312,-104.9655267
12248,Dairy Street,80241,39.9178911,-104.9655397
12252,Dairy Street,80241,39.9179815,-104.9655398
12256,Dairy Street,80241,39.9180418,-104.9655280
12260,Dairy Street,80241,39.9181027,-104.9655401
12268,Dairy Street,80241,39.9181940,-104.9655408
12272,Dairy Street,80241,39.9182552,-104.9655279
12276,Dairy Street,80241,39.9183106,-104.9655367
12224,Dairy Street,80241,39.9174985,-104.9655385
12228,Dairy Street,80241,39.9175582,-104.9655135
12232,Dairy Street,80241,39.9176154,-104.9655346
12236,Dairy Street,80241,39.9176796,-104.9655413
12327,Farmview Street,80241,39.9194823,-104.9669008
12321,Farmview Street,80241,39.9193990,-104.9668994
12315,Farmview Street,80241,39.9193116,-104.9669008
10938,Patterson Court,80234,39.8951395,-104.9926757
403,West 114th Way,80234,39.9051549,-104.9921179
383,West 114th Way,80234,39.9050879,-104.9921062
452,West 114th Way,80234,39.9050074,-104.9927937
462,West 114th Way,80234,39.9050150,-104.9929034
562,West 114th Way,80234,39.9050059,-104.9937962
582,West 114th Way,80234,39.9050134,-104.9939058
512,West 114th Way,80234,39.9050080,-104.9932946
522,West 114th Way,80234,39.9050155,-104.9934042
510,West 114th Place,80234,39.9043232,-104.9932832
520,West 114th Place,80234,39.9043307,-104.9933929
303,West 114th Way,80234,39.9047113,-104.9919862
323,West 114th Way,80234,39.9047857,-104.9919993
623,West 114th Way,80234,39.9054112,-104.9943450
633,West 114th Way,80234,39.9054171,-104.9944546
603,West 114th Way,80234,39.9054196,-104.9940980
613,West 114th Way,80234,39.9054120,-104.9942076
360,West 114th Place,80234,39.9043251,-104.9921443
340,West 114th Place,80234,39.9043317,-104.9920345
420,West 114th Place,80234,39.9043300,-104.9925312
440,West 114th Place,80234,39.9043236,-104.9926411
652,West 114th Way,80234,39.9050042,-104.9946527
642,West 114th Way,80234,39.9050129,-104.9945445
632,West 114th Way,80234,39.9050134,-104.9943976
622,West 114th Way,80234,39.9050072,-104.9943045
630,West 114th Place,80234,39.9043308,-104.9943828
620,West 114th Place,80234,39.9043246,-104.9942898
560,West 114th Place,80234,39.9043257,-104.9937902
580,West 114th Place,80234,39.9043318,-104.9938832
320,West 114th Place,80234,39.9043546,-104.9918642
310,West 114th Place,80234,39.9043635,-104.9917767
400,West 114th Place,80234,39.9043318,-104.9923879
380,West 114th Place,80234,39.9043257,-104.9922949
460,West 114th Place,80234,39.9043347,-104.9928836
450,West 114th Place,80234,39.9043285,-104.9927905
422,West 114th Way,80234,39.9050173,-104.9925547
442,West 114th Way,80234,39.9050115,-104.9926481
500,West 114th Place,80234,39.9043264,-104.9931369
480,West 114th Place,80234,39.9043321,-104.9930435
453,West 114th Way,80234,39.9054163,-104.9926870
443,West 114th Way,80234,39.9054105,-104.9925936
483,West 114th Way,80234,39.9054153,-104.9929539
463,West 114th Way,80234,39.9054096,-104.9928605
533,West 114th Way,80234,39.9054163,-104.9934508
523,West 114th Way,80234,39.9054105,-104.9933574
583,West 114th Way,80234,39.9054137,-104.9939510
563,West 114th Way,80234,39.9054080,-104.9938576
641,West 114th Place,80234,39.9047240,-104.9945532
631,West 114th Place,80234,39.9047182,-104.9944598
601,West 114th Place,80234,39.9047271,-104.9940556
581,West 114th Place,80234,39.9047212,-104.9939622
521,West 114th Place,80234,39.9047212,-104.9934620
531,West 114th Place,80234,39.9047271,-104.9935554
461,West 114th Place,80234,39.9047239,-104.9929642
481,West 114th Place,80234,39.9047296,-104.9930576
401,West 114th Place,80234,39.9047238,-104.9924649
421,West 114th Place,80234,39.9047285,-104.9925574
502,West 114th Way,80234,39.9050125,-104.9931443
482,West 114th Way,80234,39.9050183,-104.9930509
542,West 114th Way,80234,39.9050141,-104.9936479
532,West 114th Way,80234,39.9050198,-104.9935545
612,West 114th Way,80234,39.9050105,-104.9941481
602,West 114th Way,80234,39.9050162,-104.9940548
600,West 114th Place,80234,39.9043310,-104.9940366
610,West 114th Place,80234,39.9043253,-104.9941300
530,West 114th Place,80234,39.9043303,-104.9935378
540,West 114th Place,80234,39.9043246,-104.9936311
363,West 114th Way,80234,39.9049659,-104.9920659
343,West 114th Way,80234,39.9049021,-104.9920374
423,West 114th Way,80234,39.9054117,-104.9922899
413,West 114th Way,80234,39.9053789,-104.9922130
513,West 114th Way,80234,39.9054043,-104.9932043
503,West 114th Way,80234,39.9054110,-104.9931117
553,West 114th Way,80234,39.9054079,-104.9937011
543,West 114th Way,80234,39.9054146,-104.9936085
653,West 114th Way,80234,39.9054110,-104.9947030
643,West 114th Way,80234,39.9054177,-104.9946103
621,West 114th Place,80234,39.9047223,-104.9943053
611,West 114th Place,80234,39.9047290,-104.9942127
561,West 114th Place,80234,39.9047197,-104.9938044
541,West 114th Place,80234,39.9047264,-104.9937118
511,West 114th Place,80234,39.9047217,-104.9933063
501,West 114th Place,80234,39.9047285,-104.9932137
441,West 114th Place,80234,39.9047279,-104.9927160
451,West 114th Place,80234,39.9047204,-104.9928081
10903,Bannock Street,80234,39.8943971,-104.9898560
11614,Melody Drive,80234,39.9072881,-104.9946609
11659,Acoma Street,80234,39.9081810,-104.9919815
264,West 116th Avenue,80234,39.9069558,-104.9918414
459,West 116th Way,80234,39.9089713,-104.9934971
446,West 116th Place,80234,39.9078041,-104.9933609
10998,Patterson Court,80234,39.8961302,-104.9933816
11102,Melody Drive,80234,39.8977706,-104.9927290
11145,Cherokee Street,80234,39.8986612,-104.9913939
10951,Acoma Street,80234,39.8952177,-104.9889007
10910,Acoma Street,80234,39.8948855,-104.9883013
10950,Acoma Street,80234,39.8957144,-104.9883061
10851,Hermosa Court,80234,39.8934195,-104.9941793
544,West 116th Avenue,80234,39.9069291,-104.9941609
404,Wellington Street,80234,39.8926872,-104.9921944
11641,Acoma Street,80234,39.9077623,-104.9919508
11193,Pinyon Drive,80234,39.8995118,-104.9893453
448,West 116th Way,80234,39.9085837,-104.9932723
11127,Elati Street,80234,39.8983097,-104.9925376
11104,Cherokee Street,80234,39.8980542,-104.9906620
347,West 116th Place,80234,39.9081990,-104.9924487
10971,Hermosa Court,80234,39.8958205,-104.9941936
543,Kennedy Drive,80234,39.8928951,-104.9938640
604,West 116th Avenue,80234,39.9069352,-104.9946490
11159,Melody Drive,80234,39.8988257,-104.9942955
11109,Melody Drive,80234,39.8979687,-104.9938236
10968,Patterson Court,80234,39.8957771,-104.9927213
10983,Bannock Street,80234,39.8960718,-104.9899774
10920,Hermosa Court,80234,39.8947969,-104.9937306
11128,Melody Drive,80234,39.8983155,-104.9933430
11658,Acoma Street,80234,39.9080612,-104.9914512
287,Wallace Street,80234,39.8934141,-104.9906770
449,West 116th Way,80234,39.9089690,-104.9933372
10889,Patterson Court,80234,39.8941679,-104.9931195
227,Wallace Street,80234,39.8932168,-104.9899232
10940,Hermosa Court,80234,39.8952345,-104.9937592
10930,Hermosa Court,80234,39.8950212,-104.9937629
10885,Verna Lane,80234,39.8940667,-104.9908170
10944,Verna Lane,80234,39.8950970,-104.9904040
11652,Galapago Court,80234,39.9078063,-104.9957132
10945,Verna Lane,80234,39.8951307,-104.9908752
167,Wallace Street,80234,39.8931947,-104.9890762
10927,Melody Drive,80234,39.8948248,-104.9921352
186,Wallace Street,80234,39.8928115,-104.9893777
428,West 116th Way,80234,39.9085793,-104.9929517
10991,Hermosa Court,80234,39.8960772,-104.9936982
11158,Melody Drive,80234,39.8989210,-104.9936208
454,West 116th Avenue,80234,39.9069467,-104.9935119
11150,Acoma Street,80234,39.8990888,-104.9885546
10911,Hermosa Court,80234,39.8945409,-104.9942202
10949,Patterson Court,80234,39.8952671,-104.9932244
11125,Cherokee Street,80234,39.8983307,-104.9912440
10923,Bannock Street,80234,39.8948166,-104.9898648
11624,Melody Drive,80234,39.9074145,-104.9946810
435,West 116th Avenue,80234,39.9073266,-104.9931990
329,West 116th Way,80234,39.9089711,-104.9923354
11668,Acoma Street,80234,39.9083505,-104.9914778
11164,Cherokee Street,80234,39.8991558,-104.9911053
11631,Acoma Street,80234,39.9074861,-104.9919146
284,West 116th Avenue,80234,39.9069446,-104.9920255
11601,Galapago Court,80234,39.9071704,-104.9962315
444,West 116th Avenue,80234,39.9069458,-104.9933419
10905,Verna Lane,80234,39.8943033,-104.9908794
10921,Acoma Street,80234,39.8946001,-104.9888609
10750,Acoma Street,80234,39.8915842,-104.9883105
10928,Patterson Court,80234,39.8949344,-104.9926841
286,Wallace Street,80234,39.8930398,-104.9907653
10943,Bannock Street,80234,39.8952267,-104.9898524
436,West 116th Place,80234,39.9077835,-104.9932007
468,West 116th Way,80234,39.9085715,-104.9935942
10880,Hermosa Court,80234,39.8941451,-104.9936730
10966,Melody Drive,80234,39.8957226,-104.9914220
10980,Acoma Street,80234,39.8959114,-104.9882588
11049,Melody Drive,80234,39.8968082,-104.9923620
11185,Cherokee Street,80234,39.8995229,-104.9917347
11622,Galapago Court,80234,39.9074363,-104.9957504
11669,Acoma Street,80234,39.9083556,-104.9919965
427,West 116th Place,80234,39.9082097,-104.9929735
247,Wallace Street,80234,39.8932431,-104.9902000
203,Bonita Place,80234,39.8965958,-104.9896577
533,Kennedy Drive,80234,39.8928697,-104.9936294
305,West 116th Avenue,80234,39.9073252,-104.9922146
10868,Patterson Court,80234,39.8939546,-104.9921011
10811,Hermosa Court,80234,39.8929860,-104.9929802
10875,Verna Lane,80234,39.8938974,-104.9906394
10866,Melody Drive,80234,39.8937754,-104.9915560
10909,Patterson Court,80234,39.8943874,-104.9932254
425,West 116th Avenue,80234,39.9073275,-104.9930342
11178,Melody Drive,80234,39.8992276,-104.9937067
10840,Hermosa Court,80234,39.8934283,-104.9930217
11638,Acoma Street,80234,39.9075251,-104.9913941
10930,Acoma Street,80234,39.8952987,-104.9883060
11660,Acoma Street,80234,39.9082089,-104.9914608
484,West 116th Avenue,80234,39.9069308,-104.9938351
10850,Hermosa Court,80234,39.8935590,-104.9932600
10939,Patterson Court,80234,39.8950510,-104.9932363
344,Wellington Street,80234,39.8924107,-104.9914619
11620,Acoma Street,80234,39.9072622,-104.9913904
11091,Acoma Street,80234,39.8978496,-104.9890087
10958,Patterson Court,80234,39.8955635,-104.9927077
11643,Melody Drive,80234,39.9076694,-104.9951680
545,West 116th Avenue,80234,39.9073278,-104.9941867
10959,Patterson Court,80234,39.8954905,-104.9932126
11106,Elati Street,80234,39.8980552,-104.9918529
345,Wellington Street,80234,39.8927932,-104.9912016
305,Wellington Street,80234,39.8925643,-104.9907695
10991,Acoma Street,80234,39.8960536,-104.9888279
10948,Patterson Court,80234,39.8953303,-104.9927088
10801,Hermosa Court,80234,39.8928967,-104.9927199
10971,Acoma Street,80234,39.8956302,-104.9887964
11602,Galapago Court,80234,39.9071990,-104.9957422
456,West 116th Place,80234,39.9078014,-104.9935276
10960,Hermosa Court,80234,39.8957114,-104.9936402
11176,Elati Street,80234,39.8991813,-104.9924817
404,West 116th Avenue,80234,39.9069420,-104.9928514
223,Bonita Place,80234,39.8964881,-104.9899134
11079,Melody Drive,80234,39.8975016,-104.9932565
384,West 116th Avenue,80234,39.9069368,-104.9926834
11085,Cherokee Street,80234,39.8977124,-104.9911756
10780,Acoma Street,80234,39.8921969,-104.9882931
11613,Melody Drive,80234,39.9072641,-104.9951665
10810,Acoma Street,80234,39.8928381,-104.9883053
704,West 116th Avenue,80234,39.9068032,-104.9959774
438,West 116th Way,80234,39.9085565,-104.9931137
10946,Melody Drive,80234,39.8952839,-104.9914859
10937,Melody Drive,80234,39.8950483,-104.9921188
289,West 116th Way,80234,39.9089613,-104.9921679
10890,Acoma Street,80234,39.8944704,-104.9882926
10860,Hermosa Court,80234,39.8937281,-104.9934198
10888,Patterson Court,80234,39.8942611,-104.9926422
304,West 116th Avenue,80234,39.9069403,-104.9921926
10931,Hermosa Court,80234,39.8949607,-104.9942727
11630,Acoma Street,80234,39.9073941,-104.9914044
10882,Bannock Street,80234,39.8941851,-104.9893321
184,Wellington Street,80234,39.8920274,-104.9893689
10962,Bannock Street,80234,39.8954236,-104.9893464
10800,Acoma Street,80234,39.8926082,-104.9882944
11179,Melody Drive,80234,39.8991993,-104.9943616
142,Bonita Place,80234,39.8963058,-104.9889214
10972,Bannock Street,80234,39.8956559,-104.9893563
10820,Acoma Street,80234,39.8930184,-104.9883150
565,West 116th Avenue,80234,39.9073315,-104.9943705
11042,Pinyon Drive,80234,39.8969132,-104.9908329
11126,Elati Street,80234,39.8983219,-104.9919696
349,West 116th Way,80234,39.9089651,-104.9925004
288,West 116th Way,80234,39.9085858,-104.9921396
10910,Hermosa Court,80234,39.8945877,-104.9937666
10916,Melody Drive,80234,39.8946510,-104.9914960
363,Bonita Place,80234,39.8960878,-104.9915243
564,West 116th Avenue,80234,39.9069316,-104.9943209
553,Kennedy Drive,80234,39.8929859,-104.9940834
207,Wallace Street,80234,39.8932124,-104.9896004
384,Wellington Street,80234,39.8925879,-104.9919407
11653,Melody Drive,80234,39.9078326,-104.9951672
11634,Melody Drive,80234,39.9075442,-104.9946634
466,West 116th Place,80234,39.9077961,-104.9936982
11062,Pinyon Drive,80234,39.8971513,-104.9901794
10886,Melody Drive,80234,39.8942215,-104.9915134
11142,Pinyon Drive,80234,39.8987090,-104.9896637
10935,Verna Lane,80234,39.8949195,-104.9908994
569,West 116th Way,80234,39.9084253,-104.9940682
11133,Pinyon Drive,80234,39.8985501,-104.9901907
694,West 116th Avenue,80234,39.9068064,-104.9957982
426,West 116th Place,80234,39.9078066,-104.9930370
10967,Melody Drive,80234,39.8956850,-104.9921024
10984,Verna Lane,80234,39.8959205,-104.9904483
10901,Acoma Street,80234,39.8943860,-104.9888648
324,West 116th Avenue,80234,39.9069451,-104.9923565
10835,Verna Lane,80234,39.8936124,-104.9896145
526,West 116th Place,80234,39.9078022,-104.9940224
144,Wellington Street,80234,39.8920151,-104.9888297
10974,Verna Lane,80234,39.8957200,-104.9904007
11641,Galapago Court,80234,39.9076661,-104.9962405
439,West 116th Way,80234,39.9089646,-104.9931782
325,West 116th Avenue,80234,39.9073211,-104.9923782
284,Wellington Street,80234,39.8921368,-104.9907348
11644,Melody Drive,80234,39.9076802,-104.9946841
316,West 116th Place,80234,39.9079036,-104.9924089
549,West 116th Way,80234,39.9085464,-104.9940736
10975,Verna Lane,80234,39.8957735,-104.9909304
10881,Hermosa Court,80234,39.8939976,-104.9941700
348,West 116th Way,80234,39.9085758,-104.9924615
11610,Acoma Street,80234,39.9071164,-104.9913720
267,Wallace Street,80234,39.8933623,-104.9904328
266,Wallace Street,80234,39.8929268,-104.9905422
10951,Hermosa Court,80234,39.8953761,-104.9942472
11069,Melody Drive,80234,39.8972820,-104.9929014
11190,Elati Street,80234,39.8994588,-104.9924131
566,West 116th Place,80234,39.9077843,-104.9943668
166,Wallace Street,80234,39.8928148,-104.9890934
10860,Acoma Street,80234,39.8938574,-104.9883176
11149,Melody Drive,80234,39.8985273,-104.9942238
10790,Acoma Street,80234,39.8923890,-104.9883088
10925,Verna Lane,80234,39.8947186,-104.9908957
10964,Verna Lane,80234,39.8955189,-104.9903797
244,Wellington Street,80234,39.8920241,-104.9901970
11340,Huron Street,80234,39.9024206,-104.9960646
10871,Hermosa Court,80234,39.8938272,-104.9943933
10849,Patterson Court,80234,39.8936182,-104.9922797
509,West 116th Way,80234,39.9087936,-104.9941326
10870,Hermosa Court,80234,39.8939302,-104.9935825
388,West 116th Way,80234,39.9085802,-104.9926248
11165,Cherokee Street,80234,39.8988807,-104.9915766
10969,Patterson Court,80234,39.8957126,-104.9933334
10830,Hermosa Court,80234,39.8933216,-104.9927774
346,West 116th Place,80234,39.9077932,-104.9925276
10902,Bannock Street,80234,39.8943852,-104.9893724
10907,Melody Drive,80234,39.8943906,-104.9921515
10931,Acoma Street,80234,39.8947977,-104.9888322
243,Bonita Place,80234,39.8964237,-104.9901790
10901,Hermosa Court,80234,39.8943242,-104.9942279
283,Bonita Place,80234,39.8962564,-104.9906909
187,Wallace Street,80234,39.8932019,-104.9893398
145,Wellington Street,80234,39.8924000,-104.9888336
10950,Hermosa Court,80234,39.8954334,-104.9937549
674,West 116th Avenue,80234,39.9068457,-104.9954537
11651,Acoma Street,80234,39.9080364,-104.9919728
11050,Melody Drive,80234,39.8971356,-104.9918756
164,Wellington Street,80234,39.8920239,-104.9891078
467,West 116th Place,80234,39.9082218,-104.9936095
483,Kennedy Drive,80234,39.8925799,-104.9929280
10936,Melody Drive,80234,39.8950778,-104.9915224
11173,Pinyon Drive,80234,39.8994705,-104.9900108
10900,Acoma Street,80234,39.8946993,-104.9882799
10869,Patterson Court,80234,39.8937842,-104.9927917
11086,Elati Street,80234,39.8977616,-104.9919384
521,West 115th Avenue,80234,39.9065708,-104.9937041
346,Wallace Street,80234,39.8933022,-104.9914856
405,Wellington Street,80234,39.8930372,-104.9919335
11146,Elati Street,80234,39.8986190,-104.9921823
11108,Melody Drive,80234,39.8980773,-104.9930494
10917,Melody Drive,80234,39.8946288,-104.9921087
11639,Acoma Street,80234,39.9076210,-104.9919398
11124,Cherokee Street,80234,39.8983436,-104.9907300
567,West 116th Place,80234,39.9082291,-104.9944155
525,West 116th Avenue,80234,39.9073239,-104.9940215
434,West 116th Avenue,80234,39.9069464,-104.9931788
246,Wallace Street,80234,39.8928786,-104.9902703
204,Wellington Street,80234,39.8920197,-104.9896284
10850,Acoma Street,80234,39.8936502,-104.9882977
10876,Melody Drive,80234,39.8939971,-104.9914793
10884,Verna Lane,80234,39.8942694,-104.9903701
11000,Acoma Street,80234,39.8961203,-104.9882908
10954,Verna Lane,80234,39.8953139,-104.9904243
10904,Verna Lane,80234,39.8944879,-104.9904116
11633,Melody Drive,80234,39.9075389,-104.9951658
469,West 116th Way,80234,39.9089726,-104.9936573
11059,Melody Drive,80234,39.8970661,-104.9926145
10973,Bannock Street,80234,39.8958646,-104.9898839
10872,Bannock Street,80234,39.8939821,-104.9893817
163,Bonita Place,80234,39.8967169,-104.9891313
11147,Elati Street,80234,39.8986177,-104.9927558
10845,Verna Lane,80234,39.8936196,-104.9898859
447,West 116th Place,80234,39.9082161,-104.9932966
10878,Patterson Court,80234,39.8940753,-104.9923968
10865,Verna Lane,80234,39.8937856,-104.9903888
11092,Pinyon Drive,80234,39.8978428,-104.9895309
10961,Hermosa Court,80234,39.8955955,-104.9942639
405,West 116th Avenue,80234,39.9073261,-104.9928735
11163,Pinyon Drive,80234,39.8994058,-104.9904326
11141,Acoma Street,80234,39.8987991,-104.9890987
10770,Acoma Street,80234,39.8919894,-104.9883089
458,West 116th Way,80234,39.9085746,-104.9934310
445,West 116th Avenue,80234,39.9073164,-104.9933552
10919,Patterson Court,80234,39.8946165,-104.9931908
10859,Patterson Court,80234,39.8937058,-104.9925382
325,Wellington Street,80234,39.8926704,-104.9909990
10861,Hermosa Court,80234,39.8935986,-104.9944273
10981,Hermosa Court,80234,39.8960024,-104.9939968
224,Wellington Street,80234,39.8920232,-104.9899170
11120,Acoma Street,80234,39.8982599,-104.9884277
10840,Acoma Street,80234,39.8934447,-104.9883132
147,Wallace Street,80234,39.8932151,-104.9887998
10918,Patterson Court,80234,39.8947305,-104.9927076
10900,Hermosa Court,80234,39.8943697,-104.9937135
10880,Acoma Street,80234,39.8942714,-104.9882994
587,West 116th Place,80234,39.9082466,-104.9945824
455,West 116th Avenue,80234,39.9073247,-104.9935257
457,West 116th Place,80234,39.9082129,-104.9934498
11187,Elati Street,80234,39.8995032,-104.9929670
11082,Pinyon Drive,80234,39.8975365,-104.9895487
11402,Cherokee Street,80234,39.9033833,-104.9909969
263,Bonita Place,80234,39.8963533,-104.9904336
165,Wellington Street,80234,39.8924091,-104.9890884
10760,Acoma Street,80234,39.8917716,-104.9883013
724,West 116th Avenue,80234,39.9068118,-104.9961523
607,West 116th Place,80234,39.9082074,-104.9947490
10870,Acoma Street,80234,39.8940637,-104.9882617
11623,Melody Drive,80234,39.9074126,-104.9951875
11621,Galapago Court,80234,39.9074185,-104.9962338
11101,Acoma Street,80234,39.8981852,-104.9890399
10820,Hermosa Court,80234,39.8932270,-104.9925099
11177,Elati Street,80234,39.8991889,-104.9929463
10879,Patterson Court,80234,39.8939517,-104.9930047
387,West 116th Place,80234,39.9082489,-104.9926342
344,West 116th Avenue,80234,39.9069437,-104.9925124
465,West 116th Avenue,80234,39.9073191,-104.9936967
523,Kennedy Drive,80234,39.8927352,-104.9933833
328,West 116th Way,80234,39.9085844,-104.9922979
11123,Pinyon Drive,80234,39.8982632,-104.9901522
10830,Acoma Street,80234,39.8932486,-104.9883069
11188,Melody Drive,80234,39.8994926,-104.9937039
10831,Hermosa Court,80234,39.8932142,-104.9934926
10874,Verna Lane,80234,39.8941113,-104.9901275
10942,Bannock Street,80234,39.8950102,-104.9893634
10982,Bannock Street,80234,39.8959136,-104.9893951
524,West 116th Avenue,80234,39.9069353,-104.9940012
584,West 116th Avenue,80234,39.9069397,-104.9944900
424,West 116th Avenue,80234,39.9069356,-104.9930133
11148,Melody Drive,80234,39.8985703,-104.9935426
11152,Pinyon Drive,80234,39.8990087,-104.9896523
11632,Galapago Court,80234,39.9075575,-104.9957562
10952,Bannock Street,80234,39.8952102,-104.9893606
573,Kennedy Drive,80234,39.8931690,-104.9945516
185,Wellington Street,80234,39.8923990,-104.9893761
664,West 116th Avenue,80234,39.9068733,-104.9952770
304,Wellington Street,80234,39.8922170,-104.9909705
10906,Melody Drive,80234,39.8944347,-104.9915086
269,West 116th Way,80234,39.9089684,-104.9919981
654,West 116th Avenue,80234,39.9069213,-104.9951034
529,West 116th Way,80234,39.9086732,-104.9940941
11140,Acoma Street,80234,39.8988210,-104.9885029
10977,Melody Drive,80234,39.8958806,-104.9921428
589,West 116th Way,80234,39.9083034,-104.9940629
10921,Hermosa Court,80234,39.8947511,-104.9942522
11081,Acoma Street,80234,39.8975399,-104.9889173
245,Wellington Street,80234,39.8924355,-104.9901708
10924,Verna Lane,80234,39.8949015,-104.9903948
345,West 116th Avenue,80234,39.9073312,-104.9925443
389,West 116th Way,80234,39.9089683,-104.9926656
10864,Verna Lane,80234,39.8940118,-104.9898843
11631,Galapago Court,80234,39.9075414,-104.9962405
11072,Pinyon Drive,80234,39.8972648,-104.9897835
11093,Pinyon Drive,80234,39.8976411,-104.9900722
386,West 116th Place,80234,39.9077585,-104.9927124
10988,Patterson Court,80234,39.8961101,-104.9931020
10914,Verna Lane,80234,39.8946969,-104.9903730
11084,Cherokee Street,80234,39.8974927,-104.9905672
10932,Bannock Street,80234,39.8948065,-104.9893880
11629,Acoma Street,80234,39.9073336,-104.9919284
10941,Acoma Street,80234,39.8950128,-104.9888191
226,Wallace Street,80234,39.8927954,-104.9899179
10871,Acoma Street,80234,39.8939826,-104.9888261
11032,Pinyon Drive,80234,39.8968124,-104.9912247
268,West 116th Way,80234,39.9085905,-104.9919702
11157,Elati Street,80234,39.8988839,-104.9929227
11642,Galapago Court,80234,39.9076834,-104.9957448
327,Wallace Street,80234,39.8936136,-104.9911512
10805,Verna Lane,80234,39.8936111,-104.9888180
326,Wallace Street,80234,39.8931914,-104.9912349
182,Bonita Place,80234,39.8962100,-104.9894819
10963,Bannock Street,80234,39.8956265,-104.9898722
225,Wellington Street,80234,39.8924100,-104.9899109
11094,Cherokee Street,80234,39.8977782,-104.9905557
323,Bonita Place,80234,39.8961995,-104.9909598
11651,Galapago Court,80234,39.9077899,-104.9962307
11102,Pinyon Drive,80234,39.8981208,-104.9896067
10957,Melody Drive,80234,39.8954490,-104.9920870
11103,Pinyon Drive,80234,39.8979537,-104.9901012
408,West 116th Way,80234,39.9085808,-104.9927854
409,West 116th Way,80234,39.9089686,-104.9928426
10821,Hermosa Court,80234,39.8930783,-104.9932561
11121,Acoma Street,80234,39.8984827,-104.9891014
11129,Melody Drive,80234,39.8981667,-104.9940280
11105,Cherokee Street,80234,39.8980268,-104.9912512
385,West 116th Avenue,80234,39.9073280,-104.9927093
10815,Verna Lane,80234,39.8936145,-104.9890777
206,Wallace Street,80234,39.8928090,-104.9896447
11175,Cherokee Street,80234,39.8991740,-104.9916942
546,West 116th Place,80234,39.9077991,-104.9941955
11654,Melody Drive,80234,39.9078162,-104.9946803
10920,Acoma Street,80234,39.8950931,-104.9883018
10855,Verna Lane,80234,39.8936923,-104.9901454
11107,Elati Street,80234,39.8979928,-104.9924702
11189,Melody Drive,80234,39.8994531,-104.9943654
11130,Acoma Street,80234,39.8985285,-104.9884871
11153,Pinyon Drive,80234,39.8990737,-104.9904937
10965,Verna Lane,80234,39.8955442,-104.9909026
10922,Bannock Street,80234,39.8945987,-104.9893583
205,Wellington Street,80234,39.8923982,-104.9896263
11052,Pinyon Drive,80234,39.8970280,-104.9905368
10940,Acoma Street,80234,39.8954976,-104.9882823
343,Bonita Place,80234,39.8961468,-104.9912686
10978,Patterson Court,80234,39.8959655,-104.9928823
10929,Patterson Court,80234,39.8948363,-104.9932381
486,West 116th Place,80234,39.9078041,-104.9938588
609,West 116th Way,80234,39.9081792,-104.9940558
11160,Acoma Street,80234,39.8993485,-104.9886493
10955,Verna Lane,80234,39.8953353,-104.9909292
11134,Cherokee Street,80234,39.8986458,-104.9907966
10941,Hermosa Court,80234,39.8951799,-104.9942310
11156,Elati Street,80234,39.8988997,-104.9923938
10908,Patterson Court,80234,39.8945128,-104.9926961
416,West 116th Place,80234,39.9077753,-104.9928747
624,West 116th Avenue,80234,39.9069349,-104.9948102
307,Wallace Street,80234,39.8935422,-104.9909138
11100,Acoma Street,80234,39.8979935,-104.9884141
306,Wallace Street,80234,39.8931264,-104.9910058
11611,Galapago Court,80234,39.9072923,-104.9962579
143,Bonita Place,80234,39.8967602,-104.9888570
364,Wellington Street,80234,39.8925188,-104.9916946
10881,Acoma Street,80234,39.8941890,-104.9888167
11174,Cherokee Street,80234,39.8995251,-104.9912044
10956,Melody Drive,80234,39.8955065,-104.9915150
10913,Bannock Street,80234,39.8946076,-104.9898831
11080,Acoma Street,80234,39.8977170,-104.9883892
11649,Acoma Street,80234,39.9078998,-104.9919687
265,Wellington Street,80234,39.8924987,-104.9905012
224,West 116th Avenue,80234,39.9069403,-104.9916433
11022,Melody Drive,80234,39.8966925,-104.9916118
10953,Bannock Street,80234,39.8954274,-104.9898776
11143,Pinyon Drive,80234,39.8988430,-104.9902433
11144,Cherokee Street,80234,39.8988568,-104.9909497
485,West 116th Avenue,80234,39.9073113,-104.9938566
183,Bonita Place,80234,39.8966516,-104.9893987
264,Wellington Street,80234,39.8920574,-104.9904647
11170,Acoma Street,80234,39.8995884,-104.9887165
385,Wellington Street,80234,39.8929386,-104.9917324
11076,Elati Street,80234,39.8975033,-104.9921917
11650,Acoma Street,80234,39.9079239,-104.9914554
10947,Melody Drive,80234,39.8952551,-104.9921174
563,Kennedy Drive,80234,39.8930641,-104.9943251
11640,Acoma Street,80234,39.9076625,-104.9914222
11075,Pinyon Drive,80234,39.8973029,-104.9911355
11183,Pinyon Drive,80234,39.8994991,-104.9897222
324,Wellington Street,80234,39.8923209,-104.9912116
10961,Acoma Street,80234,39.8954240,-104.9888111
204,West 116th Avenue,80234,39.9069961,-104.9914847
11151,Acoma Street,80234,39.8990665,-104.9891856
10825,Verna Lane,80234,39.8935976,-104.9893352
10933,Bannock Street,80234,39.8950246,-104.9898814
437,West 116th Place,80234,39.9082083,-104.9931280
11089,Melody Drive,80234,39.8977010,-104.9935664
11122,Pinyon Drive,80234,39.8984179,-104.9895904
11065,Pinyon Drive,80234,39.8971894,-104.9914559
464,West 116th Avenue,80234,39.9069458,-104.9936720
10926,Melody Drive,80234,39.8948677,-104.9914660
684,West 116th Avenue,80234,39.9068307,-104.9956260
10915,Verna Lane,80234,39.8945005,-104.9909001
365,Wellington Street,80234,39.8928547,-104.9914804
366,Wallace Street,80234,39.8933615,-104.9917361
407,West 116th Place,80234,39.9082483,-104.9927971
10981,Acoma Street,80234,39.8958347,-104.9888589
11648,Acoma Street,80234,39.9077969,-104.9914378
327,West 116th Place,80234,39.9080469,-104.9924108
162,Bonita Place,80234,39.8962992,-104.9892281
146,Wallace Street,80234,39.8928372,-104.9888321
10841,Hermosa Court,80234,39.8935197,-104.9938448
503,Kennedy Drive,80234,39.8926382,-104.9931795
429,West 116th Way,80234,39.9089635,-104.9930069
10987,Melody Drive,80234,39.8961605,-104.9921320
11612,Galapago Court,80234,39.9073115,-104.9957429
10699,Melody Drive,80234,39.8914080,-104.9937522
759,West 104th Avenue,80234,39.8858892,-104.9960930
10465,Melody Drive,80234,39.8863257,-104.9938123
555,West 104th Avenue,80234,39.8856569,-104.9942210
650,West 106th Avenue,80234,39.8881502,-104.9952531
10530,Huron Street,80234,39.8872619,-104.9960948
10695,Melody Drive,80234,39.8910229,-104.9939243
10785,Melody Drive,80234,39.8921638,-104.9935623
10575,Melody Drive,80234,39.8881519,-104.9940501
10615,Melody Drive,80234,39.8893046,-104.9948521
650,Kennedy Drive,80234,39.8925836,-104.9947666
10691,Melody Drive,80234,39.8906995,-104.9950605
10669,Melody Drive,80234,39.8900107,-104.9941941
10738,Huron Street,80234,39.8916558,-104.9957328
10535,Melody Drive,80234,39.8872297,-104.9938396
10738,Huron Street,80234,39.8913495,-104.9961713
10693,Melody Drive,80234,39.8904994,-104.9938434
10817,Livingston Drive,80234,39.8928863,-105.0018736
10827,Claire Lane,80234,39.8929160,-105.0055891
10826,Claire Lane,80234,39.8928845,-105.0046391
10825,Brewer Drive,80234,39.8928825,-105.0034321
10839,Brewer Drive,80234,39.8931867,-105.0041782
10740,Claire Lane,80234,39.8912731,-105.0034433
10804,Kalamath Street,80234,39.8928430,-105.0002796
930,Kennedy Drive,80234,39.8928942,-104.9981521
11054,Claire Circle,80234,39.8956426,-105.0021948
11022,Claire Circle,80234,39.8956611,-105.0039229
970,West 112th Avenue,80234,39.8986929,-104.9987251
980,West 112th Avenue,80234,39.8983994,-104.9987507
11061,Huron Street,80234,39.8981615,-104.9984427
11065,Huron Street,80234,39.8980620,-104.9980995
1050,West 112th Avenue,80234,39.8993275,-104.9993232
1030,West 112th Avenue,80234,39.8989680,-104.9992848
1000,West 112th Avenue,80234,39.8982988,-104.9993907
11035,Huron Street,80234,39.8973001,-104.9971893
11041,Huron Street,80234,39.8974375,-104.9976788
11045,Huron Street,80234,39.8975889,-104.9981340
11055,Huron Street,80234,39.8978918,-104.9990358
11051,Huron Street,80234,39.8977321,-104.9985899
11081,Huron Street,80234,39.8977821,-104.9972063
11085,Huron Street,80234,39.8981884,-104.9971935
11071,Huron Street,80234,39.8979513,-104.9977071
960,West 112th Avenue,80234,39.8991424,-104.9987233
1462,Beth Lane,80234,39.8941724,-105.0048767
1228,West 111th Avenue,80234,39.8981674,-105.0014877
10819,Brewer Drive,80234,39.8927223,-105.0031998
1340,Kennedy Drive,80234,39.8945849,-105.0032410
10776,Livingston Drive,80234,39.8921470,-105.0013331
1483,West 111th Place,80234,39.8993541,-105.0046000
11002,Claire Circle,80234,39.8961619,-105.0045889
1435,Claire Lane,80234,39.8968534,-105.0042129
1308,West 111th Avenue,80234,39.8980064,-105.0025438
11006,Livingston Drive,80234,39.8960093,-105.0000741
10754,Roseanna Drive,80234,39.8911204,-104.9974211
10944,Manet Way,80234,39.8949631,-104.9977103
1528,West 111th Avenue,80234,39.8972582,-105.0049587
10844,Brewer Drive,80234,39.8935490,-105.0040280
11134,Navajo Street,80234,39.8984382,-105.0035443
970,Claire Lane,80234,39.8964438,-104.9985874
10770,Wanda Lane,80234,39.8919293,-104.9982043
10990,Claire Lane,80234,39.8957498,-105.0050540
1354,West 111th Place,80234,39.8989605,-105.0030141
10796,Livingston Drive,80234,39.8925964,-105.0013193
1428,West 111th Avenue,80234,39.8975547,-105.0039462
10818,Brewer Drive,80234,39.8929607,-105.0027757
10836,Livingston Drive,80234,39.8935163,-105.0011475
10733,Santa Fe Street,80234,39.8912423,-104.9997567
10816,Livingston Drive,80234,39.8930506,-105.0012837
10763,Santa Fe Street,80234,39.8918781,-104.9997511
10975,Manet Way,80234,39.8951390,-104.9995883
10741,Wanda Lane,80234,39.8912835,-104.9987079
1422,Beth Lane,80234,39.8940984,-105.0042561
11114,Navajo Street,80234,39.8981161,-105.0036104
10821,Claire Lane,80234,39.8927665,-105.0054261
1543,West 111th Place,80234,39.8993469,-105.0052701
11131,Park Vistas Drive,80234,39.8981251,-105.0059401
10803,Santa Fe Street,80234,39.8927102,-104.9997743
1220,Kennedy Drive,80234,39.8939915,-105.0017670
10748,Brewer Drive,80234,39.8914676,-105.0023598
1361,Kennedy Drive,80234,39.8950794,-105.0032636
1000,Claire Lane,80234,39.8967910,-104.9995940
1143,West 111th Place,80234,39.8993727,-105.0007208
10787,Livingston Drive,80234,39.8924202,-105.0018629
943,Lambert Lane,80234,39.8941350,-104.9981127
10969,Roseanna Drive,80234,39.8954796,-104.9985337
10762,Santa Fe Street,80234,39.8919549,-104.9992405
1063,Lambert Lane,80234,39.8946684,-104.9999049
11162,Osage Street,80234,39.8989764,-105.0044339
1482,Beth Lane,80234,39.8941555,-105.0051768
1410,Kennedy Drive,80234,39.8948854,-105.0039914
10789,Brewer Drive,80234,39.8923298,-105.0029527
10946,Livingston Drive,80234,39.8948108,-105.0002446
10979,Lambert Lane,80234,39.8955314,-105.0017524
10846,Livingston Drive,80234,39.8937105,-105.0010319
1263,West 111th Place,80234,39.8993422,-105.0022242
1585,Claire Lane,80234,39.8963687,-105.0052835
10809,Roseanna Drive,80234,39.8924851,-104.9976878
10820,Claire Lane,80234,39.8928076,-105.0043165
1461,Kennedy Drive,80234,39.8953804,-105.0047701
11169,Park Vistas Drive,80234,39.8989805,-105.0058634
1148,West 111th Avenue,80234,39.8982095,-105.0008402
1051,Kennedy Drive,80234,39.8936276,-104.9996915
11005,Manet Way,80234,39.8960749,-104.9995757
1043,Lambert Lane,80234,39.8945154,-104.9995830
10794,Kalamath Street,80234,39.8926247,-105.0002840
1042,Lambert Lane,80234,39.8941136,-104.9997992
10959,Roseanna Drive,80234,39.8953537,-104.9981249
10985,Manet Way,80234,39.8954515,-104.9995680
10781,Wanda Lane,80234,39.8921562,-104.9988269
1553,West 111th Place,80234,39.8993774,-105.0055032
982,Lambert Lane,80234,39.8938381,-104.9990579
10906,Livingston Drive,80234,39.8941064,-105.0007534
11027,Livingston Drive,80234,39.8963676,-105.0006679
10774,Kalamath Street,80234,39.8921622,-105.0002722
11028,Lambert Lane,80234,39.8964289,-105.0011955
10780,Wanda Lane,80234,39.8921742,-104.9982354
10732,Santa Fe Street,80234,39.8912490,-104.9992293
1307,West 111th Avenue,80234,39.8984361,-105.0025045
1421,Beth Lane,80234,39.8945432,-105.0043244
10989,Roseanna Drive,80234,39.8959613,-104.9982136
905,Claire Lane,80234,39.8967489,-104.9980248
10999,Roseanna Drive,80234,39.8958520,-104.9977382
10758,Roseanna Drive,80234,39.8913134,-104.9972649
11135,Osage Street,80234,39.8983244,-105.0049915
1261,Kennedy Drive,80234,39.8945332,-105.0019681
962,Lambert Lane,80234,39.8937531,-104.9985957
10858,Brewer Drive,80234,39.8937851,-105.0049021
1281,Kennedy Drive,80234,39.8946600,-105.0022879
10779,Brewer Drive,80234,39.8921272,-105.0029065
1523,West 111th Place,80234,39.8993262,-105.0050467
1468,West 111th Avenue,80234,39.8974298,-105.0043258
10984,Manet Way,80234,39.8953841,-104.9990285
10979,Roseanna Drive,80234,39.8957986,-104.9985425
11066,Livingston Drive,80234,39.8968894,-105.0000849
10958,Roseanna Drive,80234,39.8951801,-104.9971322
1183,West 111th Place,80234,39.8993849,-105.0011406
10760,Wanda Lane,80234,39.8916942,-104.9982260
11149,Park Vistas Drive,80234,39.8984599,-105.0059083
1231,Beth Lane,80234,39.8936228,-105.0019947
11132,Osage Street,80234,39.8981454,-105.0044965
11044,Manet Way,80234,39.8965692,-104.9990636
11113,Navajo Street,80234,39.8981286,-105.0041156
1251,Beth Lane,80234,39.8937160,-105.0022464
10728,Roseanna Drive,80234,39.8908328,-104.9989174
1364,West 111th Place,80234,39.8989779,-105.0032147
1395,Claire Lane,80234,39.8969717,-105.0038022
11148,Osage Street,80234,39.8986489,-105.0044258
1362,Beth Lane,80234,39.8937518,-105.0034822
10849,Brewer Drive,80234,39.8933634,-105.0047208
11110,Park Vistas Drive,80234,39.8975523,-105.0053760
11043,Claire Circle,80234,39.8959621,-105.0032969
11103,Navajo Street,80234,39.8979433,-105.0041480
1350,Claire Lane,80234,39.8965582,-105.0034405
10820,Wanda Lane,80234,39.8925680,-104.9989987
921,Kennedy Drive,80234,39.8933627,-104.9977611
11105,Osage Street,80234,39.8976485,-105.0050133
1535,Claire Lane,80234,39.8965554,-105.0050160
1005,Claire Lane,80234,39.8971313,-104.9991342
10738,Brewer Drive,80234,39.8912395,-105.0023752
1341,Beth Lane,80234,39.8941494,-105.0032808
11154,Navajo Street,80234,39.8988064,-105.0035211
11144,Navajo Street,80234,39.8986285,-105.0035118
11106,Livingston Drive,80234,39.8981734,-105.0000419
10785,Kalamath Street,80234,39.8923640,-105.0008038
10736,Livingston Drive,80234,39.8912406,-105.0012555
1344,West 111th Place,80234,39.8989612,-105.0028008
1265,Claire Lane,80234,39.8972835,-105.0026793
11032,Claire Circle,80234,39.8955589,-105.0034873
10901,Claire Lane,80234,39.8945207,-105.0057298
10788,Roseanna Drive,80234,39.8920310,-104.9971379
10798,Roseanna Drive,80234,39.8922537,-104.9971552
10824,Brewer Drive,80234,39.8930893,-105.0030086
10878,Roseanna Drive,80234,39.8936750,-104.9971180
10761,Wanda Lane,80234,39.8917334,-104.9987091
900,Claire Lane,80234,39.8961929,-104.9979218
11161,Osage Street,80234,39.8989722,-105.0049188
11119,Park Vistas Drive,80234,39.8976122,-105.0059318
10829,Roseanna Drive,80234,39.8929133,-104.9976693
10779,Roseanna Drive,80234,39.8918352,-104.9976721
1081,Kennedy Drive,80234,39.8937613,-104.9999936
1223,West 111th Avenue,80234,39.8993697,-105.0017870
10814,Brewer Drive,80234,39.8927655,-105.0026161
10759,Brewer Drive,80234,39.8916711,-105.0028894
10748,Roseanna Drive,80234,39.8910001,-104.9976821
1284,West 111th Place,80234,39.8989568,-105.0023868
1075,Claire Lane,80234,39.8973437,-104.9999272
885,Claire Lane,80234,39.8966234,-104.9976025
1125,Claire Lane,80234,39.8975887,-105.0009220
1498,West 111th Avenue,80234,39.8973078,-105.0047196
1337,West 111th Avenue,80234,39.8986054,-105.0030917
1247,West 111th Avenue,80234,39.8985623,-105.0017928
10823,Santa Fe Street,80234,39.8931207,-104.9996517
10777,Livingston Drive,80234,39.8921717,-105.0018828
11072,Claire Circle,80234,39.8962600,-105.0022344
1430,Kennedy Drive,80234,39.8949356,-105.0043364
11012,Claire Circle,80234,39.8958010,-105.0043260
10926,Livingston Drive,80234,39.8943754,-105.0005465
1108,West 111th Avenue,80234,39.8981646,-105.0004110
11133,Navajo Street,80234,39.8984638,-105.0040653
1327,West 111th Avenue,80234,39.8986415,-105.0028387
10828,Brewer Drive,80234,39.8932365,-105.0032259
1268,West 111th Avenue,80234,39.8981261,-105.0019116
10864,Brewer Drive,80234,39.8937605,-105.0051797
10871,Claire Lane,80234,39.8940733,-105.0057116
11101,Park Vistas Drive,80234,39.8972743,-105.0059498
11142,Osage Street,80234,39.8984745,-105.0044325
981,Kennedy Drive,80234,39.8934054,-104.9989257
10790,Wanda Lane,80234,39.8924141,-104.9984099
10769,Roseanna Drive,80234,39.8915912,-104.9977079
11160,Park Vistas Drive,80234,39.8989696,-105.0052934
10747,Livingston Drive,80234,39.8914649,-105.0018797
10928,Roseanna Drive,80234,39.8945555,-104.9971486
10768,Roseanna Drive,80234,39.8915880,-104.9971434
10949,Roseanna Drive,80234,39.8954103,-104.9977176
10770,Claire Lane,80234,39.8919743,-105.0034277
961,Kennedy Drive,80234,39.8933684,-104.9985525
10814,Kalamath Street,80234,39.8930763,-105.0002188
11176,Livingston Drive,80234,39.8991283,-105.0000111
10764,Kalamath Street,80234,39.8919329,-105.0002751
10756,Livingston Drive,80234,39.8916945,-105.0013274
10724,Roseanna Drive,80234,39.8908330,-104.9992812
10958,Lambert Lane,80234,39.8952285,-105.0011257
10816,Claire Lane,80234,39.8926723,-105.0040844
10751,Claire Lane,80234,39.8917601,-105.0039364
10808,Brewer Drive,80234,39.8925637,-105.0025092
10754,Kalamath Street,80234,39.8917151,-105.0002788
10998,Lambert Lane,80234,39.8958575,-105.0011973
1321,Beth Lane,80234,39.8940632,-105.0030177
1288,West 111th Avenue,80234,39.8981295,-105.0021370
10825,Kalamath Street,80234,39.8932808,-105.0006743
10753,Santa Fe Street,80234,39.8916919,-104.9997549
1401,Beth Lane,80234,39.8944470,-105.0040475
963,Lambert Lane,80234,39.8941853,-104.9985235
945,Claire Lane,80234,39.8968964,-104.9983926
10771,Wanda Lane,80234,39.8919195,-104.9987152
10907,Livingston Drive,80234,39.8943518,-105.0012513
1323,West 111th Place,80234,39.8993706,-105.0028643
11120,Park Vistas Drive,80234,39.8977481,-105.0054028
1328,West 111th Avenue,80234,39.8979585,-105.0027536
10994,Manet Way,80234,39.8956870,-104.9990528
10925,Manet Way,80234,39.8945385,-104.9977484
1558,West 111th Avenue,80234,39.8971253,-105.0053375
10811,Claire Lane,80234,39.8925079,-105.0049220
10956,Livingston Drive,80234,39.8951224,-105.0001210
10718,Roseanna Drive,80234,39.8908062,-104.9995493
1163,West 111th Place,80234,39.8993665,-105.0009268
10987,Livingston Drive,80234,39.8957360,-105.0006901
10881,Claire Lane,80234,39.8942923,-105.0057287
1347,West 111th Avenue,80234,39.8983923,-105.0031708
1341,Kennedy Drive,80234,39.8949576,-105.0029259
10778,Brewer Drive,80234,39.8921054,-105.0023182
1324,West 111th Place,80234,39.8989801,-105.0025926
11151,Osage Street,80234,39.8988110,-105.0049207
1450,Kennedy Drive,80234,39.8949530,-105.0045988
1345,Claire Lane,80234,39.8971202,-105.0034128
1342,Beth Lane,80234,39.8936832,-105.0032005
10838,Brewer Drive,80234,39.8934444,-105.0037551
10999,Lambert Lane,80234,39.8958378,-105.0017404
10790,Claire Lane,80234,39.8924438,-105.0035846
10908,Roseanna Drive,80234,39.8942517,-104.9971562
1204,West 111th Place,80234,39.8989618,-105.0013366
10967,Livingston Drive,80234,39.8953975,-105.0006752
10784,Kalamath Street,80234,39.8923859,-105.0002693
10898,Roseanna Drive,80234,39.8939648,-104.9971544
11009,Lambert Lane,80234,39.8961609,-105.0017902
1123,West 111th Place,80234,39.8993584,-105.0005068
11131,Osage Street,80234,39.8981687,-105.0050200
1488,West 111th Avenue,80234,39.8973841,-105.0045403
11140,Park Vistas Drive,80234,39.8984282,-105.0053787
1358,West 111th Avenue,80234,39.8978186,-105.0031522
1124,West 111th Place,80234,39.8989761,-105.0005091
11164,Navajo Street,80234,39.8989817,-105.0035161
10791,Claire Lane,80234,39.8924355,-105.0046232
11102,Osage Street,80234,39.8978122,-105.0045047
950,Kennedy Drive,80234,39.8929033,-104.9984861
11024,Manet Way,80234,39.8962441,-104.9990539
10757,Livingston Drive,80234,39.8916887,-105.0018621
11004,Manet Way,80234,39.8959752,-104.9990253
10835,Kalamath Street,80234,39.8934960,-105.0006550
10746,Livingston Drive,80234,39.8914691,-105.0013269
11073,Claire Circle,80234,39.8964495,-105.0029041
1381,Beth Lane,80234,39.8943888,-105.0037614
1130,Claire Lane,80234,39.8970744,-105.0009859
11067,Livingston Drive,80234,39.8969970,-105.0006653
10830,Claire Lane,80234,39.8929924,-105.0048745
10845,Brewer Drive,80234,39.8932972,-105.0044297
1421,Kennedy Drive,80234,39.8953044,-105.0040128
10795,Kalamath Street,80234,39.8926250,-105.0007755
11010,Roseanna Drive,80234,39.8964810,-104.9972116
10954,Manet Way,80234,39.8949616,-104.9980707
10773,Santa Fe Street,80234,39.8920899,-104.9997640
1485,Claire Lane,80234,39.8966992,-105.0046137
10949,Lambert Lane,80234,39.8947881,-105.0013713
10808,Roseanna Drive,80234,39.8924885,-104.9971391
10945,Manet Way,80234,39.8945874,-104.9985581
10765,Kalamath Street,80234,39.8919466,-105.0007972
10807,Livingston Drive,80234,39.8926310,-105.0018472
11092,Claire Circle,80234,39.8968823,-105.0024531
11129,Park Vistas Drive,80234,39.8979525,-105.0059273
922,Lambert Lane,80234,39.8937471,-104.9977314
10974,Manet Way,80234,39.8951536,-104.9988458
1267,West 111th Avenue,80234,39.8985470,-105.0020027
10761,Claire Lane,80234,39.8919662,-105.0039923
1321,Kennedy Drive,80234,39.8948288,-105.0026120
1252,Beth Lane,80234,39.8932355,-105.0021621
1402,Beth Lane,80234,39.8940126,-105.0040067
1248,West 111th Avenue,80234,39.8981400,-105.0017049
10831,Claire Lane,80234,39.8931783,-105.0056986
1203,West 111th Place,80234,39.8993639,-105.0013508
1403,West 111th Place,80234,39.8993692,-105.0037322
10760,Claire Lane,80234,39.8917531,-105.0033710
11179,Park Vistas Drive,80234,39.8991507,-105.0058706
10921,Claire Lane,80234,39.8949744,-105.0057259
1300,Claire Lane,80234,39.8967035,-105.0030476
10767,Livingston Drive,80234,39.8919186,-105.0018473
10783,Santa Fe Street,80234,39.8923041,-104.9997669
1400,Claire Lane,80234,39.8964719,-105.0037405
10799,Roseanna Drive,80234,39.8922565,-104.9976902
1128,West 111th Avenue,80234,39.8981986,-105.0006285
10772,Santa Fe Street,80234,39.8921823,-104.9992160
1301,Beth Lane,80234,39.8939438,-105.0027605
10995,Manet Way,80234,39.8957493,-104.9995914
10998,Roseanna Drive,80234,39.8957427,-104.9970986
1363,West 111th Place,80234,39.8993609,-105.0033025
1022,Lambert Lane,80234,39.8939941,-104.9994479
964,Manet Way,80234,39.8950123,-104.9984802
10738,Roseanna Drive,80234,39.8909206,-104.9983072
1243,West 111th Place,80234,39.8993672,-105.0020171
1283,West 111th Place,80234,39.8993612,-105.0024413
10965,Manet Way,80234,39.8948577,-104.9993184
1305,Claire Lane,80234,39.8972131,-105.0029955
1062,Lambert Lane,80234,39.8942725,-105.0001195
10752,Santa Fe Street,80234,39.8917152,-104.9992136
10745,Kalamath Street,80234,39.8914650,-105.0007993
10806,Livingston Drive,80234,39.8928340,-105.0012944
10759,Roseanna Drive,80234,39.8913947,-104.9978746
1298,West 111th Avenue,80234,39.8980826,-105.0023545
11046,Livingston Drive,80234,39.8966064,-105.0000917
11196,Livingston Drive,80234,39.8994606,-105.0000168
11186,Livingston Drive,80234,39.8992985,-105.0000129
11068,Lambert Lane,80234,39.8971128,-105.0014630
942,Lambert Lane,80234,39.8937456,-104.9981461
11047,Livingston Drive,80234,39.8966947,-105.0006820
1287,West 111th Avenue,80234,39.8985179,-105.0022339
10841,Claire Lane,80234,39.8933803,-105.0057720
1388,West 111th Avenue,80234,39.8976885,-105.0035424
1361,Beth Lane,80234,39.8942626,-105.0035438
10978,Roseanna Drive,80234,39.8954285,-104.9971216
11163,Navajo Street,80234,39.8989795,-105.0040230
11130,Park Vistas Drive,80234,39.8980924,-105.0053963
1441,Kennedy Drive,80234,39.8953798,-105.0043510
10737,Livingston Drive,80234,39.8912384,-105.0018601
10735,Kalamath Street,80234,39.8912398,-105.0007973
1368,West 111th Avenue,80234,39.8977522,-105.0033376
1348,West 111th Avenue,80234,39.8978744,-105.0029447
10828,Roseanna Drive,80234,39.8929130,-104.9971427
1121,Kennedy Drive,80234,39.8939185,-105.0003741
1521,Kennedy Drive,80234,39.8954061,-105.0057678
1548,West 111th Avenue,80234,39.8971782,-105.0051248
1168,West 111th Avenue,80234,39.8982166,-105.0010618
11007,Livingston Drive,80234,39.8960519,-105.0006580
1023,Lambert Lane,80234,39.8943919,-104.9992238
975,Claire Lane,80234,39.8969892,-104.9987492
10800,Claire Lane,80234,39.8926142,-105.0037993
1244,West 111th Place,80234,39.8989624,-105.0019646
1211,Beth Lane,80234,39.8935140,-105.0017218
1167,West 111th Avenue,80234,39.8986084,-105.0009409
10744,Kalamath Street,80234,39.8914729,-105.0002837
1461,Beth Lane,80234,39.8945660,-105.0048961
10751,Wanda Lane,80234,39.8914908,-104.9987309
10789,Roseanna Drive,80234,39.8920759,-104.9976638
11042,Claire Circle,80234,39.8954170,-105.0030807
11052,Claire Circle,80234,39.8953164,-105.0023206
10978,Lambert Lane,80234,39.8955600,-105.0011818
10755,Kalamath Street,80234,39.8917075,-105.0007863
11082,Claire Circle,80234,39.8965396,-105.0023308
10826,Livingston Drive,80234,39.8932777,-105.0012377
11150,Park Vistas Drive,80234,39.8988041,-105.0053114
1423,West 111th Place,80234,39.8993620,-105.0039583
10911,Claire Lane,80234,39.8947577,-105.0057407
10835,Brewer Drive,80234,39.8930479,-105.0039305
983,Lambert Lane,80234,39.8942329,-104.9989086
1224,West 111th Place,80234,39.8989592,-105.0017588
1214,West 111th Place,80234,39.8989696,-105.0015452
10778,Roseanna Drive,80234,39.8918194,-104.9971482
11144,Park Vistas Drive,80234,39.8986213,-105.0053152
10861,Claire Lane,80234,39.8938530,-105.0057377
11153,Navajo Street,80234,39.8988145,-105.0040310
1443,West 111th Place,80234,39.8993553,-105.0041600
1357,West 111th Avenue,80234,39.8982486,-105.0030795
10758,Brewer Drive,80234,39.8916762,-105.0023752
1188,West 111th Avenue,80234,39.8981910,-105.0012738
941,Kennedy Drive,80234,39.8933452,-104.9981394
1127,West 111th Avenue,80234,39.8986110,-105.0005111
930,Claire Lane,80234,39.8963134,-104.9982619
1588,West 111th Avenue,80234,39.8970539,-105.0057933
1442,Beth Lane,80234,39.8941220,-105.0045911
1241,Kennedy Drive,80234,39.8944108,-105.0015939
10786,Livingston Drive,80234,39.8923720,-105.0013119
10840,Claire Lane,80234,39.8933804,-105.0051661
10810,Wanda Lane,80234,39.8925271,-104.9986711
1360,Kennedy Drive,80234,39.8947042,-105.0034907
10927,Livingston Drive,80234,39.8945832,-105.0010957
1302,Beth Lane,80234,39.8934554,-105.0026729
11029,Lambert Lane,80234,39.8964401,-105.0017675
1227,West 111th Avenue,80234,39.8985631,-105.0015859
11159,Park Vistas Drive,80234,39.8988219,-105.0058231
1240,Kennedy Drive,80234,39.8940871,-105.0020089
1200,Kennedy Drive,80234,39.8938924,-105.0014968
10858,Roseanna Drive,80234,39.8933669,-104.9971071
10817,Claire Lane,80234,39.8926207,-105.0051680
11125,Osage Street,80234,39.8979942,-105.0050253
1381,Kennedy Drive,80234,39.8952221,-105.0036408
10781,Claire Lane,80234,39.8923202,-105.0043709
10768,Brewer Drive,80234,39.8919071,-105.0023639
11139,Park Vistas Drive,80234,39.8982985,-105.0059356
10769,Brewer Drive,80234,39.8918981,-105.0028938
1045,Claire Lane,80234,39.8972583,-104.9995095
1493,West 111th Place,80234,39.8993662,-105.0048229
11023,Claire Circle,80234,39.8963602,-105.0040442
10739,Brewer Drive,80234,39.8912417,-105.0029138
10788,Brewer Drive,80234,39.8923557,-105.0023880
11156,Livingston Drive,80234,39.8989531,-105.0000465
11152,Osage Street,80234,39.8988216,-105.0044003
1463,West 111th Place,80234,39.8993503,-105.0043804
1470,Kennedy Drive,80234,39.8949681,-105.0048969
11123,Navajo Street,80234,39.8982892,-105.0040946
11069,Lambert Lane,80234,39.8970073,-105.0020314
1235,Claire Lane,80234,39.8974012,-105.0023269
11121,Park Vistas Drive,80234,39.8977830,-105.0059302
10771,Claire Lane,80234,39.8922403,-105.0041489
11141,Osage Street,80234,39.8984850,-105.0049617
10970,Claire Lane,80234,39.8954236,-105.0051610
1320,Kennedy Drive,80234,39.8945059,-105.0030087
1300,Kennedy Drive,80234,39.8943994,-105.0027361
1260,Kennedy Drive,80234,39.8941990,-105.0022465
10935,Manet Way,80234,39.8945202,-104.9981163
1441,Beth Lane,80234,39.8945593,-105.0046244
10836,Claire Lane,80234,39.8931458,-105.0051074
11124,Navajo Street,80234,39.8982689,-105.0035742
1280,Kennedy Drive,80234,39.8942833,-105.0025223
10976,Livingston Drive,80234,39.8954172,-105.0001017
11026,Livingston Drive,80234,39.8963022,-105.0000761
11121,Osage Street,80234,39.8978223,-105.0050338
10829,Brewer Drive,80234,39.8929626,-105.0036621
10749,Brewer Drive,80234,39.8914663,-105.0029137
11136,Livingston Drive,80234,39.8986060,-105.0000447
1568,West 111th Avenue,80234,39.8970240,-105.0055471
10834,Brewer Drive,80234,39.8933253,-105.0034925
970,Kennedy Drive,80234,39.8929332,-104.9988139
1540,Claire Lane,80234,39.8959772,-105.0048845
10799,Brewer Drive,80234,39.8925347,-105.0030996
11134,Park Vistas Drive,80234,39.8982585,-105.0053870
1272,Beth Lane,80234,39.8933631,-105.0024396
10955,Manet Way,80234,39.8946776,-104.9989244
10969,Lambert Lane,80234,39.8952591,-105.0017570
11126,Livingston Drive,80234,39.8984348,-104.9999490
11062,Claire Circle,80234,39.8959706,-105.0022103
11049,Lambert Lane,80234,39.8967437,-105.0018918
11109,Park Vistas Drive,80234,39.8974495,-105.0059175
1408,West 111th Avenue,80234,39.8976306,-105.0037471
1021,Kennedy Drive,80234,39.8935055,-104.9992752
1343,West 111th Place,80234,39.8993776,-105.0030853
11044,Claire Circle,80234,39.8953328,-105.0027214
1207,West 111th Avenue,80234,39.8985974,-105.0013770
10996,Livingston Drive,80234,39.8957122,-105.0000961
1382,Beth Lane,80234,39.8938852,-105.0037124
11008,Lambert Lane,80234,39.8961269,-105.0012003
11189,Park Vistas Drive,80234,39.8993542,-105.0057920
11033,Claire Circle,80234,39.8961011,-105.0036568
1322,Beth Lane,80234,39.8935599,-105.0029471
11145,Osage Street,80234,39.8986486,-105.0049415
10750,Claire Lane,80234,39.8915197,-105.0034133
10775,Kalamath Street,80234,39.8921608,-105.0007923
11146,Livingston Drive,80234,39.8987778,-105.0000156
10742,Santa Fe Street,80234,39.8915030,-104.9992278
1481,Beth Lane,80234,39.8945822,-105.0051893
10815,Kalamath Street,80234,39.8930586,-105.0007617
10734,Roseanna Drive,80234,39.8908741,-104.9986467
1165,Claire Lane,80234,39.8975906,-105.0014732
1010,Kennedy Drive,80234,39.8929950,-104.9991688
11015,Claire Lane,80234,39.8958825,-105.0057043
11053,Claire Circle,80234,39.8958957,-105.0028968
10734,Kalamath Street,80234,39.8912211,-105.0002317
10818,Roseanna Drive,80234,39.8926886,-104.9971337
11124,Park Vistas Drive,80234,39.8979205,-105.0054076
1448,West 111th Avenue,80234,39.8975060,-105.0041448
10824,Kalamath Street,80234,39.8933176,-105.0001142
10744,Roseanna Drive,80234,39.8909454,-104.9980072
10851,Claire Lane,80234,39.8936187,-105.0057331
10830,Wanda Lane,80234,39.8925485,-104.9992409
10947,Livingston Drive,80234,39.8950612,-105.0007849
10813,Santa Fe Street,80234,39.8929189,-104.9997649
1184,West 111th Place,80234,39.8989702,-105.0011283
1144,West 111th Place,80234,39.8989636,-105.0007125
923,Lambert Lane,80234,39.8941301,-104.9977198
1510,Kennedy Drive,80234,39.8949717,-105.0051772
1303,West 111th Place,80234,39.8993408,-105.0026513
1164,West 111th Place,80234,39.8989884,-105.0009287
10948,Roseanna Drive,80234,39.8948441,-104.9971037
11143,Navajo Street,80234,39.8986470,-105.0040450
11063,Claire Circle,80234,39.8961827,-105.0028635
1095,Claire Lane,80234,39.8975066,-105.0005925
10708,Roseanna Drive,80234,39.8908148,-105.0001427
11138,Osage Street,80234,39.8983087,-105.0044630
10766,Livingston Drive,80234,39.8919284,-105.0012837
1147,West 111th Avenue,80234,39.8986250,-105.0007207
11122,Osage Street,80234,39.8979764,-105.0045261
1383,West 111th Place,80234,39.8993402,-105.0035170
1213,West 111th Place,80234,39.8993672,-105.0015619
10750,Wanda Lane,80234,39.8913925,-104.9982125
10848,Brewer Drive,80234,39.8936599,-105.0042770
11048,Lambert Lane,80234,39.8967196,-105.0013231
10793,Santa Fe Street,80234,39.8925180,-104.9997788
11025,Manet Way,80234,39.8963944,-104.9995541
1380,Kennedy Drive,80234,39.8947919,-105.0037777
10714,Roseanna Drive,80234,39.8908266,-104.9998829
10959,Lambert Lane,80234,39.8949533,-105.0017120
1187,West 111th Avenue,80234,39.8986157,-105.0011577
10780,Claire Lane,80234,39.8921808,-105.0034468
1271,Beth Lane,80234,39.8938224,-105.0024965
1264,West 111th Place,80234,39.8989550,-105.0021796
1195,Claire Lane,80234,39.8975614,-105.0018788
10805,Kalamath Street,80234,39.8928639,-105.0008644
10743,Santa Fe Street,80234,39.8914662,-104.9997557
10827,Livingston Drive,80234,39.8931205,-105.0018125
10854,Brewer Drive,80234,39.8937533,-105.0045748
10741,Claire Lane,80234,39.8914891,-105.0040020
1317,West 111th Avenue,80234,39.8985802,-105.0025751
10699,Upton Street,80234,39.8906897,-105.0105414
10488,Quivas Street,80234,39.8867992,-105.0073298
10549,Quivas Street,80234,39.8873640,-105.0084973
10539,Quivas Street,80234,39.8871812,-105.0083262
1703,Ura Lane,80234,39.8906221,-105.0073095
10701,Pecos Street,80234,39.8917403,-105.0085691
10534,Carmela Lane,80234,39.8878996,-105.0051754
10478,Ronald Lane,80234,39.8869761,-105.0020359
10542,Santa Fe Street,80234,39.8877432,-104.9985875
1589,Roseanna Drive,80234,39.8924061,-105.0053672
1591,Roseanna Drive,80234,39.8925531,-105.0057462
10424,Carmela Lane,80234,39.8860907,-105.0051122
850,Naiad Drive,80234,39.8872283,-104.9975763
1740,West 104th Place,80234,39.8856551,-105.0077578
10732,Sperry Street,80234,39.8912078,-105.0118230
10511,Inca Street,80234,39.8873393,-104.9983500
1200,West 104th Place,80234,39.8856563,-105.0015630
10701,Pecos Street,80234,39.8919061,-105.0076224
1780,West 104th Place,80234,39.8856026,-105.0083589
1220,West 104th Place,80234,39.8856514,-105.0018780
10532,Santa Fe Street,80234,39.8875632,-104.9987529
10421,Inca Street,80234,39.8857929,-104.9985746
1470,West 104th Place,80234,39.8856466,-105.0047884
10450,Inca Street,80234,39.8864420,-104.9980637
10701,Pecos Street,80234,39.8919077,-105.0092569
10700,Sully Way,80234,39.8907753,-105.0109152
10467,Pompey Way,80234,39.8863617,-105.0067697
10416,Pompey Way,80234,39.8856555,-105.0069245
1430,West 104th Place,80234,39.8856425,-105.0041876
10435,Carmela Lane,80234,39.8861514,-105.0057023
10662,Sperry Street,80234,39.8900086,-105.0119316
10671,Sully Way,80234,39.8903237,-105.0114367
10701,Pecos Street,80234,39.8920596,-105.0090094
1781,West 104th Place,80234,39.8860383,-105.0083939
10701,Pecos Street,80234,39.8921370,-105.0068488
10443,Santa Fe Street,80234,39.8863264,-104.9995681
10434,Kalamath Street,80234,39.8860840,-105.0000167
10432,Brewer Drive,80234,39.8860529,-105.0041224
10436,Pompey Way,80234,39.8857031,-105.0063109
10456,Pompey Way,80234,39.8861754,-105.0062688
10410,Inca Street,80234,39.8855936,-104.9980501
1320,West 104th Place,80234,39.8856361,-105.0030689
1763,Ura Lane,80234,39.8910482,-105.0080193
1783,Ura Lane,80234,39.8910367,-105.0083513
10709,Upton Street,80234,39.8908826,-105.0104330
10683,Brewer Drive,80234,39.8908088,-105.0029514
10426,Pompey Way,80234,39.8856081,-105.0065685
10701,Pecos Street,80234,39.8914061,-105.0070477
10446,Pompey Way,80234,39.8859233,-105.0061956
10701,Pecos Street,80234,39.8919054,-105.0099597
10459,Quivas Street,80234,39.8864202,-105.0084280
10435,Kalamath Street,80234,39.8860277,-105.0005560
10701,Pecos Street,80234,39.8919462,-105.0070446
870,Naiad Drive,80234,39.8873287,-104.9977906
10679,Upton Street,80234,39.8901841,-105.0105122
1943,Ura Lane,80234,39.8912464,-105.0101025
10701,Pecos Street,80234,39.8922477,-105.0096109
10450,Romblon Way,80234,39.8860253,-105.0090177
10449,Quivas Street,80234,39.8863819,-105.0081237
10510,Inca Street,80234,39.8870407,-104.9979915
10542,Sperry Street,80234,39.8878783,-105.0102768
10552,Sperry Street,80234,39.8880799,-105.0104180
10701,Pecos Street,80234,39.8918657,-105.0096077
10441,Romblon Way,80234,39.8860142,-105.0095107
1743,Ura Lane,80234,39.8908751,-105.0077661
10701,Pecos Street,80234,39.8919567,-105.0084231
1760,West 104th Place,80234,39.8856361,-105.0080430
10439,Ronald Lane,80234,39.8860565,-105.0025773
10433,Brewer Drive,80234,39.8860381,-105.0046478
1470,Roseanna Drive,80234,39.8918021,-105.0044680
10442,Brewer Drive,80234,39.8862707,-105.0041140
10721,Sully Way,80234,39.8910827,-105.0114056
10430,Inca Street,80234,39.8859956,-104.9980565
10692,Brewer Drive,80234,39.8908237,-105.0023753
1883,Ura Lane,80234,39.8911033,-105.0095348
10701,Pecos Street,80234,39.8921797,-105.0077828
10682,Sperry Street,80234,39.8905311,-105.0118824
10441,Inca Street,80234,39.8862292,-104.9985772
10444,Kalamath Street,80234,39.8863224,-105.0000464
1940,West 104th Place,80234,39.8856289,-105.0100942
10689,Upton Street,80234,39.8904243,-105.0104650
10708,Upton Street,80234,39.8907974,-105.0099306
10670,Sully Way,80234,39.8903224,-105.0109111
10420,Inca Street,80234,39.8857969,-104.9980596
10482,Sperry Street,80234,39.8869356,-105.0100149
1923,Ura Lane,80234,39.8911619,-105.0098145
810,Naiad Drive,80234,39.8870074,-104.9970210
10541,Romblon Way,80234,39.8881046,-105.0098223
10690,Utrillo Lane,80234,39.8906280,-105.0090085
10471,Inca Street,80234,39.8869030,-104.9985631
10451,Romblon Way,80234,39.8862371,-105.0095436
1501,Roseanna Drive,80234,39.8922400,-105.0050782
10681,Livingston Drive,80234,39.8905931,-105.0018759
10650,Sully Way,80234,39.8898857,-105.0111207
10457,Lipan Street,80234,39.8865858,-105.0015730
10431,Livingston Drive,80234,39.8860286,-105.0035932
1510,West 104th Place,80234,39.8856263,-105.0051011
10712,Sperry Street,80234,39.8907547,-105.0119167
1264,Roseanna Drive,80234,39.8907494,-105.0033027
10425,Carmela Lane,80234,39.8858876,-105.0056714
10458,Quivas Street,80234,39.8860776,-105.0071583
10701,Sully Way,80234,39.8908305,-105.0114166
10701,Pecos Street,80234,39.8922051,-105.0099612
1821,West 104th Place,80234,39.8860574,-105.0086869
1960,West 104th Place,80234,39.8856150,-105.0104037
1741,West 104th Place,80234,39.8860294,-105.0077838
10426,Lipan Street,80234,39.8857910,-105.0012741
10682,Brewer Drive,80234,39.8905993,-105.0023945
10522,Sperry Street,80234,39.8874057,-105.0100576
1782,Ura Lane,80234,39.8906281,-105.0083319
10445,Carmela Lane,80234,39.8863946,-105.0057436
1450,West 104th Place,80234,39.8856505,-105.0044762
10701,Pecos Street,80234,39.8916753,-105.0066024
10461,Inca Street,80234,39.8866823,-104.9985615
10452,Sperry Street,80234,39.8862506,-105.0099545
10600,Utrillo Lane,80234,39.8887592,-105.0097909
10701,Pecos Street,80234,39.8916839,-105.0082625
10470,Inca Street,80234,39.8868083,-104.9980602
10451,Inca Street,80234,39.8864472,-104.9985915
10680,Sully Way,80234,39.8905490,-105.0109667
1840,West 104th Place,80234,39.8856320,-105.0089020
10455,Kalamath Street,80234,39.8864929,-105.0005681
10639,Upton Street,80234,39.8892566,-105.0102175
10691,Utrillo Lane,80234,39.8906948,-105.0095095
10522,Santa Fe Street,80234,39.8873605,-104.9988863
2043,Ura Lane,80234,39.8915156,-105.0112186
10472,Sperry Street,80234,39.8866950,-105.0099849
10701,Pecos Street,80234,39.8917573,-105.0079207
10446,Lipan Street,80234,39.8862553,-105.0010731
10453,Santa Fe Street,80234,39.8865362,-104.9995809
10701,Pecos Street,80234,39.8912137,-105.0068518
10461,Romblon Way,80234,39.8864741,-105.0095179
1723,Ura Lane,80234,39.8907370,-105.0075373
10440,Livingston Drive,80234,39.8862645,-105.0030475
1240,West 104th Place,80234,39.8856484,-105.0021761
10434,Carmela Lane,80234,39.8863063,-105.0052156
1823,Ura Lane,80234,39.8910387,-105.0086208
10659,Upton Street,80234,39.8897440,-105.0104920
2023,Ura Lane,80234,39.8914327,-105.0109301
10430,Livingston Drive,80234,39.8860292,-105.0030801
1820,West 104th Place,80234,39.8856411,-105.0086338
10701,Pecos Street,80234,39.8921215,-105.0074760
2083,Ura Lane,80234,39.8915992,-105.0117944
10532,Sperry Street,80234,39.8876387,-105.0101685
10701,Pecos Street,80234,39.8914055,-105.0066573
10701,Pecos Street,80234,39.8922080,-105.0092596
10462,Sperry Street,80234,39.8864671,-105.0099387
2063,Ura Lane,80234,39.8915311,-105.0115107
10450,Livingston Drive,80234,39.8864933,-105.0030636
10701,Pecos Street,80234,39.8921060,-105.0081245
10437,Lipan Street,80234,39.8860751,-105.0016500
10722,Sperry Street,80234,39.8909787,-105.0118222
10443,Brewer Drive,80234,39.8862694,-105.0046498
10658,Upton Street,80234,39.8898377,-105.0099761
10419,Quivas Street,80234,39.8862503,-105.0077283
1260,West 104th Place,80234,39.8856727,-105.0024810
10462,Santa Fe Street,80234,39.8866658,-104.9990365
10681,Sully Way,80234,39.8905887,-105.0114255
10629,Upton Street,80234,39.8890790,-105.0100571
10448,Ronald Lane,80234,39.8862673,-105.0020718
10412,Santa Fe Street,80234,39.8856691,-104.9995915
1274,Roseanna Drive,80234,39.8908700,-105.0034683
10553,Santa Fe Street,80234,39.8879831,-104.9990261
10521,Inca Street,80234,39.8875522,-104.9981810
10661,Sully Way,80234,39.8901215,-105.0115761
10512,Sperry Street,80234,39.8871518,-105.0100381
10442,Sperry Street,80234,39.8860290,-105.0099836
830,Naiad Drive,80234,39.8871141,-104.9973509
1880,West 104th Place,80234,39.8856309,-105.0095112
1370,West 104th Place,80234,39.8856678,-105.0036123
10436,Lipan Street,80234,39.8860098,-105.0010575
10620,Sully Way,80234,39.8895738,-105.0118629
10449,Ronald Lane,80234,39.8862715,-105.0025444
10440,Inca Street,80234,39.8862358,-104.9980436
10668,Upton Street,80234,39.8900716,-105.0099875
10452,Brewer Drive,80234,39.8864887,-105.0041403
10720,Sully Way,80234,39.8910030,-105.0108239
10562,Sperry Street,80234,39.8882818,-105.0105654
10444,Carmela Lane,80234,39.8865263,-105.0052208
1410,West 104th Place,80234,39.8856670,-105.0039146
10678,Upton Street,80234,39.8902958,-105.0099405
1762,Ura Lane,80234,39.8905413,-105.0080671
10630,Sully Way,80234,39.8895913,-105.0115814
1822,Ura Lane,80234,39.8906405,-105.0086414
10457,Pompey Way,80234,39.8860727,-105.0067669
10472,Santa Fe Street,80234,39.8869060,-104.9990382
10438,Ronald Lane,80234,39.8860266,-105.0020729
10501,Inca Street,80234,39.8871353,-104.9984655
10672,Sperry Street,80234,39.8902886,-105.0119308
1480,Roseanna Drive,80234,39.8919743,-105.0047854
10673,Brewer Drive,80234,39.8906193,-105.0028924
10433,Santa Fe Street,80234,39.8860813,-104.9995998
10405,Kalamath Street,80234,39.8856620,-104.9998801
10451,Livingston Drive,80234,39.8864909,-105.0036085
1761,West 104th Place,80234,39.8860445,-105.0081024
10580,Utrillo Lane,80234,39.8885981,-105.0099699
10454,Kalamath Street,80234,39.8865502,-105.0000591
10691,Livingston Drive,80234,39.8908280,-105.0018805
10432,Santa Fe Street,80234,39.8859344,-104.9990885
10452,Santa Fe Street,80234,39.8864602,-104.9990699
10701,Pecos Street,80234,39.8916764,-105.0070999
10470,Romblon Way,80234,39.8864957,-105.0089919
10466,Pompey Way,80234,39.8864120,-105.0062465
1843,Ura Lane,80234,39.8910339,-105.0089147
10458,Ronald Lane,80234,39.8864851,-105.0020130
10447,Lipan Street,80234,39.8863368,-105.0015766
10468,Quivas Street,80234,39.8863039,-105.0072071
1863,Ura Lane,80234,39.8910673,-105.0092470
10640,Sully Way,80234,39.8897437,-105.0113487
10701,Pecos Street,80234,39.8920530,-105.0102088
10649,Upton Street,80234,39.8895142,-105.0103375
1300,West 104th Place,80234,39.8856564,-105.0027912
10445,Kalamath Street,80234,39.8862503,-105.0005642
10478,Quivas Street,80234,39.8865550,-105.0072269
10701,Pecos Street,80234,39.8919451,-105.0066544
10460,Romblon Way,80234,39.8862983,-105.0090400
10459,Ronald Lane,80234,39.8864924,-105.0025538
10512,Santa Fe Street,80234,39.8871271,-104.9990157
10411,Inca Street,80234,39.8855780,-104.9985559
10429,Quivas Street,80234,39.8864559,-105.0077261
1983,Ura Lane,80234,39.8913679,-105.0106636
10422,Santa Fe Street,80234,39.8857556,-104.9992740
10456,Lipan Street,80234,39.8865095,-105.0010561
10688,Upton Street,80234,39.8905276,-105.0099472
1860,West 104th Place,80234,39.8856539,-105.0092292
10453,Brewer Drive,80234,39.8865253,-105.0046362
10441,Livingston Drive,80234,39.8862591,-105.0036215
10431,Inca Street,80234,39.8860035,-104.9985662
10570,Utrillo Lane,80234,39.8884855,-105.0102626
10648,Upton Street,80234,39.8895755,-105.0098262
10669,Upton Street,80234,39.8899663,-105.0104848
10425,Kalamath Street,80234,39.8858190,-105.0004423
10442,Santa Fe Street,80234,39.8862065,-104.9990583
10406,Pompey Way,80234,39.8856465,-105.0071697
10660,Sully Way,80234,39.8900798,-105.0109509
1963,Ura Lane,80234,39.8913196,-105.0103560
1920,West 104th Place,80234,39.8856063,-105.0098166
1530,West 104th Place,80234,39.8857098,-105.0054481
10415,Kalamath Street,80234,39.8856640,-105.0001672
10503,Brewer Drive,80234,39.8872668,-105.0046036
10631,Utrillo Lane,80234,39.8893206,-105.0095848
10650,Utrillo Lane,80234,39.8896374,-105.0088626
10515,Carmela Lane,80234,39.8875711,-105.0057300
10489,Quivas Street,80234,39.8870292,-105.0081826
10669,Quivas Street,80234,39.8898661,-105.0075035
10641,Utrillo Lane,80234,39.8895051,-105.0093731
10562,Brewer Drive,80234,39.8885183,-105.0037785
10620,Utrillo Lane,80234,39.8890039,-105.0092806
10561,Livingston Drive,80234,39.8883702,-105.0033041
10467,Lipan Street,80234,39.8868235,-105.0015707
10672,Brewer Drive,80234,39.8903654,-105.0024720
10633,Brewer Drive,80234,39.8897351,-105.0036003
10534,Kalamath Street,80234,39.8876118,-104.9998545
1520,West 106th Avenue,80234,39.8887819,-105.0051902
10479,Ronald Lane,80234,39.8869554,-105.0026082
1500,West 106th Avenue,80234,39.8888340,-105.0048842
10455,Carmela Lane,80234,39.8866302,-105.0057131
10559,Quivas Street,80234,39.8875742,-105.0086029
10663,Brewer Drive,80234,39.8903008,-105.0030905
10610,Utrillo Lane,80234,39.8888475,-105.0094766
10501,Livingston Drive,80234,39.8871980,-105.0035893
10513,Santa Fe Street,80234,39.8872110,-104.9995313
10567,Lipan Street,80234,39.8884758,-105.0009726
10653,Brewer Drive,80234,39.8901062,-105.0032683
1722,Ura Lane,80234,39.8899717,-105.0080541
10531,Romblon Way,80234,39.8878617,-105.0097277
10681,Utrillo Lane,80234,39.8904344,-105.0095241
10514,Carmela Lane,80234,39.8876288,-105.0051972
10548,Ronald Lane,80234,39.8880712,-105.0017635
10521,Romblon Way,80234,39.8876351,-105.0096913
1702,Ura Lane,80234,39.8902649,-105.0075894
10465,Kalamath Street,80234,39.8866987,-105.0005584
10516,Lipan Street,80234,39.8871712,-105.0010298
10559,Ronald Lane,80234,39.8882764,-105.0022279
10486,Pompey Way,80234,39.8868851,-105.0062854
10659,Quivas Street,80234,39.8897171,-105.0077264
10641,Livingston Drive,80234,39.8896993,-105.0023623
10464,Carmela Lane,80234,39.8869618,-105.0052194
10539,Ronald Lane,80234,39.8878489,-105.0023644
10579,Quivas Street,80234,39.8880430,-105.0086917
10575,Kalamath Street,80234,39.8883625,-104.9999392
10589,Ronald Lane,80234,39.8888982,-105.0018249
10462,Brewer Drive,80234,39.8866848,-105.0041541
10555,Kalamath Street,80234,39.8879957,-105.0002054
10505,Carmela Lane,80234,39.8873430,-105.0057115
10619,Quivas Street,80234,39.8890623,-105.0085802
10640,Utrillo Lane,80234,39.8893978,-105.0089129
10540,Livingston Drive,80234,39.8880485,-105.0028339
10511,Livingston Drive,80234,39.8874258,-105.0035728
10555,Carmela Lane,80234,39.8883601,-105.0050524
10526,Lipan Street,80234,39.8874043,-105.0009623
1461,West 106th Avenue,80234,39.8891773,-105.0045505
10512,Brewer Drive,80234,39.8873705,-105.0040862
1752,Ura Lane,80234,39.8903390,-105.0084935
10536,Lipan Street,80234,39.8876625,-105.0008533
10569,Ronald Lane,80234,39.8884865,-105.0020947
1663,Ura Lane,80234,39.8903414,-105.0069091
10529,Ronald Lane,80234,39.8876257,-105.0024732
10468,Ronald Lane,80234,39.8867168,-105.0020482
10471,Livingston Drive,80234,39.8869732,-105.0036124
1660,West 106th Avenue,80234,39.8890461,-105.0074286
10525,Kalamath Street,80234,39.8873670,-105.0004789
1551,West 106th Avenue,80234,39.8892422,-105.0053449
10461,Livingston Drive,80234,39.8867387,-105.0035957
10508,Ronald Lane,80234,39.8871638,-105.0020433
10578,Ronald Lane,80234,39.8886824,-105.0013790
10629,Quivas Street,80234,39.8892488,-105.0083981
10506,Pompey Way,80234,39.8871004,-105.0063744
10680,Utrillo Lane,80234,39.8903618,-105.0090466
10540,Romblon Way,80234,39.8875275,-105.0091373
10537,Lipan Street,80234,39.8877950,-105.0013754
10588,Ronald Lane,80234,39.8888747,-105.0012163
10560,Livingston Drive,80234,39.8884796,-105.0026519
10580,Livingston Drive,80234,39.8888913,-105.0023969
10565,Carmela Lane,80234,39.8883151,-105.0047068
10545,Carmela Lane,80234,39.8883068,-105.0054033
10623,Brewer Drive,80234,39.8895089,-105.0037634
10473,Brewer Drive,80234,39.8870098,-105.0046511
10581,Romblon Way,80234,39.8887066,-105.0089811
10630,Utrillo Lane,80234,39.8891605,-105.0089986
10546,Lipan Street,80234,39.8878619,-105.0008025
10530,Livingston Drive,80234,39.8878462,-105.0029215
10464,Kalamath Street,80234,39.8867647,-105.0000251
10527,Lipan Street,80234,39.8875611,-105.0014226
10671,Livingston Drive,80234,39.8903661,-105.0019153
10631,Livingston Drive,80234,39.8895551,-105.0025438
10541,Livingston Drive,80234,39.8881285,-105.0033587
10520,Livingston Drive,80234,39.8876252,-105.0029421
10517,Lipan Street,80234,39.8873198,-105.0015347
10480,Romblon Way,80234,39.8867470,-105.0090175
10506,Lipan Street,80234,39.8869612,-105.0010443
10612,Brewer Drive,80234,39.8890846,-105.0034542
10621,Livingston Drive,80234,39.8893329,-105.0026694
10569,Quivas Street,80234,39.8877889,-105.0086568
10670,Utrillo Lane,80234,39.8901376,-105.0090069
10538,Ronald Lane,80234,39.8878484,-105.0018414
10528,Ronald Lane,80234,39.8876181,-105.0019413
10509,Ronald Lane,80234,39.8871661,-105.0025325
10652,Brewer Drive,80234,39.8899313,-105.0028128
1540,West 106th Avenue,80234,39.8887075,-105.0055308
1680,West 106th Avenue,80234,39.8892503,-105.0076062
10471,Romblon Way,80234,39.8867086,-105.0095049
10566,Lipan Street,80234,39.8882790,-105.0005101
10500,Livingston Drive,80234,39.8871732,-105.0030322
10469,Quivas Street,80234,39.8866126,-105.0086174
10609,Quivas Street,80234,39.8888595,-105.0086953
10481,Romblon Way,80234,39.8869471,-105.0095449
10535,Kalamath Street,80234,39.8875826,-105.0004176
10611,Livingston Drive,80234,39.8891348,-105.0028207
10570,Romblon Way,80234,39.8882095,-105.0090335
10547,Lipan Street,80234,39.8880422,-105.0012507
10557,Lipan Street,80234,39.8882536,-105.0011286
10568,Ronald Lane,80234,39.8884796,-105.0015373
1742,Ura Lane,80234,39.8901259,-105.0085488
10544,Kalamath Street,80234,39.8878380,-104.9997166
10576,Lipan Street,80234,39.8885292,-105.0003765
10601,Livingston Drive,80234,39.8889264,-105.0029638
10463,Santa Fe Street,80234,39.8867743,-104.9995504
1460,West 106th Avenue,80234,39.8887381,-105.0045109
1683,Ura Lane,80234,39.8904526,-105.0071176
10479,Quivas Street,80234,39.8868439,-105.0084862
10560,Romblon Way,80234,39.8880343,-105.0092926
10551,Romblon Way,80234,39.8883255,-105.0096817
10577,Lipan Street,80234,39.8887016,-105.0008426
10642,Brewer Drive,80234,39.8897214,-105.0030005
10522,Brewer Drive,80234,39.8876034,-105.0039746
1605,West 106th Avenue,80234,39.8892490,-105.0060744
10632,Brewer Drive,80234,39.8895347,-105.0031508
10679,Quivas Street,80234,39.8900368,-105.0073020
1732,Ura Lane,80234,39.8899645,-105.0083714
10532,Brewer Drive,80234,39.8878074,-105.0039708
10473,Santa Fe Street,80234,39.8869745,-104.9995448
10513,Brewer Drive,80234,39.8875259,-105.0045819
10543,Santa Fe Street,80234,39.8877899,-104.9991589
1421,West 106th Avenue,80234,39.8890023,-105.0040292
10474,Carmela Lane,80234,39.8871943,-105.0051562
10651,Utrillo Lane,80234,39.8897524,-105.0094325
10552,Brewer Drive,80234,39.8882452,-105.0038670
10558,Ronald Lane,80234,39.8882733,-105.0015895
10570,Livingston Drive,80234,39.8886854,-105.0025137
10466,Lipan Street,80234,39.8867073,-105.0010432
10561,Romblon Way,80234,39.8884709,-105.0094522
10517,Pompey Way,80234,39.8870433,-105.0070023
10649,Quivas Street,80234,39.8896040,-105.0079976
10639,Quivas Street,80234,39.8894623,-105.0082144
10519,Ronald Lane,80234,39.8873927,-105.0025146
10511,Romblon Way,80234,39.8874057,-105.0096440
10661,Utrillo Lane,80234,39.8899788,-105.0094605
1441,West 106th Avenue,80234,39.8891039,-105.0042868
10510,Livingston Drive,80234,39.8874129,-105.0030331
10565,Kalamath Street,80234,39.8881768,-105.0000764
1560,West 106th Avenue,80234,39.8886936,-105.0058694
10556,Lipan Street,80234,39.8880894,-105.0006629
10474,Kalamath Street,80234,39.8869947,-104.9999865
10507,Lipan Street,80234,39.8870701,-105.0015669
1481,West 106th Avenue,80234,39.8892366,-105.0048551
1712,Ura Lane,80234,39.8900763,-105.0078248
10533,Santa Fe Street,80234,39.8876196,-104.9993092
10550,Livingston Drive,80234,39.8882701,-105.0027311
10671,Utrillo Lane,80234,39.8902284,-105.0095648
10528,Quivas Street,80234,39.8871996,-105.0076828
10579,Ronald Lane,80234,39.8886870,-105.0019516
10463,Brewer Drive,80234,39.8867509,-105.0046751
10554,Kalamath Street,80234,39.8880171,-104.9996000
10610,Livingston Drive,80234,39.8890728,-105.0022340
10620,Livingston Drive,80234,39.8893014,-105.0020731
10527,Pompey Way,80234,39.8872451,-105.0071378
10613,Brewer Drive,80234,39.8893020,-105.0038727
10525,Carmela Lane,80234,39.8878310,-105.0056935
10545,Kalamath Street,80234,39.8877597,-105.0002961
10476,Pompey Way,80234,39.8866477,-105.0062524
10523,Santa Fe Street,80234,39.8873971,-104.9994222
10465,Carmela Lane,80234,39.8868861,-105.0057206
10564,Kalamath Street,80234,39.8881988,-104.9994628
10514,Kalamath Street,80234,39.8871947,-105.0000053
10662,Brewer Drive,80234,39.8901132,-105.0026644
10487,Pompey Way,80234,39.8868523,-105.0067914
10700,Pecos Street,80234,39.8901077,-105.0053409
10502,Brewer Drive,80234,39.8871417,-105.0041232
10609,Ronald Lane,80234,39.8890694,-105.0016303
10472,Brewer Drive,80234,39.8869171,-105.0041497
10660,Utrillo Lane,80234,39.8898980,-105.0089033
10651,Livingston Drive,80234,39.8899406,-105.0022332
10475,Carmela Lane,80234,39.8870952,-105.0057628
10515,Kalamath Street,80234,39.8871712,-105.0005170
10575,Carmela Lane,80234,39.8882612,-105.0044025
10518,Ronald Lane,80234,39.8874093,-105.0019978
10470,Livingston Drive,80234,39.8869622,-105.0030544
10460,Livingston Drive,80234,39.8867190,-105.0030686
10520,Romblon Way,80234,39.8870009,-105.0090588
10531,Livingston Drive,80234,39.8878900,-105.0034534
1440,West 106th Avenue,80234,39.8886673,-105.0042508
10518,Quivas Street,80234,39.8870265,-105.0075302
10475,Kalamath Street,80234,39.8869147,-105.0005653
10564,Carmela Lane,80234,39.8878356,-105.0045400
10504,Carmela Lane,80234,39.8873961,-105.0052061
10622,Brewer Drive,80234,39.8892879,-105.0032942
10589,Quivas Street,80234,39.8883349,-105.0086820
10581,Livingston Drive,80234,39.8887074,-105.0030984
10501,Romblon Way,80234,39.8871687,-105.0095619
10550,Romblon Way,80234,39.8877938,-105.0091601
10602,Brewer Drive,80234,39.8888850,-105.0035855
10454,Carmela Lane,80234,39.8867496,-105.0052011
10524,Kalamath Street,80234,39.8874236,-104.9999041
10469,Ronald Lane,80234,39.8867185,-105.0025615
10661,Livingston Drive,80234,39.8901225,-105.0020500
10542,Brewer Drive,80234,39.8880410,-105.0039625
10535,Carmela Lane,80234,39.8880788,-105.0056267
10530,Romblon Way,80234,39.8872381,-105.0090759
10549,Ronald Lane,80234,39.8880589,-105.0023063
10439,Quivas Street,80234,39.8866848,-105.0078424
10521,Livingston Drive,80234,39.8876592,-105.0035293
10571,Romblon Way,80234,39.8886157,-105.0092461
10643,Brewer Drive,80234,39.8899306,-105.0034027
10544,Carmela Lane,80234,39.8879265,-105.0048022
10477,Pompey Way,80234,39.8865980,-105.0067390
10521,Wyandot Street,80234,39.8874535,-105.0141140
10566,Pompey Way,80234,39.8886450,-105.0073607
10537,Pompey Way,80234,39.8874380,-105.0073212
10449,Varese Lane,80234,39.8860190,-105.0133556
10479,Varese Lane,80234,39.8866816,-105.0133929
10655,Tancred Street,80234,39.8897939,-105.0133654
10538,Varese Lane,80234,39.8875388,-105.0134721
10734,Tancred Street,80234,39.8910803,-105.0130862
10736,Ura Lane,80234,39.8906615,-105.0137438
10676,Ura Lane,80234,39.8901710,-105.0138238
10575,Tancred Street,80234,39.8881542,-105.0122523
10675,Tancred Street,80234,39.8902454,-105.0133718
2260,West 104th Place,80234,39.8855899,-105.0138855
10766,Ura Lane,80234,39.8912824,-105.0133311
10468,Varese Lane,80234,39.8864816,-105.0128094
10624,Tancred Street,80234,39.8890889,-105.0126542
10638,Varese Lane,80234,39.8892853,-105.0147360
10658,Varese Lane,80234,39.8897239,-105.0148062
10529,Varese Lane,80234,39.8871238,-105.0136943
10458,Varese Lane,80234,39.8862331,-105.0128287
2160,West 104th Place,80234,39.8856083,-105.0126932
10463,Zuni Street,80234,39.8862210,-105.0153251
2182,Ura Lane,80234,39.8915301,-105.0128574
2180,West 104th Place,80234,39.8856164,-105.0129954
10664,Tancred Street,80234,39.8899656,-105.0128919
10668,Varese Lane,80234,39.8899520,-105.0147981
2060,West 104th Place,80234,39.8855830,-105.0115861
10768,Varese Lane,80234,39.8917950,-105.0141622
10528,Varese Lane,80234,39.8874172,-105.0132444
10673,Sperry Street,80234,39.8903081,-105.0123889
10759,Varese Lane,80234,39.8920930,-105.0146312
10685,Tancred Street,80234,39.8905137,-105.0133825
2163,Ura Lane,80234,39.8918646,-105.0126289
10753,Varese Lane,80234,39.8921373,-105.0152074
10522,Zuni Street,80234,39.8870157,-105.0147263
10683,Sperry Street,80234,39.8905489,-105.0123882
10448,Varese Lane,80234,39.8860081,-105.0128376
10559,Varese Lane,80234,39.8876870,-105.0143029
10758,Varese Lane,80234,39.8917164,-105.0144493
10578,Varese Lane,80234,39.8882598,-105.0142330
10656,Ura Lane,80234,39.8897209,-105.0138423
2220,West 104th Place,80234,39.8856208,-105.0132899
10453,Sperry Street,80234,39.8862372,-105.0104573
10778,Varese Lane,80234,39.8917991,-105.0138879
10566,Ura Lane,80234,39.8881294,-105.0127978
10603,Sperry Street,80234,39.8888099,-105.0117144
10713,Sperry Street,80234,39.8907780,-105.0123982
10451,Wyandot Street,80234,39.8860356,-105.0143568
10523,Zuni Street,80234,39.8871829,-105.0152767
10767,Ura Lane,80234,39.8914606,-105.0138666
10686,Ura Lane,80234,39.8903851,-105.0137969
10533,Zuni Street,80234,39.8874062,-105.0151777
10532,Zuni Street,80234,39.8872557,-105.0146965
10515,Tancred Street,80234,39.8871719,-105.0115576
10769,Varese Lane,80234,39.8922164,-105.0140030
10628,Varese Lane,80234,39.8890463,-105.0146674
10649,Varese Lane,80234,39.8893966,-105.0152595
10687,Ura Lane,80234,39.8902984,-105.0143329
2162,Ura Lane,80234,39.8913906,-105.0125574
10472,Zuni Street,80234,39.8865415,-105.0148109
10501,Wyandot Street,80234,39.8869582,-105.0143069
2381,West 105th Place,80234,39.8885641,-105.0153519
10636,Ura Lane,80234,39.8892558,-105.0137972
10646,Ura Lane,80234,39.8894858,-105.0138017
10463,Sperry Street,80234,39.8864775,-105.0105183
10523,Sperry Street,80234,39.8874232,-105.0105808
10615,Tancred Street,80234,39.8888784,-105.0130684
10568,Varese Lane,80234,39.8880535,-105.0140972
10633,Sperry Street,80234,39.8893155,-105.0123512
10453,Zuni Street,80234,39.8859958,-105.0152753
10788,Varese Lane,80234,39.8917685,-105.0135436
10727,Ura Lane,80234,39.8907567,-105.0142376
10665,Tancred Street,80234,39.8900133,-105.0133552
10482,Zuni Street,80234,39.8867532,-105.0148134
10470,Wyandot Street,80234,39.8865172,-105.0137926
10614,Tancred Street,80234,39.8888728,-105.0124813
10564,Tancred Street,80234,39.8882144,-105.0116862
10455,Tancred Street,80234,39.8862486,-105.0114401
2020,West 104th Place,80234,39.8856080,-105.0109806
2380,West 105th Place,80234,39.8881684,-105.0153078
10507,Ura Lane,80234,39.8869330,-105.0124304
10728,Varese Lane,80234,39.8910689,-105.0147837
10597,Ura Lane,80234,39.8883859,-105.0138773
10489,Varese Lane,80234,39.8869380,-105.0134292
10446,Ura Lane,80234,39.8860193,-105.0119216
10625,Tancred Street,80234,39.8890758,-105.0131995
10755,Varese Lane,80234,39.8922137,-105.0149172
10653,Sperry Street,80234,39.8898391,-105.0124618
10480,Wyandot Street,80234,39.8867660,-105.0138358
10616,Ura Lane,80234,39.8888100,-105.0135837
10588,Varese Lane,80234,39.8884394,-105.0144223
10450,Wyandot Street,80234,39.8860192,-105.0137807
10506,Ura Lane,80234,39.8869718,-105.0119371
10669,Varese Lane,80234,39.8898543,-105.0152752
10584,Tancred Street,80234,39.8885409,-105.0120844
10699,Varese Lane,80234,39.8905196,-105.0153098
10527,Ura Lane,80234,39.8873717,-105.0126482
10557,Ura Lane,80234,39.8877185,-105.0130597
10565,Tancred Street,80234,39.8880084,-105.0120731
10567,Ura Lane,80234,39.8878679,-105.0132993
10757,Ura Lane,80234,39.8914120,-105.0141271
10481,Wyandot Street,80234,39.8867391,-105.0143491
10483,Sperry Street,80234,39.8869732,-105.0104667
2143,Ura Lane,80234,39.8917658,-105.0123524
2183,Ura Lane,80234,39.8919293,-105.0129144
10585,Tancred Street,80234,39.8883377,-105.0124808
10535,Tancred Street,80234,39.8876552,-105.0117369
10543,Zuni Street,80234,39.8876486,-105.0150928
10637,Ura Lane,80234,39.8891578,-105.0142951
10667,Ura Lane,80234,39.8898457,-105.0143280
10553,Zuni Street,80234,39.8878234,-105.0148600
10587,Ura Lane,80234,39.8882131,-105.0136189
10517,Ura Lane,80234,39.8871558,-105.0125753
10524,Tancred Street,80234,39.8874148,-105.0110656
10739,Varese Lane,80234,39.8914484,-105.0152345
10526,Ura Lane,80234,39.8874273,-105.0121149
10475,Tancred Street,80234,39.8867123,-105.0114440
10513,Sperry Street,80234,39.8871824,-105.0105825
10577,Ura Lane,80234,39.8880027,-105.0134628
10461,Wyandot Street,80234,39.8862672,-105.0143071
10738,Varese Lane,80234,39.8912867,-105.0147972
10443,Sperry Street,80234,39.8860202,-105.0105230
10634,Tancred Street,80234,39.8893061,-105.0127406
10548,Varese Lane,80234,39.8876971,-105.0136921
10688,Varese Lane,80234,39.8904123,-105.0148025
10454,Tancred Street,80234,39.8862384,-105.0109614
10718,Varese Lane,80234,39.8908492,-105.0148076
10626,Ura Lane,80234,39.8890422,-105.0137137
2123,Ura Lane,80234,39.8916744,-105.0120905
10648,Varese Lane,80234,39.8894866,-105.0147417
10737,Ura Lane,80234,39.8909683,-105.0142154
10714,Tancred Street,80234,39.8906386,-105.0128831
10618,Varese Lane,80234,39.8888418,-105.0146174
10589,Varese Lane,80234,39.8883110,-105.0148559
10679,Varese Lane,80234,39.8900628,-105.0153058
1980,West 104th Place,80234,39.8856444,-105.0107397
10556,Ura Lane,80234,39.8879348,-105.0126616
10456,Ura Lane,80234,39.8862442,-105.0119275
10447,Ura Lane,80234,39.8860076,-105.0124190
10747,Ura Lane,80234,39.8912208,-105.0142812
10514,Tancred Street,80234,39.8871879,-105.0110073
10719,Varese Lane,80234,39.8910164,-105.0153190
10729,Varese Lane,80234,39.8912059,-105.0152755
10547,Ura Lane,80234,39.8875633,-105.0128420
2360,West 104th Place,80234,39.8855836,-105.0150453
10666,Ura Lane,80234,39.8899433,-105.0138149
10684,Tancred Street,80234,39.8904160,-105.0128491
10657,Ura Lane,80234,39.8896216,-105.0143304
2280,West 104th Place,80234,39.8856282,-105.0141757
2320,West 104th Place,80234,39.8855869,-105.0144639
10516,Ura Lane,80234,39.8872118,-105.0120302
10457,Ura Lane,80234,39.8862437,-105.0123801
10776,Ura Lane,80234,39.8914587,-105.0131792
10546,Ura Lane,80234,39.8877849,-105.0124684
10462,Zuni Street,80234,39.8862862,-105.0147679
10765,Varese Lane,80234,39.8921666,-105.0143157
10629,Varese Lane,80234,39.8889521,-105.0151685
2380,West 104th Place,80234,39.8857663,-105.0153311
10473,Zuni Street,80234,39.8864461,-105.0153051
10573,Sperry Street,80234,39.8883634,-105.0112958
10544,Tancred Street,80234,39.8878622,-105.0113566
10576,Ura Lane,80234,39.8882512,-105.0130138
10469,Varese Lane,80234,39.8864740,-105.0133465
10659,Varese Lane,80234,39.8896235,-105.0152883
10511,Wyandot Street,80234,39.8872025,-105.0142296
10473,Sperry Street,80234,39.8867174,-105.0104633
10478,Varese Lane,80234,39.8867054,-105.0128908
10723,Sperry Street,80234,39.8910281,-105.0123562
2080,West 104th Place,80234,39.8856406,-105.0118867
10484,Tancred Street,80234,39.8869416,-105.0109686
10724,Tancred Street,80234,39.8909052,-105.0128912
10476,Ura Lane,80234,39.8867101,-105.0118547
10748,Varese Lane,80234,39.8915254,-105.0146814
10735,Tancred Street,80234,39.8907305,-105.0134207
10444,Tancred Street,80234,39.8860197,-105.0109233
10534,Tancred Street,80234,39.8876640,-105.0111874
10617,Ura Lane,80234,39.8886038,-105.0139687
10459,Varese Lane,80234,39.8862497,-105.0133433
10663,Sperry Street,80234,39.8900829,-105.0124104
10645,Tancred Street,80234,39.8895474,-105.0133627
10678,Varese Lane,80234,39.8901752,-105.0148163
10452,Zuni Street,80234,39.8860500,-105.0147382
10563,Zuni Street,80234,39.8880271,-105.0147065
10647,Ura Lane,80234,39.8894048,-105.0143211
10709,Varese Lane,80234,39.8907562,-105.0152861
10488,Varese Lane,80234,39.8869726,-105.0129194
10466,Ura Lane,80234,39.8864572,-105.0119183
10644,Tancred Street,80234,39.8895001,-105.0128208
10583,Sperry Street,80234,39.8886221,-105.0114938
10533,Sperry Street,80234,39.8876361,-105.0107312
10542,Zuni Street,80234,39.8875247,-105.0145773
10749,Varese Lane,80234,39.8917409,-105.0151317
10751,Varese Lane,80234,39.8919237,-105.0152954
10654,Tancred Street,80234,39.8897317,-105.0128859
2360,West 112th Avenue,80234,39.8991611,-105.0137965
10697,Ura Lane,80234,39.8905340,-105.0143055
10779,Varese Lane,80234,39.8922017,-105.0137002
10477,Ura Lane,80234,39.8866991,-105.0124206
10543,Sperry Street,80234,39.8878719,-105.0108018
10595,Tancred Street,80234,39.8885149,-105.0126832
10605,Tancred Street,80234,39.8886610,-105.0128863
2341,West 105th Place,80234,39.8886752,-105.0151209
2140,West 104th Place,80234,39.8856092,-105.0124102
10623,Sperry Street,80234,39.8891244,-105.0121070
10674,Tancred Street,80234,39.8901829,-105.0128753
10460,Wyandot Street,80234,39.8862708,-105.0138403
10708,Varese Lane,80234,39.8906202,-105.0147989
10789,Varese Lane,80234,39.8921804,-105.0133917
10799,Varese Lane,80234,39.8920229,-105.0131495
10525,Tancred Street,80234,39.8874258,-105.0116050
10627,Ura Lane,80234,39.8889708,-105.0141689
10586,Ura Lane,80234,39.8884310,-105.0132368
10553,Sperry Street,80234,39.8880419,-105.0110169
10505,Tancred Street,80234,39.8869570,-105.0114699
10465,Tancred Street,80234,39.8864764,-105.0114263
10613,Sperry Street,80234,39.8889319,-105.0119441
10445,Tancred Street,80234,39.8860166,-105.0114872
10474,Tancred Street,80234,39.8867099,-105.0109448
10639,Varese Lane,80234,39.8891650,-105.0152778
10558,Varese Lane,80234,39.8878952,-105.0138671
2340,West 104th Place,80234,39.8855889,-105.0147425
10746,Ura Lane,80234,39.8908939,-105.0136785
10483,Zuni Street,80234,39.8866934,-105.0152944
10518,Varese Lane,80234,39.8872137,-105.0130706
10467,Ura Lane,80234,39.8864914,-105.0124436
10596,Ura Lane,80234,39.8886496,-105.0133806
10677,Ura Lane,80234,39.8900729,-105.0143351
10471,Wyandot Street,80234,39.8864918,-105.0143078
10464,Tancred Street,80234,39.8864741,-105.0108935
2240,West 104th Place,80234,39.8856217,-105.0135792
10635,Tancred Street,80234,39.8893182,-105.0133328
10594,Tancred Street,80234,39.8887790,-105.0122190
10643,Sperry Street,80234,39.8896021,-105.0124295
10493,Zuni Street,80234,39.8869155,-105.0153052
10574,Tancred Street,80234,39.8883862,-105.0118991
2040,West 104th Place,80234,39.8856402,-105.0112953
2142,Ura Lane,80234,39.8913575,-105.0122934
10546,Pompey Way,80234,39.8881567,-105.0072157
1640,West 106th Avenue,80234,39.8888999,-105.0071267
10535,Paley Street,80234,39.8876318,-105.0068994
10554,Paley Street,80234,39.8879690,-105.0062588
10567,Pompey Way,80234,39.8880686,-105.0076795
10544,Paley Street,80234,39.8877359,-105.0062759
10575,Paley Street,80234,39.8885292,-105.0067497
10577,Pompey Way,80234,39.8882895,-105.0077352
10586,Pompey Way,80234,39.8887708,-105.0080739
10555,Paley Street,80234,39.8880795,-105.0067447
10534,Paley Street,80234,39.8875256,-105.0063787
10584,Paley Street,80234,39.8886566,-105.0062667
10557,Pompey Way,80234,39.8878385,-105.0076843
10548,Quivas Street,80234,39.8876485,-105.0080930
10516,Pompey Way,80234,39.8873026,-105.0065774
10556,Pompey Way,80234,39.8884171,-105.0072353
10536,Pompey Way,80234,39.8878819,-105.0071645
10565,Paley Street,80234,39.8882968,-105.0067239
10558,Quivas Street,80234,39.8878835,-105.0081596
10545,Paley Street,80234,39.8878306,-105.0067398
10585,Paley Street,80234,39.8887419,-105.0067477
10574,Paley Street,80234,39.8884200,-105.0062324
10538,Quivas Street,80234,39.8874015,-105.0078987
10568,Quivas Street,80234,39.8881435,-105.0081816
10578,Quivas Street,80234,39.8883615,-105.0081708
10628,Quivas Street,80234,39.8890138,-105.0079816
10564,Paley Street,80234,39.8881976,-105.0062665
10547,Pompey Way,80234,39.8876286,-105.0075073
10576,Pompey Way,80234,39.8887564,-105.0076992
522,Melody Drive,80260,39.8738734,-104.9933957
9710,Huron Street,80260,39.8731222,-104.9963310
682,Melody Drive,80260,39.8741768,-104.9953321
762,Melody Drive,80260,39.8741452,-104.9963486
9810,Melody Drive,80260,39.8748427,-104.9888931
10028,Dodge Drive,80260,39.8781975,-104.9924524
9921,Clark Drive,80260,39.8762921,-104.9939373
766,Niver Avenue,80260,39.8764486,-104.9963513
10340,Melody Drive,80260,39.8844208,-104.9929099
10347,Monterey Circle,80260,39.8844691,-104.9961166
303,Melody Drive,80260,39.8738529,-104.9909030
9960,Clark Drive,80260,39.8771441,-104.9920108
302,Brigitte Drive,80260,39.8796290,-104.9893298
742,Melody Drive,80260,39.8741605,-104.9961221
9927,Clark Drive,80260,39.8762992,-104.9936228
462,Melody Drive,80260,39.8737931,-104.9927709
10221,Melody Drive,80260,39.8819082,-104.9926081
9820,Melody Drive,80260,39.8750258,-104.9887715
9750,Fred Drive,80260,39.8732736,-104.9931122
9832,Alamo Drive,80260,39.8750978,-104.9900406
644,West 99th Avenue,80260,39.8752469,-104.9948916
342,Brigitte Drive,80260,39.8795135,-104.9898612
9959,Dodge Drive,80260,39.8770090,-104.9941356
209,Belford Drive,80260,39.8771226,-104.9896580
523,Melody Drive,80260,39.8743516,-104.9933755
747,Niver Avenue,80260,39.8768233,-104.9960371
745,West 99th Avenue,80260,39.8758465,-104.9960543
10251,Melody Drive,80260,39.8825371,-104.9930342
387,Bell Lane,80260,39.8758442,-104.9920003
376,Bell Lane,80260,39.8753591,-104.9918363
9965,Bruce Lane,80260,39.8777225,-104.9910631
307,Bell Lane,80260,39.8762016,-104.9907702
9871,Melody Drive,80260,39.8764196,-104.9892977
409,Belford Drive,80260,39.8790592,-104.9919658
383,Melody Drive,80260,39.8740046,-104.9919831
9754,Fred Drive,80260,39.8733931,-104.9936352
685,West 99th Avenue,80260,39.8757452,-104.9952368
652,Melody Circle,80260,39.8738703,-104.9951097
676,Niver Avenue,80260,39.8769118,-104.9950054
9930,Clark Drive,80260,39.8761174,-104.9931176
10360,Melody Drive,80260,39.8848146,-104.9929450
440,West 100th Place,80260,39.8792385,-104.9927941
9813,Alamo Drive,80260,39.8750355,-104.9909008
9902,Alamo Drive,80260,39.8765170,-104.9898185
10011,Melody Drive,80260,39.8782734,-104.9897712
9950,Melody Drive,80260,39.8772350,-104.9882318
241,Bruce Lane,80260,39.8792708,-104.9887784
9710,Fred Drive,80260,39.8727865,-104.9922132
9882,Alamo Drive,80260,39.8762574,-104.9898264
10030,Melody Drive,80260,39.8788010,-104.9895408
10018,Dodge Drive,80260,39.8779930,-104.9926529
10011,Brigitte Drive,80260,39.8785802,-104.9888566
607,Niver Avenue,80260,39.8777817,-104.9945657
9752,Fred Drive,80260,39.8733098,-104.9933425
9781,Melody Drive,80260,39.8746646,-104.9899017
9914,Bruce Lane,80260,39.8766139,-104.9912100
10021,Melody Drive,80260,39.8784105,-104.9900138
10331,Monterey Circle,80260,39.8840380,-104.9962180
9920,Clark Drive,80260,39.8758468,-104.9936657
524,West 99th Avenue,80260,39.8749916,-104.9935038
424,West 99th Avenue,80260,39.8747228,-104.9924140
9925,Bruce Lane,80260,39.8769232,-104.9915510
9690,Fred Drive,80260,39.8724600,-104.9917079
9842,Alamo Drive,80260,39.8753265,-104.9899251
10060,Brigitte Drive,80260,39.8793974,-104.9882186
622,Melody Drive,80260,39.8739861,-104.9944194
527,Niver Avenue,80260,39.8783868,-104.9941997
10201,Melody Drive,80260,39.8815298,-104.9923008
329,Belford Drive,80260,39.8784063,-104.9912184
9970,Melody Drive,80260,39.8777098,-104.9882027
9841,Melody Drive,80260,39.8757281,-104.9892675
9860,Melody Drive,80260,39.8759615,-104.9886623
727,Niver Avenue,80260,39.8769176,-104.9957602
643,Melody Drive,80260,39.8745766,-104.9948904
10051,Melody Drive,80260,39.8789111,-104.9906424
9900,Melody Drive,80260,39.8769358,-104.9884008
9730,Fred Drive,80260,39.8730547,-104.9926322
9861,Melody Drive,80260,39.8761548,-104.9893147
9951,Melody Drive,80260,39.8773863,-104.9889054
229,Belford Drive,80260,39.8773181,-104.9897881
283,Brigitte Drive,80260,39.8800793,-104.9890327
764,West 99th Avenue,80260,39.8754272,-104.9963257
9910,Clark Drive,80260,39.8759726,-104.9942458
9941,Clark Drive,80260,39.8767939,-104.9929339
536,Niver Avenue,80260,39.8783754,-104.9936298
562,Melody Drive,80260,39.8739376,-104.9939981
10310,Melody Drive,80260,39.8838169,-104.9929156
9811,Melody Drive,80260,39.8750259,-104.9895002
366,Bell Lane,80260,39.8753040,-104.9915319
9934,Bruce Lane,80260,39.8770052,-104.9909200
9771,Melody Drive,80260,39.8744991,-104.9901125
327,Bell Lane,80260,39.8761368,-104.9910067
9950,Clark Drive,80260,39.8767369,-104.9922788
9957,Clark Drive,80260,39.8774183,-104.9923970
10009,Dodge Drive,80260,39.8779157,-104.9932227
9999,Dodge Drive,80260,39.8777209,-104.9933656
268,Belford Drive,80260,39.8773359,-104.9904372
10210,Melody Drive,80260,39.8818533,-104.9918117
10211,Melody Drive,80260,39.8817052,-104.9924511
9969,Dodge Drive,80260,39.8771926,-104.9939335
563,Melody Drive,80260,39.8743802,-104.9939868
684,West 99th Avenue,80260,39.8753692,-104.9954382
10301,Monterey Circle,80260,39.8833800,-104.9962004
10061,Melody Drive,80260,39.8790945,-104.9908602
9976,Clark Drive,80260,39.8777910,-104.9916334
364,West 99th Avenue,80260,39.8743506,-104.9916724
189,Belford Drive,80260,39.8769625,-104.9895297
309,Belford Drive,80260,39.8780940,-104.9907600
460,West 100th Place,80260,39.8790971,-104.9930007
10140,Melody Drive,80260,39.8806374,-104.9912980
346,Bell Lane,80260,39.8753811,-104.9912315
9780,Melody Drive,80260,39.8744557,-104.9892941
9947,Clark Drive,80260,39.8770018,-104.9927431
683,Melody Drive,80260,39.8746625,-104.9954421
10230,Melody Drive,80260,39.8822985,-104.9921276
10091,Melody Drive,80260,39.8796049,-104.9914355
9853,Alamo Drive,80260,39.8758297,-104.9903413
10059,Dodge Drive,80260,39.8789048,-104.9924300
10071,Melody Drive,80260,39.8792489,-104.9910315
724,West 99th Avenue,80260,39.8754117,-104.9957165
464,West 99th Avenue,80260,39.8748529,-104.9929607
663,Melody Drive,80260,39.8746284,-104.9951622
10150,Melody Drive,80260,39.8808583,-104.9913104
9783,Alamo Drive,80260,39.8746809,-104.9913000
349,Belford Drive,80260,39.8786015,-104.9913767
9803,Alamo Drive,80260,39.8748586,-104.9911318
10280,Melody Drive,80260,39.8832362,-104.9927598
10151,Melody Drive,80260,39.8806463,-104.9919623
749,West 100th Avenue,80260,39.8778349,-104.9960375
10240,Melody Drive,80260,39.8824748,-104.9922380
243,Brigitte Drive,80260,39.8800663,-104.9887317
744,West 99th Avenue,80260,39.8754309,-104.9960426
9917,Clark Drive,80260,39.8763831,-104.9941959
322,Melody Drive,80260,39.8732252,-104.9912700
9766,Fred Drive,80260,39.8731236,-104.9952555
10260,Melody Drive,80260,39.8828530,-104.9925204
9870,Melody Drive,80260,39.8761854,-104.9887039
10030,Brigitte Drive,80260,39.8787517,-104.9882244
585,West 99th Avenue,80260,39.8755121,-104.9941487
444,West 99th Avenue,80260,39.8747886,-104.9926665
10250,Melody Drive,80260,39.8826562,-104.9923539
480,West 100th Place,80260,39.8789661,-104.9932084
9770,Fred Drive,80260,39.8729834,-104.9957911
9823,Alamo Drive,80260,39.8751938,-104.9906642
10100,Melody Drive,80260,39.8798885,-104.9908743
9913,Alamo Drive,80260,39.8768798,-104.9901191
361,Bruce Lane,80260,39.8790383,-104.9900013
9936,Clark Drive,80260,39.8762635,-104.9929206
442,Melody Drive,80260,39.8736705,-104.9924889
9956,Clark Drive,80260,39.8769306,-104.9921375
9885,Bruce Lane,80260,39.8763778,-104.9920160
367,Bell Lane,80260,39.8758009,-104.9914434
9977,Clark Drive,80260,39.8782860,-104.9917669
10351,Monterey Circle,80260,39.8846346,-104.9958973
586,Niver Avenue,80260,39.8775179,-104.9941699
10008,Dodge Drive,80260,39.8777567,-104.9927875
9946,Clark Drive,80260,39.8765796,-104.9925276
262,Melody Drive,80260,39.8735683,-104.9904409
9971,Melody Drive,80260,39.8776501,-104.9888615
343,Melody Drive,80260,39.8738022,-104.9914634
623,Melody Drive,80260,39.8745172,-104.9945581
9756,Fred Drive,80260,39.8734086,-104.9939356
556,Niver Avenue,80260,39.8778907,-104.9937626
377,Bell Lane,80260,39.8757472,-104.9917629
10357,Monterey Circle,80260,39.8847486,-104.9955893
9760,Fred Drive,80260,39.8733402,-104.9944916
425,West 99th Avenue,80260,39.8749466,-104.9919024
344,West 99th Avenue,80260,39.8741971,-104.9914591
10029,Dodge Drive,80260,39.8783423,-104.9930056
632,Melody Circle,80260,39.8737682,-104.9945049
319,Belford Drive,80260,39.8782360,-104.9910017
342,Melody Drive,80260,39.8732459,-104.9916338
10220,Melody Drive,80260,39.8820525,-104.9919148
9749,Lou Drive,80260,39.8735308,-104.9920894
9924,Bruce Lane,80260,39.8768258,-104.9910460
383,Brigitte Drive,80260,39.8797963,-104.9904530
9821,Melody Drive,80260,39.8752576,-104.9893669
303,Brigitte Drive,80260,39.8800666,-104.9893178
9966,Clark Drive,80260,39.8773440,-104.9918449
765,West 99th Avenue,80260,39.8758447,-104.9963456
707,Niver Avenue,80260,39.8770678,-104.9954939
9931,Clark Drive,80260,39.8764551,-104.9933674
465,West 99th Avenue,80260,39.8751671,-104.9924227
10200,Melody Drive,80260,39.8816904,-104.9916771
10040,Brigitte Drive,80260,39.8789826,-104.9882382
10021,Brigitte Drive,80260,39.8788157,-104.9888093
689,West 100th Avenue,80260,39.8777059,-104.9951568
706,Niver Avenue,80260,39.8765701,-104.9954228
400,West 104th Avenue,80260,39.8846509,-104.9909235
289,Belford Drive,80260,39.8778145,-104.9903469
9939,Dodge Drive,80260,39.8766666,-104.9945776
9961,Clark Drive,80260,39.8776379,-104.9922550
10080,Brigitte Drive,80260,39.8799494,-104.9883464
10020,Brigitte Drive,80260,39.8785427,-104.9882313
526,Niver Avenue,80260,39.8785973,-104.9936954
9989,Dodge Drive,80260,39.8775118,-104.9935109
10120,Melody Drive,80260,39.8802199,-104.9911472
743,Melody Drive,80260,39.8746643,-104.9960161
282,Melody Drive,80260,39.8733833,-104.9906774
10019,Dodge Drive,80260,39.8781321,-104.9931253
645,West 99th Avenue,80260,39.8756262,-104.9947254
10110,Melody Drive,80260,39.8800332,-104.9910433
10311,Monterey Circle,80260,39.8836244,-104.9962117
9835,Bruce Lane,80260,39.8756194,-104.9929854
9791,Melody Drive,80260,39.8748203,-104.9896960
363,Brigitte Drive,80260,39.8799387,-104.9901933
9916,Clark Drive,80260,39.8759007,-104.9939631
9991,Melody Drive,80260,39.8780108,-104.9892897
484,West 99th Avenue,80260,39.8749157,-104.9932319
9770,Melody Drive,80260,39.8742736,-104.9895667
9958,Dodge Drive,80260,39.8768010,-104.9937106
10241,Melody Drive,80260,39.8823490,-104.9928800
10001,Brigitte Drive,80260,39.8784188,-104.9889272
606,Niver Avenue,80260,39.8773834,-104.9944109
564,West 99th Avenue,80260,39.8750844,-104.9940417
669,West 100th Avenue,80260,39.8775697,-104.9948558
362,Brigitte Drive,80260,39.8794505,-104.9900692
9926,Clark Drive,80260,39.8759132,-104.9933464
624,West 99th Avenue,80260,39.8751795,-104.9945998
343,Brigitte Drive,80260,39.8800040,-104.9899229
10101,Melody Drive,80260,39.8797997,-104.9916244
382,Brigitte Drive,80260,39.8793109,-104.9902721
768,West 100th Avenue,80260,39.8773847,-104.9963441
9768,Fred Drive,80260,39.8730657,-104.9955643
9949,Dodge Drive,80260,39.8768154,-104.9943453
9904,Bruce Lane,80260,39.8764369,-104.9913440
10039,Dodge Drive,80260,39.8785691,-104.9928769
386,Bell Lane,80260,39.8754425,-104.9920910
9915,Bruce Lane,80260,39.8767408,-104.9916739
567,Niver Avenue,80260,39.8779390,-104.9943586
9862,Alamo Drive,80260,39.8758104,-104.9898457
281,Bruce Lane,80260,39.8792685,-104.9891114
9940,Clark Drive,80260,39.8764278,-104.9927416
10121,Melody Drive,80260,39.8801847,-104.9918679
9884,Bruce Lane,80260,39.8762572,-104.9915302
384,West 99th Avenue,80260,39.8744717,-104.9919058
9774,Fred Drive,80260,39.8729324,-104.9963236
9830,Melody Drive,80260,39.8752687,-104.9886939
9883,Alamo Drive,80260,39.8764308,-104.9903556
9739,Lou Drive,80260,39.8733198,-104.9923346
10290,Melody Drive,80260,39.8834301,-104.9928240
9751,Melody Drive,80260,39.8741644,-104.9905013
9873,Alamo Drive,80260,39.8762119,-104.9903288
545,West 99th Avenue,80260,39.8753717,-104.9935642
543,Melody Drive,80260,39.8743801,-104.9936374
423,Melody Drive,80260,39.8741479,-104.9922081
389,Belford Drive,80260,39.8789065,-104.9917236
9980,Melody Drive,80260,39.8779402,-104.9882798
483,Melody Drive,80260,39.8743121,-104.9930827
9988,Dodge Drive,80260,39.8772951,-104.9930897
566,Niver Avenue,80260,39.8777209,-104.9939835
723,Melody Drive,80260,39.8746738,-104.9957363
9761,Melody Drive,80260,39.8743341,-104.9903438
9951,Clark Drive,80260,39.8771799,-104.9925470
445,West 99th Avenue,80260,39.8750723,-104.9921743
10041,Melody Drive,80260,39.8787424,-104.9904500
9730,Huron Street,80260,39.8737224,-104.9962748
9906,Clark Drive,80260,39.8760275,-104.9944977
10049,Dodge Drive,80260,39.8787385,-104.9926597
9905,Bruce Lane,80260,39.8765589,-104.9918424
525,West 99th Avenue,80260,39.8753186,-104.9932719
10141,Melody Drive,80260,39.8804231,-104.9918885
708,West 100th Avenue,80260,39.8774152,-104.9955101
9937,Clark Drive,80260,39.8766248,-104.9931604
625,West 99th Avenue,80260,39.8755704,-104.9944656
369,Belford Drive,80260,39.8787395,-104.9915837
282,Brigitte Drive,80260,39.8796097,-104.9890779
10191,Melody Drive,80260,39.8813208,-104.9921595
9971,Clark Drive,80260,39.8781520,-104.9920024
9845,Bruce Lane,80260,39.8758008,-104.9928381
725,West 99th Avenue,80260,39.8758074,-104.9957811
347,Bell Lane,80260,39.8758952,-104.9912100
288,Belford Drive,80260,39.8774777,-104.9906759
482,Melody Drive,80260,39.8738520,-104.9930675
269,Belford Drive,80260,39.8776503,-104.9901543
10130,Melody Drive,80260,39.8804382,-104.9912736
9980,Clark Drive,80260,39.8780086,-104.9914581
10180,Melody Drive,80260,39.8814967,-104.9915461
10330,Melody Drive,80260,39.8842202,-104.9929286
748,West 100th Avenue,80260,39.8773919,-104.9960611
767,Niver Avenue,80260,39.8768047,-104.9963231
10321,Monterey Circle,80260,39.8838242,-104.9962321
323,Melody Drive,80260,39.8737063,-104.9912077
9762,Alamo Drive,80260,39.8744311,-104.9909423
301,Bruce Lane,80260,39.8792790,-104.9894616
200,West 104th Avenue,80234,39.8847361,-104.9900660
565,West 99th Avenue,80260,39.8754497,-104.9938538
485,West 99th Avenue,80260,39.8752039,-104.9927088
443,Melody Drive,80260,39.8742362,-104.9924884
686,Niver Avenue,80260,39.8766935,-104.9951942
9967,Clark Drive,80260,39.8778782,-104.9921442
726,Niver Avenue,80260,39.8764478,-104.9957493
728,West 100th Avenue,80260,39.8774396,-104.9958051
9740,Fred Drive,80260,39.8731643,-104.9928893
169,Belford Drive,80260,39.8768600,-104.9892122
9872,Alamo Drive,80260,39.8760368,-104.9898102
583,Melody Drive,80260,39.8744691,-104.9942889
9831,Melody Drive,80260,39.8754699,-104.9892629
546,Niver Avenue,80260,39.8781242,-104.9936802
322,Brigitte Drive,80260,39.8795972,-104.9896024
324,West 99th Avenue,80260,39.8740945,-104.9912179
10010,Brigitte Drive,80260,39.8783255,-104.9883290
10001,Melody Drive,80260,39.8781516,-104.9895492
302,Melody Drive,80260,39.8732487,-104.9909588
9738,Lou Drive,80260,39.8730740,-104.9919218
9843,Alamo Drive,80260,39.8755869,-104.9903410
702,Melody Drive,80260,39.8741371,-104.9956002
763,Melody Drive,80260,39.8746313,-104.9963331
9750,Melody Drive,80260,39.8738834,-104.9900360
326,Bell Lane,80260,39.8755374,-104.9909731
429,Belford Drive,80260,39.8792394,-104.9921521
306,Bell Lane,80260,39.8756937,-104.9908009
405,West 99th Avenue,80260,39.8748518,-104.9916182
9978,Dodge Drive,80260,39.8771268,-104.9932458
341,Bruce Lane,80260,39.8791933,-104.9898070
248,Belford Drive,80260,39.8771526,-104.9903080
404,West 99th Avenue,80260,39.8746122,-104.9921303
10350,Melody Drive,80260,39.8846109,-104.9929323
9968,Dodge Drive,80260,39.8769450,-104.9934853
9935,Bruce Lane,80260,39.8771229,-104.9914395
9970,Clark Drive,80260,39.8775651,-104.9917402
10050,Brigitte Drive,80260,39.8791856,-104.9882348
10020,Melody Drive,80260,39.8786006,-104.9892503
9840,Melody Drive,80260,39.8755021,-104.9886205
626,Niver Avenue,80260,39.8772249,-104.9945924
729,West 100th Avenue,80260,39.8777974,-104.9957648
547,Niver Avenue,80260,39.8781642,-104.9942119
9812,Alamo Drive,80260,39.8747878,-104.9904966
10038,Dodge Drive,80260,39.8784241,-104.9923497
10231,Melody Drive,80260,39.8821322,-104.9927748
299,Belford Drive,80260,39.8779572,-104.9905834
10320,Melody Drive,80260,39.8840129,-104.9929466
9782,Alamo Drive,80260,39.8746139,-104.9907263
10070,Brigitte Drive,80260,39.8796041,-104.9882490
249,Belford Drive,80260,39.8774852,-104.9899933
10181,Melody Drive,80260,39.8811171,-104.9920695
9990,Melody Drive,80260,39.8781476,-104.9884787
9790,Melody Drive,80260,39.8746570,-104.9891006
9875,Bruce Lane,80260,39.8762662,-104.9922139
10308,Melody Drive,80260,39.8836262,-104.9928859
9979,Dodge Drive,80260,39.8773172,-104.9937125
584,West 99th Avenue,80260,39.8751314,-104.9943371
646,Niver Avenue,80260,39.8770466,-104.9947519
403,Brigitte Drive,80260,39.8796679,-104.9906685
9945,Bruce Lane,80260,39.8773485,-104.9913583
10170,Melody Drive,80260,39.8812804,-104.9914347
9998,Dodge Drive,80260,39.8775245,-104.9928975
542,Melody Drive,80260,39.8738961,-104.9937039
9852,Alamo Drive,80260,39.8755692,-104.9898384
10160,Melody Drive,80260,39.8810543,-104.9913748
10031,Melody Drive,80260,39.8785587,-104.9902364
9948,Dodge Drive,80260,39.8766081,-104.9939377
664,West 99th Avenue,80260,39.8752633,-104.9951633
705,West 99th Avenue,80260,39.8757975,-104.9954934
10081,Melody Drive,80260,39.8794345,-104.9912321
363,Melody Drive,80260,39.8738846,-104.9917631
9929,Dodge Drive,80260,39.8764791,-104.9947291
9740,Melody Drive,80260,39.8737275,-104.9901925
9903,Alamo Drive,80260,39.8766923,-104.9903195
9955,Bruce Lane,80260,39.8775251,-104.9912128
9874,Bruce Lane,80260,39.8760696,-104.9916968
9855,Bruce Lane,80260,39.8759243,-104.9926072
662,Melody Drive,80260,39.8741325,-104.9950767
449,Belford Drive,80260,39.8794184,-104.9923371
642,Melody Circle,80260,39.8736837,-104.9949040
709,West 100th Avenue,80260,39.8777965,-104.9954597
9850,Melody Drive,80260,39.8757349,-104.9886429
9764,Fred Drive,80260,39.8732085,-104.9950478
9822,Alamo Drive,80260,39.8749512,-104.9902488
9772,Fred Drive,80260,39.8729158,-104.9960486
544,West 99th Avenue,80260,39.8750463,-104.9937765
688,West 100th Avenue,80260,39.8772517,-104.9952490
10161,Melody Drive,80260,39.8808755,-104.9920363
9760,Melody Drive,80260,39.8740973,-104.9897701
396,Bell Lane,80260,39.8755393,-104.9923765
9700,Fred Drive,80260,39.8726235,-104.9919657
9909,Dodge Drive,80260,39.8760871,-104.9950713
769,West 100th Avenue,80260,39.8778187,-104.9963297
242,Brigitte Drive,80260,39.8796031,-104.9887901
500,West 100th Place,80260,39.8788419,-104.9933396
9758,Fred Drive,80260,39.8733763,-104.9942185
9851,Melody Drive,80260,39.8759338,-104.9892701
323,Brigitte Drive,80260,39.8800470,-104.9896217
463,Melody Drive,80260,39.8743184,-104.9927714
722,Melody Drive,80260,39.8741344,-104.9958732
9919,Dodge Drive,80260,39.8762974,-104.9948806
10048,Dodge Drive,80260,39.8786296,-104.9921113
9865,Bruce Lane,80260,39.8760926,-104.9924099
9762,Fred Drive,80260,39.8732806,-104.9947748
9680,Fred Drive,80260,39.8722748,-104.9914301
746,Niver Avenue,80260,39.8764242,-104.9960268
10341,Monterey Circle,80260,39.8842616,-104.9961931
9960,Melody Drive,80260,39.8774539,-104.9881876
9981,Melody Drive,80260,39.8778386,-104.9890467
280,Bruce Lane,80260,39.8788133,-104.9891889
9944,Bruce Lane,80260,39.8772176,-104.9908179
9833,Alamo Drive,80260,39.8753512,-104.9904771
9777,Fred Drive,80260,39.8724368,-104.9963458
9627,Pelon Drive,80260,39.8711845,-104.9926657
9578,Lou Drive,80260,39.8703163,-104.9936715
9619,Lou Drive,80260,39.8712273,-104.9937799
9671,Fox Street,80260,39.8722207,-104.9950718
9555,Damon Drive,80260,39.8700851,-104.9921163
9467,Pelon Drive,80260,39.8684497,-104.9940012
9738,Covey Court,80260,39.8729688,-104.9937457
9505,Damon Drive,80260,39.8691126,-104.9926368
9568,Lou Drive,80260,39.8701237,-104.9937712
9506,Pelon Drive,80260,39.8690785,-104.9931610
9588,Lou Drive,80260,39.8705186,-104.9935968
9546,Pelon Drive,80260,39.8698592,-104.9927754
9567,Pelon Drive,80260,39.8700221,-104.9932707
9486,Pelon Drive,80260,39.8688896,-104.9932420
9648,Lou Drive,80260,39.8716627,-104.9929071
9679,Covey Court,80260,39.8721206,-104.9937527
9608,Lou Drive,80260,39.8708972,-104.9934179
9637,Pelon Drive,80260,39.8713623,-104.9925059
9618,Lou Drive,80260,39.8711129,-104.9933117
9465,Damon Drive,80260,39.8685418,-104.9928484
9646,Pelon Drive,80260,39.8715950,-104.9916017
9667,Pelon Drive,80260,39.8718558,-104.9919882
9616,Pelon Drive,80260,39.8710982,-104.9921374
9689,Lou Drive,80260,39.8725266,-104.9925957
9535,Damon Drive,80260,39.8696770,-104.9923178
9518,Lou Drive,80260,39.8691484,-104.9942509
9536,Pelon Drive,80260,39.8696676,-104.9928705
9651,Fox Street,80260,39.8718367,-104.9948633
9677,Pelon Drive,80260,39.8720031,-104.9918161
9657,Pelon Drive,80260,39.8717072,-104.9921734
9566,Pelon Drive,80260,39.8702348,-104.9926308
9476,Pelon Drive,80260,39.8686720,-104.9933557
9688,Lou Drive,80260,39.8722708,-104.9922083
9741,Fred Drive,80260,39.8728391,-104.9931255
9700,Fox Street,80260,39.8725576,-104.9946944
9508,Lou Drive,80260,39.8689640,-104.9943312
9628,Lou Drive,80260,39.8712836,-104.9932012
9647,Pelon Drive,80260,39.8715350,-104.9923328
9761,Fred Drive,80260,39.8729691,-104.9942622
9615,Damon Drive,80260,39.8710027,-104.9915579
9765,Fred Drive,80260,39.8728445,-104.9948383
9556,Pelon Drive,80260,39.8700556,-104.9927029
9669,Covey Court,80260,39.8720194,-104.9935294
9631,Fox Street,80260,39.8713871,-104.9948109
9719,Covey Court,80260,39.8726829,-104.9941733
9658,Lou Drive,80260,39.8718245,-104.9927397
9485,Damon Drive,80260,39.8689076,-104.9926972
9645,Damon Drive,80260,39.8714730,-104.9910323
9475,Damon Drive,80260,39.8687362,-104.9928206
9587,Pelon Drive,80260,39.8704118,-104.9930834
9586,Pelon Drive,80260,39.8706314,-104.9924472
9547,Pelon Drive,80260,39.8696223,-104.9934578
9525,Damon Drive,80260,39.8694763,-104.9924040
9456,Pelon Drive,80260,39.8682713,-104.9934890
9670,Fox Street,80260,39.8723679,-104.9945895
9635,Damon Drive,80260,39.8713369,-104.9912094
9597,Pelon Drive,80260,39.8705804,-104.9930110
9598,Lou Drive,80260,39.8707084,-104.9934879
9688,Covey Court,80260,39.8724778,-104.9934669
9681,Fox Street,80260,39.8724208,-104.9951674
9516,Pelon Drive,80260,39.8692866,-104.9930770
9709,Covey Court,80260,39.8724946,-104.9940741
9689,Covey Court,80260,39.8722856,-104.9939562
9575,Damon Drive,80260,39.8704625,-104.9919368
9576,Pelon Drive,80260,39.8704369,-104.9925293
9668,Lou Drive,80260,39.8719878,-104.9925321
9708,Covey Court,80260,39.8726919,-104.9936383
9630,Fox Street,80260,39.8715511,-104.9943104
9620,Fox Street,80260,39.8713476,-104.9943332
9537,Pelon Drive,80260,39.8694117,-104.9935534
9669,Lou Drive,80260,39.8721596,-104.9929940
9487,Pelon Drive,80260,39.8688047,-104.9938609
9650,Fox Street,80260,39.8719794,-104.9943764
9638,Lou Drive,80260,39.8714508,-104.9930650
9526,Pelon Drive,80260,39.8694686,-104.9929466
9585,Damon Drive,80260,39.8706446,-104.9918476
9679,Lou Drive,80260,39.8723400,-104.9927933
9527,Pelon Drive,80260,39.8692141,-104.9936416
9636,Pelon Drive,80260,39.8714338,-104.9918043
9617,Pelon Drive,80260,39.8709728,-104.9928152
9639,Lou Drive,80260,39.8716013,-104.9935469
9538,Lou Drive,80260,39.8695446,-104.9940699
9641,Fox Street,80260,39.8716230,-104.9948178
9548,Lou Drive,80260,39.8697128,-104.9939673
9745,Fred Drive,80260,39.8729166,-104.9934119
9731,Fred Drive,80260,39.8727052,-104.9928453
9661,Fox Street,80260,39.8720191,-104.9949286
9565,Damon Drive,80260,39.8702697,-104.9920472
9626,Pelon Drive,80260,39.8712654,-104.9918903
9629,Lou Drive,80260,39.8714221,-104.9936589
9577,Pelon Drive,80260,39.8702114,-104.9931721
9678,Lou Drive,80260,39.8721306,-104.9923953
9625,Damon Drive,80260,39.8711692,-104.9913802
9605,Damon Drive,80260,39.8708402,-104.9917100
9607,Pelon Drive,80260,39.8707860,-104.9928908
9678,Covey Court,80260,39.8723342,-104.9932653
9763,Fred Drive,80260,39.8729112,-104.9945530
9656,Pelon Drive,80260,39.8717484,-104.9914175
9659,Covey Court,80260,39.8718871,-104.9933487
9557,Pelon Drive,80260,39.8698097,-104.9933680
9606,Pelon Drive,80260,39.8708381,-104.9923251
9660,Fox Street,80260,39.8721711,-104.9944842
9515,Damon Drive,80260,39.8692795,-104.9925550
9771,Fred Drive,80260,39.8726090,-104.9955227
9507,Pelon Drive,80260,39.8690195,-104.9937389
9528,Lou Drive,80260,39.8693520,-104.9941598
9769,Fred Drive,80260,39.8726853,-104.9952731
9640,Fox Street,80260,39.8717781,-104.9943285
9773,Fred Drive,80260,39.8725623,-104.9958035
9775,Fred Drive,80260,39.8724996,-104.9960677
9545,Damon Drive,80260,39.8698824,-104.9922168
9558,Lou Drive,80260,39.8699361,-104.9938586
1322,West 100th Place,80260,39.8791079,-105.0032982
1412,West 104th Avenue,80234,39.8847418,-105.0038876
1261,Spangler Drive,80234,39.8847089,-105.0020655
970,West 104th Avenue,80234,39.8836285,-104.9974986
970,West 104th Avenue,80234,39.8836177,-104.9983261
1020,West 103rd Avenue,80260,39.8821011,-104.9991496
1243,West 103rd Place,80260,39.8839718,-105.0017802
1046,West 102nd Avenue,80260,39.8806305,-104.9994087
945,West 101st Avenue,80260,39.8794181,-104.9982417
862,West 101st Avenue,80260,39.8789743,-104.9973404
9813,Palmer Lane,80260,39.8744133,-104.9982716
9851,Rapp Lane,80260,39.8753543,-105.0008344
1184,Spangler Drive,80234,39.8843100,-105.0011672
986,West 102nd Avenue,80260,39.8805429,-104.9987942
927,West 98th Avenue,80260,39.8737302,-104.9982668
840,West 99th Avenue,80260,39.8753817,-104.9970708
9800,Lunceford Lane,80260,39.8737300,-104.9990087
940,West 100th Place,80260,39.8782882,-104.9983807
1060,West 103rd Avenue,80260,39.8822087,-104.9997429
887,West 102nd Avenue,80260,39.8808542,-104.9976422
885,West 101st Avenue,80260,39.8793839,-104.9976408
984,West 101st Place,80260,39.8798017,-104.9987780
983,West 100th Place,80260,39.8787180,-104.9988256
948,West 102nd Place,80260,39.8812222,-104.9982548
881,Niver Avenue,80260,39.8768747,-104.9976941
1081,West 99th Avenue,80260,39.8760190,-104.9999911
1048,West 102nd Place,80260,39.8813887,-104.9994131
926,West 102nd Avenue,80260,39.8804795,-104.9979117
843,West 100th Place,80260,39.8786291,-104.9970182
1343,West 103rd Place,80260,39.8839488,-105.0029526
881,West 100th Avenue,80260,39.8778178,-104.9976280
861,West 100th Avenue,80260,39.8778222,-104.9973204
1026,West 102nd Avenue,80260,39.8805979,-104.9991040
981,West 100th Avenue,80260,39.8778990,-104.9988075
967,West 98th Avenue,80260,39.8737202,-104.9987594
889,West 102nd Place,80260,39.8816158,-104.9976579
921,West 103rd Avenue,80260,39.8823623,-104.9980509
9806,Palmer Lane,80260,39.8741105,-104.9977163
9810,Rapp Lane,80260,39.8740425,-105.0002454
1260,Spangler Drive,80234,39.8843093,-105.0020497
1244,Spangler Drive,80260,39.8842899,-105.0017635
1025,West 101st Place,80260,39.8802541,-104.9991711
1283,West 103rd Place,80260,39.8839682,-105.0023546
9841,Rapp Lane,80260,39.8749909,-105.0007997
881,West 99th Avenue,80260,39.8759364,-104.9972680
961,West 100th Avenue,80260,39.8778865,-104.9985138
920,Niver Avenue,80260,39.8764244,-104.9979721
1145,Spangler Drive,80234,39.8847094,-105.0005638
1160,West 99th Avenue,80260,39.8756343,-105.0007422
1123,West 103rd Place,80260,39.8839636,-105.0002607
1125,West 101st Place,80260,39.8804578,-105.0004055
941,Niver Avenue,80260,39.8768314,-104.9983975
1128,West 102nd Place,80260,39.8815575,-105.0002836
9910,Croke Drive,80260,39.8764580,-105.0014620
1040,Niver Avenue,80260,39.8768085,-104.9993952
1088,West 102nd Place,80260,39.8815015,-104.9999856
1443,West 103rd Place,80260,39.8839580,-105.0041666
846,West 102nd Avenue,80260,39.8804699,-104.9970307
1523,West 103rd Place,80260,39.8839449,-105.0050707
1067,West 98th Avenue,80260,39.8737170,-104.9997417
1040,West 103rd Avenue,80260,39.8821611,-104.9994389
1543,West 103rd Place,80260,39.8839530,-105.0053554
9840,Croke Drive,80260,39.8749260,-105.0014805
1143,West 103rd Place,80260,39.8839406,-105.0005555
1069,West 102nd Place,80260,39.8818656,-104.9998704
9840,Rapp Lane,80260,39.8752156,-105.0001488
1185,Spangler Drive,80234,39.8846921,-105.0011393
989,West 102nd Place,80260,39.8817209,-104.9989044
840,West 100th Place,80260,39.8782316,-104.9970406
10335,Croke Drive,80260,39.8832442,-105.0009191
1080,West 103rd Avenue,80260,39.8822756,-105.0000358
860,West 103rd Avenue,80260,39.8819529,-104.9973365
964,West 101st Place,80260,39.8797594,-104.9984894
960,West 103rd Avenue,80260,39.8819984,-104.9985496
1126,West 102nd Avenue,80260,39.8807788,-105.0002814
982,West 101st Avenue,80260,39.8790568,-104.9989285
883,West 100th Place,80260,39.8786319,-104.9976419
1023,West 100th Place,80260,39.8787644,-104.9994313
945,West 101st Place,80260,39.8801599,-104.9982468
884,West 101st Place,80260,39.8797457,-104.9976265
1363,West 103rd Place,80260,39.8839516,-105.0032737
867,West 98th Avenue,80260,39.8737143,-104.9974878
9806,Rapp Lane,80260,39.8742824,-105.0002454
849,West 102nd Place,80260,39.8815905,-104.9970359
869,West 102nd Place,80260,39.8816086,-104.9973204
1165,Spangler Drive,80234,39.8846926,-105.0008598
867,West 102nd Avenue,80260,39.8808765,-104.9973565
865,West 101st Place,80260,39.8801318,-104.9973065
888,West 102nd Avenue,80260,39.8812158,-104.9976271
942,West 101st Avenue,80260,39.8790154,-104.9982823
9840,Palmer Lane,80260,39.8751206,-104.9976700
1125,Spangler Drive,80234,39.8847407,-105.0002841
1145,West 101st Place,80260,39.8805012,-105.0006671
9808,Rapp Lane,80260,39.8745878,-105.0002462
1066,West 102nd Avenue,80260,39.8806756,-104.9996805
944,West 101st Place,80260,39.8797604,-104.9981968
861,Niver Avenue,80260,39.8768561,-104.9973561
980,West 99th Avenue,80260,39.8754399,-104.9989640
1163,West 103rd Place,80260,39.8839435,-105.0008589
1085,West 101st Avenue,80260,39.8796258,-105.0000526
922,West 101st Avenue,80260,39.8790037,-104.9979860
968,West 102nd Place,80260,39.8812820,-104.9985228
882,West 101st Avenue,80260,39.8789784,-104.9976684
1164,West 101st Place,80260,39.8801119,-105.0007960
864,West 101st Place,80260,39.8797164,-104.9973012
1223,West 103rd Place,80260,39.8839468,-105.0014590
1042,West 101st Avenue,80260,39.8791304,-104.9995237
1024,West 101st Place,80260,39.8798178,-104.9990715
969,West 102nd Place,80260,39.8816931,-104.9986330
9821,Palmer Lane,80260,39.8747668,-104.9982912
924,West 101st Place,80260,39.8797428,-104.9979036
9840,Lunceford Lane,80260,39.8751192,-104.9989374
985,West 101st Avenue,80260,39.8794683,-104.9988391
1224,Spangler Drive,80260,39.8843011,-105.0014823
1127,West 98th Avenue,80260,39.8737799,-105.0002320
9950,Lunceford Court,80260,39.8771569,-104.9987168
950,West 103rd Place,80260,39.8829522,-104.9984702
1225,Spangler Drive,80234,39.8846973,-105.0014581
1022,West 101st Avenue,80260,39.8790913,-104.9992061
9841,Palmer Lane,80260,39.8751176,-104.9983230
941,West 103rd Avenue,80260,39.8824020,-104.9983241
1045,West 101st Avenue,80260,39.8795420,-104.9994526
1323,West 103rd Place,80260,39.8839696,-105.0026562
880,West 103rd Avenue,80260,39.8819456,-104.9976338
966,West 102nd Avenue,80260,39.8804970,-104.9984975
920,West 100th Avenue,80260,39.8774546,-104.9980170
9850,Croke Drive,80260,39.8751283,-105.0014513
1044,West 101st Place,80260,39.8798659,-104.9993691
949,West 102nd Place,80260,39.8816568,-104.9982905
868,West 102nd Place,80260,39.8812006,-104.9973591
1061,West 103rd Avenue,80260,39.8825995,-104.9996368
9841,Lunceford Lane,80260,39.8750655,-104.9995517
9860,Croke Drive,80260,39.8753368,-105.0015056
1003,West 100th Place,80260,39.8787459,-104.9991170
9810,Lunceford Lane,80260,39.8743954,-104.9988877
961,West 103rd Avenue,80260,39.8824234,-104.9986208
9800,Palmer Lane,80260,39.8737529,-104.9977752
9880,Croke Drive,80260,39.8757351,-105.0014859
9860,Rapp Lane,80260,39.8755168,-105.0000818
927,West 102nd Avenue,80260,39.8808952,-104.9979689
880,West 99th Avenue,80260,39.8753865,-104.9975999
1065,West 101st Place,80260,39.8803444,-104.9998054
940,West 100th Avenue,80260,39.8774762,-104.9983387
980,West 103rd Avenue,80260,39.8820474,-104.9988129
1263,West 103rd Place,80260,39.8839600,-105.0020432
921,Niver Avenue,80260,39.8768673,-104.9980014
1285,Spangler Drive,80234,39.8846992,-105.0023602
920,West 100th Place,80260,39.8782526,-104.9980456
860,West 100th Avenue,80260,39.8774306,-104.9973696
980,Niver Avenue,80260,39.8764530,-104.9989489
963,West 100th Place,80260,39.8786930,-104.9985406
1423,West 103rd Place,80260,39.8839486,-105.0038522
921,West 100th Avenue,80260,39.8778430,-104.9979321
847,West 102nd Avenue,80260,39.8808468,-104.9970154
960,West 100th Avenue,80260,39.8774886,-104.9986563
1246,West 98th Avenue,80260,39.8737877,-105.0015276
9821,Huron Street,80260,39.8746441,-104.9970634
1245,Spangler Drive,80234,39.8846931,-105.0017595
1284,Spangler Drive,80234,39.8843061,-105.0023733
9820,Palmer Lane,80260,39.8747179,-104.9976932
1041,West 99th Avenue,80260,39.8760237,-104.9992299
1089,West 102nd Place,80260,39.8819416,-105.0001469
1027,West 102nd Avenue,80260,39.8810100,-104.9992011
967,West 102nd Avenue,80260,39.8809188,-104.9985826
1144,Spangler Drive,80234,39.8843052,-105.0005567
1064,West 101st Place,80260,39.8799013,-104.9996713
9820,Lunceford Lane,80260,39.8747910,-104.9989429
845,West 101st Avenue,80260,39.8793901,-104.9970221
9861,Palmer Lane,80260,39.8754104,-104.9983127
841,Niver Avenue,80260,39.8768324,-104.9970613
885,West 101st Place,80260,39.8801298,-104.9976175
923,West 100th Place,80260,39.8786440,-104.9979230
1021,West 100th Avenue,80260,39.8779311,-104.9990964
1068,West 102nd Place,80260,39.8814427,-104.9997036
1085,West 101st Place,80260,39.8804100,-105.0000958
886,West 102nd Avenue,80260,39.8804574,-104.9976013
9820,Rapp Lane,80260,39.8749503,-105.0001331
981,West 103rd Avenue,80260,39.8824504,-104.9988718
928,West 102nd Place,80260,39.8812378,-104.9979328
880,West 100th Avenue,80260,39.8774203,-104.9976906
961,West 99th Avenue,80260,39.8759012,-104.9984042
925,West 101st Place,80260,39.8801692,-104.9979515
861,West 103rd Avenue,80260,39.8823443,-104.9972570
845,West 101st Place,80260,39.8801112,-104.9970111
925,West 101st Avenue,80260,39.8793959,-104.9979398
920,West 103rd Avenue,80260,39.8819871,-104.9979478
965,West 101st Place,80260,39.8801828,-104.9985517
988,West 102nd Place,80260,39.8813064,-104.9988423
1049,West 102nd Place,80260,39.8818241,-104.9995592
901,West 103rd Avenue,80260,39.8823690,-104.9978299
1045,West 101st Place,80260,39.8802799,-104.9994589
980,West 100th Place,80260,39.8783414,-104.9990465
985,West 101st Place,80260,39.8802077,-104.9988622
860,West 100th Place,80260,39.8782531,-104.9973738
9861,Lunceford Lane,80260,39.8754220,-104.9995992
842,West 101st Avenue,80260,39.8789960,-104.9970378
863,West 100th Place,80260,39.8786322,-104.9973208
1081,West 103rd Avenue,80260,39.8826546,-104.9999176
947,West 98th Avenue,80260,39.8737201,-104.9985063
827,West 98th Avenue,80260,39.8737005,-104.9970157
960,West 100th Place,80260,39.8783126,-104.9987110
946,West 102nd Avenue,80260,39.8804924,-104.9982180
880,West 100th Place,80260,39.8782571,-104.9977089
848,West 102nd Place,80260,39.8812050,-104.9970321
1021,West 103rd Avenue,80260,39.8825087,-104.9991342
941,West 99th Avenue,80260,39.8759254,-104.9980131
1145,West 101st Avenue,80260,39.8797364,-105.0006155
1125,West 101st Avenue,80260,39.8796607,-105.0003364
1087,West 102nd Avenue,80260,39.8811470,-105.0001212
9810,Palmer Lane,80260,39.8744827,-104.9976978
1483,West 103rd Place,80260,39.8839555,-105.0047435
866,West 102nd Avenue,80260,39.8804662,-104.9973086
960,Niver Avenue,80260,39.8764318,-104.9985928
1020,West 100th Place,80260,39.8783685,-104.9993760
962,West 101st Avenue,80260,39.8790416,-104.9986095
1124,West 101st Place,80260,39.8800104,-105.0002509
961,Niver Avenue,80260,39.8768491,-104.9987017
841,West 103rd Avenue,80260,39.8823277,-104.9970191
1463,West 103rd Place,80260,39.8839399,-105.0044510
860,Niver Avenue,80260,39.8764218,-104.9973298
880,Niver Avenue,80260,39.8764175,-104.9976494
1165,West 101st Avenue,80260,39.8797858,-105.0009218
987,West 102nd Avenue,80260,39.8809662,-104.9988970
929,West 102nd Place,80260,39.8816299,-104.9980024
9870,Croke Drive,80260,39.8755449,-105.0014922
1144,West 101st Place,80260,39.8800543,-105.0005200
1183,West 103rd Place,80260,39.8839402,-105.0011551
1065,West 101st Avenue,80260,39.8795822,-104.9997384
940,West 103rd Avenue,80260,39.8820034,-104.9982376
840,West 100th Avenue,80260,39.8774028,-104.9970267
9807,Lunceford Lane,80260,39.8741072,-104.9995482
943,West 100th Place,80260,39.8786778,-104.9982494
965,West 101st Avenue,80260,39.8794297,-104.9985345
1146,West 102nd Avenue,80260,39.8808482,-105.0005454
1086,West 102nd Avenue,80260,39.8807323,-104.9999962
940,Niver Avenue,80260,39.8764386,-104.9982688
844,West 101st Place,80260,39.8797242,-104.9970057
841,West 100th Avenue,80260,39.8778075,-104.9970388
881,West 103rd Avenue,80260,39.8823537,-104.9975397
865,West 101st Avenue,80260,39.8793874,-104.9973363
1028,West 102nd Place,80260,39.8813373,-104.9991137
1383,West 103rd Place,80260,39.8839378,-105.0035553
941,West 100th Avenue,80260,39.8778493,-104.9982003
947,West 102nd Avenue,80260,39.8808883,-104.9982682
847,West 98th Avenue,80260,39.8737208,-104.9972479
840,West 103rd Avenue,80260,39.8819352,-104.9970132
1047,West 102nd Avenue,80260,39.8810495,-104.9995089
840,Niver Avenue,80260,39.8764283,-104.9970263
9821,Lunceford Lane,80260,39.8746912,-104.9995579
9806,Lunceford Lane,80260,39.8740654,-104.9990112
1127,West 102nd Avenue,80260,39.8812082,-105.0004172
9809,Palmer Lane,80260,39.8741355,-104.9982557
1067,West 102nd Avenue,80260,39.8811080,-104.9998163
1160,Spangler Drive,80260,39.8842564,-105.0008826
1025,West 101st Avenue,80260,39.8794966,-104.9991364
1047,West 98th Avenue,80260,39.8737319,-104.9995150
9811,Lunceford Lane,80260,39.8744124,-104.9995514
1041,West 100th Avenue,80260,39.8779696,-104.9993900
1084,West 101st Place,80260,39.8799712,-104.9999358
1029,West 102nd Place,80260,39.8817540,-104.9992519
1124,Spangler Drive,80234,39.8842992,-105.0002655
1041,West 103rd Avenue,80260,39.8825510,-104.9993625
1121,West 100th Avenue,80260,39.8781788,-105.0005508
1060,West 100th Place,80260,39.8784655,-105.0000347
1081,West 100th Avenue,80260,39.8780616,-104.9999677
1061,West 100th Avenue,80260,39.8780139,-104.9996922
1123,West 100th Place,80260,39.8789710,-105.0006216
1063,West 100th Place,80260,39.8788668,-105.0000140
1142,West 101st Avenue,80260,39.8793514,-105.0007397
1143,West 100th Place,80260,39.8790271,-105.0009154
1101,West 100th Avenue,80260,39.8781156,-105.0002552
1141,West 100th Avenue,80260,39.8782354,-105.0008339
1040,West 100th Place,80260,39.8784055,-104.9997096
1161,West 100th Avenue,80260,39.8782971,-105.0011198
1180,West 100th Place,80260,39.8786923,-105.0012954
1181,West 100th Avenue,80260,39.8783557,-105.0013947
1083,West 100th Place,80260,39.8789034,-105.0003087
1120,West 100th Place,80260,39.8784987,-105.0003655
1162,West 101st Avenue,80260,39.8794024,-105.0010302
1082,West 101st Avenue,80260,39.8792257,-105.0001294
1163,West 100th Place,80260,39.8790795,-105.0011608
1043,West 100th Place,80260,39.8788032,-104.9997130
1122,West 101st Avenue,80260,39.8792872,-105.0004344
1140,West 100th Place,80260,39.8785726,-105.0006791
1160,West 100th Place,80260,39.8786307,-105.0010128
1062,West 101st Avenue,80260,39.8791736,-104.9998351
1285,West 101st Avenue,80260,39.8801708,-105.0029134
1368,West 102nd Avenue,80260,39.8813755,-105.0037750
1268,West 102nd Avenue,80260,39.8812626,-105.0025712
1364,West 103rd Place,80260,39.8835751,-105.0032322
1211,West 102nd Place,80260,39.8821697,-105.0012521
1425,West 101st Avenue,80260,39.8802604,-105.0044284
1206,West 101st Place,80260,39.8803658,-105.0018683
1473,West 103rd Avenue,80260,39.8832408,-105.0047668
1353,West 103rd Avenue,80260,39.8832159,-105.0032362
1491,West 102nd Place,80260,39.8825044,-105.0050420
1267,West 101st Place,80260,39.8809415,-105.0026723
1249,West 102nd Avenue,80260,39.8815635,-105.0020959
1148,West 102nd Avenue,80260,39.8809777,-105.0010693
1230,West 102nd Place,80260,39.8818539,-105.0017142
1384,West 103rd Place,80260,39.8835755,-105.0035462
1364,West 101st Avenue,80260,39.8799106,-105.0038880
1207,West 101st Place,80260,39.8807306,-105.0017791
1291,West 102nd Place,80260,39.8823813,-105.0023987
1470,West 102nd Place,80260,39.8821264,-105.0047282
1349,West 102nd Avenue,80260,39.8817253,-105.0032679
1509,West 102nd Avenue,80260,39.8817677,-105.0053757
1149,West 102nd Avenue,80260,39.8813435,-105.0009342
1431,West 102nd Place,80260,39.8824834,-105.0041715
1345,West 101st Avenue,80260,39.8802410,-105.0035373
1330,West 102nd Place,80260,39.8820583,-105.0029004
1309,West 102nd Avenue,80260,39.8816780,-105.0026742
1271,West 102nd Place,80260,39.8823243,-105.0021139
1269,West 102nd Avenue,80260,39.8816121,-105.0023801
1443,West 100th Place,80260,39.8795223,-105.0047539
1351,West 102nd Place,80260,39.8824493,-105.0032852
1423,West 100th Place,80260,39.8795152,-105.0044348
1449,West 102nd Avenue,80260,39.8817746,-105.0044459
1346,West 101st Place,80260,39.8806132,-105.0036219
1226,West 101st Place,80260,39.8804420,-105.0021641
1225,West 101st Avenue,80260,39.8800293,-105.0020455
1242,West 103rd Avenue,80260,39.8826366,-105.0017466
1307,West 101st Place,80260,39.8809452,-105.0029429
1151,West 102nd Place,80260,39.8820547,-105.0006982
1464,West 101st Avenue,80260,39.8798870,-105.0050714
1172,West 103rd Avenue,80260,39.8824680,-105.0008670
1481,West 100th Avenue,80260,39.8787744,-105.0053472
1446,West 101st Place,80260,39.8806259,-105.0047813
1451,West 102nd Place,80260,39.8825018,-105.0044633
1365,West 101st Avenue,80260,39.8802651,-105.0038134
1488,West 102nd Avenue,80260,39.8813883,-105.0053348
1350,West 102nd Place,80260,39.8820799,-105.0031904
1248,West 102nd Avenue,80260,39.8812078,-105.0022576
1171,West 102nd Place,80260,39.8821315,-105.0009874
1385,West 101st Avenue,80260,39.8802662,-105.0041316
1514,West 103rd Place,80260,39.8835699,-105.0053597
1465,West 101st Avenue,80260,39.8802747,-105.0050504
1348,West 102nd Avenue,80260,39.8813534,-105.0034807
1486,West 101st Place,80260,39.8806395,-105.0053870
1493,West 103rd Avenue,80260,39.8832505,-105.0050620
1372,West 103rd Avenue,80260,39.8828497,-105.0035168
1312,West 103rd Avenue,80260,39.8827794,-105.0026200
1487,West 101st Place,80260,39.8810208,-105.0053433
1424,West 101st Avenue,80260,39.8798958,-105.0044598
1371,West 102nd Place,80260,39.8825020,-105.0035789
1366,West 101st Place,80260,39.8806294,-105.0038937
1282,West 103rd Avenue,80260,39.8827116,-105.0023513
1188,West 102nd Avenue,80260,39.8810766,-105.0016798
1494,West 103rd Place,80260,39.8835944,-105.0050175
1467,West 101st Place,80260,39.8810356,-105.0050376
1373,West 103rd Avenue,80260,39.8832185,-105.0035451
1247,West 101st Place,80260,39.8808549,-105.0023715
1205,West 101st Avenue,80260,39.8799424,-105.0017397
1328,West 102nd Avenue,80260,39.8813174,-105.0031780
1222,West 103rd Avenue,80260,39.8825805,-105.0014487
1469,West 102nd Avenue,80260,39.8817375,-105.0047503
1384,West 101st Avenue,80260,39.8798969,-105.0041961
1311,West 102nd Place,80260,39.8824058,-105.0026982
1306,West 101st Place,80260,39.8805826,-105.0030184
1310,West 102nd Place,80260,39.8820271,-105.0025979
1170,West 102nd Place,80260,39.8817569,-105.0011074
1327,West 101st Place,80260,39.8810137,-105.0032489
1344,West 101st Avenue,80260,39.8798924,-105.0035905
1512,West 103rd Avenue,80260,39.8828617,-105.0053413
1433,West 103rd Avenue,80260,39.8832399,-105.0041494
1166,West 101st Place,80260,39.8802238,-105.0013515
1483,West 100th Place,80260,39.8795198,-105.0053305
1454,West 103rd Place,80260,39.8835964,-105.0044402
1386,West 101st Place,80260,39.8806445,-105.0041806
1244,West 101st Avenue,80260,39.8797281,-105.0024347
1489,West 102nd Avenue,80260,39.8817894,-105.0050490
1511,West 102nd Place,80260,39.8825014,-105.0053544
1388,West 102nd Avenue,80260,39.8813581,-105.0041008
1202,West 103rd Avenue,80260,39.8825163,-105.0011698
1324,West 101st Avenue,80260,39.8798704,-105.0032836
1187,West 101st Place,80260,39.8806699,-105.0014817
1332,West 103rd Avenue,80260,39.8828102,-105.0029153
1265,West 101st Avenue,80260,39.8801335,-105.0026103
1490,West 102nd Place,80260,39.8821433,-105.0050378
1329,West 102nd Avenue,80260,39.8816774,-105.0029741
1250,West 102nd Place,80260,39.8819414,-105.0019936
1231,West 102nd Place,80260,39.8822150,-105.0015363
1452,West 103rd Avenue,80260,39.8828569,-105.0043947
1167,West 101st Place,80260,39.8806250,-105.0011980
1430,West 102nd Place,80260,39.8821210,-105.0041026
1466,West 101st Place,80260,39.8806433,-105.0050676
1369,West 102nd Avenue,80260,39.8817279,-105.0035809
1414,West 103rd Place,80260,39.8835832,-105.0038260
1370,West 102nd Place,80260,39.8820970,-105.0034844
1485,West 101st Avenue,80260,39.8802710,-105.0053323
1245,West 101st Avenue,80260,39.8800723,-105.0023300
1227,West 101st Place,80260,39.8808083,-105.0020800
1450,West 102nd Place,80260,39.8821184,-105.0044324
1169,West 102nd Avenue,80260,39.8813798,-105.0012746
1168,West 102nd Avenue,80260,39.8810393,-105.0013747
1308,West 102nd Avenue,80260,39.8813030,-105.0028968
1343,West 100th Place,80260,39.8794937,-105.0035147
1453,West 103rd Avenue,80260,39.8832457,-105.0044578
1463,West 100th Place,80260,39.8795184,-105.0050442
1410,West 102nd Place,80260,39.8821329,-105.0038197
1210,West 102nd Place,80260,39.8818282,-105.0014383
1246,West 101st Place,80260,39.8804932,-105.0024442
1513,West 103rd Avenue,80260,39.8832309,-105.0053583
1472,West 103rd Avenue,80260,39.8828781,-105.0047163
1413,West 103rd Avenue,80260,39.8832355,-105.0038277
1270,West 102nd Place,80260,39.8819838,-105.0022939
1347,West 101st Place,80260,39.8810224,-105.0035609
1411,West 102nd Place,80260,39.8824767,-105.0038732
1331,West 102nd Place,80260,39.8824333,-105.0029947
1204,West 101st Avenue,80260,39.8795953,-105.0018720
1228,West 102nd Avenue,80260,39.8811415,-105.0019892
1484,West 101st Avenue,80260,39.8798814,-105.0053303
1429,West 102nd Avenue,80260,39.8817667,-105.0041624
1389,West 102nd Avenue,80260,39.8817727,-105.0038646
1150,West 102nd Place,80260,39.8816833,-105.0008117
1284,West 101st Avenue,80260,39.8798200,-105.0030206
1474,West 103rd Place,80260,39.8835962,-105.0047249
1448,West 102nd Avenue,80260,39.8813581,-105.0047259
1326,West 101st Place,80260,39.8806036,-105.0032926
1352,West 103rd Avenue,80260,39.8828417,-105.0032183
1266,West 101st Place,80260,39.8805443,-105.0027468
1432,West 103rd Avenue,80260,39.8828529,-105.0041116
1262,West 103rd Avenue,80260,39.8826876,-105.0020502
1444,West 101st Avenue,80260,39.8799025,-105.0047593
1185,West 101st Avenue,80260,39.8799264,-105.0014550
1264,West 101st Avenue,80260,39.8797847,-105.0027210
1251,West 102nd Place,80260,39.8822861,-105.0018195
1363,West 100th Place,80260,39.8795070,-105.0038221
1434,West 103rd Place,80260,39.8835748,-105.0041575
1447,West 101st Place,80260,39.8810196,-105.0047300
1186,West 101st Place,80260,39.8803136,-105.0016026
1325,West 101st Avenue,80260,39.8802761,-105.0031842
1445,West 101st Avenue,80260,39.8802905,-105.0047342
1471,West 102nd Place,80260,39.8824802,-105.0047537
1468,West 102nd Avenue,80260,39.8813868,-105.0050399
1510,West 102nd Place,80260,39.8821263,-105.0053656
1387,West 101st Place,80260,39.8810449,-105.0041578
1492,West 103rd Avenue,80260,39.8828653,-105.0050205
1367,West 101st Place,80260,39.8810309,-105.0038706
1224,West 101st Avenue,80260,39.8796718,-105.0021372
1427,West 101st Place,80260,39.8810724,-105.0044631
1152,West 103rd Avenue,80260,39.8824029,-105.0005777
1426,West 101st Place,80260,39.8806266,-105.0044910
1412,West 103rd Avenue,80260,39.8828551,-105.0038149
1189,West 102nd Avenue,80260,39.8814470,-105.0015088
1229,West 102nd Avenue,80260,39.8815090,-105.0018041
1383,West 100th Place,80260,39.8795267,-105.0041343
1184,West 101st Avenue,80260,39.8795506,-105.0015915
1482,West 100th Place,80260,39.8791557,-105.0053456
1428,West 102nd Avenue,80260,39.8813557,-105.0044163
1362,West 100th Place,80260,39.8791540,-105.0038581
1283,West 100th Place,80260,39.8794220,-105.0029045
1421,West 100th Avenue,80260,39.8787954,-105.0044479
1261,West 100th Avenue,80260,39.8785886,-105.0025665
1381,West 100th Avenue,80260,39.8788006,-105.0041241
1321,West 100th Avenue,80260,39.8787084,-105.0032032
1361,West 100th Avenue,80260,39.8787618,-105.0037952
1462,West 100th Place,80260,39.8791776,-105.0050425
1202,West 100th Place,80260,39.8788329,-105.0018179
1223,West 100th Place,80260,39.8792252,-105.0020066
1461,West 100th Avenue,80260,39.8788026,-105.0050317
1242,West 100th Place,80260,39.8789284,-105.0024100
1222,West 100th Place,80260,39.8788838,-105.0021398
1203,West 100th Place,80260,39.8791651,-105.0017246
1263,West 100th Place,80260,39.8793768,-105.0026007
1341,West 100th Avenue,80260,39.8787352,-105.0034834
1442,West 100th Place,80260,39.8791771,-105.0047500
1422,West 100th Place,80260,39.8791578,-105.0044504
1221,West 100th Avenue,80260,39.8784549,-105.0019550
1342,West 100th Place,80260,39.8791338,-105.0035687
1281,West 100th Avenue,80260,39.8786640,-105.0028719
1382,West 100th Place,80260,39.8791740,-105.0041524
1282,West 100th Place,80260,39.8790757,-105.0029866
1441,West 100th Avenue,80260,39.8787741,-105.0047223
1262,West 100th Place,80260,39.8790089,-105.0026998
1243,West 100th Place,80260,39.8793129,-105.0023329
1323,West 100th Place,80260,39.8794894,-105.0032018
1241,West 100th Avenue,80260,39.8785142,-105.0022762
10333,Pecos Street,80260,39.8838968,-105.0058359
10253,Pecos Street,80260,39.8826390,-105.0058700
10203,Pecos Street,80260,39.8815751,-105.0058765
10343,Pecos Street,80260,39.8841108,-105.0058447
10223,Pecos Street,80260,39.8820039,-105.0058353
10353,Pecos Street,80260,39.8843260,-105.0058621
10213,Pecos Street,80260,39.8817892,-105.0058532
10373,Pecos Street,80260,39.8847780,-105.0058207
10243,Pecos Street,80260,39.8824298,-105.0058408
10313,Pecos Street,80260,39.8834627,-105.0058432
10303,Pecos Street,80260,39.8832369,-105.0058743
10323,Pecos Street,80260,39.8836827,-105.0058709
10363,Pecos Street,80260,39.8845503,-105.0058386
10263,Pecos Street,80260,39.8828561,-105.0058460
10233,Pecos Street,80260,39.8822052,-105.0058624
10113,Pecos Street,80260,39.8802944,-105.0058714
10133,Pecos Street,80260,39.8807190,-105.0058227
10153,Pecos Street,80260,39.8811430,-105.0058657
10143,Pecos Street,80260,39.8809352,-105.0058456
10053,Pecos Street,80260,39.8798508,-105.0058486
10163,Pecos Street,80260,39.8813560,-105.0058262
10003,Pecos Street,80260,39.8787958,-105.0058377
10123,Pecos Street,80260,39.8805117,-105.0058366
10043,Pecos Street,80260,39.8796566,-105.0058825
10033,Pecos Street,80260,39.8794410,-105.0058711
10063,Pecos Street,80260,39.8800824,-105.0058216
10023,Pecos Street,80260,39.8792162,-105.0058877
10013,Pecos Street,80260,39.8790146,-105.0058169
601,West 100th Place,80260,39.8801322,-104.9941366
10900,Huron Street,80234,39.8940073,-104.9956993
11355,York Street,80233,39.9025652,-104.9596891
11250,Huron Street,80234,39.9007362,-104.9961467
1300,Roseanna Drive,80234,39.8905486,-105.0042689
