House number,Street name,Postal code,Latitude,Longitude
1200,11th Street,98225,48.7207451,-122.5036387
2710,McKenzie Ave,98225,48.7189385,-122.4817200
310,North Samish Way,98225,48.7391026,-122.4694120
1078,Lakeway Drive,98229,48.7447247,-122.4611700
470,Bayview Drive,98225,48.7312368,-122.5030785
331,North State Street,98225,48.7391918,-122.4910350
1107,Railroad Avenue,98225,48.7475451,-122.4809619
1125,East Sunset Drive,98226,48.7737050,-122.4617950
1204,East Sunset Drive,98226,48.7720370,-122.4589650
1225,East Sunset Drive,98226,48.7729914,-122.4615083
156,East College Way,98225,48.7337429,-122.4858340
516,High Street,98225,48.7388665,-122.4865699
1701,Ellis Street,98225,48.7526441,-122.4724319
1312,Bay Street,98225,48.7514092,-122.4804662
308C,West Champion Street,98225,48.7519856,-122.4801479
306,West Champion Street,98225,48.7519858,-122.4800340
117,West Magnolia Street,98225,48.7512010,-122.4786280
114,West Magnolia Street,98225,48.7512629,-122.4781290
115,East Magnolia Street,98225,48.7503553,-122.4767580
220,Unity Street,98225,48.7536321,-122.4761330
118,West Holly Street,98225,48.7501482,-122.4794752
115,East Holly Street,98225,48.7493849,-122.4782800
1135,Railroad Avenue,98225,48.7480827,-122.4800730
100,East Chestnut Street,98225,48.7484993,-122.4806730
600,East Holly Street,98225,48.7459956,-122.4739980
1417,N State Street,98225,48.7501162,-122.4749725
189,East Bakerview Road,98226,48.7891930,-122.4840850
415,East Holly Street,98225,48.7474248,-122.4751700
310,Lakeway Drive,98225-5215,48.7446689,-122.4712344
1300,Ellis Street,98225,48.7451698,-122.4715055
1208,Bay Street,98225,48.7503143,-122.4820813
2330,Old Fairhaven Parkway,98225,48.7144880,-122.4866980
1308,11th Street,98225,48.7197688,-122.5036074
2410,James Street,98225,48.7621850,-122.4640440
3008,Cinema Place,98226,48.7700582,-122.4482731
3011,Cinema Place,98226,48.7706428,-122.4490790
1205,Washington Street,98225,48.7603634,-122.4881094
902,North State Street,98225,48.7442157,-122.4830564
2433,East Bakerview Road,98226,48.7889292,-122.4432483
2433,East Bakerview Road,98226,48.7891033,-122.4430444
1031,North Garden Street,98225,48.7450548,-122.4786323
1314,Harris Ave.,98225,48.7199205,-122.5000830
2238,James Street,98225,48.7601550,-122.4646304
1212,10th Street,98225,48.7202790,-122.5047270
4180,Cordata Parkway,98229-2877,48.7926939,-122.4892647
3004,Cinema Place,98226,48.7700418,-122.4484114
4173,Meridian Street,98226,48.7906650,-122.4881400
1225,East Sunset Drive,98226,48.7743339,-122.4606015
1001,East Sunset Drive,98226,48.7742510,-122.4632840
4260,Cordata Parkway,98226,48.7954746,-122.4910732
1204,East Sunset Drive,98226,48.7720140,-122.4592600
1308,Meador Avenue,98225,48.7530335,-122.4569856
4152,Meridian Street,98226,48.7920654,-122.4854553
3001,Cinema Place,98226,48.7700021,-122.4490970
3960,Meridian St,98226,48.7855539,-122.4822566
1145,East Sunset Drive,98226,48.7734630,-122.4608240
420,West Bakerview Road,98226,48.7899860,-122.4961340
1807,Dean Avenue,98225,48.7542625,-122.4741819
1420,King Street,98229,48.7473332,-122.4632586
900,Iowa St,98225,48.7561324,-122.4630397
514,Potter Street,98225,48.7465761,-122.4680615
517,Potter Street,98225,48.7468980,-122.4680460
709,Orchard Place,98225,48.7785986,-122.4809546
1275,East Sunset Drive,98226,48.7743772,-122.4585640
1115,East Sunset Drive,98226,48.7740924,-122.4620077
515,North Shore Drive,98266,48.7665090,-122.4138600
2034,James Street,98225,48.7573949,-122.4646000
1466,Electric Avenue,98229,48.7495659,-122.4249196
1480,Electric Avenue,98229,48.7498117,-122.4247908
1812,North State Street,98225,48.7538953,-122.4685170
3130,Squalicum Parkway,98225,48.7716390,-122.4692660
4,Bellis Fair Parkway,98226,48.7849439,-122.4897548
2301,James Street,98225,48.7605848,-122.4654153
2220,James Street,98225,48.7595807,-122.4646308
400,36th Street,98225,48.7305895,-122.4721230
1297,East Sunset Drive,98226,48.7732360,-122.4583850
2915,Newmarket Street,98226,48.7696091,-122.4437985
335,Harris Avenue,98225,48.7215719,-122.5128510
1313,East Maple Street,98225,48.7393169,-122.4686470
1329,Railroad Avenue,98225,48.7500027,-122.4772330
1204,Cornwall Avenue,98225,48.7488281,-122.4802900
1317,West Bakerview Road,98226,48.7885814,-122.5140750
1015,Harris Avenue,98225,48.7203054,-122.5037473
1007,Harris Avenue,98225,48.7202543,-122.5041009
1001,10th Street,98225,48.7202511,-122.5043432
1003,Harris Avenue,98225,48.7202525,-122.5043003
1005,Harris Avenue,98225,48.7202543,-122.5042031
1300,12th Street,98225,48.7199849,-122.5024850
1002,Harris Avenue,98225,48.7199836,-122.5042621
190,East Bakerview Road,98226,48.7899150,-122.4842660
1225,East Sunset Drive,98226,48.7743770,-122.4600290
4280,Meridian Street,98226,48.7959500,-122.4845980
2117,King Street,98225,48.7583772,-122.4641064
1211,North State Street,98225,48.7477478,-122.4784380
1228,North State Street,98225,48.7477601,-122.4777325
215,West Holly Street,98225,48.7507702,-122.4810115
1135,11th Street,98225,48.7213310,-122.5032060
510,East Sunset Drive,98225,48.7692910,-122.4696560
320,West Champion Street,98225,48.7520238,-122.4808340
1301,West Bakerview Road,98226,48.7893899,-122.5130382
2018,Iron Street,98226,48.7570556,-122.4661450
200,Bellis Fair Parkway,98226,48.7859413,-122.4887234
20,Bellis Fair Parkway,98226,48.7850852,-122.4927974
30,Bellis Fair Parkway,98226,48.7868746,-122.4932765
1919,Humboldt Street,98225,48.7556600,-122.4681030
4285,Meridian Street,98226,48.7967270,-122.4866640
446,High Street,98225,48.7372545,-122.4860781
215,West Holly Street,98225,48.7508200,-122.4811003
122,West Stuart Road,98226-8008,48.8008804,-122.4877317
114,West Stuart Road,98226,48.8011751,-122.4874530
108,West Stuart Road,98226,48.8013618,-122.4867810
3920,Meridian Street,98226,48.7855842,-122.4850156
833,North State Street,98225,48.7439538,-122.4839895
2430,Yew Street,98229,48.7625817,-122.4421845
2416,Yew Street,98229,48.7623162,-122.4421892
2400,Yew Street,98229,48.7620372,-122.4421800
2400,Yew Street,98229,48.7627112,-122.4421840
2420,Yew Street,98229,48.7624295,-122.4421847
2900,Woburn Street,98226,48.7692423,-122.4447135
119,North Commercial Street,98225,48.7523511,-122.4783115
217,Prospect Street,98225,48.7534602,-122.4812710
215,Prospect Street,98225,48.7533971,-122.4812680
1068,Lakeway Drive,98229,48.7442495,-122.4610750
1058,Lakeway Drive,98229,48.7440599,-122.4610780
1010,Lakeway Drive,98229,48.7435297,-122.4619910
1072,Lakeway Drive,98229,48.7443646,-122.4610743
1070,Lakeway Drive,98229,48.7443128,-122.4610749
1062,Lakeway Drive,98229,48.7441347,-122.4610770
1030,Lakeway Drive,98229,48.7437181,-122.4613610
1255,Barkley Boulevard,98226,48.7714730,-122.4589560
1700,West Illinois Street,98225,48.7684468,-122.4933292
150,East Bellis Fair Parkway,98226,48.7873077,-122.4838036
1828,Franklin Street,98225-4621,48.7547370,-122.4704970
455,Westerly Road,98226,48.7924540,-122.4946210
3863,Hannegan Road,98226,48.7883286,-122.4431592
4041,Home Road,98225,48.7876454,-122.5085620
750,Lakeway Drive,98229,48.7443757,-122.4648660
1155,East Sunset Drive,98226,48.7742436,-122.4608340
1806,Cornwall Avenue,98225,48.7542578,-122.4748636
794,Kentucky Street,98225,48.7576116,-122.4652168
1515,Birchwood Avenue,98225,48.7749612,-122.4924970
1001,Dupont Street,98225,48.7572531,-122.4847780
120,Prospect Street,98225,48.7527216,-122.4806560
1000,F Street,98225,48.7533589,-122.4894130
210,36th Street,98225,48.7326126,-122.4714921
224,36th Street,98225,48.7317650,-122.4715140
226,36th Street,98225,48.7315614,-122.4715562
230,36th Street,98225,48.7315611,-122.4717103
232,36th Street,98225,48.7315583,-122.4718170
234,36th Street,98225,48.7315408,-122.4719556
236,36th Street,98225,48.7315554,-122.4721145
302,36th Street,98225,48.7315496,-122.4723036
306,36th Street,98225,48.7315576,-122.4724770
318,36th Street,98225,48.7315535,-122.4726745
322,36th Street,98225,48.7314718,-122.4728570
324,36th Street,98225,48.7313462,-122.4729842
326,36th Street,98225,48.7312674,-122.4729869
328,36th Street,98225,48.7311480,-122.4729654
330,36th Street,98225,48.7310224,-122.4729748
336,36th Street,98225,48.7309428,-122.4729720
340,36th Street,98225,48.7308596,-122.4729627
342,36th Street,98225,48.7307995,-122.4729627
356,36th Street,98225,48.7307004,-122.4729145
402,36th Street,98225,48.7306624,-122.4718054
404,36th Street,98225,48.7306606,-122.4716578
1400,West Holly Street,98225,48.7574591,-122.4907130
1225,West Bakerview Road,98229,48.7887951,-122.5107739
501,Harris Avenue,98225,48.7202866,-122.5104202
112,Grand Avenue,98225,48.7524754,-122.4793397
187,Telegraph Road,98226,48.7836376,-122.4847884
414,West Bakerview Road,98226,48.7900845,-122.4949108
11,Bellwether Way,98225,48.7544618,-122.4966870
400,West Holly Street,98225,48.7521516,-122.4821087
200,East Chestnut Street,98225,48.7477643,-122.4795015
202,East Holly Street,98225,48.7486008,-122.4784575
209,East Chestnut Street,98225,48.7478687,-122.4790820
1235,Cornwall Avenue,98225,48.7497440,-122.4795690
105,South Samish Way,98225,48.7352937,-122.4693894
422,Bellis Fair Parkway,98226,48.7856162,-122.4908250
330,Bellis Fair Parkway,98226,48.7858755,-122.4907190
532,Bellis Fair Parkway,98226,48.7853491,-122.4888764
406,Bellis Fair Parkway,98226,48.7856654,-122.4900130
338,Bellis Fair Parkway,98226,48.7858478,-122.4909810
111,Bellis Fair Parkway,98226,48.7863425,-122.4892651
362,Bellis Fair Parkway,98226,48.7859530,-122.4922829
212,Bellis Fair Parkway,98226,48.7859041,-122.4893920
110,Bellis Fair Parkway,98226,48.7863892,-122.4891940
414,Bellis Fair Parkway,98226,48.7856756,-122.4903493
402,Bellis Fair Parkway,98226,48.7855054,-122.4898137
100,Bellis Fair Parkway,98226,48.7865571,-122.4888890
332,Bellis Fair Parkway,98226,48.7859357,-122.4908860
328,Bellis Fair Parkway,98226,48.7859439,-122.4906341
316,Bellis Fair Parkway,98226,48.7861294,-122.4903520
214,Bellis Fair Parkway,98226,48.7858588,-122.4894993
601,Bellis Fair Parkway,98226,48.7852489,-122.4912360
350,Bellis Fair Parkway,98226,48.7858154,-122.4915830
222,Bellis Fair Parkway,98226,48.7856421,-122.4895120
1,Bellis Fair Parkway,98226,48.7859605,-122.4902417
216,Bellis Fair Parkway,98226,48.7858000,-122.4895760
8,Bellis Fair Parkway,98226,48.7850648,-122.4902388
400,Bellis Fair Parkway,98226,48.7854395,-122.4897447
368,Bellis Fair Parkway,98226,48.7861388,-122.4925750
206,Bellis Fair Parkway,98226,48.7860003,-122.4891440
442,Bellis Fair Parkway,98226,48.7850746,-122.4908294
322,Bellis Fair Parkway,98226,48.7858980,-122.4902981
436,Bellis Fair Parkway,98226,48.7854442,-122.4909108
520,Bellis Fair Parkway,98226,48.7854516,-122.4893074
6,Bellis Fair Parkway,98226,48.7849530,-122.4899900
518,Bellis Fair Parkway,98226,48.7854941,-122.4893687
500,Bellis Fair Parkway,98226,48.7850387,-122.4896409
504,Bellis Fair Parkway,98226,48.7851218,-122.4896150
508,Bellis Fair Parkway,98226,48.7851931,-122.4895995
512,Bellis Fair Parkway,98226,48.7852504,-122.4895777
514,Bellis Fair Parkway,98226,48.7853028,-122.4895580
522,Bellis Fair Parkway,98226,48.7854081,-122.4890023
521,Bellis Fair Parkway,98226,48.7854568,-122.4891010
113,Bellis Fair Parkway,98226,48.7862789,-122.4894106
441,Bellis Fair Parkway,98226,48.7851398,-122.4908386
438,Bellis Fair Parkway,98226,48.7852494,-122.4908546
1,Bellis Fair Parkway,98226,48.7865554,-122.4903109
602,Bellis Fair Parkway,98226,48.7853566,-122.4912970
408,Bellis Fair Parkway,98226,48.7856973,-122.4901402
324,Bellis Fair Parkway,98226,48.7859230,-122.4904162
2612,Maplewood Avenue,98226,48.7759274,-122.4984818
221,West Holly Street,98225,48.7509116,-122.4812179
1110,14th Street,98225,48.7221922,-122.5001785
1408,Commercial Street,98225,48.7516461,-122.4780542
2500,Cedarwood Avenue,98225,48.7737521,-122.4966519
505,32nd St,98225,48.7297252,-122.4750010
3002,Old Fairhaven Pkwy,98225,48.7142885,-122.4777344
1602,12th St,98225,48.7173990,-122.5024720
1715,N State St,98225-4604,48.7535860,-122.4698140
2418,Alabama Street,98226-3955,48.7628112,-122.4416250
1208,E Sunset Dr,98226-3505,48.7725691,-122.4585239
2200,E Bakerview Rd,98226,48.7897663,-122.4484625
4046,Irongate Road,98226,48.7889620,-122.4529242
2730,Meridian St,98225,48.7666756,-122.4858844
2604,Meridian St,98225-2409,48.7646054,-122.4857545
1480,Electric Ave,98229-2482,48.7498175,-122.4251290
541,East Kellogg Road,98226,48.7950672,-122.4745716
3102,Newmarket Street,98226,48.7714968,-122.4433207
1401,Iowa Street,98229,48.7566650,-122.4559430
1407,Iowa Street,98229,48.7566587,-122.4557570
1507,Iowa Street,98229,48.7567541,-122.4544952
1511,Iowa Street,98229,48.7567538,-122.4542408
1515,Iowa Street,98229,48.7567301,-122.4537778
2101,Iowa Street,98229,48.7565840,-122.4464415
2111,Iowa Street,98229,48.7568491,-122.4457500
1615,Iowa Street,98229,48.7569086,-122.4521362
1907,Iowa Street,98229,48.7567528,-122.4491067
1307,Cornwall Avenue,98225,48.7501099,-122.4789766
1319,Commercial Street,98225,48.7511216,-122.4795214
1323,Cornwall Avenue,98225,48.7505250,-122.4783568
2915,Newmarket Street,98226,48.7697881,-122.4437310
2925,Newmarket Street,98226,48.7699375,-122.4438950
4040,Northwest Drive,98226,48.7884306,-122.5058380
1200,Harris Avenue,98225,48.7199401,-122.5020630
104,East Maple Street,98225,48.7473053,-122.4820921
110,West Stuart Road,98226,48.8013470,-122.4871280
120,West Stuart Road,98226,48.8010000,-122.4876000
131,West Kellogg Road,98226,48.7949100,-122.4873391
115,West Kellogg Road,98226,48.7949099,-122.4868878
800,Alabama Street,98225,48.7628438,-122.4646710
410,West Bakerview Road,98226,48.7908772,-122.4944498
4260,Cordata Parkway,98226,48.7954822,-122.4911979
218,North Samish Way,98225,48.7381072,-122.4696689
205,Prospect Street,98225,48.7531258,-122.4819320
114,Prospect Street,98225,48.7524875,-122.4807188
3111,Newmarket Street,98226,48.7719244,-122.4437473
115,North Samish Way,98225,48.7362756,-122.4707306
111,North Samish Way,98225,48.7361391,-122.4707366
1305,Cornwall Avenue,98225,48.7500539,-122.4790602
1309,Railroad Avenue,98225,48.7495497,-122.4779038
1800,C Street,98225,48.7558691,-122.4818072
1317,North State Street,98225,48.7490993,-122.4764702
1315,North State Street,98225,48.7489843,-122.4766043
1300,Railroad Avenue,98225,48.7491030,-122.4776282
133,East Holly Street,98225,48.7493413,-122.4782090
1308,Railroad Avenue,98225,48.7492342,-122.4774206
1303,Railroad Avenue,98225,48.7494385,-122.4780707
1305,Railroad Avenue,98225,48.7494621,-122.4780349
1311,Railroad Avenue,98225,48.7496017,-122.4778207
1313,Railroad Avenue,98225,48.7496455,-122.4777517
1317,Railroad Avenue,98225,48.7497240,-122.4776424
1321,Railroad Avenue,98225,48.7497669,-122.4775756
1319,Railroad Avenue,98225,48.7498169,-122.4775017
1323,Railroad Avenue,98225,48.7498785,-122.4774066
1333,Railroad Avenue,98225,48.7500301,-122.4771918
1335,Railroad Avenue,98225,48.7500545,-122.4771511
122,East Magnolia Street,98225,48.7501411,-122.4770140
206,East Magnolia Street,98225,48.7497193,-122.4763685
1401,North State Street,98225,48.7498231,-122.4758494
1314,North State Street,98225,48.7487903,-122.4762141
1310,North State Street,98225,48.7486771,-122.4763939
201,East Chestnut Street,98225,48.7480194,-122.4792958
1202,Railroad Avenue,98225,48.7480689,-122.4792204
1204,Railroad Avenue,98225,48.7481309,-122.4791240
1204,Railroad Avenue,98225,48.7481828,-122.4790447
1424,Cornwall Avenue,98225,48.7513799,-122.4764430
1022,Lakeway Drive,98229,48.7436521,-122.4617980
119,North Commercial Street,98225-4447,48.7527679,-122.4783202
1101,Harris Avenue,98225,48.7202692,-122.5031617
810,Alabama Street,98225,48.7627644,-122.4640243
1050,Larrabee Avenue,98225,48.7181340,-122.5034010
306,Flora Street,98225,48.7530155,-122.4801418
314,West Holly Street,98225,48.7517112,-122.4818807
1230,Bay Street,98225,48.7507873,-122.4813957
800,Harris Avenue,98225,48.7199546,-122.5062400
1322,North State Street,98225,48.7489631,-122.4759362
405,East Holly Street,98225,48.7478352,-122.4755791
202,Grand Avenue,98225,48.7531301,-122.4793810
2012,North State Street,98225,48.7561965,-122.4653150
2012,North State Street,98225,48.7562187,-122.4651113
109,Prospect Street,98225,48.7522984,-122.4812530
1303,12th Street,98225,48.7198261,-122.5020628
1121,McKenzie Avenue,98225,48.7196243,-122.5026650
1421,North Forest Street,98225,48.7495315,-122.4737503
1429,North Forest Street,98225,48.7497146,-122.4734037
232,East Champion Street,98225,48.7504438,-122.4744212
1313,East Maple Street,98225,48.7391876,-122.4688490
2,Prospect Street,98225,48.7510496,-122.4808617
1318,12th Street,98225,48.7195004,-122.5024196
1216,Harris Avenue,98225,48.7199972,-122.5016870
3212,Northwest Ave,98225,48.7749238,-122.4960430
4050,Northwest Avenue,98226,48.7887558,-122.5063230
805,Home Lane,98226,48.7867364,-122.5071140
1650,Birchwood Avenue,98225,48.7751805,-122.4954348
1327,Railroad Avenue,98225,48.7499366,-122.4773220
365,Harris Avenue,98225,48.7221465,-122.5107746
2000,West Marine View Drive,98207,48.7219344,-122.5106279
2465,Lakeway Drive,98229,48.7461626,-122.4421663
400,West Bakerview Road,98226,48.7900663,-122.4940429
2010,Iowa Street,98226,48.7558032,-122.4475380
1505,North State Street,98225,48.7509403,-122.4736940
1148,10th Street,98225,48.7212588,-122.5049027
1021,Harris Avenue,98225,48.7203045,-122.5036578
4729,Spring Vista Way,98226,48.8141928,-122.4992386
1211,Granary Avenue,98225,48.7516702,-122.4841904
1506,Iowa Street,98229,48.7562431,-122.4547281
21,Bellwether Way,98225,48.7553115,-122.4953980
105,East Chestnut Street,98225,48.7486356,-122.4802835
1200,Cornwall Avenue,98225,48.7487342,-122.4803920
700,Ohio Street,98225,48.7548187,-122.4660013
1842,Iron Street,98225,48.7545287,-122.4660227
714,Ohio Street,98225-4236,48.7548279,-122.4654263
2200,Rimland Drive,98226,48.7729886,-122.4450498
714,Lakeway Drive,98229,48.7433414,-122.4659112
1125,East Sunset Drive,98226,48.7733781,-122.4618050
424,West Bakerview Road,98226,48.7902662,-122.4966532
1317,West Bakerview Road,98226,48.7885805,-122.5139700
3930,Meridian Street,98226,48.7855703,-122.4837487
315,Lakeway Drive,98225,48.7452908,-122.4711502
109,Grand Avenue,98225,48.7523452,-122.4797893
1140,10th Street,98225,48.7210851,-122.5049942
103,East Holly Street,98225,48.7497119,-122.4788050
114,West Magnolia Street,98225,48.7515886,-122.4772731
101,Prospect Street,98225,48.7520744,-122.4818600
103,Grand Avenue,98225,48.7520602,-122.4797825
1155,East Sunset Drive,98226,48.7739903,-122.4612390
1054,Lakeway Drive,98229,48.7439850,-122.4610789
1050,Lakeway Drive,98229,48.7439272,-122.4610796
1046,Lakeway Drive,98229,48.7438508,-122.4610805
1066,Lakeway Drive,98229,48.7441908,-122.4610764
1251,Lincoln Street,98229,48.7419552,-122.4637430
806,Lakeway Drive,98229,48.7436641,-122.4638441
1251,Lincoln Street,98229,48.7418840,-122.4637700
2118,James Street,98225,48.7583693,-122.4646000
2136,James Street,98225,48.7589223,-122.4646150
2134,James Street,98225,48.7588124,-122.4646210
2124,James Street,98225,48.7586006,-122.4646190
2122,James Street,98225,48.7584926,-122.4646090
3410,Woburn Street,98226,48.7751242,-122.4450270
2955,Newmarket Street,98226,48.7707588,-122.4438050
2945,Newmarket Street,98226,48.7703800,-122.4438180
2930,Newmarket Street,98226,48.7700444,-122.4433510
2940,Newmarket Street,98226,48.7704928,-122.4433500
2950,Newmarket Street,98226,48.7707681,-122.4433410
2945,Newmarket Street,98226,48.7705972,-122.4437470
2925,Newmarket Street,98226,48.7701504,-122.4437270
3011,Cinema Place,98226,48.7705375,-122.4491225
2930,Newmarket Street,98226,48.7697400,-122.4433230
2915,Newmarket Street,98226,48.7696555,-122.4437310
2925,Newmarket Street,98226,48.7701549,-122.4439010
2925,Newmarket Street,98226,48.7700447,-122.4437240
2940,Newmarket Street,98226,48.7705937,-122.4433580
2940,Newmarket Street,98226,48.7703874,-122.4433450
2950,Newmarket Street,98226,48.7709682,-122.4433530
2955,Newmarket Street,98226,48.7709399,-122.4438080
2930,Newmarket Street,98226,48.7701404,-122.4433440
716,Alabama Street,98225,48.7627645,-122.4652880
1530,North State Street,98225,48.7510429,-122.4726620
1704,North State Street,98225,48.7526410,-122.4705050
2311,James Street,98225,48.7607216,-122.4654149
2317,James Street,98225,48.7609888,-122.4654143
2315,James Street,98225,48.7608631,-122.4654146
1251,Lincoln Street,98229,48.7420381,-122.4637150
1145,East Sunset Drive,98226,48.7733520,-122.4607250
1225,East Sunset Drive,98226,48.7743866,-122.4604651
1225,East Sunset Drive,98226,48.7743391,-122.4592073
1225,East Sunset Drive,98226,48.7743371,-122.4594375
1225,East Sunset Drive,98226,48.7743439,-122.4596157
1225,East Sunset Drive,98226,48.7743420,-122.4595400
1225,East Sunset Drive,98226,48.7743616,-122.4605251
1225,East Sunset Drive,98226,48.7743455,-122.4596900
1125,East Sunset Drive,98226,48.7738337,-122.4614240
1145,East Sunset Drive,98226,48.7737855,-122.4611000
1145,East Sunset Drive,98226,48.7731570,-122.4605630
1295,East Sunset Drive,98226,48.7729460,-122.4595760
1065,East Sunset Drive,98226,48.7720445,-122.4626660
2201,Cornwall Avenue,98225,48.7592261,-122.4754058
1430,Cornwall Avenue,98225,48.7513802,-122.4761740
1820,Cornwall Avenue,98225,48.7546850,-122.4747528
1420,Cornwall Avenue,98225,48.7512946,-122.4765711
1523,Cornwall Avenue,98225,48.7526551,-122.4755427
1500,Cornwall Avenue,98225,48.7517634,-122.4755890
1300,Lakeway Drive,98229,48.7445629,-122.4582724
1310,Lakeway Drive,98229,48.7445605,-122.4579594
1306,Lakeway Drive,98229,48.7445614,-122.4580814
1821,Cornwall Avenue,98225,48.7547511,-122.4759650
108,Ohio Street,98225,48.7549740,-122.4745870
104,Ohio Street,98225,48.7549035,-122.4746876
102,Ohio Street,98225,48.7549030,-122.4748195
1415,Cornwall Avenue,98225,48.7514108,-122.4770372
113,East Magnolia Street,98225,48.7504645,-122.4768810
1417,Cornwall Avenue,98225,48.7514628,-122.4769588
118,East Magnolia Street,98225,48.7501782,-122.4770710
128,East Holly Street,98225,48.7492176,-122.4786420
1825,Ellis Street,98225,48.7547219,-122.4728242
1275,East Sunset Drive,98226,48.7742871,-122.4581890
2900,Woburn Street,98226,48.7690346,-122.4445860
1275,East Sunset Drive,98226,48.7742620,-122.4585600
1275,East Sunset Drive,98226,48.7746395,-122.4585310
3800,Byron Avenue,98229,48.7333942,-122.4655160
3800,Byron Avenue,98229,48.7332764,-122.4662510
3800,Byron Avenue,98229,48.7332166,-122.4662760
3800,Byron Avenue,98229,48.7331072,-122.4663220
3800,Byron Avenue,98229,48.7330088,-122.4663720
3800,Byron Avenue,98229,48.7333781,-122.4661080
3800,Byron Avenue,98229,48.7333797,-122.4659640
3800,Byron Avenue,98229,48.7333846,-122.4657050
800,Lakeway Drive,98229,48.7429302,-122.4641720
800,Lakeway Drive,98229,48.7434389,-122.4639750
3110,Woburn Street,98226,48.7720362,-122.4450125
205,North Commercial Street,98225,48.7531694,-122.4783863
114,East Magnolia Street,98225,48.7502084,-122.4771190
104,North Commercial Street,98225,48.7523053,-122.4777251
1100,Lakeway Drive,98229,48.7446787,-122.4608544
1208,East Maple Street,98225,48.7400908,-122.4708655
702,Kentucky Street,98225,48.7576102,-122.4655118
211,East Chestnut Street,98225,48.7477639,-122.4787877
1209,North State Street,98225,48.7477138,-122.4784928
3206,Orleans Street,98226,48.7741174,-122.4571650
3206,Orleans Street,98226,48.7740695,-122.4571590
1224,Cornwall Avenue,98225,48.7490985,-122.4795962
1419,Cornwall Avenue,98225,48.7515190,-122.4768740
1521,Cornwall Avenue,98225,48.7525968,-122.4755805
1801,Cornwall Avenue,98225,48.7541434,-122.4754990
116,North Samish Way,98225,48.7365304,-122.4690195
2200,Rimland Drive,98226,48.7727915,-122.4444120
2200,Rimland Drive,98226,48.7727844,-122.4446580
2200,Rimland Drive,98226,48.7729863,-122.4444140
2200,Rimland Drive,98226,48.7729940,-122.4446574
2211,Rimland Drive,98226,48.7733665,-122.4442414
1070,East Sunset Drive,98226,48.7716133,-122.4603561
1070,East Sunset Drive,98226,48.7714699,-122.4604599
1300,East Sunset Drive,98226-5637,48.7731922,-122.4570814
1075,East Sunset Drive,98226,48.7722057,-122.4614160
1999,Iowa Street,98229,48.7566206,-122.4486543
2001,Iowa Street,98229,48.7567130,-122.4484501
2001,Iowa Street,98229,48.7567170,-122.4482490
2012,King Street,98225,48.7568943,-122.4631008
2034,James Street,98225,48.7574544,-122.4641251
1100,North State Street,98225,48.7464651,-122.4794843
3225,Woburn Street,98226,48.7738294,-122.4480220
3108,Newmarket Street,98226,48.7718502,-122.4433107
3114,Newmarket Street,98226,48.7720957,-122.4433037
3112,Newmarket Street,98226,48.7719495,-122.4433079
2900,Woburn Street,98226,48.7692424,-122.4443404
1201,Cornwall Avenue,98225,48.7489695,-122.4807333
227,Prospect Street,98225,48.7535872,-122.4813472
1215,Cornwall Avenue,98225,48.7493717,-122.4801085
200,West Chestnut Street,98225,48.7497267,-122.4817834
1211,Granary Avenue,98225-3089,48.7513640,-122.4843653
19,Prospect Street,98225,48.7517620,-122.4814110
1211,Granary Avenue,98225,48.7517076,-122.4841290
1211,Granary Avenue,98225-3089,48.7514086,-122.4840296
1211,Granary Avenue,98225-3089,48.7515003,-122.4839161
1121,Granary Avenue,98225-3089,48.7516234,-122.4839965
1211,Granary Avenue,98225-3089,48.7515259,-122.4838780
1211,Granary Avenue,98225-3089,48.7515468,-122.4838460
306,West Holly Street,98225,48.7514646,-122.4814820
207,East Maple Street,98225,48.7469020,-122.4805653
1627,Valencia Street,98229,48.7518371,-122.4477000
1821,Valencia Street,98229,48.7539704,-122.4480375
1408,Cornwall Avenue,98225,48.7510217,-122.4769809
813,Lakeway Drive,98226,48.7452865,-122.4643569
813,Lakeway Drive,98226,48.7452089,-122.4642363
100,Central Avenue,98225,48.7540403,-122.4772560
1500,Railroad Avenue,98225,48.7514389,-122.4742474
1901,King St,98225-4236,48.7554442,-122.4639291
1901,King Street,98225-4236,48.7555032,-122.4639730
1427,Railroad Avenue,98225,48.7509998,-122.4758015
205,East Magnolia Street,98225,48.7500539,-122.4761395
2900,Meridian Street,98225,48.7684492,-122.4856211
308,West Champion Street,98225,48.7519613,-122.4802250
200,Prospect Street,98225,48.7530580,-122.4806828
205,Prospect Street,98225,48.7531191,-122.4812382
207,Prospect Street,98225,48.7531824,-122.4812391
120,Grand Avenue,98225,48.7527560,-122.4793409
118,Grand Avenue,98225,48.7526802,-122.4793406
112,Grand Avenue,98225,48.7524163,-122.4793395
1329,Lincoln Street,98229,48.7459716,-122.4629515
116,Grand Avenue,98225,48.7525865,-122.4793402
310,Flora Street,98225,48.7531323,-122.4801710
"218,220,222",Flora Street,98225,48.7529641,-122.4786820
216,Flora Street,98225,48.7529646,-122.4785930
"208,210",Flora Street,98225,48.7529648,-122.4785540
212,Flora Street,98225,48.7529647,-122.4785730
206,Flora Street,98225,48.7529649,-122.4785350
203,North Commercial Street,98225,48.7530535,-122.4782320
200,Flora Street,98225,48.7530225,-122.4782310
201,North Commercial Street,98225,48.7530060,-122.4782310
200,Flora Street,98225,48.7529731,-122.4784450
1505,North Forest Street,98225,48.7500736,-122.4728262
930,North State Street,98225,48.7445226,-122.4824885
2219,Rimland Drive,98226,48.7735478,-122.4428530
2120,Grant Street,98225,48.7582963,-122.4688362
1323,11th Street,98225,48.7195032,-122.5032060
205,Grand Avenue,98225,48.7531489,-122.4799486
1811,Iowa Street,98229,48.7566525,-122.4496940
119,North Commercial Street,98225,48.7525869,-122.4783164
112,Prospect Street,98225,48.7524251,-122.4807184
110,Prospect Street,98225,48.7523484,-122.4807180
108,Prospect Street,98225,48.7522504,-122.4807174
316,West Champion Street,98225,48.7519847,-122.4806464
312,West Champion Street,98225,48.7519850,-122.4804890
310,West Champion Street,98225,48.7519851,-122.4804205
314,West Champion Street,98225,48.7519849,-122.4805696
300,West Champion Street,98225,48.7519863,-122.4797808
109,Grand Avenue,98225,48.7522756,-122.4797876
119,Grand Avenue,98225,48.7525476,-122.4799320
119,Grand Avenue,98225,48.7526218,-122.4799320
119,Grand Avenue,98225,48.7526847,-122.4799321
119,Grand Avenue,98225,48.7527522,-122.4799321
305,Flora Street,98225,48.7527527,-122.4800514
1401,Commercial Street,98225,48.7517078,-122.4787400
104,Prospect Street,98225,48.7521360,-122.4807167
113,Grand Avenue,98225,48.7524497,-122.4797918
1401,Commercial Street,98225,48.7517613,-122.4787177
1418,Cornwall Avenue,98225,48.7512346,-122.4766733
500,Kentucky Street,98225,48.7571601,-122.4680857
500,Kentucky Street,98225,48.7574788,-122.4688690
1252,Ellis Street,98225,48.7444791,-122.4714844
800,Lakeway Drive,98229,48.7432484,-122.4639820
1810,Cornwall Avenue,98225,48.7543926,-122.4748610
314,West Holly Street,98225,48.7516681,-122.4818111
954,North State Street,98225,48.7451596,-122.4816210
296,West Laurel Street,98225,48.7483613,-122.4857560
296,West Laurel Street,98225,48.7484042,-122.4853970
296,West Laurel Street,98225,48.7482942,-122.4854600
296,West Laurel Street,98225,48.7484955,-122.4859120
296,West Laurel Street,98225,48.7485722,-122.4854790
296,West Laurel Street,98225,48.7482546,-122.4856050
335,Ohio Street,98225,48.7554506,-122.4713233
345,Ohio Street,98225,48.7554508,-122.4711542
355,Ohio Street,98225,48.7554511,-122.4709907
1814,Cornwall Avenue,98225,48.7544826,-122.4748603
1812,Cornwall Avenue,98225,48.7544857,-122.4745419
310,West Holly Street,98225,48.7515910,-122.4816864
13,Prospect Street,98225,48.7516459,-122.4812396
101,Pine Street,98225,48.7425839,-122.4892458
619,Cornwall Avenue,98225,48.7432338,-122.4897368
1323,Lincoln Street,98229,48.7456964,-122.4629065
1325,Lincoln Street,98229,48.7458717,-122.4629629
1337,Lincoln Street,98229,48.7461949,-122.4629474
1470,Electric Avenue,98229,48.7496481,-122.4248542
1301,Commercial Street,98225,48.7507141,-122.4801272
511,High Street,98225,48.7385937,-122.4861402
1409,Cornwall Avenue,98225,48.7513051,-122.4771966
1302,Commercial Street,98225,48.7505424,-122.4797215
109,West Magnolia Street,98225,48.7510772,-122.4783776
115,West Magnolia Street,98225,48.7511664,-122.4785148
113,West Magnolia Street,98225,48.7510906,-122.4784687
1311,Cornwall Avenue,98225,48.7502288,-122.4787991
113,West Magnolia Street,98225,48.7511189,-122.4784417
120,West Holly Street,98225,48.7502880,-122.4795609
1319,Cornwall Avenue,98225,48.7503874,-122.4785622
1519,Cornwall Avenue,98225,48.7525410,-122.4756167
1515,Cornwall Avenue,98225,48.7523975,-122.4757249
110,Unity Street,98225,48.7526420,-122.4764667
1411,Cornwall Avenue,98225,48.7513409,-122.4771427
1219,Cornwall Avenue,98225,48.7494280,-122.4800211
1215,Cornwall Avenue,98225,48.7493274,-122.4801774
107,West Holly Street,98225,48.7498758,-122.4796264
2032,East Illinois Street,98226,48.7679448,-122.4471060
2849,Valencia Street,98226,48.7678556,-122.4469630
2850,Verona Street,98226,48.7678586,-122.4477772
2020,East Illinois Street,98226,48.7679487,-122.4476338
2121,Humboldt Street,98225,48.7584780,-122.4681164
2121,Humboldt Street,98225,48.7584867,-122.4683157
3212,Northwest Avenue,98225,48.7750458,-122.4961515
1,Bellis Fair Parkway,98226,48.7860124,-122.4929136
40,Bellis Fair Parkway,98226,48.7868506,-122.4906980
24,Bellis Fair Parkway,98226,48.7851243,-122.4935945
2828,Northwest Avenue,98225,48.7680359,-122.4907157
2716,Meridian Street,98225,48.7663591,-122.4857442
2604,Meridian Street,98225,48.7648732,-122.4858691
1910,Broadway,98225,48.7610656,-122.4861445
2406,Meridian Street,98225,48.7621737,-122.4859234
2405,Meridian Street,98225,48.7620241,-122.4864097
2829,Meridian Street,98225,48.7678904,-122.4863646
1538,Birchwood Avenue,98225,48.7754322,-122.4946389
4131,Meridian Street,98226,48.7904254,-122.4896641
4229,Meridian Street,98226,48.7946783,-122.4865375
4321,Meridian Street,98226,48.7986533,-122.4887090
4265,Meridian Street,98226,48.7958837,-122.4883195
145,Samish Way,98225,48.7339183,-122.4694989
3123,Old Fairhaven Parkway,98225,48.7152262,-122.4766885
333,North Samish Way,98225,48.7390796,-122.4701060
3105,Old Fairhaven Parkway,98225,48.7148057,-122.4777225
3125,Old Fairhaven Parkway,98225,48.7152217,-122.4764429
112,Samish Way,98225,48.7343381,-122.4704381
2219,Douglas Avenue,98225,48.7239802,-122.4879324
1305,Fraser Street,98225,48.7521908,-122.4570511
1200,Harris Avenue,98225,48.7199817,-122.5019880
302,West Champion Street,98225,48.7519830,-122.4798945
4220,Meridian Street,98226,48.7945337,-122.4855006
4220,Meridian Street,98226,48.7944529,-122.4854988
4204,Meridian Street,98226,48.7941352,-122.4852674
4220,Meridian Street,98226,48.7943607,-122.4855109
4220,Meridian Street,98226,48.7943550,-122.4853399
4303,Guide Meridian,98226,48.7981923,-122.4864630
1344,King Street,98229,48.7463802,-122.4635000
1217,Harris Avenue,98225,48.7207078,-122.5013748
1225,Harris Avenue,98225,48.7203826,-122.5013749
1225,Roeder Avenue,98225,48.7557670,-122.4906708
4329,Meridian Street,98226,48.7989307,-122.4894638
1513,12th Street,98225,48.7180023,-122.5019236
1125,Finnegan Way,98225,48.7212154,-122.5020371
800,McKenzie Avenue,98225,48.7189585,-122.5064325
23,Bellwether Way,98225,48.7556372,-122.4946038
2129,Xenia Street,98229,48.7585402,-122.4442295
2127,West Xenia Lane,98229,48.7585416,-122.4444703
2133,West Xenia Lane,98229,48.7587053,-122.4444734
2135,Xenia Street,98229,48.7587039,-122.4442326
2139,West Xenia Lane,98229,48.7588718,-122.4444717
2141,Xenia Street,98229,48.7588705,-122.4442309
2203,West Xenia Lane,98229,48.7590350,-122.4444760
2205,Xenia Street,98229,48.7590337,-122.4442352
121,Prospect Street,98225,48.7526481,-122.4812982
1309,Cornwall Avenue,98225,48.7503058,-122.4789895
240,36th Street,98225,48.7315541,-122.4722103
1327,North State Street,98225,48.7493056,-122.4762053
1025,Pasco Street,98225,48.7389594,-122.4692692
2001,Grant Street,98225,48.7566109,-122.4695305
1900,D Street,98225,48.7572364,-122.4811151
2219,Rimland Drive,98226,48.7733400,-122.4425101
340-342,36th Street,98225,48.7307330,-122.4711511
2219,Rimland Drive,98226,48.7733519,-122.4424524
1300,West Holly Street,98225,48.7571192,-122.4899376
2219,Rimland Drive,98226,48.7734373,-122.4425032
2227,Queen Street,98229,48.7600411,-122.4552344
1100,Granary Avenue,98225,48.7494674,-122.4856443
3001,Squalicum Parkway,98225,48.7725957,-122.4716531
770,East Holly Street,98225,48.7449474,-122.4724162
1,Bellis Fair Parkway,98226,48.7860239,-122.4906647
364,High Street,98225,48.7366265,-122.4859808
439,High Street,98225,48.7373701,-122.4849770
488,High Street,98225,48.7377816,-122.4858311
516,High Street,98225,48.7379181,-122.4840643
446,High Street,98225,48.7373620,-122.4863304
344,High Street,98225,48.7360053,-122.4864841
319,High Street,98225,48.7354369,-122.4852538
800,Lakeway Drive,98229,48.7435537,-122.4644486
800,Lincoln Street,98229,48.7349283,-122.4654417
2235,Verona Street,98229,48.7600455,-122.4494521
500,West Holly Street,98225,48.7541411,-122.4828205
2301,Cornwall Avenue,98225,48.7610738,-122.4754549
329,High Street,98225,48.7358462,-122.4852816
3904,Meridian Street,98226-5519,48.7850646,-122.4856421
516,High Street,98225,48.7338842,-122.4860908
3016,Lindbergh Ave.,98225,48.7654821,-122.5120777
2900,Yew Street,98226,48.7683086,-122.4427426
2900,Woburn Street,98226,48.7690038,-122.4445755
121,Prospect Street,98225,48.7526453,-122.4813733
514,West Holly Street,98225,48.7529495,-122.4836487
201,Prospect Street,98225,48.7528777,-122.4815847
101,Prospect Street,98225,48.7521679,-122.4815676
221,Prospect Street,98225,48.7536225,-122.4814100
1220,North Forest Street,98225,48.7473083,-122.4762176
1069,East Sunset Drive,98226,48.7718462,-122.4621796
3225,Woburn Street,98226,48.7732831,-122.4471792
1055,East Sunset Drive,98225,48.7727814,-122.4628058
4281,Meridian Street,98226,48.7963364,-122.4893858
4299,Meridian Street,98226-6475,48.7983618,-122.4893110
4420,Meridian Street,98226,48.8015391,-122.4820735
2800,James Street,98225-2698,48.7674499,-122.4639162
1050,East Sunset Drive,98226,48.7703322,-122.4614249
1000,East Sunset Drive,98226,48.7713296,-122.4612103
1070,East Sunset Drive,98226,48.7716041,-122.4603464
1120,Barkley Boulevard,98226,48.7712983,-122.4600126
2940,Newmarket Street,98226,48.7705100,-122.4432741
2945,Newmarket Street,98226,48.7705091,-122.4438198
2925,Newmarket Street,98226,48.7700581,-122.4438178
2955,Newmarket Street,98226,48.7708761,-122.4438133
2915,Newmarket Street,98226,48.7696899,-122.4438193
2950,Newmarket Street,98226,48.7709212,-122.4432725
2930,Newmarket Street,98226,48.7699269,-122.4432666
3101,Woburn Street,98226,48.7713025,-122.4458179
2122,Barkley Boulevard,98226,48.7708863,-122.4458579
3100,Woburn Street,98226,48.7714206,-122.4449043
2200,Rimland Drive,98226,48.7728926,-122.4447316
2415,Rimland Drive,98226,48.7736739,-122.4413105
3410,Woburn Street,98226,48.7751418,-122.4449561
3110,Woburn Street,98226,48.7719618,-122.4449486
1125,East Sunset Drive,98226,48.7735656,-122.4616297
1275,East Sunset Drive,98226,48.7745421,-122.4585355
1115,East Sunset Drive,98226,48.7742468,-122.4616917
1263,Barkley Boulevard,98226,48.7714020,-122.4580840
1065,East Sunset Drive,98226,48.7720293,-122.4626718
1185,East Sunset Drive,98226,48.7723623,-122.4608988
1189,East Sunset Drive,98226,48.7726529,-122.4604138
1301,E Sunset Dr,98226,48.7738023,-122.4568644
1255,Barkley Boulevard,98226,48.7716608,-122.4586836
3150,Orleans Street,98226,48.7727579,-122.4565508
1295,East Sunset Drive,98226,48.7729584,-122.4595665
1555,Puget Street,98229,48.7491438,-122.4561949
4295,Meridian Street,98226,48.7971839,-122.4894889
3920,Meridian Street,98226,48.7967601,-122.4893944
4297,Meridian Street,98226,48.7976020,-122.4892592
4301,Meridian Street,98226,48.7986970,-122.4866684
2330,Yew Street,98229,48.7614979,-122.4422593
800,Alabama Street,98225,48.7628455,-122.4646714
716,Alabama Street,98225,48.7627796,-122.4652763
2501,James Street,98225,48.7633958,-122.4653961
4390,Meridian Street,98226,48.8001170,-122.4853943
100,East Stuart Road,98226,48.8004480,-122.4854016
4373,Meridian Street,98226,48.8000486,-122.4865701
4371,Meridian Street,98225,48.7996861,-122.4866270
102,West Stuart Road,98226,48.8008645,-122.4864892
4375,Meridian Street,98226,48.8003986,-122.4865645
4383,Meridian Street,98226-7624,48.8002623,-122.4893361
4379,Meridian Street,98226,48.7998201,-122.4893260
4365,Meridian Street,98226,48.7992949,-122.4865473
4444,Meridian Street,98226,48.8023633,-122.4855472
222,East Stuart Road,98226,48.8003622,-122.4837329
4131,Meridian Street,98226,48.7904030,-122.4896347
4130,Meridian St,98226,48.7908307,-122.4856463
189,East Bakerview Road,98226,48.7892207,-122.4840296
4061,Meridian Street,98226,48.7887872,-122.4868047
4099,Meridian Street,98226,48.7894567,-122.4868709
4040,Meridian Street,98226,48.7882726,-122.4855320
4110,Meridian Street,98226,48.7900869,-122.4856944
420,Telegraph Road,98226,48.7855791,-122.4801337
300,East Bellis Fair Parkway,98226,48.7869350,-122.4813635
201,Telegraph Road,98226-8081,48.7841219,-122.4846875
101,Bellis Fair Parkway,98226-5560,48.7839453,-122.4872170
1300,North State Street,98225,48.7484390,-122.4764986
1313,Bay Street,98225,48.7516474,-122.4807062
210,Central Avenue,98225,48.7541634,-122.4788384
311,Grand Street,98225,48.7544353,-122.4801729
250,Flora Street,98225,48.7532698,-122.4792027
1155,North State Street,98225,48.7473837,-122.4792567
1229,Cornwall Avenue,98225,48.7496936,-122.4796512
1256,North State Street,98225,48.7480031,-122.4771196
200,Prospect Street,98225,48.7530594,-122.4806813
1400,West Holly Street,98225,48.7575759,-122.4906720
1225,West Bakerview Road,98226,48.7884525,-122.5115928
3227,Northwest Avenue,98225,48.7744657,-122.4971397
3209,Northwest Avenue,98225-1402,48.7740991,-122.4966383
3208,Northwest Ave,98225,48.7742404,-122.4957065
629,High Street,98225,48.7398982,-122.4846992
689,High Street,98225,48.7401326,-122.4837652
349,High Street,98225,48.7373521,-122.4880965
644,High Street,98225,48.7394882,-122.4829924
481,High Street,98225,48.7380172,-122.4872107
563,High Street,98225,48.7390651,-122.4854471
515,High Street,98225,48.7387648,-122.4862237
684,High Street,98225,48.7397940,-122.4833345
411,High Street,98225,48.7379424,-122.4879779
624,High Street,98225,48.7390742,-122.4834583
425,High Street,98225,48.7371199,-122.4845958
110,Park Ridge Road,98225,48.7144511,-122.5034732
109,Grand Avenue,98225,48.7523143,-122.4800186
222,Grand Avenue,98225,48.7536781,-122.4791637
205,North Commercial Street,98225,48.7531636,-122.4784048
215,North Commercial Street,98225,48.7533818,-122.4785112
222,North Commercial Street,98225,48.7537014,-122.4778179
111,Central Avenue,98225,48.7537167,-122.4775381
110,Flora Street,98225,48.7531087,-122.4777099
116,Grand Avenue,98225,48.7525866,-122.4791292
112,Grand Avenue,98225,48.7524503,-122.4791283
220,West Champion Street,98225,48.7521749,-122.4791235
119,North Commercial Street,98225,48.7525078,-122.4785335
204,North Commercial Street,98225,48.7533142,-122.4779051
210,North Commercial Street,98225,48.7533300,-122.4777107
211,Unity Street,98225,48.7533113,-122.4772014
209,Unity Street,98225,48.7533330,-122.4768512
207,Unity Street,98225,48.7531816,-122.4768907
205,Unity Street,98225,48.7531975,-122.4771839
104,North Commercial Street,98225,48.7523255,-122.4777088
1501,Cornwall Avenue,98225,48.7520818,-122.4761807
1500,Cornwall Avenue,98225,48.7517767,-122.4755751
1530,Cornwall Avenue,98225,48.7520190,-122.4746205
205,East Magnolia Street,98225,48.7503590,-122.4756685
104,West Magnolia Street,98225,48.7511652,-122.4776415
"1419,1421",Cornwall Avenue,98225,48.7516334,-122.4769586
1413,Cornwall Avenue,98225,48.7513977,-122.4771327
1415,Railroad Avenue,98225,48.7507808,-122.4763034
1417,Railroad Avenue,98225,48.7508866,-122.4761477
1423,Railroad Avenue,98225,48.7509853,-122.4760021
1435,Railroad Avenue,98225,48.7511959,-122.4756940
1801,Cornwall Avenue,98225,48.7541327,-122.4754904
1825,Ellis Street,98225,48.7547183,-122.4728348
1820,Cornwall Avenue,98225,48.7546864,-122.4746521
1824,Cornwall Avenue,98225,48.7548082,-122.4746493
2001,Bill McDonald Parkway,98225,48.7274893,-122.4899514
401,Harris Avenue,98225,48.7204370,-122.5110907
1801,32nd Street,98225,48.7147755,-122.4751338
3404,Connelly Avenue,98229,48.7131817,-122.4739700
214,West Holly Street,98225,48.7510889,-122.4806815
210,West Holly Street,98225,48.7510187,-122.4805725
851,Coho Way,98225,48.7591185,-122.5034639
2551,Roeder Avenue,98225,48.7592109,-122.5020061
307,West Holly Street,98225,48.7511727,-122.4818834
311,West Holly Street,98225,48.7513197,-122.4820978
2018,Iron Street,98226,48.7570540,-122.4660087
3500,Meridian Street,98225,48.7775323,-122.4854586
"205,207",East Maple Street,98225,48.7470367,-122.4806395
237,West Kellogg Road,98226,48.7944365,-122.4937948
110,Park Ridge Road,98225,48.7145357,-122.5032251
2901,Squalicum Parkway,98225,48.7735802,-122.4736571
935,14th Street,98225,48.7245078,-122.4990972
210,36th Street,98225,48.7326155,-122.4717876
222,36th Street,98225,48.7311778,-122.4712378
1,Bellwether Way,98225,48.7541850,-122.4969554
7,Bellwether Way,98225,48.7547790,-122.4972599
4276,Meridian Street,98226,48.7955093,-122.4852010
1914,King Street,98225-4237,48.7555224,-122.4631015
811,Iowa Street,98225-4228,48.7567014,-122.4640658
1400,Larrabee Avenue,98225,48.7182211,-122.4992276
1420,Kentucky Street,98229,48.7574770,-122.4553806
331,East Holly Street,98225,48.7482044,-122.4762101
1431,Railroad Avenue,98225,48.7511163,-122.4758117
1820,James Street,98225,48.7539192,-122.4636477
3985,Bennett Drive,98225,48.7886686,-122.5207425
1312,11th Street,98225,48.7196448,-122.5037386
208,East Holly Street,98225,48.7486312,-122.4780065
202,East Holly Street,98225,48.7487919,-122.4781183
202,East Holly Street,98225,48.7487492,-122.4780465
301,West Holly Street,98225,48.7510122,-122.4818248
3005,Cinema Place,98226,48.7703556,-122.4494807
225,North Forest Street,98225,48.7380632,-122.4918167
354,High Street,98225,48.7371011,-122.4871170
1240,East Maple Street,98225,48.7395860,-122.4704630
211,West Holly Street,98225,48.7506444,-122.4810643
1312,Bay Street,98225,48.7513085,-122.4803524
1221,North State Street,98225,48.7483770,-122.4775628
314,East Holly Street,98225,48.7477968,-122.4767629
200,East Chestnut Street,98225,48.7478033,-122.4796317
1215,Cornwall Avenue,98225,48.7494222,-122.4802673
1219,Cornwall Avenue,98225,48.7495135,-122.4801418
1201,Cornwall Avenue,98225,48.7490852,-122.4807834
"1207,1211",Granary Avenue,98225,48.7515023,-122.4841879
619,Cornwall Avenue,98225,48.7432393,-122.4897294
625,Cornwall Avenue,98225,48.7436304,-122.4891269
25,Bellwether Way,98225,48.7561064,-122.4945710
28,Bellwether Way,98225,48.7555147,-122.4935797
1310,West Holly Street,98225,48.7571942,-122.4902144
1300,West Holly Street,98225,48.7570676,-122.4898970
1111,West Holly Street,98225,48.7558791,-122.4891343
140,Samish Way,98225,48.7339284,-122.4704170
1512,North State Street,98225,48.7507843,-122.4731311
1500,North State Street,98225,48.7504672,-122.4733949
607,East Holly Street,98225,48.7463314,-122.4733307
1117,12th Street,98225,48.7214283,-122.5018601
2201,Cornwall Avenue,98225,48.7592265,-122.4753960
1421,North State Street,98225,48.7503025,-122.4749208
309,High Street,98225,48.7349368,-122.4848779
28,Bellwether Way,98225,48.7556386,-122.4934754
813,Lakeway Drive,98229,48.7452407,-122.4642444
1901,King St,98225-4236,48.7554697,-122.4639370
1431,North State Street,98225,48.7503792,-122.4746299
1225,Civic Field Way,98229,48.7484011,-122.4590888
1114,Potter Street,98229,48.7459898,-122.4602191
3930,Affinity Lane,98226,48.7833050,-122.4807162
1330,North State Street,98225,48.7491330,-122.4755796
1504,Iowa Street,98225,48.7553040,-122.4549959
2200,Iowa Street,98226,48.7557633,-122.4460878
2010,Iowa Street,98226,48.7556860,-122.4476117
319,East Champion Street,98225,48.7500529,-122.4729967
1200,Lincoln Street,98229,48.7407956,-122.4631791
425,Chuckanut Drive North,98229,48.7110529,-122.4984957
100,North Samish Way,98225,48.7357633,-122.4691739
100,N Samish Way,98225-8225,48.7358101,-122.4694882
114,West Magnolia Street,98225,48.7514312,-122.4781266
1217,West Village Lane,98226,48.7955862,-122.5022383
1127,39th Street,98229,48.7208671,-122.4654233
2215,A Street,98225,48.7580687,-122.4763614
4125,Arctic Avenue,98226,48.7900880,-122.5135300
4125,Arctic Avenue,98226,48.7922612,-122.5151789
810,Halleck Street,98225-3243,48.7591197,-122.4802325
1225,West Bakerview Road,98226,48.7892109,-122.5143014
1063,West Bakerview Road,98226,48.7892384,-122.5097224
1020,West Bakerview Road,98226,48.7900095,-122.5083721
1031,West Bakerview Road,98226,48.7893216,-122.5088217
315,Westerly Road,98226,48.7914819,-122.4923634
428,West Bakerview Road,98226,48.7904071,-122.4958922
1600,C Street,98225,48.7551236,-122.4830528
1430,North Garden Street,98225,48.7487937,-122.4720339
200,S 36th St,98225,48.7332717,-122.4702395
108,Samish Way,98225,48.7346283,-122.4706606
112,Samish Way,98225,48.7343390,-122.4705825
125,Samish Way,98225,48.7344255,-122.4694215
519,East Maple Street,98225,48.7446508,-122.4769901
911,Billy Frank Jr. Street,98225,48.7421631,-122.4787898
501,Voltaire Court,98225,48.7293587,-122.4784745
3330,Airport Drive,98226,48.7864100,-122.5200719
3910,Bennett Dr,98226,48.7870413,-122.5191993
3319,Airport Dr,98226-8048,48.7855663,-122.5196636
3218,Fielding Avenue,98225,48.7294983,-122.4739699
2111,Iowa Street,98229,48.7568421,-122.4457251
2101,Iowa Street,98229,48.7565850,-122.4464382
1907,Iowa Street,98229,48.7567478,-122.4490814
1615,Iowa Street,98229,48.7568837,-122.4521095
1601,Iowa Street,98229,48.7569781,-122.4530379
1401,Iowa Street,98229,48.7566688,-122.4559382
1407,Iowa Street,98229,48.7566588,-122.4557557
2012,King Street,98225,48.7568940,-122.4630761
2300,Xenia Street,98229,48.7628163,-122.4437688
3001,Cinema Place,98226,48.7699358,-122.4490402
1041,24th Street,98225,48.7223881,-122.4838061
800,East Chestnut Street,98225,48.7436396,-122.4734095
310,Lakeway Drive,98225-5215,48.7447492,-122.4712159
320,Lakeway Drive,98225,48.7447321,-122.4708456
711,East Holly Street,98225,48.7455069,-122.4720687
707,East Holly Street,98225,48.7456195,-122.4724380
701,East Holly Street,98225,48.7457409,-122.4725600
619,East Holly Street,98225,48.7459866,-122.4729610
600,East Holly Street,98225,48.7459578,-122.4740698
516,East Holly Street,98225,48.7463700,-122.4745071
510,East Holly Street,98225,48.7465107,-122.4746729
501,East Holly Street,98225,48.7471089,-122.4743984
415,East Holly Street,98225,48.7475199,-122.4749573
1231,North Garden Street,98225,48.7471608,-122.4756689
319,East Holly Street,98225,48.7480455,-122.4760541
405,East Holly Street,98225,48.7478622,-122.4754072
211,East Holly Street,98225,48.7486989,-122.4771295
1211,Jersey Street,98225,48.7447544,-122.4730695
1211,Jersey Street,98225,48.7446480,-122.4729051
1125,Billy Frank Jr. Street,98225,48.7447618,-122.4750069
1125,Billy Frank Jr. Street,98225,48.7446574,-122.4751620
1111,Billy Frank Jr. Street,98225,48.7441487,-122.4758858
1207,Jersey Street,98225,48.7443513,-122.4733881
1222,Billy Frank Jr. Street,98225,48.7451853,-122.4732854
1213,Billy Frank Jr. Street,98225,48.7453051,-122.4740566
1217,Billy Frank Jr. Street,98225,48.7454127,-122.4738982
1211,Billy Frank Jr. Street,98225,48.7452398,-122.4742269
1223,Billy Frank Jr. Street,98225,48.7454767,-122.4737668
1225,Billy Frank Jr. Street,98225,48.7455363,-122.4736148
421,East Maple Street,98225,48.7453383,-122.4779796
121,Unity Street,98225,48.7527248,-122.4769341
965,North Garden Street,98225,48.7440620,-122.4803223
902,North State Street,98225,48.7442245,-122.4828833
833,North State Street,98225,48.7439400,-122.4842149
839,North State Street,98225,48.7443052,-122.4836618
906,North State Street,98225,48.7444082,-122.4825446
930,North State Street,98225,48.7445224,-122.4824874
1017,North State Street,98225,48.7458211,-122.4814063
1015,Railroad Avenue,98225,48.7467233,-122.4821401
1010,Railroad Avenue,98225,48.7464777,-122.4818320
203,East Laurel Street,98225,48.7460300,-122.4822572
200,East Maple Street,98225,48.7467656,-122.4811347
1100,North State Street,98225,48.7464564,-122.4795073
1140,North State Street,98225,48.7468969,-122.4790020
1111,North Forest Street,98225,48.7462006,-122.4787617
1115,North Forest Street,98225,48.7463401,-122.4786320
1411,North State Street,98225,48.7500296,-122.4753231
1417,North State Street,98225,48.7501908,-122.4750857
1420,North State Street,98225,48.7498786,-122.4744431
1422,North State Street,98225,48.7499286,-122.4742690
1530,North State Street,98225,48.7510250,-122.4726261
1515,North Forest Street,98225,48.7504625,-122.4726955
1812,North State Street,98225,48.7537831,-122.4685774
1704,North State Street,98225,48.7526154,-122.4704972
3720,Meridian Street,98225,48.7812443,-122.4856343
208,West Holly Street,98225,48.7508839,-122.4803582
2117,Walnut Street,98225,48.7584837,-122.4921886
1400,Broadway,98225,48.7582031,-122.4901691
521,Kentucky Street,98225,48.7580466,-122.4682627
4209,Meridian St,98226-5512,48.7936405,-122.4863454
4282,Meridian Street,98226,48.7967213,-122.4848620
4240,Meridian St,98225,48.7948702,-122.4855517
125,East Kellogg Road,98226,48.7946637,-122.4842164
4192,Meridian Street,98226,48.7931561,-122.4853710
1601,Silver Beach Road,98225,48.7515389,-122.4279085
310,North Samish Way,98225,48.7391445,-122.4694619
1025,Pasco Street,98225,48.7389516,-122.4692762
1118,East Maple Street,98225,48.7402711,-122.4712694
1400,East Maple Street,98225,48.7386296,-122.4688455
1005,Key Street,98225,48.7417606,-122.4753932
1011,Key Street,98225,48.7419414,-122.4754126
1008,Key Street,98225,48.7415315,-122.4747309
300,North Samish Way,98225,48.7388327,-122.4695583
3701,Byron Avenue,98225,48.7345600,-122.4682308
1115,East Maple Street,98225,48.7406069,-122.4709270
215,North Samish Way,98225,48.7377505,-122.4704493
206,North Samish Way,98225,48.7373120,-122.4702753
207,North Samish Way,98225,48.7369548,-122.4706360
117,North Samish Way,98225,48.7365768,-122.4705694
101,North Samish Way,98225,48.7358065,-122.4706247
1145,Granary Avenue,98225,48.7509591,-122.4850879
4170,Cordata Parkway,98226-7605,48.7923491,-122.4906760
4279,Guide Meridian,98226,48.7962893,-122.4865301
4251,Guide Meridian,98226,48.7962893,-122.4867187
4277,Guide Meridian,98226,48.7962891,-122.4869008
1020,Key Street,98225,48.7418728,-122.4742231
620,Lincoln Street,98229,48.7327345,-122.4659377
610,Lincoln Street,98229,48.7325053,-122.4667505
600,Lincoln Street,98229,48.7321024,-122.4669405
845,Lincoln Street,98229,48.7368057,-122.4657956
835,Lincoln Street,98229,48.7366758,-122.4661689
839,Lincoln Street,98229,48.7370724,-122.4663689
1301,East Maple Street,98225,48.7396775,-122.4693706
1305,East Maple Street,98225,48.7400914,-122.4687583
1313,East Maple Street,98225,48.7393376,-122.4686635
1000,Key Street,98225,48.7412913,-122.4750466
1800,C Street,98225,48.7558633,-122.4818102
814,Iowa Street,98225,48.7562521,-122.4640049
2225,Knox Avenue,98225,48.7224636,-122.4875970
1100,Ellis Street,98225,48.7411409,-122.4714971
917,North Forest Street,98225,48.7443928,-122.4815199
925,North Forest Street,98225,48.7447160,-122.4812625
900,North Forest Street,98225,48.7434590,-122.4813481
1801,Ellis Street,98225,48.7540428,-122.4726079
2012,North State Street,98225,48.7561022,-122.4652947
2200,Sunset Drive,98225,48.7660819,-122.4792033
1330,North Forest Street,98225,48.7483784,-122.4745119
1326,North Garden Street,98225,48.7476609,-122.4735370
"416,418",North Garden St,98225,48.7480848,-122.4739130
"510,512,514",East Magnolia Street,98225,48.7474698,-122.4731529
518,East Magnolia Street,98225,48.7473893,-122.4729567
1400,North Forest Street,98225,48.7488970,-122.4738399
1422,North Forest Street,98225,48.7493227,-122.4730690
1420,North Forest Street,98225,48.7492333,-122.4733041
310,East Magnolia Street,98225,48.7488925,-122.4751750
1419,North Forest Street,98225,48.7495043,-122.4740032
"1405,1407",North Forest Street,98225,48.7491303,-122.4744096
1409,North Forest Street,98225,48.7492333,-122.4743035
315,East Champion Street,98225,48.7501339,-122.4731209
4451,Meridian Street,98226,48.8027904,-122.4865516
4469,Meridian Street,98226,48.8030962,-122.4874051
1215,Old Fairhaven Parkway,98225,48.7179213,-122.5014780
702,32nd Street,98225,48.7265379,-122.4765635
20,Bellwether Way,98225,48.7547326,-122.4947270
316,East McLeod Road,98226,48.7829433,-122.4822755
805,Lakeway Drive,98229,48.7457572,-122.4647313
413,East Maple Street,98225,48.7454749,-122.4781752
3891,Northwest Avenue,98226,48.7859571,-122.5064879
3927,Northwest Avenue,98226,48.7862372,-122.5059423
365,Harris Avenue,98225,48.7217062,-122.5105180
355,Harris Avenue,98225,48.7217200,-122.5126805
946,York Street,98229,48.7502438,-122.4632368
905,Gladstone Street,98229,48.7492872,-122.4633621
901,Gladstone Street,98229,48.7492772,-122.4635058
909,Gladstone Street,98229,48.7492862,-122.4631962
940,York Street,98229,48.7500935,-122.4632509
1511,Lincoln Street,98229,48.7495509,-122.4627765
1507,Lincoln Street,98229,48.7493662,-122.4629032
1505,Lincoln Street,98229,48.7493468,-122.4630044
1010,York Street,98229,48.7503343,-122.4618931
1448,King Street,98229,48.7481988,-122.4635039
1452,King Street,98229,48.7482992,-122.4634782
1470,King Street,98229,48.7487333,-122.4634150
910,Gladstone Street,98229,48.7487283,-122.4628528
1300,Ellis Street,98225,48.7451698,-122.4715058
1304,Ellis Street,98225,48.7453749,-122.4715221
609,Lakeway Drive,98225,48.7451902,-122.4672350
1224,Franklin Street,98225,48.7437051,-122.4700660
1228,Franklin Street,98225,48.7438065,-122.4702046
1254,Franklin Street,98225,48.7444774,-122.4701541
1242,Ellis Street,98225,48.7441461,-122.4714926
1236,Ellis Street,98225,48.7440437,-122.4714193
1234,Ellis Street,98225,48.7439216,-122.4714799
1246,Ellis Street,98225,48.7442667,-122.4714689
1250,Ellis Street,98225,48.7443828,-122.4714744
1252,Ellis Street,98225,48.7444783,-122.4714767
1204,Ellis Street,98225,48.7431672,-122.4714960
1210,Ellis Street,98225,48.7432733,-122.4715062
1212,Ellis Street,98225,48.7433854,-122.4714605
1218,Ellis Street,98225,48.7434962,-122.4714880
1222,Ellis Street,98225,48.7436129,-122.4714830
1226,Ellis Street,98225,48.7437223,-122.4714397
1230,Ellis Street,98225,48.7438187,-122.4714724
1200,Ellis Street,98225,48.7430705,-122.4714424
508,Carolina Street,98225,48.7600077,-122.4686478
2625,Meridian Street,98225,48.7630033,-122.4864152
2700,Bill McDonald Parkway,98225,48.7271776,-122.4807923
1011,Harris Avenue,98225,48.7203391,-122.5038957
1104,High Street,98225,48.7443825,-122.4765043
1410,11th Street,98225,48.7191101,-122.5039131
105,Grand Avenue,98225,48.7521767,-122.4800168
308,West Champion Street,98225,48.7520331,-122.4800153
916,North Forest Street,98225,48.7440365,-122.4809687
1151,Ellis Street,98225,48.7426191,-122.4722522
3200,Pinewood Street,98225,48.7746901,-122.5059883
2212,Pacific Street,98229,48.7595108,-122.4559142
2001,Iowa Street,98229,48.7568433,-122.4483321
1210,Virginia Street,98229,48.7586711,-122.4578567
1200,Virginia Street,98229,48.7589021,-122.4587121
1220,Virginia Street,98229,48.7589031,-122.4578581
1627,Valencia Street,98229,48.7518386,-122.4476979
1821,Valencia Street,98229,48.7538751,-122.4484498
2115,Young Street,98225,48.7569518,-122.4764080
2109,B Street,98225,48.7578251,-122.4784322
2120,Young Street,98225,48.7567144,-122.4760285
2116,Young Street,98225,48.7565923,-122.4760412
2124,Young Street,98225,48.7568053,-122.4758772
2114,Young Street,98225,48.7565776,-122.4762186
2110,Young Street,98225,48.7564820,-122.4763694
2106,Young Street,98225,48.7563845,-122.4764416
"2100,2102",Young Street,98225,48.7562898,-122.4766290
2201,Young Street,98225,48.7572727,-122.4760013
2208,A Street,98225,48.7576618,-122.4761507
2307,A Street,98225,48.7585543,-122.4756039
1800,Broadway Street,98225,48.7599668,-122.4874178
2114,Broadway,98225,48.7621300,-122.4844718
2100,James Street,98225,48.7579243,-122.4645745
2110,James Street,98225,48.7581578,-122.4646104
2114,James Street,98225,48.7582614,-122.4645540
2118,James Street,98225,48.7583633,-122.4645450
2122,James Street,98225,48.7584886,-122.4646098
2124,James Street,98225,48.7585870,-122.4646184
2130,James Street,98225,48.7587121,-122.4645910
2134,James Street,98225,48.7588104,-122.4645952
2136,James Street,98225,48.7589202,-122.4645953
2015,Franklin Street,98225,48.7570420,-122.4710910
1815,Ellis Street,98225,48.7540755,-122.4723989
2121,Humboldt Street,98225,48.7584758,-122.4681985
2237,James Street,98225,48.7602342,-122.4652952
900,Alabama Street,98225,48.7627024,-122.4630115
300,East Sunset Drive,98225,48.7694202,-122.4719448
3001,Squalicum Parkway,98225,48.7726667,-122.4715870
1075,East Sunset Drive,98226,48.7722213,-122.4614207
2319,D Street,98225,48.7602936,-122.4774473
"2410,2412",C Street,98225,48.7601001,-122.4754841
2414,C Street,98225,48.7601848,-122.4753619
2406,C Street,98225,48.7600511,-122.4756258
2400,C Street,98225,48.7599311,-122.4757891
2501,E Street,98225,48.7623281,-122.4762112
2605,E Street,98225,48.7626293,-122.4754104
"1318,1320",East Laurel Street,98225,48.7382506,-122.4710906
"1310,1312",East Laurel Street,98225,48.7383742,-122.4712840
100,Central Avenue,98225,48.7540499,-122.4772507
400,North Commercial Street,98225,48.7550574,-122.4777444
412,North Commercial Street,98225,48.7553574,-122.4778055
2609,Meridian Street,98225-2467,48.7646287,-122.4863479
2814,Meridian Street,98225,48.7677526,-122.4843821
500,32nd Street,98225,48.7293007,-122.4759297
317,North State Street,98225,48.7386534,-122.4920327
223,East Bakerview Road,98226,48.7885874,-122.4814681
2217,Queen Street,98229,48.7596769,-122.4551842
1618,Texas Street,98229,48.7606495,-122.4536162
1614,Texas Street,98229,48.7606942,-122.4538222
1610,Texas Street,98229,48.7609765,-122.4538721
1606,Texas Street,98229,48.7612168,-122.4538736
1604,Texas Street,98229,48.7614567,-122.4537611
1602,Texas Street,98229,48.7615005,-122.4535416
1628,Texas Street,98229,48.7615009,-122.4530901
1626,Texas Street,98229,48.7614554,-122.4528741
1624,Texas Street,98229,48.7611761,-122.4530586
1622,Texas Street,98229,48.7610464,-122.4529191
1620,Texas Street,98229,48.7609159,-122.4531046
1616,Texas Street,98229,48.7608884,-122.4533566
1612,Texas Street,98229,48.7610144,-122.4534711
1600,Texas Street,98229,48.7612436,-122.4532846
1607,Carolina Street,98229,48.7605768,-122.4530678
2312,Verona Street,98229,48.7607969,-122.4478120
"1000,1002",East Illinois Street,98226,48.7678844,-122.4615474
"1004,1006",East Illinois Street,98226,48.7676777,-122.4615623
"1008,1010",East Illinois Street,98226,48.7674648,-122.4615391
2806,Lincoln Street,98226,48.7670926,-122.4614521
"2801,2803",Moore Street,98226,48.7670009,-122.4609777
"2807,2809",Moore Street,98226,48.7671610,-122.4610148
"2815,2817",Moore Street,98226,48.7673240,-122.4610035
"2821,2823",Moore Street,98226,48.7674900,-122.4609820
"1020,1022",East Illinois Street,98226,48.7677987,-122.4611449
1026,East Illinois Street,98226,48.7678056,-122.4609043
1297,East Sunset Drive,98226,48.7732259,-122.4583794
1259,Barkley Boulevard,98226,48.7714779,-122.4583528
2902,Nevada Street,98226,48.7684388,-122.4587772
1300,East Sunset Drive,98226-5637,48.7732944,-122.4567014
1300,East Sunset Drive,98226-5637,48.7731887,-122.4570752
"3001,3003",Pacific Street,98226,48.7693836,-122.4565455
3115,Racine Street,98226,48.7715700,-122.4542129
1715,Barkley Boulevard,98226,48.7713607,-122.4507581
1711,Barkley Boulevard,98226,48.7714036,-122.4510546
3130,Racine Street,98226,48.7720360,-122.4529823
3132,Racine Street,98226,48.7717598,-122.4530070
3124,Racine Street,98226,48.7722592,-122.4524933
3122,Racine Street,98226,48.7722940,-122.4520423
3120,Racine Street,98226,48.7722983,-122.4516000
3118,Racine Street,98226,48.7723102,-122.4508546
3116,Racine Street,98226,48.7719658,-122.4508299
3114,Racine Street,98226,48.7719875,-122.4511972
3112,Racine Street,98226,48.7718705,-122.4515715
3108,Racine Street,98226,48.7715988,-122.4520950
3106,Racine Street,98226,48.7713888,-122.4518652
3110,Racine Street,98226,48.7717257,-122.4518467
3104,Racine Street,98226,48.7714769,-122.4524049
3102,Racine Street,98226,48.7713957,-122.4526930
3100,Racine Street,98226,48.7713325,-122.4529884
3215,Racine Street,98226,48.7734742,-122.4536691
3217,Racine Street,98226,48.7735956,-122.4538326
3171,Studio Lane,98226,48.7734171,-122.4549887
3167,Studio Lane,98226,48.7731708,-122.4547856
3199,Racine Street,98226,48.7735948,-122.4543898
3170,Studio Lane,98226,48.7734860,-122.4545736
3163,Studio Lane,98226,48.7729233,-122.4545744
3195,Racine Street,98226,48.7731353,-122.4539967
1309,Easton Avenue,98225,48.7276774,-122.5008364
1310,Easton Avenue,98225,48.7272484,-122.5008299
910,14th Street,98225,48.7250949,-122.5002753
501,Harris Avenue,98225,48.7203899,-122.5101882
3005,Wilson Avenue Alley,98225,48.7165995,-122.4777988
3009,Wilson Avenue Alley,98225,48.7166435,-122.4776389
3015,Wilson Avenue Alley,98225,48.7165960,-122.4774699
3017,Wilson Avenue Alley,98225,48.7166388,-122.4773048
3021,Wilson Avenue Alley,98225,48.7166311,-122.4771467
3025,Wilson Avenue Alley,98225,48.7166132,-122.4769687
3105,Wilson Avenue Alley,98225,48.7166144,-122.4766428
3119,Wilson Avenue Alley,98225,48.7165530,-122.4760027
3113,Wilson Avenue Alley,98225,48.7165868,-122.4763279
3130,Wilson Avenue Alley,98225,48.7168548,-122.4757326
3101,Wilson Avenue Alley,98225,48.7166180,-122.4768016
2825,Pacific Street,98226,48.7677149,-122.4566540
"2023,2025",West Xenia Lane,98229,48.7574001,-122.4445090
"2029,2031",West Xenia Lane,98229,48.7575983,-122.4444089
"2103,2105",West Xenia Lane,98229,48.7577585,-122.4443615
"2109,2111",West Xenia Lane,98229,48.7580418,-122.4443637
2107,West Xenia Lane,98229,48.7579126,-122.4443798
"2121,2123",West Xenia Lane,98229,48.7583610,-122.4443632
"2227,2229",West Xenia Lane,98229,48.7596765,-122.4444094
"2233,2235",West Xenia Lane,98229,48.7598429,-122.4443833
"2245,2247,2249",West Xenia Lane,98229,48.7601859,-122.4443820
700,Linden Road,98229,48.7056259,-122.5021270
609,Northshore Dr,98226,48.7665239,-122.4125083
"909,913",Lakeway Drive,98229,48.7452183,-122.4634350
921,Lakeway Drive,98229,48.7451779,-122.4627788
1321,King Street,98229,48.7458239,-122.4643394
1329,King Street,98229,48.7459847,-122.4643133
1333,King Street,98229,48.7461503,-122.4643408
1345,King Street,98229,48.7464243,-122.4643425
1344,King Street,98229,48.7463989,-122.4634711
1337,Lincoln Street,98229,48.7461972,-122.4629511
1333,Lincoln Street,98229,48.7460816,-122.4629649
1329,Lincoln Street,98229,48.7459716,-122.4629497
1325,Lincoln Street,98229,48.7458714,-122.4629621
1323,Lincoln Street,98229,48.7456964,-122.4629073
1316,King Street,98229,48.7457005,-122.4633420
1326,King Street,98229,48.7458705,-122.4635536
1334,King Street,98229,48.7461629,-122.4634944
1078,Lakeway Drive,98229,48.7447255,-122.4611675
1544,Toledo Court,98229,48.7495411,-122.4514638
1540,Toledo Court,98229,48.7495398,-122.4512583
1536,Toledo Court,98229,48.7495426,-122.4510571
1528,Toledo Court,98229,48.7494740,-122.4505634
1535,Toledo Court,98229,48.7491565,-122.4511521
1531,Toledo Court,98229,48.7491427,-122.4509178
1539,Toledo Court,98229,48.7491572,-122.4513338
1543,Toledo Court,98229,48.7491601,-122.4515300
1547,Toledo Court,98229,48.7491510,-122.4517388
2242,Sweetbay Drive,98229,48.7464658,-122.4455812
2238,Sweetbay Drive,98229,48.7465357,-122.4457260
2230,Sweetbay Drive,98229,48.7466714,-122.4460482
2234,Sweetbay Drive,98229,48.7465956,-122.4458917
2226,Sweetbay Drive,98229,48.7467111,-122.4462347
2220,Sweetbay Drive,98229,48.7467288,-122.4464427
2218,Sweetbay Drive,98229,48.7467860,-122.4466442
2214,Sweetbay Drive,98229,48.7468786,-122.4468252
2210,Sweetbay Drive,98229,48.7469920,-122.4469432
2206,Sweetbay Drive,98229,48.7470953,-122.4469977
2202,Sweetbay Drive,98229,48.7472554,-122.4470317
2204,Wildflower Way,98229,48.7473631,-122.4464882
2200,Wildflower Way,98229,48.7473060,-122.4463042
2212,Wildflower Way,98229,48.7472542,-122.4461218
2224,Wildflower Way,98229,48.7472219,-122.4455212
2220,Wildflower Way,98229,48.7472286,-122.4457107
2216,Wildflower Way,98229,48.7472368,-122.4459055
2233,Sweetbay Drive,98229,48.7469461,-122.4456257
2229,Sweetbay Drive,98229,48.7470041,-122.4458107
2225,Sweetbay Drive,98229,48.7470586,-122.4460282
2221,Sweetbay Drive,98229,48.7470795,-122.4462287
2217,Sweetbay Drive,98229,48.7471290,-122.4464327
2221,Wildflower Way,98229,48.7476450,-122.4455222
2215,Wildflower Way,98229,48.7476462,-122.4457204
2207,Wildflower Way,98229,48.7476433,-122.4459277
2201,Wildflower Way,98229,48.7476796,-122.4461252
1404,Sweetbay Drive,98229,48.7478263,-122.4458722
1408,Sweetbay Drive,98229,48.7479402,-122.4457927
1412,Sweetbay Drive,98229,48.7480598,-122.4457457
1416,Sweetbay Drive,98229,48.7481835,-122.4456627
1420,Sweetbay Drive,98229,48.7483194,-122.4456762
1407,Sweetbay Drive,98229,48.7480575,-122.4462852
1427,Sweetbay Drive,98229,48.7484331,-122.4462577
1415,Sweetbay Drive,98229,48.7481644,-122.4462074
1421,Sweetbay Drive,98229,48.7483034,-122.4462152
1424,Sweetbay Drive,98229,48.7484509,-122.4456622
1432,Sweetbay Drive,98229,48.7486999,-122.4456780
1428,Sweetbay Drive,98229,48.7485862,-122.4456772
1431,Sweetbay Drive,98229,48.7485676,-122.4462267
1437,Sweetbay Drive,98229,48.7487132,-122.4462932
2165,Wildflower Way,98229,48.7485808,-122.4466132
2169,Wildflower Way,98229,48.7484517,-122.4466092
2173,Wildflower Way,98229,48.7483140,-122.4466462
2181,Wildflower Way,98229,48.7481946,-122.4466441
2187,Wildflower Way,98229,48.7480559,-122.4466446
2195,Wildflower Way,98229,48.7479315,-122.4466297
2199,Wildflower Way,98229,48.7478238,-122.4465467
2143,Wildflower Way,98229,48.7489349,-122.4469382
2151,Wildflower Way,98229,48.7487130,-122.4467042
1443,Sweetbay Drive,98229,48.7488394,-122.4463917
1436,Sweetbay Drive,98229,48.7488312,-122.4457222
1440,Sweetbay Court,98229,48.7489689,-122.4459347
1460,Sweetbay Court,98229,48.7492780,-122.4462578
1462,Sweetbay Drive,98229,48.7494252,-122.4464607
1455,Sweetbay Drive,98229,48.7490927,-122.4466857
1461,Sweetbay Drive,98229,48.7491966,-122.4468562
1467,Sweetbay Drive,98229,48.7492947,-122.4470284
1473,Sweetbay Drive,98229,48.7493645,-122.4472434
1485,Sweetbay Drive,98229,48.7493419,-122.4475712
2117,Wildflower Way,98229,48.7492139,-122.4473861
2139,Wildflower Way,98229,48.7490454,-122.4470907
2121,Wildflower Way,98229,48.7491460,-122.4472526
2056,Wildflower Way,98229,48.7493101,-122.4485772
2078,Wildflower Way,98229,48.7493098,-122.4483512
2094,Wildflower Way,98229,48.7492496,-122.4481727
2110,Wildflower Way,98229,48.7491394,-122.4480487
2114,Wildflower Way,98229,48.7490489,-122.4479067
2118,Wildflower Way,98229,48.7489701,-122.4477762
2130,Wildflower Way,98229,48.7487941,-122.4475157
2142,Wildflower Way,98229,48.7487064,-122.4473787
2148,Wildflower Way,98229,48.7486206,-122.4472552
2166,Wildflower Way,98229,48.7484766,-122.4471562
2178,Wildflower Way,98229,48.7482285,-122.4471612
2186,Wildflower Way,98229,48.7480981,-122.4472072
2152,Wildflower Court,98229,48.7483000,-122.4482377
2140,Wildflower Court,98229,48.7484211,-122.4482642
2123,Wildflower Court,98229,48.7487989,-122.4480262
1968,Wildflower Way,98229,48.7492822,-122.4494627
2034,Wildflower Way,98229,48.7492804,-122.4490627
2021,Wildflower Way,98229,48.7492223,-122.4493147
2098,Wildflower Court,98229,48.7490046,-122.4490367
2092,Wildflower Court,98229,48.7491237,-122.4490377
2097,Wildflower Court,98229,48.7491165,-122.4485112
2107,Wildflower Court,98229,48.7490066,-122.4483997
2111,Wildflower Court,98229,48.7489359,-122.4482727
2115,Wildflower Court,98229,48.7488719,-122.4481547
2132,Wildflower Court,98229,48.7484938,-122.4483887
2124,Wildflower Court,98229,48.7485676,-122.4485227
2116,Wildflower Court,98229,48.7486470,-122.4486437
2112,Wildflower Court,98229,48.7487142,-122.4487822
2108,Wildflower Court,98229,48.7487989,-122.4488822
2104,Wildflower Court,98229,48.7488923,-122.4489977
1926,Wildflower Way,98229,48.7494450,-122.4496202
1937,Wildflower Way,98229,48.7495670,-122.4496072
1963,Wildflower Way,98229,48.7496869,-122.4494557
2005,Wildflower Way,98229,48.7497158,-122.4492942
2031,Wildflower Way,98229,48.7496808,-122.4490167
2049,Wildflower Way,98229,48.7496563,-122.4488267
2063,Wildflower Way,98229,48.7496902,-122.4484072
2051,Wildflower Way,98229,48.7496974,-122.4486092
2077,Wildflower Way,98229,48.7496580,-122.4482237
2105,Wildflower Way,98229,48.7495677,-122.4479385
1474,Sweetbay Drive,98229,48.7496744,-122.4469457
1478,Sweetbay Drive,98229,48.7497156,-122.4471607
1482,Sweetbay Drive,98229,48.7497220,-122.4473697
1486,Sweetbay Drive,98229,48.7497210,-122.4475977
1490,Sweetbay Drive,98229,48.7496685,-122.4478012
1470,Sweetbay Drive,98229,48.7496170,-122.4467712
1466,Sweetbay Drive,98229,48.7495003,-122.4465689
1458,Sweetbay Court,98229,48.7495706,-122.4462922
1456,Sweetbay Court,98229,48.7496700,-122.4461637
1454,Sweetbay Court,98229,48.7497051,-122.4459717
1452,Sweetbay Court,98229,48.7496904,-122.4457747
1450,Sweetbay Court,98229,48.7496002,-122.4456312
1448,Sweetbay Court,98229,48.7494171,-122.4456182
1446,Sweetbay Court,98229,48.7492951,-122.4456222
1444,Sweetbay Court,98229,48.7491708,-122.4456641
3800,Byron Avenue,98229,48.7331980,-122.4660298
4215,Britton Road,98226,48.7933828,-122.4159977
1914,Lakeside Street,98226,48.7557512,-122.4144713
3910,Bennett Dr,98226,48.7870059,-122.5193839
1404,Birch Street,98229,48.7491124,-122.4259450
1403,Portal Drive,98229,48.7482909,-122.4243680
1403,Portal Drive,98229-2482,48.7484136,-122.4244319
3201,Arbor Street,98229,48.7508833,-122.4322513
3516,Arbor Street,98229,48.7495675,-122.4288098
3520,Arbor Street,98229,48.7495912,-122.4284588
3524,Arbor Street,98229,48.7495385,-122.4282763
3528,Arbor Street,98229,48.7495580,-122.4280983
3536,Arbor Street,98229,48.7496014,-122.4278708
4161,Bennett Drive,98226,48.7913129,-122.5236423
3200,Pinewood Street,98225,48.7749628,-122.5055465
1301,East Sunset Drive,98226,48.7738711,-122.4568839
502,Clark Road,98225,48.7090747,-122.5091984
4115,Arctic Avenue,98226,48.7899094,-122.5151812
2915,Cinema Place,98226,48.7688299,-122.4483331
1999,Iowa Street,98229,48.7567887,-122.4486571
2100,Alabama Street,98229,48.7623418,-122.4460540
1208,East Maple Street,98225,48.7400858,-122.4708770
"901,903",North State Street,98225,48.7446709,-122.4831979
929,North State Street,98225,48.7451404,-122.4825766
920,Lakeway Drive,98225,48.7447936,-122.4629123
1224,Cornwall Avenue,98225,48.7490988,-122.4796043
116,North Samish Way,98225,48.7365646,-122.4689905
1189,East Sunset Drive,98226,48.7727833,-122.4606091
1225,East Sunset Drive,98226,48.7745869,-122.4597424
1001,East Sunset Drive,98226,48.7744723,-122.4631753
1155,East Sunset Drive,98226,48.7742514,-122.4610120
1225,East Sunset Drive,98226,48.7730944,-122.4612683
1145,East Sunset Drive,98226,48.7734447,-122.4609425
1225,East Sunset Drive,98226,48.7744307,-122.4605749
2216,Cornwall Avenue,98225,48.7597993,-122.4747105
2023,Grant Street,98225,48.7569646,-122.4697184
122,Ohio Street,98225,48.7546706,-122.4738998
3111,Woburn Street,98226,48.7720865,-122.4458162
2230,Cornerstone Lane,98226,48.7717996,-122.4429700
1100,Railroad Avenue,98225,48.7472343,-122.4804355
954,North State Street,98225,48.7451579,-122.4816254
3028,Lindbergh Avenue,98225,48.7661845,-122.5109389
3970,Meridian Street,98225,48.7866045,-122.4856040
3970,Meridian Street,98225,48.7865952,-122.4856185
3252,Manning Street,98226,48.7728809,-122.4415454
155,East Kellogg Road,98226,48.7946797,-122.4832555
1301,E Sunset Dr,98226,48.7737385,-122.4571478
1815,Ellis Street,98225,48.7541340,-122.4727738
901,North Forest Street,98225,48.7437791,-122.4826569
1800,Alabama Street,98229,48.7623530,-122.4500207
1812,Texas Street,98229,48.7612252,-122.4488825
1814,Texas Street,98229,48.7608697,-122.4488837
2211,Queen Street,98229,48.7595170,-122.4551813
1811,Iowa Street,98229,48.7567454,-122.4496059
296,West Laurel Street,98225,48.7486615,-122.4857888
2321,D Street,98225,48.7603528,-122.4773065
"508,510",Halleck Street,98225,48.7572901,-122.4781292
"500,502",Halleck Street,98225,48.7571042,-122.4778422
900,Alabama Street,98225,48.7627453,-122.4630409
1200,Billy Frank Jr. Street,98225,48.7447407,-122.4740357
1210,Billy Frank Jr. Street,98225,48.7449965,-122.4737208
920,Lakeway Dr,98225,48.7446181,-122.4632218
296,West Laurel Street,98225,48.7487112,-122.4863452
101,Pine Street,98225,48.7425840,-122.4892457
3928,Northwest Avenue,98226,48.7864410,-122.5037273
1113,Lenora Court,98225,48.7217950,-122.4893492
2604,Meridian Street,98225,48.7648748,-122.4858673
1015,Otis Street,98225,48.7392483,-122.4709684
844,West Orchard Drive,98225,48.7793530,-122.4826130
1060,York Street,98229,48.7500483,-122.4612698
1400,Moore Street,98229,48.7478178,-122.4613143
1055,West Bakerview Road,98226,48.7885203,-122.5090556
1467,Chuckanut Drive,98229,48.6939325,-122.4960202
"2239,2241",West Xenia Lane,98229,48.7600084,-122.4443846
"2221,2223",West Xenia Lane,98229,48.7595145,-122.4444077
"2215,2217",West Xenia Lane,98229,48.7593469,-122.4443921
"2209,2211",West Xenia Lane,98229,48.7591819,-122.4443895
"2115,2117",West Xenia Lane,98229,48.7581967,-122.4443617
1700,Silver Beach Road,98225,48.7524329,-122.4277943
1101,Iowa St,98229,48.7567065,-122.4601751
1115,Iowa Street,98229,48.7566733,-122.4595918
1010,York Street,98229,48.7503777,-122.4618931
1010,York Street,98229,48.7504193,-122.4618930
929,East Bakerview Road,98226,48.7890491,-122.4730405
400,Meadowbrook Count,98226,48.8093289,-122.5034139
2115,Taylor Avenue,98225,48.7256586,-122.4894651
210,Central Avenue,98225,48.7545700,-122.4788510
1111,East Maple Street,98225,48.7407183,-122.4709144
1355,Civic Field Way,98229,48.7484086,-122.4576196
1511,North State Street,98225,48.7513441,-122.4732199
1810,Texas Street,98229,48.7609283,-122.4496859
339,High Street,98225,48.7364663,-122.4848376
700,Chuckanut Drive North,98229,48.7030571,-122.4898161
151,East McLeod Road,98226,48.7833258,-122.4834619
1601,Fairhaven Ave,98229,48.7015350,-122.4944625
