House number,Street name,Postal code,Latitude,Longitude
102,Aplets Way,98815,47.5217894,-120.4698388
107,Evergreen Drive,98815,47.5186855,-120.4851696
107,Evergreen Drive,98815,47.5186858,-120.4852803
107,Evergreen Drive,98815,47.5186863,-120.4854463
107,Evergreen Drive,98815,47.5186867,-120.4855570
107,Evergreen Drive,98815,47.5186811,-120.4857192
107,Evergreen Drive,98815,47.5186823,-120.4858285
107,Evergreen Drive,98815,47.5186410,-120.4851635
107,Evergreen Drive,98815,47.5186414,-120.4852742
107,Evergreen Drive,98815,47.5186451,-120.4853578
107,Evergreen Drive,98815,47.5186471,-120.4854427
107,Evergreen Drive,98815,47.5186474,-120.4855534
107,Evergreen Drive,98815,47.5186407,-120.4856319
107,Evergreen Drive,98815,47.5186445,-120.4857194
107,Evergreen Drive,98815,47.5186457,-120.4858288
107,Evergreen Drive,98815,47.5186442,-120.4850721
107,Evergreen Drive,98815,47.5186477,-120.4859394
307,River Street,98815,47.5221386,-120.4735101
307,River Street,98815,47.5221393,-120.4734566
307,River Street,98815,47.5221402,-120.4733898
307,River Street,98815,47.5221414,-120.4733307
207,Perry Street,98815,47.5229143,-120.4720576
207,Perry Street,98815,47.5230460,-120.4720639
105,Evergreen Drive,98815,47.5177771,-120.4848399
105,Evergreen Drive,98815,47.5177639,-120.4849395
105,Evergreen Drive,98815,47.5178355,-120.4848395
105,Evergreen Drive,98815,47.5178133,-120.4849325
105,Evergreen Drive,98815,47.5179253,-120.4848456
105,Evergreen Drive,98815,47.5178807,-120.4849320
105,Evergreen Drive,98815,47.5180107,-120.4848516
105,Evergreen Drive,98815,47.5179435,-120.4849316
105,Evergreen Drive,98815,47.5180780,-120.4848512
105,Evergreen Drive,98815,47.5180154,-120.4849378
105,Evergreen Drive,98815,47.5181409,-120.4848441
105,Evergreen Drive,98815,47.5180918,-120.4849373
105,Evergreen Drive,98815,47.5179347,-120.4854344
105,Evergreen Drive,98815,47.5178965,-120.4854346
105,Evergreen Drive,98815,47.5178613,-120.4854349
105,Evergreen Drive,98815,47.5178262,-120.4854872
105,Evergreen Drive,98815,47.5178323,-120.4855522
105,Evergreen Drive,98815,47.5178236,-120.4856173
105,Evergreen Drive,98815,47.5178238,-120.4856867
105,Evergreen Drive,98815,47.5178270,-120.4857561
105,Evergreen Drive,98815,47.5178272,-120.4858212
105,Evergreen Drive,98815,47.5178626,-120.4858557
105,Evergreen Drive,98815,47.5178978,-120.4858598
105,Evergreen Drive,98815,47.5179331,-120.4858595
301,Sullivan Street,98815,47.5165156,-120.4811112
301,Sullivan Street,98815,47.5165882,-120.4811108
301,Sullivan Street,98815,47.5166513,-120.4810953
301,Sullivan Street,98815,47.5166758,-120.4810963
301,Sullivan Street,98815,47.5167020,-120.4810974
301,Sullivan Street,98815,47.5167298,-120.4810972
301,Sullivan Street,98815,47.5167577,-120.4810970
301,Sullivan Street,98815,47.5167889,-120.4810968
348,Sunset Highway,98815,47.5212422,-120.4742907
344,Sunset Highway,98815,47.5212092,-120.4740717
346,Sunset Highway,98815,47.5212260,-120.4741779
350,Sunset Highway,98815,47.5212543,-120.4743819
342,Sunset Highway,98815,47.5211934,-120.4739890
321,Independence Way,98815,47.5218255,-120.4734212
323,Independence Way,98815,47.5218322,-120.4734600
325,Independence Way,98815,47.5218405,-120.4735012
327,Independence Way,98815,47.5218472,-120.4735403
319,Independence Way,98815,47.5218189,-120.4733733
317,Independence Way,98815,47.5218138,-120.4733321
315,Independence Way,98815,47.5218039,-120.4732840
313,Independence Way,98815,47.5217958,-120.4732334
311,Independence Way,98815,47.5217860,-120.4731804
309,Independence Way,98815,47.5217762,-120.4731272
307,Independence Way,98815,47.5217697,-120.4730740
255,Independence Way,98815,47.5218121,-120.4724090
251,Independence Way,98815,47.5219079,-120.4724086
259,Independence Way,98815,47.5217161,-120.4724022
331,Independence Way,98815,47.5218572,-120.4736108
329,Independence Way,98815,47.5218538,-120.4735793
333,Independence Way,98815,47.5218672,-120.4736569
253,Independence Way,98815,47.5218599,-120.4724071
249,Independence Way,98815,47.5219483,-120.4724063
257,Independence Way,98815,47.5217646,-120.4724023
203,Mission Avenue,98815,47.5210892,-120.4673103
100,Woodring Street,98815,47.5211984,-120.4675714
203,Mission Avenue,98815,47.5210973,-120.4673719
105,Railroad Avenue,98815,47.5206532,-120.4688106
303,Mission Avenue,98815,47.5207041,-120.4648628
307,Mission Avenue,98815,47.5206294,-120.4645770
305,Mission Avenue,98815,47.5207733,-120.4651182
211,Mission Avenue,98815,47.5210052,-120.4661675
209,Mission Avenue,98815,47.5210182,-120.4662594
101,Maple Street,98815,47.5210099,-120.4657235
100,Maple Street,98815,47.5207851,-120.4651858
100,Maple Street,98815,47.5207936,-120.4652455
100,Maple Street,98815,47.5208033,-120.4652999
102,Maple Street,98815,47.5209272,-120.4650732
102,Maple Street,98815,47.5209388,-120.4651378
205,Mission Avenue,98815,47.5211712,-120.4670355
217,Mission Avenue,98815,47.5209550,-120.4658970
102,Maple Street,98815,47.5209505,-120.4651995
102,Maple Street,98815,47.5209619,-120.4652568
309,Mission Avenue,98815,47.5205133,-120.4640259
102,Maple Street,98815,47.5209725,-120.4653203
205,Mission Avenue,98815,47.5210739,-120.4667144
207,Mission Avenue,98815,47.5210306,-120.4663499
215,Mission Avenue,98815,47.5209756,-120.4660689
217,Mission Avenue,98815,47.5209304,-120.4657491
100,Maple Street,98815,47.5208154,-120.4653595
102,Woodring Street,98815,47.5212825,-120.4675691
203,Mission Avenue,98815,47.5211070,-120.4675744
243,Independence Way,98815,47.5216350,-120.4719812
231,Independence Way,98815,47.5218284,-120.4718328
239,Independence Way,98815,47.5216533,-120.4721133
229,Independence Way,98815,47.5218558,-120.4718306
223,Independence Way,98815,47.5219270,-120.4718325
233,Independence Way,98815,47.5217990,-120.4718290
247,Independence Way,98815,47.5216120,-120.4718447
227,Independence Way,98815,47.5218806,-120.4718353
221,Independence Way,98815,47.5219477,-120.4718288
225,Independence Way,98815,47.5219042,-120.4718333
109,Railroad Avenue,98815,47.5206198,-120.4685457
241,Independence Way,98815,47.5216436,-120.4720429
237,Independence Way,98815,47.5216626,-120.4721880
245,Independence Way,98815,47.5216211,-120.4719061
107,Railroad Avenue,98815,47.5206355,-120.4686816
101,Evergreen Drive,98815,47.5172486,-120.4856147
700,Cotlet Way,98815,47.5202910,-120.4551173
200,Tichenal Way,98815,47.5171428,-120.4526693
311,River Street,98815,47.5219369,-120.4742905
89,Riverfront Drive,98815,47.5172271,-120.4587230
106,Tichenal Way,98815,47.5196023,-120.4541344
102,Tichenal Way,98815,47.5199644,-120.4542744
103,Aplets Way,98815,47.5218434,-120.4705997
201,Aplets Way,98815,47.5225421,-120.4703311
300,Aplets Way,98815,47.5230650,-120.4694698
106,Cottage Avenue,98815,47.5218203,-120.4694198
117,Aplets Way,98815,47.5222066,-120.4706401
130,Tichenal Way,98815,47.5189517,-120.4540287
300,South Division Street,98815,47.5190140,-120.4702743
401,Elberta Avenue,98815,47.5220290,-120.4626893
401,Sunset Highway,98815,47.5206695,-120.4750869
130,Chapel Street,98815,47.5203407,-120.4755986
219,Independence Way,98815,47.5218736,-120.4718517
305,Independence Way,98815,47.5218015,-120.4733636
316,River Street,98815,47.5222136,-120.4750983
201,Riverfront Drive,98815,47.5236066,-120.4673513
5361,Olive Street,98815,47.5144363,-120.4679160
515,Olive Street,98815,47.5149205,-120.4678822
102,Mission View Place,98815,47.5148762,-120.4669856
104,Mission View Place,98815,47.5147734,-120.4665818
106,Mission View Place,98815,47.5146834,-120.4660884
108,Mission View Place,98815,47.5147719,-120.4656868
304,Fir Crest Drive,98815,47.5161116,-120.4669957
306,Fir Crest Drive,98815,47.5158499,-120.4668736
5415,Olive Street,98815,47.5160534,-120.4675003
5417,Olive Street,98815,47.5157103,-120.4676836
101,Mission View Place,98815,47.5154306,-120.4677122
103,Mission View Place,98815,47.5153298,-120.4672329
105,Mission View Place,98815,47.5155527,-120.4669665
107,Mission View Place,98815,47.5154886,-120.4664461
109,Mission View Place,98815,47.5151881,-120.4664825
113,Mission View Place,98815,47.5151321,-120.4656034
111,Mission View Place,98815,47.5153264,-120.4659767
312,Fir Crest Drive,98815,47.5157681,-120.4659289
314,Fir Crest Drive,98815,47.5158634,-120.4654618
316,Fir Crest Drive,98815,47.5161691,-120.4653477
112,Aldous Street,98815,47.5165832,-120.4646836
110,Aldous Street,98815,47.5164867,-120.4649993
108,Aldous Street,98815,47.5164693,-120.4653131
106,Aldous Street,98815,47.5165032,-120.4658085
301,Fir Crest Drive,98815,47.5165190,-120.4662535
303,Fir Crest Drive,98815,47.5162642,-120.4662240
102,Fasken Drive,98815,47.5165829,-120.4675179
102,Miner Court,98815,47.5163577,-120.4675096
104,Aldous Street,98815,47.5165322,-120.4668910
302,Fir Crest Drive,98815,47.5163368,-120.4669217
106,Fasken Drive,98815,47.5169272,-120.4656591
100,Birch Street,98815,47.5185978,-120.4667025
104,Birch Street,98815,47.5184033,-120.4667375
100,Valley Street,98815,47.5185579,-120.4673606
311,Olive Street,98815,47.5182810,-120.4673532
313,Olive Street,98815,47.5180587,-120.4673835
106,Birch Street,98815,47.5182267,-120.4667408
108,Birch Street,98815,47.5180215,-120.4666973
110,Birch Street,98815,47.5177255,-120.4667223
317,Olive Street,98815,47.5176915,-120.4673174
319,Olive Street,98815,47.5174944,-120.4673516
300,Valley Street,98815,47.5186042,-120.4647516
101,Birch Street,98815,47.5186103,-120.4660784
103,Birch Street,98815,47.5184099,-120.4661045
105,Birch Street,98815,47.5181590,-120.4660765
107,Birch Street,98815,47.5179096,-120.4660741
200,Valley Street,98815,47.5186101,-120.4654678
104,Cedar Street,98815,47.5183835,-120.4654525
106,Cedar Street,98815,47.5182113,-120.4655068
108,Cedar Street,98815,47.5179617,-120.4654116
201,Cedar Street,98815,47.5181793,-120.4646556
203,Cedar Street,98815,47.5179466,-120.4646300
205,Cedar Street,98815,47.5176642,-120.4646991
207,Cedar Street,98815,47.5173797,-120.4646791
111,Fasken Drive,98815,47.5176017,-120.4653172
101,Fasken Drive,98815,47.5169081,-120.4672853
103,Fasken Drive,98815,47.5170520,-120.4667829
105,Fasken Drive,98815,47.5171165,-120.4665318
107,Fasken Drive,98815,47.5173026,-120.4661888
109,Fasken Drive,98815,47.5174548,-120.4657625
108,Fasken Drive,98815,47.5171238,-120.4652636
111,Aldous Street,98815,47.5168881,-120.4652751
100,Cascade Place,98815,47.5129216,-120.4678183
102,Cascade Place,98815,47.5129189,-120.4675380
104,Cascade Place,98815,47.5127966,-120.4671847
106,Cascade Place,98815,47.5127805,-120.4668355
108,Cascade Place,98815,47.5126715,-120.4664928
110,Cascade Place,98815,47.5126503,-120.4659947
111,Cascade Place,98815,47.5132369,-120.4658486
109,Cascade Place,98815,47.5132404,-120.4664154
107,Cascade Place,98815,47.5132478,-120.4668559
105,Cascade Place,98815,47.5132972,-120.4672658
103,Cascade Place,98815,47.5133509,-120.4676694
101,Cascade Place,98815,47.5134317,-120.4680096
5303,Kennedy Road,98815,47.5138132,-120.4681410
100,Creekside Place,98815,47.5135302,-120.4724413
102,Creekside Place,98815,47.5133648,-120.4722873
104,Creekside Place,98815,47.5131739,-120.4721005
106,Creekside Place,98815,47.5131483,-120.4717953
108,Creekside Place,98815,47.5132024,-120.4714893
110,Creekside Place,98815,47.5131412,-120.4711722
112,Creekside Place,98815,47.5131436,-120.4708789
101,Creekside Place,98815,47.5136845,-120.4718570
103,Creekside Place,98815,47.5136246,-120.4715445
105,Creekside Place,98815,47.5136583,-120.4712335
107,Creekside Place,98815,47.5136763,-120.4708790
109,Creekside Place,98815,47.5135968,-120.4705996
111,Creekside Place,98815,47.5136149,-120.4702927
114,Creekside Place,98815,47.5131655,-120.4705942
116,Creekside Place,98815,47.5131688,-120.4702626
118,Creekside Place,98815,47.5131567,-120.4699436
120,Creekside Place,98815,47.5131293,-120.4696249
122,Creekside Place,98815,47.5131274,-120.4693175
113,Creekside Place,98815,47.5136336,-120.4699872
115,Creekside Place,98815,47.5136503,-120.4696920
117,Creekside Place,98815,47.5136240,-120.4693403
119,Creekside Place,98815,47.5133900,-120.4691510
124,Creekside Place,98815,47.5131397,-120.4689465
5252,Kennedy Road,98815,47.5129998,-120.4643622
102,Mount Cashmere Place,98815,47.5131384,-120.4647509
104,Mount Cashmere Place,98815,47.5131741,-120.4651915
106,Mount Cashmere Place,98815,47.5128652,-120.4652921
107,Mount Cashmere Place,98815,47.5125743,-120.4653433
109,Mount Cashmere Place,98815,47.5125363,-120.4647844
4864,Rank Road,98815,47.5123141,-120.4652215
201,Mission Creek Road,98815,47.5139829,-120.4727855
120,White Birch Place,98815,47.5152129,-120.4714139
122,White Birch Place,98815,47.5151382,-120.4710935
115,White Birch Place,98815,47.5155469,-120.4712745
117,White Birch Place,98815,47.5155666,-120.4710300
119,White Birch Place,98815,47.5155102,-120.4707806
121,White Birch Place,98815,47.5154097,-120.4705262
123,White Birch Place,98815,47.5152098,-120.4704585
125,White Birch Place,98815,47.5150187,-120.4704917
126,White Birch Place,98815,47.5148883,-120.4710070
127,White Birch Place,98815,47.5148399,-120.4704288
129,White Birch Place,98815,47.5146730,-120.4705024
118,White Birch Place,98815,47.5149950,-120.4715587
116,White Birch Place,98815,47.5148217,-120.4715772
128,White Birch Place,98815,47.5146666,-120.4710120
114,White Birch Place,98815,47.5146556,-120.4715558
105,Oak Street,98815,47.5144458,-120.4715927
107,Oak Street,98815,47.5144139,-120.4710887
131,White Birch Place,98815,47.5144536,-120.4704891
111,Oak Street,98815,47.5143926,-120.4702483
113,Oak Street,98815,47.5143775,-120.4699607
115,Oak Street,98815,47.5143729,-120.4696959
100,Oak Street,98815,47.5140333,-120.4724069
102,Oak Street,98815,47.5140262,-120.4721126
104,Oak Street,98815,47.5140156,-120.4717663
106,Oak Street,98815,47.5139889,-120.4714563
108,Oak Street,98815,47.5140000,-120.4710802
112,Oak Street,98815,47.5140480,-120.4707355
114,Oak Street,98815,47.5140437,-120.4704687
116,Oak Street,98815,47.5140392,-120.4701421
118,Oak Street,98815,47.5140318,-120.4699222
120,Oak Street,98815,47.5139988,-120.4696141
330,Chapel Street,98815,47.5144465,-120.4749369
302,Pioneer Avenue,98815,47.5165140,-120.4729697
303,Paton Street,98815,47.5160487,-120.4738330
304,Paton Street,98815,47.5163657,-120.4738915
302,Paton Street,98815,47.5165251,-120.4739286
300,Paton Street,98815,47.5167380,-120.4738459
306,Pioneer Avenue,98815,47.5168115,-120.4741233
308,Pioneer Avenue,98815,47.5167917,-120.4744112
301,Chapel Street,98815,47.5165283,-120.4744196
303,Chapel Street,98815,47.5163837,-120.4744436
305,Chapel Street,98815,47.5162474,-120.4744307
307,Chapel Street,98815,47.5161245,-120.4744623
309,Chapel Street,98815,47.5159931,-120.4744265
311,Chapel Street,98815,47.5158106,-120.4744453
315,Chapel Street,98815,47.5155329,-120.4744521
313,Chapel Street,98815,47.5155249,-120.4741475
317,Chapel Street,98815,47.5152929,-120.4744871
319,Chapel Street,98815,47.5151495,-120.4745122
321,Chapel Street,98815,47.5150158,-120.4744913
323,Chapel Street,98815,47.5148700,-120.4744704
300,Chapel Street,98815,47.5167610,-120.4752839
300 1/2,Chapel Street,98815,47.5165473,-120.4750599
302,Chapel Street,98815,47.5164125,-120.4750889
304,Chapel Street,98815,47.5162216,-120.4750815
308,Chapel Street,98815,47.5160141,-120.4750584
310,Chapel Street,98815,47.5158548,-120.4750973
312,Chapel Street,98815,47.5157319,-120.4750748
316,Chapel Street,98815,47.5154565,-120.4750990
320,Chapel Street,98815,47.5152139,-120.4750791
322,Chapel Street,98815,47.5150036,-120.4750991
324,Chapel Street,98815,47.5148459,-120.4751024
326,Chapel Street,98815,47.5147044,-120.4750631
328,Chapel Street,98815,47.5145933,-120.4749651
334,Chapel Street,98815,47.5140643,-120.4749667
108,Julie Ann Court,98815,47.5144331,-120.4740940
109,Julie Ann Court,98815,47.5142226,-120.4739235
406,Mission Creek Road,98815,47.5139675,-120.4737485
404,Mission Creek Road,98815,47.5138527,-120.4732216
107,Julie Ann Court,98815,47.5142137,-120.4736047
128,Mission Creek Road,98815,47.5142412,-120.4732635
105,Julie Ann Court,98815,47.5144303,-120.4733773
106,Julie Ann Court,98815,47.5146695,-120.4740502
103,Julie Ann Court,98815,47.5146208,-120.4732632
104,Julie Ann Court,98815,47.5147733,-120.4738405
102,Julie Ann Court,98815,47.5149323,-120.4735986
100,Julie Ann Court,98815,47.5150067,-120.4732733
124,Mission Creek Road,98815,47.5152024,-120.4732242
120,Mission Creek Road,98815,47.5154120,-120.4731536
116,Mission Creek Road,98815,47.5156970,-120.4730647
100,Pioneer Avenue,98815,47.5166347,-120.4711179
104,Pioneer Avenue,98815,47.5166990,-120.4714951
106,Pioneer Avenue,98815,47.5165715,-120.4716935
108,Pioneer Avenue,98815,47.5167397,-120.4719023
103,Mission Creek Road,98815,47.5163704,-120.4721018
105,Mission Creek Road,98815,47.5161917,-120.4720535
107,Mission Creek Road,98815,47.5159704,-120.4721793
113,Mission Creek Road,98815,47.5156814,-120.4722140
115A,Mission Creek Road,98815,47.5155788,-120.4726807
115B,Mission Creek Road,98815,47.5155654,-120.4725156
115C,Mission Creek Road,98815,47.5155506,-120.4723714
117,Mission Creek Road,98815,47.5153551,-120.4726646
119,Mission Creek Road,98815,47.5152163,-120.4726558
109,White Birch Place,98815,47.5152066,-120.4720987
123,Mission Creek Road,98815,47.5150177,-120.4726304
125,Mission Creek Road,98815,47.5148104,-120.4726645
127,Mission Creek Road,98815,47.5146015,-120.4726562
101,Oak Street,98815,47.5144272,-120.4726060
107,White Birch Place,98815,47.5150314,-120.4721397
105,White Birch Place,98815,47.5148442,-120.4721103
103,White Birch Place,98815,47.5146790,-120.4721101
103,Oak Street,98815,47.5144450,-120.4722469
101,Phillips Place,98815,47.5153292,-120.4689497
103,Phillips Place,98815,47.5152940,-120.4685416
414,South Division Street,98815,47.5151594,-120.4696157
416,South Division Street,98815,47.5148300,-120.4694706
102,Phillips Place,98815,47.5148198,-120.4686476
100,Phillips Place,98815,47.5143942,-120.4688440
109,Newberry Street,98815,47.5164491,-120.4682016
107,Newberry Street,98815,47.5166907,-120.4681938
105,Newberry Street,98815,47.5167048,-120.4685521
103,Newberry Street,98815,47.5166450,-120.4688687
101,Newberry Street,98815,47.5165569,-120.4691984
405,South Division Street,98815,47.5166285,-120.4694888
404,South Division Street,98815,47.5165483,-120.4700203
406,South Division Street,98815,47.5162770,-120.4700616
408,South Division Street,98815,47.5159772,-120.4699777
410,South Division Street,98815,47.5156915,-120.4698903
412,South Division Street,98815,47.5154108,-120.4697176
302,South Division Street,98815,47.5188876,-120.4702592
304,South Division Street,98815,47.5187594,-120.4702348
306,South Division Street,98815,47.5186485,-120.4702531
308,South Division Street,98815,47.5185619,-120.4702195
312,South Division Street,98815,47.5183768,-120.4702262
314,South Division Street,98815,47.5182499,-120.4701897
316,South Division Street,98815,47.5181268,-120.4701946
318,South Division Street,98815,47.5180069,-120.4702201
320,South Division Street,98815,47.5178771,-120.4702408
324,South Division Street,98815,47.5176467,-120.4702521
326,South Division Street,98815,47.5174863,-120.4702114
328,South Division Street,98815,47.5172229,-120.4704275
409,South Division Street,98815,47.5158565,-120.4692469
407,South Division Street,98815,47.5161573,-120.4693377
323,South Division Street,98815,47.5169537,-120.4695098
102,Chase Avenue,98815,47.5170947,-120.4693771
104,Chase Avenue,98815,47.5170892,-120.4689422
106,Chase Avenue,98815,47.5171230,-120.4687114
108,Chase Avenue,98815,47.5171323,-120.4684757
110,Chase Avenue,98815,47.5171138,-120.4682416
112,Chase Avenue,98815,47.5171390,-120.4680109
301,South Division Street,98815,47.5186358,-120.4695556
303,South Division Street,98815,47.5184981,-120.4695273
106,Lincoln Street,98815,47.5185669,-120.4690803
104,Lincoln Street,98815,47.5185715,-120.4692840
305,South Division Street,98815,47.5182889,-120.4693094
308,Olive Street,98815,47.5182387,-120.4680271
314,Olive Street,98815,47.5179127,-120.4680379
109,Chase Avenue,98815,47.5175885,-120.4679528
107,Chase Avenue,98815,47.5175811,-120.4681949
105,Chase Avenue,98815,47.5175963,-120.4684492
213,South Division Street,98815,47.5197061,-120.4695481
217,South Division Street,98815,47.5192748,-120.4695865
219,South Division Street,98815,47.5191426,-120.4695337
225,South Division Street,98815,47.5188403,-120.4695586
204,Washington Street,98815,47.5200285,-120.4688443
206,Washington Street,98815,47.5199337,-120.4690545
208,Washington Street,98815,47.5197487,-120.4689084
212,Washington Street,98815,47.5195584,-120.4688633
214,Washington Street,98815,47.5194012,-120.4688579
216,Washington Street,98815,47.5192700,-120.4688583
218,Washington Street,98815,47.5191340,-120.4688529
107,Lincoln Street,98815,47.5188670,-120.4691035
222,Washington Street,98815,47.5188850,-120.4688709
110,Lincoln Street,98815,47.5185931,-120.4687710
200,Railroad Avenue,98815,47.5198956,-120.4671374
201,South Division Street,98815,47.5204619,-120.4697624
203,South Division Street,98815,47.5203655,-120.4696295
205,South Division Street,98815,47.5201566,-120.4696079
207,South Division Street,98815,47.5199645,-120.4696277
201,Washington Street,98815,47.5202359,-120.4682190
203,Washington Street,98815,47.5201266,-120.4682980
205,Washington Street,98815,47.5199743,-120.4682693
207,Washington Street,98815,47.5198257,-120.4682236
209,Washington Street,98815,47.5196887,-120.4682449
211,Washington Street,98815,47.5195418,-120.4682314
213,Washington Street,98815,47.5194092,-120.4682127
215,Washington Street,98815,47.5192706,-120.4682247
217,Washington Street,98815,47.5191515,-120.4682641
222,Olive Street,98815,47.5190547,-120.4679997
224,Olive Street,98815,47.5188700,-120.4680496
104,Cottage Avenue,98815,47.5218838,-120.4695239
102,Cottage Avenue,98815,47.5218562,-120.4697194
110,Cottage Avenue,98815,47.5217870,-120.4691791
112,Cottage Avenue,98815,47.5217710,-120.4690634
116,Cottage Avenue,98815,47.5217521,-120.4688242
118,Cottage Avenue,98815,47.5217211,-120.4687167
120,Cottage Avenue,98815,47.5217063,-120.4686056
122,Cottage Avenue,98815,47.5217624,-120.4684651
124,Cottage Avenue,98815,47.5216722,-120.4683497
126,Cottage Avenue,98815,47.5216542,-120.4682327
128,Cottage Avenue,98815,47.5216864,-120.4680376
101,Paton Street,98815,47.5203954,-120.4724547
300,Sunset Highway,98815,47.5209200,-120.4718841
111,Railroad Avenue,98815,47.5205287,-120.4678962
103,Railroad Avenue,98815,47.5206981,-120.4691683
101,Railroad Avenue,98815,47.5207448,-120.4695400
201 1/2,Perry Street,98815,47.5228520,-120.4714965
201,Perry Street,98815,47.5230232,-120.4715340
203,Perry Street,98815,47.5229947,-120.4717249
205,Perry Street,98815,47.5229661,-120.4718702
207,Perry Street,98815,47.5229640,-120.4720594
209,Perry Street,98815,47.5229138,-120.4722611
209,Perry Street,98815,47.5230122,-120.4722811
211,Perry Street,98815,47.5230040,-120.4724696
215,Perry Street,98815,47.5230167,-120.4726509
217,Perry Street,98815,47.5230082,-120.4728357
221,Perry Street,98815,47.5229684,-120.4738064
219,Perry Street,98815,47.5230161,-120.4735231
207,McGill Street,98815,47.5230198,-120.4732681
208,McGill Street,98815,47.5228387,-120.4732816
308,River Street,98815,47.5226154,-120.4738493
306 1/2,River Street,98815,47.5226292,-120.4735779
306,River Street,98815,47.5225748,-120.4736083
304,River Street,98815,47.5225165,-120.4733206
300,River Street,98815,47.5225459,-120.4731539
309,River Street,98815,47.5221097,-120.4738584
307,River Street,98815,47.5221303,-120.4734282
301,River Street,98815,47.5220736,-120.4730571
217,River Street,98815,47.5222294,-120.4728827
215,River Street,98815,47.5222222,-120.4727228
211,River Street,98815,47.5222096,-120.4724082
207,River Street,98815,47.5220801,-120.4721838
205,River Street,98815,47.5222138,-120.4719315
203,River Street,98815,47.5222215,-120.4716892
201,River Street,98815,47.5221982,-120.4714990
117,Mission Avenue,98815,47.5213948,-120.4688751
304,Kennedy Road,98815,47.5142234,-120.4638147
5300,Kennedy Road,98815,47.5141020,-120.4643871
226,Cottage Avenue,98815,47.5213442,-120.4656463
224,Cottage Avenue,98815,47.5213797,-120.4658474
222,Cottage Avenue,98815,47.5213572,-120.4661640
218,Cottage Avenue,98815,47.5214484,-120.4664577
214,Cottage Avenue,98815,47.5214115,-120.4666456
210,Cottage Avenue,98815,47.5214796,-120.4669143
208,Cottage Avenue,98815,47.5215275,-120.4670981
120,Parkhill Street,98815,47.5199088,-120.4601859
122,Parkhill Street,98815,47.5201528,-120.4602866
124,Parkhill Street,98815,47.5203075,-120.4602961
500,Cottage Avenue,98815,47.5205253,-120.4603139
502,Cottage Avenue,98815,47.5205692,-120.4601248
504,Cottage Avenue,98815,47.5205274,-120.4598630
121,South Douglas Street,98815,47.5202715,-120.4598795
117,South Douglas Street,98815,47.5200092,-120.4598491
115,South Douglas Street,98815,47.5198629,-120.4597667
110,South Douglas Street,98815,47.5194669,-120.4591611
112,South Douglas Street,98815,47.5196177,-120.4591799
506,Cottage Avenue,98815,47.5204901,-120.4594587
508,Cottage Avenue,98815,47.5205031,-120.4592389
510,Cottage Avenue,98815,47.5203483,-120.4588524
120,South Douglas Street,98815,47.5201688,-120.4593493
118,South Douglas Street,98815,47.5200245,-120.4593578
127,Riverfront Drive,98815,47.5201954,-120.4588227
125,Riverfront Drive,98815,47.5200621,-120.4588172
123,Riverfront Drive,98815,47.5199500,-120.4588096
121,Riverfront Drive,98815,47.5198116,-120.4587537
119,Riverfront Drive,98815,47.5196928,-120.4587183
117,Riverfront Drive,98815,47.5195511,-120.4586903
115,Riverfront Drive,98815,47.5194073,-120.4586880
111,Riverfront Drive,98815,47.5191078,-120.4586839
106,South Douglas Street,98815,47.5192111,-120.4591272
104,South Douglas Street,98815,47.5190903,-120.4590692
102,South Douglas Street,98815,47.5190046,-120.4588948
109,Riverfront Drive,98815,47.5190044,-120.4585983
107,Riverfront Drive,98815,47.5188619,-120.4585742
103,Riverfront Drive,98815,47.5186235,-120.4585059
105,Riverfront Drive,98815,47.5187429,-120.4585106
100,South Douglas Street,98815,47.5188269,-120.4589968
103,South Douglas Street,98815,47.5190117,-120.4594997
106,Parkhill Street,98815,47.5194968,-120.4599893
118,Parkhill Street,98815,47.5197087,-120.4600369
113,South Douglas Street,98815,47.5195751,-120.4596557
109,South Douglas Street,98815,47.5193637,-120.4596205
104,Parkhill Street,98815,47.5192446,-120.4598510
102,Parkhill Street,98815,47.5191298,-120.4599323
100,Parkhill Street,98815,47.5190065,-120.4598560
18,Parkhill Street,98815,47.5188008,-120.4599018
97,South Douglas Street,98815,47.5186576,-120.4594832
14,Parkhill Street,98815,47.5185188,-120.4599895
10,Parkhill Street,98815,47.5181488,-120.4599616
95,South Douglas Street,98815,47.5184340,-120.4595705
93,South Douglas Street,98815,47.5182276,-120.4596160
91,South Douglas Street,98815,47.5180849,-120.4596411
201,Parkhill Street,98815,47.5177973,-120.4591135
90,South Douglas Street,98815,47.5179658,-120.4591544
92,South Douglas Street,98815,47.5180981,-120.4591365
94,South Douglas Street,98815,47.5182769,-120.4591360
98,South Douglas Street,98815,47.5185327,-120.4590804
97,Riverfront Drive,98815,47.5183351,-120.4585170
95,Riverfront Drive,98815,47.5182075,-120.4586949
203,Parkhill Street,98815,47.5177526,-120.4588416
93,Riverfront Drive,98815,47.5177562,-120.4584495
320,Cottage Avenue,98815,47.5207993,-120.4634940
318,Cottage Avenue,98815,47.5208159,-120.4636606
316,Cottage Avenue,98815,47.5208858,-120.4637754
314,Cottage Avenue,98815,47.5209332,-120.4639041
312,Cottage Avenue,98815,47.5209304,-120.4641303
308,Cottage Avenue,98815,47.5209916,-120.4643423
306,Cottage Avenue,98815,47.5210928,-120.4645735
304,Cottage Avenue,98815,47.5211369,-120.4647879
302,Cottage Avenue,98815,47.5211821,-120.4650509
300,Cottage Avenue,98815,47.5212668,-120.4652107
811,Pioneer Avenue,98815,47.5173434,-120.4818532
817,Pioneer Avenue,98815,47.5179412,-120.4825960
809,Pioneer Avenue,98815,47.5177121,-120.4814998
927,Pioneer Avenue,98815,47.5172685,-120.4851308
925,Pioneer Avenue,98815,47.5173693,-120.4847299
919,Pioneer Avenue,98815,47.5172743,-120.4841299
915 B,Pioneer Avenue,98815,47.5176765,-120.4835935
915,Pioneer Avenue,98815,47.5172684,-120.4836352
913,Pioneer Avenue,98815,47.5172692,-120.4830378
327,Tigner Road,98815,47.5147401,-120.4783576
325,Tigner Road,98815,47.5149181,-120.4782792
323,Tigner Road,98815,47.5150839,-120.4782891
321,Tigner Road,98815,47.5153387,-120.4783416
319,Tigner Road,98815,47.5156130,-120.4783796
315,Tigner Road,98815,47.5158333,-120.4783751
311,Tigner Road,98815,47.5160502,-120.4784236
309,Tigner Road,98815,47.5162166,-120.4783947
307,Tigner Road,98815,47.5164156,-120.4784973
305,Tigner Road,98815,47.5166008,-120.4784117
602,Chapel Street,98815,47.5167623,-120.4784270
328,Sullivan Street,98815,47.5152792,-120.4802327
330,Sullivan Street,98815,47.5149907,-120.4800811
327 1/2,Tigner Road,98815,47.5147367,-120.4790724
324,Peshastin Street,98815,47.5150124,-120.4788315
329,Peshastin Street,98815,47.5150201,-120.4792422
327,Peshastin Street,98815,47.5152328,-120.4796674
325,Peshastin Street,98815,47.5153749,-120.4796652
324,Sullivan Street,98815,47.5156185,-120.4802494
321,Peshastin Street,98815,47.5156370,-120.4796131
713,Yakima Street,98815,47.5158548,-120.4799728
711,Yakima Street,98815,47.5159103,-120.4796344
314,Sullivan Street,98815,47.5161366,-120.4804477
312,Sullivan Street,98815,47.5162668,-120.4804582
315,Peshastin Street,98815,47.5161694,-120.4797580
309,Peshastin Street,98815,47.5164269,-120.4797624
310,Sullivan Street,98815,47.5164341,-120.4803315
302,Sullivan Street,98815,47.5165774,-120.4804831
300,Sullivan Street,98815,47.5167915,-120.4805656
712,Pioneer Avenue,98815,47.5168106,-120.4801624
702,Pioneer Avenue,98815,47.5167641,-120.4796867
604,Chapel Street,98815,47.5168053,-120.4788109
304,Peshastin Street,98815,47.5167256,-120.4791463
310,Peshastin Street,98815,47.5164375,-120.4792248
314,Peshastin Street,98815,47.5162111,-120.4791150
316,Peshastin Street,98815,47.5160252,-120.4791277
318,Peshastin Street,98815,47.5158273,-120.4789991
320,Peshastin Street,98815,47.5156034,-120.4790579
322,Peshastin Street,98815,47.5153283,-120.4790032
107,Evergreen Drive,98815,47.5186688,-120.4854759
105,Evergreen Drive,98815,47.5178590,-120.4856353
5661,Pioneer Avenue,98815,47.5167533,-120.4856612
302,Fisher Street,98815,47.5160605,-120.4855940
320,Fisher Street,98815,47.5154014,-120.4855744
914,Pioneer Avenue,98815,47.5166805,-120.4838796
918,Pioneer Avenue,98815,47.5168101,-120.4844289
920,Pioneer Avenue,98815,47.5168153,-120.4847639
922,Pioneer Avenue,98815,47.5167430,-120.4850702
303,Fisher Street,98815,47.5165708,-120.4850490
305,Fisher Street,98815,47.5164704,-120.4847510
916,Pioneer Avenue,98815,47.5165644,-120.4844198
300,Garden Circle,98815,47.5162010,-120.4839305
916 B,Pioneer Avenue,98815,47.5162378,-120.4844398
309,Fisher Street,98815,47.5161901,-120.4850324
307,Fisher Street,98815,47.5162875,-120.4847418
311,Fisher Street,98815,47.5159915,-120.4850177
313,Fisher Street,98815,47.5158777,-120.4847074
317,Fisher Street,98815,47.5156406,-120.4849857
319,Fisher Street,98815,47.5153379,-120.4849601
315,Fisher Street,98815,47.5156839,-120.4846898
308,Garden Circle,98815,47.5157435,-120.4841608
816,Emerald Avenue,98815,47.5153712,-120.4826630
812,Emerald Avenue,98815,47.5153886,-120.4823532
808,Emerald Avenue,98815,47.5153608,-120.4820511
806,Emerald Avenue,98815,47.5153594,-120.4817849
804,Emerald Avenue,98815,47.5153494,-120.4814747
802\,Emerald Avenue,98815,47.5153738,-120.4812029
800,Emerald Avenue,98815,47.5153806,-120.4809085
307,Laurel Street,98815,47.5159344,-120.4824871
811,Emerald Avenue,98815,47.5157451,-120.4824637
310,Orchid Street,98815,47.5157701,-120.4820794
308,Orchid Street,98815,47.5159904,-120.4820878
305,Laurel Street,98815,47.5161491,-120.4825233
902,Ivy Avenue,98815,47.5163563,-120.4824869
306,Orchid Street,98815,47.5161930,-120.4820931
900,Ivy Avenue,98815,47.5163765,-120.4821531
307,Garden Circle,98815,47.5161208,-120.4834898
305,Garden Circle,98815,47.5157346,-120.4835865
310,Laurel Street,98815,47.5155332,-120.4830416
308,Laurel Street,98815,47.5157623,-120.4830234
306,Laurel Street,98815,47.5159446,-120.4830520
304,Laurel Street,98815,47.5161360,-120.4830832
302,Laurel Street,98815,47.5163192,-120.4830630
303,Garden Circle,98815,47.5164907,-120.4834616
912,Pioneer Avenue,98815,47.5168044,-120.4835007
300,Laurel Street,98815,47.5165129,-120.4830911
910,Pioneer Avenue,98815,47.5168278,-120.4832178
908,Pioneer Avenue,98815,47.5167971,-120.4829541
906,Pioneer Avenue,98815,47.5167766,-120.4827041
904,Pioneer Avenue,98815,47.5167749,-120.4824565
902,Pioneer Avenue,98815,47.5168118,-120.4821760
804,Pioneer Avenue,98815,47.5168271,-120.4815287
303,Orchid Street,98815,47.5166378,-120.4815640
305,Orchid Street,98815,47.5164295,-120.4815413
307,Orchid Street,98815,47.5162164,-120.4815614
309,Orchid Street,98815,47.5160076,-120.4815051
311,Orchid Street,98815,47.5157588,-120.4814927
803,Emerald Avenue,98815,47.5157355,-120.4811981
801,Emerald Avenue,98815,47.5157733,-120.4809848
317,Sullivan Street,98815,47.5160033,-120.4810659
315,Sullivan Street,98815,47.5161908,-120.4810571
303,Sullivan Street,98815,47.5163714,-120.4810637
301,Sullivan Street,98815,47.5167134,-120.4811222
5579,Mill Road,98815,47.5220366,-120.4837209
807,Pioneer Avenue,98815,47.5172621,-120.4809803
703,Pioneer Avenue,98815,47.5171961,-120.4796789
717,Pioneer Avenue,98815,47.5172898,-120.4805928
707,Pioneer Avenue,98815,47.5174470,-120.4800637
715,Pioneer Avenue,98815,47.5175427,-120.4803803
719,Pioneer Avenue,98815,47.5176358,-120.4806245
807 1/2,Pioneer Avenue,98815,47.5176215,-120.4809379
701,Pioneer Avenue,98815,47.5180091,-120.4806286
611,Pioneer Avenue,98815,47.5176843,-120.4792981
5455,Mill Road,98815,47.5204686,-120.4797886
101,Cottage Avenue,98815,47.5224038,-120.4697678
103,Cottage Avenue,98815,47.5223821,-120.4696283
107,Cottage Avenue,98815,47.5223540,-120.4695070
109,Cottage Avenue,98815,47.5223476,-120.4693874
113,Cottage Avenue,98815,47.5223304,-120.4692677
115,Cottage Avenue,98815,47.5222507,-120.4691706
119,Cottage Avenue,98815,47.5222738,-120.4688654
125,Cottage Avenue,98815,47.5222374,-120.4685977
127,Cottage Avenue,98815,47.5222123,-120.4684123
131,Cottage Avenue,98815,47.5221080,-120.4681451
203,Woodring Street,98815,47.5222761,-120.4680436
08,Cottage Avenue,98815,47.5218036,-120.4692986
412,Valley View Drive,98815,47.5120625,-120.4749989
410,Valley View Drive,98815,47.5121758,-120.4747343
409,Valley View Drive,98815,47.5123082,-120.4743122
408,Valley View Drive,98815,47.5125114,-120.4741047
407,Valley View Drive,98815,47.5127373,-120.4745216
406,Valley View Drive,98815,47.5128660,-120.4747452
405,Valley View Drive,98815,47.5132426,-120.4748572
404,Valley View Drive,98815,47.5131221,-120.4752279
403,Valley View Drive,98815,47.5129236,-120.4755568
402,Valley View Drive,98815,47.5126815,-120.4757720
400,Valley View Drive,98815,47.5122741,-120.4760814
401,Valley View Drive,98815,47.5124870,-120.4759547
195,Skyline Drive,98815,47.5126794,-120.4765991
199,Skyline Drive,98815,47.5125302,-120.4768483
201,Skyline Drive,98815,47.5123926,-120.4770946
410,Skyline Drive,98815,47.5119024,-120.4769824
408,Skyline Drive,98815,47.5117388,-120.4772918
503,Skyline Drive,98815,47.5111962,-120.4776822
505,Skyline Drive,98815,47.5111475,-120.4779965
507,Skyline Drive,98815,47.5111074,-120.4782658
506,Skyline Drive,98815,47.5115699,-120.4780062
203,Skyline Drive,98815,47.5121068,-120.4775949
205,Skyline Drive,98815,47.5119634,-120.4780051
206,Skyline Drive,98815,47.5120066,-120.4788204
204,Skyline Drive,98815,47.5122087,-120.4783813
202,Skyline Drive,98815,47.5123986,-120.4780270
400,Tigner Road,98815,47.5127444,-120.4778181
108,Skyline Drive,98815,47.5128356,-120.4771262
505,Glen Street,98815,47.5129940,-120.4772713
4831,Rank Road,98815,47.5119076,-120.4615505
5647,Sunset Highway,98815,47.5225452,-120.4835338
5653,Sunset Highway,98815,47.5233108,-120.4841960
201,Cottage Avenue,98815,47.5220649,-120.4674237
227,Cottage Avenue,98815,47.5218129,-120.4660053
229,Cottage Avenue,98815,47.5218317,-120.4657079
5693,Sunset Highway,98815,47.5222350,-120.4851082
107,Meadowsweet Place,98815,47.5126868,-120.4734826
105,Meadowsweet Place,98815,47.5124246,-120.4734220
103,Meadowsweet Place,98815,47.5124208,-120.4731446
101,Meadowsweet Place,98815,47.5124489,-120.4728738
5194,Regan Road,98815,47.5117942,-120.4758538
250,Kennedy Road,98815,47.5151131,-120.4645086
306,Kennedy Road,98815,47.5148786,-120.4636375
300,Kennedy Road,98815,47.5156990,-120.4642743
105,Hassan Street,98815,47.5165083,-120.4640651
103,Hassan Street,98815,47.5162461,-120.4637182
101,Hassan Street,98815,47.5161367,-120.4634245
306,Valley Street,98815,47.5178546,-120.4639589
426,Mission Avenue,98815,47.5191749,-120.4617670
200,Cottage Avenue,98815,47.5215644,-120.4675569
101,Woodring Street,98815,47.5212695,-120.4680604
101,Crestview Place,98815,47.5197672,-120.4657774
103,Crestview Place,98815,47.5195592,-120.4658597
104,Crestview Place,98815,47.5192898,-120.4657166
102,Crestview Place,98815,47.5193883,-120.4652270
300,Crestview Place,98815,47.5196797,-120.4651932
302,Railroad Avenue,98815,47.5195678,-120.4647832
304,Railroad Avenue,98815,47.5194397,-120.4644661
306,Railroad Avenue,98815,47.5194218,-120.4641248
301,Valley Street,98815,47.5190215,-120.4644825
209,Valley Street,98815,47.5190024,-120.4647984
207,Valley Street,98815,47.5189826,-120.4651137
205,Valley Street,98815,47.5190051,-120.4653818
203,Valley Street,98815,47.5189955,-120.4657338
201,Valley Street,98815,47.5189851,-120.4660851
104,Mountain View Place,98815,47.5191957,-120.4661487
106,Mountain View Place,98815,47.5195293,-120.4662041
108,Mountain View Place,98815,47.5197333,-120.4661928
109,Mountain View Place,98815,47.5198140,-120.4664430
107,Mountain View Place,98815,47.5197288,-120.4667264
105,Mountain View Place,98815,47.5195178,-120.4668420
221,Olive Street,98815,47.5192323,-120.4673802
103,Mountain View Place,98815,47.5192402,-120.4667666
101,Mountain View Place,98815,47.5189912,-120.4666519
103,Valley Street,98815,47.5189568,-120.4669131
101,Valley Street,98815,47.5189484,-120.4672918
401,Mission Avenue,98815,47.5202477,-120.4628559
404,Mission Avenue,98815,47.5197643,-120.4627558
302,Olive Street,98815,47.5187318,-120.4681094
5420,Olive Street,98815,47.5160756,-120.4684596
310,Fir Crest Drive,98815,47.5158562,-120.4662377
111,Mount Cashmere Place,98815,47.5124899,-120.4643100
110,Meadowsweet Place,98815,47.5135455,-120.4738928
115,Meadowsweet Place,98815,47.5134031,-120.4740044
113,Meadowsweet Place,98815,47.5132071,-120.4739910
111,Meadowsweet Place,98815,47.5130489,-120.4737429
109,Meadowsweet Place,98815,47.5128986,-120.4735332
108,Meadowsweet Place,98815,47.5135554,-120.4735397
106,Meadowsweet Place,98815,47.5134307,-120.4732737
104,Meadowsweet Place,98815,47.5132802,-120.4730577
102,Meadowsweet Place,98815,47.5130807,-120.4729493
100,Meadowsweet Place,98815,47.5128989,-120.4729420
314,Chapel Street,98815,47.5155790,-120.4751053
330,South Division Street,98815,47.5169011,-120.4699575
300,Pioneer Avenue,98815,47.5166493,-120.4726405
301,Paton Street,98815,47.5165710,-120.4734362
304,Pioneer Avenue,98815,47.5167797,-120.4732040
103,Chase Avenue,98815,47.5175838,-120.4687067
101,Chase Avenue,98815,47.5175851,-120.4690361
313,South Division Street,98815,47.5177177,-120.4695335
309,South Division Street,98815,47.5179259,-120.4694746
307,South Division Street,98815,47.5180788,-120.4695660
5607,Sunset Highway,98815,47.5228639,-120.4837474
220,Paton Street,98815,47.5171800,-120.4737937
307,Pioneer Avenue,98815,47.5172139,-120.4743124
222,Chapel Street,98815,47.5172847,-120.4750394
405,Pioneer Avenue,98815,47.5172512,-120.4752690
407,Pioneer Avenue,98815,47.5172846,-120.4754566
409,Pioneer Avenue,98815,47.5173478,-120.4757107
411,Pioneer Avenue,98815,47.5180852,-120.4757545
501,Pioneer Avenue,98815,47.5177554,-120.4761429
503,Pioneer Avenue,98815,47.5173307,-120.4763861
505,Pioneer Avenue,98815,47.5172306,-120.4768016
507,Pioneer Avenue,98815,47.5172723,-120.4774086
300,Angier Avenue,98815,47.5188685,-120.4736027
302,Angier Avenue,98815,47.5188970,-120.4737729
304,Angier Avenue,98815,47.5188994,-120.4739717
306,Angier Avenue,98815,47.5188938,-120.4742384
310,Angier Avenue,98815,47.5188392,-120.4744891
202,Chapel Street,98815,47.5189155,-120.4749954
110,Quail Lane,98815,47.5191343,-120.4753916
108,Quail Lane,98815,47.5192689,-120.4754076
106,Quail Lane,98815,47.5194285,-120.4754300
104,Quail Lane,98815,47.5195677,-120.4754241
107,Quail Lane,98815,47.5192275,-120.4749876
105,Quail Lane,98815,47.5194194,-120.4750471
102,Quail Lane,98815,47.5197468,-120.4752701
301,Angier Avenue,98815,47.5192959,-120.4734813
303,Angier Avenue,98815,47.5193295,-120.4737689
305,Angier Avenue,98815,47.5192699,-120.4739761
307,Angier Avenue,98815,47.5193216,-120.4742116
309,Angier Avenue,98815,47.5192796,-120.4745578
105,Chapel Street,98815,47.5195158,-120.4745736
115,Pioneer Avenue,98815,47.5171559,-120.4728118
217,Paton Street,98815,47.5172160,-120.4731883
301,Pioneer Avenue,98815,47.5173017,-120.4726316
215,Paton Street,98815,47.5175259,-120.4731653
213,Paton Street,98815,47.5176918,-120.4731188
211,Paton Street,98815,47.5178605,-120.4731213
209,Paton Street,98815,47.5180658,-120.4731603
207,Paton Street,98815,47.5182577,-120.4731389
205,Paton Street,98815,47.5184090,-120.4731786
203,Paton Street,98815,47.5186275,-120.4730792
201,Paton Street,98815,47.5189031,-120.4731190
216,Paton Street,98815,47.5174272,-120.4737607
212,Paton Street,98815,47.5177714,-120.4737286
210,Paton Street,98815,47.5179272,-120.4737178
208,Paton Street,98815,47.5180688,-120.4737140
206,Paton Street,98815,47.5181958,-120.4737263
204,Paton Street,98815,47.5183663,-120.4737095
200,Paton Street,98815,47.5185904,-120.4737354
217,Chapel Street,98815,47.5174066,-120.4743893
215,Chapel Street,98815,47.5176247,-120.4743964
213,Chapel Street,98815,47.5177708,-120.4744303
211,Chapel Street,98815,47.5179293,-120.4743170
209,Chapel Street,98815,47.5180605,-120.4743744
207,Chapel Street,98815,47.5181888,-120.4743618
205,Chapel Street,98815,47.5183354,-120.4744019
201,Chapel Street,98815,47.5186156,-120.4744286
204,Chapel Street,98815,47.5187123,-120.4749954
206,Chapel Street,98815,47.5185161,-120.4751121
208,Chapel Street,98815,47.5183088,-120.4750715
210,Chapel Street,98815,47.5181542,-120.4750959
212,Chapel Street,98815,47.5180095,-120.4749982
214,Chapel Street,98815,47.5178785,-120.4750105
216,Chapel Street,98815,47.5177345,-120.4749965
220,Chapel Street,98815,47.5175331,-120.4750461
334,Sullivan Street,98815,47.5149224,-120.4796692
717,Yakima Street,98815,47.5158512,-120.4803664
100,Evergreen Drive,98815,47.5174585,-120.4857716
929,Pioneer Avenue,98815,47.5175777,-120.4855067
107,Parkhill Street,98815,47.5198071,-120.4607193
105,Parkhill Street,98815,47.5195689,-120.4604554
105 1/2,Parkhill Street,98815,47.5194800,-120.4608824
103,Parkhill Street,98815,47.5193199,-120.4604077
101,Parkhill Street,98815,47.5191601,-120.4604876
431,Mission Avenue,98815,47.5192982,-120.4608322
429,Mission Avenue,98815,47.5193218,-120.4609944
427,Mission Avenue,98815,47.5194805,-120.4612403
425,Mission Avenue,98815,47.5195772,-120.4613650
108,South Douglas Street,98815,47.5193391,-120.4591653
406,Cottage Avenue,98815,47.5206519,-120.4626298
408,Cottage Avenue,98815,47.5206266,-120.4624059
410,Cottage Avenue,98815,47.5206471,-120.4621486
416,Cottage Avenue,98815,47.5204598,-120.4614701
412,Cottage Avenue,98815,47.5206304,-120.4618907
420,Cottage Avenue,98815,47.5203142,-120.4613586
422,Cottage Avenue,98815,47.5202217,-120.4612736
424,Cottage Avenue,98815,47.5201515,-120.4611509
426,Cottage Avenue,98815,47.5200368,-120.4610690
116,South Douglas Street,98815,47.5199116,-120.4593354
400,Cottage Avenue,98815,47.5206437,-120.4629683
215,Maple Street,98815,47.5220561,-120.4655926
217,Maple Street,98815,47.5222229,-120.4656045
218,Elberta Avenue,98815,47.5222320,-120.4657754
216,Elberta Avenue,98815,47.5222647,-120.4659634
214,Elberta Avenue,98815,47.5222714,-120.4661681
206,Elberta Avenue,98815,47.5223777,-120.4669722
208,Elberta Avenue,98815,47.5223830,-120.4667471
210,Elberta Avenue,98815,47.5223592,-120.4665572
212,Elberta Avenue,98815,47.5223160,-120.4663611
310,Elberta Avenue,98815,47.5220232,-120.4643224
308,Elberta Avenue,98815,47.5221264,-120.4645007
306,Elberta Avenue,98815,47.5221674,-120.4646756
302,Elberta Avenue,98815,47.5221689,-120.4649787
300,Elberta Avenue,98815,47.5221873,-120.4651310
311,Cottage Avenue,98815,47.5214494,-120.4641631
309,Cottage Avenue,98815,47.5215719,-120.4643954
307,Cottage Avenue,98815,47.5215819,-120.4645745
305,Cottage Avenue,98815,47.5215891,-120.4647667
301,Cottage Avenue,98815,47.5217076,-120.4651630
225,Cottage Avenue,98815,47.5218851,-120.4662234
223,Cottage Avenue,98815,47.5219128,-120.4664302
219,Cottage Avenue,98815,47.5219323,-120.4666276
204,Cottage Avenue,98815,47.5216283,-120.4673624
117,Cottage Avenue,98815,47.5222340,-120.4690555
121,Cottage Avenue,98815,47.5222550,-120.4687242
205,Woodring Street,98815,47.5224167,-120.4680416
112,Elberta Avenue,98815,47.5224695,-120.4683659
206,Woodring Street,98815,47.5224227,-120.4673624
209,Woodring Street,98815,47.5226394,-120.4681175
207,Woodring Street,98815,47.5224959,-120.4681629
307,Woodring Street,98815,47.5234680,-120.4681218
112,East Pleasant Avenue,98815,47.5234433,-120.4683627
110,East Pleasant Avenue,98815,47.5234196,-120.4685522
106,East Pleasant Avenue,98815,47.5234743,-120.4690858
104,East Pleasant Avenue,98815,47.5234035,-120.4693204
305 1/2,Woodring Street,98815,47.5232715,-120.4681652
121,Elberta Avenue,98815,47.5229706,-120.4680653
113,Elberta Avenue,98815,47.5229610,-120.4687746
115,Elberta Avenue,98815,47.5229546,-120.4685827
111,Elberta Avenue,98815,47.5229665,-120.4690715
106,West Pleasant Avenue,98815,47.5238672,-120.4708011
401,Aplets Way,98815,47.5237293,-120.4703443
403,Aplets Way,98815,47.5238770,-120.4703278
405,Aplets Way,98815,47.5240212,-120.4703671
411,Aplets Way,98815,47.5246557,-120.4705005
407,Aplets Way,98815,47.5242742,-120.4705512
400,Aplets Way,98815,47.5237419,-120.4697823
115,East Pleasant Avenue,98815,47.5238899,-120.4682704
100,North Street,98815,47.5244205,-120.4689168
119,East Pleasant Avenue,98815,47.5238023,-120.4678894
107,East Pleasant Avenue,98815,47.5237767,-120.4689107
109,East Pleasant Avenue,98815,47.5238101,-120.4686423
404,Aplets Way,98815,47.5239533,-120.4697790
105,East Pleasant Avenue,98815,47.5237639,-120.4692796
5554,Mill Road,98815,47.5217842,-120.4820066
5557,Sunset Highway,98815,47.5220110,-120.4820467
5563,Sunset Highway,98815,47.5222780,-120.4824977
5647 B,Sunset Highway,98815,47.5225339,-120.4839061
5510,Mill Road,98815,47.5212095,-120.4808671
5501,Sunset Highway,98815,47.5216542,-120.4815988
5431,Sunset Highway,98815,47.5212009,-120.4801180
5441,Sunset Highway,98815,47.5215718,-120.4806973
312,River Street,98815,47.5230009,-120.4741227
310,River Street,98815,47.5225693,-120.4741671
275,Independence Way,98815,47.5218651,-120.4726648
104,Paton Street,98815,47.5200757,-120.4734428
102,Paton Street,98815,47.5202006,-120.4732201
100,Paton Street,98815,47.5203482,-120.4733325
301,Sunset Highway,98815,47.5204769,-120.4732206
133,Chapel Street,98815,47.5204193,-120.4746353
137,Chapel Street,98815,47.5201926,-120.4745665
301,Aplets Way,98815,47.5231234,-120.4703570
104,Perry Street,98815,47.5231725,-120.4706062
106,Perry Street,98815,47.5231618,-120.4707824
108,Perry Street,98815,47.5231695,-120.4709466
110,Perry Street,98815,47.5231518,-120.4711064
104,River Street,98815,47.5225501,-120.4706475
212,River Street,98815,47.5225986,-120.4724622
209,Aplets Way,98815,47.5228633,-120.4703876
216,River Street,98815,47.5225778,-120.4727943
214,River Street,98815,47.5225897,-120.4726601
210,River Street,98815,47.5225994,-120.4722986
208,River Street,98815,47.5226071,-120.4720992
206,River Street,98815,47.5226332,-120.4719362
204,River Street,98815,47.5226162,-120.4717869
202,River Street,98815,47.5225803,-120.4716617
200,River Street,98815,47.5225719,-120.4714941
110,River Street,98815,47.5225681,-120.4712605
108,River Street,98815,47.5225638,-120.4709963
106,River Street,98815,47.5225526,-120.4707600
102,River Street,98815,47.5227120,-120.4705156
105,Perry Street,98815,47.5228578,-120.4707911
109,Perry Street,98815,47.5228578,-120.4709884
113,Perry Street,98815,47.5228557,-120.4712210
208,Perry Street,98815,47.5233053,-120.4722729
218,Perry Street,98815,47.5233723,-120.4732935
222,Perry Street,98815,47.5233237,-120.4735920
206,West Pleasant Avenue,98815,47.5237506,-120.4718649
200,West Pleasant Avenue,98815,47.5237508,-120.4717103
110,West Pleasant Avenue,98815,47.5237642,-120.4713049
111,West Prospect Street,98815,47.5238649,-120.4715118
112,West Prospect Street,98815,47.5243010,-120.4713030
210,West Pleasant Avenue,98815,47.5237173,-120.4720138
220,West Pleasant Avenue,98815,47.5237179,-120.4723629
250,West Pleasant Avenue,98815,47.5236457,-120.4726835
216,Perry Street,98815,47.5233228,-120.4730568
214,Perry Street,98815,47.5233598,-120.4728372
212,Perry Street,98815,47.5233764,-120.4726416
210,Perry Street,98815,47.5233215,-120.4724529
206,Perry Street,98815,47.5233570,-120.4720980
204,Perry Street,98815,47.5234069,-120.4719096
202,Perry Street,98815,47.5234638,-120.4717060
117,West Pleasant Avenue,98815,47.5234799,-120.4715348
200,Perry Street,98815,47.5233599,-120.4715131
115,Perry Street,98815,47.5234184,-120.4713142
305,Aplets Way,98815,47.5234524,-120.4704033
303,Aplets Way,98815,47.5232527,-120.4703698
109,West Pleasant Avenue,98815,47.5234523,-120.4709332
411,Elberta Avenue,98815,47.5218746,-120.4616818
409,Elberta Avenue,98815,47.5219496,-120.4620307
413,Elberta Avenue,98815,47.5219220,-120.4614732
419,Elberta Avenue,98815,47.5219046,-120.4612144
423,Elberta Avenue,98815,47.5217962,-120.4605213
421,Elberta Avenue,98815,47.5218249,-120.4608872
425,Elberta Avenue,98815,47.5217514,-120.4601751
301,North Douglas Street,98815,47.5218696,-120.4601454
305,North Douglas Street,98815,47.5220630,-120.4600732
424,Norman Avenue,98815,47.5222328,-120.4601822
422,Norman Avenue,98815,47.5222466,-120.4605294
420,Norman Avenue,98815,47.5222181,-120.4607858
418,Norman Avenue,98815,47.5222720,-120.4611872
416,Norman Avenue,98815,47.5223080,-120.4613973
414,Norman Avenue,98815,47.5223219,-120.4616199
410,Norman Avenue,98815,47.5223326,-120.4619912
408,Norman Avenue,98815,47.5223383,-120.4622122
412,Elberta Avenue,98815,47.5215679,-120.4618788
414,Elberta Avenue,98815,47.5215290,-120.4617148
416,Elberta Avenue,98815,47.5215104,-120.4615060
418,Elberta Avenue,98815,47.5214830,-120.4612300
420,Elberta Avenue,98815,47.5214945,-120.4609112
422,Elberta Avenue,98815,47.5214628,-120.4607366
424,Elberta Avenue,98815,47.5214690,-120.4605285
209,North Douglas Street,98815,47.5215096,-120.4602038
207,North Douglas Street,98815,47.5213838,-120.4602091
306,North Douglas Street,98815,47.5223005,-120.4595458
304,North Douglas Street,98815,47.5221916,-120.4595492
304 1/2,North Douglas Street,98815,47.5221460,-120.4592249
302,North Douglas Street,98815,47.5220046,-120.4595814
212,North Douglas Street,98815,47.5218134,-120.4596193
210,North Douglas Street,98815,47.5216638,-120.4596589
211,Riverside Drive,98815,47.5216442,-120.4591981
209,Riverside Drive,98815,47.5214792,-120.4591581
208,North Douglas Street,98815,47.5215216,-120.4596261
206,North Douglas Street,98815,47.5213848,-120.4596771
204,North Douglas Street,98815,47.5212595,-120.4594594
207,Riverside Drive,98815,47.5212815,-120.4589490
205,Riverside Drive,98815,47.5211342,-120.4588756
513,Cottage Avenue,98815,47.5209465,-120.4588101
509,Cottage Avenue,98815,47.5209208,-120.4591234
505,Cottage Avenue,98815,47.5209372,-120.4593896
503,Cottage Avenue,98815,47.5209548,-120.4595896
501,Cottage Avenue,98815,47.5209143,-120.4598011
429,Cottage Avenue,98815,47.5209803,-120.4601744
427,Elberta Avenue,98815,47.5210039,-120.4603671
425,Cottage Avenue,98815,47.5210088,-120.4605444
423,Cottage Avenue,98815,47.5210357,-120.4607310
421,Cottage Avenue,98815,47.5210340,-120.4609519
419,Cottage Avenue,98815,47.5210609,-120.4612448
417,Cottage Avenue,98815,47.5210719,-120.4614906
415,Cottage Avenue,98815,47.5211055,-120.4616969
408,Elberta Avenue,98815,47.5215750,-120.4622601
411,Cottage Avenue,98815,47.5211039,-120.4619765
409,Cottage Avenue,98815,47.5211319,-120.4621920
407,Cottage Avenue,98815,47.5211341,-120.4624545
310,Riverside Drive,98815,47.5229925,-120.4642143
405,Cottage Avenue,98815,47.5211722,-120.4626141
406,Elberta Avenue,98815,47.5215955,-120.4625344
404,Elberta Avenue,98815,47.5216156,-120.4628304
403,Cottage Avenue,98815,47.5211689,-120.4627878
401,Cottage Avenue,98815,47.5212023,-120.4629755
421,Norman Avenue,98815,47.5226338,-120.4604737
419,Norman Avenue,98815,47.5225970,-120.4607051
417,Norman Avenue,98815,47.5226141,-120.4610149
415,Norman Avenue,98815,47.5226242,-120.4613100
413,Norman Avenue,98815,47.5226266,-120.4614831
411,Norman Avenue,98815,47.5226751,-120.4618218
407,Norman Avenue,98815,47.5226721,-120.4621525
401,Norman Avenue,98815,47.5226833,-120.4627308
403,Norman Avenue,98815,47.5226869,-120.4625177
405,Norman Avenue,98815,47.5226852,-120.4623632
224,Vine Street,98815,47.5231097,-120.4622210
403,Riverside Drive,98815,47.5232548,-120.4625745
400,Riverside Meadow,98815,47.5232607,-120.4639638
402,Riverside Meadow,98815,47.5234015,-120.4639510
404,Riverside Meadow,98815,47.5235610,-120.4639318
406,Riverside Meadow,98815,47.5234636,-120.4635927
408,Riverside Meadow,98815,47.5232757,-120.4636090
410,Riverside Meadow,98815,47.5232651,-120.4633976
412,Riverside Meadow,98815,47.5234467,-120.4633551
414,Riverside Meadow,98815,47.5233789,-120.4629974
416,Riverside Meadow,98815,47.5232233,-120.4630190
217,Vine Street,98815,47.5227075,-120.4631920
218,Vine Street,98815,47.5229205,-120.4631725
418,Riverside Meadow,98815,47.5229165,-120.4634507
314,Norman Avenue,98815,47.5228117,-120.4637189
312,Norman Avenue,98815,47.5228795,-120.4640103
308,Riverside Drive,98815,47.5228795,-120.4643504
306,Riverside Drive,98815,47.5229362,-120.4645239
304,Riverside Drive,98815,47.5229330,-120.4646863
306,Maple Street,98815,47.5228695,-120.4650089
304,Maple Street,98815,47.5229877,-120.4649160
322,Elberta Avenue,98815,47.5221009,-120.4631794
320,Elberta Avenue,98815,47.5221052,-120.4633109
318,Elberta Avenue,98815,47.5221074,-120.4635250
209,Vine Street,98815,47.5217739,-120.4633494
211,Vine Street,98815,47.5218998,-120.4633419
321,Cottage Avenue,98815,47.5213225,-120.4634811
319,Cottage Avenue,98815,47.5213064,-120.4636686
323,Cottage Avenue,98815,47.5212640,-120.4633190
205,Vine Street,98815,47.5215115,-120.4633207
207,Vine Street,98815,47.5216183,-120.4633272
317,Cottage Avenue,98815,47.5213737,-120.4638524
315,Cottage Avenue,98815,47.5214200,-120.4640203
316,Elberta Avenue,98815,47.5220775,-120.4637642
314,Elberta Avenue,98815,47.5221260,-120.4639349
312,Elberta Avenue,98815,47.5221138,-120.4640943
323,Elberta Avenue,98815,47.5224721,-120.4632947
321,Elberta Avenue,98815,47.5224639,-120.4634900
319,Elberta Avenue,98815,47.5224550,-120.4636648
317,Elberta Avenue,98815,47.5224458,-120.4638626
315,Elberta Avenue,98815,47.5224643,-120.4640689
311,Elberta Avenue,98815,47.5225499,-120.4642839
309,Elberta Avenue,98815,47.5224742,-120.4644445
307,Elberta Avenue,98815,47.5224805,-120.4646112
305,Elberta Avenue,98815,47.5224954,-120.4647808
303,Elberta Avenue,98815,47.5225121,-120.4649236
301,Elberta Avenue,98815,47.5225180,-120.4650952
221,Elberta Avenue,98815,47.5226258,-120.4659471
303,Maple Street,98815,47.5225437,-120.4656375
219,Elberta Avenue,98815,47.5226770,-120.4661265
217,Elberta Avenue,98815,47.5226830,-120.4663286
215,Elberta Avenue,98815,47.5227504,-120.4665097
211,Elberta Avenue,98815,47.5227285,-120.4666793
209,Elberta Avenue,98815,47.5227762,-120.4668350
207,Elberta Avenue,98815,47.5228006,-120.4669838
222,Riverside Drive,98815,47.5230691,-120.4655790
305,Maple Street,98815,47.5228844,-120.4655539
220,Riverside Drive,98815,47.5230671,-120.4658624
218,Riverside Drive,98815,47.5230734,-120.4660604
216,Riverside Drive,98815,47.5230853,-120.4662645
214,Riverside Drive,98815,47.5231624,-120.4664720
212,Riverside Drive,98815,47.5232310,-120.4666504
210,Riverside Drive,98815,47.5232388,-120.4668231
208,Riverside Drive,98815,47.5232710,-120.4669831
206,Riverside Drive,98815,47.5232312,-120.4671448
202,Riverside Drive,98815,47.5232713,-120.4674883
306,Woodring Street,98815,47.5232701,-120.4676025
3,Big Rock Place,98815,47.5215773,-120.4566966
2,Big Rock Place,98815,47.5212693,-120.4564663
1,Big Rock Place,98815,47.5210431,-120.4565860
5693,East Cashmere Road,98815,47.5198371,-120.4551563
5683,East Cashmere Road,98815,47.5194941,-120.4551015
5655,East Cashmere Road,98815,47.5192297,-120.4550937
5641,East Cashmere Road,98815,47.5189285,-120.4550897
5643,East Cashmere Road,98815,47.5184796,-120.4549960
5645,East Cashmere Road,98815,47.5184419,-120.4546077
5647,East Cashmere Road,98815,47.5181682,-120.4546380
5649,East Cashmere Road,98815,47.5181748,-120.4550345
5990,East Cashmere Road,98815,47.5182155,-120.4556328
5600,East Cashmere Road,98815,47.5185032,-120.4558317
5604,East Cashmere Road,98815,47.5187644,-120.4556139
5610,East Cashmere Road,98815,47.5190540,-120.4556501
5650,East Cashmere Road,98815,47.5193103,-120.4558816
5505,Titchenal Way,98815,47.5160791,-120.4546715
5678,East Cashmere Road,98815,47.5196095,-120.4559361
600,Cotlet Way,98815,47.5202331,-120.4566672
303,Cottage Avenue,98815,47.5217291,-120.4649738
5755,Evergreen Drive,98815,47.5215847,-120.4859967
5502,Titchenal Way,98815,47.5160753,-120.4560321
103,Paton Street,98815,47.5197196,-120.4722273
210,South Division Street,98815,47.5194171,-120.4705721
111D,White Birch Place,98815,47.5155774,-120.4715681
111C,White Birch Place,98815,47.5155670,-120.4716869
111B,White Birch Place,98815,47.5155461,-120.4718018
111A,White Birch Place,98815,47.5154638,-120.4719337
917,Pioneer Avenue,98815,47.5182317,-120.4839702
