House number,Street name,Postal code,Latitude,Longitude
26304,Northeast Big Rock Road,98019,47.7280578,-121.9861990
15629,Main Street Northeast,98019,47.7414700,-121.9862115
14142,Main Street Northeast,98019,47.7281385,-121.9866922
15320,Brown Avenue Northeast,98019-0910,47.7388883,-121.9854638
14524,Main Street Northeast,98019,47.7329726,-121.9867724
14701,Main Street Northeast,98019,47.7333831,-121.9876254
14701,Main Street Northeast,98019,47.7333856,-121.9880060
14701,Main Street Northeast,98019,47.7333824,-121.9877148
14610,Main Street Northeast,98019,47.7336802,-121.9866920
14524,Main Street Northeast,98019,47.7333834,-121.9866527
14524,Main Street Northeast,98019,47.7329311,-121.9867714
14524,Main Street Northeast,98019,47.7330171,-121.9867751
14701,Main Street Northeast,98019,47.7333842,-121.9878102
14701,Main Street Northeast,98019,47.7333841,-121.9879032
14701,Main Street Northeast,98019,47.7333855,-121.9881044
14701,Main Street Northeast,98019,47.7333827,-121.9882000
14701,Main Street Northeast,98019,47.7333855,-121.9883016
27133,Northeast Rupard Road,98019,47.7461412,-121.9751368
26400,Northeast Valley Street,98019,47.7380939,-121.9852683
14360,3rd Circle Northeast,98019,47.7308222,-121.9810516
14362,3rd Circle Northeast,98019,47.7308218,-121.9809049
14358,3rd Circle Northeast,98019,47.7308209,-121.9811899
14372,3rd Circle Northeast,98019,47.7308200,-121.9805125
14366,3rd Circle Northeast,98019,47.7308250,-121.9807779
14370,3rd Circle Northeast,98019,47.7308264,-121.9806340
27822,Northeast 149th Court,98019,47.7356877,-121.9660497
14301,271st Place Northeast,98019,47.7301993,-121.9756936
14327,271st Place Northeast,98019,47.7311671,-121.9760218
14329,271st Place Northeast,98019,47.7311559,-121.9761838
14311,271st Place Northeast,98019,47.7306852,-121.9756584
14313,271st Place Northeast,98019,47.7308160,-121.9756684
14309,271st Place Northeast,98019,47.7305828,-121.9756632
14365,271st Circle Northeast,98019,47.7308173,-121.9750581
14363,271st Circle Northeast,98019,47.7308164,-121.9749134
14337,271st Circle Northeast,98019,47.7305512,-121.9747771
14367,271st Circle Northeast,98019,47.7308136,-121.9751956
14333,271st Circle Northeast,98019,47.7305482,-121.9750733
14331,271st Circle Northeast,98019,47.7305565,-121.9751970
14361,271st Circle Northeast,98019,47.7308154,-121.9747794
14335,271st Circle Northeast,98019,47.7305425,-121.9749356
14344,271st Circle Northeast,98019,47.7304392,-121.9743196
14340,271st Circle Northeast,98019,47.7301931,-121.9744129
14350,271st Circle Northeast,98019,47.7307529,-121.9743617
14354,271st Circle Northeast,98019,47.7309676,-121.9743086
14366,271st Circle Northeast,98019,47.7311411,-121.9750476
14368,271st Circle Northeast,98019,47.7311371,-121.9752133
14362,271st Circle Northeast,98019,47.7311419,-121.9747301
14364,271st Circle Northeast,98019,47.7311498,-121.9748890
14323,271st Place Northeast,98019,47.7311536,-121.9757075
14325,271st Place Northeast,98019,47.7311520,-121.9758592
14370,271st Circle Northeast,98019,47.7311282,-121.9753824
14321,271st Place Northeast,98019,47.7311410,-121.9755309
14215,272nd Place Northeast,98019,47.7293837,-121.9745222
14207,272nd Place Northeast,98019,47.7290934,-121.9745123
14213,272nd Place Northeast,98019,47.7294128,-121.9747063
14217,272nd Place Northeast,98019,47.7293994,-121.9743744
14219,272nd Place Northeast,98019,47.7293822,-121.9741906
27006,Northeast 143rd Place,98019,47.7302437,-121.9774276
27004,Northeast 143rd Place,98019,47.7302332,-121.9775821
14221,272nd Place Northeast,98019,47.7297126,-121.9744730
27008,Northeast 143rd Place,98019,47.7302637,-121.9773375
26916,Northeast 143rd Place,98019,47.7302415,-121.9781576
26910,Northeast 143rd Place,98019,47.7302211,-121.9784118
27002,Northeast 143rd Place,98019,47.7302667,-121.9776752
26918,Northeast 143rd Place,98019,47.7302374,-121.9780518
14310,270th Court Northeast,98019,47.7305772,-121.9776745
14308,270th Court Northeast,98019,47.7305788,-121.9777670
14314,270th Court Northeast,98019,47.7305669,-121.9774328
14312,270th Court Northeast,98019,47.7305812,-121.9775294
14303,270th Court Northeast,98019,47.7305600,-121.9782514
14301,270th Court Northeast,98019,47.7305564,-121.9783550
14307,270th Court Northeast,98019,47.7306007,-121.9780044
14305,270th Court Northeast,98019,47.7305945,-121.9781231
15726,Main Street Northeast,98019,47.7419699,-121.9855547
15508,Main Street Northeast,98019,47.7403237,-121.9857614
26401,Northeast Richardson Street,98019,47.7383679,-121.9856111
15329,2nd Avenue Northeast,98019,47.7390660,-121.9835006
14509,275th Place Northeast,98019,47.7331984,-121.9708758
27017,Northeast Dorothy Street,98019,47.7364158,-121.9774621
26613,Northeast Cherry Street,98019,47.7413977,-121.9828111
26929,Northeast Bird Street,98019,47.7436049,-121.9782564
14027,3rd Avenue Northeast,98019,47.7275327,-121.9812579
14031,3rd Avenue Northeast,98019,47.7275974,-121.9811597
14035,3rd Avenue Northeast,98019,47.7276439,-121.9810979
14039,3rd Avenue Northeast,98019,47.7277085,-121.9810102
14023,3rd Avenue Northeast,98019,47.7274894,-121.9813513
14133,3rd Avenue Northeast,98019,47.7283712,-121.9805113
14137,3rd Avenue Northeast,98019,47.7284562,-121.9804922
14043,3rd Avenue Northeast,98019,47.7277763,-121.9809436
14121,3rd Avenue Northeast,98019,47.7281908,-121.9805125
14129,3rd Avenue Northeast,98019,47.7282757,-121.9805144
26740,Northeast Walden Way,98019,47.7284562,-121.9809012
26738,Northeast Walden Way,98019,47.7284077,-121.9811835
26732,Northeast Walden Way,98019,47.7284173,-121.9813093
26724,Northeast Walden Way,98019,47.7284092,-121.9814701
26754,Northeast Walden Way,98019,47.7281842,-121.9809402
26750,Northeast Walden Way,98019,47.7282462,-121.9810382
26649,Northeast Walden Way,98019,47.7280795,-121.9822808
26604,Northeast Walden Way,98019,47.7284193,-121.9832705
26630,Northeast Walden Way,98019,47.7284204,-121.9827327
26626,Northeast Walden Way,98019,47.7284189,-121.9828809
26618,Northeast Walden Way,98019,47.7284155,-121.9829967
26610,Northeast Walden Way,98019,47.7284139,-121.9831577
26658,Northeast Walden Way,98019,47.7284240,-121.9821532
26650,Northeast Walden Way,98019,47.7284224,-121.9823174
26644,Northeast Walden Way,98019,47.7284233,-121.9824430
26638,Northeast Walden Way,98019,47.7284175,-121.9825910
26720,Northeast Walden Way,98019,47.7284101,-121.9815957
26714,Northeast Walden Way,98019,47.7284173,-121.9817408
26706,Northeast Walden Way,98019,47.7284204,-121.9818697
16122,2nd Avenue Northeast,98019,47.7452748,-121.9830809
26664,Northeast Walden Way,98019,47.7284188,-121.9820242
26602,Northeast Big Rock Road,98019,47.7277574,-121.9834040
26542,Northeast Big Rock Road,98019,47.7278161,-121.9838336
26542,Northeast Big Rock Road,98019,47.7278535,-121.9840051
26602,Northeast Big Rock Road,98019,47.7277134,-121.9832484
26602,Northeast Big Rock Road,98019,47.7276671,-121.9830961
26602,Northeast Big Rock Road,98019,47.7276903,-121.9831674
26602,Northeast Big Rock Road,98019,47.7277342,-121.9833326
26744,Northeast Walden Way,98019,47.7283911,-121.9808901
26620,Northeast Big Rock Road,98019,47.7275767,-121.9827946
26620,Northeast Big Rock Road,98019,47.7276085,-121.9828758
26702,Northeast Big Rock Road,98019,47.7275006,-121.9825900
26620,Northeast Big Rock Road,98019,47.7276359,-121.9829537
26702,Northeast Big Rock Road,98019,47.7274006,-121.9823720
26702,Northeast Big Rock Road,98019,47.7274325,-121.9824436
26702,Northeast Big Rock Road,98019,47.7274664,-121.9825281
26620,Northeast Big Rock Road,98019,47.7275556,-121.9827329
26912,Northeast 143rd Place,98019,47.7302549,-121.9782802
26627,Northeast Boyd Way,98019,47.7278202,-121.9827774
26615,Northeast Boyd Way,98019,47.7279572,-121.9829833
26603,Northeast Boyd Way,98019,47.7281294,-121.9829292
26637,Northeast Boyd Way,98019,47.7277417,-121.9825889
26627,Northeast Boyd Way,98019,47.7277862,-121.9827026
26615,Northeast Boyd Way,98019,47.7278919,-121.9829916
26603,Northeast Boyd Way,98019,47.7280729,-121.9829312
26711,Northeast Boyd Way,98019,47.7275611,-121.9821856
26647,Northeast Boyd Way,98019,47.7276143,-121.9822963
26647,Northeast Boyd Way,98019,47.7276570,-121.9823745
26637,Northeast Boyd Way,98019,47.7277013,-121.9825043
26542,Northeast Big Rock Road,98019,47.7278325,-121.9839274
26723,Northeast Boyd Way,98019,47.7274633,-121.9819773
26723,Northeast Boyd Way,98019,47.7274292,-121.9819057
26711,Northeast Boyd Way,98019,47.7275270,-121.9821172
14111,266th Avenue Northeast,98019,47.7280806,-121.9838284
14131,266th Avenue Northeast,98019,47.7284470,-121.9836710
14131,266th Avenue Northeast,98019,47.7284462,-121.9837550
14131,266th Avenue Northeast,98019,47.7284471,-121.9838291
14111,266th Avenue Northeast,98019,47.7282421,-121.9838319
14111,266th Avenue Northeast,98019,47.7281806,-121.9838232
14111,266th Avenue Northeast,98019,47.7281306,-121.9838245
14003,3rd Avenue Northeast,98019,47.7271432,-121.9818674
14003,3rd Avenue Northeast,98019,47.7271748,-121.9818083
14003,3rd Avenue Northeast,98019,47.7272669,-121.9816772
14003,3rd Avenue Northeast,98019,47.7273067,-121.9816263
14002,3rd Avenue Northeast,98019,47.7268855,-121.9814725
14131,266th Avenue Northeast,98019,47.7284439,-121.9839130
26722,Northeast Big Rock Road,98019,47.7272746,-121.9821583
26722,Northeast Big Rock Road,98019,47.7272404,-121.9821028
26702,Northeast Big Rock Road,98019,47.7273664,-121.9823165
14123,266th Avenue Northeast,98019,47.7283791,-121.9841062
14108,266th Avenue Northeast,98019,47.7279461,-121.9833045
14111,266th Avenue Northeast,98019,47.7280310,-121.9838341
14101,266th Avenue Northeast,98019,47.7279809,-121.9840771
14101,266th Avenue Northeast,98019,47.7280414,-121.9840794
14108,266th Avenue Northeast,98019,47.7281183,-121.9832267
14108,266th Avenue Northeast,98019,47.7280597,-121.9832550
14108,266th Avenue Northeast,98019,47.7280095,-121.9832811
14123,266th Avenue Northeast,98019,47.7282577,-121.9841088
14123,266th Avenue Northeast,98019,47.7283209,-121.9841127
14101,266th Avenue Northeast,98019,47.7281613,-121.9840795
14101,266th Avenue Northeast,98019,47.7280980,-121.9840831
14002,3rd Avenue Northeast,98019,47.7270204,-121.9812890
14002,3rd Avenue Northeast,98019,47.7269666,-121.9813537
14002,3rd Avenue Northeast,98019,47.7269250,-121.9814123
14003,3rd Avenue Northeast,98019,47.7272183,-121.9817420
26830,Northeast Big Rock Road,98019,47.7264100,-121.9808206
26820,Northeast Big Rock Road,98019,47.7264741,-121.9809202
26810,Northeast Big Rock Road,98019,47.7267395,-121.9813165
14002,3rd Avenue Northeast,98019,47.7270577,-121.9812303
26820,Northeast Big Rock Road,98019,47.7265630,-121.9810453
26810,Northeast Big Rock Road,98019,47.7266262,-121.9811437
26810,Northeast Big Rock Road,98019,47.7266649,-121.9812027
26810,Northeast Big Rock Road,98019,47.7267035,-121.9812688
26830,Northeast Big Rock Road,98019,47.7262993,-121.9806408
26830,Northeast Big Rock Road,98019,47.7263379,-121.9807052
26830,Northeast Big Rock Road,98019,47.7263848,-121.9807733
26820,Northeast Big Rock Road,98019,47.7265232,-121.9809791
26910,Northeast Kennedy Drive,98019,47.7356972,-121.9784791
14524,Main Street Northeast,98019,47.7329888,-121.9866093
26609,Northeast Anderson Street,98019,47.7452905,-121.9830153
16113,2nd Place Northeast,98019,47.7452534,-121.9825648
26605,Northeast Anderson Street,98019,47.7452981,-121.9826417
26637,Northeast Stella Street,98019,47.7406055,-121.9820972
15715,Main Street Northeast,98019,47.7419263,-121.9863510
28624,Northeast 156th Street,98019,47.7404052,-121.9551785
14810,Main Street Northeast,98019,47.7345841,-121.9867275
15629,Main Street Northeast,98019,47.7413312,-121.9863844
15630,Main Street Northeast,98019,47.7414595,-121.9857156
15600,1st Avenue Northeast,98019,47.7412175,-121.9845272
14701,Main Street Northeast,98019,47.7333750,-121.9879535
15727,1st Avenue Northeast,98019,47.7420392,-121.9850750
16016,277th Place Northeast,98019,47.7442535,-121.9683320
26800,Northeast 145th Street,98019,47.7329062,-121.9797563
26933,Northeast Bird Street,98019,47.7435982,-121.9780432
26915,Northeast Bird Street,98019,47.7436180,-121.9785806
27828,Northeast 149th Court,98019,47.7356697,-121.9658469
14133,278th Avenue Northeast,98019,47.7280469,-121.9676754
26607,Northeast Cherry Street,98019,47.7413867,-121.9830159
15215,Brown Avenue Northeast,98019,47.7381313,-121.9863450
26873,Northeast 143rd Circle,98019,47.7287333,-121.9785121
16001,Main View Lane Northeast,98019,47.7439938,-121.9853797
16015,Main View Lane Northeast,98019,47.7443232,-121.9853518
16007,Main View Lane Northeast,98019,47.7441238,-121.9851849
16011,Main View Lane Northeast,98019,47.7441922,-121.9851864
16003,Main View Lane Northeast,98019,47.7439868,-121.9851975
16005,Main View Lane Northeast,98019,47.7440588,-121.9851991
16019,Main View Lane Northeast,98019,47.7444224,-121.9851473
16021,Main View Lane Northeast,98019,47.7444909,-121.9851411
16013,Main View Lane Northeast,98019,47.7442555,-121.9851722
16017,Main View Lane Northeast,98019,47.7443557,-121.9851563
16025,Main View Lane Northeast,98019,47.7445542,-121.9851295
16027,Main View Lane Northeast,98019,47.7446368,-121.9851157
26800,Northeast 143rd Circle,98019,47.7293870,-121.9785935
26804,Northeast 143rd Circle,98019,47.7293728,-121.9788296
26816,Northeast 143rd Circle,98019,47.7293797,-121.9793201
26809,Northeast 143rd Circle,98019,47.7297227,-121.9790631
26808,Northeast 143rd Circle,98019,47.7293760,-121.9789849
26812,Northeast 143rd Circle,98019,47.7293625,-121.9791433
26821,Northeast 143rd Circle,98019,47.7296207,-121.9797381
26825,Northeast 143rd Circle,98019,47.7295014,-121.9797637
26813,Northeast 143rd Circle,98019,47.7297442,-121.9792858
26817,Northeast 143rd Circle,98019,47.7297114,-121.9794756
26837,Northeast 143rd Circle,98019,47.7291345,-121.9797979
26841,Northeast 143rd Circle,98019,47.7290155,-121.9798024
26829,Northeast 143rd Circle,98019,47.7293821,-121.9797928
26833,Northeast 143rd Circle,98019,47.7292536,-121.9797970
26858,Northeast 143rd Circle,98019,47.7290962,-121.9791163
26862,Northeast 143rd Circle,98019,47.7290957,-121.9789293
26845,Northeast 143rd Circle,98019,47.7289064,-121.9797612
26854,Northeast 143rd Circle,98019,47.7290706,-121.9792956
26870,Northeast 143rd Circle,98019,47.7290924,-121.9785447
26853,Northeast 143rd Circle,98019,47.7287102,-121.9793900
26866,Northeast 143rd Circle,98019,47.7290902,-121.9787634
26849,Northeast 143rd Circle,98019,47.7286918,-121.9795659
26865,Northeast 143rd Circle,98019,47.7286963,-121.9788782
26869,Northeast 143rd Circle,98019,47.7287314,-121.9787096
26857,Northeast 143rd Circle,98019,47.7287381,-121.9792213
26861,Northeast 143rd Circle,98019,47.7287017,-121.9790547
15510,1st Avenue Northeast,98019,47.7403275,-121.9846395
14720,Main Street Northeast,98019,47.7342918,-121.9866113
15315,1st Avenue Northeast,98019,47.7389035,-121.9851336
15320,Brown Avenue Northeast,98019,47.7389053,-121.9853840
14905,276th Place Northeast,98019,47.7353002,-121.9690836
27810,Northeast 149th Court,98019,47.7357233,-121.9664522
14905,275th Avenue Northeast,98019,47.7357822,-121.9719410
15934,Main Street Northeast,98019,47.7436722,-121.9854762
26415,Northeast Valley Street,98019,47.7374314,-121.9854139
15934,Main Street Northeast,98019,47.7437133,-121.9854740
26832,Northeast Boyd Way,98019,47.7268988,-121.9803455
26828,Northeast Boyd Way,98019,47.7269558,-121.9804546
26822,Northeast Boyd Way,98019,47.7270192,-121.9805575
26818,Northeast Boyd Way,98019,47.7270889,-121.9806514
26821,Northeast Boyd Way,98019,47.7268145,-121.9808732
26817,Northeast Boyd Way,98019,47.7268737,-121.9809761
26813,Northeast Boyd Way,98019,47.7269289,-121.9810697
26836,Northeast Boyd Way,98019,47.7268292,-121.9802363
26841,Northeast Boyd Way,98019,47.7265729,-121.9805292
26837,Northeast Boyd Way,98019,47.7266385,-121.9806138
26833,Northeast Boyd Way,98019,47.7266915,-121.9807104
26825,Northeast Boyd Way,98019,47.7267529,-121.9808010
26843,Northeast Boyd Way,98019,47.7265074,-121.9804323
14116,3rd Avenue Northeast,98019,47.7279522,-121.9799955
14120,3rd Avenue Northeast,98019,47.7280252,-121.9799712
14128,3rd Avenue Northeast,98019,47.7281087,-121.9799234
14147,268th Lane Northeast,98019,47.7280123,-121.9795200
14145,268th Lane Northeast,98019,47.7279260,-121.9795634
14141,268th Lane Northeast,98019,47.7278311,-121.9795894
14112,3rd Avenue Northeast,98019,47.7278835,-121.9800199
14151,268th Lane Northeast,98019,47.7281272,-121.9795312
26814,Northeast Boyd Way,98019,47.7271543,-121.9807514
26806,Northeast Boyd Way,98019,47.7272176,-121.9808636
26802,Northeast Boyd Way,98019,47.7272790,-121.9809543
26836,Northeast Stephens Court,98019,47.7402302,-121.9790211
14336,Railroad Way Northeast,98019,47.7312563,-121.9885199
14334,Railroad Way Northeast,98019,47.7312176,-121.9884574
14332,Railroad Way Northeast,98019,47.7311679,-121.9883946
14330,Railroad Way Northeast,98019,47.7311026,-121.9883510
14406,Railroad Way Northeast,98019,47.7315368,-121.9886980
14404,Railroad Way Northeast,98019,47.7314802,-121.9886676
14402,Railroad Way Northeast,98019,47.7314107,-121.9886206
14338,Railroad Way Northeast,98019,47.7313259,-121.9885603
14424,Railroad Way Northeast,98019,47.7317997,-121.9888888
14422,Railroad Way Northeast,98019,47.7317542,-121.9888456
14420,Railroad Way Northeast,98019,47.7316979,-121.9887859
14408,Railroad Way Northeast,98019,47.7315998,-121.9887481
14442,Railroad Way Northeast,98019,47.7320692,-121.9890699
14440,Railroad Way Northeast,98019,47.7320064,-121.9890069
14428,Railroad Way Northeast,98019,47.7319213,-121.9889791
14426,Railroad Way Northeast,98019,47.7318497,-121.9889223
14328,Railroad Way Northeast,98019,47.7310289,-121.9882813
14326,Railroad Way Northeast,98019,47.7309550,-121.9882310
14324,Railroad Way Northeast,98019,47.7309029,-121.9881974
14322,Railroad Way Northeast,98019,47.7308446,-121.9881182
14343,Railroad Way Northeast,98019,47.7311895,-121.9888492
14341,Railroad Way Northeast,98019,47.7311224,-121.9887796
14340,Railroad Circle Northeast,98019,47.7311289,-121.9892177
14342,Railroad Circle Northeast,98019,47.7311630,-121.9893093
14414,Railroad Circle Northeast,98019,47.7315489,-121.9892303
14416,Railroad Circle Northeast,98019,47.7315893,-121.9891339
14347,Railroad Way Northeast,98019,47.7312935,-121.9889489
14345,Railroad Way Northeast,98019,47.7312395,-121.9888795
14337,Railroad Circle Northeast,98019,47.7308960,-121.9893066
14339,Railroad Circle Northeast,98019,47.7309125,-121.9894042
14410,Railroad Circle Northeast,98019,47.7314192,-121.9892890
14412,Railroad Circle Northeast,98019,47.7314917,-121.9892582
14327,Railroad Circle Northeast,98019,47.7308696,-121.9888875
14331,Railroad Circle Northeast,98019,47.7308616,-121.9890301
14333,Railroad Circle Northeast,98019,47.7308693,-121.9891340
14335,Railroad Circle Northeast,98019,47.7308772,-121.9892186
14437,Railroad Circle Northeast,98019,47.7318905,-121.9894293
14439,Railroad Way Northeast,98019,47.7319545,-121.9893755
14446,Railroad Way Northeast,98019,47.7321862,-121.9891828
14444,Railroad Way Northeast,98019,47.7321235,-121.9891101
14417,Railroad Circle Northeast,98019,47.7316244,-121.9895531
14431,Railroad Circle Northeast,98019,47.7317058,-121.9895160
14433,Railroad Circle Northeast,98019,47.7317829,-121.9894690
14435,Railroad Circle Northeast,98019,47.7318291,-121.9894376
14357,Railroad Circle Northeast,98019,47.7313100,-121.9896985
14411,Railroad Circle Northeast,98019,47.7314147,-121.9897365
14413,Railroad Circle Northeast,98019,47.7314876,-121.9896668
14415,Railroad Circle Northeast,98019,47.7315515,-121.9896261
14344,Railroad Circle Northeast,98019,47.7312392,-121.9893434
14351,Railroad Circle Northeast,98019,47.7310869,-121.9896838
14353,Railroad Circle Northeast,98019,47.7311610,-121.9897147
14355,Railroad Circle Northeast,98019,47.7312312,-121.9897065
14232,Railroad Way Northeast,98019,47.7292873,-121.9892288
14234,Railroad Way Northeast,98019,47.7292342,-121.9891756
14236,Railroad Way Northeast,98019,47.7291932,-121.9891410
14238,Railroad Way Northeast,98019,47.7291259,-121.9890631
14224,Railroad Way Northeast,98019,47.7295384,-121.9895005
14226,Railroad Way Northeast,98019,47.7294831,-121.9894564
14228,Railroad Way Northeast,98019,47.7294115,-121.9893967
14230,Railroad Way Northeast,98019,47.7293485,-121.9892974
14203,Railroad Way Northeast,98019,47.7300995,-121.9901309
14201,Railroad Way Northeast,98019,47.7301655,-121.9901354
14220,Railroad Way Northeast,98019,47.7296553,-121.9895704
14222,Railroad Way Northeast,98019,47.7295937,-121.9895353
14213,Railroad Way Northeast,98019,47.7297894,-121.9899832
14211,Railroad Way Northeast,98019,47.7298552,-121.9900031
14207,Railroad Way Northeast,98019,47.7299624,-121.9900177
14205,Railroad Way Northeast,98019,47.7300301,-121.9900559
14269,Railroad Way Northeast,98019,47.7289189,-121.9881133
14321,Railroad Circle Northeast,98019,47.7309077,-121.9885802
14323,Railroad Circle Northeast,98019,47.7309022,-121.9886904
14325,Railroad Circle Northeast,98019,47.7309013,-121.9887812
14261,Railroad Way Northeast,98019,47.7286529,-121.9880890
14263,Railroad Way Northeast,98019,47.7287127,-121.9880965
14265,Railroad Way Northeast,98019,47.7287725,-121.9880978
14267,Railroad Way Northeast,98019,47.7288240,-121.9881081
14251,Railroad Way Northeast,98019,47.7287191,-121.9886869
14253,Railroad Way Northeast,98019,47.7287595,-121.9885655
14255,Railroad Way Northeast,98019,47.7287933,-121.9884867
14257,Railroad Way Northeast,98019,47.7288108,-121.9883923
14240,Railroad Way Northeast,98019,47.7290279,-121.9889569
14242,Railroad Way Northeast,98019,47.7289612,-121.9888269
14244,Railroad Way Northeast,98019,47.7289786,-121.9887386
14246,Railroad Way Northeast,98019,47.7290147,-121.9886385
14223,Railroad Way Northeast,98019,47.7294543,-121.9898565
14221,Railroad Way Northeast,98019,47.7295425,-121.9899043
14217,Railroad Way Northeast,98019,47.7296373,-121.9899248
14215,Railroad Way Northeast,98019,47.7297236,-121.9899604
14233,Railroad Way Northeast,98019,47.7291825,-121.9895904
14231,Railroad Way Northeast,98019,47.7292518,-121.9896746
14227,Railroad Way Northeast,98019,47.7293127,-121.9897738
14225,Railroad Way Northeast,98019,47.7293992,-121.9897971
14243,Railroad Way Northeast,98019,47.7289337,-121.9892943
14241,Railroad Way Northeast,98019,47.7289864,-121.9893872
14237,Railroad Way Northeast,98019,47.7290641,-121.9894593
14235,Railroad Way Northeast,98019,47.7291398,-121.9895314
14301,Railroad Way Northeast,98019,47.7303059,-121.9890526
14249,Railroad Way Northeast,98019,47.7287869,-121.9891197
14247,Railroad Way Northeast,98019,47.7288460,-121.9891914
14245,Railroad Way Northeast,98019,47.7288952,-121.9892292
15505,Main Street Northeast,98019,47.7403510,-121.9863959
26526,Northeast Cherry Valley Road,98019,47.7483145,-121.9819403
26431,Northeast Stella Street,98019,47.7406199,-121.9845963
26904,Northeast Cherry Street,98019,47.7417502,-121.9790507
26924,Northeast Cherry Street,98019,47.7417505,-121.9786414
15413,286th Avenue Northeast,98019,47.7385640,-121.9572183
27232,Northeast 150th Street,98019,47.7362189,-121.9735902
27814,Northeast 149th Court,98019,47.7357050,-121.9662471
26648,Northeast 143rd Place,98019,47.7302675,-121.9810523
26660,Northeast 143rd Place,98019,47.7300522,-121.9810506
26664,Northeast 143rd Place,98019,47.7299848,-121.9810476
26652,Northeast 143rd Place,98019,47.7302081,-121.9810540
26656,Northeast 143rd Place,98019,47.7301568,-121.9810484
26632,Northeast 143rd Place,98019,47.7301259,-121.9814235
26636,Northeast 143rd Place,98019,47.7300363,-121.9814260
26624,Northeast 143rd Place,98019,47.7302417,-121.9814186
26628,Northeast 143rd Place,98019,47.7301833,-121.9814233
26640,Northeast 143rd Place,98019,47.7299639,-121.9814244
26644,Northeast 143rd Place,98019,47.7299026,-121.9814201
15410,Main Street Northeast,98019,47.7395177,-121.9857166
16011,Main Street Northeast,98019,47.7440742,-121.9858941
15500,Railroad Avenue Northeast,98019,47.7404929,-121.9886008
15728,Main Street Northeast,98019,47.7420724,-121.9855414
26624,Northeast Valley Street,98019,47.7379577,-121.9826220
14420,274th Court Northeast,98019,47.7320347,-121.9717219
14427,267th Court Northeast,98019,47.7322488,-121.9820112
15416,Manion Way Northeast,98019,47.7390320,-121.9636832
27110,Northeast 145th Street,98019,47.7325482,-121.9760110
26502,Northeast Valley Street,98019,47.7380173,-121.9845751
26522,Northeast Ring Street,98019,47.7395602,-121.9840555
15420,Main Street Northeast,98019,47.7398249,-121.9856627
15705,Main Street Northeast,98019,47.7417902,-121.9863596
15520,Main Street Northeast,98019,47.7405920,-121.9857158
14615,1st Lane Northeast,98019,47.7337072,-121.9865553
14525,1st Lane Northeast,98019,47.7332967,-121.9865461
14703,1st Lane Northeast,98019,47.7342066,-121.9865928
27619,Northeast 158th Place,98019,47.7416944,-121.9685450
26525,Northeast Cherry Valley Road,98019,47.7468605,-121.9840935
26921,Northeast Bird Street,98019,47.7436075,-121.9784829
14114,Main Street Northeast,98019,47.7275512,-121.9864568
16332,Main View Lane Northeast,98019,47.7470144,-121.9846861
16338,Main View Lane Northeast,98019,47.7471095,-121.9846122
26580,Northeast 143rd Street,98019,47.7312599,-121.9838541
26550,Northeast 143rd Street,98019,47.7312485,-121.9843848
26578,Northeast 143rd Street,98019,47.7311936,-121.9839146
26582,Northeast 143rd Street,98019,47.7312368,-121.9835734
26556,Northeast 143rd Street,98019,47.7310833,-121.9843871
26558,Northeast 143rd Street,98019,47.7310276,-121.9843888
26552,Northeast 143rd Street,98019,47.7311849,-121.9843834
26554,Northeast 143rd Street,98019,47.7311351,-121.9843882
26560,Northeast 143rd Street,98019,47.7309720,-121.9843787
26562,Northeast 143rd Street,98019,47.7309084,-121.9843743
26524,Northeast 143rd Circle,98019,47.7302838,-121.9839534
26520,Northeast 143rd Circle,98019,47.7302689,-121.9840416
14348,1st Avenue Northeast,98019,47.7312585,-121.9847773
26528,Northeast 143rd Circle,98019,47.7302727,-121.9838617
26532,Northeast 143rd Circle,98019,47.7304794,-121.9838870
26536,Northeast 143rd Circle,98019,47.7305412,-121.9838795
26516,Northeast 143rd Circle,98019,47.7302919,-121.9841276
26512,Northeast 143rd Circle,98019,47.7302692,-121.9842097
26548,Northeast 143rd Circle,98019,47.7307084,-121.9838773
26501,Northeast 143rd Circle,98019,47.7300128,-121.9835846
26540,Northeast 143rd Circle,98019,47.7305970,-121.9838778
26544,Northeast 143rd Circle,98019,47.7306547,-121.9838702
26513,Northeast 143rd Circle,98019,47.7301980,-121.9835740
26531,Northeast 143rd Circle,98019,47.7304805,-121.9835832
26505,Northeast 143rd Circle,98019,47.7300687,-121.9835741
26509,Northeast 143rd Circle,98019,47.7301243,-121.9835812
26543,Northeast 143rd Circle,98019,47.7306636,-121.9835843
26547,Northeast 143rd Circle,98019,47.7307194,-121.9835796
26535,Northeast 143rd Circle,98019,47.7305582,-121.9835761
26539,Northeast 143rd Circle,98019,47.7306039,-121.9835830
26592,Northeast 143rd Street,98019,47.7309304,-121.9835725
26590,Northeast 143rd Street,98019,47.7310040,-121.9835741
26551,Northeast 143rd Circle,98019,47.7307750,-121.9835897
26555,Northeast 143rd Circle,98019,47.7308466,-121.9835884
26584,Northeast 143rd Street,98019,47.7311651,-121.9835836
26566,Northeast 143rd Street,98019,47.7309132,-121.9838936
26588,Northeast 143rd Street,98019,47.7310577,-121.9835783
26586,Northeast 143rd Street,98019,47.7311074,-121.9835823
26572,Northeast 143rd Street,98019,47.7310823,-121.9839003
26574,Northeast 143rd Street,98019,47.7311381,-121.9838927
26568,Northeast 143rd Street,98019,47.7309749,-121.9838921
26570,Northeast 143rd Street,98019,47.7310266,-121.9838932
14330,1st Avenue Northeast,98019,47.7304948,-121.9847368
26530,Northeast 143rd Place,98019,47.7300239,-121.9838680
26518,Northeast 143rd Place,98019,47.7299975,-121.9841241
26514,Northeast 143rd Place,98019,47.7300142,-121.9842424
26526,Northeast 143rd Place,98019,47.7299932,-121.9839529
26522,Northeast 143rd Place,98019,47.7300063,-121.9840358
26502,Northeast 143rd Place,98019,47.7299877,-121.9844955
14338,1st Avenue Northeast,98019,47.7309144,-121.9847579
26510,Northeast 143rd Place,98019,47.7299953,-121.9843334
26506,Northeast 143rd Place,98019,47.7300145,-121.9844106
14344,1st Avenue Northeast,98019,47.7311193,-121.9847684
14346,1st Avenue Northeast,98019,47.7311810,-121.9847697
14340,1st Avenue Northeast,98019,47.7309800,-121.9847653
14342,1st Avenue Northeast,98019,47.7310457,-121.9847667
16015,Main Street Northeast,98019,47.7443008,-121.9859186
26405,Northeast Valley Street,98019,47.7374241,-121.9856647
26506,Northeast 147th Place,98019,47.7341719,-121.9847198
26502,Northeast 147th Place,98019,47.7341714,-121.9849167
26516,Northeast 147th Place,98019,47.7341893,-121.9842715
26508,Northeast 147th Place,98019,47.7341672,-121.9844805
14627,266th Place Northeast,98019,47.7335343,-121.9836579
26521,Northeast 147th Place,98019,47.7337835,-121.9840106
14635,266th Place Northeast,98019,47.7338171,-121.9836578
14631,266th Place Northeast,98019,47.7336827,-121.9836697
26515,Northeast 147th Place,98019,47.7335402,-121.9847715
26513,Northeast 147th Place,98019,47.7336943,-121.9847897
26519,Northeast 147th Place,98019,47.7338249,-121.9843015
26517,Northeast 147th Place,98019,47.7335359,-121.9843501
26524,Northeast 147th Place,98019,47.7341524,-121.9838240
26520,Northeast 147th Place,98019,47.7341644,-121.9840487
26511,Northeast 147th Place,98019,47.7338185,-121.9847924
26526,Northeast 147th Place,98019,47.7341520,-121.9835806
14610,Main Street Northeast,98019,47.7336318,-121.9865705
14616,Main Street Northeast,98019,47.7337647,-121.9865676
14606,Main Street Northeast,98019,47.7335710,-121.9867879
14110,Main Street Northeast,98019,47.7272546,-121.9849952
14020,Main Street Northeast,98019,47.7263039,-121.9849620
26526,Northeast Ring Street,98019,47.7395441,-121.9836981
26528,Northeast Ring Street,98019,47.7395450,-121.9836080
26530,Northeast Ring Street,98019,47.7395492,-121.9834849
26532,Northeast Ring Street,98019,47.7395530,-121.9834081
14176,268th Lane Northeast,98019,47.7278377,-121.9791503
14184,268th Lane Northeast,98019,47.7279467,-121.9791527
14192,268th Lane Northeast,98019,47.7280652,-121.9791381
14144,268th Lane Northeast,98019,47.7274199,-121.9791617
14152,268th Lane Northeast,98019,47.7275219,-121.9791743
14160,268th Lane Northeast,98019,47.7276262,-121.9791869
14168,268th Lane Northeast,98019,47.7277354,-121.9791652
14131,269th Lane Northeast,98019,47.7273221,-121.9787191
14179,269th Lane Northeast,98019,47.7279647,-121.9787193
14171,269th Lane Northeast,98019,47.7278565,-121.9787239
14172,269th Lane Northeast,98019,47.7278677,-121.9782386
14180,269th Lane Northeast,98019,47.7279850,-121.9782598
14188,269th Lane Northeast,98019,47.7280950,-121.9782343
14187,269th Lane Northeast,98019,47.7281008,-121.9787525
14143,270th Lane Northeast,98019,47.7275510,-121.9777693
14148,269th Lane Northeast,98019,47.7275510,-121.9782409
14156,269th Lane Northeast,98019,47.7276575,-121.9782456
14164,269th Lane Northeast,98019,47.7277611,-121.9782386
14175,270th Lane Northeast,98019,47.7279869,-121.9777626
14167,270th Lane Northeast,98019,47.7278692,-121.9777717
14159,270th Lane Northeast,98019,47.7277626,-121.9777716
14151,270th Lane Northeast,98019,47.7276638,-121.9777741
14183,270th Lane Northeast,98019,47.7280997,-121.9777651
14137,271st Avenue Northeast,98019,47.7273344,-121.9759365
14145,271st Avenue Northeast,98019,47.7274275,-121.9759583
14153,271st Avenue Northeast,98019,47.7274846,-121.9759596
14161,271st Avenue Northeast,98019,47.7275763,-121.9759249
14105,271st Avenue Northeast,98019,47.7270507,-121.9759387
14113,271st Avenue Northeast,98019,47.7271230,-121.9759403
14121,271st Avenue Northeast,98019,47.7271917,-121.9759277
14129,271st Avenue Northeast,98019,47.7272715,-121.9759379
14103,271st Avenue Northeast,98019,47.7269745,-121.9759427
26835,Northeast Walden Way,98019,47.7269970,-121.9796334
26916,Northeast Walden Way,98019,47.7273319,-121.9777249
14122,271st Place Northeast,98019,47.7271951,-121.9762693
14114,271st Place Northeast,98019,47.7271362,-121.9762482
14106,271st Place Northeast,98019,47.7270466,-121.9762604
14102,271st Place Northeast,98019,47.7269866,-121.9762554
14154,271st Place Northeast,98019,47.7274866,-121.9762503
14146,271st Place Northeast,98019,47.7274141,-121.9762572
14138,271st Place Northeast,98019,47.7273456,-121.9762557
14130,271st Place Northeast,98019,47.7272713,-121.9762569
14189,271st Place Northeast,98019,47.7280632,-121.9763561
14181,271st Place Northeast,98019,47.7280656,-121.9765029
14178,271st Place Northeast,98019,47.7276977,-121.9762691
14162,271st Place Northeast,98019,47.7275626,-121.9762633
14169,271st Avenue Northeast,98019,47.7276373,-121.9759206
14177,271st Avenue Northeast,98019,47.7277173,-121.9759195
14185,271st Avenue Northeast,98019,47.7277839,-121.9759210
14186,271st Place Northeast,98019,47.7277739,-121.9762679
16017,1st Avenue Northeast,98019,47.7443213,-121.9846432
26914,Northeast 141st Place,98019,47.7284113,-121.9778839
26910,Northeast 141st Place,98019,47.7284074,-121.9780828
16013,1st Avenue Northeast,98019,47.7442241,-121.9846448
16025,1st Avenue Northeast,98019,47.7445070,-121.9846418
26806,Northeast 141st Place,98019,47.7284130,-121.9795700
16021,1st Avenue Northeast,98019,47.7444110,-121.9846452
27002,Northeast 141st Place,98019,47.7283897,-121.9774329
26814,Northeast 141st Place,98019,47.7284064,-121.9789258
26812,Northeast 141st Place,98019,47.7284123,-121.9790863
26810,Northeast 141st Place,98019,47.7284089,-121.9792382
26808,Northeast 141st Place,98019,47.7284109,-121.9794069
26902,Northeast 141st Place,98019,47.7284078,-121.9784173
16018,Main View Lane Northeast,98019,47.7444190,-121.9848394
16022,Main View Lane Northeast,98019,47.7445138,-121.9848360
26816,Northeast 141st Place,98019,47.7284062,-121.9787600
14170,271st Place Northeast,98019,47.7276291,-121.9762732
26804,Northeast 141st Place,98019,47.7284225,-121.9797361
26802,Northeast 141st Place,98019,47.7284322,-121.9798855
27016,Northeast 141st Place,98019,47.7283915,-121.9761366
27018,Northeast 141st Place,98019,47.7284318,-121.9758363
27012,Northeast 141st Place,98019,47.7284191,-121.9765463
27014,Northeast 141st Place,98019,47.7284116,-121.9763665
27226,Northeast 141st Place,98019,47.7284696,-121.9728490
27222,Northeast 141st Place,98019,47.7284914,-121.9730523
27314,Northeast 141st Place,98019,47.7284761,-121.9724919
27306,Northeast 141st Place,98019,47.7284803,-121.9726684
27202,Northeast 141st Place,98019,47.7284587,-121.9736424
27218,Northeast 141st Place,98019,47.7284803,-121.9732637
27210,Northeast 141st Place,98019,47.7284606,-121.9734573
27224,Northeast 141st Street,98019,47.7278349,-121.9729567
27220,Northeast 141st Street,98019,47.7278357,-121.9730917
27304,Northeast 141st Street,98019,47.7278387,-121.9725711
27230,Northeast 141st Street,98019,47.7278494,-121.9728060
27208,Northeast 141st Street,98019,47.7278207,-121.9735060
27204,Northeast 141st Street,98019,47.7278389,-121.9736381
27216,Northeast 141st Street,98019,47.7278345,-121.9732106
27214,Northeast 141st Street,98019,47.7278244,-121.9733518
14128,274th Place Northeast,98019,47.7275823,-121.9715403
14132,274th Place Northeast,98019,47.7276949,-121.9715588
14120,274th Place Northeast,98019,47.7275028,-121.9718985
14124,274th Place Northeast,98019,47.7274736,-121.9715700
14144,274th Place Northeast,98019,47.7280590,-121.9715765
14150,274th Place Northeast,98019,47.7281650,-121.9716013
14136,274th Place Northeast,98019,47.7277969,-121.9715514
14140,274th Place Northeast,98019,47.7279095,-121.9715603
14160,274th Place Northeast,98019,47.7285402,-121.9715934
27337,Northeast 141st Place,98019,47.7281464,-121.9721452
14154,274th Place Northeast,98019,47.7282799,-121.9716070
14158,274th Place Northeast,98019,47.7283993,-121.9715839
27303,Northeast 141st Place,98019,47.7281392,-121.9725727
27225,Northeast 141st Place,98019,47.7281485,-121.9728331
27323,Northeast 141st Place,98019,47.7281510,-121.9722820
27315,Northeast 141st Place,98019,47.7281257,-121.9724269
27217,Northeast 141st Place,98019,47.7281502,-121.9732520
27211,Northeast 141st Place,98019,47.7281398,-121.9734017
27223,Northeast 141st Place,98019,47.7281380,-121.9729828
27219,Northeast 141st Place,98019,47.7281545,-121.9731243
27334,Northeast 141st Place,98019,47.7284742,-121.9720951
27320,Northeast 141st Place,98019,47.7284782,-121.9722892
27207,Northeast 141st Place,98019,47.7281445,-121.9735297
27340,Northeast 141st Place,98019,47.7284938,-121.9719147
14122,272nd Place Northeast,98019,47.7274784,-121.9739529
14134,272nd Place Northeast,98019,47.7278546,-121.9737992
14129,272nd Place Northeast,98019,47.7276471,-121.9743859
14116,272nd Place Northeast,98019,47.7271743,-121.9739610
14149,274th Place Northeast,98019,47.7281068,-121.9719953
27330,Northeast Walden Way,98019,47.7274394,-121.9728259
14146,272nd Place Northeast,98019,47.7281226,-121.9736733
14137,274th Place Northeast,98019,47.7278747,-121.9720063
27327,Northeast Walden Way,98019,47.7272727,-121.9723562
27323,Northeast Walden Way,98019,47.7271645,-121.9723378
27335,Northeast Walden Way,98019,47.7274917,-121.9723578
27331,Northeast Walden Way,98019,47.7273922,-121.9723364
27242,Northeast Walden Way,98019,47.7271703,-121.9728425
27236,Northeast Walden Way,98019,47.7271560,-121.9729739
27319,Northeast Walden Way,98019,47.7270519,-121.9723257
27311,Northeast Walden Way,98019,47.7269301,-121.9723648
27224,Northeast Walden Way,98019,47.7271541,-121.9733788
27220,Northeast Walden Way,98019,47.7271614,-121.9735204
27232,Northeast Walden Way,98019,47.7271567,-121.9731186
27228,Northeast Walden Way,98019,47.7271641,-121.9732473
27227,Northeast 141st Street,98019,47.7274920,-121.9729877
27223,Northeast 141st Street,98019,47.7274819,-121.9731257
27214,Northeast Walden Way,98019,47.7271514,-121.9736487
27210,Northeast Walden Way,98019,47.7271694,-121.9737970
27213,Northeast 141st Street,98019,47.7274822,-121.9735307
27209,Northeast 141st Street,98019,47.7274939,-121.9736627
27221,Northeast 141st Street,98019,47.7274828,-121.9732575
27215,Northeast 141st Street,98019,47.7274792,-121.9733956
27318,Northeast 141st Street,98019,47.7278373,-121.9722786
27312,Northeast 141st Street,98019,47.7278229,-121.9724165
27205,Northeast 141st Street,98019,47.7274902,-121.9738169
27322,Northeast 141st Street,98019,47.7278256,-121.9721498
27142,Northeast Walden Way,98019,47.7273271,-121.9747292
27146,Northeast Walden Way,98019,47.7274074,-121.9747213
14001,271st Avenue Northeast,98019,47.7255246,-121.9767527
14002,271st Avenue Northeast,98019,47.7254721,-121.9757594
27138,Northeast Walden Way,98019,47.7272596,-121.9747567
27132,Northeast Walden Way,98019,47.7271946,-121.9747520
27150,Northeast Walden Way,98019,47.7274854,-121.9747295
27152,Northeast Walden Way,98019,47.7275570,-121.9747246
27122,Northeast Walden Way,98019,47.7269715,-121.9747310
27156,Northeast Walden Way,98019,47.7276283,-121.9747519
27130,Northeast Walden Way,98019,47.7271211,-121.9747247
27126,Northeast Walden Way,98019,47.7270534,-121.9747714
14125,272nd Place Northeast,98019,47.7275754,-121.9744036
14119,272nd Place Northeast,98019,47.7273561,-121.9744278
14117,272nd Place Northeast,98019,47.7272868,-121.9744198
14123,272nd Place Northeast,98019,47.7274906,-121.9744211
14121,272nd Place Northeast,98019,47.7274299,-121.9744262
14105,272nd Place Northeast,98019,47.7270723,-121.9744054
14101,272nd Place Northeast,98019,47.7269985,-121.9744070
14113,272nd Place Northeast,98019,47.7272109,-121.9744181
14109,272nd Place Northeast,98019,47.7271440,-121.9743942
26200,Northeast Burhen Way,98019,47.7347013,-121.9929300
26225,Northeast Burhen Way,98019,47.7394303,-121.9878995
15820,Main Street Northeast,98019,47.7428733,-121.9853574
15732,Main Street Northeast,98019,47.7422162,-121.9855463
15720,Main Street Northeast,98019,47.7419168,-121.9856913
15702,Main Street Northeast,98019,47.7417526,-121.9856780
15602,Main Street Northeast,98019,47.7410619,-121.9857334
15329,Brown Avenue Northeast,98019,47.7390732,-121.9862959
15321,Main Street Northeast,98019,47.7390914,-121.9872035
26219,Northeast Burhen Way,98019,47.7399502,-121.9882684
15435,Main Street Northeast,98019,47.7398788,-121.9868790
15415,Main Street Northeast,98019,47.7395884,-121.9870783
15305,Main Street Northeast,98019,47.7384878,-121.9874174
14823,Main Street Northeast,98019,47.7348212,-121.9881028
29000,Northeast 150th Street,98019,47.7357743,-121.9526882
15619,Main Street Northeast,98019,47.7413202,-121.9863508
15635,Main Street Northeast,98019,47.7415084,-121.9863324
26320,Northeast Stella Street,98019,47.7412068,-121.9870480
26325,Northeast Woodinville Duvall Road,98019,47.7435626,-121.9864010
15611,Main Street Northeast,98019,47.7410978,-121.9863544
26311,Northeast Valley Street,98019,47.7375740,-121.9869698
26321,Northeast Valley Street,98019,47.7375756,-121.9867988
26526,Northeast Cherry Valley Road,98019,47.7482960,-121.9818169
26331,Northeast Valley Street,98019,47.7375558,-121.9862174
14020,Carnation-Duvall Road Northeast,98091,47.7263250,-121.9846847
14020,Carnation-Duvall Road Northeast,98019,47.7275217,-121.9864939
15515,Main Street Northeast,98019,47.7404768,-121.9864165
15535,Main Street Northeast,98019,47.7407331,-121.9864532
15614,Main Street Northeast,98019,47.7412179,-121.9857227
15525,Main Street Northeast,98019,47.7406338,-121.9864295
26631,Northeast Cherry Street,98019,47.7413063,-121.9822516
26304,Northeast Big Rock Road,98019,47.7280692,-121.9862854
14142,Main Street Northeast,98019,47.7282522,-121.9867675
26310,Northeast Big Rock Road,98019,47.7280078,-121.9857480
26605,Northeast Park Street,98019,47.7367380,-121.9836780
15935,Main Street Northeast,98019,47.7437054,-121.9859438
26220,Northeast Stella Street,98019,47.7420298,-121.9870401
26420,Northeast Virginia Street,98019,47.7435649,-121.9847838
26220,Northeast Stella Street,98019,47.7426413,-121.9867695
26220,Northeast Stella Street,98019,47.7421147,-121.9874870
26220,Northeast Stella Street,98019,47.7420752,-121.9872809
26220,Northeast Stella Street,98019,47.7423688,-121.9873496
26220,Northeast Stella Street,98019,47.7422860,-121.9871919
26220,Northeast Stella Street,98019,47.7422150,-121.9869784
16111,Main Street Northeast,98019,47.7449090,-121.9859157
26220,Northeast Stella Street,98019,47.7411041,-121.9880704
26220,Northeast Stella Street,98019,47.7409955,-121.9876756
26220,Northeast Stella Street,98019,47.7410338,-121.9878275
26220,Northeast Stella Street,98019,47.7411721,-121.9875969
26220,Northeast Stella Street,98019,47.7412731,-121.9879787
26220,Northeast Stella Street,98019,47.7412196,-121.9878011
26220,Northeast Stella Street,98019,47.7407582,-121.9882536
26220,Northeast Stella Street,98019,47.7405074,-121.9880816
26220,Northeast Stella Street,98019,47.7407029,-121.9880405
26220,Northeast Stella Street,98019,47.7406464,-121.9878150
15728,1st Avenue Northeast,98019,47.7422137,-121.9842749
26517,Northeast Stewart Street,98019,47.7421332,-121.9840933
26519,Northeast Stewart Street,98019,47.7421419,-121.9839099
26537,Northeast Stewart Street,98019,47.7421476,-121.9836400
26430,Northeast Stewart Street,98019,47.7425565,-121.9843730
26635,Northeast Virginia Street,98019,47.7428949,-121.9822075
15827,2nd Avenue Northeast,98019,47.7428920,-121.9835197
15828,2nd Avenue Northeast,98019,47.7428477,-121.9830570
26632,Northeast Stewart Street,98019,47.7425357,-121.9823492
26617,Northeast Virginia Street,98019,47.7428942,-121.9826966
15807,2nd Avenue Northeast,98019,47.7425284,-121.9835269
26616,Northeast Stewart Street,98019,47.7426032,-121.9827067
26509,Northeast Virginia Street,98019,47.7428672,-121.9843657
26524,Northeast Stewart Street,98019,47.7425745,-121.9838955
26515,Northeast Virginia Street,98019,47.7429425,-121.9838795
26608,Northeast Stewart Street,98019,47.7425762,-121.9830025
15605,3rd Avenue Northeast,98019,47.7410085,-121.9807938
26636,Northeast Stephens Street,98019,47.7402937,-121.9821581
26710,Northeast Stephens Street,98019,47.7402752,-121.9812714
26725,Northeast Cherry Street,98019,47.7413575,-121.9810573
26625,Northeast Stella Street,98019,47.7406491,-121.9823659
26639,Northeast Stewart Street,98019,47.7421176,-121.9821654
26735,Northeast Stella Street,98019,47.7405891,-121.9806450
15530,Broadway Avenue Northeast,98019,47.7405910,-121.9815228
26737,Northeast Stewart Street,98019,47.7421587,-121.9807491
15706,2nd Avenue Northeast,98019,47.7418071,-121.9829189
26709,Northeast Stewart Street,98019,47.7421199,-121.9815545
26710,Northeast Stella Street,98019,47.7410489,-121.9812656
26722,Northeast Stephens Street,98019,47.7402465,-121.9809377
26702,Northeast Stella Street,98019,47.7410044,-121.9816103
26715,Northeast Stella Street,98019,47.7405934,-121.9811490
26623,Northeast Stewart Street,98019,47.7421892,-121.9825944
26730,Northeast Stephens Street,98019,47.7402744,-121.9806073
26624,Northeast Cherry Street,98019,47.7417858,-121.9824635
15705,3rd Avenue Northeast,98019,47.7418194,-121.9807889
26604,Northeast Stephens Street,98019,47.7402482,-121.9829571
26716,Northeast Cherry Street,98019,47.7418082,-121.9811634
26611,Northeast Stewart Street,98019,47.7421132,-121.9829211
15530,2nd Avenue Northeast,98019,47.7406464,-121.9830681
26717,Northeast Stewart Street,98019,47.7421207,-121.9812871
26620,Northeast Stephens Street,98019,47.7402523,-121.9825034
26727,Northeast Stella Street,98019,47.7406509,-121.9809207
26708,Northeast Stephens Street,98019,47.7402790,-121.9815498
26729,Northeast Stewart Street,98019,47.7421587,-121.9810363
15631,3rd Avenue Northeast,98019,47.7413501,-121.9807116
26709,Northeast Cherry Street,98019,47.7414038,-121.9815387
26708,Northeast Cherry Street,98019,47.7418148,-121.9815665
26718,Northeast Stella Street,98019,47.7410280,-121.9809772
26536,Northeast Stephens Street,98019,47.7402963,-121.9835681
26530,Northeast Stephens Street,98019,47.7403174,-121.9839409
26534,Northeast Stella Street,98019,47.7411116,-121.9835440
15631,2nd Avenue Northeast,98019,47.7413804,-121.9835262
26425,Northeast Cherry Street,98019,47.7414424,-121.9851206
26531,Northeast Stella Street,98019,47.7406636,-121.9837802
26528,Northeast Stella Street,98019,47.7410116,-121.9838343
26532,Northeast Stephens Street,98019,47.7403189,-121.9837917
15417,1st Avenue Northeast,98019,47.7395412,-121.9852531
26537,Northeast Stephens Street,98019,47.7398888,-121.9834570
26520,Northeast Ring Street,98019,47.7395657,-121.9842440
26431,Northeast Stephens Street,98019,47.7399125,-121.9847041
26405,Northeast Stephens Street,98019,47.7399424,-121.9852717
26527,Northeast Stephens Street,98019,47.7398530,-121.9838010
26604,Northeast Stella Street,98019,47.7410316,-121.9830520
15708,1st Avenue Northeast,98019,47.7419246,-121.9845050
26617,Northeast Cherry Street,98019,47.7413973,-121.9825068
26620,Northeast Stella Street,98019,47.7411084,-121.9824984
26532,Northeast Cherry Street,98019,47.7418103,-121.9836680
26522,Northeast Cherry Street,98019,47.7417611,-121.9839800
15705,2nd Avenue Northeast,98019,47.7418513,-121.9834342
15606,3rd Avenue Northeast,98019,47.7410107,-121.9801012
26640,Northeast Ring Street,98019,47.7395140,-121.9820920
26616,Northeast Ring Street,98019,47.7395025,-121.9825872
26604,Northeast Ring Street,98019,47.7395404,-121.9829421
26625,Northeast Stephens Street,98019,47.7397988,-121.9825823
26605,Northeast Stephens Street,98019,47.7398664,-121.9829554
26635,Northeast Stephens Street,98019,47.7399021,-121.9820882
26731,Northeast Stephens Street,98019,47.7398185,-121.9806856
26732,Northeast Ring Street,98019,47.7395185,-121.9806344
26706,Northeast Ring Street,98019,47.7395174,-121.9815260
15414,Broadway Avenue Northeast,98019,47.7398337,-121.9815950
26716,Northeast Ring Street,98019,47.7395212,-121.9809299
26710,Northeast Ring Street,98019,47.7394781,-121.9812235
26723,Northeast Stephens Street,98019,47.7398184,-121.9809465
26711,Northeast Stephens Street,98019,47.7398012,-121.9812173
26220,Northeast Stella Street,98019,47.7416335,-121.9877989
26220,Northeast Stella Street,98019,47.7415034,-121.9873790
26220,Northeast Stella Street,98019,47.7416884,-121.9872416
26220,Northeast Stella Street,98019,47.7415650,-121.9875701
26220,Northeast Stella Street,98019,47.7417472,-121.9875144
26701,Northeast Cherry Valley Road,98019,47.7471271,-121.9822372
26815,Northeast 164th Street,98019,47.7468899,-121.9799959
26823,Northeast 163rd Street,98019,47.7458689,-121.9795660
26809,Northeast 163rd Street,98019,47.7458841,-121.9800380
16314,3rd Avenue Northeast,98019,47.7465829,-121.9788038
26806,Northeast 163rd Street,98019,47.7462717,-121.9802489
26801,Northeast 164th Street,98019,47.7471891,-121.9804495
16310,3rd Avenue Northeast,98019,47.7465524,-121.9791479
26817,Northeast 163rd Street,98019,47.7458785,-121.9797871
26818,Northeast 164th Street,98019,47.7473356,-121.9797325
26833,Northeast 163rd Street,98019,47.7458843,-121.9789855
26803,Northeast 163rd Street,98019,47.7458849,-121.9802526
26805,Northeast 164th Street,98019,47.7469658,-121.9804006
16330,3rd Avenue Northeast,98019,47.7470632,-121.9789858
26824,Northeast 163rd Street,98019,47.7464254,-121.9798981
26810,Northeast 164th Street,98019,47.7473884,-121.9800015
26824,Northeast 164th Street,98019,47.7473488,-121.9794777
26828,Northeast 163rd Street,98019,47.7465108,-121.9795770
16324,3rd Avenue Northeast,98019,47.7469792,-121.9787534
16320,3rd Avenue Northeast,98019,47.7467646,-121.9787423
26804,Northeast 164th Street,98019,47.7473894,-121.9803276
26830,Northeast 163rd Street,98019,47.7463331,-121.9794304
26823,Northeast 164th Street,98019,47.7469772,-121.9797539
26812,Northeast 163rd Street,98019,47.7462489,-121.9800103
26807,Northeast 164th Street,98019,47.7467324,-121.9804789
26834,Northeast 163rd Street,98019,47.7463264,-121.9792036
26829,Northeast 163rd Street,98019,47.7458293,-121.9792699
26811,Northeast 164th Street,98019,47.7467953,-121.9801939
26837,Northeast 163rd Street,98019,47.7460514,-121.9789146
16306,3rd Avenue Northeast,98019,47.7466236,-121.9793859
26820,Northeast 163rd Street,98019,47.7462395,-121.9797459
26838,Northeast 163rd Street,98019,47.7462363,-121.9789667
14606,Main Street Northeast,98019,47.7335713,-121.9868088
26425,Northeast Allen Street,98019,47.7460697,-121.9849161
26423,Northeast Allen Street,98019,47.7458551,-121.9848961
15926,1st Avenue Northeast,98019,47.7436352,-121.9842845
15929,2nd Avenue Northeast,98019,47.7436691,-121.9835537
15917,2nd Avenue Northeast,98019,47.7435028,-121.9835484
26523,Northeast Bird Street,98019,47.7436540,-121.9837664
26520,Northeast Virginia Street,98019,47.7433731,-121.9839216
15910,1st Avenue Northeast,98019,47.7434528,-121.9842955
26526,Northeast Virginia Street,98019,47.7432925,-121.9835566
14030,Main Street Northeast,98019,47.7268725,-121.9849604
26524,Northeast Cherry Valley Road,98019,47.7478111,-121.9839243
14124,Main Street Northeast,98019,47.7275059,-121.9856093
15729,Main Street Northeast,98019,47.7421619,-121.9862144
26701,Northeast Cherry Valley Road,98019,47.7465142,-121.9819974
27312,Northeast 146th Place,98019,47.7338991,-121.9730862
27324,Northeast 146th Place,98019,47.7340995,-121.9728856
14701,274th Way Northeast,98019,47.7342131,-121.9726834
14709,274th Way Northeast,98019,47.7343379,-121.9724445
14723,274th Way Northeast,98019,47.7344822,-121.9722924
27223,Northeast 146th Place,98019,47.7335675,-121.9741331
27231,Northeast 146th Place,98019,47.7335765,-121.9738434
27305,Northeast 146th Place,98019,47.7335327,-121.9735169
27311,Northeast 146th Place,98019,47.7335231,-121.9732530
27321,Northeast 146th Place,98019,47.7335502,-121.9729401
27327,Northeast 146th Place,98019,47.7335654,-121.9726332
27333,Northeast 146th Place,98019,47.7337919,-121.9725355
27415,Northeast 148th Way,98019,47.7346549,-121.9718367
14722,274th Way Northeast,98019,47.7343962,-121.9718098
14716,274th Way Northeast,98019,47.7341899,-121.9718291
27408,Northeast 147th Court,98019,47.7340269,-121.9721818
27305,Northeast 148th Way,98019,47.7345506,-121.9732793
14525,Main Street Northeast,98019,47.7329358,-121.9883997
15330,1st Avenue Northeast,98019,47.7391371,-121.9845198
15320,1st Avenue Northeast,98019,47.7389637,-121.9845425
15310,1st Avenue Northeast,98019,47.7387908,-121.9845401
26512,Northeast Richardson Street,98019,47.7387580,-121.9841488
26524,Northeast Richardson Street,98019,47.7387513,-121.9838335
26511,Northeast Ring Street,98019,47.7391218,-121.9841434
26525,Northeast Ring Street,98019,47.7391497,-121.9838379
15309,2nd Avenue Northeast,98019,47.7388250,-121.9835241
26524,Northeast Ring Street,98019,47.7395679,-121.9838701
15326,2nd Avenue Northeast,98019,47.7391125,-121.9830005
15308,2nd Avenue Northeast,98019,47.7388194,-121.9829962
26616,Northeast Richardson Street,98019,47.7387975,-121.9826569
26621,Northeast Ring Street,98019,47.7391128,-121.9824774
26628,Northeast Richardson Street,98019,47.7387908,-121.9823526
15307,Broadway Avenue Northeast,98019,47.7387797,-121.9820997
15325,Broadway Avenue Northeast,98019,47.7391388,-121.9820577
15222,1st Avenue Northeast,98019,47.7382998,-121.9845992
26504,Northeast Valley Street,98019,47.7380660,-121.9845378
26521,Northeast Richardson Street,98019,47.7383456,-121.9840694
26520,Northeast Valley Street,98019,47.7380246,-121.9839607
26522,Northeast Valley Street,98019,47.7380427,-121.9837834
15215,2nd Avenue Northeast,98019,47.7380429,-121.9834997
15225,2nd Avenue Northeast,98019,47.7382719,-121.9834713
26710,Northeast Richardson Street,98019,47.7388088,-121.9815037
26709,Northeast Ring Street,98019,47.7390662,-121.9814695
26719,Northeast Ring Street,98019,47.7390987,-121.9811117
15325,3rd Avenue Northeast,98019,47.7390864,-121.9806819
26712,Northeast Richardson Street,98019,47.7387719,-121.9811308
26730,Northeast Richardson Street,98019,47.7387660,-121.9806482
15226,2nd Avenue Northeast,98019,47.7383152,-121.9829590
26617,Northeast Richardson Street,98019,47.7383741,-121.9826658
26633,Northeast Richardson Street,98019,47.7383470,-121.9823435
15225,Broadway Avenue Northeast,98019,47.7382812,-121.9820992
27924,Northeast 148th Place,98019,47.7347863,-121.9653219
27926,Northeast 148th Place,98019,47.7347529,-121.9649151
27920,Northeast 148th Place,98019,47.7346452,-121.9653458
27922,Northeast 148th Place,98019,47.7346036,-121.9649094
27918,Northeast 148th Place,98019,47.7343908,-121.9649716
27928,Northeast 148th Place,98019,47.7344183,-121.9647608
27906,Northeast 148th Place,98019,47.7344310,-121.9654619
14802,279th Lane Northeast,98019,47.7344264,-121.9657355
27929,Northeast 148th Place,98019,47.7340775,-121.9646423
27925,Northeast 148th Place,98019,47.7340617,-121.9648148
27917,Northeast 148th Place,98019,47.7340596,-121.9650098
27913,Northeast 148th Place,98019,47.7340485,-121.9651932
27907,Northeast 148th Place,98019,47.7340594,-121.9653665
26425,Northeast Valley Street,98019,47.7376456,-121.9851777
14907,Main Street Northeast,98019,47.7359345,-121.9876079
27039,Northeast Stewart Street,98019,47.7421487,-121.9763845
27033,Northeast Stewart Street,98019,47.7421396,-121.9766147
27025,Northeast Stewart Street,98019,47.7421209,-121.9768644
27032,Northeast Stewart Street,98019,47.7424874,-121.9767269
27036,Northeast Stewart Street,98019,47.7426310,-121.9766514
27042,Northeast Stewart Street,98019,47.7427926,-121.9765600
27115,Northeast Stewart Street,98019,47.7424404,-121.9762223
27119,Northeast Stewart Street,98019,47.7426410,-121.9759885
27125,Northeast Stewart Street,98019,47.7424776,-121.9756704
27127,Northeast Stewart Street,98019,47.7424846,-121.9753880
27131,Northeast Stewart Street,98019,47.7424378,-121.9751136
27135,Northeast Stewart Street,98019,47.7427543,-121.9751686
15722,4th Avenue Northeast,98019,47.7420471,-121.9774517
26935,Northeast Virginia Street,98019,47.7428400,-121.9780034
15801,4th Avenue Northeast,98019,47.7425329,-121.9780090
26923,Northeast Virginia Street,98019,47.7428869,-121.9785889
15725,4th Avenue Northeast,98019,47.7421003,-121.9780045
26937,Northeast Stewart Street,98019,47.7421347,-121.9782716
26925,Northeast Stewart Street,98019,47.7421162,-121.9785773
26913,Northeast Stewart Street,98019,47.7421144,-121.9788309
26841,Northeast Stewart Street,98019,47.7421368,-121.9791556
26825,Northeast Stewart Street,98019,47.7421028,-121.9795039
26801,Northeast Stewart Street,98019,47.7421030,-121.9801861
26804,Northeast Cherry Street,98019,47.7417433,-121.9801541
26820,Northeast Cherry Street,98019,47.7417396,-121.9798244
26834,Northeast Cherry Street,98019,47.7417501,-121.9793342
26912,Northeast Cherry Street,98019,47.7418184,-121.9787145
26926,Northeast Cherry Street,98019,47.7417600,-121.9784586
26930,Northeast Cherry Street,98019,47.7417710,-121.9781884
26934,Northeast Cherry Street,98019,47.7417746,-121.9779250
26936,Northeast Stewart Street,98019,47.7425291,-121.9783611
26920,Northeast Stewart Street,98019,47.7425214,-121.9785927
26908,Northeast Stewart Street,98019,47.7424925,-121.9789931
26840,Northeast Stewart Street,98019,47.7425468,-121.9793625
26820,Northeast Stewart Street,98019,47.7425309,-121.9796931
26816,Northeast Stewart Street,98019,47.7425489,-121.9798699
15804,3rd Avenue Northeast,98019,47.7425437,-121.9801487
26933,Northeast Cherry Street,98019,47.7413186,-121.9780195
26923,Northeast Cherry Street,98019,47.7413485,-121.9783727
26915,Northeast Cherry Street,98019,47.7413550,-121.9787877
26905,Northeast Cherry Street,98019,47.7413604,-121.9790964
26831,Northeast Cherry Street,98019,47.7413651,-121.9793880
26825,Northeast Cherry Street,98019,47.7413849,-121.9796779
15630,3rd Avenue Northeast,98019,47.7413502,-121.9801604
15920,4th Avenue Northeast,98019,47.7436379,-121.9761171
15926,4th Avenue Northeast,98019,47.7436394,-121.9771219
16002,270th Place Northeast,98019,47.7439126,-121.9768574
16010,270th Place Northeast,98019,47.7441081,-121.9767380
26907,Northeast Bird Street,98019,47.7436105,-121.9788002
26831,Northeast Bird Street,98019,47.7436456,-121.9791020
26815,Northeast Bird Street,98019,47.7436583,-121.9794517
26809,Northeast Bird Street,98019,47.7436615,-121.9797576
26803,Northeast Bird Street,98019,47.7436226,-121.9801982
26802,Northeast Virginia Street,98019,47.7432901,-121.9801808
26808,Northeast Virginia Street,98019,47.7433320,-121.9798839
26832,Northeast Virginia Street,98019,47.7432850,-121.9794551
26902,Northeast Virginia Street,98019,47.7432848,-121.9791528
26918,Northeast Virginia Street,98019,47.7432443,-121.9788516
26926,Northeast Virginia Street,98019,47.7432496,-121.9785288
26938,Northeast Virginia Street,98019,47.7432917,-121.9780099
26932,Northeast Stella Street,98019,47.7410263,-121.9780745
26920,Northeast Stella Street,98019,47.7409784,-121.9784502
26910,Northeast Stella Street,98019,47.7410027,-121.9788552
26836,Northeast Stella Street,98019,47.7409954,-121.9792571
26820,Northeast Stella Street,98019,47.7409849,-121.9796235
26801,Northeast Stella Street,98019,47.7406473,-121.9801628
15510,3rd Avenue Northeast,98019,47.7402947,-121.9801081
26816,Northeast Stephens Court,98019,47.7402827,-121.9798466
26832,Northeast Stephens Court,98019,47.7402479,-121.9793828
26813,Northeast Stella Street,98019,47.7406554,-121.9798953
26833,Northeast Stella Street,98019,47.7406117,-121.9793805
26905,Northeast Stella Street,98019,47.7405988,-121.9790894
26913,Northeast Stella Street,98019,47.7405679,-121.9787427
26923,Northeast Stella Street,98019,47.7406471,-121.9784060
26935,Northeast Stella Street,98019,47.7405688,-121.9780237
26930,Northeast Stephens Court,98019,47.7402343,-121.9780964
26910,Northeast Stephens Court,98019,47.7402555,-121.9786902
26915,Northeast Virginia Street,98019,47.7428805,-121.9789138
26825,Northeast Virginia Street,98019,47.7428854,-121.9794985
26817,Northeast Virginia Street,98019,47.7428625,-121.9797875
26809,Northeast Virginia Street,98019,47.7428677,-121.9799728
26805,Northeast Virginia Street,98019,47.7428910,-121.9802270
15807,Main Street Northeast,98019,47.7425153,-121.9862084
29300,Northeast 150th Street,98019,47.7349282,-121.9491006
27410,Northeast 152nd Court,98019,47.7380090,-121.9722655
27409,Northeast 152nd Court,98019,47.7378535,-121.9717199
27403,Northeast 152nd Court,98019,47.7376838,-121.9717562
16005,271st Place Northeast,98019,47.7440146,-121.9762186
14907,275th Place Northeast,98019,47.7358840,-121.9709260
27514,Northeast 149th Lane,98019,47.7359678,-121.9702770
27532,Northeast 149th Lane,98019,47.7359745,-121.9697200
14933,276th Place Northeast,98019,47.7359690,-121.9692885
14925,276th Place Northeast,98019,47.7358345,-121.9692879
14919,276th Place Northeast,98019,47.7356678,-121.9693085
14915,276th Place Northeast,98019,47.7355520,-121.9692705
14911,276th Place Northeast,98019,47.7353394,-121.9693345
27610,Northeast 146th Way,98019,47.7351580,-121.9692280
27608,Northeast 146th Way,98019,47.7350510,-121.9692625
27604,Northeast 146th Way,98019,47.7349240,-121.9692570
27601,Northeast 146th Way,98019,47.7347900,-121.9692589
27603,Northeast 146th Way,98019,47.7346787,-121.9692423
27605,Northeast 146th Way,98019,47.7345720,-121.9692585
27607,Northeast 146th Way,98019,47.7344605,-121.9692641
15121,275th Court Northeast,98019,47.7377020,-121.9707230
15119,275th Court Northeast,98019,47.7375055,-121.9708064
15115,275th Court Northeast,98019,47.7373080,-121.9707395
15031,275th Court Northeast,98019,47.7371419,-121.9707212
27509,Northeast 150th Place,98019,47.7366303,-121.9706757
27515,Northeast 150th Place,98019,47.7365846,-121.9704503
26609,Northeast Stella Street,98019,47.7406275,-121.9826605
26827,Northeast Stephens Court,98019,47.7397715,-121.9791385
15423,3rd Place Northeast,98019,47.7399032,-121.9787731
15411,3rd Place Northeast,98019,47.7397134,-121.9787899
27523,Northeast 150th Place,98019,47.7365215,-121.9701337
27529,Northeast 150th Place,98019,47.7364956,-121.9698786
26932,Northeast 152nd Street,98019,47.7394728,-121.9775691
26930,Northeast 152nd Street,98019,47.7398423,-121.9775375
15422,3rd Place Northeast,98019,47.7398850,-121.9783246
15410,3rd Place Northeast,98019,47.7396434,-121.9783526
26916,Northeast 152nd Street,98019,47.7397610,-121.9779525
26918,Northeast 152nd Street,98019,47.7395305,-121.9780021
26833,Northeast Stephens Court,98019,47.7399326,-121.9791499
26821,Northeast Stephens Court,98019,47.7398532,-121.9795273
26918,Northeast Stephens Court,98019,47.7402380,-121.9783718
27603,Northeast 150th Place,98019,47.7364300,-121.9693955
27609,Northeast 150th Place,98019,47.7364134,-121.9692464
27613,Northeast 150th Place,98019,47.7364057,-121.9690864
27619,Northeast 150th Place,98019,47.7363855,-121.9689224
27623,Northeast 150th Place,98019,47.7363843,-121.9687480
27627,Northeast 150th Place,98019,47.7363493,-121.9685731
27631,Northeast 150th Place,98019,47.7363196,-121.9683835
27635,Northeast 150th Place,98019,47.7363136,-121.9682305
27705,Northeast 150th Place,98019,47.7363047,-121.9680665
27711,Northeast 150th Place,98019,47.7362898,-121.9679019
27715,Northeast 150th Place,98019,47.7362680,-121.9677340
27721,Northeast 150th Place,98019,47.7362381,-121.9675222
27725,Northeast 150th Place,98019,47.7362668,-121.9673052
15018,277th Place Northeast,98019,47.7364207,-121.9673470
26523,Northeast Valley Street,98019,47.7372958,-121.9839089
15009,Broadway Court Northeast,98019,47.7365753,-121.9810837
15007,Broadway Court Northeast,98019,47.7364356,-121.9810075
15008,Broadway Court Northeast,98019,47.7364224,-121.9805220
15010,Broadway Court Northeast,98019,47.7365718,-121.9805624
15025,3rd Avenue Northeast,98019,47.7368456,-121.9805275
15026,Broadway Court Northeast,98019,47.7368005,-121.9807297
15023,Broadway Court Northeast,98019,47.7368113,-121.9809271
15030,Northeast Taylor Street,98019,47.7368236,-121.9812487
15118,Broadway Avenue Northeast,98019,47.7372287,-121.9806659
26735,Northeast Valley Street,98019,47.7375895,-121.9805444
26725,Northeast Valley Street,98019,47.7375871,-121.9808134
26715,Northeast Valley Street,98019,47.7375846,-121.9812790
15116,Broadway Avenue Northeast,98019,47.7372982,-121.9810404
26710,Northeast Park Street,98019,47.7372256,-121.9813409
15102,Broadway Avenue Northeast,98019,47.7372521,-121.9815620
15128,Broadway Avenue Northeast,98019,47.7375692,-121.9815731
26633,Northeast Valley Street,98019,47.7375858,-121.9822650
26636,Northeast Park Street,98019,47.7372539,-121.9821460
26620,Northeast Park Street,98019,47.7372788,-121.9825101
26600,Northeast Park Street,98019,47.7372833,-121.9828713
26621,Northeast Valley Street,98019,47.7376178,-121.9825836
26609,Northeast Valley Street,98019,47.7376235,-121.9830120
26533,Northeast Valley Street,98019,47.7376376,-121.9835330
15115,2nd Avenue Northeast,98019,47.7372332,-121.9836101
26519,Northeast Valley Street,98019,47.7372933,-121.9840757
26513,Northeast Valley Street,98019,47.7372778,-121.9842418
26487,Northeast Valley Street,98019,47.7373301,-121.9844050
26481,Northeast Valley Street,98019,47.7373484,-121.9845414
26477,Northeast Valley Street,98019,47.7374026,-121.9846996
26527,Northeast Valley Street,98019,47.7376057,-121.9839066
26509,Northeast Valley Street,98019,47.7376024,-121.9842188
26491,Northeast Valley Street,98019,47.7376466,-121.9844560
26471,Northeast Valley Street,98019,47.7376480,-121.9847263
26608,Northeast Valley Street,98019,47.7379886,-121.9830933
26616,Northeast Valley Street,98019,47.7379741,-121.9829070
26620,Northeast Valley Street,98019,47.7380194,-121.9827375
26628,Northeast Valley Street,98019,47.7380435,-121.9824024
15207,Broadway Avenue Northeast,98019,47.7380378,-121.9821352
15206,Broadway Avenue Northeast,98019,47.7380219,-121.9815707
26714,Northeast Valley Street,98019,47.7379839,-121.9812683
15205,3rd Avenue Northeast,98019,47.7380222,-121.9805702
26733,Northeast Richardson Street,98019,47.7383157,-121.9806974
26721,Northeast Richardson Street,98019,47.7383037,-121.9811032
15226,Broadway Avenue Northeast,98019,47.7383061,-121.9814982
27609,Northeast 146th Way,98019,47.7343377,-121.9692330
27611,Northeast 146th Way,98019,47.7344737,-121.9688694
27715,Northeast 146th Way,98019,47.7345050,-121.9685848
27713,Northeast 146th Way,98019,47.7346361,-121.9686028
27612,Northeast 146th Way,98019,47.7350315,-121.9689235
27700,Northeast 146th Way,98019,47.7350232,-121.9687005
27702,Northeast 146th Way,98019,47.7349895,-121.9685320
27704,Northeast 146th Way,98019,47.7349755,-121.9683763
14902,276th Place Northeast,98019,47.7352355,-121.9684650
14906,276th Place Northeast,98019,47.7353705,-121.9684020
14910,276th Place Northeast,98019,47.7356330,-121.9683975
14914,276th Place Northeast,98019,47.7355475,-121.9686585
14920,276th Place Northeast,98019,47.7357410,-121.9687530
14926,276th Place Northeast,98019,47.7358920,-121.9684400
14932,276th Place Northeast,98019,47.7359380,-121.9687755
27834,Northeast 149th Court,98019,47.7356600,-121.9656570
27904,Northeast 149th Court,98019,47.7356290,-121.9654275
27908,Northeast 149th Court,98019,47.7355885,-121.9652370
27912,Northeast 149th Court,98019,47.7355870,-121.9650445
27916,Northeast 149th Court,98019,47.7355370,-121.9648340
27920,Northeast 149th Court,98019,47.7353930,-121.9647610
27924,Northeast 149th Court,98019,47.7352640,-121.9647300
14931,280th Place Northeast,98019,47.7354810,-121.9642485
14923,280th Place Northeast,98019,47.7352345,-121.9642135
14918,280th Place Northeast,98019,47.7353875,-121.9635645
14915,281st Place Northeast,98019,47.7353181,-121.9629775
14907,281st Place Northeast,98019,47.7350700,-121.9629890
14925,281st Place Northeast,98019,47.7353275,-121.9625235
14908,281st Place Northeast,98019,47.7349830,-121.9621969
14916,281st Place Northeast,98019,47.7352645,-121.9620360
14921,282nd Place Northeast,98019,47.7352145,-121.9615160
14920,282nd Place Northeast,98019,47.7351405,-121.9610655
14924,283rd Place Northeast,98019,47.7350885,-121.9600640
14917,283rd Place Northeast,98019,47.7350722,-121.9605319
14911,283rd Place Northeast,98019,47.7348394,-121.9604752
14906,282nd Place Northeast,98019,47.7348795,-121.9610245
14918,283rd Place Northeast,98019,47.7349565,-121.9596865
14906,283rd Place Northeast,98019,47.7346910,-121.9597430
28406,Northeast 149th Place,98019,47.7349395,-121.9588790
28418,Northeast 149th Place,98019,47.7348695,-121.9585142
28430,Northeast 149th Place,98019,47.7348710,-121.9581115
28504,Northeast 149th Place,98019,47.7348500,-121.9576770
28508,Northeast 149th Place,98019,47.7348058,-121.9572400
28509,Northeast 149th Place,98019,47.7344035,-121.9569315
28507,Northeast 149th Place,98019,47.7342985,-121.9572745
28503,Northeast 149th Place,98019,47.7343680,-121.9576825
28431,Northeast 149th Place,98019,47.7344240,-121.9580780
28419,Northeast 149th Place,98019,47.7344650,-121.9584923
27332,Northeast 153rd Place,98019,47.7397652,-121.9730517
27324,Northeast 153rd Place,98019,47.7397399,-121.9734840
27316,Northeast 153rd Place,98019,47.7397327,-121.9738406
27306,Northeast 153rd Place,98019,47.7398171,-121.9742217
27302,Northeast 153rd Place,98019,47.7398061,-121.9746715
27405,Northeast 153rd Place,98019,47.7393464,-121.9727410
27301,Northeast 153rd Place,98019,47.7395066,-121.9746038
27303,Northeast 153rd Place,98019,47.7392205,-121.9746570
27307,Northeast 153rd Place,98019,47.7392565,-121.9742653
27315,Northeast 153rd Place,98019,47.7392977,-121.9738215
27323,Northeast 153rd Place,98019,47.7393351,-121.9734711
27329,Northeast 153rd Place,98019,47.7393477,-121.9731015
27228,Northeast 152nd Street,98019,47.7388515,-121.9737558
27120,Northeast 152nd Street,98019,47.7394911,-121.9764456
15024,277th Place Northeast,98019,47.7365490,-121.9673390
15030,277th Place Northeast,98019,47.7366549,-121.9673340
15106,277th Place Northeast,98019,47.7367729,-121.9673297
15114,277th Place Northeast,98019,47.7368853,-121.9673380
15116,277th Place Northeast,98019,47.7370133,-121.9673289
15118,277th Place Northeast,98019,47.7371373,-121.9673674
15124,277th Place Northeast,98019,47.7372601,-121.9673699
15126,277th Place Northeast,98019,47.7373915,-121.9673348
15202,277th Place Northeast,98019,47.7376958,-121.9673765
15206,277th Place Northeast,98019,47.7378238,-121.9673819
26720,Northeast Kennedy Drive,98019,47.7356176,-121.9809660
26700,Northeast Kennedy Drive,98019,47.7356047,-121.9816217
26628,Northeast Kennedy Drive,98019,47.7356617,-121.9821020
26624,Northeast Kennedy Drive,98019,47.7355429,-121.9824185
26614,Northeast Kennedy Drive,98019,47.7355218,-121.9826813
26606,Northeast Kennedy Drive,98019,47.7355342,-121.9829590
26530,Northeast Kennedy Drive,98019,47.7355302,-121.9832435
26522,Northeast Kennedy Drive,98019,47.7355207,-121.9835398
26518,Northeast Kennedy Drive,98019,47.7354904,-121.9838801
26512,Northeast Kennedy Drive,98019,47.7356688,-121.9839167
26508,Northeast Kennedy Drive,98019,47.7357973,-121.9841426
26502,Northeast Kennedy Drive,98019,47.7358653,-121.9843867
26428,Northeast Kennedy Drive,98019,47.7359068,-121.9846347
26424,Northeast Kennedy Drive,98019,47.7356715,-121.9846375
26420,Northeast Kennedy Drive,98019,47.7355010,-121.9846388
26416,Northeast Kennedy Drive,98019,47.7356696,-121.9850978
26410,Northeast Kennedy Drive,98019,47.7360219,-121.9852161
26326,Northeast Kennedy Drive,98019,47.7361229,-121.9856245
26330,Northeast Kennedy Drive,98019,47.7355699,-121.9856074
15310,277th Place Northeast,98019,47.7383171,-121.9674430
15322,277th Place Northeast,98019,47.7385108,-121.9674675
15404,277th Place Northeast,98019,47.7387088,-121.9674466
15416,277th Place Northeast,98019,47.7388933,-121.9674275
15426,277th Place Northeast,98019,47.7391089,-121.9674148
15432,277th Place Northeast,98019,47.7392630,-121.9674357
27730,Northeast 154th Place,98019,47.7396022,-121.9673566
27722,Northeast 154th Place,98019,47.7396181,-121.9676372
15435,277th Place Northeast,98019,47.7395971,-121.9678844
15431,277th Place Northeast,98019,47.7394868,-121.9681717
15311,277th Place Northeast,98019,47.7383387,-121.9679597
15231,277th Place Northeast,98019,47.7381472,-121.9679739
28407,Northeast 149th Place,98019,47.7344855,-121.9588890
14905,282nd Place Northeast,98019,47.7349653,-121.9617799
28101,Northeast 149th Place,98019,47.7345790,-121.9624635
28017,Northeast 149th Place,98019,47.7346095,-121.9629610
28003,Northeast 149th Place,98019,47.7346565,-121.9635190
14810,280th Place Northeast,98019,47.7343715,-121.9635255
28020,Northeast 148th Place,98019,47.7343175,-121.9630105
28200,Northeast 148th Place,98019,47.7342645,-121.9624700
28210,Northeast 148th Place,98019,47.7342265,-121.9620275
28218,Northeast 148th Place,98019,47.7341694,-121.9615630
28201,Northeast 149th Place,98019,47.7344900,-121.9614495
28115,Northeast 149th Place,98019,47.7345215,-121.9619560
28219,Northeast 149th Place,98019,47.7344485,-121.9609360
28226,Northeast 148th Place,98019,47.7341491,-121.9610885
14819,283rd Place Northeast,98019,47.7341168,-121.9605144
14829,283rd Place Northeast,98019,47.7343831,-121.9604469
14830,283rd Place Northeast,98019,47.7344390,-121.9597276
14824,283rd Place Northeast,98019,47.7341895,-121.9597685
14818,283rd Place Northeast,98019,47.7339335,-121.9596155
14810,283rd Place Northeast,98019,47.7336443,-121.9595274
14809,283rd Place Northeast,98019,47.7335730,-121.9599310
28241,Northeast 148th Place,98019,47.7336945,-121.9603396
28233,Northeast 148th Place,98019,47.7336800,-121.9607985
28225,Northeast 148th Place,98019,47.7337311,-121.9612499
28217,Northeast 148th Place,98019,47.7337715,-121.9617125
28205,Northeast 148th Place,98019,47.7338195,-121.9621549
28027,Northeast 148th Place,98019,47.7338635,-121.9628960
28015,Northeast 148th Place,98019,47.7339280,-121.9633495
28003,Northeast 148th Place,98019,47.7339513,-121.9638265
27933,Northeast 148th Place,98019,47.7339982,-121.9642740
14906,280th Place Northeast,98019,47.7351000,-121.9635270
14911,280th Place Northeast,98019,47.7349645,-121.9641840
14821,280th Place Northeast,98019,47.7346995,-121.9641860
27932,Northeast 148th Place,98019,47.7344475,-121.9642485
27930,Northeast 148th Place,98019,47.7346360,-121.9646480
27932,Northeast 149th Court,98019,47.7349685,-121.9647205
27930,Northeast 149th Court,98019,47.7351240,-121.9646950
27921,Northeast 149th Court,98019,47.7353040,-121.9652810
14820,279th Lane Northeast,98019,47.7353205,-121.9655240
14814,279th Lane Northeast,98019,47.7351555,-121.9656070
27929,Northeast 149th Court,98019,47.7350980,-121.9653485
27931,Northeast 149th Court,98019,47.7349700,-121.9653035
27618,Northeast 153rd Lane,98019,47.7381821,-121.9685060
27614,Northeast 153rd Lane,98019,47.7382163,-121.9688192
15316,276th Place Northeast,98019,47.7383923,-121.9687201
15329,276th Place Northeast,98019,47.7388311,-121.9693003
27430,Northeast 155th Place,98019,47.7406766,-121.9717974
27426,Northeast 155th Place,98019,47.7406599,-121.9720626
27418,Northeast 155th Place,98019,47.7406719,-121.9723389
27412,Northeast 155th Place,98019,47.7406625,-121.9726183
27404,Northeast 155th Place,98019,47.7406448,-121.9729242
27322,Northeast 155th Place,98019,47.7406326,-121.9732070
27314,Northeast 155th Place,98019,47.7405967,-121.9735184
15528,273rd Avenue Northeast,98019,47.7408343,-121.9735682
15527,273rd Avenue Northeast,98019,47.7408457,-121.9741006
15519,273rd Avenue Northeast,98019,47.7406535,-121.9741414
15513,273rd Avenue Northeast,98019,47.7404660,-121.9741374
27303,Northeast 155th Place,98019,47.7401832,-121.9740654
27309,Northeast 155th Place,98019,47.7401634,-121.9737593
27315,Northeast 155th Place,98019,47.7402177,-121.9734835
27323,Northeast 155th Place,98019,47.7402149,-121.9731955
27405,Northeast 155th Place,98019,47.7402464,-121.9729004
27411,Northeast 155th Place,98019,47.7402577,-121.9726250
27419,Northeast 155th Place,98019,47.7402726,-121.9723405
27425,Northeast 155th Place,98019,47.7402792,-121.9720561
27431,Northeast 155th Place,98019,47.7402582,-121.9717864
27410,Northeast 153rd Place,98019,47.7397768,-121.9726511
27420,Northeast 153rd Place,98019,47.7397725,-121.9722728
27428,Northeast 153rd Place,98019,47.7398013,-121.9717654
27415,Northeast 153rd Place,98019,47.7393729,-121.9723933
27423,Northeast 153rd Place,98019,47.7393918,-121.9720566
27431,Northeast 153rd Place,98019,47.7393589,-121.9717298
27440,Northeast 152nd Court,98019,47.7388885,-121.9717218
27438,Northeast 152nd Court,98019,47.7388829,-121.9719424
27434,Northeast 152nd Court,98019,47.7388146,-121.9721867
27430,Northeast 152nd Court,98019,47.7386884,-121.9723530
27426,Northeast 152nd Court,98019,47.7385754,-121.9725239
27427,Northeast 152nd Court,98019,47.7385206,-121.9717481
27418,Northeast 152nd Court,98019,47.7382499,-121.9725917
27414,Northeast 152nd Court,98019,47.7381309,-121.9724332
27423,Northeast 152nd Court,98019,47.7383520,-121.9717496
27419,Northeast 152nd Court,98019,47.7381815,-121.9717430
27411,Northeast 152nd Court,98019,47.7380206,-121.9717344
16014,Main View Lane Northeast,98019,47.7443273,-121.9848906
16012,Main View Lane Northeast,98019,47.7442415,-121.9848985
16008,Main View Lane Northeast,98019,47.7441408,-121.9849094
16006,Main View Lane Northeast,98019,47.7440621,-121.9849227
16002,Main View Lane Northeast,98019,47.7439693,-121.9849257
16009,1st Avenue Northeast,98019,47.7441295,-121.9846753
16005,1st Avenue Northeast,98019,47.7440423,-121.9846900
16001,1st Avenue Northeast,98019,47.7439611,-121.9847080
27936,Northeast 149th Court,98019,47.7349310,-121.9649718
14812,279th Lane Northeast,98019,47.7349863,-121.9656361
14810,279th Lane Northeast,98019,47.7348190,-121.9656445
14808,279th Lane Northeast,98019,47.7346855,-121.9656901
14806,279th Lane Northeast,98019,47.7345551,-121.9657183
27910,Northeast 148th Place,98019,47.7343993,-121.9652878
27905,Northeast 148th Place,98019,47.7340865,-121.9655560
27903,Northeast 148th Place,98019,47.7340903,-121.9657402
27901,Northeast 148th Place,98019,47.7341279,-121.9659286
14801,279th Lane Northeast,98019,47.7340683,-121.9662440
14803,279th Lane Northeast,98019,47.7342065,-121.9662875
14805,279th Lane Northeast,98019,47.7343811,-121.9662646
14807,279th Lane Northeast,98019,47.7345020,-121.9662484
27825,Northeast 148th Lane,98019,47.7347598,-121.9661290
27819,Northeast 148th Lane,98019,47.7347475,-121.9662911
27815,Northeast 148th Lane,98019,47.7347900,-121.9664650
27809,Northeast 148th Lane,98019,47.7348143,-121.9666525
27807,Northeast 148th Lane,98019,47.7348049,-121.9668124
14821,279th Lane Northeast,98019,47.7354115,-121.9659460
14817,279th Lane Northeast,98019,47.7352555,-121.9660170
27823,Northeast 149th Court,98019,47.7353090,-121.9662355
27815,Northeast 149th Court,98019,47.7353040,-121.9664490
27816,Northeast 148th Lane,98019,47.7351140,-121.9663855
14809,279th Lane Northeast,98019,47.7350935,-121.9660820
27717,Northeast 150th Street,98019,47.7353959,-121.9675537
27706,Northeast 146th Way,98019,47.7350465,-121.9680945
27708,Northeast 146th Way,98019,47.7349145,-121.9680415
27710,Northeast 146th Way,98019,47.7347830,-121.9680665
27712,Northeast 146th Way,98019,47.7346755,-121.9680625
27714,Northeast 146th Way,98019,47.7345675,-121.9680250
27716,Northeast 146th Way,98019,47.7344585,-121.9680285
27718,Northeast 146th Way,98019,47.7343505,-121.9680110
27720,Northeast 146th Way,98019,47.7342355,-121.9679805
27722,Northeast 146th Way,98019,47.7340590,-121.9679530
27724,Northeast 146th Way,98019,47.7338902,-121.9679201
27726,Northeast 146th Way,98019,47.7336571,-121.9679175
27730,Northeast 146th Way,98019,47.7335040,-121.9678876
27729,Northeast 146th Way,98019,47.7333880,-121.9683805
27725,Northeast 146th Way,98019,47.7337910,-121.9684525
27723,Northeast 146th Way,98019,47.7339725,-121.9684630
27721,Northeast 146th Way,98019,47.7341350,-121.9685025
27719,Northeast 146th Way,98019,47.7342838,-121.9685218
27717,Northeast 146th Way,98019,47.7343900,-121.9685344
15323,276th Place Northeast,98019,47.7386688,-121.9692984
15317,276th Place Northeast,98019,47.7385056,-121.9693007
15311,276th Place Northeast,98019,47.7383394,-121.9692967
15305,276th Place Northeast,98019,47.7381774,-121.9693015
15217,276th Place Northeast,98019,47.7379958,-121.9692902
15211,276th Place Northeast,98019,47.7378551,-121.9692865
15207,276th Place Northeast,98019,47.7377184,-121.9692804
15203,276th Place Northeast,98019,47.7375792,-121.9692772
15123,276th Place Northeast,98019,47.7374387,-121.9692830
15117,276th Place Northeast,98019,47.7373032,-121.9693169
15113,276th Place Northeast,98019,47.7371848,-121.9692896
15111,276th Place Northeast,98019,47.7370673,-121.9692840
15105,276th Place Northeast,98019,47.7369568,-121.9693166
15029,276th Place Northeast,98019,47.7368494,-121.9692897
15021,276th Place Northeast,98019,47.7367433,-121.9693059
27530,Northeast 150th Place,98019,47.7368219,-121.9696560
16301,Main View Lane Northeast,98019,47.7464997,-121.9851381
16309,Main View Lane Northeast,98019,47.7465818,-121.9851250
16313,Main View Lane Northeast,98019,47.7466708,-121.9851057
16319,Main View Lane Northeast,98019,47.7467559,-121.9850929
16325,Main View Lane Northeast,98019,47.7468492,-121.9850831
16329,Main View Lane Northeast,98019,47.7469464,-121.9850655
16333,Main View Lane Northeast,98019,47.7470464,-121.9850432
16339,Main View Lane Northeast,98019,47.7471397,-121.9849916
16343,Main View Lane Northeast,98019,47.7472300,-121.9849137
16347,Main View Lane Northeast,98019,47.7472975,-121.9848024
16351,Main View Lane Northeast,98019,47.7473496,-121.9846812
16328,Main View Lane Northeast,98019,47.7469406,-121.9847335
16326,Main View Lane Northeast,98019,47.7468436,-121.9847494
16318,Main View Lane Northeast,98019,47.7467516,-121.9847491
16312,Main View Lane Northeast,98019,47.7466654,-121.9847729
16308,Main View Lane Northeast,98019,47.7465804,-121.9847738
16302,Main View Lane Northeast,98019,47.7464965,-121.9848114
16125,1st Avenue Northeast,98019,47.7453290,-121.9847803
16121,1st Avenue Northeast,98019,47.7452471,-121.9847769
16117,1st Avenue Northeast,98019,47.7451655,-121.9847819
16113,1st Avenue Northeast,98019,47.7450822,-121.9847427
16109,1st Avenue Northeast,98019,47.7450002,-121.9847494
16107,1st Avenue Northeast,98019,47.7448971,-121.9847370
16103,1st Avenue Northeast,98019,47.7447650,-121.9847597
26418,Northeast Anderson Street,98019,47.7456561,-121.9850747
26422,Northeast Anderson Street,98019,47.7456263,-121.9848745
26430,Northeast Anderson Street,98019,47.7456184,-121.9847258
16205,Main View Lane Northeast,98019,47.7455362,-121.9851656
16133,Main View Lane Northeast,98019,47.7454257,-121.9851491
16129,Main View Lane Northeast,98019,47.7453175,-121.9851631
16123,Main View Lane Northeast,98019,47.7452138,-121.9851730
16119,Main View Lane Northeast,98019,47.7451114,-121.9851910
16111,Main View Lane Northeast,98019,47.7450177,-121.9851798
16105,Main View Lane Northeast,98019,47.7448977,-121.9851642
16101,Main View Lane Northeast,98019,47.7447601,-121.9851877
16024,1st Avenue Northeast,98019,47.7445040,-121.9841468
16020,1st Avenue Northeast,98019,47.7444016,-121.9841505
16016,1st Avenue Northeast,98019,47.7442988,-121.9841509
16010,1st Avenue Northeast,98019,47.7441943,-121.9841634
16006,1st Avenue Northeast,98019,47.7440905,-121.9841697
16004,1st Avenue Northeast,98019,47.7439835,-121.9841865
27524,Northeast 150th Place,98019,47.7368448,-121.9700179
27516,Northeast 150th Place,98019,47.7369042,-121.9703196
15106,275th Court Northeast,98019,47.7371395,-121.9698170
15112,275th Court Northeast,98019,47.7373418,-121.9696842
15116,275th Court Northeast,98019,47.7376245,-121.9696421
15120,275th Court Northeast,98019,47.7376389,-121.9699305
15129,275th Court Northeast,98019,47.7375412,-121.9702627
16003,2nd Avenue Northeast,98019,47.7439895,-121.9835615
16007,2nd Avenue Northeast,98019,47.7440950,-121.9835910
16011,2nd Avenue Northeast,98019,47.7442000,-121.9835510
16015,2nd Avenue Northeast,98019,47.7443035,-121.9835760
16019,2nd Avenue Northeast,98019,47.7444060,-121.9835930
16023,2nd Avenue Northeast,98019,47.7445065,-121.9836110
16105,2nd Avenue Northeast,98019,47.7447780,-121.9835825
16109,2nd Avenue Northeast,98019,47.7449095,-121.9835995
16111,2nd Avenue Northeast,98019,47.7450055,-121.9836445
16115,2nd Avenue Northeast,98019,47.7450890,-121.9836470
16119,2nd Avenue Northeast,98019,47.7451700,-121.9836500
16123,2nd Avenue Northeast,98019,47.7452520,-121.9836525
16127,2nd Avenue Northeast,98019,47.7453350,-121.9836540
16128,1st Avenue Northeast,98019,47.7453385,-121.9841515
16124,1st Avenue Northeast,98019,47.7452505,-121.9841530
16118,1st Avenue Northeast,98019,47.7451675,-121.9841635
16114,1st Avenue Northeast,98019,47.7450855,-121.9841515
16108,1st Avenue Northeast,98019,47.7449055,-121.9841625
16110,1st Avenue Northeast,98019,47.7450045,-121.9841635
16104,1st Avenue Northeast,98019,47.7447770,-121.9841545
15712,1st Avenue Northeast,98019,47.7420715,-121.9842875
26512,Northeast Stella Street,98019,47.7410223,-121.9840913
27531,Northeast 149th Lane,98019,47.7355270,-121.9697945
27530,Northeast 148th Lane,98019,47.7352930,-121.9697695
27516,Northeast 148th Lane,98019,47.7352485,-121.9702445
27515,Northeast 149th Lane,98019,47.7355610,-121.9702874
14831,275th Place Northeast,98019,47.7355225,-121.9709015
14805,275th Place Northeast,98019,47.7351605,-121.9709303
27517,Northeast 148th Lane,98019,47.7348688,-121.9702545
27529,Northeast 148th Lane,98019,47.7348248,-121.9697316
27524,Northeast 147th Lane,98019,47.7345750,-121.9697265
27518,Northeast 147th Lane,98019,47.7345418,-121.9702210
14715,275th Place Northeast,98019,47.7347494,-121.9709190
27523,Northeast 147th Lane,98019,47.7341551,-121.9697118
27519,Northeast 147th Lane,98019,47.7341680,-121.9702560
26532,Northeast Anderson Street,98019,47.7456010,-121.9834300
26528,Northeast Anderson Street,98019,47.7456000,-121.9835655
26524,Northeast Anderson Street,98019,47.7456000,-121.9837025
26520,Northeast Anderson Street,98019,47.7456055,-121.9838365
26514,Northeast Anderson Street,98019,47.7456065,-121.9839680
26510,Northeast Anderson Street,98019,47.7456055,-121.9841020
26504,Northeast Anderson Street,98019,47.7456055,-121.9842360
26525,Northeast Allen Court,98019,47.7458765,-121.9836795
26515,Northeast Allen Court,98019,47.7458455,-121.9841700
26606,Northeast Anderson Street,98019,47.7455730,-121.9828800
26602,Northeast Anderson Street,98019,47.7455920,-121.9831700
26524,Northeast Allen Court,98019,47.7463050,-121.9835845
26514,Northeast Allen Court,98019,47.7463295,-121.9841460
26525,Northeast Cherry Valley Road,98019,47.7466355,-121.9836404
16310,1st Avenue Northeast,98019,47.7465194,-121.9839869
26307,Northeast Kennedy Drive,98019,47.7351593,-121.9868396
26731,Northeast Comegys Street,98019,47.7327760,-121.9804053
26723,Northeast Comegys Street,98019,47.7327502,-121.9806691
26717,Northeast Comegys Street,98019,47.7327637,-121.9809470
26711,Northeast Comegys Street,98019,47.7327642,-121.9812629
26703,Northeast Comegys Street,98019,47.7327827,-121.9815358
26625,Northeast Comegys Street,98019,47.7327698,-121.9818352
26619,Northeast Comegys Street,98019,47.7326635,-121.9821115
26732,Northeast Comegys Street,98019,47.7331971,-121.9804185
26724,Northeast Comegys Street,98019,47.7331836,-121.9806771
26718,Northeast Comegys Street,98019,47.7331657,-121.9809748
26712,Northeast Comegys Street,98019,47.7331730,-121.9812590
26704,Northeast Comegys Street,98019,47.7331787,-121.9815425
26626,Northeast Comegys Street,98019,47.7331745,-121.9818582
26620,Northeast Comegys Street,98019,47.7331878,-121.9821246
26614,Northeast Comegys Street,98019,47.7331924,-121.9823880
26733,Northeast Miller Street,98019,47.7336800,-121.9804345
26725,Northeast Miller Street,98019,47.7336936,-121.9806918
26719,Northeast Miller Street,98019,47.7336893,-121.9809901
26713,Northeast Miller Street,98019,47.7336826,-121.9812615
26705,Northeast Miller Street,98019,47.7336799,-121.9815574
26627,Northeast Miller Street,98019,47.7336842,-121.9818628
26621,Northeast Miller Street,98019,47.7336978,-121.9821318
26615,Northeast Miller Street,98019,47.7336790,-121.9824129
26613,Northeast Comegys Street,98019,47.7327825,-121.9823870
26607,Northeast Comegys Street,98019,47.7326877,-121.9826804
14601,2nd Place Northeast,98019,47.7329548,-121.9830022
14611,2nd Place Northeast,98019,47.7331984,-121.9830084
14617,2nd Place Northeast,98019,47.7334762,-121.9830221
14625,2nd Place Northeast,98019,47.7337111,-121.9830055
14633,2nd Place Northeast,98019,47.7339097,-121.9830122
26604,Northeast Miller Street,98019,47.7342331,-121.9830755
26610,Northeast Miller Street,98019,47.7341350,-121.9827224
26616,Northeast Miller Street,98019,47.7341155,-121.9824587
26622,Northeast Miller Street,98019,47.7340957,-121.9821652
26628,Northeast Miller Street,98019,47.7340869,-121.9818801
26706,Northeast Miller Street,98019,47.7340830,-121.9816023
26714,Northeast Miller Street,98019,47.7340981,-121.9812959
26720,Northeast Miller Street,98019,47.7341024,-121.9809973
26726,Northeast Miller Street,98019,47.7340938,-121.9807191
26734,Northeast Miller Street,98019,47.7340887,-121.9804491
26519,Northeast 146th Place,98019,47.7328691,-121.9836641
26513,Northeast 146th Place,98019,47.7329142,-121.9839610
26510,Northeast 145th Street,98019,47.7326589,-121.9838898
14516,265th Place Northeast,98019,47.7328913,-121.9843795
14504,265th Place Northeast,98019,47.7326896,-121.9844595
26536,Northeast 146th Place,98019,47.7333208,-121.9836474
26534,Northeast 146th Place,98019,47.7332816,-121.9839182
26528,Northeast 146th Place,98019,47.7332971,-121.9841913
26522,Northeast 146th Place,98019,47.7332935,-121.9844485
26518,Northeast 146th Place,98019,47.7333459,-121.9848042
14523,265th Place Northeast,98019,47.7331627,-121.9848473
14521,265th Place Northeast,98019,47.7329913,-121.9848547
14802,Dougherty Place Northeast,98019,47.7344605,-121.9805972
14801,Dougherty Place Northeast,98019,47.7344701,-121.9811261
14814,Dougherty Place Northeast,98019,47.7347968,-121.9806296
14830,Dougherty Place Northeast,98019,47.7350432,-121.9806362
14815,Dougherty Place Northeast,98019,47.7347932,-121.9811607
14831,Dougherty Place Northeast,98019,47.7350473,-121.9811605
26627,Northeast Kennedy Drive,98019,47.7345958,-121.9815076
26625,Northeast Kennedy Drive,98019,47.7345168,-121.9820121
26631,Northeast Kennedy Drive,98019,47.7349366,-121.9817974
26621,Northeast Kennedy Drive,98019,47.7349642,-121.9823359
14832,Kennedy Place Northeast,98019,47.7350625,-121.9828358
14816,Kennedy Place Northeast,98019,47.7348725,-121.9827097
14802,Kennedy Place Northeast,98019,47.7345935,-121.9827495
14800,Kennedy Place Northeast,98019,47.7345036,-121.9830709
14801,Kennedy Place Northeast,98019,47.7346218,-121.9834067
14817,Kennedy Place Northeast,98019,47.7348347,-121.9834082
26529,Northeast Kennedy Drive,98019,47.7350941,-121.9834013
26511,Northeast Kennedy Drive,98019,47.7348948,-121.9839772
26509,Northeast Kennedy Drive,98019,47.7351296,-121.9838945
26505,Northeast Kennedy Drive,98019,47.7351264,-121.9841139
14810,265th Court Northeast,98019,47.7344766,-121.9838099
14825,265th Court Northeast,98019,47.7346972,-121.9845883
26431,Northeast Kennedy Drive,98019,47.7351075,-121.9845880
14804,1st Avenue Northeast,98019,47.7344226,-121.9849666
14832,1st Avenue Northeast,98019,47.7351623,-121.9849871
14828,1st Avenue Northeast,98019,47.7350024,-121.9849842
14822,1st Avenue Northeast,98019,47.7348875,-121.9849792
14816,1st Avenue Northeast,98019,47.7347114,-121.9849725
14810,1st Avenue Northeast,98019,47.7345969,-121.9849728
14831,1st Avenue Northeast,98019,47.7351521,-121.9854791
14829,1st Avenue Northeast,98019,47.7351562,-121.9856741
14827,1st Avenue Northeast,98019,47.7351383,-121.9858864
14809,1st Avenue Northeast,98019,47.7347048,-121.9858751
14821,1st Avenue Northeast,98019,47.7348853,-121.9856305
14815,1st Avenue Northeast,98019,47.7347127,-121.9854653
14811,1st Avenue Northeast,98019,47.7347175,-121.9856272
14819,1st Avenue Northeast,98019,47.7348917,-121.9854692
14823,1st Avenue Northeast,98019,47.7349373,-121.9858823
14803,1st Avenue Northeast,98019,47.7344510,-121.9856551
14801,1st Avenue Northeast,98019,47.7344474,-121.9854339
14805,1st Avenue Northeast,98019,47.7345024,-121.9858710
14707,1st Lane Northeast,98019,47.7342180,-121.9861400
14715,1st Lane Northeast,98019,47.7342060,-121.9858294
14721,1st Lane Northeast,98019,47.7341926,-121.9854767
14723,1st Lane Northeast,98019,47.7338838,-121.9854586
14716,1st Lane Northeast,98019,47.7337711,-121.9858134
14624,1st Lane Northeast,98019,47.7337935,-121.9861316
14608,1st Lane Northeast,98019,47.7335529,-121.9861253
14530,1st Lane Northeast,98019,47.7332568,-121.9861030
14512,1st Lane Northeast,98019,47.7331959,-121.9857870
14511,1st Lane Northeast,98019,47.7327351,-121.9857713
26318,Northeast 145th Street,98019,47.7326484,-121.9862475
14519,1st Lane Northeast,98019,47.7329214,-121.9861778
14722,1st Lane Northeast,98019,47.7335217,-121.9855393
14506,1st Lane Northeast,98019,47.7332099,-121.9854395
14505,1st Lane Northeast,98019,47.7327574,-121.9854185
15920,2nd Avenue Northeast,98019,47.7436460,-121.9829900
15910,2nd Avenue Northeast,98019,47.7433600,-121.9828880
26624,Northeast Virginia Street,98019,47.7432815,-121.9824925
26638,Northeast Virginia Street,98019,47.7432722,-121.9821423
15929,Broadway Avenue Northeast,98019,47.7436235,-121.9822030
26615,Northeast Bird Street,98019,47.7435990,-121.9825255
15825,3rd Avenue Northeast,98019,47.7428830,-121.9807495
26721,Northeast Virginia Street,98019,47.7429535,-121.9809910
26715,Northeast Virginia Street,98019,47.7428655,-121.9812605
26711,Northeast Virginia Street,98019,47.7428695,-121.9815390
26740,Northeast Stewart Street,98019,47.7425270,-121.9807540
26720,Northeast Stewart Street,98019,47.7425860,-121.9810765
26712,Northeast Stewart Street,98019,47.7425640,-121.9814550
26735,Northeast Bird Street,98019,47.7436405,-121.9810895
15925,3rd Avenue Northeast,98019,47.7436240,-121.9807920
15930,Broadway Avenue Northeast,98019,47.7435274,-121.9815605
26708,Northeast Virginia Street,98019,47.7433084,-121.9816228
26714,Northeast Virginia Street,98019,47.7433286,-121.9812547
26740,Northeast Virginia Street,98019,47.7433305,-121.9807853
16001,3rd Avenue Northeast,98019,47.7440612,-121.9807769
26726,Northeast Bird Street,98019,47.7440455,-121.9810990
26720,Northeast Bird Street,98019,47.7440250,-121.9813955
26714,Northeast Bird Street,98019,47.7440680,-121.9816725
16004,2nd Place Northeast,98019,47.7440270,-121.9820365
16006,2nd Place Northeast,98019,47.7441440,-121.9820825
16012,2nd Place Northeast,98019,47.7443205,-121.9820460
16016,2nd Place Northeast,98019,47.7444760,-121.9820935
26741,Northeast Beadonhall Street,98019,47.7444090,-121.9808295
26735,Northeast Beadonhall Street,98019,47.7443410,-121.9810905
26731,Northeast Beadonhall Street,98019,47.7443270,-121.9813810
26727,Northeast Beadonhall Street,98019,47.7444465,-121.9816345
26725,Northeast Beadonhall Street,98019,47.7446300,-121.9816935
16020,2nd Place Northeast,98019,47.7446370,-121.9820900
16102,2nd Place Northeast,98019,47.7448120,-121.9821010
26742,Northeast Beadonhall Street,98019,47.7447740,-121.9809140
16117,3rd Avenue Northeast,98019,47.7449660,-121.9808590
26736,Northeast Beadonhall Street,98019,47.7448246,-121.9812472
26730,Northeast Beadonhall Street,98019,47.7448260,-121.9815750
26737,Northeast Anderson Street,98019,47.7451560,-121.9809230
26735,Northeast Anderson Street,98019,47.7450640,-121.9812755
26731,Northeast Anderson Street,98019,47.7451050,-121.9815750
26724,Northeast Anderson Street,98019,47.7452810,-121.9817205
16106,2nd Place Northeast,98019,47.7449875,-121.9820705
16116,2nd Place Northeast,98019,47.7451405,-121.9820700
16120,2nd Place Northeast,98019,47.7453190,-121.9821185
26726,Northeast Anderson Street,98019,47.7455115,-121.9817295
26730,Northeast Anderson Street,98019,47.7456035,-121.9814600
26736,Northeast Anderson Street,98019,47.7456055,-121.9811410
26742,Northeast Anderson Street,98019,47.7455220,-121.9808810
26610,Northeast Anderson Street,98019,47.7455710,-121.9825005
16112,2nd Avenue Northeast,98019,47.7451250,-121.9831030
16109,2nd Place Northeast,98019,47.7451265,-121.9825885
16108,2nd Avenue Northeast,98019,47.7449615,-121.9830650
16107,2nd Place Northeast,98019,47.7449655,-121.9825960
16104,2nd Avenue Northeast,98019,47.7447955,-121.9830610
16103,2nd Place Northeast,98019,47.7448040,-121.9826080
16019,2nd Place Northeast,98019,47.7446390,-121.9825705
16018,2nd Avenue Northeast,98019,47.7446405,-121.9830630
16014,2nd Avenue Northeast,98019,47.7444720,-121.9830505
16015,2nd Place Northeast,98019,47.7444780,-121.9826115
16011,2nd Place Northeast,98019,47.7443165,-121.9825625
16008,2nd Avenue Northeast,98019,47.7443045,-121.9830545
16002,2nd Avenue Northeast,98019,47.7441420,-121.9830505
16007,2nd Place Northeast,98019,47.7441550,-121.9825750
16003,2nd Place Northeast,98019,47.7440275,-121.9826000
16000,2nd Avenue Northeast,98019,47.7440260,-121.9830170
27601,Northeast 153rd Lane,98019,47.7378581,-121.9688389
27617,Northeast 153rd Lane,98019,47.7378620,-121.9686550
27623,Northeast 153rd Lane,98019,47.7378578,-121.9684708
27627,Northeast 153rd Lane,98019,47.7378556,-121.9682760
27633,Northeast 153rd Lane,98019,47.7378273,-121.9680737
27639,Northeast 153rd Lane,98019,47.7377831,-121.9678658
15201,277th Place Northeast,98019,47.7375931,-121.9678957
15129,277th Place Northeast,98019,47.7374754,-121.9678943
15125,277th Place Northeast,98019,47.7373445,-121.9679073
27634,Northeast 151st Place,98019,47.7372442,-121.9682713
27628,Northeast 151st Place,98019,47.7372579,-121.9684529
27622,Northeast 151st Place,98019,47.7372785,-121.9686390
27604,Northeast 151st Place,98019,47.7373028,-121.9688202
15124,276th Place Northeast,98019,47.7375912,-121.9688092
15126,276th Place Northeast,98019,47.7375873,-121.9686050
15128,276th Place Northeast,98019,47.7375462,-121.9684008
15130,276th Place Northeast,98019,47.7375415,-121.9682005
27621,Northeast 151st Place,98019,47.7369135,-121.9687960
27625,Northeast 151st Place,98019,47.7368980,-121.9686230
27629,Northeast 151st Place,98019,47.7368970,-121.9684230
27637,Northeast 151st Place,98019,47.7368640,-121.9682180
27707,Northeast 151st Place,98019,47.7368560,-121.9680155
27713,Northeast 151st Place,98019,47.7368375,-121.9678385
27620,Northeast 150th Place,98019,47.7367264,-121.9688052
27624,Northeast 150th Place,98019,47.7366950,-121.9686250
27630,Northeast 150th Place,98019,47.7366930,-121.9684260
27636,Northeast 150th Place,98019,47.7366645,-121.9682180
27706,Northeast 150th Place,98019,47.7366555,-121.9680169
27710,Northeast 150th Place,98019,47.7366420,-121.9678385
26932,Northeast Bird Street,98019,47.7440050,-121.9781770
26920,Northeast Bird Street,98019,47.7440075,-121.9785390
26908,Northeast Bird Street,98019,47.7440095,-121.9787965
26828,Northeast Bird Street,98019,47.7440545,-121.9790925
26818,Northeast Bird Street,98019,47.7440380,-121.9793825
26812,Northeast Bird Street,98019,47.7440320,-121.9796685
26806,Northeast Bird Street,98019,47.7440170,-121.9799395
26800,Northeast Bird Street,98019,47.7440265,-121.9802105
16028,3rd Avenue Northeast,98019,47.7443355,-121.9802170
26807,Northeast Beadonhall Street,98019,47.7443480,-121.9799540
26813,Northeast Beadonhall Street,98019,47.7443645,-121.9797045
26819,Northeast Beadonhall Street,98019,47.7443260,-121.9794240
26825,Northeast Beadonhall Street,98019,47.7443105,-121.9790525
26831,Northeast Beadonhall Street,98019,47.7443655,-121.9786575
16015,4th Avenue Northeast,98019,47.7442180,-121.9781165
26837,Northeast Beadonhall Street,98019,47.7445725,-121.9786655
26830,Northeast Beadonhall Street,98019,47.7447650,-121.9788650
26824,Northeast Beadonhall Street,98019,47.7447445,-121.9791655
26818,Northeast Beadonhall Street,98019,47.7447535,-121.9794345
26812,Northeast Beadonhall Street,98019,47.7447470,-121.9797165
26806,Northeast Beadonhall Street,98019,47.7447380,-121.9799900
16112,3rd Avenue Northeast,98019,47.7448265,-121.9802615
26801,Northeast Anderson Street,98019,47.7451480,-121.9802805
26807,Northeast Anderson Street,98019,47.7451280,-121.9800120
26813,Northeast Anderson Street,98019,47.7450795,-121.9797300
26819,Northeast Anderson Street,98019,47.7450785,-121.9794700
26825,Northeast Anderson Street,98019,47.7450660,-121.9791185
26831,Northeast Anderson Street,98019,47.7452240,-121.9789510
26830,Northeast Anderson Street,98019,47.7454380,-121.9788820
26824,Northeast Anderson Street,98019,47.7455050,-121.9792200
26818,Northeast Anderson Street,98019,47.7455290,-121.9795445
26806,Northeast Anderson Street,98019,47.7455220,-121.9799205
26800,Northeast Anderson Street,98019,47.7455205,-121.9802195
16314,1st Avenue Northeast,98019,47.7467175,-121.9839703
16316,1st Avenue Northeast,98019,47.7467219,-121.9842020
16306,1st Avenue Northeast,98019,47.7465130,-121.9842225
14703,275th Place Northeast,98019,47.7343520,-121.9709035
14611,275th Place Northeast,98019,47.7339970,-121.9708960
14533,275th Place Northeast,98019,47.7335715,-121.9708885
27505,Northeast 145th Lane,98019,47.7327490,-121.9708895
27517,Northeast 145th Lane,98019,47.7327545,-121.9704685
27521,Northeast 145th Lane,98019,47.7327160,-121.9700565
27520,Northeast 145th Lane,98019,47.7331150,-121.9702358
27521,Northeast 146th Lane,98019,47.7334530,-121.9703190
27522,Northeast 146th Lane,98019,47.7338235,-121.9702355
27528,Northeast 146th Lane,98019,47.7338730,-121.9697844
27527,Northeast 146th Lane,98019,47.7333995,-121.9698374
27526,Northeast 145th Lane,98019,47.7331530,-121.9697455
27610,Northeast 145th Place,98019,47.7331202,-121.9693329
27616,Northeast 145th Place,98019,47.7331358,-121.9690389
27525,Northeast 145th Lane,98019,47.7327105,-121.9696685
27611,Northeast 145th Place,98019,47.7327418,-121.9691969
27617,Northeast 145th Place,98019,47.7325142,-121.9691911
27629,Northeast 145th Place,98019,47.7325715,-121.9687611
27701,Northeast 145th Place,98019,47.7326105,-121.9684325
27709,Northeast 145th Place,98019,47.7325930,-121.9681175
27715,Northeast 145th Place,98019,47.7325490,-121.9678045
27723,Northeast 145th Place,98019,47.7325140,-121.9674935
27731,Northeast 145th Place,98019,47.7324845,-121.9672070
27726,Northeast 144th Street,98019,47.7320255,-121.9672430
27710,Northeast 144th Street,98019,47.7320455,-121.9675697
27704,Northeast 144th Street,98019,47.7320433,-121.9679144
27632,Northeast 144th Street,98019,47.7320899,-121.9683467
27620,Northeast 144th Street,98019,47.7321105,-121.9686680
27606,Northeast 144th Street,98019,47.7321534,-121.9691050
27530,Northeast 144th Street,98019,47.7321455,-121.9694035
27520,Northeast 144th Street,98019,47.7321650,-121.9698185
14340,275th Avenue Northeast,98019,47.7316625,-121.9700630
14332,275th Avenue Northeast,98019,47.7313620,-121.9701325
14326,275th Avenue Northeast,98019,47.7310360,-121.9701600
14318,275th Avenue Northeast,98019,47.7307065,-121.9701610
14310,275th Avenue Northeast,98019,47.7304095,-121.9701545
14304,275th Avenue Northeast,98019,47.7300990,-121.9701480
27515,Northeast 143rd Street,98019,47.7296110,-121.9701723
14220,275th Avenue Northeast,98019,47.7293555,-121.9701535
27505,Northeast 142nd Place,98019,47.7287980,-121.9701100
27519,Northeast 142nd Place,98019,47.7288005,-121.9697535
27506,Northeast 141st Court,98019,47.7284990,-121.9700910
27518,Northeast 141st Court,98019,47.7284839,-121.9695840
27524,Northeast 141st Court,98019,47.7284451,-121.9690634
27528,Northeast 141st Court,98019,47.7284257,-121.9686561
27615,Northeast 142nd Place,98019,47.7287435,-121.9688640
27625,Northeast 142nd Place,98019,47.7287395,-121.9685085
27711,Northeast 142nd Place,98019,47.7287211,-121.9681130
27723,Northeast 142nd Place,98019,47.7286915,-121.9677233
26525,Northeast Cherry Valley Road,98019,47.7468740,-121.9837920
26525,Northeast Cherry Valley Road,98019,47.7470145,-121.9838055
26525,Northeast Cherry Valley Road,98019,47.7470593,-121.9837808
26525,Northeast Cherry Valley Road,98019,47.7470855,-121.9835685
26525,Northeast Cherry Valley Road,98019,47.7472270,-121.9838180
26525,Northeast Cherry Valley Road,98019,47.7469045,-121.9842120
26525,Northeast Cherry Valley Road,98019,47.7471544,-121.9842419
26525,Northeast Cherry Valley Road,98019,47.7472610,-121.9842290
26525,Northeast Cherry Valley Road,98019,47.7473982,-121.9842318
26525,Northeast Cherry Valley Road,98019,47.7470584,-121.9842244
26525,Northeast Cherry Valley Road,98019,47.7469641,-121.9842509
14434,Main Street Northeast,98019,47.7320302,-121.9869670
26519,Northeast 145th Street,98019,47.7320832,-121.9839060
14432,267th Court Northeast,98019,47.7322924,-121.9814588
14426,267th Court Northeast,98019,47.7321496,-121.9814285
26714,Northeast 144th Court,98019,47.7321878,-121.9811337
26718,Northeast 144th Court,98019,47.7322469,-121.9809086
26720,Northeast 144th Court,98019,47.7322566,-121.9806753
26728,Northeast 144th Court,98019,47.7322427,-121.9804030
26725,Northeast 144th Court,98019,47.7320363,-121.9804782
26721,Northeast 144th Court,98019,47.7319014,-121.9804164
26719,Northeast 144th Court,98019,47.7318032,-121.9805863
26717,Northeast 144th Court,98019,47.7317648,-121.9808625
26711,Northeast 144th Court,98019,47.7318208,-121.9810939
26707,Northeast 144th Court,98019,47.7318402,-121.9813061
26705,Northeast 144th Court,98019,47.7318224,-121.9815247
14412,267th Court Northeast,98019,47.7316117,-121.9814867
14408,267th Court Northeast,98019,47.7314230,-121.9816034
14404,267th Court Northeast,98019,47.7314406,-121.9818687
14405,267th Court Northeast,98019,47.7314291,-121.9821580
14411,267th Court Northeast,98019,47.7315913,-121.9821627
14415,267th Court Northeast,98019,47.7317598,-121.9821482
14419,267th Court Northeast,98019,47.7319088,-121.9820546
14421,267th Court Northeast,98019,47.7320513,-121.9820103
26605,Northeast 145th Street,98019,47.7317281,-121.9827049
26615,Northeast 145th Street,98019,47.7322480,-121.9825479
15702,4th Avenue Northeast,98019,47.7417960,-121.9773990
16001,271st Place Northeast,98019,47.7440405,-121.9758605
16000,271st Place Northeast,98019,47.7440221,-121.9756129
16004,271st Place Northeast,98019,47.7440935,-121.9753525
16008,271st Place Northeast,98019,47.7443005,-121.9752950
16012,271st Place Northeast,98019,47.7444821,-121.9753434
16018,271st Place Northeast,98019,47.7446790,-121.9754430
16024,271st Place Northeast,98019,47.7448400,-121.9755840
16032,271st Place Northeast,98019,47.7449950,-121.9757865
16110,271st Place Northeast,98019,47.7451467,-121.9759740
16120,271st Place Northeast,98019,47.7453050,-121.9761565
16112,270th Place Northeast,98019,47.7450950,-121.9766490
16102,270th Place Northeast,98019,47.7448629,-121.9768095
16028,270th Place Northeast,98019,47.7446840,-121.9767355
16031,271st Place Northeast,98019,47.7448687,-121.9764082
16016,270th Place Northeast,98019,47.7442845,-121.9766575
16022,270th Place Northeast,98019,47.7445067,-121.9766367
16023,271st Place Northeast,98019,47.7446795,-121.9761885
16015,271st Place Northeast,98019,47.7445115,-121.9760500
16009,271st Place Northeast,98019,47.7443000,-121.9761235
27131,Northeast Rupard Road,98019,47.7464155,-121.9753205
27129,Northeast Rupard Road,98019,47.7465790,-121.9753540
27125,Northeast Rupard Road,98019,47.7467620,-121.9754465
27119,Northeast Rupard Road,98019,47.7468830,-121.9755675
27115,Northeast Rupard Road,98019,47.7470435,-121.9757270
27109,Northeast Rupard Road,98019,47.7470740,-121.9760285
16406,270th Place Northeast,98019,47.7469620,-121.9771980
16405,270th Place Northeast,98019,47.7469530,-121.9778850
16325,270th Place Northeast,98019,47.7467805,-121.9777985
16330,270th Place Northeast,98019,47.7467935,-121.9771320
16322,270th Place Northeast,98019,47.7466490,-121.9772570
16317,270th Place Northeast,98019,47.7465860,-121.9778085
16318,270th Place Northeast,98019,47.7465765,-121.9769275
16308,270th Place Northeast,98019,47.7463830,-121.9772795
16307,270th Place Northeast,98019,47.7464265,-121.9778205
16301,270th Place Northeast,98019,47.7462370,-121.9778455
16224,270th Place Northeast,98019,47.7461910,-121.9770080
16300,270th Place Northeast,98019,47.7461941,-121.9772272
16225,270th Place Northeast,98019,47.7460635,-121.9778330
16215,270th Place Northeast,98019,47.7458565,-121.9778065
16211,270th Place Northeast,98019,47.7458290,-121.9774905
16209,270th Place Northeast,98019,47.7458290,-121.9772275
16205,270th Place Northeast,98019,47.7458030,-121.9769880
16131,270th Place Northeast,98019,47.7455815,-121.9769230
16135,4th Avenue Northeast,98019,47.7455165,-121.9779315
16125,4th Avenue Northeast,98019,47.7450780,-121.9781110
16115,4th Avenue Northeast,98019,47.7449048,-121.9780755
16011,270th Place Northeast,98019,47.7443515,-121.9772275
16021,270th Place Northeast,98019,47.7445690,-121.9772870
16033,270th Place Northeast,98019,47.7447260,-121.9773795
16103,270th Place Northeast,98019,47.7449020,-121.9774460
16109,270th Place Northeast,98019,47.7450540,-121.9774600
16115,270th Place Northeast,98019,47.7452385,-121.9772110
16125,270th Place Northeast,98019,47.7453970,-121.9770460
16130,270th Place Northeast,98019,47.7455575,-121.9763505
16210,270th Place Northeast,98019,47.7457570,-121.9759735
16212,270th Place Northeast,98019,47.7458885,-121.9761685
16214,270th Place Northeast,98019,47.7459810,-121.9763715
16218,270th Place Northeast,98019,47.7461100,-121.9765120
16220,270th Place Northeast,98019,47.7462965,-121.9766020
16314,270th Place Northeast,98019,47.7464410,-121.9767490
16128,271st Place Northeast,98019,47.7455930,-121.9759405
26220,Northeast Stella Street,98019,47.7428915,-121.9866565
26220,Northeast Stella Street,98019,47.7417965,-121.9876680
26220,Northeast Stella Street,98019,47.7404648,-121.9879098
14212,278th Avenue Northeast,98019,47.7287635,-121.9670645
14230,278th Avenue Northeast,98019,47.7290575,-121.9670620
27720,Northeast 142nd Place,98019,47.7291380,-121.9677510
27710,Northeast 142nd Place,98019,47.7291860,-121.9680685
27626,Northeast 142nd Place,98019,47.7291890,-121.9684850
27616,Northeast 142nd Place,98019,47.7292605,-121.9689385
27606,Northeast 142nd Place,98019,47.7293055,-121.9692690
27615,Northeast 143rd Street,98019,47.7295718,-121.9688114
27703,Northeast 143rd Street,98019,47.7295210,-121.9684380
27719,Northeast 143rd Street,98019,47.7295340,-121.9680394
14237,278th Avenue Northeast,98019,47.7295060,-121.9677225
27722,Northeast 143rd Street,98019,47.7299323,-121.9678475
27706,Northeast 143rd Street,98019,47.7300010,-121.9682425
27620,Northeast 143rd Street,98019,47.7300070,-121.9687245
27608,Northeast 143rd Street,98019,47.7300380,-121.9691020
27532,Northeast 143rd Street,98019,47.7300925,-121.9695750
27601,Northeast 143rd Place,98019,47.7304045,-121.9691535
14303,276th Avenue Northeast,98019,47.7305354,-121.9694817
14311,276th Avenue Northeast,98019,47.7308082,-121.9695160
14319,276th Avenue Northeast,98019,47.7311345,-121.9695134
14325,276th Avenue Northeast,98019,47.7314010,-121.9696170
14331,276th Avenue Northeast,98019,47.7316710,-121.9695065
14328,276th Avenue Northeast,98019,47.7316325,-121.9689340
14331,277th Place Northeast,98019,47.7316155,-121.9683664
14328,277th Place Northeast,98019,47.7316145,-121.9677800
14324,277th Place Northeast,98019,47.7312195,-121.9677530
14329,278th Avenue Northeast,98019,47.7311595,-121.9672710
14335,278th Avenue Northeast,98019,47.7315065,-121.9671630
14334,278th Avenue Northeast,98019,47.7314315,-121.9665460
14331,279th Place Northeast,98019,47.7313172,-121.9661659
14319,279th Place Northeast,98019,47.7310519,-121.9662364
14311,279th Place Northeast,98019,47.7307454,-121.9660545
14307,279th Place Northeast,98019,47.7306479,-121.9657126
14301,279th Place Northeast,98019,47.7306865,-121.9651880
14317,280th Avenue Northeast,98019,47.7309650,-121.9647075
14329,280th Avenue Northeast,98019,47.7312860,-121.9646635
14312,279th Place Northeast,98019,47.7310875,-121.9652660
27905,Northeast 144th Street,98019,47.7313725,-121.9654495
14328,278th Avenue Northeast,98019,47.7310136,-121.9666773
14322,278th Avenue Northeast,98019,47.7306849,-121.9668068
14318,278th Avenue Northeast,98019,47.7304406,-121.9670368
14310,278th Avenue Northeast,98019,47.7301265,-121.9670865
27721,Northeast 143rd Place,98019,47.7303644,-121.9677849
27707,Northeast 143rd Place,98019,47.7303649,-121.9682483
27621,Northeast 143rd Place,98019,47.7304014,-121.9686605
27605,Northeast 143rd Street,98019,47.7296391,-121.9692193
27531,Northeast 143rd Street,98019,47.7296400,-121.9696795
27520,Northeast 142nd Place,98019,47.7292801,-121.9697157
27605,Northeast 142nd Place,98019,47.7288306,-121.9693498
26670,Northeast 143rd Place,98019,47.7301731,-121.9806282
14340,266th Circle Northeast,98019,47.7309952,-121.9819962
14330,266th Circle Northeast,98019,47.7307208,-121.9820049
14324,266th Circle Northeast,98019,47.7303760,-121.9819787
14304,266th Place Northeast,98019,47.7303710,-121.9827785
14334,266th Place Northeast,98019,47.7307943,-121.9827709
14322,266th Circle Northeast,98019,47.7303787,-121.9821816
14318,266th Circle Northeast,98019,47.7303698,-121.9825946
14307,266th Place Northeast,98019,47.7303995,-121.9832335
14335,266th Place Northeast,98019,47.7308256,-121.9832395
14320,266th Circle Northeast,98019,47.7303668,-121.9823813
14326,266th Circle Northeast,98019,47.7305828,-121.9819703
14336,266th Circle Northeast,98019,47.7308588,-121.9819911
14315,266th Place Northeast,98019,47.7305431,-121.9832423
14345,266th Place Northeast,98019,47.7309544,-121.9832490
14355,266th Place Northeast,98019,47.7312322,-121.9832671
14350,266th Circle Northeast,98019,47.7312180,-121.9826052
14337,266th Circle Northeast,98019,47.7309247,-121.9824690
14328,266th Place Northeast,98019,47.7306642,-121.9827632
14333,266th Circle Northeast,98019,47.7307916,-121.9824490
14301,266th Place Northeast,98019,47.7302698,-121.9832244
14329,266th Place Northeast,98019,47.7306800,-121.9832300
14353,266th Place Northeast,98019,47.7310921,-121.9832469
14352,266th Circle Northeast,98019,47.7312101,-121.9828092
14348,266th Circle Northeast,98019,47.7312182,-121.9824014
14338,266th Place Northeast,98019,47.7309261,-121.9827682
14327,266th Circle Northeast,98019,47.7306642,-121.9824669
14354,266th Circle Northeast,98019,47.7312218,-121.9830010
14346,266th Circle Northeast,98019,47.7312174,-121.9822058
14342,266th Circle Northeast,98019,47.7311986,-121.9819533
14301,3rd Circle Northeast,98019,47.7304783,-121.9804150
14323,3rd Circle Northeast,98019,47.7304734,-121.9812232
14307,3rd Circle Northeast,98019,47.7304746,-121.9805736
14311,3rd Circle Northeast,98019,47.7304605,-121.9807364
14315,3rd Circle Northeast,98019,47.7304528,-121.9808987
14319,3rd Circle Northeast,98019,47.7304758,-121.9810619
14375,3rd Circle Northeast,98019,47.7311739,-121.9803908
14351,3rd Circle Northeast,98019,47.7311739,-121.9815311
14367,3rd Circle Northeast,98019,47.7311728,-121.9807591
14359,3rd Circle Northeast,98019,47.7311730,-121.9811461
14371,3rd Circle Northeast,98019,47.7311677,-121.9805675
14363,3rd Circle Northeast,98019,47.7311701,-121.9809524
14355,3rd Circle Northeast,98019,47.7311701,-121.9813366
14347,3rd Circle Northeast,98019,47.7311726,-121.9817249
14327,3rd Circle Northeast,98019,47.7305476,-121.9816277
14331,3rd Circle Northeast,98019,47.7306567,-121.9816431
14335,3rd Circle Northeast,98019,47.7307672,-121.9816518
14339,3rd Circle Northeast,98019,47.7308769,-121.9816393
14343,3rd Circle Northeast,98019,47.7309855,-121.9816352
27805,Northeast 151st Street,98019,47.7361875,-121.9667885
27811,Northeast 151st Street,98019,47.7361710,-121.9666005
27817,Northeast 151st Street,98019,47.7361560,-121.9664005
27825,Northeast 151st Street,98019,47.7361485,-121.9662180
27831,Northeast 151st Street,98019,47.7361120,-121.9659920
27901,Northeast 151st Street,98019,47.7360686,-121.9658070
27907,Northeast 151st Street,98019,47.7360767,-121.9655985
27915,Northeast 151st Street,98019,47.7360519,-121.9653947
27921,Northeast 151st Street,98019,47.7360135,-121.9651845
27927,Northeast 151st Street,98019,47.7359970,-121.9649510
27933,Northeast 151st Street,98019,47.7360793,-121.9647734
15102,279th Place Northeast,98019,47.7362295,-121.9647505
15108,279th Place Northeast,98019,47.7363650,-121.9648120
15114,279th Place Northeast,98019,47.7365051,-121.9647955
15120,279th Place Northeast,98019,47.7366420,-121.9648360
15122,279th Place Northeast,98019,47.7367830,-121.9648302
15124,279th Place Northeast,98019,47.7369160,-121.9648240
15128,279th Place Northeast,98019,47.7370518,-121.9648064
15132,279th Place Northeast,98019,47.7371835,-121.9648310
15136,279th Place Northeast,98019,47.7373155,-121.9648268
15204,279th Place Northeast,98019,47.7374546,-121.9648210
15210,279th Place Northeast,98019,47.7375885,-121.9648475
15232,279th Place Northeast,98019,47.7377872,-121.9648351
15310,279th Place Northeast,98019,47.7380415,-121.9649095
15320,279th Place Northeast,98019,47.7382792,-121.9649159
15330,279th Place Northeast,98019,47.7385126,-121.9649281
15402,279th Place Northeast,98019,47.7387518,-121.9649412
15408,279th Place Northeast,98019,47.7389820,-121.9649129
15414,279th Place Northeast,98019,47.7392212,-121.9648139
15420,279th Place Northeast,98019,47.7394067,-121.9650918
15419,279th Place Northeast,98019,47.7393915,-121.9653763
15415,279th Place Northeast,98019,47.7392008,-121.9655646
27532,Northeast 141st Court,98019,47.7282281,-121.9684103
27533,Northeast 141st Court,98019,47.7279515,-121.9684735
27529,Northeast 141st Court,98019,47.7277390,-121.9686820
27534,Northeast 141st Place,98019,47.7275055,-121.9685555
27538,Northeast 141st Place,98019,47.7272450,-121.9683870
27535,Northeast 141st Place,98019,47.7270200,-121.9685740
27531,Northeast 141st Place,98019,47.7269865,-121.9689205
27527,Northeast 141st Place,98019,47.7271952,-121.9691816
27526,Northeast 141st Place,98019,47.7276269,-121.9692767
27520,Northeast 141st Place,98019,47.7276545,-121.9697705
27514,Northeast 141st Place,98019,47.7276505,-121.9701805
27525,Northeast 141st Court,98019,47.7280006,-121.9692263
27517,Northeast 141st Court,98019,47.7280815,-121.9696285
27511,Northeast 141st Court,98019,47.7280890,-121.9700485
27505,Northeast 141st Court,98019,47.7280740,-121.9703675
27502,Northeast 141st Place,98019,47.7276459,-121.9706497
27503,Northeast 141st Place,98019,47.7272299,-121.9706842
27507,Northeast 141st Place,98019,47.7272770,-121.9703460
27519,Northeast 141st Place,98019,47.7272695,-121.9699040
27523,Northeast 141st Place,98019,47.7272495,-121.9695280
27610,Northeast 140th Court,98019,47.7266705,-121.9691675
27626,Northeast 140th Court,98019,47.7265007,-121.9684756
27618,Northeast 140th Court,98019,47.7265759,-121.9687701
27604,Northeast 140th Court,98019,47.7263993,-121.9692253
27532,Northeast 140th Court,98019,47.7264255,-121.9696540
27520,Northeast 140th Court,98019,47.7263962,-121.9701611
27508,Northeast 140th Court,98019,47.7264074,-121.9706305
27515,Northeast 141st Place,98019,47.7268165,-121.9703020
14032,275th Avenue Northeast,98019,47.7267395,-121.9707345
27526,Northeast 140th Court,98019,47.7267985,-121.9696685
27525,Northeast 140th Court,98019,47.7260105,-121.9699955
27533,Northeast 140th Court,98019,47.7260145,-121.9696325
27517,Northeast 140th Court,98019,47.7260215,-121.9703535
27507,Northeast 140th Court,98019,47.7259939,-121.9707071
27505,Northeast 140th Place,98019,47.7251705,-121.9706995
27515,Northeast 140th Place,98019,47.7251910,-121.9703530
27521,Northeast 140th Place,98019,47.7252050,-121.9700140
27531,Northeast 140th Place,98019,47.7251960,-121.9696375
27607,Northeast 140th Place,98019,47.7252200,-121.9692570
27619,Northeast 140th Place,98019,47.7251595,-121.9688100
27627,Northeast 140th Place,98019,47.7250695,-121.9684230
27703,Northeast 140th Place,98019,47.7250025,-121.9677765
27726,Northeast Big Rock Road,98019,47.7249635,-121.9671385
14011,278th Place Northeast,98019,47.7249585,-121.9666615
14010,277th Place Northeast,98019,47.7252295,-121.9672280
14018,277th Place Northeast,98019,47.7254835,-121.9671995
14026,277th Place Northeast,98019,47.7257435,-121.9672885
14032,277th Place Northeast,98019,47.7260020,-121.9671905
14033,277th Place Northeast,98019,47.7261470,-121.9677395
14027,277th Place Northeast,98019,47.7258460,-121.9678940
27834,Northeast 154th Street,98019,47.7388948,-121.9654916
27828,Northeast 154th Street,98019,47.7388891,-121.9658022
27820,Northeast 154th Street,98019,47.7389010,-121.9661393
27812,Northeast 154th Street,98019,47.7388863,-121.9664759
27804,Northeast 154th Street,98019,47.7388974,-121.9667851
15408,278th Avenue Northeast,98019,47.7393506,-121.9660836
27803,Northeast 156th Street,98019,47.7399337,-121.9667513
27811,Northeast 156th Street,98019,47.7399514,-121.9663448
27819,Northeast 156th Street,98019,47.7399292,-121.9659312
27827,Northeast 156th Street,98019,47.7398990,-121.9655316
15511,Manion Way Northeast,98019,47.7397297,-121.9651609
14021,277th Place Northeast,98019,47.7255605,-121.9678840
27628,Northeast 140th Place,98019,47.7254820,-121.9683715
27624,Northeast 140th Place,98019,47.7257625,-121.9684125
27625,Northeast 140th Court,98019,47.7260672,-121.9685501
27633,Northeast 140th Court,98019,47.7262785,-121.9683425
27617,Northeast 140th Court,98019,47.7259926,-121.9689284
27605,Northeast 140th Court,98019,47.7260045,-121.9692735
27614,Northeast 140th Place,98019,47.7255495,-121.9688860
27606,Northeast 140th Place,98019,47.7255842,-121.9692584
27530,Northeast 140th Place,98019,47.7255825,-121.9696300
27522,Northeast 140th Place,98019,47.7255861,-121.9700090
14310,276th Avenue Northeast,98019,47.7309595,-121.9688340
14320,276th Avenue Northeast,98019,47.7312864,-121.9689201
14323,277th Place Northeast,98019,47.7313220,-121.9684300
14309,277th Place Northeast,98019,47.7311630,-121.9680675
27632,Northeast 143rd Place,98019,47.7308275,-121.9684070
27712,Northeast 143rd Place,98019,47.7308270,-121.9680354
27724,Northeast 143rd Place,98019,47.7307934,-121.9676774
27704,Northeast 145th Place,98019,47.7329825,-121.9681885
27712,Northeast 145th Place,98019,47.7329482,-121.9678789
27722,Northeast 145th Place,98019,47.7329685,-121.9675820
27732,Northeast 145th Place,98019,47.7329059,-121.9672855
14816,278th Avenue Northeast,98019,47.7345454,-121.9667165
14812,278th Avenue Northeast,98019,47.7344402,-121.9667191
14804,278th Avenue Northeast,98019,47.7342481,-121.9667377
14800,278th Avenue Northeast,98019,47.7341267,-121.9667389
27806,Northeast 147th Place,98019,47.7338965,-121.9667295
27810,Northeast 147th Place,98019,47.7338605,-121.9664915
27814,Northeast 147th Place,98019,47.7338570,-121.9662477
27902,Northeast 147th Place,98019,47.7338280,-121.9660205
27908,Northeast 147th Place,98019,47.7337943,-121.9657677
27916,Northeast 147th Place,98019,47.7337826,-121.9655248
27928,Northeast 147th Place,98019,47.7337455,-121.9653220
27930,Northeast 147th Place,98019,47.7336907,-121.9650853
28006,Northeast 147th Place,98019,47.7336048,-121.9648844
28014,Northeast 147th Place,98019,47.7335469,-121.9646652
28022,Northeast 147th Place,98019,47.7335405,-121.9643585
28030,Northeast 147th Place,98019,47.7335211,-121.9640027
28104,Northeast 147th Place,98019,47.7335075,-121.9636265
28112,Northeast 147th Place,98019,47.7335015,-121.9632590
28120,Northeast 147th Place,98019,47.7334580,-121.9629560
14720,282nd Avenue Northeast,98019,47.7332075,-121.9622930
28222,Northeast 147th Court,98019,47.7332461,-121.9616906
28230,Northeast 147th Court,98019,47.7332338,-121.9613274
28236,Northeast 147th Court,98019,47.7332529,-121.9609441
28306,Northeast 147th Court,98019,47.7332423,-121.9605372
28314,Northeast 147th Court,98019,47.7332109,-121.9601423
28320,Northeast 147th Court,98019,47.7331939,-121.9597739
28328,Northeast 147th Court,98019,47.7330413,-121.9596164
28329,Northeast 147th Court,98019,47.7327915,-121.9595940
27832,Northeast 151st Street,98019,47.7364489,-121.9660070
27826,Northeast 151st Street,98019,47.7364522,-121.9661789
27812,Northeast 151st Street,98019,47.7365815,-121.9664296
15109,279th Lane Northeast,98019,47.7366410,-121.9660499
15111,279th Lane Northeast,98019,47.7367620,-121.9660445
15115,279th Lane Northeast,98019,47.7369464,-121.9660142
15119,279th Lane Northeast,98019,47.7369764,-121.9662127
15123,279th Lane Northeast,98019,47.7369599,-121.9664190
15127,279th Lane Northeast,98019,47.7369695,-121.9666330
15129,279th Lane Northeast,98019,47.7370745,-121.9667755
15133,279th Lane Northeast,98019,47.7372383,-121.9667994
15137,279th Lane Northeast,98019,47.7373735,-121.9667653
15218,3rd Avenue Northeast,98019,47.7382958,-121.9800123
15230,3rd Avenue Northeast,98019,47.7385137,-121.9800313
26825,Northeast Ring Street,98019,47.7388264,-121.9800229
15231,3rd Place Northeast,98019,47.7385738,-121.9794944
15221,3rd Place Northeast,98019,47.7383810,-121.9795886
15211,3rd Place Northeast,98019,47.7381468,-121.9795257
15210,3rd Place Northeast,98019,47.7379871,-121.9791577
15218,3rd Place Northeast,98019,47.7381836,-121.9789355
26806,Northeast Dorothy Street,98019,47.7379536,-121.9799891
26810,Northeast Dorothy Street,98019,47.7377882,-121.9797783
26818,Northeast Dorothy Street,98019,47.7377429,-121.9794339
26826,Northeast Dorothy Street,98019,47.7376082,-121.9791432
26830,Northeast Dorothy Street,98019,47.7375011,-121.9789334
15115,3rd Lane Northeast,98019,47.7377464,-121.9786943
15129,3rd Lane Northeast,98019,47.7379095,-121.9785414
27012,Northeast Dorothy Street,98019,47.7369855,-121.9761779
27104,Northeast Dorothy Street,98019,47.7369485,-121.9764816
27032,Northeast Dorothy Street,98019,47.7368133,-121.9766864
27020,Northeast Dorothy Street,98019,47.7368617,-121.9772169
27010,Northeast Dorothy Street,98019,47.7369441,-121.9774618
27002,Northeast Dorothy Street,98019,47.7370434,-121.9777468
26920,Northeast Dorothy Street,98019,47.7371648,-121.9780234
15104,3rd Lane Northeast,98019,47.7373333,-121.9782704
15122,3rd Lane Northeast,98019,47.7375253,-121.9781047
27015,Northeast Ring Street,98019,47.7373980,-121.9777632
27027,Northeast Ring Street,98019,47.7372118,-121.9771423
27030,Northeast Ring Street,98019,47.7374010,-121.9768706
27020,Northeast Ring Street,98019,47.7376808,-121.9771761
27010,Northeast Ring Street,98019,47.7377979,-121.9774427
27000,Northeast Ring Street,98019,47.7379676,-121.9776956
26938,Northeast Ring Street,98019,47.7381752,-121.9779643
26930,Northeast Ring Street,98019,47.7383093,-121.9782300
26922,Northeast Ring Street,98019,47.7384840,-121.9785046
26914,Northeast Ring Street,98019,47.7386299,-121.9787387
26906,Northeast Ring Street,98019,47.7387949,-121.9788899
26919,Northeast 152nd Street,98019,47.7392483,-121.9787988
26840,Northeast Ring Street,98019,47.7389578,-121.9791560
26830,Northeast Ring Street,98019,47.7391076,-121.9794174
26820,Northeast Ring Street,98019,47.7392357,-121.9796322
26810,Northeast Ring Street,98019,47.7393926,-121.9799153
15420,3rd Avenue Northeast,98019,47.7396401,-121.9801097
27911,Northeast 152nd Street,98019,47.7373321,-121.9662682
27915,Northeast 152nd Street,98019,47.7373140,-121.9660760
27921,Northeast 152nd Street,98019,47.7372996,-121.9658788
27925,Northeast 152nd Street,98019,47.7372693,-121.9656695
27931,Northeast 152nd Street,98019,47.7372523,-121.9654595
27935,Northeast 152nd Street,98019,47.7372345,-121.9652810
15125,279th Place Northeast,98019,47.7370171,-121.9652662
15121,279th Place Northeast,98019,47.7368482,-121.9652722
15119,279th Place Northeast,98019,47.7366751,-121.9652699
15113,279th Place Northeast,98019,47.7365474,-121.9652641
27918,Northeast 151st Street,98019,47.7363919,-121.9652800
27908,Northeast 151st Street,98019,47.7363902,-121.9654455
27902,Northeast 151st Street,98019,47.7364166,-121.9656151
15110,279th Lane Northeast,98019,47.7365778,-121.9655787
15114,279th Lane Northeast,98019,47.7367038,-121.9655793
15118,279th Lane Northeast,98019,47.7368640,-121.9655827
15122,279th Lane Northeast,98019,47.7370245,-121.9655665
28319,Northeast 147th Court,98019,47.7326806,-121.9599868
28307,Northeast 147th Court,98019,47.7327346,-121.9603664
28301,Northeast 147th Court,98019,47.7328501,-121.9607914
28233,Northeast 147th Court,98019,47.7328335,-121.9611660
28225,Northeast 147th Court,98019,47.7328257,-121.9616791
28224,Northeast 146th Street,98019,47.7325612,-121.9616830
28232,Northeast 146th Street,98019,47.7324133,-121.9613374
28238,Northeast 146th Street,98019,47.7323141,-121.9609230
28308,Northeast 146th Street,98019,47.7323164,-121.9605824
28316,Northeast 146th Street,98019,47.7322796,-121.9602090
28326,Northeast 146th Street,98019,47.7322416,-121.9598394
28332,Northeast 146th Street,98019,47.7322178,-121.9594897
28333,Northeast 146th Street,98019,47.7317480,-121.9594135
28327,Northeast 146th Street,98019,47.7317895,-121.9597290
28321,Northeast 146th Street,98019,47.7318106,-121.9601120
28311,Northeast 146th Street,98019,47.7318795,-121.9604660
28303,Northeast 146th Street,98019,47.7319070,-121.9608255
28239,Northeast 146th Street,98019,47.7319195,-121.9611805
28231,Northeast 146th Street,98019,47.7318565,-121.9615635
28227,Northeast 146th Street,98019,47.7321025,-121.9617805
28221,Northeast 146th Street,98019,47.7321985,-121.9621150
28215,Northeast 146th Street,98019,47.7325053,-121.9622997
28209,Northeast 147th Place,98019,47.7327185,-121.9625200
28201,Northeast 147th Place,98019,47.7329135,-121.9627705
28121,Northeast 147th Place,98019,47.7330135,-121.9631250
14616,281st Avenue Northeast,98019,47.7330095,-121.9634970
14530,281st Avenue Northeast,98019,47.7326895,-121.9634555
28106,Northeast 145th Court,98019,47.7324341,-121.9633679
28114,Northeast 145th Court,98019,47.7324459,-121.9629099
28120,Northeast 145th Court,98019,47.7322250,-121.9626535
28121,Northeast 145th Court,98019,47.7319229,-121.9626135
28115,Northeast 145th Court,98019,47.7320040,-121.9631840
28107,Northeast 145th Court,98019,47.7320640,-121.9636330
14505,281st Avenue Northeast,98019,47.7321000,-121.9641495
14511,281st Avenue Northeast,98019,47.7323735,-121.9642055
14523,281st Avenue Northeast,98019,47.7326245,-121.9640830
14603,281st Avenue Northeast,98019,47.7328830,-121.9641335
14619,281st Avenue Northeast,98019,47.7331110,-121.9642175
28011,Northeast 147th Circle,98019,47.7331875,-121.9647560
27949,Northeast 147th Circle,98019,47.7330340,-121.9647805
27947,Northeast 147th Circle,98019,47.7328655,-121.9647905
27945,Northeast 147th Circle,98019,47.7326940,-121.9647765
27943,Northeast 147th Circle,98019,47.7325460,-121.9647525
27941,Northeast 147th Circle,98019,47.7323620,-121.9647755
27939,Northeast 147th Circle,98019,47.7321795,-121.9648440
27937,Northeast 147th Circle,98019,47.7321790,-121.9651567
27935,Northeast 147th Circle,98019,47.7322005,-121.9654335
27933,Northeast 147th Circle,98019,47.7322305,-121.9656585
27931,Northeast 147th Circle,98019,47.7322457,-121.9659042
27805,Northeast 154th Street,98019,47.7385082,-121.9667221
27811,Northeast 154th Street,98019,47.7385405,-121.9664475
27821,Northeast 154th Street,98019,47.7385497,-121.9661038
27829,Northeast 154th Street,98019,47.7385474,-121.9657512
27833,Northeast 154th Street,98019,47.7385225,-121.9654585
27836,Northeast 153rd Place,98019,47.7382045,-121.9654765
27828,Northeast 153rd Place,98019,47.7381991,-121.9658759
27818,Northeast 153rd Place,98019,47.7382186,-121.9662641
27819,Northeast 153rd Place,98019,47.7379224,-121.9663326
27831,Northeast 153rd Place,98019,47.7378474,-121.9659620
15229,279th Place Northeast,98019,47.7377915,-121.9653429
27936,Northeast 152nd Street,98019,47.7375648,-121.9652534
27932,Northeast 152nd Street,98019,47.7375685,-121.9654293
27928,Northeast 152nd Street,98019,47.7375979,-121.9656347
27924,Northeast 152nd Street,98019,47.7376168,-121.9658348
27918,Northeast 152nd Street,98019,47.7376400,-121.9660424
27912,Northeast 152nd Street,98019,47.7376462,-121.9662444
27904,Northeast 152nd Street,98019,47.7376726,-121.9664473
27820,Northeast 152nd Street,98019,47.7376765,-121.9666395
27929,Northeast 147th Circle,98019,47.7322975,-121.9661645
27927,Northeast 147th Circle,98019,47.7322975,-121.9664810
27925,Northeast 147th Circle,98019,47.7325500,-121.9662865
27923,Northeast 147th Circle,98019,47.7327155,-121.9662850
27921,Northeast 147th Circle,98019,47.7328780,-121.9662785
27919,Northeast 147th Circle,98019,47.7330435,-121.9662825
27917,Northeast 147th Circle,98019,47.7331985,-121.9663015
27815,Northeast 147th Place,98019,47.7334755,-121.9662700
27811,Northeast 147th Place,98019,47.7335245,-121.9665135
27807,Northeast 147th Place,98019,47.7334970,-121.9667590
27910,Northeast 147th Circle,98019,47.7334540,-121.9657380
27914,Northeast 147th Circle,98019,47.7333160,-121.9657905
27918,Northeast 147th Circle,98019,47.7331665,-121.9657780
28004,Northeast 147th Circle,98019,47.7333380,-121.9652240
27950,Northeast 147th Circle,98019,47.7331805,-121.9652850
27948,Northeast 147th Circle,98019,47.7330155,-121.9652640
27946,Northeast 147th Circle,98019,47.7328545,-121.9652730
27944,Northeast 147th Circle,98019,47.7326860,-121.9652570
27942,Northeast 147th Circle,98019,47.7325220,-121.9652715
27926,Northeast 147th Circle,98019,47.7325595,-121.9657215
27924,Northeast 147th Circle,98019,47.7327060,-121.9657810
27922,Northeast 147th Circle,98019,47.7328625,-121.9657730
27920,Northeast 147th Circle,98019,47.7330100,-121.9657860
27804,Northeast 144th Street,98019,47.7319610,-121.9665345
27818,Northeast 144th Street,98019,47.7318800,-121.9661270
27826,Northeast 144th Street,98019,47.7318360,-121.9656770
27906,Northeast 144th Street,98019,47.7317800,-121.9652480
27918,Northeast 144th Street,98019,47.7317430,-121.9648299
27930,Northeast 144th Street,98019,47.7316955,-121.9644225
28008,Northeast 144th Street,98019,47.7316480,-121.9639630
28020,Northeast 144th Street,98019,47.7316030,-121.9635065
28028,Northeast 144th Street,98019,47.7315803,-121.9630868
28104,Northeast 144th Street,98019,47.7315515,-121.9626450
28116,Northeast 144th Street,98019,47.7315585,-121.9622680
28126,Northeast 144th Street,98019,47.7314800,-121.9617265
28210,Northeast 144th Street,98019,47.7313537,-121.9608582
28222,Northeast 144th Street,98019,47.7313150,-121.9603970
28232,Northeast 144th Street,98019,47.7312730,-121.9599912
28312,Northeast 144th Street,98019,47.7312345,-121.9594915
14310,283rd Place Northeast,98019,47.7304535,-121.9595700
28305,Northeast 144th Street,98019,47.7307910,-121.9595520
28225,Northeast 144th Street,98019,47.7308660,-121.9602945
14307,283rd Place Northeast,98019,47.7305240,-121.9603420
14301,283rd Place Northeast,98019,47.7303455,-121.9600005
28000,Northeast 142nd Place,98019,47.7301305,-121.9608186
28000,Northeast 142nd Place,98019,47.7301015,-121.9606186
28611,Northeast 151st Place,98019,47.7351465,-121.9547990
28615,Northeast 151st Place,98019,47.7353796,-121.9548367
28619,Northeast 151st Place,98019,47.7354510,-121.9555706
28609,Northeast 151st Place,98019,47.7352761,-121.9559060
15008,286th Avenue Northeast,98019,47.7353695,-121.9562930
15007,286th Avenue Northeast,98019,47.7353818,-121.9568840
28525,Northeast 151st Street,98019,47.7354026,-121.9572417
28519,Northeast 151st Street,98019,47.7354428,-121.9575980
28511,Northeast 151st Street,98019,47.7354700,-121.9579875
28503,Northeast 151st Street,98019,47.7355335,-121.9583550
28423,Northeast 151st Street,98019,47.7356310,-121.9587360
28401,Northeast 151st Street,98019,47.7357625,-121.9591070
28309,Northeast 151st Street,98019,47.7357271,-121.9595355
28303,Northeast 151st Street,98019,47.7357899,-121.9598787
28225,Northeast 151st Street,98019,47.7358196,-121.9603075
28217,Northeast 151st Street,98019,47.7358841,-121.9607185
28205,Northeast 151st Street,98019,47.7358771,-121.9611484
28115,Northeast 151st Street,98019,47.7358908,-121.9615431
28000,Northeast 142nd Place,98019,47.7301305,-121.9610266
28000,Northeast 142nd Place,98019,47.7301065,-121.9612346
28000,Northeast 142nd Place,98019,47.7301430,-121.9614866
28000,Northeast 142nd Place,98019,47.7301435,-121.9616606
28000,Northeast 142nd Place,98019,47.7301349,-121.9619631
28000,Northeast 142nd Place,98019,47.7302800,-121.9619756
28000,Northeast 142nd Place,98019,47.7301309,-121.9623937
28000,Northeast 142nd Place,98019,47.7302617,-121.9624142
14322,282nd Place Northeast,98019,47.7308475,-121.9609242
14308,282nd Place Northeast,98019,47.7305750,-121.9610060
14303,282nd Place Northeast,98019,47.7305067,-121.9614235
27031,Northeast 152nd Street,98019,47.7387024,-121.9769796
27016,Northeast Dorothy Street,98019,47.7367636,-121.9758623
27021,Northeast Dorothy Street,98019,47.7363819,-121.9755766
27015,Northeast Dorothy Street,98019,47.7364873,-121.9759539
27003,Northeast Dorothy Street,98019,47.7364794,-121.9762516
27033,Northeast Dorothy Street,98019,47.7363858,-121.9767210
27025,Northeast Dorothy Street,98019,47.7363922,-121.9770075
26929,Northeast Dorothy Street,98019,47.7365862,-121.9778162
26923,Northeast Dorothy Street,98019,47.7364264,-121.9779393
26919,Northeast Dorothy Street,98019,47.7363539,-121.9782769
26915,Northeast Dorothy Street,98019,47.7364013,-121.9786388
26911,Northeast Dorothy Street,98019,47.7366754,-121.9786081
26907,Northeast Dorothy Street,98019,47.7368258,-121.9784858
15030,3rd Lane Northeast,98019,47.7369334,-121.9789509
15020,3rd Lane Northeast,98019,47.7367407,-121.9791031
15010,3rd Lane Northeast,98019,47.7364749,-121.9790474
15006,3rd Lane Northeast,98019,47.7363679,-121.9793176
15005,3rd Lane Northeast,98019,47.7363581,-121.9797134
15011,3rd Lane Northeast,98019,47.7366160,-121.9798219
15021,3rd Lane Northeast,98019,47.7368369,-121.9798131
15025,3rd Lane Northeast,98019,47.7370197,-121.9796484
15031,3rd Lane Northeast,98019,47.7371842,-121.9794601
26815,Northeast Dorothy Street,98019,47.7373195,-121.9798661
14825,275th Avenue Northeast,98019,47.7349406,-121.9716846
14903,275th Avenue Northeast,98019,47.7354866,-121.9720619
14907,275th Avenue Northeast,98019,47.7359650,-121.9719779
27411,Northeast 150th Street,98019,47.7359943,-121.9723055
27405,Northeast 150th Street,98019,47.7359978,-121.9725232
14930,273rd Place Northeast,98019,47.7359663,-121.9728543
14922,273rd Place Northeast,98019,47.7357949,-121.9728876
14914,273rd Place Northeast,98019,47.7356185,-121.9728535
14902,273rd Place Northeast,98019,47.7354415,-121.9728553
14828,273rd Place Northeast,98019,47.7352637,-121.9728585
27322,Northeast 148th Way,98019,47.7350921,-121.9728254
27330,Northeast 148th Way,98019,47.7351441,-121.9724123
14925,273rd Place Northeast,98019,47.7358554,-121.9734089
14905,273rd Place Northeast,98019,47.7354521,-121.9733883
14827,273rd Place Northeast,98019,47.7352385,-121.9733901
14915,273rd Place Northeast,98019,47.7356510,-121.9734156
14813,273rd Place Northeast,98019,47.7350409,-121.9733525
27228,Northeast 148th Way,98019,47.7348152,-121.9738220
14816,272nd Place Northeast,98019,47.7350274,-121.9739803
14826,272nd Place Northeast,98019,47.7352322,-121.9739699
14906,272nd Place Northeast,98019,47.7354419,-121.9739934
14918,272nd Place Northeast,98019,47.7356461,-121.9739772
14928,272nd Place Northeast,98019,47.7358509,-121.9740035
15226,273rd Drive Northeast,98019,47.7376909,-121.9735834
15220,273rd Drive Northeast,98019,47.7374586,-121.9733783
15218,273rd Drive Northeast,98019,47.7372548,-121.9732236
15214,273rd Drive Northeast,98019,47.7374114,-121.9738634
15200,273rd Drive Northeast,98019,47.7372998,-121.9741049
15118,272nd Place Northeast,98019,47.7370658,-121.9740642
27224,Northeast 151st Place,98019,47.7368839,-121.9740143
27302,Northeast 151st Place,98019,47.7369996,-121.9736616
27312,Northeast 151st Place,98019,47.7370038,-121.9733509
27320,Northeast 151st Place,98019,47.7369657,-121.9730684
27315,Northeast 151st Place,98019,47.7365622,-121.9731840
27303,Northeast 151st Place,98019,47.7365405,-121.9736152
27225,Northeast 151st Place,98019,47.7365583,-121.9739798
15018,272nd Place Northeast,98019,47.7363763,-121.9740091
27220,Northeast 150th Street,98019,47.7361959,-121.9739826
27316,Northeast 150th Street,98019,47.7362264,-121.9732999
27324,Northeast 150th Street,98019,47.7363074,-121.9729775
27402,Northeast 150th Street,98019,47.7363496,-121.9725881
27410,Northeast 150th Street,98019,47.7363728,-121.9722817
27420,Northeast 150th Street,98019,47.7363693,-121.9719817
27428,Northeast 150th Street,98019,47.7363843,-121.9716926
15233,273rd Drive Northeast,98019,47.7382448,-121.9739275
15227,273rd Drive Northeast,98019,47.7380881,-121.9739914
15223,273rd Drive Northeast,98019,47.7378787,-121.9740589
15211,273rd Drive Northeast,98019,47.7377130,-121.9742241
15203,273rd Drive Northeast,98019,47.7375876,-121.9744240
15216,272nd Place Northeast,98019,47.7378248,-121.9745381
15222,272nd Place Northeast,98019,47.7379848,-121.9746167
15226,272nd Place Northeast,98019,47.7381613,-121.9746797
15230,272nd Place Northeast,98019,47.7383743,-121.9746665
15234,272nd Place Northeast,98019,47.7385213,-121.9747799
15238,272nd Place Northeast,98019,47.7385762,-121.9750331
15241,272nd Place Northeast,98019,47.7387632,-121.9753760
15239,272nd Place Northeast,98019,47.7385267,-121.9755692
15237,272nd Place Northeast,98019,47.7384087,-121.9754202
15233,272nd Place Northeast,98019,47.7382260,-121.9754130
15229,272nd Place Northeast,98019,47.7380824,-121.9752450
15225,272nd Place Northeast,98019,47.7379281,-121.9751770
15219,272nd Place Northeast,98019,47.7377616,-121.9750710
15215,272nd Place Northeast,98019,47.7376059,-121.9750231
15209,272nd Place Northeast,98019,47.7374557,-121.9749091
15205,272nd Place Northeast,98019,47.7372838,-121.9747647
15117,272nd Place Northeast,98019,47.7370708,-121.9746028
15109,272nd Place Northeast,98019,47.7368776,-121.9745551
15103,272nd Place Northeast,98019,47.7366977,-121.9745415
15023,272nd Place Northeast,98019,47.7364951,-121.9745176
15015,272nd Place Northeast,98019,47.7363122,-121.9745408
15001,272nd Place Northeast,98019,47.7361111,-121.9745077
14931,272nd Place Northeast,98019,47.7359170,-121.9744945
14921,272nd Place Northeast,98019,47.7357289,-121.9745259
14911,272nd Place Northeast,98019,47.7355345,-121.9744768
14831,272nd Place Northeast,98019,47.7353437,-121.9744932
14821,272nd Place Northeast,98019,47.7351501,-121.9744952
14811,272nd Place Northeast,98019,47.7349653,-121.9744630
27137,Northeast Miller Street,98019,47.7335778,-121.9749741
27131,Northeast Miller Street,98019,47.7336152,-121.9752850
27125,Northeast Miller Street,98019,47.7336540,-121.9755289
27117,Northeast Miller Street,98019,47.7336490,-121.9758212
27107,Northeast Miller Street,98019,47.7336253,-121.9761460
27035,Northeast Miller Street,98019,47.7336586,-121.9763856
27023,Northeast Miller Street,98019,47.7336305,-121.9766491
27019,Northeast Miller Street,98019,47.7336108,-121.9769596
27009,Northeast Miller Street,98019,47.7336393,-121.9772364
27001,Northeast Miller Street,98019,47.7336213,-121.9775495
26939,Northeast Miller Street,98019,47.7336433,-121.9778065
26927,Northeast Miller Street,98019,47.7336080,-121.9781129
26919,Northeast Miller Street,98019,47.7335992,-121.9783602
26911,Northeast Miller Street,98019,47.7336272,-121.9786979
26903,Northeast Miller Street,98019,47.7336193,-121.9789862
26825,Northeast Miller Street,98019,47.7336523,-121.9792326
26815,Northeast Miller Street,98019,47.7336579,-121.9795048
26805,Northeast Miller Street,98019,47.7336093,-121.9798040
27121,Northeast Kennedy Drive,98019,47.7346160,-121.9753789
27136,Northeast Miller Street,98019,47.7341165,-121.9750036
27130,Northeast Miller Street,98019,47.7340615,-121.9752632
27124,Northeast Miller Street,98019,47.7340476,-121.9755457
27116,Northeast Miller Street,98019,47.7340842,-121.9757771
27106,Northeast Miller Street,98019,47.7340756,-121.9760945
14832,4th Place Northeast,98019,47.7351156,-121.9765254
14824,4th Place Northeast,98019,47.7349094,-121.9764929
14818,4th Place Northeast,98019,47.7346766,-121.9764423
14804,4th Place Northeast,98019,47.7344952,-121.9764414
14802,4th Place Northeast,98019,47.7344967,-121.9768466
27034,Northeast Miller Street,98019,47.7341083,-121.9764125
27026,Northeast Miller Street,98019,47.7341132,-121.9766460
27020,Northeast Miller Street,98019,47.7341151,-121.9770004
14708,3rd Court Northeast,98019,47.7341729,-121.9772828
14805,4th Place Northeast,98019,47.7345014,-121.9772926
14737,3rd Court Northeast,98019,47.7346207,-121.9776539
14819,4th Place Northeast,98019,47.7347309,-121.9772188
14825,4th Place Northeast,98019,47.7349195,-121.9771596
14833,4th Place Northeast,98019,47.7351133,-121.9771769
26929,Northeast Kennedy Drive,98019,47.7350565,-121.9776681
26927,Northeast Kennedy Drive,98019,47.7348331,-121.9777271
26923,Northeast Kennedy Drive,98019,47.7348273,-121.9781351
26921,Northeast Kennedy Drive,98019,47.7350811,-121.9781457
14722,3rd Place Northeast,98019,47.7345613,-121.9784528
14729,3rd Court Northeast,98019,47.7344334,-121.9780946
14715,3rd Court Northeast,98019,47.7342311,-121.9780523
26928,Northeast Miller Street,98019,47.7340326,-121.9780770
26912,Northeast Miller Street,98019,47.7340383,-121.9785318
14714,3rd Place Northeast,98019,47.7342144,-121.9786185
14723,3rd Place Northeast,98019,47.7345539,-121.9793929
14709,3rd Place Northeast,98019,47.7343398,-121.9794064
26818,Northeast Miller Street,98019,47.7340370,-121.9794286
14710,3rd Avenue Northeast,98019,47.7340586,-121.9797861
14718,3rd Avenue Northeast,98019,47.7343503,-121.9798356
14728,3rd Avenue Northeast,98019,47.7345912,-121.9798419
26801,Northeast Kennedy Drive,98019,47.7349602,-121.9799512
27020,Northeast Kennedy Drive,98019,47.7357937,-121.9767104
26930,Northeast Kennedy Drive,98019,47.7357313,-121.9777988
26826,Northeast Kennedy Drive,98019,47.7355636,-121.9792063
27416,Northeast 147th Court,98019,47.7339824,-121.9718390
27424,Northeast 147th Court,98019,47.7337862,-121.9717769
27425,Northeast 147th Court,98019,47.7335313,-121.9717346
27417,Northeast 147th Court,98019,47.7335252,-121.9720275
27407,Northeast 147th Court,98019,47.7335367,-121.9723230
14601,275th Avenue Northeast,98019,47.7331734,-121.9716540
14515,275th Avenue Northeast,98019,47.7327001,-121.9717054
14504,273rd Place Northeast,98019,47.7326687,-121.9722603
14508,273rd Place Northeast,98019,47.7328984,-121.9723390
14516,273rd Place Northeast,98019,47.7332144,-121.9722602
14518,273rd Place Northeast,98019,47.7332045,-121.9726869
14517,273rd Place Northeast,98019,47.7332349,-121.9730820
14511,273rd Place Northeast,98019,47.7328962,-121.9730704
14505,273rd Place Northeast,98019,47.7326688,-121.9730292
14502,272nd Place Northeast,98019,47.7326875,-121.9737408
14506,272nd Place Northeast,98019,47.7329367,-121.9736508
14510,272nd Place Northeast,98019,47.7332246,-121.9736116
14514,272nd Place Northeast,98019,47.7331803,-121.9740730
14511,272nd Place Northeast,98019,47.7332330,-121.9745975
14509,272nd Place Northeast,98019,47.7329652,-121.9745443
14505,272nd Place Northeast,98019,47.7326390,-121.9745141
14527,271st Court Northeast,98019,47.7330231,-121.9754289
14530,271st Court Northeast,98019,47.7332716,-121.9752899
14522,271st Court Northeast,98019,47.7332939,-121.9750306
14518,271st Court Northeast,98019,47.7331058,-121.9749842
14514,271st Court Northeast,98019,47.7329506,-121.9750023
14512,271st Court Northeast,98019,47.7327858,-121.9750241
14508,271st Court Northeast,98019,47.7326495,-121.9750155
14507,271st Court Northeast,98019,47.7326773,-121.9756588
14504,270th Place Northeast,98019,47.7326543,-121.9760313
14510,270th Place Northeast,98019,47.7327888,-121.9760384
14516,270th Place Northeast,98019,47.7329371,-121.9760146
14520,270th Place Northeast,98019,47.7330889,-121.9760203
14524,270th Place Northeast,98019,47.7332475,-121.9760368
14526,270th Place Northeast,98019,47.7332501,-121.9763121
14529,270th Place Northeast,98019,47.7332266,-121.9765395
14531,270th Place Northeast,98019,47.7332280,-121.9767672
14535,270th Place Northeast,98019,47.7332379,-121.9769961
14523,270th Place Northeast,98019,47.7329578,-121.9769811
14519,270th Place Northeast,98019,47.7329689,-121.9766917
27028,Northeast 145th Street,98019,47.7326549,-121.9764989
27022,Northeast 145th Street,98019,47.7326511,-121.9767283
14511,270th Place Northeast,98019,47.7328223,-121.9765716
27018,Northeast 145th Street,98019,47.7326689,-121.9769539
27014,Northeast 145th Street,98019,47.7326589,-121.9771652
14600,3rd Avenue Northeast,98019,47.7332376,-121.9797707
26900,Northeast 145th Street,98019,47.7332122,-121.9788871
28031,Northeast 151st Place,98019,47.7359003,-121.9622228
28027,Northeast 151st Place,98019,47.7359214,-121.9626522
28023,Northeast 151st Place,98019,47.7359585,-121.9631045
28019,Northeast 151st Place,98019,47.7359790,-121.9635070
28015,Northeast 151st Place,98019,47.7361325,-121.9639020
28011,Northeast 151st Place,98019,47.7363814,-121.9641303
14223,275th Avenue Northeast,98019,47.7293147,-121.9708129
14215,275th Avenue Northeast,98019,47.7290680,-121.9707641
14231,275th Avenue Northeast,98019,47.7296376,-121.9707725
14303,275th Avenue Northeast,98019,47.7298845,-121.9707720
14313,275th Avenue Northeast,98019,47.7304604,-121.9707689
14307,275th Avenue Northeast,98019,47.7301727,-121.9707427
14319,275th Avenue Northeast,98019,47.7307289,-121.9707703
14323,275th Avenue Northeast,98019,47.7309732,-121.9707594
14329,275th Avenue Northeast,98019,47.7312455,-121.9708877
14320,3rd Avenue Northeast,98019,47.7307583,-121.9796286
27228,Northeast 142nd Court,98019,47.7292813,-121.9735339
27310,Northeast 142nd Court,98019,47.7292522,-121.9731832
27318,Northeast 142nd Court,98019,47.7292455,-121.9727737
14221,274th Place Northeast,98019,47.7293680,-121.9723221
14227,274th Place Northeast,98019,47.7296654,-121.9723492
27321,Northeast 143rd Place,98019,47.7297822,-121.9727808
27311,Northeast 143rd Place,98019,47.7297669,-121.9731793
27229,Northeast 143rd Place,98019,47.7297226,-121.9735502
27230,Northeast 143rd Place,98019,47.7302103,-121.9735648
27312,Northeast 143rd Place,98019,47.7302007,-121.9731749
27322,Northeast 143rd Place,98019,47.7302003,-121.9727790
14311,274th Place Northeast,98019,47.7302711,-121.9723325
14319,274th Place Northeast,98019,47.7305686,-121.9723587
27315,Northeast 143rd Court,98019,47.7306409,-121.9727616
27307,Northeast 143rd Court,98019,47.7306119,-121.9731915
27227,Northeast 143rd Court,98019,47.7306263,-121.9735539
27227,Northeast 142nd Court,98019,47.7288474,-121.9734921
27315,Northeast 142nd Court,98019,47.7288547,-121.9730354
27323,Northeast 142nd Court,98019,47.7288598,-121.9725299
27333,Northeast 142nd Court,98019,47.7288129,-121.9720966
14204,274th Place Northeast,98019,47.7289284,-121.9716690
14212,274th Place Northeast,98019,47.7292015,-121.9717100
14224,274th Place Northeast,98019,47.7294950,-121.9716723
14232,274th Place Northeast,98019,47.7298013,-121.9716720
14308,274th Place Northeast,98019,47.7300980,-121.9717060
14314,274th Place Northeast,98019,47.7303802,-121.9717101
14320,274th Place Northeast,98019,47.7307056,-121.9717193
14326,274th Place Northeast,98019,47.7309949,-121.9716257
27330,Northeast 143rd Court,98019,47.7311040,-121.9720459
27316,Northeast 143rd Court,98019,47.7310631,-121.9725259
27308,Northeast 143rd Court,98019,47.7310539,-121.9730634
27228,Northeast 143rd Court,98019,47.7310737,-121.9735407
14432,274th Court Northeast,98019,47.7322205,-121.9715829
14412,274th Court Northeast,98019,47.7317922,-121.9716747
14406,274th Court Northeast,98019,47.7315058,-121.9716900
14405,274th Court Northeast,98019,47.7315260,-121.9720506
27231,Northeast 144th Place,98019,47.7316385,-121.9735396
27323,Northeast 144th Place,98019,47.7316793,-121.9726286
27201,Northeast 144th Place,98019,47.7315701,-121.9744529
27121,Northeast 144th Place,98019,47.7315665,-121.9751820
27107,Northeast 144th Place,98019,47.7314451,-121.9757507
27011,Northeast 144th Place,98019,47.7316129,-121.9767414
26933,Northeast 144th Place,98019,47.7316770,-121.9775719
26915,Northeast 144th Place,98019,47.7316139,-121.9780979
26909,Northeast 144th Place,98019,47.7314152,-121.9787198
26903,Northeast 144th Place,98019,47.7316479,-121.9787821
26805,Northeast 144th Place,98019,47.7316673,-121.9796375
27322,Northeast 144th Place,98019,47.7322712,-121.9726022
27302,Northeast 144th Place,98019,47.7320700,-121.9732326
27216,Northeast 144th Place,98019,47.7320622,-121.9738580
27233,Northeast 145th Street,98019,47.7323143,-121.9738554
27229,Northeast 145th Street,98019,47.7322993,-121.9741674
27200,Northeast 144th Place,98019,47.7322162,-121.9747423
27120,Northeast 144th Place,98019,47.7321519,-121.9752196
27106,Northeast 144th Place,98019,47.7321198,-121.9760428
27010,Northeast 144th Place,98019,47.7321510,-121.9766806
26932,Northeast 144th Place,98019,47.7320751,-121.9774368
26914,Northeast 144th Place,98019,47.7321172,-121.9782513
26902,Northeast 144th Place,98019,47.7321115,-121.9789515
26804,Northeast 144th Place,98019,47.7321239,-121.9796245
27228,Northeast Big Rock Road,98019,47.7250918,-121.9737592
14104,273rd Avenue Northeast,98019,47.7265649,-121.9723637
26830,Northeast Walden Way,98019,47.7274649,-121.9797423
14104,Main Street Northeast,98019,47.7269501,-121.9864399
26649,Northeast 143rd Place,98019,47.7294808,-121.9814396
26629,Northeast 143rd Place,98019,47.7294557,-121.9821357
26611,Northeast 143rd Place,98019,47.7295442,-121.9828292
26477,Northeast 143rd Place,98019,47.7295772,-121.9837151
14244,Main Street Northeast,98019,47.7289705,-121.9866715
15706,1st Avenue Northeast,98019,47.7417690,-121.9845517
27321,Northeast 148th Way,98019,47.7347709,-121.9728078
27313,Northeast 148th Way,98019,47.7346599,-121.9730517
27231,Northeast 148th Way,98019,47.7344764,-121.9735133
27225,Northeast 148th Way,98019,47.7344368,-121.9738144
14441,Main Street Northeast,98019,47.7322399,-121.9880349
14701,Main Street Northeast,98019,47.7333747,-121.9888771
14701,Main Street Northeast,98019,47.7333702,-121.9879598
26905,Northeast Virginia Street,98019,47.7429078,-121.9792144
26715,Northeast Cherry Street,98019,47.7413770,-121.9812695
28404,Northeast 151st Street,98019,47.7361992,-121.9591420
28422,Northeast 151st Street,98019,47.7361573,-121.9587742
15104,285th Avenue Northeast,98019,47.7359622,-121.9581224
28514,Northeast 151st Street,98019,47.7358955,-121.9577795
28522,Northeast 151st Street,98019,47.7358301,-121.9574426
15111,286th Avenue Northeast,98019,47.7358296,-121.9570624
28604,Northeast 151st Place,98019,47.7358299,-121.9564209
28610,Northeast 151st Place,98019,47.7357984,-121.9560944
28618,Northeast 151st Place,98019,47.7358541,-121.9557247
28624,Northeast 151st Place,98019,47.7362296,-121.9551737
28628,Northeast 151st Place,98019,47.7362763,-121.9548470
28632,Northeast 151st Place,98019,47.7361878,-121.9544561
28631,Northeast 151st Place,98019,47.7359460,-121.9545003
15122,286th Avenue Northeast,98019,47.7361667,-121.9564382
15130,286th Avenue Northeast,98019,47.7364131,-121.9564455
15208,286th Avenue Northeast,98019,47.7366602,-121.9564653
15216,286th Avenue Northeast,98019,47.7369125,-121.9564718
28603,Northeast 153rd Street,98019,47.7371768,-121.9565453
15119,285th Avenue Northeast,98019,47.7364887,-121.9588212
15127,285th Avenue Northeast,98019,47.7367119,-121.9588140
15209,285th Avenue Northeast,98019,47.7369702,-121.9588906
15221,285th Avenue Northeast,98019,47.7372010,-121.9588488
15235,285th Avenue Northeast,98019,47.7374714,-121.9589049
28502,Northeast 153rd Street,98019,47.7376048,-121.9584622
28512,Northeast 153rd Street,98019,47.7375683,-121.9581668
28500,Northeast 153rd Street,98019,47.7376244,-121.9577696
28532,Northeast 153rd Street,98019,47.7375986,-121.9572592
15315,286th Avenue Northeast,98019,47.7378524,-121.9572181
15327,286th Avenue Northeast,98019,47.7381011,-121.9572120
15112,285th Avenue Northeast,98019,47.7362926,-121.9581388
15120,285th Avenue Northeast,98019,47.7365629,-121.9581275
15202,285th Avenue Northeast,98019,47.7367976,-121.9581455
15218,285th Avenue Northeast,98019,47.7371335,-121.9582178
28517,Northeast 153rd Street,98019,47.7371793,-121.9578479
28523,Northeast 153rd Street,98019,47.7371799,-121.9574624
28531,Northeast 153rd Street,98019,47.7371859,-121.9571150
15217,286th Avenue Northeast,98019,47.7368708,-121.9571391
15209,286th Avenue Northeast,98019,47.7366260,-121.9571074
15131,286th Avenue Northeast,98019,47.7363754,-121.9571330
15123,286th Avenue Northeast,98019,47.7361485,-121.9570750
15225,287th Avenue Northeast,98019,47.7372287,-121.9554655
15215,287th Avenue Northeast,98019,47.7369616,-121.9553526
15205,287th Avenue Northeast,98019,47.7368146,-121.9550766
15206,287th Avenue Northeast,98019,47.7366865,-121.9545387
15218,287th Avenue Northeast,98019,47.7370028,-121.9545356
15230,287th Avenue Northeast,98019,47.7373013,-121.9547081
15302,287th Avenue Northeast,98019,47.7375279,-121.9547511
15308,287th Avenue Northeast,98019,47.7377702,-121.9547839
15322,287th Avenue Northeast,98019,47.7380222,-121.9547620
15404,287th Avenue Northeast,98019,47.7382657,-121.9547996
15418,287th Avenue Northeast,98019,47.7385141,-121.9547903
15417,287th Avenue Northeast,98019,47.7385441,-121.9555013
15405,287th Avenue Northeast,98019,47.7382780,-121.9554476
15323,287th Avenue Northeast,98019,47.7380458,-121.9554877
15309,287th Avenue Northeast,98019,47.7376885,-121.9554069
28622,Northeast 153rd Street,98019,47.7376634,-121.9557277
28614,Northeast 153rd Street,98019,47.7376234,-121.9562161
28616,Northeast 153rd Street,98019,47.7379053,-121.9561829
15104,283rd Place Northeast,98019,47.7362605,-121.9596878
15114,283rd Place Northeast,98019,47.7365164,-121.9597045
15120,283rd Place Northeast,98019,47.7367800,-121.9596744
15126,283rd Place Northeast,98019,47.7369098,-121.9600368
15121,283rd Place Northeast,98019,47.7367980,-121.9604197
15111,283rd Place Northeast,98019,47.7363264,-121.9604273
28214,Northeast 151st Street,98019,47.7363244,-121.9608276
28128,Northeast 151st Street,98019,47.7363460,-121.9612399
28112,Northeast 151st Street,98019,47.7364011,-121.9616061
28030,Northeast 151st Place,98019,47.7364044,-121.9622577
28026,Northeast 151st Place,98019,47.7363890,-121.9626434
28020,Northeast 151st Place,98019,47.7364496,-121.9630977
28012,Northeast 151st Place,98019,47.7366975,-121.9632382
28006,Northeast 151st Place,98019,47.7369163,-121.9635042
28003,Northeast 151st Place,98019,47.7369219,-121.9639890
28007,Northeast 151st Place,98019,47.7366861,-121.9642950
15121,Manion Way Northeast,98019,47.7368150,-121.9623345
28111,Northeast 152nd Place,98019,47.7369425,-121.9616725
28125,Northeast 152nd Place,98019,47.7368880,-121.9612280
28133,Northeast 152nd Place,98019,47.7369130,-121.9608460
28136,Northeast 152nd Place,98019,47.7372010,-121.9606835
28130,Northeast 152nd Place,98019,47.7374135,-121.9610390
28122,Northeast 152nd Place,98019,47.7374000,-121.9614360
28112,Northeast 152nd Place,98019,47.7374280,-121.9618245
15131,Manion Way Northeast,98019,47.7370910,-121.9624180
15213,Manion Way Northeast,98019,47.7373335,-121.9625330
15223,Manion Way Northeast,98019,47.7375520,-121.9627425
15222,Manion Way Northeast,98019,47.7377820,-121.9620675
15230,Manion Way Northeast,98019,47.7380070,-121.9623150
15310,Manion Way Northeast,98019,47.7382140,-121.9626095
15320,Manion Way Northeast,98019,47.7384345,-121.9628390
15233,Manion Way Northeast,98019,47.7378240,-121.9629335
28025,Northeast 153rd Place,98019,47.7380055,-121.9633145
28013,Northeast 153rd Place,98019,47.7376530,-121.9634885
28005,Northeast 153rd Place,98019,47.7373405,-121.9635825
28004,Northeast 153rd Place,98019,47.7373085,-121.9640890
28010,Northeast 153rd Place,98019,47.7375895,-121.9643450
28016,Northeast 153rd Place,98019,47.7378985,-121.9642435
28022,Northeast 153rd Place,98019,47.7381605,-121.9639975
28028,Northeast 153rd Place,98019,47.7383920,-121.9637860
15404,Manion Way Northeast,98019,47.7388615,-121.9634335
15417,Manion Way Northeast,98019,47.7387400,-121.9642020
15430,Manion Way Northeast,98019,47.7392865,-121.9639885
15431,Manion Way Northeast,98019,47.7389675,-121.9644280
15514,Manion Way Northeast,98019,47.7399900,-121.9646870
15518,Manion Way Northeast,98019,47.7402160,-121.9649350
27731,Northeast 156th Place,98019,47.7400340,-121.9674435
27723,Northeast 156th Place,98019,47.7400595,-121.9678200
27709,Northeast 156th Place,98019,47.7401250,-121.9682310
27633,Northeast 156th Place,98019,47.7400590,-121.9686130
27624,Northeast 156th Place,98019,47.7404105,-121.9692475
27628,Northeast 156th Place,98019,47.7407285,-121.9691235
27636,Northeast 156th Place,98019,47.7406645,-121.9686340
27708,Northeast 156th Place,98019,47.7405685,-121.9682140
27722,Northeast 156th Place,98019,47.7405055,-121.9678150
27730,Northeast 156th Place,98019,47.7404855,-121.9674220
27625,Northeast 156th Place,98019,47.7401744,-121.9690890
15604,Manion Way Northeast,98019,47.7404225,-121.9650660
15614,Manion Way Northeast,98019,47.7407105,-121.9651110
15622,Manion Way Northeast,98019,47.7409675,-121.9651835
15632,Manion Way Northeast,98019,47.7412390,-121.9652390
27915,Northeast 157th Place,98019,47.7412105,-121.9645210
27920,Northeast 157th Place,98019,47.7419720,-121.9633765
27914,Northeast 157th Place,98019,47.7420915,-121.9637585
27908,Northeast 157th Place,98019,47.7416560,-121.9653960
15730,Manion Way Northeast,98019,47.7418660,-121.9657095
15806,Manion Way Northeast,98019,47.7421295,-121.9659640
15818,Manion Way Northeast,98019,47.7423360,-121.9661815
15828,Manion Way Northeast,98019,47.7425500,-121.9663980
15902,Manion Way Northeast,98019,47.7428470,-121.9666455
15912,Manion Way Northeast,98019,47.7430965,-121.9669230
15920,Manion Way Northeast,98019,47.7433570,-121.9671570
15926,Manion Way Northeast,98019,47.7436275,-121.9673470
15932,Manion Way Northeast,98019,47.7438305,-121.9676720
27706,Manion Way Northeast,98019,47.7439465,-121.9682655
16007,277th Place Northeast,98019,47.7439835,-121.9690230
16024,277th Place Northeast,98019,47.7445335,-121.9683575
16030,277th Place Northeast,98019,47.7448240,-121.9682830
16031,277th Place Northeast,98019,47.7449685,-121.9690830
16027,277th Place Northeast,98019,47.7446820,-121.9690575
16033,277th Place Northeast,98019,47.7450965,-121.9687415
15929,277th Avenue Northeast,98019,47.7435345,-121.9690730
15919,277th Avenue Northeast,98019,47.7432690,-121.9690005
15909,277th Avenue Northeast,98019,47.7429935,-121.9689955
15825,277th Avenue Northeast,98019,47.7427235,-121.9689710
15817,277th Avenue Northeast,98019,47.7423360,-121.9687755
27626,Northeast 158th Place,98019,47.7421280,-121.9690610
27620,Northeast 158th Place,98019,47.7418420,-121.9692250
27614,Northeast 158th Place,98019,47.7415165,-121.9691865
27608,Northeast 158th Place,98019,47.7412505,-121.9692570
27602,Northeast 158th Place,98019,47.7410500,-121.9688580
27603,Northeast 158th Place,98019,47.7410245,-121.9683490
27609,Northeast 158th Place,98019,47.7413700,-121.9683915
15727,277th Avenue Northeast,98019,47.7419100,-121.9683250
15717,278th Avenue Northeast,98019,47.7416445,-121.9679340
15709,278th Avenue Northeast,98019,47.7413930,-121.9676920
15629,278th Avenue Northeast,98019,47.7411595,-121.9675560
15619,278th Avenue Northeast,98019,47.7408865,-121.9674135
27705,Manion Way Northeast,98019,47.7434920,-121.9683200
15906,277th Avenue Northeast,98019,47.7429110,-121.9682700
15822,277th Avenue Northeast,98019,47.7426510,-121.9682355
15810,277th Avenue Northeast,98019,47.7424160,-121.9681075
15732,277th Avenue Northeast,98019,47.7421895,-121.9678130
15931,Manion Way Northeast,98019,47.7434395,-121.9679360
15923,Manion Way Northeast,98019,47.7431910,-121.9677185
15915,Manion Way Northeast,98019,47.7429430,-121.9674890
15905,Manion Way Northeast,98019,47.7427200,-121.9672910
15726,277th Avenue Northeast,98019,47.7419845,-121.9675500
15831,Manion Way Northeast,98019,47.7424835,-121.9670345
15819,Manion Way Northeast,98019,47.7422505,-121.9667830
15807,Manion Way Northeast,98019,47.7420125,-121.9666710
15714,278th Avenue Northeast,98019,47.7417635,-121.9673190
15704,278th Avenue Northeast,98019,47.7415675,-121.9670615
15630,278th Avenue Northeast,98019,47.7412845,-121.9668905
15624,278th Avenue Northeast,98019,47.7410340,-121.9667260
15614,278th Avenue Northeast,98019,47.7407490,-121.9667755
27806,Northeast 156th Street,98019,47.7404220,-121.9667180
27814,Northeast 156th Street,98019,47.7403640,-121.9662670
27826,Northeast 156th Street,98019,47.7403890,-121.9657675
15615,Manion Way Northeast,98019,47.7406935,-121.9657910
15627,Manion Way Northeast,98019,47.7409890,-121.9658340
15705,Manion Way Northeast,98019,47.7412850,-121.9659970
15717,Manion Way Northeast,98019,47.7415370,-121.9661745
15729,Manion Way Northeast,98019,47.7417960,-121.9663470
28607,Northeast 155th Street,98019,47.7388820,-121.9560555
15503,286th Avenue Northeast,98019,47.7393585,-121.9569705
15501,286th Avenue Northeast,98019,47.7390498,-121.9569230
28603,Northeast 155th Street,98019,47.7389389,-121.9563997
28611,Northeast 155th Street,98019,47.7388593,-121.9557321
28619,Northeast 155th Street,98019,47.7388195,-121.9554210
28705,Northeast 155th Street,98019,47.7387540,-121.9548490
28711,Northeast 155th Street,98019,47.7387315,-121.9545855
28717,Northeast 155th Street,98019,47.7387105,-121.9542925
28725,Northeast 155th Street,98019,47.7386805,-121.9539980
28807,Northeast 155th Street,98019,47.7386545,-121.9537150
28809,Northeast 155th Street,98019,47.7386440,-121.9534230
28813,Northeast 155th Street,98019,47.7386790,-121.9531825
28817,Northeast 155th Street,98019,47.7386875,-121.9529530
28903,Northeast 155th Street,98019,47.7386785,-121.9527315
28907,Northeast 155th Street,98019,47.7386175,-121.9525215
28913,Northeast 155th Street,98019,47.7385505,-121.9522995
28919,Northeast 155th Street,98019,47.7384860,-121.9517585
29007,Northeast 155th Street,98019,47.7384700,-121.9515200
29013,Northeast 155th Street,98019,47.7384470,-121.9512510
29025,Northeast 155th Street,98019,47.7383962,-121.9503572
29031,Northeast 155th Street,98019,47.7383635,-121.9501217
29035,Northeast 155th Street,98019,47.7383125,-121.9498155
29039,Northeast 155th Street,98019,47.7382645,-121.9495460
28600,Northeast 156th Street,98019,47.7403065,-121.9565645
28602,Northeast 156th Street,98019,47.7400495,-121.9563760
28606,Northeast 156th Street,98019,47.7400415,-121.9561085
28610,Northeast 156th Street,98019,47.7400360,-121.9558250
28614,Northeast 156th Street,98019,47.7400305,-121.9555395
28618,Northeast 156th Street,98019,47.7400285,-121.9552780
28620,Northeast 156th Street,98019,47.7402630,-121.9552405
28714,Northeast 156th Street,98019,47.7399620,-121.9543725
28902,Northeast 156th Street,98019,47.7402160,-121.9532110
28904,Northeast 156th Street,98019,47.7401735,-121.9529550
28906,Northeast 156th Street,98019,47.7401475,-121.9526930
28910,Northeast 156th Street,98019,47.7401360,-121.9523830
28912,Northeast 156th Street,98019,47.7401020,-121.9520855
28914,Northeast 156th Street,98019,47.7400800,-121.9517855
29004,Northeast 156th Street,98019,47.7400310,-121.9513825
29016,Northeast 156th Street,98019,47.7400085,-121.9510570
29018,Northeast 156th Street,98019,47.7399735,-121.9507555
28602,Northeast 155th Street,98019,47.7392845,-121.9564575
28604,Northeast 155th Street,98019,47.7392570,-121.9562375
28608,Northeast 155th Street,98019,47.7392415,-121.9559940
28612,Northeast 155th Street,98019,47.7392215,-121.9557690
28616,Northeast 155th Street,98019,47.7391920,-121.9555430
28622,Northeast 155th Street,98019,47.7391780,-121.9553195
28702,Northeast 155th Street,98019,47.7391485,-121.9550850
28708,Northeast 155th Street,98019,47.7391355,-121.9548540
28712,Northeast 155th Street,98019,47.7391130,-121.9546000
28718,Northeast 155th Street,98019,47.7390655,-121.9543485
28724,Northeast 155th Street,98019,47.7390395,-121.9540855
28804,Northeast 155th Street,98019,47.7390170,-121.9538245
28808,Northeast 155th Street,98019,47.7390145,-121.9535175
15507,289th Place Northeast,98019,47.7390980,-121.9531310
28601,Northeast 156th Street,98019,47.7396930,-121.9563850
28605,Northeast 156th Street,98019,47.7396847,-121.9561501
28609,Northeast 156th Street,98019,47.7396765,-121.9559370
28613,Northeast 156th Street,98019,47.7396710,-121.9557100
28617,Northeast 156th Street,98019,47.7396690,-121.9554510
28621,Northeast 156th Street,98019,47.7396590,-121.9552235
28701,Northeast 156th Street,98019,47.7396565,-121.9549940
28709,Northeast 156th Street,98019,47.7396340,-121.9547515
28713,Northeast 156th Street,98019,47.7396105,-121.9545100
28715,Northeast 156th Street,98019,47.7395950,-121.9542635
28723,Northeast 156th Street,98019,47.7395795,-121.9540175
28805,Northeast 156th Street,98019,47.7395600,-121.9537460
15521,289th Place Northeast,98019,47.7395840,-121.9534395
15517,289th Place Northeast,98019,47.7393995,-121.9533445
15511,289th Place Northeast,98019,47.7392410,-121.9532415
15508,291st Avenue Northeast,98019,47.7386586,-121.9496231
15514,291st Avenue Northeast,98019,47.7388371,-121.9496233
15522,291st Avenue Northeast,98019,47.7390259,-121.9496072
15528,291st Avenue Northeast,98019,47.7392368,-121.9496051
15534,291st Avenue Northeast,98019,47.7394045,-121.9496240
29023,Northeast 155th Place,98019,47.7389681,-121.9501375
29019,Northeast 155th Place,98019,47.7389961,-121.9504175
29015,Northeast 155th Place,98019,47.7390079,-121.9507000
29009,Northeast 155th Place,98019,47.7390331,-121.9509950
29005,Northeast 155th Place,98019,47.7390676,-121.9512640
29006,Northeast 155th Street,98019,47.7387975,-121.9513215
29012,Northeast 155th Street,98019,47.7387655,-121.9510375
29016,Northeast 155th Street,98019,47.7387415,-121.9507490
29022,Northeast 155th Street,98019,47.7387165,-121.9504645
29030,Northeast 155th Street,98019,47.7386960,-121.9501945
15513,290th Place Northeast,98019,47.7391685,-121.9518057
15509,290th Place Northeast,98019,47.7390005,-121.9518130
15505,290th Place Northeast,98019,47.7388505,-121.9518550
15508,289th Place Northeast,98019,47.7392820,-121.9526570
15518,289th Place Northeast,98019,47.7395035,-121.9528080
28901,Northeast 156th Street,98019,47.7397035,-121.9529715
28905,Northeast 156th Street,98019,47.7397755,-121.9527195
28909,Northeast 156th Street,98019,47.7397830,-121.9524160
15516,289th Place Northeast,98019,47.7395495,-121.9522730
15510,289th Place Northeast,98019,47.7393875,-121.9522910
29001,Northeast 156th Street,98019,47.7397302,-121.9515775
29013,Northeast 156th Street,98019,47.7397066,-121.9512803
28915,Northeast 156th Street,98019,47.7397410,-121.9518455
28911,Northeast 156th Street,98019,47.7397540,-121.9521350
29017,Northeast 156th Street,98019,47.7396783,-121.9509978
29023,Northeast 156th Street,98019,47.7396575,-121.9507162
29027,Northeast 156th Street,98019,47.7396151,-121.9504481
29029,Northeast 156th Street,98019,47.7395740,-121.9501805
29026,Northeast 155th Place,98019,47.7393012,-121.9501461
29020,Northeast 155th Place,98019,47.7393275,-121.9504251
29014,Northeast 155th Place,98019,47.7393544,-121.9507049
29008,Northeast 155th Place,98019,47.7393786,-121.9509692
29006,Northeast 155th Place,98019,47.7394063,-121.9512650
29004,Northeast 155th Place,98019,47.7394060,-121.9515085
29002,Northeast 155th Place,98019,47.7394040,-121.9517530
29000,Northeast 155th Place,98019,47.7393825,-121.9519855
14315,281st Place Northeast,98019,47.7311575,-121.9635160
14303,281st Place Northeast,98019,47.7311335,-121.9640525
14302,281st Place Northeast,98019,47.7308570,-121.9640190
14308,281st Place Northeast,98019,47.7306615,-121.9635270
14314,281st Place Northeast,98019,47.7306785,-121.9631600
14320,281st Place Northeast,98019,47.7306740,-121.9626745
14324,281st Place Northeast,98019,47.7306195,-121.9622365
14309,282nd Place Northeast,98019,47.7306765,-121.9617445
14321,282nd Place Northeast,98019,47.7309495,-121.9616345
28117,Northeast 144th Street,98019,47.7310550,-121.9621350
14328,281st Place Northeast,98019,47.7310210,-121.9625770
14231,280th Avenue Northeast,98019,47.7306200,-121.9645375
28000,Northeast 142nd Place,98019,47.7288591,-121.9664815
28000,Northeast 142nd Place,98019,47.7289771,-121.9665330
28000,Northeast 142nd Place,98019,47.7291231,-121.9665360
28000,Northeast 142nd Place,98019,47.7292646,-121.9664990
28000,Northeast 142nd Place,98019,47.7294094,-121.9665135
28000,Northeast 142nd Place,98019,47.7295441,-121.9665100
28000,Northeast 142nd Place,98019,47.7296551,-121.9664945
28000,Northeast 142nd Place,98019,47.7297891,-121.9665245
28000,Northeast 142nd Place,98019,47.7299126,-121.9664935
28000,Northeast 142nd Place,98019,47.7300526,-121.9665090
28000,Northeast 142nd Place,98019,47.7301901,-121.9665780
28000,Northeast 142nd Place,98019,47.7303364,-121.9664470
28000,Northeast 142nd Place,98019,47.7303228,-121.9660960
28000,Northeast 142nd Place,98019,47.7303233,-121.9658755
28000,Northeast 142nd Place,98019,47.7302918,-121.9656825
28000,Northeast 142nd Place,98019,47.7303118,-121.9654930
28000,Northeast 142nd Place,98019,47.7303003,-121.9652975
28000,Northeast 142nd Place,98019,47.7302858,-121.9651285
28000,Northeast 142nd Place,98019,47.7302581,-121.9649170
28000,Northeast 142nd Place,98019,47.7302343,-121.9643175
28000,Northeast 142nd Place,98019,47.7302533,-121.9639042
28000,Northeast 142nd Place,98019,47.7301698,-121.9637127
28000,Northeast 142nd Place,98019,47.7301233,-121.9635242
28000,Northeast 142nd Place,98019,47.7300628,-121.9633167
28000,Northeast 142nd Place,98019,47.7300173,-121.9631352
28000,Northeast 142nd Place,98019,47.7299478,-121.9629452
28000,Northeast 142nd Place,98019,47.7298963,-121.9627527
28000,Northeast 142nd Place,98019,47.7286531,-121.9658401
28000,Northeast 142nd Place,98019,47.7286216,-121.9656521
28000,Northeast 142nd Place,98019,47.7285786,-121.9654961
28000,Northeast 142nd Place,98019,47.7285656,-121.9653206
28000,Northeast 142nd Place,98019,47.7285521,-121.9650866
28000,Northeast 142nd Place,98019,47.7285396,-121.9649581
28000,Northeast 142nd Place,98019,47.7285236,-121.9647596
28000,Northeast 142nd Place,98019,47.7285071,-121.9645906
28000,Northeast 142nd Place,98019,47.7284906,-121.9643656
28000,Northeast 142nd Place,98019,47.7288015,-121.9643532
28000,Northeast 142nd Place,98019,47.7288200,-121.9645097
28000,Northeast 142nd Place,98019,47.7288020,-121.9647142
28000,Northeast 142nd Place,98019,47.7288760,-121.9649112
28000,Northeast 142nd Place,98019,47.7288240,-121.9651252
28000,Northeast 142nd Place,98019,47.7289800,-121.9650652
28000,Northeast 142nd Place,98019,47.7291760,-121.9650977
28000,Northeast 142nd Place,98019,47.7291440,-121.9652622
28000,Northeast 142nd Place,98019,47.7289830,-121.9655077
28000,Northeast 142nd Place,98019,47.7288680,-121.9654887
28000,Northeast 142nd Place,98019,47.7288920,-121.9657607
28000,Northeast 142nd Place,98019,47.7291295,-121.9656837
28000,Northeast 142nd Place,98019,47.7290545,-121.9660672
28000,Northeast 142nd Place,98019,47.7292085,-121.9660682
28000,Northeast 142nd Place,98019,47.7293710,-121.9659202
28000,Northeast 142nd Place,98019,47.7293995,-121.9661067
28000,Northeast 142nd Place,98019,47.7296880,-121.9660892
28000,Northeast 142nd Place,98019,47.7296800,-121.9658887
28000,Northeast 142nd Place,98019,47.7299535,-121.9658907
28000,Northeast 142nd Place,98019,47.7299960,-121.9656442
28000,Northeast 142nd Place,98019,47.7296410,-121.9655812
28000,Northeast 142nd Place,98019,47.7295145,-121.9655687
28000,Northeast 142nd Place,98019,47.7299875,-121.9654832
28000,Northeast 142nd Place,98019,47.7298690,-121.9652152
28000,Northeast 142nd Place,98019,47.7300280,-121.9652147
28000,Northeast 142nd Place,98019,47.7296040,-121.9651032
28000,Northeast 142nd Place,98019,47.7294620,-121.9651632
28000,Northeast 142nd Place,98019,47.7294835,-121.9649257
28000,Northeast 142nd Place,98019,47.7294690,-121.9647177
28000,Northeast 142nd Place,98019,47.7294235,-121.9645232
28000,Northeast 142nd Place,98019,47.7294390,-121.9643392
28000,Northeast 142nd Place,98019,47.7298615,-121.9648467
28000,Northeast 142nd Place,98019,47.7300005,-121.9648482
28000,Northeast 142nd Place,98019,47.7299630,-121.9645387
28000,Northeast 142nd Place,98019,47.7299495,-121.9643177
28000,Northeast 142nd Place,98019,47.7297675,-121.9643767
28000,Northeast 142nd Place,98019,47.7296240,-121.9643782
28000,Northeast 142nd Place,98019,47.7291495,-121.9647027
28000,Northeast 142nd Place,98019,47.7291270,-121.9645507
28000,Northeast 142nd Place,98019,47.7291445,-121.9643417
28000,Northeast 142nd Place,98019,47.7298546,-121.9639117
28000,Northeast 142nd Place,98019,47.7296701,-121.9639282
28000,Northeast 142nd Place,98019,47.7295461,-121.9639277
28000,Northeast 142nd Place,98019,47.7294071,-121.9639552
28000,Northeast 142nd Place,98019,47.7292736,-121.9639302
28000,Northeast 142nd Place,98019,47.7291556,-121.9639232
28000,Northeast 142nd Place,98019,47.7290136,-121.9638912
28000,Northeast 142nd Place,98019,47.7288791,-121.9638822
28000,Northeast 142nd Place,98019,47.7287561,-121.9639127
28000,Northeast 142nd Place,98019,47.7283817,-121.9638355
28000,Northeast 142nd Place,98019,47.7297835,-121.9623877
28000,Northeast 142nd Place,98019,47.7297315,-121.9621722
28000,Northeast 142nd Place,98019,47.7296710,-121.9620062
28000,Northeast 142nd Place,98019,47.7295965,-121.9618107
28000,Northeast 142nd Place,98019,47.7295460,-121.9616227
28000,Northeast 142nd Place,98019,47.7295145,-121.9612257
28000,Northeast 142nd Place,98019,47.7296545,-121.9612542
28000,Northeast 142nd Place,98019,47.7297985,-121.9612477
28000,Northeast 142nd Place,98019,47.7298433,-121.9608209
28000,Northeast 142nd Place,98019,47.7296998,-121.9607814
28000,Northeast 142nd Place,98019,47.7295588,-121.9608299
28000,Northeast 142nd Place,98019,47.7294188,-121.9608469
28000,Northeast 142nd Place,98019,47.7292693,-121.9607899
28000,Northeast 142nd Place,98019,47.7291173,-121.9608224
28000,Northeast 142nd Place,98019,47.7289673,-121.9608364
28000,Northeast 142nd Place,98019,47.7288378,-121.9608124
28000,Northeast 142nd Place,98019,47.7286878,-121.9608139
28000,Northeast 142nd Place,98019,47.7285738,-121.9607854
28000,Northeast 142nd Place,98019,47.7284358,-121.9607724
28000,Northeast 142nd Place,98019,47.7291367,-121.9612447
28000,Northeast 142nd Place,98019,47.7290262,-121.9612322
28000,Northeast 142nd Place,98019,47.7288907,-121.9612237
28000,Northeast 142nd Place,98019,47.7285927,-121.9612312
28000,Northeast 142nd Street,98019,47.7284612,-121.9612407
28000,Northeast 142nd Place,98019,47.7287423,-121.9612297
28000,Northeast 142nd Place,98019,47.7286208,-121.9616176
28000,Northeast 142nd Place,98019,47.7287443,-121.9617571
28000,Northeast 142nd Place,98019,47.7288573,-121.9618636
28000,Northeast 142nd Place,98019,47.7289688,-121.9620126
28000,Northeast 142nd Place,98019,47.7290743,-121.9621321
28000,Northeast 142nd Place,98019,47.7291903,-121.9622491
28000,Northeast 142nd Place,98019,47.7293003,-121.9623991
28000,Northeast 142nd Place,98019,47.7294438,-121.9625141
28000,Northeast 142nd Place,98019,47.7296765,-121.9632455
28000,Northeast 142nd Place,98019,47.7296294,-121.9629664
28000,Northeast 142nd Place,98019,47.7294488,-121.9630248
28000,Northeast 142nd Place,98019,47.7292988,-121.9629683
28000,Northeast 142nd Place,98019,47.7291968,-121.9628258
28000,Northeast 142nd Place,98019,47.7290873,-121.9627258
28000,Northeast 142nd Place,98019,47.7289628,-121.9625868
28000,Northeast 142nd Place,98019,47.7288308,-121.9623473
28000,Northeast 142nd Place,98019,47.7287428,-121.9625058
28000,Northeast 142nd Place,98019,47.7285073,-121.9622708
28000,Northeast 142nd Place,98019,47.7286433,-121.9620998
28000,Northeast 142nd Place,98019,47.7284968,-121.9619543
28000,Northeast 142nd Place,98019,47.7283398,-121.9618748
28000,Northeast 142nd Place,98019,47.7282083,-121.9616702
28000,Northeast 142nd Place,98019,47.7281813,-121.9614592
28000,Northeast 142nd Place,98019,47.7281963,-121.9612427
28000,Northeast 142nd Place,98019,47.7281823,-121.9609982
28000,Northeast 142nd Place,98019,47.7281368,-121.9607952
28000,Northeast 142nd Place,98019,47.7281368,-121.9606102
14238,278th Avenue Northeast,98019,47.7294925,-121.9670660
14304,278th Avenue Northeast,98019,47.7297645,-121.9670465
14135,278th Avenue Northeast,98019,47.7283145,-121.9676660
14127,278th Avenue Northeast,98019,47.7278400,-121.9677665
14121,278th Avenue Northeast,98019,47.7276265,-121.9677970
14115,278th Avenue Northeast,98019,47.7273925,-121.9676805
14109,278th Avenue Northeast,98019,47.7272495,-121.9678735
14105,278th Avenue Northeast,98019,47.7270125,-121.9678745
14101,278th Avenue Northeast,98019,47.7268225,-121.9676960
14102,278th Avenue Northeast,98019,47.7267930,-121.9673485
14106,278th Avenue Northeast,98019,47.7269255,-121.9671065
14110,278th Avenue Northeast,98019,47.7272385,-121.9671150
14120,278th Avenue Northeast,98019,47.7276435,-121.9671490
14128,278th Avenue Northeast,98019,47.7279365,-121.9671990
14134,278th Avenue Northeast,98019,47.7282020,-121.9671030
14144,280th Lane Northeast,98019,47.7281625,-121.9664965
14143,280th Lane Northeast,98019,47.7279390,-121.9665670
14139,280th Lane Northeast,98019,47.7277360,-121.9665430
27805,Northeast 141st Place,98019,47.7272435,-121.9667975
27815,Northeast 141st Place,98019,47.7272370,-121.9664155
27825,Northeast 141st Place,98019,47.7272050,-121.9660490
27820,Northeast 141st Place,98019,47.7275700,-121.9661185
14140,280th Lane Northeast,98019,47.7280690,-121.9659800
27828,Northeast 141st Place,98019,47.7275250,-121.9656575
14134,280th Lane Northeast,98019,47.7279925,-121.9655715
14130,280th Lane Northeast,98019,47.7279660,-121.9652430
14124,280th Lane Northeast,98019,47.7279440,-121.9648550
14120,280th Lane Northeast,98019,47.7278405,-121.9645645
14114,280th Lane Northeast,98019,47.7277120,-121.9642045
14108,280th Lane Northeast,98019,47.7275295,-121.9639965
14115,280th Lane Northeast,98019,47.7274280,-121.9646320
14131,280th Lane Northeast,98019,47.7275855,-121.9651810
14112,279th Lane Northeast,98019,47.7271980,-121.9652480
14108,279th Lane Northeast,98019,47.7269665,-121.9650915
14111,279th Lane Northeast,98019,47.7270210,-121.9656990
14101,279th Lane Northeast,98019,47.7267025,-121.9656215
14107,280th Lane Northeast,98019,47.7272820,-121.9644130
14102,280th Lane Northeast,98019,47.7272530,-121.9637160
14032,280th Lane Northeast,98019,47.7269890,-121.9636605
14101,280th Lane Northeast,98019,47.7270045,-121.9642225
14031,280th Lane Northeast,98019,47.7267690,-121.9641865
14024,280th Lane Northeast,98019,47.7267155,-121.9636750
14016,280th Lane Northeast,98019,47.7264660,-121.9636360
14023,280th Lane Northeast,98019,47.7265245,-121.9642160
14015,280th Lane Northeast,98019,47.7262655,-121.9641895
14008,280th Lane Northeast,98019,47.7262220,-121.9634765
14007,280th Lane Northeast,98019,47.7259960,-121.9641555
14104,279th Lane Northeast,98019,47.7266835,-121.9651295
14033,279th Lane Northeast,98019,47.7263800,-121.9656565
14030,279th Lane Northeast,98019,47.7263980,-121.9650290
14025,279th Lane Northeast,98019,47.7261055,-121.9656730
14026,279th Lane Northeast,98019,47.7261160,-121.9650435
14017,279th Lane Northeast,98019,47.7257830,-121.9656245
14020,279th Lane Northeast,98019,47.7258460,-121.9650330
14009,279th Lane Northeast,98019,47.7253555,-121.9656775
27920,Northeast 140th Place,98019,47.7254890,-121.9648380
27930,Northeast 140th Place,98019,47.7255510,-121.9644155
14003,280th Lane Northeast,98019,47.7257225,-121.9641020
28006,Northeast 140th Place,98019,47.7258110,-121.9635080
28014,Northeast 140th Place,98019,47.7258355,-121.9631940
28022,Northeast 140th Place,98019,47.7257485,-121.9628635
28023,Northeast 140th Place,98019,47.7255350,-121.9627830
28011,Northeast 140th Place,98019,47.7253780,-121.9630305
28003,Northeast 140th Place,98019,47.7252590,-121.9633715
27933,Northeast 140th Place,98019,47.7252315,-121.9638660
27927,Northeast 140th Place,98019,47.7251335,-121.9642575
14000,279th Lane Northeast,98019,47.7248535,-121.9649740
14002,279th Lane Northeast,98019,47.7250885,-121.9649980
27710,Northeast 141st Street,98019,47.7264055,-121.9676985
27722,Northeast 141st Street,98019,47.7264400,-121.9672370
27804,Northeast 141st Street,98019,47.7265160,-121.9667445
27812,Northeast 141st Street,98019,47.7266525,-121.9663995
27818,Northeast 141st Street,98019,47.7265180,-121.9660795
14036,278th Place Northeast,98019,47.7261450,-121.9661145
14029,278th Place Northeast,98019,47.7256520,-121.9666945
14037,278th Place Northeast,98019,47.7259775,-121.9667075
14034,278th Place Northeast,98019,47.7258250,-121.9661435
14022,278th Place Northeast,98019,47.7255085,-121.9661080
14021,278th Place Northeast,98019,47.7252800,-121.9666785
14012,278th Place Northeast,98019,47.7251905,-121.9660900
14006,278th Place Northeast,98019,47.7248765,-121.9660975
14001,279th Lane Northeast,98019,47.7250555,-121.9656000
28208,Northeast 141st Place,98019,47.7280340,-121.9635660
28204,Northeast 141st Place,98019,47.7277625,-121.9632405
28212,Northeast 141st Place,98019,47.7278420,-121.9629090
28220,Northeast 141st Place,98019,47.7277985,-121.9625860
28226,Northeast 141st Place,98019,47.7277455,-121.9622395
28232,Northeast 141st Place,98019,47.7277125,-121.9619170
28236,Northeast 141st Place,98019,47.7277175,-121.9615460
14036,282nd Lane Northeast,98019,47.7276115,-121.9612520
14032,282nd Lane Northeast,98019,47.7274140,-121.9611145
14028,282nd Lane Northeast,98019,47.7271945,-121.9610300
14029,282nd Lane Northeast,98019,47.7270100,-121.9616060
14033,282nd Lane Northeast,98019,47.7272455,-121.9616300
14020,282nd Court Northeast,98019,47.7268310,-121.9619835
28229,Northeast 141st Place,98019,47.7273375,-121.9621430
14021,282nd Court Northeast,98019,47.7266745,-121.9623780
14025,282nd Court Northeast,98019,47.7268860,-121.9626925
14031,282nd Court Northeast,98019,47.7271730,-121.9626865
14035,282nd Court Northeast,98019,47.7273895,-121.9627475
14233,283rd Place Northeast,98019,47.7277660,-121.9607140
14220,283rd Place Northeast,98019,47.7277425,-121.9602320
28324,Northeast 140th Place,98019,47.7273365,-121.9594890
28202,Northeast 140th Place,98019,47.7262410,-121.9623235
28210,Northeast 140th Place,98019,47.7263585,-121.9620310
28216,Northeast 140th Place,98019,47.7264995,-121.9616855
14011,282nd Lane Northeast,98019,47.7266730,-121.9613735
14010,282nd Lane Northeast,98019,47.7268620,-121.9608350
28234,Northeast 140th Place,98019,47.7269715,-121.9604915
14205,283rd Place Northeast,98019,47.7271960,-121.9602875
14221,283rd Place Northeast,98019,47.7274235,-121.9604480
28312,Northeast 140th Place,98019,47.7272500,-121.9597635
28205,Northeast 140th Place,98019,47.7258235,-121.9619100
13919,282nd Court Northeast,98019,47.7255565,-121.9612180
13925,282nd Court Northeast,98019,47.7258490,-121.9612905
28211,Northeast 140th Place,98019,47.7260405,-121.9614465
13911,282nd Court Northeast,98019,47.7256160,-121.9607580
13910,282nd Court Northeast,98019,47.7258130,-121.9604150
13920,282nd Court Northeast,98019,47.7260390,-121.9603610
28225,Northeast 140th Place,98019,47.7264085,-121.9605745
13926,282nd Court Northeast,98019,47.7262555,-121.9608975
13929,283rd Avenue Northeast,98019,47.7264735,-121.9602065
13917,283rd Avenue Northeast,98019,47.7261750,-121.9599515
13909,283rd Avenue Northeast,98019,47.7259630,-121.9597645
13908,283rd Avenue Northeast,98019,47.7262215,-121.9591115
13918,283rd Avenue Northeast,98019,47.7264575,-121.9593170
28307,Northeast 140th Place,98019,47.7267005,-121.9597100
28315,Northeast 140th Place,98019,47.7268305,-121.9593745
14219,284th Place Northeast,98019,47.7279065,-121.9581520
14215,284th Place Northeast,98019,47.7276580,-121.9580845
14223,284th Place Northeast,98019,47.7280530,-121.9582935
14224,284th Place Northeast,98019,47.7282005,-121.9577940
14220,284th Place Northeast,98019,47.7280495,-121.9576450
14209,284th Place Northeast,98019,47.7275020,-121.9580705
14201,284th Place Northeast,98019,47.7273220,-121.9579765
14133,284th Place Northeast,98019,47.7271820,-121.9578515
14129,284th Place Northeast,98019,47.7270525,-121.9577245
14125,284th Place Northeast,98019,47.7269175,-121.9576380
14128,284th Place Northeast,98019,47.7272205,-121.9572375
14134,284th Place Northeast,98019,47.7273615,-121.9573745
14202,284th Place Northeast,98019,47.7274910,-121.9575025
14214,284th Place Northeast,98019,47.7279295,-121.9573840
14210,284th Place Northeast,98019,47.7277850,-121.9571970
14208,284th Place Northeast,98019,47.7276675,-121.9570290
14206,284th Place Northeast,98019,47.7275425,-121.9568785
14126,284th Place Northeast,98019,47.7273965,-121.9566070
14124,284th Place Northeast,98019,47.7272745,-121.9565340
14122,284th Place Northeast,98019,47.7270210,-121.9570740
14118,284th Place Northeast,98019,47.7268805,-121.9569630
14112,284th Place Northeast,98019,47.7267245,-121.9568905
14106,284th Place Northeast,98019,47.7265355,-121.9568460
14102,284th Place Northeast,98019,47.7264075,-121.9567530
28508,Northeast Roney Road,98019,47.7266125,-121.9563575
28514,Northeast Roney Road,98019,47.7266685,-121.9561685
28522,Northeast Roney Road,98019,47.7267845,-121.9559235
28530,Northeast Roney Road,98019,47.7268590,-121.9557235
13840,283rd Avenue Northeast,98019,47.7260050,-121.9590385
13832,283rd Avenue Northeast,98019,47.7258150,-121.9588615
13826,283rd Avenue Northeast,98019,47.7256420,-121.9587065
13827,283rd Avenue Northeast,98019,47.7254905,-121.9591050
13839,283rd Avenue Northeast,98019,47.7258525,-121.9594190
13830,282nd Court Northeast,98019,47.7253205,-121.9595545
13838,282nd Court Northeast,98019,47.7254550,-121.9596740
13842,282nd Court Northeast,98019,47.7255655,-121.9599225
13841,282nd Court Northeast,98019,47.7255010,-121.9601995
13837,282nd Court Northeast,98019,47.7253315,-121.9604070
13831,282nd Court Northeast,98019,47.7251700,-121.9603025
13833,283rd Avenue Northeast,98019,47.7256461,-121.9592270
14031,284th Circle Northeast,98019,47.7260600,-121.9565435
14023,284th Circle Northeast,98019,47.7259365,-121.9564145
14017,284th Circle Northeast,98019,47.7258250,-121.9563080
14033,285th Circle Northeast,98019,47.7263135,-121.9559005
14025,285th Circle Northeast,98019,47.7261790,-121.9557735
14019,285th Circle Northeast,98019,47.7260505,-121.9556395
14011,285th Circle Northeast,98019,47.7258900,-121.9555370
14007,285th Circle Northeast,98019,47.7257475,-121.9556780
14003,285th Circle Northeast,98019,47.7256535,-121.9558810
14032,284th Circle Northeast,98019,47.7258745,-121.9569555
14024,284th Circle Northeast,98019,47.7257395,-121.9568645
14018,284th Circle Northeast,98019,47.7255920,-121.9567465
14012,284th Circle Northeast,98019,47.7254585,-121.9565665
14008,284th Circle Northeast,98019,47.7254360,-121.9563105
14004,284th Circle Northeast,98019,47.7255530,-121.9560980
14203,Batten Road Northeast,98019,47.7261850,-121.9547445
28311,Northeast Roney Road,98019,47.7252325,-121.9582975
28305,Northeast Roney Road,98019,47.7251515,-121.9584685
28231,Northeast Roney Road,98019,47.7250650,-121.9586580
28225,Northeast Roney Road,98019,47.7249955,-121.9588635
13820,282nd Court Northeast,98019,47.7247790,-121.9591150
13816,282nd Court Northeast,98019,47.7246005,-121.9592060
13815,282nd Court Northeast,98019,47.7245130,-121.9594925
13817,282nd Court Northeast,98019,47.7245270,-121.9597465
13821,282nd Court Northeast,98019,47.7246485,-121.9599210
13827,282nd Court Northeast,98019,47.7247960,-121.9599450
28209,Northeast Roney Road,98019,47.7246555,-121.9604010
13824,282nd Court Northeast,98019,47.7249672,-121.9592186
13809,284th Court Northeast,98019,47.7243355,-121.9580935
13811,284th Court Northeast,98019,47.7245310,-121.9579565
13812,284th Court Northeast,98019,47.7246285,-121.9577280
13810,284th Court Northeast,98019,47.7245480,-121.9574485
13808,284th Court Northeast,98019,47.7244655,-121.9572750
28000,Northeast 142nd Place,98019,47.7291732,-121.9649107
26855,Northeast Boyd Way,98019,47.7262417,-121.9804686
26619,Northeast Ring Street,98019,47.7391350,-121.9826955
26501,Northeast Stephens Street,98019,47.7398970,-121.9842205
14241,Main Street Northeast,98019,47.7292705,-121.9874835
14325,3rd Circle Northeast,98019,47.7304063,-121.9815518
14525,Main Street Northeast,98019,47.7330310,-121.9876195
27422,Northeast 152nd Court,98019,47.7383943,-121.9727224
26710,Northeast Boyd Way,98019,47.7278642,-121.9820036
26714,Northeast Boyd Way,98019,47.7279284,-121.9819011
26716,Northeast Boyd Way,98019,47.7280006,-121.9818010
26707,Northeast Walden Way,98019,47.7280724,-121.9816921
26720,Northeast Boyd Way,98019,47.7276570,-121.9815967
26724,Northeast Boyd Way,98019,47.7277316,-121.9815115
26726,Northeast Boyd Way,98019,47.7277996,-121.9814164
26741,Northeast Walden Way,98019,47.7278691,-121.9813226
26751,Northeast Walden Way,98019,47.7279352,-121.9812243
14111,3rd Avenue Northeast,98019,47.7280700,-121.9806097
26758,Northeast Walden Way,98019,47.7279853,-121.9807087
26831,Northeast Walden Way,98019,47.7270580,-121.9800227
27101,Northeast Walden Way,98019,47.7265287,-121.9765660
15922,Main Street Northeast,98019,47.7435456,-121.9854480
15904,Main Street Northeast,98019,47.7432905,-121.9854182
26827,Northeast Walden Way,98019,47.7271846,-121.9803141
26823,Northeast Walden Way,98019,47.7272600,-121.9802269
28000,Northeast 142nd Place,98019,47.7302532,-121.9645151
28000,Northeast 142nd Place,98019,47.7302442,-121.9647216
14112,270th Lane Northeast,98019,47.7272902,-121.9772287
14120,270th Lane Northeast,98019,47.7273816,-121.9772251
27104,Northeast Walden Way,98019,47.7273365,-121.9752602
26600,Northeast 143rd Place,98019,47.7300589,-121.9832666
14136,268th Lane Northeast,98019,47.7273087,-121.9791503
14152,270th Lane Northeast,98019,47.7277558,-121.9772303
14141,271st Place Northeast,98019,47.7276516,-121.9768346
14352,271st Circle Northeast,98019,47.7308672,-121.9743084
26918,Northeast 141st Place,98019,47.7284224,-121.9777258
27005,Northeast 141st Place,98019,47.7281185,-121.9768442
26911,Northeast Walden Way,98019,47.7269680,-121.9778155
14144,270th Lane Northeast,98019,47.7276618,-121.9772309
14303,271st Place Northeast,98019,47.7303287,-121.9756757
14315,271st Place Northeast,98019,47.7309199,-121.9756752
14149,271st Place Northeast,98019,47.7277447,-121.9768368
27006,Northeast 141st Place,98019,47.7284197,-121.9771099
27001,Northeast 141st Place,98019,47.7281290,-121.9772330
14342,271st Circle Northeast,98019,47.7302049,-121.9742451
26833,Northeast Walden Way,98019,47.7269644,-121.9798382
26904,Northeast Walden Way,98019,47.7273594,-121.9782557
26915,Northeast Walden Way,98019,47.7269613,-121.9776429
14139,269th Lane Northeast,98019,47.7274216,-121.9787446
26837,Northeast Walden Way,98019,47.7269570,-121.9794714
14346,271st Circle Northeast,98019,47.7305381,-121.9743036
14136,270th Lane Northeast,98019,47.7275694,-121.9772300
14223,272nd Place Northeast,98019,47.7297425,-121.9742486
26908,Northeast Walden Way,98019,47.7273494,-121.9780905
14336,271st Circle Northeast,98019,47.7302300,-121.9747359
14101,271st Place Northeast,98019,47.7271862,-121.9768496
26843,Northeast Walden Way,98019,47.7269567,-121.9791070
14332,271st Circle Northeast,98019,47.7302336,-121.9750604
14160,270th Lane Northeast,98019,47.7278494,-121.9772292
26906,Northeast 141st Place,98019,47.7284212,-121.9782836
26845,Northeast Walden Way,98019,47.7269636,-121.9789327
14305,271st Place Northeast,98019,47.7304388,-121.9756677
14173,271st Place Northeast,98019,47.7280250,-121.9768400
14157,271st Place Northeast,98019,47.7278379,-121.9768366
14133,271st Place Northeast,98019,47.7275585,-121.9768363
14125,271st Place Northeast,98019,47.7274646,-121.9768327
14128,270th Lane Northeast,98019,47.7274762,-121.9772261
26917,Northeast Walden Way,98019,47.7269553,-121.9774683
14109,271st Place Northeast,98019,47.7272794,-121.9768341
26847,Northeast Walden Way,98019,47.7269693,-121.9787393
14117,271st Place Northeast,98019,47.7273721,-121.9768331
26903,Northeast Walden Way,98019,47.7269611,-121.9783752
26912,Northeast Walden Way,98019,47.7273559,-121.9779120
14168,270th Lane Northeast,98019,47.7279421,-121.9772368
27010,Northeast 141st Place,98019,47.7284150,-121.9767439
14211,272nd Place Northeast,98019,47.7291029,-121.9742204
27008,Northeast 141st Place,98019,47.7284152,-121.9769381
26907,Northeast Walden Way,98019,47.7269643,-121.9782025
14348,271st Circle Northeast,98019,47.7306477,-121.9743179
14163,269th Lane Northeast,98019,47.7277510,-121.9787472
26818,Northeast 141st Place,98019,47.7284184,-121.9786092
14209,272nd Place Northeast,98019,47.7291109,-121.9743811
14155,269th Lane Northeast,98019,47.7276404,-121.9787437
14334,271st Circle Northeast,98019,47.7302314,-121.9748973
14147,269th Lane Northeast,98019,47.7275309,-121.9787447
26849,Northeast Walden Way,98019,47.7269512,-121.9785675
14338,271st Circle Northeast,98019,47.7302180,-121.9745746
14330,271st Circle Northeast,98019,47.7302274,-121.9752225
14356,271st Circle Northeast,98019,47.7311534,-121.9742560
27004,Northeast 141st Place,98019,47.7284112,-121.9772910
14165,271st Place Northeast,98019,47.7279312,-121.9768375
26841,Northeast Walden Way,98019,47.7269615,-121.9792790
26909,Northeast Walden Way,98019,47.7269601,-121.9780086
14176,270th Lane Northeast,98019,47.7280353,-121.9772282
14360,271st Circle Northeast,98019,47.7311510,-121.9745802
14358,271st Circle Northeast,98019,47.7311692,-121.9744199
14205,272nd Place Northeast,98019,47.7291008,-121.9746971
