House number,Street name,Postal code,Latitude,Longitude
14379,United States Highway 97A,98822,47.6814684,-120.2067301
15029,United States Highway 97A,98822,47.6940408,-120.2073522
1029,Crest Loop,98822,47.6771281,-120.2129724
14946,Golden Delicious Street,98822,47.6927704,-120.2124291
2117,Lakeshore Drive,98822,47.6712918,-120.2141979
2117,Lakeshore Drive,98822,47.6664235,-120.2191051
2331,Albin Drive,98822,47.6728321,-120.2154678
13486,Dunn Street,98822,47.6667404,-120.2286023
15333,United States Highway 97A,98822,47.7026187,-120.2116954
15007,Allison Place,98822,47.6774138,-120.2139626
14907,United States Highway 97A,98822,47.6904863,-120.2056933
2117,Lakeshore Drive,98822,47.6717454,-120.2141185
1021,Columbia Point,98822,47.6681086,-120.2258827
2117,Lakeshore Drive,98822,47.6692132,-120.2171738
14075,Hyland Avenue,98822,47.6760366,-120.2102764
2117,Lakeshore Drive,98822,47.6713477,-120.2147554
14567,United States Highway 97A,98822,47.6840486,-120.2064829
2331,Albin Drive,98822,47.6728130,-120.2154123
1013,Two Rivers Road,98822,47.6687813,-120.2247289
2117,Lakeshore Drive,98822,47.6715006,-120.2145126
2331,Albin Drive,98822,47.6728513,-120.2155410
15301,Lakeview Street,98822,47.7005159,-120.2123615
14906,Golden Delicious Street,98822,47.6906078,-120.2099645
1033,Crest Loop,98822,47.6771224,-120.2137179
15307,Lakeview Street,98822,47.7013022,-120.2130252
2117,Lakeshore Drive,98822,47.6690371,-120.2173513
9990,Saska Way,98822,47.6700354,-120.2302073
15029,United States Highway 97A,98822,47.6937377,-120.2070173
15319,Lakeview Street,98822,47.7018779,-120.2142425
14907,United States Highway 97A,98822,47.6905484,-120.2057100
15250,United States Highway 97A,98822,47.6967285,-120.2111312
14565,United States Highway 97A,98822,47.6838326,-120.2063828
15311,Lakeview Street,98822,47.7016716,-120.2133028
2020,Entiat Way,98822,47.6774825,-120.2083702
2331,Albin Drive,98822,47.6728325,-120.2151624
2117,Lakeshore Drive,98822,47.6693270,-120.2171027
14907,United States Highway 97A,98822,47.6905652,-120.2056852
14907,United States Highway 97A,98822,47.6913062,-120.2060199
2331,Albin Drive,98822,47.6728047,-120.2150791
14907,United States Highway 97A,98822,47.6908402,-120.2058145
15029,United States Highway 97A,98822,47.6938396,-120.2070437
15029,United States Highway 97A,98822,47.6940206,-120.2075508
14907,United States Highway 97A,98822,47.6904641,-120.2057229
2117,Lakeshore Drive,98822,47.6714177,-120.2139808
9959,Griffith Place,98822,47.6718271,-120.2305060
15330,Lakeview Street,98822,47.7018079,-120.2155525
14113,Hyland Avenue,98822,47.6760044,-120.2102548
1022,Columbia Point,98822,47.6681568,-120.2265905
2331,Albin Drive,98822,47.6731741,-120.2150006
2117,Lakeshore Drive,98822,47.6702824,-120.2160724
15009,Allison Place,98822,47.6774097,-120.2135007
10005,Saska Way,98822,47.6659503,-120.2316397
2117,Lakeshore Drive,98822,47.6712640,-120.2148726
14907,United States Highway 97A,98822,47.6904874,-120.2057258
2331,Albin Drive,98822,47.6728382,-120.2149394
1035,Crest Loop,98822,47.6771224,-120.2141133
2117,Lakeshore Drive,98822,47.6714171,-120.2146573
2117,Lakeshore Drive,98822,47.6711776,-120.2149899
14767,Shamel Street,98822,47.6879722,-120.2056525
9951,Griffith Place,98822,47.6718152,-120.2293874
14907,United States Highway 97A,98822,47.6912782,-120.2060155
14135,Kinzel Street,98822,47.6770572,-120.2089824
15029,United States Highway 97A,98822,47.6940383,-120.2070543
9961,Griffith Place,98822,47.6720261,-120.2310102
14907,United States Highway 97A,98822,47.6904630,-120.2056904
2117,Lakeshore Drive,98822,47.6663894,-120.2188624
14379,United States Highway 97A,98822,47.6815860,-120.2067346
2117,Lakeshore Drive,98822,47.6697429,-120.2166453
9986,Saska Way,98822,47.6705359,-120.2304439
15029,United States Highway 97A,98822,47.6940307,-120.2074557
14907,United States Highway 97A,98822,47.6909245,-120.2058610
2117,Lakeshore Drive,98822,47.6708417,-120.2154590
15321,Lakeview Street,98822,47.7016750,-120.2141104
15294,Lakeview Street,98822,47.7004520,-120.2132200
14907,United States Highway 97A,98822,47.6905470,-120.2056860
2117,Lakeshore Drive,98822,47.6689647,-120.2174304
9955,Griffith Place,98822,47.6714358,-120.2296473
3170,Hedding Street,98822,47.6650933,-120.2393394
2117,Lakeshore Drive,98822,47.6664997,-120.2189308
2117,Lakeshore Drive,98822,47.6701544,-120.2161500
15254,United States Highway 97A,98822,47.6983581,-120.2114633
2117,Lakeshore Drive,98822,47.6715998,-120.2143888
2117,Lakeshore Drive,98822,47.6715644,-120.2139093
14907,United States Highway 97A,98822,47.6909231,-120.2058370
2117,Lakeshore Drive,98822,47.6688753,-120.2175350
15299,Lakeview Street,98822,47.7004068,-120.2118115
2331,Albin Drive,98822,47.6729952,-120.2148632
15029,United States Highway 97A,98822,47.6936859,-120.2074730
15297,Lakeview Street,98822,47.7005770,-120.2113548
2117,Lakeshore Drive,98822,47.6677620,-120.2184107
14907,United States Highway 97A,98822,47.6904874,-120.2056664
15229,North Lakeshore Drive,98822,47.6977812,-120.2063562
14907,United States Highway 97A,98822,47.6912204,-120.2060312
14565,United States Highway 97A,98822,47.6838723,-120.2063823
2117,Lakeshore Drive,98822,47.6711168,-120.2151091
9966,Griffith Place,98822,47.6716265,-120.2313936
14543,United States Highway 97A,98822,47.6831565,-120.2065808
2117,Lakeshore Drive,98822,47.6698975,-120.2164427
15020,United States Highway 97A,98822,47.6930851,-120.2088943
2036,Entiat Way,98822,47.6765881,-120.2088448
14907,United States Highway 97A,98822,47.6911887,-120.2060283
2117,Lakeshore Drive,98822,47.6695741,-120.2168503
9954,Griffith Place,98822,47.6700942,-120.2296585
14565,United States Highway 97A,98822,47.6838547,-120.2065076
2331,Albin Drive,98822,47.6728532,-120.2148708
1023,Crest Loop,98822,47.6770757,-120.2118447
2117,Lakeshore Drive,98822,47.6707524,-120.2155700
14907,United States Highway 97A,98822,47.6913070,-120.2060487
2479,Entiat Way,98822,47.6695215,-120.2206266
14907,United States Highway 97A,98822,47.6909205,-120.2059015
2331,Albin Drive,98822,47.6728761,-120.2160678
2117,Lakeshore Drive,98822,47.6716676,-120.2142463
14907,United States Highway 97A,98822,47.6911880,-120.2059572
15309,Lakeview Street,98822,47.7015121,-120.2131586
14543,United States Highway 97A,98822,47.6831606,-120.2066847
14907,United States Highway 97A,98822,47.6912789,-120.2060443
2331,Albin Drive,98822,47.6728737,-120.2159513
14907,United States Highway 97A,98822,47.6909413,-120.2058362
2479,Entiat Way,98822,47.6695163,-120.2205457
2117,Lakeshore Drive,98822,47.6699898,-120.2163443
2331,Albin Drive,98822,47.6730312,-120.2148830
14907,United States Highway 97A,98822,47.6912785,-120.2059885
2117,Lakeshore Drive,98822,47.6718018,-120.2139826
14907,United States Highway 97A,98822,47.6908402,-120.2058739
2331,Albin Drive,98822,47.6727955,-120.2153441
15029,United States Highway 97A,98822,47.6939163,-120.2070552
2117,Lakeshore Drive,98822,47.6673287,-120.2185596
2331,Albin Drive,98822,47.6728726,-120.2149745
14907,United States Highway 97A,98822,47.6911872,-120.2059911
14559,Vradenburg Street,98822,47.6840732,-120.2053298
14907,United States Highway 97A,98822,47.6912189,-120.2059940
15011,Allison Place,98822,47.6774293,-120.2130174
1025,Crest Loop,98822,47.6771051,-120.2121819
2083,Cammack Avenue,98822,47.6778997,-120.2096020
15045,North Lakeshore Drive,98822,47.6925361,-120.2052923
2117,Lakeshore Drive,98822,47.6672193,-120.2184002
1023,Columbia Point,98822,47.6678939,-120.2262204
9957,Griffith Place,98822,47.6716551,-120.2300499
2117,Lakeshore Drive,98822,47.6703633,-120.2159678
2331,Albin Drive,98822,47.6728493,-120.2150963
15029,United States Highway 97A,98822,47.6938502,-120.2077834
14907,United States Highway 97A,98822,47.6909387,-120.2059007
2117,Lakeshore Drive,98822,47.6704698,-120.2158609
15013,United States Highway 97A,98822,47.6930422,-120.2071279
2117,Lakeshore Drive,98822,47.6716283,-120.2135830
2331,Albin Drive,98822,47.6728683,-120.2148099
9956,Griffith Place,98822,47.6704314,-120.2298395
2002,McCord Place,98822,47.6919535,-120.2085097
9980,Saska Way,98822,47.6711617,-120.2311523
2117,Lakeshore Drive,98822,47.6673477,-120.2183691
14907,United States Highway 97A,98822,47.6908635,-120.2058768
1002,Two Rivers Road,98822,47.6703632,-120.2232041
2117,Lakeshore Drive,98822,47.6676029,-120.2185711
2117,Lakeshore Drive,98822,47.6661375,-120.2195481
15012,Allison Place,98822,47.6779139,-120.2130257
2331,Albin Drive,98822,47.6728740,-120.2160096
2117,Lakeshore Drive,98822,47.6700749,-120.2162440
2331,Albin Drive,98822,47.6730777,-120.2149356
2117,Lakeshore Drive,98822,47.6671416,-120.2185449
2331,Albin Drive,98822,47.6728610,-120.2150405
14913,Golden Delicious Street,98822,47.6914005,-120.2093033
2331,Albin Drive,98822,47.6728696,-120.2158222
2117,Lakeshore Drive,98822,47.6696607,-120.2167436
9988,Saska Way,98822,47.6702828,-120.2303613
2117,Lakeshore Drive,98822,47.6709410,-120.2153289
15029,United States Highway 97A,98822,47.6939838,-120.2070560
15005,Allison Place,98822,47.6774177,-120.2143776
2331,Albin Drive,98822,47.6727863,-120.2151477
2117,Lakeshore Drive,98822,47.6710375,-120.2152242
2117,Lakeshore Drive,98822,47.6672388,-120.2185585
14601,Shamel Street,98822,47.6861408,-120.2046253
14927,Golden Delicious Street,98822,47.6928720,-120.2093712
14907,United States Highway 97A,98822,47.6913066,-120.2059929
2331,Albin Drive,98822,47.6728197,-120.2150080
1027,Crest Loop,98822,47.6771239,-120.2125789
2331,Albin Drive,98822,47.6731120,-120.2149555
14567,United States Highway 97A,98822,47.6841614,-120.2064815
2331,Albin Drive,98822,47.6728859,-120.2149084
2331,Albin Drive,98822,47.6729027,-120.2148500
14907,United States Highway 97A,98822,47.6909428,-120.2058603
2117,Lakeshore Drive,98822,47.6694846,-120.2169232
2331,Albin Drive,98822,47.6728693,-120.2157563
2117,Lakeshore Drive,98822,47.6714769,-120.2141069
14907,United States Highway 97A,98822,47.6905667,-120.2057093
15029,United States Highway 97A,98822,47.6936956,-120.2072933
2117,Lakeshore Drive,98822,47.6715207,-120.2137555
14907,United States Highway 97A,98822,47.6904641,-120.2056635
15006,Allison Place,98822,47.6779196,-120.2143646
1024,Crest Loop,98822,47.6767150,-120.2124396
9992,Saska Way,98822,47.6698094,-120.2300759
14565,United States Highway 97A,98822,47.6837451,-120.2064857
2117,Lakeshore Drive,98822,47.6674253,-120.2184591
14907,United States Highway 97A,98822,47.6905626,-120.2057497
2117,Lakeshore Drive,98822,47.6663371,-120.2192414
14581,United States Highway 97A,98822,47.6846501,-120.2071020
14543,United States Highway 97A,98822,47.6831530,-120.2063834
2316,Albin Drive,98822,47.6735366,-120.2168831
15029,United States Highway 97A,98822,47.6937850,-120.2077545
2331,Albin Drive,98822,47.6728717,-120.2158855
2117,Lakeshore Drive,98822,47.6716876,-120.2137218
14906,Golden Delicious Street,98822,47.6905187,-120.2099656
14141,Kinzel Street,98822,47.6774756,-120.2088976
15029,United States Highway 97A,98822,47.6936961,-120.2073759
1037,Crest Loop,98822,47.6771279,-120.2144998
2117,Lakeshore Drive,98822,47.6713299,-120.2143730
2005,Stoneridge Street,98822,47.6895396,-120.2090664
2660,2nd Street,98822,47.6657832,-120.2252304
14565,United States Highway 97A,98822,47.6837480,-120.2063924
9962,Griffith Place,98822,47.6712653,-120.2305830
9979,Saska Way,98822,47.6709325,-120.2318735
2021,Entiat Way,98822,47.6774339,-120.2079680
14913,Golden Delicious Street,98822,47.6913114,-120.2093004
9958,Griffith Place,98822,47.6707565,-120.2300163
2002,McCord Place,98822,47.6920781,-120.2088080
14907,United States Highway 97A,98822,47.6908624,-120.2058443
1012,Crest Loop,98822,47.6764564,-120.2132876
14907,United States Highway 97A,98822,47.6908635,-120.2058174
2117,Lakeshore Drive,98822,47.6662913,-120.2194744
1009,Crest Loop,98822,47.6755519,-120.2128713
2327,Entiat Way,98822,47.6740549,-120.2169363
14907,United States Highway 97A,98822,47.6905444,-120.2057505
14565,United States Highway 97A,98822,47.6837409,-120.2065800
1040,Crest Loop,98822,47.6767055,-120.2151634
2117,Lakeshore Drive,98822,47.6662576,-120.2190499
14907,United States Highway 97A,98822,47.6912197,-120.2059601
2117,Lakeshore Drive,98822,47.6698281,-120.2165450
2117,Lakeshore Drive,98822,47.6674327,-120.2182434
15025,North Lakeshore Drive,98822,47.6920551,-120.2050874
2117,Lakeshore Drive,98822,47.6694165,-120.2170128
2117,Lakeshore Drive,98822,47.6672439,-120.2187275
1003,Two Rivers Road,98822,47.6698638,-120.2232163
14907,United States Highway 97A,98822,47.6908391,-120.2058414
14765,Shamel Street,98822,47.6873875,-120.2055560
2038,Entiat Way,98822,47.6764597,-120.2089199
2030,Entiat Way,98822,47.6769965,-120.2086317
14579,United States Highway 97A,98822,47.6844500,-120.2068458
14481,United States Highway 97A,98822,47.6823344,-120.2068544
1019,Columbia Point,98822,47.6682495,-120.2256244
1020,Columbia Point,98822,47.6683529,-120.2264125
13605,Davis Avenue,98822,47.6672260,-120.2243567
2036,Entiat Way,98822,47.6766091,-120.2088595
14143,Olin Street,98822,47.6757287,-120.2146353
13535,Hagen Street,98822,47.6656350,-120.2244913
14780,United States Highway 97A,98822,47.6877589,-120.2078635
14904,Voss Place,98822,47.6903806,-120.2089375
2822,Sunset Court,98822,47.6649747,-120.2304414
14904,Golden Delicious Street,98822,47.6903695,-120.2099142
2397,Albin Drive,98822,47.6715433,-120.2186492
15133,North Lakeshore Drive,98822,47.6966105,-120.2056649
15035,North Lakeshore Drive,98822,47.6923007,-120.2052346
2467,Entiat Way,98822,47.6704340,-120.2193792
14929,Golden Delicious Street,98822,47.6932082,-120.2097419
2389,Albin Drive,98822,47.6718776,-120.2169616
2475,Entiat Way,98822,47.6693209,-120.2200002
14630,King Street,98822,47.6858992,-120.2066865
14937,Golden Delicious Street,98822,47.6931947,-120.2111594
15326,Lakeview Street,98822,47.7013908,-120.2151712
15335,United States Highway 97A,98822,47.7028822,-120.2118948
14784,United States Highway 97A,98822,47.6883150,-120.2079280
14607,Pearl Court,98822,47.6861290,-120.2117714
9981,Saska Way,98822,47.6707991,-120.2315629
2956,Hedding Street,98822,47.6651514,-120.2331633
15327,United States Highway 97A,98822,47.7021491,-120.2112313
9975,Saska Way,98822,47.6713500,-120.2323775
2431,Entiat Way,98822,47.6708123,-120.2193383
14542,Vradenburg Street,98822,47.6840514,-120.2059962
13600,Davis Avenue,98822,47.6670163,-120.2270436
2293,Entiat Way,98822,47.6742524,-120.2157898
10006,Saska Way,98822,47.6655025,-120.2312770
14085,Hyland Avenue,98822,47.6761684,-120.2112384
14540,Vradenburg Street,98822,47.6842705,-120.2060497
15313,Lakeview Street,98822,47.7018709,-120.2136085
2200,Entiat Way,98822,47.6749232,-120.2150560
2003,Topaz Place,98822,47.6860038,-120.2127850
1922,Howe Street,98822,47.6855560,-120.2060547
14956,Golden Delicious Street,98822,47.6937032,-120.2125477
2419,Entiat Way,98822,47.6715621,-120.2189293
14909,Red Delicious Street,98822,47.6911460,-120.2103066
1018,Columbia Point,98822,47.6685435,-120.2260923
9969,Saska Way,98822,47.6722995,-120.2330750
15332,Lakeview Street,98822,47.7018604,-120.2160861
14570,Vradenburg Street,98822,47.6836735,-120.2060827
2011,Stoneridge Street,98822,47.6902038,-120.2113255
3023,Hedding Street,98822,47.6644716,-120.2349239
14627,King Street,98822,47.6859461,-120.2060707
14914,Golden Delicious Street,98822,47.6913328,-120.2099457
15131,North Lakeshore Drive,98822,47.6964048,-120.2057065
2586,Entiat Way,98822,47.6654721,-120.2238543
15322,Lakeview Street,98822,47.7014355,-120.2147216
1016,Crest Loop,98822,47.6762051,-120.2129633
14602,Diamond Avenue,98822,47.6855767,-120.2114146
2023,Lakeshore Drive,98822,47.6748750,-120.2076935
13509,Hillcrest Drive,98822,47.6653034,-120.2302269
14954,Golden Delicious Street,98822,47.6934931,-120.2125186
14941,Golden Delicious Street,98822,47.6933903,-120.2116736
15087,North Lakeshore Drive,98822,47.6939037,-120.2058502
1020,Crest Loop,98822,47.6761916,-120.2126098
14577,Vradenburg Street,98822,47.6836845,-120.2053135
15331,United States Highway 97A,98822,47.7023778,-120.2115775
14943,Golden Delicious Street,98822,47.6935598,-120.2117425
3184,Hedding Street,98822,47.6652488,-120.2397462
13497,Hillcrest Drive,98822,47.6650388,-120.2301009
2634,2nd Street,98822,47.6664597,-120.2241496
2287,Entiat Way,98822,47.6744129,-120.2145708
2523,Quast Lane,98822,47.6680954,-120.2216248
2008,Stoneridge Street,98822,47.6902411,-120.2102952
14607,Diamond Avenue,98822,47.6861334,-120.2107655
13561,Davis Avenue,98822,47.6671350,-120.2237687
2385,Entiat Way,98822,47.6725564,-120.2180290
14903,Red Delicious Street,98822,47.6904224,-120.2103809
14781,Shamel Street,98822,47.6898729,-120.2061445
2534,Quast Lane,98822,47.6672489,-120.2222982
2000,Hedding Street,98822,47.6650584,-120.2320112
14906,Red Delicious Street,98822,47.6907015,-120.2109448
15221,North Lakeshore Drive,98822,47.6970123,-120.2057380
3097,Hedding Street,98822,47.6645831,-120.2370410
14611,Pearl Court,98822,47.6865244,-120.2117567
14449,United States Highway 97A,98822,47.6822686,-120.2061949
2244,Howe Street,98822,47.6856543,-120.2131567
13496,Dunn Street,98822,47.6668594,-120.2283123
13970,Roundy Drive,98822,47.6752288,-120.2185102
14910,Golden Delicious Street,98822,47.6909513,-120.2099174
14564,Vradenburg Street,98822,47.6839668,-120.2060689
1004,Two Rivers Road,98822,47.6697770,-120.2241379
2633,Entiat Way,98822,47.6641722,-120.2251081
14920,Golden Delicious Street,98822,47.6919260,-120.2099724
2001,Stoneridge Street,98822,47.6895759,-120.2075473
14138,Kinzel Street,98822,47.6769671,-120.2095527
2027,Macs Place,98822,47.6728519,-120.2097315
15225,North Lakeshore Drive,98822,47.6974388,-120.2062212
2390,Albin Drive,98822,47.6720495,-120.2179910
14365,United States Highway 97A,98822,47.6810731,-120.2068685
2807,Entiat Way,98822,47.6639174,-120.2302000
1959,Howe Street,98822,47.6851360,-120.2062226
14840,United States Highway 97A,98822,47.6891330,-120.2077380
14905,Golden Delicious Street,98822,47.6905828,-120.2092756
1006,Crest Loop,98822,47.6764925,-120.2143846
14936,Golden Delicious Street,98822,47.6927842,-120.2108306
14604,Diamond Avenue,98822,47.6857496,-120.2114130
15233,North Lakeshore Drive,98822,47.6980826,-120.2073958
13401,State Road,98822,47.6636247,-120.2303927
9967,Saska Way,98822,47.6725083,-120.2325477
1036,Crest Loop,98822,47.6767145,-120.2143951
2377,Entiat Way,98822,47.6727087,-120.2179113
2433,Entiat Way,98822,47.6706159,-120.2198423
2548,Entiat Way,98822,47.6661922,-120.2226772
13609,Davis Avenue,98822,47.6687095,-120.2235487
2573,Auvil Avenue,98822,47.6694652,-120.2232963
1026,Crest Loop,98822,47.6766985,-120.2128066
15315,North Lakeshore Drive,98822,47.7017403,-120.2109890
2112,Sage Street,98822,47.6924919,-120.2115208
14908,Burkey Street,98822,47.6910462,-120.2120720
13599,Davis Avenue,98822,47.6676590,-120.2235347
14606,Diamond Avenue,98822,47.6859444,-120.2114404
14918,Golden Delicious Street,98822,47.6917151,-120.2099655
2350,Albin Drive,98822,47.6730496,-120.2173023
14960,Golden Delicious Street,98822,47.6941165,-120.2125454
13958,Roundy Drive,98822,47.6733931,-120.2184457
1011,Two Rivers Road,98822,47.6688570,-120.2243711
3125,Hedding Street,98822,47.6646660,-120.2379793
14939,Golden Delicious Street,98822,47.6931807,-120.2114842
1016,Columbia Point,98822,47.6688172,-120.2258964
2508,Auvil Avenue,98822,47.6707654,-120.2218035
14636,King Street,98822,47.6860619,-120.2069604
1038,Crest Loop,98822,47.6767361,-120.2148408
14519,United States Highway 97A,98822,47.6828609,-120.2061615
14902,Voss Place,98822,47.6901709,-120.2089469
15037,United States Highway 97A,98822,47.6957006,-120.2080865
1005,Two Rivers Road,98822,47.6695549,-120.2236865
2391,Albin Drive,98822,47.6717567,-120.2175353
2109,Sage Street,98822,47.6920888,-120.2110651
15361,United States Highway 97A,98822,47.7034110,-120.2124338
14519,United States Highway 97A,98822,47.6829276,-120.2066445
1002,Mesa Place,98822,47.6656909,-120.2323039
14532,Vradenburg Street,98822,47.6845540,-120.2060403
1963,Howe Street,98822,47.6851236,-120.2059507
2801,Entiat Way,98822,47.6639385,-120.2297261
1031,Crest Loop,98822,47.6771255,-120.2133255
14905,Burkey Street,98822,47.6906599,-120.2114035
1034,Crest Loop,98822,47.6767247,-120.2140923
9991,Saska Way,98822,47.6694698,-120.2306732
2103,Entiat Way,98822,47.6749726,-120.2098448
9970,Griffith Place,98822,47.6720832,-120.2317794
1947,Lakeshore Drive,98822,47.6755942,-120.2063563
13460,Dunn Street,98822,47.6644794,-120.2294198
15014,United States Highway 97A,98822,47.6925387,-120.2087160
15039,United States Highway 97A,98822,47.6956237,-120.2074705
2771,Entiat Way,98822,47.6634226,-120.2282179
14601,Diamond Avenue,98822,47.6855741,-120.2107763
14605,Diamond Avenue,98822,47.6859358,-120.2107726
9993,Saska Way,98822,47.6692271,-120.2305914
2003,Macs Place,98822,47.6728871,-120.2104325
14158,Kinzel Street,98822,47.6776743,-120.2096088
14034,Olin Street,98822,47.6748920,-120.2160597
14930,Golden Delicious Street,98822,47.6927881,-120.2099629
14919,Golden Delicious Street,98822,47.6919690,-120.2092119
2181,Entiat Way,98822,47.6743584,-120.2119917
2787,Entiat River Road,98822,47.6634126,-120.2289226
15247,North Lakeshore Drive,98822,47.6994873,-120.2084417
2415,Entiat Way,98822,47.6714684,-120.2169448
2003,McCord Place,98822,47.6915451,-120.2086750
10005,Numeral Pointe Place,98822,47.6665591,-120.2301223
3172,Hedding Street,98822,47.6645905,-120.2386907
14905,Red Delicious Street,98822,47.6907024,-120.2103929
15301,North Lakeshore Drive,98822,47.7000836,-120.2094148
15010,United States Highway 97A,98822,47.6923599,-120.2086472
2269,Entiat Way,98822,47.6734812,-120.2138121
2520,Quast Lane,98822,47.6683908,-120.2218679
13466,Dunn Street,98822,47.6660770,-120.2295232
1013,Crest Loop,98822,47.6758859,-120.2120125
15303,Lakeview Street,98822,47.7001457,-120.2127648
14964,Golden Delicious Street,98822,47.6947507,-120.2126001
14914,Burkey Street,98822,47.6917131,-120.2120585
2386,Albin Drive,98822,47.6722525,-120.2178078
2580,Entiat Way,98822,47.6656128,-120.2236519
1990,Cammack Avenue,98822,47.6778695,-120.2087480
13543,Davis Avenue,98822,47.6664845,-120.2230311
15251,North Lakeshore Drive,98822,47.6999016,-120.2091509
14543,Vradenburg Street,98822,47.6844891,-120.2053633
14132,Hyland Avenue,98822,47.6768378,-120.2104361
2125,Cammack Avenue,98822,47.6773780,-120.2112651
2020,Hedding Street,98822,47.6650363,-120.2326273
3110,Hedding Street,98822,47.6651093,-120.2374435
15325,North Lakeshore Drive,98822,47.7019675,-120.2109658
2105,Sage Street,98822,47.6920860,-120.2103786
9989,Saska Way,98822,47.6696996,-120.2307636
1008,Two Rivers Road,98822,47.6696236,-120.2247418
14825,Stoneridge Street,98822,47.6897414,-120.2099422
14910,Burkey Street,98822,47.6912442,-120.2120184
15320,Lakeview Street,98822,47.7016318,-120.2148308
14922,United States Highway 97A,98822,47.6915194,-120.2079062
15231,North Lakeshore Drive,98822,47.6981432,-120.2065785
15031,United States Highway 97A,98822,47.6950087,-120.2079104
2773,Entiat Way,98822,47.6638474,-120.2282766
2848,Entiat River Road,98822,47.6631597,-120.2294538
2336,Albin Drive,98822,47.6732152,-120.2171596
2591,Dick Ranch Road,98822,47.6729996,-120.2286755
14603,Diamond Avenue,98822,47.6857447,-120.2107770
14908,Red Delicious Street,98822,47.6909419,-120.2110128
2470,Entiat Way,98822,47.6718180,-120.2193759
3167,Hedding Street,98822,47.6643341,-120.2393885
3090,Hedding Street,98822,47.6650389,-120.2370805
14952,Golden Delicious Street,98822,47.6932539,-120.2125262
2651,Entiat Way,98822,47.6639906,-120.2253738
15105,North Lakeshore Drive,98822,47.6947735,-120.2059337
14916,United States Highway 97A,98822,47.6909057,-120.2078848
2578,Dick Ranch Road,98822,47.6707983,-120.2248082
14913,Red Delicious Street,98822,47.6915733,-120.2103870
2123,Cammack Avenue,98822,47.6777606,-120.2106449
9974,Saska Way,98822,47.6717145,-120.2319848
15041,United States Highway 97A,98822,47.6958168,-120.2075447
2340,Entiat Way,98822,47.6738531,-120.2178392
1009,Two Rivers Road,98822,47.6690453,-120.2240566
2005,Topaz Place,98822,47.6862228,-120.2123897
13543,Hillcrest Drive,98822,47.6659026,-120.2302294
1030,Crest Loop,98822,47.6767287,-120.2133025
15111,North Lakeshore Drive,98822,47.6954207,-120.2055533
14912,Burkey Street,98822,47.6914747,-120.2121343
14156,Rothrock Drive,98822,47.6773087,-120.2106840
2829,Sunset Court,98822,47.6646212,-120.2300747
2800,Entiat Way,98822,47.6643916,-120.2304271
2122,Cammack Avenue,98822,47.6782235,-120.2110345
2331,Entiat Way,98822,47.6736022,-120.2172386
14419,United States Highway 97A,98822,47.6819878,-120.2065354
1948,Howe Street,98822,47.6859310,-120.2056111
13590,Davis Avenue,98822,47.6669732,-120.2248881
2106,Sage Street,98822,47.6924698,-120.2104533
14611,Diamond Avenue,98822,47.6865153,-120.2107602
15028,United States Highway 97A,98822,47.6935825,-120.2088451
2490,Auvil Avenue,98822,47.6707098,-120.2209860
14882,United States Highway 97A,98822,47.6903200,-120.2076288
14115,Hyland Avenue,98822,47.6763043,-120.2104336
2607,Entiat Way,98822,47.6644948,-120.2244496
14905,Voss Place,98822,47.6905387,-120.2083914
14911,Golden Delicious Street,98822,47.6911572,-120.2092354
2457,Entiat Way,98822,47.6697713,-120.2187900
14932,Golden Delicious Street,98822,47.6927513,-120.2101897
2118,Cammack Avenue,98822,47.6783181,-120.2104933
14519,United States Highway 97A,98822,47.6831846,-120.2056998
2314,Albin Drive,98822,47.6738481,-120.2166498
2322,Entiat Way,98822,47.6743026,-120.2172277
1007,Crest Loop,98822,47.6755635,-120.2133183
2370,Albin Drive,98822,47.6725343,-120.2175800
2797,Entiat Way,98822,47.6639154,-120.2293541
14901,Voss Place,98822,47.6901719,-120.2081905
14775,Shamel Street,98822,47.6890202,-120.2055517
2114,Sage Street,98822,47.6925191,-120.2118694
2394,Entiat Way,98822,47.6723279,-120.2189538
10003,Numeral Pointe Place,98822,47.6669465,-120.2300887
14940,Golden Delicious Street,98822,47.6927620,-120.2114472
14916,Burkey Street,98822,47.6919355,-120.2120738
14608,Diamond Avenue,98822,47.6861394,-120.2114351
2036,Macs Place,98822,47.6733164,-120.2092603
14601,Pearl Court,98822,47.6855829,-120.2117726
14903,Burkey Street,98822,47.6904442,-120.2113740
3215,Hedding Street,98822,47.6639593,-120.2391795
14527,Vradenburg Street,98822,47.6847444,-120.2053997
2008,Macs Place,98822,47.6732664,-120.2101465
2004,Topaz Place,98822,47.6861948,-120.2127669
2976,Hedding Street,98822,47.6651249,-120.2349018
1019,Crest Loop,98822,47.6766619,-120.2118218
1015,Two Rivers Road,98822,47.6686060,-120.2250183
15089,North Lakeshore Drive,98822,47.6940948,-120.2058912
14902,Golden Delicious Street,98822,47.6901745,-120.2099700
2011,Hedding Street,98822,47.6646421,-120.2323322
14519,United States Highway 97A,98822,47.6828835,-120.2063471
9977,Saska Way,98822,47.6711711,-120.2321444
15304,Lakeview Street,98822,47.7011811,-120.2122203
14150,Kinzel Street,98822,47.6771894,-120.2095994
15113,North Lakeshore Drive,98822,47.6956390,-120.2056119
14530,Vradenburg Street,98822,47.6848985,-120.2060083
2480,Entiat Way,98822,47.6717091,-120.2198073
1018,Crest Loop,98822,47.6759379,-120.2129387
15024,United States Highway 97A,98822,47.6933162,-120.2087793
1017,Columbia Point,98822,47.6684471,-120.2253077
2654,2nd Street,98822,47.6659269,-120.2249944
1003,Crest Loop,98822,47.6759109,-120.2137864
9973,Saska Way,98822,47.6716532,-120.2326117
15309,North Lakeshore Drive,98822,47.7006590,-120.2098469
15241,North Lakeshore Drive,98822,47.6988863,-120.2079927
2002,Topaz Place,98822,47.6858230,-120.2127133
1010,Crest Loop,98822,47.6764296,-120.2136957
14527,United States Highway 97A,98822,47.6830955,-120.2068456
1004,Crest Loop,98822,47.6764903,-120.2148112
14367,United States Highway 97A,98822,47.6812874,-120.2068022
14938,Golden Delicious Street,98822,47.6927800,-120.2110850
15249,North Lakeshore Drive,98822,47.6996726,-120.2087541
15235,North Lakeshore Drive,98822,47.6984863,-120.2069170
2821,Entiat River Road,98822,47.6633019,-120.2300795
2103,Sage Street,98822,47.6921014,-120.2099649
13555,Hillcrest Drive,98822,47.6660715,-120.2301796
14915,Red Delicious Street,98822,47.6918683,-120.2103659
2366,Albin Drive,98822,47.6727197,-120.2174782
2650,Dick Ranch Road,98822,47.6740196,-120.2260697
2250,Howe Street,98822,47.6856026,-120.2126756
14769,Shamel Street,98822,47.6880967,-120.2048210
1005,Crest Loop,98822,47.6756798,-120.2136453
13964,Roundy Drive,98822,47.6741776,-120.2184028
14615,Diamond Avenue,98822,47.6869017,-120.2107591
14907,Golden Delicious Street,98822,47.6907729,-120.2093032
13580,Davis Avenue,98822,47.6666353,-120.2252334
2346,Entiat Way,98822,47.6736101,-120.2179248
1006,Mesa Place,98822,47.6655915,-120.2330004
9983,Saska Way,98822,47.6705642,-120.2313046
2084,Entiat Way,98822,47.6755144,-120.2099090
1017,Crest Loop,98822,47.6763685,-120.2118789
3101,Hedding Street,98822,47.6646173,-120.2374503
2049,Harris Street,98822,47.6737216,-120.2085242
14519,United States Highway 97A,98822,47.6831944,-120.2058909
10007,Numeral Pointe Place,98822,47.6669451,-120.2294739
2110,Sage Street,98822,47.6924789,-120.2112360
1010,Two Rivers Road,98822,47.6693725,-120.2245171
14903,United States Highway 97A,98822,47.6902793,-120.2065732
15318,Lakeview Street,98822,47.7018112,-120.2149177
15055,North Lakeshore Drive,98822,47.6927516,-120.2053873
14908,Golden Delicious Street,98822,47.6907532,-120.2099219
14615,King Street,98822,47.6857269,-120.2060766
14613,Diamond Avenue,98822,47.6867134,-120.2107619
2473,Larsen Lane,98822,47.6700774,-120.2211484
1001,Mesa Place,98822,47.6653136,-120.2320151
2027,Lakeshore Drive,98822,47.6742933,-120.2080078
1006,Two Rivers Road,98822,47.6699158,-120.2244283
14618,Diamond Avenue,98822,47.6870963,-120.2113988
14935,Golden Delicious Street,98822,47.6931796,-120.2107536
2648,2nd Street,98822,47.6660555,-120.2247845
14180,Olin Street,98822,47.6776375,-120.2158749
2411,Entiat Way,98822,47.6710011,-120.2183670
14617,Diamond Avenue,98822,47.6870878,-120.2107582
2542,Entiat Way,98822,47.6663024,-120.2224671
2554,Entiat Way,98822,47.6660789,-120.2228633
14901,Golden Delicious Street,98822,47.6902262,-120.2092332
14519,United States Highway 97A,98822,47.6828670,-120.2060315
2425,Entiat Way,98822,47.6712883,-120.2188347
2681,Entiat Way,98822,47.6636182,-120.2259424
10006,Numeral Pointe Place,98822,47.6667421,-120.2296643
14610,Diamond Avenue,98822,47.6863240,-120.2114258
1014,Crest Loop,98822,47.6761825,-120.2132900
13551,Davis Avenue,98822,47.6666685,-120.2236200
2035,Lakeshore Drive,98822,47.6739824,-120.2080743
9972,Saska Way,98822,47.6719621,-120.2321853
14945,Golden Delicious Street,98822,47.6937710,-120.2118586
1008,Crest Loop,98822,47.6764858,-120.2140747
2601,Entiat Way,98822,47.6646732,-120.2243696
2534,Entiat Way,98822,47.6669107,-120.2214783
2010,Hedding Street,98822,47.6650573,-120.2323426
14958,Golden Delicious Street,98822,47.6939333,-120.2125876
2551,Auvil Avenue,98822,47.6703474,-120.2219943
14921,Golden Delicious Street,98822,47.6921825,-120.2092785
14108,Kinzel Street,98822,47.6764740,-120.2097090
14277,United States Highway 97A,98822,47.6787583,-120.2064386
2580,Dick Ranch Road,98822,47.6707146,-120.2253619
14156,Kinzel Street,98822,47.6774336,-120.2095759
3047,Hedding Street,98822,47.6643585,-120.2358056
2001,McCord Place,98822,47.6917352,-120.2084172
2025,Harris Street,98822,47.6734760,-120.2096789
15135,North Lakeshore Drive,98822,47.6967650,-120.2058526
14771,Shamel Street,98822,47.6885754,-120.2053368
14907,Burkey Street,98822,47.6909049,-120.2114632
2477,Larsen Lane,98822,47.6696327,-120.2218654
14616,Diamond Avenue,98822,47.6869066,-120.2113948
14923,Golden Delicious Street,98822,47.6923691,-120.2091259
14511,Vradenburg Street,98822,47.6851344,-120.2053645
2795,Entiat Way,98822,47.6639383,-120.2291326
14914,Red Delicious Street,98822,47.6916292,-120.2109731
9978,Saska Way,98822,47.6712821,-120.2314605
1028,Crest Loop,98822,47.6764153,-120.2129311
2095,Cammack Avenue,98822,47.6778696,-120.2098328
2380,Albin Drive,98822,47.6723935,-120.2176918
15363,United States Highway 97A,98822,47.7036849,-120.2126720
14639,King Street,98822,47.6861134,-120.2060710
2972,Hedding Street,98822,47.6651421,-120.2341181
1022,Crest Loop,98822,47.6764642,-120.2125163
14614,Diamond Avenue,98822,47.6867174,-120.2114002
1001,Crest Loop,98822,47.6760327,-120.2140706
14942,Golden Delicious Street,98822,47.6927757,-120.2117140
14620,King Street,98822,47.6857203,-120.2068637
14906,Burkey Street,98822,47.6907735,-120.2120896
15329,United States Highway 97A,98822,47.7022905,-120.2113329
2530,Entiat Way,98822,47.6670639,-120.2212316
14944,Golden Delicious Street,98822,47.6929783,-120.2120537
2025,Lakeshore Drive,98822,47.6746732,-120.2079004
14902,Burkey Street,98822,47.6903037,-120.2119887
14567,Vradenburg Street,98822,47.6838928,-120.2052624
14147,Rothrock Drive,98822,47.6772151,-120.2100858
3025,Hedding Street,98822,47.6645259,-120.2352471
14613,Pearl Court,98822,47.6867068,-120.2117339
1011,Crest Loop,98822,47.6755543,-120.2125415
14920,Burkey Street,98822,47.6924123,-120.2121919
14493,United States Highway 97A,98822,47.6827245,-120.2068018
13464,Dunn Street,98822,47.6657675,-120.2294995
15300,Lakeview Street,98822,47.7010066,-120.2133764
2598,Entiat Way,98822,47.6652962,-120.2241032
1908,Howe Street,98822,47.6855344,-120.2066521
2375,Albin Drive,98822,47.6721362,-120.2168982
14907,Red Delicious Street,98822,47.6909131,-120.2103894
2150,Entiat Way,98822,47.6752814,-120.2113238
14150,Rothrock Drive,98822,47.6770239,-120.2113064
1024,Columbia Point,98822,47.6678507,-120.2265881
15125,North Lakeshore Drive,98822,47.6959639,-120.2056521
9985,Saska Way,98822,47.6701490,-120.2310261
14126,Hyland Avenue,98822,47.6765203,-120.2110124
15323,Lakeview Street,98822,47.7015555,-120.2138820
14912,Golden Delicious Street,98822,47.6911458,-120.2098784
15328,Lakeview Street,98822,47.7015636,-120.2154278
14904,Red Delicious Street,98822,47.6904106,-120.2109582
2450,Entiat Way,98822,47.6719709,-120.2191958
2669,Entiat Way,98822,47.6638520,-120.2255908
1008,Mesa Place,98822,47.6655981,-120.2333130
14909,Burkey Street,98822,47.6911211,-120.2114883
15107,North Lakeshore Drive,98822,47.6950144,-120.2056490
15337,United States Highway 97A,98822,47.7031527,-120.2119923
14913,Burkey Street,98822,47.6916048,-120.2114964
2005,McCord Place,98822,47.6915461,-120.2089596
2818,Sunset Court,98822,47.6650182,-120.2295482
14603,Pearl Court,98822,47.6857634,-120.2117887
2111,Sage Street,98822,47.6920910,-120.2114634
14605,Pearl Court,98822,47.6859546,-120.2117834
2957,Hedding Street,98822,47.6646508,-120.2332562
3076,Hedding Street,98822,47.6655702,-120.2364032
14070,Kinzel Street,98822,47.6756338,-120.2094509
14918,Burkey Street,98822,47.6921622,-120.2121171
14909,Golden Delicious Street,98822,47.6909653,-120.2092862
15325,Lakeview Street,98822,47.7013751,-120.2137809
14900,Burkey Street,98822,47.6900535,-120.2119616
9963,Cap Riste Outlook,98822,47.6724974,-120.2319806
2042,Entiat Way,98822,47.6760116,-120.2088794
14934,Golden Delicious Street,98822,47.6927671,-120.2105078
2538,Entiat Way,98822,47.6664021,-120.2223197
14910,Red Delicious Street,98822,47.6911243,-120.2109639
15223,North Lakeshore Drive,98822,47.6971961,-120.2058452
3130,Hedding Street,98822,47.6651825,-120.2381961
2621,2nd Street,98822,47.6661739,-120.2238105
2474,Larsen Lane,98822,47.6700480,-120.2220360
14912,Red Delicious Street,98822,47.6913895,-120.2109638
14909,United States Highway 97A,98822,47.6915592,-120.2069657
9964,Griffith Place,98822,47.6713951,-120.2308679
2537,Auvil Avenue,98822,47.6703508,-120.2215477
1014,Two Rivers Road,98822,47.6691746,-120.2252035
13531,Hillcrest Drive,98822,47.6657032,-120.2301518
14612,Diamond Avenue,98822,47.6865219,-120.2114047
2321,Albin Drive,98822,47.6734055,-120.2157639
2104,Sage Street,98822,47.6924891,-120.2102189
15000,United States Highway 97A,98822,47.6920031,-120.2081564
2989,Entiat River Road,98822,47.6643043,-120.2342222
10004,Saska Way,98822,47.6652543,-120.2313508
2749,Entiat Way,98822,47.6637271,-120.2275406
2009,Stoneridge Street,98822,47.6902123,-120.2110207
14962,Golden Delicious Street,98822,47.6943514,-120.2125267
14754,United States Highway 97A,98822,47.6851835,-120.2077165
15101,North Lakeshore Drive,98822,47.6945927,-120.2058892
13462,Dunn Street,98822,47.6652994,-120.2295664
15243,North Lakeshore Drive,98822,47.6991500,-120.2079629
13463,Dunn Street,98822,47.6655636,-120.2295266
2391,Entiat Way,98822,47.6722075,-120.2183104
13515,Hillcrest Drive,98822,47.6655339,-120.2301556
2951,Entiat River Road,98822,47.6635550,-120.2309470
14153,Olin Street,98822,47.6771868,-120.2152311
2345 A,Albin Drive,98822,47.6730691,-120.2164706
2277,Entiat Way,98822,47.6735647,-120.2144445
2429,Entiat Way,98822,47.6706424,-120.2185196
2345 B,Albin Drive,98822,47.6727980,-120.2167895
2102,Sage Street,98822,47.6924810,-120.2098668
15075,North Lakeshore Drive,98822,47.6932957,-120.2057027
15085,North Lakeshore Drive,98822,47.6936499,-120.2058086
2775,Entiat Way,98822,47.6638583,-120.2286742
2373,Albin Drive,98822,47.6720624,-120.2162705
9982,Saska Way,98822,47.6710308,-120.2309376
14915,Golden Delicious Street,98822,47.6915789,-120.2093108
15310,Lakeview Street,98822,47.7019052,-120.2127480
14948,Golden Delicious Street,98822,47.6929854,-120.2125000
14128,Olin Street,98822,47.6761175,-120.2158960
14911,Burkey Street,98822,47.6913738,-120.2114711
1938,Howe Street,98822,47.6855457,-120.2055984
14602,Pearl Court,98822,47.6856828,-120.2123866
2365,Entiat Way,98822,47.6729047,-120.2177529
2701,Dick Ranch Road,98822,47.6747095,-120.2304838
14142,Rothrock Drive,98822,47.6769182,-120.2109978
3169,Hedding Street,98822,47.6646532,-120.2394828
14911,Red Delicious Street,98822,47.6913520,-120.2104095
2639,2nd Street,98822,47.6658724,-120.2241175
2477,Entiat Way,98822,47.6691269,-120.2203562
2289,Entiat Way,98822,47.6740970,-120.2151863
14531,United States Highway 97A,98822,47.6834027,-120.2066818
14519,Vradenburg Street,98822,47.6849410,-120.2053909
15227,North Lakeshore Drive,98822,47.6975789,-120.2062219
10003,Saska Way,98822,47.6657373,-120.2319980
2968,Hedding Street,98822,47.6651579,-120.2336452
14906,Voss Place,98822,47.6905199,-120.2087069
14947,Golden Delicious Street,98822,47.6939499,-120.2119349
3571,Auvil Avenue,98822,47.6698515,-120.2261668
10004,Numeral Pointe Place,98822,47.6667333,-120.2301132
2108,Sage Street,98822,47.6924734,-120.2109014
2525,Quast Lane,98822,47.6677775,-120.2209483
2711,Entiat Way,98822,47.6636836,-120.2267229
2065,Lakeshore Drive,98822,47.6741777,-120.2086861
15065,North Lakeshore Drive,98822,47.6930914,-120.2055072
2273,Entiat Way,98822,47.6730696,-120.2144850
14915,Burkey Street,98822,47.6918532,-120.2114551
14904,Burkey Street,98822,47.6905656,-120.2120206
2108,Entiat Way,98822,47.6753628,-120.2104322
1032,Crest Loop,98822,47.6767215,-120.2137033
2636,2nd Street,98822,47.6662457,-120.2245440
15239,North Lakeshore Drive,98822,47.6987664,-120.2077881
3050,Hedding Street,98822,47.6651788,-120.2353912
13476,Dunn Street,98822,47.6667710,-120.2289881
9960,Griffith Place,98822,47.6710672,-120.2301030
2350,Entiat Way,98822,47.6724600,-120.2194055
2526,Entiat Way,98822,47.6671602,-120.2210324
14642,King Street,98822,47.6861572,-120.2067166
15212,United States Highway 97A,98822,47.6947929,-120.2102790
2615,Entiat Way,98822,47.6643571,-120.2247887
14916,Golden Delicious Street,98822,47.6915265,-120.2099218
2690,2nd Street,98822,47.6652215,-120.2266800
2536,Entiat Way,98822,47.6667361,-120.2217591
14933,Golden Delicious Street,98822,47.6932159,-120.2104561
14163,Rothrock Drive,98822,47.6774616,-120.2098562
2131,Cammack Avenue,98822,47.6776295,-120.2122749
14609,Pearl Court,98822,47.6863182,-120.2117512
2371,Albin Drive,98822,47.6721409,-120.2160502
3087,Hedding Street,98822,47.6644914,-120.2365671
14931,Golden Delicious Street,98822,47.6932549,-120.2101919
14609,Diamond Avenue,98822,47.6863235,-120.2107659
15109,North Lakeshore Drive,98822,47.6952108,-120.2056421
2190,Entiat Way,98822,47.6749660,-120.2126499
14916,Red Delicious Street,98822,47.6918761,-120.2109736
2978,Hedding Street,98822,47.6654968,-120.2353132
15031,United States Highway 97A,98822,47.6944339,-120.2073225
2727,Entiat Way,98822,47.6637136,-120.2271655
14903,Voss Place,98822,47.6903503,-120.2081832
2083,Lakeshore Drive,98822,47.6738280,-120.2093766
15252,United States Highway 97A,98822,47.6976581,-120.2108518
3080,Hedding Street,98822,47.6650963,-120.2365188
15245,North Lakeshore Drive,98822,47.6993092,-120.2082033
14903,Golden Delicious Street,98822,47.6903866,-120.2092931
10008,Saska Way,98822,47.6656673,-120.2311715
1004,Mesa Place,98822,47.6656430,-120.2326695
15306,Lakeview Street,98822,47.7014612,-120.2124476
15302,Lakeview Street,98822,47.7009376,-120.2120086
15256,United States Highway 97A,98822,47.6992044,-120.2124883
10002,Numeral Pointe Place,98822,47.6671643,-120.2302058
10001,Numeral Pointe Place,98822,47.6673469,-120.2301212
2049,Harris Street,98822,47.6735226,-120.2088075
2077,Harris Street,98822,47.6738657,-120.2090010
14771,United States Highway 97A,98822,47.6870719,-120.2063097
14421,Shamel Street,98822,47.6827584,-120.2046481
15308,Lakeview Street,98822,47.7016573,-120.2126366
15033,United States Highway 97A,98822,47.6972203,-120.2085499
14551,United States Highway 97A,98822,47.6838960,-120.2070603
2234,Howe Street,98822,47.6862927,-120.2136160
14519,United States Highway 97A,98822,47.6828980,-120.2056901
14519,United States Highway 97A,98822,47.6828894,-120.2058672
9953,Griffith Place,98822,47.6711428,-120.2294252
9984,Saska Way,98822,47.6708104,-120.2307100
9968,Griffith Place,98822,47.6718542,-120.2316230
9976,Saska Way,98822,47.6714537,-120.2317758
9971,Saska Way,98822,47.6719324,-120.2329530
2387,Entiat Way,98822,47.6723495,-120.2181874
2394,Albin Drive,98822,47.6718485,-120.2181734
1001,Two Rivers Road,98822,47.6698870,-120.2226877
1007,Two Rivers Road,98822,47.6693384,-120.2238715
1012,Two Rivers Road,98822,47.6691916,-120.2248137
2568,Entiat Way,98822,47.6658709,-120.2232690
2755,Entiat Way,98822,47.6634756,-120.2277402
9987,Saska Way,98822,47.6699364,-120.2309340
1015,Crest Loop,98822,47.6761425,-120.2120004
1021,Crest Loop,98822,47.6768553,-120.2118418
1002,Crest Loop,98822,47.6765211,-120.2151589
15002,Allison Place,98822,47.6779035,-120.2151666
15004,Allison Place,98822,47.6779054,-120.2147966
15010,Allison Place,98822,47.6779209,-120.2135935
15008,Allison Place,98822,47.6779064,-120.2139869
15003,Allison Place,98822,47.6774370,-120.2147944
15001,Allison Place,98822,47.6774686,-120.2151766
13962,Roundy Drive,98822,47.6738653,-120.2184405
14375,Shamel Street,98822,47.6808403,-120.2052161
