House number,Street name,Postal code,Latitude,Longitude
4132,Federal Avenue,98203-2117,47.9628736,-122.2179127
2531,Oakes Avenue,98201,47.9834512,-122.2039640
4120,Federal Avenue,98203-2117,47.9630959,-122.2192634
1717,Rockefeller Avenue,98201,47.9943594,-122.2045834
2000,Tower Street,98201,48.0065657,-122.2044270
851,North Broadway,98201,48.0060168,-122.1964990
851,North Broadway,98201,48.0059271,-122.1966009
12728,19th Avenue Southeast,98208,47.9068196,-122.2063004
2024,Broadway,98201,47.9901998,-122.2015690
2615,Broadway,98201,47.9827674,-122.2006460
2316,Cedar St,98201,47.9864230,-122.1939380
802,SE Everett Mall Way,98208,47.9093783,-122.2221158
720,80th Street Southwest,98203,47.9240450,-122.2440610
5218,South 2nd Avenue,98203,47.9495570,-122.1948079
2802,Hewitt Avenue,98203,47.9786988,-122.1931650
2520,Colby Avenue,98201,47.9838720,-122.2088820
1800,"41st Street, S-300",98203,47.9619385,-122.2058240
1800,41st Street,98203,47.9627531,-122.2070177
1800,41st Street,98203,47.9617306,-122.2070854
811,Southeast Everett Mall Way,98208,47.9108114,-122.2212074
7529,Beverly Boulevard,98203,47.9293240,-122.2116840
1205,Craftsman Way,98201,48.0007655,-122.2173548
2512,Colby Avenue,98201,47.9841365,-122.2088643
10200,19th Avenue Southeast,98208,47.9035840,-122.2101220
10200,19th Avenue Southeast,98208,47.9035868,-122.2104210
10200,19th Avenue Southeast,98208,47.9039629,-122.2101143
10200,19th Avenue Southeast,98208,47.9041059,-122.2101113
10200,19th Avenue Southeast,98208,47.9047244,-122.2076306
1205,Port Gardner Way,98201,48.0014224,-122.2169953
8410,Broadway Avenue,98208,47.9217486,-122.2082414
10210,Evergreen Way,98204,47.9053602,-122.2450110
10115,Evergreen Way,98204,47.9060963,-122.2401940
10113,Evergreen Way,98204,47.9059531,-122.2397732
5313,Evergreen Way,98203,47.9480119,-122.2132483
1721,Hewitt Avenue,98201,47.9793110,-122.1930376
3409,Everett Avenue,98201,47.9819688,-122.1846400
2931,West Marine View Drive,98201,47.9767154,-122.2125940
2800,Pacific Avenue,98201-4528,47.9772754,-122.1933385
710,North Broadway Avenue,98201,48.0085782,-122.1944474
711,Locust Street,98201,48.0074828,-122.1931903
713,Locust Street,98201,48.0074308,-122.1931447
734,Locust Street,98201,48.0070800,-122.1935457
736,Locust Street,98201,48.0070190,-122.1935484
729,Pine Street,98201,48.0071428,-122.1926767
733,Pine Street,98201,48.0070818,-122.1925265
735,Pine Street,98201,48.0069454,-122.1924568
727,Pine Street,98201,48.0072397,-122.1927679
726,Locust Street,98201,48.0072343,-122.1935940
724,Locust Street,98201,48.0072612,-122.1935296
722,Locust Street,98201,48.0073267,-122.1935176
720,Locust Street,98201,48.0073626,-122.1935873
725,Pine Street,98201,48.0071666,-122.1930577
721,Locust Street,98201,48.0071845,-122.1931382
719,Locust Street,98201,48.0072474,-122.1931918
717,Locust Street,98201,48.0073012,-122.1931757
707,Locust Street,98201,48.0076314,-122.1930738
705,Locust Street,98201,48.0077319,-122.1931543
708,Locust Street,98201,48.0075542,-122.1935217
710,Locust Street,98201,48.0074822,-122.1935067
1130,Southeast Everett Mall Way,98208,47.9099470,-122.2170027
2817,Colby Avenue,98201,47.9799841,-122.2083837
1130,Southeast Everett Mall Way,98208,47.9085203,-122.2169865
1130,Southeast Everett Mall Way,98208,47.9094532,-122.2170564
7615,Evergreen Way,98203,47.9279808,-122.2189654
6727,Evergreen Way,98203,47.9279401,-122.2215326
7601,Evergreen Way,98203-6424,47.9284257,-122.2189250
7601,Evergreen Way,98203,47.9290288,-122.2190077
7909,Evergreen Way,98203,47.9259238,-122.2235900
309,East Casino Road,98208,47.9224887,-122.2281436
8530,Evergreen Way,98208,47.9205239,-122.2316565
8530,Evergreen Way,98208,47.9213228,-122.2276936
1603,McDougall Avenue,98201,47.9960980,-122.1994050
2804,Grand Avenue,98201,47.9804080,-122.2131110
4522,Evergreen Way,98203,47.9571130,-122.2126820
2730,W Marine View Dr,98201,47.9808918,-122.2146860
1405,"Hewitt Ave, Everett",98201,47.9794762,-122.2109757
2725,Colby Avenue,98201,47.9809336,-122.2083750
2707,Colby Avenue,98201,47.9816471,-122.2083174
2823,Colby Avenue,98201,47.9797495,-122.2083929
1205,Craftsman Way,98201,48.0010919,-122.2167700
2811-A,Colby Avenue,98201,47.9802192,-122.2083584
6521,Evergreen Way,98203-4554,47.9380675,-122.2180939
7725,Evergreen Way,98203,47.9281905,-122.2218339
515,Southeast Everett Mall Way,98208,47.9095135,-122.2254110
2814,Wetmore Avenue,98201,47.9800642,-122.2074040
2802,Wetmore Avenue,98201,47.9803703,-122.2076105
6923,Evergreen Way,98203,47.9346842,-122.2189730
6923,Evergreen Way,98203,47.9345686,-122.2190035
6923,Evergreen Way,98203,47.9347684,-122.2189500
6920,Evergreen Way,98203,47.9350280,-122.2200752
1426,35th Street,98201,47.9710713,-122.2100440
1401,Poplar Street,98201,47.9982922,-122.1942343
607,Southeast Everett Mall Way,98208,47.9101297,-122.2245070
312,Broadway,98120,47.9762678,-122.2018529
7415,Hardeson Road,98203,47.9307373,-122.2472367
2807,Highland Avenue,98201,47.9799848,-122.1850340
2615,West Casino Road,98204,47.9204835,-122.2703396
1302,Southeast Everett Mall Way,98208,47.9108229,-122.2140788
1402,Southeast Everett Mall Way,98208,47.9104148,-122.2144367
1402,"East, Everett Mall Way",98208,47.9094865,-122.2128500
1402,Southeast Everett Mall Way,98208,47.9107579,-122.2133286
1505,Southeast Everett Mall Way,98208,47.9129799,-122.2134332
1325,Southeast Everett Mall Way,98208-2808,47.9142629,-122.2150498
1203,Southeast Everett Mall Way,98208,47.9124328,-122.2161748
1205,South East Everett Mall Way,98208,47.9134875,-122.2162480
405,Southeast Everett Mall Way,98208-3243,47.9102849,-122.2272305
305,Southeast Everett Mall Way,98208,47.9098577,-122.2277682
515,Southeast Everett Mall Way,98208,47.9095118,-122.2252631
305,Southeast Everett Mall Way,98208,47.9088126,-122.2276860
607,Southeast Everett Mall Way,98208,47.9102069,-122.2240573
607,Southeast Everett Mall Way,98208,47.9097960,-122.2240615
747,75th Street Southeast,98203,47.9304403,-122.2227347
3013,Colby Avenue,98201,47.9772042,-122.2081149
2000,Tower Street,98201,48.0064847,-122.2048456
11820,Evergreen Way,98204,47.8905630,-122.2580280
1814,112th Street Southeast,98208,47.8969050,-122.2076310
1816,112th St SE,98208,47.8968186,-122.2071780
1816,112th St SE,98208,47.8965938,-122.2073280
6504,Evergreen Way,98203,47.9380533,-122.2192069
11014,19th Avenue Southeast,98208-5121,47.8987397,-122.2074586
11014,19th Avenue Southeast,98208,47.8986691,-122.2081040
4920,Evergreen Way South,98203,47.9517311,-122.2144059
4835,Evergreen Way,98203-2830,47.9529830,-122.2121560
11014,19th Ave SE,98208,47.8974879,-122.2089710
5231,Evergreen Way,98203,47.9485184,-122.2128776
2030,Broadway,98201,47.9901042,-122.2017490
530,Southwest Everett Mall Way,98204,47.9038726,-122.2430337
530,Southwest Everett Mall Way,98204,47.9038871,-122.2423955
507,West Casino Road,98204-1606,47.9222096,-122.2408072
1416,Hewitt Avenue,98201,47.9791290,-122.2105540
1414,Hewitt Avenue,98201,47.9791301,-122.2106470
3118,Broadway,98201,47.9759660,-122.2018207
3120,Broadway,98201,47.9758912,-122.2018223
902,North Broadway,98201,48.0054522,-122.1984096
10627,19th Avenue Southeast,98208,47.9010074,-122.2066290
2000,West Marine View Drive,98207,47.9919869,-122.2241440
2000,West Marine View Drive,98207,47.9910683,-122.2243972
2921,Colby Avenue,98201,47.9786585,-122.2089196
3516,Rucker Avenue,98201,47.9707904,-122.2124330
1717,California Street,98201,47.9809927,-122.2061806
11014,19TH AVENUE SE,98208,47.8985357,-122.2085640
11014,19th Avenue Southeast,98208,47.8985048,-122.2086190
11014,19th Ave SE,98208,47.8984301,-122.2087180
11014,19th Avenue Southeast,98208,47.8978047,-122.2089440
11014,19th Avenue Southeast,98208,47.8980404,-122.2089510
607,Riverside Road,98201,48.0093640,-122.1844110
2615,West Casino Road,98204,47.9205300,-122.2699841
2930,Wetmore Avenue,98201,47.9781445,-122.2075680
3315,Seaway Boulevard,98203,47.9393943,-122.2814664
11015,Airport Road,98204,47.8979203,-122.2639855
2707,Colby Avenue,98201,47.9814406,-122.2083421
2722,Colby Avenue,98201,47.9811138,-122.2090940
215,Southwest Everett Mall Way,98204,47.9067783,-122.2367461
2200,Hewitt Avenue,98201,47.9789381,-122.2001010
2831,Colby Avenue,98201,47.9794454,-122.2083944
1620,Hewitt Avenue,98201,47.9791215,-122.2074930
11031,19th Avenue Southeast,98208,47.8972264,-122.2053169
1523,132nd Street Southeast,98208,47.8795571,-122.2108052
11632,Evergreen Way,98204,47.8922872,-122.2572985
2111 1/2,38th Street,98201,47.9678539,-122.2000015
10730,19th Ave SE,98208,47.9002000,-122.2076923
10730,19th Ave SE,98208,47.9004892,-122.2076909
10730,19th Avenue Southeast,98208,47.9004169,-122.2076923
10730,19th Avenue Southeast,98208,47.9002450,-122.2076923
2015,Lake Heights Drive,98208,47.8917024,-122.2042674
6420,Beverly Blvd,98203,47.9393408,-122.2092631
6408,Beverly Boulevard,98203,47.9395011,-122.2084476
5901,23rd Drive West,98203,47.9440739,-122.2618118
10333,19th Avenue Southeast,98208,47.9037515,-122.2062063
2300,Merrill Creek Parkway,98203,47.9406741,-122.2631248
1515,132nd Street Southeast,98208,47.8786680,-122.2118530
1801,Broadway Avenue,98201,47.9935738,-122.2008395
2602,Broadway Avenue,98201,47.9829565,-122.2017538
4717,Evergreen Way,98203,47.9545530,-122.2127660
909,Sievers Duecy Boulevard,98203,47.9313132,-122.2475520
8525,Evergreen Way,98208,47.9206857,-122.2298544
8417,Evergreen Way,98208,47.9206016,-122.2285278
8417,Evergreen Way,98208,47.9206456,-122.2284916
1510,Southeast Everett Mall Way,98208,47.9122354,-122.2125816
1124,Southeast Everett Mall Way,98208,47.9104960,-122.2172020
1007,Southeast Everett Mall Way,98208,47.9113407,-122.2188469
316,South Everett Mall Way,98204-2782,47.9082130,-122.2269050
615,Millwright Loop,98206,48.0013189,-122.2218818
1607,California Street,98201,47.9807837,-122.2079891
10217,19th Avenue Southeast,98208,47.9049589,-122.2062723
3000,Rockefeller Ave,98201,47.9769581,-122.2057555
3000,Rockefeller Ave,98201,47.9774150,-122.2046030
3000,Rockefeller Ave,98201,47.9775807,-122.2046030
4532,Evergreen Way,98203,47.9568338,-122.2128267
3523,Broadway,98201,47.9707687,-122.2008420
1810,Hewitt Avenue,98201,47.9790517,-122.2052351
2011,Hewitt Avenue,98201,47.9793991,-122.2021708
2019,Hewitt Avenue,98201,47.9794018,-122.2018557
2421,Hewitt Avenue,98201,47.9793487,-122.1961934
5129,Evergreen Way,98203,47.9496690,-122.2132468
12902,Bothell Everett Highway,98208,47.8800178,-122.2072820
2608,Broadway,98201,47.9827415,-122.2018189
1801,Hewitt Avenue,98201,47.9794394,-122.2055765
1805,Hewitt Avenue,98201,47.9794316,-122.2054138
1907,Hewitt Avenue,98201,47.9794329,-122.2039683
1911,Hewitt Avenue,98201,47.9793959,-122.2035850
2000,Hewitt Avenue,98201,47.9789401,-122.2020953
2000,Tower Street,98201,48.0057284,-122.2017611
11405,Silver Lake Rd.,98208,47.8935790,-122.2152498
916,Pacific Avenue,98201,47.9751421,-122.2172556
10411,Airport Road,98204,47.9030370,-122.2667957
2505,Pacific Avenue,98201,47.9779297,-122.1969648
3201,Smith Avenue,98201,47.9754738,-122.1976833
3421,Grand Avenue,98201,47.9718723,-122.2133381
7601,Evergreen Way,98203,47.9296019,-122.2188403
7601,Evergreen Way,98203,47.9297901,-122.2204578
11031,19th Avenue Southeast,98204,47.8972730,-122.2050680
1715,Broadway Drive,98201,47.9953533,-122.2007417
1715,Broadway Drive,98201,47.9941930,-122.2002115
4128,Rucker Ave,98201,47.9629002,-122.2113278
4128,Rucker Avenue,98201,47.9624510,-122.2123493
11014,19th Avenue Southeast,98208,47.8982033,-122.2082453
2000,Tower Street,98201,48.0065035,-122.2058110
2000,Tower Street,98201,48.0059793,-122.2042164
2000,Tower Street,98201,48.0063911,-122.2038200
2206,Tower Street,98201,48.0056437,-122.1996043
2000,Tower Street,98201,48.0072029,-122.2048720
2000,Tower Street,98201,48.0070334,-122.2058065
12906,Bothell Everett Highway,98208,47.8798781,-122.2092196
820,Waverly Avenue,98201,48.0071005,-122.1997490
1424,Broadway,98201,47.9979432,-122.2014949
1700,13th Street,98201,48.0006190,-122.2055759
2031,Broadway,98201,47.9900047,-122.2008457
2424,North Broadway,98201,47.9849107,-122.2017810
2510,Broadway,98201,47.9840424,-122.2018137
2001,Everett Avenue,98201-3650,47.9822631,-122.2025967
2608,Broadway,98201,47.9827339,-122.2018618
2106,Everett Avenue,98201,47.9816007,-122.2009651
2727,Broadway Street,98201,47.9809276,-122.2011619
2730,Broadway,98201-3644,47.9807732,-122.2019874
2222,Everett Avenue,98201,47.9815528,-122.1991558
2702,Broadway,98201,47.9815145,-122.2020047
3030,Broadway,98201,47.9769498,-122.2019712
3201,Smith Avenue,98201,47.9754679,-122.1967259
905,Wetmore Avenue,98201,48.0053746,-122.2061723
1111,Craftsman Way,98208,48.0029597,-122.2169984
2320,California Street,98201,47.9801176,-122.1981253
1711,26th Street,98201,47.9834693,-122.2060577
2715,Everett Avenue,98201,47.9823625,-122.1944532
2521,Lombard Avenue,98201,47.9834610,-122.2025431
1800,41st Street,98203,47.9621671,-122.2055518
12815,Bothell-Everett Highway,98208,47.8813969,-122.2062691
12815,Bothell-Everett Highway,98208,47.8815588,-122.2053451
12815,Bothell-Everett Highway,98208,47.8811445,-122.2057673
10200,19th Avenue Southeast,98208,47.9034938,-122.2101252
2931,West Marine View Drive,98201,47.9780548,-122.2139065
2201,100th Street Southwest,98204,47.9082681,-122.2640592
909,North Broadway Avenue,98201,48.0048117,-122.1951945
1221 103rd pl sw #B,Holly Drive,98204,47.9044911,-122.2504747
9931,19th Avenue Southeast,98208,47.9075562,-122.2065580
7430,Evergreen Way,98203,47.9304305,-122.2212784
8120,Hardeson Road,98203,47.9243324,-122.2421998
1871,Ross Avenue,98201,48.0141585,-122.1774501
10220,Evergreen Way,98204,47.9049356,-122.2448939
10011,Evergreen Way,98204,47.9066820,-122.2411609
10103,Evergreen Way,98204,47.9062576,-122.2406962
401,Southwest Everett Mall Way,98204,47.9055808,-122.2393321
11400,Highway 99,98204,47.8945409,-122.2557711
2000,Tower Street,98201,48.0059003,-122.2024926
7100,Hardeson Road,98203,47.9338291,-122.2515438
7100,Hardeson Road,98203,47.9348145,-122.2527403
1010,North Broadway,98201,48.0038835,-122.2003835
841,Pine Street,98201,48.0056551,-122.1915451
"805,807",Pine Street,98201,48.0066590,-122.1922001
"811,813,815,817",Pine Street,98201,48.0064508,-122.1920050
"821,823,825,827",Pine Street,98201,48.0062257,-122.1918190
"831,833",Pine Street,98201,48.0059620,-122.1916456
1720,West Marine View Drive,98201,47.9951291,-122.2211553
1700,West Marine View Drive,98207,47.9951855,-122.2149750
2000,West Marine View Drive,98207,47.9893631,-122.2169630
2000,West Marine View Drive,98207,47.9919804,-122.2235752
2000,West Marine View Drive,98207,47.9916986,-122.2236164
1620,West Marine View Drive,98201,47.9955423,-122.2143092
1919,Rockefeller Avenue,98201,47.9916522,-122.2052020
1920,Merrill Creek Pkwy,98203,47.9372388,-122.2573306
6611,Associated Boulevard,98204,47.9373456,-122.2447991
6617,Associated Boulevard,98204,47.9393096,-122.2448466
1004,Broadway,98201,48.0039826,-122.2013419
1321,Southeast Everett Mall Way,98208,47.9128816,-122.2147278
715,100th Street Southeast,98208,47.9082056,-122.2207262
1605,Southeast Everett Mall Way,98208,47.9144029,-122.2136523
2000,Hewitt Avenue,98201,47.9785809,-122.2030253
1707,Merrill Creek Parkway,98203,47.9450725,-122.2560617
1707,Merrill Creek Parkway,98203,47.9457274,-122.2569353
1707,Merrill Creek Parkway,98203,47.9433016,-122.2557082
1707,Merrill Creek Parkway,98203,47.9457320,-122.2563137
1707,Merrill Creek Parkway,98203,47.9433545,-122.2551097
1707,Merrill Creek Parkway,98203,47.9431797,-122.2563026
1707,Merrill Creek Parkway,98203,47.9452459,-122.2566180
1707,Merrill Creek Parkway,98203,47.9438397,-122.2559557
1707,Merrill Creek Parkway,98203,47.9435918,-122.2564517
1707,Merrill Creek Parkway,98203,47.9444584,-122.2565912
1707,Merrill Creek Parkway,98203,47.9443859,-122.2560371
1707,Merrill Creek Parkway,98203,47.9448492,-122.2565996
1325,Southeast Everett Mall Way,98208,47.9143239,-122.2155825
7920,Evergreen Way,98203,47.9257894,-122.2253467
7725,Evergreen Way,98203,47.9279614,-122.2215627
8520,Evergreen Way,98208,47.9207331,-122.2298257
8413,Evergreen Way,98208,47.9209806,-122.2281262
9028,Evergreen Way,98204,47.9171339,-122.2359426
3210,Hewitt Avenue,98201,47.9787498,-122.1878066
1021,North Broadway,98201,48.0033765,-122.1998593
10301,Evergreen Way,98204,47.9044248,-122.2438191
10117,Evergreen Way,98204,47.9055848,-122.2425577
7431,Evergreen Way,98203,47.9303267,-122.2202067
7407,Evergreen Way,98203,47.9307894,-122.2200498
2214,Rucker Avenue,98201,47.9880195,-122.2116505
3900,Broadway,98201,47.9651159,-122.2019067
9930,19th Avenue Southeast,98208,47.9075125,-122.2077857
9803,19th Avenue Southeast,98208-3810,47.9084563,-122.2065414
10200,25th Avenue Southeast,98208,47.9043216,-122.2004667
10901,27th Avenue Southeast,98208,47.8990354,-122.1943228
6923,Evergreen Way,98203,47.9346461,-122.2189164
6919,Evergreen Way,98203,47.9349333,-122.2189384
7003,Evergreen Way,98203,47.9339733,-122.2191949
7016,Evergreen Way,98203,47.9343804,-122.2200761
6917,Evergreen Way,98203,47.9351043,-122.2188464
6816,Evergreen Way,98203,47.9356334,-122.2201474
211,92nd Street Southwest,98204,47.9150095,-122.2361983
7819,Upper Ridge RD,98203,47.9267964,-122.2359690
3002,Wetmore Avenue,98201,47.9775703,-122.2076591
3001,Oakes Avenue,98201,47.9777263,-122.2039789
4102,Friday Avenue,98201,47.9631265,-122.2149785
4120,Federal Avenue,98203-2117,47.9631038,-122.2191996
4132,Federal Avenue,98203-2117,47.9628083,-122.2180260
4020,Colby Avenue,98201-4929,47.9637637,-122.2085575
6726,Evergreen Way,98203,47.9366005,-122.2196567
5108,Evergreen Way,98203,47.9502977,-122.2147032
4830,Evergreen Way,98203,47.9532408,-122.2139036
7502,Evergreen Way,98203,47.9298098,-122.2214255
7514,Evergreen Way,98203,47.9294216,-122.2216951
1502,Wall Street,98201,47.9774283,-122.2095978
2811,Colby Avenue,98201,47.9801758,-122.2082223
2804,Grand Avenue,98201,47.9804097,-122.2133191
3927,Rucker Avenue,98201,47.9649882,-122.2104508
3901,Hoyt Avenue,98201,47.9656043,-122.2086837
3930,Hoyt Avenue,98201,47.9649511,-122.2098669
9423,Evergreen Way,98204,47.9122349,-122.2363230
9917,Holly Drive,98204,47.9078409,-122.2452004
9915,Holly Drive,98204,47.9086446,-122.2439613
4404,29th Avenue Southeast,98203,47.9592104,-122.1922987
4402,29th Avenue Southeast,98203,47.9593387,-122.1923379
4421,29th Avenue Southeast,98203,47.9587734,-122.1916681
2301,Hoyt Avenue,98201,47.9869142,-122.2094422
7401,Hardeson Road,98203,47.9324390,-122.2486193
6201,Berkshire Drive,98203,47.9418300,-122.2145338
11830,19th Avenue Southeast,98208,47.8897763,-122.2071543
1818,121st Street Southeast,98208,47.8874365,-122.2072146
11221,Silver Lake Road,98208,47.8960191,-122.2126235
10518,16th Place West,98204,47.9038518,-122.2560313
2707,Colby Avenue,98201,47.9814842,-122.2081483
3102,Hoyt Avenue,98201,47.9760195,-122.2105521
2415,Colby Avenue,98201,47.9852794,-122.2077637
2416,Colby Avenue,98201,47.9852505,-122.2093854
2508,Hoyt Avenue,98201,47.9841905,-122.2102605
2702,Hoyt Avenue,98201,47.9816385,-122.2106750
8225,11th Drive West,98204,47.9228190,-122.2496875
8225,11th Drive West,98204,47.9230975,-122.2488360
8225,11th Drive West,98204,47.9228570,-122.2488065
8225,11th Drive West,98204,47.9230440,-122.2496795
2211,West Casino Road,98204,47.9207635,-122.2643450
10627,19th Avenue Southeast,98208,47.9010006,-122.2065927
2406,Everett Avenue,98201,47.9816252,-122.1967894
2402,Everett Avenue,98201,47.9816057,-122.1970065
2410,Everett Avenue,98201,47.9815849,-122.1965952
2412,Everett Avenue,98201,47.9815893,-122.1963964
2420,Everett Avenue,98201,47.9816250,-122.1961275
2707,Virginia Avenue,98201,47.9813987,-122.1969673
2410,Everett Avenue,98201,47.9813985,-122.1965698
2412,Everett Avenue,98201,47.9814231,-122.1963568
2420,Everett Avenue,98201,47.9815718,-122.1962816
2708,Baker Avenue,98201,47.9814212,-122.1961130
2708,Baker Avenue,98201,47.9813974,-122.1962362
9200,18th Avenue West,98204,47.9147919,-122.2581963
9517,Glenwood Avenue,98203,47.9443711,-122.2426149
1810,Leland Drive,98203,47.9256140,-122.2085082
11610,Evergreen Way,98204,47.8925194,-122.2561886
202,Alder Street,98203,47.9520387,-122.2288134
3516,Rucker Avenue,98201,47.9707684,-122.2123330
4019,Colby Avenue,98201,47.9640009,-122.2077122
3619,Rucker Avenue,98201,47.9694254,-122.2106194
3625,Rucker Avenue,98201,47.9687445,-122.2106051
304,Southeast Everett Mall Way,98208,47.9079069,-122.2278414
2251,Pine Street,98201,47.9877887,-122.1911212
1110,Poplar Street,98201,48.0022375,-122.1955806
5010,View Drive,98203,47.9513180,-122.2019729
916,Oakes Avenue,98201,48.0049205,-122.2044355
6922,Lower Ridge Road,98203,47.9353285,-122.2322631
7720,Rainier Drive,98203,47.9320714,-122.2177878
2721,Wetmore Avenue,98201,47.9812716,-122.2067726
2721,Wetmore Avenue,98201,47.9812757,-122.2067736
2702,Rockefeller Avenue,98201,47.9817471,-122.2060893
2720,Rockefeller Avenue,98201,47.9809622,-122.2061870
629,East Casino Road,98208,47.9224034,-122.2237032
615,East Casino Road,98208,47.9223380,-122.2241384
607,East Casino Road,98208,47.9222291,-122.2244655
720,East Casino Road,98208,47.9220326,-122.2234003
520,East Casino Road,98208,47.9217719,-122.2250325
430,East Casino Road,98208,47.9215365,-122.2260239
426,East Casino Road,98208,47.9211744,-122.2270001
8421,7th Avenue Southeast,98208,47.9214430,-122.2225261
8429,7th Avenue Southeast,98208,47.9212154,-122.2225386
8507,7th Avenue Southeast,98208,47.9209819,-122.2222046
8503,7th Avenue Southeast,98208,47.9210023,-122.2225613
9620,19th Avenue Southeast,98208,47.9099853,-122.2074135
2227,McDougall Avenue,98201,47.9874463,-122.1995516
3431,Nassau Street,98201,47.9713369,-122.2154325
3427,Nassau Street,98201,47.9714819,-122.2156028
3421,Nassau Street,98201,47.9716284,-122.2156155
3415,Nassau Street,98201,47.9719051,-122.2155767
3409,Nassau Street,98201,47.9720250,-122.2156307
3405,Nassau Street,98201,47.9721409,-122.2155912
3403,Nassau Street,98201,47.9722971,-122.2154920
3517,Rucker Avenue,98201,47.9704504,-122.2108367
12800,Bothell-Everett Highway,98208,47.8813806,-122.2078662
12830,Bothell-Everett Highway,98208,47.8807524,-122.2073429
10333,19th Avenue Southeast,98208,47.9037542,-122.2061861
3003,Colby Avenue,98201,47.9775106,-122.2081725
310,North Cabot Road,98203,47.9352846,-122.2278419
3000,Rockefeller Avenue,98201,47.9770156,-122.2047611
3000,Rockefeller Avenue,98201,47.9771336,-122.2050361
2708,Forest View Drive,98203,47.9256358,-122.1958350
7918,Forest Glade,98203,47.9255503,-122.1960941
7914,Forest Glade,98203,47.9255244,-122.1963908
7906,Forest Glade,98203,47.9258331,-122.1966366
7902,Forest Glade,98203,47.9259824,-122.1963992
3321,Nassau Street,98201,47.9729259,-122.2155626
3317,Nassau Street,98201,47.9730736,-122.2155658
3311,Nassau Street,98201,47.9732092,-122.2155627
3310,Nassau Street,98201,47.9733031,-122.2162143
3312,Nassau Street,98201,47.9732027,-122.2162228
3322,Nassau Street,98201,47.9729455,-122.2163056
3318,Nassau Street,98201,47.9730799,-122.2162512
3326,Nassau Street,98201,47.9728329,-122.2162043
3332,Nassau Street,98201,47.9726698,-122.2162000
3402,Nassau Street,98201,47.9723283,-122.2162501
3406,Nassau Street,98201,47.9722311,-122.2163920
3410,Nassau Street,98201,47.9721295,-122.2164779
3412,Nassau Street,98201,47.9720243,-122.2162336
3414,Nassau Street,98201,47.9719152,-122.2162577
3416,Nassau Street,98201,47.9717765,-122.2162594
3420,Nassau Street,98201,47.9716618,-122.2162632
3422,Nassau Street,98201,47.9715784,-122.2163006
3424,Nassau Street,98201,47.9714746,-122.2162569
1011,35th Street,98201,47.9712851,-122.2165162
3218,Nassau Street,98201,47.9744020,-122.2161791
3226,Nassau Street,98201,47.9742096,-122.2162700
2818,Grand Avenue,98201,47.9798519,-122.2133289
4817,Rucker Avenue,98203,47.9535477,-122.2081353
9505,Evergreen Way,98204,47.9116221,-122.2368468
9515,Evergreen Way,98204,47.9114833,-122.2370528
200,West Marine View Drive,98201,48.0165850,-122.2092378
2918,Hoyt Avenue,98201,47.9785858,-122.2103355
1611,Hewitt Avenue,98201,47.9796592,-122.2076321
2202,Broadway,98201,47.9881885,-122.2015956
2230,Colby Avenue,98201,47.9874292,-122.2088422
7819,Grant Drive,98203,47.9266116,-122.2076041
7813,Grant Drive,98203,47.9267782,-122.2079428
7815,Grant Drive,98203,47.9267568,-122.2073500
1814,75th Street Southeast,98203,47.9304010,-122.2075292
6322,Beverly Boulevard,98203,47.9400688,-122.2080230
6412,Beverly Boulevard,98203,47.9393179,-122.2086751
1121,Southeast Everett Mall Way,98208,47.9119181,-122.2173783
1522,126th Street Southeast,98208,47.8834843,-122.2112549
1910,112th Street Southwest,98012,47.8955741,-122.2599119
3105,Pine Street,98201,47.9753866,-122.1919166
9512,Evergreen Way,98204,47.9123489,-122.2383436
2017,79th Street Southeast,98203,47.9265976,-122.2050129
2015,79th Street Southeast,98203,47.9266174,-122.2051108
7901,20th Avenue Southeast,98203,47.9263492,-122.2052058
7903,20th Avenue Southeast,98203,47.9262909,-122.2052406
7905,20th Avenue Southeast,98203,47.9262389,-122.2052692
7907,20th Avenue Southeast,98203,47.9261877,-122.2052975
7909,20th Avenue Southeast,98203,47.9261361,-122.2053255
7911,20th Avenue Southeast,98203,47.9260743,-122.2053533
7915,20th Avenue Southeast,98203,47.9259797,-122.2054084
7917,20th Avenue Southeast,98203,47.9259216,-122.2054409
7919,20th Avenue Southeast,98203,47.9258713,-122.2054676
7921,20th Avenue Southeast,98203,47.9258195,-122.2054959
7923,20th Avenue Southeast,98203,47.9257675,-122.2055239
7925,20th Avenue Southeast,98203,47.9257151,-122.2055518
7927,20th Avenue Southeast,98203,47.9256527,-122.2055802
7906,20th Avenue Southeast,98203,47.9263183,-122.2057282
7908,20th Avenue Southeast,98203,47.9262643,-122.2057562
7910,20th Avenue Southeast,98203,47.9262129,-122.2057839
7912,20th Avenue Southeast,98203,47.9261594,-122.2058141
7914,20th Avenue Southeast,98203,47.9261025,-122.2058504
7918,20th Avenue Southeast,98203,47.9260096,-122.2059033
7920,20th Avenue Southeast,98203,47.9259462,-122.2059281
7922,20th Avenue Southeast,98203,47.9258948,-122.2059558
7924,20th Avenue Southeast,98203,47.9258416,-122.2059848
7926,20th Avenue Southeast,98203,47.9257851,-122.2060210
7926,19th Drive Southeast,98203,47.9256544,-122.2068669
7924,19th Drive Southeast,98203,47.9257214,-122.2068627
7922,19th Drive Southeast,98203,47.9257757,-122.2068630
7920,19th Drive Southeast,98203,47.9258375,-122.2068652
7916,19th Drive Southeast,98203,47.9259371,-122.2068667
7914,19th Drive Southeast,98203,47.9260017,-122.2068625
7912,19th Drive Southeast,98203,47.9260558,-122.2068618
7910,19th Drive Southeast,98203,47.9261184,-122.2068648
7923,19th Drive Southeast,98203,47.9257461,-122.2063897
7921,19th Drive Southeast,98203,47.9258047,-122.2063897
7919,19th Drive Southeast,98203,47.9258612,-122.2063897
7917,19th Drive Southeast,98203,47.9259255,-122.2063898
7913,19th Drive Southeast,98203,47.9260197,-122.2063891
7911,19th Drive Southeast,98203,47.9260889,-122.2063881
7909,19th Drive Southeast,98203,47.9261457,-122.2063889
7907,19th Drive Southeast,98203,47.9261984,-122.2063891
7905,19th Drive Southeast,98203,47.9262620,-122.2063883
7811,19th Drive Southeast,98203,47.9267404,-122.2061657
7809,19th Drive Southeast,98203,47.9268070,-122.2061657
7812,19th Drive Southeast,98203,47.9267354,-122.2068873
7810,19th Drive Southeast,98203,47.9267900,-122.2068876
7808,19th Drive Southeast,98203,47.9268436,-122.2068867
7806,19th Drive Southeast,98203,47.9268955,-122.2068857
7804,19th Drive Southeast,98203,47.9269492,-122.2068859
7802,19th Drive Southeast,98203,47.9270092,-122.2068903
1901,78th Place Southeast,98203,47.9272948,-122.2069302
1903,78th Place Southeast,98203,47.9272886,-122.2068370
1905,78th Place Southeast,98203,47.9272873,-122.2067487
1907,78th Place Southeast,98203,47.9272896,-122.2066534
1911,78th Place Southeast,98203,47.9272892,-122.2065098
1913,78th Place Southeast,98203,47.9272829,-122.2064165
1915,78th Place Southeast,98203,47.9272817,-122.2063281
1917,78th Place Southeast,98203,47.9272840,-122.2062328
1901,78th Place Southeast,98203,47.9272809,-122.2060890
1903,78th Place Southeast,98203,47.9272747,-122.2059957
1905,78th Place Southeast,98203,47.9272734,-122.2059073
1907,78th Place Southeast,98203,47.9272757,-122.2058120
2001,78th Place Southeast,98203,47.9272735,-122.2056679
2003,78th Place Southeast,98203,47.9272672,-122.2055749
2005,78th Place Southeast,98203,47.9272660,-122.2054864
2007,78th Place Southeast,98203,47.9272683,-122.2053909
2013,78th Place Southeast,98203,47.9272455,-122.2051627
2015,78th Place Southeast,98203,47.9272423,-122.2050672
1914,78th Place Southeast,98203,47.9269550,-122.2063753
1916,78th Place Southeast,98203,47.9269536,-122.2062824
1918,78th Place Southeast,98203,47.9269525,-122.2062022
1920,78th Place Southeast,98203,47.9269519,-122.2061188
1922,78th Place Southeast,98203,47.9269468,-122.2060223
1926,78th Place Southeast,98203,47.9269380,-122.2058736
1928,78th Place Southeast,98203,47.9269366,-122.2057808
2002,78th Place Southeast,98203,47.9269354,-122.2057005
2004,78th Place Southeast,98203,47.9269348,-122.2056171
2006,78th Place Southeast,98203,47.9269298,-122.2055206
2016,78th Place Southeast,98203,47.9268532,-122.2050843
2018,78th Place Southeast,98203,47.9268269,-122.2049756
2020,78th Place Southeast,98203,47.9268062,-122.2048858
10810,19th Avenue Southeast,98208,47.8996093,-122.2074998
6424,Beverly Boulevard,98203,47.9391354,-122.2088271
6430,Beverly Boulevard,98203,47.9390131,-122.2089960
10316,Evergreen Way,98204,47.9041887,-122.2452798
4406,29th Avenue Southeast,98203,47.9590952,-122.1922833
4429,29th Avenue Southeast,98203,47.9586702,-122.1916779
4425,29th Avenue Southeast,98203,47.9585745,-122.1916854
4427,29th Avenue Southeast,98203,47.9584783,-122.1917058
4419,29th Avenue Southeast,98203,47.9588730,-122.1916779
4417,29th Avenue Southeast,98203,47.9589753,-122.1917007
4331,Riverfront Boulevard,98203,47.9597907,-122.1911260
4329,Riverfront Boulevard,98203,47.9598709,-122.1912069
4327,Riverfront Boulevard,98203,47.9599460,-122.1912981
4307,Riverfront Boulevard,98203,47.9600320,-122.1913789
4305,Riverfront Boulevard,98203,47.9601114,-122.1914699
4303,Riverfront Boulevard,98203,47.9601981,-122.1915552
4301,Riverfront Boulevard,98203,47.9602721,-122.1916426
4227,Riverfront Boulevard,98203,47.9603494,-122.1917245
4225,Riverfront Boulevard,98203,47.9604277,-122.1918149
4309,30th Drive Southeast,98203,47.9604063,-122.1912551
4311,30th Drive Southeast,98203,47.9604776,-122.1911133
4313,30th Drive Southeast,98203,47.9605503,-122.1909758
8517,7th Avenue Southeast,98208,47.9195784,-122.2223183
1810,Hewitt Avenue,98201,47.9789521,-122.2052355
2011,Hewitt Avenue,98201,47.9794822,-122.2021635
2015,Hewitt Avenue,98201,47.9794804,-122.2020105
2019,Hewitt Avenue,98201,47.9794854,-122.2018578
2411,Hewitt Avenue,98201,47.9794545,-122.1968869
2415,Hewitt Avenue,98201,47.9794498,-122.1963885
2421,Hewitt Avenue,98201,47.9794461,-122.1961860
12329,19th Avenue Southeast,98208,47.8856360,-122.2061653
11622,Silver Lake Road,98208,47.8991183,-122.2143509
2000,West Marine View Drive,98207,47.9872950,-122.2238272
1819,121st Street Southeast,98208,47.8889515,-122.2074610
9029,El Capitan Way,98208,47.9151469,-122.2045000
9900,12th Avenue West,98204,47.9087086,-122.2511416
2514,Rainier Avenue,98201,47.9839381,-122.1994309
4027,4th St SE,98205,47.9974099,-122.1726295
