House number,Street name,Postal code,Latitude,Longitude
4001,West 27th Avenue,99337,46.1839395,-119.1758830
325,South Union Street,99336,46.2066158,-119.1795460
2700,South Quillan Street,99337,46.1843297,-119.1743121
2703,South Quillan Street,99337,46.1841514,-119.1736362
5204,West Clearwater Avenue,99336,46.2138661,-119.1926930
901,North Columbia Center Boulevard,99336,46.2204574,-119.2246787
901,North Columbia Center Boulevard,99336,46.2204604,-119.2248045
4402,So. Kent St.,99337,46.1694544,-119.1335744
4008,West 27th Avenue,99337,46.1850612,-119.1754380
3013,West Clearwater Avenue,99336,46.2120421,-119.1613918
3715,Plaza Way,99338,46.1769541,-119.1889336
7048,West Grandridge Boulevard,99336,46.2179090,-119.2176480
731,Columbia Center Boulevard,99336,46.2169191,-119.2262403
1102,North Columbia Center Boulevard,99336,46.2212064,-119.2233266
7407,West Canal Drive,99336-7615,46.2262351,-119.2204363
6607,West Canal Drive,99336,46.2263072,-119.2105879
6607,West Canal Drive,99336,46.2263252,-119.2101190
7600,West Clearwater Avenue,99336,46.2101528,-119.2249870
12231,West Clearwater Avenue,99338,46.1966135,-119.2647556
12231,West Clearwater Avenue,99338,46.1967275,-119.2648167
320,South Washington Street,99336,46.2047721,-119.1173144
203,West 1st Avenue,99336,46.2075005,-119.1203041
6809,West Canal Drive,99336,46.2250604,-119.2121516
2831,West Kennewick Avenue,99336,46.2083075,-119.1607376
2903,West Kennewick Avenue,99336,46.2083248,-119.1611073
1321,North Columbia Center Boulevard,99336,46.2261304,-119.2284409
6705,West Canal Drive,99336,46.2251133,-119.2103907
6807,West Canal Drive,99336,46.2250521,-119.2113107
6803,West Canal Drive,99336-7673,46.2250725,-119.2117855
6815,West Canal Drive,99336,46.2250966,-119.2126940
1321,North Columbia Center Boulevard,99336,46.2248988,-119.2272813
1321,North Columbia Center Boulevard,99336,46.2238396,-119.2262863
1026,North Colorado Street,99336,46.2206467,-119.2229060
1821,South Washington Street,99337,46.1911012,-119.1164540
5020,West Clearwater Avenue,99336,46.2127345,-119.1889180
5011,West Clearwater Avenue,99336,46.2121362,-119.1886956
5011,West Clearwater Avenue,99336,46.2119428,-119.1887185
3700,West Canyon Lakes Drive,99337,46.1788820,-119.1706770
220,West Vista Way,99336,46.2122087,-119.1582070
210,South Dawes Street,99336,46.2076482,-119.1909408
208,South Dawes Street,99336,46.2077198,-119.1910420
212,South Dawes Street,99336,46.2075615,-119.1909427
4804,West Clearwater Avenue,99336,46.2131814,-119.1848050
1380,N Lousiana St,99336,46.2245237,-119.2324430
116,West 1st Avenue,99336,46.2077609,-119.1190534
8202,West Quinault Street,99336,46.2234804,-119.2316570
3311 ste B140,West Clearwater Avenue,99336,46.2112247,-119.1668394
4309,West 27th Place,99338,46.1854755,-119.1800230
815,North Kellogg Street,99336,46.2190217,-119.2030350
7401,W. Hood Pl,99336,46.2159694,-119.2223840
3019,West Kennewick Avenue,99336,46.2084642,-119.1629623
3107,West Kennewick Avenue,99336,46.2092562,-119.1629084
2811,West 10th Avenue,99336,46.1978099,-119.1613559
7110,West Okanogan Place,99336,46.2226159,-119.2164330
202,South Washington Street,99336,46.2063652,-119.1172355
204,South Washington Street,99336,46.2062965,-119.1172211
206,South Washington Street,99336,46.2062214,-119.1172417
208,South Washington Street,99336,46.2061545,-119.1172542
1611,West Kennewick Avenue,99336,46.2092097,-119.1413185
1611,West Kennewick Avenue,99336,46.2092134,-119.1412032
1022,Columbia Center Boulevard,99336,46.2207313,-119.2236677
1620,West 4th Avenue,99336,46.2059099,-119.1415332
1618,West 4th Avenue,99336,46.2059095,-119.1414634
1526,West 4th Avenue,99336,46.2058830,-119.1402481
1524,West 4th Avenue,99336,46.2058830,-119.1400731
222,East Bruneau Avenue,99336,46.2105728,-119.1126957
222,East Bruneau Avenue,99336,46.2105756,-119.1128419
10,North Washington Street,99336,46.2090365,-119.1164638
2,West Kennewick Avenue,99336,46.2089521,-119.1172242
101,South Washington Street,99336,46.2072240,-119.1165885
1724,West 45th Avenue,99336,46.1693937,-119.1418390
128,South Ely Street,99336,46.2080422,-119.1595071
2617,West Kennewick Avenue,99336,46.2090137,-119.1570401
3506,West Clearwater Avenue,99336,46.2126673,-119.1691030
517,North Johnson Street,99336,46.2151867,-119.1657937
4305,West 27th Place,99338,46.1851620,-119.1790339
127,West Canal Drive,99336,46.2098980,-119.1196979
34,North Benton Street,99336,46.2099085,-119.1197969
322,West Kennewick Avenue,99336,46.2088187,-119.1226702
320,West Kennewick Avenue,99336,46.2088187,-119.1225964
318,West Kennewick Avenue,99336,46.2088185,-119.1225280
316,West Kennewick Avenue,99336,46.2088181,-119.1224522
314,West Kennewick Avenue,99336,46.2088173,-119.1223228
303½,West Kennewick Avenue,99336,46.2085783,-119.1217596
309,West Kennewick Avenue,99336,46.2085791,-119.1219332
311,West Kennewick Avenue,99336,46.2085797,-119.1220526
313,West Kennewick Avenue,99336,46.2085803,-119.1221719
315,West Kennewick Avenue,99336,46.2085813,-119.1223677
317,West Kennewick Avenue,99336,46.2085815,-119.1224073
319,West Kennewick Avenue,99336,46.2085822,-119.1225595
319,West Kennewick Avenue,99336,46.2085823,-119.1225823
321,West Kennewick Avenue,99336,46.2085826,-119.1226447
323,West Kennewick Avenue,99336,46.2085830,-119.1227171
325,West Kennewick Avenue,99336,46.2085832,-119.1227640
5,South Dayton Street,99336,46.2084005,-119.1228035
7,South Dayton Street,99336,46.2083606,-119.1228038
9,South Dayton Street,99336,46.2083179,-119.1228041
1659,North Columbia Center Boulevard,99336,46.2276411,-119.2246303
1659,North Columbia Center Boulevard,99336,46.2274565,-119.2246263
1321,North Columbia Center Boulevard,99336,46.2252298,-119.2288494
2417,West Kennewick Avenue,99336,46.2092213,-119.1527573
428,East Columbia Drive,99337,46.2119043,-119.1101587
428,East Columbia Drive,99337,46.2119108,-119.1100031
12,West Kennewick Avenue,99336,46.2089469,-119.1177697
7530,West Clearwater Avenue,99336,46.2102492,-119.2243474
7501,West Deschutes Place,99336,46.2113763,-119.2224580
104,East 41st Place,99337,46.1714986,-119.1158697
6827,West Clearwater Avenue,99336,46.2102350,-119.2116405
8505,Gage Boulevard,99336-8120,46.2254767,-119.2347215
1200,Columbia Center Boulevard,99336-1117,46.2237095,-119.2230032
4,North Union Street,99336,46.2105400,-119.1793272
1620,South Union Street,99338,46.1937543,-119.1812988
1321,North Columbia Center Boulevard,99336,46.2263617,-119.2279517
6504,West Okanogan Avenue,99336,46.2174593,-119.2089986
845,Columbia Center Boulevard,99336,46.2190396,-119.2273409
900,South Auburn Street,99336,46.1991710,-119.1207655
600,South Auburn Street,99336,46.2022176,-119.1190459
6011,West 10th Place,99338,46.1967199,-119.2051243
2720,South Quillan Street,99337,46.1827227,-119.1772726
2825,West Kennewick Ave,99336,46.2082667,-119.1603037
2825,West Kennewick Ave,99336,46.2092801,-119.1619971
910,East 10th Avenue,99336,46.1972423,-119.1029877
1102,N Columbia Center Boulevard,99336,46.2211797,-119.2231778
323,West 8th Avenue,99336,46.1998241,-119.1222244
27,North Auburn Street,99336,46.2096556,-119.1186746
116,North Morain Street,99336,46.2113012,-119.1689421
7000,West Okanogan Place,99336,46.2207346,-119.2170672
867,N Columbia Center Boulevard,99336,46.2199561,-119.2270204
515,South Union Street,99336,46.2040657,-119.1795250
3810,Plaza Way,99336,46.1780635,-119.1916102
7171,West Canal Drive,99336,46.2261330,-119.2172241
1500,South Union Street,99338,46.1952032,-119.1809194
10376,Ridgeline Drive,99338,46.1940279,-119.2594444
7901,West Quinault Street,99336,46.2226085,-119.2280240
1021,Columbia Center Boulevard,99336,46.2207942,-119.2246277
1026,North Colorado Street,99336,46.2206523,-119.2229264
1106,Columbia Center Boulevard,99336,46.2215525,-119.2213974
1701,South Clodfelter Road,99338,46.1941600,-119.2522985
835,North Neel Street,99336,46.2191215,-119.1714140
211,West 6th Avenue,99336,46.2021520,-119.1208505
6016,West 10th Avenue,99336,46.1996044,-119.2017015
2721,West 10th Avenue,99336,46.1979540,-119.1576987
2722,West 10th Avenue,99336,46.1988634,-119.1584464
1409,North Kellogg Street,99336-7691,46.2262166,-119.2080785
7003,West Canal Drive,99336,46.2263118,-119.2145106
405,South Dayton Street,99336,46.2050322,-119.1225154
1380,N Lousiana St,99336,46.2245004,-119.2324031
1321,North Columbia Center Boulevard,99336,46.2236114,-119.2257259
1221,Columbia Center Boulevard,99336,46.2241062,-119.2250767
626,North Columbia Center Boulevard,99336,46.2165969,-119.2240866
835,Columbia Center Boulevard,99336,46.2187287,-119.2249810
7322,West Bonnie Avenue,99336,46.2314459,-119.2180217
4917,West 12th Avenue,99338,46.1973239,-119.1873874
2105,North Steptoe Street,99336,46.2320451,-119.2465386
3911,West 27th Avenue,99337,46.1840543,-119.1723338
3910,West 27th Avenue,99337,46.1855272,-119.1722762
4821,West 12th Avenue,99338,46.1972867,-119.1867058
4921,West 12th Avenue,99338,46.1973509,-119.1880078
1401,South Union Street,99338,46.1960771,-119.1797754
5003,West 12th Avenue,99338,46.1973777,-119.1886339
5023,West 12th Avenue,99338,46.1973628,-119.1892364
5101,West 12th Avenue,99338,46.1973525,-119.1899032
5121,West 12th Avenue,99338,46.1973301,-119.1905458
5201,West 12th Avenue,99338,46.1972973,-119.1911669
5221,West 12th Avenue,99338,46.1973397,-119.1916277
5303,West 12th Avenue,99338,46.1974106,-119.1925157
1101,Columbia Center Boulevard,99336,46.2217323,-119.2255306
1020,North Colorado Street,99336,46.2196449,-119.2213506
701,North Young Street,99336,46.2176800,-119.2196200
1000,West 4th Avenue,99336,46.2063792,-119.1336194
824,West Vineyard Drive,99336,46.2064321,-119.1302893
812,West Vineyard Drive,99336,46.2075065,-119.1291052
808,West Vineyard Drive,99336,46.2074649,-119.1282777
818,West Vineyard Drive,99336,46.2065823,-119.1293626
7525,West Canal Drive,99336,46.2258602,-119.2228270
1310,North Columbia Center Boulevard,99336,46.2252098,-119.2230837
7500,West Canal Drive,99336,46.2252054,-119.2214561
7415,West Canal Drive,99336,46.2263647,-119.2213149
522,North Columbia Center Boulevard,99336,46.2149544,-119.2245915
751,North Columbia Center Boulevard,99336,46.2175838,-119.2251830
1002,South Cedar Street,99336,46.1979666,-119.1127024
810,South Washington Street,99336,46.1995573,-119.1173876
902,South Washington Street,99336,46.1990488,-119.1175669
1001,South Washington Street,99337,46.1978912,-119.1167748
1611,South Washington Street,99337,46.1931502,-119.1164500
601,North Edison Street,99336,46.2164226,-119.1924963
5209,West Okanogan Avenue,99336,46.2207370,-119.1912176
5929,West Metaline Avenue,99336,46.2186066,-119.2008680
1232,North Columbia Center Boulevard,99336,46.2245661,-119.2228821
7605,West Deschutes,99336,46.2122420,-119.2250225
201,North Cedar Street,99336,46.2111594,-119.1129104
434,Clover Island Dri,99336,46.2168941,-119.1093918
4602,West Clearwater Avenue,99336,46.2136438,-119.1824125
4800,West Clearwater Avenue,99336,46.2126372,-119.1841527
4727,West Clearwater Avenue,99336,46.2121104,-119.1843450
4711,West Clearwater Avenue,99336,46.2120150,-119.1832310
4707,West Clearwater Avenue,99336,46.2121119,-119.1828213
2801,West Kennewick Avenue,99336,46.2092144,-119.1593663
2911,West Kennewick Avenue,99336,46.2092929,-119.1614239
555,North Edison Street,99336,46.2157560,-119.1923116
101,North Edison Street,99336,46.2103981,-119.1921711
5207,West Clearwater Avenue,99336,46.2119868,-119.1912093
216,North Edison Street,99336,46.2115840,-119.1911178
1922,North Steptoe,99336,46.2280822,-119.2433597
1900,North Steptoe Street,99352,46.2275757,-119.2434077
4891,West 27th Avenue,99338,46.1839299,-119.1849824
8136,West Grandridge Boulevard,99336,46.2203684,-119.2306427
1410,West 27th Avenue,99337,46.1855074,-119.1389001
1921,South Olympia Street,99336,46.1904526,-119.1370089
1325,West 4th Avenue,99336,46.2050907,-119.1369359
1423,West 4th Avenue,99336,46.2054722,-119.1394562
1423,West 4th Avenue,99336,46.2054707,-119.1392247
1423,West 4th Avenue,99336,46.2054694,-119.1389965
1407,West 4th Avenue,99336,46.2054644,-119.1386131
404,South Olympia Street,99336,46.2055597,-119.1381805
1519,West 4th Avenue,99336,46.2055831,-119.1401125
1517,West 4th Avenue,99336,46.2055798,-119.1399589
1515,West 4th Avenue,99336,46.2055653,-119.1397233
1400,West 4th Avenue,99336,46.2060881,-119.1384875
4220,West 27th Place,99337,46.1861404,-119.1776078
300,North US 395,99336,46.2129854,-119.1580928
2628,West Bruneau Place,99336,46.2120130,-119.1571369
7109,West Okanogan Place,99336,46.2214559,-119.2168012
2811,West 10th Avenue,99336,46.1971797,-119.1614513
2807,West 10th Avenue,99336,46.1981940,-119.1603099
7504,West Clearwater Avenue,99336,46.2103161,-119.2224618
7505,West Clearwater,99336-1642,46.2096447,-119.2227220
3918,West 7th Avenue,99336,46.2029436,-119.1739424
3920,West 7th Avenue,99336,46.2029398,-119.1742655
3904,West 7th Avenue,99336,46.2028895,-119.1732845
2801,West Clearwater Avenue,99336,46.2120620,-119.1593658
2804,West Kennewick Avenue,99336,46.2098376,-119.1595705
131,North Ely Street,99336,46.2110685,-119.1593964
7411,West Canal Drive,99336,46.2252616,-119.2193864
2823,South Quillan Street,99337,46.1826242,-119.1720019
528,South Perry Court,99336,46.2036167,-119.1728607
608,South Perry Court,99336,46.2030713,-119.1728876
602,South Perry Court,99336,46.2032537,-119.1728769
534,South Perry Court,99336,46.2034399,-119.1728610
614,South Perry Court,99336,46.2029167,-119.1728871
506,South Perry Court,99336,46.2043151,-119.1730073
511,South Perry Court,99336,46.2041351,-119.1723591
3809,West 6th Avenue,99336,46.2031832,-119.1723927
500,South Perry Court,99336,46.2043594,-119.1727310
517,South Perry Court,99336,46.2039263,-119.1723745
522,South Perry Court,99336,46.2038005,-119.1728588
615,South Perry Court,99336,46.2029170,-119.1723824
523,South Perry Court,99336,46.2037605,-119.1724152
518,South Perry Court,99336,46.2039349,-119.1730493
4003,West 7th Avenue,99336,46.2025419,-119.1745303
512,South Perry Court,99336,46.2041700,-119.1731304
529,South Perry Court,99336,46.2035674,-119.1723654
505,South Perry Court,99336,46.2043228,-119.1724279
2811,West 2nd Avenue,99336,46.2067428,-119.1602534
2815,West 2nd Avenue,99336,46.2072366,-119.1595306
2721,West Kennewick Avenue,99336,46.2089879,-119.1582427
101,North Ely Street,99336,46.2102771,-119.1606115
129,North Ely Street,99336,46.2109037,-119.1606271
231,West Vista Way,99336,46.2116064,-119.1583453
131,West Vista Way,99336,46.2108990,-119.1579109
131,West Vista Way,99336,46.2108393,-119.1576645
101,West Vista Way,99336,46.2105315,-119.1572647
2625,West Albany Avenue,99336,46.2107364,-119.1574971
2718,West Kennewick Avenue,99336,46.2097979,-119.1584412
2632,West Kennewick Avenue,99336,46.2099111,-119.1574581
2624,West Kennewick Avenue,99336,46.2098564,-119.1568840
2625,West Albany Avenue,99336,46.2101002,-119.1568037
2610,West Kennewick Avenue,99336,46.2097033,-119.1561449
434,Clover Island Drive,99336,46.2168638,-119.1092344
3887,West 7th Avenue,99336,46.2023371,-119.1731931
401,North Ely Street,99336,46.2134674,-119.1593898
100,North Huntington Street,99336,46.2108900,-119.1616190
4500,West 27th Avenue,99338,46.1852157,-119.1808362
5453,Ridgeline Drive,99338,46.1737836,-119.1948176
3623,Plaza Way,99336,46.1787825,-119.1880068
4898,Hildebrand Boulevard,99336,46.1788820,-119.1870597
2611,South Quillan Place,99338,46.1856941,-119.1760237
3730,Plaza Way,99336,46.1780351,-119.1911836
3887,West 7th Avenue,99336,46.2021871,-119.1728375
3887,West 7th Avenue,99336,46.2025711,-119.1733157
19,North Benton Street,99336,46.2092604,-119.1203943
35,North Benton Street,99336,46.2097879,-119.1203114
115,West Canal Drive,99336,46.2096356,-119.1192362
103,West Canal Drive,99336,46.2095803,-119.1187931
120,West 1st Avenue,99336,46.2079217,-119.1191707
20,South Auburn Street,99336,46.2079526,-119.1187805
314,West 1st Avenue,99336,46.2079346,-119.1224355
303,West 1st Avenue,99336,46.2074368,-119.1217944
315,West 1st Avenue,99336,46.2074596,-119.1223174
319,West 1st Avenue,99336,46.2074193,-119.1225493
323½,West 1st Avenue,99336,46.2073895,-119.1227296
2,South Dayton Street,99336,46.2083852,-119.1235717
421,West Kennewick Avenue,99336,46.2084194,-119.1241818
210,West 6th Avenue,99336,46.2030632,-119.1207566
304,West 6th Avenue,99336,46.2032381,-119.1216730
455,East Bruneau Avenue,99336,46.2104697,-119.1110434
316,East Bruneau Avenue,99336,46.2104531,-119.1122558
204,East Bruneau Avenue,99336,46.2105157,-119.1133057
3,West Columbia Drive,99336,46.2117643,-119.1173846
300,West Kennewick Avenue,99336,46.2089247,-119.1217500
110,North Washington Street,99336,46.2099935,-119.1165693
15,North Auburn Street,99336,46.2092601,-119.1189079
5920,West Clearwater Avenue,99336,46.2129044,-119.2005752
5900,West Clearwater Avenue,99336,46.2130044,-119.1998875
5810,West Clearwater Avenue,99336,46.2126583,-119.1995081
5804,West Clearwater Avenue,99336,46.2127421,-119.1992822
30,West Vista Way,99336,46.2103480,-119.1557988
2514,West Kennewick Avenue,99336,46.2097447,-119.1540758
2500,West Kennewick Avenue,99336,46.2098441,-119.1538482
2625,West Bruneau Place,99336,46.2113904,-119.1562127
206,North Conway Street,99336,46.2116032,-119.1551185
120,North Conway Street,99336,46.2114016,-119.1551192
114,North Conway Street,99336,46.2111861,-119.1551202
108,North Conway Street,99336,46.2109899,-119.1551192
102,North Conway Street,99336,46.2107637,-119.1551415
96,North Conway Street,99336,46.2105722,-119.1551434
7809,West Quinault Avenue,99336,46.2208587,-119.2278395
7801,West Quinault Avenue,99336,46.2218113,-119.2278069
6006,West Clearwater Avenue,99336,46.2131271,-119.2017479
2631,West Kennewick Avenue,99336,46.2091503,-119.1575505
2607,West Kennewick Avenue,99336,46.2092011,-119.1565152
2521,West Kennewick Avenue,99336,46.2091352,-119.1543741
2517,West Kennewick Avenue,99336,46.2091383,-119.1540238
2417,West Kennewick Avenue,99336,46.2092419,-119.1527150
2409,West Kennewick Avenue,99336,46.2092552,-119.1524546
2401,West Kennewick Avenue,99336,46.2092090,-119.1519614
2410,West Kennewick Avenue,99336,46.2098084,-119.1525529
2404,West Kennewick Avenue,99336,46.2098410,-119.1522592
2400,West Kennewick Avenue,99336,46.2098300,-119.1520101
704,Ely Street,99336,46.2019863,-119.1595162
201,South Dawes Street,99336,46.2082683,-119.1895937
100,South Dawes Street,99336,46.2089401,-119.1910008
102,South Dawes Street,99336,46.2087066,-119.1909522
202,South Dawes Street,99336,46.2078537,-119.1910472
110,South Dawes Street,99336,46.2084143,-119.1909639
80,South Dawes Street,99336,46.2092629,-119.1910740
118,South Dawes Street,99336,46.2081675,-119.1910649
308,South Dawes Street,99336,46.2067971,-119.1910025
302,South Dawes Street,99336,46.2070627,-119.1910360
114,North Edison Street,99336,46.2102496,-119.1911027
4624,West 10th Avenue,99336,46.2004273,-119.1833110
4901,West 20th Avenue,99338,46.1893386,-119.1866943
7001,West 13th Avenue,99338,46.1964007,-119.2168892
4711,West Metaline Avenue,99336,46.2188059,-119.1850168
722,North Arthur Street,99336,46.2182730,-119.1856459
632,North Arthur Street,99336,46.2168467,-119.1842526
670,North Arthur Street,99336,46.2176032,-119.1859403
632,North Arthur Street,99336,46.2175443,-119.1849584
632,North Arthur Street,99336,46.2168488,-119.1849584
632,North Arthur Street,99336,46.2173924,-119.1850423
632,North Arthur Street,99336,46.2171926,-119.1839365
632,North Arthur Street,99336,46.2175446,-119.1842531
460,North Arthur Street,99336,46.2148320,-119.1850991
2624,West Kennewick Avenue,99336,46.2098563,-119.1569866
445,North Volland Street,99336,46.2146628,-119.1825621
334,North Union Street,99336,46.2137783,-119.1795397
305,South Edison Street,99336,46.2068023,-119.1915494
731,North Columbia Center Boulevard,99336,46.2164405,-119.2253443
309,South Dawes Street,99336,46.2066071,-119.1904383
301,South Dawes Street,99336,46.2069561,-119.1904627
310,South Cleveland Street,99336,46.2066660,-119.1889375
209,South Dawes Street,99336,46.2074512,-119.1904220
17,South Union Street,99336,46.2089825,-119.1794020
4405,West Kennewick Avenue,99336,46.2096451,-119.1807445
4506,West Kennewick Avenue,99336,46.2100367,-119.1812834
4312,West Kennewick Avenue,99336,46.2102102,-119.1785914
215,North Union Street,99336,46.2120318,-119.1803183
5100,West Clearwater Avenue,99336,46.2136027,-119.1903636
4819,West Clearwater Avenue,99336,46.2119626,-119.1850715
200,North Union Street,99336,46.2112649,-119.1793153
4410,West 10th Avenue,99336,46.2000699,-119.1809828
4403,West 10th Avenue,99338,46.1990367,-119.1811039
400,North Quay Street,99336,46.2139040,-119.2076050
410,North Quay Street,99336,46.2135222,-119.2083355
6501,West Okanogan Avenue,99336,46.2151202,-119.2092417
815,North Kellogg Street,99336,46.2188397,-119.2031205
4200,West Kennewick Avenue,99336,46.2100283,-119.1768166
4100,West Kennewick Avenue,99336,46.2100022,-119.1745337
3926,West Kennewick Avenue,99336,46.2101054,-119.1733559
4203,West Kennewick Avenue,99336,46.2088523,-119.1762612
4339,West Kennewick Avenue,99336,46.2093664,-119.1784423
4013,West Kennewick Avenue,99336,46.2094997,-119.1748676
4009,West Kennewick Avenue,99336,46.2095283,-119.1739771
3919,West Kennewick Avenue,99336,46.2094656,-119.1727193
3703,West Kennewick Avenue,99336,46.2089661,-119.1713981
3607,West Kennewick Avenue,99336,46.2094495,-119.1703629
51,North Edison Street,99336,46.2107705,-119.1940183
100,North Irving Place,99336,46.2107781,-119.1971467
5417,West Hood Avenue,99336,46.2157208,-119.1933959
3104,West Kennewick Avenue,99336,46.2098489,-119.1630058
3121,West Kennewick Avenue,99336,46.2092451,-119.1643465
3205,West Kennewick Avenue,99336,46.2092381,-119.1652687
3221,West Kennewick Avenue,99336,46.2093955,-119.1658858
4012,West 27th Avenue,99337,46.1856374,-119.1745810
6211,West Okanogan Avenue,99336,46.2193391,-119.2045524
7600,West Quinault Street,99336,46.2235126,-119.2248841
511,West 36th Avenue,99338,46.1772474,-119.1957929
10799,Ridgeline Drive,99338,46.1955423,-119.2657486
10799,Ridgeline Drive,99338,46.1953671,-119.2654706
10799,Ridgeline Drive,99338,46.1955250,-119.2653397
12231,West Clearwater Avenue,99338,46.1964150,-119.2650254
12125,West Clearwater Avenue,99338,46.1973731,-119.2642025
12125,West Clearwater Avenue,99338,46.1972133,-119.2647547
1405,West 4th Avenue,99336,46.2055086,-119.1383541
415,South Rainier Street,99336,46.2053502,-119.1427676
1701,West 4th Avenue,99336,46.2056245,-119.1416947
1703,West 4th Avenue,99336,46.2055471,-119.1420525
1707,West 4th Avenue,99336,46.2054833,-119.1423309
2802,West 10th Avenue,99336,46.1988783,-119.1596980
2810,West 10th Avenue,99336,46.1990493,-119.1602491
2023,West 4th Avenue,99336,46.2056126,-119.1476634
1919,West 4th Avenue,99336,46.2055920,-119.1455551
2013,West 4th Avenue,99336,46.2056098,-119.1469765
1811,West 4th Avenue,99336,46.2056063,-119.1440297
2005,West 4th Avenue,99336,46.2056003,-119.1464697
2029,West 4th Avenue,99336,46.2056041,-119.1478843
1817,West 4th Avenue,99336,46.2055343,-119.1444146
2017,West 4th Avenue,99336,46.2055418,-119.1472070
1803,West 4th Avenue,99336,46.2056466,-119.1434496
1925,West 4th Avenue,99336,46.2055535,-119.1460091
1833,West 4th Avenue,99336,46.2055694,-119.1453087
2009,West 4th Avenue,99336,46.2055819,-119.1467487
2021,West 4th Avenue,99336,46.2055914,-119.1474482
1825,West 4th Avenue,99336,46.2055776,-119.1448663
2014,West 4th Avenue,99336,46.2060117,-119.1469630
2006,West 4th Avenue,99336,46.2059880,-119.1464702
1910,West 4th Avenue,99336,46.2060155,-119.1449796
1401,West Kennewick Avenue,99336,46.2090669,-119.1382407
2018,West 4th Avenue,99336,46.2059891,-119.1472102
1720,West 4th Avenue,99336,46.2059855,-119.1428172
1622,West 4th Avenue,99336,46.2059674,-119.1418082
1708,West 4th Avenue,99336,46.2059889,-119.1422425
1502,West 4th Avenue,99336,46.2059587,-119.1393456
2002,West 4th Avenue,99336,46.2059756,-119.1462246
1420,West 4th Avenue,99336,46.2059480,-119.1389256
1514,West 4th Avenue,99336,46.2061052,-119.1396958
2026,West 4th Avenue,99336,46.2059907,-119.1477056
1818,West 4th Avenue,99336,46.2060436,-119.1442603
1602,West 4th Avenue,99336,46.2059878,-119.1407405
300,South Quincy Street,99336,46.2065346,-119.1407646
314,South Quincy Street,99336,46.2061465,-119.1407885
1906,West 4th Avenue,99336,46.2060637,-119.1447218
1511,West Kennewick Avenue,99336,46.2090913,-119.1400498
315,South Quincy Street,99336,46.2061666,-119.1402198
1522,West 4th Avenue,99336,46.2059967,-119.1400022
1922,West 4th Avenue,99336,46.2059829,-119.1457223
1914,West 4th Avenue,99336,46.2059783,-119.1452083
1614,West 4th Avenue,99336,46.2060517,-119.1412083
1721,West Kennewick Avenue,99336,46.2091116,-119.1427562
1905,West Kennewick Avenue,99336,46.2091903,-119.1448316
2030,West 4th Avenue,99336,46.2059807,-119.1480505
1802,West 4th Avenue,99336,46.2060023,-119.1433625
1505,West Kennewick Avenue,99336,46.2091188,-119.1396687
2022,West 4th Avenue,99336,46.2059876,-119.1474565
2015,West Kennewick Avenue,99336,46.2091768,-119.1468171
1806,West 4th Avenue,99336,46.2060024,-119.1435726
1920,West 4th Avenue,99336,46.2059982,-119.1445198
1805,West Kennewick Avenue,99336,46.2091910,-119.1436012
2010,West 4th Avenue,99336,46.2060196,-119.1467196
1926,West 4th Avenue,99336,46.2059838,-119.1459792
2001,West Kennewick Avenue,99336,46.2086313,-119.1460983
2029,West Kennewick Avenue,99336,46.2091652,-119.1480844
1607,West Kennewick Avenue,99336,46.2091904,-119.1409273
2023,West Kennewick Avenue,99336,46.2091920,-119.1474958
1814,West 4th Avenue,99336,46.2059736,-119.1440510
1809,West Kennewick Avenue,99336,46.2091852,-119.1438548
1704,West 4th Avenue,99336,46.2060149,-119.1420193
1715,West Kennewick Avenue,99336,46.2090498,-119.1424971
1424,West 4th Avenue,99336,46.2059488,-119.1391624
1810,West 4th Avenue,99336,46.2059764,-119.1437948
1918,West 4th Avenue,99336,46.2059980,-119.1454747
1315,West Kennewick Avenue,99336,46.2090174,-119.1370359
811,West Kennewick Avenue,99336,46.2083652,-119.1289308
1207,West Kennewick Avenue,99336,46.2089754,-119.1356654
1319,West Kennewick Avenue,99336,46.2090608,-119.1375092
1021,West Kennewick Avenue,99336,46.2087818,-119.1333509
913,West Kennewick Avenue,99336,46.2086042,-119.1310960
22,South Carmichael Drive,99336,46.2078073,-119.1281963
6,South Carmichael Drive,99336,46.2080843,-119.1286972
1003,West Kennewick Avenue,99336,46.2087164,-119.1324953
1009,West Kennewick Avenue,99336,46.2087119,-119.1327453
813,West Kennewick Avenue,99336,46.2084359,-119.1291347
1107,West Kennewick Avenue,99336,46.2087678,-119.1341364
925,West Kennewick Avenue,99336,46.2086584,-119.1321219
1231,West Kennewick Avenue,99336,46.2090304,-119.1367321
1111,West Kennewick Avenue,99336,46.2088060,-119.1346386
1103,West Kennewick Avenue,99336,46.2088094,-119.1339184
841,West Kennewick Avenue,99336,46.2085084,-119.1305311
1306,West Kennewick Avenue,99336,46.2095892,-119.1376336
324,East 6th Avenue,99336,46.2021503,-119.1108777
3324,West 19th Avenue,99338,46.1919243,-119.1687263
3121,West Hood Avenue,99336,46.2146844,-119.1633623
3121,West Hood Avenue,99336,46.2150071,-119.1631571
3121,West Hood Avenue,99336,46.2144545,-119.1638449
3131,West Hood Avenue,99336,46.2143625,-119.1647810
3500,West Deschutes Avenue,99336,46.2140071,-119.1677702
711,South Auburn Street,99336,46.2005836,-119.1179865
718,North Green Street,99336,46.2182692,-119.1609970
1978,South Buntin Street,99337,46.1899585,-119.1540508
1966,South Buntin Street,99337,46.1902056,-119.1540758
1930,South Buntin Street,99337,46.1903841,-119.1540665
2521,West 19th Court,99337,46.1906285,-119.1544511
1918,South Buntin Street,99337,46.1906621,-119.1540090
2526,West 19th Court,99337,46.1911151,-119.1547351
1906,South Buntin Street,99337,46.1910630,-119.1540351
240,North Ely Street,99336,46.2125080,-119.1582410
2309,West Kennewick Avenue,99336,46.2092369,-119.1511187
2301,West Kennewick Avenue,99336,46.2092272,-119.1506481
2213,West Kennewick Avenue,99336,46.2091954,-119.1503991
2409,West Albany Avenue,99336,46.2102577,-119.1521401
2413,West Albany Avenue,99336,46.2103399,-119.1524318
2417,West Albany Avenue,99336,46.2103477,-119.1527492
2425,West Albany Avenue,99336,46.2103054,-119.1532751
2437,West Albany Avenue,99336,46.2104972,-119.1542111
103,North Buntin Street,99336,46.2106821,-119.1544894
109,North Buntin Street,99336,46.2109262,-119.1545007
113,North Buntin Street,99336,46.2111405,-119.1544897
119,North Buntin Street,99336,46.2113456,-119.1545077
203,North Buntin Street,99336,46.2115545,-119.1544678
207,North Buntin Street,99336,46.2117555,-119.1545043
1105,West 10th Avenue,99336,46.1973355,-119.1346573
32,North Benton Street,99336,46.2098565,-119.1197438
201,South Auburn Street,99336,46.2063579,-119.1181852
15,West 2nd Avenue,99336,46.2063487,-119.1178434
11,West 2nd Avenue,99336,46.2063648,-119.1176622
8,West 3rd Avenue,99336,46.2057638,-119.1175361
12,West 3rd Avenue,99336,46.2057757,-119.1177334
18,West 3rd Avenue,99336,46.2058046,-119.1179780
22,West 3rd Avenue,99336,46.2057939,-119.1181818
2603,West Clearwater Avenue,99336,46.2120639,-119.1555625
2515,West Clearwater Avenue,99336,46.2120283,-119.1552526
2511,West Clearwater Avenue,99336,46.2120577,-119.1549582
2505,West Clearwater Avenue,99336,46.2120499,-119.1545640
114,West Vista Way,99336,46.2109662,-119.1564850
2906,West 7th Avenue,99336,46.2040741,-119.1607228
3631,Plaza Way,99336,46.1784133,-119.1886837
425,East Bruneau Avenue,99336,46.2109176,-119.1098902
301,South Washington Street,99336,46.2052701,-119.1166094
115,West 2nd Avenue,99336,46.2063774,-119.1193229
2428,West Klamath Avenue,99336,46.2171679,-119.1525486
2121,West Canal Drive,99336,46.2169264,-119.1492505
115,South Dayton Street,99336,46.2070316,-119.1226558
401,West 1st Avenue,99336,46.2073963,-119.1232525
2205,West Kennewick Avenue,99336,46.2092065,-119.1499370
2101,West Kennewick Avenue,99336,46.2092009,-119.1487049
2201,West Kennewick Avenue,99336,46.2092246,-119.1496987
2113,West Kennewick Avenue,99336,46.2092320,-119.1494614
3131,West Hood Avenue,99336,46.2144722,-119.1643748
3121,West Hood Avenue,99336,46.2156870,-119.1633229
3131,West Hood Avenue,99336,46.2156373,-119.1649049
3121,West Hood Avenue,99336,46.2143212,-119.1634041
3121,West Hood Avenue,99336,46.2147274,-119.1635676
3121,West Hood Avenue,99336,46.2149924,-119.1637866
325,North Johnson Street,99336,46.2138750,-119.1664525
3131,West Hood Avenue,99336,46.2145086,-119.1651907
3918,West Clearwater Avenue,99336,46.2126116,-119.1731434
3131,West Hood Avenue,99336,46.2151660,-119.1650544
3121,West Hood Avenue,99336,46.2155032,-119.1638453
3131,West Hood Avenue,99336,46.2154991,-119.1644077
3121,West Hood Avenue,99336,46.2154979,-119.1630416
3131,West Hood Avenue,99336,46.2149924,-119.1644941
3121,West Hood Avenue,99336,46.2144835,-119.1630061
3703,Plaza Way,99336,46.1771046,-119.1880940
6351,West Rio Grande Avenue,99336,46.2239306,-119.2052704
30,North Benton Street,99336,46.2097539,-119.1197546
24,North Benton Street,99336,46.2096362,-119.1196015
20,North Benton Street,99336,46.2094800,-119.1194778
310,West Kennewick Avenue,99336,46.2090008,-119.1221255
306,West Kennewick Avenue,99336,46.2088828,-119.1219419
323,West 1st Avenue,99336,46.2075030,-119.1227296
202,South Dayton Street,99336,46.2067316,-119.1232599
3829,West Kennewick Avenue,99336,46.2094937,-119.1721699
8919,West Grandridge Boulevard,99336,46.2261731,-119.2384254
3121,West Hood Avenue,99336,46.2153642,-119.1634528
5418,West Hood Avenue,99336,46.2163080,-119.1937141
118,Vista Way,99336,46.2110678,-119.1566026
3523,West Hood Avenue,99336,46.2150100,-119.1686990
3407,West Hood Avenue,99336,46.2150001,-119.1675182
5018,North Johnson Street,99336,46.2157156,-119.1658537
5016,North Johnson Street,99336,46.2155828,-119.1658552
3311,West Hood Avenue,99336,46.2157026,-119.1665479
3311,West Hood Avenue,99336,46.2157021,-119.1664275
3401,West Hood Avenue,99336,46.2156974,-119.1668553
3401,West Hood Avenue,99336,46.2156976,-119.1667393
3409,West Hood Avenue,99336,46.2157288,-119.1672555
3411,West Hood Avenue,99336,46.2157378,-119.1677588
425,South Tweedt Street,99336,46.2053859,-119.1771971
413,North Kellogg Street,99336,46.2145791,-119.2017519
511,West 36th Avenue,99338,46.1772629,-119.1958276
1011,West 10th Avenue,99336,46.1973090,-119.1305968
3309,West Hood Avenue,99336,46.2156701,-119.1661898
3309,West Hood Avenue,99336,46.2156706,-119.1662478
3309,West Hood Avenue,99336,46.2156698,-119.1661292
3311,West Hood Avenue,99336,46.2157023,-119.1664886
