House number,Street name,Postal code,Latitude,Longitude
221,8th Street,98826,47.5944314,-120.6618840
645,Front Street,98826,47.5946311,-120.6634023
707,US Hwy 2,98826,47.5948953,-120.6632190
735,Front Street,98826,47.5948593,-120.6624548
894,United States Highway 2,98826,47.5961598,-120.6620351
894,United States Highway 2,98826,47.5960609,-120.6621145
932,Front Street,98826,47.5965329,-120.6600093
647,Front Street,98826,47.5945321,-120.6632772
214,8th Street,98826,47.5948576,-120.6616670
633,Front Street,98826,47.5943982,-120.6638448
639,Front Street,98826,47.5945543,-120.6635549
219,9th Street,98826,47.5951928,-120.6605800
11798,US-2,98826,47.5986576,-120.6492130
900,Front Street,98826,47.5961218,-120.6610842
1038,Front Street,98826,47.5976874,-120.6581285
920,Front Street,98826,47.5963898,-120.6602573
224,8th Street,98826,47.5946716,-120.6617005
920,Highway 2,98826,47.5967264,-120.6613775
900,Front Street,98826,47.5960719,-120.6611867
9556,East Leavenworth Road,98826,47.5918817,-120.6592811
116,River Bend Drive,98826,47.5974060,-120.6458245
330,Prospect Street,98826,47.5941457,-120.6750201
330,Prospect Street,98826,47.5939002,-120.6754964
200,8th Street,98826,47.5948423,-120.6616178
220,8th Street,98826,47.5947191,-120.6617977
217,8th Street,98826,47.5945364,-120.6622104
1029,Commercial Street,98826,47.5959504,-120.6581236
217,8th Street,98826,47.5946136,-120.6620366
617,Front Street,98826,47.5939182,-120.6646616
905,Commercial Street,98826,47.5950823,-120.6599596
725,Front Street,98826,47.5946658,-120.6625959
618,Central Avenue,98826,47.6011939,-120.6629761
325,Division Street,98826,47.5957000,-120.6577526
735,Front Street,98826,47.5948203,-120.6622652
330,Prospect Street,98826,47.5941328,-120.6752476
633,Front Street,98826,47.5945087,-120.6635844
119,Stafford Street,98826,47.5964956,-120.6692342
647,Front Street,98826,47.5945753,-120.6633555
217,8th Street,98826,47.5945530,-120.6620662
900,Main Street,98826,47.5947656,-120.6594879
217,8th Street,98826,47.5944848,-120.6622069
617,Front Street,98826,47.5939423,-120.6648270
325,Division Street,98826,47.5957388,-120.6575905
412,Pine Street,98826,47.6008002,-120.6626134
715,Front Street,98826,47.5945984,-120.6629462
330,Prospect Street,98826,47.5941336,-120.6751865
636,Front Street,98826,47.5946436,-120.6638169
905,Commercial Street,98826,47.5950149,-120.6598835
325,Division Street,98826,47.5957083,-120.6581374
612,Central Avenue,98826,47.6010019,-120.6629871
325,Division Street,98826,47.5957484,-120.6576510
721,Front Street,98826,47.5945831,-120.6626933
217,8th Street,98826,47.5945222,-120.6622417
900,Main Street,98826,47.5948704,-120.6596001
643,Front Street,98826,47.5946109,-120.6634281
325,Division Street,98826,47.5956383,-120.6579921
111,Whitman Street,98826,47.5937503,-120.6684763
325,Division Street,98826,47.5956204,-120.6581758
735,Front Street,98826,47.5947844,-120.6623107
325,Division Street,98826,47.5956874,-120.6576938
217,8th Street,98826,47.5945741,-120.6620135
900,Main Street,98826,47.5946992,-120.6596344
325,Division Street,98826,47.5958764,-120.6572271
636,Front Street,98826,47.5947219,-120.6636646
900,Main Street,98826,47.5946543,-120.6595896
601,Central Avenue,98826,47.6008421,-120.6635298
735,Front Street,98826,47.5947717,-120.6622161
911,Commercial Street,98826,47.5952320,-120.6597457
111,Whitman Street,98826,47.5937648,-120.6684117
905,Commercial Street,98826,47.5950461,-120.6599116
325,Division Street,98826,47.5956585,-120.6579983
330,Prospect Street,98826,47.5940769,-120.6754881
715,Front Street,98826,47.5945114,-120.6628516
221,8th Street,98826,47.5944174,-120.6618871
617,Front Street,98826,47.5939055,-120.6647914
735,Front Street,98826,47.5948699,-120.6623263
900,Main Street,98826,47.5948132,-120.6595412
325,Division Street,98826,47.5956016,-120.6581707
111,Whitman Street,98826,47.5938631,-120.6682757
325,Division Street,98826,47.5957251,-120.6577587
325,Division Street,98826,47.5956657,-120.6576897
900,Main Street,98826,47.5947210,-120.6595893
217,8th Street,98826,47.5945022,-120.6621738
217,8th Street,98826,47.5945344,-120.6621020
330,Prospect Street,98826,47.5941456,-120.6749694
636,Front Street,98826,47.5946967,-120.6638525
325,Division Street,98826,47.5956866,-120.6581323
1029,Commercial Street,98826,47.5960248,-120.6579804
217,8th Street,98826,47.5945746,-120.6620733
330,Prospect Street,98826,47.5937669,-120.6750720
1133,United States Highway 2,98826,47.5978705,-120.6572204
325,Division Street,98826,47.5957261,-120.6579475
731,Front Street,98826,47.5947304,-120.6624673
905,Commercial Street,98826,47.5951224,-120.6600045
617,Front Street,98826,47.5938428,-120.6647120
330,Prospect Street,98826,47.5941463,-120.6748551
1029,Commercial Street,98826,47.5960592,-120.6579135
222,8th Street,98826,47.5947158,-120.6617004
617,Front Street,98826,47.5939437,-120.6646931
1029,Commercial Street,98826,47.5959132,-120.6581958
900,Main Street,98826,47.5947993,-120.6597397
617,Front Street,98826,47.5938815,-120.6646310
725,Front Street,98826,47.5946769,-120.6626767
911,Commercial Street,98826,47.5951967,-120.6597091
900,Main Street,98826,47.5947478,-120.6596849
325,Division Street,98826,47.5957045,-120.6579424
330,Prospect Street,98826,47.5941103,-120.6754880
900,Main Street,98826,47.5948201,-120.6596988
325,Division Street,98826,47.5957447,-120.6577627
636,Front Street,98826,47.5946863,-120.6637281
911,Commercial Street,98826,47.5951168,-120.6597250
633,Front Street,98826,47.5943744,-120.6637126
325,Division Street,98826,47.5957772,-120.6571738
117,Stafford Street,98826,47.5964946,-120.6691708
900,Main Street,98826,47.5947188,-120.6594388
647,Front Street,98826,47.5945468,-120.6633283
111,Whitman Street,98826,47.5936876,-120.6684401
911,Commercial Street,98826,47.5951554,-120.6597903
325,Division Street,98826,47.5957570,-120.6572048
330,Prospect Street,98826,47.5940092,-120.6754896
325,Division Street,98826,47.5958312,-120.6572984
1133,United States Highway 2,98826,47.5979071,-120.6572640
325,Division Street,98826,47.5956715,-120.6578455
911,Commercial Street,98826,47.5950671,-120.6595610
330,Prospect Street,98826,47.5941455,-120.6749110
617,Front Street,98826,47.5939762,-120.6648987
330,Prospect Street,98826,47.5937677,-120.6750109
1029,Commercial Street,98826,47.5959853,-120.6580571
647,Front Street,98826,47.5945231,-120.6632874
217,8th Street,98826,47.5945866,-120.6621028
111,Whitman Street,98826,47.5938160,-120.6682444
221,8th Street,98826,47.5943716,-120.6619382
715,Front Street,98826,47.5945744,-120.6629841
330,Prospect Street,98826,47.5941490,-120.6754892
330,Prospect Street,98826,47.5937685,-120.6749537
617,Front Street,98826,47.5940264,-120.6648011
325,Division Street,98826,47.5956448,-120.6576847
330,Prospect Street,98826,47.5937702,-120.6748991
1133,United States Highway 2,98826,47.5979255,-120.6572884
905,Commercial Street,98826,47.5949793,-120.6598347
633,Front Street,98826,47.5943891,-120.6638051
725,Front Street,98826,47.5946995,-120.6626378
735,Front Street,98826,47.5947399,-120.6622577
217,8th Street,98826,47.5946070,-120.6620675
735,Front Street,98826,47.5948427,-120.6623737
1133,United States Highway 2,98826,47.5978879,-120.6572422
733,Front Street,98826,47.5947637,-120.6624264
735,Front Street,98826,47.5948958,-120.6624220
337,Pinegrass Street,98826,47.6011214,-120.6635340
900,Main Street,98826,47.5946942,-120.6594937
219,8th Street,98826,47.5944898,-120.6619752
636,Front Street,98826,47.5947752,-120.6636056
123,Stafford Street,98826,47.5964920,-120.6693749
617,Front Street,98826,47.5939757,-120.6648614
325,Division Street,98826,47.5958500,-120.6572664
330,Prospect Street,98826,47.5940435,-120.6754908
617,Front Street,98826,47.5938152,-120.6646727
325,Division Street,98826,47.5956543,-120.6575629
900,Main Street,98826,47.5946705,-120.6595431
900,Main Street,98826,47.5947438,-120.6595428
617,Front Street,98826,47.5938770,-120.6647489
216,8th Street,98826,47.5947752,-120.6617815
617,Front Street,98826,47.5938498,-120.6645904
330,Prospect Street,98826,47.5938264,-120.6754980
1029,Commercial Street,98826,47.5960971,-120.6578398
219,8th Street,98826,47.5944548,-120.6620105
325,Division Street,98826,47.5956399,-120.6581809
330,Prospect Street,98826,47.5941379,-120.6751241
219,8th Street,98826,47.5944694,-120.6619429
330,Prospect Street,98826,47.5941320,-120.6753021
325,Division Street,98826,47.5957612,-120.6575924
325,Division Street,98826,47.5958009,-120.6571386
911,Commercial Street,98826,47.5950320,-120.6596315
715,Front Street,98826,47.5946275,-120.6628944
617,Front Street,98826,47.5940119,-120.6649436
325,Division Street,98826,47.5956801,-120.6575360
330,Prospect Street,98826,47.5941422,-120.6750669
900,Main Street,98826,47.5948401,-120.6596523
325,Division Street,98826,47.5956835,-120.6579394
633,Front Street,98826,47.5944809,-120.6636383
330,Prospect Street,98826,47.5938633,-120.6754979
325,Division Street,98826,47.5957172,-120.6575864
111,Whitman Street,98826,47.5937767,-120.6681221
325,Division Street,98826,47.5956664,-120.6581293
217,8th Street,98826,47.5945699,-120.6621414
1133,United States Highway 2,98826,47.5978521,-120.6571985
325,Division Street,98826,47.5957039,-120.6575400
900,Main Street,98826,47.5947876,-120.6595947
1133,United States Highway 2,98826,47.5978347,-120.6571806
111,Whitman Street,98826,47.5938416,-120.6681583
1133,United States Highway 2,98826,47.5979455,-120.6573128
111,Whitman Street,98826,47.5938118,-120.6684364
1133,United States Highway 2,98826,47.5978164,-120.6571600
217,8th Street,98826,47.5945189,-120.6621398
330,Prospect Street,98826,47.5941859,-120.6754878
617,Front Street,98826,47.5939997,-120.6647656
217,8th Street,98826,47.5945525,-120.6621773
325,Division Street,98826,47.5956520,-120.6578415
121,Stafford Street,98826,47.5964929,-120.6693172
330,Prospect Street,98826,47.5939714,-120.6754910
325,Division Street,98826,47.5956296,-120.6578364
725,Front Street,98826,47.5946426,-120.6626413
325,Division Street,98826,47.5956131,-120.6579850
900,Main Street,98826,47.5947677,-120.6596398
330,Prospect Street,98826,47.5939345,-120.6754937
633,Front Street,98826,47.5944538,-120.6636873
905,Commercial Street,98826,47.5949353,-120.6598521
217,Orchard Street,98826,47.5974701,-120.6653716
217 1/2,Orchard Street,98826,47.5973999,-120.6655895
525,Alpine Place,98826,47.5867499,-120.6725597
480,Alpine Place,98826,47.5865021,-120.6732739
525,Alpine Place,98826,47.5863483,-120.6724593
480,Alpine Place,98826,47.5864276,-120.6735055
525,Alpine Place,98826,47.5863332,-120.6727568
480,Alpine Place,98826,47.5867548,-120.6734315
480,Alpine Place,98826,47.5867714,-120.6735095
575,Alpine Place,98826,47.5866377,-120.6738036
525,Alpine Place,98826,47.5867905,-120.6724738
480,Alpine Place,98826,47.5864283,-120.6734031
525,Alpine Place,98826,47.5864149,-120.6723643
575,Alpine Place,98826,47.5863464,-120.6738454
525,Alpine Place,98826,47.5863894,-120.6727195
525,Alpine Place,98826,47.5863465,-120.6723646
575,Alpine Place,98826,47.5866057,-120.6738293
525,Alpine Place,98826,47.5867341,-120.6723895
525,Alpine Place,98826,47.5866369,-120.6727701
525,Alpine Place,98826,47.5867252,-120.6727160
525,Alpine Place,98826,47.5865120,-120.6725826
480,Alpine Place,98826,47.5865080,-120.6734042
525,Alpine Place,98826,47.5864636,-120.6726468
480,Alpine Place,98826,47.5865064,-120.6735053
575,Alpine Place,98826,47.5865754,-120.6738588
525,Alpine Place,98826,47.5864159,-120.6724552
525,Alpine Place,98826,47.5863714,-120.6728693
575,Alpine Place,98826,47.5867098,-120.6739911
575,Alpine Place,98826,47.5864330,-120.6738426
575,Alpine Place,98826,47.5864018,-120.6738427
480,Alpine Place,98826,47.5864967,-120.6731792
525,Alpine Place,98826,47.5866909,-120.6724780
575,Alpine Place,98826,47.5867756,-120.6739371
525,Alpine Place,98826,47.5865123,-120.6727401
575,Alpine Place,98826,47.5863750,-120.6738453
525,Alpine Place,98826,47.5866829,-120.6728071
480,Alpine Place,98826,47.5864198,-120.6732870
480,Alpine Place,98826,47.5864171,-120.6731948
525,Alpine Place,98826,47.5864251,-120.6728346
480,Alpine Place,98826,47.5867438,-120.6733014
525,Alpine Place,98826,47.5865615,-120.6726785
480,Alpine Place,98826,47.5867290,-120.6732182
480,Alpine Place,98826,47.5867020,-120.6734598
575,Alpine Place,98826,47.5867418,-120.6739654
575,Alpine Place,98826,47.5865443,-120.6738858
480,Alpine Place,98826,47.5866468,-120.6732515
480,Alpine Place,98826,47.5866616,-120.6733285
480,Alpine Place,98826,47.5867229,-120.6735391
525,Alpine Place,98826,47.5866792,-120.6726675
575,Alpine Place,98826,47.5866813,-120.6740168
200,Joseph Street,98826,47.5871985,-120.6705039
200,Joseph Street,98826,47.5866683,-120.6713305
200,Joseph Street,98826,47.5868012,-120.6687755
100,Enchantment Park Way,98826,47.5890576,-120.6686349
100,Enchantment Park Way,98826,47.5887361,-120.6698280
100,Enchantment Park Way,98826,47.5887915,-120.6699123
100,Enchantment Park Way,98826,47.5882123,-120.6702862
525,Alpine Place,98826,47.5867870,-120.6720227
200,Joseph Street,98826,47.5871597,-120.6708837
100,Enchantment Park Way,98826,47.5889845,-120.6694231
100,Enchantment Park Way,98826,47.5880756,-120.6703746
200,Joseph Street,98826,47.5866752,-120.6695900
100,Enchantment Park Way,98826,47.5878968,-120.6701430
200,Joseph Street,98826,47.5870906,-120.6706200
525,Alpine Place,98826,47.5866072,-120.6719381
200,Joseph Street,98826,47.5868269,-120.6696984
200,Joseph Street,98826,47.5866944,-120.6688524
200,Joseph Street,98826,47.5862994,-120.6710278
200,Joseph Street,98826,47.5870734,-120.6708265
525,Alpine Place,98826,47.5867169,-120.6720230
200,Joseph Street,98826,47.5867816,-120.6684810
200,Joseph Street,98826,47.5870789,-120.6702894
100,Enchantment Park Way,98826,47.5889828,-120.6689447
100,Enchantment Park Way,98826,47.5888543,-120.6695730
200,Joseph Street,98826,47.5867279,-120.6694207
200,Joseph Street,98826,47.5867814,-120.6688913
200,Joseph Street,98826,47.5867286,-120.6711698
100,Enchantment Park Way,98826,47.5876624,-120.6701789
525,Alpine Place,98826,47.5867903,-120.6719267
100,Enchantment Park Way,98826,47.5890459,-120.6690922
200,Joseph Street,98826,47.5866592,-120.6691025
200,Joseph Street,98826,47.5867578,-120.6691074
100,Enchantment Park Way,98826,47.5889824,-120.6686323
200,Joseph Street,98826,47.5866549,-120.6711846
200,Joseph Street,98826,47.5867546,-120.6692197
100,Enchantment Park Way,98826,47.5887288,-120.6700039
100,Enchantment Park Way,98826,47.5878684,-120.6702856
100,Enchantment Park Way,98826,47.5882065,-120.6704076
200,Joseph Street,98826,47.5862256,-120.6710546
200,Joseph Street,98826,47.5869458,-120.6696937
200,Joseph Street,98826,47.5871652,-120.6702921
200,Joseph Street,98826,47.5868423,-120.6686324
100,Enchantment Park Way,98826,47.5882885,-120.6702895
525,Alpine Place,98826,47.5867194,-120.6721420
100,Enchantment Park Way,98826,47.5889149,-120.6693783
100,Enchantment Park Way,98826,47.5888755,-120.6697417
200,Joseph Street,98826,47.5866380,-120.6695006
100,Enchantment Park Way,98826,47.5876075,-120.6700296
200,Joseph Street,98826,47.5870461,-120.6709175
200,Joseph Street,98826,47.5869919,-120.6712243
200,Joseph Street,98826,47.5872002,-120.6706195
100,Enchantment Park Way,98826,47.5889191,-120.6696445
200,Joseph Street,98826,47.5862390,-120.6711811
100,Enchantment Park Way,98826,47.5886744,-120.6699168
525,Alpine Place,98826,47.5865250,-120.6720421
200,Joseph Street,98826,47.5865106,-120.6711320
200,Joseph Street,98826,47.5867155,-120.6687415
200,Joseph Street,98826,47.5870828,-120.6698271
100,Enchantment Park Way,98826,47.5875969,-120.6701545
100,Enchantment Park Way,98826,47.5880042,-120.6703625
100,Enchantment Park Way,98826,47.5877934,-120.6702594
100,Enchantment Park Way,98826,47.5885593,-120.6702162
525,Alpine Place,98826,47.5866021,-120.6720508
200,Joseph Street,98826,47.5871117,-120.6699120
100,Enchantment Park Way,98826,47.5890597,-120.6687545
200,Joseph Street,98826,47.5864480,-120.6711513
200,Joseph Street,98826,47.5869911,-120.6699111
100,Enchantment Park Way,98826,47.5876825,-120.6700593
100,Enchantment Park Way,98826,47.5882851,-120.6704021
100,Enchantment Park Way,98826,47.5878135,-120.6701257
100,Enchantment Park Way,98826,47.5890167,-120.6693062
200,Joseph Street,98826,47.5870746,-120.6701824
200,Joseph Street,98826,47.5867626,-120.6685945
200,Joseph Street,98826,47.5865255,-120.6712573
200,Joseph Street,98826,47.5868628,-120.6685146
200,Joseph Street,98826,47.5870874,-120.6705135
525,Alpine Place,98826,47.5867802,-120.6722570
525,Alpine Place,98826,47.5865275,-120.6719422
525,Alpine Place,98826,47.5863253,-120.6722388
525,Alpine Place,98826,47.5867861,-120.6721584
200,Joseph Street,98826,47.5867613,-120.6695230
200,Joseph Street,98826,47.5863062,-120.6711582
200,Joseph Street,98826,47.5864577,-120.6712750
525,Alpine Place,98826,47.5867167,-120.6719244
200,Joseph Street,98826,47.5871628,-120.6701750
100,Enchantment Park Way,98826,47.5880159,-120.6702323
200,Joseph Street,98826,47.5868791,-120.6697777
100,Enchantment Park Way,98826,47.5889854,-120.6687519
100,Enchantment Park Way,98826,47.5888078,-120.6696800
200,Joseph Street,98826,47.5871278,-120.6709756
100,Enchantment Park Way,98826,47.5885039,-120.6701165
100,Enchantment Park Way,98826,47.5889443,-120.6692572
525,Alpine Place,98826,47.5867152,-120.6722457
525,Alpine Place,98826,47.5864076,-120.6722411
200,Joseph Street,98826,47.5866593,-120.6692138
200,Joseph Street,98826,47.5869495,-120.6710999
525,Alpine Place,98826,47.5864109,-120.6721630
200,Joseph Street,98826,47.5867459,-120.6713138
100,Enchantment Park Way,98826,47.5880873,-120.6702391
100,Enchantment Park Way,98826,47.5885695,-120.6700403
200,Joseph Street,98826,47.5869221,-120.6712742
200,Joseph Street,98826,47.5868831,-120.6711497
200,Joseph Street,98826,47.5869008,-120.6696102
100,Enchantment Park Way,98826,47.5889744,-120.6690671
100,Enchantment Park Way,98826,47.5886220,-120.6701414
200,Joseph Street,98826,47.5870240,-120.6699967
525,Alpine Place,98826,47.5863278,-120.6721595
100,Enchantment Park Way,98826,47.5890571,-120.6689670
418,Evans Street,98826,47.5972446,-120.6623620
817,Commercial Street,98826,47.5944571,-120.6607212
980,United States Highway 2,98826,47.5975721,-120.6599920
708,Front Street,98826,47.5955924,-120.6632647
917,Commercial Street,98826,47.5952832,-120.6595821
810,US Highway 2,98826,47.5960125,-120.6628209
922,Commercial Street,98826,47.5957577,-120.6597230
1451,United States Highway 2,98826,47.5987390,-120.6539116
217,14th Street,98826,47.5986576,-120.6544626
801,Front Street,98826,47.5949352,-120.6620453
1505,Alpensee Strasse,98826,47.5991862,-120.6503455
1509,Alpensee Strasse,98826,47.5996673,-120.6498203
222,Chumstick Highway,98826,47.5993723,-120.6523304
265,Front Street,98826,47.5922091,-120.6681002
302,Commercial Street,98826,47.5924591,-120.6668526
185,US Highway 2,98826,47.5914433,-120.6692213
828,Commercial Street,98826,47.5949689,-120.6611355
429,Evans Street,98826,47.5963854,-120.6620027
280,US Highway 2,98826,47.5927919,-120.6682817
621,Front Street,98826,47.5941365,-120.6642632
308,Commercial Street,98826,47.5925411,-120.6666270
926,Commercial Street,98826,47.5959119,-120.6593799
310,Division Street,98826,47.5959768,-120.6567052
246,Division Street,98826,47.5964850,-120.6572507
283,Front Street,98826,47.5923892,-120.6677531
925,Commercial Street,98826,47.5954101,-120.6592138
220,Highway 2,98826,47.5916382,-120.6702203
10190,Chumstick Highway,98826,47.6018641,-120.6538094
10150,Titus Road,98826,47.6016291,-120.6585664
10195,Titus Road,98826,47.6021267,-120.6563996
10170,Titus Road,98826,47.6023613,-120.6586196
590,US Highway 2,98826,47.5937105,-120.6671893
617,Front Street,98826,47.5939183,-120.6647768
617,Highway 2,98826,47.5943071,-120.6646521
719,Front Street,98826,47.5945772,-120.6627165
960,United States Highway 2,98826,47.5972802,-120.6604550
700,US Highway 2,98826,47.5951113,-120.6641849
709,Front Street,98826,47.5945027,-120.6630799
116,Riverbend Drive,98826,47.5971876,-120.6451341
894,US Highway 2,98826,47.5961717,-120.6620638
920,Highway 2,98826,47.5968352,-120.6613854
690,US 2,98826,47.5940878,-120.6666243
300,US Highway 2,98826,47.5931178,-120.6676224
421,Evans Street,98826,47.5968229,-120.6623020
900,US Highway 2,98826,47.5960508,-120.6610095
615,Birch Street,98826,47.5985432,-120.6599754
820,Commercial Street,98826,47.5947101,-120.6614805
625,Birch Street,98826,47.5985340,-120.6596263
110,Central Avenue,98826,47.5968185,-120.6631533
408,Burke Avenue,98826,47.5989907,-120.6576122
412,Burke Avenue,98826,47.5991348,-120.6575961
810,Commercial Street,98826,47.5946314,-120.6615763
612,Sherbourne Street,98826,47.5982475,-120.6600347
414,Burke Avenue,98826,47.5992733,-120.6576203
416,Burke Avenue,98826,47.5994537,-120.6576021
603,Birch Street,98826,47.5984919,-120.6603874
611,Birch Street,98826,47.5985619,-120.6602106
636,Front Street,98826,47.5948437,-120.6635655
729,Front Street,98826,47.5947245,-120.6625826
705,Birch Street,98826,47.5985376,-120.6590525
108,Central Avenue,98826,47.5965068,-120.6630688
415,Evans Street,98826,47.5967661,-120.6627912
419,Evans Street,98826,47.5967849,-120.6625462
505,US Highway 2,98826,47.5887768,-120.6728596
405,US Highway 2,98826,47.5904182,-120.6708625
305,Front Street,98826,47.5927408,-120.6672795
1204,Front Street,98826,47.5980539,-120.6567829
585,US Highway 2,98826,47.5883662,-120.6744188
703,Front Street,98826,47.5943616,-120.6631714
707,Front Street,98826,47.5943936,-120.6630768
309,8th Street,98826,47.5938131,-120.6616341
528,Price Avenue,98826,47.6003138,-120.6602941
815,Pine Street,98826,47.6002647,-120.6571580
802,Pine Street,98826,47.6007021,-120.6576819
826,Pine Street,98826,47.6007814,-120.6568932
725,Pine Street,98826,47.6003073,-120.6585273
823,Pine Street,98826,47.6003108,-120.6568551
904,Cedar Sreet,98826,47.5998214,-120.6562434
514,Burke Avenue,98826,47.6001710,-120.6575947
920,Pine Street,98826,47.6007053,-120.6557222
814,Pine Street,98826,47.6007414,-120.6571647
724,Birch Street,98826,47.5990678,-120.6583074
812,Cedar Sreet,98826,47.5998328,-120.6573258
617,Pine Street,98826,47.6003362,-120.6595404
704,Birch Street,98826,47.5989768,-120.6591399
626,Cedar Sreet,98826,47.5999051,-120.6594812
902,Pine Street,98826,47.6007262,-120.6561516
701,Pine Street,98826,47.6003142,-120.6590379
714,Birch Street,98826,47.5989737,-120.6587093
824,Burke Avenue,98826,47.5997912,-120.6568262
810,Cedar Sreet,98826,47.5998326,-120.6574487
510,Burke Avenue,98826,47.5999722,-120.6575802
423,Burke Avenue,98826,47.5993696,-120.6581318
804,Cedar Sreet,98826,47.5998202,-120.6576113
916,Pine Street,98826,47.6006935,-120.6559731
808,Pine Street,98826,47.6007312,-120.6574519
928,Pine Street,98826,47.6006977,-120.6552210
510,Cone Street,98826,47.5999927,-120.6560874
613,Pine Street,98826,47.6003563,-120.6600751
828,Pine Street,98826,47.6006874,-120.6567056
619,Pine Street,98826,47.6003073,-120.6597930
924,Cedar Sreet,98826,47.5998323,-120.6556340
915,Pine Street,98826,47.6002726,-120.6559056
720,Birch Street,98826,47.5990543,-120.6584823
703,Cedar Sreet,98826,47.5994522,-120.6590735
827,Pine Street,98826,47.6002697,-120.6567051
615,Pine Street,98826,47.6003353,-120.6599513
711,Cedar Sreet,98826,47.5993876,-120.6587862
925,Pine Street,98826,47.6003297,-120.6554460
820,Cedar Sreet,98826,47.5998981,-120.6570794
517,Burke Avenue,98826,47.6002886,-120.6580883
727,Pine Street,98826,47.6002702,-120.6583035
328,Chumstick Highway,98826,47.6006772,-120.6524292
500,Pine Street,98826,47.6020904,-120.6610745
817,Commercial Street,98826,47.5944750,-120.6607892
105 A,Pine Street,98826,47.6004903,-120.6679400
105 J,Pine Street,98826,47.6004956,-120.6684061
103,West Commercial Street,98826,47.5906483,-120.6688379
102,1st Street,98826,47.5908851,-120.6684843
198,Commercial Street,98826,47.5916735,-120.6681046
200,Commercial Street,98826,47.5917575,-120.6679490
113,Commercial Street,98826,47.5910176,-120.6682603
108,River Street,98826,47.5906288,-120.6678120
247,West Commercial Street,98826,47.5902899,-120.6689761
201,Scholze Street,98826,47.5899120,-120.6691295
201,West Commercial Street,98826,47.5903991,-120.6697458
209,Scholze Street,98826,47.5895242,-120.6697415
231,Scholze Street,98826,47.5890074,-120.6703960
274,Scholze Street,98826,47.5887268,-120.6715806
102,Joseph Street,98826,47.5885580,-120.6719102
267,Scholze Street,98826,47.5883889,-120.6711748
279,Scholze Street,98826,47.5881802,-120.6714332
257,Scholze Street,98826,47.5885435,-120.6709384
255,Scholze Street,98826,47.5886991,-120.6707684
253,Scholze Street,98826,47.5888615,-120.6706023
281,Scholze Street,98826,47.5879918,-120.6716610
500,Alpine Place,98826,47.5871919,-120.6723820
475,Alpine Place,98826,47.5871629,-120.6733197
485,Alpine Place,98826,47.5872935,-120.6733162
525,Alpine Place,98826,47.5867523,-120.6719789
525,Alpine Place,98826,47.5867456,-120.6724660
525,Alpine Place,98826,47.5866898,-120.6727255
525,Alpine Place,98826,47.5865214,-120.6726364
525,Alpine Place,98826,47.5863869,-120.6721891
525,Alpine Place,98826,47.5863890,-120.6727889
480,Alpine Place,98826,47.5864641,-120.6734636
480,Alpine Place,98826,47.5866898,-120.6732737
575,Alpine Place,98826,47.5867277,-120.6739703
9291,Icicle Road,98826,47.5857675,-120.6739665
535,US Highway 2,98826,47.5889061,-120.6732899
221,West Commercial Street,98826,47.5900381,-120.6707345
217,West Commercial Street,98826,47.5901590,-120.6705948
213,West Commercial Street,98826,47.5902369,-120.6704129
225,West Commercial Street,98826,47.5899605,-120.6708958
229,West Commercial Street,98826,47.5898607,-120.6710685
233,West Commercial Street,98826,47.5897431,-120.6712202
236,Scholze Street,98826,47.5895692,-120.6705793
240,Scholze Street,98826,47.5893851,-120.6708055
202,Scholze Street,98826,47.5899541,-120.6700094
205,Scholze Street,98826,47.5896680,-120.6695675
229,Scholze Street,98826,47.5892295,-120.6701251
252,Scholze Street,98826,47.5892036,-120.6710494
260,Scholze Street,98826,47.5890506,-120.6712180
268,Scholze Street,98826,47.5888765,-120.6714343
104,Joseph Street,98826,47.5891697,-120.6718209
106,Joseph Street,98826,47.5895148,-120.6718006
104,River Street,98826,47.5902509,-120.6682621
106,River Street,98826,47.5904391,-120.6679601
116,River Street,98826,47.5907934,-120.6676829
120,River Street,98826,47.5908783,-120.6674916
117,Commercial Street,98826,47.5909486,-120.6678820
123,Commercial Street,98826,47.5911795,-120.6679461
127,Commercial Street,98826,47.5912502,-120.6677509
133,Commercial Street,98826,47.5913848,-120.6676570
204,River Street,98826,47.5913079,-120.6669696
207,Commercial Street,98826,47.5915696,-120.6672313
104,Commercial Street,98826,47.5910605,-120.6690055
219,Commercial Street,98826,47.5917473,-120.6669931
301,Commercial Street,98826,47.5919361,-120.6668224
315,River Street,98826,47.5917896,-120.6660931
303,Commercial Street,98826,47.5921453,-120.6665453
307,Commercial Street,98826,47.5922787,-120.6663534
315,Commercial Street,98826,47.5925007,-120.6659385
204,Commercial Street,98826,47.5919715,-120.6677029
206,Commercial Street,98826,47.5920276,-120.6674645
210,Commercial Street,98826,47.5922383,-120.6674856
203,Whitman Street,98826,47.5944584,-120.6671467
213,Whitman Street,98826,47.5946085,-120.6668131
215,Whitman Street,98826,47.5946682,-120.6666436
111,Whitman Street,98826,47.5937706,-120.6682667
128,Prospect Street,98826,47.5938089,-120.6690974
121,Whitman Street,98826,47.5942399,-120.6677893
120,Whitman Street,98826,47.5945227,-120.6681148
130,Whitman Street,98826,47.5946407,-120.6678726
121,Benton Street,98826,47.5948656,-120.6683462
131,Benton Street,98826,47.5950476,-120.6681060
101,Benton Street,98826,47.5948077,-120.6685167
125,Ski Hill Drive,98826,47.5945363,-120.6690251
129,Ski Hill Drive,98826,47.5949295,-120.6691670
147,Ski Hill Drive,98826,47.5954859,-120.6690447
210,Benton Street,98826,47.5955034,-120.6683699
224,Benton Street,98826,47.5957200,-120.6679004
223,Center Street,98826,47.5960679,-120.6681188
226,Center Street,98826,47.5963513,-120.6684765
232,Center Street,98826,47.5965157,-120.6681774
244,Center Street,98826,47.5967603,-120.6678289
250,Center Street,98826,47.5968042,-120.6676660
245,Center Street,98826,47.5964376,-120.6674666
263,Center Street,98826,47.5967448,-120.6669203
269,Center Street,98826,47.5968321,-120.6667000
298,Woodward Street,98826,47.5961834,-120.6657983
304,Whitman Street,98826,47.5958777,-120.6655118
249,Benton Street,98826,47.5958602,-120.6665217
253,Benton Street,98826,47.5959442,-120.6663348
289,Whitman Street,98826,47.5952708,-120.6655179
303 1/2,Whitman Street,98826,47.5955195,-120.6647217
337,Whitman Street,98826,47.5961085,-120.6638826
359,Whitman Street,98826,47.5963501,-120.6636620
335,Evans Street,98826,47.5968363,-120.6635771
315,Benton Street,98826,47.5964678,-120.6654121
311,Benton Street,98826,47.5963791,-120.6655387
226,Evans Street,98826,47.5971980,-120.6654690
224,Evans Street,98826,47.5971945,-120.6658325
222,Evans Street,98826,47.5972050,-120.6661545
220,Evans Street,98826,47.5972274,-120.6663978
208,Cascade Street,98826,47.5972993,-120.6666034
214,Cascade Street,98826,47.5974469,-120.6666115
217,Cascade Street,98826,47.5975282,-120.6672379
306,Cascade Street,98826,47.5980915,-120.6665435
301,Cascade Street,98826,47.5977193,-120.6673192
318,Cascade Street,98826,47.5984105,-120.6665770
237,Birch Street,98826,47.5986520,-120.6658745
331,Orchard Street,98826,47.5986615,-120.6654730
323,Orchard Street,98826,47.5983545,-120.6654345
221,Orchard Street,98826,47.5980125,-120.6654550
331,Cascade Street,98826,47.5986616,-120.6672782
320,Cascade Street,98826,47.5986620,-120.6665690
319,Cascade Street,98826,47.5984143,-120.6672274
311,Cascade Street,98826,47.5981545,-120.6672195
307,Cascade Street,98826,47.5980167,-120.6672133
204,Birch Street,98826,47.5991155,-120.6666324
425,Cascade Street,98826,47.5995614,-120.6671913
417,Cascade Street,98826,47.5994047,-120.6671898
421,Cascade Street,98826,47.5998975,-120.6671798
513,Cascade Street,98826,47.6001488,-120.6671577
526,Cascade Street,98826,47.5998617,-120.6665539
420,Cascade Street,98826,47.5996640,-120.6664927
412,Cascade Street,98826,47.5994821,-120.6664281
404,Cascade Street,98826,47.5992929,-120.6664469
528,Cascade Street,98826,47.6000497,-120.6665649
530,Cascade Street,98826,47.6002387,-120.6665519
203,Pine Street,98826,47.6004706,-120.6664998
205,Pine Street,98826,47.6004875,-120.6661825
207,Pine Street,98826,47.6004850,-120.6658795
209,Pine Street,98826,47.6004590,-120.6654019
515,Orchard Street,98826,47.6001138,-120.6654405
427,Orchard Street,98826,47.5995882,-120.6654358
421,Orchard Street,98826,47.5993668,-120.6653903
110,Birch Street,98826,47.5990585,-120.6682090
118,Birch Street,98826,47.5990785,-120.6678884
428,Ski Hill Drive,98826,47.5999123,-120.6684178
426,Ski Hill Drive,98826,47.5997443,-120.6683900
424,Ski Hill Drive,98826,47.5995875,-120.6684106
418,Ski Hill Drive,98826,47.5993921,-120.6683823
410,Ski Hill Drive,98826,47.5991222,-120.6684562
430,Ski Hill Drive,98826,47.5998776,-120.6679929
128,Poplar Street,98826,47.6005158,-120.6695609
515,Ski Hill Drive,98826,47.6005126,-120.6690816
505,Ski Hill Drive,98826,47.6001377,-120.6689744
501,Ski Hill Drive,98826,47.5999546,-120.6690554
120,Poplar Street,98826,47.6000003,-120.6696063
124,Poplar Street,98826,47.6001737,-120.6696865
121,Poplar Street,98826,47.5995821,-120.6696361
113,Poplar Street,98826,47.5996433,-120.6692604
413,Ski Hill Drive,98826,47.5991798,-120.6689976
375,Ski Hill Drive,98826,47.5986932,-120.6689883
319,Ski Hill Drive,98826,47.5983591,-120.6690764
128,Wheeler Street,98826,47.5980820,-120.6690097
130,Wheeler Street,98826,47.5981846,-120.6694721
121,Wheeler Street,98826,47.5976927,-120.6700891
127,Wheeler Street,98826,47.5977831,-120.6694866
291,Ski Hill Drive,98826,47.5977055,-120.6690499
271,Ski Hill Drive,98826,47.5973979,-120.6690775
251,Ski Hill Drive,98826,47.5971737,-120.6691232
262,Ski Hill Drive,98826,47.5978379,-120.6684364
308,Ski Hill Drive,98826,47.5981610,-120.6684235
320,Ski Hill Drive,98826,47.5984659,-120.6684297
360,Birch Street,98826,47.5986934,-120.6684684
350,Birch Street,98826,47.5987097,-120.6682324
131,Birch Street,98826,47.5987048,-120.6679626
105,Birch Street,98826,47.5986833,-120.6676470
138,Birch Street,98826,47.5989721,-120.6671317
224,Birch Street,98826,47.5990251,-120.6663083
238,Birch Street,98826,47.5990618,-120.6654015
336,Birch Street,98826,47.5990223,-120.6635888
328,Birch Street,98826,47.5990278,-120.6639595
320,Birch Street,98826,47.5990263,-120.6642536
420,Orchard Street,98826,47.5993068,-120.6647729
402,Orchard Street,98826,47.5990251,-120.6648304
424,Orchard Street,98826,47.5996055,-120.6647106
429,Central Avenue,98826,47.5996336,-120.6640164
427,Central Avenue,98826,47.5996120,-120.6636251
415,Central Avenue,98826,47.5992567,-120.6635648
525,Central Avenue,98826,47.6001886,-120.6635566
523,Central Avenue,98826,47.6000684,-120.6639740
507,Cedar Sreet,98826,47.5994732,-120.6617185
323,Price Avenue,98826,47.5985714,-120.6609102
526,Ash Street,98826,47.5980905,-120.6608848
222,Summit Avenue,98826,47.5977324,-120.6617260
528,Sherbourne Street,98826,47.5977104,-120.6611581
522,Sherbourne Street,98826,47.5975442,-120.6613592
510,Sherbourne Street,98826,47.5973582,-120.6617136
419,Ash Street,98826,47.5976704,-120.6625004
415,Ash Street,98826,47.5976571,-120.6626893
425,Ash Street,98826,47.5976429,-120.6622701
416,Evans Street,98826,47.5972160,-120.6626725
200,Central Avenue,98826,47.5972767,-120.6631144
329,Whitman Street,98826,47.5968408,-120.6638274
358,Whitman Street,98826,47.5966952,-120.6639325
342,Whitman Street,98826,47.5965962,-120.6640585
335,Whitman Street,98826,47.5960740,-120.6641385
932,Main Street,98826,47.5952560,-120.6585984
916,Main Street,98826,47.5949820,-120.6591505
1112,Commercial Street,98826,47.5966216,-120.6569746
1128,Commercial Street,98826,47.5969530,-120.6564392
1133,Commercial Street,98826,47.5965684,-120.6558708
1203,Commercial Street,98826,47.5968043,-120.6553608
1213,Front Street,98826,47.5977763,-120.6559405
1207,Front Street,98826,47.5976761,-120.6560914
1203,Front Street,98826,47.5975809,-120.6562699
1137,Front Street,98826,47.5973696,-120.6565320
1133,Front Street,98826,47.5973476,-120.6567634
1127,Front Street,98826,47.5972500,-120.6568942
1216,Commercial Street,98826,47.5974786,-120.6553673
1214,Commercial Street,98826,47.5973424,-120.6554612
1218,Commercial Street,98826,47.5975317,-120.6551649
1220,Commercial Street,98826,47.5976084,-120.6550002
214,13th Street,98826,47.5977673,-120.6545809
1381,Commercial Street,98826,47.5982532,-120.6539232
1317,Front Street,98826,47.5984785,-120.6547685
1305,Front Street,98826,47.5983099,-120.6550414
1300,Commercial Street,98826,47.5973005,-120.6536329
1217,Commercial Street,98826,47.5971124,-120.6548987
1213,Commercial Street,98826,47.5970176,-120.6550694
1125,Commercial Street,98826,47.5965249,-120.6561016
250,12th Street,98826,47.5963451,-120.6552789
223,12th Street,98826,47.5970421,-120.6561809
1122,Commercial Street,98826,47.5968334,-120.6566370
347,Division Street,98826,47.5952520,-120.6575966
1563,Alpensee Strasse,98826,47.6020783,-120.6490278
1561,Alpensee Strasse,98826,47.6022131,-120.6487257
1555,Alpensee Strasse,98826,47.6026835,-120.6478872
1557,Alpensee Strasse,98826,47.6024995,-120.6481550
1553,Alpensee Strasse,98826,47.6028509,-120.6476216
1551,Alpensee Strasse,98826,47.6029697,-120.6473444
1549,Alpensee Strasse,98826,47.6031035,-120.6470415
1547,Alpensee Strasse,98826,47.6033050,-120.6467849
1545,Alpensee Strasse,98826,47.6033344,-120.6462715
1543,Alpensee Strasse,98826,47.6032315,-120.6459150
1539,Alpensee Strasse,98826,47.6026693,-120.6452033
1537,Alpensee Strasse,98826,47.6023476,-120.6457912
1535,Alpensee Strasse,98826,47.6022079,-120.6459786
1536,Alpensee Strasse,98826,47.6024721,-120.6465814
1546,Alpensee Strasse,98826,47.6028565,-120.6464670
1550,Alpensee Strasse,98826,47.6027161,-120.6467951
1552,Alpensee Strasse,98826,47.6024690,-120.6471572
1534,Alpensee Strasse,98826,47.6023072,-120.6468934
1554,Alpensee Strasse,98826,47.6023430,-120.6474281
1532,Alpensee Strasse,98826,47.6021196,-120.6471574
1528,Alpensee Strasse,98826,47.6018314,-120.6476402
1558,Alpensee Strasse,98826,47.6020317,-120.6479466
1560,Alpensee Strasse,98826,47.6018966,-120.6482490
1562,Alpensee Strasse,98826,47.6017023,-120.6484532
1524,Alpensee Strasse,98826,47.6015229,-120.6482686
1526,Alpensee Strasse,98826,47.6016126,-120.6479016
1529,Alpensee Strasse,98826,47.6013905,-120.6471571
1527,Alpensee Strasse,98826,47.6012034,-120.6475011
1525,Alpensee Strasse,98826,47.6010275,-120.6477221
1571,Alpensee Strasse,98826,47.6010646,-120.6486280
1569,Alpensee Strasse,98826,47.6013046,-120.6489083
1567,Alpensee Strasse,98826,47.6015525,-120.6491529
1521,Alpensee Strasse,98826,47.6006625,-120.6480828
1519,Alpensee Strasse,98826,47.6004695,-120.6483874
1517,Alpensee Strasse,98826,47.6003132,-120.6486404
1515,Alpensee Strasse,98826,47.6001179,-120.6489368
1511,Alpensee Strasse,98826,47.5997869,-120.6494313
9101,Icicle Road,98826,47.5792581,-120.6708583
1559,Alpensee Strasse,98826,47.6023515,-120.6483994
707,US Highway 2,98826,47.5952227,-120.6628123
301,Ward Strasse,98826,47.5965611,-120.6440499
575,Alpine Place,98826,47.5863907,-120.6738528
575,Alpine Place,98826,47.5865809,-120.6738297
116,Riverbend Drive,98826,47.5970738,-120.6466806
172,Evans Street,98826,47.5972336,-120.6672528
186,Evans Street,98826,47.5972342,-120.6676204
118,Evans Street,98826,47.5972383,-120.6679621
106,Evans Street,98826,47.5972601,-120.6684499
606,Ski Hill Drive,98826,47.6009111,-120.6683594
110,Pine Street,98826,47.6009265,-120.6680798
116,Pine Street,98826,47.6009178,-120.6678618
122,Pine Street,98826,47.6009183,-120.6675993
612,Ski Hill Drive,98826,47.6011561,-120.6683283
619,Cascade Street,98826,47.6011937,-120.6675192
611,Cascade Street,98826,47.6011482,-120.6671197
601,Cascade Street,98826,47.6009127,-120.6671048
210,Pine Street,98826,47.6008894,-120.6662472
216,Pine Street,98826,47.6008911,-120.6659638
224,Pine Street,98826,47.6008959,-120.6656924
230,Pine Street,98826,47.6008863,-120.6654166
238,Pine Street,98826,47.6008875,-120.6651538
304,Pine Street,98826,47.6008771,-120.6648857
310,Pine Street,98826,47.6008717,-120.6645996
316,Pine Street,98826,47.6008641,-120.6643508
322,Pine Street,98826,47.6008731,-120.6640795
330,Pine Street,98826,47.6008693,-120.6638358
602,Central Avenue,98826,47.6008265,-120.6629498
500,Pine Street,98826,47.6016316,-120.6616336
211,Pinegrass Street,98826,47.6011124,-120.6662524
217,Pinegrass Street,98826,47.6011058,-120.6659671
225,Pinegrass Street,98826,47.6011127,-120.6656886
231,Pinegrass Street,98826,47.6011159,-120.6654116
239,Pinegrass Street,98826,47.6011115,-120.6651398
305,Pinegrass Street,98826,47.6011035,-120.6648728
311,Pinegrass Street,98826,47.6010996,-120.6646062
317,Pinegrass Street,98826,47.6011080,-120.6643432
323,Pinegrass Street,98826,47.6011191,-120.6641130
331,Pinegrass Street,98826,47.6011094,-120.6638155
606,Farivar Lane,98826,47.6029880,-120.6592866
10200,Titus Road,98826,47.6029486,-120.6583586
10202,Titus Road,98826,47.6032027,-120.6584201
520,Pine Street,98826,47.6007784,-120.6615755
10447,Titus Road,98826,47.6077897,-120.6562789
10421,Titus Road,98826,47.6059548,-120.6574014
1530,Alpensee Strasse,98826,47.6019731,-120.6473876
1531,Alpensee Strasse,98826,47.6016671,-120.6469393
10425 E,Titus Road,98826,47.6068452,-120.6576238
10425 F,Titus Road,98826,47.6068371,-120.6573653
10425 G,Titus Road,98826,47.6068358,-120.6571204
10425 K,Titus Road,98826,47.6070184,-120.6571508
10425 J,Titus Road,98826,47.6070202,-120.6573869
10425 H,Titus Road,98826,47.6070381,-120.6576206
100,Ski Blick Strasse,98826,47.6074109,-120.6574681
10459,Titus Road,98826,47.6079472,-120.6573967
10453,Titus Road,98826,47.6081389,-120.6569228
10461,Titus Road,98826,47.6081430,-120.6573877
10415 A,Titus Road,98826,47.6064171,-120.6576525
10405,Titus Road,98826,47.6064317,-120.6574222
10415 D,Titus Road,98826,47.6066316,-120.6572843
10415 C,Titus Road,98826,47.6066211,-120.6575218
10397,Titus Road,98826,47.6055737,-120.6576611
405,Pine Street,98826,47.6003374,-120.6630684
575,Cascade Street,98826,47.6004480,-120.6671702
125,Pine Street,98826,47.6004561,-120.6675521
512,Orchard Street,98826,47.6002272,-120.6647464
303,Pine Street,98826,47.6003984,-120.6647266
307,Pine Street,98826,47.6004375,-120.6642701
315,Pine Street,98826,47.6004175,-120.6636331
172,West Center Street,98826,47.5962188,-120.6716259
170,West Center Street,98826,47.5961860,-120.6713826
179,O Grady Street,98826,47.5961901,-120.6711129
183,O Grady Street,98826,47.5963670,-120.6711332
187,O Grady Street,98826,47.5965974,-120.6711250
191,O Grady Street,98826,47.5967878,-120.6711121
195,O Grady Street,98826,47.5970009,-120.6710994
145,Wheeler Street,98826,47.5975932,-120.6711988
131,Wheeler Street,98826,47.5977430,-120.6697549
178,O Grady Street,98826,47.5962096,-120.6704576
128,West Center Street,98826,47.5961459,-120.6700589
184,Stafford Street,98826,47.5965144,-120.6705520
135,Stafford Street,98826,47.5965034,-120.6703324
131,Stafford Street,98826,47.5965368,-120.6700464
127,Stafford Street,98826,47.5965588,-120.6697820
125,Stafford Street,98826,47.5965020,-120.6695319
114,West Center Street,98826,47.5962042,-120.6696325
173,Ski Hill Drive,98826,47.5962313,-120.6690083
113,Stafford Street,98826,47.5965259,-120.6690185
194,O Grady Street,98826,47.5969186,-120.6705494
130,Stafford Street,98826,47.5969438,-120.6703070
128,Stafford Street,98826,47.5968671,-120.6699623
124,Stafford Street,98826,47.5968543,-120.6697627
126,Stafford Street,98826,47.5968440,-120.6694261
241,Ski Hill Drive,98826,47.5969069,-120.6690196
238,Center Street,98826,47.5966489,-120.6679614
105,Evans Street,98826,47.5968752,-120.6685401
124,Birch Street,98826,47.5991225,-120.6675940
307 1/2,Cascade Street,98826,47.5980412,-120.6675815
302,Ski Hill Drive,98826,47.5981006,-120.6679647
132,Wheeler Street,98826,47.5981734,-120.6697437
391,Ski Hill Drive,98826,47.5986751,-120.6697085
401,Ski Hill Drive,98826,47.5990921,-120.6696465
101,Poplar Street,98826,47.5996067,-120.6690042
174,Poplar Street,98826,47.6000347,-120.6717998
1316,Commercial Street,98826,47.5979017,-120.6542937
1221,Commercial Street,98826,47.5972087,-120.6546523
1380,Commercial Street,98826,47.5974811,-120.6530339
1523,Alpensee Strasse,98826,47.6008774,-120.6479252
1513,Alpensee Strasse,98826,47.5999402,-120.6491953
263,Mine Street,98826,47.5932174,-120.6750666
337,Prospect Street,98826,47.5932245,-120.6761134
261,Mine Street,98826,47.5931020,-120.6747517
259,Prospect Street,98826,47.5932515,-120.6740255
240,Mine Street,98826,47.5929129,-120.6739300
238,Mine Street,98826,47.5927830,-120.6739488
236,Mine Street,98826,47.5926052,-120.6738709
234,Mine Street,98826,47.5923482,-120.6740185
200,Mine Street,98826,47.5920579,-120.6738433
208,West Benton Street,98826,47.5921395,-120.6735913
200,Clinton Street,98826,47.5927014,-120.6727596
215,Clinton Street,98826,47.5927837,-120.6733028
204,West Benton Street,98826,47.5924250,-120.6731056
206,West Benton Street,98826,47.5923126,-120.6734924
203,West Benton Street,98826,47.5921729,-120.6727062
205,West Benton Street,98826,47.5920867,-120.6728246
211,West Benton Street,98826,47.5920192,-120.6730193
217,West Benton Street,98826,47.5919121,-120.6731655
225,West Benton Street,98826,47.5917550,-120.6734516
134,Mill Street,98826,47.5916795,-120.6732703
137,Mill Street,98826,47.5915030,-120.6737970
193,Mine Street,98826,47.5917700,-120.6741733
223,Prospect Street,98826,47.5932577,-120.6725856
225,Prospect Street,98826,47.5932325,-120.6727686
235,Prospect Street,98826,47.5932626,-120.6730089
237,Prospect Street,98826,47.5932232,-120.6731264
239,Prospect Street,98826,47.5932542,-120.6732451
243,Prospect Street,98826,47.5932799,-120.6733919
245,Prospect Street,98826,47.5932818,-120.6735600
247,Prospect Street,98826,47.5933036,-120.6737548
254,Prospect Street,98826,47.5936857,-120.6737923
252,Prospect Street,98826,47.5937100,-120.6736327
250,Prospect Street,98826,47.5937649,-120.6734613
234,Prospect Street,98826,47.5936872,-120.6731745
222,Prospect Street,98826,47.5936600,-120.6725294
230,Prospect Street,98826,47.5936357,-120.6727928
213,Park Avenue,98826,47.5940767,-120.6724694
227,Park Avenue,98826,47.5940753,-120.6728451
233,Park Avenue,98826,47.5940512,-120.6730683
237,Park Avenue,98826,47.5940940,-120.6733292
251,Park Avenue,98826,47.5941401,-120.6738364
259,Park Avenue,98826,47.5940995,-120.6741333
258,Prospect Street,98826,47.5936487,-120.6741527
527,Mountain View Drive,98826,47.5945367,-120.6771834
321 K,Park Avenue,98826,47.5936520,-120.6768767
321 J,Park Avenue,98826,47.5937113,-120.6769955
321 H,Park Avenue,98826,47.5937605,-120.6771246
321 G,Park Avenue,98826,47.5938070,-120.6772783
321 F,Park Avenue,98826,47.5938682,-120.6773939
321 E,Park Avenue,98826,47.5939525,-120.6775003
321 D,Park Avenue,98826,47.5938388,-120.6767585
321 C,Park Avenue,98826,47.5939231,-120.6768194
321 B,Park Avenue,98826,47.5940150,-120.6769716
321 A,Park Avenue,98826,47.5940143,-120.6771339
340 C4,Prospect Street,98826,47.5940283,-120.6758812
340 C2,Prospect Street,98826,47.5939484,-120.6758841
340 C1,Prospect Street,98826,47.5939498,-120.6760069
340 C3,Prospect Street,98826,47.5940295,-120.6760049
340 F3,Prospect Street,98826,47.5938007,-120.6760101
340 F4,Prospect Street,98826,47.5938328,-120.6759077
340 F1,Prospect Street,98826,47.5937330,-120.6759634
340 F2,Prospect Street,98826,47.5937650,-120.6758611
107,Birdhouse Lane,98826,47.5933745,-120.6766987
111,Birdhouse Lane,98826,47.5932260,-120.6769252
115,Birdhouse Lane,98826,47.5930223,-120.6776208
119,Birdhouse Lane,98826,47.5934326,-120.6776797
300,Tumwater Drive,98826,47.5961502,-120.6744734
304,Tumwater Drive,98826,47.5961466,-120.6747619
308,Tumwater Drive,98826,47.5961496,-120.6750635
312,Tumwater Drive,98826,47.5961599,-120.6753496
316,Tumwater Drive,98826,47.5961634,-120.6756261
320,Tumwater Drive,98826,47.5961700,-120.6759263
324,Tumwater Drive,98826,47.5961608,-120.6762108
328,Tumwater Drive,98826,47.5961713,-120.6764979
332,Tumwater Drive,98826,47.5961722,-120.6768225
520,Mine Street,98826,47.5956568,-120.6738591
218,West Street,98826,47.5953771,-120.6739306
231,West Street,98826,47.5949458,-120.6740408
227,West Street,98826,47.5949478,-120.6738509
250,Park Avenue,98826,47.5945475,-120.6738177
258,Park Avenue,98826,47.5945629,-120.6739384
260,Park Avenue,98826,47.5946179,-120.6740836
305,Meadow Drive,98826,47.5951355,-120.6748125
309,Meadow Drive,98826,47.5951519,-120.6750848
317,Meadow Drive,98826,47.5951831,-120.6756854
321,Meadow Drive,98826,47.5951712,-120.6759360
325,Meadow Drive,98826,47.5951531,-120.6762478
329,Meadow Drive,98826,47.5951472,-120.6765281
328,Meadow Drive,98826,47.5955788,-120.6764984
324,Meadow Drive,98826,47.5955694,-120.6762211
320,Meadow Drive,98826,47.5955620,-120.6759436
316,Meadow Drive,98826,47.5955611,-120.6756543
312,Meadow Drive,98826,47.5955568,-120.6753566
308,Meadow Drive,98826,47.5955498,-120.6750721
304,Meadow Drive,98826,47.5955498,-120.6747816
300,Meadow Drive,98826,47.5955383,-120.6745233
301,Tumwater Drive,98826,47.5957605,-120.6744971
305,Tumwater Drive,98826,47.5957660,-120.6747758
309,Tumwater Drive,98826,47.5957807,-120.6750646
313,Tumwater Drive,98826,47.5957721,-120.6753533
317,Tumwater Drive,98826,47.5957764,-120.6756374
321,Tumwater Drive,98826,47.5957808,-120.6759315
325,Tumwater Drive,98826,47.5957864,-120.6762184
329,Tumwater Drive,98826,47.5957874,-120.6764895
553,Mountain View Drive,98826,47.5959980,-120.6770258
549,Mountain View Drive,98826,47.5958059,-120.6770901
545,Mountain View Drive,98826,47.5955048,-120.6770877
217,Center Street,98826,47.5958047,-120.6685228
112,West Center Street,98826,47.5961319,-120.6694501
218,Nordic Circle,98826,47.5963735,-120.6738981
126,West Street,98826,47.5952729,-120.6698126
135,Ski Hill Drive,98826,47.5952481,-120.6690323
116,West Street,98826,47.5952683,-120.6694944
122,West Street,98826,47.5952680,-120.6696695
132,West Street,98826,47.5953080,-120.6700637
136,West Street,98826,47.5953490,-120.6703033
138,West Street,98826,47.5952927,-120.6704901
142,West Street,98826,47.5953259,-120.6706497
148,West Street,98826,47.5953362,-120.6708320
220,Cherry Street,98826,47.5953572,-120.6711625
211,Cherry Street,98826,47.5953388,-120.6717134
202,West Street,98826,47.5953586,-120.6719269
204,West Street,98826,47.5953562,-120.6721321
206,West Street,98826,47.5953485,-120.6723772
208,West Street,98826,47.5953688,-120.6726298
210,West Street,98826,47.5953609,-120.6728693
212,West Street,98826,47.5953665,-120.6731436
216,West Street,98826,47.5953631,-120.6734870
221,Cherry Street,98826,47.5954821,-120.6717037
169,Ski Hill Drive,98826,47.5957927,-120.6689717
123,West Street,98826,47.5957933,-120.6691985
125,West Street,98826,47.5957861,-120.6696109
129,West Street,98826,47.5957830,-120.6699828
133,West Street,98826,47.5957915,-120.6702097
137,West Street,98826,47.5957851,-120.6705605
248,Cherry Street,98826,47.5958063,-120.6710269
244,Cherry Street,98826,47.5956604,-120.6711337
231,Cherry Street,98826,47.5956474,-120.6716730
225,West Center Street,98826,47.5956569,-120.6723066
251,Cherry Street,98826,47.5958229,-120.6717047
121,West Center Street,98826,47.5958858,-120.6722631
112,Cherry Street,98826,47.5969634,-120.6717792
110,Cherry Street,98826,47.5966519,-120.6717634
114,Cherry Street,98826,47.5968873,-120.6722291
116,Cherry Street,98826,47.5966692,-120.6722586
108,Cherry Street,98826,47.5963356,-120.6723159
214,Nordic Circle,98826,47.5963437,-120.6732985
124,West Center Street,98826,47.5966390,-120.6731425
120,West Center Street,98826,47.5963020,-120.6728732
106,West Center Street,98826,47.5960187,-120.6727737
524,Mine Street,98826,47.5956743,-120.6730211
522,Mine Street,98826,47.5956590,-120.6734297
215,Nordic Circle,98826,47.5959168,-120.6734149
213,Nordic Circle,98826,47.5961303,-120.6733888
216,Nordic Circle,98826,47.5963691,-120.6736170
610,Mine Street,98826,47.5967546,-120.6737628
115,West Street,98826,47.5949172,-120.6694822
127,West Street,98826,47.5948745,-120.6699330
131,West Street,98826,47.5948563,-120.6702609
135,West Street,98826,47.5948781,-120.6705196
137,West Street,98826,47.5949027,-120.6707661
139,West Street,98826,47.5948810,-120.6709892
141,West Street,98826,47.5948886,-120.6712020
205,West Street,98826,47.5949182,-120.6716876
207,West Street,98826,47.5949382,-120.6718681
215,West Street,98826,47.5949707,-120.6723960
217,West Street,98826,47.5949500,-120.6726534
219,West Street,98826,47.5949602,-120.6729370
221,West Street,98826,47.5949375,-120.6731165
223,West Street,98826,47.5949499,-120.6733753
225,West Street,98826,47.5949405,-120.6736295
248,Park Avenue,98826,47.5945442,-120.6736904
242,Park Avenue,98826,47.5945121,-120.6734485
238,Park Avenue,98826,47.5945176,-120.6733332
236,Park Avenue,98826,47.5945117,-120.6732112
232,Park Avenue,98826,47.5945441,-120.6730864
230,Park Avenue,98826,47.5945542,-120.6729689
226,Park Avenue,98826,47.5945031,-120.6728389
224,Park Avenue,98826,47.5945731,-120.6727087
220,Park Avenue,98826,47.5945349,-120.6726008
216,Park Avenue,98826,47.5944680,-120.6724215
214,Park Avenue,98826,47.5945090,-120.6721937
123,Cherry Street,98826,47.5944808,-120.6717980
144,Cherry Street,98826,47.5944359,-120.6711350
114,Park Avenue,98826,47.5944874,-120.6707691
122,Park Avenue,98826,47.5944780,-120.6702942
110,Park Avenue,98826,47.5945062,-120.6699446
109,Park Avenue,98826,47.5940570,-120.6697236
111,Park Avenue,98826,47.5940159,-120.6700096
113,Park Avenue,98826,47.5940049,-120.6703012
115,Park Avenue,98826,47.5940556,-120.6706919
119,Park Avenue,98826,47.5940518,-120.6708680
123,Park Avenue,98826,47.5940491,-120.6710537
118,Cherry Street,98826,47.5940435,-120.6712777
160,Prospect Street,98826,47.5935752,-120.6713421
156,Prospect Street,98826,47.5936238,-120.6711532
152,Prospect Street,98826,47.5935939,-120.6708629
146,Prospect Street,98826,47.5935941,-120.6706851
136,Prospect Street,98826,47.5935757,-120.6705028
128,Prospect Street,98826,47.5935821,-120.6702011
103,Prospect Street,98826,47.5931500,-120.6692828
118,Whitman Street,98826,47.5932729,-120.6700352
122,Whitman Street,98826,47.5931918,-120.6702971
153,Prospect Street,98826,47.5932640,-120.6708588
150,Benton Street,98826,47.5931414,-120.6720978
144,Benton Street,98826,47.5932552,-120.6718525
216,Prospect Street,98826,47.5936494,-120.6723208
210,Prospect Street,98826,47.5936614,-120.6719332
202,Prospect Street,98826,47.5936097,-120.6717375
203,Park Avenue,98826,47.5940866,-120.6717129
209,Park Avenue,98826,47.5940831,-120.6720108
211,Park Avenue,98826,47.5940821,-120.6723103
136,Clinton Street,98826,47.5922401,-120.6722630
162,West Whitman Street,98826,47.5922272,-120.6716412
151,West Whitman Street,98826,47.5922507,-120.6708247
155,West Whitman Street,98826,47.5921228,-120.6709311
157,West Whitman Street,98826,47.5920759,-120.6711081
163,West Whitman Street,98826,47.5919181,-120.6712206
165,West Whitman Street,98826,47.5918788,-120.6713965
167,West Whitman Street,98826,47.5917519,-120.6715613
212,West Whitman Street,98826,47.5918112,-120.6723257
214,West Whitman Street,98826,47.5916689,-120.6725186
218,West Whitman Street,98826,47.5915894,-120.6727016
205,West Whitman Street,98826,47.5915374,-120.6719255
213,West Whitman Street,98826,47.5914013,-120.6721433
215,West Whitman Street,98826,47.5912566,-120.6722242
217,West Whitman Street,98826,47.5911443,-120.6723856
222,West Whitman Street,98826,47.5915021,-120.6728798
133,Mill Street,98826,47.5913367,-120.6737257
127,Mill Street,98826,47.5912578,-120.6735389
123,Mill Street,98826,47.5911596,-120.6733701
117,Mill Street,98826,47.5908210,-120.6735700
107,Mill Street,98826,47.5908934,-120.6729284
113,Whitman Street,98826,47.5930409,-120.6694238
117,Whitman Street,98826,47.5929636,-120.6695795
123,Whitman Street,98826,47.5928646,-120.6697243
125,Whitman Street,98826,47.5927718,-120.6698713
129,Whitman Street,98826,47.5927150,-120.6700738
137,Whitman Street,98826,47.5925267,-120.6703615
145,Whitman Street,98826,47.5924030,-120.6704902
147,Whitman Street,98826,47.5923145,-120.6706219
126,Whitman Street,98826,47.5930715,-120.6703308
130,Whitman Street,98826,47.5929890,-120.6704510
138,Whitman Street,98826,47.5928622,-120.6707033
142,Whitman Street,98826,47.5927484,-120.6709876
146,Whitman Street,98826,47.5926391,-120.6710529
150,Whitman Street,98826,47.5925287,-120.6712633
156,Whitman Street,98826,47.5923550,-120.6715159
141,Benton Street,98826,47.5930277,-120.6713556
149,Benton Street,98826,47.5928848,-120.6715755
153,Benton Street,98826,47.5927634,-120.6718726
157,Benton Street,98826,47.5926379,-120.6719562
165,Benton Street,98826,47.5924870,-120.6722783
161,Benton Street,98826,47.5925862,-120.6721282
185,Benton Street,98826,47.5923941,-120.6724688
162,Benton Street,98826,47.5928437,-120.6725431
154,Benton Street,98826,47.5930068,-120.6722218
125,Benton Street,98826,47.5949512,-120.6682559
201,Benton Street,98826,47.5952706,-120.6676645
151,Benton Street,98826,47.5951841,-120.6678326
120,Ski Hill Drive,98826,47.5944260,-120.6684097
132,Whitman Street,98826,47.5946691,-120.6676042
204,Whitman Street,98826,47.5947842,-120.6675324
208,Whitman Street,98826,47.5948133,-120.6672882
212,Whitman Street,98826,47.5949298,-120.6671688
216,Whitman Street,98826,47.5951326,-120.6671396
220,Whitman Street,98826,47.5951301,-120.6668845
228,Whitman Street,98826,47.5952135,-120.6666972
233,Whitman Street,98826,47.5950085,-120.6659343
231,Whitman Street,98826,47.5949847,-120.6662722
131,Whitman Street,98826,47.5942167,-120.6673191
228,Center Street,98826,47.5964473,-120.6683177
306,Whitman Street,98826,47.5959536,-120.6653182
258,Whitman Street,98826,47.5956568,-120.6657407
254,Whitman Street,98826,47.5956280,-120.6659490
242,Whitman Street,98826,47.5955002,-120.6661421
321,Whitman Street,98826,47.5959363,-120.6645021
310,Whitman Street,98826,47.5961224,-120.6649413
320,Whitman Street,98826,47.5963007,-120.6646755
324,Whitman Street,98826,47.5963464,-120.6645009
338,Whitman Street,98826,47.5964321,-120.6643248
311,Evans Street,98826,47.5968240,-120.6643656
323,Benton Street,98826,47.5966639,-120.6650227
319,Benton Street,98826,47.5965425,-120.6652555
255,Benton Street,98826,47.5960482,-120.6662243
235,Benton Street,98826,47.5957525,-120.6668232
231,Benton Street,98826,47.5956445,-120.6670326
227,Benton Street,98826,47.5954857,-120.6670414
226,Benton Street,98826,47.5959429,-120.6676279
244,Benton Street,98826,47.5960590,-120.6671620
248,Benton Street,98826,47.5961269,-120.6670086
260,Benton Street,98826,47.5963706,-120.6665953
300,Benton Street,98826,47.5964725,-120.6663911
306,Benton Street,98826,47.5966210,-120.6662111
312,Benton Street,98826,47.5967151,-120.6659399
316,Benton Street,98826,47.5967793,-120.6657943
223,Evans Street,98826,47.5968748,-120.6663143
221,Evans Street,98826,47.5968577,-120.6665025
257,Center Street,98826,47.5966210,-120.6670769
235,Center Street,98826,47.5962625,-120.6677615
231,Center Street,98826,47.5961655,-120.6679350
219,Center Street,98826,47.5959808,-120.6683145
211,14th Street,98826,47.5984622,-120.6542382
213,14th Street,98826,47.5985280,-120.6543141
215,14th Street,98826,47.5985933,-120.6543899
216,14th Street,98826,47.5984973,-120.6537104
1326,Commercial Street,98826,47.5980508,-120.6541993
220,12th Street,98826,47.5973088,-120.6557957
224,12th Street,98826,47.5971785,-120.6557079
1111,Commercial Street,98826,47.5961892,-120.6567051
1121,Commercial Street,98826,47.5963979,-120.6563498
1116,Commercial Street,98826,47.5966916,-120.6567724
1215,Front Street,98826,47.5978779,-120.6558464
1217,Front Street,98826,47.5979407,-120.6557287
1227,Front Street,98826,47.5980356,-120.6554814
1303,Front Street,98826,47.5982042,-120.6551856
1313,Front Street,98826,47.5983909,-120.6548524
517,Birch Street,98826,47.5985734,-120.6611580
515,Birch Street,98826,47.5985901,-120.6613304
509,Birch Street,98826,47.5985776,-120.6614846
505,Birch Street,98826,47.5985738,-120.6616518
520,Ash Street,98826,47.5980692,-120.6611384
508,Ash Street,98826,47.5981155,-120.6615704
504,Ash Street,98826,47.5981084,-120.6617662
427,Birch Street,98826,47.5985035,-120.6622371
425 1/2,Birch Street,98826,47.5985549,-120.6624307
425,Birch Street,98826,47.5986012,-120.6625709
240,Central Avenue,98826,47.5984309,-120.6630277
250,Central Avenue,98826,47.5985802,-120.6630578
414,Ash Street,98826,47.5980900,-120.6626728
408,Ash Street,98826,47.5980953,-120.6630565
230,Central Avenue,98826,47.5982658,-120.6629935
418,Ash Street,98826,47.5980664,-120.6624694
422,Ash Street,98826,47.5980759,-120.6623369
426,Ash Street,98826,47.5981148,-120.6622051
409,Ash Street,98826,47.5976352,-120.6629803
410,Evans Street,98826,47.5972333,-120.6628534
604,Birch Street,98826,47.5990089,-120.6604203
612,Birch Street,98826,47.5990446,-120.6601883
614,Birch Street,98826,47.5989929,-120.6599701
620,Birch Street,98826,47.5989926,-120.6597518
719,Cedar Sreet,98826,47.5993996,-120.6584122
424,Price Avenue,98826,47.5994619,-120.6604092
611,Cedar Sreet,98826,47.5994769,-120.6601031
621,Cedar Sreet,98826,47.5994025,-120.6596131
617,Cedar Sreet,98826,47.5994205,-120.6597385
421,Price Avenue,98826,47.5993438,-120.6609756
520,Birch Street,98826,47.5989921,-120.6608607
522,Summit Avenue,98826,47.6003902,-120.6616221
527,Pine Street,98826,47.6003244,-120.6611361
525,Pine Street,98826,47.6003613,-120.6608988
524,Cedar Sreet,98826,47.5999276,-120.6608842
516,Cedar Sreet,98826,47.5998995,-120.6612650
510,Cedar Sreet,98826,47.5999251,-120.6615139
502,Cedar Sreet,98826,47.5999134,-120.6617548
415,Pine Street,98826,47.6003419,-120.6627009
521,Summit Avenue,98826,47.6003364,-120.6621941
426,Cedar Sreet,98826,47.5999262,-120.6622004
418,Cedar Sreet,98826,47.5999363,-120.6625399
408,Cedar Sreet,98826,47.5999512,-120.6627102
406,Cedar Sreet,98826,47.5999435,-120.6628393
404,Cedar Sreet,98826,47.5999506,-120.6629678
402,Cedar Sreet,98826,47.5999754,-120.6631301
410,Birch Street,98826,47.5990596,-120.6630862
518,Birch Street,98826,47.5989918,-120.6611697
512,Birch Street,98826,47.5989816,-120.6614422
510,Birch Street,98826,47.5990918,-120.6617459
508,Birch Street,98826,47.5989692,-120.6622154
418,Birch Street,98826,47.5989782,-120.6624979
416,Birch Street,98826,47.5990302,-120.6626617
414,Birch Street,98826,47.5990352,-120.6627850
412,Birch Street,98826,47.5990365,-120.6629058
425,Cedar Sreet,98826,47.5993764,-120.6621990
419,Cedar Sreet,98826,47.5994226,-120.6624287
415,Cedar Sreet,98826,47.5994295,-120.6626294
405,Cedar Sreet,98826,47.5994263,-120.6630329
509,Cedar Sreet,98826,47.5994343,-120.6615599
511,Cedar Sreet,98826,47.5994306,-120.6614390
515,Cedar Sreet,98826,47.5994352,-120.6612679
106,Fir Street,98826,47.6003723,-120.6547211
105,Fir Street,98826,47.5999905,-120.6551734
906,Cedar Sreet,98826,47.5998206,-120.6561095
728,Cedar Sreet,98826,47.6000359,-120.6582323
730,Cedar Sreet,98826,47.5998993,-120.6580819
722,Cedar Sreet,98826,47.5998815,-120.6583313
714,Cedar Sreet,98826,47.5999118,-120.6585973
704,Cedar Sreet,98826,47.5999151,-120.6590809
616,Cedar Sreet,98826,47.5999006,-120.6598704
622,Cedar Sreet,98826,47.5999163,-120.6596686
612,Cedar Sreet,98826,47.5999428,-120.6600657
608,Cedar Sreet,98826,47.5999147,-120.6602218
604,Cedar Sreet,98826,47.5999099,-120.6604244
705,Pine Street,98826,47.6003028,-120.6587997
924,Pine Street,98826,47.6007355,-120.6555972
501,Central Avenue,98826,47.5997938,-120.6635701
425,Central Avenue,98826,47.5994963,-120.6635900
509,Orchard Street,98826,47.5998826,-120.6653484
510,Orchard Street,98826,47.6000617,-120.6647614
506,Orchard Street,98826,47.5999035,-120.6647153
413,Cascade Street,98826,47.5992680,-120.6671579
236,Birch Street,98826,47.5990087,-120.6658767
308,Birch Street,98826,47.5989912,-120.6645899
419,Ski Hill Drive,98826,47.5994265,-120.6691134
302,Poplar Street,98826,47.6001900,-120.6700000
303,Cascade Street,98826,47.5978683,-120.6672493
209,West Commercial Street,98826,47.5903601,-120.6702565
212,Scholze Street,98826,47.5897623,-120.6702956
101,Enchantment Park Way,98826,47.5899463,-120.6687744
202,Commercial Street,98826,47.5918669,-120.6678496
100,West Commercial Street,98826,47.5910039,-120.6692018
108,Commercial Street,98826,47.5911222,-120.6688812
114,Commercial Street,98826,47.5912923,-120.6687007
118,Commercial Street,98826,47.5913777,-120.6684293
126,Commercial Street,98826,47.5915485,-120.6684784
130,Commercial Street,98826,47.5917479,-120.6684059
212,Commercial Street,98826,47.5921930,-120.6671668
285,Front Street,98826,47.5924931,-120.6675898
217,Scholze Street,98826,47.5893508,-120.6699873
525,Alpine Place,98826,47.5863915,-120.6724146
525,Alpine Place,98826,47.5865746,-120.6720059
525,Alpine Place,98826,47.5867529,-120.6721957
480,Alpine Place,98826,47.5864602,-120.6732334
480,Alpine Place,98826,47.5867329,-120.6734799
110,Icicle Road,98826,47.5873830,-120.6738506
914,Main Street,98826,47.5948061,-120.6591505
1029,Commercial Street,98826,47.5960159,-120.6580385
930,Main Street,98826,47.5951703,-120.6587676
220,Cascade Street,98826,47.5975749,-120.6665617
237,West Commercial Street,98826,47.5896750,-120.6713840
224,Cascade Street,98826,47.5978014,-120.6665195
201,Orchard Street,98826,47.5973031,-120.6653868
330,Prospect Street,98826,47.5939385,-120.6752155
320,Park Avenue,98826,47.5946852,-120.6755422
190,US Highway 2,98826,47.5921247,-120.6697805
227,Whitman Street,98826,47.5947948,-120.6663683
225,Central Avenue,98826,47.5981442,-120.6639134
105 E,Pine Street,98826,47.6002346,-120.6681835
100,Enchantment Park Way,98826,47.5877577,-120.6697415
