House number,Street name,Postal code,Latitude,Longitude
8418,Overlake Drive West,98039,47.6128805,-122.2272432
8845,Overlake Drive West,98039,47.6097565,-122.2258790
116,Overlake Drive East,98039,47.6097498,-122.2235595
102,Overlake Drive East,98039,47.6096441,-122.2242828
494,Overlake Drive East,98039,47.6141534,-122.2225280
438,Overlake Drive East,98039,47.6132560,-122.2230307
506,Overlake Drive East,98039,47.6142981,-122.2224296
8718,Overlake Drive West,98039,47.6119902,-122.2265707
450,Overlake Drive East,98039,47.6136895,-122.2229950
8620,Northeast 7th Street,98039,47.6172092,-122.2242338
8411,Northeast 10th Street,98039,47.6189949,-122.2275404
842,84th Avenue Northeast,98039,47.6187202,-122.2275432
550,Overlake Drive East,98039,47.6155214,-122.2217971
707,Overlake Drive East,98039,47.6163981,-122.2225325
8612,Northeast 7th Street,98039,47.6171300,-122.2245366
2409,Evergreen Point Road,98039,47.6323253,-122.2403567
2643,Evergreen Point Road,98039,47.6350659,-122.2403703
1223,Evergreen Point Road,98039,47.6221299,-122.2411463
923,Evergreen Point Road,98039,47.6189524,-122.2402613
101,84th Avenue Northeast,98039,47.6120233,-122.2283706
8216,Overlake Drive West,98039,47.6167908,-122.2298959
8345,Overlake Drive West,98039,47.6132177,-122.2288031
506,Evergreen Point Road,98039,47.6150970,-122.2386969
8049,Northeast 8th Street,98039,47.6173763,-122.2317958
8247,Overlake Drive West,98039,47.6148039,-122.2294703
1041,84th Avenue Northeast,98039,47.6204166,-122.2284218
7747,Overlake Drive West,98039,47.6143728,-122.2363814
7759,Overlake Drive West,98039,47.6159582,-122.2352837
8105,Northeast 5th Street,98039,47.6145321,-122.2310516
800,Evergreen Point Road,98039,47.6176803,-122.2383429
802,Evergreen Point Road,98039,47.6177206,-122.2383856
8000,Northeast 16th Street,98039,47.6252214,-122.2329583
1400,Evergreen Point Road,98039,47.6231868,-122.2381818
7830,Northeast 12th Street,98039,47.6213754,-122.2348523
7652,Northeast 12th Street,98039,47.6213279,-122.2364788
1428,Evergreen Point Road,98039,47.6236456,-122.2382392
1000,80th Avenue Northeast,98039,47.6192205,-122.2328678
7826,Northeast 12th Street,98039,47.6213786,-122.2351203
7989,Northeast 16th Street,98039,47.6242329,-122.2338028
7635,Northeast 12th Street,98039,47.6208780,-122.2372709
7804,Northeast 12th Street,98039,47.6213882,-122.2359236
2501,84th Avenue Northeast,98039,47.6332483,-122.2286657
2621,78th Avenue Northeast,98039,47.6344671,-122.2362703
2627,78th Avenue Northeast,98039,47.6346318,-122.2362728
2226,79th Avenue Northeast,98039,47.6308122,-122.2337120
2610,Evergreen Point Road,98039,47.6341493,-122.2383096
3317,Evergreen Point Road,98039,47.6408891,-122.2411320
3409,Evergreen Point Road,98039,47.6420767,-122.2411225
3300,78th Place Northeast,98039,47.6405639,-122.2362887
3101,Evergreen Point Road,98039,47.6381468,-122.2407264
3444,78th Place Northeast,98039,47.6418157,-122.2374011
3310,Evergreen Point Road,98039,47.6407382,-122.2380933
3242,78th Place Northeast,98039,47.6404698,-122.2346910
3450,Evergreen Point Road,98039,47.6436657,-122.2378542
8398,Northeast 12th Street,98039,47.6214970,-122.2289807
8300,Northeast 12th Street,98039,47.6216428,-122.2301451
8001,Northeast 8th Street,98039,47.6167540,-122.2337405
8000,Northeast 12th Street,98039,47.6224341,-122.2300405
7800,Northeast 28th Street,98039,47.6360737,-122.2357173
501,Evergreen Point Road,98039,47.6153426,-122.2391153
2564,Medina Circle,98039,47.6347933,-122.2283733
2550,Medina Circle,98039,47.6345305,-122.2284085
2540,Medina Circle,98039,47.6342788,-122.2284675
2561,Medina Circle,98039,47.6348701,-122.2290914
2541,Medina Circle,98039,47.6344998,-122.2290640
1465,Evergreen Point Road,98039,47.6245630,-122.2422124
1605,73rd Avenue Northeast,98039,47.6250975,-122.2426406
1617,73rd Avenue Northeast,98039,47.6255405,-122.2429250
3220,80th Avenue Northeast,98004,47.6390157,-122.2328327
2403,Evergreen Point Road,98039,47.6323416,-122.2403465
2562,Medina Circle,98039,47.6350753,-122.2283916
8000,Northeast 16th Street,98039,47.6251896,-122.2328849
8020,Northeast 12th Street,98039,47.6222683,-122.2305219
1634,77th Avenue Northeast,98039,47.6255447,-122.2362825
1632,77th Avenue Northeast,98039,47.6254368,-122.2369348
1636,77th Avenue Northeast,98039,47.6258168,-122.2369264
7400,Northeast 18th Street,98039,47.6271483,-122.2424752
1835,73rd Avenue Northeast,98039,47.6278148,-122.2419950
1637,77th Avenue Northeast,98039,47.6257849,-122.2378320
1601,77th Avenue Northeast,98039,47.6250814,-122.2378296
1635,77th Avenue Northeast,98039,47.6254601,-122.2377681
1600,77th Avenue Northeast,98039,47.6250936,-122.2368876
1661,77th Avenue Northeast,98039,47.6261210,-122.2379375
1660,77th Avenue Northeast,98039,47.6261485,-122.2367446
1687,77th Avenue Northeast,98039,47.6264530,-122.2379163
1801,77th Avenue Northeast,98039,47.6268179,-122.2380124
1818,77th Avenue Northeast,98039,47.6271831,-122.2371644
1849,77th Avenue Northeast,98039,47.6275293,-122.2380993
1864,77th Avenue Northeast,98039,47.6278721,-122.2372759
1885,77th Avenue Northeast,98039,47.6278703,-122.2381166
1899,77th Avenue Northeast,98039,47.6281933,-122.2382085
1898,77th Avenue Northeast,98039,47.6282615,-122.2372290
2001,77th Avenue Northeast,98039,47.6285944,-122.2381314
2025,77th Avenue Northeast,98039,47.6288342,-122.2379679
2027,77th Avenue Northeast,98039,47.6292195,-122.2376701
2039,77th Avenue Northeast,98039,47.6295402,-122.2376633
2045,77th Avenue Northeast,98039,47.6297058,-122.2377230
7715,77th Avenue Northeast,98039,47.6300187,-122.2369289
2042,77th Avenue Northeast,98039,47.6297520,-122.2369621
2030,77th Avenue Northeast,98039,47.6294516,-122.2368799
2022,77th Avenue Northeast,98039,47.6290703,-122.2369616
2012,77th Avenue Northeast,98039,47.6286495,-122.2371227
1848,77th Avenue Northeast,98039,47.6275257,-122.2371931
7712,Overlake Drive West,98039,47.6164501,-122.2369449
7720,Overlake Drive West,98039,47.6164973,-122.2366427
2534,Medina Circle,98039,47.6339400,-122.2284635
2536,Medina Circle,98039,47.6342465,-122.2296590
2548,Medina Circle,98039,47.6348565,-122.2295625
2560,Medina Circle,98039,47.6352685,-122.2286315
2557,Medina Circle,98039,47.6352730,-122.2290390
2555,Medina Circle,98039,47.6352930,-122.2294705
2553,Medina Circle,98039,47.6352795,-122.2299030
2551,Medina Circle,98039,47.6352165,-122.2302860
2549,Medina Circle,98039,47.6348440,-122.2303205
2547,Medina Circle,98039,47.6345145,-122.2302395
2546,Medina Circle,98039,47.6345050,-122.2296610
2532,Medina Circle,98039,47.6337200,-122.2284735
2522,Medina Circle,98039,47.6334865,-122.2285130
2520,Medina Circle,98039,47.6336015,-122.2290905
2516,Medina Circle,98039,47.6334080,-122.2294475
2507,Medina Circle,98039,47.6333430,-122.2298610
2511,Medina Circle,98039,47.6332975,-122.2302820
2515,Medina Circle,98039,47.6336115,-122.2303505
2525,Medina Circle,98039,47.6339020,-122.2303880
8265,Northeast 26th Street,98039,47.6334450,-122.2308385
8245,Northeast 26th Street,98039,47.6332915,-122.2316120
8240,Northeast 26th Street,98039,47.6337010,-122.2312960
2618,82nd Avenue Northeast,98039,47.6341805,-122.2308960
2628,82nd Avenue Northeast,98039,47.6344805,-122.2308630
2635,82nd Avenue Northeast,98039,47.6341085,-122.2316840
2639,82nd Avenue Northeast,98039,47.6344575,-122.2315835
2638,82nd Avenue Northeast,98039,47.6347895,-122.2308305
8050,Northeast 27th Street,98039,47.6349325,-122.2310080
8042,Northeast 27th Street,98039,47.6350115,-122.2313555
8036,Northeast 27th Street,98039,47.6349850,-122.2316690
8030,Northeast 27th Street,98039,47.6349480,-122.2319690
8023,Northeast 27th Street,98039,47.6345150,-122.2320025
8021,Northeast 27th Street,98039,47.6344955,-122.2323350
8019,Northeast 27th Street,98039,47.6345120,-122.2326555
8022,Northeast 27th Street,98039,47.6349515,-122.2322835
8055,Northeast 28th Street,98039,47.6353605,-122.2307435
8049,Northeast 28th Street,98039,47.6353490,-122.2310570
8037,Northeast 28th Street,98039,47.6353445,-122.2316715
8029,Northeast 28th Street,98039,47.6353435,-122.2319705
8023,Northeast 28th Street,98039,47.6353760,-122.2322885
2646,80th Avenue Northeast,98039,47.6351645,-122.2329600
2701,80th Avenue Northeast,98039,47.6349550,-122.2329725
8014,Northeast 27th Street,98039,47.6349540,-122.2325870
2626,80th Avenue Northeast,98039,47.6344825,-122.2329740
2629,80th Avenue Northeast,98039,47.6345285,-122.2336070
2633,80th Avenue Northeast,98039,47.6347485,-122.2336410
2639,80th Avenue Northeast,98039,47.6349625,-122.2336350
2647,80th Avenue Northeast,98039,47.6351870,-122.2336170
7979,Northeast 28th Street,98039,47.6353885,-122.2336170
2650,79th Avenue Northeast,98039,47.6353310,-122.2342005
2616,79th Avenue Northeast,98039,47.6350110,-122.2343170
2612,79th Avenue Northeast,98039,47.6346980,-122.2342920
2608,79th Avenue Northeast,98039,47.6343585,-122.2342515
2615,80th Avenue Northeast,98039,47.6343085,-122.2336200
7920,Northeast 26th Street,98039,47.6340465,-122.2335980
7914,Northeast 26th Street,98039,47.6340050,-122.2339470
2601,79th Avenue Northeast,98039,47.6340260,-122.2349610
2602,78th Avenue Northeast,98039,47.6339820,-122.2356005
2610,78th Avenue Northeast,98039,47.6341765,-122.2356445
2605,79th Avenue Northeast,98039,47.6343160,-122.2349565
2609,79th Avenue Northeast,98039,47.6346095,-122.2349435
2620,78th Avenue Northeast,98039,47.6344290,-122.2356050
2615,79th Avenue Northeast,98039,47.6348820,-122.2349275
2647,79th Avenue Northeast,98039,47.6351220,-122.2349100
7821,Northeast 28th Street,98039,47.6353650,-122.2348655
7815,Northeast 28th Street,98039,47.6353780,-122.2351370
2656,78th Avenue Northeast,98039,47.6353545,-122.2355800
2646,78th Avenue Northeast,98039,47.6351225,-122.2355635
2638,78th Avenue Northeast,98039,47.6349615,-122.2356185
2601,78th Avenue Northeast,98039,47.6340385,-122.2362570
2619,78th Avenue Northeast,98039,47.6343180,-122.2362870
2633,78th Avenue Northeast,98039,47.6349060,-122.2363310
2645,78th Avenue Northeast,98039,47.6351525,-122.2363105
2655,78th Avenue Northeast,98039,47.6353960,-122.2363275
7701,Northeast 28th Street,98039,47.6354095,-122.2369095
2665,77th Avenue Northeast,98039,47.6351690,-122.2369080
2625,77th Avenue Northeast,98039,47.6346320,-122.2369515
2615,78th Avenue Northeast,98039,47.6344235,-122.2368750
2614,Evergreen Point Road,98039,47.6340860,-122.2379615
2618,Evergreen Point Road,98039,47.6345085,-122.2377850
2620,Evergreen Point Road,98039,47.6344825,-122.2382960
2626,Evergreen Point Road,98039,47.6346450,-122.2380910
2740,Evergreen Point Road,98039,47.6348730,-122.2378560
2710,Evergreen Point Road,98039,47.6349515,-122.2382855
2750,Evergreen Point Road,98039,47.6351595,-122.2376070
2770,Evergreen Point Road,98039,47.6353555,-122.2378570
2790,Evergreen Point Road,98039,47.6353685,-122.2382720
2835,Evergreen Point Road,98039,47.6366360,-122.2389840
2837,Evergreen Point Road,98039,47.6366390,-122.2395290
2839,Evergreen Point Road,98039,47.6366310,-122.2402015
2851,Evergreen Point Road,98039,47.6370010,-122.2393615
2853,Evergreen Point Road,98039,47.6370030,-122.2404030
2827,Evergreen Point Road,98039,47.6363600,-122.2397685
7560,Northeast 28th Place,98039,47.6361160,-122.2395940
7570,Northeast 28th Place,98039,47.6360655,-122.2391710
7550,Northeast 28th Place,98039,47.6360755,-122.2404410
2795,Evergreen Point Road,98039,47.6357430,-122.2394880
2665,Evergreen Point Road,98039,47.6355765,-122.2397645
7543,Northeast 28th Place,98039,47.6357810,-122.2407545
2659,Evergreen Point Road,98039,47.6354140,-122.2403305
2651,Evergreen Point Road,98039,47.6352415,-122.2401985
2631,Evergreen Point Road,98039,47.6347770,-122.2391735
2615,Evergreen Point Road,98039,47.6344065,-122.2390575
2611,Evergreen Point Road,98039,47.6341435,-122.2402285
2609,Evergreen Point Road,98039,47.6339545,-122.2396350
2607,Evergreen Point Road,98039,47.6340045,-122.2390575
2617,Evergreen Point Road,98039,47.6342885,-122.2412810
2439,Evergreen Point Road,98039,47.6331230,-122.2402145
2401,Evergreen Point Road,98039,47.6320490,-122.2391045
2403,Evergreen Point Road,98039,47.6321270,-122.2403300
2307,Evergreen Point Road,98039,47.6318935,-122.2404880
2247,Evergreen Point Road,98039,47.6316050,-122.2405480
2305,Evergreen Point Road,98039,47.6315985,-122.2399255
2303,Evergreen Point Road,98039,47.6316460,-122.2394570
2237,Evergreen Point Road,98039,47.6313890,-122.2416925
2241,Evergreen Point Road,98039,47.6313325,-122.2404095
2227,Evergreen Point Road,98039,47.6310795,-122.2406855
3207,Evergreen Point Road,98039,47.6384545,-122.2404500
3217,Evergreen Point Road,98039,47.6386820,-122.2403475
3211,Evergreen Point Road,98039,47.6386270,-122.2398285
3215,Evergreen Point Road,98039,47.6388405,-122.2393975
3219,Evergreen Point Road,98039,47.6391465,-122.2390980
3233,Evergreen Point Road,98039,47.6393825,-122.2390915
3221,Evergreen Point Road,98039,47.6391415,-122.2397390
3235,Evergreen Point Road,98039,47.6394170,-122.2401585
3227,Evergreen Point Road,98039,47.6391650,-122.2415510
3241,Evergreen Point Road,98039,47.6396185,-122.2416215
3249,Evergreen Point Road,98039,47.6398085,-122.2416035
3261,Evergreen Point Road,98039,47.6400040,-122.2415640
3243,Evergreen Point Road,98039,47.6396090,-122.2401285
3257,Evergreen Point Road,98039,47.6399910,-122.2403600
3245,Evergreen Point Road,98039,47.6398195,-122.2392115
3313,Evergreen Point Road,98039,47.6405680,-122.2406875
3309,Evergreen Point Road,98039,47.6405930,-122.2393190
3319,Evergreen Point Road,98039,47.6408785,-122.2399685
3327,Evergreen Point Road,98039,47.6410735,-122.2398600
3337,Evergreen Point Road,98039,47.6413155,-122.2395880
3329,Evergreen Point Road,98039,47.6410995,-122.2410130
3403,Evergreen Point Road,98039,47.6416905,-122.2410735
3401,Evergreen Point Road,98039,47.6416835,-122.2399140
3405,Evergreen Point Road,98039,47.6418965,-122.2410810
3407,Evergreen Point Road,98039,47.6419195,-122.2402825
3411,Evergreen Point Road,98039,47.6421010,-122.2400890
3223,Evergreen Point Road,98039,47.6391365,-122.2404505
3339,Evergreen Point Road,98039,47.6415250,-122.2408885
3425,Evergreen Point Road,98039,47.6423825,-122.2411520
3421,Evergreen Point Road,98039,47.6423380,-122.2401095
3419,Evergreen Point Road,98039,47.6423465,-122.2392040
3427,Evergreen Point Road,98039,47.6426605,-122.2391320
3429,Evergreen Point Road,98039,47.6426550,-122.2398600
3435,Evergreen Point Road,98039,47.6428820,-122.2410605
3603,Evergreen Point Road,98039,47.6433560,-122.2408350
3455,Evergreen Point Road,98039,47.6431235,-122.2396840
3607,Evergreen Point Road,98039,47.6435690,-122.2403980
3605,Evergreen Point Road,98039,47.6433640,-122.2396475
3461,Evergreen Point Road,98039,47.6433730,-122.2390755
3609,Evergreen Point Road,98039,47.6435800,-122.2393840
3611,Evergreen Point Road,98039,47.6437855,-122.2393255
3619,Evergreen Point Road,98039,47.6439900,-122.2394490
3621,Evergreen Point Road,98039,47.6441870,-122.2394700
3635,Evergreen Point Road,98039,47.6443985,-122.2395530
3645,Evergreen Point Road,98039,47.6446645,-122.2398195
3655,Evergreen Point Road,98039,47.6447195,-122.2393785
3663,Fairweather Lane,98039,47.6450675,-122.2399185
3665,Fairweather Lane,98039,47.6453160,-122.2400200
3667,Fairweather Lane,98039,47.6455595,-122.2399740
3670,Fairweather Lane,98039,47.6456305,-122.2396670
3660,Fairweather Lane,98039,47.6452910,-122.2391640
3654,Fairweather Lane,98039,47.6451730,-122.2389110
3648,Fairweather Lane,98039,47.6449240,-122.2388940
3630,Evergreen Point Road,98039,47.6443990,-122.2387295
3616,Evergreen Point Road,98039,47.6440500,-122.2386725
3608,Evergreen Point Road,98039,47.6437770,-122.2385100
3602,Evergreen Point Road,98039,47.6436340,-122.2383815
3444,Evergreen Point Road,98039,47.6433225,-122.2379900
3440,Evergreen Point Road,98039,47.6429705,-122.2381250
3438,Evergreen Point Road,98039,47.6430460,-122.2372525
3434,Evergreen Point Road,98039,47.6424875,-122.2382590
3436,Evergreen Point Road,98039,47.6427570,-122.2368940
3404,Evergreen Point Road,98039,47.6422480,-122.2374010
3448,78th Place Northeast,98039,47.6422075,-122.2367000
3440,78th Place Northeast,98039,47.6417715,-122.2379145
3334,78th Place Northeast,98039,47.6420320,-122.2361465
3326,78th Place Northeast,98039,47.6416730,-122.2362930
3332,78th Place Northeast,98039,47.6416725,-122.2368345
3320,78th Place Northeast,98039,47.6415125,-122.2360160
3310,78th Place Northeast,98039,47.6414900,-122.2355690
3324,78th Place Northeast,98039,47.6413200,-122.2368925
3318,78th Place Northeast,98039,47.6411145,-122.2369155
3304,78th Place Northeast,98039,47.6410095,-122.2353310
3302,78th Place Northeast,98039,47.6407695,-122.2365450
3254,78th Place Northeast,98039,47.6404530,-122.2360660
3252,78th Place Northeast,98039,47.6408345,-122.2351435
3248,78th Place Northeast,98039,47.6405710,-122.2350225
3234,78th Place Northeast,98039,47.6402145,-122.2345555
3240,78th Place Northeast,98039,47.6401305,-122.2357245
3232,78th Place Northeast,98039,47.6399340,-122.2350160
3230,78th Place Northeast,98039,47.6400535,-122.2341205
3222,78th Place Northeast,98039,47.6395880,-122.2337225
3210,78th Place Northeast,98039,47.6393370,-122.2341380
3220,78th Place Northeast,98039,47.6395250,-122.2344700
3340,Evergreen Point Road,98039,47.6412215,-122.2382525
3316,Evergreen Point Road,98039,47.6409325,-122.2382550
3311,78th Place Northeast,98039,47.6408130,-122.2374660
3255,78th Place Northeast,98039,47.6404050,-122.2371415
3256,Evergreen Point Road,98039,47.6399530,-122.2381330
3245,78th Place Northeast,98039,47.6402040,-122.2371230
3239,78th Place Northeast,98039,47.6398670,-122.2370415
3241,78th Place Northeast,98039,47.6398405,-122.2365530
3240,Evergreen Point Road,98039,47.6393320,-122.2381490
3215,78th Place Northeast,98039,47.6394480,-122.2363935
3201,78th Place Northeast,98039,47.6390430,-122.2365135
7640,Northeast 32nd Street,98039,47.6388930,-122.2369585
7628,Northeast 32nd Street,98039,47.6390935,-122.2373960
7620,Northeast 32nd Street,98039,47.6386575,-122.2376655
3204,Evergreen Point Road,98039,47.6385595,-122.2381880
3212,Evergreen Point Road,98039,47.6388420,-122.2382455
3224,Evergreen Point Road,98039,47.6390925,-122.2381975
7816,Northeast 32nd Street,98039,47.6388670,-122.2352405
7900,Northeast 32nd Street,98039,47.6390180,-122.2344700
7920,Northeast 32nd Street,98039,47.6385685,-122.2343195
7940,Northeast 32nd Street,98039,47.6390645,-122.2336700
7944,Northeast 32nd Street,98039,47.6387920,-122.2335330
7930,Northeast 32nd Street,98039,47.6389620,-122.2340725
2500,Evergreen Point Road,98039,47.6336080,-122.2382155
2470,Evergreen Point Road,98039,47.6336100,-122.2376985
2459,78th Avenue Northeast,98039,47.6335665,-122.2368965
2457,78th Avenue Northeast,98039,47.6336370,-122.2363515
7702,Overlake Drive West,98039,47.6164723,-122.2373097
7620,Overlake Drive West,98039,47.6167503,-122.2374867
7606,Overlake Drive West,98039,47.6164861,-122.2377910
3225,Evergreen Point Road,98039,47.6390935,-122.2409886
3267,Evergreen Point Road,98039,47.6403723,-122.2398952
3265,Evergreen Point Road,98039,47.6402679,-122.2390678
816,Evergreen Point Road,98039,47.6179335,-122.2384824
8300,Northeast 24th Street,98039,47.6324151,-122.2295447
8300,Northeast 24th Street,98039,47.6324172,-122.2297636
909,82nd Avenue Northeast,98039,47.6189500,-122.2300065
907,82nd Avenue Northeast,98039,47.6187990,-122.2303345
841,82nd Avenue Northeast,98039,47.6185120,-122.2301660
817,82nd Avenue Northeast,98039,47.6182185,-122.2303655
8060,Northeast 8th Street,98039,47.6181470,-122.2310175
8058,Northeast 8th Street,98039,47.6177490,-122.2310470
815,82nd Avenue Northeast,98039,47.6177670,-122.2306715
811,82nd Avenue Northeast,98039,47.6179775,-122.2305425
8050,Northeast 8th Street,98039,47.6181725,-122.2315255
8048,Northeast 8th Street,98039,47.6176855,-122.2316000
8032,Northeast 8th Street,98039,47.6177770,-122.2320665
8040,Northeast 8th Street,98039,47.6181855,-122.2320615
840,80th Avenue Northeast,98039,47.6185620,-122.2323330
1049,84th Avenue Northeast,98039,47.6206620,-122.2283330
8401,Northeast 12th Street,98039,47.6208235,-122.2276645
1033,84th Avenue Northeast,98039,47.6202075,-122.2283930
1025,84th Avenue Northeast,98039,47.6200065,-122.2283620
1024,82nd Avenue Northeast,98039,47.6200145,-122.2287505
1018,82nd Avenue Northeast,98039,47.6197935,-122.2287980
1017,84th Avenue Northeast,98039,47.6197870,-122.2283665
1013,84th Avenue Northeast,98039,47.6195080,-122.2283250
1010,82nd Avenue Northeast,98039,47.6195550,-122.2288910
1000,82nd Avenue Northeast,98039,47.6192755,-122.2289775
1015,84th Avenue Northeast,98039,47.6192670,-122.2283805
860,82nd Avenue Northeast,98039,47.6190205,-122.2291395
853,83rd Avenue Northeast,98039,47.6188955,-122.2285465
847,83rd Avenue Northeast,98039,47.6184955,-122.2287925
850,82nd Avenue Northeast,98039,47.6187795,-122.2292125
836,82nd Avenue Northeast,98039,47.6185100,-122.2294010
830,82nd Avenue Northeast,98039,47.6181480,-122.2296270
825,83rd Avenue Northeast,98039,47.6182615,-122.2288845
821,83rd Avenue Northeast,98039,47.6180000,-122.2289045
816,82nd Avenue Northeast,98039,47.6179235,-122.2296970
8214,Northeast 8th Street,98039,47.6176735,-122.2299505
8224,Northeast 8th Street,98039,47.6176540,-122.2295750
8234,Northeast 8th Street,98039,47.6177135,-122.2291725
808,83rd Avenue Northeast,98039,47.6176905,-122.2283820
820,83rd Avenue Northeast,98039,47.6179435,-122.2283055
830,80th Avenue Northeast,98039,47.6182200,-122.2329305
820,80th Avenue Northeast,98039,47.6179500,-122.2329530
802,80th Avenue Northeast,98039,47.6176970,-122.2329345
633,81st Avenue Northeast,98039,47.6172270,-122.2316680
631,84th Avenue Northeast,98039,47.6171115,-122.2283470
8245,Northeast 8th Street,98039,47.6171095,-122.2287825
8235,Northeast 8th Street,98039,47.6171645,-122.2293095
8215,Northeast 8th Street,98039,47.6171720,-122.2297315
8115,Northeast 8th Street,98039,47.6171275,-122.2303545
630,81st Avenue Northeast,98039,47.6171535,-122.2309580
624,81st Avenue Northeast,98039,47.6168450,-122.2310285
8106,Overlake Drive West,98039,47.6164890,-122.2310665
8120,Overlake Drive West,98039,47.6166760,-122.2304075
8116,Overlake Drive West,98039,47.6163760,-122.2304755
8210,Overlake Drive West,98039,47.6165025,-122.2298775
8212,Overlake Drive West,98039,47.6167975,-122.2293310
625,84th Avenue Northeast,98039,47.6168310,-122.2284450
601,84th Avenue Northeast,98039,47.6162770,-122.2283450
8234,Overlake Drive West,98039,47.6161875,-122.2288590
8208,Overlake Drive West,98039,47.6163830,-122.2293015
8222,Overlake Drive West,98039,47.6159030,-122.2293970
8232,Overlake Drive West,98039,47.6158430,-122.2288455
427,84th Avenue Northeast,98039,47.6158400,-122.2283515
417,84th Avenue Northeast,98039,47.6155795,-122.2283500
8226,Overlake Drive West,98039,47.6155960,-122.2288585
8224,Overlake Drive West,98039,47.6155990,-122.2293655
8213,Overlake Drive West,98039,47.6155835,-122.2299745
8105,Overlake Drive West,98039,47.6158880,-122.2308230
8117,Overlake Drive West,98039,47.6158570,-122.2305005
515,82nd Avenue Northeast,98039,47.6155955,-122.2305120
8102,Northeast 5th Street,98039,47.6154820,-122.2308730
511,82nd Avenue Northeast,98039,47.6153495,-122.2305285
8223,Overlake Drive West,98039,47.6153285,-122.2298960
8233,Overlake Drive West,98039,47.6151035,-122.2297265
321,82nd Avenue Northeast,98039,47.6144855,-122.2303975
8305,Overlake Drive West,98039,47.6142030,-122.2295270
8315,Overlake Drive West,98039,47.6139150,-122.2293910
8335,Overlake Drive West,98039,47.6135120,-122.2291945
110,84th Avenue Northeast,98039,47.6123275,-122.2277000
8426,Overlake Drive West,98039,47.6127975,-122.2270205
8414,Overlake Drive West,98039,47.6130990,-122.2274270
200,84th Avenue Northeast,98039,47.6133030,-122.2276430
8214,Overlake Drive West,98039,47.6153080,-122.2288830
415,84th Avenue Northeast,98039,47.6153190,-122.2283750
8300,Overlake Drive West,98039,47.6150400,-122.2289410
411,84th Avenue Northeast,98039,47.6150180,-122.2284215
8336,Overlake Drive West,98039,47.6147510,-122.2288480
405,84th Avenue Northeast,98039,47.6146885,-122.2284265
8338,Overlake Drive West,98039,47.6144155,-122.2285745
247,84th Avenue Northeast,98039,47.6141205,-122.2283865
7939,Overlake Drive West,98039,47.6147320,-122.2315420
7935,Overlake Drive West,98039,47.6145860,-122.2320020
7917,Overlake Drive West,98039,47.6147340,-122.2326565
7887,Overlake Drive West,98039,47.6148630,-122.2335270
7909,Overlake Drive West,98039,47.6158895,-122.2328535
7777,Overlake Drive West,98039,47.6151045,-122.2345135
1081,80th Avenue Northeast,98039,47.6201825,-122.2336405
7857,Northeast 12th Street,98039,47.6206995,-122.2335400
1051,80th Avenue Northeast,98039,47.6198195,-122.2337335
1011,80th Avenue Northeast,98039,47.6195615,-122.2337010
7848,Northeast 10th Street,98039,47.6195695,-122.2342380
7846,Northeast 10th Street,98039,47.6201395,-122.2344725
7833,Northeast 12th Street,98039,47.6205070,-122.2344005
7831,Northeast 12th Street,98039,47.6208440,-122.2343385
7815,Northeast 12th Street,98039,47.6208935,-122.2350975
7821,Northeast 12th Street,98039,47.6206485,-122.2350060
7809,Northeast 12th Street,98039,47.6209305,-122.2354950
7805,Northeast 12th Street,98039,47.6208240,-122.2359250
7827,Northeast 12th Street,98039,47.6203725,-122.2351245
7842,Northeast 10th Street,98039,47.6200915,-122.2349320
7807,Northeast 12th Street,98039,47.6203980,-122.2357570
7808,Northeast 10th Street,98039,47.6200690,-122.2357690
7820,Northeast 10th Street,98039,47.6196210,-122.2353265
7834,Northeast 10th Street,98039,47.6195385,-122.2349795
7844,Northeast 10th Street,98039,47.6196385,-122.2346050
7801,Northeast 12th Street,98039,47.6208605,-122.2363650
7715,Northeast 12th Street,98039,47.6208735,-122.2368255
7641,Northeast 12th Street,98039,47.6204875,-122.2368800
7803,Northeast 12th Street,98039,47.6204155,-122.2363565
7802,Northeast 10th Street,98039,47.6200860,-122.2362575
7800,Northeast 10th Street,98039,47.6196670,-122.2363050
7650,Northeast 10th Street,98039,47.6198550,-122.2366733
7648,Northeast 10th Street,98039,47.6201495,-122.2370545
7642,Northeast 10th Street,98039,47.6196995,-122.2369820
7630,Northeast 10th Street,98039,47.6198180,-122.2372700
7626,Northeast 10th Street,98039,47.6197835,-122.2374950
7600,Northeast 10th Street,98039,47.6196225,-122.2382860
1012,Evergreen Point Road,98039,47.6198195,-122.2383320
1020,Evergreen Point Road,98039,47.6199945,-122.2383250
1026,Evergreen Point Road,98039,47.6201650,-122.2383480
1034,Evergreen Point Road,98039,47.6203760,-122.2383625
1040,Evergreen Point Road,98039,47.6206335,-122.2383165
1150,Evergreen Point Road,98039,47.6209330,-122.2384755
7611,Northeast 12th Street,98039,47.6209470,-122.2381415
7615,Northeast 12th Street,98039,47.6209510,-122.2378365
7629,Northeast 12th Street,98039,47.6207330,-122.2375575
854,Evergreen Point Road,98039,47.6191735,-122.2383885
848,Evergreen Point Road,98039,47.6188590,-122.2384250
7621,Northeast 10th Street,98039,47.6191535,-122.2377040
838,Evergreen Point Road,98039,47.6186800,-122.2378230
7627,Northeast 10th Street,98039,47.6191010,-122.2372520
7653,Northeast 10th Street,98039,47.6191190,-122.2369115
7657,Northeast 10th Street,98039,47.6191480,-122.2363945
7655,Northeast 10th Street,98039,47.6187420,-122.2364180
7813,Northeast 10th Street,98039,47.6186035,-122.2358310
7851,Northeast 10th Street,98039,47.6187355,-122.2353855
7819,Northeast 10th Street,98039,47.6191330,-122.2353850
7831,Northeast 10th Street,98039,47.6190860,-122.2350300
7861,Northeast 10th Street,98039,47.6185990,-122.2350030
7841,Northeast 10th Street,98039,47.6190210,-122.2346170
7887,Northeast 10th Street,98039,47.6190885,-122.2342285
7899,Northeast 10th Street,98039,47.6187065,-122.2343355
925,80th Avenue Northeast,98039,47.6188240,-122.2336735
7863,Northeast 10th Street,98039,47.6191290,-122.2337725
851,80th Avenue Northeast,98039,47.6185425,-122.2337330
827,80th Avenue Northeast,98039,47.6182855,-122.2336530
821,80th Avenue Northeast,98039,47.6180385,-122.2336380
801,80th Avenue Northeast,98039,47.6177126,-122.2337109
7842,Northeast 8th Street,98039,47.6177565,-122.2343225
7848,Northeast 8th Street,98039,47.6182460,-122.2345475
7832,Northeast 8th Street,98039,47.6181965,-122.2349235
7828,Northeast 8th Street,98039,47.6177900,-122.2349515
7820,Northeast 8th Street,98039,47.6179775,-122.2352600
7814,Northeast 8th Street,98039,47.6178525,-122.2355385
7812,Northeast 8th Street,98039,47.6178280,-122.2358985
7816,Northeast 8th Street,98039,47.6182450,-122.2358205
7728,Northeast 8th Street,98039,47.6184670,-122.2363990
7724,Northeast 8th Street,98039,47.6181590,-122.2364170
7720,Northeast 8th Street,98039,47.6178695,-122.2364355
7640,Northeast 8th Street,98039,47.6178215,-122.2370125
7644,Northeast 8th Street,98039,47.6181765,-122.2371260
7648,Northeast 8th Street,98039,47.6184490,-122.2370520
826,Evergreen Point Road,98039,47.6184450,-122.2377895
824,Evergreen Point Road,98039,47.6184520,-122.2384110
822,Evergreen Point Road,98039,47.6182615,-122.2383015
7626,Northeast 8th Street,98039,47.6178835,-122.2375510
7622,Northeast 8th Street,98039,47.6178215,-122.2377720
7616,Northeast 8th Street,98039,47.6177450,-122.2380250
7749,Northeast 8th Street,98039,47.6172400,-122.2354005
7731,Northeast 8th Street,98039,47.6172905,-122.2361885
7739,Northeast 8th Street,98039,47.6172000,-122.2358555
7742,Overlake Drive West,98039,47.6170160,-122.2353075
7744,Overlake Drive West,98039,47.6167900,-122.2354190
7746,Overlake Drive West,98039,47.6164460,-122.2354305
7748,Overlake Drive West,98039,47.6164620,-122.2350680
7728,Overlake Drive West,98039,47.6165010,-122.2363190
7725,Northeast 8th Street,98039,47.6171940,-122.2368835
7701,Northeast 8th Street,98039,47.6172765,-122.2374150
7617,Northeast 8th Street,98039,47.6172460,-122.2378735
7611,Northeast 8th Street,98039,47.6172750,-122.2381330
632,Evergreen Point Road,98039,47.6172990,-122.2385345
626,Evergreen Point Road,98039,47.6171015,-122.2385595
620,Evergreen Point Road,98039,47.6169055,-122.2384895
610,Evergreen Point Road,98039,47.6165495,-122.2385935
7612,Overlake Drive West,98039,47.6164790,-122.2383415
7614,Overlake Drive West,98039,47.6164900,-122.2381390
7601,Overlake Drive West,98039,47.6159745,-122.2386035
520,Evergreen Point Road,98039,47.6157470,-122.2386220
512,Evergreen Point Road,98039,47.6154795,-122.2387160
7613,Overlake Drive West,98039,47.6153450,-122.2382535
7623,Overlake Drive West,98039,47.6156130,-122.2378065
7629,Overlake Drive West,98039,47.6159730,-122.2376490
7715,Overlake Drive West,98039,47.6158150,-122.2372027
7741,Overlake Drive West,98039,47.6159090,-122.2363280
7743,Overlake Drive West,98039,47.6158610,-122.2359610
7757,Overlake Drive West,98039,47.6157190,-122.2352950
7755,Overlake Drive West,98039,47.6152570,-122.2353455
7735,Overlake Drive West,98039,47.6152940,-122.2360825
7625,Overlake Drive West,98039,47.6149270,-122.2378595
7733,Overlake Drive West,98039,47.6148960,-122.2371680
7737,Overlake Drive West,98039,47.6143175,-122.2359490
7745,Overlake Drive West,98039,47.6143055,-122.2355630
7751,Overlake Drive West,98039,47.6142640,-122.2352165
601,Evergreen Point Road,98039,47.6158360,-122.2395470
605,Evergreen Point Road,98039,47.6161025,-122.2396070
609,Evergreen Point Road,98039,47.6163782,-122.2398405
611,Evergreen Point Road,98039,47.6165360,-122.2399320
617,Evergreen Point Road,98039,47.6167585,-122.2399280
643,Evergreen Point Road,98039,47.6169705,-122.2400760
647,Evergreen Point Road,98039,47.6173665,-122.2404385
801,Evergreen Point Road,98039,47.6179490,-122.2407835
827,Evergreen Point Road,98039,47.6184315,-122.2391320
1013,Evergreen Point Road,98039,47.6201070,-122.2411665
1015,Evergreen Point Road,98039,47.6200690,-122.2401330
1019,Evergreen Point Road,98039,47.6199715,-122.2392615
1137,Evergreen Point Road,98039,47.6209735,-122.2407580
1135,Evergreen Point Road,98039,47.6210930,-122.2400930
1201,Evergreen Point Road,98039,47.6214180,-122.2407125
1127,Evergreen Point Road,98039,47.6209185,-122.2423765
1229,Evergreen Point Road,98039,47.6223480,-122.2419550
1231,Evergreen Point Road,98039,47.6223585,-122.2410650
1215,Evergreen Point Road,98039,47.6217390,-122.2414230
1219,Evergreen Point Road,98039,47.6219750,-122.2399135
1217,Evergreen Point Road,98039,47.6219370,-122.2392500
1209,Evergreen Point Road,98039,47.6217470,-122.2393180
1237,Evergreen Point Road,98039,47.6223285,-122.2393015
1233,Evergreen Point Road,98039,47.6223410,-122.2401220
1255,Evergreen Point Road,98039,47.6226710,-122.2413645
1257,Evergreen Point Road,98039,47.6229825,-122.2412670
1445,Evergreen Point Road,98039,47.6233515,-122.2420590
1253,Evergreen Point Road,98039,47.6229495,-122.2402445
1251,Evergreen Point Road,98039,47.6229365,-122.2398680
1249,Evergreen Point Road,98039,47.6228995,-122.2394550
1247,Evergreen Point Road,98039,47.6228685,-122.2390610
1449,Evergreen Point Road,98039,47.6239465,-122.2420320
1455,Evergreen Point Road,98039,47.6242805,-122.2420660
1603,Evergreen Point Road,98039,47.6247410,-122.2401190
1601,Evergreen Point Road,98039,47.6242470,-122.2391260
1405,Evergreen Point Road,98039,47.6234575,-122.2391920
1403,Evergreen Point Road,98039,47.6237500,-122.2404990
1611,Evergreen Point Road,98039,47.6251470,-122.2413560
1625,Rambling Lane,98039,47.6255400,-122.2414485
7407,Rambling Lane,98039,47.6254805,-122.2405530
7409,Rambling Lane,98039,47.6254555,-122.2399360
1625,Evergreen Point Road,98039,47.6255990,-122.2392855
1633,Evergreen Point Road,98039,47.6258555,-122.2392200
1631,Rambling Lane,98039,47.6257785,-122.2402900
1634,Rambling Lane,98039,47.6260085,-122.2402275
1791,Evergreen Point Road,98039,47.6265075,-122.2390310
1662,Rambling Lane,98039,47.6264575,-122.2394275
1641,Evergreen Point Road,98039,47.6261585,-122.2392810
1645,Rambling Lane,98039,47.6262280,-122.2400640
1653,Rambling Lane,98039,47.6264255,-122.2401210
1659,Rambling Lane,98039,47.6266220,-122.2402120
1656,73rd Avenue Northeast,98039,47.6264330,-122.2409985
7329,Northeast 18th Street,98039,47.6262030,-122.2414055
7319,Northeast 18th Street,98039,47.6260085,-122.2417355
1636,73rd Avenue Northeast,98039,47.6259905,-122.2422820
1800,73rd Avenue Northeast,98039,47.6263715,-122.2421245
1810,73rd Avenue Northeast,98039,47.6265840,-122.2419515
1635,73rd Avenue Northeast,98039,47.6258055,-122.2428690
1645,73rd Avenue Northeast,98039,47.6260355,-122.2428335
1655,73rd Avenue Northeast,98039,47.6263530,-122.2428065
1811,73rd Avenue Northeast,98039,47.6266570,-122.2427825
1821,73rd Avenue Northeast,98039,47.6269490,-122.2427000
7404,Northeast 18th Street,98039,47.6272795,-122.2408470
1831,Evergreen Point Road,98039,47.6277680,-122.2407835
1837,Evergreen Point Road,98039,47.6279945,-122.2408605
1851,Evergreen Point Road,98039,47.6282090,-122.2409370
1819,Evergreen Point Road,98039,47.6272020,-122.2390885
1827,Evergreen Point Road,98039,47.6277660,-122.2391585
1829,Evergreen Point Road,98039,47.6278155,-122.2398060
1847,Evergreen Point Road,98039,47.6281250,-122.2396225
1849,Evergreen Point Road,98039,47.6281200,-122.2401235
1845,Evergreen Point Road,98039,47.6281185,-122.2391600
1859,Evergreen Point Road,98039,47.6284840,-122.2392130
1853,Evergreen Point Road,98039,47.6284810,-122.2397880
1855,Evergreen Point Road,98039,47.6284845,-122.2404180
1857,Evergreen Point Road,98039,47.6284960,-122.2410545
2019,Evergreen Point Road,98039,47.6289217,-122.2406759
2207,Evergreen Point Road,98039,47.6305845,-122.2417235
2033,Evergreen Point Road,98039,47.6294770,-122.2404960
2047,Evergreen Point Road,98039,47.6298180,-122.2404505
2025,Evergreen Point Road,98039,47.6294850,-122.2398335
2021,Evergreen Point Road,98039,47.6294920,-122.2391895
2203,Evergreen Point Road,98039,47.6304915,-122.2402620
2201,Evergreen Point Road,98039,47.6305600,-122.2390860
2005,Evergreen Point Road,98039,47.6287765,-122.2391490
2020,Evergreen Point Road,98039,47.6291010,-122.2383405
2032,Evergreen Point Road,98039,47.6293660,-122.2382750
2036,Evergreen Point Road,98039,47.6296675,-122.2383055
2054,Evergreen Point Road,98039,47.6299475,-122.2382795
2213,Evergreen Point Road,98039,47.6308374,-122.2405569
2229,Evergreen Point Road,98039,47.6310800,-122.2399890
2223,Evergreen Point Road,98039,47.6310665,-122.2394830
2221,Evergreen Point Road,98039,47.6310585,-122.2390315
2301,Evergreen Point Road,98039,47.6316415,-122.2390385
2431,Evergreen Point Road,98039,47.6329270,-122.2390495
2441,Evergreen Point Road,98039,47.6333670,-122.2412025
2015,78th Avenue Northeast,98039,47.6285865,-122.2364891
2021,78th Avenue Northeast,98039,47.6291075,-122.2363905
2033,78th Avenue Northeast,98039,47.6293705,-122.2363540
2039,78th Avenue Northeast,98039,47.6295345,-122.2363790
2045,78th Avenue Northeast,98039,47.6297000,-122.2362970
2051,78th Avenue Northeast,98039,47.6298670,-122.2363100
2057,78th Avenue Northeast,98039,47.6300270,-122.2363115
2058,78th Avenue Northeast,98039,47.6299505,-122.2355775
2055,79th Avenue Northeast,98039,47.6299260,-122.2350445
2039,79th Avenue Northeast,98039,47.6295520,-122.2349895
2038,78th Avenue Northeast,98039,47.6295905,-122.2355990
7842,Northeast 21st Street,98039,47.6291645,-122.2355485
7851,Northeast 21st Street,98039,47.6285730,-122.2354730
7841,Northeast 21st Street,98039,47.6285830,-122.2359615
7861,Northeast 21st Street,98039,47.6285725,-122.2349575
7871,Northeast 21st Street,98039,47.6284755,-122.2344235
2010,79th Avenue Northeast,98039,47.6288965,-122.2335290
2020,79th Avenue Northeast,98039,47.6292560,-122.2336860
2038,79th Avenue Northeast,98039,47.6295440,-122.2338070
7915,Northeast 22nd Street,98039,47.6298790,-122.2335465
2060,79th Avenue Northeast,98039,47.6298508,-122.2342148
7750,Northeast 16th Street,98039,47.6250675,-122.2363755
1416,Evergreen Point Road,98039,47.6234210,-122.2382680
7605,Northeast 14th Street,98039,47.6227555,-122.2384070
7623,Northeast 14th Street,98039,47.6227195,-122.2379005
1312,Evergreen Point Road,98039,47.6224690,-122.2382850
1302,Evergreen Point Road,98039,47.6221575,-122.2383625
1306,Evergreen Point Road,98039,47.6224490,-122.2376565
7632,Northeast 12th Street,98039,47.6221710,-122.2376530
1200,Evergreen Point Road,98039,47.6214255,-122.2384225
7608,Northeast 12th Street,98039,47.6213825,-122.2380495
7620,Northeast 12th Street,98039,47.6214990,-122.2376995
7626,Northeast 12th Street,98039,47.6218450,-122.2378430
7631,Northeast 14th Street,98039,47.6226475,-122.2372640
7633,Northeast 14th Street,98039,47.6225930,-122.2369975
7649,Northeast 14th Street,98039,47.6226365,-122.2367215
7657,Northeast 14th Street,98039,47.6226745,-122.2364800
7661,Northeast 14th Street,98039,47.6225155,-122.2361840
7665,Northeast 14th Street,98039,47.6224085,-122.2359130
7677,Northeast 14th Street,98039,47.6225915,-122.2354295
7675,Northeast 14th Street,98039,47.6222045,-122.2355860
7648,Northeast 12th Street,98039,47.6216716,-122.2367321
7640,Northeast 12th Street,98039,47.6218440,-122.2370950
7634,Northeast 12th Street,98039,47.6214160,-122.2370965
7658,Northeast 12th Street,98039,47.6213675,-122.2361925
7808,Northeast 12th Street,98039,47.6215080,-122.2356585
7816,Northeast 12th Street,98039,47.6214230,-122.2353825
1220,80th Place Northeast,98039,47.6214620,-122.2339970
1230,80th Place Northeast,98039,47.6216005,-122.2342395
1240,80th Place Northeast,98039,47.6217670,-122.2343215
1250,80th Place Northeast,98039,47.6219830,-122.2342540
1260,80th Place Northeast,98039,47.6221740,-122.2342300
1270,80th Place Northeast,98039,47.6222465,-122.2338225
1280,80th Place Northeast,98039,47.6224315,-122.2337670
7845,Northeast 14th Street,98039,47.6227015,-122.2338340
7835,Northeast 14th Street,98039,47.6227095,-122.2344660
7829,Northeast 14th Street,98039,47.6225660,-122.2348460
7858,Northeast 14th Street,98039,47.6231330,-122.2336680
1415,80th Avenue Northeast,98039,47.6233875,-122.2337100
1427,80th Avenue Northeast,98039,47.6237210,-122.2336825
1425,80th Avenue Northeast,98039,47.6236420,-122.2340165
7842,Northeast 14th Street,98039,47.6232135,-122.2343005
7836,Northeast 14th Street,98039,47.6232125,-122.2346695
7822,Northeast 14th Street,98039,47.6234810,-122.2351190
7838,Northeast 14th Street,98039,47.6236375,-122.2346690
1546,79th Place Northeast,98039,47.6240235,-122.2344815
1556,79th Place Northeast,98039,47.6244450,-122.2344195
1536,79th Place Northeast,98039,47.6240155,-122.2350320
1535,79th Place Northeast,98039,47.6245030,-122.2353150
1526,79th Place Northeast,98039,47.6240320,-122.2357130
7814,Northeast 14th Street,98039,47.6236845,-122.2355120
7777,Northeast 16th Street,98039,47.6243100,-122.2361765
7668,Northeast 14th Street,98039,47.6236700,-122.2360065
7804,Northeast 14th Street,98039,47.6232275,-122.2355485
7664,Northeast 14th Street,98039,47.6231760,-122.2360335
7658,Northeast 14th Street,98039,47.6232190,-122.2365100
7630,Northeast 14th Street,98039,47.6232255,-122.2370815
7622,Northeast 14th Street,98039,47.6231875,-122.2375710
1420,Evergreen Point Road,98039,47.6235575,-122.2376470
1432,Evergreen Point Road,98039,47.6238730,-122.2380850
1438,Evergreen Point Road,98039,47.6240735,-122.2382320
7632,Northeast 14th Street,98039,47.6236680,-122.2371055
7660,Northeast 14th Street,98039,47.6236775,-122.2366390
1545,77th Place Northeast,98039,47.6240675,-122.2371095
1555,77th Place Northeast,98039,47.6245045,-122.2371475
7651,Northeast 16th Street,98039,47.6244850,-122.2376185
1444,Evergreen Point Road,98039,47.6243180,-122.2382590
7619,Northeast 16th Street,98039,47.6245365,-122.2382835
2206,Evergreen Point Road,98039,47.6304670,-122.2382350
2222,Evergreen Point Road,98039,47.6308365,-122.2383160
2230,Evergreen Point Road,98039,47.6311275,-122.2382430
2240,Evergreen Point Road,98039,47.6314670,-122.2382780
2254,Evergreen Point Road,98039,47.6317560,-122.2382300
7617,Northeast 24th Street,98039,47.6318190,-122.2378510
7623,Northeast 24th Street,98039,47.6317655,-122.2375865
2243,77th Avenue Northeast,98039,47.6314440,-122.2376800
2233,77th Avenue Northeast,98039,47.6311075,-122.2376805
2221,77th Avenue Northeast,98039,47.6308180,-122.2376655
7616,Northeast 22nd Street,98039,47.6304510,-122.2378570
7622,Northeast 22nd Street,98039,47.6304500,-122.2375905
7702,Northeast 22nd Street,98039,47.6303930,-122.2370180
2205,78th Avenue Northeast,98039,47.6304320,-122.2364705
2216,77th Avenue Northeast,98039,47.6306580,-122.2368285
2218,77th Avenue Northeast,98039,47.6308745,-122.2369565
2222,77th Avenue Northeast,98039,47.6310270,-122.2369710
2244,77th Avenue Northeast,98039,47.6314315,-122.2369200
7719,Northeast 24th Street,98039,47.6317785,-122.2369185
7721,Northeast 24th Street,98039,47.6318020,-122.2364140
2243,78th Avenue Northeast,98039,47.6314870,-122.2363675
2231,78th Avenue Northeast,98039,47.6311950,-122.2363720
2227,78th Avenue Northeast,98039,47.6310165,-122.2363605
2240,78th Avenue Northeast,98039,47.6313970,-122.2355795
2254,78th Avenue Northeast,98039,47.6317525,-122.2356415
2255,79th Avenue Northeast,98039,47.6317335,-122.2350095
2245,79th Avenue Northeast,98039,47.6315025,-122.2350130
2235,79th Avenue Northeast,98039,47.6313395,-122.2349735
2233,79th Avenue Northeast,98039,47.6310960,-122.2350230
2232,78th Avenue Northeast,98039,47.6311245,-122.2355850
2220,78th Avenue Northeast,98039,47.6308695,-122.2356600
2214,78th Avenue Northeast,98039,47.6306875,-122.2356685
2200,78th Avenue Northeast,98039,47.6303510,-122.2355675
2208,78th Avenue Northeast,98039,47.6305360,-122.2354915
2209,79th Avenue Northeast,98039,47.6305155,-122.2349970
2203,79th Avenue Northeast,98039,47.6303590,-122.2350010
2215,79th Avenue Northeast,98039,47.6306780,-122.2349730
2221,79th Avenue Northeast,98039,47.6308435,-122.2350110
2256,79th Avenue Northeast,98039,47.6316140,-122.2342260
7915,Northeast 24th Street,98039,47.6316220,-122.2334770
2238,79th Avenue Northeast,98039,47.6312920,-122.2342260
2222,79th Avenue Northeast,98039,47.6307000,-122.2342710
7900,Northeast 22nd Street,98039,47.6303685,-122.2342130
2242,79th Avenue Northeast,98039,47.6312215,-122.2335845
2637,77th Avenue Northeast,98039,47.6348785,-122.2368985
2632,78th Avenue Northeast,98039,47.6347885,-122.2355650
2603,78th Avenue Northeast,98039,47.6340285,-122.2368070
2460,Evergreen Point Road,98039,47.6332790,-122.2376850
2450,Evergreen Point Road,98039,47.6332475,-122.2382460
2461,78th Avenue Northeast,98039,47.6332435,-122.2369350
2463,78th Avenue Northeast,98039,47.6328990,-122.2369166
2436,Evergreen Point Road,98039,47.6328395,-122.2376380
2434,Evergreen Point Road,98039,47.6328325,-122.2379810
2432,Evergreen Point Road,98039,47.6328135,-122.2382875
2420,Evergreen Point Road,98039,47.6324930,-122.2383085
2410,Evergreen Point Road,98039,47.6322430,-122.2383110
7620,Northeast 24th Street,98039,47.6322605,-122.2376465
2420,77th Avenue Northeast,98039,47.6325840,-122.2369555
7700,Northeast 24th Street,98039,47.6322510,-122.2368660
7720,Northeast 24th Street,98039,47.6322445,-122.2363905
2415,78th Avenue Northeast,98039,47.6325390,-122.2363900
2427,78th Avenue Northeast,98039,47.6328335,-122.2362680
2433,78th Avenue Northeast,98039,47.6329910,-122.2363045
2439,78th Avenue Northeast,98039,47.6331530,-122.2362790
2445,78th Avenue Northeast,98039,47.6333180,-122.2362020
2456,78th Avenue Northeast,98039,47.6336375,-122.2355930
2451,79th Avenue Northeast,98039,47.6335630,-122.2349865
2433,79th Avenue Northeast,98039,47.6332875,-122.2349635
2444,78th Avenue Northeast,98039,47.6333140,-122.2356360
2438,78th Avenue Northeast,98039,47.6331455,-122.2356195
2432,78th Avenue Northeast,98039,47.6329865,-122.2356285
2426,78th Avenue Northeast,98039,47.6328185,-122.2355805
2422,78th Avenue Northeast,98039,47.6326570,-122.2356210
2414,78th Avenue Northeast,98039,47.6324980,-122.2355870
7800,Northeast 24th Street,98039,47.6322710,-122.2355780
2403,79th Avenue Northeast,98039,47.6321655,-122.2350200
2407,79th Avenue Northeast,98039,47.6323240,-122.2349785
2411,79th Avenue Northeast,98039,47.6324865,-122.2349350
2420,82nd Avenue Northeast,98039,47.6325505,-122.2308655
2402,82nd Avenue Northeast,98039,47.6322110,-122.2309210
2401,82nd Avenue Northeast,98039,47.6322160,-122.2314790
8160,Northeast 24th Street,98039,47.6322210,-122.2317805
8080,Northeast 24th Street,98039,47.6321880,-122.2321935
2402,80th Avenue Northeast,98039,47.6322195,-122.2329170
2405,80th Avenue Northeast,98039,47.6322185,-122.2335795
7914,Northeast 24th Street,98039,47.6322075,-122.2339606
2404,79th Avenue Northeast,98039,47.6322165,-122.2343220
2414,79th Avenue Northeast,98039,47.6324900,-122.2342375
2415,79th Avenue Northeast,98039,47.6327155,-122.2349955
2427,79th Avenue Northeast,98039,47.6330060,-122.2349890
2438,79th Avenue Northeast,98039,47.6331960,-122.2342465
2426,79th Avenue Northeast,98039,47.6329875,-122.2342640
2424,79th Avenue Northeast,98039,47.6327670,-122.2342700
2415,80th Avenue Northeast,98039,47.6324435,-122.2336500
2425,80th Avenue Northeast,98039,47.6326675,-122.2336605
2443,80th Avenue Northeast,98039,47.6328810,-122.2336075
2445,80th Avenue Northeast,98039,47.6331195,-122.2336190
2453,80th Avenue Northeast,98039,47.6333370,-122.2335845
2455,80th Avenue Northeast,98039,47.6335745,-122.2335685
7919,Northeast 26th Street,98039,47.6335500,-122.2339350
2456,79th Avenue Northeast,98039,47.6335215,-122.2343010
2414,80th Avenue Northeast,98039,47.6324510,-122.2329040
2420,80th Avenue Northeast,98039,47.6326450,-122.2328780
2539,82nd Avenue Northeast,98039,47.6330205,-122.2325770
2501,82nd Avenue Northeast,98039,47.6327060,-122.2322660
8035,Northeast 25th Street,98039,47.6325390,-122.2320295
2415,82nd Avenue Northeast,98039,47.6325410,-122.2315755
8240,Northeast 25th Street,98039,47.6330315,-122.2315510
8255,Northeast 26th Street,98039,47.6332235,-122.2310840
2509,82nd Avenue Northeast,98039,47.6332465,-122.2324890
2438,80th Avenue Northeast,98039,47.6333755,-122.2329500
2452,80th Avenue Northeast,98039,47.6335970,-122.2329280
2602,80th Avenue Northeast,98039,47.6338055,-122.2329225
2606,80th Avenue Northeast,98039,47.6340000,-122.2328960
2618,80th Avenue Northeast,98039,47.6342250,-122.2329415
2625,82nd Avenue Northeast,98039,47.6339390,-122.2320390
2605,82nd Avenue Northeast,98039,47.6337145,-122.2322830
2610,82nd Avenue Northeast,98039,47.6338715,-122.2309750
2526,Medina Circle,98039,47.6338650,-122.2297190
2531,Medina Circle,98039,47.6338965,-122.2292695
2537,Medina Circle,98039,47.6342125,-122.2290880
2535,Medina Circle,98039,47.6342405,-122.2302355
8005,Northeast 28th Street,98039,47.6353985,-122.2329210
8043,Northeast 28th Street,98039,47.6353350,-122.2313585
2651,Evergreen Point Road,98039,47.6352480,-122.2414600
2633,Evergreen Point Road,98039,47.6348175,-122.2400985
2623,Evergreen Point Road,98039,47.6345345,-122.2400965
7545,Northeast 28th Place,98039,47.6356785,-122.2402600
7535,Northeast 28th Place,98039,47.6360120,-122.2410220
7530,Northeast 28th Place,98039,47.6361480,-122.2415225
3205,Evergreen Point Road,98039,47.6383740,-122.2395815
3201,Evergreen Point Road,98039,47.6385015,-122.2414260
3239,Evergreen Point Road,98039,47.6396020,-122.2394640
3244,Evergreen Point Road,98039,47.6397325,-122.2382360
3266,Evergreen Point Road,98039,47.6401930,-122.2381735
3268,Evergreen Point Road,98039,47.6405090,-122.2382110
3301,78th Place Northeast,98039,47.6405660,-122.2373555
3217,78th Place Northeast,98039,47.6394255,-122.2370025
3204,78th Place Northeast,98039,47.6391190,-122.2355685
7832,Northeast 32nd Street,98039,47.6387525,-122.2348755
3224,78th Place Northeast,98039,47.6397420,-122.2348225
3226,78th Place Northeast,98039,47.6398620,-122.2339330
3311,Evergreen Point Road,98039,47.6406415,-122.2401295
3335,Evergreen Point Road,98039,47.6412910,-122.2414780
3312,78th Place Northeast,98039,47.6409625,-122.2367040
3306,78th Place Northeast,98039,47.6413125,-122.2353840
3443,Evergreen Point Road,98039,47.6429595,-122.2397600
3451,Evergreen Point Road,98039,47.6431615,-122.2410675
3615,Evergreen Point Road,98039,47.6437835,-122.2402590
3640,Evergreen Point Road,98039,47.6447415,-122.2386070
1036,84th Avenue Northeast,98039,47.6207670,-122.2271820
1032,84th Avenue Northeast,98039,47.6203355,-122.2276310
1034,84th Avenue Northeast,98039,47.6203740,-122.2271460
8425,Northeast 12th Street,98039,47.6202630,-122.2265700
8421,Northeast 12th Street,98039,47.6205250,-122.2265400
8417,Northeast 12th Street,98039,47.6207765,-122.2265535
8445,Northeast 12th Street,98039,47.6207560,-122.2260065
8449,Northeast 12th Street,98039,47.6203680,-122.2260315
8601,Northeast 12th Street,98039,47.6207390,-122.2254770
8615,Northeast 12th Street,98039,47.6206960,-122.2249975
8627,Lake Washington Boulevard Northeast,98039,47.6206350,-122.2245565
8629,Lake Washington Boulevard Northeast,98039,47.6202230,-122.2244985
8633,Lake Washington Boulevard Northeast,98039,47.6203600,-122.2240775
8607,Northeast 12th Street,98039,47.6202080,-122.2250030
8605,Northeast 12th Street,98039,47.6201745,-122.2254555
1024,84th Avenue Northeast,98039,47.6200000,-122.2276770
1028,84th Avenue Northeast,98039,47.6200110,-122.2271810
8422,Northeast 10th Street,98039,47.6197940,-122.2271775
1018,84th Avenue Northeast,98039,47.6197955,-122.2276120
1010,84th Avenue Northeast,98039,47.6196100,-122.2276360
1004,84th Avenue Northeast,98039,47.6194200,-122.2276900
8416,Northeast 10th Street,98039,47.6194530,-122.2272270
8420,Northeast 10th Street,98039,47.6194650,-122.2268185
8424,Northeast 10th Street,98039,47.6198865,-122.2267640
8426,Northeast 10th Street,98039,47.6199685,-122.2263015
8428,Northeast 10th Street,98039,47.6199030,-122.2259165
8606,Northeast 10th Street,98039,47.6198600,-122.2255260
8604,Northeast 10th Street,98039,47.6194685,-122.2255510
8430,Northeast 10th Street,98039,47.6195070,-122.2260625
8608,Northeast 10th Street,98039,47.6198555,-122.2249946
8612,Northeast 10th Street,98039,47.6194705,-122.2249735
8622,Northeast 10th Street,98039,47.6195025,-122.2244910
8632,Northeast 10th Street,98039,47.6194935,-122.2240575
8650,Northeast 10th Street,98039,47.6195815,-122.2235390
1031,Lake Washington Boulevard Northeast,98039,47.6197895,-122.2231775
8649,Lake Washington Boulevard Northeast,98039,47.6200050,-122.2236200
8660,Northeast 10th Street,98039,47.6194740,-122.2229970
8670,Northeast 10th Street,98039,47.6194945,-122.2226630
8417,Northeast 10th Street,98039,47.6189845,-122.2269015
8433,Northeast 10th Street,98039,47.6190005,-122.2264750
8443,Northeast 10th Street,98039,47.6189690,-122.2260945
845,86th Avenue Northeast,98039,47.6186915,-122.2260925
8419,Northeast 10th Street,98039,47.6187260,-122.2269095
8437,Northeast 10th Street,98039,47.6187270,-122.2264545
836,84th Avenue Northeast,98039,47.6183745,-122.2264810
834,84th Avenue Northeast,98039,47.6182670,-122.2268690
830,84th Avenue Northeast,98039,47.6182995,-122.2273220
826,84th Avenue Northeast,98039,47.6183600,-122.2277300
820,84th Avenue Northeast,98039,47.6181475,-122.2277320
816,84th Avenue Northeast,98039,47.6179130,-122.2274840
802,84th Avenue Northeast,98039,47.6176250,-122.2273815
800,84th Avenue Northeast,98039,47.6176340,-122.2277265
806,84th Avenue Northeast,98039,47.6176055,-122.2268290
808,84th Avenue Northeast,98039,47.6177750,-122.2268580
810,84th Avenue Northeast,98039,47.6179575,-122.2268740
804,84th Avenue Northeast,98039,47.6176605,-122.2264220
8445,Northeast 9th Street,98039,47.6175890,-122.2261185
8449,Northeast 9th Street,98039,47.6175590,-122.2258030
8459,Northeast 9th Street,98039,47.6175605,-122.2254680
8450,Northeast 9th Street,98039,47.6180560,-122.2257925
8446,Northeast 9th Street,98039,47.6179745,-122.2260960
841,86th Avenue Northeast,98039,47.6184845,-122.2259135
833,86th Avenue Northeast,98039,47.6183360,-122.2256165
916,86th Avenue Northeast,98039,47.6187565,-122.2253750
8603,Northeast 10th Street,98039,47.6190255,-122.2254300
8623,Northeast 10th Street,98039,47.6189720,-122.2247660
925,87th Avenue Northeast,98039,47.6186760,-122.2247380
920,86th Avenue Northeast,98039,47.6186220,-122.2250705
911,87th Avenue Northeast,98039,47.6183015,-122.2248280
901,87th Avenue Northeast,98039,47.6179880,-122.2248135
8460,Northeast 7th Street,98039,47.6171870,-122.2254870
8452,Northeast 7th Street,98039,47.6171345,-122.2258135
8446,Northeast 7th Street,98039,47.6172030,-122.2261135
8436,Northeast 7th Street,98039,47.6171750,-122.2264400
8430,Northeast 7th Street,98039,47.6171405,-122.2267725
8424,Northeast 7th Street,98039,47.6171825,-122.2271360
712,84th Avenue Northeast,98039,47.6172640,-122.2276310
8400,Northeast 7th Street,98039,47.6169285,-122.2275660
804,86th Avenue Northeast,98039,47.6175520,-122.2244455
8604,Northeast 7th Street,98039,47.6172225,-122.2248760
912,87th Avenue Northeast,98039,47.6181380,-122.2241200
922,87th Avenue Northeast,98039,47.6184300,-122.2240845
932,87th Avenue Northeast,98039,47.6187190,-122.2240705
958,87th Avenue Northeast,98039,47.6189790,-122.2240295
955,88th Avenue Northeast,98039,47.6189900,-122.2235290
945,88th Avenue Northeast,98039,47.6186885,-122.2235035
925,88th Avenue Northeast,98039,47.6181400,-122.2235665
8809,Northeast 10th Street,98039,47.6189905,-122.2221560
954,88th Avenue Northeast,98039,47.6190065,-122.2228485
944,88th Avenue Northeast,98039,47.6187225,-122.2228855
935,88th Avenue Northeast,98039,47.6184230,-122.2234970
934,88th Avenue Northeast,98039,47.6184220,-122.2229220
924,88th Avenue Northeast,98039,47.6181370,-122.2229430
914,88th Avenue Northeast,98039,47.6178465,-122.2229665
904,88th Avenue Northeast,98039,47.6176000,-122.2230830
905,88th Avenue Northeast,98039,47.6175505,-122.2235835
915,88th Avenue Northeast,98039,47.6178370,-122.2236470
8636,Northeast 7th Street,98039,47.6171960,-122.2236020
8642,Northeast 7th Street,98039,47.6171970,-122.2232770
8650,Northeast 7th Street,98039,47.6171535,-122.2229510
8658,Northeast 7th Street,98039,47.6168475,-122.2226775
777,Overlake Drive East,98039,47.6170075,-122.2220590
760,Overlake Drive East,98039,47.6167070,-122.2215285
740,Overlake Drive East,98039,47.6166785,-122.2210000
8429,Northeast 7th Street,98039,47.6167375,-122.2267035
8401,Northeast 7th Street,98039,47.6163580,-122.2275470
600,84th Avenue Northeast,98039,47.6159900,-122.2274855
508,84th Avenue Northeast,98039,47.6156615,-122.2276080
420,84th Avenue Northeast,98039,47.6156795,-122.2271190
8400,Ridge Road,98039,47.6153265,-122.2274900
8422,Ridge Road,98039,47.6152855,-122.2269730
8428,Ridge Road,98039,47.6152975,-122.2266535
443,86th Avenue Northeast,98039,47.6156135,-122.2266160
8443,Northeast 6th Street,98039,47.6158600,-122.2265375
433,86th Avenue Northeast,98039,47.6157420,-122.2258615
425,86th Avenue Northeast,98039,47.6153885,-122.2261340
423,86th Avenue Northeast,98039,47.6150350,-122.2260955
8430,Northeast 6th Street,98039,47.6162710,-122.2261780
8424,Northeast 6th Street,98039,47.6163925,-122.2265890
607,86th Avenue Northeast,98039,47.6162920,-122.2257265
8457,Northeast 7th Street,98039,47.6166980,-122.2257200
8443,Northeast 7th Street,98039,47.6166535,-122.2261230
620,86th Avenue Northeast,98039,47.6166315,-122.2249565
8611,Northeast 7th Street,98039,47.6166995,-122.2246490
8623,Northeast 7th Street,98039,47.6166945,-122.2242620
8641,Northeast 7th Street,98039,47.6166610,-122.2237665
8645,Northeast 7th Street,98039,47.6166655,-122.2233470
8659,Northeast 7th Street,98039,47.6162855,-122.2232565
8626,Northeast 6th Street,98039,47.6162725,-122.2238335
8618,Northeast 6th Street,98039,47.6162385,-122.2244825
8616,Northeast 6th Street,98039,47.6162235,-122.2248495
8604,Northeast 6th Street,98039,47.6162625,-122.2251370
522,86th Avenue Northeast,98039,47.6156960,-122.2252275
8611,Northeast 6th Street,98039,47.6157215,-122.2249505
8621,Northeast 6th Street,98039,47.6157365,-122.2246150
8629,Northeast 6th Street,98039,47.6157155,-122.2242660
8637,Northeast 6th Street,98039,47.6157130,-122.2239750
515,Upland Road,98039,47.6152415,-122.2241820
8622,Northeast 5th Street,98039,47.6152330,-122.2245405
500,86th Avenue Northeast,98039,47.6153085,-122.2252195
8605,Northeast 5th Street,98039,47.6148025,-122.2250555
435,Upland Road,98039,47.6146465,-122.2246915
439,Upland Road,98039,47.6142030,-122.2249695
8460,Ridge Road,98039,47.6143750,-122.2253330
8457,Northeast 5th Street,98039,47.6145805,-122.2255330
322,84th Avenue Northeast,98039,47.6147605,-122.2276230
8404,Midland Road,98039,47.6143653,-122.2277127
8416,Midland Road,98039,47.6143170,-122.2273470
8431,Ridge Road,98039,47.6145690,-122.2268665
8432,Midland Road,98039,47.6141425,-122.2270165
8430,Midland Road,98039,47.6140220,-122.2267050
8439,Ridge Road,98039,47.6144995,-122.2265935
8447,Ridge Road,98039,47.6143310,-122.2263350
8455,Ridge Road,98039,47.6141940,-122.2260675
8461,Ridge Road,98039,47.6140580,-122.2258515
8469,Ridge Road,98039,47.6138725,-122.2256325
8477,Ridge Road,98039,47.6136885,-122.2254715
401,Upland Road,98039,47.6134470,-122.2253550
309,Upland Road,98039,47.6130760,-122.2256575
8460,Midland Road,98039,47.6132615,-122.2258590
8444,Midland Road,98039,47.6134450,-122.2259660
8448,Midland Road,98039,47.6136510,-122.2261770
8436,Midland Road,98039,47.6138000,-122.2264645
214,84th Avenue Northeast,98039,47.6135270,-122.2276430
8411,Midland Road,98039,47.6137745,-122.2276395
8423,Midland Road,98039,47.6135880,-122.2272110
8435,Midland Road,98039,47.6134165,-122.2269520
8445,Midland Road,98039,47.6132180,-122.2267300
8457,Midland Road,98039,47.6130300,-122.2265920
8731,Overlake Drive West,98039,47.6113415,-122.2276840
227,Upland Road,98039,47.6123355,-122.2259790
8715,Midland Road,98039,47.6121245,-122.2257040
8726,Overlake Drive West,98039,47.6118225,-122.2263455
8730,Overlake Drive West,98039,47.6116495,-122.2261935
8810,Northeast 2nd Place,98039,47.6117025,-122.2256975
8740,Northeast 2nd Place,98039,47.6118960,-122.2252660
8743,Overlake Drive West,98039,47.6112425,-122.2270415
8751,Overlake Drive West,98039,47.6109320,-122.2269095
8801,Overlake Drive West,98039,47.6106855,-122.2265875
8815,Overlake Drive West,98039,47.6105045,-122.2264055
8835,Overlake Drive West,98039,47.6101875,-122.2261590
8865,Overlake Drive West,98039,47.6092995,-122.2252870
8746,Overlake Drive West,98039,47.6113220,-122.2260490
8809,Northeast 2nd Place,98039,47.6111775,-122.2257885
8812,Overlake Drive West,98039,47.6109035,-122.2258130
8819,Northeast 2nd Place,98039,47.6109665,-122.2255010
8824,Overlake Drive West,98039,47.6106630,-122.2253515
8832,Overlake Drive West,98039,47.6105810,-122.2251160
8846,Overlake Drive West,98039,47.6104175,-122.2249575
8847,Northeast 2nd Place,98039,47.6102655,-122.2245970
101,Overlake Drive East,98039,47.6101025,-122.2247900
201,Overlake Drive East,98039,47.6108120,-122.2243825
8826,Northeast 2nd Place,98039,47.6110710,-122.2246665
8816,Northeast 2nd Place,98039,47.6113155,-122.2250695
8812,Northeast 2nd Place,98039,47.6115825,-122.2252390
8814,Northeast 2nd Place,98039,47.6115490,-122.2247485
223,Overlake Drive East,98039,47.6113105,-122.2243995
309,Overlake Drive East,98039,47.6115012,-122.2242581
8901,Groat Point Drive,98039,47.6091565,-122.2244225
8875,Overlake Drive West,98039,47.6090250,-122.2249190
8905,Groat Point Drive,98039,47.6086980,-122.2247085
8909,Groat Point Drive,98039,47.6085070,-122.2244890
8900,Groat Point Drive,98039,47.6091725,-122.2236630
8880,Groat Point Drive,98039,47.6094980,-122.2235505
122,Overlake Drive East,98039,47.6099190,-122.2235040
130,Overlake Drive East,98039,47.6101035,-122.2235110
202,Overlake Drive East,98039,47.6103555,-122.2235575
212,Overlake Drive East,98039,47.6106460,-122.2233440
232,Overlake Drive East,98039,47.6110745,-122.2235785
230,Overlake Drive East,98039,47.6110700,-122.2231295
226,Overlake Drive East,98039,47.6108710,-122.2227920
314,Overlake Drive East,98039,47.6112810,-122.2226650
300,Overlake Drive East,98039,47.6113338,-122.2235308
312,Overlake Drive East,98039,47.6116585,-122.2235580
318,Overlake Drive East,98039,47.6117910,-122.2227640
320,Overlake Drive East,98039,47.6120000,-122.2235685
322,Overlake Drive East,98039,47.6120240,-122.2230115
328,Overlake Drive East,98039,47.6122180,-122.2230045
338,Overlake Drive East,98039,47.6125395,-122.2228995
336,Overlake Drive East,98039,47.6124310,-122.2234060
304,Upland Road,98039,47.6125660,-122.2253195
8717,Ridge Road,98039,47.6125160,-122.2249080
8723,Ridge Road,98039,47.6122840,-122.2247565
8733,Ridge Road,98039,47.6122170,-122.2244500
410,Overlake Drive East,98039,47.6128665,-122.2231470
402,Upland Road,98039,47.6131780,-122.2246200
414,Upland Road,98039,47.6135160,-122.2245750
426,Upland Road,98039,47.6137765,-122.2242295
456,Overlake Drive East,98039,47.6138390,-122.2229165
484,Overlake Drive East,98039,47.6139440,-122.2227265
510,Overlake Drive East,98039,47.6146040,-122.2228135
520,Overlake Drive East,98039,47.6146595,-122.2223430
530,Overlake Drive East,98039,47.6148510,-122.2221960
508,Upland Road,98039,47.6147060,-122.2236095
515,Overlake Drive East,98039,47.6148880,-122.2233460
518,Upland Road,98039,47.6151515,-122.2236550
530,Upland Road,98039,47.6154480,-122.2235780
544,Upland Road,98039,47.6156925,-122.2233875
543,Overlake Drive East,98039,47.6156415,-122.2229335
531,Overlake Drive East,98039,47.6153610,-122.2230225
538,Overlake Drive East,98039,47.6151995,-122.2217940
602,Upland Road,98039,47.6159450,-122.2232765
560,Overlake Drive East,98039,47.6159330,-122.2221145
702,Overlake Drive East,98039,47.6160655,-122.2219095
720,Overlake Drive East,98039,47.6163480,-122.2217195
700,Overlake Drive East,98039,47.6158200,-122.2210905
8911,Lake Washington Boulevard Northeast,98039,47.6159410,-122.2204240
8925,Lake Washington Boulevard Northeast,98039,47.6164050,-122.2203620
1035,88th Avenue Northeast,98039,47.6203800,-122.2225560
1007,88th Avenue Northeast,98039,47.6202260,-122.2228385
8711,Northeast 11th Street,98039,47.6204700,-122.2230480
8703,Northeast 11th Street,98039,47.6207145,-122.2234755
8700,Northeast 11th Street,98039,47.6208970,-122.2233100
8712,Northeast 11th Street,98039,47.6208905,-122.2227515
2426,80th Avenue Northeast,98039,47.6328759,-122.2329629
2425,Evergreen Point Road,98039,47.6327541,-122.2404234
2616,Evergreen Point Road,98039,47.6342329,-122.2376403
2857,Evergreen Point Road,98039,47.6372817,-122.2413137
2519,82nd Avenue Northeast,98039,47.6334869,-122.2324910
2451,78th Avenue Northeast,98039,47.6334851,-122.2363273
2841,Evergreen Point Road,98039,47.6366728,-122.2414319
3242,Evergreen Point Road,98039,47.6395395,-122.2376217
8015,Northeast 28th Street,98039,47.6353511,-122.2325750
3263,Evergreen Point Road,98039,47.6401834,-122.2399692
2626,78th Avenue Northeast,98039,47.6346293,-122.2355517
2436,82nd Avenue Northeast,98039,47.6329091,-122.2310226
2450,78th Avenue Northeast,98039,47.6334802,-122.2355798
2604,79th Avenue Northeast,98039,47.6340706,-122.2343203
7525,Northeast 28th Place,98039,47.6357238,-122.2414634
2849,Evergreen Point Road,98039,47.6369682,-122.2413248
3430,Evergreen Point Road,98039,47.6426563,-122.2376397
2000,79th Avenue Northeast,98039,47.6285690,-122.2338140
1686,77th Avenue Northeast,98039,47.6265262,-122.2370363
2221,78th Avenue Northeast,98039,47.6308564,-122.2363416
1564,77th Place Northeast,98039,47.6240765,-122.2365444
1556,77th Place Northeast,98039,47.6244807,-122.2365270
1210,80th Place Northeast,98039,47.6213281,-122.2338064
2057,Evergreen Point Road,98039,47.6301743,-122.2404724
1221,Evergreen Point Road,98039,47.6220193,-122.2414355
2019,79th Avenue Northeast,98039,47.6291717,-122.2347605
7823,Northeast 14th Street,98039,47.6226430,-122.2351168
2033,77th Avenue Northeast,98039,47.6293852,-122.2376978
1407,Evergreen Point Road,98039,47.6238387,-122.2392235
1525,79th Place Northeast,98039,47.6244396,-122.2357923
7619,Northeast 22nd Street,98039,47.6299487,-122.2376809
7916,Northeast 22nd Street,98039,47.6303359,-122.2335125
1259,Evergreen Point Road,98039,47.6226463,-122.2406857
7852,Northeast 14th Street,98039,47.6231682,-122.2340388
1800,77th Avenue Northeast,98039,47.6268427,-122.2368680
8612,Northeast 5th Street,98039,47.6152674,-122.2249054
8711,Ridge Road,98039,47.6127503,-122.2250770
7838,Northeast 8th Street,98039,47.6180844,-122.2341924
446,Overlake Drive East,98039,47.6136422,-122.2234299
8723,Overlake Drive West,98039,47.6116940,-122.2276279
1031,Evergreen Point Road,98039,47.6203618,-122.2410819
8458,Northeast 9th Street,98039,47.6180689,-122.2254960
432,Overlake Drive East,98039,47.6130900,-122.2230354
7727,Northeast 8th Street,98039,47.6171786,-122.2364350
850,80th Avenue Northeast,98039,47.6185835,-122.2329194
8297,Overlake Drive West,98039,47.6145769,-122.2297592
1125,Evergreen Point Road,98039,47.6206248,-122.2421867
619,84th Avenue Northeast,98039,47.6165593,-122.2284776
444,Overlake Drive East,98039,47.6135098,-122.2230060
428,Upland Road,98039,47.6143753,-122.2241019
525,Overlake Drive East,98039,47.6151409,-122.2231478
8425,Ridge Road,98039,47.6146901,-122.2271597
7811,Northeast 10th Street,98039,47.6191001,-122.2358377
7739,Overlake Drive West,98039,47.6147792,-122.2361835
7806,Northeast 10th Street,98039,47.6195245,-122.2358051
8467,Midland Road,98039,47.6128041,-122.2263804
1005,Evergreen Point Road,98039,47.6196612,-122.2409098
1076,Lake Washington Boulevard Northeast,98039,47.6208511,-122.2239175
8405,Northeast 7th Street,98039,47.6161136,-122.2271284
111,84th Avenue Northeast,98039,47.6127675,-122.2285464
8710,Overlake Drive West,98039,47.6122631,-122.2267317
8024,Northeast 8th Street,98039,47.6179096,-122.2324607
8206,Overlake Drive West,98039,47.6161920,-122.2296817
851,Lake Washington Boulevard Northeast,98039,47.6186872,-122.2220625
329,Overlake Drive East,98039,47.6118790,-122.2244322
8925,Groat Point Drive,98039,47.6084407,-122.2239389
1825,77th Avenue Northeast,98039,47.6271900,-122.2380811
