House number,Street name,Postal code,Latitude,Longitude
6003,244th Street Southwest,98043,47.7779287,-122.3130440
6007,244th Street Southwest,98043,47.7785653,-122.3127156
24360,Van Ry Boulevard,98043,47.7779621,-122.3142236
22805,44th Avenue West,98043,47.7912190,-122.2918130
4306,228th Street Southwest,98043,47.7916220,-122.2910559
22725,44th Avenue West,98043,47.7922254,-122.2916817
5602,232nd Street Southwest,98043,47.7879329,-122.3098763
21917,Highway 99,98043,47.8000879,-122.3310075
4301,212th Street Southwest,98043,47.8078772,-122.2907160
6402,226th Street Southwest,98043,47.7937338,-122.3198360
24360,Van Ry Boulevard,98043,47.7782393,-122.3146985
22003,66th Avenue West,98043,47.7988681,-122.3214386
22803,44th Avenue West,98043-5032,47.7911433,-122.2899674
22402,44th Avenue West,98043,47.7956809,-122.2931719
21919,66th Avenue West,98043,47.8001791,-122.3215209
7016,220th Street Southwest,98043,47.7992249,-122.3284717
6608,220th Street Southwest,98043,47.7993313,-122.3232624
6608,220th Street Southwest,98043,47.7993364,-122.3230904
21818,66th Avenue West,98043,47.8006306,-122.3224715
6603,220th Street Southwest,98043,47.8002380,-122.3230950
7116,220th Street Southwest,98043,47.7988291,-122.3295370
7116,220th Street Southwest,98043,47.7991271,-122.3295017
5602,232nd Street Southwest,98043,47.7879162,-122.3094668
23601,56th Ave W,98043,47.7846013,-122.3082087
23601,56th Avenue West,98043,47.7846706,-122.3079095
5903,244th Street Southwest,98043,47.7777544,-122.3122571
23208,56th Avenue West,98043,47.7877981,-122.3087467
5602,232nd Street Southwest,98043,47.7879417,-122.3092553
5602,232nd Street Southwest,98043,47.7881173,-122.3095332
5602,232nd Street Southwest,98043,47.7879460,-122.3097141
5602,232nd Street Southwest,98043,47.7879381,-122.3095349
5602,232nd Street Southwest,98043,47.7879367,-122.3093772
23206,57th Avenue West,98043,47.7881249,-122.3101953
23208,57th Avenue West,98043,47.7879874,-122.3102290
5706,232nd Street Southwest,98043,47.7883391,-122.3105570
23211,58th Avenue West,98043,47.7876947,-122.3106519
23210,57th Avenue West,98043,47.7878558,-122.3102212
23204,57th Avenue West,98043,47.7881983,-122.3101902
23202,57th Avenue West,98043,47.7882878,-122.3102121
23204,58th Avenue West,98043,47.7880552,-122.3114320
23432,55th Avenue West,98043,47.7858633,-122.3076751
23434,55th Avenue West,98043,47.7857397,-122.3075023
23428,55th Avenue West,98043,47.7859249,-122.3072748
23432,55th Avenue West,98043,47.7858722,-122.3076614
23432,55th Avenue West,98043,47.7858228,-122.3076640
23430,55th Avenue West,98043,47.7859124,-122.3075464
23430,55th Avenue West,98043,47.7859656,-122.3076157
23428,55th Avenue West,98043,47.7859420,-122.3071812
23428,55th Avenue West,98043,47.7859408,-122.3072758
23428,55th Avenue West,98043,47.7859377,-122.3073953
23434,55th Avenue West,98043,47.7857281,-122.3076252
23434,55th Avenue West,98043,47.7857463,-122.3075655
23511,56th Avenue West,98043,47.7851028,-122.3080952
23430,55th Avenue West,98043,47.7859196,-122.3074903
23436,55th Avenue West,98043,47.7857527,-122.3072850
23436,55th Avenue West,98043,47.7857550,-122.3071791
23436,55th Avenue West,98043,47.7857479,-122.3073820
23436,55th Avenue West,98043,47.7857919,-122.3072817
21203,52nd Avenue West,98043,47.8060569,-122.3028755
21203,52nd Avenue West,98043,47.8061261,-122.3028742
21203,52nd Avenue West,98043,47.8061786,-122.3028752
23511,56th Avenue West,98043,47.7849975,-122.3081190
5501,234th Street Southwest,98043,47.7867298,-122.3071743
5501,234th Street Southwest,98043,47.7867341,-122.3075008
5501,234th Street Southwest,98043,47.7867349,-122.3075822
5501,234th Street Southwest,98043,47.7867315,-122.3072568
5501,234th Street Southwest,98043,47.7867332,-122.3074195
5501,234th Street Southwest,98043,47.7867323,-122.3073381
5510,238th Street Southwest,98043,47.7828017,-122.3072399
5503,240th Street West,98043,47.7815661,-122.3075766
23804,55th Avenue West,98043,47.7826355,-122.3072820
23804,55th Avenue West,98043,47.7824258,-122.3072800
5510,238th Street Southwest,98043,47.7828278,-122.3074819
5520,238th Street Southwest,98043,47.7826890,-122.3075830
23804,55th Avenue West,98043,47.7824874,-122.3072809
23804,55th Avenue West,98043,47.7825368,-122.3072813
5520,238th Street Southwest,98043,47.7825135,-122.3075818
5520,238th Street Southwest,98043,47.7826451,-122.3075827
5501,240th Street Southwest,98043,47.7812939,-122.3075579
23804,55th Avenue West,98043,47.7825861,-122.3072816
23912,55th Avenue West,98043,47.7814353,-122.3072751
5520,238th Street Southwest,98043,47.7824198,-122.3075801
5501,240th Street Southwest,98043,47.7812936,-122.3074766
5510,238th Street Southwest,98043,47.7828286,-122.3075632
5503,240th Street West,98043,47.7814345,-122.3075758
5503,240th Street West,98043,47.7816538,-122.3075771
5501,240th Street Southwest,98043,47.7812915,-122.3073173
5520,238th Street Southwest,98043,47.7826013,-122.3075824
23804,55th Avenue West,98043,47.7826848,-122.3072823
5510,238th Street Southwest,98043,47.7828270,-122.3074005
5510,238th Street Southwest,98043,47.7828266,-122.3073235
5501,240th Street Southwest,98043,47.7812942,-122.3076437
23912,55th Avenue West,98043,47.7816944,-122.3072772
23912,55th Avenue West,98043,47.7815833,-122.3072760
5501,240th Street Southwest,98043,47.7813198,-122.3072325
5520,238th Street Southwest,98043,47.7825574,-122.3075821
5520,238th Street Southwest,98043,47.7824697,-122.3075815
5510,238th Street Southwest,98043,47.7828298,-122.3076519
5913,212th Place Southwest,98043,47.8064982,-122.3134026
5911,212th Place Southwest,98043,47.8067452,-122.3134506
5913,212th Place Southwest,98043,47.8064972,-122.3133252
5913,212th Place Southwest,98043,47.8064947,-122.3131343
5911,212th Place Southwest,98043,47.8068358,-122.3131302
5911,212th Place Southwest,98043,47.8067670,-122.3133252
5913,212th Place Southwest,98043,47.8064963,-122.3132478
5911,212th Place Southwest,98043,47.8068133,-122.3132437
4801,214th Lane Southwest,98043,47.8044278,-122.2986124
4803,215th Lane Southwest,98043,47.8040541,-122.2982390
4801,214th Lane Southwest,98043,47.8044272,-122.2985412
4804,215th Lane Southwest,98043,47.8038518,-122.2983561
4804,215th Lane Southwest,98043,47.8038554,-122.2987285
4804,215th Lane Southwest,98043,47.8038547,-122.2986612
4802,214th Lane Southwest,98043,47.8042225,-122.2984331
4801,214th Lane Southwest,98043,47.8044225,-122.2980529
4803,215th Lane Southwest,98043,47.8040547,-122.2983000
21420,49th Court West,98043,47.8043904,-122.2989836
4801,214th Lane Southwest,98043,47.8044242,-122.2982360
4801,214th Lane Southwest,98043,47.8044236,-122.2981750
21511,50th Avenue West,98043,47.8035571,-122.3002510
21420,49th Court West,98043,47.8042191,-122.2989849
21511,50th Avenue West,98043,47.8034857,-122.3002505
4801,214th Lane Southwest,98043,47.8044248,-122.2982970
4804,215th Lane Southwest,98043,47.8038480,-122.2979775
21420,49th Court West,98043,47.8043425,-122.2989840
4804,215th Lane Southwest,98043,47.8038529,-122.2984781
4804,215th Lane Southwest,98043,47.8038488,-122.2980509
4802,214th Lane Southwest,98043,47.8042211,-122.2982988
21420,49th Court West,98043,47.8039723,-122.2989867
4803,215th Lane Southwest,98043,47.8040529,-122.2981169
4804,215th Lane Southwest,98043,47.8038500,-122.2981730
21525,50th Avenue West,98043,47.8035684,-122.2999639
21420,49th Court West,98043,47.8041780,-122.2989852
4802,214th Lane Southwest,98043,47.8042184,-122.2980405
4804,215th Lane Southwest,98043,47.8038541,-122.2986002
21420,49th Court West,98043,47.8040135,-122.2989864
4803,215th Lane Southwest,98043,47.8040554,-122.2983733
21525,50th Avenue West,98043,47.8033525,-122.2999624
4801,214th Lane Southwest,98043,47.8044254,-122.2983581
4804,215th Lane Southwest,98043,47.8038524,-122.2984171
4802,214th Lane Southwest,98043,47.8042204,-122.2982378
21420,49th Court West,98043,47.8038408,-122.2989876
4804,215th Lane Southwest,98043,47.8038494,-122.2981120
4801,214th Lane Southwest,98043,47.8044230,-122.2981139
4804,215th Lane Southwest,98043,47.8038506,-122.2982340
21525,50th Avenue West,98043,47.8036389,-122.2999619
21525,50th Avenue West,98043,47.8037116,-122.2999649
4801,214th Lane Southwest,98043,47.8044260,-122.2984191
4803,215th Lane Southwest,98043,47.8040535,-122.2981780
21420,49th Court West,98043,47.8042602,-122.2989846
21420,49th Court West,98043,47.8043013,-122.2989843
21511,50th Avenue West,98043,47.8034142,-122.3002500
4804,215th Lane Southwest,98043,47.8038535,-122.2985392
21511,50th Avenue West,98043,47.8033427,-122.3002496
21420,49th Court West,98043,47.8044468,-122.2989831
21420,49th Court West,98043,47.8038901,-122.2989873
21525,50th Avenue West,98043,47.8034252,-122.2999604
4802,214th Lane Southwest,98043,47.8042198,-122.2981768
4801,214th Lane Southwest,98043,47.8044218,-122.2979797
21420,49th Court West,98043,47.8041368,-122.2989855
4801,214th Lane Southwest,98043,47.8044266,-122.2984801
21420,49th Court West,98043,47.8039312,-122.2989870
4804,215th Lane Southwest,98043,47.8038512,-122.2982951
21511,50th Avenue West,98043,47.8032709,-122.3002491
4801,214th Lane Southwest,98043,47.8044287,-122.2986965
21525,50th Avenue West,98043,47.8034957,-122.2999634
21420,49th Court West,98043,47.8040957,-122.2989858
4802,214th Lane Southwest,98043,47.8042217,-122.2983599
21511,50th Avenue West,98043,47.8036309,-122.3002514
4803,215th Lane Southwest,98043,47.8040521,-122.2980437
21420,49th Court West,98043,47.8040546,-122.2989861
4802,214th Lane Southwest,98043,47.8042192,-122.2981157
21819,66th Avenue West,98043,47.8006258,-122.3205912
21406,40th Court West,98043,47.8044400,-122.2882093
21412,40th Court West,98043,47.8039468,-122.2880185
21410,40th Court West,98043,47.8041794,-122.2882089
21414,40th Court West,98043,47.8039485,-122.2881352
21408,40th Court West,98043,47.8043084,-122.2882087
21416,40th Court West,98043,47.8039592,-122.2882556
23101,Cedar Way,98043,47.7889341,-122.2911334
23811,Cedar Court,98043,47.7816624,-122.2887419
23813,Cedar Court,98043,47.7815800,-122.2887230
23815,Cedar Court,98043,47.7813339,-122.2886500
23811,Cedar Court,98043,47.7818273,-122.2888697
23811,Cedar Way,98043,47.7817394,-122.2887745
23812,Cedar Court,98043,47.7816519,-122.2889825
23813,Cedar Court,98043,47.7814221,-122.2886872
23810,Cedar Court,98043,47.7817866,-122.2891646
23814,Cedar Court,98043,47.7812814,-122.2888872
23813,Cedar Court,98043,47.7815028,-122.2887075
23810,Cedar Court,98043,47.7817310,-122.2890496
23814,Cedar Court,98043,47.7813972,-122.2889038
23815,Cedar Court,98043,47.7812531,-122.2886901
21309,48th Avenue West,98043,47.8054747,-122.2955157
21309,48th Avenue West,98043,47.8054623,-122.2954409
21309,48th Avenue West,98043,47.8054588,-122.2953798
21309,48th Avenue West,98043,47.8054583,-122.2953181
21309,48th Avenue West,98043,47.8054578,-122.2952564
21309,48th Avenue West,98043,47.8054562,-122.2951476
21311,48th Avenue West,98043,47.8052730,-122.2956645
21313,48th Avenue West,98043,47.8052764,-122.2952214
21311,48th Avenue West,98043,47.8052235,-122.2956489
21313,48th Avenue West,98043,47.8052251,-122.2952160
21311,48th Avenue West,98043,47.8051818,-122.2956464
21313,48th Avenue West,98043,47.8051835,-122.2952181
21311,48th Avenue West,98043,47.8051313,-122.2956409
21313,48th Avenue West,98043,47.8051332,-122.2952176
21317,48th Avenue West,98043,47.8050363,-122.2952107
21315,48th Avenue West,98043,47.8049751,-122.2956171
21315,48th Avenue West,98043,47.8049335,-122.2956129
21317,48th Avenue West,98043,47.8049441,-122.2952092
21315,48th Avenue West,98043,47.8048919,-122.2956088
21317,48th Avenue West,98043,47.8049025,-122.2952093
21315,48th Avenue West,98043,47.8048415,-122.2956007
21317,48th Avenue West,98043,47.8048609,-122.2952094
21317,48th Avenue West,98043,47.8048193,-122.2952098
21317,48th Avenue West,98043,47.8047776,-122.2952141
21317,48th Avenue West,98043,47.8047278,-122.2952272
4122;4130;4128;4124;4112;4110;4104;4106;4108;4116;4114;4126,214th Street Southwest,98043,47.8035669,-122.2889994
22904,56th Avenue West,98043,47.7911239,-122.3089907
22904,56th Avenue West,98043,47.7910623,-122.3089945
22904,56th Avenue West,98043,47.7910150,-122.3089941
21410;21416;21414;21412,50th Avenue West,98043,47.8040025,-122.3009338
23301;23303;23305,Lakeview Drive;Lake Ballinger Drive,98043,47.7889693,-122.3264361
23401;23405;23407;23409;23507;23509;23505;23501;23403,Lakeview Drive,98043,47.7876680,-122.3254431
6001,236th Street Southwest,98043,47.7850344,-122.3147995
23300,58th Avenue West,98043,47.7870718,-122.3116307
6601,244th Street Southwest,98043,47.7813988,-122.3223864
23000,Lakeview Drive,98043,47.7882680,-122.3291734
23200,48th Avenue West,98043,47.7926320,-122.3012203
22803,44th Avenue West,98043,47.7909373,-122.2906547
5303,228th Street Southwest,98043,47.7925691,-122.3053309
23101,56th Avenue West,98043,47.7890248,-122.3078641
5503,232nd Street Southwest,98043,47.7886685,-122.3074309
23302,56th Avenue West,98043,47.7872281,-122.3094378
23250,58th Avenue West,98043,47.7878956,-122.3127042
5902,232nd Street Southwest,98043,47.7882222,-122.3129030
5402,221st Place Southwest,98043,47.7979943,-122.3061423
22725,44th Avenue West,98043,47.7922602,-122.2917207
4301,212th Street Southwest,98043,47.8078238,-122.2907778
21107,44th Avenue West,98043,47.8069550,-122.2917446
7001,220th Street Southwest,98043,47.8006956,-122.3284102
6204,215th Street Southwest,98043,47.8035473,-122.3164967
21818,66th Avenue West,98043,47.8009399,-122.3229867
4208,236th St SW,98043,47.7842247,-122.2890186
3900,228th Street Southwest,98043,47.7913025,-122.2865949
22015,48th Avenue West,98043,47.7987445,-122.2968149
21202,52nd Avenue West,98043,47.8061699,-122.3035771
21909,64th Avenue West,98043,47.7999442,-122.3185194
6702,220th Street Southwest,98043,47.7993010,-122.3234818
21601,66th Ave west,98043,47.8025527,-122.3214312
6304,215th Street Southwest,98043,47.8036026,-122.3181867
6404,216th Street Southwest,98043,47.8026814,-122.3197560
6203,215th Street Southwest,98043,47.8045645,-122.3171626
6202,213th Place West,98043,47.8050458,-122.3171732
6510,216th Street Southwest,98043,47.8025682,-122.3210813
5102,241st Street Southwest,98043,47.7797222,-122.3020973
24011,49th Avenue West,98043,47.7801183,-122.2993427
7001,220th Street Southwest,98043,47.7999554,-122.3240081
6710,220th Street Southwest,98043,47.7992059,-122.3240301
6908,220th Street Southwest,98043,47.7990025,-122.3261950
6810,220th Street Southwest,98043,47.7984645,-122.3252431
7125,224th Street Southwest,98043,47.7963645,-122.3292926
4118,212th Street Southwest,98043,47.8059154,-122.2885426
4120,212th Street Southwest,98043,47.8054139,-122.2885637
4122,212th Street Southwest,98043,47.8050008,-122.2882746
4004,212th Street Southwest,98043,47.8061864,-122.2880184
4008,212th Street Southwest,98043,47.8058113,-122.2879788
21506;21502;21504;21508,50th Avenue West,98043,47.8033558,-122.3009310
22800,56th Avenue West,98043,47.7917614,-122.3089059
24000,Van Ry Boulevard,98043,47.7811391,-122.3155773
22209,58th Avenue West,98043,47.7973042,-122.3101684
23208,56th Avenue West,98043,47.7879310,-122.3088154
4805,239th,98043,47.7821421,-122.2983834
4307,219th Street Southwest,98043,47.8006859,-122.2917320
4305,219th Street Southwest,98043,47.8007214,-122.2914540
4303,219th Street Southwest,98043,47.8007147,-122.2911630
4301,219th Street Southwest,98043,47.8007208,-122.2908953
4209,219th Street Southwest,98043,47.8006989,-122.2905969
4207,219th Street Southwest,98043,47.8006975,-122.2903122
4205,219th Street Southwest,98043,47.8006939,-122.2900299
4309,219th Street Southwest,98043,47.8007425,-122.2920081
4203,219th Street Southwest,98043,47.8007120,-122.2897579
4201,219th Street Southwest,98043,47.8007087,-122.2894442
4109,219th Street Southwest,98043,47.8006985,-122.2890608
4107,219th Street Southwest,98043,47.8006953,-122.2887675
4105,219th Street Southwest,98043,47.8007061,-122.2884819
4103,219th Street Southwest,98043,47.8006949,-122.2881958
4101,219th Street Southwest,98043,47.8006749,-122.2879116
4009,219th Street Southwest,98043,47.8006902,-122.2876231
4007,219th Street Southwest,98043,47.8007708,-122.2873371
5304,232nd Street Southwest,98043,47.7880340,-122.3050717
23206,56th Avenue West,98043,47.7881730,-122.3087437
23008,56th Avenue West,98043,47.7898140,-122.3091664
23308,56th Avenue West,98043,47.7867775,-122.3087374
23303,58th Avenue West,98043,47.7870638,-122.3104485
5106,230th Street Southwest,98043,47.7900125,-122.3026586
5204,230th Street Southwest,98043,47.7900170,-122.3033997
23000,55th Avenue West,98043,47.7897269,-122.3076002
5408,230th Street Southwest,98043,47.7900460,-122.3066692
23009,55th Avenue West,98043,47.7894045,-122.3066812
23007,55th Avenue West,98043,47.7895635,-122.3067191
23005,55th Avenue West,98043,47.7897266,-122.3067062
23003,55th Avenue West,98043,47.7898917,-122.3067039
5404,230th Street Southwest,98043,47.7900388,-122.3060922
23004,54th Avenue West,98043,47.7898796,-122.3061243
23006,54th Avenue West,98043,47.7897270,-122.3061588
23008,54th Avenue West,98043,47.7895707,-122.3061924
23010,54th Avenue West,98043,47.7893964,-122.3061474
23102,54th Avenue West,98043,47.7892202,-122.3061384
5308,230th Street Southwest,98043,47.7900456,-122.3054568
23108,54th Avenue West,98043,47.7887255,-122.3061047
5304,230th Street Southwest,98043,47.7900348,-122.3048553
5505,234th Street Southwest,98043,47.7867658,-122.3077455
23209,56th Avenue West,98043,47.7876782,-122.3080683
5506,232nd Street Southwest,98043,47.7882568,-122.3081600
5502,232nd Street Southwest,98043,47.7882401,-122.3073732
23109,55th Avenue West,98043,47.7887764,-122.3066396
23107,55th Avenue West,98043,47.7891862,-122.3066704
23102,55th Avenue West,98043,47.7891420,-122.3074912
5703,232nd Street Southwest,98043,47.7886564,-122.3103344
23406,54th Street Southwest,98043,47.7860877,-122.3059966
5906,228th Street Southwest,98043,47.7919134,-122.3133122
5906,228th Street Southwest,98043,47.7919483,-122.3135719
58022,228th Street Southwest,98043,47.7919257,-122.3115653
5806,228th Street Southwest,98043,47.7919198,-122.3122209
5902,228th Street Southwest,98043,47.7919361,-122.3128590
22701,227th Street Southwest,98043,47.7927772,-122.3095833
5604,227th Street Southwest,98043,47.7927799,-122.3091702
5602,227th Street Southwest,98043,47.7927690,-122.3088447
5702,227th Street Southwest,98043,47.7927883,-122.3101468
5704,227th Street Southwest,98043,47.7927661,-122.3104982
23104,57th Avenue West,98043,47.7891137,-122.3102096
5803,244th St SW;244th Street Southwest,98043,47.7777337,-122.3110057
5703,244th St SW,98043,47.7777387,-122.3098299
5707,244th St SW,98043,47.7777493,-122.3104242
5607,244th St SW,98043,47.7777416,-122.3092889
23504,56th Avenue West,98043,47.7850737,-122.3086852
23504,56th Avenue West,98043,47.7850590,-122.3089007
23510,58th Avenue West,98043,47.7850301,-122.3114044
23703,58th Avenue West,98043,47.7836581,-122.3108676
23706,58th Avenue West,98043,47.7833530,-122.3113627
23702,58th Avenue West,98043,47.7836371,-122.3113827
23606,58th Avenue West,98043,47.7841834,-122.3113643
23507,58th Avenue West,98043,47.7850387,-122.3108364
23601,58th Avenue West,98043,47.7845893,-122.3108705
23607,58th Avenue West,98043,47.7841478,-122.3108570
5601,244th St SW,98043,47.7778800,-122.3088170
5601,244th St SW,98043,47.7776945,-122.3088170
24325,56th Avenue West,98043,47.7778290,-122.3078660
24309,56th Avenue West,98043,47.7783834,-122.3079474
24225,56th Avenue West,98043,47.7786800,-122.3078930
6406,235th Place Southwest,98043,47.7855268,-122.3197010
23407,65th Place West,98043,47.7859654,-122.3203081
6408,234th Place Southwest,98043,47.7863552,-122.3202932
22405,60th Avenue West,98042,47.7951612,-122.3136517
23602,56th Avenue West,98043,47.7844319,-122.3088747
24321,54th Avenue West,98043,47.7778814,-122.3054334
5317,242nd Street Southwest,98043,47.7795291,-122.3051196
23601,56th Ave W,98043,47.7843730,-122.3077484
23503,66th Avenue West,98043,47.7854747,-122.3215175
23501,66th Avenue West,98043,47.7856803,-122.3216091
23405,66th Avenue West,98043,47.7858565,-122.3216819
23403,66th Avenue West,98043,47.7860558,-122.3217096
23401,66th Avenue West,98043,47.7862447,-122.3214931
23309,66th Avenue West,98043,47.7864700,-122.3213881
23508,65th Place West,98043,47.7851966,-122.3206714
23406,65th Place West,98043,47.7860532,-122.3208982
23307,66th Avenue West,98043,47.7866441,-122.3212572
23505,66th Avenue West,98043,47.7852261,-122.3215854
23204,58th Avenue West,98043,47.7881981,-122.3119573
5702,234th Street Southwest,98043,47.7864481,-122.3097740
21605,49th Place West,98043,47.8025131,-122.2995246
21607,49th Place West,98043,47.8023967,-122.2993193
21603,49th Place West,98043,47.8026579,-122.2996936
21601,49th Place West,98043,47.8027443,-122.2998789
21602,49th Place West,98043,47.8025287,-122.3002938
21604,49th Place West,98043,47.8023753,-122.3001668
21606,49th Place West,98043,47.8022785,-122.2999293
22508,68th Place West,98043,47.7943744,-122.3257465
22510,68th Place West,98043,47.7941995,-122.3259122
22602,68th Place West,98043,47.7940251,-122.3258055
22604,68th Place West,98043,47.7938494,-122.3257599
6605,235th Street Southwest,98043,47.7857082,-122.3226440
6607,235th Street Southwest,98043,47.7856740,-122.3230329
23406,56th Avenue West,98043,47.7862297,-122.3087648
21514,38th Avenue W,98043,47.8029693,-122.2844199
21512,38th Avenue W,98043,47.8029708,-122.2846721
21501,38th Avenue W,98043,47.8029779,-122.2848907
21508,38th Avenue W,98043,47.8032373,-122.2845950
21506,38th Avenue W,98043,47.8033590,-122.2845348
21504,38th Avenue W,98043,47.8034848,-122.2844384
21502,38th Avenue W,98043,47.8036112,-122.2844790
21516,38th Avenue W,98043,47.8029121,-122.2841789
21515,38th Avenue W,98043,47.8029110,-122.2838985
21513,38th Avenue W,98043,47.8029089,-122.2835770
21511,38th Avenue W,98043,47.8029289,-122.2833173
21509,38th Avenue W,98043,47.8031712,-122.2835982
21507,38th Avenue W,98043,47.8032943,-122.2836157
21505,38th Avenue W,98043,47.8034175,-122.2836247
21503,38th Avenue W,98043,47.8035414,-122.2836724
21501,38th Avenue W,98043,47.8036655,-122.2837566
22810,53rd Avenue West,98043,47.7911958,-122.3051008
23204,58th Avenue West,98043,47.7880478,-122.3118579
22209,60th Avenue West,98043,47.7967510,-122.3136670
22810,59th Avenue West,98043,47.7913190,-122.3130335
23003,59th Avenue West,98043,47.7899594,-122.3122436
5801,228th Street Southwest,98043,47.7922760,-122.3115400
5803,228th Street Southwest,98043,47.7923315,-122.3119440
5805,228th Street Southwest,98043,47.7923485,-122.3122050
5807,228th Street Southwest,98043,47.7923350,-122.3124395
5905,228th Street Southwest,98043,47.7923050,-122.3132420
5903,228th Street Southwest,98043,47.7922970,-122.3129665
5901,228th Street Southwest,98043,47.7922940,-122.3127000
5907,228th Street Southwest,98043,47.7922985,-122.3135490
2205,60th Avenue West,98043,47.7925000,-122.3135930
5906,227th Street Southwest,98043,47.7926755,-122.3135475
5904,227th Street Southwest,98043,47.7926425,-122.3132520
5902,227th Street Southwest,98043,47.7926470,-122.3129685
5901,227th Street Southwest,98043,47.7928405,-122.3127180
22702,227th Street Southwest,98043,47.7927955,-122.3124040
22706,227th Street Southwest,98043,47.7927125,-122.3116465
22722,58th Avenue West,98043,47.7924320,-122.3114735
5804,226th Place Southwest,98043,47.7931510,-122.3114950
5806,226th Place Southwest,98043,47.7931555,-122.3117935
5808,226th Place Southwest,98043,47.7931140,-122.3121715
5810,226th Place Southwest,98043,47.7931370,-122.3124010
5809,226th Place Southwest,98043,47.7935545,-122.3124120
5807,226th Place Southwest,98043,47.7935330,-122.3120970
5805,226th Place Southwest,98043,47.7935325,-122.3117565
5803,226th Place Southwest,98043,47.7935275,-122.3115020
22610,58th Avenue West,98043,47.7938045,-122.3115615
22508,58th Avenue West,98043,47.7940410,-122.3114610
5802,225th Place Southwest,98043,47.7940760,-122.3118700
5804,225th Place Southwest,98043,47.7940830,-122.3121250
5806,225th Place Southwest,98043,47.7940895,-122.3123965
5808,225th Place Southwest,98043,47.7940650,-122.3126730
5810,225th Place Southwest,98043,47.7940815,-122.3130815
5901,226th Street Southwest,98043,47.7936240,-122.3127570
5902,226th Street Southwest,98043,47.7933720,-122.3129640
5904,226th Street Southwest,98043,47.7934190,-122.3132455
5906,226th Street Southwest,98043,47.7934505,-122.3135740
5903,226th Street Southwest,98043,47.7937905,-122.3130530
5905,226th Street Southwest,98043,47.7937680,-122.3133285
22603,60th Avenue West,98043,47.7937960,-122.3136490
22605,60th Avenue West,98043,47.7932390,-122.3135685
5907,227th Street Southwest,98043,47.7930250,-122.3135700
5905,227th Street Southwest,98043,47.7930680,-122.3132620
5903,227th Street Southwest,98043,47.7930655,-122.3129335
22601,60th Avenue West,98043,47.7940108,-122.3135853
22507,60th Avenue West,98043,47.7942075,-122.3136080
22505,60th Avenue West,98043,47.7943900,-122.3135495
22503,60th Avenue West,98043,47.7945735,-122.3136140
22501,60th Avenue West,98043,47.7947590,-122.3136120
22407,60th Avenue West,98043,47.7949415,-122.3136525
22403,60th Avenue West,98042,47.7953530,-122.3136495
5910,224th Street Southwest,98042,47.7955775,-122.3136345
5908,224th Street Southwest,98042,47.7955820,-122.3133605
5906,224th Street Southwest,98042,47.7955780,-122.3130875
22402,59th Avenue West,98043,47.7953470,-122.3131215
22404,59th Avenue West,98043,47.7951475,-122.3131280
22412,59th Avenue West,98043,47.7943520,-122.3130820
22410,59th Avenue West,98043,47.7945310,-122.3130790
22408,59th Avenue West,98043,47.7947470,-122.3131375
22406,59th Avenue West,98043,47.7949440,-122.3131475
22411,59th Avenue West,98043,47.7945550,-122.3125280
22409,59th Avenue West,98043,47.7947530,-122.3125600
22407,59th Avenue West,98043,47.7949745,-122.3125720
22405,59th Avenue West,98043,47.7951780,-122.3125885
22403,59th Avenue West,98043,47.7953765,-122.3125850
5810,224th Street Southwest,98043,47.7955855,-122.3125055
5808,224th Street Southwest,98043,47.7954520,-122.3121565
5806,224th Street Southwest,98043,47.7955245,-122.3118680
22402,58th Avenue West,98043,47.7955435,-122.3114725
22404,58th Avenue West,98043,47.7953720,-122.3114075
5801,224th Place Southwest,98043,47.7951625,-122.3114965
5803,224th Place Southwest,98043,47.7951625,-122.3119510
5806,224th Place Southwest,98043,47.7949335,-122.3121000
5804,224th Place Southwest,98043,47.7947575,-122.3118620
5802,224th Place Southwest,98043,47.7948330,-122.3114710
22502,58th Avenue West,98043,47.7946335,-122.3114650
22504,58th Avenue West,98043,47.7944375,-122.3115220
5803,225th Place Southwest,98043,47.7944870,-122.3119160
5805,225th Place Southwest,98043,47.7945060,-122.3122115
5504,224th Street Southwest,98043,47.7955305,-122.3081290
22403,56th Avenue West,98043,47.7953610,-122.3082240
22405,56th Avenue West,98043,47.7951760,-122.3081980
4003,212th Street Southwest,98043,47.8066910,-122.2879905
4101,212th Street Southwest,98043,47.8066840,-122.2885785
4103,212th Street Southwest,98043,47.8067030,-122.2889675
4105,212th Street Southwest,98043,47.8067005,-122.2895173
4002,212th Street Southwest,98043,47.8062000,-122.2874015
4006,212th Street Southwest,98043,47.8060065,-122.2873895
4010,212th Street Southwest,98043,47.8057970,-122.2873845
4012,212th Street Southwest,98043,47.8055820,-122.2873580
4014,212th Street Southwest,98043,47.8053515,-122.2873605
4001,214th Street Southwest,98043,47.8048106,-122.2874568
21401,40th Avenue West,98043,47.8043947,-122.2871322
3810,214th Street Southwest,98043,47.8039375,-122.2850610
22407,56th Avenue West,98043,47.7949785,-122.3081915
22409,56th Avenue West,98043,47.7948100,-122.3081770
22501,56th Avenue West,98043,47.7946095,-122.3081790
22503,56th Avenue West,98043,47.7944275,-122.3081285
22505,56th Avenue West,98043,47.7942455,-122.3081590
22507,56th Avenue West,98043,47.7940600,-122.3081035
22509,56th Avenue West,98043,47.7938795,-122.3081850
22601,56th Avenue West,98043,47.7936945,-122.3081610
22603,56th Avenue West,98043,47.7935070,-122.3081750
22605,56th Avenue West,98043,47.7933310,-122.3081970
22607,56th Avenue West,98043,47.7931450,-122.3081965
22609,56th Avenue West,98043,47.7929660,-122.3082105
5507,228th Street Southwest,98043,47.7922380,-122.3081305
5503,228th Street Southwest,98043,47.7922300,-122.3077305
5504,228th Street Southwest,98043,47.7918770,-122.3076490
5408,228th Street Southwest,98043,47.7918915,-122.3069595
5404,228th Street Southwest,98043,47.7918705,-122.3064950
5308,228th Street Southwest,98043,47.7918620,-122.3056740
5304,228th Street Southwest,98043,47.7918460,-122.3052740
22801,53rd Avenue West,98043,47.7918480,-122.3045245
5706,227th Street Southwest,98043,47.7928020,-122.3108810
22309,54th Avenue West,98043,47.7956925,-122.3055265
22307,54th Avenue West,98043,47.7958840,-122.3055305
22303,54th Avenue West,98043,47.7960745,-122.3054785
22301,54th Avenue West,98043,47.7962445,-122.3055490
5306,223rd Street Southwest,98043,47.7962655,-122.3050145
5304,223rd Street Southwest,98043,47.7962630,-122.3046915
22302,53rd Avenue West,98043,47.7961645,-122.3044460
22209,54th Avenue West,98043,47.7966590,-122.3055235
22210,53rd Avenue West,98043,47.7966205,-122.3047770
22304,53rd Avenue West,98043,47.7959305,-122.3044720
22306,53rd Avenue West,98043,47.7957200,-122.3044245
22404,53rd Avenue West,98043,47.7955195,-122.3044120
22406,53rd Avenue West,98043,47.7953100,-122.3043075
22408,53rd Avenue West,98043,47.7951690,-122.3041140
22410,53rd Avenue West,98043,47.7950605,-122.3039070
22412,53rd Avenue West,98043,47.7949390,-122.3036980
22414,53rd Avenue West,98043,47.7948950,-122.3034110
22501,52nd Avenue West,98043,47.7944655,-122.3028470
22507,52nd Avenue West,98043,47.7939455,-122.3023405
5106,225th Place Southwest,98043,47.7944170,-122.3025425
5104,225th Place Southwest,98043,47.7944510,-122.3022755
5102,225th Place Southwest,98043,47.7944670,-122.3019805
22504,51st Avenue West,98043,47.7942580,-122.3020765
22506,51st Avenue West,98043,47.7940605,-122.3020315
22508,51st Avenue West,98043,47.7939905,-122.3017465
22507,51st Avenue West,98043,47.7940940,-122.3014995
22505,51st Avenue West,98043,47.7942680,-122.3013920
22503,51st Avenue West,98043,47.7944270,-122.3013420
22501,51st Avenue West,98043,47.7946065,-122.3012675
4005,219th Street Southwest,98043,47.8007377,-122.2870187
4003,219th Street Southwest,98043,47.8005769,-122.2868295
4001,219th Street Southwest,98043,47.8003489,-122.2866989
5006,243rd Street Southwest,98043,47.7779191,-122.3006648
5014,243rd Street Southwest,98043,47.7779248,-122.3009836
4829,244th Street Southwest,98043,47.7776402,-122.2989240
5007,244th Street Southwest,98043,47.7776656,-122.3006462
4904,243rd Street Southwest,98043,47.7779253,-122.2992654
4814,243rd Street Southwest,98043,47.7778961,-122.2982659
5109,244th Street Southwest,98043,47.7776897,-122.3019958
4931,244th Street Southwest,98043,47.7776621,-122.3003504
4822,243rd Street Southwest,98043,47.7778672,-122.2986302
5022,243rd Street Southwest,98043,47.7779413,-122.3013174
5127,244th Street Southwest,98043,47.7776671,-122.3026991
4828,243rd Street Southwest,98043,47.7778954,-122.2989460
5128,243rd Street Southwest,98043,47.7779419,-122.3026767
4815,244th Street Southwest,98043,47.7776630,-122.2982981
4922,243rd Street Southwest,98043,47.7779100,-122.2999993
4923,244th Street Southwest,98043,47.7776549,-122.2999804
4914,243rd Street Southwest,98043,47.7779110,-122.2995480
5015,244th Street Southwest,98043,47.7776858,-122.3009650
5023,244th Street Southwest,98043,47.7776846,-122.3012973
5110,243rd Street Southwest,98043,47.7779515,-122.3020267
5118,243rd Street Southwest,98043,47.7779472,-122.3023412
4915,244th Street Southwest,98043,47.7776662,-122.2996836
5031,244th Street Southwest,98043,47.7776782,-122.3016600
4823,244th Street Southwest,98043,47.7776489,-122.2985927
4930,243rd Street Southwest,98043,47.7779135,-122.3002911
4905,244th Street Southwest,98043,47.7776463,-122.2992857
5117,244th Street Southwest,98043,47.7776492,-122.3023325
24302,48th Avenue West,98043,47.7778788,-122.2979072
5030,243rd Street Southwest,98043,47.7779498,-122.3016606
4805,244th Street Southwest,98043,47.7776619,-122.2979564
24010,52nd Avenue West,98043,47.7807849,-122.3033372
3508,223rd Place Southwest,98043,47.7956651,-122.2816518
5803,224th Street Southwest,98043,47.7959325,-122.3119985
5801,224th Street Southwest,98043,47.7959140,-122.3114255
22207,60th Avenue West,98043,47.7969195,-122.3136295
22203,60th Avenue West,98043,47.7971405,-122.3136405
22201,60th Avenue West,98043,47.7973835,-122.3136620
22225,60th Avenue West,98043,47.7967680,-122.3130810
22303,60th Avenue West,98043,47.7965563,-122.3136832
22305,60th Avenue West,98043,47.7963844,-122.3135964
22307,60th Avenue West,98043,47.7961645,-122.3136505
22309,60th Avenue West,98043,47.7959730,-122.3136405
22308,224th Street Southwest,98043,47.7959685,-122.3132175
22306,59th Avenue West,98043,47.7961575,-122.3131985
22304,59th Avenue West,98043,47.7963575,-122.3132485
22302,59th Avenue West,98043,47.7965010,-122.3130555
22303,59th Avenue West,98043,47.7964810,-122.3127560
22305,59th Avenue West,98043,47.7963545,-122.3125665
22307,59th Avenue West,98043,47.7961290,-122.3125860
22309,59th Avenue West,98043,47.7959655,-122.3126135
22303,59th Avenue West,98043,47.7965990,-122.3128185
22312,58th Avenue West,98043,47.7966960,-122.3115080
5801,223rd Place Southwest,98043,47.7964715,-122.3114245
5803,223rd Place Southwest,98043,47.7964610,-122.3116760
5805,223rd Place Southwest,98043,47.7965000,-122.3119985
5807,223rd Place Southwest,98043,47.7963210,-122.3122150
5804,223rd Place Southwest,98043,47.7961295,-122.3121175
5802,223rd Place Southwest,98043,47.7961000,-122.3114505
22708,228th Street Southwest,98043,47.7923300,-122.3142315
22707,61st Avenue West,98043,47.7923180,-122.3146160
22705,61st Avenue West,98043,47.7925055,-122.3146030
22703,61st Avenue West,98043,47.7927490,-122.3146350
22701,61st Avenue West,98043,47.7929395,-122.3146850
22609,61st Avenue West,98043,47.7931630,-122.3146005
22607,61st Avenue West,98043,47.7933575,-122.3146385
22605,61st Avenue West,98043,47.7935575,-122.3146400
22603,61st Avenue West,98043,47.7937860,-122.3146215
6004,226th Street Southwest,98043,47.7939795,-122.3145685
6002,226th Street Southwest,98043,47.7939850,-122.3142265
22602,60th Avenue West,98043,47.7937655,-122.3142880
22604,60th Avenue West,98043,47.7935605,-122.3142210
22606,60th Avenue West,98043,47.7933540,-122.3142525
22608,60th Avenue West,98043,47.7931390,-122.3142815
22702,60th Avenue West,98043,47.7929390,-122.3142715
22704,60th Avenue West,98043,47.7927230,-122.3142550
22706,60th Avenue West,98043,47.7925180,-122.3142490
6005,226th Street Southwest,98043,47.7943335,-122.3148180
6003,226th Street Southwest,98043,47.7943965,-122.3145500
22504,60th Avenue West,98043,47.7944285,-122.3142400
22502,60th Avenue West,98043,47.7947000,-122.3142250
6004,225th Place Southwest,98043,47.7947030,-122.3144820
6001,225th Place Southwest,98043,47.7951035,-122.3143175
6003,225th Place Southwest,98043,47.7951700,-122.3145755
22404,60th Avenue West,98043,47.7952950,-122.3141865
6002,224th Street Southwest,98043,47.7955730,-122.3142210
6004,224th Street Southwest,98043,47.7955635,-122.3145415
6003,224th Street Southwest,98043,47.7959675,-122.3144915
22308,60th Avenue West,98043,47.7959930,-122.3141995
22306,60th Avenue West,98043,47.7962310,-122.3143340
22304,60th Avenue West,98043,47.7964160,-122.3142350
22302,60th Avenue West,98043,47.7965985,-122.3142745
22210,60th Avenue West,98043,47.7967900,-122.3143310
22208,60th Avenue West,98043,47.7969500,-122.3143385
22206,60th Avenue West,98043,47.7971370,-122.3143045
22204,60th Avenue West,98043,47.7973130,-122.3142945
22202,60th Avenue West,98043,47.7975090,-122.3142890
22111,60th Avenue West,98043,47.7977470,-122.3134410
22109,60th Avenue West,98043,47.7979180,-122.3134540
22107,60th Avenue West,98043,47.7980955,-122.3135455
22105,60th Avenue West,98043,47.7982345,-122.3135605
22103,60th Avenue West,98043,47.7984135,-122.3135500
5807,Northeast 205th Street - 244th Street Southwest;244th Street Southwest,98043,47.7777525,-122.3115938
24121,56th Avenue West,98043,47.7795955,-122.3080710
5517,242nd Street Southwest,98043,47.7796370,-122.3076600
24007,56th Avenue West,98043,47.7804240,-122.3080415
24113,56th Avenue West,98043,47.7799280,-122.3080430
24001,56th Avenue West,98043,47.7809665,-122.3081790
5507,240th Street Southwest,98043,47.7813455,-122.3080835
23907,56th Avenue West,98043,47.7815195,-122.3081260
23905,56th Avenue West,98043,47.7816505,-122.3081380
23508,58th Avenue West,98043,47.7852457,-122.3114834
23506,58th Avenue West,98043,47.7854428,-122.3119488
23504,58th Avenue West,98043,47.7854425,-122.3114218
23500,58th Avenue West,98043,47.7856365,-122.3114666
5702,235th Street Southwest,98043,47.7855396,-122.3097854
5705,235th Street Southwest,98043,47.7858949,-122.3100490
5606,235th Street Southwest,98043,47.7855254,-122.3092366
5607,235th Street Southwest,98043,47.7859004,-122.3092515
23401,58th Avenue West,98043,47.7863906,-122.3108292
5709,235th Street Southwest,98043,47.7859024,-122.3105942
5706,235th Street Southwest,98043,47.7855335,-122.3103545
5708,234th Street Southwest,98043,47.7864721,-122.3105912
5708,235th Street Southwest,98043,47.7855498,-122.3106064
23503,58th Avenue West,98043,47.7855082,-122.3108806
5604,235th Street Southwest,98043,47.7855258,-122.3089612
5608,234th Street Southwest,98043,47.7864510,-122.3095197
5703,235th Street Southwest,98043,47.7858728,-122.3097904
5606,234th Street Southwest,98043,47.7864540,-122.3092617
23421,58th Avenue West,98043,47.7859137,-122.3108943
5605,235th Street Southwest,98043,47.7858692,-122.3089475
5609,235th Street Southwest,98043,47.7859653,-122.3095158
5608,235th Street Southwest,98043,47.7855432,-122.3095039
5706,234th Street Southwest,98043,47.7864656,-122.3103465
5704,235th Street Southwest,98043,47.7855469,-122.3100343
23502,56th Avenue West,98043,47.7854833,-122.3086814
5704,234th Street Southwest,98043,47.7864406,-122.3100490
5707,235th Street Southwest,98043,47.7859028,-122.3103239
23416,55th Avenue West,98043,47.7861046,-122.3076756
23418,55th Avenue West,98043,47.7861001,-122.3074477
23420,55th Avenue West,98043,47.7860955,-122.3072063
23414,55th Avenue West,98043,47.7862921,-122.3076766
23412,55th Avenue West,98043,47.7862877,-122.3074380
23410,55th Avenue West,98043,47.7862850,-122.3071997
23503,56th Avenue West,98043,47.7855103,-122.3081605
23409,56th Avenue West,98043,47.7859000,-122.3081574
23501,56th Avenue West,98043,47.7857050,-122.3081303
23502,55th Avenue West,98043,47.7856142,-122.3072959
5508,234th Street Southwest,98043,47.7864326,-122.3080474
23504,55th Avenue West,98043,47.7854605,-122.3072975
5502,234th Street Southwest,98043,47.7864215,-122.3073034
23403,56th Avenue West,98043,47.7862459,-122.3081461
23405,56th Avenue West,98043,47.7860722,-122.3081386
22804,55th Avenue West,98043,47.7917210,-122.3075480
22806,55th Avenue West,98043,47.7915560,-122.3075280
22808,55th Avenue West,98043,47.7914000,-122.3074605
22810,55th Avenue West,98043,47.7912380,-122.3076075
22902,55th Place West,98043,47.7910620,-122.3073230
22904,55th Avenue West,98043,47.7908940,-122.3073445
22906,55th Avenue West,98043,47.7907325,-122.3073365
22908,55th Avenue West,98043,47.7905580,-122.3073195
5503,230th Street Southwest,98043,47.7903935,-122.3073430
23106,54th Avenue West,98043,47.7889080,-122.3061275
23104,54th Avenue West,98043,47.7890765,-122.3060930
22548,70th Place West,98043,47.7942344,-122.3282713
22415,69th Place West,98043,47.7952817,-122.3263296
6909,225th St SW,98043,47.7953365,-122.3266675
6924,225th St SW,98043,47.7949914,-122.3271120
22412,70th Place West,98043,47.7954060,-122.3283994
22540,70th Place West,98043,47.7943623,-122.3282538
23010,66th Avenue West,98043,47.7898268,-122.3228812
6603,226th Street Southwest,98043,47.7942532,-122.3228845
22404,67th Place West,98043,47.7954813,-122.3242574
22408,67th Place West,98043,47.7950790,-122.3242636
5111,Lapierre Drive,98043,47.7903602,-122.3028033
22423,72nd Avenue West,98043,47.7953299,-122.3296325
4807,237th Street Southwest,98043,47.7840023,-122.2985474
4813,237th Street Southwest,98043,47.7840054,-122.2990372
4805,237th Street Southwest,98043,47.7840046,-122.2983842
4809,237th Street Southwest,98043,47.7840145,-122.2987057
4811,237th Street Southwest,98043,47.7840097,-122.2988720
5102,240th Street Southwest,98043,47.7806044,-122.3018002
24003,50th Place Southwest,98043,47.7806547,-122.3005267
24003,49th Avenue West,98043,47.7807887,-122.2993031
24002,49th Place West,98043,47.7808007,-122.2999037
24000,49th Avenue West,98043,47.7809698,-122.2999672
24004,49th Avenue West,98043,47.7806292,-122.2999531
23901,49th Avenue West,98043,47.7814566,-122.2996952
5203,238th Street Southwest,98043,47.7830998,-122.3033673
24010,49th Avenue West,98043,47.7801173,-122.2999262
23709,54th Avenue West,98043,47.7836169,-122.3054306
5006,240th Place Southwest,98043,47.7805958,-122.3014573
24005,50th Place Southwest,98043,47.7804690,-122.3005535
5004,240th Place Southwest,98043,47.7806115,-122.3011719
5104,240th Street Southwest,98043,47.7806092,-122.3020595
5315,241st Street Southwest,98043,47.7802430,-122.3050264
24007,49th Avenue West,98043,47.7804596,-122.2992777
5307,241st Street Southwest,98043,47.7802359,-122.3046490
24009,50th Place Southwest,98043,47.7800932,-122.3005785
5106,240th Street Southwest,98043,47.7805878,-122.3023921
5808,214th Street Southwest,98043,47.8043417,-122.3117377
5608,218th Court Southwest,98043,47.8012097,-122.3093105
21610,56th Place West,98043,47.8016968,-122.3095067
5610,216th Court Southwest,98043,47.8023833,-122.3097205
5509,214th Place Southwest,98043,47.8049449,-122.3074037
5603,216th Court Southwest,98043,47.8026572,-122.3089671
5601,218th Court Southwest,98043,47.8015127,-122.3088174
21606,56th Place West,98043,47.8019240,-122.3094807
5603,217th Court Southwest,98043,47.8018266,-122.3089559
21605,56th Place West,98043,47.8022971,-122.3089438
5612,218th Court Southwest,98043,47.8012092,-122.3096503
21506,53rd Place West,98043,47.8033545,-122.3056160
21604,56th Place West,98043,47.8020367,-122.3094957
21508,53rd Place West,98043,47.8031338,-122.3056061
5204,216th Avenue West,98043,47.8027273,-122.3035768
21608,56th Place West,98043,47.8018120,-122.3094971
5605,216th Court Southwest,98043,47.8026574,-122.3091334
5603,218th Court Southwest,98043,47.8015142,-122.3089588
5404,218th Street Southwest,98043,47.8009495,-122.3062623
5604,218th Court Southwest,98043,47.8012045,-122.3089240
21603,56th Place West,98043,47.8022986,-122.3090852
5601,216th Court Southwest,98043,47.8026534,-122.3087997
5602,218th Court Southwest,98043,47.8012001,-122.3087624
5502,216th Street Southwest,98043,47.8027934,-122.3076209
21227,58th Avenue West Unit 1 Thru 5,98043,47.8058622,-122.3111161
5611,216th Court Southwest,98043,47.8026647,-122.3096341
5610,218th Court Southwest,98043,47.8012169,-122.3094939
21607,56th Place West,98043,47.8020350,-122.3089517
5607,218th Court Southwest,98043,47.8015287,-122.3094194
5505,218th Street Southwest,98043,47.8013685,-122.3080209
21602,56th Place West,98043,47.8021491,-122.3094737
5607,216th Court Southwest,98043,47.8026610,-122.3093003
5505,214th Place Southwest,98043,47.8046768,-122.3076152
5609,218th Court Southwest,98043,47.8015223,-122.3095910
5605,217th Court Southwest,98043,47.8018364,-122.3090967
5609,216th Court Southwest,98043,47.8026610,-122.3094672
5616,212th Street Southwest,98043,47.8064061,-122.3095981
5608,216th Court Southwest,98043,47.8022805,-122.3097078
5606,216th Court Southwest,98043,47.8022932,-122.3094349
21609,56th Place West,98043,47.8020367,-122.3090931
5606,218th Court Southwest,98043,47.8012126,-122.3091273
5605,218th Court Southwest,98043,47.8015175,-122.3091053
22608,44th Avenue West,98043,47.7934577,-122.2926757
4504,220th Street Southeast,98036,47.7993853,-122.2943158
22312,45th Place West,98043,47.7959218,-122.2946600
4712,216th Street Southwest,98043,47.8030278,-122.2969449
22302,45th Place Southwest,98043,47.7967784,-122.2943432
4401,221st Place Southwest,98043,47.7990653,-122.2925869
22306,45th Place Southwest,98043,47.7963628,-122.2943421
22403,45th Avenue West,98043,47.7947374,-122.2936115
4608,22nd Street Southwest,98043,47.7975641,-122.2960552
22405,45th Place West,98043,47.7945564,-122.2935964
4507,225th Place Southwest,98043,47.7945583,-122.2951489
4708,223rd Street Southwest,98043,47.7957759,-122.2974023
4601,227th Street Southwest,98043,47.7928646,-122.2949003
4508,220th Street Southeast,98036,47.7993879,-122.2948042
4504,218th Street Southwest,98043,47.8011979,-122.2940751
22104,52nd Avenue West,98043,47.7979900,-122.3034362
23208,Lapierre Drive,98043,47.7875305,-122.2998039
23301,Lapierre Drive,98043,47.7874614,-122.2990451
23002,Lapierre Drive,98043,47.7896071,-122.3009972
5107,230th Street Southwest,98043,47.7903505,-122.3023439
23001,Lapierre Drive,98043,47.7900546,-122.3010836
23006,Lapierre Drive,98043,47.7894402,-122.3004177
5105,230th Street Southwest,98043,47.7903356,-122.3020971
23210,Lapierre Drive,98043,47.7873867,-122.2996086
23108,Lapierre Drive,98043,47.7889166,-122.3002588
23303,Lapierre Drive,98043,47.7873600,-122.2988732
23207,Lapierre Drive,98043,47.7877761,-122.2993343
23107,Lapierre Drive,98043,47.7887504,-122.2997977
23205,Lapierre Drive,98043,47.7879266,-122.2994561
23013,Lapierre Drive,98043,47.7892776,-122.2995833
23104,50th Avenue West,98043,47.7890874,-122.3012317
23110,50th Avenue West,98043,47.7885898,-122.3012385
22906,47th Place West,98043,47.7902248,-122.2972894
23201,Lapierre Drive,98043,47.7882240,-122.2997630
23304,Lapierre Drive,98043,47.7870265,-122.2992757
23011,Lapierre Drive,98043,47.7894628,-122.2995919
23105,Lapierre Drive,98043,47.7889147,-122.2997233
23010,Lapierre Drive,98043,47.7893131,-122.3002054
23104,Lapierre Drive,98043,47.7890772,-122.3001853
23105,50th Avenue West,98043,47.7890152,-122.3006640
23009,50th Avenue West,98043,47.7892300,-122.3006438
4820,228th Street Southwest,98043,47.7917653,-122.2989678
23111,Lapierre Drive,98043,47.7883863,-122.2998715
23305,Lapierre Drive,98043,47.7871727,-122.2987083
23204,Lapierre Drive,98043,47.7879228,-122.3000576
23007,Lapierre Drive,98043,47.7897286,-122.3000891
5001,Lapierre Drive,98043,47.7902299,-122.3013378
23110,Lapierre Drive,98043,47.7886034,-122.3004050
23109,Lapierre Drive,98043,47.7885567,-122.2998721
23302,Lapierre Drive,98043,47.7872164,-122.2994758
23206,Lapierre Drive,98043,47.7877333,-122.2999150
23009,Lapierre Drive,98043,47.7896355,-122.2998468
23005,Lapierre Drive,98043,47.7897785,-122.3003067
23202,Lapierre Drive,98043,47.7881249,-122.3002873
23103,Lapierre Drive,98043,47.7890783,-122.2996374
23203,Lapierre Drive,98043,47.7880833,-122.2996053
23209,Lapierre Drive,98043,47.7876313,-122.2991573
23307,Lapierre Drive,98043,47.7870375,-122.2985156
23309,Lapierre Drive,98043,47.7869068,-122.2982713
23311,Lapierre Drive,98043,47.7867261,-122.2979543
21705,58th Avenue West,98043,47.8015217,-122.3102512
5102,224th Street Southwest,98043,47.7954111,-122.3018401
4804,224th Street Southwest,98043,47.7953549,-122.2984269
4806,224th Street Southwest,98043,47.7953866,-122.2987375
5105,224th Street Southwest,98043,47.7958592,-122.3022467
4808,221st Street Southwest,98043,47.7981257,-122.2987491
5104,224th Street Southwest,98043,47.7954640,-122.3021093
5106,224th Street Southwest,98043,47.7954611,-122.3023963
5100,224th Street Southwest,98043,47.7950790,-122.3019185
5103,224th Street Southwest,98043,47.7958447,-122.3019516
5107,224th Street Southwest,98043,47.7958380,-122.3025373
4806,225th Place Southwest,98043,47.7943126,-122.2986880
4802,224th Street Southwest,98043,47.7953909,-122.2980509
4810,216th Court Southwest,98043,47.8026835,-122.2989487
4808,216th Court Southwest,98043,47.8026383,-122.2986755
4806,216th Court Southwest,98043,47.8026431,-122.2983687
4807,218th Place Southwest,98043,47.8013000,-122.2991325
4801,218th Place Southwest,98043,47.8012884,-122.2980919
21902,49th Place West,98043,47.8002658,-122.2996495
4902,216th Place Southwest,98043,47.8030098,-122.2993350
21914,48th Avenue West,98043,47.7998587,-122.2983803
4805,218th Place Southwest,98043,47.8012959,-122.2987735
4803,218th Place Southwest,98043,47.8012911,-122.2984333
21900,49th Place West,98043,47.8004277,-122.2995811
4903,216th Place Southwest,98043,47.8033996,-122.2994147
7104,229th Place West,98043,47.7902361,-122.3307786
22708,73rd Place West,98043,47.7925961,-122.3322416
23431,74th Avenue West,98043,47.7859919,-122.3329250
23435,74th Avenue West,98043,47.7858203,-122.3329195
23423,74th Avenue West,98026,47.7861690,-122.3329264
22702,72nd Place West,98043,47.7930149,-122.3305265
22701,72nd Place West,98043,47.7931435,-122.3299986
22705,72nd Place West,98043,47.7928826,-122.3300891
22703,72nd Place West,98043,47.7930209,-122.3300436
22710,72nd Place West,98043,47.7925209,-122.3308016
22711,72nd Place West,98043,47.7925163,-122.3302551
22707,72nd Place West,98043,47.7927541,-122.3300342
22706,72nd Place West,98043,47.7927540,-122.3306840
7106,229th Place West,98043,47.7903624,-122.3310392
22708,72nd Place West,98043,47.7926369,-122.3307173
22700,72nd Place West,98043,47.7931491,-122.3304459
22709,72nd Place West,98043,47.7925269,-122.3300618
22704,72nd Place West,98043,47.7929052,-122.3306077
22205,70th Avenue West,98043,47.7971192,-122.3271625
6803,222nd Street Southwest,98043,47.7978829,-122.3248112
22104,66th Avenue West,98043,47.7979151,-122.3222602
22521,72nd Avenue West,98043,47.7941534,-122.3292465
22208,67th Avenue West,98043,47.7969299,-122.3242871
22511,72nd Avenue West,98043,47.7944172,-122.3293009
21304,41st Court West,98043,47.8052993,-122.2895425
21209,41st Court West,98043,47.8057697,-122.2891474
21205,41st Court West,98043,47.8060138,-122.2891541
21312,41st Court West,98043,47.8048173,-122.2895360
4204,214th Street Southwest,98043,47.8042420,-122.2899018
21307,41st Court West,98043,47.8051768,-122.2891408
21306,41st Court West,98043,47.8051794,-122.2895343
21311,41st Court West,98043,47.8049351,-122.2891394
21302,41st Court West,98043,47.8054230,-122.2895351
21309,41st Court West,98043,47.8050556,-122.2891413
21308,41st Court West,98043,47.8050593,-122.2895411
21313,41st Court West,98043,47.8048144,-122.2891359
4208,214th Street Southwest,98043,47.8044326,-122.2899501
21210,41st Court West,98043,47.8056392,-122.2895398
21203,41st Court West,98043,47.8061352,-122.2891487
21303,41st Court West,98043,47.8054177,-122.2891400
21211,41st Court West,98043,47.8056499,-122.2891433
21207,41st Court West,98043,47.8058915,-122.2891498
6208,222nd Lane Southwest,98043,47.7969951,-122.3177402
6305,221st Place Southwest,98043,47.7985965,-122.3183990
22503,62nd Avenue West,98043,47.7947427,-122.3173046
6304,221st Place Southwest,98043,47.7981786,-122.3186272
6203,223rd Place Southwest,98043,47.7967412,-122.3174950
6203,225th Place Southwest,98043,47.7953035,-122.3182158
6303,223rd Place Southwest,98043,47.7969923,-122.3182783
6303,221st Place Southwest,98043,47.7984291,-122.3182092
22222,64th Avenue West,98043,47.7968263,-122.3196339
6306,221st Place Southwest,98043,47.7981794,-122.3190392
6207,222nd Lane Southwest,98043,47.7971332,-122.3176646
6307,221st Place Southwest,98043,47.7985889,-122.3187409
22606,63rd Place West,98043,47.7935674,-122.3190082
6304,222nd Street Southwest,98043,47.7974437,-122.3184769
22501,64th Avenue West,98043,47.7950065,-122.3189603
6302,221st Place Southwest,98043,47.7982078,-122.3182731
23402,66th Avenue West,98043,47.7863896,-122.3221344
23406,66th Avenue West,98043,47.7861223,-122.3223143
23109,64th Place West,98043,47.7890061,-122.3199491
23408,66th Avenue West,98043,47.7859629,-122.3223430
6608,234th Place Southwest,98043,47.7865036,-122.3227239
23310,66th Place West,98043,47.7867748,-122.3218134
23302,67th Avenue West,98043,47.7876543,-122.3234032
23107,67th Place West,98043,47.7889661,-122.3236613
23117,63rd Avenue West,98020,47.7883810,-122.3176373
22607,63rd Place West,98043,47.7934650,-122.3187425
22107;22103;22105;22101,66th Avenue West,98043,47.7983136,-122.3208979
22309,42nd Place,98043,47.7957642,-122.2898785
4310,226th Place Southwest,98043,47.7928171,-122.2919123
4307,226th Place Southwest,98043,47.7927903,-122.2914727
4309,226th Place Southwest,98043,47.7929236,-122.2914822
4305,44th Avenue West,98043,47.7927028,-122.2914726
3603,224th Place West,98043,47.7953094,-122.2826401
22402,37th Place West,98043,47.7945946,-122.2839541
4308,226th Place Southwest,98043,47.7925329,-122.2917560
4303,226th Place Southwest,98043,47.7925386,-122.2914742
22004,42nd Place West,98043,47.7991811,-122.2893811
4605,229th Place West,98043,47.7907477,-122.2956278
4640,228th Street Southwest,98043,47.7913883,-122.2961595
4638,228th Street Southwest,98043,47.7910737,-122.2961737
23201,44th Avenue West,98043,47.7879734,-122.2922202
4642,228th Street Southwest,98043,47.7916782,-122.2961339
22902,40th Place West,98043,47.7902867,-122.2879082
23709,45th Court West,98043,47.7840251,-122.2925041
23612,45th Court West,98043,47.7838276,-122.2935289
23811,45th Place West,98043,47.7818707,-122.2931203
4505,241st Court Southwest,98043,47.7802560,-122.2942489
23813,45th Place West,98043,47.7817302,-122.2931274
23904,45th Place West,98043,47.7816378,-122.2936134
23608,45th Court West,98043,47.7840136,-122.2938110
4525,240th Street Southwest,98043,47.7815321,-122.2947487
23910,45th Place West,98043,47.7812261,-122.2936036
23610,45th Court West,98043,47.7838271,-122.2937623
23700,45th Court West,98043,47.7840134,-122.2934326
23908,45th Place West,98043,47.7813633,-122.2936099
4417,240th Street Southwest,98043,47.7812639,-122.2931888
23711,45th Court West,98043,47.7839188,-122.2924907
23606,45th Court West,98043,47.7841463,-122.2937886
23906,45th Place West,98043,47.7815004,-122.2935998
23704,45th Court West,98043,47.7838423,-122.2931822
24304,43rd Place West,98043,47.7783769,-122.2912222
23702,45th Court West,98043,47.7838364,-122.2933481
4705,237th Street Southwest,98043,47.7844049,-122.2965543
24005,48th Avenue West,98043,47.7807081,-122.2972514
23706,45th Court West,98043,47.7838461,-122.2930138
4706,237th Place West,98043,47.7831201,-122.2964508
24311,43rd Avenue West,98043,47.7777629,-122.2906415
24309,43rd Avenue West,98043,47.7779626,-122.2906537
23812,Cedar Court,98043,47.7815881,-122.2890007
23713,45th Court West,98043,47.7838149,-122.2924991
23000,Lakeview Drive,98043,47.7863826,-122.3265384
23905,Van Ry Boulevard,98043,47.7821802,-122.3146502
6006,225th Street Southwest,98043,47.7947033,-122.3147769
