House number,Street name,Postal code,Latitude,Longitude
19893,1st Avenue,98148,47.4240722,-122.3357410
19987,1st Avenue,98148,47.4238168,-122.3356960
19901,1st Avenue South,98148-2411,47.4240390,-122.3370547
20017,1st Avenue South,98198,47.4226646,-122.3356618
20018,1st Place Southwest,98166,47.4226884,-122.3361985
20020,1st Place Southwest,98166,47.4226545,-122.3361830
224,South 218th Street,98198,47.4071083,-122.3329857
127,Southwest 200th Street,98166,47.4230708,-122.3362756
20016,2nd Avenue Southwest,98166,47.4227349,-122.3374526
20018,2nd Avenue Southwest,98166,47.4226852,-122.3374456
20013,1st Place Southwest,98166,47.4229003,-122.3369301
141,Southwest 200th Street,98166,47.4230536,-122.3370168
159,Southwest 200th Street,98166,47.4230111,-122.3373805
20022,2nd Avenue Southwest,98166,47.4225145,-122.3374667
20413,10th Place Southwest,98166,47.4189485,-122.3470525
157,Southwest 200th Street,98166,47.4230114,-122.3374462
20015,1st Avenue South,98198,47.4227372,-122.3356617
20024,2nd Avenue Southwest,98166,47.4224636,-122.3374565
20026,1st Place Southwest,98166,47.4224811,-122.3363028
125,Southwest 200th Street,98166,47.4230693,-122.3361917
20011,1st Place Southwest,98166,47.4228477,-122.3369570
20027,1st Place Southwest,98166,47.4224505,-122.3367822
20429,2nd Avenue Southwest,98166,47.4188471,-122.3381152
227,Southwest 208th Street,98166,47.4157913,-122.3388758
20019,1st Place Southwest,98166,47.4226348,-122.3368951
139,Southwest 200th Street,98166,47.4230563,-122.3369539
210,South 218th Street,98198,47.4075942,-122.3334717
141,Southwest 185th Lane,98166,47.4368120,-122.3358455
109,Southwest 185th Lane,98166,47.4370016,-122.3353489
115,Southwest 185th Lane,98166,47.4368091,-122.3353848
101,Southwest 197th Street,98166,47.4261480,-122.3365161
17825,1st Avenue South,98148,47.4426875,-122.3347690
17821,1st Avenue South,98148,47.4427639,-122.3347656
179,Southwest 185th Lane,98166,47.4368938,-122.3367865
171,Southwest 185th Lane,98166,47.4370566,-122.3368059
139,Southwest 185th Lane,98166,47.4368546,-122.3358414
129,Southwest 185th Lane,98166,47.4369641,-122.3358512
135,Southwest 185th Lane,98166,47.4368898,-122.3358517
127,Southwest 185th Lane,98166,47.4370084,-122.3358605
151,Southwest 185th Lane,98166,47.4369274,-122.3360972
147,Southwest 185th Lane,98166,47.4369617,-122.3361022
173,Southwest 185th Lane,98166,47.4370105,-122.3367939
145,Southwest 185th Lane,98166,47.4370042,-122.3361061
177,Southwest 185th Lane,98166,47.4369381,-122.3367931
163,Southwest 185th Lane,98166,47.4369270,-122.3364670
165,Southwest 185th Lane,98166,47.4368872,-122.3364605
157,Southwest 185th Lane,98166,47.4370083,-122.3364827
175,Southwest 185th Lane,98166,47.4369761,-122.3367942
133,Southwest 185th Lane,98166,47.4369270,-122.3358501
421,Southwest 189th Street,98166,47.4336181,-122.3428674
159,Southwest 185th Lane,98166,47.4369649,-122.3364761
153,Southwest 185th Lane,98166,47.4368866,-122.3361000
653,Southwest 185th Street,98166,47.4375466,-122.3445572
652,Southwest 183rd Street,98166,47.4379637,-122.3445325
107,Southwest 197th Street,98166,47.4258715,-122.3364856
109,Southwest 197th Street,98166,47.4257815,-122.3364946
19711,1st Avenue South,98148,47.4261375,-122.3360438
119,Southwest 197th Street,98166,47.4254908,-122.3359964
113,Southwest 197th Street,98166,47.4255979,-122.3364720
115,Southwest 197th Street,98166,47.4254922,-122.3364805
17806,2nd Avenue Southwest,98166,47.4430609,-122.3366849
17814,2nd Avenue Southwest,98166,47.4427664,-122.3367277
17818,2nd Avenue Southwest,98166,47.4426192,-122.3367492
17808,2nd Avenue Southwest,98166,47.4429873,-122.3366956
17802,2nd Avenue Southwest,98166,47.4432081,-122.3366635
17810,2nd Avenue Southwest,98166,47.4429137,-122.3367063
17827,1st Avenue South,98148,47.4423930,-122.3351210
17849,1st Avenue South,98148,47.4423060,-122.3360450
17816,2nd Avenue Southwest,98166,47.4426928,-122.3367385
17800,2nd Avenue Southwest,98166,47.4432817,-122.3366528
111,Southwest 197th Street,98166,47.4256602,-122.3364940
123,Southwest 197th Street,98166,47.4254243,-122.3357034
117,Southwest 197th Street,98166,47.4255051,-122.3360976
121,Southwest 197th Street,98166,47.4254285,-122.3358303
105,Southwest 197th Street,98166,47.4259865,-122.3365149
419,Southwest 185th Street,98166,47.4375394,-122.3416164
17804,2nd Avenue Southwest,98166,47.4431345,-122.3366742
17812,2nd Avenue Southwest,98166,47.4428400,-122.3367170
408,Southwest 185th Street,98166,47.4380362,-122.3409639
103,Southwest 197th Street,98166,47.4260824,-122.3365061
17817,1st Avenue South,98148,47.4429500,-122.3347350
19703,1st Avenue South,98148,47.4261067,-122.3359124
17851,1st Avenue South,98148,47.4423059,-122.3361430
17845,1st Avenue South,98148,47.4423026,-122.3359849
17837,1st Avenue South,98148,47.4423030,-122.3357025
17833,1st Avenue South,98148,47.4423053,-122.3353454
17833,1st Avenue South,98148,47.4423277,-122.3351670
17843,1st Avenue South,98148,47.4423037,-122.3359122
17841,1st Avenue South,98148,47.4423013,-122.3357990
17835,1st Avenue South,98148,47.4423022,-122.3356010
17833,1st Avenue South,98148,47.4423067,-122.3355160
801,Southwest 174th Street,98166,47.4456143,-122.3455364
17161,4th Avenue Southwest,98166,47.4485960,-122.3404585
17163,4th Avenue Southwest,98166,47.4482406,-122.3405114
22030,Cliff Avenue South,98198,47.4040293,-122.3294698
242,Southwest Normandy Road,98166,47.4407892,-122.3392374
801,Southwest 174th Street,98166,47.4453989,-122.3455608
19900,4th Avenue Southwest,98166,47.4245329,-122.3402974
19901,1st Avenue South,98148,47.4239522,-122.3371637
19865,1st Avenue South,98148,47.4244187,-122.3364993
19893,1st Avenue South,98148,47.4242619,-122.3356735
19987,1st Avenue South,98148,47.4236391,-122.3356289
19803,1st Avenue South,98148,47.4251211,-122.3358820
19805,1st Avenue South,98148,47.4248739,-122.3373010
17847,1st Avenue South,98148,47.4417690,-122.3357748
17655,12th Avenue Southwest,98166,47.4440103,-122.3515311
1284,Southwest Shorebrook Drive,98166,47.4425325,-122.3553787
20121,1st Avenue South,98198,47.4216464,-122.3365437
20099,2nd Avenue Southwest,98166,47.4208995,-122.3381932
20661,10th Place Southwest,98166,47.4164490,-122.3468061
21815,4th Avenue South,98198,47.4065547,-122.3308050
230,South 219th Street,98198,47.4057581,-122.3317961
21618,6th Avenue South,98198,47.4078692,-122.3273534
21631,6th Place South,98198,47.4074794,-122.3273552
20079,2nd Avenue Southwest,98166,47.4212510,-122.3388158
20089,2nd Avenue Southwest,98166,47.4209910,-122.3387727
20430,2nd Avenue Southwest,98166,47.4183031,-122.3368775
123,Southwest 207th Street,98166,47.4171487,-122.3365974
20414,2nd Avenue Southwest,98166,47.4185724,-122.3369356
20409,1st Avenue South,98198,47.4193547,-122.3362408
20415,1st Avenue South,98198,47.4193525,-122.3366284
20690,Marine View Drive Southwest,98166,47.4168164,-122.3391498
20645,Marine View Drive Southwest,98166,47.4175385,-122.3400432
601,Southwest 207th Place,98166,47.4159877,-122.3418361
20702,Marine View Drive Southwest,98166,47.4164302,-122.3394209
20405,2nd Avenue Southwest,98166,47.4193934,-122.3381321
360,Southwest 206th Street,98166,47.4193703,-122.3411966
20858,2nd Place Southwest,98166,47.4147722,-122.3361460
20419,2nd Avenue Southwest,98166,47.4190595,-122.3380547
20624,Marine View Drive Southwest,98166,47.4180164,-122.3387892
21937,Cliff Avenue South,98198,47.4046873,-122.3307638
309,South 219th Street,98198,47.4050211,-122.3308506
315,South 219th Street,98198,47.4053496,-122.3298990
232,South 218th Street,98198,47.4068747,-122.3327552
21633,5th Avenue South,98198,47.4075603,-122.3293647
21633,4th Place South,98198,47.4074750,-122.3299146
301,South 218th Street,98198,47.4067553,-122.3316675
305,South 218th Street,98198,47.4065564,-122.3313591
21617,4th Place South,98198,47.4078791,-122.3294518
21647,3rd Avenue South,98198,47.4071397,-122.3320363
226,South 219th Street,98198,47.4059151,-122.3318596
222,South 219th Street,98198,47.4059864,-122.3319537
21827,4th Avenue South,98198,47.4060339,-122.3308910
304,South 219th Street,98198,47.4058159,-122.3310272
212,South 219th Street,98198,47.4063934,-122.3322807
200,South 218th Street,98198,47.4066896,-122.3325387
220,South 219th Street,98198,47.4060768,-122.3320387
218,South 219th Street,98198,47.4061648,-122.3320868
20200,10th Place Southwest,98166,47.4196417,-122.3483135
20326,10th Place Southwest,98166,47.4196961,-122.3492503
20300,10th Place Southwest,98166,47.4204592,-122.3462663
20603,6th Avenue Southwest,98166,47.4180617,-122.3439548
20434,10th Place Southwest,98166,47.4183779,-122.3462222
20423,10th Place Southwest,98166,47.4186035,-122.3486572
753,Southwest 201st Street,98166,47.4219329,-122.3450567
20661,10th Place Southwest,98166,47.4165884,-122.3479073
20633,10th Place Southwest,98166,47.4171364,-122.3466706
20631,10th Place Southwest,98166,47.4172473,-122.3477644
417,Southwest 206th Street,98166,47.4185897,-122.3417565
20443,2nd Avenue Southwest,98166,47.4186084,-122.3381623
20612,Marine View Drive Southwest,98166,47.4185367,-122.3388861
444,Southwest 206th Street,98166,47.4187365,-122.3431152
604,Southwest 206th Street,98166,47.4186658,-122.3435205
20605,Marine View Drive Southwest,98166,47.4186409,-122.3397595
20604,4th Avenue Southwest,98166,47.4186084,-122.3407089
20615,Marine View Drive Southwest,98166,47.4183758,-122.3398033
20615,4th Avenue Southwest,98166,47.4183444,-122.3415794
20614,4th Avenue Southwest,98166,47.4183323,-122.3407167
20449,2nd Avenue Southwest,98166,47.4183289,-122.3380136
20445,1st Avenue South,98198,47.4185374,-122.3356822
20439,1st Avenue South,98198,47.4185682,-122.3363020
20607,1st Avenue South,98198,47.4181149,-122.3359679
20616,Marine View Drive Southwest,98166,47.4182876,-122.3388407
20600,6th Avenue Southwest,98166,47.4182461,-122.3424400
20610,6th Avenue Southwest,98166,47.4180012,-122.3425323
20625,4th Avenue Southwest,98166,47.4180283,-122.3414726
20620,4th Avenue Southwest,98166,47.4180677,-122.3406942
20459,2nd Avenue Southwest,98166,47.4180793,-122.3380350
20625,Marine View Drive Southwest,98166,47.4180626,-122.3397126
20600,2nd Avenue Southwest,98166,47.4180117,-122.3368732
20325,2nd Avenue Southwest,98166,47.4197408,-122.3380409
20535,Marine View Drive Southwest,98166,47.4197298,-122.3416381
325,Southwest 203rd Street,98166,47.4197078,-122.3388594
20527,Marine View Drive Southwest,98166,47.4196672,-122.3412330
20507,Marine View Drive Southwest,98166,47.4197492,-122.3402933
20310,Marine View Drive Southwest,98166,47.4197254,-122.3393293
20517,Marine View Drive Southwest,98166,47.4197654,-122.3406988
20540,Marine View Drive Southwest,98166,47.4193395,-122.3392638
350,Southwest 206th Street,98166,47.4193774,-122.3408372
20400,2nd Avenue Southwest,98166,47.4193542,-122.3370920
20550,Marine View Drive Southwest,98166,47.4193467,-122.3387877
20537,Marine View Drive Southwest,98166,47.4196038,-122.3420267
20547,Marine View Drive Southwest,98166,47.4193928,-122.3401303
420,Southwest 206th Street,98166,47.4193518,-122.3420112
400,Southwest 206th Street,98166,47.4190910,-122.3411499
20556,Marine View Drive Southwest,98166,47.4190576,-122.3390883
340,Southwest 206th Street,98166,47.4190351,-122.3404929
20405,1st Avenue South,98198,47.4193194,-122.3358920
20402,2nd Avenue Southwest,98166,47.4191172,-122.3373030
432,Southwest 206th Street,98166,47.4188406,-122.3427927
20404,2nd Avenue Southwest,98166,47.4188355,-122.3370225
20608,Marine View Drive Southwest,98166,47.4187775,-122.3389542
430,Southwest 206th Street,98166,47.4189900,-122.3425462
20557,Marine View Drive Southwest,98166,47.4190257,-122.3400030
20423,1st Avenue South,98198,47.4189147,-122.3359637
20663,Marine View Drive Southwest,98166,47.4171857,-122.3406514
103,Southwest 207th Street,98166,47.4171759,-122.3356968
20670,Marine View Drive Southwest,98166,47.4172870,-122.3390255
20653,Marine View Drive Southwest,98166,47.4172664,-122.3400193
20636,6th Avenue Southwest,98166,47.4172075,-122.3418002
133,Southwest 207th Street,98166,47.4172289,-122.3372174
20680,Marine View Drive Southwest,98166,47.4170560,-122.3391280
113,Southwest 207th Street,98166,47.4171147,-122.3361618
20647,6th Avenue Southwest,98166,47.4169192,-122.3428814
20711,2nd Avenue Southwest,98166,47.4170920,-122.3380061
20721,2nd Avenue Southwest,98166,47.4168356,-122.3380214
20640,6th Avenue Southwest,98166,47.4169539,-122.3416394
20635,Marine View Drive Southwest,98166,47.4178255,-122.3398654
20640,Marine View Drive Southwest,98166,47.4177945,-122.3388973
20632,4th Avenue Southwest,98166,47.4177701,-122.3406496
20601,2nd Avenue Southwest,98166,47.4178328,-122.3379678
20620,6th Avenue Southwest,98166,47.4177455,-122.3423299
20635,4th Avenue Southwest,98166,47.4177111,-122.3414849
20668,Marine View Drive Southwest,98166,47.4175728,-122.3388781
112,Southwest 207th Street,98166,47.4176098,-122.3361570
20642,4th Avenue Southwest,98166,47.4175161,-122.3407191
20641,4th Avenue Southwest,98166,47.4174959,-122.3414904
20613,6th Avenue Southwest,98166,47.4175613,-122.3434305
102,Southwest 207th Street,98166,47.4175999,-122.3357290
20605,2nd Avenue Southwest,98166,47.4175863,-122.3379867
122,Southwest 207th Street,98166,47.4176293,-122.3367099
20615,2nd Avenue Southwest,98166,47.4173326,-122.3380209
20635,6th Avenue Southwest,98166,47.4172526,-122.3431032
132,Southwest 207th Street,98166,47.4175211,-122.3371909
20634,6th Avenue Southwest,98166,47.4174383,-122.3421627
20209,2nd Avenue Southwest,98166,47.4203608,-122.3381624
20205,2nd Avenue Southwest,98166,47.4206298,-122.3380664
20213,Marine View Drive Southwest,98166,47.4206008,-122.3409296
20211,Marine View Drive Southwest,98166,47.4204950,-122.3416744
20217,Marine View Drive Southwest,98166,47.4202436,-122.3418383
20220,Marine View Drive Southwest,98166,47.4202564,-122.3398254
320,Southwest 203rd Street,98166,47.4203172,-122.3389551
20215,2nd Avenue Southwest,98166,47.4201092,-122.3381052
20311,Marine View Drive Southwest,98166,47.4200742,-122.3404907
20361,1st Avenue South,98198,47.4200492,-122.3360495
310,Southwest 203rd Street,98166,47.4201869,-122.3393780
20315,Marine View Drive Southwest,98166,47.4200038,-122.3409775
20323,Marine View Drive Southwest,98166,47.4199411,-122.3419183
330,Southwest 203rd Street,98166,47.4199828,-122.3386323
20319,Marine View Drive Southwest,98166,47.4200060,-122.3415374
20214,Marine View Drive Southwest,98166,47.4206523,-122.3400106
21012,Marine View Drive Southwest,98166,47.4131881,-122.3361022
21011,1st Avenue South,98198,47.4130765,-122.3351341
21020,Marine View Drive Southwest,98166,47.4129777,-122.3358045
20859,2nd Place Southwest,98166,47.4153825,-122.3356743
20821,2nd Place Southwest,98166,47.4153516,-122.3378783
20832,2nd Place Southwest,98166,47.4153143,-122.3368880
20826,Marine View Drive Southwest,98166,47.4153095,-122.3390773
20822,2nd Place Southwest,98166,47.4154580,-122.3371255
20829,2nd Place Southwest,98166,47.4151993,-122.3375686
20842,2nd Place Southwest,98166,47.4152551,-122.3365557
20834,Marine View Drive Southwest,98166,47.4151986,-122.3387407
20861,2nd Place Southwest,98166,47.4151778,-122.3356523
20837,2nd Place Southwest,98166,47.4150221,-122.3373866
20856,2nd Place Southwest,98166,47.4150791,-122.3363278
20807,Marine View Drive Southwest,98166,47.4150098,-122.3408390
20844,Marine View Drive Southwest,98166,47.4149899,-122.3385613
20809,Marine View Drive Southwest,98166,47.4151528,-122.3422085
20823,Marine View Drive Southwest,98166,47.4150754,-122.3398898
20845,2nd Place Southwest,98166,47.4148667,-122.3371579
20877,2nd Place Southwest,98166,47.4147546,-122.3355985
20871,2nd Place Southwest,98166,47.4149682,-122.3356280
20852,Marine View Drive Southwest,98166,47.4149843,-122.3381411
240,Southwest 208th Street,98166,47.4160804,-122.3395111
234,Southwest 208th Street,98166,47.4161007,-122.3390319
635,Southwest 207th Place,98166,47.4161010,-122.3434055
20737,Marine View Drive Southwest,98166,47.4160128,-122.3403745
20736,2nd Avenue Southwest,98166,47.4161801,-122.3373499
20759,2nd Avenue Southwest,98166,47.4161747,-122.3379671
607,Southwest 207th Place,98166,47.4160934,-122.3422152
609,Southwest 207th Place,98166,47.4160626,-122.3425139
20727,Marine View Drive Southwest,98166,47.4159750,-122.3409855
635,Southwest 207th Place,98166,47.4159531,-122.3431280
20715,Marine View Drive Southwest,98166,47.4158454,-122.3414739
123,Southwest 208th Street,98166,47.4156830,-122.3363772
20801,Marine View Drive Southwest,98166,47.4156614,-122.3403366
101,Southwest 208th Street,98166,47.4157980,-122.3359044
153,Southwest 208th Street,98166,47.4157872,-122.3375113
20809,2nd Place Southwest,98166,47.4156487,-122.3386172
20800,Marine View Drive Southwest,98166,47.4157153,-122.3394141
20803,Marine View Drive Southwest,98166,47.4155447,-122.3410275
20818,Marine View Drive Southwest,98166,47.4154788,-122.3392322
20815,2nd Place Southwest,98166,47.4154776,-122.3381223
20820,2nd Place Southwest,98166,47.4156232,-122.3373356
20933,Marine View Drive Southwest,98166,47.4136096,-122.3380149
20933,1st Avenue South,98198,47.4135192,-122.3351847
21000,Marine View Drive Southwest,98166,47.4133788,-122.3362867
20946,Marine View Drive Southwest,98166,47.4137271,-122.3363495
20607,6th Avenue Southwest,98166,47.4177898,-122.3435976
20805,Marine View Drive Southwest,98166,47.4152117,-122.3437040
20811,Marine View Drive Southwest,98166,47.4142950,-122.3436327
20881,2nd Place Southwest,98166,47.4145526,-122.3355401
20855,2nd Place Southwest,98166,47.4145173,-122.3366630
20902,Marine View Drive Southwest,98166,47.4146928,-122.3379238
20853,2nd Place Southwest,98166,47.4146522,-122.3369607
20891,2nd Place Southwest,98166,47.4143461,-122.3354523
20873,2nd Place Southwest,98166,47.4142661,-122.3362172
20914,Marine View Drive Southwest,98166,47.4144287,-122.3378408
20918,Marine View Drive Southwest,98166,47.4143716,-122.3375449
20863,2nd Place Southwest,98166,47.4143365,-122.3365192
20915,Marine View Drive Southwest,98166,47.4140517,-122.3383092
20901,2nd Place Southwest,98166,47.4141731,-122.3354343
20905,Marine View Drive Southwest,98166,47.4141480,-122.3386654
20926,Marine View Drive Southwest,98166,47.4140900,-122.3372985
20938,Marine View Drive Southwest,98166,47.4138264,-122.3366392
20931,1st Avenue South,98198,47.4137250,-122.3352637
20893,2nd Place Southwest,98166,47.4139588,-122.3361492
20921,1st Avenue South,98198,47.4139586,-122.3352675
20934,Marine View Drive Southwest,98166,47.4139132,-122.3370156
20925,Marine View Drive Southwest,98166,47.4138080,-122.3381853
420,Southwest 207th Street,98166,47.4166625,-122.3416267
610,Southwest 207th Place,98166,47.4165792,-122.3427636
20663,6th Avenue Southwest,98166,47.4167078,-122.3423156
128,Southwest 208th Street,98166,47.4167623,-122.3362453
20673,Marine View Drive Southwest,98166,47.4167149,-122.3406026
20700,Marine View Drive Southwest,98166,47.4164772,-122.3390309
20729,1st Avenue South,98198,47.4164389,-122.3356660
20728,2nd Avenue Southwest,98166,47.4165737,-122.3373265
132,Southwest 208th Street,98166,47.4164772,-122.3362408
222,Southwest 208th Street,98166,47.4163241,-122.3386787
140,Southwest 208th Street,98166,47.4163462,-122.3364733
411,Southwest 207th Place,98166,47.4162679,-122.3405947
20731,2nd Avenue Southwest,98166,47.4164081,-122.3380607
20732,2nd Avenue Southwest,98166,47.4163806,-122.3373062
148,Southwest 208th Street,98166,47.4163612,-122.3367920
427,Southwest 207th Place,98166,47.4162594,-122.3412775
110,Southwest 208th Street,98166,47.4162302,-122.3358573
405,Southwest 207th Place,98166,47.4162664,-122.3403173
417,Southwest 207th Place,98166,47.4162616,-122.3409495
20711,1st Avenue South,98198,47.4168550,-122.3356720
20724,2nd Avenue Southwest,98166,47.4168026,-122.3373588
104,South 214th Street,98198,47.4096930,-122.3344861
110,South 214th Street,98198,47.4098816,-122.3337202
21554,1st Court South,98198,47.4090272,-122.3333391
21550,1st Court South,98198,47.4090904,-122.3336530
115,South 214th Street,98198,47.4093411,-122.3335594
222,South 218th Street,98198,47.4073867,-122.3332587
21558,1st Court South,98198,47.4087382,-122.3332887
21005,Marine View Drive Southwest,98166,47.4128914,-122.3375219
21011,Marine View Drive Southwest,98166,47.4128266,-122.3367103
108,Southwest 211th Street,98166,47.4128865,-122.3352710
21003,Marine View Drive Southwest,98166,47.4126144,-122.3379956
21223,Marine View Drive Southwest,98166,47.4116692,-122.3389155
21317,Marine View Drive Southwest,98166,47.4101428,-122.3335087
21321,Marine View Drive Southwest,98166,47.4102748,-122.3356207
21311,Marine View Drive Southwest,98166,47.4102900,-122.3349888
21836,4th Avenue South,98198,47.4058721,-122.3299673
21838,4th Place South,98198,47.4058626,-122.3293655
21824,4th Avenue South,98198,47.4061327,-122.3299701
21609,6th Avenue South,98198,47.4082622,-122.3279827
21626,3rd Avenue South,98198,47.4076472,-122.3314446
21625,5th Avenue South,98198,47.4076744,-122.3293779
21631,4th Avenue South,98198,47.4074936,-122.3307338
21620,5th Avenue South,98198,47.4076108,-122.3287034
21629,4th Place South,98198,47.4075886,-122.3300015
21618,5th Avenue South,98198,47.4079217,-122.3286199
21625,4th Avenue South,98198,47.4077187,-122.3307872
21625,4th Place South,98198,47.4077047,-122.3295094
21619,4th Avenue South,98198,47.4078791,-122.3307372
21619,6th Place South,98198,47.4078451,-122.3270874
21614,6th Avenue South,98198,47.4080252,-122.3273995
21610,5th Avenue South,98198,47.4080827,-122.3286949
21618,4th Place South,98198,47.4080666,-122.3299205
21620,4th Place South,98198,47.4079043,-122.3299842
21617,6th Avenue South,98198,47.4078763,-122.3281074
21618,6th Avenue South,98198,47.4079505,-122.3284049
21608,6th Avenue South,98198,47.4081650,-122.3274198
21609,5th Avenue South,98198,47.4081827,-122.3293240
21613,6th Avenue South,98198,47.4080964,-122.3280456
21609,4th Place South,98198,47.4080502,-122.3294375
21818,4th Avenue South,98198,47.4063246,-122.3299358
21824,4th Place South,98198,47.4061299,-122.3292661
21820,4th Place South,98198,47.4063478,-122.3290504
21825,4th Avenue South,98198,47.4062727,-122.3310778
501,South 218th Street,98198,47.4066593,-122.3288526
21808,4th Avenue South,98198,47.4067011,-122.3299278
21816,4th Avenue South,98198,47.4064803,-122.3299892
21804,4th Avenue South,98198,47.4068276,-122.3298301
322,South 218th Street,98198,47.4072308,-122.3306412
21646,3rd Avenue South,98198,47.4071598,-122.3314544
423,South 218th Street,98198,47.4067127,-122.3291971
323,South 218th Street,98198,47.4068041,-122.3307439
420,South 218th Street,98198,47.4073004,-122.3293338
21636,6th Avenue South,98198,47.4075031,-122.3282544
21634,3rd Avenue South,98198,47.4074265,-122.3314775
408,South 218th Street,98198,47.4072254,-122.3299464
316,South 218th Street,98198,47.4072300,-122.3308833
21630,5th Avenue South,98198,47.4072848,-122.3285995
310,South 218th Street,98198,47.4072058,-122.3312007
401,South 216th Street,98198,47.4083734,-122.3303107
201,South 216th Street,98198,47.4083537,-122.3321537
317,South 216th Street,98198,47.4083331,-122.3306564
207,South 216th Street,98198,47.4083097,-122.3318965
21935,4th Place South,98198,47.4049971,-122.3305031
21933,4th Place South,98198,47.4049228,-122.3301719
311,South 219th Street,98198,47.4054743,-122.3310310
313,South 219th Street,98198,47.4054373,-122.3304848
21904,4th Place South,98198,47.4055324,-122.3292915
315,South 219th Street,98198,47.4055086,-122.3301829
231,South 219th Street,98198,47.4053927,-122.3315925
20013,3rd Avenue Southwest,98166,47.4227022,-122.3388035
20012,3rd Place Southwest,98166,47.4226545,-122.3392103
20002,3rd Avenue Southwest,98166,47.4229258,-122.3381669
20005,3rd Avenue Southwest,98166,47.4229493,-122.3388574
20210,Marine View Drive Southwest,98166,47.4207454,-122.3396076
20014,3rd Avenue Southwest,98166,47.4225871,-122.3381470
20156,Marine View Drive Southwest,98166,47.4210999,-122.3398166
20202,Marine View Drive Southwest,98166,47.4211475,-122.3393966
111,Southwest 202nd Street,98166,47.4207082,-122.3359301
105,Southwest 202nd Street,98166,47.4207129,-122.3356280
125,Southwest 202nd Street,98166,47.4207107,-122.3365457
133,Southwest 202nd Street,98166,47.4206924,-122.3368500
149,Southwest 202nd Street,98166,47.4207168,-122.3374776
143,Southwest 202nd Street,98166,47.4207147,-122.3371140
20024,3rd Place Southwest,98166,47.4223111,-122.3392847
606,Southwest 201st Street,98166,47.4227259,-122.3432261
20119,1st Avenue South,98198,47.4216274,-122.3356519
20120,2nd Avenue Southwest,98166,47.4217461,-122.3373445
142,Southwest 202nd Street,98166,47.4211837,-122.3371026
148,Southwest 202nd Street,98166,47.4211344,-122.3374374
104,Southwest 202nd Street,98166,47.4211402,-122.3356271
134,Southwest 202nd Street,98166,47.4211394,-122.3368192
126,Southwest 202nd Street,98166,47.4211775,-122.3365281
112,Southwest 202nd Street,98166,47.4211562,-122.3359362
20645,10th Place Southwest,98166,47.4168386,-122.3477104
20671,10th Place Southwest,98166,47.4162228,-122.3457418
20500,10th Place Southwest,98166,47.4177266,-122.3482419
805,Southwest 205th Street,98166,47.4186488,-122.3452307
20477,10th Place Southwest,98166,47.4181761,-122.3481678
20601,6th Avenue Southwest,98166,47.4182190,-122.3442536
20505,7th Avenue Southwest,98166,47.4185573,-122.3446673
807,Southwest 207th Place,98166,47.4152909,-122.3451464
20136,Marine View Drive Southwest,98166,47.4217635,-122.3406406
20166,Marine View Drive Southwest,98166,47.4210379,-122.3401781
20105,4th Avenue Southwest,98166,47.4224249,-122.3407155
20125,4th Avenue Southwest,98166,47.4220809,-122.3406395
20010,Marine View Drive Southwest,98166,47.4229335,-122.3419823
20029,1st Place Southwest,98166,47.4224441,-122.3368131
618,Southwest 201st Street,98166,47.4227831,-122.3437214
611,Southwest 201st Street,98166,47.4223257,-122.3436420
617,Southwest 201st Street,98166,47.4216931,-122.3436633
21621,3rd Avenue South,98198,47.4079051,-122.3326282
101,South 214th Street,98198,47.4093676,-122.3347863
103,South 214th Street,98198,47.4091557,-122.3345250
21009,Marine View Drive Southwest,98166,47.4126466,-122.3370910
21333,Marine View Drive Southwest,98166,47.4098966,-122.3369110
177,South 216th Street,98198,47.4082526,-122.3330936
21303,Marine View Drive Southwest,98166,47.4105357,-122.3343004
206,South 218th Street,98198,47.4078246,-122.3338239
123,South 216th Place,98198,47.4079421,-122.3329412
111,South 214th Street,98198,47.4095233,-122.3338093
204,South 218th Street,98198,47.4080285,-122.3341048
21553,1st Court South,98198,47.4089495,-122.3342070
21557,1st Court South,98198,47.4088599,-122.3339310
21637,3rd Avenue South,98198,47.4074300,-122.3323535
21629,3rd Avenue South,98198,47.4076987,-122.3325409
119,Southwest 202nd Street,98166,47.4207203,-122.3362389
20201,Marine View Drive Southwest,98166,47.4209600,-122.3418685
20205,Marine View Drive Southwest,98166,47.4208767,-122.3410986
20206,Marine View Drive Southwest,98166,47.4206504,-122.3391414
20207,Marine View Drive Southwest,98166,47.4207434,-122.3417246
20004,3rd Place Southwest,98166,47.4229840,-122.3393675
20003,3rd Place Southwest,98166,47.4229451,-122.3399873
411,Southwest 200th Street,98166,47.4229923,-122.3409589
405,Southwest 200th Street,98166,47.4229687,-122.3406504
20005,1st Avenue South,98198,47.4230310,-122.3356674
20005,Marine View Drive Southwest,98166,47.4229738,-122.3432344
20014,1st Place Southwest,98166,47.4228596,-122.3362854
20012,1st Place Southwest,98166,47.4228984,-122.3360157
419,Southwest 200th Street,98166,47.4229789,-122.3412732
427,Southwest 200th Street,98166,47.4229680,-122.3416084
20037,3rd Avenue Southwest,98166,47.4219839,-122.3388830
20038,3rd Avenue Southwest,98166,47.4219050,-122.3381030
20041,3rd Place Southwest,98166,47.4218676,-122.3398798
20123,Marine View Drive Southwest,98166,47.4218223,-122.3417336
555,Southwest 201st Street,98166,47.4215420,-122.3429309
20061,3rd Place Southwest,98166,47.4215468,-122.3391817
20146,Marine View Drive Southwest,98166,47.4215042,-122.3406308
20058,3rd Avenue Southwest,98166,47.4215226,-122.3388283
20050,3rd Avenue Southwest,98166,47.4216216,-122.3383411
20129,Marine View Drive Southwest,98166,47.4215977,-122.3415764
20053,3rd Place Southwest,98166,47.4215699,-122.3397045
20145,Marine View Drive Southwest,98166,47.4213464,-122.3413850
20131,Marine View Drive Southwest,98166,47.4213040,-122.3422379
20121,Marine View Drive Southwest,98166,47.4214451,-122.3424416
20203,Marine View Drive Southwest,98166,47.4211334,-122.3412920
20133,Marine View Drive Southwest,98166,47.4211504,-122.3419461
118,Southwest 202nd Street,98166,47.4211442,-122.3362395
20069,2nd Avenue Southwest,98166,47.4212360,-122.3382900
20016,Marine View Drive Southwest,98166,47.4226723,-122.3415861
20021,1st Place Southwest,98166,47.4226598,-122.3368914
20015,3rd Place Southwest,98166,47.4226088,-122.3399817
20015,Marine View Drive Southwest,98166,47.4227189,-122.3426974
20015,4th Avenue Southwest,98166,47.4226962,-122.3406582
20025,3rd Avenue Southwest,98166,47.4223865,-122.3387985
601,Southwest 201st Street,98166,47.4223221,-122.3430067
20106,Marine View Drive Southwest,98166,47.4223485,-122.3413466
20028,1st Place Southwest,98166,47.4224605,-122.3363578
20126,Marine View Drive Southwest,98166,47.4221237,-122.3411136
20026,3rd Avenue Southwest,98166,47.4221638,-122.3381616
501,Southwest 201st Street,98166,47.4223507,-122.3425374
20107,Marine View Drive Southwest,98166,47.4223159,-122.3421675
20029,3rd Place Southwest,98166,47.4222386,-122.3399194
20107,1st Avenue South,98198,47.4221177,-122.3358995
575,Southwest 201st Street,98166,47.4220504,-122.3429726
20036,3rd Place Southwest,98166,47.4219897,-122.3392652
20119,Marine View Drive Southwest,98166,47.4221013,-122.3419428
613,Southwest 201st Street,98166,47.4220778,-122.3436086
801,Southwest 168th Place,98166,47.4509389,-122.3460544
626,Southwest 185th Street,98166,47.4380498,-122.3435673
618,Southwest 185th Street,98166,47.4380424,-122.3432441
442,Southwest 185th Street,98166,47.4380305,-122.3425893
443,Southwest 185th Street,98166,47.4375458,-122.3426195
607,Southwest 185th Street,98166,47.4375457,-122.3429480
435,Southwest 185th Street,98166,47.4375218,-122.3422895
606,Southwest 185th Street,98166,47.4380283,-122.3429196
640,Southwest 185th Street,98166,47.4380331,-122.3442162
641,Southwest 185th Street,98166,47.4375656,-122.3442215
633,Southwest 185th Street,98166,47.4375001,-122.3439223
627,Southwest 185th Street,98166,47.4375032,-122.3435698
420,Southwest 189th Place,98166,47.4340428,-122.3422971
19909,Marine View Drive Southwest,98166,47.4236553,-122.3440239
192,Southwest 200th Street,98166,47.4250270,-122.3385234
194,Southwest 200th Street,98166,47.4250430,-122.3386059
196,Southwest 200th Street,98166,47.4250591,-122.3386886
200,Southwest 200th Street,98166,47.4248019,-122.3388154
202,Southwest 200th Street,98166,47.4247417,-122.3388756
204,Southwest 200th Street,98166,47.4246817,-122.3389359
208,Southwest 200th Street,98166,47.4244928,-122.3389176
210,Southwest 200th Street,98166,47.4244435,-122.3389132
212,Southwest 200th Street,98166,47.4243942,-122.3389087
218,Southwest 200th Street,98166,47.4241687,-122.3388783
226,Southwest 200th Street,98166,47.4239053,-122.3389076
224,Southwest 200th Street,98166,47.4239573,-122.3389126
222,Southwest 200th Street,98166,47.4240094,-122.3389176
228,Southwest 200th Street,98166,47.4238181,-122.3387023
230,Southwest 200th Street,98166,47.4238384,-122.3386249
232,Southwest 200th Street,98166,47.4238589,-122.3385474
152,Southwest 200th Street,98166,47.4234680,-122.3379719
154,Southwest 200th Street,98166,47.4235259,-122.3379948
156,Southwest 200th Street,98166,47.4235838,-122.3380176
166,Southwest 200th Street,98166,47.4239822,-122.3380139
164,Southwest 200th Street,98166,47.4239108,-122.3380304
162,Southwest 200th Street,98166,47.4238395,-122.3380469
168,Southwest 200th Street,98166,47.4241124,-122.3380141
170,Southwest 200th Street,98166,47.4241837,-122.3380341
172,Southwest 200th Street,98166,47.4242549,-122.3380540
176,Southwest 200th Street,98166,47.4244439,-122.3380598
178,Southwest 200th Street,98166,47.4245018,-122.3380872
180,Southwest 200th Street,98166,47.4245598,-122.3381146
184,Southwest 200th Street,98166,47.4247699,-122.3381093
186,Southwest 200th Street,98166,47.4248339,-122.3381586
188,Southwest 200th Street,98166,47.4248980,-122.3382080
18317,2nd Avenue Southwest,98166,47.4385771,-122.3376808
19231,1st Avenue South,98148,47.4304686,-122.3362043
19221,1st Avenue South,98148,47.4306930,-122.3361517
18971,Edgecliff Drive Southwest,98166,47.4312373,-122.3505270
17423,2nd Avenue Southwest,98166,47.4467482,-122.3372705
131,Southwest 171st Street,98166,47.4493836,-122.3351698
111,Southwest 166th Place,98166,47.4535942,-122.3345080
16648,6th Avenue Southwest,98166,47.4526542,-122.3392004
535,Southwest 171st Place,98166,47.4497389,-122.3417302
16849,12th Avenue Southwest,98166,47.4517747,-122.3520697
1620,Southwest Miller Creek Road,98166,47.4447874,-122.3576006
1677,Southwest 176th Street,98166,47.4448431,-122.3595200
1667,Southwest 176th Street,98166,47.4450243,-122.3584148
1661,Southwest 176th Street,98166,47.4448553,-122.3582322
1683,Southwest 176th Street,98166,47.4450397,-122.3597518
1673,Southwest 176th Street,98166,47.4443482,-122.3594626
1415,Southwest 168th Street,98166,47.4521290,-122.3539518
16830,16th Avenue Southwest,98166,47.4515282,-122.3538719
1321,Southwest 168th Street,98166,47.4521577,-122.3526087
426,Southwest 175th Place,98166,47.4449874,-122.3409038
404,Southwest 175th Place,98166,47.4449787,-122.3396769
408,Southwest 175th Place,98166,47.4450204,-122.3400546
17480,7th Avenue Southwest,98166,47.4450115,-122.3436408
250,Southwest 176th Street,98166,47.4450451,-122.3387654
418,Southwest 175th Place,98166,47.4450162,-122.3404508
600,Southwest 175th Street,98166,47.4450323,-122.3427507
610,Southwest 175th Street,98166,47.4448660,-122.3430422
201,Southwest 176th Street,98166,47.4449585,-122.3363616
434,Southwest 175th Place,98166,47.4448426,-122.3413290
241,Southwest 176th Street,98166,47.4448690,-122.3380943
203,Southwest 176th Street,98166,47.4449670,-122.3369616
441,Southwest 175th Street,98166,47.4449756,-122.3419189
258,Southwest 176th Street,98166,47.4449278,-122.3391202
217,Southwest 176th Place,98166,47.4449778,-122.3373363
442,Southwest 175th Place,98166,47.4446820,-122.3415622
261,Southwest 176th Street,98166,47.4445971,-122.3387354
601,Southwest 175th Street,98166,47.4446423,-122.3424455
400,Southwest 175th Place,98166,47.4448156,-122.3394290
620,Southwest 175th Street,98166,47.4447282,-122.3433660
449,Southwest 175th Street,98166,47.4447835,-122.3420681
204,Southwest 177th Street,98166,47.4445500,-122.3370239
425,Southwest 175th Place,98166,47.4445953,-122.3407389
423,Southwest 175th Place,98166,47.4446195,-122.3403453
222,Southwest 177th Street,98166,47.4445551,-122.3377553
306,Southwest 176th Place,98166,47.4445229,-122.3399813
17443,2nd Avenue Southwest,98166,47.4459484,-122.3369856
17430,1st Place Southwest,98166,47.4459583,-122.3348603
17427,1st Place Southwest,98166,47.4459508,-122.3354891
17433,2nd Avenue Southwest,98166,47.4462238,-122.3370407
17423,1st Place Southwest,98166,47.4461915,-122.3355092
17442,4th Avenue Southwest,98166,47.4461459,-122.3386301
17439,4th Avenue Southwest,98166,47.4461345,-122.3397758
17443,4th Avenue Southwest,98166,47.4456791,-122.3403324
17431,1st Place Southwest,98166,47.4456711,-122.3355291
17448,6th Avenue Southwest,98166,47.4456816,-122.3412278
17428,7th Place Southwest,98166,47.4457917,-122.3432734
17444,4th Avenue Southwest,98166,47.4459025,-122.3382831
17435,6th Avenue Southwest,98166,47.4458109,-122.3422682
17454,4th Avenue Southwest,98166,47.4455382,-122.3386478
226,Southwest 176th Street,98166,47.4456591,-122.3369861
200,Southwest 176th Street,98166,47.4453941,-122.3357170
17460,4th Avenue Southwest,98166,47.4454619,-122.3390981
17434,1st Place Southwest,98166,47.4456779,-122.3348121
242,Southwest 176th Street,98166,47.4456680,-122.3375044
17451,4th Avenue Southwest,98166,47.4457024,-122.3394461
17455,6th Avenue Southwest,98166,47.4452725,-122.3424643
238,Southwest 176th Street,98166,47.4453661,-122.3377191
17447,4th Avenue Southwest,98166,47.4453532,-122.3403220
17440,7th Place Southwest,98166,47.4452766,-122.3431008
102,Southwest 176th Street,98166,47.4453786,-122.3347786
1400,Southwest 171st Place,98166,47.4498720,-122.3536217
17030,Sylvester Road Southwest,98166,47.4495854,-122.3516775
17077,12th Place Southwest,98166,47.4491133,-122.3544346
17201,Sylvester Road Southwest,98166,47.4486822,-122.3540636
1307,Southwest 172nd Street,98166,47.4481414,-122.3519216
17220,Sylvester Road Southwest,98166,47.4481516,-122.3540565
1358,Southwest 174th Street,98166,47.4473810,-122.3541836
1348,Southwest 174th Street,98166,47.4475081,-122.3537679
17225,13th Avenue Southwest,98166,47.4476937,-122.3519783
1127,Southwest 174th Place,98166,47.4475192,-122.3494338
1217,Southwest 174th Place,98166,47.4469529,-122.3503652
17522,13th Avenue Southwest,98166,47.4458202,-122.3515887
17011,11th Place Southwest,98166,47.4497957,-122.3494107
17021,11th Place Southwest,98166,47.4494495,-122.3494177
17020,Sylvester Road Southwest,98166,47.4492520,-122.3503640
17034,Sylvester Road Southwest,98166,47.4490513,-122.3507156
17041,11th Place Southwest,98166,47.4489414,-122.3499723
1006,Southwest 174th Place,98166,47.4489215,-122.3494725
1310,Southwest 172nd Street,98166,47.4485650,-122.3510892
1324,Southwest 172nd Street,98166,47.4486013,-122.3526174
19725,1st Place Southwest,98166,47.4257759,-122.3376839
256,Southwest 171st Street,98166,47.4497300,-122.3391548
19718,1st Place Southwest,98166,47.4255928,-122.3369134
17107,2nd Avenue Southwest,98166,47.4496088,-122.3370903
210,Southwest 197th Place,98166,47.4257895,-122.3383290
106,Southwest 171st Street,98166,47.4499520,-122.3348716
19743,1st Avenue South,98148,47.4258496,-122.3359648
404,Southwest 171st Place,98166,47.4497328,-122.3401398
19682,Marine View Drive Southwest,98166,47.4259891,-122.3429380
424,Southwest 171st Place,98166,47.4497786,-122.3407332
19715,1st Place Southwest,98166,47.4259248,-122.3372721
414,Southwest 171st Place,98166,47.4494112,-122.3402637
235,Southwest 197th Place,98166,47.4253876,-122.3391039
17110,2nd Avenue Southwest,98166,47.4494749,-122.3362792
215,Southwest 197th Place,98166,47.4254187,-122.3381700
235,Southwest 171st Street,98166,47.4494373,-122.3381414
19720,1st Place Southwest,98166,47.4254509,-122.3371924
107,Southwest 171st Street,98166,47.4494379,-122.3346666
19740,1st Place Southwest,98166,47.4254330,-122.3377607
19800,4th Avenue Southwest,98166,47.4254984,-122.3401607
225,Southwest 171st Street,98166,47.4495581,-122.3376051
525,Southwest 171st Place,98166,47.4494435,-122.3415592
121,Southwest 171st Street,98166,47.4491559,-122.3349839
515,Southwest 171st Place,98166,47.4491540,-122.3415824
206,Southwest 200th Street,98166,47.4246215,-122.3389961
17105,4th Avenue Southwest,98166,47.4491415,-122.3397516
190,Southwest 200th Street,98166,47.4249621,-122.3382575
505,Southwest 171st Place,98166,47.4491215,-122.3410242
460,Southwest 171st Place,98166,47.4493679,-122.3406732
198,Southwest 200th Street,98166,47.4250751,-122.3387712
17121,2nd Avenue Southwest,98166,47.4492389,-122.3370937
225,Southwest 197th Place,98166,47.4253773,-122.3386445
255,Southwest 171st Street,98166,47.4492640,-122.3388191
463,Southwest 171st Place,98166,47.4489204,-122.3402597
17125,2nd Avenue Southwest,98166,47.4489138,-122.3370649
220,Southwest 200th Street,98166,47.4243208,-122.3385982
17223,1st Avenue South,98148,47.4487710,-122.3344988
214,Southwest 200th Street,98166,47.4243448,-122.3389042
17125,1st Avenue South,98148,47.4489033,-122.3345531
17118,2nd Avenue Southwest,98166,47.4491586,-122.3362465
17128,2nd Avenue Southwest,98166,47.4489469,-122.3363621
17124,4th Avenue Southwest,98166,47.4489239,-122.3384191
182,Southwest 200th Street,98166,47.4246177,-122.3381420
1120,Southwest Normandy Terrace,98166,47.4430478,-122.3494276
19655,1st Avenue South,98148,47.4268356,-122.3360579
17808,Marine View Drive Southwest,98166,47.4430568,-122.3479800
19620,4th Avenue Southwest,98166,47.4269743,-122.3404014
17478,7th Avenue Southwest,98166,47.4448119,-122.3438470
19575,4th Avenue Southwest,98166,47.4270940,-122.3425106
17626,7th Place Southwest,98166,47.4430369,-122.3443228
19553,4th Avenue Southwest,98166,47.4270748,-122.3417038
17823,7th Place Southwest,98166,47.4431728,-122.3449074
245,Southwest 196th Place,98166,47.4271252,-122.3398348
850,Southwest Normandy Terrace,98166,47.4432563,-122.3455406
19600,1st Place Southwest,98166,47.4271243,-122.3368796
1122,Southwest Normandy Terrace,98166,47.4431045,-122.3498095
19455,4th Avenue Southwest,98166,47.4273811,-122.3411307
19461,1st Place Southwest,98166,47.4273891,-122.3378532
1130,Southwest Normandy Terrace,98166,47.4430649,-122.3501438
406,Southwest 197th Street,98166,47.4267406,-122.3432280
1111,Southwest Shorebrook Drive,98166,47.4431091,-122.3490196
404,Southwest 197th Street,98166,47.4267444,-122.3427616
1144,Southwest Normandy Terrace,98166,47.4429929,-122.3508016
400,Southwest 197th Street,98166,47.4267902,-122.3418427
1138,Southwest Normandy Terrace,98166,47.4430370,-122.3504394
402,Southwest 197th Street,98166,47.4267778,-122.3422593
649,Southwest 175th Street,98166,47.4438144,-122.3438390
19630,4th Avenue Southwest,98166,47.4268567,-122.3397671
638,Southwest 175th Street,98166,47.4443713,-122.3438162
19615,1st Place Southwest,98166,47.4268206,-122.3373770
17551,6th Place Southwest,98166,47.4429585,-122.3437900
17521,6th Place Southwest,98166,47.4432317,-122.3438275
19610,1st Place Southwest,98166,47.4268861,-122.3367296
17623,1st Avenue South,98148,47.4447303,-122.3351834
405,Southwest 197th Street,98166,47.4263616,-122.3424118
17231,6th Place Southwest,98166,47.4471025,-122.3436296
409,Southwest 197th Street,98166,47.4263671,-122.3433855
250,Southwest 197th Place,98166,47.4264872,-122.3397625
17635,1st Avenue South,98148,47.4439319,-122.3350646
19650,4th Avenue Southwest,98166,47.4263782,-122.3403530
222,Southwest 171st Street,98166,47.4502503,-122.3377407
19617,4th Avenue Southwest,98166,47.4265538,-122.3411045
252,Southwest 171st Street,98166,47.4503707,-122.3397115
19625,1st Place Southwest,98166,47.4265293,-122.3373280
17221,6th Place Southwest,98166,47.4475288,-122.3436474
19640,4th Avenue Southwest,98166,47.4266487,-122.3403732
17209,6th Place Southwest,98166,47.4478244,-122.3437256
19620,1st Place Southwest,98166,47.4265936,-122.3366458
400,Southwest 171st Place,98166,47.4499696,-122.3398453
19711,4th Avenue Southwest,98166,47.4260081,-122.3416193
104,Southwest 171st Street,98166,47.4500344,-122.3343385
19682,Marine View Drive Southwest,98166,47.4260129,-122.3435238
248,Southwest 171st Street,98166,47.4499684,-122.3389221
230,Southwest 197th Place,98166,47.4259777,-122.3392161
19721,4th Avenue Southwest,98166,47.4259988,-122.3422520
236,Southwest 171st Street,98166,47.4500938,-122.3385248
240,Southwest 197th Place,98166,47.4262775,-122.3395099
126,Southwest 171st Street,98166,47.4501031,-122.3352636
403,Southwest 197th Street,98166,47.4262868,-122.3419327
19691,4th Avenue Southwest,98166,47.4263052,-122.3411367
403,Southwest 174th Street,98166,47.4470611,-122.3398271
17407,1st Place Southwest,98166,47.4472459,-122.3360657
17406,4th Avenue Southwest,98166,47.4472233,-122.3384921
17410,1st Place Southwest,98166,47.4472321,-122.3350957
17166,6th Place Southwest,98166,47.4472800,-122.3426644
17417,4th Avenue Southwest,98166,47.4467937,-122.3397020
427,Southwest 174th Street,98166,47.4468837,-122.3409101
17414,1st Place Southwest,98166,47.4470012,-122.3350732
17415,2nd Avenue Southwest,98166,47.4470170,-122.3370886
17411,1st Place Southwest,98166,47.4469723,-122.3359050
17416,6th Avenue Southwest,98166,47.4465244,-122.3410040
19420,Marine View Drive Southwest,98166,47.4290898,-122.3458490
645,Southwest 174th Street,98166,47.4466082,-122.3431605
819,Southwest Crescent Road,98166,47.4341065,-122.3469925
17422,1st Place Southwest,98166,47.4464859,-122.3349209
18825,6th Avenue Southwest,98166,47.4336435,-122.3446169
17429,2nd Avenue Southwest,98166,47.4464619,-122.3372486
17403,6th Avenue Southwest,98166,47.4467159,-122.3421489
19603,Marine View Drive Southwest,98166,47.4273035,-122.3492610
17418,1st Place Southwest,98166,47.4467301,-122.3349511
17422,4th Avenue Southwest,98166,47.4467098,-122.3386957
17415,1st Place Southwest,98166,47.4467004,-122.3357175
17426,1st Place Southwest,98166,47.4462326,-122.3348146
17438,6th Avenue Southwest,98166,47.4461831,-122.3410854
17410,7th Place Southwest,98166,47.4461762,-122.3432257
17427,4th Avenue Southwest,98166,47.4464342,-122.3399310
17417,1st Place Southwest,98166,47.4464667,-122.3356815
17419,6th Avenue Southwest,98166,47.4462525,-122.3424236
17440,4th Avenue Southwest,98166,47.4463065,-122.3382202
17141,6th Place Southwest,98166,47.4486372,-122.3422214
19908,Marine View Drive Southwest,98166,47.4240856,-122.3427322
17136,2nd Avenue Southwest,98166,47.4486579,-122.3363623
19903,4th Avenue Southwest,98166,47.4240962,-122.3414260
17140,2nd Avenue Southwest,98166,47.4485385,-122.3358520
19901,4th Avenue Southwest,98166,47.4241203,-122.3408028
17202,4th Avenue Southwest,98166,47.4485750,-122.3383056
19905,4th Avenue Southwest,98166,47.4240738,-122.3420653
216,Southwest 200th Street,98166,47.4242425,-122.3388828
17144,6th Place Southwest,98166,47.4486953,-122.3417242
17137,2nd Avenue Southwest,98166,47.4486447,-122.3372727
174,Southwest 200th Street,98166,47.4243260,-122.3380739
17149,6th Place Southwest,98166,47.4482668,-122.3424052
19906,Marine View Drive Southwest,98166,47.4237697,-122.3430619
17215,2nd Avenue Southwest,98166,47.4482751,-122.3376228
17206,4th Avenue Southwest,98166,47.4480882,-122.3383091
19907,4th Avenue Southwest,98166,47.4237552,-122.3408873
17200,2nd Avenue Southwest,98166,47.4481567,-122.3362800
19910,Marine View Drive Southwest,98166,47.4237895,-122.3425291
17200,4th Avenue Southwest,98166,47.4484138,-122.3391507
17159,4th Avenue Southwest,98166,47.4484860,-122.3399517
19909,4th Avenue Southwest,98166,47.4238036,-122.3414566
17207,2nd Avenue Southwest,98166,47.4482428,-122.3369929
220,Southwest 200th Street,98166,47.4240614,-122.3389226
17150,6th Place Southwest,98166,47.4483230,-122.3414394
160,Southwest 200th Street,98166,47.4237681,-122.3380634
17158,6th Place Southwest,98166,47.4480670,-122.3414444
17164,6th Place Southwest,98166,47.4477538,-122.3414884
17169,6th Place Southwest,98166,47.4478608,-122.3428740
17159,6th Place Southwest,98166,47.4480123,-122.3426981
404,Southwest 200th Street,98166,47.4234405,-122.3406947
17212,4th Avenue Southwest,98166,47.4480198,-122.3389045
17217,4th Avenue Southwest,98166,47.4479418,-122.3404057
158,Southwest 200th Street,98166,47.4236418,-122.3380405
416,Southwest 174th Street,98166,47.4474929,-122.3403430
17402,1st Place Southwest,98166,47.4475627,-122.3355194
17248,4th Avenue Southwest,98166,47.4473683,-122.3372967
434,Southwest 174th Street,98166,47.4474487,-122.3409746
17228,4th Avenue Southwest,98166,47.4476822,-122.3382585
17226,4th Avenue Southwest,98166,47.4476626,-122.3388076
17400,1st Place Southwest,98166,47.4475609,-122.3350456
17333,4th Avenue Southwest,98166,47.4475444,-122.3398906
1865,Southwest Miller Creek Road,98166,47.4439203,-122.3581205
1655,Southwest Miller Creek Road,98166,47.4442217,-122.3577982
1645,Southwest Miller Creek Road,98166,47.4443025,-122.3574058
1615,Southwest Miller Creek Road,98166,47.4447482,-122.3563261
16625,1st Avenue South,98148,47.4529528,-122.3353916
16261,1st Avenue South,98148,47.4564853,-122.3351713
16261,1st Avenue South,98148,47.4565240,-122.3355925
103,Southwest 171st Street,98166,47.4492429,-122.3343331
137,Southwest 178th Street,98166,47.4431535,-122.3358518
17403,1st Place Southwest,98166,47.4476030,-122.3362113
16323,1st Avenue South,98148,47.4559394,-122.3343225
1359,Southwest 175th Street,98166,47.4455021,-122.3550519
17515,16th Avenue Southwest,98166,47.4452961,-122.3559945
1521,Southwest 175th Street,98166,47.4453216,-122.3553818
19439,4th Avenue Southwest,98166,47.4279212,-122.3411746
19432,4th Avenue Southwest,98166,47.4278958,-122.3404786
648,Southwest 175th Street,98166,47.4441602,-122.3442159
17755,Marine View Drive Southwest,98166,47.4442404,-122.3486106
16415,3rd Avenue Southwest,98166,47.4548171,-122.3379174
408,Southwest 197th Street,98166,47.4267351,-122.3436468
208,Southwest 196th Place,98166,47.4280074,-122.3384763
19450,Normandy Park Drive Southwest,98166,47.4274673,-122.3436016
17804,Marine View Drive Southwest,98166,47.4439367,-122.3470922
17750,Marine View Drive Southwest,98166,47.4439768,-122.3476373
19420,Normandy Park Drive Southwest,98166,47.4278195,-122.3428995
1120,Southwest Shorebrook Drive,98166,47.4438930,-122.3492472
19439,1st Avenue South,98148,47.4278862,-122.3362720
19453,4th Place Southwest,98166,47.4278477,-122.3417217
17487,7th Avenue Southwest,98166,47.4441297,-122.3448183
19434,Normandy Park Drive Southwest,98166,47.4278544,-122.3435491
19408,Normandy Park Drive Southwest,98166,47.4279138,-122.3425598
17760,Marine View Drive Southwest,98166,47.4440356,-122.3479258
238,Southwest 196th Place,98166,47.4278978,-122.3400745
1148,Southwest Shorebrook Drive,98166,47.4436791,-122.3508203
19439,1st Avenue South,98148,47.4276545,-122.3361940
1138,Southwest Shorebrook Drive,98166,47.4436996,-122.3497975
225,Southwest 196th Place,98166,47.4276449,-122.3393022
17770,Marine View Drive Southwest,98166,47.4436211,-122.3481141
19439,1st Avenue South,98148,47.4276743,-122.3366549
17780,Marine View Drive Southwest,98166,47.4436469,-122.3477234
215,Southwest 196th Place,98166,47.4276253,-122.3388072
19455,1st Place Southwest,98166,47.4276556,-122.3379279
17493,7th Avenue Southwest,98166,47.4438194,-122.3446613
19447,4th Avenue Southwest,98166,47.4276569,-122.3411560
17802,Marine View Drive Southwest,98166,47.4437017,-122.3471716
19451,1st Place Southwest,98166,47.4278394,-122.3375748
1104,Southwest Shorebrook Drive,98166,47.4437533,-122.3486940
19446,1st Place Southwest,98166,47.4278213,-122.3370900
855,Southwest Normandy Terrace,98166,47.4433727,-122.3458834
19436,Normandy Park Drive Southwest,98166,47.4274803,-122.3430203
17815,7th Place Southwest,98166,47.4433732,-122.3449149
17616,7th Place Southwest,98166,47.4432207,-122.3443326
19428,Normandy Park Drive Southwest,98166,47.4274882,-122.3422961
17501,7th Avenue Southwest,98166,47.4435950,-122.3448307
19458,1st Place Southwest,98166,47.4275397,-122.3370254
1140,Southwest Shorebrook Drive,98166,47.4436501,-122.3503049
235,Southwest 196th Place,98166,47.4274818,-122.3396558
19439,1st Avenue South,98148,47.4275377,-122.3358707
17800,Marine View Drive Southwest,98166,47.4434433,-122.3474835
250,Southwest 196th Place,98166,47.4275492,-122.3404158
120,Southwest 164th Place,98166,47.4556977,-122.3349812
458,Southwest 174th Street,98166,47.4473720,-122.3417319
434,Southwest 171st Place,98166,47.4502442,-122.3409967
230,Southwest 164th Place,98166,47.4556579,-122.3367637
202,Southwest 164th Place,98166,47.4556625,-122.3356548
17210,2nd Avenue Southwest,98166,47.4480273,-122.3355084
231,Southwest 176th Street,98166,47.4449558,-122.3376449
202,Southwest 178th Street,98166,47.4436819,-122.3370983
242,Southwest 164th Place,98166,47.4553776,-122.3374419
210,Southwest 178th Street,98166,47.4436336,-122.3374587
110,Southwest 164th Place,98166,47.4556403,-122.3343349
251,Southwest 176th Street,98166,47.4447513,-122.3384262
17450,4th Avenue Southwest,98166,47.4455284,-122.3382208
232,Southwest 164th Place,98166,47.4555160,-122.3370943
17402,6th Avenue Southwest,98166,47.4468032,-122.3414104
16409,2nd Avenue Southwest,98166,47.4551501,-122.3358441
16400,3rd Avenue Southwest,98166,47.4551139,-122.3367677
16403,3rd Avenue Southwest,98166,47.4552290,-122.3381707
129,Southwest 164th Place,98166,47.4552143,-122.3351011
115,Southwest 164th Place,98166,47.4552109,-122.3346250
228,Southwest 196th Place,98166,47.4280280,-122.3396374
16431,2nd Avenue Southwest,98166,47.4549318,-122.3362801
117,Southwest 164th Place,98166,47.4548739,-122.3346076
19451,4th Place Southwest,98166,47.4280095,-122.3421515
210,Southwest 196th Place,98166,47.4280416,-122.3389906
103,Southwest 194th Place,98166,47.4280901,-122.3360154
16410,2nd Avenue Southwest,98166,47.4549533,-122.3352227
16405,3rd Avenue Southwest,98166,47.4549966,-122.3378838
17020,16th Avenue Southwest,98166,47.4503467,-122.3548438
1941,Southwest 170th Street,98166,47.4503923,-122.3593958
1831,Southwest 170th Street,98166,47.4498901,-122.3577293
1623,Southwest 170th Street,98166,47.4500708,-122.3564684
2141,Southwest 170th Street,98166,47.4498966,-122.3619030
1901,Southwest 170th Street,98166,47.4503395,-122.3583277
2129,Southwest 170th Street,98166,47.4500833,-122.3614573
1923,Southwest 170th Street,98166,47.4494642,-122.3583894
2139,Southwest 170th Street,98166,47.4495705,-122.3612806
17055,16th Avenue Southwest,98166,47.4493869,-122.3556367
1907,Southwest 170th Street,98166,47.4498671,-122.3583005
1825,Southwest 170th Street,98166,47.4498136,-122.3573124
1933,Southwest 170th Street,98166,47.4496581,-122.3596289
1394,Southwest 174th Street,98166,47.4470379,-122.3553238
1369,Southwest 174th Street,98166,47.4468021,-122.3550121
17060,21st Avenue Southwest,98166,47.4489615,-122.3600855
17029,21st Avenue Southwest,98166,47.4490864,-122.3608050
1927,Southwest 170th Street,98166,47.4489161,-122.3587768
17056,21st Avenue Southwest,98166,47.4489203,-122.3603944
1929,Southwest 170th Street,98166,47.4491705,-122.3592350
1931,Southwest 170th Street,98166,47.4493387,-122.3596093
17053,16th Avenue Southwest,98166,47.4491449,-122.3559164
1925,Southwest 170th Street,98166,47.4491345,-122.3584397
17063,16th Avenue Southwest,98166,47.4486539,-122.3562080
17244,Sylvester Road Southwest,98166,47.4478177,-122.3548958
17260,Sylvester Road Southwest,98166,47.4477281,-122.3553342
16801,10th Avenue Southwest,98166,47.4522965,-122.3476685
16811,10th Avenue Southwest,98166,47.4523012,-122.3479021
451,Southwest 175th Place,98166,47.4442935,-122.3413551
240,Southwest 177th Street,98166,47.4442827,-122.3384652
17605,3rd Place Southwest,98166,47.4442458,-122.3395484
458,Southwest 175th Place,98166,47.4443648,-122.3421638
623,Southwest 175th Street,98166,47.4442930,-122.3430143
360,Southwest 176th Street,98166,47.4443457,-122.3403402
459,Southwest 175th Place,98166,47.4441243,-122.3416312
633,Southwest 175th Street,98166,47.4441775,-122.3432841
142,Southwest 178th Street,98166,47.4441111,-122.3365102
357,Southwest 176th Place,98166,47.4441308,-122.3398993
466,Southwest 175th Place,98166,47.4442114,-122.3424595
17616,3rd Place Southwest,98166,47.4441837,-122.3388002
328,Southwest 176th Place,98166,47.4442033,-122.3406469
641,Southwest 175th Street,98166,47.4440133,-122.3435703
380,Southwest 176th Place,98166,47.4440295,-122.3409501
17651,1st Avenue South,98148,47.4438736,-122.3346419
17665,3rd Place Southwest,98166,47.4439632,-122.3393319
602,Southwest 175th Place,98166,47.4440659,-122.3426525
213,Southwest 177th Street,98166,47.4441261,-122.3373704
205,Southwest 177th Street,98166,47.4440655,-122.3369902
225,Southwest 177th Street,98166,47.4440920,-122.3377457
612,Southwest 175th Place,98166,47.4438636,-122.3429345
146,Southwest 178th Street,98166,47.4438775,-122.3365880
601,Southwest 175th Place,98166,47.4438143,-122.3422205
320,Southwest 177th Street,98166,47.4438312,-122.3396096
231,Southwest 177th Street,98166,47.4439485,-122.3381193
363,Southwest 176th Place,98166,47.4439609,-122.3401708
388,Southwest 176th Place,98166,47.4438500,-122.3412419
467,Southwest 175th Place,98166,47.4439702,-122.3419027
1432,Southwest 170th Street,98166,47.4510202,-122.3539519
1502,Southwest 170th Street,98166,47.4510197,-122.3543855
16844,12th Avenue Southwest,98166,47.4510941,-122.3508495
16856,11th Place Southwest,98166,47.4510423,-122.3482211
16853,12th Avenue Southwest,98166,47.4511344,-122.3515750
16832,12th Avenue Southwest,98166,47.4513738,-122.3506628
16856,12th Avenue Southwest,98166,47.4506267,-122.3511803
1408,Southwest 170th Street,98166,47.4508757,-122.3530998
1202,Southwest 170th Street,98166,47.4508484,-122.3519679
1212,Southwest 170th Street,98166,47.4508829,-122.3527091
16850,12th Avenue Southwest,98166,47.4508663,-122.3510557
1410,Southwest 170th Street,98166,47.4509092,-122.3535850
468,Southwest 175th Place,98166,47.4445099,-122.3418225
1425,Southwest 170th Street,98166,47.4504438,-122.3537799
1429,Southwest 170th Street,98166,47.4504843,-122.3541590
16915,11th Place Southwest,98166,47.4506317,-122.3491284
17606,3rd Place Southwest,98166,47.4444458,-122.3390383
613,Southwest 175th Street,98166,47.4444726,-122.3427627
230,Southwest 177th Street,98166,47.4444277,-122.3381734
443,Southwest 175th Place,98166,47.4444458,-122.3410864
630,Southwest 175th Street,98166,47.4445044,-122.3435698
212,Southwest 177th Street,98166,47.4445352,-122.3373223
340,Southwest 178th Street,98166,47.4430792,-122.3389563
335,Southwest 177th Street,98166,47.4431228,-122.3398755
215,Southwest 178th Street,98166,47.4431879,-122.3374517
17812,6th Avenue Southwest,98166,47.4431652,-122.3415919
17532,6th Place Southwest,98166,47.4431245,-122.3431779
145,Southwest 178th Street,98166,47.4431644,-122.3362233
345,Southwest 177th Street,98166,47.4429493,-122.3401481
17833,6th Avenue Southwest,98166,47.4429712,-122.3426681
17803,5th Avenue Southwest,98166,47.4430272,-122.3410183
225,Southwest 178th Street,98166,47.4430367,-122.3377187
17814,6th Avenue Southwest,98166,47.4430132,-122.3418363
328,Southwest 177th Street,98166,47.4436752,-122.3399428
398,Southwest 176th Place,98166,47.4437112,-122.3415528
152,Southwest 178th Street,98166,47.4436671,-122.3364558
17704,3rd Place Southwest,98166,47.4438002,-122.3384015
373,Southwest 176th Place,98166,47.4438013,-122.3404412
622,Southwest 175th Place,98166,47.4437476,-122.3432421
17805,6th Avenue Southwest,98166,47.4435264,-122.3418377
630,Southwest 175th Place,98166,47.4435472,-122.3435496
393,Southwest 176th Place,98166,47.4435024,-122.3410108
218,Southwest 178th Street,98166,47.4435443,-122.3377781
383,Southwest 176th Place,98166,47.4436491,-122.3407016
607,Southwest 175th Place,98166,47.4436624,-122.3424526
17705,3rd Place Southwest,98166,47.4436022,-122.3389550
200,Southwest 178th Street,98166,47.4436540,-122.3367922
17815,6th Avenue Southwest,98166,47.4433997,-122.3420899
17711,3rd Place Southwest,98166,47.4433954,-122.3387690
17804,6th Avenue Southwest,98166,47.4433306,-122.3411982
625,Southwest 175th Place,98166,47.4433386,-122.3429711
334,Southwest 177th Street,98166,47.4434734,-122.3402146
615,Southwest 175th Place,98166,47.4435075,-122.3427092
317,Southwest 177th Street,98166,47.4434039,-122.3392884
226,Southwest 178th Street,98166,47.4434465,-122.3381081
201,Southwest 178th Street,98166,47.4432164,-122.3371465
17825,6th Avenue Southwest,98166,47.4432003,-122.3423983
17801,1st Avenue South,98148,47.4431950,-122.3349724
350,Southwest 177th Street,98166,47.4431768,-122.3407402
325,Southwest 177th Street,98166,47.4432736,-122.3396254
344,Southwest 177th Street,98166,47.4433152,-122.3404558
17721,3rd Place Southwest,98166,47.4432262,-122.3386110
16836,2nd Avenue Southwest,98166,47.4513012,-122.3362959
16820,2nd Avenue Southwest,98166,47.4510765,-122.3346833
16838,2nd Avenue Southwest,98166,47.4512442,-122.3351872
16830,8th Avenue Southwest,98166,47.4517449,-122.3436084
16816,2nd Avenue Southwest,98166,47.4517176,-122.3347668
16901,2nd Avenue Southwest,98166,47.4516105,-122.3369021
133,Southwest 168th Street,98166,47.4517267,-122.3361369
206,Southwest 171st Street,98166,47.4505241,-122.3374921
16846,2nd Avenue Southwest,98166,47.4510593,-122.3363218
17021,1st Avenue South,98148,47.4505557,-122.3347647
16867,2nd Avenue Southwest,98166,47.4508100,-122.3373667
226,Southwest 171st Street,98166,47.4503728,-122.3383387
810,Southwest 168th Place,98166,47.4522234,-122.3451877
16820,8th Avenue Southwest,98166,47.4522204,-122.3445545
16804,12th Avenue Southwest,98166,47.4523128,-122.3497378
820,Southwest 168th Place,98166,47.4522320,-122.3456278
16814,12th Avenue Southwest,98166,47.4519530,-122.3499678
830,Southwest 168th Place,98166,47.4520254,-122.3459492
1239,Southwest 168th Street,98166,47.4521599,-122.3517107
1311,Southwest 168th Street,98166,47.4521702,-122.3521764
1407,Southwest 168th Street,98166,47.4521385,-122.3534325
16851,12th Avenue Southwest,98166,47.4515551,-122.3528704
16844,Sylvester Road Southwest,98166,47.4514474,-122.3473068
16831,12th Avenue Southwest,98166,47.4516536,-122.3511947
16824,12th Avenue Southwest,98166,47.4517529,-122.3495426
16822,8th Avenue Southwest,98166,47.4518335,-122.3445823
809,Southwest 168th Place,98166,47.4517886,-122.3456759
235,Southwest 166th Place,98166,47.4536188,-122.3370118
228,Southwest 166th Place,98166,47.4539728,-122.3364538
223,Southwest 166th Place,98166,47.4535820,-122.3364950
133,Southwest 166th Place,98166,47.4536041,-122.3354050
145,Southwest 166th Place,98166,47.4534711,-122.3358574
16629,2nd Place Southwest,98166,47.4528780,-122.3373776
16621,2nd Place Southwest,98166,47.4531630,-122.3374596
16624,2nd Place Southwest,98166,47.4531486,-122.3369751
16806,6th Avenue Southwest,98166,47.4522469,-122.3403316
16809,8th Avenue Southwest,98166,47.4522773,-122.3432016
16804,6th Avenue Southwest,98166,47.4520531,-122.3407547
16810,6th Avenue Southwest,98166,47.4522025,-122.3396211
16637,2nd Place Southwest,98166,47.4526268,-122.3370225
16433,2nd Avenue Southwest,98166,47.4546192,-122.3359009
16419,3rd Avenue Southwest,98166,47.4546838,-122.3380545
16416,2nd Avenue Southwest,98166,47.4546577,-122.3352452
16437,3rd Avenue Southwest,98166,47.4542496,-122.3379953
16435,1st Avenue South,98148,47.4543287,-122.3348158
148,Southwest 166th Place,98166,47.4540237,-122.3361201
146,Southwest 166th Place,98166,47.4540439,-122.3357970
112,Southwest 166th Place,98166,47.4540784,-122.3345164
238,Southwest 166th Place,98166,47.4541213,-122.3370885
16440,3rd Avenue Southwest,98166,47.4540425,-122.3373548
140,Southwest 194th Street,98166,47.4287303,-122.3379149
19205,1st Avenue South,98148,47.4309149,-122.3364117
135,Southwest 192nd Street,98166,47.4304078,-122.3371850
258,Southwest 193rd Place,98166,47.4300650,-122.3408140
206,Southwest 193rd Place,98166,47.4301162,-122.3387594
204,Southwest 193rd Place,98166,47.4298311,-122.3386080
18646,6th Avenue Southwest,98166,47.4354550,-122.3436011
18718,6th Avenue Southwest,98166,47.4348890,-122.3436696
18646,4th Avenue Southwest,98166,47.4350506,-122.3402109
248,Southwest 192nd Street,98166,47.4315205,-122.3403389
19107,2nd Avenue Southwest,98166,47.4318961,-122.3385519
241,Southwest 191st Street,98166,47.4319340,-122.3400029
259,Southwest 193rd Place,98166,47.4295666,-122.3406456
273,Southwest 193rd Place,98166,47.4295190,-122.3410856
239,Southwest 194th Place,98166,47.4284942,-122.3392787
19301,4th Place Southwest,98166,47.4294129,-122.3424743
416,Southwest 192nd Street,98166,47.4315282,-122.3417596
19103,4th Avenue Southwest,98166,47.4319833,-122.3413664
415,Southwest 191st Street,98166,47.4319517,-122.3417450
445,Southwest 191st Street,98166,47.4318517,-122.3429653
18653,1st Avenue South,98148,47.4349061,-122.3366068
18856,1st Place Southwest,98166,47.4332289,-122.3368490
19035,2nd Place Southwest,98166,47.4318693,-122.3376160
19034,Normandy Park Drive Southwest,98166,47.4320065,-122.3362574
19008,Normandy Park Drive Southwest,98166,47.4326501,-122.3361967
19004,Normandy Park Drive Southwest,98166,47.4328965,-122.3359881
18633,1st Avenue South,98148,47.4352709,-122.3356816
18123,6th Place Southwest,98166,47.4405593,-122.3439776
18129,6th Place Southwest,98166,47.4403441,-122.3439726
644,Southwest Normandy Road,98166,47.4404332,-122.3447416
642,Southwest Normandy Road,98166,47.4406063,-122.3450074
640,Southwest Normandy Terrace,98166,47.4406876,-122.3448803
717,Southwest 179th Court,98166,47.4418671,-122.3450484
602,Southwest Colewood Lane,98166,47.4371528,-122.3442383
18134,Riviera Place Southwest,98166,47.4387891,-122.3465606
18136,Riviera Place Southwest,98166,47.4384834,-122.3466944
18314,Riviera Place Southwest,98166,47.4379502,-122.3478356
18150,Riviera Place Southwest,98166,47.4381058,-122.3471986
810,Southwest Normandy Terrace,98166,47.4413241,-122.3459845
804,Southwest Normandy Terrace,98166,47.4411027,-122.3457971
643,Southwest 183rd Street,98166,47.4383008,-122.3449361
628,Southwest Normandy Road,98166,47.4395577,-122.3441337
18527,Normandy Terrace Southwest,98166,47.4357460,-122.3526142
18148,Normandy Terrace Southwest,98166,47.4381215,-122.3515722
18529,Marine View Drive Southwest,98166,47.4361013,-122.3488047
18118,Brittany Drive Southwest,98166,47.4391882,-122.3505988
17949,Riviera Place Southwest,98166,47.4410886,-122.3486788
18515,Beverly Road Southwest,98166,47.4370409,-122.3463353
18437,8th Avenue Southwest,98166,47.4376920,-122.3467712
18245,8th Avenue Southwest,98166,47.4386248,-122.3462293
18222,Terrace Court Southwest,98166,47.4394186,-122.3461636
18051,Normandy Terrace Southwest,98166,47.4395966,-122.3532489
17835,Normandy Terrace Southwest,98166,47.4421252,-122.3541125
1232,Southwest Normandy Terrace,98166,47.4426026,-122.3529343
1245,Southwest Normandy Terrace,98166,47.4421197,-122.3533471
1212,Southwest Shoremont Avenue,98166,47.4398473,-122.3519514
18521,Brittany Drive Southwest,98166,47.4362261,-122.3505625
18520,Normandy Terrace Southwest,98166,47.4360738,-122.3510720
16420,3rd Avenue Southwest,98166,47.4545273,-122.3370692
16439,2nd Avenue Southwest,98166,47.4545983,-122.3363827
16428,3rd Avenue Southwest,98166,47.4543491,-122.3373775
236,Southwest 166th Place,98166,47.4540469,-122.3367944
132,Southwest 166th Place,98166,47.4540380,-122.3353224
16830,2nd Avenue Southwest,98166,47.4512920,-122.3355657
16884,2nd Avenue Southwest,98166,47.4507031,-122.3358110
16849,2nd Avenue Southwest,98166,47.4510276,-122.3369864
16611,3rd Avenue Southwest,98166,47.4535251,-122.3377434
16441,3rd Avenue Southwest,98166,47.4540112,-122.3383607
16401,3rd Avenue Southwest,98166,47.4552277,-122.3377397
212,Southwest 164th Place,98166,47.4559026,-122.3361186
123,Southwest 168th Street,98166,47.4517737,-122.3355789
16805,6th Avenue Southwest,98166,47.4521355,-122.3416452
16803,6th Avenue Southwest,98166,47.4522038,-122.3412137
16802,6th Avenue Southwest,98166,47.4521905,-122.3391255
426,Southwest 200th Street,98166,47.4234034,-122.3416160
418,Southwest 200th Street,98166,47.4233966,-122.3413235
410,Southwest 200th Street,98166,47.4234194,-122.3409986
238,Southwest 200th Street,98166,47.4234952,-122.3387236
19929,Marine View Drive Southwest,98166,47.4232482,-122.3434568
434,Southwest 200th Street,98166,47.4233715,-122.3419130
442,Southwest 200th Street,98166,47.4233573,-122.3422205
19649,Marine View Drive Southwest,98166,47.4271025,-122.3462337
19611,Marine View Drive Southwest,98166,47.4270437,-122.3491923
19610,Marine View Drive Southwest,98166,47.4271332,-122.3481464
19640,Marine View Drive Southwest,98166,47.4271807,-122.3471690
18978,Marine View Circle,98166,47.4315734,-122.3482884
18961,Edgecliff Drive Southwest,98166,47.4315126,-122.3506024
18988,Marine View Drive Southwest,98166,47.4316917,-122.3470435
18991,Marine View Circle,98166,47.4315947,-122.3488878
18979,Marine View Drive Southwest,98166,47.4316957,-122.3478307
18951,Edgecliff Drive Southwest,98166,47.4318189,-122.3507297
18958,Edgecliff Drive Southwest,98166,47.4317721,-122.3499184
19215,Marine View Circle,98166,47.4310836,-122.3489084
18988,Marine View Circle,98166,47.4312382,-122.3483264
19209,Marine View Drive Southwest,98166,47.4310732,-122.3473975
18997,Marine View Circle,98166,47.4313404,-122.3489400
18989,Marine View Drive Southwest,98166,47.4313473,-122.3476472
18990,Marine View Drive Southwest,98166,47.4314475,-122.3467635
19303,Marine View Drive Southwest,98166,47.4305674,-122.3470856
1017,Marine View Circle,98166,47.4306012,-122.3475496
19220,Edgecliff Drive Southwest,98166,47.4306441,-122.3495769
827,Marine View Circle,98166,47.4305998,-122.3478861
19225,Marine View Circle,98166,47.4308027,-122.3485881
835,Marine View Circle,98166,47.4306715,-122.3482633
18998,Marine View Circle,98166,47.4310308,-122.3479091
820,Southwest Channon Drive,98166,47.4299802,-122.3469780
824,Southwest Channon Drive,98166,47.4298260,-122.3476922
19242,Edgecliff Drive Southwest,98166,47.4300672,-122.3493735
19243,Edgecliff Drive Southwest,98166,47.4299979,-122.3499668
19230,Edgecliff Drive Southwest,98166,47.4303260,-122.3494769
19233,Edgecliff Drive Southwest,98166,47.4302698,-122.3500005
19229,Edgecliff Drive Southwest,98166,47.4305237,-122.3501865
19245,Marine View Drive Southwest,98166,47.4303555,-122.3468321
18929,8th Avenue Southwest,98166,47.4329531,-122.3465865
18911,Edgecliff Drive Southwest,98166,47.4329310,-122.3507367
617,Southwest 189th Street,98166,47.4331769,-122.3452249
18940,Marine View Drive Southwest,98166,47.4331139,-122.3473337
609,Southwest 189th Street,98166,47.4331661,-122.3446086
18904,Edgecliff Drive Southwest,98166,47.4331244,-122.3501805
18921,8th Avenue Southwest,98166,47.4331699,-122.3466142
625,Southwest 189th Street,98166,47.4331735,-122.3458500
18961,Marine View Circle,98166,47.4326453,-122.3485879
18926,Edgecliff Drive Southwest,98166,47.4325997,-122.3500572
18921,Edgecliff Drive Southwest,98166,47.4326044,-122.3506464
18958,Marine View Drive Southwest,98166,47.4326523,-122.3472670
18950,Marine View Drive Southwest,98166,47.4328817,-122.3472816
18937,8th Avenue Southwest,98166,47.4327057,-122.3466293
18951,Marine View Circle,98166,47.4328804,-122.3482647
18916,Edgecliff Drive Southwest,98166,47.4328526,-122.3501393
18963,8th Avenue Southwest,98166,47.4322136,-122.3466691
18974,Marine View Drive Southwest,98166,47.4321710,-122.3471975
18936,Edgecliff Drive Southwest,98166,47.4323314,-122.3500132
18967,Marine View Drive Southwest,98166,47.4322879,-122.3480185
18939,Edgecliff Drive Southwest,98166,47.4322433,-122.3506118
18968,Marine View Drive Southwest,98166,47.4323812,-122.3472873
18953,8th Avenue Southwest,98166,47.4324677,-122.3466414
18971,Marine View Circle,98166,47.4323971,-122.3486544
18993,Marine View Circle,98166,47.4318600,-122.3488002
18982,Marine View Drive Southwest,98166,47.4319275,-122.3471273
18973,8th Avenue Southwest,98166,47.4319268,-122.3466733
18946,Edgecliff Drive Southwest,98166,47.4320401,-122.3499069
18975,Marine View Drive Southwest,98166,47.4319885,-122.3479870
18977,Marine View Circle,98166,47.4321417,-122.3487130
19427,Edgecliff Drive Southwest,98166,47.4281416,-122.3493716
616,Southwest 187th Street,98166,47.4355249,-122.3453349
19469,Normandy Park Drive Southwest,98166,47.4281366,-122.3457710
19411,Normandy Park Drive Southwest,98166,47.4291666,-122.3438093
19432,Normandy Park Drive Southwest,98166,47.4282027,-122.3440043
19454,Marine View Drive Southwest,98166,47.4282065,-122.3470023
19461,Normandy Park Drive Southwest,98166,47.4282802,-122.3454433
19465,Marine View Drive Southwest,98166,47.4282377,-122.3481048
19472,Marine View Drive Southwest,98166,47.4279239,-122.3473436
19452,Normandy Park Drive Southwest,98166,47.4279214,-122.3447312
19438,Edgecliff Drive Southwest,98166,47.4280312,-122.3485581
19448,Normandy Park Drive Southwest,98166,47.4280500,-122.3443699
610,Southwest 187th Street,98166,47.4354570,-122.3446241
18646,8th Avenue Southwest,98166,47.4354469,-122.3457630
18541,Marine View Drive Southwest,98166,47.4354411,-122.3486192
18549,Normandy Terrace Southwest,98166,47.4354980,-122.3504943
19480,Marine View Drive Southwest,98166,47.4276902,-122.3476382
19464,Normandy Park Drive Southwest,98166,47.4277148,-122.3449799
19648,Marine View Drive Southwest,98166,47.4276799,-122.3464087
19446,Normandy Park Drive Southwest,98166,47.4277788,-122.3440208
19437,Edgecliff Drive Southwest,98166,47.4278507,-122.3493586
19479,Normandy Park Drive Southwest,98166,47.4277557,-122.3459259
19466,Normandy Park Drive Southwest,98166,47.4273243,-122.3445606
19650,Marine View Drive Southwest,98166,47.4272536,-122.3451459
19604,Marine View Drive Southwest,98166,47.4274400,-122.3479177
19644,Marine View Drive Southwest,98166,47.4274093,-122.3468915
19462,Normandy Park Drive Southwest,98166,47.4274579,-122.3440631
19445,Edgecliff Drive Southwest,98166,47.4275777,-122.3492576
19472,Normandy Park Drive Southwest,98166,47.4275562,-122.3452222
19405,Marine View Drive Southwest,98166,47.4295458,-122.3469197
19263,Edgecliff Drive Southwest,98166,47.4294846,-122.3497234
19250,Edgecliff Drive Southwest,98166,47.4296022,-122.3490426
840,Southwest Channon Drive,98166,47.4295178,-122.3482930
19253,Edgecliff Drive Southwest,98166,47.4297281,-122.3498105
830,Southwest Channon Drive,98166,47.4297989,-122.3480229
19246,Edgecliff Drive Southwest,98166,47.4298579,-122.3492749
19273,Edgecliff Drive Southwest,98166,47.4292090,-122.3496722
19435,Normandy Park Drive Southwest,98166,47.4291746,-122.3446800
19425,Marine View Drive Southwest,98166,47.4293064,-122.3471460
835,Southwest Channon Drive,98166,47.4293034,-122.3477565
19419,Normandy Park Drive Southwest,98166,47.4292898,-122.3443798
19254,Edgecliff Drive Southwest,98166,47.4293493,-122.3488655
19400,Marine View Drive Southwest,98166,47.4293773,-122.3462315
19440,Marine View Drive Southwest,98166,47.4287548,-122.3460865
19407,Edgecliff Drive Southwest,98166,47.4286805,-122.3494344
19429,Normandy Park Drive Southwest,98166,47.4288318,-122.3444407
19445,Marine View Drive Southwest,98166,47.4287597,-122.3476606
19421,Normandy Park Drive Southwest,98166,47.4289973,-122.3440923
19401,Edgecliff Drive Southwest,98166,47.4289544,-122.3496473
845,Southwest Channon Drive,98166,47.4290818,-122.3480937
19435,Marine View Drive Southwest,98166,47.4289950,-122.3473290
19417,Edgecliff Drive Southwest,98166,47.4283762,-122.3493776
19432,Edgecliff Drive Southwest,98166,47.4283143,-122.3487090
19455,Marine View Drive Southwest,98166,47.4285170,-122.3478241
19455,Normandy Park Drive Southwest,98166,47.4284479,-122.3451071
19422,Edgecliff Drive Southwest,98166,47.4286084,-122.3486894
19450,Marine View Drive Southwest,98166,47.4284933,-122.3467728
19445,Normandy Park Drive Southwest,98166,47.4286422,-122.3448130
18637,Beverly Road Southwest,98166,47.4354863,-122.3471501
18540,Brittany Drive Southwest,98166,47.4354142,-122.3496366
18645,8th Avenue Southwest,98166,47.4355570,-122.3464804
18902,Marine View Drive Southwest,98166,47.4341005,-122.3474520
18816,6th Avenue Southwest,98166,47.4339614,-122.3439236
809,Southwest Crescent Road,98166,47.4340816,-122.3467505
18902,8th Avenue Southwest,98166,47.4339415,-122.3456670
18900,8th Avenue Southwest,98166,47.4341041,-122.3449976
18721,Edgecliff Drive Southwest,98166,47.4340442,-122.3514736
18711,Edgecliff Drive Southwest,98166,47.4342596,-122.3516928
18905,Marine View Drive Southwest,98166,47.4341406,-122.3482345
18912,8th Avenue Southwest,98166,47.4337421,-122.3458475
18824,6th Avenue Southwest,98166,47.4337086,-122.3439359
18914,Marine View Drive Southwest,98166,47.4339146,-122.3473677
18915,Marine View Drive Southwest,98166,47.4338065,-122.3481729
803,Southwest Crescent Road,98166,47.4338931,-122.3465337
18801,Edgecliff Drive Southwest,98166,47.4338477,-122.3512080
18904,8th Avenue Southwest,98166,47.4340066,-122.3453721
18817,6th Avenue Southwest,98166,47.4339117,-122.3445330
18914,8th Avenue Southwest,98166,47.4335578,-122.3458946
18927,Marine View Drive Southwest,98166,47.4334895,-122.3483677
18800,Edgecliff Drive Southwest,98166,47.4336488,-122.3502928
18920,Marine View Drive Southwest,98166,47.4336074,-122.3471932
18815,Edgecliff Drive Southwest,98166,47.4336200,-122.3511153
18905,8th Avenue Southwest,98166,47.4336371,-122.3465733
618,Southwest 189th Street,98166,47.4336735,-122.3450016
620,Southwest 189th Street,98166,47.4336812,-122.3452788
601,Southwest 189th Street,98166,47.4331860,-122.3440547
18901,Edgecliff Drive Southwest,98166,47.4331679,-122.3508393
18932,Marine View Drive Southwest,98166,47.4333516,-122.3473397
18935,Marine View Drive Southwest,98166,47.4332711,-122.3481221
18913,8th Avenue Southwest,98166,47.4333920,-122.3465705
18844,Edgecliff Drive Southwest,98166,47.4334232,-122.3502028
18831,Edgecliff Drive Southwest,98166,47.4333857,-122.3509223
18644,Marine View Drive Southwest,98166,47.4351521,-122.3476732
18552,Brittany Drive Southwest,98166,47.4350843,-122.3493443
18555,Marine View Drive Southwest,98166,47.4351592,-122.3485245
18541,Normandy Terrace Southwest,98166,47.4350541,-122.3519837
18551,Brittany Drive Southwest,98166,47.4351922,-122.3503286
18639,Beverly Road Southwest,98166,47.4352698,-122.3470985
18703,Brittany Drive Southwest,98166,47.4348788,-122.3501400
18715,6th Avenue Southwest,98166,47.4349312,-122.3442690
711,Southwest 187th Street,98166,47.4350066,-122.3454342
18655,8th Avenue Southwest,98166,47.4349428,-122.3463674
18641,Beverly Road Southwest,98166,47.4350304,-122.3470555
615,Southwest 187th Street,98166,47.4350438,-122.3450245
609,Southwest 187th Street,98166,47.4350391,-122.3446838
18806,8th Avenue Southwest,98166,47.4346381,-122.3456709
18801,6th Avenue Southwest,98166,47.4346001,-122.3443376
18602,Brittany Drive Southwest,98166,47.4347300,-122.3494963
18664,Marine View Drive Southwest,98166,47.4346180,-122.3474944
18585,Marine View Drive Southwest,98166,47.4348071,-122.3484893
18663,Beverly Road Southwest,98166,47.4347399,-122.3471937
18654,Marine View Drive Southwest,98166,47.4348803,-122.3476328
18558,Brittany Drive Southwest,98166,47.4348240,-122.3490674
18809,6th Avenue Southwest,98166,47.4342527,-122.3445260
18806,6th Avenue Southwest,98166,47.4342563,-122.3437856
18812,8th Avenue Southwest,98166,47.4344208,-122.3456982
18705,Edgecliff Drive Southwest,98166,47.4344753,-122.3519461
18595,Marine View Drive Southwest,98166,47.4344137,-122.3483404
18804,8th Avenue Southwest,98166,47.4345377,-122.3450025
18666,Beverly Road Southwest,98166,47.4345072,-122.3464173
16836,16th Avenue Southwest,98166,47.4513609,-122.3550824
16833,19th Avenue Southwest,98166,47.4513787,-122.3582144
16838,19th Avenue Southwest,98166,47.4513904,-122.3575285
1635,Southwest 168th Street,98166,47.4519624,-122.3567754
1607,Southwest 168th Street,98166,47.4520570,-122.3560167
16805,16th Avenue Southwest,98166,47.4516878,-122.3556909
16821,19th Avenue Southwest,98166,47.4517963,-122.3582368
1645,Southwest 168th Street,98166,47.4518473,-122.3572295
16824,19th Avenue Southwest,98166,47.4516441,-122.3576257
16822,16th Avenue Southwest,98166,47.4516574,-122.3548440
16833,16th Avenue Southwest,98166,47.4515030,-122.3557372
16827,19th Avenue Southwest,98166,47.4516189,-122.3582445
1627,Southwest 168th Street,98166,47.4520939,-122.3563530
16804,19th Avenue Southwest,98166,47.4521369,-122.3576272
1605,Southwest 168th Street,98166,47.4521189,-122.3556622
1635,Southwest Miller Creek Road,98166,47.4444558,-122.3571026
1625,Southwest Miller Creek Road,98166,47.4445498,-122.3566457
1605,Southwest Miller Creek Road,98166,47.4448483,-122.3559125
1360,Southwest 175th Street,98166,47.4461509,-122.3553839
1351,Southwest 175th Street,98166,47.4461055,-122.3550913
1375,Southwest 174th Street,98166,47.4467511,-122.3553458
1621,Southwest 168th Street,98166,47.4514916,-122.3564117
1633,Southwest 168th Street,98166,47.4515475,-122.3568020
16841,16th Avenue Southwest,98166,47.4512165,-122.3556926
1602,Southwest 170th Street,98166,47.4509210,-122.3557200
1640,Southwest 170th Street,98166,47.4508914,-122.3572080
1821,Southwest 170th Street,98166,47.4503763,-122.3574949
16804,16th Avenue Southwest,98166,47.4521952,-122.3549956
16803,19th Avenue Southwest,98166,47.4521676,-122.3582785
16813,19th Avenue Southwest,98166,47.4519794,-122.3582663
16842,19th Avenue Southwest,98166,47.4511264,-122.3576575
1650,Southwest 170th Street,98166,47.4508440,-122.3575627
16814,19th Avenue Southwest,98166,47.4518796,-122.3576359
2133,Southwest 170th Street,98166,47.4495726,-122.3608447
2105,Southwest 170th Street,98166,47.4500784,-122.3607876
2119,Southwest 170th Street,98166,47.4502432,-122.3611657
2135,Southwest 170th Street,98166,47.4498612,-122.3612194
1815,Southwest 170th Street,98166,47.4498485,-122.3568190
1891,Southwest 170th Street,98166,47.4493401,-122.3579055
1919,Southwest 170th Street,98166,47.4499189,-122.3587323
1937,Southwest 170th Street,98166,47.4500116,-122.3595657
1945,Southwest 170th Street,98166,47.4501628,-122.3599373
2143,Southwest 170th Street,98166,47.4499799,-122.3602705
17038,21st Avenue Southwest,98166,47.4495809,-122.3600827
1951,Southwest 170th Street,98166,47.4503347,-122.3602693
1390,Southwest 174th Street,98166,47.4473708,-122.3552922
17077,16th Avenue Southwest,98166,47.4493090,-122.3550240
17045,16th Avenue Southwest,98166,47.4490866,-122.3572264
17024,16th Avenue Southwest,98166,47.4499253,-122.3551920
17011,16th Avenue Southwest,98166,47.4497035,-122.3561304
17033,16th Avenue Southwest,98166,47.4497513,-122.3557737
1611,Southwest 170th Street,98166,47.4503157,-122.3560243
1605,Southwest 170th Street,98166,47.4503546,-122.3556571
17056,16th Avenue Southwest,98166,47.4489045,-122.3564068
17229,Sylvester Road Southwest,98166,47.4483852,-122.3553074
17059,16th Avenue Southwest,98166,47.4488535,-122.3559425
456,Southwest 191st Street,98166,47.4323547,-122.3434971
19029,1st Place Southwest,98166,47.4323045,-122.3369161
430,Southwest 191st Street,98166,47.4323664,-122.3422575
414,Southwest 191st Street,98166,47.4323658,-122.3416189
450,Southwest 191st Street,98166,47.4323958,-122.3431965
19021,4th Avenue Southwest,98166,47.4323813,-122.3412742
230,Southwest 191st Street,98166,47.4323454,-122.3396273
444,Southwest 191st Street,98166,47.4323931,-122.3428968
19027,2nd Place Southwest,98166,47.4321855,-122.3379065
438,Southwest 191st Street,98166,47.4323416,-122.3425801
19025,2nd Place Southwest,98166,47.4323253,-122.3374242
19022,Normandy Park Drive Southwest,98166,47.4323329,-122.3361723
19024,4th Avenue Southwest,98166,47.4323373,-122.3406293
422,Southwest 191st Street,98166,47.4323463,-122.3419422
217,Southwest 191st Street,98166,47.4319162,-122.3390039
231,Southwest 191st Street,98166,47.4319289,-122.3397069
19045,1st Place Southwest,98166,47.4319196,-122.3371949
225,Southwest 191st Street,98166,47.4319424,-122.3393942
253,Southwest 191st Street,98166,47.4318789,-122.3405920
247,Southwest 191st Street,98166,47.4319325,-122.3402943
19039,1st Place Southwest,98166,47.4320646,-122.3369557
431,Southwest 191st Street,98166,47.4318784,-122.3423040
439,Southwest 191st Street,98166,47.4318922,-122.3426667
423,Southwest 191st Street,98166,47.4318800,-122.3420454
457,Southwest 191st Street,98166,47.4319209,-122.3435296
455,Southwest 191st Street,98166,47.4318828,-122.3433026
18717,5th Place Southwest,98166,47.4349222,-122.3431784
18653,4th Avenue Southwest,98166,47.4348801,-122.3411888
18643,2nd Avenue Southwest,98166,47.4349685,-122.3391802
18645,2nd Avenue Southwest,98166,47.4349784,-122.3388720
18649,2nd Avenue Southwest,98166,47.4349218,-122.3384099
18656,4th Avenue Southwest,98166,47.4348716,-122.3395843
18654,4th Avenue Southwest,98166,47.4348865,-122.3403622
18718,5th Place Southwest,98166,47.4348973,-122.3422406
18721,5th Place Southwest,98166,47.4349166,-122.3426205
18777,2nd Avenue Southwest,98166,47.4345936,-122.3383477
18808,4th Avenue Southwest,98166,47.4345809,-122.3394119
18802,2nd Avenue Southwest,98166,47.4346434,-122.3374429
18803,1st Avenue South,98148,47.4346450,-122.3364087
18655,1st Avenue South,98148,47.4348334,-122.3359810
18655,4th Avenue Southwest,98166,47.4343626,-122.3421580
18801,2nd Avenue Southwest,98166,47.4343147,-122.3384032
18817,1st Place Southwest,98166,47.4344554,-122.3371647
18811,4th Avenue Southwest,98166,47.4344030,-122.3410200
18657,4th Avenue Southwest,98166,47.4346281,-122.3418256
18805,1st Avenue South,98148,47.4344575,-122.3360201
18805,4th Avenue Southwest,98166,47.4346004,-122.3410139
18800,4th Avenue Southwest,98166,47.4345983,-122.3400973
18832,6th Avenue Southwest,98166,47.4334254,-122.3437439
19424,Normandy Park Drive Southwest,98166,47.4283990,-122.3437052
18710,6th Avenue Southwest,98166,47.4351832,-122.3436104
18800,6th Avenue Southwest,98166,47.4346102,-122.3436544
19658,Marine View Drive Southwest,98166,47.4270834,-122.3437680
411,Southwest 197th Street,98166,47.4263326,-122.3438712
711,Southwest 199th Place,98166,47.4232427,-122.3457978
18624,2nd Avenue Southwest,98166,47.4353433,-122.3361965
18632,4th Avenue Southwest,98166,47.4353401,-122.3402912
18626,2nd Avenue Southwest,98166,47.4353679,-122.3364807
18628,2nd Avenue Southwest,98166,47.4353663,-122.3367108
18709,5th Place Southwest,98166,47.4351839,-122.3430393
18641,4th Avenue Southwest,98166,47.4352212,-122.3411680
18633,2nd Avenue Southwest,98166,47.4352790,-122.3389089
18635,2nd Avenue Southwest,98166,47.4352764,-122.3382673
18706,5th Place Southwest,98166,47.4353166,-122.3419220
18638,4th Avenue Southwest,98166,47.4353184,-122.3395032
18643,1st Avenue South,98148,47.4350692,-122.3360049
18636,2nd Avenue Southwest,98166,47.4349857,-122.3372988
18642,4th Avenue Southwest,98166,47.4350948,-122.3395335
18712,5th Place Southwest,98166,47.4350831,-122.3419610
239,Southwest 189th Place,98166,47.4332145,-122.3399693
18923,4th Avenue Southwest,98166,47.4332048,-122.3413256
415,Southwest 189th Place,98166,47.4332598,-122.3417379
433,Southwest 189th Place,98166,47.4331946,-122.3424430
445,Southwest 189th Place,98166,47.4332773,-122.3431675
423,Southwest 189th Place,98166,47.4332190,-122.3420001
18853,1st Place Southwest,98166,47.4332482,-122.3377891
18841,2nd Avenue Southwest,98166,47.4332445,-122.3385471
19001,4th Avenue Southwest,98166,47.4328742,-122.3426216
19005,4th Avenue Southwest,98166,47.4328757,-122.3412391
19002,4th Avenue Southwest,98166,47.4329009,-122.3405850
19001,2nd Avenue Southwest,98166,47.4328952,-122.3384760
220,Southwest 191st Street,98166,47.4328857,-122.3388527
18990,Normandy Park Drive Southwest,98166,47.4332583,-122.3359040
18904,4th Avenue Southwest,98166,47.4331445,-122.3405968
19011,4th Avenue Southwest,98166,47.4326656,-122.3412373
236,Southwest 191st Street,98166,47.4327872,-122.3396271
19010,2nd Place Southwest,98166,47.4327708,-122.3373435
240,Southwest 191st Street,98166,47.4327854,-122.3400007
19002,Normandy Park Drive Southwest,98166,47.4328012,-122.3368700
19003,4th Avenue Southwest,98166,47.4328747,-122.3418401
19014,2nd Place Southwest,98166,47.4328007,-122.3379492
244,Southwest 191st Street,98166,47.4324041,-122.3401394
19017,2nd Avenue Southwest,98166,47.4323563,-122.3385091
19015,1st Place Southwest,98166,47.4325282,-122.3368672
19018,2nd Place Southwest,98166,47.4324446,-122.3379211
216,Southwest 191st Street,98166,47.4325703,-122.3390708
19014,4th Avenue Southwest,98166,47.4326174,-122.3405594
418,Southwest 189th Street,98166,47.4341249,-122.3416123
18825,1st Place Southwest,98166,47.4340756,-122.3374260
18816,1st Place Southwest,98166,47.4342581,-122.3365088
18817,4th Avenue Southwest,98166,47.4342147,-122.3410576
18818,1st Place Southwest,98166,47.4342352,-122.3371082
18812,4th Avenue Southwest,98166,47.4343212,-122.3394080
18814,4th Avenue Southwest,98166,47.4342879,-122.3401714
18832,1st Place Southwest,98166,47.4338848,-122.3365640
18833,1st Place Southwest,98166,47.4338838,-122.3376418
18821,2nd Avenue Southwest,98166,47.4339887,-122.3385344
234,Southwest 189th Place,98166,47.4339987,-122.3397332
18824,4th Avenue Southwest,98166,47.4340286,-122.3405121
225,Southwest 189th Place,98166,47.4339762,-122.3392182
18822,1st Place Southwest,98166,47.4340793,-122.3365730
18823,4th Avenue Southwest,98166,47.4340329,-122.3410446
417,Southwest 189th Street,98166,47.4336847,-122.3416284
233,Southwest 189th Place,98166,47.4336206,-122.3392463
18838,1st Place Southwest,98166,47.4336853,-122.3365831
18836,4th Avenue Southwest,98166,47.4336690,-122.3404479
18837,1st Place Southwest,98166,47.4336926,-122.3377256
407,Southwest 189th Street,98166,47.4337561,-122.3411466
242,Southwest 189th Place,98166,47.4336852,-122.3399500
241,Southwest 189th Place,98166,47.4333041,-122.3394370
18843,1st Place Southwest,98166,47.4335004,-122.3376705
18848,1st Place Southwest,98166,47.4334698,-122.3367349
18911,4th Avenue Southwest,98166,47.4335426,-122.3411684
419,Southwest 189th Street,98166,47.4336563,-122.3420325
18831,2nd Avenue Southwest,98166,47.4335840,-122.3385608
19619,Marine View Drive Southwest,98166,47.4258658,-122.3489795
19679,Marine View Drive Southwest,98166,47.4258673,-122.3462788
19631,Marine View Drive Southwest,98166,47.4259129,-122.3477000
19623,Marine View Drive Southwest,98166,47.4259689,-122.3484016
19678,Marine View Drive Southwest,98166,47.4259906,-122.3442793
19676,Marine View Drive Southwest,98166,47.4259878,-122.3447761
19674,Marine View Drive Southwest,98166,47.4260051,-122.3454902
19815,Marine View Drive Southwest,98166,47.4247512,-122.3453750
19833,Marine View Drive Southwest,98166,47.4245329,-122.3452549
19805,Marine View Drive Southwest,98166,47.4249408,-122.3457645
19625,Marine View Drive Southwest,98166,47.4247825,-122.3499369
19693,Marine View Drive Southwest,98166,47.4251691,-122.3459522
19681,Marine View Drive Southwest,98166,47.4256654,-122.3462351
19683,Marine View Drive Southwest,98166,47.4254428,-122.3461799
727,Southwest 199th Place,98166,47.4236044,-122.3473581
718,Southwest 199th Place,98166,47.4236124,-122.3466279
19857,Marine View Drive Southwest,98166,47.4240360,-122.3445053
704,Southwest 199th Place,98166,47.4239103,-122.3462161
660,Southwest 199th Place,98166,47.4242289,-122.3459421
19629,Marine View Drive Southwest,98166,47.4241043,-122.3501345
19627,Marine View Drive Southwest,98166,47.4244183,-122.3499635
19851,Marine View Drive Southwest,98166,47.4242876,-122.3449336
19628,Marine View Drive Southwest,98166,47.4232271,-122.3504001
721,Southwest 199th Place,98166,47.4232036,-122.3473862
19626,Marine View Drive Southwest,98166,47.4235033,-122.3495729
653,Southwest 199th Place,98166,47.4234157,-122.3452059
19919,Marine View Drive Southwest,98166,47.4234684,-122.3438491
708,Southwest 199th Place,98166,47.4235399,-122.3461171
641,Southwest 199th Place,98166,47.4235267,-122.3447187
19660,Marine View Drive Southwest,98166,47.4268046,-122.3447696
19614,Marine View Drive Southwest,98166,47.4267634,-122.3483310
19645,Marine View Drive Southwest,98166,47.4268414,-122.3465746
19613,Marine View Drive Southwest,98166,47.4267902,-122.3491821
19655,Marine View Drive Southwest,98166,47.4269515,-122.3459864
19630,Marine View Drive Southwest,98166,47.4268924,-122.3476606
19635,Marine View Drive Southwest,98166,47.4264087,-122.3470162
19620,Marine View Drive Southwest,98166,47.4264672,-122.3483398
417,Southwest 197th Street,98166,47.4264923,-122.3451611
19624,Marine View Drive Southwest,98166,47.4266382,-122.3478885
19615,Marine View Drive Southwest,98166,47.4264809,-122.3492586
410,Southwest 197th Street,98166,47.4267512,-122.3441697
19661,Marine View Drive Southwest,98166,47.4266741,-122.3461424
19675,Marine View Drive Southwest,98166,47.4261637,-122.3462738
19633,Marine View Drive Southwest,98166,47.4260255,-122.3472983
19670,Marine View Drive Southwest,98166,47.4262296,-122.3453901
19617,Marine View Drive Southwest,98166,47.4261205,-122.3494123
415,Southwest 197th Street,98166,47.4262795,-122.3447278
19667,Marine View Drive Southwest,98166,47.4263967,-122.3461916
413,Southwest 197th Street,98166,47.4263243,-122.3442809
1622,Southwest 170th Street,98166,47.4509850,-122.3564386
1632,Southwest 170th Street,98166,47.4508997,-122.3568987
1616,Southwest 170th Street,98166,47.4508845,-122.3560508
17004,16th Avenue Southwest,98166,47.4507181,-122.3550457
16841,19th Avenue Southwest,98166,47.4511739,-122.3582581
1915,Southwest 170th Street,98166,47.4504146,-122.3587097
16814,16th Avenue Southwest,98166,47.4519405,-122.3547654
18630,2nd Avenue Southwest,98166,47.4353877,-122.3373342
18647,5th Place Southwest,98166,47.4354582,-122.3430647
18646,5th Place Southwest,98166,47.4354790,-122.3423978
115,Southwest 194th Place,98166,47.4281157,-122.3370581
18624,4th Avenue Southwest,98166,47.4355121,-122.3403191
18627,1st Avenue South,98148,47.4354457,-122.3357146
106,Southwest 194th Street,98166,47.4289301,-122.3366362
19409,1st Avenue South,98148,47.4288649,-122.3360592
110,Southwest 194th Street,98166,47.4289711,-122.3369974
19327,4th Place Southwest,98166,47.4288836,-122.3427684
19324,4th Place Southwest,98166,47.4289340,-122.3420959
240,Southwest 194th Place,98166,47.4289565,-122.3399755
220,Southwest 194th Place,98166,47.4289847,-122.3391133
230,Southwest 194th Place,98166,47.4289662,-122.3395187
111,Southwest 194th Street,98166,47.4285595,-122.3369936
101,Southwest 194th Street,98166,47.4285221,-122.3365721
19405,4th Place Southwest,98166,47.4285557,-122.3426133
19416,Normandy Park Drive Southwest,98166,47.4285517,-122.3433800
19337,4th Avenue Southwest,98166,47.4287263,-122.3412758
19400,4th Place Southwest,98166,47.4286918,-122.3419324
206,Southwest 194th Place,98166,47.4288112,-122.3385722
19406,Normandy Park Drive Southwest,98166,47.4287489,-122.3430666
19431,4th Avenue Southwest,98166,47.4284512,-122.3412103
255,Southwest 194th Place,98166,47.4284881,-122.3401138
219,Southwest 194th Place,98166,47.4284618,-122.3384185
121,Southwest 194th Street,98166,47.4284795,-122.3373931
275,Southwest 194th Place,98166,47.4284548,-122.3405022
131,Southwest 194th Street,98166,47.4284790,-122.3378464
225,Southwest 194th Place,98166,47.4284969,-122.3388888
247,Southwest 194th Place,98166,47.4285044,-122.3397006
117,Southwest 194th Place,98166,47.4281023,-122.3376214
107,Southwest 194th Place,98166,47.4281205,-122.3365127
19435,4th Avenue Southwest,98166,47.4281754,-122.3411782
19422,Normandy Park Drive Southwest,98166,47.4281151,-122.3433104
19440,4th Place Southwest,98166,47.4283056,-122.3417752
19412,Normandy Park Drive Southwest,98166,47.4282302,-122.3430152
19423,1st Avenue South,98148,47.4283858,-122.3360387
19439,4th Place Southwest,98166,47.4283195,-122.3424071
710,Southwest 179th Court,98166,47.4423638,-122.3449858
638,Southwest 179th Place,98166,47.4423811,-122.3440057
17916,Brittany Drive Southwest,98166,47.4423061,-122.3507229
870,Southwest Normandy Terrace,98166,47.4423447,-122.3471208
17841,7th Place Southwest,98166,47.4424948,-122.3447541
17904,Brittany Drive Southwest,98166,47.4425330,-122.3506042
1021,Southwest Normandy Terrace,98166,47.4424316,-122.3486698
1280,Southwest Normandy Terrace,98166,47.4424497,-122.3536766
17901,Riviera Place Southwest,98166,47.4421917,-122.3480689
866,Southwest Normandy Terrace,98166,47.4422093,-122.3467065
17910,Marine View Drive Southwest,98166,47.4421584,-122.3488706
1233,Southwest Normandy Terrace,98166,47.4421927,-122.3525915
17901,Brittany Drive Southwest,98166,47.4422602,-122.3521933
1017,Southwest Normandy Terrace,98166,47.4423084,-122.3483610
17923,Marine View Drive Southwest,98166,47.4422915,-122.3497877
17825,Normandy Terrace Southwest,98166,47.4422338,-122.3543810
17923,Brittany Drive Southwest,98166,47.4420159,-122.3517084
716,Southwest 179th Court,98166,47.4421002,-122.3451445
17903,Brittany Drive Southwest,98166,47.4420196,-122.3520227
17922,Marine View Drive Southwest,98166,47.4420023,-122.3490506
830,Southwest Normandy Terrace,98166,47.4421280,-122.3457739
1239,Southwest Normandy Terrace,98166,47.4421575,-122.3529161
17927,Marine View Drive Southwest,98166,47.4420687,-122.3500835
17924,Brittany Drive Southwest,98166,47.4421057,-122.3509174
444,Southwest 192nd Street,98166,47.4315023,-122.3429038
17933,Marine View Drive Southwest,98166,47.4418606,-122.3501230
19121,2nd Avenue Southwest,98166,47.4315272,-122.3379993
17916,Normandy Terrace Southwest,98166,47.4418952,-122.3530633
19042,Normandy Park Drive Southwest,98166,47.4316597,-122.3365382
17845,Normandy Terrace Southwest,98166,47.4417938,-122.3540033
19101,1st Avenue South,98148,47.4315566,-122.3361967
625,Southwest 179th Place,98166,47.4418560,-122.3440535
19109,4th Avenue Southwest,98166,47.4318126,-122.3413580
860,Southwest Normandy Terrace,98166,47.4419669,-122.3465310
19115,2nd Avenue Southwest,98166,47.4317130,-122.3382096
17902,Riviera Place Southwest,98166,47.4419416,-122.3474441
703,Southwest 179th Court,98166,47.4419504,-122.3443771
17917,Riviera Place Southwest,98166,47.4419549,-122.3482540
17831,7th Place Southwest,98166,47.4429251,-122.3449495
18535,Normandy Terrace Southwest,98166,47.4356533,-122.3517352
1152,Southwest Normandy Terrace,98166,47.4429337,-122.3511368
851,Southwest Normandy Terrace,98166,47.4429003,-122.3462071
1405,Southwest Shorebrook Drive,98166,47.4425900,-122.3546226
1214,Southwest Normandy Terrace,98166,47.4427264,-122.3521976
1012,Southwest 178th Street,98166,47.4428480,-122.3466604
1224,Southwest Normandy Terrace,98166,47.4426603,-122.3525461
17837,7th Place Southwest,98166,47.4427083,-122.3449054
1208,Southwest Normandy Terrace,98166,47.4428216,-122.3518883
1202,Southwest Normandy Terrace,98166,47.4428810,-122.3514696
17836,7th Place Southwest,98166,47.4428124,-122.3442965
17820,Marine View Drive Southwest,98166,47.4428176,-122.3482525
17905,Marine View Drive Southwest,98166,47.4425590,-122.3496756
840,Southwest Normandy Terrace,98166,47.4425775,-122.3456618
17840,7th Place Southwest,98166,47.4425746,-122.3441943
1002,Southwest Normandy Terrace,98166,47.4425602,-122.3476312
1242,Southwest Normandy Terrace,98166,47.4426184,-122.3532933
1016,Southwest Normandy Terrace,98166,47.4426692,-122.3479703
841,Southwest Normandy Terrace,98166,47.4425830,-122.3462782
1125,Southwest Normandy Terrace,98166,47.4426461,-122.3499654
226,Southwest 193rd Place,98166,47.4300341,-122.3396013
250,Southwest 193rd Place,98166,47.4300386,-122.3404302
242,Southwest 193rd Place,98166,47.4300318,-122.3400244
218,Southwest 193rd Place,98166,47.4300881,-122.3392246
19259,Normandy Park Drive Southwest,98166,47.4300839,-122.3434083
19251,Normandy Park Drive Southwest,98166,47.4302560,-122.3429184
19234,Normandy Park Drive Southwest,98166,47.4302321,-122.3415998
278,Southwest 193rd Place,98166,47.4296961,-122.3416250
19271,Normandy Park Drive Southwest,98166,47.4296037,-122.3432563
19254,Normandy Park Drive Southwest,98166,47.4298321,-122.3422098
262,Southwest 193rd Place,98166,47.4299437,-122.3412406
19263,Normandy Park Drive Southwest,98166,47.4298722,-122.3430163
19244,Normandy Park Drive Southwest,98166,47.4300291,-122.3419440
19247,1st Avenue South,98148,47.4299644,-122.3368741
19401,Normandy Park Drive Southwest,98166,47.4292308,-122.3434557
19305,4th Place Southwest,98166,47.4291961,-122.3426377
245,Southwest 193rd Place,98166,47.4294076,-122.3399673
217,Southwest 193rd Place,98166,47.4294147,-122.3389079
221,Southwest 193rd Place,98166,47.4294781,-122.3392734
253,Southwest 193rd Place,98166,47.4293852,-122.3403454
229,Southwest 193rd Place,98166,47.4296074,-122.3395934
201,Southwest 193rd Place,98166,47.4295137,-122.3385377
252,Southwest 194th Place,98166,47.4289870,-122.3403650
19333,4th Avenue Southwest,98166,47.4289987,-122.3414484
130,Southwest 194th Street,98166,47.4290618,-122.3378398
19405,1st Avenue South,98148,47.4290798,-122.3361782
210,Southwest 194th Place,98166,47.4290912,-122.3386481
120,Southwest 194th Street,98166,47.4290637,-122.3373642
19304,4th Place Southwest,98166,47.4291954,-122.3418799
19320,4th Avenue Southwest,98166,47.4290874,-122.3407730
426,Southwest 192nd Street,98166,47.4314584,-122.3421520
208,Southwest 192nd Street,98166,47.4314868,-122.3387345
406,Southwest 192nd Street,98166,47.4314908,-122.3414215
256,Southwest 192nd Street,98166,47.4314993,-122.3407323
216,Southwest 192nd Street,98166,47.4315168,-122.3390515
711,Southwest 179th Court,98166,47.4418488,-122.3447051
224,Southwest 192nd Street,98166,47.4314907,-122.3393598
17930,Brittany Drive Southwest,98166,47.4418433,-122.3509698
240,Southwest 192nd Street,98166,47.4315231,-122.3399996
232,Southwest 192nd Street,98166,47.4315442,-122.3396842
215,Southwest 192nd Street,98166,47.4310429,-122.3391030
245,Southwest 192nd Street,98166,47.4310301,-122.3400145
19221,Normandy Park Drive Southwest,98166,47.4310385,-122.3415518
121,Southwest 192nd Street,98166,47.4310537,-122.3367667
225,Southwest 192nd Street,98166,47.4310556,-122.3395670
159,Southwest 192nd Street,98166,47.4310523,-122.3379203
202,Southwest 192nd Street,98166,47.4314705,-122.3383569
19052,Normandy Park Drive Southwest,98166,47.4314473,-122.3369317
19208,Normandy Park Drive Southwest,98166,47.4306542,-122.3399853
133,Southwest 192nd Street,98166,47.4306572,-122.3369908
205,Southwest 192nd Street,98166,47.4309650,-122.3386890
161,Southwest 192nd Street,98166,47.4307473,-122.3378675
257,Southwest 192nd Street,98166,47.4310109,-122.3403974
125,Southwest 192nd Street,98166,47.4309420,-122.3371811
265,Southwest 192nd Street,98166,47.4310081,-122.3407607
455,Southwest 192nd Street,98166,47.4309286,-122.3426802
19210,Normandy Park Drive Southwest,98166,47.4304174,-122.3403345
19241,Normandy Park Drive Southwest,98166,47.4305724,-122.3427027
163,Southwest 192nd Street,98166,47.4304478,-122.3378158
19212,Normandy Park Drive Southwest,98166,47.4305445,-122.3408392
19231,Normandy Park Drive Southwest,98166,47.4306564,-122.3421523
19220,Normandy Park Drive Southwest,98166,47.4305319,-122.3412610
18150,Marine View Drive Southwest,98166,47.4385111,-122.3487431
18157,Riviera Place Southwest,98166,47.4385250,-122.3483816
18144,Brittany Drive Southwest,98166,47.4384941,-122.3502463
18156,Riviera Place Southwest,98166,47.4385189,-122.3477276
18135,Normandy Terrace Southwest,98166,47.4385928,-122.3528413
18136,Normandy Terrace Southwest,98166,47.4386546,-122.3518356
18145,Marine View Drive Southwest,98166,47.4385385,-122.3497182
18135,Brittany Drive Southwest,98166,47.4386360,-122.3512067
18142,Normandy Terrace Southwest,98166,47.4383678,-122.3516771
18141,Normandy Terrace Southwest,98166,47.4383595,-122.3526538
635,Southwest 183rd Street,98166,47.4383088,-122.3444613
18257,8th Avenue Southwest,98166,47.4383334,-122.3461576
18250,8th Avenue Southwest,98166,47.4384115,-122.3455188
18301,7th Avenue Southwest,98166,47.4384946,-122.3448496
18138,Riviera Place Southwest,98166,47.4384418,-122.3472103
18143,Brittany Drive Southwest,98166,47.4384143,-122.3509993
18158,Riviera Place Southwest,98166,47.4381776,-122.3477150
18153,Brittany Drive Southwest,98166,47.4381787,-122.3509400
18151,Normandy Terrace Southwest,98166,47.4380840,-122.3525298
18155,Marine View Drive Southwest,98166,47.4382838,-122.3496806
629,Southwest 183rd Street,98166,47.4383278,-122.3440475
18154,Brittany Drive Southwest,98166,47.4382244,-122.3502549
18160,Marine View Drive Southwest,98166,47.4382555,-122.3485457
18164,Brittany Drive Southwest,98166,47.4379620,-122.3501825
18177,Riviera Place Southwest,98166,47.4379809,-122.3486507
18161,Brittany Drive Southwest,98166,47.4379397,-122.3508237
18413,8th Avenue Southwest,98166,47.4379803,-122.3462106
18163,Marine View Drive Southwest,98166,47.4380487,-122.3496086
18425,8th Avenue Southwest,98166,47.4380556,-122.3466673
18400,8th Avenue Southwest,98166,47.4380622,-122.3450350
632,Southwest 185th Street,98166,47.4380484,-122.3438743
633,Southwest Normandy Road,98166,47.4391263,-122.3441703
18228,8th Avenue Southwest,98166,47.4391275,-122.3453995
18117,Brittany Drive Southwest,98166,47.4391136,-122.3513617
18119,Marine View Drive Southwest,98166,47.4392745,-122.3499159
721,Southwest Normandy Road,98166,47.4393208,-122.3453849
18225,8th Avenue Southwest,98166,47.4392225,-122.3462016
1225,Southwest Shoremont Avenue,98166,47.4392531,-122.3523818
18129,Marine View Drive Southwest,98166,47.4389961,-122.3498694
18124,Riviera Place Southwest,98166,47.4390519,-122.3476385
18114,Normandy Terrace Southwest,98166,47.4390140,-122.3522989
18153,Riviera Place Southwest,98166,47.4390122,-122.3482828
643,Southwest Normandy Road,98166,47.4391245,-122.3449679
18107,Normandy Terrace Southwest,98166,47.4391174,-122.3531568
627,Southwest Normandy Road,98166,47.4391073,-122.3439290
703,Southwest Normandy Road,98166,47.4390993,-122.3446989
18237,7th Avenue Southwest,98166,47.4388813,-122.3447570
18125,Brittany Drive Southwest,98166,47.4388666,-122.3512860
18123,Normandy Terrace Southwest,98166,47.4388007,-122.3529788
18233,8th Avenue Southwest,98166,47.4389763,-122.3460469
18132,Marine View Drive Southwest,98166,47.4389947,-122.3489576
18234,8th Avenue Southwest,98166,47.4389204,-122.3454526
18126,Brittany Drive Southwest,98166,47.4389927,-122.3504495
18140,Marine View Drive Southwest,98166,47.4387353,-122.3487789
18134,Brittany Drive Southwest,98166,47.4387219,-122.3504471
18277,7th Avenue Southwest,98166,47.4386923,-122.3447934
18240,8th Avenue Southwest,98166,47.4387135,-122.3454631
18130,Riviera Place Southwest,98166,47.4387514,-122.3472067
18155,Riviera Place Southwest,98166,47.4387751,-122.3482990
630,Southwest 183rd Street,98166,47.4387873,-122.3440311
18137,Marine View Drive Southwest,98166,47.4387789,-122.3497771
18194,Brittany Drive Southwest,98166,47.4370405,-122.3498613
18183,Normandy Terrace Southwest,98166,47.4370567,-122.3521219
715,Southwest Colewood Lane,98166,47.4369901,-122.3455083
18185,Normandy Terrace Southwest,98166,47.4369379,-122.3530755
18171,Marine View Drive Southwest,98166,47.4377776,-122.3495331
18174,Brittany Drive Southwest,98166,47.4376652,-122.3500633
18161,Normandy Terrace Southwest,98166,47.4378077,-122.3526293
18154,Normandy Terrace Southwest,98166,47.4378923,-122.3514854
18402,8th Avenue Southwest,98166,47.4377673,-122.3454645
18171,Brittany Drive Southwest,98166,47.4375986,-122.3507283
18183,Marine View Drive Southwest,98166,47.4376015,-122.3494274
18410,8th Avenue Southwest,98166,47.4375393,-122.3449866
18449,8th Avenue Southwest,98166,47.4375851,-122.3462467
18164,Normandy Terrace Southwest,98166,47.4376275,-122.3513815
18353,Riviera Place Southwest,98166,47.4376758,-122.3478794
18171,Normandy Terrace Southwest,98166,47.4375791,-122.3524283
1102,Riviera Place Southwest,98166,47.4372858,-122.3491855
18177,Normandy Terrace Southwest,98166,47.4373389,-122.3521827
18175,Normandy Terrace Southwest,98166,47.4372936,-122.3529906
18181,Brittany Drive Southwest,98166,47.4374089,-122.3506891
18174,Normandy Terrace Southwest,98166,47.4374217,-122.3513725
18184,Brittany Drive Southwest,98166,47.4373904,-122.3499236
1104,Riviera Place Southwest,98166,47.4371366,-122.3495023
702,Southwest Colewood Lane,98166,47.4371816,-122.3446322
18184,Normandy Terrace Southwest,98166,47.4371097,-122.3512234
710,Southwest Colewood Lane,98166,47.4371979,-122.3454753
18504,Marine View Drive Southwest,98166,47.4372420,-122.3481013
18521,Beverly Road Southwest,98166,47.4371569,-122.3470721
18191,Brittany Drive Southwest,98166,47.4371544,-122.3506341
17941,Brittany Drive Southwest,98166,47.4413404,-122.3516379
17953,Marine View Drive Southwest,98166,47.4413437,-122.3502101
17941,Riviera Place Southwest,98166,47.4413060,-122.3486290
814,Southwest Shoremont Avenue,98166,47.4412808,-122.3470676
800,Southwest Normandy Terrace,98166,47.4413881,-122.3448620
17925,Normandy Terrace Southwest,98166,47.4414340,-122.3535704
17950,Marine View Drive Southwest,98166,47.4413849,-122.3493720
17948,Brittany Drive Southwest,98166,47.4413824,-122.3509051
17943,Normandy Terrace Southwest,98166,47.4410869,-122.3533484
17960,Marine View Drive Southwest,98166,47.4411608,-122.3493503
17959,Marine View Drive Southwest,98166,47.4411089,-122.3502515
17952,Brittany Drive Southwest,98166,47.4411376,-122.3509069
804,Southwest Shoremont Avenue,98166,47.4412978,-122.3466148
615,Southwest 179th Place,98166,47.4412854,-122.3439530
17936,Riviera Place Southwest,98166,47.4412102,-122.3479770
17941,Normandy Terrace Southwest,98166,47.4412419,-122.3531907
17962,Marine View Drive Southwest,98166,47.4409275,-122.3493951
830,Southwest Shoremont Avenue,98166,47.4409171,-122.3475268
17951,Brittany Drive Southwest,98166,47.4410952,-122.3515798
17942,Normandy Terrace Southwest,98166,47.4411215,-122.3521180
824,Southwest Shoremont Avenue,98166,47.4410737,-122.3473301
17959,Riviera Place Southwest,98166,47.4408491,-122.3487478
17946,Riviera Place Southwest,98166,47.4408579,-122.3479690
18117,6th Place Southwest,98166,47.4407960,-122.3440197
821,Southwest Shoremont Avenue,98166,47.4408778,-122.3466435
17950,Normandy Terrace Southwest,98166,47.4409115,-122.3521090
17954,Brittany Drive Southwest,98166,47.4408918,-122.3508455
17961,Marine View Drive Southwest,98166,47.4408770,-122.3502812
17959,Brittany Drive Southwest,98166,47.4408758,-122.3515637
17927,Brittany Drive Southwest,98166,47.4417869,-122.3516480
17924,Normandy Terrace Southwest,98166,47.4417841,-122.3527213
17915,Normandy Terrace Southwest,98166,47.4416015,-122.3538213
17916,Riviera Place Southwest,98166,47.4416528,-122.3477659
17940,Brittany Drive Southwest,98166,47.4416179,-122.3509154
17930,Normandy Terrace Southwest,98166,47.4416126,-122.3524241
820,Southwest Normandy Terrace,98166,47.4417564,-122.3461452
17932,Marine View Drive Southwest,98166,47.4417710,-122.3491436
835,Southwest Normandy Terrace,98166,47.4417258,-122.3472152
17923,Riviera Place Southwest,98166,47.4417467,-122.3484353
816,Southwest Normandy Terrace,98166,47.4415116,-122.3461209
17933,Brittany Drive Southwest,98166,47.4415585,-122.3516252
17924,Riviera Place Southwest,98166,47.4414620,-122.3478986
17936,Normandy Terrace Southwest,98166,47.4414353,-122.3522912
17943,Marine View Drive Southwest,98166,47.4415874,-122.3502320
815,Southwest Normandy Terrace,98166,47.4416065,-122.3469518
17931,Riviera Place Southwest,98166,47.4415676,-122.3485720
17940,Marine View Drive Southwest,98166,47.4415834,-122.3492875
700,Southwest Normandy Road,98166,47.4399028,-122.3446922
17988,Normandy Terrace Southwest,98166,47.4399539,-122.3525299
18139,6th Place Southwest,98166,47.4399191,-122.3439384
1120,Southwest Shoremont Avenue,98166,47.4399699,-122.3505176
17968,Normandy Terrace Southwest,98166,47.4401346,-122.3522552
18217,Terrace Court Southwest,98166,47.4400974,-122.3467122
17980,Brittany Drive Southwest,98166,47.4399791,-122.3508586
17991,Normandy Terrace Southwest,98166,47.4400323,-122.3532071
17999,Normandy Terrace Southwest,98166,47.4398097,-122.3533531
18100,Riviera Place Southwest,98166,47.4398244,-122.3476496
18225,Terrace Court Southwest,98166,47.4397041,-122.3470693
1216,Southwest Shoremont Avenue,98166,47.4397699,-122.3522683
18221,Terrace Court Southwest,98166,47.4398778,-122.3468433
1017,Southwest Shoremont Avenue,98166,47.4399037,-122.3485115
18210,Terrace Court Southwest,98166,47.4398374,-122.3459999
17981,Brittany Drive Southwest,98166,47.4398704,-122.3515375
1117,Southwest Shoremont Avenue,98166,47.4395334,-122.3503691
18109,Riviera Place Southwest,98166,47.4396065,-122.3484064
18120,Marine View Drive Southwest,98166,47.4394843,-122.3490864
1123,Southwest Shoremont Avenue,98166,47.4394980,-122.3507515
17998,Normandy Terrace Southwest,98166,47.4397043,-122.3526334
1055,Southwest Shoremont Avenue,98166,47.4397416,-122.3491738
18110,Riviera Place Southwest,98166,47.4395911,-122.3476972
18107,Marine View Drive Southwest,98166,47.4395797,-122.3500101
18120,Riviera Place Southwest,98166,47.4393354,-122.3476105
18121,Riviera Place Southwest,98166,47.4393156,-122.3483230
1217,Southwest Shoremont Avenue,98166,47.4393173,-122.3518740
18230,Terrace Court Southwest,98166,47.4393210,-122.3467855
18229,Terrace Court Southwest,98166,47.4394509,-122.3470467
18105,Brittany Drive Southwest,98166,47.4394045,-122.3513977
18101,Normandy Terrace Southwest,98166,47.4393814,-122.3531996
17961,Brittany Drive Southwest,98166,47.4406557,-122.3515924
17958,Brittany Drive Southwest,98166,47.4406549,-122.3508514
17956,Normandy Terrace Southwest,98166,47.4406200,-122.3520216
17963,Marine View Drive Southwest,98166,47.4406372,-122.3502826
17964,Marine View Drive Southwest,98166,47.4407108,-122.3493724
801,Southwest Normandy Terrace,98166,47.4406759,-122.3462336
831,Southwest Shoremont Avenue,98166,47.4406274,-122.3468160
841,Southwest Shoremont Avenue,98166,47.4404532,-122.3470427
17968,Marine View Drive Southwest,98166,47.4404864,-122.3494156
17962,Brittany Drive Southwest,98166,47.4404207,-122.3509286
17956,Riviera Place Southwest,98166,47.4406391,-122.3480842
17979,Normandy Terrace Southwest,98166,47.4406352,-122.3530751
17989,Riviera Place Southwest,98166,47.4405943,-122.3487456
1042,Southwest Shoremont Avenue,98166,47.4402539,-122.3489420
18209,Terrace Court Southwest,98166,47.4402480,-122.3464645
1000,Southwest Shoremont Avenue,98166,47.4403607,-122.3486561
17960,Normandy Terrace Southwest,98166,47.4403931,-122.3521693
18201,Terrace Court Southwest,98166,47.4403405,-122.3460143
17985,Marine View Drive Southwest,98166,47.4403721,-122.3502021
17970,Brittany Drive Southwest,98166,47.4402027,-122.3509542
17973,Brittany Drive Southwest,98166,47.4401761,-122.3516565
18135,6th Place Southwest,98166,47.4401322,-122.3439956
1106,Southwest Shoremont Avenue,98166,47.4400938,-122.3501705
17985,Normandy Terrace Southwest,98166,47.4402446,-122.3530946
17990,Marine View Drive Southwest,98166,47.4401913,-122.3493668
867,Southwest Shoremont Avenue,98166,47.4401840,-122.3476165
646,Southwest Normandy Road,98166,47.4402405,-122.3450361
611,Southwest Normandy Road,98166,47.4391753,-122.3433708
230,Southwest 183rd Street,98166,47.4391738,-122.3386295
18225,1st Avenue South,98148,47.4391534,-122.3362480
603,Southwest Normandy Road,98166,47.4391969,-122.3430381
214,Southwest 183rd Street,98166,47.4392206,-122.3377526
420,Southwest 183rd Street,98166,47.4391118,-122.3409604
465,Southwest Normandy Road,98166,47.4392304,-122.3427307
18223,3rd Place Southwest,98166,47.4397257,-122.3376453
18217,3rd Place Southwest,98166,47.4396604,-122.3386822
442,Southwest Normandy Road,98166,47.4397759,-122.3419703
450,Southwest Normandy Road,98166,47.4397268,-122.3423147
18207,1st Avenue South,98148,47.4396040,-122.3356785
18207,1st Avenue South,98148,47.4395958,-122.3366655
18209,6th Avenue Southwest,98166,47.4396484,-122.3432047
18221,3rd Place Southwest,98166,47.4396323,-122.3379870
18207,1st Avenue South,98148,47.4396193,-122.3361716
612,Southwest Normandy Road,98166,47.4396163,-122.3435008
216,Southwest 183rd Street,98166,47.4393858,-122.3378589
431,Southwest Normandy Road,98166,47.4393704,-122.3414828
437,Southwest Normandy Road,98166,47.4393446,-122.3417606
220,Southwest 183rd Street,98166,47.4394181,-122.3382323
413,Southwest Normandy Road,98166,47.4394563,-122.3408547
421,Southwest Normandy Road,98166,47.4394145,-122.3411225
18225,1st Avenue South,98148,47.4392945,-122.3369800
449,Southwest Normandy Road,98166,47.4392853,-122.3421196
457,Southwest Normandy Road,98166,47.4392481,-122.3424261
240,Southwest 183rd Street,98166,47.4392742,-122.3390756
18219,4th Avenue Southwest,98166,47.4392830,-122.3405011
17836,3rd Avenue Southwest,98166,47.4423259,-122.3373139
17828,6th Avenue Southwest,98166,47.4423295,-122.3423403
17859,6th Avenue Southwest,98166,47.4422866,-122.3429206
375,Southwest 178th Street,98166,47.4422711,-122.3394787
17818,5th Avenue Southwest,98166,47.4423867,-122.3409339
17575,6th Place Southwest,98166,47.4423826,-122.3433241
17827,5th Avenue Southwest,98166,47.4423636,-122.3416658
17815,4th Avenue Southwest,98166,47.4421492,-122.3401423
17835,5th Avenue Southwest,98166,47.4421234,-122.3417929
17832,5th Avenue Southwest,98166,47.4421295,-122.3411341
17824,3rd Place Southwest,98166,47.4422636,-122.3384860
17833,3rd Avenue Southwest,98166,47.4422445,-122.3378774
17815,3rd Place Southwest,98166,47.4421997,-122.3390561
17855,1st Avenue South,98148,47.4421533,-122.3365979
17841,3rd Avenue Southwest,98166,47.4420218,-122.3379067
17828,3rd Place Southwest,98166,47.4420815,-122.3383501
17825,3rd Place Southwest,98166,47.4419774,-122.3391078
17869,6th Avenue Southwest,98166,47.4419698,-122.3429532
624,Southwest 179th Place,98166,47.4420944,-122.3436060
17840,3rd Avenue Southwest,98166,47.4420870,-122.3372755
17810,4th Avenue Southwest,98166,47.4420950,-122.3395512
17848,3rd Place Southwest,98166,47.4418243,-122.3384226
17846,3rd Avenue Southwest,98166,47.4418331,-122.3373630
17833,3rd Place Southwest,98166,47.4418226,-122.3388532
17820,4th Avenue Southwest,98166,47.4418342,-122.3395822
17842,5th Avenue Southwest,98166,47.4418926,-122.3411804
17825,4th Avenue Southwest,98166,47.4419021,-122.3401874
17847,5th Avenue Southwest,98166,47.4418830,-122.3418674
17846,6th Avenue Southwest,98166,47.4418869,-122.3423162
17561,6th Place Southwest,98166,47.4427498,-122.3436895
17816,6th Avenue Southwest,98166,47.4428616,-122.3420463
618,Southwest 183rd Street,98166,47.4388050,-122.3436816
619,Southwest Normandy Road,98166,47.4391370,-122.3436543
350,Southwest 178th Street,98166,47.4429171,-122.3392946
17542,6th Place Southwest,98166,47.4428818,-122.3431276
17803,3rd Avenue Southwest,98166,47.4428713,-122.3382859
18265,1st Avenue South,98148,47.4384230,-122.3356279
109,Southwest Normandy Road,98166,47.4406425,-122.3354034
353,Southwest 177th Street,98166,47.4427872,-122.3404504
17820,3rd Avenue Southwest,98166,47.4427925,-122.3373803
619,Southwest 183rd Street,98166,47.4383828,-122.3437132
160,Southwest Normandy Road,98166,47.4413566,-122.3367081
17808,5th Avenue Southwest,98166,47.4426134,-122.3407696
17819,3rd Avenue Southwest,98166,47.4426691,-122.3380768
17817,5th Avenue Southwest,98166,47.4426084,-122.3415278
360,Southwest 178th Street,98166,47.4427682,-122.3395991
17811,5th Avenue Southwest,98166,47.4428135,-122.3412872
17804,3rd Place Southwest,98166,47.4427174,-122.3386790
17843,6th Avenue Southwest,98166,47.4427366,-122.3428011
17803,3rd Place Southwest,98166,47.4424375,-122.3391811
17812,3rd Place Southwest,98166,47.4424680,-122.3385642
17805,4th Avenue Southwest,98166,47.4423872,-122.3400984
17828,3rd Avenue Southwest,98166,47.4425458,-122.3373036
17567,6th Place Southwest,98166,47.4425692,-122.3435109
17827,3rd Avenue Southwest,98166,47.4424760,-122.3379255
17818,6th Avenue Southwest,98166,47.4425370,-122.3422511
18126,6th Place Southwest,98166,47.4405933,-122.3431938
203,Southwest Normandy Road,98166,47.4405122,-122.3374413
404,Southwest 182nd Street,98166,47.4406969,-122.3411220
18118,6th Avenue Southwest,98166,47.4406283,-122.3425227
133,Southwest Normandy Road,98166,47.4404425,-122.3371005
458,Southwest 182nd Street,98166,47.4402892,-122.3425419
538,Southwest 182nd Street,98166,47.4403024,-122.3419380
419,Southwest 182nd Street,98166,47.4402677,-122.3408843
207,Southwest Normandy Road,98166,47.4404520,-122.3377161
450,Southwest 182nd Street,98166,47.4402976,-122.3422458
18134,6th Place Southwest,98166,47.4403983,-122.3432082
406,Southwest Normandy Road,98166,47.4400658,-122.3404848
412,Southwest Normandy Road,98166,47.4399343,-122.3408001
18201,6th Avenue Southwest,98166,47.4399605,-122.3431881
18138,6th Place Southwest,98166,47.4401892,-122.3432308
18212,3rd Place Southwest,98166,47.4401633,-122.3383487
418,Southwest Normandy Road,98166,47.4400562,-122.3410700
18207,1st Avenue South,98148,47.4397545,-122.3370312
18207,1st Avenue South,98148,47.4398903,-122.3356806
438,Southwest Normandy Road,98166,47.4398112,-122.3416750
18207,1st Avenue South,98148,47.4398741,-122.3361737
18142,6th Place Southwest,98166,47.4399440,-122.3435249
18225,3rd Place Southwest,98166,47.4398922,-122.3377495
424,Southwest Normandy Road,98166,47.4399115,-122.3413077
504,Southwest 181st Street,98166,47.4414717,-122.3406799
532,Southwest 181st Street,98166,47.4414424,-122.3419619
18003,6th Avenue Southwest,98166,47.4414505,-122.3429914
17845,3rd Avenue Southwest,98166,47.4417793,-122.3379764
18006,3rd Avenue Southwest,98166,47.4415571,-122.3374241
540,Southwest 181st Street,98166,47.4414223,-122.3424006
514,Southwest 181st Street,98166,47.4414295,-122.3412888
18011,3rd Avenue Southwest,98166,47.4413433,-122.3380079
506,Southwest 181st Street,98166,47.4414390,-122.3409970
136,Southwest Normandy Road,98166,47.4414711,-122.3360507
522,Southwest 181st Street,98166,47.4414275,-122.3416354
531,Southwest 181st Street,98166,47.4410305,-122.3419970
511,Southwest 181st Street,98166,47.4410026,-122.3411729
503,Southwest 181st Street,98166,47.4410181,-122.3409114
18105,6th Avenue Southwest,98166,47.4412182,-122.3430410
18024,3rd Avenue Southwest,98166,47.4410139,-122.3374218
527,Southwest 181st Street,98166,47.4407508,-122.3419935
403,Southwest 182nd Street,98166,47.4406839,-122.3403913
614,Southwest 181st Place,98166,47.4409656,-122.3434250
610,Southwest 181st Place,98166,47.4409850,-122.3431104
18110,5th Avenue Southwest,98166,47.4408988,-122.3403425
521,Southwest 181st Street,98166,47.4409450,-122.3414613
18538,Marine View Drive Southwest,98166,47.4360848,-122.3479765
18526,Brittany Drive Southwest,98166,47.4361621,-122.3497543
18625,Beverly Road Southwest,98166,47.4361551,-122.3471684
18604,Beverly Road Southwest,98166,47.4360232,-122.3463321
18511,Normandy Terrace Southwest,98166,47.4362754,-122.3526349
18513,Normandy Terrace Southwest,98166,47.4363577,-122.3519303
18536,Marine View Drive Southwest,98166,47.4363017,-122.3479697
18510,Normandy Terrace Southwest,98166,47.4363283,-122.3511761
614,Southwest 187th Street,98166,47.4358306,-122.3450341
18529,Normandy Terrace Southwest,98166,47.4358050,-122.3520477
18644,8th Avenue Southwest,98166,47.4357802,-122.3457324
18539,Marine View Drive Southwest,98166,47.4357779,-122.3487276
18552,Marine View Drive Southwest,98166,47.4358785,-122.3478232
18614,8th Avenue Southwest,98166,47.4360347,-122.3449025
18528,Brittany Drive Southwest,98166,47.4358694,-122.3497329
18602,Marine View Drive Southwest,98166,47.4356199,-122.3477822
18113,6th Place Southwest,98166,47.4409811,-122.3438158
630,Southwest 179th Place,98166,47.4422140,-122.3438440
612,Southwest 187th Street,98166,47.4357892,-122.3446582
18631,Beverly Road Southwest,98166,47.4357473,-122.3471881
18538,Brittany Drive Southwest,98166,47.4356427,-122.3497000
18629,2nd Avenue Southwest,98166,47.4355448,-122.3383187
18631,2nd Avenue Southwest,98166,47.4355255,-122.3389133
18625,4th Avenue Southwest,98166,47.4355660,-122.3411779
18648,5th Place Southwest,98166,47.4356078,-122.3418520
620,Southwest Normandy Road,98166,47.4396178,-122.3438018
18620,4th Avenue Southwest,98166,47.4355578,-122.3397007
18627,4th Avenue Southwest,98166,47.4355501,-122.3414485
18507,Normandy Terrace Southwest,98166,47.4367498,-122.3520133
611,Southwest Colewood Lane,98166,47.4367107,-122.3442611
1103,Riviera Place Southwest,98166,47.4367563,-122.3490809
18535,Beverly Road Southwest,98166,47.4368994,-122.3472046
18514,Marine View Drive Southwest,98166,47.4369124,-122.3480385
18501,Brittany Drive Southwest,98166,47.4367706,-122.3505605
18188,Normandy Terrace Southwest,98166,47.4368798,-122.3511988
18608,8th Avenue Southwest,98166,47.4366205,-122.3456647
18615,Beverly Road Southwest,98166,47.4364456,-122.3467537
18605,Beverly Road Southwest,98166,47.4364718,-122.3464034
18505,Normandy Terrace Southwest,98166,47.4366626,-122.3529482
705,Southwest Colewood Lane,98166,47.4367144,-122.3447372
18502,Normandy Terrace Southwest,98166,47.4365726,-122.3512317
18524,Riviera Place Southwest,98166,47.4365890,-122.3494558
18449,4th Avenue Southwest,98166,47.4368712,-122.3407793
18448,4th Avenue Southwest,98166,47.4368156,-122.3393824
18450,4th Avenue Southwest,98166,47.4368257,-122.3399901
18529,2nd Avenue Southwest,98166,47.4369770,-122.3379913
562,Southwest Colewood Lane,98166,47.4369000,-122.3435293
542,Southwest 186th Street,98166,47.4367398,-122.3429881
538,Southwest 186th Street,98166,47.4366997,-122.3426263
420,Southwest 186th Street,98166,47.4367296,-122.3416385
434,Southwest 186th Street,98166,47.4367450,-122.3420928
18456,4th Avenue Southwest,98166,47.4365815,-122.3401979
18537,1st Avenue South,98148,47.4365822,-122.3356945
228,Southwest 186th Street,98166,47.4365854,-122.3389088
250,Southwest 186th Street,98166,47.4365966,-122.3398883
18455,4th Avenue Southwest,98166,47.4366925,-122.3407860
418,Southwest 186th Street,98166,47.4366810,-122.3412819
550,Southwest Colewood Lane,98166,47.4366641,-122.3435146
206,Southwest 186th Street,98166,47.4365589,-122.3380278
154,Southwest 186th Street,98166,47.4365686,-122.3375371
138,Southwest 186th Street,98166,47.4365526,-122.3368849
122,Southwest 186th Street,98166,47.4365546,-122.3362613
130,Southwest 186th Street,98166,47.4365739,-122.3365786
214,Southwest 186th Street,98166,47.4365849,-122.3384794
242,Southwest 186th Street,98166,47.4365710,-122.3395939
144,Southwest 186th Street,98166,47.4365732,-122.3371839
161,Southwest 185th Street,98166,47.4374283,-122.3375934
155,Southwest 185th Street,98166,47.4374307,-122.3373017
18434,4th Avenue Southwest,98166,47.4373263,-122.3393999
137,Southwest 185th Street,98166,47.4374778,-122.3365571
149,Southwest 185th Street,98166,47.4374531,-122.3370912
105,Southwest 185th Street,98166,47.4374191,-122.3353170
143,Southwest 185th Street,98166,47.4374560,-122.3368459
574,Southwest Colewood Lane,98166,47.4372394,-122.3434511
18435,4th Avenue Southwest,98166,47.4372468,-122.3408106
18515,2nd Avenue Southwest,98166,47.4373224,-122.3387779
18430,4th Avenue Southwest,98166,47.4373348,-122.3399535
420,Southwest 185th Place,98166,47.4371973,-122.3417360
440,Southwest 185th Place,98166,47.4371649,-122.3429827
418,Southwest 185th Place,98166,47.4371885,-122.3413848
430,Southwest 185th Place,98166,47.4372471,-122.3421475
436,Southwest 185th Place,98166,47.4371842,-122.3426436
18440,4th Avenue Southwest,98166,47.4370845,-122.3397955
18526,2nd Avenue Southwest,98166,47.4371249,-122.3372753
18444,4th Avenue Southwest,98166,47.4370729,-122.3389953
18525,2nd Avenue Southwest,98166,47.4370228,-122.3384407
127,Southwest 186th Street,98166,47.4357293,-122.3367584
18635,5th Place Southwest,98166,47.4357229,-122.3430241
18634,6th Avenue Southwest,98166,47.4357095,-122.3435757
18616,4th Avenue Southwest,98166,47.4357459,-122.3401631
18634,5th Place Southwest,98166,47.4357545,-122.3422110
18619,2nd Avenue Southwest,98166,47.4358120,-122.3386660
18618,4th Avenue Southwest,98166,47.4357664,-122.3395448
18623,1st Avenue South,98148,47.4356552,-122.3357805
125,Southwest 186th Street,98166,47.4356995,-122.3364069
123,Southwest 186th Street,98166,47.4357157,-122.3361496
18620,2nd Avenue Southwest,98166,47.4356645,-122.3374095
18605,1st Avenue South,98148,47.4361915,-122.3356316
407,Southwest 186th Street,98166,47.4361728,-122.3414607
18615,5th Place Southwest,98166,47.4362653,-122.3429790
18603,4th Avenue Southwest,98166,47.4363245,-122.3407937
435,Southwest 186th Street,98166,47.4362614,-122.3422098
415,Southwest 186th Street,98166,47.4363219,-122.3414837
121,Southwest 186th Street,98166,47.4361338,-122.3361004
141,Southwest 186th Street,98166,47.4360388,-122.3370440
205,Southwest 186th Street,98166,47.4360353,-122.3381561
217,Southwest 186th Street,98166,47.4361507,-122.3385926
235,Southwest 186th Street,98166,47.4361428,-122.3393057
18611,4th Avenue Southwest,98166,47.4361417,-122.3408511
18612,4th Avenue Southwest,98166,47.4359925,-122.3402002
18611,1st Avenue South,98148,47.4360215,-122.3355887
233,Southwest 186th Street,98166,47.4360398,-122.3389286
18602,2nd Avenue Southwest,98166,47.4360193,-122.3374883
18624,5th Place Southwest,98166,47.4360248,-122.3422458
18617,1st Avenue South,98148,47.4358390,-122.3356818
411,Southwest 186th Street,98166,47.4358281,-122.3415547
18617,2nd Avenue Southwest,98166,47.4358096,-122.3381825
18617,4th Avenue Southwest,98166,47.4359134,-122.3408378
18610,2nd Avenue Southwest,98166,47.4358449,-122.3373642
18257,1st Avenue South,98148,47.4389279,-122.3370581
18245,1st Avenue South,98148,47.4389448,-122.3353982
18247,1st Avenue South,98148,47.4389436,-122.3356888
18243,1st Avenue South,98148,47.4389408,-122.3351411
18251,1st Avenue South,98148,47.4389381,-122.3362188
18301,4th Avenue Southwest,98166,47.4390625,-122.3405730
18253,1st Avenue South,98148,47.4389345,-122.3365488
424,Southwest 183rd Street,98166,47.4390007,-122.3412675
18259,1st Avenue South,98148,47.4388957,-122.3373352
215,Southwest 183rd Street,98166,47.4389646,-122.3377932
18315,4th Avenue Southwest,98166,47.4388747,-122.3407264
18255,1st Avenue South,98148,47.4389189,-122.3367796
18249,1st Avenue South,98148,47.4389399,-122.3359998
430,Southwest 183rd Street,98166,47.4389721,-122.3415335
436,Southwest 183rd Street,98166,47.4389394,-122.3418057
229,Southwest 183rd Street,98166,47.4387510,-122.3387019
458,Southwest 183rd Street,98166,47.4388113,-122.3427522
602,Southwest 183rd Street,98166,47.4388053,-122.3430614
217,Southwest 183rd Street,98166,47.4388061,-122.3377809
18300,4th Avenue Southwest,98166,47.4387881,-122.3398551
450,Southwest 183rd Street,98166,47.4388630,-122.3424595
221,Southwest 183rd Street,98166,47.4387992,-122.3382238
130,Southwest 184th Street,98166,47.4384106,-122.3365041
610,Southwest 183rd Street,98166,47.4387836,-122.3433766
241,Southwest 183rd Street,98166,47.4387968,-122.3390254
433,Southwest 183rd Street,98166,47.4386049,-122.3416325
251,Southwest 183rd Street,98166,47.4387187,-122.3394942
1350,Southwest 175th Street,98166,47.4463090,-122.3544561
848,Southwest 174th Street,98166,47.4461101,-122.3470458
706,Southwest 174th Place,98166,47.4461830,-122.3444457
824,Southwest 174th Street,98166,47.4463918,-122.3461684
1338,Southwest 175th Street,98166,47.4464089,-122.3536367
17407,7th Place Southwest,98166,47.4462610,-122.3440221
834,Southwest 174th Street,98166,47.4463858,-122.3468065
709,Southwest 174th Place,98166,47.4455685,-122.3448008
868,Southwest 174th Street,98166,47.4457568,-122.3485438
1200,Southwest Eastbrook Road,98166,47.4455243,-122.3505424
703,Southwest 174th Place,98166,47.4455853,-122.3439501
860,Southwest 174th Street,98166,47.4460067,-122.3483109
714,Southwest 174th Place,98166,47.4460416,-122.3447937
1345,Southwest 175th Street,98166,47.4458238,-122.3543621
17477,7th Avenue Southwest,98166,47.4448813,-122.3444397
17479,7th Avenue Southwest,98166,47.4446609,-122.3448267
17601,12th Place Southwest,98166,47.4446852,-122.3498795
861,Southwest 174th Street,98166,47.4452625,-122.3469106
705,Southwest 174th Place,98166,47.4455505,-122.3444192
853,Southwest 174th Street,98166,47.4449993,-122.3471559
17418,12th Place Southwest,98166,47.4450696,-122.3488368
17606,12th Place Southwest,98166,47.4443396,-122.3502326
17622,12th Avenue Southwest,98166,47.4444258,-122.3508426
17559,12th Place Southwest,98166,47.4445950,-122.3494434
17476,7th Avenue Southwest,98166,47.4446750,-122.3441006
17481,7th Avenue Southwest,98166,47.4444330,-122.3448413
851,Southwest 174th Street,98166,47.4445654,-122.3472666
136,Southwest 185th Street,98166,47.4378943,-122.3364950
154,Southwest 185th Street,98166,47.4379133,-122.3372672
130,Southwest 185th Street,98166,47.4378961,-122.3362597
112,Southwest 185th Street,98166,47.4379306,-122.3355101
247,Southwest 184th Street,98166,47.4379507,-122.3397210
211,Southwest 184th Street,98166,47.4379188,-122.3382551
106,Southwest 185th Street,98166,47.4379562,-122.3352584
239,Southwest 184th Street,98166,47.4379349,-122.3393989
148,Southwest 185th Street,98166,47.4378718,-122.3369995
160,Southwest 185th Street,98166,47.4379060,-122.3374790
142,Southwest 185th Street,98166,47.4378986,-122.3367013
118,Southwest 185th Street,98166,47.4378995,-122.3357591
124,Southwest 185th Street,98166,47.4378912,-122.3359705
409,Southwest 185th Street,98166,47.4375436,-122.3409786
213,Southwest 185th Street,98166,47.4376115,-122.3383258
405,Southwest 185th Street,98166,47.4375313,-122.3407055
413,Southwest 185th Street,98166,47.4375373,-122.3413084
18416,4th Avenue Southwest,98166,47.4376937,-122.3400032
207,Southwest 185th Street,98166,47.4375827,-122.3379954
18424,4th Avenue Southwest,98166,47.4375112,-122.3400400
111,Southwest 185th Street,98166,47.4374583,-122.3355778
227,Southwest 185th Street,98166,47.4375007,-122.3387737
427,Southwest 185th Street,98166,47.4375299,-122.3419373
619,Southwest 185th Street,98166,47.4375358,-122.3432389
611,Southwest 183rd Street,98166,47.4383863,-122.3434102
435,Southwest 183rd Street,98166,47.4383994,-122.3418204
206,Southwest 184th Street,98166,47.4383890,-122.3379362
443,Southwest 183rd Street,98166,47.4384103,-122.3421307
605,Southwest 183rd Street,98166,47.4384162,-122.3430015
226,Southwest 184th Street,98166,47.4383711,-122.3388361
415,Southwest 183rd Street,98166,47.4383921,-122.3411323
240,Southwest 184th Street,98166,47.4383708,-122.3393887
144,Southwest 184th Street,98166,47.4383964,-122.3371234
134,Southwest 184th Street,98166,47.4383962,-122.3368489
234,Southwest 184th Street,98166,47.4383777,-122.3391138
248,Southwest 184th Street,98166,47.4383776,-122.3397093
404,Southwest 185th Street,98166,47.4380328,-122.3406693
425,Southwest 183rd Street,98166,47.4383375,-122.3414642
220,Southwest 184th Street,98166,47.4383601,-122.3385189
148,Southwest 184th Street,98166,47.4383279,-122.3374077
212,Southwest 184th Street,98166,47.4383493,-122.3382350
219,Southwest 184th Street,98166,47.4379843,-122.3385179
233,Southwest 184th Street,98166,47.4379803,-122.3391267
205,Southwest 184th Street,98166,47.4379815,-122.3379696
255,Southwest 184th Street,98166,47.4380038,-122.3400347
418,Southwest 185th Street,98166,47.4380200,-122.3415879
434,Southwest 185th Street,98166,47.4380340,-122.3422614
426,Southwest 185th Street,98166,47.4380072,-122.3419310
1347,Southwest 175th Street,98166,47.4457587,-122.3546646
1368,Southwest 174th Street,98166,47.4474409,-122.3546198
17007,12th Place Southwest,98166,47.4503038,-122.3521172
1215,Southwest 170th Street,98166,47.4503675,-122.3529516
17044,16th Avenue Southwest,98166,47.4495671,-122.3546831
18213,3rd Place Southwest,98166,47.4399956,-122.3389775
18215,3rd Place Southwest,98166,47.4398018,-122.3389254
18219,3rd Place Southwest,98166,47.4396245,-122.3383420
221,Southwest Normandy Road,98166,47.4403131,-122.3380365
117,Southwest Normandy Road,98166,47.4409653,-122.3361483
539,Southwest 181st Street,98166,47.4409962,-122.3423586
523,Southwest 181st Street,98166,47.4407870,-122.3416846
131,Southwest 185th Street,98166,47.4374576,-122.3363453
18225,1st Avenue South,98148,47.4394365,-122.3362870
18207,1st Avenue South,98148,47.4398895,-122.3366702
256,Southwest 184th Street,98166,47.4383721,-122.3399956
250,Southwest 183rd Street,98166,47.4392791,-122.3394786
18232,4th Avenue Southwest,98166,47.4394002,-122.3398390
18216,4th Avenue Southwest,98166,47.4395654,-122.3397126
18210,4th Avenue Southwest,98166,47.4396997,-122.3393953
225,Southwest 184th Street,98166,47.4379738,-122.3387990
235,Southwest 185th Street,98166,47.4376041,-122.3391843
236,Southwest 186th Street,98166,47.4365736,-122.3391996
18530,2nd Avenue Southwest,98166,47.4368424,-122.3373060
117,Southwest 185th Street,98166,47.4374658,-122.3357939
125,Southwest 185th Street,98166,47.4374615,-122.3360812
1324,Southwest 174th Street,98166,47.4476743,-122.3528211
1334,Southwest 174th Street,98166,47.4475816,-122.3533353
1135,Southwest 174th Place,98166,47.4476193,-122.3498803
1111,Southwest 174th Place,98166,47.4479320,-122.3489588
1119,Southwest 174th Place,98166,47.4478091,-122.3491848
17232,Sylvester Road Southwest,98166,47.4479091,-122.3545460
17228,8th Avenue Southwest,98166,47.4472136,-122.3443320
17221,8th Avenue Southwest,98166,47.4471254,-122.3453439
1315,Southwest 174th Street,98166,47.4471202,-122.3528479
17220,8th Avenue Southwest,98166,47.4475745,-122.3444160
1318,Southwest 174th Street,98166,47.4476136,-122.3524817
900,Southwest Eastbrook Road,98166,47.4473229,-122.3470706
1213,Southwest 174th Place,98166,47.4475532,-122.3503826
1347,Southwest 174th Street,98166,47.4468665,-122.3541307
1229,Southwest 174th Place,98166,47.4469240,-122.3514361
1349,Southwest 174th Street,98166,47.4468915,-122.3545057
17237,8th Avenue Southwest,98166,47.4468929,-122.3453636
1325,Southwest 174th Street,98166,47.4471039,-122.3531980
17405,13th Avenue Southwest,98166,47.4470440,-122.3524700
1335,Southwest 174th Street,98166,47.4470016,-122.3536208
1000,Southwest Eastbrook Road,98166,47.4470289,-122.3475373
1332,Southwest 175th Street,98166,47.4464772,-122.3533799
1326,Southwest 175th Street,98166,47.4465158,-122.3531243
17424,13th Avenue Southwest,98166,47.4464567,-122.3520673
1221,Southwest 174th Place,98166,47.4466152,-122.3509582
17421,13th Avenue Southwest,98166,47.4466348,-122.3527965
1229,Southwest 171st Place,98166,47.4499198,-122.3525723
17021,12th Place Southwest,98166,47.4499686,-122.3515275
1233,Southwest 171st Place,98166,47.4498581,-122.3528294
17025,12th Place Southwest,98166,47.4499244,-122.3521899
1217,Southwest 170th Street,98166,47.4503105,-122.3533685
1222,Southwest 171st Place,98166,47.4503109,-122.3526140
17007,11th Place Southwest,98166,47.4500367,-122.3492476
17016,16th Avenue Southwest,98166,47.4500629,-122.3544953
1015,Southwest 174th Place,98166,47.4489922,-122.3473701
17062,Sylvester Road Southwest,98166,47.4491118,-122.3532746
17040,Sylvester Road Southwest,98166,47.4488881,-122.3512025
17085,12th Place Southwest,98166,47.4489633,-122.3538875
17031,12th Avenue Southwest,98166,47.4494693,-122.3521662
1239,Southwest 171st Place,98166,47.4497470,-122.3532394
17056,12th Place Southwest,98166,47.4492080,-122.3529759
17037,12th Place Southwest,98166,47.4494084,-122.3524918
17217,Sylvester Road Southwest,98166,47.4485661,-122.3544739
1312,Southwest 172nd Street,98166,47.4485587,-122.3514779
1308,Southwest 172nd Street,98166,47.4484956,-122.3506074
17058,Sylvester Road Southwest,98166,47.4485628,-122.3529579
1027,Southwest 174th Place,98166,47.4486591,-122.3493543
1316,Southwest 172nd Street,98166,47.4486614,-122.3520900
1208,Southwest 174th Place,98166,47.4480372,-122.3505356
1401,Southwest 172nd Street,98166,47.4482009,-122.3530246
1132,Southwest 174th Place,98166,47.4483100,-122.3500092
1329,Southwest 172nd Street,98166,47.4482561,-122.3524355
17204,Sylvester Road Southwest,98166,47.4482273,-122.3536113
18621,4th Avenue Southwest,98166,47.4356286,-122.3407767
18600,4th Avenue Southwest,98166,47.4362081,-122.3400836
247,Southwest 186th Street,98166,47.4361332,-122.3397161
129,Southwest 186th Street,98166,47.4360956,-122.3366025
442,Southwest 183rd Street,98166,47.4389080,-122.3420844
18327,4th Avenue Southwest,98166,47.4385157,-122.3407763
455,Southwest 183rd Street,98166,47.4383980,-122.3425458
412,Southwest 185th Street,98166,47.4379943,-122.3412523
18612,6th Avenue Southwest,98166,47.4362558,-122.3435336
18624,6th Avenue Southwest,98166,47.4360085,-122.3435496
18625,5th Place Southwest,98166,47.4360014,-122.3430080
409,Southwest 186th Street,98166,47.4360003,-122.3414426
414,Southwest 182nd Street,98166,47.4405401,-122.3412809
530,Southwest 182nd Street,98166,47.4403783,-122.3415652
460,Southwest Normandy Road,98166,47.4396898,-122.3425930
511,Southwest 182nd Street,98166,47.4404035,-122.3405698
18156,5th Avenue Southwest,98166,47.4411170,-122.3402380
502,Southwest 181st Street,98166,47.4413881,-122.3402347
405,Southwest Normandy Road,98166,47.4395050,-122.3404126
204,Southwest Normandy Road,98166,47.4407468,-122.3381293
18005,3rd Avenue Southwest,98166,47.4415834,-122.3379554
368,Southwest 178th Street,98166,47.4426492,-122.3398907
414,Southwest 180th Street,98166,47.4419593,-122.3406936
17838,6th Avenue Southwest,98166,47.4420895,-122.3423477
614,Southwest 179th Place,98166,47.4420360,-122.3432732
401,Southwest 197th Street,98166,47.4265034,-122.3416198
19599,4th Avenue Southwest,98166,47.4273486,-122.3418307
19912,Marine View Drive Southwest,98166,47.4234425,-122.3426798
19904,Marine View Drive Southwest,98166,47.4240697,-122.3435475
19601,4th Avenue Southwest,98166,47.4268524,-122.3411391
19701,4th Avenue Southwest,98166,47.4260156,-122.3410048
407,Southwest 197th Street,98166,47.4263307,-122.3428842
16851,Sylvester Road Southwest,98166,47.4515190,-122.3491465
17002,12th Place Southwest,98166,47.4503688,-122.3513444
16840,12th Avenue Southwest,98166,47.4513498,-122.3502636
16810,12th Avenue Southwest,98166,47.4521497,-122.3499331
16824,Sylvester Road Southwest,98166,47.4517376,-122.3468540
16866,Sylvester Road Southwest,98166,47.4508722,-122.3489137
17001,11th Place Southwest,98166,47.4503385,-122.3492246
1206,Southwest 170th Street,98166,47.4508359,-122.3523520
16835,12th Avenue Southwest,98166,47.4514415,-122.3515141
16819,12th Avenue Southwest,98166,47.4519576,-122.3509169
16803,12th Avenue Southwest,98166,47.4522300,-122.3506910
16855,Sylvester Road Southwest,98166,47.4512799,-122.3494981
16806,8th Avenue Southwest,98166,47.4522129,-122.3440642
805,Southwest 168th Place,98166,47.4518125,-122.3452438
16804,Sylvester Road Southwest,98166,47.4518668,-122.3464216
211,Southwest 196th Place,98166,47.4275564,-122.3383668
19701,1st Place Southwest,98166,47.4262360,-122.3371529
19605,1st Place Southwest,98166,47.4271241,-122.3375721
234,Southwest 200th Street,98166,47.4238792,-122.3384699
220,Southwest 197th Place,98166,47.4258820,-122.3388474
1315,Southwest 175th Street,98166,47.4459998,-122.3531005
1325,Southwest 175th Street,98166,47.4459396,-122.3535217
1335,Southwest 175th Street,98166,47.4458887,-122.3539186
1352,Southwest 175th Street,98166,47.4462135,-122.3547653
1348,Southwest 175th Street,98166,47.4463561,-122.3539677
1177,Southwest Eastbrook Road,98166,47.4449998,-122.3503783
1100,Southwest Eastbrook Road,98166,47.4463933,-122.3496040
872,Southwest 174th Street,98166,47.4449305,-122.3481683
856,Southwest 174th Street,98166,47.4461480,-122.3479349
812,Southwest 174th Street,98166,47.4464475,-122.3458126
17217,8th Avenue Southwest,98166,47.4473544,-122.3453642
17215,8th Avenue Southwest,98166,47.4476526,-122.3452593
17214,8th Avenue Southwest,98166,47.4478686,-122.3446657
17529,13th Avenue Southwest,98166,47.4455375,-122.3526011
17509,6th Place Southwest,98166,47.4434473,-122.3441815
1010,Southwest 178th Street,98166,47.4430411,-122.3474211
1006,Southwest 178th Street,98166,47.4433643,-122.3468252
22030,Cliff Avenue South,98198,47.4047969,-122.3289133
22030,Cliff Avenue South,98198,47.4043438,-122.3288526
17624,1st Avenue South,98148,47.4445001,-122.3335481
17700,1st Avenue South,98148,47.4432386,-122.3336546
18004,1st Avenue South,98148,47.4415233,-122.3341357
18040,1st Avenue South,98148,47.4404842,-122.3341873
18210,1st Avenue South,98148,47.4397108,-122.3343766
17824,1st Avenue South,98148,47.4424724,-122.3338634
17326,21st Avenue Southwest,98166,47.4452091,-122.3602006
17600,Sylvester Road Southwest,98166,47.4453169,-122.3596740
2103,Southwest 174th Street,98166,47.4454070,-122.3614319
425,Southwest 164th Street,98166,47.4559151,-122.3395067
16203,1st Avenue South,98148,47.4577552,-122.3357906
17827,1st Avenue South,98148,47.4424728,-122.3347748
123,Southwest 166th Place,98166,47.4535800,-122.3350894
208,South 219th Street,98198,47.4065339,-122.3324343
18130,Normandy Terrace Southwest,98166,47.4388432,-122.3519807
19210,Edgecliff Drive Southwest,98166,47.4313659,-122.3498597
19203,Edgecliff Drive Southwest,98166,47.4310492,-122.3503913
19215,Edgecliff Drive Southwest,98166,47.4308190,-122.3502417
20419,1st Avenue South,98198,47.4189433,-122.3364833
1015,Southwest 174th Street,98166,47.4483081,-122.3468692
1403,Southwest 168th Street,98166,47.4520548,-122.3530870
19800,Marine View Drive Southwest,98166,47.4249924,-122.3414126
17969,Normandy Terrace Southwest,98166,47.4408721,-122.3530281
18610,Marine View Drive Southwest,98166,47.4353842,-122.3476843
