House number,Street name,Postal code,Latitude,Longitude
102,West Front Street,98362,48.1198474,-123.4329600
222,North Lincoln Street,98362,48.1197330,-123.4306121
222,North Lincoln Street,98362,48.1199192,-123.4304404
118,East Front Street,98362,48.1194004,-123.4319474
120,East Front Street,98362,48.1193742,-123.4318785
118 1/2,East Front Street,98362,48.1194278,-123.4320048
403,South Lincoln,98362,48.1152908,-123.4342008
633,East 1st Street,98632,48.1148592,-123.4228497
106,West Front Street,98362,48.1199375,-123.4331610
403,South Lincoln Street,98362,48.1154071,-123.4337880
725,East 1st Street,98362,48.1142020,-123.4212145
1210,East Front Street,98362,48.1112229,-123.4123535
2010,Highway 101 West,98363,48.1038089,-123.4904858
2358,Olympic Highway,98363,48.1027373,-123.5004300
2358,Highway 101 WEST,98363,48.1027433,-123.5003309
110,East 3rd Street,98362,48.1159664,-123.4347814
834,East Front Street,98362,48.1138707,-123.4184691
330,East 1st Street,98362,48.1169315,-123.4289852
336,East 8th Street,98362,48.1106732,-123.4339990
112,Del Guzzi Drive,98362,48.1056949,-123.3987233
1940,East 1st Street,98362,48.1056018,-123.4011104
1940,East 1st Street,98362,48.1056663,-123.3994796
110,East 3rd Street,98362,48.1159232,-123.4349086
115,East Railroad Avenue,98362,48.1208227,-123.4303296
115,East Railroad Avenue,98362,48.1206536,-123.4307423
1,Ediz Hook Road,98362,48.1395001,-123.4132795
1,Ediz Hook Road,98362,48.1395680,-123.4140853
1,Ediz Hook Road,98362,48.1399063,-123.4135893
1,Ediz Hook Road,98362,48.1395413,-123.4136529
1,Ediz Hook Road,98362,48.1397489,-123.4136141
330,East 1st Street,98362,48.1166498,-123.4286547
2301,S Francis St,98362,48.1046260,-123.4289263
112,South Lincoln Street,98362,48.1179789,-123.4321560
902,East 1st Street,98362,48.1125645,-123.4188766
902,East 1st Street,98362,48.1126917,-123.4187297
2001,East First Street,98362,48.1066468,-123.3996600
1108,East 1st Street,98362,48.1111894,-123.4150486
511,West 8th Street,98362,48.1165389,-123.4473140
104,West 1st Street,98362,48.1189695,-123.4338429
2021,East 1st Street,98362,48.1067626,-123.3990280
2021,East 1st Street,98362,48.1067328,-123.3988530
304,East Park Avenue,98362,48.1007051,-123.4414178
110,East 3RD Street,98362,48.1164005,-123.4338057
1,Ediz Hook Road,98362,48.1403523,-123.4132432
110,East 3rd Street,98362,48.1159437,-123.4353359
315,North Lincoln Street,98362,48.1202440,-123.4288338
3002,Mount Angeles Road,98362,48.0993289,-123.4257063
1123,East 1st Street,98362,48.1113060,-123.4140376
114,East Lauridsen Boulevard,98362,48.1068262,-123.4446243
905,West 9th Street,98363,48.1190946,-123.4558354
223,East 4th St.,98362,48.1157873,-123.4326243
939,Caroline Street,98362,48.1154183,-123.4146344
401,East Front Street,98362,48.1177324,-123.4269527
405,East Front Street,98362,48.1176336,-123.4267242
1502,East Lauridsen Boulevard,98362,48.1005363,-123.4132441
304,Viewcrest Avenue,98362,48.0971762,-123.4410202
301,Lopez Avenue,98362,48.1049863,-123.4399134
3415,South Peabody Street,98362,48.0949401,-123.4368509
1137,Highway 101 West,98363,48.1064620,-123.4702954
520,East Park Avenue,98362,48.1001893,-123.4356519
1830,East 1st Street,98362,48.1065334,-123.4028316
1908,East 1st Street,98362,48.1064491,-123.4020655
924,West 9th Street,98362,48.1188377,-123.4571004
802,South C Street,98363,48.1202706,-123.4574836
929,West 8th Street,98363,48.1202262,-123.4562930
124,West Railroad Avenue,98362,48.1209807,-123.4332787
123,East Front Street,98362,48.1195788,-123.4311653
131,East 1st Street,98362,48.1185845,-123.4318152
136,East 1st Street,98362,48.1182199,-123.4320276
902,East Front Street,98362,48.1136092,-123.4179604
535,East Front Street,98632,48.1165318,-123.4235986
907,Georgiana Street,98362,48.1148364,-123.4165275
1020,East Front Street,98362,48.1126006,-123.4155442
216,South Francis Street,98362,48.1124999,-123.4224931
322,Fogarty Street,98362,48.1042322,-123.4510728
122,West Lauridsen Boulevard,98362,48.1073755,-123.4464178
2104,East 1st Street,98362,48.1055256,-123.3962912
1807,East Front Street,98362,48.1082605,-123.4027694
205,East 8th Street,98362,48.1123745,-123.4366147
819,South Lincoln Street,98362,48.1114823,-123.4376219
901,South Lincoln Street,98362,48.1110167,-123.4380421
102,North Cedar Street,98363,48.1234061,-123.4446013
134,East 7th Street,98362,48.1128872,-123.4370614
320,Tumwater Truck Road,98363,48.1211995,-123.4467484
4130,Tumwater Truck Route,98363,48.1085713,-123.4623237
4230,Tumwater Truck Route,98363,48.1079358,-123.4628251
2010,Highway 101 West,98363,48.1037649,-123.4904255
2358,Highway 101 WEST,98363,48.1022779,-123.5004703
1706,East Front Street,98362,48.1072738,-123.4031239
140,Del Guzzi Drive,98362,48.1050933,-123.3978167
1134,East Park Avenue,98362,48.1016079,-123.4208427
108,West 8th Street,98362,48.1128288,-123.4395665
1158,Olympus Avenue,98362,48.0979221,-123.4196508
1149,Olympus Avenue,98362,48.0983675,-123.4195613
1136,Olympus Avenue,98362,48.0978413,-123.4201546
1134,Olympus Avenue,98362,48.0978853,-123.4204864
1155,Craig Avenue,98362,48.0974901,-123.4197372
1135,Craig Avenue,98362,48.0975283,-123.4205807
1,Ediz Hook Road,98362,48.1405312,-123.4143488
1,Ediz Hook Road,98362,48.1405152,-123.4113821
717,South Race Street,98362,48.1071222,-123.4238583
1105,South Eunice Street,98362,48.1054565,-123.4304821
3002,Oakcrest Loop,98362,48.0989950,-123.4467329
2001,East First Street,98362,48.1067371,-123.3996691
1405,East Front Street,98362,48.1103203,-123.4083656
1315,East Front Street,98362,48.1107599,-123.4098114
815,West 9th Street,98362,48.1182692,-123.4544149
1502,E Lauridsen Boulevard,98362,48.1008598,-123.4141901
138,West 13th Street,98362,48.1091469,-123.4449531
1122,South E Street,98363,48.1189869,-123.4643262
1206,10th Street,98363,48.1200240,-123.4631840
1216,West 11th Street,98363,48.1197157,-123.4635437
822,South C Street,98363,48.1197860,-123.4578432
1036,West 8th Street,98363,48.1207724,-123.4588196
1109,West 8th Street,98363,48.1215196,-123.4594531
1110,West 4th Street,98363,48.1244514,-123.4564394
2301,South Francis Street,98362,48.1047231,-123.4287982
2321,South Francis Street,98362,48.1041755,-123.4288648
518,Marine Drive,98363,48.1215036,-123.4432831
216,East 4th Street,98362,48.1150433,-123.4332755
321,East 5th Street,98362,48.1143836,-123.4322710
1317,Bent Cedars Way,98362,48.0915691,-123.4166067
903,West 8th Street,98362,48.1197140,-123.4552353
113,East 13th Street,98362,48.1084963,-123.4420542
1224,South Lincoln Street,98362,48.1081836,-123.4412176
129,East 13th Street,98362,48.1082243,-123.4413802
127,East 13th Street,98362,48.1083342,-123.4415131
121,East 13th Street,98362,48.1083758,-123.4417404
117,East 13th Street,98362,48.1084460,-123.4419055
101,East 13th Street,98362,48.1087243,-123.4425868
107,East 13th Street,98362,48.1086356,-123.4424172
111,East 13th Street,98362,48.1086042,-123.4422324
1134,East Park Avenue,98362,48.1015868,-123.4200570
1204,South Cedar Street,98362,48.1134851,-123.4526612
1845,East Woodhaven Lane,98362,48.0950577,-123.4032219
1840,East Woodhaven Lane,98362,48.0944610,-123.4036301
1830,East Woodhaven Lane,98362,48.0949427,-123.4044523
1820,East Woodhaven Lane,98362,48.0948880,-123.4050502
511,West 12th Street,98362,48.1131578,-123.4505490
1007,South Oak Street,98362,48.1115351,-123.4422249
510,East Park Avenue,98362,48.1007977,-123.4359952
108,Del Guzzi Drive,98362,48.1059457,-123.3982372
2021,East 1st Street,98362,48.1067537,-123.3989400
110,East 7th Street,98362,48.1133958,-123.4380579
