House number,Street name,Postal code,Latitude,Longitude
334,West Spokane Falls Boulevard,99201,47.6609810,-117.4125770
924,West Garland Avenue,99205,47.6938340,-117.4256230
1931,W Pacific Ave,99201,47.6553619,-117.4414050
4740,North Division Street,99207,47.7035121,-117.4076749
239,West Main Avenue,99201,47.6587282,-117.4152000
2401,West Wellesley Avenue,99205,47.6994236,-117.4471830
810,East 29th Avenue,99203,47.6270386,-117.3999029
830,East 29th Avenue,99203,47.6270125,-117.3994121
402,West Main Avenue,99201,47.6592250,-117.4182664
9001,North Indian Trail Road,99208,47.7396711,-117.4881562
404,West Main Avenue,99201,47.6592255,-117.4184368
6105,East Rutter Avenue,99212,47.6805524,-117.3199187
1425,West Broadway Avenue,99201,47.6641867,-117.4336808
626,South Sheridan Street,99202,47.6501489,-117.4022919
1426,South Lincoln Street,99203,47.6419482,-117.4243889
611,East 30th Avenue,99203,47.6275215,-117.4011871
521,East Holland Avenue,99218,47.7443681,-117.4019670
920,Indiana Avenue,99205,47.6752157,-117.4259760
105,East Mission Avenue,99202,47.6720789,-117.4092460
1818,West Francis Avenue,99205,47.7164671,-117.4390190
1840,West Francis Avenue,99205-6834,47.7164572,-117.4394540
1804,West Francis Avenue,99205,47.7164590,-117.4382040
1225,North Ruby,99202,47.6691462,-117.4098865
3527,East Sprague Avenue,99202,47.6575007,-117.3584500
829,East Boone Avenue,99202,47.6686103,-117.3967454
2651,East 38th Avenue,99223,47.6201598,-117.3714274
916,West 2nd Avenue,99201,47.6546257,-117.4256703
5830,North Division Street,99207-1207,47.7102811,-117.4101960
5504,North Division Street,99208,47.7084492,-117.4096067
5520,North Division Street,99208,47.7088598,-117.4096014
1902,West Francis Avenue,99205,47.7157437,-117.4389144
12519,North Division Street,99218,47.7425882,-117.4094610
9031,North Indian Trail Road,99208,47.7404552,-117.4886861
9023,North Indian Trail Road,99208,47.7401801,-117.4884695
4416,South Regal Street,99223-7935,47.6127763,-117.3692719
2912,E Palouse Hwy,99223,47.6099609,-117.3675750
3104,East Palouse Highway,99223,47.6100242,-117.3651610
7302,North Division Street,99208,47.7234462,-117.4104600
4727,North Division Street,99207,47.7022258,-117.4115850
5005,North Division,99207,47.7036636,-117.4116664
9502,North Newport Highway,99218,47.7442954,-117.4060841
9502,North Newport Highway,99218,47.7446615,-117.4058678
9970,North Newport Highway,99218,47.7491486,-117.3985277
9612,North Newport Highway,99218,47.7461052,-117.4023230
9950,North Newport Highway,99218,47.7484029,-117.3992036
9960,North Newport Highway,99218,47.7487455,-117.3988844
9770,North Newport Highway,99218-1249,47.7474912,-117.4001397
9980,North Newport Highway,99218,47.7496112,-117.3981495
122,South Monroe Street,99201,47.6564232,-117.4267380
1125,West 3rd Avenue,99201,47.6536741,-117.4305380
1208,West 3rd Avenue,99201,47.6536817,-117.4285080
3901,North Market Street,99207,47.6936916,-117.3655880
3919,North Market Street,99207,47.6938442,-117.3655800
4727,North Division Street,99207,47.7018218,-117.4126550
2223,West Wellesley Road,99205,47.7004010,-117.4446920
2225,West Wellesley Avenue,99205,47.6994614,-117.4442680
2401,West Wellesley Avenue,99205,47.6992750,-117.4476440
2503,West Wellesley Avenue,99205,47.7003842,-117.4482244
2503,West Wellesley Avenue,99205,47.7003801,-117.4478558
520,East North Foothills Drive,99207,47.6830641,-117.4018778
701,North Monroe Street,99201,47.6636148,-117.4268257
6420,North Nevada,99208,47.7166208,-117.3945795
6506,North Nevada Street,99208,47.7172330,-117.3934650
4919,South Regal Street,99223,47.6089777,-117.3676609
802,East 29th Avenue,99203-3219,47.6272333,-117.4005300
22,West Main Avenue,99201,47.6592885,-117.4121472
4207,East Main Avenue,99202,47.6593071,-117.3488560
2600,East Ferry Avenue,99202,47.6605139,-117.3723109
301,North Haven Street,99202,47.6606262,-117.3675763
201,North Haven Street,99202,47.6596444,-117.3675976
5525,North Alberta Street,99205,47.7087535,-117.4495970
204,North Division Street,99202,47.6592679,-117.4109220
2905,South Southeast Boulevard,99223,47.6279407,-117.3748201
1424,West 3rd Avenue,99201,47.6538462,-117.4337811
721,West Main,99201,47.6588527,-117.4231541
4507,West Wellesley Avenue,99205,47.7005291,-117.4773400
502,West Riverside Avenue,99201,47.6581060,-117.4198273
1422,West 3rd Avenue,99201,47.6538453,-117.4335238
525,West 1st Avenue,99201,47.6564447,-117.4208706
2828,East 30th,99223-4782,47.6269737,-117.3687780
818,West Garland Avenue,99205,47.6935814,-117.4239751
801,West Main Avenue,99201,47.6588503,-117.4237459
407,North Madelia Street,99202,47.6609088,-117.3859534
3003,East Mission Avenue,99202,47.6720113,-117.3668130
9000,West Airport Drive,99224,47.6255373,-117.5360630
900,West Airport Way,99224,47.6257658,-117.5361530
9000,West Airport Drive,99224,47.6237565,-117.5399190
901,South Grand Boulevard,99202,47.6470654,-117.4129453
220,West Main Avenue,99201,47.6594536,-117.4142303
5504,North Division Street,99208,47.7082341,-117.4095942
419,North Nettleton Street,99201,47.6609234,-117.4460883
601,South Sherman Street,99202,47.6507618,-117.4024130
1011,East 2nd Avenue,99202,47.6550110,-117.3949487
2,West 3rd Avenue,99201,47.6538639,-117.4116570
357,East 3rd Avenue,99202,47.6537179,-117.4056280
320,West Spofford Avenue,99205,47.6723848,-117.4165956
214,North Howard Street,99201,47.6595079,-117.4208917
827,West 1st Avenue,99201,47.6564254,-117.4245325
618,West Main Avenue,99201,47.6592273,-117.4218549
9405,North Newport Highway,99218,47.7434589,-117.4086496
10,North Post Street,99201,47.6577579,-117.4233070
1003,East Trent Avenue,99202,47.6628311,-117.3943170
9333,North Newport Highway,99218,47.7425166,-117.4094534
324,South Sherman Street,99202,47.6527747,-117.4041260
4407,North Division Street,99207,47.6982149,-117.4122095
2807,S Stone,99223,47.6292023,-117.3757342
1717,South Rustle Road,99224,47.6388105,-117.4722777
618,West Riverside Avenue,99201,47.6581232,-117.4213425
1724,West Wellesley Avenue,99205,47.7012757,-117.4375570
1704,West Wellesley Avenue,99205,47.7012860,-117.4370269
722,West Main Avenue,99201,47.6592232,-117.4232370
828,West Main Avenue,99201,47.6595849,-117.4245813
808,West Main Avenue,99201,47.6593432,-117.4232126
808,West Main Avenue,99201,47.6593642,-117.4238400
702,East Desmet Avenue,99202,47.6671106,-117.3992704
801,East Desmet Avenue,99202,47.6676680,-117.3977606
1309,West Summit Parkway,99203,47.6616486,-117.4313129
1333,West Summit Parkway,99201,47.6616940,-117.4319853
820,West Garland Avenue,99205,47.6935804,-117.4240530
817,West Garland Avenue,99205,47.6933039,-117.4240864
1120,North Division,99202,47.6675479,-117.4107751
1120,North Division,99202,47.6677377,-117.4107820
401,West Main Avenue,99201,47.6588823,-117.4182458
1003,East Trent Avenue,99202,47.6625807,-117.3944575
829,East Boone Avenue,99202,47.6686442,-117.3969591
829,East Boone Avenue,99202,47.6688716,-117.3969553
2015,North Division Street,99207,47.6762722,-117.4114604
2525,East 29th Avenue,99223,47.6285409,-117.3733350
2819,East 29th Street,99223,47.6284131,-117.3693575
2975,East 29th Avenue,99223,47.6289581,-117.3666631
2801,East 29th Avenue,99223-4809,47.6290723,-117.3694392
2805,East 29th Avenue,99223,47.6290723,-117.3690717
2931,East 29th Street,99223,47.6290826,-117.3671150
4100,South Cheney-Spokane Road,99224,47.6163450,-117.4321786
621,West Mallon Avenue,99201,47.6651752,-117.4219671
9746,West Sunset Highway,99224,47.6436472,-117.5481056
110,South Monroe Street,99201,47.6563532,-117.4267567
212,North Division Street,99202,47.6595331,-117.4109300
1318,West 1st Avenue,99201,47.6568266,-117.4319910
232,North Howard Street,99201,47.6599738,-117.4209148
218,North Howard Street,99201,47.6596477,-117.4209125
222,North Howard Street,99201,47.6597279,-117.4209121
6125,N Division St,99208,47.7140020,-117.4119650
3023,East 55th Avenue,99223,47.6041947,-117.3660420
1616,North Washington Street,99205,47.6729000,-117.4170095
3325,West Indian Trail Road,99208,47.7176468,-117.4628819
3327,East Olive Avenue,99202,47.6619774,-117.3612097
3210,East Ferry Avenue,99202,47.6607925,-117.3632166
850,East Spokane Falls Boulevard,99202,47.6607328,-117.3975508
850,East Spokane Falls Boulevard,99202,47.6606873,-117.3977255
840,East Spokane Falls Boulevard,99202,47.6614466,-117.3975470
9212,North Colton,99218,47.7410928,-117.4028479
410,East Holland Avenue,99218,47.7434846,-117.4052168
7808,North Division Street,99208,47.7292004,-117.4107270
421,West Main Avenue,99201,47.6588767,-117.4192264
105,South Madison Street,99201,47.6563573,-117.4278480
1704,West Francis,99205,47.7156926,-117.4367215
1706,West Francis Avenue,99205,47.7156944,-117.4368962
1312,North Monroe Street,99201,47.6694673,-117.4263240
1302,West 2nd Avenue,99201,47.6545785,-117.4313283
122,South Monroe Street,99201,47.6558313,-117.4267099
15,South Howard Street,99201,47.6567911,-117.4208732
17,South Howard Street,99201,47.6567134,-117.4208705
617,North Ash Street,99201,47.6632170,-117.4368094
415,West Main Avenue,99201,47.6588804,-117.4187652
411,North Nettleton Street,99201,47.6608350,-117.4460663
304,West Pacific Avenue,99201,47.6552641,-117.4168240
414 1/2,West Sprague Avenue,99201,47.6573551,-117.4187607
421,West Main Avenue,99201,47.6588799,-117.4188854
821,West Riverside Avenue,99201,47.6577526,-117.4244415
157,South Howard Street,99201,47.6553578,-117.4208544
3020,East Queen Avenue,99217,47.7041178,-117.3654326
915,West 2nd Avenue,99201,47.6552320,-117.4286410
933,East Mission Avenue,99202,47.6722254,-117.3951001
2509,East 29th Avenue,99223,47.6292678,-117.3748490
1337,S Grand Blvd,99202,47.6430157,-117.4083509
2926,East 29th Avenue,99223,47.6280969,-117.3674318
6704,North Nevada Street,99208,47.7188737,-117.3946689
1403,West Broadway Avenue,99201,47.6641843,-117.4328855
2020,East 29th Avenue,99203,47.6279552,-117.3810520
9520,North Newport Highway,99218,47.7453047,-117.4026632
9520,North Newport Highway,99218,47.7450177,-117.4029234
4110,North Cook Street,99207,47.6952587,-117.3730095
4001,North Cook Street,99207,47.6942342,-117.3741505
707,West Main Avenue,99201,47.6587144,-117.4226180
7630,North Division Street,99208-5614,47.7274935,-117.4091977
218,North Bernard Street,99201,47.6597411,-117.4157870
303,West Main Avenue,99201,47.6588687,-117.4162954
126,North Washington Street,99201,47.6588846,-117.4178469
207,North Wall Street,99201,47.6595182,-117.4222030
612,West Main Avenue,99201,47.6593809,-117.4214402
117,North Howard Street,99201,47.6585466,-117.4213991
210,North Howard Street,99201,47.6594091,-117.4208907
520,West Main Avenue,99201,47.6592340,-117.4204735
203,North Washington Street,99201,47.6593064,-117.4183048
207,North Wall Street,99201,47.6594815,-117.4222158
701,West Riverside,99201,47.6577594,-117.4229520
19,West Main Avenue,99201,47.6589186,-117.4119444
19,West Main Avenue,99201,47.6587226,-117.4119464
19,West Main Avenue,99201,47.6588409,-117.4120713
202,West 2nd Avenue,99201,47.6546632,-117.4152862
21,West Main Avenue,99201,47.6589279,-117.4123691
628,South Washington Street,99204,47.6495755,-117.4182404
9602,North Newport Highway,99218,47.7459678,-117.4043275
3907,North Market,99207,47.6938000,-117.3655880
808,West Main Street,99201,47.6594835,-117.4230597
707,West Main Avenue,99201,47.6588707,-117.4223057
601,West Main Street,99201,47.6587805,-117.4216840
1117,North Dakota,99206,47.6670679,-117.3996235
930,North Division Street,99202,47.6658201,-117.4107362
1730,North Division Street,99207,47.6736379,-117.4107635
4750,North Division,99207,47.7034790,-117.4083262
2503,West Wellesley Avenue,99205,47.7003010,-117.4480467
45,East Weile Avenue,99208,47.7226552,-117.4084876
47,East Weile Avenue,99208,47.7226530,-117.4082965
49,East Weile Avenue,99208,47.7226501,-117.4080435
1011,West First Avenue,99201,47.6563572,-117.4272166
3010,South Southeast Boulevard,99223,47.6265358,-117.3759882
2720,East 29th Avenue,99223,47.6279259,-117.3704390
2804,East 30th Avenue,99223,47.6269710,-117.3697403
9,South Washington Street,99201,47.6567858,-117.4177160
801,West Riverside Avenue,99201,47.6577612,-117.4237181
12,East Rowan Avenue,99207,47.7076476,-117.4105568
227,West Riverside Avenue,99201,47.6578096,-117.4148148
201,West Riverside Avenue,99201,47.6578232,-117.4134896
17,North Browne Street,99201,47.6576420,-117.4134917
230,South Washington Street,99201,47.6536331,-117.4181917
104,South Freya Street,99202,47.6550369,-117.3580259
2215,East 29th Avenue,99203,47.6285577,-117.3787922
1307,South Grand Boulevard,99202,47.6435938,-117.4088593
705,West 1st Avenue,99201,47.6563436,-117.4224543
6817,North Cedar Street,99208,47.7201579,-117.4327655
6404,North Ash Street,99208,47.7165346,-117.4358246
1335,West Summit Parkway,99201,47.6616727,-117.4322327
3417,East Springfield Avenue,99202,47.6641071,-117.3597763
1924,West Pacific Avenue,99201,47.6558030,-117.4413356
1503,East Blackwood Lane,99223,47.6006774,-117.3915607
6012,South Welden Court,99223,47.5990927,-117.3935194
922,South Cowley Street,99202,47.6466942,-117.4085448
922,South Cowley Street,99202,47.6466730,-117.4085097
707,East Sharp Avenue,99202,47.6697817,-117.3992937
630,East Sharp Avenue,99202,47.6692183,-117.4002708
908,East 24th Avenue,99203,47.6324771,-117.3961738
808,West Spokane Falls Boulevard,99201,47.6605185,-117.4241502
906,West Main Avenue,99201,47.6594245,-117.4255171
920,West Main Avenue,99201,47.6585807,-117.4260620
3324,South Perry Street,99203,47.6243207,-117.3906656
120,N Post,99202,47.6587643,-117.4077025
1829,North Monroe Street,99205-4529,47.6746928,-117.4270755
5602,North Division Street,99208-1213,47.7091417,-117.4107839
9212,North Colton Street,99218,47.7414998,-117.4021518
9116,North Newport Highway,99218,47.7413713,-117.4070850
1515,West 1st Avenue,99204,47.6559782,-117.4349615
221,West 1st Avenue,99201,47.6564158,-117.4153918
207,West Spokane Falls Boulevard,99201,47.6598981,-117.4137072
331,North Post Street,99201,47.6611210,-117.4239710
33,West Spokane Falls Boulevard,99201-0120,47.6597601,-117.4126066
44,West Main Avenue,99201,47.6594164,-117.4127166
501,North Riverpoint Boulevard,99202,47.6624680,-117.4083207
1,North Monroe Street,99201,47.6578436,-117.4273209
311,North Riverpoint Boulevard,99202,47.6608071,-117.4098591
828,West Sprague Avenue,99201,47.6574083,-117.4246844
809,West Main Avenue,99201,47.6587107,-117.4242850
717,West Sprague Avenue,99201,47.6568903,-117.4228106
21,West Main Avenue,99201,47.6587552,-117.4123374
518,West 1st Avenue,99201,47.6569020,-117.4203163
44,West Riverside Avenue,99201,47.6583158,-117.4127595
3,West Riverside Avenue,99201,47.6576902,-117.4115908
201,West Riverside Avenue,99201,47.6577190,-117.4135521
123,South Post Street,99201,47.6558438,-117.4227863
228,West Sprague Avenue,99201,47.6574707,-117.4145984
111,South Post Street,99201,47.6563722,-117.4230098
8909,West Airport Drive,99224,47.6287367,-117.5380469
3200,North Ferrall Street,99217,47.6874678,-117.3584900
1600,North Howard Street,99205,47.6723545,-117.4197152
7619,North Division Street,99208,47.7277231,-117.4139045
7522,North Division Street,99208,47.7267059,-117.4107778
725,East Joseph Avenue,99208,47.7105133,-117.3986311
5610,North Maple Street,99205,47.7094537,-117.4341005
319,West Nebraska Avenue,99205,47.7083728,-117.4157421
4436,North Division Street,99207-1503,47.6985581,-117.4105960
1616,West Wellesley Avenue,99205,47.6990086,-117.4483527
1616,West Wellesley Avenue,99205,47.7003485,-117.4471748
933,East Mission Avenue,99202,47.6722741,-117.3948033
902,West Francis Ave,99208,47.7181143,-117.3949147
902,West Francis Avenue,99208,47.7178957,-117.3936357
1616,West Northwest Boulevard,99205,47.6806650,-117.4363025
1616,West Northwest Boulevard,99205,47.6796062,-117.4359845
3919,North Market Street,99207,47.6943544,-117.3655691
3919,North Market Street,99207,47.6941403,-117.3674021
10100,North Newport Highway,99218,47.7505302,-117.4000552
10100,North Newport Highway,99218,47.7503587,-117.3974877
2509,East 29th Avenue,99203,47.6295312,-117.3746423
999,West Riverside Avenue,99201,47.6577239,-117.4260071
507,South Howard Street,99204,47.6511310,-117.4206546
521,West 4th Avenue,99204,47.6519126,-117.4202612
2909,East 37th Avenue,99223,47.6213571,-117.3676571
1115,West Riverside Avenue,99201,47.6580126,-117.4284538
1201,West Sprague Avenue,99201,47.6568439,-117.4302621
2600,West Sharp Avenue,99201,47.6694257,-117.4504273
2303,North Ash Street,99205,47.6788262,-117.4374378
2323,North Ash Street,99205,47.6791851,-117.4374451
2301,West Wellesley Avenue,99205,47.6991733,-117.4457103
825,West 3rd Avenue,99201,47.6531608,-117.4246631
603,West 3rd Avenue,99201,47.6532744,-117.4213343
707,West 3rd Avenue,99201,47.6532291,-117.4224437
115,South Jefferson Street,99201,47.6562268,-117.4292347
4747,East 37th Avenue,99223,47.6228135,-117.3398938
1411,East Mission Avenue,99202,47.6734639,-117.3886389
1717,East Sinto Avenue,99202,47.6713335,-117.3847873
3410,West Whistalks Way,99224,47.6764792,-117.4637751
5400,North Helena Street,99207,47.7069231,-117.3862723
801,North Division Street,99202,47.6644516,-117.4122068
303,West North River Drive,99201,47.6640564,-117.4161189
1224,East Euclid Avenue,99207,47.6852583,-117.3917803
2726,South Flint Road,99224,47.6295791,-117.5360180
2211,West Wellesley Avenue,99205,47.7003005,-117.4436283
1125,North Monroe Street,99201,47.6677792,-117.4270664
2002,North Division Street,99207,47.6764189,-117.4103347
1711,North Division Street,99207,47.6732555,-117.4116113
1527,East 16th Avenue,99203,47.6409935,-117.3873316
1509,West 8th Avenue,99204,47.6486015,-117.4327573
1502,West 8th Avenue,99204,47.6486189,-117.4345813
926,South Monroe Street,99204,47.6466034,-117.4274387
911,West 5th Avenue,99204,47.6508731,-117.4256875
6718,South Shelby Ridge Street,99224,47.5922374,-117.4176561
6717,South Shelby Ridge Street,99224,47.5926584,-117.4174041
6720,South Shelby Ridge Street,99224,47.5921847,-117.4174488
6722,South Shelby Ridge Street,99224,47.5921522,-117.4171778
6716,South Shelby Ridge Street,99224,47.5923099,-117.4179029
6729,South Shelby Ridge Street,99224,47.5922121,-117.4160332
6719,South Shelby Ridge Street,99224,47.5925841,-117.4171449
6721,South Shelby Ridge Street,99224,47.5925595,-117.4169170
6723,South Shelby Ridge Street,99224,47.5924890,-117.4166836
6725,South Shelby Ridge Street,99224,47.5923957,-117.4164400
6727,South Shelby Ridge Street,99224,47.5923002,-117.4162147
6714,South Shelby Ridge Street,99224,47.5923288,-117.4181267
6702,South Shelby Ridge Street,99224,47.5928248,-117.4195056
6704,South Shelby Ridge Street,99224,47.5927288,-117.4193155
6706,South Shelby Ridge Street,99224,47.5926254,-117.4190634
6708,South Shelby Ridge Street,99224,47.5925453,-117.4188139
6710,South Shelby Ridge Street,99224,47.5924548,-117.4185933
6712,South Shelby Ridge Street,99224,47.5923760,-117.4183614
6724,South Shelby Ridge Street,99224,47.5920731,-117.4169098
6726,South Shelby Ridge Street,99224,47.5919495,-117.4166028
6703,South Shelby Ridge Street,99224,47.5931224,-117.4190115
6705,South Shelby Ridge Street,99224,47.5930058,-117.4187573
6707,South Shelby Ridge Street,99224,47.5929307,-117.4185593
6709,South Shelby Ridge Street,99224,47.5928714,-117.4183602
6711,South Shelby Ridge Street,99224,47.5928052,-117.4181220
6713,South Shelby Ridge Street,99224,47.5927354,-117.4179040
6715,South Shelby Ridge Street,99224,47.5927090,-117.4176486
6731,South Shelby Ridge Street,99224,47.5921224,-117.4158145
5840,South Meadow Lane Road,99224,47.6013116,-117.4130769
9015,West Highway 2,99224-9413,47.6423666,-117.5373871
1608,North Rebecca Street,99217,47.6728619,-117.3541914
5615,East Trent Avenue,99212,47.6756812,-117.3264576
3939,North Freya Street,99217,47.6939972,-117.3582093
3106,East Mission Avenue,99207,47.6716523,-117.3648901
3104,East Augusta Avenue,99207,47.6725101,-117.3649114
4924,North Market Street,99217,47.7031489,-117.3645945
4016,North Division Street,99207,47.6951952,-117.4107946
5027,North Division Street,99207,47.7040449,-117.4117447
4511,North Division,99207,47.6997791,-117.4121155
545,East Wellesley Avenue,99207,47.7010662,-117.4022987
2108,East Wellesley Avenue,99207,47.7003258,-117.3784763
2917,West Whistalks Way,99224,47.6760934,-117.4569848
2624,North Division Street,99207,47.6822955,-117.4104013
2424,North Division Street,99207,47.6801106,-117.4103505
2703,North Division Street,99207,47.6829406,-117.4117481
1001,East North Foothills Drive,99207,47.6837886,-117.3945967
800,East Providence Avenue,99207,47.6915484,-117.3970787
2619,North Hamilton Street,99207,47.6824029,-117.3972488
504,East Sprague Avenue,99202,47.6569193,-117.4031416
2903,East 29th Avenue,99223,47.6285494,-117.3682902
4401,South Regal Street,99223,47.6131712,-117.3677613
4647,South Regal Street,99203,47.6108419,-117.3676902
6740,North Division Street,99208,47.7200321,-117.4106920
6318,North Division Street,99208,47.7161927,-117.4106137
6316,North Division Street,99208,47.7158727,-117.4106247
4141,North Regal Street,99207,47.6959780,-117.3687068
4220,East Sprague Avenue,99202,47.6569198,-117.3472838
2900,East 1st Avenue,99201,47.6557780,-117.3678761
2102,East Sprague Avenue,99202,47.6570287,-117.3792926
1528,East Sprague Avenue,99203,47.6569577,-117.3875448
1101,West College Avenue,99201,47.6631313,-117.4283087
1600,North Howard Street,99205,47.6730972,-117.4190326
151,South Stevens Street,99201,47.6553413,-117.4192307
304,West Pacific Avenue,99201,47.6553606,-117.4168449
410,West 2nd Avenue,99201,47.6547342,-117.4184451
328,Third Avenue West,99204,47.6537835,-117.4176514
119,South Jefferson Street,99201,47.6557958,-117.4287582
902,East Springfield Avenue,99202,47.6624829,-117.3959643
850,East Spokane Falls Boulevard,99202,47.6605779,-117.3972529
700,North Division Street,99202,47.6643665,-117.4093453
830,North Division,99202,47.6655495,-117.4106927
723,East Boone Avenue,99202,47.6687038,-117.3986446
718,East Sharp Avenue,99202,47.6692747,-117.3989162
818,East Sharp Avenue,99202,47.6691895,-117.3972536
1229,North Hamilton Street,85255,47.6693549,-117.3967751
1211,North Cincinnati Street,99202,47.6688877,-117.3984667
835,North Post Street,99201,47.6646790,-117.4243487
636,East Sprague Avenue,99202,47.6569963,-117.4014439
1003,East 3rd Avenue,99202,47.6539723,-117.3942274
130,South Arthur Street,99202,47.6555992,-117.3958784
923,East 3rd Avenue,99202-2215,47.6543233,-117.3969407
910,North Ash Street,99201,47.6653540,-117.4363766
6606,North Division Street,99208,47.7175203,-117.4081019
9114,Newport Highway,99218,47.7407977,-117.4095852
1818,North Monroe,99205-4528,47.6747164,-117.4260123
1103,West Northwest Boulevard,99205,47.6755384,-117.4284765
27,East Indiana Avenue,99207,47.6752369,-117.4099372
1202,North Monroe Street,99201,47.6683296,-117.4261181
924,East Empire Avenue,99207-3014,47.6927898,-117.3955436
1430,North Monroe Street,99201,47.6709495,-117.4263505
7102,North Division Street,99208,47.7226452,-117.4102573
1506,North Washington Street,99205,47.6716239,-117.4170968
1720,North Hamilton Street,99207,47.6739996,-117.3962207
1804,West Francis Avenue,99205-6834,47.7156799,-117.4381909
101,East Montgomery Avenue,99207,47.6794804,-117.4073240
1306,North Division Street,99203,47.6698071,-117.4108507
931,East Francis Avenue,99208,47.7153631,-117.3956420
3416,North Market Street,99217,47.6883951,-117.3647581
1313,North Ruby Street,99202,47.6698266,-117.4100706
1310,North Ruby Street,99202,47.6699544,-117.4089693
3220,North Division Street,99207,47.6883740,-117.4107995
215,E Montgomery Ave,99207,47.6788361,-117.4073677
1925,North Monroe Street,99205,47.6756934,-117.4269946
2905,West Sunset Boulevard,99224,47.6478438,-117.4547455
505,West 3rd Avenue,99201,47.6532441,-117.4199294
1812,Northwest Boulevard,99205,47.6809369,-117.4389071
517,West 3rd Avenue,99204,47.6532111,-117.4205671
423,W. 3rd Ave,99201,47.6531966,-117.4187271
4340,West Fort George Wright Drive,99224,47.6728446,-117.4749025
907,West 3rd Avenue,99201-4507,47.6531483,-117.4253793
1918,North Division Street,99207,47.6758453,-117.4108095
6614,North Division Street,99208,47.7178536,-117.4106722
400,South Thor Street,99202,47.6525573,-117.3623010
510,South Thor Street,99202,47.6514264,-117.3609179
2732,North Division Street,99207,47.6835611,-117.4107587
3033,North Division Street,99207,47.6858785,-117.4117358
636,East Sprague Avenue,99202,47.6569843,-117.4017704
523,East 2nd Avenue,99202,47.6549182,-117.4026813
1617,North Hamilton Street,99207,47.6724933,-117.3968888
3324,East Sprague Avenue,99202,47.6570776,-117.3599641
1202,East Sprague Avenue,99202,47.6568570,-117.3922414
1720,East Sprague Avenue,99202,47.6569547,-117.3848183
2500,East Sprague Avenue,99202,47.6570093,-117.3734665
2010,South Assembly Road,99224,47.6365914,-117.4775417
1500,West 4th Avenue,99201,47.6529084,-117.4345141
110,East 4th Avenue,99202,47.6516998,-117.4093659
2423,East Sprague Avenue,99202,47.6574763,-117.3741794
2800,East Main Ave,99202,47.6589284,-117.3698595
4201 North,North Division Street,99207,47.6966198,-117.4117280
1320,North Hamilton Street,99202,47.6702648,-117.3962798
400,South Jefferson Street,99204,47.6517085,-117.4300945
917,East Wellesley Avenue,99207-3268,47.7009357,-117.3958617
2111,West Wellesley Avenue,99205,47.7002382,-117.4423285
822,West 2nd Avenue,99204,47.6548573,-117.4243378
1318,West 2nd Avenue,99201,47.6547134,-117.4318837
1412,West 2nd Avenue,99201,47.6546348,-117.4332596
1222,West 2nd Avenue,99201,47.6547549,-117.4304339
120,West Mission Avenue,99201,47.6720587,-117.4139052
176,South Post Street,99201,47.6547883,-117.4238561
4101,No Market Street,99207,47.6957843,-117.3655995
2712,North Ruby Street,99207,47.6833709,-117.4094358
4320,North Division Street,99207-1609,47.6974444,-117.4107460
9305,North Newport Highway,99212,47.7418344,-117.4100543
5406,North Division Street,99207,47.7072832,-117.4104181
1425,North Maple Street,99201-2769,47.6705569,-117.4360250
3022,North Division Street,99207,47.6858795,-117.4104828
6411,North Alberta Street,99208,47.7161988,-117.4502158
2310,North Monroe Street,99205,47.6790723,-117.4255852
925,West Montgomery Avenue,99205,47.6783847,-117.4263174
4090,West Barnes Road,99208,47.7404277,-117.4825843
8827,North Indian Trail Road,99208,47.7389593,-117.4853598
5121,West Lowell Avenue,99208,47.7368353,-117.4846326
3315,West Northwest Boulevard,99205,47.6900884,-117.4604743
1527,West Northwest Boulevard,99205,47.6784135,-117.4352765
5225,North Assembly Street,99205,47.7069652,-117.4761640
3318,West Northwest Boulevard,99205,47.6905045,-117.4600863
4815,North Assembly Street,99205,47.7026595,-117.4780616
202,West 2nd Avenue,99201,47.6548377,-117.4155280
1801,West Sunset Boulevard,99201,47.6533624,-117.4390274
3151,East 27th Avenue,99223,47.6314719,-117.3637470
4915,South Regal Street,99223-7633,47.6092349,-117.3646888
5510,North Lidgerwood Street,99208,47.7082883,-117.4050243
3214,South Perry Street,99203,47.6251240,-117.3905961
1118,West Wellesley Avenue,99205,47.7010671,-117.4281007
1807,South Ray Street,99223,47.6388482,-117.3626565
2120,East Wellesley Avenue,99207,47.7003166,-117.3780290
120,East Lincoln Road,99208,47.7289214,-117.4080089
1713,West Indiana Avenue,99205,47.6746462,-117.4376802
1615,South Spotted Road,99224,47.6398132,-117.5177537
1901,East 1st Avenue,99202,47.6565133,-117.3823330
1722,South Bernard Street,99203,47.6393308,-117.4173593
5102,North Driscoll Boulevard,99205,47.7043976,-117.4641596
2030,East 37th Avenue,99223,47.6194663,-117.3648489
2404,West Longfellow Avenue,99205,47.6979207,-117.4461673
1224,West Riverside Avenue,99201,47.6582052,-117.4309957
919,West Sprague Avenue,99201,47.6568808,-117.4259996
510,East 37th Avenue,99203,47.6203646,-117.4036541
3737,East 5th Avenue,99202,47.6523349,-117.3555066
1108,West Riverside Avenue,99201,47.6587603,-117.4281908
1309,West 1st Avenue,99201,47.6562054,-117.4315742
8202,North Division Street,99208,47.7325606,-117.4096513
6515,North Division Street,99208,47.7172740,-117.4117302
6228,North Division Street,99208,47.7148071,-117.4108995
6420,North Division Street,99208,47.7166516,-117.4104689
1625,North Division Street,99207,47.6724505,-117.4115724
9522,North Newport Highway,99218,47.7455060,-117.4049289
9664,North Newport Highway,99218,47.7476027,-117.4030132
106,South Cedar Street,99201,47.6562506,-117.4328670
1229,West 1st Avenue,99201,47.6560342,-117.4308165
1209,West 1st Avenue,99201,47.6562167,-117.4298474
1029,West 1st Avenue,99201,47.6562287,-117.4277167
1019,West 1st Avenue,99201,47.6562308,-117.4274082
1011,West 1st Avenue,99201,47.6562313,-117.4272054
1001,West 1st Avenue,99201,47.6563049,-117.4269029
901,West Sprague Avenue,99201,47.6569805,-117.4253900
501,West 2nd Avenue,99201,47.6542257,-117.4200007
157,South Howard Street,99201,47.6552387,-117.4205818
227,West 3rd Avenue,99201,47.6532758,-117.4162084
4301,West Sunset Boulevard,99224,47.6397563,-117.4721300
206,South Post Street,99201,47.6542080,-117.4237766
1023,South Cedar Street,99201,47.6582492,-117.4275790
1229,West Riverside Avenue,99201,47.6574511,-117.4311097
1214,West Sprague Avenue,99201,47.6574090,-117.4302730
304,East 2nd Avenue,99202,47.6542659,-117.4062761
3131,East Sprague Avenue,99202,47.6575864,-117.3645477
7307,North Nevada Street,99208,47.7240438,-117.3965612
402,South Freya Street,99202,47.6525895,-117.3578814
105,West 8th Avenue,99204,47.6478053,-117.4136618
17,East 8th Avenue,99204,47.6487632,-117.4091529
1707,West Broadway Avenue,99201,47.6641051,-117.4369327
1322,North Monroe Street,99201,47.6699967,-117.4262194
1125,West Sinto Avenue,99201,47.6705190,-117.4293863
1309,North Ash Street,99201,47.6691904,-117.4372192
5202,North Nevada Street,99207,47.7050459,-117.3947891
1303,North Monroe Street,99201,47.6694555,-117.4271478
1025,West Spofford Avenue,99205,47.6718252,-117.4274912
1812,North Wall Street,99205,47.6744666,-117.4211577
2023,West Dean Avenue,99201,47.6659419,-117.4429283
222,West Knox Avenue,99205,47.6772202,-117.4149594
3304,North Nevada,99207,47.6888421,-117.3948371
1001,East Montgomery Avenue,99207,47.6789441,-117.3945013
3919,North Maple Street,99205,47.6938089,-117.4357418
2020,West Carlisle Avenue,99205,47.6799507,-117.4422090
2707,East Rich Avenue,99207,47.6975180,-117.3699059
914,West Carlisle Avenue,99205,47.6797265,-117.4259339
2410,North Monroe Street,99205,47.6798279,-117.4263118
1230,North Division Street,99202,47.6691893,-117.4107797
1300,West Knox Avenue,99205,47.6762973,-117.4319520
5100,West Shawnee Avenue,99208,47.7461085,-117.4826236
500,West Longfellow Avenue,99205,47.6980485,-117.4200567
3520,West Bismark Avenue,99205,47.7134839,-117.4643162
3322,East 22nd Avenue,99223,47.6340283,-117.3622740
4102,West Woodside Avenue,99208,47.7210899,-117.4726706
2121,East Thurston Avenue,99203,47.6178154,-117.3801509
1300,East 9th Avenue,99202,47.6468113,-117.3911777
2627,East 17th Avenue,99223,47.6406489,-117.3717490
2323,East Bridgeport Avenue,99207,47.6891751,-117.3750468
3010,West Holyoke Avenue,99208,47.7183274,-117.4560736
6363,North Smith Street,99217,47.7161627,-117.3727495
333,West 14th Avenue,99204,47.6421875,-117.4145674
507,West 7th Avenue,99205,47.6483825,-117.4195962
507,North Howard Street,99201,47.6606999,-117.4225855
924,West Sinto Avenue,99201,47.6704673,-117.4263735
1903,West Garland Avenue,99205,47.6930259,-117.4401436
721,North Jefferson Street,99260,47.6640958,-117.4299525
802,North Monroe Street,99201,47.6646639,-117.4263624
628,North Monroe Street,99201,47.6636190,-117.4263055
1100,West Mallon Avenue,99260,47.6648170,-117.4289159
706,North Monroe Street,99201,47.6636993,-117.4262639
722,North Monroe Street,99201,47.6641852,-117.4263348
719,North Monroe Street,99201,47.6642017,-117.4269667
4726,North Ash Street,99205,47.7014145,-117.4360874
4823,North Ash Street,99205,47.7022746,-117.4367313
930,North Monroe Street,99201,47.6662633,-117.4258924
320,East 2nd Avenue,99202,47.6543018,-117.4055957
219,East Rockwood Boulevard,99202,47.6461080,-117.4068715
4707,North Addison Street,99207,47.7009046,-117.4035552
5633,North Lidgerwood Street,99208,47.7097047,-117.4059166
3725,South Grand Boulevard,99203,47.6201877,-117.4014753
3721,South Grand Boulevard,99203,47.6204665,-117.4017804
4001,North Market Street,99207,47.6950738,-117.3654118
911,East Baldwin Avenue,99207,47.6759450,-117.3962783
906,West 9th Avenue,99204-3836,47.6470427,-117.4267923
901,West 14th Avenue,99204,47.6421007,-117.4243642
113,West Indiana Avenue,99205,47.6747198,-117.4136177
2136,West Riverside Avenue,99201-1404,47.6578330,-117.4447821
207,Linclon RD,99208,47.7297678,-117.4069612
3014,East 29th Avenue,99223,47.6280505,-117.3667013
3010,East 29th Avenue,99223,47.6280010,-117.3668938
26,East 5th Avenue,99202,47.6511703,-117.4101575
4405,East Trent Avenue,99212,47.6685794,-117.3585092
2902,East Olympic Avenue,99217,47.7031501,-117.3679067
5025,North Regal Street,99217,47.7039918,-117.3685591
5017,North Regal Street,99217,47.7038565,-117.3684927
1617,West Northwest Boulevard,99205,47.6789118,-117.4359485
2301,East Trent Avenue,99202,47.6628410,-117.3760976
"816,818,820",West Garland Avenue,99205,47.6936401,-117.4240119
2606,East Boone Avenue,99205,47.6815527,-117.4263783
2422,East Sprague Avenue,99202,47.6569906,-117.3742707
4106,North Standard Street,99207,47.6955993,-117.4002557
613,East Lacrosse Avenue,99207,47.6955661,-117.3999240
"617,619",East Rockwell Avenue,99207,47.6955850,-117.3997140
623,East Lacrosse Avenue,99207,47.6955642,-117.3995160
627,East Lacrosse Avenue,99207,47.6955504,-117.3993001
703,East Lacrosse Avenue,99207,47.6955691,-117.3990677
711,East Lacrosse Avenue,99207,47.6955618,-117.3987129
723,East Lacrosse Avenue,99207,47.6955658,-117.3982815
727,East Lacrosse Avenue,99207,47.6955558,-117.3980688
730,East Rockwell Avenue,99207,47.6959584,-117.3980617
726,East Rockwell Avenue,99207,47.6959571,-117.3981903
722,East Rockwell Avenue,99207,47.6959224,-117.3983315
714,East Rockwell Avenue,99207,47.6959480,-117.3986350
708,East Rockwell Avenue,99207,47.6959342,-117.3988930
628,East Rockwell Avenue,99207,47.6959331,-117.3993054
624,East Rockwell Avenue,99207,47.6959298,-117.3995049
618,East Rockwell Avenue,99207,47.6959529,-117.3997021
614,East Rockwell Avenue,99207,47.6959512,-117.3999082
612,East Rockwell Avenue,99207,47.6959327,-117.4001202
604,East Rockwell Avenue,99207,47.6959499,-117.4003074
14,North Spruce Street,99201,47.6580579,-117.4460863
22,North Spruce Street,99201,47.6581266,-117.4461101
26,North Spruce Street,99201,47.6582012,-117.4461228
2337,West Clarke Avenue,99201,47.6584826,-117.4480114
2335,West Clarke Avenue,99201,47.6584865,-117.4478341
2314,West Bennett Avenue,99201,47.6581959,-117.4470169
2324,West Bennett Avenue,99201,47.6581894,-117.4474651
2330,West Bennett Avenue,99201,47.6581623,-117.4477693
2326,West Bennett Avenue,99201,47.6581610,-117.4475761
2332,West Bennett Avenue,99201,47.6581654,-117.4478650
2338,West Bennett Avenue,99201,47.6581566,-117.4480614
2404,West Bennett Avenue,99201,47.6581370,-117.4484860
2301,West Clarke Avenue,99201,47.6584737,-117.4465613
2315,West Clarke Avenue,99201,47.6584537,-117.4469789
2320,West Clarke Avenue,99201,47.6588557,-117.4472524
2317,West Clarke Avenue,99201,47.6584813,-117.4471549
2319,West Clarke Avenue,99201,47.6584812,-117.4472551
2329,West Clarke Avenue,99201,47.6584826,-117.4475605
2325,West Clarke Avenue,99201,47.6584818,-117.4474589
2321,West Clarke Avenue,99201,47.6584816,-117.4473585
703,East Rockwell Avenue,99207,47.6962999,-117.3990922
727,East Rockwell Avenue,99207,47.6963529,-117.3980587
723,East Rockwell Avenue,99207,47.6963402,-117.3982927
717,East Rockwell Avenue,99207,47.6963235,-117.3985075
707,East Rockwell Avenue,99207,47.6963169,-117.3988845
627,East Rockwell Avenue,99207,47.6963152,-117.3992718
617,East Rockwell Avenue,99207,47.6963158,-117.3997037
623,East Rockwell Avenue,99207,47.6963022,-117.3995000
607,East Rockwell Avenue,99207,47.6963013,-117.4001085
603,East Rockwell Avenue,99207,47.6963016,-117.4003123
611,East Rockwell Avenue,99207,47.6963017,-117.3999046
711,East Rockwell Avenue,99207,47.6963574,-117.3986826
723,East Walton Avenue,99207,47.6947888,-117.3982950
717,East Walton Avenue,99207,47.6947671,-117.3984882
617,East Walton Avenue,99207,47.6947768,-117.3997119
603,East Walton Avenue,99207,47.6947896,-117.4003237
607,East Walton Avenue,99207,47.6947848,-117.4001195
730,East Lacrosse Avenue,99207,47.6951640,-117.3981199
611,East Walton Avenue,99207,47.6947794,-117.3999072
623,East Walton Avenue,99207,47.6947802,-117.3994986
627,East Walton Avenue,99207,47.6947827,-117.3993064
703,East Walton Avenue,99207,47.6947711,-117.3990945
"707,709",East Walton Avenue,99207,47.6947748,-117.3988978
711,East Walton Avenue,99207,47.6947794,-117.3986857
718,East Lacrosse Avenue,99207,47.6951576,-117.3985297
714,East Lacrosse Avenue,99207,47.6951743,-117.3986980
708,East Lacrosse Avenue,99207,47.6951601,-117.3989453
704,East Lacrosse Avenue,99207,47.6951549,-117.3991231
628,East Lacrosse Avenue,99207,47.6951687,-117.3993215
624,East Lacrosse Avenue,99207,47.6951791,-117.3995114
618,East Lacrosse Avenue,99207,47.6951794,-117.3997470
614,East Lacrosse Avenue,99207,47.6951744,-117.3999466
4016,North Standard Street,99207,47.6951314,-117.4003137
918,East Princeton Avenue,99207,47.6989928,-117.3957594
912,East Princeton Avenue,99207,47.6989901,-117.3959440
908,East Princeton Avenue,99207,47.6989640,-117.3961582
"904,906",East Princeton Avenue,99207,47.6989534,-117.3963572
"826,828",East Princeton Avenue,99207,47.6989550,-117.3965603
824,East Princeton Avenue,99207,47.6989621,-117.3967866
"818,820",East Princeton Avenue,99207,47.6989669,-117.3969602
"814,816",East Princeton Avenue,99207,47.6989660,-117.3971713
4442,North Cincinnati Street,99207,47.6988497,-117.3975260
4446,North Cincinnati Street,99207,47.6990102,-117.3974700
4440,North Cincinnati Street,99207,47.6987436,-117.3975161
4436,North Cincinnati Street,99207,47.6986448,-117.3975159
811,East Heroy Avenue,99207,47.6986009,-117.3971682
817,East Heroy Avenue,99207,47.6986069,-117.3969728
823,East Heroy Avenue,99207,47.6985905,-117.3967832
827,East Heroy Avenue,99207,47.6986115,-117.3965672
903,East Heroy Avenue,99207,47.6985982,-117.3963677
920,East Princeton Avenue,99207,47.6986050,-117.3959832
917,East Heroy Avenue,99207,47.6986142,-117.3957504
4418,North Addison Street,99207,47.6966249,-117.4030168
4420,North Addison Street,99207,47.6967151,-117.4030160
712,East Rich Avenue,99207,47.6966846,-117.3986884
708,East Rich Avenue,99207,47.6966846,-117.3989172
727,East Walton Avenue,99207,47.6948062,-117.3980758
718,East Rich Avenue,99207,47.6967031,-117.3984499
1710,North Hamilton,99207,47.6731627,-117.3963201
1307,South Grand Boulevard,99202,47.6435920,-117.4088124
1317,South Grand Bvd,99202-1136,47.6434117,-117.4085438
9201,North Sundance Drive,99208,47.7418050,-117.4977839
9205,North Sundance Drive,99208,47.7419716,-117.4977890
9209,North Sundance Drive,99208,47.7421356,-117.4978342
9213,North Sundance Drive,99208,47.7422947,-117.4977643
9217,North Sundance Drive,99208,47.7424764,-117.4977305
9221,North Sundance Drive,99208,47.7426401,-117.4976607
9301,North Sundance Drive,99208,47.7427953,-117.4975500
9305,North Sundance Drive,99208,47.7429456,-117.4974858
9309,North Sundance Drive,99208,47.7430660,-117.4973905
9313,North Sundance Drive,99208,47.7432031,-117.4973214
9317,North Sundance Drive,99208,47.7433160,-117.4972212
9321,North Sundance Drive,99208,47.7434598,-117.4971484
9325,North Sundance Drive,99208,47.7436123,-117.4971209
1030,West Summit Parkway,99201,47.6626090,-117.4272511
9612,North Division Street,99218,47.7450620,-117.4107394
211,East Desmet Avenue,99202,47.6674899,-117.4064635
1022,North Division Street,99202,47.6667906,-117.4104737
9909,North Arapaho Court,99208,47.7472946,-117.4942376
601,South Sherman Street,99202,47.6507821,-117.4024511
711,South Cowley Street,99202,47.6496881,-117.4072510
711,South Cowley Street,99202,47.6502552,-117.4071819
525,South Cowley Street,99202,47.6508745,-117.4075104
222,East 5th Avenue,99202,47.6511945,-117.4066169
3429,North Hogan Street,99207,47.6892086,-117.3884890
9907,North Arapaho Court,99208,47.7474592,-117.4938671
9911,North Arapaho Court,99208,47.7474419,-117.4945534
9915,North Arapaho Court,99208,47.7477232,-117.4945494
9917,North Arapaho Court,99208,47.7478216,-117.4941035
9903,North Moore Street,99208,47.7472300,-117.4936853
9827,North Moore Street,99208,47.7470183,-117.4935240
9923,North Moore Street,99208,47.7480271,-117.4942516
5607,West Comanche Drive,99208,47.7482804,-117.4944197
9930,North Moore Street,99208,47.7483925,-117.4938088
9924,North Moore Street,99208,47.7481856,-117.4936407
9918,North Moore Street,99208,47.7479469,-117.4934772
9912,North Moore Street,99208,47.7477207,-117.4933339
5611,West Comanche Drive,99208,47.7481369,-117.4947920
5615,West Comanche Drive,99208,47.7480113,-117.4951022
5619,West Wigwam Court,99208,47.7478645,-117.4954080
5623,West Wigwam Court,99208,47.7476191,-117.4952283
5627,West Wigwam Court,99208,47.7474167,-117.4954129
5631,West Wigwam Court,99208,47.7474451,-117.4957654
5909,West Comanche Drive,99208,47.7477387,-117.4959925
9812,North Sundance Drive,99208,47.7475790,-117.4963361
9806,North Sundance Drive,99208,47.7473160,-117.4963555
9802,North Sundance Drive,99208,47.7470664,-117.4962882
5914,West Tepee Court,99208,47.7470146,-117.4958747
5910,West Tepee Court,99208,47.7469715,-117.4955227
5906,West Tepee Court,99208,47.7470446,-117.4951441
5902,West Tepee Court,99208,47.7470133,-117.4947677
5903,West Tepee Court,99208,47.7468040,-117.4946073
9821,North Nez Perce Court,99208,47.7468952,-117.4940117
9819,North Nez Perce Court,99208,47.7466350,-117.4940261
9817,North Nez Perce Court,99208,47.7464397,-117.4937538
9815,North Moore Street,99208,47.7466103,-117.4932438
9807,North Moore Street,99208,47.7463873,-117.4930689
9727,North Moore Street,99208,47.7461865,-117.4928611
9721,North Navaho Court,99208,47.7460131,-117.4933354
9719,North Navaho Court,99208,47.7457427,-117.4933338
9717,North Navaho Court,99208,47.7456037,-117.4929800
9715,North Moore Street,99208,47.7457323,-117.4925380
9615,North Moore Street,99208,47.7454818,-117.4923399
9609,North Moore Street,99208,47.7451645,-117.4920693
5614,West Shawnee Avenue,99208,47.7450934,-117.4926250
5618,West Shawnee Avenue,99208,47.7451439,-117.4929790
5702,West Shawnee Avenue,99208,47.7452464,-117.4933337
5706,West Shawnee Avenue,99208,47.7453620,-117.4936606
9602,North Wickiup Court,99208,47.7454773,-117.4941058
9606,North Wickiup Court,99208,47.7457309,-117.4941083
9610,North Wickiup Court,99208,47.7459655,-117.4940138
9614,North Wickiup Court,99208,47.7462296,-117.4941569
9614,North Wickiup Court,99208,47.7463958,-117.4942900
9615,North Wickiup Court,99208,47.7462685,-117.4945609
9611,North Wickiup Court,99208,47.7459993,-117.4947601
9607,North Wickiup Court,99208,47.7457334,-117.4947284
9603,North Wickiup Court,99208,47.7454916,-117.4946961
5806,West Shawnee Avenue,99208,47.7453648,-117.4951124
5810,West Shawnee Avenue,99208,47.7452916,-117.4954508
5814,West Shawnee Avenue,99208,47.7452134,-117.4957816
5902,West Shawnee Avenue,99208,47.7451045,-117.4960913
9602,North Sundance Drive,99208,47.7451841,-117.4965193
9606,North Sundance Drive,99208,47.7454324,-117.4965487
9706,North Sundance Drive,99208,47.7463755,-117.4964199
5915,West Tomtom Court,99208,47.7457147,-117.4964267
5911,West Tomtom Court,99208,47.7456588,-117.4960723
5907,West Tomtom Court,99208,47.7455718,-117.4956579
5903,West Tomtom Court,99208,47.7457397,-117.4953498
5902,West Tomtom Court,99208,47.7460419,-117.4953269
5906,West Tomtom Court,99208,47.7461622,-117.4957107
5910,West Tomtom Court,99208,47.7461059,-117.4960895
5914,West Tomtom Court,99208,47.7460856,-117.4964380
5923,West Tepee Court,99208,47.7466167,-117.4962876
5919,West Tepee Court,99208,47.7465653,-117.4959395
5915,West Tepee Court,99208,47.7465393,-117.4955546
5911,West Tepee Court,99208,47.7465483,-117.4951959
5907,West Tepee Court,99208,47.7465581,-117.4947161
9906,North Moore Street,99208,47.7475013,-117.4931909
9828,North Moore Street,99208,47.7472828,-117.4930296
9822,North Moore Street,99208,47.7470451,-117.4928448
9816,North Moore Street,99208,47.7468415,-117.4926911
9808,North Moore Street,99208,47.7466016,-117.4925154
9808,North Moore Street,99208,47.7466207,-117.4922798
9726,North Moore Street,99208,47.7461840,-117.4921855
9716,North Moore Street,99208,47.7459638,-117.4920155
9710,North Moore Street,99208,47.7457207,-117.4918306
9616,North Moore Street,99208,47.7454821,-117.4916265
5524,West Shawnee Avenue,99208,47.7451645,-117.4913312
5411,West Shawnee Avenue,99208,47.7446595,-117.4890487
5417,West Shawnee Avenue,99208,47.7446775,-117.4894205
5423,West Shawnee Avenue,99208,47.7447009,-117.4898380
5509,West Shawnee Avenue,99208,47.7446952,-117.4902212
5517,West Shawnee Avenue,99208,47.7446935,-117.4906170
5523,West Shawnee Avenue,99208,47.7446558,-117.4910408
5607,West Shawnee Avenue,99208,47.7446306,-117.4916975
5611,West Shawnee Avenue,99208,47.7446930,-117.4921337
5615,West Shawnee Avenue,99208,47.7447064,-117.4924908
5615,West Shawnee Avenue,99208,47.7446900,-117.4928103
5701,West Shawnee Avenue,99208,47.7447942,-117.4932918
5707,West Shawnee Avenue,99208,47.7446635,-117.4936632
5715,West Shawnee Avenue,99208,47.7447245,-117.4940094
5719,West Shawnee Avenue,99208,47.7449980,-117.4942104
5801,West Shawnee Avenue,99208,47.7449814,-117.4945618
5807,West Shawnee Avenue,99208,47.7447290,-117.4946882
5811,West Shawnee Avenue,99208,47.7446606,-117.4951271
5815,West Shawnee Avenue,99208,47.7447817,-117.4955585
5901,West Shawnee Avenue,99208,47.7447200,-117.4959616
5907,West Shawnee Avenue,99208,47.7446689,-117.4963137
9617,North Indian Trail Road,99208,47.7451085,-117.4893891
5418,West Shawnee Avenue,99208,47.7450884,-117.4898995
9615,North Fotheringham Street,99208,47.7451110,-117.4906887
9929,North Fotheringham Street,99208,47.7485878,-117.4932304
9930,North Fotheringham Street,99208,47.7487540,-117.4927264
5505,West Comanche Drive,99208,47.7488912,-117.4922309
9621,North Fotheringham Street,99208,47.7453197,-117.4908474
9627,North Fotheringham Street,99208,47.7455446,-117.4910325
9707,North Fotheringham Street,99208,47.7457567,-117.4911622
9715,North Fotheringham Street,99208,47.7459660,-117.4913453
9721,North Fotheringham Street,99208,47.7461876,-117.4915018
9727,North Fotheringham Street,99208,47.7463999,-117.4916507
9807,North Fotheringham Street,99208,47.7467889,-117.4920237
9815,North Fotheringham Street,99208,47.7469995,-117.4921386
9821,North Fotheringham Street,99208,47.7472309,-117.4923127
9827,North Fotheringham Street,99208,47.7474559,-117.4924459
9907,North Fotheringham Street,99208,47.7476654,-117.4925865
9911,North Fotheringham Street,99208,47.7479083,-117.4927751
9917,North Fotheringham Street,99208,47.7481324,-117.4929207
9923,North Fotheringham Street,99208,47.7483397,-117.4930882
9924,North Fotheringham Street,99208,47.7485408,-117.4925696
9918,North Fotheringham Street,99208,47.7483296,-117.4923897
9912,North Fotheringham Street,99208,47.7480846,-117.4922569
9906,North Fotheringham Street,99208,47.7478792,-117.4921135
9826,North Fotheringham Street,99208,47.7476504,-117.4919775
9820,North Fotheringham Street,99208,47.7474341,-117.4917973
9814,North Fotheringham Street,99208,47.7471733,-117.4916496
9808,North Fotheringham Street,99208,47.7469473,-117.4914551
9808,North Fotheringham Street,99208,47.7469407,-117.4912264
9726,North Fotheringham Street,99208,47.7465720,-117.4911164
9720,North Fotheringham Street,99208,47.7463706,-117.4909758
9714,North Fotheringham Street,99208,47.7461695,-117.4908249
9708,North Fotheringham Street,99208,47.7459626,-117.4906193
9628,North Fotheringham Street,99208,47.7457364,-117.4905014
9622,North Fotheringham Street,99208,47.7455052,-117.4903096
9616,North Fotheringham Street,99208,47.7453294,-117.4901594
9615,North Indian Trail Road,99208,47.7453575,-117.4894999
9621,North Indian Trail Road,99208,47.7456016,-117.4896921
9627,North Indian Trail Road,99208,47.7458170,-117.4899176
9705,North Indian Trail Road,99208,47.7460669,-117.4900440
9711,North Indian Trail Road,99208,47.7463003,-117.4902263
9719,North Indian Trail Road,99208,47.7465125,-117.4904604
5415,West Navaho Avenue,99208,47.7467475,-117.4906656
5416,West Navaho Avenue,99208,47.7471214,-117.4909545
9811,North Indian Trail Road,99208,47.7474195,-117.4911006
9819,North Indian Trail Road,99208,47.7476669,-117.4912692
9825,North Indian Trail Road,99208,47.7479132,-117.4914399
9909,North Indian Trail Road,99208,47.7481635,-117.4915865
9911,North Indian Trail Road,99208,47.7484120,-117.4917990
9919,North Indian Trail Road,99208,47.7486576,-117.4919689
5504,West Comanche Drive,99208,47.7493157,-117.4924802
5522,West Comanche Drive,99208,47.7489665,-117.4935450
5516,West Comanche Drive,99208,47.7490892,-117.4931829
5510,West Comanche Drive,99208,47.7492027,-117.4928355
10010,North Moore Street,99208,47.7487929,-117.4940536
10009,North Moore Street,99208,47.7486576,-117.4946011
5604,West Comanche Drive,99208,47.7484695,-117.4950163
5610,West Comanche Drive,99208,47.7483573,-117.4953624
5614,West Comanche Drive,99208,47.7482653,-117.4957039
5908,West Comanche Drive,99208,47.7481239,-117.4960811
5912,West Comanche Drive,99208,47.7480891,-117.4964298
6003,West Shawnee Avenue,99208,47.7446738,-117.4970225
6007,West Shawnee Avenue,99208,47.7446679,-117.4973435
6011,West Shawnee Avenue,99208,47.7446736,-117.4977195
6015,West Shawnee Avenue,99208,47.7446579,-117.4980697
6103,West Shawnee Avenue,99208,47.7446725,-117.4983691
6107,West Shawnee Avenue,99208,47.7446623,-117.4986172
6119,West Shawnee Avenue,99208,47.7446637,-117.4988586
6203,West Shawnee Avenue,99208,47.7446279,-117.4990924
6207,West Shawnee Avenue,99208,47.7446024,-117.4993497
6211,West Shawnee Avenue,99208,47.7446083,-117.4996934
6215,West Shawnee Avenue,99208,47.7447347,-117.5000585
6219,West Shawnee Avenue,99208,47.7449877,-117.5001887
6223,West Shawnee Avenue,99208,47.7452385,-117.5000903
6227,West Shawnee Avenue,99208,47.7454409,-117.4999521
6231,West Shawnee Avenue,99208,47.7456213,-117.4998318
6223,West Shawnee Avenue,99208,47.7457909,-117.4996749
9909,North Arapaho Court,99208,47.7471583,-117.4944060
9603,North Sundance Drive,99208,47.7451256,-117.4971120
9607,North Sundance Drive,99208,47.7453487,-117.4971397
9611,North Sundance Drive,99208,47.7456081,-117.4971415
9615,North Sundance Drive,99208,47.7458589,-117.4971215
9703,North Sundance Drive,99208,47.7461074,-117.4971145
9707,North Sundance Drive,99208,47.7463671,-117.4971556
9711,North Sundance Drive,99208,47.7466039,-117.4970470
9715,North Sundance Drive,99208,47.7468469,-117.4969579
9803,North Sundance Drive,99208,47.7470895,-117.4969275
9807,North Sundance Drive,99208,47.7473208,-117.4969731
9602,North Ridgecrest Drive,99208,47.7451593,-117.4977449
9606,North Ridgecrest Drive,99208,47.7454084,-117.4977549
9610,North Ridgecrest Drive,99208,47.7457235,-117.4977597
9702,North Ridgecrest Drive,99208,47.7460011,-117.4977578
9702,North Ridgecrest Drive,99208,47.7463015,-117.4977307
9706,North Ridgecrest Drive,99208,47.7466034,-117.4976655
9802,North Ridgecrest Drive,99208,47.7468593,-117.4975909
9806,North Ridgecrest Drive,99208,47.7471538,-117.4975288
9903,North Sundance Drive,99208,47.7479321,-117.4970417
6603,West Comanche Drive,99208,47.7477431,-117.4973643
9902,North Ridgecrest Drive,99208,47.7476674,-117.4978038
9903,North Ridgecrest Drive,99208,47.7474615,-117.4983275
9804,North Commanche Drive,99208,47.7473328,-117.4987651
9808,North Commanche Drive,99208,47.7471870,-117.4990960
9805,North Ridgecrest Drive,99208,47.7470320,-117.4981831
9711,North Ridgecrest Drive,99208,47.7468651,-117.4982260
9707,North Ridgecrest Drive,99208,47.7466915,-117.4982777
9705,North Ridgecrest Drive,99208,47.7464854,-117.4983310
9703,North Ridgecrest Drive,99208,47.7463191,-117.4983580
9701,North Ridgecrest Drive,99208,47.7461366,-117.4983763
9615,North Ridgecrest Drive,99208,47.7459495,-117.4983748
9611,North Ridgecrest Drive,99208,47.7457290,-117.4983629
9609,North Ridgecrest Drive,99208,47.7455459,-117.4983792
9605,North Ridgecrest Drive,99208,47.7453904,-117.4983554
9603,North Ridgecrest Drive,99208,47.7452179,-117.4983571
9601,North Ridgecrest Drive,99208,47.7450558,-117.4983442
6110,West Shawnee Avenue,99208,47.7450656,-117.4988508
6114,West Shawnee Avenue,99208,47.7450369,-117.4990738
6118,West Shawnee Avenue,99208,47.7449857,-117.4993094
6204,West Shawnee Avenue,99208,47.7449411,-117.4995747
6224,West Shawnee Avenue,99208,47.7452817,-117.4994680
6228,West Shawnee Avenue,99208,47.7454880,-117.4993095
6232,West Shawnee Avenue,99208,47.7457003,-117.4991508
6236,West Shawnee Avenue,99208,47.7459205,-117.4990354
6240,West Shawnee Avenue,99208,47.7461199,-117.4990489
6244,West Shawnee Avenue,99208,47.7463024,-117.4992223
6248,West Shawnee Avenue,99208,47.7463653,-117.4995419
6252,West Shawnee Avenue,99208,47.7463661,-117.4998485
6256,West Shawnee Avenue,99208,47.7464030,-117.5001601
9803,North Commanche Drive,99208,47.7468595,-117.4986497
9807,North Commanche Drive,99208,47.7468038,-117.4988678
9811,North Commanche Drive,99208,47.7467177,-117.4990849
9815,North Commanche Drive,99208,47.7466474,-117.4993779
9819,North Commanche Drive,99208,47.7466381,-117.4996704
9823,North Commanche Drive,99208,47.7466417,-117.4999652
9827,North Commanche Drive,99208,47.7466867,-117.5002405
6253,West Shawnee Avenue,99208,47.7460308,-117.5000059
6527,West Shawnee Avenue,99208,47.7460790,-117.5003570
6263,West Shawnee Avenue,99208,47.7462321,-117.5006363
6267,West Shawnee Avenue,99208,47.7465117,-117.5007830
6271,West Shawnee Avenue,99208,47.7467194,-117.5007777
5605,West Cree Court,99208,47.7496043,-117.4926809
5609,West Cree Court,99208,47.7494356,-117.4933446
5610,West Cree Court,99208,47.7497899,-117.4934545
5604,West Cree Court,99208,47.7499896,-117.4929637
10014,North Moore Street,99208,47.7490810,-117.4940957
10018,North Moore Street,99208,47.7493535,-117.4940699
10012,North Moore Street,99208,47.7496403,-117.4939988
5809,West Lonewolf Avenue,99208,47.7500384,-117.4940864
5805,West Lonewolf Avenue,99208,47.7501372,-117.4937029
5801,West Lonewolf Avenue,99208,47.7503437,-117.4933409
5802,West Lonewolf Avenue,99208,47.7506208,-117.4935432
5806,West Lonewolf Avenue,99208,47.7505820,-117.4939906
5810,West Lonewolf Avenue,99208,47.7504464,-117.4943278
10210,North Moore Street,99208,47.7507304,-117.4944837
5811,West Ridgecrest Drive,99208,47.7510334,-117.4945039
5807,West Ridgecrest Drive,99208,47.7510150,-117.4940884
5809,West Ridgecrest Drive,99208,47.7510298,-117.4936874
10011,North Moore Street,99208,47.7488996,-117.4946471
10015,North Moore Street,99208,47.7491206,-117.4947465
10019,North Moore Street,99208,47.7493677,-117.4946958
10101,North Moore Street,99208,47.7496074,-117.4946806
5905,West Lonewolf Avenue,99208,47.7498580,-117.4947583
5907,West Lonewolf Avenue,99208,47.7497509,-117.4951547
5911,West Lonewolf Avenue,99208,47.7496445,-117.4954812
5915,West Lonewolf Avenue,99208,47.7495588,-117.4958277
5919,West Lonewolf Avenue,99208,47.7494609,-117.4961516
5923,West Lonewolf Avenue,99208,47.7493632,-117.4965205
5927,West Lonewolf Avenue,99208,47.7492615,-117.4969215
10006,North Sundance Drive,99208,47.7490017,-117.4968928
5918,West Red Cloud Court,99208,47.7488048,-117.4966897
5914,West Red Cloud Court,99208,47.7489212,-117.4963185
5910,West Red Cloud Court,99208,47.7490943,-117.4960005
5906,West Red Cloud Court,99208,47.7492443,-117.4957178
5902,West Red Cloud Court,99208,47.7491294,-117.4953424
5901,West Red Cloud Court,99208,47.7488304,-117.4953167
5901,West Red Cloud Court,99208,47.7489417,-117.4950940
5905,West Red Cloud Court,99208,47.7487046,-117.4957143
5909,West Red Cloud Court,99208,47.7485653,-117.4961205
5915,West Red Cloud Court,99208,47.7484144,-117.4965413
9907,North Sundance Drive,99208,47.7481217,-117.4971694
9911,North Sundance Drive,99208,47.7481821,-117.4976093
9915,North Sundance Drive,99208,47.7484494,-117.4977919
9919,North Sundance Drive,99208,47.7486162,-117.4974068
10005,North Sundance Drive,99208,47.7488879,-117.4974310
6101,West Lonewolf Court,99208,47.7490862,-117.4976299
6105,West Lonewolf Court,99208,47.7489366,-117.4980149
6109,West Lonewolf Court,99208,47.7490179,-117.4984202
6110,West Lonewolf Court,99208,47.7492949,-117.4985400
6106,West Lonewolf Court,99208,47.7494612,-117.4982251
6102,West Lonewolf Court,99208,47.7494779,-117.4978172
5928,West Lonewolf Avenue,99208,47.7496947,-117.4970472
5924,West Lonewolf Avenue,99208,47.7497776,-117.4967100
5920,West Lonewolf Avenue,99208,47.7498888,-117.4963184
5914,West Lonewolf Avenue,99208,47.7499478,-117.4959955
5910,West Lonewolf Avenue,99208,47.7500255,-117.4956767
5906,West Lonewolf Avenue,99208,47.7501301,-117.4953503
5902,West Lonewolf Avenue,99208,47.7502470,-117.4949767
9906,North Ridgecrest Drive,99208,47.7478667,-117.4980191
25,South Altamont Street,99202,47.6565544,-117.3748808
9910,North Ridgecrest Drive,99208,47.7480834,-117.4982674
10002,North Ridgecrest Drive,99208,47.7483160,-117.4985210
10006,North Ridgecrest Drive,99208,47.7485456,-117.4987823
10010,North Ridgecrest Drive,99208,47.7488079,-117.4989504
10107,North Sundance Drive,99208,47.7497415,-117.4978203
6101,West Crowchief Court,99208,47.7499761,-117.4980224
6105,West Crowchief Court,99208,47.7498594,-117.4983496
6109,West Crowchief Court,99208,47.7498116,-117.4987654
6114,West Crowchief Court,99208,47.7500866,-117.4989524
6110,West Crowchief Court,99208,47.7503271,-117.4987445
6106,West Crowchief Court,99208,47.7503509,-117.4983544
6102,West Crowchief Court,99208,47.7503973,-117.4980303
10108,North Sundance Drive,99208,47.7498800,-117.4972214
10112,North Sundance Drive,99208,47.7500905,-117.4973320
6017,West Crowchief Court,99208,47.7501920,-117.4968604
6015,West Crowchief Court,99208,47.7502783,-117.4965069
6011,West Crowchief Court,99208,47.7503310,-117.4961733
6005,West Crowchief Court,99208,47.7504199,-117.4958085
6002,West Crowchief Court,99208,47.7506696,-117.4957280
6006,West Crowchief Court,99208,47.7508500,-117.4960190
6010,West Crowchief Court,99208,47.7507874,-117.4963997
6014,West Crowchief Court,99208,47.7506848,-117.4967299
6018,West Crowchief Court,99208,47.7506078,-117.4970631
10204,North Sundance Drive,99208,47.7505492,-117.4974026
10209,North Moore Street,99208,47.7504844,-117.4950811
10215,North Moore Street,99208,47.7507529,-117.4951756
5901,West Ridgecrest Drive,99208,47.7511159,-117.4952124
5905,West Ridgecrest Drive,99208,47.7511257,-117.4955437
5909,West Ridgecrest Drive,99208,47.7511866,-117.4959171
5915,West Ridgecrest Drive,99208,47.7512175,-117.4962713
6001,West Ridgecrest Drive,99208,47.7512704,-117.4966298
6007,West Ridgecrest Drive,99208,47.7513219,-117.4970093
10216,North Sundance Drive,99208,47.7513610,-117.4973753
10212,North Sundance Drive,99208,47.7510966,-117.4973547
10208,North Sundance Drive,99208,47.7508639,-117.4974440
6101,West Kittitas Court,99208,47.7507426,-117.4980614
6105,West Kittitas Court,99208,47.7507483,-117.4984378
6109,West Kittitas Court,99208,47.7507226,-117.4988579
6109,West Kittitas Court,99208,47.7505829,-117.4987261
6114,West Kittitas Court,99208,47.7510367,-117.4990335
6110,West Kittitas Court,99208,47.7512377,-117.4987704
6106,West Kittitas Court,99208,47.7512301,-117.4983888
6102,West Kittitas Court,99208,47.7511966,-117.4980374
10102,North Ridgecrest Drive,99208,47.7490766,-117.4990799
10106,North Ridgecrest Drive,99208,47.7493306,-117.4992130
10110,North Ridgecrest Drive,99208,47.7495892,-117.4992919
10114,North Ridgecrest Drive,99208,47.7498577,-117.4993846
10124,North Ridgecrest Drive,99208,47.7501285,-117.4995093
6601,West Ridgecrest Drive,99208,47.7515407,-117.4980159
6107,West Ridgecrest Drive,99208,47.7516136,-117.4984059
6111,West Ridgecrest Drive,99208,47.7516002,-117.4988274
10220,West Ridgecrest Drive,99208,47.7514773,-117.4992752
10210,West Ridgecrest Drive,99208,47.7512792,-117.4994753
10206,North Ridgecrest Drive,99208,47.7509879,-117.4995775
10202,North Ridgecrest Drive,99208,47.7506973,-117.4995858
10128,North Ridgecrest Drive,99208,47.7504069,-117.4995733
9907,North Ridgecrest Drive,99208,47.7476482,-117.4985680
9911,North Ridgecrest Drive,99208,47.7478853,-117.4988293
10003,North Ridgecrest Drive,99208,47.7481087,-117.4990416
10007,North Ridgecrest Drive,99208,47.7483263,-117.4992762
10011,North Ridgecrest Drive,99208,47.7485551,-117.4994794
10015,North Quinault Court,99208,47.7484198,-117.4999852
10019,North Quinault Court,99208,47.7486512,-117.5002745
10023,North Quinault Court,99208,47.7489512,-117.5002055
10103,North Ridgecrest Drive,99208,47.7490672,-117.4997383
10111,North Ridgecrest Drive,99208,47.7493932,-117.4998941
10115,North Ridgecrest Drive,99208,47.7494501,-117.5004163
10119,North Ridgecrest Drive,99208,47.7498028,-117.5004493
10119,North Ridgecrest Drive,99208,47.7499919,-117.5001060
10127,North Ridgecrest Drive,99208,47.7502583,-117.5001800
9906,North Quanah Court,99208,47.7474550,-117.4992872
9910,North Quanah Court,99208,47.7477119,-117.4993358
9914,North Quanah Court,99208,47.7479917,-117.4996232
9915,North Quanah Court,99208,47.7478655,-117.5000221
9909,North Quanah Court,99208,47.7475635,-117.5000797
9905,North Quanah Court,99208,47.7473417,-117.4999120
9901,North Quanah Court,99208,47.7471051,-117.4998250
811,East Sprague Avenue,99202,47.6576836,-117.3983109
9906,North Commanche Drive,99208,47.7471919,-117.5003046
9910,North Commanche Drive,99208,47.7474946,-117.5005618
9914,North Commanche Drive,99208,47.7478095,-117.5006636
10002,North Commanche Drive,99208,47.7481265,-117.5007186
10008,North Commanche Drive,99208,47.7484421,-117.5007784
10012,North Commanche Drive,99208,47.7487595,-117.5008314
10102,North Commanche Drive,99208,47.7490691,-117.5009143
10106,North Commanche Drive,99208,47.7494076,-117.5009530
10110,North Commanche Drive,99208,47.7497106,-117.5010406
10114,North Commanche Drive,99208,47.7499842,-117.5010185
6309,West Geronimo Drive,99208,47.7503210,-117.5009811
6305,West Geronimo Drive,99208,47.7503071,-117.5006460
9907,North Commanche Drive,99208,47.7471886,-117.5010602
9911,North Commanche Drive,99208,47.7474665,-117.5012050
9915,North Commanche Drive,99208,47.7477276,-117.5012571
10001,North Commanche Drive,99208,47.7479949,-117.5013525
10007,North Commanche Drive,99208,47.7482798,-117.5014353
10011,North Commanche Drive,99208,47.7485578,-117.5014594
10015,North Commanche Drive,99208,47.7488195,-117.5015112
10101,North Commanche Drive,99208,47.7490973,-117.5016007
10107,North Commanche Drive,99208,47.7493601,-117.5016578
10111,North Commanche Drive,99208,47.7496481,-117.5017031
10115,North Commanche Drive,99208,47.7499284,-117.5016918
10119,North Commanche Drive,99208,47.7502216,-117.5016592
10123,North Commanche Drive,99208,47.7505000,-117.5016625
10201,North Commanche Drive,99208,47.7507803,-117.5016326
10207,North Commanche Drive,99208,47.7510640,-117.5015939
10211,North Commanche Drive,99208,47.7512879,-117.5012040
10206,North Commanche Drive,99208,47.7511780,-117.5007617
6308,West Geronimo Drive,99208,47.7507868,-117.5007973
10203,North Ridgecrest Drive,99208,47.7507799,-117.5002624
10207,West Ridgecrest Drive,99208,47.7510772,-117.5001848
10211,North Ridgecrest Drive,99208,47.7513468,-117.5000991
10215,North Ridgecrest Drive,99208,47.7515967,-117.4998734
10219,North Ridgecrest Drive,99208,47.7518127,-117.4996213
6116,West Ridgecrest Drive,99208,47.7519658,-117.4992763
6110,West Ridgecrest Drive,99208,47.7520455,-117.4987647
6106,West Ridgecrest Drive,99208,47.7520375,-117.4983372
6102,West Ridgecrest Drive,99208,47.7519759,-117.4979278
6102,West Ridgecrest Drive,99208,47.7520922,-117.4979842
6012,West Ridgecrest Drive,99208,47.7518579,-117.4972127
6008,West Ridgecrest Drive,99208,47.7517407,-117.4968427
6002,West Ridgecrest Drive,99208,47.7517151,-117.4964400
6012,West Ridgecrest Drive,99208,47.7516350,-117.4958697
5908,West Ridgecrest Drive,99208,47.7515431,-117.4954968
5904,West Ridgecrest Drive,99208,47.7515665,-117.4951450
5812,West Ridgecrest Drive,99208,47.7514773,-117.4944511
5808,West Ridgecrest Drive,99208,47.7514617,-117.4940637
5330,West Shawnee Avenue,99208,47.7450935,-117.4884696
5326,West Shawnee Avenue,99208,47.7450982,-117.4881327
5318,West Shawnee Avenue,99208,47.7450740,-117.4877941
5312,West Shawnee Avenue,99208,47.7450905,-117.4874756
5327,West Shawnee Avenue,99208,47.7446615,-117.4880744
5317,West Shawnee Avenue,99208,47.7446824,-117.4877150
5311,West Shawnee Avenue,99208,47.7447052,-117.4873498
5224,West Shawnee Avenue,99208,47.7447050,-117.4869695
5217,West Shawnee Avenue,99208,47.7446824,-117.4865784
5211,West Shawnee Avenue,99208,47.7446776,-117.4862336
5224,West Shawnee Avenue,99208,47.7450714,-117.4867320
5212,West Shawnee Avenue,99208,47.7450999,-117.4862497
5329,West Bentwood Court,99208,47.7455808,-117.4887784
5325,West Bentwood Court,99208,47.7454694,-117.4883724
10305,North Sundance Drive,99208,47.7522266,-117.4977347
10309,North Sundance Drive,99208,47.7524169,-117.4976137
10415,North Iroquois Drive,99208,47.7525297,-117.4980190
10415,North Iroquois Drive,99208,47.7524907,-117.4982159
10419,North Iroquois Court,99208,47.7526167,-117.4983849
10423,North Iroquois Court,99208,47.7523927,-117.4986080
10427,North Iroquois Court,99208,47.7524466,-117.4990592
10431,North Iroquois Court,99208,47.7527070,-117.4991316
10435,North Iroquois Court,99208,47.7529047,-117.4989557
10306,North Moore Court,99208,47.7518041,-117.4943874
10310,North Moore Court,99208,47.7520466,-117.4944127
10314,North Moore Court,99208,47.7522288,-117.4946738
10309,North Moore Court,99208,47.7521272,-117.4950721
10305,North Moore Court,99208,47.7518416,-117.4950640
10306,North Kamiah Court,99208,47.7519364,-117.4957534
10310,North Kamiah Court,99208,47.7521773,-117.4955817
10314,North Kamiah Court,99208,47.7524370,-117.4957165
10315,North Kamiah Court,99208,47.7525049,-117.4961127
10309,North Kamiah Court,99208,47.7522865,-117.4963726
10305,North Kamiah Court,99208,47.7520140,-117.4963373
10306,North Sundance Drive,99208,47.7521225,-117.4970690
10316,North Sundance Drive,99208,47.7523022,-117.4969559
10406,North Sundance Drive,99208,47.7525301,-117.4968153
10410,North Sundance Drive,99208,47.7527558,-117.4966768
6011,West Chippewa Court,99208,47.7529815,-117.4964838
5915,West Chippewa Court,99208,47.7529260,-117.4961141
5915,West Chippewa Court,99208,47.7528388,-117.4957475
5911,West Chippewa Court,99208,47.7527404,-117.4954125
5909,West Chippewa Court,99208,47.7526218,-117.4950513
5905,West Chippewa Court,99208,47.7527561,-117.4946561
5906,West Chippewa Court,99208,47.7530655,-117.4946781
5910,West Chippewa Court,99208,47.7531984,-117.4950343
5914,West Chippewa Court,99208,47.7532301,-117.4954388
6006,West Chippewa Court,99208,47.7533152,-117.4958067
6010,West Chippewa Court,99208,47.7533966,-117.4961753
5909,West Pima Court,99208,47.7537127,-117.4958539
5905,West Pima Court,99208,47.7536592,-117.4954685
5901,West Pima Court,99208,47.7536270,-117.4950201
5902,West Pima Court,99208,47.7539347,-117.4949209
5906,West Pima Court,99208,47.7541104,-117.4952133
5910,West Pima Court,99208,47.7541679,-117.4956164
5907,West Bedford Court,99208,47.7544807,-117.4954776
5903,West Bedford Court,99208,47.7544971,-117.4951015
5902,West Bedford Court,99208,47.7549655,-117.4952061
5906,West Bedford Court,99208,47.7549198,-117.4955485
5909,West Hopi Court,99208,47.7551978,-117.4956401
5903,West Hopi Court,99208,47.7554449,-117.4953335
5904,West Hopi Court,99208,47.7556505,-117.4956338
5903,West Hopi Court,99208,47.7553035,-117.4952235
5908,West Hopi Court,99208,47.7556051,-117.4960607
5911,West Blackfoot Avenue,99208,47.7558300,-117.4963642
5907,West Blackfoot Avenue,99208,47.7560062,-117.4960169
5903,West Blackfoot Avenue,99208,47.7560935,-117.4955849
6107,West Chippewa Court,99208,47.7531581,-117.4970805
6111,West Chippewa Court,99208,47.7532628,-117.4974071
6115,West Chippewa Court,99208,47.7533423,-117.4977522
6119,West Chippewa Court,99208,47.7535233,-117.4981140
6122,West Chippewa Court,99208,47.7538053,-117.4981239
6118,West Chippewa Court,99208,47.7539493,-117.4977218
6114,West Chippewa Court,99208,47.7538049,-117.4973947
6110,West Chippewa Court,99208,47.7536629,-117.4970847
6106,West Chippewa Court,99208,47.7535653,-117.4967722
6003,West Pima Court,99208,47.7538857,-117.4965355
6009,West Pima Court,99208,47.7540080,-117.4969669
6010,West Pima Court,99208,47.7542660,-117.4969595
6006,West Pima Court,99208,47.7544429,-117.4965563
6002,West Pima Court,99208,47.7542507,-117.4962172
10625,North Sundance Drive,99208,47.7545990,-117.4961886
10703,North Sundance Drive,99208,47.7553398,-117.4966748
6003,West Hopi Court,99208,47.7548929,-117.4962814
6007,West Hopi Court,99208,47.7547542,-117.4965972
6011,West Hopi Court,99208,47.7548991,-117.4969437
6010,West Hopi Court,99208,47.7551873,-117.4969645
10707,North Sundance Drive,99208,47.7555296,-117.4969864
6111,West Sundance Drive,99208,47.7555004,-117.4985698
6203,West Sundance Drive,99208,47.7553127,-117.4987980
6207,West Sundance Drive,99208,47.7550894,-117.4990687
6211,West Sundance Drive,99208,47.7549370,-117.4993317
6206,West Sundance Drive,99208,47.7556068,-117.4994236
6202,West Sundance Drive,99208,47.7557589,-117.4991146
6108,West Sundance Drive,99208,47.7560196,-117.4985208
10710,North Klamath Court,99208,47.7555980,-117.4974214
10706,North Klamath Court,99208,47.7553451,-117.4973845
10702,North Klamath Court,99208,47.7551900,-117.4977915
10705,North Klamath Court,99208,47.7553362,-117.4981843
10711,North Klamath Court,99208,47.7555904,-117.4981618
10412,North Iroquois Drive,99208,47.7528457,-117.4973390
10416,North Iroquois Drive,99208,47.7529545,-117.4976679
10420,North Iroquois Drive,99208,47.7530682,-117.4979933
10506,North Iroquois Drive,99208,47.7531920,-117.4983211
10510,North Iroquois Drive,99208,47.7533904,-117.4985353
10514,North Iroquois Drive,99208,47.7536259,-117.4986897
10518,North Iroquois Drive,99208,47.7538513,-117.4987948
10610,North Iroquois Drive,99208,47.7546946,-117.4992942
6221,West Skagit Court,99208,47.7541553,-117.4985093
6215,West Skagit Court,99208,47.7542406,-117.4981479
6209,West Skagit Court,99208,47.7542713,-117.4977985
6203,West Skagit Court,99208,47.7543719,-117.4974515
6202,West Skagit Court,99208,47.7546825,-117.4973514
6206,West Skagit Court,99208,47.7548323,-117.4976708
6210,West Skagit Court,99208,47.7547749,-117.4980351
6216,West Skagit Court,99208,47.7546721,-117.4983859
6220,West Skagit Court,99208,47.7545860,-117.4987312
10522,North Iroquois Drive,99208,47.7540749,-117.4989336
10604,North Iroquois Drive,99208,47.7544714,-117.4991486
10802,North Klamath Court,99208,47.7561123,-117.4974884
10806,North Klamath Court,99208,47.7564043,-117.4974728
10810,North Klamath Court,99208,47.7567021,-117.4974519
10816,North Klamath Court,99208,47.7568802,-117.4978495
10811,North Klamath Court,99208,47.7567046,-117.4982668
10807,North Klamath Court,99208,47.7563887,-117.4982127
10803,North Klamath Court,99208,47.7560992,-117.4981444
5912,West Blackfoot Avenue,99208,47.7560119,-117.4970091
10511,North Iroquois Drive,99208,47.7531613,-117.4991326
6407,West Kitsap Drive,99208,47.7530852,-117.4995796
6411,West Kitsap Drive,99208,47.7529458,-117.4999055
6415,West Kitsap Drive,99208,47.7529057,-117.5003436
6419,West Kitsap Drive,99208,47.7528189,-117.5007229
6423,West Kitsap Drive,99208,47.7527252,-117.5011004
6427,West Kitsap Drive,99208,47.7526027,-117.5014752
6431,West Kitsap Drive,99208,47.7525346,-117.5018668
6435,West Kitsap Drive,99208,47.7523908,-117.5022264
6439,West Kitsap Drive,99208,47.7523049,-117.5026374
6503,West Kitsap Drive,99208,47.7522199,-117.5031310
6507,West Kitsap Drive,99208,47.7523388,-117.5036185
320,West Spofford Avenue,99205,47.6724502,-117.4165524
10806,North Klickitat Court,99208,47.7562647,-117.4986907
10810,North Klickitat Court,99208,47.7565424,-117.4987774
10816,North Klickitat Court,99208,47.7566439,-117.4991208
10811,North Klickitat Court,99208,47.7565330,-117.4994884
10807,North Klickitat Court,99208,47.7562340,-117.4995526
10803,North Klickitat Court,99208,47.7560543,-117.4992752
10706,North Iroquois Drive,99208,47.7554181,-117.4996806
10712,North Iroquois Drive,99208,47.7557178,-117.4998224
10716,North Iroquois Drive,99208,47.7559902,-117.4999049
10722,North Iroquois Drive,99208,47.7562157,-117.5000433
10706,North Iroquois Drive,99208,47.7564665,-117.5001937
10519,North Iroquois Drive,99208,47.7536055,-117.4993872
10523,North Iroquois Drive,99208,47.7538897,-117.4995240
10707,North Iroquois Drive,99208,47.7553738,-117.5002899
10711,North Iroquois Drive,99208,47.7555957,-117.5004406
10715,North Iroquois Drive,99208,47.7558280,-117.5005397
10721,North Iroquois Drive,99208,47.7560649,-117.5006771
10725,North Iroquois Drive,99208,47.7563030,-117.5007762
6302,West Sundance Drive,99208,47.7550902,-117.5001979
6306,West Sundance Drive,99208,47.7550485,-117.5005601
6310,West Sundance Drive,99208,47.7550847,-117.5008988
6314,West Sundance Drive,99208,47.7551809,-117.5012146
10706,North Cowlitz Court,99208,47.7553827,-117.5014894
10710,North Cowlitz Court,99208,47.7555579,-117.5012675
10716,North Cowlitz Court,99208,47.7558037,-117.5011011
10720,North Cowlitz Court,99208,47.7560716,-117.5012522
10717,North Cowlitz Court,99208,47.7560367,-117.5017129
10711,North Cowlitz Court,99208,47.7558471,-117.5019263
10705,North Cowlitz Court,99208,47.7556618,-117.5020546
6406,West Sundance Drive,99208,47.7557433,-117.5025586
6410,West Sundance Drive,99208,47.7557305,-117.5029404
6416,West Sundance Drive,99208,47.7556541,-117.5033629
6420,West Sundance Drive,99208,47.7555594,-117.5036802
6408,West Kitsap Drive,99208,47.7535236,-117.4997822
6412,West Kitsap Drive,99208,47.7534197,-117.5001723
6416,West Kitsap Drive,99208,47.7533170,-117.5005396
6420,West Kitsap Drive,99208,47.7532420,-117.5009204
6424,West Kitsap Drive,99208,47.7531030,-117.5012998
6428,West Kitsap Drive,99208,47.7530046,-117.5016777
6432,West Kitsap Drive,99208,47.7528942,-117.5020961
6436,West Kitsap Drive,99208,47.7527987,-117.5025423
6504,West Kitsap Drive,99208,47.7527423,-117.5030093
6511,West Kitsap Drive,99208,47.7527022,-117.5040290
6515,West Kitsap Drive,99208,47.7528983,-117.5044255
6519,West Kitsap Drive,99208,47.7529903,-117.5049015
6603,West Kitsap Drive,99208,47.7530545,-117.5054712
6607,West Kitsap Drive,99208,47.7533169,-117.5057795
6611,West Kitsap Drive,99208,47.7536111,-117.5059618
6615,West Kitsap Drive,99208,47.7539505,-117.5061644
6619,West Kitsap Drive,99208,47.7543100,-117.5060444
6623,West Kitsap Drive,99208,47.7545468,-117.5056686
6530,West Sundance Drive,99208,47.7547901,-117.5052762
6520,West Sundance Drive,99208,47.7549560,-117.5050253
6506,West Sundance Drive,99208,47.7553587,-117.5043910
6508,West Kitsap Drive,99208,47.7529610,-117.5034116
6512,West Kitsap Drive,99208,47.7531944,-117.5038053
6516,West Kitsap Drive,99208,47.7533017,-117.5042629
6520,West Kitsap Drive,99208,47.7533801,-117.5046985
6604,West Kitsap Drive,99208,47.7534881,-117.5051088
6608,West Kitsap Drive,99208,47.7537466,-117.5053644
6612,West Kitsap Drive,99208,47.7539985,-117.5055084
6309,West Skagit Avenue,99208,47.7537997,-117.4999488
6313,West Skagit Avenue,99208,47.7537193,-117.5003470
6317,West Skagit Avenue,99208,47.7536353,-117.5007020
6407,West Skagit Avenue,99208,47.7535322,-117.5010808
6411,West Skagit Avenue,99208,47.7534368,-117.5014888
6415,West Skagit Avenue,99208,47.7533933,-117.5018875
6419,West Skagit Avenue,99208,47.7533421,-117.5023046
6423,West Skagit Avenue,99208,47.7533291,-117.5027357
6503,West Skagit Avenue,99208,47.7533511,-117.5031158
6507,West Skagit Avenue,99208,47.7534326,-117.5035090
6511,West Skagit Avenue,99208,47.7535595,-117.5039035
6515,West Skagit Avenue,99208,47.7536312,-117.5043148
6519,West Skagit Avenue,99208,47.7538650,-117.5046305
6523,West Skagit Avenue,99208,47.7540519,-117.5049454
6527,West Skagit Avenue,99208,47.7542463,-117.5051981
6302,West Skagit Avenue,99208,47.7543321,-117.4997841
6306,West Skagit Avenue,99208,47.7542525,-117.5001061
6310,West Skagit Avenue,99208,47.7542108,-117.5004707
6314,West Skagit Avenue,99208,47.7540994,-117.5007853
6404,West Skagit Avenue,99208,47.7540058,-117.5011301
6410,West Skagit Avenue,99208,47.7539432,-117.5014770
6414,West Skagit Avenue,99208,47.7538759,-117.5018687
6418,West Skagit Avenue,99208,47.7537955,-117.5022469
6422,West Skagit Avenue,99208,47.7538220,-117.5026536
6504,West Skagit Avenue,99208,47.7538256,-117.5030497
6508,West Skagit Avenue,99208,47.7539179,-117.5034151
6512,West Skagit Avenue,99208,47.7540097,-117.5037934
6516,West Skagit Avenue,99208,47.7541576,-117.5041126
6520,West Skagit Avenue,99208,47.7543447,-117.5043967
6526,West Skagit Avenue,99208,47.7545610,-117.5047198
10715,North Acoma Court,99208,47.7547815,-117.5043922
10707,North Acoma Court,99208,47.7546073,-117.5040743
10706,North Acoma Court,99208,47.7546869,-117.5037243
10706,North Acoma Court,99208,47.7547676,-117.5035398
6423,West Sundance Drive,99208,47.7550279,-117.5037069
6423,West Sundance Drive,99208,47.7551366,-117.5034074
6319,West Sundance Drive,99208,47.7550996,-117.5019860
6309,West Sundance Drive,99208,47.7545939,-117.5006902
6307,West Sundance Drive,99208,47.7546188,-117.5003168
6305,West Sundance Drive,99208,47.7546552,-117.4999532
10616,North Clatsop Court,99208,47.7546829,-117.5011047
10610,North Clatsop Court,99208,47.7544462,-117.5012124
10606,North Clatsop Court,99208,47.7543051,-117.5015703
10609,North Clatsop Court,99208,47.7544175,-117.5019496
10615,North Clatsop Court,99208,47.7547087,-117.5019684
10619,North Clatsop Court,99208,47.7548948,-117.5016783
10710,North Clallam Court,99208,47.7552006,-117.5023807
10706,North Clallam Court,99208,47.7549409,-117.5024168
10616,North Clallam Court,99208,47.7546740,-117.5024792
10610,North Clallam Court,99208,47.7544126,-117.5024313
10606,North Clallam Court,99208,47.7541732,-117.5026820
10605,North Clallam Court,99208,47.7542095,-117.5030798
10611,North Clallam Court,99208,47.7544544,-117.5032765
10615,North Clallam Court,99208,47.7547011,-117.5031520
10707,North Clallam Court,99208,47.7549491,-117.5030663
10711,North Clallam Court,99208,47.7552225,-117.5029895
10908,North Iroquois Drive,99208,47.7577901,-117.5007473
10908,North Iroquois Drive,99208,47.7579144,-117.5011719
10912,North Iroquois Drive,99208,47.7580191,-117.5015293
10909,North Iroquois Drive,99208,47.7575102,-117.5017290
10915,North Iroquois Drive,99208,47.7575724,-117.5021086
10916,North Iroquois Drive,99208,47.7580535,-117.5019756
10920,North Iroquois Drive,99208,47.7580507,-117.5023542
10928,North Iroquois Drive,99208,47.7580213,-117.5027657
6504,West Iroquois Drive,99208,47.7580227,-117.5031499
10919,North Iroquois Drive,99208,47.7575872,-117.5024810
10923,North Iroquois Drive,99208,47.7572969,-117.5026388
10927,North Iroquois Drive,99208,47.7573125,-117.5030646
10931,North Iroquois Drive,99208,47.7575691,-117.5032488
10910,North Huron Court,99208,47.7576082,-117.5036966
10906,North Huron Court,99208,47.7573407,-117.5036230
10902,North Huron Court,99208,47.7570341,-117.5037751
10902,North Huron Court,99208,47.7569200,-117.5039140
10903,North Huron Court,99208,47.7570550,-117.5042168
10903,North Huron Court,99208,47.7569118,-117.5041269
10907,North Huron Court,99208,47.7573246,-117.5044276
10911,North Huron Court,99208,47.7575965,-117.5043401
6508,West Iroquois Drive,99208,47.7580219,-117.5035354
6512,West Iroquois Drive,99208,47.7580512,-117.5039294
6604,West Iroquois Drive,99208,47.7580390,-117.5042898
6610,West Iroquois Drive,99208,47.7580236,-117.5046916
6614,West Iroquois Drive,99208,47.7580261,-117.5050760
6712,West Iroquois Drive,99208,47.7580568,-117.5054592
6708,West Iroquois Drive,99208,47.7580150,-117.5058538
6712,West Iroquois Drive,99208,47.7580384,-117.5062492
6804,West Iroquois Drive,99208,47.7580356,-117.5066066
6808,West Iroquois Drive,99208,47.7580416,-117.5070074
6812,West Iroquois Drive,99208,47.7580289,-117.5073965
6904,West Iroquois Drive,99208,47.7580293,-117.5077812
6908,West Iroquois Drive,99208,47.7580229,-117.5081795
6912,West Iroquois Drive,99208,47.7580226,-117.5085588
6916,West Iroquois Drive,99208,47.7579952,-117.5090847
6920,West Iroquois Court,99208,47.7580050,-117.5095590
6924,West Iroquois Drive,99208,47.7577019,-117.5103946
10955,North Acoma Drive,99208,47.7574033,-117.5097645
10951,North Acoma Drive,99208,47.7570435,-117.5096107
10947,North Acoma Drive,99208,47.7567948,-117.5092444
10943,North Acoma Drive,99208,47.7566580,-117.5087586
10939,North Acoma Drive,99208,47.7565403,-117.5083399
10935,North Acoma Drive,99208,47.7562241,-117.5082947
10931,North Acoma Drive,99208,47.7561015,-117.5078958
10927,North Acoma Drive,99208,47.7563429,-117.5075697
10923,North Acoma Drive,99208,47.7563409,-117.5071859
10923,North Acoma Drive,99208,47.7561275,-117.5072306
10919,North Acoma Drive,99208,47.7563877,-117.5067686
10915,North Acoma Drive,99208,47.7564598,-117.5064000
10909,North Acoma Drive,99208,47.7565289,-117.5060122
10905,North Acoma Drive,99208,47.7566155,-117.5057179
10819,North Acoma Drive,99208,47.7566466,-117.5053155
10818,North Acoma Drive,99208,47.7568295,-117.5045802
10818,North Acoma Drive,99208,47.7568366,-117.5042488
11004,North Acoma Street,99208,47.7571038,-117.5048716
11008,North Acoma Street,99208,47.7573653,-117.5048830
11012,North Acoma Street,99208,47.7576040,-117.5048795
11007,North Acoma Street,99208,47.7573642,-117.5055633
6709,West Iroquois Drive,99208,47.7575798,-117.5060071
6711,West Iroquois Drive,99208,47.7573260,-117.5061854
6715,West Iroquois Drive,99208,47.7573135,-117.5066231
6719,West Iroquois Drive,99208,47.7575785,-117.5067625
6809,West Iroquois Drive,99208,47.7575854,-117.5071362
6815,West Iroquois Drive,99208,47.7573401,-117.5071794
6819,West Iroquois Drive,99208,47.7571765,-117.5075636
6823,West Iroquois Drive,99208,47.7573228,-117.5079215
6827,West Iroquois Drive,99208,47.7575850,-117.5079405
6909,West Iroquois Drive,99208,47.7575503,-117.5083581
6915,West Iroquois Drive,99208,47.7575235,-117.5087454
10950,North Acoma Drive,99208,47.7572521,-117.5088028
10944,North Acoma Drive,99208,47.7571240,-117.5084207
10940,North Acoma Drive,99208,47.7569484,-117.5079685
10938,North Acoma Drive,99208,47.7568025,-117.5076311
10926,North Acoma Drive,99208,47.7568162,-117.5072069
10918,North Acoma Drive,99208,47.7568602,-117.5068184
10914,North Acoma Drive,99208,47.7569491,-117.5064947
10908,North Acoma Drive,99208,47.7570341,-117.5060744
10904,North Acoma Drive,99208,47.7571047,-117.5056014
9617,North Arrowhead Drive,99208,47.7454478,-117.4875723
9627,North Arrowhead Drive,99208,47.7456576,-117.4877356
9610,North Arrowhead Drive,99208,47.7453046,-117.4868217
9616,North Arrowhead Drive,99208,47.7455196,-117.4869017
9622,North Arrowhead Drive,99208,47.7457270,-117.4871306
9628,North Arrowhead Drive,99208,47.7459303,-117.4872656
5315,West Bentwood Court,99208,47.7456409,-117.4880897
5324,West Bentwood Court,99208,47.7458219,-117.4888557
5316,West Bentwood Court,99208,47.7460157,-117.4885833
5215,West Bentwood Court,99208,47.7460796,-117.4868522
5209,West Bentwood Court,99208,47.7461528,-117.4864984
5203,West Bentwood Court,99208,47.7463604,-117.4862307
5204,West Bentwood Court,99208,47.7466063,-117.4864319
9,East 1st Avenue,99201,47.6568991,-117.4107872
5210,West Bentwood Court,99208,47.7466008,-117.4868298
5216,West Bentwood Court,99208,47.7464784,-117.4871340
9704,North Arrowhead Drive,99208,47.7463224,-117.4875055
9710,North Arrowhead Drive,99208,47.7465288,-117.4877158
9716,North Arrowhead Drive,99208,47.7467316,-117.4878910
9703,North Arrowhead Drive,99208,47.7461203,-117.4880998
9711,North Arrowhead Drive,99208,47.7463322,-117.4882325
9719,North Arrowhead Drive,99208,47.7465318,-117.4884325
5315,West Baywood Court,99208,47.7463972,-117.4888193
5325,West Baywood Court,99208,47.7463182,-117.4891722
5329,West Baywood Court,99208,47.7464805,-117.4895025
5324,West Baywood Court,99208,47.7467687,-117.4893752
5316,West Baywood Court,99208,47.7468416,-117.4890208
5310,West Baywood Court,99208,47.7469235,-117.4887308
5217,West Baywood Court,99208,47.7468930,-117.4875037
5211,West Baywood Court,99208,47.7469704,-117.4871840
5207,West Baywood Court,99208,47.7470103,-117.4867807
5307,West Baywood Court,99208,47.7471788,-117.4864819
5204,West Baywood Court,99208,47.7474429,-117.4865851
5208,West Baywood Court,99208,47.7475484,-117.4869493
5212,West Baywood Court,99208,47.7474691,-117.4872861
5216,West Baywood Court,99208,47.7473105,-117.4876201
5220,West Baywood Court,99208,47.7472312,-117.4878858
5224,West Baywood Court,99208,47.7471390,-117.4881898
5309,West Navaho Avenue,99208,47.7473233,-117.4890211
5315,West Navaho Avenue,99208,47.7471914,-117.4893450
5325,West Navaho Avenue,99208,47.7471275,-117.4896715
5329,West Navaho Avenue,99208,47.7469979,-117.4899703
5328,West Navaho Avenue,99208,47.7473839,-117.4902259
5324,West Navaho Avenue,99208,47.7474682,-117.4899379
5316,West Navaho Avenue,99208,47.7475640,-117.4896156
9811,North Arrowhead Drive,99208,47.7477451,-117.4893238
5309,West Garwood Court,99208,47.7479903,-117.4896000
5315,West Garwood Court,99208,47.7478983,-117.4899278
5324,West Garwood Court,99208,47.7478188,-117.4903303
5329,West Garwood Court,99208,47.7480389,-117.4906116
5329,West Garwood Court,99208,47.7481858,-117.4908883
5324,West Garwood Court,99208,47.7482977,-117.4904722
5316,West Garwood Court,99208,47.7483599,-117.4900650
5310,West Garwood Court,99208,47.7483727,-117.4896167
9903,North Glenwood Drive,99208,47.7486888,-117.4896288
9905,North Glenwood Drive,99208,47.7487160,-117.4899639
9909,North Glenwood Drive,99208,47.7488550,-117.4903548
9929,North Glenwood Drive,99208,47.7493390,-117.4910941
9915,North Fircrest Court,99208,47.7486060,-117.4906376
9919,North Fircrest Court,99208,47.7486432,-117.4910627
9923,North Fircrest Court,99208,47.7488985,-117.4911380
9927,North Fircrest Court,99208,47.7491133,-117.4908892
5411,West Comanche Drive,99208,47.7492119,-117.4914862
10010,North Indian Trail Road,99208,47.7498177,-117.4919548
5412,West Comanche Drive,99208,47.7495718,-117.4917175
5404,West Comanche Drive,99208,47.7498008,-117.4914099
5403,West Woodview Court,99208,47.7501877,-117.4914974
5411,West Woodview Court,99208,47.7501422,-117.4919517
5421,West Woodview Court,99208,47.7503855,-117.4922512
5412,West Woodview Court,99208,47.7506242,-117.4919299
5404,West Woodview Court,99208,47.7505885,-117.4914981
5403,West Ridgecrest Drive,99208,47.7510131,-117.4915492
5411,West Ridgecrest Drive,99208,47.7510048,-117.4919139
5419,West Ridgecrest Drive,99208,47.7510068,-117.4923420
5427,West Ridgecrest Drive,99208,47.7510190,-117.4927344
5434,West Ridgecrest Drive,99208,47.7514809,-117.4930641
5430,West Ridgecrest Drive,99208,47.7514485,-117.4926344
10401,North Russett Drive,99208,47.7519465,-117.4925458
10402,North Russett Drive,99208,47.7518329,-117.4929217
10409,North Russett Drive,99208,47.7518972,-117.4932638
10415,North Russett Drive,99208,47.7521060,-117.4934139
10501,North Russett Drive,99208,47.7523611,-117.4933010
10505,North Russett Drive,99208,47.7525697,-117.4935827
10509,North Russett Drive,99208,47.7528047,-117.4936635
10511,North Russett Drive,99208,47.7530902,-117.4937617
10515,North Russett Drive,99208,47.7533576,-117.4938185
10605,North Quincy Court,99208,47.7536664,-117.4936376
10605,North Quincy Court,99208,47.7537973,-117.4939970
10605,North Quincy Court,99208,47.7535876,-117.4940488
10614,North Quincy Court,99208,47.7541230,-117.4940371
10610,North Quincy Court,99208,47.7542316,-117.4936678
10610,North Quincy Court,99208,47.7543374,-117.4934405
10606,North Quincy Court,99208,47.7541146,-117.4932553
6657,West Bedford Avenue,99208,47.7545551,-117.4942832
5649,West Bedford Avenue,99208,47.7545548,-117.4939344
5641,West Bedford Avenue,99208,47.7545841,-117.4935737
5633,West Bedford Avenue,99208,47.7546439,-117.4931948
5619,West Bedford Avenue,99208,47.7548215,-117.4925414
5615,West Bedford Avenue,99208,47.7548796,-117.4922220
5611,West Bedford Avenue,99208,47.7549014,-117.4918746
5607,West Bedford Avenue,99208,47.7549166,-117.4915275
5603,West Bedford Avenue,99208,47.7549117,-117.4911613
6410,West Bedford Avenue,99208,47.7549106,-117.4907693
5505,West Bedford Avenue,99208,47.7549180,-117.4904211
5503,West Bedford Avenue,99208,47.7549142,-117.4900562
5502,West Newbury Drive,99208,47.7545705,-117.4901902
5506,West Newbury Drive,99208,47.7545647,-117.4905438
5510,West Newbury Drive,99208,47.7545685,-117.4909167
5514,West Newbury Drive,99208,47.7545645,-117.4912894
5602,West Newbury Drive,99208,47.7545454,-117.4916282
5606,West Newbury Drive,99208,47.7545564,-117.4919609
5610,West Newbury Drive,99208,47.7545288,-117.4922974
5614,West Newbury Drive,99208,47.7544650,-117.4926173
5614,West Newbury Drive,99208,47.7543171,-117.4929165
9603,North Woodridge Drive,99208,47.7453589,-117.4861023
9607,North Woodridge Drive,99208,47.7455994,-117.4860202
9611,North Woodridge Drive,99208,47.7458100,-117.4859429
9615,North Woodridge Drive,99208,47.7460560,-117.4857976
9619,North Woodridge Drive,99208,47.7462487,-117.4856671
9623,North Woodridge Drive,99208,47.7464804,-117.4855528
9627,North Alpine Court,99208,47.7467145,-117.4854790
9631,North Alpine Court,99208,47.7467996,-117.4859335
9635,North Alpine Court,99208,47.7470450,-117.4859985
9639,North Alpine Court,99208,47.7472077,-117.4857104
9703,North Woodridge Drive,99208,47.7471204,-117.4852458
9709,North Woodridge Drive,99208,47.7473463,-117.4851182
9715,North Woodridge Drive,99208,47.7475555,-117.4849981
9721,North Woodridge Drive,99208,47.7477824,-117.4848682
9727,North Woodridge Drive,99208,47.7481299,-117.4846752
5207,West Navaho Avenue,99208,47.7481693,-117.4850886
5209,West Myrtlewood Court,99208,47.7481798,-117.4855707
5211,West Myrtlewood Court,99208,47.7479509,-117.4855117
5215,West Myrtlewood Court,99208,47.7477055,-117.4855732
5217,West Myrtlewood Court,99208,47.7475316,-117.4859177
5219,West Myrtlewood Court,99208,47.7477396,-117.4862491
5221,West Myrtlewood Court,99208,47.7479974,-117.4861886
5223,West Myrtlewood Court,99208,47.7482065,-117.4861750
5225,West Navaho Avenue,99208,47.7481571,-117.4866445
5227,West Navaho Avenue,99208,47.7480339,-117.4869851
5229,West Navaho Avenue,99208,47.7479300,-117.4872967
5231,West Navaho Avenue,99208,47.7478222,-117.4875965
5233,West Navaho Avenue,99208,47.7477334,-117.4879272
5235,West Navaho Avenue,99208,47.7476191,-117.4881803
9728,North Arrowhead Drive,99208,47.7474231,-117.4884377
5238,West Navaho Avenue,99208,47.7479104,-117.4887278
5236,West Navaho Avenue,99208,47.7479697,-117.4884601
5234,West Navaho Avenue,99208,47.7480906,-117.4881225
5232,West Navaho Avenue,99208,47.7482163,-117.4878379
5230,West Navaho Avenue,99208,47.7483486,-117.4875041
5226,West Navaho Avenue,99208,47.7484358,-117.4872251
5224,West Pinedale Court,99208,47.7487090,-117.4874506
5220,West Pinedale Court,99208,47.7489319,-117.4871614
5218,West Pinedale Court,99208,47.7489152,-117.4867759
5216,West Pinedale Court,99208,47.7486528,-117.4866193
5214,West Navaho Avenue,99208,47.7486274,-117.4861636
5212,West Navaho Avenue,99208,47.7486679,-117.4858019
5103,West Ridgecrest Drive,99208,47.7489327,-117.4857159
5203,West Alderwood Avenue,99208,47.7492985,-117.4857187
5207,West Alderwood Avenue,99208,47.7492649,-117.4860065
5211,West Alderwood Avenue,99208,47.7492637,-117.4863412
5215,West Alderwood Avenue,99208,47.7492664,-117.4867798
5219,West Alderwood Avenue,99208,47.7493424,-117.4871743
5223,West Alderwood Avenue,99208,47.7493624,-117.4874484
5227,West Alderwood Avenue,99208,47.7494020,-117.4877779
9912,North Arrowhead Drive,99208,47.7494215,-117.4882090
9908,North Arrowhead Drive,99208,47.7491461,-117.4884360
9904,North Arrowhead Drive,99208,47.7489808,-117.4885795
9820,North Arrowhead Drive,99208,47.7482079,-117.4888943
9836,North Glenwood Court,99208,47.7488575,-117.4881328
9832,North Glenwood Court,99208,47.7485863,-117.4880878
9828,North Glenwood Court,99208,47.7484177,-117.4884080
9829,North Glenwood Court,99208,47.7485267,-117.4888054
9903,North Arrowhead Drive,99208,47.7490621,-117.4893127
9907,North Arrowhead Drive,99208,47.7493003,-117.4890843
9911,North Arrowhead Drive,99208,47.7495241,-117.4888679
9915,West Arrowhead Road,99208,47.7497128,-117.4891299
9919,West Arrowhead Road,99208,47.7499943,-117.4890420
9923,North Arrowhead Drive,99208,47.7500801,-117.4886974
10011,North Arrowhead Drive,99208,47.7503505,-117.4887288
10203,North Arrowhead Drive,99208,47.7505673,-117.4888351
10207,North Arrowhead Drive,99208,47.7508042,-117.4889047
5303,West Ridgecrest Drive,99208,47.7510436,-117.4890977
5309,West Ridgecrest Drive,99208,47.7510340,-117.4894271
5311,West Ridgecrest Drive,99208,47.7510124,-117.4898658
5315,West Ridgecrest Drive,99208,47.7510269,-117.4901279
5319,West Ridgecrest Drive,99208,47.7510330,-117.4905184
5323,West Ridgecrest Drive,99208,47.7510411,-117.4908612
5324,West Woodview Court,99208,47.7506091,-117.4908439
5320,West Woodview Court,99208,47.7505963,-117.4905165
5316,West Woodview Court,99208,47.7506121,-117.4901544
5312,West Woodview Court,99208,47.7506233,-117.4898211
5308,West Woodview Court,99208,47.7505647,-117.4894489
5307,West Woodview Court,99208,47.7503048,-117.4893787
5311,West Woodview Court,99208,47.7500998,-117.4896462
5315,West Woodview Court,99208,47.7501822,-117.4900521
5319,West Woodview Court,99208,47.7501801,-117.4903364
5323,West Woodview Court,99208,47.7501970,-117.4907749
10006,North Glenwood Drive,99208,47.7499329,-117.4907791
9934,North Glenwood Drive,99208,47.7496951,-117.4906693
9926,North Glenwood Drive,99208,47.7495286,-117.4905246
9908,North Glenwood Drive,99208,47.7491904,-117.4899512
9920,North Fircrest Court,99208,47.7497638,-117.4901825
9916,North Fircrest Court,99208,47.7497308,-117.4897347
9912,North Fircrest Court,99208,47.7494780,-117.4896090
5410,West Ridgecrest Drive,99208,47.7514575,-117.4917995
5404,West Ridgecrest Drive,99208,47.7514600,-117.4913686
5324,West Ridgecrest Drive,99208,47.7514405,-117.4910048
5320,West Ridgecrest Drive,99208,47.7514313,-117.4906026
5316,West Ridgecrest Drive,99208,47.7514826,-117.4902649
5312,West Ridgecrest Drive,99208,47.7514621,-117.4899440
5308,West Ridgecrest Drive,99208,47.7514528,-117.4895594
5304,West Ridgecrest Drive,99208,47.7514401,-117.4892165
825,North Monroe Street,99201,47.6651631,-117.4269125
5411,West Russett Drive,99208,47.7518413,-117.4918220
5407,West Russett Drive,99208,47.7518414,-117.4914834
5403,West Russett Drive,99208,47.7518391,-117.4911084
5401,West Russett Drive,99208,47.7520171,-117.4907635
5311,West Russett Drive,99208,47.7525962,-117.4899072
5305,West Russett Drive,99208,47.7526755,-117.4895785
5323,West Newell Court,99208,47.7518249,-117.4904427
5321,West Newell Court,99208,47.7519169,-117.4900873
5319,West Newell Court,99208,47.7521380,-117.4899712
5315,West Newell Court,99208,47.7523321,-117.4902074
10407,North Arrowhead Drive,99208,47.7524262,-117.4893605
10403,North Arrowhead Drive,99208,47.7522144,-117.4893829
10311,North Arrowhead Drive,99208,47.7520076,-117.4893433
10307,North Arrowhead Drive,99208,47.7517454,-117.4893015
5330,West Russett Drive,99208,47.7523205,-117.4912655
5408,West Russett Drive,99208,47.7522689,-117.4916013
5412,West Russett Drive,99208,47.7522915,-117.4920050
5416,North Russett Drive,99208,47.7523301,-117.4922660
5312,West Russett Drive,99208,47.7528958,-117.4903359
5308,West Russett Drive,99208,47.7530475,-117.4899815
5304,West Russett Drive,99208,47.7530565,-117.4896570
10506,North Russett Drive,99208,47.7528345,-117.4930478
10510,North Russett Drive,99208,47.7530419,-117.4931389
10514,North Russett Drive,99208,47.7532987,-117.4930851
10518,North Russett Drive,99208,47.7535271,-117.4930205
5623,West Newbury Drive,99208,47.7537467,-117.4928271
5619,West Newbury Drive,99208,47.7538916,-117.4925875
5607,West Newbury Drive,99208,47.7540922,-117.4919818
5603,West Newbury Drive,99208,47.7541027,-117.4916003
5515,West Newbury Drive,99208,47.7541078,-117.4912601
5511,West Newbury Drive,99208,47.7541074,-117.4908727
5507,West Newbury Drive,99208,47.7541118,-117.4905227
5503,West Newbury Drive,99208,47.7541388,-117.4901603
5306,West Broken Arrow Court,99208,47.7538393,-117.4900323
5310,West Broken Arrow Court,99208,47.7537793,-117.4903586
5314,West Broken Arrow Court,99208,47.7537024,-117.4907202
5318,West Broken Arrow Court,99208,47.7537052,-117.4910763
5322,West Broken Arrow Court,99208,47.7535070,-117.4913461
5323,West Broken Arrow Court,99208,47.7532228,-117.4912703
5323,West Broken Arrow Court,99208,47.7532722,-117.4915180
5319,West Broken Arrow Court,99208,47.7531911,-117.4908338
5315,West Broken Arrow Court,99208,47.7532882,-117.4905041
5309,West Broken Arrow Court,99208,47.7533516,-117.4901826
5305,West Broken Arrow Court,99208,47.7534051,-117.4898131
5326,West Newell Court,99208,47.7525952,-117.4912396
5320,West Newell Court,99208,47.7527846,-117.4909780
5316,West Newell Court,99208,47.7526989,-117.4906411
5320,West Newell Court,99208,47.7528943,-117.4912731
10502,North Russett Drive,99208,47.7526312,-117.4928190
10415,North Stanton Court,99208,47.7528844,-117.4925258
10419,North Stanton Court,99208,47.7530842,-117.4924095
10425,North Stanton Court,99208,47.7531782,-117.4920170
10424,North Stanton Court,99208,47.7529974,-117.4917145
10420,North Stanton Court,99208,47.7527549,-117.4917600
10416,North Stanton Court,99208,47.7526171,-117.4920414
10606,North Windham Court,99208,47.7537767,-117.4917419
10602,North Windham Court,99208,47.7535591,-117.4920094
10605,North Windham Court,99208,47.7535479,-117.4924194
5228,West Alderwood Avenue,99208,47.7498990,-117.4880039
5220,West Alderwood Avenue,99208,47.7497597,-117.4872037
5216,West Alderwood Avenue,99208,47.7497083,-117.4868168
5216,West Alderwood Avenue,99208,47.7498342,-117.4869354
5212,West Alderwood Avenue,99208,47.7496808,-117.4864973
5208,West Alderwood Avenue,99208,47.7496814,-117.4861800
5224,West Alderwood Avenue,99208,47.7498534,-117.4876520
5121,West Ridgecrest Drive,99208,47.7497363,-117.4857455
5125,West Ridgecrest Drive,99208,47.7499840,-117.4858320
5129,West Ridgecrest Drive,99208,47.7502009,-117.4858901
5133,West Ridgecrest Drive,99208,47.7504356,-117.4860057
5137,West Ridgecrest Drive,99208,47.7506705,-117.4861911
5141,West Ridgecrest Drive,99208,47.7508261,-117.4864027
5211,West Ridgecrest Drive,99208,47.7509213,-117.4866521
5215,West Ridgecrest Drive,99208,47.7509882,-117.4869639
5219,West Ridgecrest Drive,99208,47.7510157,-117.4873133
5223,West Ridgecrest Drive,99208,47.7510361,-117.4876512
5227,West Ridgecrest Drive,99208,47.7510179,-117.4879816
5231,West Ridgecrest Drive,99208,47.7510116,-117.4883091
5227,West Orangewood Court,99208,47.7501846,-117.4880295
5223,West Orangewood Court,99208,47.7501978,-117.4876928
5219,West Orangewood Court,99208,47.7501800,-117.4873239
5215,West Orangewood Court,99208,47.7501001,-117.4869657
5211,West Orangewood Court,99208,47.7502920,-117.4865824
5210,West Orangewood Court,99208,47.7505680,-117.4866970
5216,West Orangewood Court,99208,47.7506180,-117.4871476
5220,West Orangewood Court,99208,47.7506253,-117.4875050
5224,West Orangewood Court,99208,47.7506109,-117.4878506
5228,West Orangewood Court,99208,47.7505958,-117.4881588
5208,West Navaho Avenue,99208,47.7485917,-117.4850426
5104,West Ridgecrest Drive,99208,47.7488489,-117.4851066
5108,West Ridgecrest Drive,99208,47.7490568,-117.4850819
5112,West Ridgecrest Drive,99208,47.7493621,-117.4850737
5116,West Ridgecrest Drive,99208,47.7495785,-117.4850608
5120,West Ridgecrest Drive,99208,47.7498052,-117.4851219
5124,West Ridgecrest Drive,99208,47.7500573,-117.4851945
5128,West Ridgecrest Drive,99208,47.7502827,-117.4852468
5132,West Ridgecrest Drive,99208,47.7505414,-117.4854158
5136,West Ridgecrest Drive,99208,47.7507381,-117.4855382
5140,West Ridgecrest Drive,99208,47.7509101,-117.4856797
5144,West Ridgecrest Drive,99208,47.7511723,-117.4860125
5208,West Ridgecrest Drive,99208,47.7512898,-117.4862866
5212,West Ridgecrest Drive,99208,47.7514113,-117.4866798
5216,West Ridgecrest Drive,99208,47.7514445,-117.4870467
5220,West Ridgecrest Drive,99208,47.7514180,-117.4873974
5224,West Ridgecrest Drive,99208,47.7514173,-117.4877747
5228,West Ridgecrest Drive,99208,47.7514308,-117.4881293
5232,West Ridgecrest Drive,99208,47.7514340,-117.4885043
9801,North Woodridge Drive,99208,47.7485842,-117.4845423
9807,North Woodridge Drive,99208,47.7488352,-117.4845067
9815,North Woodridge Drive,99208,47.7490488,-117.4844638
9907,North Woodridge Drive,99208,47.7492876,-117.4844279
9915,North Woodridge Drive,99208,47.7495264,-117.4844591
10007,North Woodridge Drive,99208,47.7497485,-117.4844751
10015,North Woodridge Drive,99208,47.7500232,-117.4845545
10107,North Woodridge Drive,99208,47.7502201,-117.4846286
10115,North Woodridge Drive,99208,47.7504737,-117.4847345
10121,North Woodridge Drive,99208,47.7507024,-117.4848501
10207,North Woodridge Drive,99208,47.7509445,-117.4850195
10215,North Woodridge Drive,99208,47.7511171,-117.4851781
10221,North Woodridge Drive,99208,47.7513594,-117.4853729
10227,North Woodridge Drive,99208,47.7514658,-117.4856979
10311,North Woodridge Drive,99208,47.7516666,-117.4860028
10315,North Woodridge Drive,99208,47.7517903,-117.4862813
10319,North Woodridge Drive,99208,47.7520610,-117.4865009
10323,North Woodridge Drive,99208,47.7522874,-117.4866313
10405,North Woodridge Drive,99208,47.7524792,-117.4868195
10409,North Woodridge Drive,99208,47.7526589,-117.4870277
5207,West Russett Drive,99208,47.7528291,-117.4873636
5211,West Russett Drive,99208,47.7527146,-117.4877416
5219,West Russett Drive,99208,47.7526509,-117.4881898
5225,West Russett Drive,99208,47.7526560,-117.4885088
5233,West Russett Drive,99208,47.7526613,-117.4888079
5234,West Edgewood Court,99208,47.7522622,-117.4887502
5228,West Edgewood Court,99208,47.7522726,-117.4884253
5218,West Edgewood Court,99208,47.7522807,-117.4880725
5218,West Edgewood Court,99208,47.7523494,-117.4877347
5208,West Edgewood Court,99208,47.7523574,-117.4873378
5204,West Edgewood Court,99208,47.7521159,-117.4871526
5204,West Edgewood Court,99208,47.7522671,-117.4870391
5203,West Edgewood Court,99208,47.7518943,-117.4873032
5211,West Edgewood Court,99208,47.7518458,-117.4876556
5217,West Edgewood Court,99208,47.7518300,-117.4879921
5227,West Edgewood Court,99208,47.7518389,-117.4883988
5233,West Edgewood Court,99208,47.7518247,-117.4886619
5608,West Bedford Avenue,99208,47.7553880,-117.4916520
5504,West Bedford Avenue,99208,47.7553703,-117.4903317
5502,West Bedford Avenue,99208,47.7553684,-117.4899860
10703,North Mystic Court,99208,47.7553976,-117.4912857
10707,North Mystic Court,99208,47.7556684,-117.4913697
10711,North Mystic Court,99208,47.7559436,-117.4913402
10715,North Mystic Court,99208,47.7560896,-117.4909521
10710,North Mystic Court,99208,47.7559540,-117.4906072
10710,North Mystic Court,99208,47.7556699,-117.4906367
5510,West Bedford Avenue,99208,47.7553824,-117.4906795
10705,North Arrowhead Drive,99208,47.7556769,-117.4900241
10711,North Arrowhead Drive,99208,47.7559005,-117.4900363
10715,North Arrowhead Drive,99208,47.7561233,-117.4899833
10725,North Arrowhead Drive,99208,47.7564017,-117.4900038
5505,West Brookfield Avenue,99208,47.7564090,-117.4903812
5509,West Brookfield Avenue,99208,47.7564189,-117.4907584
5511,West Brookfield Avenue,99208,47.7563717,-117.4911073
5510,West Brookfield Avenue,99208,47.7569015,-117.4908650
5506,West Brookfield Avenue,99208,47.7568705,-117.4905095
5504,West Brookfield Avenue,99208,47.7568928,-117.4901506
5224,West Russett Drive,99208,47.7530978,-117.4885280
5220,West Russett Drive,99208,47.7531142,-117.4881699
5212,West Russett Drive,99208,47.7531699,-117.4877604
10502,North Arrowhead Drive,99208,47.7530560,-117.4888821
10506,North Arrowhead Drive,99208,47.7533246,-117.4890936
10510,North Arrowhead Drive,99208,47.7535591,-117.4892062
10514,North Arrowhead Drive,99208,47.7537912,-117.4893388
5415,West Newbury Court,99208,47.7541064,-117.4894574
5403,West Newbury Court,99208,47.7541165,-117.4890501
5402,West Newbury Court,99208,47.7543566,-117.4888557
5408,West Newbury Court,99208,47.7545988,-117.4891253
5416,West Newbury Court,99208,47.7545990,-117.4894985
5417,West Bedford Avenue,99208,47.7549115,-117.4893742
5411,West Bedford Avenue,99208,47.7549406,-117.4890186
5409,West Bedford Avenue,99208,47.7549413,-117.4886877
10619,North Woodridge Drive,99208,47.7549483,-117.4883020
10615,North Woodridge Drive,99208,47.7546993,-117.4882870
10609,North Woodridge Drive,99208,47.7544774,-117.4883026
10605,North Woodridge Drive,99208,47.7542541,-117.4883200
10525,North Woodridge Drive,99208,47.7540204,-117.4882789
10521,North Woodridge Court,99208,47.7538596,-117.4886567
10517,North Woodridge Court,99208,47.7536136,-117.4886959
10513,North Woodridge Court,99208,47.7534295,-117.4884314
10509,North Woodridge Drive,99208,47.7534424,-117.4880376
5418,West Bedford Avenue,99208,47.7553836,-117.4893450
5412,West Bedford Avenue,99208,47.7554095,-117.4890168
5408,West Bedford Avenue,99208,47.7553820,-117.4886791
5404,West Bedford Avenue,99208,47.7553935,-117.4883326
5310,West Bedford Avenue,99208,47.7553654,-117.4879424
10706,North Arrowhead Drive,99208,47.7556770,-117.4893527
10710,North Arrowhead Drive,99208,47.7559034,-117.4893149
10716,North Arrowhead Drive,99208,47.7561224,-117.4893190
5417,West Brookfield Avenue,99208,47.7564039,-117.4893581
5415,West Brookfield Avenue,99208,47.7564063,-117.4890336
5409,West Brookfield Avenue,99208,47.7563966,-117.4886911
10727,North Portsmith Court,99208,47.7561016,-117.4888597
10723,North Portsmith Court,99208,47.7558201,-117.4887825
10720,North Portsmith Court,99208,47.7557230,-117.4883380
10724,North Portsmith Court,99208,47.7559275,-117.4880581
10728,North Portsmith Court,99208,47.7561950,-117.4880553
5311,West Brookfield Avenue,99208,47.7564389,-117.4880177
10711,North Danbury Street,99208,47.7554150,-117.4875834
10715,North Danbury Street,99208,47.7556794,-117.4875885
10805,North Danbury Street,99208,47.7559069,-117.4875785
10811,North Danbury Street,99208,47.7561489,-117.4875481
10817,North Danbury Street,99208,47.7563863,-117.4874722
5418,West Brookfield Avenue,99208,47.7568620,-117.4893697
5414,West Brookfield Avenue,99208,47.7568742,-117.4889993
5408,West Brookfield Avenue,99208,47.7568663,-117.4886635
5402,West Brookfield Avenue,99208,47.7568865,-117.4883398
5312,West Brookfield Avenue,99208,47.7568843,-117.4880200
5308,West Brookfield Avenue,99208,47.7568538,-117.4876461
5304,West Brookfield Avenue,99208,47.7568174,-117.4872846
5214,West Millbury Avenue,99208,47.7567650,-117.4869314
5210,West Millbury Avenue,99208,47.7568706,-117.4865584
5206,West Millbury Avenue,99208,47.7568910,-117.4861777
5204,West Millbury Avenue,99208,47.7568782,-117.4858263
5120,West Millbury Avenue,99208,47.7568214,-117.4854277
5120,West Millbury Avenue,99208,47.7566999,-117.4849957
5116,West Millbury Avenue,99208,47.7564537,-117.4846606
5100,West Millbury Avenue,99208,47.7562212,-117.4844731
5103,West Millbury Avenue,99208,47.7559218,-117.4847558
5107,West Millbury Avenue,99208,47.7559105,-117.4851330
5111,West Millbury Avenue,99208,47.7564299,-117.4854017
5205,West Millbury Avenue,99208,47.7564051,-117.4858407
5209,West Millbury Avenue,99208,47.7564419,-117.4863636
5204,West Brookfield Court,99208,47.7561212,-117.4858620
5205,West Brookfield Court,99208,47.7558782,-117.4860420
5209,West Brookfield Court,99208,47.7558483,-117.4864505
10812,North Danbury Street,99208,47.7561276,-117.4868743
10806,North Danbury Street,99208,47.7558559,-117.4869133
10712,North Danbury Street,99208,47.7556132,-117.4869580
5216,West Bedford Avenue,99208,47.7553786,-117.4869356
5212,West Bedford Avenue,99208,47.7554076,-117.4865379
5208,West Bedford Avenue,99208,47.7554912,-117.4861837
5204,West Bedford Avenue,99208,47.7555452,-117.4858305
5110,West Bedford Avenue,99208,47.7555607,-117.4854115
5106,West Bedford Avenue,99208,47.7553097,-117.4851167
5107,West Bedford Avenue,99208,47.7550670,-117.4853815
5203,West Bedford Avenue,99208,47.7550348,-117.4858420
5207,West Bedford Avenue,99208,47.7549817,-117.4861524
5211,West Bedford Avenue,99208,47.7549572,-117.4865200
5215,West Bedford Avenue,99208,47.7549378,-117.4868400
5219,West Bedford Avenue,99208,47.7549176,-117.4871654
5223,West Bedford Avenue,99208,47.7549360,-117.4875430
10616,North Essex Court,99208,47.7546806,-117.4876431
10614,North Essex Court,99208,47.7546066,-117.4872033
10610,North Essex Court,99208,47.7543178,-117.4871788
10606,North Essex Court,99208,47.7542054,-117.4875940
10516,North Woodridge Drive,99208,47.7539772,-117.4876079
10510,North Woodridge Drive,99208,47.7537105,-117.4874627
5130,West Russett Court,99208,47.7534615,-117.4872199
5124,West Russett Court,99208,47.7536611,-117.4869766
5118,West Russett Court,99208,47.7538622,-117.4867973
5112,West Russett Court,99208,47.7541098,-117.4866745
5108,West Russett Court,99208,47.7543630,-117.4866807
5104,West Russett Court,99208,47.7545990,-117.4864409
5103,West Russett Court,99208,47.7545712,-117.4860512
5103,West Russett Court,99208,47.7545006,-117.4858288
5107,West Russett Court,99208,47.7542656,-117.4859158
5111,West Russett Court,99208,47.7540332,-117.4860327
5115,West Russett Court,99208,47.7537661,-117.4861171
5119,West Russett Court,99208,47.7535740,-117.4863115
5123,West Russett Court,99208,47.7533815,-117.4865311
5129,West Russett Court,99208,47.7531636,-117.4868128
10412,North Woodridge Drive,99208,47.7529850,-117.4864300
10408,North Woodridge Drive,99208,47.7527698,-117.4862564
10404,North Woodridge Drive,99208,47.7525457,-117.4861006
10320,North Woodridge Drive,99208,47.7523515,-117.4859891
10310,North Woodridge Drive,99208,47.7521526,-117.4853186
10220,North Woodridge Drive,99208,47.7514474,-117.4848061
10214,North Woodridge Drive,99208,47.7512526,-117.4845761
9704,North Woodridge Drive,99208,47.7470847,-117.4846084
9728,North Woodridge Drive,99208,47.7481067,-117.4840802
9710,North Glendale Court,99208,47.7473704,-117.4844205
9710,North Glendale Court,99208,47.7472973,-117.4840912
9716,North Glendale Court,99208,47.7474783,-117.4837742
9720,North Glendale Court,99208,47.7477394,-117.4838209
9724,North Glendale Court,99208,47.7478253,-117.4842003
5010,West Alpine Drive,99208,47.7469504,-117.4842429
5010,West Alpine Drive,99208,47.7469311,-117.4839185
4910,West Alpine Drive,99208,47.7468701,-117.4826421
4906,West Alpine Drive,99208,47.7468552,-117.4822702
4902,West Alpine Drive,99208,47.7468351,-117.4818785
9803,North Hillsdale Court,99208,47.7469526,-117.4834127
9807,North Hillsdale Court,99208,47.7472128,-117.4833681
9810,North Hillsdale Court,99208,47.7473081,-117.4830494
9806,North Hillsdale Court,99208,47.7471587,-117.4827270
9807,North Farmdale Street,99208,47.7472123,-117.4818064
9811,North Farmdale Street,99208,47.7473075,-117.4821396
9811,North Farmdale Street,99208,47.7475703,-117.4822055
9819,North Farmdale Street,99208,47.7477112,-117.4818502
9903,North Farmdale Street,99208,47.7479743,-117.4820307
9921,North Farmdale Street,99208,47.7481732,-117.4821414
5015,West Navaho Avenue,99208,47.7482227,-117.4837012
5009,West Navaho Avenue,99208,47.7482131,-117.4833862
4905,West Navaho Avenue,99208,47.7484294,-117.4824032
4929,West Londale Court,99208,47.7479255,-117.4833282
4929,West Londale Court,99208,47.7476860,-117.4830946
4921,West Londale Court,99208,47.7477502,-117.4826804
4915,West Londale Court,99208,47.7480394,-117.4826456
4911,West Londale Court,99208,47.7482785,-117.4828118
4930,West Fernwood Court,99208,47.7487381,-117.4829793
4926,West Fernwood Court,99208,47.7489518,-117.4831724
4922,West Fernwood Court,99208,47.7492106,-117.4832347
4918,West Fernwood Court,99208,47.7494344,-117.4830017
4914,West Fernwood Court,99208,47.7493949,-117.4825664
4910,West Fernwood Court,99208,47.7490912,-117.4824591
4906,West Fernwood Court,99208,47.7488873,-117.4823761
5008,West Navaho Avenue,99208,47.7486344,-117.4834322
4820,West Navaho Avenue,99208,47.7490164,-117.4819202
9802,North Woodridge Drive,99208,47.7486384,-117.4839505
9808,North Woodridge Drive,99208,47.7488613,-117.4838702
9816,North Woodridge Drive,99208,47.7491361,-117.4838595
9908,North Woodridge Drive,99208,47.7493596,-117.4838508
9916,North Woodridge Drive,99208,47.7495638,-117.4838433
9920,North Woodridge Drive,99208,47.7497345,-117.4833845
9924,North Woodridge Drive,99208,47.7499688,-117.4834515
10014,North Woodridge Drive,99208,47.7500680,-117.4839009
10108,North Woodridge Drive,99208,47.7502883,-117.4840561
10116,North Woodridge Drive,99208,47.7505250,-117.4841369
10005,North Larchwood Street,99208,47.7491775,-117.4815176
10011,North Larchwood Street,99208,47.7493865,-117.4817824
10017,North Larchwood Street,99208,47.7495651,-117.4820340
10023,North Larchwood Street,99208,47.7497182,-117.4823052
10105,North Larchwood Street,99208,47.7499205,-117.4825754
10111,North Larchwood Street,99208,47.7501101,-117.4828853
10117,North Larchwood Street,99208,47.7502925,-117.4831143
10123,North Larchwood Street,99208,47.7504830,-117.4833737
10129,North Larchwood Street,99208,47.7506568,-117.4836962
9610,North Farmdale Street,99208,47.7451003,-117.4813827
9614,North Farmdale Street,99208,47.7453287,-117.4813478
9620,North Farmdale Street,99208,47.7455452,-117.4813361
4806,West Shawnee Avenue,99208,47.7450688,-117.4809113
4802,West Shawnee Avenue,99208,47.7450697,-117.4805532
9609,North Sylvia Court,99208,47.7451025,-117.4800315
9615,North Sylvia Court,99208,47.7453413,-117.4800293
9623,North Sylvia Court,99208,47.7456138,-117.4800488
9629,North Sylvia Court,99208,47.7457982,-117.4800562
9633,North Sylvia Court,99208,47.7461045,-117.4801490
9638,North Sylvia Court,99208,47.7462125,-117.4797604
9628,North Sylvia Court,99208,47.7457922,-117.4794217
9622,North Sylvia Court,99208,47.7455955,-117.4794425
9616,North Sylvia Court,99208,47.7453247,-117.4794466
9610,North Sylvia Court,99208,47.7450956,-117.4794689
9609,North Seminole Drive,99208,47.7451441,-117.4788158
9615,North Seminole Drive,99208,47.7453844,-117.4788246
9621,North Seminole Drive,99208,47.7456059,-117.4787922
9709,North Seminole Drive,99208,47.7458328,-117.4788037
9715,North Seminole Drive,99208,47.7460999,-117.4787905
4605,West Elderberry Avenue,99208,47.7463898,-117.4788368
4607,West Elderberry Avenue,99208,47.7464727,-117.4793069
4611,West Elderberry Avenue,99208,47.7465494,-117.4796245
4801,West Alpine Drive,99208,47.7466383,-117.4799980
4805,West Alpine Drive,99208,47.7464916,-117.4804375
4809,West Alpine Drive,99208,47.7464126,-117.4808955
4815,West Alpine Drive,99208,47.7463972,-117.4812375
9710,North Farmdale Court,99208,47.7460271,-117.4812418
9708,North Farmdale Court,99208,47.7460286,-117.4808464
9704,North Farmdale Court,99208,47.7457681,-117.4806626
9626,North Farmdale Court,99208,47.7455429,-117.4808542
9802,North Farmdale Street,99208,47.7468408,-117.4812095
9806,North Farmdale Street,99208,47.7470524,-117.4811944
9810,North Farmdale Street,99208,47.7473026,-117.4811599
9816,North Farmdale Street,99208,47.7475482,-117.4812002
9920,North Farmdale Street,99208,47.7482855,-117.4815638
9930,North Farmdale Street,99208,47.7484895,-117.4817322
4807,West Woodgrove Court,99208,47.7475790,-117.4807244
4803,West Woodgrove Court,99208,47.7478344,-117.4805111
4802,West Woodgrove Court,99208,47.7480705,-117.4806269
4806,West Woodgrove Court,99208,47.7481666,-117.4810133
4810,West Woodgrove Court,99208,47.7480035,-117.4813348
4806,West Alpine Drive,99208,47.7468519,-117.4806676
4802,West Alpine Drive,99208,47.7469949,-117.4803756
4714,West Alpine Drive,99208,47.7471769,-117.4801428
4714,West Alpine Drive,99208,47.7472802,-117.4804474
4710,West Alpine Drive,99208,47.7474434,-117.4799872
4704,West Alpine Drive,99208,47.7476992,-117.4799827
4618,West Alpine Drive,99208,47.7479939,-117.4798593
4614,West Alpine Drive,99208,47.7482900,-117.4801574
4610,West Alpine Drive,99208,47.7485236,-117.4799072
4606,West Alpine Drive,99208,47.7484462,-117.4794104
10012,West Larchwood Court,99208,47.7495579,-117.4812338
10018,North Larchwood Street,99208,47.7497632,-117.4814535
10024,North Larchwood Street,99208,47.7499562,-117.4817659
10106,North Larchwood Street,99208,47.7501106,-117.4820534
10112,North Larchwood Street,99208,47.7502758,-117.4822511
10118,North Larchwood Street,99208,47.7504458,-117.4824977
10124,North Larchwood Street,99208,47.7506325,-117.4827939
10130,North Larchwood Street,99208,47.7508416,-117.4830449
10003,North Fleetwood Street,99208,47.7486586,-117.4789693
10007,North Fleetwood Street,99208,47.7488488,-117.4792569
10011,North Fleetwood Street,99208,47.7489832,-117.4795146
10015,North Fleetwood Street,99208,47.7491772,-117.4797926
10019,North Fleetwood Street,99208,47.7493894,-117.4800480
4709,West Larchwood Court,99208,47.7491403,-117.4804440
4715,West Larchwood Court,99208,47.7489029,-117.4801550
4719,West Larchwood Court,99208,47.7486858,-117.4803884
4725,West Larchwood Court,99208,47.7486441,-117.4807935
4809,West Larchwood Court,99208,47.7488508,-117.4810688
4817,West Navaho Avenue,99208,47.7487163,-117.4814353
4710,West Navaho Avenue,99208,47.7494437,-117.4808569
10103,North Fleetwood Street,99208,47.7497141,-117.4805321
10109,North Fleetwood Street,99208,47.7498844,-117.4808062
10115,North Fleetwood Street,99208,47.7500436,-117.4810374
10121,North Fleetwood Street,99208,47.7502398,-117.4813405
10127,North Fleetwood Street,99208,47.7503948,-117.4815894
10133,North Fleetwood Street,99208,47.7505755,-117.4818431
10139,North Fleetwood Street,99208,47.7507928,-117.4821462
10145,North Fleetwood Street,99208,47.7509635,-117.4824100
10230,North Seminole Drive,99208,47.7509730,-117.4843240
10226,North Seminole Drive,99208,47.7510726,-117.4839857
10222,North Seminole Drive,99208,47.7511297,-117.4835892
10216,North Seminole Drive,99208,47.7512257,-117.4831757
9610,North Seminole Drive,99208,47.7451115,-117.4781858
9716,North Seminole Drive,99208,47.7461498,-117.4781574
9616,North Kiowa Court,99208,47.7455071,-117.4781831
9620,North Kiowa Court,99208,47.7455033,-117.4779103
9624,North Kiowa Court,99208,47.7455357,-117.4774872
9626,North Kiowa Court,99208,47.7457359,-117.4771913
9628,North Kiowa Court,99208,47.7459686,-117.4773271
9630,North Kiowa Court,99208,47.7459907,-117.4776868
9710,North Seminole Drive,99208,47.7459398,-117.4780987
4610,West Shawnee Avenue,99208,47.7450879,-117.4778715
4528,West Shawnee Avenue,99208,47.7451483,-117.4774980
4520,West Shawnee Avenue,99208,47.7452803,-117.4771829
4510,West Shawnee Avenue,99208,47.7454206,-117.4769141
4504,West Shawnee Avenue,99208,47.7455515,-117.4766296
4426,West Shawnee Avenue,99208,47.7456996,-117.4763727
4420,West Shawnee Avenue,99208,47.7458213,-117.4760598
4414,West Shawnee Avenue,99208,47.7459479,-117.4757941
4408,West Shawnee Avenue,99208,47.7460773,-117.4755638
4404,West Shawnee Avenue,99208,47.7461671,-117.4751740
4402,West Shawnee Avenue,99208,47.7461484,-117.4748077
4310,West Shawnee Avenue,99208,47.7461206,-117.4744228
4304,West Shawnee Avenue,99208,47.7461204,-117.4739973
4612,West Elderberry Avenue,99208,47.7470318,-117.4795521
4612,West Elderberry Avenue,99208,47.7468472,-117.4792096
9805,North Seminole Drive,99208,47.7471417,-117.4787471
9809,North Seminole Drive,99208,47.7473630,-117.4786549
9823,North Seminole Drive,99208,47.7477557,-117.4777167
9827,North Seminole Drive,99208,47.7477642,-117.4773676
9909,North Seminole Drive,99208,47.7478482,-117.4770372
9919,North Seminole Drive,99208,47.7480597,-117.4768375
9929,North Seminole Drive,99208,47.7483098,-117.4768521
9811,North Ute Court,99208,47.7475966,-117.4788164
9815,North Ute Court,99208,47.7477998,-117.4786522
9817,North Ute Court,99208,47.7478497,-117.4782680
9819,North Ute Court,99208,47.7476350,-117.4780634
4709,West Alpine Drive,99208,47.7473404,-117.4794392
4705,West Alpine Drive,99208,47.7475509,-117.4794153
4701,West Alpine Drive,99208,47.7477891,-117.4793529
4611,West Alpine Drive,99208,47.7480066,-117.4791669
4607,West Alpine Drive,99208,47.7481820,-117.4788482
4519,West Alpine Drive,99208,47.7482070,-117.4784718
4515,West Alpine Drive,99208,47.7482440,-117.4781109
4509,West Alpine Drive,99208,47.7482473,-117.4776844
4505,West Alpine Drive,99208,47.7482676,-117.4773128
10002,North Fleetwood Street,99208,47.7487174,-117.4783537
10006,North Fleetwood Street,99208,47.7490272,-117.4787334
10010,North Fleetwood Street,99208,47.7491877,-117.4789165
10014,North Fleetwood Street,99208,47.7494805,-117.4793316
4510,West Alpine Drive,99208,47.7486546,-117.4778745
10017,North Seminole Drive,99208,47.7487657,-117.4773963
10025,North Seminole Drive,99208,47.7489875,-117.4777495
10031,North Seminole Drive,99208,47.7491828,-117.4780607
10037,North Seminole Drive,99208,47.7493531,-117.4783011
10043,North Seminole Drive,99208,47.7495834,-117.4786060
10049,North Seminole Drive,99208,47.7497685,-117.4788817
4505,West Navaho Avenue,99208,47.7499511,-117.4792454
4509,West Navaho Avenue,99208,47.7497462,-117.4795409
10102,North Fleetwood Street,99208,47.7499946,-117.4800803
10108,North Fleetwood Street,99208,47.7501934,-117.4803905
10114,North Fleetwood Street,99208,47.7503713,-117.4806732
10120,North Fleetwood Street,99208,47.7506254,-117.4810139
10126,North Fleetwood Street,99208,47.7507562,-117.4812737
10103,North Seminole Drive,99208,47.7503020,-117.4797174
10109,North Seminole Drive,99208,47.7504824,-117.4799771
10115,North Seminole Drive,99208,47.7506551,-117.4802126
10121,North Seminole Drive,99208,47.7508447,-117.4805058
10127,North Seminole Drive,99208,47.7509930,-117.4808593
10133,North Seminole Drive,99208,47.7510956,-117.4812670
10139,North Seminole Drive,99208,47.7511269,-117.4816227
4527,West Elderberry Avenue,99208,47.7463784,-117.4780873
4517,West Elderberry Avenue,99208,47.7463906,-117.4776402
4507,West Elderberry Avenue,99208,47.7463942,-117.4773203
4419,West Elderberry Avenue,99208,47.7463981,-117.4769878
4409,West Elderberry Avenue,99208,47.7462541,-117.4767570
4405,West Elderberry Avenue,99208,47.7461100,-117.4764680
4401,West Elderberry Avenue,99208,47.7462283,-117.4761917
4402,West Elderberry Avenue,99208,47.7464573,-117.4760267
4408,West Elderberry Avenue,99208,47.7466059,-117.4762899
4414,West Elderberry Avenue,99208,47.7467291,-117.4765770
4420,West Elderberry Avenue,99208,47.7467898,-117.4768446
4506,West Elderberry Avenue,99208,47.7468457,-117.4771450
4512,West Elderberry Avenue,99208,47.7468265,-117.4775045
4518,West Elderberry Avenue,99208,47.7467798,-117.4778332
9802,North Seminole Drive,99208,47.7467999,-117.4781666
9806,North Seminole Drive,99208,47.7471609,-117.4781085
9816,North Seminole Drive,99208,47.7472566,-117.4777535
9822,North Seminole Drive,99208,47.7473056,-117.4774206
9828,North Seminole Drive,99208,47.7473304,-117.4770669
9908,North Seminole Drive,99208,47.7474677,-117.4767322
9914,North Seminole Drive,99208,47.7476390,-117.4764404
9920,North Seminole Drive,99208,47.7478534,-117.4762938
9924,North Seminole Drive,99208,47.7480986,-117.4761576
9928,North Seminole Drive,99208,47.7483500,-117.4762282
9932,North Seminole Drive,99208,47.7486534,-117.4763793
10012,North Seminole Drive,99208,47.7488144,-117.4766283
10018,North Seminole Drive,99208,47.7490607,-117.4770021
10024,North Seminole Drive,99208,47.7492722,-117.4772390
10030,North Seminole Drive,99208,47.7494475,-117.4774944
10036,North Seminole Drive,99208,47.7496750,-117.4778596
10042,North Seminole Drive,99208,47.7498914,-117.4781816
10048,North Seminole Drive,99208,47.7500914,-117.4784940
10054,North Seminole Drive,99208,47.7503047,-117.4787754
10102,North Seminole Drive,99208,47.7505393,-117.4791682
10108,North Seminole Drive,99208,47.7507147,-117.4794784
10114,North Seminole Drive,99208,47.7508987,-117.4797401
10120,North Seminole Drive,99208,47.7511633,-117.4800838
10126,North Seminole Drive,99208,47.7513275,-117.4804622
10132,North Seminole Drive,99208,47.7514354,-117.4807895
10138,North Seminole Drive,99208,47.7515500,-117.4812347
10144,North Seminole Drive,99208,47.7515427,-117.4816503
10150,North Seminole Drive,99208,47.7515734,-117.4821917
10211,North Fleetwood Street,99208,47.7514303,-117.4828462
5009,West Howesdale Drive,99208,47.7517527,-117.4836924
5015,West Howesdale Drive,99208,47.7520030,-117.4841711
5021,West Howesdale Drive,99208,47.7522800,-117.4844280
5025,West Howesdale Drive,99208,47.7525572,-117.4845073
5107,West Howesdale Drive,99208,47.7528768,-117.4846726
5111,West Howesdale Drive,99208,47.7531400,-117.4848889
5115,West Howesdale Drive,99208,47.7533893,-117.4851829
5119,West Howesdale Drive,99208,47.7536536,-117.4850597
5112,West Howesdale Drive,99208,47.7534045,-117.4844196
5108,West Howesdale Drive,99208,47.7530540,-117.4841488
4915,West Howesdale Drive,99208,47.7518984,-117.4824033
4909,West Howesdale Drive,99208,47.7519064,-117.4820106
4903,West Howesdale Drive,99208,47.7519151,-117.4815306
4809,West Howesdale Drive,99208,47.7518977,-117.4810964
4803,West Howesdale Drive,99208,47.7518490,-117.4806942
4802,West Howesdale Drive,99208,47.7523324,-117.4808010
4806,West Howesdale Drive,99208,47.7523786,-117.4812388
4902,West Howesdale Drive,99208,47.7524078,-117.4816583
4908,West Howesdale Drive,99208,47.7523876,-117.4820720
4914,West Howesdale Drive,99208,47.7523551,-117.4825211
10303,North Fleetwood Street,99208,47.7525294,-117.4836913
10303,North Fleetwood Street,99208,47.7528207,-117.4835909
10302,North Fleetwood Street,99208,47.7523819,-117.4829816
10306,North Fleetwood Street,99208,47.7526825,-117.4829801
10310,North Fleetwood Street,99208,47.7530598,-117.4824904
10503,North Fleetwood Court,99208,47.7533948,-117.4831583
10507,North Fleetwood Court,99208,47.7536561,-117.4832881
5120,West Howesdale Drive,99208,47.7541457,-117.4850516
10603,North Fleetwood Court,99208,47.7543821,-117.4834482
10607,North Fleetwood Court,99208,47.7546568,-117.4834724
10611,North Fleetwood Court,99208,47.7549394,-117.4834915
10703,North Fleetwood Court,99208,47.7552319,-117.4835427
10707,North Fleetwood Court,99208,47.7555426,-117.4834546
10711,North Fleetwood Court,99208,47.7558338,-117.4833963
10803,North Fleetwood Court,99208,47.7561378,-117.4833158
10807,North Fleetwood Court,99208,47.7564441,-117.4832184
10811,North Fleetwood Court,99208,47.7567462,-117.4829724
10812,North Fleetwood Court,99208,47.7567544,-117.4824751
10505,North Skyline Drive,99208,47.7536393,-117.4818268
10509,North Skyline Drive,99208,47.7538749,-117.4819238
10515,North Skyline Drive,99208,47.7541490,-117.4820162
10601,North Skyline Drive,99208,47.7543972,-117.4821432
10605,North Skyline Drive,99208,47.7546434,-117.4821922
10609,North Skyline Drive,99208,47.7548817,-117.4822872
10615,North Skyline Drive,99208,47.7551505,-117.4823617
10701,North Skyline Drive,99208,47.7554603,-117.4823703
10717,North Skyline Drive,99208,47.7557933,-117.4822752
10721,North Skyline Drive,99208,47.7560434,-117.4820987
10805,North Skyline Drive,99208,47.7563147,-117.4818121
10809,North Skyline Drive,99208,47.7565215,-117.4814697
10815,North Skyline Drive,99208,47.7566685,-117.4810277
10819,North Skyline Drive,99208,47.7566912,-117.4806775
10801,North Navaho Drive,99208,47.7561001,-117.4807679
10801,North Navaho Drive,99208,47.7559923,-117.4811521
10709,North Navaho Drive,99208,47.7556966,-117.4814585
10705,North Navaho Drive,99208,47.7554142,-117.4814707
10613,North Navaho Drive,99208,47.7551637,-117.4814494
10607,North Navaho Drive,99208,47.7548929,-117.4814170
10509,North Navaho Drive,99208,47.7543804,-117.4810911
10505,North Navaho Drive,99208,47.7541375,-117.4808231
10505,North Navaho Drive,99208,47.7538820,-117.4803959
10407,North Navaho Drive,99208,47.7536216,-117.4798639
10403,North Navaho Drive,99208,47.7534530,-117.4795997
10321,North Navaho Drive,99208,47.7532592,-117.4793493
10317,North Navaho Drive,99208,47.7530225,-117.4791147
10313,North Navaho Drive,99208,47.7528041,-117.4788367
10309,North Navaho Drive,99208,47.7525632,-117.4786231
10305,North Navaho Drive,99208,47.7523042,-117.4783006
10301,North Navaho Drive,99208,47.7521885,-117.4778745
10229,North Navaho Drive,99208,47.7520749,-117.4775343
10225,North Navaho Drive,99208,47.7519272,-117.4771928
10221,North Navaho Drive,99208,47.7517972,-117.4768821
10217,North Navaho Drive,99208,47.7516425,-117.4765455
10213,North Navaho Drive,99208,47.7514546,-117.4762065
10209,North Navaho Drive,99208,47.7512901,-117.4758961
10205,North Navaho Drive,99208,47.7511278,-117.4755918
10335,North Prairie Drive,99208,47.7531175,-117.4819861
10331,North Prairie Drive,99208,47.7530744,-117.4813214
10327,North Prairie Drive,99208,47.7530735,-117.4806783
10323,North Prairie Drive,99208,47.7528662,-117.4801617
10319,North Prairie Drive,99208,47.7526592,-117.4798691
10315,North Prairie Drive,99208,47.7523838,-117.4795827
10311,North Prairie Drive,99208,47.7520880,-117.4792956
10307,North Prairie Drive,99208,47.7518176,-117.4789432
10303,North Prairie Drive,99208,47.7516765,-117.4785170
10227,North Prairie Drive,99208,47.7515523,-117.4780609
10223,North Prairie Drive,99208,47.7514363,-117.4776655
10219,North Prairie Drive,99208,47.7512994,-117.4772737
10215,North Prairie Drive,99208,47.7510763,-117.4769121
10211,North Prairie Drive,99208,47.7509278,-117.4765618
10207,North Prairie Drive,99208,47.7507347,-117.4762122
10203,North Prairie Drive,99208,47.7505394,-117.4759094
10111,North Wieber Drive,99208,47.7501899,-117.4758170
10107,North Wieber Drive,99208,47.7499048,-117.4757542
10103,North Wieber Drive,99208,47.7495734,-117.4756052
9921,North Wieber Drive,99208,47.7484214,-117.4754260
9915,North Wieber Drive,99208,47.7481195,-117.4755258
9909,North Wieber Drive,99208,47.7478586,-117.4756064
9903,North Wieber Drive,99208,47.7475654,-117.4756857
9821,North Wieber Drive,99208,47.7473048,-117.4757275
9817,North Wieber Drive,99208,47.7470389,-117.4756045
9811,North Wieber Drive,99208,47.7468749,-117.4751109
9803,North Wieber Drive,99208,47.7467231,-117.4747437
9715,North Wieber Drive,99208,47.7464201,-117.4739776
9916,North Wieber Drive,99208,47.7481732,-117.4748986
9910,North Wieber Drive,99208,47.7479254,-117.4749614
9904,North Wieber Drive,99208,47.7476956,-117.4750293
9818,North Wieber Drive,99208,47.7473468,-117.4749604
9808,North Wieber Drive,99208,47.7470487,-117.4742650
9720,North Wieber Drive,99208,47.7468663,-117.4739073
9716,North Wieber Drive,99208,47.7467347,-117.4735794
9708,North Wieber Drive,99208,47.7466209,-117.4731771
9616,North Wieber Drive,99208,47.7456364,-117.4726314
9610,North Wieber Drive,99208,47.7453214,-117.4728058
9534,North Wieber Drive,99208,47.7450284,-117.4727579
9528,North Wieber Drive,99208,47.7447918,-117.4731370
9522,North Wieber Drive,99208,47.7445618,-117.4732956
9430,North Wieber Drive,99208,47.7443064,-117.4735633
9430,North Wieber Drive,99208,47.7443459,-117.4734178
9422,North Wieber Drive,99208,47.7441928,-117.4738664
9416,North Wieber Drive,99208,47.7438736,-117.4738463
9403,North Wieber Drive,99208,47.7434627,-117.4748900
9409,North Wieber Drive,99208,47.7438124,-117.4748475
9415,North Wieber Drive,99208,47.7440396,-117.4748134
9421,North Wieber Drive,99208,47.7443170,-117.4746747
9515,North Wieber Drive,99208,47.7445801,-117.4743543
9521,North Wieber Drive,99208,47.7447204,-117.4740827
9527,North Wieber Drive,99208,47.7448677,-117.4738126
9533,North Wieber Drive,99208,47.7450743,-117.4735880
9609,North Wieber Drive,99208,47.7452918,-117.4734289
9615,North Wieber Drive,99208,47.7455392,-117.4734197
9618,North Loganberry Court,99208,47.7457268,-117.4739551
9612,North Loganberry Court,99208,47.7454819,-117.4739744
9608,North Loganberry Court,99208,47.7452312,-117.4741942
9604,North Loganberry Court,99208,47.7450181,-117.4744409
9522,North Loganberry Court,99208,47.7449089,-117.4747389
9516,North Loganberry Court,99208,47.7447642,-117.4750544
9510,North Loganberry Court,99208,47.7446006,-117.4752959
9503,North Loganberry Court,99208,47.7445842,-117.4761192
9509,North Loganberry Court,99208,47.7448249,-117.4758920
9515,North Loganberry Court,99208,47.7449704,-117.4755789
9521,North Loganberry Court,99208,47.7451498,-117.4753291
9603,North Loganberry Court,99208,47.7452928,-117.4749637
9609,North Loganberry Court,99208,47.7454731,-117.4747293
4301,West Shawnee Avenue,99208,47.7457966,-117.4734900
4403,West Shawnee Avenue,99208,47.7457582,-117.4746270
4409,West Shawnee Avenue,99208,47.7457039,-117.4750650
4415,West Shawnee Avenue,99208,47.7456009,-117.4754818
4421,West Shawnee Avenue,99208,47.7454683,-117.4757331
4427,West Shawnee Avenue,99208,47.7453120,-117.4760226
4509,West Shawnee Avenue,99208,47.7451552,-117.4762973
4515,West Shawnee Avenue,99208,47.7450323,-117.4765608
4521,West Shawnee Avenue,99208,47.7448678,-117.4768447
4527,West Shawnee Avenue,99208,47.7447340,-117.4772094
4609,West Shawnee Avenue,99208,47.7446759,-117.4776059
4615,West Shawnee Avenue,99208,47.7446929,-117.4779253
4621,West Shawnee Avenue,99208,47.7446819,-117.4782746
4627,West Shawnee Avenue,99208,47.7446629,-117.4785982
4633,West Shawnee Avenue,99208,47.7446609,-117.4789696
4637,West Shawnee Avenue,99208,47.7446791,-117.4793399
4703,West Shawnee Avenue,99208,47.7446935,-117.4796665
4707,West Shawnee Avenue,99208,47.7446676,-117.4799671
4711,West Shawnee Avenue,99208,47.7446943,-117.4803624
4803,West Shawnee Avenue,99208,47.7446665,-117.4807143
4807,West Shawnee Avenue,99208,47.7446810,-117.4810665
4811,West Shawnee Avenue,99208,47.7446930,-117.4813944
4909,West Shawnee Avenue,99208,47.7446650,-117.4820334
4929,West Shawnee Avenue,99208,47.7447442,-117.4824531
5101,West Shawnee Avenue,99208,47.7447014,-117.4851728
5101,West Shawnee Avenue,99208,47.7446987,-117.4855114
6002,West Melrose Lane,99208,47.7442781,-117.4970658
6006,West Melrose Lane,99208,47.7442546,-117.4973221
6010,West Melrose Lane,99208,47.7442479,-117.4975978
6014,West Melrose Lane,99208,47.7442939,-117.4978526
6018,West Melrose Lane,99208,47.7443083,-117.4980975
6003,West Melrose Lane,99208,47.7438842,-117.4971109
6007,West Melrose Lane,99208,47.7438772,-117.4973634
6011,West Melrose Lane,99208,47.7439145,-117.4975769
6015,West Melrose Lane,99208,47.7438958,-117.4978140
6017,West Melrose Lane,99208,47.7438570,-117.4980471
9119,North Sundance Drive,99208,47.7416374,-117.4977759
9115,North Sundance Drive,99208,47.7414715,-117.4977511
9111,North Sundance Drive,99208,47.7412998,-117.4977751
9107,North Sundance Drive,99208,47.7411319,-117.4978225
9103,North Sundance Drive,99208,47.7409634,-117.4978622
9023,North Sundance Drive,99208,47.7408080,-117.4979335
9019,North Sundance Drive,99208,47.7406285,-117.4979841
9015,North Sundance Drive,99208,47.7404626,-117.4980269
9011,North Sundance Drive,99208,47.7402817,-117.4979784
9007,North Sundance Drive,99208,47.7401317,-117.4979886
9003,North Sundance Drive,99208,47.7399634,-117.4979815
9407,North Rosebury Lane,99208,47.7443690,-117.4986228
9335,North Rosebury Lane,99208,47.7439107,-117.4986244
9331,North Rosebury Lane,99208,47.7437670,-117.4986255
9327,North Rosebury Lane,99208,47.7436118,-117.4986028
9323,North Rosebury Lane,99208,47.7434473,-117.4986414
9319,North Rosebury Lane,99208,47.7432796,-117.4986696
9305,North Rosebury Lane,99208,47.7429861,-117.4987626
9223,North Rosebury Lane,99208,47.7428541,-117.4988405
9219,North Rosebury Lane,99208,47.7427154,-117.4988576
9215,North Rosebury Lane,99208,47.7425259,-117.4989340
9211,North Rosebury Lane,99208,47.7423877,-117.4989920
9219,North Rosebury Lane,99208,47.7422529,-117.4990184
9302,North Sundance Drive,99208,47.7428306,-117.4968532
9222,North Sundance Drive,99208,47.7426600,-117.4969651
9218,North Sundance Drive,99208,47.7424963,-117.4970873
9214,North Sundance Drive,99208,47.7423325,-117.4971321
9210,North Sundance Drive,99208,47.7421673,-117.4971032
9206,North Sundance Drive,99208,47.7420084,-117.4971424
9202,North Sundance Drive,99208,47.7418655,-117.4970715
9118,North Sundance Drive,99208,47.7417263,-117.4971518
9114,North Sundance Drive,99208,47.7415888,-117.4971270
9102,North Sundance Drive,99208,47.7414301,-117.4971388
9022,North Sundance Drive,99208,47.7406486,-117.4969801
9020,North Sundance Drive,99208,47.7405508,-117.4969851
9016,North Sundance Drive,99208,47.7403440,-117.4969800
9014,North Sundance Drive,99208,47.7402390,-117.4969881
9010,North Sundance Drive,99208,47.7401005,-117.4969883
9008,North Sundance Drive,99208,47.7400035,-117.4970236
9004,North Sundance Drive,99208,47.7398660,-117.4970369
9002,North Sundance Drive,99208,47.7397691,-117.4970686
6102,West Juniper Lane,99208,47.7397028,-117.4978670
6106,West Juniper Lane,99208,47.7396901,-117.4981672
6110,West Juniper Lane,99208,47.7396825,-117.4984472
9408,North Linden Lane,99208,47.7443348,-117.4993557
9404,North Linden Lane,99208,47.7441853,-117.4993604
9386,North Linden Lane,99208,47.7439282,-117.4992742
9374,North Linden Lane,99208,47.7437589,-117.4993611
9360,North Linden Lane,99208,47.7435939,-117.4993530
9346,North Linden Lane,99208,47.7434219,-117.4993033
9334,North Linden Lane,99208,47.7432570,-117.4993279
9282,North Linden Lane,99208,47.7426780,-117.4993569
9375,North Linden Lane,99208,47.7441429,-117.4999547
9391,North Linden Lane,99208,47.7439523,-117.4999167
9359,North Linden Lane,99208,47.7435690,-117.4999353
9343,North Linden Lane,99208,47.7433780,-117.4999526
9327,North Linden Lane,99208,47.7431880,-117.5000336
9313,North Linden Lane,99208,47.7429798,-117.5000224
9267,North Linden Lane,99208,47.7424186,-117.4999141
9239,North Linden Lane,99208,47.7420739,-117.4997970
9239,North Linden Lane,99208,47.7419207,-117.4996477
9330,North Rosebury Lane,99208,47.7436145,-117.4980078
9326,North Rosebury Lane,99208,47.7434679,-117.4979598
9322,North Rosebury Lane,99208,47.7433057,-117.4980230
9318,North Rosebury Lane,99208,47.7431543,-117.4980586
9310,North Rosebury Lane,99208,47.7430162,-117.4981292
9304,North Rosebury Lane,99208,47.7428775,-117.4982081
9224,North Rosebury Lane,99208,47.7427445,-117.4981982
9220,North Rosebury Lane,99208,47.7426085,-117.4982785
9216,North Rosebury Lane,99208,47.7424271,-117.4983871
9214,North Rosebury Lane,99208,47.7422815,-117.4984025
9210,North Rosebury Lane,99208,47.7421582,-117.4985308
9206,North Rosebury Lane,99208,47.7420286,-117.4986052
9202,North Rosebury Lane,99208,47.7418945,-117.4986361
9124,North Rosebury Lane,99208,47.7417545,-117.4986852
9122,North Rosebury Lane,99208,47.7416151,-117.4986548
9114,North Rosebury Lane,99208,47.7413373,-117.4987513
9110,North Rosebury Lane,99208,47.7411857,-117.4988640
9002,North Rosebury Lane,99208,47.7398290,-117.4996479
9006,North Rosebury Lane,99208,47.7400138,-117.4995513
9010,North Rosebury Lane,99208,47.7401702,-117.4993712
9014,North Rosebury Lane,99208,47.7403217,-117.4992474
9018,North Rosebury Lane,99208,47.7405102,-117.4990444
9022,North Rosebury Lane,99208,47.7406753,-117.4989658
9102,North Rosebury Lane,99208,47.7408480,-117.4989512
9106,North Rosebury Lane,99208,47.7410290,-117.4988839
9125,North Rosebury Lane,99208,47.7417896,-117.4995790
9119,North Rosebury Lane,99208,47.7416692,-117.4995704
9111,North Rosebury Lane,99208,47.7413723,-117.4993842
9107,North Rosebury Lane,99208,47.7412047,-117.4994325
9103,North Rosebury Lane,99208,47.7410190,-117.4995317
9017,North Rosebury Lane,99208,47.7406048,-117.4997831
9013,North Rosebury Lane,99208,47.7404454,-117.4999409
9009,North Rosebury Lane,99208,47.7402607,-117.5001296
9005,North Rosebury Lane,99208,47.7400811,-117.5002619
9001,North Rosebury Lane,99208,47.7398806,-117.5003899
8912,North Rosebury Lane,99208,47.7396780,-117.5005391
8909,North Rosebury Lane,99208,47.7394618,-117.5006481
8905,North Rosebury Lane,99208,47.7392385,-117.5006456
8901,North Rosebury Lane,99208,47.7390276,-117.5006616
8811,North Rosebury Lane,99208,47.7388203,-117.5006677
8807,North Rosebury Lane,99208,47.7386076,-117.5006676
8803,North Rosebury Lane,99208,47.7384002,-117.5007095
8801,North Rosebury Lane,99208,47.7381750,-117.5007360
8711,North Rosebury Lane,99208,47.7379406,-117.5007052
8707,North Rosebury Lane,99208,47.7377278,-117.5006067
8703,North Rosebury Lane,99208,47.7375272,-117.5004343
8611,North Rosebury Lane,99208,47.7373520,-117.5002433
8609,North Rosebury Lane,99208,47.7371468,-117.5001003
8605,North Rosebury Lane,99208,47.7369554,-117.4999971
8601,North Rosebury Lane,99208,47.7367377,-117.4999547
8509,North Rosebury Lane,99208,47.7361517,-117.4994950
8507,North Rosebury Lane,99208,47.7360831,-117.4993441
8505,North Rosebury Lane,99208,47.7359994,-117.4992556
8503,North Rosebury Lane,99208,47.7359354,-117.4990982
8501,North Rosebury Lane,99208,47.7358780,-117.4989864
8910,North Rosebury Lane,99208,47.7394013,-117.4999122
8906,North Rosebury Lane,99208,47.7392013,-117.4999777
8902,North Rosebury Lane,99208,47.7390055,-117.4999830
8814,North Rosebury Lane,99208,47.7388086,-117.4999385
8810,North Rosebury Lane,99208,47.7386131,-117.4999836
8806,North Rosebury Lane,99208,47.7383883,-117.5000702
8802,North Rosebury Lane,99208,47.7381940,-117.5000646
8710,North Rosebury Lane,99208,47.7380104,-117.5000657
8706,North Rosebury Lane,99208,47.7378019,-117.4999359
8702,North Rosebury Lane,99208,47.7376471,-117.4997743
8610,North Rosebury Lane,99208,47.7374594,-117.4996204
8606,North Rosebury Lane,99208,47.7372840,-117.4995059
8602,North Rosebury Lane,99208,47.7370780,-117.4994102
8913,North Torrey Lane,99208,47.7392907,-117.4985786
8907,North Torrey Lane,99208,47.7390972,-117.4985407
8903,North Torrey Lane,99208,47.7388830,-117.4986370
8809,North Torrey Lane,99208,47.7387296,-117.4988264
8807,North Torrey Lane,99208,47.7385356,-117.4990018
8803,North Torrey Lane,99208,47.7383269,-117.4989650
8802,North Torrey Lane,99208,47.7381846,-117.4986404
8806,North Torrey Lane,99208,47.7382752,-117.4983108
8810,North Torrey Lane,99208,47.7384522,-117.4981462
8902,North Torrey Lane,99208,47.7386655,-117.4980620
8906,North Torrey Lane,99208,47.7388642,-117.4979438
8910,North Torrey Lane,99208,47.7390880,-117.4979225
8914,North Torrey Lane,99208,47.7392844,-117.4979113
8502,North Creston Lane,99208,47.7362107,-117.4987623
8506,North Creston Lane,99208,47.7363209,-117.4985594
8510,North Creston Lane,99208,47.7364945,-117.4983882
8602,North Creston Lane,99208,47.7366893,-117.4983194
8606,North Creston Lane,99208,47.7368745,-117.4982898
8610,North Creston Lane,99208,47.7370737,-117.4982605
8702,North Creston Lane,99208,47.7373283,-117.4981086
8706,North Creston Lane,99208,47.7374994,-117.4979527
8710,North Creston Lane,99208,47.7376755,-117.4977764
8714,North Creston Lane,99208,47.7378322,-117.4976168
8802,North Creston Lane,99208,47.7380010,-117.4974447
8806,North Creston Lane,99208,47.7381535,-117.4973435
8810,North Creston Lane,99208,47.7383260,-117.4972011
8814,North Barnes Road,99208,47.7391290,-117.4963587
8812,North Barnes Road,99208,47.7389675,-117.4963897
8810,North Barnes Road,99208,47.7388229,-117.4963317
8808,North Barnes Road,99208,47.7386726,-117.4963118
8806,North Barnes Road,99208,47.7385146,-117.4962891
"8901,8903,8905",North Barnes Road,99208,47.7402915,-117.4964623
"8907,8909,8911,8913,",North Barnes Road,99208,47.7405852,-117.4963807
"8915,8917,8919",North Barnes Road,99208,47.7406427,-117.4959368
8811,North Sundance Lane,99208,47.7389906,-117.4958389
8809,North Sundance Lane,99208,47.7388472,-117.4957705
8807,North Sundance Lane,99208,47.7386654,-117.4957683
8805,North Sundance Lane,99208,47.7385397,-117.4957829
8803,North Sundance Lane,99208,47.7383442,-117.4958788
8801,North Sundance Lane,99208,47.7382025,-117.4957414
8802,North Sundance Lane,99208,47.7382940,-117.4952243
8804,North Sundance Lane,99208,47.7384489,-117.4951867
8806,North Sundance Lane,99208,47.7386067,-117.4952207
8808,North Sundance Lane,99208,47.7387804,-117.4952066
8810,North Sundance Lane,99208,47.7389882,-117.4952491
8812,North Sundance Lane,99208,47.7391663,-117.4954012
8901,North Madeline Lane,99208,47.7394893,-117.4962066
8903,North Madeline Lane,99208,47.7396379,-117.4960775
8905,North Madeline Lane,99208,47.7397709,-117.4959246
8907,North Madeline Lane,99208,47.7399037,-117.4958138
8909,North Madeline Lane,99208,47.7400128,-117.4956685
8911,North Madeline Lane,99208,47.7401339,-117.4955061
8915,North Madeline Lane,99208,47.7403099,-117.4951846
8919,North Madeline Lane,99208,47.7403296,-117.4949758
8916,North Madeline Lane,99208,47.7399807,-117.4948682
8912,North Madeline Lane,99208,47.7399104,-117.4950550
8910,North Madeline Lane,99208,47.7397812,-117.4952496
8906,North Madeline Lane,99208,47.7396720,-117.4954376
8904,North Madeline Lane,99208,47.7395321,-117.4955836
8902,North Madeline Lane,99208,47.7393730,-117.4956676
5702,West Dorothy Court,99208,47.7405706,-117.4934173
5706,West Dorothy Court,99208,47.7405801,-117.4937274
5710,West Dorothy Court,99208,47.7405774,-117.4940312
5714,West Dorothy Court,99208,47.7405782,-117.4943776
5718,West Dorothy Court,99208,47.7402742,-117.4946107
5715,West Dorothy Court,99208,47.7400547,-117.4943685
5715,West Dorothy Court,99208,47.7401399,-117.4945256
5709,West Dorothy Court,99208,47.7400863,-117.4940148
5705,West Dorothy Court,99208,47.7401038,-117.4937378
5701,West Dorothy Court,99208,47.7400829,-117.4934422
9020,North Greenwood Street,99208,47.7406329,-117.4926964
9014,North Greenwood Street,99208,47.7404475,-117.4924405
9008,North Greenwood Street,99208,47.7401503,-117.4924711
9002,North Greenwood Street,99208,47.7400526,-117.4927743
9502,North Woodridge Drive,99208,47.7443725,-117.4855949
5122,West Lamar Avenue,99208,47.7442947,-117.4851270
5118,West Lamar Court,99208,47.7441136,-117.4848026
5114,West Lamar Court,99208,47.7442982,-117.4845862
5110,West Lamar Court,99208,47.7442789,-117.4841517
5106,West Lamar Court,99208,47.7440337,-117.4840165
5102,West Lamar Avenue,99208,47.7437360,-117.4842007
5010,West Lamar Avenue,99208,47.7436982,-117.4838445
5006,West Lamar Avenue,99208,47.7436816,-117.4835516
5002,West Lamar Avenue,99208,47.7436420,-117.4832361
9405,North Foal Court,99208,47.7440161,-117.4834273
9409,North Foal Court,99208,47.7442103,-117.4832577
9414,North Foal Court,99208,47.7442839,-117.4827958
9410,North Foal Court,99208,47.7440706,-117.4826238
9406,North Foal Court,99208,47.7438237,-117.4825928
4912,West Lamar Avenue,99208,47.7435256,-117.4825789
4908,West Lamar Avenue,99208,47.7434585,-117.4823201
4904,West Lamar Avenue,99208,47.7434181,-117.4820310
9405,North Farmdale Street,99208,47.7436748,-117.4820043
9409,North Farmdale Street,99208,47.7439288,-117.4820372
9415,North Farmdale Street,99208,47.7441275,-117.4820372
9502,North Farmdale Street,99208,47.7443630,-117.4813870
4806,West Belmont Drive,99208,47.7441836,-117.4809435
4802,West Belmont Drive,99208,47.7442257,-117.4805705
4714,West Belmont Drive,99208,47.7442623,-117.4802433
4710,West Belmont Drive,99208,47.7442594,-117.4798946
4708,West Belmont Drive,99208,47.7442741,-117.4795811
4704,West Belmont Drive,99208,47.7442736,-117.4792615
4612,West Belmont Drive,99208,47.7442580,-117.4789241
4608,West Belmont Drive,99208,47.7442688,-117.4786228
4604,West Belmont Drive,99208,47.7442824,-117.4782474
4510,West Belmont Drive,99208,47.7443289,-117.4779094
9303,North Sorenson Court,99208,47.7432524,-117.4763650
9311,North Sorenson Court,99208,47.7433872,-117.4761433
9403,North Sorenson Court,99208,47.7435756,-117.4761002
9407,North Sorenson Court,99208,47.7437539,-117.4760968
9411,North Sorenson Court,99208,47.7439382,-117.4761725
9415,North Sorenson Court,99208,47.7441691,-117.4762343
9419,North Sorenson Court,99208,47.7443011,-117.4759661
9420,North Sorenson Court,99208,47.7442752,-117.4756195
9416,North Sorenson Court,99208,47.7440833,-117.4754014
9412,North Sorenson Court,99208,47.7438862,-117.4753956
9408,North Sorenson Court,99208,47.7436963,-117.4754255
9404,North Sorenson Court,99208,47.7435349,-117.4754099
9314,North Sorenson Court,99208,47.7433384,-117.4754335
9310,North Sorenson Court,99208,47.7431525,-117.4755848
9306,North Sorenson Court,99208,47.7430107,-117.4757671
9302,North Sorenson Court,99208,47.7428720,-117.4760288
9301,West Belmont Drive,99208,47.7430075,-117.4769032
9307,West Belmont Drive,99208,47.7432503,-117.4770168
9405,West Belmont Drive,99208,47.7434625,-117.4770403
9409,West Belmont Drive,99208,47.7436895,-117.4769792
9415,West Belmont Drive,99208,47.7439189,-117.4770944
9414,North Phoebe Drive,99208,47.7439198,-117.4776143
9410,North Phoebe Drive,99208,47.7436806,-117.4775797
9216,North Phoebe Drive,99208,47.7426914,-117.4776486
9202,North Phoebe Drive,99208,47.7424255,-117.4776612
9413,North Phoebe Drive,99208,47.7437902,-117.4782699
9405,North Phoebe Drive,99208,47.7433511,-117.4783007
9309,North Phoebe Drive,99208,47.7431020,-117.4783193
9301,North Phoebe Drive,99208,47.7428707,-117.4783225
9215,North Phoebe Drive,99208,47.7426135,-117.4783161
9207,North Phoebe Drive,99208,47.7423623,-117.4782911
9203,North Phoebe Drive,99208,47.7421140,-117.4782330
9410,North Seminole Street,99208,47.7438478,-117.4788455
9406,North Seminole Street,99208,47.7435604,-117.4788746
9402,North Seminole Street,99208,47.7433532,-117.4788570
9310,North Seminole Street,99208,47.7431087,-117.4788856
9306,North Seminole Street,99208,47.7429110,-117.4788305
9302,North Seminole Street,99208,47.7426868,-117.4788741
9212,North Seminole Street,99208,47.7424684,-117.4788712
9208,North Seminole Street,99208,47.7422336,-117.4788601
9204,North Seminole Street,99208,47.7420267,-117.4788554
9411,North Seminole Street,99208,47.7438467,-117.4795451
9407,North Seminole Street,99208,47.7435757,-117.4795446
9403,North Seminole Street,99208,47.7433446,-117.4795382
9311,North Seminole Street,99208,47.7431371,-117.4795353
9307,North Seminole Street,99208,47.7429163,-117.4795194
9303,North Seminole Street,99208,47.7426856,-117.4795465
9211,North Seminole Street,99208,47.7424771,-117.4795434
9205,North Seminole Street,99208,47.7422442,-117.4795389
9201,North Seminole Street,99208,47.7420289,-117.4795027
9110,North Seminole Street,99208,47.7418037,-117.4795402
9107,North Seminole Street,99208,47.7415574,-117.4795220
9410,North James Court,99208,47.7435473,-117.4801416
9402,North James Court,99208,47.7433190,-117.4801348
9310,North James Court,99208,47.7431077,-117.4801407
9306,North James Court,99208,47.7428965,-117.4800885
9302,North James Court,99208,47.7426456,-117.4802643
9303,North James Court,99208,47.7426144,-117.4806837
9307,North James Court,99208,47.7428500,-117.4808742
9311,North James Court,99208,47.7430784,-117.4808182
9403,North James Court,99208,47.7432891,-117.4808158
9407,North James Court,99208,47.7435059,-117.4808118
9411,North James Court,99208,47.7437295,-117.4808149
9106,North James Court,99208,47.7413499,-117.4801518
9110,North James Court,99208,47.7415941,-117.4801370
9116,North James Court,99208,47.7418351,-117.4801310
9202,North James Court,99208,47.7420788,-117.4800679
9208,North James Court,99208,47.7423036,-117.4804027
9207,North James Court,99208,47.7422581,-117.4808259
9203,North James Court,99208,47.7419503,-117.4808881
9115,North James Court,99208,47.7417327,-117.4808269
9109,North James Court,99208,47.7415104,-117.4808316
9105,North James Court,99208,47.7412769,-117.4808379
9414,North Farmdale Street,99208,47.7437446,-117.4814199
9410,North Farmdale Street,99208,47.7435022,-117.4813946
9406,North Farmdale Street,99208,47.7433188,-117.4813724
9402,North Farmdale Street,99208,47.7430506,-117.4814111
9320,North Farmdale Street,99208,47.7428216,-117.4814243
9320,North Farmdale Street,99208,47.7425890,-117.4814104
9314,North Farmdale Street,99208,47.7423757,-117.4814225
9310,North Farmdale Street,99208,47.7421851,-117.4814332
9204,North Farmdale Street,99208,47.7419715,-117.4814070
9116,North Farmdale Street,99208,47.7417387,-117.4813941
9112,North Farmdale Street,99208,47.7415037,-117.4813849
9108,North Farmdale Street,99208,47.7412963,-117.4814170
9104,North Farmdale Street,99208,47.7410890,-117.4814347
9315,North Farmdale Street,99208,47.7426965,-117.4820041
9309,North Farmdale Street,99208,47.7424690,-117.4820089
9207,North Farmdale Street,99208,47.7422583,-117.4820056
9111,North Farmdale Street,99208,47.7414945,-117.4820474
9107,North Farmdale Street,99208,47.7412950,-117.4820145
4901,West Lamar Avenue,99208,47.7429834,-117.4820868
4905,West Lamar Avenue,99208,47.7430073,-117.4823423
4909,West Lamar Avenue,99208,47.7430803,-117.4826786
4913,West Lamar Avenue,99208,47.7431246,-117.4830212
5001,West Lamar Avenue,99208,47.7431994,-117.4833127
5005,West Lamar Avenue,99208,47.7432445,-117.4836552
5009,West Lamar Avenue,99208,47.7432785,-117.4839099
9314,North Londale Drive,99208,47.7433271,-117.4843698
9308,North Londale Drive,99208,47.7430613,-117.4842376
9308,North Londale Drive,99208,47.7429004,-117.4841229
9226,North Londale Drive,99208,47.7426813,-117.4839643
9220,North Londale Drive,99208,47.7421689,-117.4832182
9216,North Londale Drive,99208,47.7420949,-117.4829327
9212,North Londale Drive,99208,47.7419852,-117.4826685
9206,North Londale Drive,99208,47.7419366,-117.4823447
9202,North Londale Drive,99208,47.7419156,-117.4820713
4910,West Alcott Court,99208,47.7424405,-117.4837321
4906,West Alcott Court,99208,47.7426344,-117.4835311
4902,West Alcott Court,99208,47.7427882,-117.4832210
4903,West Alcott Court,99208,47.7426660,-117.4829165
4907,West Alcott Court,99208,47.7424312,-117.4828718
5117,West Lamar Avenue,99208,47.7437267,-117.4850234
5121,West Lamar Avenue,99208,47.7438810,-117.4852556
5125,West Lamar Avenue,99208,47.7439535,-117.4855374
9356,North Woodridge Drive,99208,47.7436656,-117.4855406
9340,North Woodridge Drive,99208,47.7435034,-117.4855404
9326,North Woodridge Drive,99208,47.7433378,-117.4855443
9280,North Woodridge Drive,99208,47.7428423,-117.4855543
9234,North Woodridge Drive,99208,47.7424604,-117.4855514
9222,North Woodridge Drive,99208,47.7420754,-117.4849953
9214,North Woodridge Drive,99208,47.7419956,-117.4856305
9230,North Woodridge Drive,99208,47.7424879,-117.4851946
9315,North Londale Drive,99208,47.7434911,-117.4849669
9311,North Londale Drive,99208,47.7432890,-117.4849212
9309,North Londale Drive,99208,47.7430606,-117.4849035
9305,North Londale Drive,99208,47.7428230,-117.4847750
9301,North Londale Drive,99208,47.7426485,-117.4846759
9225,North Londale Drive,99208,47.7424723,-117.4844820
9223,North Londale Drive,99208,47.7422926,-117.4843132
9221,North Londale Drive,99208,47.7421147,-117.4841568
5006,West Alcott Court,99208,47.7419217,-117.4844651
5010,West Alcott Court,99208,47.7416304,-117.4845523
5011,West Alcott Court,99208,47.7414950,-117.4842530
5007,West Alcott Court,99208,47.7415831,-117.4838912
9219,North Londale Drive,99208,47.7418343,-117.4836160
9215,North Londale Drive,99208,47.7417316,-117.4833923
9213,North Londale Drive,99208,47.7416221,-117.4830854
9211,North Londale Drive,99208,47.7415567,-117.4827854
9207,North Londale Drive,99208,47.7415071,-117.4824397
4902,West Barnes Road,99208,47.7410673,-117.4820917
4904,West Barnes Road,99208,47.7410997,-117.4825063
4908,West Barnes Road,99208,47.7411050,-117.4828075
4912,West Barnes Road,99208,47.7410986,-117.4831334
4916,West Barnes Road,99208,47.7411109,-117.4834563
5002,West Barnes Road,99208,47.7410932,-117.4837967
5006,West Barnes Road,99208,47.7410974,-117.4841248
5010,West Barnes Road,99208,47.7410993,-117.4844251
5014,West Barnes Road,99208,47.7410955,-117.4847702
5014,West Barnes Road,99208,47.7413619,-117.4848961
8808,North Indian Trail Road,99208,47.7394143,-117.4834130
9023,North Farmdale Street,99208,47.7406190,-117.4820204
9019,North Farmdale Street,99208,47.7404088,-117.4820686
9015,North Farmdale Street,99208,47.7401956,-117.4820648
9011,North Farmdale Street,99208,47.7399791,-117.4821143
9007,North Farmdale Street,99208,47.7397860,-117.4822359
8919,North Farmdale Street,99208,47.7396022,-117.4823653
8915,North Farmdale Street,99208,47.7393637,-117.4824868
8911,North Farmdale Street,99208,47.7391649,-117.4826232
8907,North Farmdale Street,99208,47.7389854,-117.4827346
8819,North Farmdale Street,99208,47.7387921,-117.4828371
8815,North Farmdale Street,99208,47.7385852,-117.4830531
8811,North Farmdale Street,99208,47.7383809,-117.4831452
8807,North Farmdale Street,99208,47.7381423,-117.4831734
8709,North Farmdale Street,99208,47.7379131,-117.4832059
8705,North Farmdale Street,99208,47.7376668,-117.4831133
8635,North Farmdale Street,99208,47.7374453,-117.4829899
9018,North Farmdale Street,99208,47.7405749,-117.4813758
9014,North Farmdale Street,99208,47.7403585,-117.4814200
9010,North Farmdale Street,99208,47.7401259,-117.4814028
9006,North Farmdale Street,99208,47.7397960,-117.4814691
8918,North Farmdale Street,99208,47.7395284,-117.4816729
8914,North Farmdale Street,99208,47.7392581,-117.4818819
8910,North Farmdale Street,99208,47.7390306,-117.4819864
8906,North Farmdale Street,99208,47.7387966,-117.4821980
8818,North Farmdale Street,99208,47.7385654,-117.4823057
8814,North Farmdale Street,99208,47.7382926,-117.4824694
8710,North Farmdale Street,99208,47.7380469,-117.4825154
8706,North Farmdale Street,99208,47.7377898,-117.4824521
8702,North Farmdale Street,99208,47.7375877,-117.4823459
9019,North James Drive,99208,47.7406184,-117.4808568
9015,North James Drive,99208,47.7403618,-117.4808394
9009,North James Drive,99208,47.7400944,-117.4808354
9005,North James Drive,99208,47.7398393,-117.4808870
9001,North James Drive,99208,47.7395937,-117.4810111
8915,North James Drive,99208,47.7393364,-117.4811940
8909,North James Drive,99208,47.7391078,-117.4813477
8903,North James Drive,99208,47.7388785,-117.4815048
8811,North James Drive,99208,47.7386243,-117.4816614
8805,North James Drive,99208,47.7383545,-117.4817871
8521,North James Drive,99208,47.7380792,-117.4818062
8703,North James Drive,99208,47.7378037,-117.4817528
9022,North James Drive,99208,47.7406492,-117.4801792
9018,North James Drive,99208,47.7404284,-117.4801615
9014,North James Drive,99208,47.7402075,-117.4801743
9008,North James Drive,99208,47.7399860,-117.4801840
9006,North James Drive,99208,47.7397742,-117.4802241
9002,North James Drive,99208,47.7395270,-117.4803057
8916,North James Drive,99208,47.7393034,-117.4804687
8912,North James Drive,99208,47.7390868,-117.4806152
8904,North James Drive,99208,47.7388845,-117.4807392
8814,North James Drive,99208,47.7386846,-117.4809027
8810,North James Drive,99208,47.7384694,-117.4810227
8802,North James Drive,99208,47.7382329,-117.4811460
8706,North James Drive,99208,47.7380049,-117.4810954
8948,North Pamela Street,99208,47.7404734,-117.4905737
9008,North Pamela Street,99208,47.7406445,-117.4912552
9006,North Pamela Street,99208,47.7405159,-117.4911763
9004,North Pamela Street,99208,47.7402900,-117.4910987
9002,North Pamela Street,99208,47.7403701,-117.4908936
8914,North Pamela Street,99208,47.7398376,-117.4907618
8914,North Pamela Street,99208,47.7398859,-117.4904898
8908,North Pamela Street,99208,47.7396314,-117.4905939
8906,North Pamela Street,99208,47.7394874,-117.4904921
8904,North Pamela Street,99208,47.7392394,-117.4903963
8902,North Pamela Street,99208,47.7393184,-117.4901977
8848,North Pamela Street,99208,47.7394434,-117.4898468
8814,North Pamela Street,99208,47.7388576,-117.4898987
8810,North Pamela Street,99208,47.7388179,-117.4901250
8808,North Pamela Street,99208,47.7386065,-117.4899102
8806,North Pamela Street,99208,47.7384696,-117.4898115
8804,North Pamela Street,99208,47.7382083,-117.4897193
8802,North Pamela Street,99208,47.7382903,-117.4895236
8734,North Pamela Street,99208,47.7384009,-117.4892728
8726,North Pamela Street,99208,47.7383090,-117.4889910
8718,North Pamela Street,99208,47.7380880,-117.4888483
8710,North Pamela Street,99208,47.7379081,-117.4889742
8706,North Pamela Street,99208,47.7378327,-117.4892246
8704,North Pamela Street,99208,47.7377915,-117.4894441
8702,North Pamela Street,99208,47.7375976,-117.4892189
5318,West Lowell Avenue,99208,47.7374071,-117.4890548
5316,West Lowell Avenue,99208,47.7374082,-117.4888388
5314,West Lowell Avenue,99208,47.7374030,-117.4886114
5310,West Lowell Avenue,99208,47.7374310,-117.4883612
5310,West Lowell Avenue,99208,47.7373786,-117.4881007
9015,North Pamela Street,99208,47.7406347,-117.4920432
9009,North Pamela Street,99208,47.7403720,-117.4918723
9003,North Pamela Street,99208,47.7401261,-117.4917033
8921,North Pamela Street,99208,47.7399228,-117.4914915
8915,North Pamela Street,99208,47.7396576,-117.4913514
8909,North Pamela Street,99208,47.7394130,-117.4911934
8903,North Pamela Street,99208,47.7391511,-117.4910546
8821,North Pamela Street,99208,47.7389319,-117.4908463
8815,North Pamela Street,99208,47.7386621,-117.4907321
8809,North Pamela Street,99208,47.7384397,-117.4905275
8803,North Pamela Street,99208,47.7381934,-117.4903520
8715,North Pamela Street,99208,47.7379164,-117.4902289
8707,North Pamela Street,99208,47.7376851,-117.4900304
5620,West Nadine Court,99208,47.7397243,-117.4928509
5616,West Nadine Court,99208,47.7397692,-117.4924683
5610,West Nadine Court,99208,47.7397403,-117.4920657
5605,West Nadine Court,99208,47.7395243,-117.4918746
5609,West Nadine Court,99208,47.7392837,-117.4920790
5615,West Nadine Court,99208,47.7392712,-117.4924443
5619,West Nadine Court,99208,47.7392593,-117.4927491
5623,West Nadine Court,99208,47.7392560,-117.4930564
5626,West Charlene Court,99208,47.7388430,-117.4932530
5622,West Charlene Court,99208,47.7388593,-117.4929633
5618,West Charlene Court,99208,47.7388954,-117.4926736
5614,West Charlene Court,99208,47.7389160,-117.4923303
5610,West Charlene Court,99208,47.7389251,-117.4920550
5606,West Charlene Court,99208,47.7389856,-117.4917148
5602,West Charlene Court,99208,47.7388435,-117.4913873
5601,West Charlene Court,99208,47.7386133,-117.4913935
5601,West Charlene Court,99208,47.7384259,-117.4913176
5605,West Charlene Court,99208,47.7384541,-117.4916825
5609,West Charlene Court,99208,47.7384804,-117.4920000
5615,West Charlene Court,99208,47.7384964,-117.4923184
5619,West Charlene Court,99208,47.7384838,-117.4926204
5623,West Charlene Court,99208,47.7384388,-117.4929191
5627,West Charlene Court,99208,47.7384452,-117.4932269
5631,West Charlene Court,99208,47.7384409,-117.4935296
8714,North Greenwood Street,99208,47.7381581,-117.4936690
8714,North Greenwood Street,99208,47.7379744,-117.4937191
8710,North Greenwood Street,99208,47.7378370,-117.4934466
8710,North Greenwood Street,99208,47.7377168,-117.4933018
8706,North Greenwood Street,99208,47.7375746,-117.4935871
8702,North Greenwood Street,99208,47.7375042,-117.4938796
8618,North Greenwood Street,99208,47.7372503,-117.4939246
8614,North Greenwood Street,99208,47.7370598,-117.4940478
8610,North Greenwood Street,99208,47.7367806,-117.4941016
5710,West Lowell Avenue,99208,47.7365244,-117.4940977
5706,West Lowell Avenue,99208,47.7366421,-117.4937511
5702,West Lowell Avenue,99208,47.7367802,-117.4934423
5612,West Lowell Avenue,99208,47.7369937,-117.4926590
5610,West Lowell Avenue,99208,47.7371039,-117.4922736
5514,West Lowell Avenue,99208,47.7372248,-117.4915552
5410,West Lowell Avenue,99208,47.7373783,-117.4898315
8707,North Sally Court,99208,47.7370511,-117.4934654
8712,North Sally Court,99208,47.7372586,-117.4932573
8706,North Sally Court,99208,47.7372005,-117.4928944
8707,North Terry Court,99208,47.7373132,-117.4923383
8711,North Terry Court,99208,47.7374980,-117.4925372
8717,North Terry Court,99208,47.7376817,-117.4928771
8721,North Terry Court,99208,47.7378996,-117.4928944
8726,North Terry Court,99208,47.7380822,-117.4926141
8720,North Terry Court,99208,47.7380287,-117.4922835
8716,North Terry Court,99208,47.7378183,-117.4921388
8712,North Terry Court,99208,47.7376187,-117.4919125
8706,North Terry Court,99208,47.7374291,-117.4917358
8701,North Kelly Court,99208,47.7373093,-117.4910186
8707,North Kelly Court,99208,47.7375043,-117.4912280
8711,North Kelly Court,99208,47.7377040,-117.4914167
8715,North Kelly Court,99208,47.7379713,-117.4915620
8718,North Kelly Court,99208,47.7381553,-117.4912901
8714,North Kelly Court,99208,47.7380933,-117.4908546
8710,North Kelly Court,99208,47.7377836,-117.4907312
8706,North Kelly Court,99208,47.7375720,-117.4906085
8702,North Kelly Court,99208,47.7373645,-117.4903228
5702,West Nadine Court,99208,47.7397139,-117.4935220
5706,West Nadine Court,99208,47.7397056,-117.4938461
5710,West Nadine Court,99208,47.7397038,-117.4941468
5714,West Nadine Court,99208,47.7397280,-117.4944801
5718,West Nadine Court,99208,47.7395508,-117.4948117
5719,West Nadine Court,99208,47.7392968,-117.4947771
5715,West Nadine Court,99208,47.7391763,-117.4944115
5709,West Nadine Court,99208,47.7392124,-117.4941139
5705,West Nadine Court,99208,47.7392646,-117.4937412
5702,West Charlene Court,99208,47.7388362,-117.4939261
8823,North Greenwood Street,99208,47.7388675,-117.4942727
8817,North Greenwood Street,99208,47.7386882,-117.4945410
8811,North Greenwood Street,99208,47.7383921,-117.4944991
8805,North Greenwood Street,99208,47.7383589,-117.4941749
8715,North Forest Boulevard,99208,47.7379299,-117.4943569
8709,North Forest Boulevard,99208,47.7379480,-117.4947127
8705,North Forest Boulevard,99208,47.7379509,-117.4950665
8701,North Forest Boulevard,99208,47.7378336,-117.4955044
8619,North Forest Boulevard,99208,47.7375162,-117.4957434
8615,North Forest Boulevard,99208,47.7372567,-117.4958122
8609,North Forest Boulevard,99208,47.7369870,-117.4959114
8605,North Forest Boulevard,99208,47.7367518,-117.4960028
8601,North Forest Boulevard,99208,47.7364622,-117.4960648
8515,North Forest Boulevard,99208,47.7361750,-117.4961170
8509,North Forest Boulevard,99208,47.7359286,-117.4962373
8505,North Forest Boulevard,99208,47.7356482,-117.4963316
8501,North Forest Boulevard,99208,47.7353857,-117.4963622
8415,North Forest Court,99208,47.7350670,-117.4963477
8411,North Forest Court,99208,47.7348688,-117.4965979
8409,North Forest Court,99208,47.7344964,-117.4965185
8405,North Forest Court,99208,47.7344715,-117.4961481
8401,North Forest Court,99208,47.7341883,-117.4959927
8319,North Forest Court,99208,47.7339386,-117.4958532
8315,North Forest Court,99208,47.7336534,-117.4956921
8309,North Forest Court,99208,47.7334274,-117.4955432
8305,North Forest Court,99208,47.7331676,-117.4954472
8301,North Forest Court,99208,47.7329065,-117.4951408
8716,North Forest Boulevard,99208,47.7375646,-117.4945757
8620,North Forest Boulevard,99208,47.7374607,-117.4950631
8616,North Forest Boulevard,99208,47.7372360,-117.4951538
8610,North Forest Boulevard,99208,47.7369658,-117.4952236
8606,North Forest Boulevard,99208,47.7366988,-117.4953181
8602,North Forest Boulevard,99208,47.7364336,-117.4953955
8516,North Forest Boulevard,99208,47.7361722,-117.4954946
8510,North Forest Boulevard,99208,47.7359328,-117.4955423
8506,North Forest Boulevard,99208,47.7356476,-117.4956703
8502,North Forest Boulevard,99208,47.7353788,-117.4957127
8414,North Forest Court,99208,47.7348482,-117.4956177
8408,North Forest Court,99208,47.7346207,-117.4955256
8402,North Forest Court,99208,47.7343525,-117.4953740
8320,North Forest Court,99208,47.7340964,-117.4952378
8316,North Forest Court,99208,47.7338509,-117.4950764
8310,North Forest Court,99208,47.7335506,-117.4948893
8306,North Forest Court,99208,47.7333254,-117.4947688
8302,North Forest Court,99208,47.7329984,-117.4947350
8619,North Greenwood Street,99208,47.7372879,-117.4945360
8615,North Greenwood Street,99208,47.7370856,-117.4946112
8611,North Greenwood Street,99208,47.7369025,-117.4946725
8609,North Greenwood Street,99208,47.7367051,-117.4946964
8607,North Greenwood Street,99208,47.7364891,-117.4947666
8527,North Greenwood Street,99208,47.7362839,-117.4948759
8521,North Greenwood Street,99208,47.7360914,-117.4948998
8517,North Greenwood Street,99208,47.7358922,-117.4949936
8511,North Greenwood Street,99208,47.7356852,-117.4950583
8511,North Greenwood Street,99208,47.7354803,-117.4951423
5806,West Pacific Park Drive,99208,47.7352491,-117.4951518
5807,West Pacific Park Drive,99208,47.7348743,-117.4950572
8411,North Greenwood Court,99208,47.7346446,-117.4949081
8405,North Greenwood Court,99208,47.7344163,-117.4947548
8327,North Greenwood Court,99208,47.7342378,-117.4946268
8321,North Greenwood Court,99208,47.7340441,-117.4945058
8317,North Greenwood Court,99208,47.7338420,-117.4944160
8311,North Greenwood Court,99208,47.7336486,-117.4941520
8520,North Greenwood Street,99208,47.7360319,-117.4943272
8516,North Greenwood Street,99208,47.7358006,-117.4943920
8512,North Greenwood Street,99208,47.7355847,-117.4944903
8410,North Greenwood Court,99208,47.7348449,-117.4942425
8406,North Greenwood Court,99208,47.7346129,-117.4941888
8326,North Greenwood Court,99208,47.7343921,-117.4940093
8320,North Greenwood Court,99208,47.7341854,-117.4939507
5715,West Lowell Avenue,99208,47.7361059,-117.4939659
5709,West Lowell Avenue,99208,47.7362010,-117.4936691
5705,West Lowell Avenue,99208,47.7363157,-117.4934569
5701,West Lowell Avenue,99208,47.7364375,-117.4931261
5611,West Lowell Avenue,99208,47.7366394,-117.4924707
5609,West Lowell Avenue,99208,47.7367424,-117.4920116
5515,West Lowell Avenue,99208,47.7368800,-117.4913275
5415,West Lowell Avenue,99208,47.7369968,-117.4901621
8615,North Sally Court,99208,47.7360349,-117.4929483
8615,North Sally Court,99208,47.7362058,-117.4931486
8607,North Sally Court,99208,47.7359037,-117.4926091
8606,North Sally Court,99208,47.7359662,-117.4922469
8614,North Sally Court,99208,47.7362573,-117.4922160
8624,North Sally Court,99208,47.7364302,-117.4924336
8625,North Terry Court,99208,47.7365396,-117.4918843
8617,North Terry Court,99208,47.7363546,-117.4917049
8615,North Terry Court,99208,47.7361695,-117.4916395
8607,North Terry Court,99208,47.7359397,-117.4915744
8602,North Terry Court,99208,47.7358438,-117.4911786
8606,North Terry Court,99208,47.7360484,-117.4908789
8614,North Terry Court,99208,47.7362832,-117.4909521
8618,North Terry Court,99208,47.7364683,-117.4910980
8624,North Terry Court,99208,47.7366646,-117.4912231
8631,North Kelly Court,99208,47.7369398,-117.4907492
8625,North Kelly Court,99208,47.7367434,-117.4906663
8617,North Kelly Court,99208,47.7365681,-117.4905765
8615,North Kelly Court,99208,47.7363795,-117.4904794
8611,North Kelly Court,99208,47.7361995,-117.4903775
8607,North Kelly Court,99208,47.7359546,-117.4903057
8601,North Kelly Court,99208,47.7357742,-117.4901115
8602,North Kelly Court,99208,47.7357993,-117.4897069
8606,North Kelly Court,99208,47.7360213,-117.4895295
8610,North Kelly Court,99208,47.7362583,-117.4896562
8614,North Kelly Court,99208,47.7364252,-117.4897620
8618,North Kelly Court,99208,47.7365976,-117.4899152
8624,North Kelly Court,99208,47.7367817,-117.4900557
5734,West Pacific Park Drive,99208,47.7352346,-117.4944846
5730,West Pacific Park Drive,99208,47.7352399,-117.4941894
5726,West Pacific Park Drive,99208,47.7352793,-117.4937694
5622,West Pacific Park Drive,99208,47.7354050,-117.4930619
5618,West Pacific Park Drive,99208,47.7354694,-117.4926971
5612,West Pacific Park Drive,99208,47.7354762,-117.4924099
5606,West Pacific Park Drive,99208,47.7354956,-117.4921049
5542,West Pacific Park Drive,99208,47.7355061,-117.4918052
5536,West Pacific Park Drive,99208,47.7355049,-117.4914711
5506,West Pacific Park Drive,99208,47.7349710,-117.4907505
5430,West Pacific Park Drive,99208,47.7347598,-117.4905644
5426,West Pacific Park Drive,99208,47.7346081,-117.4903315
5638,West Lisa Court,99208,47.7355340,-117.4939447
5634,West Lisa Court,99208,47.7357508,-117.4938487
5630,West Lisa Court,99208,47.7358155,-117.4934421
5626,West Lisa Court,99208,47.7356879,-117.4931413
5530,West Sarah Court,99208,47.7353684,-117.4910798
5526,West Sarah Court,99208,47.7355378,-117.4908873
5518,West Sarah Court,99208,47.7353320,-117.4903475
5512,West Sarah Court,99208,47.7350744,-117.4904578
8405,North Susan Court,99208,47.7345006,-117.4899267
8411,North Susan Court,99208,47.7347234,-117.4898277
8419,North Susan Court,99208,47.7349296,-117.4897436
8423,North Susan Court,99208,47.7351680,-117.4897856
8427,North Susan Court,99208,47.7353700,-117.4896302
8431,North Susan Court,99208,47.7354711,-117.4893357
8428,North Susan Court,99208,47.7352805,-117.4890156
8424,North Susan Court,99208,47.7350408,-117.4891256
8420,North Susan Court,99208,47.7348396,-117.4891913
8412,North Susan Court,99208,47.7346230,-117.4892820
8404,North Susan Court,99208,47.7344147,-117.4893788
8631,North Pamela Street,99208,47.7369849,-117.4895034
8631,North Pamela Street,99208,47.7370114,-117.4897744
8631,North Pamela Street,99208,47.7367899,-117.4894268
8627,North Pamela Street,99208,47.7366116,-117.4892989
8621,North Pamela Street,99208,47.7364297,-117.4891223
8615,North Pamela Street,99208,47.7362651,-117.4890128
8609,North Pamela Street,99208,47.7360854,-117.4888968
8603,North Pamela Street,99208,47.7359110,-117.4887557
8527,North Pamela Street,99208,47.7357266,-117.4886461
8523,North Pamela Street,99208,47.7355548,-117.4885219
8517,North Pamela Street,99208,47.7353653,-117.4884067
8511,North Pamela Street,99208,47.7351784,-117.4882914
8505,North Pamela Street,99208,47.7349546,-117.4883453
8423,North Pamela Street,99208,47.7347317,-117.4884418
8417,North Pamela Street,99208,47.7345475,-117.4885568
8411,North Pamela Street,99208,47.7343640,-117.4886948
8405,North Pamela Street,99208,47.7341859,-117.4888308
5727,West Pacific Park Drive,99208,47.7348827,-117.4938915
5719,West Pacific Park Drive,99208,47.7349187,-117.4934845
5623,West Pacific Park Drive,99208,47.7349775,-117.4931331
5617,West Pacific Park Drive,99208,47.7350445,-117.4927847
5611,West Pacific Park Drive,99208,47.7351175,-117.4924491
5605,West Pacific Park Drive,99208,47.7351301,-117.4920260
5535,West Pacific Park Drive,99208,47.7351094,-117.4917059
5529,West Pacific Park Drive,99208,47.7349626,-117.4913725
5507,West Pacific Park Drive,99208,47.7347338,-117.4912583
8415,North Corey Court,99208,47.7344615,-117.4910063
8409,North Corey Court,99208,47.7342867,-117.4912977
8405,North Corey Court,99208,47.7340414,-117.4913860
8404,North Corey Court,99208,47.7338910,-117.4911420
8406,North Corey Court,99208,47.7339894,-117.4907340
8412,North Corey Court,99208,47.7342091,-117.4905375
5408,West Jamie Court,99208,47.7338580,-117.4895431
5412,West Jamie Court,99208,47.7339259,-117.4897874
5416,West Jamie Court,99208,47.7339979,-117.4900884
5417,West Jamie Court,99208,47.7338543,-117.4903810
5411,West Jamie Court,99208,47.7335428,-117.4903034
5407,West Jamie Court,99208,47.7335154,-117.4899469
8632,North Pamela Street,99208,47.7369954,-117.4888989
8628,North Pamela Street,99208,47.7368105,-117.4887600
8622,North Pamela Street,99208,47.7366277,-117.4886216
8616,North Pamela Street,99208,47.7364359,-117.4885301
8610,North Pamela Street,99208,47.7362583,-117.4883718
8604,North Pamela Street,99208,47.7360941,-117.4882437
8604,North Pamela Street,99208,47.7359019,-117.4881686
8524,North Pamela Street,99208,47.7357328,-117.4880487
8520,North Pamela Street,99208,47.7355477,-117.4879073
8516,North Pamela Street,99208,47.7353519,-117.4877932
8512,North Pamela Street,99208,47.7351537,-117.4877115
8508,North Pamela Street,99208,47.7349618,-117.4873880
8504,North Pamela Street,99208,47.7346983,-117.4873987
8424,North Pamela Street,99208,47.7346192,-117.4879087
8418,North Pamela Street,99208,47.7344140,-117.4880604
8412,North Pamela Street,99208,47.7341878,-117.4882036
8629,North Valerie Street,99208,47.7369878,-117.4882606
8623,North Valerie Street,99208,47.7368120,-117.4880740
8617,North Valerie Street,99208,47.7366311,-117.4879743
8611,North Valerie Street,99208,47.7364369,-117.4878207
8605,North Valerie Street,99208,47.7362317,-117.4877860
8529,North Valerie Street,99208,47.7360616,-117.4875741
8523,North Valerie Street,99208,47.7358853,-117.4874871
8517,North Valerie Street,99208,47.7356750,-117.4873700
8511,North Valerie Street,99208,47.7354889,-117.4872503
8505,North Valerie Street,99208,47.7353194,-117.4870528
8429,North Valerie Street,99208,47.7351133,-117.4869340
8423,North Valerie Street,99208,47.7349208,-117.4868269
8417,North Valerie Street,99208,47.7347559,-117.4867382
8411,North Valerie Street,99208,47.7345303,-117.4865773
8405,North Valerie Street,99208,47.7343779,-117.4865135
8317,North Valerie Street,99208,47.7341651,-117.4863917
8311,North Valerie Street,99208,47.7339679,-117.4863103
8305,North Valerie Street,99208,47.7337582,-117.4863488
5322,West Pacific Park Drive,99208,47.7339980,-117.4882765
5316,West Pacific Park Drive,99208,47.7338959,-117.4878832
5310,West Pacific Park Drive,99208,47.7337993,-117.4875591
5224,West Pacific Park Drive,99208,47.7337605,-117.4868962
8311,North Lucia Court,99208,47.7341184,-117.4876344
8315,North Lucia Court,99208,47.7343232,-117.4873858
8316,North Lucia Court,99208,47.7341856,-117.4869882
8310,North Lucia Court,99208,47.7339830,-117.4869217
8622,North Valerie Street,99208,47.7369640,-117.4875404
8616,North Valerie Street,99208,47.7367830,-117.4873655
8610,North Valerie Street,99208,47.7365907,-117.4872725
8604,North Valerie Street,99208,47.7363960,-117.4871466
8524,North Valerie Street,99208,47.7361855,-117.4870174
8518,North Valerie Street,99208,47.7359964,-117.4868876
8512,North Valerie Street,99208,47.7357899,-117.4867402
8506,North Valerie Street,99208,47.7355801,-117.4865850
8430,North Valerie Street,99208,47.7353815,-117.4864715
8424,North Valerie Street,99208,47.7352015,-117.4862997
8418,North Valerie Street,99208,47.7349934,-117.4861852
8412,North Valerie Street,99208,47.7347892,-117.4860078
8406,North Valerie Street,99208,47.7345853,-117.4859231
8324,North Valerie Street,99208,47.7344068,-117.4858292
8316,North Valerie Street,99208,47.7341687,-117.4856922
8310,North Valerie Street,99208,47.7339553,-117.4857433
8304,North Valerie Street,99208,47.7337763,-117.4857492
8303,North Parkway Drive,99208,47.7337808,-117.4851467
8311,North Parkway Drive,99208,47.7339812,-117.4851105
8317,North Parkway Drive,99208,47.7341706,-117.4850975
8441,North Indian Trail Road,99208,47.7358770,-117.4833562
8318,North Parkway Drive,99208,47.7341241,-117.4844727
8328,North Parkway Drive,99208,47.7343621,-117.4843475
8404,North Parkway Drive,99208,47.7345294,-117.4841953
8414,North Parkway Drive,99208,47.7347162,-117.4840195
8424,North Parkway Drive,99208,47.7348660,-117.4837749
8434,North Parkway Drive,99208,47.7349811,-117.4835149
5124,West Pacific Park Drive,99208,47.7338372,-117.4845444
5120,West Pacific Park Drive,99208,47.7338502,-117.4842954
5112,West Pacific Park Drive,99208,47.7339788,-117.4840035
5108,West Pacific Park Drive,99208,47.7341448,-117.4838543
5102,West Pacific Park Drive,99208,47.7342526,-117.4837256
5030,West Pacific Park Drive,99208,47.7343595,-117.4836347
5028,West Pacific Park Drive,99208,47.7344816,-117.4834862
5026,West Pacific Park Drive,99208,47.7345950,-117.4833634
5020,West Pacific Park Drive,99208,47.7347214,-117.4832579
5115,West Pacific Park Drive,99208,47.7337026,-117.4836684
5111,West Pacific Park Drive,99208,47.7337599,-117.4834300
5107,West Pacific Park Drive,99208,47.7338481,-117.4833360
5031,West Pacific Park Drive,99208,47.7340700,-117.4831172
5027,West Pacific Park Drive,99208,47.7341751,-117.4830020
5023,West Pacific Park Drive,99208,47.7342948,-117.4828635
5019,West Pacific Park Drive,99208,47.7344056,-117.4827394
5015,West Pacific Park Drive,99208,47.7344332,-117.4825133
5011,West Pacific Park Drive,99208,47.7344931,-117.4823510
5007,West Pacific Park Drive,99208,47.7345386,-117.4821573
5003,West Pacific Park Drive,99208,47.7345907,-117.4819794
5035,West Prosperity Lane,99208,47.7337263,-117.4828895
5031,West Prosperity Lane,99208,47.7337222,-117.4827189
5027,West Prosperity Lane,99208,47.7337270,-117.4825212
5023,West Prosperity Lane,99208,47.7337342,-117.4823471
5019,West Prosperity Lane,99208,47.7337244,-117.4821674
5015,West Prosperity Lane,99208,47.7337319,-117.4819662
5011,West Prosperity Lane,99208,47.7337327,-117.4817860
5007,West Prosperity Lane,99208,47.7337380,-117.4816079
5003,West Prosperity Lane,99208,47.7337292,-117.4814324
5010,West Prosperity Lane,99208,47.7340951,-117.4817220
5014,West Prosperity Lane,99208,47.7340906,-117.4819107
5018,West Prosperity Lane,99208,47.7340742,-117.4820947
5022,West Prosperity Lane,99208,47.7340756,-117.4822749
5026,West Prosperity Lane,99208,47.7340763,-117.4824654
8229,North Marjorie Street,99208,47.7332622,-117.4892908
8225,North Marjorie Street,99208,47.7332256,-117.4895970
8221,North Marjorie Street,99208,47.7331499,-117.4899088
8217,North Marjorie Street,99208,47.7330951,-117.4902039
8213,North Marjorie Street,99208,47.7329613,-117.4904558
8205,North Marjorie Street,99208,47.7325298,-117.4908678
8201,North Marjorie Street,99208,47.7322793,-117.4909330
8123,North Marjorie Street,99208,47.7320045,-117.4909952
8119,North Marjorie Street,99208,47.7317168,-117.4910143
8115,North Marjorie Street,99208,47.7314338,-117.4910154
8111,North Marjorie Street,99208,47.7311691,-117.4907568
8107,North Marjorie Street,99208,47.7310216,-117.4903319
8103,North Marjorie Street,99208,47.7309726,-117.4899188
8002,North Valerie Street,99208,47.7309687,-117.4895400
8006,North Valerie Street,99208,47.7309727,-117.4891025
8010,North Valerie Street,99208,47.7309947,-117.4886715
8019,North Hayley Court,99208,47.7311482,-117.4881886
8011,North Hayley Court,99208,47.7309133,-117.4880220
8004,North Hayley Court,99208,47.7308914,-117.4871540
8012,North Hayley Court,99208,47.7311334,-117.4874346
8020,North Hayley Court,99208,47.7313295,-117.4876149
8027,North Pamela Street,99208,47.7315103,-117.4874003
8021,North Pamela Street,99208,47.7313747,-117.4870591
8011,North Pamela Street,99208,47.7312386,-117.4867841
8005,North Pamela Street,99208,47.7311019,-117.4864854
8010,North Pamela Street,99208,47.7315443,-117.4863280
8020,North Pamela Street,99208,47.7316421,-117.4866245
8028,North Pamela Street,99208,47.7317691,-117.4869128
8118,North Valerie Street,99208,47.7319794,-117.4866607
8124,North Valerie Street,99208,47.7321430,-117.4863654
8131,North Valerie Street,99208,47.7326379,-117.4865278
8123,North Valerie Street,99208,47.7324534,-117.4867181
8119,North Valerie Street,99208,47.7323363,-117.4869616
8115,North Valerie Street,99208,47.7321898,-117.4871806
5211,West Pacific Park Drive,99208,47.7334257,-117.4864764
5223,West Pacific Park Drive,99208,47.7334092,-117.4868321
5309,West Pacific Park Drive,99208,47.7334204,-117.4876235
5315,West Pacific Park Drive,99208,47.7334938,-117.4879198
5321,West Pacific Park Drive,99208,47.7335667,-117.4882239
8230,North Pamela Street,99208,47.7336740,-117.4885177
8235,North Pamela Street,99208,47.7338616,-117.4891427
8231,North Pamela Street,99208,47.7337024,-117.4892225
8217,North Pamela Street,99208,47.7328459,-117.4890577
8211,North Pamela Street,99208,47.7326075,-117.4888485
8207,North Pamela Street,99208,47.7324589,-117.4886598
8218,North Marjorie Street,99208,47.7328178,-117.4894182
8218,North Marjorie Street,99208,47.7326994,-117.4898142
8210,North Marjorie Street,99208,47.7326035,-117.4901091
8206,North Marjorie Street,99208,47.7324337,-117.4903065
8202,North Marjorie Street,99208,47.7321929,-117.4903669
8120,North Marjorie Street,99208,47.7319594,-117.4903556
8116,North Marjorie Street,99208,47.7317254,-117.4903780
8110,North Marjorie Street,99208,47.7314218,-117.4902952
8003,North Valerie Street,99208,47.7313902,-117.4894873
8007,North Valerie Street,99208,47.7313903,-117.4890879
8011,North Valerie Street,99208,47.7314523,-117.4886994
8015,North Valerie Street,99208,47.7315300,-117.4884002
8023,North Valerie Street,99208,47.7316635,-117.4881592
8029,North Valerie Street,99208,47.7318106,-117.4878798
8003,North Stephanie Street,99208,47.7316761,-117.4900062
8007,North Stephanie Street,99208,47.7319093,-117.4897236
8011,North Stephanie Street,99208,47.7321355,-117.4897885
8015,North Stephanie Street,99208,47.7323172,-117.4894795
8019,North Stephanie Street,99208,47.7322493,-117.4891558
8010,North Stephanie Street,99208,47.7316733,-117.4891457
8018,North Stephanie Street,99208,47.7318002,-117.4888325
8020,North Stephanie Street,99208,47.7319752,-117.4885260
8028,North Stephanie Street,99208,47.7321366,-117.4882863
8106,North Pamela Street,99208,47.7320816,-117.4874597
8116,North Pamela Street,99208,47.7323076,-117.4877463
8122,North Pamela Street,99208,47.7324659,-117.4879425
8206,North Pamela Street,99208,47.7326314,-117.4881819
8212,North Pamela Street,99208,47.7327961,-117.4883324
8218,North Pamela Street,99208,47.7330158,-117.4885164
8222,North Pamela Street,99208,47.7332179,-117.4886219
8226,North Pamela Street,99208,47.7334398,-117.4886220
8221,North Lucia Court,99208,47.7331893,-117.4876297
8211,North Lucia Court,99208,47.7329945,-117.4877290
8207,North Lucia Court,99208,47.7327818,-117.4876081
8206,North Lucia Court,99208,47.7327623,-117.4871876
8210,North Lucia Court,99208,47.7329505,-117.4869811
8220,North Lucia Court,99208,47.7331524,-117.4870028
400,East 5th Avenue,99202,47.6507144,-117.4051650
130,North Stone Street,99202,47.6591576,-117.3763204
1319,South Lindeke Street,99224,47.6433623,-117.4511585
4404,West Indian Trail Road,99208,47.7297804,-117.4755646
4332,West Indian Trail Road,99208,47.7294941,-117.4751678
4328,West Indian Trail Road,99208,47.7293090,-117.4748735
4322,West Indian Trail Road,99208,47.7290770,-117.4745200
4314,West Indian Trail Road,99208,47.7288422,-117.4741595
4306,West Indian Trail Road,99208,47.7285322,-117.4737303
4226,West Indian Trail Road,99208,47.7283219,-117.4734792
4218,West Indian Trail Road,99208,47.7280800,-117.4732066
4022,West Kathleen Avenue,99208,47.7276311,-117.4727470
4212,West Indian Trail Road,99208,47.7279046,-117.4730011
144,South Cannon Street,99201,47.6551714,-117.4418526
601,East Riverside Avenue,99202,47.6583427,-117.4022303
8967,West Airport Drive,99224,47.6270074,-117.5378235
524,South Stone Street,99202,47.6509142,-117.3770444
2026,East 4th Avenue,99202,47.6524139,-117.3801379
720,East Sinto Avenue,99202,47.6703100,-117.3988965
1224,East Trent Avenue,99202,47.6615050,-117.3916915
1306,East Trent Avenue,99202,47.6615490,-117.3907145
9601,North Newport Highway,99218-1220,47.7452989,-117.4076913
314,East Shiloh Hills Drive,99208,47.7359052,-117.4048002
6711,North Cedar Road,99208,47.7196909,-117.4334776
9304,North Newport Highway,99218,47.7426895,-117.4080942
520,East Holland Avenue,99218,47.7432740,-117.4023988
414,East Sharp Avenue,99202,47.6692563,-117.4039867
703,East Sinto Avenue,99202,47.6709125,-117.3995080
2904,East Sprague Avenue,99202,47.6570732,-117.3677318
511,West Dean Avenue,99201,47.6660636,-117.4191709
302,West Augusta Avenue,99205,47.6733951,-117.4162594
1703,North Washington Street,99205,47.6733948,-117.4177100
"2218,2220",West Cleveland Avenue,99205,47.6846265,-117.4454420
"2214,2216",West Cleveland Avenue,99205,47.6846294,-117.4452264
1762,West Five Mile Road,99205,47.7175763,-117.4370710
975,East North Foothills Drive,99207,47.6843142,-117.3954583
204,East Ermina Avenue,99207,47.6768083,-117.4075759
412,East Ermina Avenue,99207,47.6769317,-117.4040633
2927,East Indiana Avenue,99207,47.6747856,-117.3670968
2925,East Indiana Avenue,99207,47.6747800,-117.3672991
1110,East Cozza Drive,99208,47.7228605,-117.3926766
322,East Francis Avenue;E Francis Ave,99208,47.7146506,-117.4050223
7407,North Division Street,99208,47.7255308,-117.4121775
8917,North Indian Trail Road,99208-9157,47.7396762,-117.4860466
10223,North Wieber Drive,99208,47.7518130,-117.4755215
10215,North Wieber Drive,99208,47.7520659,-117.4756835
10217,North Wieber Drive,99208,47.7523379,-117.4758799
10227,North Wieber Drive,99208,47.7525640,-117.4761692
10231,North Wieber Drive,99208,47.7526603,-117.4764380
10231,North Wieber Drive,99208,47.7527620,-117.4767338
10303,North Wieber Drive,99208,47.7528826,-117.4771770
10323,North Wieber Drive,99208,47.7534211,-117.4783851
10327,North Wieber Drive,99208,47.7535957,-117.4786414
10405,North Wieber Drive,99208,47.7537394,-117.4788741
10409,North Wieber Drive,99208,47.7539279,-117.4791545
10415,North Wieber Drive,99208,47.7541285,-117.4793239
10507,North Wieber Drive,99208,47.7543651,-117.4795479
1821,North Hamilton Street,99207,47.6744584,-117.3967861
402,South Pittsburg Street,99202,47.6523574,-117.3851072
1310,West 6th Avenue,99204,47.6506253,-117.4317085
115,West Eagle Ridge Boulevard,99224,47.5982843,-117.4124725
2208,West Aimee Court,99208,47.7294514,-117.4455435
825,West Garland Avenue,99205,47.6933099,-117.4243056
3421,North Market,99207,47.6887721,-117.3655831
2207,North Hamilton Street,99207,47.6786213,-117.3970331
2316,West 1st Avenue,99201,47.6570536,-117.4455438
1325,East Princeton Avenue,99207,47.6993785,-117.3901179
4001,North Cook Street,99207,47.6946574,-117.3747383
2716,West Northwest Boulevard,99205,47.6865427,-117.4514778
3814,West Heroy Avenue,99205,47.6983568,-117.4674910
1824,West Mansfield Avenue,99205,47.6779946,-117.4395126
1504,West Nora Avenue,99205,47.6742221,-117.4343445
1503,West Indiana Avenue,99205,47.6747012,-117.4343253
1811,North Walnut Street,99205,47.6744386,-117.4342860
1604,West Dean Avenue,99201,47.6664801,-117.4357873
6550,Division Street,99208,47.7173000,-117.4107655
7422,North Hamilton Street,99208,47.7249779,-117.3986721
2618,North Magnolia Street,99207,47.6819985,-117.3831024
2623,North Magnolia Street,99207,47.6821295,-117.3836891
2608,North Magnolia Street,99207,47.6816969,-117.3830617
2604,North Magnolia Street,99207,47.6815622,-117.3830525
2607,North Magnolia Street,99207,47.6817174,-117.3836706
2612,North Magnolia Street,99207,47.6818341,-117.3830784
2611,North Magnolia Street,99207,47.6818471,-117.3837200
2617,North Magnolia Street,99207,47.6819752,-117.3837015
2603,North Magnolia Street,99207,47.6815758,-117.3836945
2622,North Magnolia Street,99207,47.6821045,-117.3830740
927,South Perry Street,99202,47.6465305,-117.3896332
1620,North Rebecca Street,99217,47.6741609,-117.3499326
2219,East 48th Avenue,99223,47.6107837,-117.3775808
508,West 29th Avenue,99203,47.6284402,-117.4197299
431,West 28th Avenue,99203,47.6289000,-117.4183013
424,West 29th Avenue,99203,47.6284253,-117.4189657
533,West 28th Avenue,99203,47.6289066,-117.4205364
517,West 28th Avenue,99203,47.6288964,-117.4199369
516,West 29th Avenue,99203,47.6284383,-117.4201537
512,West 29th Avenue,99203,47.6284231,-117.4199636
443,West 28th Avenue,99203,47.6288905,-117.4187134
511,West 28th Avenue,99203,47.6289010,-117.4197264
427,West 28th Avenue,99203,47.6289122,-117.4181145
447,West 28th Avenue,99203,47.6289003,-117.4189128
521,West 28th Avenue,99203,47.6289038,-117.4201287
437,West 28th Avenue,99203,47.6288771,-117.4185195
417,West 28th Avenue,99203,47.6288978,-117.4177179
324,West 29th Avenue,99203,47.6284497,-117.4178935
407,West 28th Avenue,99203,47.6288963,-117.4172921
403,West 28th Avenue,99203,47.6288759,-117.4170775
529,West 28th Avenue,99203,47.6289035,-117.4203416
507,West 28th Avenue,99203,47.6289118,-117.4195295
2822,South Bernard Street,99203,47.6284619,-117.4170863
312,West 29th Avenue,99203,47.6283952,-117.4174986
411,West 28th Avenue,99203,47.6288721,-117.4174971
414,West 29th Avenue,99203,47.6284194,-117.4185274
503,West 28th Avenue,99203,47.6288838,-117.4193250
404,West 29th Avenue,99203,47.6284213,-117.4180949
423,West 28th Avenue,99203,47.6288980,-117.4179096
502,West 29th Avenue,99203,47.6284378,-117.4195331
308,West 29th Avenue,99203,47.6284217,-117.4173122
2825,South Howard Street,99203,47.6284527,-117.4204493
318,West 29th Avenue,99203,47.6284287,-117.4177071
453,West 28th Avenue,99203,47.6288899,-117.4191326
418,West 29th Avenue,99203,47.6284268,-117.4187424
410,West 29th Avenue,99203,47.6284062,-117.4183330
434,West 29th Avenue,99203,47.6284257,-117.4193296
2016,South Tekoa Street,99203,47.6357447,-117.4111357
2022,South Tekoa Street,99203,47.6354780,-117.4107218
2112,South Tekoa Street,99203,47.6350010,-117.4107458
1026,East Newark Avenue,99202,47.6491298,-117.3941562
1020,South Perry Street,99202,47.6458425,-117.3901895
916,South Hatch Street,99202,47.6465704,-117.4008641
1035,West 11th Avenue,99204,47.6451710,-117.4270741
675,South McClellan Street,99204,47.6497636,-117.4141965
1403,South Assembly Road,99224,47.6434910,-117.4751222
1403,South Assembly Road,99224,47.6424411,-117.4751752
1403,South Assembly Road,99224,47.6427211,-117.4749168
1403,South Assembly Road,99224,47.6430506,-117.4743655
302,West Auburn Crest Court,99224,47.5934320,-117.4157721
6419,Verona Lane,99223,47.5952917,-117.3950308
1307,East Blackwood Lane,99223,47.6007187,-117.3937317
1411,East Blackwood Lane,99223,47.6000326,-117.3912522
1314,East Blackwood Lane,99223,47.6002043,-117.3932414
1214,East Welden Drive,99223,47.6000248,-117.3947592
1406,East Blackwood Lane,99223,47.5998040,-117.3917663
1529,East Blackwood Lane,99223,47.5987758,-117.3893269
1417,East Welden Drive,99223,47.5992004,-117.3914495
1407,East Welden Drive,99223,47.5992846,-117.3918851
1430,East Welden Drive,99223,47.5990637,-117.3904279
1303,East Blackwood Lane,99223,47.6008319,-117.3940955
6416,Verona Lane,99223,47.5958816,-117.3941730
1426,East Welden Drive,99223,47.5988114,-117.3906704
1523,East Blackwood Lane,99223,47.5990979,-117.3893921
1410,East Welden Drive,99223,47.5988597,-117.3917553
1406,East Welden Drive,99223,47.5989354,-117.3921319
1323,East Blackwood Lane,99223,47.6003191,-117.3923248
1419,East Blackwood Lane,99223,47.5998250,-117.3904906
1415,East Blackwood Lane,99223,47.5999577,-117.3908809
1306,East Welden Drive,99223,47.5996569,-117.3934546
1314,East Welden Drive,99223,47.5992567,-117.3929057
6015,South Welden Court,99223,47.5987956,-117.3937670
1422,East Welden Drive,99223,47.5988469,-117.3910717
5910,South Blackwood Court,99223,47.6014968,-117.3947486
1218,East Welden Drive,99223,47.5999175,-117.3944269
5904,South Blackwood Court,99223,47.6010088,-117.3928348
1319,East Blackwood Lane,99223,47.6004296,-117.3926671
1302,East Welden Drive,99223,47.5997406,-117.3937923
6011,South Welden Court,99223,47.5988072,-117.3927911
1515,East Blackwood Lane,99223,47.5993571,-117.3895868
6216,Verona Court,99223,47.5974401,-117.3923780
1222,East Welden Drive,99223,47.5997980,-117.3941202
1310,East Welden Drive,99223,47.5995336,-117.3931769
1206,East Welden Drive,99223,47.6005385,-117.3950489
5916,South Blackwood Court,99223,47.6009792,-117.3950646
1311,East Welden Drive,99223,47.5999039,-117.3929877
1315,East Blackwood Lane,99223,47.6005112,-117.3930452
1407,East Blackwood Lane,99223,47.6001494,-117.3915910
1306,East Blackwood Lane,99223,47.6004213,-117.3939745
1507,East Blackwood Lane,99223,47.5995804,-117.3898647
1410,East Blackwood Lane,99223,47.5996792,-117.3913290
1402,East Welden Drive,99223,47.5990498,-117.3924968
1311,East Blackwood Lane,99223,47.6006272,-117.3933960
1418,East Welden Drive,99223,47.5988476,-117.3914195
1434,East Welden Drive,99223,47.5993818,-117.3904420
1425,East Welden Drive,99223,47.5992503,-117.3910077
1403,East Welden Drive,99223,47.5994498,-117.3923133
1310,East Blackwood Lane,99223,47.6003067,-117.3936056
1315,East Welden Drive,99223,47.5997018,-117.3926769
1403,East Blackwood Lane,99223,47.6002487,-117.3919701
1414,East Blackwood Lane,99223,47.5995832,-117.3909702
1302,East Blackwood Lane,99223,47.6005145,-117.3943575
1210,East Welden Drive,99223,47.6002391,-117.3950400
840,East Spokane Falls Boulevard,99202,47.6613582,-117.3972632
19,West Main Avenue,99201,47.6587567,-117.4119964
2404,West Longfellow Avenue,99205,47.6979010,-117.4443974
1615,West Five Mile Road,99208,47.7167041,-117.4357500
3131,South Cook Street,99223,47.6259419,-117.3731711
3121,East 37th Avenue,99223,47.6213752,-117.3651366
7411,North Nevada Street,99208,47.7247941,-117.3970221
6930,North Nevada Street,99208,47.7209881,-117.3946584
1732,South Inland Empire Way,99224,47.6381760,-117.4414628
3409,East 34th Avenue,99223,47.6241221,-117.3600212
3231,West Boone Avenue,99201,47.6712670,-117.4577112
922,South Cowley Street,99202,47.6466611,-117.4085513
306,West Auburn Crest Court,99224,47.5936115,-117.4159858
310,West Auburn Crest Court,99224,47.5936447,-117.4162530
314,West Auburn Crest Court,99224,47.5935937,-117.4165036
318,West Auburn Crest Court,99224,47.5936318,-117.4167445
404,West Auburn Crest Court,99224,47.5936794,-117.4169890
408,West Auburn Crest Court,99224,47.5937045,-117.4172300
412,West Auburn Crest Court,99224,47.5937424,-117.4174637
416,West Auburn Crest Court,99224,47.5937764,-117.4177094
502,West Auburn Crest Court,99224,47.5938201,-117.4180762
506,West Auburn Crest Court,99224,47.5938120,-117.4183375
510,West Auburn Crest Court,99224,47.5937368,-117.4186108
514,West Auburn Crest Court,99224,47.5936576,-117.4188518
518,West Auburn Crest Court,99224,47.5935614,-117.4190483
501,West Auburn Crest Court,99224,47.5933998,-117.4181397
415,West Auburn Crest Court,99224,47.5933455,-117.4178244
411,West Auburn Crest Court,99224,47.5933269,-117.4175571
407,West Auburn Crest Court,99224,47.5932857,-117.4172827
403,West Auburn Crest Court,99224,47.5932615,-117.4170010
315,West Auburn Crest Court,99224,47.5932009,-117.4167385
311,West Auburn Crest Court,99224,47.5931807,-117.4164736
307,West Auburn Crest Court,99224,47.5930837,-117.4162231
303,West Auburn Crest Court,99224,47.5931184,-117.4159749
255,East Hoerner Street,99218,47.7426446,-117.4071574
3305,West Whistalks Way,99224,47.6749687,-117.4614640
206,West Riverside Avenue,99201,47.6583080,-117.4138673
922,South Cowley Street,99202,47.6466580,-117.4085916
522,West Riverside Avenue,99201,47.6582556,-117.4207563
518,West Riverside Avenue,99201,47.6582708,-117.4205179
117,North Howard Street,99201,47.6585442,-117.4213716
120,North Wall Street,99201,47.6585810,-117.4217278
228,North Howard Street,99201,47.6598856,-117.4207361
4750,North Division Street,99207,47.7024976,-117.4101405
6412,Verona Lane,99223,47.5956066,-117.3943713
515,West Sprague Avenue,99201,47.6569004,-117.4200853
2667,North Hamilton Street,99207,47.6829886,-117.3977747
2667,North Hamilton Street,99207,47.6830057,-117.3972093
3002,East Mission Avenue,99202,47.6716428,-117.3662068
705,West 1st Avenue,99201,47.6562599,-117.4224397
7,South Howard Street,99201,47.6569001,-117.4207194
1020,South Perry Street,99202,47.6457785,-117.3901659
926,West Sprague Avenue,99201,47.6574136,-117.4262087
501,West Sprague Avenue,99201,47.6569920,-117.4199106
1012,South Perry Street,99202,47.6460136,-117.3901747
9233,North Nevada Street,99218,47.7407890,-117.3968995
211,North Division Street,99201,47.6594554,-117.4113964
402,West Sprague Avenue,99201,47.6574444,-117.4183213
245,West Spokane Falls Boulevard,99201,47.6598420,-117.4152380
244,West Main Avenue,99201,47.6594109,-117.4152330
4327,North Ash Street,99205,47.6984062,-117.4371630
1622,East Wellesley Avenue,99207,47.6996764,-117.3861470
1428,West Broadway Avenue,99201,47.6646267,-117.4336455
10,East 3rd Avenue,99202,47.6530924,-117.4106066
101,West 8th Avenue,99204,47.6483995,-117.4124365
123,East 37th Avenue,99203,47.6216687,-117.4094876
3717,North Milton Street,99205,47.6922048,-117.4532678
2917,North Cincinnati Street,99207,47.6851548,-117.3987295
904,West Riverside Avenue,99201,47.6584945,-117.4254038
3600,East Hartson Avenue,99202,47.6493842,-117.3566735
2929,Waterford Drive,99223,47.6268725,-117.3830514
1801,East 29th Avenue,99203,47.6287611,-117.3837599
911,West 25th Avenue,99203,47.6313095,-117.4257686
118,East Desmet Avenue,99202,47.6667415,-117.4083299
3754,West Indian Trail Road,99208,47.7240897,-117.4668355
711,South Cowley Street,99202,47.6500362,-117.4063339
800,West 5th Avenue,99204,47.6508899,-117.4252982
322,North Spokane Falls Court,99201,47.6610888,-117.4139961
574,North Howard Street,99201,47.6626195,-117.4192989
1002,West Riverside Avenue,99201,47.6590671,-117.4271958
2026,South Lincoln Street,99203,47.6356893,-117.4253492
