House number,Street name,Postal code,Latitude,Longitude
104,Enterprise Drive,68028,41.1459471,-96.2382139
700,South Highway 6,68028,41.1339050,-96.2484320
826,Village Square,68028,41.1457402,-96.2399707
508,West Angus Road,68028,41.1400110,-96.2440740
11457,South 204th Street,68028,41.1406941,-96.2336389
11204,South 204th Street,68028,41.1459862,-96.2353637
321,South Highway 6,68028,41.1364840,-96.2411696
11350,Wickersham Boulevard,68028,41.1429078,-96.1658276
15010,State Highway 31,68028,41.0918655,-96.2546087
21355,Nebraska Crossing Drive,68028,41.0987084,-96.2503666
12150,South 216th Plaza,68028,41.1272938,-96.2538649
11820,Standing Stone Drive,68028,41.1323859,-96.2495154
204,North McKenna Avenue,68028,41.1407281,-96.2479520
20725,East Angus Road,68028,41.1387885,-96.2364208
102,West Gruenther Road,68028,41.1472938,-96.2396034
11504,Willow Park Drive,68028,41.1388294,-96.2388015
11791,South Highway 6,68028,41.1330563,-96.2482519
11310,Wickersham Boulevard,68028,41.1452231,-96.1618498
11808,Standing Stone Drive,68028,41.1323670,-96.2483117
11832,Standing Stone Drive,68028,41.1320220,-96.2495445
12140,South 216th Plaza,68028,41.1278597,-96.2538256
11849,South 216th Street,68028,41.1312957,-96.2529876
112,South McKenna Avenue,68028,41.1393141,-96.2479799
115,North McKenna Avenue,68028,41.1401917,-96.2483375
117,North McKenna Avenue,68028,41.1402806,-96.2483415
119,North McKenna Avenue,68028,41.1403518,-96.2483388
106,North McKenna Avenue,68028,41.1398994,-96.2479906
105,North McKenna Avenue,68028,41.1398645,-96.2483496
112,North McKenna Avenue,68028,41.1400726,-96.2479854
608,West Angus Road,68028,41.1397350,-96.2473276
103,South McKenna Avenue,68028,41.1394378,-96.2483286
120,North McKenna Avenue,68028,41.1403470,-96.2479881
112,South McKenna Avenue,68028,41.1391919,-96.2479813
101,South McKenna Avenue,68028,41.1395181,-96.2485077
118,North McKenna Avenue,68028,41.1402612,-96.2479854
817,Village Square,68028,41.1458764,-96.2394150
20635,Highway 370,68028,41.1463684,-96.2383926
108,East Glenmore Drive,68028,41.1452126,-96.2380647
20332,Hackberry Drive,68028,41.1440917,-96.2334093
610,North Highway 6,68028,41.1440780,-96.2386183
623,North Highway 6,68028,41.1446377,-96.2395617
611,North Highway 6,68028,41.1440767,-96.2395694
602,North Highway 6,68028,41.1437185,-96.2386934
16116,Stevens Point Street,68028,41.1446342,-96.1628052
16171,Stevens Point Street,68028,41.1446268,-96.1644392
21214,Schofield Drive,68028,41.1495354,-96.2490897
11504,Willow Park Drive,68028,41.1389200,-96.2388566
11532,Willow Park Drive,68028,41.1382372,-96.2394340
11832,Standing Stone Drive,68028,41.1317961,-96.2496626
11820,Standing Stone Drive,68028,41.1324616,-96.2494878
11350,Wickersham Boulevard,68028,41.1433716,-96.1657368
21209,Nebraska Crossing Drive,68028,41.0990527,-96.2484837
801,South Street,68028,41.1352542,-96.2493015
11705,South 216th Street,68028,41.1341538,-96.2512536
11856,Standing Stone Drive,68028,41.1309266,-96.2508432
11910,Standing Stone Drive,68028,41.1302710,-96.2511604
11922,Standing Stone Drive,68028,41.1296985,-96.2515576
11946,Standing Stone Drive,68028,41.1293392,-96.2520545
9407,South 145th Street,68138,41.1660674,-96.1396040
16175,Stevens Pointe,68028,41.1448081,-96.1653551
11310,Wickersham Boulevard,68028,41.1438345,-96.1631955
215,Enterprise Drive,68028,41.1463112,-96.2360376
11814,South 211th Street,68028,41.1316883,-96.2456180
11832,South 210th Circle,68028,41.1317397,-96.2447072
20906,Ash Street,68028,41.1348162,-96.2414548
11810,South 211th Street,68028,41.1318751,-96.2457458
11726,South 211th Street,68028,41.1333911,-96.2455756
11602,South 207th Street,68028,41.1368875,-96.2379262
11725,South 209th Street,68028,41.1333973,-96.2403200
20621,Frances Street,68028,41.1362646,-96.2371096
11815,South 210th Street,68028,41.1319059,-96.2440526
20924,Birch Street,68028,41.1339455,-96.2422251
11662,Willow Park Drive,68028,41.1350197,-96.2401228
11773,South Highway 6,68028,41.1325223,-96.2477893
20922,Ash Street,68028,41.1348239,-96.2423644
20930,Birch Street,68028,41.1339639,-96.2426993
20825,Oak Street,68028,41.1326226,-96.2403314
11844,Standing Stone Drive,68028,41.1314497,-96.2500933
20901,Oak Street,68028,41.1326205,-96.2408255
11733,South 209th Street,68028,41.1330236,-96.2403057
20913,Ash Street,68028,41.1344071,-96.2419206
11580,Willow Park Drive,68028,41.1376041,-96.2399969
20813,Oak Street,68028,41.1325803,-96.2396456
11669,South 209th Street,68028,41.1346850,-96.2406907
11713,South 209th Street,68028,41.1339866,-96.2404904
20925,Ash Street,68028,41.1344002,-96.2426593
20902,Ash Street,68028,41.1348305,-96.2412255
431,South Highway 6,68028,41.1358476,-96.2428776
11734,South 210th Street,68028,41.1326301,-96.2446480
11833,South 210th Circle,68028,41.1310900,-96.2446712
20929,Ash Street,68028,41.1343962,-96.2429003
20905,Ash Street,68028,41.1344022,-96.2414291
11702,Willow Park Drive,68028,41.1344665,-96.2400718
11810,South 210th Street,68028,41.1320911,-96.2446542
11730,South 210th Street,68028,41.1328106,-96.2446514
11665,South 209th Street,68028,41.1348581,-96.2407087
11664,South 209th Avenue,68028,41.1348078,-96.2433042
20912,Birch Street,68028,41.1339366,-96.2415134
11705,South 209th Street,68028,41.1343349,-96.2406121
11827,South 210th Circle,68028,41.1313589,-96.2440136
11734,South 211th Street,68028,41.1330089,-96.2457533
11818,South 211th Street,68028,41.1315568,-96.2454117
11829,South 210th Circle,68028,41.1312519,-96.2448433
11738,South 210th Street,68028,41.1324500,-96.2446556
11830,South 203rd Circle,68028,41.1319780,-96.2334431
321,South Highway 6,68028,41.1364265,-96.2410673
11807,South 210th Street,68028,41.1322625,-96.2440696
11819,South 210th Street,68028,41.1317316,-96.2440907
11727,South 210th Street,68028,41.1331919,-96.2440763
11826,South 211th Street,68028,41.1313517,-96.2450368
11802,South 211th Street,68028,41.1322569,-96.2457749
428,Bryan Circle,68028,41.1352031,-96.2429848
425,Bryan Circle,68028,41.1352313,-96.2440389
11739,South 211th Street,68028,41.1326292,-96.2452168
11731,South 210th Street,68028,41.1330184,-96.2440776
11723,South 210th Street,68028,41.1333849,-96.2441018
11808,Standing Stone Drive,68028,41.1324839,-96.2485220
11667,Willow Park Drive,68028,41.1348174,-96.2393511
420,Bryan Circle,68028,41.1356101,-96.2429519
11806,South 211th Street,68028,41.1320784,-96.2457641
11735,South 211th Street,68028,41.1328092,-96.2452168
11710,Willow Park Drive,68028,41.1341259,-96.2399167
11811,South 210th Street,68028,41.1320856,-96.2440588
11723,South 211th Street,68028,41.1332252,-96.2449627
20925,Oak Street,68028,41.1326088,-96.2422066
11595,South 207th Street,68028,41.1372505,-96.2374176
20717,Frances Street,68028,41.1362801,-96.2386142
20930,Ash Street,68028,41.1348076,-96.2428166
11671,Willow Park Drive,68028,41.1347462,-96.2395915
20933,Oak Street,68028,41.1326076,-96.2426718
11710,South 209th Avenue,68028,41.1341104,-96.2434403
20907,Birch Street,68028,41.1335073,-96.2410974
20922,Maple Circle,68028,41.1356941,-96.2421724
20719,Locust Street,68028,41.1371068,-96.2386291
20917,Ash Street,68028,41.1343922,-96.2421667
20919,Birch Street,68028,41.1335038,-96.2417748
11739,South 210th Street,68028,41.1324415,-96.2440929
20817,Oak Street,68028,41.1326400,-96.2398778
11721,South 209th Street,68028,41.1335837,-96.2403322
20714,Locust Street,68028,41.1375590,-96.2381959
20821,Oak Street,68028,41.1326380,-96.2401060
20901,Ash Street,68028,41.1344241,-96.2411676
20811,Oak Street,68028,41.1325922,-96.2393837
11706,South 209th Avenue,68028,41.1342834,-96.2434400
20947,Birch Street,68028,41.1335079,-96.2433789
11735,South 210th Street,68028,41.1326289,-96.2440929
20803,Locust Street,68028,41.1371811,-96.2391269
20936,Birch Street,68028,41.1339530,-96.2429436
20722,Locust Street,68028,41.1375862,-96.2387063
20911,Birch Street,68028,41.1335031,-96.2413186
20904,Birch Street,68028,41.1339361,-96.2410339
20918,Maple Circle,68028,41.1357525,-96.2419153
20909,Ash Street,68028,41.1343930,-96.2416741
20938,Oak Street,68028,41.1330061,-96.2429086
20812,Frances Street,68028,41.1366977,-96.2396027
11729,Willow Park Drive,68028,41.1333015,-96.2392634
11822,South 211th Street,68028,41.1314553,-96.2452250
11722,Willow Park Drive,68028,41.1334963,-96.2397996
20710,Cedar Circle,68028,41.1385406,-96.2381752
11643,Willow Park Drive,68028,41.1357471,-96.2395572
20905,Oak Street,68028,41.1326120,-96.2410651
20919,Maple Circle,68028,41.1353204,-96.2421737
11718,South 211th Street,68028,41.1336313,-96.2451842
11702,South 209th Avenue,68028,41.1344558,-96.2434358
11654,Willow Park Drive,68028,41.1353825,-96.2401067
11706,Willow Park Drive,68028,41.1342946,-96.2399832
11729,South 211th Street,68028,41.1330264,-96.2451905
11658,Willow Park Drive,68028,41.1352015,-96.2401067
20946,Oak Street,68028,41.1330051,-96.2433637
20915,Birch Street,68028,41.1335033,-96.2415470
20822,Maple Street,68028,41.1357582,-96.2403219
20914,Maple Circle,68028,41.1357053,-96.2416846
20702,Cedar Circle,68028,41.1382406,-96.2378402
20903,Maple Circle,68028,41.1353091,-96.2412146
20934,Oak Street,68028,41.1330075,-96.2426743
20907,Maple Circle,68028,41.1353062,-96.2414633
20930,Oak Street,68028,41.1330076,-96.2424443
11742,South 211th Street,68028,41.1324431,-96.2457733
11733,Willow Park Drive,68028,41.1331259,-96.2392634
11718,Willow Park Drive,68028,41.1336968,-96.2398008
20808,Locust Street,68028,41.1377461,-96.2392031
20625,Frances Street,68028,41.1362792,-96.2373377
20921,Maple Circle,68028,41.1355155,-96.2422540
20910,Oak Street,68028,41.1330339,-96.2412896
20923,Birch Street,68028,41.1335038,-96.2420058
20705,Frances Street,68028,41.1362817,-96.2378965
20902,Maple Circle,68028,41.1356798,-96.2409985
20713,Cedar Circle,68028,41.1382525,-96.2387298
20942,Oak Street,68028,41.1330059,-96.2431384
20939,Birch Street,68028,41.1335326,-96.2429248
11730,Willow Park Drive,68028,41.1331122,-96.2397984
20720,Frances Street,68028,41.1366989,-96.2388508
20710,Locust Street,68028,41.1376209,-96.2379278
20820,Maple Street,68028,41.1357584,-96.2400968
11807,South 211th Street,68028,41.1320481,-96.2452069
20711,Locust Street,68028,41.1370693,-96.2381103
20914,Ash Street,68028,41.1348308,-96.2419108
20911,Maple Circle,68028,41.1353129,-96.2416865
11606,South 207th Street,68028,41.1366899,-96.2379100
20808,Frances Street,68028,41.1366986,-96.2393440
11726,South 210th Street,68028,41.1329919,-96.2446340
11806,South 210th Street,68028,41.1322715,-96.2446342
20927,Birch Street,68028,41.1335070,-96.2422374
20811,Locust Street,68028,41.1373504,-96.2395527
11726,Willow Park Drive,68028,41.1332964,-96.2397983
20709,Frances Street,68028,41.1362809,-96.2381217
20910,Maple Circle,68028,41.1356957,-96.2414558
20922,Oak Street,68028,41.1330337,-96.2419765
20830,Maple Street,68028,41.1357513,-96.2407764
11661,South 209th Street,68028,41.1350321,-96.2406903
20906,Maple Circle,68028,41.1356957,-96.2412453
11666,Willow Park Drive,68028,41.1348366,-96.2401066
11757,South Highway 6,68028,41.1328554,-96.2474123
11670,Willow Park Drive,68028,41.1346525,-96.2400881
11743,South 211th Street,68028,41.1324498,-96.2451917
11709,South 209th Street,68028,41.1341655,-96.2405382
20807,Frances Street,68028,41.1362556,-96.2393542
20943,Birch Street,68028,41.1335322,-96.2431529
20804,Frances Street,68028,41.1366988,-96.2390975
11712,South 210th Street,68028,41.1333210,-96.2447056
20920,Birch Street,68028,41.1339242,-96.2419866
20902,Oak Street,68028,41.1330354,-96.2408270
11819,South 211th Street,68028,41.1318423,-96.2449666
20712,Frances Street,68028,41.1366735,-96.2383538
20908,Birch Street,68028,41.1339247,-96.2412732
20721,Frances Street,68028,41.1362565,-96.2388608
405,South Highway 6,68028,41.1362294,-96.2425464
20826,Maple Street,68028,41.1357578,-96.2405506
20811,Frances Street,68028,41.1362561,-96.2395943
20713,Frances Street,68028,41.1362813,-96.2383682
11660,South 209th Avenue,68028,41.1348213,-96.2430444
20917,Oak Street,68028,41.1326098,-96.2417487
20915,Maple Circle,68028,41.1352680,-96.2419259
20705,Cedar Circle,68028,41.1380083,-96.2383388
20928,Birch Street,68028,41.1339389,-96.2424600
11709,Willow Park Drive,68028,41.1342519,-96.2394057
11601,South 207th Street,68028,41.1368700,-96.2373272
11835,South 210th Circle,68028,41.1310429,-96.2443892
20903,Birch Street,68028,41.1335198,-96.2408596
20931,Birch Street,68028,41.1335156,-96.2424683
20935,Birch Street,68028,41.1335240,-96.2426957
11721,Willow Park Drive,68028,41.1336520,-96.2392637
11668,South 209th Avenue,68028,41.1346372,-96.2434519
20941,Oak Street,68028,41.1326095,-96.2431342
20921,Ash Street,68028,41.1343942,-96.2424127
11657,South 209th Street,68028,41.1352076,-96.2407132
20909,Oak Street,68028,41.1326198,-96.2412926
11714,South 211th Street,68028,41.1337121,-96.2449603
20723,Locust Street,68028,41.1371322,-96.2388770
20706,Locust Street,68028,41.1376083,-96.2376704
11717,Willow Park Drive,68028,41.1338212,-96.2392660
11812,Standing Stone Drive,68028,41.1321222,-96.2489240
11588,Willow Park Drive,68028,41.1372257,-96.2401427
11729,South 209th Street,68028,41.1332024,-96.2403006
20807,Oak Street,68028,41.1327741,-96.2392124
20709,Cedar Circle,68028,41.1381312,-96.2385551
20701,Cedar Circle,68028,41.1380269,-96.2380251
20706,Cedar Circle,68028,41.1384481,-96.2379533
11639,Willow Park Drive,68028,41.1359201,-96.2395599
20910,Ash Street,68028,41.1348139,-96.2416826
11803,South 211th Street,68028,41.1322726,-96.2451938
20914,Oak Street,68028,41.1330169,-96.2415176
20715,Locust Street,68028,41.1370999,-96.2383859
20906,Oak Street,68028,41.1330320,-96.2410608
11701,South 209th Street,68028,41.1345048,-96.2406507
11605,South 207th Street,68028,41.1366837,-96.2373151
11714,South 209th Avenue,68028,41.1339452,-96.2434564
11584,Willow Park Drive,68028,41.1374139,-96.2400906
20804,Locust Street,68028,41.1376357,-96.2389675
20918,Ash Street,68028,41.1348283,-96.2421391
20916,Birch Street,68028,41.1339235,-96.2417495
20926,Oak Street,68028,41.1330223,-96.2422081
11730,South 211th Street,68028,41.1332063,-96.2456997
20714,Cedar Circle,68028,41.1386121,-96.2384112
20803,Frances Street,68028,41.1362587,-96.2391078
20918,Oak Street,68028,41.1330305,-96.2417466
20913,Oak Street,68028,41.1326136,-96.2415199
20807,Locust Street,68028,41.1372612,-96.2393513
20921,Oak Street,68028,41.1326124,-96.2419736
20803,Oak Street,68028,41.1329660,-96.2392265
20926,Ash Street,68028,41.1348203,-96.2425943
11653,South 209th Street,68028,41.1353661,-96.2406658
11647,Willow Park Drive,68028,41.1355750,-96.2395606
11715,South 210th Street,68028,41.1337099,-96.2444320
11719,South 210th Street,68028,41.1335582,-96.2442415
11738,South 211th Street,68028,41.1328185,-96.2457827
11725,Willow Park Drive,68028,41.1334766,-96.2392746
11722,South 211th Street,68028,41.1335252,-96.2453814
11663,Willow Park Drive,68028,41.1350078,-96.2392518
20937,Oak Street,68028,41.1326105,-96.2429053
20702,Locust Street,68028,41.1374426,-96.2374466
11597,South 207th Street,68028,41.1370546,-96.2373565
11705,Willow Park Drive,68028,41.1344232,-96.2394767
11823,South 210th Circle,68028,41.1315495,-96.2441018
11711,South 210th Street,68028,41.1337409,-96.2447027
20929,Oak Street,68028,41.1326110,-96.2424388
11655,Willow Park Drive,68028,41.1352797,-96.2396087
20718,Locust Street,68028,41.1375642,-96.2384490
20945,Oak Street,68028,41.1326086,-96.2433651
20716,Frances Street,68028,41.1366847,-96.2386061
11659,Willow Park Drive,68028,41.1351971,-96.2393642
11831,South 210th Circle,68028,41.1311503,-96.2441171
11818,South 216th Street,68028,41.1317227,-96.2538173
11849,South 216th Street,68028,41.1313097,-96.2530571
11863,South 216th Street,68028,41.1304673,-96.2529956
11855,South 216th Street,68028,41.1310041,-96.2527612
11745,South Highway 6,68028,41.1333767,-96.2475635
11791,South Highway 6,68028,41.1330895,-96.2482711
11804,South 213th Street,68028,41.1319126,-96.2479905
11805,South 213th Street,68028,41.1320758,-96.2474070
11808,South 213th Street,68028,41.1317180,-96.2479374
11809,South 213th Street,68028,41.1318940,-96.2473317
11812,South 213th Street,68028,41.1315184,-96.2479368
11813,South 213th Street,68028,41.1316927,-96.2473155
11817,South 213th Street,68028,41.1315005,-96.2473394
12140,South 216th Plaza,68028,41.1278607,-96.2539548
12150,South 216th Plaza,68028,41.1273889,-96.2538689
21101,Flagstone Circle,68028,41.1310046,-96.2461225
21105,Flagstone Circle,68028,41.1309072,-96.2459229
21109,Flagstone Circle,68028,41.1307197,-96.2457728
21110,Flagstone Circle,68028,41.1307642,-96.2466877
21113,Flagstone Circle,68028,41.1304925,-96.2458295
21117,Flagstone Circle,68028,41.1303642,-96.2460695
21121,Flagstone Circle,68028,41.1303662,-96.2463235
21201,Flagstone Drive,68028,41.1302850,-96.2465441
21204,Stonehaven Court,68028,41.1311614,-96.2462731
21205,Flagstone Drive,68028,41.1302545,-96.2467780
21205,Stonehaven Court,68028,41.1309393,-96.2468640
21206,Flagstone Drive,68028,41.1306487,-96.2471487
21208,Stonehaven Court,68028,41.1312640,-96.2464576
21209,Flagstone Drive,68028,41.1302285,-96.2470124
21209,Stonehaven Court,68028,41.1310603,-96.2470941
21210,Flagstone Drive,68028,41.1305972,-96.2473953
21212,Stonehaven Court,68028,41.1313917,-96.2466473
21213,Flagstone Drive,68028,41.1301894,-96.2472522
21213,Stonehaven Court,68028,41.1310814,-96.2473940
21214,Flagstone Drive,68028,41.1305748,-96.2476395
21216,Stonehaven Court,68028,41.1314782,-96.2468789
21303,Flagstone Drive,68028,41.1301746,-96.2478565
21304,Flagstone Drive,68028,41.1305828,-96.2478874
21305,Stonehaven Court,68028,41.1310897,-96.2476314
21307,Flagstone Drive,68028,41.1301733,-96.2480977
21308,Flagstone Drive,68028,41.1305773,-96.2481270
21309,Stonehaven Court,68028,41.1311068,-96.2478585
21310,Stonehaven Court,68028,41.1316008,-96.2483640
21311,Flagstone Drive,68028,41.1301883,-96.2483385
21312,Flagstone Drive,68028,41.1306031,-96.2483825
21313,Stonehaven Court,68028,41.1311265,-96.2481056
21314,Stonehaven Court,68028,41.1314688,-96.2486037
21315,Flagstone Drive,68028,41.1302220,-96.2485782
21317,Stonehaven Court,68028,41.1310531,-96.2483878
21318,Stonehaven Court,68028,41.1313732,-96.2488442
21319,Flagstone Drive,68028,41.1302681,-96.2488173
21321,Stonehaven Court,68028,41.1309159,-96.2486056
21322,Stonehaven Court,68028,41.1312559,-96.2490214
21323,Flagstone Drive,68028,41.1303181,-96.2490404
21326,Stonehaven Court,68028,41.1311120,-96.2491772
21404,Stonehaven Circle,68028,41.1309685,-96.2493276
21408,Stonehaven Circle,68028,41.1308465,-96.2495027
21411,Stonehaven Circle,68028,41.1307160,-96.2487610
21412,Stonehaven Circle,68028,41.1306411,-96.2496032
21416,Stonehaven Circle,68028,41.1304398,-96.2495149
21420,Stonehaven Circle,68028,41.1303340,-96.2492833
21345,Cobblestone Circle,68028,41.1263928,-96.2502453
21332,Blackstone Circle,68028,41.1282930,-96.2494951
11911,South 213th Avenue,68028,41.1285912,-96.2476757
12110,South 213th Avenue,68028,41.1270652,-96.2481265
21310,Castlerock Lane,68028,41.1294460,-96.2480474
21314,Castlerock Lane,68028,41.1294323,-96.2483513
21327,Quarry Lane,68028,41.1255148,-96.2497342
12111,South 213th Avenue,68028,41.1269466,-96.2475625
21307,Quarry Lane,68028,41.1255522,-96.2482841
21330,Cobblestone Circle,68028,41.1270329,-96.2493563
21331,Quarry Lane,68028,41.1255149,-96.2500084
11903,South 213th Avenue,68028,41.1290252,-96.2477789
21311,Quarry Lane,68028,41.1254128,-96.2486528
12210,South 214th Street,68028,41.1260743,-96.2510214
11915,South 214th Street,68028,41.1287185,-96.2502875
21323,Quarry Lane,68028,41.1255153,-96.2494589
21306,Castlerock Lane,68028,41.1292440,-96.2477833
21327,Blackstone Circle,68028,41.1277507,-96.2491835
12202,South 214th Street,68028,41.1264718,-96.2511336
21336,Blackstone Circle,68028,41.1281874,-96.2497709
11910,South 214th Street,68028,41.1291586,-96.2506978
21342,Castlerock Lane,68028,41.1297751,-96.2503191
21346,Cobblestone Circle,68028,41.1268403,-96.2503919
12113,South 214th Street,68028,41.1273359,-96.2506758
21401,Quarry Lane,68028,41.1254674,-96.2509426
21319,Blackstone Circle,68028,41.1277934,-96.2486461
21334,Quarry Lane,68028,41.1259404,-96.2503104
21335,Blackstone Circle,68028,41.1277549,-96.2497261
21315,Quarry Lane,68028,41.1255036,-96.2489122
21325,Castlerock Lane,68028,41.1290319,-96.2492180
11911,South 214th Street,68028,41.1289011,-96.2501848
12204,South 213th Avenue,68028,41.1265274,-96.2485339
12103,South 213th Avenue,68028,41.1273784,-96.2475335
21326,Cobblestone Circle,68028,41.1268340,-96.2491334
11907,South 213th Avenue,68028,41.1288220,-96.2477660
21333,Castlerock Lane,68028,41.1291487,-96.2497332
12006,South 214th Street,68028,41.1283463,-96.2510663
21339,Quarry Lane,68028,41.1254815,-96.2505549
21323,Blackstone Circle,68028,41.1277790,-96.2489189
21331,Blackstone Circle,68028,41.1276997,-96.2494409
12102,South 213th Avenue,68028,41.1274967,-96.2481365
12109,South 214th Street,68028,41.1275399,-96.2506284
21335,Quarry Lane,68028,41.1255134,-96.2502825
21324,Blackstone Circle,68028,41.1282292,-96.2489656
11908,South 213th Avenue,68028,41.1286637,-96.2483139
12001,South 214th Street,68028,41.1285256,-96.2503752
12205,South 213th Avenue,68028,41.1262002,-96.2481078
21312,Blackstone Circle,68028,41.1282990,-96.2481667
12108,South 214th Street,68028,41.1276520,-96.2512650
21326,Quarry Lane,68028,41.1259601,-96.2497748
21334,Castlerock Lane,68028,41.1296098,-96.2497207
12002,South 214th Street,68028,41.1285616,-96.2509757
12009,South 213th Avenue,68028,41.1277790,-96.2475113
21313,Castlerock Lane,68028,41.1288515,-96.2484074
21337,Cobblestone Circle,68028,41.1264513,-96.2497186
12106,South 213th Avenue,68028,41.1272881,-96.2481360
12128,South 214th Street,68028,41.1266569,-96.2512566
21405,Quarry Lane,68028,41.1256674,-96.2511688
12120,South 214th Street,68028,41.1270650,-96.2512883
21315,Blackstone Circle,68028,41.1278147,-96.2483830
12107,South 213th Avenue,68028,41.1271686,-96.2475419
21321,Castlerock Lane,68028,41.1289699,-96.2489605
21341,Cobblestone Circle,68028,41.1264267,-96.2499875
12124,South 214th Street,68028,41.1268620,-96.2512847
12114,South 213th Avenue,68028,41.1268703,-96.2482570
12112,South 214th Street,68028,41.1274525,-96.2512654
11915,South 213th Avenue,68028,41.1283979,-96.2475994
21339,Blackstone Circle,68028,41.1279645,-96.2499045
21322,Quarry Lane,68028,41.1259628,-96.2495129
12118,South 213th Avenue,68028,41.1266976,-96.2483903
21320,Blackstone Circle,68028,41.1282458,-96.2487102
12105,South 214th Street,68028,41.1277346,-96.2506059
21337,Castlerock Lane,68028,41.1291760,-96.2500088
21322,Castlerock Lane,68028,41.1294402,-96.2489122
12104,South 214th Street,68028,41.1278518,-96.2511881
21338,Castlerock Lane,68028,41.1297768,-96.2499735
21318,Quarry Lane,68028,41.1259666,-96.2492505
21311,Blackstone Circle,68028,41.1278333,-96.2481190
12209,South 213th Avenue,68028,41.1260047,-96.2482087
12119,South 213th Avenue,68028,41.1265527,-96.2478035
21317,Castlerock Lane,68028,41.1289402,-96.2486868
21326,Castlerock Lane,68028,41.1294874,-96.2491828
11914,South 214th Street,68028,41.1289633,-96.2508041
21333,Cobblestone Circle,68028,41.1264403,-96.2494459
21329,Castlerock Lane,68028,41.1290764,-96.2494818
21328,Blackstone Circle,68028,41.1282612,-96.2492310
21350,Cobblestone Circle,68028,41.1268026,-96.2506491
12116,South 214th Street,68028,41.1272724,-96.2512964
12201,South 213th Avenue,68028,41.1263773,-96.2479672
11906,South 214th Street,68028,41.1293472,-96.2506111
21342,Cobblestone Circle,68028,41.1268755,-96.2501319
12212,South 213th Avenue,68028,41.1261612,-96.2487761
11902,South 214th Street,68028,41.1295743,-96.2505649
11918,South 214th Street,68028,41.1287566,-96.2508849
21330,Quarry Lane,68028,41.1259590,-96.2500390
21334,Cobblestone Circle,68028,41.1270840,-96.2496559
21349,Cobblestone Circle,68028,41.1263539,-96.2504990
21330,Castlerock Lane,68028,41.1295621,-96.2494478
21314,Quarry Lane,68028,41.1259637,-96.2489626
12005,South 214th Street,68028,41.1283268,-96.2504425
12208,South 213th Avenue,68028,41.1263529,-96.2486935
12009,South 214th Street,68028,41.1281300,-96.2505029
21319,Quarry Lane,68028,41.1255130,-96.2491852
12115,South 213th Avenue,68028,41.1267254,-96.2476758
12214,South 214th Street,68028,41.1258734,-96.2511585
21338,Cobblestone Circle,68028,41.1269504,-96.2499050
12117,South 214th Street,68028,41.1271531,-96.2506826
12206,South 214th Street,68028,41.1262783,-96.2510545
21329,Cobblestone Circle,68028,41.1265832,-96.2491960
21303,Quarry Lane,68028,41.1257666,-96.2482068
12013,South 214th Street,68028,41.1279351,-96.2505426
20501,East Angus Road,68028,41.1392568,-96.2352807
20725,East Angus Road,68028,41.1389143,-96.2365541
20555,Frances Street,68028,41.1362526,-96.2353969
11594,South 206th Street,68028,41.1375197,-96.2358497
11607,South 206th Street,68028,41.1370859,-96.2356741
20473,Frances Street,68028,41.1362314,-96.2347137
11608,South 206th Street,68028,41.1372159,-96.2362045
20613,Frances Street,68028,41.1362690,-96.2358514
20443,Frances Street,68028,41.1362226,-96.2344903
11624,South 206th Street,68028,41.1366644,-96.2363809
11581,South 205th Street,68028,41.1375883,-96.2346632
11586,South 206th Street,68028,41.1376339,-96.2353739
20575,Frances Street,68028,41.1362588,-96.2356262
11616,South 206th Street,68028,41.1368426,-96.2363673
11593,South 205th Street,68028,41.1374153,-96.2345794
11612,South 206th Street,68028,41.1370315,-96.2363223
11638,South 206th Street,68028,41.1362888,-96.2363815
11616,South 205th Street,68028,41.1368978,-96.2351552
11615,South 206th Street,68028,41.1368945,-96.2358218
20525,Frances Street,68028,41.1362478,-96.2351714
11646,South 206th Street,68028,41.1361040,-96.2363700
11617,South 205th Street,68028,41.1368785,-96.2346747
11621,South 206th Street,68028,41.1366680,-96.2358381
11578,South 205th Street,68028,41.1376941,-96.2349033
11603,South 205th Street,68028,41.1372271,-96.2346357
11598,South 206th Street,68028,41.1373584,-96.2360411
11611,South 205th Street,68028,41.1370546,-96.2346443
11582,South 206th Street,68028,41.1376544,-96.2351491
11625,South 205th Street,68028,41.1367001,-96.2346295
11624,South 205th Street,68028,41.1366957,-96.2351808
20501,Frances Street,68028,41.1362580,-96.2349406
11590,South 206th Street,68028,41.1376011,-96.2356204
11583,South 206th Street,68028,41.1372001,-96.2351786
11587,South 206th Street,68028,41.1372243,-96.2354482
309,Sherwood Circle,68028,41.1366237,-96.2337725
11595,South 204th Street,68028,41.1372981,-96.2338332
426,Devonshire Drive,68028,41.1385767,-96.2309907
302,Bauman Circle,68028,41.1392942,-96.2325740
414,Brentwood Drive,68028,41.1389025,-96.2330118
434,Devonshire Drive,68028,41.1385419,-96.2304059
11575,South 204th Street,68028,41.1375221,-96.2338240
400,Brentwood Drive,68028,41.1380478,-96.2332138
410,Sherwood Drive,68028,41.1371229,-96.2325565
313,Sherwood Circle,68028,41.1363760,-96.2337772
425,Sherwood Drive,68028,41.1362056,-96.2322671
20116,Maple Street,68028,41.1358155,-96.2315348
426,Brentwood Drive,68028,41.1394582,-96.2318930
433,Brentwood Drive,68028,41.1389908,-96.2313690
413,Brentwood Drive,68028,41.1388127,-96.2322504
326,Bauman Circle,68028,41.1388890,-96.2335924
445,Brentwood Drive,68028,41.1390046,-96.2304458
19912,Maple Street,68028,41.1358097,-96.2278666
19802,Maple Street,68028,41.1358399,-96.2256417
437,Brentwood Drive,68028,41.1390081,-96.2310524
409,Devonshire Drive,68028,41.1378596,-96.2319510
217,Barrington Drive,68028,41.1369921,-96.2310647
442,Brentwood Drive,68028,41.1394709,-96.2307715
406,Brentwood Drive,68028,41.1383067,-96.2332191
20022,Maple Street,68028,41.1358087,-96.2301559
305,Sherwood Circle,68028,41.1367876,-96.2335106
11545,South 204th Street,68028,41.1385893,-96.2338452
441,Brentwood Drive,68028,41.1390093,-96.2307380
401,Brentwood Drive,68028,41.1381000,-96.2325638
410,Brentwood Drive,68028,41.1385784,-96.2331759
19814,Maple Street,68028,41.1358063,-96.2265025
19904,Maple Street,68028,41.1357988,-96.2273253
11565,South 204th Street,68028,41.1380501,-96.2338334
20112,Maple Street,68028,41.1358156,-96.2312581
19908,Maple Street,68028,41.1358072,-96.2275920
425,Brentwood Drive,68028,41.1390042,-96.2316775
422,Devonshire Drive,68028,41.1385304,-96.2312879
325,Sherwood Circle,68028,41.1364076,-96.2329070
214,Barrington Drive,68028,41.1370065,-96.2317729
20010,Maple Street,68028,41.1357889,-96.2293352
422,Sherwood Drive,68028,41.1367282,-96.2323517
449,Brentwood Drive,68028,41.1390008,-96.2301637
20006,Maple Street,68028,41.1358081,-96.2290575
429,Sherwood Drive,68028,41.1362066,-96.2319689
201,Barrington Drive,68028,41.1380021,-96.2313442
20014,Maple Street,68028,41.1357975,-96.2296085
430,Devonshire Drive,68028,41.1385519,-96.2306977
11555,South 204th Street,68028,41.1383159,-96.2338324
301,Sherwood Circle,68028,41.1368249,-96.2331637
414,Sherwood Drive,68028,41.1369433,-96.2324289
19810,Maple Street,68028,41.1358379,-96.2262283
19820,Maple Street,68028,41.1358142,-96.2270513
417,Brentwood Drive,68028,41.1389795,-96.2319864
19806,Maple Street,68028,41.1358318,-96.2259542
20120,Maple Street,68028,41.1358085,-96.2318820
20108,Maple Street,68028,41.1358149,-96.2309817
20018,Maple Street,68028,41.1358113,-96.2298818
448,Sherwood Drive,68028,41.1366828,-96.2305947
11607,South 204th Street,68028,41.1370699,-96.2338157
20104,Maple Street,68028,41.1358077,-96.2307086
19816,Maple Street,68028,41.1358147,-96.2267772
20002,Maple Street,68028,41.1358165,-96.2287797
11501,South 201st Street,68028,41.1381315,-96.2305633
20026,Maple Street,68028,41.1357960,-96.2304299
19916,Maple Street,68028,41.1358107,-96.2281395
445,Sherwood Drive,68028,41.1361837,-96.2308954
449,Sherwood Drive,68028,41.1362315,-96.2305422
401,Sherwood Drive,68028,41.1375173,-96.2332057
206,Barrington Drive,68028,41.1374718,-96.2318786
405,Sherwood Drive,68028,41.1372951,-96.2331888
314,Bauman Circle,68028,41.1394741,-96.2335573
322,Bauman Circle,68028,41.1390612,-96.2338011
438,Sherwood Drive,68028,41.1366820,-96.2315981
306,Bauman Circle,68028,41.1393863,-96.2329559
414,Devonshire Drive,68028,41.1384066,-96.2318935
441,Sherwood Drive,68028,41.1362153,-96.2311390
205,Barrington Drive,68028,41.1377003,-96.2312889
409,Brentwood Drive,68028,41.1386406,-96.2324963
410,Devonshire Drive,68028,41.1383173,-96.2321951
321,Sherwood Circle,68028,41.1362118,-96.2332466
437,Sherwood Drive,68028,41.1362160,-96.2314205
405,Devonshire Drive,68028,41.1376984,-96.2322336
209,Barrington Drive,68028,41.1374629,-96.2312834
430,Brentwood Drive,68028,41.1394554,-96.2316001
450,Brentwood Drive,68028,41.1394709,-96.2301965
433,Sherwood Drive,68028,41.1362013,-96.2316932
446,Brentwood Drive,68028,41.1394764,-96.2304770
402,Sherwood Drive,68028,41.1375808,-96.2325808
213,Barrington Drive,68028,41.1372156,-96.2312091
405,Brentwood Drive,68028,41.1383717,-96.2326179
310,Bauman Circle,68028,41.1394109,-96.2332471
422,Brentwood Drive,68028,41.1393869,-96.2322110
317,Sherwood Circle,68028,41.1362041,-96.2335743
210,Barrington Drive,68028,41.1372379,-96.2319069
425,Devonshire Drive,68028,41.1381029,-96.2310196
11509,South 201st Street,68028,41.1376695,-96.2305612
438,Brentwood Drive,68028,41.1394973,-96.2310527
418,Devonshire Drive,68028,41.1385049,-96.2316115
406,Sherwood Drive,68028,41.1373367,-96.2325795
11505,South 201st Street,68028,41.1378930,-96.2305644
430,Sherwood Drive,68028,41.1366833,-96.2318822
409,Sherwood Drive,68028,41.1370676,-96.2331696
221,Barrington Drive,68028,41.1367147,-96.2309734
318,Bauman Circle,68028,41.1393320,-96.2338229
20003,Covington Circle,68028,41.1340378,-96.2286407
19914,Oak Street,68028,41.1332156,-96.2280975
11619,South 202nd Street,68028,41.1347219,-96.2314782
11715,South 204th Street,68028,41.1348993,-96.2337437
11615,South 204th Street,68028,41.1356931,-96.2337569
19811,Birch Street,68028,41.1336304,-96.2265679
11615,South 198th Street,68028,41.1349709,-96.2254302
19812,Oak Street,68028,41.1332338,-96.2266480
11612,South 201st Street,68028,41.1349375,-96.2309619
19909,Birch Street,68028,41.1336298,-96.2276792
20019,Covington Circle,68028,41.1339414,-96.2298396
19912,Birch Street,68028,41.1340747,-96.2276737
19815,Birch Street,68028,41.1336303,-96.2268417
11619,South 204th Street,68028,41.1353393,-96.2337724
19816,Ash Street,68028,41.1349549,-96.2268663
11713,South 198th Street,68028,41.1334554,-96.2254187
11620,South 201st Street,68028,41.1345193,-96.2309663
19803,Birch Street,68028,41.1336498,-96.2260271
11717,South 198th Street,68028,41.1332468,-96.2254279
19807,Birch Street,68028,41.1336312,-96.2263021
19906,Ash Street,68028,41.1349394,-96.2274151
19804,Ash Street,68028,41.1349496,-96.2260300
11607,South 198th Street,68028,41.1353874,-96.2254353
19902,Oak Street,68028,41.1332211,-96.2272277
11613,South 201st Street,68028,41.1348397,-96.2303851
19902,Ash Street,68028,41.1349474,-96.2271430
19916,Birch Street,68028,41.1340888,-96.2279382
11618,South 202nd Street,68028,41.1347456,-96.2320909
11616,South 201st Street,68028,41.1347275,-96.2309674
19907,Oak Street,68028,41.1327593,-96.2273629
19806,Birch Street,68028,41.1340747,-96.2263064
11604,South 201st Street,68028,41.1353704,-96.2308737
20016,Covington Circle,68028,41.1349380,-96.2294827
11623,South 198th Street,68028,41.1345361,-96.2254393
19915,Oak Street,68028,41.1327482,-96.2279102
19804,Oak Street,68028,41.1332150,-96.2260672
11602,South 202nd Street,68028,41.1355969,-96.2320868
19907,Ash Street,68028,41.1345034,-96.2274010
20008,Covington Circle,68028,41.1347904,-96.2288065
19810,Birch Street,68028,41.1340824,-96.2265754
11611,South 198th Street,68028,41.1351864,-96.2254123
19808,Ash Street,68028,41.1349462,-96.2263083
11614,South 202nd Street,68028,41.1349570,-96.2320808
11624,South 201st Street,68028,41.1343077,-96.2309665
20023,Maple Street,68028,41.1353500,-96.2302756
11721,South 198th Street,68028,41.1330386,-96.2253865
19903,Ash Street,68028,41.1344965,-96.2271266
19911,Ash Street,68028,41.1344955,-96.2276748
19910,Oak Street,68028,41.1332185,-96.2278118
11626,South 202nd Street,68028,41.1343351,-96.2321056
11607,South 202nd Street,68028,41.1353562,-96.2314302
19911,Oak Street,68028,41.1327552,-96.2276337
20015,Covington Circle,68028,41.1336795,-96.2295817
20024,Covington Circle,68028,41.1344712,-96.2298581
19816,Oak Street,68028,41.1332201,-96.2269357
19809,Oak Street,68028,41.1327679,-96.2262643
19908,Birch Street,68028,41.1340937,-96.2273986
11615,South 202nd Street,68028,41.1349288,-96.2314831
11622,South 202nd Street,68028,41.1345378,-96.2321067
19805,Oak Street,68028,41.1327660,-96.2259979
19919,Oak Street,68028,41.1327420,-96.2281773
19903,Oak Street,68028,41.1327667,-96.2270871
20004,Covington Circle,68028,41.1345508,-96.2286502
20003,Maple Street,68028,41.1353564,-96.2287712
19817,Oak Street,68028,41.1327775,-96.2268128
11623,South 202nd Street,68028,41.1345139,-96.2314936
11610,South 202nd Street,68028,41.1351716,-96.2320470
20015,Maple Street,68028,41.1353567,-96.2296762
19809,Ash Street,68028,41.1344972,-96.2263046
11627,South 202nd Street,68028,41.1343041,-96.2314961
11617,South 201st Street,68028,41.1346182,-96.2303760
11608,South 201st Street,68028,41.1351542,-96.2309249
19904,Birch Street,68028,41.1340989,-96.2271247
20007,Covington Circle,68028,41.1337396,-96.2288210
11705,South 198th Street,68028,41.1338568,-96.2254233
19901,Birch Street,68028,41.1336257,-96.2271242
19802,Birch Street,68028,41.1340830,-96.2260302
11709,South 198th Street,68028,41.1336500,-96.2254260
19915,Ash Street,68028,41.1345143,-96.2279496
19801,Oak Street,68028,41.1327428,-96.2257243
20020,Covington Circle,68028,41.1347255,-96.2297607
19813,Oak Street,68028,41.1327582,-96.2265397
20011,Maple Street,68028,41.1353528,-96.2293765
11603,South 198th Street,68028,41.1356236,-96.2253830
20019,Maple Street,68028,41.1353591,-96.2299752
11606,South 202nd Street,68028,41.1353855,-96.2320772
11611,South 202nd Street,68028,41.1351342,-96.2314533
19913,Birch Street,68028,41.1336295,-96.2279631
11619,South 198th Street,68028,41.1347540,-96.2254339
20011,Covington Circle,68028,41.1335941,-96.2292040
19808,Oak Street,68028,41.1332165,-96.2263581
11609,South 201st Street,68028,41.1350599,-96.2303045
19814,Birch Street,68028,41.1340952,-96.2268507
19914,Ash Street,68028,41.1349489,-96.2279653
20007,Maple Street,68028,41.1353587,-96.2290774
19817,Ash Street,68028,41.1344965,-96.2268522
19805,Ash Street,68028,41.1344959,-96.2260303
19910,Ash Street,68028,41.1349570,-96.2276886
11701,South 198th Street,68028,41.1340729,-96.2254223
19905,Birch Street,68028,41.1336172,-96.2274015
19812,Ash Street,68028,41.1349577,-96.2265831
11621,South 201st Street,68028,41.1343862,-96.2303666
20012,Covington Circle,68028,41.1349477,-96.2291248
19906,Oak Street,68028,41.1331930,-96.2275207
11725,South 204th Street,68028,41.1344515,-96.2338172
11721,South 202nd Street,68028,41.1331725,-96.2315009
20225,Oak Street,68028,41.1327436,-96.2334896
11703,South 203rd Street,68028,41.1337882,-96.2331064
11707,South 203rd Street,68028,41.1336263,-96.2331158
19807,Maple Street,68028,41.1353807,-96.2263566
11702,South 201st Street,68028,41.1338052,-96.2309587
11706,South 201st Street,68028,41.1336004,-96.2309815
20221,Oak Street,68028,41.1327470,-96.2331783
20201,Oak Street,68028,41.1327619,-96.2316593
20013,Oak Street,68028,41.1327645,-96.2293727
20209,Oak Street,68028,41.1327507,-96.2322387
19811,Maple Street,68028,41.1353756,-96.2266357
11709,South 201st Street,68028,41.1334421,-96.2303966
11708,South 202nd Street,68028,41.1336414,-96.2320909
20017,Oak Street,68028,41.1327374,-96.2296472
20029,Oak Street,68028,41.1327400,-96.2304720
11715,South 203rd Street,68028,41.1333748,-96.2331162
19901,Maple Street,68028,41.1353769,-96.2272126
20025,Oak Street,68028,41.1327523,-96.2301954
20012,Oak Street,68028,41.1332278,-96.2293953
20020,Oak Street,68028,41.1331995,-96.2299689
20205,Oak Street,68028,41.1327310,-96.2319687
20009,Oak Street,68028,41.1327354,-96.2290965
11713,South 201st Street,68028,41.1332262,-96.2303534
19909,Maple Street,68028,41.1353563,-96.2277908
20016,Oak Street,68028,41.1331962,-96.2296805
20008,Oak Street,68028,41.1331996,-96.2291126
20213,Oak Street,68028,41.1327469,-96.2325678
19913,Maple Street,68028,41.1353663,-96.2280831
19803,Maple Street,68028,41.1353562,-96.2260426
11717,South 202nd Street,68028,41.1333550,-96.2314908
11705,South 201st Street,68028,41.1336519,-96.2303762
11701,South 201st Street,68028,41.1338614,-96.2303925
11714,South 201st Street,68028,41.1331858,-96.2309771
20004,Oak Street,68028,41.1332231,-96.2288257
11702,South 203rd Street,68028,41.1337953,-96.2337400
20033,Oak Street,68028,41.1328324,-96.2309494
20021,Oak Street,68028,41.1327506,-96.2299222
19815,Maple Street,68028,41.1353654,-96.2269243
11710,South 201st Street,68028,41.1333935,-96.2309847
19905,Maple Street,68028,41.1353692,-96.2275029
11710,South 203rd Street,68028,41.1335012,-96.2336995
11718,South 203rd Street,68028,41.1332193,-96.2337129
11726,South 203rd Street,68028,41.1329118,-96.2336921
11705,South 202nd Street,68028,41.1338299,-96.2315126
20220,Oak Street,68028,41.1332091,-96.2326248
11719,South 203rd Street,68028,41.1331972,-96.2331219
20217,Oak Street,68028,41.1327533,-96.2328892
11704,South 202nd Street,68028,41.1338029,-96.2320847
11713,South 202nd Street,68028,41.1335521,-96.2315044
11720,South 202nd Street,68028,41.1332538,-96.2321022
11725,South 202nd Street,68028,41.1329538,-96.2314444
21730,Laura Street,68028,41.1320195,-96.2552439
12210,South Highway 6,68028,41.1256787,-96.2538788
21710,Schram Road,68028,41.1330477,-96.2553129
12002,South 216th Street,68028,41.1292702,-96.2537895
12304,South Highway 6,68028,41.1247962,-96.2555554
11705,South 216th Street,68028,41.1329066,-96.2526118
12612,South 218th Avenue,68028,41.1203995,-96.2578616
12314,South 218th Avenue,68028,41.1244236,-96.2578846
12616,South 218th Avenue,68028,41.1202137,-96.2578650
12502,South 217th Street,68028,41.1220794,-96.2555862
21905,Highview Street,68028,41.1197884,-96.2579443
12614,South 218th Street,68028,41.1202273,-96.2567167
12522,South 217th Street,68028,41.1212000,-96.2555774
12517,South 217th Street,68028,41.1213877,-96.2550516
12610,South 218th Street,68028,41.1204044,-96.2567346
12515,South 218th Street,68028,41.1215528,-96.2561912
12510,South 218th Avenue,68028,41.1216946,-96.2578548
12601,South 218th Street,68028,41.1206650,-96.2561793
12513,South 218th Avenue,68028,41.1215105,-96.2573025
21813,Crestline Circle,68028,41.1243796,-96.2570825
12414,South 218th Street,68028,41.1231734,-96.2567645
12302,South 218th Avenue,68028,41.1249581,-96.2579302
12508,South 218th Street,68028,41.1218813,-96.2567523
12522,South 218th Avenue,68028,41.1211371,-96.2578618
12602,South 218th Street,68028,41.1207739,-96.2567306
12427,South 218th Avenue,68028,41.1226496,-96.2573200
12421,South 218th Street,68028,41.1228157,-96.2561836
12408,South 217th Street,68028,41.1235344,-96.2556011
21811,Westridge Drive,68028,41.1235422,-96.2573351
12404,South 218th Avenue,68028,41.1237063,-96.2578864
21807,Westridge Drive,68028,41.1235362,-96.2570348
12615,South 218th Avenue,68028,41.1202172,-96.2572858
12409,South 218th Street,68028,41.1233778,-96.2561960
12514,South 218th Avenue,68028,41.1215101,-96.2578677
12603,South 218th Avenue,68028,41.1207708,-96.2572971
21804,Crestline Circle,68028,41.1248437,-96.2564886
12502,South 218th Avenue,68028,41.1220543,-96.2578926
21901,Highview Street,68028,41.1197816,-96.2576990
21815,Highview Street,68028,41.1197883,-96.2572327
12422,South 218th Street,68028,41.1228143,-96.2567557
12419,South 217th Street,68028,41.1229693,-96.2550518
12504,South 218th Street,68028,41.1220738,-96.2567294
12518,South 218th Avenue,68028,41.1213240,-96.2578747
12420,South 218th Avenue,68028,41.1229846,-96.2578717
21817,Crestline Circle,68028,41.1243841,-96.2573293
12505,South 217th Street,68028,41.1219095,-96.2550325
21812,Crestline Circle,68028,41.1248601,-96.2570736
12513,South 217th Street,68028,41.1215606,-96.2550483
12526,South 218th Avenue,68028,41.1209524,-96.2578588
12326,South 218th Avenue,68028,41.1238853,-96.2578897
21808,Crestline Circle,68028,41.1249124,-96.2568076
12424,South 218th Avenue,68028,41.1228067,-96.2579002
12503,South 218th Street,68028,41.1220781,-96.2561766
12403,South 217th Street,68028,41.1237203,-96.2550519
12605,South 218th Street,68028,41.1204916,-96.2561394
21801,Crestline Circle,68028,41.1246309,-96.2563651
12410,South 218th Street,68028,41.1233830,-96.2568383
12512,South 218th Street,68028,41.1216970,-96.2567547
12607,South 217th Street,68028,41.1205062,-96.2550172
12412,South 218th Avenue,68028,41.1233468,-96.2578970
12604,South 217th Street,68028,41.1206705,-96.2555838
12423,South 218th Avenue,68028,41.1228438,-96.2573342
12509,South 218th Avenue,68028,41.1216956,-96.2573170
12506,South 217th Street,68028,41.1218984,-96.2555909
12526,South 217th Street,68028,41.1210226,-96.2555856
12416,South 217th Street,68028,41.1231755,-96.2556086
12432,South 218th Avenue,68028,41.1224503,-96.2578610
21769,Highview Street,68028,41.1198212,-96.2562990
12614,South 217th Street,68028,41.1202723,-96.2555928
12424,South 217th Street,68028,41.1228174,-96.2556149
12510,South 217th Street,68028,41.1217302,-96.2555817
21761,Highview Street,68028,41.1198367,-96.2558503
12518,South 217th Street,68028,41.1213765,-96.2555791
21816,Crestline Circle,68028,41.1248101,-96.2573374
12420,South 217th Street,68028,41.1229946,-96.2556105
21814,Westridge Drive,68028,41.1239830,-96.2573159
12419,South 218th Avenue,68028,41.1230390,-96.2573436
12506,South 218th Avenue,68028,41.1218775,-96.2578563
12521,South 217th Street,68028,41.1212114,-96.2550391
12519,South 218th Street,68028,41.1213759,-96.2561849
12418,South 218th Street,68028,41.1229920,-96.2567520
21807,Highview Street,68028,41.1198060,-96.2567664
12322,South 218th Avenue,68028,41.1240640,-96.2578831
21811,Highview Street,68028,41.1198108,-96.2569989
12432,South 217th Street,68028,41.1224534,-96.2556084
21764,Highview Street,68028,41.1202131,-96.2559251
21768,Highview Street,68028,41.1202210,-96.2562004
12431,South 217th Street,68028,41.1223931,-96.2550609
21803,Highview Street,68028,41.1198062,-96.2565328
12425,South 218th Street,68028,41.1226349,-96.2561989
12603,South 217th Street,68028,41.1206820,-96.2550467
12607,South 218th Avenue,68028,41.1205855,-96.2573065
12416,South 218th Avenue,68028,41.1231677,-96.2578720
12529,South 217th Street,68028,41.1208591,-96.2550375
12516,South 218th Street,68028,41.1215119,-96.2567344
12521,South 218th Avenue,68028,41.1211396,-96.2573248
12306,South 218th Avenue,68028,41.1247823,-96.2578930
12417,South 218th Street,68028,41.1229957,-96.2562031
12610,South 217th Street,68028,41.1204900,-96.2555762
12517,South 218th Avenue,68028,41.1213251,-96.2572947
12611,South 217th Street,68028,41.1203284,-96.2550444
21810,Westridge Drive,68028,41.1239884,-96.2570314
12509,South 217th Street,68028,41.1217415,-96.2550612
21809,Crestline Circle,68028,41.1243529,-96.2568051
21765,Highview Street,68028,41.1198176,-96.2560689
12501,South 218th Avenue,68028,41.1220794,-96.2573182
12411,South 217th Street,68028,41.1233453,-96.2550618
12404,South 217th Street,68028,41.1237124,-96.2556249
12318,South 218th Avenue,68028,41.1242433,-96.2578967
12524,South 218th Street,68028,41.1211434,-96.2567262
12428,South 217th Street,68028,41.1226361,-96.2555958
12531,South 218th Street,68028,41.1208446,-96.2561797
21802,Westridge Drive,68028,41.1237837,-96.2564720
12430,South 218th Street,68028,41.1224403,-96.2567236
12604,South 218th Avenue,68028,41.1207666,-96.2578656
21805,Crestline Circle,68028,41.1244125,-96.2564893
12525,South 217th Street,68028,41.1210332,-96.2550493
12523,South 218th Street,68028,41.1211992,-96.2561826
12427,South 217th Street,68028,41.1225949,-96.2550402
12507,South 218th Street,68028,41.1219013,-96.2561936
12528,South 218th Street,68028,41.1209570,-96.2567535
12415,South 217th Street,68028,41.1231583,-96.2550685
12310,South 218th Avenue,68028,41.1246034,-96.2579153
12514,South 217th Street,68028,41.1215553,-96.2555818
21757,Highview Street,68028,41.1198021,-96.2556183
12413,South 218th Street,68028,41.1231725,-96.2562001
12431,South 218th Avenue,68028,41.1224580,-96.2573043
12426,South 218th Street,68028,41.1226346,-96.2567440
12611,South 218th Avenue,68028,41.1204042,-96.2573198
12405,South 218th Street,68028,41.1235975,-96.2562623
12520,South 218th Street,68028,41.1213282,-96.2567243
12530,South 217th Street,68028,41.1208473,-96.2555773
12608,South 218th Avenue,68028,41.1205827,-96.2578681
12407,South 217th Street,68028,41.1235326,-96.2550588
12527,South 218th Street,68028,41.1210213,-96.2561573
21819,Highview Street,68028,41.1197887,-96.2574664
12525,South 218th Avenue,68028,41.1209550,-96.2572892
12429,South 218th Street,68028,41.1224510,-96.2561805
21806,Westridge Drive,68028,41.1239182,-96.2567195
12511,South 218th Street,68028,41.1217275,-96.2561895
12423,South 217th Street,68028,41.1227824,-96.2550621
12415,South 218th Avenue,68028,41.1232331,-96.2573110
12505,South 218th Avenue,68028,41.1218793,-96.2572795
12606,South 218th Street,68028,41.1205879,-96.2567326
12412,South 217th Street,68028,41.1233590,-96.2556283
12428,South 218th Avenue,68028,41.1226305,-96.2578676
12408,South 218th Avenue,68028,41.1235245,-96.2578874
11712,South 216th Street,68028,41.1332817,-96.2537675
11821,South 216th Street,68028,41.1319258,-96.2526472
11710,South 216th Street,68028,41.1333391,-96.2542332
11722,South 216th Street,68028,41.1325480,-96.2538123
11718,South 216th Street,68028,41.1329628,-96.2536836
11706,South 203rd Street,68028,41.1336890,-96.2337414
11709,South 202nd Street,68028,41.1337436,-96.2315124
11714,South 203rd Street,68028,41.1334151,-96.2336990
11722,South 203rd Street,68028,41.1331334,-96.2337129
11221,Northridge Drive,68028,41.1457647,-96.2265455
11457,South 204th Street,68028,41.1406779,-96.2335757
12182,South 219th Avenue Circle,68028,41.1265972,-96.2598530
12025,South 219th Avenue,68028,41.1291979,-96.2580668
21885,Granada Street,68028,41.1279891,-96.2577189
22021,Hilltop Avenue,68028,41.1254254,-96.2598039
12119,South 217th Avenue,68028,41.1278976,-96.2550075
12149,South 217th Avenue,68028,41.1275055,-96.2548609
21740,Erin Circle,68028,41.1309995,-96.2554828
12019,South 217th Street,68028,41.1293212,-96.2544813
21790,Erin Circle,68028,41.1313761,-96.2563130
12040,South 219th Avenue,68028,41.1289397,-96.2587699
12137,South 221st Street,68028,41.1271217,-96.2603027
12243,South 221st Circle,68028,41.1255556,-96.2619275
22017,Bobwhite Avenue,68028,41.1272616,-96.2600580
12112,South 218th Street,68028,41.1277152,-96.2566008
21895,Quail Drive,68028,41.1296361,-96.2577061
21834,Hilltop Avenue,68028,41.1258802,-96.2566083
21981,Bobwhite Avenue,68028,41.1267828,-96.2592635
21915,Granada Street,68028,41.1281364,-96.2579154
21760,Hilltop Avenue,68028,41.1258884,-96.2560654
12045,South 216th Circle,68028,41.1287896,-96.2572010
21863,Hilltop Avenue,68028,41.1254500,-96.2573594
11840,South 219th Avenue,68028,41.1315087,-96.2568673
22002,Bobwhite Avenue,68028,41.1273606,-96.2593549
21780,Ponderosa Drive,68028,41.1303262,-96.2559260
21825,Erin Circle,68028,41.1310632,-96.2566147
21855,Bobwhite Avenue,68028,41.1262918,-96.2570329
21961,Hilltop Avenue,68028,41.1254365,-96.2589861
12228,South 219th Circle,68028,41.1260710,-96.2595569
12156,South 217th Avenue,68028,41.1273649,-96.2553970
22057,Hilltop Avenue,68028,41.1254177,-96.2606129
21844,Plum Creek Drive,68028,41.1282004,-96.2571222
21680,Plum Creek Drive,68028,41.1287145,-96.2543514
12146,South 217th Avenue,68028,41.1275713,-96.2554465
12010,South 217th Street,68028,41.1295055,-96.2550127
22011,Bobwhite Avenue,68028,41.1270927,-96.2597552
12162,South 221st Street,68028,41.1270835,-96.2611120
12036,South 216th Circle,68028,41.1289145,-96.2575179
21866,Bobwhite Avenue,68028,41.1266873,-96.2571638
12242,South 220th Circle,68028,41.1258226,-96.2606941
21984,Bobwhite Avenue,68028,41.1272476,-96.2591466
21965,Bobwhite Avenue,68028,41.1266320,-96.2590347
21930,Granada Street,68028,41.1288898,-96.2581714
11979,South 217th Street,68028,41.1299189,-96.2544750
12226,South 220th Circle,68028,41.1260302,-96.2607595
12217,South 219th Circle,68028,41.1261908,-96.2592656
21765,Plum Creek Drive,68028,41.1283154,-96.2558292
22009,Hilltop Avenue,68028,41.1254196,-96.2595290
11940,South 217th Street,68028,41.1305028,-96.2549761
21865,Ponderosa Drive,68028,41.1303555,-96.2571493
12125,South 218th Street,68028,41.1275068,-96.2560062
12198,South 221st Street,68028,41.1264977,-96.2618344
12138,South 221st Street,68028,41.1273523,-96.2607603
11940,South 219th Avenue,68028,41.1300930,-96.2579460
21725,Laura Street,68028,41.1315751,-96.2549876
12209,South 220th Circle,68028,41.1263610,-96.2604174
21870,Hilltop Avenue,68028,41.1258547,-96.2574287
21840,Quail Drive,68028,41.1297678,-96.2569427
11839,South 217th Street,68028,41.1318616,-96.2544575
22090,Hilltop Avenue,68028,41.1258340,-96.2611127
12002,South 217th Circle,68028,41.1295032,-96.2559030
12186,South 221st Street,68028,41.1268017,-96.2614669
12143,South 221st Street,68028,41.1269888,-96.2604703
21925,Hilltop Avenue,68028,41.1254409,-96.2581655
21727,Bobwhite Avenue,68028,41.1263086,-96.2553820
21925,Granada Street,68028,41.1282719,-96.2581417
21785,Plum Creek Drive,68028,41.1282914,-96.2561108
12120,South 221st Street,68028,41.1276745,-96.2600901
22093,Hilltop Avenue,68028,41.1254413,-96.2611994
21745,Plum Creek Drive,68028,41.1283079,-96.2555558
21840,Ponderosa Drive,68028,41.1306914,-96.2568784
12161,South 218th Street,68028,41.1271261,-96.2559902
21902,Granada Street,68028,41.1284601,-96.2576031
12225,South 220th Circle,68028,41.1260667,-96.2600209
21790,Ponderosa Drive,68028,41.1304080,-96.2561842
22045,Hilltop Avenue,68028,41.1254277,-96.2603466
11990,South 217th Street,68028,41.1296961,-96.2549714
12180,South 221st Street,68028,41.1269329,-96.2613110
12180,South 217th Avenue,68028,41.1267282,-96.2554021
12017,South 217th Circle,68028,41.1291995,-96.2555292
21755,Laura Street,68028,41.1315748,-96.2555217
12240,South 221st Circle,68028,41.1258241,-96.2625598
21952,Bobwhite Avenue,68028,41.1269699,-96.2587446
21865,Quail Drive,68028,41.1294247,-96.2572241
21949,Bobwhite Avenue,68028,41.1264489,-96.2587141
12142,South 218th Street,68028,41.1273031,-96.2565283
21928,Plum Creek Drive,68028,41.1271021,-96.2582437
21780,Erin Circle,68028,41.1312571,-96.2559453
21844,Bobwhite Avenue,68028,41.1266935,-96.2569008
21761,Hilltop Avenue,68028,41.1254722,-96.2560393
12010,South 219th Avenue,68028,41.1294962,-96.2584261
21785,Ponderosa Drive,68028,41.1299046,-96.2559251
11869,South 217th Street,68028,41.1312764,-96.2544553
21755,Erin Circle,68028,41.1306890,-96.2559112
21752,Hilltop Avenue,68028,41.1258989,-96.2557990
12174,South 217th Avenue,68028,41.1269603,-96.2554171
11980,South 217th Street,68028,41.1298905,-96.2549769
11849,South 217th Street,68028,41.1316668,-96.2544557
12154,South 218th Street,68028,41.1271099,-96.2565130
12176,South 219th Avenue Circle,68028,41.1268411,-96.2599853
21815,Hilltop Avenue,68028,41.1254630,-96.2563109
21875,Granada Street,68028,41.1278455,-96.2575418
21913,Hilltop Avenue,68028,41.1254755,-96.2578804
21760,Ponderosa Drive,68028,41.1302936,-96.2556500
11889,South 217th Street,68028,41.1310811,-96.2544534
21875,Plum Creek Drive,68028,41.1273265,-96.2573905
12060,South 217th Street,68028,41.1287361,-96.2549950
21886,Bobwhite Avenue,68028,41.1267033,-96.2574287
12030,South 217th Street,68028,41.1291226,-96.2549680
12237,South 221st Circle,68028,41.1258153,-96.2618493
12101,South 218th Street,68028,41.1279072,-96.2561606
12089,South 217th Avenue,68028,41.1283056,-96.2549915
12269,South 221st Circle,68028,41.1254451,-96.2622081
21804,Plum Creek Drive,68028,41.1286319,-96.2565194
12182,South 218th Street,68028,41.1267110,-96.2564943
12085,South 218th Street,68028,41.1278727,-96.2567626
21808,Hilltop Avenue,68028,41.1258723,-96.2563350
12124,South 218th Street,68028,41.1275047,-96.2565632
12169,South 217th Avenue,68028,41.1272920,-96.2548616
21944,Bobwhite Avenue,68028,41.1268399,-96.2585103
22118,Hilltop Avenue,68028,41.1262013,-96.2614495
11870,South 217th Street,68028,41.1312618,-96.2550059
12179,South 217th Avenue,68028,41.1269009,-96.2548430
21865,Plum Creek Drive,68028,41.1274589,-96.2572143
12161,South 221st Street,68028,41.1268301,-96.2606317
21740,Quail Drive,68028,41.1287257,-96.2555720
21749,Bobwhite Avenue,68028,41.1262908,-96.2556829
21949,Hilltop Avenue,68028,41.1254364,-96.2587107
21765,Ponderosa Drive,68028,41.1298793,-96.2556541
11939,South 217th Street,68028,41.1305168,-96.2544489
21834,Plum Creek Drive,68028,41.1283971,-96.2569242
21909,Bobwhite Avenue,68028,41.1262667,-96.2578668
12239,South 220th Circle,68028,41.1258313,-96.2601136
12220,South 220th Circle,68028,41.1262570,-96.2607122
12244,South 219th Circle,68028,41.1258339,-96.2596379
12179,South 221st Street,68028,41.1266927,-96.2608116
12192,South 221st Street,68028,41.1266630,-96.2616622
21745,Ponderosa Drive,68028,41.1298939,-96.2553958
11969,South 217th Street,68028,41.1301109,-96.2544585
21735,Laura Street,68028,41.1315459,-96.2552661
21968,Bobwhite Avenue,68028,41.1271242,-96.2589391
21916,Hilltop Avenue,68028,41.1258841,-96.2579929
21912,Bobwhite Avenue,68028,41.1266958,-96.2579823
21851,Hilltop Avenue,68028,41.1254606,-96.2571138
22104,Hilltop Avenue,68028,41.1259943,-96.2612845
22014,Bobwhite Avenue,68028,41.1275100,-96.2595274
21973,Hilltop Avenue,68028,41.1254257,-96.2592580
12228,South 221st Street,68028,41.1262006,-96.2622119
21810,Ponderosa Drive,68028,41.1305009,-96.2564316
12222,South 221st Street,68028,41.1263662,-96.2620259
21885,Quail Drive,68028,41.1295230,-96.2574774
12227,South 217th Avenue,68028,41.1256847,-96.2549736
12185,South 217th Avenue,68028,41.1267077,-96.2548539
21774,Laura Street,68028,41.1320520,-96.2558513
12009,South 217th Street,68028,41.1295159,-96.2544457
12191,South 221st Street,68028,41.1264218,-96.2611926
21650,Plum Creek Drive,68028,41.1287999,-96.2540356
12173,South 217th Avenue,68028,41.1270965,-96.2548488
11930,South 217th Street,68028,41.1306933,-96.2550150
12144,South 221st Street,68028,41.1272137,-96.2609080
21785,Erin Circle,68028,41.1307932,-96.2561503
12039,South 217th Street,68028,41.1289357,-96.2544443
11989,South 217th Street,68028,41.1297204,-96.2544449
12221,South 217th Avenue,68028,41.1259184,-96.2548546
12173,South 218th Street,68028,41.1269269,-96.2559842
21820,Quail Drive,68028,41.1296684,-96.2567344
21934,Hilltop Avenue,68028,41.1258562,-96.2585183
21784,Laura Street,68028,41.1320228,-96.2562267
21935,Granada Street,68028,41.1284176,-96.2583232
21898,Bobwhite Avenue,68028,41.1267020,-96.2576933
12234,South 221st Circle,68028,41.1260108,-96.2623748
21630,Plum Creek Drive,68028,41.1288012,-96.2537276
12209,South 217th Avenue,68028,41.1263350,-96.2548581
11980,South 219th Avenue,68028,41.1297927,-96.2581493
12187,South 219th Avenue Circle,68028,41.1265704,-96.2595476
21896,Plum Creek Drive,68028,41.1276077,-96.2591024
12015,South 219th Avenue,68028,41.1293697,-96.2579353
21895,Plum Creek Drive,68028,41.1270037,-96.2577157
12020,South 219th Avenue,68028,41.1293256,-96.2585529
11859,South 217th Street,68028,41.1314697,-96.2544635
12132,South 221st Street,68028,41.1274671,-96.2605422
21785,Quail Drive,68028,41.1287219,-96.2560991
11829,South 217th Street,68028,41.1320966,-96.2544708
21827,Hilltop Avenue,68028,41.1254872,-96.2565724
11950,South 219th Avenue,68028,41.1299492,-96.2580401
21858,Hilltop Avenue,68028,41.1258690,-96.2571573
21890,Plum Creek Drive,68028,41.1274277,-96.2579292
12126,South 217th Avenue,68028,41.1277809,-96.2555180
21891,Bobwhite Avenue,68028,41.1262842,-96.2575920
21835,Ponderosa Drive,68028,41.1302286,-96.2569006
11880,South 219th Avenue,68028,41.1310254,-96.2572244
12262,South 221st Circle,68028,41.1255744,-96.2625003
21913,Bobwhite Avenue,68028,41.1263183,-96.2581612
21737,Hilltop Avenue,68028,41.1255000,-96.2555008
21749,Hilltop Avenue,68028,41.1254975,-96.2557724
21860,Quail Drive,68028,41.1298610,-96.2571676
21795,Ponderosa Drive,68028,41.1299509,-96.2561979
11850,South 219th Avenue,68028,41.1313521,-96.2570140
12014,South 217th Circle,68028,41.1293542,-96.2561808
21945,Granada Street,68028,41.1285611,-96.2585195
21815,Quail Drive,68028,41.1292074,-96.2567678
21882,Granada Street,68028,41.1283241,-96.2573957
22022,Bobwhite Avenue,68028,41.1276328,-96.2597652
12217,South 220th Circle,68028,41.1262818,-96.2601560
21775,Laura Street,68028,41.1315680,-96.2557791
11930,South 219th Avenue,68028,41.1302437,-96.2578065
11902,South 219th Avenue,68028,41.1307094,-96.2574819
11820,South 219th Avenue,68028,41.1318184,-96.2565573
21883,Bobwhite Avenue,68028,41.1262850,-96.2573169
11910,South 219th Avenue,68028,41.1305560,-96.2575953
11949,South 217th Street,68028,41.1303084,-96.2544576
21725,Hilltop Avenue,68028,41.1255376,-96.2552093
21813,Bobwhite Avenue,68028,41.1263013,-96.2564980
12116,South 217th Avenue,68028,41.1279888,-96.2555352
21815,Ponderosa Drive,68028,41.1300446,-96.2564420
12030,South 219th Avenue,68028,41.1291684,-96.2587403
21839,Hilltop Avenue,68028,41.1254849,-96.2568454
12166,South 218th Street,68028,41.1269154,-96.2565004
21795,Quail Drive,68028,41.1289156,-96.2563257
21937,Hilltop Avenue,68028,41.1254607,-96.2584365
21837,Bobwhite Avenue,68028,41.1263069,-96.2567729
11919,South 217th Street,68028,41.1308897,-96.2544575
12139,South 217th Avenue,68028,41.1277109,-96.2549174
11830,South 219th Avenue,68028,41.1316741,-96.2567539
11920,South 219th Avenue,68028,41.1304105,-96.2576983
12241,South 219th Circle,68028,41.1258435,-96.2588885
21842,Hilltop Avenue,68028,41.1258744,-96.2568802
11920,South 217th Street,68028,41.1308844,-96.2549894
21885,Plum Creek Drive,68028,41.1271567,-96.2575526
12040,South 217th Street,68028,41.1289309,-96.2549838
12020,South 217th Street,68028,41.1293120,-96.2549853
22101,Hilltop Avenue,68028,41.1255262,-96.2614834
12119,South 218th Street,68028,41.1277115,-96.2560570
21810,Quail Drive,68028,41.1295538,-96.2564814
21805,Plum Creek Drive,68028,41.1282145,-96.2563316
21799,Bobwhite Avenue,68028,41.1263169,-96.2562223
21824,Plum Creek Drive,68028,41.1285330,-96.2567297
21880,Quail Drive,68028,41.1299629,-96.2574106
21922,Granada Street,68028,41.1287524,-96.2580046
21745,Erin Circle,68028,41.1307707,-96.2556144
12029,South 217th Street,68028,41.1291272,-96.2544501
21955,Granada Street,68028,41.1287040,-96.2586875
12126,South 221st Street,68028,41.1276297,-96.2603541
11950,South 217th Street,68028,41.1302816,-96.2549763
21830,Ponderosa Drive,68028,41.1306184,-96.2566444
12149,South 218th Street,68028,41.1273203,-96.2559781
21912,Granada Street,68028,41.1286149,-96.2578017
22033,Hilltop Avenue,68028,41.1254035,-96.2600700
11890,South 217th Street,68028,41.1310739,-96.2549909
21750,Erin Circle,68028,41.1311871,-96.2556658
21855,Plum Creek Drive,68028,41.1276427,-96.2570247
12183,South 218th Street,68028,41.1267234,-96.2559842
21750,Quail Drive,68028,41.1289715,-96.2556760
21795,Laura Street,68028,41.1315515,-96.2560591
12009,South 217th Circle,68028,41.1294242,-96.2556065
11927,South 217th Street,68028,41.1306966,-96.2544563
21767,Bobwhite Avenue,68028,41.1263057,-96.2559577
11990,South 219th Avenue,68028,41.1296452,-96.2582737
11890,South 219th Avenue,68028,41.1308627,-96.2573728
21880,Plum Creek Drive,68028,41.1275772,-96.2577655
12035,South 216th Circle,68028,41.1288760,-96.2568970
21898,Hilltop Avenue,68028,41.1258649,-96.2577223
12109,South 217th Avenue,68028,41.1280971,-96.2550150
21825,Ponderosa Drive,68028,41.1301392,-96.2566757
11860,South 219th Avenue,68028,41.1312009,-96.2571150
21736,Hilltop Avenue,68028,41.1259345,-96.2554289
21805,Quail Drive,68028,41.1290725,-96.2565127
12168,South 217th Avenue,68028,41.1271710,-96.2554023
22069,Hilltop Avenue,68028,41.1254155,-96.2608940
12233,South 219th Circle,68028,41.1260615,-96.2589637
12185,South 221st Street,68028,41.1265723,-96.2610038
12215,South 217th Avenue,68028,41.1261222,-96.2548778
12024,South 216th Circle,68028,41.1291539,-96.2574791
21740,Ponderosa Drive,68028,41.1303106,-96.2553933
21805,Erin Circle,68028,41.1309450,-96.2563631
21770,Laura Street,68028,41.1319518,-96.2558509
21772,Laura Street,68028,41.1319517,-96.2559615
21776,Laura Street,68028,41.1320518,-96.2559618
21780,Laura Street,68028,41.1319319,-96.2561917
21782,Laura Street,68028,41.1319094,-96.2562965
21786,Laura Street,68028,41.1320013,-96.2563332
19851,Hackberry Drive,68028,41.1436840,-96.2271783
11424,South 199th Street,68028,41.1407635,-96.2276354
11323,South 200th Avenue,68028,41.1440593,-96.2291685
11288,South 201st Street,68028,41.1450296,-96.2305563
20160,Hackberry Drive,68028,41.1439613,-96.2306959
11308,South 201st Street,68028,41.1444492,-96.2306517
20089,Hackberry Drive,68028,41.1436663,-96.2296097
11288,Northridge Drive,68028,41.1446244,-96.2273580
20077,Hackberry Drive,68028,41.1436436,-96.2293350
11283,South 200th Avenue,68028,41.1448637,-96.2290203
11259,South 202nd Circle,68028,41.1456728,-96.2314444
20196,Hackberry Drive,68028,41.1437909,-96.2311615
11271,South 201st Street,68028,41.1452908,-96.2298864
11266,South 200th Street,68028,41.1455148,-96.2281194
11314,South 201st Street,68028,41.1442497,-96.2306783
20109,Hackberry Drive,68028,41.1436492,-96.2298869
11050,South 204th Street,68028,41.1488203,-96.2349088
11266,South 202nd Circle,68028,41.1453027,-96.2317786
11274,South 200th Street,68028,41.1452242,-96.2283409
11289,South 200th Street,68028,41.1444348,-96.2281052
19911,Hackberry Drive,68028,41.1436592,-96.2282240
19829,Hazelnut Drive,68028,41.1399697,-96.2269136
19819,East Westplains Road,68028,41.1407231,-96.2265833
11295,South 201st Street,68028,41.1446811,-96.2300957
11312,South 199th Street,68028,41.1432045,-96.2277136
19903,Hackberry Drive,68028,41.1436425,-96.2276890
19902,Hackberry Drive,68028,41.1440892,-96.2277294
11303,South 200th Avenue,68028,41.1444637,-96.2291312
11252,South 200th Street,68028,41.1456632,-96.2285007
11276,South 200th Avenue,68028,41.1452923,-96.2294244
11291,South 201st Street,68028,41.1448844,-96.2300413
11316,South 200th Avenue,68028,41.1442733,-96.2296951
11324,South 199th Street,68028,41.1426730,-96.2276397
19824,Hazelnut Drive,68028,41.1403927,-96.2267966
11336,South 199th Street,68028,41.1421683,-96.2276351
19850,Hackberry Drive,68028,41.1441518,-96.2271890
11293,South 200th Street,68028,41.1442468,-96.2281245
19813,Hazelnut Drive,68028,41.1399801,-96.2260286
11282,South 200th Street,68028,41.1448627,-96.2285363
11303,South 201st Street,68028,41.1444798,-96.2301255
119,East Westplains Road,68028,41.1412015,-96.2382394
11296,South 201st Street,68028,41.1446430,-96.2306455
20055,Hackberry Drive,68028,41.1436532,-96.2290626
11436,South 199th Street,68028,41.1402147,-96.2275610
20238,Glendale Avenue Circle,68028,41.1446059,-96.2316894
11294,South 200th Street,68028,41.1442624,-96.2286896
11271,South 202nd Circle,68028,41.1453757,-96.2310475
19822,Sycamore Drive,68028,41.1426152,-96.2268495
11288,South 200th Avenue,68028,41.1448849,-96.2295806
11279,South 200th Avenue,68028,41.1450482,-96.2289391
19833,Hazelnut Drive,68028,41.1399768,-96.2271502
115,East Westplains Road,68028,41.1412009,-96.2385168
11322,Northridge Drive,68028,41.1430647,-96.2263395
11318,Northridge Drive,68028,41.1431917,-96.2265182
11275,South 202nd Circle,68028,41.1451528,-96.2309776
11292,Northridge Drive,68028,41.1444481,-96.2273694
20199,Glendale Avenue Circle,68028,41.1441658,-96.2312094
20125,Hackberry Drive,68028,41.1436382,-96.2301850
20544,Highway 370,68028,41.1478492,-96.2356722
20195,Glendale Avenue Circle,68028,41.1444049,-96.2311198
11221,South 203rd Street,68028,41.1452602,-96.2333667
11233,South 203rd Street,68028,41.1449211,-96.2337900
20214,Glendale Avenue Circle,68028,41.1446136,-96.2313080
20248,Glenmore Drive,68028,41.1465721,-96.2325910
20276,Glenmore Drive,68028,41.1459277,-96.2328543
111,East Westplains Road,68028,41.1414997,-96.2385221
11310,Northridge Drive,68028,41.1433162,-96.2266468
20222,Glenmore Drive,68028,41.1464481,-96.2319809
11284,Northridge Drive,68028,41.1447988,-96.2273740
20174,Hackberry Drive,68028,41.1438574,-96.2309170
11321,South 199th Street,68028,41.1428658,-96.2271128
20596,Highway 370,68028,41.1478039,-96.2366768
11333,South 203rd Street,68028,41.1436594,-96.2321059
11286,South 200th Street,68028,41.1446603,-96.2286246
11308,South 200th Avenue,68028,41.1444725,-96.2296519
19821,Hazelnut Drive,68028,41.1399628,-96.2264728
20256,Glenmore Drive,68028,41.1459927,-96.2323881
20184,Glenmore Drive,68028,41.1461259,-96.2313130
20136,Glenmore Drive,68028,41.1462923,-96.2304809
19826,Sycamore Drive,68028,41.1426062,-96.2271123
11285,South 200th Street,68028,41.1446167,-96.2280681
11283,South 201st Street,68028,41.1450791,-96.2299805
11270,South 200th Street,68028,41.1453635,-96.2282367
20035,Glenmore Drive,68028,41.1456843,-96.2288686
11298,South 200th Street,68028,41.1440711,-96.2286611
11344,South 199th Street,68028,41.1417938,-96.2276229
11175,South 204th Street,68028,41.1477812,-96.2335332
19818,Sycamore Drive,68028,41.1426086,-96.2265963
20155,Glenmore Drive,68028,41.1457025,-96.2306298
11327,South 203rd Street,68028,41.1438529,-96.2320778
19847,Hackberry Drive,68028,41.1437354,-96.2269282
11297,South 200th Avenue,68028,41.1446667,-96.2291158
11277,South 203rd Street,68028,41.1451436,-96.2320869
11315,South 200th Avenue,68028,41.1442633,-96.2291840
11320,South 199th Street,68028,41.1428396,-96.2276406
11420,South 199th Street,68028,41.1409386,-96.2276312
11276,Northridge Drive,68028,41.1451577,-96.2275264
11259,South 201st Street,68028,41.1456811,-96.2298524
19817,Hazelnut Drive,68028,41.1399778,-96.2262514
11332,South 199th Street,68028,41.1423370,-96.2276279
20179,Glenmore Drive,68028,41.1457003,-96.2309015
11277,South 200th Street,68028,41.1449841,-96.2278881
11275,South 200th Avenue,68028,41.1452444,-96.2288782
19837,Hazelnut Drive,68028,41.1400642,-96.2273785
11408,South 199th Street,68028,41.1414462,-96.2276294
19812,Hazelnut Drive,68028,41.1403886,-96.2260355
11207,South 204th Street,68028,41.1457863,-96.2337242
11286,South 202nd Circle,68028,41.1449853,-96.2315019
20247,Glendale Avenue Circle,68028,41.1441455,-96.2318195
11416,South 199th Street,68028,41.1410980,-96.2276253
11272,Northridge Drive,68028,41.1453035,-96.2277118
11308,South 199th Street,68028,41.1433976,-96.2277079
11269,South 200th Avenue,68028,41.1454490,-96.2288626
11280,South 200th Avenue,68028,41.1450882,-96.2294957
20228,Hackberry Drive,68028,41.1436726,-96.2316916
11290,South 200th Street,68028,41.1444652,-96.2286438
19854,Hackberry Drive,68028,41.1440903,-96.2274809
11296,South 200th Avenue,68028,41.1446814,-96.2296198
11328,South 199th Street,68028,41.1425040,-96.2276340
11292,South 201st Street,68028,41.1448372,-96.2306053
11268,South 200th Avenue,68028,41.1455046,-96.2294073
11432,South 199th Street,68028,41.1404112,-96.2276370
11281,South 200th Street,68028,41.1447968,-96.2279881
19811,East Westplains Road,68028,41.1407278,-96.2260463
11316,South 199th Street,68028,41.1430163,-96.2276939
11326,Northridge Drive,68028,41.1428951,-96.2261849
11317,South 199th Street,68028,41.1430437,-96.2271225
19816,Hazelnut Drive,68028,41.1403888,-96.2262809
11412,South 199th Street,68028,41.1412728,-96.2276195
11276,South 201st Street,68028,41.1452199,-96.2304880
19828,Hazelnut Drive,68028,41.1403951,-96.2270439
20047,Hackberry Drive,68028,41.1436446,-96.2285028
11306,Northridge Drive,68028,41.1434972,-96.2267775
11319,South 201st Street,68028,41.1440687,-96.2301513
11340,South 199th Street,68028,41.1419686,-96.2276280
20212,Hackberry Drive,68028,41.1436986,-96.2314132
11293,South 203rd Street,68028,41.1447333,-96.2320798
11292,South 202nd Circle,68028,41.1449923,-96.2311917
11309,South 199th Street,68028,41.1434069,-96.2271728
19820,Hazelnut Drive,68028,41.1403862,-96.2265362
19814,Sycamore Drive,68028,41.1426098,-96.2263317
20255,Glendale Avenue Circle,68028,41.1441596,-96.2320848
11404,South 199th Street,68028,41.1416207,-96.2276268
11299,South 203rd Street,68028,41.1445382,-96.2320734
11280,Northridge Drive,68028,41.1449869,-96.2273933
11256,South 200th Avenue,68028,41.1456995,-96.2293934
11278,South 200th Street,68028,41.1450432,-96.2284654
11428,South 199th Street,68028,41.1405914,-96.2276452
11265,South 201st Street,68028,41.1455000,-96.2298664
11262,South 202nd Circle,68028,41.1454695,-96.2319234
19907,Hackberry Drive,68028,41.1436485,-96.2279474
19815,East Westplains Road,68028,41.1407284,-96.2263036
11324,South 200th Avenue,68028,41.1440520,-96.2297025
19825,Hazelnut Drive,68028,41.1399696,-96.2266908
20147,Glenmore Drive,68028,41.1457037,-96.2303658
20051,Hackberry Drive,68028,41.1436433,-96.2287778
11268,South 201st Street,68028,41.1454180,-96.2304136
11282,South 202nd Circle,68028,41.1451233,-96.2316805
20235,Glendale Avenue Circle,68028,41.1440762,-96.2315088
11313,South 201st Street,68028,41.1442704,-96.2301566
11281,South 203rd Street,68028,41.1449456,-96.2320914
11297,South 200th Street,68028,41.1440681,-96.2281263
11267,South 202nd Circle,68028,41.1455157,-96.2312327
19810,Sycamore Drive,68028,41.1426170,-96.2260799
11313,South 199th Street,68028,41.1432138,-96.2271710
19823,East Westplains Road,68028,41.1407230,-96.2268545
19827,East Westplains Road,68028,41.1407207,-96.2271189
19820,Acorn Drive,68028,41.1418633,-96.2265808
19829,Acorn Drive,68028,41.1414508,-96.2271086
19815,Sycamore Drive,68028,41.1421840,-96.2263151
11415,South 198th Street,68028,41.1412117,-96.2255061
19812,Acorn Drive,68028,41.1418714,-96.2260516
202,Sycamore Circle,68028,41.1428987,-96.2365163
226,East Westplains Road,68028,41.1412411,-96.2351211
130,East Westplains Road,68028,41.1412426,-96.2369604
11407,South 198th Street,68028,41.1415522,-96.2255129
11335,Northridge Drive,68028,41.1427721,-96.2255302
310,North Park Drive,68028,41.1417684,-96.2369709
11327,Northridge Drive,68028,41.1431047,-96.2256627
11339,Northridge Drive,68028,41.1425931,-96.2255220
237,Hackberry Drive,68028,41.1432727,-96.2344368
19827,Sycamore Drive,68028,41.1421983,-96.2271193
104,Enterprise Drive,68028,41.1459840,-96.2380333
214,Glendale Circle,68028,41.1445869,-96.2357827
238,Glendale Circle,68028,41.1443692,-96.2345433
214,Acorn Circle,68028,41.1420722,-96.2357587
122,Enterprise Drive,68028,41.1460971,-96.2374743
229,Hackberry Drive,68028,41.1432727,-96.2349042
234,Acorn Circle,68028,41.1419256,-96.2345419
11419,South 198th Street,68028,41.1410487,-96.2255007
11439,South 198th Street,68028,41.1401966,-96.2254923
238,East Westplains Road,68028,41.1412622,-96.2344345
509,Chestnut Drive,68028,41.1432421,-96.2374261
20615,Highway 370,68028,41.1464394,-96.2379194
11311,Northridge Circle,68028,41.1434618,-96.2261352
19822,East Westplains Road,68028,41.1411256,-96.2268518
19823,Sycamore Drive,68028,41.1421862,-96.2268610
210,East Glenmore Drive,68028,41.1455849,-96.2359346
20635,Highway 370,68028,41.1464235,-96.2382782
506,Chestnut Drive,68028,41.1431509,-96.2384917
510,Chestnut Drive,68028,41.1434979,-96.2383752
112,East Glenmore Drive,68028,41.1452563,-96.2374583
202,East Westplains Road,68028,41.1412249,-96.2365020
101,Enterprise Drive,68028,41.1453844,-96.2384234
11403,South 198th Street,68028,41.1417232,-96.2254970
226,Sycamore Circle,68028,41.1429227,-96.2351079
217,Glendale Circle,68028,41.1441674,-96.2356061
126,East Westplains Road,68028,41.1412558,-96.2372417
201,East Glenmore Drive,68028,41.1448730,-96.2363422
238,Hackberry Drive,68028,41.1436950,-96.2344443
109,Enterprise Drive,68028,41.1453584,-96.2379408
405,Chestnut Drive,68028,41.1424838,-96.2375408
233,Acorn Circle,68028,41.1417167,-96.2345949
206,Hackberry Drive,68028,41.1436927,-96.2363077
221,Sycamore Circle,68028,41.1424662,-96.2353311
213,Glendale Circle,68028,41.1441671,-96.2358335
601,Chestnut Drive,68028,41.1436824,-96.2374288
226,Acorn Circle,68028,41.1421041,-96.2350456
225,Glendale Circle,68028,41.1441234,-96.2351425
209,Acorn Circle,68028,41.1416478,-96.2360201
213,Hackberry Drive,68028,41.1433054,-96.2358371
209,East Glenmore Drive,68028,41.1450410,-96.2358589
225,Sycamore Circle,68028,41.1424285,-96.2350646
513,Chestnut Drive,68028,41.1434630,-96.2374341
229,East Glenmore Drive,68028,41.1450425,-96.2346820
118,East Westplains Road,68028,41.1415213,-96.2376498
221,Hackberry Drive,68028,41.1433052,-96.2353695
216,Enterprise Drive,68028,41.1464801,-96.2372108
609,Chestnut Drive,68028,41.1440965,-96.2374358
217,East Glenmore Drive,68028,41.1450421,-96.2353887
218,Acorn Circle,68028,41.1420536,-96.2355294
218,Hackberry Drive,68028,41.1436934,-96.2356037
217,Acorn Circle,68028,41.1416490,-96.2355592
233,Sycamore Circle,68028,41.1425231,-96.2346214
108,East Glenmore Drive,68028,41.1451894,-96.2379083
702,Chestnut Drive,68028,41.1443011,-96.2379701
202,Glendale Circle,68028,41.1445826,-96.2364448
226,Glendale Circle,68028,41.1446291,-96.2351314
201,Acorn Circle,68028,41.1416488,-96.2364735
620,North Highway 6,68028,41.1446161,-96.2383481
610,Chestnut Drive,68028,41.1441487,-96.2379706
230,Sycamore Circle,68028,41.1429474,-96.2348498
702,Chestnut Drive,68028,41.1446995,-96.2379687
205,Acorn Circle,68028,41.1416475,-96.2362507
602,North Highway 6,68028,41.1437175,-96.2386423
202,East Glenmore Drive,68028,41.1452891,-96.2367866
209,Hackberry Drive,68028,41.1433042,-96.2360707
301,Chestnut Drive,68028,41.1418008,-96.2376858
221,Glendale Circle,68028,41.1441661,-96.2353743
712,North Highway 6,68028,41.1450987,-96.2383324
201,Glendale Circle,68028,41.1441358,-96.2365072
19821,Acorn Drive,68028,41.1414454,-96.2265842
213,Acorn Circle,68028,41.1416490,-96.2357914
233,East Glenmore Drive,68028,41.1450429,-96.2344451
217,Hackberry Drive,68028,41.1433049,-96.2356045
225,Acorn Circle,68028,41.1415961,-96.2350734
605,Chestnut Drive,68028,41.1438862,-96.2374375
222,Acorn Circle,68028,41.1420678,-96.2352949
610,North Park Drive,68028,41.1440556,-96.2370341
229,Glendale Circle,68028,41.1441058,-96.2348923
222,Hackberry Drive,68028,41.1436935,-96.2353787
613,Chestnut Drive,68028,41.1442975,-96.2374378
225,East Glenmore Drive,68028,41.1450426,-96.2349104
234,Sycamore Circle,68028,41.1428503,-96.2346406
230,Acorn Circle,68028,41.1420931,-96.2347472
230,Glendale Circle,68028,41.1446473,-96.2348940
214,Hackberry Drive,68028,41.1436926,-96.2358399
122,East Westplains Road,68028,41.1413690,-96.2374770
218,Glendale Circle,68028,41.1445728,-96.2355627
238,Sycamore Circle,68028,41.1426899,-96.2345555
230,Hackberry Drive,68028,41.1436942,-96.2349118
206,Acorn Circle,68028,41.1420518,-96.2362193
11204,South 204th Street,68028,41.1460321,-96.2351641
202,Hackberry Drive,68028,41.1437298,-96.2365425
602,North Park Drive,68028,41.1436392,-96.2370815
706,North Park Drive,68028,41.1446295,-96.2369757
402,North Park Drive,68028,41.1419394,-96.2369659
11343,South 198th Street,68028,41.1422344,-96.2255207
502,North Park Drive,68028,41.1428364,-96.2370218
233,Hackberry Drive,68028,41.1432883,-96.2346711
510,North Park Drive,68028,41.1432229,-96.2370715
506,North Park Drive,68028,41.1430247,-96.2370232
218,Sycamore Circle,68028,41.1428819,-96.2355969
221,Acorn Circle,68028,41.1416169,-96.2353278
214,Sycamore Circle,68028,41.1428807,-96.2358253
234,Glendale Circle,68028,41.1445646,-96.2346660
222,Glendale Circle,68028,41.1445817,-96.2353529
501,Chestnut Drive,68028,41.1428292,-96.2375033
234,Hackberry Drive,68028,41.1437131,-96.2346777
210,Acorn Circle,68028,41.1420535,-96.2359897
306,North Park Drive,68028,41.1415848,-96.2369760
201,Sycamore Circle,68028,41.1424714,-96.2364709
401,Chestnut Drive,68028,41.1422764,-96.2375642
210,Hackberry Drive,68028,41.1437090,-96.2360733
217,Sycamore Circle,68028,41.1424765,-96.2355655
206,East Westplains Road,68028,41.1412464,-96.2362728
305,Chestnut Drive,68028,41.1420746,-96.2375934
11427,South 198th Street,68028,41.1407108,-96.2255075
213,Sycamore Circle,68028,41.1424740,-96.2357964
205,Glendale Circle,68028,41.1441646,-96.2362705
209,Glendale Circle,68028,41.1441648,-96.2360539
213,East Glenmore Drive,68028,41.1450208,-96.2356226
11431,South 198th Street,68028,41.1405379,-96.2254960
209,Sycamore Circle,68028,41.1424749,-96.2360255
206,Sycamore Circle,68028,41.1428806,-96.2362859
11323,Northridge Circle,68028,41.1434141,-96.2254659
19818,East Westplains Road,68028,41.1411200,-96.2265786
230,East Westplains Road,68028,41.1412659,-96.2348866
606,North Park Drive,68028,41.1438566,-96.2370661
233,Glendale Circle,68028,41.1441827,-96.2346684
705,Chestnut Drive,68028,41.1446844,-96.2374296
11315,Northridge Circle,68028,41.1435969,-96.2259184
205,Sycamore Circle,68028,41.1424743,-96.2362557
210,Sycamore Circle,68028,41.1428811,-96.2360551
221,East Glenmore Drive,68028,41.1450250,-96.2351498
19824,Acorn Drive,68028,41.1418614,-96.2268562
701,Chestnut Drive,68028,41.1444958,-96.2374317
210,Glendale Circle,68028,41.1445705,-96.2360012
206,Glendale Circle,68028,41.1445686,-96.2362279
410,North Park Drive,68028,41.1422914,-96.2369498
11443,South 198th Street,68028,41.1399710,-96.2254911
414,North Park Drive,68028,41.1424705,-96.2369622
610,North Highway 6,68028,41.1439759,-96.2383536
19825,Acorn Drive,68028,41.1414496,-96.2268489
19819,Sycamore Drive,68028,41.1421962,-96.2265886
614,North Park Drive,68028,41.1442601,-96.2370058
210,East Westplains Road,68028,41.1412384,-96.2360393
406,North Park Drive,68028,41.1421163,-96.2369680
19813,Acorn Drive,68028,41.1414611,-96.2260536
11331,Northridge Drive,68028,41.1429411,-96.2255717
11347,South 198th Street,68028,41.1420655,-96.2255039
226,Hackberry Drive,68028,41.1437093,-96.2351457
19810,East Westplains Road,68028,41.1411219,-96.2260406
222,East Westplains Road,68028,41.1412644,-96.2353517
202,Acorn Circle,68028,41.1420806,-96.2364390
514,North Park Drive,68028,41.1434254,-96.2370495
11351,South 198th Street,68028,41.1418944,-96.2255100
222,Sycamore Circle,68028,41.1429031,-96.2353648
201,Hackberry Drive,68028,41.1433024,-96.2365268
19811,Sycamore Drive,68028,41.1422056,-96.2260584
11423,South 198th Street,68028,41.1408785,-96.2255002
229,Acorn Circle,68028,41.1415890,-96.2348009
19817,Acorn Drive,68028,41.1414552,-96.2263098
205,East Glenmore Drive,68028,41.1450081,-96.2360985
225,Hackberry Drive,68028,41.1432841,-96.2351464
218,East Westplains Road,68028,41.1412621,-96.2355817
505,Chestnut Drive,68028,41.1430247,-96.2374760
205,Hackberry Drive,68028,41.1432730,-96.2363063
19826,East Westplains Road,68028,41.1411284,-96.2271142
11435,South 198th Street,68028,41.1403667,-96.2255035
11319,Northridge Circle,68028,41.1435686,-96.2256318
19816,Acorn Drive,68028,41.1418776,-96.2263084
234,East Westplains Road,68028,41.1412639,-96.2346634
11411,South 198th Street,68028,41.1413819,-96.2255050
502,Chestnut Drive,68028,41.1426884,-96.2381702
229,Sycamore Circle,68028,41.1424124,-96.2348135
19828,Acorn Drive,68028,41.1418713,-96.2271141
214,East Westplains Road,68028,41.1412399,-96.2358069
404,Chestnut Drive,68028,41.1423153,-96.2381711
702,North Park Drive,68028,41.1444571,-96.2369726
19814,East Westplains Road,68028,41.1411268,-96.2263006
207,Pontiac Drive,68028,41.1403418,-96.2395552
409,Pontiac Drive,68028,41.1422888,-96.2394575
417,Pontiac Drive,68028,41.1426165,-96.2395145
405,Pontiac Drive,68028,41.1421211,-96.2394922
501,Pontiac Drive,68028,41.1427835,-96.2395122
102,West Westplains Road,68028,41.1419567,-96.2394466
509,Pontiac Drive,68028,41.1431149,-96.2394925
413,Pontiac Drive,68028,41.1424545,-96.2394924
101,Michael Drive,68028,41.1432796,-96.2394687
505,Pontiac Drive,68028,41.1429501,-96.2394950
608,West Angus Road,68028,41.1397983,-96.2472602
106,North McKenna Avenue,68028,41.1399033,-96.2478583
107,South McKenna Avenue,68028,41.1392154,-96.2487032
706,West Angus Road,68028,41.1397617,-96.2487675
702,West Angus Road,68028,41.1397520,-96.2483539
109,North McKenna Avenue,68028,41.1399979,-96.2487292
105,North McKenna Avenue,68028,41.1398636,-96.2484610
112,South McKenna Avenue,68028,41.1392563,-96.2478336
709,West Angus Street,68028,41.1394735,-96.2487766
619,West Angus Street,68028,41.1394645,-96.2476616
205,Shamrock Road,68028,41.1407659,-96.2402664
209,Shamrock Road,68028,41.1407493,-96.2404616
148,Chippewa Circle,68028,41.1413528,-96.2458008
136,Chippewa Circle,68028,41.1407788,-96.2452564
343,Shamrock Road,68028,41.1411942,-96.2427236
120,North Scott Street,68028,41.1403126,-96.2492711
128,Chippewa Circle,68028,41.1408063,-96.2447210
339,Shamrock Road,68028,41.1411771,-96.2425198
233,Shamrock Road,68028,41.1409993,-96.2416080
124,Chippewa Circle,68028,41.1407283,-96.2443559
342,Shamrock Road,68028,41.1415939,-96.2427784
217,Shamrock Road,68028,41.1407560,-96.2409153
221,Shamrock Road,68028,41.1407920,-96.2411455
213,Shamrock Road,68028,41.1407510,-96.2407013
431,West Westplains Road,68028,41.1417219,-96.2451481
218,Shamrock Road,68028,41.1411905,-96.2409880
310,Pontiac Drive,68028,41.1415386,-96.2400334
335,West Westplains Road,68028,41.1419658,-96.2422898
439,West Westplains Road,68028,41.1416435,-96.2453497
123,North Scott Street,68028,41.1404637,-96.2497407
612,Patrick Circle,68028,41.1445485,-96.2445793
229,West Westplains Road,68028,41.1418289,-96.2416099
417,West Westplains Road,68028,41.1417559,-96.2442798
403,West Westplains Road,68028,41.1418285,-96.2434889
213,West Westplains Road,68028,41.1415734,-96.2407147
304,Pontiac Drive,68028,41.1412151,-96.2400120
211,Pontiac Drive,68028,41.1406243,-96.2395603
140,Chippewa Circle,68028,41.1408835,-96.2455810
522,Michael Drive,68028,41.1450184,-96.2457071
115,North Scott Street,68028,41.1401668,-96.2498108
607,Patrick Circle,68028,41.1444671,-96.2439855
116,North Scott Street,68028,41.1401774,-96.2492695
604,Patrick Circle,68028,41.1442388,-96.2444553
115,North McKenna Avenue,68028,41.1401747,-96.2485588
709,Patrick Circle,68028,41.1453087,-96.2440574
222,Cherokee Drive,68028,41.1408181,-96.2422390
608,Patrick Circle,68028,41.1443862,-96.2445739
702,Patrick Circle,68028,41.1449394,-96.2448261
724,West Angus Road,68028,41.1397702,-96.2493101
109,Cherokee Drive,68028,41.1400759,-96.2420542
345,Shamrock Road,68028,41.1411922,-96.2429393
205,West Westplains Road,68028,41.1415943,-96.2402484
119,North Scott Street,68028,41.1403284,-96.2498114
111,North Scott Street,68028,41.1400118,-96.2498159
820,West Angus Road,68028,41.1400317,-96.2503099
410,West Angus Road,68028,41.1399012,-96.2424881
349,Shamrock Road,68028,41.1412064,-96.2431433
215,Pontiac Drive,68028,41.1407879,-96.2395637
301,Pontiac Drive,68028,41.1411078,-96.2395466
346,Shamrock Road,68028,41.1415884,-96.2430202
309,Pontiac Drive,68028,41.1414384,-96.2395273
323,West Westplains Road,68028,41.1419226,-96.2418332
119,North McKenna Avenue,68028,41.1403553,-96.2484128
314,Pawnee Drive,68028,41.1415889,-96.2434985
225,Shamrock Road,68028,41.1408524,-96.2413226
421,West Westplains Road,68028,41.1417659,-96.2444767
212,Shamrock Road,68028,41.1411606,-96.2407277
705,Patrick Circle,68028,41.1450478,-96.2440064
209,West Westplains Road,68028,41.1415906,-96.2404806
425,West Westplains Road,68028,41.1417635,-96.2446960
429,West Westplains Road,68028,41.1417649,-96.2449147
331,West Westplains Road,68028,41.1419443,-96.2420876
117,North McKenna Avenue,68028,41.1402784,-96.2484339
413,West Westplains Road,68028,41.1417549,-96.2440619
305,Pontiac Drive,68028,41.1412577,-96.2395430
343,West Westplains Road,68028,41.1419467,-96.2427564
616,Patrick Circle,68028,41.1446835,-96.2445755
208,Shamrock Road,68028,41.1411670,-96.2405179
221,West Westplains Road,68028,41.1416923,-96.2411908
217,Cherokee Drive,68028,41.1408167,-96.2416535
320,Shamrock Road,68028,41.1415824,-96.2418191
328,Shamrock Road,68028,41.1415926,-96.2420703
334,Shamrock Road,68028,41.1415864,-96.2423003
347,West Westplains Road,68028,41.1419086,-96.2430032
204,Shamrock Road,68028,41.1411633,-96.2402582
132,Chippewa Circle,68028,41.1408061,-96.2449988
224,Shamrock Road,68028,41.1412835,-96.2412049
219,Pontiac Drive,68028,41.1409424,-96.2395632
96,Chippewa Circle,68028,41.1414052,-96.2451946
339,West Westplains Road,68028,41.1419379,-96.2425411
222,Cherokee Drive,68028,41.1411508,-96.2420635
211,Cherokee Drive,68028,41.1406356,-96.2416171
110,Chippewa Circle,68028,41.1412275,-96.2447796
308,Pawnee Drive,68028,41.1414110,-96.2434929
409,West Westplains Road,68028,41.1417567,-96.2438308
124,North Scott Street,68028,41.1404437,-96.2492992
112,South Scott Street,68028,41.1392839,-96.2492878
230,Shamrock Road,68028,41.1413878,-96.2413830
234,Shamrock Road,68028,41.1414981,-96.2415931
108,Chippewa Circle,68028,41.1412188,-96.2452176
201,Shamrock Road,68028,41.1407609,-96.2400539
144,Chippewa Circle,68028,41.1410719,-96.2458722
107,North Scott Street,68028,41.1397814,-96.2498011
335,Shamrock Road,68028,41.1411815,-96.2422721
217,West Westplains Road,68028,41.1416105,-96.2409527
110,South Scott Street,68028,41.1394246,-96.2494042
225,West Westplains Road,68028,41.1417728,-96.2414109
103,West Westplains Road,68028,41.1416214,-96.2394566
112,North Scott Street,68028,41.1400298,-96.2492625
116,Chippewa Circle,68028,41.1411649,-96.2440562
120,Chippewa Circle,68028,41.1408846,-96.2440791
615,Patrick Circle,68028,41.1448924,-96.2440215
353,Shamrock Road,68028,41.1412541,-96.2433706
338,Shamrock Road,68028,41.1416033,-96.2425463
114,Chippewa Circle,68028,41.1412645,-96.2444305
508,West Angus Road,68028,41.1401755,-96.2440907
347,West Glenmore Drive,68028,41.1442998,-96.2430043
334,Michael Drive,68028,41.1439474,-96.2421492
329,West Glenmore Drive,68028,41.1442979,-96.2420439
325,Paradise Drive,68028,41.1450907,-96.2422527
334,Highland Drive,68028,41.1431545,-96.2423725
714,Apache Drive,68028,41.1448585,-96.2410382
912,Pawnee Drive,68028,41.1466680,-96.2435281
317,Paradise Drive,68028,41.1450715,-96.2417416
340,West Glenmore Drive,68028,41.1447390,-96.2425331
231,West Glenmore Drive,68028,41.1442773,-96.2415522
320,Highland Drive,68028,41.1430937,-96.2416892
617,North Highway 6,68028,41.1445528,-96.2394692
346,West Glenmore Drive,68028,41.1447353,-96.2430148
10796,South 204th Street,68028,41.1526854,-96.2350709
206,West Westplains Road,68028,41.1420157,-96.2402269
329,Paradise Drive,68028,41.1450875,-96.2424950
221,Michael Drive,68028,41.1432944,-96.2411342
306,Highland Drive,68028,41.1429379,-96.2410455
720,Apache Drive,68028,41.1450961,-96.2411943
343,West Glenmore Drive,68028,41.1442993,-96.2427866
205,Highland Drive,68028,41.1424088,-96.2402384
220,Highland Drive,68028,41.1428990,-96.2408543
205,Michael Drive,68028,41.1432059,-96.2402268
323,Highland Drive,68028,41.1427063,-96.2418684
106,Michael Drive,68028,41.1436240,-96.2395855
817,Village Square,68028,41.1459577,-96.2393878
321,Paradise Drive,68028,41.1450760,-96.2419957
331,Highland Drive,68028,41.1427144,-96.2420940
609,Apache Drive,68028,41.1440566,-96.2402775
335,West Glenmore Drive,68028,41.1443182,-96.2422988
404,Pontiac Drive,68028,41.1420588,-96.2400124
611,North Highway 6,68028,41.1441662,-96.2396442
104,West Glenmore Drive,68028,41.1452092,-96.2400205
610,Apache Drive,68028,41.1440626,-96.2407996
216,West Glenmore Drive,68028,41.1446122,-96.2408945
217,Highland Drive,68028,41.1424568,-96.2409699
721,Apache Drive,68028,41.1450959,-96.2406003
313,Paradise Drive,68028,41.1450732,-96.2414767
210,West Westplains Road,68028,41.1420014,-96.2404554
342,West Westplains Road,68028,41.1423602,-96.2427943
808,Pawnee Drive,68028,41.1457099,-96.2435119
324,Highland Drive,68028,41.1431192,-96.2419079
216,West Westplains Road,68028,41.1420058,-96.2407206
11061,South 204th Street,68028,41.1488824,-96.2335621
20375,Patton Street,68028,41.1493316,-96.2334884
20602,Highway 370,68028,41.1477985,-96.2379828
313,Highland Drive,68028,41.1425922,-96.2413692
605,Apache Drive,68028,41.1436648,-96.2403664
725,Apache Drive,68028,41.1453373,-96.2405282
316,West Westplains Road,68028,41.1422796,-96.2415794
347,Michael Drive,68028,41.1435311,-96.2427979
159,West Glenmore Drive,68028,41.1446371,-96.2399490
816,Pawnee Drive,68028,41.1460979,-96.2435110
338,West Westplains Road,68028,41.1423664,-96.2425488
334,West Glenmore Drive,68028,41.1447303,-96.2422899
812,Pawnee Drive,68028,41.1459034,-96.2435107
20606,Highway 370,68028,41.1481527,-96.2378566
338,Highland Drive,68028,41.1431467,-96.2425907
11051,South 204th Street,68028,41.1491247,-96.2336140
343,Michael Drive,68028,41.1435357,-96.2425693
338,Michael Drive,68028,41.1439192,-96.2423669
330,Michael Drive,68028,41.1439103,-96.2418990
324,West Westplains Road,68028,41.1423421,-96.2418179
323,West Glenmore Drive,68028,41.1443062,-96.2418007
616,Pawnee Drive,68028,41.1449246,-96.2435131
102,Michael Drive,68028,41.1436767,-96.2393475
220,Michael Drive,68028,41.1436884,-96.2410160
206,Highland Drive,68028,41.1428148,-96.2402360
347,Highland Drive,68028,41.1427207,-96.2430049
230,West Glenmore Drive,68028,41.1446998,-96.2415097
908,Pawnee Drive,68028,41.1464656,-96.2435437
335,Highland Drive,68028,41.1427546,-96.2423326
342,West Glenmore Drive,68028,41.1447187,-96.2427730
346,West Westplains Road,68028,41.1423668,-96.2430040
614,Pawnee Drive,68028,41.1447230,-96.2435141
210,Highland Drive,68028,41.1428355,-96.2404296
324,West Glenmore Drive,68028,41.1447256,-96.2417812
224,West Westplains Road,68028,41.1421272,-96.2411242
510,Pontiac Drive,68028,41.1431878,-96.2399839
317,Highland Drive,68028,41.1426396,-96.2416009
330,Highland Drive,68028,41.1431391,-96.2421451
225,Michael Drive,68028,41.1433756,-96.2413428
410,Pontiac Drive,68028,41.1424215,-96.2399870
219,West Glenmore Drive,68028,41.1441542,-96.2410922
330,West Glenmore Drive,68028,41.1447194,-96.2420413
220,West Westplains Road,68028,41.1420575,-96.2409367
221,Highland Drive,68028,41.1425436,-96.2411776
720,Pawnee Drive,68028,41.1453144,-96.2435185
337,Paradise Drive,68028,41.1451024,-96.2430198
343,Highland Drive,68028,41.1427460,-96.2427998
331,Michael Drive,68028,41.1435154,-96.2419296
230,Michael Drive,68028,41.1438308,-96.2414471
217,Michael Drive,68028,41.1432351,-96.2409078
211,West Glenmore Drive,68028,41.1447091,-96.2402748
349,Michael Drive,68028,41.1435387,-96.2430092
216,Highland Drive,68028,41.1428545,-96.2406559
610,Pawnee Drive,68028,41.1443220,-96.2435136
333,Michael Drive,68028,41.1435006,-96.2421394
339,West Glenmore Drive,68028,41.1443156,-96.2425327
324,Michael Drive,68028,41.1438832,-96.2416762
226,Michael Drive,68028,41.1437586,-96.2412183
346,Highland Drive,68028,41.1431405,-96.2430102
339,Highland Drive,68028,41.1427535,-96.2425360
333,Paradise Drive,68028,41.1451025,-96.2427685
204,Michael Drive,68028,41.1436257,-96.2401134
230,West Westplains Road,68028,41.1422051,-96.2413595
310,Highland Drive,68028,41.1429769,-96.2412578
346,Michael Drive,68028,41.1439194,-96.2427995
229,Michael Drive,68028,41.1434344,-96.2415366
611,Apache Drive,68028,41.1442623,-96.2402824
323,Michael Drive,68028,41.1434843,-96.2417260
919,Village Square,68028,41.1465168,-96.2394354
334,West Westplains Road,68028,41.1423672,-96.2423151
342,Michael Drive,68028,41.1439267,-96.2425777
314,Highland Drive,68028,41.1430277,-96.2414630
339,Michael Drive,68028,41.1435067,-96.2423518
225,West Glenmore Drive,68028,41.1442408,-96.2413232
904,Pawnee Drive,68028,41.1462934,-96.2435304
350,Michael Drive,68028,41.1439148,-96.2430140
804,Pawnee Drive,68028,41.1455096,-96.2435055
342,Highland Drive,68028,41.1431491,-96.2427851
612,Pawnee Drive,68028,41.1445146,-96.2435019
213,Highland Drive,68028,41.1424459,-96.2407114
501,Michael Drive,68028,41.1434437,-96.2461369
330,West Westplains Road,68028,41.1423927,-96.2420697
213,Michael Drive,68028,41.1432326,-96.2406703
202,Michael Drive,68028,41.1436273,-96.2398608
710,Pawnee Drive,68028,41.1451186,-96.2435445
226,West Glenmore Drive,68028,41.1446811,-96.2412394
604,Apache Drive,68028,41.1436911,-96.2407740
209,Highland Drive,68028,41.1424282,-96.2404748
701,Apache Drive,68028,41.1444750,-96.2403014
10612,South 204th Street,68028,41.1532864,-96.2351249
209,Michael Drive,68028,41.1432375,-96.2404432
504,Pontiac Drive,68028,41.1428644,-96.2399918
422,Highland Drive,68028,41.1430177,-96.2446412
405,Chippewa Drive,68028,41.1421139,-96.2452312
414,Chippewa Drive,68028,41.1424664,-96.2458359
506,West Westplains Road,68028,41.1418461,-96.2458807
442,Highland Drive,68028,41.1429866,-96.2455892
442,Michael Drive,68028,41.1438869,-96.2455753
406,Highland Drive,68028,41.1430243,-96.2437041
405,North McKenna Avenue,68028,41.1423322,-96.2478184
407,Highland Drive,68028,41.1426069,-96.2437084
712,Burns Place,68028,41.1413706,-96.2490900
423,Highland Drive,68028,41.1426009,-96.2446600
418,Michael Drive,68028,41.1439744,-96.2444163
415,Chippewa Drive,68028,41.1424626,-96.2452730
205,North McKenna Avenue,68028,41.1408319,-96.2484037
304,North McKenna Avenue,68028,41.1417158,-96.2479101
410,North McKenna Avenue,68028,41.1427036,-96.2481637
414,North McKenna Avenue,68028,41.1430684,-96.2479082
418,Chippewa Drive,68028,41.1426505,-96.2458138
413,Michael Drive,68028,41.1434243,-96.2442885
725,Burns Place,68028,41.1415614,-96.2485924
421,Michael Drive,68028,41.1435039,-96.2448026
411,Highland Drive,68028,41.1426072,-96.2439564
410,Highland Drive,68028,41.1430092,-96.2439384
733,Burns Place,68028,41.1417820,-96.2488661
414,West Westplains Road,68028,41.1421606,-96.2442003
112,North McKenna Avenue,68028,41.1400937,-96.2478490
227,North McKenna Avenue,68028,41.1416052,-96.2483865
122,North McKenna Avenue,68028,41.1404577,-96.2478831
432,Highland Drive,68028,41.1430065,-96.2451095
439,Michael Drive,68028,41.1434969,-96.2455410
409,North McKenna Avenue,68028,41.1426157,-96.2476179
406,West Westplains Road,68028,41.1421790,-96.2437128
433,Michael Drive,68028,41.1435018,-96.2452995
418,Highland Drive,68028,41.1430072,-96.2444301
729,Burns Place,68028,41.1416694,-96.2487248
204,North McKenna Avenue,68028,41.1407524,-96.2478051
411,Chippewa Drive,68028,41.1422952,-96.2452883
120,North McKenna Avenue,68028,41.1403476,-96.2478419
422,Michael Drive,68028,41.1438981,-96.2446465
410,Chippewa Drive,68028,41.1422896,-96.2458121
427,Highland Drive,68028,41.1426125,-96.2448927
512,Pawnee Drive,68028,41.1434627,-96.2435190
514,Pawnee Drive,68028,41.1436281,-96.2434820
422,West Westplains Road,68028,41.1421815,-96.2446417
412,North McKenna Avenue,68028,41.1428845,-96.2480603
415,Highland Drive,68028,41.1426132,-96.2441915
422,Chippewa Drive,68028,41.1428365,-96.2457942
417,Michael Drive,68028,41.1434878,-96.2445434
401,Michael Drive,68028,41.1438036,-96.2439213
438,Highland Drive,68028,41.1430078,-96.2453459
506,Pawnee Drive,68028,41.1430455,-96.2434787
516,Pawnee Drive,68028,41.1437792,-96.2435304
306,North McKenna Avenue,68028,41.1418860,-96.2478509
222,North McKenna Avenue,68028,41.1414094,-96.2478560
419,Chippewa Drive,68028,41.1426298,-96.2452904
118,North McKenna Avenue,68028,41.1402795,-96.2479047
510,Pawnee Drive,68028,41.1432973,-96.2434995
407,North McKenna Avenue,68028,41.1424681,-96.2477215
419,Highland Drive,68028,41.1426155,-96.2444263
418,West Westplains Road,68028,41.1421690,-96.2444253
408,North McKenna Avenue,68028,41.1422213,-96.2484015
308,North McKenna Avenue,68028,41.1420929,-96.2478588
602,West Westplains Road,68028,41.1422072,-96.2471925
426,Highland Drive,68028,41.1430001,-96.2448727
405,Michael Drive,68028,41.1435656,-96.2439734
722,Burns Place,68028,41.1410391,-96.2487263
414,Highland Drive,68028,41.1430257,-96.2442015
604,West Westplains Road,68028,41.1413819,-96.2472685
518,Pawnee Drive,68028,41.1439422,-96.2435308
445,Michael Drive,68028,41.1435120,-96.2457888
410,West Westplains Road,68028,41.1421780,-96.2439551
305,North McKenna Avenue,68028,41.1418142,-96.2484108
425,Michael Drive,68028,41.1434828,-96.2450501
432,Michael Drive,68028,41.1438859,-96.2451145
600,West Westplains Road,68028,41.1413820,-96.2468660
426,Michael Drive,68028,41.1438916,-96.2448798
406,Chippewa Drive,68028,41.1421119,-96.2458129
400,West Westplains Road,68028,41.1422593,-96.2434815
416,Pawnee Drive,68028,41.1426305,-96.2435095
426,West Westplains Road,68028,41.1421831,-96.2448703
438,Michael Drive,68028,41.1438847,-96.2453464
101,South McKenna Avenue,68028,41.1395018,-96.2484170
103,South McKenna Avenue,68028,41.1394387,-96.2484170
409,Michael Drive,68028,41.1435114,-96.2440219
505,Michael Drive,68028,41.1433751,-96.2461374
515,Michael Drive,68028,41.1429420,-96.2465634
611,Patrick Circle,68028,41.1445873,-96.2439916
21422,Parkview Drive,68028,41.1457827,-96.2514001
11223,South 212th Street,68028,41.1457751,-96.2477541
21437,Parkview Drive,68028,41.1450947,-96.2512308
21441,Parkview Drive,68028,41.1449327,-96.2513776
21518,Amber Circle,68028,41.1462662,-96.2529618
21426,Parkview Drive,68028,41.1456079,-96.2515355
21534,Amber Drive,68028,41.1455973,-96.2528262
21507,Parkview Drive,68028,41.1446134,-96.2520279
21112,Paradise Drive,68028,41.1465399,-96.2470154
11222,South 213th Circle,68028,41.1457444,-96.2494928
21445,Parkview Drive,68028,41.1448040,-96.2515787
21414,Amber Drive,68028,41.1465119,-96.2518838
21414,Parkview Drive,68028,41.1461537,-96.2511742
21506,Amber Circle,68028,41.1465247,-96.2523126
21511,Parkview Drive,68028,41.1445174,-96.2522848
21535,Amber Drive,68028,41.1454790,-96.2522224
11315,South 213th Circle,68028,41.1449846,-96.2488929
21409,Parkview Drive,68028,41.1462715,-96.2506056
21421,Parkview Drive,68028,41.1457357,-96.2507475
11314,South 212th Street,68028,41.1449451,-96.2482830
21415,Amber Drive,68028,41.1460886,-96.2516850
21430,Parkview Drive,68028,41.1454423,-96.2516548
21527,Amber Drive,68028,41.1458021,-96.2520045
21506,Parkview Drive,68028,41.1450215,-96.2522851
21503,Parkview Drive,68028,41.1447027,-96.2517902
21425,Parkview Drive,68028,41.1455680,-96.2508640
11302,South 212th Street,68028,41.1455251,-96.2482807
11308,South 213th Circle,68028,41.1453702,-96.2495135
11316,South 213th Circle,68028,41.1449233,-96.2494763
21419,Amber Drive,68028,41.1459531,-96.2518771
21117,Paradise Drive,68028,41.1461375,-96.2473714
21413,Parkview Drive,68028,41.1461014,-96.2505889
21433,Parkview Drive,68028,41.1452594,-96.2511391
21514,Amber Circle,68028,41.1464711,-96.2528637
11206,South 213th Circle,68028,41.1464369,-96.2496470
21429,Parkview Drive,68028,41.1454062,-96.2509842
21526,Amber Circle,68028,41.1459305,-96.2525074
11311,South 213th Circle,68028,41.1452018,-96.2487945
21531,Amber Drive,68028,41.1456333,-96.2521046
11201,South 213th Circle,68028,41.1466279,-96.2490196
21402,Amber Drive,68028,41.1465154,-96.2511208
21502,Parkview Drive,68028,41.1451084,-96.2519842
21406,Amber Drive,68028,41.1465221,-96.2513676
21401,Parkview Drive,68028,41.1466252,-96.2506046
21518,Parkview Drive,68028,41.1448719,-96.2527923
11205,South 213th Circle,68028,41.1464581,-96.2489664
11217,South 213th Circle,68028,41.1459221,-96.2489534
21530,Amber Drive,68028,41.1457220,-96.2526738
21434,Parkview Drive,68028,41.1452611,-96.2517748
11312,South 213th Circle,68028,41.1451313,-96.2496011
11307,South 210th Avenue,68028,41.1454181,-96.2467308
21002,Paradise Drive,68028,41.1466133,-96.2452022
11315,South 210th Avenue,68028,41.1451275,-96.2470290
21014,Paradise Drive,68028,41.1465233,-96.2459919
11305,South 212th Street,68028,41.1453911,-96.2477718
11309,South 212th Street,68028,41.1452153,-96.2477715
21104,Paradise Drive,68028,41.1465252,-96.2465026
21510,Amber Circle,68028,41.1465581,-96.2525937
11221,South 213th Circle,68028,41.1457414,-96.2489555
11326,South 212th Street,68028,41.1443613,-96.2480226
11322,South 212th Street,68028,41.1445243,-96.2482838
11319,South 213th Circle,68028,41.1448601,-96.2491529
21105,Paradise Drive,68028,41.1461542,-96.2465782
11317,South 212th Street,68028,41.1448142,-96.2476579
11303,South 210th Avenue,68028,41.1455601,-96.2465779
11215,South 212th Street,68028,41.1461613,-96.2477732
11325,South 212th Street,68028,41.1444404,-96.2477244
21120,Paradise Drive,68028,41.1465351,-96.2475254
21538,Amber Drive,68028,41.1453908,-96.2529060
11209,South 213th Circle,68028,41.1462797,-96.2489548
11224,South 212th Street,68028,41.1457187,-96.2483059
11217,South 210th Avenue,68028,41.1459636,-96.2461205
11204,South 212th Street,68028,41.1466576,-96.2483072
11301,South 212th Street,68028,41.1455842,-96.2477691
21018,Paradise Drive,68028,41.1465253,-96.2462478
21108,Paradise Drive,68028,41.1465367,-96.2467602
21519,Parkview Drive,68028,41.1444637,-96.2528008
11210,South 213th Circle,68028,41.1462750,-96.2495545
11218,South 213th Circle,68028,41.1459156,-96.2494694
11310,South 212th Street,68028,41.1451378,-96.2482837
11304,South 210th Avenue,68028,41.1457264,-96.2471138
11307,South 213th Circle,68028,41.1453827,-96.2489134
11224,South 210th Avenue,68028,41.1458487,-96.2469398
21109,Paradise Drive,68028,41.1461381,-96.2468614
11319,South 210th Avenue,68028,41.1449838,-96.2471715
11321,South 212th Street,68028,41.1446414,-96.2475963
21006,Paradise Drive,68028,41.1465247,-96.2454862
11225,South 210th Avenue,68028,41.1456945,-96.2464207
21410,Amber Drive,68028,41.1465262,-96.2516117
11219,South 212th Street,68028,41.1459686,-96.2477547
21124,Paradise Drive,68028,41.1465225,-96.2477811
21405,Parkview Drive,68028,41.1464564,-96.2506094
11318,South 212th Street,68028,41.1447528,-96.2483002
21522,Parkview Drive,68028,41.1448889,-96.2530368
11213,South 213th Circle,68028,41.1461029,-96.2489528
11221,South 210th Avenue,68028,41.1458172,-96.2462518
11312,South 210th Avenue,68028,41.1454495,-96.2473512
21515,Parkview Drive,68028,41.1444800,-96.2525498
11308,South 210th Avenue,68028,41.1455953,-96.2472474
11220,South 212th Street,68028,41.1459124,-96.2483060
11213,South 210th Avenue,68028,41.1461524,-96.2460679
11216,South 212th Street,68028,41.1461001,-96.2483057
21007,Paradise Drive,68028,41.1461554,-96.2456770
11323,South 210th Avenue,68028,41.1448671,-96.2473511
21542,Amber Drive,68028,41.1451961,-96.2529563
11303,South 213th Circle,68028,41.1455632,-96.2489239
21113,Paradise Drive,68028,41.1461300,-96.2471156
21502,Amber Circle,68028,41.1463639,-96.2521395
21417,Parkview Drive,68028,41.1458949,-96.2506303
11202,South 213th Circle,68028,41.1466164,-96.2496766
21523,Parkview Drive,68028,41.1444633,-96.2530406
11306,South 212th Street,68028,41.1453319,-96.2482960
11212,South 212th Street,68028,41.1462856,-96.2482991
11304,South 213th Circle,68028,41.1455649,-96.2494904
21418,Parkview Drive,68028,41.1459510,-96.2512916
21116,Paradise Drive,68028,41.1465438,-96.2472700
21522,Amber Circle,68028,41.1460823,-96.2528219
11311,South 210th Avenue,68028,41.1452778,-96.2468735
11208,South 212th Street,68028,41.1464710,-96.2483006
11214,South 213th Circle,68028,41.1460929,-96.2495090
21010,Paradise Drive,68028,41.1465237,-96.2457439
21539,Amber Drive,68028,41.1452986,-96.2523391
21209,Schofield Drive,68028,41.1493555,-96.2484182
21003,Shiloh Drive,68028,41.1491768,-96.2462485
20905,Shiloh Circle,68028,41.1491086,-96.2443581
20913,Schofield Circle,68028,41.1500786,-96.2449723
21013,McClellan Drive,68028,41.1481756,-96.2463742
11016,South 213th Street,68028,41.1485232,-96.2496613
20923,McClellan Circle,68028,41.1482888,-96.2441050
20919,McClellan Circle,68028,41.1480944,-96.2441068
21002,Shiloh Drive,68028,41.1495988,-96.2462638
21244,McClellan Drive,68028,41.1476950,-96.2489985
20907,Hampton Circle,68028,41.1512398,-96.2444082
21104,Schofield Drive,68028,41.1504661,-96.2464770
21210,McClellan Drive,68028,41.1477374,-96.2481164
21218,McClellan Drive,68028,41.1476951,-96.2487208
20917,Schofield Circle,68028,41.1499879,-96.2452715
11108,South 213th Street,68028,41.1480911,-96.2497656
20902,Shiloh Circle,68028,41.1495190,-96.2440902
20942,McClellan Drive,68028,41.1486177,-96.2452597
20914,Schofield Circle,68028,41.1505498,-96.2449715
21206,Schofield Drive,68028,41.1497653,-96.2485914
21227,Shiloh Drive,68028,41.1481492,-96.2488240
21223,Shiloh Drive,68028,41.1482161,-96.2485607
10918,South 210th Street,68028,41.1496025,-96.2458279
21211,McClellan Drive,68028,41.1472781,-96.2481530
11116,South 213th Street,68028,41.1476593,-96.2497336
21203,Shiloh Drive,68028,41.1487355,-96.2474662
11005,South 213th Street,68028,41.1489008,-96.2489494
21211,Shiloh Drive,68028,41.1484961,-96.2478694
21103,Schofield Drive,68028,41.1500075,-96.2465289
21112,Shiloh Drive,68028,41.1493284,-96.2473877
20906,McClellan Circle,68028,41.1473901,-96.2447390
20910,McClellan Circle,68028,41.1476001,-96.2448945
21202,Shiloh Drive,68028,41.1490767,-96.2478251
21009,McClellan Drive,68028,41.1481872,-96.2460775
21207,Shiloh Drive,68028,41.1486357,-96.2476860
11104,South 213th Street,68028,41.1483071,-96.2497255
21107,McClellan Drive,68028,41.1479542,-96.2468932
20938,McClellan Drive,68028,41.1486108,-96.2449716
21114,McClellan Drive,68028,41.1481358,-96.2475192
20910,Shiloh Circle,68028,41.1496724,-96.2446796
20901,Shiloh Circle,68028,41.1492818,-96.2441169
20901,Schofield Circle,68028,41.1503422,-96.2441166
21214,Schofield Drive,68028,41.1495354,-96.2491058
20910,Schofield Circle,68028,41.1507241,-96.2447189
21109,Shiloh Drive,68028,41.1489621,-96.2470220
21124,Schofield Drive,68028,41.1501057,-96.2478621
21002,Schofield Drive,68028,41.1504448,-96.2458581
20904,Hampton Circle,68028,41.1516667,-96.2441510
21005,Schofield Drive,68028,41.1500110,-96.2462523
21108,Schofield Drive,68028,41.1504185,-96.2467664
20914,Shiloh Circle,68028,41.1496071,-96.2449768
20909,Schofield Circle,68028,41.1501521,-96.2446865
21116,Shiloh Drive,68028,41.1492010,-96.2475984
20939,McClellan Drive,68028,41.1481800,-96.2452942
10901,South 210th Street,68028,41.1505062,-96.2452692
21219,Shiloh Drive,68028,41.1482659,-96.2482671
21213,Schofield Drive,68028,41.1492476,-96.2486138
21120,Schofield Drive,68028,41.1502309,-96.2476116
21102,McClellan Drive,68028,41.1485304,-96.2468507
21202,McClellan Drive,68028,41.1479973,-96.2476818
21119,Schofield Drive,68028,41.1497490,-96.2475247
20935,McClellan Circle,68028,41.1481889,-96.2449960
20917,Shiloh Circle,68028,41.1491825,-96.2452565
20907,McClellan Circle,68028,41.1474689,-96.2441245
20906,Shiloh Circle,68028,41.1496785,-96.2443719
21007,Shiloh Drive,68028,41.1491457,-96.2465256
21008,McClellan Drive,68028,41.1485838,-96.2465515
21105,Shiloh Drive,68028,41.1490465,-96.2467968
20934,McClellan Circle,68028,41.1486350,-96.2446897
11010,South 210th Street,68028,41.1488061,-96.2457943
20903,McClellan Circle,68028,41.1473245,-96.2444136
21006,Shiloh Drive,68028,41.1495692,-96.2465577
21203,McClellan Drive,68028,41.1474285,-96.2475670
21128,Schofield Drive,68028,41.1499858,-96.2480934
20908,Hampton Circle,68028,41.1518373,-96.2444041
20915,McClellan Circle,68028,41.1479023,-96.2441076
10910,South 210th Street,68028,41.1500458,-96.2458547
20906,Schofield Circle,68028,41.1507587,-96.2443850
21207,McClellan Drive,68028,41.1473497,-96.2478672
21005,McClellan Drive,68028,41.1481697,-96.2458182
20914,McClellan Circle,68028,41.1478212,-96.2448255
10803,South 210th Street,68028,41.1511023,-96.2455661
21004,McClellan Drive,68028,41.1486072,-96.2462477
20916,Hampton Circle,68028,41.1516381,-96.2449998
21218,Schofield Drive,68028,41.1493578,-96.2492969
21201,Schofield Drive,68028,41.1495468,-96.2479754
21123,Schofield Drive,68028,41.1496302,-96.2477600
20915,Hampton Circle,68028,41.1511107,-96.2449965
21116,Schofield Drive,68028,41.1503346,-96.2473477
11010,South 213th Street,68028,41.1487186,-96.2495792
21210,Schofield Drive,68028,41.1496809,-96.2488561
20930,McClellan Circle,68028,41.1486611,-96.2443504
21243,Shiloh Drive,68028,41.1481426,-96.2491079
21210,Shiloh Drive,68028,41.1488253,-96.2482736
11112,South 213th Street,68028,41.1478656,-96.2497727
21217,Schofield Drive,68028,41.1490871,-96.2488053
11006,South 213th Street,68028,41.1489182,-96.2495251
21104,Shiloh Drive,68028,41.1495287,-96.2468640
11014,South 210th Street,68028,41.1486069,-96.2458228
20911,Hampton Circle,68028,41.1512163,-96.2447139
20918,Shiloh Circle,68028,41.1496012,-96.2452624
20912,Hampton Circle,68028,41.1518129,-96.2447638
20903,Hampton Circle,68028,41.1514236,-96.2441310
11108,South 212th Circle,68028,41.1473407,-96.2468938
10914,South 210th Street,68028,41.1498123,-96.2458335
21113,Shiloh Drive,68028,41.1488605,-96.2472702
11002,South 210th Street,68028,41.1491941,-96.2458198
20913,Shiloh Circle,68028,41.1491671,-96.2449737
21006,Schofield Drive,68028,41.1504760,-96.2461569
21202,Schofield Drive,68028,41.1498875,-96.2483509
21111,McClellan Drive,68028,41.1478064,-96.2471581
21219,McClellan Drive,68028,41.1472590,-96.2487190
21215,McClellan Drive,68028,41.1472502,-96.2484678
21111,Schofield Drive,68028,41.1499352,-96.2470759
20911,McClellan Circle,68028,41.1477089,-96.2440785
21103,McClellan Drive,68028,41.1481146,-96.2467010
21001,McClellan Drive,68028,41.1481819,-96.2455567
21107,Schofield Drive,68028,41.1499719,-96.2467989
11105,South 212th Circle,68028,41.1475865,-96.2468708
11002,South 213th Street,68028,41.1491139,-96.2494327
21112,Schofield Drive,68028,41.1503654,-96.2470586
21223,McClellan Drive,68028,41.1472520,-96.2489963
20918,McClellan Circle,68028,41.1480694,-96.2446971
21215,Shiloh Drive,68028,41.1483973,-96.2480758
21205,Schofield Drive,68028,41.1494417,-96.2481691
21206,McClellan Drive,68028,41.1478539,-96.2478887
21214,McClellan Drive,68028,41.1476999,-96.2484156
11093,South 216th Street,68028,41.1479524,-96.2528755
20909,Shiloh Circle,68028,41.1491329,-96.2446561
21206,Shiloh Drive,68028,41.1489592,-96.2480431
20902,Schofield Circle,68028,41.1505899,-96.2441386
11101,South 216th Street,68028,41.1485388,-96.2528546
11104,South 212th Circle,68028,41.1472240,-96.2472036
20927,McClellan Circle,68028,41.1485070,-96.2441281
11006,South 210th Street,68028,41.1489970,-96.2458108
21106,McClellan Drive,68028,41.1483934,-96.2471186
21115,Schofield Drive,68028,41.1498337,-96.2473083
21108,Shiloh Drive,68028,41.1494114,-96.2471208
21110,McClellan Drive,68028,41.1482736,-96.2473349
20905,Schofield Circle,68028,41.1502026,-96.2443770
21218,Shiloh Drive,68028,41.1486115,-96.2487367
21214,Shiloh Drive,68028,41.1487283,-96.2485038
105,Cherokee Drive,68028,41.1398947,-96.2420542
21110,West Gruenther Road,68028,41.1472164,-96.2461093
21301,McClellan Circle,68028,41.1472414,-96.2496644
21305,McClellan Circle,68028,41.1472831,-96.2499668
21312,McClellan Circle,68028,41.1475973,-96.2506462
21313,McClellan Circle,68028,41.1472018,-96.2506133
21316,McClellan Circle,68028,41.1476008,-96.2508893
21317,McClellan Circle,68028,41.1472024,-96.2508772
21320,McClellan Circle,68028,41.1475865,-96.2511435
21321,McClellan Circle,68028,41.1471971,-96.2511350
21402,McClellan Circle,68028,41.1475852,-96.2513930
21403,McClellan Circle,68028,41.1471831,-96.2513919
21406,McClellan Circle,68028,41.1475877,-96.2516442
21407,McClellan Circle,68028,41.1472004,-96.2516449
21410,McClellan Circle,68028,41.1475787,-96.2518967
21411,McClellan Circle,68028,41.1471884,-96.2519029
21414,McClellan Circle,68028,41.1475805,-96.2521509
21415,McClellan Circle,68028,41.1471679,-96.2521960
21418,McClellan Circle,68028,41.1475812,-96.2524084
21421,McClellan Circle,68028,41.1471727,-96.2529557
21422,McClellan Circle,68028,41.1475948,-96.2526662
21426,McClellan Circle,68028,41.1474661,-96.2529308
20078,Glenmore Drive,68028,41.1464682,-96.2297408
21314,Hampton Drive,68028,41.1504076,-96.2501510
21423,Hampton Drive,68028,41.1491215,-96.2515231
21314,Buchanan Parkway,68028,41.1537759,-96.2512527
21434,Hampton Drive,68028,41.1495774,-96.2523459
21402,Lincoln Boulevard,68028,41.1513234,-96.2515165
21422,Hancock Drive,68028,41.1504537,-96.2520933
10626,South 210th Street,68028,41.1525864,-96.2463951
10703,South 212th Street,68028,41.1525661,-96.2486530
21315,Buchanan Parkway,68028,41.1532941,-96.2513334
10602,South 212th Street,68028,41.1533610,-96.2494243
10602,South 214th Street,68028,41.1525381,-96.2522288
21110,Buchanan Parkway,68028,41.1537851,-96.2485799
10611,South 210th Street,68028,41.1534372,-96.2462714
21310,Hampton Drive,68028,41.1505567,-96.2497733
21211,Hampton Drive,68028,41.1505368,-96.2486767
21110,Hampton Drive,68028,41.1513076,-96.2479521
11008,South 215th Street,68028,41.1495756,-96.2528826
10710,South 215th Street,68028,41.1529163,-96.2525597
21425,Hancock Drive,68028,41.1500077,-96.2523532
21212,Hampton Drive,68028,41.1508953,-96.2490073
21302,Buchanan Parkway,68028,41.1537708,-96.2504753
21104,Lincoln Boulevard,68028,41.1522319,-96.2478361
21421,Hancock Drive,68028,41.1500096,-96.2520912
21431,Hampton Drive,68028,41.1491140,-96.2520683
10607,South 211th Street,68028,41.1531649,-96.2476094
21426,Hampton Drive,68028,41.1495597,-96.2518289
10619,South 213th Street,68028,41.1525394,-96.2499228
21317,Lincoln Boulevard,68028,41.1508849,-96.2507800
10701,South 213th Street,68028,41.1523575,-96.2498468
10803,South 215th Street,68028,41.1522038,-96.2523562
21410,Hancock Drive,68028,41.1504367,-96.2513323
10601,South 212th Street,68028,41.1533575,-96.2488357
21004,Buchanan Parkway,68028,41.1537958,-96.2469275
21212,Buchanan Parkway,68028,41.1537797,-96.2499546
10707,South 212th Street,68028,41.1523881,-96.2485667
10918,South 215th Street,68028,41.1500142,-96.2529172
10709,South 213th Street,68028,41.1519867,-96.2496708
21208,Buchanan Parkway,68028,41.1537735,-96.2496792
11004,South 215th Street,68028,41.1498069,-96.2528894
21003,Hampton Drive,68028,41.1510817,-96.2461590
21302,Hampton Drive,68028,41.1507863,-96.2492564
21103,Lincoln Boulevard,68028,41.1518241,-96.2476350
21417,Hancock Drive,68028,41.1500167,-96.2518340
10717,South 210th Street,68028,41.1517408,-96.2455934
21012,Buchanan Parkway,68028,41.1537964,-96.2474857
21418,Hampton Drive,68028,41.1495629,-96.2512603
21205,Lincoln Boulevard,68028,41.1514272,-96.2489691
21306,Hampton Drive,68028,41.1506761,-96.2495061
21106,Hampton Drive,68028,41.1513841,-96.2476756
10615,South 213th Street,68028,41.1527335,-96.2500208
21418,Hancock Drive,68028,41.1504539,-96.2518379
21012,Hampton Drive,68028,41.1514927,-96.2467788
10807,South 215th Street,68028,41.1520114,-96.2523010
10906,South 215th Street,68028,41.1506362,-96.2528860
21311,Lincoln Boulevard,68028,41.1510074,-96.2500313
21316,Lincoln Boulevard,68028,41.1513292,-96.2509535
10702,South 213th Street,68028,41.1522323,-96.2504234
21325,Lincoln Boulevard,68028,41.1508986,-96.2513143
21315,Lincoln Boulevard,68028,41.1508831,-96.2505022
10820,South 215th Street,68028,41.1513561,-96.2529043
21204,Buchanan Parkway,68028,41.1537851,-96.2493970
21406,Hancock Drive,68028,41.1504253,-96.2510732
21410,Lincoln Boulevard,68028,41.1513203,-96.2520685
10704,South 214th Street,68028,41.1520747,-96.2517376
10709,South 210th Street,68028,41.1521769,-96.2455936
10613,South 214th Street,68028,41.1524366,-96.2512540
21004,Hampton Drive,68028,41.1515234,-96.2461973
10610,South 210th Street,68028,41.1533677,-96.2469527
21107,Lincoln Boulevard,68028,41.1517541,-96.2479081
10614,South 212th Street,68028,41.1527617,-96.2493553
10706,South 211th Street,68028,41.1525239,-96.2479445
10812,South 215th Street,68028,41.1517532,-96.2528971
21201,Lincoln Boulevard,68028,41.1515225,-96.2487031
21016,Buchanan Parkway,68028,41.1537875,-96.2477583
21426,Hancock Drive,68028,41.1504302,-96.2523537
21109,Hampton Drive,68028,41.1508453,-96.2478970
10608,South 211th Street,68028,41.1531424,-96.2481598
21008,Hampton Drive,68028,41.1515162,-96.2464701
10702,South 215th Street,68028,41.1532153,-96.2522502
21413,Lincoln Boulevard,68028,41.1508852,-96.2523490
21016,Hampton Drive,68028,41.1515100,-96.2470831
10910,South 215th Street,68028,41.1504288,-96.2528933
10618,South 210th Street,68028,41.1529455,-96.2466914
21101,Hampton Drive,68028,41.1509675,-96.2473291
21408,Hampton Drive,68028,41.1497238,-96.2509807
21203,Hampton Drive,68028,41.1507496,-96.2481598
10706,South 213th Street,68028,41.1520217,-96.2503178
21106,Buchanan Parkway,68028,41.1537833,-96.2483059
10615,South 210th Street,68028,41.1532165,-96.2461596
21321,Lincoln Boulevard,68028,41.1508829,-96.2510482
10605,South 212th Street,68028,41.1531516,-96.2488148
10622,South 210th Street,68028,41.1527711,-96.2465378
10608,South 213th Street,68028,41.1531096,-96.2506580
10708,South 212th Street,68028,41.1522207,-96.2490962
10623,South 210th Street,68028,41.1528316,-96.2458885
21210,Lincoln Boulevard,68028,41.1517180,-96.2494571
21407,Hampton Drive,68028,41.1495055,-96.2504661
10707,South 214th Street,68028,41.1520307,-96.2510583
10610,South 212th Street,68028,41.1529691,-96.2494061
10609,South 214th Street,68028,41.1526258,-96.2514330
21419,Hampton Drive,68028,41.1491201,-96.2512481
10618,South 212th Street,68028,41.1525688,-96.2493055
10601,South 214th Street,68028,41.1528915,-96.2518837
21317,Hampton Drive,68028,41.1498777,-96.2501051
21108,Lincoln Boulevard,68028,41.1521791,-96.2481168
10611,South 211th Street,68028,41.1529724,-96.2475271
10902,South 215th Street,68028,41.1508426,-96.2529076
10815,South 215th Street,68028,41.1516240,-96.2523219
21005,Lincoln Boulevard,68028,41.1519499,-96.2464688
10612,South 213th Street,68028,41.1528864,-96.2506365
10715,South 214th Street,68028,41.1516255,-96.2509795
10701,South 210th Street,68028,41.1526432,-96.2457290
10607,South 210th Street,68028,41.1536604,-96.2462547
10714,South 215th Street,68028,41.1527778,-96.2527382
21313,Hampton Drive,68028,41.1500018,-96.2498459
21001,Lincoln Boulevard,68028,41.1519525,-96.2461714
10607,South 213th Street,68028,41.1531544,-96.2500366
10808,South 215th Street,68028,41.1519584,-96.2528999
21010,Lincoln Boulevard,68028,41.1523337,-96.2472566
21015,Hampton Drive,68028,41.1510181,-96.2470310
21206,Lincoln Boulevard,68028,41.1518033,-96.2491932
21204,Hampton Drive,68028,41.1511081,-96.2484889
10705,South 211th Street,68028,41.1525997,-96.2473504
21009,Lincoln Boulevard,68028,41.1519251,-96.2467626
10604,South 213th Street,68028,41.1533361,-96.2506495
10610,South 214th Street,68028,41.1522275,-96.2518612
21401,Lincoln Boulevard,68028,41.1508736,-96.2515671
21409,Hancock Drive,68028,41.1499801,-96.2513045
21007,Hampton Drive,68028,41.1510907,-96.2464501
10711,South 214th Street,68028,41.1518320,-96.2510062
21414,Lincoln Boulevard,68028,41.1513329,-96.2523463
21402,Hancock Drive,68028,41.1503904,-96.2508006
21112,Lincoln Boulevard,68028,41.1521300,-96.2484050
10703,South 214th Street,68028,41.1522348,-96.2511924
21403,Hampton Drive,68028,41.1496943,-96.2502779
10613,South 212th Street,68028,41.1527667,-96.2487077
10710,South 213th Street,68028,41.1518204,-96.2501835
21411,Hampton Drive,68028,41.1493223,-96.2505944
10609,South 212th Street,68028,41.1529541,-96.2487760
21318,Hampton Drive,68028,41.1502919,-96.2504927
21202,Lincoln Boulevard,68028,41.1519172,-96.2489458
10704,South 212th Street,68028,41.1523840,-96.2492053
21209,Lincoln Boulevard,68028,41.1512947,-96.2492011
10704,South 210th Street,68028,41.1524001,-96.2462046
21305,Hampton Drive,68028,41.1503067,-96.2491552
21207,Hampton Drive,68028,41.1506318,-96.2484112
21415,Hampton Drive,68028,41.1491812,-96.2509090
10722,South 215th Street,68028,41.1523723,-96.2529512
10721,South 210th Street,68028,41.1515397,-96.2455743
21013,Lincoln Boulevard,68028,41.1519131,-96.2470576
10702,South 211th Street,68028,41.1527341,-96.2480187
10718,South 215th Street,68028,41.1525821,-96.2529053
21405,Lincoln Boulevard,68028,41.1508750,-96.2518242
21301,Hampton Drive,68028,41.1504449,-96.2489397
10611,South 213th Street,68028,41.1529420,-96.2500519
21308,Lincoln Boulevard,68028,41.1514259,-96.2502156
10616,South 213th Street,68028,41.1526654,-96.2505827
21105,Hampton Drive,68028,41.1509239,-96.2476239
21312,Lincoln Boulevard,68028,41.1513556,-96.2506793
10708,South 214th Street,68028,41.1518696,-96.2516289
10705,South 210th Street,68028,41.1524022,-96.2456124
10804,South 215th Street,68028,41.1521648,-96.2529287
10712,South 214th Street,68028,41.1516541,-96.2515590
21011,Hampton Drive,68028,41.1510670,-96.2467428
21307,Lincoln Boulevard,68028,41.1511058,-96.2497176
10612,South 211th Street,68028,41.1529291,-96.2481322
21309,Hampton Drive,68028,41.1502001,-96.2494366
10620,South 213th Street,68028,41.1524441,-96.2505378
21002,Lincoln Boulevard,68028,41.1523632,-96.2467309
21435,Hampton Drive,68028,41.1490835,-96.2523668
10706,South 215th Street,68028,41.1530621,-96.2523817
10603,South 211th Street,68028,41.1533714,-96.2476028
21322,Buchanan Parkway,68028,41.1536131,-96.2517559
21409,Lincoln Boulevard,68028,41.1508724,-96.2520772
21216,Buchanan Parkway,68028,41.1537923,-96.2502198
10614,South 210th Street,68028,41.1531375,-96.2468638
21427,Hampton Drive,68028,41.1491178,-96.2517717
21430,Hampton Drive,68028,41.1495549,-96.2520844
11012,South 215th Street,68028,41.1493711,-96.2530052
21008,Buchanan Parkway,68028,41.1537795,-96.2472103
21208,Hampton Drive,68028,41.1510228,-96.2487595
10701,South 211th Street,68028,41.1527865,-96.2474477
10914,South 215th Street,68028,41.1502206,-96.2529279
21006,Lincoln Boulevard,68028,41.1523576,-96.2469916
21318,Buchanan Parkway,68028,41.1537392,-96.2515359
21306,Buchanan Parkway,68028,41.1537900,-96.2507303
11016,South 215th Street,68028,41.1491254,-96.2529160
21102,Buchanan Parkway,68028,41.1537984,-96.2480331
10605,South 214th Street,68028,41.1527767,-96.2516792
10604,South 211th Street,68028,41.1533788,-96.2482109
10603,South 213th Street,68028,41.1533575,-96.2500749
21406,Lincoln Boulevard,68028,41.1513289,-96.2517950
10713,South 210th Street,68028,41.1519556,-96.2455956
10606,South 212th Street,68028,41.1531674,-96.2494189
21102,Hampton Drive,68028,41.1514460,-96.2473813
21310,Buchanan Parkway,68028,41.1537784,-96.2509862
21114,Buchanan Parkway,68028,41.1537876,-96.2488724
21303,Lincoln Boulevard,68028,41.1512182,-96.2494708
10705,South 213th Street,68028,41.1521647,-96.2497804
10606,South 214th Street,68028,41.1524075,-96.2520384
21311,Buchanan Parkway,68028,41.1533366,-96.2510377
10811,South 215th Street,68028,41.1518182,-96.2523295
21017,Lincoln Boulevard,68028,41.1518787,-96.2473567
21304,Lincoln Boulevard,68028,41.1515177,-96.2499445
21422,Hampton Drive,68028,41.1495518,-96.2515753
21439,Hampton Drive,68028,41.1490467,-96.2526319
21414,Hancock Drive,68028,41.1504349,-96.2515891
10816,South 215th Street,68028,41.1515456,-96.2529226
10619,South 210th Street,68028,41.1530098,-96.2460478
20875,Lincoln Road,68028,41.1536653,-96.2417800
20905,Lincoln Road,68028,41.1532506,-96.2428525
11812,Lewison Lane,68028,41.1320904,-96.2267109
11820,South 202nd Circle,68028,41.1320760,-96.2311558
11825,Lewison Lane,68028,41.1314972,-96.2258430
11825,South 202nd Circle,68028,41.1320374,-96.2302120
11833,South 203rd Circle,68028,41.1320119,-96.2324834
11834,Iva Street,68028,41.1319673,-96.2289154
11840,South 202nd Circle,68028,41.1316702,-96.2311366
11845,South 202nd Circle,68028,41.1316093,-96.2302581
11850,South 202nd Circle,68028,41.1315067,-96.2307134
11860,South 203rd Circle,68028,41.1315120,-96.2332940
11863,South 203rd Circle,68028,41.1316239,-96.2323648
11880,South 203rd Circle,68028,41.1312445,-96.2329503
11883,South 203rd Circle,68028,41.1313794,-96.2325778
11884,Lewison Lane,68028,41.1309672,-96.2266561
11887,Lewison Lane,68028,41.1310672,-96.2258553
11896,Iva Street,68028,41.1308794,-96.2288839
11903,Iva Street,68028,41.1308891,-96.2281030
11913,Lewison Lane,68028,41.1306436,-96.2258484
11928,Iva Street,68028,41.1305046,-96.2288770
11930,South 194th Street,68028,41.1304995,-96.2186459
11932,Lewison Lane,68028,41.1305353,-96.2265914
11933,Iva Street,68028,41.1304941,-96.2281004
11957,Lewison Lane,68028,41.1301618,-96.2258374
11962,Lewison Lane,68028,41.1300397,-96.2266271
11963,Iva Street,68028,41.1300522,-96.2280923
11976,Iva Street,68028,41.1299178,-96.2288628
11977,South 202nd Street,68028,41.1299134,-96.2302691
11982,Lewison Lane,68028,41.1296911,-96.2266144
11985,Lewison Lane,68028,41.1294890,-96.2257515
11988,South 202nd Street,68028,41.1295444,-96.2310322
11993,Iva Street,68028,41.1296255,-96.2280879
12008,Iva Street,68028,41.1294845,-96.2288596
12009,South 202nd Street,68028,41.1294163,-96.2302634
12012,South 203rd Street,68028,41.1294295,-96.2332509
12019,Lewison Lane,68028,41.1290478,-96.2258181
12021,South 203rd Street,68028,41.1291840,-96.2324536
12024,Lewison Lane,68028,41.1290111,-96.2266087
12027,Iva Street,68028,41.1291773,-96.2280795
12028,South 202nd Street,68028,41.1288627,-96.2310584
12032,Iva Street,68028,41.1290401,-96.2288778
12033,South 202nd Street,68028,41.1289351,-96.2302685
12034,South 203rd Street,68028,41.1290053,-96.2332823
12047,Lewison Lane,68028,41.1286058,-96.2257104
12058,Iva Street,68028,41.1287032,-96.2288491
12064,Lewison Lane,68028,41.1285960,-96.2266038
12065,Iva Street,68028,41.1284880,-96.2280860
12073,South 203rd Street,68028,41.1286168,-96.2324610
12075,Lewison Lane,68028,41.1281646,-96.2257511
12075,South 202nd Street,68028,41.1284330,-96.2301859
12086,South 203rd Street,68028,41.1285632,-96.2332674
12093,Iva Street,68028,41.1281112,-96.2280846
12094,Lewison Lane,68028,41.1281405,-96.2265591
12095,South 203rd Street,68028,41.1281193,-96.2324658
12098,South 203rd Street,68028,41.1281090,-96.2333129
12108,Iva Street,68028,41.1279476,-96.2289133
12117,Lewison Lane,68028,41.1275801,-96.2256363
12128,Lewison Lane,68028,41.1276874,-96.2265941
12129,South 202nd Street,68028,41.1274715,-96.2303017
12137,Iva Street,68028,41.1276336,-96.2281014
12142,Iva Street,68028,41.1275459,-96.2291527
12145,South 202nd Street,68028,41.1269990,-96.2303035
12155,Lewison Lane,68028,41.1271164,-96.2257906
12159,Iva Street,68028,41.1271755,-96.2280657
12161,South 202nd Street,68028,41.1265795,-96.2301415
12162,Iva Street,68028,41.1271205,-96.2289924
12166,Lewison Lane,68028,41.1272428,-96.2265902
12177,South 202nd Street,68028,41.1261226,-96.2301813
12186,Lewison Lane,68028,41.1266913,-96.2267016
12189,Lewison Lane,68028,41.1266952,-96.2257982
12191,Iva Street,68028,41.1266607,-96.2278979
12192,Iva Street,68028,41.1266533,-96.2289291
12215,Lewison Lane,68028,41.1262763,-96.2257831
12232,Iva Street,68028,41.1262622,-96.2286706
12237,Lewison Lane,68028,41.1260838,-96.2264574
12242,Iva Street,68028,41.1260317,-96.2282178
12245,Lewison Lane,68028,41.1256240,-96.2269592
12252,Iva Street,68028,41.1258473,-96.2276714
19302,Bethel Boulevard,68028,41.1312640,-96.2181339
19371,Schram Road,68028,41.1317832,-96.2186243
19411,Schram Road,68028,41.1313745,-96.2192777
19415,Schram Road,68028,41.1320601,-96.2199974
19709,Schram Road,68028,41.1318213,-96.2241623
20005,Schram Road,68028,41.1320793,-96.2278606
20112,Vanlea Drive,68028,41.1305229,-96.2298720
20164,Vanlea Drive,68028,41.1305574,-96.2304344
20181,Woodridge Drive,68028,41.1280363,-96.2305207
20196,Vanlea Drive,68028,41.1304876,-96.2310256
20213,Woodridge Drive,68028,41.1277511,-96.2312498
20222,Woodridge Drive,68028,41.1283616,-96.2315196
20228,Vanlea Drive,68028,41.1304436,-96.2315094
20235,Woodridge Drive,68028,41.1275699,-96.2316226
20245,Jeannie Lane,68028,41.1258002,-96.2304843
20258,Jeannie Lane,68028,41.1262916,-96.2311876
20261,Jeannie Lane,68028,41.1256705,-96.2310779
20262,Vanlea Drive,68028,41.1302801,-96.2319031
20273,Vanlea Drive,68028,41.1296516,-96.2318142
20273,Woodridge Drive,68028,41.1274832,-96.2320447
20274,Jeannie Lane,68028,41.1262391,-96.2317231
20277,Jeannie Lane,68028,41.1256290,-96.2316627
20284,Vanlea Drive,68028,41.1300520,-96.2323495
20290,Jeannie Lane,68028,41.1263121,-96.2323109
20293,Jeannie Lane,68028,41.1257172,-96.2323896
20297,Woodridge Drive,68028,41.1274679,-96.2325102
20324,Vanlea Drive,68028,41.1298953,-96.2326920
20333,Woodridge Drive,68028,41.1274935,-96.2330209
20342,Vanlea Drive,68028,41.1296854,-96.2330515
20366,Jeannie Lane,68028,41.1263480,-96.2329402
20371,Jeannie Lane,68028,41.1257327,-96.2330644
20375,Woodridge Drive,68028,41.1274951,-96.2335320
20382,Jeannie Lane,68028,41.1263660,-96.2336418
20387,Jeannie Lane,68028,41.1256588,-96.2336925
11105,Sapp Brothers Drive,68138,41.1477420,-96.1615776
9595,South 145th Street,68138,41.1639711,-96.1405638
9305,South 145th Street,68138,41.1668365,-96.1398236
12190,S 216 Plaza,68028,41.1265085,-96.2543357
21417,Nebraska Crossing Drive,68028,41.0988806,-96.2521484
504,Devonshire Drive,68028,41.1385619,-96.2301057
19813,Ash Street,68028,41.1344884,-96.2265943
11335,South 204th Street,68028,41.1422815,-96.2322285
20332,Hackberry Drive,68028,41.1442993,-96.2330973
