House number,Street name,Postal code,Latitude,Longitude
8050,South 84th Street,68128,41.1773142,-96.0456353
9110,Giles Road,68128,41.1771168,-96.0542690
12040,McDermott Plaza,68128,41.1799014,-96.1014166
12040,Mcdermott Plaza #330,68128,41.1799609,-96.1015687
9930,Idora Street,68128,41.1797088,-96.0675763
8110,Park View Boulevard,68128,41.1871779,-96.0390663
7101,South 84th Street,68128,41.1894465,-96.0412729
8311,Harrison Street,68128,41.1903100,-96.0408713
8003,South 84th Street,68128,41.1794500,-96.0423751
8041,South 83rd Avenue,68128,41.1774755,-96.0413707
12331,Southport Parkway,68128,41.1804627,-96.1037886
6905,South 84th Street,68128,41.1898465,-96.0418728
8058,South 84th Street,68128,41.1770593,-96.0456445
12746,Westport Parkway,68138,41.1790591,-96.1148876
8351,Barmettler Drive,68128,41.1805652,-96.0423143
8220,Giles Road,68128,41.1768825,-96.0418030
8220,Giles Road,68128,41.1768797,-96.0416427
7603,South 96th Street,68128,41.1785197,-96.0626182
9810,Giles Road,68128,41.1767629,-96.0649397
8202,South 97th Plaza,68128,41.1779960,-96.0641407
8082,South 84th Street,68128,41.1767547,-96.0447716
8045,South 83rd Avenue,68128,41.1772592,-96.0413638
12410,Southport Parkway,68128,41.1807657,-96.1067124
12325,Port Grace Boulevard,68128,41.1828395,-96.1035164
8116,South 84th Street,68128,41.1768533,-96.0445479
8373,Barmettler Dr,68128,41.1809413,-96.0426842
8120,South 84th Street,68128,41.1772642,-96.0437991
8604,Giles Road,68128,41.1767458,-96.0469044
8007,South 84th Street,68128,41.1789316,-96.0424688
7920,South 84th Street,68128,41.1806250,-96.0436555
7223,South 84th Street,68128,41.1880673,-96.0423131
7201,South 84th Street,68128,41.1887051,-96.0422502
7102,South 84th Street,68128,41.1893018,-96.0422867
8420,West Brentwood Drive,68128,41.1801458,-96.0442401
8307,Park View Boulevard,68128,41.1874284,-96.0423970
7202,Giles Road,68046,41.1767562,-96.0246762
12040,McDermott Plaza,68128,41.1800679,-96.1017338
12040,McDermott Plaza,68128,41.1800979,-96.1020605
12121,McDermott Plaza,68046,41.1788238,-96.1025994
12059,McDermott Plaza,68128,41.1792383,-96.1022314
12048,Giles Road,68128,41.1784667,-96.1015642
8121,Eastport Parkway,68128,41.1787914,-96.1006988
7202,Giles Road,68128,41.1767627,-96.0242474
7202,Giles Road,68128,41.1767490,-96.0244868
7202,Giles Road,68128,41.1767559,-96.0249618
8016,Granville Parkway,68128,41.1782315,-96.0454891
12434,Southport Parkway,68128,41.1803352,-96.1074943
12434,Southport Parkway,68128,41.1802848,-96.1076499
10607,Harrison Street,68128,41.1902997,-96.0785635
7009,South 107th Street,68128,41.1873482,-96.0787017
7060,South 109th Avenue,68128,41.1867603,-96.0859545
7009,South 108th Street,68128,41.1871771,-96.0802279
10602,Olive Street,68128,41.1855402,-96.0771998
7042,South 108th Street,68128,41.1864996,-96.0819853
10724,Chandler Road,68128,41.1833712,-96.0800754
10711,Olive Street,68128,41.1844356,-96.0789584
10923,Olive Street,68128,41.1843063,-96.0848675
7029,South 107th Street,68128,41.1867600,-96.0787478
6949,South 107th Street,68128,41.1897002,-96.0787126
10811,Skinner Drive,68128,41.1858718,-96.0833157
7059,South 107th Street,68128,41.1859647,-96.0787184
7070,South 109th Avenue,68128,41.1860500,-96.0858712
10929,Olive Street,68128,41.1847965,-96.0855086
10913,Olive Street,68128,41.1841876,-96.0842972
7070,South 107th Street,68128,41.1857779,-96.0799763
6969,South 107th Street,68128,41.1885808,-96.0787132
10815,Olive Street,68128,41.1843382,-96.0834362
7080,South 109th Avenue,68128,41.1854891,-96.0858853
6949,South 108th Street,68128,41.1892899,-96.0803033
7001,South 109th Street,68128,41.1877253,-96.0829732
6950,South 110th Street,68128,41.1891640,-96.0888223
10905,Harrison Street,68128,41.1902005,-96.0841680
6966,South 110th Street,68128,41.1884551,-96.0886432
10811,Emiline Street,68128,41.1891396,-96.0830513
10811,Harrison Street,68128,41.1901420,-96.0830797
7030,South 110th Street,68128,41.1876590,-96.0883135
6950,South 108th Street,68128,41.1889187,-96.0820620
10936,Emiline Street,68128,41.1903317,-96.0876832
10918,Emiline Street,68128,41.1902140,-96.0857225
6949,South 110th Street,68128,41.1885028,-96.0870442
10923,Emiline Street,68128,41.1889365,-96.0854606
6995,South 109th Street,68128,41.1885388,-96.0830508
10804,Emiline Street,68128,41.1899471,-96.0823541
6998,South 108th Street,68128,41.1878275,-96.0820466
10925,Harrison Street,68128,41.1902684,-96.0868414
7002,South 109th Street,68128,41.1878803,-96.0848677
7050,South 110th Street,68128,41.1869653,-96.0876882
6910,South 108th Street,68128,41.1902723,-96.0820514
10915,Harrison Street,68128,41.1902435,-96.0849684
10911,Harrison Street,68128,41.1902128,-96.0846406
10913,Harrison Street,68128,41.1902278,-96.0848035
6920,South 108th Street,68128,41.1899864,-96.0819298
6912,South 110th Street,68128,41.1900335,-96.0888283
10727,Chandler Road,68128,41.1825259,-96.0795792
10630,Chandler Road,68128,41.1832320,-96.0767029
10416,Chandler Circle,68128,41.1823958,-96.0737884
10402,Chandler Circle,68128,41.1829151,-96.0736643
10630,Chandler Road,68128,41.1827303,-96.0767051
10456,Chandler Circle,68128,41.1824998,-96.0744227
10421,Chandler Circle,68128,41.1815522,-96.0739552
10345,Chandler Circle,68128,41.1819707,-96.0729123
7070,South 108th Street,68128,41.1857986,-96.0819791
7050,South 108th Street,68128,41.1861644,-96.0819819
7609,South 89th Street,68128,41.1823444,-96.0503926
12703,Westport Parkway,68138,41.1793371,-96.1112553
8248,South 96th Street,68128,41.1768500,-96.0627017
9460,Giles Road,68128,41.1776710,-96.0599223
9110,Giles Road,68128,41.1774245,-96.0542454
12750,Westport Parkway,68138,41.1792877,-96.1156195
12312,Port Grace Boulevard,68128,41.1860724,-96.1046933
12560,Westport Parkway,68128,41.1818746,-96.1101681
12520,Westport Parkway,68128,41.1816072,-96.1083565
9848,Giles Road,68128,41.1766568,-96.0665232
12515,Portside Parkway,68128,41.1779120,-96.1113405
8250,South 125th Street,68128,41.1771640,-96.1084561
7120,South 86th Street,68128,41.1880103,-96.0456127
7825,Leafplum Drive,68128,41.1815209,-96.0395346
7823,Leafplum Drive,68128,41.1816927,-96.0395307
7821,Leafplum Drive,68128,41.1818653,-96.0395275
7819,Leafplum Drive,68128,41.1820368,-96.0395286
7817,Leafplum Drive,68128,41.1822002,-96.0395308
7815,Leafplum Drive,68128,41.1823663,-96.0395247
7813,Leafplum Drive,68128,41.1825319,-96.0395293
7811,Leafplum Drive,68128,41.1827038,-96.0395279
7809,Leafplum Drive,68128,41.1828871,-96.0395123
7807,Leafplum Drive,68128,41.1830562,-96.0394371
7805,Leafplum Drive,68128,41.1831967,-96.0393003
7803,Leafplum Drive,68128,41.1832871,-96.0391098
7801,Leafplum Drive,68128,41.1833350,-96.0388784
7731,Leafplum Drive,68128,41.1833290,-96.0386470
7729,Leafplum Drive,68128,41.1832209,-96.0383767
7727,Leafplum Drive,68128,41.1830966,-96.0382169
7723,Leafplum Drive,68128,41.1827551,-96.0381069
7721,Leafplum Drive,68128,41.1825894,-96.0381088
7719,Leafplum Drive,68128,41.1824190,-96.0381078
7717,Leafplum Drive,68128,41.1822527,-96.0381089
7715,Leafplum Drive,68128,41.1820855,-96.0381041
7713,Leafplum Drive,68128,41.1819219,-96.0381079
7705,Willow Street,68128,41.1819030,-96.0377391
7709,Willow Street,68128,41.1818422,-96.0375210
7713,Willow Street,68128,41.1817395,-96.0373309
7717,Willow Street,68128,41.1815775,-96.0372225
7721,Willow Street,68128,41.1814046,-96.0372053
7725,Willow Street,68128,41.1812365,-96.0371989
7710,Willow Street,68128,41.1814899,-96.0377680
7718,Willow Street,68128,41.1813287,-96.0376974
7722,Willow Street,68128,41.1811622,-96.0376957
7726,Willow Street,68128,41.1810000,-96.0376956
7701,Leafplum Drive,68128,41.1808347,-96.0381101
7703,Leafplum Drive,68128,41.1810005,-96.0381093
7705,Leafplum Drive,68128,41.1811686,-96.0380899
8501,Granville Parkway,68128,41.1803827,-96.0457216
8440,Granville Parkway,68128,41.1807315,-96.0443494
7926,South 84th Street,68128,41.1802395,-96.0438195
1207,Deer Run Lane,68046,41.1669002,-96.0616474
642,Coyote Circle,68046,41.1673129,-96.0615332
644,Coyote Circle,68046,41.1675292,-96.0615483
646,Coyote Circle,68046,41.1677741,-96.0615383
648,Coyote Circle,68046,41.1680011,-96.0615616
652,Coyote Circle,68046,41.1682357,-96.0615782
654,Coyote Circle,68046,41.1684644,-96.0616148
656,Coyote Circle,68046,41.1686875,-96.0614266
8500,Granville Parkway,68128,41.1821692,-96.0453474
8014,South 84th Street,68128,41.1784659,-96.0424740
7700,Eastport Parkway,68128,41.1848349,-96.1026318
6901,South 84th Street,68128,41.1903018,-96.0418815
12223,McDermott Plaza,68128-2369,41.1792704,-96.1034517
7978,Main Street,68128,41.1801370,-96.0416886
8250,South 99th St,68128,41.1767653,-96.0674786
9849,Giles Road,68128,41.1758547,-96.0659850
9849,Giles Road,68128,41.1758576,-96.0663963
9807,Centennial Road,68128,41.1700926,-96.0640223
8101,Eastport Parkway,68128,41.1829659,-96.0965269
7701,South 96th Street,68128,41.1826952,-96.0610329
7222,South 84th Street,68128,41.1879786,-96.0437306
12330,Cary Circle,68218,41.1742400,-96.1072346
