House number,Street name,Postal code,Latitude,Longitude
1600,North Buffalo Bill Avenue,69101,41.1520876,-100.7910966
715,South Jeffers Street,69101,41.1273458,-100.7634429
200,South Silber Avenue,69101,41.1320081,-100.7560193
510,Centennial Circle,69101,41.1198664,-100.7690478
110,South Sherman Avenue,69101,41.1332298,-100.7839141
420,West 4th Street,69101,41.1368073,-100.7677764
100,McDonald Road,69101,41.1331151,-100.7825747
2801,West E Street,69101,41.1304688,-100.7961861
202,West 8th Street,69101,41.1423204,-100.7634790
402,South Baytree Avenue,69101,41.1308583,-100.7944585
808,West Philip Avenue,69101,41.1259870,-100.7730384
120,West 4th Street,69101,41.1363871,-100.7640344
221,East 5th Street,69101,41.1374982,-100.7609789
3211,South Newberry Road,69101,41.1026468,-100.7238580
501,Halligan Drive,69101,41.1119291,-100.7592420
300,Holiday Frontage Road,69101,41.1097063,-100.7669420
3211,Newberry Access Road,69101,41.1028085,-100.7239491
3201,South Jeffers Street,69101-6880,41.1055669,-100.7625090
235,East 6th Street,69101-4132,41.1385000,-100.7603500
2102,South Jeffers Street,69101,41.1153544,-100.7653219
2102,South Jeffers Street,69101,41.1148331,-100.7657759
2020,South Jeffers Street,69101,41.1157719,-100.7651140
201,South Jeffers Street,69101,41.1320071,-100.7637030
520,East Philip Avenue,69101,41.1258304,-100.7582145
1802,East 2nd Street,69101,41.1315799,-100.7426688
1001,Deerwood Drive,69101,41.1256179,-100.7978036
946,South Taft Avenue,69101,41.1255089,-100.7519981
2615,Rose Court,69101,41.1235118,-100.7931660
801,West Walker Road,69101,41.1049166,-100.7731031
220,West Eugene Avenue,69101,41.1076365,-100.7656850
3102,South Jeffers Street,69101,41.1066947,-100.7647700
4571,South Parkway Drive,69101,41.0937904,-100.7619690
321,South Dewey Street,69101,41.1309585,-100.7626302
601,Halligan Drive,69101,41.1115490,-100.7575474
920,North Jeffers Street,69101,41.1439697,-100.7619780
220,South Jeffers Street,69101,41.1318718,-100.7643433
102,East Philip Avenue,69101,41.1255884,-100.7634348
4000,West Philip Avenue,69101,41.1254522,-100.8096036
701,South Jeffers Street,69101,41.1278063,-100.7632929
414,North Willow Street,69101,41.1375929,-100.7670614
1300,East 4th Street,69101,41.1342200,-100.7482272
821,South Dewey Street,69101,41.1263491,-100.7626124
451,Halligan Drive,69101,41.1115868,-100.7598977
695,Halligan Drive,69101,41.1112630,-100.7559794
509,East 4th Street,69101,41.1360169,-100.7581150
1845,West A Street,69101,41.1350563,-100.7854456
920,North Jeffers Street,69101,41.1441137,-100.7623250
1220,East 4th Street,69101,41.1342545,-100.7490473
402,North Dewey Street,69101,41.1365353,-100.7621616
1815,West A Street,69101,41.1344827,-100.7852243
418,East Leota Street,69101,41.1196715,-100.7593131
418,East Leota Street,69101,41.1195815,-100.7593168
1220,South Cottonwood Street,69101,41.1227653,-100.7582071
601,West Leota Street,69101,41.1216559,-100.7701690
319,West South River Road,69101,41.1139421,-100.7671953
200,Platte Oasis Parkway,69101,41.1145702,-100.7619991
2302,South Jeffers Street,69101,41.1139576,-100.7658749
2320,South Jeffers Street,69101,41.1135472,-100.7657863
1200,McDonald Road,69101,41.1237115,-100.7793578
3900,West A Street,69101,41.1329760,-100.8070662
2401,Halligan Drive,69101,41.1118871,-100.7347497
700,East 3rd Street,69101,41.1340998,-100.7562286
200,West 9th Street,69101,41.1441623,-100.7640211
601,McDonald Road,69101,41.1281186,-100.7809256
1220,West 2nd Street,69101,41.1350380,-100.7774341
1008,West 18th Street,69101,41.1531933,-100.7685591
2000,West 2nd Street,69101,41.1370979,-100.7876443
1520,South Jeffers Street,69101,41.1197336,-100.7644674
1209,South Dewey Street,69101,41.1230228,-100.7620475
1850,South Jeffers,69101,41.1169192,-100.7647663
701,South Jeffers Street,69103,41.1275892,-100.7633969
2921,Scouts Rest Ranch Road,69101,41.1622009,-100.7952915
1015,South Jeffers Street,69101,41.1247429,-100.7635928
1013,South Jeffers Street,69101,41.1248838,-100.7635936
1424,South Dewey Street,69101,41.1211762,-100.7625519
402,East Francis Street,69101,41.1222465,-100.7600029
1220,South Cottonwood Street,69101,41.1227645,-100.7582084
3501,East Francis Street,69101,41.1228473,-100.7589478
602,East 4th Street,69101,41.1353563,-100.7568040
1020,South Jeffers Street,69101,41.1246721,-100.7632091
301,W 18th Street,69101,41.1534809,-100.7637169
3001,East Statefarm Road,69101,41.0937441,-100.7304312
1400,South Dewey Street,69101,41.1217744,-100.7634178
211,West Leota Street,69101,41.1212771,-100.7663353
1402,South Jeffers Street,69101,41.1211866,-100.7645587
121,West Leota Street,69101,41.1211677,-100.7650998
201,Platte Oasis Parkway,69101,41.1155145,-100.7618152
1300,McDonald Road,69101,41.1219849,-100.7813639
1501,South Dewey Street,69101,41.1201341,-100.7621191
3700,West Philip Avenue,69101,41.1255635,-100.8062037
951,Teal Court,69101,41.1256153,-100.8119108
2700,West Philip Avenue,69101,41.1257448,-100.7933223
805,West 6th Street,69101,41.1398722,-100.7716657
702,East Francis Street,69101,41.1219552,-100.7564550
504,South Jeffers Street,69101,41.1295536,-100.7642079
514,South Jeffers Street,69101,41.1293472,-100.7643142
1202,South Jeffers Street,69101,41.1234877,-100.7643091
1022,South Jeffers Street,69101,41.1250015,-100.7632096
1001,South Jeffers Street,69101,41.1251254,-100.7635174
721,East 4th Street,69101,41.1357393,-100.7549010
900,East 2nd Street,69101,41.1328590,-100.7534879
301,North Jeffers Street,69101,41.1359748,-100.7627270
1600,West E Street,69101,41.1290965,-100.7830930
314,North Jeffers Street,69101,41.1361960,-100.7637165
3301,Echo Drive,69101,41.1042564,-100.7818199
202,East Leota Street,69101,41.1205923,-100.7621132
1401,South Dewey Street,69101,41.1207792,-100.7576452
402,East Leota Street,69101,41.1199171,-100.7607275
402,East Leota Street,69101,41.1197428,-100.7606246
410,East Leota Street,69101,41.1194349,-100.7602739
410,East Leota Street,69101,41.1194354,-100.7600519
410,East Leota Street,69101,41.1194358,-100.7599503
410,East Leota Street,69101,41.1194359,-100.7598636
410,East Leota Street,69101,41.1194361,-100.7597881
410,East Leota Street,69101,41.1194361,-100.7597080
410,East Leota Street,69101,41.1194362,-100.7596178
410,East Leota Street,69101,41.1194355,-100.7600049
201,East Leota Street,69101,41.1209633,-100.7618857
201,East Leota Street,69101,41.1211618,-100.7618862
1318,South Chestnut Street,69101,41.1220039,-100.7607755
302,East Francis Street,69101,41.1220069,-100.7612157
320,East Francis Street,69101,41.1223146,-100.7611667
1313,South Dewey Street,69101,41.1219770,-100.7620338
1301,South Dewey Street,69101,41.1222690,-100.7621510
1321,South Chestnut Street,69101,41.1220279,-100.7598804
1320,South Cottonwood Street,69101,41.1219677,-100.7589110
1320,South Cottonwood Street,69101,41.1219682,-100.7587860
1320,South Cottonwood Street,69101,41.1219692,-100.7586657
1320,South Cottonwood Street,69101,41.1219696,-100.7585485
1320,South Cottonwood Street,69101,41.1219701,-100.7584253
1320,South Cottonwood Street,69101,41.1219705,-100.7582949
600,East Francis Street,69101,41.1219519,-100.7567671
600,East Francis Street,69101,41.1219548,-100.7569884
600,East Francis Street,69101,41.1219556,-100.7572076
600,East Francis Street,69101,41.1219576,-100.7576444
201,East Francis Street,69101,41.1228919,-100.7623105
319,East Francis Street,69101,41.1228550,-100.7609403
502,East Francis Street,69101,41.1222746,-100.7588540
502,East Francis Street,69101,41.1222743,-100.7587166
502,East Francis Street,69101,41.1222744,-100.7588207
1304,South Jeffers Street,69101,41.1222781,-100.7643674
1310,South Jeffers Street,69101,41.1217503,-100.7645071
207,West Leota Street,69101,41.1211152,-100.7657532
1210,South Jeffers Street,69101,41.1231330,-100.7644107
1220,South Dewey Street,69101,41.1231936,-100.7634499
102,East William Avenue,69101,41.1237193,-100.7634953
106,East William Avenue,69101,41.1237229,-100.7631717
