House number,Street name,Postal code,Latitude,Longitude
232,North Spruce Street,68064,41.3138318,-96.3453206
218,West Alexander Street,68064,41.3111518,-96.3506625
110,West Reichmuth Road,68064,41.3157847,-96.3435131
6085,North 261st Circle,68064,41.3111309,-96.3215634
203,North Spruce Street,68064,41.3130948,-96.3455854
121,West 2nd Street,68064,41.3141532,-96.3460113
203,North Spruce Street,68064,41.3132468,-96.3454715
206,North Spruce Street,68064,41.3132818,-96.3459000
207,North Spruce Street,68064,41.3133039,-96.3454018
208,North Spruce Street,68064,41.3133503,-96.3458302
209,North Spruce Street,68064,41.3133538,-96.3453562
218,West Gardiner Street,68064,41.3129373,-96.3478312
210,West Reichmuth Road,68064,41.3166612,-96.3444744
28484,West Reichmuth Road,68064,41.3283110,-96.3649839
28564,West Reichmuth Road,68064,41.3291811,-96.3663921
318,North Spruce Street,68064,41.3142732,-96.3448727
224,North Spruce Street,68064,41.3136719,-96.3454581
226,North Spruce Street,68064,41.3137021,-96.3454286
308,North Spruce Street,68064,41.3141156,-96.3450122
222,North Spruce Street,68064,41.3136255,-96.3455185
315,North Spruce Street,68064,41.3140393,-96.3446796
327,North Spruce Street,68064,41.3142088,-96.3444898
26120,East Meigs Street,68064,41.3127704,-96.3229783
207,East Valley Street,68064,41.3132395,-96.3426237
401,South Pine Street,68064,41.3093301,-96.3428387
401,South Pine Street,68064,41.3092204,-96.3420814
600,East Meigs Street,68064,41.3076519,-96.3386496
301,South Pine Street,68064,41.3105157,-96.3431275
28272,West Reichmuth Road,68064,41.3265638,-96.3598284
28276,West Reichmuth Road,68064,41.3267592,-96.3598864
7516,North 286th Street,68064,41.3316706,-96.3671116
28564,West Reichmuth Road,68064,41.3292841,-96.3663574
300,West Meigs Street,68064,41.3068144,-96.3520144
6901,North 288th Street,68064,41.3215875,-96.3671104
28800,Ida Street,68064,41.3221608,-96.3680090
7515,North 286th Street,68064,41.3303883,-96.3663336
712,South West Street,68064,41.3074104,-96.3498343
712,South West Street,68064,41.3069519,-96.3493347
5002,North 270th Street,68064,41.3034531,-96.3413630
712,South West Street,68064,41.3070097,-96.3498225
110,West Reichmuth Road,68064,41.3158300,-96.3435521
6085,North 261st Circle,68064,41.3110472,-96.3214816
6301,Twin Rivers Circle,68064,41.3141199,-96.3295314
26120,East Meigs Street,68064,41.3128859,-96.3229223
21,Ginger Cove Road,68064,41.3145381,-96.3890709
2,Ginger Cove Road,68064,41.3110314,-96.3865065
34,Spyglass Point,68064,41.3125448,-96.3860998
38,Ginger Cove Road,68064,41.3118434,-96.3865274
10,Ginger Cove Road,68064,41.3157899,-96.3905624
22,Ginger Cove Road,68064,41.3143601,-96.3888603
41,Ginger Cove Road,68064,41.3112423,-96.3859208
19,Ginger Cove Road,68064,41.3149067,-96.3894690
6,Ginger Cove Road,68064,41.3118214,-96.3872232
42,Ginger Cove Road,68064,41.3109894,-96.3851073
28,Ginger Cove Road,68064,41.3132995,-96.3875693
35,Spyglass Point,68064,41.3125022,-96.3865215
37,Ginger Cove Road,68064,41.3120352,-96.3866800
31,Spyglass Point,68064,41.3128182,-96.3868621
12,Ginger Cove Road,68064,41.3160574,-96.3900765
23,Ginger Cove Road,68064,41.3141962,-96.3886390
30,Ginger Cove Road,68064,41.3128408,-96.3872287
8,Ginger Cove Road,68064,41.3152600,-96.3906411
3,Ginger Cove Road,68064,41.3111909,-96.3866998
17,Ginger Cove Road,68064,41.3153749,-96.3892780
27,Ginger Cove Road,68064,41.3134992,-96.3878041
20,Ginger Cove Road,68064,41.3146868,-96.3892896
7,Ginger Cove Road,68064,41.3150068,-96.3903601
43,Ginger Woods Road,68064,41.3102430,-96.3850226
11,Ginger Cove Road,68064,41.3159830,-96.3903770
16,Ginger Cove Road,68064,41.3156066,-96.3892422
9,Ginger Cove Road,68064,41.3154835,-96.3907193
24,Ginger Cove Road,68064,41.3140606,-96.3884114
25,Ginger Cove Road,68064,41.3138852,-96.3882195
36,Ginger Cove Road,68064,41.3122771,-96.3868018
14,Ginger Cove Road,68064,41.3159005,-96.3893838
26,Ginger Cove Road,68064,41.3137130,-96.3879774
32,Spyglass Point,68064,41.3128075,-96.3865316
33,Spyglass Point,68064,41.3127722,-96.3860964
1,Ginger Cove Road,68064,41.3108402,-96.3861762
29,Ginger Cove Road,68064,41.3130446,-96.3874701
39,Ginger Cove Road,68064,41.3116364,-96.3864024
13,Ginger Cove Road,68064,41.3160867,-96.3897446
40,Ginger Cove Road,68064,41.3114293,-96.3861879
18,Ginger Cove Road,68064,41.3151491,-96.3894741
4,Ginger Cove Road,68064,41.3113858,-96.3868693
5,Ginger Cove Road,68064,41.3115918,-96.3870156
6707,Fern Lake Circle,68064,41.3190178,-96.3864046
6217,North 295th Street,68064,41.3192201,-96.3811106
6811,Fern Lake Circle,68064,41.3202850,-96.3864406
6525,Fern Lake Circle,68064,41.3176438,-96.3861084
6402,North 289th Circle,68064,41.3160051,-96.3687612
6601,Fern Lake Circle,68064,41.3181063,-96.3861581
6611,Fern Lake Circle,68064,41.3185108,-96.3862861
6717,Fern Lake Circle,68064,41.3193947,-96.3864516
5931,North 295th Street,68064,41.3144564,-96.3817322
6701,North 293rd Street,68064,41.3186912,-96.3759440
6117,North 295th Street,68064,41.3176592,-96.3819835
6403,North 295th Street,68064,41.3173060,-96.3783535
6225,North 295th Street,68064,41.3194994,-96.3804688
6006,North 294th Circle,68064,41.3121143,-96.3779840
6105,North 295th Street,68064,41.3168484,-96.3820112
6505,North 293rd Street,68064,41.3175680,-96.3760439
6016,North 294th Circle,68064,41.3126960,-96.3788464
6002,North 294th Circle,68064,41.3120986,-96.3774712
8308,North 281st Avenue,68064,41.3350226,-96.3579631
28215,State Street,68064,41.3350757,-96.3590995
8214,North 281st Avenue,68064,41.3343208,-96.3580665
28205,State Street,68064,41.3349982,-96.3586363
8208,North 281st Avenue,68064,41.3340924,-96.3580439
850,West Reichmuth Road,68064,41.3231677,-96.3560995
8302,North 281st Avenue,68064,41.3347840,-96.3580283
28182,State Street,68064,41.3356402,-96.3580434
145,Ginger Cove Road,68064,41.3182810,-96.3935565
155,Ginger Cove Road,68064,41.3169750,-96.3924784
159,Ginger Cove Road,68064,41.3175059,-96.3934720
146,Ginger Cove Road,68064,41.3181115,-96.3933421
158,Ginger Cove Road,68064,41.3173422,-96.3932461
139,Ginger Cove Road,68064,41.3194147,-96.3945862
151,Ginger Cove Road,68064,41.3173528,-96.3919424
135,Ginger Cove Road,68064,41.3202116,-96.3951479
152,Ginger Cove Road,68064,41.3171150,-96.3917053
156,Ginger Cove Road,68064,41.3171089,-96.3927568
149,Ginger Cove Road,68064,41.3176754,-96.3924805
160,Ginger Cove Road,68064,41.3176487,-96.3937470
136,Ginger Cove Road,68064,41.3199647,-96.3950940
140,Ginger Cove Road,68064,41.3192661,-96.3943352
150,Ginger Cove Road,68064,41.3175018,-96.3921830
142,Ginger Cove Road,68064,41.3189504,-96.3938500
141,Ginger Cove Road,68064,41.3191592,-96.3940485
144,Ginger Cove Road,68064,41.3184958,-96.3936319
153,Ginger Cove Road,68064,41.3168703,-96.3918368
137,Ginger Cove Road,68064,41.3197275,-96.3950351
133,Ginger Cove Road,68064,41.3202834,-96.3944884
154,Ginger Cove Road,68064,41.3168226,-96.3922259
129,Ginger Cove Road,68064,41.3200761,-96.3933056
143,Ginger Cove Road,68064,41.3187072,-96.3937420
157,Ginger Cove Road,68064,41.3172409,-96.3929495
128,Ginger Cove Road,68064,41.3202579,-96.3930101
147,Ginger Cove Road,68064,41.3179669,-96.3930831
130,Ginger Cove Road,68064,41.3200167,-96.3936030
131,Ginger Cove Road,68064,41.3200329,-96.3939553
127,Ginger Cove Road,68064,41.3202957,-96.3927094
138,Ginger Cove Road,68064,41.3196061,-96.3947772
148,Ginger Cove Road,68064,41.3177696,-96.3928327
134,Ginger Cove Road,68064,41.3202822,-96.3948555
132,Ginger Cove Road,68064,41.3201242,-96.3942259
108,Abbey Landing,68064,41.3182659,-96.3890892
118,Ginger Cove Road,68064,41.3194499,-96.3901724
122,Ginger Cove Road,68064,41.3199683,-96.3911890
107,Abbey Landing,68064,41.3183490,-96.3887965
111,Abbey Landing,68064,41.3187879,-96.3891113
109,Abbey Landing,68064,41.3184057,-96.3893334
120,Ginger Cove Road,68064,41.3197581,-96.3906829
119,Ginger Cove Road,68064,41.3195831,-96.3904597
102,Ginger Cove Road,68064,41.3185175,-96.3876114
103,Ginger Cove Road,68064,41.3187855,-96.3877087
101,Ginger Cove Road,68064,41.3182448,-96.3877679
113,Ginger Cove Road,68064,41.3192396,-96.3887069
106,Abbey Landing,68064,41.3186025,-96.3885979
114,Ginger Cove Road,68064,41.3194599,-96.3888208
117,Ginger Cove Road,68064,41.3194179,-96.3898175
104,Ginger Cove Road,68064,41.3189370,-96.3880606
100,Ginger Cove Road,68064,41.3179838,-96.3878294
123,Ginger Cove Road,68064,41.3201291,-96.3914673
115,Ginger Cove Road,68064,41.3196159,-96.3891427
121,Ginger Cove Road,68064,41.3198579,-96.3909199
125,Ginger Cove Road,68064,41.3202441,-96.3920432
116,Ginger Cove Road,68064,41.3195350,-96.3895547
126,Ginger Cove Road,68064,41.3202979,-96.3923410
124,Ginger Cove Road,68064,41.3202491,-96.3917213
110,Abbey Landing,68064,41.3186482,-96.3893612
105,Abbey Landing,68064,41.3188073,-96.3883504
67,Shaker Place,68064,41.3148738,-96.3840685
90,Ginger Cove Road,68064,41.3167741,-96.3859938
83,Peppermill Point,68064,41.3161968,-96.3847818
76,Peppermill Point,68064,41.3155986,-96.3853974
69,Ginger Cove Road,68064,41.3152261,-96.3836127
71,Ginger Cove Road,68064,41.3156883,-96.3838657
66,Shaker Place,68064,41.3148362,-96.3844285
87,Ginger Cove Road,68064,41.3167713,-96.3850477
81,Peppermill Point,68064,41.3160534,-96.3854197
84,Peppermill Point,68064,41.3163529,-96.3845239
96,Ginger Cove Road,68064,41.3170621,-96.3875718
64,Shaker Place,68064,41.3146149,-96.3850003
57,Ginger Cove Road,68064,41.3137980,-96.3835826
73,Peppermill Point,68064,41.3157606,-96.3844960
94,Ginger Cove Road,68064,41.3166995,-96.3871621
85,Ginger Cove Road,68064,41.3166090,-96.3844797
91,Ginger Cove Road,68064,41.3167291,-96.3862920
59,Ginger Cove Road,68064,41.3142809,-96.3835567
80,Peppermill Point,68064,41.3160176,-96.3857148
70,Ginger Cove Road,68064,41.3155019,-96.3836033
93,Ginger Cove Road,68064,41.3166514,-96.3868366
99,Ginger Cove Road,68064,41.3177579,-96.3877877
79,Peppermill Point,68064,41.3158536,-96.3860726
88,Ginger Cove Road,68064,41.3167641,-96.3853652
92,Ginger Cove Road,68064,41.3166922,-96.3865890
77,Peppermill Point,68064,41.3154877,-96.3856992
86,Ginger Cove Road,68064,41.3167919,-96.3846566
97,Ginger Cove Road,68064,41.3173106,-96.3876317
98,Ginger Cove Road,68064,41.3175346,-96.3877015
89,Ginger Cove Road,68064,41.3167546,-96.3856746
82,Peppermill Point,68064,41.3161336,-96.3850846
5501,North 295th Street,68064,41.3101415,-96.3811629
75,Peppermill Point,68064,41.3156221,-96.3850714
62,Shaker Place,68064,41.3143159,-96.3845726
60,Shaker Place,68064,41.3144152,-96.3838770
78,Peppermill Point,68064,41.3155372,-96.3860090
65,Shaker Place,68064,41.3147967,-96.3848040
58,Ginger Cove Road,68064,41.3140413,-96.3834288
74,Peppermill Point,68064,41.3157270,-96.3847150
61,Shaker Place,68064,41.3143796,-96.3842317
63,Shaker Place,68064,41.3143817,-96.3849374
68,Ginger Cove Road,68064,41.3149406,-96.3837360
72,Peppermill Point,68064,41.3157755,-96.3841614
56,Ginger Cove Road,68064,41.3136928,-96.3839651
49,Ginger Cove Road,68064,41.3121943,-96.3843717
52,Ginger Cove Road,68064,41.3128523,-96.3846017
48,Ginger Cove Road,68064,41.3119759,-96.3842647
47,Ginger Cove Road,68064,41.3117886,-96.3840527
46,Ginger Cove Road,68064,41.3114568,-96.3840846
50,Ginger Cove Road,68064,41.3124017,-96.3844785
53,Ginger Cove Road,68064,41.3131630,-96.3846430
51,Ginger Cove Road,68064,41.3126222,-96.3844907
55,Ginger Cove Road,68064,41.3135636,-96.3842460
54,Ginger Cove Road,68064,41.3133916,-96.3845302
43,Ginger Cove Road,68064,41.3110658,-96.3847851
44,Ginger Cove Road,68064,41.3111713,-96.3845184
1,Ginger Woods Road,68064,41.3106678,-96.3837264
3,Ginger Woods Road,68064,41.3104606,-96.3838078
6,Ginger Woods Road,68064,41.3101700,-96.3839143
4,Ginger Woods Road,68064,41.3103653,-96.3838353
41,Ginger Woods Road,68064,41.3096224,-96.3851109
2,Ginger Woods Road,68064,41.3105663,-96.3837506
39,Ginger Woods Road,68064,41.3096708,-96.3848505
42,Ginger Woods Road,68064,41.3096047,-96.3852445
37,Ginger Woods Road,68064,41.3097729,-96.3846055
5,Ginger Woods Road,68064,41.3102731,-96.3838846
40,Ginger Woods Road,68064,41.3096386,-96.3849756
38,Ginger Woods Road,68064,41.3097139,-96.3847290
19,Ginger Woods Road,68064,41.3082218,-96.3819669
80,Ginger Woods Road,68064,41.3078847,-96.3797535
31,Ginger Woods Road,68064,41.3090316,-96.3836763
74,Ginger Woods Road,68064,41.3071718,-96.3781798
83,Ginger Woods Road,68064,41.3082945,-96.3805366
81,Ginger Woods Road,68064,41.3080050,-96.3800064
29,Ginger Woods Road,68064,41.3083360,-96.3833714
79,Ginger Woods Road,68064,41.3077193,-96.3795234
35,Ginger Woods Road,68064,41.3092993,-96.3840812
9,Ginger Woods Road,68064,41.3096506,-96.3834513
75,Ginger Woods Road,68064,41.3072533,-96.3784706
11,Ginger Woods Road,68064,41.3094867,-96.3833135
78,Ginger Woods Road,68064,41.3075703,-96.3792938
23,Ginger Woods Road,68064,41.3078600,-96.3822464
13,Ginger Woods Road,68064,41.3090683,-96.3829072
85,Ginger Woods Road,68064,41.3085607,-96.3810049
21,Ginger Woods Road,68064,41.3080276,-96.3820968
7,Ginger Woods Road,68064,41.3098520,-96.3835853
77,Ginger Woods Road,68064,41.3074551,-96.3790671
17,Ginger Woods Road,68064,41.3087116,-96.3826218
33,Ginger Woods Road,68064,41.3091842,-96.3838289
27,Ginger Woods Road,68064,41.3081425,-96.3828931
15,Ginger Woods Road,68064,41.3088929,-96.3827606
76,Ginger Woods Road,68064,41.3073302,-96.3787664
84,Ginger Woods Road,68064,41.3084334,-96.3807605
82,Ginger Woods Road,68064,41.3081481,-96.3802539
73,Ginger Woods Road,68064,41.3071142,-96.3778444
65,Ginger Woods Road,68064,41.3036438,-96.3780787
60,Ginger Woods Road,68064,41.3044917,-96.3790049
64,Ginger Woods Road,68064,41.3038030,-96.3782726
29105,Laurel Circle,68064,41.3102504,-96.3709194
48,Ginger Woods Road,68064,41.3061523,-96.3819303
51,Ginger Woods Road,68064,41.3056371,-96.3812635
46,Ginger Woods Road,68064,41.3064023,-96.3824289
71,Ginger Woods Road,68064,41.3030373,-96.3765110
49,Ginger Woods Road,68064,41.3059788,-96.3817086
50,Ginger Woods Road,68064,41.3058146,-96.3814474
55,Ginger Woods Road,68064,41.3050351,-96.3802971
59,Ginger Woods Road,68064,41.3045469,-96.3792571
5310,North 292nd Circle,68064,41.3068216,-96.3746134
67,Ginger Woods Road,68064,41.3032946,-96.3777123
68,Ginger Woods Road,68064,41.3032244,-96.3774208
57,Ginger Woods Road,68064,41.3047418,-96.3798578
62,Ginger Woods Road,68064,41.3042159,-96.3784821
54,Ginger Woods Road,68064,41.3052271,-96.3805469
56,Ginger Woods Road,68064,41.3048545,-96.3800576
66,Ginger Woods Road,68064,41.3033061,-96.3780966
70,Ginger Woods Road,68064,41.3031556,-96.3766934
72,Ginger Woods Road,68064,41.3028237,-96.3762485
44,Ginger Woods Road,68064,41.3067257,-96.3828463
69,Ginger Woods Road,68064,41.3031791,-96.3770736
6303,North 293rd Circle,68064,41.3150866,-96.3760749
52,Ginger Woods Road,68064,41.3054899,-96.3810167
5906,North 292nd Circle,68064,41.3121509,-96.3725891
5612,North 292nd Circle,68064,41.3095378,-96.3745286
61,Ginger Woods Road,68064,41.3044288,-96.3786827
6316,North 293rd Circle,68064,41.3145059,-96.3777634
5502,North 292nd Circle,68064,41.3081258,-96.3747442
5510,North 292nd Circle,68064,41.3086623,-96.3746266
5506,North 292nd Circle,68064,41.3083960,-96.3747256
5502,North 290th Circle,68064,41.3079933,-96.3716537
6112,North 292nd Circle,68064,41.3142017,-96.3715246
6012,North 292nd Circle,68064,41.3133336,-96.3721774
5511,North 290th Circle,68064,41.3084585,-96.3709590
29101,Laurel Circle,68064,41.3104442,-96.3704807
47,Ginger Woods Road,68064,41.3062739,-96.3821735
45,Ginger Woods Road,68064,41.3065718,-96.3826473
63,Ginger Woods Road,68064,41.3040996,-96.3782310
29310,Ida Street,68064,41.3211588,-96.3765401
29353,Ida Street,68064,41.3204683,-96.3774076
5710,North 294th Circle,68064,41.3102330,-96.3752932
6210,North 289th Circle,68064,41.3148453,-96.3687941
29350,Ida Street,68064,41.3211663,-96.3773592
5714,North 294th Circle,68064,41.3104211,-96.3755618
5906,North 294th Circle,68064,41.3116684,-96.3767149
5902,North 294th Circle,68064,41.3114286,-96.3765373
28905,Mary Street,68064,41.3203253,-96.3695253
6704,North 289th Street,68064,41.3188882,-96.3686515
5910,North 294th Circle,68064,41.3119259,-96.3769349
29207,Mary Street,68064,41.3199049,-96.3749851
5702,North 294th Circle,68064,41.3098295,-96.3746523
5911,North 294th Circle,68064,41.3121852,-96.3760672
6202,North 289th Circle,68064,41.3143814,-96.3685848
28913,Mary Street,68064,41.3203134,-96.3702672
5706,North 294th Circle,68064,41.3100657,-96.3749715
5903,North 294th Circle,68064,41.3117347,-96.3755640
6501,North 293rd Street,68064,41.3172354,-96.3760439
5812,North 294th Circle,68064,41.3111162,-96.3763407
5907,North 294th Circle,68064,41.3119781,-96.3757258
5804,North 294th Circle,68064,41.3106289,-96.3758562
28901,Mary Street,68064,41.3203084,-96.3690986
5808,North 294th Circle,68064,41.3108590,-96.3761443
6622,North 289th Street,68064,41.3185000,-96.3686985
29401,Ida Street,68064,41.3205057,-96.3778602
29657,Ida Street,68064,41.3202965,-96.3817734
7620,North 281st Avenue,68064,41.3282595,-96.3579102
8014,North 281st Avenue,68064,41.3324606,-96.3579989
8117,North 281st Avenue,68064,41.3335333,-96.3573908
7514,North 281st Avenue,68064,41.3273236,-96.3579147
8120,North 281st Avenue,68064,41.3336104,-96.3580419
7614,North 279th Street,68064,41.3282137,-96.3533605
8105,North 281st Avenue,68064,41.3330933,-96.3573818
7602,North 279th Street,68064,41.3277859,-96.3536034
28023,Sunrise Circle,68064,41.3295430,-96.3561663
8102,North 281st Avenue,68064,41.3329133,-96.3580161
8114,North 281st Avenue,68064,41.3333825,-96.3580326
7720,North 281st Avenue,68064,41.3294382,-96.3579109
7520,North 279th Street,68064,41.3274273,-96.3539422
7901,North 281st Avenue,68064,41.3309922,-96.3572878
28001,Eagle Circle,68064,41.3319542,-96.3560021
7702,North 281st Avenue,68064,41.3287292,-96.3579112
7414,North 279th Street,68064,41.3264379,-96.3546407
8101,North 281st Avenue,68064,41.3328786,-96.3574013
28017,Sunrise Circle,68064,41.3294600,-96.3558528
8108,North 281st Avenue,68064,41.3331589,-96.3580292
7315,North 281st Avenue,68064,41.3255278,-96.3566007
7623,North 281st Avenue,68064,41.3283546,-96.3572755
7402,North 279th Street,68064,41.3260176,-96.3548634
8008,North 281st Avenue,68064,41.3322347,-96.3579682
7316,North 279th Street,68064,41.3254539,-96.3553686
8201,North 281st Avenue,68064,41.3337576,-96.3573971
28014,Eagle Circle,68064,41.3323086,-96.3564889
7526,North 279th Street,68064,41.3275966,-96.3537485
736,West Reichmuth Road,68064,41.3217949,-96.3535040
7629,North 281st Avenue,68064,41.3285803,-96.3572676
7502,North 279th Street,68064,41.3268517,-96.3544261
28018,Heron Circle,68064,41.3279028,-96.3572382
7415,North 281st Avenue,68064,41.3267050,-96.3572504
7714,North 281st Avenue,68064,41.3291970,-96.3579189
7408,North 279th Street,68064,41.3262191,-96.3547510
7514,North 279th Street,68064,41.3272656,-96.3541579
28012,Sunrise Circle,68064,41.3300639,-96.3555827
7825,North 281st Avenue,68064,41.3307704,-96.3572920
8002,North 281st Avenue,68064,41.3319954,-96.3579807
7309,North 281st Avenue,68064,41.3253623,-96.3563663
7420,North 279th Street,68064,41.3266512,-96.3545337
7620,North 279th Street,68064,41.3284245,-96.3532823
28006,Heron Circle,68064,41.3277757,-96.3564531
7327,North 281st Avenue,68064,41.3258022,-96.3570298
7810,North 281st Avenue,68064,41.3301324,-96.3579053
7333,North 281st Avenue,68064,41.3260222,-96.3572056
28029,Sunrise Circle,68064,41.3295421,-96.3564556
7608,North 279th Street,68064,41.3279876,-96.3534181
8020,North 281st Avenue,68064,41.3326923,-96.3580095
7626,North 279th Street,68064,41.3286262,-96.3531775
7822,North 281st Avenue,68064,41.3305887,-96.3579247
7902,North 281st Avenue,68064,41.3310549,-96.3579391
28006,Sunrise Circle,68064,41.3298240,-96.3553744
8215,North 281st Avenue,68064,41.3342381,-96.3573859
7322,North 279th Street,68064,41.3256510,-96.3552040
7403,North 281st Avenue,68064,41.3262544,-96.3572371
7907,North 281st Avenue,68064,41.3312433,-96.3572856
28018,Sunrise Circle,68064,41.3300887,-96.3559452
28007,Heron Circle,68064,41.3272771,-96.3565422
7328,North 279th Street,68064,41.3258448,-96.3550678
7321,North 281st Avenue,68064,41.3256618,-96.3568225
8111,North 281st Avenue,68064,41.3333119,-96.3574081
28025,Eagle Circle,68064,41.3316974,-96.3572834
7726,North 281st Avenue,68064,41.3296617,-96.3579034
28013,Eagle Circle,68064,41.3316847,-96.3565215
7708,North 281st Avenue,68064,41.3289551,-96.3579115
28041,Sunrise Circle,68064,41.3294858,-96.3572368
28021,Eagle Circle,68064,41.3317499,-96.3568540
7705,North 281st Avenue,68064,41.3288003,-96.3572681
7505,North 281st Avenue,68064,41.3270461,-96.3572798
28007,Eagle Circle,68064,41.3317234,-96.3561694
28011,Sunrise Circle,68064,41.3295274,-96.3554980
7702,North 279th Street,68064,41.3288443,-96.3531138
7819,North 281st Avenue,68064,41.3305334,-96.3572900
8015,North 281st Avenue,68064,41.3326416,-96.3573432
7409,North 281st Avenue,68064,41.3264733,-96.3572540
28032,Sunrise Circle,68064,41.3300153,-96.3565402
28015,Heron Circle,68064,41.3272812,-96.3570005
8207,North 281st Avenue,68064,41.3339758,-96.3573907
7508,North 279th Street,68064,41.3270822,-96.3543337
28020,Eagle Circle,68064,41.3322168,-96.3568011
28038,Sunrise Circle,68064,41.3300440,-96.3569653
28026,Sunrise Circle,68064,41.3300277,-96.3562415
7807,North 281st Avenue,68064,41.3302092,-96.3572115
28035,Sunrise Circle,68064,41.3295197,-96.3567609
28001,Heron Circle,68064,41.3275130,-96.3562902
8226,North 279th Street,68064,41.3344336,-96.3569165
7711,North 281st Avenue,68064,41.3290713,-96.3572533
28012,Heron Circle,68064,41.3278630,-96.3568117
28026,Eagle Circle,68064,41.3322553,-96.3572036
601,West Reichmuth Road,68064,41.3205718,-96.3519450
602,West Reichmuth Road,68064,41.3205298,-96.3515910
600,West Reichmuth Road,68064,41.3218136,-96.3512177
7626,North 281st Avenue,68064,41.3285009,-96.3579116
8202,North 281st Avenue,68064,41.3338506,-96.3580421
7614,North 281st Avenue,68064,41.3280134,-96.3579731
7902,North 279th Street,68064,41.3310645,-96.3533198
8114,North 279th Street,68064,41.3334651,-96.3547801
7920,North 279th Street,68064,41.3316935,-96.3535835
8120,North 279th Street,68064,41.3336243,-96.3549696
8108,North 279th Street,68064,41.3333032,-96.3546082
8126,North 279th Street,68064,41.3337858,-96.3551610
7914,North 279th Street,68064,41.3314662,-96.3535279
8002,North 279th Street,68064,41.3321202,-96.3537643
7726,North 279th Street,68064,41.3297460,-96.3530110
8102,North 279th Street,68064,41.3331532,-96.3543686
7708,North 279th Street,68064,41.3290718,-96.3530445
8014,North 279th Street,68064,41.3325555,-96.3538871
7802,North 279th Street,68064,41.3299689,-96.3530022
7720,North 279th Street,68064,41.3295254,-96.3530040
8132,North 279th Street,68064,41.3339606,-96.3553935
8208,North 279th Street,68064,41.3342205,-96.3559198
8026,North 279th Street,68064,41.3329530,-96.3542151
8202,North 279th Street,68064,41.3340972,-96.3556457
7826,North 279th Street,68064,41.3308514,-96.3531881
7808,North 279th Street,68064,41.3301947,-96.3529959
8020,North 279th Street,68064,41.3327575,-96.3540405
7908,North 279th Street,68064,41.3312597,-96.3534102
7820,North 279th Street,68064,41.3306405,-96.3531387
8008,North 279th Street,68064,41.3323302,-96.3538207
7714,North 279th Street,68064,41.3292985,-96.3530309
7926,North 279th Street,68064,41.3319131,-96.3536659
7814,North 279th Street,68064,41.3304138,-96.3530262
8220,North 279th Street,68064,41.3343541,-96.3563022
28506,Potter Street,68064,41.3303427,-96.3635233
7524,North 285th Circle,68064,41.3298798,-96.3640850
7506,North 285th Avenue Circle,68064,41.3296173,-96.3654897
7512,North 285th Avenue Circle,68064,41.3298846,-96.3652488
7523,North 285th Avenue Circle,68064,41.3300426,-96.3643627
7505,North 285th Avenue Circle,68064,41.3293858,-96.3650054
7525,North 285th Circle,68064,41.3296185,-96.3636430
7525,North 285th Avenue Circle,68064,41.3301500,-96.3642277
28571,Potter Street,68064,41.3305737,-96.3653166
28596,Potter Street,68064,41.3314013,-96.3657418
28563,Potter Street,68064,41.3304880,-96.3649626
7505,North 285th Circle,68064,41.3289533,-96.3643186
7506,North 285th Circle,68064,41.3291986,-96.3647392
28572,Potter Street,68064,41.3309594,-96.3649195
7531,North 285th Circle,68064,41.3298760,-96.3633847
28472,Potter Street,68064,41.3301947,-96.3632520
7511,North 285th Avenue Circle,68064,41.3296462,-96.3647664
28579,Potter Street,68064,41.3307047,-96.3655751
7838,North 288th Street,68064,41.3303743,-96.3683310
7524,North 285th Avenue Circle,68064,41.3302755,-96.3648107
28424,West Reichmuth Road,68064,41.3281768,-96.3638965
28564,Potter Street,68064,41.3308549,-96.3646099
7518,North 285th Circle,68064,41.3296735,-96.3642597
28524,West Reichmuth Road,68064,41.3289192,-96.3652991
28595,Potter Street,68064,41.3309920,-96.3660479
7520,North 285th Avenue Circle,68064,41.3301299,-96.3649647
28544,West Reichmuth Road,68064,41.3291847,-96.3658888
28434,West Reichmuth Road,68064,41.3283990,-96.3644194
7512,North 285th Circle,68064,41.3294656,-96.3645129
7526,North 286th Street,68064,41.3313195,-96.3664765
28514,Potter Street,68064,41.3304852,-96.3637818
28556,Potter Street,68064,41.3307840,-96.3643025
28522,Potter Street,68064,41.3306286,-96.3640146
7604,North 286th Street,68064,41.3315119,-96.3662789
7530,North 285th Circle,68064,41.3300408,-96.3638710
28588,Potter Street,68064,41.3311834,-96.3655055
28587,Potter Street,68064,41.3308561,-96.3658304
28303,State Street,68064,41.3350441,-96.3600395
28555,Potter Street,68064,41.3304167,-96.3646349
7511,North 285th Circle,68064,41.3292268,-96.3640352
7519,North 285th Avenue Circle,68064,41.3298477,-96.3645681
28580,Potter Street,68064,41.3310324,-96.3652290
28484,West Reichmuth Road,68064,41.3283971,-96.3649199
28313,State Street,68064,41.3350626,-96.3605391
28323,State Street,68064,41.3350498,-96.3612317
28409,State Street,68064,41.3350880,-96.3620811
28419,State Street,68064,41.3351126,-96.3624514
28429,State Street,68064,41.3350675,-96.3630266
28505,State Street,68064,41.3350085,-96.3634161
28515,State Street,68064,41.3349930,-96.3638486
28535,State Street,68064,41.3350026,-96.3643532
28607,State Street,68064,41.3349987,-96.3649204
28617,State Street,68064,41.3349877,-96.3652367
28637,State Street,68064,41.3349884,-96.3660110
28647,State Street,68064,41.3349778,-96.3663523
28711,State Street,68064,41.3349969,-96.3671004
28721,State Street,68064,41.3350135,-96.3675084
8788,North 276th Street,68064,41.3384756,-96.3490808
26802,Manderson Street,68064,41.2929354,-96.3384447
3807,North 267th Circle,68064,41.2932180,-96.3361309
3805,North 269th Avenue,68064,41.2933763,-96.3393739
26802,West Maple Road,68064,41.2921101,-96.3375244
26716,Manderson Street,68064,41.2929518,-96.3377176
3821,North 269th Avenue,68064,41.2939306,-96.3393656
3811,North 269th Avenue,68064,41.2936550,-96.3393775
3814,North 267th Circle,68064,41.2935155,-96.3367251
3821,North 267th Circle,68064,41.2937371,-96.3359320
3820,North 267th Circle,68064,41.2937881,-96.3366984
26710,Manderson Street,68064,41.2929577,-96.3373469
3815,North 267th Circle,68064,41.2934645,-96.3360303
3801,North 267th Circle,68064,41.2929066,-96.3359516
3833,North 269th Avenue,68064,41.2945050,-96.3393550
3711,North 267th Avenue,68064,41.2924635,-96.3354657
3705,North 267th Avenue,68064,41.2922374,-96.3354781
3808,North 267th Circle,68064,41.2932064,-96.3367896
3801,North 269th Avenue,68064,41.2930274,-96.3393654
3717,North 267th Avenue,68064,41.2927212,-96.3356218
26808,Manderson Street,68064,41.2929523,-96.3388023
3826,North 267th Circle,68064,41.2940845,-96.3365589
3827,North 269th Avenue,68064,41.2942060,-96.3393641
26722,Manderson Street,68064,41.2929442,-96.3380742
3832,North 267th Circle,68064,41.2941974,-96.3361752
3802,North 267th Circle,68064,41.2929537,-96.3369771
3827,North 267th Circle,68064,41.2940420,-96.3358477
26768,West Maple Road,68064,41.2922157,-96.3369764
4410,North 269th Street,68064,41.2978545,-96.3399383
3820,North 269th Avenue,68064,41.2939867,-96.3400405
3826,North 269th Avenue,68064,41.2942124,-96.3400371
3808,North 269th Avenue,68064,41.2935324,-96.3400329
4210,North 269th Street,68064,41.2969717,-96.3399733
4016,North 269th Street,68064,41.2960921,-96.3399167
3832,North 269th Avenue,68064,41.2944404,-96.3400295
4001,North 269th Street,68064,41.2955831,-96.3384971
26820,Taylor Circle,68064,41.2975930,-96.3384665
4102,North 269th Street,68064,41.2963068,-96.3400089
26910,Ruggles Street,68064,41.2955260,-96.3393779
4416,North 269th Street,68064,41.2980688,-96.3399567
3804,North 269th Avenue,68064,41.2930684,-96.3400525
3903,North 269th Avenue,68064,41.2948922,-96.3393725
26832,Taylor Circle,68064,41.2977272,-96.3390442
4108,North 269th Street,68064,41.2965305,-96.3399888
3902,North 269th Avenue,68064,41.2947103,-96.3400222
4308,North 269th Street,68064,41.2974126,-96.3399559
26836,Taylor Street,68064,41.2988024,-96.3398388
26838,Taylor Circle,68064,41.2977384,-96.3393248
26827,Taylor Street,68064,41.2986126,-96.3389065
26826,Taylor Circle,68064,41.2977515,-96.3387245
3904,North 269th Circle,68064,41.2945002,-96.3379329
3923,North 269th Circle,68064,41.2953663,-96.3382121
4209,North 269th Street,68064,41.2968278,-96.3393208
26952,Ruggles Street,68064,41.2952734,-96.3400436
3802,North 269th Avenue,68064,41.2928105,-96.3399791
4204,North 269th Street,68064,41.2967508,-96.3399673
3905,North 269th Circle,68064,41.2946889,-96.3376460
4010,North 269th Street,68064,41.2958651,-96.3397284
26815,Manderson Street,68064,41.2924985,-96.3394228
4404,North 269th Street,68064,41.2976346,-96.3399671
3814,North 269th Avenue,68064,41.2937599,-96.3400496
3806,North 269th Avenue,68064,41.2933083,-96.3400556
4015,North 269th Street,68064,41.2962534,-96.3392769
3917,North 269th Circle,68064,41.2951903,-96.3379209
26835,Taylor Street,68064,41.2985815,-96.3392853
26821,Manderson Street,68064,41.2926036,-96.3397443
4302,North 269th Street,68064,41.2971931,-96.3399812
26833,Taylor Circle,68064,41.2971885,-96.3390427
4422,North 269th Street,68064,41.2982958,-96.3399509
26809,Taylor Street,68064,41.2986192,-96.3378265
26911,Ruggles Street,68064,41.2950424,-96.3391204
26821,Taylor Street,68064,41.2986177,-96.3385464
4009,North 269th Street,68064,41.2960055,-96.3390172
26815,Taylor Street,68064,41.2986283,-96.3381915
4003,North 269th Street,68064,41.2958113,-96.3387537
3916,North 269th Circle,68064,41.2948499,-96.3384851
3922,North 269th Circle,68064,41.2950430,-96.3387422
3911,North 269th Circle,68064,41.2949986,-96.3376554
26839,Taylor Circle,68064,41.2971148,-96.3393349
4107,North 269th Street,68064,41.2965535,-96.3393463
3910,North 269th Circle,68064,41.2945172,-96.3382880
26916,Ruggles Street,68064,41.2953862,-96.3397055
6707,North 288th Street,68064,41.3201519,-96.3672028
26501,Taylor Street,68064,41.2975886,-96.3317483
26507,Taylor Street,68064,41.2977338,-96.3320645
26510,Manderson Court,68064,41.2922862,-96.3317126
26513,Taylor Street,68064,41.2978804,-96.3323752
26516,Manderson Court,68064,41.2922698,-96.3320506
26519,Taylor Street,68064,41.2979952,-96.3327012
26522,Manderson Court,68064,41.2922615,-96.3324182
26525,Taylor Street,68064,41.2982462,-96.3329484
26528,Manderson Court,68064,41.2922580,-96.3327703
26531,Taylor Street,68064,41.2984699,-96.3331286
26534,Manderson Court,68064,41.2922469,-96.3331532
26603,Taylor Street,68064,41.2986402,-96.3334722
26609,Taylor Street,68064,41.2986571,-96.3338182
26615,Taylor Street,68064,41.2986588,-96.3341818
26621,Taylor Street,68064,41.2986600,-96.3345451
26627,Taylor Street,68064,41.2986316,-96.3349181
26701,Taylor Street,68064,41.2986342,-96.3352562
26707,Taylor Street,68064,41.2986425,-96.3356475
26713,Taylor Street,68064,41.2986229,-96.3359972
26719,Taylor Street,68064,41.2986245,-96.3363640
26725,Taylor Street,68064,41.2986305,-96.3367291
26731,Taylor Street,68064,41.2986252,-96.3370960
26803,Taylor Street,68064,41.2986318,-96.3374614
3808,North 265th Court,68064,41.2924365,-96.3315006
3814,North 265th Court,68064,41.2926985,-96.3314326
3820,North 265th Court,68064,41.2929466,-96.3314169
3826,North 265th Court,68064,41.2932236,-96.3314276
3904,North 265th Court,68064,41.2935107,-96.3314176
3910,North 265th Court,68064,41.2937741,-96.3314249
3916,North 265th Court,68064,41.2940522,-96.3314352
4002,North 265th Street,68064,41.2943292,-96.3315934
4008,North 265th Street,68064,41.2946071,-96.3316062
4014,North 265th Street,68064,41.2948836,-96.3315882
4020,North 265th Street,68064,41.2951488,-96.3315779
4104,North 265th Street,68064,41.2954157,-96.3315707
4110,North 265th Street,68064,41.2956982,-96.3315627
4116,North 265th Street,68064,41.2959500,-96.3315747
4122,North 265th Street,68064,41.2962521,-96.3315819
4202,North 265th Street,68064,41.2965329,-96.3315677
4208,North 265th Street,68064,41.2967997,-96.3315598
4214,North 265th Street,68064,41.2970751,-96.3315367
4220,North 265th Street,68064,41.2973454,-96.3315518
823,South East Street,68064,41.3050811,-96.3441754
400,West Meigs Street,68064,41.3067686,-96.3527380
6625,North West Street,68064,41.3185539,-96.3483200
307,East Meigs Street,68064,41.3056739,-96.3431820
314,West Reichmuth Road,68064,41.3174488,-96.3464923
118,West Reichmuth Road,68064,41.3160800,-96.3440338
324,West Reichmuth Road,68064,41.3180670,-96.3476568
400,West Meigs Street,68064,41.3067492,-96.3534256
308,East Meigs Street,68064,41.3064495,-96.3431173
400,West Meigs Street,68064,41.3064882,-96.3533872
410,North Spruce Street,68064,41.3159631,-96.3432820
502,West Reichmuth Road,68064,41.3200527,-96.3508009
318,West Reichmuth Road,68064,41.3178386,-96.3472671
400,West Meigs Street,68064,41.3070496,-96.3527153
105,West 3rd Street,68064,41.3161753,-96.3432875
550,West Reichmuth Road,68064,41.3201689,-96.3512787
400,West Meigs Street,68064,41.3070302,-96.3533740
313,West Whittingham Street,68064,41.3088923,-96.3526578
400,West Meigs Street,68064,41.3064877,-96.3527169
315,West Whittingham Street,68064,41.3088944,-96.3529489
400,West Meigs Street,68064,41.3071191,-96.3530689
305,East Condron Street,68064,41.3043835,-96.3414747
309,East Condron Street,68064,41.3043839,-96.3412582
801,South East Street,68064,41.3059866,-96.3442092
802,South East Street,68064,41.3059972,-96.3447923
306,West Reichmuth Road,68064,41.3168041,-96.3455625
303,East Condron Street,68064,41.3043828,-96.3415869
803,South East Street,68064,41.3057501,-96.3442172
512,West Valley Street,68064,41.3140961,-96.3543226
307,East Condron Street,68064,41.3043838,-96.3413665
802,South Valley View Street,68064,41.3060026,-96.3520803
114,West Reichmuth Road,68064,41.3158647,-96.3440470
210,West Reichmuth Road,68064,41.3167220,-96.3445217
625,South Mayne Street,68064,41.3069044,-96.3434104
508,West Valley Street,68064,41.3137507,-96.3535119
304,East Meigs Street,68064,41.3064518,-96.3435065
310,East Meigs Street,68064,41.3064744,-96.3428057
821,South East Street,68064,41.3053072,-96.3442262
921,South Mayne Street,68064,41.3045271,-96.3462155
809,South Valley View Street,68064,41.3052718,-96.3514039
807,South Valley View Street,68064,41.3054623,-96.3513858
224,West Meigs Street,68064,41.3064849,-96.3510060
805,South Valley View Street,68064,41.3056524,-96.3514249
1204,South West Street,68064,41.3027845,-96.3490763
119,West Condron Street,68064,41.3042047,-96.3482583
110,West Condron Street,68064,41.3046407,-96.3477297
107,West Condron Street,68064,41.3042058,-96.3475557
102,West Condron Street,68064,41.3046422,-96.3472797
314,West Adams Street,68064,41.3054687,-96.3530251
118,West Condron Street,68064,41.3046399,-96.3482120
111,West Condron Street,68064,41.3042051,-96.3477898
122,West Condron Street,68064,41.3046742,-96.3484594
115,West Condron Street,68064,41.3042050,-96.3480239
316,West Adams Street,68064,41.3055032,-96.3534539
1160,South West Street,68064,41.3027399,-96.3509253
311,West Adams Street,68064,41.3050391,-96.3527548
906,South Valley View Street,68064,41.3048018,-96.3520336
223,West Meigs Street,68064,41.3055047,-96.3503094
115,West Meigs Street,68064,41.3058073,-96.3481168
1006,South Mayne Street,68064,41.3035923,-96.3465588
905,South Valley View Street,68064,41.3048841,-96.3514483
304,West Adams Street,68064,41.3054753,-96.3519597
305,West Adams Street,68064,41.3050896,-96.3519436
315,West Meigs Street,68064,41.3058320,-96.3531065
311,West Meigs Street,68064,41.3058318,-96.3528244
903,South Valley View Street,68064,41.3050782,-96.3514502
309,West Meigs Street,68064,41.3058592,-96.3524553
317,West Meigs Street,68064,41.3058594,-96.3534751
307,West Adams Street,68064,41.3050728,-96.3521977
225,West Meigs Street,68064,41.3059871,-96.3509347
208,West Meigs Street,68064,41.3065677,-96.3493546
123,West Condron Street,68064,41.3042210,-96.3484924
804,South Valley View Street,68064,41.3057675,-96.3520773
214,West Meigs Street,68064,41.3065037,-96.3501565
310,West Adams Street,68064,41.3054961,-96.3526136
313,West Adams Street,68064,41.3050066,-96.3530976
103,West Condron Street,68064,41.3042100,-96.3473290
106,West Condron Street,68064,41.3046425,-96.3474919
1104,South West Street,68064,41.3035931,-96.3491016
315,West Adams Street,68064,41.3050750,-96.3534393
801,South Valley View Street,68064,41.3060211,-96.3514336
309,West Adams Street,68064,41.3050565,-96.3524609
114,West Condron Street,68064,41.3046421,-96.3479744
907,South Valley View Street,68064,41.3045949,-96.3514468
210,West Meigs Street,68064,41.3065272,-96.3496313
212,West Meigs Street,68064,41.3064947,-96.3499802
200,West Waring Street,68064,41.3084607,-96.3490776
201,West Waring Street,68064,41.3081522,-96.3492677
203,West Alexander Street,68064,41.3106545,-96.3494824
204,West Waring Street,68064,41.3084628,-96.3496812
204,West Whittingham Street,68064,41.3092275,-96.3493665
204,West Whittingham Street,68064,41.3092239,-96.3499671
206,West Charles Street,68064,41.3100874,-96.3494548
206,West Waring Street,68064,41.3084901,-96.3500198
207,West Alexander Street,68064,41.3106406,-96.3498981
207,West Charles Street,68064,41.3095771,-96.3494240
207,West Waring Street,68064,41.3081847,-96.3498273
207,West Whittingham Street,68064,41.3088330,-96.3493645
208,West Charles Street,68064,41.3100707,-96.3496837
208,West Waring Street,68064,41.3084716,-96.3503132
209,West Charles Street,68064,41.3096573,-96.3497192
209,West Waring Street,68064,41.3081784,-96.3501629
209,West Whittingham Street,68064,41.3088267,-96.3495614
210,West Charles Street,68064,41.3100906,-96.3499568
210,West Waring Street,68064,41.3084949,-96.3506344
211,West Alexander Street,68064,41.3105941,-96.3503116
211,West Charles Street,68064,41.3096813,-96.3499606
211,West Waring Street,68064,41.3081794,-96.3504994
211,West Whittingham Street,68064,41.3088376,-96.3497196
212,West Charles Street,68064,41.3100684,-96.3502891
212,West Waring Street,68064,41.3084937,-96.3509438
213,West Alexander Street,68064,41.3105992,-96.3508787
214,West Whittingham Street,68064,41.3092433,-96.3502526
215,West Charles Street,68064,41.3096846,-96.3502725
215,West Waring Street,68064,41.3081800,-96.3507938
216,West Charles Street,68064,41.3101393,-96.3505447
216,West Whittingham Street,68064,41.3092447,-96.3504681
217,West Charles Street,68064,41.3096599,-96.3504995
217,West Waring Street,68064,41.3081830,-96.3510653
217,West Whittingham Street,68064,41.3088250,-96.3502491
218,West Charles Street,68064,41.3100807,-96.3508126
218,West Whittingham Street,68064,41.3092209,-96.3506765
219,West Whittingham Street,68064,41.3088289,-96.3505785
220,West Whittingham Street,68064,41.3092118,-96.3510022
221,West Charles Street,68064,41.3096782,-96.3508458
223,West Whittingham Street,68064,41.3088021,-96.3509634
301,West Waring Street,68064,41.3081727,-96.3513047
302,South Park Avenue,68064,41.3105532,-96.3514331
302,South West Street,68064,41.3106222,-96.3490963
303,West Waring Street,68064,41.3081825,-96.3516135
303,West Whittingham Street,68064,41.3089006,-96.3516147
304,South Park Avenue,68064,41.3102086,-96.3514118
304,West Waring Street,68064,41.3084676,-96.3516315
304,West Whittingham Street,68064,41.3091799,-96.3517211
305,South Park Avenue,68064,41.3101069,-96.3509800
305,West Waring Street,68064,41.3081861,-96.3518917
305,West Whittingham Street,68064,41.3088599,-96.3518848
306,West Waring Street,68064,41.3084702,-96.3518973
306,West Whittingham Street,68064,41.3091830,-96.3519984
307,West Waring Street,68064,41.3081861,-96.3521448
307,West Whittingham Street,68064,41.3088915,-96.3521087
308,South West Street,68064,41.3102775,-96.3490678
308,West Waring Street,68064,41.3084750,-96.3521508
308,West Whittingham Street,68064,41.3091780,-96.3522876
309,West Waring Street,68064,41.3081869,-96.3524101
310,West Waring Street,68064,41.3084865,-96.3524078
310,West Whittingham Street,68064,41.3091819,-96.3525754
311,West Waring Street,68064,41.3081890,-96.3526684
311,West Whittingham Street,68064,41.3088920,-96.3523833
312,West Waring Street,68064,41.3084886,-96.3526797
313,West Waring Street,68064,41.3081858,-96.3529530
314,South West Street,68064,41.3100774,-96.3490684
314,West Waring Street,68064,41.3084698,-96.3529567
314,West Whittingham Street,68064,41.3091922,-96.3528867
400,South Park Avenue,68064,41.3100498,-96.3514244
402,South Park Avenue,68064,41.3096297,-96.3513485
404,South Park Street,68064,41.3091731,-96.3513728
404,South West Street,68064,41.3097033,-96.3490932
405,Lakewood Street,68064,41.3096956,-96.3528193
409,Lakewood Street,68064,41.3094075,-96.3529698
410,Lakewood Street,68064,41.3093986,-96.3533450
410,South Park Avenue,68064,41.3093811,-96.3513760
412,South West Street,68064,41.3092372,-96.3490641
414,Lakewood Street,68064,41.3091947,-96.3533527
500,Lakewood Street,68064,41.3089801,-96.3533494
502,South Park Avenue,68064,41.3087803,-96.3513466
502,South West Street,68064,41.3088582,-96.3490559
504,Lakewood Street,68064,41.3087479,-96.3533877
510,South Park Avenue,68064,41.3084998,-96.3513508
514,Lakewood Street,68064,41.3084836,-96.3534207
516,Lakewood Street,68064,41.3083769,-96.3534208
602,Lakewood Street,68064,41.3081766,-96.3533491
602,South West Street,68064,41.3078428,-96.3493689
608,South West Street,68064,41.3075842,-96.3491272
108,West Whittingham Street,68064,41.3091970,-96.3478492
109,East Whittingham Street,68064,41.3087805,-96.3462729
617,South Mayne Street,68064,41.3077603,-96.3465442
119,East Whittingham Street,68064,41.3087700,-96.3458940
118,East Hudspith Street,68064,41.3082930,-96.3459179
103,West Charles Street,68064,41.3096733,-96.3471689
116,East Whittingham Street,68064,41.3091589,-96.3457447
111,East Hudspith Street,68064,41.3078608,-96.3461482
109,West Charles Street,68064,41.3096617,-96.3476539
417,South Mayne Street,68064,41.3093397,-96.3466314
115,East Whittingham Street,68064,41.3087807,-96.3460946
106,East Harrier Street,68064,41.3073569,-96.3463728
121,East Charles Street,68064,41.3096842,-96.3455991
118,East Harrier Street,68064,41.3074108,-96.3456716
120,West Whittingham Street,68064,41.3091972,-96.3485582
124,East Whittingham Street,68064,41.3091958,-96.3453224
505,South Mayne Street,68064,41.3083448,-96.3466861
107,West Charles Street,68064,41.3096582,-96.3474518
117,East Harrier Street,68064,41.3069364,-96.3456604
104,East Meigs Street,68064,41.3065183,-96.3463977
501,South Mayne Street,68064,41.3086906,-96.3467112
405,South Mayne Street,68064,41.3096640,-96.3467215
123,East Whittingham Street,68064,41.3087847,-96.3456854
710,South East Street,68064,41.3069857,-96.3453578
106,East Whittingham Street,68064,41.3091910,-96.3462289
108,East Whittingham Street,68064,41.3093198,-96.3460902
512,South East Street,68064,41.3082599,-96.3453354
720,South East Street,68064,41.3064492,-96.3453152
101,East Charles Street,68064,41.3096314,-96.3465580
510,South East Street,68064,41.3084456,-96.3453271
104,East Whittingham Street,68064,41.3091449,-96.3464155
120,East Whittingham Street,68064,41.3091474,-96.3455403
119,East Hudspith Street,68064,41.3078581,-96.3458633
119,West Charles Street,68064,41.3096601,-96.3481101
123,East Hudspith Street,68064,41.3078421,-96.3453217
120,East Harrier Street,68064,41.3073694,-96.3454014
707,South Mayne Street,68064,41.3065984,-96.3467187
111,East Charles Street,68064,41.3096393,-96.3461395
105,East Whittingham Street,68064,41.3087953,-96.3465297
116,East Meigs Street,68064,41.3064323,-96.3459998
106,West Whittingham Street,68064,41.3091982,-96.3476807
712,South East Street,68064,41.3068042,-96.3453094
115,West Charles Street,68064,41.3096733,-96.3478779
111,East Harrier Street,68064,41.3069431,-96.3463656
117,East Charles Street,68064,41.3095821,-96.3457916
423,South Mayne Street,68064,41.3091606,-96.3466820
116,West Whittingham Street,68064,41.3092049,-96.3482173
129,East Whittingham Street,68064,41.3087860,-96.3452585
116,East Hudspith Street,68064,41.3082797,-96.3461360
614,South East Street,68064,41.3075513,-96.3453473
121,East Hudspith Street,68064,41.3078879,-96.3456234
114,East Harrier Street,68064,41.3074122,-96.3461239
109,East Charles Street,68064,41.3097088,-96.3464034
123,West Charles Street,68064,41.3096632,-96.3484730
422,South Mayne Street,68064,41.3091942,-96.3471790
127,East Whittingham Street,68064,41.3087932,-96.3454499
619,South Mayne Street,68064,41.3074473,-96.3466479
113,East Harrier Street,68064,41.3069179,-96.3461391
115,East Harrier Street,68064,41.3069574,-96.3459213
116,East Harrier Street,68064,41.3074173,-96.3459046
118,East Meigs Street,68064,41.3065175,-96.3457972
109,East Harrier Street,68064,41.3069648,-96.3466165
124,East Meigs Street,68064,41.3064679,-96.3455278
120,East Hudspith Street,68064,41.3082814,-96.3456592
112,East Whittingham Street,68064,41.3091516,-96.3459072
125,East Charles Street,68064,41.3096644,-96.3453340
109,West Hudspith Street,68064,41.3078801,-96.3474494
101,West Whittingham Street,68064,41.3087726,-96.3471131
116,West Hudspith Street,68064,41.3082634,-96.3480690
616,South Mayne Street,68064,41.3074278,-96.3472848
125,West Hudspith Street,68064,41.3078860,-96.3484989
103,West Whittingham Street,68064,41.3087735,-96.3472921
122,West Hudspith Street,68064,41.3082496,-96.3484323
120,West Hudspith Street,68064,41.3082727,-96.3482755
129,West Whittingham Street,68064,41.3087788,-96.3485969
113,West Hudspith Street,68064,41.3078716,-96.3478225
107,West Whittingham Street,68064,41.3087782,-96.3474571
110,West Harrier Street,68064,41.3073901,-96.3478438
506,South Mayne Street,68064,41.3083140,-96.3471804
117,West Whittingham Street,68064,41.3087575,-96.3478863
128,West Hudspith Street,68064,41.3082635,-96.3485950
121,West Whittingham Street,68064,41.3087590,-96.3482070
119,West Hudspith Street,68064,41.3078890,-96.3480284
111,West Whittingham Street,68064,41.3087596,-96.3476156
125,West Whittingham Street,68064,41.3087874,-96.3484229
123,West Hudspith Street,68064,41.3078902,-96.3482237
114,West Harrier Street,68064,41.3073868,-96.3481527
108,West Hudspith Street,68064,41.3082525,-96.3476057
106,West Hudspith Street,68064,41.3082376,-96.3474450
108,West Harrier Street,68064,41.3073912,-96.3476256
122,West Harrier Street,68064,41.3073892,-96.3485155
111,West Hudspith Street,68064,41.3079040,-96.3476332
112,West Hudspith Street,68064,41.3082464,-96.3478615
606,South Mayne Street,68064,41.3078468,-96.3471912
614,South Pine Street,68064,41.3075027,-96.3441974
609,South East Street,68064,41.3077514,-96.3447838
102,West Meigs Street,68064,41.3064606,-96.3472187
406,South Pine Street,68064,41.3094616,-96.3442997
404,South Pine Street,68064,41.3095818,-96.3442159
725,South East Street,68064,41.3068175,-96.3446042
826,South East Street,68064,41.3047598,-96.3447474
108,West Meigs Street,68064,41.3064931,-96.3478760
103,West Harrier Street,68064,41.3069509,-96.3472748
615,South East Street,68064,41.3075851,-96.3447688
608,South Pine Street,68064,41.3078884,-96.3442151
708,South Mayne Street,68064,41.3069373,-96.3471112
403,South East Street,68064,41.3097307,-96.3447992
407,South East Street,68064,41.3095993,-96.3447980
620,South Pine Street,68064,41.3069589,-96.3441859
522,South Pine Street,68064,41.3082927,-96.3442366
502,South Pine Street,68064,41.3088507,-96.3442533
410,South Pine Street,68064,41.3091146,-96.3442403
717,South East Street,68064,41.3069670,-96.3447451
504,South Pine Street,68064,41.3086316,-96.3442280
104,West Meigs Street,68064,41.3064656,-96.3474581
509,South East Street,68064,41.3085079,-96.3447764
610,South Pine Street,68064,41.3076621,-96.3441951
525,South East Street,68064,41.3082402,-96.3448069
408,South Pine Street,68064,41.3093222,-96.3442275
505,South East Street,68064,41.3086315,-96.3448125
113,West Harrier Street,68064,41.3069175,-96.3482785
706,South Mayne Street,68064,41.3066034,-96.3471771
624,South Pine Street,68064,41.3066003,-96.3441762
111,West Harrier Street,68064,41.3069562,-96.3480476
107,West Harrier Street,68064,41.3069773,-96.3476630
201,East Hudspith Street,68064,41.3079213,-96.3447505
622,South Pine Street,68064,41.3067813,-96.3441944
613,South West Street,68064,41.3065158,-96.3485273
110,West Meigs Street,68064,41.3064608,-96.3481105
115,West Harrier Street,68064,41.3069166,-96.3485730
219,East Charles Street,68064,41.3097304,-96.3442593
109,West Harrier Street,68064,41.3069597,-96.3478667
709,South East Street,68064,41.3071189,-96.3447667
415,South East Street,68064,41.3093859,-96.3447860
822,South East Street,68064,41.3053468,-96.3447530
625,South East Street,68064,41.3072538,-96.3447996
112,West Meigs Street,68064,41.3064750,-96.3483352
806,South East Street,68064,41.3055442,-96.3447404
423,South East Street,68064,41.3089830,-96.3447539
204,East Condron Street,68064,41.3048866,-96.3438551
618,South Pine Street,68064,41.3071386,-96.3442113
632,South Pine Street,68064,41.3064342,-96.3441932
106,West Meigs Street,68064,41.3064515,-96.3476370
105,West Harrier Street,68064,41.3069403,-96.3474636
804,South East Street,68064,41.3057686,-96.3447312
616,South Pine Street,68064,41.3073174,-96.3442135
621,South East Street,68064,41.3074198,-96.3448039
824,South East Street,68064,41.3051052,-96.3448112
825,South East Street,68064,41.3048545,-96.3442184
104,West Alexander Street,68064,41.3109886,-96.3475797
111,West Alexander Street,68064,41.3106011,-96.3476129
124,West Alexander Street,68064,41.3109757,-96.3485318
302,South Mayne Street,68064,41.3106189,-96.3471239
107,West Vass Street,68064,41.3114999,-96.3476774
118,West Alexander Street,68064,41.3109809,-96.3482115
105,West Alexander Street,68064,41.3106083,-96.3473274
114,West Charles Street,68064,41.3100769,-96.3478479
222,South Mayne Street,68064,41.3113647,-96.3472336
324,South Mayne Street,68064,41.3100977,-96.3472145
125,West Vass Street,68064,41.3115160,-96.3485876
111,West Vass Street,68064,41.3115207,-96.3478744
108,West Alexander Street,68064,41.3109756,-96.3478469
126,West Charles Street,68064,41.3100856,-96.3484153
123,West Alexander Street,68064,41.3105921,-96.3485672
102,West Alexander Street,68064,41.3109756,-96.3471632
123,West Vass Street,68064,41.3114895,-96.3482801
118,West Charles Street,68064,41.3100728,-96.3480708
117,West Alexander Street,68064,41.3106011,-96.3482158
110,West Charles Street,68064,41.3101171,-96.3476809
115,West Alexander Street,68064,41.3105845,-96.3479128
112,West Alexander Street,68064,41.3109818,-96.3480552
107,East Vass Street,68064,41.3114611,-96.3466250
131,East Alexander Street,68064,41.3106255,-96.3454640
112,East Charles Street,68064,41.3100664,-96.3459913
116,East Charles Street,68064,41.3100691,-96.3458122
119,East Vass Street,68064,41.3114767,-96.3459515
126,East Alexander Street,68064,41.3109793,-96.3454150
114,East Alexander Street,68064,41.3109888,-96.3459889
311,South Mayne Street,68064,41.3102617,-96.3465782
118,East Alexander Street,68064,41.3110030,-96.3455876
204,South East Street,68064,41.3114954,-96.3453018
233,South Mayne Street,68064,41.3109890,-96.3466461
124,East Charles Street,68064,41.3100908,-96.3452932
104,East Charles Street,68064,41.3100779,-96.3463859
317,South Mayne Street,68064,41.3100736,-96.3465616
107,East Alexander Street,68064,41.3105812,-96.3463812
120,East Charles Street,68064,41.3100607,-96.3455988
106,East Alexander Street,68064,41.3110096,-96.3463949
125,East Vass Street,68064,41.3115147,-96.3455035
110,East Alexander Street,68064,41.3111819,-96.3461315
133,East Alexander Street,68064,41.3105930,-96.3452781
108,East Charles Street,68064,41.3100726,-96.3461771
125,East Alexander Street,68064,41.3106106,-96.3456646
109,East Vass Street,68064,41.3114788,-96.3463775
130,East Alexander Street,68064,41.3109845,-96.3452745
111,East Alexander Street,68064,41.3105621,-96.3461557
103,East Alexander Street,68064,41.3105721,-96.3466380
121,East Alexander Street,68064,41.3106259,-96.3458478
117,East Alexander Street,68064,41.3105962,-96.3459984
115,East Vass Street,68064,41.3114985,-96.3461506
121,East Vass Street,68064,41.3114962,-96.3456965
225,West Gardiner Street,68064,41.3123728,-96.3481999
207,West Gardiner Street,68064,41.3124273,-96.3473187
209,West Gardiner Street,68064,41.3123377,-96.3475020
217,West Gardiner Street,68064,41.3123674,-96.3478902
124,East Vass Street,68064,41.3118974,-96.3455862
120,East Vass Street,68064,41.3119097,-96.3458178
102,South Mayne Street,68064,41.3124458,-96.3471497
109,West Gardiner Street,68064,41.3123752,-96.3466939
108,East Vass Street,68064,41.3118975,-96.3463768
122,South Mayne Street,68064,41.3118860,-96.3472004
101,East Gardiner Street,68064,41.3123360,-96.3463704
104,South East Street,68064,41.3122658,-96.3452707
111,East Gardiner Street,68064,41.3123405,-96.3461239
125,East Gardiner Street,68064,41.3124358,-96.3452596
128,East Vass Street,68064,41.3118949,-96.3453124
123,East Gardiner Street,68064,41.3123145,-96.3454565
103,West Gardiner Street,68064,41.3124706,-96.3465147
130,West Vass Street,68064,41.3118934,-96.3485620
114,West Vass Street,68064,41.3118872,-96.3478516
227,West Gardiner Street,68064,41.3123787,-96.3485506
215,West Gardiner Street,68064,41.3123739,-96.3476644
106,West Vass Street,68064,41.3118957,-96.3475002
108,South Mayne Street,68064,41.3122697,-96.3471655
116,East Vass Street,68064,41.3119028,-96.3459725
123,South Mayne Street,68064,41.3118734,-96.3467239
120,West Vass Street,68064,41.3118984,-96.3482326
112,East Vass Street,68064,41.3119067,-96.3461899
118,West Vass Street,68064,41.3119100,-96.3480487
314,East Gardiner Street,68064,41.3127899,-96.3427938
304,South Pine Street,68064,41.3104888,-96.3442369
423,East Gardiner Street,68064,41.3123982,-96.3412893
307,East Gardiner Street,68064,41.3123956,-96.3435523
310,South Pine Street,68064,41.3102600,-96.3442283
207,East Gardiner Street,68064,41.3123814,-96.3446949
203,South East Street,68064,41.3111667,-96.3447559
406,East Gardiner Street,68064,41.3127918,-96.3425249
312,East Gardiner Street,68064,41.3127876,-96.3430260
317,South East Street,68064,41.3102564,-96.3447328
229,East Gardiner Street,68064,41.3124003,-96.3441587
201,East Gardiner Street,68064,41.3123647,-96.3448589
110,South Pine Street,68064,41.3119384,-96.3443155
301,South East Street,68064,41.3107828,-96.3445944
280,South Pine Street,68064,41.3111677,-96.3442494
410,East Gardiner Street,68064,41.3127841,-96.3421237
311,East Gardiner Street,68064,41.3123999,-96.3429950
408,East Gardiner Street,68064,41.3127981,-96.3422824
111,South East Street,68064,41.3118931,-96.3446543
204,East Gardiner Street,68064,41.3127741,-96.3448469
304,East Gardiner Street,68064,41.3128108,-96.3437153
309,East Gardiner Street,68064,41.3124081,-96.3432672
403,East Gardiner Street,68064,41.3123619,-96.3425506
300,South Pine Street,68064,41.3107959,-96.3442742
418,East Gardiner Street,68064,41.3127838,-96.3414355
302,South Pine Street,68064,41.3106397,-96.3442010
409,East Gardiner Street,68064,41.3124154,-96.3421984
305,South East Street,68064,41.3105905,-96.3447467
115,South East Street,68064,41.3115479,-96.3444912
427,East Gardiner Street,68064,41.3123908,-96.3409613
208,East Gardiner Street,68064,41.3127832,-96.3445375
417,East Gardiner Street,68064,41.3124065,-96.3416284
305,East Gardiner Street,68064,41.3123994,-96.3437491
290,South Pine Street,68064,41.3109695,-96.3442318
212,East Gardiner Street,68064,41.3127884,-96.3443414
106,South Pine Street,68064,41.3121026,-96.3442862
102,North Pine Street,68064,41.3127777,-96.3441763
103,South East Street,68064,41.3120900,-96.3446610
316,South Pine Street,68064,41.3100494,-96.3442093
219,East Gardiner Street,68064,41.3124133,-96.3445197
414,East Gardiner Street,68064,41.3128107,-96.3417113
207,South East Street,68064,41.3109262,-96.3447652
223,East Gardiner Street,68064,41.3124094,-96.3443467
310,East Gardiner Street,68064,41.3127833,-96.3432261
319,South East Street,68064,41.3100684,-96.3447845
412,East Gardiner Street,68064,41.3127901,-96.3419302
411,East Gardiner Street,68064,41.3124061,-96.3419794
308,East Gardiner Street,68064,41.3127577,-96.3434069
111,North Pine Street,68064,41.3132807,-96.3437422
218,West Alexander Street,68064,41.3110262,-96.3506572
611,North Spruce Street,68064,41.3174650,-96.3409171
222,West Gardiner Street,68064,41.3128103,-96.3481891
109,North Pine Street,68064,41.3130886,-96.3437238
624,North Spruce Street,68064,41.3186535,-96.3406173
206,West Alexander Street,68064,41.3110002,-96.3495326
324,West Valley Street,68064,41.3137159,-96.3499838
103,North Platte Street,68064,41.3129261,-96.3497959
214,West Alexander Street,68064,41.3110031,-96.3502848
615,North Spruce Street,68064,41.3177455,-96.3406887
102,North Mayne Street,68064,41.3128521,-96.3471469
212,East Reichmuth Road,68064,41.3144154,-96.3413192
112,East 2nd Street,68064,41.3136187,-96.3440625
203,North Spruce Street,68064,41.3130782,-96.3454349
211,West Church Street,68064,41.3138424,-96.3476008
117,West 2nd Street,68064,41.3140967,-96.3459108
204,South Park Avenue,68064,41.3112414,-96.3514817
333,West Gardiner Street,68064,41.3124430,-96.3498694
212,West Alexander Street,68064,41.3109946,-96.3501165
400,West Valley Street,68064,41.3137443,-96.3509179
206,West Gardiner Street,68064,41.3127820,-96.3473278
322,North Locust Street,68064,41.3150380,-96.3458246
215,West Church Street,68064,41.3139500,-96.3477908
610,North Spruce Street,68064,41.3180449,-96.3413057
210,South Park Avenue,68064,41.3108837,-96.3514267
220,South West Street,68064,41.3109923,-96.3490933
607,North Spruce Street,68064,41.3172058,-96.3411966
106,East 3rd Street,68064,41.3158609,-96.3418129
204,West Alexander Street,68064,41.3110236,-96.3493832
204,South West Street,68064,41.3115535,-96.3490661
602,North Spruce Street,68064,41.3173091,-96.3421524
335,North Spruce Street,68064,41.3143202,-96.3441260
505,North Spruce Street,68064,41.3163732,-96.3420539
206,East Reichmuth Road,68064,41.3146191,-96.3416818
108,East 3rd Street,68064,41.3157398,-96.3416122
102,West Church Street,68064,41.3135257,-96.3461188
102,West Gardiner Street,68064,41.3127767,-96.3465377
512,North Spruce Street,68064,41.3169352,-96.3425176
330,North Spruce Street,68064,41.3145971,-96.3448475
224,North Walnut Street,68064,41.3138524,-96.3485252
312,North Spruce Street,68064,41.3143523,-96.3451883
201,West Valley Street,68064,41.3133294,-96.3472270
109,East Valley Street,68064,41.3131902,-96.3445334
207,East Valley Street,68064,41.3132780,-96.3425283
109,North Platte Street,68064,41.3133312,-96.3496799
214,East Reichmuth Road,68064,41.3141893,-96.3406332
111,East Front Street,68064,41.3139867,-96.3437521
300,North Spruce Street,68064,41.3140857,-96.3451653
228,North Spruce Street,68064,41.3137900,-96.3454761
109,West Church Street,68064,41.3133977,-96.3467098
105,North Spruce Street,68064,41.3128661,-96.3457452
210,West Church Street,68064,41.3141339,-96.3471533
604,North Spruce Street,68064,41.3174116,-96.3417666
215,North Spruce Street,68064,41.3133888,-96.3452353
108,North West Street,68064,41.3129135,-96.3490829
306,North West Street,68064,41.3152971,-96.3489965
320,West Valley Street,68064,41.3137835,-96.3497813
606,North Spruce Street,68064,41.3174801,-96.3416956
112,North West Street,68064,41.3130963,-96.3490397
608,North Spruce Street,68064,41.3176302,-96.3415402
318,North Spruce Street,68064,41.3143302,-96.3449686
105,East Front Street,68064,41.3141543,-96.3439015
232,North West Street,68064,41.3145554,-96.3490471
205,North Walnut Street,68064,41.3136737,-96.3481000
121,West 2nd Street,68064,41.3141384,-96.3460640
110,North Spruce Street,68064,41.3130315,-96.3462182
204,East 3rd Street,68064,41.3156104,-96.3412496
222,North Spruce Street,68064,41.3136643,-96.3456037
350,West Valley Street,68064,41.3137986,-96.3503949
312,West Church Street,68064,41.3147109,-96.3483227
332,West Gardiner Street,68064,41.3127624,-96.3497227
232,North Spruce Street,68064,41.3138865,-96.3454647
219,North Spruce Street,68064,41.3134197,-96.3451606
223,North Spruce Street,68064,41.3134542,-96.3451189
118,West 2nd Street,68064,41.3145249,-96.3453691
303,North Spruce Street,68064,41.3138519,-96.3447525
329,West Gardiner Street,68064,41.3124533,-96.3496533
315,North Spruce Street,68064,41.3140244,-96.3446020
202,North Mayne Street,68064,41.3136185,-96.3472441
104,North Spruce Street,68064,41.3128507,-96.3464097
626,North Spruce Street,68064,41.3188652,-96.3406289
508,North Spruce Street,68064,41.3166894,-96.3427547
105,West Church Street,68064,41.3132946,-96.3465281
320,North Locust Street,68064,41.3147473,-96.3460942
209,West Church Street,68064,41.3137460,-96.3474264
104,South West Street,68064,41.3122911,-96.3491034
619,North Spruce Street,68064,41.3179365,-96.3405340
230,North West Street,68064,41.3143608,-96.3492620
304,North West Street,68064,41.3151314,-96.3491527
308,North Spruce Street,68064,41.3141923,-96.3451019
108,East 2nd Street,68064,41.3137562,-96.3443963
323,West Gardiner Street,68064,41.3124560,-96.3494613
310,West Church Street,68064,41.3146101,-96.3480215
327,North Spruce Street,68064,41.3141885,-96.3444181
230,West Gardiner Street,68064,41.3128244,-96.3485297
104,East 3rd Street,68064,41.3159598,-96.3420385
207,West Valley Street,68064,41.3133209,-96.3474987
206,West 2nd Street,68064,41.3149530,-96.3464770
124,West 2nd Street,68064,41.3144815,-96.3456721
503,North Spruce Street,68064,41.3161262,-96.3423510
116,North West Street,68064,41.3133659,-96.3490314
110,West Church Street,68064,41.3137089,-96.3464304
114,North West Street,68064,41.3132131,-96.3490912
210,West Gardiner Street,68064,41.3127870,-96.3475127
614,North Spruce Street,68064,41.3182277,-96.3411492
115,East Valley Street,68064,41.3132574,-96.3443067
702,North Spruce Street,68064,41.3190620,-96.3409635
310,West Valley Street,68064,41.3138504,-96.3492002
110,South West Street,68064,41.3120490,-96.3490568
380,West Valley Street,68064,41.3137531,-96.3506671
204,West 2nd Street,68064,41.3148102,-96.3462799
203,East Valley Street,68064,41.3132720,-96.3434189
104,North Platte Street,68064,41.3129402,-96.3501694
104,North West Street,68064,41.3127580,-96.3490447
111,West 2nd Street,68064,41.3140342,-96.3458170
507,North Spruce Street,68064,41.3165398,-96.3418864
504,North Spruce Street,68064,41.3164338,-96.3428430
506,North Spruce Street,68064,41.3165135,-96.3426769
218,West Gardiner Street,68064,41.3128460,-96.3478243
103,West Church Street,68064,41.3131855,-96.3464120
102,South West Street,68064,41.3124388,-96.3491150
217,West Meigs Street,68064,41.3060708,-96.3499425
215,West Meigs Street,68064,41.3044741,-96.3494836
1001,South East Street,68064,41.3044550,-96.3442022
1002,South East Street,68064,41.3044751,-96.3447776
1003,South East Street,68064,41.3042356,-96.3441930
1004,South East Street,68064,41.3042691,-96.3447584
1006,South East Street,68064,41.3040646,-96.3447913
1008,South East Street,68064,41.3038560,-96.3447606
1102,South East Street,68064,41.3036335,-96.3447709
1103,South East Street,68064,41.3035341,-96.3441539
1104,South East Street,68064,41.3034205,-96.3447015
1105,South East Street,68064,41.3033396,-96.3441129
1106,South East Street,68064,41.3031985,-96.3446701
1107,South East Street,68064,41.3031707,-96.3440042
1108,South East Street,68064,41.3029906,-96.3445353
202,Sunset Street,68064,41.3039426,-96.3442485
204,Sunset Street,68064,41.3039473,-96.3440001
205,East Condron Street,68064,41.3044181,-96.3438369
205,Sunset Street,68064,41.3035042,-96.3437736
206,East Condron Street,68064,41.3048685,-96.3435535
206,Sunset Street,68064,41.3040609,-96.3437682
207,East Condron Street,68064,41.3044199,-96.3435341
207,Sunset Street,68064,41.3034815,-96.3435038
208,East Condron Street,68064,41.3048872,-96.3432429
208,Sunset Street,68064,41.3040516,-96.3434391
209,East Condron Street,68064,41.3044308,-96.3432615
209,Sunset Street,68064,41.3036204,-96.3432576
210,Sunset Street,68064,41.3038453,-96.3432028
222,East Condron Street,68064,41.3048819,-96.3429484
223,East Condron Street,68064,41.3044468,-96.3429484
224,East Condron Street,68064,41.3048830,-96.3426595
226,East Condron Street,68064,41.3048860,-96.3423671
227,East Condron Street,68064,41.3044211,-96.3423695
228,East Condron Street,68064,41.3048914,-96.3420681
229,East Condron Street,68064,41.3044363,-96.3420516
320,North West Street,68064,41.3159464,-96.3490546
308,North West Street,68064,41.3153614,-96.3491532
316,North West Street,68064,41.3158096,-96.3490694
324,North West Street,68064,41.3161040,-96.3490795
509,West Valley Street,68064,41.3133770,-96.3534742
402,North West Street,68064,41.3162994,-96.3490345
410,North West Street,68064,41.3165527,-96.3490739
412,North West Street,68064,41.3167211,-96.3491087
503,West Valley Street,68064,41.3134764,-96.3528308
505,West Valley Street,68064,41.3133903,-96.3532159
310,North West Street,68064,41.3155093,-96.3490711
312,North West Street,68064,41.3156344,-96.3490677
601,West Valley Street,68064,41.3132766,-96.3537634
104,South Mayne Street,68064,41.3123849,-96.3471288
110,South Mayne Street,68064,41.3122178,-96.3471331
208,West Alexander Street,68064,41.3110097,-96.3497363
306,West Adams Street,68064,41.3054762,-96.3521924
308,West Adams Street,68064,41.3054961,-96.3524647
312,West Adams Street,68064,41.3054682,-96.3529032
908,South Valley View Street,68064,41.3046881,-96.3520330
212,West 3rd Street,68064,41.3176519,-96.3443853
323,North Spruce Street,68064,41.3141136,-96.3445607
215,East Valley Street,68064,41.3136977,-96.3433085
26998,Ida Street,68064,41.3210021,-96.3408455
403,South Mayne Street,68064,41.3097300,-96.3467203
407,South Mayne Street,68064,41.3095978,-96.3467203
409,South Mayne Street,68064,41.3095305,-96.3467212
28780,Ida Street,68064,41.3210482,-96.3678256
7517,North 285th Avenue Circle,68064,41.3297961,-96.3646167
7518,North 285th Avenue Circle,68064,41.3300674,-96.3650301
7521,North 285th Avenue Circle,68064,41.3299907,-96.3644132
7522,North 285th Avenue Circle,68064,41.3302137,-96.3648741
7522,North 285th Circle,68064,41.3298258,-96.3641313
7523,North 285th Circle,68064,41.3295530,-96.3637131
7527,North 285th Avenue Circle,68064,41.3301987,-96.3641825
7529,North 285th Circle,68064,41.3297682,-96.3634940
8002,North 288th Street,68064,41.3315764,-96.3703814
8707,North 300th Street,68064,41.3374095,-96.3850638
333,North Spruce Street,68064,41.3143095,-96.3442452
400,South Center Street,68064,41.3095713,-96.3413533
210,West Church Street,68064-0554,41.3143113,-96.3468730
