House number,Street name,Postal code,Latitude,Longitude
2132,Central Avenue,87544,35.8819728,-106.3020430
3701,Arkansas Avenue,87544,35.8994612,-106.3192453
2470,East Road,87544,35.8759444,-106.2553066
2500,Trinity Drive,87544,35.8813257,-106.3048441
2400,Central Avenue,87544,35.8828913,-106.3039600
1152,Bathtub Row,87544,35.8830025,-106.3022593
1974,Peach Street,87544,35.8845165,-106.3013791
3701,Arkansas Avenue,87544,35.8995319,-106.3194431
125,15th Street,87544,35.8827481,-106.2995715
457,East Road,87544,35.8812639,-106.2842690
132,DP Road,87544,35.8793675,-106.2878076
1460,Trinity Drive,87544,35.8799492,-106.2985696
780,42nd Street,87544,35.8841690,-106.3225593
4220,Trinity Drive,87544,35.8828480,-106.3226106
4220,Trinity Drive,87544,35.8827739,-106.3227954
692,43rd Street,87544,35.8827501,-106.3232722
692,43rd Street,87544,35.8826227,-106.3233085
4138,Trinity Drive,87544,35.8831615,-106.3217866
4138,Trinity Drive,87544,35.8832007,-106.3215949
710,41st Street,87544,35.8834690,-106.3211408
710,41st Street,87544,35.8835920,-106.3211692
4060,Trinity Drive,87544,35.8833078,-106.3208156
4060,Trinity Drive,87544,35.8833078,-106.3206574
4004,Trinity Drive,87544,35.8833163,-106.3202724
4004,Trinity Drive,87544,35.8833192,-106.3201212
3976,Trinity Drive,87544,35.8833149,-106.3199384
3976,Trinity Drive,87544,35.8833078,-106.3197872
3920,Trinity Drive,87544,35.8832508,-106.3193618
3920,Trinity Drive,87544,35.8832309,-106.3192106
101,Camino Entrada,87544,35.8779280,-106.2550668
182,Eastgate Drive,87544,35.8761113,-106.2501256
4084,Trinity Drive,87544,35.8832596,-106.3211111
1200,Trinity Drive,87544,35.8803829,-106.2971854
1225,Diamond Drive,87544,35.8866409,-106.3185449
4168,Trinity Drive,87544,35.8830647,-106.3220931
3948,Trinity Drive,87544,35.8833034,-106.3195642
3917,Diamond Drive,87544,35.8817315,-106.3191217
101,Camino Entrada,87544,35.8769079,-106.2538778
95,Entrada Drive,87544,35.8767997,-106.2609168
4032,Trinity Drive,87544,35.8833572,-106.3204659
715,Diamond Drive,87544,35.8837824,-106.3198574
1315,Trinity Drive,87544,35.8794409,-106.2979787
2455,Trinity Drive,87544,35.8805100,-106.3050781
1695,Trinity Drive,87544,35.8794660,-106.3002211
1907,Trinity Drive,87544,35.8794061,-106.3013272
712,42nd Street,87544,35.8834979,-106.3221865
3794,Gold Street,87544,35.8834823,-106.3165872
3714,Gold Street,87544,35.8835556,-106.3158325
3802,Gold Street,87544,35.8834604,-106.3167849
3790,Gold Street,87544,35.8836393,-106.3163261
3590,Gold Street,87544,35.8836237,-106.3144329
3710,Gold Street,87544,35.8837125,-106.3155714
3810,Gold Street,87544,35.8834163,-106.3173405
3784,Gold Street,87544,35.8835262,-106.3160314
3706,Gold Street,87544,35.8835994,-106.3152768
3620,Gold Street,87544,35.8835922,-106.3149285
3806,Gold Street,87544,35.8835735,-106.3170794
2217,Trinity Drive,87544,35.8800059,-106.3043038
2237,Trinity Drive,87544,35.8795193,-106.3046245
721,42nd Street,87544,35.8834679,-106.3226882
719,41st Street,87544,35.8835589,-106.3216987
686,42nd Street,87544,35.8832556,-106.3221415
685,42nd Street,87544,35.8831397,-106.3226403
746,41st Street,87544,35.8838512,-106.3212623
749,41st Street,87544,35.8838159,-106.3217540
776,41st Street,87544,35.8841642,-106.3216341
1050,Bathtub Row,87544,35.8824807,-106.3020597
2110,46th Street,87544,35.8956182,-106.3256225
1450,Iris Street,87544,35.8824385,-106.2981295
2900,East Road,87544,35.8759691,-106.2504145
225,Venado Street,87544,35.9027283,-106.2883260
1660,Solana,87544,35.8904434,-106.3325165
1635,Solana,87544,35.8900142,-106.3332733
1625,Solana,87544,35.8895986,-106.3331956
1620,Solana,87544,35.8895762,-106.3325947
1999,Juniper Street,87544,35.8824871,-106.3025336
1251,Juniper Street,87544,35.8828564,-106.3027640
1964,Juniper Street,87544,35.8829830,-106.3020447
1300,Bathtub Row,87544,35.8833095,-106.3020143
1350,Bathtub Row,87544,35.8836803,-106.3018776
1967,Peach Street,87544,35.8840099,-106.3017565
2056,Peach Street,87544,35.8845389,-106.3023943
1984,Peach Street,87544,35.8844725,-106.3018567
4017,Arkansas Avenue,87544,35.9008782,-106.3216873
650,North Mesa Road,87544,35.8952357,-106.2863196
1377,Diamond Drive,87544,35.8868848,-106.3186835
208,DP Road,87544,35.8793787,-106.2871236
212,DP Road,87544,35.8792997,-106.2869246
216,DP Road,87544,35.8795046,-106.2868230
232,DP Road,87544,35.8794981,-106.2862343
780,37th Street,87544,35.8832324,-106.3147924
720,37th Street,87544,35.8830353,-106.3147805
715,36th Street,87544,35.8830775,-106.3144340
775,36th Street,87544,35.8832669,-106.3144592
2525,Canyon Road,87544,35.8846076,-106.3046990
1640,Solana,87544,35.8900657,-106.3326017
1670,Solana,87544,35.8906468,-106.3325066
1247,Trinity Drive,87544,35.8794894,-106.2972008
751,Trinity Drive,87544,35.8783537,-106.2937561
101,Camino Entrada,87544,35.8770504,-106.2526618
135,DP Road,87544,35.8787629,-106.2890945
3900,Trinity Drive,87544,35.8833087,-106.3180164
4000,University Drive,87544,35.8857620,-106.3200098
3917,West Road,87544,35.8815587,-106.3188902
659,San Ildefonso Road,87544,35.8904499,-106.2871454
1040,Airport Road,87544,35.8799586,-106.2681132
2101,Trinity Drive,87544,35.8795914,-106.3028721
1000,Central Avenue,87544,35.8816163,-106.2957425
1701,South Peach Street,87544,35.8847855,-106.2996969
1717,South Peach Street,87544,35.8847185,-106.2999087
1705,16th Street,87544,35.8850225,-106.2994358
1675,16th Street,87544,35.8848433,-106.2993977
1645,16th Street,87544,35.8846611,-106.2993353
4401,Diamond Drive,87544,35.9007905,-106.3034623
4475,West Road,87544,35.8801513,-106.3261552
115,Central Park Square,87544,35.8823242,-106.3001461
116,Central Park Square,87544,35.8823133,-106.2998207
118,Central Park Square,87544,35.8823195,-106.2994210
121,Central Park Square,87544,35.8822896,-106.2991607
163,Central Park Square,87544,35.8837800,-106.3008464
130,Central Park Square,87544,35.8827919,-106.2999890
145,Central Park Square,87544,35.8829655,-106.3000448
152,Central Park Square,87544,35.8834116,-106.3000195
190,Central Park Square,87544,35.8821514,-106.3008775
181,Central Park Square,87544,35.8823416,-106.3010935
182,Central Park Square,87544,35.8823366,-106.3009570
1350,Central Avenue,87544,35.8816832,-106.2979970
1350,Central Avenue,87544,35.8816918,-106.2982821
1350,Central Avenue,87544,35.8816853,-106.2980683
1903,Central Avenue,87544,35.8806601,-106.3012308
1789,Central Avenue,87544,35.8812558,-106.3010204
1789,Central Avenue,87544,35.8812493,-106.3008210
1789,Central Avenue,87544,35.8811604,-106.3009246
107,Central Park Square,87544,35.8816093,-106.3000811
108,Central Park Square,87544,35.8817029,-106.3000760
109,Central Park Square,87544,35.8818012,-106.3001117
110,Central Park Square,87544,35.8819081,-106.3001058
111,Central Park Square,87544,35.8820162,-106.3001002
112,Central Park Square,87544,35.8821370,-106.3000939
199,Central Park Square,87544,35.8817093,-106.3010277
751,Trinity Drive,87544,35.8788139,-106.2933495
1247,Trinity Drive,87544,35.8794174,-106.2959310
1460,Trinity Drive,87544,35.8801717,-106.2987303
1370,Central Avenue,87544,35.8811159,-106.2980432
610,Trinity Drive,87544,35.8801620,-106.2929943
614,Trinity Drive,87544,35.8799918,-106.2931440
800,Trinity Drive,87544,35.8800342,-106.2944758
999,Central Avenue,87544,35.8809725,-106.2956087
3500,Trinity Drive,87544,35.8834109,-106.3135932
2006,Canyon Road,87544,35.8849607,-106.3063552
1300,Diamond Drive,87544,35.8859886,-106.3164837
2132,Central Avenue,87544,35.8820182,-106.3021710
2500,Trinity Drive,87544,35.8813736,-106.3048417
