House number,Street name,Postal code,Latitude,Longitude
2701,North Garden Avenue,88201,33.4276628,-104.5136102
700,West Deming Street,88203,33.3852532,-104.5323360
114,East Deming Street,88203,33.3854479,-104.5212385
1400,South Washington Avenue,88203,33.3766764,-104.5323721
408,North Washington Avenue,88201,33.3970901,-104.5321490
200,East Deming Street,88203,33.3854832,-104.5205465
6,EC Tucker Court,88201,33.4374410,-104.5069010
7,EC Tucker Court,88201,33.4373260,-104.5069018
1,Jerry Smith Circle,88203,33.3067025,-104.5189882
1110,South Main Street,88201,33.3811518,-104.5240954
3308,North Main,88201,33.4385773,-104.5236926
4301,North Main Street,88201,33.4475661,-104.5220298
3607,North Main,88201,33.4417425,-104.5224290
1201,North Main,88201,33.4063209,-104.5222600
2212,North Main Street,88201,33.4192237,-104.5236090
2423,North Main,88201,33.4229798,-104.5225630
720,North Main,88201-4816,33.4004561,-104.5232474
2901,North Main Street,88201,33.4308886,-104.5226546
808,North Main Street,88201,33.4017077,-104.5232310
2300,"2300 N Main St, Roswell, NM 88201",88201-6453,33.4201394,-104.5237700
2200,North Main Street,88201,33.4188790,-104.5236090
1310,North Main,88201,33.4076890,-104.5230590
2304,North Main Street,88201,33.4210819,-104.5235290
520,East 2nd Street,88201,33.3937603,-104.5147733
1,Jerry Smith Circle,88203,33.3067620,-104.5189004
2515,West 2nd Street,88201,33.3945522,-104.5587217
2610,West 2nd Street,88201,33.3936587,-104.5600924
2600,West 2nd Street,88201,33.3936207,-104.5594594
1303,West 2nd Street,88201,33.3944769,-104.5404453
701,West 2nd Street,88201,33.3945106,-104.5322301
1300,West Second,88201,33.3935991,-104.5406430
217,West 2nd Street,88201,33.3947728,-104.5256461
925,West 2nd Street,88201,33.3944425,-104.5359176
2700,West 2nd Street,88201,33.3938522,-104.5624291
2211,West 2nd Street,88201,33.3949244,-104.5561632
2810,North Main Street,88201-6509,33.4294598,-104.5248347
2513,North Main Street,88201,33.4244007,-104.5218092
211,East College Boulevard,88201,33.4089910,-104.5192799
500,North Main Street,88201,33.3978852,-104.5231440
600,North Main Street,88201,33.3989555,-104.5231091
114,North Main Street,88201,33.3937090,-104.5230540
200,North Main Street,88201,33.3944414,-104.5230006
226,North Main Street,88201,33.3952290,-104.5232871
1300,South Main Street,88203,33.3792206,-104.5241374
901,South Main Street,88203,33.3843876,-104.5223349
1140,South Main Street,88203,33.3800336,-104.5234024
501,West McGaffey Street,88203,33.3801568,-104.5292872
110,West Hobbs,88203,33.3722598,-104.5240843
1804,South Main Street,88203,33.3702550,-104.5236658
1718,South Main Street,88201,33.3716034,-104.5237624
128,West 2nd Street,88201,33.3939973,-104.5240891
216,West 2nd Street,88201,33.3940309,-104.5254382
400,North Pennsylvania Avenue,88201,33.3969228,-104.5266205
404,North Kentucky Avenue,88201,33.3968019,-104.5278248
329,Canoncito Drive,88201,33.3956168,-104.5625712
1701,West 2nd Street,88201,33.3944682,-104.5479237
900,West 2nd Street,88201,33.3936074,-104.5354130
412,West 2nd Street,88201,33.3940352,-104.5284609
600,East 2nd Street,88201,33.3935605,-104.5140065
1302,East 2nd Street,88201,33.3939120,-104.5051122
909,East 2nd Street,88201,33.3946468,-104.5104757
401,East 2nd Street,88201,33.3944226,-104.5185099
918,East 2nd Street,88201,33.3939727,-104.5106258
629,East 2nd Street,88201,33.3943983,-104.5119697
912,East 2nd Street,88201,33.3937556,-104.5110149
603,East 2nd Street,88201,33.3943961,-104.5136944
120,North Garden Avenue,88203,33.3934780,-104.5147807
1120,East 2nd Street,88201,33.3940221,-104.5069540
301,West McGaffey Street,88203,33.3800474,-104.5271841
2501,Gaye Drive,88201,33.4244452,-104.5371789
1701,North Main Street,88201,33.4144223,-104.5223238
1705,North Main Street,88201,33.4144082,-104.5218648
110,West Hobbs,88203,33.3722080,-104.5240828
604,West 2nd Street,88201,33.3936896,-104.5311239
1901,South Sunset Avenue,88203,33.3698830,-104.5411600
2810,North Main Street,88201,33.4290521,-104.5237534
800,North Main Street,88201,33.4012889,-104.5231556
105,West 3rd Street,88201,33.3955083,-104.5230474
505,North Main Street,88201,33.3980811,-104.5225380
500,North Main Street,88210,33.3981779,-104.5230853
1110,South Main Street,88201,33.3809768,-104.5242488
1309,North Main Street,88201,33.4075900,-104.5222964
1200,South Main Street,88203,33.3793825,-104.5233801
2350,North Main Street,88201,33.4214133,-104.5248898
4400,North Main Street,88201,33.4477231,-104.5266931
4500,North Main Street,88201,33.4498963,-104.5267803
201,West 19th Street,88201,33.4196536,-104.5317802
2725,North Main Street,88201-6512,33.4275045,-104.5213150
2110,North Main Street,88201,33.4181976,-104.5235893
1612,West 8th Street,88201,33.3981718,-104.5491950
401,North Richardson Avenue,88201,33.3965872,-104.5242303
912,North Main Street,88201,33.4028050,-104.5232956
901,West Brasher Road,88203,33.3497017,-104.5354316
3905,Southeast Main Street,88203,33.3495846,-104.5083992
3101,South Main Street,88203,33.3579412,-104.5160602
2005,Southeast Main Street,88203,33.3668082,-104.5134463
2100,Southeast Main Street,88203,33.3644641,-104.5140969
2007,Southeast Main Street,88203,33.3662540,-104.5131316
2010,Southeast Main Street,88203,33.3655378,-104.5142961
2609,South Main Street,88203,33.3621890,-104.5223993
119,West Gayle Street,88203,33.3621537,-104.5242834
323,West Gayle Street,88203,33.3623675,-104.5250164
700,East Berrendo Road,88201,33.4373405,-104.5138237
1101,West 4th Street,88201,33.3966132,-104.5379132
1612,West 8th Street,88201,33.4002815,-104.5459676
1101,West 4th Street,88201,33.3970049,-104.5378521
311,North Richardson Avenue,88201,33.3959543,-104.5240046
2305,West College Boulevard,88201,33.4089794,-104.5575799
1405,North Sycamore Avenue,88201,33.4078774,-104.5584221
1301,North Sycamore Avenue,88201,33.4062620,-104.5585351
1410,North Missouri Avenue,88201,33.4083304,-104.5309244
508,West College Boulevard,88201,33.4083105,-104.5297013
513,West College Boulevard,88201,33.4092279,-104.5307511
1401,North Lea Avenue,88201,33.4084117,-104.5287032
1400,North Washington Avenue,88201,33.4079781,-104.5322640
915,West 19th Street,88201,33.4165207,-104.5357313
1720,North Montana Avenue,88201,33.4139194,-104.5414933
1620,North Montana Avenue,88201,33.4121065,-104.5413047
1822,North Montana Avenue,88201,33.4157003,-104.5409997
5000,North Main Street,88201,33.4568581,-104.5244864
131,West 2nd Street,88201,33.3944737,-104.5241400
2601,North Urton Road,88201,33.4249871,-104.4911472
1,Briarwood Place,88201,33.4220498,-104.4874342
5,Briarwood Place,88201,33.4230244,-104.4871692
901,East Country Club Road,88201,33.4235484,-104.5102572
1206,East College Boulevard,88201,33.4083537,-104.5063813
1206,East College Boulevard,88201,33.4082546,-104.5060332
502,East College Boulevard,88201,33.4084125,-104.5147013
409,East College Boulevard,88201,33.4090543,-104.5169416
1306,East College Boulevard,88201,33.4077160,-104.5039580
1306,East College Boulevard,88201,33.4075609,-104.5039058
1306,East College Boulevard,88201,33.4068093,-104.5034253
2420,North Garden Avenue,88201,33.4226722,-104.5147234
2909,North Garden Avenue,88201,33.4320533,-104.5147176
701,East Country Club Road,88201,33.4231782,-104.5122837
2727,Wilshire Boulevard,88201,33.4301072,-104.5195040
2727,Wilshire Boulevard,88201,33.4284941,-104.5193201
505,North Pennsylvania Avenue,88201,33.3979605,-104.5255746
115,West 11th Street,88201,33.4048845,-104.5240091
500,North Pennsylvania Avenue,88201,33.3982050,-104.5266783
100,West 11th Street,88201,33.4041791,-104.5236900
501,North Kentucky Avenue,88201,33.3978779,-104.5272119
301,North Pennsylvania Avenue,88201,33.3959307,-104.5255645
400,North Pennsylvania Avenue,88201,33.3969453,-104.5266683
213,West 4th Street,88201,33.3966413,-104.5254934
401,North Pennsylvania Avenue,88201,33.3967196,-104.5257820
400,West 3rd Street,88201,33.3949774,-104.5279816
300,North Pennsylvania Avenue,88201,33.3956340,-104.5264624
200,North Pennsylvania Avenue,88201,33.3948464,-104.5265185
306,North Pennsylvania Avenue,88201,33.3960401,-104.5264918
300,North Kentucky Avenue,88201,33.3959412,-104.5281312
807,North Missouri Avenue,88201,33.4018935,-104.5298456
806,North Missouri Avenue,88201,33.4023150,-104.5306238
401,North Sycamore Avenue,88201,33.3985282,-104.5567808
501,North Sycamore Avenue,88201,33.3984790,-104.5577910
2801,West 4th Street,88201,33.3966170,-104.5628023
2909,West 2nd Street,88201,33.3951112,-104.5654314
2803,West 4th Street,88201,33.3966664,-104.5638009
2901,West 4th Street,88201,33.3965055,-104.5646203
300,North Estrellita Drive,88201,33.3963130,-104.5659784
306,North Sycamore Avenue,88201,33.3971960,-104.5632429
601,West 2nd Street,88201,33.3946716,-104.5308974
800,West 2nd Street,88201,33.3940073,-104.5337268
201,South Garden Avenue,88203,33.3919918,-104.5136026
1219,East 2nd Street,88201,33.3945267,-104.5059634
520,East 2nd Street,88201,33.3940103,-104.5146356
820,East 2nd Street,88201,33.3940119,-104.5113846
920,East 2nd Street,88201,33.3943462,-104.5057672
301,Railroad Avenue,88201,33.3950957,-104.5184521
1208,East Bland Street,88203,33.3860251,-104.5062071
500,South Richardson Avenue,88203,33.3882500,-104.5252823
602,South Mississippi Avenue,88203,33.3871506,-104.5425822
201,South Garden Avenue,88203,33.3924470,-104.5127734
604,East 2nd Street,88201,33.3938845,-104.5134629
609,East 2nd Street,88201,33.3945313,-104.5133149
601,East 2nd Street,88201,33.3945342,-104.5139198
625,East 2nd Street,88201,33.3945624,-104.5125959
301,North Garden Avenue,88201,33.3957330,-104.5134118
211,North Garden Avenue,88201,33.3950875,-104.5135009
511,East 2nd Street,88201,33.3945455,-104.5149282
701,North Garden Avenue,88201,33.4003757,-104.5136288
600,East Tilden Street,88201,33.3895932,-104.5148694
500,East Bland Street,88203,33.3862381,-104.5157704
500,East Bland Street,88203,33.3862406,-104.5159714
401,East Bland Street,88203,33.3870545,-104.5178075
400,East Bland Street,88203,33.3864254,-104.5178843
700,East Summit Street,88203,33.3831375,-104.5140789
612,West 8th Street,88201,33.4008757,-104.5315681
806,North Missouri Avenue,88201,33.4018372,-104.5308123
801,North Washington Avenue,88201,33.4011926,-104.5315655
813,North Washington Avenue,88201,33.4018724,-104.5313885
912,North Pennsylvania Avenue,88201,33.4029011,-104.5268253
1010,North Richardson Avenue,88201,33.4041408,-104.5252454
1100,North Virginia Avenue,88201,33.4048586,-104.5216287
1104,West 4th Street,88201,33.3981775,-104.5364390
1111,North Washington Avenue,88201,33.4053896,-104.5314798
1103,North Washington Avenue,88201,33.4049228,-104.5313819
1111,North Washington Avenue,88201,33.4051798,-104.5314767
514,West 11th Street,88201,33.4043160,-104.5300795
607,West 11th Street,88201,33.4047237,-104.5314014
1111,North Washington Avenue,88201,33.4054419,-104.5314797
1212,North Richardson Avenue,88201,33.4067475,-104.5247376
500,North Main Street,88201,33.3980273,-104.5231094
425,North Richardson Avenue,88201,33.3973855,-104.5240864
421,North Richardson Avenue,88201,33.3971079,-104.5241662
500,North Main Street,88201,33.3978753,-104.5232017
415,North Richardson Avenue,88201,33.3969756,-104.5241370
500,North Main Street,88201,33.3981561,-104.5235352
500,North Main Street,88201,33.3979047,-104.5231518
412,North Richardson Avenue,88201,33.3969895,-104.5247050
226,North Main Street,88201,33.3952165,-104.5232615
105,West 3rd Street,88201,33.3955330,-104.5232483
420,North Richardson Avenue,88201,33.3973777,-104.5246882
127,West 4th Street,88201,33.3965877,-104.5240938
601,North Main Street,88201,33.3990328,-104.5224408
125,West 4th Street,88201,33.3966509,-104.5239885
100,East Deming Street,88203,33.3854267,-104.5223137
115,East Deming Street,88201,33.3860132,-104.5213294
105,East Mathews Street,88203,33.3848747,-104.5222564
111,East Deming Street,88201,33.3860583,-104.5216498
110,East Summit Street,88203,33.3830746,-104.5215849
111,East Reed Street,88203,33.3820009,-104.5216717
200-202,East Van Buren Street,88203,33.3822703,-104.5202455
1120,South Grand Avenue,88203,33.3804763,-104.5189245
221,East Jefferson Street,88203,33.3809702,-104.5188176
1010,South Garden Avenue,88203,33.3824430,-104.5149790
1101,Main Street,88201,33.4049082,-104.5224596
1612,West College Boulevard,88201,33.4085416,-104.5445242
1900,North Michigan Avenue,88201,33.4167416,-104.5339194
1612,West College Boulevard,88201,33.4046782,-104.5452986
1019,South Lea Avenue,88203,33.3819424,-104.5287526
180,East 19th Street,88201,33.4155082,-104.5205142
200,East 19th Street,88201,33.4154539,-104.5195186
405,West Country Club Road,88201,33.4246877,-104.5284828
72,Gail Harris Street,88201,33.3180186,-104.5215691
4100,North Main,88201,33.4467857,-104.5238940
1906,South Main Street,88203,33.3680774,-104.5235940
117,East 19th Street,88201,33.4169345,-104.5211135
6,Jemez Court,88201,33.4167668,-104.5320607
5,Jemez Court,88201,33.4167730,-104.5322946
4,Jemez Court,88201,33.4166903,-104.5325787
3,Jemez Court,88201,33.4164103,-104.5325955
2,Jemez Court,88201,33.4162922,-104.5323097
1,Jemez Court,88201,33.4163018,-104.5320726
5,Taos Court,88201,33.4175834,-104.5323435
6,Taos Court,88201,33.4176091,-104.5320970
4,Taos Court,88201,33.4174358,-104.5325411
3,Taos Court,88201,33.4171976,-104.5325570
2,Taos Court,88201,33.4170831,-104.5323198
1,Taos Court,88201,33.4171046,-104.5320668
1307,South Main Street,88203,33.3783068,-104.5223393
1401,South Main Street,88203,33.3776202,-104.5221393
1400,South Main Street,88203,33.3777301,-104.5229793
116,East Forest Street,88203,33.3785856,-104.5209910
1309,Southeast Main Street,88203,33.3782507,-104.5212806
2,Saint Mary's Place,88203,33.3768186,-104.5223290
105,West Chisum Street,88203,33.3765905,-104.5234875
119,West Chisum Street,88203,33.3766318,-104.5246270
117,West Chisum Street,88203,33.3766245,-104.5244644
115,West Chisum Street,88203,33.3765859,-104.5242981
113,West Chisum Street,88203,33.3765948,-104.5241411
111,West Chisum Street,88203,33.3766084,-104.5239811
109,West Chisum Street,88203,33.3765919,-104.5238035
107,West Chisum Street,88203,33.3765666,-104.5236503
1512,South Main Street,88203,33.3748937,-104.5237873
1500,South Main Street,88203,33.3758289,-104.5241063
1623,South Main Street,88203,33.3730330,-104.5224109
600,East Hobbs Street,88203,33.3718186,-104.5135919
504,East Hobbs Street,88203,33.3723492,-104.5146188
1701,South Stanton Avenue,88203,33.3723605,-104.5150213
1703,South Stanton Avenue,88203,33.3722069,-104.5149087
1705,South Stanton Avenue,88203,33.3720634,-104.5148048
1707,South Stanton Avenue,88203,33.3719379,-104.5147226
1709,South Stanton Avenue,88203,33.3717781,-104.5146025
701,East Hobbs Street,88203,33.3727320,-104.5129908
703,East Hobbs Street,88203,33.3726654,-104.5124858
1600,South Mulberry Avenue,88203,33.3739403,-104.5124905
1700,South Stanton Avenue,88203,33.3723791,-104.5155956
1702,South Stanton Avenue,88203,33.3722315,-104.5154912
1704,South Stanton Avenue,88203,33.3720834,-104.5153820
1706,South Stanton Avenue,88203,33.3719476,-104.5152929
1708,South Stanton Avenue,88203,33.3717850,-104.5151662
1712,South Stanton Avenue,88203,33.3714908,-104.5149460
1710,South Stanton Avenue,88203,33.3716375,-104.5150539
1800,South Garden Avenue,88203,33.3709669,-104.5146717
1618,Southeast Main Street,88203,33.3727583,-104.5185747
1,Saint Mary's Place,88203,33.3754263,-104.5216985
2200,South Richardson Avenue,88203,33.3636142,-104.5246474
2202,South Richardson Avenue,88203,33.3634409,-104.5246495
2204,South Richardson Avenue,88203,33.3632248,-104.5246492
2205,South Richardson Avenue,88203,33.3632300,-104.5241584
2209,South Richardson Avenue,88203,33.3627126,-104.5242008
2201,South Richardson Avenue,88203,33.3636431,-104.5241746
2300,South Main Street,88203,33.3636445,-104.5236192
2101,South Main Street,88203,33.3651430,-104.5224635
2012,South Main Street,88203,33.3658252,-104.5236752
2010,South Main Street,88203,33.3660620,-104.5237090
1901,South Main Street,88203,33.3674240,-104.5224564
1905,South Main Street,88203,33.3680140,-104.5223664
2000,South Main Street,88203,33.3671482,-104.5235445
100,Hervey Drive,88203,33.3668284,-104.5212744
108,Hervey Drive,88203,33.3661284,-104.5213051
106,Hervey Drive,88203,33.3663138,-104.5213011
104,Hervey Drive,88203,33.3664862,-104.5212260
102,Hervey Drive,88203,33.3666464,-104.5212399
110,East Hervey Street,88203,33.3659769,-104.5210958
3800,South Main Street,88203,33.3505361,-104.5239169
28,West Martin Street,88203,33.3140902,-104.5279275
52,University Boulevard,88203,33.3115851,-104.5258940
52,University Boulevard,88203,33.3105483,-104.5233212
10,East Challenger Street,88203,33.3066136,-104.5218267
25,West Martin Street,88203,33.3157485,-104.5277581
30,West Wells Street,88203,33.3170170,-104.5281124
32,Geiger Place,88203,33.3171141,-104.5283374
34,Geiger Place,88203,33.3172964,-104.5283956
36,Geiger Place,88203,33.3174388,-104.5285723
38,Geiger Place,88203,33.3173841,-104.5288522
40,Geiger Place,88203,33.3172072,-104.5289763
42,Geiger Place,88203,33.3170340,-104.5289899
22,West Wells Street,88203,33.3170856,-104.5270218
20,West Wells Street,88203,33.3170533,-104.5267530
25,West Wells Street,88203,33.3166758,-104.5272316
27,West Wells Street,88203,33.3166991,-104.5274491
29,West Wells Street,88203,33.3166879,-104.5276503
31,West Wells Street,88203,33.3166736,-104.5278686
1,West Earl Cummings Boulevard,88203,33.3201513,-104.5351029
71,East Wells Street,88203,33.3172179,-104.5154009
83,East Wells Street,88203,33.3176327,-104.5149075
35,H Street,88203,33.3185678,-104.5144389
100,Southeast Wells Street,88203,33.3188060,-104.5121808
91,East Wells Street,88203,33.3180832,-104.5143585
95,East Wells Street,88203,33.3185252,-104.5138469
99,East Wells Street,88203,33.3186847,-104.5136639
102,East Eyman Street,88203,33.3191771,-104.5143585
104,East Eyman Street,88203,33.3191501,-104.5137924
30,H Street,88203,33.3186040,-104.5148391
70,East Wells Street,88203,33.3174209,-104.5157221
68,East Wells Street,88203,33.3173630,-104.5157879
72,East Wells Street,88203,33.3175090,-104.5156240
74,East Wells Street,88203,33.3175707,-104.5155554
78,East Wells Street,88203,33.3177181,-104.5153790
76,East Wells Street,88203,33.3176584,-104.5154434
80,East Wells Street,88203,33.3177976,-104.5152696
82,East Wells Street,88203,33.3178580,-104.5152049
84,East Wells Street,88203,33.3179423,-104.5151076
86,East Wells Street,88203,33.3180062,-104.5150403
88,East Wells Street,88203,33.3180865,-104.5149219
90,East Wells Street,88203,33.3181489,-104.5148605
39,Jennifer Lane,88203,33.3166612,-104.5101653
605,Challenger Street,88203,33.3115523,-104.5132947
56,University Boulevard,88203,33.3134101,-104.5246304
101,West College Boulevard,88201,33.4123225,-104.5251551
1835,North Main Street,88201,33.4155535,-104.5221318
1900,North Main Street,88201,33.4164207,-104.5234920
1805,North Main Street,88201,33.4150487,-104.5222142
298,West 19th Street,88201,33.4154303,-104.5265998
3007,North Main Street,88201,33.4331418,-104.5224505
900,West Hobbs Street,88201,33.3711824,-104.5347372
700,North Virginia Avenue,88201,33.4004739,-104.5216908
108,East 3rd Street,88201,33.3952088,-104.5222759
607,North Main Street,88201,33.3993215,-104.5224843
737,North Main Street,88201,33.4001146,-104.5223664
720,North Main Street,88201,33.4004478,-104.5232277
747,North Main Street,88201,33.4006511,-104.5222141
114,North Main Street,88201,33.3937051,-104.5232199
217,East McGaffey Street,88203,33.3800785,-104.5191075
312,East McGaffey Street,88203,33.3795405,-104.5169635
1010,West 2nd Street,88201,33.3938235,-104.5372515
3575,North Main Street,88201,33.4402187,-104.5223905
2808,North Kentucky,88201,33.4302293,-104.5281557
1901,South Sunset Avenue,88203,33.3702258,-104.5403073
1901,South Sunset Avenue,88203,33.3701119,-104.5408545
1901,South Sunset Avenue,88203,33.3698564,-104.5400502
1901,South Sunset Avenue,88203,33.3699797,-104.5403878
800,North Main Street,88201,33.4012732,-104.5231795
3,Military Heights Drive,88201,33.4203097,-104.5249765
1200,South Sunset Avenue,88203,33.3792968,-104.5413840
1202,South Sunset Avenue,88203,33.3792956,-104.5414703
1500,North Grand Avenue,88201,33.4107360,-104.5169316
3610,North Main Street,88201,33.4422855,-104.5239924
2205,North Main Street,88201,33.4189348,-104.5223910
1208,South Sunset Avenue,88203,33.3793344,-104.5416678
1210,South Sunset Avenue,88203,33.3792073,-104.5416684
1212,South Sunset Avenue,88203,33.3790811,-104.5416645
3013,North Main,88201,33.4340108,-104.5225238
2000,North Union Avenue,88201,33.4174137,-104.5367283
20,Jack McClellan Drive,88201,33.4212210,-104.5391273
609,West Country Club Road,88201,33.4237769,-104.5313594
312,West 2nd Street,88201,33.3940280,-104.5271946
1,West Earl Cummings Loop,88203,33.3199524,-104.5350643
47,Gail Harris Street,88203,33.3142043,-104.5215486
3200,Mission Arch Drive,88201,33.4362710,-104.5092944
700,North Missouri Avenue,88201,33.4003297,-104.5308555
2601,North Urton Road,88201,33.4244508,-104.4860637
