House number,Street name,Postal code,Latitude,Longitude
34,Эркиндик,720040,42.8726752,74.6057172
27/1,Киевская улица,720021,42.8744383,74.6161170
89,Московская улица,720040,42.8699660,74.6083652
127,Чуй проспект,720011,42.8757615,74.6214793
75/1,Токтогула,720021,42.8718872,74.6148178
127,Чуй проспект,720011,42.8751597,74.6203529
26,Орозбекова Абдыкадыра улица,720040,42.8680075,74.6021320
114,Киевская улица,720001,42.8747351,74.5970181
100,Чуй проспект,720040,42.8755277,74.6106255
101/1,Шопокова улица,720021,42.8725030,74.6153754
107,Киевская улица,720001,42.8753517,74.5939900
1А,улица Матросова,720000,42.8642654,74.6303357
29,Суеркулова улица,720064,42.8376138,74.6192354
61А,Чингиза Айтматова проспект,720044,42.8416875,74.5854584
19,Максима Горького улица,720005,42.8569882,74.6123557
1/17,Горький,720048,42.8594313,74.6679233
41,Уметалиева,720010,42.8728511,74.5813526
21,Чингиза Айтматова проспект,720044,42.8519266,74.5859417
132,Боконбаева улица,720040,42.8669748,74.6012449
5,Манаса проспект,720017,42.8673569,74.5877870
106,Усенбаева Алымкула улица,720011,42.8762792,74.6131669
21,Эркиндик бульвар,720040,42.8684781,74.6069636
21,Erkindik blvrd.,720040,42.8685690,74.6069337
236,Курманжан Датка улица,720065,42.8813064,74.6367248
24,Исанова улица,720040,42.8693585,74.5907076
131/2,Киевская улица,720001,42.8754637,74.5909709
105,Тыныстанова улица,720031,42.8568837,74.6082763
10,dreevesnaja,720045,42.8883776,74.6291505
34,Айни улица,720044,42.8482324,74.5843555
173,Токтогула улица,720001,42.8729067,74.5831645
137,Абдрахманова улица,720000,42.8738695,74.6108045
176,Абдрахманова Юсупа улица,720040,42.8736963,74.6105318
69,Московская улица,720021,42.8694226,74.6123288
12,Манаса проспект,720040,42.8688356,74.5868576
136,Панфилова улица,720040,42.8667743,74.5999915
52,Усенбаева Алымкула улица,720021,42.8701510,74.6124497
150,Абдрахманова улица,720021,42.8685182,74.6108911
132,Уметалиева Темиркула улица,720010,42.8737207,74.5808665
114/1,Тоголок Молдо улица,720001,42.8739636,74.5963275
80-42,Исанова улица,720001,42.8745584,74.5912607
73,Московская улица,720000,42.8696528,74.6097317
65,Киевская улица,720040,42.8747897,74.6078092
46,Элебесова,720019,42.9008325,74.6118845
204,Абдрахманова Юсупа улица,720040,42.8799940,74.6114399
282А,Фрунзе улица,720052,42.8798196,74.6220782
38,Manas Avenue,720000,42.8749846,74.5879375
91,Чингиза Айтматова проспект,720044,42.8393360,74.5846078
73/1,Чингиза Айтматова проспект,720044,42.8399580,74.5845591
91,Чингиза Айтматова проспект,720044,42.8389861,74.5842336
119а,Ахунбаева улица,720010,42.8436977,74.6045954
38,Кошевого переулок,720031,42.8525522,74.6109926
138,Боконбаева улица,720040,42.8671044,74.5987871
1/2,Актюбинский переулок,720005,42.8587972,74.6042813
2,Раззакова улица,720040,42.8647237,74.6028304
68,Байтик Баатыра улица,720005,42.8542057,74.6094425
109,Токтогула улица,720001,42.8723141,74.5937698
10,Ауэзова Мухтара улица,724318,42.8773429,74.6907810
10,Ауэзова Мухтара улица,724318,42.8774629,74.6908471
2В,Льва Толстого улица,720083,42.8619731,74.6091541
89/2,Шопокова улица,720021,42.8711147,74.6153800
127 а,Гоголя улица,720047,42.8767444,74.6212318
127,Чуй проспект,720011,42.8755795,74.6214049
"141,127",Гоголя улица,720011,42.8764681,74.6203079
147/4,Чуй проспект,720010,42.8757336,74.6189242
92,Гоголя улица,720011,42.8766823,74.6195462
95а,Киевская улица,720001,42.8751130,74.5970878
112,Киевская улица,720001,42.8746904,74.5981761
254,Сыдыкова улица,720001,42.8743258,74.5815383
7,Матросова улица,720001,42.8595074,74.6188967
1А,Матросова улица,720001,42.8627261,74.6221010
26,Усенбаева Алымкула улица,792001,42.8676585,74.6126360
95,Боконбаева улица,792002,42.8670299,74.6106337
1A,Шабдан Баатыра улица,720000,42.8617040,74.6350086
100,Турусбекова улица,720001,42.8791816,74.5847309
163,Московская улица,720040,42.8703741,74.5885882
121,Московская улица,720001,42.8699424,74.6020958
52-54,Орозбекова Абдыкадыра улица,720040,42.8719191,74.6021833
113/1,Ибраимова улица,720021,42.8729657,74.6183993
64,Эркиндик бульвар,720040,42.8809440,74.6061978
189,Чуйкова улица,720010,42.8676415,74.5720958
429,Фрунзе Михаила улица,720011,42.8809004,74.6180059
27,Эркиндик бульвар,720040,42.8705675,74.6068788
77,Токтогула улица,720040,42.8728072,74.6132030
51,Orozbekova,720000,42.8728085,74.6027608
64,Эркиндик бульвар,720040,42.8823891,74.6064807
32,Орозбекова Абдыкадыра улица,720040,42.8689687,74.6021141
41Б,Чуй проспект,720022,42.8754491,74.6511635
67а,Джал,720007,42.8432832,74.5639112
67а,Джал,720007,42.8434172,74.5639307
19,Раззакова улица,720040,42.8689423,74.6045755
64б,Эркиндик бульвар,720040,42.8821134,74.6055617
125/1,Токтогула улица,720040,42.8726875,74.5971109
12/1,8-й микрорайон,720075,42.8363009,74.6109746
24/1,Логвиненко Якова улица,720001,42.8734092,74.5987393
77,Киевская улица,720040,42.8756012,74.6027410
87,Орозбекова Абдыкадыра улица,720040,42.8815020,74.6039063
34B,Малдыбаева улица,720020,42.8401517,74.6008351
3,Байтик Баатыра улица,720035,42.8465128,74.6104232
3,Байтик Баатыра улица,720035,42.8465709,74.6100750
16,Клубный переулок,720008,42.8881378,74.5473362
21/1,Аалы Токомбаева улица,720028,42.8183577,74.6215913
66,Kasmymaly Bayalinov Street,720004,42.8920933,74.5999447
89,Шопокова улица,720046,42.8698367,74.6150687
78,Пушкина улица,720040,42.8767181,74.6050056
109/3,Турусбекова улица,720001,42.8798991,74.5860396
381,Жибек Жолу проспект,720011,42.8855413,74.6161408
127,Гоголя улица,720011,42.8761592,74.6203362
38,Тыналиева улица,720038,42.8378439,74.5700188
114,Чуй проспект,720040,42.8752296,74.6046097
19,Раззакова улица,720001,42.8685294,74.6044491
28/1 0-этаж,Чуй проспект,720065,42.8747176,74.6335867
28/1 1-этаж,Чуй проспект,720065,42.8746882,74.6335558
48,Турусбекова улица,720010,42.8724567,74.5838792
30a,Чуй проспект,720065,42.8744464,74.6326430
14,Боконбаева улица,720021,42.8663734,74.6160081
137,Киевская улица,720001,42.8756067,74.5894337
29,Гражданская улица,720065,42.8761395,74.6356190
117,Чуй проспект,720065,42.8753572,74.6280359
100,Месароша Ласло улица,720046,42.8808419,74.5358463
100,Месароша Ласло улица,720046,42.8808445,74.5360734
100,Месароша Ласло улица,720046,42.8808469,74.5362826
84,Токтогула улица,720000,42.8717467,74.6110555
44/1,Медерова улица,720001,42.8516107,74.6154465
177/1,Юнусалиева Болота проспект,720001,42.8315399,74.6212648
109a,Чуй проспект,720065,42.8753200,74.6344474
111a,Чуй проспект,720065,42.8754040,74.6338278
109/1,Чуй проспект,720065,42.8753165,74.6336753
39,Гражданская улица,720065,42.8755788,74.6323644
111a,Чуй проспект,720065,42.8753970,74.6340289
29,Гражданская улица,720065,42.8761589,74.6355785
127,Чуй проспект,720011,42.8755452,74.6220719
179/2,Юнусалиева Болота проспект,720028,42.8332781,74.6215690
80,Шевченко улица,720001,42.8753530,74.5824353
299,Чингиза Айтматова проспект,720016,42.8286469,74.5843417
124,Максима Горького улица,720005,42.8567550,74.6097906
90,Киевская улица,720001,42.8750563,74.5984404
37a,Исанова улица,720001,42.8708760,74.5913549
104,Чуй проспект,720040,42.8755612,74.6096250
130,Боконбаева улица,720040,42.8669583,74.6014200
126,Чуй проспект,720040,42.8757210,74.5995217
143,Московская улица,720001,42.8704336,74.5925250
21А,Ташкентская улица,720033,42.8851594,74.5908295
247а,Куренкеева Мураталы улица,720014,42.8878431,74.5896600
140,Токтогула улица,720001,42.8723358,74.5934566
24,Ibraimova,720031,42.8608629,74.6152809
189а,ул. Тыныстанова,720040,42.8679038,74.6090192
211/2а,Айни улица,720027,42.8487519,74.5430815
319/1,Ахунбаева Исы улица,720047,42.8442139,74.5477906
23/1,Жазыйра улица,720047,42.8399606,74.5419739
245,Чортекова Анварбека улица,720047,42.8399847,74.5426130
15в,Бадахшан улица,720047,42.8399454,74.5389463
83,Куюкова Д. улица,720047,42.8373844,74.5390134
23/1,Ак-Шыйрак улица,720047,42.8400907,74.5401619
1a/1,Арча-Бешик улица,720047,42.8371155,74.5383977
30/8,Купянская улица,720047,42.8478552,74.5568158
441/5,Орхон улица,720051,42.9412580,74.6382286
4,Орхон улица,720051,42.9409147,74.6390028
35а,Чуй 55 улица,720042,42.9191073,74.5908072
170,Фатьянова улица,720031,42.8573088,74.6057126
170,Фатьянова улица,720031,42.8573265,74.6056945
21,Эркиндик бульвар,720040,42.8684363,74.6073124
140/1,Бакаева улица,720047,42.8289285,74.5776715
140/1,Бакаева улица,720047,42.8288954,74.5775284
5,Береговой переулок,720005,42.8555057,74.6140387
31/1,Грибоедова улица,720044,42.8431034,74.5732013
125/1,Токтогула улица,720001,42.8728193,74.5969578
41,Турусбекова улица,720010,42.8719175,74.5852849
173,Токтогула улица,720001,42.8730564,74.5871413
143,Московская улица,720001,42.8704195,74.5924984
98,Исанова улица,720001,42.8780043,74.5909750
113,Чуй проспект,720065,42.8753906,74.6316867
87,Орозбекова Абдыкадыра улица,720040,42.8814586,74.6037625
12,Кольбаева улица,720022,42.8783581,74.6616127
3,Усенбаева Алымкула улица,720021,42.8643193,74.6137036
31,Шопокова улица,720021,42.8660588,74.6148931
3,Усенбаева Алымкула улица,720021,42.8644852,74.6130277
28,Ибраимова улица,720021,42.8647482,74.6156698
30,Ибраимова улица,720021,42.8652113,74.6152493
26,Ибраимова улица,720021,42.8642938,74.6152165
29,Шопокова улица,720021,42.8649493,74.6148294
32,Ибраимова улица,720021,42.8656589,74.6158469
129,Абдрахманова Юсупа улица,720005,42.8698878,74.6117981
13,Малдыбаева улица,720055,42.8449726,74.5969096
131,Ахунбаева Исы улица,720055,42.8435498,74.5962469
127,Ахунбаева Исы улица,720055,42.8437934,74.5979775
11,Малдыбаева улица,720055,42.8452679,74.5975045
7,Малдыбаева улица,720055,42.8460243,74.5972534
116,Гоголя улица,720011,42.8815495,74.6192386
114,Чуй проспект,720040,42.8753388,74.6051999
215,Чуй проспект,720040,42.8768299,74.5955338
121/1,Шопокова улица,720011,42.8776216,74.6157292
2,Усенбаева Алымкула улица,720021,42.8649944,74.6137114
20,Чуйкова улица,720021,42.8648107,74.6181617
25,Чуйкова улица,720021,42.8648905,74.6189092
23,Чуйкова улица,720021,42.8650602,74.6193842
21,Чуйкова улица,720021,42.8651514,74.6198217
19,Чуйкова улица,720021,42.8652398,74.6202559
52,Керимбекова Кульчоро улица,720001,42.8745609,74.5890472
2,Эркиндик бульвар,720739,42.8649753,74.6045218
282А,Фрунзе Михаила улица,720052,42.8798014,74.6218071
100,Месароша Ласло улица,720046,42.8807911,74.5360550
247,Токтогула улица,720010,42.8738525,74.5725555
32a,Молодой Гвардии бульвар,720010,42.8745890,74.5732614
10,Дэн Сяопина улица,720054,42.8774416,74.5589977
255,Чуй проспект,720001,42.8771001,74.5856004
107,Киевская улица,720001,42.8755190,74.5940679
9,Малдыбаева улица,720055,42.8456794,74.5966805
10,Панфилова улица,720055,42.8492350,74.5980551
28,Айни улица,720044,42.8480543,74.5854077
46,Шота Руставели улица,720044,42.8451279,74.5840196
189,Ахунбаева Исы улица,720044,42.8438549,74.5813327
49,Чингиза Айтматова проспект,720044,42.8440188,74.5855545
187,Ахунбаева Исы улица,720044,42.8438400,74.5821310
101,Шота Руставели улица,720044,42.8438255,74.5829480
66,Джунусалиева улица,720044,42.8448692,74.5811546
64,Джунусалиева улица,720044,42.8452590,74.5811704
72,Джунусалиева улица,720044,42.8440976,74.5811253
47А,Шота Руставели улица,720044,42.8443597,74.5842737
95,Шота Руставели улица,720044,42.8450704,74.5831391
99,Шота Руставели улица,720044,42.8441861,74.5830878
62,Джунусалиева улица,720044,42.8454851,74.5813991
93,Шота Руставели улица,720044,42.8454347,74.5830398
51,Чингиза Айтматова проспект,720044,42.8437948,74.5852759
97,Шота Руставели улица,720044,42.8446343,74.5831086
25,3 Линия улица,720044,42.8535761,74.5824520
29,Бейшеналиевой улица,720010,42.8751396,74.5718634
28a,Молодой Гвардии бульвар,720010,42.8741850,74.5729416
23,Бейшеналиевой улица,720010,42.8742931,74.5718940
13,Матыева Эркинбека улица,720007,42.8642873,74.5637152
16,Целинная улица,720044,42.8451352,74.5821773
7,Каховская улица,720047,42.8540967,74.5423637
44,Усенбаева Алымкула улица,720021,42.8698273,74.6124165
220,Токтогула улица,720010,42.8723099,74.5801389
1А,Месароша Ласло улица,720010,42.8714140,74.5446679
171,Чингиза Айтматова проспект,720016,42.8271355,74.5824637
21,Чингиза Айтматова проспект,720044,42.8518704,74.5858634
5/3,Суеркулова улица,720020,42.8380935,74.6029099
84а,Токтогула улица,720005,42.8715497,74.6105769
18,Кулатова улица,720005,42.8593501,74.6119976
22,микрорайон Юг-2,720053,42.8576137,74.6082988
1,Керимбекова Кульчоро улица,720017,42.8661759,74.5892661
21,микрорайон Юг-2,720053,42.8578032,74.6089214
78,Тыныстанова улица,720040,42.8684389,74.6082230
1,Ботанический переулок,720044,42.8424338,74.5905150
20/2,Фучика Юлиуса улица,720054,42.8759390,74.5659822
5/2,Суеркулова улица,720020,42.8380451,74.6033757
77,Исанова улица,720001,42.8740851,74.5918206
1,микрорайон Юг-2,720053,42.8599713,74.6062807
8,Льва Толстого улица,720005,42.8615458,74.6077689
207,Сыдыкова улица,720010,42.8751312,74.5732716
207,Сыдыкова улица,720010,42.8750768,74.5727762
29а,Бейшеналиевой улица,720010,42.8750851,74.5722738
31,Бейшеналиевой улица,720010,42.8757674,74.5721292
18А,Кольбаева улица,720022,42.8776524,74.6654336
14а,Кольбаева улица,772200,42.8778312,74.6624921
14,Кольбаева улица,772200,42.8780739,74.6624944
14а,Кольбаева улица,720022,42.8777527,74.6631658
14,Кольбаева улица,720022,42.8781612,74.6630949
16,Кольбаева улица,720022,42.8780354,74.6642341
18,Кольбаева улица,720022,42.8780100,74.6653539
14а/1,Городок Энергетиков микрорайон,724318,42.8772975,74.6925988
69,Ибраева Эсенгула улица,720022,42.8800827,74.6627554
3-a,Усенбаева Алымкула улица,720021,42.8643291,74.6130038
188/1,Фатьянова улица,720005,42.8553056,74.6061097
126/9,Боконбаева улица,720040,42.8669142,74.6019506
71,Эркиндик бульвар,720040,42.8835691,74.6080423
109/3,Турусбекова улица,720001,42.8798345,74.5859698
167A,Токтогула улица,720001,42.8730036,74.5895157
5,Герцена улица,720021,42.8668634,74.6229530
73/2,Тимура Фрунзе улица,720027,42.8541109,74.5332934
153-1,Панфилова улица,720040,42.8667435,74.6007659
75/3,Тимура Фрунзе улица,720027,42.8540389,74.5346941
4/4,7 Апреля улица,720082,42.8622606,74.6379355
27/1,Асанбай микрорайон,720060,42.8187367,74.6248223
138,Токтогула улица,720001,42.8722922,74.5941549
220,Токтогула улица,720010,42.8723502,74.5800974
70,Льва Толстого улица,720035,42.8618277,74.5949580
209,Чуй проспект,720040,42.8769470,74.5975808
1,Сулюктинский переулок,1,42.9041139,74.6160198
91,Чингиза Айтматова проспект,720044,42.8391350,74.5846227
250,Московская улица,720010,42.8708265,74.5720170
89a,Шопокова улица,720021,42.8705543,74.6153784
1a,Туголбай Ата улица,720021,42.8644946,74.6200357
61a,Льва Толстого улица,720009,42.8653831,74.5533315
63а,Льва Толстого улица,720009,42.8658944,74.5525358
36/1А,Тунгуч микрорайон,720048,42.8547086,74.6849324
36/1Б,Тунгуч микрорайон,720048,42.8544632,74.6851851
1/17,Анкара улица,720048,42.8597258,74.6696306
117,Калыка Акиева улица,720010,42.8803235,74.5784472
39,Айдаралиева улица,720052,42.8564428,74.5943828
43,Айдаралиева улица,720052,42.8561130,74.5944391
41,Айдаралиева улица,720052,42.8562577,74.5944607
37,Айдаралиева улица,720052,42.8566441,74.5943835
32,Айдаралиева улица,720052,42.8571985,74.5948546
34,Айдаралиева улица,720052,42.8569794,74.5948265
38,Айдаралиева улица,720052,42.8566634,74.5948152
35,Айдаралиева улица,720052,42.8568195,74.5944886
40,Айдаралиева улица,720052,42.8564644,74.5948918
33,Айдаралиева улица,720052,42.8569967,74.5943853
50,Айдаралиева улица,720052,42.8555735,74.5947768
36,Айдаралиева улица,720052,42.8568525,74.5948402
48,Айдаралиева улица,720052,42.8557483,74.5948284
47,Айдаралиева улица,720052,42.8557465,74.5944241
53,Айдаралиева улица,720052,42.8552275,74.5943866
60,Айдаралиева улица,720052,42.8546809,74.5947297
62,Айдаралиева улица,720052,42.8545146,74.5947381
59,Айдаралиева улица,720052,42.8545963,74.5943477
57,Айдаралиева улица,720052,42.8548272,74.5943492
55,Айдаралиева улица,720052,42.8549816,74.5943679
49,Айдаралиева улица,720052,42.8555596,74.5944135
54,Айдаралиева улица,720052,42.8552342,74.5947434
56,Айдаралиева улица,720052,42.8550357,74.5947353
58,Айдаралиева улица,720052,42.8548519,74.5947224
44,Айдаралиева улица,720052,42.8561191,74.5948276
200,Максима Горького улица,720052,42.8572452,74.5945291
46,Айдаралиева улица,720052,42.8559238,74.5947999
51,Айдаралиева улица,720052,42.8553803,74.5943860
52,Айдаралиева улица,720052,42.8553941,74.5947720
25,Оренбургская улица,720052,42.8582239,74.5931032
18,Луначарского улица,720007,42.8599546,74.5637452
16А,Луначарского улица,720007,42.8600069,74.5634232
3,Куренкеева Мураталы улица,720045,42.8899877,74.6304775
9,Славянская улица,720051,42.8904666,74.6411619
139,Гагарина Юрия улица,720009,42.8522070,74.5548069
179,Турусбекова улица,720014,42.8898099,74.5853855
16,Клубный переулок,720010,42.8879424,74.5469500
15,Ленина проспект,724318,42.8787290,74.6925713
3/3,Зеленая,724318,42.8770938,74.6956241
27,Сокулукская улица,720051,42.8810473,74.6591763
2,Пархоменко улица,720022,42.8771276,74.6456548
29,Гражданская улица,720065,42.8762102,74.6356061
25,Келечек-10 улица,720054,42.9448730,74.6139074
2,Кулмурзаева улица,720082,42.8443863,74.6494920
8,Кулмурзаева улица,7220082,42.8447187,74.6492774
204а,Чортекова Анварбека улица,720047,42.8477293,74.5439633
204/1,Чортекова Анварбека улица,720047,42.8480766,74.5439484
65,7 линия улица,720044,42.8513159,74.5776753
50,Сухомлинова улица,720044,42.8461738,74.5816459
133,Юнусалиева Болота проспект,720005,42.8442103,74.6224687
46,Кубанский переулок,720000,42.8439350,74.6238603
1A,Шабдан Баатыра улица,720000,42.8617015,74.6349350
157,Кийизбаевой Сайры улица,720065,42.8636707,74.6391520
6,Кулмурзаева улица,720082,42.8447182,74.6495771
10,Кулмурзаева улица,7220082,42.8447695,74.6490454
14,Кулмурзаева улица,720082,42.8444238,74.6490611
28,Кулмурзаева улица,7220082,42.8443584,74.6482104
16,Кулмурзаева улица,7220082,42.8443952,74.6486394
4,Кулмурзаева улица,720082,42.8444997,74.6496657
12,Кулмурзаева улица,7220082,42.8445653,74.6490601
26,Кулмурзаева улица,7220082,42.8445096,74.6482568
64,Кок-Жайык улица,720082,42.8379655,74.6490402
64,Кок-Жайык улица,720082,42.8379264,74.6488744
29,Бейшеналиевой улица,720010,42.8748143,74.5718499
60,Орозбекова Абдыкадыра улица,720010,42.8728250,74.6021366
16,Асылкеч улица,72007,42.8186104,74.5401628
205а,Бердибаева улица,720016,42.8226722,74.5383331
1a/1,Арча-Бешик улица,720047,42.8370668,74.5384006
23/1,Ак-Шыйрак улица,720047,42.8400482,74.5401644
212,Чортекова Анварбека улица,720047,42.8465433,74.5439272
216,Чортекова Анварбека улица,720047,42.8460727,74.5438194
7/6,Аалы Токомбаева улица,720060,42.8111252,74.6271646
240,Чокморова улица,720010,42.8688391,74.5850171
127/1,Ахунбаева Исы улица,720055,42.8434698,74.5982551
18,Кулмурзаева улица,7220082,42.8445034,74.6488006
20,Кулмурзаева улица,7220082,42.8447817,74.6487190
22,Кулмурзаева улица,7220082,42.8446747,74.6485311
24,Кулмурзаева улица,7220082,42.8446726,74.6482334
44,Орозбекова Абдыкадыра улица,720001,42.8707989,74.6020877
8/2,Дунайский переулок,720045,42.8876540,74.6225071
1,Куренкеева Мураталы улица,720045,42.8898756,74.6307358
137а,Токтоналиева А. улица,720044,42.8372897,74.5905156
170,Фатьянова улица,720031,42.8573423,74.6057503
44,Киевская улица,720000,42.8735903,74.6140827
3,Чингиза Айтматова проспект,720082,42.8556789,74.5849755
2/3,Чингиза Айтматова проспект,720044,42.8543391,74.5881565
130,Конорчок улица,720014,42.8509389,74.6374502
29а,Бейшеналиевой улица,720010,42.8754010,74.5726990
41,Ай кочо улица,730077,42.8510948,74.5152467
6,Саманчина улица,720020,42.8325246,74.6067496
113/1,Ибраимова улица,720021,42.8729834,74.6180838
107,Чуй проспект,720065,42.8753699,74.6353594
52,Усенбаева Алымкула улица,720021,42.8701094,74.6124189
190/1,Панфилова улица,720040,42.8825656,74.6012199
188/1,Панфилова улица,720040,42.8820246,74.6008189
190/3,Панфилова улица,720040,42.8824372,74.6002998
1,Верхний Кокжар,720073,42.8019725,74.6436117
182,Чингиза Айтматова проспект,720040,42.8321880,74.5839348
8,Дунайский переулок,720045,42.8875702,74.6225294
39а/2,Чуй проспект,720022,42.8756836,74.6514711
3а,Зеленая улица,724318,42.8767449,74.6938423
46,Эркиндик бульвар,720040,42.8756612,74.6057206
16,Тунгуч микрорайон,720048,42.8528640,74.6872034
55б,Логвиненко Якова улица,720040,42.8821143,74.5997914
50,Сухомлинова улица,720044,42.8461431,74.5816832
124,Панфилова улица,720040,42.8649436,74.5996204
89/1,Кийизбаевой Сайры улица,720065,42.8684526,74.6325389
3/1,Ажыбек Баатыра улица,720044,42.8406548,74.5794691
26/1,Молдокулова А. улица,720082,42.8454304,74.6434144
26,Молдокулова А. улица,720082,42.8455832,74.6429481
67/1,микрорайон Джал-23,720007,42.8433250,74.5642335
145,Шопокова улица,720011,42.8830815,74.6156667
312-1,Жибек Жолу проспект,720040,42.8842075,74.6084296
312-2,Жибек Жолу проспект,720040,42.8840773,74.6084283
47 a1,Чингиза Айтматова проспект,720044,42.8451803,74.5855373
9,"Байтик Баатыра улица, село Ортосай",​720016,42.8118587,74.5938638
63а,Айылчиева Эмилбека улица,720047,42.8303015,74.5595356
14,Суусамыр,720077,42.8346737,74.4989190
3/651,Ак Нур улица,720077,42.8444281,74.5082039
27,Гражданская улица,720065,42.8762051,74.6358305
2/1Б,Бадахшан улица,720047,42.8400782,74.5377730
2/1Б,Бадахшан улица,720047,42.8400515,74.5380742
91,Акылбекова улица,720022,42.8772472,74.6455036
31/1,Грибоедова улица,720044,42.8431140,74.5732014
1а/2,Зеленая улица,724318,42.8760437,74.6953930
