House number,Street name,Postal code,Latitude,Longitude
13,вулиця Івана Мазепи,36021,49.5654336,34.5116205
13,вулиця Івана Мазепи,36021,49.5654169,34.5115756
4,"вулиця Героїв ""Азову""",36022,49.5801793,34.5744037
68Б,вулиця Кагамлика,36002,49.5654835,34.5356947
33а,вулиця Івана Мазепи,36021,49.5654984,34.5063619
21а,вулиця Олеся Гончара,36039,49.5862541,34.5280876
27/24,Європейська вулиця,36000,49.5853149,34.5508717
11/21,вулиця Небесної Сотні,36020,49.5850363,34.5566878
28,вулиця Юліана Матвійчука,36039,49.5858941,34.5497401
10,Кустарний провулок,36008,49.5647215,34.5236885
29,вулиця Степового Фронту,36021,49.5646937,34.5222213
29,вулиця Степового Фронту,36021,49.5653348,34.5215549
29,вулиця Степового Фронту,36021,49.5652841,34.5225082
29,вулиця Степового Фронту,36021,49.5653208,34.5217802
29,вулиця Степового Фронту,36021,49.5653626,34.5223060
45,вулиця Симона Петлюри,36021,49.5881676,34.5288068
52,вулиця Симона Петлюри,36039,49.5879002,34.5276002
5,Госпітальний провулок,36003,49.5938064,34.5568667
23,вулиця Шевченка,36024,49.5813280,34.5505664
23,вулиця Шевченка,36024,49.5810420,34.5520290
6/1а,Зіньківська вулиця,36000,49.6014188,34.5311452
7,майдан Незалежності,36000,49.5925048,34.5468594
1,вулиця Гагаріна,36000,49.5834074,34.5589638
74,вулиця Небесної Сотні,36022,49.5795095,34.5708263
1/27,вулиця Котляревського,36000,49.5884610,34.5578659
1/27,вулиця Котляревського,36000,49.5886455,34.5580787
7,Сінна вулиця,36014,49.5888447,34.5395860
10,вулиця Володимира Козака,36003,49.5936338,34.5553276
16,майдан Незалежності,36000,49.5933105,34.5471401
20/1,вулиця Пилипа Орлика,36022,49.5864770,34.5621952
20/1,вулиця Пилипа Орлика,36022,49.5864708,34.5621870
20/1,вулиця Пилипа Орлика,36022,49.5864813,34.5621819
3,вулиця Петра Юрченка,36007,49.6035093,34.5030346
7,бульвар Щепотьєва,36023,49.5781347,34.5148910
23,вулиця Шевченка,36024,49.5811102,34.5534053
50,Стрітенська вулиця,36024,49.5792774,34.5519627
29/15,вулиця Соборності,36020,49.5881083,34.5536973
29/15,вулиця Соборності,36020,49.5881482,34.5536248
8б,вулиця Гетьмана Сагайдачного,36021,49.5668907,34.5249596
12,вулиця Гоголя,36000,49.5868549,34.5582626
12,вулиця Гоголя,36000,49.5871548,34.5585278
146А,Європейська вулиця,36008,49.5588803,34.5221649
33А,вулиця Кагамлика,36002,49.5671810,34.5376405
27,Тунельна вулиця,36018,49.5982268,34.5843670
27,Тунельна вулиця,36018,49.5981217,34.5843353
1/27,вулиця Котляревського,36000,49.5883252,34.5577098
30,вулиця Героїв України,36040,49.5713855,34.4960796
19Б,Зіньківська вулиця,36000,49.6061996,34.5292219
3,вулиця Старий Поділ,36022,49.5823542,34.5818623
7а,вулиця Миколи Дмітрієва,36024,49.5796004,34.5502174
2А,вулиця Володимира Козака,36000,49.5905726,34.5595098
3,вулиця Дмитра Коряка,36004,49.5913545,34.5450531
6,вулиця Котляревського,36000,49.5886844,34.5573849
48,вулиця Панянка,36022,49.5839235,34.5810949
52,вулиця Патріарха Мстислава,36011,49.5734122,34.5505050
52,вулиця Патріарха Мстислава,36011,49.5734734,34.5505571
12,вулиця Курчатова,36034,49.5846343,34.4848887
9Б,Боровиковского,36023,49.5775323,34.5187163
9,вулиця Соборності,36020,49.5833988,34.5636064
3В,площа Слави,36000,49.5827515,34.5935172
19,Європейська вулиця,36000,49.5876265,34.5531051
29в,вулиця Київське Шосе,36008,49.5607574,34.5043645
56,Дослідна вулиця,36009,49.6084510,34.5399828
33,вулиця Соборності,36000,49.5881404,34.5501204
32,Сортувальна вулиця,36015,49.6004658,34.6183395
21а,вулиця Олеся Гончара,36039,49.5863768,34.5277609
35,вулиця Сковороди,36003,49.5974710,34.5635323
7,бульвар Щепотьєва,36023,49.5786840,34.5148937
86а,вулиця Небесної Сотні,36022,49.5787662,34.5738828
39в,вулиця Київське Шосе,36008,49.5615312,34.5032096
81,вулиця Половка,36034,49.5917221,34.5049001
81,вулиця Половка,36034,49.5917221,34.5045031
29/2,Великотирновська вулиця,36034,49.5831222,34.4913902
6,вулиця Небесної Сотні,36000,49.5862719,34.5534774
44,Стрітенська вулиця,36011,49.5820030,34.5546901
52,Шведська вулиця,36014,49.6039576,34.5405521
27/1,вулиця Котляревського,36000,49.5887227,34.5581680
4/2,Сінна вулиця,36000,49.5924148,34.5410053
18,вулиця Пилипа Орлика,36022,49.5865149,34.5627354
6,вулиця Михайла Грушевського,36021,49.5669093,34.5188226
46,вулиця Соборності,36000,49.5931652,34.5443186
78,вулиця Соборності,36000,49.5997444,34.5313193
39а,Великотирновська вулиця,36034,49.5893709,34.4915288
43,вулиця Юліана Матвійчука,36011,49.5847446,34.5513868
146,Європейська вулиця,36008,49.5595721,34.5236846
36,Hoholya St,36000,49.5821054,34.5526863
21,вулиця Капітана Володимира Кісельова,36014,49.5956737,34.5326583
162,Європейська вулиця,36008,49.5476634,34.5122131
162,Європейська вулиця,36008,49.5475923,34.5120907
162,Європейська вулиця,36008,49.5475358,34.5119546
162,Європейська вулиця,36008,49.5478702,34.5120598
10,бульвар Боровіковського,36023,49.5783610,34.5195944
6,вулиця Дмитра Пругла,36023,49.5759714,34.5148389
9,вулиця Івана Мазепи,36021,49.5651960,34.5151190
13,вулиця Івана Мазепи,36021,49.5653729,34.5116565
15,Залізна вулиця,36021,49.5680142,34.5261062
17а,вулиця Михайла Грушевського,36023,49.5678095,34.5158360
83/23,вулиця Героїв АТО,36023,49.5707374,34.5061284
11,вулиця Ціолковського,36021,49.5697052,34.5209098
11,вулиця Ігоря Дорошенка,36021,49.5696593,34.5209239
8,вулиця Івана Мазепи,36021,49.5658537,34.5149441
37,вулиця Івана Мазепи,36021,49.5656539,34.5051156
33,вулиця Соборності,36000,49.5880110,34.5505713
28,вулиця Петра Юрченка,36007,49.6059145,34.5045743
64,Решетилівська вулиця,36007,49.6006400,34.5022025
76,вулиця Соборності,36000,49.5989055,34.5325771
67,вулиця Соборності,36014,49.5957740,34.5357103
30,вулиця Юліана Матвійчука,36000,49.5862386,34.5490755
8а,вулиця Гетьмана Сагайдачного,36021,49.5673802,34.5263961
8,вулиця Гетьмана Сагайдачного,36021,49.5677392,34.5272716
6а,вулиця Гетьмана Сагайдачного,36021,49.5672802,34.5294411
9,Європейська вулиця,36020,49.5886944,34.5545477
3,вулиця Вʼячеслава Чорновола,36003,49.5923789,34.5548683
12,вулиця Олеся Гончара,36039,49.5859923,34.5340453
65-А,вулиця Шевченка,36014,49.5883314,34.5374830
114 к1,вулиця Героїв АТО,36023,49.5736681,34.5139983
56,вулиця Братів Тютюнників,36039,49.5895468,34.5146009
44,вулиця Симона Петлюри,36039,49.5892546,34.5290783
4,Уютна вулиця,36038,49.5931014,34.5316597
19,Зоряна вулиця,36034,49.5813917,34.4957572
19а,Зоряна вулиця,36034,49.5814062,34.4961407
45,вулиця Симона Петлюри,36039,49.5885873,34.5293149
47/15,вулиця Симона Петлюри,36039,49.5875179,34.5290775
12,бульвар Юрія Побєдоносцева,36023,49.5744855,34.5135911
10,Кустарний провулок,36021,49.5645229,34.5235577
10-А,Кустарний провулок,36008,49.5640613,34.5237919
6,Кустарний провулок,36008,49.5643798,34.5256694
8,Кустарний провулок,36008,49.5643363,34.5248168
20/23,вулиця Юліана Матвійчука,36020,49.5843730,34.5536000
7,вулиця Миру,36022,49.5801633,34.5831277
22,вулиця Юліана Матвійчука,36020,49.5850526,34.5514649
3/5,Вузька вулиця,36022,49.5812427,34.5800683
9а,Вузький провулок,36022,49.5810277,34.5809943
24,"вулиця Героїв ""Азову""",36022,49.5814644,34.5787167
2,Соборний майдан,36000,49.5824886,34.5685189
24,провулок Петра Ротача,36022,49.5794998,34.5818296
16,Ламаний провулок,36022,49.5830186,34.5763428
27в,"вулиця Героїв ""Азову""",36022,49.5818950,34.5757097
160,Європейська вулиця,36008,49.5489476,34.5137367
8,Театральна вулиця,36000,49.5977476,34.5528715
4/6,Театральна вулиця,36000,49.5975658,34.5523970
31-А,вулиця Володимира В'язуна,36002,49.5679242,34.5378230
31а,вулиця Кагамлика,36002,49.5679918,34.5379278
64,Решетилівська вулиця,36007,49.6008412,34.5021991
9в,вулиця Івана Мазепи,36021,49.5649509,34.5142816
6д,вулиця Миколи Дмітрієва,36011,49.5792418,34.5468202
13/42,проспект Миколи Вавілова,36004,49.5679890,34.5850892
20,бульвар Богдана Хмельницького,36004,49.5679581,34.5802563
15,бульвар Богдана Хмельницького,36004,49.5679199,34.5823182
12,вулиця Юрія Тимошенка «Тарапуньки»,36034,49.5806360,34.4866493
12а,вулиця Юрія Тимошенка «Тарапуньки»,36034,49.5803688,34.4852691
2/14,вулиця Кузьми Скрябіна,36034,49.5809676,34.4849009
3,вулиця Кузьми Скрябіна,36043,49.5838907,34.4831898
5,вулиця Кузьми Скрябіна,36034,49.5841233,34.4837340
6,вулиця Юрія Тимошенка «Тарапуньки»,36034,49.5810495,34.4885802
6а,вулиця Юрія Тимошенка «Тарапуньки»,36034,49.5815427,34.4898345
8,вулиця Юрія Тимошенка «Тарапуньки»,36034,49.5814538,34.4881271
43,Стрітенська вулиця,36011,49.5815879,34.5548080
146,Європейська вулиця,36008,49.5596930,34.5237305
19,вулиця Шевченка,36011,49.5809129,34.5548410
154а,Європейська вулиця,36000-36499,49.5532677,34.5174313
4,вулиця Героїв-Чорнобильців,36024,49.5816900,34.5445590
7а,Космічний провулок,36034,49.5874989,34.4881764
7а,Космічний провулок,36034,49.5877450,34.4881959
8/9,вулиця Курчатова,36034,49.5822169,34.4858452
10,вулиця Юрія Тимошенка «Тарапуньки»,36034,49.5813045,34.4867805
16/12,вулиця Кузьми Скрябіна,36034,49.5863402,34.4854966
53,Решетилівська вулиця,36007,49.5993762,34.4989396
20,бульвар Богдана Хмельницького,36004,49.5677962,34.5797655
12,вулиця Мироненка,36039,49.5879646,34.5300436
14,вулиця Мироненка,36039,49.5878958,34.5294703
15,бульвар Богдана Хмельницького,36004,49.5678859,34.5830222
74,вулиця Юліана Матвійчука,36014,49.5928732,34.5362085
25а,вулиця Олеся Гончара,36039,49.5854223,34.5266479
63,вулиця Симона Петлюри,36039,49.5861855,34.5268538
21а,вулиця Олеся Гончара,36039,49.5863020,34.5279230
20а,Гожулівська вулиця,36007,49.6031331,34.4878588
5,Госпітальний провулок,36003,49.5938031,34.5568696
8,Низова вулиця,36015,49.6047170,34.6049757
1/27,вулиця Котляревського,36000,49.5884917,34.5580097
1/65,вулиця Симона Петлюри,36014,49.5955639,34.5369422
6,вулиця Гетьмана Сагайдачного,36021,49.5673991,34.5282751
19,вулиця Мироненка,36039,49.5881818,34.5278890
56,вулиця Симона Петлюри,36039,49.5873957,34.5269968
56а,вулиця Симона Петлюри,36039,49.5872686,34.5268808
28,Затишна вулиця,36039,49.5953485,34.5269031
26,Затишна вулиця,36039,49.5951456,34.5273311
24,Затишна вулиця,36039,49.5949351,34.5277987
119,вулиця Шевченка,36039,49.5945854,34.5226474
8,вулиця Садовського,36034,49.5858561,34.4596947
3-А,вулиця Кузьми Скрябіна,36034,49.5838456,34.4839963
1,Вузький провулок,36022,49.5802388,34.5810756
15,вулиця Павла Чубинського,36021,49.5647616,34.5250372
2б,вулиця Михайла Грушевського,36021,49.5652151,34.5191382
33,вулиця Володимира В'язуна,36002,49.5669264,34.5372312
7/9,вулиця Євгена Сверстюка,36005,49.5660453,34.5974958
43,"вулиця Героїв ""Азову""",36022,49.5834577,34.5812385
41,"вулиця Героїв ""Азову""",36022,49.5831275,34.5803471
31,"вулиця Героїв ""Азову""",36022,49.5820956,34.5780198
33,"вулиця Героїв ""Азову""",36022,49.5823762,34.5786646
45,"вулиця Героїв ""Азову""",36022,49.5831862,34.5815798
3,вулиця Старий Поділ,36022,49.5825653,34.5815258
8,вулиця Старий Поділ,36022,49.5817094,34.5824398
12,"вулиця Героїв ""Азову""",36022,49.5812976,34.5773808
51а,Шилівська вулиця,36028,49.5663839,34.4851931
36д,Шилівська вулиця,36040,49.5678080,34.4855228
36а,Шилівська вулиця,36040,49.5677654,34.4854088
12,вулиця Шведська Могила,36013,49.6324892,34.5506772
7-А,вулиця Миколи Дмітрієва,36011,49.5793914,34.5506430
23,Стрітенська вулиця,36041,49.5859868,34.5601192
4,Спаська вулиця,36020,49.5839301,34.5644402
48,вулиця Панянка,36022,49.5839153,34.5810094
58,вулиця Панянка,36022,49.5826229,34.5824083
26,проспект Віталія Грицаєнка,36011,49.5737102,34.5702558
6,вулиця Котляревського,36000,49.5888499,34.5572441
8,вулиця Котляревського,36000,49.5884860,34.5565035
23,вулиця Шевченка,36024,49.5810017,34.5481927
69,Стрітенська вулиця,36011,49.5768938,34.5496957
17,вулиця Маґдебурзького Права,36011,49.5774628,34.5561202
23ж,вулиця Шевченка,36024,49.5810502,34.5529237
5,вулиця Миколи Дмітрієва,36011,49.5801617,34.5477340
7,вулиця Миколи Дмітрієва,36011,49.5793055,34.5493738
57,Європейська вулиця,36039,49.5791571,34.5447491
58б,Стрітенська вулиця,36011,49.5784446,34.5486801
23В,вулиця Шевченка,36024,49.5806189,34.5491947
7,вулиця Коцюбинського,36039,49.5874505,34.5327309
33,вулиця Київське Шосе,36008,49.5587726,34.5043853
2а,Хімічна вулиця,36002,49.5632575,34.5520185
9,Зіньківська вулиця,36009,49.6033199,34.5295198
49,вулиця Симона Петлюри,36039,49.5878886,34.5282347
1,Астрономічна вулиця,36003,49.5967033,34.5418052
1,Астрономічна вулиця,36003,49.5967241,34.5420486
5,Астрономічна вулиця,36003,49.5967887,34.5426037
7,Астрономічна вулиця,36003,49.5968544,34.5428807
9,Астрономічна вулиця,36003,49.5968964,34.5431280
11,Астрономічна вулиця,36003,49.5969585,34.5433587
11,Астрономічна вулиця,36003,49.5969968,34.5435097
4а,Астрономічна вулиця,36003,49.5966591,34.5436160
13,Астрономічна вулиця,36003,49.5969801,34.5436524
8,вулиця Івана Банка,36003,49.5964216,34.5439285
2,вулиця Конституції,36000,49.5834842,34.5613920
1,Холодноярський майдан,36015,49.6127485,34.6073279
33,вулиця Геннадія Біліченка,38750,49.5518498,34.5233228
35,вулиця Геннадія Біліченка,38750,49.5518582,34.5239100
16,Тунельна вулиця,36018,49.5961584,34.5842155
47А,Решетилівська вулиця,36007,49.5994726,34.5018046
16а,вулиця Охтирський Шлях,36015,49.5852753,34.5934405
39,Музейна вулиця,36030,49.5869255,34.6056865
16,провулок Павла Бодянського,36000-36499,49.5913076,34.6131121
5б,вулиця Миколи Руденка,36030,49.5850582,34.6050135
4,вулиця Миколи Руденка,36030,49.5847682,34.6045695
27,Тунельна вулиця,36018,49.5983475,34.5843546
34а,вулиця Небесної Сотні,36000,49.5799329,34.5654119
27,Тунельна вулиця,36018,49.5981441,34.5843443
16,Тунельна вулиця,36018,49.5958292,34.5846399
1б,майдан Незалежності,36003,49.5928976,34.5505989
10,вулиця Миколи Руденка,36030,49.5846892,34.6056843
10а,вулиця Миколи Руденка,36030,49.5844284,34.6059980
7,вулиця Миколи Руденка,36030,49.5849544,34.6058073
5а,вулиця Миколи Руденка,36030,49.5850335,34.6052356
8,вулиця Миколи Руденка,36030,49.5847081,34.6054536
6,вулиця Миколи Руденка,36030,49.5847476,34.6051715
10,вулиця Старий Поділ,36022,49.5813285,34.5821397
12,вулиця Старий Поділ,36022,49.5808677,34.5818969
26,Садова вулиця,36023,49.5738657,34.5546137
21,Картинна вулиця,36022,49.5821112,34.5737178
11,Ламаний провулок,36022,49.5821399,34.5741247
16,Картинна вулиця,36022,49.5819841,34.5728098
10,Ламаний провулок,36022,49.5823029,34.5745072
13,Ламаний провулок,36022,49.5825531,34.5741131
11а,Ламаний провулок,36022,49.5823939,34.5740715
18/2,Світанковий провулок,36034,49.5787735,34.4883897
21,Світанковий провулок,36034,49.5791186,34.4883763
16,Світанковий провулок,36034,49.5787711,34.4889388
14,Світанковий провулок,36034,49.5788580,34.4892615
12,Світанковий провулок,36034,49.5789059,34.4895801
3,Світанковий провулок,36034,49.5790283,34.4907211
5,Світанкова вулиця,36034,49.5789015,34.4909307
22,Затишна вулиця,36039,49.5944795,34.5283006
4,вулиця Конституції,36020,49.5839471,34.5617831
37А,Ювілейна вулиця,36034,49.5797251,34.4880588
14,вулиця Охтирський Шлях,36015,49.5837931,34.5926695
12А,Зоряна вулиця,36034,49.5825289,34.4928167
10,Зоряна вулиця,36034,49.5826164,34.4929605
3,Зоряна вулиця,36034,49.5826605,34.4934590
5,Зоряна вулиця,36034,49.5824236,34.4936898
7,Зоряна вулиця,36034,49.5822754,34.4939630
9,Зоряна вулиця,36034,49.5820730,34.4940837
11,Зоряна вулиця,36034,49.5818845,34.4943341
13А,Зоряна вулиця,36034,49.5817884,34.4947136
19Б,Зоряна вулиця,36034,49.5812060,34.4964556
1,вулиця Юрія Тимошенка «Тарапуньки»,36034,49.5796234,34.4853999
2,вулиця Лева Падалки,36034,49.5793051,34.4853724
4,вулиця Лева Падалки,36034,49.5788775,34.4853756
41,Підмонастирська вулиця,36020,49.5927095,34.5714078
41,Підмонастирська вулиця,36020,49.5925812,34.5713550
29,Новорибцівський провулок,36007,49.6067753,34.4905343
2,Світанкова вулиця,36034,49.5790791,34.4917892
23,Ювілейна вулиця,36034,49.5792974,34.4919551
15,Ювілейна вулиця,36034,49.5794231,34.4937871
17,Ювілейна вулиця,36034,49.5793154,34.4935198
18,Ювілейна вулиця,36034,49.5792203,34.4932866
16,Ювілейна вулиця,36034,49.5797081,34.4933987
19,Ювілейна вулиця,36034,49.5796313,34.4929887
17В,Зоряна вулиця,36034,49.5804362,34.4948514
14Б,Ювілейна вулиця,36034,49.5798165,34.4937365
17Б,Зоряна вулиця,36034,49.5806177,34.4947048
17,Зоряна вулиця,36034,49.5808570,34.4943924
10,Ювілейна вулиця,36034,49.5799208,34.4947542
12,Ювілейна вулиця,36034,49.5798879,34.4943064
12А,Ювілейна вулиця,36034,49.5798761,34.4945725
13,Ювілейна вулиця,36034,49.5794612,34.4940153
14А,Ювілейна вулиця,36034,49.5798997,34.4939746
9,Вознесенська вулиця,36034,49.5788132,34.4957939
3,Вознесенська вулиця,36034,49.5787151,34.4940866
5,Вознесенська вулиця,36034,49.5788141,34.4947776
11,Ювілейна вулиця,36034,49.5795157,34.4947382
18,Зоряна вулиця,36034,49.5801213,34.4950582
20,Зоряна вулиця,36034,49.5799407,34.4951048
25,Вознесенська вулиця,36034,49.5800724,34.4977851
27,Вознесенська вулиця,36034,49.5802887,34.4977455
29,Вознесенська вулиця,36034,49.5805060,34.4977234
1,Ювілейна вулиця,36034,49.5799580,34.4967657
6,Ювілейна вулиця,36034,49.5799536,34.4961206
6А,Ювілейна вулиця,36034,49.5798820,34.4956425
3,Ювілейна вулиця,36034,49.5790504,34.4966895
17,Вознесенська вулиця,36034,49.5791617,34.4971774
19,Вознесенська вулиця,36034,49.5788431,34.4971302
2,Вознесенська вулиця,36034,49.5787372,34.4977597
4А,Вознесенська вулиця,36034,49.5788948,34.4981327
4,Вознесенська вулиця,36034,49.5790765,34.4980562
6,Вознесенська вулиця,36034,49.5792609,34.4981363
23,Вознесенська вулиця,36034,49.5796439,34.4973384
11,Ясенева вулиця,36034,49.5768440,34.4776599
18,Серпнева вулиця,36034,49.5769433,34.4779283
9,Ясенева вулиця,36034,49.5770886,34.4775102
3,Ясенева вулиця,36034,49.5776198,34.4775106
1,Ясенева вулиця,36034,49.5778380,34.4775574
1,Краєвидна вулиця,36034,49.5745531,34.4777289
3,Краєвидна вулиця,36034,49.5743441,34.4781148
40,Глобинська вулиця,36034,49.5742647,34.4785224
1,Глобинська вулиця,36034,49.5742293,34.4789830
36,Глобинська вулиця,36034,49.5748596,34.4787355
38,Глобинська вулиця,36034,49.5746125,34.4786162
15,Оржицька вулиця,36034,49.5746058,34.4772238
13,Оржицька вулиця,36034,49.5747607,34.4772521
11,Оржицька вулиця,36034,49.5749155,34.4773387
7,Оржицька вулиця,36034,49.5754260,34.4773435
1,Оржицька вулиця,36034,49.5757620,34.4773826
1,Космічна вулиця,36034,49.5763455,34.4773079
34,Глобинська вулиця,36034,49.5753608,34.4788695
28,Глобинська вулиця,36034,49.5759685,34.4788250
26,Глобинська вулиця,36034,49.5761498,34.4788293
24А,Глобинська вулиця,36034,49.5765144,34.4788701
17,Серпнева вулиця,36034,49.5767377,34.4783325
15,Серпнева вулиця,36034,49.5771081,34.4783381
11,Серпнева вулиця,36034,49.5772871,34.4783028
8,Серпнева вулиця,36034,49.5774895,34.4778788
10,Серпнева вулиця,36034,49.5772263,34.4778577
7,Серпнева вулиця,36034,49.5777868,34.4783304
9,Серпнева вулиця,36034,49.5775965,34.4783566
2,Серпнева вулиця,36034,49.5780189,34.4779233
6,Серпнева вулиця,36034,49.5777617,34.4778523
5,Серпнева вулиця,36034,49.5779717,34.4783073
14,Глобинська вулиця,36034,49.5779574,34.4788903
16,Глобинська вулиця,36034,49.5777863,34.4788727
20,Глобинська вулиця,36034,49.5774200,34.4788877
22,Глобинська вулиця,36034,49.5772442,34.4789066
24,Глобинська вулиця,36034,49.5770573,34.4788562
2-А,Серпнева вулиця,36034,49.5782175,34.4779153
3,Серпнева вулиця,36034,49.5781459,34.4783610
1А,Серпнева вулиця,36034,49.5790532,34.4782645
12,Глобинська вулиця,36034,49.5781258,34.4788435
10,Глобинська вулиця,36034,49.5782969,34.4788705
4,Кишинівська вулиця,36034,49.5787950,34.4793770
2,Кишинівська вулиця,36034,49.5790609,34.4793462
4,Глобинська вулиця,36034,49.5791832,34.4788981
1,Кишинівська вулиця,36034,49.5793869,34.4793613
2,Глобинська вулиця,36034,49.5795492,34.4788402
21,вулиця Юрія Тимошенка «Тарапуньки»,36034,49.5786454,34.4803397
6Б,Кишинівська вулиця,36034,49.5785245,34.4794026
14,Кишинівська вулиця,36034,49.5771012,34.4794553
12,Кишинівська вулиця,36034,49.5776265,34.4793568
10,Кишинівська вулиця,36034,49.5778295,34.4793646
8,Кишинівська вулиця,36034,49.5779815,34.4794364
6,Кишинівська вулиця,36034,49.5782262,34.4794093
11,вулиця Дмитра Балацького,36034,49.5768897,34.4831509
13,вулиця Дмитра Балацького,36034,49.5767239,34.4829012
15,вулиця Дмитра Балацького,36034,49.5766087,34.4827731
17,вулиця Дмитра Балацького,36034,49.5763732,34.4825224
6,Пісенний провулок,36034,49.5768295,34.4814206
8,Пісенний провулок,36034,49.5768585,34.4817960
14,вулиця Дмитра Балацького,36034,49.5766641,34.4821563
10,Пісенний провулок,36034,49.5768665,34.4821070
7,вулиця Дмитра Ахшарумова,36034,49.5764073,34.4817582
3,вулиця Дмитра Ахшарумова,36034,49.5763920,34.4810790
1,вулиця Дмитра Ахшарумова,36034,49.5763856,34.4807292
19,вулиця Дмитра Балацького,36034,49.5762344,34.4823053
21,вулиця Дмитра Балацького,36034,49.5759026,34.4819523
22,вулиця Тамари Кислякової,36034,49.5756250,34.4826287
21,Кишинівська вулиця,36034,49.5746669,34.4802629
19,Кишинівська вулиця,36034,49.5748325,34.4802262
27,вулиця Дмитра Балацького,36034,49.5752799,34.4812720
17,Кишинівська вулиця,36034,49.5752255,34.4803154
16,вулиця Дмитра Балацького,36034,49.5756933,34.4809245
4,вулиця Дмитра Ахшарумова,36034,49.5759362,34.4810184
11,Кишинівська вулиця,36034,49.5760145,34.4801949
13,Кишинівська вулиця,36034,49.5757050,34.4802360
4,провулок Йозефа Хмелевського,36034,49.5741620,34.4816990
26,вулиця Тамари Кислякової,36034,49.5752184,34.4820529
31,вулиця Дмитра Балацького,36034,49.5749975,34.4809277
2,провулок Йозефа Хмелевського,36034,49.5746348,34.4809705
28,вулиця Яр,36034,49.5740870,34.4838389
4,Кольоровий провулок,36034,49.5743861,34.4830253
5,провулок Йозефа Хмелевського,36034,49.5739618,34.4829892
22,вулиця Яр,36034,49.5747116,34.4842784
12,вулиця Дмитра Ахшарумова,36034,49.5748875,34.4838911
14,вулиця Тамари Кислякової,36034,49.5763348,34.4835975
20,вулиця Тамари Кислякової,36034,49.5758769,34.4828845
9,вулиця Дмитра Ахшарумова,36034,49.5754124,34.4837473
11,вулиця Дмитра Ахшарумова,36034,49.5752339,34.4840936
13,вулиця Дмитра Ахшарумова,36034,49.5750896,34.4843800
4,Музичний провулок,36034,49.5756116,34.4844638
9,вулиця Тамари Кислякової,36034,49.5758304,34.4837838
18,вулиця Тамари Кислякової,36034,49.5761493,34.4831020
6,вулиця Яр,36034,49.5765440,34.4859096
4,Мистецький провулок,36034,49.5760862,34.4850195
3,Музичний провулок,36034,49.5758487,34.4847819
7,вулиця Тамари Кислякової,36034,49.5762623,34.4841894
12,вулиця Тамари Кислякової,36034,49.5765148,34.4836946
10,вулиця Тамари Кислякової,36034,49.5767550,34.4839420
8,вулиця Тамари Кислякової,36034,49.5769306,34.4841036
5,вулиця Тамари Кислякової,36034,49.5764774,34.4845387
2,Мистецький провулок,36034,49.5763289,34.4848521
4,вулиця Яр,36034,49.5766266,34.4857327
3,Мистецький провулок,36034,49.5765053,34.4855209
3,вулиця Тамари Кислякової,36034,49.5768067,34.4850014
4,вулиця Тамари Кислякової,36034,49.5772337,34.4846390
2,вулиця Тамари Кислякової,36034,49.5774160,34.4847789
5,вулиця Дмитра Балацького,36034,49.5773953,34.4837809
9,вулиця Дмитра Балацького,36034,49.5770558,34.4833732
10,вулиця Дмитра Балацького,36034,49.5772154,34.4827917
8,вулиця Дмитра Балацького,36034,49.5773829,34.4830357
6,вулиця Дмитра Балацького,36034,49.5775145,34.4831171
4,вулиця Дмитра Балацького,36034,49.5776900,34.4833421
17,вулиця Івана Багряного,36034,49.5777944,34.4825497
19,вулиця Івана Багряного,36034,49.5776868,34.4823229
23,вулиця Івана Багряного,36034,49.5774869,34.4818260
25,вулиця Івана Багряного,36034,49.5773813,34.4814473
2,Пісенний провулок,36034,49.5768013,34.4806676
3,Пісенний провулок,36034,49.5772375,34.4820094
1,Пісенний провулок,36034,49.5771982,34.4815713
4,Пісенний провулок,36034,49.5768522,34.4811219
1-А,Пісенний провулок,36034,49.5770866,34.4806908
3-Д,Кишинівська вулиця,36034,49.5781191,34.4801789
3-В,Кишинівська вулиця,36034,49.5779201,34.4802340
19,вулиця Юрія Тимошенка «Тарапуньки»,36034,49.5789020,34.4810607
5,вулиця Грицька Коваленка,36034,49.5784446,34.4813590
7,вулиця Грицька Коваленка,36034,49.5784099,34.4817652
9,вулиця Грицька Коваленка,36034,49.5783679,34.4822496
5,Фіалковий провулок,36034,49.5784627,34.4828036
2,Фіалковий провулок,36034,49.5788278,34.4823089
15,вулиця Юрія Тимошенка «Тарапуньки»,36034,49.5789090,34.4817264
13,вулиця Юрія Тимошенка «Тарапуньки»,36034,49.5790899,34.4823140
1Д,вулиця Юрія Тимошенка «Тарапуньки»,36034,49.5798026,34.4856908
9,вулиця Юрія Тимошенка «Тарапуньки»,36034,49.5791461,34.4834565
7,вулиця Юрія Тимошенка «Тарапуньки»,36034,49.5791643,34.4837585
5,вулиця Юрія Тимошенка «Тарапуньки»,36034,49.5792383,34.4840672
6,вулиця Леоніда Бразова,36034,49.5787778,34.4833581
2,вулиця Леоніда Бразова,36034,49.5790487,34.4841396
4,вулиця Леоніда Бразова,36034,49.5789214,34.4837526
2,вулиця Дмитра Балацького,36034,49.5778494,34.4835573
1,вулиця Дмитра Балацького,36034,49.5776317,34.4842734
13,вулиця Івана Багряного,36034,49.5782569,34.4839411
15/11,вулиця Івана Багряного,36034,49.5782017,34.4836186
6,вулиця Лева Падалки,36034,49.5787753,34.4858545
15,Зоряна вулиця,36034,49.5813514,34.4941889
14,Зоряна вулиця,36034,49.5814987,34.4939150
1,Весняна вулиця,36034,49.5817007,34.4933661
3,Весняна вулиця,36034,49.5814026,34.4931584
26,Ювілейна вулиця,36034,49.5800006,34.4905040
24,Ювілейна вулиця,36034,49.5797555,34.4915405
11,Весняна вулиця,36034,49.5804353,34.4910746
25,Ювілейна вулиця,36034,49.5804550,34.4904546
33/1,Ювілейна вулиця,36034,49.5795266,34.4890004
32,Ювілейна вулиця,36034,49.5799795,34.4892514
28,Ювілейна вулиця,36034,49.5801142,34.4899404
39,Ювілейна вулиця,36034,49.5796012,34.4869450
23А,Світанкова вулиця,36034,49.5774423,34.4894362
23Г,Світанкова вулиця,36034,49.5773244,34.4883087
23Д,Світанкова вулиця,36034,49.5773037,34.4877837
23,Світанкова вулиця,36034,49.5776644,34.4882710
23Б,Світанкова вулиця,36034,49.5774052,34.4885600
14,Світанкова вулиця,36034,49.5775830,34.4920719
13,Світанкова вулиця,36034,49.5778438,34.4916787
8,Світанкова вулиця,36034,49.5784520,34.4916389
23А,Ювілейна вулиця,36034,49.5794168,34.4917641
4,Світанковий провулок,36034,49.5791537,34.4910893
2А,Світанкова вулиця,36034,49.5789875,34.4914505
16,Світанкова вулиця,36034,49.5786345,34.4912573
21,Світанкова вулиця,36034,49.5777838,34.4890652
19,Світанкова вулиця,36034,49.5779493,34.4897465
17,Світанкова вулиця,36034,49.5781620,34.4903558
30,Ювілейна вулиця,36034,49.5797135,34.4896950
33,Ювілейна вулиця,36034,49.5796129,34.4893423
29,Ювілейна вулиця,36034,49.5797975,34.4901429
16,Оржицька вулиця,36034,49.5724343,34.4764441
18,Оржицька вулиця,36034,49.5722103,34.4764334
20,Оржицька вулиця,36034,49.5720067,34.4763742
24,Оржицька вулиця,36034,49.5715802,34.4762941
15,Щасливий провулок,36034,49.5711861,34.4768265
13,Щасливий провулок,36034,49.5710843,34.4772087
9,Щасливий провулок,36034,49.5712671,34.4775725
11,Щасливий провулок,36034,49.5713961,34.4773620
1,Щасливий провулок,36034,49.5719086,34.4775700
2,Щасливий провулок,36034,49.5720714,34.4777058
5,Щасливий провулок,36034,49.5716139,34.4777984
7,Щасливий провулок,36034,49.5714570,34.4780307
8,Щасливий провулок,36034,49.5717121,34.4782232
6,Щасливий провулок,36034,49.5718125,34.4780629
4,Щасливий провулок,36034,49.5719649,34.4778685
2,Каравайна вулиця,36034,49.5723085,34.4781615
6,Каравайна вулиця,36034,49.5720721,34.4785830
4,Каравайна вулиця,36034,49.5721909,34.4783446
10,Щасливий провулок,36034,49.5715752,34.4784097
68/10,Кишинівська вулиця,36034,49.5718216,34.4789064
8,Каравайна вулиця,36034,49.5719471,34.4787222
7,Каравайна вулиця,36034,49.5721035,34.4790586
25,Кишинівська вулиця,36034,49.5741057,34.4802584
63,вулиця Яр,36034,49.5723028,34.4812646
65,вулиця Яр,36034,49.5721715,34.4807512
56,Кишинівська вулиця,36034,49.5725609,34.4794042
13,Глобинська вулиця,36034,49.5727687,34.4785830
5,Каравайна вулиця,36034,49.5723088,34.4789895
1,Каравайна вулиця,36034,49.5725500,34.4784440
9А,Глобинська вулиця,36034,49.5729677,34.4789780
7А,Глобинська вулиця,36034,49.5730132,34.4786849
43,Глобинська вулиця,36034,49.5736795,34.4787592
27,Оржицька вулиця,36034,49.5732798,34.4770996
29,Оржицька вулиця,36034,49.5730831,34.4769683
33,Оржицька вулиця,36034,49.5727452,34.4769172
31,Оржицька вулиця,36034,49.5728912,34.4769651
19,Оржицька вулиця,36034,49.5740301,34.4771753
21,Оржицька вулиця,36034,49.5738884,34.4771308
23,Оржицька вулиця,36034,49.5736637,34.4770714
25,Оржицька вулиця,36034,49.5734754,34.4770312
14,Краєвидна вулиця,36034,49.5734427,34.4776296
10,Краєвидна вулиця,36034,49.5737812,34.4776157
12,Краєвидна вулиця,36034,49.5736397,34.4776409
8,Краєвидна вулиця,36034,49.5740055,34.4777390
12,Оржицька вулиця,36034,49.5745687,34.4767201
10,Оржицька вулиця,36034,49.5747539,34.4767616
14,Оржицька вулиця,36034,49.5742171,34.4766231
3,Космічна вулиця,36034,49.5770633,34.4763726
4,Космічна вулиця,36034,49.5774242,34.4768622
2,Космічна вулиця,36034,49.5768694,34.4768414
8,Оржицька вулиця,36034,49.5750886,34.4767895
6,Оржицька вулиця,36034,49.5754980,34.4768045
4,Оржицька вулиця,36034,49.5756441,34.4768655
2,Оржицька вулиця,36034,49.5758378,34.4769326
1-В,Космічна вулиця,36034,49.5761881,34.4763586
9,Космічна вулиця,36034,49.5787209,34.4768558
7,Космічна вулиця,36034,49.5786229,34.4770466
5,вулиця Чамарин Яр,36003,49.6003112,34.5618298
19,Картинна вулиця,36022,49.5822691,34.5733037
8,Ламаний провулок,36022,49.5820954,34.5744155
4,Ламаний провулок,36022,49.5813300,34.5743325
4,вулиця Серьогіна,36008,49.5580684,34.5080660
9,Весняна вулиця,36034,49.5810049,34.4915060
4-А,Великотирновська вулиця,36000,49.5647940,34.4925021
7А,Продовольча вулиця,36030,49.5906332,34.6042707
37,Ювілейна вулиця,36034,49.5796028,34.4880761
35,Ювілейна вулиця,36034,49.5798448,34.4885065
51,Ювілейна вулиця,36034,49.5787127,34.4875829
49,Ювілейна вулиця,36034,49.5789896,34.4874633
47,Ювілейна вулиця,36034,49.5792809,34.4873608
45,Ювілейна вулиця,36034,49.5780010,34.4861865
41,Ювілейна вулиця,36034,49.5775253,34.4862240
40,Ювілейна вулиця,36034,49.5797108,34.4870722
39А,Ювілейна вулиця,36034,49.5799655,34.4868039
34,Ювілейна вулиця,36034,49.5800235,34.4888554
30А,Ювілейна вулиця,36034,49.5795619,34.4897377
28А,Ювілейна вулиця,36034,49.5801854,34.4897658
27,Ювілейна вулиця,36034,49.5801898,34.4901319
26А,Ювілейна вулиця,36034,49.5799071,34.4911580
25А,Ювілейна вулиця,36034,49.5805263,34.4901024
8,Ювілейна вулиця,36034,49.5798237,34.4952670
7,Ювілейна вулиця,36034,49.5794202,34.4953650
5,Ювілейна вулиця,36034,49.5796339,34.4962715
4,Ювілейна вулиця,36034,49.5797193,34.4966126
2,Ювілейна вулиця,36034,49.5800108,34.4965542
2А,Вознесенська вулиця,36034,49.5790015,34.4977244
7А,Зоряна вулиця,36034,49.5823336,34.4942104
8,Зоряна вулиця,36034,49.5826341,34.4924460
11А,Зоряна вулиця,36034,49.5819514,34.4941087
12,Зоряна вулиця,36034,49.5823702,34.4928173
13,Зоряна вулиця,36034,49.5818041,34.4949316
13Б,Зоряна вулиця,36034,49.5819145,34.4947857
14А,Зоряна вулиця,36034,49.5815013,34.4941225
14Б,Зоряна вулиця,36034,49.5816390,34.4940525
17А,Зоряна вулиця,36034,49.5810085,34.4941938
4,Весняна вулиця,36034,49.5815879,34.4925755
7,Світанкова вулиця,36034,49.5788271,34.4919733
15,Світанкова вулиця,36034,49.5782893,34.4912653
18,Світанкова вулиця,36034,49.5780341,34.4898989
18/1,Світанкова вулиця,36034,49.5781160,34.4901009
20,Світанкова вулиця,36034,49.5779233,34.4894116
20Б,Світанкова вулиця,36034,49.5778546,34.4896421
22,Світанкова вулиця,36034,49.5777457,34.4887701
22А,Світанкова вулиця,36034,49.5777638,34.4885012
25,Світанкова вулиця,36034,49.5774091,34.4880489
1,Світанковий провулок,36034,49.5790297,34.4909600
1А,Світанковий провулок,36034,49.5788472,34.4912274
2,Світанковий провулок,36034,49.5790554,34.4911737
12А,Світанковий провулок,36034,49.5789834,34.4895334
10А,вулиця Юрія Тимошенка «Тарапуньки»,36034,49.5809156,34.4867215
11,вулиця Юрія Тимошенка «Тарапуньки»,36034,49.5792715,34.4828748
17,вулиця Юрія Тимошенка «Тарапуньки»,36034,49.5787491,34.4814611
8,вулиця Лева Падалки,36034,49.5778914,34.4855680
10,вулиця Лева Падалки,36034,49.5775474,34.4856801
3,Кишинівська вулиця,36034,49.5784000,34.4804075
8,вулиця Івана Багряного,36034,49.5780559,34.4812895
3,вулиця Дмитра Балацького,36034,49.5775480,34.4839810
7,вулиця Дмитра Балацького,36034,49.5772576,34.4835653
8А,вулиця Дмитра Балацького,36034,49.5773239,34.4829612
12,вулиця Дмитра Балацького,36034,49.5768468,34.4824500
18,вулиця Дмитра Балацького,36034,49.5754764,34.4806815
1,вулиця Тамари Кислякової,36034,49.5771812,34.4852152
6,вулиця Тамари Кислякової,36034,49.5770603,34.4844202
11,вулиця Тамари Кислякової,36034,49.5755852,34.4834628
16,вулиця Тамари Кислякової,36034,49.5761956,34.4834775
22А,вулиця Тамари Кислякової,36034,49.5754977,34.4825420
30,вулиця Тамари Кислякової,36034,49.5748458,34.4817245
1,Мистецький провулок,36034,49.5766613,34.4852623
1,Музичний провулок,36034,49.5760470,34.4845803
5,Музичний провулок,36034,49.5757239,34.4851926
6,Музичний провулок,36034,49.5754441,34.4848290
2,вулиця Яр,36034,49.5768114,34.4855713
8,вулиця Яр,36034,49.5764432,34.4861622
5,Кольоровий провулок,36034,49.5745905,34.4837185
30,вулиця Яр,36034,49.5738701,34.4835255
34,вулиця Яр,36034,49.5733592,34.4832864
36,вулиця Яр,36034,49.5731099,34.4830633
38,вулиця Яр,36034,49.5727412,34.4827889
58,вулиця Яр,36034,49.5772070,34.4859385
72,вулиця Яр,36034,49.5772717,34.4865382
78,вулиця Яр,36034,49.5770779,34.4871642
5,вулиця Дмитра Ахшарумова,36034,49.5763951,34.4814035
2,вулиця Дмитра Ахшарумова,36034,49.5760595,34.4804549
6,вулиця Дмитра Ахшарумова,36034,49.5760550,34.4814360
10,вулиця Дмитра Ахшарумова,36034,49.5751336,34.4834169
15,вулиця Тамари Кислякової,36034,49.5750731,34.4826210
17,вулиця Тамари Кислякової,36034,49.5747371,34.4823363
1,Кольоровий провулок,36034,49.5748817,34.4831306
2,Кольоровий провулок,36034,49.5745131,34.4827854
3,Кольоровий провулок,36034,49.5747406,34.4833789
19,вулиця Тамари Кислякової,36034,49.5745088,34.4818876
1,провулок Йозефа Хмелевського,36034,49.5743524,34.4822628
3,провулок Йозефа Хмелевського,36034,49.5741407,34.4826180
3-Б,Кишинівська вулиця,36034,49.5776645,34.4801174
4А,Кишинівська вулиця,36034,49.5787644,34.4796306
6-А,Кишинівська вулиця,36034,49.5780922,34.4794237
15,Кишинівська вулиця,36034,49.5754668,34.4800649
23,Кишинівська вулиця,36034,49.5744145,34.4799517
27,Кишинівська вулиця,36034,49.5739451,34.4799587
60,Кишинівська вулиця,36034,49.5723847,34.4794969
62,Кишинівська вулиця,36034,49.5722404,34.4795456
64,Кишинівська вулиця,36034,49.5720924,34.4795670
8А,Глобинська вулиця,36034,49.5787421,34.4786134
18,Глобинська вулиця,36034,49.5776045,34.4789589
42,Глобинська вулиця,36034,49.5725281,34.4778915
3,Каравайна вулиця,36034,49.5723722,34.4786055
1,Серпнева вулиця,36034,49.5794410,34.4782736
5,Ясенева вулиця,36034,49.5774002,34.4774680
7,Ясенева вулиця,36034,49.5773253,34.4775650
13,Ясенева вулиця,36034,49.5765881,34.4777976
14А,Оржицька вулиця,36034,49.5743841,34.4766898
35,Оржицька вулиця,36034,49.5726117,34.4769365
37,Оржицька вулиця,36034,49.5721046,34.4768253
20А,Оржицька вулиця,36034,49.5720209,34.4762499
22А,Оржицька вулиця,36034,49.5716738,34.4762857
24А,Оржицька вулиця,36034,49.5714648,34.4762645
26,Оржицька вулиця,36034,49.5735409,34.4766975
5,Краєвидна вулиця,36034,49.5740727,34.4780966
6,Краєвидна вулиця,36034,49.5742467,34.4777218
2А,Космічна вулиця,36034,49.5771273,34.4765974
5,Космічна вулиця,36034,49.5777236,34.4769117
5А,Ясенева вулиця,36034,49.5777906,34.4771474
6,Космічна вулиця,36034,49.5780353,34.4769964
7А,Космічна вулиця,36034,49.5786686,34.4772814
8,Космічна вулиця,36034,49.5796704,34.4777867
10,Космічна вулиця,36034,49.5790202,34.4753173
10В,Космічна вулиця,36034,49.5795344,34.4747317
11,Космічна вулиця,36034,49.5798139,34.4754980
12,Космічна вулиця,36034,49.5800564,34.4753761
13,Космічна вулиця,36034,49.5803371,34.4756079
13А,Космічна вулиця,36034,49.5804873,34.4757664
14,Космічна вулиця,36034,49.5808604,34.4750895
15,Космічна вулиця,36034,49.5804676,34.4747948
16,Космічна вулиця,36034,49.5800919,34.4745956
17,Космічна вулиця,36034,49.5802989,34.4737418
18,Космічна вулиця,36034,49.5800129,34.4740955
19,Космічна вулиця,36034,49.5800696,34.4729409
20,Космічна вулиця,36034,49.5805704,34.4741138
21,Космічна вулиця,36034,49.5808372,34.4733474
21А,Космічна вулиця,36034,49.5807433,34.4732774
21Б,Космічна вулиця,36034,49.5808788,34.4731817
22,Космічна вулиця,36034,49.5808084,34.4726014
23,Космічна вулиця,36034,49.5806199,34.4725361
24,Космічна вулиця,36034,49.5804556,34.4729832
25,Космічна вулиця,36034,49.5803535,34.4734677
26,Космічна вулиця,36034,49.5802049,34.4725046
27,Космічна вулиця,36034,49.5797737,34.4729284
28,Космічна вулиця,36034,49.5796242,34.4730813
23,вулиця Шевченка,36024,49.5819716,34.5502924
36,вулиця Панянка,36022,49.5839000,34.5747384
38,вулиця Панянка,36022,49.5839160,34.5759657
8,провулок Петра Ротача,36022,49.5805625,34.5779134
29а,Новорибцівський провулок,36007,49.6068307,34.4907776
20А,вулиця Шевченка,36011,49.5815279,34.5555526
1-А,вулиця Макаренка,36011,49.5785546,34.5463661
116,вулиця Героїв АТО,36023,49.5729410,34.5118387
18/1,Світанковий провулок,36034,49.5788078,34.4885553
4,вулиця Полковника Степана Лазуренка,36042,49.6164340,34.4795232
9,Сніжний провулок,36000-36499,49.6062390,34.4708430
7,Сніжний провулок,36000-36499,49.6060621,34.4708624
37,вулиця Василя Стуса,36000-36499,49.6066036,34.4711640
47,вулиця Василя Стуса,36000-36499,49.6066609,34.4700149
49,вулиця Василя Стуса,36000-36499,49.6066665,34.4696867
18,Харківська вулиця,36030,49.5869028,34.6014121
"146е, к.1",Європейська вулиця,36008,49.5596749,34.5221428
162,Європейська вулиця,36008,49.5476530,34.5119871
8,Зоологічна вулиця,36042,49.6155804,34.4822825
16,вулиця Яр,36034,49.5752726,34.4851994
1А,вулиця Юрія Тимошенка «Тарапуньки»,36034,49.5805261,34.4889321
1А,вулиця Юрія Тимошенка «Тарапуньки»,36034,49.5805421,34.4889423
53,вулиця Івана Мазепи,36040,49.5654100,34.4972038
5,вулиця Героїв Сталінграду,36040,49.5698083,34.5006338
6,вулиця Дмитра Пругла,36023,49.5762504,34.5142569
10,"вулиця Героїв ""Азову""",36022,49.5804617,34.5766579
1/16,вулиця Кучеренка,36007,49.6024064,34.4918112
9-А,Монастирська вулиця,36000,49.5929648,34.5609520
11,вулиця Івана Мазепи,36021,49.5651322,34.5135276
23,вулиця Шевченка,36024,49.5804193,34.5627927
12,вулиця Шведська Могила,36013,49.6323534,34.5504727
25,"вулиця Героїв ""Азову""",36022,49.5813432,34.5758594
27в,вулиця Олеся Гончара,36039,49.5844620,34.5236487
23,вулиця Шевченка,36024,49.5800940,34.5500472
7,вулиця Коцюбинського,36039,49.5875173,34.5329728
