House number,Street name,Postal code,Latitude,Longitude
19,Strada George Coșbuc,405100,46.5497370,23.8883060
19,Strada George Coșbuc,405100,46.5497370,23.8882330
8,Strada Aurel Vlaicu,405100,46.5440190,23.8849980
14,Strada 1 Decembrie 1918,401184,46.5352097,23.8958356
2,Strada Andrei Mureșanu,405100,46.5461149,23.8860120
11,Piața Mihai Viteazu,405100,46.5451662,23.8855886
59,Strada Gheorghe Barițiu,405100,46.5364193,23.8859580
2,Aleea Castanilor,405100,46.5426058,23.8832523
1,Aleea Castanilor,405100,46.5425922,23.8833796
3A,Strada Gării,405100,46.5468556,23.8813237
3,Strada Gării,405100,46.5468559,23.8814155
3-5,Strada 1 Decembrie,405100,46.5439800,23.8880256
48,Strada Traian,827142,46.5470693,23.8751542
19,Strada Traian,405100,46.5463384,23.8758256
22,Strada Traian,827142,46.5460758,23.8768972
18,Strada Teilor,405200,46.5410187,23.8929138
20,Strada Teilor,405200,46.5409628,23.8929981
44,Strada Laminoriștilor,405100,46.5510924,23.8853950
49,Strada Laminoriștilor,405100,46.5505119,23.8855659
84,Strada Laminoriștilor,405100,46.5526660,23.8821171
74,Strada Laminoriștilor,405100,46.5523929,23.8828516
95,Strada Laminoriștilor,405100,46.5524074,23.8817711
95A,Strada Laminoriștilor,405100,46.5524340,23.8816915
89,Strada Andrei Mureșanu,405100,46.5526067,23.8809379
9,Aleea Castanilor,405100,46.5428718,23.8823651
7,Aleea Castanilor,405100,46.5428373,23.8825978
10,Aleea Castanilor,405100,46.5428859,23.8822200
5,Aleea Castanilor,405100,46.5427981,23.8828726
4,Aleea Castanilor,405100,46.5426760,23.8829681
8,Aleea Castanilor,405100,46.5428534,23.8824638
3,Aleea Castanilor,405100,46.5426609,23.8831106
6,Aleea Castanilor,405100,46.5428204,23.8827277
33,Strada Tudor Vladimirescu,405100,46.5389834,23.8932440
11,Strada Tudor Vladimirescu,405100,46.5401006,23.8913172
10,Strada Tudor Vladimirescu,405100,46.5392678,23.8916690
31,Strada Tudor Vladimirescu,405100,46.5391074,23.8929530
12,Strada Tudor Vladimirescu,405100,46.5392081,23.8917455
9,Strada Tudor Vladimirescu,405100,46.5401821,23.8912270
22,Strada 1 Mai,405200,46.5409615,23.8914354
2,Strada 1 Mai,405200,46.5420081,23.8899460
17,Strada 1 Mai,405200,46.5417447,23.8908944
15,Strada 1 Mai,405200,46.5417983,23.8908097
6,Strada 1 Mai,405200,46.5417344,23.8902849
6A,Strada 1 Mai,405200,46.5416756,23.8903549
2A,Strada 1 Mai,405200,46.5420414,23.8899026
44,Strada 1 Mai,405200,46.5396837,23.8932475
8A,Strada Teilor,405200,46.5419176,23.8916767
43,Strada Teilor,405100,46.5397134,23.8955872
3,Strada Teilor,405200,46.5423897,23.8915040
1A,Strada Teilor,405200,46.5424275,23.8913981
8,Strada Teilor,405200,46.5420213,23.8915161
8A,Strada Parcului,405200,46.5425807,23.8902974
2B,Strada Teilor,405200,46.5424512,23.8908203
2A,Strada Teilor,405200,46.5425667,23.8906357
10,Strada Școlii,405100,46.5396364,23.8964561
2,Strada Teilor,405200,46.5425075,23.8907444
2,Strada Parcului,405200,46.5421195,23.8895769
39C,Strada Teilor,405100,46.5402514,23.8954640
20,Strada 1 Mai,405200,46.5410644,23.8913047
16A,Strada Gheorghe Doja,405100,46.5490355,23.8898735
18,Strada Gheorghe Doja,405100,46.5490762,23.8899315
22,Strada Gheorghe Doja,405100,46.5494239,23.8901439
10,Piața Unirii,405100,46.5479848,23.8888489
33,Strada George Coșbuc,405100,46.5497219,23.8898846
18A,Strada Gheorghe Doja,405100,46.5491205,23.8899694
61,Strada Aurel Vlaicu,405100,46.5362996,23.8820428
122,Strada Aurel Vlaicu,405100,46.5359430,23.8813534
61,Strada Laminoriștilor,405100,46.5511334,23.8846812
17,Strada 1 Decembrie 1918,405100,46.5422926,23.8888525
24A,Strada Decebal,405100,46.5420392,23.8855864
24,Strada Decebal,405100,46.5419690,23.8855618
2,Strada Școlii,405200,46.5387526,23.8945400
8,Strada Băii,405100,46.5468466,23.8880089
15,Strada Laminoriștilor,405100,46.5475349,23.8852730
5,Strada 1 Decembrie,405100,46.5433793,23.8883050
9,Strada Parcului,405200,46.5462618,23.8884810
13,Strada Laminoriștilor,405100,46.5475398,23.8846139
30,Strada Andrei Mureșanu,405100,46.5475491,23.8840257
61B,Strada Aurel Vlaicu,405100,46.5356711,23.8821746
11,Strada Gheorghe Barițiu,405100,46.5412885,23.8872504
14,Strada Tudor Vladimirescu,405100,46.5390707,23.8917996
11,Strada Laminoriștilor,405100,46.5468600,23.8852609
46,Strada Laminoriștilor,405100,46.5512294,23.8851750
2,Strada Băii,405100,46.5451413,23.8875984
5,Strada Gării,405100,46.5469153,23.8809591
38,Strada 1 Decembrie 1918,405100,46.5397830,23.8900551
16,Strada Parcului,405100,46.5435506,23.8900742
Nr 6,Strada Republicii,405100,46.5353693,23.8881299
65,Strada Aurel Vlaicu,405100,46.5341490,23.8816765
67,Strada Aurel Vlaicu,405100,46.5340093,23.8817348
116,Strada Aurel Vlaicu,405100,46.5362426,23.8816272
118,Strada Aurel Vlaicu,405100,46.5361513,23.8815679
120,Strada Aurel Vlaicu,405100,46.5360321,23.8815836
124,Strada Aurel Vlaicu,405100,46.5359126,23.8815210
128,Strada Aurel Vlaicu,405100,46.5357802,23.8814857
1,Strada Nicolae Bălcescu,405100,46.5444592,23.8833095
7,Strada Gheorghe Șincai,405100,46.5493665,23.8843893
5,Strada Gheorghe Șincai,405100,46.5493023,23.8846355
4,Strada Gheorghe Șincai,405100,46.5495679,23.8846003
2,Strada Gheorghe Șincai,405100,46.5495128,23.8848405
3,Strada Gheorghe Șincai,405100,46.5492309,23.8848017
11,Strada Băii,405100,46.5468495,23.8885479
2,Strada Petru Maior,405100,46.5450347,23.8784534
1,Strada Gării,405100,46.5468566,23.8815114
11,Strada Gării,405100,46.5467965,23.8799392
32,Strada Aurel Vlaicu,405100,46.5422226,23.8831584
16,Strada Aurel Vlaicu,405100,46.5437350,23.8843476
14,Strada Aurel Vlaicu,405100,46.5439877,23.8842693
36,Strada Aurel Vlaicu,405100,46.5415249,23.8829934
34,Strada Aurel Vlaicu,405100,46.5417498,23.8831189
20,Strada Alexandru Ioan Cuza,405100,46.5415379,23.8858762
1,Strada Parcului,405200,46.5441112,23.8886118
3,Strada Parcului,405200,46.5444589,23.8883087
5,Strada Vasile Lucaciu,405100,46.5423447,23.8862530
7,Strada Vasile Lucaciu,405100,46.5422870,23.8860485
3,Strada Vasile Lucaciu,405100,46.5423363,23.8864278
11,Strada Alexandru Ioan Cuza,405100,46.5415478,23.8870278
9,Strada Gheorghe Barițiu,405100,46.5414225,23.8873027
3,Strada Mica,405100,46.5412523,23.8853451
5,Strada Tudor Vladimirescu,405200,46.5404492,23.8908743
1,Strada Tudor Vladimirescu,405200,46.5407101,23.8906667
27,Strada 1 Mai,405200,46.5411610,23.8920427
29,Strada 1 Mai,405200,46.5408878,23.8921590
31,Strada 1 Mai,405200,46.5407692,23.8923444
26,Strada 1 Mai,405200,46.5406021,23.8919275
24,Strada 1 Mai,405200,46.5406785,23.8918126
4,Strada Gării,405100,46.5471823,23.8814999
6,Strada Gării,405100,46.5471777,23.8812642
2,Strada Gării,405100,46.5471776,23.8817471
238,Strada Laminoriștilor,405100,46.5583718,23.8646054
240,Strada Laminoriștilor,405100,46.5583833,23.8644501
268,Strada Laminoriștilor,405100,46.5599718,23.8606544
1,Strada Mica,405100,46.5414276,23.8855882
18,Strada Alexandru Ioan Cuza,405100,46.5416615,23.8855417
1A,Strada Alexandru Ioan Cuza,405100,46.5420326,23.8846358
33,Strada Aurel Vlaicu,405100,46.5421767,23.8836658
2,Strada Alexandru Ioan Cuza,405100,46.5417982,23.8839659
6,Strada Alexandru Ioan Cuza,405100,46.5418071,23.8843293
4,Strada Alexandru Ioan Cuza,405100,46.5417950,23.8841330
20,Strada Aurel Vlaicu,405100,46.5436334,23.8841922
22,Strada Aurel Vlaicu,405100,46.5435665,23.8841076
24,Strada Aurel Vlaicu,405100,46.5434120,23.8840898
26,Strada Aurel Vlaicu,405100,46.5433347,23.8839689
28,Strada Aurel Vlaicu,405100,46.5432627,23.8838518
5,Strada George Coșbuc,405100,46.5499080,23.8869027
24,Strada Laminoriștilor,405100,46.5492328,23.8863960
26,Strada Laminoriștilor,405100,46.5493310,23.8863952
28,Strada Laminoriștilor,405100,46.5494537,23.8864104
87,Strada Laminoriștilor,405100,46.5522559,23.8823398
85A,Strada Laminoriștilor,405100,46.5520635,23.8826857
85,Strada Laminoriștilor,405100,46.5521354,23.8825007
99,Strada Laminoriștilor,405100,46.5526064,23.8813552
103,Strada Laminoriștilor,405100,46.5527597,23.8809601
96,Strada Laminoriștilor,405100,46.5541377,23.8790217
94,Strada Laminoriștilor,405100,46.5540409,23.8792700
89,Strada Laminoriștilor,405100,46.5522785,23.8821156
91,Strada Laminoriștilor,405100,46.5523454,23.8820008
93,Strada Laminoriștilor,405100,46.5523979,23.8818721
97,Strada Laminoriștilor,405100,46.5525567,23.8815186
105,Strada Laminoriștilor,405100,46.5529281,23.8806802
113,Strada Laminoriștilor,405100,46.5537675,23.8789665
98,Strada Laminoriștilor,405100,46.5542791,23.8789043
100,Strada Laminoriștilor,405100,46.5543203,23.8786625
102,Strada Laminoriștilor,405100,46.5544613,23.8785355
104,Strada Laminoriștilor,405100,46.5545135,23.8782068
226,Strada Laminoriștilor,405100,46.5582335,23.8658963
236,Strada Laminoriștilor,405100,46.5583733,23.8648655
202,Strada Laminoriștilor,405100,46.5580789,23.8685654
2,Strada Salcâmului,405100,46.5549621,23.8788183
2,Strada Gheorghe Doja,405100,46.5480991,23.8892556
1,Strada Gheorghe Doja,405100,46.5484110,23.8890140
4,Strada Gheorghe Doja,405100,46.5482233,23.8893990
10,Strada Gheorghe Doja,405100,46.5485791,23.8896999
8,Strada Gheorghe Doja,405100,46.5484567,23.8895423
6,Strada Gheorghe Doja,405100,46.5483568,23.8894733
3,Strada Petru Rareș,405100,46.5489005,23.8891342
12,Strada Gheorghe Doja,405100,46.5487071,23.8896954
14,Strada Gheorghe Doja,405100,46.5488288,23.8897731
2,Strada George Coșbuc,405100,46.5496192,23.8866814
47,Strada Laminoriștilor,405100,46.5503496,23.8856864
34,Strada Laminoriștilor,405100,46.5503955,23.8861894
45,Strada Laminoriștilor,405100,46.5501374,23.8858025
55,Strada Laminoriștilor,405100,46.5507922,23.8851064
60,Strada Laminoriștilor,405100,46.5519324,23.8841566
56,Strada Laminoriștilor,405100,46.5517280,23.8845292
54,Strada Laminoriștilor,405100,46.5515773,23.8846743
66,Strada Laminoriștilor,405100,46.5521726,23.8836074
64,Strada Laminoriștilor,405100,46.5521083,23.8837389
79,Strada Laminoriștilor,405100,46.5519080,23.8832268
77,Strada Laminoriștilor,405100,46.5519060,23.8833743
73,Strada Laminoriștilor,405100,46.5517223,23.8837276
71,Strada Laminoriștilor,405100,46.5516106,23.8839437
101,Strada Laminoriștilor,405100,46.5527299,23.8811703
108,Strada Laminoriștilor,405100,46.5547120,23.8777416
106,Strada Laminoriștilor,405100,46.5546766,23.8779160
66,Strada Traian,405100,46.5482774,23.8727616
66A,Strada Traian,405100,46.5481942,23.8728632
14,Strada Traian,405100,46.5457060,23.8777183
27,Strada Traian,405100,46.5468035,23.8749824
27A,Strada Traian,405100,46.5468692,23.8748244
12,Strada Traian,405100,46.5456521,23.8778339
2,Strada Traian,405100,46.5452720,23.8787104
4,Strada Traian,405100,46.5453136,23.8785406
38,Strada Traian,405100,46.5466533,23.8758679
22,Strada Liviu Rebreanu,405100,46.5425733,23.8868149
8,Strada 1 Mai,405200,46.5416588,23.8904679
10,Strada 1 Mai,405200,46.5415007,23.8906510
25,Strada 1 Mai,405200,46.5411869,23.8917731
30,Strada 1 Mai,405200,46.5404433,23.8921699
28,Strada 1 Mai,405200,46.5405267,23.8920471
39J,Strada Teilor,405100,46.5410756,23.8955563
37B,Strada Teilor,405100,46.5405265,23.8953693
31,Strada Teilor,405200,46.5406909,23.8939379
10,Strada Teilor,405200,46.5417352,23.8917373
3,Strada Tudor Vladimirescu,405200,46.5405998,23.8908049
2,Strada Șoferilor,405200,46.5404431,23.8914410
4,Strada Șoferilor,405200,46.5406148,23.8916433
22,Strada Teilor,405200,46.5408751,23.8931150
27,Strada Teilor,405200,46.5410449,23.8935075
29,Strada Teilor,405200,46.5409839,23.8936066
24,Strada Teilor,405200,46.5407393,23.8932715
26,Strada Teilor,405200,46.5406134,23.8934449
30,Strada Teilor,405100,46.5403528,23.8938688
28,Strada Teilor,405200,46.5404729,23.8936637
3,Strada George Coșbuc,405100,46.5498983,23.8865783
1,Strada George Coșbuc,405100,46.5499123,23.8864501
7,Strada Gheorghe Doja,405100,46.5487583,23.8891275
7A,Strada Gheorghe Doja,405100,46.5486145,23.8891257
6,Strada Avram Iancu,405100,46.5492389,23.8856155
16,Strada Nicolae Bălcescu,405100,46.5453902,23.8814369
47,Strada Traian,405100,46.5479936,23.8725644
35,Strada Traian,405100,46.5472357,23.8740521
10,Strada Teodorului,405100,46.5418109,23.8821844
12,Strada Teodorului,405100,46.5417236,23.8820869
4,Strada Teodorului,405100,46.5422827,23.8823345
7,Strada Teodorului,405100,46.5420574,23.8826604
10,Strada Alexandru Ioan Cuza,405100,46.5417384,23.8845896
3,Strada Alexandru Ioan Cuza,405100,46.5419772,23.8851221
12,Strada Alexandru Ioan Cuza,405100,46.5417327,23.8847415
14,Strada Alexandru Ioan Cuza,405100,46.5417147,23.8850582
28,Strada Alexandru Ioan Cuza,405100,46.5414368,23.8864763
26,Strada Alexandru Ioan Cuza,405100,46.5415073,23.8863392
24,Strada Alexandru Ioan Cuza,405100,46.5415146,23.8861791
29,Strada Decebal,405100,46.5420303,23.8859143
27,Strada Decebal,405100,46.5421606,23.8858854
9a,Strada Alexandru Ioan Cuza,405100,46.5416755,23.8867477
7a,Strada Alexandru Ioan Cuza,405100,46.5417901,23.8864009
30,Strada Liviu Rebreanu,405100,46.5419832,23.8872154
17,Strada Liviu Rebreanu,405100,46.5423084,23.8873724
28,Strada Liviu Rebreanu,405100,46.5420611,23.8870348
24,Strada Liviu Rebreanu,405100,46.5424109,23.8868317
9,Strada Gheorghe Șincai,405100,46.5494552,23.8841926
11,Strada Gheorghe Șincai,405100,46.5496537,23.8840342
6,Strada Gheorghe Șincai,405100,46.5496251,23.8843992
4,Strada George Coșbuc,405100,46.5495454,23.8869958
30,Strada Laminoriștilor,405100,46.5496525,23.8863851
65,Strada Laminoriștilor,405100,46.5513113,23.8843461
63,Strada Laminoriștilor,405100,46.5511678,23.8844588
59,Strada Laminoriștilor,405100,46.5509466,23.8846054
32,Strada Laminoriștilor,405100,46.5500795,23.8862760
36,Strada Laminoriștilor,405100,46.5506044,23.8860628
38,Strada Laminoriștilor,405100,46.5507876,23.8860199
42,Strada Laminoriștilor,405100,46.5509777,23.8856348
40,Strada Laminoriștilor,405100,46.5508670,23.8857567
57,Strada Laminoriștilor,405100,46.5509425,23.8848748
53,Strada Laminoriștilor,405100,46.5506838,23.8853435
51,Strada Laminoriștilor,405100,46.5505563,23.8854535
50,Strada Laminoriștilor,405100,46.5513608,23.8850311
52,Strada Laminoriștilor,405100,46.5515109,23.8849663
62,Strada Laminoriștilor,405100,46.5521371,23.8841561
58,Strada Laminoriștilor,405100,46.5518211,23.8843614
69,Strada Laminoriștilor,405100,46.5514863,23.8841013
67,Strada Laminoriștilor,405100,46.5513995,23.8842128
83A,Strada Laminoriștilor,405100,46.5519652,23.8828872
75,Strada Laminoriștilor,405100,46.5518208,23.8835173
81,Strada Laminoriștilor,405100,46.5519360,23.8830466
72,Strada Laminoriștilor,405100,46.5523689,23.8831727
78,Strada Laminoriștilor,405100,46.5525449,23.8826045
76,Strada Laminoriștilor,405100,46.5524357,23.8827773
82,Strada Laminoriștilor,405100,46.5525795,23.8823861
86,Strada Laminoriștilor,405100,46.5526996,23.8820506
68,Strada Laminoriștilor,405100,46.5521828,23.8834258
88,Strada Laminoriștilor,405100,46.5527777,23.8818488
9,Strada Aurel Vlaicu,405100,46.5437111,23.8849347
21,Strada Aurel Vlaicu,405100,46.5430745,23.8842289
23,Strada Aurel Vlaicu,405100,46.5430351,23.8840505
27,Strada Aurel Vlaicu,405100,46.5426203,23.8838683
12,Strada Decebal,405100,46.5425618,23.8846365
10,Strada Decebal,405100,46.5425812,23.8845042
19,Strada Decebal,405100,46.5425478,23.8852424
13,Strada Decebal,405100,46.5427792,23.8846873
18,Strada Decebal,405100,46.5422718,23.8850939
25,Strada Decebal,405100,46.5422654,23.8858129
22,Strada Decebal,405100,46.5422259,23.8854917
20,Strada Decebal,405100,46.5422579,23.8853175
16,Strada Alexandru Ioan Cuza,405100,46.5417200,23.8852445
35,Strada Aurel Vlaicu,405100,46.5419548,23.8835909
31,Strada Aurel Vlaicu,405100,46.5422966,23.8836841
29,Strada Aurel Vlaicu,405100,46.5424907,23.8837536
25,Strada Aurel Vlaicu,405100,46.5428041,23.8838722
6,Strada Decebal,405100,46.5426790,23.8841159
9,Strada Decebal,405100,46.5429498,23.8842069
8,Strada Decebal,405100,46.5426309,23.8843352
10,Strada Parcului,405100,46.5448221,23.8888111
1,Strada Șoferilor,405200,46.5408497,23.8915831
18,Strada 1 Mai,405200,46.5410912,23.8912089
16,Strada 1 Mai,405200,46.5411529,23.8910675
12,Strada 1 Mai,405200,46.5414189,23.8907999
14,Strada 1 Mai,405200,46.5412207,23.8910265
8,Strada Parcului,405200,46.5426841,23.8904384
1,Strada Teilor,405200,46.5426090,23.8911519
6,Strada Teilor,405200,46.5423557,23.8909789
8,Strada Teilor,405200,46.5420989,23.8911911
13,Strada 1 Mai,405200,46.5420290,23.8905551
23,Strada 1 Mai,405200,46.5415901,23.8912123
21,Strada 1 Mai,405200,46.5416814,23.8910908
19,Strada 1 Mai,405200,46.5417318,23.8909855
11,Strada 1 Mai,405200,46.5422744,23.8902746
5,Strada 1 Mai,405200,46.5421938,23.8903596
7,Strada 1 Mai,405200,46.5421405,23.8903987
9,Strada 1 Mai,405200,46.5420708,23.8904858
16,Strada 1 Decembrie 1918,405200,46.5419789,23.8887303
13,Strada Liviu Rebreanu,405100,46.5426922,23.8870950
1a,Aleea Castanilor,405100,46.5428102,23.8834800
17,Strada Aurel Vlaicu,405100,46.5433116,23.8845265
15,Strada Aurel Vlaicu,405100,46.5434350,23.8845428
2,Strada Liviu Rebreanu,405100,46.5440113,23.8857543
12,Strada Băii,405100,46.5474294,23.8884031
19,Strada Andrei Mureșanu,405100,46.5470038,23.8834045
9,Strada Teilor,405200,46.5418583,23.8922611
12,Strada Teilor,405200,46.5415528,23.8921674
11,Strada Teilor,405200,46.5418182,23.8923935
13,Strada Teilor,405200,46.5417495,23.8924800
17,Strada Teilor,405200,46.5415281,23.8928131
4,Strada 1 Mai,405200,46.5419391,23.8900412
18,Strada 1 Decembrie 1918,405200,46.5417628,23.8889357
45,Strada Teilor,405100,46.5399230,23.8956321
39,Strada 1 Mai,405200,46.5403039,23.8930438
41,Strada 1 Mai,405200,46.5400733,23.8934076
51,Strada 1 Mai,405200,46.5394462,23.8943392
49A,Strada 1 Mai,405200,46.5394987,23.8942352
49,Strada 1 Mai,405200,46.5395630,23.8941565
29,Strada Tudor Vladimirescu,405100,46.5392336,23.8927630
27,Strada Tudor Vladimirescu,405100,46.5393589,23.8927198
25,Strada Tudor Vladimirescu,405100,46.5393933,23.8924437
23,Strada Tudor Vladimirescu,405100,46.5395516,23.8923563
17,Strada Tudor Vladimirescu,405100,46.5398746,23.8916745
32,Strada 1 Decembrie 1918,405200,46.5402064,23.8901069
34,Strada 1 Decembrie 1918,405200,46.5400647,23.8900537
15,Strada Tudor Vladimirescu,405100,46.5400194,23.8915340
6,Strada Tudor Vladimirescu,405100,46.5396075,23.8913627
4,Strada Tudor Vladimirescu,405100,46.5397479,23.8911353
2,Strada Tudor Vladimirescu,405100,46.5398633,23.8908976
8,Strada Tudor Vladimirescu,405100,46.5394185,23.8915724
6A,Strada Tudor Vladimirescu,405100,46.5395113,23.8914627
20A,Strada Tudor Vladimirescu,405100,46.5389018,23.8924786
18,Strada Tudor Vladimirescu,405100,46.5389935,23.8923291
16,Strada Tudor Vladimirescu,405100,46.5391146,23.8921538
13,Strada Tudor Vladimirescu,405100,46.5401085,23.8913973
50,Strada 1 Mai,405200,46.5394172,23.8936107
48,Strada 1 Mai,405200,46.5395225,23.8934849
46,Strada 1 Mai,405200,46.5396370,23.8933025
42,Strada 1 Mai,405200,46.5398222,23.8930307
36,Strada 1 Mai,405200,46.5401122,23.8926333
38,Strada 1 Mai,405200,46.5400462,23.8927440
40,Strada 1 Mai,405200,46.5398683,23.8927277
32,Strada 1 Mai,405200,46.5403377,23.8923161
37,Strada 1 Mai,405200,46.5403922,23.8929149
39A,Strada 1 Mai,405200,46.5401473,23.8932052
33,Strada 1 Mai,405200,46.5406433,23.8925090
19,Strada Teilor,405200,46.5414645,23.8928935
21,Strada Teilor,405200,46.5414307,23.8930363
23A,Strada Teilor,405200,46.5412970,23.8931376
39G,Strada Teilor,405100,46.5408068,23.8962340
39H,Strada Teilor,405100,46.5409545,23.8961411
39F,Strada Teilor,405100,46.5406565,23.8962249
39,Strada Teilor,405200,46.5399708,23.8950240
41,Strada Teilor,405200,46.5397612,23.8952771
8,Strada Școlii,405200,46.5395252,23.8959159
6,Strada Școlii,405200,46.5393949,23.8955617
4,Strada Școlii,405100,46.5391435,23.8952582
42,Strada Teilor,405100,46.5396100,23.8949672
40,Strada Teilor,405100,46.5396341,23.8946585
34,Strada Teilor,405200,46.5400466,23.8942695
32,Strada Teilor,405100,46.5402353,23.8940169
39D,Strada Teilor,405100,46.5403391,23.8956480
39E,Strada Teilor,405100,46.5404474,23.8957976
39I,Strada Teilor,405100,46.5411002,23.8959426
4,Strada Parcului,405200,46.5421893,23.8896827
3,Strada 1 Mai,405200,46.5423209,23.8901525
1,Strada 1 Mai,405200,46.5424137,23.8899999
6,Strada Parcului,405200,46.5425207,23.8901783
14,Strada Teilor,405200,46.5414129,23.8923066
7,Strada Teilor,405200,46.5420286,23.8923186
5,Strada Teilor,405200,46.5421206,23.8920263
15,Strada Teilor,405200,46.5416460,23.8926565
3,Strada Gheorghe Doja,405100,46.5484895,23.8891213
5,Strada Gheorghe Doja,405100,46.5485573,23.8890932
3A,Strada Parcului,405200,46.5435074,23.8893987
35,Strada George Coșbuc,405100,46.5498009,23.8900728
37,Strada George Coșbuc,405100,46.5497436,23.8902773
20,Strada Gheorghe Doja,405100,46.5492387,23.8900858
16,Strada Gheorghe Doja,405100,46.5489027,23.8899400
9,Strada Gheorghe Doja,405100,46.5491009,23.8894779
8,Strada Aurel Vlaicu,405100,46.5441784,23.8847152
10,Strada Aurel Vlaicu,405100,46.5439730,23.8846493
12,Strada Aurel Vlaicu,405100,46.5439024,23.8845674
2,Strada Aurel Vlaicu,405100,46.5442609,23.8853034
4,Strada Aurel Vlaicu,405100,46.5442519,23.8851542
40A,Strada Gheorghe Barițiu,405100,46.5348922,23.8843884
107,Strada Laminoriștilor,405100,46.5528795,23.8804540
9,Strada Alexandru Ioan Cuza,405100,46.5417347,23.8865277
17,Strada 1 Decembrie 1918,405100,46.5427592,23.8893829
10,Strada Teilor,405100,46.5415527,23.8916768
15,Strada 1 Decembrie 1918,405100,46.5429821,23.8884108
8,Strada Nouă,405100,46.5460294,23.8832801
7,Strada Alexandru Ioan Cuza,405100,46.5418710,23.8863096
31,Strada Decebal,405100,46.5419127,23.8860808
26,Strada Decebal,405100,46.5418819,23.8856224
30,Strada Alexandru Ioan Cuza,405100,46.5414654,23.8865926
32,Strada Alexandru Ioan Cuza,405100,46.5413382,23.8866400
34,Strada Alexandru Ioan Cuza,405100,46.5414117,23.8867771
22,Strada Alexandru Ioan Cuza,405100,46.5415677,23.8860747
8,Strada Alexandru Ioan Cuza,405100,46.5417533,23.8845066
5,Strada Alexandru Ioan Cuza,405100,46.5419157,23.8853548
23,Strada Decebal,405100,46.5425273,23.8856351
21,Strada Decebal,405100,46.5425404,23.8854252
9,Piața Mihai Viteazu,405100,46.5440536,23.8862321
8,Strada 1 Decembrie 1918,405100,46.5432499,23.8873394
14,Strada Decebal,405100,46.5423741,23.8847827
16,Strada Decebal,405100,46.5423634,23.8849511
224,Strada Laminoriștilor,405100,46.5582183,23.8660682
26,Strada Liviu Rebreanu,405100,46.5421422,23.8870458
11,Strada Liviu Rebreanu,405100,46.5429563,23.8869799
1,Strada Liviu Rebreanu,405100,46.5438025,23.8862723
3,Strada Liviu Rebreanu,405100,46.5437206,23.8863152
5,Strada Liviu Rebreanu,405100,46.5436427,23.8864295
7,Strada Liviu Rebreanu,405100,46.5433584,23.8865995
9a,Strada Liviu Rebreanu,405100,46.5432635,23.8866979
9,Strada Liviu Rebreanu,405100,46.5431979,23.8867368
1,Strada Aurel Vlaicu,405100,46.5441666,23.8856390
4,Strada Liviu Rebreanu,405100,46.5438181,23.8859194
6,Strada Liviu Rebreanu,405100,46.5436619,23.8860202
8,Strada Liviu Rebreanu,405100,46.5435810,23.8860698
10,Strada Liviu Rebreanu,405100,46.5433868,23.8861529
12,Strada Liviu Rebreanu,405100,46.5433015,23.8862689
14,Strada Liviu Rebreanu,405100,46.5431222,23.8864204
16,Strada Liviu Rebreanu,405100,46.5429959,23.8865071
18,Strada Liviu Rebreanu,405100,46.5429082,23.8865550
12a,Strada Liviu Rebreanu,405100,46.5431273,23.8858641
2,Strada Vasile Lucaciu,405100,46.5428613,23.8861096
4,Strada Vasile Lucaciu,405100,46.5426152,23.8859930
6,Strada Vasile Lucaciu,405100,46.5425856,23.8858963
6A,Strada Vasile Lucaciu,405100,46.5424598,23.8857735
17,Strada Decebal,405100,46.5426352,23.8850977
15,Strada Decebal,405100,46.5426626,23.8849441
15,Strada Liviu Rebreanu,405100,46.5424328,23.8872990
1,Strada Vasile Lucaciu,405100,46.5425355,23.8866938
6,Strada Aurel Vlaicu,405100,46.5441694,23.8850240
18,Strada Aurel Vlaicu,405100,46.5436349,23.8843469
30,Strada Aurel Vlaicu,405100,46.5431511,23.8837505
4,Strada Decebal,405100,46.5429038,23.8835395
9a,Strada Teodorului,405100,46.5418152,23.8828240
5,Strada Teodorului,405100,46.5421391,23.8826883
3,Strada Teodorului,405100,46.5422873,23.8827415
1,Strada Teodorului,405100,46.5423672,23.8828125
2,Strada Teodorului,405100,46.5423643,23.8824014
6,Strada Teodorului,405100,46.5420548,23.8822688
8,Strada Teodorului,405100,46.5419754,23.8822405
37,Strada Aurel Vlaicu,405100,46.5417341,23.8836727
21,Strada Tudor Vladimirescu,405100,46.5397003,23.8919621
19,Strada Tudor Vladimirescu,405100,46.5397961,23.8918704
34,Strada 1 Mai,405200,46.5401772,23.8923647
39A,Strada Teilor,405100,46.5400602,23.8951756
39B,Strada Teilor,405100,46.5401648,23.8953191
37A,Strada Teilor,405100,46.5403393,23.8950150
37,Strada Teilor,405100,46.5401701,23.8947582
36,Strada Teilor,405100,46.5399115,23.8944356
38,Strada Teilor,405200,46.5398519,23.8946224
47,Strada 1 Mai,405200,46.5396681,23.8939474
45,Strada 1 Mai,405200,46.5397763,23.8938048
41A,Strada 1 Mai,405200,46.5399619,23.8934899
43,Strada 1 Mai,405200,46.5399287,23.8935934
3,Strada Nicolae Bălcescu,405100,46.5445489,23.8831525
7,Strada Nicolae Bălcescu,405100,46.5446671,23.8829725
6,Strada Școlii,405200,46.5396923,23.8962547
45,Strada Teilor,405100,46.5397998,23.8954876
45,Strada Teilor,405100,46.5399397,23.8959734
29,Strada Tudor Vladimirescu,405100,46.5391958,23.8928546
37,Strada Teilor,405100,46.5404106,23.8946864
14,Strada 1 Mai,405200,46.5412596,23.8909179
1,Strada Teilor,405200,46.5425220,23.8913261
13,Strada 1 Mai,405200,46.5418949,23.8907946
3,Strada Alexandru Ioan Cuza,405100,46.5421176,23.8849744
96,Strada Laminoriștilor,405100,46.5541998,23.8788052
65,Strada Aurel Vlaicu,405100,46.5343009,23.8816548
33,Strada Avram Iancu,405100,46.5470876,23.8826826
8,Piața Mihai Viteazu,405100,46.5442954,23.8868025
