House number,Street name,Postal code,Latitude,Longitude
7,Aleea Durgăului,401106,46.5877045,23.7873270
2,Strada Teilor,401015,46.5576595,23.7994861
38B,Strada 22 Decembrie 1989,401113,46.5489321,23.7835637
1,Piața 1 Decembrie 1918,401094,46.5703407,23.7851750
50,Strada 22 Decembrie 1989,405100,46.5481660,23.7823265
38,Strada 22 Decembrie 1989,401113,46.5487433,23.7832972
34,Strada 22 Decembrie 1989,401113,46.5493596,23.7839083
38A,Strada 22 Decembrie 1989,401113,46.5489792,23.7836383
38C,Strada 22 Decembrie 1989,401113,46.5487067,23.7832312
36,Strada 22 Decembrie 1989,401113,46.5492609,23.7839024
32,Strada 22 Decembrie 1989,401113,46.5494937,23.7839114
54,Strada 22 Decembrie 1989,401113,46.5481469,23.7819263
28,Strada 22 Decembrie 1989,401113,46.5496949,23.7839486
30,Strada 22 Decembrie 1989,401113,46.5495679,23.7839248
26,Strada 22 Decembrie 1989,401113,46.5497802,23.7839495
64,Strada 22 Decembrie 1989,401113,46.5472778,23.7798944
17,Piața Republicii,401095,46.5713473,23.7856236
7,Strada 22 Decembrie 1989,401113,46.5595574,23.7852481
18,Piața Republicii,401095,46.5712965,23.7856281
1,Piața Republicii,401157,46.5748126,23.7842732
6,Strada Fabricii,401135,46.5579869,23.7975695
4,Strada Fabricii,401135,46.5579946,23.7977276
7,Strada Fabricii,401135,46.5576980,23.7982115
52,Strada Fabricii,401135,46.5574880,23.7901161
21,Strada Primăverii,401016,46.5557442,23.7982466
57,Strada Fabricii,401135,46.5574333,23.7932337
12B,Strada Teilor,401015,46.5560654,23.7989393
54,Strada Fabricii,401135,46.5575047,23.7900464
61,Strada Fabricii,401135,46.5575764,23.7928622
10,Strada Univers,401033,46.5608026,23.8167725
14,Strada Viorelelor,401015,46.5571086,23.7978801
4,Strada Teilor,401015,46.5574046,23.7994033
6,Strada Teilor,401015,46.5572355,23.7992103
34,Calea Victoriei,401013,46.5573397,23.7996932
7,Strada Teilor,401015,46.5562391,23.7993169
4A,Strada Teilor,401015,46.5573196,23.7993726
2A,Strada Teilor,401015,46.5575838,23.7994645
34,Calea Victoriei,401013,46.5575249,23.7998608
12,Strada Viorelelor,401015,46.5570928,23.7979899
3,Strada Teilor,401015,46.5566832,23.7994477
5A,Strada Teilor,401015,46.5563068,23.7993284
16,Strada Izvor,401014,46.5554019,23.8005690
1B,Strada Viorelelor,401015,46.5565197,23.8000270
2A,Strada Viorelelor,401015,46.5566629,23.8006894
1C,Strada Viorelelor,401015,46.5565358,23.7999293
13,Strada Primăverii,401016,46.5553720,23.7989485
2,Strada Viorelelor,401015,46.5566415,23.8008021
2B,Strada Primăverii,401016,46.5552471,23.7997728
14,Strada Izvor,401014,46.5554412,23.8005735
19A,Strada Gheorghe Lazăr,401077,46.5710895,23.7884179
1,Strada Ion Corvin,401178,46.5794629,23.7663542
5,Strada Ion Corvin,401178,46.5790640,23.7656422
6,Strada Racului,401178,46.5799563,23.7655656
3,Strada Ogorului,401178,46.5812825,23.7634623
3A,Strada Ogorului,401178,46.5811813,23.7633472
13,Strada Lianelor,401047,46.5570970,23.8145905
1,Piața 1 Decembrie 1918,401094,46.5703791,23.7849183
33,Strada Gheorghe Șincai,401078,46.5730023,23.7900932
44B,Strada Aurel Vlaicu,401187,46.5677582,23.7881797
44A,Strada Aurel Vlaicu,401187,46.5677982,23.7881720
10,Strada Aurel Vlaicu,401187,46.5690240,23.7870703
40,Strada Aurel Vlaicu,401187,46.5680118,23.7883029
14,Strada Fântânele,401187,46.5686526,23.7875813
26A,Piața 1 Decembrie 1918,401184,46.5679364,23.7873028
26B,Piața 1 Decembrie 1918,401184,46.5679368,23.7873754
42,Strada Aurel Vlaicu,401187,46.5679380,23.7883046
33,Strada Aurel Vlaicu,401187,46.5683458,23.7887514
42A,Strada Aurel Vlaicu,401187,46.5678873,23.7882204
34A,Strada Doctor Ioan Rațiu,401150,46.5693213,23.7822752
38,Strada Doctor Ioan Rațiu,401150,46.5698295,23.7822480
34B,Strada Doctor Ioan Rațiu,401150,46.5693826,23.7822846
52,Strada Gheorghe Șincai,401078,46.5721055,23.7899836
45,Strada Gheorghe Șincai,401078,46.5718493,23.7902366
37,Strada Gheorghe Șincai,401078,46.5726271,23.7903081
56,Strada Gheorghe Șincai,401078,46.5717752,23.7899654
13,Strada Avram Iancu,401096,46.5762651,23.7839196
57A,Strada Gheorghe Șincai,401078,46.5708464,23.7897425
72B,Strada Gheorghe Șincai,401078,46.5702430,23.7896407
57B,Strada Gheorghe Șincai,401078,46.5709178,23.7897569
38,Strada Avram Iancu,401096,46.5775957,23.7831161
37A,Strada Avram Iancu,401096,46.5772746,23.7828376
35,Strada Avram Iancu,401096,46.5773217,23.7828033
31B,Strada Doctor Ioan Rațiu,401150,46.5686625,23.7807427
72,Strada Câmpiei,401071,46.5603456,23.8318285
74,Strada Avram Iancu,401096,46.5796841,23.7797040
46,Calea Victoriei,401013,46.5571667,23.8014159
44,Calea Victoriei,401013,46.5571862,23.8012894
18,Strada Tineretului,401040,46.5542489,23.8083792
40,Strada Tineretului,401040,46.5522316,23.8085648
31,Strada Gheorghe Șincai,401078,46.5732462,23.7900768
74,Strada Doctor Ioan Rațiu,401150,46.5732127,23.7817881
74A,Strada Doctor Ioan Rațiu,401150,46.5732726,23.7817614
82,Strada Doctor Ioan Rațiu,401150,46.5736988,23.7814828
61,Strada Doctor Ioan Rațiu,401150,46.5717621,23.7819613
12,Strada Fântânele,401187,46.5686735,23.7877218
10,Strada Fântânele,401187,46.5686149,23.7877185
9,Strada Aurel Vlaicu,401187,46.5693654,23.7878834
28,Piața Republicii,401167,46.5716362,23.7860897
21,Strada Gheorghe Șincai,401078,46.5740866,23.7899541
19,Strada Gheorghe Șincai,401078,46.5741705,23.7899280
17,Strada Gheorghe Șincai,401078,46.5742830,23.7898951
35,Strada Gheorghe Șincai,401078,46.5727554,23.7902492
39,Strada Gheorghe Șincai,401078,46.5725314,23.7903806
58,Strada Gheorghe Șincai,401078,46.5716445,23.7897516
54,Strada Gheorghe Șincai,401078,46.5718870,23.7899642
63,Strada Gheorghe Șincai,401078,46.5703781,23.7897802
72A,Strada Gheorghe Șincai,401078,46.5703235,23.7896419
72,Strada Gheorghe Șincai,401078,46.5703951,23.7896118
15,Strada Salinelor,401096,46.5803330,23.7800248
10,Strada Univers,401033,46.5606370,23.8163249
12,Strada Gheorghe Șincai,401078,46.5745691,23.7892948
25,Strada Fabricii,401135,46.5575269,23.7967890
14,Strada Fabricii,401135,46.5579132,23.7970304
18,Strada Fabricii,401135,46.5578708,23.7966925
16,Strada Fabricii,401135,46.5578717,23.7968239
48,Strada Fabricii,401135,46.5579114,23.7942879
46,Strada Fabricii,401135,46.5579160,23.7943670
1,Piața 1 Decembrie 1918,401094,46.5703722,23.7851027
1,Strada Lianelor,407405,46.5583362,23.8147731
4,Strada Tineretului,401040,46.5560052,23.8082887
32A,Strada Mărului,401082,46.5760050,23.7941693
5,Piața Republicii,401157,46.5739985,23.7844362
1,Strada Dacia,401149,46.5736463,23.7832411
52,Piața Republicii,401095,46.5751643,23.7855889
20,Strada Ștefan cel Mare,401132,46.5625883,23.7860824
2,Strada Bogdan Petriceicu Hașdeu,401154,46.5720300,23.7844945
28,Piața 1 Decembrie 1918,401184,46.5685980,23.7864304
31,Strada Doctor Ioan Rațiu,401150,46.5686558,23.7806081
37,Strada Doctor Ioan Rațiu,401150,46.5694584,23.7808597
6,Strada General Dragalina,401086,46.5673705,23.7802564
48,Strada General Dragalina,401086,46.5694501,23.7802761
32,Strada Doctor Ioan Rațiu,401150,46.5692062,23.7825097
12,Strada General Dragalina,401086,46.5689272,23.7802412
31A,Strada Doctor Ioan Rațiu,401150,46.5689476,23.7808704
29,Piața 1 Decembrie 1918,401184,46.5691343,23.7860648
8,Strada General Dragalina,401086,46.5680560,23.7801635
29,Strada 22 Decembrie 1989,401113,46.5542632,23.7860052
14,Piața Republicii,401095,46.5724497,23.7852564
13,Piața Republicii,401095,46.5724829,23.7849851
29A,Strada 22 Decembrie 1989,401113,46.5528417,23.7866119
41A,Strada Doctor Ioan Rațiu,401150,46.5697575,23.7807281
43A,Strada Doctor Ioan Rațiu,401150,46.5699908,23.7808652
53,Strada Doctor Ioan Rațiu,401150,46.5710656,23.7818157
58,Strada 22 Decembrie 1989,401113,46.5477675,23.7814668
56,Strada 22 Decembrie 1989,401113,46.5482150,23.7815016
4,Piața 1 Decembrie 1918,401130,46.5698917,23.7850118
22,Piața Republicii,401095,46.5707299,23.7852941
21,Piața Republicii,401095,46.5708523,23.7853256
20,Piața Republicii,401095,46.5710123,23.7854323
19,Piața Republicii,401148,46.5711605,23.7855191
16,Piața Republicii,401095,46.5715534,23.7855261
24B,Strada 22 Decembrie 1989,401113,46.5531546,23.7841037
36,Strada Ștefan cel Mare,401132,46.5615670,23.7905680
7,Strada Putna,401133,46.5607235,23.7907249
5,Strada Putna,401133,46.5608632,23.7907663
3,Strada Putna,401133,46.5610171,23.7907585
1,Strada Putna,401133,46.5612014,23.7907965
19,Strada 22 Decembrie 1989,401113,46.5562388,23.7854363
94,Calea Victoriei,401013,46.5569510,23.8021558
98,Calea Victoriei,401013,46.5568431,23.8045392
96,Calea Victoriei,401013,46.5568398,23.8033439
40,Strada Tineretului,401040,46.5521573,23.8085673
38,Strada Tineretului,401040,46.5529018,23.8083191
3,Strada Lianelor,401047,46.5579221,23.8140550
26C,Piața 1 Decembrie 1918,401184,46.5678190,23.7876238
25A,Piața 1 Decembrie 1918,401184,46.5677107,23.7873004
10,Strada Abatorului,401189,46.5670851,23.7878466
59,Strada Gheorghe Șincai,401078,46.5707118,23.7897551
62,Strada Gheorghe Șincai,401078,46.5709956,23.7894900
66,Strada Gheorghe Șincai,401078,46.5707781,23.7894226
64,Strada Gheorghe Șincai,401078,46.5708897,23.7894374
23,Piața Republicii,401095,46.5705580,23.7851747
2,Strada General Dragalina,401086,46.5667723,23.7802433
1,Strada General Dragalina,401086,46.5661817,23.7797076
15B,Piața Romană,401188,46.5651034,23.7808008
52,Strada 22 Decembrie 1989,401113,46.5482217,23.7820215
1,Intrarea Armatei,401117,46.5490104,23.7823943
46,Strada 22 Decembrie 1989,401113,46.5483913,23.7826092
48,Strada 22 Decembrie 1989,401113,46.5483320,23.7824074
27,Strada 22 Decembrie 1989,401113,46.5553092,23.7870392
3,Piața 1 Decembrie 1918,401166,46.5696615,23.7860332
52,Strada General Dragalina,401086,46.5698456,23.7802744
50,Strada General Dragalina,401086,46.5697476,23.7803176
56,Strada General Dragalina,401086,46.5700294,23.7803923
58,Strada General Dragalina,401086,46.5702500,23.7803244
19,Strada Doctor Ioan Rațiu,401150,46.5691605,23.7814991
34,Strada Doctor Ioan Rațiu,401150,46.5695099,23.7823644
36,Strada Doctor Ioan Rațiu,401150,46.5696942,23.7822922
43,Strada Doctor Ioan Rațiu,401150,46.5700152,23.7818100
45,Strada Doctor Ioan Rațiu,401150,46.5702624,23.7817611
42,Strada Doctor Ioan Rațiu,401150,46.5701149,23.7823152
54,Strada Doctor Ioan Rațiu,401150,46.5713854,23.7824060
34,Piața Republicii,401095,46.5727098,23.7862809
30,Piața Republicii,401167,46.5720400,23.7860837
31,Piața Republicii,401167,46.5721802,23.7863900
15,Piața Republicii,401095,46.5721327,23.7850860
2,Piața 1 Decembrie 1918,401094,46.5702446,23.7849570
7,Piața 1 Decembrie 1918,401130,46.5695700,23.7850143
6,Piața 1 Decembrie 1918,401130,46.5696653,23.7848901
17,Strada Ștefan cel Mare,401112,46.5638249,23.7841420
137,Strada Câmpiei,401701,46.5612141,23.8524244
21A,Strada Detunata,401014,46.5557297,23.8018649
23A,Strada Detunata,401014,46.5558029,23.8014418
19,Strada Detunata,401014,46.5556419,23.8020084
8,Strada Teilor,401015,46.5571541,23.7992368
26,Strada Primăverii,401016,46.5570077,23.7966803
19,Strada Fabricii,401135,46.5577014,23.7973896
7,Strada Fabricii,401135,46.5577098,23.7982396
5,Strada Fabricii,401135,46.5577371,23.7984770
2,Strada Șterca Șuluțiu,401076,46.5723970,23.7864002
32,Piața Republicii,401167,46.5723406,23.7860918
3,Strada Șterca Șuluțiu,401076,46.5726131,23.7870035
1,Strada Șterca Șuluțiu,401076,46.5725465,23.7864332
33,Piața Republicii,401167,46.5725425,23.7861430
8,Strada George Coșbuc,401150,46.5730490,23.7832157
6,Strada George Coșbuc,401150,46.5731824,23.7832852
14,Strada George Coșbuc,401150,46.5726959,23.7825546
9,Strada George Coșbuc,401150,46.5725302,23.7831869
7,Strada George Coșbuc,401150,46.5726526,23.7833435
12,Strada George Coșbuc,401150,46.5728708,23.7828662
3,Strada Dacia,401149,46.5738620,23.7831685
4,Strada Constructorilor,401009,46.5600361,23.8015433
1,Strada Locomotivei,401135,46.5575492,23.7896196
77,Strada Fabricii,401135,46.5572368,23.7895498
53,Strada Fabricii,401135,46.5572923,23.7935649
55,Strada Fabricii,401135,46.5574064,23.7933796
27,Strada Primăverii,401016,46.5559583,23.7977649
17,Strada Primăverii,401016,46.5555485,23.7985704
5A,Strada Primăverii,401016,46.5550145,23.7995252
7,Strada Primăverii,401016,46.5551047,23.7993678
9,Strada Primăverii,401016,46.5551863,23.7992021
24,Strada Primăverii,401016,46.5568486,23.7968396
29,Strada Primăverii,401016,46.5560805,23.7975055
25,Strada Primăverii,401016,46.5559006,23.7979367
27A,Strada Primăverii,401016,46.5560014,23.7976441
12C,Strada Teilor,401015,46.5559284,23.7988389
8,Strada Primăverii,401016,46.5559726,23.7983640
12,Strada Primăverii,401016,46.5562386,23.7979531
10,Strada Primăverii,401016,46.5560959,23.7980999
14,Strada Primăverii,401016,46.5562966,23.7977492
16,Strada Primăverii,401016,46.5564172,23.7975833
18,Strada Primăverii,401016,46.5565064,23.7974497
20,Strada Primăverii,401016,46.5565820,23.7972609
22,Strada Primăverii,401016,46.5566902,23.7970010
35,Strada Primăverii,401016,46.5565927,23.7966898
37,Strada Primăverii,401016,46.5567471,23.7965053
39,Strada Primăverii,401016,46.5568562,23.7964176
45,Strada Primăverii,401016,46.5571595,23.7963009
39,Strada Fabricii,401135,46.5574834,23.7955150
3A,Strada Fabricii,401135,46.5577708,23.7987600
2A,Strada Fabricii,401135,46.5582290,23.7980839
12,Strada Fabricii,401135,46.5578797,23.7972824
8,Strada Fabricii,401135,46.5579399,23.7973962
28,Strada Fabricii,401135,46.5577740,23.7958094
35,Strada Fabricii,401135,46.5575513,23.7959004
24,Strada Fabricii,401135,46.5577971,23.7962842
20,Strada Fabricii,401135,46.5578115,23.7965051
23,Strada Fabricii,401135,46.5575737,23.7969428
21,Strada Fabricii,401135,46.5576984,23.7971083
9,Strada Fabricii,401135,46.5577556,23.7980626
11,Strada Fabricii,401135,46.5577361,23.7978887
1,Strada Fabricii,401135,46.5576162,23.7989525
13,Strada Fabricii,401135,46.5577550,23.7977633
17,Strada Fabricii,401135,46.5577600,23.7975912
2,Strada Fabricii,401135,46.5579781,23.7978561
27,Strada Fabricii,401135,46.5576230,23.7966456
43,Strada Fabricii,401135,46.5574579,23.7952558
33,Strada Fabricii,401135,46.5575344,23.7960512
31,Strada Fabricii,401135,46.5575595,23.7962225
30,Strada Fabricii,401135,46.5577522,23.7956938
26,Strada Fabricii,401135,46.5577967,23.7960609
45,Strada Fabricii,401135,46.5575551,23.7950610
47,Strada Fabricii,401135,46.5575705,23.7948990
32,Strada Fabricii,401135,46.5577269,23.7955853
38,Strada Fabricii,401135,46.5578181,23.7951776
42,Strada Fabricii,401135,46.5578432,23.7948048
44,Strada Fabricii,401135,46.5578468,23.7945377
6,Strada Tineretului,401040,46.5556506,23.8076752
1A,Strada Viorelelor,401015,46.5565025,23.8001773
2B,Strada Viorelelor,401015,46.5567211,23.8004712
2A,Strada Izvor,401014,46.5565867,23.8012191
1A,Strada Izvor,401014,46.5566636,23.8018081
3,Strada Izvor,401014,46.5565125,23.8014988
4,Strada Izvor,401014,46.5563839,23.8010728
7,Strada Izvor,401014,46.5551640,23.8008217
12,Strada Izvor,401014,46.5556155,23.8006473
10,Strada Izvor,401014,46.5557517,23.8007489
2,Strada Primăverii,401016,46.5553827,23.7994964
4,Strada Primăverii,401016,46.5554323,23.7993348
2A,Strada Primăverii,401016,46.5550695,23.7999742
20,Strada Izvor,401014,46.5550938,23.8003145
1A,Strada Teilor,401015,46.5568518,23.7995498
10,Strada Teilor,401015,46.5563791,23.7990172
11,Strada Teilor,401015,46.5557860,23.7992170
9A,Strada Teilor,401015,46.5558715,23.7992725
9,Strada Teilor,401015,46.5559923,23.7992770
7A,Strada Teilor,401015,46.5560921,23.7992707
19,Strada Primăverii,401016,46.5555519,23.7983263
23,Strada Primăverii,401016,46.5558064,23.7980851
29B,Strada Primăverii,401016,46.5562207,23.7973615
31,Strada Primăverii,401016,46.5563261,23.7971749
49,Strada Fabricii,401135,46.5569222,23.7940156
51B,Strada Fabricii,401135,46.5568742,23.7941817
65,Strada Fabricii,401135,46.5575693,23.7927071
79,Strada Fabricii,401135,46.5571539,23.7892488
81,Strada Fabricii,401135,46.5571464,23.7890180
71A,Strada Fabricii,401135,46.5572288,23.7901020
73,Strada Fabricii,401135,46.5572228,23.7899359
56,Strada Fabricii,401135,46.5575868,23.7899341
50,Strada Fabricii,401135,46.5577064,23.7906363
64,Strada Câmpiei,401071,46.5601538,23.8296018
55,Strada Câmpiei,401071,46.5605976,23.8322907
53,Strada Câmpiei,401071,46.5605990,23.8319760
45,Strada Câmpiei,401071,46.5610329,23.8288245
47,Strada Câmpiei,401071,46.5605477,23.8290712
49,Strada Câmpiei,401071,46.5606452,23.8304171
51,Strada Câmpiei,401071,46.5607424,23.8312608
1,Strada Aviatorilor,401024,46.5597664,23.8110075
9,Strada Aviatorilor,401009,46.5598981,23.8130423
33,Calea Victoriei,401124,46.5602029,23.8151579
10,Strada Univers,401033,46.5606877,23.8165733
37,Calea Victoriei,401124,46.5600095,23.8163051
7,Aleea Plopilor,401009,46.5599948,23.8138937
16,Strada Luptătorilor,401018,46.5543147,23.8019792
26A,Strada Luptătorilor,401018,46.5540833,23.8032535
26,Strada Luptătorilor,401018,46.5540249,23.8033784
30,Strada Luptătorilor,401018,46.5540230,23.8039131
28,Strada Luptătorilor,401018,46.5540281,23.8035343
12A,Strada Teilor,401015,46.5562190,23.7989164
6,Strada Primăverii,401016,46.5557114,23.7987849
4A,Strada Primăverii,401016,46.5555702,23.7990613
36,Calea Victoriei,401013,46.5574384,23.8001736
5,Strada Viorelelor,401015,46.5567563,23.7987625
3,Strada Viorelelor,401015,46.5567274,23.7989229
10A,Strada Teilor,401015,46.5566665,23.7991236
10,Strada Viorelelor,401015,46.5570903,23.7982141
10A,Strada Viorelelor,401015,46.5570543,23.7984122
8,Strada Viorelelor,401015,46.5570272,23.7985962
8A,Strada Viorelelor,401015,46.5569656,23.7987889
7A,Strada Viorelelor,401015,46.5567999,23.7984036
9,Strada Viorelelor,401015,46.5567161,23.7981606
9A,Strada Viorelelor,401015,46.5568409,23.7979423
16,Strada Viorelelor,401015,46.5571628,23.7976403
11,Strada Viorelelor,401015,46.5569137,23.7976543
13,Strada Viorelelor,401015,46.5569668,23.7974564
43,Strada Primăverii,401016,46.5570624,23.7963022
41,Strada Primăverii,401016,46.5569822,23.7962496
2,Strada Luptătorilor,401018,46.5545623,23.8004123
1,Strada Primăverii,401016,46.5547617,23.8000244
3,Strada Primăverii,401016,46.5548242,23.7998545
5,Strada Primăverii,401016,46.5549209,23.7997163
2C,Strada Viorelelor,401015,46.5567344,23.8002769
4,Strada Viorelelor,401015,46.5567324,23.8001445
6,Strada Viorelelor,401015,46.5567803,23.7998913
2,Strada Izvor,401014,46.5568681,23.8013730
1,Strada Izvor,401014,46.5567815,23.8016341
6,Strada Izvor,401014,46.5561578,23.8009185
6A,Strada Izvor,401014,46.5560215,23.8008985
8,Strada Izvor,401014,46.5559346,23.8008538
3A,Strada Izvor,401014,46.5560528,23.8012516
4,Strada Detunata,401014,46.5556720,23.8039145
6,Strada Detunata,401014,46.5556988,23.8036815
5,Strada Detunata,401014,46.5554669,23.8037810
1A,Strada Detunata,401014,46.5553872,23.8042831
2,Strada Detunata,401014,46.5556449,23.8041359
8,Strada Detunata,401014,46.5557697,23.8034611
24,Strada Detunata,401014,46.5560132,23.8014919
38,Calea Victoriei,401013,46.5573711,23.8003038
4,Strada Lianelor,401047,46.5580530,23.8136401
2,Strada Cucului,401178,46.5800307,23.7646649
5,Strada Racului,401178,46.5796468,23.7658437
9,Strada Racului,401178,46.5797044,23.7656070
5,Strada Cucului,401178,46.5802299,23.7638342
7,Strada Cucului,401178,46.5803052,23.7636840
9A,Strada Cucului,401178,46.5803916,23.7635460
15,Strada Racului,401178,46.5796532,23.7649109
8,Strada Cucului,401178,46.5802596,23.7643280
11,Strada Racului,401178,46.5796672,23.7653112
13,Strada Racului,401178,46.5796663,23.7651798
4,Strada Racului,401178,46.5799534,23.7656464
8,Strada Racului,401178,46.5799142,23.7652834
1,Strada Cucului,401178,46.5800404,23.7640544
24,Strada Cucului,401178,46.5809175,23.7632815
26,Strada Cucului,401178,46.5809932,23.7632119
18,Strada Cucului,401178,46.5806178,23.7637497
9,Strada Cucului,401178,46.5804840,23.7633981
13,Strada Cucului,401178,46.5808272,23.7628920
15,Strada Cucului,401178,46.5808600,23.7627539
22,Strada Cucului,401178,46.5808460,23.7633870
18A,Strada Cucului,401178,46.5807042,23.7636762
20,Strada Cucului,401178,46.5807533,23.7635807
16,Strada Cucului,401178,46.5805469,23.7639842
14,Strada Cucului,401178,46.5804405,23.7640228
6,Strada Cucului,401178,46.5801959,23.7645015
3,Strada Cucului,401178,46.5801460,23.7639504
1A,Strada Cucului,401178,46.5797441,23.7646444
12A,Strada Ion Corvin,401178,46.5799332,23.7663032
19,Strada Avram Iancu,401096,46.5765856,23.7835195
2,Strada Avram Iancu,401096,46.5754865,23.7849315
4,Strada Avram Iancu,401096,46.5756657,23.7850263
9,Strada Avram Iancu,401096,46.5759290,23.7840680
6,Strada Avram Iancu,401096,46.5758244,23.7848626
8,Strada Avram Iancu,401096,46.5758345,23.7845823
10,Strada Avram Iancu,401096,46.5760887,23.7845562
12,Strada Avram Iancu,401096,46.5763265,23.7844033
11,Strada Avram Iancu,401096,46.5759806,23.7837287
7,Strada Ștefan cel Mare,401112,46.5640745,23.7831144
2,Strada Putna,401133,46.5607459,23.7902914
7,Strada Sticlarilor,401133,46.5598020,23.7923198
14,Strada Bujorului,401134,46.5593657,23.7918711
21,Strada Bujorului,401134,46.5593121,23.7915841
19,Strada Bujorului,401134,46.5592181,23.7916898
15,Strada Bujorului,401134,46.5589873,23.7920432
10,Strada Bujorului,401134,46.5592024,23.7922055
17,Strada Bujorului,401134,46.5591480,23.7918062
1,Strada Bujorului,401134,46.5584446,23.7927922
5,Strada Bujorului,401134,46.5585461,23.7926115
2A,Strada Bujorului,401134,46.5587063,23.7928294
2,Strada Bujorului,401134,46.5587785,23.7927031
4,Strada Bujorului,401134,46.5588999,23.7925484
6,Strada Bujorului,401134,46.5590003,23.7924489
8,Strada Bujorului,401134,46.5591150,23.7923586
12,Strada Bujorului,401134,46.5593055,23.7920478
5,Strada Sticlarilor,401133,46.5598978,23.7924384
44,Strada Ștefan cel Mare,401132,46.5611694,23.7924140
26A,Strada Ștefan cel Mare,401132,46.5618151,23.7890497
26,Strada Ștefan cel Mare,401132,46.5617914,23.7888377
12,Piața Republicii,401095,46.5727835,23.7852066
15,Strada Detunata,401014,46.5556311,23.8026224
9,Strada Detunata,401014,46.5554906,23.8033658
11,Strada Detunata,401014,46.5555364,23.8031660
11A,Strada Detunata,401014,46.5555390,23.8030263
21,Strada Detunata,401014,46.5557569,23.8016335
4,Strada Frăsinetului,401017,46.5535037,23.8040252
6,Strada Frăsinetului,401017,46.5534260,23.8037609
1,Strada Frăsinetului,401017,46.5531096,23.8042144
1A,Strada Frăsinetului,401017,46.5530793,23.8043512
3,Strada Frăsinetului,401017,46.5531252,23.8040760
5,Strada Frăsinetului,401017,46.5531478,23.8039380
7,Strada Frăsinetului,401017,46.5531954,23.8038245
9,Strada Frăsinetului,401017,46.5531919,23.8037115
11,Strada Frăsinetului,401017,46.5531574,23.8035939
15,Strada Frăsinetului,401017,46.5532046,23.8032618
6A,Strada Frăsinetului,401017,46.5534674,23.8035026
17,Strada Frăsinetului,401017,46.5532323,23.8031031
12,Strada Frăsinetului,401017,46.5535081,23.8028737
12,Strada Frăsinetului,401017,46.5535752,23.8027563
8,Strada Frăsinetului,401017,46.5534946,23.8032424
14,Strada Frăsinetului,401017,46.5535807,23.8025098
16,Strada Frăsinetului,401017,46.5536014,23.8023926
18,Strada Frăsinetului,401017,46.5536412,23.8022948
22,Strada Frăsinetului,401017,46.5536206,23.8020598
20,Strada Frăsinetului,401017,46.5536314,23.8021778
24,Strada Frăsinetului,401017,46.5536267,23.8018941
32,Strada Frăsinetului,401017,46.5538883,23.8011731
28A,Strada Frăsinetului,401017,46.5537858,23.8014059
4,Strada Luptătorilor,401018,46.5544928,23.8008622
12,Strada Luptătorilor,401018,46.5543955,23.8015779
18,Strada Luptătorilor,401018,46.5542884,23.8021648
20,Strada Luptătorilor,401018,46.5542280,23.8024052
22A,Strada Luptătorilor,401018,46.5541580,23.8027103
22B,Strada Luptătorilor,401018,46.5541332,23.8029642
24,Strada Luptătorilor,401018,46.5541300,23.8031096
32A,Strada Luptătorilor,401018,46.5539789,23.8042626
19A,Strada Luptătorilor,401018,46.5542302,23.8041956
19,Strada Luptătorilor,401018,46.5542554,23.8040088
17,Strada Luptătorilor,401018,46.5543278,23.8036430
13A,Strada Luptătorilor,401018,46.5544127,23.8030374
13,Strada Luptătorilor,401018,46.5544068,23.8028629
11,Strada Luptătorilor,401018,46.5544605,23.8026832
9A,Strada Luptătorilor,401018,46.5545322,23.8024932
9B,Strada Luptătorilor,401018,46.5545161,23.8022911
7A,Strada Luptătorilor,401018,46.5545614,23.8019005
9,Strada Luptătorilor,401018,46.5545441,23.8020859
7,Strada Luptătorilor,401018,46.5546006,23.8016893
5A,Strada Luptătorilor,401018,46.5546290,23.8015030
3A,Strada Luptătorilor,401018,46.5547273,23.8009421
3,Strada Luptătorilor,401018,46.5547492,23.8007684
1,Strada Luptătorilor,401018,46.5547839,23.8005329
3B,Strada Luptătorilor,401018,46.5546836,23.8011661
6,Strada Luptătorilor,401018,46.5544289,23.8010057
11,Strada Primăverii,401016,46.5552226,23.7990057
15,Strada Primăverii,401016,46.5554379,23.7988031
13,Strada Primăverii,401016,46.5553715,23.7989200
17,Strada Detunata,401014,46.5556315,23.8022944
6B,Strada Detunata,401014,46.5555694,23.8047015
1,Strada Detunata,401014,46.5553711,23.8039747
7,Strada Detunata,401014,46.5554441,23.8035536
3,Strada Detunata,401014,46.5553960,23.8038634
2A,Strada Detunata,401014,46.5555829,23.8043909
1,Strada Viorelelor,401015,46.5563949,23.8005056
7,Strada Viorelelor,401015,46.5567111,23.7985330
6A,Strada Viorelelor,401015,46.5569118,23.7990504
1,Strada Teilor,401015,46.5571408,23.7996525
26,Strada Detunata,401014,46.5560523,23.8013727
13,Strada Frăsinetului,401017,46.5532217,23.8034239
26,Strada Frăsinetului,401017,46.5536716,23.8016938
28,Strada Frăsinetului,401017,46.5536899,23.8015671
5,Strada Izvor,401014,46.5558156,23.8011612
23,Strada Detunata,401014,46.5557953,23.8012603
12,Strada Detunata,401014,46.5558741,23.8026794
22,Strada Detunata,401014,46.5559874,23.8016152
79,Strada Doctor Ioan Rațiu,401150,46.5732159,23.7812908
81,Strada Doctor Ioan Rațiu,401150,46.5733626,23.7811508
10A,Strada Luptătorilor,401018,46.5543902,23.8014491
32,Strada Luptătorilor,401018,46.5540165,23.8040957
5,Strada Luptătorilor,401018,46.5546830,23.8013598
22,Strada Luptătorilor,401018,46.5542329,23.8025541
14,Strada Luptătorilor,401018,46.5543293,23.8018392
31,Calea Victoriei,401030,46.5596618,23.8140603
53A,Strada Fabricii,401135,46.5567651,23.7942576
40,Strada Fabricii,401135,46.5577977,23.7949925
18,Calea Victoriei,401131,46.5596790,23.7968895
32,Strada Ștefan cel Mare,401132,46.5616441,23.7896679
2,Strada Sticlarilor,401133,46.5602134,23.7925022
4,Strada Sticlarilor,401133,46.5601152,23.7923775
58,Strada Ștefan cel Mare,401132,46.5607947,23.7944917
52,Strada Ștefan cel Mare,401132,46.5608823,23.7939406
3,Strada Sticlarilor,401133,46.5599463,23.7926299
1,Strada Sticlarilor,401133,46.5600438,23.7926616
51,Strada Ștefan cel Mare,401132,46.5621575,23.7892539
43,Strada Ștefan cel Mare,401132,46.5625433,23.7880611
45,Strada Ștefan cel Mare,401132,46.5625055,23.7881761
47,Strada Ștefan cel Mare,401132,46.5624670,23.7883158
43,Strada Ștefan cel Mare,401132,46.5625206,23.7885073
30,Strada Ștefan cel Mare,401132,46.5616568,23.7894596
56,Strada Ștefan cel Mare,401132,46.5607916,23.7942530
54,Strada Ștefan cel Mare,401132,46.5608735,23.7940624
2,Calea Victoriei,401131,46.5606573,23.7949974
4,Calea Victoriei,401131,46.5605982,23.7951500
2,Strada Petru Rareș,401133,46.5622681,23.7888872
26B,Strada Ștefan cel Mare,401132,46.5617328,23.7892353
28,Strada Ștefan cel Mare,401132,46.5617004,23.7893250
23,Strada General Dragalina,401086,46.5673802,23.7796836
25,Strada General Dragalina,401086,46.5674763,23.7795422
49,Strada General Dragalina,401086,46.5689132,23.7798381
79,Strada General Dragalina,401086,46.5709059,23.7799308
87,Strada General Dragalina,401086,46.5712445,23.7798281
62,Strada General Dragalina,401086,46.5704798,23.7802241
77,Strada General Dragalina,401086,46.5706140,23.7799189
66,Strada General Dragalina,401086,46.5707800,23.7802670
83,Strada General Dragalina,401086,46.5710217,23.7798312
85,Strada General Dragalina,401086,46.5711448,23.7798101
89,Strada General Dragalina,401086,46.5713319,23.7798093
74,Strada General Dragalina,401086,46.5712724,23.7804208
95,Strada General Dragalina,401086,46.5716221,23.7797151
84,Strada General Dragalina,401086,46.5717296,23.7801144
97,Strada General Dragalina,401086,46.5717381,23.7796611
34C,Strada Doctor Ioan Rațiu,401150,46.5693358,23.7830114
12,Strada Aurel Vlaicu,401187,46.5691010,23.7873170
34D,Strada Augustin Bunea,401150,46.5693534,23.7833755
46,Strada Aurel Vlaicu,401187,46.5674353,23.7880090
5,Strada Fântânele,401187,46.5682659,23.7878782
36,Strada Aurel Vlaicu,401187,46.5682069,23.7882787
3,Strada Fântânele,401187,46.5683084,23.7881663
2,Strada Fântânele,401187,46.5685187,23.7882412
34,Strada Aurel Vlaicu,401187,46.5683405,23.7884720
1,Strada Fântânele,401187,46.5683257,23.7883246
8,Strada Fântânele,401187,46.5684530,23.7877639
28,Strada Aurel Vlaicu,401187,46.5688414,23.7883191
26,Strada Aurel Vlaicu,401187,46.5689371,23.7882100
89,Strada Doctor Ioan Rațiu,401150,46.5738772,23.7808629
76,Strada Doctor Ioan Rațiu,401150,46.5734038,23.7818603
78,Strada Doctor Ioan Rațiu,401150,46.5735198,23.7817548
83,Strada Doctor Ioan Rațiu,401150,46.5735236,23.7811353
73,Strada Doctor Ioan Rațiu,401150,46.5729023,23.7815078
68,Strada Doctor Ioan Rațiu,401150,46.5729492,23.7820423
66,Strada Doctor Ioan Rațiu,401150,46.5726922,23.7821597
16,Strada George Coșbuc,401150,46.5725018,23.7822466
58,Strada Doctor Ioan Rațiu,401150,46.5716479,23.7823927
59,Strada Doctor Ioan Rațiu,401150,46.5716396,23.7819615
57,Strada Doctor Ioan Rațiu,401150,46.5715623,23.7818904
55,Strada Doctor Ioan Rațiu,401150,46.5714553,23.7819011
63,Strada Doctor Ioan Rațiu,401150,46.5718761,23.7819333
65,Strada Doctor Ioan Rațiu,401150,46.5720110,23.7819225
16,Strada Șterca Șuluțiu,401076,46.5726115,23.7888197
14,Strada Șterca Șuluțiu,401076,46.5725608,23.7885696
12,Strada Șterca Șuluțiu,401076,46.5725438,23.7883449
57,Strada Gheorghe Șincai,401078,46.5709911,23.7899868
55,Strada Gheorghe Șincai,401078,46.5710844,23.7898108
29,Strada Avram Iancu,401096,46.5771165,23.7829697
24,Strada Avram Iancu,401096,46.5769658,23.7836644
22,Strada Avram Iancu,401096,46.5768267,23.7837284
18,Strada Avram Iancu,401096,46.5766947,23.7840402
20,Strada Avram Iancu,401096,46.5767764,23.7839108
15,Strada Avram Iancu,401096,46.5763279,23.7837026
21,Strada Avram Iancu,401096,46.5767665,23.7833624
23,Strada Avram Iancu,401096,46.5767543,23.7830005
32,Strada Avram Iancu,401096,46.5773176,23.7833382
30,Strada Avram Iancu,401096,46.5772310,23.7834140
25,Strada Avram Iancu,401096,46.5769581,23.7831836
31,Strada Avram Iancu,401096,46.5772194,23.7829358
3A,Strada Vasile Alecsandri,401085,46.5720724,23.7806053
5,Strada Vasile Alecsandri,401085,46.5720378,23.7803818
14,Strada Vasile Alecsandri,401085,46.5722468,23.7803111
11,Strada General Dragalina,401086,46.5667452,23.7796228
7,Strada General Dragalina,401086,46.5665449,23.7795939
93,Strada General Dragalina,401086,46.5715299,23.7797676
91,Strada General Dragalina,401086,46.5714089,23.7797950
80,Strada General Dragalina,401086,46.5715077,23.7801463
78,Strada General Dragalina,401086,46.5714014,23.7801322
76,Strada General Dragalina,401086,46.5713268,23.7802918
72,Strada General Dragalina,401086,46.5711091,23.7802056
68,Strada General Dragalina,401086,46.5708966,23.7802284
60,Strada General Dragalina,401086,46.5703456,23.7802490
21,Strada General Dragalina,401086,46.5672818,23.7796989
12A,Strada General Dragalina,401086,46.5670497,23.7801434
15,Strada General Dragalina,401086,46.5669411,23.7795661
9,Strada General Dragalina,401086,46.5666426,23.7795566
35,Strada General Dragalina,401086,46.5679825,23.7797701
29,Strada General Dragalina,401086,46.5676523,23.7796327
27,Strada General Dragalina,401086,46.5675728,23.7797179
33,Strada General Dragalina,401086,46.5678657,23.7796936
31,Strada General Dragalina,401086,46.5677646,23.7797208
39,Strada General Dragalina,401086,46.5682064,23.7797608
37,Strada General Dragalina,401086,46.5680899,23.7797622
41,Strada General Dragalina,401086,46.5683333,23.7798071
43,Strada General Dragalina,401086,46.5684452,23.7798440
45,Strada General Dragalina,401086,46.5686388,23.7798234
47,Strada General Dragalina,401086,46.5687998,23.7798358
53,Strada General Dragalina,401086,46.5691250,23.7798526
55,Strada General Dragalina,401086,46.5692118,23.7798557
57,Strada General Dragalina,401086,46.5692720,23.7798815
59,Strada General Dragalina,401086,46.5693736,23.7798628
63,Strada General Dragalina,401086,46.5695820,23.7798686
61,Strada General Dragalina,401086,46.5694879,23.7798851
65,Strada General Dragalina,401086,46.5697466,23.7798898
54,Strada General Dragalina,401086,46.5699161,23.7801897
69,Strada General Dragalina,401086,46.5700162,23.7798919
71,Strada General Dragalina,401086,46.5701609,23.7798831
75A,Strada General Dragalina,401086,46.5704281,23.7797960
73,Strada General Dragalina,401086,46.5702963,23.7798769
75,Strada General Dragalina,401086,46.5705083,23.7799112
64,Strada General Dragalina,401086,46.5705827,23.7802235
12,Strada Vasile Alecsandri,401085,46.5722990,23.7806091
4,Strada Vasile Alecsandri,401085,46.5724642,23.7814450
17,Strada George Coșbuc,401150,46.5722892,23.7824378
7,Strada Vasile Alecsandri,401085,46.5719706,23.7800900
86,Strada General Dragalina,401086,46.5718759,23.7802073
36,Piața Republicii,401095,46.5729142,23.7861818
35,Piața Republicii,401095,46.5728036,23.7861937
29,Strada Bujorului,401134,46.5597064,23.7910544
16,Strada Bujorului,401134,46.5599246,23.7911486
33,Strada Bujorului,401134,46.5598775,23.7907762
31,Strada Bujorului,401134,46.5598006,23.7908587
101,Strada Doctor Ioan Rațiu,401150,46.5746254,23.7799448
103,Strada Doctor Ioan Rațiu,401150,46.5747487,23.7798602
97,Strada Doctor Ioan Rațiu,401150,46.5744597,23.7803148
99,Strada Doctor Ioan Rațiu,401150,46.5745684,23.7801760
95,Strada Doctor Ioan Rațiu,401150,46.5743448,23.7803473
98,Strada Doctor Ioan Rațiu,401150,46.5746104,23.7807959
5,Strada Dacia,401149,46.5740681,23.7832238
2,Strada Racului,401178,46.5798749,23.7660368
14,Strada Ion Corvin,401178,46.5798078,23.7662703
4,Strada Cucului,401178,46.5800911,23.7645528
12,Strada Cucului,401178,46.5803774,23.7641017
10,Strada Cucului,401178,46.5803415,23.7642204
11,Strada Cucului,401178,46.5807434,23.7630045
8,Strada Ogorului,401178,46.5813744,23.7630213
35,Strada Rândunicii,401179,46.5823850,23.7625410
35A,Strada Rândunicii,401179,46.5823300,23.7626359
33,Strada Rândunicii,401179,46.5822691,23.7627777
28,Strada Rândunicii,401179,46.5825891,23.7628520
26,Strada Rândunicii,401179,46.5825119,23.7630598
24,Strada Rândunicii,401179,46.5823631,23.7632058
31,Strada Rândunicii,401179,46.5821502,23.7629041
27,Strada Rândunicii,401179,46.5819298,23.7633202
22,Strada Rândunicii,401179,46.5822395,23.7633700
20,Strada Rândunicii,401179,46.5821450,23.7635442
1,Strada Ogorului,401178,46.5821810,23.7645122
1A,Strada Ogorului,401178,46.5819611,23.7642163
2,Strada Ogorului,401178,46.5822439,23.7641436
16,Strada Rândunicii,401179,46.5818893,23.7640688
18,Strada Rândunicii,401179,46.5820380,23.7637248
25,Strada Rândunicii,401179,46.5818117,23.7634863
4,Strada Ogorului,401178,46.5816409,23.7633690
1B,Strada Ogorului,401178,46.5815452,23.7637004
1C,Strada Ogorului,401178,46.5813425,23.7635228
6,Strada Ogorului,401178,46.5814738,23.7631386
30,Strada Cucului,401178,46.5812588,23.7627773
28,Strada Cucului,401178,46.5810648,23.7630189
17,Strada Cucului,401178,46.5809730,23.7627024
10,Strada Ion Corvin,401178,46.5799718,23.7664532
2,Strada Ion Corvin,401178,46.5804038,23.7668738
47,Strada Doctor Ioan Rațiu,401150,46.5704491,23.7818512
46,Strada Doctor Ioan Rațiu,401150,46.5706560,23.7823530
72,Strada Doctor Ioan Rațiu,401150,46.5731337,23.7819195
87,Strada Doctor Ioan Rațiu,401150,46.5737292,23.7808772
3,Strada Vasile Alecsandri,401085,46.5721563,23.7808614
30,Strada Axente Sever,401078,46.5749650,23.7878619
28,Strada Axente Sever,401078,46.5748873,23.7878539
34,Strada Axente Sever,401078,46.5752131,23.7878347
24,Strada Axente Sever,401078,46.5744338,23.7877946
22,Strada Axente Sever,401078,46.5743298,23.7877882
27,Strada Axente Sever,401078,46.5751140,23.7874855
29,Strada Axente Sever,401078,46.5752691,23.7874600
50,Piața Republicii,401095,46.5748449,23.7855690
49,Piața Republicii,401095,46.5747391,23.7856565
19,Strada Aurel Vlaicu,401187,46.5690350,23.7885330
27,Strada Aurel Vlaicu,401187,46.5685512,23.7888322
23,Strada Gheorghe Șincai,401078,46.5739790,23.7899328
11,Strada Gheorghe Șincai,401078,46.5749369,23.7897337
18,Strada Gheorghe Șincai,401078,46.5742961,23.7893870
20,Strada Gheorghe Șincai,401078,46.5741878,23.7893997
10,Strada Gheorghe Șincai,401078,46.5748343,23.7893102
26,Strada Gheorghe Șincai,401078,46.5739381,23.7894728
24,Strada Gheorghe Șincai,401078,46.5740676,23.7894361
32,Strada Gheorghe Șincai,401078,46.5736367,23.7896159
36,Strada Gheorghe Șincai,401078,46.5734075,23.7897450
21,Strada Șterca Șuluțiu,401076,46.5729716,23.7898421
17,Strada Șterca Șuluțiu,401076,46.5729247,23.7894321
15,Strada Șterca Șuluțiu,401076,46.5728890,23.7892756
11,Strada Șterca Șuluțiu,401076,46.5728038,23.7887747
9,Strada Șterca Șuluțiu,401076,46.5727835,23.7885667
13,Strada Șterca Șuluțiu,401076,46.5729368,23.7890814
13,Strada Lianelor,401047,46.5571098,23.8146166
11,Strada Tineretului,401040,46.5537578,23.8089161
10,Strada Sticlarilor,401133,46.5598832,23.7919458
8,Strada Sticlarilor,401133,46.5599710,23.7920997
50,Strada Ștefan cel Mare,401132,46.5609958,23.7935228
7,Strada Bujorului,401134,46.5585985,23.7925366
1A,Strada Bujorului,401134,46.5585506,23.7929279
11,Strada Bujorului,401134,46.5587495,23.7923172
9,Strada Bujorului,401134,46.5587041,23.7924399
25,Strada Bujorului,401134,46.5595050,23.7912726
23,Strada Bujorului,401134,46.5594278,23.7914521
27,Strada Bujorului,401134,46.5596039,23.7911402
20,Strada Bujorului,401134,46.5600688,23.7909100
18,Strada Bujorului,401134,46.5600122,23.7910487
9,Strada Putna,401133,46.5606037,23.7907663
16,Strada Arieșului,401115,46.5561647,23.7767963
14,Strada Arieșului,401115,46.5559754,23.7770059
10,Strada Arieșului,401115,46.5556316,23.7774418
12,Strada Arieșului,401115,46.5558022,23.7772269
11,Strada Arieșului,401115,46.5556744,23.7769927
7,Strada Arieșului,401115,46.5553304,23.7774081
8,Strada Arieșului,401115,46.5554508,23.7776474
4,Strada Arieșului,401115,46.5550976,23.7780446
1,Strada Arieșului,401115,46.5547978,23.7780406
2,Strada Arieșului,401115,46.5549154,23.7782738
21A,Strada Arieșului,401115,46.5543158,23.7779868
21,Strada Arieșului,401115,46.5542293,23.7779079
1,Strada Zidarilor,401116,46.5543854,23.7773090
2,Strada Zidarilor,401116,46.5545204,23.7775355
3,Strada Zidarilor,401116,46.5545657,23.7771077
29,Strada Nicolae Teclu,401115,46.5543505,23.7765233
29A,Strada Nicolae Teclu,401115,46.5545067,23.7763538
12,Strada Zidarilor,401116,46.5554085,23.7765230
9,Strada Zidarilor,401116,46.5550997,23.7764842
10,Strada Zidarilor,401116,46.5552330,23.7767288
8,Strada Zidarilor,401116,46.5550539,23.7769039
7,Strada Zidarilor,401116,46.5549197,23.7766917
5,Strada Zidarilor,401116,46.5547366,23.7768974
11,Strada Zidarilor,401116,46.5552788,23.7762816
13,Strada Zidarilor,401116,46.5554908,23.7760043
8,Strada Lianelor,401047,46.5566353,23.8137596
3,Strada Arieșului,401115,46.5549678,23.7778231
5,Strada Arieșului,401115,46.5551530,23.7776145
33,Strada Nicolae Teclu,401115,46.5549537,23.7758885
41,Strada Nicolae Teclu,401115,46.5556589,23.7751237
7,Intrarea Armatei,401117,46.5493099,23.7820342
5,Intrarea Armatei,401117,46.5491852,23.7821685
3,Intrarea Armatei,401117,46.5491012,23.7823100
11,Intrarea Armatei,401117,46.5495211,23.7816630
27,Strada Nicolae Teclu,401115,46.5524363,23.7762165
25,Strada Nicolae Teclu,401115,46.5532594,23.7766898
23A,Strada Arieșului,401115,46.5537420,23.7773236
9,Strada Arieșului,401115,46.5554949,23.7771942
6,Strada Arieșului,401115,46.5552821,23.7778741
49,Strada Gheorghe Șincai,401078,46.5713705,23.7900525
47,Strada Gheorghe Șincai,401078,46.5716227,23.7902815
70,Strada Gheorghe Șincai,401078,46.5705291,23.7894586
65,Strada Gheorghe Șincai,401078,46.5701576,23.7898622
74,Strada Gheorghe Șincai,401078,46.5701008,23.7895851
67,Strada Gheorghe Șincai,401078,46.5700181,23.7898540
32,Strada Aurel Vlaicu,401187,46.5685838,23.7885238
13,Strada Axente Sever,401078,46.5735673,23.7872308
8A,Strada Avram Iancu,401096,46.5760571,23.7848338
5,Strada Avram Iancu,401096,46.5755499,23.7843352
7,Strada Avram Iancu,401096,46.5758174,23.7842108
31,Strada Axente Sever,401078,46.5754346,23.7875156
32,Strada Axente Sever,401078,46.5750482,23.7878657
51,Piața Republicii,401095,46.5749044,23.7854820
17,Strada Axente Sever,401078,46.5742786,23.7873639
20,Strada Axente Sever,401078,46.5742160,23.7877974
15,Strada Axente Sever,401078,46.5737134,23.7870942
1,Strada Axente Sever,401078,46.5728050,23.7875153
5,Strada Șterca Șuluțiu,401076,46.5727210,23.7879729
2,Strada Axente Sever,401078,46.5728711,23.7878344
7,Strada Axente Sever,401078,46.5731133,23.7874147
11,Strada Axente Sever,401078,46.5734523,23.7872946
16,Strada Axente Sever,401078,46.5738617,23.7876924
15A,Strada Axente Sever,401078,46.5739514,23.7870488
18,Strada Axente Sever,401078,46.5740945,23.7878542
23,Strada Axente Sever,401078,46.5747209,23.7871049
25,Strada Axente Sever,401078,46.5748637,23.7872851
13,Strada Ștefan cel Mare,401112,46.5639870,23.7837567
15,Strada Ștefan cel Mare,401112,46.5638738,23.7839703
4,Strada Zidarilor,401116,46.5546894,23.7773180
6,Strada Zidarilor,401116,46.5548719,23.7771261
21,Strada Aurel Vlaicu,401187,46.5689447,23.7886687
61,Strada Gheorghe Șincai,401078,46.5705821,23.7897201
68,Strada Gheorghe Șincai,401078,46.5706222,23.7894532
73,Strada Gheorghe Șincai,401078,46.5697466,23.7898495
71,Strada Gheorghe Șincai,401078,46.5698615,23.7898814
69,Strada Gheorghe Șincai,401078,46.5699460,23.7898662
22,Strada Șterca Șuluțiu,401076,46.5726453,23.7894650
19,Strada Șterca Șuluțiu,401076,46.5729359,23.7896553
24,Strada Șterca Șuluțiu,401076,46.5726697,23.7896202
18,Strada Șterca Șuluțiu,401076,46.5726396,23.7890538
20,Strada Șterca Șuluțiu,401076,46.5726323,23.7892916
7,Strada Șterca Șuluțiu,401076,46.5727997,23.7883127
9,Strada Abatorului,401189,46.5673912,23.7876927
2,Strada Aurel Vlaicu,401187,46.5689160,23.7866069
11,Strada Aurel Vlaicu,401187,46.5693125,23.7879676
3,Strada Aurel Vlaicu,401187,46.5692353,23.7869138
1,Strada Aurel Vlaicu,401187,46.5691128,23.7865506
37,Strada Aurel Vlaicu,401187,46.5680295,23.7886495
15,Strada Aurel Vlaicu,401187,46.5692222,23.7881310
23,Strada Aurel Vlaicu,401187,46.5688962,23.7887719
25,Strada Aurel Vlaicu,401187,46.5688133,23.7887847
30,Strada Aurel Vlaicu,401187,46.5687050,23.7884196
8,Strada Aurel Vlaicu,401187,46.5689871,23.7869641
20,Strada Aurel Vlaicu,401187,46.5690625,23.7878616
7,Strada Fântânele,401187,46.5682920,23.7875903
39,Strada Aurel Vlaicu,401187,46.5678964,23.7886115
38,Strada Aurel Vlaicu,401187,46.5681395,23.7880925
6,Strada Aurel Vlaicu,401187,46.5689813,23.7868548
7,Strada Aurel Vlaicu,401187,46.5694055,23.7876399
5,Strada Aurel Vlaicu,401187,46.5693584,23.7874875
24,Strada Aurel Vlaicu,401187,46.5689989,23.7881743
22,Strada Aurel Vlaicu,401187,46.5690307,23.7880554
4,Strada Fântânele,401187,46.5684710,23.7881034
6,Strada Fântânele,401187,46.5684623,23.7879861
5,Piața 1 Decembrie 1918,401130,46.5698056,23.7849467
14,Strada Aurel Vlaicu,401187,46.5691198,23.7874562
16,Strada Aurel Vlaicu,401187,46.5690873,23.7876109
18,Strada Aurel Vlaicu,401187,46.5690729,23.7877220
13,Strada Salinelor,401096,46.5802208,23.7800232
66,Strada Avram Iancu,401096,46.5792809,23.7817390
66A,Strada Avram Iancu,401096,46.5792263,23.7820607
44,Piața Republicii,401095,46.5741074,23.7858778
45,Piața Republicii,401095,46.5742171,23.7857204
50,Strada Doctor Ioan Rațiu,401150,46.5708633,23.7823036
48,Strada Doctor Ioan Rațiu,401150,46.5707777,23.7823939
8,Piața 1 Decembrie 1918,401130,46.5694590,23.7850553
10,Piața 1 Decembrie 1918,401130,46.5692945,23.7849895
9,Piața 1 Decembrie 1918,401130,46.5693756,23.7850639
52,Strada Doctor Ioan Rațiu,401150,46.5709926,23.7823405
44,Strada Doctor Ioan Rațiu,401150,46.5704964,23.7824949
30,Strada Doctor Ioan Rațiu,401150,46.5689047,23.7823947
40,Strada Doctor Ioan Rațiu,401150,46.5699416,23.7823063
51,Strada Doctor Ioan Rațiu,401150,46.5707349,23.7818491
49,Strada Doctor Ioan Rațiu,401150,46.5706234,23.7818007
54,Strada Doctor Ioan Rațiu,401150,46.5711476,23.7823534
60,Strada Doctor Ioan Rațiu,401150,46.5718086,23.7823707
62,Strada Doctor Ioan Rațiu,401150,46.5719155,23.7823478
84,Strada Doctor Ioan Rațiu,401150,46.5738275,23.7814069
71,Strada Doctor Ioan Rațiu,401150,46.5727292,23.7813030
38,Piața Republicii,401157,46.5733089,23.7861301
91,Strada Doctor Ioan Rațiu,401150,46.5740351,23.7806315
48,Strada Gheorghe Șincai,401078,46.5723031,23.7899526
50,Strada Gheorghe Șincai,401078,46.5722024,23.7899851
43A,Strada Gheorghe Șincai,401078,46.5720117,23.7902950
52A,Strada Gheorghe Șincai,401078,46.5719896,23.7899802
29,Strada 22 Decembrie 1989,401113,46.5553883,23.7851867
68,Strada Câmpiei,401071,46.5602483,23.8311875
70,Strada Câmpiei,401071,46.5603419,23.8314425
1A,Strada Ion Corvin,401178,46.5793893,23.7663443
4,Piața Republicii,401157,46.5743193,23.7844203
9,Piața Republicii,401095,46.5730841,23.7851681
64,Strada Avram Iancu,401096,46.5790593,23.7817662
62,Strada Avram Iancu,401096,46.5789562,23.7818889
14,Strada Avram Iancu,401096,46.5765212,23.7842602
16,Strada Avram Iancu,401096,46.5765400,23.7840930
17,Strada Avram Iancu,401096,46.5764630,23.7836229
17,Strada Aurel Vlaicu,401187,46.5691305,23.7883485
37,Strada Fabricii,401135,46.5574760,23.7957984
22,Strada Tineretului,401040,46.5540395,23.8081386
100A,Strada Câmpiei,401071,46.5601221,23.8381344
34,Strada Tineretului,401040,46.5535998,23.8083194
36,Strada Tineretului,401040,46.5533583,23.8083278
13,Strada Gheorghe Șincai,401078,46.5748087,23.7897053
14,Strada Gheorghe Șincai,401078,46.5744913,23.7893593
10B,Strada Gheorghe Șincai,401078,46.5746573,23.7892713
13A,Strada Gheorghe Șincai,401078,46.5746721,23.7896461
16,Strada Gheorghe Șincai,401078,46.5743826,23.7892902
15,Strada Gheorghe Șincai,401078,46.5744225,23.7897995
25,Strada Gheorghe Șincai,401078,46.5736372,23.7900717
30,Strada Gheorghe Șincai,401078,46.5737573,23.7895682
23A,Strada Gheorghe Șincai,401078,46.5737774,23.7900717
40,Strada Gheorghe Șincai,401078,46.5731576,23.7898205
38,Strada Gheorghe Șincai,401078,46.5732620,23.7897248
35,Strada Aurel Vlaicu,401187,46.5681081,23.7886786
70,Strada Doctor Ioan Rațiu,401150,46.5730340,23.7820063
77,Strada Doctor Ioan Rațiu,401150,46.5731173,23.7814178
75,Strada Doctor Ioan Rațiu,401150,46.5729499,23.7811253
9C,Strada Cucului,401178,46.5806121,23.7632028
9B,Strada Cucului,401178,46.5805539,23.7633015
9A,Strada Vasile Alecsandri,401085,46.5718243,23.7792817
96,Strada Doctor Ioan Rațiu,401150,46.5744479,23.7808688
108,Strada Doctor Ioan Rațiu,401150,46.5751273,23.7800631
27,Strada Gheorghe Șincai,401078,46.5734210,23.7901114
34,Strada Gheorghe Șincai,401078,46.5735034,23.7897182
29,Strada Gheorghe Șincai,401078,46.5733756,23.7903969
10,Piața Republicii,401095,46.5729813,23.7851571
11,Piața Republicii,401095,46.5729062,23.7852106
37,Piața Republicii,401157,46.5730779,23.7862003
56,Strada Doctor Ioan Rațiu,401150,46.5715470,23.7824123
6,Piața Republicii,401095,46.5735163,23.7846437
7,Piața Republicii,401095,46.5734023,23.7850325
8,Piața Republicii,401095,46.5732189,23.7851499
7,Strada Salinelor,401096,46.5799024,23.7801258
28,Strada Avram Iancu,401096,46.5771548,23.7834840
26,Strada Avram Iancu,401096,46.5770786,23.7835313
36,Strada Avram Iancu,401096,46.5775174,23.7831839
40,Strada Avram Iancu,401096,46.5776834,23.7830463
39,Strada Avram Iancu,401096,46.5775542,23.7827101
37,Strada Avram Iancu,401096,46.5774690,23.7827586
9,Strada Vasile Alecsandri,401085,46.5719124,23.7796960
80,Strada Doctor Ioan Rațiu,401150,46.5735842,23.7816265
46,Piața Republicii,401095,46.5743504,23.7856772
47,Piața Republicii,401095,46.5744333,23.7856517
48,Piața Republicii,401095,46.5746656,23.7858597
3A,Strada Teilor,401015,46.5564905,23.7995437
5,Strada Teilor,401015,46.5564320,23.7994068
1,Piața 1 Decembrie 1918,401094,46.5703797,23.7848693
42,Strada Gheorghe Șincai,401078,46.5726493,23.7899009
44,Strada Gheorghe Șincai,401078,46.5725217,23.7899266
46,Strada Gheorghe Șincai,401078,46.5724288,23.7898838
41,Strada Gheorghe Șincai,401078,46.5724256,23.7902941
43,Strada Gheorghe Șincai,401078,46.5721643,23.7903547
41A,Strada Gheorghe Șincai,401078,46.5722555,23.7903472
19,Strada Ștefan cel Mare,401112,46.5637319,23.7875095
34,Strada Fabricii,401135,46.5577901,23.7954846
36,Strada Fabricii,401135,46.5577686,23.7953904
41,Strada Fabricii,401135,46.5575307,23.7954133
33,Strada Primăverii,401016,46.5564909,23.7968776
36,Strada Axente Sever,401078,46.5753382,23.7880097
38,Strada Axente Sever,401078,46.5754459,23.7880073
9,Strada 22 Decembrie 1989,401113,46.5593915,23.7853568
29,Strada Rândunicii,401179,46.5819007,23.7629919
29,Strada Axente Sever,401078,46.5751162,23.7871486
13,Strada Ștefan cel Mare,401112,46.5640439,23.7835807
6A,Strada Izvor,401014,46.5559748,23.8004643
81,Strada Fabricii,401135,46.5570413,23.7890667
35,Strada Aurel Vlaicu,401187,46.5682976,23.7887421
