House number,Street name,Postal code,Latitude,Longitude
18,Radoja Domanovića,78000,44.7614674,17.1809828
69,Aleja Svetog Save,78000,44.7753865,17.2056284
26,Gundulićeva,78000,44.7719690,17.1996322
15,Vojvode Radomira Putnika,78000,44.7712682,17.1968717
29,Nikole Pašića,78000,44.7713475,17.1970362
111,Srpska,78000,44.7698772,17.1985682
97,Kralja Petra I Karađorđevića,78000,44.7731381,17.1909092
18a,Gundulićeva,78000,44.7712195,17.1996068
26,Vase Pelagića,78000,44.7722037,17.1964533
29,Vojvode Radomira Putnika,78000,44.7710071,17.1984323
45,Kralja Petra I Karađorđevića,78000,44.7676726,17.1867435
34a,Vase Pelagića,78000,44.7724607,17.1963794
32,Kralja Petra I Karađorđevića,78000,44.7670147,17.1865130
13,Aleja Svetog Save,78000,44.7741716,17.1999223
83,Kralja Petra I Karađorđevića,78000,44.7684250,17.1874314
99,Srpska,78000,44.7704091,17.1975955
101,Srpska,78000,44.7703716,17.1979496
185a,Bulevar vojvode Stepe Stepanovića,78000,44.7672834,17.2089802
30,Jevrejska,78000,44.7694380,17.1913935
1,Đure Daničića,78000,44.7692347,17.1917224
1,Filipa Macure,78000,44.7606466,17.1800157
23,Kozarska,78000,44.7603677,17.1802899
4,Miloša Obilića,78000,44.7625905,17.1907843
1,Bulevar vojvode Živojina Mišića,78000,44.7710046,17.1999108
23,Filipa Macure,78000,44.7613555,17.1772146
124,Bulevar Vojvode Stepe Stepanovića,78000,44.7656740,17.2066136
96,Gundulićeva,78000,44.7764552,17.2023280
94,Gundulićeva,78000,44.7763570,17.2024546
92,Gundulićeva,78000,44.7763073,17.2025769
8/XIII,Trg Republike Srpske,78000,44.7779972,17.1988476
9,Srpska,78000,44.7711831,17.1936714
34,Vase Pelagića,78000,44.7722968,17.1970111
38,Srpska,78000,44.7699128,17.1966473
1,Bana Milosavljevića,78000,44.7731151,17.1928657
2,Trg Krajine,78000,44.7696803,17.1897104
104,Gundulićeva,78000,44.7763774,17.2017233
21,Branka Majstorovića,78000,44.7692865,17.1846590
2,Jug Bogdana,78000,44.7603834,17.2001417
29,Dr Mladena Stojanovića,78000,44.7812646,17.1999975
4,Nikole Pašića,78000,44.7679647,17.1959160
bb,Ivana Gorana Kovačića,78000,44.8083788,17.1984982
bb,Subotička,78000,44.8093102,17.1976483
11,Isaije Mitrovića,78000,44.7651291,17.1850730
2,Kralja Petra I Karađorđevića,78000,44.7652971,17.1849623
38,Skendera Kulenovića,78000,44.7628004,17.1824839
1,Đure Daničića,78000,44.7689831,17.1908667
115,Kralja Petra I Karađorđevića,78000,44.7750110,17.1920519
9,Carice Milice,78000,44.7642425,17.1911455
bb,Duška Koščice,78000,44.7647856,17.1785641
37,Cara Lazara,78000,44.7603369,17.1926487
52,Krfska,78000,44.7580297,17.1936794
45,Cara Lazara,78000,44.7602629,17.1927203
21b,Cara Lazara,78000,44.7629154,17.1908599
51,Cara Lazara,78000,44.7601825,17.1927778
30,Cara Lazara,78000,44.7626938,17.1907101
23b,Cara Lazara,78000,44.7627263,17.1910450
26,Cara Lazara,78000,44.7629490,17.1904124
37,Miloša Obilića,78000,44.7613893,17.1885376
10b,Bulevar vojvode Živojina Mišića,78000,44.7720815,17.2117080
195,Karađorđeva,78000,44.7757732,17.1714092
81,Karađorđeva,78000,44.7734196,17.1764132
64,Karađorđeva,78000,44.7734959,17.1781603
44,Aleja Svetog Save,78000,44.7734242,17.1993335
32,Miše Stupara,78000,44.7720932,17.2026677
7,Ivana Franje Jukića,78000,44.7705498,17.1919010
4,Josifa Pančića,78000,44.7631783,17.2092505
22,Pave Radana,78000,44.7784799,17.1934359
16,Dragiše Vasića,78000,44.7800379,17.1936838
21,Kosovke Djevojke,78000,44.7593600,17.2108189
16,Sime Miljuša,78000,44.7614051,17.2068151
37,Prvog krajiškog korpusa,78000,44.7775666,17.1941228
3,Bulevar srpske vojske,78000,44.7754511,17.2068236
68,Gundulićeva,78000,44.7749352,17.2002761
78,Gundulićeva,78000,44.7756570,17.2009958
74,Gundulićeva,78000,44.7753316,17.2006713
80,Gundulićeva,78000,44.7758109,17.2011489
76,Gundulićeva,78000,44.7754867,17.2008252
72,Gundulićeva,78000,44.7751521,17.2004894
2,Trg Krajine,78000,44.7700807,17.1897226
72,Karađorđeva,78000,44.7736711,17.1772706
161,Ilije Garašanina,78000,44.7994705,17.2255370
38,Jovana Dučića,78000,44.7756538,17.1893231
46,Ivana Gorana Kovačića,78000,44.7962613,17.1983611
125,Krajiških brigada,78000,44.7788458,17.1858852
125,Krajiških brigada,78000,44.7788828,17.1859332
17,Milana Tepića,78000,44.7719121,17.1864434
48,Save Kovačevića,78000,44.7686839,17.2070295
20,Patrijarha Makarija Sokolovića,78000,44.7665785,17.1881013
9,Slobodana Kusturića,78000,44.7644091,17.2042577
13,Patrijarha Arsenija Čarnojevića,78000,44.7607740,17.1896799
24,Braće Jugovića,78000,44.7606650,17.1903349
31a,Braće Jugovića,78000,44.7596032,17.1884928
2,Krajiških brigada,78000,44.7735246,17.1817706
2,Krajiških brigada,78000,44.7742406,17.1818525
29,Cara Lazara,78000,44.7614953,17.1919809
4,Milana Karanovića,78000,44.7708085,17.2100247
39,Miloša Obilića,78000,44.7612786,17.1878839
1,Bulevar vojvode Živojina Mišića,78000,44.7709915,17.2001544
bb,Novice Cerovića,78000,44.7695880,17.1995649
5,Novice Cerovića,78000,44.7695262,17.1995203
5,Milana Karanovića,78000,44.7719494,17.2114147
19,Aleja Svetog Save,78000,44.7742698,17.2008077
11,Tržnička,78000,44.7681477,17.1914267
7,Marije Bursać,78000,44.7699403,17.1869794
1,Majke Jugovića,78000,44.7644249,17.2004199
4,Srđe Zlopogleđe,78000,44.7629691,17.1950733
22a,Franja Supila,78000,44.7812184,17.2083007
278,Branka Popovića,78000,44.8166075,17.2157220
30,Ranka Šipke,78000,44.7777105,17.1860766
87,Kralja Petra I Karađorđevića,78000,44.7693732,17.1880235
29,Braće Jugovića,78000,44.7600428,17.1889585
2,Carice Milice,78000,44.7636322,17.1904861
21,Cara Lazara,78000,44.7629766,17.1908117
21,Cara Lazara,78000,44.7630718,17.1907376
26,Dr. Mladena Stojanovića,78000,44.7835412,17.2033396
11,Dragiše Vasića,78000,44.7799774,17.1947192
8,Dragiše Vasića,78000,44.7802207,17.1942717
14,Dragiše Vasića,78000,44.7800108,17.1940915
17,Dragiše Vasića,78000,44.7798771,17.1946193
13,Dr Mladena Stojanovića,78000,44.7804467,17.1991131
3,Bana dr Todora Lazarevića,78000,44.7720929,17.1938574
1,Veselina Masleše,78000,44.7708581,17.1900335
1-3,Marije Bursać,78000,44.7696184,17.1878819
1,Patre,78000,44.7667950,17.1864480
26c,Dr. Mladena Stojanovića,78000,44.7834115,17.2028734
2-4,Srpska,78000,44.7714864,17.1921810
9,Ivana Franje Jukića,78000,44.7714566,17.1923112
8,Veselina Masleše,78000,44.7708050,17.1905026
174,Jovana Bijelića,78000,44.8237887,17.2087411
88,Bulevar vojvode Stepe Stepanovića,78000,44.7647749,17.2023682
8,Jevrejska,78000,44.7702448,17.1901534
6,Jevrejska,78000,44.7701048,17.1911399
6,Brace Potkonjaka,78000,44.7639960,17.1905981
43,Braće Mažar i majke Marije,78000,44.7691045,17.1831616
17a,Carice Milice,78000,44.7646380,17.1924297
16,Vilsonova,78000,44.7638019,17.1934409
1,Jevrejska,78000,44.7702559,17.1905131
37a,Kralja Alfonsa XIII,78000,44.7701164,17.1951575
12,Sime Šolaje,78000,44.7724477,17.1954700
29,Krajiških brigada,78000,44.7754133,17.1818902
2,Vojvođanska,78000,44.7816763,17.1895429
11,Carice Milice,78000,44.7643395,17.1920108
134,Bulevar vojvode Stepe Stepanovića,78000,44.7660920,17.2077785
110,Kralja Petra II,78000,44.7869125,17.1998017
6,Kralja Petra I Karađorđevića,78000,44.7653955,17.1850542
4,Gajeva,78000,44.7694827,17.1903321
19,Milana Kranovića,78000,44.7718680,17.2113140
48,Aleja Svetog Save,78000,44.7741006,17.2026847
1,Majke Jugovića,78000,44.7657619,17.2005757
3,Majke Jugovića,78000,44.7641457,17.2004640
bb,Ivana Gorana Kovačića,78000,44.7892898,17.2039052
74,Gundulićeva,78000,44.7751980,17.2005750
18,Manjačkih ustanika,78000,44.7512432,17.1595803
78a,Jovana Dučića,78000,44.7778220,17.1907391
25,Jovana Dučića,78000,44.7771421,17.1850690
31,Nikole Pašića,78000,44.7714577,17.1970720
107,Srpska,78000,44.7699287,17.1982789
93,Краља Петра I Карађорђевића,78000,44.7715286,17.1892594
1,Jesenjinova,78000,44.7526509,17.1652672
74c,Jovana Dučića,78000,44.7777112,17.1907872
2d,Dr Vojislava Đede Kecmanovića,78000,44.7649449,17.2116306
26,Igmanska,78000,44.7805519,17.1831779
10,Mirka Kovačevića,78000,44.7630383,17.1883250
175b,Bulevar Vojvode Stepe Stepanovića,78000,44.7661334,17.2057320
7,Kraljice Marije,78000,44.8009457,17.2072706
21A,Lazarička,78000,44.7854653,17.2021018
108,Gundulićeva,78000,44.7766076,17.2021749
bb,Vidovdanska,78000,44.7729752,17.1901556
7,Petra Preradovica,78000,44.7778879,17.1884179
310,Branka Popovića,78000,44.8181093,17.2167904
bb,Karađorđeva,78000,44.7729185,17.1780240
84,Gundulićeva,78000,44.7755540,17.2025370
27,Bulevar vojvode Živojina Mišića,78000,44.7714188,17.2045136
109,Petra Kočića,78000,44.7796397,17.1975927
bb,Masarikova,78000,44.7796595,17.1930023
29,Mirka Kovačevića,78000,44.7621985,17.1874435
2,Vladike Platona,78000,44.7744556,17.1974816
bb,Veljka Mlađenovića,78000,44.7755135,17.2207616
4,Braće Pišteljić,78000,44.7832120,17.2167076
26,Kralja Alfonsa XIII,78000,44.7701539,17.1948542
12a,Kralja Alfonsa XIII,78000,44.7704025,17.1928206
1c,Dunavska,78000,44.7872273,17.2138093
7,Vase Glušca,78000,44.7688954,17.1986767
29,Knjaza Miloša,78000,44.7960082,17.2062649
1A,Petra Mećave,78000,44.7765152,17.1779093
14,B. Marića,78000,44.7519024,17.1712115
99,Srpska,78000,44.7701017,17.1974810
29,Petra Rađenovića,78000,44.7773382,17.1875846
71,Kralja Petra II,78000,44.7879211,17.1994292
bb,Ivana Gorana Kovačića,78000,44.8094148,17.1986510
74b,Jovana Dučića,78000,44.7776320,17.1909291
108,Gundulićeva,78000,44.7766269,17.2020376
104,Krajiških brigada,78000,44.7814772,17.1862836
17,Manjačkih ustanika,78000,44.7511299,17.1596977
80,Bulevar vojvode Stepe Stepanovića,78000,44.7646323,17.2015462
62,Bulevar vojvode Stepe Stepanovića,78000,44.7644713,17.2008321
97,Bulevar vojvode Stepe Stepanovića,78000,44.7650231,17.2015189
34,Trive Amelice,78000,44.7859946,17.1979674
38,Trive Amelice,78000,44.7859424,17.1976924
3,Vladike Platona,78000,44.7753638,17.1970402
15,Slobodana Kusturića,78000,44.7638607,17.2028789
17,Slobodana Kusturića,78000,44.7635771,17.2031239
12,Slobodana Kusturića,78000,44.7631078,17.2034089
185,Bulevar vojvode Stepe Stepanovića,78000,44.7665855,17.2086893
4,Rakovačkih Rudara,78000,44.7940261,17.1925028
71,Petra Kočića,78000,44.7785443,17.1966203
27,Federika Garsije Lorke,78000,44.7780696,17.1875335
104,Vojvode Pere Krece,78000,44.7554939,17.1803524
132,Bulevar Vojvode Stepe Stepanovića,78000,44.7655263,17.2072373
9,Knjaza Miloša,78000,44.7919447,17.2049954
69,Aleja Svetog Save,78000,44.7757357,17.2052893
25,Jovana Dučića,78000,44.7762217,17.1868252
32,Srpska,78000,44.7704196,17.1950706
69,Aleja Svetog Save,78000,44.7750570,17.2054250
69,Aleja Svetog Save,78000,44.7749481,17.2053292
58,Jevrejska,78000,44.7685697,17.1969157
bb,Veljka Mlađenovića,78000,44.7736583,17.2253420
5,Dr Vojislava Đede Kecmanovića,78000,44.7632763,17.2106978
5f,Svetozara Markovića,78000,44.7782616,17.1917015
56,Branka Popovica,78000,44.8106957,17.2117218
56,Ivana Gorana Kovačića,78000,44.7973954,17.1981927
69,Aleja Svetog Save,78000,44.7758003,17.2057317
5,Kralja Alfonsa XIII,78000,44.7710929,17.1914351
2,Trg Krajine,78000,44.7702103,17.1896811
69,Aleja Svetog Save,78000,44.7749524,17.2054254
49,Pave Radana,78000,44.7789897,17.1918831
11,Vojvode Radomira Putnika,78000,44.7713380,17.1965652
24,Aleja Svetog Save,78000,44.7737625,17.1959068
2,Veselina Masleše,78000,44.7706213,17.1901433
126,Bulevar vojvode Stepe Stepanovića,78000,44.7657645,17.2063192
101,Bulevar vojvode Stepe Stepanovića,78000,44.7650249,17.2019284
19,Vojvode Radomira Putnika,78000,44.7711139,17.1975830
1,Jevrejska,78000,44.7704936,17.1898622
18,Aleja Svetog Save,78000,44.7736959,17.1952831
2,Trg Krajine,78000,44.7702494,17.1897955
7,Ivana Franje Jukića,78000,44.7706035,17.1919467
12,Aleja Svetog Save,78000,44.7737056,17.1944760
37,Braće Mažar i majke Marije,78000,44.7687840,17.1837978
18,Jevrejska,78000,44.7701845,17.1903046
12,Save Kovačevića,78000,44.7679104,17.2007504
1a,Sime Šolaje,78000,44.7732053,17.1939618
3,Gundulićeva,78000,44.7714548,17.1991682
2,Vojvode Radomira Putnika,78000,44.7709251,17.1962647
15,Slobodana Kusturića,78000,44.7640731,17.2027797
14,Save Mrkalja,78000,44.7728657,17.1866539
6,Vidovdanska,78000,44.7744616,17.1913362
30,Krajiških brigada,78000,44.7794602,17.1874489
98,Knjaza Miloša,78000,44.8030348,17.2085728
45,Brace Potkonjaka,78000,44.7612913,17.1924486
60,Knjaza Miloša,78000,44.8005749,17.2081090
16,Bulevar Desanke Maksimović,78000,44.7634906,17.2046323
bb,Pilanska,78000,44.7838907,17.2069793
175a,Bulevar vojvode Stepe Stepanovića,78000,44.7660812,17.2059150
161,Bulevar vojvode Stepe Stepanovića,78000,44.7657044,17.2045247
24,Majke Jugovića,78000,44.7635603,17.2003449
69,Aleja Svetog Save,78000,44.7748574,17.2059903
23a,Jovana Dučića,78000,44.7767385,17.1842048
5,Kozarska,78000,44.7613470,17.1812160
7,Kozarska,78000,44.7611492,17.1811993
23a,Jovana Dučića,78000,44.7761995,17.1834949
25,Skendera Kulenovića,78000,44.7647097,17.1843768
12,Kralja Petra I Karađorđevića,78000,44.7658179,17.1855656
23b,Cara Lazara,78000,44.7627593,17.1911476
25c,Jovice Savanovića,78000,44.7852949,17.1921451
48,Braće Mažar i Majke Marije,78000,44.7680621,17.1860512
84,Krfska,78000,44.7581876,17.1942444
23,Majke Jugovića,78000,44.7630525,17.2010798
18,Bulevar Desanke Maksimović,78000,44.7634130,17.2044067
96,Gundulićeva,78000,44.7765403,17.2022355
10,Rade Vranješević,78000,44.7699783,17.2081793
8,Rade Vranješević,78000,44.7698964,17.2078386
7A,Aleja Svetog Save,78000,44.7743342,17.1980669
81,Bulevar vojvode Živojina Mišića,78000,44.7732001,17.2080297
79,Bulevar vojvode Živojina Mišića,78000,44.7729886,17.2081283
77,Bulevar vojvode Živojina Mišića,78000,44.7727789,17.2081867
75,Bulevar vojvode Živojina Mišića,78000,44.7725972,17.2082639
25,Jovana Dučića,78000,44.7770264,17.1860327
15,Prvog krajiškog korpusa,78000,44.7769208,17.1933346
39,Njegoševa,78000,44.7826145,17.1920473
18,Zmaj Jovina,78000,44.7695741,17.1846038
18,Đure Jakšića,78000,44.7667571,17.1821930
1,Vuka Karadžića,78000,44.7759205,17.1886951
80c,Ranka Šipke,78000,44.7809403,17.1852586
69,Aleja Svetog Save,78000,44.7750266,17.2057959
3,Ive Andrića,78000,44.7738689,17.1859544
2,Njegoševa,78000,44.7805788,17.1918320
30,Jevrejska,78000,44.7694183,17.1915005
185,Bulevar Vojvode Stepe Stepanovića,78000,44.7669723,17.2088178
2,Vidovdanska,78000,44.7739640,17.1908575
31,Cara Lazara,78000,44.7613373,17.1921409
70,Aleja Svetog Save,78000,44.7739108,17.2008177
51d,Milana Karanovića,78000,44.7700976,17.2114859
14a,Bulevar srpske vojske,78000,44.7858754,17.2062675
14a,Bulevar srpske vojske,78000,44.7860827,17.2062581
22,Kalemegdanska,78000,44.7585605,17.1923625
7,Braće Mažar i majke Marije,78000,44.7676218,17.1864646
71,Kralja Petra II,78000,44.7879260,17.1992989
4,Gavre Vučkovića,78000,44.7680395,17.1992186
124,Knjaza Miloša,78000,44.8038974,17.2089425
70,Knjaza Miloša,78000,44.8011341,17.2082028
bb,Krajiskih Brigada,78000,44.7803336,17.1877471
30,Bana Milosavljevića,78000,44.7734222,17.1937291
37,Gavrila Principa,78000,44.7563291,17.1890837
99,Kralja Petra I Karađorđevića,78000,44.7735298,17.1911089
12,Miše Stupara,78000,44.7718767,17.2005642
50,Braće Mažar i majke Marije,78000,44.7681273,17.1857804
13,Maksima Gorkog,78000,44.7764006,17.1812662
19,Prvog krajiškog korpusa,78000,44.7772315,17.1936859
bb,Svetozara Markovića,78000,44.7779547,17.1927917
175,Bulevar vojvode Stepe Stepanovića,78000,44.7658246,17.2050213
26,Dr Mladena Stojanovića,78000,44.7834814,17.2030157
49,Karađorđeva,78000,44.7730103,17.1784207
45,Braće Potkonjaka,78000,44.7611943,17.1924964
5,Svetozara Markovića,78000,44.7777146,17.1920651
24,Srpska,78000,44.7709279,17.1937842
26,Srpska,78000,44.7709508,17.1937092
26a,Srpska,78000,44.7709690,17.1936584
28,Patrijarha Arsenija Čarnojevića,78000,44.7595064,17.1889871
22,Marka Kraljevića,78000,44.7589105,17.1939074
76,Krfska,78000,44.7576230,17.1946843
23,Cara Lazara,78000,44.7628172,17.1909353
24,Gavrila Principa,78000,44.7576450,17.1864867
17,Jug Bogdana,78000,44.7616817,17.2008475
76,Braće Jugovića,78000,44.7594929,17.1875747
67,Braće Jugovića,78000,44.7586741,17.1864550
26,Braće Jugovića,78000,44.7606178,17.1902086
35,Braće Jugovića,78000,44.7595839,17.1881562
1,Milana Karanovića,78000,44.7720169,17.2105651
14,Save Mrkalja,78000,44.7727731,17.1869476
83,Kralja Petra I Karađorđevića,78000,44.7688410,17.1875919
9,Jasenovačkih logoraša,78000,44.7638353,17.1981241
1,Dunavska,78000,44.7862583,17.2174824
50,Jevrejska,78000,44.7683055,17.1956080
203b,Ivana Gorana Kovačića,78000,44.8066844,17.1976178
108,Jug Bogdana,78000,44.7643639,17.2087570
28,Cara Lazara,78000,44.7628028,17.1905529
46,Miloša Obilića,78000,44.7612254,17.1869239
48,Miloša Obilića,78000,44.7613324,17.1866675
50,Miloša Obilića,78000,44.7609484,17.1863559
52,Miloša Obilića,78000,44.7610669,17.1860787
54,Miloša Obilića,78000,44.7606843,17.1857731
56,Miloša Obilića,78000,44.7608079,17.1854950
58,Miloša Obilića,78000,44.7604095,17.1852478
60,Miloša Obilića,78000,44.7605339,17.1849670
153a,Dr Jovana Raškovića,78000,44.7850295,17.1734762
24,Marka Kraljevića,78000,44.7591640,17.1936763
22,Marka Kraljevića,78000,44.7589568,17.1940656
20,Marka Kraljevića,78000,44.7590409,17.1942824
18,Marka Kraljevića,78000,44.7591292,17.1945108
16,Marka Kraljevića,78000,44.7592200,17.1947464
14,Marka Kraljevića,78000,44.7593121,17.1949828
30,Banović Strahinje,78000,44.7579288,17.1876105
28,Banović Strahinje,78000,44.7580465,17.1874991
26,Banović Strahinje,78000,44.7581711,17.1873810
20,Banović Strahinje,78000,44.7580304,17.1879667
22,Banović Strahinje,78000,44.7581586,17.1878519
24,Banović Strahinje,78000,44.7582813,17.1877420
8,Banović Strahinje,78000,44.7584062,17.1888594
10,Banović Strahinje,78000,44.7585505,17.1887477
12,Banović Strahinje,78000,44.7586915,17.1886385
18,Banović Strahinje,78000,44.7583320,17.1884558
16,Banović Strahinje,78000,44.7584623,17.1883435
14,Banović Strahinje,78000,44.7585832,17.1882384
18,Majke Jugovića,78000,44.7639900,17.2001275
20,Majke Jugovića,78000,44.7638491,17.2002075
2,Trg Krajine,78000,44.7701418,17.1896558
7,Slobodana Kusturića,78000,44.7635880,17.2019191
19,Cara Lazara,78000,44.7633829,17.1909032
7,Slobodana Kusturića,78000,44.7636531,17.2022510
10,Bulevar Desanke Maksimović,78000,44.7638770,17.2057545
2,Jevrejska,78000,44.7703598,17.1898741
7,Kralja Alfonsa XIII,78000,44.7710459,17.1915686
2,Carice Milice,78000,44.7636206,17.1904035
4,Carice Milice,78000,44.7636971,17.1906046
3,Gavrila Principa,78000,44.7593744,17.1854314
5,Gavrila Principa,78000,44.7591531,17.1856375
7,Gavrila Principa,78000,44.7593203,17.1861841
9,Gavrila Principa,78000,44.7594654,17.1864923
11,Gavrila Principa,78000,44.7599110,17.1865855
13,Gavrila Principa,78000,44.7596936,17.1867835
72,Braće Jugovića,78000,44.7604393,17.1872115
74,Braće Jugovića,78000,44.7602991,17.1869083
2c,Dr Vojislava Đede Kecmanovića,78000,44.7652823,17.2117959
21a,Milana Karanovića,78000,44.7718260,17.2101975
19,Boška Tošića,78000,44.7622788,17.1991439
45,Milana Karanovića,78000,44.7700404,17.2104475
7,Braće Jugovića,78000,44.7602192,17.1907046
9,Braće Jugovića,78000,44.7601365,17.1904510
3,Braće Jugovića,78000,44.7608704,17.1914221
5,Braće Jugovića,78000,44.7608021,17.1912211
1,Prve krajiške brigade narodne odbrane,78000,44.7591034,17.2050441
15,Sime Šolaje,78000,44.7727353,17.1954248
17,Sime Šolaje,78000,44.7726700,17.1956863
8,Sime Šolaje,78000,44.7726358,17.1950008
10,Sime Šolaje,78000,44.7725782,17.1952220
12,Sime Šolaje,78000,44.7725209,17.1954382
14,Sime Šolaje,78000,44.7724690,17.1956514
16,Sime Šolaje,78000,44.7724220,17.1958432
84,Krfska,78000,44.7581521,17.1942636
86,Krfska,78000,44.7579428,17.1944689
88,Krfska,78000,44.7580857,17.1943958
90,Krfska,78000,44.7582387,17.1944019
92,Krfska,78000,44.7584075,17.1948625
94,Krfska,78000,44.7582724,17.1949393
96,Krfska,78000,44.7580770,17.1948714
106,Krfska,78000,44.7582037,17.1954802
108,Krfska,78000,44.7583495,17.1954026
110,Krfska,78000,44.7585461,17.1954446
112,Krfska,78000,44.7586948,17.1959129
114,Krfska,78000,44.7585578,17.1959832
116,Krfska,78000,44.7583448,17.1959506
126,Krfska,78000,44.7585239,17.1965903
128,Krfska,78000,44.7586681,17.1965203
130,Krfska,78000,44.7588489,17.1965530
76,Krfska,78000,44.7575837,17.1947942
78,Krfska,78000,44.7574222,17.1947618
80,Krfska,78000,44.7575594,17.1951412
82,Krfska,78000,44.7577240,17.1951636
53,Srđe Zlopogleđe,78000,44.7607299,17.1964642
2,Vojvode Pere Krece,78000,44.7598842,17.1840878
13,Vojvode Pere Krece,78000,44.7561948,17.1843045
1,Patrijarha Arsenija Čarnojevića,78000,44.7612233,17.1892761
3,Patrijarha Arsenija Čarnojevića,78000,44.7610578,17.1894072
5,Patrijarha Arsenija Čarnojevića,78000,44.7610753,17.1888998
7,Patrijarha Arsenija Čarnojevića,78000,44.7609120,17.1890285
9,Patrijarha Arsenija Čarnojevića,78000,44.7609085,17.1885102
11,Patrijarha Arsenija Čarnojevića,78000,44.7607409,17.1886426
6,Starine Novaka,78000,44.7597263,17.1906498
8,Starine Novaka,78000,44.7596589,17.1904492
2,Kozarska,78000,44.7614612,17.1808000
4,Kozarska,78000,44.7613772,17.1807101
6,Kozarska,78000,44.7612931,17.1806201
8,Kozarska,78000,44.7610487,17.1803690
10,Kozarska,78000,44.7609660,17.1802837
12,Kozarska,78000,44.7608832,17.1801984
20,Kozarska,78000,44.7599339,17.1793695
22,Kozarska,78000,44.7597838,17.1792713
27,Kozarska,78000,44.7601352,17.1802142
27a,Kozarska,78000,44.7600645,17.1800937
27b,Kozarska,78000,44.7599558,17.1800128
61 A,Kozarska,78000,44.7574765,17.1784307
61 B,Kozarska,78000,44.7573440,17.1783005
32,Cara Lazara,78000,44.7620278,17.1911519
34,Cara Lazara,78000,44.7618661,17.1912842
36,Cara Lazara,78000,44.7616551,17.1913236
38,Cara Lazara,78000,44.7615247,17.1914282
25,Cara Lazara,78000,44.7619761,17.1917297
27,Cara Lazara,78000,44.7618188,17.1918578
21,Cara Lazara,78000,44.7630174,17.1907598
23,Cara Lazara,78000,44.7628735,17.1908712
12,Cara Lazara,78000,44.7641742,17.1891722
14,Cara Lazara,78000,44.7640237,17.1893303
6,Veselina Masleše,78000,44.7707425,17.1903904
10,Veselina Masleše,78000,44.7708923,17.1906862
10,Veselina Masleše,78000,44.7709754,17.1908510
18,Veselina Masleše,78000,44.7712653,17.1913355
22,Veselina Masleše,78000,44.7713878,17.1915179
24,Veselina Masleše,78000,44.7714326,17.1915790
24,Veselina Masleše,78000,44.7714644,17.1916310
26,Veselina Masleše,78000,44.7715139,17.1917028
28,Veselina Masleše,78000,44.7715654,17.1917790
28,Veselina Masleše,78000,44.7716246,17.1918852
27,Veselina Masleše,78000,44.7714820,17.1913548
25,Veselina Masleše,78000,44.7713964,17.1912747
21,Veselina Masleše,78000,44.7712345,17.1910310
13,Veselina Masleše,78000,44.7710683,17.1907218
11,Veselina Masleše,78000,44.7710275,17.1906410
5,Veselina Masleše,78000,44.7709283,17.1904480
5,Veselina Masleše,78000,44.7709608,17.1905117
60,Kralja Petra I Karađorđevića,78000,44.7696897,17.1888485
60,Kralja Petra I Karađorđevića,78000,44.7693652,17.1885249
50,Kralja Petra I Karađorđevića,78000,44.7687889,17.1879868
81,Kralja Petra I Karađorđevića,78000,44.7682197,17.1872583
1,Bulevar cara Dušana,78000,44.7684881,17.1872150
3,Bulevar cara Dušana,78000,44.7685657,17.1870506
5,Bulevar cara Dušana,78000,44.7686352,17.1869000
7,Bulevar cara Dušana,78000,44.7687066,17.1867383
108,Jug Bogdana,78000,44.7644975,17.2088062
109,Srpska,78000,44.7698958,17.1983837
52,Srpska,78000,44.7697887,17.1977722
113,Jevrejska,78000,44.7687790,17.1973339
108,Jevrejska,78000,44.7687810,17.1969870
15a,Vojvode Radomira Putnika,78000,44.7712552,17.1969727
50,Jevrejska,78000,44.7686635,17.1958177
25A,Nikole Pašića,78000,44.7707126,17.1967906
18,Nikole Pašića,78000,44.7688906,17.1961360
97,Kralja Petra I Karađorđevića,78000,44.7730247,17.1910542
7,Bana dr Todora Lazarevića,78000,44.7719580,17.1942612
32,Grčka,78000,44.7742570,17.1881878
30,Grčka,78000,44.7741228,17.1885528
22,Jevrejska,78000,44.7699237,17.1909863
129,Kralja Petra I Karađorđevića,78000,44.7771018,17.1953985
1,Jevrejska,78000,44.7704560,17.1914715
69,Jevrejska,78000,44.7701402,17.1920093
40,Pave Radana,78000,44.7792649,17.1916226
54,Prvog krajiškog korpusa,78000,44.7776519,17.1949164
14,Veselina Masleše,78000,44.7711940,17.1912346
89,Jevrejska,78000,44.7691819,17.1939617
69,Jevrejska,78000,44.7697425,17.1922523
2,Kralja Alfonsa XIII,78000,44.7709962,17.1913805
bb,Jevrejska,78000,44.7701856,17.1912594
2,Jevrejska,78000,44.7697425,17.1919001
28,Jevrejska,78000,44.7697548,17.1914529
40,Vase Pelagića,78000,44.7726310,17.1965726
3,Jevrejska,78000,44.7703956,17.1901108
4,Veselina Masleše,78000,44.7705920,17.1900598
26,Aleja Svetog Save,78000,44.7737348,17.1964345
3,Veselina Masleše,78000,44.7709022,17.1904067
1,Jevrejska,78000,44.7703017,17.1903408
10,Aleja Svetog Save,78000,44.7737036,17.1943597
2a,Aleja Svetog Save,78000,44.7737043,17.1940288
18,Vase Pelagića,78000,44.7719027,17.1960574
2,Veselina Masleše,78000,44.7705601,17.1900022
15,Vase Pelagića,78000,44.7726208,17.1959138
14,Jevrejska,78000,44.7702136,17.1902352
20,Jevrejska,78000,44.7701013,17.1904843
34,Bana Milosavljevića,78000,44.7735031,17.1937975
6,Aleja Svetog Save,78000,44.7737074,17.1942126
22,Jevrejska,78000,44.7699854,17.1908206
70,Kralja Petra I Karađorđevića,78000,44.7714439,17.1904938
68,Kralja Petra I Karađorđevića,78000,44.7713655,17.1904199
74,Kralja Petra I Karađorđevića,78000,44.7716733,17.1907264
3,Veselina Masleše,78000,44.7709698,17.1901620
6,Jevrejska,78000,44.7702859,17.1900360
72,Kralja Petra I Karađorđevića,78000,44.7715914,17.1906522
93,Kralja Petra I Karađorđevića,78000,44.7713503,17.1898510
2,Trg Krajine,78000,44.7697478,17.1898232
2,Trg Krajine,78000,44.7698505,17.1897216
2,Trg Krajine,78000,44.7698866,17.1897833
2,Trg Krajine,78000,44.7701125,17.1898259
2,Trg Krajine,78000,44.7695926,17.1898421
2,Trg Krajine,78000,44.7696341,17.1896825
2,Trg Krajine,78000,44.7696084,17.1900279
2,Trg Krajine,78000,44.7696027,17.1899508
2,Trg Krajine,78000,44.7700032,17.1897275
2,Trg Krajine,78000,44.7696486,17.1897707
2,Trg Krajine,78000,44.7697990,17.1900255
2,Trg Krajine,78000,44.7699655,17.1899356
2,Trg Krajine,78000,44.7697229,17.1900330
9a,Cara Lazara,78000,44.7640825,17.1898142
2,Trg Krajine,78000,44.7693276,17.1899370
5,Gajeva,78000,44.7688602,17.1897977
11,Cara Lazara,78000,44.7639591,17.1898314
2,Carice Milice,78000,44.7635522,17.1903317
2,Trg Krajine,78000,44.7694515,17.1900262
3,Carice Milice,78000,44.7638306,17.1903013
36,Bulevar vojvode Stepe Stepanovića,78000,44.7632716,17.1959341
26,Kralja Alfonsa XIII,78000,44.7698872,17.1942722
99,Jevrejska,78000,44.7689613,17.1953319
44,Jevrejska,7800,44.7688390,17.1948021
2,Jovana Dučića,78000,44.7712874,17.1856512
87,Kralja Petra I Karađorđevića,78000,44.7694939,17.1881273
2,Marije Bursać,78000,44.7700457,17.1872877
14,Zmaj Jovina,78000,44.7689688,17.1840413
2,Jovana Dučića,78000,44.7714554,17.1855699
11,Marije Bursać,78000,44.7706188,17.1852981
18,Zmaj Jovina,78000,44.7694256,17.1844860
1a,Kninska,78000,44.7696093,17.1868524
12,Manjačkih ustanika,78000,44.7513424,17.1595466
14,Manjačkih ustanika,78000,44.7512643,17.1594045
2,Kolubarska,78000,44.7600682,17.1804352
4,Kolubarska,78000,44.7600221,17.1805517
6,Kolubarska,78000,44.7599681,17.1806748
5,Kralja Petra I Karađorđevića,78000,44.7662004,17.1846291
5,Kralja Petra I Karađorđevića,78000,44.7660031,17.1844592
8,Brace Potkonjaka,78000,44.7632073,17.1912000
56,Jesenjinova,78000,44.7521621,17.1619437
4,Zdrave Korde,78000,44.7724142,17.1846717
4,Zdrave Korde,78000,44.7722418,17.1846042
2,Carice Milice,78000,44.7635789,17.1903473
22,Cara Lazara,78000,44.7630876,17.1903478
24,Cara Lazara,78000,44.7629849,17.1904307
26,Cara Lazara,78000,44.7628507,17.1905389
1,Kalemegdanska,78000,44.7591250,17.1928984
3,Kalemegdanska,78000,44.7590107,17.1925615
12,Kalemegdanska,78000,44.7587748,17.1920114
14,Kalemegdanska,78000,44.7586586,17.1916699
42,Cara Lazara,78000,44.7600389,17.1924235
44,Cara Lazara,78000,44.7599421,17.1923613
46,Cara Lazara,78000,44.7598149,17.1922958
2,Marka Kraljevića,78000,44.7604211,17.1936206
4,Marka Kraljevića,78000,44.7603259,17.1936904
6,Marka Kraljevića,78000,44.7602288,17.1937735
8,Marka Kraljevića,78000,44.7599583,17.1940337
10,Marka Kraljevića,78000,44.7600202,17.1941705
12,Marka Kraljevića,78000,44.7600783,17.1943086
2,Srpskih ustanika,78000,44.7599549,17.1994767
23,Brace Potkonjaka,78000,44.7629698,17.1919126
8,Mihaila Petrovića Alasa,78000,44.8122222,17.1902608
12,Starine Novaka,78000,44.7592030,17.1896810
5,Kalemegdanska,78000,44.7588688,17.1930711
7,Kalemegdanska,78000,44.7587871,17.1930942
9,Kalemegdanska,78000,44.7587220,17.1928896
52,Cara Lazara,78000,44.7588989,17.1931832
6,Solunska,78000,44.7651674,17.1834429
22,Carice Milice,78000,44.7636894,17.1918024
24,Carice Milice,78000,44.7635085,17.1919124
26,Carice Milice,78000,44.7632780,17.1921082
28,Carice Milice,78000,44.7630800,17.1922208
30,Carice Milice,78000,44.7629790,17.1927439
32,Carice Milice,78000,44.7630438,17.1929799
34,Carice Milice,78000,44.7633218,17.1929289
36,Carice Milice,78000,44.7635123,17.1928190
38,Carice Milice,78000,44.7636646,17.1923737
40,Carice Milice,78000,44.7637313,17.1926071
3,Bulevar vojvode Stepe Stepanovića,78000,44.7626210,17.1922423
5,Bulevar vojvode Stepe Stepanovića,78000,44.7626686,17.1924301
27,Carice Milice,78000,44.7644674,17.1934386
29,Carice Milice,78000,44.7646553,17.1933265
31,Carice Milice,78000,44.7645102,17.1938332
33,Carice Milice,78000,44.7645940,17.1941041
35,Carice Milice,78000,44.7645768,17.1945387
37,Carice Milice,78000,44.7646448,17.1947577
39,Carice Milice,78000,44.7646508,17.1952017
41,Carice Milice,78000,44.7647174,17.1954247
44,Carice Milice,78000,44.7640272,17.1934760
46,Carice Milice,78000,44.7640939,17.1937014
48,Carice Milice,78000,44.7641067,17.1941377
50,Carice Milice,78000,44.7641731,17.1943613
52,Carice Milice,78000,44.7641708,17.1947647
54,Carice Milice,78000,44.7642415,17.1949903
56,Carice Milice,78000,44.7642620,17.1954201
58,Carice Milice,78000,44.7640657,17.1955441
31,Bulevar vojvode Stepe Stepanovića,78000,44.7635734,17.1954662
33,Bulevar vojvode Stepe Stepanovića,78000,44.7636478,17.1957034
5,Vilsonova,78000,44.7638499,17.1930665
7,Vilsonova,78000,44.7640117,17.1929698
9,Carice Milice,78000,44.7644053,17.1914278
12/1,Stojana Novakovića,78000,44.7540663,17.1749361
12/2,Stojana Novakovića,78000,44.7539353,17.1751066
12/3,Stojana Novakovića,78000,44.7540265,17.1753494
10 A,Isidore Sekulić,78000,44.7544800,17.1770092
10 B,Isidore Sekulić,78000,44.7543777,17.1767912
2,Mirka Kovačevića,78000,44.7636700,17.1897390
7,Cara Lazara,78000,44.7643361,17.1899762
9,Cara Lazara,78000,44.7641966,17.1900834
4,Kosovke Djevojke,78000,44.7609234,17.2099168
22,Srpskih ustanika,78000,44.7581184,17.2056641
50,Kralja Petra I Karađorđevića,78000,44.7686699,17.1883982
41a,Milana Karanovića,78000,44.7709326,17.2104758
41b,Milana Karanovića,78000,44.7709311,17.2107048
2,Srpskih ustanika,78000,44.7599708,17.1993976
40,Majke Jugovića,78000,44.7622881,17.2004024
22,Braće Jugovića,78000,44.7608071,17.1907041
1,Bulevar vojvode Petra Bojovića,78000,44.7694796,17.2108489
bb,Jovana Bijelića,78000,44.8288057,17.2100125
48,Majke Jugovića,78000,44.7617735,17.1996456
93,Bulevar vojvode Stepe Stepanovića,78000,44.7648063,17.2004312
40,Majke Jugovića,78000,44.7624904,17.2003169
20,Majke Jugovića,78000,44.7637390,17.2002545
149,Bulevar vojvode Stepe Stepanovića,78000,44.7654991,17.2035699
15,Branka Ćopića,78000,44.7763773,17.2033268
1,Carice Milice,78000,44.7637647,17.1901464
1a,Bulevar vojvode Petra Bojovića,78000,44.7752639,17.2083953
9,Beogradska,78000,44.7700662,17.2032408
11,Novice Cerovića,78000,44.7692922,17.2002674
177,Bulevar vojvode Stepe Stepanovića,78000,44.7661458,17.2064041
21,Novice Cerovića,78000,44.7682604,17.2009207
55,Dragiše Vasića,78000,44.7801523,17.1938221
16,Dragiše Vasića,78000,44.7799766,17.1938382
89,Srđe Zlopogleđe,78000,44.7607334,17.1928533
10,Sime Matavulja,78000,44.7728493,17.1826184
41G,Branka Popovića,78000,44.8069293,17.2077903
59,Aleja Svetog Save,78000,44.7743628,17.2017081
68,Jovana Dučića,78000,44.7772199,17.1902371
1,Marka Kraljevića,78000,44.7604305,17.1942606
3,Marka Kraljevića,78000,44.7604972,17.1944229
5,Marka Kraljevića,78000,44.7605572,17.1945731
7,Marka Kraljevića,78000,44.7601958,17.1948961
9,Marka Kraljevića,78000,44.7601009,17.1949800
11,Marka Kraljevića,78000,44.7599820,17.1950748
13,Marka Kraljevića,78000,44.7598657,17.1951747
15,Marka Kraljevića,78000,44.7597660,17.1952590
17,Marka Kraljevića,78000,44.7596722,17.1953464
19,Marka Kraljevića,78000,44.7595848,17.1954438
21,Marka Kraljevića,78000,44.7593071,17.1957075
23,Marka Kraljevića,78000,44.7594127,17.1959041
18,Zmaj Jovina,78000,44.7697003,17.1847172
19,Bulevar cara Dušana,78000,44.7693392,17.1854493
9,Bulevar cara Dušana,78000,44.7689587,17.1861359
11,Bulevar cara Dušana,78000,44.7688767,17.1858667
13,Bulevar cara Dušana,78000,44.7689231,17.1856458
15,Bulevar cara Dušana,78000,44.7690099,17.1854595
19,Bulevar cara Dušana,78000,44.7691885,17.1851876
17,Bulevar cara Dušana,78000,44.7692815,17.1854344
21,Bulevar cara Dušana,78000,44.7692383,17.1849685
23,Bulevar cara Dušana,78000,44.7693232,17.1847850
17,Bulevar cara Dušana,78000,44.7692184,17.1853375
3,Bulevar cara Dušana,78000,44.7685800,17.1870979
81,Kralja Petra I Karađorđevića,78000,44.7680797,17.1871267
bb,Tržnička,78000,44.7677250,17.1907663
91,Kralja Petra I Karađorđevića,78000,44.7709506,17.1894175
91,Kralja Petra I Karađorđevića,78000,44.7710592,17.1895412
91,Kralja Petra I Karađorđevića,78000,44.7711280,17.1896125
27,Milana Tepića,78000,44.7719914,17.1862220
177,Bulevar vojvode Stepe Stepanovića,78000,44.7661232,17.2062745
13,Kralja Petra I Karađorđevića,78000,44.7668709,17.1861040
1,Braće Pišteljić,78000,44.7849349,17.2134793
7,Aleja Svetog Save,78000,44.7742055,17.1978948
9,Simeuna Đaka,78000,44.7671871,17.1837897
14,Kralja Petra I Karađorđevića,78000,44.7660955,17.1857857
7,Kralja Nikole,78000,44.7666702,17.1836788
9,Kralja Nikole,78000,44.7665892,17.1836425
11,Kralja Nikole,78000,44.7665018,17.1835987
61,Bulevar vojvode Stepe Stepanovića,78000,44.7642703,17.1987250
61,Bulevar vojvode Stepe Stepanovića,78000,44.7644760,17.1986895
bb,Kozarska,78000,44.7590025,17.1788547
18,Sime Matavulja,78000,44.7721397,17.1823018
8,Bulevar srpske vojske,78000,44.7793656,17.2082231
13,Dr Mladena Stojanovića,78000,44.7808239,17.1995260
4,Marije Bursać,78000,44.7703072,17.1868690
4,Marije Bursać,78000,44.7702425,17.1870465
bb,Prote Nikole Kostića,78000,44.7902627,17.2057289
17,Cara Lazara,78000,44.7637669,17.1900556
bb,Bulevar vojvode Živojina Mišića,78000,44.7714268,17.2052814
27,Bulevar vojvode Živojina Mišića,78000,44.7714174,17.2052381
6,Nedeljka i Boška Babića,78000,44.7859369,17.2338933
46,Kralja Petra I Karađorđevića,78000,44.7677378,17.1873230
161,Bulevar vojvode Stepe Stepanovića,78000,44.7657274,17.2046310
82a,Bulevar vojvode Stepe Stepanovića,78000,44.7647106,17.2018807
92,Kralja Petra I Karađorđevića,78000,44.7769810,17.1976396
7,Dr Mladena Stojanovića,78000,44.7800494,17.1986433
11a,Dr Mladena Stojanovića,78000,44.7806329,17.1992423
15,Dr Mladena Stojanovića,78000,44.7809089,17.1996513
43-45,Dr Mladena Stojanovića,78000,44.7816941,17.2004559
bb,Dr Mladena Stojanovića,78000,44.7792042,17.2019305
bb,Dr Mladena Stojanovića,78000,44.7793304,17.2021215
10,Dr Mladena Stojanovića,78000,44.7800599,17.2021635
48,Krfska,78000,44.7572326,17.1931160
44,Krfska,78000,44.7577433,17.1930498
46,Krfska,78000,44.7575316,17.1931646
10,Svetozara Markovića,78000,44.7777352,17.1926935
66,Jug Bogdana,78000,44.7605689,17.2007046
52,Cara Lazara,78000,44.7589653,17.1931593
52,Cara Lazara,78000,44.7588414,17.1932354
42,Cara Lazara,78000,44.7601342,17.1924112
20,Cara Lazara,78000,44.7634586,17.1900270
1,Bulevar vojvode Stepe Stepanovića,78000,44.7622955,17.1915265
12,Bulevar vojvode Stepe Stepanovića,78000,44.7623931,17.1927370
25,Braće Jugovića,78000,44.7602319,17.1893925
23,Braće Jugovića,78000,44.7601781,17.1896352
97,Kralja Petra I Karađorđevića,78000,44.7728773,17.1911024
14,Đure Daničića,78000,44.7691012,17.1922544
20,Kalemegdanska,78000,44.7584400,17.1923841
20,Kalemegdanska,78000,44.7585226,17.1922260
16,Kalemegdanska,78000,44.7583676,17.1922644
19,Boška Tošića,78000,44.7624882,17.1990186
19,Boška Tošića,78000,44.7624014,17.1991017
19a,Boška Tošića,78000,44.7621647,17.1992120
18,Kalemegdanska,78000,44.7583330,17.1921443
16,Kalemegdanska,78000,44.7582976,17.1920020
2,Milovana Glišića,78000,44.7618595,17.1894654
8,Braće Čubrilovića,78000,44.7631629,17.1876378
10a,Gavrila Principa,78000,44.7582279,17.1858723
7,Kalemegdanska,78000,44.7586356,17.1931674
73,Cara Lazara,78000,44.7595285,17.1932006
73,Cara Lazara,78000,44.7594873,17.1932333
35,Cara Lazara,78000,44.7603886,17.1926264
8,Teodora Kolokotronisa,78000,44.7670281,17.1884270
15b,Bulevar srpske vojske,78000,44.7808799,17.2050024
104,Jug Bogdana,78000,44.7632519,17.2058921
106,Jug Bogdana,78000,44.7633406,17.2061408
96,Jug Bogdana,78000,44.7627126,17.2048090
98,Jug Bogdana,78000,44.7628143,17.2050373
100,Jug Bogdana,78000,44.7629098,17.2052372
102,Jug Bogdana,78000,44.7630003,17.2053363
92,Jug Bogdana,78000,44.7624989,17.2041673
94,Jug Bogdana,78000,44.7625869,17.2044009
78,Jug Bogdana,78000,44.7611562,17.2014720
78,Jug Bogdana,78000,44.7612032,17.2014025
76,Jug Bogdana,78000,44.7612625,17.2012512
74,Jug Bogdana,78000,44.7611935,17.2008211
72,Jug Bogdana,78000,44.7610894,17.2007399
42,Majke Jugovića,78000,44.7621025,17.2003924
2,Boška Tošića,78000,44.7629221,17.1990794
4,Boška Tošića,78000,44.7627287,17.1988595
21,Rajka Bosnića,78000,44.7570004,17.2119960
29,Braće Jugovića,78000,44.7601198,17.1891458
15b,Bulevar srpske vojske,78000,44.7807888,17.2047650
15a,Bulevar srpske vojske,78000,44.7803381,17.2049092
42,Krfska,78000,44.7578548,17.1928008
34,Bulevar vojvode Stepe Stepanovića,78000,44.7632117,17.1957794
40,Bulevar vojvode Stepe Stepanovića,78000,44.7633202,17.1961186
61,Bulevar vojvode Stepe Stepanovića,78000,44.7642933,17.1987883
59,Bulevar vojvode Stepe Stepanovića,78000,44.7642297,17.1982409
1a,Petra Mećave,78000,44.7766381,17.1779053
35,Braće Mažar i majke Marije,78000,44.7687080,17.1840091
132,Bulevar vojvode Stepe Stepanovića,78000,44.7659381,17.2071572
132,Bulevar vojvode Stepe Stepanovića,78000,44.7658572,17.2071973
134,Bulevar vojvode Stepe Stepanovića,78000,44.7660512,17.2075641
185a,Bulevar vojvode Stepe Stepanovića,78000,44.7670107,17.2090683
57,Meše Selimovića,78000,44.7695364,17.1817563
5,Marije Bursać,78000,44.7697904,17.1875193
4,Slobodana Kusturića,78000,44.7629394,17.2023963
82a,Bulevar vojvode Stepe Stepanovića,78000,44.7646713,17.2019560
82a,Bulevar vojvode Stepe Stepanovića,78000,44.7646018,17.2020301
64,Bulevar vojvode Stepe Stepanovića,78000,44.7645823,17.2011813
64,Bulevar vojvode Stepe Stepanovića,78000,44.7645446,17.2009543
86a,Bulevar vojvode Stepe Stepanovića,78000,44.7646314,17.2024499
93,Bulevar vojvode Stepe Stepanovića,78000,44.7650473,17.2005127
61,Bulevar vojvode Stepe Stepanovića,78000,44.7644181,17.1987465
21,Branka Ćopića,78000,44.7771460,17.2030337
19,Branka Ćopića,78000,44.7770844,17.2031877
2,Gavre Vučkovića,78000,44.7677936,17.1993120
25,Brace Potkonjaka,78000,44.7629348,17.1916356
3,Miloša Obilića,78000,44.7624671,17.1912169
3,Miloša Obilića,78000,44.7624407,17.1912341
3,Miloša Obilića,78000,44.7623846,17.1912730
80,Aleja Svetog Save,78000,44.7743169,17.2069659
6,Gavre Vučkovića,78000,44.7682069,17.1991613
34,Aleja Svetog Save,78000,44.7737355,17.1975913
8,Bulevar srpske vojske,78000,44.7795301,17.2070742
8,Bulevar srpske vojske,78000,44.7792750,17.2074564
8,Bulevar srpske vojske,78000,44.7792694,17.2072558
8,Bulevar srpske vojske,78000,44.7807120,17.2067617
8,Bulevar srpske vojske,78000,44.7803455,17.2075431
8,Bulevar srpske vojske,78000,44.7801880,17.2074983
8,Bulevar srpske vojske,78000,44.7797702,17.2081495
8,Bulevar srpske vojske,78000,44.7804402,17.2073315
8,Bulevar srpske vojske,78000,44.7800732,17.2068065
8,Bulevar srpske vojske,78000,44.7802815,17.2075902
8,Bulevar srpske vojske,78000,44.7807536,17.2072145
8,Bulevar srpske vojske,78000,44.7807374,17.2070775
8,Bulevar srpske vojske,78000,44.7806535,17.2067198
8,Bulevar srpske vojske,78000,44.7797827,17.2070457
8,Bulevar srpske vojske,78000,44.7796605,17.2070701
8,Bulevar srpske vojske,78000,44.7795984,17.2070728
8,Bulevar srpske vojske,78000,44.7800059,17.2078709
8,Bulevar srpske vojske,78000,44.7799435,17.2079671
8,Bulevar srpske vojske,78000,44.7795980,17.2080118
8,Bulevar srpske vojske,78000,44.7794177,17.2076699
8,Bulevar srpske vojske,78000,44.7797213,17.2070574
8,Bulevar srpske vojske,78000,44.7802513,17.2074592
8,Bulevar srpske vojske,78000,44.7798156,17.2078491
8,Bulevar srpske vojske,78000,44.7792052,17.2072012
8,Bulevar srpske vojske,78000,44.7799789,17.2079162
8,Bulevar srpske vojske,78000,44.7803913,17.2067555
8,Bulevar srpske vojske,78000,44.7805501,17.2074017
8,Bulevar srpske vojske,78000,44.7804475,17.2067465
8,Bulevar srpske vojske,78000,44.7800299,17.2069998
8,Bulevar srpske vojske,78000,44.7793921,17.2072728
8,Bulevar srpske vojske,78000,44.7804803,17.2074480
8,Bulevar srpske vojske,78000,44.7801919,17.2067909
8,Bulevar srpske vojske,78000,44.7799987,17.2068144
8,Bulevar srpske vojske,78000,44.7802523,17.2067751
8,Bulevar srpske vojske,78000,44.7799335,17.2068280
8,Bulevar srpske vojske,78000,44.7803208,17.2067632
8,Bulevar srpske vojske,78000,44.7798054,17.2081108
8,Bulevar srpske vojske,78000,44.7791971,17.2068983
8,Bulevar srpske vojske,78000,44.7800690,17.2076013
8,Bulevar srpske vojske,78000,44.7796859,17.2079756
8,Bulevar srpske vojske,78000,44.7799432,17.2077312
8,Bulevar srpske vojske,78000,44.7798773,17.2077925
8,Bulevar srpske vojske,78000,44.7793919,17.2073475
8,Bulevar srpske vojske,78000,44.7805351,17.2070113
8,Bulevar srpske vojske,78000,44.7804721,17.2069492
8,Bulevar srpske vojske,78000,44.7796180,17.2082369
8,Bulevar srpske vojske,78000,44.7801277,17.2075511
8,Bulevar srpske vojske,78000,44.7794222,17.2071348
8,Bulevar srpske vojske,78000,44.7793896,17.2071871
8,Bulevar srpske vojske,78000,44.7795551,17.2082700
8,Bulevar srpske vojske,78000,44.7801855,17.2069874
8,Bulevar srpske vojske,78000,44.7803009,17.2069640
8,Bulevar srpske vojske,78000,44.7792813,17.2076569
8,Bulevar srpske vojske,78000,44.7797803,17.2068581
8,Bulevar srpske vojske,78000,44.7794679,17.2079915
8,Bulevar srpske vojske,78000,44.7799937,17.2076683
8,Bulevar srpske vojske,78000,44.7792258,17.2078110
8,Bulevar srpske vojske,78000,44.7797233,17.2081979
8,Bulevar srpske vojske,78000,44.7801654,17.2076892
8,Bulevar srpske vojske,78000,44.7801178,17.2077316
8,Bulevar srpske vojske,78000,44.7799001,17.2080043
8,Bulevar srpske vojske,78000,44.7794663,17.2070867
8,Bulevar srpske vojske,78000,44.7802182,17.2076437
8,Bulevar srpske vojske,78000,44.7800823,17.2077717
8,Bulevar srpske vojske,78000,44.7800536,17.2078056
8,Bulevar srpske vojske,78000,44.7794069,17.2075177
8,Bulevar srpske vojske,78000,44.7806761,17.2073282
8,Bulevar srpske vojske,78000,44.7798352,17.2070373
8,Bulevar srpske vojske,78000,44.7796767,17.2082203
8,Bulevar srpske vojske,78000,44.7793096,17.2081545
8,Bulevar srpske vojske,78000,44.7805606,17.2071010
8,Bulevar srpske vojske,78000,44.7794187,17.2077860
8,Bulevar srpske vojske,78000,44.7794644,17.2083067
8,Bulevar srpske vojske,78000,44.7795814,17.2078627
8,Bulevar srpske vojske,78000,44.7800897,17.2070019
8,Bulevar srpske vojske,78000,44.7794258,17.2078994
8,Bulevar srpske vojske,78000,44.7803635,17.2069507
8,Bulevar srpske vojske,78000,44.7794894,17.2073974
8,Bulevar srpske vojske,78000,44.7794527,17.2073988
8,Bulevar srpske vojske,78000,44.7794721,17.2073979
8,Bulevar srpske vojske,78000,44.7794335,17.2073993
8,Bulevar srpske vojske,78000,44.7794150,17.2074013
8,Bulevar srpske vojske,78000,44.7793964,17.2074040
8,Bulevar srpske vojske,78000,44.7793699,17.2074046
8,Bulevar srpske vojske,78000,44.7795228,17.2073920
8,Bulevar srpske vojske,78000,44.7799682,17.2070244
8,Bulevar srpske vojske,78000,44.7799064,17.2070211
8,Bulevar srpske vojske,78000,44.7802297,17.2069712
8,Bulevar srpske vojske,78000,44.7797525,17.2079267
21,Aleja Svetog Save,78000,44.7744052,17.2013363
21,Aleja Svetog Save,78000,44.7743195,17.2012907
27,Aleja Svetog Save,78000,44.7746574,17.2011539
7,Sime Šolaje,78000,44.7728545,17.1947856
10,Dr Mladena Stojanovića,78000,44.7801774,17.2018630
bb,Zelengorska,78000,44.7795745,17.1820998
31,Mirka Kovačevića,78000,44.7619989,17.1871642
26,Kralja Petra II,78109,44.7821029,17.1992758
69,Aleja Svetog Save,78000,44.7750165,17.2062782
69,Aleja Svetog Save,78000,44.7756115,17.2053601
69,Aleja Svetog Save,78000,44.7755335,17.2060196
69,Aleja Svetog Save,78000,44.7754351,17.2060382
69,Aleja Svetog Save,78000,44.7756879,17.2059601
69,Aleja Svetog Save,78000,44.7751559,17.2056438
69,Aleja Svetog Save,78000,44.7754094,17.2053868
69,Aleja Svetog Save,78000,44.7755119,17.2053665
69,Aleja Svetog Save,78000,44.7758192,17.2052893
69,Aleja Svetog Save,78000,44.7749454,17.2055582
69,Aleja Svetog Save,78000,44.7750417,17.2062240
69,Aleja Svetog Save,78000,44.7753327,17.2060401
69,Aleja Svetog Save,78000,44.7751798,17.2060157
69,Aleja Svetog Save,78000,44.7752493,17.2060504
2,Trg Krajine,78000,44.7695525,17.1896611
2,Trg Krajine,78000,44.7696801,17.1898210
2,Trg Krajine,78000,44.7700576,17.1898745
2,Trg Krajine,78000,44.7698267,17.1901774
2,Trg Krajine,78000,44.7695116,17.1896088
2,Trg Krajine,78000,44.7696886,17.1901614
2,Trg Krajine,78000,44.7696648,17.1900930
2,Trg Krajine,78000,44.7698290,17.1898002
2,Trg Krajine,78000,44.7698524,17.1901064
2,Trg Krajine,78000,44.7697525,17.1897053
2,Trg Krajine,78000,44.7697389,17.1900937
103,Krajiških brigada,78000,44.7776614,17.1839721
69,Aleja Svetog Save,78000,44.7753275,17.2053351
25,Jovana Dučića,78000,44.7775181,17.1855842
24,Nikole Pašića,78000,44.7698325,17.1966610
22,Nikole Pašića,78000,44.7697078,17.1966087
20,Nikole Pašića,78000,44.7695481,17.1965455
40,Srpska,78000,44.7698707,17.1969210
42,Srpska,78000,44.7698357,17.1971028
44,Srpska,78000,44.7695785,17.1972217
46,Srpska,78000,44.7697486,17.1972839
36,Kralja Alfonsa XIII,78000,44.7693047,17.1964825
38,Kralja Alfonsa XIII,78000,44.7692590,17.1966890
40,Kralja Alfonsa XIII,78000,44.7692095,17.1969116
49 b,Kralja Alfonsa XIII,78000,44.7694307,17.1974304
49 a,Kralja Alfonsa XIII,78000,44.7695065,17.1974335
16,Nikole Pašića,78000,44.7689429,17.1964217
18,Nikole Pašića,78000,44.7691472,17.1964718
48 a,Kralja Alfonsa XIII,78000,44.7689786,17.1974503
48,Kralja Alfonsa XIII,78000,44.7691510,17.1976153
7,Vase Glušca,78000,44.7689828,17.1985576
5,Vase Glušca,78000,44.7691406,17.1986139
1,Vase Glušca,78000,44.7695824,17.1987649
3,Vase Glušca,78000,44.7694013,17.1986842
59,Bulevar vojvode Stepe Stepanovića,78000,44.7641949,17.1980884
61,Bulevar vojvode Stepe Stepanovića,78000,44.7643195,17.1984939
83,Bulevar vojvode Stepe Stepanovića,78000,44.7646073,17.1994784
53,Braće Jugovića,78000,44.7592043,17.1874549
1,Šibalovića,78000,44.7579614,17.1754026
59,Bulevar vojvode Živojina Mišića,78000,44.7721794,17.2067746
61,Bulevar vojvode Živojina Mišića,78000,44.7719357,17.2069059
101B,Vida Nježića,78000,44.7583398,17.2296769
101A,Vida Nježića,78000,44.7584293,17.2294971
47,Bulevar vojvode Živojina Mišića,78000,44.7722368,17.2047542
49,Bulevar vojvode Živojina Mišića,78000,44.7719922,17.2048879
45,Bulevar vojvode Živojina Mišića,78000,44.7718504,17.2042666
43,Bulevar vojvode Živojina Mišića,78000,44.7720838,17.2041248
39,Bulevar vojvode Živojina Mišića,78000,44.7716893,17.2036599
37,Bulevar vojvode Živojina Mišića,78000,44.7719148,17.2035238
63,Bulevar vojvode Živojina Mišića,78000,44.7723431,17.2073798
65,Bulevar vojvode Živojina Mišića,78000,44.7720740,17.2075249
57,Bulevar vojvode Živojina Mišića,78000,44.7717531,17.2063073
55,Bulevar vojvode Živojina Mišića,78000,44.7720235,17.2061548
53,Bulevar vojvode Živojina Mišića,78000,44.7716042,17.2057289
51,Bulevar vojvode Živojina Mišića,78000,44.7718705,17.2055708
41,Bulevar vojvode Živojina Mišića,78000,44.7721898,17.2039351
47,Jovana Dučića,78000,44.7781665,17.1898276
18,Majke Jugovića,78000,44.7639272,17.2001621
26,Majke Jugovića,78000,44.7631859,17.2004713
20,Majke Jugovića,78000,44.7637032,17.2002713
24,Majke Jugovića,78000,44.7634620,17.2003873
2,Boška Tošića,78000,44.7628173,17.1990639
2a,Boška Tošića,78000,44.7632325,17.1989995
4,Boška Tošića,78000,44.7627114,17.1987884
44,Majke Jugovića,78000,44.7620497,17.2001283
30,Majke Jugovića,78000,44.7630261,17.2000492
30,Majke Jugovića,78000,44.7630494,17.2001519
28,Majke Jugovića,78000,44.7631449,17.2004831
40,Majke Jugovića,78000,44.7624168,17.2003532
40,Majke Jugovića,78000,44.7624101,17.2003786
89,Bulevar vojvode Stepe Stepanovića,78000,44.7648688,17.2006026
91,Bulevar vojvode Stepe Stepanovića,78000,44.7649156,17.2005823
23,Vase Glušca,78000,44.7679433,17.1987064
23-25,Vase Glušca,78000,44.7680013,17.1987111
33,Bulevar vojvode Živojina Mišića,78000,44.7715869,17.2051945
18,Majke Jugovića,78000,44.7639769,17.2001711
20,Majke Jugovića,78000,44.7637868,17.2002587
22,Majke Jugovića,78000,44.7636401,17.2003264
24,Majke Jugovića,78000,44.7635013,17.2003904
26,Majke Jugovića,78000,44.7633054,17.2004808
26,Majke Jugovića,78000,44.7632631,17.2004791
28,Majke Jugovića,78000,44.7631865,17.2002786
30,Majke Jugovića,78000,44.7631593,17.2001619
30,Majke Jugovića,78000,44.7630690,17.2002492
19b,Boška Tošića,78000,44.7621998,17.1986718
72,Jug Bogdana,78000,44.7612073,17.2008614
6,Jug Bogdana,78000,44.7600869,17.2012754
4,Jug Bogdana,78000,44.7598789,17.2004875
2,Jug Bogdana,78000,44.7603132,17.2002433
74,Cerska,78000,44.7598995,17.2017869
6,Novice Cerovića,78000,44.7692133,17.1991263
4,Gavre Vučkovića,78000,44.7681050,17.1992040
19,Beogradska,78000,44.7690502,17.2039049
31,Bulevar vojvode Živojina Mišića,78000,44.7714819,17.2047651
25,Bulevar vojvode Živojina Mišića,78000,44.7713621,17.2042884
23,Bulevar vojvode Živojina Mišića,78000,44.7713390,17.2041888
27,Bulevar vojvode Živojina Mišića,78000,44.7713924,17.2044196
15,Gavrila Principa,78000,44.7585570,17.1861314
28,Kralja Petra II,78109,44.7822663,17.1992345
57,Milana Karanovića,78000,44.7700529,17.2120636
69,Aleja Svetog Save,78000,44.7751774,17.2058650
3,Braće Čubrilovića,78000,44.7631889,17.1868523
5,Braće Čubrilovića,78000,44.7630356,17.1866880
7,Braće Čubrilovića,78000,44.7628972,17.1865470
47,Mirka Kovačevića,78000,44.7624313,17.1860103
49,Mirka Kovačevića,78000,44.7622712,17.1858684
51,Mirka Kovačevića,78000,44.7621074,17.1856824
6,Tihomira-Tihe Damjanovića,78000,44.7618477,17.1855488
24,Braće Mažar i majke Marije,78000,44.7678219,17.1864457
4,Prote Todora Srdića,78000,44.7637268,17.1882604
4a,Prote Todora Srdića,78000,44.7636564,17.1880903
6,Prote Todora Srdića,78000,44.7636023,17.1883619
6a,Prote Todora Srdića,78000,44.7635298,17.1881896
8,Cara Lazara,78000,44.7641597,17.1887221
10,Cara Lazara,78000,44.7640892,17.1885709
2a,Prote Todora Srdića,78000,44.7637318,17.1878572
2b,Prote Todora Srdića,78000,44.7636524,17.1876697
8,Tihomira-Tihe Damjanovića,78000,44.7615809,17.1852483
10,Tihomira-Tihe Damjanovića,78000,44.7614615,17.1851416
12,Tihomira-Tihe Damjanovića,78000,44.7612369,17.1849443
14,Tihomira-Tihe Damjanovića,78000,44.7611057,17.1848308
16,Tihomira-Tihe Damjanovića,78000,44.7608160,17.1846479
18,Tihomira-Tihe Damjanovića,78000,44.7606845,17.1845279
14,Tihomira-Tihe Damjanovića,78000,44.7611490,17.1847176
25,Bulevar vojvode Stepe Stepanovića,78000,44.7635667,17.1944262
25,Bulevar vojvode Stepe Stepanovića,78000,44.7635824,17.1945534
27,Bulevar vojvode Stepe Stepanovića,78000,44.7636489,17.1947836
29,Bulevar vojvode Stepe Stepanovića,78000,44.7637141,17.1950093
25,Dragiše Vasića,78000,44.7800327,17.1943378
3,Gundulićeva,78000,44.7711586,17.1990692
11,Stevana Mokranjca,78000,44.7801858,17.1936914
1,Tina Ujevića,78000,44.7804572,17.1942422
3,Tina Ujevića,78000,44.7805271,17.1941044
5,Tina Ujevića,78000,44.7805958,17.1939689
171e,Bulevar vojvode Stepe Stepanovića,78000,44.7659703,17.2031163
13,Dr Mladena Stojanovića,78000,44.7807290,17.1993557
41a,Brace Potkonjaka,78000,44.7616949,17.1929071
18,Zmaj Jovina,78000,44.7695067,17.1845252
14,Zmaj Jovina,78000,44.7690511,17.1840704
16,Zmaj Jovina,78000,44.7692086,17.1842214
23,Milana Tepića,78000,44.7719714,17.1862875
25,Jovana Dučića,78000,44.7771096,17.1855615
1b,Trive Amelice,78000,44.7845594,17.2031645
1,Trive Amelice,78000,44.7844710,17.2033390
3,Tina Ujevića,78000,44.7805388,17.1940484
101,Srpska,78000,44.7703917,17.1977718
105,Srpska,78000,44.7703499,17.1981469
107a,Srpska,78000,44.7703200,17.1983744
16,Branka Ćopića,78000,44.7768040,17.2038290
27,Akademika Jovana Surutke,78000,44.7770519,17.2043220
21,Akademika Jovana Surutke,78000,44.7766537,17.2046790
19,Akademika Jovana Surutke,78000,44.7764281,17.2047403
11,Akademika Jovana Surutke,78000,44.7756159,17.2048461
9,Akademika Jovana Surutke,78000,44.7754842,17.2048727
3,Akademika Jovana Surutke,78000,44.7749849,17.2044458
68,Gundulićeva,78000,44.7748863,17.2002511
80,Aleja Svetog Save,78000,44.7742057,17.2038810
8,Novice Cerovića,78000,44.7689155,17.1991132
28,Nikole Pašića,78000,44.7713917,17.1973238
1,Bulevar vojvode Živojina Mišića,78000,44.7709434,17.1995558
28a,Nikole Pašića,78000,44.7711713,17.1973465
23,Vojvode Radomira Putnika,78000,44.7710819,17.1978421
1,Đure Daničića,78000,44.7689279,17.1909161
bb,Prvog krajiškog korpusa,78000,44.7771431,17.1929625
6,Miloša Obilića,78000,44.7625415,17.1905107
17,Vojvode Radomira Putnika,78000,44.7711518,17.1974800
113,Kralja Petra I Karađorđevića,78000,44.7747201,17.1918000
23a-25,Jovana Dučića,78000,44.7759524,17.1845606
25,Jovana Dučića,78000,44.7762784,17.1845523
25,Gundulićeva,78000,44.7723635,17.1993165
26c,Dr Mladena Stojanovića,78000,44.7832988,17.2028310
105,Kralja Petra I Karađorđevića,78000,44.7739064,17.1923272
10,Dragana Bubića,78000,44.7917668,17.2009287
7,Milana Tepića,78000,44.7715509,17.1873835
9,Milana Tepića,78000,44.7716340,17.1871796
3,Milana Tepića,78000,44.7713091,17.1878220
5,Milana Tepića,78000,44.7713879,17.1876226
16,Milana Tepića,78000,44.7720706,17.1864877
88,Bulevar vojvode Stepe Stepanovića,78000,44.7647183,17.2023952
30,Gundulićeva,78000,44.7722423,17.1996532
33,Gundulićeva,78000,44.7747924,17.1993116
31,Gundulićeva,78000,44.7745354,17.1993039
1,Carice Milice,78000,44.7638101,17.1902518
8a,Brace Potkonjaka,78000,44.7628676,17.1914312
46,Braće Jugovića,78000,44.7604844,17.1889605
48,Braće Jugovića,78000,44.7603861,17.1887064
11,Braće Jugovića,78000,44.7605948,17.1910187
4,Starine Novaka,78000,44.7598709,17.1910873
2,Starine Novaka,78000,44.7600647,17.1913754
10,Starine Novaka,78000,44.7595608,17.1901532
33,Duška Koščice,78000,44.7646650,17.1807975
3,Sime Miljuša,78000,44.7610869,17.2081494
4,Voždovačka,78000,44.7850742,17.1991409
71,Kralja Petra II,78000,44.7877434,17.1994756
63,Kralja Petra II,78000,44.7878168,17.1990005
26,Trive Amelice,78000,44.7859120,17.1990210
29,Trive Amelice,78000,44.7854042,17.1999624
6,Trive Amelice,78000,44.7849187,17.2030520
25,Majke Jugovića,78000,44.7627005,17.2012377
23,Majke Jugovića,78000,44.7628432,17.2011693
73,Jevrejska,78000,44.7695533,17.1924864
103,Kralja Petra I Karađorđevića,78000,44.7735041,17.1919863
103,Kralja Petra I Karađorđevića,78000,44.7736858,17.1921709
2,Kninska,78000,44.7690200,17.1871013
4,Kninska,78000,44.7691307,17.1871967
6,Kninska,78000,44.7693315,17.1871449
8,Kninska,78000,44.7694544,17.1872464
10,Kninska,78000,44.7696038,17.1873698
2,Radoslava Lakića,78000,44.7814785,17.1985244
8,Svetozara Markovića,78000,44.7775579,17.1925348
29,Mirka Kovačevića,78000,44.7621531,17.1873502
2,Trg Krajine,78000,44.7701480,17.1897285
1,Ravnogorska,78000,44.7796407,17.1942173
3,Ravnogorska,78000,44.7795569,17.1943833
5,Ravnogorska,78000,44.7794737,17.1945480
7,Ravnogorska,78000,44.7797414,17.1951299
9,Ravnogorska,78000,44.7798835,17.1952663
11,Ravnogorska,78000,44.7800160,17.1953891
183,Krajiških brigada,78000,44.7813333,17.1892894
19,Veselina Masleše,78000,44.7711660,17.1909010
23,Veselina Masleše,78000,44.7713218,17.1911637
1,Filipa Macure,78000,44.7605931,17.1799802
1a,Bulevar vojvode Živojina Mišića,78000,44.7709925,17.2000481
41,Aleja Svetog Save,78000,44.7753932,17.2025182
39,Aleja Svetog Save,78000,44.7754130,17.2027324
43,Aleja Svetog Save,78000,44.7753752,17.2023269
27,Bulevar vojvode Stepe Stepanovića,78000,44.7636733,17.1948301
102,Gundulićeva,78000,44.7760788,17.2014802
102,Gundulićeva,78000,44.7761668,17.2015176
104,Gundulićeva,78000,44.7763086,17.2016591
106,Gundulićeva,78000,44.7764547,17.2017973
32,Bulevar vojvode Živojina Mišića,78000,44.7724033,17.2143676
2,Braće i sestara Glumac,78000,44.7732297,17.1985733
4,Braće i sestara Glumac,78000,44.7731987,17.1987473
6,Braće i sestara Glumac,78000,44.7731715,17.1988999
386,Karađorđeva,78000,44.7868609,17.1597160
64,Kralja Petra I Karađorđevića,78000,44.7712058,17.1902274
2,Карађорђева,78000,44.7719134,17.1802343
25,Jovana Dučića,78000,44.7773355,17.1853415
25,Jovana Dučića,78000,44.7774272,17.1854813
25,Jovana Dučića,78000,44.7774347,17.1856901
25,Jovana Dučića,78000,44.7760748,17.1860987
23a,Jovana Dučića,78000,44.7766386,17.1843894
24a,Jovana Dučića,78000,44.7748316,17.1873959
310,Branka Popovića,78000,44.8181314,17.2163603
310,Branka Popovića,78000,44.8180165,17.2161524
310,Branka Popovića,78000,44.8181262,17.2165659
9,Dragiše Vasića,78000,44.7801769,17.1949114
5,Milana Radmana,78000,44.7805996,17.1980784
16c,Ravnogorska,78000,44.7805366,17.1975204
12,Ravnogorska,78000,44.7800339,17.1970023
16,Ravnogorska,78000,44.7803252,17.1972957
14,Ravnogorska,78000,44.7801795,17.1971490
74a,Jovana Dučića,78000,44.7773518,17.1906900
25,Jovana Dučića,78000,44.7759620,17.1872793
93,Bulevar vojvode Stepe Stepanovića,78000,44.7647874,17.2007107
7a,Marije Dimić,78000,44.7901699,17.1973782
69,Aleja Svetog Save,78000,44.7748312,17.2057397
4,Ive Lole Ribara,78000,44.7681772,17.1912984
38,Bulevar vojvode Stepe Stepanovića,78000,44.7632910,17.1960184
77,Miloša Obilića,78000,44.7599022,17.1851126
1,Dr Vojislava Đede Kecmanovića,78000,44.7650802,17.2121828
8,Bulevar srpske vojske,78000,44.7798505,17.2080622
61,Braće Jugovića,78000,44.7587804,17.1869701
25,Jovana Dučića,78000,44.7755266,17.1852463
1,Mirka Kovačevića,78000,44.7634803,17.1897987
114,Bulevar vojvode Stepe Stepanovića,78000,44.7652380,17.2049155
9,Mirka Kovačevića,78000,44.7634020,17.1894033
1,Srpskih vitezova,78000,44.7583972,17.1791253
12,Veljka Mlađenovića,78000,44.7694352,17.2232284
10b,Bulevar vojvode Živojina Mišića,78000,44.7722258,17.2115149
39e,Slobodana Jovanovića,78000,44.7797152,17.1878276
2,Kninska,78000,44.7689398,17.1871270
19,Bulevar vojvode Stepe Stepanovića,78000,44.7629937,17.1941998
7,Carice Milice,78000,44.7638746,17.1904433
5,Carice Milice,78000,44.7638546,17.1903799
17,Bulevar vojvode Stepe Stepanovića,78000,44.7629444,17.1939816
61,Bulevar vojvode Stepe Stepanovića,78000,44.7644623,17.1985745
7,Carice Milice,78000,44.7638915,17.1905004
23,Bana dr Todora Lazarevića,78000,44.7724829,17.1945626
21,Bana dr Todora Lazarevića,78000,44.7723454,17.1944819
25,Bana dr Todora Lazarevića,78000,44.7726230,17.1946446
5,Sime Šolaje,78000,44.7729427,17.1946927
26,Bana Milosavljevića,78000,44.7733125,17.1936432
3,Bana dr Todora Lazarevića,78000,44.7722151,17.1939148
20,Bulevar Desanke Maksimović,78000,44.7633007,17.2040293
18,Bulevar Desanke Maksimović,78000,44.7633532,17.2042126
8,Bulevar Desanke Maksimović,78000,44.7640835,17.2056177
11,Slobodana Kusturića,78000,44.7637209,17.2025142
44,Knjaza Miloša,78000,44.7988899,17.2079658
15,Cara Lazara,78000,44.7637969,17.1899674
72,Knjaza Miloša,78000,44.8014805,17.2084091
2,Patrijarha Makarija Sokolovića,78000,44.7672989,17.1869336
44,Kralja Petra I Karađorđevića,78000,44.7673447,17.1868372
25,Cara Lazara,78000,44.7620581,17.1916714
27,Vojvode Radomira Putnika,78000,44.7710388,17.1981344
15a,Bulevar srpske vojske,78000,44.7802258,17.2051710
14,Teodora Kolokotronisa,78000,44.7667743,17.1883575
46,Aleja Svetog Save,78000,44.7737962,17.1999736
6,Brace Potkonjaka,78000,44.7641874,17.1905056
17,Kralja Petra I Karađorđevića,78000,44.7669600,17.1861863
17,Kralja Petra I Karađorđevića,78000,44.7670264,17.1862524
36,Kralja Petra I Karađorđevića,78000,44.7671755,17.1866528
19,Aleja Svetog Save,78000,44.7743027,17.2011954
27,Vojvode Radomira Putnika,78000,44.7710681,17.1979800
121a,Dr Mladena Stojanovića,78000,44.7858380,17.2049503
121,Dr Mladena Stojanovića,78000,44.7857716,17.2049303
119,Dr Mladena Stojanovića,78000,44.7857292,17.2048599
12,Kordunaška,78000,44.7700775,17.2070527
32,Simeuna Đaka,78000,44.7679381,17.1823459
36,Simeuna Đaka,78000,44.7679419,17.1824088
103,Kralja Petra I Karađorđevića,78000,44.7736222,17.1921158
103,Kralja Petra I Karađorđevića,78000,44.7735588,17.1920508
12,Pave Radana,78000,44.7779964,17.1948241
4,Pave Radana,78000,44.7778081,17.1950818
3,Krajiških brigada,78000,44.7722582,17.1810361
34a,Kralja Petra II,78000,44.7824960,17.1996078
28,Knjaza Miloša,78000,44.7975950,17.2077506
11,Braće Mažar i majke Marije,78000,44.7676527,17.1864354
10,Bana dr Todora Lazarevića,78000,44.7718629,17.1939457
24,Kralja Petra I Karađorđevića,78000,44.7668996,17.1863904
11,Sime Šolaje,78000,44.7732265,17.1954278
13,Sime Šolaje,78000,44.7730475,17.1953338
9,Sime Šolaje,78000,44.7733936,17.1955155
4,Branka Ćopića,78000,44.7749727,17.2041934
93,Kralja Petra I Karađorđevića,78000,44.7714148,17.1897912
7a,Marije Dimić,78000,44.7902489,17.1981135
18,Bulevar vojvode Živojina Mišića,78000,44.7709558,17.2136962
67,Kralja Petra I Karađorđevića,78000,44.7678648,17.1869867
7,Kalemegdanska,78000,44.7586537,17.1932335
5,Krajiških brigada,78000,44.7726999,17.1810714
68,Jovana Dučića,78000,44.7771452,17.1901497
66,Jovana Dučića,78000,44.7770540,17.1900660
44a,Jovana Dučića,78000,44.7767982,17.1898523
50,Kralja Petra I Karađorđevića,78000,44.7688579,17.1884569
27,Petra Preradovića,78000,44.7789076,17.1866888
57,Pave Radana,78000,44.7792195,17.1913136
69,Jevrejska,78000,44.7698237,17.1923046
2,Sime Matavulja,78000,44.7739109,17.1836990
4,Sime Matavulja,78000,44.7736580,17.1835161
6,Sime Matavulja,78000,44.7734214,17.1831176
8,Sime Matavulja,78000,44.7731634,17.1829374
10,Sime Matavulja,78000,44.7729037,17.1827608
2,Sime Matavulja,78000,44.7738538,17.1838142
6,Sime Matavulja,78000,44.7735215,17.1832268
65,Kralja Petra I Karađorđevića,78000,44.7678272,17.1868850
4,Ive Lole Ribara,78000,44.7678533,17.1911480
81,Knjaza Miloša,78000,44.8039184,17.2084381
15,Bulevar cara Dušana,78000,44.7689792,17.1854877
15,Bulevar cara Dušana,78000,44.7690223,17.1853875
9,Bulevar cara Dušana,78000,44.7689968,17.1861504
88,Simeuna Đaka,78000,44.7681017,17.1819232
9,Branka Majstorovića,78000,44.7688337,17.1852181
90,Simeuna Đaka,78000,44.7681643,17.1815750
33,Simeuna Đaka,78000,44.7680998,17.1814207
17,Braće Mažar i majke Marije,78000,44.7677911,17.1861240
52,Braće Mažar i majke Marije,78000,44.7683287,17.1854339
16,Milana Tepića,78000,44.7720127,17.1866500
28,Bana Milosavljevića,78000,44.7733663,17.1936659
32,Bana Milosavljevića,78000,44.7734810,17.1937596
36,Bana Milosavljevića,78000,44.7736500,17.1938513
9,Bana dr Todora Lazarevića,78000,44.7722752,17.1946664
11,Bana dr Todora Lazarevića,78000,44.7722146,17.1948470
3,Sime Šolaje,78000,44.7731960,17.1942553
10,Milana Tepića,78000,44.7717464,17.1873197
22,Cara Lazara,78000,44.7631326,17.1902917
36,Bana Milosavljevića,78000,44.7737033,17.1939284
54,Kralja Petra I Karađorđevića,78000,44.7690123,17.1880036
11,Kninska,78000,44.7710467,17.1880690
1,Kninska,78000,44.7702540,17.1874357
23a,Jovana Dučića,78000,44.7758621,17.1847269
10,Bulevar vojvode Živojina Mišića,78000,44.7706687,17.2047563
7a,Marije Dimić,78000,44.7902784,17.1973518
58,Kralja Petra I Karađorđevića,78000,44.7691057,17.1882580
52,Kralja Petra I Karađorđevića,78000,44.7691111,17.1881104
52,Kralja Petra I Karađorđevića,78000,44.7689595,17.1879740
7,Prvog krajiškog korpusa,78000,44.7765381,17.1928218
25,Jovana Dučića,78000,44.7759910,17.1862439
20,Veselina Masleše,78000,44.7712754,17.1914803
63,Kralja Petra I Karađorđevića,78000,44.7677656,17.1868318
73,Kralja Petra I Karađorđevića,78000,44.7679648,17.1870798
4,Majke Jugovića,78000,44.7651236,17.1991283
77,Bulevar vojvode Stepe Stepanovića,78000,44.7654772,17.1987221
71,Bulevar vojvode Stepe Stepanovića,78000,44.7646984,17.1983523
73,Bulevar vojvode Stepe Stepanovića,78000,44.7650293,17.1982881
1a,Bulevar vojvode Petra Bojovića,78000,44.7744661,17.2115939
1a,Bulevar vojvode Petra Bojovića,78000,44.7746580,17.2115655
14,Bana Milosavljevića,78000,44.7731408,17.1933045
12,Bana Milosavljevića,78000,44.7730730,17.1932596
8,Bana Milosavljevića,78000,44.7728340,17.1930989
12,Bana Milosavljevića,78000,44.7730243,17.1932221
8,Bana Milosavljevića,78000,44.7729700,17.1931883
3,Bana Milosavljevića,78000,44.7732199,17.1929564
17a,Bulevar vojvode Petra Bojovića,78000,44.7688331,17.2110814
17b,Bulevar vojvode Petra Bojovića,78000,44.7686732,17.2114374
17c,Bulevar vojvode Petra Bojovića,78000,44.7688219,17.2118012
18,Prvog krajiškog korpusa,78000,44.7767651,17.1937422
1a,Bulevar vojvode Petra Bojovića,78000,44.7737753,17.2110409
1a,Bulevar vojvode Petra Bojovića,78000,44.7761280,17.2094410
1a,Bulevar vojvode Petra Bojovića,78000,44.7760828,17.2129706
1a,Bulevar vojvode Petra Bojovića,78000,44.7760267,17.2116234
1a,Bulevar vojvode Petra Bojovića,78000,44.7752037,17.2121660
1a,Bulevar vojvode Petra Bojovića,78000,44.7749849,17.2121940
1a,Bulevar vojvode Petra Bojovića,78000,44.7769373,17.2119839
77,Kralja Petra I Karađorđevića,78000,44.7680245,17.1869316
18,Braće Mažar i majke Marije,78000,44.7680180,17.1866639
51,Kralja Petra I Karađorđevića,78000,44.7678186,17.1866372
10,Kralja Petra I Karađorđevića,78000,44.7655946,17.1852685
89,Bulevar vojvode Stepe Stepanovića,78000,44.7647162,17.2004733
25,Put srpskih branilaca,78000,44.8230382,17.2159909
25,Put srpskih branilaca,78000,44.8231756,17.2160402
45,Aleja Svetog Save,78000,44.7751760,17.2027508
47,Aleja Svetog Save,78000,44.7751247,17.2022907
49,Aleja Svetog Save,78000,44.7751020,17.2020400
51,Aleja Svetog Save,78000,44.7749321,17.2027978
53,Aleja Svetog Save,78000,44.7748812,17.2022738
55,Aleja Svetog Save,78000,44.7748553,17.2020320
57,Aleja Svetog Save,78000,44.7748295,17.2017902
27,Aleja Svetog Save,78000,44.7747339,17.2012306
29,Aleja Svetog Save,78000,44.7748575,17.2013687
31,Aleja Svetog Save,78000,44.7751606,17.2017295
31,Aleja Svetog Save,78000,44.7751168,17.2016551
48,Vase Pelagića,78000,44.7731185,17.1975155
50,Vase Pelagića,78000,44.7732317,17.1975461
46,Vase Pelagića,78000,44.7730052,17.1974849
20,Jug Bogdana,78000,44.7604836,17.2007652
86,Gundulićeva,78000,44.7756770,17.2028648
88,Gundulićeva,78000,44.7758751,17.2028223
90,Gundulićeva,78000,44.7760483,17.2027878
1,Branka Ćopića,78000,44.7750584,17.2031850
3,Branka Ćopića,78000,44.7751812,17.2031542
5,Branka Ćopića,78000,44.7753575,17.2031285
62,Nikole Pašića,78000,44.7723632,17.1979536
64,Nikole Pašića,78000,44.7724510,17.1979885
60,Nikole Pašića,78000,44.7722753,17.1979186
70,Nikole Pašića,78000,44.7727614,17.1978781
72,Nikole Pašića,78000,44.7728887,17.1979332
74,Nikole Pašića,78000,44.7730810,17.1979808
76,Nikole Pašića,78000,44.7732034,17.1980338
78,Nikole Pašića,78000,44.7736047,17.1981942
80,Nikole Pašića,78000,44.7737246,17.1982390
38,Aleja Svetog Save,78000,44.7737893,17.1987742
40,Aleja Svetog Save,78000,44.7737857,17.1990218
42,Majke Jugovića,78000,44.7622483,17.2004536
38,Majke Jugovića,78000,44.7625777,17.2003030
36,Majke Jugovića,78000,44.7627086,17.2002439
23,Majke Jugovića,78000,44.7629040,17.2011231
44,Majke Jugovića,78000,44.7620572,17.2001929
6,Slobodana Kusturića,78000,44.7633595,17.2028366
8,Slobodana Kusturića,78000,44.7632774,17.2028804
8,Veselina Masleše,78000,44.7708461,17.1905867
8,Bulevar srpske vojske,78000,44.7798777,17.2079030
126c,Knjaza Miloša,78000,44.8040534,17.2089923
76,Gundulićeva,78000,44.7754226,17.2008091
78,Gundulićeva,78000,44.7757170,17.2010936
59,Bulevar vojvode Stepe Stepanovića,78000,44.7643183,17.1983207
59,Bulevar vojvode Stepe Stepanovića,78000,44.7641992,17.1981830
61,Bulevar vojvode Stepe Stepanovića,78000,44.7642422,17.1984911
59a,Bulevar vojvode Stepe Stepanovića,78000,44.7643294,17.1983579
4,Kralja Alfonsa XIII,78000,44.7708635,17.1915676
2,Trg Krajine,78000,44.7699530,17.1896767
2,Trg Krajine,78000,44.7697102,17.1896213
1,Milana Tepića,78000,44.7710894,17.1879917
5,Gajeva,78000,44.7689882,17.1898956
3,Marije Bursać,78000,44.7696595,17.1878383
1,Marije Bursać,78000,44.7695493,17.1880647
5,Marije Bursać,78000,44.7697768,17.1875972
1,Marije Bursać,78000,44.7695558,17.1880145
5,Marije Bursać,78000,44.7697564,17.1876167
5,Marije Bursać,78000,44.7697452,17.1875678
14,Zdravka Čelara,78000,44.7672782,17.1884281
10,Zdravka Čelara,78000,44.7674306,17.1881828
25,Skendera Kulenovića,78000,44.7646240,17.1842780
23,Skendera Kulenovića,78000,44.7646572,17.1845521
12,Radoja Domanovića,78000,44.7619430,17.1787938
14,Radoja Domanovića,78000,44.7618591,17.1785175
16,Radoja Domanovića,78000,44.7617117,17.1780246
18,Radoja Domanovića,78000,44.7616278,17.1777484
50,Krfska,78000,44.7579479,17.1932842
52,Krfska,78000,44.7580355,17.1935866
58,Krfska,78000,44.7575633,17.1938374
56,Krfska,78000,44.7578533,17.1938734
72b,Krfska,78000,44.7570606,17.1937432
72a,Krfska,78000,44.7572534,17.1940026
72,Krfska,78000,44.7571943,17.1941250
15c,Bulevar srpske vojske,78000,44.7805793,17.2045879
15e,Bulevar srpske vojske,78000,44.7802856,17.2045747
15d,Bulevar srpske vojske,78000,44.7803763,17.2044161
15e,Bulevar srpske vojske,78000,44.7802291,17.2045964
17,Bulevar srpske vojske,78000,44.7814562,17.2055447
17,Bulevar srpske vojske,78000,44.7813592,17.2055522
84,Krfska,78000,44.7580546,17.1942659
16,Kalemegdanska,78000,44.7583877,17.1919540
18,Kalemegdanska,78000,44.7584462,17.1921493
4e,Braće Podgornika,78000,44.7880372,17.2081562
7,Akademika Jovana Surutke,78000,44.7752989,17.2049102
32,Majke Jugovića,78000,44.7625489,17.1996535
34,Majke Jugovića,78000,44.7626018,17.1998907
50,Majke Jugovića,78000,44.7617297,17.1992231
19b,Boška Tošića,78000,44.7622803,17.1986114
4,Banović Strahinje,78000,44.7584863,17.1893459
6,Banović Strahinje,78000,44.7584355,17.1892113
34a,Patrijarha Arsenija Čarnojevića,78000,44.7587386,17.1895769
34b,Patrijarha Arsenija Čarnojevića,78000,44.7586706,17.1896399
35a,Patrijarha Arsenija Čarnojevića,78000,44.7580737,17.1904665
35,Patrijarha Arsenija Čarnojevića,78000,44.7581289,17.1904158
17,Gavrila Principa,78000,44.7582187,17.1863608
17a,Gavrila Principa,78000,44.7581616,17.1864091
15,Akademika Jovana Surutke,78000,44.7761503,17.2046205
17,Akademika Jovana Surutke,78000,44.7761213,17.2043153
23,Akademika Jovana Surutke,78000,44.7766939,17.2042692
25,Akademika Jovana Surutke,78000,44.7766523,17.2039069
13,Akademika Jovana Surutke,78000,44.7757957,17.2048500
13,Akademika Jovana Surutke,78000,44.7758723,17.2048385
13,Akademika Jovana Surutke,78000,44.7758258,17.2047096
69,Aleja Svetog Save,78000,44.7752823,17.2056328
2b,Radoja Domanovića,78000,44.7618217,17.1809623
88,Kralja Petra I Karađorđevića,78000,44.7769897,17.1967675
88,Kralja Petra I Karađorđevića,78000,44.7773404,17.1969017
175b,Bulevar vojvode Stepe Stepanovića,78000,44.7662089,17.2056982
175a,Bulevar vojvode Stepe Stepanovića,78000,44.7660417,17.2053999
171b,Bulevar vojvode Stepe Stepanovića,78000,44.7664848,17.2037899
165,Bulevar vojvode Stepe Stepanovića,78000,44.7665751,17.2041333
165,Bulevar vojvode Stepe Stepanovića,78000,44.7665324,17.2041043
171e,Bulevar vojvode Stepe Stepanovića,78000,44.7660501,17.2031078
171c,Bulevar vojvode Stepe Stepanovića,78000,44.7664807,17.2031822
171d,Bulevar vojvode Stepe Stepanovića,78000,44.7664418,17.2030056
171a,Bulevar vojvode Stepe Stepanovića,78000,44.7660707,17.2036092
171,Bulevar vojvode Stepe Stepanovića,78000,44.7661347,17.2038431
126,Bulevar vojvode Stepe Stepanovića,78000,44.7656759,17.2064167
124,Bulevar vojvode Stepe Stepanovića,78000,44.7656430,17.2064331
132,Bulevar vojvode Stepe Stepanovića,78000,44.7658169,17.2070299
132a,Bulevar vojvode Stepe Stepanovića,78000,44.7656044,17.2071368
134,Bulevar vojvode Stepe Stepanovića,78000,44.7659384,17.2076718
134a,Bulevar vojvode Stepe Stepanovića,78000,44.7660080,17.2080475
175a,Bulevar vojvode Stepe Stepanovića,78000,44.7659180,17.2052909
175a,Bulevar vojvode Stepe Stepanovića,78000,44.7662064,17.2053255
3,Branka Ćopića,78000,44.7752869,17.2033730
1,Branka Ćopića,78000,44.7751464,17.2034021
5,Branka Ćopića,78000,44.7754275,17.2033439
7,Branka Ćopića,78000,44.7755996,17.2033088
6,Dr Mladena Stojanovića,78000,44.7794057,17.1993705
9,Branka Ćopića,78000,44.7759105,17.2032409
11,Branka Ćopića,78000,44.7760963,17.2032124
13,Branka Ćopića,78000,44.7762690,17.2032337
36,Bana Milosavljevića,78000,44.7736173,17.1938509
177,Bulevar vojvode Stepe Stepanovića,78000,44.7661706,17.2064952
23,Aleja Svetog Save,78000,44.7745802,17.2006174
25,Aleja Svetog Save,78000,44.7746183,17.2009909
33,Aleja Svetog Save,78000,44.7752993,17.2018728
35,Aleja Svetog Save,78000,44.7754489,17.2020274
21,Aleja Svetog Save,78000,44.7744706,17.2010761
19,Aleja Svetog Save,78000,44.7744326,17.2007531
17,Aleja Svetog Save,78000,44.7743962,17.2004411
15,Aleja Svetog Save,78000,44.7743583,17.2001175
82,Gundulićeva,78000,44.7757009,17.2016381
42,Aleja Svetog Save,78000,44.7736054,17.1993027
36,Aleja Svetog Save,78000,44.7737860,17.1985213
5,Banović Strahinje,78000,44.7580569,17.1891315
5a,Banović Strahinje,78000,44.7579852,17.1889723
48,Aleja Svetog Save,78000,44.7737159,17.2021639
36,Gundulićeva,78000,44.7726680,17.1997353
107b,Srpska,78000,44.7703129,17.1985162
6,Vilsonova,78000,44.7632725,17.1937864
6,Vilsonova,78000,44.7632928,17.1939160
46,Aleja Svetog Save,78000,44.7738539,17.2000802
52,Aleja Svetog Save,78000,44.7738780,17.2003037
58,Aleja Svetog Save,78000,44.7739037,17.2005461
64,Aleja Svetog Save,78000,44.7739292,17.2007819
70,Aleja Svetog Save,78000,44.7739502,17.2009840
58,Gundulićeva,78000,44.7735865,17.1998177
52,Gundulićeva,78000,44.7734744,17.1998371
46,Gundulićeva,78000,44.7733476,17.1998591
1,Starine Novaka,78000,44.7602548,17.1917730
3,Starine Novaka,78000,44.7600243,17.1917329
5,Starine Novaka,78000,44.7598744,17.1916605
7,Starine Novaka,78000,44.7597142,17.1915184
21,Starine Novaka,78000,44.7590288,17.1901761
23,Starine Novaka,78000,44.7589908,17.1900460
19,Braće Jugovića,78000,44.7602446,17.1899446
21,Braće Jugovića,78000,44.7598162,17.1894902
12,Braće Jugovića,78000,44.7610187,17.1911622
14,Braće Jugovića,78000,44.7609947,17.1910793
27,Brace Potkonjaka,78000,44.7627973,17.1918935
29,Brace Potkonjaka,78000,44.7626410,17.1919762
14,Vilsonova,78000,44.7636340,17.1936703
12,Vilsonova,78000,44.7634678,17.1937706
2,Vilsonova,78000,44.7630568,17.1939210
10,Vilsonova,78000,44.7636735,17.1939476
8,Vilsonova,78000,44.7634898,17.1940564
3,Vilsonova,78000,44.7632290,17.1934810
1,Vilsonova,78000,44.7630459,17.1935905
2,Majke Jugovića,78000,44.7652802,17.1991214
15,Patrijarha Arsenija Čarnojevića,78000,44.7607270,17.1893603
13,Patrijarha Arsenija Čarnojevića,78000,44.7608211,17.1896008
27,Milovana Glišića,78000,44.7607979,17.1905465
31,Braće Jugovića,78000,44.7596785,17.1883838
33,Braće Jugovića,78000,44.7596338,17.1882689
35,Braće Jugovića,78000,44.7595710,17.1882344
37,Braće Jugovića,78000,44.7595262,17.1881449
63,Braće Jugovića,78000,44.7588374,17.1867698
65,Braće Jugovića,78000,44.7587852,17.1866624
1,Gajeva,78000,44.7700537,17.1905460
1,Gajeva,78000,44.7699970,17.1905259
93,Kralja Petra I Karađorđevića,78000,44.7712484,17.1896912
8,Bana Milosavljevića,78000,44.7726672,17.1938002
8,Bana Milosavljevića,78000,44.7727958,17.1933811
1,Sime Šolaje,78000,44.7733131,17.1940046
24,Vase Pelagića,78000,44.7722443,17.1962420
61,Aleja Svetog Save,78000,44.7748301,17.2032381
6,Branka Ćopića,78000,44.7749843,17.2039516
6,Gavre Vučkovića,78000,44.7682962,17.1991536
20,Radoja Domanovića,78000,44.7612728,17.1770306
13a,Brace Potkonjaka,78000,44.7636647,17.1911778
15,Miloša Obilića,78000,44.7616693,17.1904610
17,Miloša Obilića,78000,44.7614088,17.1905361
68,Gundulićeva,78000,44.7749710,17.2003385
1a,Bulevar vojvode Petra Bojovića,78000,44.7729930,17.2140462
7d,Veljka Mlađenovića,78000,44.7713346,17.2202535
12,Kralja Nikole,78000,44.7665282,17.1832138
29,Prvog krajiškog korpusa,78000,44.7775805,17.1936791
39,Prvog krajiškog korpusa,78000,44.7776796,17.1942517
5,Krajiških brigada,78000,44.7725867,17.1809109
23,Milana Karanovića,78000,44.7715244,17.2103374
13,Slobodana Kusturića,78000,44.7639295,17.2024968
161,Bulevar vojvode Stepe Stepanovića,78000,44.7656711,17.2043278
94b,Bulevar vojvode Stepe Stepanovića,78000,44.7651502,17.2035174
94b,Bulevar vojvode Stepe Stepanovića,78000,44.7650243,17.2036696
94a,Bulevar vojvode Stepe Stepanovića,78000,44.7649207,17.2037262
88,Bulevar vojvode Stepe Stepanovića,78000,44.7646889,17.2023994
86a,Bulevar vojvode Stepe Stepanovića,78000,44.7644833,17.2025287
15,Slobodana Kusturića,78000,44.7639940,17.2027898
13,Slobodana Kusturića,78000,44.7640319,17.2022602
13,Slobodana Kusturića,78000,44.7640871,17.2024332
2,Slobodana Kusturića,78000,44.7632650,17.2022799
4,Slobodana Kusturića,78000,44.7630426,17.2023896
114,Bulevar vojvode Stepe Stepanovića,78000,44.7652753,17.2049151
175,Bulevar vojvode Stepe Stepanovića,78000,44.7657880,17.2048713
13,Slobodana Kusturića,78000,44.7640662,17.2023583
23,Milana Karanovića,78000,44.7714918,17.2104321
23a,Milana Karanovića,78000,44.7714839,17.2107267
119,Rade Vranješević,78000,44.7697576,17.2098998
9,Maksima Gorkog,78000,44.7761665,17.1818195
18,Bana dr Todora Lazarevića,78000,44.7717091,17.1943064
50,Kralja Petra I Karađorđevića,78000,44.7687123,17.1883101
3,Bana dr Todora Lazarevića,78000,44.7721593,17.1938597
5,Bana dr Todora Lazarevića,78000,44.7720125,17.1940394
7,Bana dr Todora Lazarevića,78000,44.7719914,17.1943002
8,Bana Milosavljevića,78000,44.7726996,17.1937043
4,Aleja Svetog Save,78000,44.7737225,17.1941342
8,Aleja Svetog Save,78000,44.7737226,17.1942775
28,Aleja Svetog Save,78000,44.7737610,17.1969283
26,Aleja Svetog Save,78000,44.7737627,17.1962890
12,Aleja Svetog Save,78000,44.7737227,17.1944191
6,Mirka Kovačevića,78000,44.7635074,17.1892739
46a,Cara Lazara,78000,44.7597377,17.1921781
1а,Starine Novaka,78000,44.7600482,17.1918888
1a,Bulevar vojvode Petra Bojovića,78000,44.7746875,17.2132111
76,Stevana Bulajića,78000,44.7590659,17.1985424
42a,Stevana Bulajića,78000,44.7592927,17.1985381
66,Stevana Bulajića,78000,44.7587781,17.1974148
68,Stevana Bulajića,78000,44.7588152,17.1975355
40,Stevana Bulajića,78000,44.7596909,17.1986504
42,Stevana Bulajića,78000,44.7595528,17.1987255
42c,Stevana Bulajića,78000,44.7593589,17.1980994
42d,Stevana Bulajića,78000,44.7595171,17.1980167
44b,Stevana Bulajića,78000,44.7594159,17.1976695
44a,Stevana Bulajića,78000,44.7592785,17.1977442
8,Kalemegdanska,78000,44.7589773,17.1920391
10,Kalemegdanska,78000,44.7589151,17.1920772
30,Cerska,78000,44.7599663,17.2016912
36,Cerska,78000,44.7601343,17.2016494
42,Cerska,78000,44.7602421,17.2014556
2,Cerska,78000,44.7608623,17.2014182
6,Cerska,78000,44.7606130,17.2010516
4,Cerska,78000,44.7607136,17.2013584
4,Vrbaski put,78000,44.7707148,17.2105844
6,Vrbaski put,78000,44.7707092,17.2109360
8,Vrbaski put,78000,44.7708015,17.2113832
10,Vrbaski put,78000,44.7707940,17.2115757
54,Vase Pelagića,78000,44.7733960,17.1971154
52,Vase Pelagića,78000,44.7733751,17.1972769
56,Vase Pelagića,78000,44.7734168,17.1969540
42,Vase Pelagića,78000,44.7728553,17.1966074
40,Vase Pelagića,78000,44.7727334,17.1965759
44,Vase Pelagića,78000,44.7729772,17.1966389
58,Vase Pelagića,78000,44.7736000,17.1966904
31,Vase Pelagića,78000,44.7734481,17.1963797
19a,Vase Pelagića,78000,44.7728069,17.1959900
55,Milana Karanovića,78000,44.7698680,17.2117900
51,Milana Karanovića,78000,44.7700737,17.2114128
2,Pave Radana,78000,44.7776050,17.1954751
14,Kralja Petra I Karađorđevića,78000,44.7661484,17.1856998
3,Veselina Masleše,78000,44.7708860,17.1903050
38,Kralja Petra I Karađorđevića,78000,44.7672790,17.1867393
26,Kralja Petra I Karađorđevića,78000,44.7669587,17.1864348
13,Uroša Predića,78000,44.7704341,17.2006861
15,Uroša Predića,78000,44.7704266,17.2008647
3,Uroša Predića,78000,44.7700685,17.1996166
5,Uroša Predića,78000,44.7700702,17.1997614
19,Bulevar vojvode Živojina Mišića,78000,44.7712508,17.2038088
22,Save Kovačevića,78000,44.7681752,17.2019990
19,Rade Vranješević,78000,44.7713063,17.2079986
13,Rade Vranješević,78000,44.7715700,17.2082846
89,Bulevar vojvode Stepe Stepanovića,78000,44.7649211,17.2003799
2e,Dr Vojislava Đede Kecmanovića,78000,44.7646780,17.2115021
2,Josifa Pančića,78000,44.7626617,17.2087596
8,Josifa Pančića,78000,44.7631369,17.2094310
1b,Dr Vojislava Đede Kecmanovića,78000,44.7647524,17.2119575
1a,Dr Vojislava Đede Kecmanovića,78000,44.7649747,17.2120748
2,Josifa Pančića,78000,44.7627150,17.2086714
6,Josifa Pančića,78000,44.7629926,17.2092226
8,Josifa Pančića,78000,44.7634147,17.2095274
8,Josifa Pančića,78000,44.7633068,17.2096560
15,Bulevar Novi Borik,78000,44.7737079,17.2178006
13,Bulevar Novi Borik,78000,44.7737853,17.2176439
17,Bulevar Novi Borik,78000,44.7740612,17.2184464
19,Bulevar Novi Borik,78000,44.7742549,17.2182525
23,Bulevar Novi Borik,78000,44.7742149,17.2173261
25,Bulevar Novi Borik,78000,44.7741704,17.2170428
21,Bulevar Novi Borik,78000,44.7742616,17.2176235
19c,Boška Tošića,78000,44.7618705,17.1988127
19d,Boška Tošića,78000,44.7615585,17.1989437
50,Majke Jugovića,78000,44.7616852,17.1992237
4,Josifa Pančića,78000,44.7631991,17.2086792
90,Jug Bogdana,78000,44.7624580,17.2038273
4,Josifa Pančića,78000,44.7632997,17.2086824
4,Josifa Pančića,78000,44.7633992,17.2088901
32,Bulevar vojvode Živojina Mišića,78000,44.7727449,17.2151702
15,Stevana Bulajića,78000,44.7599482,17.1963149
17,Stevana Bulajića,78000,44.7598687,17.1963296
8,Todora od Stalaća,78000,44.7595874,17.1932686
8a,Todora od Stalaća,78000,44.7595554,17.1932960
25,Miloša Obilića,78000,44.7617574,17.1891379
27,Miloša Obilića,78000,44.7617092,17.1890270
29,Miloša Obilića,78000,44.7615547,17.1890557
36,Miloša Obilića,78000,44.7615494,17.1880895
34,Miloša Obilića,78000,44.7617121,17.1882346
36,Miloša Obilića,78000,44.7616373,17.1880865
38,Miloša Obilića,78000,44.7615315,17.1878514
40,Miloša Obilića,78000,44.7614955,17.1877519
42,Miloša Obilića,78000,44.7613802,17.1875700
44,Miloša Obilića,78000,44.7613432,17.1874744
14,Miloša Obilića,78000,44.7623477,17.1900305
16,Miloša Obilića,78000,44.7623182,17.1899286
10,Miloša Obilića,78000,44.7625314,17.1901597
8,Bulevar vojvode Stepe Stepanovića,78000,44.7622717,17.1923733
16,Vrbaski put,78000,44.7707413,17.2126888
11,Slobodana Kusturića,78000,44.7638209,17.2023679
13,Slobodana Kusturića,78000,44.7639138,17.2022951
11,Slobodana Kusturića,78000,44.7637377,17.2023822
9,Slobodana Kusturića,78000,44.7637435,17.2021974
7,Slobodana Kusturića,78000,44.7637311,17.2019304
161,Bulevar vojvode Stepe Stepanovića,78000,44.7657372,17.2044359
163,Bulevar vojvode Stepe Stepanovića,78000,44.7658997,17.2043336
9,Boška Tošića,78000,44.7633099,17.1992981
11,Boška Tošića,78000,44.7632104,17.1993308
20,Bulevar vojvode Stepe Stepanovića,78000,44.7624445,17.1934281
22,Bulevar vojvode Stepe Stepanovića,78000,44.7624574,17.1934630
24,Bulevar vojvode Stepe Stepanovića,78000,44.7624707,17.1934965
26,Bulevar vojvode Stepe Stepanovića,78000,44.7624812,17.1935381
6,Gavre Vučkovića,78000,44.7683317,17.1991320
6,Novice Cerovića,78000,44.7691158,17.1991000
4,Gavre Vučkovića,78000,44.7679539,17.1992158
19d,Boška Tošića,78000,44.7613891,17.1987957
72,Jovana Dučića,78000,44.7774242,17.1898722
74,Jovana Dučića,78000,44.7776717,17.1898570
56,Trive Amelice,78000,44.7861264,17.1965696
11,Majke Knežopoljke,78000,44.7700761,17.2016616
13,Majke Knežopoljke,78000,44.7702593,17.2015733
17,Majke Knežopoljke,78000,44.7703811,17.2020354
15,Majke Knežopoljke,78000,44.7701967,17.2021327
2,Beogradska,78000,44.7704980,17.2025180
4,Beogradska,78000,44.7703221,17.2026101
8a,Bulevar vojvode Živojina Mišića,78000,44.7704940,17.2008761
1,Bulevar vojvode Živojina Mišića,78000,44.7711226,17.2001512
3,Bulevar vojvode Živojina Mišića,78000,44.7711253,17.2000843
21,Vojvode Radomira Putnika,78000,44.7711002,17.1976790
15,Rade Vranješević,78000,44.7714184,17.2079543
39,Braće Jugovića,78000,44.7595090,17.1879942
26,Braće Jugovića,78000,44.7605880,17.1901186
22,Gundulićeva,78000,44.7713839,17.1994965
14a,Bulevar srpske vojske,78000,44.7858714,17.2061586
25,Bulevar srpske vojske,78000,44.7827066,17.2053084
27,Bulevar srpske vojske,78000,44.7827376,17.2053365
20,Aleja Svetog Save,78000,44.7736150,17.1953319
22,Aleja Svetog Save,78000,44.7736417,17.1957322
24,Aleja Svetog Save,78000,44.7737834,17.1961012
bb,Vladike Platona,78000,44.7762815,17.1975925
bb,Vladike Platona,78000,44.7761558,17.1974769
48,Nikole Pašića,78000,44.7719923,17.1988993
58,Nikole Pašića,78000,44.7727272,17.1989188
56,Nikole Pašića,78000,44.7725940,17.1988633
54,Nikole Pašića,78000,44.7724540,17.1988609
52,Nikole Pašića,78000,44.7723287,17.1988088
50,Nikole Pašića,78000,44.7721907,17.1988222
48,Nikole Pašića,78000,44.7720676,17.1987709
44,Nikole Pašića,78000,44.7721674,17.1985133
42,Nikole Pašića,78000,44.7722003,17.1983282
66,Nikole Pašića,78000,44.7725615,17.1983467
68,Nikole Pašića,78000,44.7725222,17.1985562
9c,Prvog krajiškog korpusa,78000,44.7766410,17.1929405
5c,Svetozara Markovića,78000,44.7776582,17.1920129
13,Vase Pelagića,78000,44.7721930,17.1959291
3,Meše Selimovića,78000,44.7671531,17.1861951
91,Skendera Kulenovića,78000,44.7631111,17.1832016
67,Skendera Kulenovića,78000,44.7635355,17.1836398
20,Cara Lazara,78000,44.7633552,17.1900886
18,Nikole Pašića,78000,44.7692636,17.1962909
20,Cara Lazara,78000,44.7633159,17.1901119
161,Bulevar vojvode Stepe Stepanovića,78000,44.7656812,17.2044090
2c,Vladana Desnice,78000,44.7957518,17.2075226
103,Kralja Petra I Karađorđevića,78000,44.7734164,17.1919009
3,Ivana Franje Jukića,78000,44.7710257,17.1922925
5,Ivana Franje Jukića,78000,44.7708956,17.1922119
1,Ilije Garašanina,78000,44.7975611,17.2079912
11,Ada,78000,44.7717449,17.2180424
1,Prof. dr Smilje Avramov,78000,44.7710170,17.2228774
3,Prof. dr Smilje Avramov,78000,44.7709427,17.2228355
5,Prof. dr Smilje Avramov,78000,44.7708966,17.2236635
7,Prof. dr Smilje Avramov,78000,44.7706455,17.2235228
9,Prof. dr Smilje Avramov,78000,44.7705437,17.2238375
11,Prof. dr Smilje Avramov,78000,44.7708095,17.2239749
17,Prof. dr Smilje Avramov,78000,44.7704885,17.2252139
19,Prof. dr Smilje Avramov,78000,44.7702227,17.2250764
14,Frana Supila,78000,44.7812488,17.2074158
41,Skendera Kulenovića,78000,44.7637241,17.1844608
43,Skendera Kulenovića,78000,44.7638309,17.1845748
49,Skendera Kulenovića,78000,44.7632868,17.1848526
51,Skendera Kulenovića,78000,44.7633395,17.1847375
53,Skendera Kulenovića,78000,44.7633508,17.1845871
55,Skendera Kulenovića,78000,44.7634049,17.1844668
11,Radoja Domanovića,78000,44.7613695,17.1799629
9,Radoja Domanovića,78000,44.7613566,17.1801137
13,Radoja Domanovića,78000,44.7613824,17.1798121
17,Radoja Domanovića,78000,44.7615341,17.1792974
15,Radoja Domanovića,78000,44.7616355,17.1792868
19,Radoja Domanovića,78000,44.7614326,17.1793079
23,Radoja Domanovića,78000,44.7612690,17.1788655
21,Radoja Domanovića,78000,44.7613036,17.1790108
25,Radoja Domanovića,78000,44.7612345,17.1787201
16,Filipa Macure,78000,44.7610877,17.1780481
18,Filipa Macure,78000,44.7611607,17.1779465
14,Filipa Macure,78000,44.7610147,17.1781497
10,Filipa Macure,78000,44.7608849,17.1787790
12,Filipa Macure,78000,44.7608904,17.1786064
7,Radoja Domanovića,78000,44.7617574,17.1797174
7,Radoja Domanovića,78000,44.7617748,17.1796345
8,Radoja Domanovića,78000,44.7620765,17.1795154
10,Radoja Domanovića,78000,44.7620702,17.1793741
4,Radoja Domanovića,78000,44.7619015,17.1806700
2,Branka Zagorca,78000,44.7619138,17.1809495
10b,Bulevar vojvode Živojina Mišića,78000,44.7722473,17.2115886
2,Trg Krajine,78000,44.7702437,17.1897606
2,Trg Krajine,78000,44.7696046,17.1894685
2,Trg Krajine,78000,44.7695206,17.1894973
2,Trg Krajine,78000,44.7694049,17.1895613
181b,Bulevar vojvode Stepe Stepanovića,78000,44.7670910,17.2082565
181b,Bulevar vojvode Stepe Stepanovića,78000,44.7670006,17.2082454
51,Milana Karanovića,78000,44.7701311,17.2110489
6,Majke Jugovića,78000,44.7639152,17.1996979
8,Majke Jugovića,78000,44.7638709,17.1996594
53,Milana Karanovića,78000,44.7698200,17.2115818
57,Milana Karanovića,78000,44.7698792,17.2120710
61,Milana Karanovića,78000,44.7698388,17.2124537
3,Knjaza Miloša,78000,44.7881255,17.2055921
25,Jovana Dučića,78000,44.7758774,17.1864472
68,Knjaza Miloša,78000,44.8012634,17.2083495
254,Karađorđeva,78000,44.7787232,17.1690195
256,Karađorđeva,78000,44.7788277,17.1689389
6,Brace Potkonjaka,78000,44.7640509,17.1905591
24,Jevrejska,78000,44.7698724,17.1911792
26,Jevrejska,78000,44.7698190,17.1913307
28,Jevrejska,78000,44.7697548,17.1915131
22,Jevrejska,78000,44.7699657,17.1909291
75,Jevrejska,78000,44.7694709,17.1927191
77,Jevrejska,78000,44.7695378,17.1929136
73,Jevrejska,78000,44.7696173,17.1926540
67,Jevrejska,78000,44.7697004,17.1919842
2,Ivana Franje Jukića,78000,44.7711862,17.1920864
10,Gajeva,78000,44.7697505,17.1905206
14,Gajeva,78000,44.7699513,17.1906796
12,Gajeva,78000,44.7698509,17.1906001
16,Jevrejska,78000,44.7702107,17.1902847
12,Jevrejska,78000,44.7702435,17.1902076
14,Gajeva,78000,44.7699818,17.1907191
2,Trg Krajine,78000,44.7694708,17.1895223
2,Trg Krajine,78000,44.7693658,17.1896317
14,Carice Milice,78000,44.7640030,17.1918282
16,Carice Milice,78000,44.7640154,17.1919543
42,Carice Milice,78000,44.7640528,17.1926379
42a,Carice Milice,78000,44.7640619,17.1926897
2,Brace Potkonjaka,78000,44.7643208,17.1904139
1,Vojvode Radomira Putnika,78000,44.7715064,17.1958710
9,Prote Todora Srdića,78000,44.7637235,17.1888076
9a,Prote Todora Srdića,78000,44.7635980,17.1889122
11,Vojvode Radomira Putnika,78000,44.7713165,17.1967260
37,Nikole Pašića,78000,44.7717093,17.1972108
18,Srpska,78000,44.7712073,17.1929643
15b,Bulevar srpske vojske,78000,44.7809457,17.2046757
19d,Boška Tošića,78000,44.7614144,17.1989819
4,Gavre Vučkovića,78000,44.7679091,17.1992359
99a,Kralja Petra I Karađorđevića,78000,44.7735703,17.1911516
2,Vidovdanska,78000,44.7738522,17.1908366
2,Trg Krajine,78000,44.7694019,17.1899902
2,Trg Krajine,78000,44.7693060,17.1898744
2,Trg Krajine,78000,44.7694987,17.1901372
207,Bulevar vojvode Stepe Stepanovića,78000,44.7666635,17.2156223
69,Aleja Svetog Save,78000,44.7748064,17.2054085
10A,Sime Matavulja,78000,44.7733404,17.1827007
4A,Sime Matavulja,78000,44.7735870,17.1832697
16,Sime Matavulja,78000,44.7723502,17.1819987
14,Sime Matavulja,78000,44.7724951,17.1821818
12,Sime Matavulja,78000,44.7726805,17.1823571
1,Dragomira-Drage Malića,78000,44.7741725,17.1835053
3,Dragomira-Drage Malića,78000,44.7743968,17.1833244
5,Dragomira-Drage Malića,78000,44.7745670,17.1831455
7,Dragomira-Drage Malića,78000,44.7747199,17.1829524
9,Dragomira-Drage Malića,78000,44.7748847,17.1827593
11,Dragomira-Drage Malića,78000,44.7750349,17.1825682
13,Dragomira-Drage Malića,78000,44.7751848,17.1823903
8,Bulevar srpske vojske,78000,44.7798986,17.2068400
8,Bulevar srpske vojske,78000,44.7796851,17.2068173
8,Bulevar srpske vojske,78000,44.7795467,17.2068297
3,Branka Ćopića,78000,44.7754435,17.2031050
91,Omladinska,78000,44.7666421,17.1791217
93,Omladinska,78000,44.7664645,17.1789922
2,Bulevar Desanke Maksimović,78000,44.7651632,17.2080045
2,Trg Krajine,78000,44.7696384,17.1895387
2,Trg Krajine,78000,44.7698722,17.1897012
11,Vase Pelagića,78000,44.7720009,17.1958551
81,Kralja Petra I Karađorđevića,78000,44.7681437,17.1872017
66,Kralja Petra I Karađorđevića,78000,44.7713575,17.1903492
62,Kralja Petra I Karađorđevića,78000,44.7709491,17.1900101
16,Prvog krajiškog korpusa,78000,44.7768722,17.1940732
16,Prvog krajiškog korpusa,78000,44.7769149,17.1939584
28,Novice Cerovića,78000,44.7685073,17.1991626
101,Kralja Petra I Karađorđevića,78000,44.7736127,17.1912007
101,Kralja Petra I Karađorđevića,78000,44.7737083,17.1912735
99,Kralja Petra I Karađorđevića,78000,44.7733671,17.1909572
99a,Kralja Petra I Karađorđevića,78000,44.7735880,17.1910084
99,Kralja Petra I Karađorđevića,78000,44.7734452,17.1909175
101,Kralja Petra I Karađorđevića,78000,44.7737058,17.1911486
113,Kralja Petra I Karađorđevića,78000,44.7748129,17.1919870
115,Kralja Petra I Karađorđevića,78000,44.7748539,17.1920258
107,Kralja Petra I Karađorđevića,78000,44.7741018,17.1921549
33,Cara Lazara,78000,44.7604165,17.1926942
69,Srđe Zlopogleđe,78000,44.7608395,17.1947151
71,Srđe Zlopogleđe,78000,44.7608486,17.1946068
140,Srđe Zlopogleđe,78000,44.7608054,17.1926152
5,Kralja Alfonsa XIII,78000,44.7710664,17.1914965
209,Ivana Gorana Kovačića,78000,44.8049079,17.1989457
165,Marka Lipovca,78000,44.7960787,17.1994036
1,Kralja Petra I Karađorđevića,78000,44.7653990,17.1844994
3,Kralja Petra I Karađorđevića,78000,44.7655668,17.1846496
30,Kralja Petra I Karađorđevića,78000,44.7670373,17.1865317
1,Braće Mažar i majke Marije,78000,44.7675177,17.1866966
19a,Braće Mažar i majke Marije,78000,44.7678990,17.1859427
19,Braće Mažar i majke Marije,78000,44.7678662,17.1860060
20,Braće Mažar i majke Marije,78000,44.7680862,17.1865839
25,Vase Glušca,78000,44.7677933,17.1984096
7,Bulevar srpske vojske,78000,44.7763271,17.2065206
18,Momčila Popovića,78000,44.7735332,17.1798692
11,Kralja Alfonsa XIII,78000,44.7709614,17.1918109
8,Bulevar srpske vojske,78000,44.7794990,17.2069007
8,Bana Milosavljevića,78000,44.7728672,17.1935916
101a,Bulevar vojvode Stepe Stepanovića,78000,44.7651061,17.2009202
5,Kralja Petra I Karađorđevića,78000,44.7660144,17.1849166
1,Zdrave Korde,78000,44.7716038,17.1823587
36,Branka Popovića,78000,44.8089695,17.2110710
2,Kninska,78000,44.7690135,17.1872545
52,Braće Mažar i majke Marije,78000,44.7682257,17.1854897
52,Braće Mažar i majke Marije,78000,44.7682560,17.1854326
52,Braće Mažar i majke Marije,78000,44.7682528,17.1855286
10,Vojvode Momčila,78000,44.7682186,17.1858741
5,Dr Mladena Stojanovića,78000,44.7792353,17.1977271
69,Aleja Svetog Save,78000,44.7749451,17.2061155
69,Aleja Svetog Save,78000,44.7750889,17.2060397
2,Trg Krajine,78000,44.7696328,17.1896079
18,Braće Mažar i majke Marije,78000,44.7681399,17.1865989
20,Braće Mažar i majke Marije,78000,44.7680357,17.1864995
16,Braće Mažar i majke Marije,78000,44.7682442,17.1866982
21,Braće Mažar i majke Marije,78000,44.7679981,17.1857155
11,Kralja Petra I Karađorđevića,78000,44.7668997,17.1858660
9,Kralja Petra I Karađorđevića,78000,44.7667362,17.1857242
3,Miloša Obilića,78000,44.7624144,17.1912513
2,Jovana Dučića,78000,44.7710517,17.1855644
24,Bana Milosavljevića,78000,44.7732651,17.1933997
7a,Novice Cerovića,78000,44.7687241,17.2000650
7,Novice Cerovića,78000,44.7689149,17.1999779
5,Novice Cerovića,78000,44.7690202,17.1999223
7a,Novice Cerovića,78000,44.7688095,17.2000336
1,Novice Cerovića,78000,44.7692959,17.1997590
3,Novice Cerovića,78000,44.7692020,17.1998189
9,Novice Cerovića,78000,44.7685064,17.2001759
9a,Novice Cerovića,78000,44.7683707,17.2002487
18,Cara Lazara,78000,44.7637665,17.1896521
39,Braće Mažar i majke Marije,78000,44.7690193,17.1833301
3,Simeuna Đaka,78000,44.7669979,17.1843448
16,Kralja Petra I Karađorđevića,78000,44.7662054,17.1858054
107,Bulevar vojvode Stepe Stepanovića,78000,44.7658283,17.2015341
107a,Bulevar vojvode Stepe Stepanovića,78000,44.7659576,17.2014139
107b,Bulevar vojvode Stepe Stepanovića,78000,44.7661441,17.2012488
107c,Bulevar vojvode Stepe Stepanovića,78000,44.7661572,17.2014243
101a,Bulevar vojvode Stepe Stepanovića,78000,44.7651845,17.2010170
1,Meše Selimovića,78000,44.7671317,17.1862505
5,Meše Selimovića,78000,44.7671772,17.1861412
11,Meše Selimovića,78000,44.7677227,17.1848766
8,Zmaj Jovina,78000,44.7683167,17.1832932
10,Zmaj Jovina,78000,44.7683956,17.1833698
15,Slobodana Kusturića,78000,44.7649589,17.2028440
40,Jevrejska,78000,44.7687028,17.1944013
42,Jevrejska,78000,44.7686839,17.1946349
1a,Bulevar vojvode Petra Bojovića,78000,44.7745644,17.2115765
22,Jevrejska,78000,44.7699464,17.1908968
4,Kralja Alfonsa XIII,78000,44.7707951,17.1913748
6,Kralja Alfonsa XIII,78000,44.7707329,17.1913202
8,Kralja Alfonsa XIII,78000,44.7705339,17.1921891
10,Kralja Alfonsa XIII,78000,44.7704629,17.1923991
6a,Kralja Alfonsa XIII,78000,44.7708736,17.1917175
2,Ivana Franje Jukića,78000,44.7713009,17.1921425
5,Srpska,78000,44.7714510,17.1926710
85,Srpska,78000,44.7701118,17.1964974
bb,Vladike Platona,78000,44.7749024,17.1980489
bb,Vladike Platona,78000,44.7747912,17.1980553
25,Jovana Dučića,78000,44.7759983,17.1850473
23/25,Jovana Dučića,78000,44.7759236,17.1852168
25,Jovana Dučića,78000,44.7759747,17.1851320
25,Jovana Dučića,78000,44.7749694,17.1867323
69,Jevrejska,78000,44.7696770,17.1921008
19,Grčka,78000,44.7741812,17.1872850
2,Trg Krajine,78000,44.7698600,17.1900313
2,Trg Krajine,78000,44.7699482,17.1897912
63,Cara Lazara,78000,44.7600150,17.1928979
4,Grčka,78000,44.7737114,17.1896042
7а,Marije Bursać,78000,44.7701240,17.1861785
10,Zdrave Korde,78000,44.7721812,17.1830583
10,Jovana Dučića,78000,44.7720717,17.1858365
8,Jovana Dučića,78000,44.7719206,17.1857696
2,Trg Krajine,78000,44.7698245,17.1899597
2,Trg Krajine,78000,44.7698044,17.1896949
19a,Vase Glušca,78000,44.7684371,17.1984848
21,Vase Glušca,78000,44.7682362,17.1986294
23,Vase Glušca,78000,44.7680182,17.1985305
25,Vase Glušca,78000,44.7679107,17.1984148
22,Jevrejska,78000,44.7699706,17.1908590
5,Srpska,78000,44.7714120,17.1928079
10,Gajeva,78000,44.7696963,17.1905052
12,Gajeva,78000,44.7699158,17.1906691
22,Srpska,78000,44.7711308,17.1930280
10,Srpska,78000,44.7712993,17.1926889
12,Srpska,78000,44.7713194,17.1927845
14,Srpska,78000,44.7712592,17.1928256
20,Veselina Masleše,78000,44.7713617,17.1914739
3,Veselina Masleše,78000,44.7710004,17.1902428
69,Aleja Svetog Save,78000,44.7755893,17.2057571
69,Aleja Svetog Save,78000,44.7755235,17.2057638
69,Aleja Svetog Save,78000,44.7754431,17.2057794
69,Aleja Svetog Save,78000,44.7753647,17.2057950
69,Aleja Svetog Save,78000,44.7752853,17.2058091
69,Aleja Svetog Save,78000,44.7748216,17.2056186
69,Aleja Svetog Save,78000,44.7749456,17.2058644
69,Aleja Svetog Save,78000,44.7758890,17.2059451
69,Aleja Svetog Save,78000,44.7758129,17.2059550
69,Aleja Svetog Save,78000,44.7756149,17.2059946
69,Aleja Svetog Save,78000,44.7750925,17.2059260
69,Aleja Svetog Save,78000,44.7748652,17.2061277
69,Aleja Svetog Save,78000,44.7749461,17.2057460
69,Aleja Svetog Save,78000,44.7749431,17.2056408
69,Aleja Svetog Save,78000,44.7750771,17.2055955
69,Aleja Svetog Save,78000,44.7750848,17.2057091
69,Aleja Svetog Save,78000,44.7750882,17.2058141
69,Aleja Svetog Save,78000,44.7748464,17.2058760
65,Braće Mažar i majke Marije,78000,44.7686053,17.1848759
84,Braće Mažar i majke Marije,78000,44.7686855,17.1846507
88,Braće Mažar i majke Marije,78000,44.7687376,17.1845266
73,Miloša Obilića,78000,44.7601306,17.1856100
47,Miloša Obilića,78000,44.7609137,17.1874274
49,Miloša Obilića,78000,44.7608849,17.1873510
310,Branka Popovića,78000,44.8180034,17.2165499
4,Stevana Moljevića,78000,44.7592175,17.1798446
6,Stevana Moljevića,78000,44.7591693,17.1799720
10,Stevana Moljevića,78000,44.7590647,17.1801928
12,Stevana Moljevića,78000,44.7590225,17.1802863
5,Stevana Moljevića,78000,44.7593625,17.1802235
7,Stevana Moljevića,78000,44.7593203,17.1803367
69,Aleja Svetog Save,78000,44.7750156,17.2053198
34,Jevrejska,78000,44.7691320,17.1934637
2,Trg Krajine,78000,44.7701937,17.1898071
16,Vojvode Momčila,78000,44.7686154,17.1863075
25,Bulevar cara Dušana,78000,44.7695915,17.1847788
15a,Bulevar srpske vojske,78000,44.7801162,17.2051732
11,Kolubarska,78000,44.7602476,17.1813667
111,Dr Mladena Stojanovića,78000,44.7838125,17.2028127
181c,Bulevar vojvode Stepe Stepanovića,78000,44.7672249,17.2082506
43,Vidovdanska,78000,44.7753907,17.1899264
10,Vase Pelagića,78000,44.7709247,17.1956178
36,Simeuna Đaka,78000,44.7679405,17.1824622
49,Braće Mažar i majke Marije,78000,44.7692709,17.1828220
19a,Braće Mažar i majke Marije,78000,44.7679364,17.1858589
17,Knjaza Miloša,78000,44.7946738,17.2059709
54,Braće Mažar i majke Marije,78000,44.7683428,17.1852704
36,Braće Mažar i majke Marije,78000,44.7679464,17.1862061
38,Braće Mažar i majke Marije,78000,44.7679702,17.1861448
47,Braće Mažar i majke Marije,78000,44.7691959,17.1829535
45,Braće Mažar i majke Marije,78000,44.7691526,17.1830511
9,Zmaj Jovina,78000,44.7687328,17.1834005
37,Braće Mažar i majke Marije,78000,44.7687468,17.1839176
6,Braće Mažar i majke Marije,78000,44.7677756,17.1865396
3,Pave Radana,78000,44.7777336,17.1945692
21,Kralja Alfonsa XIII,78000,44.7703578,17.1936379
1c,Dunavska,78000,44.7873612,17.2142986
69,Aleja Svetog Save,78000,44.7751863,17.2054022
69,Aleja Svetog Save,78000,44.7752388,17.2055550
8,Bulevar srpske vojske,78000,44.7805271,17.2072626
8,Bulevar srpske vojske,78000,44.7797330,17.2068594
8,Bulevar srpske vojske,78000,44.7797488,17.2067795
8,Bulevar srpske vojske,78000,44.7792872,17.2078094
8,Bulevar srpske vojske,78000,44.7792951,17.2079671
8,Bulevar srpske vojske,78000,44.7795348,17.2080177
8,Bulevar srpske vojske,78000,44.7799728,17.2069395
306,Branka Popovića,78000,44.8173754,17.2157050
bb,Cara Lazara,78000,44.7641106,17.1897896
17,Carice Milice,78000,44.7647123,17.1920341
11,Carice Milice,78000,44.7645272,17.1919816
8,Bulevar srpske vojske,78000,44.7801237,17.2068036
8,Bulevar srpske vojske,78000,44.7803197,17.2074160
8,Bulevar srpske vojske,78000,44.7798218,17.2068568
3,Talijanskog bataljona Mateoti,78000,44.7674588,17.1814836
5,Talijanskog bataljona Mateoti,78000,44.7675507,17.1812270
7,Talijanskog bataljona Mateoti,78000,44.7675992,17.1808474
9,Talijanskog bataljona Mateoti,78000,44.7674332,17.1807224
12,Anđe Knežević,78000,44.7671405,17.1809520
14,Anđe Knežević,78000,44.7672350,17.1806986
3,Anđe Knežević,78000,44.7668389,17.1808714
5,Anđe Knežević,78000,44.7666752,17.1807482
7,Anđe Knežević,78000,44.7664869,17.1804656
9,Anđe Knežević,78000,44.7663176,17.1803451
11,Anđe Knežević,78000,44.7668099,17.1804111
13,Anđe Knežević,78000,44.7668981,17.1801710
10,Anđe Knežević,78000,44.7670462,17.1812136
8,Anđe Knežević,78000,44.7672117,17.1813321
62,Miloša Obilića,78000,44.7602845,17.1846516
64,Miloša Obilića,78000,44.7602034,17.1848405
1,Gavrila Principa,78000,44.7603916,17.1843187
8,Bulevar srpske vojske,78000,44.7803977,17.2074331
8,Bulevar srpske vojske,78000,44.7802665,17.2069069
77,Kralja Petra II,78000,44.7883065,17.1995397
2,Kralja Alfonsa XIII,78000,44.7710988,17.1911279
2,Kralja Alfonsa XIII,78000,44.7710469,17.1912300
39f,Slobodana Jovanovića,78000,44.7796288,17.1877351
8,Bulevar srpske vojske,78000,44.7791165,17.2077894
23a,Jovana Dučića,78000,44.7761633,17.1834427
8,Bulevar srpske vojske,78000,44.7793033,17.2080732
310,Branka Popovića,78000,44.8178740,17.2167627
11,Kralja Alfonsa XIII,78000,44.7709434,17.1918746
4,Slobodana Kusturića,78000,44.7630732,17.2021630
310,Branka Popovića,78000,44.8179997,17.2163382
8,Tihomira-Tihe Damjanovića,78000,44.7616063,17.1850977
10,Sime Matavulja,78000,44.7728456,17.1828836
3,Karađorđeva,78000,44.7712721,17.1809073
8,Bulevar srpske vojske,78000,44.7794156,17.2075985
4,Gajeva,78000,44.7694455,17.1903045
14,Zdravka Čelara,78000,44.7673461,17.1882987
57,Krajiških brigada,78000,44.7755607,17.1818983
23,Branka Ćopića,78000,44.7772904,17.2030381
21,Mileševska,78000,44.7562105,17.1926488
23,Mileševska,78000,44.7562288,17.1927528
23a,Jovana Dučića,78000,44.7767616,17.1839847
42,Jug Bogdana,78000,44.7602621,17.2005411
44,Jug Bogdana,78000,44.7602744,17.2006133
46,Jug Bogdana,78000,44.7602866,17.2006880
34,Jug Bogdana,78000,44.7603567,17.2004661
36,Jug Bogdana,78000,44.7603146,17.2004766
38,Jug Bogdana,78000,44.7602755,17.2004874
54,Jug Bogdana,78000,44.7603824,17.2004983
10,Jug Bogdana,78000,44.7602322,17.2008487
80c,Ranka Šipke,78000,44.7807270,17.1852790
69,Aleja Svetog Save,78000,44.7751418,17.2055109
47,Nikole Pašića,78000,44.7725186,17.1974582
8,Bulevar srpske vojske,78000,44.7798633,17.2068472
47,Milana Radmana,78000,44.7827232,17.1941665
11,Masarikova,78000,44.7793279,17.1922438
3,Slobodana Jovanovića,78000,44.7793611,17.1907445
1,Slobodana Jovanovića,78000,44.7792810,17.1909104
106,Jovana Dučića,78000,44.7800367,17.1919943
108,Jovana Dučića,78000,44.7800984,17.1920426
10,Slobodana Jovanovića,78000,44.7800422,17.1906138
4,Slobodana Jovanovića,78000,44.7798199,17.1908156
12,Slobodana Jovanovića,78000,44.7802344,17.1905307
34,Slobodana Jovanovića,78000,44.7804747,17.1905124
36,Slobodana Jovanovića,78000,44.7806444,17.1903078
3,Tarasa Ševčenka,78000,44.7790427,17.1884047
5,Tarasa Ševčenka,78000,44.7791581,17.1885108
7,Tarasa Ševčenka,78000,44.7792689,17.1886112
20,Dragiše Vasića,78000,44.7794196,17.1934774
22,Dragiše Vasića,78000,44.7793006,17.1933754
18,Dragiše Vasića,78000,44.7795386,17.1935793
3,Dragiše Vasića,78000,44.7807100,17.1950330
5,Dragiše Vasića,78000,44.7806192,17.1949409
7,Dragiše Vasića,78000,44.7805218,17.1948422
1,Dragiše Vasića,78000,44.7808045,17.1951288
25,Ravnogorska,78000,44.7811763,17.1959000
27,Ravnogorska,78000,44.7812409,17.1957766
23,Ravnogorska,78000,44.7811084,17.1960342
21,Ravnogorska,78000,44.7810404,17.1961687
15,Ravnogorska,78000,44.7803174,17.1961591
13,Ravnogorska,78000,44.7804018,17.1959923
17,Ravnogorska,78000,44.7802330,17.1963259
4a,V Kozarske brigade,78000,44.7830283,17.2011166
4b,V Kozarske brigade,78000,44.7829561,17.2009126
4c,V Kozarske brigade,78000,44.7828560,17.2007555
36,Braće Jugovića,78000,44.7604087,17.1892208
38,Braće Jugovića,78000,44.7603209,17.1892809
92,Braće Jugovića,78000,44.7585283,17.1854574
94,Braće Jugovića,78000,44.7584885,17.1853621
96,Braće Jugovića,78000,44.7584282,17.1852643
98,Braće Jugovića,78000,44.7583811,17.1851596
40a,Gavrila Principa,78000,44.7568712,17.1875635
40b,Gavrila Principa,78000,44.7568059,17.1876513
40g,Gavrila Principa,78000,44.7565693,17.1879789
40h,Gavrila Principa,78000,44.7565097,17.1880653
16a,Ravnogorska,78000,44.7806227,17.1973098
30,Aleja Svetog Save,78000,44.7737345,17.1971816
26,Mirka Kovačevića,78000,44.7623520,17.1870857
26a,Mirka Kovačevića,78000,44.7622728,17.1869441
101,Jevrejska,78000,44.7689454,17.1955390
103,Jevrejska,78000,44.7689148,17.1957146
4,Gundulićeva,78000,44.7701488,17.1993550
4a,Gundulićeva,78000,44.7702459,17.1993636
33a,Mirka Kovačevića,78000,44.7617059,17.1868362
32,Jevrejska,78000,44.7691910,17.1932721
36,Jevrejska,78000,44.7688693,17.1936555
87,Jevrejska,78000,44.7692359,17.1937248
89,Jevrejska,78000,44.7692080,17.1938995
35,Mirka Kovačevića,78000,44.7618305,17.1867428
27,Braće Mažar i majke Marije,78000,44.7683425,17.1851560
16,Aleja Svetog Save,78000,44.7737050,17.1947393
18,Aleja Svetog Save,78000,44.7737119,17.1949955
17,Bana dr Todora Lazarevića,78000,44.7722731,17.1951477
19,Bana dr Todora Lazarevića,78000,44.7721424,17.1950752
15a,Brace Potkonjaka,78000,44.7635300,17.1912498
15b,Brace Potkonjaka,78000,44.7634526,17.1913175
13b,Brace Potkonjaka,78000,44.7636212,17.1913267
15,Brace Potkonjaka,78000,44.7635958,17.1913466
41b,Brace Potkonjaka,78000,44.7619275,17.1927857
2,Prote Todora Srdića,78000,44.7642382,17.1879257
25,Jovana Dučića,78000,44.7756802,17.1864101
34,Voždovačka,78000,44.7855117,17.1971419
10,Knjaza Miloša,78000,44.7924271,17.2075811
bb,Knjaza Miloša,78000,44.7921061,17.2069097
10c,Knjaza Miloša,78000,44.7926071,17.2076020
51,Srđe Zlopogleđe,78000,44.7606606,17.1962752
30,Voždovačka,78000,44.7855132,17.1962923
28,Voždovačka,78000,44.7855023,17.1964523
26,Voždovačka,78000,44.7854732,17.1966819
24,Voždovačka,78000,44.7854580,17.1968624
22,Voždovačka,78000,44.7853846,17.1970780
52,Trive Amelice,78000,44.7861064,17.1968097
54,Trive Amelice,78000,44.7861142,17.1967294
42,Trive Amelice,78000,44.7860449,17.1974840
40,Trive Amelice,78000,44.7860352,17.1975730
36,Trive Amelice,78000,44.7860103,17.1978984
34,Trive Amelice,78000,44.7860019,17.1980140
32,Trive Amelice,78000,44.7859402,17.1982921
30,Trive Amelice,78000,44.7859289,17.1985642
28,Trive Amelice,78000,44.7859205,17.1988335
41,Trive Amelice,78000,44.7854154,17.1978126
39,Trive Amelice,78000,44.7853948,17.1980384
37,Trive Amelice,78000,44.7853759,17.1982567
35,Trive Amelice,78000,44.7853504,17.1984881
33,Trive Amelice,78000,44.7853647,17.1987514
31,Trive Amelice,78000,44.7853443,17.1989676
4,Voždovačka,78000,44.7850273,17.1989561
6,Voždovačka,78000,44.7851677,17.1990045
2,Voždovačka,78000,44.7848666,17.1989019
9,Kralja Petra II,78000,44.7809877,17.1984732
9a,Kralja Petra II,78000,44.7811171,17.1985811
2,Voždovačka,78000,44.7848566,17.1990004
241,Krajiških brigada,78000,44.7852895,17.1942421
243,Krajiških brigada,78000,44.7853624,17.1942839
91,Kralja Petra I Karađorđevića,78000,44.7712047,17.1894839
33,Prvog krajiškog korpusa,78000,44.7776334,17.1942101
39,Trive Amelice,78000,44.7854049,17.1979415
14a,V Kozarske brigade,78000,44.7844231,17.2024087
6,Jug Bogdana,78000,44.7599425,17.2013047
2,Cerska,78000,44.7609275,17.2015392
8,Jug Bogdana,78000,44.7602902,17.2008304
66,Krfska,78000,44.7567063,17.1936789
68,Krfska,78000,44.7567089,17.1937630
12,Jug Bogdana,78000,44.7602039,17.2007089
14,Jug Bogdana,78000,44.7601915,17.2006376
16,Jug Bogdana,78000,44.7601811,17.2005645
30,Jug Bogdana,78000,44.7604409,17.2003499
24,Jug Bogdana,78000,44.7602941,17.2003556
26,Jug Bogdana,78000,44.7603432,17.2003400
28,Jug Bogdana,78000,44.7603900,17.2003243
60,Jug Bogdana,78000,44.7604929,17.2006088
32,Jug Bogdana,78000,44.7604051,17.2004499
40,Jug Bogdana,78000,44.7602328,17.2005029
62,Jug Bogdana,78000,44.7605063,17.2006806
56,Jug Bogdana,78000,44.7604666,17.2004801
58,Jug Bogdana,78000,44.7604802,17.2005447
43,Srđe Zlopogleđe,78000,44.7603782,17.1974074
41,Srđe Zlopogleđe,78000,44.7605139,17.1973743
6,Jug Bogdana,78000,44.7601098,17.2011356
2,Jug Bogdana,78000,44.7602274,17.2002424
19,Ive Andrića,78000,44.7743936,17.1848516
14c,Novaka Pivaševića,78000,44.7653272,17.2153228
24,Bulevar vojvode Živojina Mišića,78000,44.7707373,17.2140850
27,Skendera Kulenovića,78000,44.7644026,17.1840910
52,Jug Bogdana,78000,44.7603959,17.2005695
82,Sime Miljuša,78000,44.7594588,17.2075851
80,Sime Miljuša,78000,44.7594206,17.2073533
84,Sime Miljuša,78000,44.7594636,17.2078777
86,Sime Miljuša,78000,44.7594682,17.2081679
88,Sime Miljuša,78000,44.7595095,17.2083393
90,Sime Miljuša,78000,44.7596436,17.2083012
17,Sime Miljuša,78000,44.7602034,17.2082273
15g,Bulevar srpske vojske,78000,44.7805973,17.2056907
22,Brace Potkonjaka,78000,44.7573284,17.1908003
24,Brace Potkonjaka,78000,44.7573003,17.1907244
102,Srđe Zlopogleđe,78000,44.7610457,17.1944207
102a,Srđe Zlopogleđe,78000,44.7610497,17.1943217
23,Patrijarha Arsenija Čarnojevića,78000,44.7597009,17.1890936
25,Patrijarha Arsenija Čarnojevića,78000,44.7596273,17.1891498
66,Jovana Dučića,78000,44.7772283,17.1898926
74a,Jovana Dučića,78000,44.7775019,17.1906869
74b,Jovana Dučića,78000,44.7775737,17.1907451
74c,Jovana Dučića,78000,44.7776627,17.1906312
74d,Jovana Dučića,78000,44.7775221,17.1905355
134,Srđe Zlopogleđe,78000,44.7609387,17.1929664
136,Srđe Zlopogleđe,78000,44.7609202,17.1928725
138,Srđe Zlopogleđe,78000,44.7608613,17.1927800
32,Mirka Kovačevića,78000,44.7622226,17.1866506
34,Mirka Kovačevića,78000,44.7623121,17.1865540
38,Nikole Pašića,78000,44.7719764,17.1975660
35,Mirka Kovačevića,78000,44.7616158,17.1863161
44,Meše Selimovića,78000,44.7690944,17.1824443
46,Meše Selimovića,78000,44.7691680,17.1823107
36,Meše Selimovića,78000,44.7688199,17.1829155
38,Meše Selimovića,78000,44.7688776,17.1828015
32a,Meše Selimovića,78000,44.7687145,17.1830911
34,Meše Selimovića,78000,44.7687669,17.1829949
37,Meše Selimovića,78000,44.7686265,17.1826421
39,Meše Selimovića,78000,44.7686799,17.1825373
25,Kralja Nikole,78000,44.7655637,17.1830599
8,Solunska,78000,44.7651988,17.1832347
8,Braće Čubrilovića,78000,44.7631338,17.1876679
10,Braće Čubrilovića,78000,44.7632276,17.1875651
29,Solunska,78000,44.7650191,17.1825285
27,Solunska,78000,44.7650201,17.1826570
25,Solunska,78000,44.7649960,17.1827684
23,Solunska,78000,44.7649948,17.1828676
21,Solunska,78000,44.7649403,17.1830108
19,Solunska,78000,44.7649390,17.1831171
17,Solunska,78000,44.7649212,17.1832213
15,Solunska,78000,44.7649070,17.1833030
7,Isaije Mitrovića,78000,44.7650192,17.1851069
9,Isaije Mitrovića,78000,44.7649782,17.1850214
5,Mirka Kovačevića,78000,44.7631827,17.1897814
3,Mirka Kovačevića,78000,44.7632350,17.1899170
7,Mirka Kovačevića,78000,44.7631350,17.1896481
2,Cara Lazara,78000,44.7643796,17.1889969
4,Cara Lazara,78000,44.7643375,17.1890349
1a,Prote Todora Srdića,78000,44.7641937,17.1885663
39,Kralja Alfonsa XIII,78000,44.7697533,17.1954726
3,Kralja Alfonsa XIII,78000,44.7711113,17.1913823
1,Kralja Alfonsa XIII,78000,44.7711360,17.1913200
9,Kralja Alfonsa XIII,78000,44.7709978,17.1916859
30,Kralja Alfonsa XIII,78000,44.7696628,17.1949827
32,Kralja Alfonsa XIII,78000,44.7695278,17.1949075
39,Kralja Alfonsa XIII,78000,44.7698191,17.1955215
41,Kralja Alfonsa XIII,78000,44.7697609,17.1957366
3,Gundulićeva,78000,44.7712490,17.1989868
5,Gundulićeva,78000,44.7714567,17.1990375
7,Gundulićeva,78000,44.7716563,17.1990943
9,Gundulićeva,78000,44.7717913,17.1988473
31,Vojvode Radomira Putnika,78000,44.7712393,17.1987011
29,Vojvode Radomira Putnika,78000,44.7710892,17.1984624
27,Vojvode Radomira Putnika,78000,44.7710878,17.1982705
25,Vojvode Radomira Putnika,78000,44.7711204,17.1980441
32,Nikole Pašića,78000,44.7711869,17.1976767
30,Nikole Pašića,78000,44.7712305,17.1975540
28,Nikole Pašića,78000,44.7712776,17.1974294
26,Nikole Pašića,78000,44.7713821,17.1974633
34,Nikole Pašića,78000,44.7715077,17.1979595
36,Nikole Pašića,78000,44.7716379,17.1980098
38,Nikole Pašića,78000,44.7717947,17.1979171
40,Nikole Pašića,78000,44.7720940,17.1976886
38,Nikole Pašića,78000,44.7718884,17.1975401
34a,Vase Pelagića,78000,44.7723890,17.1965239
34b,Vase Pelagića,78000,44.7723483,17.1967401
34c,Vase Pelagića,78000,44.7723011,17.1969702
34d,Vase Pelagića,78000,44.7722635,17.1971833
47,Nikole Pašića,78000,44.7724415,17.1974262
49,Nikole Pašića,78000,44.7725910,17.1974820
51,Nikole Pašića,78000,44.7727390,17.1975406
68,Miše Stupara,78000,44.7732377,17.2059204
68a,Miše Stupara,78000,44.7732992,17.2061905
68b,Miše Stupara,78000,44.7733658,17.2064713
3,Kolubarska,78000,44.7601151,17.1807780
5,Kolubarska,78000,44.7600666,17.1809130
7,Kolubarska,78000,44.7600048,17.1810658
27e,Kozarska,78000,44.7597282,17.1803503
27d,Kozarska,78000,44.7596613,17.1805040
27c,Kozarska,78000,44.7595962,17.1806554
21,Stevana Moljevića,78000,44.7591665,17.1813443
19,Cara Lazara,78000,44.7636165,17.1907052
55,Cerska,78000,44.7598736,17.2022822
116,Prvog krajiškog korpusa,78000,44.7796457,17.1970433
39,Cara Lazara,78000,44.7603779,17.1927664
55,Cara Lazara,78000,44.7601644,17.1929360
41,Cara Lazara,78000,44.7603438,17.1927775
39,Srđe Zlopogleđe,78000,44.7606733,17.1972466
45,Srđe Zlopogleđe,78000,44.7603193,17.1968987
47,Srđe Zlopogleđe,78000,44.7604751,17.1967897
49,Srđe Zlopogleđe,78000,44.7606239,17.1967409
55,Srđe Zlopogleđe,78000,44.7607889,17.1966123
51b,Braće Jugovića,78000,44.7584706,17.1868380
51a,Braće Jugovića,78000,44.7583398,17.1869530
49,Braće Jugovića,78000,44.7586264,17.1871477
51,Braće Jugovića,78000,44.7584961,17.1872660
47,Braće Jugovića,78000,44.7588721,17.1876725
45,Braće Jugovića,78000,44.7587416,17.1877885
41,Braće Jugovića,78000,44.7590301,17.1879981
43,Braće Jugovića,78000,44.7588989,17.1881129
46,Nikole Pašića,78000,44.7720685,17.1984710
31,Vojvode Radomira Putnika,78000,44.7711325,17.1986769
1,Masarikova,78000,44.7789988,17.1931230
25,Pave Radana,78000,44.7785200,17.1929332
20,Pave Radana,78000,44.7785722,17.1931988
26,Pave Radana,78000,44.7787570,17.1927773
28,Pave Radana,78000,44.7788248,17.1926181
32,Pave Radana,78000,44.7789499,17.1923277
32a,Pave Radana,78000,44.7790221,17.1921560
4,Masarikova,78000,44.7796444,17.1922331
2,Masarikova,78000,44.7797324,17.1920312
6,Masarikova,78000,44.7795653,17.1924330
72a,Jovana Dučića,78000,44.7779909,17.1911438
72b,Jovana Dučića,78000,44.7781296,17.1912645
72c,Jovana Dučića,78000,44.7782455,17.1913946
72d,Jovana Dučića,78000,44.7783524,17.1914950
72e,Jovana Dučića,78000,44.7784695,17.1915924
30,Srđe Zlopogleđe,78000,44.7629529,17.1962699
32,Srđe Zlopogleđe,78000,44.7629171,17.1962766
2,Đure Đakovića,78000,44.7623028,17.1778180
4,Đure Đakovića,78000,44.7625168,17.1775593
6,Đure Đakovića,78000,44.7627376,17.1772933
8,Đure Đakovića,78000,44.7628724,17.1772217
99,Kralja Petra I Karađorđevića,78000,44.7733798,17.1908887
8,Vidovdanska,78000,44.7745181,17.1916626
8,Vidovdanska,78000,44.7743085,17.1912989
2,Vidovdanska,78000,44.7738115,17.1910017
4,Vidovdanska,78000,44.7743167,17.1913310
55,Braće Jugovića,78000,44.7592241,17.1876694
15e,Bulevar srpske vojske,78000,44.7802000,17.2047048
15f,Bulevar srpske vojske,78000,44.7804461,17.2055081
15g,Bulevar srpske vojske,78000,44.7806994,17.2054900
1,Slavka Rodića,78000,44.7653129,17.1872218
78,Sime Miljuša,78000,44.7594346,17.2071391
92,Sime Miljuša,78000,44.7598725,17.2083091
15,Sime Miljuša,78000,44.7604408,17.2082475
7,Sime Miljuša,78000,44.7606060,17.2082008
9,Sime Miljuša,78000,44.7606544,17.2084677
35,Srđe Zlopogleđe,78000,44.7609822,17.1973851
37,Srđe Zlopogleđe,78000,44.7609622,17.1973268
bb,Knjaza Miloša,78000,44.7949636,17.2072195
bb,Knjaza Miloša,78000,44.7955875,17.2074400
8,Bulevar srpske vojske,78000,44.7794855,17.2081712
20,Kralja Alfonsa XIII,78000,44.7700361,17.1938801
22,Kralja Alfonsa XIII,78000,44.7700000,17.1940222
13,Kralja Alfonsa XIII,78000,44.7708178,17.1927104
15,Kralja Alfonsa XIII,78000,44.7707515,17.1929390
17,Kralja Alfonsa XIII,78000,44.7706247,17.1932811
19,Kralja Alfonsa XIII,78000,44.7705550,17.1934950
26,Srpska,78000,44.7709828,17.1936077
28,Srpska,78000,44.7709379,17.1937372
17,Boška Tošića,78000,44.7629503,17.1994388
29b,Srđe Zlopogleđe,78000,44.7617108,17.1971345
25,Srđe Zlopogleđe,78000,44.7613849,17.1970867
27,Srđe Zlopogleđe,78000,44.7613703,17.1969186
29a,Srđe Zlopogleđe,78000,44.7616142,17.1972433
29,Srđe Zlopogleđe,78000,44.7614158,17.1973474
23,Srđe Zlopogleđe,78000,44.7615152,17.1974007
33,Srđe Zlopogleđe,78000,44.7611145,17.1975205
31,Srđe Zlopogleđe,78000,44.7612356,17.1976505
13,Srđe Zlopogleđe,78000,44.7619201,17.1966632
15,Srđe Zlopogleđe,78000,44.7618683,17.1966864
9,Srđe Zlopogleđe,78000,44.7620487,17.1966995
11,Srđe Zlopogleđe,78000,44.7619728,17.1967322
237a,Karađorđeva,78000,44.7789865,17.1682480
14,Rade Marjanca,78000,44.7809065,17.1812294
2,Prvog krajiškog korpusa,78000,44.7761708,17.1933514
68,Kralja Petra I Karađorđevića,78000,44.7714854,17.1904793
70,Kralja Petra I Karađorđevića,78000,44.7715808,17.1905764
19,Veselina Masleše,78000,44.7712645,17.1906430
2,Trg Krajine,78000,44.7695735,17.1897964
2,Trg Krajine,78000,44.7699050,17.1899435
2,Trg Krajine,78000,44.7700175,17.1899123
15,Federika Garsije Lorke,78000,44.7776222,17.1885612
13,Federika Garsije Lorke,78000,44.7774962,17.1886346
11,Federika Garsije Lorke,78000,44.7773805,17.1885470
19,Federika Garsije Lorke,78000,44.7777472,17.1879515
27,Federika Garsije Lorke,78000,44.7780189,17.1876233
25,Federika Garsije Lorke,78000,44.7779040,17.1877069
23,Federika Garsije Lorke,78000,44.7778559,17.1877510
21,Federika Garsije Lorke,78000,44.7778034,17.1878749
19,Federika Garsije Lorke,78000,44.7777524,17.1880013
17,Federika Garsije Lorke,78000,44.7777993,17.1881473
1,Petra Rađenovića,78000,44.7782057,17.1872943
3,Petra Rađenovića,78000,44.7782581,17.1871311
5,Petra Rađenovića,78000,44.7783113,17.1869560
7,Petra Rađenovića,78000,44.7783672,17.1865584
9,Petra Rađenovića,78000,44.7782601,17.1864823
11,Petra Rađenovića,78000,44.7781372,17.1864099
13,Petra Rađenovića,78000,44.7780134,17.1864928
15,Petra Rađenovića,78000,44.7779041,17.1865674
17,Petra Rađenovića,78000,44.7778594,17.1870521
19,Petra Rađenovića,78000,44.7777847,17.1870531
21,Petra Rađenovića,78000,44.7777265,17.1869882
23,Petra Rađenovića,78000,44.7777781,17.1868434
12,Svetozara Markovića,78000,44.7780833,17.1930342
14,Svetozara Markovića,78000,44.7780186,17.1930192
29,Prvog krajiškog korpusa,78000,44.7777302,17.1936406
35,Prvog krajiškog korpusa,78000,44.7778343,17.1939115
6,Svetozara Markovića,78000,44.7775722,17.1927414
13,Prvog krajiškog korpusa,78000,44.7772680,17.1930237
17,Prvog krajiškog korpusa,78000,44.7771000,17.1933685
15,Prvog krajiškog korpusa,78000,44.7770689,17.1933295
19,Prvog krajiškog korpusa,78000,44.7771829,17.1934574
17,Prvog krajiškog korpusa,78000,44.7770446,17.1933164
25,Prvog krajiškog korpusa,78000,44.7772979,17.1933826
25a,Prvog krajiškog korpusa,78000,44.7774513,17.1932269
49a,Petra Kočića,78000,44.7775358,17.1949532
41,Milana Karanovića,78000,44.7711453,17.2104681
39a,Milana Karanovića,78000,44.7712274,17.2105589
39,Milana Karanovića,78000,44.7712232,17.2109824
5d,Svetozara Markovića,78000,44.7781133,17.1924419
bb,Branislava Nušića,78000,44.7880037,17.1913012
3,Krajiških brigada,78000,44.7724458,17.1811517
35,Prvog krajiškog korpusa,78000,44.7778660,17.1939632
26,Knjaza Miloša,78000,44.7971023,17.2076325
50a,Jevrejska,78000,44.7686736,17.1960677
bb,Jevrejska,78000,44.7686666,17.1961711
30,Novice Cerovića,78000,44.7685325,17.1995755
8,Trg Republike Srpske,78000,44.7781336,17.1989208
15c-15d,Bulevar srpske vojske,78000,44.7804419,17.2042224
2,Trg Krajine,78000,44.7700493,17.1896256
25,Jovana Dučića,78000,44.7766245,17.1858036
1,Braće Pišteljić,78000,44.7852644,17.2138370
1,Veselina Masleše,78000,44.7708946,17.1899612
25,Vase Pelagića,78000,44.7731446,17.1962588
1,Braće Pišteljić,78000,44.7850586,17.2137088
8,Bulevar srpske vojske,78000,44.7804243,17.2069445
3,Veselina Masleše,78000,44.7709184,17.1903493
3,Veselina Masleše,78000,44.7711046,17.1902575
3,Veselina Masleše,78000,44.7711481,17.1902790
8,Veselina Masleše,78000,44.7708109,17.1905631
185a,Bulevar vojvode Stepe Stepanovića,78000,44.7671351,17.2090480
1c,Dunavska,78000,44.7876464,17.2141759
bb,Ložionička,78000,44.7962180,17.2154779
8,Zdrave Korde,78000,44.7720462,17.1835160
3,Prote Todora Srdića,78000,44.7642640,17.1881993
41,Milana Karanovića,78000,44.7711215,17.2103406
39,Milana Karanovića,78000,44.7713332,17.2108341
18,Bulevar vojvode Živojina Mišića,78000,44.7709858,17.2136024
97,Karađorđeva,78000,44.7743026,17.1743357
bb,Despota Stefana Lazarevića,78000,44.8095116,17.2016499
19b,Boška Tošića,78000,44.7623764,17.1985739
43,Stevana Bulajića,78000,44.7596671,17.1991916
49,Kralja Petra II,78000,44.7865601,17.1993776
47,Kralja Petra II,78000,44.7863603,17.1993502
45,Kralja Petra II,78000,44.7861708,17.1993302
43,Kralja Petra II,78000,44.7859992,17.1993030
51,Kralja Petra II,78000,44.7869055,17.1994094
53,Kralja Petra II,78000,44.7870981,17.1994203
55,Kralja Petra II,78000,44.7872977,17.1994339
57,Kralja Petra II,78000,44.7874897,17.1994478
59,Kralja Petra II,78000,44.7876666,17.1994622
63,Kralja Petra II,78000,44.7878098,17.1989473
61,Kralja Petra II,78000,44.7877984,17.1992135
28,Jevrejska,78000,44.7697817,17.1913916
3,Veselina Masleše,78000,44.7710712,17.1902248
3,Veselina Masleše,78000,44.7711028,17.1901218
24,Kozarska,78000,44.7578626,17.1782049
24a,Kozarska,78000,44.7576538,17.1779846
87d,Kozarska,78000,44.7542176,17.1744631
87e,Kozarska,78000,44.7543824,17.1742560
3,Cetinjska,78000,44.7593465,17.1787824
5,Cetinjska,78000,44.7592802,17.1788129
9,Cetinjska,78000,44.7591155,17.1787208
7,Cetinjska,78000,44.7592200,17.1787819
30c,Skendera Kulenovića,78000,44.7637325,17.1816844
30b,Skendera Kulenovića,78000,44.7637069,17.1820191
30a,Skendera Kulenovića,78000,44.7637730,17.1822274
3,Veselina Masleše,78000,44.7709521,17.1903009
3,Veselina Masleše,78000,44.7709167,17.1902806
23,Krajiških brigada,78000,44.7746027,17.1812791
4,Vuka Karadžića,78000,44.7755607,17.1927174
4,Vuka Karadžića,78000,44.7754356,17.1925689
6,Vuka Karadžića,78000,44.7760575,17.1898784
4,Vuka Karadžića,78000,44.7753884,17.1925031
5,Petra Kočića,78000,44.7761303,17.1938944
2,Braće Pantić,78000,44.7715881,17.1856751
93,Kralja Petra I Karađorđevića,78000,44.7714154,17.1897627
4,Marije Bursać,78000,44.7702757,17.1869521
2,Trg srpskih junaka,78000,44.7722511,17.1896285
100,Gundulićeva,78000,44.7759173,17.2019022
98,Gundulićeva,78000,44.7757650,17.2022047
69,Aleja Svetog Save,78000,44.7754818,17.2056967
7A,Aleja Svetog Save,78000,44.7743665,17.1980080
8,Trg Republike Srpske,78000,44.7780343,17.1989373
9,Trg Republike Srpske,78000,44.7779688,17.1991916
108,Gundulićeva,78000,44.7765668,17.2020730
7,Nenada Kostića,78000,44.8356524,17.2174575
1a,Bulevar vojvode Petra Bojovića,78000,44.7749508,17.2114210
2,Bulevar Cara Dušana,78000,44.7693188,17.1865089
78,Kralja Petra I Karađorđevića,78000,44.7740030,17.1933120
1,Majke Jugovića,78000,44.7658430,17.2009594
1,Majke Jugovića,78000,44.7653603,17.2003029
75,Bulevar vojvode Stepe Stepanovića,78000,44.7654450,17.1983539
bb,Jug Bogdana,78000,44.7608564,17.1996750
34,Kralja Alfonsa XIII,78000,44.7694211,17.1957491
2,Trg srpskih vladara,78000,44.7728726,17.1922999
4,Bana Milosavljevića,78000,44.7724738,17.1929916
93,Kralja Petra I Karađorđevića,78000,44.7715000,17.1893053
41a,Branka Popovića,78000,44.8089979,17.2093323
bb,Ivana Gorana Kovačića,78000,44.7893483,17.2034407
bb,Bana dr Todora Lazarevića,78000,44.7717464,17.1955153
bb,Sime Matavulja,78000,44.7727590,17.1838105
5,Knežopoljska,78000,44.7731183,17.2071634
3,Knežopoljska,78000,44.7729707,17.2065937
1,Knežopoljska,78000,44.7728283,17.2060397
2,Ivana Franje Jukića,78000,44.7712141,17.1920373
91,Kralja Petra I Karađorđevića,78000,44.7710756,17.1893872
74,Kralja Petra I Karađorđevića,78000,44.7716979,17.1908036
5,Srpska,78000,44.7714982,17.1927004
6,Dvanaest beba,78000,44.7852538,17.1780091
1,Ivana Franje Jukića,78000,44.7712475,17.1924634
1,Marka Lipovca,78000,44.7972767,17.2064612
47,Braće Podgornika,78000,44.7880286,17.2100071
24,Trive Amelice,78000,44.7860338,17.2003984
22,Braće Pišteljić,78000,44.7833435,17.2208728
8,Slatinska,78000,44.8009723,17.2289135
bb,Bilećka,78000,44.8176372,17.2008272
bb,Jovana Bijelića,78000,44.8236486,17.2101654
8,Braće Podgornika,78000,44.7936897,17.2122122
6,Dragiše Vasića,78000,44.7810137,17.1947784
44,Bulevar vojvode Stepe Stepanovića,78000,44.7632144,17.1976924
2,Dr. Mladena Stojanovića,78000,44.7788751,17.1986389
4,Vuka Karadžića,78000,44.7755161,17.1925777
1,Trg jasenovačkih žrtava,78000,44.7755255,17.1934770
4a,Jasenovačkih logoraša,78000,44.7619943,17.1979306
1,Bana dr Todora Lazarevića,78000,44.7723217,17.1935481
1,Brace Potkonjaka,78000,44.7650121,17.1899473
49,Karađorđeva,78000,44.7728738,17.1784406
116,Bulevar Vojvode Stepe Stepanovića,78000,44.7648361,17.2059287
6,Kosovke djevojke,78000,44.7595712,17.2100649
8,Kosovke djevojke,78000,44.7591896,17.2098808
25,Kosovke djevojke,78000,44.7588229,17.2106621
23,Kosovke djevojke,78000,44.7590458,17.2107050
19,Kosovke djevojke,78000,44.7594887,17.2108133
17,Kosovke djevojke,78000,44.7597086,17.2108686
15,Kosovke djevojke,78000,44.7599295,17.2109128
19,Vidovdanska,78000,44.7742528,17.1903247
10,Bulevar vojvode Živojina Mišića,78000,44.7707915,17.2048373
48,Aleja Svetog Save,78000,44.7737578,17.2025820
1,Trg srpskih vladara,78000,44.7717725,17.1912465
119,Kralja Petra I Karađorđevića,78000,44.7747096,17.1927783
3,Aleja Svetog Save,78000,44.7743053,17.1956052
111,Kralja Petra I Karađorđevića,78000,44.7742887,17.1922679
117,Kralja Petra I Karađorđevića,78000,44.7746006,17.1926098
4,Ravnogorska,78000,44.7787561,17.1955153
16,Dragiše Vasića,78000,44.7799586,17.1936652
12,Rakovačkih rudara,78000,44.7947515,17.1942529
4b,Braće Podgornika,78000,44.7869663,17.2115228
3c,Knjaza Miloša,78000,44.7893388,17.2049929
13,Zmaj Jovina,78000,44.7700721,17.1831126
8,Bulevar cara Dušana,78000,44.7702009,17.1853346
6,Bulevar cara Dušana,78000,44.7696998,17.1856582
4,Bulevar cara Dušana,78000,44.7697547,17.1862920
bb,Aleja Svetog Save,78000,44.7743312,17.1985045
10,Ravnogorska,78000,44.7796027,17.1963742
19,Ravnogorska,78000,44.7805881,17.1966375
6,Ravnogorska,78000,44.7793257,17.1956693
2,Ravnogorska,78000,44.7790069,17.1950014
3,Stevana Mokranjca,78000,44.7808914,17.1941527
1,Stevana Mokranjca,78000,44.7814504,17.1947386
11,Slatinska,78000,44.8057302,17.2243716
30,Miloša Obilića,78000,44.7618379,17.1885065
125,Dr Mladena Stojanovića,78000,44.7865286,17.2050240
4,Trg srpskih junaka,78000,44.7727761,17.1902244
95,Kralja Petra I Karađorđevića,78000,44.7727100,17.1906293
4,Vladike Platona,78000,44.7749003,17.1977279
24,Beogradska,78000,44.7694331,17.2026010
24,Miše Stupara,78000,44.7715029,17.2018878
13,Aleja Svetog Save,78000,44.7742686,17.1999621
60,Kralja Petra I Karađorđevića,78000,44.7694372,17.1887156
2,Trg Krajine,78000,44.7697648,17.1898666
2,Kralja Alfonsa XIII,78000,44.7709988,17.1912529
23,Veselina Masleše,78000,44.7713980,17.1910489
1,Veselina Masleše,78000,44.7708928,17.1900448
3,Veselina Masleše,78000,44.7710508,17.1902110
19,Veselina Masleše,78000,44.7712008,17.1908397
21,Veselina Masleše,78000,44.7712736,17.1909992
53,Nikole Pašića,78000,44.7736182,17.1979052
bb,Put banjalučkog odreda,78000,44.7488396,17.1751923
7,Ivana Franje Jukića,78000,44.7705059,17.1919354
11,Novice Cerovića,78000,44.7692032,17.2003499
13,Novice Cerovića,78000,44.7690008,17.2004620
15,Novice Cerovića,78000,44.7688202,17.2005306
19,Novice Cerovića,78000,44.7684610,17.2007155
17,Novice Cerovića,78000,44.7686369,17.2006296
21,Novice Cerovića,78000,44.7682808,17.2008244
9,Beogradska,78000,44.7699958,17.2033056
11,Beogradska,78000,44.7698149,17.2033896
1,Relje Krilatice,78000,44.7709017,17.2054563
9,Relje Krilatice,78000,44.7707120,17.2059749
5,Relje Krilatice,78000,44.7710895,17.2061617
7,Relje Krilatice,78000,44.7708775,17.2066598
9,Relje Krilatice,78000,44.7712555,17.2068646
2,Kordunaška,78000,44.7702026,17.2059330
4,Kordunaška,78000,44.7702649,17.2061956
6,Kordunaška,78000,44.7703382,17.2064616
10,Kordunaška,78000,44.7704799,17.2069593
12,Kordunaška,78000,44.7699667,17.2070375
14,Kordunaška,78000,44.7698058,17.2071448
16,Kordunaška,78000,44.7696089,17.2072503
18,Kordunaška,78000,44.7694211,17.2073448
20,Kordunaška,78000,44.7692306,17.2074289
22,Kordunaška,78000,44.7690469,17.2075483
14,Rade Vranješević,78000,44.7696050,17.2084538
16,Rade Vranješević,78000,44.7691942,17.2084632
18,Rade Vranješević,78000,44.7688056,17.2084732
3а,Knjaza Miloša,78000,44.7889504,17.2053182
4,Bulevar Desanke Maksimović,78000,44.7649497,17.2071055
10a,Bulevar vojvode Živojina Mišića,78000,44.7720519,17.2129943
20,Cara Lazara,78000,44.7634564,17.1899176
19,Carice Milice,78000,44.7644285,17.1926360
15,Bana dr Todora Lazarevića,78000,44.7718601,17.1948898
10,Vase Pelagića,78000,44.7708489,17.1956167
201,Bulevar vojvode Stepe Stepanovića,78000,44.7665645,17.2149606
1,Uroša Predića,78000,44.7698302,17.1992401
29,Braće Jugovića,78000,44.7600548,17.1890743
9a,Novice Cerovića,78000,44.7682285,17.2003908
2,Bulevar vojvode Živojina Mišića,78000,44.7704955,17.1997350
32a,Milana Rakića,78000,44.7684878,17.2039356
175b,Bulevar vojvode Stepe Stepanovića,78000,44.7662326,17.2057789
175a,Bulevar vojvode Stepe Stepanovića,78000,44.7660866,17.2052790
68,Jug Bogdana,78000,44.7604329,17.1990123
25,Stevana Bulajića,78000,44.7601470,17.1973323
14,Stevana Bulajića,78000,44.7597505,17.1959844
50,Cara Lazara,78000,44.7593627,17.1925349
5,Kralja Petra I Karađorđevića,78000,44.7660884,17.1844614
5,Kralja Petra I Karađorđevića,78000,44.7661163,17.1848797
2,Milana Karanovića,78000,44.7715298,17.2098061
70,Braće Jugovića,78000,44.7601128,17.1876066
41k,Branka Popovića,78000,44.8089755,17.2081219
bb,Bilećka,78000,44.8152075,17.2001877
bb,Subotička,78000,44.8139636,17.1991964
203a,Ivana Gorana Kovačića,78000,44.8033824,17.1986562
10a,Knjaza Miloša,78000,44.7913671,17.2067623
2,Braće Podgornika,78000,44.7867646,17.2090754
2,Krajiških brigada,78000,44.7737575,17.1818543
19,Cara Lazara,78000,44.7633502,17.1909126
21,Miloša Obilića,78000,44.7619695,17.1898513
2,Milovana Glišića,78000,44.7618135,17.1894929
39,Miloša Obilića,78000,44.7612324,17.1881469
27,Mirka Kovačevića,78000,44.7620610,17.1878240
74,Put Srpskih Branilaca,78000,44.8232892,17.2168278
2,Sime Matavulja,78000,44.7740879,17.1839612
21,Kosovke djevojke,78000,44.7592667,17.2107587
bb,Kordunaška,78000,44.7705438,17.2077289
15,Bulevar vojvode Živojina Mišića,78000,44.7711460,17.2010192
25,Jovana Dučića,78000,44.7761862,17.1856070
1,Branka Zagorca,78000,44.7625180,17.1803668
8,Kordunaška,78000,44.7704135,17.2066979
8,Ravnogorska,78000,44.7798466,17.1958844
123,Dr Mladena Stojanovića,78000,44.7859951,17.2050317
24,Srpska,78000,44.7709406,17.1932259
11a,Nikole Pašića,78000,44.7690631,17.1958704
36,Jevrejska,78000,44.7685010,17.1935728
20,Srpska,78000,44.7711278,17.1929503
21,Kralja Alfonsa XIII,78000,44.7703925,17.1936640
18,V Кozarske brigade,78000,44.7859139,17.2044631
1,Dositeja Obradovića,78000,44.7684782,17.1975602
14a-14c,Dragana Bubića,78000,44.7914729,17.2013567
13,Bulevar srpske vojske,78000,44.7774060,17.2057078
24,Braće Jugovića,78000,44.7606871,17.1902771
26,Braće Jugovića,78000,44.7606455,17.1901346
30,Braće Jugovića,78000,44.7605648,17.1899203
28,Braće Jugovića,78000,44.7607500,17.1899048
32,Braće Jugovića,78000,44.7604850,17.1896962
1,Bulevar vojvode Petra Bojovića,78000,44.7694871,17.2110214
1,Beogradska,78000,44.7703955,17.2030867
3,Beogradska,78000,44.7704638,17.2033474
5,Beogradska,78000,44.7705237,17.2036016
7,Beogradska,78000,44.7705788,17.2038603
1,Majke Knežopoljke,78000,44.7696147,17.2000070
3,Majke Knežopoljke,78000,44.7696507,17.2002383
5,Majke Knežopoljke,78000,44.7697318,17.2005111
7,Majke Knežopoljke,78000,44.7698092,17.2007808
9,Majke Knežopoljke,78000,44.7698800,17.2010371
9,Siniše Mijatovića,78000,44.7645084,17.2388976
bb,Dvanaest beba,78000,44.7834419,17.1773558
28,Dr Jovana Raškovića,78000,44.7751645,17.1796765
23,Dunavska,78000,44.7882204,17.2165217
4,Kojića put,78000,44.8038733,17.2099823
15,Veljka Mlađenovića bb,78000,44.7945439,17.2056897
100e,Blagoja Parovića,78000,44.8250697,17.1949530
7,Dr Mladena Stojanovića,78000,44.7796597,17.1982028
7,Dr. Mladena Stojanovića,78000,44.7801197,17.1985794
41,Slobodana Jovanovića,78000,44.7802028,17.1888011
16,Vilsonova,78000,44.7638245,17.1936136
1,Bulevar vojvode Stepe Stepanovića,78000,44.7628778,17.1923830
20,Carice Milice,78000,44.7640166,17.1922656
18,Carice Milice,78000,44.7640046,17.1920758
12,Carice Milice,78000,44.7639810,17.1915540
37,Slatinska,78000,44.8169382,17.2216180
310,Branka Popovića,78000,44.8180182,17.2166521
15,Bulevar vojvode Stepe Stepanovića,78000,44.7628518,17.1934293
13,Bulevar vojvode Stepe Stepanovića,78000,44.7628501,17.1932588
9,Bulevar vojvode Stepe Stepanovića,78000,44.7626973,17.1928708
372,Od Zmijanja Rajka,78000,44.7485239,17.1575511
49a,Bulevar vojvode Živojina Mišića,78000,44.7723812,17.2052960
1,Braće Pišteljić,78000,44.7851736,17.2137825
45a,Branka Popovića,78000,44.8121500,17.2117478
18,Kralja Alfonsa XIII,78000,44.7700402,17.1937599
38,Trive Amelice,78000,44.7860068,17.1977068
44,Trive Amelice,78000,44.7860033,17.1973401
46,Trive Amelice,78000,44.7861119,17.1971641
56,Trive Amelice,78000,44.7861592,17.1965934
71,Kralja Petra II,78000,44.7879648,17.1994081
75,Kralja Petra II,78000,44.7881243,17.1994818
77,Kralja Petra II,78000,44.7882929,17.1995095
126,Kralja Petra II,78000,44.7879777,17.1999467
79,Kralja Petra II,78000,44.7884644,17.1995961
105,Kralja Petra II,78000,44.7899499,17.1992255
25,V Kozarske brigade,78000,44.7853909,17.2030243
1,Trive Amelice,78000,44.7848520,17.2036372
84,Kralja Petra II,78000,44.7849926,17.1997432
86,Kralja Petra II,78000,44.7849564,17.2001297
82,Kralja Petra II,78000,44.7846912,17.1997059
74,Kralja Petra II,78000,44.7846686,17.2001033
80,Kralja Petra II,78000,44.7843993,17.1996650
72,Kralja Petra II,78000,44.7843727,17.2000818
78,Kralja Petra II,78000,44.7841000,17.1996422
70,Kralja Petra II,78000,44.7840807,17.2000489
76,Kralja Petra II,78000,44.7838088,17.1995965
68,Kralja Petra II,78000,44.7837771,17.2000093
17,V Kozarske brigade,78000,44.7844307,17.2019930
21a,V Kozarske brigade,78000,44.7845550,17.2021043
21,V Kozarske brigade,78000,44.7846928,17.2021994
3,Trive Amelice,78000,44.7850016,17.2020534
1a,Bulevar vojvode Petra Bojovića,78000,44.7731937,17.2092841
1а,Bulevar vojvode Petra Bojovića,78000,44.7764549,17.2107297
1,Bulevar vojvode Petra Bojovića,78000,44.7759729,17.2104128
1a,Bulevar vojvode Petra Bojovića,78000,44.7756110,17.2091228
1a,Bulevar vojvode Petra Bojovića,78000,44.7754370,17.2083499
1a,Bulevar vojvode Petra Bojovića,78000,44.7742366,17.2088364
1,Milana Karanovića,78000,44.7720171,17.2105623
22,Bulevar vojvode Živojina Mišića,78000,44.7696509,17.2149911
173,Bulevar vojvode Stepe Stepanovića,78000,44.7665352,17.2045016
177,Bulevar vojvode Stepe Stepanovića,78000,44.7663174,17.2063827
bb,Bilećka,78000,44.8165900,17.2006371
1,Jovana Dučića,78000,44.7718787,17.1851580
18a,Kralja Aleksandra I Karađorđevića,78000,44.7935123,17.1895859
38,Jovana Dučića,78000,44.7755805,17.1893033
1b,Trive Amelice,78000,44.7846378,17.2029352
6,Dr Mladena Stojanovića,78000,44.7795751,17.1990747
17,Jug Bogdana,78000,44.7615509,17.2006618
1a,Bulevar vojvode Petra Bojovića,78000,44.7737365,17.2088933
1a,Bulevar vojvode Petra Bojovića,78000,44.7735900,17.2092405
12,Todora od Stalaća,78000,44.7594189,17.1935130
10,Todora od Stalaća,78000,44.7595979,17.1934309
6,Todora od Stalaća,78000,44.7596618,17.1932554
4,Todora od Stalaća,78000,44.7598199,17.1931369
2,Todora od Stalaća,78000,44.7599255,17.1930453
14,Zdravka Čelara,78000,44.7673018,17.1883474
96,Kragujevačkih i kraljevačkih žrtava,78000,44.7361104,17.1567937
5,Cara Lazara,78000,44.7646455,17.1899773
139b,Blagoja Parovića,78000,44.8235474,17.1971467
79,Srđe Zlopogleđe,78000,44.7607788,17.1935861
73,Srđe Zlopogleđe,78000,44.7607910,17.1944475
31,Ulica Marka Lipovca,78000,44.7971899,17.2003044
33,Ulica Marka Lipovca,78000,44.7970692,17.2001529
35,Ulica Marka Lipovca,78000,44.7969567,17.2000328
bb,Marka Lipovca,78000,44.7961495,17.1994774
2,Prvog krajiškog korpusa,78000,44.7792540,17.1966770
2,Ilije Garašanina,78000,44.7972084,17.2081319
9,Jove G. Popovića,78000,44.7597910,17.2504682
155,Rade Radića,78000,44.7636853,17.2492955
1,Akademika Jovana Surutke,78000,44.7747292,17.2049170
1a,Akademika Jovana Surutke,78000,44.7746836,17.2044248
2,Branka Ćopića,78000,44.7746378,17.2039324
4,Branka Ćopića,78000,44.7750160,17.2041115
6,Branka Ćopića,78000,44.7750178,17.2038473
13,Akademika Jovana Surutke,78000,44.7758283,17.2047813
11,Akademika Jovana Surutke,78000,44.7756600,17.2047837
9,Akademika Jovana Surutke,78000,44.7754468,17.2048182
7,Akademika Jovana Surutke,78000,44.7752351,17.2048501
5,Akademika Jovana Surutke,78000,44.7750602,17.2048131
3,Akademika Jovana Surutke,78000,44.7750363,17.2045052
1,Jesenjinova,78000,44.7525541,17.1653349
36,Manjačkih ustanika,78000,44.7467337,17.1550811
26,Manjačkih ustanika,78000,44.7463505,17.1547824
2,Vuka Karadžića,78000,44.7762867,17.1917295
17,Patrijarha Arsenija Čarnojevića,78000,44.7606745,17.1883819
19,Patrijarha Arsenija Čarnojevića,78000,44.7606179,17.1884825
21,Patrijarha Arsenija Čarnojevića,78000,44.7605638,17.1885858
371,Od Zmijanja Rajka,78000,44.7484451,17.1585219
21,Ive Andrića,78000,44.7743576,17.1848564
11,Sime Matavulja,78000,44.7731401,17.1837137
35,Braće Mažar i majke Marije,78000,44.7686235,17.1840648
37,Braće Mažar i majke Marije,78000,44.7687308,17.1837959
101,Vida Nježića,78000,44.7583897,17.2296925
bb,Ivana Gorana Kovačića,78000,44.8045519,17.1975288
7,Jovana Bijelića,78000,44.8221388,17.2043306
2a,Bilećka,78000,44.8140681,17.1996113
2d,Subotička,78000,44.8134043,17.1988490
bb,Subotička,78000,44.8128169,17.1982799
63,Ulica Jovana Kršića,78211,44.7414859,17.2803032
8,Braće Podgornika,78000,44.7953169,17.2115223
31,Коло српских сестара,78000,44.7755011,17.1805405
16,Cara Lazara,78000,44.7638661,17.1895386
6,Mirka Kovačevića,78000,44.7635180,17.1892809
8,Mirka Kovačevića,78000,44.7635964,17.1891196
7,Milovana Glišića,78000,44.7625367,17.1893247
19,Mirka Kovačevića,78000,44.7629518,17.1888949
9,Mirka Kovačevića,78000,44.7632946,17.1894330
14,Dragana Bubića,78000,44.7914277,17.2020384
17,Franja Supila,78000,44.7816458,17.2083294
17A,Franja Supila,78000,44.7817373,17.2084171
1,Miloša Obilića,78000,44.7625457,17.1914527
3,Miloša Obilića,78000,44.7624660,17.1912835
24,Tarasa Ševčenka,78000,44.7794855,17.1893331
22,Tarasa Ševčenka,78000,44.7792495,17.1891107
12,Tarasa Ševčenka,78000,44.7789882,17.1888829
14,Tarasa Ševčenka,78000,44.7792516,17.1898171
16,Tarasa Ševčenka,78000,44.7790148,17.1895780
10,Tarasa Ševčenka,78000,44.7787710,17.1893395
2,Tarasa Ševčenka,78000,44.7787315,17.1886360
6,Tarasa Ševčenka,78000,44.7783631,17.1893827
4,Tarasa Ševčenka,78000,44.7785384,17.1889697
8,Tarasa Ševčenka,78000,44.7785994,17.1896888
18,Tarasa Ševčenka,78000,44.7788575,17.1899119
20,Tarasa Ševčenka,78000,44.7790934,17.1901638
17,Maksima Gorkog,78000,44.7766003,17.1806258
19,Maksima Gorkog,78000,44.7766863,17.1804532
21,Maksima Gorkog,78000,44.7767801,17.1802659
23,Mirka Kovačevića,78000,44.7626147,17.1880998
55,Dr Jovana Raškovića,78000,44.7803753,17.1754618
57,Dr Jovana Raškovića,78000,44.7804766,17.1756465
59,Dr Jovana Raškovića,78000,44.7805697,17.1758465
61,Dr Jovana Raškovića,78000,44.7806856,17.1760484
85a,Kralja Petra I Karađorđevića,78000,44.7691816,17.1877596
85a,Kralja Petra I Karađorđevića,78000,44.7692093,17.1874707
83a,Kralja Petra I Karađorđevića,78000,44.7688969,17.1874646
bb,Bulevar cara Dušana,78000,44.7690301,17.1870044
2,Gajeva,78000,44.7691104,17.1900713
2a,Gajeva,78000,44.7692612,17.1902077
4,Gajeva,78000,44.7694492,17.1903770
24,Bana Milosavljevića,78000,44.7731653,17.1935892
16,Branka Radičevića,78000,44.7738083,17.1877248
33,Vidovdanska,78000,44.7749321,17.1892482
37,Vidovdanska,78000,44.7751545,17.1892084
36,Jovana Dučića,78000,44.7751461,17.1888888
34,Jovana Dučića,78000,44.7753019,17.1886058
30,Jovana Dučića,78000,44.7753840,17.1883087
28,Jovana Dučića,78000,44.7754645,17.1880435
40,Jovana Dučića,78000,44.7756126,17.1888564
47,Vidovdanska,78000,44.7755187,17.1902922
53,Vidovdanska,78000,44.7750274,17.1908127
4,Grčka,78000,44.7737401,17.1896262
4,Milana Tepića,78000,44.7715795,17.1879391
1,Zdrave Korde,78000,44.7715211,17.1823047
18,Sime Matavulja,78000,44.7721702,17.1822448
4,Zdrave Korde,78000,44.7718681,17.1841604
6,Zdrave Korde,78000,44.7718944,17.1839675
3,Jovana Dučića,78000,44.7724544,17.1853690
23,Jovana Dučića,78000,44.7742028,17.1863137
8,Bulevar srpske vojske,78000,44.7799528,17.2075930
30,Aleja Svetog Save,78000,44.7737107,17.1972146
34,Aleja Svetog Save,78000,44.7737123,17.1975999
32,Aleja Svetog Save,78000,44.7735504,17.1974153
8,Braće i sestara Glumac,78000,44.7730340,17.1992604
8a,Braće i sestara Glumac,78000,44.7729657,17.1990621
1,Vojvode Radomira Putnika,78000,44.7715273,17.1959988
46,Jevrejska,78000,44.7688034,17.1952022
93,Jevrejska,78000,44.7691320,17.1949988
108,Jevrejska,78000,44.7688230,17.1969946
29,Gundulićeva,78000,44.7727647,17.1993447
27,Gundulićeva,78000,44.7725281,17.1992987
19,Gundulićeva,78000,44.7720419,17.1992439
21,Gundulićeva,78000,44.7721780,17.1992158
17,Gundulićeva,78000,44.7719238,17.1992328
3,Cara Lazara,78000,44.7645077,17.1895199
3,Prote Todora Srdića,78000,44.7642262,17.1882255
14,Kralja Petra I Karađorđevića,78000,44.7660752,17.1857830
7,Meše Selimovića,78000,44.7673504,17.1854658
9,Meše Selimovića,78000,44.7674448,17.1852560
19а,Braće Mažar i majke Marije,78000,44.7678851,17.1857846
17,Braće Mažar i majke Marije,78000,44.7677664,17.1860741
15,Braće Mažar i majke Marije,78000,44.7677200,17.1862268
13,Braće Mažar i majke Marije,78000,44.7676437,17.1863191
6,Meše Selimovića,78000,44.7674875,17.1859811
19,Braće Mažar i majke Marije,78000,44.7678124,17.1859100
5,Isaije Mitrovića,78000,44.7652964,17.1866465
2,Isaije Mitrovića,78000,44.7655539,17.1867191
6,Isaije Mitrovića,78000,44.7655130,17.1858029
4,Isaije Mitrovića,78000,44.7655787,17.1859513
20,Kralja Petra I Karađorđevića,78000,44.7663494,17.1859718
32,Meše Selimovića,78000,44.7686525,17.1832366
40,Meše Selimovića,78000,44.7689441,17.1827006
42,Meše Selimovića,78000,44.7689958,17.1825853
50,Meše Selimovića,78000,44.7693204,17.1821081
50a,Meše Selimovića,78000,44.7693802,17.1819888
19,Bulevar vojvode Petra Bojovića,78000,44.7689516,17.2108894
183,Rade Vranješević,78000,44.7686173,17.2089308
1,Rade Vranješević,78000,44.7718247,17.2087118
5a,Bulevar vojvode Petra Bojovića,78000,44.7693483,17.2108819
7,Bulevar vojvode Petra Bojovića,78000,44.7691443,17.2124260
9,Bulevar vojvode Petra Bojovića,78000,44.7690952,17.2126186
15,Bulevar vojvode Petra Bojovića,78000,44.7691096,17.2133395
17,Bulevar vojvode Petra Bojovića,78000,44.7690394,17.2135750
45,Milana Kranovića,78000,44.7700428,17.2105346
22,Bulevar vojvode Živojina Mišića,78000,44.7705020,17.2138069
32,Bulevar vojvode Živojina Mišića,78000,44.7725393,17.2142917
2,Gundulićeva,78000,44.7700362,17.1993175
4,Bulevar vojvode Živojina Mišića,78000,44.7704966,17.2000076
7,Uroša Predića,78000,44.7702145,17.1999458
9,Uroša Predića,78000,44.7703374,17.2002427
6,Bulevar vojvode Živojina Mišića,78000,44.7705079,17.2002313
11,Uroša Predića,78000,44.7704167,17.2004818
22,Gundulićeva,78000,44.7713815,17.1996998
5,Bulevar vojvode Živojina Mišića,78000,44.7714206,17.2000909
7,Bulevar vojvode Živojina Mišića,78000,44.7714523,17.2003242
11,Bulevar vojvode Živojina Mišića,78000,44.7715035,17.2007550
9,Bulevar vojvode Živojina Mišića,78000,44.7714684,17.2005360
13,Bulevar vojvode Živojina Mišića,78000,44.7715719,17.2009778
20,Miše Stupara,78000,44.7717463,17.2011630
22,Miše Stupara,78000,44.7718766,17.2011706
46,Miše Stupara,78000,44.7724698,17.2039581
48,Miše Stupara,78000,44.7725341,17.2041990
36,Gundulićeva,78000,44.7726620,17.1997870
30,Gundulićeva,78000,44.7722088,17.1996932
1,Gundulićeva,78000,44.7703165,17.1988312
46 a,Kralja Alfonsa XIII,78000,44.7689923,17.1972237
85,Srpska,78000,44.7701713,17.1964430
83,Srpska,78000,44.7702216,17.1962534
25,Nikole Pašića,78000,44.7706209,17.1966800
27,Nikole Pašića,78000,44.7708229,17.1968234
6,Zmaj Jovina,78000,44.7681252,17.1831269
4,Zmaj Jovina,78000,44.7679215,17.1829092
4a,Zmaj Jovina,78000,44.7678352,17.1831533
24,Simeuna Đaka,78000,44.7676925,17.1830105
41,Meše Selimovića,78000,44.7687894,17.1824444
43,Meše Selimovića,78000,44.7688367,17.1823429
45-47-49,Meše Selimovića,78000,44.7689821,17.1822234
53,Meše Selimovića,78000,44.7692223,17.1818359
55,Meše Selimovića,78000,44.7690618,17.1817524
35,Meše Selimovića,78000,44.7685438,17.1827432
3,Zmaj Jovina,78000,44.7683549,17.1824473
5,Zmaj Jovina,78000,44.7682442,17.1827484
7,Zmaj Jovina,78000,44.7683581,17.1828216
33,Meše Selimovića,78000,44.7685088,17.1831015
1,Skendera Kulenovića,78000,44.7648667,17.1847734
12,Isaije Mitrovića,78000,44.7653368,17.1850049
2,Solunska,78000,44.7651132,17.1838379
4,Solunska,78000,44.7651055,17.1836501
23,Kralja Nikole,78000,44.7657410,17.1831520
21,Kralja Nikole,78000,44.7658321,17.1831941
17,Kralja Nikole,78000,44.7661610,17.1833671
13,Kralja Nikole,78000,44.7663475,17.1834529
15,Kralja Nikole,78000,44.7662493,17.1834052
30,Kralja Nikole,78000,44.7657795,17.1827888
26,Kralja Nikole,78000,44.7660880,17.1829296
28,Kralja Nikole,78000,44.7659245,17.1828244
24,Kralja Nikole,78000,44.7661848,17.1830305
18,Kralja Nikole,78000,44.7662786,17.1830724
16,Kralja Nikole,78000,44.7664151,17.1826614
12,Kralja Nikole,78000,44.7665500,17.1830698
4,Kralja Nikole,78000,44.7669059,17.1833900
1,Đure Jakšića,78000,44.7671430,17.1827607
19,Simeuna Đaka,78000,44.7674136,17.1830092
2,Talijanskog bataljona Mateoti,78000,44.7669521,17.1822339
4,Talijanskog bataljona Mateoti,78000,44.7671431,17.1821012
6,Talijanskog bataljona Mateoti,78000,44.7673908,17.1819865
8,Talijanskog bataljona Mateoti,78000,44.7676042,17.1818471
25,Simeuna Đaka,78000,44.7676501,17.1821583
27,Simeuna Đaka,78000,44.7677597,17.1820823
31,Simeuna Đaka,78000,44.7679234,17.1817382
10,Talijanskog bataljona Mateoti,78000,44.7677410,17.1815406
12,Talijanskog bataljona Mateoti,78000,44.7678542,17.1812452
33,Simeuna Đaka,78000,44.7680826,17.1814206
6,Anđe Knežević,78000,44.7670062,17.1814453
4,Anđe Knežević,78000,44.7669321,17.1816970
1a,Talijanskog bataljona Mateoti,78000,44.7669088,17.1818601
33,Zelengorska,78000,44.7807951,17.1809709
31,Zelengorska,78000,44.7805551,17.1812975
42,Jovana Dučića,78000,44.7758137,17.1883531
11c,Ada,78000,44.7726046,17.2176963
11,Ada,78000,44.7717535,17.2178149
9,Ada,78000,44.7711130,17.2182258
10,Dr Mladena Stojanovića,78000,44.7801193,17.2020051
17,Bulevar srpske vojske,78000,44.7812488,17.2055224
4,Dr Mladena Stojanovića,78000,44.7793150,17.1988464
8,Dr Mladena Stojanovića,78000,44.7786950,17.2005051
19,Bulevar srpske vojske,78000,44.7821431,17.2056545
30,Dr Mladena Stojanovića,78000,44.7841061,17.2039254
121,Kralja Petra I Karađorđevića,78000,44.7759248,17.1943064
123,Kralja Petra I Karađorđevića,78000,44.7762356,17.1946110
125,Kralja Petra I Karađorđevića,78000,44.7765453,17.1949006
49,Petra Kočića,78000,44.7773811,17.1951318
4,Pave Radana,78000,44.7777784,17.1951970
2,Pave Radana,78000,44.7776591,17.1954282
139,Kralja Petra I Karađorđevića,78000,44.7781966,17.1965376
23,Pave Radana,78000,44.7784173,17.1931096
78,Jovana Dučića,78000,44.7778835,17.1903126
78a,Jovana Dučića,78000,44.7780903,17.1906800
100,Jovana Dučića,78000,44.7789573,17.1913014
53,Pave Radana,78000,44.7790376,17.1916275
51,Pave Radana,78000,44.7790039,17.1917406
49,Pave Radana,78000,44.7789480,17.1918533
39,Pave Radana,78000,44.7788916,17.1919913
35,Pave Radana,78000,44.7788180,17.1921494
45,Pave Radana,78000,44.7786953,17.1918432
43,Pave Radana,78000,44.7786868,17.1920539
27,Pave Radana,78000,44.7785484,17.1927601
25,Pave Radana,78000,44.7785048,17.1928943
29,Pave Radana,78000,44.7786269,17.1926194
31,Pave Radana,78000,44.7786886,17.1924309
5,Dr Mladena Stojanovića,78000,44.7792718,17.1976744
3,Dr Mladena Stojanovića,78000,44.7789750,17.1973526
1,Dr Mladena Stojanovića,78000,44.7786568,17.1970784
26,Dragiše Vasića,78000,44.7786984,17.1929584
30,Pave Radana,78000,44.7789241,17.1925100
3,Masarikova,78000,44.7789786,17.1929411
5,Masarikova,78000,44.7790418,17.1928368
1,Masarikova,78000,44.7788381,17.1931232
5a,Masarikova,78000,44.7790841,17.1926910
7,Masarikova,78000,44.7791565,17.1925575
9,Masarikova,78000,44.7792233,17.1924019
11,Masarikova,78000,44.7793158,17.1921338
13,Masarikova,78000,44.7794661,17.1918281
38,Pave Radana,78000,44.7791998,17.1918712
36,Pave Radana,78000,44.7791278,17.1920312
40,Pave Radana,78000,44.7792919,17.1916553
102,Jovana Dučića,78000,44.7793371,17.1914976
104,Jovana Dučića,78000,44.7794484,17.1915720
15,Masarikova,78000,44.7795226,17.1916607
63,Jovana Dučića,78000,44.7795474,17.1909448
2,Slobodana Jovanovića,78000,44.7800352,17.1910288
3,Nedeljka Čabrinovića,78000,44.7802526,17.1912533
5,Nedeljka Čabrinovića,78000,44.7803905,17.1909254
14,Slobodana Jovanovića,78000,44.7800610,17.1902234
24,Slobodana Jovanovića,78000,44.7801851,17.1899110
32,Slobodana Jovanovića,78000,44.7803683,17.1900967
15,Kralja Petra II,78000,44.7823291,17.1988090
17,Kralja Petra II,78000,44.7825412,17.1987996
125,Krajiških brigada,78000,44.7788484,17.1854594
90,Bulevar vojvode Stepe Stepanovića,78000,44.7649765,17.2028020
94,Bulevar vojvode Stepe Stepanovića,78000,44.7648339,17.2032999
101,Bulevar vojvode Stepe Stepanovića,78000,44.7650837,17.2017854
105,Bulevar vojvode Stepe Stepanovića,78000,44.7654797,17.2015738
99a,Bulevar vojvode Stepe Stepanovića,78000,44.7651817,17.2014548
21,Majke Jugovića,78000,44.7632857,17.2010484
9,Majke Jugovića,78000,44.7638027,17.2006873
76,Bulevar vojvode Stepe Stepanovića,78000,44.7646077,17.2013307
138,Bulevar vojvode Stepe Stepanovića,78000,44.7660606,17.2097891
17,Boška Tošića,78000,44.7629676,17.1995967
13,Boška Tošića,78000,44.7631183,17.1993713
14,Majke Jugovića,78000,44.7632929,17.1997517
16,Majke Jugovića,78000,44.7632225,17.1999670
7,Boška Tošića,78000,44.7634636,17.1992727
3,Boška Tošića,78000,44.7636137,17.1991685
1,Boška Tošića,78000,44.7637742,17.1991257
5,Boška Tošića,78000,44.7637025,17.1994045
10,Majke Jugovića,78000,44.7637558,17.1997196
12,Majke Jugovića,78000,44.7635940,17.1998066
56,Bulevar vojvode Stepe Stepanovića,78000,44.7640350,17.1991970
58,Bulevar vojvode Stepe Stepanovića,78000,44.7640824,17.1994040
60,Bulevar vojvode Stepe Stepanovića,78000,44.7641667,17.1997129
83,Bulevar vojvode Stepe Stepanovića,78000,44.7646177,17.1994877
85,Bulevar vojvode Stepe Stepanovića,78000,44.7645648,17.1996452
3,Jasenovačkih logoraša,78000,44.7637007,17.1986696
57,Bulevar vojvode Stepe Stepanovića,78000,44.7641373,17.1978321
55,Bulevar vojvode Stepe Stepanovića,78000,44.7640543,17.1976832
35,Bulevar vojvode Stepe Stepanovića,78000,44.7636799,17.1961490
1,Mačvanska,78000,44.7637136,17.1962767
9,Mačvanska,78000,44.7642897,17.1959126
7,Mačvanska,78000,44.7641962,17.1960014
5,Mačvanska,78000,44.7640354,17.1960955
3,Mačvanska,78000,44.7639211,17.1960824
11,Mačvanska,78000,44.7645993,17.1957094
13,Mačvanska,78000,44.7647191,17.1956690
15,Mačvanska,78000,44.7648061,17.1956296
17,Mačvanska,78000,44.7650173,17.1953655
15,Carice Milice,78000,44.7643075,17.1923411
13,Carice Milice,78000,44.7643018,17.1921843
10,Carice Milice,78000,44.7638296,17.1913360
6,Carice Milice,78000,44.7638546,17.1910053
17,Brace Potkonjaka,78000,44.7633824,17.1914451
19,Brace Potkonjaka,78000,44.7632256,17.1915709
21,Brace Potkonjaka,78000,44.7630827,17.1915747
25,Brace Potkonjaka,78000,44.7629409,17.1916665
11,Bulevar vojvode Stepe Stepanovića,78000,44.7627846,17.1930553
7,Bulevar vojvode Stepe Stepanovića,78000,44.7626569,17.1927150
19,Bulevar vojvode Stepe Stepanovića,78000,44.7630448,17.1941658
21,Bulevar vojvode Stepe Stepanovića,78000,44.7630755,17.1942805
2,Mirka Kovačevića,78000,44.7636635,17.1896020
18,Cara Lazara,78000,44.7637697,17.1895382
6,Cara Lazara,78000,44.7642856,17.1888375
1,Prote Todora Srdića,78000,44.7644490,17.1885932
7,Prote Todora Srdića,78000,44.7639669,17.1886333
2,Prote Todora Srdića,78000,44.7642671,17.1878997
21,Srđe Zlopogleđe,78000,44.7615988,17.1967749
19,Srđe Zlopogleđe,78000,44.7617505,17.1967353
17,Srđe Zlopogleđe,78000,44.7618408,17.1969076
7,Srđe Zlopogleđe,78000,44.7621729,17.1968649
3,Srđe Zlopogleđe,78000,44.7622432,17.1966955
5,Srđe Zlopogleđe,78000,44.7621239,17.1966617
1,Srđe Zlopogleđe,78000,44.7623557,17.1967026
44,Srđe Zlopogleđe,78000,44.7624835,17.1962883
46,Majke Jugovića,78000,44.7619738,17.1997976
48,Majke Jugovića,78000,44.7618280,17.1995651
45,Skendera Kulenovića,78000,44.7636431,17.1850831
47,Skendera Kulenovića,78000,44.7634649,17.1850104
73,Skendera Kulenovića,78000,44.7637414,17.1840063
83,Skendera Kulenovića,78000,44.7633304,17.1838014
34,Skendera Kulenovića,78000,44.7630884,17.1822755
28,Skendera Kulenovića,78000,44.7631570,17.1826091
30,Skendera Kulenovića,78000,44.7634403,17.1821543
32,Skendera Kulenovića,78000,44.7632076,17.1819350
10a,Radoja Domanovića,78000,44.7622670,17.1793833
6,Radoja Domanovića,78000,44.7620333,17.1799226
52,Skendera Kulenovića,78000,44.7617813,17.1811553
50,Skendera Kulenovića,78000,44.7620181,17.1814186
48,Skendera Kulenovića,78000,44.7622558,17.1816604
46,Skendera Kulenovića,78000,44.7624586,17.1818723
1,Branka Morače,78000,44.7613829,17.1818788
13,Branka Morače,78000,44.7611077,17.1823993
15,Branka Morače,78000,44.7610670,17.1825601
99,Skendera Kulenovića,78000,44.7619290,17.1820476
7,Radoja Domanovića,78000,44.7617211,17.1796706
5,Radoja Domanovića,78000,44.7616749,17.1799436
3,Radoja Domanovića,78000,44.7616402,17.1802305
1,Radoja Domanovića,78000,44.7615744,17.1805553
8,Filipa Macure,78000,44.7609036,17.1790300
21,Filipa Macure,78000,44.7608046,17.1779391
12,Branka Morače,78000,44.7608309,17.1824077
1,Kozarska,78000,44.7613379,17.1813825
5,Kozarska,78000,44.7611775,17.1813851
7,Kozarska,78000,44.7611084,17.1812669
9,Kozarska,78000,44.7610133,17.1812047
11,Kozarska,78000,44.7609885,17.1810006
13,Kozarska,78000,44.7608432,17.1810009
15,Kozarska,78000,44.7606778,17.1807498
19,Kozarska,78000,44.7604342,17.1805106
17,Kozarska,78000,44.7605782,17.1805519
8,Kolubarska,78000,44.7598525,17.1808785
1,Stevana Moljevića,78000,44.7594985,17.1798797
33,Kozarska,78000,44.7596965,17.1798242
3,Stevana Moljevića,78000,44.7594325,17.1800389
9,Stevana Moljevića,78000,44.7592552,17.1804330
11,Stevana Moljevića,78000,44.7591969,17.1805364
13,Stevana Moljevića,78000,44.7591409,17.1808313
15,Stevana Moljevića,78000,44.7592499,17.1809546
17,Stevana Moljevića,78000,44.7593820,17.1810599
14,Stevana Moljevića,78000,44.7589879,17.1803938
8,Stevana Moljevića,78000,44.7591190,17.1800850
2,Stevana Moljevića,78000,44.7592707,17.1796960
35,Kozarska,78000,44.7591735,17.1795648
48,Mirka Kovačevića,78000,44.7622850,17.1856775
53,Mirka Kovačevića,78000,44.7618744,17.1859943
37,Mirka Kovačevića,78000,44.7619467,17.1864843
39,Mirka Kovačevića,78000,44.7620767,17.1864065
43,Mirka Kovačevića,78000,44.7622331,17.1861796
41,Mirka Kovačevića,78000,44.7621129,17.1862232
31,Mirka Kovačevića,78000,44.7619348,17.1870823
28,Mirka Kovačevića,78000,44.7621522,17.1868576
30,Mirka Kovačevića,78000,44.7622892,17.1867760
36,Mirka Kovačevića,78000,44.7623662,17.1864553
38,Mirka Kovačevića,78000,44.7625409,17.1864444
40,Mirka Kovačevića,78000,44.7627172,17.1862699
46,Mirka Kovačevića,78000,44.7625776,17.1856562
44,Mirka Kovačevića,78000,44.7625994,17.1857579
42,Mirka Kovačevića,78000,44.7626973,17.1857707
20,Mirka Kovačevića,78000,44.7625143,17.1874398
18,Mirka Kovačevića,78000,44.7626495,17.1876171
1,Braće Čubrilovića,78000,44.7629852,17.1873928
10,Mirka Kovačevića,78000,44.7630568,17.1883228
14a,Mirka Kovačevića,78000,44.7630489,17.1880864
4,Braće Čubrilovića,78000,44.7630307,17.1877393
2,Braće Čubrilovića,78000,44.7628777,17.1877791
16,Mirka Kovačevića,78000,44.7628483,17.1880066
24,Miloša Obilića,78000,44.7620686,17.1890614
22,Miloša Obilića,78000,44.7621543,17.1892030
26,Miloša Obilića,78000,44.7620668,17.1888927
28,Miloša Obilića,78000,44.7620483,17.1888072
8,Miloša Obilića,78000,44.7624715,17.1903689
6,Miloša Obilića,78000,44.7625585,17.1904569
12,Miloša Obilića,78000,44.7624416,17.1900955
90,Braće Jugovića,78000,44.7589051,17.1860980
88,Braće Jugovića,78000,44.7589893,17.1862856
86,Braće Jugovića,78000,44.7591469,17.1866581
84,Braće Jugovića,78000,44.7592130,17.1868939
82,Braće Jugovića,78000,44.7592814,17.1870490
80,Braće Jugovića,78000,44.7593596,17.1871927
84a,Braće Jugovića,78000,44.7593157,17.1868058
78a,Braće Jugovića,78000,44.7595510,17.1873221
76,Braće Jugovića,78000,44.7595102,17.1875527
78,Braće Jugovića,78000,44.7594410,17.1873751
68,Braće Jugovića,78000,44.7596465,17.1877375
64,Braće Jugovića,78000,44.7596659,17.1879079
66,Braće Jugovića,78000,44.7597591,17.1877972
62,Braće Jugovića,78000,44.7598650,17.1878732
60,Braće Jugovića,78000,44.7598698,17.1880303
58,Braće Jugovića,78000,44.7598239,17.1882040
56,Braće Jugovića,78000,44.7599344,17.1881294
52,Braće Jugovića,78000,44.7599136,17.1882986
54,Braće Jugovića,78000,44.7599668,17.1882435
24,Patrijarha Arsenija Čarnojevića,78000,44.7600545,17.1884316
50,Braće Jugovića,78000,44.7599808,17.1884924
18,Patrijarha Arsenija Čarnojevića,78000,44.7601336,17.1879735
14,Patrijarha Arsenija Čarnojevića,78000,44.7602741,17.1883591
10,Patrijarha Arsenija Čarnojevića,78000,44.7603640,17.1881635
16,Patrijarha Arsenija Čarnojevića,78000,44.7602273,17.1882291
18a,Patrijarha Arsenija Čarnojevića,78000,44.7600534,17.1879976
22,Patrijarha Arsenija Čarnojevića,78000,44.7601458,17.1883530
6,Patrijarha Arsenija Čarnojevića,78000,44.7605231,17.1881350
4,Patrijarha Arsenija Čarnojevića,78000,44.7606926,17.1880351
2,Patrijarha Arsenija Čarnojevića,78000,44.7607897,17.1879343
2b,Patrijarha Arsenija Čarnojevića,78000,44.7605912,17.1876951
41,Miloša Obilića,78000,44.7609629,17.1877644
53,Miloša Obilića,78000,44.7608680,17.1871593
55,Miloša Obilića,78000,44.7607357,17.1871251
57,Miloša Obilića,78000,44.7606395,17.1869547
61,Miloša Obilića,78000,44.7603913,17.1866029
59,Miloša Obilića,78000,44.7604879,17.1868081
65,Miloša Obilića,78000,44.7603287,17.1861932
67,Miloša Obilića,78000,44.7602515,17.1859884
69,Miloša Obilića,78000,44.7601543,17.1858570
73,Miloša Obilića,78000,44.7598564,17.1857871
75,Miloša Obilića,78000,44.7596978,17.1854978
40,Cara Lazara,78000,44.7613265,17.1910114
5,Miloša Obilića,78000,44.7622944,17.1909373
9,Miloša Obilića,78000,44.7622249,17.1906160
7,Miloša Obilića,78000,44.7621420,17.1908313
11,Miloša Obilića,78000,44.7621583,17.1904230
13,Miloša Obilića,78000,44.7620821,17.1902317
32a,Cara Lazara,78000,44.7618319,17.1908858
15,Milovana Glišića,78000,44.7617745,17.1899285
15a,Milovana Glišića,78000,44.7616256,17.1900575
17,Milovana Glišića,78000,44.7614951,17.1900619
19,Milovana Glišića,78000,44.7613707,17.1901552
19a,Milovana Glišića,78000,44.7612711,17.1902640
21,Milovana Glišića,78000,44.7611478,17.1903575
19,Miloša Obilića,78000,44.7611876,17.1905364
22,Braće Jugovića,78000,44.7608155,17.1906319
25,Milovana Glišića,78000,44.7609625,17.1904675
23,Milovana Glišića,78000,44.7610389,17.1906311
18,Braće Jugovića,78000,44.7608817,17.1908946
16,Braće Jugovića,78000,44.7609541,17.1910077
10,Braće Jugovića,78000,44.7610916,17.1912204
8,Braće Jugovića,78000,44.7610820,17.1913751
4,Braće Jugovića,78000,44.7611397,17.1916132
2,Braće Jugovića,78000,44.7612349,17.1917370
6,Braće Jugovića,78000,44.7610693,17.1915082
20,Braće Jugovića,78000,44.7609196,17.1907163
18,Milovana Glišića,78000,44.7608394,17.1901663
12,Milovana Glišića,78000,44.7610573,17.1900332
10,Milovana Glišića,78000,44.7612191,17.1898995
8,Milovana Glišića,78000,44.7613178,17.1898017
6,Milovana Glišića,78000,44.7614680,17.1896937
4,Milovana Glišića,78000,44.7616297,17.1895994
23,Miloša Obilića,78000,44.7617693,17.1893200
1a,Patrijarha Arsenija Čarnojevića,78000,44.7613075,17.1888346
35,Miloša Obilića,78000,44.7614706,17.1886773
33,Miloša Obilića,78000,44.7615495,17.1888284
31,Miloša Obilića,78000,44.7616060,17.1889421
37,Miloša Obilića,78000,44.7613461,17.1885243
34,Braće Jugovića,78000,44.7604659,17.1894598
25b,Gavrila Principa,78000,44.7575477,17.1872649
32,Banović Strahinje,78000,44.7576369,17.1874499
25a,Gavrila Principa,78000,44.7577256,17.1870587
25,Gavrila Principa,78000,44.7578624,17.1869074
23,Gavrila Principa,78000,44.7579670,17.1867887
21,Gavrila Principa,78000,44.7580180,17.1866208
19,Gavrila Principa,78000,44.7581427,17.1865976
15,Gavrila Principa,78000,44.7584432,17.1862430
67,Braće Jugovića,78000,44.7586934,17.1865121
59,Braće Jugovića,78000,44.7589814,17.1870933
61,Braće Jugovića,78000,44.7589056,17.1869425
57,Braće Jugovića,78000,44.7590954,17.1872915
2,Banović Strahinje,78000,44.7585450,17.1894789
32,Patrijarha Arsenija Čarnojevića,78000,44.7588996,17.1893370
30,Patrijarha Arsenija Čarnojevića,78000,44.7590393,17.1893193
34,Patrijarha Arsenija Čarnojevića,78000,44.7588558,17.1895051
28,Patrijarha Arsenija Čarnojevića,78000,44.7594838,17.1889368
26a,Patrijarha Arsenija Čarnojevića,78000,44.7596354,17.1888865
24a,Patrijarha Arsenija Čarnojevića,78000,44.7597375,17.1887509
39,Braće Jugovića,78000,44.7594771,17.1880300
31a,Braće Jugovića,78000,44.7595568,17.1884859
29,Gavrila Principa,78000,44.7567098,17.1883544
27,Gavrila Principa,78000,44.7568534,17.1883000
7,Banović Strahinje,78000,44.7579403,17.1888561
3,Banović Strahinje,78000,44.7581054,17.1893131
1,Banović Strahinje,78000,44.7582320,17.1895186
29,Patrijarha Arsenija Čarnojevića,78000,44.7593380,17.1894557
27,Patrijarha Arsenija Čarnojevića,78000,44.7594673,17.1893622
21a,Patrijarha Arsenija Čarnojevića,78000,44.7598117,17.1891032
17,Braće Jugovića,78000,44.7603672,17.1901120
15,Braće Jugovića,78000,44.7604667,17.1903449
13,Braće Jugovića,78000,44.7605943,17.1906531
29a,Patrijarha Arsenija Čarnojevića,78000,44.7588086,17.1899468
25,Starine Novaka,78000,44.7589352,17.1898209
31,Patrijarha Arsenija Čarnojevića,78000,44.7586146,17.1901675
33,Patrijarha Arsenija Čarnojevića,78000,44.7584005,17.1903856
16,Brace Potkonjaka,78000,44.7586241,17.1907787
19,Starine Novaka,78000,44.7589419,17.1904566
14,Brace Potkonjaka,78000,44.7589603,17.1911216
15,Starine Novaka,78000,44.7592377,17.1907292
17,Starine Novaka,78000,44.7591534,17.1905496
13,Starine Novaka,78000,44.7593245,17.1909383
11,Starine Novaka,78000,44.7593899,17.1911359
12,Brace Potkonjaka,78000,44.7592600,17.1914372
9,Starine Novaka,78000,44.7594981,17.1912452
50,Brace Potkonjaka,78000,44.7591822,17.1917587
6,Kalemegdanska,78000,44.7590419,17.1919650
4,Kalemegdanska,78000,44.7591215,17.1919239
63,Brace Potkonjaka,78000,44.7590547,17.1916159
69,Brace Potkonjaka,78000,44.7588727,17.1914990
73,Brace Potkonjaka,78000,44.7585951,17.1913003
75,Brace Potkonjaka,78000,44.7584582,17.1911373
75a,Brace Potkonjaka,78000,44.7585095,17.1913859
39,Patrijarha Arsenija Čarnojevića,78000,44.7578182,17.1908193
37a,Patrijarha Arsenija Čarnojevića,78000,44.7579570,17.1906898
37,Patrijarha Arsenija Čarnojevića,78000,44.7580155,17.1905619
18,Brace Potkonjaka,78000,44.7581329,17.1908264
79,Brace Potkonjaka,78000,44.7580150,17.1913479
29,Cara Lazara,78000,44.7615828,17.1920009
12,Bulevar vojvode Stepe Stepanovića,78000,44.7623334,17.1927599
8,Bulevar vojvode Stepe Stepanovića,78000,44.7622187,17.1923937
2,Bulevar vojvode Stepe Stepanovića,78000,44.7621699,17.1919967
4,Bulevar vojvode Stepe Stepanovića,78000,44.7622339,17.1922351
29a,Brace Potkonjaka,78000,44.7620764,17.1921508
31,Brace Potkonjaka,78000,44.7619933,17.1922542
33,Brace Potkonjaka,78000,44.7618798,17.1922862
41,Brace Potkonjaka,78000,44.7614461,17.1923321
47,Brace Potkonjaka,78000,44.7611237,17.1926045
132,Srđe Zlopogleđe,78000,44.7610462,17.1931942
130,Srđe Zlopogleđe,78000,44.7610454,17.1933732
128,Srđe Zlopogleđe,78000,44.7610550,17.1935447
114,Srđe Zlopogleđe,78000,44.7610371,17.1939050
100,Srđe Zlopogleđe,78000,44.7612735,17.1943446
104,Srđe Zlopogleđe,78000,44.7610603,17.1942100
30,Bulevar vojvode Stepe Stepanovića,78000,44.7631265,17.1954195
32,Bulevar vojvode Stepe Stepanovića,78000,44.7631698,17.1956629
34,Bulevar vojvode Stepe Stepanovića,78000,44.7631986,17.1957913
42,Bulevar vojvode Stepe Stepanovića,78000,44.7633271,17.1963225
2,Srđe Zlopogleđe,78000,44.7627637,17.1949998
4,Srđe Zlopogleđe,78000,44.7629602,17.1950971
40,Srđe Zlopogleđe,78000,44.7626793,17.1962088
28,Srđe Zlopogleđe,78000,44.7630001,17.1961876
36,Srđe Zlopogleđe,78000,44.7628630,17.1962682
38,Srđe Zlopogleđe,78000,44.7627774,17.1963238
96,Srđe Zlopogleđe,78000,44.7610569,17.1948046
94,Srđe Zlopogleđe,78000,44.7610368,17.1950132
86,Srđe Zlopogleđe,78000,44.7610830,17.1955055
88,Srđe Zlopogleđe,78000,44.7609705,17.1953585
84,Srđe Zlopogleđe,78000,44.7610129,17.1956541
80,Srđe Zlopogleđe,78000,44.7611787,17.1959884
76,Srđe Zlopogleđe,78000,44.7612915,17.1962177
74,Srđe Zlopogleđe,78000,44.7613126,17.1963857
66,Srđe Zlopogleđe,78000,44.7615980,17.1964365
72,Srđe Zlopogleđe,78000,44.7616309,17.1961101
62,Srđe Zlopogleđe,78000,44.7617635,17.1963818
60,Srđe Zlopogleđe,78000,44.7618913,17.1963103
56a,Srđe Zlopogleđe,78000,44.7620340,17.1963864
58,Srđe Zlopogleđe,78000,44.7619845,17.1964154
52,Srđe Zlopogleđe,78000,44.7621738,17.1964214
54,Srđe Zlopogleđe,78000,44.7620939,17.1963666
81,Srđe Zlopogleđe,78000,44.7607333,17.1933979
83,Srđe Zlopogleđe,78000,44.7607146,17.1932043
87,Srđe Zlopogleđe,78000,44.7606982,17.1930334
89,Srđe Zlopogleđe,78000,44.7606959,17.1928716
5,Todora od Stalaća,78000,44.7604381,17.1930408
7,Todora od Stalaća,78000,44.7603629,17.1931157
11,Todora od Stalaća,78000,44.7602567,17.1932233
15,Todora od Stalaća,78000,44.7601125,17.1933275
17,Todora od Stalaća,78000,44.7599900,17.1934162
19,Todora od Stalaća,78000,44.7598798,17.1935625
21,Todora od Stalaća,78000,44.7597418,17.1936671
23,Todora od Stalaća,78000,44.7595754,17.1937825
75,Srđe Zlopogleđe,78000,44.7608345,17.1941706
6,Stevana Bulajića,78000,44.7604837,17.1951650
2,Stevana Bulajića,78000,44.7607748,17.1948677
4,Stevana Bulajića,78000,44.7606847,17.1950292
8,Stevana Bulajića,78000,44.7603324,17.1954276
8a,Stevana Bulajića,78000,44.7601901,17.1955780
10,Stevana Bulajića,78000,44.7600475,17.1957276
12,Stevana Bulajića,78000,44.7599568,17.1958468
23,Stevana Bulajića,78000,44.7600441,17.1970064
21,Stevana Bulajića,78000,44.7599553,17.1967531
11,Stevana Bulajića,78000,44.7601866,17.1965709
13а,Stevana Bulajića,78000,44.7601323,17.1964196
13,Stevana Bulajića,78000,44.7600398,17.1962414
19,Stevana Bulajića,78000,44.7599065,17.1965750
7b,Stevana Bulajića,78000,44.7603029,17.1962073
7a,Stevana Bulajića,78000,44.7602240,17.1960219
7,Stevana Bulajića,78000,44.7603606,17.1959861
5,Stevana Bulajića,78000,44.7604135,17.1957862
3,Stevana Bulajića,78000,44.7605327,17.1957158
1,Stevana Bulajića,78000,44.7606222,17.1955906
67,Srđe Zlopogleđe,78000,44.7607039,17.1955109
65,Srđe Zlopogleđe,78000,44.7607589,17.1956516
63,Srđe Zlopogleđe,78000,44.7609296,17.1959322
59,Srđe Zlopogleđe,78000,44.7609394,17.1961379
57,Srđe Zlopogleđe,78000,44.7609803,17.1962579
61,Srđe Zlopogleđe,78000,44.7608459,17.1960490
100,Braće Jugovića,78000,44.7583006,17.1849422
6,Gavrila Principa,78000,44.7587465,17.1853131
8,Gavrila Principa,78000,44.7585566,17.1854964
4,Gavrila Principa,78000,44.7589220,17.1852027
2,Gavrila Principa,78000,44.7590665,17.1850400
1,Vojvode Pere Krece,78000,44.7593713,17.1847867
12,Pionirska,78000,44.7579938,17.1845291
1,Miće Radakovića,78000,44.7572310,17.1786419
2,Miće Radakovića,78000,44.7569429,17.1784776
40e,Gavrila Principa,78000,44.7566599,17.1878310
40c,Gavrila Principa,78000,44.7567380,17.1877227
40d,Gavrila Principa,78000,44.7566417,17.1875704
40f,Gavrila Principa,78000,44.7565740,17.1877040
38,Gavrila Principa,78000,44.7570243,17.1870563
30,Gavrila Principa,78000,44.7572568,17.1867067
32,Gavrila Principa,78000,44.7571466,17.1867298
28,Gavrila Principa,78000,44.7573351,17.1866126
26,Gavrila Principa,78000,44.7574453,17.1865126
24,Gavrila Principa,78000,44.7576144,17.1863307
18а,Gavrila Principa,78000,44.7577535,17.1860799
20,Gavrila Principa,78000,44.7577484,17.1862530
16,Gavrila Principa,78000,44.7579279,17.1859640
12,Gavrila Principa,78000,44.7580902,17.1859390
10a,Gavrila Principa,78000,44.7582085,17.1858500
10,Gavrila Principa,78000,44.7583000,17.1857098
69,Braće Jugovića,78000,44.7581944,17.1855104
71,Braće Jugovića,78000,44.7581246,17.1854082
73,Braće Jugovića,78000,44.7580790,17.1852551
85,Kozarska,78000,44.7554176,17.1759779
87a,Kozarska,78000,44.7548879,17.1753576
1,Stojana Novakovića,78000,44.7547514,17.1750788
14,Stojana Novakovića,78000,44.7539310,17.1754695
12,Stojana Novakovića,78000,44.7539959,17.1750989
10,Stojana Novakovića,78000,44.7542374,17.1751452
87c,Kozarska,78000,44.7544975,17.1744553
87b,Kozarska,78000,44.7546259,17.1747060
11,Duška Trifunovića,78000,44.7525876,17.1737347
13,Duška Trifunovića,78000,44.7527561,17.1735463
5,Duška Trifunovića,78000,44.7533488,17.1736503
2,Duška Trifunovića,78000,44.7538018,17.1739462
2,Uroša Nejakog,78000,44.7571715,17.1761050
1,Šibalovića,78000,44.7579451,17.1753459
5,Šibalovića,78000,44.7582819,17.1748634
7,Šibalovića,78000,44.7584161,17.1747588
11,Šibalovića,78000,44.7585284,17.1744769
13,Šibalovića,78000,44.7586006,17.1745726
9,Šibalovića,78000,44.7584990,17.1746629
15,Šibalovića,78000,44.7587539,17.1744487
17,Šibalovića,78000,44.7588979,17.1743245
3,Pilanska,78000,44.7849821,17.2088415
3,Pilanska,78000,44.7851285,17.2077929
59,Gavrila Principa,78000,44.7558073,17.1894574
57,Gavrila Principa,78000,44.7558938,17.1893416
55,Gavrila Principa,78000,44.7559962,17.1892501
53,Gavrila Principa,78000,44.7561123,17.1891497
38,Brace Potkonjaka,78000,44.7562556,17.1907452
36b,Brace Potkonjaka,78000,44.7563794,17.1906428
34,Brace Potkonjaka,78000,44.7564995,17.1906957
32a,Brace Potkonjaka,78000,44.7565881,17.1908375
36,Brace Potkonjaka,78000,44.7563838,17.1908060
44,Brace Potkonjaka,78000,44.7561023,17.1906363
46,Brace Potkonjaka,78000,44.7558312,17.1907409
2,Orlovački put,78000,44.7553921,17.1909059
48,Brace Potkonjaka,78000,44.7555088,17.1907722
46a,Brace Potkonjaka,78000,44.7556430,17.1908240
13,Orlovački put,78000,44.7551667,17.1903214
30,Brace Potkonjaka,78000,44.7567987,17.1907055
28,Brace Potkonjaka,78000,44.7570333,17.1907902
26,Brace Potkonjaka,78000,44.7572093,17.1907730
95,Brace Potkonjaka,78000,44.7564978,17.1913449
93,Brace Potkonjaka,78000,44.7566112,17.1912721
91,Brace Potkonjaka,78000,44.7567020,17.1912603
89,Brace Potkonjaka,78000,44.7568313,17.1913047
87a,Brace Potkonjaka,78000,44.7569142,17.1913296
87,Brace Potkonjaka,78000,44.7570061,17.1912781
85,Brace Potkonjaka,78000,44.7571019,17.1912131
83,Brace Potkonjaka,78000,44.7572139,17.1912154
2,Krfska,78000,44.7573445,17.1911824
22,Krfska,78000,44.7575173,17.1915255
26,Krfska,78000,44.7575503,17.1917190
58a,Krfska,78000,44.7570769,17.1925945
64e,Krfska,78000,44.7568265,17.1929473
62,Krfska,78000,44.7563947,17.1920913
60c,Krfska,78000,44.7563861,17.1919075
60a,Krfska,78000,44.7562466,17.1914651
60,Krfska,78000,44.7560982,17.1915025
107a,Brace Potkonjaka,78000,44.7557183,17.1912453
105,Brace Potkonjaka,78000,44.7559469,17.1912241
103,Brace Potkonjaka,78000,44.7560512,17.1911713
64b,Krfska,78000,44.7565825,17.1932655
64,Krfska,78000,44.7566878,17.1934914
70,Krfska,78000,44.7567198,17.1939211
109,Brace Potkonjaka,78000,44.7554166,17.1914039
111,Brace Potkonjaka,78000,44.7553757,17.1915477
18,Mileševska,78000,44.7560834,17.1932465
20,Mileševska,78000,44.7560904,17.1934603
98,Krfska,78000,44.7578626,17.1955291
118,Krfska,78000,44.7580089,17.1959338
122,Krfska,78000,44.7580720,17.1961183
124,Krfska,78000,44.7581349,17.1962786
52,Stevana Bulajića,78000,44.7588832,17.1969737
54,Stevana Bulajića,78000,44.7590514,17.1969984
32,Stevana Bulajića,78000,44.7599333,17.1979995
34,Stevana Bulajića,78000,44.7599727,17.1981370
38,Stevana Bulajića,78000,44.7599752,17.1985399
36,Stevana Bulajića,78000,44.7599998,17.1983540
42b,Stevana Bulajića,78000,44.7592409,17.1983585
42a,Stevana Bulajića,78000,44.7592989,17.1985430
46,Stevana Bulajića,78000,44.7590893,17.1977877
46a,Stevana Bulajića,78000,44.7590745,17.1975061
50,Stevana Bulajića,78000,44.7591144,17.1972321
48,Stevana Bulajića,78000,44.7589871,17.1973036
64,Stevana Bulajića,78000,44.7586503,17.1970020
60,Stevana Bulajića,78000,44.7585287,17.1970832
68a,Stevana Bulajića,78000,44.7588281,17.1977001
70,Stevana Bulajića,78000,44.7588814,17.1978825
72,Stevana Bulajića,78000,44.7589394,17.1981062
74,Stevana Bulajića,78000,44.7589761,17.1983242
76,Stevana Bulajića,78000,44.7590066,17.1985266
55,Cerska,78000,44.7598945,17.2023632
41,Stevana Bulajića,78000,44.7598614,17.1991921
43,Stevana Bulajića,78000,44.7597157,17.1992350
45,Stevana Bulajića,78000,44.7595400,17.1993405
47,Stevana Bulajića,78000,44.7594136,17.1994482
92,Stevana Bulajića,78000,44.7589944,17.1987712
94,Stevana Bulajića,78000,44.7591685,17.1988420
90,Stevana Bulajića,78000,44.7588869,17.1988659
22,Braće Pišteljić,78000,44.7819000,17.2200663
1,Braće Pišteljić,78000,44.7856850,17.2130600
95,Kozarska,78000,44.7534838,17.1712927
93,Kozarska,78000,44.7522048,17.1725354
80,Jug Bogdana,78000,44.7617689,17.2022569
82,Jug Bogdana,78000,44.7618591,17.2025327
84,Jug Bogdana,78000,44.7619497,17.2028069
86,Jug Bogdana,78000,44.7620516,17.2030703
23a,Dunavska,78000,44.7899185,17.2156197
4d,Braće Podgornika,78000,44.7878944,17.2091092
bb,Ivana Gorana Kovačića,78000,44.7901208,17.2001191
7a,Marije Dimić,78000,44.7899466,17.1978494
"19,21,23,25,27,29,31",Dr Vojislava Đede Kecmanovića,78101,44.7617597,17.2102801
76,Sime Miljuša,78000,44.7596819,17.2067378
72a,Sime Miljuša,78000,44.7597888,17.2072853
72,Sime Miljuša,78000,44.7598150,17.2074112
66,Sime Miljuša,78000,44.7603176,17.2077950
38,Sime Miljuša,78000,44.7605372,17.2077510
1,Prve krajiške brigade narodne odbrane,78000,44.7592222,17.2049626
3,Prve krajiške brigade narodne odbrane,78000,44.7593867,17.2055365
5,Prve krajiške brigade narodne odbrane,78000,44.7596022,17.2061526
6,Prve krajiške brigade narodne odbrane,78000,44.7590290,17.2061558
2,Prve krajiške brigade narodne odbrane,78000,44.7588474,17.2055795
4,Prve krajiške brigade narodne odbrane,78000,44.7585072,17.2061757
20,Ognjena Price,78000,44.7589086,17.2084246
18,Ognjena Price,78000,44.7582673,17.2085102
16,Ognjena Price,78000,44.7575989,17.2085882
14,Ognjena Price,78000,44.7571301,17.2090045
57,Cerska,78000,44.7596434,17.2024184
59,Cerska,78000,44.7595463,17.2025538
239,Krajiških brigada,78000,44.7854696,17.1944581
249,Krajiških brigada,78000,44.7856027,17.1946874
160,Karađorđeva,78000,44.7773408,17.1720414
58,Podgrmečka,78000,44.7752541,17.1662198
3,Prote Nikole Kostića,78000,44.7904547,17.2091279
44,Tuzlanska,78000,44.7528660,17.2175415
11 b,Majevička,78000,44.7914376,17.1907776
24a,Braće Kavića,78000,44.7579099,17.2411340
1,Ilije Garašanina,78000,44.7976057,17.2079326
56,Knjaza Miloša,78000,44.8000958,17.2085672
203e,Ivana Gorana Kovačića,78000,44.8049776,17.1975777
203b,Ivana Gorana Kovačića,78000,44.8041899,17.1987813
bb,Despota Stefana Lazarevića,78000,44.8105514,17.1998492
17,Branka Popovića,78000,44.8063082,17.2072443
41h,Branka Popovića,78000,44.8065432,17.2076096
41,Branka Popovića,78000,44.8076643,17.2081703
41G,Branka Popovića,78000,44.8068819,17.2078022
100,Knjaza Miloša,78000,44.8032824,17.2087840
39,Kragujevačkih i kraljevačkih žrtava,78103,44.7373472,17.1575678
bb,Jovana Bijelića,78000,44.8237474,17.2066156
5b,Jovana Bijelića,78000,44.8228155,17.2072767
108,Blagoja Parovića,78000,44.8239559,17.1941021
61b,Branka Popovića,78000,44.8160082,17.2092855
232,Branka Popovića,78000,44.8160439,17.2156473
180,Dubička,78000,44.8188942,17.2082760
5,Jovana Bijelića,78000,44.8229848,17.2086520
3,Subotička,78000,44.8086607,17.1968467
bb,Jovana Bijelića,78000,44.8221244,17.1997267
16,Dragana Bubića,78000,44.7916999,17.2019003
71,Jevrejska,78000,44.7698320,17.1925074
24,Bulevar vojvode Živojina Mišića,78000,44.7708311,17.2150802
19,Vase Pelagića,78000,44.7727911,17.1961314
21,Vase Pelagića,78000,44.7729032,17.1961719
23,Vase Pelagića,78000,44.7730358,17.1961988
13,Vojvode Pere Krece,78000,44.7562210,17.1845712
13,Vojvode Pere Krece,78000,44.7556572,17.1835522
18,Vojvode Momčila,78000,44.7687823,17.1865928
11,Ivana Franje Jukića,78000,44.7700022,17.1916703
9,Ivana Franje Jukića,78000,44.7703291,17.1918405
7,Jovana Bijelića,78000,44.8220858,17.2041262
bb,Despota Stefana Lazarevića,78000,44.8093804,17.2014441
7,Bulevar srpske vojske,78000,44.7761377,17.2065264
1a,Vladike Platona,78000,44.7754006,17.1966342
76,Kralja Petra I Karađorđevića,78000,44.7732622,17.1923731
1,Jevrejska,78000,44.7703686,17.1913225
30,Srpska,78000,44.7704995,17.1944638
2a,Đure Daničića,78000,44.7687577,17.1929897
2,Draška Božića,78000,44.7743695,17.1896671
1a,Bulevar vojvode Petra Bojovića,78000,44.7749503,17.2106747
5,Patre,78000,44.7666987,17.1871679
1,Braće Jugovića,78000,44.7607996,17.1918559
42,Srđe Zlopogleđe,78000,44.7620514,17.1955492
12a,Ada,78000,44.7716555,17.2188311
bb,Prote Todora Srdića,78000,44.7645859,17.1879793
19,Ravnogorska,78000,44.7806399,17.1966147
29,Dragiše Vasića,78000,44.7788832,17.1944349
1,Cetinjska,78000,44.7604737,17.1770723
32,Kralja Nikole,78000,44.7657605,17.1823496
14,Đure Jakšića,78000,44.7662781,17.1812913
2a,Boška Tošića,78000,44.7632431,17.1987641
7,Save Mrkalja,78000,44.7721330,17.1871730
48,Jevrejska,78000,44.7685152,17.1951194
17,Sime i Ilije Partala,78000,44.7303156,17.1582959
57,Meše Selimovića,78000,44.7695115,17.1816715
23a,Jovana Dučića,78000,44.7746798,17.1867042
5,Brace Potkonjaka,78000,44.7648460,17.1903209
7,Brace Potkonjaka,78000,44.7647643,17.1903485
17,Cara Lazara,78000,44.7637914,17.1900604
7a,Tarasa Ševčenka,78000,44.7793960,17.1887425
28,Bulevar vojvode Stepe Stepanovića,78000,44.7621614,17.1941628
13,Beogradska,78000,44.7696233,17.2035004
15,Beogradska,78000,44.7694442,17.2035914
17,Beogradska,78000,44.7692639,17.2036933
19,Beogradska,78000,44.7690809,17.2037915
32,Manjačkih ustanika,78000,44.7475548,17.1553202
6,Vilsonova,78000,44.7632752,17.1938297
171b,Bulevar vojvode Stepe Stepanovića,78000,44.7665625,17.2037591
23,Maksima Gorkog,78000,44.7779739,17.1790334
14c,Novaka Pivaševića,78000,44.7648102,17.2152441
138,Bulevar vojvode Stepe Stepanovića,78000,44.7659648,17.2098024
7,Tuzlanska,78000,44.7551826,17.2136235
1,Trg Republike Srpske,78000,44.7777990,17.1977949
16,Milovana Glišića,78000,44.7609253,17.1901057
310,Branka Popovića,78000,44.8174233,17.2161738
14,Milovana Glišića,78000,44.7608330,17.1898509
18,Bulevar vojvode Stepe Stepanovića,78000,44.7625311,17.1933222
8,Bulevar vojvode Živojina Mišića,78000,44.7705019,17.2004887
4,Radoja Domanovića,78000,44.7620134,17.1803620
bb,Ložionička,78000,44.7948055,17.2146400
39b,Braće Podgornika,78000,44.7910951,17.2089818
39c,Braće Podgornika,78000,44.7912052,17.2084496
39a,Braće Podgornika,78000,44.7909162,17.2095462
5,Veljka Mlađenovića,78000,44.7703123,17.2215081
14,Petra Preradovića,78000,44.7785554,17.1883486
134b,Bulevar vojvode Stepe Stepanovića,78000,44.7661003,17.2082991
33,Prvog krajiškog korpusa,78000,44.7774786,17.1939412
45,Miloša Obilića,78000,44.7610069,17.1874266
77,Miloša Obilića,78000,44.7596097,17.1853286
bb,Užička,78000,44.7778472,17.1679620
44,Braće Jugovića,78000,44.7602734,17.1889126
40,Braće Jugovića,78000,44.7602658,17.1891761
91,Jevrejska,78000,44.7690301,17.1947944
18,V Кozarske brigade,78000,44.7859603,17.2043719
38a,Zore Kovačević,78000,44.7882223,17.1901115
21,Vojvode Pere Krece,78000,44.7551927,17.1819043
2,Vojvode Pere Krece,78000,44.7597421,17.1838323
25,Filipa Macure,78000,44.7622110,17.1759961
23,Stevana Moljevića,78000,44.7592763,17.1813931
112,Srđe Zlopogleđe,78000,44.7610470,17.1939948
45,Mirka Kovačevića,78000,44.7623420,17.1861486
33,Mirka Kovačevića,78000,44.7616208,17.1865922
25,Mirka Kovačevića,78000,44.7623858,17.1878306
22,Kralja Petra I Karađorđevića,78000,44.7664008,17.1860678
33,Pave Radana,78000,44.7787403,17.1922705
30,Miloša Obilića,78000,44.7619507,17.1885046
bb,Nenada Kostića,78000,44.8374544,17.2167661
44,Stevana Bulajića,78000,44.7591214,17.1979196
26,Skendera Kulenovića,78000,44.7636444,17.1825597
48,Cara Lazara,78000,44.7596429,17.1924307
2,Dvanaest beba,78000,44.7841947,17.1797291
38a,Zore Kovačević,78000,44.7882121,17.1898096
4,Dvanaest beba,78000,44.7851443,17.1801153
3,Trg srpskih vladara,78000,44.7722492,17.1916693
6,Vuka Karadžića,78000,44.7766776,17.1902976
4,Zdrave Korde,78000,44.7723493,17.1846267
44,Bulevar vojvode Stepe Stepanovića,78000,44.7632992,17.1968483
