House number,Street name,Postal code,Latitude,Longitude
7,улица Ленина,403870,50.1066423,45.4159267
8/1,улица Ленина,403870,50.1069302,45.4084398
7,Молодёжная улица,403879,50.1151733,45.4183044
4,улица Братьев Сорокиных,403876,50.0864953,45.3786633
7А,улица Терешковой,403874,50.1037807,45.4175171
109,улица Базарова,403876,50.0897989,45.3736134
21,улица Воинов-Интернационалистов,403876,50.0925572,45.3747500
160,улица Базарова,403876,50.0913983,45.3745497
19,улица Воинов-Интернационалистов,403876,50.0922826,45.3757912
19А,улица Воинов-Интернационалистов,403892,50.0919052,45.3758344
15А,улица Воинов-Интернационалистов,403876,50.0922362,45.3780704
13А,улица Воинов-Интернационалистов,403876,50.0915504,45.3778016
17А,улица Воинов-Интернационалистов,403876,50.0917120,45.3771362
107,улица Базарова,403876,50.0894546,45.3755077
3В,улица Братьев Сорокиных,403876,50.0878491,45.3780438
101,улица Базарова,403876,50.0875937,45.3793780
3Г,улица Братьев Сорокиных,403876,50.0882277,45.3774090
3А,улица Братьев Сорокиных,403876,50.0871414,45.3777199
152,улица Базарова,403876,50.0899317,45.3765370
148,улица Базарова,403876,50.0889670,45.3786602
36,Партизанская улица,403876,50.0895739,45.3785575
144,улица Базарова,403876,50.0879831,45.3808802
4,Спортивная улица,403876,50.0890912,45.3846445
12,Спортивная улица,403892,50.0908933,45.3833526
11,улица Металлургов,403876,50.0894565,45.3859138
14,Спортивная улица,403892,50.0917351,45.3826854
17,улица Металлургов,403876,50.0916786,45.3846780
21,улица Металлургов,403892,50.0922610,45.3831149
13,улица Металлургов,403876,50.0902626,45.3855250
23,улица Металлургов,403892,50.0927742,45.3824781
16,Спортивная улица,403892,50.0921385,45.3822671
8,Спортивная улица,403876,50.0898117,45.3841958
6,Спортивная улица,403876,50.0895365,45.3833640
10,Спортивная улица,403876,50.0902020,45.3834996
2,улица Воинов-Интернационалистов,403876,50.0932368,45.3812104
13,улица Воинов-Интернационалистов,403876,50.0927650,45.3784768
17,улица Воинов-Интернационалистов,403876,50.0926048,45.3766538
15,улица Воинов-Интернационалистов,403876,50.0927091,45.3775813
19,улица Металлургов,403876,50.0920873,45.3841872
128,улица Базарова,403876,50.0863878,45.3850539
6,улица Металлургов,403876,50.0874563,45.3864756
9,улица Металлургов,403892,50.0884219,45.3851854
10А,улица Металлургов,403876,50.0888915,45.3875699
10,улица Металлургов,403876,50.0888649,45.3870522
8Б,улица Металлургов,403876,50.0884675,45.3883486
8А,улица Металлургов,403876,50.0882337,45.3877251
12А,улица Металлургов,403876,50.0893849,45.3874641
8,улица Металлургов,403876,50.0881889,45.3871905
12,улица Металлургов,403876,50.0893394,45.3869500
3Б,улица Братьев Сорокиных,403876,50.0873959,45.3782365
105,улица Базарова,403876,50.0888565,45.3764583
142,улица Базарова,403876,50.0876275,45.3818702
156А,улица Базарова,403876,50.0908113,45.3766720
158,улица Базарова,403876,50.0912437,45.3770460
15,улица Металлургов,403876,50.0910518,45.3854489
10Б,улица Металлургов,403876,50.0887747,45.3881487
7,Текстильная улица,403870,50.1052962,45.4093194
21,улица Мира,403850,50.1046567,45.4154366
7,улица Титова,403879,50.1126243,45.4177263
5,улица Титова,403879,50.1127605,45.4168561
2,Юбилейная улица,403874,50.1086088,45.4164263
21,улица Титова,403879,50.1119174,45.4236348
17,улица Титова,403879,50.1120028,45.4225464
15,улица Титова,403879,50.1120604,45.4220474
19,улица Титова,403879,50.1119577,45.4230827
13,улица Титова,403879,50.1121239,45.4213631
9,улица Титова,403879,50.1125014,45.4188591
23,улица Титова,403879,50.1119149,45.4241698
21,улица Некрасова,403870,50.0987345,45.4236846
35,проезд Феоктистова,403870,50.0989816,45.4230008
23,улица Некрасова,403870,50.0993017,45.4245801
12,проезд Феоктистова,403870,50.1002117,45.4219207
29,проезд Феоктистова,403870,50.1005732,45.4242175
27,проезд Феоктистова,403870,50.1008610,45.4236689
23,проезд Феоктистова,403870,50.1012345,45.4223168
25,проезд Феоктистова,403870,50.1011430,45.4231556
21,проезд Феоктистова,403870,50.1018130,45.4219827
33,улица Некрасова,403870,50.1029016,45.4286632
18,проезд Феоктистова,403870,50.0989333,45.4218089
45,проезд Феоктистова,403870,50.0984260,45.4199658
51,проезд Феоктистова,403870,50.0991562,45.4198624
47,проезд Феоктистова,403870,50.0981963,45.4192137
6,проезд Феоктистова,403870,50.0998217,45.4185301
43,проезд Феоктистова,403870,50.0981776,45.4204552
35,улица Некрасова,403870,50.1035071,45.4290951
37,проезд Феоктистова,403870,50.0986399,45.4225627
20,проезд Феоктистова,403870,50.0989448,45.4208670
49,проезд Феоктистова,403870,50.0987902,45.4190792
12,улица Краностроителей,403870,50.0977050,45.4196814
53,проезд Феоктистова,403870,50.0995026,45.4206015
41,проезд Феоктистова,403870,50.0979174,45.4208904
10,улица Краностроителей,403870,50.0974400,45.4201048
39,проезд Феоктистова,403870,50.0983295,45.4218877
10,проезд Феоктистова,403870,50.1011096,45.4211691
12А,проезд Феоктистова,403870,50.0999552,45.4229261
1Б,Кубанская улица,403888,50.1140431,45.4497794
8,Текстильная улица,403874,50.1009925,45.4066581
2,Текстильная улица,403874,50.1014519,45.4072105
19А,улица Некрасова,403870,50.0975295,45.4219293
19Д,улица Некрасова,403870,50.0982027,45.4229026
1,улица Пушкина,403893,50.0859362,45.4142854
137,улица Гагарина,403895,50.0722861,45.3882196
139,улица Гагарина,403895,50.0722625,45.3875905
141,улица Гагарина,403895,50.0722303,45.3869637
143,улица Гагарина,403895,50.0721986,45.3863317
149,улица Гагарина,403895,50.0712905,45.3862615
151,улица Гагарина,403895,50.0709579,45.3858589
155,улица Гагарина,403895,50.0702893,45.3850559
157,улица Гагарина,403895,50.0699504,45.3846856
4,улица Ленина,403874,50.1072464,45.4033551
8,Кузнечная улица,403882,50.0881980,45.3993174
4,улица Будённого,403873,50.0763994,45.4047712
16,улица Будённого,403870,50.0743272,45.4021603
11,Набережная улица,403895,50.0730104,45.4099858
67,улица Серафимовича,403889,50.0798207,45.3846206
115А,Пролетарская улица,403895,50.0723296,45.3966968
145А,улица Гагарина,403895,50.0716062,45.3871172
10,Волгоградская улица,403895,50.0742968,45.3912749
155/1,улица Гагарина,403895,50.0699835,45.3857563
153/1,улица Гагарина,403895,50.0703262,45.3861616
151/1,улица Гагарина,403895,50.0707933,45.3866986
8/1,улица Ленина,403870,50.1068962,45.4084749
19Б,улица Некрасова,403870,50.0978038,45.4217376
19Ж,улица Некрасова,403870,50.0979342,45.4220392
19Г,улица Некрасова,403870,50.0980498,45.4223351
19К,улица Некрасова,403870,50.0972382,45.4207457
55,проезд Феоктистова,403870,50.0995884,45.4223421
20,Вологодская улица,403870,50.1245180,45.4415223
18,Вологодская улица,403870,50.1244274,45.4419491
16,Вологодская улица,403870,50.1243503,45.4422819
14,Вологодская улица,403870,50.1242773,45.4426070
12А,Вологодская улица,403870,50.1244024,45.4431438
12,Вологодская улица,403870,50.1241939,45.4430217
10,Вологодская улица,403870,50.1240688,45.4435259
4,Вологодская улица,403870,50.1238811,45.4444203
6,Вологодская улица,403870,50.1239541,45.4441112
8,Вологодская улица,403870,50.1240063,45.4438428
41,Вологодская улица,403870,50.1242752,45.4412072
37,Вологодская улица,403870,50.1241481,45.4418019
31,Вологодская улица,403870,50.1239032,45.4428636
33,Вологодская улица,403870,50.1239939,45.4424530
35,Вологодская улица,403870,50.1240847,45.4420850
48,Астраханская улица,403870,50.1236853,45.4427503
50,Астраханская улица,403870,50.1237125,45.4424106
56,Астраханская улица,403870,50.1238850,45.4415046
58,Астраханская улица,403870,50.1239576,45.4411082
54,Астраханская улица,403870,50.1238214,45.4418302
52,Астраханская улица,403870,50.1237488,45.4420567
69,Астраханская улица,403870,50.1236126,45.4410091
65,Астраханская улица,403870,50.1235401,45.4415046
63,Астраханская улица,403870,50.1234312,45.4419434
61,Астраханская улица,403870,50.1233767,45.4422266
59,Астраханская улица,403870,50.1232768,45.4426088
67,Астраханская улица,403870,50.1235673,45.4412356
60,Ташкентская улица,403870,50.1230318,45.4424389
66,Ташкентская улица,403870,50.1232405,45.4413914
64,Ташкентская улица,403870,50.1231680,45.4417594
62,Ташкентская улица,403870,50.1231044,45.4420425
68,Ташкентская улица,403870,50.1233132,45.4410657
70,Ташкентская улица,403870,50.1233767,45.4407968
47,Ташкентская улица,403870,50.1231861,45.4403862
45,Ташкентская улица,403870,50.1230590,45.4409099
46,Ташкентская улица,403870,50.1228321,45.4408392
44,Ташкентская улица,403870,50.1226959,45.4414479
48,Ташкентская улица,403870,50.1229410,45.4402587
43,Ташкентская улица,403870,50.1229138,45.4415470
41,Ташкентская улица,403870,50.1227051,45.4421558
47,Ашхабадская улица,403870,50.1226597,45.4401030
45,Ашхабадская улица,403870,50.1225326,45.4406977
43,Ашхабадская улица,403870,50.1224237,45.4412781
41,Ашхабадская улица,403870,50.1223329,45.4418727
46,Балкарская улица,403870,50.1222875,45.4405703
44,Балкарская улица,403870,50.1221423,45.4411365
48,Балкарская улица,403870,50.1223601,45.4399898
42,Балкарская улица,403870,50.1220515,45.4415612
46,Осетинская улица,403870,50.1216884,45.4401455
41,Балкарская улица,403870,50.1216522,45.4415470
42,Осетинская улица,403870,50.1214525,45.4414054
43,Балканская улица,403870,50.1217792,45.4409242
45,Балкарская улица,403870,50.1218791,45.4403862
47,Балкарская улица,403870,50.1220062,45.4397775
48,Осетинская улица,403870,50.1218064,45.4396784
44,Осетинская улица,403870,50.1215613,45.4408817
47,Осетинская улица,403870,50.1214796,45.4395227
45,Осетинская улица,403870,50.1213798,45.4400748
43,Осетинская улица,403870,50.1212527,45.4406835
41,Осетинская улица,403870,50.1211257,45.4412923
42,Кабардинская улица,403870,50.1209169,45.4411648
44,Кабардинская улица,403870,50.1210077,45.4405703
46,Кабардинская улица,403870,50.1211438,45.4399757
48,Кабардинская улица,403870,50.1212709,45.4394236
50,Кабардинская улица,403870,50.1214616,45.4390272
50,Витебская улица,403870,50.1209820,45.4387775
47,Кабардинская улица,403870,50.1209957,45.4392871
45,Кабардинская улица,403870,50.1208822,45.4398451
48,Витебская улица,403870,50.1207824,45.4391369
46,Витебская улица,403870,50.1206483,45.4397325
43,Кабардинская улица,403870,50.1207687,45.4404673
41,Кабардинская улица,403870,50.1206380,45.4410145
44,Витебская улица,403870,50.1205073,45.4403439
42,Витебская улица,403870,50.1204178,45.4408965
65,Витебская улица,403870,50.1201461,45.4407999
67,Витебская улица,403870,50.1202734,45.4401885
69,Витебская улица,403870,50.1203869,45.4396037
70,Восточная улица,403870,50.1201736,45.4395017
68,Восточная улица,403870,50.1200395,45.4400651
66,Восточная улица,403870,50.1199260,45.4406712
71,Витебская улица,403870,50.1205038,45.4389975
72,Восточная улица,403870,50.1202871,45.4389171
74,Восточная улица,403870,50.1205004,45.4385255
85,Бакинская улица,403870,50.1198778,45.4381822
71,Витебская улица,403870,50.1198881,45.4387186
69,Витебская улица,403870,50.1197815,45.4392819
80,Донская улица,403870,50.1196267,45.4385898
78,Донская улица,403870,50.1195063,45.4391585
67,Витебская улица,403870,50.1196611,45.4398665
76,Донская улица,403870,50.1194100,45.4397753
65,Витебская улица,403870,50.1195270,45.4404727
74,Донская улица,403870,50.1192828,45.4403439
24,Бакинская улица,403870,50.1212020,45.4383591
22,Бакинская улица,403870,50.1209819,45.4382572
58,Кабардинская улица,403870,50.1213740,45.4374955
56,Витебская улица,403870,50.1211608,45.4373721
54,Кабардинская улица,403870,50.1212640,45.4379086
54,Витебская улица,403870,50.1210576,45.4377530
75,Витебская улица,403870,50.1207068,45.4381017
76,Восточная улица,403870,50.1204419,45.4380158
78,Восточная улица,403870,50.1205932,45.4373721
77,Витебская улица,403870,50.1208099,45.4374847
80,Витебская улица,403870,50.1209338,45.4369698
82,Восточная улица,403870,50.1206655,45.4367819
48,Кабардинская улица,403870,50.1238091,45.4433535
48,Кабардинская улица,403870,50.1235236,45.4432247
48,Кабардинская улица,403870,50.1236887,45.4439543
48,Кабардинская улица,403870,50.1234549,45.4436136
48,Кабардинская улица,403870,50.1236371,45.4442814
48,Кабардинская улица,403870,50.1233912,45.4439300
48,Кабардинская улица,403870,50.1235477,45.4445952
48,Кабардинская улица,403870,50.1232949,45.4442760
48,Кабардинская улица,403870,50.1233138,45.4457915
48,Кабардинская улица,403870,50.1229441,45.4460275
48,Кабардинская улица,403870,50.1230112,45.4456520
48,Кабардинская улица,403870,50.1233775,45.4454750
48,Кабардинская улица,403870,50.1234170,45.4452470
48,Кабардинская улица,403870,50.1235047,45.4448582
48,Кабардинская улица,403870,50.1230542,45.4454348
48,Кабардинская улица,403870,50.1237386,45.4437156
48,Кабардинская улица,403870,50.1232365,45.4445283
48,Кабардинская улица,403870,50.1232296,45.4461321
48,Кабардинская улица,403870,50.1231573,45.4450351
48,Кабардинская улица,403870,50.1231879,45.4448017
9,Вологодская улица,403870,50.1231626,45.4465876
26,Астраханская улица,403870,50.1228505,45.4464150
7,Вологодская улица,403870,50.1230639,45.4469943
5,Вологодская улица,403870,50.1230086,45.4472037
24,Астраханская улица,403870,50.1227755,45.4467908
22,Астраханская улица,403870,50.1227202,45.4470003
20,Астраханская улица,403870,50.1226569,45.4474132
8,Астраханская улица,403870,50.1223036,45.4491967
18,Астраханская улица,403870,50.1226016,45.4476165
3,Вологодская улица,403870,50.1228861,45.4476042
1,Вологодская улица,403870,50.1228110,45.4477891
16,Астраханская улица,403870,50.1225187,45.4479308
14,Астраханская улица,403870,50.1224555,45.4482081
12,Астраханская улица,403870,50.1224039,45.4485085
10,Астраханская улица,403870,50.1223316,45.4487874
57,Астраханская улица,403870,50.1232309,45.4430646
55,Астраханская улица,403870,50.1231492,45.4434469
53,Астраханская улица,403870,50.1230721,45.4437370
51,Астраханская улица,403870,50.1229859,45.4440769
49,Астраханская улица,403870,50.1229223,45.4443812
39,Астраханская улица,403870,50.1226273,45.4458748
41,Астраханская улица,403870,50.1226909,45.4454925
43,Астраханская улица,403870,50.1227363,45.4452448
47,Астраханская улица,403870,50.1228769,45.4446643
45,Астраханская улица,403870,50.1228270,45.4448767
54,Ташкентская улица,403870,50.1230085,45.4429797
52,Ташкентская улица,403870,50.1228452,45.4433478
40,Ташкентская улица,403870,50.1223460,45.4457191
42,Ташкентская улица,403870,50.1223913,45.4454147
44,Ташкентская улица,403870,50.1225048,45.4450324
46,Ташкентская улица,403870,50.1225411,45.4448201
48,Ташкентская улица,403870,50.1227589,45.4438574
50,Ташкентская улица,403870,50.1227952,45.4435530
37,Астраханская улица,403870,50.1225564,45.4462606
35,Астраханская улица,403870,50.1224656,45.4466960
33,Астраханская улица,403870,50.1224180,45.4468977
31,Астраханская улица,403870,50.1223431,45.4472552
29,Астраханская улица,403870,50.1223068,45.4474675
27,Астраханская улица,403870,50.1222160,45.4478357
25,Астраханская улица,403870,50.1221570,45.4480764
21,Астраханская улица,403870,50.1220458,45.4486603
19,Астраханская улица,403870,50.1219936,45.4490921
38,Ташкентская улица,403870,50.1222573,45.4461316
36,Ташкентская улица,403870,50.1222035,45.4464213
34,Ташкентская улица,403870,50.1221256,45.4467341
32,Ташкентская улица,403870,50.1220597,45.4471078
30,Ташкентская улица,403870,50.1220058,45.4473225
28,Ташкентская улица,403870,50.1219310,45.4477148
26,Ташкентская улица,403870,50.1218831,45.4479250
24,Ташкентская улица,403870,50.1218142,45.4482613
22,Ташкентская улица,403870,50.1217573,45.4485133
20,Ташкентская улица,403870,50.1216645,45.4489337
39,Ташкентская улица,403870,50.1226406,45.4428028
37,Ташкентская улица,403870,50.1225927,45.4430924
21,Ташкентская улица,403870,50.1220717,45.4455301
23,Ташкентская улица,403870,50.1221675,45.4451471
25,Ташкентская улица,403870,50.1222274,45.4448110
27,Ташкентская улица,403870,50.1222933,45.4445307
35,Ташкентская улица,403870,50.1225388,45.4433725
33,Ташкентская улица,403870,50.1224610,45.4436994
31,Ташкентская улица,403870,50.1223891,45.4439797
29,Ташкентская улица,403870,50.1223292,45.4442505
19,Ташкентская улица,403870,50.1219999,45.4459784
17,Ташкентская улица,403870,50.1219340,45.4462774
15,Ташкентская улица,403870,50.1218741,45.4465948
13,Ташкентская улица,403870,50.1217184,45.4468844
1,Ташкентская улица,403870,50.1213771,45.4488365
3,Ташкентская улица,403870,50.1214729,45.4484348
5,Ташкентская улица,403870,50.1215208,45.4481266
7,Ташкентская улица,403870,50.1215986,45.4478184
9,Ташкентская улица,403870,50.1216585,45.4475383
11,Ташкентская улица,403870,50.1217184,45.4472486
40,Ашхабадская улица,403870,50.1224097,45.4426392
2,Ашхабадская улица,403870,50.1211340,45.4486694
4,Ашхабадская улица,403870,50.1212407,45.4482257
6,Ашхабадская улица,403870,50.1212960,45.4479300
8,Ашхабадская улица,403870,50.1213434,45.4476650
10,Ашхабадская улица,403870,50.1213947,45.4473630
12,Ашхабадская улица,403870,50.1214777,45.4470364
14,Ашхабадская улица,403870,50.1215607,45.4467284
16,Ашхабадская улица,403870,50.1216041,45.4464450
18,Ашхабадская улица,403870,50.1216634,45.4461737
20,Ашхабадская улица,403870,50.1217464,45.4458534
22,Ашхабадская улица,403870,50.1218254,45.4454467
24,Ашхабадская улица,403870,50.1219163,45.4449968
26,Ашхабадская улица,403870,50.1219913,45.4446825
28,Ашхабадская улица,403870,50.1220269,45.4444115
30,Ашхабадская улица,403870,50.1220980,45.4441341
32,Ашхабадская улица,403870,50.1221533,45.4438260
34,Ашхабадская улица,403870,50.1222244,45.4435241
36,Ашхабадская улица,403870,50.1223113,45.4432099
38,Ашхабадская улица,403870,50.1223627,45.4429326
1,Ашхабадская улица,403870,50.1208945,45.4485459
3,Ашхабадская улица,403870,50.1210114,45.4480310
5,Ашхабадская улица,403870,50.1210699,45.4477627
7,Ашхабадская улица,403870,50.1211283,45.4475106
9,Ашхабадская улица,403870,50.1211903,45.4471834
11,Ашхабадская улица,403870,50.1212522,45.4468938
13,Ашхабадская улица,403870,50.1213106,45.4465986
15,Ашхабадская улица,403870,50.1213691,45.4463358
17,Ашхабадская улица,403870,50.1214413,45.4460462
19,Ашхабадская улица,403870,50.1215067,45.4457029
21,Ашхабадская улица,403870,50.1215709,45.4453340
23,Ашхабадская улица,403870,50.1216804,45.4448462
25,Ашхабадская улица,403870,50.1217378,45.4445697
27,Ашхабадская улица,403870,50.1217977,45.4442851
29,Ашхабадская улица,403870,50.1218577,45.4439966
31,Ашхабадская улица,403870,50.1219098,45.4437160
33,Ашхабадская улица,403870,50.1219854,45.4434112
35,Ашхабадская улица,403870,50.1220636,45.4429843
37,Ашхабадская улица,403870,50.1221079,45.4427687
39,Ашхабадская улица,403870,50.1221705,45.4425248
2,Балканская улица,403870,50.1206386,45.4484005
4,Балканская улица,403870,50.1207220,45.4479451
6,Балканская улица,403870,50.1207846,45.4476198
8,Балканская улица,403870,50.1208367,45.4473434
10,Балканская улица,403870,50.1208966,45.4470753
12,Балканская улица,403870,50.1209745,45.4467765
14,Балканская улица,403870,50.1210493,45.4464682
16,Балканская улица,403870,50.1210913,45.4461928
18,Балканская улица,403870,50.1211511,45.4458705
20,Балканская улица,403870,50.1211991,45.4455810
22,Балканская улица,403870,50.1213128,45.4451700
24,Балканская улица,403870,50.1213997,45.4447543
26,Балканская улица,403870,50.1214595,45.4444182
28,Балканская улица,403870,50.1215164,45.4441566
30,Балканская улица,403870,50.1215913,45.4438717
32,Балканская улица,403870,50.1216452,45.4435589
34,Балканская улица,403870,50.1217141,45.4432366
36,Балканская улица,403870,50.1217769,45.4429284
38,Балканская улица,403870,50.1218248,45.4426996
40,Балканская улица,403870,50.1218847,45.4424006
1,Балканская улица,403870,50.1202804,45.4482618
3,Балканская улица,403870,50.1203792,45.4477934
5,Балканская улица,403870,50.1204483,45.4475192
7,Балканская улица,403870,50.1205115,45.4471742
9,Балканская улица,403870,50.1205827,45.4468938
11,Балканская улица,403870,50.1206340,45.4466010
13,Балканская улица,403870,50.1206933,45.4462930
15,Балканская улица,403870,50.1207486,45.4459971
17,Балканская улица,403870,50.1208158,45.4457014
19,Балканская улица,403870,50.1208968,45.4454211
21,Балканская улица,403870,50.1209481,45.4450451
23,Балканская улица,403870,50.1210568,45.4445584
25,Балканская улица,403870,50.1211169,45.4442375
27,Балканская улица,403870,50.1211691,45.4439579
29,Балканская улица,403870,50.1212394,45.4436925
31,Балканская улица,403870,50.1212961,45.4433844
33,Балканская улица,403870,50.1213619,45.4430907
35,Балканская улица,403870,50.1214209,45.4427970
37,Балканская улица,403870,50.1214777,45.4425528
39,Балканская улица,403870,50.1215480,45.4422130
2,Осетинская улица,403870,50.1199954,45.4481131
4,Осетинская улица,403870,50.1201134,45.4476532
6,Осетинская улица,403870,50.1201815,45.4473629
8,Осетинская улица,403870,50.1202450,45.4470443
10,Осетинская улица,403870,50.1202949,45.4467825
12,Осетинская улица,403870,50.1203630,45.4464497
14,Осетинская улица,403870,50.1204220,45.4461524
16,Осетинская улица,403870,50.1204992,45.4458482
18,Осетинская улица,403870,50.1205355,45.4455579
20,Осетинская улица,403870,50.1205945,45.4452323
1,Осетинская улица,403870,50.1197866,45.4479858
3,Осетинская улица,403870,50.1198638,45.4475186
5,Осетинская улица,403870,50.1199228,45.4472355
7,Осетинская улица,403870,50.1199908,45.4469170
9,Осетинская улица,403870,50.1200498,45.4466551
11,Осетинская улица,403870,50.1201043,45.4463295
13,Осетинская улица,403870,50.1201724,45.4460392
15,Осетинская улица,403870,50.1202268,45.4457632
17,Осетинская улица,403870,50.1203040,45.4454446
19,Осетинская улица,403870,50.1203766,45.4451262
22,Осетинская улица,403870,50.1207079,45.4448783
24,Осетинская улица,403870,50.1208032,45.4444608
26,Осетинская улица,403870,50.1208622,45.4441352
28,Осетинская улица,403870,50.1209258,45.4438449
30,Осетинская улица,403870,50.1209802,45.4435406
32,Осетинская улица,403870,50.1210574,45.4432503
34,Осетинская улица,403870,50.1211164,45.4429672
36,Осетинская улица,403870,50.1211799,45.4426203
38,Осетинская улица,403870,50.1212298,45.4423726
40,Осетинская улица,403870,50.1212934,45.4420682
39,Осетинская улица,403870,50.1210302,45.4419621
37,Осетинская улица,403870,50.1209712,45.4422452
35,Осетинская улица,403870,50.1209121,45.4425425
33,Осетинская улица,403870,50.1208486,45.4428328
31,Осетинская улица,403870,50.1208032,45.4431371
29,Осетинская улица,403870,50.1207170,45.4434344
27,Осетинская улица,403870,50.1206489,45.4437033
25,Осетинская улица,403870,50.1206398,45.4440573
23,Осетинская улица,403870,50.1205218,45.4443334
21,Осетинская улица,403870,50.1204401,45.4447509
2,Кабардинская улица,403870,50.1195320,45.4478192
4,Кабардинская улица,403870,50.1196137,45.4474086
6,Кабардинская улица,403870,50.1196726,45.4470972
8,Кабардинская улица,403870,50.1197407,45.4467858
10,Кабардинская улица,403870,50.1198043,45.4464885
12,Кабардинская улица,403870,50.1198542,45.4461983
14,Кабардинская улица,403870,50.1199268,45.4459010
16,Кабардинская улица,403870,50.1199858,45.4456390
18,Кабардинская улица,403870,50.1200403,45.4453489
20,Кабардинская улица,403870,50.1201220,45.4450019
1,Кабардинская улица,403870,50.1193005,45.4476989
3,Кабардинская улица,403870,50.1193731,45.4472884
5,Кабардинская улица,403870,50.1194321,45.4469768
7,Кабардинская улица,403870,50.1194820,45.4466795
9,Кабардинская улица,403870,50.1195501,45.4463611
11,Кабардинская улица,403870,50.1196137,45.4460780
13,Кабардинская улица,403870,50.1196636,45.4457876
15,Кабардинская улица,403870,50.1197362,45.4455187
17,Кабардинская улица,403870,50.1197997,45.4451932
19,Кабардинская улица,403870,50.1198678,45.4449241
22,Кабардинская улица,403870,50.1201946,45.4446268
24,Кабардинская улица,403870,50.1202899,45.4442021
26,Кабардинская улица,403870,50.1203534,45.4438552
28,Кабардинская улица,403870,50.1204023,45.4435844
30,Кабардинская улица,403870,50.1204780,45.4432946
32,Кабардинская улица,403870,50.1205365,45.4429566
34,Кабардинская улица,403870,50.1205984,45.4426938
36,Кабардинская улица,403870,50.1206569,45.4424257
38,Кабардинская улица,403870,50.1207153,45.4421251
40,Кабардинская улица,403870,50.1207704,45.4418086
39,Кабардинская улица,403870,50.1205227,45.4416800
37,Кабардинская улица,403870,50.1204539,45.4419964
35,Кабардинская улица,403870,50.1203920,45.4422594
33,Кабардинская улица,403870,50.1203542,45.4425704
31,Кабардинская улица,403870,50.1202751,45.4428762
29,Кабардинская улица,403870,50.1202166,45.4431819
27,Кабардинская улица,403870,50.1201547,45.4434663
25,Кабардинская улица,403870,50.1200997,45.4437506
23,Кабардинская улица,403870,50.1200240,45.4440618
21,Кабардинская улица,403870,50.1199449,45.4445284
2,Витебская улица,403870,50.1190141,45.4475583
4,Витебская улица,403870,50.1191184,45.4471598
6,Витебская улица,403870,50.1191757,45.4468591
8,Витебская улица,403870,50.1192383,45.4465338
10,Витебская улица,403870,50.1192956,45.4462166
12,Витебская улица,403870,50.1193686,45.4459158
14,Витебская улица,403870,50.1194312,45.4456231
16,Витебская улица,403870,50.1194833,45.4453467
18,Витебская улица,403870,50.1195250,45.4450864
20,Витебская улица,403870,50.1196032,45.4447368
22,Витебская улица,403870,50.1196729,45.4443445
24,Витебская улица,403870,50.1197638,45.4439194
26,Витебская улица,403870,50.1198389,45.4436358
28,Витебская улица,403870,50.1198863,45.4433278
30,Витебская улица,403870,50.1199613,45.4430567
32,Витебская улица,403870,50.1200206,45.4427486
34,Витебская улица,403870,50.1200878,45.4424465
36,Витебская улица,403870,50.1201391,45.4421385
38,Витебская улица,403870,50.1202142,45.4418551
40,Витебская улица,403870,50.1202577,45.4415839
63,Витебская улица,403870,50.1200246,45.4414237
61,Витебская улица,403870,50.1199534,45.4417380
59,Витебская улица,403870,50.1199021,45.4420706
57,Витебская улица,403870,50.1198428,45.4423418
55,Витебская улица,403870,50.1197836,45.4426315
53,Витебская улица,403870,50.1197085,45.4429703
51,Витебская улица,403870,50.1196492,45.4432477
49,Витебская улица,403870,50.1195781,45.4435311
47,Витебская улица,403870,50.1195149,45.4438269
45,Витебская улица,403870,50.1194359,45.4442335
43,Витебская улица,403870,50.1193568,45.4446588
41,Витебская улица,403870,50.1192897,45.4449731
39,Витебская улица,403870,50.1192185,45.4452442
37,Витебская улица,403870,50.1191672,45.4455277
35,Витебская улица,403870,50.1191079,45.4458234
33,Витебская улица,403870,50.1190328,45.4461192
31,Витебская улица,403870,50.1189894,45.4464026
29,Витебская улица,403870,50.1189222,45.4467415
27,Витебская улица,403870,50.1188590,45.4470436
25,Витебская улица,403870,50.1187800,45.4474379
26,Восточная улица,403870,50.1185013,45.4473232
28,Восточная улица,403870,50.1185791,45.4468936
30,Восточная улица,403870,50.1186450,45.4466271
32,Восточная улица,403870,50.1187049,45.4462937
34,Восточная улица,403870,50.1187805,45.4460010
36,Восточная улица,403870,50.1188300,45.4457204
38,Восточная улица,403870,50.1188978,45.4454238
40,Восточная улица,403870,50.1189526,45.4451270
42,Восточная улица,403870,50.1189995,45.4448383
44,Восточная улица,403870,50.1190855,45.4445089
46,Восточная улица,403870,50.1191637,45.4441187
48,Восточная улица,403870,50.1192393,45.4436878
50,Восточная улица,403870,50.1193018,45.4433788
52,Восточная улица,403870,50.1193592,45.4430902
54,Восточная улица,403870,50.1194348,45.4428097
56,Восточная улица,403870,50.1195052,45.4424966
58,Восточная улица,403870,50.1195495,45.4421957
60,Восточная улица,403870,50.1196303,45.4418826
62,Восточная улица,403870,50.1196929,45.4415778
64,Восточная улица,403870,50.1197450,45.4412851
75,Восточная улица,403870,50.1194192,45.4411388
73,Восточная улица,403870,50.1193384,45.4415046
71,Восточная улица,403870,50.1192914,45.4417201
69,Восточная улица,403870,50.1192080,45.4421063
67,Восточная улица,403870,50.1191637,45.4423339
65,Восточная улица,403870,50.1191038,45.4426918
63,Восточная улица,403870,50.1190594,45.4429113
61,Восточная улица,403870,50.1189760,45.4432812
59,Восточная улица,403870,50.1189317,45.4434967
57,Восточная улица,403870,50.1187779,45.4438747
55,Восточная улица,403870,50.1187675,45.4443383
53,Восточная улица,403870,50.1187049,45.4446351
51,Восточная улица,403870,50.1186006,45.4450415
49,Восточная улица,403870,50.1185511,45.4452692
47,Восточная улица,403870,50.1184911,45.4456596
45,Восточная улица,403870,50.1184573,45.4458628
43,Восточная улица,403870,50.1183869,45.4461881
41,Восточная улица,403870,50.1183139,45.4464441
39,Восточная улица,403870,50.1182539,45.4467531
37,Восточная улица,403870,50.1181601,45.4471312
36,Донская улица,403870,50.1179170,45.4468722
38,Донская улица,403870,50.1180167,45.4463894
40,Донская улица,403870,50.1180752,45.4461211
42,Донская улица,403870,50.1181681,45.4457295
44,Донская улица,403870,50.1182128,45.4454988
46,Донская улица,403870,50.1182644,45.4451126
48,Донская улица,403870,50.1183332,45.4448926
50,Донская улица,403870,50.1184123,45.4445439
52,Донская улица,403870,50.1184880,45.4441846
54,Донская улица,403870,50.1185568,45.4437286
56,Донская улица,403870,50.1186290,45.4433102
58,Донская улица,403870,50.1186840,45.4431010
60,Донская улица,403870,50.1187666,45.4427684
62,Донская улица,403870,50.1188148,45.4424948
64,Донская улица,403870,50.1188664,45.4421676
66,Донская улица,403870,50.1189283,45.4419208
68,Донская улица,403870,50.1190280,45.4416204
70,Донская улица,403870,50.1190521,45.4413950
72,Донская улица,403870,50.1191415,45.4409766
25,Кубанская улица,403870,50.1156036,45.4377740
23,Кубанская улица,403870,50.1155141,45.4380868
21,Кубанская улица,403870,50.1154982,45.4382471
19,Кубанская улица,403870,50.1154508,45.4384689
17,Кубанская улица,403870,50.1154034,45.4386537
15,Кубанская улица,403870,50.1153441,45.4388941
13,Кубанская улица,403870,50.1152414,45.4394117
11,Кубанская улица,403870,50.1151900,45.4396951
9,Кубанская улица,403870,50.1151466,45.4399540
7,Кубанская улица,403870,50.1151062,45.4403358
20,Балтийская улица,403870,50.1153020,45.4376338
18,Балтийская улица,403870,50.1152527,45.4379048
16,Балтийская улица,403870,50.1151986,45.4381581
14,Балтийская улица,403870,50.1151265,45.4384122
12,Балтийская улица,403870,50.1150741,45.4386820
10,Балтийская улица,403870,50.1150240,45.4389427
8,Балтийская улица,403870,50.1149731,45.4392110
6,Балтийская улица,403870,50.1149115,45.4394996
4,Балтийская улица,403870,50.1148483,45.4397750
2,Балтийская улица,403870,50.1147702,45.4402055
19,Балтийская улица,403870,50.1150985,45.4375292
17,Балтийская улица,403870,50.1150326,45.4377943
20,Днепровская улица,403870,50.1147551,45.4373747
18,Днепровская улица,403870,50.1146932,45.4376434
16,Днепровская улица,403870,50.1146758,45.4379474
10,Днепровская улица,403870,50.1144898,45.4386767
8,Днепровская улица,403870,50.1144461,45.4389775
6,Днепровская улица,403870,50.1143855,45.4392276
4,Днепровская улица,403870,50.1143364,45.4394864
2,Днепровская улица,403870,50.1142392,45.4399293
14,Днепровская улица,403870,50.1145954,45.4381430
12,Днепровская улица,403870,50.1145363,45.4384088
19,Днепровская улица,403870,50.1144259,45.4372191
17,Днепровская улица,403870,50.1144938,45.4375222
15,Днепровская улица,403870,50.1144381,45.4378221
13,Днепровская улица,403870,50.1143914,45.4380391
11,Днепровская улица,403870,50.1143268,45.4383171
9,Днепровская улица,403870,50.1142788,45.4385940
7,Днепровская улица,403870,50.1141588,45.4389205
5,Днепровская улица,403870,50.1141705,45.4391068
3,Днепровская улица,403870,50.1141098,45.4393713
1,Днепровская улица,403870,50.1140291,45.4398003
20,Черноморская улица,403870,50.1142529,45.4372903
18,Черноморская улица,403870,50.1141655,45.4374096
16,Черноморская улица,403870,50.1141070,45.4377066
14,Кубанская улица,403870,50.1140592,45.4378904
12,Черноморская улица,403870,50.1140017,45.4381656
10,Черноморская улица,403870,50.1139599,45.4384333
8,Черноморская улица,403870,50.1138965,45.4386859
6,Черноморская улица,403870,50.1138330,45.4389486
4,Черноморская улица,403870,50.1137876,45.4392430
2,Черноморская улица,403870,50.1136905,45.4396507
19,Черноморская улица,403870,50.1140002,45.4369847
17,Черноморская улица,403870,50.1139563,45.4372613
15,Черноморская улица,403870,50.1139173,45.4375126
13,Черноморская улица,403870,50.1138533,45.4378119
11,Черноморская улица,403870,50.1137960,45.4380404
9,Черноморская улица,403870,50.1137435,45.4383174
7,Черноморская улица,403870,50.1136960,45.4385786
5,Черноморская улица,403870,50.1136117,45.4388776
3,Черноморская улица,403870,50.1135636,45.4391342
1,Черноморская улица,403870,50.1134845,45.4395582
20,Азовская улица,403870,50.1136736,45.4368200
16,Азовская улица,403870,50.1136210,45.4370919
14,Азовская улица,403870,50.1135568,45.4373969
12,Азовская улица,403870,50.1135239,45.4376200
10,Азовская улица,403870,50.1134552,45.4378605
8,Азовская улица,403870,50.1133960,45.4381697
6,Азовская улица,403870,50.1133703,45.4384173
6А,Азовская улица,403870,50.1132996,45.4387107
4,Азовская улица,403870,50.1132589,45.4389659
2,Азовская улица,403870,50.1131559,45.4393510
23,Азовская улица,403870,50.1134822,45.4366339
21,Азовская улица,403870,50.1134318,45.4368875
15,Азовская улица,403870,50.1133440,45.4372788
13,Азовская улица,403870,50.1133056,45.4375242
11,Азовская улица,403870,50.1132341,45.4378050
9,Азовская улица,403870,50.1131948,45.4380565
7,Азовская улица,403870,50.1131502,45.4383246
5,Азовская улица,403870,50.1130771,45.4386751
3,Азовская улица,403870,50.1129921,45.4390315
1,Азовская улица,403870,50.1129655,45.4392849
21,Днепровская улица,403870,50.1146334,45.4368915
22,Черноморская улица,403870,50.1142986,45.4366711
21,Черноморская улица,403870,50.1140891,45.4366254
22,Азовская улица,403870,50.1137386,45.4364474
24,Азовская улица,403870,50.1138095,45.4361352
23,Черноморская улица,403870,50.1141812,45.4361944
25,Азовская улица,403870,50.1134168,45.4362688
23,Днепровская улица,403870,50.1145927,45.4362886
25,Днепровская улица,403870,50.1144952,45.4359745
29,Днепровская улица,403870,50.1144015,45.4351544
22,Днепровская улица,403870,50.1148469,45.4369765
24,Днепровская улица,403870,50.1148673,45.4365350
26,Днепровская улица,403870,50.1148182,45.4361656
32,Днепровская улица,403870,50.1146578,45.4352818
30,Днепровская улица,403870,50.1147034,45.4356198
27,Днепровская улица,403870,50.1144525,45.4356739
28,Днепровская улица,403870,50.1147321,45.4358571
27,Кубанская улица,403870,50.1157027,45.4374093
29,Кубанская улица,403870,50.1158142,45.4369339
31,Кубанская улица,403870,50.1158433,45.4366242
33,Кубанская улица,403870,50.1157919,45.4363010
35,Кубанская улица,403870,50.1157411,45.4360480
37,Кубанская улица,403870,50.1156949,45.4357958
39,Кубанская улица,403870,50.1156555,45.4354749
41,Кубанская улица,403870,50.1156120,45.4352507
43,Кубанская улица,403870,50.1155466,45.4349426
22,Балтийская улица,403870,50.1153839,45.4372532
24,Балтийская улица,403870,50.1154718,45.4367480
26,Балтийская улица,403870,50.1154563,45.4364770
28,Балтийская улица,403870,50.1154097,45.4361672
30,Балтийская улица,403870,50.1153546,45.4358842
32,Балтийская улица,403870,50.1153193,45.4356054
34,Балтийская улица,403870,50.1152887,45.4353991
36,Балтийская улица,403870,50.1152297,45.4350652
21,Балтийская улица,403870,50.1151572,45.4371501
23,Балтийская улица,403870,50.1152218,45.4365999
25,Балтийская улица,403870,50.1151963,45.4363086
27,Балтийская улица,403870,50.1151581,45.4359935
29,Балтийская улица,403870,50.1151106,45.4356997
31,Балтийская улица,403870,50.1150620,45.4354766
15,Балтийская улица,403870,50.1149841,45.4380497
13,Балтийская улица,403870,50.1149329,45.4383136
11,Балтийская улица,403870,50.1148549,45.4385773
9,Балтийская улица,403870,50.1148228,45.4388534
7,Балтийская улица,403870,50.1147683,45.4391165
5,Балтийская улица,403870,50.1147161,45.4393834
3,Балтийская улица,403870,50.1146600,45.4396472
1,Балтийская улица,403870,50.1145523,45.4400913
92,Донская улица,403870,50.1197784,45.4373913
92А,Донская улица,403870,50.1199802,45.4376550
96,Донская улица,403870,50.1196982,45.4368648
100,Донская улица,403870,50.1195860,45.4362690
104,Донская улица,403870,50.1195008,45.4356849
106,Донская улица,403870,50.1194366,45.4352873
108,Донская улица,403870,50.1194030,45.4350785
112,Донская улица,403870,50.1193045,45.4344866
116,Донская улица,403870,50.1192083,45.4338971
114,Донская улица,403870,50.1192468,45.4340976
1,Вятская улица,403870,50.1187005,45.4327639
3,Вятская улица,403870,50.1184943,45.4328447
5,Вятская улица,403870,50.1183086,45.4329001
7,Вятская улица,403870,50.1181169,45.4329513
9,Вятская улица,403870,50.1179358,45.4330558
11,Вятская улица,403870,50.1177532,45.4331234
13,Вятская улица,403870,50.1175679,45.4331997
15,Вятская улица,403870,50.1173799,45.4332560
17,Вятская улица,403870,50.1171993,45.4333266
19,Вятская улица,403870,50.1170077,45.4333987
21,Вятская улица,403870,50.1168349,45.4334413
23,Вятская улица,403870,50.1166624,45.4335251
25,Вятская улица,403870,50.1164793,45.4335952
33,Вятская улица,403870,50.1156538,45.4339207
31,Вятская улица,403870,50.1159442,45.4338437
29,Вятская улица,403870,50.1161376,45.4337374
27,Вятская улица,403870,50.1163193,45.4336896
14,Вятская улица,403870,50.1171205,45.4317959
16,Вятская улица,403870,50.1169038,45.4317020
18,Вятская улица,403870,50.1167427,45.4316434
20,Вятская улица,403870,50.1165611,45.4315868
22,Вятская улица,403870,50.1163667,45.4315144
24,Вятская улица,403870,50.1161890,45.4314605
12,Вятская улица,403870,50.1173239,45.4318411
10,Вятская улица,403870,50.1175140,45.4319205
8,Вятская улица,403870,50.1176892,45.4319905
6,Вятская улица,403870,50.1178942,45.4320606
4,Вятская улица,403870,50.1180695,45.4321259
2,Вятская улица,403870,50.1182416,45.4321913
98,Кубанская улица,403870,50.1154541,45.4312434
10А,Вятская улица,403870,50.1179411,45.4324845
12А,Вятская улица,403870,50.1175650,45.4323909
14А,Вятская улица,403870,50.1173994,45.4323002
26,Вятская улица,403870,50.1159870,45.4313832
28,Вятская улица,403870,50.1158134,45.4313178
5,Байкальская улица,403870,50.1182450,45.4312990
7,Байкальская улица,403870,50.1180313,45.4312297
9,Байкальская улица,403870,50.1177998,45.4311553
13,Байкальская улица,403870,50.1171616,45.4309204
11,Байкальская улица,403870,50.1175683,45.4310881
15,Байкальская улица,403870,50.1169478,45.4308646
17,Байкальская улица,403870,50.1167277,45.4307924
19,Байкальская улица,403870,50.1165041,45.4307326
21,Байкальская улица,403870,50.1163081,45.4306809
23,Байкальская улица,403870,50.1160502,45.4306035
25,Байкальская улица,403870,50.1158451,45.4305170
3,Байкальская улица,403870,50.1183986,45.4313456
102,Кубанская улица,403870,50.1155680,45.4304238
117,Донская улица,403870,50.1185914,45.4313386
2,Байкальская улица,403870,50.1185350,45.4317874
4,Байкальская улица,403870,50.1181928,45.4317129
6,Байкальская улица,403870,50.1180106,45.4316699
8,Байкальская улица,403870,50.1178180,45.4316109
10,Байкальская улица,403870,50.1176391,45.4315412
12,Байкальская улица,403870,50.1174778,45.4314983
14,Байкальская улица,403870,50.1173124,45.4314411
16,Байкальская улица,403870,50.1171449,45.4313942
18,Байкальская улица,403870,50.1169786,45.4313212
20,Байкальская улица,403870,50.1168136,45.4312783
22,Байкальская улица,403870,50.1166243,45.4312086
24,Байкальская улица,403870,50.1164317,45.4311603
26,Байкальская улица,403870,50.1162460,45.4310852
28,Байкальская улица,403870,50.1160808,45.4310476
30,Байкальская улица,403870,50.1159019,45.4310102
32,Байкальская улица,403870,50.1156922,45.4309511
100,Кубанская улица,403870,50.1155064,45.4308653
81,улица Калинина,403873,50.0757618,45.4032869
20,улица Давыдова,403873,50.0753929,45.4040879
61,Минская улица,403870,50.1117763,45.4391294
59,Минская улица,403870,50.1120329,45.4392069
57,Минская улица,403870,50.1122007,45.4393152
55,Минская улица,403870,50.1123881,45.4393879
53,Минская улица,403870,50.1125495,45.4394980
51,Минская улица,403870,50.1127255,45.4395631
49,Минская улица,403870,50.1128835,45.4396806
22,Тульская улица,403870,50.1127765,45.4402090
24,Тульская улица,403870,50.1126069,45.4401266
26,Тульская улица,403870,50.1123206,45.4399597
30,Тульская улица,403870,50.1120894,45.4398596
32,Тульская улица,403870,50.1119216,45.4397760
34,Тульская улица,403870,50.1117019,45.4396243
36,Тульская улица,403870,50.1115369,45.4395715
23,Тульская улица,403870,50.1116442,45.4400600
21,Тульская улица,403870,50.1118741,45.4401046
19,Тульская улица,403870,50.1121428,45.4402416
17,Тульская улица,403870,50.1123151,45.4403367
15,Тульская улица,403870,50.1125091,45.4404512
13,Тульская улица,403870,50.1127004,45.4405426
44,Казанская улица,403870,50.1126047,45.4410687
46,Казанская улица,403870,50.1124120,45.4409828
48,Казанская улица,403870,50.1122370,45.4408885
50,Казанская улица,403870,50.1120215,45.4407932
52,Казанская улица,403870,50.1118310,45.4406901
54,Казанская улица,403870,50.1116291,45.4405874
49,Казанская улица,403888,50.1115199,45.4409677
47,Казанская улица,403888,50.1117883,45.4410785
45,Казанская улица,403888,50.1120323,45.4411863
43,Азовская улица,403888,50.1122553,45.4412994
41,Казанская улица,403888,50.1125085,45.4414244
47,Минская улица,403870,50.1130886,45.4397930
45,Минская улица,403870,50.1133808,45.4399181
43,Минская улица,403870,50.1135704,45.4400062
41,Минская улица,403870,50.1137564,45.4401184
39,Минская улица,403870,50.1139518,45.4401920
12,Тульская улица,403870,50.1138430,45.4407548
14,Тульская улица,403870,50.1136492,45.4406351
16,Тульская улица,403870,50.1134670,45.4405598
18,Тульская улица,403870,50.1132796,45.4404672
20,Тульская улица,403870,50.1129618,45.4402861
11,Тульская улица,403870,50.1128898,45.4406306
42,Казанская улица,403870,50.1128340,45.4409639
9,Тульская улица,403870,50.1132030,45.4407893
40,Казанская улица,403870,50.1130876,45.4413245
38,Казанская улица,403870,50.1132893,45.4414269
7,Тульская улица,403870,50.1133845,45.4408945
5,Тульская улица,403870,50.1135702,45.4409862
36,Казанская улица,403870,50.1134762,45.4415064
34,Казанская улица,403870,50.1136630,45.4416258
3,Тульская улица,403870,50.1137674,45.4410891
39,Казанская улица,403870,50.1129060,45.4416258
37,Казанская улица,403870,50.1131919,45.4417880
35,Казанская улица,403870,50.1133155,45.4418270
32Б,Казанская улица,403870,50.1139845,45.4426579
32,Казанская улица,403870,50.1138648,45.4417469
1,Тульская улица,403870,50.1139846,45.4411820
10,Тульская улица,403870,50.1140287,45.4408361
37,Минская улица,403870,50.1141500,45.4403030
35,Минская улица,403870,50.1144679,45.4404436
8,Тульская улица,403870,50.1143517,45.4409893
33,Минская улица,403870,50.1146502,45.4405436
31,Минская улица,403870,50.1148422,45.4406363
4,Тульская улица,403870,50.1147316,45.4411712
6,Тульская улица,403870,50.1145458,45.4410784
5,Кубанская улица,403870,50.1150128,45.4407300
2,Тульская улица,403870,50.1148934,45.4412613
58,Кубанская улица,403870,50.1152790,45.4408453
56,Кубанская улица,403870,50.1152149,45.4412267
60,Кубанская улица,403870,50.1153814,45.4404951
62,Кубанская улица,403870,50.1154509,45.4401139
66,Кубанская улица,403870,50.1155240,45.4396972
68,Кубанская улица,403870,50.1156052,45.4394078
26,Минская улица,403870,50.1157340,45.4406465
33,"Минская улица, 1-й проезд",403870,50.1158104,45.4401848
27,Ярославская улица,403870,50.1159417,45.4396106
31,"Минская улица, 1-й проезд",403870,50.1159546,45.4399734
29,"Минская улица, 1-й проезд",403870,50.1161228,45.4400399
25,Ярославская улица,403870,50.1161572,45.4396812
22,"Минская улица, 1-й проезд",403870,50.1159994,45.4403338
24,Минская улица,403870,50.1159102,45.4407446
22,Минская улица,403870,50.1162133,45.4408650
20,Минская улица,403870,50.1164316,45.4409854
18,"Минская улица, 1-й проезд",403870,50.1165044,45.4406042
20,"Минская улица, 1-й проезд",403870,50.1162916,45.4404763
2Б,улица Воинов-Интернационалистов,403876,50.0933543,45.3748233
147,улица Гагарина,403895,50.0720575,45.3856208
151,улица Гагарина,403895,50.0706571,45.3865495
1А,Южная улица,403895,50.0625438,45.3935553
11,Южная улица,403895,50.0626325,45.3914919
9,Южная улица,403895,50.0626073,45.3919158
7,Южная улица,403895,50.0625986,45.3920948
5,Южная улица,403895,50.0625783,45.3924480
3,Южная улица,403895,50.0625701,45.3927269
1,Южная улица,403895,50.0625379,45.3931105
10,Южный переулок,403895,50.0616219,45.3923932
8,Южный переулок,403895,50.0618200,45.3924166
6,Южный переулок,403895,50.0619837,45.3924434
4,Южный переулок,403895,50.0621615,45.3924557
2,Южный переулок,403895,50.0623519,45.3924799
1,Южный переулок,403895,50.0622282,45.3928667
5,Южный переулок,403895,50.0618372,45.3928168
7,Южный переулок,403895,50.0616542,45.3928179
9,Южный переулок,403895,50.0614438,45.3927965
11,Южный переулок,403895,50.0613055,45.3927708
4Б,улица Будённого,403873,50.0762443,45.4050806
4А,улица Будённого,403873,50.0761162,45.4044085
75,улица Калинина,403873,50.0762925,45.4039618
77,улица Калинина,403873,50.0760055,45.4039434
79,улица Калинина,403873,50.0759642,45.4035494
6,улица Будённого,403873,50.0757715,45.4045225
8,улица Будённого,403873,50.0755910,45.4043331
22,улица Давыдова,403873,50.0755527,45.4038811
24,улица Давыдова,403873,50.0756626,45.4035256
73,улица Калинина,403873,50.0765756,45.4042971
71,улица Калинина,403873,50.0768228,45.4047269
24/1,улица Давыдова,403873,50.0755912,45.4036711
11А,Металлургов улица,403892,50.0898937,45.3849008
69,Пролетарская улица,403893,50.0800448,45.4037823
113,улица Базарова,403876,50.0909979,45.3725656
