House number,Street name,Postal code,Latitude,Longitude
1Б,улица Горького,404122,48.8135810,44.7341860
2Б,Проспект Ленина,404130,48.8183537,44.7179041
31А,Оломоуцкая улица,404131,48.7671511,44.8095652
39,улица Энгельса,404121,48.7898310,44.7670475
22,проспект Ленина,404130,48.8043317,44.7378863
5,Набережная улица,404130,48.8071227,44.7309070
9А,бульвар Профсоюзов,404102,48.7789154,44.7781258
159,улица Мира,404101,48.7536614,44.8283195
10,улица Энгельса,404120,48.7871526,44.7578202
6,Фонтанная улица,404130,48.8043058,44.7365185
20,улица Кирова,404122,48.8090806,44.7522395
26,улица Дружбы,404127,48.7729566,44.7892277
10,Фонтанная улица,404130,48.8036653,44.7351896
8А,улица Карбышева,404110,48.7976503,44.7551855
97,проспект Ленина,404120,48.7825258,44.7544277
138,Оломоуцкая улица,404133,48.7574812,44.7975567
5А,улица Карбышева,404121,48.7969513,44.7569427
38А,Гидростроевская улица,404113,48.7937414,44.6886023
31,улица Хользунова,404106,48.7687567,44.7812408
12,Советская улица,404120,48.7865909,44.7562790
23А,улица Логинова,404130,48.8075867,44.7319260
12,улица Карла Маркса,404130,48.8050364,44.7458094
10,улица Энгельса,404120,48.7874146,44.7589966
10,улица Энгельса,404120,48.7873178,44.7585329
10,улица Энгельса,404120,48.7870580,44.7573734
19,проспект Ленина,404130,48.8053871,44.7376271
64,улица Карбышева,404120,48.7829026,44.7653746
18,улица Химиков,404104,48.7865606,44.7810566
72А,улица Волжской Военной Флотилии,404101,48.7547112,44.8249474
159,улица Мира,404101,48.7535853,44.8282938
144,улица Мира,404118,48.7558927,44.8200764
23В,улица Логинова,404130,48.8076515,44.7313271
6,Фонтанная улица,404130,48.8041136,44.7360508
2,проспект Ленина,404130,48.8092162,44.7318820
2,проспект Ленина,404130,48.8091314,44.7317256
2,проспект Ленина,404130,48.8090909,44.7323385
2,проспект Ленина,404130,48.8091820,44.7318282
2,проспект Ленина,404130,48.8092537,44.7319444
2,проспект Ленина,404130,48.8092533,44.7320976
2,проспект Ленина,404130,48.8091569,44.7317771
2,проспект Ленина,404130,48.8092699,44.7321745
2,проспект Ленина,404130,48.8091195,44.7317904
2,проспект Ленина,404130,48.8091949,44.7322363
2,проспект Ленина,404130,48.8091468,44.7323181
23В,улица Логинова,404130,48.8079910,44.7308159
23В,улица Логинова,404130,48.8080330,44.7308426
23В,улица Логинова,404130,48.8079720,44.7309265
23В,улица Логинова,404130,48.8079147,44.7308846
23В,улица Логинова,404130,48.8078651,44.7309380
23В,улица Логинова,404130,48.8079224,44.7310219
23В,улица Логинова,404130,48.8077965,44.7310104
23В,улица Логинова,404130,48.8078499,44.7310600
23В,улица Логинова,404130,48.8077278,44.7310715
23В,улица Логинова,404130,48.8077888,44.7311401
23В,улица Логинова,404130,48.8076630,44.7311707
23В,улица Логинова,404130,48.8077202,44.7312431
23В,улица Логинова,404130,48.8075897,44.7312733
23В,улица Логинова,404130,48.8075026,44.7313213
23В,улица Логинова,404130,48.8075638,44.7314072
23В,улица Логинова,404130,48.8074588,44.7314750
4А,улица Чайковского,404130,48.8074722,44.7319489
13,Набережная улица,404130,48.8056433,44.7313580
8,проспект Ленина,404130,48.8077084,44.7341347
10,проспект Ленина,404130,48.8069825,44.7347921
10,проспект Ленина,404130,48.8069069,44.7348825
20В,проспект Ленина,404130,48.8048223,44.7372371
20В,проспект Ленина,404130,48.8048137,44.7373446
2,Фонтанная улица,404130,48.8045054,44.7368004
20В,проспект Ленина,404130,48.8048500,44.7373062
20В,проспект Ленина,404130,48.8048334,44.7373101
6,Фонтанная улица,404130,48.8042013,44.7363220
17А,улица Чайковского,404130,48.8032343,44.7357213
5,Фонтанная улица,404130,48.8036660,44.7366180
22,проспект Ленина,404130,48.8042392,44.7376858
22,проспект Ленина,404130,48.8042131,44.7377452
22,проспект Ленина,404130,48.8043092,44.7379343
22,проспект Ленина,404130,48.8042830,44.7379050
3,Московская улица,404130,48.8022865,44.7396872
3,Московская улица,404130,48.8023811,44.7396958
3,Московская улица,404130,48.8024015,44.7397329
3,Московская улица,404130,48.8022678,44.7397470
3,Московская улица,404130,48.8023908,44.7395839
3,Московская улица,404130,48.8022986,44.7397614
3,Московская улица,404130,48.8022513,44.7396954
30,проспект Ленина,404130,48.8018204,44.7407177
2,Набережная улица,404130,48.7991307,44.7372665
44А,проспект Ленина,404110,48.7986612,44.7443684
41/43,проспект Ленина,404130,48.8001009,44.7435520
25,проспект Ленина,404130,48.8031121,44.7401901
25,проспект Ленина,404130,48.8030530,44.7402800
21,проспект Ленина,404130,48.8045958,44.7391408
21,проспект Ленина,404130,48.8046653,44.7393170
21,проспект Ленина,404130,48.8046354,44.7392334
23,проспект Ленина,404130,48.8038764,44.7392962
13,улица Циолковского,404130,48.8063356,44.7374577
19,проспект Ленина,404130,48.8054994,44.7382493
11,проспект Ленина,404130,48.8068167,44.7359542
11,проспект Ленина,404130,48.8067608,44.7360207
11,проспект Ленина,404130,48.8066851,44.7361162
14,Оломоуцкая улица,404133,48.7573845,44.7957595
30,улица Горького,404130,48.8097510,44.7439863
25,улица Карла Маркса,404130,48.8071189,44.7404715
25,улица Карла Маркса,404130,48.8070905,44.7405624
1,улица Карла Маркса,404130,48.8091225,44.7340966
3,проспект Ленина,404130,48.8092703,44.7333637
3,проспект Ленина,404130,48.8093151,44.7333100
1,проспект Ленина,404130,48.8097893,44.7334117
1,проспект Ленина,404130,48.8097417,44.7334802
1,проспект Ленина,404130,48.8097496,44.7334102
1А,улица Горького,404122,48.8132095,44.7349434
2Д,улица имени Ф.Г. Логинова,404122,48.8131371,44.7348061
6,улица Куйбышева,404130,48.8106600,44.7384775
7,улица 19-го Партсъезда,404130,48.8108488,44.7362292
5,улица 19-го Партсъезда,404130,48.8105848,44.7359940
13,улица 19-го Партсъезда,404130,48.8105589,44.7375531
3,улица имени Ф.Г. Логинова,404130,48.8119482,44.7356023
5,улица имени Ф.Г. Логинова,404130,48.8116022,44.7353752
4,улица Горького,404130,48.8121183,44.7364961
4,улица Горького,404130,48.8120831,44.7366235
4,улица Горького,404130,48.8120662,44.7364589
4,улица Горького,404130,48.8120299,44.7366309
10,улица Горького,404130,48.8117305,44.7378380
11Б,улица Горького,404122,48.8110279,44.7425765
11В,улица Горького,404122,48.8104556,44.7444327
13Б,улица Горького,404122,48.8097951,44.7466945
19,улица Горького,404122,48.8095954,44.7493680
2,Коммунистическая улица,404122,48.8082202,44.7523046
2,Коммунистическая улица,404122,48.8085732,44.7525577
25,улица Горького,404122,48.8082135,44.7513143
25,улица Горького,404122,48.8081873,44.7513998
25,улица Горького,404122,48.8081331,44.7515969
25,улица Горького,404122,48.8082394,44.7512303
25,улица Горького,404122,48.8083153,44.7510039
25,улица Горького,404122,48.8081123,44.7516903
19Г,улица Кирова,404122,48.8096338,44.7530884
2,Коммунистическая улица,404122,48.8087313,44.7526643
19Б,улица Кирова,404122,48.8097984,44.7525728
19Б,улица Кирова,404122,48.8098532,44.7523441
19Б,улица Кирова,404122,48.8098187,44.7524712
19Б,улица Кирова,404122,48.8098852,44.7522141
19/1,улица Кирова,404122,48.8112614,44.7509720
17,улица Кирова,404122,48.8108630,44.7490684
17,улица Кирова,404122,48.8108197,44.7492107
17,улица Кирова,404122,48.8109067,44.7489505
11В,улица Кирова,404122,48.8122223,44.7439384
11В,улица Кирова,404122,48.8122411,44.7438953
11В,улица Кирова,404122,48.8122551,44.7438384
3В,улица Кирова,404122,48.8136338,44.7391230
3В,улица Кирова,404122,48.8136224,44.7391820
21,улица Кирова,404122,48.8094546,44.7549537
21,улица Кирова,404122,48.8092859,44.7549467
21,улица Кирова,404122,48.8093081,44.7548634
21,улица Кирова,404122,48.8091466,44.7547575
12А,улица Пушкина,404130,48.8004701,44.7531599
23,проспект Ленина,404130,48.8038238,44.7393572
28,улица Мира,404125,48.7770598,44.7960621
8,проспект Ленина,404130,48.8076388,44.7341934
146,улица Пушкина,404131,48.7721139,44.8132687
36Б,улица Мира,404127,48.7767490,44.7971164
2,улица Чайковского,404130,48.8081148,44.7327157
1Б,проспект Ленина,404130,48.8148270,44.7275088
14,улица Рихарда Зорге,404130,48.8035475,44.7409106
47А,улица Карбышева,404102,48.7775192,44.7725544
113Б,улица Дружбы,404118,48.7573371,44.8112741
8,Молодёжная улица,404111,48.7892737,44.7475544
25,улица Горького,404122,48.8081597,44.7515023
57,улица Карбышева,404102,48.7735092,44.7785056
21,улица Кирова,404122,48.8094282,44.7550424
22,улица Энгельса,404120,48.7878398,44.7610071
86А,улица Дружбы,404118,48.7551936,44.8103892
19А,улица Кирова,404122,48.8101052,44.7541694
21,улица Кирова,404122,48.8092072,44.7549104
21,улица Кирова,404122,48.8091144,44.7548439
33/1,улица Пушкина,404130,48.7998539,44.7580420
1Д/2,проспект Ленина,404122,48.8122756,44.7314370
2Б,улица имени Ф.Г. Логинова,404130,48.8115827,44.7328342
1Д,Шоссейная улица,404130,48.8070466,44.7226823
1Д,Шоссейная улица,404130,48.8070021,44.7225437
36Б,улица Мира,404127,48.7766838,44.7971912
124,улица Пушкина,404126,48.7796851,44.8053354
1,улица Карла Маркса,404130,48.8092182,44.7334352
2Б,улица имени Ф.Г. Логинова,404130,48.8114873,44.7327778
75А,улица Мира,404131,48.7703447,44.8057288
1В,улица Машиностроителей,404121,48.7895175,44.7696384
22,улица Энгельса,404120,48.7877038,44.7604391
22,улица Энгельса,404120,48.7879541,44.7615534
1д/2,проспект Ленина,404130,48.8119123,44.7311571
1д/2,проспект Ленина,404130,48.8119711,44.7312037
2Б,улица имени Ф.Г. Логинова,404130,48.8120534,44.7330839
2Б,улица имени Ф.Г. Логинова,404130,48.8113951,44.7331838
2Б,улица имени Ф.Г. Логинова,404130,48.8114729,44.7332039
2Б,улица имени Ф.Г. Логинова,404130,48.8115338,44.7332535
2Б,улица имени Ф.Г. Логинова,404130,48.8115028,44.7327344
2Б,улица имени Ф.Г. Логинова,404130,48.8115394,44.7325998
2Б,улица имени Ф.Г. Логинова,404130,48.8114160,44.7331111
2Б,улица имени Ф.Г. Логинова,404130,48.8114819,44.7333644
2Б,улица имени Ф.Г. Логинова,404130,48.8115672,44.7327786
2Б,улица имени Ф.Г. Логинова,404130,48.8116128,44.7333070
2Б,улица имени Ф.Г. Логинова,404130,48.8116709,44.7327588
2Б,улица имени Ф.Г. Логинова,404130,48.8114347,44.7330223
2Б,улица имени Ф.Г. Логинова,404130,48.8115794,44.7327294
2Б,улица имени Ф.Г. Логинова,404130,48.8116149,44.7334770
2Б,улица имени Ф.Г. Логинова,404130,48.8115093,44.7330661
2Б,улица имени Ф.Г. Логинова,404130,48.8115573,44.7328052
2Б,улица имени Ф.Г. Логинова,404130,48.8115969,44.7326699
2Б,улица имени Ф.Г. Логинова,404130,48.8114981,44.7331238
2Б,улица имени Ф.Г. Логинова,404130,48.8114608,44.7328545
1А,улица Горького,404122,48.8131218,44.7348328
2Д,улица имени Ф.Г. Логинова,404122,48.8132019,44.7350388
2Д,улица имени Ф.Г. Логинова,404122,48.8131371,44.7347603
1А,улица Горького,404122,48.8131027,44.7349663
1А,улица Горького,404122,48.8130836,44.7348785
1А,улица Горького,404122,48.8130760,44.7349205
2Д,улица имени Ф.Г. Логинова,404122,48.8132210,44.7349739
2Д,улица имени Ф.Г. Логинова,404122,48.8131561,44.7350082
2Д,улица имени Ф.Г. Логинова,404122,48.8134346,44.7348747
1А,улица Горького,404122,48.8132133,44.7347374
1А,улица Горького,404122,48.8131790,44.7349281
1А,улица Горького,404122,48.8132782,44.7347794
1А,улица Горького,404122,48.8134003,44.7348671
1А,улица Горького,404122,48.8131485,44.7347221
1А,улица Горького,404122,48.8131676,44.7346840
1А,улица Горького,404122,48.8131676,44.7349129
1А,улица Горького,404122,48.8131447,44.7349052
1А,улица Горького,404122,48.8131294,44.7348709
1А,улица Горького,404122,48.8132515,44.7350044
4Б,улица имени Ф.Г. Логинова,404122,48.8145628,44.7355054
4Б,улица имени Ф.Г. Логинова,404122,48.8145989,44.7353838
4Б,улица имени Ф.Г. Логинова,404122,48.8146303,44.7352503
10,улица Чайковского,404130,48.8057344,44.7323230
10,улица Чайковского,404130,48.8057741,44.7323952
8,улица Чайковского,404130,48.8064736,44.7327666
7,Набережная улица,404130,48.8067772,44.7316393
7,Набережная улица,404130,48.8068808,44.7315010
2,проспект Ленина,404130,48.8092694,44.7319771
23В,улица Логинова,404130,48.8074188,44.7313995
20,улица Циолковского,404130,48.8056850,44.7348895
14,проспект Ленина,404130,48.8066196,44.7353464
14,проспект Ленина,404130,48.8065058,44.7354489
10,проспект Ленина,404130,48.8070902,44.7346628
8,проспект Ленина,404130,48.8075871,44.7342623
8,проспект Ленина,404130,48.8075198,44.7343435
1,улица Чайковского,404130,48.8079302,44.7333586
6,проспект Ленина,404130,48.8078880,44.7339135
6,проспект Ленина,404130,48.8081005,44.7336817
11,проспект Ленина,404130,48.8068683,44.7359055
7,проспект Ленина,404130,48.8078507,44.7348294
5,проспект Ленина,404130,48.8085184,44.7342115
5,проспект Ленина,404130,48.8084867,44.7341818
5,проспект Ленина,404130,48.8085586,44.7342399
13,улица Карла Маркса,404130,48.8081696,44.7374512
13,улица Карла Маркса,404130,48.8081162,44.7376359
13,улица Карла Маркса,404130,48.8080613,44.7378124
1,проспект Ленина,404130,48.8095923,44.7331132
1И,улица Горького,404130,48.8156815,44.7290688
2Б,Проспект Ленина,404130,48.8184395,44.7176018
75А,улица Мира,404131,48.7703950,44.8056873
75А,улица Мира,404131,48.7703164,44.8057743
75А,улица Мира,404131,48.7702827,44.8058256
75А,улица Мира,404131,48.7702526,44.8058485
75А,улица Мира,404131,48.7702260,44.8058803
90,улица Карбышева,404127,48.7666481,44.7875200
90,улица Карбышева,404127,48.7667295,44.7874325
10,площадь Труда,404104,48.7835674,44.7810035
57,улица Карбышева,404102,48.7734796,44.7784631
57,улица Карбышева,404102,48.7734950,44.7784892
57,улица Карбышева,404102,48.7735807,44.7785478
57,улица Карбышева,404102,48.7735555,44.7785574
2,бульвар Профсоюзов,404102,48.7755225,44.7754383
16А,бульвар Профсоюзов,404102,48.7768631,44.7769775
16А,бульвар Профсоюзов,404102,48.7768173,44.7769279
16Б,бульвар Профсоюзов,404102,48.7779210,44.7782095
5А,Пионерская улица,404102,48.7744789,44.7833481
13,улица 19-го Партсъезда,404130,48.8104999,44.7375019
13,улица 19-го Партсъезда,404130,48.8104731,44.7374821
13,улица 19-го Партсъезда,404130,48.8104500,44.7374568
13,улица 19-го Партсъезда,404130,48.8105391,44.7375353
13,улица 19-го Партсъезда,404130,48.8105305,44.7375191
4,улица Горького,404130,48.8121007,44.7365654
4,улица Горького,404130,48.8120268,44.7365731
10,улица Горького,404130,48.8115959,44.7382547
9,улица имени Ф.Г. Логинова,404130,48.8113065,44.7351494
9,улица имени Ф.Г. Логинова,404130,48.8112542,44.7351043
9,улица имени Ф.Г. Логинова,404130,48.8112067,44.7350754
9,улица имени Ф.Г. Логинова,404130,48.8111675,44.7350448
9,улица имени Ф.Г. Логинова,404130,48.8113528,44.7351927
5,улица 19-го Партсъезда,404130,48.8106186,44.7358640
5,улица 19-го Партсъезда,404130,48.8106455,44.7357887
7,улица 19-го Партсъезда,404130,48.8110302,44.7362450
7,улица 19-го Партсъезда,404130,48.8110041,44.7363341
7,улица 19-го Партсъезда,404130,48.8108981,44.7362536
7,улица 19-го Партсъезда,404130,48.8109497,44.7362955
125В,улица Карбышева,404132,48.7572253,44.8008390
1,Сталинградская улица,404111,48.7854312,44.7460707
63Б,улица Мира,404131,48.7729071,44.8061895
9Б,бульвар Профсоюзов,404102,48.7788051,44.7783511
3,улица Горького,404122,48.8119559,44.7403470
11Б,улица Горького,404122,48.8110155,44.7426428
13Б,улица Горького,404122,48.8097475,44.7465855
13Б,улица Горького,404122,48.8098293,44.7465713
25,улица Горького,404122,48.8082754,44.7511354
25,улица Горького,404122,48.8080666,44.7518001
25,улица Горького,404122,48.8079040,44.7521063
2,Коммунистическая улица,404122,48.8083366,44.7523866
20,улица Кирова,404122,48.8090121,44.7524352
20,улица Кирова,404122,48.8091357,44.7520401
1Б,улица Кирова,404122,48.8141303,44.7374002
1,улица Кирова,404122,48.8141433,44.7375762
1,улица Кирова,404122,48.8142053,44.7376323
9Б,улица Кирова,404122,48.8128618,44.7419918
11Г,улица Кирова,404122,48.8123482,44.7436012
11В,улица Кирова,404122,48.8122104,44.7439873
11В,улица Кирова,404122,48.8121941,44.7440398
17,улица Кирова,404122,48.8107969,44.7493020
19к3,улица Кирова,404122,48.8106133,44.7499734
19ст1,улица Кирова,404122,48.8105150,44.7506297
19/1,улица Кирова,404122,48.8112241,44.7511263
19/1,улица Кирова,404122,48.8112452,44.7510342
21,улица Кирова,404122,48.8093801,44.7550152
21,улица Кирова,404122,48.8093570,44.7549493
21,улица Кирова,404122,48.8092298,44.7548185
21,улица Кирова,404122,48.8094027,44.7549331
109,проспект Дружбы,404132,48.7576697,44.8092872
109,проспект Дружбы,404132,48.7577673,44.8091928
109А,проспект Дружбы,404132,48.7579845,44.8089008
109,проспект Дружбы,404132,48.7577376,44.8094460
109,проспект Дружбы,404132,48.7577885,44.8095768
109,проспект Дружбы,404132,48.7578224,44.8093644
109,проспект Дружбы,404132,48.7578560,44.8097020
109,проспект Дружбы,404132,48.7579338,44.8096011
109,проспект Дружбы,404132,48.7579211,44.8098050
109,проспект Дружбы,404132,48.7580059,44.8097363
109,проспект Дружбы,404132,48.7578574,44.8095432
109,проспект Дружбы,404132,48.7579904,44.8098865
109А,проспект Дружбы,404132,48.7580281,44.8087703
109А,проспект Дружбы,404132,48.7581509,44.8088332
109А,проспект Дружбы,404132,48.7581993,44.8089272
109А,проспект Дружбы,404132,48.7581039,44.8087039
109А,проспект Дружбы,404132,48.7581840,44.8087479
109А,проспект Дружбы,404132,48.7582548,44.8090088
109А,проспект Дружбы,404132,48.7583006,44.8090194
109А,проспект Дружбы,404132,48.7582230,44.8088298
109В,проспект Дружбы,404132,48.7583980,44.8091649
109В,проспект Дружбы,404132,48.7584443,44.8092317
109Б,проспект Дружбы,404132,48.7581628,44.8103417
109Б,проспект Дружбы,404132,48.7583932,44.8103365
7,улица Куйбышева,404130,48.8100871,44.7395129
31,улица 19-го Партсъезда,404130,48.8093446,44.7415039
42А,улица Энгельса,404121,48.7906316,44.7745716
17,улица Карла Маркса,404130,48.8075636,44.7389630
17,улица Карла Маркса,404130,48.8075816,44.7389130
19,улица Карла Маркса,404130,48.8075798,44.7394394
16,Ленинградская улица,404130,48.8076593,44.7414032
15,проспект Ленина,404130,48.8059705,44.7369401
19,проспект Ленина,404130,48.8052705,44.7377657
19,проспект Ленина,404130,48.8054406,44.7381507
19,проспект Ленина,404130,48.8055488,44.7383664
19,проспект Ленина,404130,48.8053782,44.7380379
19,проспект Ленина,404130,48.8056087,44.7384652
1,Комсомольская площадь,404130,48.8054662,44.7394934
1,Комсомольская площадь,404130,48.8054021,44.7393491
1/3,Комсомольская площадь,404130,48.8050828,44.7399461
1/1,Комсомольская площадь,404130,48.8066111,44.7387387
10Б,улица Карла Маркса,404130,48.8050585,44.7419900
15,улица Чайковского,404130,48.8041522,44.7347100
2,Фонтанная улица,404130,48.8045377,44.7369186
2,Фонтанная улица,404130,48.8045681,44.7370001
2,Фонтанная улица,404130,48.8046190,44.7370656
20В,проспект Ленина,404130,48.8048906,44.7372440
20В,проспект Ленина,404130,48.8048376,44.7371924
20В,проспект Ленина,404130,48.8048636,44.7371650
20В,проспект Ленина,404130,48.8048716,44.7372819
20В,проспект Ленина,404130,48.8047897,44.7373388
20В,проспект Ленина,404130,48.8047702,44.7372591
20В,проспект Ленина,404130,48.8047692,44.7373418
20В,проспект Ленина,404130,48.8047502,44.7372826
20В,проспект Ленина,404130,48.8047412,44.7373274
20В,проспект Ленина,404130,48.8047482,44.7373722
20В,проспект Ленина,404130,48.8047182,44.7372978
20В,проспект Ленина,404130,48.8047107,44.7373479
20В,проспект Ленина,404130,48.8047307,44.7372455
20В,проспект Ленина,404130,48.8047082,44.7372735
20В,проспект Ленина,404130,48.8046947,44.7373077
20В,проспект Ленина,404130,48.8046722,44.7372796
20В,проспект Ленина,404130,48.8046992,44.7372273
20В,проспект Ленина,404130,48.8047587,44.7372189
20В,проспект Ленина,404130,48.8046802,44.7372462
2,Фонтанная улица,404130,48.8047252,44.7372075
20В,проспект Ленина,404130,48.8048576,44.7372629
20В,проспект Ленина,404130,48.8048731,44.7372174
20В,проспект Ленина,404130,48.8048406,44.7372652
20В,проспект Ленина,404130,48.8047302,44.7373828
20В,проспект Ленина,404130,48.8047996,44.7372159
20В,проспект Ленина,404130,48.8048511,44.7372295
20В,проспект Ленина,404130,48.8047137,44.7373759
20В,проспект Ленина,404130,48.8048241,44.7372864
20В,проспект Ленина,404130,48.8049041,44.7372728
20В,проспект Ленина,404130,48.8047996,44.7372955
20А,проспект Ленина,404130,48.8049263,44.7367068
109,проспект Дружбы,404132,48.7578936,44.8094760
57,улица Мира,404131,48.7728831,44.8043090
87Г,проспект Дружбы,404132,48.7615812,44.8048377
19,площадь Труда,404104,48.7834234,44.7838990
129,проспект Ленина,404120,48.7767520,44.7619496
22,улица Энгельса,404120,48.7878671,44.7611440
24,Пионерская улица,404125,48.7811489,44.7932943
67,проспект Ленина,404110,48.7941815,44.7484781
68А,улица 40 лет Победы,404118,48.7613077,44.8184367
68А,улица 40 лет Победы,404118,48.7613000,44.8183506
84А,проспект Ленина,404111,48.7887136,44.7496512
16,бульвар Профсоюзов,404102,48.7772103,44.7775678
45А,Оломоуцкая улица,404131,48.7703685,44.8138734
148Г,улица Мира,404101,48.7531391,44.8233794
142,улица Мира,404118,48.7569516,44.8190205
95,улица Мира,404109,48.7645160,44.8123305
10,Волгодонская улица,404130,48.8030628,44.7376180
24,проспект Ленина,404130,48.8036023,44.7387452
24,проспект Ленина,404130,48.8035434,44.7388380
9,Фонтанная улица,404130,48.8034247,44.7360729
21,улица Кирова,404122,48.8093521,44.7549028
5,Фонтанная улица,404130,48.8037143,44.7367225
5,Фонтанная улица,404130,48.8036070,44.7365428
5,Фонтанная улица,404130,48.8037737,44.7368226
5,Фонтанная улица,404130,48.8038227,44.7369244
5,Фонтанная улица,404130,48.8038648,44.7370287
5,Фонтанная улица,404130,48.8038914,44.7371266
1,Фонтанная улица,404130,48.8041363,44.7375557
1,Фонтанная улица,404130,48.8040978,44.7374859
1,Фонтанная улица,404130,48.8040797,44.7374425
1,Фонтанная улица,404130,48.8041623,44.7376089
1,Фонтанная улица,404130,48.8040535,44.7374113
1,Фонтанная улица,404130,48.8040075,44.7373720
1,Фонтанная улица,404130,48.8039758,44.7373267
22,проспект Ленина,404130,48.8042647,44.7377489
22,проспект Ленина,404130,48.8042904,44.7377992
22,проспект Ленина,404130,48.8042385,44.7377930
22,проспект Ленина,404130,48.8042580,44.7378589
22,проспект Ленина,404130,48.8042643,44.7379835
22,проспект Ленина,404130,48.8042408,44.7380220
22,проспект Ленина,404130,48.8042227,44.7379728
22,проспект Ленина,404130,48.8042106,44.7380516
22,проспект Ленина,404130,48.8041856,44.7380002
22,проспект Ленина,404130,48.8041731,44.7380907
22,проспект Ленина,404130,48.8041396,44.7380209
22,проспект Ленина,404130,48.8041256,44.7381482
22,проспект Ленина,404130,48.8041399,44.7380893
22,проспект Ленина,404130,48.8042073,44.7378798
22,проспект Ленина,404130,48.8040994,44.7381038
1,Третья улица,404113,48.8043528,44.7103684
1,Третья улица,404113,48.8043607,44.7104624
1,Третья улица,404113,48.8042942,44.7105068
1,Третья улица,404113,48.8042908,44.7104361
38А,Гидростроевская улица,404113,48.7937574,44.6886221
38А,Гидростроевская улица,404113,48.7937176,44.6885812
21,проспект Ленина,404130,48.8045648,44.7390610
21,проспект Ленина,404130,48.8045214,44.7389860
21,проспект Ленина,404130,48.8044796,44.7389040
21,проспект Ленина,404130,48.8044430,44.7388207
21,проспект Ленина,404130,48.8044125,44.7387559
21,проспект Ленина,404130,48.8043611,44.7388167
21,проспект Ленина,404130,48.8043149,44.7388763
23,проспект Ленина,404130,48.8037780,44.7394238
23,проспект Ленина,404130,48.8037150,44.7394959
2З,Набережная улица,404130,48.8029611,44.7264096
2З,Набережная улица,404130,48.8027609,44.7265959
2М,Набережная улица,404130,48.8020262,44.7251942
2М,Набережная улица,404130,48.8019644,44.7252036
2мст2,Набережная улица,404130,48.8018778,44.7247141
2М,Набережная улица,404130,48.8022553,44.7245795
2И,Набережная улица,404130,48.8029884,44.7240999
2Б,улица имени Ф.Г. Логинова,404130,48.8114407,44.7329941
1д/2,проспект Ленина,404130,48.8124332,44.7315630
2и/1,Набережная улица,404130,48.8001646,44.7250573
2л/1,Набережная улица,404130,48.8005825,44.7318981
2,Набережная улица,404130,48.7992031,44.7372142
14,улица Рихарда Зорге,404130,48.8035151,44.7408610
14,улица Рихарда Зорге,404130,48.8034834,44.7409844
14,улица Рихарда Зорге,404130,48.8034544,44.7409203
14,улица Рихарда Зорге,404130,48.8034477,44.7410443
14,улица Рихарда Зорге,404130,48.8034082,44.7409823
25,проспект Ленина,404130,48.8032299,44.7400647
25,проспект Ленина,404130,48.8032882,44.7400222
30,проспект Ленина,404130,48.8017814,44.7406606
26,проспект Ленина,404130,48.8029153,44.7395104
7,улица 19-го Партсъезда,404130,48.8108058,44.7362101
16,бульвар Профсоюзов,404102,48.7775509,44.7779177
3,Московская улица,404130,48.8023277,44.7397077
3,Московская улица,404130,48.8022740,44.7398127
3,Московская улица,404130,48.8023667,44.7395752
3,Московская улица,404130,48.8023405,44.7396083
3,Московская улица,404130,48.8023623,44.7396683
3,Московская улица,404130,48.8024128,44.7397704
3,Московская улица,404130,48.8023382,44.7396484
3,Московская улица,404130,48.8023348,44.7397794
3,Московская улица,404130,48.8023057,44.7396473
3,Московская улица,404130,48.8023596,44.7396187
3,Московская улица,404130,48.8024097,44.7396416
3,Московская улица,404130,48.8024194,44.7398226
3,Московская улица,404130,48.8023599,44.7397880
3,Московская улица,404130,48.8023639,44.7398419
3,Московская улица,404130,48.8023404,44.7398541
3,Московская улица,404130,48.8023237,44.7398221
3,Московская улица,404130,48.8023716,44.7398724
3,Московская улица,404130,48.8024271,44.7397052
3,Московская улица,404130,48.8023850,44.7397723
3,Московская улица,404130,48.8023983,44.7398454
3,Московская улица,404130,48.8024549,44.7397555
76,улица Карбышева,404120,48.7794228,44.7672836
76,улица Карбышева,404120,48.7794461,44.7672160
6,Сталинградская улица,404111,48.7849209,44.7494220
28,улица Карбышева,404121,48.7917458,44.7594980
56Б,улица Карбышева,404120,48.7853109,44.7642394
56Б,улица Карбышева,404120,48.7854386,44.7641925
67,проспект Ленина,404110,48.7945734,44.7483275
78,проспект Ленина,404111,48.7881311,44.7475980
91,проспект Ленина,404111,48.7880025,44.7515794
4Б,Пионерская улица,404102,48.7738205,44.7834505
12А,улица Мира,404102,48.7795375,44.7892197
24,Пионерская улица,404125,48.7808924,44.7931096
30,улица Энгельса,404121,48.7900122,44.7712712
30,улица Энгельса,404121,48.7903323,44.7727470
120,проспект Ленина,404120,48.7761467,44.7610116
10,улица Химиков,404104,48.7874578,44.7789683
18,улица Химиков,404104,48.7863906,44.7811280
1Б,бульвар Профсоюзов,404102,48.7758031,44.7743129
9,бульвар Профсоюзов,404102,48.7785986,44.7776692
10,площадь Труда,404104,48.7833727,44.7809138
19,улица Нариманова,404125,48.7787261,44.7977647
42А,улица Мира,404127,48.7753733,44.7981491
42Г,улица Мира,404127,48.7751456,44.7986573
9А,улица Александрова,404127,48.7708105,44.7925052
42П,улица Мира,404127,48.7742013,44.7997580
18А,улица Александрова,404105,48.7720098,44.7994080
110,улица Карбышева,404133,48.7638011,44.7901805
2А,улица Клавы Нечаевой,404131,48.7710495,44.8068574
62,улица Мира,404105,48.7699602,44.8048358
79,улица Мира,404131,48.7674565,44.8089959
9,Оломоуцкая улица,404132,48.7598005,44.7979178
30А,Оломоуцкая улица,404105,48.7637660,44.8048374
26,улица 40 лет Победы,404133,48.7546829,44.8031371
10,площадь Труда,404104,48.7835896,44.7804319
136,"СНТ Новые сады, ул. Сургучёвка",404113,48.7903864,44.7009881
48,улица Карбышева,404120,48.7874678,44.7626292
48,улица Карбышева,404120,48.7879554,44.7623220
48,улица Карбышева,404120,48.7879765,44.7623729
87Г/1,улица Дружбы,404132,48.7614955,44.8049947
48,улица Карбышева,404120,48.7879567,44.7623934
48,улица Карбышева,404120,48.7879771,44.7624035
22,улица Энгельса,404120,48.7877514,44.7606224
22,улица Энгельса,404120,48.7879154,44.7613786
22,улица Энгельса,404120,48.7878976,44.7612838
22,улица Энгельса,404120,48.7878143,44.7608843
22,улица Энгельса,404120,48.7880518,44.7619534
22,улица Энгельса,404120,48.7877291,44.7605408
22,улица Энгельса,404120,48.7878590,44.7610799
58,улица Карбышева,404120,48.7846850,44.7627004
69,Советская улица,404120,48.7824262,44.7597728
69,Советская улица,404120,48.7824248,44.7598358
69,Советская улица,404120,48.7824516,44.7598785
69А,Советская улица,404120,48.7824300,44.7594999
69А,Советская улица,404120,48.7824476,44.7595578
69А,Советская улица,404120,48.7824099,44.7595453
69А,Советская улица,404120,48.7824722,44.7595137
10,улица Энгельса,404120,48.7871039,44.7576071
10,улица Энгельса,404120,48.7872928,44.7584193
10,улица Энгельса,404120,48.7871855,44.7579805
10,улица Энгельса,404120,48.7872228,44.7581203
10,улица Энгельса,404120,48.7873732,44.7587573
18А,улица Александрова,404105,48.7720124,44.8005326
1Б,бульвар Профсоюзов,404102,48.7764498,44.7734552
28Б,улица Нариманова,404126,48.7834798,44.8025227
54В,улица Карбышева,404120,48.7862161,44.7638578
31,улица Энгельса,404111,48.7885750,44.7610262
31,улица Энгельса,404111,48.7885545,44.7611194
31,улица Энгельса,404111,48.7886047,44.7612941
31,улица Энгельса,404111,48.7886241,44.7613922
31,улица Энгельса,404111,48.7885855,44.7612171
31,улица Энгельса,404111,48.7886413,44.7614589
31,улица Энгельса,404111,48.7886535,44.7615230
90,пр. Ленина,404111,48.7816384,44.7488438
20А/1,улица Александрова,404131,48.7748056,44.8035458
20А/1,улица Александрова,404131,48.7747297,44.8033488
20А/1,улица Александрова,404131,48.7748545,44.8036640
20А/2,улица Александрова,404131,48.7747477,44.8032367
20А/2,улица Александрова,404131,48.7747726,44.8032837
20А/2,улица Александрова,404131,48.7747986,44.8033276
20А/2,улица Александрова,404131,48.7749623,44.8036594
20А/2,улица Александрова,404131,48.7748843,44.8035122
20А/2,улица Александрова,404131,48.7749159,44.8035655
20А/2,улица Александрова,404131,48.7748684,44.8034746
20А/2,улица Александрова,404131,48.7748326,44.8034018
20А/2,улица Александрова,404131,48.7748181,44.8033729
20А/2,улица Александрова,404131,48.7749381,44.8036114
20А/2,улица Александрова,404131,48.7749667,44.8036692
4А,улица им.Харламова,404133,48.7632343,44.7889436
4А,улица им.Харламова,404133,48.7632597,44.7889774
4А,улица им.Харламова,404133,48.7632752,44.7890217
10,Московская улица,404130,48.8014886,44.7398274
96,улица Горького,404130,48.8031531,44.7604487
3,улица Кухаренко,404110,48.7974356,44.7423000
6,улица Циолковского,404130,48.8093290,44.7370116
8,Рабоче-Крестьянская улица,404122,48.8056387,44.7549669
14А/1,улица Машиностроителей,404102,48.7787240,44.7742005
87,улица Дружбы,404132,48.7619967,44.8045387
99А,улица Дружбы,404132,48.7619159,44.8055568
101,улица Дружбы,404132,48.7605901,44.8062144
32,Оломоуцкая улица,404132,48.7628672,44.8068048
93,улица Дружбы,404132,48.7622133,44.8074124
95,улица Дружбы,404132,48.7617637,44.8073801
97,улица Дружбы,404132,48.7613199,44.8068593
34,Оломоуцкая улица,404132,48.7629200,44.8081330
38А,Оломоуцкая улица,404132,48.7642039,44.8073498
85А к1,улица Дружбы,404105,48.7635774,44.8040288
97А,улица Дружбы,404132,48.7608132,44.8067225
45,улица 40 лет Победы,404132,48.7599282,44.8081992
47,улица 40 лет Победы,404132,48.7601401,44.8086683
49,улица 40 лет Победы,404132,48.7607654,44.8082749
57,улица 40 лет Победы,404132,48.7606216,44.8090942
51,улица 40 лет Победы,404132,48.7614973,44.8082783
53,улица 40 лет Победы,404132,48.7619927,44.8089801
55,улица 40 лет Победы,404132,48.7625322,44.8095661
36,Оломоуцкая улица,404132,48.7636000,44.8088774
38,Оломоуцкая улица,404132,48.7636742,44.8067022
40,Оломоуцкая улица,404132,48.7635741,44.8075790
38Б,Оломоуцкая улица,404132,48.7640330,44.8069536
99,улица Дружбы,404132,48.7614167,44.8057920
53А,улица Мира,404131,48.7731590,44.8030057
61,улица Мира,404131,48.7737108,44.8058707
54В,улица Мира,404105,48.7720486,44.8029464
30,улица Рихарда Зорге,404130,48.7999777,44.7461746
32,улица Рихарда Зорге,404130,48.7998972,44.7470261
44,Коммунистическая улица,404130,48.7989711,44.7464926
51А,проспект Ленина,404130,48.7988953,44.7458094
51,проспект Ленина,404130,48.7987787,44.7451563
49,проспект Ленина,404130,48.7995017,44.7454517
47,проспект Ленина,404130,48.7995147,44.7444063
45,проспект Ленина,404130,48.8001899,44.7447116
31,проспект Ленина,404130,48.8016680,44.7417647
25,проспект Ленина,404130,48.8031352,44.7401238
21,проспект Ленина,404130,48.8043825,44.7390073
55А,улица 40 лет Победы,404132,48.7591105,44.8098026
31А,Оломоуцкая улица,404131,48.7671235,44.8100872
1,Комсомольская площадь,404130,48.8055444,44.7396134
6,Камская улица,404130,48.8067786,44.7442408
62Б,улица Дружбы,404132,48.7593007,44.8021541
57А,улица 40 лет Победы,404132,48.7601669,44.8098752
97Г,улица Дружбы,404132,48.7610349,44.8070148
38В,Оломоуцкая улица,404132,48.7641367,44.8071736
29,Оломоуцкая улица,404105,48.7668801,44.8079493
79А,улица Мира,404131,48.7674331,44.8087117
2,Сталинградская улица,404111,48.7832628,44.7431190
113А,улица Дружбы,404118,48.7566040,44.8105176
115,улица Дружбы,404118,48.7564072,44.8109661
113,улица Дружбы,404118,48.7568763,44.8109599
127,улица Дружбы,404118,48.7562384,44.8114674
117,улица Дружбы,404118,48.7567391,44.8116466
41,улица 87-й Гвардейской Дивизии,404118,48.7551993,44.8146659
139А,улица Дружбы,404118,48.7548858,44.8123028
133А,улица Дружбы,404118,48.7554504,44.8116898
47,улица 87-й Гвардейской Дивизии,404118,48.7557430,44.8157853
57,улица 87-й Гвардейской Дивизии,404118,48.7562956,44.8163450
132,улица Мира,404118,48.7581277,44.8162986
138,улица Мира,404118,48.7575624,44.8169159
133,улица Дружбы,404118,48.7557193,44.8121298
140,улица Мира,404118,48.7574815,44.8176674
134А,улица Мира,404118,48.7580205,44.8179109
130А,улица Мира,404118,48.7585895,44.8173484
45А,улица 87-й Гвардейской Дивизии,404118,48.7552461,44.8151713
135,улица Дружбы,404118,48.7552926,44.8121856
125,улица Дружбы,404118,48.7563453,44.8129620
118,улица Мира,404118,48.7586869,44.8157457
63,улица 87-й Гвардейской Дивизии,404118,48.7563895,44.8175861
61,улица 87-й Гвардейской Дивизии,404118,48.7567997,44.8164579
86А,улица Дружбы,404118,48.7552266,44.8104171
131,улица Дружбы,404118,48.7561925,44.8122392
62,улица 40 лет Победы,404118,48.7591751,44.8143285
140А,улица Мира,404118,48.7576792,44.8181866
45,улица 87-й Гвардейской Дивизии,404118,48.7555727,44.8148551
120,улица Мира,404118,48.7581639,44.8149425
55,улица 87-й Гвардейской Дивизии,404118,48.7569828,44.8155149
39,улица 87-й Гвардейской Дивизии,404118,48.7551664,44.8140461
130,улица Мира,404118,48.7584296,44.8169738
134,улица Мира,404118,48.7580592,44.8170966
63,улица 87-й Гвардейской Дивизии,404118,48.7566977,44.8171906
114,улица Мира,404118,48.7592029,44.8159289
139Б,улица Дружбы,404118,48.7547617,44.8116259
58Б,улица 40-летия Победы,404118,48.7574565,44.8139156
129,улица Дружбы,404118,48.7558478,44.8115990
116,улица Мира,404118,48.7590082,44.8163999
51,улица 87-й Гвардейской Дивизии,404118,48.7563254,44.8141105
137,улица Дружбы,404118,48.7556438,44.8127919
124,улица Мира,404118,48.7574867,44.8149280
60,улица 40 лет Победы,404118,48.7591360,44.8149272
37,улица 87-й Гвардейской Дивизии,404118,48.7545992,44.8136448
39А,улица 87-й Гвардейской Дивизии,404118,48.7548209,44.8143597
136,улица Мира,404118,48.7578810,44.8176336
52,улица 40 лет Победы,404118,48.7575407,44.8104245
43,улица 87-й Гвардейской Дивизии,404118,48.7556870,44.8140956
139,улица Дружбы,404118,48.7551591,44.8127366
118/2,улица Мира,404118,48.7591542,44.8169503
57А,улица 87-й Гвардейской Дивизии,404118,48.7559880,44.8167238
53,улица 87-й Гвардейской Дивизии,404118,48.7567776,44.8146800
123,улица Дружбы,404118,48.7567964,44.8135935
128,улица Мира,404118,48.7586256,44.8164868
121,улица Дружбы,404118,48.7570657,44.8125745
59,улица 87-й Гвардейской Дивизии,404118,48.7563160,44.8169678
56,улица 40 лет Победы,404118,48.7577799,44.8113377
141,улица Карбышева,404118,48.7543690,44.8082738
133,улица Карбышева,404118,48.7549044,44.8069093
94,улица Дружбы,404118,48.7545059,44.8104224
143,улица Карбышева,404118,48.7539768,44.8083137
46,улица 40 лет Победы,404118,48.7552005,44.8061744
31,улица 87-й Гвардейской Дивизии,404118,48.7532621,44.8110132
88,улица Дружбы,404118,48.7547486,44.8097270
153,улица Карбышева,404118,48.7529361,44.8094803
135,улица Карбышева,404118,48.7542631,44.8068399
82,улица Дружбы,404118,48.7557267,44.8094804
102,улица Дружбы,404118,48.7536817,44.8117341
129,улица Карбышева,404118,48.7549832,44.8058284
90,улица Дружбы,404118,48.7547654,44.8091074
96,улица Дружбы,404118,48.7545066,44.8109534
145,улица Карбышева,404118,48.7540176,44.8088778
137,улица Карбышева,404118,48.7540020,44.8072552
100,улица Дружбы,404118,48.7540105,44.8107585
78,улица Дружбы,404118,48.7563446,44.8089942
50,улица 40 лет Победы,404118,48.7565061,44.8081180
155,улица Карбышева,404118,48.7526204,44.8099203
84,улица Дружбы,404118,48.7552517,44.8095948
139,улица Карбышева,404118,48.7538954,44.8076753
86,улица Дружбы,404118,48.7549459,44.8102689
29,улица 87-й Гвардейской Дивизии,404118,48.7527551,44.8103502
92,улица Дружбы,404118,48.7543518,44.8095570
151,улица Карбышева,404118,48.7533539,44.8087157
98,улица Дружбы,404118,48.7542016,44.8113469
131,улица Карбышева,404118,48.7546067,44.8061485
80,улица Дружбы,404118,48.7558826,44.8085503
76,улица Дружбы,404118,48.7566587,44.8085525
115,улица Мира,404118,48.7606121,44.8184557
70,улица 40 лет Победы,404118,48.7612177,44.8195901
72,улица 40 лет Победы,404118,48.7609800,44.8201018
117,улица Мира,404118,48.7601281,44.8184308
68,улица 40 лет Победы,404118,48.7617132,44.8194029
76,улица 40 лет Победы,404118,48.7616577,44.8206726
78,улица 40 лет Победы,404118,48.7609231,44.8212106
42А,улица Энгельса,404121,48.7906606,44.7745791
39,улица Карбышева,404121,48.7898315,44.7639916
33,улица Энгельса,404121,48.7895820,44.7654071
39,улица Энгельса,404121,48.7898971,44.7672465
49,улица Энгельса,404121,48.7914349,44.7696303
51,улица Энгельса,404121,48.7913648,44.7705445
50,улица Пушкина,404121,48.7916058,44.7716525
47,улица Энгельса,404121,48.7904358,44.7694594
53,улица Энгельса,404121,48.7907572,44.7712377
50А,улица Пушкина,404121,48.7918082,44.7723860
48,улица Пушкина,404121,48.7923461,44.7707644
29,улица Карбышева,404121,48.7914667,44.7618830
46,улица Пушкина,404121,48.7921298,44.7697529
44,улица Пушкина,404121,48.7926168,44.7684443
27,улица Карбышева,404121,48.7921377,44.7612009
15,улица Космонавтов,404110,48.7961131,44.7494808
29,улица Свердлова,404110,48.7969352,44.7491067
35,улица Свердлова,404110,48.7973499,44.7474625
24,Молодёжная улица,404121,48.7906967,44.7535572
22,Молодёжная улица,404121,48.7908460,44.7525246
95,проспект Ленина,404111,48.7871371,44.7520187
1,Советская улица,404111,48.7929636,44.7543275
19А,Молодёжная улица,404110,48.7939414,44.7557344
30/1,Молодёжная улица,404111,48.7923697,44.7550488
26,Молодёжная улица,404111,48.7913482,44.7553872
14А,улица Космонавтов,404110,48.7956355,44.7543436
3,Советская улица,404111,48.7918120,44.7546150
30,Молодёжная улица,404121,48.7925846,44.7555907
28,Молодёжная улица,404111,48.7916843,44.7560334
59,Набережная улица,404111,48.7899673,44.7450998
73,Набережная улица,404111,48.7884999,44.7447265
83,Набережная улица,404111,48.7877587,44.7469042
65,Набережная улица,404111,48.7889695,44.7447031
79,Набережная улица,404111,48.7875609,44.7459621
69А,Набережная улица,404111,48.7885245,44.7463055
63,Набережная улица,404111,48.7894187,44.7446739
57,Набережная улица,404111,48.7903312,44.7448021
75,Набережная улица,404111,48.7880397,44.7447623
65А,Набережная улица,404111,48.7891750,44.7455065
69,Набережная улица,404111,48.7887641,44.7468718
81,Набережная улица,404111,48.7870423,44.7458304
71,Набережная улица,404111,48.7884263,44.7470215
67,Набережная улица,404111,48.7891139,44.7467564
11А,Молодёжная улица,404111,48.7917499,44.7479670
48А,проспект Ленина,404110,48.7966646,44.7461009
49,улица Свердлова,404110,48.7963878,44.7423237
41,улица Свердлова,404110,48.7967864,44.7441594
47,улица Свердлова,404110,48.7966008,44.7433098
48,проспект Ленина,404110,48.7969709,44.7459489
49,Набережная улица,404110,48.7960729,44.7417104
37,улица Свердлова,404110,48.7969937,44.7451395
43,улица Свердлова,404110,48.7963614,44.7438896
3,улица Космонавтов,404110,48.7943266,44.7444147
51,Набережная улица,404110,48.7952310,44.7428754
53,Набережная улица,404110,48.7941532,44.7426651
1,улица Космонавтов,404110,48.7941239,44.7434455
107Б,проспект Ленина,404120,48.7799275,44.7563906
107В,проспект Ленина,404120,48.7797752,44.7567298
52,улица Карбышева,404120,48.7864424,44.7616322
63,Советская улица,404120,48.7831242,44.7590939
39,Советская улица,404120,48.7842593,44.7592432
41,Советская улица,404120,48.7840653,44.7607395
41А,Советская улица,404120,48.7842096,44.7616456
43,Советская улица,404120,48.7836887,44.7611626
42,улица Пушкина,404121,48.7931005,44.7671686
25,улица Карбышева,404121,48.7921080,44.7625672
46,Молодёжная улица,404121,48.7947418,44.7626839
36,улица Пушкина,404121,48.7935923,44.7656772
38,Молодёжная улица,404121,48.7935157,44.7606013
38,улица Пушкина,404121,48.7930338,44.7660384
38А,улица Пушкина,404121,48.7928622,44.7649059
34,улица Пушкина,404121,48.7941473,44.7653838
28,улица Пушкина,404121,48.7946849,44.7638549
36,Молодёжная улица,404121,48.7942145,44.7602354
23,улица Карбышева,404121,48.7922743,44.7635303
32А,улица Пушкина,404121,48.7928053,44.7639869
36А,Молодёжная улица,404121,48.7944756,44.7615122
40,улица Пушкина,404121,48.7936466,44.7668797
17,улица Карбышева,404121,48.7930312,44.7598208
15,улица Карбышева,404121,48.7936901,44.7591522
42,Молодёжная улица,404121,48.7942139,44.7622992
19,улица Карбышева,404121,48.7929697,44.7615124
21,улица Карбышева,404121,48.7932221,44.7628314
30,улица Пушкина,404121,48.7941225,44.7641414
20/1,Комсомольская улица,404130,48.8032611,44.7416259
27,проспект Ленина,404130,48.8026446,44.7407599
29,проспект Ленина,404130,48.8021961,44.7411543
28,улица Рихарда Зорге,404130,48.8000912,44.7455233
10,улица Рихарда Зорге,404130,48.8043771,44.7399094
22,Комсомольская улица,404130,48.8026295,44.7419620
14,улица Рихарда Зорге,404130,48.8034839,44.7409463
20,улица Рихарда Зорге,404130,48.8019724,44.7437356
43,проспект Ленина,404130,48.7999437,44.7437497
25,Комсомольская улица,404130,48.8020340,44.7425742
37,проспект Ленина,404130,48.8008957,44.7428880
24,улица Рихарда Зорге,404130,48.8011074,44.7447007
39,проспект Ленина,404130,48.8009089,44.7439703
26,улица Рихарда Зорге,404130,48.8006186,44.7452922
22,улица Рихарда Зорге,404130,48.8014098,44.7439636
23,проспект Ленина,404130,48.8037641,44.7393808
35,проспект Ленина,404130,48.8015535,44.7432031
44,проспект Ленина,404110,48.7983480,44.7446642
42,проспект Ленина,404130,48.7989991,44.7439682
4,улица Кухаренко,404130,48.7984694,44.7432149
6,улица Кухаренко,404130,48.7987616,44.7424464
38,проспект Ленина,404130,48.7998998,44.7429726
40,проспект Ленина,404130,48.7994282,44.7434483
5,улица Гайдара,404130,48.7991323,44.7421625
3,улица Гайдара,404130,48.7995157,44.7419187
41А,Набережная улица,404130,48.7978924,44.7404794
10,улица Кухаренко,404130,48.7983699,44.7417781
12,улица Кухаренко,404130,48.7978506,44.7418492
7А,улица Гайдара,404130,48.7989278,44.7414204
8,улица Кухаренко,404130,48.7981915,44.7425709
14,улица Кухаренко,404130,48.7980426,44.7410706
45,Набережная улица,404130,48.7972811,44.7407921
43,Набережная улица,404130,48.7975495,44.7403220
39,Набережная улица,404130,48.7981796,44.7395247
41,Набережная улица,404130,48.7979097,44.7399168
11,улица Гайдара,404130,48.7986374,44.7401346
7,улица Гайдара,404130,48.7988255,44.7408840
16,улица Кухаренко,404130,48.7975225,44.7413298
37,Комсомольская улица,404130,48.8005305,44.7395430
20,улица Гайдара,404130,48.7991423,44.7392637
41,Комсомольская улица,404130,48.8001663,44.7387569
35,Набережная улица,404130,48.7989068,44.7388058
33,Комсомольская улица,404130,48.8007719,44.7399207
47,Комсомольская улица,404130,48.7998402,44.7379095
18,улица Гайдара,404130,48.7990665,44.7399997
16,Московская улица,404130,48.8002481,44.7412872
14,Московская улица,404130,48.8006478,44.7408317
12,улица Гайдара,404130,48.7999777,44.7401311
16,улица Гайдара,404130,48.7996304,44.7394422
12,Московская улица,404130,48.8009751,44.7405365
35,Комсомольская улица,404130,48.8004939,44.7403124
32,проспект Ленина,404130,48.8012874,44.7413894
37,Набережная улица,404130,48.7986421,44.7390214
39,Комсомольская улица,404130,48.7999153,44.7396205
8,улица Гайдара,404130,48.7996201,44.7412285
10,улица Гайдара,404130,48.7994426,44.7407843
14,улица Гайдара,404130,48.7993412,44.7403068
43,Комсомольская улица,404130,48.7999767,44.7383023
36,проспект Ленина,404130,48.8004195,44.7422955
22,улица Гайдара,404130,48.7988241,44.7396087
33,Набережная улица,404130,48.7991662,44.7385150
34,проспект Ленина,404130,48.8007307,44.7416798
31,Набережная улица,404130,48.7994353,44.7382087
26,проспект Ленина,404130,48.8029144,44.7395645
2,Московская улица,404130,48.8026363,44.7386623
30,проспект Ленина,404130,48.8020777,44.7404944
10,Московская улица,404130,48.8016171,44.7397890
3,Московская улица,404130,48.8023578,44.7397234
6,Московская улица,404130,48.8020817,44.7391755
4,Московская улица,404130,48.8023066,44.7389508
8,Московская улица,404130,48.8019069,44.7394302
28,проспект Ленина,404130,48.8024968,44.7399915
38,Комсомольская улица,404130,48.8007360,44.7381401
34,Комсомольская улица,404130,48.8011081,44.7389154
32,Комсомольская улица,404130,48.8013021,44.7393648
19,Волгодонская улица,404130,48.8016419,44.7364537
21,Набережная улица,404130,48.8012375,44.7369106
19,Набережная улица,404130,48.8011054,44.7363361
9,Волгодонская улица,404130,48.8024429,44.7380700
36,Комсомольская улица,404130,48.8011802,44.7382297
25,Набережная улица,404130,48.8009011,44.7372934
17,Волгодонская улица,404130,48.8018273,44.7368899
15,Волгодонская улица,404130,48.8017505,44.7375841
23,Набережная улица,404130,48.8008369,44.7366327
40,Комсомольская улица,404130,48.8004998,44.7377352
11,Волгодонская улица,404130,48.8020383,44.7385171
27,Набережная улица,404130,48.8003091,44.7371525
13,Волгодонская улица,404130,48.8022011,44.7376627
30,Комсомольская улица,404130,48.8016971,44.7389113
22,проспект Ленина,404130,48.8040501,44.7381025
8,Волгодонская улица,404130,48.8031432,44.7383586
10,Волгодонская улица,404130,48.8030654,44.7376305
3,Фонтанная улица,404130,48.8035715,44.7375160
5,Фонтанная улица,404130,48.8037475,44.7368508
7,Фонтанная улица,404130,48.8032655,44.7369061
9,Фонтанная улица,404130,48.8034302,44.7361429
24,проспект Ленина,404130,48.8035414,44.7388085
1,Фонтанная улица,404130,48.8040765,44.7374639
19,улица Чайковского,404130,48.8024420,44.7366018
12,Волгодонская улица,404130,48.8026156,44.7372869
17,улица Чайковского,404130,48.8029435,44.7361145
17А,улица Чайковского,404130,48.8032462,44.7357784
15,улица Чайковского,404130,48.8040519,44.7348473
13,улица Чайковского,404130,48.8045056,44.7343095
20В,проспект Ленина,404130,48.8047809,44.7372717
10,Фонтанная улица,404130,48.8038719,44.7354689
20,проспект Ленина,404130,48.8051186,44.7369613
18,проспект Ленина,404130,48.8056005,44.7365157
23,улица Циолковского,404130,48.8048965,44.7347422
19,улица Циолковского,404130,48.8054215,44.7358129
4,Фонтанная улица,404130,48.8047486,44.7362233
8,Фонтанная улица,404130,48.8044325,44.7356014
21,улица Циолковского,404130,48.8050119,44.7353653
2,улица Рихарда Зорге,404130,48.8063955,44.7377129
48Г,проспект Ленина,404110,48.7972412,44.7462483
9,улица Чайковского,404130,48.8059348,44.7338776
3,улица Чайковского,404130,48.8074540,44.7335013
5,улица Чайковского,404130,48.8069251,44.7336539
20,улица Циолковского,404130,48.8056815,44.7348932
10,проспект Ленина,404130,48.8070114,44.7347795
7,улица Чайковского,404130,48.8063990,44.7337627
6,проспект Ленина,404130,48.8080385,44.7337895
16,проспект Ленина,404130,48.8061640,44.7358816
14,проспект Ленина,404130,48.8065179,44.7354534
8,проспект Ленина,404130,48.8075600,44.7342864
10,улица Чайковского,404130,48.8057994,44.7324129
13,Набережная улица,404130,48.8056755,44.7313688
17,Набережная улица,404130,48.8045433,44.7323844
3,Набережная улица,404130,48.8068935,44.7302260
7,Набережная улица,404130,48.8069519,44.7316470
11,Набережная улица,404130,48.8061617,44.7309220
23В,улица Логинова,404130,48.8077744,44.7311177
14,улица Чайковского,404130,48.8050631,44.7334477
8,улица Чайковского,404130,48.8065258,44.7326793
15,Набережная улица,404130,48.8051545,44.7318762
1К1,Набережная улица,404130,48.8075649,44.7303215
9,Набережная улица,404130,48.8064218,44.7314944
4,проспект Ленина,404130,48.8089265,44.7325833
4,улица Чайковского,404130,48.8077976,44.7327465
6,улица Чайковского,404130,48.8073732,44.7328081
2,улица Чайковского,404130,48.8083991,44.7326504
21,улица имени Ф.Г. Логинова,404130,48.8089814,44.7319191
5,Набережная улица,404130,48.8071472,44.7307957
25,улица Логинова,404130,48.8081198,44.7297284
2,Набережная улица,404130,48.7991171,44.7372991
2А,Набережная улица,404130,48.7987275,44.7332243
5,проспект Ленина,404130,48.8083668,44.7343324
7,проспект Ленина,404130,48.8078371,44.7349184
11,проспект Ленина,404130,48.8068617,44.7360144
9,проспект Ленина,404130,48.8073692,44.7355068
16,улица Циолковского,404130,48.8064191,44.7367408
14,улица Циолковского,404130,48.8068732,44.7369593
4,улица Карла Маркса,404130,48.8082824,44.7353346
8,улица Карла Маркса,404130,48.8077280,44.7371419
6,улица Карла Маркса,404130,48.8078549,44.7361285
1,улица Карла Маркса,404130,48.8091176,44.7341249
2,улица 19-го Партсъезда,404130,48.8104598,44.7350505
15,улица Логинова,404130,48.8098468,44.7345786
4,улица Циолковского,404130,48.8092482,44.7374156
8,улица 19-го Партсъезда,404130,48.8100558,44.7363315
8,улица Циолковского,404130,48.8087781,44.7371177
7,улица Карла Маркса,404130,48.8087657,44.7351374
11,улица Карла Маркса,404130,48.8083415,44.7364855
3,проспект Ленина,404130,48.8093051,44.7333869
10,улица 19-го Партсъезда,404130,48.8098031,44.7371857
3,улица Карла Маркса,404130,48.8094191,44.7346771
1,проспект Ленина,404130,48.8097989,44.7334820
4,улица 19-го Партсъезда,404130,48.8099172,44.7354822
1,проспект Ленина,404130,48.8096321,44.7330995
9,улица Карла Маркса,404130,48.8085700,44.7357758
17,улица Логинова,404130,48.8102127,44.7338541
11,улица Циолковского,404130,48.8078747,44.7384735
21,улица Карла Маркса,404130,48.8076171,44.7401383
25,улица Карла Маркса,404130,48.8071157,44.7405046
23,улица Карла Маркса,404130,48.8072787,44.7400519
19,улица Карла Маркса,404130,48.8076126,44.7395948
17,улица Карла Маркса,404130,48.8076011,44.7388938
3,улица Циолковского,404130,48.8087367,44.7390996
27,улица Карла Маркса,404130,48.8069705,44.7409573
5,улица Циолковского,404130,48.8082453,44.7395083
9,улица Циолковского,404130,48.8078826,44.7392332
7,улица Циолковского,404130,48.8082818,44.7387724
18,Ленинградская улица,404130,48.8074902,44.7408976
20,улица 19-го Партсъезда,404130,48.8086232,44.7407630
20,Ленинградская улица,404130,48.8072504,44.7413624
14,улица 19-го Партсъезда,404130,48.8088204,44.7400320
14,Ленинградская улица,404130,48.8080279,44.7413163
12,Ленинградская улица,404130,48.8079664,44.7418211
18,улица 19-го Партсъезда,404130,48.8079787,44.7403989
12,улица 19-го Партсъезда,404130,48.8090809,44.7395316
24,улица 19-го Партсъезда,404130,48.8083519,44.7419560
16,улица 19-го Партсъезда,404130,48.8083795,44.7401455
22,улица 19-го Партсъезда,404130,48.8084966,44.7413828
16,Ленинградская улица,404130,48.8076717,44.7414034
37,улица Карла Маркса,404130,48.8065403,44.7433714
39,улица Карла Маркса,404130,48.8062504,44.7432937
35,улица Карла Маркса,404130,48.8064467,44.7428248
41,улица Карла Маркса,404130,48.8060806,44.7438187
29,улица Карла Маркса,404130,48.8066771,44.7417609
13,Ленинградская улица,404130,48.8072171,44.7419370
11,Ленинградская улица,404130,48.8073402,44.7424561
28,улица 19-го Партсъезда,404130,48.8078335,44.7431706
34,улица 19-го Партсъезда,404130,48.8074460,44.7448290
8,Камская улица,404130,48.8063135,44.7441737
9,Ленинградская улица,404130,48.8076686,44.7422567
32,улица 19-го Партсъезда,404130,48.8074894,44.7442838
4,Камская улица,404130,48.8071196,44.7447806
26,улица 19-го Партсъезда,404130,48.8080831,44.7427417
30,улица 19-го Партсъезда,404130,48.8076425,44.7436960
9,улица Рихарда Зорге,404130,48.8017540,44.7446958
13,улица Рихарда Зорге,404130,48.8007875,44.7457711
15,улица Рихарда Зорге,404130,48.8016786,44.7461426
34,Коммунистическая улица,404130,48.8014272,44.7471065
8,улица Пушкина,404130,48.8021925,44.7477444
6,улица Пушкина,404130,48.8025466,44.7464571
2,улица Пушкина,404130,48.8033238,44.7445894
17,улица Рихарда Зорге,404130,48.8007388,44.7465998
36,Коммунистическая улица,404130,48.8008482,44.7478687
34,Коммунистическая улица,404130,48.8013435,44.7472994
4,улица Пушкина,404130,48.8029483,44.7452865
40/21,Коммунистическая улица,404130,48.8002903,44.7473605
30,Коммунистическая улица,404130,48.8016639,44.7476066
19,улица Рихарда Зорге,404130,48.8003423,44.7466788
7,улица Рихарда Зорге,404130,48.8022646,44.7447435
11,улица Рихарда Зорге,404130,48.8013126,44.7453186
3,улица Рихарда Зорге,404130,48.8025966,44.7437114
5,улица Рихарда Зорге,404130,48.8022407,44.7441357
38,Коммунистическая улица,404130,48.8009436,44.7470833
32,Коммунистическая улица,404130,48.8013196,44.7482093
12,улица Пушкина,404130,48.8007103,44.7517692
38,улица Свердлова,404130,48.7991504,44.7491086
36 к1,улица Свердлова,404130,48.7994288,44.7508366
12А,улица Пушкина,404130,48.8004903,44.7532277
13А,улица Пушкина,404130,48.8026201,44.7488154
25А,Коммунистическая улица,404130,48.8003987,44.7487802
25,Коммунистическая улица,404130,48.7996845,44.7482550
36,улица Свердлова,404130,48.7990670,44.7510822
12 к4,улица Пушкина,404130,48.8009624,44.7497411
12 к6,улица Пушкина,404130,48.8004545,44.7502774
30,улица Свердлова,404130,48.7997692,44.7534880
12 к3,улица Пушкина,404130,48.8012192,44.7492726
12 к5,улица Пушкина,404130,48.8007698,44.7500292
12Б,улица Пушкина,404130,48.8009351,44.7513718
10Г,улица Пушкина,404130,48.8013402,44.7498684
12 к1,улица Пушкина,404130,48.8014042,44.7505539
12А к1,улица Пушкина,404130,48.8002957,44.7542781
5,улица Пушкина,404130,48.8032903,44.7462526
11,улица Пушкина,404130,48.8031496,44.7476082
14,улица Карла Маркса,404130,48.8043521,44.7463360
1,улица Пушкина,404130,48.8037117,44.7453412
15,Комсомольская улица,404130,48.8045540,44.7453917
16,улица Карла Маркса,404130,48.8047167,44.7468258
22,улица Карла Маркса,404130,48.8038243,44.7480871
9,улица Пушкина,404130,48.8030928,44.7469045
20,улица Карла Маркса,404130,48.8042944,44.7481925
3,улица Пушкина,404130,48.8036825,44.7458620
7,улица Пушкина,404130,48.8035252,44.7468166
24,Коммунистическая улица,404130,48.8033081,44.7488138
18,улица Карла Маркса,404130,48.8042263,44.7473127
14,Комсомольская улица,404130,48.8061940,44.7457161
45,улица Карла Маркса,404130,48.8058910,44.7451350
3,Камская улица,404130,48.8062878,44.7447078
12,Комсомольская улица,404130,48.8066909,44.7460559
16,Комсомольская улица,404130,48.8056346,44.7452631
43,улица Карла Маркса,404130,48.8058437,44.7445577
1,Камская улица,404130,48.8068906,44.7451327
16,Коммунистическая улица,404130,48.8050051,44.7500098
48,улица 19-го Партсъезда,404130,48.8060983,44.7491089
13,Комсомольская улица,404130,48.8056946,44.7461746
18,Коммунистическая улица,404130,48.8053057,44.7489686
53,улица Карла Маркса,404130,48.8057484,44.7475737
9,Комсомольская улица,404130,48.8064945,44.7467372
50,улица 19-го Партсъезда,404130,48.8058480,44.7499282
44,улица 19-го Партсъезда,404130,48.8063474,44.7482990
59,улица Карла Маркса,404130,48.8044832,44.7489487
55,улица Карла Маркса,404130,48.8049466,44.7478118
57,улица Карла Маркса,404130,48.8048235,44.7485150
46,улица 19-го Партсъезда,404130,48.8059044,44.7484786
11,Комсомольская улица,404130,48.8060944,44.7464587
14,Коммунистическая улица,404130,48.8054044,44.7502896
42,улица 19-го Партсъезда,404130,48.8065989,44.7474885
20,Коммунистическая улица,404130,48.8045961,44.7497223
49,улица Карла Маркса,404130,48.8052242,44.7465473
29,улица Пушкина,404122,48.8009413,44.7539599
30,улица Карла Маркса,404122,48.8031417,44.7519656
21,Коммунистическая улица,404122,48.8028690,44.7502357
17,улица Пушкина,404122,48.8019532,44.7506673
23,улица Пушкина,404122,48.8015410,44.7523766
32,улица Карла Маркса,404122,48.8028229,44.7522615
46/24,улица Карла Маркса,404122,48.8018395,44.7557022
21,улица Пушкина,404122,48.8016991,44.7514882
44,улица Карла Маркса,404122,48.8019218,44.7549181
25,улица Пушкина,404122,48.8011919,44.7531429
36,улица Карла Маркса,404122,48.8024811,44.7530932
19,улица Пушкина,404122,48.8023240,44.7513460
28,улица Карла Маркса,404122,48.8031109,44.7512031
26,улица Свердлова,404122,48.8013217,44.7553092
34,улица Карла Маркса,404122,48.8024475,44.7520042
20,улица Свердлова,404122,48.8029933,44.7564849
71,улица Карла Маркса,404122,48.8026701,44.7548674
11,Рабоче-Крестьянская улица,404122,48.8039410,44.7550859
17,Рабоче-Крестьянская улица,404122,48.8030806,44.7549979
64,улица 19-го Партсъезда,404122,48.8038762,44.7563146
22,улица Свердлова,404122,48.8025789,44.7561996
15,Рабоче-Крестьянская улица,404122,48.8033717,44.7553034
18,улица Свердлова,404122,48.8034202,44.7567803
13,Рабоче-Крестьянская улица,404122,48.8036996,44.7554419
19,Рабоче-Крестьянская улица,404122,48.8031100,44.7544917
73,улица Карла Маркса,404122,48.8024180,44.7556826
62,улица 19-го Партсъезда,404122,48.8040663,44.7557022
15,Коммунистическая улица,404122,48.8045809,44.7514542
13/54,Коммунистическая улица,404122,48.8051377,44.7521277
22,Рабоче-Крестьянская улица,404122,48.8036008,44.7528161
17/63,Коммунистическая улица,404122,48.8038696,44.7512326
14,Рабоче-Крестьянская улица,404122,48.8044707,44.7534245
16,Рабоче-Крестьянская улица,404122,48.8044752,44.7529093
56,улица 19-го Партсъезда,404122,48.8049147,44.7530706
18,Рабоче-Крестьянская улица,404122,48.8041778,44.7526311
65,улица Карла Маркса,404122,48.8035170,44.7520684
20,Рабоче-Крестьянская улица,404122,48.8038527,44.7524812
83,улица 19-го Партсъезда,404122,48.8043021,44.7564076
8,улица Свердлова,404122,48.8050148,44.7578859
85/14,улица 19-го Партсъезда,404122,48.8041045,44.7571930
92,улица Горького,404122,48.8056203,44.7574427
88,улица Горького,404122,48.8053654,44.7563706
84,улица Горького,404122,48.8058635,44.7565819
90,улица Горького,404122,48.8051705,44.7569954
10,улица Свердлова,404122,48.8047193,44.7576779
81,улица 19-го Партсъезда,404122,48.8047714,44.7567449
12,улица Свердлова,404122,48.8044305,44.7574892
75/9,улица 19-го Партсъезда,404122,48.8047666,44.7551154
77,улица 19-го Партсъезда,404122,48.8044873,44.7557288
79,улица 19-го Партсъезда,404122,48.8049659,44.7561013
86,улица Горького,404122,48.8055437,44.7568809
3,Рабоче-Крестьянская улица,404122,48.8057266,44.7556155
94/6,улица Горького,404122,48.8053687,44.7580373
69,улица 19-го Партсъезда,404122,48.8054856,44.7534675
4,Рабоче-Крестьянская улица,404122,48.8058894,44.7550037
5,Коммунистическая улица,404122,48.8064901,44.7527993
78,улица Горького,404122,48.8063820,44.7546738
67,улица 19-го Партсъезда,404122,48.8053856,44.7528408
7,Коммунистическая улица,404122,48.8060663,44.7533428
71,улица 19-го Партсъезда,404122,48.8050995,44.7537576
74,улица Горького,404122,48.8066568,44.7537598
9,Коммунистическая улица,404122,48.8060450,44.7524988
80/2,улица Горького,404122,48.8061939,44.7553281
10,Рабоче-Крестьянская улица,404122,48.8053306,44.7545988
35А,улица Горького,404122,48.8065996,44.7568743
29,улица Горького,404122,48.8076139,44.7550375
31,улица Горького,404122,48.8071959,44.7558989
33,улица Горького,404122,48.8068702,44.7566963
27,улица Горького,404122,48.8073518,44.7541745
26А,улица Кирова,404122,48.8073069,44.7580170
24,улица Кирова,404122,48.8078006,44.7564534
35,улица Горького,404122,48.8063153,44.7575484
37,улица Горького,404122,48.8062066,44.7583758
22,улица Кирова,404122,48.8082953,44.7547592
64,улица Горького,404130,48.8075073,44.7501641
52,улица Горького,404130,48.8083237,44.7487427
68,улица Горького,404130,48.8075723,44.7511011
70,улица Горького,404130,48.8073767,44.7516767
60,улица Горького,404130,48.8073623,44.7495172
3,Комсомольская улица,404130,48.8080077,44.7478214
57,улица 19-го Партсъезда,404130,48.8068412,44.7491443
55,улица 19-го Партсъезда,404130,48.8069068,44.7481679
50/1,улица Горького,404130,48.8084101,44.7481062
62,улица Горького,404130,48.8078359,44.7502561
53,улица 19-го Партсъезда,404130,48.8071706,44.7478203
66,улица Горького,404130,48.8073282,44.7507617
10,Коммунистическая улица,404130,48.8064949,44.7510544
56,улица Горького,404130,48.8077837,44.7492523
5,Комсомольская улица,404130,48.8075857,44.7475278
61,улица 19-го Партсъезда,404130,48.8063973,44.7503133
58,улица Горького,404130,48.8080382,44.7495821
63/12,улица 19-го Партсъезда,404130,48.8061144,44.7506425
6,Коммунистическая улица,404130,48.8069120,44.7513593
54,улица Горького,404130,48.8079655,44.7486613
8А,Коммунистическая улица,404130,48.8067889,44.7505004
59,улица 19-го Партсъезда,404130,48.8064006,44.7497860
37,улица 19-го Партсъезда,404130,48.8083739,44.7431171
43,улица 19-го Партсъезда,404130,48.8083072,44.7449724
41,улица 19-го Партсъезда,404130,48.8080966,44.7442849
34,улица Горького,404130,48.8090319,44.7448148
47,улица 19-го Партсъезда,404130,48.8076016,44.7457172
49,улица 19-го Партсъезда,404130,48.8074211,44.7462450
44,улица Горького,404130,48.8083448,44.7458726
4,Комсомольская улица,404130,48.8083634,44.7469623
42,улица Горького,404130,48.8086876,44.7459168
46,улица Горького,404130,48.8089457,44.7466187
36,улица Горького,404130,48.8087765,44.7444585
48,улица Горького,404130,48.8087766,44.7472941
40,улица Горького,404130,48.8091427,44.7459842
6,Комсомольская улица,404130,48.8081604,44.7466035
30,улица Горького,404130,48.8097525,44.7441147
45,улица 19-го Партсъезда,404130,48.8078516,44.7451429
39,улица 19-го Партсъезда,404130,48.8082313,44.7436724
8,Комсомольская улица,404130,48.8078055,44.7465727
32,улица Горького,404130,48.8095473,44.7446858
38,улица Горького,404130,48.8093359,44.7453001
3,Ленинградская улица,404130,48.8091151,44.7434581
4,Ленинградская улица,404130,48.8095632,44.7428236
16,улица Горького,404130,48.8109671,44.7402024
18,улица Горького,404130,48.8108099,44.7406505
33,улица 19-го Партсъезда,404130,48.8089567,44.7416417
24,улица Горького,404130,48.8103468,44.7419718
26,улица Горького,404130,48.8102013,44.7426352
31,улица 19-го Партсъезда,404130,48.8093694,44.7415222
6,Ленинградская улица,404130,48.8091591,44.7425332
5,улица Куйбышева,404130,48.8101932,44.7399982
3,улица Куйбышева,404130,48.8104948,44.7398225
29,улица 19-го Партсъезда,404130,48.8091706,44.7409428
35,улица 19-го Партсъезда,404130,48.8087157,44.7420159
20,улица Горького,404130,48.8105408,44.7412451
7,улица Куйбышева,404130,48.8101103,44.7394911
21,улица 19-го Партсъезда,404130,48.8095390,44.7393089
25,улица 19-го Партсъезда,404130,48.8097154,44.7403985
23,улица 19-го Партсъезда,404130,48.8095067,44.7398291
22,улица Горького,404130,48.8100784,44.7413381
28,улица Горького,404130,48.8100230,44.7431439
27,улица 19-го Партсъезда,404130,48.8093019,44.7405151
7,улица Логинова,404130,48.8113882,44.7360659
3,улица Логинова,404130,48.8119639,44.7356240
2,улица Горького,404130,48.8122495,44.7360182
13,улица 19-го Партсъезда,404130,48.8105211,44.7375380
10,улица Горького,404130,48.8116450,44.7379871
9,улица Логинова,404130,48.8112625,44.7351517
9,улица 19-го Партсъезда,404130,48.8110201,44.7370985
4,улица Горького,404130,48.8120876,44.7365648
6,улица Горького,404130,48.8118736,44.7371216
5,улица 19-го Партсъезда,404130,48.8106224,44.7358768
8,улица Куйбышева,404130,48.8102222,44.7385720
7,улица 19-го Партсъезда,404130,48.8109253,44.7362470
1,улица 19-го Партсъезда,404130,48.8108581,44.7351013
4,улица Куйбышева,404130,48.8109229,44.7391636
5,улица Логинова,404130,48.8116079,44.7353720
15,улица 19-го Партсъезда,404130,48.8101606,44.7374067
3,улица 19-го Партсъезда,404130,48.8109457,44.7355781
11,улица 19-го Партсъезда,404130,48.8105229,44.7366850
19,улица 19-го Партсъезда,404130,48.8098821,44.7382162
17,улица 19-го Партсъезда,404130,48.8102069,44.7379648
12,улица Горького,404130,48.8114183,44.7386398
8,улица Горького,404130,48.8114157,44.7373620
20,улица Кирова,404122,48.8090865,44.7521960
19,улица Горького,404122,48.8094198,44.7492292
16,улица Кирова,404122,48.8102292,44.7486112
21,улица Горького,404122,48.8089016,44.7500636
2,Коммунистическая улица,404122,48.8085001,44.7524836
17,улица Горького,404122,48.8091685,44.7483908
25,улица Горького,404122,48.8081722,44.7514949
18,улица Кирова,404122,48.8096194,44.7505151
15,улица Горького,404122,48.8097875,44.7475837
23,улица Горького,404122,48.8087718,44.7512136
14А,улица Кирова,404122,48.8109505,44.7462064
10,улица Кирова,404122,48.8112696,44.7435878
12,улица Кирова,404122,48.8116216,44.7440527
3,улица Горького,404122,48.8120121,44.7403934
8,улица Кирова,404122,48.8121419,44.7423948
13,улица Горького,404122,48.8101063,44.7455995
6,улица Кирова,404122,48.8125297,44.7410958
13А,улица Горького,404122,48.8104743,44.7460827
7,улица Горького,404122,48.8115543,44.7418044
1,улица Горького,404122,48.8120981,44.7390932
14,улица Кирова,404122,48.8110028,44.7448182
5,улица Горького,404122,48.8117960,44.7411251
11,улица Горького,404122,48.8107956,44.7435344
9,улица Горького,404122,48.8114751,44.7424612
9,улица Кирова,404122,48.8131836,44.7421297
3А,улица Кирова,404122,48.8139187,44.7397517
5,улица Кирова,404122,48.8135545,44.7409406
9А,улица Кирова,404122,48.8129410,44.7426916
11В,улица Кирова,404122,48.8122412,44.7439282
13В,улица Кирова,404122,48.8115127,44.7473264
11А,улица Кирова,404122,48.8122745,44.7448507
13Б,улица Кирова,404122,48.8117614,44.7465189
11,улица Кирова,404122,48.8129496,44.7435527
13,улица Кирова,404122,48.8120034,44.7457100
11Б,улица Кирова,404122,48.8125246,44.7440470
19ст1,улица Кирова,404122,48.8105198,44.7506348
19,улица Кирова,404122,48.8101891,44.7515025
17,улица Кирова,404122,48.8108533,44.7491184
64,улица Карбышева,404120,48.7828834,44.7652950
137,проспект Ленина,404120,48.7751379,44.7663378
86/1,улица Карбышева,404120,48.7754124,44.7706308
2Б/2,проспект Ленина,404130,48.8182823,44.7182482
2Б/1,проспект Ленина,404130,48.8184662,44.7182881
25,улица Кирова,404122,48.8087667,44.7555969
19Б,улица Кирова,404122,48.8098463,44.7524124
21,улица Кирова,404122,48.8092782,44.7548948
27,улица Кирова,404122,48.8081017,44.7577515
39,улица Горького,404130,48.8056205,44.7601757
41,улица Горького,404130,48.8062774,44.7622501
70,улица 19-го Партсъезда,404130,48.8023242,44.7603115
52,улица Карла Маркса,404130,48.8009316,44.7591908
3,улица Свердлова,404121,48.7994266,44.7571548
5А,улица Карбышева,404121,48.7972396,44.7567811
1,улица Карбышева,404121,48.7993438,44.7556090
3А,улица Карбышева,404121,48.7981133,44.7562433
1А,улица Карбышева,404121,48.7985284,44.7562621
24,улица Пушкина,404121,48.7949938,44.7652267
22,бульвар Профсоюзов,404102,48.7772838,44.7796979
18,бульвар Профсоюзов,404102,48.7764986,44.7796312
14,бульвар Профсоюзов,404102,48.7767962,44.7782565
12,бульвар Профсоюзов,404102,48.7762845,44.7786622
24,бульвар Профсоюзов,404102,48.7783556,44.7789811
8,бульвар Профсоюзов,404102,48.7749865,44.7790388
57,улица Карбышева,404102,48.7738218,44.7779690
14А,Пионерская улица,404102,48.7799490,44.7871756
27,улица Нариманова,404125,48.7803368,44.7961857
16,улица Нариманова,4041026,48.7809732,44.8024581
35,улица Мира,404126,48.7774521,44.7998251
12,улица Нариманова,404126,48.7800706,44.8011044
22,улица Нариманова,404126,48.7802632,44.8031624
20,улица Нариманова,404126,48.7798370,44.8025984
4А,улица Нариманова,404126,48.7792679,44.8001870
14,улица Нариманова,404126,48.7804460,44.8017689
12А,улица Нариманова,404126,48.7797622,44.8006180
43,улица Мира,404126,48.7765062,44.8010253
126,улица Пушкина,404126,48.7791589,44.8064828
132,улица Пушкина,404126,48.7782038,44.8062295
41,улица Александрова,404126,48.7776530,44.8068426
128,улица Пушкина,404126,48.7785111,44.8055278
134,улица Пушкина,404126,48.7791432,44.8073627
45,улица Мира,404126,48.7769613,44.8000516
130,улица Пушкина,404126,48.7787329,44.8069151
33,улица Дружбы,404127,48.7745938,44.7928840
11А,улица Свердлова,404110,48.7985143,44.7529510
24,Пионерская улица,404125,48.7811657,44.7933062
43А,улица Карбышева,404121,48.7881709,44.7648420
10А,улица Машиностроителей,404121,48.7822066,44.7724044
1Б,улица Бульвар-Профсоюзов,404102,48.7761826,44.7738849
47А/8,улица Карбышева,404102,48.7776521,44.7741122
47Г,улица Карбышева,404102,48.7778895,44.7746839
47А/5,улица Карбышева,404102,48.7771384,44.7736382
9,бульвар Профсоюзов,404102,48.7783566,44.7772047
9Б,бульвар Профсоюзов,404102,48.7788110,44.7783547
9А,бульвар Профсоюзов,404102,48.7789509,44.7780569
63А,улица Дружбы,404105,48.7682233,44.8016840
2,улица Александрова,404105,48.7693567,44.7975047
25,Оломоуцкая улица,404105,48.7661492,44.8066702
21В,Оломоуцкая улица,404105,48.7661270,44.8051548
22,улица Александрова,404131,48.7747386,44.8064254
20,улица Александрова,404131,48.7745036,44.8047071
57,улица Александрова,404131,48.7732151,44.8043389
55,улица Мира,404131,48.7738599,44.8045174
28,улица Александрова,404131,48.7756563,44.8071752
36,улица Александрова,404131,48.7768941,44.8094469
93А,улица Пушкина,404131,48.7770596,44.8137129
4,Набережная улица,404110,48.7962572,44.7394032
23Б,улица Автодорога 7,404103,48.8156114,44.8275111
23,улица Автодорога 7,404103,48.8153545,44.8283779
23А,улица Автодорога 7,404103,48.8150050,44.8293036
3,Луганская улица,404124,48.9043273,44.7764289
1,Пионерская улица,404102,48.7732867,44.7809460
63,улица Александрова,404103,48.8105155,44.8498838
36Б,улица Мира,404127,48.7766256,44.7971237
38А,Пионерская улица,404125,48.7802164,44.7900479
18,улица Нариманова,4041026,48.7813691,44.8011410
122,улица Пушкина,404126,48.7800165,44.8042770
39,улица Александрова,404126,48.7770984,44.8055564
118,улица Пушкина,4041026,48.7814530,44.8028638
43,улица Александрова,404126,48.7784486,44.8080311
383,проспект Ленина,404133,48.7528186,44.7987169
367А,проспект Ленина,404133,48.7542662,44.7957395
381,проспект Ленина,404133,48.7531759,44.7980446
367,проспект Ленина,404133,48.7547599,44.7948854
369,проспект Ленина,404133,48.7535902,44.7972157
359А,проспект Ленина,404133,48.7575691,44.7889335
159,улица Мира,404101,48.7536379,44.8283076
70,улица Волжской Военной Флотилии,404101,48.7544077,44.8252351
72А,улица Волжской Военной Флотилии,404101,48.7546771,44.8249981
72,улица Волжской Военной Флотилии,404101,48.7548203,44.8254491
1Г,улица имени Ф.Г. Логинова,404130,48.8168536,44.7402998
314,проспект Ленина,404133,48.7542499,44.7929413
302В,проспект Ленина,404106,48.7644744,44.7831969
4Д,улица Логинова,404122,48.8137215,44.7351516
4Г,улица имени Ф.Г. Логинова,404122,48.8151234,44.7360881
6А,улица имени Ф.Г. Логинова,404122,48.8153489,44.7366829
2А,улица имени Ф.Г. Логинова,404122,48.8155297,44.7347795
4,улица имени Ф. Г. Логинова,404122,48.8141152,44.7358627
1Б,улица Горького,404122,48.8136279,44.7341404
168,улица Пушкина,404109,48.7653805,44.8213293
93И,улица Пушкина,404131,48.7709209,44.8172395
95Г,улица Пушкина,404109,48.7703351,44.8179359
93К,улица Пушкина,404131,48.7718564,44.8163358
40Б,улица Александрова,404131,48.7789650,44.8168993
83,улица Пушкина,404131,48.7788501,44.8153056
73Б,улица Пушкина,404126,48.7824269,44.8098833
45,улица Пушкина,404112,48.7898114,44.7902347
45/1,улица Пушкина,404112,48.7917824,44.7856531
67Б,улица Пушкина,404126,48.7862289,44.8153949
59А,улица Пушкина,404126,48.7884921,44.8077573
87Г,улица Пушкина,404109,48.7730862,44.8218052
87Е,улица Пушкина,404109,48.7729977,44.8237502
87Ж,улица Пушкина,404109,48.7739306,44.8231897
87,улица Пушкина,404109,48.7739518,44.8220008
85,улица Пушкина,404131,48.7751914,44.8184038
87Д,улица Пушкина,404109,48.7734475,44.8222464
87З,улица Пушкина,404109,48.7736826,44.8248313
111А,улица Пушкина,404118,48.7633101,44.8284539
113Г с1,улица Пушкина,404118,48.7596729,44.8324929
113Г с2,улица Пушкина,404118,48.7603222,44.8319387
113Г,улица Пушкина,404118,48.7599800,44.8321565
117А,улица Пушкина,404101,48.7579238,44.8329143
111Б,улица Пушкина,404118,48.7612340,44.8311020
326 к1,проспект Ленина,404133,48.7502049,44.7979001
66А,улица 40 лет Победы,404118,48.7607943,44.8165700
105 с2,улица Пушкина,404118,48.7661538,44.8297809
109,улица Пушкина,404118,48.7646608,44.8334574
105 с1,улица Пушкина,404118,48.7662583,44.8291661
48Б,улица Александрова,404119,48.7853951,44.8364434
48Л,улица Александрова,404119,48.7848096,44.8279217
45Т/1,улица Пушкина,404112,48.7931739,44.7976115
45Т,улица Пушкина,404112,48.7950539,44.7921355
51,улица Александрова,404130,48.7861077,44.8239988
44,улица имени Ф. Г. Логинова,404119,48.8012986,44.8186171
6Б,улица Автодорога 7,404119,48.8013656,44.7907069
15А,улица Автодорога 7,404119,48.8057939,44.7939809
15Б,улица Автодорога 7,404119,48.8052050,44.7928049
22,улица имени Ф. Г. Логинова,404119,48.8101238,44.8002461
31,улица Автодорога 6,404119,48.8123713,44.8009567
31В,улица имени Ф. Г. Логинова,404119,48.8130406,44.7988613
33,улица Автодорога 6,404119,48.8112575,44.8011498
24А,улица Автодорога 6,404119,48.8094201,44.8009649
9А,улица имени Ф. Г. Логинова,404130,48.8155656,44.7953184
2В,Набережная улица,404130,48.8054197,44.7259624
60В,улица Александрова,404103,48.7946723,44.8457425
21,улица Автодорога 7,404103,48.8168228,44.8223623
8,улица Автодорога 7,404119,48.8096897,44.8039897
10 к1,улица Автодорога 7,404119,48.8118325,44.8096488
10,улица Автодорога 7,404119,48.8120251,44.8087836
3,улица 7-я Автодорога,404130,48.7975890,44.7822074
18 к31А,1-й Индустриальный проезд,404130,48.8002972,44.7750740
18 к18,1-й Индустриальный проезд,404130,48.8000767,44.7809709
18 к17,1-й Индустриальный проезд,404130,48.8006338,44.7780671
18 к33,1-й Индустриальный проезд,404130,48.8026628,44.7727133
18 к21,1-й Индустриальный проезд,404130,48.8012607,44.7760920
18 к15,1-й Индустриальный проезд,404130,48.8002210,44.7793134
18 к3,1-й Индустриальный проезд,404130,48.8011507,44.7790056
18 к16,1-й Индустриальный проезд,404130,48.7997406,44.7820121
1 к1,улица Автодорога 7,404130,48.7958975,44.7819302
18 к28,1-й Индустриальный проезд,404130,48.8016284,44.7763163
18 к1,1-й Индустриальный проезд,404130,48.8008522,44.7799643
18 к22,1-й Индустриальный проезд,404130,48.8008253,44.7787599
18 к13,1-й Индустриальный проезд,404130,48.7997875,44.7806391
18 к9,1-й Индустриальный проезд,404130,48.8019566,44.7765713
18 к7,1-й Индустриальный проезд,404130,48.8016908,44.7773830
18 к37,2-й Индустриальный проезд,404130,48.8014340,44.7711938
18 к35,1-й Индустриальный проезд,404130,48.8023190,44.7723474
18 к20,1-й Индустриальный проезд,404130,48.8005502,44.7796146
18 к24,1-й Индустриальный проезд,404130,48.8010850,44.7779347
18 к31,1-й Индустриальный проезд,404130,48.8005172,44.7758487
18 к9А,1-й Индустриальный проезд,404130,48.8023532,44.7757986
18 к11,1-й Индустриальный проезд,404130,48.7994069,44.7818025
18 к30,1-й Индустриальный проезд,404130,48.8020790,44.7749258
18 к26,1-й Индустриальный проезд,404130,48.8013635,44.7771384
18Б к5,1-й Индустриальный проезд,404130,48.8025729,44.7704518
18Б,1-й Индустриальный проезд,404130,48.8021796,44.7702115
45А,улица Горького,404130,48.8044602,44.7684150
18Б к2,1-й Индустриальный проезд,404130,48.8027753,44.7710161
18Б к6,1-й Индустриальный проезд,404130,48.8025641,44.7701630
18Б к4,1-й Индустриальный проезд,404130,48.8023807,44.7707249
18Б к1,1-й Индустриальный проезд,404130,48.8026629,44.7707422
45 к1,улица Горького,404130,48.8046463,44.7671110
45,улица Горького,404130,48.8047758,44.7677699
3В,2-й Индустриальный проезд,404130,48.7993314,44.7716209
1Б,2-й Индустриальный проезд,404130,48.7997130,44.7700865
3А,2-й Индустриальный проезд,404130,48.7987888,44.7731239
18,2-й Индустриальный проезд,404130,48.8017050,44.7700715
49,улица Горького,404130,48.8029237,44.7680297
16А,1-й Индустриальный проезд,404130,48.7999124,44.7693594
3,2-й Индустриальный проезд,404130,48.7976749,44.7774189
3Б,2-й Индустриальный проезд,404130,48.7998432,44.7738813
49А,улица Горького,404130,48.8031316,44.7678390
1А,улица Автодорога 7,404130,48.7942623,44.7806054
2А,Складской переулок,404130,48.7934669,44.7784612
43,улица Пушкина,404130,48.7939908,44.7784937
2,Складской переулок,404130,48.7963296,44.7808108
14,1-й Индустриальный проезд,404130,48.7986356,44.7685650
4Ж,2-й Индустриальный проезд,404130,48.7986187,44.7705314
4,2-й Индустриальный проезд,404130,48.7983643,44.7711355
39Г/4,улица Пушкина,404130,48.7960714,44.7699173
4Д,2-й Индустриальный проезд,404130,48.7980063,44.7727113
39 с30,улица Пушкина,404130,48.7973279,44.7714062
8,2-й Индустриальный проезд,404130,48.7958984,44.7775960
3А,Складской переулок,404130,48.7947800,44.7783818
39 с16А,улица Пушкина,404130,48.7966227,44.7740340
39 с18,улица Пушкина,404112,48.7954770,44.7764310
39 с13,улица Пушкина,404112,48.7942446,44.7763415
39 с22,улица Пушкина,404112,48.7962653,44.7731089
39 с17,улица Пушкина,404112,48.7958389,44.7766425
39 с9,улица Пушкина,404112,48.7949046,44.7761486
8А,2-й Индустриальный проезд,404130,48.7960848,44.7785755
39 с15,улица Пушкина,404112,48.7962792,44.7760990
39 с8,улица Пушкина,404112,48.7940135,44.7760669
39 с26,улица Пушкина,404130,48.7968615,44.7712748
39С,улица Пушкина,улица Пушкина,48.7947306,44.7749092
39 с13/1,улица Пушкина,404112,48.7944005,44.7768274
39Е,улица Пушкина,404112,48.7945887,44.7775605
39 с11,улица Пушкина,404112,48.7953226,44.7749903
39Р,улица Пушкина,404112,48.7944578,44.7781966
39 с24,улица Пушкина,404112,48.7965150,44.7723094
39 с1,улица Пушкина,404130,48.7964642,44.7710116
39П,улица Пушкина,404112,48.7952216,44.7733862
39 с21,улица Пушкина,404112,48.7956790,44.7738215
39 с19,улица Пушкина,404112,48.7957392,44.7756589
39 с7/1,улица Пушкина,404112,48.7965158,44.7732900
39 с5,улица Пушкина,404112,48.7957060,44.7720298
39 с14,улица Пушкина,404112,48.7962307,44.7741387
4А к1,2-й Индустриальный проезд,404130,48.7975267,44.7736266
4А,2-й Индустриальный проезд,404130,48.7967761,44.7725061
39 с16Б,улица Пушкина,404112,48.7962302,44.7752665
39 с20,улица Пушкина,404112,48.7959811,44.7739929
98В,улица Горького,404130,48.8032113,44.7639056
7,Дорожная улица,404130,48.8032350,44.7618506
100А,улица Горького,404130,48.8020420,44.7664849
35А к1,улица Пушкина,404130,48.8002914,44.7668535
3,Дорожная улица,404130,48.8021971,44.7612788
102А,улица Горького,404130,48.8023484,44.7680998
7А,Дорожная улица,404130,48.8028321,44.7615258
3А,Дорожная улица,404130,48.8018967,44.7610942
98Г,улица Горького,404130,48.8027556,44.7629154
102,улица Горького,404130,48.8021148,44.7672077
100,улица Горького,404130,48.8029319,44.7660640
35А,улица Пушкина,404130,48.8005601,44.7677020
41В,улица Горького,404130,48.8046026,44.7637971
19,улица Автодорога 9,404103,48.8204923,44.8186762
16,улица им Ф.Г.Логинова,404130,48.8146350,44.7778500
10,улица имени Ф. Г. Логинова,404130,48.8168579,44.7722955
68,улица Александрова,404103,48.8126729,44.8591188
74,улица Александрова,404103,48.8156925,44.8636239
76,улица Александрова,404103,48.8181155,44.8632559
78Г,улица Александрова,404103,48.8201848,44.8656692
33,улица Автодорога 7,404103,48.8272442,44.8355014
86Б,улица Александрова,404103,48.8271096,44.8691757
88,улица Александрова,404103,48.8285587,44.8700268
86,улица Александрова,404103,48.8239573,44.8658036
10/1,улица имени Ф. Г. Логинова,404130,48.8168224,44.7738739
12Г,улица имени Ф. Г. Логинова,404130,48.8166988,44.7778615
12,улица имени Ф. Г. Логинова,404130,48.8164990,44.7768367
20Б,улица имени Ф. Г. Логинова,404130,48.8168946,44.7798739
67,улица Александрова,404103,48.8144270,44.8558347
69Б,улица Александрова,404103,48.8172433,44.8571887
69,улица Александрова,404103,48.8166683,44.8586016
79,улица Александрова,404103,48.8214153,44.8603336
36,улица Автодорога 7,404103,48.8107089,44.8361341
26,улица Автодорога 7,404103,48.8120421,44.8330530
24,улица Автодорога 7,404103,48.8121543,44.8314293
32,улица Автодорога 7,404103,48.8105643,44.8375326
36 к1,улица Автодорога 7,404103,48.8114256,44.8352296
30,улица Автодорога 7,404103,48.8109915,44.8345641
24А,улица Автодорога 7,404103,48.8122463,44.8321093
26А,улица Автодорога 7,404103,48.8117378,44.8340975
30А,улица Автодорога 7,404103,48.8102172,44.8348928
19Г,улица Кирова,404122,48.8096431,44.7530699
100Г,улица Александрова,404117,48.8391325,44.8467147
100В,улица Александрова,404117,48.8404710,44.8441544
6/6,улица Автодорога 6,404130,48.8125026,44.7593929
6Б,улица имени Ф. Г. Логинова,404130,48.8166950,44.7582037
6 к1,улица Автодорога 6,404130,48.8120370,44.7631699
3,Портовая улица,404130,48.8173188,44.7472426
6 с6В,улица имени Ф. Г. Логинова,404130,48.8165510,44.7622261
18 к1,улица Автодорога 6,404130,48.8124878,44.7659986
18,улица Автодорога 6,404130,48.8115151,44.7651937
6,Портовая улица,404130,48.8207984,44.7341177
1,1-й Базовый проезд,404130,48.8216776,44.7365023
3,1-й Базовый проезд,404130,48.8227219,44.7405852
2,Портовая улица,404130,48.8202199,44.7363694
3,2-й Базовый проезд,404130,48.8240833,44.7395736
5,1-й Базовый проезд,404130,48.8235564,44.7435891
21/2,улица имени Ф. Г. Логинова,404130,48.8195926,44.7506513
5,2-й Базовый проезд,404130,48.8236283,44.7385235
9,Портовая улица,404130,48.8217051,44.7265186
13,Портовая улица,404130,48.8226638,44.7301978
13Б,Портовая улица,404130,48.8230723,44.7276088
13В,Портовая улица,404130,48.8228448,44.7293219
12,улица Карла Маркса,404130,48.8049794,44.7460057
16/3,Портовая улица,404130,48.8242387,44.7172162
20А,Портовая улица,404130,48.8263656,44.7127915
15,Портовая улица,404130,48.8231746,44.7175662
18,Портовая улица,404130,48.8260248,44.7149384
20,Портовая улица,404130,48.8267673,44.7119745
16/7 к2,Портовая улица,404130,48.8237478,44.7210351
14 к1,Портовая улица,404130,48.8245788,44.7282550
16/7,Портовая улица,404130,48.8242494,44.7195502
14,Портовая улица,404130,48.8252945,44.7269684
16/7 к1,Портовая улица,404130,48.8239456,44.7242974
16/1 к1,Портовая улица,404130,48.8272247,44.7335813
16/1,Портовая улица,404130,48.8276721,44.7348923
16/1 к2,Портовая улица,404130,48.8268936,44.7326013
23 к1,Молодёжная улица,404121,48.7954003,44.7610016
16А,улица Пушкина,404121,48.7977910,44.7613840
16А к2,улица Пушкина,404121,48.7972245,44.7624267
23,Молодёжная улица,404121,48.7951063,44.7612209
21 к1,Молодёжная улица,404121,48.7948018,44.7606420
18А,улица Пушкина,404121,48.7967891,44.7649043
5В,улица Карбышева,404121,48.7979049,44.7567708
21,Молодёжная улица,404121,48.7947356,44.7595704
18,улица Пушкина,404121,48.7956875,44.7629885
14,улица Пушкина,404130,48.7982462,44.7576586
24,улица Карла Маркса,404130,48.8040431,44.7491043
22,Коммунистическая улица,404130,48.8038286,44.7492789
26/13,Коммунистическая улица,404130,48.8027364,44.7481961
61А,улица Карла Маркса,404130,48.8041737,44.7498686
18Б,улица Пушкина,404121,48.7962759,44.7649616
40А,Гидростроевская улица,404113,48.7936493,44.6884254
126,улица Мира,404118,48.7578199,44.8159273
2е/1,Набережная улица,404130,48.8049758,44.7278772
2М,Набережная улица,404130,48.8022352,44.7246098
2г/1,Набережная улица,404130,48.8045475,44.7273550
2И,Набережная улица,404130,48.8009727,44.7260539
2И,Набережная улица,404130,48.8009223,44.7272396
2И,Набережная улица,404130,48.8030038,44.7241075
2Д,Набережная улица,404130,48.8056430,44.7236036
2Мс1,Набережная улица,404130,48.8019344,44.7252349
2д/1,Набережная улица,404130,48.8052151,44.7230445
2иСт1,Набережная улица,404130,48.8000907,44.7261450
2Мст2,Набережная улица,404130,48.8017749,44.7247439
2Г,Набережная улица,404130,48.8046543,44.7267499
2К,Набережная улица,404130,48.7985620,44.7287532
94Ж,проспект Ленина,404111,48.7787912,44.7568112
35 к2,улица Пушкина,404130,48.7979936,44.7636415
35Б,улица Пушкина,404130,48.7984706,44.7621379
92Г,проспект Ленина,404111,48.7790966,44.7544343
92Б,проспект Ленина,404111,48.7796947,44.7546551
92В,проспект Ленина,404111,48.7797616,44.7542174
12Б,Набережная улица,404111,48.7850133,44.7440584
44А,улица Карбышева,404111,48.7888119,44.7621589
2А,Советская улица,404111,48.7902804,44.7536968
22А,улица Энгельса,404120,48.7882169,44.7614607
10А,улица Карла Маркса,404130,48.8063465,44.7405677
45,улица Карбышева,404121,48.7855023,44.7665660
36/1,улица Дружбы,404127,48.7712606,44.7889373
1В,улица Александрова,404127,48.7688785,44.7884754
10А,улица Карбышева,404110,48.7960856,44.7557917
11Б,улица Горького,404122,48.8110363,44.7426090
11В,улица Горького,404122,48.8104913,44.7443912
13Б,улица Горького,404122,48.8098626,44.7465441
30,улица Автодорога 7,404103,48.8111895,44.8347143
35Л к1,улица Пушкина,404130,48.7985414,44.7659996
35И,улица Пушкина,404130,48.7982971,44.7658491
48В,проспект Ленина,404110,48.7972067,44.7456875
46А/1,проспект Ленина,404110,48.7981220,44.7450730
48Б,проспект Ленина,404110,48.7970441,44.7463071
106А,улица Пушкина,404125,48.7834531,44.7975637
43А,улица Александрова,404126,48.7783767,44.8075001
40А,улица Энгельса,404121,48.7908693,44.7759109
393,проспект Ленина,404133,48.7526259,44.8009494
397,проспект Ленина,404133,48.7520472,44.8020565
395,проспект Ленина,404133,48.7523349,44.8015118
138В,улица Карбышева,404133,48.7588651,44.7960337
82Б,Советская улица,404120,48.7817968,44.7593214
30А,Молодёжная улица,404121,48.7929498,44.7553090
14А к2,улица Космонавтов,404110,48.7955714,44.7527903
16Г,улица Космонавтов,404110,48.7954476,44.7538291
2А,бульвар Профсоюзов,404102,48.7755751,44.7752189
2А,бульвар Профсоюзов,404102,48.7757036,44.7752857
12А,Пионерская улица,404127,48.7769172,44.7888444
15Б,улица Нариманова,404125,48.7780770,44.7973832
45Б,улица Пушкина,404112,48.7874900,44.7963183
31А,улица Александрова,404126,48.7785239,44.8032846
26,улица Пушкина,404121,48.7941491,44.7670770
10А,улица Энгельса,404120,48.7872421,44.7569235
10/1,улица Энгельса,404120,48.7871959,44.7571081
10,улица Энгельса,404120,48.7870208,44.7569281
55 к3,Набережная улица,404110,48.7925408,44.7451610
55 к2,Набережная улица,404110,48.7930294,44.7449268
2А/1,улица имени Ф.Г. Логинова,404130,48.8110001,44.7341271
55 к1,Набережная улица,404110,48.7933201,44.7448692
2с1,Набережная улица,404130,48.7989523,44.7340603
2,Шоссейная улица,404130,48.8099181,44.7283709
1,Магистральная улица,404114,48.8421930,44.7765840
2А,улица Автодорога 6,404130,48.8177709,44.7406560
76,Оломоуцкая улица,404109,48.7674823,44.8166842
54,Оломоуцкая улица,404109,48.7661249,44.8143867
74Ж,улица Дружбы,404132,48.7572176,44.8063843
74А,Оломоуцкая улица,404109,48.7673113,44.8176019
369А,проспект Ленина,404133,48.7540439,44.7963680
74В,улица Дружбы,404132,48.7573124,44.8080470
61А,улица 40 лет Победы,404132,48.7609183,44.8135831
110,улица Мира,404132,48.7607531,44.8145068
74/3,улица Дружбы,404132,48.7577967,44.8074906
19А,улица Дружбы,404127,48.7751363,44.7891058
49,улица 87-й Гвардейской Дивизии,404118,48.7562446,44.8152168
33,улица 87-й Гвардейской Дивизии,404118,48.7536788,44.8100152
58Б,проспект Ленина,404110,48.7947635,44.7470780
56А,проспект Ленина,404110,48.7953497,44.7467663
74А,проспект Ленина,404111,48.7898426,44.7497814
74А/1,проспект Ленина,404111,48.7899546,44.7496917
76А,проспект Ленина,404111,48.7891812,44.7498044
33/1,улица Пушкина,404130,48.8001318,44.7581497
1А к1,Дорожная улица,404130,48.8002725,44.7601152
1А,Дорожная улица,404130,48.8003851,44.7597756
1,Дорожная улица,404130,48.7996433,44.7593068
35Е,улица Пушкина,404130,48.8001630,44.7631574
35Г,улица Пушкина,404130,48.8009654,44.7617958
96,улица Горького,404130,48.8041865,44.7592411
39 с2,улица Горького,404130,48.8062438,44.7611395
41Д,улица Горького,404130,48.8067305,44.7642829
19ст2,улица Кирова,404122,48.8108632,44.7504857
19/2,улица Кирова,404122,48.8107673,44.7518127
15,улица Кирова,404122,48.8115483,44.7491098
19ст3,улица Кирова,404122,48.8111473,44.7507686
94А,улица Пушкина,404104,48.7845998,44.7890273
27Б,улица Машиностроителей,404121,48.7840093,44.7725060
14,улица Машиностроителей,404102,48.7807129,44.7732053
47,улица Карбышева,404102,48.7788183,44.7693105
25А,улица Машиностроителей,404121,48.7860219,44.7740935
47Д,улица Карбышева,404102,48.7800292,44.7680770
68А,улица 19-го Партсъезда,404130,48.8027518,44.7595052
75,улица Карла Маркса,404130,48.8013748,44.7591124
27А,улица Горького,404122,48.8075259,44.7534740
75Б,улица 40 лет Победы,404109,48.7649405,44.8145010
2А/2,Набережная улица,404130,48.8000608,44.7365125
20Б,проспект Ленина,404130,48.8047944,44.7368339
45Н,улица Пушкина,404112,48.7903096,44.7883867
25Б,улица Горького,404122,48.8079560,44.7523587
8А,улица Свердлова,404130,48.8050803,44.7584037
15А,Молодёжная улица,404110,48.7940393,44.7527585
22А,Комсомольская улица,404130,48.8028251,44.7411802
3Д,улица Логинова,404122,48.8146993,44.7401410
3Б,улица Кирова,404122,48.8149117,44.7396262
7Г,улица Кирова,404122,48.8142569,44.7415760
3Г,улица Кирова,404122,48.8150378,44.7391148
3В,улица Кирова,404122,48.8136689,44.7391688
7,улица Кирова,404122,48.8141077,44.7421496
42Т,улица Мира,404127,48.7760902,44.7981893
2А,улица Дружбы,404102,48.7787151,44.7801156
2,улица Ворошилова,404106,48.7720097,44.7744616
255,проспект Ленина,404106,48.7685439,44.7770579
53Б,улица Мира,404131,48.7735925,44.8033475
2,улица Машиностроителей,404121,48.7885559,44.7694758
19Г/1,улица Кирова,404122,48.8097495,44.7529823
2Б,улица Логинова,404130,48.8118495,44.7332824
61Г,улица 40 лет Победы,404132,48.7611895,44.8144143
91Д,улица Карбышева,404127,48.7711268,44.7858031
107Г,проспект Ленина,404120,48.7795995,44.7571648
39Д,улица Пушкина,404112,48.7945476,44.7746825
15В,улица Автодорога 7,404119,48.8055236,44.7933193
41А,улица Мира,404126,48.7760851,44.7993575
361,проспект Ленина,404133,48.7560543,44.7935241
120,проспект Ленина,404120,48.7764419,44.7604076
120 к2,проспект Ленина,404120,48.7758081,44.7609021
38А,Гидростроевская улица,404113,48.7937638,44.6885499
308М,проспект Ленина,404133,48.7564582,44.7867510
35,улица Пушкина,404130,48.7984597,44.7630319
1,Набережная улица,404130,48.8075251,44.7295788
26,улица Циолковского,404130,48.8044531,44.7327563
24,улица Циолковского,404130,48.8047507,44.7333713
18,улица Циолковского,404130,48.8058949,44.7357219
1,улица Чайковского,404130,48.8080705,44.7333991
2,улица Карла Маркса,404130,48.8085441,44.7344856
13,проспект Ленина,404130,48.8064100,44.7364063
19,улица Логинова,404130,48.8098838,44.7331737
13,улица Логинова,404130,48.8105491,44.7344794
10,улица Циолковского,404130,48.8083465,44.7368402
2,улица Циолковского,404130,48.8096371,44.7375672
14,улица Горького,404130,48.8112878,44.7391133
1,улица Логинова,404130,48.8122665,44.7357951
10,улица Куйбышева,404130,48.8098584,44.7384519
5А,улица Горького,404122,48.8121424,44.7414541
9,улица Куйбышева,404130,48.8097256,44.7392395
1,улица Куйбышева,404130,48.8108786,44.7400396
2,Ленинградская улица,404130,48.8098663,44.7430335
8,Ленинградская улица,404130,48.8087737,44.7422964
15А,улица Кирова,404122,48.8112878,44.7496793
1,Ленинградская улица,404130,48.8097162,44.7438265
5,Ленинградская улица,404130,48.8085569,44.7430411
10,Комсомольская улица,404130,48.8074644,44.7465141
2,Комсомольская улица,404130,48.8085938,44.7473832
7/51,Комсомольская улица,404130,48.8071748,44.7473142
4,Коммунистическая улица,404130,48.8072190,44.7515630
15,улица Карла Маркса,404130,48.8077187,44.7384339
1,улица Циолковского,404130,48.8090958,44.7393066
22,Ленинградская улица,404130,48.8069419,44.7411917
10,Ленинградская улица,404130,48.8082395,44.7420855
7,Ленинградская улица,404130,48.8080412,44.7424688
15,Ленинградская улица,404130,48.8068617,44.7416769
2,Камская улица,404130,48.8073258,44.7449607
10,Камская улица,404130,48.8060548,44.7440515
36,улица 19-го Партсъезда,404130,48.8071737,44.7453335
38,улица 19-го Партсъезда,404130,48.8069134,44.7462179
47,улица Карла Маркса,404130,48.8054762,44.7460260
40,улица 19-го Партсъезда,404130,48.8067196,44.7468923
52,улица 19-го Партсъезда,404130,48.8056260,44.7504455
61,улица Карла Маркса,404130,48.8043824,44.7495693
17,Комсомольская улица,404130,48.8037962,44.7450599
19,Комсомольская улица,404130,48.8032092,44.7442829
28/10,Коммунистическая улица,404130,48.8019353,44.7485978
21,Комсомольская улица,404130,48.8028424,44.7438229
42,Коммунистическая улица,404130,48.7996375,44.7470292
27,Комсомольская улица,404130,48.8018752,44.7418215
18,улица Рихарда Зорге,404130,48.8024076,44.7433429
1,Волгодонская улица,404130,48.8036810,44.7407208
3,Волгодонская улица,404130,48.8034720,44.7400677
12,улица Рихарда Зорге,404130,48.8040683,44.7403089
2,Волгодонская улица,404130,48.8038506,44.7401246
4,Волгодонская улица,404130,48.8036606,44.7397300
24,Комсомольская улица,404130,48.8021895,44.7414789
6,улица Рихарда Зорге,404130,48.8057072,44.7384845
13,улица Циолковского,404130,48.8063024,44.7373136
15,улица Циолковского,404130,48.8061125,44.7369142
17,улица Циолковского,404130,48.8057053,44.7361177
25,улица Циолковского,404130,48.8047870,44.7342240
2В,проспект Ленина,404130,48.8124798,44.7220605
14,Волгодонская улица,404130,48.8023307,44.7370047
6,Волгодонская улица,404130,48.8032522,44.7389025
5,Волгодонская улица,404130,48.8030070,44.7391446
26,Комсомольская улица,404130,48.8017635,44.7405687
7,Волгодонская улица,404130,48.8026514,44.7383909
28,Комсомольская улица,404130,48.8014330,44.7397629
42,Комсомольская улица,404130,48.8002864,44.7374139
29,Набережная улица,404130,48.7996444,44.7378999
24,улица Гайдара,404130,48.7986268,44.7393044
4,улица Гайдара,404130,48.7997678,44.7416440
31,Комсомольская улица,404130,48.8009810,44.7402641
29,Комсомольская улица,404130,48.8014055,44.7409301
2,улица Гайдара,404130,48.8001405,44.7423766
1,улица Гайдара,404130,48.7998406,44.7425230
2,улица Кухаренко,404130,48.7987230,44.7438192
13,улица Гайдара,404130,48.7984031,44.7395667
47,Набережная улица,404110,48.7969763,44.7415305
42,улица Свердлова,404110,48.7977427,44.7450690
44А,проспект Ленина,404110,48.7986281,44.7443409
27,Коммунистическая улица,404130,48.7983482,44.7474150
40,улица Свердлова,404130,48.7980603,44.7476940
27А,Коммунистическая улица,404130,48.7987602,44.7473750
15/23,улица Пушкина,404122,48.8023320,44.7498997
26/19,улица Карла Маркса,404122,48.8033776,44.7507150
28/31,улица Свердлова,404122,48.8007863,44.7548953
16,улица Свердлова,404122,48.8037513,44.7567111
69,улица Карла Маркса,404122,48.8029679,44.7543894
60,улица 19-го Партсъезда,404122,48.8040999,44.7551985
58,улица 19-го Партсъезда,404122,48.8046262,44.7535281
67,улица Карла Маркса,404122,48.8034600,44.7527139
11/65,Коммунистическая улица,404122,48.8056238,44.7523482
3/72,Коммунистическая улица,404122,48.8068832,44.7531920
12/73,Рабоче-Крестьянская улица,404122,48.8049571,44.7544289
1/82,Рабоче-Крестьянская улица,404122,48.8060009,44.7560118
4,улица Свердлова,404122,48.8065320,44.7586044
26,улица Кирова,404122,48.8070994,44.7587008
41Г,улица Горького,404130,48.8052214,44.7652779
51,улица Горького,404130,48.8029760,44.7687109
18Б к3,1-й Индустриальный проезд,404130,48.8031415,44.7705398
96 к1,улица Горького,404130,48.8037004,44.7583402
5Б,улица Нариманова,404127,48.7747004,44.7925272
66,улица 19-го Партсъезда,404130,48.8031736,44.7586993
70 к1,улица 19-го Партсъезда,404130,48.8027633,44.7599258
75 к1,улица Карла Маркса,404130,48.8019357,44.7574331
31А к2,улица Пушкина,404130,48.8016756,44.7568752
31А к1,улица Пушкина,404130,48.8015341,44.7572903
31А,улица Пушкина,404130,48.8013989,44.7576810
98А,улица Горького,404130,48.8029809,44.7652502
100А к1,улица Горького,404130,48.8026131,44.7667686
102 к1,улица Горького,404130,48.8023941,44.7677937
35 к5,улица Пушкина,404130,48.7987852,44.7645421
35Л,улица Пушкина,404130,48.7984904,44.7653308
35 к4,улица Пушкина,404130,48.7976192,44.7647001
35 к1,улица Пушкина,404130,48.7984663,44.7624184
35В к1,улица Пушкина,404130,48.7991622,44.7605032
23А,Молодёжная улица,404121,48.7951286,44.7620753
25,Молодёжная улица,404121,48.7953521,44.7628724
25Б,Молодёжная улица,404121,48.7954247,44.7626513
16А к1,улица Пушкина,404121,48.7980257,44.7610241
53А,улица Энгельса,404121,48.7909147,44.7723234
53,проспект Ленина,404110,48.7971755,44.7473750
16Б,улица Космонавтов,404110,48.7945564,44.7534476
19Н,Молодёжная улица,404110,48.7944898,44.7540931
19Б,Молодёжная улица,404110,48.7936363,44.7546074
13Б,Молодёжная улица,404110,48.7929965,44.7511164
55,Набережная улица,404110,48.7925535,44.7440065
48Д,проспект Ленина,404110,48.7972088,44.7460793
3,улица Энгельса,404111,48.7868029,44.7529490
85А,проспект Ленина,404111,48.7891453,44.7509946
79А,проспект Ленина,404111,48.7896385,44.7507552
6А,Сталинградская улица,404111,48.7846245,44.7504073
8,Сталинградская улица,404111,48.7849754,44.7509157
123А,проспект Ленина,404120,48.7778792,44.7601781
82А,Советская улица,404120,48.7816280,44.7597100
64Б,улица Карбышева,404120,48.7831580,44.7655313
69,Советская улица,404120,48.7824794,44.7598132
71,Советская улица,404120,48.7826856,44.7602275
73,Советская улица,404120,48.7826429,44.7609858
58Б,улица Карбышева,404120,48.7861581,44.7625224
35Б,Советская улица,404120,48.7860178,44.7604136
29А,улица Энгельса,404111,48.7888525,44.7602951
5,Складской переулок,404130,48.7966957,44.7793053
43 к1,улица Пушкина,404130,48.7945269,44.7790120
14 к1,1-й Индустриальный проезд,404130,48.7986624,44.7681472
14 к2,1-й Индустриальный проезд,404130,48.7984036,44.7690082
39 с23,улица Пушкина,404112,48.7962147,44.7722174
39 с2,улица Пушкина,404112,48.7960916,44.7721256
39 с3,улица Пушкина,404112,48.7957667,44.7731298
39 с16,улица Пушкина,404112,48.7963839,44.7736825
39 с16/16а,улица Пушкина,404130,48.7965920,44.7736411
39 с77Б,улица Пушкина,404112,48.7955408,44.7752249
39 с77А,улица Пушкина,404112,48.7954333,44.7755561
39 с77,улица Пушкина,404112,48.7953016,44.7760825
39 с4,улица Пушкина,404112,48.7953340,44.7743641
39 с12,улица Пушкина,404112,48.7949656,44.7771110
39,улица Пушкина,404112,48.7951053,44.7766864
39М,улица Пушкина,404112,48.7939735,44.7773051
39Н,улица Пушкина,404112,48.7943115,44.7780829
1/1,улица Машиностроителей,404121,48.7893837,44.7699794
1В,улица Машиностроителей,404121,48.7895668,44.7698733
45Б,улица Карбышева,404121,48.7869408,44.7659888
47А/4,улица Карбышева,404102,48.7791412,44.7725437
7Б,бульвар Профсоюзов,404102,48.7780410,44.7768028
11А,бульвар Профсоюзов,404102,48.7788984,44.7768895
14В,улица Машиностроителей,404102,48.7797414,44.7766656
6А,площадь Труда,404104,48.7837368,44.7792554
4,площадь Труда,404104,48.7838478,44.7782975
1,улица Молодогвардейцев,404120,48.7743071,44.7700260
104,проспект Ленина,404120,48.7768121,44.7591597
104,проспект Ленина,404120,48.7774591,44.7586467
96/1,проспект Ленина,404111,48.7766689,44.7541240
100,проспект Ленина,404120,48.7779503,44.7575224
94В,проспект Ленина,404111,48.7787712,44.7546046
106,проспект Ленина,404120,48.7772601,44.7563777
140,проспект Ленина,404120,48.7741495,44.7612472
128,проспект Ленина,404120,48.7751421,44.7627739
128,проспект Ленина,404120,48.7744545,44.7633439
148,проспект Ленина,404120,48.7737871,44.7653178
70Б,Большевистская улица,404106,48.7706076,44.7748668
70А,Большевистская улица,404106,48.7714473,44.7758792
19Б,площадь Труда,404104,48.7833261,44.7836294
7Б,улица Мира,404104,48.7819631,44.7855761
13А,улица Мира,404104,48.7817605,44.7876584
24Б,бульвар Профсоюзов,404102,48.7786964,44.7793796
59А,улица Карбышева,404102,48.7733862,44.7794169
3А,Пионерская улица,404102,48.7741786,44.7824863
3В,Пионерская улица,404102,48.7747767,44.7824893
3Б,Пионерская улица,404102,48.7744779,44.7824959
3,Пионерская улица,404102,48.7738817,44.7824924
5А,Пионерская улица,404102,48.7744934,44.7833126
2Б,Пионерская улица,404102,48.7732345,44.7832247
27А,улица Мира,404125,48.7779993,44.7956140
42А/1,улица Мира,404127,48.7757641,44.7976613
38Б,улица Дружбы,404127,48.7714655,44.7912215
87А,улица Карбышева,404127,48.7690238,44.7860935
63,улица Карбышева,404127,48.7714625,44.7820605
71А,улица Карбышева,404127,48.7718723,44.7838469
22А,улица Нариманова,4041026,48.7807730,44.8028109
41Б,улица Мира,404126,48.7759458,44.7994923
37А,улица Мира,404126,48.7773920,44.8009355
6Б,улица Нариманова,404126,48.7781160,44.8000193
136А,улица Пушкина,404131,48.7767855,44.8097028
63Б,улица Мира,404131,48.7729205,44.8062396
75В,улица Мира,404131,48.7699677,44.8063401
49,улица Дружбы,404105,48.7688057,44.7970203
79,улица Дружбы,404105,48.7682110,44.7978330
79А,улица Дружбы,404105,48.7657531,44.8003002
66А,улица Мира,404105,48.7693268,44.8032078
19Г,Оломоуцкая улица,404105,48.7662084,44.8044992
80А,улица Мира,404105,48.7663553,44.8054857
74Б,улица Мира,404105,48.7670845,44.8079138
62Б,улица Мира,404105,48.7689918,44.8065153
2В,улица Александрова,404127,48.7672649,44.7896327
2А,улица Александрова,404127,48.7675750,44.7905657
138Г,улица Карбышева,404133,48.7582122,44.7972713
125Ж,улица Карбышева,404132,48.7574016,44.8007408
117А,улица Карбышева,404132,48.7584291,44.8023804
52А,улица Дружбы,404132,48.7605392,44.8047499
86А,улица Мира,404132,48.7641332,44.8116340
44Б,Оломоуцкая улица,404109,48.7657614,44.8107788
33А,Оломоуцкая улица,404131,48.7673949,44.8111311
13Б,Оломоуцкая улица,404105,48.7640756,44.8040763
80А,улица 40 лет Победы,404109,48.7632574,44.8201664
91,улица 40 лет Победы,404109,48.7643438,44.8185673
61А/1,улица 40 лет Победы,404132,48.7612155,44.8141368
74/1,улица Дружбы,404132,48.7577542,44.8071227
162А,улица Карбышева,404133,48.7542395,44.8042526
401,проспект Ленина,404133,48.7523780,44.8033375
401А,проспект Ленина,404133,48.7520214,44.8038186
399,проспект Ленина,404133,48.7517198,44.8028442
63А,улица 87-й Гвардейской Дивизии,404118,48.7573622,44.8183869
118/1,улица Мира,404118,48.7593023,44.8167811
35,улица 87-й Гвардейской Дивизии,404118,48.7543189,44.8132765
125Б,улица Мира,404118,48.7571252,44.8205985
129А,улица Мира,404118,48.7553602,44.8226131
63А,улица Медведева,404101,48.7529027,44.8286722
63А,улица 87-й Гвардейской Дивизии,404118,48.7567044,44.8195844
63Б,улица 87-й Гвардейской Дивизии,404118,48.7567769,44.8195197
37А,улица 87-й Гвардейской Дивизии,404118,48.7532888,44.8137137
117Д,улица Пушкина,404101,48.7571157,44.8384363
101,улица Пушкина,404118,48.7675820,44.8330962
95,улица Пушкина,404109,48.7696134,44.8216609
95А,улица Пушкина,404109,48.7713829,44.8203989
95Б,улица Пушкина,404109,48.7713198,44.8204219
95В,улица Пушкина,404109,48.7714743,44.8202946
85 к1,улица Пушкина,404131,48.7756409,44.8178580
91В,улица Пушкина,404131,48.7719230,44.8187844
91В/2,улица Пушкина,404131,48.7719866,44.8191618
91А,улица Пушкина,404131,48.7725123,44.8185567
67,улица Пушкина,404126,48.7853285,44.8107284
65Г,улица Пушкина,404126,48.7841160,44.8061715
45/1,улица Пушкина,404112,48.7884868,44.8018491
45В,улица Пушкина,404112,48.7874061,44.7972209
47,улица Пушкина,404112,48.7907417,44.7837913
51Д,улица Пушкина,404112,48.7863093,44.7928945
51А,улица Пушкина,404112,48.7865013,44.7948191
71,улица Пушкина,404112,48.7846428,44.8018036
28А,улица Нариманова,404125,48.7838247,44.8023794
28,улица Нариманова,404126,48.7836236,44.8028759
28Б,улица Нариманова,404126,48.7834360,44.8026778
71В,улица Пушкина,404126,48.7826419,44.8079039
71Б,улица Пушкина,404126,48.7820792,44.8083973
45П,улица Пушкина,404112,48.7956839,44.7883601
45Р/1,улица Пушкина,404112,48.7953572,44.7923126
22,улица Автодорога 7,404103,48.8126264,44.8304905
63,улица Александрова,404103,48.8086816,44.8468906
63А,улица Александрова,404103,48.8087390,44.8463732
25А,улица Автодорога 7,404103,48.8125394,44.8365060
29,улица Автодорога 7,404103,48.8121994,44.8376018
25А к1,улица Автодорога 7,404103,48.8124990,44.8356138
23В,улица Автодорога 7,404103,48.8216258,44.8262531
27,улица Автодорога 7,404103,48.8208271,44.8434181
81,улица Александрова,404103,48.8209959,44.8617234
71,улица Автодорога 7,404103,48.8144591,44.8492663
83Б,улица Александрова,404103,48.8234112,44.8504450
83А,улица Автодорога 7,404103,48.8244998,44.8504582
58,улица Александрова,404103,48.7921755,44.8447621
54А/3,улица Александрова,404119,48.7878558,44.8337019
48Н,улица Александрова,404119,48.7848529,44.8362573
35,улица Автодорога 6,404119,48.8124106,44.8046115
с31А,улица имени Ф. Г. Логинова,404119,48.8144963,44.8017102
11,улица Автодорога 7,404119,48.8018685,44.7875354
28Б,улица Автодорога 6,404130,48.8076966,44.7843570
18А,улица Автодорога 6,404130,48.8102507,44.7652681
6,улица Автодорога 6,404130,48.8126339,44.7636924
2Б,улица имени Ф. Г. Логинова,404130,48.8168199,44.7431936
2А/1,улица Автодорога 6,404130,48.8177468,44.7408017
2и/1,Набережная улица,404130,48.8001162,44.7250698
2Л,Набережная улица,404130,48.7966305,44.7324031
16/7 к3,Портовая улица,404130,48.8237448,44.7197105
16/7 к4,Портовая улица,404130,48.8239301,44.7254693
13А,Портовая улица,404130,48.8231775,44.7280797
21/1,улица имени Ф. Г. Логинова,404130,48.8195931,44.7509958
21,улица имени Ф. Г. Логинова,404130,48.8197124,44.7513022
1,Восточная улица,404113,48.8002288,44.7035348
1А,проспект Ленина,404130,48.8264592,44.6646959
43,улица Автодорога 7,404103,48.8314967,44.8315192
2,Образцовая улица,404116,48.8623937,44.7517649
46/1,улица Свердлова,404110,48.7970387,44.7424824
16А,Бульвар Профсоюзов,404102,48.7768318,44.7769706
19,улица Лысенко,404124,48.8730159,44.7526646
33,проспект Ленина,404130,48.8013053,44.7422229
15А,улица Александрова,404127,48.7734444,44.7980726
35Г/1,улица Пушкина,404130,48.8009166,44.7604076
9,Оломоуцкая улица,404132,48.7601969,44.7981217
1А,улица Кухаренко,404110,48.7982290,44.7436294
46,улица Свердлова,404110,48.7968797,44.7426403
3,улица Свердлова,404130,48.7989024,44.7456285
41,проспект Ленина,404130,48.8003390,44.7433001
20,Комсомольская улица,404130,48.8029278,44.7422645
1/2,улица Карла Маркса,404130,48.8089958,44.7342822
25Г,улица Горького,404122,48.8076099,44.7522727
19/1,улица Кирова,404122,48.8112369,44.7510874
11Г,улица Кирова,404122,48.8123638,44.7436089
9Б,улица Кирова,404122,48.8128585,44.7420443
53Ж,улица Мира,404131,48.7740618,44.8031967
16,улица Пушкина,404130,48.7978047,44.7573620
18/1,улица Пушкина,404121,48.7956674,44.7642018
25В,Молодёжная улица,404121,48.7954486,44.7621959
25Г,Молодёжная улица,404121,48.7955309,44.7621654
25Д,Молодёжная улица,404121,48.7960740,44.7628441
19,Молодёжная улица,404110,48.7935080,44.7542865
76,Большевистская улица,404106,48.7720463,44.7767374
76А,Большевистская улица,404106,48.7716704,44.7761689
31В,улица имени Ф. Г. Логинова,404130,48.8129821,44.7993835
54В,улица Карбышева,404120,48.7862297,44.7638460
56Б,улица Карбышева,404120,48.7853177,44.7642472
14А,проспект Ленина,404130,48.8067180,44.7352036
1д/2,проспект Ленина,404130,48.8123731,44.7314892
21А,улица Кирова,404122,48.8096385,44.7549568
2Д,улица Клавы Нечаевой,404131,48.7711094,44.8075211
125В,улица Карбышева,404132,48.7572867,44.8008934
20А,улица Александрова,404131,48.7744303,44.8037149
105Г,улица Пушкина,404118,48.7687228,44.8252415
45В,улица Горького,404130,48.8036457,44.7668146
54Б,улица Карбышева,404120,48.7858214,44.7640945
124Б,улица Пушкина,404126,48.7797171,44.8066573
55,улица Энгельса,404121,48.7913228,44.7728488
172,улица Карбышева,404133,48.7515720,44.8085923
162,улица Карбышева,404133,48.7544051,44.8035804
162/1,улица Карбышева,404133,48.7545377,44.8030395
1д/4,проспект Ленина,404130,48.8115480,44.7310099
1д/2,проспект Ленина,404130,48.8120253,44.7312344
7,аллея Фонтанов,404130,48.8046738,44.7427602
1/2,Комсомольская площадь,404130,48.8055071,44.7399864
22А,улица Рихарда Зорге,404130,48.8012350,44.7440491
22/1,улица Рихарда Зорге,404130,48.8014999,44.7442543
28А,проспект Ленина,404130,48.8023483,44.7402187
40А,проспект Ленина,404130,48.7993242,44.7430526
44Б,улица Свердлова,404110,48.7972842,44.7445837
3А,Рабоче-Крестьянская улица,404122,48.8055527,44.7558989
43А,улица Горького,404130,48.8039012,44.7648714
35Д,улица Пушкина,404130,48.8015087,44.7609384
35/2,улица Пушкина,404130,48.8003093,44.7609159
39/1,улица Горького,404130,48.8068732,44.7598967
9А,Западная улица,404113,48.8003124,44.6945822
16Б,улица Пушкина,404121,48.7990245,44.7577012
12Б/1,улица Пушкина,404130,48.8012192,44.7515686
16Г/1,улица Космонавтов,404110,48.7951942,44.7537951
72А,проспект Ленина,404110,48.7935002,44.7488681
58А/1,проспект Ленина,404110,48.7952588,44.7462521
58А,проспект Ленина,404110,48.7951128,44.7463987
1,улица Энгельса,404111,48.7867622,44.7522912
45Ж,улица Пушкина,404112,48.7930354,44.7859028
6,улица Харламова,404132,48.7610897,44.7907870
73А,улица 87-й Гвардейской Дивизии,404118,48.7586217,44.8231947
113Б,проспект Дружбы,404118,48.7573319,44.8112854
10А,улица Дружбы,404102,48.7750577,44.7821992
110,улица Карбышева,404132,48.7635937,44.7909949
110,улица Карбышева,404132,48.7636561,44.7899136
48Д,улица Дружбы,404105,48.7640675,44.7988768
8А,улица Кирова,404122,48.8116674,44.7429978
326 к2,проспект Ленина,404133,48.7500252,44.7974375
52А,улица Александрова,404118,48.7810411,44.8309586
20А/1,улица Александрова,404131,48.7748077,44.8035485
10Б,улица Карла Маркса,404130,48.8050482,44.7419311
11,Луганская улица,404130,48.9041405,44.7821856
1,Третья улица,404113,48.8043240,44.7104260
1Д,Шоссейная улица,404130,48.8070304,44.7226151
120,улица Пушкина,404126,48.7807616,44.8048907
333,проспект Ленина,404132,48.7622757,44.7870530
333,проспект Ленина,404132,48.7615639,44.7867423
335,проспект Ленина,404132,48.7614939,44.7875159
337,проспект Ленина,404132,48.7617558,44.7882644
10,улица им.Харламова,404132,48.7621336,44.7895326
8,улица им.Харламова,404132,48.7618252,44.7888282
19И,Молодёжная улица,404110,48.7937656,44.7539455
1д/5,проспект Ленина,404130,48.8116563,44.7312533
1д/2,проспект Ленина,404130,48.8124904,44.7319983
1В,улица Горького,404130,48.8129578,44.7340280
1Б/1,улица Горького,404122,48.8137368,44.7333409
2д/1,улица имени Ф.Г. Логинова,404122,48.8136933,44.7345995
4/3,улица имени Ф.Г. Логинова,404122,48.8140133,44.7351619
4А,улица имени Ф.Г. Логинова,404122,48.8148471,44.7365138
12,улица Чайковского,404130,48.8057915,44.7331435
23А,улица имени Ф.Г. Логинова,404130,48.8076098,44.7318908
4а/1,улица Чайковского,404130,48.8074752,44.7321101
2,проспект Ленина,404130,48.8091979,44.7320713
23,улица Логинова,404130,48.8087454,44.7309191
11,улица Чайковского,404130,48.8053375,44.7340733
22,улица Циолковского,404130,48.8052854,44.7342493
13,улица Карла Маркса,404130,48.8081984,44.7377228
11,улица имени Ф.Г. Логинова,404130,48.8109390,44.7348824
2а ст1,улица имени Ф.Г. Логинова,404130,48.8118509,44.7313295
1д/2,проспект Ленина,404130,48.8119242,44.7313815
2,улица имени Ф.Г. Логинова,404122,48.8132672,44.7355939
4,улица имени Ф.Г. Логинова,404122,48.8140586,44.7347656
23Е,улица Логинова,404130,48.8078953,44.7303574
23Е,улица Логинова,404130,48.8079576,44.7303144
5,Набережная улица,404130,48.8070526,44.7304731
1,Спортивная улица,404130,48.8034302,44.7275182
3,Круговая улица,404130,48.8036500,44.7249113
2,Круговая улица,404130,48.8038707,44.7247291
1,Круговая улица,404130,48.8041164,44.7245146
11,Круговая улица,404130,48.8042775,44.7255493
2З,Набережная улица,404130,48.8028551,44.7265392
2л/1,Набережная улица,404130,48.8005929,44.7319715
4а/1,улица Чайковского,404130,48.8075138,44.7322395
14В,улица Циолковского,404130,48.8071058,44.7373798
14В,улица Циолковского,404130,48.8070410,44.7375443
2/1,бульвар Профсоюзов,404102,48.7759123,44.7755834
22А,бульвар Профсоюзов,404102,48.7780308,44.7784320
16Б,бульвар Профсоюзов,404102,48.7779088,44.7782088
6,улица Куйбышева,404130,48.8106594,44.7384774
2,улица Куйбышева,404130,48.8112186,44.7393472
39Б,улица Дружбы,404127,48.7729331,44.7913546
90А,улица Карбышева,404127,48.7655944,44.7885672
25А,улица Горького,404122,48.8079330,44.7520471
25Г/1,улица Горького,404122,48.8076691,44.7520932
1Б,улица Кирова,404122,48.8141799,44.7374578
1,улица Кирова,404122,48.8142033,44.7375912
1А,улица Кирова,404122,48.8141182,44.7378348
1А/1,улица Кирова,404122,48.8138069,44.7385319
9А,улица Кирова,404122,48.8125402,44.7425838
19к3,улица Кирова,404122,48.8107080,44.7500802
109,проспект Дружбы,404132,48.7578549,44.8095455
109А,проспект Дружбы,404132,48.7581318,44.8088596
109В,проспект Дружбы,404132,48.7584284,44.8091957
109Б,проспект Дружбы,404132,48.7583017,44.8103872
19А,проспект Ленина,404130,48.8055952,44.7377144
1 киоск,Комсомольская улица,404130,48.8039263,44.7429737
18/1,Комсомольская улица,404130,48.8060019,44.7420709
9 киоск,аллея Фонтанов,404130,48.8045599,44.7428739
10ст1,улица Рихарда Зорге,404130,48.8049486,44.7407120
10ст3,улица Рихарда Зорге,404130,48.8048367,44.7411774
20А,проспект Ленина,404130,48.8049253,44.7366948
87Г/1,проспект Дружбы,404132,48.7615205,44.8050284
87Г/2,проспект Дружбы,404132,48.7614237,44.8051382
95,улица Мира,404109,48.7645048,44.8123480
95,улица Мира,404109,48.7645624,44.8126196
21,улица Кирова,404122,48.8090115,44.7547977
4Б,Сталинградская улица,404111,48.7848595,44.7476540
8,улица Рихарда Зорге,404130,48.8047457,44.7394887
12а киоск,Шоссейная улица,404113,48.8060329,44.7164676
16А,Западная улица,404113,48.8001204,44.6942679
58,Гидростроевская улица,404113,48.7935013,44.6882792
2ж/11,Набережная улица,404130,48.8058202,44.7250459
2ж/11,Набережная улица,404130,48.8059261,44.7252469
2Р,Набережная улица,404130,48.8046142,44.7216750
2е/4,Набережная улица,404130,48.8052893,44.7247997
2е/5,Набережная улица,404130,48.8051478,44.7248570
2е/6,Набережная улица,404130,48.8050445,44.7250235
10,Круговая улица,404130,48.8043854,44.7253770
2м ст3,Набережная улица,404130,48.8020458,44.7229855
2е/2,Набережная улица,404130,48.8053144,44.7274692
5,Спортивная улица,404130,48.8038910,44.7283653
2М,Набережная улица,404130,48.8024227,44.7238932
2П,Набережная улица,404130,48.8012902,44.7246462
2п/1,Набережная улица,404130,48.8008427,44.7249854
1В/2,улица Кухаренко,404110,48.7974636,44.7443634
59А/1,улица Карбышева,404102,48.7736018,44.7791597
69Б,Советская улица,404120,48.7821321,44.7591692
10/1,улица Энгельса,404120,48.7871837,44.7570535
10/1А,улица Энгельса,404120,48.7872133,44.7571768
10Б,улица Энгельса,404120,48.7871958,44.7567205
26/4,улица 40 лет Победы,404133,48.7547723,44.8025794
31А,улица Энгельса,404111,48.7885074,44.7610470
20А/2,улица Александрова,404131,48.7748687,44.8034850
4А,улица им.Харламова,404133,48.7632122,44.7890441
47С,улица Карбышева,404102,48.7782034,44.7697840
84,улица Трубников,404113,48.7801730,44.6951786
91А,улица Трубников,404113,48.7800515,44.6935067
89А,улица Трубников,404113,48.7800603,44.6936595
86,улица Трубников,404113,48.7802011,44.6948429
85,улица Трубников,404113,48.7801599,44.6950429
80,улица Трубников,404113,48.7801860,44.6967337
81,улица Трубников,404113,48.7801969,44.6963048
82,улица Трубников,404113,48.7802007,44.6960286
83,улица Трубников,404113,48.7801924,44.6956515
48,улица Трубников,404113,48.7787455,44.7012376
47,улица Трубников,404113,48.7787951,44.7015162
46,улица Трубников,404113,48.7788370,44.7013589
45,улица Трубников,404113,48.7789236,44.7011153
44,улица Трубников,404113,48.7788754,44.7009286
43,улица Трубников,404113,48.7791519,44.7009785
90,проспект имени Ленина,404111,48.7825815,44.7476348
5,Вишнёвая улица,404113,48.8015236,44.7039810
7,Вишнёвая улица,404113,48.8015942,44.7041228
124,улица Пушкина,404126,48.7797211,44.8055948
168,улица Пушкина,404109,48.7646444,44.8216743
19Н,Молодёжная улица,404110,48.7940516,44.7537903
2Ж,проспект Ленина,404130,48.8133119,44.7263008
1А,улица Горького,404122,48.8133168,44.7349007
69,улица Пушкина,404112,48.7878307,44.8118306
3,улица имени О.В.Скрипки,404133,48.7602921,44.7889048
4,улица им.Харламова,404132,48.7629161,44.7886460
