House number,Street name,Postal code,Latitude,Longitude
2/7,Путейская улица,140000,52.3058844,76.9577560
2/7,Путейская улица,140000,52.3058398,76.9579598
2/7,Путейская улица,140000+,52.3056541,76.9579265
2/7,Путейская улица,140000,52.3057743,76.9573966
2/7,Путейская улица,140000,52.3057602,76.9578027
250,улица Академика Сатпаева,1400000,52.2697128,76.9424178
67/1,улица Камзина,140000,52.2745401,76.9897709
38,улица Академика Чокина,140008,52.2678463,76.9496144
6,улица Михаила Исиналиева,140000,52.2789601,76.9374787
115,улица Кирова,140000,52.2835210,76.9692945
126,улица Генерала Дюсенова,140000,52.2765065,76.9459703
6/2,Северная промзона,140000,52.3876897,76.9697338
129,Лермонтов көшесі,140006,52.2903496,76.9714053
22,улица Гагарина,140008,52.2600795,76.9518083
20,улица Гагарина,140008,52.2599575,76.9494715
24,улица Гагарина,140008,52.2602320,76.9533804
109,улица Академика Сатпаева,140000,52.2754233,76.9425415
38/1,улица Гагарина,140008,52.2612609,76.9620554
67,улица Гагарина,140008,52.2605636,76.9681978
40,улица Гагарина,140008,52.2606985,76.9641955
38/2,улица Гагарина,140008,52.2609147,76.9629252
36/1,улица Гагарина,140008,52.2611508,76.9601004
34,улица Гагарина,140008,52.2608577,76.9591676
44/1,улица Гагарина,140008,52.2614466,76.9664001
36,улица Гагарина,140008,52.2605443,76.9601646
30,улица Гагарина,140008,52.2607998,76.9575815
32,улица Гагарина,140008,52.2604263,76.9584162
38/2,улица Теплова,140008,52.2590359,76.9682896
42/1,улица Гагарина,140008,52.2608735,76.9655348
69,улица Гагарина,140008,52.2601835,76.9683142
44/3,улица Гагарина,140008,52.2613273,76.9679177
44,улица Гагарина,140008,52.2611030,76.9672517
28,улица Гагарина,140008,52.2603623,76.9575655
44/2,улица Гагарина,140008,52.2608818,76.9682820
26,улица Гагарина,140008,52.2603716,76.9567991
36/2,улица Гагарина,140008,52.2606852,76.9612084
40/1,улица Гагарина,140008,52.2612365,76.9641305
38,улица Гагарина,140008,52.2606107,76.9620935
42,улица Гагарина,140008,52.2607989,76.9664200
169,улица Ломова,140000,52.2639944,76.9832223
14,улица Камзина,140011,52.2895325,76.9813181
23,улица Майры,140007,52.2495608,76.9461922
84,улица 2-я Советов,140008,52.2577668,76.9503859
80а,улица 2-я Советов,140008,52.2572327,76.9503785
11А,улица Теплова,140008,52.2578565,76.9521237
381,Машхур Жусупа улица,14000,52.2622769,76.9565110
11,улица Теплова,140008,52.2578036,76.9517065
3,улица Теплова,140008,52.2576614,76.9491718
256,улица Володарского,140000,52.2637448,76.9519758
44,улица Лермонтова,140000,52.2906438,76.9391599
6,Кудайбердиева,140007,52.2535086,76.9630190
61,Кубанская улица,140008,52.2545556,76.9629760
63,Кубанская улица,140008,52.2552048,76.9626328
9А,улица Катаева,140011,52.2837655,76.9736227
91,улица Естая,140011,52.2839581,76.9746334
74,улица Камзина,140011,52.2803351,76.9792049
285,Нурсултана Назарбаева \проспект,140001,52.2427336,76.9896991
23,Машхур Жусупа улица,140000,52.2893554,76.9531957
83,улица Лермонтова,140000,52.2898389,76.9539281
85,улица Лермонтова,140000,52.2898661,76.9546593
87,улица Лермонтова,140000,52.2898925,76.9553540
89,улица Лермонтова,140000,52.2899423,76.9561509
87/1,улица Лермонтова,140000,52.2890957,76.9559129
29,Машхур Жусупа улица,140000,52.2889808,76.9542653
25,Машхур Жусупа улица,140000,52.2877852,76.9533865
27/1,Машхур Жусупа улица,140000,52.2883668,76.9543006
107,улица Лермонтова,140000,52.2902556,76.9633039
111,улица Лермонтова,140000,52.2902758,76.9639899
113,улица Лермонтова,140000,52.2903094,76.9646964
109,улица Лермонтова,140000,52.2910143,76.9641257
160,Астана көшесі,140000,52.2778565,76.9389119
12,улица Толстого,140000,52.2754454,76.9430265
93/1,улица Лермонтова,140000,52.2903175,76.9572261
93/2,улица Лермонтова,140000,52.2903713,76.9582139
93к3,улица Лермонтова,140000,52.2904456,76.9590520
93,улица Лермонтова,140000,52.2902682,76.9599947
95,улица Лермонтова,140000,52.2905437,76.9623081
5Б,Площадь Победы,140000,52.2872858,76.9442448
129,Лермонтов көшесі,140006,52.2907013,76.9714965
123,улица Лермонтова,140006,52.2909802,76.9697606
119,улица Лермонтова,140006,52.2909500,76.9689007
117,улица Лермонтова,140006,52.2907637,76.9684660
121,улица Лермонтова,140006,52.2908384,76.9693714
125,улица Лермонтова,140006,52.2905483,76.9701888
27,Нурсултана Назарбаева проспект,140006,52.2896499,76.9689923
25,Нурсултана Назарбаева проспект,140006,52.2889966,76.9682150
31/1,Нурсултана Назарбаева проспект,140006,52.2889912,76.9693740
127,улица Лермонтова,140006,52.2898043,76.9702326
29,Нурсултана Назарбаева проспект,140006,52.2880412,76.9678646
31,Нурсултана Назарбаева проспект,140006,52.2880679,76.9689370
33,Нурсултана Назарбаева проспект,140006,52.2880937,76.9696922
35,Нурсултана Назарбаева проспект,140006,52.2878677,76.9709159
10,улица Якова Геринга,140006,52.2960589,76.9801633
8,улица Якова Геринга,140006,52.2961932,76.9787162
13,улица Якова Геринга,140006,52.2957751,76.9797631
9,улица Якова Геринга,140006,52.2958947,76.9783415
1,улица Павлова,140006,52.2952219,76.9778329
115/2,улица Торайгырова,140006,52.2984661,76.9708326
7,Железнодорожная улица,140006,52.2968945,76.9759495
6,Железнодорожная,140006,52.2970392,76.9746170
1,Сураганова улица,140006,52.2983680,76.9741351
8,Железнодорожная,140006,52.2965789,76.9749160
3/1,Железнодорожная улица,140006,52.2975751,76.9768244
2,улица Якова Геринга,140006,52.2965870,76.9741317
7,Сураганова улица,140006,52.2967126,76.9734854
5,Сураганова улица,140006,52.2971376,76.9735862
3,Сураганова улица,14006,52.2976620,76.9738710
2/1,Сураганова улица,140006,52.2982706,76.9747162
4,Железнодорожная,140006,52.2976139,76.9752911
2,Железнодорожная улица,140006,52.2983524,76.9754181
6,улица Павлова,140006,52.2972421,76.9773382
106,улица Генерала Дюсенова,140000,52.2782915,76.9457882
325/3,Машхур Жусупа улица,14000,52.2666579,76.9550967
7,улица Маяковского,140000,52.2655448,76.9417959
46,улица Айманова,140005,52.3011167,76.9263525
42,улица Айманова,140005,52.3020473,76.9269818
41,улица Айманова,140005,52.3024530,76.9261929
40,улица Айманова,140005,52.3026289,76.9246992
39,улица Айманова,140005,52.3017548,76.9253162
48,улица Айманова,140005,52.3007248,76.9264007
49,улица Айманова,140005,52.3003491,76.9267162
50,улица Айманова,140005,52.2999080,76.9267974
7,Баян батыра улица,140005,52.3008408,76.9278762
5,Баян батыра улица,140005,52.3000301,76.9282370
47,улица Айманова,140005,52.3004481,76.9254549
9,Баян Батыра,140005,52.3016681,76.9279616
3,Баян батыра улица,140005,52.2991889,76.9281837
1,Баян батыра улица,140005,52.2984108,76.9285589
47/1,улица Айманова,140005,52.3008176,76.9242107
38,улица Айманова,140005,52.3019467,76.9238881
36,улица Айманова,140005,52.3025213,76.9234396
35,улица Айманова,140005,52.3021708,76.9218247
20,улица Айманова,140005,52.3009158,76.9220382
21,улица Айманова,140005,52.3008089,76.9211777
19,улица Айманова,140005,52.3002788,76.9223546
17,улица Айманова,140005,52.2993108,76.9191154
47,улица Амангельды,140008,52.2565435,76.9680034
63/1,улица Гагарина,140008,52.2601582,76.9659706
33,Нуркина улица,140008,52.2593929,76.9638548
17А,улица Павла Васильева,14000,52.2615061,76.9521797
17,улица Павла Васильева,14000,52.2617172,76.9533751
17Б,улица Павла Васильева,14000,52.2612020,76.9540149
18,улица Гагарина,140008,52.2598743,76.9480604
16,улица Гагарина,140008,52.2598774,76.9474837
14,улица Гагарина,140008,52.2602633,76.9495744
3,Лермонтов көшесі,140000,52.2894673,76.9372959
11/2,улица Амангельды,140008,52.2563246,76.9631076
11,улица Амангельды,140008,52.2558526,76.9632149
29/1,Машхур Жусупа улица,140000,52.2890126,76.9552364
349,Машхур Жусупа улица,14000,52.2646191,76.9545106
345,Машхур Жусупа улица,14000,52.2648309,76.9544569
343,Машхур Жусупа улица,14000,52.2650082,76.9544823
341,Машхур Жусупа улица,14000,52.2651838,76.9544032
339,Машхур Жусупа улица,14000,52.2653062,76.9543898
276,Гоголя переулок,14000,52.2650895,76.9550215
274,Гоголя переулок,14000,52.2652437,76.9550107
272,Гоголя переулок,14000,52.2653751,76.9549678
337,Машхур Жусупа улица,14000,52.2656106,76.9543885
335,Машхур Жусупа улица,14000,52.2657567,76.9543577
333,Машхур Жусупа улица,14000,52.2659422,76.9543322
53,улица Маяковского,14000,52.2659455,76.9548619
55,улица Маяковского,14000,52.2659865,76.9550617
57,улица Маяковского,14000,52.2660185,76.9554144
273,Гоголя переулок,14000,52.2658413,76.9554412
344/1,Абая,14000,52.2657214,76.9558899
275,Гоголя переулок,14000,52.2657034,76.9554238
277,Гоголя переулок,14000,52.2655803,76.9553688
348,Абая,14000,52.2653841,76.9559160
283,Гоголя переулок,14000,52.2651535,76.9554171
285,Гоголя переулок,14000,52.2650271,76.9554775
356,Абая,14000,52.2648289,76.9559739
358/1,Абая,14000,52.2647135,76.9560327
360,Абая,14000,52.2643827,76.9560165
380,Абая,14000,52.2625039,76.9562915
378,Абая,14000,52.2626682,76.9562271
376,Абая,14000,52.2627822,76.9562110
374,Абая,14000,52.2628922,76.9561990
291,Гоголя переулок,14000,52.2628503,76.9557631
372,Абая,14000,52.2630359,76.9562057
370,Абая,14000,52.2632534,76.9562271
368,Абая,14000,52.2633978,76.9562124
289,Гоголя переулок,14000,52.2632993,76.9557282
366,Абая,14000,52.2635299,76.9560139
364,Абая,14000,52.2636605,76.9562593
282,Гоголя переулок,14000,52.2631582,76.9552991
284,Гоголя переулок,14000,52.2629883,76.9553419
373,Машхур Жусупа улица,14000,52.2623258,76.9548405
371,Машхур Жусупа улица,14000,52.2625376,76.9547559
369,Машхур Жусупа улица,14000,52.2627313,76.9546768
367,Машхур Жусупа улица,14000,52.2628126,76.9546835
365,Машхур Жусупа улица,14000,52.2629685,76.9546768
363,Машхур Жусупа улица,14000,52.2632156,76.9546715
359,Машхур Жусупа улица,14000,52.2634380,76.9546969
357,Машхур Жусупа улица,14000,52.2635841,76.9546380
12,улица Гагарина,140008,52.2602147,76.9489449
10,улица Гагарина,140008,52.2603764,76.9483709
4,улица Гагарина,140008,52.2601317,76.9465833
6,улица Гагарина,140008,52.2601531,76.9471438
2,улица Гагарина,140008,52.2601588,76.9461890
279/9,улица Астана,140000,52.2652610,76.9411048
51/1,улица Амангельды,140008,52.2566037,76.9696046
61/1,улица Гагарина,140008,52.2596185,76.9648715
63,улица Гагарина,140008,52.2601509,76.9642121
65,улица Гагарина,140008,52.2603558,76.9670981
38/1,улица Теплова,140008,52.2592985,76.9666555
36/1,улица Теплова,140008,52.2593133,76.9658871
35,Нуркина улица,140008,52.2592395,76.9649644
35а,Нуркина улица,140008,52.2589751,76.9652648
34,улица Теплова,140008,52.2586443,76.9655478
34/2,улица Теплова,140008,52.2586969,76.9641852
74,Нуркина улица,140008,52.2599043,76.9628347
59/1,улица Гагарина,140008,52.2602155,76.9629420
57/1,улица Гагарина,140008,52.2603008,76.9622849
57/1а,улица Гагарина,140008,52.2600923,76.9621857
153,улица Исы Байзакова,140008,52.2601868,76.9611959
155,улица Исы Байзакова,140008,52.2598675,76.9615419
157,улица Исы Байзакова,140008,52.2596556,76.9612751
159/1,улица Исы Байзакова,140008,52.2592871,76.9613045
78,Нуркина улица,140008,52.2592804,76.9629970
80,Нуркина улица,140008,52.2594512,76.9624418
165,улица Исы Байзакова,140008,52.2588077,76.9613099
84,Нуркина улица,140008,52.2588570,76.9625518
86,Нуркина улица,140008,52.2589160,76.9631111
32/2,улица Теплова,140008,52.2585639,76.9630158
32/1,улица Теплова,140008,52.2585524,76.9624458
30/1,улица Теплова,140008,52.2585458,76.9619201
167,улица Исы Байзакова,140008,52.2585179,76.9613447
350,улица Исы Байзакова,140008,52.2585877,76.9608539
352,улица Исы Байзакова,140008,52.2584670,76.9608017
63,Чапаева,140008,52.2586927,76.9602718
65,Чапаева,140008,52.2589028,76.9602800
67,Чапаева,140008,52.2590646,76.9602062
348,улица Исы Байзакова,140008,52.2589390,76.9608391
344,улица Исы Байзакова,140008,52.2592789,76.9606005
69,Чапаева,140008,52.2592091,76.9601794
71,Чапаева,140008,52.2593773,76.9601700
340,улица Исы Байзакова,140008,52.2595670,76.9606514
342,улица Исы Байзакова,140008,52.2594225,76.9606031
73,Чапаева,140008,52.2595546,76.9601606
75,Чапаева,140008,52.2598091,76.9600855
338,улица Исы Байзакова,140008,52.2598091,76.9605710
336,улица Исы Байзакова,140008,52.2600037,76.9606608
334,улица Исы Байзакова,140008,52.2601753,76.9606890
77,Чапаева,140008,52.2599996,76.9602719
79,Чапаева,140008,52.2601966,76.9600855
85,улица Валиханова,140008,52.2599651,76.9591480
87,улица Валиханова,140008,52.2601465,76.9592593
78,Чапаева,140008,52.2601720,76.9596778
76,Чапаева,140008,52.2599757,76.9596858
74,Чапаева,140008,52.2598026,76.9596885
83,улица Валиханова,140008,52.2597509,76.9593251
81,улица Валиханова,140008,52.2595612,76.9592258
72,Чапаева,140008,52.2596072,76.9596858
70,Чапаева,140008,52.2594447,76.9597435
79,улица Валиханова,140008,52.2594266,76.9592607
77,улица Валиханова,140008,52.2592321,76.9592392
68,Чапаева,140008,52.2592723,76.9596965
66,Чапаева,140008,52.2590950,76.9597703
73,улица Валиханова,140008,52.2588578,76.9592379
75,улица Валиханова,140008,52.2590465,76.9593358
64,Чапаева,140008,52.2588758,76.9597945
62,Чапаева,140008,52.2587116,76.9598843
71,улица Валиханова,140008,52.2586755,76.9593037
60,Чапаева,140008,52.2584317,76.9598977
69,улица Валиханова,140008,52.2584268,76.9592942
59,Орджоникидзе улица,140008,52.2586525,76.9581825
70,улица Валиханова,140008,52.2586016,76.9587671
61,Орджоникидзе улица,140008,52.2588323,76.9581502
76,улица Валиханова,140008,52.2590137,76.9587082
63,Орджоникидзе улица,140008,52.2590129,76.9581651
78,улица Валиханова,140008,52.2591713,76.9586505
65,Орджоникидзе улица,140008,52.2591845,76.9581007
80,улица Валиханова,140008,52.2593806,76.9585929
67,Орджоникидзе улица,140008,52.2593847,76.9580550
82,улица Валиханова,140008,52.2595793,76.9586156
69,Орджоникидзе улица,140008,52.2595776,76.9580980
84,улица Валиханова,140008,52.2597541,76.9586102
71,Орджоникидзе улица,140008,52.2597156,76.9581154
86,улица Валиханова,140008,52.2599166,76.9585244
88,улица Валиханова,140008,52.2601096,76.9585513
73,Орджоникидзе улица,140008,52.2600857,76.9580819
51,улица Гагарина,140008,52.2600168,76.9573845
68,Орджоникидзе улица,140008,52.2599118,76.9576138
381,улица Абая,140008,52.2597385,76.9570171
66,Орджоникидзе улица,140008,52.2597377,76.9576407
383,улица Абая,140008,52.2596138,76.9570089
62,Орджоникидзе улица,140008,52.2593675,76.9576835
64,Орджоникидзе улица,140008,52.2595465,76.9575843
385,улица Абая,140008,52.2595152,76.9571659
387,улица Абая,140008,52.2593347,76.9570573
60,Орджоникидзе улица,140008,52.2591672,76.9576755
389,улица Абая,140008,52.2591566,76.9571901
58,Орджоникидзе улица,140008,52.2589981,76.9575977
391,улица Абая,140008,52.2589768,76.9571217
54,Орджоникидзе улица,140008,52.2584900,76.9579759
56,Орджоникидзе улица,140008,52.2587444,76.9577225
395,улица Абая,140008,52.2587913,76.9573657
397,улица Абая,140008,52.2586107,76.9571163
399,улица Абая,140008,52.2583226,76.9571363
396,улица Абая,140008,52.2591229,76.9565087
57,Потанина улица,140008,52.2591114,76.9559924
53,Потанина улица,140008,52.2587396,76.9560877
55,Потанина улица,140008,52.2589366,76.9560125
398,улица Абая,140008,52.2589300,76.9563787
400,улица Абая,140008,52.2587683,76.9565638
402,улица Абая,140008,52.2585524,76.9564176
404,улица Абая,140008,52.2583135,76.9565906
22,улица Теплова,140008,52.2583398,76.9560676
18,улица Теплова,140008,52.2583144,76.9555123
20,улица Теплова,140008,52.2583521,76.9558301
52,Потанина улица,140008,52.2589136,76.9556075
54,Потанина улица,140008,52.2590859,76.9555847
56,Потанина улица,140008,52.2592427,76.9554104
58,Потанина улица,140008,52.2594479,76.9555217
59,Потанина улица,140008,52.2592895,76.9559321
394,улица Абая,140008,52.2593051,76.9565463
392,улица Абая,140008,52.2594849,76.9565436
379,улица Абая,140008,52.2598790,76.9570063
390,улица Абая,140008,52.2596122,76.9562890
49,улица Гагарина,140008,52.2594857,76.9559893
388,улица Абая,140008,52.2598122,76.9564489
386,улица Абая,140008,52.2599596,76.9564402
384,улица Абая,140008,52.2600900,76.9564241
47,улица Гагарина,140008,52.2598575,76.9556972
45,улица Гагарина,140008,52.2600629,76.9557186
43,улица Гагарина,140008,52.2600560,76.9553729
41,улица Гагарина,140008,52.2599700,76.9540241
57,Кошевого улица,140008,52.2591009,76.9539282
55,Кошевого улица,140008,52.2589332,76.9540103
53,Кошевого улица,140008,52.2587613,76.9540413
51,Кошевого улица,140008,52.2585573,76.9540438
16,улица Теплова,140008,52.2582362,76.9540715
12б,улица Теплова,140008,52.2582329,76.9532856
14,улица Теплова,140008,52.2582523,76.9537644
63,Кирпичная улица,140008,52.2583812,76.9532066
65,Кирпичная улица,140008,52.2585388,76.9530214
46,Кошевого улица,140008,52.2584399,76.9537182
48,Кошевого улица,140008,52.2586193,76.9534801
67,Кирпичная улица,140008,52.2587682,76.9530536
52,Кошевого улица,140008,52.2589246,76.9536474
56,Кошевого улица,140008,52.2592199,76.9536558
54,Кошевого улица,140008,52.2590841,76.9536353
73,Кирпичная улица,140008,52.2592592,76.9530167
60,Кошевого улица,140008,52.2594615,76.9534844
75,Кирпичная улица,140008,52.2594330,76.9530946
37,улица Гагарина,140008,52.2597224,76.9534205
77,Кирпичная улица,140008,52.2595538,76.9529089
35,улица Гагарина,140008,52.2599434,76.9533905
81,Кирпичная улица,140008,52.2599055,76.9528604
78,Кирпичная улица,140008,52.2595741,76.9522821
69,улица Матросова,140008,52.2595694,76.9516553
67,улица Матросова,140008,52.2594389,76.9516432
65,улица Матросова,140008,52.2591754,76.9515574
76,Кирпичная улица,140008,52.2593290,76.9523814
74,Кирпичная улица,140008,52.2592101,76.9523614
72,Кирпичная улица,140008,52.2590570,76.9523555
63,улица Матросова,140008,52.2589505,76.9518444
70,Кирпичная улица,140008,52.2589209,76.9524044
66,Кирпичная улица,140008,52.2585906,76.9523518
61,улица Матросова,140008,52.2587861,76.9518312
59,улица Матросова,140008,52.2586136,76.9518073
57,улица Матросова,140008,52.2584495,76.9518245
64,Кирпичная улица,140008,52.2583864,76.9523273
62,Кирпичная улица,140008,52.2582463,76.9524732
60,Кирпичная улица,140008,52.2581362,76.9524332
12А,улица Теплова,140008,52.2581407,76.9520446
12,улица Теплова,140008,52.2581042,76.9516550
10,улица Теплова,140008,52.2582002,76.9513293
83,улица 2-я Советов,140008,52.2581049,76.9508340
85,улица 2-я Советов,140008,52.2583030,76.9508912
58,улица Матросова,140008,52.2585454,76.9514556
60,улица Матросова,140008,52.2586863,76.9514820
87,улица 2-я Советов,140008,52.2585208,76.9508630
89,улица 2-я Советов,140008,52.2587167,76.9508477
93,улица 2-я Советов,140008,52.2590771,76.9507644
68,улица Матросова,140008,52.2594248,76.9512520
66,улица Матросова,140008,52.2592476,76.9512702
95,улица Академика Бектурова,140008,52.2592648,76.9507517
97,улица 2-я Советов,140008,52.2594704,76.9506837
80,Кирпичная улица,140008,52.2598459,76.9522783
33,улица Гагарина,140008,52.2598255,76.9519409
31,улица Гагарина,140008,52.2597146,76.9516940
29,улица Гагарина,140008,52.2597280,76.9512346
27,улица Гагарина,140008,52.2596966,76.9507602
96,улица 2-я Советов,140008,52.2590614,76.9502878
94,улица 2-я Советов,140008,52.2588707,76.9502719
92,улица 2-я Советов,140008,52.2586591,76.9503116
90,улица 2-я Советов,140008,52.2584861,76.9502078
88,улица 2-я Советов,140008,52.2583168,76.9503397
86,улица 2-я Советов,140008,52.2581032,76.9503147
4а,улица Теплова,140008,52.2579904,76.9492090
4,улица Теплова,140008,52.2580582,76.9495941
31а,Комиссарская улица,140008,52.2582601,76.9496329
35а,Комиссарская улица,140008,52.2583872,76.9494713
2,улица Теплова,140008,52.2579495,76.9489152
27,Комиссарская улица,140008,52.2579284,76.9486534
31,Комиссарская улица,140008,52.2582764,76.9485839
35б,Комиссарская улица,140008,52.2585517,76.9491785
33,Комиссарская улица,140008,52.2585055,76.9485155
35,Комиссарская улица,140008,52.2586677,76.9485746
37,Комиссарская улица,140008,52.2587846,76.9485346
41,Комиссарская улица,140008,52.2590118,76.9484952
37а,Комиссарская улица,140008,52.2587919,76.9491048
41а,Комиссарская улица,140008,52.2591762,76.9484403
9,улица Гагарина,140008,52.2592127,76.9490384
11,улица Гагарина,140008,52.2591960,76.9492882
13,улица Гагарина,140008,52.2592037,76.9496592
98,улица 2-я Советов,140008,52.2592322,76.9502600
100,улица 2-я Советов,140008,52.2594453,76.9502515
25,улица Гагарина,140008,52.2595696,76.9502467
23,улица Гагарина,140008,52.2595088,76.9498411
21,улица Гагарина,140008,52.2594938,76.9495646
19,улица Гагарина,140008,52.2595075,76.9492760
7,улица Гагарина,140008,52.2595112,76.9489702
5,улица Гагарина,140008,52.2594767,76.9487371
45,Комиссарская улица,140008,52.2594932,76.9484555
46,Комиссарская улица,140008,52.2594828,76.9479028
1,улица Затон,140008,52.2595026,76.9472579
44,Комиссарская улица,140008,52.2592427,76.9478703
72,улица Затон,140008,52.2590865,76.9472460
42,Комиссарская улица,140008,52.2590556,76.9479688
68,улица Затон,140008,52.2587438,76.9472607
70,улица Затон,140008,52.2589076,76.9472588
40,Комиссарская улица,140008,52.2587490,76.9477854
66,улица Затон,140008,52.2583871,76.9473802
36,Комиссарская улица,140008,52.2585028,76.9480356
32а,Комиссарская улица,140008,52.2582537,76.9481050
32,Комиссарская улица,140008,52.2581354,76.9481243
30,Комиссарская улица,140008,52.2580418,76.9481291
28,Комиссарская улица,140008,52.2579327,76.9480822
4б,улица Теплова,140008,52.2579480,76.9477226
59,улица Затон,140008,52.2582200,76.9469616
63,улица Затон,140008,52.2584059,76.9469471
65,улица Затон,140008,52.2585307,76.9469542
1,улица Гагарина,140008,52.2594998,76.9462233
47,1-я Южная улица,140008,52.2537803,76.9651401
45,1-я Южная улица,140008,52.2539010,76.9651173
43,1-я Южная улица,140008,52.2541341,76.9650838
41,1-я Южная улица,140008,52.2543517,76.9650583
39,1-я Южная улица,140008,52.2545183,76.9650771
37,1-я Южная улица,140008,52.2546637,76.9650851
35,1-я Южная улица,140008,52.2549428,76.9649564
33,1-я Южная улица,140008,52.2552943,76.9649818
31,1-я Южная улица,140008,52.2556094,76.9648786
29,1-я Южная улица,140008,52.2557497,76.9648813
27,1-я Южная улица,140008,52.2559058,76.9648423
25,1-я Южная улица,140008,52.2560913,76.9648356
23,1-я Южная улица,140008,52.2562406,76.9648276
21,1-я Южная улица,140008,52.2564459,76.9648236
17,1-я Южная улица,140008,52.2569631,76.9649121
15,1-я Южная улица,140008,52.2571576,76.9647713
13,1-я Южная улица,140008,52.2573391,76.9647794
11,1-я Южная улица,140008,52.2574917,76.9647834
9,1-я Южная улица,140008,52.2576626,76.9647700
7,1-я Южная улица,140008,52.2578194,76.9647646
5,1-я Южная улица,140008,52.2579909,76.9647203
3,1-я Южная улица,140008,52.2581755,76.9646814
1,1-я Южная улица,140008,52.2583250,76.9647109
63,Нуркина улица,140008,52.2551179,76.9641401
20,1-я Южная улица,140008,52.2567957,76.9642751
55,Нуркина улица,140008,52.2567571,76.9639452
53,Нуркина улица,140008,52.2569721,76.9639076
18,1-я Южная улица,140008,52.2570033,76.9643569
51,Нуркина улица,140008,52.2571158,76.9640417
14,1-я Южная улица,140008,52.2573112,76.9643516
49,Нуркина улица,140008,52.2573054,76.9638741
12,1-я Южная улица,140008,52.2574811,76.9643314
47,Нуркина улица,140008,52.2574638,76.9638781
10,1-я Южная улица,140008,52.2576428,76.9643113
45,Нуркина улица,140008,52.2576477,76.9638915
8,1-я Южная улица,140008,52.2577930,76.9642979
43,Нуркина улица,140008,52.2577898,76.9637802
41,Нуркина улица,140008,52.2579425,76.9638245
6,1-я Южная улица,140008,52.2579588,76.9643167
4,1-я Южная улица,140008,52.2581271,76.9642683
2,1-я Южная улица,140008,52.2583012,76.9642577
39,Нуркина улица,140008,52.2581165,76.9638298
37,Нуркина улица,140008,52.2582937,76.9638017
79,Чехова улица,140008,52.2580401,76.9627744
94,Нуркина улица,140008,52.2574277,76.9632156
96,Нуркина улица,140008,52.2573038,76.9631446
73,Чехова улица,140008,52.2573103,76.9628750
98,Нуркина улица,140008,52.2570649,76.9632532
71,Чехова улица,140008,52.2570066,76.9629032
100,Нуркина улица,140008,52.2567792,76.9632948
71,Кубанская улица,140008,52.2569844,76.9621870
72,Чехова улица,140008,52.2570583,76.9624686
74,Чехова улица,140008,52.2572907,76.9624834
73,Кубанская улица,140008,52.2572701,76.9621642
76,Чехова улица,140008,52.2575090,76.9624578
75,Кубанская улица,140008,52.2575180,76.9621360
78,Чехова улица,140008,52.2577331,76.9624592
77,Кубанская улица,140008,52.2577388,76.9621441
77,Чехова улица,140008,52.2577266,76.9628227
75,Чехова улица,140008,52.2575303,76.9628374
90,Нуркина улица,140008,52.2577651,76.9631606
88,Нуркина улица,140008,52.2579769,76.9631700
80,Чехова улица,140008,52.2579507,76.9624525
79,Кубанская улица,140008,52.2579573,76.9621025
30б,улица Теплова,140008,52.2582240,76.9630842
169,улица Исы Байзакова,140008,52.2580853,76.9613823
80,Кубанская улица,140008,52.2582199,76.9617015
78,Кубанская улица,140008,52.2579473,76.9617431
171,улица Исы Байзакова,140008,52.2579317,76.9614078
173,улица Исы Байзакова,140008,52.2578053,76.9613274
76,Кубанская улица,140008,52.2576305,76.9617001
74,Кубанская улица,140008,52.2574910,76.9617619
72,Кубанская улица,140008,52.2572882,76.9617752
70,Кубанская улица,140008,52.2570419,76.9618249
68,Кубанская улица,140008,52.2568014,76.9618236
175,улица Исы Байзакова,140008,52.2569819,76.9613824
366,улица Исы Байзакова,140008,52.2571445,76.9613153
57,Чапаева,140008,52.2578292,76.9603510
360,улица Исы Байзакова,140008,52.2576707,76.9609263
55,Чапаева,140008,52.2576494,76.9603604
354,улица Исы Байзакова,140008,52.2582175,76.9608540
59,Чапаева,140008,52.2581994,76.9602853
364,улица Исы Байзакова,140008,52.2573350,76.9612441
362,улица Исы Байзакова,140008,52.2574958,76.9609411
53,Чапаева,140008,52.2573858,76.9604061
51,Чапаева,140008,52.2572833,76.9604489
49,Чапаева,140008,52.2571043,76.9604758
368,улица Исы Байзакова,140008,52.2569762,76.9610202
47,Чапаева,140008,52.2569368,76.9604235
45,Чапаева,140008,52.2566544,76.9604408
370,улица Исы Байзакова,140008,52.2563745,76.9610001
43,Чапаева,140008,52.2563720,76.9604637
41,Чапаева,140008,52.2561733,76.9605173
372,улица Исы Байзакова,140008,52.2561906,76.9610739
374,улица Исы Байзакова,140008,52.2560314,76.9610618
376,улица Исы Байзакова,140008,52.2557826,76.9611034
37,Чапаева,140008,52.2558040,76.9605026
35,Чапаева,140008,52.2556340,76.9605280
33,Чапаева,140008,52.2554682,76.9606528
378,улица Исы Байзакова,140008,52.2556094,76.9608553
380,улица Исы Байзакова,140008,52.2554854,76.9611422
382,улица Исы Байзакова,140008,52.2552819,76.9611422
384,улица Исы Байзакова,140008,52.2551234,76.9611221
27,Чапаева,140008,52.2547778,76.9605696
31,Чапаева,140008,52.2552539,76.9605884
386,улица Исы Байзакова,140008,52.2549362,76.9611718
388,улица Исы Байзакова,140008,52.2547671,76.9611624
30,улица Рылеева,140008,52.2545176,76.9610752
28,улица Рылеева,140008,52.2544961,76.9606448
24,Чапаева,140008,52.2546489,76.9601995
26,улица Рылеева,140008,52.2544469,76.9601123
24,улица Рылеева,140008,52.2544510,76.9597140
27,улица Валиханова,140008,52.2545791,76.9595557
29,улица Валиханова,140008,52.2547063,76.9595544
31,улица Валиханова,140008,52.2549034,76.9594967
26,Чапаева,140008,52.2548139,76.9602504
28,Чапаева,140008,52.2550725,76.9602115
33,улица Валиханова,140008,52.2550782,76.9595128
35,улица Валиханова,140008,52.2552704,76.9595262
30,Чапаева,140008,52.2552712,76.9601445
37,улица Валиханова,140008,52.2554271,76.9594780
39,улица Валиханова,140008,52.2555289,76.9595088
34,Чапаева,140008,52.2556176,76.9601244
41,улица Валиханова,140008,52.2556776,76.9594417
36,Чапаева,140008,52.2557867,76.9600855
43,улица Валиханова,140008,52.2559394,76.9594230
45,улица Валиханова,140008,52.2560495,76.9594512
38,Чапаева,140008,52.2559517,76.9601016
40,Чапаева,140008,52.2561528,76.9600962
42,Чапаева,140008,52.2563301,76.9600774
42а,Чапаева,140008,52.2563343,76.9598320
47,улица Валиханова,140008,52.2563319,76.9594096
20,улица Рылеева,140008,52.2544182,76.9588463
22,улица Рылеева,140008,52.2544494,76.9591535
28,улица Валиханова,140008,52.2546447,76.9590609
27,Орджоникидзе улица,140008,52.2546432,76.9585137
29,Орджоникидзе улица,140008,52.2547893,76.9585499
30,улица Валиханова,140008,52.2548336,76.9591132
32,улица Валиханова,140008,52.2549953,76.9589912
31,Орджоникидзе улица,140008,52.2549674,76.9585875
34,улица Валиханова,140008,52.2551677,76.9590059
36,улица Валиханова,140008,52.2553475,76.9589576
37,Орджоникидзе улица,140008,52.2552621,76.9585566
38,улица Валиханова,140008,52.2555453,76.9589361
39,Орджоникидзе улица,140008,52.2555551,76.9585460
40,улица Валиханова,140008,52.2557374,76.9590113
42,улица Валиханова,140008,52.2559329,76.9589871
44,улица Валиханова,140008,52.2560929,76.9589898
41,Орджоникидзе улица,140008,52.2558737,76.9584708
43,Орджоникидзе улица,140008,52.2560740,76.9585191
46,улица Валиханова,140008,52.2562678,76.9589187
67,улица Валиханова,140008,52.2581674,76.9592956
29,улица Теплова,140008,52.2580582,76.9596724
65,улица Валиханова,140008,52.2580114,76.9592808
61,улица Валиханова,140008,52.2577840,76.9592634
54,Чапаева,140008,52.2576141,76.9599366
52,Чапаева,140008,52.2573571,76.9599621
57,улица Валиханова,140008,52.2572652,76.9593425
59,улица Валиханова,140008,52.2575722,76.9593130
55,улица Валиханова,140008,52.2571617,76.9593559
48,Чапаева,140008,52.2570723,76.9599970
50,Чапаева,140008,52.2571815,76.9598722
46,Чапаева,140008,52.2569032,76.9600667
44,Чапаева,140008,52.2566462,76.9600131
49,улица Валиханова,140008,52.2566183,76.9593573
45,Орджоникидзе улица,140008,52.2568416,76.9582468
48/1,улица Валиханова,140008,52.2566069,76.9586733
48,улица Валиханова,140008,52.2566117,76.9589428
50,улица Валиханова,140008,52.2568244,76.9588906
47,Орджоникидзе улица,140008,52.2570525,76.9582227
56,улица Валиханова,140008,52.2572282,76.9588731
49,Орджоникидзе улица,140008,52.2572160,76.9582374
51,Орджоникидзе улица,140008,52.2573809,76.9583689
58,улица Валиханова,140008,52.2574130,76.9588222
60,улица Валиханова,140008,52.2575312,76.9586103
53,Орджоникидзе улица,140008,52.2576206,76.9582388
55,Орджоникидзе улица,140008,52.2577873,76.9583461
62,улица Валиханова,140008,52.2577610,76.9588530
64,улица Валиханова,140008,52.2579417,76.9587779
66,улица Валиханова,140008,52.2581567,76.9588021
27,улица Теплова,140008,52.2581124,76.9583863
25,улица Теплова,140008,52.2580491,76.9580335
23,улица Теплова,140008,52.2580820,76.9576916
403,улица Абая,140008,52.2580549,76.9572544
52,Орджоникидзе улица,140008,52.2578169,76.9578029
413,улица Абая,140008,52.2576199,76.9572759
50,Орджоникидзе улица,140008,52.2575263,76.9578069
415,улица Абая,140008,52.2575032,76.9573107
417,улица Абая,140008,52.2573662,76.9572692
419,улица Абая,140008,52.2572792,76.9573537
48,Орджоникидзе улица,140008,52.2573432,76.9578043
46,Орджоникидзе улица,140008,52.2571831,76.9578432
421,улица Абая,140008,52.2571552,76.9573348
44,Орджоникидзе улица,140008,52.2570123,76.9578203
423,улица Абая,140008,52.2569820,76.9573027
427,улица Абая,140008,52.2566733,76.9574020
42,Орджоникидзе улица,140008,52.2568153,76.9577506
425,улица Абая,140008,52.2568088,76.9572799
23,улица Амангельды,140008,52.2562440,76.9577948
25,улица Амангельды,140008,52.2562973,76.9581060
429,улица Абая,140008,52.2562654,76.9573523
431,улица Абая,140008,52.2560790,76.9573456
433,улица Абая,140008,52.2558951,76.9574114
40,Орджоникидзе улица,140008,52.2558959,76.9580631
38,Орджоникидзе улица,140008,52.2557202,76.9580429
435,улица Абая,140008,52.2557112,76.9573859
36,Орджоникидзе улица,140008,52.2555387,76.9580323
437,улица Абая,140008,52.2555322,76.9574476
34,Орджоникидзе улица,140008,52.2553582,76.9580617
32,Орджоникидзе улица,140008,52.2551612,76.9580738
443,улица Абая,140008,52.2551119,76.9574462
445,улица Абая,140008,52.2549895,76.9576139
30,Орджоникидзе улица,140008,52.2550060,76.9580121
447,улица Абая,140008,52.2548131,76.9575267
28,Орджоникидзе улица,140008,52.2547425,76.9580725
26,Орджоникидзе улица,140008,52.2545659,76.9581046
449,улица Абая,140008,52.2545766,76.9575294
14,улица Рылеева,140008,52.2544026,76.9575440
3,Потанина улица,140008,52.2528277,76.9565574
5,Потанина улица,140008,52.2529806,76.9566201
458,улица Абая,140008,52.2531139,76.9571187
7,Потанина улица,140008,52.2531074,76.9565810
452,улица Абая,140008,52.2535052,76.9570559
450,улица Абая,140008,52.2536267,76.9570789
13,Потанина улица,140008,52.2535222,76.9565457
448а,улица Абая,140008,52.2537688,76.9570506
448,улица Абая,140008,52.2540192,76.9570511
17,Потанина улица,140008,52.2538320,76.9565216
19,Потанина улица,140008,52.2538805,76.9568047
21,Потанина улица,140008,52.2540365,76.9566966
23,Потанина улица,140008,52.2541751,76.9565410
446,улица Абая,140008,52.2544051,76.9569326
25,Потанина улица,140008,52.2543936,76.9564980
444,улица Абая,140008,52.2546825,76.9569741
27,Потанина улица,140008,52.2546768,76.9565745
442,улица Абая,140008,52.2548032,76.9569781
438,улица Абая,140008,52.2551957,76.9569554
440,улица Абая,140008,52.2549789,76.9569594
29а,Потанина улица,140008,52.2550150,76.9564283
31,Потанина улица,140008,52.2551562,76.9564202
33,Потанина улица,140008,52.2553106,76.9565114
436,улица Абая,140008,52.2553885,76.9569151
434,улица Абая,140008,52.2554895,76.9569178
35,Потанина улица,140008,52.2555223,76.9563706
432,улица Абая,140008,52.2556981,76.9568186
430,улица Абая,140008,52.2558606,76.9568614
428,улица Абая,140008,52.2560519,76.9568508
37,Потанина улица,140008,52.2558524,76.9562432
424,улица Абая,140008,52.2562308,76.9568038
426,улица Абая,140008,52.2561364,76.9563411
19а,улица Амангельды,140008,52.2561963,76.9561319
422,улица Абая,140008,52.2565649,76.9566617
420,улица Абая,140008,52.2567628,76.9567810
22,улица Амангельды,140008,52.2564878,76.9562861
416,улица Абая,140008,52.2571437,76.9567689
41,Потанина улица,140008,52.2570887,76.9561480
43,Потанина улица,140008,52.2572955,76.9561882
414,улица Абая,140008,52.2573062,76.9567475
412,улица Абая,140008,52.2574877,76.9567273
45,Потанина улица,140008,52.2574130,76.9561802
47,Потанина улица,140008,52.2575550,76.9562325
49,Потанина улица,140008,52.2576896,76.9562217
408,улица Абая,140008,52.2578259,76.9565812
46,Потанина улица,140008,52.2576552,76.9558972
19,улица Теплова,140008,52.2579687,76.9559226
44,Потанина улица,140008,52.2574482,76.9558208
42,Потанина улица,140008,52.2572619,76.9555351
40,Потанина улица,140008,52.2570813,76.9558275
38,Потанина улица,140008,52.2569155,76.9558288
18,улица Амангельды,140008,52.2565140,76.9557201
17а,улица Амангельды,140008,52.2561208,76.9557751
36,Потанина улица,140008,52.2558352,76.9559187
32,Потанина улица,140008,52.2554772,76.9559093
30,Потанина улица,140008,52.2552900,76.9559871
22,Потанина улица,140008,52.2546291,76.9560877
28,Потанина улица,140008,52.2549814,76.9560649
20а,Потанина улица,140008,52.2543960,76.9561641
18,Потанина улица,140008,52.2541711,76.9561480
16,Потанина улица,140008,52.2540265,76.9561641
14,Потанина улица,140008,52.2537245,76.9561681
12,Потанина улица,140008,52.2535866,76.9559670
10,Потанина улица,140008,52.2534658,76.9561533
8,Потанина улица,140008,52.2532984,76.9560944
6,Потанина улица,140008,52.2531317,76.9561413
4,Потанина улица,140008,52.2529699,76.9561963
1,улица 2-я Советов,140008,52.2528289,76.9539715
5,улица 2-я Советов,140008,52.2529856,76.9541672
3,улица 2-я Советов,140008,52.2532111,76.9537293
17/1,улица 2-я Советов,140008,52.2533847,76.9540986
15,улица 2-я Советов,140008,52.2536103,76.9540655
13,улица 2-я Советов,140008,52.2537959,76.9539649
11,улица 2-я Советов,140008,52.2536161,76.9536992
9,улица 2-я Советов,140008,52.2535892,76.9533731
19,Кошевого улица,140008,52.2542821,76.9544973
23,Кошевого улица,140008,52.2545778,76.9543819
25,Кошевого улица,140008,52.2547779,76.9543355
27,Кошевого улица,140008,52.2549664,76.9542729
29,Кошевого улица,140008,52.2551363,76.9543040
31,Кошевого улица,140008,52.2555506,76.9543326
33,Кошевого улица,140008,52.2557927,76.9543698
15,улица Амангельды,140008,52.2559621,76.9544639
16,улица Амангельды,140008,52.2564385,76.9543671
43,Кошевого улица,140008,52.2571877,76.9542205
47а,Кошевого улица,140008,52.2574532,76.9542919
47,Кошевого улица,140008,52.2576390,76.9541913
49,Кошевого улица,140008,52.2577661,76.9541804
15,улица Теплова,140008,52.2579021,76.9541436
13/1,улица Теплова,140008,52.2579095,76.9538089
57,Кирпичная улица,140008,52.2577057,76.9530998
55,Кирпичная улица,140008,52.2575813,76.9531238
42,Кошевого улица,140008,52.2576040,76.9538290
40,Кошевого улица,140008,52.2574813,76.9538544
53,Кирпичная улица,140008,52.2573900,76.9531721
51,Кирпичная улица,140008,52.2571877,76.9531746
36,Кошевого улица,140008,52.2571756,76.9536662
49,Кирпичная улица,140008,52.2569946,76.9531985
34,Кошевого улица,140008,52.2570379,76.9538706
32,Кошевого улица,140008,52.2568301,76.9538948
47а,Кирпичная улица,140008,52.2567823,76.9532471
47,Кирпичная улица,140008,52.2566135,76.9532357
45,Кирпичная улица,140008,52.2563759,76.9532471
14а,улица Амангельды,140008,52.2564106,76.9534986
14,улица Амангельды,140008,52.2563760,76.9540801
13,улица Амангельды,140008,52.2559968,76.9537045
37,Кирпичная улица,140008,52.2556645,76.9533938
35,Кирпичная улица,140008,52.2555446,76.9534078
28а,Кошевого улица,140008,52.2555445,76.9539010
28/1,Кошевого улица,140008,52.2553530,76.9538812
33,Кирпичная улица,140008,52.2553609,76.9533709
31,Кирпичная улица,140008,52.2551689,76.9534102
26,Кошевого улица,140008,52.2550897,76.9538547
29,Кирпичная улица,140008,52.2548783,76.9534619
24,Кошевого улица,140008,52.2548110,76.9538937
22,Кошевого улица,140008,52.2546341,76.9540013
25,Кирпичная улица,140008,52.2545856,76.9534017
23,Кирпичная улица,140008,52.2544365,76.9534601
21,Кирпичная улица,140008,52.2542931,76.9534807
20,Кошевого улица,140008,52.2543657,76.9538991
18,Кошевого улица,140008,52.2541986,76.9540045
19,Кирпичная улица,140008,52.2540835,76.9534752
18,Кирпичная улица,140008,52.2539804,76.9530137
20,Кирпичная улица,140008,52.2542746,76.9529736
22,Кирпичная улица,140008,52.2545401,76.9529416
24,Кирпичная улица,140008,52.2546521,76.9529495
26,Кирпичная улица,140008,52.2548295,76.9528979
31,улица Матросова,140008,52.2547314,76.9527001
33,улица Матросова,140008,52.2548925,76.9524549
28,Кирпичная улица,140008,52.2549597,76.9528729
30,Кирпичная улица,140008,52.2551322,76.9528399
35,улица Матросова,140008,52.2550347,76.9523847
32,Кирпичная улица,140008,52.2553067,76.9528244
34,Кирпичная улица,140008,52.2555071,76.9527911
36,Кирпичная улица,140008,52.2556881,76.9527692
41б,улица Матросова,140008,52.2556081,76.9520299
39,улица Матросова,140008,52.2553166,76.9522021
5,улица Амангельды,140008,52.2557221,76.9519523
40,Кирпичная улица,140008,52.2561570,76.9526890
41,улица Матросова,140008,52.2562489,76.9522374
43,улица Матросова,140008,52.2565822,76.9521541
44,Кирпичная улица,140008,52.2566118,76.9526879
44а,Кирпичная улица,140008,52.2567868,76.9526685
45,улица Матросова,140008,52.2567651,76.9521103
47,улица Матросова,140008,52.2569329,76.9521999
46,Кирпичная улица,140008,52.2569553,76.9526475
48,Кирпичная улица,140008,52.2571171,76.9526232
50,Кирпичная улица,140008,52.2573153,76.9525168
51,улица Матросова,140008,52.2572772,76.9520940
52,Кирпичная улица,140008,52.2574787,76.9525667
53,улица Матросова,140008,52.2574766,76.9521112
54,Кирпичная улица,140008,52.2575834,76.9525781
56,Кирпичная улица,140008,52.2576871,76.9524104
55,улица Матросова,140008,52.2576783,76.9521144
58,Кирпичная улица,140008,52.2578659,76.9525336
81,улица 2-я Советов,140008,52.2578004,76.9509593
9,улица Теплова,140008,52.2578184,76.9512599
9а,улица Теплова,140008,52.2578022,76.9514374
56,улица Матросова,140008,52.2576411,76.9517503
54,улица Матросова,140008,52.2574522,76.9516929
77,улица 2-я Советов,140008,52.2572447,76.9509686
52,улица Матросова,140008,52.2572749,76.9514867
50,улица Матросова,140008,52.2570111,76.9517125
48,улица Матросова,140008,52.2568958,76.9516701
46,улица Матросова,140008,52.2567339,76.9517043
73,улица 2-я Советов,140008,52.2568668,76.9510389
71,улица 2-я Советов,140008,52.2566954,76.9510356
44,улица Матросова,140008,52.2565575,76.9517143
69,улица 2-я Советов,140008,52.2564811,76.9510361
67,улица 2-я Советов,140008,52.2563241,76.9510879
42,улица Матросова,140008,52.2563759,76.9517470
65,улица 2-я Советов,140008,52.2561518,76.9510795
40а,улица Матросова,140008,52.2562560,76.9518174
63,улица 2-я Советов,140008,52.2559897,76.9511906
8,улица Амангельды,140008,52.2559141,76.9518915
61,улица 2-я Советов,140008,52.2558076,76.9510790
1,улица Амангельды,140008,52.2557752,76.9514716
59,улица 2-я Советов,140008,52.2556284,76.9511623
42а,улица Матросова,140008,52.2556015,76.9516792
55,улица 2-я Советов,140008,52.2552919,76.9511251
53,улица 2-я Советов,140008,52.2551654,76.9511412
40,улица Матросова,140008,52.2553561,76.9516389
38а,улица Матросова,140008,52.2552732,76.9518960
38,улица Матросова,140008,52.2550909,76.9520281
51,улица 2-я Советов,140008,52.2550152,76.9512825
49,улица 2-я Советов,140008,52.2548678,76.9515048
47,улица 2-я Советов,140008,52.2546265,76.9515923
36,улица Матросова,140008,52.2548269,76.9520816
34,улица Матросова,140008,52.2545465,76.9523155
43,улица 2-я Советов,140008,52.2543097,76.9519939
41,улица 2-я Советов,140008,52.2542016,76.9520810
32,улица Матросова,140008,52.2543898,76.9524496
30,улица Матросова,140008,52.2541711,76.9523750
28,улица Матросова,140008,52.2539661,76.9525512
58/1,улица 2-я Советов,140008,52.2554071,76.9506784
56,улица 2-я Советов,140008,52.2552344,76.9506785
54,улица 2-я Советов,140008,52.2550322,76.9506901
46,улица 2-я Советов,140008,52.2543328,76.9511127
44,улица 2-я Советов,140008,52.2542020,76.9515477
42,улица 2-я Советов,140008,52.2537933,76.9519000
42а,улица 2-я Советов,140008,52.2539607,76.9517412
40а,улица 2-я Советов,140008,52.2538197,76.9521998
40,улица 2-я Советов,140008,52.2536816,76.9523529
38,улица 2-я Советов,140008,52.2535295,76.9525957
34,улица 2-я Советов,140008,52.2533108,76.9529484
32,улица 2-я Советов,140008,52.2531635,76.9530308
30,улица 2-я Советов,140008,52.2530567,76.9531413
28,улица 2-я Советов,140008,52.2529158,76.9531386
26,улица 2-я Советов,140008,52.2528454,76.9533546
24,улица 2-я Советов,140008,52.2526772,76.9533517
22,улица 2-я Советов,140008,52.2525291,76.9536780
20,улица 2-я Советов,140008,52.2524031,76.9537727
16,улица 2-я Советов,140008,52.2520109,76.9540600
14,улица 2-я Советов,140008,52.2518263,76.9541481
97,улица Академика Сатпаева,140000,52.2767914,76.9424432
108,улица Генерала Дюсенова,140000,52.2779277,76.9459020
112,улица Генерала Дюсенова,140000,52.2775929,76.9455734
110,улица Генерала Дюсенова,140000,52.2775905,76.9459222
16,улица Луначарского,140000,52.2773049,76.9453655
15,улица Луначарского,140000,52.2769800,76.9454152
13/4,улица Луначарского,140000,52.2769103,76.9450865
118,улица Генерала Дюсенова,140000,52.2769980,76.9458631
153,улица Академика Маргулана,140000,52.2769282,76.9442885
157,улица Академика Маргулана,140000,52.2765598,76.9442993
161,улица Академика Маргулана,140000,52.2763851,76.9443356
163,улица Академика Маргулана,140000,52.2762054,76.9443113
165,улица Академика Маргулана,140000,52.2759740,76.9443932
167,улица Академика Маргулана,140000,52.2758271,76.9443959
169,улица Академика Маргулана,140000,52.2756236,76.9449270
105,улица Академика Сатпаева,140000,52.2759731,76.9423708
101,улица Академика Сатпаева,140000,52.2763112,76.9423990
91/1,улица Академика Сатпаева,140000,52.2765377,76.9427571
99,улица Академика Сатпаева,140000,52.2765074,76.9422622
140,улица Академика Маргулана,140000,52.2768873,76.9436127
142,улица Академика Маргулана,140000,52.2767042,76.9436221
144,улица Академика Маргулана,140000,52.2765081,76.9436489
146,улица Академика Маргулана,140000,52.2763071,76.9436570
150,улица Академика Маргулана,140000,52.2761151,76.9436436
152,улица Академика Маргулана,140000,52.2759543,76.9436958
156,улица Академика Маргулана,140000,52.2758188,76.9437214
160,улица Академика Маргулана,140000,52.2754718,76.9438032
162,улица Академика Маргулана,140000,52.2753224,76.9438138
55,улица Гагарина,140008,52.2601900,76.9615567
57,улица Гагарина,140008,52.2601884,76.9618316
2/7,Путейская улица,140000,52.3057829,76.9576006
795,Центральная промышленная зона,140000,52.3074932,76.9574169
2/7,Путейская улица,140000,52.3055564,76.9588753
2/7,Путейская улица,140000,52.3056824,76.9581603
2/7,Путейская улица,140000,52.3055638,76.9596282
277,улица Астана,140000,52.2655185,76.9412148
2/7,Путейская улица,140000,52.3057984,76.9571304
2/7,Путейская улица,140000,52.3057168,76.9583339
322/1,Абая,14000,52.2674911,76.9557448
330,улица Абая,14000,52.2665687,76.9554165
330,улица Абая,14000,52.2670577,76.9558464
350,Абая,14000,52.2652440,76.9559403
120,улица Генерала Дюсенова,140000,52.2767256,76.9460401
128,улица Генерала Дюсенова,140000,52.2763540,76.9460817
130,улица Генерала Дюсенова,140000,52.2761807,76.9460763
159/1,улица Академика Маргулана,140000,52.2764417,76.9448076
155,улица Академика Маргулана,140000,52.2767444,76.9443249
11,улица Луначарского,140000,52.2768873,76.9429395
9/2,улица Луначарского,140000,52.2767753,76.9410467
44,Кубанская улица,140008,52.2545413,76.9620006
46,Кубанская улица,140008,52.2549222,76.9619778
48,Кубанская улица,140008,52.2550676,76.9619832
199,улица Исы Байзакова,140008,52.2545232,76.9615111
197,улица Исы Байзакова,140008,52.2547622,76.9614883
195,улица Исы Байзакова,140008,52.2548993,76.9614909
193,улица Исы Байзакова,140008,52.2550462,76.9614909
191,улица Исы Байзакова,140008,52.2551948,76.9615017
50,Кубанская улица,140008,52.2552211,76.9619885
52,Кубанская улица,140008,52.2553377,76.9619938
54,Кубанская улица,140008,52.2554985,76.9619496
56,Кубанская улица,140008,52.2556398,76.9619416
58,Кубанская улица,140008,52.2558187,76.9618892
189,улица Исы Байзакова,140008,52.2553484,76.9614936
187,улица Исы Байзакова,140008,52.2554707,76.9614520
185,улица Исы Байзакова,140008,52.2556201,76.9614292
183,улица Исы Байзакова,140008,52.2557530,76.9614118
181,улица Исы Байзакова,140008,52.2559205,76.9614440
60,Кубанская улица,140008,52.2559280,76.9619455
64/1,Кубанская улица,140008,52.2560674,76.9619215
179,улица Исы Байзакова,140008,52.2560831,76.9614574
177,улица Исы Байзакова,140008,52.2562891,76.9614816
66/1,Кубанская улица,140008,52.2562968,76.9618629
136,улица Генерала Дюсенова,140000,52.2757795,76.9460749
132,улица Генерала Дюсенова,140000,52.2761077,76.9456888
134,улица Генерала Дюсенова,140000,52.2760027,76.9460964
13/1,улица Луначарского,140000,52.2766723,76.9451631
159/3,улица Академика Маргулана,140000,52.2763047,76.9450343
159/2,улица Академика Маргулана,140000,52.2762981,76.9447553
159/4,улица Академика Маргулана,140000,52.2764425,76.9450343
153а,улица Академика Маргулана,140000,52.2769217,76.9446909
158,улица Академика Маргулана,140000,52.2756679,76.9437039
103,улица Академика Сатпаева,140000,52.2761471,76.9422876
14,улица Луначарского,140000,52.2772959,76.9450664
18,улица Луначарского,140000,52.2773156,76.9456565
114,улица Генерала Дюсенова,140000,52.2773484,76.9459569
44/2,улица Ломова,14000,52.2642408,76.9560689
358,Абая,14000,52.2645330,76.9560367
354,Абая,14000,52.2649860,76.9559616
352,Абая,14000,52.2651174,76.9559455
346,Абая,14000,52.2655376,76.9559133
344,Абая,14000,52.2658659,76.9558704
281,Гоголя переулок,14000,52.2652881,76.9553339
279,Гоголя переулок,14000,52.2654358,76.9553286
278,Гоголя переулок,14000,52.2649237,76.9550550
270,Гоголя переулок,14000,52.2655277,76.9549960
268,Гоголя переулок,14000,52.2656361,76.9550282
266,Гоголя переулок,14000,52.2658265,76.9550925
342,Абая,14000,52.2660333,76.9558865
296,улица Маяковского,14000,52.2660005,76.9556665
51,улица Маяковского,14000,52.2659381,76.9546044
351,Машхур Жусупа улица,14000,52.2642244,76.9544649
347,Машхур Жусупа улица,14000,52.2644279,76.9544810
115/4,улица Торайгырова,140006,52.2984805,76.9713628
23/1,Нурсултана Назарбаева проспект,140006,52.2898451,76.9683909
386/1,Машхур Жусупа улица,14000,52.2617604,76.9546424
361,Машхур Жусупа улица,14000,52.2632989,76.9546500
47/2,улица Айманова,140005,52.3004423,76.9231474
21/1,улица Айманова,140005,52.3005406,76.9217312
170,улица Астана,140000,52.2761842,76.9381841
279/9а,улица Астана,140000,52.2652618,76.9414187
65/1,улица Гагарина,140008,52.2597689,76.9666904
39,улица Гагарина,140008,52.2599692,76.9537193
62,Кошевого улица,140008,52.2596884,76.9537179
17,улица Гагарина,140008,52.2592267,76.9500607
15,улица Гагарина,140008,52.2592255,76.9498555
3,улица Гагарина,140008,52.2594840,76.9475480
8,улица Гагарина,140008,52.2601998,76.9476776
286,Гоголя переулок,14000,52.2628504,76.9553232
287,Гоголя переулок,14000,52.2638419,76.9555565
40/2,улица Гагарина,140008,52.2616570,76.9628680
44/8,улица Гагарина,140008,52.2614879,76.9672152
36/4,улица Гагарина,140008,52.2608587,76.9605576
49,улица Матросова,140008,52.2570895,76.9521474
42,Кирпичная улица,140008,52.2564853,76.9524909
79,улица 2-я Советов,140008,52.2576280,76.9509458
75,улица 2-я Советов,140008,52.2570534,76.9509994
5,улица Теплова,140008,52.2575196,76.9488537
3,Комиссарская улица,140008,52.2560716,76.9501680
7,Комиссарская улица,140008,52.2564918,76.9498622
9а,Комиссарская улица,140008,52.2567283,76.9498193
9,Комиссарская улица,140008,52.2569154,76.9497442
66,улица 2-я Советов,140008,52.2561241,76.9505542
68,улица 2-я Советов,140008,52.2563145,76.9505274
70,улица 2-я Советов,140008,52.2564787,76.9505166
72,улица 2-я Советов,140008,52.2566560,76.9504953
74,улица 2-я Советов,140008,52.2567775,76.9505166
76,улица 2-я Советов,140008,52.2569122,76.9504685
78,улица 2-я Советов,140008,52.2570796,76.9504524
80,улица 2-я Советов,140008,52.2573917,76.9501412
82,улица 2-я Советов,140008,52.2575853,76.9504147
37Б,Комиссарская улица,140008,52.2587544,76.9494357
39,Комиссарская улица,140008,52.2588889,76.9485425
43,Комиссарская улица,140008,52.2593470,76.9484433
29,Комиссарская улица,140008,52.2581271,76.9486017
38,Комиссарская улица,140008,52.2586279,76.9480035
34,Комиссарская улица,140008,52.2583833,76.9480679
64,улица Затон,140008,52.2581879,76.9473651
61б,улица Затон,140008,52.2593700,76.9473624
1/3а,улица Гагарина,140008,52.2592222,76.9467428
1/2,улица Гагарина,140008,52.2592025,76.9465283
1/1,улица Гагарина,140008,52.2593388,76.9465122
1/3,улица Гагарина,140008,52.2596195,76.9468743
1/4,улица Гагарина,140008,52.2596359,76.9465846
163,улица Исы Байзакова,140008,52.2590695,76.9612858
358,улица Исы Байзакова,140008,52.2578924,76.9608861
356,улица Исы Байзакова,140008,52.2580368,76.9609370
346,улица Исы Байзакова,140008,52.2591188,76.9607467
61,Чапаева,140008,52.2584686,76.9602718
39,Чапаева,140008,52.2559862,76.9604758
29,Чапаева,140008,52.2550585,76.9606019
32,Чапаева,140008,52.2554394,76.9601217
56,Чапаева,140008,52.2578004,76.9598830
58,Чапаева,140008,52.2579186,76.9599312
63,улица Валиханова,140008,52.2578973,76.9594216
53,улица Валиханова,140008,52.2570485,76.9593438
51,улица Валиханова,140008,52.2568613,76.9593706
52,улица Валиханова,140008,52.2569631,76.9588289
72,улица Валиханова,140008,52.2587658,76.9587592
57,Орджоникидзе улица,140008,52.2584374,76.9583032
25,Орджоникидзе улица,140008,52.2544042,76.9585204
377,улица Абая,140008,52.2600447,76.9569608
393,улица Абая,140008,52.2588774,76.9571524
405,улица Абая,140008,52.2579351,76.9572370
407,улица Абая,140008,52.2577938,76.9572289
409,улица Абая,140008,52.2577101,76.9572705
439,улица Абая,140008,52.2553672,76.9574529
462,улица Абая,140008,52.2528206,76.9571176
460,улица Абая,140008,52.2530045,76.9571123
456,улица Абая,140008,52.2532705,76.9570747
454,улица Абая,140008,52.2533789,76.9570318
418,улица Абая,140008,52.2569417,76.9567180
410,улица Абая,140008,52.2576018,76.9567636
51,Потанина улица,140008,52.2586230,76.9560769
406,улица Абая,140008,52.2580451,76.9566643
21,улица Теплова,140008,52.2580073,76.9561869
39,Потанина улица,140008,52.2569139,76.9562566
29,Потанина улица,140008,52.2548565,76.9566295
15,Потанина улица,140008,52.2536695,76.9565275
11,Потанина улица,140008,52.2533969,76.9565517
9,Потанина улица,140008,52.2532556,76.9565409
4/1,Потанина улица,140008,52.2526383,76.9562378
14а,Потанина улица,140008,52.2538600,76.9561520
24,Потанина улица,140008,52.2548138,76.9560850
32/1,Потанина улица,140008,52.2556578,76.9558892
48,Потанина улица,140008,52.2585688,76.9557363
63,Кошевого улица,140008,52.2597377,76.9540331
61,Кошевого улица,140008,52.2594866,76.9540277
59,Кошевого улица,140008,52.2592863,76.9539258
41,Кошевого улица,140008,52.2570929,76.9542128
45,Кошевого улица,140008,52.2573046,76.9542289
21,Кошевого улица,140008,52.2544510,76.9544300
32/1,Кошевого улица,140008,52.2557169,76.9539419
32б,Кошевого улица,140008,52.2569286,76.9538721
38,Кошевого улица,140008,52.2573572,76.9538400
44,Кошевого улица,140008,52.2577675,76.9538212
50,Кошевого улица,140008,52.2587707,76.9534618
58,Кошевого улица,140008,52.2593371,76.9536040
81а,Кирпичная улица,140008,52.2599224,76.9530602
79,Кирпичная улица,140008,52.2597336,76.9528824
71,Кирпичная улица,140008,52.2591467,76.9529521
61,Кирпичная улица,140008,52.2582010,76.9530353
39,Кирпичная улица,140008,52.2557744,76.9533464
27,Кирпичная улица,140008,52.2547334,76.9533893
68,Кирпичная улица,140008,52.2587691,76.9522253
29,улица Матросова,140008,52.2545266,76.9527027
27,улица Матросова,140008,52.2542687,76.9527644
25,улица Матросова,140008,52.2540011,76.9528314
37,улица Матросова,140008,52.2551751,76.9523648
39а,улица Матросова,140008,52.2554805,76.9521609
62,улица Матросова,140008,52.2588380,76.9514608
70,улица Матросова,140008,52.2595407,76.9509485
91,улица 2-я Советов,140008,52.2588856,76.9508171
57,улица 2-я Советов,140008,52.2554657,76.9511631
45,улица 2-я Советов,140008,52.2544839,76.9518257
7,улица 2-я Советов,140008,52.2533789,76.9534591
18,улица 2-я Советов,140008,52.2522311,76.9539097
36,улица 2-я Советов,140008,52.2533411,76.9526330
5,Комиссарская улица,140008,52.2562916,76.9499534
69,Кубанская улица,140008,52.2567595,76.9622191
61/2,Кубанская улица,140008,52.2545183,76.9636058
68/1,Кубанская улица,140008,52.2566626,76.9618409
70,Чехова улица,140008,52.2569221,76.9625116
68,Чехова улица,140008,52.2567595,76.9625303
69,Чехова улица,140008,52.2567185,76.9628682
33/3,Нуркина улица,140008,52.2592025,76.9638688
92,Нуркина улица,140008,52.2576165,76.9631821
82,Нуркина улица,140008,52.2587724,76.9620824
76,Нуркина улица,140008,52.2594767,76.9630023
27,улица Амангельды,140008,52.2562801,76.9584882
28,улица Амангельды,140008,52.2565872,76.9584453
26,улица Амангельды,140008,52.2565805,76.9582227
24,улица Амангельды,140008,52.2565936,76.9577989
20,улица Амангельды,140008,52.2565230,76.9559482
31,улица Теплова,140008,52.2582093,76.9599178
17,улица Теплова,140008,52.2579629,76.9556532
6,улица Теплова,140008,52.2580942,76.9511068
24,улица Теплова,140008,52.2583373,76.9578579
401,улица Абая,140008,52.2583242,76.9575307
38,улица Теплова,140008,52.2586985,76.9668755
36,улица Теплова,140008,52.2586771,76.9662452
16,1-я Южная улица,140008,52.2571585,76.9643569
49,1-я Южная улица,140008,52.2536875,76.9651348
26,улица Маяковского,140000,52.2658715,76.9420533
58/3,Торайғыров көшесі,140000,52.2972746,76.9523254
50,улица Луначарского,140001,52.2771168,76.9495891
12,улица Астана,140000,52.2931155,76.9346466
50,улица Луначарского,140001,52.2762889,76.9495851
54,улица Валиханова,140008,52.2570780,76.9588785
74,улица Валиханова,140008,52.2588619,76.9587216
441,улица Абая,140008,52.2552564,76.9575387
50,Потанина улица,140008,52.2587075,76.9556196
69,Кирпичная улица,140008,52.2590265,76.9530620
59,Кирпичная улица,140008,52.2578665,76.9531160
64,улица Матросова,140008,52.2589715,76.9513167
60,Олжабай батыр көшесі,140000,52.2981546,76.9538495
