House number,Street name,Postal code,Latitude,Longitude
351,4th Avenue South,58201,47.9179310,-97.0292734
418,North 6th Street,58203,47.9263681,-97.0389659
4001,32nd Avenue South,58201,47.8868658,-97.0846013
1750,32nd Avenue South,58201,47.8906618,-97.0530300
1315,South Columbia Road,58201,47.9083314,-97.0640754
1631,South Washington Street,58201,47.9045448,-97.0439945
1503,South Washington,58201,47.9060209,-97.0441917
4340,Gateway Drive,58201,47.9343347,-97.0918657
2702,Gateway Drive,58203,47.9337501,-97.0673106
3101,South 42nd Street,58201,47.8918044,-97.0861093
1125,South 42nd Street,58201,47.9109862,-97.0872084
3551,32nd Avenue South,58201,47.8887800,-97.0793849
3450,32nd Avenue South,58201,47.8900545,-97.0781422
1950,32nd Avenue South,58201,47.8906924,-97.0545312
1970,32nd Avenue South,58201,47.8900251,-97.0556209
1301,South Washington Street,58201,47.9088243,-97.0446011
2250,South Columbia Road,58201,47.8982556,-97.0674546
1850,South Columbia Road,58201,47.9025614,-97.0671328
1900,South Washington Street,58201,47.9012405,-97.0487303
3861,32nd Avenue South,58201-5907,47.8868547,-97.0839586
3600,South Columbia Road,58201-3527,47.8854443,-97.0674911
3301,32nd Avenue South,58201,47.8873605,-97.0763722
3551,32 Avenue South,58201,47.8889810,-97.0793599
1726,South Washington Street,58201,47.9022276,-97.0489600
1925,13th Avenue North,58203,47.9316214,-97.0546614
2855,10th Avenue North,58203,47.9290006,-97.0683946
4326,Gateway Drive,58203,47.9336798,-97.0909976
1801,Gateway Drive,58203,47.9327564,-97.0522400
701,South 4th Street,58201,47.9197949,-97.0225272
1301,University Avenue,58203,47.9219134,-97.0454887
614,South 18th Street,58201,47.9158581,-97.0528890
3901,32nd Ave. S.,58201,47.8888948,-97.0841330
3201,32nd Avenue S.,58201,47.8873192,-97.0752281
3221,32nd Avenue South,58201,47.8884606,-97.0748292
3221,32nd Avenue South,58201,47.8887740,-97.0747769
3221,32nd Avenue South,58201,47.8889816,-97.0747468
116,South 3rd Street,58201,47.9239230,-97.0286822
124,Belmont Road,58201,47.9206774,-97.0288662
123,North 3rd Street,58203,47.9266300,-97.0325284
17,North 3rd Street,58203,47.9256052,-97.0315443
321,Kittson Avenue,58201,47.9237737,-97.0296113
317 1/2,Kittson Avenue,58201,47.9238413,-97.0295458
1300,Ralph Engelstad Arena Drive,58203,47.9323553,-97.0697993
1225,South Columbia Road,58201,47.9099946,-97.0660385
13,N 3rd St,58203,47.9254500,-97.0314446
905,South Washington Street,58201,47.9127696,-97.0446481
1149,36th Avenue South,58201,47.8854990,-97.0435891
715,South Washington Street,58201,47.9147742,-97.0441724
4200,James Ray Dr,58202,47.9207229,-97.0888783
3750,32nd Avenue South,58201,47.8907717,-97.0815049
2450,South Columbia Road,58201,47.8958680,-97.0676627
2450,South Columbia Road,58201,47.8958710,-97.0673124
2450,South Columbia Road,58201-6512,47.8958472,-97.0680540
3220,South Washington Street,58201,47.8887015,-97.0465141
3220,South Washington Street,58201,47.8884926,-97.0465119
311,DeMers Avenue,58201,47.9248455,-97.0308537
4326,Gateway Drive,58203,47.9337764,-97.0913033
1211,North 47th Street,58203,47.9317672,-97.0968515
1213,North 47th Street,58203,47.9322453,-97.0969400
4720,Gateway Drive,58201,47.9336937,-97.0961595
1212,North 47th Street,58203,47.9322237,-97.0957088
1212,North 47th Street,58203,47.9319110,-97.0954943
4720,Gateway Drive,58201,47.9338860,-97.0967603
3635,Gateway Drive,58203,47.9324376,-97.0829523
1305,Stanford Road,58203,47.9318346,-97.0816179
3635,Gateway Drive,58203,47.9325660,-97.0829321
4250,University Avenue,58203,47.9227134,-97.0885903
4250,University Avenue,58203,47.9227440,-97.0889765
4315,Demers Avenue,58201,47.9178386,-97.0901258
1125,South 42nd Street,58201,47.9108499,-97.0876354
310,Gateway Drive,58203,47.9335302,-97.0460236
310,Gateway Drive,58203,47.9335859,-97.0453410
310,Gateway Drive,58203,47.9334340,-97.0453303
2750,Gateway Drive,58203,47.9334781,-97.0684308
1300,Ralph Engelstad Arena Drive,58203,47.9319883,-97.0699234
205,North Washington Street,58203,47.9214867,-97.0454040
500,Demers Avenue,58201,47.9236867,-97.0330203
307,1st Avenue South,58201,47.9212391,-97.0287636
307,1st Avenue South,58201,47.9213060,-97.0291512
4401,32nd Avenue South,58201,47.8879565,-97.0933807
4401,32nd Avenue South,58201,47.8880955,-97.0928999
4701,South Washington Street,58201,47.8742139,-97.0441246
4701,South Washington Street,58201,47.8741623,-97.0445613
3450,32nd Avenue South,58201,47.8900626,-97.0783845
1402,South Washington Street,58201,47.9078043,-97.0454630
1402,South Washington Street,58201,47.9078043,-97.0456629
1448,South Washington Street,58201,47.9064756,-97.0459136
1726,South Washington Street,58201,47.9026727,-97.0491403
1720,South Washington Street,58201,47.9030477,-97.0472460
1719,South Washington Street,58201,47.9032155,-97.0440277
2002,South Washington Street,58201,47.9006470,-97.0457836
2002,South Washington Street,58201,47.9006057,-97.0460102
2475,32nd Avenue South,58201,47.8889142,-97.0622107
2771,32nd Avenue South,58201,47.8877208,-97.0688090
4005,Washington Street,58201,47.8818767,-97.0442212
4005,Washington Street,58201,47.8815835,-97.0442373
1149,36th Avenue South,58201,47.8853430,-97.0432998
1202,32nd Avenue South,58201,47.8896678,-97.0438269
1202,32nd Avenue South,58201,47.8898972,-97.0437511
2801,South Washington Street,58201,47.8926723,-97.0442882
2401,South Columbia Road,58201,47.8965128,-97.0662260
2250,South Columbia Road,58201,47.8980343,-97.0674725
2401,South Columbia Road,58201,47.8964111,-97.0662267
1970,32nd Avenue South,58201,47.8899700,-97.0553242
1901,32nd Avenue South,58201,47.8884568,-97.0553459
314,Kittson Avenue,58201,47.9240571,-97.0297382
314,Kittson Avenue,58201,47.9240374,-97.0297616
3221,32nd Avenue South,58201,47.8889139,-97.0747500
3221,32nd Avenue South,58201,47.8888422,-97.0747783
3221,32nd Avenue South,58201,47.8887036,-97.0747468
3221,32nd Avenue South,58201,47.8886341,-97.0747488
3221,32nd Avenue South,58201,47.8885700,-97.0747732
3221,32nd Avenue South,58201,47.8884649,-97.0749226
3251,32nd Avenue South,58201,47.8884774,-97.0759919
1726,South Washington Street,58201,47.9020196,-97.0478360
102,South 3rd Street,58201,47.9242252,-97.0290259
312,2nd Avenue North,58203,47.9264341,-97.0333633
101,Cornell Street,58202,47.9201693,-97.0687514
3851,Campus Road,58202,47.9200862,-97.0845069
4301,James Ray Drive,58203,47.9201732,-97.0907095
801,Princeton Street,58202,47.9276644,-97.0762579
236,Centennial Drive,58202,47.9197702,-97.0712366
250,Centennial Drive,58202,47.9193331,-97.0719144
264,Centennial Drive,58202,47.9198610,-97.0730453
276,Centennial Drive,58202,47.9206778,-97.0730183
3264,Campus Road,58202,47.9191971,-97.0747612
261,Centennial Drive,58202,47.9190495,-97.0737920
225,Centennial Drive,58202,47.9206392,-97.0705563
231,Centennial Drive,58202,47.9203605,-97.0703776
3051,University Avenue,58202,47.9216585,-97.0717816
221,Centennial Drive,58202,47.9208280,-97.0701811
900,North 43rd Street,58203,47.9284886,-97.0899434
1205,North 43rd Street,58203,47.9309783,-97.0918941
3451,32nd Avenue South,58201,47.8887488,-97.0782871
1900,South 25th Street,58201,47.9013206,-97.0610816
703,South 4th Street,58201,47.9195569,-97.0224026
901,University Avenue,58203,47.9222564,-97.0395743
1950,32nd Avenue South,58201,47.8906850,-97.0545915
1800,South Washington Street,58201,47.9024316,-97.0458947
1550,47th Ave S,58201,47.8753952,-97.0490258
4924,Highway 2 West,58203,47.9340158,-97.1015685
2133,Air Cargo Dr,58203,47.9409370,-97.1765819
3751,32nd Avenue South,58201,47.8887639,-97.0818404
2551,32nd Avenue South,58201,47.8869862,-97.0649018
2501,32nd Avenue South,58201,47.8865959,-97.0628014
899,2nd Avenue North,58203,47.9220420,-97.0382203
2403,Air Cargo Dr,58203,47.9444948,-97.1768178
5301,South Columbia Road,58201,47.8662570,-97.0590012
250,Elks Drive,58201,47.9018814,-97.0249470
4050,Garden View Drive,58201,47.9145990,-97.0858401
1503,North Washington Street,58203,47.9339176,-97.0533349
1011,University Avenue,58203,47.9220090,-97.0411049
4349,James Ray Drive,58203,47.9210528,-97.0916788
151,South 4th Street,58201,47.9233022,-97.0288824
1124,Demers Avenue,58203,47.9170443,-97.0432856
255,North 4th Street,58203,47.9258793,-97.0347240
3400,Gateway Drive,58203,47.9343293,-97.0770225
1301,North Columbia Road,58203,47.9321846,-97.0680533
2373,32nd Avenue South,58201,47.8875066,-97.0593033
2473,32nd Avenue South,58201,47.8875132,-97.0606745
2273,32nd Avenue South,58201,47.8874222,-97.0576007
3501,University Avenue,58202,47.9218611,-97.0797747
615,North 25th Street,58203,47.9257292,-97.0632604
615,North 25th Street,58203,47.9257304,-97.0633563
1306,South 18th Street,58201,47.9087924,-97.0528988
1302,South 18th Street,58201,47.9089494,-97.0529317
1100,13th Avenue South,58201,47.9093617,-97.0426173
1100,13th Avenue South,58201,47.9093780,-97.0421415
1122,7th Avenue South,58201,47.9159077,-97.0421659
1600,32nd Avenue South,58201,47.8905255,-97.0500323
1449,32nd Avenue South,58201,47.8884264,-97.0477061
750,S 43rd St,58201,47.9162486,-97.0910904
750,S 43rd St,58201,47.9162499,-97.0903918
750,S 43rd St,58201,47.9165512,-97.0907296
1300,Ralph Engelstad Arena Drive,58203,47.9319818,-97.0699221
3351,17th Avenue South,58201,47.9027828,-97.0762379
851,University Avenue,58203,47.9227865,-97.0392302
3601,32nd Avenue South,58201,47.8865734,-97.0800943
2837,South 42nd Street,58201,47.8936781,-97.0875329
2450,30th Avenue South,58201,47.8916327,-97.0618882
2515,32nd Avenue South,58201,47.8888492,-97.0635056
2910,32nd Avenue,58201-6024,47.8900857,-97.0703855
3851,32nd Avenue South,58201,47.8888040,-97.0833609
3550,32nd Avenue South,58201,47.8912462,-97.0796954
3341,32nd Avenue South,58201,47.8888756,-97.0764932
3221,32nd Avenue South,58201,47.8886569,-97.0747437
3151,32nd Avenue South,58201,47.8888953,-97.0740112
2901,32nd Avenue South,58201,47.8889647,-97.0701320
2851,32nd Avenue South,58201,47.8888823,-97.0693234
3200,32nd Avenue South,58201,47.8903042,-97.0739242
3251,30th Avenue South,58201,47.8911840,-97.0755635
3101,South 34th Street,58201,47.8910676,-97.0766742
1200,South Columbia Road,58201,47.9105747,-97.0695176
2761,32nd Avenue South,58201,47.8875669,-97.0680020
3530,South 15th Street,58201,47.8861404,-97.0499356
3996,South 16th Street,58201,47.8824146,-97.0509626
3944,South 16th Street,58201,47.8827758,-97.0509438
3968,South 16th Street,58201,47.8825942,-97.0509487
3920,South 16th Street,58201,47.8829611,-97.0509573
3898,South 16th Street,58201,47.8831323,-97.0509506
3874,South 16th Street,58201,47.8833079,-97.0509472
1125,South Washington Street,58201-5430,47.9102297,-97.0445455
623,South Washington Street,58206,47.9159348,-97.0444772
2900,DeMers Avenue,58201,47.9169062,-97.0682609
3555,Gateway Drive,58203,47.9326470,-97.0806363
951,South 42nd Street,58201,47.9127072,-97.0874197
3205,South Washington Street,58201,47.8890277,-97.0443747
2110,Library Circle,58201,47.8990295,-97.0490322
4315,Demers Avenue,58201,47.9178496,-97.0906310
805,North 42nd Street,58203,47.9276819,-97.0891939
1616,South 17th Street,58201,47.9042755,-97.0516823
3760,32nd Avenue South,58201,47.8900293,-97.0814435
3301,30th Avenue South,58201,47.8915876,-97.0763803
3051,South 34th Street,58201,47.8915985,-97.0767507
3350,32nd Avenue South,58201,47.8901522,-97.0766539
3250,32nd Avenue South,58201,47.8901793,-97.0752711
3300`,30th Avenue South,58201,47.8923011,-97.0758982
324,Kittson Avenue,58201,47.9239034,-97.0301702
314,Kittson Avenue,58201,47.9241247,-97.0298799
3514,11th Avenue North,58203,47.9302893,-97.0789845
3635,Gateway Drive,58203,47.9323818,-97.0829519
1418,South Washington Street,58201,47.9069164,-97.0457392
16,Seward Avenue,58203,47.9343036,-97.0404761
351,4th Avenue South,58201,47.9179258,-97.0295632
1220,University Avenue,58203,47.9226344,-97.0444458
418,North 6th Street,58203,47.9262827,-97.0389028
1220,University Avenue,58203,47.9226022,-97.0447416
1416,South Washington,58201-5437,47.9071703,-97.0457816
4051,Garden View Drive,58201,47.9126107,-97.0861730
1473,South 35th Street,58201,47.9060401,-97.0800608
243,Centennial Drive,58202,47.9199251,-97.0703595
1300,North Washington Street,58203,47.9324247,-97.0493441
1820,South Columbia Road,58201,47.9030032,-97.0674392
701,South 4th Street,58201,47.9200708,-97.0223366
2405,Belmont Road,58201,47.8965209,-97.0276370
1207,North 5th Street,58203,47.9323481,-97.0483584
2985,South 42nd Street,58201,47.8926379,-97.0867330
213,Kittson Avenue,58201,47.9241727,-97.0297028
316,Kittson Avenue,58201,47.9240238,-97.0300186
24,South 3rd Street,58201,47.9244329,-97.0297772
3151,32nd Avenue South,58201,47.8887138,-97.0739569
1209,North 5th Street,58203-2446,47.9326296,-97.0486703
121,North Washington Street,58203,47.9208881,-97.0454575
2105-2107,South 10th Street,58201,47.8994675,-97.0401993
915,Park Drive,58201,47.8994913,-97.0399285
911,Park Drive,58201,47.8995313,-97.0396660
907,Park Drive,58201,47.8995276,-97.0393963
903,Park Drive,58201,47.8995410,-97.0390651
819,Park Drive,58201,47.8995319,-97.0387469
815,Park Drive,58201,47.8995333,-97.0384711
811,Park Drive,58201,47.8995217,-97.0382333
814,Park Drive,58201,47.8999487,-97.0382776
818,Park Drive,58201,47.8999662,-97.0385321
822,Park Drive,58201,47.8999860,-97.0387856
902,Park Drive,58201,47.8999709,-97.0389755
906,Park Drive,58201,47.8999744,-97.0392739
918,Park Drive,58201,47.8999424,-97.0399847
2015-2017,South 10th Street,58201,47.9000253,-97.0402361
912,Park Drive,58201,47.8999397,-97.0396879
1658,38th Avenue South,58201,47.8843284,-97.0513193
1660,38th Avenue South,58201,47.8843281,-97.0514846
1672,38th Avenue South,58201,47.8843277,-97.0517042
1684,38th Avenue South,58201,47.8843318,-97.0518207
1696,38th Avenue South,58201,47.8843300,-97.0520328
1708,38th Avenue South,58201,47.8843341,-97.0521494
1722,38th Avenue South,58201,47.8843289,-97.0523563
1738,38th Avenue South,58201,47.8843330,-97.0524729
1746,38th Avenue South,58201,47.8843268,-97.0527168
1754,38th Avenue South,58201,47.8843309,-97.0528334
1768,38th Avenue South,58201,47.8843299,-97.0530464
1772,38th Avenue South,58201,47.8843339,-97.0531630
1784,38th Avenue South,58201,47.8843283,-97.0533690
1798,38th Avenue South,58201,47.8843324,-97.0534856
1816,38th Avenue South,58201,47.8843291,-97.0536972
1830,38th Avenue South,58201,47.8843332,-97.0538138
1842,38th Avenue South,58201,47.8843256,-97.0540898
1856,38th Avenue South,58201,47.8843248,-97.0542011
1874,38th Avenue South,58201,47.8842750,-97.0544675
1892,38th Avenue South,58201,47.8842648,-97.0545653
3777,South 19th Street,58201,47.8842567,-97.0550818
3793,South 19th Street,58201,47.8842205,-97.0550104
3743,South 19th Street,58201,47.8843806,-97.0554192
3751,South 19th Street,58201,47.8843581,-97.0553299
3715,South 19th Street,58201,47.8844569,-97.0557592
3727,South 19th Street,58201,47.8844386,-97.0556618
