House number,Street name,Postal code,Latitude,Longitude
18,Darvozai Sallohhona ko'chasi,200118,39.7698892,64.4215854
26,Mustaqillik ko'chasi,200100,39.7638811,64.4302635
256,Bahovaddin Naqshband ko'chasi,200100,39.7720982,64.4374975
26a,Sobir Raximov ko'chasi,200111,39.7879523,64.4252008
13,Xo'ja Gulrez ko'chasi,200121,39.7717735,64.4155620
19,Darvozai Sallohhona ko'chasi,200100,39.7702910,64.4217765
100,Bahovaddin Naqshband ko'chasi,200118,39.7726771,64.4213752
6/1,Bahovaddin Naqshband ko'chasi,200100,39.7692761,64.4501241
6/1,Bahovaddin Naqshband ko'chasi,200100,39.7695080,64.4499258
11,Muhammad Iqbol ko'chasi,200100,39.7633250,64.4272229
4,Mirdo'stim ko'chasi,200115,39.7738875,64.4044642
30,Alpomish ko'chasi,200100,39.7336110,64.4335269
10,Kogon shoh ko'chasi,200100,39.7549242,64.4605882
14,Xamza ko'chasi,200100,39.7644740,64.4270964
2,Bahovaddin Naqshband ko'chasi,200100,39.7731460,64.4189117
16,Mustaqillik ko'chasi,200100,39.7660867,64.4303593
37,Levi Babahanova,200118,39.7715488,64.4203758
2,Uyquruvchilar ko'chasi,200100,39.7602533,64.4392924
11,Sanoatchilar ko'chasi,200100,39.7736028,64.4476751
5,Muhammad Iqbol ko'chasi,200100,39.7620639,64.4280524
2,Sanoatchilar ko'chasi,200100,39.7610636,64.4494431
33,Ibrohim Mo'minov ko'chasi,200100,39.7667305,64.4361954
38,Muhammad Payraviy ko'chasi,200100,39.7767583,64.4191667
44,Namozgox ko'chasi,200100,39.7651387,64.4123725
56,Shirbuddin ko'chasi,200100,39.7620244,64.4691280
11,Hofiz tanish al Buxoriy ko'chasi,200104,39.7707863,64.4324470
24,Xo'ja Nurobod ko'chasi,200100,39.7763953,64.4185316
31A,Oqmasjid ko'chasi,200100,39.7812997,64.4441199
6,Mustaqillik ko'chasi,200100,39.7720115,64.4308512
90,Havzi Nav ko'chasi,200100,39.7673712,64.4036698
M.Payraviy 38,M.Payraviy,200100,39.7767599,64.4190219
46,M . Payraviy,200100,39.7769148,64.4195820
2,Sanoatchilar ko'chasi,200100,39.7594568,64.4511615
7,Alisher Navoiy shox ko'chasi,200100,39.7617737,64.4252936
12,Pochchoqul Hoji,200118,39.7722766,64.4140217
9,Morkush,200111,39.7703831,64.4067867
55,Mehtar Anbar ko'chasi,200118,39.7735825,64.4184109
101,Mirdo'stim ko'chasi,200100,39.7713667,64.3940719
46,Muhammad Payraviy ko'chasi,200100,39.7769141,64.4195125
152,Bahovaddin Naqshband ko'chasi,200118,39.7733234,64.4253563
41,Shirbuddin ko'chasi,200100,39.7623976,64.4696121
117,Mekhtar Ambar ko'chasi,200118,39.7738850,64.4232278
168,Bahovaddin Naqshband ko'chasi,200100,39.7713916,64.4405662
72,Yangi yo'l ko'chasi,200100,39.7905009,64.4353362
151/2,Xo'ja Nurobod ko'chasi,200100,39.7764716,64.4299361
40,Xo'ja Bulo'or ko'chasi,200118,39.7723735,64.4239266
12/5,A. Jomiy,200119,39.7439118,64.4196707
4,Xo'ja Qo'chqor,200100,39.7738940,64.4243074
12,Hofiz tanish al Buxoriy ko'chasi,200100,39.7700234,64.4299369
11/2,Sharq 1 daxasi,700125,39.7622973,64.4527654
5,Xo'ja Porso ko'chasi,200118,39.7738841,64.4223592
14,Koinot ko'chasi,200118,39.7694039,64.4163325
12,Hofiz tanish al Buxoriy ko'chasi,200100,39.7700162,64.4298590
256-A,Bahovaddin Naqshband ko'chasi,200100,39.7649521,64.4517727
5,Bo'ro Bofon,200118,39.7766789,64.4148321
011,Alisher Navoiy shoh ko'chasi,200100,39.7493659,64.4245909
97,Turon ko'chasi,200100,39.7917806,64.4349512
100,Turon ko'chasi,200100,39.7917765,64.4348265
252,Bahovaddin Naqshband ko'chasi,200104,39.7704393,64.4455084
13/8,Газлинское шоссе,200100,39.7826954,64.4519859
20,Yangi-hayot ko'chasi,200100,39.8011881,64.4225366
18,Yangi-hayot ko'chasi,200100,39.8011016,64.4227512
16,Yangi-hayot ko'chasi,200100,39.8010109,64.4229645
14,Yangi-hayot ko'chasi,200100,39.8009233,64.4231616
12,Yangi-hayot ko'chasi,200100,39.8008368,64.4233601
10,Yangi-hayot ko'chasi,200100,39.8007482,64.4236001
8,Yangi-hayot ko'chasi,200100,39.8006791,64.4237946
6,Yangi-hayot ko'chasi,200100,39.8005895,64.4239810
4,Yangi-hayot ko'chasi,200100,39.8004968,64.4241969
2,Yangi-hayot ko'chasi,200100,39.8004246,64.4244142
4/4,Xo'ja Porso ko'chasi,200100,39.7747453,64.4234892
8,Islom street,100101,39.7717881,64.4172408
4,Gavkushon Road,200118,39.7719127,64.4154542
48,Eshoni pir ko'chasi,200100,39.7710921,64.4209155
19/1,Chorbakoli,200118,39.7806162,64.4223968
19,Degrezi,200101,39.7747016,64.4188230
11,Куйи Дарахт,200100,39.7721504,64.4131285
38,Chupbos,200118,39.7780168,64.4214695
2,Cho'lpon ko'chasi,200111,39.7862333,64.4278814
18,Cho'lpon ko'chasi,200111,39.7858962,64.4284799
17,Oxangaron ko'chasi,200100,39.7866861,64.4272380
16/3,Cho'lpon ko'chasi,200111,39.7853407,64.4283351
2,G'ijduvon ko'chasi,200100,39.7969631,64.4219760
16/1,Cho'lpon ko'chasi,200111,39.7867952,64.4280272
14,Cho'lpon ko'chasi,200111,39.7851469,64.4277967
20,Cho'lpon ko'chasi,200111,39.7864144,64.4285936
16/2,Cho'lpon ko'chasi,200111,39.7869327,64.4287149
80,Islom Karimov shoh ko'chasi,200111,39.7868387,64.4297440
5,Abu Ali ibn Sino shox ko'chasi,200100,39.7840401,64.4254115
4,Oxangaron ko'chasi,200100,39.7845006,64.4247169
2,Abu Ali ibn Sino shox ko'chasi,200100,39.7844238,64.4254267
2,S. Murodov ko'chasi,200111,39.7855014,64.4259328
6/1,Bahovaddin Naqshband ko'chasi,200100,39.7693017,64.4499796
33,Fatkhobod,200100,39.7668521,64.4470841
31,Bahovaddin Naqshband ko'chasi,200100,39.7693114,64.4487975
34,Fatkhobod,200100,39.7672338,64.4469740
30,Fatkhobod,200100,39.7657330,64.4465669
38,Fatkhobod,200100,39.7668429,64.4463249
2,Sharq ko'chasi,200100,39.7665865,64.4448365
257A,Bahovaddin Naqshband ko'chasi,200107,39.7704983,64.4438723
31/1,Ibrohim Mo'minov ko'chasi,200100,39.7680846,64.4343164
29,Ibrohim Mo'minov ko'chasi,200100,39.7666489,64.4341199
33/3,Ibrohim Mo'minov ko'chasi,200100,39.7677918,64.4353028
1,Chorbakr ko'chasi,200100,39.7839179,64.4030285
1,Xalifa Xudoydod ko'chasi,200100,39.7687500,64.3999737
5,Abdurahmon Jomiy ko'chasi,200100,39.7478093,64.4136912
7/2,Abdurahmon Jomiy ko'chasi,200100,39.7463265,64.4152615
1,Abdurahmon Jomiy ko'chasi,200100,39.7463748,64.4114912
3,Abdurahmon Jomiy ko'chasi,200100,39.7478184,64.4118707
9/5,Abdurahmon Jomiy ko'chasi,200100,39.7473783,64.4158669
4,Abdulaziz Somiy ko'chasi,200100,39.7473225,64.4091265
31,Abdulaziz Somiy ko'chasi,200100,39.7456818,64.4027935
7/1,Abdurahmon Jomiy ko'chasi,200130,39.7475612,64.4149938
9/3,Abdurahmon Jomiy ko'chasi,200100,39.7471255,64.4168954
13,Abdurahmon Jomiy ko'chasi,200100,39.7475455,64.4175627
13,Abdulaziz Somiy ko'chasi,200100,39.7470671,64.4065120
5/2,Abdurahmon Jomiy ko'chasi,200100,39.7473009,64.4139269
6,Abdulazim Somiy ko'chasi,200100,39.7482363,64.4091556
37,Abdurahmon Jomiy ko'chasi,200100,39.7480454,64.4156708
7/3,Abdurahmon Jomiy ko'chasi,200130,39.7465517,64.4166433
30,Abdulaziz Somiy ko'chasi,200100,39.7454932,64.4034594
19,Abdulaziz Somiy ko'chasi,200100,39.7476243,64.4046583
7/5,Abdurahmon Jomiy ko'chasi,200100,39.7455256,64.4166064
7/4,Abdurahmon Jomiy ko'chasi,200100,39.7460287,64.4165982
12,Abdulaziz Somiy ko'chasi,200100,39.7469542,64.4070303
11,Abdulazim Somiy ko'chasi,200130,39.7479144,64.4062909
9/2,Abdurahmon Jomiy ko'chasi,200100,39.7475379,64.4169126
18,Abdulaziz Somiy ko'chasi,200100,39.7483343,64.4039693
7/6,Abdurahmon Jomiy ko'chasi,200100,39.7466392,64.4174371
1/2,Abdurahmon Jomiy ko'chasi,200100,39.7460692,64.4124924
7/8,Abdurahmon Jomiy ko'chasi,200100,39.7456119,64.4174010
7/7,Abdurahmon Jomiy ko'chasi,200100,39.7461426,64.4174115
14,Abdulaziz Somiy ko'chasi,200100,39.7471863,64.4059841
23,Abdulazim Somiy ko'chasi,200100,39.7472876,64.4044214
22,Abdulaziz Somiy ko'chasi,200100,39.7475243,64.4034875
9,Abdulazim Somiy ko'chasi,200100,39.7482852,64.4065171
5,Abdulaziz Somiy ko'chasi,200100,39.7477394,64.4091543
3/1,Abdurahmon Jomiy ko'chasi,200100,39.7477720,64.4121534
3/2,Abdurahmon Jomiy ko'chasi,200100,39.7473309,64.4121476
8,Abdulazim Somiy ko'chasi,200130,39.7478433,64.4079879
10,Abdulazim Somiy ko'chasi,200130,39.7478441,64.4070253
5/1,Abdurahmon Jomiy ko'chasi,200100,39.7477361,64.4139462
1/1,Abdurahmon Jomiy ko'chasi,200100,39.7456359,64.4124591
20,Abdulaziz Somiy ko'chasi,200100,39.7480374,64.4052795
7,Abdulazim Somiy ko'chasi,200130,39.7483269,64.4081456
25,Abdulaziz Somiy ko'chasi,200100,39.7466204,64.4041045
28,Abdulazim Somiy ko'chasi,200100,39.7459101,64.4038544
21,Abdulaziz Somiy ko'chasi,200100,39.7481617,64.4048252
24,Abdulaziz Somiy ko'chasi,200100,39.7465916,64.4046660
19/1,Abdurahmon Jomiy ko'chasi,200100,39.7477190,64.4213414
48,Abdurahmon Jomiy ko'chasi,200100,39.7481784,64.4186888
52,Abdurahmon Jomiy ko'chasi,200100,39.7463461,64.4201331
75,Abdurahmon Jomiy ko'chasi,200100,39.7467029,64.4213738
21/2,Abdurahmon Jomiy ko'chasi,200100,39.7462796,64.4215847
17/1,Abdurahmon Jomiy ko'chasi,200100,39.7477504,64.4197547
43,Abdurahmon Jomiy ko'chasi,200100,39.7474584,64.4185414
54,Abdurahmon Jomiy ko'chasi,200100,39.7462228,64.4207506
44A,Abdurahmon Jomiy ko'chasi,200100,39.7457569,64.4194006
21/3,Abdurahmon Jomiy ko'chasi,200100,39.7458733,64.4216335
16/3,Abdurahmon Jomiy ko'chasi,200100,39.7464066,64.4226215
52A,Abdurahmon Jomiy ko'chasi,200100,39.7463602,64.4190621
52,Abdurahmon Jomiy ko'chasi,200100,39.7463554,64.4195936
19/2,Abdurahmon Jomiy ko'chasi,200100,39.7481547,64.4213539
44,Abdurahmon Jomiy ko'chasi,200100,39.7464320,64.4185217
21/4,Abdurahmon Jomiy ko'chasi,200130,39.7454899,64.4216311
62,Abdurahmon Jomiy ko'chasi,200100,39.7481576,64.4197369
77/1,Jo'bor dom,200100,39.7637809,64.3934736
11 A,Piridastgir ko'chasi,200100,39.7477092,64.4337091
9/3,Qayum Murtazoyev ko'chasi,200100,39.7532096,64.4271849
5/4,Piridastgir ko'chasi,200100,39.7525977,64.4275037
13/1,Qayum Murtazoyev ko'chasi,200100,39.7549794,64.4257844
5/1,Qayum Murtazoyev ko'chasi,200100,39.7538166,64.4279103
5/3,Piridastgir ko'chasi,200100,39.7528119,64.4282749
17,Alisher Navoiy shoh ko'chasi,200100,39.7549714,64.4247251
9/1,Qayum Murtazoyev ko'chasi,200100,39.7534392,64.4267273
5/6,Piridastgir ko'chasi,200100,39.7518926,64.4278600
5/2,Piridastgir ko'chasi,200100,39.7534314,64.4282763
13,Qayum Murtazoyev ko'chasi,200100,39.7553662,64.4260270
21,Alisher Navoiy shoh ko'chasi,200100,39.7536258,64.4246846
5/5,Piridastgir ko'chasi,200100,39.7522529,64.4274745
23,Alisher Navoiy shoh ko'chasi,200100,39.7522210,64.4246495
3/1,Piridastgir ko'chasi,200100,39.7455869,64.4274692
3/2,Qayum Murtazoyev ko'chasi,200100,39.7540807,64.4297342
3/1,Qayum Murtazoyev ko'chasi,200100,39.7545615,64.4297442
3,Qayum Murtazoyev ko'chasi,200100,39.7550894,64.4297304
2,Zulfiya ko'chasi,200114,39.7567314,64.4354353
22,Piridastgir ko'chasi,200122,39.7503401,64.4387608
20,Piridastgir ko'chasi,200100,39.7497673,64.4359123
5,Muhammad Iqbol ko'chasi,200100,39.7609327,64.4277603
3,Muhammad Iqbol ko'chasi,105014,39.7619001,64.4293177
3/1,Muhammad Iqbol ko'chasi,200117,39.7607244,64.4289399
13,Alisher Navoiy shox ko'chasi,200117,39.7591375,64.4251090
5,Muhammad Iqbol ko'chasi,200100,39.7620190,64.4280892
13a,Alisher Navoiy shox ko'chasi,200117,39.7595346,64.4254124
5/5,Muhammad Iqbol ko'chasi,200117,39.7591120,64.4265469
9,Alisher Navoiy shox ko'chasi,200117,39.7611892,64.4248197
5/6,Muhammad Iqbol ko'chasi,200117,39.7595252,64.4265808
44,Mustaqillik ko'chasi,200114,39.7577472,64.4322442
2/1,Qayum Murtazoyev ko'chasi,200114,39.7570142,64.4316873
19,Muhammad Iqbol ko'chasi,200100,39.7620978,64.4136439
11,Muhammad Iqbol ko'chasi,200117,39.7617317,64.4226154
3,Zulfiya ko'chasi,200114,39.7584396,64.4348135
35,Mustaqillik ko'chasi,200114,39.7582680,64.4333922
17/2,Mustaqillik ko'chasi,200114,39.7618638,64.4319756
21,Mustaqillik ko'chasi,200114,39.7613337,64.4315546
7,Zulfiya ko'chasi,200114,39.7595632,64.4356602
1,Zulfiya ko'chasi,200114,39.7579111,64.4344083
23,Mustaqillik ko'chasi,200114,39.7608386,64.4318128
5,Zulfiya ko'chasi,200114,39.7590105,64.4352341
17/3,Mustaqillik ko'chasi,200100,39.7617507,64.4325153
128,Bahovaddin Naqshband ko'chasi,200100,39.7702358,64.4399187
12,Fayzobod ko'chasi,200100,39.7793300,64.4380719
50,Namozgox ko'chasi,200131,39.7638045,64.4110969
2,Uyquruvchilar ko'chasi,200100,39.7601973,64.4391883
11/1,Sharq 1 daxasi,700125,39.7630771,64.4532394
125,Bahovaddin Naqshband ko'chasi,200104,39.7737545,64.4304177
2,Ahmad Yassaviy ko'chasi,200100,39.7809615,64.4165287
26,Piridastgir ko'chasi,200122,39.7512237,64.4406865
27,Cho'lpon ko'chasi,200111,39.7918194,64.4264541
149,Bahovaddin Naqshband ko'chasi,200100,39.7726148,64.4411001
1/1,Sanoatchilar ko'chasi,200100,39.7617512,64.4483502
15,Qayum Murtazoyev ko'chasi,200100,39.7530394,64.4208092
31,Islom Karimov ko'chasi,200100,39.7787565,64.4300452
3,Chor Minor ko'chasi,200100,39.7754065,64.4255441
2,Alpomish ko'chasi,200100,39.7406513,64.4306823
1,Alpomish ko'chasi,200100,39.7401320,64.4322511
8,Muhammad Iqbol ko'chasi,105014,39.7631470,64.4262831
7/1,Turdi Farog'iy ko'chasi,200123,39.7352725,64.4324187
37,Turdi Farog'iy ko'chasi,200100,39.7341310,64.4323243
30,Turdi Farog'iy ko'chasi,200100,39.7345313,64.4340436
14,Turdi Farog'iy ko'chasi,200100,39.7385580,64.4307565
2,Turdi Farog'iy ko'chasi,200100,39.7390079,64.4323787
7,Turdi Farog'iy ko'chasi,200100,39.7374288,64.4324284
1,Turdi Farog'iy ko'chasi,200100,39.7387638,64.4317634
66,Turdi Farog'iy ko'chasi,200100,39.7342997,64.4284983
46,Turdi Farog'iy ko'chasi,200100,39.7335904,64.4295207
68,Turdi Farog'iy ko'chasi,200100,39.7346412,64.4283729
73,Turdi Farog'iy ko'chasi,200100,39.7367065,64.4282625
10,Turdi Farog'iy ko'chasi,200100,39.7373899,64.4318057
67,Turdi Farog'iy ko'chasi,200100,39.7338634,64.4289078
32,Turdi Farog'iy ko'chasi,200100,39.7345799,64.4337367
21,Turdi Farog'iy ko'chasi,200100,39.7362475,64.4324745
28,Turdi Farog'iy ko'chasi,200100,39.7349750,64.4337001
22,Turdi Farog'iy ko'chasi,200100,39.7358369,64.4325202
20,Turdi Farog'iy ko'chasi,200100,39.7366302,64.4324887
43,Turdi Farog'iy ko'chasi,200100,39.7344716,64.4307078
44,Turdi Farog'iy ko'chasi,200100,39.7332510,64.4306782
70,Turdi Farog'iy ko'chasi,200100,39.7357357,64.4278961
39,Turdi Farog'iy ko'chasi,200100,39.7341498,64.4320675
41,Turdi Farog'iy ko'chasi,200100,39.7336276,64.4306713
72,Turdi Farog'iy ko'chasi,200100,39.7361458,64.4277736
35,Turdi Farog'iy ko'chasi,200100,39.7345605,64.4321191
25,Turdi Farog'iy ko'chasi,200100,39.7358042,64.4337060
19,Turdi Farog'iy ko'chasi,200100,39.7362492,64.4318313
65,Turdi Farog'iy ko'chasi,200100,39.7338378,64.4279071
24,Turdi Farog'iy ko'chasi,200100,39.7356458,64.4333466
8,Turdi Farog'iy ko'chasi,200100,39.7382281,64.4317331
42,Turdi Farog'iy ko'chasi,200100,39.7340527,64.4306962
5,Turdi Farog'iy ko'chasi,200100,39.7382767,64.4323632
18,Turdi Farog'iy ko'chasi,200100,39.7370203,64.4321476
64,Turdi Farog'iy ko'chasi,200100,39.7332950,64.4286303
69,Turdi Farog'iy ko'chasi,200100,39.7351478,64.4276134
26,Turdi Farog'iy ko'chasi,200100,39.7357822,64.4341855
45,Turdi Farog'iy ko'chasi,200100,39.7330355,64.4298244
9,Turdi Farog'iy ko'chasi,200100,39.7378334,64.4317139
71,Turdi Farog'iy ko'chasi,200100,39.7352645,64.4284411
27,Turdi Farog'iy ko'chasi,200100,39.7352568,64.4343811
6,Turdi Farog'iy ko'chasi,200100,39.7378641,64.4323359
27,Alpomish ko'chasi,200100,39.7354867,64.4359221
9/2,Alpomish ko'chasi,200100,39.7398918,64.4376913
37,Abdulaziz Somiy ko'chasi,200100,39.7444762,64.4032566
47,Abdulaziz Somiy ko'chasi,200100,39.7443231,64.4063031
5,Bog'ishamol ko'chasi,200100,39.7735589,64.4417969
27,Abdulaziz Somiy ko'chasi,200100,39.7467336,64.4031749
3,Otaboy Eshonov ko'chasi,200100,39.7708149,64.4266657
7/8,O'zbekiston mustaqilligi ko'chasi,200100,39.7425851,64.4310420
7,Piridastgir ko'chasi,200100,39.7455485,64.4303697
7/2,Piridastgir ko'chasi,200100,39.7447216,64.4300391
7/4,Piridastgir ko'chasi,200100,39.7434432,64.4302398
66,Mustaqillik ko'chasi,200122,39.7434164,64.4389203
9/8,Piridastgir ko'chasi,200100,39.7455881,64.4323222
7/1,Piridastgir ko'chasi,200100,39.7452705,64.4307755
12/1,Alpomish ko'chasi,200100,39.7434282,64.4317744
9/9,Piridastgir ko'chasi,200100,39.7452558,64.4323115
9,Piridastgir ko'chasi,200100,39.7456415,64.4315421
9/4,Piridastgir ko'chasi,200100,39.7457060,64.4340238
9/2,Piridastgir ko'chasi,200100,39.7453237,64.4341859
9/1,Piridastgir ko'chasi,200100,39.7461156,64.4335061
11,Sanoatchilar ko'chasi,200100,39.7575772,64.4438105
14,Piridastgir ko'chasi,200130,39.7494674,64.4159361
6,Jalol Ikromiy ko'chasi,200100,39.7710174,64.4290490
11/1,Xamza ko'chasi,200100,39.7680587,64.4290156
21,Xamza ko'chasi,200100,39.7654902,64.4277806
2,Abu Ali ibn Sino shox ko'chasi,200111,39.7840773,64.4246061
33,Mustaqillik ko'chasi,200114,39.7587078,64.4328882
5,Sadriddin Ayniy ko'chasi,200100,39.7648194,64.4265649
1,Xamza ko'chasi,200100,39.7709608,64.4279130
9,Oxangaron ko'chasi,200100,39.7870546,64.4276220
4,Fayzobod ko'chasi,200100,39.7806556,64.4424355
4,Islom Karimov ko'chasi,200104,39.7739988,64.4321578
151/2,Bahovaddin Naqshband ko'chasi,200107,39.7716588,64.4441213
2,Xo'ja Nurobod ko'chasi,200100,39.7758660,64.4101932
72,Turdi Farog'iy ko'chasi,200100,39.7366930,64.4277442
30,Hofiz tanish al Buxoriy ko'chasi,200100,39.7629597,64.4422408
195,Abu Hayz Kabir ko'chasi,200100,39.7852365,64.4119810
6,Xofiz Sheroziy ko'chasi,200100,39.7923120,64.4073061
4,Xofiz Sheroziy ko'chasi,200100,39.7923539,64.4074735
90,Mekhtar Ambar ko'chasi,200100,39.7748414,64.4273832
17,Islom Karimov ko'chasi,200100,39.7757615,64.4307309
7,Islom Karimov ko'chasi,200100,39.7751750,64.4308834
20A,Islom Karimov shoh ko'chasi,200100,39.7840218,64.4283689
10,Muhammad Iqbol ko'chasi,105000,39.7631458,64.4203205
1,Islom Karimov ko'chasi,200100,39.7757435,64.4318166
2A,Bahovaddin Naqshband ko'chasi,200100,39.7722234,64.4324773
256,Bahovaddin Naqshband ko'chasi,200100,39.7720011,64.4375399
4,Xo'ja Porso ko'chasi,200104,39.7742676,64.4230814
65,Jo'bor,200100,39.7671690,64.4101554
3,Masjidi baland ko'chasi,200100,39.7715437,64.4051100
2/1,Zulfiya ko'chasi,200114,39.7571865,64.4352353
32,Gazli shox ko'chasi,105009,39.7740029,64.4575344
2,Alpomish ko'chasi,200100,39.7404967,64.4307345
55,Mekhtar Anbar,200118,39.7737027,64.4187692
26,Abdulaziz Somiy ko'chasi,200100,39.7469448,64.4037426
21/1,Mustaqillik ko'chasi,200100,39.7612417,64.4325287
131,Mekhtar Ambar ko'chasi,200101,39.7738301,64.4254547
17,Abdulaziz Somiy ko'chasi,200100,39.7484447,64.4044460
14,Degrezi ko’chasi,200100,39.7740921,64.4176456
10,Moxitobon ko'chasi,200100,39.7842909,64.4216756
12,Moxitobon ko'chasi,200100,39.7844190,64.4218079
18,Moxitobon 1-o'tish ko'chasi,200100,39.7847775,64.4219757
7,Moxitobon 2-o'tish ko'chasi,200100,39.7848010,64.4217192
3,Moxitobon 2-o'tish ko'chasi,200100,39.7845157,64.4215318
18,Tutzor ko'chasi,200100,39.7763778,64.4353733
16a,Gijduvon ko‘chasi,200100,39.7870515,64.4201531
20,Moxitobon ko'chasi,200100,39.7849432,64.4220696
20,Moxitobon ko'chasi,200100,39.7848789,64.4219484
22,Moxitobon ko'chasi,200100,39.7848507,64.4221581
24,Moxitobon ko'chasi,200100,39.7849922,64.4221460
24,Moxitobon ko'chasi,200100,39.7851756,64.4221847
24,Moxitobon ko'chasi,200100,39.7850695,64.4223400
24,Moxitobon ko'chasi,200100,39.7851270,64.4220749
28,Moxitobon 1-o'tish ko'chasi,200100,39.7851146,64.4219032
30,Moxitobon ko'chasi,200100,39.7851635,64.4215145
30,Moxitobon ko'chasi,200100,39.7851886,64.4215464
28,Moxitobon 1-o'tish ko'chasi,200100,39.7851236,64.4219346
22,Moxitobon ko'chasi,200100,39.7848899,64.4221529
24,Moxitobon ko'chasi,200100,39.7850666,64.4221649
20,Moxitobon ko'chasi,200100,39.7848956,64.4220281
5,Moxitobon 1-o'tish ko'chasi,200100,39.7849025,64.4215390
5,Moxitobon ko'chasi,200100,39.7846150,64.4216198
7,Moxitobon 2-o'tish ko'chasi,200100,39.7847810,64.4217455
5,Moxitobon 1-o'tish ko'chasi,200100,39.7848089,64.4215836
5,Moxitobon ko'chasi,200100,39.7846860,64.4216248
3,Moxitobon 2-o'tish ko'chasi,200100,39.7845068,64.4215213
15,Gijduvon 1-o'tish ko‘chasi,200100,39.7848391,64.4213234
15,Gijduvon 1-o'tish ko‘chasi,200100,39.7849342,64.4212704
17,Gijduvon 2-o'tish ko‘chasi,200100,39.7845003,64.4212665
17,Gijduvon 2-o'tish ko‘chasi,200100,39.7846518,64.4210250
17,Gijduvon 2-o'tish ko‘chasi,200100,39.7845735,64.4209747
17,Gijduvon 2-o'tish ko‘chasi,200100,39.7844549,64.4211672
19,Gijduvon 2-o'tish ko‘chasi,200100,39.7848306,64.4209834
21,Gijduvon 2-o'tish ko‘chasi,200100,39.7849906,64.4210892
21,Gijduvon 2-o'tish ko‘chasi,200100,39.7849894,64.4209301
36,Gijduvon 1-o'tish ko‘chasi,200100,39.7851146,64.4209455
38,Gijduvon 1-o'tish ko‘chasi,200100,39.7852217,64.4210076
38,Gijduvon 1-o'tish ko‘chasi,200100,39.7852436,64.4209509
38,Gijduvon 1-o'tish ko‘chasi,200100,39.7852214,64.4209757
19,Gijduvon 2-o'tish ko‘chasi,200100,39.7847780,64.4210197
17,Gijduvon 2-o'tish ko‘chasi,200100,39.7845441,64.4211082
15,Gijduvon 1-o'tish ko‘chasi,200100,39.7849090,64.4212007
21,Gijduvon 2-o'tish ko‘chasi,200100,39.7849579,64.4210315
32,Gijduvon 1-o'tish ko‘chasi,200100,39.7851000,64.4213663
32,Gijduvon 1-o'tish ko‘chasi,200100,39.7852846,64.4212588
34,Gijduvon 2-o'tish ko‘chasi,200100,39.7851081,64.4212189
32,Gijduvon 1-o'tish ko‘chasi,200100,39.7852200,64.4212549
6,Saleymon-Merod ko'chasi,200100,39.7841198,64.4210023
4,Saleymon-Merod ko'chasi,200100,39.7841914,64.4208637
4,Saleymon-Merod ko'chasi,200100,39.7842336,64.4211377
19,Gijduvon 4-o'tish ko‘chasi,200100,39.7853708,64.4209481
19,Gijduvon 4-o'tish ko‘chasi,200100,39.7853894,64.4213163
1,Moxitobon ko'chasi,200100,39.7856509,64.4218860
1a,Moxitobon ko'chasi,200100,39.7855742,64.4219973
5,Ozod ko'chasi,200100,39.7856427,64.4222394
Uzbekfilm,Moxitobon ko'chasi,200100,39.7853696,64.4224848
1/1,Ozod ko'chasi,200100,39.7861616,64.4216861
11,Gijduvon 2-o'tish ko‘chasi,200100,39.7858423,64.4212295
15,Gijduvon 4-o'tish ko‘chasi,200100,39.7858460,64.4214061
1,Ozod ko'chasi,200100,39.7858359,64.4216487
1,Ozod ko'chasi,200100,39.7859692,64.4215945
4,Ozod ko'chasi,200100,39.7859347,64.4223886
2,Ozod ko'chasi,200100,39.7858681,64.4225496
5,Moxitobon ko'chasi,200100,39.7859862,64.4228828
7,Moxitobon ko'chasi,200100,39.7862057,64.4229445
17,Moxitobon ko'chasi,200100,39.7866132,64.4232704
3,Ozod ko'chasi,200100,39.7863033,64.4220637
3,Ozod ko'chasi,200100,39.7863986,64.4220704
5a,Ozod ko'chasi,200100,39.7869180,64.4221516
5a,Ozod ko'chasi,200100,39.7869716,64.4217466
5,Ozod ko'chasi,200100,39.7867789,64.4221288
10,Ozod ko'chasi,200100,39.7867001,64.4225317
12,Ozod ko'chasi,200100,39.7867882,64.4224547
12,Ozod ko'chasi,200100,39.7867742,64.4226847
14,Ozod ko'chasi,200100,39.7868716,64.4224581
16,Ozod ko'chasi,200100,39.7870298,64.4225857
5,Moxitobon 2-o'tish ko'chasi,200100,39.7866389,64.4229925
6,Ozod ko'chasi,200100,39.7865132,64.4225058
10,Oxangaron ko'chasi,200100,39.7874418,64.4232017
12,Oxangaron ko'chasi,200100,39.7874225,64.4233727
14,Oxangaron ko'chasi,200100,39.7873108,64.4235069
21,Moxitobon ko'chasi,200100,39.7871226,64.4236040
23,Oxangaron ko'chasi,200100,39.7872710,64.4237260
8,Oxangaron ko'chasi,200100,39.7874457,64.4230126
18,Ozod ko'chasi,200100,39.7872050,64.4224998
20,Ozod ko'chasi,200100,39.7873485,64.4225918
22,Oxangaron ko'chasi,200100,39.7875764,64.4226145
6,Oxangaron ko'chasi,200100,39.7875801,64.4228362
8,Moxitobon ko'chasi,200100,39.7872051,64.4228319
18/1,Oxangaron ko'chasi,200100,39.7886045,64.4202338
18/2,Oxangaron ko'chasi,200100,39.7885998,64.4203639
18,Gijduvon ko‘chasi,200100,39.7886143,64.4200756
1,Oxangaron ko'chasi,200100,39.7884947,64.4205007
7/1,Ozod ko'chasi 4 proezd,200100,39.7859847,64.4212547
7/2,Ozod 4-o'tish ko'chasi,200100,39.7860536,64.4214233
7,Ozod 4-o'tish ko'chasi,700100,39.7859802,64.4211021
1,Oxangaron ko'chasi,200100,39.7883000,64.4212658
2,Rometan koʻchasi,200100,39.7885153,64.4212510
3,Rometan koʻchasi,200100,39.7886444,64.4204803
3,Rometan koʻchasi,200100,39.7886670,64.4207655
4,Rometan koʻchasi,200100,39.7886957,64.4212055
5,Rometan koʻchasi,200100,39.7888729,64.4205717
10,Rometan koʻchasi,200100,39.7891944,64.4212491
10,Rometan koʻchasi,200100,39.7891780,64.4209735
12,Rometan koʻchasi,200100,39.7892619,64.4210700
8,Rometan koʻchasi,200100,39.7890543,64.4210787
6,Rometan koʻchasi,200100,39.7888739,64.4211564
6,Rometan koʻchasi,200100,39.7888909,64.4212349
7/1,Rometan koʻchasi,200100,39.7891816,64.4206569
7,Rometan koʻchasi,200100,39.7890615,64.4205295
9,Rometan koʻchasi,200100,39.7892491,64.4203242
9,Rometan koʻchasi,200100,39.7892758,64.4206348
13,Rometan koʻchasi,200100,39.7894448,64.4204410
14,Rometan koʻchasi,200100,39.7894052,64.4210378
15,Rometan koʻchasi,200100,39.7895458,64.4204252
16,Rometan koʻchasi,200100,39.7895427,64.4210083
17,Rometan koʻchasi,200100,39.7897112,64.4205155
17,Rometan koʻchasi,200100,39.7896922,64.4202700
19,Rometan koʻchasi,200100,39.7897901,64.4203605
21,Rometan koʻchasi,200100,39.7899256,64.4203270
23/1,Rometan koʻchasi,200100,39.7900516,64.4204601
23/1,Rometan koʻchasi,200100,39.7900400,64.4201372
23,Rometan koʻchasi,200100,39.7900982,64.4201178
23,Rometan koʻchasi,200100,39.7901247,64.4204077
25,Rometan koʻchasi,200100,39.7902453,64.4203866
11,Rometan koʻchasi,200100,39.7893686,64.4205636
11,Rometan kuchasi,200100,39.7893384,64.4204098
11,Rometan koʻchasi,200100,39.7893510,64.4203552
1,Rometan koʻchasi,200100,39.7885027,64.4206893
1,Rometan koʻchasi,200100,39.7884473,64.4207745
16a,Rometan koʻchasi,200100,39.7896300,64.4211263
16a,Rometan koʻchasi,200100,39.7896133,64.4208428
18a,Rometan koʻchasi,200100,39.7897602,64.4209841
18,Rometan koʻchasi,200100,39.7897736,64.4208776
20,Rometan koʻchasi,200100,39.7899477,64.4209258
22,Rometan koʻchasi,200100,39.7901353,64.4208655
44,Vobkent koʻchasi,200100,39.7903189,64.4208688
15/1,Rometan koʻchasi,200100,39.7895896,64.4202530
15/1,Rometan koʻchasi,200100,39.7896412,64.4205309
7/1,Rometan koʻchasi,200100,39.7891574,64.4203424
3/1,Oxangaron ko'chasi,200100,39.7881740,64.4218055
3/2,Oxangaron ko'chasi,200100,39.7883561,64.4218365
3,Oxangaron ko'chasi,200100,39.7882840,64.4216312
11,Shofirkon koʻchasi,200100,39.7894453,64.4214791
13,Shofirkon koʻchasi,200100,39.7896221,64.4213630
13,Shofirkon koʻchasi,200100,39.7896381,64.4215617
1,Shofirkon koʻchasi,200100,39.7885872,64.4215853
1,Shofirkon koʻchasi,200100,39.7885426,64.4216849
3,Shofirkon koʻchasi,200100,39.7887194,64.4217808
3,Shofirkon koʻchasi,200100,39.7887838,64.4217164
5a,Shofirkon koʻchasi,200100,39.7888884,64.4215775
5,Shofirkon koʻchasi,200100,39.7889275,64.4216742
7,Shofirkon koʻchasi,200100,39.7890821,64.4215353
9,Shofirkon koʻchasi,200100,39.7892665,64.4215923
9,Shofirkon koʻchasi,200100,39.7892532,64.4213877
15,Shofirkon koʻchasi,200100,39.7898132,64.4213959
15,Shofirkon koʻchasi,200100,39.7897820,64.4212222
17,Shofirkon koʻchasi,200100,39.7900130,64.4211715
17,Shofirkon koʻchasi,200100,39.7899845,64.4214415
19,Shofirkon koʻchasi,200100,39.7901569,64.4212785
21,Shofirkon koʻchasi,2001001,39.7903850,64.4212865
21,Shofirkon koʻchasi,200100,39.7903290,64.4211980
5,Oxangaron ko'chasi,200100,39.7880696,64.4221254
2,Shofirkon koʻchasi,200100,39.7883464,64.4222220
4,Shofirkon koʻchasi,200100,39.7885689,64.4221536
6,Shofirkon koʻchasi,200100,39.7887647,64.4220899
8a,Shofirkon koʻchasi,200100,39.7889522,64.4221730
8,Shofirkon koʻchasi,200100,39.7889657,64.4220592
8,Shofirkon koʻchasi,200100,39.7889403,64.4221155
8,Sobir Raximov ko'chasi,200100,39.7902542,64.4222206
10,Shofirkon koʻchasi,200100,39.7891098,64.4220331
12,Shofirkon koʻchasi,200100,39.7893054,64.4220715
12,Shofirkon koʻchasi,200100,39.7893025,64.4222436
14,Shofirkon koʻchasi,200100,39.7894950,64.4219153
14,Shofirkon koʻchasi,200100,39.7895082,64.4222096
16,Shofirkon koʻchasi,200100,39.7896712,64.4218918
16,Shofirkon koʻchasi,200100,39.7896425,64.4221966
18,Shofirkon koʻchasi,200100,39.7898681,64.4219575
20,Shofirkon koʻchasi,200100,39.7900443,64.4217579
20,Shofirkon koʻchasi,200100,39.7900833,64.4221238
22a,Shofirkon koʻchasi,200100,39.7902478,64.4217402
22,Shofirkon koʻchasi,200100,39.7902222,64.4219555
22,Shofirkon koʻchasi,200100,39.7901612,64.4217282
24,Shofirkon koʻchasi,200100,39.7904152,64.4218494
20/1,Gijduvon ko‘chasi,200100,39.7888772,64.4203177
20/1,Gijduvon ko‘chasi,200100,39.7888538,64.4199942
20,Gijduvon ko‘chasi,200100,39.7887727,64.4201622
22,Gijduvon ko‘chasi,200100,39.7889985,64.4201093
24,Gijduvon ko‘chasi,200100,39.7891776,64.4200677
26a,Gijduvon ko‘chasi,200100,39.7894117,64.4200259
26,Gijduvon ko‘chasi,200100,39.7893291,64.4201841
26,Gijduvon ko‘chasi,20010,39.7893076,64.4198965
28/1,Gijduvon ko‘chasi,200100,39.7896106,64.4201401
28/1,Gijduvon ko‘chasi,200100,39.7895912,64.4198546
28a,Gijduvon ko‘chasi,200100,39.7897241,64.4198158
28,Gijduvon ko‘chasi,200100,39.7895120,64.4201614
28,Gijduvon ko‘chasi,200100,39.7894900,64.4198946
40,Vobkent koʻchasi,200100,39.7902394,64.4197510
40,Vobkent koʻchasi,200100,39.7902425,64.4200326
34,Gijduvon ko‘chasi,200100,39.7901229,64.4200296
34,Gijduvon ko‘chasi,200100,39.7900786,64.4197416
42,Vobkent koʻchasi,200100,39.7902466,64.4202068
18,Sobir Raximov ko'chasi,200100,39.7892279,64.4223595
10,Sobir Raximov ko'chasi,200100,39.7901514,64.4221797
10,Sobir Raximov ko'chasi,200100,39.7901779,64.4224694
12a,Sobir Raximov ko'chasi,200100,39.7900297,64.4222530
12a,Sobir Raximov ko'chasi,200100,39.7900995,64.4225012
12,Sobir Raximov ko'chasi,200100,39.7900346,64.4223860
12,Sobir Raximov ko'chasi,200100,39.7899936,64.4224728
14,Sobir Raximov ko'chasi,200100,39.7897571,64.4224590
16,Sobir Raximov ko'chasi,200100,39.7894644,64.4226065
16,Sobir Raximov ko'chasi,200100,39.7894995,64.4223919
16,Sobir Raximov ko'chasi,200100,39.7893539,64.4225066
16,Sobir Raximov ko'chasi,200100,39.7896136,64.4226182
16,Sobir Raximov ko'chasi,200100,39.7896896,64.4225752
2,Sobir Raximov ko'chasi,200100,39.7905990,64.4223746
4,Sobir Raximov ko'chasi,200100,39.7904967,64.4223564
6,Sobir Raximov ko'chasi,200100,39.7903364,64.4222032
6,Sobir Raximov ko'chasi,200100,39.7903615,64.4224208
8,Sobir Raximov ko'chasi,200100,39.7902603,64.4224783
18,Sobir Raximov ko'chasi,200100,39.7892724,64.4225991
18a,Sobir Raximov ko'chasi,200100,39.7891180,64.4226790
20,Sobir Raximov ko'chasi,200100,39.7887760,64.4223958
20,Sobir Raximov ko'chasi,200100,39.7887980,64.4224966
20,Sobir Raximov ko'chasi,200100,39.7889775,64.4224777
36,Sobir Raximov ko'chasi,200100,39.7887897,64.4225672
36,Sobir Raximov ko'chasi,200100,39.7889675,64.4227101
22a,Sobir Raximov ko'chasi,200100,39.7885069,64.4225070
22a,Sobir Raximov ko'chasi,200100,39.7884582,64.4226431
22a,Sobir Raximov ko'chasi,200100,39.7885285,64.4227064
24,Sobir Raximov ko'chasi,200100,39.7886435,64.4226991
2a,Shofirkon koʻchasi,200100,39.7882240,64.4224302
2a,Shofirkon koʻchasi,200100,39.7883504,64.4224469
22,Sobir Raximov ko'chasi,200100,39.7883440,64.4225546
22,Sobir Raximov ko'chasi,200100,39.7883154,64.4226561
7,Oxangaron ko'chasi,200100,39.7879128,64.4224309
7,Oxangaron ko'chasi,200100,39.7881137,64.4225194
7,Oxangaron ko'chasi,200100,39.7880972,64.4227598
7,Oxangaron ko'chasi,200100,39.7879128,64.4226778
7,Oxangaron ko'chasi,200100,39.7878723,64.4229276
7,Oxangaron ko'chasi,200100,39.7880606,64.4229499
7/1,Oxangaron ko'chasi,200100,39.7878166,64.4231557
9/1,Sobir Raximov ko'chasi,200100,39.7876292,64.4235742
9,Oxangaron ko'chasi,200100,39.7877917,64.4233718
4,Moxitobon ko'chasi,200100,39.7848401,64.4232188
2/2a,Moxitobon ko'chasi,200100,39.7846443,64.4225502
2/2,Moxitobon ko'chasi,200100,39.7847046,64.4228761
2,Moxitobon ko'chasi,200100,39.7848190,64.4229264
4,Moxitobon ko'chasi,200100,39.7849752,64.4229043
12/1,Moxitobon ko'chasi,200100,39.7853750,64.4232725
12/1,Moxitobon ko'chasi,200100,39.7853419,64.4234794
12/1,Moxitobon ko'chasi,200100,39.7854590,64.4231300
12,Moxitobon ko'chasi,200100,39.7852901,64.4233246
12,Moxitobon ko'chasi,200100,39.7853571,64.4230661
6,Moxitobon ko'chasi,200100,39.7849807,64.4232578
6,Moxitobon ko'chasi,200100,39.7850532,64.4229569
8/1,Moxitobon ko'chasi,200100,39.7851975,64.4232921
8/1,Moxitobon ko'chasi,200100,39.7850545,64.4231347
9,Moxitobon ko'chasi,200100,39.7850976,64.4228310
10,Moxitobon ko'chasi,200100,39.7852277,64.4230192
14/1,Moxitobon ko'chasi,200100,39.7854788,64.4233322
14,Moxitobon ko'chasi,200100,39.7856143,64.4233249
16,Moxitobon ko'chasi,200100,39.7857707,64.4233372
16,Moxitobon ko'chasi,200100,39.7857096,64.4235574
18,Moxitobon ko'chasi,200100,39.7859479,64.4234346
18,Moxitobon ko'chasi,200100,39.7860528,64.4235309
18,Moxitobon ko'chasi,200100,39.7859384,64.4238398
18,Moxitobon ko'chasi,200100,39.7860062,64.4237695
18,Moxitobon ko'chasi,200100,39.7858269,64.4237011
20,Moxitobon ko'chasi,200100,39.7861214,64.4237019
22,Moxitobon ko'chasi,200100,39.7863931,64.4236337
22,Moxitobon ko'chasi,200100,39.7861269,64.4239656
22,Moxitobon ko'chasi,200100,39.7863493,64.4237476
22,Moxitobon ko'chasi,200100,39.7862467,64.4239282
22,Moxitobon ko'chasi,200100,39.7862281,64.4237212
24,Moxitobon ko'chasi,200100,39.7864865,64.4237407
24,Moxitobon ko'chasi,200100,39.7864077,64.4239787
24,Moxitobon ko'chasi,200100,39.7864994,64.4240726
24,Moxitobon ko'chasi,200100,39.7866035,64.4238428
26,Moxitobon ko'chasi,200100,39.7867102,64.4238443
26,Moxitobon ko'chasi,200100,39.7868184,64.4238979
26,Moxitobon ko'chasi,200100,39.7867107,64.4242567
26,Moxitobon ko'chasi,200100,39.7867416,64.4240280
18,Oxangaron ko'chasi,200100,39.7869902,64.4248377
28a,Moxitobon ko'chasi,200100,39.7869639,64.4241995
28b,Moxitobon ko'chasi,200100,39.7868623,64.4241382
30/1,Moxitobon ko'chasi,200100,39.7870851,64.4244504
30/1,Moxitobon ko'chasi,200100,39.7872215,64.4243262
30,Moxitobon ko'chasi,200100,39.7871031,64.4242278
18,Oxangaron ko'chasi,200100,39.7870865,64.4248302
2,Oxangaron ko'chasi,200100,39.7868552,64.4246421
4,Oxangaron ko'chasi,200100,39.7867093,64.4245502
6,Oxangaron ko'chasi,200100,39.7865021,64.4244527
6,Oxangaron ko'chasi,200100,39.7866421,64.4243072
6,Oxangaron ko'chasi,200100,39.7866229,64.4244462
8,Oxangaron ko'chasi,200100,39.7863929,64.4244489
8,Oxangaron ko'chasi,200100,39.7862873,64.4245127
8,Oxangaron ko'chasi,200100,39.7863866,64.4242414
10,Oxangaron ko'chasi,200100,39.7862305,64.4242743
10,Oxangaron ko'chasi,200100,39.7861039,64.4242590
12,Oxangaron ko'chasi,200100,39.7860272,64.4242579
12,Oxangaron ko'chasi,200100,39.7859333,64.4241239
14,Oxangaron ko'chasi,200100,39.7858093,64.4240556
16,Oxangaron ko'chasi,200100,39.7856704,64.4240065
18,Oxangaron ko'chasi,200100,39.7855091,64.4236690
18,Oxangaron ko'chasi,200100,39.7854348,64.4239032
20,Oxangaron ko'chasi,200100,39.7852717,64.4238445
20,Oxangaron ko'chasi,200100,39.7852709,64.4237209
22,Oxangaron ko'chasi,200100,39.7851532,64.4237281
24/1,Oxangaron ko'chasi,200100,39.7850501,64.4236355
24,Oxangaron ko'chasi,200100,39.7849961,64.4235477
24/2,Oxangaron ko'chasi,200100,39.7848836,64.4235967
26,Oxangaron ko'chasi,200100,39.7847538,64.4235412
28,Oxangaron ko'chasi,200100,39.7846750,64.4234221
27,Oxangaron ko'chasi,200100,39.7846859,64.4237487
27,Oxangaron ko'chasi,200100,39.7846184,64.4238473
27a,Oxangaron ko'chasi,200100,39.7846047,64.4240204
21,Oxangaron ko'chasi,200100,39.7851598,64.4240610
23,Oxangaron ko'chasi,200100,39.7849083,64.4239614
23,Oxangaron ko'chasi,200100,39.7849524,64.4241941
25,Oxangaron ko'chasi,200100,39.7847012,64.4241949
25,Oxangaron ko'chasi,200100,39.7847801,64.4239527
21,Oxangaron ko'chasi,200100,39.7850623,64.4240505
19a,Oxangaron ko'chasi,200100,39.7850561,64.4244039
19a,Oxangaron ko'chasi,200100,39.7848889,64.4243896
21a,Oxangaron ko'chasi,200100,39.7850445,64.4242516
19,Oxangaron ko'chasi,200100,39.7852160,64.4243516
19,Oxangaron ko'chasi,200100,39.7852328,64.4243089
19,Oxangaron ko'chasi,200100,39.7852820,64.4241751
17,Oxangaron ko'chasi,200100,39.7854745,64.4242521
15,Oxangaron ko'chasi,200100,39.7856164,64.4244510
13a,Oxangaron ko'chasi,200100,39.7857118,64.4246717
13a,Oxangaron ko'chasi,200100,39.7857811,64.4244704
11,Oxangaron ko'chasi,200100,39.7859954,64.4246930
13,Oxangaron ko'chasi,200100,39.7858048,64.4247473
13,Oxangaron ko'chasi,200100,39.7859060,64.4245554
1,Oxangaron ko'chasi,200100,39.7867646,64.4253595
1,Oxangaron ko'chasi,200100,39.7868744,64.4250713
1,Oxangaron ko'chasi,200100,39.7868522,64.4253742
1,Oxangaron ko'chasi,200100,39.7869782,64.4251644
3,Oxangaron ko'chasi,200100,39.7867247,64.4249791
3,Oxangaron ko'chasi,200100,39.7866880,64.4252755
5,Oxangaron ko'chasi,200100,39.7865755,64.4249822
5,Oxangaron ko'chasi,200100,39.7864440,64.4250926
5,Oxangaron ko'chasi,200100,39.7865011,64.4248751
7,Oxangaron ko'chasi,200100,39.7864125,64.4249229
7,Oxangaron ko'chasi,200100,39.7863454,64.4248896
120,Oxangaron ko'chasi,200100,39.7861781,64.4247876
20,Oxangaron ko'chasi,200100,39.7867875,64.4256486
20a,Oxangaron ko'chasi,200100,39.7867028,64.4258246
22,Oxangaron ko'chasi,200100,39.7865543,64.4255299
22,Oxangaron ko'chasi,200100,39.7865877,64.4256746
24,Oxangaron ko'chasi,200100,39.7863531,64.4257281
24,Oxangaron ko'chasi,200100,39.7864550,64.4253875
24,Oxangaron ko'chasi,200100,39.7863686,64.4253551
26,Oxangaron ko'chasi,200100,39.7862148,64.4252957
28,Oxangaron ko'chasi,200100,39.7861028,64.4250031
28,Oxangaron ko'chasi,200100,39.7860057,64.4252815
30,Oxangaron ko'chasi,200100,39.7858425,64.4250766
32/1,Oxangaron ko'chasi,200100,39.7857900,64.4249059
32/1,Oxangaron ko'chasi,200100,39.7856941,64.4252190
32,Oxangaron ko'chasi,200100,39.7857338,64.4248144
32,Oxangaron ko'chasi,200100,39.7856359,64.4251294
34,Oxangaron ko'chasi,200100,39.7855371,64.4249341
38/1,Oxangaron ko'chasi,200100,39.7852678,64.4245846
38,Oxangaron ko'chasi,200100,39.7851375,64.4248866
38,Oxangaron ko'chasi,200100,39.7852594,64.4248245
36/1,Oxangaron ko'chasi,200100,39.7853502,64.4247451
36/1,Oxangaron ko'chasi,200100,39.7853011,64.4251065
36/1,Oxangaron ko'chasi,200100,39.7854169,64.4246270
36,Oxangaron ko'chasi,200100,39.7852637,64.4249567
6,Oxangaron ko'chasi,200100,39.7848829,64.4247519
17,Oxangaron ko'chasi,200100,39.7867305,64.4263064
17,Oxangaron ko'chasi,200100,39.7866129,64.4263237
19/1,Oxangaron ko'chasi,200100,39.7863252,64.4260282
19,Oxangaron ko'chasi,200100,39.7864785,64.4260983
40,Oxangaron ko'chasi,200100,39.7861468,64.4261628
1/1,Moxitobon ko'chasi,200100,39.7879420,64.4240944
60,Mohitobon ko'chasi,200100,39.7884401,64.4237548
9/10,Piridastgir ko'chasi,200100,39.7464426,64.4328181
4,Qarshi Darvoza ko'chasi,705004,39.7714645,64.4332533
9/7,Piridastgir ko'chasi,200100,39.7460703,64.4322002
1,Xorazm ko'chasi,200100,39.7760185,64.4191321
91,Bahovaddin Naqshband ko'chasi,200114,39.7731146,64.4269419
18,Masjidi baland ko'chasi,200105,39.7706852,64.4079183
8,Ozod ko'chasi,200100,39.7866063,64.4225152
31/1,Alisher Navoiy shoh ko'chasi,200100,39.7481701,64.4260450
31/2,Alisher Navoiy shoh ko'chasi,200100,39.7477504,64.4260302
31/3,Alisher Navoiy shoh ko'chasi,200100,39.7473441,64.4260314
31/4,Alisher Navoiy shoh ko'chasi,200100,39.7469180,64.4259939
4/10,Abdulaziz Somiy ko'chasi,200100,39.7433695,64.4073412
4/9,Abdulaziz Somiy ko'chasi,200100,39.7430162,64.4071873
4/1B,Abdulaziz Somiy ko'chasi,200100,39.7466682,64.4088734
4/1A,Abdulaziz Somiy ko'chasi,200100,39.7470001,64.4088608
4/8,Abdulaziz Somiy ko'chasi,200100,39.7426490,64.4095855
9/11,Piridastgir ko'chasi,200100,39.7464358,64.4319723
77/2,Jo'bor dom,200100,39.7638855,64.3940097
2,Sanoatchilar ko'chasi,200100,39.7598644,64.4478389
4,Turdi Farog'iy ko'chasi,200100,39.7380659,64.4332488
3,Turdi Farog'iy ko'chasi,200100,39.7387748,64.4330315
34,Arabon ko'chasi,200100,39.7689233,64.4197372
47,Tagban Bofon jom`e masjidi,200100,39.7775185,64.4141621
3,Otaboy Eshonov ko'chasi,200100,39.7704324,64.4323375
19,Amir Temur ko'chasi,200100,39.7401320,64.4043195
21,Amir Temur ko'chasi,200100,39.7392407,64.4041414
22,Amir Temur ko'chasi,200100,39.7391177,64.4046812
60,Ismat Buxoriy ko'chasi,200100,39.7611115,64.4032321
77/1,Jo'bor dom,200100,39.7633522,64.3935859
21,Qayum Murtazoyev ko'chasi,200100,39.7567105,64.4114538
3,Ahmad Yassaviy ko'chasi,200100,39.7807181,64.4148548
135,Qasri Orifon ko'chasi 7 muyilish,200100,39.7763997,64.4621926
46,Xo'ja Nurobod ko'chasi,200100,39.7778670,64.4131491
46,Samarqand ko'chasi,200100,39.7786636,64.4206960
47,Tojiqarayev ko'chasi,200100,39.7903586,64.4380699
2,G'azzoliy ko'chasi,200100,39.7726416,64.4120383
36,Fatkhobod,200100,39.7679626,64.4473345
32,Fatkhobod,200100,39.7662531,64.4470621
17,Amir Temur ko'chasi,200100,39.7401821,64.4037496
24,Amir Temur ko'chasi,200100,39.7404915,64.4026142
15,Amir Temur ko'chasi,200100,39.7403405,64.4032059
52,Fayzobod ko'chasi,200100,39.7735618,64.4479946
51,Fayzobod ko'chasi,200100,39.7735777,64.4475934
50,Fayzobod ko'chasi,200100,39.7738533,64.4473990
49,Fayzobod ko'chasi,200100,39.7738763,64.4469884
48,Fayzobod ko'chasi,200100,39.7741433,64.4468026
37/2,Ibrohim Mo'minov ko'chasi,200100,39.7671455,64.4370470
9/3,Piridastgir ko'chasi,200100,39.7459913,64.4329673
9/5,Piridastgir ko'chasi,200100,39.7455959,64.4334569
9/6,Piridastgir ko'chasi,200100,39.7452120,64.4336315
1,Mehtar Anbar ko'chasi,200100,39.7740547,64.4203792
14,Amir Temur ko'chasi,200100,39.7407000,64.4033477
16,Amir Temur ko'chasi,200100,39.7405448,64.4038943
28,Amir Temur ko'chasi,200100,39.7408393,64.4027560
18,Amir Temur ko'chasi,200100,39.7404582,64.4044452
20,Amir Temur ko'chasi,200100,39.7395663,64.4042677
26,Xo'ja Alovuddin G'ijduvoniy,200100,39.7534066,64.4001614
33,Xo'ja Alovuddin G'ijduvoniy,200100,39.7536531,64.4000452
41,Amir Temur ko'chasi,200100,39.7389584,64.4032237
144,Bahovaddin Naqshband ko'chasi,200100,39.7730442,64.4248805
8,Gijduvon ko‘chasi,200100,39.7840839,64.4216027
48,Eshoni pir ko'chasi,200100,39.7709849,64.4208558
6-A,Alisher Navoiy shox ko'chasi,200100,39.7578745,64.4227270
61,Bahovaddin Naqshband ko'chasi,200100,39.7718980,64.4383975
14,Xo'ja Nurobod ko'chasi,200100,39.7758916,64.4141353
7,Haqiqat ko'chasi,200121,39.7755284,64.4164653
55,Mekhtar Anbar,200118,39.7737027,64.4187692
1/1,Jo'ybor ko'chasi,200100,39.7659254,64.4037223
27,Abdulla To’qay ko’chasi,200119,39.7658988,64.4168772
