House number,Street name,Postal code,Latitude,Longitude
1,Piața Victoriei,300030,45.7534964,21.2260394
12 A,Strada Miresei,300642,45.7695045,21.2208416
6,Piața Mitropolit Alexandru Sterca-Suluțiu,300116,45.7552868,21.2497575
18,Strada Burebista,300680,45.7654749,21.2189016
44,Calea Aradului,300283,45.7744247,21.2222105
44,Calea Aradului,300283,45.7743647,21.2222322
32,Calea Aradului,300282,45.7740376,21.2223525
42,Calea Bogdăneștilor,300407,45.7589867,21.2020200
23,Strada Pomiculturii,300272,45.7714870,21.2365092
60,Calea Martirilor 1989,300719,45.7347741,21.2375513
12,Bulevardul Sudului,300686,45.7350468,21.2489318
71,Bulevardul 16 Decembrie 1989,300219,45.7386472,21.2100740
2,Bulevardul Iuliu Maniu,300188,45.7395724,21.2098520
45,Calea Sever Bocu,300287,45.7765263,21.2328024
32,Calea Aradului,300282,45.7743047,21.2222539
3,Strada Holdelor,300270,45.7717626,21.2374163
42,Strada Gheorghe Lazăr,300890,45.7625393,21.2126192
142,Calea Martirilor 1989,300777,45.7235742,21.2365758
2,Calea Martirilor 1989,300724,45.7410386,21.2385277
13,Calea Martirilor 1989,300735,45.7383959,21.2384246
39,Calea Martirilor 1989,300776,45.7318809,21.2377339
82,Calea Martirilor 1989,300774,45.7290826,21.2369663
53,Calea Martirilor 1989,300777,45.7246262,21.2369072
176,Calea Martirilor 1989,300777,45.7215074,21.2365101
178,Calea Martirilor 1989,300777,45.7213576,21.2365048
2,Strada Mehadia,300561,45.7526730,21.2433706
4,Strada Mehadia,300561,45.7525214,21.2433999
6,Strada Mehadia,300561,45.7523416,21.2434267
12,Strada Cornelia Sălceanu,300561,45.7527880,21.2430814
14,Strada Cornelia Sălceanu,300561,45.7528501,21.2435984
31,Calea Martirilor 1989,300740,45.7342830,21.2378300
33,Calea Martirilor 1989,300740,45.7333137,21.2377299
67,Calea Martirilor 1989,300777,45.7234921,21.2369610
11,Strada Ofcea,300560,45.7526896,21.2420065
100,Calea Martirilor 1989,300774,45.7263023,21.2367110
45,Calea Martirilor 1989,300776,45.7314118,21.2377944
144,Calea Martirilor 1989,300777,45.7234069,21.2365507
15,Calea Martirilor 1989,300735,45.7383197,21.2384116
53,Bulevardul Eroilor de la Tisa,300553,45.7488057,21.2455871
61,Bulevardul Eroilor de la Tisa,300562,45.7491487,21.2466679
51,Bulevardul Take Ionescu,300070,45.7610547,21.2409615
91,Calea Martirilor 1989,300777,45.7305424,21.2374663
95,Calea Martirilor 1989,300777,45.7304301,21.2374610
42,Calea Martirilor 1989,300722,45.7363124,21.2379574
6,Bulevardul Republicii,300002,45.7538324,21.2243573
6,Strada Johann Guttenberg,300554,45.7482312,21.2485134
3,Strada Abrud,300093,45.7574312,21.2434109
5,Strada Abrud,300093,45.7574761,21.2437274
7,Strada Abrud,300093,45.7576791,21.2445884
9,Strada Abrud,300093,45.7578026,21.2448633
11,Strada Abrud,300093,45.7579486,21.2451396
1,Strada Abrud,300093,45.7573623,21.2430927
2,Strada Plautius Andronescu,300224,45.7466080,21.2322495
4,Strada Plautius Andronescu,300224,45.7466623,21.2324372
6,Strada Plautius Andronescu,300224,45.7467194,21.2326786
146,Calea Martirilor 1989,300777,45.7232653,21.2365465
6,Strada Ion Vidu,300225,45.7458353,21.2334316
8,Strada Ion Vidu,300225,45.7458710,21.2338258
2,Strada Ion Vidu,300225,45.7455957,21.2323158
4,Strada Ion Vidu,300225,45.7456968,21.2327932
1,Strada Ion Vidu,300225,45.7457529,21.2321334
9,Strada Ion Vidu,300225,45.7459738,21.2332385
7,Strada Ion Vidu,300225,45.7458989,21.2328630
5,Strada Ion Vidu,300225,45.7458390,21.2326108
3,Strada Ion Vidu,300225,45.7457866,21.2323426
11,Strada Ion Vidu,300225,45.7460674,21.2336033
12,Strada Plautius Andronescu,300224,45.7468926,21.2334334
9,Strada Petre Râmneanțu,300224,45.7464810,21.2318974
11,Strada Petre Râmneanțu,300224,45.7462021,21.2319188
13,Strada Petre Râmneanțu,300224,45.7460262,21.2319564
15,Strada Petre Râmneanțu,300595,45.7458390,21.2320047
17,Strada Petre Râmneanțu,300595,45.7452528,21.2321804
5,Strada Argeș,300593,45.7437705,21.2345613
7,Strada Argeș,300593,45.7439339,21.2347200
9,Strada Argeș,300593,45.7441211,21.2351491
11,Strada Argeș,300593,45.7442334,21.2355086
13,Strada Argeș,300593,45.7443504,21.2360087
12,Strada Argeș,300593,45.7440836,21.2355354
14,Strada Argeș,300593,45.7441847,21.2358411
16,Strada Argeș,300593,45.7442783,21.2361737
1,Strada Argeș,300593,45.7432788,21.2339690
3,Strada Argeș,300593,45.7435571,21.2342609
2,Strada Argeș,300593,45.7431303,21.2342073
4,Strada Argeș,300593,45.7432988,21.2344862
6,Strada Argeș,300593,45.7434522,21.2346203
8,Strada Argeș,300593,45.7437218,21.2350173
10,Strada Argeș,300593,45.7438341,21.2352426
6,Strada Putna,300593,45.7447178,21.2333412
8,Strada Putna,300593,45.7444221,21.2333787
10,Strada Putna,300593,45.7441563,21.2334431
12,Strada Putna,300593,45.7438793,21.2334860
14,Strada Putna,300593,45.7435217,21.2335142
1,Strada Putna,300595,45.7457024,21.2332446
3,Strada Putna,300595,45.7454404,21.2333144
5,Strada Putna,300593,45.7451858,21.2333948
2,Strada Putna,300595,45.7455812,21.2330541
4,Strada Putna,300595,45.7451701,21.2331524
9,Strada Putna,300593,45.7444162,21.2336517
11,Strada Putna,300593,45.7441413,21.2336148
13,Strada Putna,300593,45.7438868,21.2336577
15,Strada Putna,300593,45.7436619,21.2337942
17,Strada Putna,300593,45.7435084,21.2337620
7,Strada Putna,300593,45.7445652,21.2336471
10,Strada Mitropolit Varlaam,300233,45.7431358,21.2318621
8,Strada Mitropolit Varlaam,300233,45.7430180,21.2313319
2,Strada Mitropolit Varlaam,300233,45.7427876,21.2304727
4,Strada Mitropolit Varlaam,300233,45.7428887,21.2306712
6,Strada Mitropolit Varlaam,300233,45.7429860,21.2308750
20,Strada Mitropolit Varlaam,300593,45.7431378,21.2335313
18,Strada Mitropolit Varlaam,300593,45.7432256,21.2332622
16,Strada Mitropolit Varlaam,300593,45.7431528,21.2329413
14,Strada Mitropolit Varlaam,300593,45.7431153,21.2326194
12,Strada Mitropolit Varlaam,300596,45.7431620,21.2322054
15,Strada Mitropolit Varlaam,300593,45.7433679,21.2327325
17,Strada Mitropolit Varlaam,300593,45.7434036,21.2329949
19,Strada Mitropolit Varlaam,300593,45.7434260,21.2333543
24,Strada Mitropolit Varlaam,300593,45.7428233,21.2340678
22,Strada Mitropolit Varlaam,300593,45.7429618,21.2338532
5,Strada Mitropolit Varlaam,300233,45.7431283,21.2307141
7,Strada Mitropolit Varlaam,300233,45.7432443,21.2311379
9,Strada Mitropolit Varlaam,300233,45.7432855,21.2315295
11,Strada Mitropolit Varlaam,300233,45.7433154,21.2318674
13,Strada Mitropolit Varlaam,300596,45.7433417,21.2321786
1,Strada Mitropolit Varlaam,300233,45.7429486,21.2303171
3,Strada Mitropolit Varlaam,300233,45.7430384,21.2305156
12,Strada Petre Râmneanțu,300596,45.7425368,21.2322859
19,Strada Petre Râmneanțu,300596,45.7444760,21.2323663
21,Strada Petre Râmneanțu,300596,45.7441615,21.2324106
23,Strada Petre Râmneanțu,300596,45.7439818,21.2324455
2,Strada Petre Râmneanțu,300596,45.7445097,21.2321142
4,Strada Petre Râmneanțu,300596,45.7437609,21.2322483
8,Strada Petre Râmneanțu,300596,45.7430124,21.2323780
10,Strada Petre Râmneanțu,300596,45.7427202,21.2323717
2,Strada Snagov,300481,45.7366893,21.2170407
2,Piața Victoriei,300006,45.7537538,21.2250099
38-40-42,Bulevardul General Ion Dragalina,300158,45.7494709,21.2087508
10,Strada Coriolan Brediceanu,300011,45.7573448,21.2219729
8,Strada Daliei,300558,45.7502273,21.2423858
45,Calea Sever Bocu,300287,45.7763915,21.2327343
31,Calea Sever Bocu,300288,45.7734984,21.2315701
10,Strada Dacilor,300094,45.7593946,21.2496578
8,Strada Emanuil Ungureanu,300079,45.7573927,21.2272400
8,Strada Emanuil Ungureanu,300079,45.7575429,21.2273771
3,Strada Patriarh Miron Cristea,300029,45.7529083,21.2288684
44,Bulevardul Simion Bărnuțiu,300133,45.7633494,21.2558394
10,Strada Doctor Pavel Vasile Ungureanu,300489,45.7371196,21.2120657
91,Strada Cozia,300580,45.7412989,21.2373235
44,Calea Buziașului,300700,45.7297809,21.2659806
2,Strada Chimiștilor,300574,45.7415913,21.2575976
1,Strada Amurgului,300278,45.7709026,21.2275614
60,Strada Izlaz,300430,45.7226453,21.2090223
1,Piața Unirii,300085,45.7573543,21.2292917
1,Bulevardul Regele Ferdinand,300021,45.7506511,21.2243336
5-7,Piața Libertății,300077,45.7556682,21.2265979
1,Piața Iancu Huniade,300002,45.7530646,21.2270757
1,Piața Iancu Huniade,300002,45.7531035,21.2273177
4,Strada Episcop Augustin Pacha,300055,45.7564001,21.2298608
4,Piața Unirii,300085,45.7579571,21.2279491
20A,Strada Pestalozzi,300115,45.7544751,21.2473110
62,Bulevardul Simion Bărnuțiu,300302,45.7640540,21.2576971
"40, Ap. 1",Strada Căpitan Damșescu,300150,45.7409533,21.1993774
2,Bulevardul Sudului,300686,45.7361520,21.2496331
12A,Strada Ștrandului,300310,45.7683173,21.2683585
12A,Strada Ștrandului,300310,45.7681952,21.2683718
53A,Bulevardul Dâmbovița,300472,45.7344073,21.2003265
53B,Bulevardul Dâmbovița,300472,45.7342937,21.2005040
3,Aleea Gorniștilor,300455,45.7327376,21.2036854
14,Strada Teiului,300681,45.7646351,21.2209739
3,Calea Buziașului,300714,45.7313238,21.2609942
1,Calea Buziașului,300714,45.7321914,21.2597300
1,Calea Buziașului,300714,45.7321684,21.2595654
1,Calea Buziașului,300714,45.7321781,21.2596599
3,Calea Buziașului,300714,45.7313630,21.2612822
7,Strada Vasile Alecsandri,300078,45.7568843,21.2279079
"nr. 40, Sc. C",Strada Gheorghe Lazăr,300078,45.7618629,21.2143419
20,Strada Arieș,300736,45.7397719,21.2395065
20,Strada Arieș,300736,45.7396875,21.2395675
20,Strada Arieș,300736,45.7395949,21.2396343
20,Strada Arieș,300736,45.7392036,21.2399167
20,Strada Arieș,300736,45.7398590,21.2394436
1,Calea Buziașului,300714,45.7321553,21.2594158
32,Calea Buziașului,300699,45.7312986,21.2620868
5,Strada Aștrilor,300685,45.7334562,21.2499879
1,Aristide Demetriade,300000,45.7658652,21.2370944
40,Calea Martirilor 1989,300722,45.7369186,21.2379863
6,Strada Frederic Mistral,300314,45.7611913,21.2636507
44,Calea Martirilor 1989,300722,45.7359089,21.2377270
15,Strada Coriolan Brediceanu,300011,45.7568019,21.2217609
3,Calea Dorobanților,300134,45.7620583,21.2601484
71,Calea Martirilor 1989,300777,45.7289837,21.2376085
4A,Piața Bisericii,300233,45.7424173,21.2302428
4,Bulevardul Revoluției din 1989,300024,45.7553465,21.2352888
11,Strada Eugeniu de Savoya,300085,45.7566568,21.2283292
16A,Bulevardul Dâmbovița,300455,45.7333126,21.2051630
2,Strada Francesco Griselini,300054,45.7561014,21.2309482
4,Piața Unirii,300085,45.7576780,21.2273365
5,Strada Florimund Mercy,300085,45.7567964,21.2287452
8,Piața Alexandru Mocioni,300173,45.7467170,21.2159749
8,Strada General Henri Berthelot,300000,45.7480264,21.2197640
8,Bulevardul 16 Decembrie 1989,300173,45.7487223,21.2188083
100,Calea Șagului,300516,45.7261454,21.1979911
3B,Strada Emanuil Ungureanu,300079,45.7566090,21.2269352
3,Bulevardul Iuliu Maniu,300146,45.7388619,21.2095313
9,Strada Uranus,300708,45.7346773,21.2463831
23,Strada Venus,300693,45.7310920,21.2563111
53,Strada Mareșal Alexandru Averescu,300728,45.7319918,21.2335263
53,Strada Mareșal Alexandru Averescu,300728,45.7320050,21.2332887
55,Strada Mareșal Alexandru Averescu,300728,45.7319785,21.2337750
1,Bulevardul Iuliu Maniu,300188,45.7394719,21.2093898
2A,Calea Martirilor 1989,300724,45.7414225,21.2381093
5,Piața Nicolae Bălcescu,300236,45.7410714,21.2255651
20 - 26,Strada Aștrilor,300685,45.7340206,21.2503942
20 - 26,Strada Aștrilor,300685,45.7338117,21.2503415
55,Calea Șagului,300426,45.7287465,21.2064021
70,Calea Șagului,300515,45.7283923,21.2048352
55A,Calea Șagului,300426,45.7285849,21.2062107
11 H,Calea Buziașului,300699,45.7318228,21.2644709
45,Bulevardul Sudului,300709,45.7317505,21.2476776
45,Calea Sever Bocu,300287,45.7765813,21.2328311
70,Strada Mareșal Alexandru Averescu,300766,45.7319013,21.2288806
140 S - E,Strada Mareșal Constantin Prezan,300695,45.7309783,21.2454640
29,Strada Uranus,300708,45.7314397,21.2453013
1,Calea Buziașului,300714,45.7321507,21.2593485
1,Calea Buziașului,300714,45.7321604,21.2594888
15,Strada Herculane,300434,45.7250107,21.2110235
12,Calea Stan Vidrighin,300571,45.7449232,21.2542457
22,Bulevardul Eroilor de la Tisa,300575,45.7459918,21.2402965
30 - 40,Bulevardul Eroilor de la Tisa,300562,45.7504588,21.2512523
27 A,Strada Armoniei,300291,45.7837811,21.2228373
3 A,Strada Ion Ionescu de la Brad,300255,45.7793759,21.2384390
3 A,Strada Ion Ionescu de la Brad,300255,45.7793186,21.2384043
53,Strada Ștefan cel Mare,300116,45.7512151,21.2523817
41,Calea Sever Bocu,300287,45.7758977,21.2324889
41,Calea Sever Bocu,300287,45.7756678,21.2324006
33,Calea Sever Bocu,300288,45.7738463,21.2316455
33,Calea Sever Bocu,300288,45.7738261,21.2316921
33,Calea Sever Bocu,300288,45.7737135,21.2316555
10,Strada Coriolan Brediceanu,300011,45.7575814,21.2217689
6,Strada Vasile Alecsandri,300078,45.7572101,21.2281259
67,Bulevardul Simion Bărnuțiu,300304,45.7646395,21.2587206
3,Strada Daliei,300558,45.7510986,21.2421821
2,Strada Martir Ioan Stanciu,300740,45.7342190,21.2380248
62,Calea Martirilor 1989,300727,45.7339067,21.2375189
62,Calea Martirilor 1989,300727,45.7340471,21.2375281
60,Calea Martirilor 1989,300719,45.7347219,21.2375472
81,Strada Doctor Grigore T. Popa,300291,45.7804995,21.2205769
13,Strada Gheorghe Adam,300310,45.7687793,21.2602925
33,Calea Sever Bocu,300288,45.7736862,21.2316432
82,Calea Sever Bocu,300253,45.7776330,21.2343111
56,Bulevardul Simion Bărnuțiu,300302,45.7640799,21.2580760
a25,Strada Matei Basarab,300359,45.7692448,21.2120205
5,Strada Mehadia,300558,45.7509716,21.2447850
2,Strada Doctor Nicolae Paulescu,300006,45.7531076,21.2250132
7,Piața Victoriei,300021,45.7513917,21.2251638
1-3,Strada Mărășești,300086,45.7541707,21.2254670
64,Calea Aradului,300291,45.7878782,21.2199544
9,Bulevardul Antenei,300280,45.7662061,21.2302452
10,Strada Burebista,300678,45.7647514,21.2191562
5,Strada August Treboniu Laurian,300200,45.7465724,21.2191578
14,Strada Dacilor,300094,45.7598260,21.2493534
6,Piața Mitropolit Alexandru Sterca-Suluțiu,300116,45.7551371,21.2496251
6,Piața Mitropolit Alexandru Sterca-Suluțiu,300116,45.7551955,21.2493207
2,Aleea Hotinului,300667,45.7702947,21.2184413
3,Strada Lucian Blaga,300002,45.7544156,21.2278046
29 A,Strada Ciprian Porumbescu,300239,45.7395926,21.2208279
127,Strada Ciprian Porumbescu,300489,45.7370853,21.2104929
57,Bulevardul 16 Decembrie 1989,300219,45.7399704,21.2109361
73,Bulevardul Simion Bărnuțiu,300304,45.7651696,21.2596411
6,Strada Lucian Blaga,300002,45.7543429,21.2275761
1,Strada Mureș,300414,45.7304799,21.2097098
1,Strada Mureș,300414,45.7304585,21.2097080
1,Strada Mureș,300414,45.7305965,21.2095273
1,Strada Mureș,300414,45.7308067,21.2093091
1 C,Strada Mureș,300414,45.7307199,21.2091212
14,Bulevardul Cetății,300397,45.7592755,21.2098719
12,Bulevardul Cetății,300397,45.7592162,21.2098708
6,Calea Bogdăneștilor,300335,45.7571656,21.2134837
2,Strada Cloșca,300079,45.7632254,21.2104801
5,Aleea Studenților,300001,45.7496734,21.2410020
13,Piața Unirii,300085,45.7578699,21.2300339
81,Strada Doctor Grigore T. Popa,300291,45.7806242,21.2206716
1B,Splaiul Morarilor,300120,45.7595010,21.2579100
2,Piața Petru Maior,300297,45.7606437,21.2589605
97,Bulevardul Cetății,300389,45.7687644,21.2190605
21,Bulevardul Republicii,300158,45.7496544,21.2139973
12,Strada Timiș,300650,45.7655345,21.2178277
46C,Bulevardul Take Ionescu,300070,45.7604759,21.2421678
46C,Bulevardul Take Ionescu,300070,45.7604010,21.2422138
37,Strada Martir Constantin Radu,300702,45.7242757,21.2673178
12 A,Strada Doctor Pavel Vasici Ungureanu,300489,45.7369429,21.2121226
16,Avram Imbroane,300129,45.7676676,21.2475909
12,Aleea F.C. Ripensia,300575,45.7452362,21.2404408
95,Strada Drubeta,300766,45.7293851,21.2276525
46C,Bulevardul Take Ionescu,300070,45.7602630,21.2423165
10,Strada Suceava,300092,45.7574760,21.2118792
169,Calea Șagului,300517,45.7168291,21.1959463
8-10,Calea Circumvalațiunii,300081,45.7572513,21.2183989
11A,Calea Buziașului,300699,45.7312433,21.2680327
21,Bulevardul Republicii,300158,45.7494633,21.2138428
153,Calea Șagului,300517,45.7178447,21.1968476
43,Strada Budai Deleanu,300142,45.7381416,21.2042325
14,Strada Independenței,300207,45.7397366,21.2248692
78,Bulevardul Constantin Brâncoveanu,300479,45.7336843,21.2188034
15,Bulevardul General Ion Dragalina,300158,45.7455583,21.2106822
42,Bulevardul General Ion Dragalina,300158,45.7496143,21.2086894
40,Bulevardul General Ion Dragalina,300158,45.7497959,21.2085727
38,Bulevardul General Ion Dragalina,300158,45.7499484,21.2084761
7,Strada Emanuil Ungureanu,300079,45.7572561,21.2270089
6,Strada 1 Decembrie 1918,300231,45.7407772,21.2269367
1,Strada Lucian Blaga,300002,45.7549921,21.2278742
1,Aristide Demetriade,300088,45.7669245,21.2276436
4,Strada Martin Luther,300062,45.7570610,21.2325840
98,Calea Martirilor 1989,300774,45.7284393,21.2360593
1,Strada Socrate,300551,45.7495157,21.2377661
4,Strada Stelelor,300679,45.7652686,21.2199274
52,Bulevardul Simion Bărnuțiu,300303,45.7636482,21.2560761
5,Calea Martirilor 1989,300724,45.7399376,21.2386545
2,Aleea Hotinului,300667,45.7701612,21.2185920
2,Aleea Hotinului,300667,45.7705338,21.2181726
16-18,Strada Burebista,300680,45.7653577,21.2190313
49,Calea Sever Bocu,300287,45.7787609,21.2336035
3,Piața Iancu Huniade,300002,45.7539251,21.2272083
2,Strada George Stephenson,300619,45.7609468,21.1836268
30,Bulevardul Simion Bărnuțiu,300133,45.7635376,21.2538773
6,Strada Transilvania,300143,45.7367491,21.2032364
14A,Strada Mareșal Constantin Prezan,300744,45.7307872,21.2491009
125,Calea Martirilor 1989,300777,45.7231637,21.2369189
69,Calea Martirilor 1989,300777,45.7232948,21.2369411
65,Calea Martirilor 1989,300777,45.7237349,21.2369330
63,Calea Martirilor 1989,300777,45.7238744,21.2369397
61,Calea Martirilor 1989,300777,45.7239661,21.2369250
59,Calea Martirilor 1989,300777,45.7240813,21.2369263
57,Calea Martirilor 1989,300777,45.7242245,21.2369223
55,Calea Martirilor 1989,300777,45.7244033,21.2369089
59,Bulevardul Eroilor de la Tisa,300553,45.7490893,21.2464897
57,Bulevardul Eroilor de la Tisa,300553,45.7490126,21.2462389
55,Bulevardul Eroilor de la Tisa,300553,45.7489546,21.2460619
4,Strada Filaret Barbu,300194,45.7471407,21.2231773
2,Aleea Hotinului,300667,45.7704791,21.2182206
50-52,Bulevardul Take Ionescu,300124,45.7599568,21.2425180
18,Strada Doctor Robert K. Koch,300281,45.7690927,21.2417087
116A,Strada Mureș,300776,45.7286219,21.2330639
5,Strada Vasile Alecsandri,300078,45.7566502,21.2278555
12,Splaiul Nicolae Titulescu,300167,45.7475344,21.2089142
11,Calea Martirilor 1989,300735,45.7388713,21.2385934
181,Bulevardul Liviu Rebreanu,300723,45.7352851,21.2557460
132B,Calea Buziașului,300700,45.7258985,21.2783376
132A,Calea Buziașului,300700,45.7262970,21.2785223
37,Bulevardul Iuliu Maniu,300425,45.7424853,21.2071618
69,Bulevardul Liviu Rebreanu,300755,45.7357671,21.2282229
8,Strada Coriolan Brediceanu,300011,45.7566050,21.2226117
2-4,Calea Circumvalațiunii,300013,45.7535072,21.2162988
4,Strada Diana,300577,45.7448397,21.2376958
1,Strada Aristide Demetriade,300088,45.7662952,21.2278812
203,Calea Șagului,300517,45.7122640,21.1939108
2,Strada Surorile Martir Caceu,300724,45.7415379,21.2389816
7B,Strada Mărășești,300080,45.7579145,21.2259537
23,Calea Torontalului,300254,45.7702275,21.2185189
2,Aleea Hotinului,300667,45.7701940,21.2185533
69,Calea Torontalului,300668,45.7741664,21.2111298
a25,Strada Matei Basarab,300359,45.7692283,21.2121347
2,Piața Consiliul Europei,300088,45.7666643,21.2281930
156,Bulevardul Dr. Iosif Bulbucă (Liviu Rebreanu),300723,45.7367734,21.2420703
35,Calea Circumvalațiunii,300013,45.7595885,21.2165953
31,Strada Avram Imbroane,300136,45.7792412,21.2640056
10B,Strada Coriolan Brediceanu,300011,45.7574274,21.2218668
10A,Strada Coriolan Brediceanu,300011,45.7569477,21.2218017
2,Strada Traian Lalescu,300223,45.7455578,21.2300771
9,Strada Timiș,300650,45.7656334,21.2174575
26,Strada Gheorghe Lazăr,300081,45.7607349,21.2202647
7,Strada Timiș,300650,45.7652530,21.2167674
14,Strada Labirint,300659,45.7665096,21.2164039
11,Strada Timiș,300651,45.7660095,21.2182074
18,Strada Burebista,300680,45.7654425,21.2190333
14,Strada Burebista,300678,45.7650202,21.2189830
56A,Calea Aradului,300291,45.7855858,21.2215432
119,Calea Aradului,300645,45.7828884,21.2155963
5,Strada Miresei,300642,45.7688576,21.2211786
68,Strada Divizia 9 Cavalerie,300093,45.7680092,21.2358998
66,Strada Divizia 9 Cavalerie,300265,45.7671176,21.2364298
2,Strada Gării,300166,45.7507429,21.2077154
6,Strada Brândușei,300626,45.7657585,21.2224655
9,Calea Torontalului,300627,45.7659276,21.2228791
15,Calea Torontalului,300627,45.7668976,21.2218682
8,Strada Brândușei,300626,45.7661775,21.2219255
69,Calea Circumvalațiunii,300674,45.7644359,21.2240268
2,Strada Brândușei,300627,45.7648926,21.2233728
3,Calea Torontalului,300627,45.7649763,21.2238386
4,Strada Brândușei,300626,45.7652408,21.2229033
10,Strada Brândușei,300626,45.7667346,21.2214744
13,Calea Torontalului,300627,45.7663657,21.2222734
7,Calea Torontalului,300627,45.7654041,21.2232769
6,Strada Stelelor,300625,45.7661870,21.2190680
11,Strada Teiului,300679,45.7645374,21.2199446
5,Strada Stelelor,300652,45.7670866,21.2174736
62,Bulevardul Cetății,300653,45.7676345,21.2177017
14,Strada Stelelor,300652,45.7674803,21.2183681
10,Strada Stelelor,300651,45.7669635,21.2189006
4,Strada Stelelor,300679,45.7653706,21.2198792
1,Strada Stelelor,300651,45.7662563,21.2183681
3,Strada Stelelor,300651,45.7665809,21.2180354
20,Strada Timiș,300680,45.7660968,21.2197795
15,Strada Timiș,300625,45.7667329,21.2199760
14,Strada Timiș,300650,45.7654589,21.2182631
11,Strada Burebista,300650,45.7652424,21.2181973
16,Strada Timiș,300650,45.7656588,21.2183896
13,Strada Timiș,300625,45.7663559,21.2192492
2,Strada Stelelor,300679,45.7648337,21.2202840
12,Strada Timiș,300650,45.7654802,21.2179047
12,Strada Stelelor,300652,45.7672266,21.2186672
8,Strada Stelelor,300651,45.7667080,21.2191647
10,Strada Timiș,300650,45.7652607,21.2178730
3,Strada Brândușei,300681,45.7656635,21.2220188
22,Strada Timiș,300680,45.7665698,21.2206049
3,Bulevardul Regele Ferdinand I,300006,45.7522930,21.2229215
7,Strada Burebista,300650,45.7645484,21.2185821
12,Strada Amforei,300660,45.7651533,21.2152690
16,Strada Labirint,300659,45.7667097,21.2167455
4,Strada Dropiei,300658,45.7628112,21.2161494
12,Strada Dropiei,300376,45.7645143,21.2132002
10,Strada Teiului,300678,45.7641243,21.2201628
18,Strada Labirint,300659,45.7668939,21.2171063
3,Strada Amforei,300658,45.7629146,21.2168421
5,Strada Timiș,300661,45.7647006,21.2158764
8,Strada Timiș,300384,45.7634048,21.2150631
3,Strada Timiș,300384,45.7636784,21.2147707
6,Strada Dropiei,300661,45.7629585,21.2157678
8,Strada Dropiei,300661,45.7632489,21.2154641
15,Strada Amforei,300376,45.7650708,21.2136288
10,Strada Amforei,300660,45.7649287,21.2155559
60,Bulevardul Cetății,300653,45.7671809,21.2165460
5,Strada Amforei,300661,45.7633509,21.2162412
1,Aleea Libelulei,300677,45.7637846,21.2203006
56,Bulevardul Cetății,300653,45.7665761,21.2154769
2,Aleea Libelulei,300677,45.7635564,21.2206045
12,Strada Teiului,300679,45.7643298,21.2204769
10,Strada Dropiei,300383,45.7636186,21.2142363
7,Strada Amforei,300377,45.7637663,21.2156532
10,Strada Teiului,300678,45.7639875,21.2199710
49,Calea Circumvalațiunii,300674,45.7632836,21.2207083
51,Calea Circumvalațiunii,300674,45.7633645,21.2209832
47,Calea Circumvalațiunii,300671,45.7629920,21.2202623
6,Strada Labirint,300378,45.7646869,21.2143738
7,Strada Dropiei,300383,45.7629973,21.2137474
11,Strada Amforei,300377,45.7644002,21.2148197
48,Strada Gheorghe Lazăr,300375,45.7631100,21.2113296
"BL 1, SC C",Aleea Martir Ioan Valea Avram,300377,45.7643556,21.2143520
45,Calea Circumvalațiunii,300671,45.7629324,21.2199356
9,Strada Amforei,300377,45.7642372,21.2150636
3,Strada Dropiei,300658,45.7622254,21.2155663
4,Strada Teiului,300658,45.7632643,21.2186120
2,Intrarea Umbroasă,300677,45.7630073,21.2195269
1,Strada Amforei,300671,45.7620634,21.2188140
2,Strada Dropiei,300658,45.7620520,21.2159730
48 A,Bulevardul Cetății,300376,45.7649864,21.2130360
8,Strada Teiului,300658,45.7637071,21.2192530
48 C,Bulevardul Cetății,300376,45.7645598,21.2125894
2,Strada Labirint,300383,45.7631475,21.2133210
4,Strada Teiului,300658,45.7630900,21.2184175
4,Strada Teiului,300658,45.7629300,21.2181999
1,Intrarea Umbroasă,300677,45.7632646,21.2192829
1,Strada Timiș,300383,45.7628471,21.2141625
48 B,Bulevardul Cetății,300376,45.7647740,21.2128087
46,Bulevardul Cetății,300376,45.7639319,21.2118672
6,Strada Teiului,300658,45.7635421,21.2190252
2,Strada Amforei,300671,45.7623719,21.2190790
13,Strada Amforei,300377,45.7645835,21.2145957
9,Aleea Ionel Perlea,300672,45.7635420,21.2238823
67,Calea Circumvalațiunii,300671,45.7642947,21.2231211
34,Calea Circumvalațiunii,300682,45.7637766,21.2235153
53,Calea Circumvalațiunii,300674,45.7634837,21.2211578
11,Aleea Ionel Perlea,300672,45.7635083,21.2244856
10,Aleea Ionel Perlea,300672,45.7635210,21.2241786
34,Strada Gheorghe Lazăr,300386,45.7611299,21.2166947
32,Strada Gheorghe Lazăr,300386,45.7607352,21.2173600
4,Strada Timiș,300384,45.7624283,21.2144609
40,Strada Gheorghe Lazăr,300385,45.7617604,21.2147332
6,Strada Timiș,300384,45.7626846,21.2145332
1,Strada Dropiei,300658,45.7620929,21.2150607
42,Strada Gheorghe Lazăr,300334,45.7624512,21.2129591
2,Strada Timiș,300384,45.7622133,21.2145994
8-10,Calea Circumvalațiunii,300081,45.7573198,21.2184184
2,Calea Bogdăneștilor,300335,45.7575932,21.2155065
6,Strada Mendelev D.,300390,45.7576374,21.2142573
8,Strada Soroca,300666,45.7696452,21.2141601
3,Strada Soroca,300666,45.7686215,21.2167272
8,Strada Ion Inculeț,300664,45.7686741,21.2153869
5,Strada Soroca,300666,45.7686561,21.2164322
9,Strada Soroca,300666,45.7690054,21.2153627
7,Strada Soroca,300666,45.7688206,21.2160239
2,Strada Soroca,300666,45.7692991,21.2153842
6,Strada Soroca,300666,45.7695137,21.2146269
4,Strada Soroca,300666,45.7694226,21.2151113
10,Strada Soroca,300666,45.7697705,21.2139034
13,Strada Soroca,300666,45.7693145,21.2143664
11,Strada Soroca,300666,45.7691700,21.2148464
4,Strada Matei Basarab,300664,45.7683311,21.2161111
1,Strada Soroca,300666,45.7688040,21.2170096
6,Strada Matei Basarab,300664,45.7684593,21.2157443
32,Strada Bucovinei,300665,45.7709305,21.2136347
1,Strada Maria Tănase,300494,45.7700303,21.2140015
1,Strada Ion Inculeț,300667,45.7702818,21.2178224
40,Strada Bucovinei,300668,45.7715820,21.2148557
36,Strada Bucovinei,300668,45.7712991,21.2141469
38,Strada Bucovinei,300668,45.7714066,21.2144466
2,Strada Ion Inculeț,300667,45.7706283,21.2177236
4,Strada Ion Inculeț,300667,45.7703705,21.2172423
34,Strada Bucovinei,300665,45.7711095,21.2139479
3,Strada Ion Inculeț,300667,45.7701601,21.2174623
32 A,Calea Bogdăneștilor,300389,45.7586770,21.2073521
32 B,Calea Bogdăneștilor,300389,45.7590686,21.2040507
32 B,Calea Bogdăneștilor,300389,45.7589048,21.2054506
12,Strada Orșova,300636,45.7729344,21.2181147
3,Strada Orșova,300635,45.7711387,21.2194002
8,Strada Orșova,300636,45.7724963,21.2185760
30,Strada Bucovinei,300665,45.7704252,21.2132062
10,Strada Orșova,300636,45.7727465,21.2184026
1,Strada Orșova,300635,45.7708038,21.2198279
15,Strada Soroca,300666,45.7694275,21.2138043
20,Calea Aradului,300278,45.7668767,21.2251851
17,Calea Aradului,300629,45.7667431,21.2246654
25,Calea Aradului,300629,45.7675301,21.2242660
24,Calea Aradului,300278,45.7676514,21.2247614
23,Calea Aradului,300629,45.7671412,21.2243919
27,Calea Aradului,300629,45.7679432,21.2238695
15,Calea Aradului,300629,45.7663727,21.2248048
7,Intrarea Muntilor,300418,45.7306017,21.2144520
6,Intrarea Muntilor,300418,45.7305485,21.2141382
6,Strada Hărniciei,300423,45.7288027,21.2090939
10,Strada Hărniciei,300423,45.7280106,21.2093821
3,Strada Hărniciei,300507,45.7286360,21.2101284
1A,Strada Gavril Musicescu,300422,45.7304129,21.2083931
8,Strada Hărniciei,300423,45.7283608,21.2094581
8,Strada Mureș,300418,45.7292778,21.2127337
2,Strada Hărniciei,300423,45.7295057,21.2092541
6,Strada Mureș,300418,45.7292769,21.2118762
5,Strada Hărniciei,300508,45.7278545,21.2099496
6,Strada Hărniciei,300423,45.7287343,21.2095639
8,Strada Hărniciei,300423,45.7284277,21.2090041
2,Strada Hărniciei,300423,45.7294308,21.2097061
10,Strada Hărniciei,300423,45.7280794,21.2089322
1,Strada Gavril Musicescu,300422,45.7299555,21.2079975
4,Strada Hărniciei,300423,45.7291567,21.2091726
1,Strada Hărniciei,300507,45.7293917,21.2103372
4,Strada Hărniciei,300423,45.7290909,21.2096336
35-37,Calea Șagului,300514,45.7312031,21.2083709
45-47,Calea Șagului,300496,45.7300733,21.2074600
29,Strada Ana Ipătescu,300426,45.7282991,21.2062413
53-55,Calea Șagului,300496,45.7290014,21.2066156
41-43,Calea Șagului,300496,45.7306083,21.2079003
49-51,Calea Șagului,300496,45.7295539,21.2070663
26,Calea Circumvalațiunii,300682,45.7629798,21.2212927
2,Aleea Ionel Perlea,300672,45.7622240,21.2207963
30,Calea Circumvalațiunii,300682,45.7634518,21.2223197
3,Aleea Ionel Perlea,300672,45.7625037,21.2211932
4,Aleea Ionel Perlea,300672,45.7627689,21.2216191
8,Aleea Ionel Perlea,300672,45.7634281,21.2231580
32,Calea Circumvalațiunii,300682,45.7635935,21.2227519
3,Strada Novac Traian,300673,45.7627830,21.2223634
24,Calea Circumvalațiunii,300682,45.7627668,21.2209545
18,Calea Circumvalațiunii,300672,45.7619138,21.2198818
28,Calea Circumvalațiunii,300682,45.7632905,21.2219036
7,Aleea Ionel Perlea,300673,45.7632991,21.2228281
1,Aleea Ionel Perlea,300672,45.7618984,21.2205703
20,Calea Circumvalațiunii,300682,45.7621328,21.2201143
6,Aleea Ionel Perlea,300672,45.7631727,21.2224921
5,Strada Novac Traian,300673,45.7626441,21.2220659
22,Calea Circumvalațiunii,300682,45.7623784,21.2204087
5,Aleea Ionel Perlea,300673,45.7630549,21.2221380
14,Calea Circumvalațiunii,300672,45.7609554,21.2191950
14,Calea Circumvalațiunii,300672,45.7614070,21.2194646
12,Calea Circumvalațiunii,300672,45.7607347,21.2191214
16,Calea Circumvalațiunii,300672,45.7616220,21.2196349
14,Calea Circumvalațiunii,300672,45.7611772,21.2193130
2,Intrarea Neptun,300713,45.7307109,21.2607415
1,Intrarea Neptun,300699,45.7305859,21.2610766
6,Strada Martir Marius Nemțoc,300713,45.7303896,21.2622445
4,Strada Martir Marius Nemțoc,300699,45.7305676,21.2619158
34,Calea Buziașului,300699,45.7307952,21.2630368
6A,Strada Martir Marius Nemțoc,300713,45.7301743,21.2618281
32,Calea Buziașului,300699,45.7310505,21.2624580
4A,Strada Martir Marius Nemțoc,300699,45.7303749,21.2615019
5,Strada Martir Marius Nemțoc,300699,45.7306329,21.2627667
8,Strada Martir Marius Nemțoc,300713,45.7300931,21.2625360
32,Calea Buziașului,300699,45.7313032,21.2619283
2,Strada Martir Marius Nemțoc,300699,45.7307603,21.2615294
36,Calea Buziașului,300699,45.7305930,21.2635766
22,Strada Orșova,300636,45.7742723,21.2166972
14,Strada Orșova,300636,45.7734247,21.2176057
16,Strada Orșova,300636,45.7737517,21.2172672
9,Strada Dej,300638,45.7741130,21.2181000
7,Strada Dej,300638,45.7738251,21.2183972
26,Strada Orșova,300636,45.7749469,21.2160000
24,Strada Orșova,300636,45.7746353,21.2164099
2,Strada Martir Dan Carpin,300289,45.7754091,21.2221385
28,Strada Orșova,300636,45.7754496,21.2154954
42,Calea Aradului,300283,45.7741008,21.2224233
46,Calea Aradului,300283,45.7746218,21.2222248
29,Strada Liniștei,30288,45.7743102,21.2271998
67B,Calea Martirilor 1989,300727,45.7235373,21.2374350
1,Strada Sfinții Apostoli Petru și Pavel,300256,45.7766872,21.2349311
53,Strada Martir Silviu Motohon,300252,45.7742384,21.2337475
1 C,Strada Armoniei,300291,45.7799546,21.2310224
39,Calea Sever Bocu,300288,45.7752269,21.2321418
41,Calea Sever Bocu,300287,45.7757816,21.2323785
10,Strada Arieș,300579,45.7421397,21.2390929
1,Strada Socrate,300551,45.7496290,21.2378414
6,Strada Aurelianus,300551,45.7497886,21.2390741
8,Strada Aurelianus,300551,45.7494396,21.2394216
B13,Strada Constantin Rădulescu Motru,300273,45.7740694,21.2376320
7,Strada Franz Liebhard,300270,45.7726726,21.2391532
4,Strada Electronicii,300694,45.7317527,21.2600469
28,Calea Buziașului,300693,45.7316963,21.2608622
2,Strada Electronicii,300694,45.7317305,21.2603539
10,Strada Electronicii,300694,45.7317470,21.2590774
1,Piața Nicolae Bălcescu,300229,45.7420832,21.2254239
119,Calea Aradului,300645,45.7830319,21.2163788
6,Bulevardul Take Ionescu,300062,45.7580924,21.2347800
3,Strada Siemens,300704,45.7343555,21.2690147
29,Aleea F.C. Ripensia,300584,45.7422380,21.2461871
160,Bulevardul Liviu Rebreanu,300748,45.7363212,21.2447352
23,Calea Șagului,300488,45.7329671,21.2099191
4,Strada Damaschin Bojincă,300216,45.7394406,21.2129294
12 A,Bulevardul Republicii,300004,45.7523522,21.2179323
D5,Strada Baba Dochia,300108,45.7553786,21.2547577
6,Strada Versului,300741,45.7345828,21.2408327
9,Strada Martir Ioan Stanciu,300737,45.7345038,21.2387448
4,Strada Versului,300741,45.7346669,21.2402746
27,Calea Martirilor 1989,300733,45.7351933,21.2381526
21,Calea Martirilor 1989,300734,45.7366677,21.2382888
9,Strada Martir Marius Ciopec,300741,45.7351640,21.2397450
11,Strada Martir Ioan Stanciu,300741,45.7344373,21.2402515
1,Strada Martir Marius Ciopec,300737,45.7371754,21.2400022
156,Bulevardul Liviu Rebreanu,300723,45.7368139,21.2418435
16,Strada Martir Marius Ciopec,300737,45.7351697,21.2394531
7,Strada Martir Marius Ciopec,300741,45.7353074,21.2399984
22,Strada Martir Marius Ciopec,300737,45.7346792,21.2393969
29,Calea Martirilor 1989,300733,45.7346912,21.2381103
2,Strada Versului,300741,45.7350400,21.2407118
4,Strada Martir Ioan Stanciu,300740,45.7342608,21.2394290
8,Strada Versului,300742,45.7338763,21.2406176
6,Strada Martir Ioan Stanciu,300741,45.7342381,21.2401094
8,Strada Martir Ioan Stanciu,300741,45.7342211,21.2405763
1,Calea Martirilor 1989,300724,45.7402511,21.2389356
29,Aleea F.C. Ripensia,300584,45.7434035,21.2431787
13,Aleea Studenților,300551,45.7502178,21.2413329
11,Bulevardul Eroilor de la Tisa,243000,45.7466044,21.2391376
7,Bulevardul Eroilor de la Tisa,300002,45.7465133,21.2378869
4A,Bulevardul Vasile Pârvan,300223,45.7473566,21.2326044
7-5,Strada Virgil Birou,300005,45.7476564,21.2410560
9A,Bulevardul Eroilor de la Tisa,300575,45.7471593,21.2391597
21,Calea Șagului,300172,45.7335135,21.2093056
13,Strada Înfrățirii,300126,45.7634561,21.2437497
35,Calea Șagului,300514,45.7315448,21.2075835
28,Strada George Ranetti,300488,45.7328362,21.2125670
1,Strada Iosif Vulcan,300314,45.7589526,21.2590472
E4,Strada Eugen Pop,300296,45.7619919,21.2592792
E10,Strada Eugen Pop,300296,45.7615494,21.2591867
E11,Strada Eugen Pop,300296,45.7621191,21.2587567
15,Strada Baba Dochia,300118,45.7560333,21.2543399
10 Bl. A1,Strada Baba Dochia,300118,45.7552330,21.2540937
E3,Strada Lalelelor,300297,45.7626336,21.2594827
10,Strada Andrei Șaguna,300119,45.7583180,21.2574374
E13,Strada Eugen Pop,300296,45.7614554,21.2583285
5 efortuna,Strada Lalelelor,300297,45.7625356,21.2587217
3,Strada Virtuții,300126,45.7646913,21.2451006
8,Piața Badea Cârțan,300124,45.7623703,21.2481042
18,Strada Johann Heinrich Pestalozzi,300561,45.7543419,21.2456240
22,Strada Johann Heinrich Pestalozzi,300003,45.7545240,21.2475606
14A,Strada Johann Heinrich Pestalozzi,300561,45.7541188,21.2440557
14A,Strada Johann Heinrich Pestalozzi,300561,45.7537957,21.2442240
1/A,Strada Johann Heinrich Pestalozzi,300115,45.7546210,21.2421033
20,Strada Ștefan cel Mare,300116,45.7556922,21.2487338
2,Bulevardul 3 August 1919,300092,45.7563221,21.2446662
33,Bulevardul 3 August 1919,300101,45.7577862,21.2489072
1,Strada Ion Mihalache,300103,45.7574957,21.2508920
143,Bulevardul Iosif Bulbuca,300736,45.7388425,21.2393216
14,Strada Daliei,300558,45.7485111,21.2435928
11,Calea Martirilor 1989,300735,45.7390318,21.2386312
22,Bulevardul Corneliu Coposu,300000,45.7520171,21.2394932
18,Bulevardul Corneliu Coposu,300000,45.7513863,21.2390573
145,Bulevardul Iosif Bulbuca,300736,45.7388007,21.2397684
12,Strada Arieș,300003,45.7395317,21.2395829
141,Bulevardul Iosif Bulbuca,300736,45.7389011,21.2389519
20,Bulevardul Corneliu Coposu,300000,45.7516908,21.2392883
24,Bulevardul Corneliu Coposu,300000,45.7523400,21.2397246
6,Strada Hector,300054,45.7564521,21.2347081
97,Strada Doctor Ioan Mureșan,300001,45.7371769,21.2376157
95,Strada Doctor Ioan Mureșan,300001,45.7372324,21.2369250
60,Calea Martirilor 1989,300719,45.7346380,21.2374946
2,Strada Constantin Brăiloiu,300722,45.7357507,21.2357724
62,Calea Martirilor 1989,300727,45.7339949,21.2374557
40,Strada Cosminului,300720,45.7340578,21.2339034
37,Calea Martirilor 1989,300745,45.7321422,21.2377911
33,Calea Martirilor 1989,300740,45.7335086,21.2379518
2,Strada Martir Ioan Stanciu,300740,45.7342098,21.2383986
33,Strada Venus,300693,45.7298038,21.2543613
52,Strada Martir Vasile Balmuș,300715,45.7313757,21.2538649
20,Strada Electronicii,300694,45.7308851,21.2571956
44,Strada Martir Vasile Balmuș,300715,45.7314367,21.2527329
24,Strada Electronicii,300694,45.7307948,21.2567705
23,Strada Venus,300693,45.7311707,21.2568019
56,Strada Martir Vasile Balmuș,300715,45.7311549,21.2540245
89,Strada Mareșal Constantin Prezan,300695,45.7314173,21.2476130
1,Strada Platanilor,300185,45.7394922,21.2081829
9,Strada Platanilor,300185,45.7402188,21.2072867
1A,Strada Platanilor,300185,45.7392044,21.2077490
13,Strada Platanilor,300185,45.7407144,21.2069198
7,Strada Platanilor,300185,45.7399901,21.2074180
8,Strada Platanilor,300186,45.7403889,21.2080467
10,Strada Platanilor,300186,45.7406327,21.2078580
11,Strada Platanilor,300185,45.7404799,21.2070801
3,Strada Platanilor,300185,45.7394752,21.2077104
5,Strada Platanilor,300185,45.7397345,21.2075975
17,Strada Platanilor,300185,45.7412049,21.2065624
12,Strada Platanilor,300186,45.7408891,21.2076669
15,Strada Platanilor,300185,45.7409658,21.2067286
170,Bulevardul Liviu Rebreanu,300736,45.7364603,21.2520676
2,Strada Martir Ioan Stanciu,300740,45.7340758,21.2363256
55,Strada Mareșal Alexandru Averescu,300728,45.7320082,21.2338257
78,Calea Sever Bocu,300242,45.7760200,21.2334304
42,Strada Cosminului,300720,45.7331075,21.2335790
42-44,Strada Doctor Ioan Mureșan,300752,45.7349669,21.2318193
90,Strada Mareșal Alexandru Averescu,300766,45.7316144,21.2336461
33,Strada Rusu Șirianu,300486,45.7362337,21.2119007
31,Strada Rusu Șirianu,300487,45.7363931,21.2125176
16,Calea Șagului,300488,45.7330891,21.2084422
3,Aleea Gorniștilor,300455,45.7327329,21.2036102
51,Strada Frunzei,300495,45.7323660,21.2028925
53,Strada Frunzei,300495,45.7323487,21.2026333
27,Bulevardul Republicii,300158,45.7504147,21.2085639
3,Aleea Cetinei,300145,45.7375052,21.2061117
2,Aleea Smeurișului,300145,45.7377643,21.2059473
2,Strada Vlăsiei,300145,45.7374974,21.2044661
3,Strada Transilvania,300456,45.7375930,21.2039594
15,Strada Clăbucet,300145,45.7377208,21.2048154
3,Aleea Gorunului,300146,45.7380021,21.2062555
1,Aleea Cetinei,300145,45.7377366,21.2064286
1,Aleea Smeurișului,300145,45.7376198,21.2056534
13,Strada Clăbucet,300145,45.7368370,21.2048146
11,Strada Clăbucet,300145,45.7367728,21.2050281
9,Strada Clăbucet,300145,45.7364825,21.2050110
7,Aleea Poeniței,300458,45.7335272,21.2048724
2A,Strada Vulturilor,300144,45.7350192,21.2037911
3,Strada Clăbucet,300144,45.7350975,21.2047212
2,Strada Vulturilor,300144,45.7347737,21.2043042
1,Intrarea Pogonici,300143,45.7361909,21.2042195
38,Calea Șagului,300514,45.7308010,21.2071128
13,Strada Nicolae Leonard,300493,45.7310976,21.2055844
54,Calea Șagului,300494,45.7299551,21.2060740
40,Calea Șagului,300494,45.7307449,21.2068285
52,Calea Șagului,300494,45.7299906,21.2063549
3,Intrarea Petalelor,300472,45.7341328,21.1999931
20,Strada Frunzei,300493,45.7319307,21.2033337
16,Strada Frunzei,300493,45.7311294,21.2040156
1,Strada Științei,300471,45.7335096,21.2004918
7,Strada Lacului,300472,45.7341393,21.1994841
24,Strada Frunzei,300495,45.7321180,21.2026423
2,Intrarea Petalelor,300472,45.7343519,21.1999542
22,Strada Frunzei,300493,45.7321085,21.2030059
205,Calea Șagului,300517,45.7114401,21.1929559
10,Splaiul Tudor Vladimirescu,300195,45.7486712,21.2213817
4,Strada Remus,300194,45.7469753,21.2217327
2,Splaiul Tudor Vladimirescu,300193,45.7477003,21.2244221
16,Strada Filaret Barbu,300192,45.7453797,21.2241600
45,Bulevardul 16 Decembrie 1989,300172,45.7409769,21.2117894
48,Bulevardul 16 Decembrie 1989,300181,45.7406249,21.2106530
12,Strada Frații Buzești,300398,45.7561183,21.2089245
1,Strada Gloriei,300562,45.7519998,21.2504970
17,Strada Moise Nicoară,300314,45.7581352,21.2579162
74,Calea Sever Bocu,300242,45.7756737,21.2334037
24,Strada Gheorghe Lazăr,300081,45.7595318,21.2208702
3,Piața Nicolae Bălcescu,300229,45.7417456,21.2265680
4,Strada Ghirlandei,300231,45.7414480,21.2272971
29A,Strada Sfinții Apostoli Petru și Pavel,300243,45.7750637,21.2401997
7,Strada Deliblata,300554,45.7476824,21.2463018
1,Strada Deliblata,300554,45.7483519,21.2458385
5-7,Strada Deliblata,300554,45.7478350,21.2461900
3,Strada Deliblata,300554,45.7480854,21.2460165
17,Strada Deliblata,300554,45.7475293,21.2470838
19,Strada Deliblata,300554,45.7473559,21.2469729
21,Strada Deliblata,300554,45.7473186,21.2465804
48,Strada Ana Ipătescu,300426,45.7260172,21.2092464
3,Strada Chișodei,300430,45.7253227,21.2096559
2,Strada Daliei,300558,45.7508316,21.2419813
12,Strada Cerna,300570,45.7458982,21.2506117
10,Strada Cerna,300570,45.7463993,21.2502488
21,Strada Daliei,300558,45.7489030,21.2437743
13,Strada Aștrilor,300707,45.7336762,21.2515555
81,Strada Herculane,300434,45.7222783,21.2154128
32,Bulevardul Mihai Viteazul,300222,45.7440618,21.2253737
2,Piața Nicolae Bălcescu,300229,45.7417526,21.2249057
1,Strada Charles Darwin,300559,45.7510616,21.2426763
2A,Strada Matei Millo,300696,45.7297964,21.2643323
1,Intrarea Venus,300694,45.7316820,21.2586454
14,Strada Electronicii,300694,45.7313781,21.2581754
9,Strada Electronicii,300694,45.7313373,21.2586940
4,Intrarea Saturn,300692,45.7311003,21.2598410
12,Strada Electronicii,300694,45.7315238,21.2584797
8,Strada Atomului,300692,45.7308917,21.2587269
16,Strada Atomului,300692,45.7309085,21.2578935
14,Strada Atomului,300692,45.7307867,21.2580893
7,Strada Electronicii,300694,45.7314315,21.2589329
6,Strada Atomului,300692,45.7309233,21.2590186
13,Strada Electronicii,300694,45.7311249,21.2581939
2,Intrarea Saturn,300692,45.7312651,21.2600142
4,Strada Atomului,300692,45.7308787,21.2592885
10,Strada Atomului,300692,45.7308003,21.2585615
11,Strada Electronicii,300694,45.7312175,21.2584346
11,Calea Buziașului,300714,45.7319805,21.2631295
3,Calea Buziașului,300714,45.7312519,21.2611568
2,Strada Atomului,300713,45.7309125,21.2603663
1B,Strada Fructelor,300515,45.7279066,21.2038131
15,Strada Cerna,300571,45.7394680,21.2524051
7,Strada Cerna,300571,45.7405028,21.2520643
13,Strada Cerna,300571,45.7398340,21.2521099
11,Strada Cerna,300571,45.7401959,21.2522660
17,Strada Cerna,300571,45.7390760,21.2529081
19,Strada Cerna,300571,45.7388464,21.2534593
9,Strada Cerna,300571,45.7402241,21.2519452
1,Strada Ciprian Porumbescu,245000,45.7409888,21.2246728
47,Strada Surorile Martir Caceu,300568,45.7450401,21.2469265
12 A B C,Bulevardul Eroilor de la Tisa,256756,45.7456102,21.2378293
2,Strada Cozia,300209,45.7370895,21.2258772
23,Strada Daliei,300558,45.7488645,21.2440866
9,Bulevardul 3 August 1919,300092,45.7569682,21.2444095
3,Bulevardul 3 August 1919,300092,45.7566963,21.2431071
2,Strada Lorena,300127,45.7651860,21.2463490
6,Strada Mihail Kogălniceanu,300125,45.7638539,21.2475499
49,Bulevardul Simion Bărnuțiu,300303,45.7640574,21.2560723
71,Bulevardul Simion Bărnuțiu,300304,45.7649438,21.2593381
65,Bulevardul Simion Bărnuțiu,300303,45.7646047,21.2583391
57 A,Bulevardul Simion Bărnuțiu,300303,45.7643400,21.2570000
67,Bulevardul Simion Bărnuțiu,300304,45.7647049,21.2588113
75,Bulevardul Simion Bărnuțiu,300304,45.7653899,21.2598969
69,Bulevardul Simion Bărnuțiu,300304,45.7648187,21.2590825
77,Bulevardul Simion Bărnuțiu,300304,45.7655525,21.2601153
73,Bulevardul Simion Bărnuțiu,300304,45.7652394,21.2596857
51 A,Bulevardul Simion Bărnuțiu,300303,45.7642176,21.2563817
63,Bulevardul Simion Bărnuțiu,300303,45.7645896,21.2581523
65 A,Bulevardul Simion Bărnuțiu,300303,45.7646618,21.2584733
47,Bulevardul Simion Bărnuțiu,300303,45.7640531,21.2557663
59 A,Bulevardul Simion Bărnuțiu,300303,45.7644913,21.2575780
1,Strada Ofcea,300561,45.7537361,21.2419387
17,Strada Daliei,300558,45.7517128,21.2421599
4,Strada Corbului,300239,45.7411431,21.2181209
5,Bulevardul Constantin Diaconovici Loga,300021,45.7511048,21.2293926
7,Bulevardul Constantin Diaconovici Loga,300021,45.7511114,21.2299960
1,Strada Siemens,300704,45.7348605,21.2670740
1,Strada Siemens,300701,45.7356168,21.2672491
3,Calea Sever Bocu,300278,45.7670337,21.2258489
5,Calea Sever Bocu,300278,45.7672568,21.2258450
7,Calea Sever Bocu,300278,45.7673398,21.2256103
1,Calea Sever Bocu,300278,45.7667810,21.2258168
22,Calea Aradului,300278,45.7673329,21.2250369
56,Calea Aradului,300291,45.7833675,21.2200006
4,Strada Hector,300054,45.7563246,21.2344700
2,Strada Hector,300054,45.7561966,21.2342307
3,Strada Florimund Mercy,300083,45.7563181,21.2286417
1,Strada Cerna,300110,45.7480360,21.2498025
5-7,Strada Deliblata,300554,45.7479306,21.2464988
13,Strada Deliblata,300554,45.7477650,21.2466181
10,Strada Uranus,300687,45.7342084,21.2450987
3,Strada Carol Telbisz,300001,45.7554346,21.2306610
3,Bulevardul Constantin Diaconovici Loga,300022,45.7509736,21.2281379
31,Calea Sever Bocu,300288,45.7735237,21.2315055
1,Bulevardul Regele Carol I,300172,45.7458072,21.2149875
14,Strada Emanuil Ungureanu,300079,45.7580064,21.2277512
2,Strada Emanuil Ungureanu,300079,45.7571341,21.2273163
6,Strada Mărășești,300080,45.7564570,21.2261243
7,Strada Ofcea,300561,45.7532477,21.2419979
5,Strada Ofcea,300561,45.7533942,21.2419943
9,Strada Ofcea,300561,45.7530059,21.2420348
2,Piața Iancu Huniade,300002,45.7538593,21.2278616
3,Strada Piatra Craiului,300006,45.7524167,21.2237783
2,Bulevardul Regele Ferdinand I,300006,45.7518240,21.2237362
1,Strada Gheorghe Dima,300011,45.7575086,21.2241296
8,Strada Paris,300010,45.7558924,21.2234657
5,Strada Sfântul Ioan,300010,45.7557490,21.2247157
7,Bulevardul Republicii,300004,45.7532730,21.2231971
46,Bulevardul Constantin Diaconovici Loga,300020,45.7532924,21.2359566
2,Bulevardul Revoluției din 1989,300790,45.7552144,21.2346727
4,Strada Damaschin Bojincă,300216,45.7390946,21.2128331
3,Bulevardul Take Ionescu,300062,45.7583637,21.2336307
1,Bulevardul Take Ionescu,300062,45.7583839,21.2332206
5,Strada Oituz,300086,45.7585201,21.2329591
10,Strada Popa Șapcă,300057,45.7587781,21.2327465
5,Strada Aurel Popovici,300050,45.7601466,21.2350718
25,Bulevardul 3 August 1919,300092,45.7577962,21.2473391
20,Strada București,300065,45.7604063,21.2379398
12,Strada Alexandru Golescu,300072,45.7626802,21.2425801
108-110,Strada Mareșal Constantin Prezan,300744,45.7307014,21.2397379
62,Calea Aradului,300283,45.7869242,21.2230909
1,Strada Ștefan Procopiu,300647,45.7885154,21.2191410
44,Bulevardul Simion Bărnuțiu,300133,45.7633410,21.2558615
18,Strada Radu Tudoran,307200,45.7625529,21.2745981
21,Splaiul Nicolae Titulescu,300166,45.7448638,21.2005384
21A,Splaiul Nicolae Titulescu,300166,45.7452057,21.2007524
21,Bulevardul Republicii,300158,45.7498323,21.2107228
10,Splaiul Nicolae Titulescu,300158,45.7485569,21.2115567
25,Bulevardul Republicii,300158,45.7501992,21.2091504
2,Strada Profesor Doctor Aurel Păunescu Podeanu,300586,45.7432635,21.2489314
1/2,Strada Avram Imbroane,300136,45.7708247,21.2526003
100,Calea Șagului,300516,45.7271531,21.2025938
31,Strada Frunzei,300495,45.7322087,21.2033944
35,Strada Frunzei,300495,45.7324040,21.2032699
37,Strada Frunzei,300495,45.7325407,21.2031694
39,Strada Frunzei,300495,45.7325991,21.2030467
41-43,Strada Frunzei,300495,45.7326678,21.2029164
45,Strada Mareșal Alexandru Averescu,300776,45.7314545,21.2369367
5,Strada Martir Silviu Motohon,300265,45.7699005,21.2317200
8,Strada Ioan Curea,246000,45.7450852,21.2310685
10,Strada Memorandului,300208,45.7382112,21.2247007
4,Strada Memorandului,300208,45.7381127,21.2239922
8,Strada Memorandului,300208,45.7381868,21.2243932
6,Strada Memorandului,300208,45.7381280,21.2241907
2,Strada Memorandului,300208,45.7380296,21.2237066
13,Aleea Studenților,300551,45.7500290,21.2412178
1,Aleea Studenților,300551,45.7495332,21.2398261
22,Calea Stan Vidrighin,300571,45.7376441,21.2565440
14,Calea Stan Vidrighin,300571,45.7436831,21.2540065
138B,Calea Șagului,300516,45.7178193,21.1957607
201,Calea Șagului,300517,45.7132636,21.1934482
142A,Calea Șagului,300516,45.7133843,21.1910832
17,Strada Béla Bartók,300594,45.7441463,21.2350348
13,Strada Tudor Arghezi,300291,45.7825235,21.2314146
38,Calea Buziașului,300699,45.7304050,21.2641424
9E,Calea Buziașului,300714,45.7314545,21.2644988
11A,Calea Buziașului,300699,45.7311146,21.2665035
11A,Calea Buziașului,300699,45.7311542,21.2686981
11 A B,Calea Buziașului,300699,45.7320422,21.2665765
33,Strada Iancu Văcărescu,300179,45.7448053,21.2078169
8,Strada Doctor Grigore T. Popa,300291,45.7795711,21.2270376
5,Strada Cerna,300571,45.7408048,21.2519176
13,Strada Abrud,300093,45.7581556,21.2455178
15,Strada Abrud,300093,45.7583295,21.2458568
23,Strada Abrud,300100,45.7586804,21.2473532
17,Bulevardul 3 August 1919,300092,45.7574148,21.2460490
15,Bulevardul 3 August 1919,300092,45.7572904,21.2458367
13,Bulevardul 3 August 1919,300092,45.7571942,21.2456078
1,Splaiul Nistrului,300092,45.7566314,21.2420580
19,Bulevardul 3 August 1919,300092,45.7575744,21.2463894
11,Bulevardul 3 August 1919,300092,45.7570478,21.2453192
16B,Calea Urseni,300703,45.7285923,21.2538014
4,Strada Andrei Șaguna,300119,45.7572670,21.2563252
98,Calea Martirilor 1989,300774,45.7283875,21.2358739
16,Strada Abrud,300093,45.7584181,21.2470119
76,Strada Tudor Arghezi,300291,45.7843364,21.2330494
20,Strada Tudor Arghezi,300291,45.7827274,21.2320298
12,Strada Tudor Arghezi,300291,45.7824574,21.2318669
53,Bulevardul Dâmbovița,300472,45.7344011,21.2004817
55,Bulevardul Dâmbovița,300471,45.7346351,21.2001188
24,Strada Lacului,300471,45.7338855,21.2000200
51,Bulevardul Dâmbovița,300471,45.7341992,21.2007574
57,Bulevardul Dâmbovița,300473,45.7348413,21.1998124
51,Bulevardul Dâmbovița,300471,45.7340797,21.2007809
26,Calea Urseni,300703,45.7238155,21.2558256
47,Bulevardul Dâmbovița,300456,45.7334965,21.2025037
91,Strada Cozia,300580,45.7413283,21.2372016
51 - 53,Strada Cozia,300580,45.7400346,21.2335483
2,Strada Loichiță Vasile,300633,45.7785581,21.2136844
6,Strada Loichiță Vasile,300633,45.7793027,21.2127872
6,Strada Franyó Zoltán,300014,45.7563909,21.2124067
11,Strada Lugojului,300135,45.7644334,21.2527830
1,Piața Romanilor,300100,45.7573608,21.2487999
4,Bulevardul 3 August 1919,300092,45.7568718,21.2458543
6,Bulevardul 3 August 1919,300092,45.7569422,21.2461375
4,Piața Romanilor,300100,45.7568609,21.2485223
4,Strada Loichiță Vasile,300633,45.7789341,21.2132538
km 7,Calea Torontalului,300627,45.8013602,21.1661716
"40, Ap. 1",Strada Căpitan Damșescu,300150,45.7409580,21.1994060
140,Calea Șagului,300516,45.7164815,21.1928894
140,Calea Șagului,300516,45.7161330,21.1927735
52,Strada Ștefan cel Mare,300562,45.7513371,21.2514755
72,Strada Martir Petru Domășneanu,300351,45.7603006,21.2066878
1,Strada Siemens,300704,45.7340001,21.2668914
70,Strada Martir Petru Domășneanu,300351,45.7603932,21.2060905
70,Strada Martir Petru Domășneanu,300351,45.7603545,21.2064158
1,Piața Atena,300262,45.7711341,21.2410853
58,Strada Vulturilor,300151,45.7402837,21.1980165
56,Strada Cloșca,300350,45.7662293,21.1995266
1,Strada Lacului,300472,45.7352608,21.1973875
3,Strada Popa Anca,300318,45.7602444,21.2625854
67A,Calea Martirilor 1989,300727,45.7235290,21.2372674
D6,Strada Telegrafului,300125,45.7643858,21.2479070
8,Strada Feleacul,300588,45.7432926,21.2416215
3,Strada Ofcea,300561,45.7535608,21.2419584
31,Strada Diaconul Coresi,300588,45.7394212,21.2354413
10,Strada Alpiniștilor,300309,45.7666439,21.2654996
4,Strada Rudolf Walter,300314,45.7551407,21.2652952
44,Calea Martirilor 1989,300722,45.7359089,21.2376711
12,Strada Romulus,300238,45.7445894,21.2213471
11,Strada Deliblata,300554,45.7475861,21.2467391
1,Strada Gelu,300168,45.7443998,21.1991466
5,Strada Gelu,300168,45.7446330,21.1988121
7,Strada Gelu,300168,45.7448019,21.1989340
2,Calea Circumvalațiunii,300013,45.7529166,21.2164931
10,Strada Constantin Olănescu,300168,45.7463124,21.1969925
25,Splaiul Nicolae Titulescu,300166,45.7441027,21.1981434
24A,Splaiul Nicolae Titulescu,300169,45.7442039,21.1982774
26,Splaiul Nicolae Titulescu,300169,45.7441001,21.1979488
24,Splaiul Nicolae Titulescu,300169,45.7442952,21.1985061
23,Splaiul Nicolae Titulescu,300166,45.7442805,21.1986644
22,Splaiul Nicolae Titulescu,300169,45.7443146,21.1988420
27,Splaiul Nicolae Titulescu,300166,45.7441041,21.1977476
28,Splaiul Nicolae Titulescu,300169,45.7440238,21.1976998
28,Splaiul Nicolae Titulescu,300169,45.7439668,21.1976207
29,Splaiul Nicolae Titulescu,300166,45.7439267,21.1975384
2,Strada Nufăr,300169,45.7438581,21.1973561
2,Strada Nufăr,300169,45.7440231,21.1972675
4,Strada Nufăr,300169,45.7443222,21.1972521
6,Strada Nufăr,300169,45.7444673,21.1971022
20,Splaiul Nicolae Titulescu,300167,45.7454717,21.2026668
19,Splaiul Nicolae Titulescu,300166,45.7456179,21.2028229
15,Splaiul Tudor Vladimirescu,300173,45.7494964,21.2181306
13,Splaiul Tudor Vladimirescu,300173,45.7493992,21.2189581
33,Strada Frunzei,300495,45.7322884,21.2033612
49,Strada Frunzei,300495,45.7330933,21.2026145
16,Strada Prahova,300142,45.7374152,21.2032279
15,Strada Prahova,300142,45.7379696,21.2035647
6,Intrarea Pogonici,300524,45.7365444,21.2036401
4,Intrarea Pogonici,300143,45.7364632,21.2040283
2,Intrarea Pogonici,300143,45.7363325,21.2046326
9,Strada Transilvania,300143,45.7367014,21.2035933
7,Strada Transilvania,300456,45.7369011,21.2036728
5,Strada Transilvania,300456,45.7371362,21.2037687
10,Strada Clăbucet,300145,45.7377460,21.2050804
8,Strada Clăbucet,300145,45.7374717,21.2051628
1,Aleea Cetinei,300145,45.7373882,21.2055302
4,Aleea Gorunului,300146,45.7378640,21.2053892
3,Intrarea Pogonici,300143,45.7362945,21.2037167
11,Strada Transilvania,300143,45.7362705,21.2034138
13,Strada Transilvania,300143,45.7358620,21.2033355
15,Strada Transilvania,300143,45.7355417,21.2031334
4,Strada Vulturilor,300144,45.7353227,21.2032640
1,Strada Clăbucet,300144,45.7347522,21.2045442
1,Strada Bran,300144,45.7353481,21.2047255
3,Strada Bran,300144,45.7354109,21.2044080
5,Strada Bran,300144,45.7351898,21.2042172
7,Strada Bran,300144,45.7352600,21.2039717
9,Strada Bran,300144,45.7353999,21.2037013
7,Strada Clăbucet,300145,45.7359901,21.2045798
5,Strada Clăbucet,300145,45.7357106,21.2044764
3,Calea Dorobanților,300134,45.7620303,21.2600352
26,Strada Horia Creangă,300253,45.7815956,21.2359232
14,Splaiul Nicolae Titulescu,300167,45.7472173,21.2055235
7,Strada Novac Traian,300673,45.7625142,21.2217539
9,Strada Novac Traian,300673,45.7623854,21.2215009
1,Strada Novac Traian,300673,45.7628594,21.2228992
33,Calea Urseni,300703,45.7261799,21.2555763
26,Calea Urseni,300703,45.7257205,21.2550512
28,Calea Urseni,300703,45.7253760,21.2551245
22 C,Calea Urseni,300703,45.7265297,21.2547400
24,Calea Urseni,300703,45.7260059,21.2549659
20B,Calea Urseni,300703,45.7275243,21.2543590
13,Calea Urseni,300703,45.7273812,21.2551462
15,Strada Anton Golopenția,300697,45.7290262,21.2572068
21,Strada Anton Golopenția,300697,45.7294764,21.2581594
17,Strada Anton Golopenția,300697,45.7292254,21.2576087
19,Strada Anton Golopenția,300697,45.7293394,21.2579231
1 A,Strada Anton Golopenția,300697,45.7282750,21.2555631
1,Strada Anton Golopenția,300697,45.7281898,21.2553894
5,Strada Anton Golopenția,300697,45.7284680,21.2559912
4,Intrarea Neptun,300713,45.7304454,21.2597540
11,Strada Recoltei,300713,45.7298294,21.2597549
8,Strada Nufăr,300169,45.7445704,21.1968463
10,Strada Nufăr,300169,45.7446876,21.1968158
12,Strada Nufăr,300169,45.7447838,21.1968213
18,Splaiul Nicolae Titulescu,300167,45.7456971,21.2030495
17,Splaiul Nicolae Titulescu,300166,45.7457684,21.2032616
15,Splaiul Nicolae Titulescu,300166,45.7458678,21.2038979
14,Splaiul Nicolae Titulescu,300167,45.7460273,21.2042484
19A,Bulevardul Liviu Rebreanu,300479,45.7332010,21.2187034
5,Strada Științei,300471,45.7338878,21.2011001
3,Strada Științei,300471,45.7337197,21.2009102
22,Strada Lacului,300471,45.7332826,21.2003415
20,Strada Lacului,300471,45.7329675,21.2003954
18,Strada Timiș,300650,45.7657724,21.2186135
16,Strada Burebista,300680,45.7652866,21.2192084
12,Strada Burebista,300678,45.7648902,21.2191263
10,Strada Burebista,300678,45.7647596,21.2192703
8,Strada Burebista,300678,45.7646285,21.2194148
31-33,Calea Șagului,300514,45.7317008,21.2087705
20C,Calea Urseni,300703,45.7272579,21.2542897
17,Strada Recoltei,300713,45.7302608,21.2590359
13,Strada Recoltei,300713,45.7299432,21.2594407
2,Strada George Stephenson,300619,45.7604314,21.1837357
2,Strada George Stephenson,300619,45.7604551,21.1841690
2,Strada George Stephenson,300619,45.7604819,21.1846030
9,Strada Deliblata,300554,45.7475766,21.2464245
15,Strada Recoltei,300713,45.7300366,21.2592693
11 - 15,Strada Mihail Kogălniceanu,300126,45.7639513,21.2458844
56,Strada 1 Decembrie 1918,300592,45.7422986,21.2347945
104,Calea Buziașului,300700,45.7269420,21.2742568
100,Calea Șagului,300516,45.7246127,21.1989791
102,Calea Șagului,300516,45.7273213,21.1979403
2,Strada Matei Millo,300696,45.7302086,21.2644974
3,Strada Ștefan Szonyi,300696,45.7299986,21.2579382
5,Strada Ștefan Szonyi,300696,45.7298845,21.2577060
7,Strada Ștefan Szonyi,300696,45.7297388,21.2573681
4,Strada Ștefan Szonyi,300696,45.7301882,21.2577144
6,Strada Ștefan Szonyi,300696,45.7301249,21.2575590
8,Strada Ștefan Szonyi,300696,45.7300598,21.2573925
10,Strada Ștefan Szonyi,300696,45.7299629,21.2572112
12,Strada Recoltei,300713,45.7296626,21.2608940
10,Strada Recoltei,300713,45.7295768,21.2610648
8,Strada Recoltei,300696,45.7295550,21.2613176
6,Strada Recoltei,300696,45.7294604,21.2614963
23,Strada Martir Constantin Radu,300702,45.7262515,21.2682372
23,Strada Martir Constantin Radu,300702,45.7264211,21.2686208
18B,Strada Martir Constantin Radu,300702,45.7263729,21.2677819
4,Bulevardul Industriei,300714,45.7350726,21.2640939
14,Strada Recoltei,300713,45.7297608,21.2607045
16,Strada Recoltei,300713,45.7297667,21.2603287
15,Strada Atomului,300713,45.7302059,21.2607271
11,Strada Atomului,300713,45.7301077,21.2609176
9,Strada Atomului,300713,45.7300208,21.2610892
7,Strada Atomului,300713,45.7299393,21.2612511
5,Strada Atomului,300692,45.7297750,21.2616064
3,Strada Atomului,300713,45.7296775,21.2617878
1,Strada Atomului,300713,45.7295871,21.2619604
3,Intrarea Neptun,300713,45.7299673,21.2604194
1,Intrarea Meseriașilor,300694,45.7314230,21.2592683
3,Strada Electronicii,300694,45.7315092,21.2598544
1,Strada Venus,300693,45.7321459,21.2589177
35,Strada Venus,300693,45.7300703,21.2551086
1,Siemens,300704,45.7345301,21.2671020
1,Strada Electronicii,300694,45.7315005,21.2602286
138,Strada Gavril Musicescu,300774,45.7241162,21.2338426
10,Siemens,300704,45.7344959,21.2654555
26,Strada Electronicii,300694,45.7306474,21.2566245
27,Strada Electronicii,300694,45.7305257,21.2563618
28,Strada Electronicii,300694,45.7304178,21.2561339
15,Strada Electronicii,300694,45.7307120,21.2573649
19,Strada Electronicii,300694,45.7304656,21.2568348
21,Strada Electronicii,300694,45.7302833,21.2566495
23,Strada Electronicii,300694,45.7301712,21.2564054
25,Strada Electronicii,300694,45.7300610,21.2561697
1,Calea Buziașului,300714,45.7321540,21.2597718
10,Strada Anton Golopenția,300697,45.7285105,21.2568445
14,Strada Anton Golopenția,300697,45.7287951,21.2574413
18,Strada Anton Golopenția,300697,45.7289145,21.2577015
2,Strada Snagov,300481,45.7366096,21.2167316
43,Bulevardul 16 Decembrie 1989,300218,45.7410837,21.2130231
104,Bulevardul Liviu Rebreanu,300755,45.7368586,21.2332324
6,Strada Electronicii,300694,45.7317413,21.2597332
8,Strada Electronicii,300694,45.7317267,21.2593982
12,Strada Atomului,300692,45.7307741,21.2583464
5,Strada Electronicii,300694,45.7315004,21.2595026
7,Piața Bisericii,300233,45.7417342,21.2296468
42,Strada Cosminului,300720,45.7331230,21.2332473
40,Strada Cosminului,300720,45.7340119,21.2332935
16,Strada Anton Golopenția,300697,45.7288382,21.2575399
20,Strada Anton Golopenția,300697,45.7289639,21.2578104
6,Strada Anton Golopenția,300697,45.7282656,21.2562659
4,Strada Anton Golopenția,300697,45.7281415,21.2560023
20D,Calea Urseni,300703,45.7272986,21.2536670
20E,Calea Urseni,300703,45.7275623,21.2536511
29,Strada Tosca,300732,45.7249481,21.2506019
29,Strada Tosca,300732,45.7249303,21.2508791
6,Bulevardul Industriei,300714,45.7359275,21.2646811
5,Strada Siemens,300704,45.7334218,21.2702199
11C,Calea Buziașului,300714,45.7320046,21.2642558
18,Strada Electronicii,300694,45.7311236,21.2574319
84,Calea Buziașului,300700,45.7283640,21.2708745
67,Calea Buziașului,300700,45.7269075,21.2788582
19,Strada Atomului,300713,45.7304583,21.2578387
15,Strada Matei Millo,300696,45.7286069,21.2643256
7 B,Strada Matei Millo,300696,45.7290919,21.2646263
7,Strada Matei Millo,300696,45.7294300,21.2648266
7 A,Strada Matei Millo,300696,45.7292626,21.2646805
5,Strada Matei Millo,300696,45.7296076,21.2648111
9,Strada Matei Millo,300696,45.7289650,21.2645159
11,Strada Matei Millo,300696,45.7288463,21.2644443
13,Strada Matei Millo,300696,45.7287281,21.2643764
1,Strada Matei Millo,300696,45.7299419,21.2650566
3,Strada Matei Millo,300696,45.7296608,21.2648851
3,Strada Matei Millo,300696,45.7297127,21.2649120
9E,Calea Buziașului,300714,45.7314401,21.2648795
2,Strada Constantin Brăiloiu,300722,45.7356034,21.2357675
64,Calea Martirilor 1989,300727,45.7332214,21.2362988
64,Calea Martirilor 1989,300727,45.7335741,21.2362300
5,Strada Martir Marius Ciopec,300741,45.7357175,21.2401012
3,Strada Martir Marius Ciopec,300737,45.7363896,21.2399152
11,Strada Martir Marius Ciopec,300741,45.7348696,21.2397159
10,Strada Uranus,300687,45.7341160,21.2436579
80,Strada Memorandului,300592,45.7407363,21.2335631
82,Strada Memorandului,300592,45.7410896,21.2336406
84,Strada Memorandului,300592,45.7409890,21.2339200
86 - 88,Strada Cozia,300580,45.7406914,21.2370939
16 D,Calea Urseni,300703,45.7282551,21.2537806
22,Calea Urseni,300703,45.7261525,21.2548132
17,Calea Urseni,300703,45.7270838,21.2552777
17 A,Calea Urseni,300703,45.7269870,21.2553903
15,Calea Urseni,300703,45.7272027,21.2551607
9,Calea Urseni,300703,45.7282405,21.2548710
7,Calea Urseni,300703,45.7287048,21.2550810
3,Calea Urseni,300703,45.7291194,21.2548563
1,Calea Urseni,300703,45.7294416,21.2546704
33,Strada Memorandului,300206,45.7397067,21.2290343
35,Strada Memorandului,300206,45.7397203,21.2292526
37,Strada Memorandului,300206,45.7398551,21.2295180
39,Strada Memorandului,300206,45.7398896,21.2298293
41,Strada Memorandului,300206,45.7400509,21.2299595
43,Strada Memorandului,300206,45.7400339,21.2301505
52,Strada Memorandului,300206,45.7397311,21.2301300
52 A,Strada Memorandului,300206,45.7397024,21.2299937
50,Strada Memorandului,300206,45.7396340,21.2298884
48,Strada Memorandului,300206,45.7396492,21.2296772
48,Strada Memorandului,300206,45.7395784,21.2295942
46,Strada Memorandului,300206,45.7395840,21.2294933
44,Strada Memorandului,300206,45.7395042,21.2293634
42,Strada Memorandului,300206,45.7394897,21.2292453
40,Strada Memorandului,300206,45.7393484,21.2291060
38,Strada Memorandului,300206,45.7394029,21.2288826
11,Strada Feldioara,300208,45.7391535,21.2287710
2,Strada Aron Pumnul,300586,45.7396883,21.2303661
4,Strada Aron Pumnul,300586,45.7395573,21.2304549
9,Strada Cozia,300209,45.7389539,21.2303768
10,Bd. Iosif Bulbucă,300736,45.7369438,21.2408253
2,Strada Profesor Doctor Aurel Păunescu Podeanu,300586,45.7429689,21.2491162
2,Strada Platanilor,300186,45.7420199,21.2060223
17,Strada Atomului,300713,45.7304799,21.2582292
47,Bulevardul Sudului,300709,45.7316177,21.2476273
45,Bulevardul Sudului,300709,45.7317424,21.2477953
140 D - E,Strada Mareșal Constantin Prezan,300695,45.7309599,21.2453595
7 C,Bulevardul Industriei,300714,45.7344680,21.2630877
27,Strada Jean Monnet,300776,45.7265509,21.2352085
27,Strada Jean Monnet,300776,45.7262837,21.2351079
15,Strada Herculane,300434,45.7250950,21.2111815
36,Strada Aluniș,300778,45.7234756,21.2275149
38,Strada Aluniș,300778,45.7232968,21.2278429
11,Calea Buziașului,300714,45.7321429,21.2621460
79,Strada Aluniș,300778,45.7223874,21.2318400
17,Strada Electronicii,300694,45.7305891,21.2571037
34,Strada Legumiculturii,300696,45.7261395,21.2579624
36,Strada Legumiculturii,300696,45.7262604,21.2579690
12,Calea Stan Vidrighin,300571,45.7448177,21.2542016
2,Strada Matei Millo,300696,45.7285545,21.2638010
3,Strada Anton Golopenția,300697,45.7283475,21.2557561
2,Strada Anton Golopenția,300697,45.7280305,21.2558305
8,Strada Anton Golopenția,300697,45.7283877,21.2565757
35,Strada Gheorghe Lazăr,300341,45.7598736,21.2166895
1-3,Bulevardul Antenei,300280,45.7636819,21.2336151
15,Strada Gheorghe Adam,300310,45.7713188,21.2595647
30 - 40,Bulevardul Eroilor de la Tisa,300562,45.7504582,21.2513576
58 A,Calea Aradului,300291,45.7865236,21.2190265
27 A,Strada Armoniei,300291,45.7837595,21.2229737
18,Strada Tudor Arghezi,300291,45.7826561,21.2319897
16,Strada Tudor Arghezi,300291,45.7825964,21.2319301
14,Strada Tudor Arghezi,300291,45.7825279,21.2318997
10,Strada Tudor Arghezi,300291,45.7823835,21.2318147
39,Strada Tudor Arghezi,300291,45.7850486,21.2328841
3A,Strada Ion Ionescu de la Brad,300255,45.7794653,21.2385772
1,Strada Rudolf Walter,300314,45.7564278,21.2674055
1,Strada Rudolf Walter,300314,45.7533648,21.2687127
23 D,Calea Urseni,300703,45.7248607,21.2587624
5 C,Calea Stan Vidrighin,300571,45.7383311,21.2589475
2,Calea Moșniței,300547,45.7443466,21.2703905
22,Strada Electronicii,300694,45.7309757,21.2569882
16,Strada Electronicii,300694,45.7313350,21.2577951
22,Strada Tudor Arghezi,300291,45.7825400,21.2325255
22,Strada Tudor Arghezi,300291,45.7827002,21.2326596
42,Strada Tudor Arghezi,300291,45.7833185,21.2323954
44,Strada Tudor Arghezi,300291,45.7833748,21.2324322
46,Strada Tudor Arghezi,300291,45.7834327,21.2324698
48,Strada Tudor Arghezi,300291,45.7834982,21.2325123
50,Strada Tudor Arghezi,300291,45.7835698,21.2325585
52,Strada Tudor Arghezi,300291,45.7836477,21.2326082
54,Strada Tudor Arghezi,300291,45.7837313,21.2326599
62,Strada Tudor Arghezi,300291,45.7838771,21.2327446
64,Strada Tudor Arghezi,300291,45.7839427,21.2327874
66,Strada Tudor Arghezi,300291,45.7840048,21.2328275
68,Strada Tudor Arghezi,300291,45.7840664,21.2328678
70,Strada Tudor Arghezi,300291,45.7841344,21.2329134
72,Strada Tudor Arghezi,300291,45.7842077,21.2329621
74,Strada Tudor Arghezi,300291,45.7842701,21.2330031
40,Strada Tudor Arghezi,300291,45.7833542,21.2327549
24,Strada Tudor Arghezi,300291,45.7828367,21.2324415
38,Strada Tudor Arghezi,300291,45.7830297,21.2325649
9/2,Strada Tudor Arghezi,300291,45.7822013,21.2315666
9,Strada Tudor Arghezi,300291,45.7821781,21.2316335
6,Strada Tudor Arghezi,300291,45.7821066,21.2319235
7,Strada Tudor Arghezi,300291,45.7820786,21.2315737
5,Strada Tudor Arghezi,300291,45.7819971,21.2315160
3,Strada Tudor Arghezi,300291,45.7819193,21.2314406
1,Strada Tudor Arghezi,300291,45.7818438,21.2313999
4,Strada Tudor Arghezi,300291,45.7819149,21.2318218
2,Strada Tudor Arghezi,300291,45.7817362,21.2317161
36,Strada Tudor Arghezi,300291,45.7831896,21.2323006
34,Strada Tudor Arghezi,300291,45.7831143,21.2322557
32,Strada Tudor Arghezi,300291,45.7830449,21.2322121
30,Strada Tudor Arghezi,300291,45.7829794,21.2321707
28,Strada Tudor Arghezi,300291,45.7829165,21.2321313
26,Strada Tudor Arghezi,300291,45.7828562,21.2320936
11 B,Calea Buziașului,300699,45.7319238,21.2701564
15,Bulevardul Iosif Bulbuca,300736,45.7374407,21.2511868
10,Calea Martirilor 1989,300724,45.7399407,21.2381203
9,Calea Martirilor 1989,300735,45.7393367,21.2386086
26,Calea Martirilor 1989,300724,45.7389499,21.2379868
54,Strada Martir Vasile Balmuș,300715,45.7312897,21.2540395
50,Strada Martir Vasile Balmuș,300715,45.7313889,21.2536521
48,Strada Martir Vasile Balmuș,300715,45.7314025,21.2534337
46,Strada Martir Vasile Balmuș,300715,45.7314162,21.2532056
42,Strada Martir Vasile Balmuș,300715,45.7314493,21.2525101
40,Strada Martir Vasile Balmuș,300715,45.7314608,21.2523048
38,Strada Martir Vasile Balmuș,300715,45.7314739,21.2520944
36,Strada Martir Vasile Balmuș,300715,45.7314877,21.2518824
5,Strada Miresei,300642,45.7685944,21.2214316
4,Strada Daliei,300558,45.7504725,21.2421147
7,Strada Daliei,300558,45.7507820,21.2424774
5,Strada Daliei,300558,45.7510366,21.2423133
5 A,Strada Daliei,300558,45.7509428,21.2423806
10 B,Strada Dej,300637,45.7745814,21.2184623
8,Strada Dej,300638,45.7742935,21.2183711
13,Strada Gheorghe Adam,300310,45.7680853,21.2591209
13 A,Strada Gheorghe Adam,300310,45.7691679,21.2589768
61,Bulevardul Simion Bărnuțiu,300303,45.7644428,21.2578142
1A,Bulevardul Cetății,300389,45.7584688,21.2088151
1,Strada Siemens,300701,45.7348087,21.2668911
39,Strada Atomului,300713,45.7296625,21.2561144
39,Strada Atomului,300713,45.7296971,21.2561273
17,Strada Moise Nicoară,300314,45.7579563,21.2575718
10,Strada Andrei Șaguna,300119,45.7579963,21.2570247
2,Strada Învățătorului,300666,45.7704845,21.2154883
1,Strada Timotei Cipariu,300200,45.7480700,21.2185792
11A,Bulevardul General Ion Dragalina,300181,45.7440208,21.2108668
1B,Splaiul Morarilor,300120,45.7596077,21.2578772
24,Bulevardul Mihai Viteazu,300223,45.7453493,21.2250961
24,Bulevardul Mihai Viteazu,300223,45.7453485,21.2250989
123,Calea Aradului,300645,45.7857477,21.2167582
192,Strada Mureș,300732,45.7277864,21.2495193
9,Bulevardul Antenei,300280,45.7663083,21.2302324
15,Strada Glad,300479,45.7347182,21.2117062
72,Calea Martirilor 1989,300776,45.7313623,21.2371226
8,Strada Armoniei,300291,45.7817735,21.2311238
8 B,Strada Armoniei,300291,45.7817132,21.2308553
8 C,Strada Armoniei,300291,45.7817598,21.2306995
8 D,Strada Armoniei,300291,45.7818689,21.2304308
8 E,Strada Armoniei,300291,45.7819028,21.2303244
10,Strada Armoniei,300291,45.7819679,21.2300710
12,Strada Armoniei,300291,45.7820541,21.2297906
14,Strada Armoniei,300291,45.7821719,21.2296946
6,Strada Aurora,300291,45.7856343,21.2267719
8,Strada Aurora,300291,45.7856996,21.2256412
26,Bulevardul 16 Decembrie 1989,300425,45.7447621,21.2131455
30,Strada Popa Șapcă,300057,45.7621446,21.2335589
15,Strada București,300065,45.7618206,21.2373156
16,Strada București,300065,45.7607158,21.2372630
7A,Strada Remus,300194,45.7465813,21.2225792
13-15,Splaiul Tudor Vladimirescu,300173,45.7493551,21.2185518
14,Strada Johann Heinrich Pestalozzi,300561,45.7537705,21.2430195
89,Strada Vulturilor,300151,45.7393634,21.1977916
5-9,Bulevardul Cetății,300389,45.7605889,21.2092911
16 A,Strada Balta Verde,300351,45.7606200,21.2041895
16 B,Strada Balta Verde,300351,45.7605817,21.2043392
15 B,Strada Balta Verde,300351,45.7605819,21.2045129
15 A,Strada Balta Verde,300351,45.7605670,21.2045997
2,Strada Balta Verde,300351,45.7595029,21.2077551
3,Strada Balta Verde,300351,45.7595240,21.2076430
5,Strada Balta Verde,300351,45.7597685,21.2068570
6,Strada Balta Verde,300351,45.7598607,21.2067132
9,Strada Balta Verde,300351,45.7599739,21.2062370
8,Strada Balta Verde,300351,45.7599347,21.2063684
10,Strada Balta Verde,300351,45.7601086,21.2059132
13,Strada Balta Verde,300351,45.7602413,21.2054509
6,Strada Constantin Noica,300199,45.7427934,21.2153743
8,Strada Constantin Noica,300199,45.7429121,21.2157190
10,Strada Constantin Noica,300199,45.7430231,21.2160630
2A,Piața Consiliul Europei,300088,45.7658120,21.2265537
43A,Strada Carol Davilla,300245,45.7728300,21.2414129
83,Bulevardul Take Ionescu,300124,45.7629809,21.2459568
75,Calea Șagului,300488,45.7374490,21.2098733
66,Strada Carol Davilla,300262,45.7733230,21.2421486
68,Strada Carol Davilla,300262,45.7734684,21.2423315
14,Strada Dacilor,300094,45.7599892,21.2500725
27,Bulevardul 3 August 1919,300101,45.7578639,21.2480859
29,Bulevardul 3 August 1919,300101,45.7578479,21.2483013
31,Bulevardul 3 August 1919,300101,45.7577685,21.2484883
29 A,Strada Ciprian Porumbescu,300239,45.7395739,21.2208341
35,Strada Ciprian Porumbescu,300239,45.7393830,21.2203477
32,Strada Ciprian Porumbescu,300239,45.7398468,21.2203250
34,Strada Ciprian Porumbescu,300239,45.7396337,21.2199079
36,Strada Ciprian Porumbescu,300239,45.7395987,21.2195287
40,Strada Ciprian Porumbescu,300239,45.7394568,21.2191131
42,Strada Ciprian Porumbescu,300239,45.7394976,21.2189218
46,Strada Ciprian Porumbescu,300239,45.7394113,21.2185756
71A,Strada Ciprian Porumbescu,300239,45.7383578,21.2170586
53 A,Strada Ciprian Porumbescu,300239,45.7390218,21.2185074
53,Strada Ciprian Porumbescu,300239,45.7389981,21.2187348
51,Strada Ciprian Porumbescu,300239,45.7389293,21.2188591
49,Strada Ciprian Porumbescu,300239,45.7389868,21.2190895
47,Strada Ciprian Porumbescu,300239,45.7391037,21.2191523
45,Strada Ciprian Porumbescu,300239,45.7391743,21.2194573
41,Strada Ciprian Porumbescu,300239,45.7392907,21.2197575
43,Strada Ciprian Porumbescu,300239,45.7391717,21.2195596
43,Strada Ciprian Porumbescu,300239,45.7391956,21.2197183
73,Strada Ciprian Porumbescu,300239,45.7385402,21.2165996
66,Strada Ciprian Porumbescu,300239,45.7388113,21.2165264
64,Strada Ciprian Porumbescu,300239,45.7389081,21.2166998
62,Strada Ciprian Porumbescu,300239,45.7389982,21.2167978
60,Strada Ciprian Porumbescu,300239,45.7389236,21.2169608
58,Strada Ciprian Porumbescu,300239,45.7390369,21.2172428
56,Strada Ciprian Porumbescu,300239,45.7390467,21.2174216
54,Strada Ciprian Porumbescu,300239,45.7391238,21.2176166
52,Strada Ciprian Porumbescu,300239,45.7393113,21.2178329
129,Strada Ciprian Porumbescu,300489,45.7370253,21.2102072
127,Strada Ciprian Porumbescu,300489,45.7370441,21.2105096
121,Strada Ciprian Porumbescu,300489,45.7370575,21.2110164
119,Strada Ciprian Porumbescu,300489,45.7372446,21.2112173
117,Strada Ciprian Porumbescu,300489,45.7372316,21.2113447
115,Strada Ciprian Porumbescu,300489,45.7372285,21.2115046
113 A,Strada Ciprian Porumbescu,300489,45.7372930,21.2115877
113,Strada Ciprian Porumbescu,300489,45.7373126,21.2117214
111,Strada Ciprian Porumbescu,300489,45.7374138,21.2119339
8,Strada Doctor Pavel Vasile Ungureanu,300489,45.7371876,21.2119375
12 A,Strada Doctor Pavel Vasile Ungureanu,300489,45.7369196,21.2121212
14,Strada Doctor Pavel Vasile Ungureanu,300489,45.7367554,21.2121392
63,Bulevardul 16 Decembrie 1989,300219,45.7394103,21.2107196
61,Bulevardul 16 Decembrie 1989,300219,45.7395497,21.2109355
59,Bulevardul 16 Decembrie 1989,300219,45.7397562,21.2108460
57,Bulevardul 16 Decembrie 1989,300219,45.7399648,21.2109278
55,Bulevardul 16 Decembrie 1989,300219,45.7401289,21.2112010
53,Bulevardul 16 Decembrie 1989,300219,45.7402829,21.2111850
51,Bulevardul 16 Decembrie 1989,300219,45.7402556,21.2115194
49,Bulevardul 16 Decembrie 1989,300219,45.7406476,21.2114748
7,Bulevardul 3 August 1919,300092,45.7568289,21.2439126
3,Strada Iancu Brezeanu,300353,45.7596586,21.2072115
14 B,Strada Balta Verde,300351,45.7604361,21.2048026
14 A,Strada Balta Verde,300351,45.7604304,21.2048919
14/2,Strada Balta Verde,300351,45.7602764,21.2051613
14,Strada Filaret Barbu,300192,45.7457037,21.2242201
12,Strada Romulus,300238,45.7445749,21.2213255
14,Splaiul Tudor Vladimirescu,300173,45.7495179,21.2186327
13-15,Splaiul Tudor Vladimirescu,300173,45.7491900,21.2187905
8,Strada Franyó Zoltán,300014,45.7562579,21.2123403
4,Strada Franyó Zoltán,300014,45.7565650,21.2125569
2,Strada Franyó Zoltán,300014,45.7566502,21.2126351
46C,Bulevardul Take Ionescu,300070,45.7602903,21.2422910
7,Strada Feldioara,300206,45.7368643,21.2309886
35,Calea Circumvalațiunii,300337,45.7593340,21.2172566
21,Bulevardul Republicii,300158,45.7494460,21.2136354
1,Strada Aristide Demetriade,300088,45.7673527,21.2264810
21,Bulevardul 3 August 1919,300092,45.7576807,21.2467623
23,Bulevardul 3 August 1919,300092,45.7576812,21.2470469
3,Strada Ștefan cel Mare,300100,45.7571024,21.2495731
5,Strada Ștefan cel Mare,300102,45.7570040,21.2495567
7,Strada Ștefan cel Mare,300102,45.7569063,21.2495404
9,Strada Ștefan cel Mare,300102,45.7567683,21.2495175
8,Piața Romanilor,300100,45.7563309,21.2483847
7,Piața Romanilor,300100,45.7564603,21.2485013
6,Piața Romanilor,300100,45.7565515,21.2485016
5,Piața Romanilor,300100,45.7566869,21.2484950
3,Piața Romanilor,300100,45.7570121,21.2485088
2,Piața Romanilor,300100,45.7571533,21.2485800
1,Strada Anton Pann,300102,45.7571582,21.2505654
1-3,Strada Loichiță Vasile,300633,45.7788038,21.2123082
3,Strada Timotei Cipariu,300200,45.7477561,21.2187269
5,Strada Timotei Cipariu,300200,45.7475783,21.2189428
7,Strada Timotei Cipariu,300200,45.7473668,21.2189983
9,Strada Timotei Cipariu,300200,45.7472171,21.2191646
11,Strada Timotei Cipariu,300200,45.7469968,21.2192912
6,Strada Emanoil Gojdu,300176,45.7468422,21.2148850
19,Strada Abrud,300093,45.7587733,21.2464945
21,Strada Abrud,300093,45.7586840,21.2469350
17,Strada Abrud,300093,45.7585343,21.2462296
9,Strada Florimund Mercy,300085,45.7573359,21.2287649
E12,Strada Eugen Pop,300296,45.7618661,21.2583961
2E,Piața Consiliul Europei,300088,45.7650651,21.2276553
95,Strada Drubeta,300766,45.7294174,21.2278395
7,Strada Molidului,300262,45.7714615,21.2420592
18,Calea Bogdăneștilor,300092,45.7574463,21.2119610
2B,Strada Sinaia,300014,45.7534691,21.2139706
18,Strada Gheorghe Doja,300238,45.7455684,21.2209631
28,Bulevardul Republicii,300158,45.7509787,21.2087315
12,Strada Filaret Barbu,300192,45.7458726,21.2240412
10,Bulevardul Cetății,300397,45.7587525,21.2099192
14,Strada Cerna,300570,45.7454979,21.2509028
47 D,Strada Munteniei,300362,45.7709185,21.2075622
16,Bulevardul 16 Decembrie 1989,300218,45.7470997,21.2167214
12,Strada Petru Cermena,300110,45.7507569,21.2559122
39,Strada Ioan Slavici,300521,45.7245288,21.1769969
53A,Strada Ioan Slavici,300523,45.7234043,21.1754817
53A,Strada Ioan Slavici,300523,45.7235001,21.1753798
53A,Strada Ioan Slavici,300523,45.7234381,21.1756334
79,Strada Bujorilor,300431,45.7215439,21.2080504
30,Bulevardul Simion Bărnuțiu,300133,45.7634847,21.2537465
30,Bulevardul Simion Bărnuțiu,300133,45.7633201,21.2536589
30,Bulevardul Simion Bărnuțiu,300133,45.7632158,21.2538363
13-15,Strada Claude Debussy,300732,45.7261221,21.2483449
27,Strada Albinelor,300281,45.7692260,21.2440638
27,Strada Albinelor,300281,45.7691022,21.2440296
38,Strada Iris,300418,45.7309561,21.2145009
15,Strada Sulina,300515,45.7263156,21.1898422
16,Strada Anton Bacalbașa,300524,45.7216921,21.1810122
26,Strada Ovidiu Cotruș,300514,45.7180577,21.1905157
5,Strada Anton Kathrein,300514,45.7188162,21.1916767
1,Strada Anton Kathrein,300514,45.7160713,21.1898171
30,Strada Ovidiu Cotruș,300514,45.7151902,21.1901962
138B,Calea Șagului,300516,45.7181175,21.1954998
5,Strada Sulina,300516,45.7222929,21.1954431
30,Bulevardul Simion Bărnuțiu,300133,45.7633574,21.2537814
32,Bulevardul Simion Bărnuțiu,300133,45.7633771,21.2540693
9,Piața Karlsruhe,300554,45.7454704,21.2452789
132,Calea Buziașului,300700,45.7261189,21.2783394
23,Calea Șagului,300172,45.7332802,21.2092626
44,Calea Aradului,300283,45.7743432,21.2222947
47,Strada Bucovinei,300254,45.7702996,21.2119294
19,Strada Divizia 9 Cavalerie,300093,45.7688163,21.2350625
2A-4,Strada Divizia 9 Cavalerie,300265,45.7683126,21.2327651
27,Strada Jean Monnet,300776,45.7262490,21.2352809
27,Strada Jean Monnet,300776,45.7256542,21.2351356
25,Strada Albinelor,300281,45.7690338,21.2439115
18,Strada Abrud,300100,45.7583635,21.2472371
59,Strada Ciprian Porumbescu,300239,45.7384962,21.2183439
57,Strada Mareșal Alexandru Averescu,300728,45.7319947,21.2341679
68,Calea Martirilor 1989,300727,45.7323591,21.2372149
26,Strada Marius Munteanu,300327,45.7606004,21.2743562
28,Strada Marius Munteanu,300327,45.7605258,21.2743559
24,Strada Marius Munteanu,300327,45.7607303,21.2743640
28,Strada Suceava,300391,45.7598478,21.2112163
7,Strada Gheorghe Lazăr,300079,45.7569036,21.2254598
2,Strada Gheorghe Lazăr,300078,45.7578848,21.2268785
10,Piața Axente Sever,300587,45.7391200,21.2305208
18,Calea Aradului,300278,45.7664301,21.2256020
