House number,Street name,Postal code,Latitude,Longitude
Nr.6 Flanco,Strada Banu Mărăcine,310150,46.1851089,21.3145058
Bl. H,Piața Spitalului,310031,46.1822834,21.3109865
Raiffeisen Bank Nr.1,Strada Unirii,310123,46.1716715,21.3162852
5-7,Strada Unirii,310123,46.1714769,21.3173401
1,Strada Gheorghe Lazăr,310126,46.1697020,21.3170788
Transilvania,Strada Nicolae Bălcescu,310123,46.1702060,21.3167880
91-93,Bulevardul Revoluției,310414,46.1727378,21.3167242
1A,Strada Digului,310315,46.1745905,21.3654856
Bl. 338 Sc.B,Strada Vasile Lucaciu,310327,46.1721185,21.3473503
23,Strada Frumoasă,310261,46.1417672,21.3446291
201,Calea Radnei,310006,46.1763954,21.3625250
Nr.39 Pensiune SAN,Strada General Doda,310507,46.2033045,21.2781488
39-41,Calea Victoriei,310158,46.1903274,21.3103144
73,Bulevardul Revoluției,310130,46.1761332,21.3190095
BRD Bank Nr.97,Bulevardul Revoluției,310002,46.1718878,21.3163710
Gelateria Coandi,Strada Nicolae Bălcescu,310123,46.1702520,21.3173478
120,Calea Radnei,310267,46.1802217,21.3430097
2,Strada Mihai Eminescu,310086,46.1717566,21.3148502
2,Strada Mețianu,310099,46.1704599,21.3153779
4,Strada Mețianu,310099,46.1703410,21.3141066
1,Strada Mețianu,310099,46.1703408,21.3153681
5,Strada Mețianu,310099,46.1702147,21.3141173
17,Strada Nicolae Bălcescu,310123,46.1704567,21.3183224
124,Calea Aurel Vlaicu,310365,46.1947368,21.3022640
100,Bulevardul Revoluției,310099,46.1714362,21.3152153
4,Strada Mihai Eminescu,310086,46.1718146,21.3143865
1,Strada Mihai Eminescu,310086,46.1717405,21.3142632
4-6,Strada 9 Mai,310023,46.1732494,21.3144044
25,Strada Vezuviu,310218,46.1998692,21.3252249
Pizzeria Ornella Bloc Z22 Sc.C,Calea Aurel Vlaicu,310141,46.1928278,21.3067683
6,Strada Mircea Stănescu,310009,46.1808033,21.3198146
26,Strada Petru Rareș,310206,46.1922397,21.3312616
17,Splaiul General Gheorghe Magheru,310329,46.1722603,21.3439962
Bloc5,Strada Diogene,310257,46.1570721,21.3344912
Bloc2,Strada Diogene,310257,46.1579880,21.3327317
Bloc1,Strada Diogene,310257,46.1582984,21.3321309
Bloc4,Strada Diogene,310257,46.1573638,21.3339172
Bloc3,Strada Diogene,310257,46.1576759,21.3333191
46-48,Bulevardul Revoluției,310009,46.1798283,21.3203053
1/4,Strada Tribunul Corcheș,310485,46.2134130,21.2875618
10,Strada 9 Mai,310131,46.1764070,21.3158650
170,Strada Dunării,310486,46.2173390,21.2740260
1,Strada 9 Mai,310131,46.1739940,21.3209040
2-4,Strada 9 Mai,310022,46.1765710,21.3157490
30,Strada Dâmboviței,310443,46.1969849,21.2916873
36 B,Strada Vrancei,310315,46.1725821,21.3575724
39-41,Bulevardul Revoluției,310181,46.1798764,21.3218917
19-21,Strada Episcopiei,310023,46.1747700,21.3125370
11,Piața Avram Iancu,310099,46.1692088,21.3158502
2,Strada Cerbului,310282,46.1792728,21.3511689
133,Calea Radnei,310281,46.1789849,21.3510220
25,Bulevardul Revoluției,310174,46.1820439,21.3235547
12,Strada Crișan,310016,46.1792929,21.3179597
3,Strada Crișan,310016,46.1788790,21.3185034
Nr.6 Altex,Strada Banu Mărăcine,310150,46.1850049,21.3146163
Nr.6 Deichmann,Strada Banu Mărăcine,310150,46.1853306,21.3142761
Nr.6 Takko,Strada Banu Mărăcine,310150,46.1854346,21.3141612
MUZEUL MEMORIAL VASILE GOLDIȘ,Strada Vasile Goldiș,310090,46.1711689,21.3137269
63,Strada Pădurii,310049,46.1771295,21.2955239
288A,Calea Radnei,310318,46.1726385,21.3699588
288A,Calea Radnei,310318,46.1726139,21.3701051
288A,Calea Radnei,310318,46.1725892,21.3702435
1C,Strada Poetului,310345,46.1944658,21.3086874
1C,Strada Poetului,310345,46.1944565,21.3088993
1C,Strada Poetului,310345,46.1944211,21.3096211
9,Strada Episcopiei,310023,46.1753990,21.3149680
10,Strada Poetului,310369,46.2001494,21.3000030
214,Calea Radnei,310292,46.1778466,21.3542384
Nr.6 Dm,Strada Banu Mărăcine,310150,46.1852281,21.3143910
Nr.62 Haneflor,Strada Vrancei,310315,46.1734566,21.3536825
Nr.11/a Pensiune Mario,Strada Dorobanților,310054,46.1692415,21.3016012
2,Strada 9 Mai,310000,46.1691011,21.2867238
Nr.105A Profi City,Strada Abrud,310279,46.1773241,21.3465703
9,Bulevardul Decebal,310133,46.1731900,21.3188580
Nr. 206-218 Jysk,Calea Aurel Vlaicu,310375,46.1997724,21.2956282
45-55,Piața UTA,310400,46.1915852,21.3094941
45-55,Piața UTA,310400,46.1915993,21.3092849
2,Strada 9 Mai,310018,46.1759342,21.3171784
38,Strada Octavian Goga,310028,46.1754231,21.3097510
1-3,Strada Andrei Șaguna,310036,46.1812207,21.3097862
1 C,Strada Poetului,310345,46.1937849,21.3108397
29-31,Strada Petru Rareș,310206,46.1943620,21.3329836
162,Calea Radnei,310269,46.1790243,21.3490331
1,Piața Gării,310148,46.1879619,21.3247087
1,Piața Spitalului,310301,46.1830452,21.3099885
3,Strada Târgoviște,310001,46.1886844,21.3223264
2-10,Strada 9 Mai,310059,46.1690522,21.2866110
21,Colonia Campul Albinelor,317000,46.1994653,21.1878547
2,Strada Egalității,310189,46.1896868,21.3295394
20-22,Strada Mihail Kogălniceanu,310092,46.1670958,21.3071774
21,Strada Episcop Roman Ciorogariu,310040,46.1804493,21.3008158
109,Strada Pădurii,310040,46.1732654,21.2940044
83,Strada 9 Mai,310130,46.1733866,21.3171506
111,Strada Pădurii,310040,46.1731039,21.2939351
11,Strada Mucius Scaevola,310107,46.1641737,21.3205413
29,Strada 9 Mai,310429,46.1843738,21.3050888
3,Predeal,310377,46.1999437,21.2911827
2C,Calea Victoriei,310158,46.1838058,21.3097150
215-217,Calea Aurel Vlaicu,310375,46.2011990,21.2907899
DN 7km 553+700,DN7,317235,46.2046987,21.2069580
21,Strada Octavian Goga,310022,46.1754488,21.3114296
85,Strada Poetului,310369,46.2005752,21.2993667
83,Strada Poetului,310369,46.2004878,21.2994414
26,Strada 9 Mai,310003,46.1852912,21.3203185
5,Strada Dimitrie Bolintineanu,310176,46.1802186,21.3257071
2,Strada Desseanu,310087,46.1734071,21.3111776
29,Strada Ana Ipătescu,310255,46.1570384,21.3260498
49-53,Bulevardul Revoluției,310181,46.1787254,21.3210151
89,Strada 9 Mai,310025,46.1724743,21.3166057
25-27,Strada General Vasile Milea,310182,46.1781771,21.3223258
1-3,Strada 9 Mai,310036,46.1810583,21.3097023
1-3,Strada 9 Mai,310036,46.1810576,21.3098384
2-4,Strada Gheorghe Popa de Teiuș,310022,46.1770539,21.3158646
Bl.9.A,Strada Sabin Drăgoi,310078,46.1797972,21.3273847
15,Splaiul General Gheorghe Magheru,310039,46.1729454,21.3443878
Bl.9.A,Strada Sabin Drăgoi,310178,46.1798012,21.3273426
7-9,Strada Vârful cu dor,310085,46.1715999,21.3095843
3,Strada Ecaterina Teodoroiu,310035,46.1707408,21.3095653
58,Strada Griviței,310280,46.1777867,21.2967135
12,Strada Iustin Marșieu,310150,46.1816491,21.3160114
2,Strada Cloșca,310017,46.1777973,21.3189850
12,Piața Avram Iancu,310099,46.1693628,21.3156882
10,Strada Tribunul Dobra,310101,46.1688312,21.3175479
45,Calea Timișorii,310253,46.1531705,21.3224562
15,Calea Romanilor,310119,46.1655118,21.3222610
1,Strada Vasile Alecsandri,310024,46.1737145,21.3164565
38,Strada Dunării,310501,46.2052327,21.2804417
35-37,Calea Romanilor,310114,46.1626285,21.3233802
6,Strada Labirint,310113,46.1622615,21.3248228
44,Bulevardul Revoluției,310181,46.1801207,21.3204845
8,Inspiratiei,310495,46.2323317,21.2661554
23,Bulevardul Revoluției,310174,46.1821714,21.3237484
23,Bulevardul Revoluției,310174,46.1823014,21.3239105
42,Strada Pionierilor,310077,46.1644213,21.2946808
10-12,Calea Aurel Vlaicu,310141,46.1903598,21.3203387
5,Strada Vasile Goldiș,310090,46.1708938,21.3135265
9,Strada Andrei Mureșanu,310011,46.1814382,21.3200366
14,Strada Diogene,310257,46.1591076,21.3318353
2-4,Strada Poetului,310345,46.1976877,21.3046976
75,Bulevardul Revoluției,310130,46.1753577,21.3194972
61,Bulevardul Revoluției,310130,46.1774003,21.3202242
2,Strada General Vasile Milea,310131,46.1772046,21.3218880
8BIS,Strada Corneliu Coposu,310003,46.1843708,21.3215820
2-4,Strada 9 Mai,310022,46.1769449,21.3158842
6,Strada Banu Mărăcine,310150,46.1859020,21.3133191
17 - 21,Strada Vârful cu dor,310085,46.1703178,21.3067939
22,Strada Udrea,310171,46.1834877,21.3279365
39-41,Calea Iuliu Maniu,310169,46.1823305,21.3294063
21,Strada Vezuviu,310218,46.1995369,21.3251607
35A,Calea Iuliu Maniu,310138,46.1820683,21.3287742
299/6,Calea Aurel Vlaicu,310451,46.2018182,21.2451941
7,Strada Mărțișor,310138,46.1847324,21.3284873
5,Strada Mărțișor,310138,46.1846249,21.3284296
Bl. J,Strada Udrea,310171,46.1841943,21.3281453
Bl. i,Strada Udrea,310171,46.1840575,21.3276043
Bl. H,Strada Udrea,310171,46.1839102,21.3270471
6,Strada Onisifor Ghibu,310171,46.1851080,21.3277464
Bl. C Sc.A,Aleea Azuga,310148,46.1866573,21.3244548
Bl. E Sc.A,Aleea Azuga,310148,46.1868556,21.3235069
Bl. A,Strada Bihorului,310140,46.1860933,21.3267679
Bl. B,Strada Bihorului,310140,46.1860886,21.3263114
Bl. F Sc.A,Aleea Azuga,310148,46.1869331,21.3230600
Bl. T Sc.A,Calea Aurel Vlaicu,310141,46.1864782,21.3260807
Bl. 2,Strada Nelu Aristide Dragomir,310145,46.1861828,21.3243074
Bl. 4,Strada Nelu Aristide Dragomir,310145,46.1862586,21.3239996
14,Strada Nelu Aristide Dragomir,310145,46.1864684,21.3235874
Bl. 14,Strada Nelu Aristide Dragomir,310145,46.1865754,21.3225299
Bl. 2,Strada Miron Costin,310146,46.1867467,21.3225043
Bl. D Sc.A,Aleea Azuga,310148,46.1867366,21.3240085
Bl. 4,Strada Miron Costin,310146,46.1870174,21.3225830
22,Strada Corneliu Coposu,310003,46.1847068,21.3203877
6,Strada Bodrogului,310059,46.1692889,21.2889623
Bl. 367,Splaiul General Gheorghe Magheru,310340,46.1699285,21.3438654
Bl. 363,Splaiul General Gheorghe Magheru,310340,46.1686706,21.3442268
Bl. 364,Splaiul General Gheorghe Magheru,310340,46.1689865,21.3441411
Bl. 365,Splaiul General Gheorghe Magheru,310340,46.1692980,21.3440390
Bl. 366,Splaiul General Gheorghe Magheru,310340,46.1696146,21.3439538
343,Splaiul General Gheorghe Magheru,310329,46.1725682,21.3443937
Bl. B,Strada Petru Rareș,310206,46.1916388,21.3299581
Bl. E Sc.C,Piața Arenei,310112,46.1664405,21.3203921
Bl. K2-1,Calea Romanilor,310112,46.1663623,21.3212019
7,Piața Arenei,310112,46.1666320,21.3204000
2-4,Strada Patria,310106,46.1638812,21.3215436
Bl. H1,Calea Romanilor,310112,46.1653034,21.3225634
Bl. A1,Calea Romanilor,310112,46.1624413,21.3236528
Bl. G1,Calea Romanilor,310112,46.1647311,21.3228238
27,Calea Romanilor,310112,46.1642236,21.3230399
Bl. B Sc.B,Piața Arenei,310112,46.1676214,21.3211088
Bl. J1,Calea Romanilor,310112,46.1658181,21.3223379
Bl. L1 Sc.B,Calea Romanilor,310112,46.1661256,21.3219735
Bl. D,Calea Romanilor,310112,46.1669385,21.3215699
31,Calea Romanilor,310112,46.1636486,21.3232414
Bl. D1,Calea Romanilor,310112,46.1630759,21.3234365
2-6,Strada Mucius Scaevola,310106,46.1668324,21.3196117
2,Strada Paris,310117,46.1670838,21.3220924
10,Calea Romanilor,310112,46.1656921,21.3215062
37,Bulevardul Decebal,310124,46.1679123,21.3201905
1-3,Strada Haiducilor,310110,46.1650202,21.3214497
7,Strada Tribunul Dobra,310101,46.1686781,21.3182257
18,Strada Dacilor,310117,46.1662952,21.3223721
Bl. 304A,Strada Nicolae Brânzeu,310331,46.1770196,21.3421179
Bl. 304E,Strada Elena Drăgoi,310330,46.1759481,21.3430599
Bl. 503 Sc.C,Strada Voinicilor,310304,46.1719997,21.3506284
39,Strada Barbu Lăutaru,310076,46.1632539,21.2923700
40,Strada Barbu Lăutaru,310063,46.1631202,21.2926438
294,Calea Radnei,310318,46.1721466,21.3743928
298,Calea Radnei,310318,46.1701438,21.3811934
Bl. 342 Sc.A,Strada Nicolae Titulescu,310333,46.1741791,21.3472420
Bl. 342 Sc.B,Strada Nicolae Titulescu,310333,46.1745193,21.3470909
Bl. 26,Piața Sporturilor,310167,46.1800610,21.3353294
225-235,Calea Aurel Vlaicu,310451,46.2004584,21.2882074
Nr.36B Pensiune Olimp,Strada Vrancei,310315,46.1727016,21.3576359
Bl. 534,Strada Alba Iulia,310310,46.1715629,21.3502191
Bl. 535,Strada Alba Iulia,310310,46.1717499,21.3503079
Bl. 533533,Strada Alba Iulia,310310,46.1713748,21.3501309
Bl. 532 Sc.B,Strada Alba Iulia,310310,46.1710040,21.3498873
31A,Strada Voinicilor,310304,46.1708910,21.3561739
24,Bulevardul Revoluției,310002,46.1827277,21.3229154
8,Strada Mircea Stănescu,310009,46.1810045,21.3195358
Bl. 11,Strada Sabinelor,310081,46.1615870,21.2889581
Bl. 242,Strada Simfoniei,310287,46.1729991,21.3516386
Bl. 241,Strada Simfoniei,310287,46.1730960,21.3511099
26,Strada Voinicilor,310304,46.1711705,21.3567953
Bl. 246 Sc.A,Strada Voinicilor,310304,46.1722188,21.3550392
46,Strada Renașterii,310323,46.1709659,21.3575786
Bl. 245 Sc.B,Strada Voinicilor,310304,46.1716809,21.3547807
Bl. 245 Sc.A,Strada Voinicilor,310304,46.1715327,21.3549945
24A,Strada Voinicilor,310304,46.1710806,21.3572240
58,Strada Vrancei,310315,46.1733519,21.3546424
21A,Strada Pășunii,310316,46.1741394,21.3536232
21,Strada Pășunii,310316,46.1739720,21.3535731
60,Strada Vrancei,310315,46.1734041,21.3541390
51,Strada Stânjenel,310315,46.1747305,21.3540494
19,Strada Pășunii,310316,46.1747328,21.3537761
48,Strada Renașterii,310303,46.1706307,21.3574627
54,Strada Stânjenel,310315,46.1751579,21.3539186
52,Strada Stânjenel,310315,46.1751183,21.3541270
Nr.250 Consiliul Local Direcția de Dezvoltare și Asistență Comunitară,Calea Radnei,310267,46.1760007,21.3608879
252,Calea Radnei,310267,46.1760877,21.3614975
227-229,Calea Radnei,310316,46.1759168,21.3652600
231,Calea Radnei,310316,46.1759212,21.3655569
Nr.248 Grădinița PP 18 Căsuța Piticilor,Calea Radnei,310267,46.1764626,21.3598954
15,Strada Pășunii,310316,46.1757582,21.3542441
13,Strada Pășunii,310316,46.1758667,21.3544105
17,Strada Pășunii,310316,46.1756256,21.3541082
175,Calea Radnei,310291,46.1774458,21.3580442
14,Strada Pășunii,310316,46.1756649,21.3538084
12,Strada Pășunii,310316,46.1758217,21.3538110
16,Strada Pășunii,310316,46.1755178,21.3537115
247,Calea Radnei,310292,46.1750792,21.3700870
288A,Calea Radnei,310318,46.1728611,21.3697346
10-12,Calea Aurel Vlaicu,310414,46.1905582,21.3207880
Bl. K,Piața Gării,310080,46.1895318,21.3230737
Bl. C,Strada Petru Rareș,310206,46.1909572,21.3293965
Bl. A,Strada Petru Rareș,310206,46.1919217,21.3300500
Nr.15,Strada Voinicilor,310304,46.1702795,21.3590728
Nr.17,Strada Voinicilor,310304,46.1703416,21.3588257
Nr.5,Strada Voinicilor,310304,46.1698116,21.3606793
2A,Șoseaua Câmpurilor,310163,46.2157040,21.2919538
Nr.19 Liceul Teoretic Adam Müller Guttenbrunn,Strada Posada,310245,46.1549869,21.3176122
73,Bulevardul Revoluției,310130,46.1760337,21.3194332
96A,Bulevardul Revoluției,310025,46.1725036,21.3154780
79-81,Bulevardul Revoluției,310130,46.1738828,21.3184395
Bl. 8,Strada Sabin Drăgoi,310178,46.1801271,21.3274228
Bl. A2,Strada Traian Moșoiu,310175,46.1815235,21.3248459
Bl. A1,Strada Traian Moșoiu,310175,46.1818009,21.3249347
31 Sc.C,Bulevardul Revoluției,310174,46.1812078,21.3227807
Bl. A3,Strada Alecu Russo,310175,46.1812322,21.3247621
23,Strada Vezuviu,310218,46.1997197,21.3251336
121,Calea Radnei,310267,46.1797606,21.3478707
Bl. 532 Sc.A,Strada Alba Iulia,310310,46.1711677,21.3499615
34,Strada Voinicilor,310304,46.1713517,21.3555648
34,Strada Voinicilor,310304,46.1716350,21.3556917
13,Strada Doctor Ioan Rațiu,310041,46.1799856,21.3065282
1-3,Strada Vasile Goldiș,310090,46.1710302,21.3146075
2,Strada Unirii,310123,46.1713334,21.3164942
9,Bulevardul Decebal,310133,46.1731805,21.3190679
101,Bulevardul Revoluției,310122,46.1710550,21.3166387
7,Strada Nicolae Bălcescu,310123,46.1705691,21.3175655
3,Piața Avram Iancu,310099,46.1706586,21.3167610
5,Strada Nicolae Bălcescu,310123,46.1705485,21.3173974
11,Strada Nicolae Bălcescu,310123,46.1705074,21.3177024
2,Piața Avram Iancu,310099,46.1707679,21.3167679
1,Piața Avram Iancu,310099,46.1708707,21.3166901
11,Strada Nicolae Bălcescu,310123,46.1705282,21.3179084
2,Strada Nicolae Bălcescu,310123,46.1702109,21.3169484
10,Strada Nicolae Bălcescu,310123,46.1702117,21.3176533
18,Strada Nicolae Bălcescu,310123,46.1701681,21.3183461
6,Strada Nicolae Bălcescu,310123,46.1701402,21.3172640
13-15,Strada Gheorghe Lazăr,310126,46.1699306,21.3182783
4,Strada Nicolae Bălcescu,310123,46.1702465,21.3172238
17,Strada Gheorghe Lazăr,310126,46.1698681,21.3185384
5,Strada Gheorghe Lazăr,310126,46.1697493,21.3176081
12,Strada Nicolae Bălcescu,310123,46.1701704,21.3178471
8,Strada Nicolae Bălcescu,310123,46.1701754,21.3174936
9,Strada Gheorghe Lazăr,310126,46.1698569,21.3179574
7,Strada Gheorghe Lazăr,310126,46.1698087,21.3177818
11,Strada George Coșbuc,310018,46.1774886,21.3143824
7-9,Strada Simion Balint,310019,46.1782979,21.3122482
21,Strada Simion Balint,310019,46.1790197,21.3110865
16,Strada Episcopiei,310023,46.1753193,21.3137402
1,Strada Octavian Goga,310022,46.1765692,21.3148044
9,Strada Horia,310018,46.1763481,21.3151284
4A,Strada Ion Andreescu,310182,46.1786139,21.3222181
4,Strada Ioan Vidu,310181,46.1789472,21.3225633
2,Strada Călugăreni,310181,46.1791017,21.3228309
1,Strada Călugăreni,310181,46.1793912,21.3224565
1,Strada Ion Andreescu,310182,46.1788756,21.3221675
3,Strada Ion Andreescu,310182,46.1788134,21.3224143
7,Strada Ioan Vidu,310181,46.1791931,21.3225196
2,Strada Ioan Vidu,310181,46.1790441,21.3222611
5,Strada Ion Andreescu,310182,46.1786927,21.3227599
55,Bulevardul Revoluției,310130,46.1779369,21.3205732
57,Bulevardul Revoluției,310130,46.1778348,21.3203406
67,Bulevardul Revoluției,310130,46.1768286,21.3198171
63,Bulevardul Revoluției,310130,46.1771694,21.3199472
59,Bulevardul Revoluției,310130,46.1776567,21.3203968
65,Bulevardul Revoluției,310130,46.1769063,21.3199910
43C,Calea Zimandului,310208,46.2117566,21.3429251
2-4,Strada Sabin Drăgoi,310178,46.1806028,21.3277933
3-19,Strada Doctor Ioan Suciu,310177,46.1811405,21.3269654
7 bis,Strada Doctor Ioan Suciu,310177,46.1814199,21.3272566
39-41,Bulevardul Revoluției,310181,46.1797232,21.3219374
Bl. 108A,Strada Simion Popa,310273,46.1790922,21.3484920
Bl. 108B,Strada Simion Popa,310273,46.1792337,21.3479063
Bl. 108C,Strada Simion Popa,310273,46.1793626,21.3473113
Bl. 108D,Strada Simion Popa,310273,46.1794978,21.3467173
Bl. 108E,Strada Simion Popa,310273,46.1796264,21.3461154
Bloc 1,Strada Imașului,310273,46.1791496,21.3457238
Bloc 3,Strada Imașului,310273,46.1788491,21.3455818
Bloc 5,Strada Imașului,310273,46.1785499,21.3454423
Bl. 7,Strada Abrud,310274,46.1779487,21.3450676
Bl. 123,Strada Abrud,310274,46.1778115,21.3455086
Bl. 124,Strada Abrud,310274,46.1775734,21.3459518
Nr.20 Bloc 150 Sc.B,Strada Simion Popa,310273,46.1784050,21.3499040
Nr.20 Bloc 150 Sc.A,Strada Simion Popa,310273,46.1783473,21.3501581
Nr.22 Bloc 151 Sc.B,Strada Simion Popa,310273,46.1782836,21.3503959
Nr.22 Bloc 151 Sc.A,Strada Simion Popa,310273,46.1782233,21.3506567
Nr.24 Bloc 152 Sc.B,Strada Simion Popa,310273,46.1781565,21.3509399
Nr.24 Bloc 152 Sc.A,Strada Simion Popa,310273,46.1780976,21.3511978
Nr.26 Bl. 153,Strada Simion Popa,310273,46.1780033,21.3514624
154,Strada Semănătorilor,310283,46.1777863,21.3515847
155,Strada Milova,310284,46.1776982,21.3514030
Bl. 255 Sc.B,Strada Simion Popa,310273,46.1789227,21.3489224
Bl. 255 Sc.A,Strada Simion Popa,310273,46.1788391,21.3492466
Bl. 149,Strada Simion Popa,310273,46.1783829,21.3496759
Bl. 148,Strada Simion Popa,310273,46.1781764,21.3495504
Bloc 147,Strada Simion Popa,310273,46.1785361,21.3493075
Bl. 146,Strada Simion Popa,310273,46.1785341,21.3489999
Bl. V2 Sc.A,Strada Rarău,310165,46.1953815,21.3200901
Bl. V3 Sc.D,Strada Rarău,310165,46.1961376,21.3199227
Bl. V1 Sc.B,Strada Rarău,310165,46.1954521,21.3198402
Bl. V1 Sc.A,Strada Rarău,310165,46.1956887,21.3198270
Bl. V5,Strada Curtici,310165,46.1978404,21.3200546
Bl. V6 Sc.A,Strada Curtici,310165,46.1981784,21.3195822
Bl. V6 Sc.B,Strada Curtici,310165,46.1981308,21.3199515
12a,Strada Fluturilor,310378,46.1995383,21.2909194
12a,Strada Fluturilor,310378,46.1994245,21.2911008
10A,Strada Predeal,310377,46.1996910,21.2889654
9A,Strada Predeal,310377,46.1999357,21.2892790
8A,Strada Predeal,310377,46.2001635,21.2895743
7A,Strada Predeal,310377,46.2004104,21.2898727
1A,Strada Predeal,310377,46.2007401,21.2902413
Bl. 100 Sc.B,Strada Curtici,310165,46.1985473,21.3193664
Bl. 100 Sc.A,Strada Curtici,310165,46.1987709,21.3195211
41,Strada Barbu Lăutaru,310076,46.1630597,21.2929553
Bl. 2,Strada Avrig,310147,46.1877731,21.3244844
Bl. 4,Strada Avrig,310147,46.1878456,21.3240995
Bl. 6,Strada Avrig,310147,46.1879416,21.3236833
Bl. 15,Strada Miron Costin,310146,46.1883222,21.3224094
Bl. 13,Strada Miron Costin,310146,46.1881486,21.3224066
Bl. 25,Strada Avrig,310147,46.1878505,21.3222434
Bl. 11,Strada Miron Costin,310146,46.1876936,21.3222728
Bl. 9,Strada Miron Costin,310146,46.1875153,21.3221978
Bl. 7,Strada Miron Costin,310146,46.1873947,21.3220328
Bl. 5,Strada Miron Costin,310146,46.1871504,21.3219456
Bl. 3,Strada Miron Costin,310146,46.1869937,21.3219724
Bl. 1,Strada Miron Costin,310146,46.1868162,21.3218960
Bl. 16,Strada Nelu Aristide Dragomir,310145,46.1866862,21.3217565
Bl. 6,Strada Miron Costin,310146,46.1872457,21.3226816
Bl. 8,Strada Miron Costin,310146,46.1875856,21.3227354
Bl. 23,Strada Avrig,310147,46.1877057,21.3229116
Bl. 21,Strada Avrig,310147,46.1876549,21.3231384
Bl. 42,Strada Ștefan Augustin Doinaș,310004,46.1840579,21.3197347
Bl. 43 Sc.B,Strada Ștefan Augustin Doinaș,310004,46.1838793,21.3188484
Bl. L1,Strada Corneliu Coposu,310003,46.1845156,21.3184297
Bl. L2,Strada Corneliu Coposu,310003,46.1843837,21.3188121
Bl. L3,Strada Corneliu Coposu,310003,46.1842585,21.3191778
Bl. L4 Sc.B,Strada Ștefan Augustin Doinaș,310004,46.1841217,21.3191335
Bl. L4 Sc.A,Strada Ștefan Augustin Doinaș,310004,46.1839914,21.3190327
Bl. L5,Strada Corneliu Coposu,310003,46.1842060,21.3186495
Bl. 45 Sc.B,Strada Corneliu Coposu,310003,46.1843011,21.3181869
Bl. 45 Sc.A,Strada Corneliu Coposu,310003,46.1842214,21.3183955
Bl. 10 Sc.B,Strada Corneliu Coposu,310003,46.1844258,21.3178884
Bl. 10 Sc.A,Strada Corneliu Coposu,310003,46.1846235,21.3180386
Bl. C Sc.B,Strada Corneliu Coposu,310003,46.1845512,21.3176195
Bl. C Sc.A,Strada Corneliu Coposu,310003,46.1847087,21.3177346
Bl. B,Strada Corneliu Coposu,310003,46.1848365,21.3172761
Bl. 1,Strada Banu Mărăcine,310150,46.1847750,21.3162831
Bl. 3,Strada Banu Mărăcine,310150,46.1845094,21.3156415
Bl. 5,Strada Banu Mărăcine,310150,46.1842599,21.3153014
Bl. 7,Strada Banu Mărăcine,310150,46.1840064,21.3149657
Bl. 9,Strada Banu Mărăcine,310150,46.1837501,21.3146330
Bl. 11 Sc.B,Strada Banu Mărăcine,310150,46.1834310,21.3140582
Bl. 11 Sc.A,Strada Banu Mărăcine,310150,46.1834958,21.3143205
Bl. 13,Strada Banu Mărăcine,310150,46.1830970,21.3140925
Bl. 17,Strada Banu Mărăcine,310150,46.1828557,21.3136633
Bl. 15,Strada Banu Mărăcine,310150,46.1831912,21.3136092
Bl. 19 Sc.A,Strada Banu Mărăcine,310150,46.1829731,21.3131931
Bl. 19 Sc.B,Strada Banu Mărăcine,310150,46.1828268,21.3129757
Bl. 21 Sc.B,Strada Banu Mărăcine,310150,46.1825809,21.3123934
Bl. 21 Sc.C,Aleea Făget,310153,46.1824848,21.3121523
Bl. G Sc.A,Aleea Făget,310153,46.1821976,21.3119958
Bl. G Sc.B,Aleea Făget,310153,46.1823302,21.3120959
Bl. 40 Sc.C,Aleea Făget,310153,46.1819433,21.3117567
Bl. 40 Sc.B,Aleea Făget,310153,46.1818188,21.3116712
Bl. H,Piața Spitalului,310031,46.1823907,21.3114401
Bl. 12 Sc.A,Strada Coriolan Petreanu,310151,46.1829446,21.3113759
Bl. 8,Strada Banu Mărăcine,310150,46.1831479,21.3125499
Bl. 6 Sc.A,Strada Banu Mărăcine,310150,46.1833377,21.3129573
Bl. 6 Sc.B,Strada Banu Mărăcine,310150,46.1834695,21.3131917
Bl. 4 Sc.A,Strada Banu Mărăcine,310150,46.1836755,21.3135691
Bl. 4 Sc.B,Strada Banu Mărăcine,310150,46.1838097,21.3138166
Bl. 2 Sc.A,Strada Banu Mărăcine,310150,46.1840582,21.3141500
Bl. 2 Sc.B,Strada Banu Mărăcine,310150,46.1842109,21.3143536
1,Aleea Agnita,310006,46.1840151,21.3158356
1,Aleea Agnita,310006,46.1838810,21.3157364
1,Aleea Agnita,310006,46.1837654,21.3156466
2,Aleea Agnita,310006,46.1837365,21.3161817
2,Aleea Agnita,310006,46.1836124,21.3160815
3,Aleea Agnita,310006,46.1835697,21.3166197
3,Aleea Agnita,310006,46.1834434,21.3165150
4,Aleea Agnita,310006,46.1834786,21.3170732
4,Aleea Agnita,310006,46.1833148,21.3169524
28 Bis,Strada Andrei Mureșanu,310011,46.1829570,21.3168992
60,Strada Mucius Scaevola,310107,46.1620094,21.3183571
60,Strada Mucius Scaevola,310107,46.1621813,21.3184403
44A,Strada Mucius Scaevola,310107,46.1635843,21.3188814
Bl. K1 Sc.1,Calea Romanilor,310112,46.1622428,21.3238613
Bl. K1 Sc.2,Calea Romanilor,310112,46.1620810,21.3239103
Bl. K1 Sc.3,Calea Romanilor,310112,46.1619177,21.3239654
Bl. K1 Sc.4,Calea Romanilor,310112,46.1617584,21.3240173
Bl. K1 Sc.5,Calea Romanilor,310112,46.1616274,21.3238822
Bl. L1 Sc.A,Calea Romanilor,310112,46.1662801,21.3218787
20,Strada Dacilor,310117,46.1660122,21.3225621
3,Piața Arenei,310112,46.1674486,21.3212107
Bl. E Sc.B,Piața Arenei,310112,46.1664762,21.3206257
Bl. E Sc.A,Piața Arenei,310112,46.1665229,21.3209332
Bl. K2 Sc.B,Calea Romanilor,310112,46.1661369,21.3213311
Bl. K2 Sc.A,Calea Romanilor,310112,46.1659307,21.3214564
10,Strada Haiducilor,310110,46.1653187,21.3211565
10,Strada Haiducilor,310110,46.1651432,21.3211385
10,Strada Haiducilor,310110,46.1649666,21.3211283
12,Calea Romanilor,310112,46.1654281,21.3217099
12,Calea Romanilor,310112,46.1652619,21.3217790
20-22,Calea Romanilor,310112,46.1641809,21.3222339
20-22,Strada Haiducilor,310110,46.1640256,21.3221279
20-22,Strada Haiducilor,310110,46.1638373,21.3222082
20-22,Strada Haiducilor,310110,46.1636496,21.3222891
Bl. A3 Sc.B,Calea Romanilor,310112,46.1620322,21.3226217
Bl. A3 Sc.A,Calea Romanilor,310112,46.1618209,21.3225629
25-29,Strada Patria,310106,46.1620515,21.3221690
25-29,Strada Patria,310106,46.1618278,21.3221009
21,Strada Patria,310106,46.1624180,21.3220813
10,Strada Moților,310106,46.1634875,21.3209934
10,Strada Moților,310106,46.1638625,21.3208468
Bl. 225,Strada Simion Popa,310273,46.1778505,21.3523834
Bl. 227,Strada Simion Popa,310273,46.1777361,21.3527707
Bl. 228 Sc.C,Strada Simion Popa,310273,46.1777014,21.3530282
Bl. 228 Sc.B,Strada Simion Popa,310273,46.1776479,21.3532559
Bl. 228 Sc.A,Strada Simion Popa,310273,46.1775946,21.3534868
Bl. 229 Sc.B,Strada Simion Popa,310273,46.1775379,21.3537236
Bl. 217,Strada Abrud,310274,46.1765449,21.3540623
Bl. 218 Sc.B,Strada Abrud,310274,46.1765879,21.3537782
Bl. 218 Sc.A,Strada Abrud,310274,46.1766394,21.3535402
Bl. 219 Sc.A,Strada Abrud,310274,46.1767176,21.3532808
Bl. 219 Sc.B,Strada Abrud,310274,46.1767801,21.3529912
Bl. 222 Sc.A,Strada Semănătorilor,310283,46.1773167,21.3521049
Bl. 222 Sc.B,Strada Semănătorilor,310283,46.1771541,21.3521559
Bl. 221,Strada Semănătorilor,310283,46.1769616,21.3522763
Bl. 220,Strada Abrud,310274,46.1768831,21.3525778
Bl. 254 Sc.B,Strada Milova,310284,46.1774220,21.3516825
Bl. 254 Sc.A,Strada Milova,310284,46.1772038,21.3517565
Bl. 253 Sc.B,Strada Milova,310284,46.1773739,21.3512671
Bl. 253 Sc.A,Strada Milova,310284,46.1771550,21.3513248
Bl. 252 Sc.B,Strada Milova,310284,46.1773211,21.3508399
Bl. 252 Sc.A,Strada Milova,310284,46.1771132,21.3508957
Bl. 251 Sc.B,Strada Milova,310284,46.1772684,21.3503923
Bl. 251 Sc.A,Strada Milova,310284,46.1770618,21.3504533
Bl. 156,Strada Abrud,310274,46.1769133,21.3517160
Bl. 157 Sc.B,Strada Abrud,310274,46.1768727,21.3513898
Bl. 157 Sc.A,Strada Abrud,310274,46.1768484,21.3510584
Bl. 158 Sc.C,Strada Abrud,310274,46.1768241,21.3507321
Bl. 158 Sc.B,Strada Abrud,310274,46.1768024,21.3504237
Bl. 158 Sc.A,Strada Abrud,310274,46.1767769,21.3501182
Bl. 160,Strada Mioriței,310275,46.1767690,21.3490808
Bl. 159 Sc.A,Strada Abrud,310274,46.1767232,21.3493119
Bl. 159 Sc.B,Strada Abrud,310274,46.1767444,21.3496100
Bl. 161,Strada Mioriței,310275,46.1769640,21.3491750
Bl. 250 Sc.A,Strada Mioriței,310275,46.1777212,21.3490800
Bl. 250 Sc.B,Strada Mioriței,310275,46.1774789,21.3490344
Bl. 250 Sc.C,Strada Mioriței,310275,46.1772407,21.3490679
Bl. 249 Sc.A,Strada Mioriței,310275,46.1782230,21.3489484
Bl. 249 Sc.B,Strada Mioriței,310275,46.1780370,21.3489725
Bl. 236,Strada Abrud,310274,46.1766319,21.3521734
Bl. 235,Strada Abrud,310274,46.1766427,21.3515574
Bl. 216,Strada Săvârșin,310288,46.1765713,21.3511970
Bl. 215,Strada Săvârșin,310288,46.1763533,21.3510324
Bl. 214 Sc.A,Strada Săvârșin,310288,46.1759931,21.3508653
Bl. 214 Sc.B,Strada Săvârșin,310288,46.1760055,21.3511081
Bl. 213 Sc.B,Strada Săvârșin,310288,46.1757937,21.3507724
Bl. 213 Sc.A,Strada Săvârșin,310288,46.1755991,21.3506762
Bl. 212,Strada Săvârșin,310288,46.1754312,21.3506723
Bl. 211,Strada Săvârșin,310288,46.1751685,21.3504613
Bl. 210,Strada Săvârșin,310288,46.1749589,21.3503058
Bl. 209,Strada Săvârșin,310288,46.1748588,21.3500392
Bl. 208,Strada Săvârșin,310288,46.1747694,21.3497888
Bl. 207,Strada Mioriței,310275,46.1745798,21.3498765
Bl. 240,Strada Mioriței,310275,46.1745966,21.3505422
1/C,Strada Poetului,310345,46.1949022,21.3102500
1/C,Strada Poetului,310345,46.1944764,21.3102061
1/C,Strada Poetului,310345,46.1940874,21.3101385
1/C,Strada Poetului,310345,46.1948683,21.3109815
1/C,Strada Poetului,310345,46.1944572,21.3108980
1/C,Strada Poetului,310345,46.1940528,21.3108671
1/C,Strada Poetului,310345,46.1940264,21.3114093
1/C,Strada Poetului,310345,46.1937371,21.3115747
1/C,Strada Poetului,310345,46.1947605,21.3117714
1/C,Strada Poetului,310345,46.1945033,21.3114766
1/C,Strada Poetului,310345,46.1944852,21.3123568
1/C,Strada Poetului,310345,46.1938054,21.3122028
1/C,Strada Poetului,310345,46.1946382,21.3130313
1/C,Strada Poetului,310345,46.1943455,21.3131774
1/C,Strada Poetului,310345,46.1938496,21.3130865
1/C,Strada Poetului,310345,46.1936146,21.3128278
Bl. F Sc.A,Aleea Făget,310153,46.1819371,21.3122770
Bl. F Sc.B,Aleea Făget,310153,46.1820685,21.3123739
Bl. E Sc.A,Aleea Făget,310153,46.1817899,21.3126500
Bl. E Sc.B,Aleea Făget,310153,46.1819245,21.3127468
Bl. D Sc.A,Aleea Făget,310153,46.1816696,21.3130356
Bl. D Sc.B,Aleea Făget,310153,46.1818184,21.3131498
Bl. D Sc.C,Aleea Făget,310153,46.1819671,21.3132639
Bl. 43,Piața Sporturilor,310167,46.1790509,21.3351015
Bl. 44,Piața Sporturilor,310167,46.1792541,21.3351190
Bl. 45,Piața Sporturilor,310167,46.1794510,21.3351969
Bl. 46,Piața Sporturilor,310167,46.1796309,21.3352429
Bl. 15B,Strada Ioan Alexandru,310170,46.1796493,21.3291167
Bl. 15A,Strada Ioan Alexandru,310170,46.1798257,21.3291738
Bl. 15,Strada Ioan Alexandru,310170,46.1799879,21.3294426
Bl. 14 Sc.B,Strada Ioan Alexandru,310170,46.1796761,21.3287366
Bl. 14 Sc.A,Strada Ioan Alexandru,310170,46.1798609,21.3287920
Bl. 9 Sc.A,Strada Sabin Drăgoi,310178,46.1798081,21.3272865
Bl. 7,Strada Sabin Drăgoi,310178,46.1802895,21.3274578
Bl. 8,Strada Nelu Aristide Dragomir,310145,46.1864696,21.3228671
Bl. 6,Strada Nelu Aristide Dragomir,310145,46.1864158,21.3231265
21-23,Strada Avrig,310147,46.1873616,21.3242133
Bl. C1 Sc.B,Strada Avrig,310147,46.1880830,21.3234086
Bl. C1 Sc.A,Strada Avrig,310147,46.1882045,21.3234579
Bl. C2 Sc.B,Strada Avrig,310147,46.1881443,21.3237848
Bl. C2 Sc.A,Strada Avrig,310147,46.1882659,21.3238470
Bl. 15,Strada Avrig,310147,46.1873678,21.3245662
Bl. 13,Strada Avrig,310147,46.1873291,21.3247565
Bl. C Sc.B,Aleea Azuga,310148,46.1868758,21.3245451
Bl. D Sc.B,Aleea Azuga,310148,46.1869616,21.3241034
Bl. E Sc.B,Aleea Azuga,310148,46.1870664,21.3235963
Bl. F Sc.B,Aleea Azuga,310148,46.1871534,21.3231506
Bl. 125 Sc.A,Strada Abrud,310274,46.1772838,21.3464586
Bl. 125 Sc.B,Strada Abrud,310274,46.1771116,21.3466547
Bl. 126 Sc.A,Strada Abrud,310274,46.1769833,21.3468927
Bl. 126 Sc.B,Strada Abrud,310274,46.1768599,21.3471255
103,Strada Abrud,310274,46.1767665,21.3474151
Bl. 162,Strada Mioriței,310275,46.1764792,21.3485157
Bl. 163 Sc.A,Strada Abrud,310274,46.1765771,21.3482860
Bl. 163 Sc.B,Strada Abrud,310274,46.1766269,21.3480741
Bl. 164 Sc.B,Strada Abrud,310274,46.1764192,21.3478826
Bl. 165 Sc.B,Strada Abrud,310274,46.1762978,21.3480362
Bl. 165 Sc.A,Strada Mioriței,310275,46.1762286,21.3482206
Bl. 164 Sc.A,Strada Abrud,310274,46.1765853,21.3478430
Bl. 179,Strada Mioriței,310275,46.1759643,21.3484101
36,Strada Mioriței,310275,46.1757889,21.3486068
36,Strada Mioriței,310275,46.1756181,21.3487269
38,Strada Mioriței,310275,46.1754482,21.3488470
40,Strada Mioriței,310275,46.1752720,21.3489616
42,Strada Mioriței,310275,46.1749590,21.3491139
44,Strada Mioriței,310275,46.1747502,21.3492483
44,Strada Mioriței,310275,46.1745777,21.3493475
44,Strada Mioriței,310275,46.1743971,21.3494250
46,Strada Mioriței,310275,46.1742050,21.3494811
Bl. 187 Sc.A,Strada Mioriței,310275,46.1732030,21.3498233
Bl. 187 Sc.B,Strada Mioriței,310275,46.1729557,21.3498183
Bl. 188,Strada Mioriței,310275,46.1727266,21.3499789
Bl. 189 Sc.A,Strada Voinicilor,310304,46.1725902,21.3502915
Bl. 189 Sc.B,Strada Voinicilor,310304,46.1725200,21.3506276
Bl. 190 Sc.A,Strada Voinicilor,310304,46.1723511,21.3510842
Bl. 190 Sc.B,Strada Voinicilor,310304,46.1723011,21.3513142
Bl. 190 Sc.C,Strada Voinicilor,310304,46.1722525,21.3515380
Bl. 191,Strada Voinicilor,310304,46.1722276,21.3518057
Bl. 192 Sc.A,Strada Voinicilor,310304,46.1721098,21.3521825
Bl. 192 Sc.B,Strada Voinicilor,310304,46.1720602,21.3524205
Bl. 193 Sc.A,Strada Voinicilor,310304,46.1720246,21.3526723
Bl. 193 Sc.B,Strada Pășunii,310295,46.1721424,21.3527867
Bl. 194 Sc.B,Strada Pășunii,310295,46.1722950,21.3528541
Bl. 194 Sc.A,Strada Simfoniei,310287,46.1724356,21.3528607
Bl. 195,Strada Simfoniei,310287,46.1724825,21.3524570
Bl. 196,Strada Simfoniei,310287,46.1725974,21.3521787
Bl. 200,Strada Simfoniei,310287,46.1729719,21.3503868
Bl. 199 Sc.A,Strada Simfoniei,310287,46.1729114,21.3507530
Bl. 199 Sc.B,Strada Simfoniei,310287,46.1728349,21.3510614
Bl. 201,Strada Simfoniei,310287,46.1732353,21.3505695
Bl. 202,Strada Mioriței,310275,46.1733114,21.3502772
51,Strada Mioriței,310275,46.1735247,21.3502013
51,Strada Mioriței,310275,46.1737262,21.3501567
Bl. 204,Strada Mioriței,310275,46.1739099,21.3500691
Bl. 205,Strada Mioriței,310275,46.1740996,21.3500101
Bl. 206,Strada Mioriței,310275,46.1743071,21.3499888
Bl. 173 Sc.D,Strada Săvârșin,310288,46.1758149,21.3497304
Bl. 173 Sc.C,Strada Săvârșin,310288,46.1760271,21.3502067
Bl. 173 Sc.B,Strada Săvârșin,310288,46.1757347,21.3501480
Bl. 173,Strada Săvârșin,310288,46.1753569,21.3501456
Bl. 174,Strada Săvârșin,310288,46.1751454,21.3500175
Bl. 175,Strada Săvârșin,310288,46.1750314,21.3496919
Bl. 176,Strada Mioriței,310275,46.1751756,21.3494903
Bl. 177 Sc.B,Strada Mioriței,310275,46.1753863,21.3493407
Bl. 177 Sc.A,Strada Mioriței,310275,46.1755520,21.3492132
Bl. 178 Sc.B,Strada Mioriței,310275,46.1757252,21.3491393
Bl. 166,Strada Mioriței,310275,46.1760288,21.3488970
Bl. 167,Strada Mioriței,310275,46.1762427,21.3489362
Bl. 168,Strada Mioriței,310275,46.1764208,21.3490677
Bl. 169 Sc.C,Strada Abrud,310274,46.1764898,21.3493547
Bl. 169 Sc.B,Strada Abrud,310274,46.1765081,21.3496084
Bl. 169 Sc.A,Strada Abrud,310274,46.1765250,21.3498547
Bl. 170 Sc.B,Strada Abrud,310274,46.1765424,21.3500978
Bl. 170 Sc.A,Strada Abrud,310274,46.1765602,21.3503478
Bl. 171,Strada Săvârșin,310288,46.1765250,21.3506480
Bl. 172,Strada Săvârșin,310288,46.1763258,21.3506003
Bl. 128,Strada Mioriței,310275,46.1768297,21.3486387
Bl. 129 Sc.D,Strada Abrud,310274,46.1768219,21.3483480
Bl. 129 Sc.C,Strada Abrud,310274,46.1768719,21.3481054
Bl. 129 Sc.B,Strada Abrud,310274,46.1769250,21.3478461
Bl. 129 Sc.A,Strada Abrud,310274,46.1770104,21.3476373
Bl. 130 Sc.A,Strada Abrud,310274,46.1771841,21.3473197
Bl. 130 Sc.B,Strada Abrud,310274,46.1772689,21.3470883
Bl. 131,Strada Prieteniei,310275,46.1774230,21.3469003
Bl. 132 Sc.B,Strada Prieteniei,310275,46.1776456,21.3469307
Bl. 132 Sc.A,Strada Prieteniei,310275,46.1778633,21.3470320
Bl. 133,Strada Prieteniei,310275,46.1780648,21.3471979
Bl. 134,Strada Prieteniei,310275,46.1783518,21.3473027
Bl. 135 Sc.B,Strada Prieteniei,310275,46.1785388,21.3473415
Bl. 135 Sc.A,Strada Prieteniei,310275,46.1787031,21.3474157
Bl. 136,Strada Prieteniei,310275,46.1788912,21.3475028
Bl. 137 Sc.B,Strada Simion Popa,310273,46.1788959,21.3477742
Bl. 137 Sc.A,Strada Simion Popa,310273,46.1788201,21.3481203
Bl. 138,Strada Simion Popa,310273,46.1787114,21.3484380
Bl. 139,Strada Mioriței,310275,46.1785135,21.3485322
Bl. 247 Sc.C,Strada Mioriței,310275,46.1781630,21.3485143
Bl. 247 Sc.B,Strada Mioriței,310275,46.1779252,21.3485372
Bl. 247 Sc.A,Strada Mioriței,310275,46.1776790,21.3484920
Bl. 248 Sc.B,Strada Mioriței,310275,46.1773409,21.3486115
Bl. 248 Sc.A,Strada Mioriței,310275,46.1771532,21.3486317
Bl. 143,Strada Mioriței,310275,46.1778719,21.3476227
Bl. 142,Strada Mioriței,310275,46.1778788,21.3479140
Bl. 141 Sc.B,Strada Mioriței,310275,46.1781100,21.3480356
Bl. 141 Sc.A,Strada Mioriței,310275,46.1783378,21.3480239
Bl. 140,Strada Mioriței,310275,46.1785868,21.3479318
Bl. 117,Strada Abrud,310274,46.1778105,21.3463109
104,Strada Abrud,310275,46.1776816,21.3464969
Bl. 115 Sc.A,Strada Prieteniei,310275,46.1778794,21.3466979
Bl. 115 Sc.B,Strada Prieteniei,310275,46.1780846,21.3467924
Bl. 114 Sc.A,Strada Prieteniei,310275,46.1782873,21.3468848
Bl. 114 Sc.B,Strada Prieteniei,310275,46.1784905,21.3469792
Bl. 113 Sc.A,Strada Prieteniei,310275,46.1784288,21.3465457
Bl. 113 Sc.B,Strada Prieteniei,310275,46.1786655,21.3466538
Bl. 112 Sc.A,Strada Prieteniei,310275,46.1787928,21.3468970
Bl. 112 Sc.B,Strada Prieteniei,310275,46.1787905,21.3471136
Bl. 111,Strada Simion Popa,310273,46.1789820,21.3471504
Bl. 110 Sc.A,Strada Simion Popa,310273,46.1790898,21.3468831
Bl. 110 Sc.B,Strada Simion Popa,310273,46.1791595,21.3465810
Bl. 109 Sc.A,Strada Simion Popa,310273,46.1792253,21.3462959
Bl. 122 Sc.B,Strada Abrud,310274,46.1779295,21.3459646
Bl. 122 Sc.A,Strada Abrud,310274,46.1780314,21.3457289
Bl. 121,Strada Abrud,310274,46.1781792,21.3455232
Bl. 2 Sc.B,Strada Imașului,310273,46.1793623,21.3453152
Bl. 2 Sc.A,Strada Imașului,310273,46.1791346,21.3452068
Bl. 4 Sc.D,Strada Imașului,310273,46.1788057,21.3450525
Bl. 4 Sc.C,Strada Imașului,310273,46.1786054,21.3449581
Bl. 4 Sc.B,Strada Imașului,310273,46.1784054,21.3448631
Bl. 4a Sc.B,Strada Imașului,310273,46.1782433,21.3447971
Bl. 4a Sc.A,Strada Caius Lepa,310275,46.1782124,21.3446269
Bl. 106 Sc.B,Strada Caius Lepa,310275,46.1787584,21.3433062
Bl. 106 Sc.A,Strada Caius Lepa,310275,46.1788523,21.3431001
Bl. 105 Sc.D,Strada Bârzava,310272,46.1791884,21.3432501
Bl. 105 Sc.C,Strada Bârzava,310272,46.1794210,21.3433728
Bl. 105 Sc.B,Strada Bârzava,310272,46.1795631,21.3435589
Bl. 105 Sc.A,Strada Bârzava,310272,46.1794936,21.3438335
Bl. 104 Sc.D,Strada Caius Lepa,310275,46.1790579,21.3427003
Bl. 104 Sc.C,Strada Caius Lepa,310275,46.1791650,21.3424742
Bl. 104 Sc.B,Strada Caius Lepa,310275,46.1793338,21.3421155
Bl. 104 Sc.A,Strada Caius Lepa,310275,46.1794379,21.3418909
Bl. 102 Sc.A,Strada Iuliu Toader,310271,46.1802927,21.3417960
Bl. 102 Sc.B,Strada Iuliu Toader,310271,46.1802472,21.3415005
Bl. 102 Sc.C,Strada Iuliu Toader,310271,46.1800262,21.3414000
Bl. 102 Sc.D,Strada Iuliu Toader,310271,46.1798077,21.3412999
Bl. 102 Sc.E,Strada Caius Lepa,310275,46.1796507,21.3415396
127B,Calea Radnei,310267,46.1794849,21.3493518
133,Calea Radnei,310282,46.1789576,21.3511128
143,Calea Radnei,310291,46.1786774,21.3526243
109,Calea Radnei,317380,46.1802538,21.3459717
127b,Calea Radnei,310281,46.1793205,21.3492870
34,Strada Voinicilor,310304,46.1714930,21.3556732
Bl. 245 Sc.C,Strada Voinicilor,310304,46.1719019,21.3548788
Bl. 246 Sc.B,Strada Voinicilor,310304,46.1724470,21.3551307
Bl. 610,Strada Voinicilor,310304,46.1710164,21.3555547
Bl. 611,Strada Beiuș,310299,46.1709106,21.3553909
Bl. 612,Strada Beiuș,310299,46.1706731,21.3553691
Bl. 613,Strada Beiuș,310299,46.1702870,21.3551941
Bl. 614 Sc.A,Strada Beiuș,310299,46.1700796,21.3550081
Bl. 614 Sc.B,Strada Beiuș,310299,46.1699129,21.3549362
Bl. 615,Strada Ciobanului,310298,46.1697702,21.3549681
M1,Strada Ciobanului,310298,46.1699411,21.3554780
Bl. 616,Strada Ciobanului,310298,46.1695198,21.3548752
Bl. 617 Sc.A,Strada Beiuș,310299,46.1694183,21.3547186
Bl. 617 Sc.B,Strada Beiuș,310299,46.1692566,21.3546504
Bl. 618 Sc.A,Strada Beiuș,310299,46.1690879,21.3545787
Bl. 618 Sc.B,Strada Beiuș,310299,46.1689190,21.3545072
Bl. 619 Sc.A,Strada Beiuș,310299,46.1686031,21.3543658
Bl. 619 Sc.B,Strada Beiuș,310299,46.1684001,21.3542759
Bl. 620,Strada Dreptății,310300,46.1682297,21.3543104
21-23 Sc. A,Strada Dreptății,310300,46.1679553,21.3540242
21-23 Sc. B,Strada Vaslui,310302,46.1677484,21.3539181
Bl. 717,Strada Vaslui,310302,46.1679912,21.3535963
Bl. 718 Sc.A,Strada Vaslui,310302,46.1677146,21.3533799
Bl. 718 Sc.B,Strada Vaslui,310302,46.1676071,21.3532284
3,Strada Vaslui,310302,46.1674432,21.3531515
Bl. 719 Sc.B,Strada Vaslui,310302,46.1672794,21.3530742
Bl. 720,Strada Vaslui,310302,46.1670967,21.3529906
Bl. 721 Sc.A,Strada Vaslui,310302,46.1668870,21.3528903
Bl. 721 Sc.B,Strada Frăției,310301,46.1667735,21.3530566
Bl. 722,Strada Frăției,310301,46.1665387,21.3529201
Bl. 723 Sc.A,Strada Vaslui,310302,46.1664725,21.3527307
Bl. 723 Sc.B,Strada Vaslui,310302,46.1662892,21.3526449
Bl. 724,Strada Vaslui,310302,46.1661101,21.3527060
Bl. 725,Strada Vaslui,310302,46.1658671,21.3524820
Bl. 726,Strada Vaslui,310302,46.1656440,21.3524419
Bl. 727,Strada Vaslui,310302,46.1654230,21.3524114
Bl. 728 Sc.A,Strada Marginei,310303,46.1657429,21.3518749
Bl. 728 Sc.B,Strada Vaslui,310302,46.1658449,21.3520339
Bl. 729 Sc.A,Strada Vaslui,310302,46.1660106,21.3521085
Bl. 729 Sc.B,Strada Vaslui,310302,46.1661832,21.3521865
Bl. 730 Sc.A,Strada Vaslui,310302,46.1663565,21.3522639
Bl. 730 Sc.B,Strada Vaslui,310302,46.1665452,21.3523422
Bl. 731 Sc.A,Strada Frăției,310301,46.1666927,21.3522787
Bl. 731 Sc.B,Strada Frăției,310301,46.1667429,21.3520519
Bl. 704 Sc.A,Strada Felix,310301,46.1674804,21.3513714
Bl. 704 Sc.B,Strada Felix,310301,46.1672893,21.3512965
Bl. 705 Sc.A,Strada Frăției,310301,46.1671592,21.3513794
Bl. 705 Sc.B,Strada Frăției,310301,46.1671177,21.3516004
Bl. 706 Sc.A,Strada Frăției,310301,46.1670579,21.3518387
Bl. 706 Sc.B,Strada Frăției,310301,46.1670061,21.3520759
Bl. 707,Strada Frăției,310301,46.1669423,21.3523352
Bl. 708,Strada Vaslui,310302,46.1669725,21.3525835
Bl. 709 Sc.A,Strada Vaslui,310302,46.1671961,21.3526865
Bl. 709 Sc.B,Strada Vaslui,310302,46.1673215,21.3524766
Bl. 710 Sc.A,Strada Vaslui,310302,46.1674455,21.3519830
Bl. 710 Sc.B,Strada Vaslui,310302,46.1676784,21.3520838
Bl. 711,Strada Vaslui,310302,46.1679404,21.3522005
Bl. 712,Strada Vaslui,310302,46.1678886,21.3527085
Bl. 713,Strada Vaslui,310302,46.1679105,21.3529789
Bl. 714 Sc.A,Strada Vaslui,310302,46.1681395,21.3530907
Bl. 714 Sc.B,Strada Dreptății,310300,46.1682599,21.3528766
Bl. 715 Sc.A,Strada Dreptății,310300,46.1683235,21.3525734
Bl. 715 Sc. B,Strada Dreptății,310300,46.1683712,21.3523376
Bl. 716,Strada Dreptății,310300,46.1684356,21.3520537
Bl. 701,Strada Felix,310301,46.1684099,21.3517825
Bl. 702 Sc.A,Strada Felix,310301,46.1681814,21.3516707
Bl. 702 Sc.B,Strada Felix,310301,46.1679383,21.3515593
Bl. 703,Strada Felix,310301,46.1677453,21.3515949
Bl. 732,Strada Frăției,310301,46.1667805,21.3516940
Bl. 733 Sc.A,Strada Frăției,310301,46.1668578,21.3515090
Bl. 733 Sc.B,Strada Frăției,310301,46.1669121,21.3512609
Bl. 734,Strada Frăției,310301,46.1669753,21.3509753
Bl. 573,Strada Felix,310301,46.1673021,21.3508959
Bl. 572 Sc.A,Strada Felix,310301,46.1675413,21.3510158
Bl. 572 Sc.B,Strada Felix,310301,46.1677918,21.3511246
Bl. 571,Strada Batiștei,310312,46.1679808,21.3510942
Bl. 570,Strada Batiștei,310312,46.1680537,21.3507597
Bl. 569 Sc.A,Strada Batiștei,310312,46.1680999,21.3504583
Bl. 569 Sc.B,Strada Batiștei,310312,46.1681498,21.3502399
Bl. 569 Sc.C,Strada Batiștei,310312,46.1682158,21.3499459
Bl. 568,Strada Batiștei,310312,46.1682792,21.3495966
Bl. 554 Sc.A,Strada Batiștei,310312,46.1684075,21.3501739
Bl. 554 Sc.B,Strada Batiștei,310312,46.1683316,21.3505345
Bl. 554 Sc.C,Strada Batiștei,310312,46.1682758,21.3508322
Bl. 553,Strada Batiștei,310312,46.1682227,21.3511109
Bl. 552 Sc.A,Strada Felix,310301,46.1683501,21.3512945
Bl. 552 Sc.B,Strada Felix,310301,46.1685508,21.3513863
Bl. 552 Sc.C,Strada Felix,310301,46.1687542,21.3514764
Bl. 551,Strada Felix,310301,46.1689628,21.3515755
Bl. 550 Sc.A,Strada Nucet,310311,46.1690763,21.3514390
Bl. 550 Sc.B,Strada Nucet,310311,46.1691285,21.3512055
Bl. 549,Strada Nucet,310311,46.1690931,21.3509860
Bl. 548,Strada Nucet,310311,46.1688992,21.3508855
Bl. 564 Sc.A,Strada Nucet,310311,46.1686697,21.3507637
Bl. 564 Sc.B,Strada Nucet,310311,46.1687308,21.3504578
Bl. 564 Sc.C,Strada Nucet,310311,46.1688015,21.3501088
Bl. 563 Sc.A,Strada Nucet,310311,46.1688731,21.3497668
Bl. 563 Sc.B,Strada Nucet,310311,46.1689485,21.3494829
Bl. 565,Strada Nucet,310311,46.1692621,21.3500013
Bl. 566,Strada Nucet,310311,46.1691959,21.3503183
Bl. 567,Strada Nucet,310311,46.1691326,21.3506231
Bl. 562,Strada Nucet,310311,46.1691851,21.3496148
Bl. 561,Strada Nucet,310311,46.1693805,21.3497015
Bl. 560,Strada Nucet,310311,46.1695051,21.3494836
Bl. 559,Strada Alba Iulia,310310,46.1694779,21.3492138
Bl. 558 Sc.A,Strada Alba Iulia,310310,46.1692870,21.3491409
Bl. 558 Sc.B,Strada Alba Iulia,310310,46.1691252,21.3490661
Bl. 558 Sc.C,Strada Alba Iulia,310310,46.1689601,21.3489912
Bl. 557,Strada Alba Iulia,310310,46.1687725,21.3488722
Bl. 556 Sc.A,Strada Batiștei,310312,46.1686561,21.3490201
Bl. 556 Sc.B,Strada Batiștei,310312,46.1685906,21.3493182
Bl. 556 Sc.C,Strada Batiștei,310312,46.1685238,21.3496087
Bl. 555,Strada Batiștei,310312,46.1685702,21.3498292
Bl. 585,Strada Alba Iulia,310310,46.1686338,21.3483593
Bl. 584,Strada Alba Iulia,310310,46.1687752,21.3485433
Bl. 583,Strada Alba Iulia,310310,46.1690184,21.3486576
Bl. 582,Strada Alba Iulia,310310,46.1692115,21.3486273
Bl. 581,Strada Alba Iulia,310310,46.1694351,21.3486669
Bl. 580,Strada Alba Iulia,310310,46.1695796,21.3488482
Bl. 579 Sc.A,Strada Alba Iulia,310310,46.1697865,21.3489387
Bl. 579 Sc.B,Strada Alba Iulia,310310,46.1699917,21.3490430
Bl. 578,Strada Alba Iulia,310310,46.1701814,21.3489995
Bl. 577,Strada Alba Iulia,310310,46.1703958,21.3491190
Bl. 576,Strada Alba Iulia,310310,46.1705406,21.3492731
Bl. 575,Strada Alba Iulia,310310,46.1707890,21.3493825
Bl. 574,Strada Alba Iulia,310310,46.1709779,21.3493343
Bl. 538,Strada Alba Iulia,310310,46.1713266,21.3496620
Bl. 537,Strada Alba Iulia,310310,46.1715993,21.3497109
Bl. 536,Strada Alba Iulia,310310,46.1717933,21.3497760
Bl. 501,Strada Alba Iulia,310310,46.1720074,21.3499368
Bl. 502,Strada Voinicilor,310304,46.1720728,21.3502855
Bl. 503 Sc.B,Strada Voinicilor,310304,46.1719746,21.3509345
Bl. 503 Sc.A,Strada Voinicilor,310304,46.1719502,21.3512428
Bl. 504,Strada Zalău,310307,46.1718276,21.3514082
Bl. 505,Strada Zalău,310307,46.1717656,21.3517077
Bl. 506 Sc.D,Strada Voinicilor,310304,46.1718100,21.3519245
Bl. 506 Sc.C,Strada Voinicilor,310304,46.1717534,21.3521588
Bl. 506 Sc.B,Strada Voinicilor,310304,46.1716988,21.3523920
Bl. 506 Sc.A,Strada Voinicilor,310304,46.1716633,21.3526370
Bl. 507,Strada Voinicilor,310304,46.1715443,21.3527859
Bl. 509,Strada Voinicilor,310304,46.1714329,21.3534922
Bl. 508,Strada Voinicilor,310304,46.1714326,21.3532086
Bl. 510,Aleea Borsec,310298,46.1713026,21.3537428
Bl. 511 Sc.A,Aleea Borsec,310298,46.1710821,21.3536217
Bl. 511 Sc.B,Aleea Borsec,310298,46.1708843,21.3535289
Bl. 511 Sc.C,Aleea Borsec,310298,46.1706836,21.3534381
Bl. 511 Sc.D,Aleea Borsec,310298,46.1704812,21.3533428
Bl. 512,Aleea Borsec,310298,46.1702583,21.3532575
Bl. 527 Sc.B,Strada Zalău,310307,46.1714478,21.3516090
Bl. 527 Sc.A,Strada Zalău,310307,46.1712676,21.3515081
59,Strada George Coșbuc,310018,46.1812786,21.3113351
32,Strada Octav Băncilă,310152,46.1856894,21.3127528
Bl. 607,Strada Beiuș,310299,46.1706025,21.3547867
Bl. 605,Strada Beiuș,310299,46.1699653,21.3545399
Bl. 606,Strada Beiuș,310299,46.1701607,21.3546302
Bl. 604,Strada Ciobanului,310298,46.1699542,21.3542693
Bl. 603,Strada Ciobanului,310298,46.1701107,21.3539046
Bl. 602 Sc.B,Aleea Borsec,310298,46.1704388,21.3540279
Bl. 602 Sc.A,Aleea Borsec,310298,46.1708267,21.3542568
Bl. 601,Aleea Borsec,310298,46.1711404,21.3544225
Bl. 609,Aleea Borsec,310298,46.1711597,21.3547533
Bl. 608,Strada Beiuș,310299,46.1710303,21.3549632
Bl. 513 Sc.B,Strada Sighișoara,310308,46.1702328,21.3529661
Bl. 513 Sc.A,Strada Sighișoara,310308,46.1702988,21.3526551
Bl. 514,Strada Sighișoara,310308,46.1704188,21.3522795
Bl. 515 Sc.C,Strada Sighișoara,310308,46.1703883,21.3520579
Bl. 515 Sc.B,Strada Sighișoara,310308,46.1704453,21.3518007
Bl. 515 Sc.A,Strada Sighișoara,310308,46.1705033,21.3515301
Bl. 516,Strada Sighișoara,310308,46.1705769,21.3512427
Bl. 517,Strada Zalău,310307,46.1707616,21.3512194
Bl. 531,Strada Sighișoara,310308,46.1708632,21.3499458
Bl. 530 Sc.A,Strada Sighișoara,310308,46.1707926,21.3502747
Bl. 530 Sc.B,Strada Sighișoara,310308,46.1707031,21.3506113
Bl. 529,Strada Zalău,310307,46.1707268,21.3508912
Bl. 528,Strada Zalău,310307,46.1709378,21.3509982
Bl. 539 Sc.A,Strada Sighișoara,310308,46.1705292,21.3502694
Bl. 539 Sc.B,Strada Sighișoara,310308,46.1706052,21.3499159
Bl. 540,Strada Alba Iulia,310310,46.1705786,21.3496415
Bl. 541 Sc.A,Strada Alba Iulia,310310,46.1703865,21.3495729
Bl. 541 Sc.B,Strada Alba Iulia,310310,46.1702229,21.3495061
Bl. 541 Sc.C,Strada Alba Iulia,310310,46.1700578,21.3494345
Bl. 542,Strada Alba Iulia,310310,46.1698674,21.3493511
Bl. 543,Strada Nucet,310311,46.1697609,21.3494963
Bl. 544,Strada Nucet,310311,46.1694697,21.3508817
Bl. 545,Strada Nucet,310311,46.1694871,21.3511300
Bl. 546,Strada Nucet,310311,46.1697148,21.3512377
Bl. 547,Strada Sighișoara,310308,46.1701919,21.3516505
Bl. 547 Sc.B,Strada Felix,310301,46.1700162,21.3518678
Bl. 547 Sc.A,Strada Felix,310301,46.1698211,21.3517719
11,Aleea Hipocrat,310355,46.1982299,21.2996788
13,Aleea Hipocrat,310355,46.1985645,21.2999371
15,Aleea Hipocrat,310355,46.1988994,21.3001783
2,Aleea Hercule,310357,46.1986562,21.2974583
4,Aleea Hercule,310357,46.1990459,21.2977219
6,Aleea Hercule,310357,46.1994325,21.2979438
8,Aleea Hercule,310357,46.1998038,21.2982257
10,Aleea Hercule,310357,46.2001250,21.2980842
89,Strada Poetului,310345,46.2014494,21.2978977
89,Strada Poetului,310345,46.2016503,21.2982433
89,Strada Poetului,310345,46.2014893,21.2985319
89,Strada Poetului,310345,46.2010993,21.2987740
89,Strada Poetului,310345,46.2011873,21.2981907
Nr.13 Pensiune XE-MAR,Calea Timișorii,310253,46.1568083,21.3223094
Nr.13,Calea Timișorii,310253,46.1567089,21.3224188
1B,Strada Mucius Scaevola,310106,46.1662329,21.3201058
2,Strada Gherghinei,310291,46.1763671,21.3533396
4,Strada Gherghinei,310291,46.1761911,21.3532795
Bl. G Sc.C,Strada Bihorului,310140,46.1880282,21.3260144
Bl. G Sc.B,Strada Bihorului,310140,46.1878525,21.3260652
Bl. G Sc.A,Strada Bihorului,310140,46.1876692,21.3261177
Vila 7,Strada Frații Neumann,310399,46.1925647,21.3098848
Vila 6,Strada Frații Neumann,310399,46.1928466,21.3101881
5,Strada Frații Neumann,310399,46.1930998,21.3104108
5,Strada Frații Neumann,310399,46.1933114,21.3104600
Vila 9,Strada Frații Neumann,310399,46.1931721,21.3100046
Bl. C,Strada Frații Neumann,310399,46.1935267,21.3100393
Vila 8,Strada Frații Neumann,310399,46.1928536,21.3096221
Bl. A Sc.A,Strada Frații Neumann,310399,46.1930715,21.3094600
Bl. A Sc.B,Strada Frații Neumann,310399,46.1932755,21.3095168
Bl. A Sc.C,Strada Frații Neumann,310399,46.1934964,21.3095779
60-75,Calea Aurel Vlaicu,310400,46.1929300,21.3087038
60-76,Calea Aurel Vlaicu,310399,46.1925155,21.3088176
60-76,Calea Aurel Vlaicu,310399,46.1924329,21.3091525
15,Strada Poetului,310345,46.1955479,21.3048680
15a,Strada Poetului,310345,46.1952187,21.3045809
15b,Strada Poetului,310345,46.1948920,21.3042832
2-4,Strada Fulgerului,310346,46.1953905,21.3030284
61B,Strada Poetului,310345,46.1967805,21.3028387
61B,Strada Poetului,310345,46.1969214,21.3025092
61B,Strada Poetului,310345,46.1970780,21.3021792
61B,Strada Poetului,310345,46.1974056,21.3019635
61B,Strada Poetului,310345,46.1973239,21.3016643
61B,Strada Poetului,310345,46.1972407,21.3013476
5-9,Strada Fulgerului,310346,46.1958252,21.3023584
11-15,Strada Fulgerului,310346,46.1960416,21.3026480
15c,Strada Fulgerului,310346,46.1959736,21.3019022
15c,Strada Fulgerului,310346,46.1960589,21.3016937
15c,Strada Fulgerului,310346,46.1961599,21.3014515
15b,Strada Fulgerului,310346,46.1963330,21.3014887
15a,Strada Fulgerului,310346,46.1963062,21.3017591
15a,Strada Fulgerului,310346,46.1962001,21.3020135
15a,Strada Fulgerului,310346,46.1960929,21.3022675
61C,Strada Poetului,310346,46.1966317,21.3022938
61C,Strada Poetului,310346,46.1967578,21.3019902
61C,Strada Poetului,310346,46.1968659,21.3016773
Bl. E Sc.B,Strada Crasna,310187,46.1896974,21.3322259
Bl. E Sc.A,Strada Crasna,310187,46.1898516,21.3323840
Bl. F Sc.B,Strada Crasna,310187,46.1898491,21.3318809
Școala Generală Aron Cotruș,Strada Petru Rareș,310206,46.1900674,21.3310695
2,Strada Petru Rareș,310206,46.1883391,21.3289283
9-11,Strada Ardealului,310188,46.1873469,21.3300690
Bl. T Sc.B,Calea Aurel Vlaicu,310141,46.1862501,21.3259859
Bl. B1,Strada Bihorului,310140,46.1868148,21.3263407
Bl. B3,Strada Bihorului,310140,46.1866206,21.3271154
Bl. C1,Strada Voinicilor,310304,46.1683934,21.3682735
Bl. C2,Strada Voinicilor,310304,46.1682881,21.3688682
Bl. C5,Strada Voinicilor,310304,46.1682028,21.3694541
Bl. C3,Strada Voinicilor,310304,46.1679374,21.3677909
Bl. C4,Strada Voinicilor,310304,46.1678423,21.3683875
Bl. C6,Strada Voinicilor,310304,46.1677434,21.3689779
Bl. 353,Strada Romul Ladea,310341,46.1719023,21.3440838
Bl. 352,Strada Romul Ladea,310341,46.1718815,21.3443835
Bl. 351,Strada Romul Ladea,310341,46.1717601,21.3447389
Bl. 350,Strada Romul Ladea,310341,46.1717588,21.3451146
Bl. 349,Strada Romul Ladea,310341,46.1717553,21.3454955
Bl. 348,Strada Romul Ladea,310341,46.1717700,21.3459840
Bl. 346,Strada Gheorghe Ciuhandru,310339,46.1718575,21.3463662
Bl. 347 Sc.C,Strada Gheorghe Ciuhandru,310339,46.1716264,21.3464234
Bl. 347 Sc.B,Strada Gheorghe Ciuhandru,310339,46.1714250,21.3464257
Bl. 341 Sc.A,Strada Gheorghe Ciuhandru,310339,46.1717103,21.3468842
Bl. 341 Sc.B,Strada Gheorghe Ciuhandru,310339,46.1715084,21.3468143
Bl. 341 Sc.C,Strada Cetinei,310338,46.1714285,21.3469286
Bl. 340 Sc.A,Strada Cetinei,310338,46.1714264,21.3473878
Bl. 340 Sc.B,Strada Cetinei,310338,46.1714260,21.3476013
Bl. 338 Sc.A,Strada Vasile Lucaciu,310327,46.1720198,21.3475695
Bl. 338 Sc.B,Strada Vasile Lucaciu,310327,46.1720658,21.3472298
Bl. 338 Sc.C,Strada Vasile Lucaciu,310327,46.1720236,21.3469119
Bl. 337 Sc.C,Strada Vasile Lucaciu,310327,46.1728313,21.3475173
Bl. 337 Sc.B,Strada Vasile Lucaciu,310327,46.1727981,21.3471944
Bl. 337 Sc.A,Strada Vasile Lucaciu,310327,46.1728280,21.3469069
Bl. 328 Sc.B,Strada Elena Drăgoi,310330,46.1757085,21.3434951
Bl. 319 Sc.C,Strada Elena Drăgoi,310330,46.1761339,21.3443973
Bl. 319 Sc.D,Strada Elena Drăgoi,310330,46.1760214,21.3441772
Bl. 310 Sc.B,Strada Elena Drăgoi,310330,46.1764653,21.3449745
Bl. 309 Sc.A,Strada Elena Drăgoi,310330,46.1765157,21.3443959
Bl. 309 Sc.B,Strada Elena Drăgoi,310330,46.1766301,21.3446109
Bl. 305 Sc.B,Strada Nicolae Brânzeu,310331,46.1776308,21.3426876
Bl. 305 Sc.C,Strada Nicolae Brânzeu,310331,46.1774990,21.3424864
Bl. 305 Sc.D,Strada Nicolae Brânzeu,310331,46.1773147,21.3423861
Bl. 303/4 Sc.A,Strada Nicolae Brânzeu,310331,46.1778273,21.3423057
Bl. 303/3 Sc.B,Strada Nicolae Brânzeu,310331,46.1775693,21.3421090
Bl. 16,Strada Dimitrie Bolintineanu,310176,46.1817581,21.3266528
Bl. 14,Strada Dimitrie Bolintineanu,310176,46.1815692,21.3265959
Bl. 12A,Strada Dimitrie Bolintineanu,310176,46.1814066,21.3265215
Bloc 12 Strada Doctor Ioan Suciu,Strada Doctor Ioan Suciu,310177,46.1811864,21.3264916
12,Strada Dimitrie Bolintineanu,310176,46.1809380,21.3263386
8,Strada Dimitrie Bolintineanu,310176,46.1805717,21.3262361
6,Strada Dimitrie Bolintineanu,310176,46.1804764,21.3262170
4,Strada Dimitrie Bolintineanu,310176,46.1802933,21.3260809
7,Strada Dimitrie Bolintineanu,310176,46.1804007,21.3256776
9,Strada Dimitrie Bolintineanu,310176,46.1805394,21.3257860
11,Strada Dimitrie Bolintineanu,310176,46.1806536,21.3258089
13,Strada Dimitrie Bolintineanu,310176,46.1807546,21.3258141
15,Strada Dimitrie Bolintineanu,310176,46.1808666,21.3258570
17,Strada Dimitrie Bolintineanu,310176,46.1809796,21.3259097
19,Strada Dimitrie Bolintineanu,310176,46.1810920,21.3259156
21,Strada Dimitrie Bolintineanu,310176,46.1811940,21.3259793
23,Strada Dimitrie Bolintineanu,310176,46.1812826,21.3260384
25-31,Strada Dimitrie Bolintineanu,310176,46.1814758,21.3261683
25-31,Strada Dimitrie Bolintineanu,310176,46.1816994,21.3262463
28,Strada Traian Moșoiu,310175,46.1818380,21.3254547
Bl. C Sc.B,Strada Traian Moșoiu,310175,46.1816705,21.3254002
Bl. C Sc.A,Strada Traian Moșoiu,310175,46.1814399,21.3253277
Bl. D Sc.A,Strada Traian Moșoiu,310175,46.1804443,21.3245341
Bl. D Sc.B,Strada Traian Moșoiu,310175,46.1806694,21.3246187
Bl. D Sc.B,Strada Traian Moșoiu,310175,46.1808968,21.3246980
Bl. A4,Strada Alecu Russo,310175,46.1813356,21.3243298
Bl. A6 Sc.A,Strada Alecu Russo,310175,46.1814172,21.3240784
Bl. A6 Sc.B,Strada Alecu Russo,310175,46.1814918,21.3238678
Bl. A5,Strada Alecu Russo,310175,46.1815845,21.3236252
4,Strada Alecu Russo,310175,46.1813290,21.3235395
6,Strada Alecu Russo,310175,46.1812058,21.3238061
12,Strada Alecu Russo,310175,46.1810058,21.3244216
Bl. A Sc.A,Strada Udrea,310171,46.1824314,21.3284349
Bl. A Sc.B,Strada Udrea,310171,46.1826651,21.3285058
Bl. A Sc.C,Strada Udrea,310171,46.1828717,21.3285685
Bl. B Sc.A,Strada Udrea,310171,46.1825082,21.3279151
Bl. B Sc.B,Strada Udrea,310171,46.1827093,21.3279778
Bl. B Sc.C,Strada Udrea,310171,46.1829198,21.3280434
Bl. C Sc.A,Strada Udrea,310171,46.1825749,21.3273735
Bl. C Sc.B,Strada Udrea,310171,46.1827825,21.3274381
Bl. C Sc.C,Strada Udrea,310171,46.1829954,21.3275043
Bl. D Sc.A,Strada Udrea,310171,46.1826526,21.3268984
Bl. D Sc.B,Strada Udrea,310171,46.1828530,21.3269583
Bl. D Sc.C,Strada Udrea,310171,46.1830653,21.3270217
Bl. E Sc.A,Strada Udrea,310171,46.1827359,21.3263880
Bl. E Sc.B,Strada Udrea,310171,46.1829428,21.3264466
Bl. E Sc.C,Strada Udrea,310171,46.1831461,21.3265041
Bl. F Sc.A,Piața Academician Caius Iacob,310137,46.1827996,21.3258760
Bl. F Sc.E,Piața Academician Caius Iacob,310137,46.1836540,21.3261425
Bl. F Sc.D,Piața Academician Caius Iacob,310137,46.1834408,21.3260760
Bl. F Sc.C,Piața Academician Caius Iacob,310137,46.1832316,21.3260108
Bl. F Sc.B,Piața Academician Caius Iacob,310137,46.1830133,21.3259427
Bl. G Sc.C,Strada Bihorului,310140,46.1838276,21.3264807
Bl. G Sc.B,Strada Bihorului,310140,46.1840371,21.3265622
Bl. G Sc.A,Strada Bihorului,310140,46.1842462,21.3266541
Bl. O Sc.E,Strada Bihorului,310140,46.1843932,21.3269931
Bl. O Sc.D,Strada Bihorului,310140,46.1846034,21.3270793
Bl. O Sc.C,Strada Bihorului,310140,46.1848110,21.3271754
Bl. O Sc.B,Strada Bihorului,310140,46.1850158,21.3272596
Bl. O Sc.A,Strada Bihorului,310140,46.1852277,21.3273500
Bl. N Sc.A,Strada Udrea,310171,46.1846397,21.3276329
Bl. N Sc.B,Strada Udrea,310171,46.1848543,21.3277169
Bl. M Sc.B,Strada Udrea,310171,46.1845399,21.3281306
Bl. M Sc.A,Strada Udrea,310171,46.1847533,21.3282182
Bl. 2-4 Sc.C,Strada Mărțișor,310138,46.1844282,21.3287605
Bl. 2-4 Sc.B,Strada Mărțișor,310138,46.1845902,21.3288296
Bl. 2-4 Sc.A,Strada Mărțișor,310138,46.1846881,21.3289934
Bl. R Sc.A,Strada Onisifor Ghibu,310139,46.1857387,21.3265324
Bl. R Sc.B,Strada Onisifor Ghibu,310139,46.1857981,21.3262293
Bl. R Sc.C,Strada Onisifor Ghibu,310139,46.1858507,21.3259628
Bl. 2 Sc.A,Calea Aurel Vlaicu,310141,46.1872175,21.3252419
Bl. 2 Sc.B,Calea Aurel Vlaicu,310141,46.1870234,21.3251586
Bl. 4,Calea Aurel Vlaicu,310141,46.1868311,21.3250788
Bl. 6,Calea Aurel Vlaicu,310141,46.1866387,21.3250072
Bl. 8,Calea Aurel Vlaicu,310141,46.1864485,21.3248735
Bl. 10,Calea Aurel Vlaicu,310141,46.1862437,21.3247039
10,Bulevardul Revoluției,310144,46.1861048,21.3247792
2-4,Strada Nelu Aristide Dragomir,310145,46.1860952,21.3245622
Bl. A Sc.A,Piața Gării,310080,46.1874962,21.3252294
Bl. A Sc.B,Piața Gării,310080,46.1876791,21.3250544
Bl. A Sc.C,Piața Gării,310080,46.1878374,21.3248266
Bl. A Sc.E,Piața Gării,310080,46.1881817,21.3244303
Bl. A Sc.F,Piața Gării,310080,46.1883447,21.3242245
Bl. A Sc.G,Piața Gării,310080,46.1885207,21.3240195
Bl. H Sc.E,Strada Bihorului,310140,46.1867765,21.3257694
Bl. H Sc.D,Strada Bihorului,310140,46.1869421,21.3258762
Bl. H Sc.C,Strada Bihorului,310140,46.1870502,21.3260856
Bl. H Sc.B,Strada Bihorului,310140,46.1871606,21.3263326
Bl. H Sc.A,Strada Bihorului,310140,46.1872683,21.3265733
41-43A,Calea Aurel Vlaicu,310141,46.1889266,21.3217944
Bl. L,Piața Gării,310080,46.1896522,21.3224852
Bl. ES,Calea Aurel Vlaicu,310141,46.1896893,21.3221213
Bl. i Sc.E,Piața Gării,310080,46.1896814,21.3235101
Bl. i Sc.D,Piața Gării,310080,46.1897444,21.3236715
Bl. i Sc.C,Piața Gării,310080,46.1898101,21.3238411
Bl. i Sc.B,Piața Gării,310080,46.1898839,21.3240281
Bl. i Sc.A,Piața Gării,310080,46.1899605,21.3242179
Bl. i Sc.CFR,Piața Gării,310080,46.1900513,21.3244227
1,Piața Catedralei,310090,46.1699296,21.3118219
2,Piața Catedralei,310090,46.1697198,21.3117450
3,Piața Catedralei,310090,46.1695057,21.3118634
5,Strada Academia Teologică,310096,46.1689664,21.3118300
3,Strada Academia Teologică,310096,46.1691410,21.3118422
1,Strada Academia Teologică,310096,46.1692969,21.3118237
12,Piața Catedralei,310090,46.1710714,21.3112412
1,Strada Ecaterina Teodoroiu,310035,46.1707845,21.3102862
10,Piața Catedralei,310090,46.1706030,21.3103177
9,Piața Catedralei,310090,46.1704302,21.3103307
8,Piața Catedralei,310090,46.1702427,21.3102960
6,Piața Catedralei,310090,46.1694689,21.3104476
7,Piața Catedralei,310090,46.1696443,21.3104200
5,Piața Catedralei,310090,46.1692374,21.3109798
Bl. 15 Sc.C,Strada Luceafărului,310068,46.1623512,21.2896080
Bl. 15 Sc.B,Strada Tunarilor,310079,46.1621990,21.2896864
Bl. 15 Sc.A,Strada Tunarilor,310079,46.1620080,21.2896746
Bl. 16 Sc.B,Strada Tunarilor,310079,46.1616701,21.2896682
Bl. 16 Sc.A,Strada Tunarilor,310079,46.1614579,21.2896765
Bl. 10 Sc.A,Strada Sabinelor,310081,46.1611525,21.2890010
Bl. 12,Strada Sabinelor,310081,46.1618995,21.2890605
Bl. 13,Strada Sabinelor,310081,46.1621474,21.2890847
Bl. 27,Strada Pădurii,310040,46.1628995,21.2892298
Bl. 28,Strada Pădurii,310040,46.1631401,21.2893021
Bl. 29,Strada Pădurii,310040,46.1634045,21.2892344
Bl. 31 Sc.C,Strada Pădurii,310040,46.1638784,21.2894310
Bl. 31 Sc.B,Strada Barbu Lăutaru,310063,46.1638880,21.2896993
Bl. 31 Sc.A,Strada Barbu Lăutaru,310063,46.1638092,21.2900297
Bl. 30 Sc.B,Strada Tunarilor,310079,46.1634811,21.2900096
Bl. 30 Sc.A,Strada Tunarilor,310079,46.1632702,21.2899355
Bl. 25 Sc. C,Strada Tunarilor,310079,46.1629360,21.2898240
Bl. 25 Sc.B,Strada Tunarilor,310079,46.1627522,21.2897777
Bl. 34,Strada Barbu Lăutaru,310063,46.1634772,21.2911755
Bl. 33,Strada Barbu Lăutaru,310063,46.1635545,21.2908452
Bl. 32,Strada Tunarilor,310079,46.1636341,21.2905125
Bl. 42 Sc.A,Strada Barbu Lăutaru,310063,46.1630703,21.2933308
Bl. 42 Sc.B,Strada Barbu Lăutaru,310063,46.1630217,21.2935215
91A,Strada Liviu Rebreanu,310045,46.1802667,21.2958327
91B,Strada Liviu Rebreanu,310045,46.1805414,21.2947951
91C,Strada Liviu Rebreanu,310045,46.1806910,21.2942191
Bl. 23 Sc.A,Strada Liviu Rebreanu,310045,46.1809657,21.2945011
Bl. 23 Sc.B,Strada Liviu Rebreanu,310045,46.1808954,21.2947817
Bl. 22,Strada Târgului,310418,46.1810438,21.2949694
Bl. 21 Sc.A,Strada Târgului,310418,46.1814205,21.2951476
Bl. 21 Sc.B,Strada Abatorului,310039,46.1815679,21.2949575
Bl. 16,Strada Abatorului,310039,46.1817957,21.2951124
Bl. 15 Sc.A,Strada Târgului,310418,46.1818011,21.2953855
Bl. 15 Sc.B,Strada Târgului,310418,46.1820206,21.2955177
1-3,Strada Streiului,310416,46.1821645,21.2952170
1-3,Strada Streiului,310416,46.1822313,21.2949905
1-3,Strada Streiului,310416,46.1823017,21.2947622
2,Strada Streiului,310416,46.1823165,21.2955801
9,Strada Târgului,310418,46.1824398,21.2957779
Bl. 28 Sc.A,Strada Târgului,310418,46.1827025,21.2958393
Bl. 28 Sc.B,Strada Târgului,310418,46.1827701,21.2956389
12,Strada Streiului,310416,46.1828278,21.2938610
12,Strada Streiului,310416,46.1830130,21.2938598
5-7,Strada Streiului,310416,46.1824170,21.2943746
5-7,Strada Streiului,310416,46.1824857,21.2941493
5-7,Strada Streiului,310416,46.1825524,21.2939237
Bl. 12 Sc.A,Strada Rodnei,310418,46.1825854,21.2935444
Bl. 12 Sc.B,Strada Rodnei,310418,46.1823717,21.2934121
Bl. 20,Strada Abatorului,310039,46.1822396,21.2935912
Bl. 18,Strada Abatorului,310039,46.1820988,21.2941814
Bl. 17,Strada Abatorului,310039,46.1819868,21.2945706
14,Strada Streiului,310416,46.1829861,21.2933192
14,Strada Streiului,310416,46.1830780,21.2930123
14,Strada Streiului,310416,46.1831759,21.2926789
Bl. 9,Strada Baladei,310415,46.1828531,21.2927478
Bl. 8,Strada Baladei,310415,46.1825777,21.2925802
Bl. 7,Strada Baladei,310415,46.1822923,21.2924150
Bl. 6,Strada Baladei,310415,46.1820337,21.2922558
Bl. 2,Strada Liviu Rebreanu,310045,46.1818646,21.2909726
Bl. 102,Strada Liviu Rebreanu,310045,46.1816969,21.2912562
Bl. OX,Strada Baladei,310415,46.1817083,21.2916339
Bl. 40,Strada Baladei,310415,46.1819148,21.2917573
Bl. 3,Strada Liviu Rebreanu,310045,46.1821685,21.2911639
Nr.5-7 Bloc 4 Sc.B,Strada Baladei,310415,46.1822716,21.2914505
Nr.5-7 Bloc 4 Sc.A,Strada Baladei,310415,46.1821809,21.2917689
Bl. 1 Sc.A,Strada Liviu Rebreanu,310045,46.1818957,21.2903837
Bl. 1 Sc.B,Strada Liviu Rebreanu,310045,46.1819187,21.2906563
Bl. 98A,Strada Liviu Rebreanu,310045,46.1810969,21.2940221
Bl. 98B,Strada Liviu Rebreanu,310045,46.1814114,21.2943157
Bl. 98B,Strada Liviu Rebreanu,310045,46.1812113,21.2943864
Bl. 11 Sc.A,Strada Rodnei,310418,46.1822359,21.2928561
Bl. 11 Sc.B,Strada Rodnei,310418,46.1824504,21.2930154
Bl. 11 Sc.C,Strada Rodnei,310418,46.1826763,21.2931567
Autoritatea Națională Sanitar Veterinară și pentru Siguranța Alimentelor 93C,Strada Liviu Rebreanu,310045,46.1812986,21.2933948
86,Strada Liviu Rebreanu,310045,46.1810133,21.2953509
86,Strada Liviu Rebreanu,310045,46.1810057,21.2962979
Bl. 9,Strada Tunarilor,310079,46.1612398,21.2901058
Bl. 49 Sc.B,Strada Barbu Lăutaru,310063,46.1643019,21.2898685
Bl. 49 Sc.A,Strada Pădurii,310040,46.1644060,21.2897003
Bl. 48 Sc.A,Strada Barbu Lăutaru,310063,46.1641705,21.2903840
Bl. 48 Sc.B,Strada Barbu Lăutaru,310063,46.1641049,21.2906399
Bl. 47 Sc.A,Strada Barbu Lăutaru,310063,46.1640114,21.2910195
Bl. 47 Sc.B,Strada Barbu Lăutaru,310063,46.1639498,21.2912748
Bl. 46 Sc.A,Strada Barbu Lăutaru,310063,46.1638338,21.2916143
Bl. 55 Sc.B,Strada Pionierilor,310077,46.1644075,21.2920304
Bl. 55 Sc.C,Strada Pionierilor,310077,46.1644805,21.2917948
Bl. 54,Strada Pionierilor,310077,46.1644685,21.2913364
Bl. 53,Strada Pionierilor,310077,46.1645460,21.2910061
Bl. 52,Strada Pionierilor,310077,46.1646222,21.2906767
Bl. 51,Strada Pionierilor,310077,46.1646985,21.2903390
Bl. 50 Sc.A,Strada Pionierilor,310077,46.1649410,21.2900999
Bl. 50 Sc.B,Strada Pădurii,310040,46.1649115,21.2898956
Bl. 50 Sc.C,Strada Pădurii,310040,46.1647307,21.2898109
Bl. 44 Sc.A,Strada Barbu Lăutaru,310063,46.1635919,21.2927355
Bl. 44 Sc.B,Strada Barbu Lăutaru,310063,46.1635311,21.2929950
Bl. 43 Sc.A,Strada Barbu Lăutaru,310063,46.1634240,21.2934443
Bl. 43 Sc.B,Strada Barbu Lăutaru,310063,46.1633618,21.2937020
Bl. 43 Sc.C,Strada Clujului,310039,46.1634971,21.2938840
Bl. 43 Sc.D,Strada Clujului,310039,46.1636978,21.2939886
Bl. 57 Sc.A,Strada Clujului,310039,46.1639899,21.2941208
Bl. 57 Sc. B,Strada Clujului,310039,46.1641657,21.2941561
Bl. 57 Sc.C,Strada Pionierilor,310077,46.1642081,21.2939067
Bl. 56 Sc.D,Strada Pionierilor,310077,46.1641771,21.2934938
Bl. 56 Sc.E,Strada Pionierilor,310077,46.1641769,21.2932148
Bl. 78,Strada Pionierilor,310077,46.1646143,21.2932190
Bl. 79,Strada Pionierilor,310077,46.1646255,21.2935997
Bl. 80,Strada Pionierilor,310077,46.1646271,21.2939775
Bl. 81 Sc.A,Strada Clujului,310039,46.1645449,21.2943851
Bl. 81 Sc.B,Strada Clujului,310039,46.1647032,21.2945260
Bl. 67 Sc.A,Strada Pionierilor,310077,46.1646489,21.2920808
Bl. 65 Sc.C,Strada Griviței,310040,46.1653092,21.2911219
Bl. 65 Sc.D,Strada Griviței,310040,46.1651355,21.2910229
Bl. 65 Sc.E,Strada Pionierilor,310077,46.1649783,21.2910435
68,Strada Episcop Roman Ciorogariu,310047,46.1657438,21.2932009
Bl. 68 Sc.B,Strada Condurașilor,310053,46.1659425,21.2933492
Bl. 68 Sc.A,Strada Condurașilor,310053,46.1659978,21.2936852
Bl. 74 Sc.C,Strada Condurașilor,310053,46.1660686,21.2948286
Bl. 74 Sc.B,Strada Clujului,310039,46.1660350,21.2951527
Bl. 74 Sc.A,Strada Clujului,310039,46.1658695,21.2951204
Bl. 84 Sc.C,Strada Clujului,310039,46.1658779,21.2956133
Bl. 84 Sc.B,Strada Clujului,310039,46.1660709,21.2957376
Bl. 84 Sc.A,Strada Condurașilor,310053,46.1661276,21.2960827
Bl. 91 Sc.B,Strada Condurașilor,310053,46.1661455,21.2965144
Bl. 91 Sc.A,Strada Condurașilor,310053,46.1661537,21.2967180
21-23,Strada Condurașilor,310070,46.1657295,21.2982731
21-23,Strada Condurașilor,310070,46.1660603,21.2981270
1A,Strada Tunarilor,310079,46.1630160,21.2904872
1A,Strada Tunarilor,310079,46.1632529,21.2904384
Bl. 1B1 Sc.A,Strada Predeal,310377,46.2008352,21.2906904
Bl. 1B1 Sc.B,Strada Predeal,310377,46.2006811,21.2909357
Bl. 1B2,Strada Predeal,310377,46.2004826,21.2911126
Bl. 2A Sc.A,Strada Predeal,310377,46.2005121,21.2917356
Bl. 2A Sc.B,Strada Predeal,310377,46.2003616,21.2919867
Bl. 2A Sc.C,Strada Predeal,310377,46.2002615,21.2922958
Bl. 2B Sc.A,Strada Predeal,310377,46.2000038,21.2925712
Bl. 2B Sc.B,Strada Predeal,310377,46.1998545,21.2928157
Bl. 2B Sc.C,Strada Predeal,310377,46.1997556,21.2931306
Bl. 2C Sc.C,Strada Predeal,310377,46.1994672,21.2933870
Bl. 2C Sc.B,Strada Predeal,310377,46.1993135,21.2936304
Bl. 2C Sc.A,Strada Predeal,310377,46.1992195,21.2939426
177,Calea Aurel Vlaicu,310403,46.1992347,21.2944112
3,Strada Predeal,310377,46.1992472,21.2919622
1,Strada Predeal,310377,46.1991453,21.2925156
2A,Strada Predeal,310377,46.1991390,21.2926195
Bl. 14,Strada Predeal,310377,46.1991075,21.2933194
Bl. 13,Strada Predeal,310377,46.1993339,21.2928343
202,Calea Aurel Vlaicu,310141,46.1998519,21.2951799
202,Calea Aurel Vlaicu,310141,46.1999601,21.2949068
202,Calea Aurel Vlaicu,310141,46.2001114,21.2946532
Bl. B20 Sc.A,Calea Aurel Vlaicu,310141,46.1995164,21.2956291
Bl. B20 Sc.B,Calea Aurel Vlaicu,310141,46.1993586,21.2958907
Bl. B21 Sc.A,Calea Aurel Vlaicu,310141,46.1991010,21.2963513
Bl. B21 Sc.B,Calea Aurel Vlaicu,310141,46.1989243,21.2965873
1,Aleea Dej,310359,46.1994809,21.2964076
3,Aleea Dej,310359,46.1998969,21.2967085
5,Aleea Dej,310359,46.2003623,21.2966856
Bl. A10/2,Aleea Saturn,310363,46.2005475,21.2952256
Bl. A10/1 Sc.B,Aleea Saturn,310363,46.2006872,21.2955877
Bl. A10/1 Sc.A,Aleea Saturn,310363,46.2009501,21.2957444
89A,Strada Poetului,310368,46.2024294,21.2972838
89A,Strada Poetului,310368,46.2023071,21.2974645
Bl. C1 Sc.A,Strada Poetului,310345,46.2009393,21.2985693
Bl. A36 Sc.B,Strada Poetului,310345,46.2015337,21.2990913
Bl. A36 Sc.A,Strada Poetului,310345,46.2016299,21.2989393
24A,Strada Poetului,310345,46.2016789,21.2992675
24A,Strada Stupilor,310371,46.2017642,21.2994808
9,Strada Stupilor,310371,46.2018674,21.2997656
9,Strada Stupilor,310371,46.2020038,21.2996511
11-13,Strada Stupilor,310371,46.2021491,21.2995377
11-13,Strada Stupilor,310371,46.2022607,21.2993751
Bl. A35 Sc.B,Strada Poetului,310345,46.2018513,21.2987644
7A,Strada Stupilor,310371,46.2015017,21.2996130
5,Strada Stupilor,310371,46.2013115,21.2998518
5,Strada Stupilor,310371,46.2011260,21.3000119
3,Strada Stupilor,310371,46.2009750,21.3005047
3,Strada Stupilor,310371,46.2009443,21.3002893
1,Strada Stupilor,310371,46.2008033,21.3006308
1,Strada Plopilor,310368,46.2004650,21.3003115
Bl. A44 Sc.B,Strada Plopilor,310368,46.2003289,21.3000725
4,Strada Stupilor,310371,46.2011510,21.3007655
4,Strada Stupilor,310371,46.2012902,21.3006510
4,Strada Stupilor,310371,46.2014376,21.3005205
6,Strada Stupilor,310371,46.2016890,21.3003308
6,Strada Stupilor,310371,46.2018371,21.3002089
Bl. A51 Sc.B,Strada Stupilor,310371,46.2019511,21.3004927
Bl. A51 Sc.A,Strada Stupilor,310371,46.2020576,21.3006334
Bl. A50 Sc.B,Strada Stupilor,310371,46.2022148,21.3005018
Bl. 50 Sc.A,Strada Stupilor,310371,46.2023655,21.3003758
4A,Strada Stupilor,310371,46.2015043,21.3011315
4A,Strada Stupilor,310371,46.2016450,21.3010071
4A,Strada Stupilor,310371,46.2017858,21.3008823
6,Strada Ioan Brezoianu,310371,46.2024919,21.3000149
6,Strada Ioan Brezoianu,310371,46.2025930,21.3002724
12A,Strada Poetului,310345,46.2006765,21.3000380
12A,Strada Poetului,310345,46.2008496,21.2998884
12A,Strada Poetului,310345,46.2010369,21.2997266
4,Strada Tribunul Andreica,310372,46.2021730,21.3017986
4,Strada Tribunul Andreica,310372,46.2023566,21.3015471
Bl. A59 Sc.B,Strada Tribunul Andreica,310372,46.2025273,21.3012462
Bl. A59 Sc.A,Strada Tribunul Andreica,310372,46.2024949,21.3010305
Bl. A58 Sc.B,Strada Tribunul Andreica,310372,46.2026434,21.3009037
Bl. A58 Sc.A,Strada Tribunul Andreica,310372,46.2027865,21.3007815
14,Strada Stupilor,310371,46.2027562,21.2994282
Bl. A47 Sc.B,Strada Stupilor,310371,46.2029491,21.2996258
Bl. A47 Sc.A,Strada Stupilor,310371,46.2030507,21.2998803
26A,Strada Stupilor,310371,46.2037926,21.2993872
26A,Strada Stupilor,310371,46.2036628,21.2990783
46A,Strada Poetului,310371,46.2033347,21.2982278
46A,Strada Poetului,310371,46.2032438,21.2980089
Bl. A27 Sc.B,Strada Poetului,310345,46.2027214,21.2980113
Bl. A27 Sc.A,Strada Poetului,310345,46.2028644,21.2979695
Bl. A28 Sc. A,Strada Stupilor,310371,46.2029548,21.2981971
Bl. A28 Sc.B,Strada Stupilor,310371,46.2028614,21.2983582
Bl. A29 Sc.B,Strada Stupilor,310371,46.2027106,21.2984207
Bl. A29 Sc.A,Strada Stupilor,310371,46.2025680,21.2985464
Bl. A30 Sc.A,Strada Stupilor,310371,46.2024431,21.2987007
Bl. A30 Sc.B,Strada Stupilor,310371,46.2026792,21.2990695
Bl. A31 Sc.A,Strada Stupilor,310371,46.2028333,21.2989375
6-12,Strada Ursului,310368,46.2000674,21.3019431
6-12,Strada Ursului,310368,46.2004115,21.3023365
6-12,Strada Ursului,310368,46.2007526,21.3027437
6-12,Strada Ursului,310368,46.2011063,21.3031676
2,Strada Ursului,310368,46.1997287,21.3015262
2,Strada Ursului,310368,46.1992705,21.3013176
2,Strada Ursului,310368,46.1995513,21.3018217
109,Calea Radnei,310267,46.1802896,21.3461238
14,Calea Victoriei,310158,46.1850863,21.3100635
38,Calea Timișorii,310227,46.1536856,21.3213500
40,Calea Timișorii,310227,46.1535616,21.3213310
45-55,Calea Aurel Vlaicu,310350,46.1910884,21.3103525
45-55,Calea Aurel Vlaicu,310350,46.1912832,21.3102065
Bl. U3,Calea Aurel Vlaicu,310350,46.1914781,21.3100632
59-61,Calea Aurel Vlaicu,310350,46.1915095,21.3090255
59-61,Calea Aurel Vlaicu,310350,46.1915750,21.3086979
59-61,Calea Aurel Vlaicu,310350,46.1915930,21.3083618
59-61,Calea Aurel Vlaicu,310350,46.1916114,21.3080445
59-61,Calea Aurel Vlaicu,310350,46.1914255,21.3078413
57,Calea Aurel Vlaicu,310350,46.1911528,21.3084182
57A,Calea Aurel Vlaicu,310350,46.1908461,21.3083698
86,Strada Cocorilor,310426,46.1909851,21.3076636
Bl. 1,Strada Cocorilor,310426,46.1908419,21.3044946
Bl. 2,Strada Cocorilor,310426,46.1909344,21.3048524
Bl. 3,Strada Constantin Brâncoveanu,310398,46.1910747,21.3054057
Bl. 4,Strada Constantin Brâncoveanu,310398,46.1911975,21.3057648
Bl. 5,Strada Constantin Brâncoveanu,310398,46.1913169,21.3061400
Bl. U9,Strada Cocorilor,310426,46.1912721,21.3066679
63-67,Calea Aurel Vlaicu,310350,46.1918075,21.3071863
63-67,Calea Aurel Vlaicu,310350,46.1920606,21.3068315
63-67,Calea Aurel Vlaicu,310350,46.1923015,21.3064652
18,Strada Inului,310401,46.1905977,21.3064754
18,Strada Inului,310401,46.1903635,21.3064366
11,Strada Inului,310401,46.1899655,21.3059390
76,Strada Cocorilor,310426,46.1903252,21.3058374
2-6,Strada Pelinului,310402,46.1890276,21.3050613
2-6,Strada Pelinului,310402,46.1888839,21.3052558
1-5,Strada Pelinului,310402,46.1889475,21.3044945
1-5,Strada Pelinului,310402,46.1890490,21.3047396
Bl. Z22 Sc.A,Calea Aurel Vlaicu,310141,46.1929337,21.3075260
Bl. Z22 Sc.B,Calea Aurel Vlaicu,310141,46.1929988,21.3072394
Bl. Z22 Sc.C,Calea Aurel Vlaicu,310141,46.1930730,21.3069314
Bl. Z23 Sc.A,Calea Aurel Vlaicu,310141,46.1932252,21.3064722
Bl. Z23 Sc.B,Calea Aurel Vlaicu,310141,46.1933396,21.3062372
Bl. Z23 Sc.C,Calea Aurel Vlaicu,310141,46.1934293,21.3060402
Bl. Z23 Sc.D,Strada Țepeș Vodă,310348,46.1935968,21.3061959
Bl. Z23 Sc.E,Strada Țepeș Vodă,310348,46.1937027,21.3064168
Bl. Z23 Sc.F,Strada Ciprian Porumbescu,310348,46.1936013,21.3066359
Bl. Z24 Sc.A,Calea Aurel Vlaicu,310141,46.1935754,21.3056979
Bl. Z24 Sc.B,Calea Aurel Vlaicu,310141,46.1936659,21.3054640
Bl. Z24 Sc.C,Calea Aurel Vlaicu,310141,46.1937667,21.3052585
Bl. Z24 Sc.D,Strada Țepeș Vodă,310348,46.1939345,21.3054078
Bl. Z24 Sc.E,Strada Țepeș Vodă,310348,46.1940475,21.3056142
Bl. Z24 Sc.F,Strada Țepeș Vodă,310348,46.1939416,21.3058389
Bl. Z25 Sc.A,Calea Aurel Vlaicu,310141,46.1938177,21.3048572
Bl. Z25 Sc.B,Calea Aurel Vlaicu,310141,46.1939371,21.3046147
Bl. Z25 Sc.C,Strada Victor Hugo,310347,46.1940427,21.3044080
Bl. Z25 Sc.D,Strada Victor Hugo,310347,46.1942019,21.3045567
Bl. Z25 Sc.E,Strada Paltinului,310347,46.1943172,21.3047720
Bl. Z25 Sc.F,Strada Paltinului,310347,46.1942122,21.3050063
Bl. Z20 Sc.B,Calea Aurel Vlaicu,310141,46.1943009,21.3040998
Bl. Z20 Sc.B,Calea Aurel Vlaicu,310141,46.1943792,21.3038130
Bl. Z19 Sc.B,Calea Aurel Vlaicu,310141,46.1946159,21.3035349
Bl. Z19 Sc.A,Calea Aurel Vlaicu,310141,46.1947634,21.3031831
Bl. Z18 Sc.B,Calea Aurel Vlaicu,310141,46.1948744,21.3029113
Bl. Z18 Sc.A,Calea Aurel Vlaicu,310141,46.1949752,21.3027169
77-93,Calea Aurel Vlaicu,310350,46.1925413,21.3051461
77-93,Calea Aurel Vlaicu,310350,46.1925255,21.3053769
Bl. i5-1 Sc.C,Calea Aurel Vlaicu,310350,46.1926617,21.3054963
Bl. i5-2 Sc.D,Calea Aurel Vlaicu,310350,46.1928190,21.3055157
Bl. i5-2 Sc.E,Calea Aurel Vlaicu,310350,46.1929010,21.3053231
Bl. i5-2 Sc.F,Calea Aurel Vlaicu,310350,46.1929972,21.3050996
Bl. i4-1 Sc.A,Calea Aurel Vlaicu,310350,46.1931752,21.3047092
Bl. i4-1 Sc.B,Calea Aurel Vlaicu,310350,46.1932689,21.3044828
Bl. i4-1 Sc.C,Calea Aurel Vlaicu,310350,46.1933492,21.3042818
77-93,Calea Aurel Vlaicu,310350,46.1932627,21.3040921
77-93,Calea Aurel Vlaicu,310350,46.1931284,21.3039725
77-93,Calea Aurel Vlaicu,310350,46.1929977,21.3040999
77-93,Calea Aurel Vlaicu,310350,46.1928453,21.3044562
77-93,Calea Aurel Vlaicu,310350,46.1927142,21.3047637
2B,Strada Vasile Conta,310422,46.1920957,21.3041889
2B,Strada Vasile Conta,310422,46.1921709,21.3049284
2B,Strada Vasile Conta,310422,46.1922767,21.3042789
2B,Strada Vasile Conta,310422,46.1919099,21.3039653
138-140,Calea Aurel Vlaicu,310365,46.1957689,21.3010356
Bl. Z26 Sc.A,Calea Aurel Vlaicu,310141,46.1954847,21.3011935
Bl. Z26 Sc.B,Calea Aurel Vlaicu,310141,46.1953619,21.3014752
Bl. Z26 Sc.C,Calea Aurel Vlaicu,310141,46.1952996,21.3017751
Bl. Z26 Sc.D,Strada Fulgerului,310346,46.1954593,21.3019647
3,Strada Fulgerului,310346,46.1956013,21.3020579
Bl. Z15 Sc.A,Strada Fulgerului,310346,46.1961181,21.3006935
Bl. Z15 Sc.B,Strada Fulgerului,310346,46.1962786,21.3003233
4,Strada Călărașilor,310360,46.1968313,21.3000207
4,Strada Călărașilor,310360,46.1970103,21.3001825
4,Strada Călărașilor,310360,46.1971889,21.3003399
61A,Strada Poetului,310345,46.1972482,21.3007954
61A,Strada Poetului,310345,46.1974494,21.3006862
61A,Strada Poetului,310345,46.1976639,21.3005730
61,Strada Poetului,310345,46.1976535,21.3011465
61,Strada Poetului,310345,46.1978491,21.3010448
61,Strada Poetului,310345,46.1980605,21.3009317
Bl. Z27 Sc.D,Calea Aurel Vlaicu,310141,46.1956545,21.3005014
Bl. Z27 Sc.C,Calea Aurel Vlaicu,310141,46.1957833,21.3002424
Bl. Z27 Sc.B,Calea Aurel Vlaicu,310141,46.1959149,21.2999763
Bl. Z27 Sc.A,Calea Aurel Vlaicu,310141,46.1960458,21.2997109
Bl. Z28 Sc.D,Calea Aurel Vlaicu,310141,46.1964459,21.2993458
Bl. Z28 Sc.C,Calea Aurel Vlaicu,310141,46.1966173,21.2991531
Bl. Z28 Sc.B,Calea Aurel Vlaicu,310141,46.1967928,21.2990151
Bl. Z28 Sc.A,Strada Călărașilor,310360,46.1969462,21.2992364
Bl. Z29,Strada Călărașilor,310360,46.1970635,21.2995273
Bl. Z30,Strada Călărașilor,310360,46.1972123,21.2998042
Bl. Z31,Strada Călărașilor,310360,46.1973618,21.3000815
Bl. B23,Calea Aurel Vlaicu,310141,46.1979677,21.2978580
Bl. B22 Sc.B,Calea Aurel Vlaicu,310141,46.1982045,21.2973884
Bl. B22 Sc.A,Calea Aurel Vlaicu,310141,46.1984036,21.2971774
153-163,Calea Aurel Vlaicu,310403,46.1972349,21.2972879
153-163,Calea Aurel Vlaicu,310403,46.1974989,21.2969818
153-163,Calea Aurel Vlaicu,310403,46.1977536,21.2966751
153-163,Calea Aurel Vlaicu,310403,46.1980209,21.2963643
153-163,Calea Aurel Vlaicu,310403,46.1982871,21.2960650
Bl. 6 Sc.A,Calea Aurel Vlaicu,310403,46.1986092,21.2956981
Bl. 6 Sc.B,Calea Aurel Vlaicu,310403,46.1987525,21.2954632
Bl. 6 Sc.C,Calea Aurel Vlaicu,310403,46.1988977,21.2952254
173-175,Calea Aurel Vlaicu,310403,46.1989473,21.2949304
3,Strada Hațeg,310382,46.1975492,21.2952713
9,Aleea Saturn,310363,46.2009053,21.2945020
9,Aleea Saturn,310363,46.2007593,21.2947489
9,Aleea Saturn,310363,46.2008160,21.2949434
9,Aleea Saturn,310363,46.2009470,21.2950925
9,Aleea Saturn,310363,46.2011495,21.2950629
9,Aleea Saturn,310363,46.2012719,21.2948678
9,Aleea Saturn,310363,46.2013790,21.2946937
9,Aleea Saturn,310363,46.2013406,21.2944400
5,Aleea Saturn,310363,46.2014888,21.2951951
5,Aleea Saturn,310363,46.2013763,21.2953860
5,Aleea Saturn,310363,46.2013853,21.2956482
5,Aleea Saturn,310363,46.2015189,21.2958144
5,Aleea Saturn,310363,46.2017019,21.2958239
5,Aleea Saturn,310363,46.2018234,21.2956226
5,Aleea Saturn,310363,46.2019413,21.2954303
5,Aleea Saturn,310363,46.2019157,21.2951861
7,Aleea Saturn,310363,46.2016282,21.2948505
3,Aleea Saturn,310363,46.2020508,21.2959212
3,Aleea Saturn,310363,46.2021944,21.2961035
1,Aleea Saturn,310363,46.2025059,21.2965266
1,Aleea Saturn,310363,46.2026537,21.2967235
1,Aleea Saturn,310363,46.2028155,21.2969367
91,Strada Poetului,310345,46.2028787,21.2972513
Bl. A22 Sc.C,Aleea Saturn,310363,46.2033880,21.2967868
Bl. A22 Sc.B,Aleea Saturn,310363,46.2035382,21.2965414
Bl. A22 Sc.A,Aleea Saturn,310363,46.2036752,21.2963176
93,Strada Poetului,310363,46.2036963,21.2960288
4/A,Aleea Saturn,310363,46.2032032,21.2960951
4/A,Aleea Saturn,310363,46.2033137,21.2962423
4,Aleea Saturn,310363,46.2030911,21.2965563
4,Aleea Saturn,310363,46.2029366,21.2963602
4,Aleea Saturn,310363,46.2027682,21.2961464
6,Aleea Saturn,310363,46.2025709,21.2955735
6,Aleea Saturn,310363,46.2024466,21.2957816
8,Aleea Saturn,310363,46.2022664,21.2953969
8,Aleea Saturn,310363,46.2023701,21.2952360
8,Aleea Saturn,310363,46.2024835,21.2950598
8,Aleea Saturn,310363,46.2025963,21.2948850
10,Aleea Saturn,310363,46.2021855,21.2947669
10,Aleea Saturn,310363,46.2022883,21.2946022
10,Aleea Saturn,310363,46.2026266,21.2940706
10,Aleea Saturn,310363,46.2025109,21.2942507
10,Aleea Saturn,310363,46.2023939,21.2944329
12,Aleea Saturn,310363,46.2019564,21.2944573
12,Aleea Saturn,310363,46.2020737,21.2942741
12,Aleea Saturn,310363,46.2021918,21.2940885
12,Aleea Saturn,310363,46.2023117,21.2938910
14,Aleea Saturn,310363,46.2017288,21.2941535
14,Aleea Saturn,310363,46.2018387,21.2939706
14,Aleea Saturn,310363,46.2019563,21.2937864
16,Aleea Saturn,310363,46.2014805,21.2938750
16,Aleea Saturn,310363,46.2015988,21.2936787
210,Calea Aurel Vlaicu,310375,46.2017319,21.2919362
210,Calea Aurel Vlaicu,310375,46.2018724,21.2917125
Bl. A1-1,Calea Aurel Vlaicu,310375,46.2020124,21.2914857
Bl. A4 Sc.D,Strada Făt Frumos,310364,46.2023243,21.2914579
Bl. A4 Sc.C,Strada Făt Frumos,310364,46.2024972,21.2916780
Bl. A4 Sc.B,Strada Făt Frumos,310364,46.2026668,21.2918949
Bl. A4 Sc.A,Strada Făt Frumos,310364,46.2028378,21.2921138
Bl. A5,Strada Făt Frumos,310364,46.2027574,21.2925381
Bl. A3 Sc.A,Strada Făt Frumos,310364,46.2021898,21.2919121
Bl. A3 Sc.B,Strada Făt Frumos,310364,46.2023256,21.2920836
Bl. A3 Sc.C,Strada Făt Frumos,310364,46.2024569,21.2922545
Bl. A2 Sc.A,Strada Făt Frumos,310364,46.2021142,21.2924216
Bl. A2 Sc.B,Strada Făt Frumos,310364,46.2019820,21.2922430
206,Calea Aurel Vlaicu,310141,46.2012022,21.2933735
206,Calea Aurel Vlaicu,310141,46.2010470,21.2936263
206,Calea Aurel Vlaicu,310141,46.2008750,21.2938190
206,Calea Aurel Vlaicu,310141,46.2007435,21.2940270
Bl. A6 Sc.C,Strada Făt Frumos,310364,46.2030368,21.2924909
Bl. A6 Sc.B,Strada Făt Frumos,310364,46.2032064,21.2927080
Bl. A6 Sc.A,Strada Făt Frumos,310364,46.2033787,21.2929287
Bl. 60 Sc.D,Strada Pionierilor,310077,46.1651540,21.2904658
Bl. 59 Sc.C,Strada Pionierilor,310077,46.1652034,21.2901882
Bl. 77 Sc.B,Strada Pionierilor,310077,46.1645682,21.2927015
Bl. 77 Sc.C,Strada Pionierilor,310077,46.1645240,21.2928973
Bl. 56 Sc.B,Strada Pionierilor,310077,46.1642794,21.2925992
Bl. 56 Sc.A,Strada Pionierilor,310077,46.1642305,21.2927825
Bl. 45 Sc.C,Strada Barbu Lăutaru,310063,46.1636701,21.2923927
Bl. 73 Sc.A,Strada Clujului,310039,46.1653934,21.2948450
Bl. 73 Sc.B,Strada Clujului,310039,46.1655440,21.2949703
18-22,Strada Episcop Roman Ciorogariu,310040,46.1803390,21.2999914
48-50,Strada Condurașilor,310058,46.1662993,21.2936591
Bl. 3 Sc.A,Piața Spitalului,310031,46.1813793,21.3104581
Bl. 3 Sc.B,Piața Spitalului,310031,46.1815053,21.3105743
Bl. 3 Sc.C,Piața Spitalului,310031,46.1814221,21.3108752
Bloc 5 Sc. C Strada Andrei Șaguna,Strada Andrei Șaguna,310036,46.1813714,21.3092245
Bloc 5 Sc. B Piața Spitalului,Piața Spitalului,310031,46.1816111,21.3092625
6,Strada Gheorghe Doja,310038,46.1820263,21.3077653
66-72,Strada Andrei Șaguna,310037,46.1762138,21.3066588
1,Strada Căpitan Ignat,310054,46.1715191,21.3040571
11/a,Strada Dorobanților,310054,46.1691829,21.3015900
5,Strada Constantin Brâncoveanu,310398,46.1916284,21.3065290
20-22,Strada Constantin Brâncuși,310389,46.1912599,21.2987589
42,Strada Constantin Brâncuși,310389,46.1931390,21.2985679
3,Strada Călărașilor,310360,46.1977306,21.2990881
45,Bulevardul Revoluției,310181,46.1792214,21.3215197
Bl. H1 Sc.A,Strada Horia,310018,46.1764977,21.3160029
Bl. H8 Sc.A,Aleea Albac,310018,46.1774760,21.3175964
Bl. H8 Sc.B,Aleea Albac,310018,46.1775952,21.3177090
Bl. 1 Sc.A,Calea Victoriei,310158,46.1834138,21.3100970
Bl. 1 Sc.B,Calea Victoriei,310158,46.1831795,21.3101614
Bl. 1 Sc.C,Calea Victoriei,310158,46.1829928,21.3102576
Bl. 1 Sc.D,Piața Spitalului,310031,46.1829446,21.3105991
Bl. 1 Sc.E,Piața Spitalului,310031,46.1829718,21.3109521
Nr. 2C Hotel Marem,Calea Victoriei,310158,46.1838252,21.3098566
1-3,Calea Victoriei,310158,46.1846331,21.3090379
1-3,Calea Victoriei,310158,46.1852589,21.3083523
1,Strada Feleacului,310396,46.1852321,21.3078200
1,Strada Feleacului,310396,46.1847195,21.3076084
1,Strada Feleacului,310396,46.1847310,21.3071590
1-3,Calea Victoriei,310158,46.1850476,21.3086914
16A,Strada Constantin Brâncoveanu,310398,46.1907133,21.2990530
16A,Strada Constantin Brâncuși,310389,46.1908955,21.2991469
1,Aleea Amara,310431,46.1899433,21.2989710
1,Aleea Amara,310431,46.1899370,21.2994903
1,Aleea Amara,310431,46.1899540,21.2997397
1,Aleea Amara,310431,46.1899610,21.2992303
1,Aleea Amara,310431,46.1900176,21.3000053
1,Strada Școalei,310390,46.1901193,21.3006271
1,Strada Școalei,310390,46.1899262,21.3006554
1,Strada Școalei,310390,46.1897338,21.3006799
1,Strada Școalei,310390,46.1895358,21.3007054
5,Aleea Amara,310431,46.1893212,21.2995862
5,Aleea Amara,310431,46.1893400,21.2998490
5,Aleea Amara,310431,46.1893988,21.3001035
3,Aleea Amara,310431,46.1896266,21.2995328
3,Aleea Amara,310431,46.1896496,21.2997945
3,Aleea Amara,310431,46.1897063,21.3000562
2,Aleea Amara,310431,46.1896383,21.2991170
2,Aleea Amara,310431,46.1894538,21.2991370
2,Aleea Amara,310431,46.1892757,21.2991539
Bl. X30 Sc.A,Strada Constantin Brâncoveanu,310398,46.1909205,21.2998815
Bl. X30 Sc.B,Strada Constantin Brâncuși,310389,46.1910515,21.2997023
Bl. X30 Sc.C,Strada Constantin Brâncuși,310389,46.1912203,21.2997796
Bl. X30 Sc.D,Strada Constantin Brâncuși,310389,46.1913895,21.2996559
5,Strada Școalei,310390,46.1909787,21.3003294
5,Strada Școalei,310390,46.1911438,21.3003141
17A,Strada Școalei,310390,46.1915548,21.3002727
26A,Strada Constantin Brâncuși,310389,46.1912790,21.2990775
26A,Strada Constantin Brâncuși,310389,46.1914562,21.2991759
Bl. X26 Sc.A,Strada Constantin Brâncuși,310389,46.1917325,21.2995404
Bl. X26 Sc.B,Strada Constantin Brâncuși,310389,46.1919080,21.2996219
Bl. X26 Sc.C,Strada Constantin Brâncuși,310389,46.1920713,21.2994955
Bl. X26 Sc.D,Strada Constantin Brâncuși,310389,46.1922233,21.2996570
23A,Strada Școalei,310390,46.1920116,21.3002014
31A,Strada Școalei,310390,46.1924755,21.3001403
17A,Strada Constantin Brâncuși,310389,46.1926724,21.2996466
17A,Strada Constantin Brâncuși,310389,46.1927839,21.2998752
17,Strada Obedenaru,310389,46.1929226,21.3000685
17,Strada Obedenaru,310389,46.1930846,21.3000512
40A,Strada Constantin Brâncuși,310389,46.1928570,21.2992342
40A,Strada Constantin Brâncuși,310389,46.1927067,21.2990801
36A,Strada Constantin Brâncuși,310389,46.1925449,21.2992136
36A,Strada Constantin Brâncuși,310389,46.1923688,21.2991314
Bl. X27 Sc.B,Strada Constantin Brâncuși,310389,46.1920135,21.2990940
30A,Strada Constantin Brâncuși,310389,46.1918345,21.2990024
1,Aleea Ulise,310390,46.1928350,21.3012012
3,Aleea Ulise,310390,46.1927441,21.3015544
3,Aleea Ulise,310390,46.1927611,21.3018230
Bl. Y11 Sc.A,Aleea Ulise,310390,46.1924240,21.3019364
5,Aleea Ulise,310390,46.1924408,21.3021865
5,Aleea Ulise,310390,46.1924579,21.3024232
5,Aleea Ulise,310390,46.1924762,21.3026833
7,Aleea Ulise,310390,46.1921024,21.3019829
7,Aleea Ulise,310390,46.1921198,21.3022646
7,Aleea Ulise,310390,46.1921374,21.3025469
9,Aleea Ulise,310390,46.1917763,21.3020220
9,Aleea Ulise,310390,46.1917925,21.3023124
9,Aleea Ulise,310390,46.1918086,21.3026019
11,Aleea Ulise,310390,46.1914589,21.3020667
11,Aleea Ulise,310390,46.1914756,21.3023521
11,Aleea Ulise,310390,46.1914925,21.3026409
2,Aleea Ulise,310390,46.1924023,21.3014261
2,Aleea Ulise,310390,46.1921757,21.3014486
2,Aleea Ulise,310390,46.1920145,21.3014656
2,Aleea Ulise,310390,46.1917971,21.3014962
4,Aleea Ulise,310390,46.1915604,21.3015384
4,Aleea Ulise,310390,46.1913329,21.3015757
Bl. 82 Sc.A,Strada Clujului,310039,46.1650876,21.2946777
Bl. 82 Sc.B,Strada Clujului,310039,46.1649221,21.2946546
Bl. 60 Sc.C,Strada Griviței,310040,46.1652703,21.2906315
Bl. 60 Sc.A,Strada Griviței,310040,46.1655084,21.2907433
Bl. 58 Sc.A,Strada Griviței,310040,46.1656705,21.2908277
Bl. 58 Sc.B,Strada Condurașilor,310053,46.1657858,21.2906275
Bl. 58 Sc.C,Strada Pădurii,310040,46.1657213,21.2903223
Bl. 59 Sc.B,Strada Pădurii,310040,46.1653913,21.2901741
Bl. 66 Sc.A,Strada Pionierilor,310077,46.1648924,21.2914734
Bl. 66 Sc.B,Strada Pionierilor,310077,46.1648286,21.2917310
12,Strada Ștefan Augustin Doinaș,310012,46.1809364,21.3171982
16,Strada Ștefan Augustin Doinaș,310012,46.1813526,21.3175416
18,Strada Ștefan Augustin Doinaș,310012,46.1814715,21.3179077
Bl. A Sc.A,Strada Ștefan Augustin Doinaș,310004,46.1806473,21.3157396
Bl. A Sc.B,Strada Ștefan Augustin Doinaș,310004,46.1807633,21.3158284
Bl. A Sc.C,Strada Ștefan Augustin Doinaș,310004,46.1808808,21.3159182
Bl. B Sc.A,Strada Ștefan Augustin Doinaș,310004,46.1807975,21.3153117
Bl. B Sc.B,Strada Ștefan Augustin Doinaș,310004,46.1809131,21.3153996
Bl. B Sc.C,Strada Ștefan Augustin Doinaș,310004,46.1810340,21.3154963
Bl. C Sc.A,Strada Ștefan Augustin Doinaș,310004,46.1809372,21.3149301
Bl. C Sc.B,Strada Ștefan Augustin Doinaș,310004,46.1810474,21.3150165
Bl. C Sc.C,Strada Ștefan Augustin Doinaș,310004,46.1811723,21.3151147
36,Strada Panselei,310265,46.1489690,21.3507446
2,Strada Maramureș,310391,46.1907055,21.2980965
2,Strada Maramureș,310391,46.1908852,21.2980659
4,Strada Maramureș,310391,46.1908861,21.2975886
4,Strada Maramureș,310391,46.1910343,21.2977330
4,Strada Maramureș,310391,46.1912143,21.2977073
15,Strada Libertății,310385,46.1914487,21.2980409
15,Strada Libertății,310385,46.1915125,21.2977902
15,Strada Libertății,310385,46.1916293,21.2975708
13,Strada Libertății,310385,46.1918032,21.2980112
13,Strada Libertății,310385,46.1918547,21.2977611
Bl. X19 Sc.A,Strada Libertății,310385,46.1919640,21.2975406
11,Strada Libertății,310385,46.1921427,21.2980063
11,Strada Libertății,310385,46.1921986,21.2977503
11,Strada Libertății,310385,46.1923107,21.2975310
16,Aleea Dezna,310384,46.1925935,21.2981098
14,Aleea Dezna,310384,46.1928252,21.2976626
12,Aleea Dezna,310384,46.1931196,21.2979339
10,Aleea Dezna,310384,46.1931026,21.2972641
10,Aleea Dezna,310384,46.1932368,21.2974373
10,Aleea Dezna,310384,46.1934144,21.2975342
8,Aleea Dezna,310384,46.1934435,21.2970203
8,Aleea Dezna,310384,46.1935865,21.2971882
8,Aleea Dezna,310384,46.1937591,21.2972855
6,Aleea Dezna,310384,46.1937904,21.2967685
6,Aleea Dezna,310384,46.1939316,21.2969377
6,Aleea Dezna,310384,46.1941130,21.2970354
2,Aleea Dezna,310384,46.1943296,21.2967314
2,Aleea Dezna,310384,46.1943818,21.2964413
2,Aleea Dezna,310384,46.1942879,21.2961877
2,Aleea Dezna,310384,46.1941947,21.2959326
4,Aleea Dezna,310384,46.1938667,21.2960874
4,Aleea Dezna,310384,46.1937165,21.2962972
4,Aleea Dezna,310384,46.1935697,21.2965133
1,Aleea Neptun,310388,46.1932232,21.3031552
1,Aleea Neptun,310388,46.1933255,21.3029041
1,Aleea Neptun,310388,46.1934290,21.3026572
1,Aleea Neptun,310388,46.1933901,21.3023687
3,Aleea Neptun,310388,46.1936631,21.3021234
3,Aleea Neptun,310388,46.1937641,21.3018770
3,Aleea Neptun,310388,46.1938670,21.3016256
3,Aleea Neptun,310388,46.1938242,21.3013249
Bl. X4 Sc.D,Aleea Tomis,310381,46.1934385,21.2987628
Bl. X4 Sc.C,Aleea Tomis,310381,46.1934543,21.2990574
Bl. X4 Sc.B,Aleea Tomis,310381,46.1934792,21.2993927
Bl. X4 Sc.A,Aleea Tomis,310381,46.1934976,21.2997039
Bl. X3,Aleea Tomis,310381,46.1937982,21.2998238
Bl. X2,Aleea Tomis,310381,46.1942662,21.2997641
3,Aleea Tomis,310381,46.1947888,21.2998051
Bl. X5 Sc.A,Aleea Tomis,310381,46.1940260,21.2993905
Bl. X5 Sc.B,Aleea Tomis,310381,46.1942608,21.2993596
Bl. X5 Sc.C,Aleea Tomis,310381,46.1945087,21.2993274
Bl. X6 Sc.D,Aleea Tomis,310381,46.1946251,21.2978193
Bl. X6 Sc.C,Aleea Tomis,310381,46.1947219,21.2981051
Bl. X6 Sc.B,Aleea Tomis,310381,46.1947858,21.2984334
Bl. X6 Sc.A,Aleea Tomis,310381,46.1949063,21.2987234
133-137,Calea Aurel Vlaicu,310141,46.1953547,21.2995054
133-137,Calea Aurel Vlaicu,310141,46.1955129,21.2991881
133-137,Calea Aurel Vlaicu,310141,46.1957043,21.2989755
133-137,Calea Aurel Vlaicu,310141,46.1959109,21.2987903
16,Strada Hațeg,310376,46.1950630,21.2960841
14,Strada Hațeg,310376,46.1951331,21.2956900
12,Strada Hațeg,310376,46.1954185,21.2957135
7,Strada Hațeg,310376,46.1953980,21.2961759
7,Strada Hațeg,310376,46.1955803,21.2959862
7,Strada Hațeg,310376,46.1957927,21.2958484
7,Strada Hațeg,310376,46.1959805,21.2956552
7,Strada Hațeg,310376,46.1961908,21.2955205
5,Strada Hațeg,310376,46.1965535,21.2953507
5,Strada Hațeg,310376,46.1967383,21.2952757
5,Strada Hațeg,310376,46.1968413,21.2950416
5,Strada Hațeg,310376,46.1970277,21.2949694
5,Strada Hațeg,310376,46.1971337,21.2947426
1,Strada Hațeg,310376,46.1972622,21.2965138
1,Strada Hațeg,310376,46.1974438,21.2963226
1,Strada Hațeg,310376,46.1976592,21.2961738
1,Strada Hațeg,310376,46.1978358,21.2959670
1,Strada Hațeg,310376,46.1980486,21.2958352
1,Strada Hațeg,310376,46.1982197,21.2956308
Bl. 12 Sc.A,Strada Fluturilor,310378,46.1986167,21.2918520
Bl. 12 Sc.B,Strada Fluturilor,310378,46.1987314,21.2916660
Bl. 12 Sc.C,Strada Fluturilor,310378,46.1988034,21.2914261
Bl. 12 Sc.D,Strada Fluturilor,310378,46.1989183,21.2912399
Bl. 11 Sc.A,Strada Fluturilor,310378,46.1991151,21.2909208
Bl. 11 Sc.B,Strada Fluturilor,310378,46.1992218,21.2907467
Bl. 11 Sc.C,Strada Fluturilor,310378,46.1993329,21.2905653
Bl. 10B,Strada Fluturilor,310378,46.1993552,21.2900009
Bl. 10 Sc.A,Strada Fluturilor,310378,46.1994304,21.2897078
Bl. 10 Sc.B,Strada Fluturilor,310378,46.1995319,21.2895385
Bl. 10 Sc.C,Strada Fluturilor,310378,46.1996300,21.2893751
Bl. 10 Sc.D,Strada Fluturilor,310378,46.1997285,21.2892107
Bl. 9 Sc.A,Strada Fluturilor,310378,46.1995668,21.2901766
Bl. 9 Sc.B,Strada Fluturilor,310378,46.1996640,21.2900165
Bl. 9 Sc.C,Strada Fluturilor,310378,46.1997657,21.2898500
Bl. 9 Sc.D,Strada Fluturilor,310378,46.1998647,21.2896873
Bl. 9 Sc.E,Strada Fluturilor,310378,46.1999639,21.2895247
Bl. 8 Sc.A,Strada Fluturilor,310378,46.1997640,21.2905243
Bl. 8 Sc.B,Strada Fluturilor,310378,46.1998723,21.2903488
Bl. 8 Sc.C,Strada Fluturilor,310378,46.1999798,21.2901743
Bl. 8 Sc.D,Strada Fluturilor,310378,46.2000881,21.2899986
Bl. 8 Sc.E,Strada Fluturilor,310378,46.2001961,21.2898236
Bl. 7 Sc.A,Strada Fluturilor,310378,46.2000131,21.2908250
Bl. 7 Sc.B,Strada Fluturilor,310378,46.2001215,21.2906481
Bl. 7 Sc.C,Strada Fluturilor,310378,46.2002282,21.2904740
Bl. 7 Sc.D,Strada Fluturilor,310378,46.2003354,21.2902992
Bl. 7 Sc.E,Strada Fluturilor,310378,46.2004440,21.2901219
16,Strada Andrei Mureșanu,310011,46.1819539,21.3193694
9,Strada Andrei Mureșanu,310011,46.1814257,21.3199934
6,Strada Andrei Mureșanu,310011,46.1814476,21.3208767
5,Strada Iulian Grozescu,310001,46.1821096,21.3208340
1,Strada Andrei Mureșanu,310011,46.1809652,21.3210398
19,Strada Andrei Mureșanu,310011,46.1820393,21.3180526
17,Strada Andrei Mureșanu,310011,46.1820147,21.3183285
22,Strada Andrei Mureșanu,310011,46.1820991,21.3188959
20,Strada Andrei Mureșanu,310011,46.1820651,21.3190618
18,Strada Andrei Mureșanu,310011,46.1820054,21.3192385
24,Strada Andrei Mureșanu,310011,46.1821954,21.3187579
20,Strada Ștefan Augustin Doinaș,310012,46.1817335,21.3178897
22,Strada Ștefan Augustin Doinaș,310012,46.1818427,21.3179776
24,Strada Ștefan Augustin Doinaș,310004,46.1823051,21.3184263
33-37,Strada Ștefan Augustin Doinaș,310004,46.1830255,21.3178320
33-37,Strada Ștefan Augustin Doinaș,310004,46.1831370,21.3176696
92,Strada Zimbrului,310240,46.1465901,21.3351802
92,Strada Zimbrului,310240,46.1466428,21.3354097
92,Strada Zimbrului,310240,46.1466892,21.3356435
Bl. 6 Sc.A,Strada Ștefan cel Mare,310237,46.1453276,21.3341363
Bl. 6 Sc.B,Strada Nicolai Gogol,310240,46.1454857,21.3341166
Bl. 6 Sc.C,Strada Nicolai Gogol,310240,46.1455278,21.3339189
Bl. 13 Sc.B,Strada Ștefan cel Mare,310237,46.1452767,21.3334070
Bl. 13 Sc.B,Strada Ștefan cel Mare,310237,46.1450905,21.3334260
Bl. 5 Sc.B,Strada Ștefan cel Mare,310237,46.1450333,21.3339884
Bl. 5 Sc.A,Strada Ștefan cel Mare,310237,46.1448160,21.3338573
Bl. 11 Sc.A,Strada Ștefan cel Mare,310237,46.1448338,21.3329570
Bl. 11 Sc.B,Strada Ștefan cel Mare,310237,46.1448415,21.3332000
Bl. 3 Sc.A,Strada Caransebeș,310238,46.1446485,21.3323601
Bl. 3 Sc.B,Strada Ștefan cel Mare,310237,46.1444903,21.3325072
Bl. 3 Sc.C,Strada Ștefan cel Mare,310237,46.1444554,21.3326959
Bl. 10 Sc.B,Strada Caransebeș,310238,46.1449338,21.3323355
Bl. 10 Sc.A,Strada Caransebeș,310238,46.1450722,21.3323250
Bl. 9 Sc.B,Strada Caransebeș,310238,46.1453244,21.3323114
Bl. 9 Sc.A,Strada Caransebeș,310238,46.1454643,21.3322966
Bl. 8 Sc.B,Strada Nicolai Gogol,310240,46.1455553,21.3326492
Bl. 8 Sc.A,Strada Nicolai Gogol,310240,46.1455660,21.3328519
Bl. 12 Sc.B,Strada Nicolai Gogol,310240,46.1452476,21.3327850
Bl. 12 Sc.A,Strada Nicolai Gogol,310240,46.1450600,21.3328061
71,Bulevardul Revoluției,310130,46.1763625,21.3195222
69,Bulevardul Revoluției,310130,46.1766087,21.3197883
5,Strada Nicolae Grigorescu,310131,46.1779631,21.3218992
7,Strada Nicolae Grigorescu,310131,46.1777720,21.3222558
9,Strada Nicolae Grigorescu,310131,46.1776521,21.3226797
2,Strada Dimitrie Bolintineanu,310176,46.1796872,21.3259630
2A,Strada Mircea Stănescu,310009,46.1806837,21.3203268
4,Strada Mircea Stănescu,310009,46.1807637,21.3201181
6,Strada Mircea Stănescu,310009,46.1808810,21.3198571
9,Strada Mircea Stănescu,310009,46.1807984,21.3191975
5,Strada Mircea Stănescu,310009,46.1806658,21.3195992
7,Strada Mircea Stănescu,310009,46.1807415,21.3193501
12,Strada Mircea Stănescu,310009,46.1810783,21.3191535
10,Strada Tudor Vladimirescu,310010,46.1805667,21.3186522
1,Strada Tudor Vladimirescu,310010,46.1799319,21.3177118
3,Strada Tudor Vladimirescu,310010,46.1800667,21.3177651
5,Strada Tudor Vladimirescu,310010,46.1803146,21.3180314
7,Strada Tudor Vladimirescu,310010,46.1805633,21.3182652
9,Strada Tudor Vladimirescu,310010,46.1807213,21.3183875
11A,Strada Tudor Vladimirescu,310010,46.1808328,21.3184666
13,Strada Tudor Vladimirescu,310010,46.1809712,21.3186120
15,Strada Tudor Vladimirescu,310010,46.1810427,21.3186875
17-19,Strada Tudor Vladimirescu,310010,46.1812269,21.3187271
21,Strada Tudor Vladimirescu,310010,46.1813695,21.3189289
23,Strada Tudor Vladimirescu,310010,46.1815249,21.3190361
23A,Strada Tudor Vladimirescu,310010,46.1817091,21.3191335
16,Strada Duiliu Zamfirescu,310224,46.2043659,21.3275303
14,Strada Duiliu Zamfirescu,310224,46.2042355,21.3274390
6,Strada Duiliu Zamfirescu,310224,46.2033347,21.3271313
5,Strada Duiliu Zamfirescu,310224,46.2033185,21.3265234
1-3,Strada Duiliu Zamfirescu,310224,46.2029856,21.3264369
127,Strada Petru Rareș,310210,46.1997114,21.3387311
125,Strada Petru Rareș,310210,46.1994351,21.3384950
123,Strada Petru Rareș,310210,46.1994105,21.3383937
121,Strada Petru Rareș,310210,46.1992703,21.3382613
119,Strada Petru Rareș,310210,46.1992539,21.3379529
117,Strada Petru Rareș,310210,46.1990433,21.3381371
115,Strada Petru Rareș,310210,46.1989232,21.3380128
113,Strada Petru Rareș,310210,46.1987938,21.3377386
111,Strada Petru Rareș,310210,46.1986615,21.3376854
109,Strada Petru Rareș,310210,46.1986129,21.3375684
107,Strada Petru Rareș,310210,46.1984830,21.3374921
103,Strada Petru Rareș,310210,46.1983058,21.3372952
105,Strada Petru Rareș,310210,46.1984049,21.3374235
101,Strada Petru Rareș,310210,46.1982197,21.3371625
99,Strada Petru Rareș,310210,46.1981043,21.3370627
97,Strada Petru Rareș,310210,46.1979290,21.3369030
95,Strada Petru Rareș,310210,46.1978470,21.3366044
93,Strada Petru Rareș,310210,46.1976366,21.3365831
108,Strada Petru Rareș,310206,46.1986748,21.3383871
36B,Strada Vrancei,310315,46.1725338,21.3576496
Bl. 1 Sc. A,Strada Voinicilor,310304,46.1688469,21.3656260
194,Calea Radnei,310292,46.1782355,21.3522994
200,Calea Radnei,310292,46.1781149,21.3529022
202,Calea Radnei,310292,46.1779611,21.3530466
204,Calea Radnei,310292,46.1780012,21.3532402
214,Calea Radnei,310292,46.1776484,21.3542793
212,Calea Radnei,310292,46.1778397,21.3540861
210,Calea Radnei,310292,46.1778655,21.3538501
208,Calea Radnei,310292,46.1779408,21.3536792
206,Calea Radnei,310292,46.1779784,21.3535104
196,Calea Radnei,310292,46.1781792,21.3524457
198,Calea Radnei,310292,46.1779730,21.3526413
Nr.214 Alé Caffé,Calea Radnei,310267,46.1778144,21.3542332
Universul Verde 24,Strada Pădurii,310040,46.1714063,21.2920761
68B,Strada Căpitan Ignat,310057,46.1743132,21.2943344
68B,Strada Căpitan Ignat,310057,46.1743579,21.2942262
4,Strada Dornei,310093,46.1663519,21.3117392
6,Strada Dornei,310093,46.1662623,21.3119146
8,Strada Dornei,310093,46.1663098,21.3120828
14,Strada Dornei,310093,46.1662601,21.3126239
16,Strada Dornei,310093,46.1662259,21.3129048
7,Strada Dornei,310093,46.1663924,21.3130045
18-20,Strada Dornei,310093,46.1661419,21.3131554
22,Strada Dornei,310093,46.1661575,21.3133949
24,Strada Dornei,310093,46.1660641,21.3135534
17,Strada Dornei,310093,46.1663385,21.3139212
19A,Strada Dornei,310093,46.1662371,21.3148142
21,Strada Dornei,310093,46.1662035,21.3149615
24,Strada Grigore Alexandrescu,310109,46.1661366,21.3151218
31,Strada Grigore Alexandrescu,310109,46.1658533,21.3154617
33,Strada Grigore Alexandrescu,310109,46.1657124,21.3154147
29,Strada Grigore Alexandrescu,310109,46.1659652,21.3154823
27,Strada Dornei,310093,46.1662178,21.3160638
38,Strada Dornei,310106,46.1658671,21.3164857
31,Strada Dornei,310106,46.1660698,21.3164387
33,Strada Dornei,310106,46.1660664,21.3166156
38A,Strada Dornei,310106,46.1658584,21.3166425
40,Strada Dornei,310106,46.1657927,21.3170440
44,Strada Dornei,310106,46.1656213,21.3181667
46,Strada Dornei,310106,46.1656314,21.3183895
48,Strada Dornei,310106,46.1655433,21.3185412
49,Strada Dornei,310106,46.1658773,21.3183135
51,Strada Dornei,310106,46.1658709,21.3185407
53,Strada Dornei,310106,46.1658496,21.3187998
Bl. 5,Strada Rodnei,310418,46.1818673,21.2926504
1,Strada Mărășești,310032,46.1748130,21.3118612
28,Strada Episcopiei,310084,46.1747303,21.3116429
11-13,Strada Episcopiei,310023,46.1751341,21.3141241
15,Strada Episcopiei,310023,46.1750163,21.3139425
17,Strada Episcopiei,310023,46.1747190,21.3128059
19-21,Strada Episcopiei,310023,46.1746027,21.3124905
30,Strada Episcopiei,310084,46.1747320,21.3115014
32,Strada Episcopiei,310084,46.1745325,21.3111324
34,Strada Episcopiei,310084,46.1743853,21.3110207
36,Strada Episcopiei,310084,46.1742972,21.3109054
38,Strada Episcopiei,310084,46.1742164,21.3107173
40-42,Strada Episcopiei,310084,46.1740927,21.3104254
44,Strada Episcopiei,310084,46.1738520,21.3100886
46,Strada Episcopiei,310084,46.1737432,21.3098563
48,Strada Episcopiei,310084,46.1735435,21.3097062
50,Strada Episcopiei,310084,46.1734159,21.3096199
52,Strada Episcopiei,310084,46.1733400,21.3094145
54,Strada Episcopiei,310084,46.1732231,21.3092730
56,Strada Episcopiei,310084,46.1731437,21.3091518
1,Strada Ion Luca Caragiale,310084,46.1728569,21.3090353
3,Strada Ion Luca Caragiale,310084,46.1730773,21.3087491
5,Strada Ion Luca Caragiale,310084,46.1731930,21.3086255
7,Strada Ion Luca Caragiale,310084,46.1733054,21.3085307
9,Strada Ion Luca Caragiale,310084,46.1734059,21.3084391
2,Strada Ion Luca Caragiale,310084,46.1732669,21.3089687
4,Strada Ion Luca Caragiale,310084,46.1734103,21.3088051
6,Strada Ion Luca Caragiale,310084,46.1736105,21.3087131
11,Strada Ion Luca Caragiale,310084,46.1735052,21.3082682
13,Strada Ion Luca Caragiale,310084,46.1736257,21.3081221
8,Strada Ion Luca Caragiale,310084,46.1737428,21.3085283
10,Strada Ion Luca Caragiale,310084,46.1738215,21.3084450
12,Strada Ion Luca Caragiale,310084,46.1739384,21.3084473
14,Strada Ion Luca Caragiale,310084,46.1739721,21.3082554
19,Strada Ion Luca Caragiale,310084,46.1738871,21.3079362
16,Strada Ion Luca Caragiale,310084,46.1741348,21.3082817
21,Strada Ion Luca Caragiale,310084,46.1739714,21.3079291
23,Strada Ion Luca Caragiale,310084,46.1740934,21.3078203
25,Strada Ion Luca Caragiale,310084,46.1742274,21.3077037
18,Strada Ion Luca Caragiale,310084,46.1742206,21.3081326
20,Strada Ion Luca Caragiale,310084,46.1743153,21.3080753
22,Strada Ion Luca Caragiale,310084,46.1744135,21.3080177
2,Strada Sinaia,310084,46.1745289,21.3075735
27,Strada Ion Luca Caragiale,310084,46.1747639,21.3076203
24,Strada Ion Luca Caragiale,310084,46.1745459,21.3079478
26,Strada Ion Luca Caragiale,310084,46.1746305,21.3079411
28,Strada Ion Luca Caragiale,310084,46.1747417,21.3079894
30,Strada Ion Luca Caragiale,310084,46.1748573,21.3079560
29,Strada Ion Luca Caragiale,310029,46.1753322,21.3075677
31,Strada Ion Luca Caragiale,310029,46.1754395,21.3076317
34,Strada Ion Luca Caragiale,310029,46.1755714,21.3081131
33,Strada Ion Luca Caragiale,310029,46.1755283,21.3076834
36,Strada Ion Luca Caragiale,310029,46.1757707,21.3082726
35,Strada Ion Luca Caragiale,310029,46.1756424,21.3078350
37,Strada Ion Luca Caragiale,310029,46.1758033,21.3078678
39,Strada Ion Luca Caragiale,310029,46.1760077,21.3079465
41A,Strada Ion Luca Caragiale,310029,46.1761871,21.3078016
41,Strada Ion Luca Caragiale,310029,46.1761532,21.3080957
43,Strada Ion Luca Caragiale,310029,46.1762495,21.3081413
45,Strada Ion Luca Caragiale,310029,46.1763424,21.3081509
40A,Strada Ion Luca Caragiale,310029,46.1761604,21.3087145
38,Strada Ion Luca Caragiale,310029,46.1759170,21.3084094
40,Strada Ion Luca Caragiale,310029,46.1760623,21.3084222
40A,Strada Ion Luca Caragiale,310029,46.1762252,21.3084893
47,Strada Ion Luca Caragiale,310029,46.1764330,21.3082355
44,Strada Ion Luca Caragiale,310029,46.1763711,21.3085895
46,Strada Ion Luca Caragiale,310029,46.1764691,21.3086783
48,Strada Ion Luca Caragiale,310029,46.1765719,21.3086588
49,Strada Ion Luca Caragiale,310029,46.1765411,21.3082877
51,Strada Ion Luca Caragiale,310029,46.1766552,21.3083399
53,Strada Ion Luca Caragiale,310029,46.1767381,21.3083808
53A,Strada Ion Luca Caragiale,310029,46.1768876,21.3083855
48A,Strada Ion Luca Caragiale,310029,46.1766743,21.3086985
50,Strada Ion Luca Caragiale,310029,46.1767805,21.3087506
32,Strada Andrei Șaguna,310037,46.1791226,21.3080501
34,Strada Andrei Șaguna,310037,46.1789775,21.3079038
36,Strada Andrei Șaguna,310037,46.1788799,21.3076813
38,Strada Andrei Șaguna,310037,46.1786680,21.3079123
40,Strada Andrei Șaguna,310037,46.1785718,21.3077889
44,Strada Andrei Șaguna,310037,46.1782728,21.3076134
46,Strada Andrei Șaguna,310037,46.1781273,21.3076187
48,Strada Andrei Șaguna,310037,46.1780059,21.3074673
48A,Strada Andrei Șaguna,310037,46.1779037,21.3074252
52,Strada Andrei Șaguna,310037,46.1776575,21.3074134
54,Strada Andrei Șaguna,310037,46.1771893,21.3071459
56,Strada Andrei Șaguna,310037,46.1770856,21.3071106
58,Strada Andrei Șaguna,310037,46.1769641,21.3069502
267,Calea Aurel Vlaicu,310451,46.2007936,21.2809441
Ap. 12-15,Strada I Zona Industrială Vest,310245,46.2058280,21.2510179
8,Strada I Zona Industrială Vest,310205,46.2065636,21.2525227
6,Strada I Zona Industrială Vest,310205,46.2059001,21.2551330
5,Strada I Zona Industrială Vest,310419,46.2076199,21.2606768
1,Strada I Zona Industrială Vest,310502,46.2077939,21.2639346
3,Strada IV Zona Industrială Vest,310349,46.2090309,21.2627003
11,Strada III Zona Industrială Vest,310491,46.2104403,21.2474793
7,Strada III Zona Industrială Vest,310205,46.2074897,21.2482717
10,Strada III Zona Industrială Vest,310491,46.2103925,21.2519133
10,Strada III Zona Industrială Vest,310491,46.2098967,21.2521070
10,Strada III Zona Industrială Vest,310510,46.2094036,21.2522988
8,Strada III Zona Industrială Vest,310491,46.2096035,21.2536044
5,Strada III Zona Industrială Vest,310491,46.2086799,21.2552785
4-4A,Strada III Zona Industrială Vest,310491,46.2106807,21.2563574
Nr.2 Coficab Eastern Europe,Strada III Zona Industrială Vest,310491,46.2115137,21.2605597
1,Strada III Zona Industrială Vest,307200,46.2096235,21.2607449
3,Strada III Zona Industrială Vest,310345,46.2084096,21.2592441
1,Strada III Zona Industrială Vest,310491,46.2093637,21.2592522
14,Strada Cloșca,310017,46.1784109,21.3170328
12,Strada Cloșca,310017,46.1782961,21.3172693
10,Strada Cloșca,310017,46.1782241,21.3174912
8,Strada Cloșca,310017,46.1782470,21.3177899
Bl. 3a,Aleea Albac,310018,46.1776229,21.3181618
11,Strada Horia,310018,46.1765065,21.3150540
7,Strada Horia,310018,46.1763067,21.3155329
5,Strada Horia,310018,46.1761770,21.3158090
3,Strada Horia,310018,46.1761113,21.3161377
2,Strada Episcopiei,310023,46.1759675,21.3161979
4,Strada Episcopiei,310023,46.1758653,21.3159615
6,Strada Episcopiei,310023,46.1758728,21.3156050
8,Strada Episcopiei,310023,46.1757245,21.3154141
10A,Strada Episcopiei,310023,46.1755728,21.3147445
9,Strada Episcopiei,310023,46.1753399,21.3153391
7,Strada Episcopiei,310023,46.1754729,21.3155476
5,Strada Episcopiei,310023,46.1755046,21.3159766
3,Strada Episcopiei,310023,46.1756223,21.3161962
1,Strada Episcopiei,310023,46.1756685,21.3164703
23,Strada Episcopiei,310023,46.1745150,21.3122289
25,Strada Episcopiei,310084,46.1743189,21.3119408
31,Strada Episcopiei,310084,46.1737263,21.3104717
27,Strada Episcopiei,310084,46.1741726,21.3115110
33,Strada Episcopiei,310084,46.1736099,21.3102873
308,Calea Aurel Vlaicu,310375,46.2032334,21.2489775
308,Calea Aurel Vlaicu,310375,46.2031709,21.2493232
300,Calea Aurel Vlaicu,310375,46.2034291,21.2516675
300,Calea Aurel Vlaicu,310375,46.2035901,21.2525652
285,Calea Aurel Vlaicu,310451,46.2005403,21.2591299
289C,Calea Aurel Vlaicu,310375,46.2008417,21.2561004
Nr.281 Motortec Skoda,Calea Aurel Vlaicu,310141,46.2011663,21.2605617
275b,Calea Aurel Vlaicu,310451,46.2011922,21.2660733
288A,Calea Radnei,310318,46.1726964,21.3706691
2 Sc. A,Strada Rodnei,310418,46.1815292,21.2929358
2 Sc. B,Strada Rodnei,310418,46.1816786,21.2930278
35-37,Calea Romanilor,310114,46.1627319,21.3236063
28,Calea Romanilor,310112,46.1630734,21.3227359
30,Calea Romanilor,310112,46.1629648,21.3227724
32,Calea Romanilor,310112,46.1628240,21.3228034
26B,Calea Romanilor,310112,46.1633786,21.3226425
26A,Calea Romanilor,310112,46.1634430,21.3225574
26A,Calea Romanilor,310112,46.1634687,21.3227155
26,Calea Romanilor,310112,46.1635925,21.3225790
24,Calea Romanilor,310112,46.1639531,21.3224285
10,Calea Romanilor,310119,46.1655979,21.3216648
8,Strada Mucius Scaevola,310106,46.1666399,21.3193024
5,Strada Mucius Scaevola,310107,46.1658944,21.3200347
3,Strada Mucius Scaevola,310106,46.1660013,21.3201201
1A,Strada Mucius Scaevola,310106,46.1661147,21.3200869
42,Strada Andrei Șaguna,310037,46.1783887,21.3077213
35-37,Strada Dornei,310106,46.1660429,21.3168499
2,Strada Fabius,310270,46.1802791,21.3458037
116,Calea Radnei,310267,46.1804135,21.3426785
Bl. 64 Sc.A,Strada Condurașilor,310053,46.1658396,21.2922547
Bl. 64 Sc.B,Strada Condurașilor,310053,46.1658266,21.2920502
122,Calea Radnei,310267,46.1801852,21.3431600
9B,Strada Tribunul Dobra,310101,46.1684435,21.3185335
1,Strada Tribunul Dobra,310101,46.1694571,21.3172841
2,Strada Gheorghe Lazăr,310126,46.1694959,21.3174340
4,Strada Gheorghe Lazăr,310126,46.1695635,21.3176750
6,Strada Gheorghe Lazăr,310126,46.1694895,21.3179362
8,Strada Gheorghe Lazăr,310126,46.1695672,21.3180861
10,Strada Gheorghe Lazăr,310126,46.1696113,21.3182191
12,Strada Gheorghe Lazăr,310126,46.1695753,21.3183807
14,Strada Gheorghe Lazăr,310126,46.1695979,21.3185464
3,Strada Gheorghe Lazăr,310126,46.1697643,21.3174301
1,Strada Gheorghe Lazăr,310126,46.1697139,21.3171912
3,Strada Tribunul Dobra,310101,46.1692889,21.3174666
11,Strada Tribunul Dobra,310101,46.1684193,21.3187147
13,Strada Tribunul Dobra,310101,46.1683330,21.3188676
15,Strada Tribunul Dobra,310101,46.1683302,21.3189795
8,Strada Romulus Cărpinișan,310127,46.1684536,21.3191806
6,Strada Romulus Cărpinișan,310127,46.1685118,21.3189424
2,Strada Romulus Cărpinișan,310127,46.1686405,21.3184641
4,Strada Romulus Cărpinișan,310127,46.1685533,21.3185774
1,Strada Cozia,310101,46.1682557,21.3173317
5-7,Strada Tribunul Axente,310102,46.1679346,21.3171704
1,Strada Tribunul Axente,310102,46.1681612,21.3172242
3,Strada Tribunul Axente,310102,46.1680744,21.3172278
C2,Strada Tribunul Axente,310102,46.1678869,21.3166270
6,Strada Tribunul Axente,310102,46.1676541,21.3165485
22,Strada Tribunul Axente,310102,46.1669158,21.3162757
33,Strada Tribunul Axente,310102,46.1668497,21.3166299
31,Strada Tribunul Axente,310102,46.1669665,21.3166562
29,Strada Tribunul Axente,310102,46.1670404,21.3167849
20,Strada Tribunul Axente,310102,46.1670044,21.3163523
16-18,Strada Tribunul Axente,310102,46.1671548,21.3163582
13,Piața Avram Iancu,310099,46.1694619,21.3155882
14,Piața Avram Iancu,310123,46.1695449,21.3154793
15,Piața Avram Iancu,310099,46.1696331,21.3154835
12,Piața Avram Iancu,310123,46.1692518,21.3153952
16,Piața Avram Iancu,310123,46.1697817,21.3152973
204,Calea Aurel Vlaicu,310141,46.2002085,21.2942109
204,Calea Aurel Vlaicu,310141,46.2004212,21.2939724
Nr. 206-218,Calea Aurel Vlaicu,310375,46.1998882,21.2955715
15,Strada Mihai Eminescu,310086,46.1718279,21.3123925
13,Strada Mihai Eminescu,310086,46.1716654,21.3127181
11,Strada Mihai Eminescu,310086,46.1716392,21.3129622
9,Strada Mihai Eminescu,310086,46.1715933,21.3130838
7,Strada Mihai Eminescu,310086,46.1715762,21.3132757
5,Strada Mihai Eminescu,310086,46.1716138,21.3134818
3,Strada Mihai Eminescu,310086,46.1716584,21.3138233
Milenium Events 4,Strada Vasile Goldiș,310090,46.1712900,21.3141916
MUZEUL MEMORIAL VASILE GOLDIȘ 6,Strada Vasile Goldiș,310090,46.1713106,21.3137539
185A,Calea Aurel Vlaicu,310451,46.1996695,21.2936993
185,Strada Predeal,310377,46.1995411,21.2939770
34,Strada Mihai Eminescu,310085,46.1721958,21.3104948
36,Strada Mihai Eminescu,310085,46.1721825,21.3101918
38,Strada Mihai Eminescu,310085,46.1721944,21.3098539
40,Strada Mihai Eminescu,310085,46.1722467,21.3095840
42,Strada Mihai Eminescu,310085,46.1722642,21.3092682
33,Strada Mihai Eminescu,310085,46.1718966,21.3096351
35,Strada Mihai Eminescu,310085,46.1719766,21.3091673
37,Strada Mihai Eminescu,310085,46.1719639,21.3089746
39,Strada Mihai Eminescu,310085,46.1718694,21.3087762
41,Strada Mihai Eminescu,310085,46.1718827,21.3085662
43,Strada Mihai Eminescu,310085,46.1718700,21.3083694
45,Strada Mihai Eminescu,310085,46.1719042,21.3081400
47,Strada Mihai Eminescu,310085,46.1719268,21.3079857
49,Strada Mihai Eminescu,310085,46.1719262,21.3078308
51,Strada Mihai Eminescu,310085,46.1717378,21.3077784
53,Strada Mihai Eminescu,310085,46.1717662,21.3075349
55-57,Strada Mihai Eminescu,310084,46.1716190,21.3073170
1,Strada Transilvaniei,310085,46.1716902,21.3070925
46,Strada Mihai Eminescu,310085,46.1722522,21.3078238
48,Strada Mihai Eminescu,310085,46.1722160,21.3073434
32,Strada Mihai Eminescu,310085,46.1722719,21.3106961
30,Strada Mihai Eminescu,310085,46.1722398,21.3109705
28,Strada Mihai Eminescu,310085,46.1721565,21.3112787
52,Strada Mihai Eminescu,310084,46.1721353,21.3065577
54-56,Strada Mihai Eminescu,310084,46.1721888,21.3062413
58,Strada Mihai Eminescu,310084,46.1721773,21.3059338
60,Strada Mihai Eminescu,310084,46.1720818,21.3058138
62,Strada Mihai Eminescu,310084,46.1720780,21.3056525
95,Strada Andrei Șaguna,310036,46.1713533,21.3045316
97,Strada Andrei Șaguna,310036,46.1711977,21.3044626
73,Strada Mihai Eminescu,310084,46.1715533,21.3051094
71,Strada Mihai Eminescu,310084,46.1717032,21.3051833
69,Strada Mihai Eminescu,310084,46.1717079,21.3053355
67,Strada Mihai Eminescu,310084,46.1716931,21.3055272
65,Strada Mihai Eminescu,310084,46.1717893,21.3057423
63,Strada Mihai Eminescu,310084,46.1717939,21.3059691
61,Strada Mihai Eminescu,310084,46.1717817,21.3061425
57,Strada Mihai Eminescu,310085,46.1719114,21.3067787
59,Strada Mihai Eminescu,310084,46.1718443,21.3063676
50,Strada Mihai Eminescu,310084,46.1721210,21.3067971
1,Strada Gheorghe Șincai,310084,46.1722065,21.3067468
3,Strada Gheorghe Șincai,310084,46.1723498,21.3066414
5,Strada Gheorghe Șincai,310084,46.1725074,21.3065032
26,Strada Mihai Eminescu,310086,46.1722038,21.3120116
24,Strada Mihai Eminescu,310086,46.1721923,21.3123234
22-20,Strada Mihai Eminescu,310084,46.1721671,21.3127161
18,Strada Mihai Eminescu,310086,46.1720822,21.3130204
16,Strada Mihai Eminescu,310086,46.1721181,21.3132560
2,Strada Mihai Eminescu,310086,46.1719346,21.3150302
4,Strada Mihai Eminescu,310086,46.1718980,21.3145595
6,Strada Mihai Eminescu,310086,46.1719310,21.3141732
8,Strada Mihai Eminescu,310086,46.1720412,21.3139345
10,Strada Mihai Eminescu,310086,46.1722667,21.3138935
12,Strada Mihai Eminescu,310086,46.1720430,21.3135938
14,Strada Mihai Eminescu,310086,46.1720528,21.3134588
Nr.15 Colegiul Tehnologic de In­dustrie Alimentară,Strada Lucian Blaga,310023,46.1737206,21.3136012
1,Strada Luncii,310281,46.1792011,21.3497323
Bl. 100,Strada Liviu Rebreanu,310045,46.1814878,21.2921955
Bl. O1,Strada Baladei,310415,46.1816987,21.2919955
Bl. O2,Strada Rodnei,310418,46.1815468,21.2925417
Bl. 98D,Strada Liviu Rebreanu,310045,46.1813463,21.2929714
Bl. 100 Sc.A,Strada Abatorului,310039,46.1819276,21.2931008
Bl. 100 Sc.B,Strada Abatorului,310039,46.1819998,21.2934220
Bl. 85A,Strada Clujului,310039,46.1654338,21.2956753
Bl. 75 Sc.A,Strada Condurașilor,310053,46.1660071,21.2943529
Bl. 75 Sc.B,Strada Condurașilor,310053,46.1659997,21.2941437
Bl. 62 Sc.A,Strada Griviței,310040,46.1656103,21.2918158
Bl. 62 Sc.B,Strada Griviței,310040,46.1655480,21.2920775
Bl. 61 Sc.A,Strada Condurașilor,310053,46.1658812,21.2916899
Bl. 61 Sc.B,Strada Condurașilor,310053,46.1658291,21.2914290
Bl. 61 Sc.C,Strada Griviței,310040,46.1656650,21.2914172
Bl. 56 Sc.F,Strada Pionierilor,310077,46.1637712,21.2932230
Bl. 56 Sc.G,Strada Pionierilor,310077,46.1637089,21.2934776
204-206,Strada Oituz,310064,46.1651231,21.2970081
208-210 Sc.B,Strada Oituz,310064,46.1649120,21.2968496
208-210 Sc.B1,Strada Oituz,310064,46.1649881,21.2968988
208-210 Sc.A1,Strada Oituz,310064,46.1650277,21.2966109
208-210 Sc.A,Strada Oituz,310064,46.1650333,21.2963778
Bl. B1,Strada Miron Costin,310146,46.1886255,21.3238023
Bl. B Sc.A,Strada Miron Costin,310146,46.1885164,21.3236398
Bl. B Sc.B,Strada Miron Costin,310146,46.1884308,21.3234257
Bl. B Sc.C,Strada Miron Costin,310146,46.1883324,21.3232065
Bl. B Sc.D,Strada Miron Costin,310146,46.1881960,21.3230397
Bl. B Sc.E,Strada Miron Costin,310146,46.1880138,21.3229451
193,Calea Aurel Vlaicu,310000,46.2001385,21.2930328
7,Strada Micșunelelor,310257,46.1591006,21.3338641
2,Strada Micșunelelor,310257,46.1588865,21.3335618
4,Strada Micșunelelor,310257,46.1587415,21.3336324
9A,Strada Micșunelelor,310257,46.1589265,21.3343130
11,Strada Micșunelelor,310257,46.1589123,21.3344737
11A,Strada Micșunelelor,310257,46.1589485,21.3346692
13,Strada Micșunelelor,310257,46.1587947,21.3347409
15,Strada Micșunelelor,310257,46.1588182,21.3350047
22,Strada Micșunelelor,310257,46.1581542,21.3358872
20,Strada Micșunelelor,310257,46.1581049,21.3356972
18,Strada Micșunelelor,310257,46.1581846,21.3355015
16,Strada Micșunelelor,310257,46.1582944,21.3353511
92 Bis,Strada Zimbrului,310240,46.1461650,21.3350870
Bl. 4 Sc.A,Strada Ștefan cel Mare,310237,46.1444391,21.3332073
Bl. 4 Sc.B,Strada Ștefan cel Mare,310237,46.1445518,21.3334941
Bl. 2A Sc.B,Strada Muncii,310239,46.1439199,21.3322019
Bl. 2A Sc.A,Strada Ștefan cel Mare,310237,46.1440393,21.3323592
Bl. 2 Sc.B,Strada Ștefan cel Mare,310237,46.1439879,21.3326689
Bl. 2 Sc.A,Strada Ștefan cel Mare,310237,46.1439439,21.3328581
1/A,Strada Flacăra,310262,46.1416531,21.3386087
1/A,Strada Steagului,310262,46.1415523,21.3388133
1/A,Strada Steagului,310262,46.1415458,21.3391004
19,Strada Episcopiei,310023,46.1747827,21.3130377
2,Strada Mărășești,310032,46.1750694,21.3121973
26,Strada Episcopiei,310023,46.1750721,21.3124667
24,Strada Episcopiei,310023,46.1751504,21.3127267
22,Strada Episcopiei,310023,46.1752542,21.3130635
20,Strada Episcopiei,310023,46.1753842,21.3132137
18,Strada Episcopiei,310023,46.1753128,21.3134730
13,Strada Vasile Alecsandri,310024,46.1749777,21.3149179
11-13,Strada Episcopiei,310023,46.1751937,21.3144994
2,Strada Voltaire,310025,46.1745039,21.3150368
84,Strada Dunării,310501,46.2099955,21.2781940
13,Strada IV Zona Industrială Arad Vest,310491,46.2123086,21.2619573
1 Sc.A,Strada Corneliu Coposu,310003,46.1829792,21.3227677
1 Sc.B,Strada Corneliu Coposu,310003,46.1830558,21.3225739
206,Strada Griviței,310058,46.1663939,21.2912154
59,Strada Octavian Goga,310028,46.1747594,21.3065788
25,Strada Mărășești,310032,46.1767604,21.3107830
29,Strada Mărășești,310032,46.1770506,21.3107270
27,Strada Mărășești,310032,46.1769530,21.3107298
31,Strada Mărășești,310032,46.1772122,21.3106074
33,Strada Mărășești,310032,46.1773499,21.3106648
35,Strada Mărășești,310032,46.1775016,21.3105255
37,Strada Mărășești,310032,46.1776056,21.3103394
39,Strada Mărășești,310032,46.1778746,21.3105061
41,Strada Mărășești,310032,46.1779353,21.3103640
7A,Strada Simion Balint,310019,46.1787084,21.3130351
7B,Strada Simion Balint,310019,46.1785217,21.3131011
7C,Strada Simion Balint,310019,46.1783000,21.3132802
1-3,Calea Timișorii,310253,46.1577975,21.3235093
18,Strada Flacăra,310262,46.1438210,21.3383483
51,Strada Școalei,310390,46.1943979,21.3001833
49,Strada Școalei,310390,46.1943025,21.3001949
47,Strada Școalei,310390,46.1941750,21.3001968
45,Strada Școalei,310390,46.1940750,21.3002057
121-125,Calea Aurel Vlaicu,310365,46.1939747,21.3006388
121-125,Calea Aurel Vlaicu,310365,46.1946425,21.3009616
296/6-7,Calea Aurel Vlaicu,310141,46.2001966,21.2469874
282,Calea Aurel Vlaicu,310375,46.2032224,21.2611758
Nr.259 General Beton,Calea Aurel Vlaicu,310141,46.2012915,21.2620923
26,Strada Gheorghe Lazăr,310126,46.1698842,21.3218348
Bl. G1,Strada Crasna,310187,46.1902040,21.3330792
Bl. G2,Strada Crasna,310187,46.1900082,21.3330014
Bl. G3,Strada Crasna,310187,46.1898993,21.3332727
Bl. G4,Strada Crasna,310187,46.1898711,21.3335119
Bl. R Sc.D,Strada Petru Rareș,310206,46.1911876,21.3309274
Bl. R Sc.C,Strada Petru Rareș,310206,46.1910092,21.3307569
Bl. R Sc.B,Strada Petru Rareș,310206,46.1908235,21.3305836
Bl. R Sc.A,Strada Petru Rareș,310206,46.1906385,21.3304099
Bl. R1,Strada Petru Rareș,310206,46.1904515,21.3302889
Bl. R2,Strada Petru Rareș,310206,46.1900245,21.3298290
Bl. R3,Strada Egalității,310189,46.1898201,21.3297140
20,Strada Petru Rareș,310206,46.1902475,21.3301092
5A,Strada Petru Rareș,310210,46.1922564,21.3306453
24,Strada Petru Rareș,310206,46.1921220,21.3312206
28,Strada Petru Rareș,310206,46.1924310,21.3315660
1B,Strada Comunarzilor,310189,46.1923264,21.3317411
153-163,Calea Aurel Vlaicu,310403,46.1983972,21.2958786
2/A,Strada Fragilor,310358,46.1987264,21.2970891
33,Strada Poetului,310345,46.1968597,21.3034527
Nr.5 Old Lady's Pub,Strada Poetului,310345,46.1946576,21.3071075
11,Strada Șiriei,310318,46.1767492,21.3679754
290,Calea Radnei,310318,46.1738404,21.3704141
288A,Calea Radnei,310318,46.1739685,21.3699730
288,Calea Radnei,310318,46.1739517,21.3692327
292,Calea Radnei,310318,46.1735602,21.3713428
26-28,Strada Obedenaru,310389,46.1934108,21.3002384
30,Strada Obedenaru,310389,46.1932807,21.2995460
32,Strada Obedenaru,310389,46.1932640,21.2994248
34,Strada Obedenaru,310389,46.1932125,21.2990883
34A,Strada Obedenaru,310389,46.1932056,21.2989720
19A,Strada Șiriei,310318,46.1772804,21.3691443
19,Strada Șiriei,310318,46.1773754,21.3694694
247/A,Calea Radnei,310316,46.1763335,21.3706054
1,Calea Zimandului,310208,46.2010791,21.3400750
3,Calea Zimandului,310208,46.2003838,21.3405054
8,Calea Zimandului,310216,46.2037665,21.3444455
8,Calea Zimandului,310216,46.2038680,21.3443642
2,Strada Pictor Cornel Minișan,310208,46.2033641,21.3440198
267,Calea Aurel Vlaicu,310451,46.2009623,21.2824404
96,Strada Poetului,310479,46.2095525,21.2925834
111,Strada Poetului,310369,46.2093885,21.2921921
101B,Strada Poetului,310369,46.2048157,21.2933831
56,Strada Poetului,310369,46.2042063,21.2948672
54,Strada Poetului,310369,46.2043101,21.2957838
52B,Strada Poetului,310369,46.2042150,21.2966246
52,Strada Poetului,310369,46.2037114,21.2972787
2,Strada Cerbului,310282,46.1792666,21.3512651
24,Strada Cerbului,310282,46.1803281,21.3518897
190-192,Calea Radnei,310292,46.1782628,21.3519415
14,Strada Ioan Alexandru,310170,46.1821612,21.3303657
Nr.16-18,Strada Ioan Alexandru,310170,46.1823863,21.3304606
20,Strada Ioan Alexandru,310170,46.1826428,21.3305235
22,Strada Ioan Alexandru,310170,46.1828383,21.3305227
24,Strada Ioan Alexandru,310170,46.1829716,21.3305686
26,Strada Ioan Alexandru,310170,46.1830573,21.3306099
28,Strada Ioan Alexandru,310170,46.1831924,21.3306676
30,Strada Ioan Alexandru,310170,46.1833491,21.3307430
29,Strada Ioan Alexandru,310170,46.1835701,21.3304909
27,Strada Ioan Alexandru,310170,46.1834789,21.3304104
25,Strada Ioan Alexandru,310170,46.1833659,21.3302979
19-21,Strada Ioan Alexandru,310170,46.1831141,21.3302617
23,Strada Ioan Alexandru,310170,46.1832401,21.3303511
11A,Strada Ioan Alexandru,310170,46.1822727,21.3299279
2,Strada Udrea,310171,46.1829487,21.3301633
4,Strada Udrea,310171,46.1829405,21.3298928
Nr.170A Vetagrica Lumea Animalelor,Calea Radnei,310267,46.1787580,21.3495367
Nr.172,Calea Radnei,310267,46.1787705,21.3500053
Nr.174,Calea Radnei,310267,46.1787368,21.3501299
Nr.176,Calea Radnei,310267,46.1785471,21.3502108
Nr.178,Calea Radnei,310267,46.1785698,21.3504351
Nr.180 Fluidix,Calea Radnei,310267,46.1785335,21.3506263
Nr.186 Finivops D,Calea Radnei,310000,46.1784777,21.3511696
Nr.182,Calea Radnei,310267,46.1785638,21.3508464
Nr.184,Calea Radnei,310267,46.1784895,21.3509361
7-8,Piața Mihai Viteazul,310017,46.1794790,21.3146995
43,Bulevardul Revoluției,310181,46.1795300,21.3216310
5,Strada Ioan Vidu,310181,46.1792593,21.3222838
4,Strada Călugăreni,310181,46.1792815,21.3229721
6,Strada Călugăreni,310181,46.1794388,21.3230819
1A,Strada Călugăreni,310181,46.1795947,21.3224715
5,Strada Călugăreni,310181,46.1795676,21.3228221
3B,Strada Călugăreni,310181,46.1796267,21.3228639
3,Strada Călugăreni,310181,46.1796821,21.3229045
3A,Strada Călugăreni,310181,46.1797449,21.3229497
49,Calea Iuliu Maniu,310169,46.1818058,21.3305850
Bl. 1 Sc. B,Strada Voinicilor,310304,46.1685392,21.3658995
Bl. 1 Sc. C,Strada Voinicilor,310304,46.1682133,21.3661825
Bl. 3AB Sc.A,Strada Voinicilor,310304,46.1677019,21.3659613
Bl. 3AB Sc.B,Strada Voinicilor,310304,46.1674936,21.3658955
Bl. 5AB Sc.A,Strada Voinicilor,310304,46.1678345,21.3652685
Bl. 5AB Sc.B,Strada Voinicilor,310304,46.1680432,21.3653409
3,Strada Gheorghe Ciuhandru,310339,46.1709789,21.3465482
35 Sc.A,Bulevardul Revoluției,310174,46.1808041,21.3224460
35 Sc.B,Bulevardul Revoluției,310174,46.1806461,21.3226075
35 Sc.C,Bulevardul Revoluției,310174,46.1805712,21.3228014
35 Sc.D,Bulevardul Revoluției,310174,46.1804953,21.3230010
35 Sc.E,Bulevardul Revoluției,310174,46.1804203,21.3232060
33,Bulevardul Revoluției,310174,46.1810368,21.3226696
2-4,Strada Carol Davila,310179,46.1809605,21.3231370
6,Strada Carol Davila,310179,46.1808734,21.3233697
8,Strada Carol Davila,310179,46.1808220,21.3235048
10,Strada Carol Davila,310179,46.1807727,21.3236384
16A,Strada Carol Davila,310179,46.1805959,21.3240753
18,Strada Carol Davila,310179,46.1805469,21.3242194
7,Strada Carol Davila,310179,46.1810054,21.3238412
5,Strada Carol Davila,310179,46.1810210,21.3236597
3,Strada Carol Davila,310179,46.1811447,21.3234123
28,Strada Tudor Vladimirescu,310010,46.1828142,21.3214919
31 Sc.B,Bulevardul Revoluției,310174,46.1813809,21.3229272
31 Sc.A,Bulevardul Revoluției,310174,46.1815576,21.3230762
29,Bulevardul Revoluției,310174,46.1817088,21.3232884
27,Bulevardul Revoluției,310174,46.1818945,21.3235343
25,Bulevardul Revoluției,310174,46.1819949,21.3236931
23,Bulevardul Revoluției,310174,46.1821329,21.3239687
14 Sc.A,Strada Tudor Vladimirescu,310010,46.1816509,21.3202644
14 Sc.B,Strada Tudor Vladimirescu,310010,46.1817376,21.3200346
14 Sc.C,Strada Tudor Vladimirescu,310010,46.1818220,21.3198122
14 Sc.D,Strada Tudor Vladimirescu,310010,46.1819650,21.3197780
14 Sc.E,Strada Tudor Vladimirescu,310010,46.1821007,21.3199007
3-7 Sc.A,Strada Andrei Mureșanu,310011,46.1810809,21.3207431
3-7 Sc.B,Strada Andrei Mureșanu,310011,46.1811590,21.3205396
3-7 Sc.C,Strada Andrei Mureșanu,310011,46.1812410,21.3203194
Bl. L11,Strada Iulian Grozescu,310001,46.1820860,21.3205436
2-4 Sc.A,Strada Iulian Grozescu,310001,46.1819099,21.3210778
2-4 Sc.B,Strada Iulian Grozescu,310001,46.1821173,21.3212501
2-4 Sc.D,Strada Iulian Grozescu,310001,46.1824024,21.3208823
26-38 Sc.J,Bulevardul Revoluției,310002,46.1824300,21.3226604
26-38 Sc.I,Bulevardul Revoluției,310002,46.1822882,21.3225301
26-38 Sc.H,Bulevardul Revoluției,310002,46.1821331,21.3223850
26-38 Sc.G,Bulevardul Revoluției,310002,46.1819984,21.3222558
26-38 Sc.F,Bulevardul Revoluției,310002,46.1818683,21.3221285
26-38 Sc.E,Bulevardul Revoluției,310002,46.1817207,21.3219898
26-38 Sc.D,Bulevardul Revoluției,310002,46.1815677,21.3218437
26-38 Sc.C,Bulevardul Revoluției,310002,46.1814095,21.3216921
26-38 Sc.B,Bulevardul Revoluției,310002,46.1812511,21.3215333
26-38 Sc.A,Bulevardul Revoluției,310002,46.1813121,21.3212452
Bl. 44 Sc.A,Strada Tudor Vladimirescu,310010,46.1826820,21.3199957
33,Strada Tudor Vladimirescu,310010,46.1825882,21.3198337
Bl. 44 Sc.C,Strada Tudor Vladimirescu,310010,46.1826857,21.3195851
Bl. 44 Sc.D,Strada Tudor Vladimirescu,310010,46.1827654,21.3193661
Bl. L7 Sc.B,Strada Tudor Vladimirescu,310010,46.1828644,21.3191930
Bl. L7 Sc.A,Strada Tudor Vladimirescu,310010,46.1830114,21.3193083
35,Strada Tudor Vladimirescu,310010,46.1828940,21.3201811
37,Strada Tudor Vladimirescu,310010,46.1830698,21.3202895
Bl. 37/B,Strada Tudor Vladimirescu,310010,46.1832204,21.3197479
39,Strada Tudor Vladimirescu,310010,46.1832015,21.3203996
39A,Strada Tudor Vladimirescu,310010,46.1832825,21.3201289
41-43,Strada Tudor Vladimirescu,310010,46.1833625,21.3205315
Bl. A,Strada Tudor Vladimirescu,310010,46.1835047,21.3199698
Bl. H4 Sc.G,Aleea Albac,310018,46.1770798,21.3167685
Bl. H4 Sc.F,Aleea Albac,310018,46.1769520,21.3166608
Bl. H3 Sc.E,Aleea Albac,310018,46.1768339,21.3165600
Bl. H3 Sc.D,Aleea Albac,310018,46.1767179,21.3164656
Bl. H2 Sc.C,Aleea Albac,310018,46.1766035,21.3163685
10,Strada Horia,310018,46.1764866,21.3162801
Bl. H5,Aleea Albac,310018,46.1774953,21.3162545
8,Strada Horia,310018,46.1768683,21.3173353
Bl. H6 Sc.A,Aleea Albac,310018,46.1772338,21.3175166
Bl. H6 Sc.B,Aleea Albac,310018,46.1773103,21.3173352
Bl. H6 Sc.C,Aleea Albac,310018,46.1773326,21.3171090
Bl. H6 Sc.D,Aleea Albac,310018,46.1774099,21.3169226
Bl. H7 Sc.A,Aleea Albac,310018,46.1777483,21.3171937
Bl. H7 Sc.B,Aleea Albac,310018,46.1776162,21.3170804
2-4,Strada Tudor Vladimirescu,310010,46.1796784,21.3180127
4,Strada Tudor Vladimirescu,310010,46.1799152,21.3181995
8-10,Strada Tudor Vladimirescu,310010,46.1801333,21.3190430
8,Strada Tudor Vladimirescu,310010,46.1804256,21.3185279
10B,Strada Tudor Vladimirescu,310010,46.1805193,21.3190914
10B,Strada Tudor Vladimirescu,310010,46.1804373,21.3192957
10A,Strada Tudor Vladimirescu,310010,46.1807273,21.3187832
10A,Strada Tudor Vladimirescu,310010,46.1808801,21.3189093
2,Strada Crișan,310016,46.1788622,21.3192486
52-54 Sc.B,Bulevardul Revoluției,310009,46.1788050,21.3194560
52-54 Sc.A,Bulevardul Revoluției,310009,46.1789541,21.3194758
2-4,Strada Crișan,310016,46.1789607,21.3189890
6,Strada Crișan,310016,46.1791436,21.3187770
12,Strada Crișan,310016,46.1793736,21.3179863
10,Strada Crișan,310016,46.1792846,21.3182726
8,Strada Crișan,310016,46.1791978,21.3185069
60,Bulevardul Revoluției,310025,46.1781579,21.3190513
Nr.1 Bloc A Sc.A,Strada Crișan,310016,46.1782761,21.3192324
Nr.1 Bloc A Sc.B,Strada Crișan,310016,46.1784416,21.3193237
Nr.1 Bloc A Sc.C,Strada Crișan,310016,46.1785941,21.3191821
Nr.1 Bloc A Sc.D,Strada Crișan,310016,46.1786616,21.3189871
Nr.1 Bloc A Sc.E,Strada Crișan,310016,46.1787308,21.3187954
3,Strada Crișan,310016,46.1787947,21.3185474
7,Strada Crișan,310016,46.1788787,21.3179581
9,Strada Crișan,310016,46.1789943,21.3177888
47,Bulevardul Revoluției,310181,46.1789847,21.3212988
11,Strada Dorobanților,310054,46.1691974,21.3017807
9,Strada Dorobanților,310054,46.1692096,21.3019582
Nr.21-25 Biserica Creștină Baptistă „Dragostea”,Strada Dorobanților,310055,46.1689585,21.3000495
2,Strada Pășunii,310295,46.1772481,21.3544149
4,Strada Pășunii,310295,46.1771269,21.3543790
4B,Strada Pășunii,310295,46.1770506,21.3543328
6,Strada Pășunii,310295,46.1769501,21.3543078
8,Strada Pășunii,310295,46.1768336,21.3542379
18,Strada Pășunii,310316,46.1753030,21.3536242
20,Strada Pășunii,310316,46.1749312,21.3534646
26,Strada Petru Rareș,310206,46.1922333,21.3313663
30,Strada Petru Rareș,310206,46.1926154,21.3318483
50,Strada Andrei Șaguna,310037,46.1777693,21.3074761
Bermo Bl. R1 Strada Voluntarilor,Strada Voluntarilor,310157,46.1871911,21.3142524
Bermo Bl. R2 Strada Voluntarilor,Strada Voluntarilor,310157,46.1865397,21.3149505
2A,Strada Voluntarilor,310157,46.1868545,21.3145795
6,Strada 9 Mai,310150,46.1853306,21.3152129
99,Bulevardul Revoluției,310122,46.1711689,21.3164200
11,Strada Gheorghe Lazăr,310126,46.1698243,21.3181107
14,Strada Nicolae Bălcescu,310123,46.1701733,21.3179904
16,Strada Nicolae Bălcescu,310123,46.1702623,21.3181110
35,Bulevardul Decebal,310124,46.1680136,21.3200095
33,Bulevardul Decebal,310124,46.1681147,21.3199214
31A,Bulevardul Decebal,310124,46.1688062,21.3199312
31,Bulevardul Decebal,310124,46.1693379,21.3194433
29,Bulevardul Decebal,310124,46.1694878,21.3194185
83,Strada Eftimie Murgu,310049,46.1777037,21.2958844
Ire Di Napoli 63,Strada Pădurii,310040,46.1771169,21.2955850
61,Strada Pădurii,310049,46.1772742,21.2956429
59,Strada Pădurii,310049,46.1774134,21.2958539
57,Strada Pădurii,310049,46.1776013,21.2957966
55,Strada Pădurii,310049,46.1780674,21.2960675
Infoton 74-76,Strada Eftimie Murgu,310280,46.1779311,21.2960805
Bendea,Strada Pădurii,310040,46.1776841,21.2952581
Serie A Club,Strada Eftimie Murgu,310049,46.1774474,21.2938944
9,Strada Corneliu Coposu,310003,46.1839209,21.3199112
8,Strada Corneliu Coposu,310003,46.1838043,21.3200627
7,Strada Corneliu Coposu,310003,46.1838130,21.3203398
6,Strada Corneliu Coposu,310003,46.1837354,21.3205818
U.V.V.G Facultatea de Științe ale Naturii Inginerie și Informatică 91-93,Strada Liviu Rebreanu,310414,46.1800467,21.2951325
Maxtherm 2-4,Strada Pădurii,310040,46.1796808,21.2958630
Penny Market 1C,Strada Poetului,310345,46.1941886,21.3093323
59,Strada Abrud,310317,46.1760928,21.3545670
64,Strada Vrancei,310315,46.1735762,21.3534789
23,Strada Pășunii,310316,46.1737397,21.3535318
11,Strada Pășunii,310316,46.1761895,21.3543688
12,Strada Poetului,310369,46.2005677,21.2997936
Bloc M7 Nr.2,Strada Ștefan Augustin Doinaș,310004,46.1799272,21.3164290
Bloc M6 Nr.4,Strada Ștefan Augustin Doinaș,310004,46.1800979,21.3165451
Bloc M15 Nr.6,Strada Ștefan Augustin Doinaș,310004,46.1800980,21.3169734
Bloc M14 Nr.6,Strada Ștefan Augustin Doinaș,310004,46.1802585,21.3170917
Bloc M5 Nr.6,Strada Ștefan Augustin Doinaș,310004,46.1803659,21.3167592
Nr.8,Strada Ștefan Augustin Doinaș,310004,46.1805105,21.3168838
Bloc M11 Nr.10,Strada Ștefan Augustin Doinaș,310004,46.1806621,21.3169755
Bloc M13 Sc.B,Strada Ștefan Augustin Doinaș,310004,46.1805541,21.3173193
Bloc M12 Sc.A,Strada Ștefan Augustin Doinaș,310004,46.1807087,21.3174303
Bloc M2,Strada Ștefan Augustin Doinaș,310004,46.1803431,21.3160098
Nr.5,Strada Ștefan Augustin Doinaș,310004,46.1804984,21.3163503
Nr.13,Strada Ștefan Augustin Doinaș,310004,46.1809049,21.3166504
6,Strada Iustin Marșieu,310150,46.1815060,21.3166289
31,Strada Ștefan Augustin Doinaș,310004,46.1825511,21.3177781
15,Strada Ștefan Augustin Doinaș,310004,46.1814939,21.3171281
17,Strada Ștefan Augustin Doinaș,310004,46.1816033,21.3172152
19,Strada Ștefan Augustin Doinaș,310004,46.1817085,21.3172612
21,Strada Ștefan Augustin Doinaș,310004,46.1818514,21.3173209
23,Strada Ștefan Augustin Doinaș,310004,46.1819480,21.3173983
25,Strada Ștefan Augustin Doinaș,310004,46.1820749,21.3174732
27,Strada Ștefan Augustin Doinaș,310004,46.1821307,21.3175872
29,Strada Ștefan Augustin Doinaș,310004,46.1822729,21.3176661
50,Bulevardul Revoluției,310002,46.1795623,21.3196669
50A,Bulevardul Revoluției,310002,46.1792018,21.3197126
250,Calea Radnei,310267,46.1763108,21.3608025
252A,Calea Radnei,310267,46.1761559,21.3616583
Nr.120 Grădinița PN 18 corp A,Calea Radnei,310267,46.1802715,21.3430262
Nr.118,Calea Radnei,310267,46.1803982,21.3429122
Nr.4 Strada Doctor Ioan Suciu,Strada Doctor Ioan Suciu,310177,46.1808687,21.3266184
Nr.6 Strada Doctor Ioan Suciu,Strada Doctor Ioan Suciu,310177,46.1808496,21.3268740
Nr.8,Strada Doctor Ioan Suciu,310177,46.1807822,21.3271021
Bloc 11 Sc.A Strada Doctor Ioan Suciu,Strada Doctor Ioan Suciu,310177,46.1809975,21.3276086
Bloc 11 Sc.B Strada Doctor Ioan Suciu,Strada Doctor Ioan Suciu,310177,46.1811240,21.3277278
Bloc 1 Sc.A Strada Doctor Ioan Suciu,Strada Doctor Ioan Suciu,310177,46.1812781,21.3277798
Bloc 1 Sc.B Strada Doctor Ioan Suciu,Strada Doctor Ioan Suciu,310177,46.1814259,21.3278257
Bloc 13 Sc.A Strada Doctor Ioan Suciu,Strada Doctor Ioan Suciu,310177,46.1809011,21.3279790
Bloc 13 Sc.B Strada Doctor Ioan Suciu,Strada Doctor Ioan Suciu,310177,46.1810196,21.3280880
Bloc 3 Sc.B Strada Doctor Ioan Suciu,Strada Doctor Ioan Suciu,310177,46.1811763,21.3281385
Bloc 3 Sc.A Strada Doctor Ioan Suciu,Strada Doctor Ioan Suciu,310177,46.1813536,21.3281955
Nr.21 Strada Doctor Ioan Suciu,Strada Doctor Ioan Suciu,310177,46.1808642,21.3283112
Nr.23 Strada Doctor Ioan Suciu,Strada Doctor Ioan Suciu,310177,46.1808404,21.3284563
Bloc 5 Sc.A Strada Doctor Ioan Suciu,Strada Doctor Ioan Suciu,310177,46.1811423,21.3285773
Bloc 5 Sc.B Strada Doctor Ioan Suciu,Strada Doctor Ioan Suciu,310177,46.1813245,21.3286348
Bloc 17 Sc.A Strada Doctor Ioan Suciu,Strada Doctor Ioan Suciu,310177,46.1808209,21.3288123
Bloc 17 Sc.B Strada Doctor Ioan Suciu,Strada Doctor Ioan Suciu,310177,46.1809483,21.3289216
Bloc 7 Sc.B Strada Doctor Ioan Suciu,Strada Doctor Ioan Suciu,310177,46.1811093,21.3289707
Bloc 7 Sc.A Strada Doctor Ioan Suciu,Strada Doctor Ioan Suciu,310177,46.1812694,21.3290248
Bloc 19 Sc.A Strada Doctor Ioan Suciu,Strada Doctor Ioan Suciu,310177,46.1807162,21.3291848
Bloc 19 Sc.B Strada Ioan Alexandru,Strada Ioan Alexandru,310170,46.1808405,21.3292955
Bloc 9 Sc.A Strada Ioan Alexandru,Strada Ioan Alexandru,310170,46.1810070,21.3293594
Bloc 9 Sc.B Strada Ioan Alexandru,Strada Ioan Alexandru,310170,46.1811924,21.3294330
Nr.12 Strada Ioan Alexandru,Strada Ioan Alexandru,310170,46.1812882,21.3298499
Nr.10 Strada Ioan Alexandru,Strada Ioan Alexandru,310170,46.1811533,21.3297941
Nr.8 Strada Ioan Alexandru,Strada Ioan Alexandru,310170,46.1809912,21.3297348
Nr.89 Panpro,Strada Eftimie Murgu,310049,46.1767888,21.2899476
Nr.82 Archimina,Strada Eftimie Murgu,310049,46.1773508,21.2894800
Nr.87/A Sildor Prod,Strada Eftimie Murgu,310049,46.1771808,21.2929852
62,Strada Vrancei,310315,46.1735068,21.3537710
Takata Petri,Calea Aurel Vlaicu,310141,46.2007383,21.2738758
Nr.212 Hotel As,Calea Timișorii,310229,46.1373142,21.3197579
206,Calea Timișorii,310227,46.1379139,21.3202419
202-204,Calea Timișorii,310227,46.1382487,21.3202941
Nr.164 Hotel President,Calea Timișorii,310227,46.1422831,21.3205349
Nr.66 Hotel West,Strada Petru Rareș,310206,46.1960579,21.3355856
Nr.80 Pensiune Milly,Strada Petru Rareș,310206,46.1971106,21.3367315
Nr.37 Hotel Sep,Strada Ștefan Tenețchi,310502,46.2075232,21.2675708
83,Bulevardul Revoluției,310002,46.1731877,21.3170249
Nr.27,Strada Dorobanților,310054,46.1691736,21.2998336
Nr.29,Strada Dorobanților,310054,46.1691661,21.2995526
Nr.147,Strada Clujului,310039,46.1688147,21.2969845
99,Strada Andrei Șaguna,310036,46.1702041,21.3041216
146,Strada Andrei Șaguna,310036,46.1704746,21.3033060
Nr.227,Calea Aurel Vlaicu,310141,46.2013743,21.2891853
Nr.8 Restaurant Chinezesc Hong Kong,Strada Faurilor,310489,46.2027126,21.2765873
Nr.39 Pensiune SAN,Strada General Doda,310507,46.2032437,21.2781952
Nr.39 Pensiune SAN,Strada General Doda,310507,46.2031204,21.2783122
16,Calea Timișorii,310245,46.1559861,21.3213993
14,Calea Timișorii,310245,46.1561307,21.3213879
24C,Strada Corneliu Coposu,310003,46.1846474,21.3194616
1,Strada Luncii,310281,46.1793486,21.3497903
3,Strada Luncii,310281,46.1796291,21.3499162
5,Strada Luncii,310281,46.1797847,21.3499487
7,Strada Luncii,310281,46.1799111,21.3499925
9,Strada Luncii,310281,46.1800665,21.3499842
11,Strada Luncii,310281,46.1801977,21.3501431
13,Strada Luncii,310281,46.1802817,21.3502016
13B,Strada Luncii,310281,46.1803172,21.3502740
15,Strada Luncii,310281,46.1804756,21.3502375
17,Strada Luncii,310281,46.1805961,21.3503762
27,Strada Luncii,310281,46.1812547,21.3507209
29,Strada Luncii,310281,46.1813396,21.3507307
29A,Strada Luncii,310281,46.1813937,21.3507849
31,Strada Luncii,310281,46.1814976,21.3508434
33,Strada Luncii,310281,46.1816200,21.3509028
35,Strada Luncii,310281,46.1817451,21.3508840
37,Strada Luncii,310281,46.1818800,21.3509875
38A,Strada Luncii,310281,46.1818124,21.3513011
34,Strada Luncii,310281,46.1816627,21.3512383
32,Strada Luncii,310281,46.1815301,21.3511765
30,Strada Luncii,310281,46.1814332,21.3511278
28,Strada Luncii,310281,46.1813243,21.3510523
26,Strada Luncii,310281,46.1811880,21.3509677
24,Strada Luncii,310281,46.1809985,21.3510419
22,Strada Luncii,310281,46.1809409,21.3508460
20,Strada Luncii,310281,46.1808109,21.3508406
18,Strada Luncii,310281,46.1807381,21.3507796
16,Strada Luncii,310281,46.1806334,21.3507348
16A,Strada Luncii,310281,46.1804766,21.3506741
16,Strada Luncii,310281,46.1803457,21.3505542
14,Strada Luncii,310281,46.1802568,21.3505194
12,Strada Luncii,310281,46.1801303,21.3505146
10,Strada Luncii,310281,46.1800118,21.3504998
8,Strada Luncii,310281,46.1798381,21.3503509
6,Strada Luncii,310281,46.1796410,21.3503624
2A,Strada Luncii,310281,46.1795755,21.3501886
2,Strada Luncii,310281,46.1791512,21.3499873
129B,Calea Radnei,310267,46.1791008,21.3502350
1,Strada Cerbului,310282,46.1789864,21.3507012
5,Strada Cerbului,310282,46.1794402,21.3509407
57,Strada George Coșbuc,310018,46.1811993,21.3114103
55,Strada George Coșbuc,310018,46.1809952,21.3115108
53,Strada George Coșbuc,310018,46.1809295,21.3116709
51,Strada George Coșbuc,310018,46.1808440,21.3117704
49,Strada George Coșbuc,310018,46.1807301,21.3119213
47,Strada George Coșbuc,310018,46.1806452,21.3119752
45,Strada George Coșbuc,310018,46.1805677,21.3120939
43,Strada George Coșbuc,310018,46.1803099,21.3121006
41,Strada George Coșbuc,310018,46.1802104,21.3123989
39,Strada George Coșbuc,310018,46.1801653,21.3125396
37,Strada George Coșbuc,310018,46.1800102,21.3126572
35,Strada George Coșbuc,310018,46.1798844,21.3129094
33,Strada George Coșbuc,310018,46.1797569,21.3130450
31,Strada George Coșbuc,310018,46.1796200,21.3132199
29,Strada George Coșbuc,310018,46.1794786,21.3133788
25,Strada George Coșbuc,310018,46.1789547,21.3135421
27,Strada George Coșbuc,310018,46.1793335,21.3133559
2,Strada Simion Balint,310019,46.1792345,21.3130232
4,Strada Simion Balint,310019,46.1792673,21.3127773
6,Strada Simion Balint,310019,46.1793387,21.3126372
8,Strada Simion Balint,310019,46.1792972,21.3125203
10,Strada Simion Balint,310019,46.1792420,21.3122964
12,Strada Simion Balint,310019,46.1792412,21.3119347
14,Strada Simion Balint,310019,46.1792516,21.3117721
16,Strada Simion Balint,310019,46.1792779,21.3115125
9,Strada Simion Balint,310019,46.1790512,21.3125988
11,Strada Simion Balint,310019,46.1790622,21.3124099
13,Strada Simion Balint,310019,46.1790570,21.3122612
19,Strada Simion Balint,310019,46.1790481,21.3114281
17,Strada Simion Balint,310019,46.1790463,21.3116452
1,Strada Simion Balint,310019,46.1790524,21.3134754
3,Strada Simion Balint,310019,46.1789784,21.3132224
5,Strada Simion Balint,310019,46.1790562,21.3130383
7,Strada Simion Balint,310019,46.1789781,21.3129781
23,Strada George Coșbuc,310018,46.1787713,21.3136310
21A,Strada George Coșbuc,310018,46.1786063,21.3135814
21,Strada George Coșbuc,310018,46.1785218,21.3137589
19,Strada George Coșbuc,310018,46.1784144,21.3138436
17,Strada George Coșbuc,310018,46.1782836,21.3139835
15,Strada George Coșbuc,310018,46.1781445,21.3139623
13A,Strada George Coșbuc,310018,46.1780196,21.3141015
13,Strada George Coșbuc,310018,46.1778430,21.3141431
9,Strada George Coșbuc,310018,46.1773521,21.3143769
7,Strada George Coșbuc,310018,46.1772699,21.3144340
5,Strada George Coșbuc,310018,46.1771753,21.3145322
3,Strada George Coșbuc,310018,46.1769413,21.3145736
2,Strada Octavian Goga,310022,46.1767186,21.3145209
10,Strada George Coșbuc,310018,46.1777802,21.3146903
8,Strada George Coșbuc,310018,46.1776653,21.3147579
6,Strada George Coșbuc,310018,46.1774319,21.3148751
4,Strada George Coșbuc,310018,46.1771940,21.3150144
2,Strada George Coșbuc,310018,46.1769570,21.3151149
1,Strada Aviator Ioan Sava,310019,46.1780335,21.3145389
12,Strada George Coșbuc,310018,46.1781811,21.3144583
14,Strada George Coșbuc,310018,46.1783846,21.3143558
Nr.2,Strada Ciprian Porumbescu,310348,46.1933019,21.3070391
153,Calea Radnei,310267,46.1779636,21.3554057
155,Calea Radnei,310267,46.1779195,21.3555552
155A,Calea Radnei,310267,46.1779310,21.3558745
1,Strada Argeș,310294,46.1780787,21.3548013
151A,Calea Radnei,310267,46.1781028,21.3545976
2,Strada Argeș,310294,46.1780170,21.3551805
151,Calea Radnei,310267,46.1781261,21.3544092
149/B,Calea Radnei,310267,46.1782237,21.3542753
157,Calea Radnei,310267,46.1778239,21.3560583
159,Calea Radnei,310267,46.1777866,21.3562597
Nr.19,Strada Voinicilor,310304,46.1703507,21.3585780
Nr.19C,Strada Voinicilor,310304,46.1703838,21.3584212
Nr.31,Strada Renașterii,310303,46.1704321,21.3581828
Nr.5,Strada Ciprian Porumbescu,310348,46.1936524,21.3070156
Nr.7,Strada Ciprian Porumbescu,310348,46.1937339,21.3070978
Nr.9,Strada Ciprian Porumbescu,310348,46.1939583,21.3072030
Nr.11,Strada Ciprian Porumbescu,310348,46.1940161,21.3072870
Nr.13,Strada Ciprian Porumbescu,310348,46.1942155,21.3074535
Nr.10A,Strada Ciprian Porumbescu,310348,46.1939772,21.3076768
Nr.10,Strada Ciprian Porumbescu,310348,46.1938162,21.3075647
Nr.8,Strada Ciprian Porumbescu,310348,46.1937206,21.3074320
Nr.6,Strada Ciprian Porumbescu,310348,46.1935727,21.3074018
Nr.4,Strada Ciprian Porumbescu,310348,46.1934184,21.3072653
Nr.5,Strada Țepeș Vodă,310348,46.1940290,21.3061941
Nr.6,Strada Țepeș Vodă,310348,46.1939106,21.3064675
Nr.7,Strada Țepeș Vodă,310348,46.1941458,21.3063108
Nr.9,Strada Țepeș Vodă,310348,46.1942645,21.3064268
Nr.8,Strada Țepeș Vodă,310348,46.1939921,21.3065055
Nr.14,Strada Țepeș Vodă,310348,46.1942456,21.3067347
Nr.11,Strada Țepeș Vodă,310348,46.1943471,21.3064502
Nr.13,Strada Țepeș Vodă,310348,46.1945367,21.3064842
Nr.5,Strada Paltinului,310347,46.1944157,21.3052273
Nr.6,Strada Paltinului,310347,46.1942645,21.3055644
Nr.8,Strada Paltinului,310347,46.1943949,21.3057182
Nr.7,Strada Paltinului,310347,46.1945764,21.3055007
Nr.9,Strada Paltinului,310347,46.1946279,21.3055588
Nr.11A,Strada Paltinului,310347,46.1947822,21.3055478
Nr.11,Strada Paltinului,310347,46.1948281,21.3057097
Nr.17,Strada Paltinului,310347,46.1952519,21.3061206
Nr.54,Strada Radu de la Afumați,310258,46.1632007,21.3381931
Nr.52,Strada Radu de la Afumați,310258,46.1633956,21.3375719
Nr.50,Strada Radu de la Afumați,310258,46.1634267,21.3374491
Nr.48,Strada Radu de la Afumați,310258,46.1635356,21.3370191
Nr.46,Strada Radu de la Afumați,310258,46.1634717,21.3367514
Nr.44,Strada Radu de la Afumați,310258,46.1636470,21.3366392
Nr.42,Strada Radu de la Afumați,310258,46.1637196,21.3363157
Nr.40,Strada Radu de la Afumați,310258,46.1638152,21.3360362
Nr.38,Strada Radu de la Afumați,310258,46.1639687,21.3356994
Nr.36,Strada Radu de la Afumați,310258,46.1640431,21.3354548
Nr.34,Strada Radu de la Afumați,310258,46.1641369,21.3350359
Nr.26,Strada Radu de la Afumați,310258,46.1644936,21.3339421
Nr.28,Strada Radu de la Afumați,310258,46.1643870,21.3342699
Nr.30,Strada Radu de la Afumați,310258,46.1643043,21.3344983
Nr.32,Strada Radu de la Afumați,310258,46.1641656,21.3349271
2,Strada Radu de la Afumați,310258,46.1654783,21.3306420
4,Strada Radu de la Afumați,310258,46.1653709,21.3310004
18,Strada Radu de la Afumați,310258,46.1647977,21.3327745
Nr.24,Strada Radu de la Afumați,310258,46.1645403,21.3337494
Nr.22,Strada Radu de la Afumați,310258,46.1645910,21.3335536
22A,Strada Radu de la Afumați,310258,46.1646066,21.3334478
20,Strada Radu de la Afumați,310258,46.1647603,21.3330492
Nr.37,Strada Radu de la Afumați,310258,46.1640915,21.3362396
Nr.39,Strada Radu de la Afumați,310258,46.1640057,21.3364104
Nr.41,Strada Radu de la Afumați,310258,46.1639202,21.3366991
Nr.56-62,Calea Iuliu Maniu,310167,46.1810357,21.3309150
2,Strada Lipovei,310320,46.1771023,21.3664902
4,Strada Lipovei,310320,46.1771598,21.3663882
40,Strada Lipovei,310320,46.1782384,21.3616146
38,Strada Lipovei,310320,46.1783457,21.3619726
36,Strada Lipovei,310320,46.1781540,21.3620498
34,Strada Lipovei,310320,46.1780692,21.3622439
32,Strada Lipovei,310320,46.1780415,21.3624436
30A,Strada Lipovei,310320,46.1780650,21.3628533
30B,Strada Lipovei,310320,46.1779419,21.3629901
30,Strada Lipovei,310320,46.1779208,21.3631383
28,Strada Lipovei,310320,46.1778941,21.3632937
26,Strada Lipovei,310320,46.1778264,21.3634826
24,Strada Lipovei,310320,46.1778081,21.3636796
22,Strada Lipovei,310320,46.1777285,21.3638768
6A,Strada Lipovei,310320,46.1772641,21.3659561
6A,Strada Lipovei,310320,46.1772737,21.3657983
8,Strada Lipovei,310320,46.1773332,21.3655866
10,Strada Lipovei,310320,46.1774139,21.3653695
16,Strada Lipovei,310320,46.1776020,21.3648087
12,Strada Lipovei,310320,46.1774401,21.3652421
14,Strada Lipovei,310320,46.1774975,21.3649452
16A,Strada Lipovei,310320,46.1776222,21.3645112
16B,Strada Lipovei,310320,46.1777387,21.3643382
18,Strada Lipovei,310320,46.1776835,21.3640977
20,Strada Lipovei,310320,46.1777922,21.3640493
185,Calea Radnei,310267,46.1770147,21.3599753
Nr.36 Spălătorie Auto La Fontana,Strada Voinicilor,310304,46.1714809,21.3553829
28,Strada Voinicilor,310304,46.1711964,21.3566126
30,Strada Voinicilor,310304,46.1712639,21.3564265
31,Strada Voinicilor,310304,46.1709017,21.3559037
29,Strada Voinicilor,310304,46.1706673,21.3562304
50,Strada Renașterii,310303,46.1704544,21.3573923
27,Strada Voinicilor,310304,46.1708265,21.3564478
25,Strada Voinicilor,310304,46.1707963,21.3565986
23,Strada Voinicilor,310304,46.1707716,21.3567577
21,Strada Voinicilor,310304,46.1707003,21.3569895
2,Strada Renașterii,310323,46.1758598,21.3598572
2A,Strada Renașterii,310323,46.1757180,21.3597385
4,Strada Renașterii,310323,46.1755365,21.3596967
6,Strada Renașterii,310323,46.1754411,21.3596814
Nr.22,Strada Voinicilor,310304,46.1706487,21.3592571
Nr.20,Strada Voinicilor,310304,46.1706225,21.3594333
Nr.18,Strada Voinicilor,310304,46.1705796,21.3596913
Nr.16B,Strada Voinicilor,310304,46.1706187,21.3600110
Nr.16A,Strada Voinicilor,310304,46.1704548,21.3601597
Nr.16,Strada Voinicilor,310304,46.1703768,21.3604786
Nr.14,Strada Voinicilor,310304,46.1703560,21.3606041
Nr.14A,Strada Voinicilor,310304,46.1704096,21.3609672
Nr.12,Strada Voinicilor,310304,46.1702521,21.3610866
Nr.12,Strada Voinicilor,310304,46.1701955,21.3613412
Nr.2A,Strada Voinicilor,310304,46.1698729,21.3627812
Nr.2,Strada Voinicilor,310304,46.1699408,21.3625070
Nr.4,Strada Voinicilor,310304,46.1699857,21.3622552
Nr.6,Strada Voinicilor,310304,46.1700816,21.3620571
Nr.8,Strada Voinicilor,310304,46.1700830,21.3618024
Nr.24,Strada Voinicilor,310304,46.1708361,21.3584412
Nr.1,Strada Voinicilor,310304,46.1697425,21.3613804
Nr.3,Strada Voinicilor,310304,46.1697946,21.3610692
Nr.7,Strada Voinicilor,310304,46.1699154,21.3604360
Nr.9,Strada Voinicilor,310304,46.1699724,21.3602343
Nr.11,Strada Voinicilor,310304,46.1699632,21.3599971
Nr.13A,Strada Voinicilor,310304,46.1701043,21.3597373
Nr.13,Strada Voinicilor,310304,46.1701508,21.3595241
Nr.15A,Strada Voinicilor,310304,46.1702317,21.3593086
Nr.29A,Strada Renașterii,310323,46.1711416,21.3585434
Nr.29,Strada Renașterii,310323,46.1714046,21.3585954
Nr.21,Strada Renașterii,310323,46.1720320,21.3588954
Nr.23,Strada Renașterii,310323,46.1718608,21.3588150
Nr.25,Strada Renașterii,310323,46.1717474,21.3588406
Nr.27,Strada Renașterii,310323,46.1716914,21.3587330
44,Strada Renașterii,310323,46.1712604,21.3576574
42A,Strada Renașterii,310323,46.1712772,21.3578376
42,Strada Renașterii,310323,46.1713771,21.3577624
40,Strada Renașterii,310323,46.1715141,21.3578284
38,Strada Renașterii,310323,46.1717019,21.3579192
30,Strada Renașterii,310323,46.1721968,21.3581563
32,Strada Renașterii,310323,46.1720746,21.3581992
34,Strada Renașterii,310323,46.1719595,21.3580910
36,Strada Renașterii,310323,46.1717731,21.3580131
Nr.36 Poppan Brutărie,Strada Renașterii,310323,46.1719369,21.3576105
28,Strada Renașterii,310323,46.1725191,21.3583424
26,Strada Renașterii,310323,46.1726607,21.3583889
24,Strada Renașterii,310323,46.1728149,21.3584530
22,Strada Renașterii,310323,46.1733969,21.3587076
20,Strada Renașterii,310323,46.1735676,21.3586791
29A,Strada Vrancei,310315,46.1721837,21.3578493
36,Strada Vrancei,310315,46.1726333,21.3579430
1,Strada Dosoftei,310271,46.1813529,21.3407919
3,Strada Dosoftei,310271,46.1814774,21.3407969
5,Strada Dosoftei,310271,46.1816006,21.3408838
7,Strada Dosoftei,310271,46.1817518,21.3409338
9,Strada Dosoftei,310271,46.1818967,21.3409658
11,Strada Dosoftei,310271,46.1819656,21.3410862
13,Strada Dosoftei,310271,46.1821570,21.3410983
15,Strada Dosoftei,310271,46.1822182,21.3411605
17,Strada Dosoftei,310271,46.1824386,21.3412780
19,Strada Dosoftei,310271,46.1825595,21.3413941
21,Strada Dosoftei,310271,46.1827161,21.3413771
2,Strada Dosoftei,310271,46.1811999,21.3411363
89,Calea Radnei,310267,46.1810401,21.3415635
4,Strada Dosoftei,310271,46.1815886,21.3411944
6,Strada Dosoftei,310271,46.1816790,21.3412803
8,Strada Dosoftei,310271,46.1817470,21.3413252
8A,Strada Dosoftei,310271,46.1818794,21.3413634
10,Strada Dosoftei,310271,46.1819976,21.3414670
12,Strada Dosoftei,310271,46.1821501,21.3415884
14,Strada Dosoftei,310271,46.1822394,21.3415397
22,Strada Dosoftei,310271,46.1827437,21.3418403
16,Strada Dosoftei,310271,46.1823145,21.3415972
18,Strada Dosoftei,310271,46.1823963,21.3415837
20,Strada Dosoftei,310271,46.1825724,21.3416386
2,Strada Mihail Lermontov,310271,46.1810085,21.3418779
1,Strada Mihail Lermontov,310271,46.1813669,21.3418073
3,Strada Mihail Lermontov,310271,46.1815567,21.3418763
5,Strada Mihail Lermontov,310271,46.1817597,21.3419854
7,Strada Mihail Lermontov,310271,46.1819177,21.3420501
9,Strada Mihail Lermontov,310271,46.1820765,21.3421322
11,Strada Mihail Lermontov,310271,46.1821983,21.3421880
13,Strada Mihail Lermontov,310271,46.1823742,21.3422961
15,Strada Mihail Lermontov,310271,46.1825022,21.3423544
17,Strada Mihail Lermontov,310271,46.1826656,21.3423416
20,Strada Mihail Lermontov,310271,46.1825945,21.3426988
18,Strada Mihail Lermontov,310271,46.1824108,21.3425664
16,Strada Mihail Lermontov,310271,46.1822567,21.3424936
14,Strada Mihail Lermontov,310271,46.1821034,21.3424270
12,Strada Mihail Lermontov,310271,46.1819476,21.3423515
10,Strada Mihail Lermontov,310271,46.1817901,21.3422716
8,Strada Mihail Lermontov,310271,46.1816361,21.3422377
6,Strada Mihail Lermontov,310271,46.1814859,21.3421332
4,Strada Mihail Lermontov,310271,46.1813279,21.3420610
91,Calea Radnei,310267,46.1810952,21.3421413
93,Calea Radnei,310267,46.1809471,21.3421887
95,Calea Radnei,310267,46.1808870,21.3423346
1,Strada Liliac,310271,46.1808561,21.3425534
97,Calea Radnei,310267,46.1807618,21.3429309
99,Calea Radnei,310267,46.1806995,21.3431398
101,Calea Radnei,310267,46.1807534,21.3434204
1,Strada Viorelelor,310270,46.1806561,21.3436460
2,Strada Viorelelor,310270,46.1805796,21.3439702
4,Strada Viorelelor,310270,46.1807908,21.3440418
6,Strada Viorelelor,310270,46.1808803,21.3440547
8,Strada Viorelelor,310270,46.1811199,21.3441856
10,Strada Viorelelor,310270,46.1812453,21.3442676
12,Strada Viorelelor,310270,46.1813695,21.3443575
14,Strada Viorelelor,310270,46.1814733,21.3443653
16,Strada Viorelelor,310270,46.1815577,21.3445749
16,Strada Viorelelor,310270,46.1816912,21.3444716
22,Strada Viorelelor,310270,46.1821376,21.3448138
18,Strada Viorelelor,310270,46.1818152,21.3445838
20A,Strada Viorelelor,310270,46.1819110,21.3445797
20,Strada Viorelelor,310270,46.1820070,21.3446804
15,Strada Viorelelor,310270,46.1822338,21.3444399
13,Strada Viorelelor,310270,46.1819350,21.3443112
11,Strada Viorelelor,310270,46.1818081,21.3442478
9,Strada Viorelelor,310270,46.1817033,21.3441681
7,Strada Viorelelor,310270,46.1815046,21.3440379
5,Strada Viorelelor,310270,46.1814379,21.3440056
3,Strada Viorelelor,310270,46.1813076,21.3439436
Nr.1,Strada Bârzava,310272,46.1800768,21.3438388
2A,Strada Liliac,310271,46.1809770,21.3429704
2,Strada Liliac,310271,46.1811163,21.3430954
4,Strada Liliac,310271,46.1812211,21.3430927
6,Strada Liliac,310271,46.1812822,21.3431544
8,Strada Liliac,310271,46.1813862,21.3432075
10,Strada Liliac,310271,46.1815140,21.3432541
12,Strada Liliac,310271,46.1815943,21.3432648
14,Strada Liliac,310271,46.1817479,21.3433987
16,Strada Liliac,310271,46.1818989,21.3434685
18,Strada Liliac,310271,46.1820224,21.3435134
20,Strada Liliac,310271,46.1821546,21.3435762
22,Strada Liliac,310271,46.1822566,21.3436686
24,Strada Liliac,310271,46.1824035,21.3437486
3,Strada Liliac,310271,46.1811903,21.3427396
5,Strada Liliac,310271,46.1813156,21.3425995
7,Strada Liliac,310271,46.1813478,21.3428306
9,Strada Liliac,310271,46.1814590,21.3428439
11,Strada Liliac,310271,46.1815818,21.3429140
13,Strada Liliac,310271,46.1817174,21.3429367
15,Strada Liliac,310271,46.1818317,21.3430991
17,Strada Liliac,310271,46.1819562,21.3431214
19,Strada Liliac,310271,46.1820699,21.3432311
21,Strada Liliac,310271,46.1821690,21.3431960
23,Strada Liliac,310271,46.1823051,21.3432860
25,Strada Liliac,310271,46.1824113,21.3433471
27,Strada Liliac,310271,46.1825372,21.3434020
Nr.47,Calea Iuliu Maniu,310169,46.1819352,21.3303931
Nr.45,Calea Iuliu Maniu,310169,46.1819340,21.3302395
103,Calea Radnei,310267,46.1805939,21.3442595
1,Strada Maximilian,310270,46.1805493,21.3445111
105,Calea Radnei,310267,46.1803169,21.3449612
2,Strada Maximilian,310270,46.1803852,21.3447187
3,Strada Maximilian,310270,46.1807641,21.3446184
3A,Strada Maximilian,310270,46.1808371,21.3446621
5,Strada Maximilian,310270,46.1810088,21.3446827
7,Strada Maximilian,310270,46.1811599,21.3447771
9,Strada Maximilian,310270,46.1813356,21.3448331
11,Strada Maximilian,310270,46.1814921,21.3449209
13,Strada Maximilian,310270,46.1815572,21.3450432
15,Strada Maximilian,310270,46.1818222,21.3450650
19,Strada Maximilian,310270,46.1820532,21.3452031
17,Strada Maximilian,310270,46.1819531,21.3452158
16,Strada Maximilian,310270,46.1821201,21.3456200
14,Strada Maximilian,310270,46.1820470,21.3455652
12,Strada Maximilian,310270,46.1818849,21.3454745
10A,Strada Maximilian,310270,46.1817188,21.3454998
10,Strada Maximilian,310270,46.1815729,21.3453833
8,Strada Maximilian,310270,46.1815000,21.3453503
6A,Strada Maximilian,310270,46.1813073,21.3452727
6,Strada Maximilian,310270,46.1812307,21.3451700
4C,Strada Maximilian,310270,46.1810971,21.3450604
4B,Strada Maximilian,310270,46.1809497,21.3450644
4A,Strada Maximilian,310270,46.1807120,21.3452768
4,Strada Maximilian,310270,46.1806876,21.3449614
107,Calea Radnei,310267,46.1802049,21.3454192
1A,Strada Fabius,310270,46.1806168,21.3456023
3,Strada Fabius,310270,46.1807890,21.3457025
5,Strada Fabius,310270,46.1809267,21.3457104
7,Strada Fabius,310270,46.1811089,21.3458337
9,Strada Fabius,310270,46.1812208,21.3458505
11,Strada Fabius,310270,46.1813421,21.3459491
13,Strada Fabius,310270,46.1814637,21.3460238
15,Strada Fabius,310270,46.1816172,21.3460543
17,Strada Fabius,310270,46.1817449,21.3460834
21,Strada Fabius,310270,46.1820170,21.3462296
24A,Strada Fabius,310270,46.1820431,21.3472631
24,Strada Fabius,310270,46.1820279,21.3467785
24,Strada Fabius,310270,46.1820327,21.3466103
22,Strada Fabius,310270,46.1819159,21.3465451
20,Strada Fabius,310270,46.1817901,21.3465464
18,Strada Fabius,310270,46.1817045,21.3465077
16,Strada Fabius,310270,46.1814581,21.3466170
14,Strada Fabius,310270,46.1813605,21.3464683
12,Strada Fabius,310270,46.1812559,21.3463813
10,Strada Fabius,310270,46.1811720,21.3463019
8,Strada Fabius,310270,46.1809363,21.3460699
6,Strada Fabius,310270,46.1807334,21.3461144
4,Strada Fabius,310270,46.1806038,21.3459963
2A,Strada Fabius,310270,46.1804846,21.3458887
111,Calea Radnei,310267,46.1800596,21.3461321
113,Calea Radnei,310267,46.1800065,21.3463175
115,Calea Radnei,310267,46.1799858,21.3464928
1,Strada Crinului,310268,46.1799075,21.3466894
3,Strada Crinului,310268,46.1801649,21.3468703
5,Strada Crinului,310268,46.1803240,21.3468588
7,Strada Crinului,310268,46.1805069,21.3469010
9,Strada Crinului,310268,46.1806100,21.3470509
11,Strada Crinului,310268,46.1808176,21.3469840
13,Strada Crinului,310268,46.1809395,21.3472050
15,Strada Crinului,310268,46.1810793,21.3472317
17,Strada Crinului,310268,46.1812876,21.3472535
23,Strada Crinului,310268,46.1815418,21.3474307
21,Strada Crinului,310268,46.1813995,21.3474301
25,Strada Crinului,310268,46.1816909,21.3475417
27,Strada Crinului,310268,46.1818614,21.3475727
29,Strada Crinului,310268,46.1820101,21.3476487
28,Strada Crinului,310268,46.1819490,21.3479648
26,Strada Crinului,310268,46.1817327,21.3479170
24,Strada Crinului,310268,46.1816471,21.3478589
22,Strada Crinului,310268,46.1814878,21.3478216
20,Strada Crinului,310268,46.1813470,21.3476819
18,Strada Crinului,310268,46.1811851,21.3476782
16,Strada Crinului,310268,46.1809239,21.3475627
14,Strada Crinului,310268,46.1808452,21.3474858
12 Ap.1,Strada Crinului,310268,46.1807173,21.3474923
12 Ap.2,Strada Crinului,310268,46.1806171,21.3475204
10,Strada Crinului,310268,46.1805757,21.3473873
8,Strada Crinului,310268,46.1804032,21.3473357
6,Strada Crinului,310268,46.1803428,21.3472344
4,Strada Crinului,310268,46.1801646,21.3472123
2A,Strada Crinului,310268,46.1800938,21.3471751
2,Strada Crinului,310268,46.1798667,21.3469482
117,Calea Radnei,310267,46.1798277,21.3471146
119,Calea Radnei,310267,46.1797505,21.3473169
1,Strada Bujor,310268,46.1797088,21.3475276
3,Strada Bujor,310268,46.1800029,21.3476107
5,Strada Bujor,310268,46.1801501,21.3476720
7,Strada Bujor,310268,46.1802847,21.3477774
9,Strada Bujor,310268,46.1804834,21.3477792
11,Strada Bujor,310268,46.1805951,21.3479272
13,Strada Bujor,310268,46.1807447,21.3479507
15,Strada Bujor,310268,46.1808767,21.3480313
1,Strada Adrian,310268,46.1810380,21.3481467
17,Strada Bujor,310268,46.1812266,21.3482126
19,Strada Bujor,310268,46.1813700,21.3483043
21,Strada Bujor,310268,46.1815628,21.3483769
27,Strada Bujor,310268,46.1819222,21.3484830
29,Strada Bujor,310268,46.1820023,21.3485267
23,Strada Bujor,310268,46.1816816,21.3484709
25,Strada Bujor,310268,46.1818018,21.3484769
28,Strada Bujor,310268,46.1817048,21.3491219
26,Strada Bujor,310268,46.1813744,21.3487275
24,Strada Bujor,310268,46.1812718,21.3485910
22,Strada Bujor,310268,46.1812042,21.3485506
20,Strada Bujor,310268,46.1810999,21.3485416
18,Strada Bujor,310268,46.1809717,21.3484387
16,Strada Bujor,310268,46.1808192,21.3483542
14,Strada Bujor,310268,46.1806821,21.3483210
12,Strada Bujor,310268,46.1806080,21.3483556
10,Strada Bujor,310268,46.1804613,21.3482580
8,Strada Bujor,310268,46.1804018,21.3481370
6,Strada Bujor,310268,46.1802747,21.3480795
4,Strada Bujor,310268,46.1801965,21.3480855
2,Strada Bujor,310268,46.1800892,21.3480339
3,Strada Adrian,310268,46.1809461,21.3488942
4,Strada Adrian,310268,46.1805953,21.3488536
121A,Calea Radnei,310267,46.1795603,21.3482557
123,Calea Radnei,310267,46.1795269,21.3483589
125,Calea Radnei,310267,46.1794994,21.3485315
1,Strada Lalelelor,310281,46.1797622,21.3487811
3,Strada Lalelelor,310281,46.1798408,21.3488866
5,Strada Lalelelor,310281,46.1800861,21.3489589
7,Strada Lalelelor,310281,46.1801960,21.3490470
9,Strada Lalelelor,310281,46.1803766,21.3490722
11,Strada Lalelelor,310281,46.1804592,21.3491961
13,Strada Lalelelor,310281,46.1806281,21.3492318
15,Strada Lalelelor,310281,46.1807851,21.3492802
17,Strada Lalelelor,310281,46.1808710,21.3493075
19,Strada Lalelelor,310281,46.1810253,21.3494289
21,Strada Lalelelor,310281,46.1811070,21.3494673
25,Strada Lalelelor,310281,46.1812866,21.3495693
27,Strada Lalelelor,310281,46.1814205,21.3496253
29,Strada Lalelelor,310281,46.1815828,21.3496670
31,Strada Lalelelor,310281,46.1816967,21.3497706
33,Strada Lalelelor,310281,46.1818335,21.3497823
35,Strada Lalelelor,310281,46.1819774,21.3498887
2,Strada Lalelelor,310281,46.1796274,21.3490553
4,Strada Lalelelor,310281,46.1797323,21.3491778
6,Strada Lalelelor,310281,46.1798434,21.3492280
8,Strada Lalelelor,310281,46.1799104,21.3493196
10,Strada Lalelelor,310281,46.1800415,21.3493573
12,Strada Lalelelor,310281,46.1801748,21.3493538
12A,Strada Lalelelor,310281,46.1802154,21.3495115
14,Strada Lalelelor,310281,46.1802815,21.3495170
16,Strada Lalelelor,310281,46.1804080,21.3495021
18,Strada Lalelelor,310281,46.1804882,21.3496091
20,Strada Lalelelor,310281,46.1806275,21.3496364
22,Strada Lalelelor,310281,46.1807503,21.3496635
24,Strada Lalelelor,310281,46.1808405,21.3497706
26,Strada Lalelelor,310281,46.1809688,21.3497792
28,Strada Lalelelor,310281,46.1810865,21.3498103
30,Strada Lalelelor,310281,46.1811618,21.3498578
32,Strada Lalelelor,310281,46.1813278,21.3499136
34,Strada Lalelelor,310281,46.1814225,21.3500134
36,Strada Lalelelor,310281,46.1815440,21.3500690
38,Strada Lalelelor,310281,46.1816341,21.3500788
40,Strada Lalelelor,310281,46.1817774,21.3501821
42,Strada Lalelelor,310281,46.1819220,21.3501880
19,Strada Luncii,310281,46.1807455,21.3504317
21,Strada Luncii,310281,46.1808850,21.3504248
23,Strada Luncii,310281,46.1810006,21.3505926
25,Strada Luncii,310281,46.1811333,21.3505701
38B,Strada Luncii,310281,46.1817448,21.3514914
45,Strada Cerbului,310282,46.1817118,21.3516993
1A,Strada Cerbului,310282,46.1793419,21.3508662
7,Strada Cerbului,310282,46.1795378,21.3509951
9,Strada Cerbului,310282,46.1796433,21.3510267
9A,Strada Cerbului,310282,46.1797469,21.3510689
11,Strada Cerbului,310282,46.1798460,21.3511320
13,Strada Cerbului,310282,46.1799369,21.3512074
15,Strada Cerbului,310282,46.1800212,21.3512231
15A,Strada Cerbului,310282,46.1801348,21.3512976
19,Strada Cerbului,310282,46.1802485,21.3513302
19,Strada Cerbului,310282,46.1802484,21.3513302
21,Strada Cerbului,310282,46.1803361,21.3513766
21A,Strada Cerbului,310282,46.1804455,21.3514499
23,Strada Cerbului,310282,46.1805746,21.3513379
25,Strada Cerbului,310282,46.1806514,21.3515188
27,Strada Cerbului,310282,46.1807626,21.3515690
29,Strada Cerbului,310282,46.1808658,21.3516427
31,Strada Cerbului,310282,46.1809693,21.3516954
33,Strada Cerbului,310282,46.1810634,21.3517874
35,Strada Cerbului,310282,46.1811663,21.3518630
37,Strada Cerbului,310282,46.1812749,21.3518736
39,Strada Cerbului,310282,46.1814041,21.3518893
43,Strada Cerbului,310282,46.1816371,21.3520692
4,Strada Cerbului,310282,46.1793679,21.3512826
6,Strada Cerbului,310282,46.1794526,21.3513348
8,Strada Cerbului,310282,46.1795239,21.3514808
10,Strada Cerbului,310282,46.1796293,21.3515345
12,Strada Cerbului,310282,46.1797439,21.3515034
14,Strada Cerbului,310282,46.1798625,21.3514736
16,Strada Cerbului,310282,46.1799278,21.3515603
18,Strada Cerbului,310282,46.1800709,21.3516134
Nr.26 Uka Laborator-Cofetarie-Patiserie,Strada Cerbului,310282,46.1804501,21.3519134
28,Strada Cerbului,310282,46.1805789,21.3518328
30,Strada Cerbului,310282,46.1806963,21.3519108
32,Strada Cerbului,310282,46.1807991,21.3519688
34,Strada Cerbului,310282,46.1808687,21.3520001
36,Strada Cerbului,310282,46.1810030,21.3521051
38,Strada Cerbului,310282,46.1811084,21.3521554
40,Strada Cerbului,310282,46.1812143,21.3521986
42,Strada Cerbului,310282,46.1813286,21.3521747
44,Strada Cerbului,310282,46.1814442,21.3522580
46,Strada Cerbului,310282,46.1815287,21.3522805
48,Strada Cerbului,310282,46.1816277,21.3523625
135,Calea Radnei,310267,46.1788537,21.3512617
137,Calea Radnei,310267,46.1787298,21.3518001
139,Calea Radnei,310267,46.1787034,21.3520879
141,Calea Radnei,310267,46.1786508,21.3522709
1,Strada Poiana,310282,46.1791252,21.3517866
3,Strada Poiana,310282,46.1792023,21.3520068
5,Strada Poiana,310282,46.1792777,21.3520396
7,Strada Poiana,310282,46.1795161,21.3521167
9,Strada Poiana,310282,46.1796672,21.3521899
11,Strada Poiana,310282,46.1798048,21.3522972
13A,Strada Poiana,310282,46.1798821,21.3522882
13,Strada Poiana,310282,46.1800296,21.3523704
15,Strada Poiana,310282,46.1801097,21.3523996
17,Strada Poiana,310282,46.1802060,21.3524802
21,Strada Poiana,310282,46.1803017,21.3525678
23,Strada Poiana,310282,46.1804380,21.3525517
25,Strada Poiana,310282,46.1805312,21.3526222
27,Strada Poiana,310282,46.1805985,21.3526394
29,Strada Poiana,310282,46.1807183,21.3526661
33,Strada Poiana,310282,46.1810582,21.3527694
31,Strada Poiana,310282,46.1808554,21.3526650
35,Strada Poiana,310282,46.1811242,21.3529040
37,Strada Poiana,310282,46.1812814,21.3529099
41,Strada Poiana,310282,46.1813696,21.3530202
43B,Strada Poiana,310282,46.1815548,21.3531683
43A,Strada Poiana,310282,46.1815622,21.3528777
22,Strada Vârful cu dor,310085,46.1712452,21.3067395
17-19,Strada Vârful cu dor,310085,46.1699435,21.3067400
9,Strada Ilarie Chendi,310025,46.1744612,21.3146192
11A,Strada Ilarie Chendi,310025,46.1743443,21.3144851
1/C,Strada Poetului,310345,46.1948648,21.3102149
29-31,Strada Petru Rareș,310206,46.1943958,21.3329221
2,Strada Voluntarilor,310157,46.1860265,21.3168388
2,Strada Voluntarilor,310157,46.1862480,21.3160481
24b,Strada Marnei,310467,46.1905892,21.2830205
24a,Strada Marnei,310467,46.1906817,21.2832280
22,Strada Marnei,310467,46.1905867,21.2833379
20,Strada Marnei,310467,46.1906234,21.2836770
22,Strada Marnei,310467,46.1907316,21.2833648
139-151,Calea Aurel Vlaicu,310403,46.1969878,21.2967575
11-13,Strada Academia Teologică,310096,46.1680652,21.3118514
86,Strada Dunării,310501,46.2110480,21.2777435
21,Strada Lucian Blaga,310023,46.1744192,21.3131901
11-13,Strada Vasile Pârvan,310256,46.1591793,21.3269916
11,Strada Mucius Scaevola,310107,46.1643134,21.3195924
107,Strada Pădurii,310040,46.1733279,21.2941181
111,Strada Pădurii,310040,46.1729830,21.2940330
113,Strada Pădurii,310040,46.1728501,21.2939617
115,Strada Pădurii,310040,46.1726824,21.2938839
109,Strada Pădurii,310040,46.1731604,21.2941201
38D,Strada Voinicilor,310337,46.1722943,21.3554425
11,Strada Emanoil Gojdu,310090,46.1681388,21.3108366
8,Strada Czigler Antoniu,310208,46.1986847,21.3537295
8,Strada Czigler Antoniu,310208,46.1980238,21.3529995
28,Strada Păstorului,310293,46.1828236,21.3559677
11,Strada IV Zona Industrială Arad Vest,310491,46.2116169,21.2624732
17,Splaiul General Gheorghe Magheru,310329,46.1722706,21.3442799
12,Strada Barabás Béla,310005,46.1840421,21.3176468
10,Strada Barabás Béla,310005,46.1839973,21.3177964
8,Strada Barabás Béla,310005,46.1839460,21.3179805
6,Strada Barabás Béla,310005,46.1838729,21.3181518
4,Strada Barabás Béla,310005,46.1838014,21.3183383
2,Strada Barabás Béla,310005,46.1837060,21.3185496
18,Strada Barabás Béla,310005,46.1842882,21.3170845
22,Strada Barabás Béla,310005,46.1844153,21.3166111
24A,Strada Barabás Béla,310005,46.1845388,21.3163446
24,Strada Barabás Béla,310005,46.1845863,21.3166163
31,Splaiul Mureșului/Malul Mureșului,310062,46.1748519,21.3217359
26,Bulevardul Revoluției,310002,46.1827220,21.3225077
26,Bulevardul Revoluției,310002,46.1827489,21.3222820
26,Bulevardul Revoluției,310002,46.1828476,21.3221108
26,Bulevardul Revoluției,310002,46.1829211,21.3219150
26,Bulevardul Revoluției,310002,46.1830219,21.3217728
1,Strada Corneliu Coposu,310003,46.1831104,21.3223807
2,Strada Corneliu Coposu,310003,46.1831770,21.3221745
2A,Strada Corneliu Coposu,310003,46.1832448,21.3219626
2B,Strada Corneliu Coposu,310003,46.1833180,21.3217738
3-4,Strada Corneliu Coposu,310003,46.1834607,21.3214213
5,Strada Corneliu Coposu,310003,46.1836364,21.3207800
2,Strada Voluntarilor,310157,46.1862419,21.3153523
2,Strada Iulian Grozescu,310001,46.1817830,21.3208561
29,Strada Barabás Béla,310005,46.1843598,21.3157658
27,Strada Barabás Béla,310005,46.1843602,21.3159596
25,Aleea Agnita,310005,46.1843011,21.3161551
23,Strada Barabás Béla,310005,46.1842609,21.3162522
21,Strada Barabás Béla,310005,46.1841530,21.3165170
19,Strada Barabás Béla,310005,46.1841018,21.3166226
17,Strada Barabas Bela,310005,46.1840582,21.3168849
15,Strada Barabás Béla,310005,46.1839526,21.3170274
13,Strada Barabás Béla,310005,46.1839013,21.3172596
11,Strada Barabás Béla,310005,46.1838019,21.3174814
9A,Strada Barabás Béla,310005,46.1837455,21.3177362
9,Strada Barabás Béla,310005,46.1836880,21.3178512
7,Strada Barabás Béla,310005,46.1836565,21.3179363
5,Strada Barabás Béla,310005,46.1835991,21.3180943
3,Strada Barabás Béla,310005,46.1835154,21.3183233
41,Strada Ștefan Augustin Doinaș,310012,46.1833708,21.3185559
33-37,Strada Ștefan Augustin Doinaș,310004,46.1832656,21.3173094
28,Strada Andrei Mureșanu,310011,46.1828064,21.3170767
26,Strada Andrei Mureșanu,310011,46.1827969,21.3172461
30,Strada Andrei Mureșanu,310011,46.1829603,21.3166125
32,Strada Andrei Mureșanu,310011,46.1831087,21.3164897
34,Strada Andrei Mureșanu,310011,46.1831750,21.3162742
36,Strada Andrei Mureșanu,310011,46.1833003,21.3161604
38,Strada Andrei Mureșanu,310011,46.1832099,21.3159313
40,Strada Andrei Mureșanu,310011,46.1833238,21.3157945
42,Strada Andrei Mureșanu,310011,46.1833217,21.3156622
44,Strada Andrei Mureșanu,310011,46.1834477,21.3154944
46,Strada Andrei Mureșanu,310011,46.1835070,21.3153809
52,Strada Andrei Mureșanu,310011,46.1835676,21.3150027
52A,Strada Andrei Mureșanu,310011,46.1836258,21.3149095
48,Strada Andrei Mureșanu,310011,46.1834978,21.3152344
50,Strada Andrei Mureșanu,310011,46.1835993,21.3152803
27,Strada Andrei Mureșanu,310011,46.1827232,21.3161966
25,Strada Andrei Mureșanu,310011,46.1826667,21.3165885
23,Strada Andrei Mureșanu,310011,46.1825375,21.3167402
21,Strada Andrei Mureșanu,310011,46.1824534,21.3169865
19,Strada Andrei Mureșanu,310011,46.1823732,21.3172007
2,Strada Robănești,310170,46.1833761,21.3312996
1,Strada Robănești,310170,46.1834240,21.3311887
2B,Strada Udrea,310171,46.1828057,21.3308077
2A,Strada Udrea,310171,46.1827965,21.3310008
1B,Strada Udrea,310171,46.1825718,21.3309740
1A,Strada Udrea,310171,46.1825003,21.3311845
6,Strada Udrea,310171,46.1830008,21.3297434
8,Strada Udrea,310171,46.1830588,21.3296288
10,Strada Udrea,310171,46.1830416,21.3294666
12,Strada Udrea,310171,46.1830838,21.3292272
14,Strada Udrea,310171,46.1831711,21.3289731
16,Strada Udrea,310171,46.1831994,21.3287916
1C,Strada Udrea,310171,46.1826915,21.3301204
3,Strada Udrea,310171,46.1827147,21.3298998
5,Strada Udrea,310171,46.1827258,21.3297857
7,Strada Udrea,310171,46.1827157,21.3296403
11,Strada Udrea,310171,46.1828200,21.3289623
8,Strada Onisifor Ghibu,310171,46.1850576,21.3280343
8A,Strada Onisifor Ghibu,310171,46.1849970,21.3283045
9,Strada Onisifor Ghibu,310171,46.1849813,21.3284876
21,Strada Episcop Roman Ciorogariu,310040,46.1804461,21.3008313
49,Strada Octavian Goga,310028,46.1749570,21.3076395
51,Strada Octavian Goga,310028,46.1749376,21.3074704
53,Strada Octavian Goga,310028,46.1749090,21.3072422
55,Strada Octavian Goga,310028,46.1749140,21.3070006
57,Strada Octavian Goga,310028,46.1748239,21.3068550
59A,Strada Octavian Goga,310028,46.1748472,21.3066921
61,Strada Octavian Goga,310028,46.1748305,21.3063644
69,Strada Andrei Șaguna,310037,46.1752956,21.3066133
60,Strada Octavian Goga,310028,46.1752625,21.3067964
58,Strada Octavian Goga,310028,46.1752345,21.3071818
56,Strada Octavian Goga,310028,46.1752417,21.3073520
54,Strada Octavian Goga,310028,46.1752487,21.3075415
47,Strada Octavian Goga,310028,46.1749928,21.3079800
26,Strada Octavian Goga,310028,46.1757187,21.3113406
2,Strada Bela Bartok,310028,46.1768479,21.3105052
96,Bulevardul Revoluției,310025,46.1729592,21.3158039
2A,Strada Bela Bartok,310028,46.1769808,21.3103394
2B,Strada Bela Bartok,310028,46.1769549,21.3104236
58A,Strada Octavian Goga,310028,46.1752912,21.3069587
56,Calea Aurel Vlaicu,310141,46.1918020,21.3118060
194,Calea Aurel Vlaicu,310365,46.2006530,21.2971437
194,Calea Aurel Vlaicu,310365,46.2005694,21.2972315
194,Calea Aurel Vlaicu,310365,46.2006019,21.2968553
13,Strada Călărașilor,310360,46.1977289,21.2996726
13,Strada Călărașilor,310360,46.1976200,21.2998011
33,Calea Victoriei,310158,46.1873895,21.3093659
61,Strada Poetului,310345,46.1985792,21.3009370
63,Strada Poetului,310345,46.1984549,21.3008337
34,Strada Călărașilor,310360,46.1983240,21.3007599
32,Strada Călărașilor,310360,46.1982191,21.3006539
30,Strada Călărașilor,310360,46.1981003,21.3005761
28,Strada Călărașilor,310360,46.1979880,21.3004957
26,Strada Călărașilor,310360,46.1978700,21.3003589
24,Strada Călărașilor,310360,46.1977345,21.3002556
22,Strada Călărașilor,310360,46.1976547,21.3002020
20,Strada Călărașilor,310360,46.1975247,21.3001698
97-103,Strada Poetului,310362,46.2033595,21.2946428
294,Calea Radnei,310114,46.1731014,21.3752509
207,Calea Aurel Vlaicu,310451,46.2008127,21.2916213
244-246,Calea Aurel Vlaicu,310375,46.2013666,21.2920633
2,Strada Mircea Stănescu,310009,46.1805173,21.3207072
44,Strada Mircea Stănescu,310009,46.1801051,21.3203900
32-34,Strada Foișor,310356,46.1999270,21.2989691
35,Strada Foișor,310356,46.2000499,21.2987321
20,Strada Pictor Ștefan Luchian,310359,46.2010277,21.2964646
14,Calea Aurel Vlaicu,310141,46.1926436,21.3152576
9,Strada Baladei,310415,46.1825019,21.2920596
60,Strada Hunedoarei,310076,46.1650583,21.3030143
60A,Strada Hunedoarei,310076,46.1653200,21.3031437
60B,Strada Hunedoarei,310076,46.1655531,21.3029787
60C,Strada Hunedoarei,310076,46.1658374,21.3028285
60B,Strada Hunedoarei,310076,46.1653673,21.3027802
60C,Strada Hunedoarei,310076,46.1657073,21.3025603
85,Strada Poetului,310369,46.2005951,21.2992048
2,Strada Stupilor,310371,46.2009571,21.3008952
32,Strada Stupilor,310371,46.2036257,21.2986844
3,Strada Plopilor,310368,46.2012002,21.3012030
5,Strada Plopilor,310368,46.2013144,21.3012928
1,Strada Plopilor,310368,46.2006378,21.3004761
45,Strada Poetului,310345,46.1974984,21.3025253
47,Strada Poetului,310345,46.1976006,21.3023550
35-37,Strada Poetului,310345,46.1969498,21.3032737
49,Strada Poetului,310345,46.1976999,21.3020680
51A,Strada Poetului,310345,46.1978326,21.3020157
1,Strada Poetului,310345,46.1942076,21.3078334
78,Calea Aurel Vlaicu,310400,46.1930834,21.3083122
1/C,Strada Poetului,310345,46.1955277,21.3113324
1/C,Strada Poetului,310345,46.1964170,21.3116609
1/C,Strada Poetului,310345,46.1954543,21.3135104
1/C,Strada Poetului,310345,46.1969633,21.3102612
74,Strada Cocorilor,310426,46.1903850,21.3055119
72,Strada Cocorilor,310426,46.1903024,21.3052665
1/C,Strada Poetului,310345,46.1965973,21.3130122
1/C,Strada Poetului,310345,46.1961257,21.3129184
1/C,Strada Poetului,310345,46.1967856,21.3090958
1/C,Strada Poetului,310345,46.1961731,21.3101584
1/C,Strada Poetului,310345,46.1955276,21.3118687
1/C,Strada Poetului,310345,46.1979903,21.3084272
1/C,Strada Poetului,310345,46.1979726,21.3087849
1/C,Strada Poetului,310345,46.1979595,21.3090243
1/C,Strada Poetului,310345,46.1979489,21.3092725
1/C,Strada Poetului,310345,46.1979286,21.3096881
27,Strada General Ion Dragalina,310125,46.1719615,21.3205938
35B-37,Calea Victoriei,310158,46.1893762,21.3098149
E671 3/A,Calea Zimandului,310210,46.1997611,21.3402458
Bl. 9,Strada Tarafului,310264,46.1479850,21.3400072
Bl. 10,Strada Tarafului,310264,46.1482704,21.3397175
58,Strada Vârful cu dor,310085,46.1698040,21.3038306
27,Strada Ștefan Zarie,310261,46.1390530,21.3465027
47,Calea Romanilor,310114,46.1614582,21.3234644
2,Strada Codrului,310451,46.2043649,21.2841798
29,Strada Ana Ipătescu,310255,46.1571388,21.3264492
29,Strada Ana Ipătescu,310255,46.1573462,21.3260199
29-31,Calea Timișorii,310245,46.1551672,21.3223798
1,Strada Crângului,310253,46.1504687,21.3271865
65-71,Calea Iuliu Maniu,310167,46.1814351,21.3333880
9,Strada Lucian Blaga,310023,46.1727151,21.3145985
179,Calea Radnei,310291,46.1773733,21.3584580
29,Strada Ana Ipătescu,310255,46.1570452,21.3260529
55,Strada Castor,310215,46.2010005,21.3317606
6D,Splaiul Tóth Sándor,310132,46.1626240,21.3261719
28A,Strada Baba Novac,310440,46.1863380,21.2926627
14,Calea Aurel Vlaicu,310141,46.1924197,21.3157652
13-15,Calea Romanilor,310119,46.1655318,21.3223696
286,Calea Radnei,310318,46.1746617,21.3674115
12,Strada Episcopiei,310023,46.1755608,21.3142904
64-66,Bulevardul Revoluției,310025,46.1770877,21.3183327
6,Strada Victor Hugo,310347,46.1949790,21.3047707
7,Strada Victor Hugo,310347,46.1947854,21.3050863
9,Strada Victor Hugo,310347,46.1946327,21.3048329
8,Strada Victor Hugo,310347,46.1947284,21.3049375
11,Strada Victor Hugo,310347,46.1949527,21.3052206
1,Strada Vasile Conta,310388,46.1933864,21.3035823
1,Strada Toamnei,310141,46.1948723,21.3038363
2,Strada Toamnei,310141,46.1949669,21.3039102
3,Strada Toamnei,310141,46.1949161,21.3034920
1,Strada Poetului 1,310345,46.1947053,21.3041101
79,Strada Privighetorii,310215,46.2021245,21.3340772
79,Strada Privighetorii,310215,46.2023790,21.3333963
18,Strada Privighetorii,310215,46.2016623,21.3346304
16,Strada Privighetorii,310215,46.2013891,21.3343248
40,Strada Alexandru Odobescu,310215,46.2010183,21.3339622
36,Strada Alexandru Odobescu,310215,46.2008412,21.3341686
31,Strada Alexandru Odobescu,310215,46.2008012,21.3338287
71D,Strada Privighetorii,310215,46.2013591,21.3335739
75,Strada Privighetorii,310215,46.2016110,21.3338230
77,Strada Privighetorii,310215,46.2017780,21.3339533
73,Strada Privighetorii,310215,46.2014522,21.3337345
14,Strada Privighetorii,310215,46.2011438,21.3340243
38,Strada Alexandru Odobescu,310215,46.2009068,21.3340528
8,Strada Czigler Antoniu,310208,46.1976096,21.3538181
40,Strada Coriolan Petreanu,310150,46.1842523,21.3139418
42,Strada Coriolan Petreanu,310150,46.1843190,21.3140605
25,Strada Coriolan Petreanu,310150,46.1843275,21.3135674
26,Strada Coriolan Petreanu,310150,46.1844738,21.3137659
27,Strada Coriolan Petreanu,310150,46.1845562,21.3139342
3,Strada Teodor Ceontea,310152,46.1849352,21.3135470
5,Strada Teodor Ceontea,310152,46.1848567,21.3135956
14a,Strada Herodot,310459,46.1981560,21.2713586
14,Strada Herodot,310459,46.1982158,21.2715349
12,Strada Herodot,310459,46.1981527,21.2717392
10b,Strada Herodot,310459,46.1981499,21.2722034
11,Strada Herodot,310459,46.1979118,21.2717921
8,Strada Paltinului,310347,46.1942798,21.3058525
15,Strada Paltinului,310348,46.1943889,21.3068489
16,Strada Paltinului,310348,46.1943457,21.3070289
5,Strada Poetului,310345,46.1945726,21.3072837
3,Strada Poetului,310348,46.1943407,21.3076026
1,Strada Ciprian Porumbescu,310348,46.1936640,21.3068551
11,Strada Bumbacului,310348,46.1937869,21.3078972
12,Strada Bumbacului,310348,46.1936085,21.3079427
13,Strada Bumbacului,310348,46.1934452,21.3077784
13,Strada Bumbacului,310348,46.1935491,21.3078064
15,Strada Bumbacului,310348,46.1932921,21.3076574
12,Strada Paltinului,310347,46.1946360,21.3059631
13,Strada Paltinului,310347,46.1947251,21.3061788
15,Strada Țepeș Vodă,310345,46.1948309,21.3067428
50,Strada Rândunicii,310224,46.2012979,21.3277064
48,Strada Rândunicii,310224,46.2012115,21.3276595
46,Strada Rândunicii,310224,46.2010751,21.3276309
44,Strada Rândunicii,310224,46.2009806,21.3276423
42,Strada Rândunicii,310224,46.2008437,21.3276430
65,Strada Rândunicii,310224,46.2016542,21.3273397
63,Strada Rândunicii,310224,46.2015298,21.3273059
61,Strada Rândunicii,310224,46.2014216,21.3272457
3,Strada Victor Eftimiu,310224,46.2017929,21.3271867
5,Strada Victor Eftimiu,310224,46.2018148,21.3270530
67,Strada Rândunicii,310224,46.2021243,21.3275881
16,Strada Rahovei,310224,46.1990643,21.3292016
34,Strada Lucreția,310224,46.1996318,21.3287700
32,Strada Lucreția,310224,46.1995714,21.3286598
37,Strada Lucreția,310224,46.1994378,21.3285322
30a,Strada Lucreția,310224,46.1993650,21.3285152
36,Strada Lucreția,310224,46.1997857,21.3287641
38,Strada Lucreția,310224,46.1998653,21.3288006
39,Strada Lucreția,310224,46.1996145,21.3281930
27,Strada Rândunicii,310224,46.1992074,21.3266051
25,Strada Rândunicii,310224,46.1990586,21.3265437
33,Strada Rahovei,310224,46.1992304,21.3271104
34,Strada Vezuviu,310218,46.2008278,21.3255558
44,Strada Tismana,310218,46.2009637,21.3261801
34,Strada Tismana,310224,46.2006681,21.3278879
32,Strada Tismana,310224,46.2006954,21.3280380
45,Strada Lucreția,310224,46.2007727,21.3286560
47,Strada Lucreția,310224,46.2008646,21.3286895
19,Strada Tismana,310224,46.2005824,21.3270951
42,Strada Tismana,310218,46.2009025,21.3263327
40,Strada Tismana,310218,46.2008716,21.3264670
47,Strada Tismana,310218,46.2007346,21.3260519
45,Strada Tismana,310218,46.2007170,21.3261818
55,Strada Rândunicii,310224,46.2010478,21.3271592
48,Strada Tismana,310218,46.2010282,21.3256015
69,Strada Rândunicii,310224,46.2022914,21.3275548
49,Strada Lucreția,310224,46.2010111,21.3287922
45,Strada Zărandului,310224,46.1994519,21.3296095
1,Strada Vasile Conta,310388,46.1931149,21.3034484
2,Strada Vasile Conta,310388,46.1929148,21.3034258
3,Strada Obedenaru,310388,46.1929477,21.3032227
4,Strada Obedenaru,310388,46.1930014,21.3029703
5,Strada Obedenaru,310388,46.1929936,21.3027350
1,Aleea Ulise,310390,46.1926389,21.3028238
7,Strada Vasile Conta,310350,46.1927048,21.3037892
8,Strada Vasile Conta,310350,46.1925601,21.3037471
10,Strada Vasile Conta,310422,46.1921822,21.3036245
11,Strada Vasile Conta,310422,46.1920339,21.3035736
12,Strada Vasile Conta,310422,46.1918358,21.3035176
13,Strada Vasile Conta,310422,46.1917043,21.3034600
14,Strada Vasile Conta,310422,46.1915942,21.3034666
1,Strada Vasile Conta,310422,46.1914857,21.3034410
16,Strada Constantin Brâncoveanu,310422,46.1913740,21.3034126
16,Strada Vasile Conta,310350,46.1924238,21.3032393
17,Strada Vasile Conta,310350,46.1921801,21.3031379
18,Strada Vasile Conta,310350,46.1919568,21.3030642
19,Strada Vasile Conta,310350,46.1917924,21.3031098
20,Strada Vasile Conta,310350,46.1916300,21.3030609
21,Strada Vasile Conta,310350,46.1914972,21.3030023
1,Strada Constantin Brâncoveanu,310422,46.1915607,21.3043585
2,Strada Constantin Brâncoveanu,310422,46.1916486,21.3046441
3,Strada Constantin Brâncoveanu,310422,46.1917008,21.3047708
4,Strada Constantin Brâncoveanu,310422,46.1917167,21.3050182
4,Strada Constantin Brâncoveanu,310422,46.1918129,21.3048819
5,Strada Constantin Brâncoveanu,310422,46.1913770,21.3047896
6,Strada Constantin Brâncoveanu,310422,46.1913513,21.3046454
7,Strada Constantin Brâncoveanu,310422,46.1913158,21.3044857
8,Strada Constantin Brâncoveanu,310422,46.1912955,21.3042732
9,Strada Constantin Brâncoveanu,310422,46.1914097,21.3050582
14,Strada Diogene,310257,46.1590528,21.3317561
54,Strada Diogene,310257,46.1573207,21.3356065
4,Strada Cozia,310101,46.1685657,21.3167452
29,Strada Tudor Vladimirescu,310010,46.1824672,21.3196096
98,Bulevardul Revoluției,310099,46.1714544,21.3148170
1,Strada Mihai Eminescu,310086,46.1715926,21.3142118
10,Strada Tribunul Dobra,310101,46.1686624,21.3175701
11,Piața Avram Iancu,310099,46.1691066,21.3155169
14,Strada Episcopiei,310023,46.1754710,21.3139946
15-17,Strada Ion Luca Caragiale,310084,46.1737097,21.3079845
24,Strada Transilvaniei,310085,46.1709185,21.3043680
5,Strada Crișan,310016,46.1787990,21.3181924
75,Strada Mihai Eminescu,310084,46.1714775,21.3048267
