House number,Street name,Postal code,Latitude,Longitude
44,улица Советов,353900,44.7183429,37.7769117
53,улица Советов,353900,44.7150208,37.7789437
18А,проспект Ленина,353905,44.7024292,37.7843730
9,проспект Ленина,353905,44.7017492,37.7835674
105,Волгоградская улица,353922,44.6847567,37.7709915
230,проспект Дзержинского,353925,44.6737435,37.7805348
8/10,Малоземельская улица,353913,44.6875888,37.7680708
52,улица Новороссийской Республики,353900,44.7137508,37.7716323
10,проспект Ленина,353912,44.7030721,37.7845518
66,улица Энгельса,353905,44.7111485,37.7803154
69Б,проспект Ленина,353913,44.6894499,37.7869843
105,проспект Ленина,353925,44.6762052,37.7953566
47,улица Героев Десантников,353912,44.6886512,37.7772180
211Б,проспект Дзержинского,353913,44.6843280,37.7793943
15А,Малоземельская улица,353910,44.6900121,37.7691973
89,улица Энгельса,353900,44.7077693,37.7827234
5А,проспект Ленина,353905,44.7039396,37.7840669
8Б,Пионерская улица,353925,44.6814773,37.7864374
22,проспект Ленина,353910,44.6976365,37.7850884
39А,улица набережная Адмирала Серебрякова,353905,44.7058976,37.7891631
7В,Первомайская улица,353901,44.7403372,37.7838981
29Г,улица набережная Адмирала Серебрякова,353900,44.7089174,37.7858567
18,улица Горького,353960,44.7437555,37.7243457
88А,улица Куникова,353910,44.6911932,37.7670130
60,Сухумское шоссе,353902,44.7331948,37.8106179
4,проспект Ленина,353905,44.7051184,37.7848568
48,улица Чкалова,353907,44.7251854,37.7435722
1,Плавневая улица,353900,44.7495470,37.7567852
211/3,проспект Дзержинского,353925,44.6830995,37.7797998
2,улица Карла Маркса,353900,44.7223571,37.7739969
29,улица Луначарского,353907,44.7264130,37.7383546
6,3-я Промышленная улица,353960,44.7696431,37.7238046
3,улица Мира,353900,44.7267466,37.7714008
2А,улица Лейтенанта Шмидта,353900,44.7135794,37.7753792
20,Южная улица,353925,44.6766075,37.7926142
16,улица Тихоступа,353901,44.7377469,37.7812466
4,проспект Ленина,353905,44.7052615,37.7848795
3,улица Бирюзова,353900,44.7223581,37.7663230
4,проспект Ленина,353905,44.7051965,37.7848673
12А,Анапское шоссе,353907,44.7277126,37.7595135
2,улица Героев Десантников,353913,44.6852129,37.7810649
39А,Анапское шоссе,353907,44.7303322,37.7568721
171,улица Ленина,353960,44.7671526,37.7097608
7,Родительская улица,353960,44.7633689,37.7045712
5,Родительская улица,353960,44.7635060,37.7044639
5,Былинная улица,353960,44.7470133,37.6964655
19,Былинная улица,353960,44.7457636,37.6978120
156В,проспект Дзержинского,353910,44.6915635,37.7806150
156В,проспект Дзержинского,353913,44.6916260,37.7806120
185,проспект Дзержинского,353915,44.6918566,37.7793207
5,Первомайская улица,353901,44.7398314,37.7817862
27а 1 этаж,набережная Адмирала Серебрякова,353900,44.7128700,37.7841337
20,Пролетарская улица,353901,44.7392661,37.7799469
1,улица Михаила Борисова,353901,44.7376455,37.7784360
23,Элеваторная улица,353901,44.7377313,37.7778497
2,улица Михаила Борисова,353901,44.7377624,37.7782104
1,улица Аршинцева,353901,44.7379193,37.7778121
16,улица Тихоступа,353901,44.7377913,37.7811090
11,Первомайская улица,353901,44.7402176,37.7807543
7Б,Первомайская улица,353901,44.7398299,37.7836640
7А,Первомайская улица,353901,44.7402419,37.7827159
7А,Первомайская улица,353901,44.7397391,37.7832715
16,улица Михаила Борисова,353901,44.7397613,37.7799033
10,Первомайская улица,353901,44.7390289,37.7828901
7,Пролетарская улица,353901,44.7384147,37.7832069
12,Первомайская улица,353901,44.7394293,37.7821445
7В,Первомайская улица,353901,44.7404137,37.7839456
2/1,Судостальская улица,353901,44.7414213,37.7852023
17,улица Сакко и Ванцетти,353901,44.7419856,37.7855363
53,улица Пархоменко,353905,44.7049590,37.7826466
53,улица Пархоменко,353905,44.7050948,37.7824640
53,улица Пархоменко,353905,44.7046984,37.7830204
53,улица Пархоменко,353905,44.7049449,37.7826763
53,улица Пархоменко,353905,44.7048211,37.7826282
53,улица Пархоменко,353905,44.7049369,37.7824513
42,улица Свердлова,353905,44.7043040,37.7831166
4,проспект Ленина,353905,44.7048319,37.7848168
4,проспект Ленина,353905,44.7050573,37.7848472
4,проспект Ленина,353905,44.7053480,37.7848921
4,проспект Ленина,353905,44.7047479,37.7847912
4,проспект Ленина,353905,44.7050121,37.7848379
7,проспект Ленина,353905,44.7027471,37.7837083
9,проспект Ленина,353905,44.7022270,37.7836396
1/3,Анапское шоссе,353907,44.7264568,37.7634183
11,Анапское шоссе,353907,44.7266640,37.7627145
17,Анапское шоссе,353907,44.7276018,37.7607493
21,Анапское шоссе,353907,44.7287321,37.7605162
15,Анапское шоссе,353907,44.7274024,37.7621142
19,Анапское шоссе,353907,44.7282727,37.7598498
23Б,Анапское шоссе,353907,44.7303802,37.7592669
23А,Анапское шоссе,353907,44.7295928,37.7594773
31,улица Героев Десантников,353915,44.6879906,37.7835991
35,улица Героев Десантников,353915,44.6880865,37.7829876
33,улица Героев Десантников,353915,44.6886909,37.7839024
12,улица Снайпера Рубахо,353910,44.6961992,37.7833715
14,улица Снайпера Рубахо,353923,44.6960378,37.7821778
16,улица Снайпера Рубахо,353923,44.6959202,37.7812189
53,улица Карамзина,353923,44.6951951,37.7829421
22,улица Алексеева,353923,44.6949649,37.7814128
19,улица Куникова,353923,44.6941404,37.7820278
11,улица Куникова,353923,44.6942989,37.7828078
7А,проспект Ленина,353905,44.7025227,37.7833201
2,улица Леднева,353900,44.7228632,37.7733424
16,Анапское шоссе,353907,44.7273381,37.7588892
10,Анапское шоссе,353907,44.7266622,37.7604240
4,Анапское шоссе,353907,44.7259656,37.7619471
12,Анапское шоссе,353907,44.7273291,37.7598138
6,Анапское шоссе,353907,44.7266279,37.7613542
8,Анапское шоссе,353907,44.7260478,37.7611050
14,Анапское шоссе,353907,44.7267269,37.7596050
39,улица Козлова,353907,44.7253835,37.7609554
39А,улица Героев Десантников,353915,44.6881791,37.7819399
37,улица Героев Десантников,353915,44.6876312,37.7823975
39,улица Героев Десантников,353915,44.6877815,37.7814930
23,улица Героев Десантников,353915,44.6873622,37.7851847
11,улица Героев Десантников,353913,44.6888148,37.7883150
35А,улица Героев Десантников,353915,44.6888670,37.7830010
27,улица Героев Десантников,353915,44.6878350,37.7851865
25,улица Героев Десантников,353915,44.6876196,37.7858784
21,улица Героев Десантников,353915,44.6872903,37.7866166
19,улица Героев Десантников,353915,44.6871042,37.7875624
6,Волгоградская улица,353922,44.6879358,37.7650903
7,улица Леднева,353900,44.7235357,37.7730163
9,улица Леднева,353900,44.7232349,37.7725363
9,улица Мира,353900,44.7251839,37.7744848
2,Анапское шоссе,353907,44.7241618,37.7642323
13,улица Михаила Борисова,353901,44.7413903,37.7819749
1,Первомайская улица,353901,44.7391446,37.7844642
3,Первомайская улица,353901,44.7392035,37.7838718
7,Первомайская улица,353901,44.7405571,37.7823693
7В,Первомайская улица,353901,44.7402564,37.7837387
7А,Первомайская улица,353901,44.7400418,37.7830199
24,улица Сакко и Ванцетти,353901,44.7402404,37.7843716
22,улица Сакко и Ванцетти,353901,44.7398011,37.7843915
20,улица Сакко и Ванцетти,353901,44.7394622,37.7845236
3Б,Первомайская улица,353901,44.7394794,37.7832627
59,Суворовская улица,353910,44.6951042,37.7870265
42,проспект Ленина,353910,44.6952720,37.7857444
44,проспект Ленина,353910,44.6945519,37.7859082
8,улица Снайпера Рубахо,353910,44.6965054,37.7856249
6,улица Снайпера Рубахо,353910,44.6965800,37.7860824
51,Суворовская улица,353910,44.6964868,37.7868802
20,улица Карамзина,353910,44.6957458,37.7835597
40А,проспект Ленина,353913,44.6962025,37.7862588
53,Суворовская улица,353910,44.6961694,37.7869003
55,Суворовская улица,353910,44.6958433,37.7869419
57,Суворовская улица,353910,44.6954134,37.7869820
40,проспект Ленина,353910,44.6960073,37.7855988
2,улица Снайпера Рубахо,353910,44.6966343,37.7865161
219,проспект Дзержинского,353925,44.6771685,37.7796566
223,проспект Дзержинского,353925,44.6766485,37.7792096
5,Днепровский переулок,353921,44.7325210,37.7444287
5А,улица Луначарского,353912,44.7322743,37.7466207
5,улица Луначарского,353912,44.7325995,37.7468802
3,улица Луначарского,353912,44.7330140,37.7472261
2,улица Луначарского,353912,44.7325923,37.7474079
64,Анапское шоссе,353912,44.7324244,37.7477923
11,улица Луначарского,353912,44.7316304,37.7457942
3,Днепровский переулок,353912,44.7330913,37.7450281
7,улица Луначарского,353912,44.7318865,37.7459471
7,Днепровский переулок,353912,44.7330473,37.7435290
9,улица Луначарского,353912,44.7321095,37.7461838
4,улица Луначарского,353912,44.7318941,37.7468514
1,Кутузовская улица,353907,44.7283016,37.7631939
119,улица Видова,353907,44.7290875,37.7484729
39,улица Губернского,353900,44.7162312,37.7817061
40,улица Советов,353900,44.7197317,37.7754307
29А,улица Героев Десантников,353915,44.6885910,37.7848353
29,улица Героев Десантников,353915,44.6874913,37.7840576
137,улица Видова,353912,44.7324475,37.7420035
25,улица Карамзина,353927,44.7001864,37.7815025
21,улица Куникова,353923,44.6936924,37.7813879
51,улица Карамзина,353923,44.6954865,37.7822468
57,улица Карамзина,353923,44.6947539,37.7823452
152,улица Дзержинского,353923,44.6943507,37.7809017
51А,улица Карамзина,353923,44.6955200,37.7818005
150,улица Дзержинского,353923,44.6941339,37.7813527
156,улица Дзержинского,353923,44.6937255,37.7808425
154,улица Дзержинского,353923,44.6940210,37.7806140
9,улица Куникова,353923,44.6941447,37.7841839
20,Молодёжная улица,353922,44.6823189,37.7896055
13,улица Толстого,353905,44.7121759,37.7811580
17,улица Толстого,353905,44.7122805,37.7804040
28А,улица Рубина,353900,44.7153342,37.7676610
11,улица Толстого,353905,44.7126377,37.7815879
31,Прямая улица,353915,44.6974302,37.7769241
62,улица Раевского,353915,44.6965989,37.7764107
33,Прямая улица,353915,44.6961592,37.7773303
23,улица Мира,353900,44.7201608,37.7782725
25,улица Мира,353900,44.7199207,37.7788682
7,улица Энгельса,353900,44.7189092,37.7691975
35,улица Свободы,353900,44.7179467,37.7661712
48,улица Чкалова,353907,44.7243762,37.7429748
147,улица Видова,353912,44.7374129,37.7314740
5,Тобольская улица,353912,44.7380529,37.7329292
87 кГ,Анапское шоссе,353912,44.7426683,37.7296261
87 кБ,Анапское шоссе,353912,44.7429285,37.7290768
87 кВ,Анапское шоссе,353912,44.7425781,37.7294382
87,Анапское шоссе,353912,44.7430650,37.7295942
153,улица Видова,353912,44.7396431,37.7287877
53,Анапское шоссе,353907,44.7404878,37.7356620
165А,улица Видова,353912,44.7404126,37.7275420
4,улица Котанова,353924,44.6725795,37.7758755
121А,улица Видова,353907,44.7301016,37.7479692
119А,улица Видова,353907,44.7295038,37.7487530
121,улица Видова,353907,44.7296688,37.7479791
4 к10,Днепровский переулок,353912,44.7318089,37.7451956
131/3,улица Видова,353912,44.7316437,37.7430991
135,улица Видова,353912,44.7320653,37.7430210
13,улица Луначарского,353912,44.7313293,37.7457607
4 к12,Днепровский переулок,353912,44.7315438,37.7449187
131/2,улица Видова,353912,44.7314754,37.7434456
115,Кутузовская улица,353917,44.7166097,37.7497655
2Б,Краснознамённый переулок,353917,44.7163563,37.7484223
6,Краснознамённый переулок,353917,44.7156590,37.7480458
2,Краснознамённый переулок,353917,44.7171869,37.7491512
4,Краснознамённый переулок,353917,44.7163998,37.7492232
8,Краснознамённый переулок,353917,44.7160636,37.7477174
2А,Краснознамённый переулок,353917,44.7168012,37.7489151
19А,улица Толстого,353905,44.7115254,37.7799267
54,улица Энгельса,353905,44.7118732,37.7786273
1,Динамовская улица,353905,44.7129828,37.7807944
4,улица Шевченко,353905,44.7123852,37.7798916
15,улица Толстого,353905,44.7118349,37.7806030
28,улица Рубина,353900,44.7168102,37.7694899
55,Мысхакское шоссе,353919,44.6950167,37.7646188
49Б,улица Куникова,353919,44.6921306,37.7645604
55/3,Мысхакское шоссе,353919,44.6947070,37.7652439
47 кА,улица Куникова,353910,44.6919075,37.7655542
57А,Мысхакское шоссе,353919,44.6930828,37.7579757
88,Прямая улица,353923,44.6932328,37.7786458
53,улица Вити Чаленко,353923,44.6936218,37.7790938
101,улица Свердлова,353905,44.7024021,37.7772081
50,улица Вруцкого,353907,44.7258839,37.7442254
45,Социалистическая улица,353907,44.7259885,37.7452466
43,Социалистическая улица,353907,44.7260178,37.7454458
48,улица Вруцкого,353907,44.7259732,37.7443489
46,улица Вруцкого,353907,44.7260293,37.7445697
53,Социалистическая улица,353907,44.7256100,37.7447517
47,Социалистическая улица,353907,44.7258588,37.7451201
45,Индустриальная улица,353907,44.7256919,37.7464772
54,улица Вруцкого,353907,44.7256787,37.7439387
51,Социалистическая улица,353907,44.7256942,37.7448594
52,улица Вруцкого,353907,44.7256107,37.7442415
49,Социалистическая улица,353907,44.7257506,37.7450349
49/1,Социалистическая улица,353907,44.7258250,37.7448481
12,улица Видова,353900,44.7199708,37.7667172
36,Щедринская улица,353905,44.7056420,37.7766630
16,Запорожская улица,353905,44.7053535,37.7795429
20,Запорожская улица,353905,44.7051660,37.7793099
14,Запорожская улица,353905,44.7054328,37.7796891
18,Запорожская улица,353905,44.7052640,37.7794100
66,улица Уварова,353919,44.6954513,37.7652686
33,Физкультурная улица,353923,44.6981417,37.7719973
35,Физкультурная улица,353923,44.6977674,37.7721062
33А,Физкультурная улица,353923,44.6978927,37.7720213
39,Физкультурная улица,353923,44.6973514,37.7722391
1,Южная улица,353925,44.6755847,37.7792125
4,улица Фурманова,353900,44.7220070,37.7603522
51,Кутузовская улица,353900,44.7216502,37.7603994
49,Кутузовская улица,353900,44.7217383,37.7605184
51А,Кутузовская улица,353900,44.7217517,37.7601482
47,Кутузовская улица,353900,44.7218723,37.7607646
53,Кутузовская улица,353900,44.7215103,37.7602300
49А,Кутузовская улица,353900,44.7218632,37.7602821
38,улица Свободы,353900,44.7178641,37.7670710
11,улица Декабристов,353900,44.7165019,37.7672436
11,улица Декабристов,353900,44.7166577,37.7677033
35,улица Рубина,353900,44.7167822,37.7684143
5,улица Декабристов,353900,44.7170548,37.7670749
13,Ермацкий переулок,353900,44.7158938,37.7666333
15,Ермацкий переулок,353900,44.7158098,37.7667916
43,улица Рубина,353900,44.7162792,37.7675869
36,улица Максима Горького,353900,44.7158015,37.7707338
46,улица Максима Горького,353900,44.7153333,37.7712988
5,улица Фисанова,353900,44.7155061,37.7715279
47А,улица Рубина,353900,44.7161870,37.7672544
5,улица Максима Горького,353900,44.7178077,37.7678068
7,улица Декабристов,353900,44.7169135,37.7673389
49,улица Рубина,353900,44.7159058,37.7674107
47,улица Рубина,353900,44.7160141,37.7675498
45,улица Рубина,353900,44.7160724,37.7676719
3,улица Фисанова,353900,44.7156439,37.7716050
1,Ермацкий переулок,353900,44.7163250,37.7659391
9,улица Декабристов,353900,44.7167486,37.7675319
1А,Ермацкий переулок,353900,44.7162163,37.7658542
7,Ермацкий переулок,353900,44.7161299,37.7663407
40,улица Свободы,353900,44.7177502,37.7667071
19,улица Максима Горького,353900,44.7170433,37.7686610
18,улица Декабристов,353900,44.7168689,37.7682266
7А,улица Декабристов,353900,44.7167714,37.7671807
11,Ермацкий переулок,353900,44.7159712,37.7665573
41,улица Рубина,353900,44.7162833,37.7679483
33,улица Рубина,353900,44.7168651,37.7688519
21,улица Максима Горького,353900,44.7169595,37.7687300
9,Ермацкий переулок,353900,44.7160752,37.7664178
51,улица Рубина,353900,44.7157821,37.7672960
16,Ермацкий переулок,353900,44.7158642,37.7671545
39,улица Рубина,353900,44.7163958,37.7681499
19Б,улица Конституции,353900,44.7167954,37.7702089
14,Ермацкий переулок,353900,44.7160108,37.7672227
38,улица Максима Горького,353900,44.7159004,37.7710789
53,улица Новороссийской Республики,353900,44.7128510,37.7701459
55,улица Новороссийской Республики,353900,44.7127367,37.7700482
57,улица Новороссийской Республики,353900,44.7126706,37.7699113
63,улица Новороссийской Республики,353900,44.7126536,37.7696227
87,улица Новороссийской Республики,353900,44.7111346,37.7675773
3,улица Красных Военморов,353900,44.7118606,37.7693257
13,улица Красных Военморов,353900,44.7107078,37.7684503
74,улица Новороссийской Республики,353900,44.7111941,37.7683267
17,улица Красных Военморов,353900,44.7102511,37.7681694
5,улица Красных Военморов,353900,44.7116689,37.7691188
1А,улица Красных Военморов,353900,44.7120524,37.7694730
80,улица Новороссийской Республики,353900,44.7109634,37.7679071
22,улица Белинского,353900,44.7106476,37.7678455
9,улица Красных Военморов,353900,44.7112063,37.7688160
82,улица Новороссийской Республики,353900,44.7107946,37.7676400
89,улица Новороссийской Республики,353900,44.7110330,37.7674233
83,улица Новороссийской Республики,353900,44.7113343,37.7679636
78,улица Новороссийской Республики,353900,44.7109941,37.7680687
7,улица Красных Военморов,353900,44.7113390,37.7687995
24,улица Белинского,353900,44.7104985,37.7679308
17А,улица Красных Военморов,353900,44.7103159,37.7683600
11А,улица Красных Военморов,353900,44.7109032,37.7685951
72,улица Новороссийской Республики,353900,44.7113107,37.7684916
16,Щедринская улица,353905,44.7070452,37.7745372
9,улица Мира,353900,44.7252236,37.7740223
38,Литейный переулок,353900,44.7133450,37.8481468
15,Южная улица,353925,44.6753039,37.7842982
4,улица Мурата Ахеджака,353925,44.6732798,37.7813615
6,Первомайская улица,353901,44.7388038,37.7837679
7,Пролетарская улица,353901,44.7384722,37.7832253
13,Пролетарская улица,353901,44.7395535,37.7811454
15,улица Сакко и Ванцетти,353901,44.7412367,37.7850228
14,улица Сакко и Ванцетти,353901,44.7384832,37.7847096
1,улица Аршинцева,353901,44.7378806,37.7779379
18,Пролетарская улица,353901,44.7389832,37.7805271
23,Элеваторная улица,353901,44.7377580,37.7778760
5,Уютный переулок,353991,44.7823240,37.6896061
9,Уютный переулок,353991,44.7820129,37.6891258
7,Уютный переулок,353991,44.7821874,37.6893692
7Ж,улица Ленина,353960,44.7469343,37.7290510
163,улица Видова,353912,44.7390408,37.7312031
76 кБ,Анапское шоссе,353912,44.7395364,37.7319412
76А,Анапское шоссе,353912,44.7397438,37.7321687
6,улица В. Арнольди,353960,44.7443053,37.7326934
4,улица Надежды Онайко,353960,44.7430713,37.7323864
74А,Анапское шоссе,353912,44.7395962,37.7324964
165Б,улица Видова,353912,44.7407879,37.7275434
8,Крайний переулок,353900,44.7154567,37.7532057
10,улица 8-го Марта,353900,44.7206494,37.7591885
53,улица Рубина,353900,44.7156260,37.7670093
69,Кутузовская улица,353900,44.7203182,37.7585374
14,Крайний переулок,353900,44.7157544,37.7526886
19,Крайний переулок,353900,44.7160325,37.7529396
152,улица Свободы,353900,44.7105509,37.7576349
13,Крайний переулок,353900,44.7155667,37.7536171
11А,Крайний переулок,353900,44.7156147,37.7539787
65,Кутузовская улица,353900,44.7204345,37.7588025
13А,Крайний переулок,353900,44.7156378,37.7534133
4,Крайний переулок,353900,44.7151966,37.7534718
6А,Крайний переулок,353900,44.7153776,37.7533284
17,Крайний переулок,353900,44.7158309,37.7530811
11,Крайний переулок,353900,44.7154239,37.7537865
15,Крайний переулок,353900,44.7157209,37.7532604
4,Лиловая улица,353960,44.7458264,37.7059955
7,Былинная улица,353960,44.7465024,37.6970278
12,Великая улица,353960,44.7465690,37.6963093
17,Былинная улица,353960,44.7459322,37.6976277
13,Былинная улица,353960,44.7462536,37.6971411
22,Великая улица,353960,44.7459082,37.6970645
24,Великая улица,353960,44.7457729,37.6971834
7В,Былинная улица,353960,44.7467013,37.6968238
115,Октябрьская улица,353460,44.7005790,37.7533176
55,Родниковая улица,353900,44.7002894,37.7568500
68,Родниковая улица,353900,44.7006595,37.7569494
70,Родниковая улица,353900,44.7006444,37.7571964
2/4,улица Леднева,353900,44.7228067,37.7728755
16/1,улица Сакко и Ванцетти,353901,44.7389947,37.7846361
11,Волгоградская улица,353919,44.6842205,37.7757780
4 к2,Днепровский переулок,353912,44.7331068,37.7463190
4 к13,Днепровский переулок,353912,44.7318517,37.7441674
196,улица Видова,353912,44.7390829,37.7263697
196А,улица Видова,353912,44.7388470,37.7266415
79 кА,Анапское шоссе,353912,44.7414909,37.7318851
19,Звонкий переулок,353960,44.7427030,37.7346510
4 к4,Днепровский переулок,353912,44.7328198,37.7460514
81,Анапское шоссе,353912,44.7416195,37.7317905
167Б,улица Видова,353912,44.7417945,37.7270367
79А,Анапское шоссе,353912,44.7414793,37.7320597
79 кЕ,Анапское шоссе,353912,44.7417509,37.7335594
41Н к1,Анапское шоссе,353907,44.7308277,37.7563676
163А,улица Видова,353912,44.7397108,37.7296109
4 к8,Днепровский переулок,353912,44.7321243,37.7454460
4 к1,Днепровский переулок,353912,44.7332412,37.7459650
4 к14,Днепровский переулок,353912,44.7319451,37.7438202
79/1,Анапское шоссе,353912,44.7413277,37.7323284
12,Староцемесский переулок,353960,44.7425550,37.7344454
81 кА,Анапское шоссе,353912,44.7418045,37.7324308
18 Литер А,улица Горького,353960,44.7437960,37.7242397
15,Звонкий переулок,353960,44.7423424,37.7340710
17,Звонкий переулок,353960,44.7426780,37.7342414
79В,Анапское шоссе,353912,44.7412537,37.7317728
51,Анапское шоссе,353907,44.7399782,37.7348277
4 к7,Днепровский переулок,353912,44.7323308,37.7451797
4 к9,Днепровский переулок,353912,44.7319738,37.7448460
4 к3,Днепровский переулок,353912,44.7329450,37.7457337
4 к5,Днепровский переулок,353912,44.7325921,37.7453698
7А,Тобольская улица,353912,44.7382415,37.7314875
4 к11,Днепровский переулок,353912,44.7316507,37.7445724
131/1,улица Видова,353912,44.7314555,37.7437702
4 к6,Днепровский переулок,353912,44.7324346,37.7456863
41Н к2,Анапское шоссе,353907,44.7315976,37.7563297
97,Интернациональная улица,353907,44.7205139,37.7406368
52,Холмистая улица,353907,44.7238913,37.7444018
58,Индустриальная улица,353907,44.7247192,37.7453050
56,Промышленная улица,353907,44.7234920,37.7436419
40,Ивановская улица,353907,44.7227875,37.7430762
75/1,Интернациональная улица,353907,44.7214081,37.7417959
56,Армавирская улица,353907,44.7243428,37.7453490
58,Холмистая улица,353907,44.7242442,37.7438405
58,Промышленная улица,353907,44.7236261,37.7434546
81,Интернациональная улица,353907,44.7217416,37.7405136
42,Ивановская улица,353907,44.7229707,37.7430639
99,Интернациональная улица,353907,44.7204431,37.7405555
58,Армавирская улица,353907,44.7244639,37.7451717
44,Ивановская улица,353907,44.7229216,37.7427770
38А,Ивановская улица,353907,44.7227684,37.7432043
46,улица Кукеля,353907,44.7209800,37.7396605
48,Индустриальная улица,353907,44.7251610,37.7462854
50,Калужская улица,353907,44.7228400,37.7418955
59,Социалистическая улица,353907,44.7226655,37.7408142
58/1,Холмистая улица,353907,44.7241044,37.7438079
45,Армавирская улица,353907,44.7249018,37.7448849
57,Социалистическая улица,353907,44.7228048,37.7407440
38,Калужская улица,353907,44.7216509,37.7423317
48,Холмистая улица,353907,44.7237767,37.7447375
75,Интернациональная улица,353907,44.7213782,37.7419407
81,Интернациональная улица,353907,44.7209791,37.7414510
51,Холмистая улица,353907,44.7240247,37.7449039
44,Калужская улица,353907,44.7218781,37.7417143
73,Интернациональная улица,353907,44.7214350,37.7420980
81/1,Интернациональная улица,353907,44.7214418,37.7412701
50,Индустриальная улица,353907,44.7251537,37.7460267
50/2,улица Кукеля,353907,44.7206289,37.7397024
44А,Калужская улица,353907,44.7220429,37.7417578
52,Социалистическая улица,353907,44.7250959,37.7446768
99/1,Интернациональная улица,353907,44.7205045,37.7393973
46,Холмистая улица,353907,44.7237060,37.7448983
45,Владимирская улица,353907,44.7228170,37.7425116
55,Интернациональная улица,353907,44.7236499,37.7450419
71,Интернациональная улица,353907,44.7215545,37.7422336
81Б,Интернациональная улица,353907,44.7213538,37.7409687
42,улица Кукеля,353907,44.7210932,37.7398687
50,Холмистая улица,353907,44.7238709,37.7445742
50А,Владимирская улица,353907,44.7227501,37.7419718
41,Владимирская улица,353907,44.7225859,37.7428300
47,Калужская улица,353907,44.7226996,37.7417561
31А,улица Вруцкого,353907,44.7250387,37.7424385
59,Холмистая улица,353907,44.7243558,37.7443983
50,Владимирская улица,353907,44.7229367,37.7417743
42,Калужская улица,353907,44.7218814,37.7419185
81,Интернациональная улица,353907,44.7212658,37.7408489
53,Холмистая улица,353907,44.7241191,37.7447838
60,Промышленная улица,353907,44.7236599,37.7430566
44,улица Кукеля,353907,44.7210324,37.7397576
39,Ивановская улица,353907,44.7230316,37.7435736
50/1,улица Кукеля,353907,44.7207672,37.7396377
56,Социалистическая улица,353907,44.7245886,37.7441017
55,Холмистая улица,353907,44.7241999,37.7446593
37,Владимирская улица,353907,44.7223543,37.7432134
54,Социалистическая улица,353907,44.7248691,37.7444046
47,Ивановская улица,353907,44.7234452,37.7428970
43,Владимирская улица,353907,44.7226960,37.7426535
50,улица Кукеля,353907,44.7208539,37.7394945
50 кА,улица Кукеля,353907,44.7205558,37.7399580
39,Армавирская улица,353907,44.7245068,37.7457110
101/1,Интернациональная улица,353907,44.7204229,37.7392129
57,Интернациональная улица,353907,44.7233025,37.7445451
57,Холмистая улица,353907,44.7242872,37.7444947
40,Калужская улица,353907,44.7217326,37.7421617
39А,Ивановская улица,353907,44.7230675,37.7434631
91,Интернациональная улица,353907,44.7206638,37.7410213
52,Армавирская улица,353907,44.7241954,37.7456234
57,Промышленная улица,353907,44.7238361,37.7436326
95,Интернациональная улица,353907,44.7205706,37.7407382
47,Владимирская улица,353907,44.7229532,37.7425315
40 кА,улица Кукеля,353907,44.7212658,37.7403217
41,Армавирская улица,353907,44.7246169,37.7454776
87,Интернациональная улица,353907,44.7213295,37.7397962
48,улица Кукеля,353907,44.7209136,37.7396121
62,Армавирская улица,353907,44.7246456,37.7448693
56,Холмистая улица,353907,44.7241424,37.7440236
40,улица Кукеля,353907,44.7212909,37.7405294
65,Интернациональная улица,353907,44.7224415,37.7433300
51,Промышленная улица,353907,44.7235170,37.7442209
66,Армавирская улица,353907,44.7248038,37.7445465
54,Армавирская улица,353907,44.7242427,37.7454578
36,Ивановская улица,353907,44.7226044,37.7434428
55,Промышленная улица,353907,44.7238234,37.7440126
58,Социалистическая улица,353907,44.7243334,37.7436377
39,Владимирская улица,353907,44.7224938,37.7429972
47,Интернациональная улица,353907,44.7245154,37.7461124
70/1,Социалистическая улица,353907,44.7222869,37.7410703
61,Холмистая улица,353907,44.7244335,37.7442592
50,Калужская улица,353907,44.7221349,37.7406733
64,Социалистическая улица,353907,44.7236402,37.7427751
64,Армавирская улица,353907,44.7247065,37.7447281
50,Калужская улица,353907,44.7220607,37.7408920
79,Интернациональная улица,353907,44.7211903,37.7417595
87,Интернациональная улица,353907,44.7207794,37.7411917
93,Интернациональная улица,353907,44.7205903,37.7409210
48,Ивановская улица,353907,44.7232628,37.7425860
85,Интернациональная улица,353907,44.7214754,37.7401429
49,Интернациональная улица,353907,44.7244058,37.7459726
70,Социалистическая улица,353907,44.7222953,37.7409309
49,Промышленная улица,353907,44.7234477,37.7443435
54,Холмистая улица,353907,44.7240501,37.7441908
50,Ивановская улица,353907,44.7233118,37.7423359
89,Интернациональная улица,353907,44.7207398,37.7410559
58 кА,Социалистическая улица,353907,44.7241822,37.7435684
50,Армавирская улица,353907,44.7241421,37.7457063
53,Промышленная улица,353907,44.7236386,37.7440115
49,Владимирская улица,353907,44.7230895,37.7423413
48,улица Чкалова,353907,44.7253606,37.7442684
56,Индустриальная улица,353907,44.7248265,37.7456016
41,Ивановская улица,353907,44.7231607,37.7432606
53,Интернациональная улица,353907,44.7238858,37.7452853
37,Ивановская улица,353907,44.7229492,37.7436487
62,Социалистическая улица,353907,44.7238476,37.7431003
99,Интернациональная улица,353907,44.7205970,37.7392773
46,Калужская улица,353907,44.7222738,37.7412458
40,Владимирская улица,353907,44.7222992,37.7427694
50,улица Кукеля,353907,44.7206791,37.7397886
49,Холмистая улица,353907,44.7239745,37.7450965
46,Владимирская улица,353907,44.7226123,37.7422698
77,Интернациональная улица,353907,44.7212845,37.7418066
83,Интернациональная улица,353907,44.7215299,37.7402909
100,Интернациональная улица,353907,44.7204472,37.7403460
67,Интернациональная улица,353907,44.7221569,37.7429902
39,Интернациональная улица,353907,44.7248931,37.7467196
60,Армавирская улица,353907,44.7245559,37.7450553
42/1,улица Кукеля,353907,44.7211811,37.7401030
44,Владимирская улица,353907,44.7225131,37.7424233
101,Интернациональная улица,353907,44.7205881,37.7390955
38,Ивановская улица,353907,44.7226900,37.7432795
42,Владимирская улица,353907,44.7224121,37.7425806
48,Владимирская улица,353907,44.7226755,37.7421174
43,Ивановская улица,353907,44.7232441,37.7431026
59 кА,Промышленная улица,353907,44.7239946,37.7436450
55/1,Холмистая улица,353907,44.7243167,37.7448739
45,Ивановская улица,353907,44.7233455,37.7429607
64/1,Социалистическая улица,353907,44.7237791,37.7429086
59/1,Холмистая улица,353907,44.7244836,37.7445216
61,Интернациональная улица,353907,44.7228086,37.7438835
59,Промышленная улица,353907,44.7239531,37.7434601
63,Интернациональная улица,353907,44.7226464,37.7436476
81Б,Интернациональная улица,353907,44.7215945,37.7411275
52,Индустриальная улица,353907,44.7250014,37.7459652
55,Индустриальная улица,353907,44.7248221,37.7449900
60,Социалистическая улица,353907,44.7240396,37.7433086
81А,Интернациональная улица,353907,44.7216130,37.7408980
48,улица Чкалова,353907,44.7252265,37.7441362
7А,Волгоградская улица,353919,44.6878584,37.7606990
62,улица Манченко,353907,44.7239021,37.7534944
26,Верхне-Московская улица,353907,44.7240108,37.7531419
27,Астраханская улица,353907,44.7230155,37.7520430
118,Кутузовская улица,353900,44.7163094,37.7529610
29А,Астраханская улица,353907,44.7228431,37.7519392
29,Астраханская улица,353907,44.7227714,37.7517956
2,Памирская улица,353907,44.7238560,37.7527958
18,Верхне-Московская улица,353907,44.7240002,37.7521206
16,Верхне-Московская улица,353907,44.7240984,37.7522613
18,Верхне-Московская улица,353907,44.7238818,37.7523109
56,улица Манченко,353907,44.7236101,37.7541488
7,Майковский переулок,353907,44.7232376,37.7537267
4,Памирская улица,353907,44.7239351,37.7526465
60,улица Манченко,353907,44.7238280,37.7536929
33,Астраханская улица,353907,44.7225362,37.7515389
58,улица Манченко,353907,44.7237108,37.7540223
20,Верхне-Московская улица,353907,44.7238766,37.7519892
22,Астраханская улица,353907,44.7233358,37.7535392
31А,Астраханская улица,353907,44.7226376,37.7517050
20,Астраханская улица,353907,44.7235162,37.7535656
31,Астраханская улица,353907,44.7227503,37.7514829
7/1,Пролетарская улица,353901,44.7385923,37.7835271
11,Пролетарская улица,353901,44.7388350,37.7819785
5,Пролетарская улица,353901,44.7386255,37.7842689
18,Пироговская улица,353906,44.7411378,37.7704181
15,улица Менжинского,353906,44.7411116,37.7695635
17,улица Менжинского,353906,44.7412608,37.7696226
13,улица Менжинского,353906,44.7411051,37.7693721
20,Пироговская улица,353906,44.7413466,37.7702698
22,Пироговская улица,353906,44.7412626,37.7706261
13А,улица Менжинского,353906,44.7409802,37.7692837
40,улица Шаумяна,353906,44.7418950,37.7704429
24,Пироговская улица,353906,44.7414005,37.7706213
38,улица Шаумяна,353906,44.7416971,37.7707624
31Б,улица Васенко,353906,44.7409086,37.7698665
21,улица Менжинского,353906,44.7415197,37.7702782
12,Пироговская улица,353906,44.7407519,37.7700588
35,улица Васенко,353906,44.7408104,37.7692805
14,Пироговская улица,353906,44.7408533,37.7701929
33,улица Васенко,353906,44.7406553,37.7696086
23,улица Менжинского,353906,44.7418635,37.7702024
16,Пироговская улица,353906,44.7409790,37.7702824
19,улица Менжинского,353906,44.7415415,37.7698734
112,Мефодиевская улица,353900,44.7482058,37.7544009
64Б,Сухумское шоссе,353902,44.7323202,37.8094767
17,улица Сакко и Ванцетти,353901,44.7420267,37.7855747
5,улица Ю. Савичева,353912,44.7441968,37.7309901
10,улица Надежды Онайко,353960,44.7436405,37.7328476
3,Тобольская улица,353912,44.7391804,37.7334781
6,улица Ю. Савичева,353912,44.7440691,37.7303663
5А,Тобольская улица,353912,44.7386141,37.7319935
10/1,улица Надежды Онайко,353960,44.7437243,37.7326978
1 кА,улица Сорокина,353960,44.7430933,37.7310635
5,улица Н. Воронина,353912,44.7440913,37.7301226
5,улица Швыдкова,353960,44.7433366,37.7321891
8,улица Сорокина,353960,44.7435461,37.7314785
4,улица Швыдкова,353960,44.7430663,37.7317958
1А,улица Ю. Савичева,353912,44.7433623,37.7302308
4,улица Сорокина,353960,44.7429012,37.7314816
2,улица В. Арнольди,353960,44.7440748,37.7332782
8А,улица Надежды Онайко,353960,44.7434664,37.7325057
2,улица Надежды Онайко,353960,44.7426754,37.7321400
3,улица Ю. Савичева,353912,44.7435783,37.7305550
9,улица Швыдкова,353960,44.7439535,37.7322016
4,улица Ю. Савичева,353912,44.7438530,37.7301648
5,улица Сорокина,353960,44.7436452,37.7310772
72,Анапское шоссе,353912,44.7394342,37.7337531
10,улица Ю. Савичева,353912,44.7444103,37.7306641
6,улица Сорокина,353960,44.7431721,37.7315022
6 кА,улица Сорокина,353960,44.7433036,37.7314804
7,улица Н. Воронина,353912,44.7441858,37.7301767
8,улица В. Арнольди,353960,44.7444448,37.7324277
7,улица Швыдкова,353960,44.7435333,37.7322121
2,улица Сорокина,353960,44.7428170,37.7314828
1,улица Н. Воронина,353912,44.7436151,37.7296675
3,улица Швыдкова,353960,44.7431722,37.7321534
2 кА,Екатерининская улица,353960,44.7438308,37.7345520
12,улица Швыдкова,353960,44.7438856,37.7317247
9,улица Сорокина,353960,44.7443246,37.7314006
1,Тобольская улица,353912,44.7392555,37.7342638
1,улица Ю. Савичева,353912,44.7432662,37.7305275
4 кА,улица Надежды Онайко,353960,44.7429637,37.7323181
4,улица В. Арнольди,353960,44.7441662,37.7330552
8,улица Надежды Онайко,353960,44.7434035,37.7326493
3,улица Сорокина,353960,44.7432271,37.7309973
2,улица Ю. Савичева,353912,44.7436164,37.7299492
3,улица Н. Воронина,353912,44.7437931,37.7298451
11,улица Швыдкова,353960,44.7441750,37.7322748
1,улица Сорокина,353960,44.7430643,37.7308553
6,улица Швыдкова,353960,44.7432336,37.7317465
10,улица Швыдкова,353960,44.7435762,37.7317327
14,улица Швыдкова,353960,44.7441524,37.7317397
10,улица В. Арнольди,353960,44.7445987,37.7320967
6,улица Надежды Онайко,353960,44.7432273,37.7324914
12,улица Надежды Онайко,353960,44.7437893,37.7330424
5,Тобольская улица,353912,44.7382904,37.7325925
2,улица Швыдкова,353960,44.7426763,37.7316943
10,улица Сорокина,353960,44.7438030,37.7314980
35Б,улица Героев Десантников,353915,44.6886537,37.7819710
16,улица Снайпера Рубахо,353923,44.6958556,37.7808747
49,улица Карамзина,353923,44.6960116,37.7827030
72,улица Козлова,353907,44.7270467,37.7542866
46,Ивановская улица,353907,44.7230704,37.7426184
46/1,Ивановская улица,353907,44.7231315,37.7427314
41А,Анапское шоссе,353907,44.7304914,37.7549373
7,Майковская улица,353900,44.7204960,37.7578165
11А,улица Манченко,353900,44.7221366,37.7594120
25,улица 8-го Марта,353900,44.7214058,37.7583357
63,Кутузовская улица,353900,44.7206485,37.7589555
15,улица 8-го Марта,353900,44.7210923,37.7588959
14,улица Щорса,353900,44.7223087,37.7586027
5,Майковская улица,353900,44.7204308,37.7581234
15Б,Майковская улица,353900,44.7209587,37.7574934
13,улица 8-го Марта,353900,44.7210301,37.7590541
23,улица 8-го Марта,353900,44.7214492,37.7586256
20А,улица Манченко,353900,44.7220406,37.7584437
20,улица Фурманова,353900,44.7224405,37.7591374
11,Майковская улица,353900,44.7207304,37.7576167
21,Майковская улица,353900,44.7209955,37.7568193
19А,улица Манченко,353900,44.7221904,37.7589461
6,улица Фурманова,353900,44.7221650,37.7600988
27,улица 8-го Марта,353900,44.7214649,37.7582414
20,улица Манченко,353900,44.7221312,37.7582439
55,Кутузовская улица,353900,44.7212704,37.7598982
1,Майковская улица,353900,44.7202218,37.7582968
9,Майковская улица,353900,44.7206132,37.7576677
17,улица 8-го Марта,353900,44.7213514,37.7589555
22А,улица Фурманова,353900,44.7225552,37.7593890
13А,улица Манченко,353900,44.7219198,37.7593805
14,улица 8-го Марта,353900,44.7207255,37.7586436
28А,улица Щорса,353900,44.7211145,37.7568389
26,улица 8-го Марта,353900,44.7213223,37.7577400
21,улица 8-го Марта,353900,44.7212656,37.7586137
67,Кутузовская улица,353900,44.7204403,37.7585740
16А,улица Манченко,353900,44.7216947,37.7586237
17,Майковская улица,353900,44.7208694,37.7571552
10,улица Щорса,353900,44.7226651,37.7590184
6,улица Манченко,353900,44.7214251,37.7596126
11А,Майковская улица,353900,44.7207588,37.7577841
19,Майковская улица,353900,44.7208989,37.7569587
19А,улица Манченко,353900,44.7223269,37.7590141
10,улица Манченко,353900,44.7216511,37.7591960
11Б,улица 8-го Марта,353900,44.7209129,37.7591688
13,улица Манченко,353900,44.7219688,37.7592538
14,улица Фурманова,353900,44.7222393,37.7595021
15А,Майковская улица,353900,44.7208983,37.7575487
12,улица 8-го Марта,353900,44.7207376,37.7588681
26,улица Щорса,353900,44.7213024,37.7572206
10А,улица Манченко,353900,44.7215647,37.7593635
11,улица Манченко,353900,44.7220296,37.7595937
20,улица 8-го Марта,353900,44.7210735,37.7582211
22,улица Щорса,353900,44.7217398,37.7577305
63А,Кутузовская улица,353900,44.7205670,37.7588322
17,улица Манченко,353900,44.7221263,37.7590744
9,улица Щорса,353907,44.7224877,37.7583260
24,улица Щорса,353900,44.7215446,37.7574663
12,улица Манченко,353900,44.7216933,37.7590175
12,улица Щорса,353900,44.7225480,37.7588670
15,улица Манченко,353900,44.7220406,37.7591671
11,улица 8-го Марта,353900,44.7208344,37.7593465
30,улица 8-го Марта,353900,44.7214443,37.7574136
18,улица Фурманова,353900,44.7224157,37.7593294
8А,улица Манченко,353900,44.7213363,37.7593507
3,улица Манченко,353900,44.7216166,37.7599942
59,Кутузовская улица,353900,44.7210482,37.7593610
8,улица Фурманова,353900,44.7221227,37.7598625
22,улица 8-го Марта,353900,44.7211380,37.7580732
29,улица 8-го Марта,353900,44.7216432,37.7579498
5,улица Манченко,353900,44.7216976,37.7598786
16,улица Манченко,353900,44.7218010,37.7586892
10,улица Фурманова,353900,44.7222828,37.7598948
14,улица Манченко,353900,44.7218075,37.7588909
8Б,улица Манченко,353900,44.7213647,37.7592274
7,улица Манченко,353900,44.7217875,37.7597121
69А,Кутузовская улица,353900,44.7203106,37.7583784
8,улица Манченко,353900,44.7215163,37.7595522
9,улица Манченко,353900,44.7219307,37.7596704
57А,Кутузовская улица,353900,44.7211298,37.7594196
18,улица 8-го Марта,353900,44.7209998,37.7584387
19,улица 8-го Марта,353900,44.7214082,37.7588339
24,улица 8-го Марта,353900,44.7212553,37.7579227
20А,улица 8-го Марта,353900,44.7210354,37.7583197
18,улица Манченко,353900,44.7219472,37.7585608
16,улица 8-го Марта,353900,44.7208639,37.7585858
59,Кутузовская улица,353900,44.7209576,37.7593499
12,улица Фурманова,353900,44.7223094,37.7597146
28,улица 8-го Марта,353900,44.7213458,37.7575342
57,Кутузовская улица,353900,44.7211339,37.7596551
4/1,улица Манченко,353900,44.7212258,37.7594672
18А,улица 8-го Марта,353900,44.7208681,37.7584013
13,Майковская улица,353900,44.7206985,37.7574342
11А,улица 8-го Марта,353900,44.7208779,37.7592283
17А,улица 8-го Марта,353900,44.7212626,37.7591025
16А,улица Фурманова,353900,44.7223957,37.7596254
29А,улица 8-го Марта,353900,44.7216686,37.7582312
3,Майковская улица,353900,44.7203185,37.7581311
15,Майковская улица,353900,44.7207515,37.7573214
95А,улица Чайковского,353900,44.7167661,37.7555420
6А,2-й Кутузовский переулок,353900,44.7158651,37.7542244
12А,2-й Кутузовский переулок,353900,44.7162137,37.7536613
42,Белорусская улица,353900,44.7185758,37.7572675
105,улица Чайковского,353900,44.7156815,37.7549099
14А,2-й Кутузовский переулок,353900,44.7161634,37.7532071
83,улица Чайковского,353900,44.7180294,37.7568816
87,улица Чайковского,353900,44.7178165,37.7566887
107,улица Чайковского,353900,44.7155638,37.7546906
89,улица Чайковского,353900,44.7177358,37.7565905
79,улица Чайковского,353900,44.7182514,37.7570359
9,2-й Кутузовский переулок,353900,44.7166320,37.7537794
12,Крайний переулок,353900,44.7156052,37.7528305
111,улица Чайковского,353900,44.7153886,37.7545318
91А,улица Чайковского,353900,44.7174166,37.7561860
9,Крайний переулок,353900,44.7153131,37.7539141
19А,Крайний переулок,353900,44.7159259,37.7529898
99,улица Чайковского,353900,44.7162311,37.7554601
14/1,2-й Кутузовский переулок,353900,44.7162205,37.7534149
40,Белорусская улица,353900,44.7183994,37.7573046
4,2-й Кутузовский переулок,353900,44.7158261,37.7545522
13,Крайний переулок,353900,44.7157873,37.7535628
7А,2-й Кутузовский переулок,353900,44.7164654,37.7539663
119А,улица Чайковского,353900,44.7147798,37.7538648
48,Белорусская улица,353900,44.7187069,37.7568225
8,2-й Кутузовский переулок,353900,44.7160712,37.7539997
16А,2-й Кутузовский переулок,353900,44.7164080,37.7532749
12,2-й Кутузовский переулок,353900,44.7160848,37.7535350
2,Крайний переулок,353900,44.7149348,37.7535485
44,Белорусская улица,353900,44.7185013,37.7569806
93,улица Чайковского,353900,44.7167276,37.7557951
6,2-й Кутузовский переулок,353900,44.7159169,37.7541193
103,улица Чайковского,353900,44.7158815,37.7550644
44А,Белорусская улица,353900,44.7186302,37.7571041
85,улица Чайковского,353900,44.7179726,37.7567596
93А,улица Чайковского,353900,44.7170156,37.7559962
89/1,улица Чайковского,353900,44.7178210,37.7564678
109,улица Чайковского,353900,44.7154721,37.7546957
10,Крайний переулок,353900,44.7154642,37.7528944
89,улица Чайковского,353900,44.7176013,37.7564895
9А,Крайний переулок,353900,44.7153896,37.7539570
81,улица Чайковского,353900,44.7181212,37.7569539
95,улица Чайковского,353900,44.7165650,37.7556261
6,Крайний переулок,353900,44.7152357,37.7532883
105А,улица Чайковского,353900,44.7156135,37.7547560
91,улица Чайковского,353900,44.7174431,37.7563335
115,улица Чайковского,353900,44.7149763,37.7541684
7,2-й Кутузовский переулок,353900,44.7164085,37.7541378
97,улица Чайковского,353900,44.7163221,37.7555702
14,2-й Кутузовский переулок,353900,44.7163205,37.7535198
77,улица Чайковского,353900,44.7182654,37.7572196
113,улица Чайковского,353900,44.7152693,37.7545688
4А,2-й Кутузовский переулок,353900,44.7156710,37.7544214
1,2-й Кутузовский переулок,353900,44.7159700,37.7548267
11,2-й Кутузовский переулок,353900,44.7166932,37.7535575
119,улица Чайковского,353900,44.7147064,37.7537114
10,2-й Кутузовский переулок,353900,44.7161630,37.7538849
16,2-й Кутузовский переулок,353900,44.7164537,37.7531665
5А,Крайний переулок,353900,44.7154870,37.7542129
5,2-й Кутузовский переулок,353900,44.7161852,37.7541940
3,2-й Кутузовский переулок,353900,44.7160459,37.7546129
144/1,улица Свободы,353900,44.7111926,37.7582486
17,Беломорская улица,353900,44.7113318,37.7566234
5А,Беломорская улица,353900,44.7108003,37.7572502
106А,Красноармейская улица,353900,44.7121720,37.7565282
104А,Красноармейская улица,353900,44.7125489,37.7571092
14,Ударная улица,353900,44.7120072,37.7569656
133,улица Свободы,353900,44.7116881,37.7579752
16,Ударная улица,353900,44.7121337,37.7568422
131,улица Свободы,353900,44.7120544,37.7585957
10,Ударная улица,353900,44.7117886,37.7571851
12,Херсонская улица,353900,44.7126716,37.7578692
136,улица Свободы,353900,44.7116863,37.7588857
146,улица Свободы,353900,44.7109566,37.7580387
5,Ударная улица,353900,44.7119331,37.7577151
133А,улица Свободы,353900,44.7117719,37.7581163
100А,Красноармейская улица,353900,44.7127732,37.7573982
138,улица Свободы,353900,44.7114797,37.7587104
139,улица Свободы,353900,44.7108266,37.7574877
6,Ударная улица,353900,44.7116202,37.7575068
144А,улица Свободы,353900,44.7111122,37.7582736
19,Беломорская улица,353900,44.7114795,37.7563947
7,Беломорская улица,353900,44.7109116,37.7571226
21,Беломорская улица,353900,44.7116397,37.7563285
1А,Ударная улица,353900,44.7117897,37.7578776
132Б,улица Свободы,353900,44.7116702,37.7592738
140,улица Свободы,353900,44.7113747,37.7586134
137А,улица Свободы,353900,44.7109449,37.7575460
8,Херсонская улица,353900,44.7124346,37.7580902
13,Беломорская улица,353900,44.7111510,37.7567909
106,Красноармейская улица,353900,44.7122179,37.7566599
112,Красноармейская улица,353900,44.7117269,37.7560344
142,улица Свободы,353900,44.7112614,37.7584546
15,Беломорская улица,353900,44.7112410,37.7567436
5,Беломорская улица,353900,44.7107216,37.7573526
110,Красноармейская улица,353900,44.7119542,37.7562787
4,Херсонская улица,353900,44.7121942,37.7583389
104,Красноармейская улица,353900,44.7124325,37.7569248
12,Ударная улица,353900,44.7119535,37.7570966
108,Красноармейская улица,353900,44.7120767,37.7564967
102,Красноармейская улица,353900,44.7126457,37.7572053
8,Ударная улица,353900,44.7117239,37.7573916
134,улица Свободы,353900,44.7118127,37.7590592
144,улица Свободы,353900,44.7108288,37.7584309
133Б,улица Свободы,353900,44.7118878,37.7581459
138А,улица Свободы,353900,44.7115788,37.7587202
137,улица Свободы,353900,44.7111013,37.7574796
7,Ударная улица,353900,44.7119789,37.7575442
4,Ударная улица,353900,44.7115207,37.7576725
148,улица Свободы,353900,44.7107963,37.7578957
1,Ударная улица,353900,44.7117342,37.7577991
2,Херсонская улица,353900,44.7121324,37.7585417
11,Ударная улица,353900,44.7122447,37.7572600
150,улица Свободы,353900,44.7106684,37.7577391
135,улица Свободы,353900,44.7114166,37.7578050
9,Беломорская улица,353900,44.7110151,37.7570382
100,Красноармейская улица,353900,44.7127064,37.7572988
23,Беломорская улица,353900,44.7117398,37.7563442
3,Ударная улица,353900,44.7118260,37.7577685
132А,улица Свободы,353900,44.7117127,37.7594720
142/1,улица Свободы,353900,44.7113275,37.7582685
98А,Красноармейская улица,353900,44.7127853,37.7575080
6,Херсонская улица,353900,44.7123029,37.7582793
13,Ударная улица,353900,44.7123508,37.7570327
110А,Красноармейская улица,353900,44.7118835,37.7561611
9,Ударная улица,353900,44.7121533,37.7573808
12Б,Херсонская улица,353900,44.7127426,37.7576239
98,Красноармейская улица,353900,44.7129247,37.7575722
12А,Херсонская улица,353900,44.7127242,37.7577778
10,Херсонская улица,353900,44.7125535,37.7579859
4,Беломорская улица,353900,44.7101276,37.7577821
1Б,Харьковская улица,353900,44.7068755,37.7531873
89,Павловская улица,353900,44.7105469,37.7584775
1А,Беломорская улица,353900,44.7104443,37.7580069
3А,Беломорская улица,353900,44.7101622,37.7582709
1,Беломорская улица,353900,44.7102550,37.7579123
39,улица Сокольского,353900,44.7024281,37.7565546
83,Ноябрьская улица,353900,44.7024113,37.7567718
61,Социалистическая улица,353907,44.7224358,37.7405213
43,улица Белинского,353900,44.7101906,37.7678458
138Е,улица Фисанова,353900,44.7066358,37.7630384
117А,улица Фисанова,353900,44.7091139,37.7615082
92,улица Рубина,353900,44.7104411,37.7612669
21,улица Красных Военморов,353900,44.7099617,37.7676374
57,Октябрьская улица,353900,44.7101509,37.7616350
59А,улица Красных Военморов,353900,44.7050821,37.7638364
64А,улица Фисанова,353900,44.7112622,37.7662478
8,Сергиевский переулок,353900,44.7101265,37.7668548
62,улица Красных Военморов,353900,44.7085218,37.7673109
23,улица Красных Военморов,353900,44.7092507,37.7672552
53,Октябрьская улица,353900,44.7105414,37.7617664
47А,улица Красных Военморов,353900,44.7066925,37.7649955
100,Октябрьская улица,353900,44.7099090,37.7620558
25,улица Красных Военморов,353900,44.7091305,37.7671457
21,Смоленская улица,353900,44.7100348,37.7636363
51,улица Красных Военморов,353900,44.7063585,37.7648571
88,улица Красных Военморов,353900,44.7052259,37.7644409
78,улица Красных Военморов,353900,44.7058430,37.7649083
57А,Октябрьская улица,353900,44.7102344,37.7617314
52А,улица Красных Военморов,353900,44.7094199,37.7680057
90,улица Красных Военморов,353900,44.7049754,37.7641713
66/1,улица Фисанова,353900,44.7109983,37.7663973
84,улица Новороссийской Республики,353900,44.7104911,37.7671307
97,улица Новороссийской Республики,353900,44.7104834,37.7663350
43,улица Красных Военморов,353900,44.7073065,37.7657223
110,Октябрьская улица,353900,44.7094927,37.7612924
15,Сергиевский переулок,353900,44.7095762,37.7671623
47,Октябрьская улица,353900,44.7106296,37.7624170
45,улица Красных Военморов,353900,44.7069443,37.7652235
106,Октябрьская улица,353900,44.7096212,37.7616097
1,Сергиевский переулок,353900,44.7105198,37.7656364
15,Смоленская улица,353900,44.7103468,37.7631955
131,улица Грибоедова,353900,44.7062296,37.7655101
72А,улица Фисанова,353900,44.7108916,37.7657969
113,улица Фисанова,353900,44.7090315,37.7620522
96,улица Фисанова,353900,44.7094240,37.7635753
37,улица Белинского,353900,44.7104951,37.7674990
93,улица Новороссийской Республики,353900,44.7108007,37.7668168
5,Сергиевский переулок,353900,44.7099741,37.7666835
68А,улица Красных Военморов,353900,44.7069336,37.7658524
75А,Октябрьская улица,353900,44.7094606,37.7603747
58,улица Красных Военморов,353900,44.7090643,37.7677448
114,Октябрьская улица,353900,44.7092091,37.7610090
9,Сергиевский переулок,353900,44.7098005,37.7669100
92,Октябрьская улица,353900,44.7102120,37.7626553
60,улица Красных Военморов,353900,44.7088601,37.7675157
4,Октябрьский переулок,353900,44.7085957,37.7609565
13,Смоленская улица,353900,44.7105775,37.7629958
72,улица Красных Военморов,353900,44.7064415,37.7653613
33,улица Красных Военморов,353900,44.7082095,37.7665080
23,Смоленская улица,353900,44.7097982,37.7640009
14,Сергиевский переулок,353900,44.7097761,37.7672878
55,улица Красных Военморов,353900,44.7057689,37.7643030
121А,улица Фисанова,353900,44.7087783,37.7613892
107,улица Фисанова,353900,44.7092887,37.7624558
66,улица Красных Военморов,353900,44.7081469,37.7668875
39,улица Белинского,353900,44.7102363,37.7674243
67,Октябрьская улица,353900,44.7097114,37.7609298
29,улица Белинского,353900,44.7110293,37.7667706
120,Октябрьская улица,353900,44.7090179,37.7605001
66А,улица Красных Военморов,353900,44.7077115,37.7663998
29,улица Красных Военморов,353900,44.7085069,37.7667577
138М,улица Фисанова,353900,44.7064130,37.7640130
117,улица Фисанова,353900,44.7089598,37.7616021
23,улица Красных Военморов,353900,44.7097811,37.7676465
59,Октябрьская улица,353900,44.7100552,37.7615581
64,улица Фисанова,353900,44.7111565,37.7664768
102А,Октябрьская улица,353900,44.7095537,37.7622555
88,улица Новороссийской Республики,353900,44.7102528,37.7668128
63,Октябрьская улица,353900,44.7098479,37.7612953
51А,Октябрьская улица,353900,44.7105696,37.7620263
49А,улица Красных Военморов,353900,44.7065811,37.7650164
27Е,улица Красных Военморов,353900,44.7089963,37.7666875
95,улица Фисанова,353900,44.7098824,37.7634080
53А,улица Красных Военморов,353900,44.7062047,37.7647142
70,улица Фисанова,353900,44.7109641,37.7658537
99,улица Фисанова,353900,44.7097190,37.7632244
80,улица Красных Военморов,353900,44.7057564,37.7648117
100,улица Фисанова,353900,44.7092710,37.7632363
19,улица Красных Военморов,353900,44.7100314,37.7679773
59А,Октябрьская улица,353900,44.7101207,37.7613635
61,улица Красных Военморов,353900,44.7048489,37.7637134
66,улица Фисанова,353900,44.7111516,37.7661533
55А,улица Красных Военморов,353900,44.7059691,37.7639202
86,улица Новороссийской Республики,353900,44.7103235,37.7669255
11,Смоленская улица,353900,44.7108363,37.7626141
4,Сергиевский переулок,353900,44.7106194,37.7661157
15А,Сергиевский переулок,353900,44.7094842,37.7673041
47,улица Красных Военморов,353900,44.7068538,37.7651381
104,Октябрьская улица,353900,44.7097233,37.7617141
70,улица Новороссийской Республики,353900,44.7117688,37.7689657
74,улица Фисанова,353900,44.7106973,37.7654050
17,Смоленская улица,353900,44.7102618,37.7633316
92,улица Фисанова,353900,44.7096116,37.7637006
15,улица Красных Военморов,353900,44.7105794,37.7683609
84,улица Красных Военморов,353900,44.7055182,37.7646353
72,улица Фисанова,353900,44.7108404,37.7657083
115,улица Фисанова,353900,44.7089402,37.7618629
35,улица Белинского,353900,44.7105415,37.7673910
55,Октябрьская улица,353900,44.7103121,37.7618320
54,улица Красных Военморов,353900,44.7093534,37.7678253
93А,улица Новороссийской Республики,353900,44.7106273,37.7667261
75,Октябрьская улица,353900,44.7093103,37.7604741
11,Сергиевский переулок,353900,44.7096872,37.7669194
90,Октябрьская улица,353900,44.7103551,37.7626884
108,Октябрьская улица,353900,44.7096003,37.7614657
11,улица Красных Военморов,353900,44.7110273,37.7685764
125,улица Фисанова,353900,44.7084691,37.7611638
76,улица Красных Военморов,353900,44.7061274,37.7652013
35,улица Красных Военморов,353900,44.7080977,37.7664028
121,улица Фисанова,353900,44.7086562,37.7614499
109,улица Фисанова,353900,44.7092416,37.7623249
66Б,улица Красных Военморов,353900,44.7079460,37.7667615
69А,Октябрьская улица,353900,44.7097011,37.7607725
31,улица Белинского,353900,44.7109975,37.7669783
66В,улица Красных Военморов,353900,44.7074000,37.7662561
71,Октябрьская улица,353900,44.7095235,37.7606798
56,улица Красных Военморов,353900,44.7091135,37.7679390
94,Октябрьская улица,353900,44.7102136,37.7624218
37,улица Красных Военморов,353900,44.7078619,37.7661203
25А,улица Красных Военморов,353900,44.7097253,37.7675099
61,Октябрьская улица,353900,44.7099390,37.7614475
63,улица Красных Военморов,353900,44.7048346,37.7632569
25,улица Белинского,353900,44.7112896,37.7666197
103,улица Фисанова,353900,44.7095100,37.7628341
64,улица Красных Военморов,353900,44.7083694,37.7671469
65,Октябрьская улица,353900,44.7097738,37.7612077
51,Октябрьская улица,353900,44.7104456,37.7621312
49,улица Красных Военморов,353900,44.7065895,37.7648272
27Г,улица Красных Военморов,353900,44.7089786,37.7669430
98,Октябрьская улица,353900,44.7100432,37.7622073
39,улица Красных Военморов,353900,44.7077077,37.7659860
41,улица Белинского,353900,44.7103009,37.7677015
98А,Октябрьская улица,353900,44.7098449,37.7624353
59,улица Красных Военморов,353900,44.7051802,37.7639521
62,улица Фисанова,353900,44.7113295,37.7664109
55Д,улица Красных Военморов,353900,44.7058668,37.7640415
10,Сергиевский переулок,353900,44.7100768,37.7669312
2,Сергиевский переулок,353900,44.7106968,37.7659586
49,Октябрьская улица,353900,44.7105366,37.7622669
102,Октябрьская улица,353900,44.7097861,37.7619438
19,Смоленская улица,353900,44.7101631,37.7634349
94,улица Фисанова,353900,44.7095338,37.7635713
26,улица Белинского,353900,44.7103327,37.7680977
86,улица Красных Военморов,353900,44.7053547,37.7645155
97,улица Фисанова,353900,44.7098445,37.7632361
76А,улица Красных Военморов,353900,44.7059955,37.7650342
98,улица Фисанова,353900,44.7094044,37.7633986
82,улица Новороссийской Республики,353900,44.7106159,37.7673353
55А,Октябрьская улица,353900,44.7103695,37.7615634
68,улица Фисанова,353900,44.7110818,37.7659905
68Б,улица Красных Военморов,353900,44.7067356,37.7657590
95,улица Новороссийской Республики,353900,44.7104952,37.7665420
77,Октябрьская улица,353900,44.7092253,37.7603523
41,улица Красных Военморов,353900,44.7074542,37.7658439
112,Октябрьская улица,353900,44.7093882,37.7611139
13,Сергиевский переулок,353900,44.7095752,37.7669793
45,Октябрьская улица,353900,44.7106998,37.7625647
99,улица Новороссийской Республики,353900,44.7102067,37.7660395
88,Октябрьская улица,353900,44.7104308,37.7628368
45А,улица Красных Военморов,353900,44.7069898,37.7654129
123,улица Фисанова,353900,44.7086069,37.7613143
57,улица Красных Военморов,353900,44.7055067,37.7643030
119,улица Фисанова,353900,44.7087843,37.7615981
111,улица Фисанова,353900,44.7091419,37.7621870
39А,улица Белинского,353900,44.7102899,37.7672306
69,Октябрьская улица,353900,44.7095820,37.7608962
91,улица Новороссийской Республики,353900,44.7108875,37.7671402
90,улица Новороссийской Республики,353900,44.7100040,37.7663824
68,улица Красных Военморов,353900,44.7070873,37.7660149
73,Октябрьская улица,353900,44.7094018,37.7606002
116,Октябрьская улица,353900,44.7091817,37.7608764
27Е,улица Красных Военморов,353900,44.7086877,37.7669582
4,улица Красина,353900,44.7088221,37.7677347
101А,улица Фисанова,353900,44.7096371,37.7629776
31,улица Красных Военморов,353900,44.7083440,37.7665035
25,улица Красных Военморов,353900,44.7096097,37.7674929
63А,улица Красных Военморов,353900,44.7048880,37.7630205
27,улица Белинского,353900,44.7111560,37.7666993
105,улица Фисанова,353900,44.7094192,37.7626299
66В,улица Красных Военморов,353900,44.7080351,37.7670275
12,Сергиевский переулок,353900,44.7099456,37.7671109
67А,Октябрьская улица,353900,44.7097962,37.7609998
29/1,улица Белинского,353900,44.7111010,37.7668637
55А,Октябрьская улица,353900,44.7103037,37.7620154
66/1,улица Красных Военморов,353900,44.7077049,37.7666218
118,Октябрьская улица,353900,44.7091079,37.7607074
27Д,улица Красных Военморов,353900,44.7088217,37.7670479
96,Октябрьская улица,353900,44.7099750,37.7625545
1А,Сергиевский переулок,353900,44.7104049,37.7658057
90,улица Фисанова,353900,44.7096741,37.7638375
76,улица Фисанова,353900,44.7105903,37.7652628
36,улица Вити Чаленко,353923,44.6947919,37.7793070
42,улица Снайпера Рубахо,353923,44.6952223,37.7807066
42,улица Снайпера Рубахо,353923,44.6954645,37.7800587
76,улица Леселидзе,353923,44.6979841,37.7734880
36А,Фабричная улица,353923,44.6984768,37.7764411
47А,улица Раевского,353923,44.6979920,37.7753605
23,улица Раевского,353923,44.6998108,37.7746445
126,улица Дзержинского,353915,44.6972615,37.7794600
145,улица Дзержинского,353915,44.6972423,37.7788661
76,улица Леженина,353905,44.7037619,37.7804800
53,улица Снайпера Рубахо,353915,44.6954460,37.7758148
78,улица Леженина,353905,44.7037103,37.7808832
7,Физкультурная улица,353915,44.7005676,37.7696490
60,улица Прохорова,353915,44.7004945,37.7693654
15,улица Вити Чаленко,353915,44.6968130,37.7779549
52,Физкультурная улица,353923,44.6975881,37.7725276
109,улица Сулеймана Стальского,353923,44.6989920,37.7738418
58,улица Снайпера Рубахо,353923,44.6955480,37.7781453
181,улица Дзержинского,353923,44.6939875,37.7798858
38,улица Раевского,353923,44.6989553,37.7754652
121,улица Сулеймана Стальского,353923,44.6982120,37.7740958
83,улица Дзержинского,353905,44.7026154,37.7769859
46,улица Рыжова,353915,44.6980789,37.7791798
21,Фабричная улица,353923,44.7000662,37.7755264
20А,Фабричная улица,353923,44.7001578,37.7760242
27А,улица Раевского,353923,44.6993904,37.7747749
10,улица Вити Чаленко,353915,44.6973391,37.7784035
39А,Фабричная улица,353923,44.6986648,37.7761185
16,Таганрогская улица,353915,44.6990927,37.7696009
52,улица Исаева,353905,44.7044732,37.7815647
54,улица Рыжова,353915,44.6978344,37.7772154
65,улица Раевского,353915,44.6964550,37.7758958
79,улица Корницкого,353905,44.7018921,37.7797230
80А,Прямая улица,353923,44.6938467,37.7784242
60,улица Раевского,353915,44.6969334,37.7761989
56,Прямая улица,353915,44.6959716,37.7777317
67,улица Леселидзе,353923,44.6983067,37.7729291
50,улица Снайпера Рубахо,353923,44.6955966,37.7789209
79,улица Леженина,353905,44.7026654,37.7811759
118,улица Сулеймана Стальского,353923,44.6982962,37.7745385
80,улица Леселидзе,353923,44.6976921,37.7736341
189,улица Дзержинского,353923,44.6933877,37.7801750
185,улица Дзержинского,353923,44.6937238,37.7800816
64,улица Леселидзе,353923,44.6987182,37.7732261
36,Фабричная улица,353923,44.6983925,37.7765103
43А,улица Раевского,353923,44.6982119,37.7750350
128,улица Дзержинского,353915,44.6970786,37.7794902
141,улица Дзержинского,353915,44.6976176,37.7789530
78/1,улица Леженина,353905,44.7037609,37.7809522
137,улица Дзержинского,353915,44.6979035,37.7788403
15,Физкультурная улица,353915,44.7001290,37.7704547
11,улица Вити Чаленко,353915,44.6971428,37.7780506
45,улица Снайпера Рубахо,353915,44.6955985,37.7768799
60,Прямая улица,353923,44.6954647,37.7778802
89,улица Дзержинского,353905,44.7020305,37.7773971
40,улица Раевского,353923,44.6988030,37.7754918
80,улица Леженина,353905,44.7033375,37.7810029
42А,улица Вити Чаленко,353923,44.6943754,37.7795208
29,улица Раевского,353923,44.6992946,37.7748117
52А,улица Вити Чаленко,353923,44.6935466,37.7795547
54,улица Исаева,353905,44.7043404,37.7814259
69,улица Раевского,353915,44.6961717,37.7760152
67,Фабричная улица,353915,44.6963552,37.7768684
71,улица Леселидзе,353923,44.6980520,37.7730077
32,улица Вити Чаленко,353923,44.6953245,37.7791872
77А,улица Леженина,353905,44.7027944,37.7810522
77,улица Дзержинского,353905,44.7029546,37.7766556
52,улица Раевского,353915,44.6975947,37.7759331
57,улица Вити Чаленко,353923,44.6932764,37.7791213
68,улица Свердлова,353905,44.7027350,37.7804510
126,улица Сулеймана Стальского,353923,44.6977314,37.7747801
86,Запорожская улица,353915,44.6991128,37.7709632
97,улица Дзержинского,353905,44.7012918,37.7777208
26,улица Раевского,353923,44.6998406,37.7750801
66А,улица Леселидзе,353923,44.6986366,37.7734205
84,улица Корницкого,353923,44.6996997,37.7743210
132,улица Дзержинского,353915,44.6968275,37.7796089
31,улица Вити Чаленко,353923,44.6954059,37.7785831
139,улица Дзержинского,353915,44.6977694,37.7789029
65А,улица Свердлова,353905,44.7035626,37.7812591
78,улица Раевского,353915,44.6956244,37.7765517
63,улица Свердлова,353905,44.7036662,37.7815061
38,Физкультурная улица,353923,44.6987452,37.7721462
20,улица Вити Чаленко,353915,44.6967208,37.7786038
46,Прямая улица,353915,44.6967994,37.7774871
110,улица Сулеймана Стальского,353923,44.6988386,37.7743455
42,улица Раевского,353923,44.6986224,37.7755758
127,улица Сулеймана Стальского,353923,44.6977983,37.7742837
24,Фабричная улица,353923,44.6995730,37.7761318
33,улица Раевского,353923,44.6990072,37.7749465
56,улица Вити Чаленко,353923,44.6933191,37.7795661
161,улица Дзержинского,353915,44.6959486,37.7793750
91,улица Корницкого,353905,44.7017643,37.7788209
155,улица Дзержинского,353915,44.6964265,37.7792984
87,Запорожская улица,353915,44.6990576,37.7705292
75,улица Корницкого,353905,44.7019811,37.7799488
13,Физкультурная улица,353915,44.7003528,37.7701655
21,улица Вити Чаленко,353915,44.6964062,37.7782833
70,улица Раевского,353915,44.6962247,37.7764088
75,улица Дзержинского,353905,44.7030423,37.7765360
51,Фабричная улица,353915,44.6974512,37.7765171
51,улица Вити Чаленко,353923,44.6938435,37.7790364
72,улица Свердлова,353905,44.7025874,37.7799046
88,Запорожская улица,353915,44.6989975,37.7708697
28,улица Раевского,353923,44.6997438,37.7752075
70,улица Леселидзе,353923,44.6983439,37.7733417
51,улица Снайпера Рубахо,353915,44.6954492,37.7759577
38,улица Вити Чаленко,353923,44.6946661,37.7793262
52Б,Физкультурная улица,353923,44.6976343,37.7727445
2А,улица Вити Чаленко,353915,44.6979145,37.7783151
6,Таганрогская улица,353915,44.6998144,37.7701785
66,улица Прохорова,353915,44.7000297,37.7692622
57,улица Раевского,353915,44.6970301,37.7756763
183,улица Дзержинского,353923,44.6938380,37.7798881
45,улица Вити Чаленко,353923,44.6942464,37.7789531
24,улица Вити Чаленко,353915,44.6962857,37.7786650
67,улица Корницкого,353905,44.7022469,37.7806752
19,Фабричная улица,353923,44.7002338,37.7756038
112,улица Сулеймана Стальского,353923,44.6987208,37.7743941
46А,улица Раевского,353923,44.6981229,37.7757061
8,улица Вити Чаленко,353915,44.6974888,37.7783608
39,Фабричная улица,353923,44.6987517,37.7760419
173,улица Дзержинского,353923,44.6946571,37.7797961
63,улица Раевского,353915,44.6966031,37.7758554
122А,улица Дзержинского,353915,44.6977005,37.7793527
151,улица Дзержинского,353915,44.6967909,37.7791430
83,Запорожская улица,353915,44.6993031,37.7707068
9,Физкультурная улица,353915,44.7005616,37.7698507
19А,улица Вити Чаленко,353915,44.6964580,37.7780948
82,улица Леселидзе,353923,44.6975796,37.7736723
72,улица Раевского,353915,44.6960845,37.7764538
73,Фабричная улица,353915,44.6959096,37.7769325
68,Прямая улица,353923,44.6948539,37.7780733
103,улица Сулеймана Стальского,353923,44.6993378,37.7735385
86,Прямая улица,353923,44.6934535,37.7787533
90,Запорожская улица,353915,44.6988595,37.7707772
45,улица Раевского,353923,44.6980957,37.7753295
30,улица Раевского,353923,44.6995464,37.7751950
34,улица Раевского,353923,44.6992836,37.7753099
74,улица Леселидзе,353923,44.6980878,37.7734595
50/1,Физкультурная улица,353923,44.6977280,37.7725672
44,улица Вити Чаленко,353923,44.6941644,37.7793151
8,Таганрогская улица,353915,44.6996958,37.7701105
87,улица Леселидзе,353915,44.6968308,37.7735222
54,улица Снайпера Рубахо,353923,44.6954999,37.7779963
59,улица Свердлова,353905,44.7038376,37.7817788
3,улица Вити Чаленко,353915,44.6977334,37.7778694
89,улица Корницкого,353905,44.7018028,37.7790425
26,улица Вити Чаленко,353915,44.6961397,37.7786996
58А,улица Раевского,353915,44.6970664,37.7762762
39/1,улица Раевского,353923,44.6984108,37.7747845
49А,улица Рыжова,353923,44.6979899,37.7760258
140,улица Дзержинского,353915,44.6961441,37.7798568
12,улица Вити Чаленко,353915,44.6972265,37.7783335
29А,улица Раевского,353923,44.6992082,37.7747573
41,Фабричная улица,353923,44.6985836,37.7761112
34,Прямая улица,353915,44.6977328,37.7772353
67,улица Раевского,353915,44.6962989,37.7759481
69,улица Леселидзе,353923,44.6981784,37.7729606
32/1,улица Вити Чаленко,353923,44.6954025,37.7790116
77,улица Леженина,353905,44.7027647,37.7811634
58,улица Рыжова,353915,44.6976167,37.7761643
66,улица Свердлова,353905,44.7029278,37.7807986
17,улица Вити Чаленко,353915,44.6966674,37.7782164
78,улица Леселидзе,353923,44.6978560,37.7735244
46,Физкультурная улица,353923,44.6981406,37.7723483
70,Прямая улица,353923,44.6946736,37.7781212
55,улица Вити Чаленко,353923,44.6934834,37.7788859
38,Фабричная улица,353923,44.6982579,37.7765531
41,улица Раевского,353923,44.6983256,37.7751624
130,улица Дзержинского,353915,44.6969505,37.7795516
135,улица Дзержинского,353915,44.6980444,37.7787857
27,Фабричная улица,353923,44.6996265,37.7757790
53,улица Раевского,353915,44.6973037,37.7756123
44,Прямая улица,353915,44.6969711,37.7774651
91,улица Дзержинского,353905,44.7018655,37.7775151
96,улица Свердлова,353905,44.7021201,37.7772367
35,улица Снайпера Рубахо,353915,44.6959019,37.7789574
125,улица Сулеймана Стальского,353923,44.6979502,37.7742226
27,улица Вити Чаленко,353915,44.6959203,37.7784329
129,улица Сулеймана Стальского,353923,44.6976711,37.7743308
58,улица Раевского,353915,44.6971146,37.7761076
23,Фабричная улица,353923,44.6999438,37.7754469
31,улица Раевского,353923,44.6991831,37.7749163
45,Фабричная улица,353923,44.6982370,37.7762423
60,улица Леселидзе,353923,44.6989925,37.7731893
36,Прямая улица,353915,44.6976077,37.7772449
73,улица Раевского,353915,44.6958754,37.7761263
70А,улица Раевского,353915,44.6962337,37.7765760
37,улица Вити Чаленко,353923,44.6949227,37.7787593
73,улица Леселидзе,353923,44.6978821,37.7730140
32А,улица Вити Чаленко,353923,44.6952168,37.7792036
79,улица Леселидзе,353923,44.6974949,37.7732156
54,улица Раевского,353915,44.6973790,37.7760170
70,улица Свердлова,353905,44.7026913,37.7801173
68,улица Леселидзе,353923,44.6985046,37.7732886
100,улица Сулеймана Стальского,353923,44.6994983,37.7740782
9,Таганрогская улица,353915,44.6997475,37.7697335
136,улица Дзержинского,353915,44.6965010,37.7796766
2,улица Вити Чаленко,353915,44.6979590,37.7781193
31,Фабричная улица,353923,44.6994056,37.7758733
4,Таганрогская улица,353915,44.6998969,37.7702803
64,улица Прохорова,353915,44.7002489,37.7691706
9,улица Вити Чаленко,353915,44.6972663,37.7780204
61,улица Свердлова,353905,44.7037133,37.7816002
50,Физкультурная улица,353923,44.6978867,37.7724226
50,улица Вити Чаленко,353923,44.6938095,37.7794151
43,улица Вити Чаленко,353923,44.6943824,37.7789035
96,улица Корницкого,353923,44.6988226,37.7723560
48,Прямая улица,353915,44.6966422,37.7775314
61,улица Леселидзе,353923,44.6987001,37.7728077
46,улица Раевского,353923,44.6982637,37.7757047
25,улица Вити Чаленко,353915,44.6960554,37.7783843
129/1,улица Сулеймана Стальского,353923,44.6976109,37.7742439
175/1,улица Дзержинского,353923,44.6945235,37.7796418
122,улица Сулеймана Стальского,353923,44.6980418,37.7748419
26,Фабричная улица,353923,44.6994066,37.7761354
84,Запорожская улица,353915,44.6992519,37.7710768
47,Фабричная улица,353923,44.6979570,37.7763145
120,улица Дзержинского,353915,44.6979169,37.7794224
38,Прямая улица,353915,44.6973606,37.7772824
153,улица Дзержинского,353915,44.6965826,37.7792431
73,улица Корницкого,353905,44.7020426,37.7801589
11,Физкультурная улица,353915,44.7004084,37.7699430
21А,улица Вити Чаленко,353915,44.6964663,37.7782804
75,улица Леселидзе,353923,44.6977553,37.7731110
71,Фабричная улица,353915,44.6960583,37.7769605
66,Прямая улица,353923,44.6950082,37.7780255
53,Фабричная улица,353915,44.6973193,37.7765289
40,Физкультурная улица,353923,44.6985216,37.7722226
72,улица Леселидзе,353923,44.6982302,37.7733911
16,улица Вити Чаленко,353915,44.6969501,37.7784470
104,улица Сулеймана Стальского,353923,44.6992386,37.7741725
7,Таганрогская улица,353915,44.6998789,37.7698184
108,улица Сулеймана Стальского,353923,44.6989820,37.7742837
4,улица Вити Чаленко,353915,44.6977820,37.7782046
31А,Фабричная улица,353923,44.6993218,37.7759374
85,улица Леселидзе,353915,44.6969745,37.7734039
7,улица Вити Чаленко,353915,44.6974570,37.7779836
57,улица Свердлова,353905,44.7039001,37.7818583
59,улица Раевского,353915,44.6968954,37.7757545
87,улица Корницкого,353905,44.7017268,37.7792278
47,улица Вити Чаленко,353923,44.6941033,37.7790366
59,улица Леселидзе,353923,44.6988333,37.7727577
56,улица Раевского,353915,44.6972528,37.7761178
165/1,улица Дзержинского,353923,44.6952989,37.7795960
50,Прямая улица,353915,44.6964789,37.7775910
63,улица Корницкого,353905,44.7023528,37.7809845
44,улица Раевского,353923,44.6983857,37.7756405
48,улица Раевского,353923,44.6980929,37.7759213
113,улица Сулеймана Стальского,353923,44.6987292,37.7739235
28,Фабричная улица,353923,44.6991794,37.7763108
37,улица Раевского,353923,44.6987010,37.7750879
122,улица Дзержинского,353915,44.6976147,37.7793693
42,Прямая улица,353915,44.6971323,37.7773840
149,улица Дзержинского,353915,44.6969731,37.7790943
77,улица Раевского,353915,44.6954979,37.7762707
71,улица Корницкого,353905,44.7022406,37.7801860
5,Физкультурная улица,353915,44.7007884,37.7695919
19,улица Вити Чаленко,353915,44.6965423,37.7780661
69,Фабричная улица,353915,44.6961206,37.7768647
77,улица Леселидзе,353923,44.6974182,37.7728194
84,Прямая улица,353923,44.6935849,37.7784858
105,улица Сулеймана Стальского,353923,44.6992266,37.7736446
86А,Прямая улица,353923,44.6933873,37.7786410
92,Запорожская улица,353915,44.6987750,37.7706972
34А,улица Раевского,353923,44.6991826,37.7753400
21А,Фабричная улица,353923,44.7000265,37.7753673
82,улица Корницкого,353923,44.7004285,37.7760868
50А,Физкультурная улица,353923,44.6978094,37.7724214
46,улица Вити Чаленко,353923,44.6941077,37.7794668
10,Таганрогская улица,353915,44.6995841,37.7700150
72,улица Прохорова,353915,44.6997670,37.7688869
87,улица Леселидзе,353915,44.6968010,37.7733199
14,Таганрогская улица,353915,44.6993526,37.7698049
5,улица Вити Чаленко,353915,44.6975993,37.7779224
48А,улица Исаева,353905,44.7047077,37.7818172
3А,улица Вити Чаленко,353915,44.6977967,37.7777509
59А,улица Раевского,353915,44.6968272,37.7757780
47А,улица Вити Чаленко,353923,44.6941056,37.7787381
35,улица Снайпера Рубахо,353915,44.6959402,37.7790693
76,Прямая улица,353923,44.6941493,37.7782940
39,улица Снайпера Рубахо,353915,44.6958056,37.7782900
58,Прямая улица,353915,44.6957642,37.7778201
63,улица Леселидзе,353923,44.6985382,37.7728195
81,улица Леженина,353905,44.7025064,37.7814641
50,улица Раевского,353923,44.6978852,37.7758336
142,улица Дзержинского,353915,44.6960434,37.7798485
41А,Фабричная улица,353923,44.6985249,37.7761723
169,улица Дзержинского,353923,44.6949810,37.7796036
58,улица Леселидзе,353923,44.6991218,37.7730721
30,Фабричная улица,353923,44.6990375,37.7763734
34,Фабричная улица,353923,44.6986323,37.7764566
49,улица Раевского,353923,44.6978198,37.7754171
15,Таганрогская улица,353915,44.6992488,37.7693401
39,улица Вити Чаленко,353923,44.6947923,37.7787641
147,улица Дзержинского,353915,44.6970957,37.7789861
58,улица Прохорова,353915,44.7006095,37.7694642
19А,Физкультурная улица,353915,44.6998345,37.7708975
17А,улица Вити Чаленко,353915,44.6965946,37.7782465
76,улица Раевского,353915,44.6957814,37.7765407
44,Физкультурная улица,353923,44.6982446,37.7723203
72А,Прямая улица,353923,44.6945114,37.7782883
107,улица Сулеймана Стальского,353923,44.6991308,37.7737718
29,улица Вити Чаленко,353923,44.6955769,37.7784820
94,Запорожская улица,353915,44.6986758,37.7705826
39,улица Раевского,353923,44.6984799,37.7749399
36,улица Раевского,353923,44.6990480,37.7753953
20,Фабричная улица,353923,44.7002919,37.7759757
27,улица Раевского,353923,44.6994899,37.7747852
48,улица Вити Чаленко,353923,44.6939542,37.7793997
51,улица Раевского,353915,44.6974675,37.7755577
50,улица Исаева,353905,44.7045040,37.7817153
52,улица Рыжова,353915,44.6978317,37.7774135
74,Прямая улица,353923,44.6943009,37.7782373
22,улица Коммунаров,353915,44.6989013,37.7699200
79А,улица Корницкого,353905,44.7019622,37.7795940
28,улица Вити Чаленко,353915,44.6959475,37.7787828
80,Прямая улица,353923,44.6939359,37.7785045
25А,улица Вити Чаленко,353915,44.6959889,37.7782362
62,Прямая улица,353923,44.6953214,37.7779340
81А,улица Леженина,353905,44.7026112,37.7813051
116,улица Сулеймана Стальского,353923,44.6984265,37.7745105
49,Фабричная улица,353915,44.6976350,37.7764797
124,улица Сулеймана Стальского,353923,44.6979036,37.7747580
82,Запорожская улица,353915,44.6994011,37.7713354
54,Прямая улица,353915,44.6961405,37.7776925
187,улица Дзержинского,353923,44.6935708,37.7801115
62,улица Леселидзе,353923,44.6988643,37.7731517
71,улица Раевского,353915,44.6960147,37.7760601
75,улица Раевского,353915,44.6957497,37.7761595
13,Таганрогская улица,353915,44.6996051,37.7693572
35,улица Вити Чаленко,353923,44.6950657,37.7786899
143,улица Дзержинского,353915,44.6974443,37.7789750
34,улица Вити Чаленко,353923,44.6950573,37.7790755
77,улица Леселидзе,353923,44.6976499,37.7731768
77,Запорожская улица,353915,44.6997159,37.7710214
17,Физкультурная улица,353915,44.6999887,37.7706597
13,улица Вити Чаленко,353915,44.6969878,37.7780735
75,Фабричная улица,353915,44.6956391,37.7770892
42,Физкультурная улица,353923,44.6984069,37.7722495
72,Прямая улица,353923,44.6945084,37.7781703
41,улица Вити Чаленко,353923,44.6945899,37.7788233
111,улица Сулеймана Стальского,353923,44.6988549,37.7738875
81,улица Дзержинского,353905,44.7027033,37.7769154
14,улица Вити Чаленко,353915,44.6970805,37.7784161
40,Фабричная улица,353923,44.6981172,37.7766135
102,улица Сулеймана Стальского,353923,44.6993760,37.7742365
28,улица Коммунаров,353915,44.6985051,37.7705107
123,улица Сулеймана Стальского,353923,44.6980827,37.7741518
134,улица Дзержинского,353915,44.6966580,37.7797672
85,улица Дзержинского,353905,44.7025157,37.7770614
65,улица Свердлова,353905,44.7034601,37.7811875
20/1,Фабричная улица,353923,44.7001061,37.7758924
55,улица Раевского,353915,44.6971632,37.7756373
22,Фабричная улица,353923,44.6998234,37.7760618
50А,улица Вити Чаленко,353923,44.6937394,37.7794791
57,улица Леселидзе,353923,44.6989368,37.7727081
167,улица Дзержинского,353923,44.6951222,37.7796787
24,улица Коммунаров,353915,44.6988019,37.7700756
56,улица Исаева,353905,44.7041356,37.7813520
77,улица Корницкого,353905,44.7019648,37.7798044
3,Таганрогская улица,353915,44.7001027,37.7700141
62,Фабричная улица,353915,44.6968206,37.7767071
64,Прямая улица,353923,44.6951588,37.7779898
25,Фабричная улица,353923,44.6998224,37.7756862
120,улица Сулеймана Стальского,353923,44.6981533,37.7745960
35,улица Раевского,353923,44.6988114,37.7749340
43,улица Раевского,353923,44.6982407,37.7752625
24,улица Раевского,353923,44.6999883,37.7750329
66,улица Леселидзе,353923,44.6986349,37.7732444
40,Прямая улица,353915,44.6973030,37.7773656
11,Таганрогская улица,353915,44.6996292,37.7696540
33,улица Вити Чаленко,353923,44.6952587,37.7786380
36А,улица Вити Чаленко,353923,44.6949280,37.7791402
52А,Физкультурная улица,353923,44.6975372,37.7726627
57,Фабричная улица,353915,44.6969944,37.7765491
62,улица Прохорова,353915,44.7003699,37.7692598
40А,Физкультурная улица,353923,44.6986292,37.7721847
6,улица Холостякова,353905,44.7013590,37.7772993
18,улица Вити Чаленко,353915,44.6968130,37.7785774
42,Фабричная улица,353923,44.6979978,37.7766629
33,Фабричная улица,353923,44.6992009,37.7759271
177,улица Дзержинского,353923,44.6943356,37.7798846
7А,улица Вити Чаленко,353915,44.6974967,37.7777479
49,улица Вити Чаленко,353923,44.6939489,37.7789135
54,улица Вити Чаленко,353923,44.6934522,37.7795588
165,улица Дзержинского,353923,44.6953879,37.7795957
52,Прямая улица,353915,44.6962941,37.7776499
157,улица Дзержинского,353915,44.6963198,37.7793367
89,Запорожская улица,353915,44.6989474,37.7704425
23А,улица Вити Чаленко,353915,44.6962051,37.7780565
171,улица Дзержинского,353923,44.6948112,37.7797674
37А,улица Раевского,353923,44.6986187,37.7751130
47,улица Раевского,353923,44.6979245,37.7752154
88,улица Корницкого,353923,44.6996497,37.7741740
124,улица Дзержинского,353915,44.6975080,37.7794246
64,улица Исаева,353905,44.7038804,37.7806446
49,улица Снайпера Рубахо,353915,44.6954968,37.7761559
31А,улица Вити Чаленко,353923,44.6953955,37.7784163
74,улица Раевского,353915,44.6959322,37.7764957
54,Физкультурная улица,353923,44.6973435,37.7726031
55,Фабричная улица,353915,44.6971790,37.7765944
40,улица Вити Чаленко,353923,44.6945067,37.7792187
95,улица Дзержинского,353905,44.7015725,37.7776622
22,улица Вити Чаленко,353915,44.6964721,37.7786098
179,улица Дзержинского,353923,44.6941880,37.7799420
117,улица Сулеймана Стальского,353923,44.6984423,37.7740237
80,улица Корницкого,353923,44.7003605,37.7758386
25,улица Раевского,353923,44.6995742,37.7746305
12,Таганрогская улица,353915,44.6994671,37.7699203
74,улица Прохорова,353915,44.6996496,37.7687099
50/1,улица Исаева,353905,44.7046136,37.7817104
1,улица Вити Чаленко,353915,44.6978910,37.7778252
61,улица Раевского,353915,44.6967403,37.7758023
45А,улица Вити Чаленко,353923,44.6942606,37.7786927
78,Прямая улица,353923,44.6940283,37.7784677
97,улица Корницкого,353905,44.7015449,37.7783629
95А,улица Корницкого,353905,44.7019047,37.7786041
58А,Прямая улица,353915,44.6958365,37.7779298
65,улица Леселидзе,353923,44.6984104,37.7728870
85,Запорожская улица,353915,44.6992523,37.7705151
48,Физкультурная улица,353923,44.6979786,37.7724032
189А,улица Дзержинского,353923,44.6934527,37.7800992
51А,улица Вити Чаленко,353923,44.6937329,37.7790356
42,улица Снайпера Рубахо,353923,44.6948297,37.7802200
79,улица Дзержинского,353905,44.7028107,37.7767940
69,улица Корницкого,353905,44.7021946,37.7805498
58,улица Исаева,353905,44.7040812,37.7812282
35,Фабричная улица,353923,44.6990179,37.7758357
95,улица Корницкого,353905,44.7018565,37.7785496
53А,улица Вити Чаленко,353923,44.6936698,37.7788262
81,Запорожская улица,353915,44.6994221,37.7707889
60,улица Исаева,353905,44.7040172,37.7808895
138,улица Дзержинского,353915,44.6963537,37.7797506
163,улица Дзержинского,353923,44.6956159,37.7795146
62,улица Исаева,353905,44.7039447,37.7807985
70,улица Прохорова,353915,44.6998726,37.7689815
57А,улица Вити Чаленко,353923,44.6932855,37.7789657
37,Фабричная улица,353923,44.6988745,37.7760222
46,улица Снайпера Рубахо,353923,44.6955079,37.7793565
42,улица Снайпера Рубахо,353923,44.6946345,37.7807190
75,улица Леженина,353905,44.7029067,37.7809627
159,улица Дзержинского,353915,44.6961240,37.7791974
175,улица Дзержинского,353923,44.6945027,37.7798365
85,улица Корницкого,353905,44.7018146,37.7792610
43,Фабричная улица,353923,44.6983409,37.7762320
68,улица Прохорова,353915,44.7000239,37.7690310
33А,Прямая улица,353915,44.6968560,37.7771178
79,Запорожская улица,353915,44.6995310,37.7708422
20А,улица Коммунаров,353915,44.6990938,37.7698756
20,улица Коммунаров,353915,44.6989694,37.7698037
117,улица Чайковского,353900,44.7148649,37.7540341
19,улица Манченко,353900,44.7221978,37.7588230
21,Крайний переулок,353900,44.7161107,37.7527066
22,улица Фурманова,353900,44.7225733,37.7592106
4,улица Манченко,353900,44.7213065,37.7595575
41,Родниковая улица,353900,44.6998352,37.7549211
6,"с/т ""Швейник""",353900,44.7022503,37.7591209
4,"с/т ""Портовик""",353900,44.7020062,37.7581985
43,Родниковая улица,353900,44.6997549,37.7550873
уч45,"с/т """"Швейник""""",353900,44.7025213,37.7580207
72,Родниковая улица,353900,44.7004014,37.7573237
87А,Октябрьская улица,353900,44.7089168,37.7594312
202,улица Фисанова,353900,44.7022721,37.7597298
118А,улица Рубина,353900,44.7094350,37.7592070
87,Октябрьская улица,353900,44.7088287,37.7596424
93,Павловская улица,353900,44.7100691,37.7585150
89А,Октябрьская улица,353900,44.7088035,37.7592862
8,"с/т ""Швейник""",353900,44.7021809,37.7595941
74,Родниковая улица,353900,44.7002368,37.7576698
116,улица Рубина,353900,44.7093794,37.7594237
85,Октябрьская улица,353900,44.7089169,37.7597914
83,Октябрьская улица,353900,44.7091046,37.7598779
85А,Октябрьская улица,353900,44.7090163,37.7596016
108,улица Рубина,353900,44.7098259,37.7598323
120,улица Рубина,353900,44.7091167,37.7592641
79,Октябрьская улица,353900,44.7093457,37.7600439
110,улица Рубина,353900,44.7096981,37.7597777
118,улица Рубина,353900,44.7093312,37.7592621
114,улица Рубина,353900,44.7094790,37.7595952
81,Октябрьская улица,353900,44.7090757,37.7600791
122,улица Рубина,353900,44.7089589,37.7590175
112,улица Рубина,353900,44.7096087,37.7596085
1,улица Максима Горького,353900,44.7180867,37.7673805
19,Красноармейская улица,353900,44.7175126,37.7640577
6,улица Клары Цеткин,353900,44.7179867,37.7627514
8,Профсоюзная улица,353900,44.7193554,37.7654902
3Б,улица Декабристов,353900,44.7169717,37.7665488
6А,Красноармейская улица,353900,44.7180843,37.7657417
20,улица 9 Января,353900,44.7195214,37.7664031
14А,улица Гладкова,353900,44.7193891,37.7641019
24,улица Гладкова,353900,44.7186437,37.7634233
15,Профсоюзная улица,353900,44.7185901,37.7654860
27,улица Конституции,353900,44.7161437,37.7714943
3,Ермацкий переулок,353900,44.7161900,37.7661401
11,Пугачёвский переулок,353900,44.7183211,37.7642455
10,улица Фисанова,353900,44.7149341,37.7713882
14,Красноармейская улица,353900,44.7177065,37.7650056
6А,Ермацкий переулок,353900,44.7164868,37.7663740
29 к3,улица Рубина,353900,44.7172566,37.7691880
23,улица Свободы,353900,44.7192023,37.7680176
11,Красноармейская улица,353900,44.7179041,37.7646837
8/1,Пугачёвский переулок,353900,44.7187770,37.7642106
7,Красноармейская улица,353900,44.7181978,37.7650597
9,улица Максима Горького,353900,44.7175008,37.7680650
1,Вальяновский переулок,353900,44.7142991,37.7689246
12,Красноармейская улица,353900,44.7178085,37.7650976
24А,улица 9 Января,353900,44.7193327,37.7667874
29А,улица Рубина,353900,44.7172025,37.7693715
10,улица Клары Цеткин,353900,44.7178845,37.7630968
28 к1,улица Рубина,353900,44.7168652,37.7696306
23/1,улица Конституции,353900,44.7163356,37.7709445
18,улица Гладкова,353900,44.7190772,37.7639079
3,Красноармейская улица,353900,44.7184208,37.7654743
20,Красноармейская улица,353900,44.7174420,37.7645593
1,Профсоюзная улица,353900,44.7194438,37.7642501
5,улица 9 Января,353900,44.7198781,37.7651633
14,улица Фисанова,353900,44.7147004,37.7711527
13,Профсоюзная улица,353900,44.7187658,37.7652906
13А,Красноармейская улица,353900,44.7178023,37.7645050
16,улица Клары Цеткин,353900,44.7176010,37.7635816
10,Пугачёвский переулок,353900,44.7186274,37.7643107
16А,улица Клары Цеткин,353900,44.7176300,37.7636902
8А,улица Видова,353900,44.7196769,37.7671713
14,улица Максима Горького,353900,44.7175508,37.7686736
24,улица 9 Января,353900,44.7193768,37.7666763
28А,улица Гладкова,353900,44.7183723,37.7634298
25,улица Конституции,353900,44.7163620,37.7712388
26А,улица 9 Января,353900,44.7194236,37.7669917
4,Октябрьская улица,353900,44.7151542,37.7705912
16,улица Гладкова,353900,44.7191715,37.7640251
15,Пугачёвский переулок,353900,44.7182080,37.7644076
1,Красноармейская улица,353900,44.7184888,37.7656328
18,Красноармейская улица,353900,44.7175091,37.7646485
34,улица Максима Горького,353900,44.7159361,37.7705254
15,Красноармейская улица,353900,44.7176906,37.7643116
34А,улица Гладкова,353900,44.7181627,37.7629539
25,улица Максима Горького,353900,44.7152109,37.7709226
14,Пугачёвский переулок,353900,44.7184139,37.7645904
7,улица 9 Января,353900,44.7197371,37.7654030
37,улица Свободы,353900,44.7177183,37.7659840
12/1,улица 9 Января,353900,44.7198830,37.7660312
1,Пугачёвский переулок,353900,44.7187510,37.7636761
21,улица Победы,353900,44.7195316,37.7703989
19А,Пугачёвский переулок,353900,44.7179407,37.7643289
25,улица Фисанова,353900,44.7138427,37.7696787
3А,Вальяновский переулок,353900,44.7141308,37.7691069
8,улица Фисанова,353900,44.7150506,37.7715066
9,Профсоюзная улица,353900,44.7190204,37.7648977
11,улица 9 Января,353900,44.7193104,37.7661802
12,улица Клары Цеткин,353900,44.7176932,37.7633190
10,улица Видова,353900,44.7197877,37.7670680
47,улица Свободы,353900,44.7171417,37.7647429
24,улица Фисанова,353900,44.7137477,37.7701734
36,улица Свободы,353900,44.7180224,37.7671435
26,улица Гладкова,353900,44.7185591,37.7633329
36,улица Гладкова,353900,44.7180780,37.7628692
23,улица Максима Горького,353900,44.7153572,37.7706295
17,Профсоюзная улица,353900,44.7182637,37.7658125
18,улица 9 Января,353900,44.7195509,37.7663055
21,улица 9 Января,353900,44.7188540,37.7669214
13,Красноармейская улица,353900,44.7177789,37.7644043
18,улица Максима Горького,353900,44.7173021,37.7689300
29,улица Конституции,353900,44.7159047,37.7717801
12,улица 9 Января,353900,44.7198360,37.7658850
42,улица Свободы,353900,44.7174171,37.7661971
24,Красноармейская улица,353900,44.7171972,37.7641832
8Б,улица Видова,353900,44.7195277,37.7671215
8,Ермацкий переулок,353900,44.7163628,37.7665404
4,улица Фисанова,353900,44.7153699,37.7718526
7А,Профсоюзная улица,353900,44.7191166,37.7646539
17,Пугачёвский переулок,353900,44.7180774,37.7643731
6,Пугачёвский переулок,353900,44.7188613,37.7641238
13,улица 9 Января,353900,44.7192098,37.7663419
14,Октябрьская улица,353900,44.7146088,37.7697864
9,Красноармейская улица,353900,44.7181097,37.7649458
11,улица Максима Горького,353900,44.7173866,37.7681745
28А,улица 9 Января,353900,44.7191751,37.7671376
8,Октябрьская улица,353900,44.7150090,37.7703185
4,Пугачёвский переулок,353900,44.7189365,37.7639662
12,улица Гладкова,353900,44.7197803,37.7645706
10,Красноармейская улица,353900,44.7179360,37.7653284
22,улица Фисанова,353900,44.7139356,37.7703528
7,Профсоюзная улица,353900,44.7191809,37.7647424
8,улица Гладкова,353900,44.7200913,37.7648181
13,улица Фисанова,353900,44.7146662,37.7706120
16,улица Максима Горького,353900,44.7174782,37.7687565
16,улица 9 Января,353900,44.7196638,37.7661028
13/1,Красноармейская улица,353900,44.7187024,37.7652036
40,улица Максима Горького,353900,44.7156083,37.7709121
7,Пугачёвский переулок,353900,44.7184956,37.7639749
1,улица Декабристов,353900,44.7174002,37.7665536
6,улица Видова,353900,44.7195034,37.7674837
21,улица Фисанова,353900,44.7142682,37.7699451
49,улица Новороссийской Республики,353900,44.7130447,37.7701887
18,Октябрьская улица,353900,44.7145441,37.7692727
4,улица 9 Января,353900,44.7201788,37.7652028
42,улица Максима Горького,353900,44.7155140,37.7710109
28,улица 9 Января,353900,44.7191847,37.7669624
6,Октябрьская улица,353900,44.7152171,37.7703740
8,Красноармейская улица,353900,44.7179163,37.7656090
20/1,улица Декабристов,353900,44.7167179,37.7681739
18,улица Фисанова,353900,44.7144056,37.7708873
26 к1,улица Рубина,353900,44.7170489,37.7698944
8,улица Максима Горького,353900,44.7179527,37.7682813
23/2,улица Конституции,353900,44.7161706,37.7709404
51,улица Свободы,353900,44.7167685,37.7646570
11,улица Фисанова,353900,44.7147791,37.7707292
16А,Красноармейская улица,353900,44.7176334,37.7648427
2,Ермацкий переулок,353900,44.7166081,37.7662479
37А,улица Свободы,353900,44.7176267,37.7657810
3,Пугачёвский переулок,353900,44.7186666,37.7637865
8,улица Декабристов,353900,44.7174181,37.7671262
19,Пугачёвский переулок,353900,44.7179890,37.7644413
8,Пугачёвский переулок,353900,44.7187402,37.7643169
2,улица Максима Горького,353900,44.7183103,37.7677350
41,улица Свободы,353900,44.7174574,37.7652369
9А,Пугачёвский переулок,353900,44.7183643,37.7639259
3А,улица Максима Горького,353900,44.7178459,37.7675746
19,улица 9 Января,353900,44.7188833,37.7668381
22,улица Клары Цеткин,353900,44.7168979,37.7644315
5,Ермацкий переулок,353900,44.7160105,37.7661893
47,улица Новороссийской Республики,353900,44.7130873,37.7703482
18/1,улица Максима Горького,353900,44.7172536,37.7689876
30,улица 9 Января,353900,44.7189448,37.7673793
12,улица Максима Горького,353900,44.7177161,37.7684941
17А,улица Фисанова,353900,44.7144105,37.7700357
8,улица Клары Цеткин,353900,44.7179618,37.7629584
5А,Красноармейская улица,353900,44.7183236,37.7653390
23,улица Конституции,353900,44.7165780,37.7709998
19/1,Пугачёвский переулок,353900,44.7180031,37.7642502
16,улица Фисанова,353900,44.7145378,37.7710554
26А,улица Гладкова,353900,44.7184884,37.7634642
6,Ермацкий переулок,353900,44.7166943,37.7666727
3,Вальяновский переулок,353900,44.7139668,37.7692754
23,улица Фисанова,353900,44.7139514,37.7698852
11А,улица Фисанова,353900,44.7148800,37.7705526
12,Пугачёвский переулок,353900,44.7185518,37.7644191
39,улица Свободы,353900,44.7174642,37.7655841
14,улица 9 Января,353900,44.7197203,37.7660042
5,Пугачёвский переулок,353900,44.7185068,37.7637567
4,улица Декабристов,353900,44.7175190,37.7668999
22,Красноармейская улица,353900,44.7172854,37.7643043
4,улица Максима Горького,353900,44.7181864,37.7678722
17А,улица Конституции,353900,44.7169791,37.7701639
21,Красноармейская улица,353900,44.7174290,37.7639243
22А,улица Клары Цеткин,353900,44.7169705,37.7645018
31,улица Конституции,353900,44.7155532,37.7720562
14,улица Видова,353900,44.7201754,37.7663590
4,Вальяновский переулок,353900,44.7142061,37.7695497
18,Пугачёвский переулок,353900,44.7181676,37.7648391
3,улица Максима Горького,353900,44.7179887,37.7676018
10,улица Максима Горького,353900,44.7178117,37.7683734
7/1,улица Максима Горького,353900,44.7174877,37.7677932
2,Пугачёвский переулок,353900,44.7190480,37.7637792
49,улица Свободы,353900,44.7169528,37.7647657
10,улица Гладкова,353900,44.7199724,37.7647082
30,улица Гладкова,353900,44.7184218,37.7632709
32,улица Максима Горького,353900,44.7160347,37.7704315
18,улица Клары Цеткин,353900,44.7174046,37.7636589
3,улица 9 Января,353900,44.7200142,37.7649907
19,Профсоюзная улица,353900,44.7181669,37.7660115
12,улица Декабристов,353900,44.7172612,37.7676086
16/1,улица Максима Горького,353900,44.7175611,37.7689283
6,улица Максима Горького,353900,44.7180353,37.7680426
19,улица Конституции,353900,44.7168841,37.7705227
11,Профсоюзная улица,353900,44.7188350,37.7651532
8,улица 9 Января,353900,44.7200417,37.7655525
6А,улица Фисанова,353900,44.7150358,37.7718472
6А,Пугачёвский переулок,353900,44.7189831,37.7643039
15,улица 9 Января,353900,44.7190740,37.7664468
30/1,улица Максима Горького,353900,44.7162850,37.7704454
45,улица Свободы,353900,44.7171056,37.7650539
44,улица Максима Горького,353900,44.7154321,37.7711262
12,Октябрьская улица,353900,44.7148336,37.7697437
5,Красноармейская улица,353900,44.7182875,37.7652205
26,улица 9 Января,353900,44.7192659,37.7668529
6,Красноармейская улица,353900,44.7181285,37.7656114
15,улица Конституции,353900,44.7177810,37.7694241
4,Ермацкий переулок,353900,44.7168633,37.7664424
16,улица Декабристов,353900,44.7169158,37.7678666
17,Красноармейская улица,353900,44.7176399,37.7642041
16,Пугачёвский переулок,353900,44.7183329,37.7647671
35А,улица Свободы,353900,44.7178244,37.7658431
22,улица Гладкова,353900,44.7188431,37.7635935
13,Пугачёвский переулок,353900,44.7181798,37.7642324
12,улица Фисанова,353900,44.7147777,37.7713210
16А,улица Максима Горького,353900,44.7175625,37.7690904
16,Красноармейская улица,353900,44.7175507,37.7649637
11А,Профсоюзная улица,353900,44.7189080,37.7650620
18,улица Клары Цеткин,353900,44.7173188,37.7638129
21,Пугачёвский переулок,353900,44.7180120,37.7646443
6/1,Пугачёвский переулок,353900,44.7188727,37.7643432
41А,улица Свободы,353900,44.7173485,37.7651446
16,Октябрьская улица,353900,44.7146613,37.7695171
9,Пугачёвский переулок,353900,44.7184059,37.7640321
7,улица Максима Горького,353900,44.7176010,37.7677334
28,улица Максима Горького,353900,44.7162403,37.7701111
13,улица Видова,353900,44.7211970,37.7651649
51,улица Новороссийской Республики,353900,44.7129645,37.7701536
28,улица Гладкова,353900,44.7182793,37.7634249
27А,улица Свободы,353900,44.7185864,37.7674231
2,улица 9 Января,353900,44.7203077,37.7650654
21,улица Конституции,353900,44.7167240,37.7706835
12А,улица Видова,353900,44.7198311,37.7665334
17,улица Конституции,353900,44.7171585,37.7701822
27,улица Рубина,353900,44.7174849,37.7697538
8,улица Видова,353900,44.7195238,37.7673067
12Б,улица Видова,353900,44.7200489,37.7661928
32,улица Гладкова,353900,44.7183321,37.7631517
14,улица Максима Горького,353900,44.7176759,37.7688443
16/1,улица 9 Января,353900,44.7197582,37.7663068
23,улица 9 Января,353900,44.7187012,37.7669755
31,улица Рубина,353900,44.7170839,37.7691622
26,улица Рубина,353900,44.7169563,37.7697440
11,Беломорская улица,353900,44.7111651,37.7570914
14,улица Гладкова,353900,44.7192967,37.7641682
14,улица Клары Цеткин,353900,44.7176230,37.7634032
20,улица Декабристов,353900,44.7165798,37.7683750
5,Вальяновский переулок,353900,44.7139464,37.7695498
6,улица Фисанова,353900,44.7151339,37.7715883
52,улица Советов,353900,44.7174485,37.7780040
56,улица Советов,353900,44.7170319,37.7785883
20,улица Карла Маркса,353900,44.7175047,37.7787073
46,улица Советов,353900,44.7179598,37.7775297
48,улица Советов,353900,44.7178100,37.7777114
54,улица Советов,353900,44.7172714,37.7783509
1/40,улица Цедрика,353900,44.7150126,37.7827951
24,улица Цедрика,353905,44.7123079,37.7792079
26,улица Цедрика,353905,44.7121930,37.7790421
28,улица Цедрика,353905,44.7120300,37.7788634
56,улица Энгельса,353905,44.7116566,37.7789683
7,улица Цедрика,353905,44.7125872,37.7783553
15,улица Толстого,353905,44.7120581,37.7805128
50,улица Энгельса,353915,44.7135734,37.7768478
4,Динамовская улица,353905,44.7127237,37.7810348
57,улица Мира,353900,44.7157294,37.7835287
53 кА,улица Мира,353900,44.7156460,37.7836832
6,улица Короленко,353905,44.7124437,37.7810123
56А,улица Энгельса,353905,44.7116391,37.7793415
16,улица Грибоедова,353915,44.7132469,37.7730650
2,переулок Фисанова,353900,44.7121260,37.7682488
4,переулок Фисанова,353900,44.7120470,37.7684532
65,улица Новороссийской Республики,353900,44.7125925,37.7694655
69,улица Новороссийской Республики,353900,44.7123561,37.7694371
71,улица Новороссийской Республики,353900,44.7122052,37.7691746
73,улица Новороссийской Республики,353900,44.7122420,37.7687940
75,улица Новороссийской Республики,353900,44.7120012,37.7687772
77,улица Новороссийской Республики,353900,44.7119471,37.7686348
81,улица Новороссийской Республики,353900,44.7114556,37.7680559
59,улица Новороссийской Республики,353900,44.7125676,37.7698215
79А,улица Новороссийской Республики,353900,44.7114961,37.7682224
71А,улица Новороссийской Республики,353900,44.7122490,37.7693064
88А,улица Леженина,353905,44.7024442,37.7821720
37,улица Пархоменко,353905,44.7069830,37.7798818
44,улица Леженина,353905,44.7063727,37.7770487
15,улица Марата,353905,44.7084842,37.7748484
21,улица Исаева,353905,44.7060190,37.7829428
21,улица Серова,353905,44.7064622,37.7786003
45А,улица Пархоменко,353905,44.7057731,37.7811818
26,улица Леженина,353905,44.7073721,37.7757503
42,улица Свердлова,353905,44.7042979,37.7832275
66,улица Энгельса,353905,44.7107673,37.7801136
54,улица Свердлова,353905,44.7036566,37.7821034
7,Украинская улица,353905,44.7053282,37.7805717
39А,улица Марата,353905,44.7069499,37.7768930
18А,Запорожская улица,353905,44.7052144,37.7795205
38,улица Серова,353905,44.7059346,37.7788826
6/1,улица Леженина,353905,44.7087729,37.7737707
10,улица Марата,353905,44.7090028,37.7748200
40А,улица Леженина,353905,44.7066014,37.7768956
8,Запорожская улица,353905,44.7057489,37.7801101
43,улица Пархоменко,353905,44.7065951,37.7805744
70,улица Леженина,353905,44.7042590,37.7799118
4,улица Леженина,353905,44.7088386,37.7734762
6,улица Марата,353905,44.7091638,37.7745255
2,улица Леженина,353905,44.7090503,37.7734121
22,улица Корницкого,353905,44.7032542,37.7831468
35,улица Свердлова,353905,44.7053237,37.7840115
74,улица Пархоменко,353905,44.7066531,37.7810724
16,улица Марата,353905,44.7087057,37.7751619
1,проспект Ленина,353905,44.7055692,37.7838445
29,улица Исаева,353905,44.7050435,37.7817625
34,улица Марата,353905,44.7065541,37.7782714
23,улица Марата,353905,44.7081054,37.7754977
58,улица Свердлова,353905,44.7034552,37.7818013
21,Запорожская улица,353905,44.7055880,37.7786818
39,улица Свердлова,353905,44.7051856,37.7837752
30,улица Серова,353905,44.7064268,37.7792005
1А,улица Марата,353905,44.7092374,37.7734590
31,улица Исаева,353905,44.7049344,37.7815684
36,улица Серова,353905,44.7061982,37.7787640
22,улица Марата,353905,44.7083564,37.7756976
47,улица Марата,353905,44.7065185,37.7777574
26А,улица Марата,353905,44.7081274,37.7761874
6А,Запорожская улица,353905,44.7058658,37.7801589
11,Украинская улица,353905,44.7051357,37.7802645
23,улица Исаева,353905,44.7055477,37.7825612
27,улица Исаева,353905,44.7052202,37.7819550
9,Украинская улица,353905,44.7052568,37.7804443
27,улица Марата,353905,44.7078001,37.7758331
25,улица Исаева,353905,44.7052937,37.7821665
41,улица Пархоменко,353905,44.7067227,37.7802542
10/1,улица Леженина,353905,44.7085219,37.7741018
26,улица Марата,353905,44.7081060,37.7760641
19,Запорожская улица,353905,44.7054261,37.7790890
32/1,улица Леженина,353905,44.7071473,37.7762058
1В,проспект Ленина,353905,44.7057198,37.7836202
36А,улица Серова,353905,44.7061120,37.7786833
5,Запорожская улица,353905,44.7062267,37.7800950
49,улица Марата,353905,44.7064266,37.7778860
32,улица Леженина,353905,44.7070287,37.7760940
4,улица Прохорова,353905,44.7091819,37.7733148
48,улица Леженина,353905,44.7061657,37.7773585
35,улица Марата,353905,44.7072040,37.7767955
52,улица Свердлова,353905,44.7036928,37.7822668
6,улица Леженина,353905,44.7087062,37.7738685
31А,улица Марата,353905,44.7074798,37.7763162
53,улица Свердлова,353905,44.7041377,37.7821194
39,улица Пархоменко,353905,44.7068730,37.7801360
80,улица Пархоменко,353905,44.7063505,37.7814211
68,улица Леженина,353905,44.7044404,37.7797527
55,улица Свердлова,353905,44.7040268,37.7820859
8,улица Марата,353905,44.7090881,37.7746396
34,улица Марата,353905,44.7067584,37.7779996
21,Украинская улица,353905,44.7047208,37.7795777
66,улица Леженина,353905,44.7046022,37.7794272
9,улица Марата,353905,44.7088775,37.7743130
18А,улица Леженина,353905,44.7078597,37.7749487
22,Украинская улица,353905,44.7046973,37.7801465
36,улица Леженина,353905,44.7067902,37.7763541
58,улица Леженина,353905,44.7055373,37.7783359
14,улица Леженина,353905,44.7081997,37.7744536
14А,Украинская улица,353905,44.7049775,37.7809017
2,Украинская улица,353905,44.7057298,37.7816471
14,Украинская улица,353905,44.7051031,37.7807869
3,проспект Ленина,353912,44.7045088,37.7840273
72А,улица Пархоменко,353905,44.7067586,37.7810286
42,улица Леженина,353905,44.7064304,37.7768502
37,улица Марата,353905,44.7071102,37.7768472
28,улица Леженина,353905,44.7071913,37.7757967
38,улица Леженина,353905,44.7066653,37.7765687
30,улица Леженина,353905,44.7073598,37.7759506
11,Запорожская улица,353905,44.7058698,37.7796212
5А,улица Марата,353905,44.7090570,37.7737253
35/1,улица Исаева,353905,44.7047731,37.7813262
15,Запорожская улица,353905,44.7056870,37.7794035
45,улица Пархоменко,353905,44.7063099,37.7809124
62,улица Леженина,353905,44.7051844,37.7787211
45,улица Пархоменко,353905,44.7059589,37.7807878
29,улица Марата,353905,44.7075545,37.7759563
10,Украинская улица,353905,44.7051751,37.7810798
43А,улица Исаева,353905,44.7044368,37.7805228
55,улица Марата,353905,44.7061454,37.7782959
34,улица Серова,353905,44.7062977,37.7789187
2,улица Марата,353905,44.7094424,37.7741354
5,Украинская улица,353905,44.7055011,37.7807486
39,улица Марата,353905,44.7069850,37.7770735
12,Запорожская улица,353905,44.7054809,37.7798152
3,улица Марата,353905,44.7092652,37.7736934
17,улица Марата,353905,44.7083605,37.7750228
41,улица Марата,353905,44.7068871,37.7771786
6,Украинская улица,353905,44.7053534,37.7812050
13,Запорожская улица,353905,44.7058069,37.7794427
12,улица Марата,353905,44.7090263,37.7750335
46,улица Исаева,353905,44.7046957,37.7821220
3А,Запорожская улица,353905,44.7064312,37.7799896
60,улица Леженина,353905,44.7053675,37.7784415
74,улица Леженина,353905,44.7040263,37.7801575
56,улица Леженина,353905,44.7056601,37.7780890
43/1,улица Марата,353905,44.7067016,37.7774634
31,улица Марата,353905,44.7075404,37.7762319
32,улица Серова,353905,44.7063529,37.7790327
8,Украинская улица,353905,44.7051829,37.7812780
26/1,улица Леженина,353905,44.7074033,37.7754958
38А,улица Серова,353905,44.7059378,37.7786401
22,улица Леженина,353905,44.7076819,37.7753351
45,улица Марата,353905,44.7065659,37.7775486
86,улица Леженина,353905,44.7027356,37.7818186
7,проспект Ленина,353905,44.7030332,37.7837593
15А,Украинская улица,353905,44.7050225,37.7798822
3,Украинская улица,353905,44.7055828,37.7809190
46,улица Свердлова,353905,44.7038223,37.7828690
64,улица Леженина,353905,44.7049536,37.7790014
33,улица Марата,353905,44.7073752,37.7765011
44,улица Свердлова,353905,44.7040281,37.7829409
33,улица Исаева,353905,44.7048616,37.7814808
62,улица Свердлова,353905,44.7032304,37.7814836
6А,улица Леженина,353905,44.7087657,37.7735894
24А,улица Корницкого,353905,44.7028387,37.7825888
15А,Запорожская улица,353905,44.7059673,37.7792092
4А,улица Марата,353905,44.7093090,37.7744969
28,улица Марата,353905,44.7080627,37.7763158
24,улица Корницкого,353905,44.7029077,37.7828995
14,улица Марата,353905,44.7088450,37.7750479
4,Запорожская улица,353905,44.7056376,37.7804573
85,улица Лейтенанта Шмидта,353905,44.7057440,37.7826661
45А,улица Исаева,353905,44.7041682,37.7802253
38,улица Исаева,353905,44.7055766,37.7832931
5,проспект Ленина,353905,44.7037793,37.7838842
45,улица Исаева,353905,44.7041807,37.7803632
72,улица Пархоменко,353905,44.7066873,37.7809508
43,улица Свердлова,353905,44.7050930,37.7833785
51,улица Свердлова,353905,44.7042233,37.7821657
48,улица Свердлова,353905,44.7038333,37.7825804
34А,улица Серова,353905,44.7062385,37.7790479
3А,улица Марата,353905,44.7091566,37.7735361
18,улица Марата,353905,44.7085681,37.7753513
41,улица Свердлова,353905,44.7050986,37.7836492
40,улица Исаева,353905,44.7052741,37.7828557
13А,улица Марата,353905,44.7085243,37.7746664
1,улица Марата,353905,44.7094645,37.7734795
72,улица Леженина,353905,44.7042352,37.7800708
4,улица Марата,353905,44.7092478,37.7743325
19,Украинская улица,353905,44.7047883,37.7797268
24,Украинская улица,353905,44.7045909,37.7800487
41,улица Исаева,353905,44.7044566,37.7808100
13,Украинская улица,353905,44.7050912,37.7801174
34,улица Марата,353905,44.7075773,37.7770386
40А,улица Серова,353905,44.7057465,37.7782350
43,улица Марата,353905,44.7066647,37.7771902
23,Запорожская улица,353905,44.7052757,37.7788990
21,Запорожская улица,353905,44.7053648,37.7790488
22,Запорожская улица,353905,44.7050700,37.7791426
26,Украинская улица,353905,44.7045275,37.7799519
26А,улица Леженина,353905,44.7073795,37.7755291
37,улица Исаева,353905,44.7046230,37.7810896
21/1,улица Серова,353905,44.7068407,37.7792283
43,улица Пархоменко,353905,44.7060841,37.7812957
7А,Запорожская улица,353905,44.7060885,37.7799755
15,Украинская улица,353905,44.7049722,37.7800410
18,улица Леженина,353905,44.7080071,37.7749809
51,улица Марата,353905,44.7062696,37.7779247
34,улица Леженина,353905,44.7069121,37.7762020
60,улица Свердлова,353905,44.7033666,37.7817323
16,Украинская улица,353905,44.7050194,37.7806788
40,улица Серова,353905,44.7058493,37.7785583
44,улица Исаева,353905,44.7048892,37.7821302
10А,Запорожская улица,353905,44.7054416,37.7800730
82,улица Пархоменко,353905,44.7062552,37.7815456
26/1,Украинская улица,353905,44.7044504,37.7800441
24А,улица Марата,353905,44.7082881,37.7759990
24,улица Леженина,353905,44.7074578,37.7754238
19,улица Марата,353905,44.7082989,37.7751162
7,улица Марата,353905,44.7089268,37.7739141
17,Запорожская улица,353905,44.7058044,37.7790670
20,улица Леженина,353905,44.7078101,37.7751620
26/1,улица Корницкого,353905,44.7025791,37.7825255
7,Запорожская улица,353905,44.7061843,37.7796963
41А,улица Исаева,353905,44.7045067,37.7806351
70,улица Пархоменко,353905,44.7067902,37.7808678
35,улица Исаева,353905,44.7047230,37.7812476
53,улица Пархоменко,353905,44.7048073,37.7826981
52,улица Леженина,353905,44.7059594,37.7777011
2А,улица Марата,353905,44.7094264,37.7743582
51А,улица Свердлова,353905,44.7043256,37.7822403
50,улица Леженина,353905,44.7060303,37.7776161
16,улица Леженина,353905,44.7079754,37.7746560
26,улица Серова,353905,44.7066313,37.7795036
17,Украинская улица,353905,44.7049065,37.7798830
13,улица Марата,353905,44.7086262,37.7746499
11А,Запорожская улица,353905,44.7060528,37.7793523
76,улица Пархоменко,353905,44.7065590,37.7811947
18,Украинская улица,353905,44.7048832,37.7804868
21,улица Марата,353905,44.7081222,37.7750942
12,улица Леженина,353905,44.7082973,37.7742360
12,Украинская улица,353905,44.7051539,37.7808693
56,улица Свердлова,353905,44.7035128,37.7819573
46,улица Леженина,353905,44.7062662,37.7771656
9А,Украинская улица,353905,44.7052382,37.7802863
43А,улица Марата,353905,44.7067361,37.7774165
53,улица Марата,353905,44.7062511,37.7781361
26/2,улица Корницкого,353905,44.7025125,37.7826507
26,улица Корницкого,353905,44.7026422,37.7823884
24,улица Марата,353905,44.7082003,37.7758753
9/1,проспект Ленина,353905,44.7015970,37.7831287
50,улица Свердлова,353905,44.7037967,37.7823975
10,улица Леженина,353905,44.7084356,37.7740562
20,улица Марата,353905,44.7084847,37.7755496
30,улица Марата,353905,44.7078104,37.7765049
8,улица Леженина,353905,44.7085916,37.7739576
34,улица Марата,353905,44.7070136,37.7775708
84,улица Леженина,353905,44.7030046,37.7815003
32,улица Марата,353905,44.7077022,37.7766207
11,улица Марата,353905,44.7086029,37.7744039
82,улица Леженина,353905,44.7030712,37.7814159
34/1,улица Марата,353905,44.7072277,37.7772670
53,улица Свердлова,353905,44.7043742,37.7825225
10,Запорожская улица,353905,44.7055894,37.7799703
56,улица Цедрика,353905,44.7096456,37.7739022
22А,Украинская улица,353905,44.7046054,37.7802747
6,Запорожская улица,353905,44.7059137,37.7803286
49,улица Пархоменко,353905,44.7053790,37.7819825
5,улица Марата,353905,44.7091250,37.7739211
33А,улица Марата,353905,44.7072519,37.7763989
25,улица Марата,353905,44.7079531,37.7756415
84,улица Пархоменко,353905,44.7062727,37.7819318
24,улица Серова,353905,44.7067911,37.7797014
55,улица Свердлова,353905,44.7042621,37.7823975
40,улица Леженина,353905,44.7065992,37.7767218
47,улица Пархоменко,353905,44.7055607,37.7818345
48,улица Исаева,353905,44.7046136,37.7819875
41А,улица Марата,353905,44.7067816,37.7770161
5А,проспект Ленина,353905,44.7039394,37.7840637
4,Запорожская улица,353905,44.7061366,37.7805812
54,улица Леженина,353905,44.7058313,37.7779000
34,улица Марата,353905,44.7073408,37.7775448
79,улица Свердлова,353905,44.7029532,37.7796245
43,Щедринская улица,353905,44.7047858,37.7771324
34/1,Щедринская улица,353905,44.7059429,37.7764849
36А,улица Шота Руставели,353915,44.7025083,37.7733065
46,улица Прохорова,353915,44.7026753,37.7715103
41А,Щедринская улица,353905,44.7048866,37.7770849
68,улица Исаева,353905,44.7035037,37.7797399
35,Щедринская улица,353905,44.7052626,37.7765989
34А,Щедринская улица,353905,44.7058809,37.7763623
27,улица Шота Руставели,353915,44.7028439,37.7716603
49А,улица Леженина,353905,44.7052243,37.7777297
31,Щедринская улица,353905,44.7054948,37.7763068
47,улица Леженина,353905,44.7053916,37.7778331
3,Приморский переулок,353915,44.7024906,37.7718771
44,Щедринская улица,353905,44.7051041,37.7773464
55Б,улица Планеристов,353915,44.7032479,37.7731725
55,улица Исаева,353905,44.7036004,37.7782646
11,Приморский переулок,353915,44.7017866,37.7727120
19А,улица Леженина,353905,44.7074250,37.7747868
13,Приморский переулок,353915,44.7017111,37.7728061
44/1,улица Серова,353905,44.7057134,37.7769464
8,Щедринская улица,353905,44.7074821,37.7738972
38,Щедринская улица,353905,44.7055323,37.7768140
91,улица Свердлова,353905,44.7027131,37.7784478
13,улица Леженина,353905,44.7077931,37.7742997
63,улица Исаева,353905,44.7033799,37.7772920
28,Щедринская улица,353905,44.7064246,37.7755767
34,улица Красина,353905,44.7060191,37.7746094
73,улица Планеристов,353915,44.7029296,37.7750034
5,улица Леженина,353905,44.7081206,37.7735784
30,улица Шота Руставели,353915,44.7028598,37.7728492
8,улица Прохорова,353905,44.7080057,37.7732958
5,Пионерский переулок,353915,44.7022202,37.7743136
49,Щедринская улица,353905,44.7045149,37.7774659
3,Щедринская улица,353905,44.7072597,37.7735936
30А,Щедринская улица,353905,44.7062456,37.7758015
57,улица Исаева,353905,44.7035572,37.7779893
80,улица Исаева,353905,44.7032356,37.7782431
78А,улица Исаева,353905,44.7032529,37.7783596
6А,Щедринская улица,353905,44.7075559,37.7737844
69,улица Свердлова,353905,44.7031886,37.7806904
35,улица Леженина,353905,44.7062930,37.7764854
11,улица Леженина,353905,44.7078117,37.7739809
29,Щедринская улица,353905,44.7056845,37.7760138
27,улица Леженина,353905,44.7067545,37.7755965
49,улица Исаева,353905,44.7037997,37.7796429
41Б,улица Леженина,353905,44.7058459,37.7772905
13,Щедринская улица,353905,44.7066135,37.7746154
76А,улица Исаева,353905,44.7031521,37.7787850
72,улица Исаева,353905,44.7033778,37.7790357
30,Щедринская улица,353905,44.7063533,37.7757302
23,улица Леженина,353905,44.7071383,37.7752840
95,улица Свердлова,353905,44.7026309,37.7780937
21,улица Леженина,353905,44.7072146,37.7751870
9,Щедринская улица,353905,44.7068560,37.7741885
39,улица Шота Руставели,353915,44.7021417,37.7733416
75,улица Свердлова,353905,44.7030314,37.7799075
70,улица Дзержинского,353905,44.7029235,37.7772935
17,Приморский переулок,353915,44.7019973,37.7731438
41,улица Леженина,353905,44.7057171,37.7773539
3,улица Леженина,353905,44.7082175,37.7734765
14,Щедринская улица,353905,44.7071524,37.7743648
66,улица Исаева,353905,44.7034896,37.7799651
82,улица Исаева,353905,44.7031595,37.7778804
13А,улица Леженина,353905,44.7078668,37.7742166
82А,улица Исаева,353905,44.7031786,37.7780075
25А,улица Леженина,353905,44.7069989,37.7752682
2,улица Раевского,353915,44.7020818,37.7740080
51,Щедринская улица,353905,44.7044034,37.7776863
68А,улица Исаева,353905,44.7033320,37.7796905
17А,Щедринская улица,353905,44.7062358,37.7748773
21,Щедринская улица,353905,44.7060675,37.7754742
87,улица Свердлова,353905,44.7027838,37.7788303
72А,улица Исаева,353905,44.7032344,37.7791707
23,Щедринская улица,353905,44.7059902,37.7756025
73А,улица Свердлова,353905,44.7032034,37.7801056
29А,улица Шота Руставели,353915,44.7028177,37.7720771
39,Щедринская улица,353905,44.7050626,37.7768509
33,улица Леженина,353905,44.7064358,37.7762786
71,улица Планеристов,353915,44.7029759,37.7748453
29,улица Шота Руставели,353915,44.7028318,37.7722593
26,Щедринская улица,353905,44.7065724,37.7753502
81А,улица Свердлова,353905,44.7030514,37.7794378
81,улица Свердлова,353905,44.7028988,37.7794053
57,Запорожская улица,353915,44.7017180,37.7736380
72,улица Дзержинского,353905,44.7028324,37.7774754
34/2,Щедринская улица,353905,44.7060817,37.7764378
53,Запорожская улица,353915,44.7019313,37.7741975
4,Щедринская улица,353905,44.7077029,37.7736022
29,улица Леженина,353905,44.7066817,37.7758560
75,улица Планеристов,353915,44.7028475,37.7751777
5,Приморский переулок,353915,44.7023759,37.7720054
77,улица Планеристов,353915,44.7027564,37.7753178
60,Щедринская улица,353905,44.7037652,37.7791012
45,улица Леженина,353905,44.7054835,37.7776298
17,улица Леженина,353905,44.7075317,37.7746893
76,улица Исаева,353905,44.7033040,37.7786730
38,улица Шота Руставели,353915,44.7023702,37.7735796
45,Щедринская улица,353905,44.7046989,37.7772781
8А,Щедринская улица,353905,44.7074104,37.7739971
70,улица Исаева,353905,44.7034651,37.7794710
34,Щедринская улица,353905,44.7059862,37.7762859
36,улица Шота Руставели,353915,44.7024543,37.7734878
46А,улица Прохорова,353915,44.7025640,37.7715719
32,улица Шота Руставели,353915,44.7027648,37.7730629
15А,улица Леженина,353905,44.7077424,37.7744065
2,Щедринская улица,353905,44.7078640,37.7733478
33,Щедринская улица,353905,44.7052219,37.7763899
7А,Приморский переулок,353915,44.7022683,37.7721487
32,Щедринская улица,353905,44.7061623,37.7759415
51,улица Исаева,353905,44.7037716,37.7793214
11А,Приморский переулок,353915,44.7018741,37.7726262
1,Щедринская улица,353905,44.7073326,37.7734488
48,улица Красина,353905,44.7051652,37.7758633
37,улица Леженина,353905,44.7061501,37.7767348
17,Щедринская улица,353905,44.7062756,37.7750780
44,улица Серова,353905,44.7057461,37.7768544
37А,улица Леженина,353905,44.7062260,37.7766577
78,улица Исаева,353905,44.7032631,37.7784653
89,улица Свердлова,353905,44.7027557,37.7786621
47,Щедринская улица,353905,44.7045155,37.7772667
70Б,улица Исаева,353905,44.7033021,37.7793957
71,улица Леженина,353905,44.7033689,37.7804189
77,улица Свердлова,353905,44.7029858,37.7798080
27А,улица Леженина,353905,44.7068989,37.7756730
25,улица Леженина,353905,44.7069565,37.7754964
61,улица Исаева,353905,44.7034717,37.7775844
15,улица Леженина,353905,44.7076655,37.7745057
3,Пионерский переулок,353915,44.7021098,37.7743603
65,улица Исаева,353905,44.7033417,37.7771430
5,Щедринская улица,353905,44.7070122,37.7737374
59,улица Исаева,353905,44.7034845,37.7778403
93,улица Свердлова,353905,44.7026793,37.7782323
6,Щедринская улица,353905,44.7076168,37.7736826
7,улица Леженина,353905,44.7081056,37.7738954
19,улица Леженина,353905,44.7072373,37.7748220
55А,улица Планеристов,353915,44.7033075,37.7729074
7,Щедринская улица,353905,44.7069805,37.7739997
11,Щедринская улица,353905,44.7067443,37.7743664
86,улица Исаева,353905,44.7030396,37.7775001
13А,Щедринская улица,353905,44.7066607,37.7744886
47,Запорожская улица,353915,44.7025320,37.7749880
84,улица Исаева,353905,44.7030998,37.7776715
7,Пионерский переулок,353915,44.7024106,37.7741384
74,улица Исаева,353905,44.7033242,37.7789114
72А,улица Дзержинского,353905,44.7026932,37.7774898
10,Щедринская улица,353905,44.7073161,37.7741456
29,Запорожская улица,353905,44.7048176,37.7780715
19,Щедринская улица,353905,44.7060487,37.7751625
67,улица Леженина,353905,44.7036018,37.7801230
69,улица Леженина,353905,44.7034099,37.7801962
55,улица Планеристов,353915,44.7031729,37.7737702
38А,улица Прохорова,353915,44.7036907,37.7721959
22,Щедринская улица,353905,44.7067530,37.7750986
73,улица Свердлова,353905,44.7030646,37.7801862
7,Приморский переулок,353915,44.7021897,37.7722136
43,улица Леженина,353905,44.7056195,37.7773954
71,улица Свердлова,353905,44.7031292,37.7804030
1,улица Леженина,353905,44.7084787,37.7733449
25,Щедринская улица,353905,44.7059055,37.7756485
97,улица Свердлова,353905,44.7026812,37.7778457
37,Щедринская улица,353905,44.7051634,37.7767468
1,Приморский переулок,353915,44.7026073,37.7720824
12,Щедринская улица,353905,44.7072197,37.7742665
49,Запорожская улица,353915,44.7025536,37.7747690
9,Приморский переулок,353915,44.7019474,37.7725211
51,Запорожская улица,353915,44.7023417,37.7746960
15,Щедринская улица,353905,44.7063227,37.7747316
40,улица Шота Руставели,353915,44.7022143,37.7737663
70А,улица Исаева,353905,44.7034147,37.7791814
41,Щедринская улица,353905,44.7047868,37.7769392
34,улица Шота Руставели,353915,44.7026765,37.7732880
27,Запорожская улица,353905,44.7048853,37.7782414
24,Щедринская улица,353905,44.7067026,37.7753153
32,улица Красина,353905,44.7061295,37.7746169
40,Щедринская улица,353905,44.7054578,37.7772266
57,Щедринская улица,353905,44.7036581,37.7785284
48,улица Серова,353905,44.7053549,37.7762545
49,улица Леженина,353905,44.7051924,37.7779493
85,улица Свердлова,353905,44.7030291,37.7789345
31,улица Леженина,353905,44.7065956,37.7760871
48,Щедринская улица,353905,44.7047223,37.7778445
42,Щедринская улица,353905,44.7052258,37.7772069
51,улица Леженина,353905,44.7050542,37.7782743
46,Щедринская улица,353905,44.7049403,37.7775539
18,Щедринская улица,353905,44.7069372,37.7746933
27,Щедринская улица,353905,44.7057131,37.7757138
39А,улица Леженина,353905,44.7058285,37.7770357
15,Приморский переулок,353915,44.7017453,37.7731688
74,улица Дзержинского,353905,44.7025615,37.7776755
83,улица Свердлова,353905,44.7030664,37.7790663
39,улица Горпищенко,353919,44.6957888,37.7693720
49 кГ,улица Куникова,353910,44.6924118,37.7652736
53Б,улица Карамзина,353923,44.6952029,37.7818830
48А,Мысхакское шоссе,353919,44.6944905,37.7671622
51,Мысхакское шоссе,353919,44.6934758,37.7651288
48/1,Мысхакское шоссе,353919,44.6937984,37.7661635
25,улица Горпищенко,353919,44.6959834,37.7678824
59,улица Прохорова,353915,44.6998182,37.7684133
54,улица Уварова,353919,44.6968014,37.7650301
2,улица Уварова,353915,44.7011576,37.7687573
3,улица Уварова,353919,44.6963339,37.7648523
3,улица Арского,353919,44.6966918,37.7651513
51,улица Прохорова,353915,44.7005940,37.7688444
48,улица Арского,353919,44.6952953,37.7698139
21/1,улица Горпищенко,353919,44.6960663,37.7675775
21Б,улица Арского,353919,44.6954864,37.7664705
43,улица Горпищенко,353919,44.6954842,37.7699506
17,улица Арского,353919,44.6959389,37.7662033
33,улица Горпищенко,353919,44.6957788,37.7686095
3,Физкультурная улица,353915,44.7010837,37.7690802
5,улица Уварова,353919,44.6962195,37.7650155
45,улица Прохорова,353915,44.7009785,37.7692380
41,улица Горпищенко,353919,44.6954828,37.7696866
44,улица Арского,353919,44.6955076,37.7691554
13,улица Арского,353919,44.6961419,37.7660013
9,улица Уварова,353919,44.6959459,37.7654559
11,улица Арского,353919,44.6962442,37.7658435
29,улица Уварова,353919,44.6952742,37.7657475
32А,улица Арского,353919,44.6955981,37.7684783
30А,улица Арского,353919,44.6953937,37.7678193
47,улица Прохорова,353915,44.7008621,37.7691710
57,улица Прохорова,353915,44.7001683,37.7686486
1,улица Уварова,353915,44.7013801,37.7684342
7,улица Уварова,353915,44.7009937,37.7681746
39А,улица Горпищенко,353919,44.6956290,37.7693861
9,улица Арского,353919,44.6963331,37.7657193
52,улица Арского,353919,44.6951571,37.7702257
10,улица Уварова,353915,44.7006327,37.7683336
64,улица Уварова,353919,44.6957852,37.7648979
8,улица Уварова,353915,44.7007402,37.7684284
28,улица Арского,353919,44.6956887,37.7678784
50/4,Мысхакское шоссе,353915,44.7012997,37.7680947
50/10,Мысхакское шоссе,353915,44.7007948,37.7678973
25/1,улица Арского,353919,44.6955185,37.7668902
54,улица Арского,353919,44.6953138,37.7702536
27,улица Арского,353919,44.6950698,37.7687336
62,улица Уварова,353919,44.6958913,37.7646867
6А,улица Уварова,353915,44.7008401,37.7685424
11,улица Уварова,353915,44.7005290,37.7677951
59А,улица Прохорова,353915,44.6999416,37.7683869
13,улица Уварова,353915,44.7003912,37.7677201
58А,улица Уварова,353919,44.6960660,37.7644039
50,Мысхакское шоссе,353919,44.6968928,37.7650153
4,улица Уварова,353915,44.7010687,37.7686681
49,улица Прохорова,353915,44.7007090,37.7690815
40,улица Арского,353919,44.6952991,37.7685278
55,улица Куникова,353923,44.6944081,37.7832242
15,улица Уварова,353919,44.6955346,37.7658833
19,улица Арского,353919,44.6958317,37.7663029
55,улица Карамзина,353923,44.6946321,37.7830949
16,улица Уварова,353915,44.7001249,37.7679553
13,улица Уварова,353919,44.6957264,37.7657593
23,улица Уварова,353919,44.6950237,37.7666648
17,Таганрогская улица,353919,44.6957922,37.7672239
58,улица Уварова,353919,44.6964200,37.7646276
53,улица Прохорова,353915,44.7004385,37.7688249
15,улица Арского,353919,44.6960791,37.7660863
14,улица Уварова,353915,44.7003714,37.7681280
27,улица Уварова,353919,44.6951461,37.7659168
49,улица Куникова,353922,44.6918483,37.7660520
22,улица Арского,353919,44.6956440,37.7674578
25,улица Уварова,353919,44.6950643,37.7661499
5,улица Уварова,353915,44.7011143,37.7682877
1А,улица Уварова,353915,44.7014731,37.7681917
50/6,Мысхакское шоссе,353915,44.7010715,37.7679760
23,улица Горпищенко,353919,44.6960145,37.7677131
25А,улица Арского,353919,44.6952904,37.7673420
12,улица Уварова,353915,44.7004971,37.7682339
20,улица Арского,353919,44.6956391,37.7670624
17,улица Уварова,353919,44.6954088,37.7659693
35,улица Горпищенко,353919,44.6957272,37.7688692
24,улица Арского,353919,44.6955111,37.7674397
3,улица Уварова,353915,44.7012389,37.7683179
50/8,Мысхакское шоссе,353915,44.7008844,37.7680700
21,улица Горпищенко,353919,44.6962204,37.7675529
25,улица Арского,353919,44.6954251,37.7669278
60,улица Уварова,353919,44.6959603,37.7645739
26,улица Арского,353919,44.6956694,37.7676967
36,улица Арского,353919,44.6953114,37.7680800
9,улица Уварова,353915,44.7006509,37.7678794
19,Таганрогская улица,353919,44.6960004,37.7673322
23,улица Арского,353919,44.6954546,37.7667474
37,улица Горпищенко,353919,44.6956436,37.7691757
19А,Таганрогская улица,353919,44.6959691,37.7674830
42,улица Арского,353919,44.6954610,37.7686654
30,улица Арского,353919,44.6955285,37.7679028
32,улица Арского,353919,44.6954990,37.7683926
17А,Таганрогская улица,353919,44.6958264,37.7674066
29А,улица Арского,353919,44.6953539,37.7689364
7,улица Арского,353919,44.6964920,37.7655421
34,улица Арского,353919,44.6953826,37.7682656
38,улица Арского,353919,44.6952284,37.7683802
29,улица Горпищенко,353919,44.6958693,37.7682164
4,улица Коммунаров,353915,44.6999979,37.7682181
46,улица Арского,353919,44.6953708,37.7693846
6,улица Уварова,353915,44.7009343,37.7685780
27,улица Горпищенко,353919,44.6959333,37.7680589
19,улица Уварова,353919,44.6953363,37.7661595
11,улица Уварова,353919,44.6958343,37.7655942
53А,улица Карамзина,353923,44.6956651,37.7827828
7,улица Уварова,353919,44.6960722,37.7652164
31,улица Горпищенко,353919,44.6958575,37.7684522
29,Фабричная улица,353923,44.6994506,37.7756865
14А,улица Снайпера Рубахо,353923,44.6959753,37.7817093
173,улица Видова,353912,44.7417887,37.7257613
171А,улица Видова,353912,44.7420848,37.7265555
171,улица Видова,353912,44.7423199,37.7261099
149,улица Видова,353912,44.7376211,37.7312577
1,улица Лермонтова,353960,44.7664684,37.7284299
4,улица Леднева,353900,44.7227983,37.7726008
6,улица Леднева,353900,44.7226696,37.7725442
179,улица Видова,353912,44.7431311,37.7257956
48,улица Куникова,353920,44.6920392,37.7755172
42А,проспект Ленина,353910,44.6955342,37.7863411
27,Анапское шоссе,353907,44.7287548,37.7589844
29,Анапское шоссе,353907,44.7292509,37.7583873
2,Екатерининская улица,353960,44.7438264,37.7342022
2,улица Дерябина,353924,44.6730737,37.7731970
5,улица Райкунова,353924,44.6727097,37.7741834
2,Анапское шоссе,353907,44.7252936,37.7628834
5,Боровая улица,353991,44.7823910,37.6859917
6,Лесной переулок,353991,44.7826356,37.6891875
10,Лесной переулок,353991,44.7822649,37.6888354
2,Лесной переулок,353991,44.7828197,37.6897588
7,Боровая улица,353991,44.7822181,37.6862066
7А,Уютный переулок,353991,44.7822369,37.6895231
19,улица Пушкина,353991,44.7821459,37.6867692
16,улица 40 лет Октября,353991,44.7776094,37.7107313
5А,Боровая улица,353991,44.7822967,37.6858526
12,Лесной переулок,353991,44.7819570,37.6886394
4,Лесной переулок,353991,44.7828192,37.6894146
3,Уютный переулок,353991,44.7824533,37.6898428
8,Лесной переулок,353991,44.7825045,37.6894537
1,Уютный переулок,353991,44.7826466,37.6899075
7А,Боровая улица,353991,44.7821201,37.6860801
7Б,Боровая улица,353991,44.7820419,37.6859458
19,Цветочная улица,353991,44.7814316,37.7000899
7Б,Цветочная улица,353991,44.7803272,37.7018084
1,Цветочная улица,353991,44.7797911,37.7025516
11А,Цветочная улица,353991,44.7807224,37.7009317
7,Цветочная улица,353991,44.7800253,37.7018054
21,Кубанская улица,353991,44.7815560,37.7005535
15,Цветочная улица,353991,44.7810583,37.7004824
17,Кубанская улица,353991,44.7812184,37.7010447
23А,Кубанская улица,353991,44.7815086,37.7002615
27,Кубанская улица,353991,44.7819609,37.7000374
9,Кубанская улица,353991,44.7805673,37.7019654
19А,Кубанская улица,353991,44.7812040,37.7008062
13,Кубанская улица,353991,44.7809664,37.7014149
3,Кубанская улица,353991,44.7801461,37.7026063
7А,Цветочная улица,353991,44.7804601,37.7016141
25,Кубанская улица,353991,44.7818514,37.7001817
11/1,Цветочная улица,353991,44.7808194,37.7008639
3,Цветочная улица,353991,44.7798676,37.7021979
17,Цветочная улица,353991,44.7811602,37.7003111
9,Цветочная улица,353991,44.7806164,37.7010672
7/1,Цветочная улица,353991,44.7799793,37.7018652
23,Кубанская улица,353991,44.7816415,37.7003335
27А,Кубанская улица,353991,44.7819179,37.6997736
13,Цветочная улица,353991,44.7809763,37.7006657
17А,Кубанская улица,353991,44.7810746,37.7009945
21,Цветочная улица,353991,44.7815322,37.6998289
7А,Цветочная улица,353991,44.7802494,37.7016261
11,Кубанская улица,353991,44.7806691,37.7018249
19,Кубанская улица,353991,44.7813709,37.7007996
15,Кубанская улица,353991,44.7811106,37.7011865
7,Цветочная улица,353991,44.7803859,37.7013182
7,Кубанская улица,353991,44.7804007,37.7022507
11,Цветочная улица,353991,44.7809064,37.7010164
23,Цветочная улица,353991,44.7817134,37.6997439
26,Кубанская улица,353991,44.7819822,37.7006880
16,Кубанская улица,353991,44.7813065,37.7016442
26А,Кубанская улица,353991,44.7820674,37.7005231
2,Кубанская улица,353991,44.7802000,37.7030975
12,Кубанская улица,353991,44.7809675,37.7021098
22,Кубанская улица,353991,44.7816900,37.7010363
6,Кубанская улица,353991,44.7805015,37.7027023
18,Кубанская улица,353991,44.7814530,37.7014815
4,Кубанская улица,353991,44.7802960,37.7029594
24,Кубанская улица,353991,44.7818180,37.7008848
8,Кубанская улица,353991,44.7806305,37.7025402
20,Кубанская улица,353991,44.7815600,37.7012793
30,Кубанская улица,353991,44.7823233,37.7001602
6А,Кубанская улица,353991,44.7804375,37.7028241
14,Кубанская улица,353991,44.7811145,37.7018140
10,Кубанская улица,353991,44.7807405,37.7023515
124А,улица Дзержинского,353915,44.6975348,37.7796374
7,улица Генерала Пиленко,353960,44.7634825,37.7006408
27,Славянская улица,353960,44.7633799,37.7018701
17,Жасминовый переулок,353960,44.7632531,37.7063375
7,Жасминовый переулок,353960,44.7626013,37.7069453
6,Станичная улица,353960,44.7649181,37.7041739
2,Сабельная улица,353960,44.7662432,37.7038332
8,Жасминовый переулок,353960,44.7624330,37.7066578
12,Сабельная улица,353960,44.7656473,37.7024041
17,улица Генерала Пиленко,353960,44.7644036,37.6998951
7,Заставная улица,353960,44.7658016,37.7034030
27,Тополиная улица,353960,44.7646563,37.7078044
14,Мраморная улица,353960,44.7619402,37.7023414
11,улица Генерала Пиленко,353960,44.7638380,37.7002478
6,Родительская улица,353960,44.7635470,37.7047986
24,Станичная улица,353960,44.7636986,37.7016992
27,Заставная улица,353960,44.7645399,37.7008443
15,Жасминовый переулок,353960,44.7631248,37.7065063
7,Станичная улица,353960,44.7651661,37.7039115
14,Православный проезд,353960,44.7657983,37.7010906
1,Атаманская улица,353960,44.7660367,37.7067527
7,Атаманская улица,353960,44.7661661,37.7056973
6,Калиновая улица,353960,44.7625702,37.7017240
4,Родительская улица,353960,44.7637711,37.7046549
7А,Славянская улица,353960,44.7649981,37.7052448
29,Тополиная улица,353960,44.7647783,37.7076320
2,Атаманская улица,353960,44.7655177,37.7062839
16,Тополиная улица,353960,44.7643273,37.7073048
3,Станичная улица,353960,44.7655032,37.7043611
6,Заставная улица,353960,44.7656902,37.7039974
12,Православный проезд,353960,44.7659641,37.7012051
3,Атаманская улица,353960,44.7659200,37.7064559
17,Тополиная улица,353960,44.7638872,37.7084944
13,Тополиная улица,353960,44.7636169,37.7088563
14,Тепличная улица,353960,44.7647863,37.7088372
20,Тепличная улица,353960,44.7643290,37.7095238
9,Атаманская улица,353960,44.7663147,37.7051527
10,Станичная улица,353960,44.7646634,37.7036753
19,Славянская улица,353960,44.7640074,37.7032043
14,Тюльпановая улица,353960,44.7634671,37.7073841
18,Тополиная улица,353960,44.7643731,37.7069827
5,Сабельная улица,353960,44.7662391,37.7026920
3,Тополиная улица,353960,44.7628926,37.7095384
4,Атаманская улица,353960,44.7657730,37.7056430
19,Тополиная улица,353960,44.7640201,37.7084241
14А,Тепличная улица,353960,44.7650388,37.7085454
6,Счастливая улица,353960,44.7643385,37.7058354
12,Станичная улица,353960,44.7645368,37.7033719
16,Станичная улица,353960,44.7642153,37.7029558
16,Сабельная улица,353960,44.7654084,37.7018514
11,Жасминовый переулок,353960,44.7628219,37.7067263
1,Тепличная улица,353960,44.7659019,37.7077315
34,улица Генерала Ткачёва,353960,44.7655408,37.6958283
13А,Русская улица,353960,44.7651399,37.7001980
11,Тополиная улица,353960,44.7634693,37.7089980
19,улица Генерала Пиленко,353960,44.7645686,37.6996026
5,Тополиная улица,353960,44.7630435,37.7093861
22,Станичная улица,353960,44.7638926,37.7020802
15,Гвоздичная улица,353960,44.7632689,37.7055821
20,Станичная улица,353960,44.7640213,37.7024980
18,Сабельная улица,353960,44.7652721,37.7015531
10,Заставная улица,353960,44.7653976,37.7034814
22,Православный проезд,353960,44.7652540,37.7000119
17,Станичная улица,353960,44.7645861,37.7027080
2,улица Генерала Пиленко,353960,44.7627292,37.7006882
13,Тепличная улица,353960,44.7649057,37.7094105
7,Русская улица,353960,44.7641125,37.7011285
10,Родительская улица,353960,44.7630694,37.7051883
4,Хорошая улица,353960,44.7652971,37.7052537
4,Станичная улица,353960,44.7650401,37.7044683
9А,Православный проезд,353960,44.7662818,37.7009353
23,Тополиная улица,353960,44.7643591,37.7080922
15,Мраморная улица,353960,44.7617738,37.7020088
33А,Тополиная улица,353960,44.7652181,37.7076079
10,Русская улица,353960,44.7638609,37.7008177
13,Войсковая улица,353960,44.7662586,37.7002020
5А,Русская улица,353960,44.7640033,37.7012757
5,Жасминовый переулок,353960,44.7624933,37.7070484
10,Жасминовый переулок,353960,44.7625422,37.7064565
1,Сабельная улица,353960,44.7664944,37.7032007
10,Войсковая улица,353960,44.7660462,37.7007050
9,Заставная улица,353960,44.7656662,37.7031984
20,Тополиная улица,353960,44.7645050,37.7068568
13,улица Генерала Пиленко,353960,44.7640506,37.7001818
4,Сабельная улица,353960,44.7662071,37.7034898
25,Тополиная улица,353960,44.7644845,37.7079655
11,Мраморная улица,353960,44.7620266,37.7017365
4,Русская улица,353960,44.7633950,37.7012912
17,Мятная улица,353960,44.7620219,37.7068331
5,Тепличная улица,353960,44.7655699,37.7083296
12,Счастливая улица,353960,44.7639726,37.7063713
23,Заставная улица,353960,44.7647812,37.7012907
3,Жасминовый переулок,353960,44.7623842,37.7071890
14,Жасминовый переулок,353960,44.7627406,37.7061002
10,Атаманская улица,353960,44.7664542,37.7038331
10,Сабельная улица,353960,44.7658082,37.7026596
3,Родительская улица,353960,44.7636241,37.7043607
2,Тепличный переулок,353960,44.7657017,37.7094435
7,Тепличная улица,353960,44.7654492,37.7085266
24А,Сабельная улица,353960,44.7648617,37.7007356
3А,Атаманская улица,353960,44.7659660,37.7062665
9,Станичная улица,353960,44.7650598,37.7036523
5,Атаманская улица,353960,44.7660820,37.7060978
18,Тепличная улица,353960,44.7644624,37.7092995
4,Калиновая улица,353960,44.7626480,37.7018859
9,Донская улица,353960,44.7665646,37.6997899
2Б,Тепличная улица,353960,44.7654726,37.7074724
13,Славянская улица,353960,44.7644010,37.7040104
7,Тепличный переулок,353960,44.7651375,37.7097366
12,Мраморная улица,353960,44.7620017,37.7022262
5,Станичная улица,353960,44.7652966,37.7041698
13,Сабельная улица,353960,44.7657589,37.7014688
15,Тополиная улица,353960,44.7637618,37.7086996
16,Тепличная улица,353960,44.7646337,37.7090540
14,Станичная улица,353960,44.7644102,37.7031463
11,Атаманская улица,353960,44.7664593,37.7049721
25,Славянская улица,353960,44.7636992,37.7023353
9,Жасминовый переулок,353960,44.7627133,37.7068358
8,Станичная улица,353960,44.7647319,37.7039532
17,Славянская улица,353960,44.7641497,37.7035092
15,Заставная улица,353960,44.7652261,37.7023474
9,Тюльпановая улица,353960,44.7636081,37.7077258
7,Тополиная улица,353960,44.7631722,37.7092512
10,Православный проезд,353960,44.7661193,37.7016179
1,Тополиная улица,353960,44.7627552,37.7096942
2,Счастливая улица,353960,44.7646542,37.7055270
3,Тепличная улица,353960,44.7657026,37.7080337
27А,Славянская улица,353960,44.7634293,37.7020630
20,Сабельная улица,353960,44.7651350,37.7012988
1А,Тепличная улица,353960,44.7661904,37.7081582
16,Православный проезд,353960,44.7657384,37.7007831
17,Заставная улица,353960,44.7651227,37.7020826
14,Заставная улица,353960,44.7650918,37.7028806
9,Тополиная улица,353960,44.7633282,37.7091141
25,Станичная улица,353960,44.7640661,37.7016738
9,Тепличная улица,353960,44.7651877,37.7089312
24,Заставная улица,353960,44.7644590,37.7015447
13,Гвоздичная улица,353960,44.7634008,37.7054289
7А,Тепличная улица,353960,44.7659514,37.7089182
6,Войсковая улица,353960,44.7665173,37.7012491
21,Заставная улица,353960,44.7649142,37.7016572
24,Тополиная улица,353960,44.7648497,37.7066614
33,Тополиная улица,353960,44.7651015,37.7073479
6,улица Генерала Пиленко,353960,44.7632526,37.7001113
11,Тепличная улица,353960,44.7650564,37.7091838
28,Заставная улица,353960,44.7642425,37.7011114
9,Славянская улица,353960,44.7646395,37.7044691
6,Сабельная улица,353960,44.7660142,37.7031568
22,Тополиная улица,353960,44.7646726,37.7066884
13,Мраморная улица,353960,44.7619420,37.7018354
9,улица Генерала Пиленко,353960,44.7636911,37.7004455
21,Тополиная улица,353960,44.7641978,37.7082344
13А,Тепличная улица,353960,44.7652882,37.7095025
8,Войсковая улица,353960,44.7664061,37.7011057
18А,Великая улица,353960,44.7461544,37.6968337
18,Великая улица,353960,44.7462290,37.6967633
22,Тепличная улица,353960,44.7641769,37.7097282
4,Тепличный переулок,353960,44.7655582,37.7097550
36,Полевая улица,353960,44.7657507,37.7097656
7Г,Былинная улица,353960,44.7465691,37.6968935
27,Лимонная улица,353960,44.7416950,37.6910630
30А,Апельсиновая улица,353960,44.7415502,37.6907889
10,Благовещенская улица,353925,44.6689647,37.7830691
12,Войсковой проезд,353925,44.6683188,37.7829277
6,Благовещенская улица,353925,44.6692049,37.7824971
13,Благовещенская улица,353925,44.6685036,37.7832809
8,Благовещенская улица,353925,44.6689894,37.7828431
221,проспект Дзержинского,353925,44.6747944,37.7801284
19,Благовещенская улица,353925,44.6681696,37.7844062
10,Войсковой проезд,353925,44.6684770,37.7826032
10,Рыбацкая улица,353913,44.6756736,37.7976728
20,Рыбацкая улица,353913,44.6751400,37.7976816
24А,Рыбацкая улица,353913,44.6748822,37.7980869
32,Рыбацкая улица,353913,44.6743302,37.7977269
28,Рыбацкая улица,353913,44.6744163,37.7979813
32,Рыбацкая улица,353913,44.6742405,37.7981170
34,Рыбацкая улица,353913,44.6741444,37.7979345
36,Рыбацкая улица,353913,44.6737756,37.7980206
48,Рыбацкая улица,353913,44.6735207,37.7982865
50,Рыбацкая улица,353913,44.6734553,37.7981285
52,Рыбацкая улица,353913,44.6732459,37.7982840
86,Рыбацкая улица,353925,44.6722668,37.7996052
36/2,Рыбацкая улица,353913,44.6736918,37.7982283
12,Рыбацкая улица,353913,44.6755617,37.7974232
36/3,Рыбацкая улица,353913,44.6738205,37.7984746
83,Рыбацкая улица,353925,44.6719401,37.8001548
76А,Рыбацкая улица,353925,44.6723964,37.7993446
150,Шоссейная улица,353922,44.6818579,37.7585579
35,Волгоградская улица,353919,44.6860834,37.7664667
123,Волгоградская улица,353922,44.6839790,37.7740572
48,Социалистическая улица,353907,44.7246159,37.7435361
223А,проспект Дзержинского,353925,44.6772395,37.7787060
9А,улица Куникова,353923,44.6940418,37.7833193
11А,улица Куникова,353923,44.6938613,37.7825370
48А,улица Вити Чаленко,353923,44.6939797,37.7795625
12А,улица Карамзина,353910,44.6959369,37.7831819
231,проспект Дзержинского,353925,44.6766493,37.7782605
23,улица Золотая Рыбка,353991,44.7755948,37.6944706
10,улица Бориса Пупко,353934,44.6733047,37.7913892
8,улица Бориса Пупко,353934,44.6739553,37.7915069
110А,Сухумское шоссе,353900,44.7195775,37.8363789
112,Сухумское шоссе,353900,44.7193090,37.8364604
37,Новороссийское шоссе,353991,44.7720534,37.6988877
121,Павловская улица,353900,44.7068323,37.7533828
123/2,Павловская улица,353900,44.7066921,37.7530240
39Д,Анапское шоссе,353907,44.7321350,37.7546994
39В,Анапское шоссе,353907,44.7311740,37.7553691
55А,Новороссийское шоссе,353991,44.7738901,37.6959150
71А,Мысхакское шоссе,353919,44.6918314,37.7601435
61,Мысхакское шоссе,353919,44.6927496,37.7598532
71Б,Мысхакское шоссе,353919,44.6932582,37.7592068
61,Мысхакское шоссе,353919,44.6922603,37.7603138
71/1,Мысхакское шоссе,353919,44.6921366,37.7586761
71А,Мысхакское шоссе,353919,44.6919575,37.7591501
71А,Мысхакское шоссе,353919,44.6919135,37.7596122
71Б,Мысхакское шоссе,353919,44.6933368,37.7590075
71Б,Мысхакское шоссе,353919,44.6931690,37.7594139
57,Мысхакское шоссе,353919,44.6933310,37.7572058
71А,Мысхакское шоссе,353919,44.6917179,37.7597188
56,Анапское шоссе,353907,44.7305933,37.7531211
1,улица Сипягина,353900,44.7200192,37.7693059
23,улица Карла Маркса,353900,44.7172839,37.7788908
4,улица Видова,353900,44.7193443,37.7675731
19,улица Исаева,353905,44.7064244,37.7838267
16,улица Видова,353900,44.7202758,37.7659626
50,улица Советов,353900,44.7176427,37.7777624
36А,улица Свердлова,353912,44.7045488,37.7836475
89,Анапское шоссе,353912,44.7442995,37.7291573
100,улица Видова,353907,44.7256764,37.7541319
217А,проспект Дзержинского,353925,44.6777078,37.7785619
1А,Былинная улица,353960,44.7473126,37.6961420
1,Былинная улица,353960,44.7474127,37.6960606
6,Великая улица,353960,44.7469033,37.6960210
8,Великая улица,353960,44.7468295,37.6961075
10,Великая улица,353960,44.7467885,37.6962107
10А,Великая улица,353960,44.7467151,37.6962791
26,Великая улица,353960,44.7456303,37.6973467
23,улица Победы,353900,44.7193267,37.7703733
25,улица Победы,353900,44.7192350,37.7707554
133,Волгоградская улица,353919,44.6840890,37.7755035
129,Волгоградская улица,353919,44.6841519,37.7751825
27,улица Андрея Рублёва,353919,44.6788619,37.7625805
2333,проспект Дзержинского,353925,44.6741677,37.7794126
240,проспект Дзержинского,353924,44.6708461,37.7781946
4,Благовещенская улица,353925,44.6692394,37.7822908
17,Благовещенская улица,353925,44.6682668,37.7840687
15,Благовещенская улица,353925,44.6684051,37.7837932
244 к9,проспект Дзержинского,353925,44.6689394,37.7778770
244 к7,проспект Дзержинского,353925,44.6685042,37.7769096
95Б к2,проспект Ленина,353924,44.6794989,37.7942208
9А,улица Героев Десантников,353913,44.6883496,37.7882472
5,Первомайская улица,353901,44.7399851,37.7815865
11,Первомайская улица,353901,44.7404280,37.7808537
37,улица Свердлова,353905,44.7052397,37.7838985
29Г,набережная Адмирала Серебрякова,353905,44.7088900,37.7859500
67,Краснознамённый переулок,353900,44.7097679,37.7399475
104,Краснознамённый переулок,353900,44.7093988,37.7392990
111 к2,проспект Ленина,353934,44.6747445,37.7926746
111 к1,проспект Ленина,353934,44.6747773,37.7914856
77,Суворовская улица,353913,44.6911272,37.7914902
79,Суворовская улица,353913,44.6902961,37.7927490
52А,проспект Ленина,353913,44.6894525,37.7928189
4,Межевая улица,353909,44.7430686,37.7619457
2,Межевая улица,353909,44.7430704,37.7608460
6,Межевая улица,353909,44.7426454,37.7619252
3 к2,Мореходный проезд,353993,44.6693920,37.7729509
3 к1,Мореходный проезд,353993,44.6698090,37.7731039
5 к2,Мореходный проезд,353993,44.6701618,37.7739098
ВЧ52522,Военный городок,353993,44.6707246,37.7752539
ВЧ52522,Военный городок,353993,44.6705133,37.7755990
12,улица Мурата Ахеджака,353925,44.6734563,37.7856514
232,проспект Дзержинского,353925,44.6733729,37.7805174
230,проспект Дзержинского,353925,44.6739036,37.7807442
228,проспект Дзержинского,353925,44.6743716,37.7808919
226,проспект Дзержинского,353925,44.6748454,37.7810580
9,Южная улица,353925,44.6757181,37.7835408
45,Пионерская улица,353925,44.6753794,37.7858653
43,Пионерская улица,353925,44.6757974,37.7858798
13,Южная улица,353925,44.6761012,37.7854388
8,улица Мурата Ахеджака,353925,44.6743028,37.7824739
16,улица Черняховского,353905,44.7016325,37.7852326
6,улица Мурата Ахеджака,353925,44.6732427,37.7823420
244 к11,проспект Дзержинского,353925,44.6694475,37.7777397
244 к10,проспект Дзержинского,353925,44.6691531,37.7783419
244 к8,проспект Дзержинского,353925,44.6687101,37.7774007
244 к6,проспект Дзержинского,353925,44.6682721,37.7764385
244 к5,проспект Дзержинского,353925,44.6680306,37.7759613
27 к3,улица Григорьева,353925,44.6687422,37.7841816
27 к2,улица Григорьева,353925,44.6686017,37.7848947
27 к1,улица Григорьева,353925,44.6683369,37.7854140
194,проспект Дзержинского,353925,44.6809610,37.7817678
14,Рыбацкая улица,353913,44.6754831,37.7977504
26,Рыбацкая улица,353913,44.6745738,37.7978632
102,Рыбацкая улица,353925,44.6690859,37.7989409
102,Рыбацкая улица,353925,44.6697635,37.7989625
102,Рыбацкая улица,353925,44.6699478,37.7995503
102,Рыбацкая улица,353925,44.6698232,37.7999326
102,Рыбацкая улица,353925,44.6701531,37.7994139
102,Рыбацкая улица,353925,44.6702302,37.7987261
102,Рыбацкая улица,353925,44.6704201,37.7996995
102,Рыбацкая улица,353925,44.6708071,37.7988438
102,Рыбацкая улица,353925,44.6711525,37.7986473
102,Рыбацкая улица,353925,44.6713718,37.7990157
102,Рыбацкая улица,353925,44.6713018,37.8000387
70,Рыбацкая улица,353925,44.6726026,37.7995587
22,улица Мурата Ахеджака,353934,44.6735446,37.7921560
1,улица Исаева,353905,44.7082219,37.7864952
23,улица Григорьева,353925,44.6690698,37.7836304
21,улица Григорьева,353925,44.6691824,37.7833220
19,улица Григорьева,353925,44.6692644,37.7830833
17,улица Григорьева,353925,44.6693503,37.7827399
15,улица Григорьева,353925,44.6694798,37.7822417
13,улица Григорьева,353925,44.6696974,37.7817475
2,Благовещенская улица,353925,44.6693159,37.7817609
12,Благовещенская улица,353925,44.6688390,37.7834132
14,Благовещенская улица,353925,44.6687885,37.7836506
1,Благовещенская улица,353925,44.6689439,37.7819567
14,Войсковой проезд,353925,44.6682210,37.7832120
9,Благовещенская улица,353925,44.6685949,37.7829250
11,Благовещенская улица,353925,44.6685670,37.7831262
7,Благовещенская улица,353925,44.6686624,37.7827078
5,Благовещенская улица,353925,44.6687577,37.7824449
3,Благовещенская улица,353925,44.6688341,37.7821900
5,улица Бориса Пупко,353924,44.6739467,37.7899855
16 к2,улица Мурата Ахеджака,353924,44.6735832,37.7891520
5 к1,улица Бориса Пупко,353924,44.6740669,37.7891497
18,улица Мурата Ахеджака,353924,44.6732557,37.7899939
18,Екатерининская улица,353960,44.7423583,37.7325211
9,Звонкий переулок,353960,44.7422806,37.7329283
16,Екатерининская улица,353960,44.7426703,37.7329793
14,Екатерининская улица,353960,44.7429191,37.7330718
3,Звонкий переулок,353960,44.7427934,37.7333275
4,Екатерининская улица,353960,44.7433798,37.7337735
10,Звонкий переулок,353960,44.7434144,37.7345794
6,Звонкий переулок,353960,44.7425958,37.7335571
87 кА,Анапское шоссе,353912,44.7428102,37.7289333
7,улица Сорокина,353960,44.7439808,37.7310708
61 кА,Мысхакское шоссе,353919,44.6921615,37.7598343
уч10,"с/т ""Портовик""",353900,44.7019372,37.7597100
7,"с/т ""Швейник""",353900,44.7022298,37.7594060
5,"с/т ""Швейник""",353900,44.7022431,37.7587677
4,"с/т ""Швейник""",353900,44.7022431,37.7584995
7,"с/т ""Портовик""",353900,44.7019724,37.7589126
6,"с/т ""Портовик""",353900,44.7019877,37.7586497
5,"с/т ""Портовик""",353900,44.7019876,37.7584030
3,"с/т ""Портовик""",353900,44.7019953,37.7580114
2,"с/т ""Портовик""",353900,44.7019991,37.7578692
1,"с/т ""Портовик""",353900,44.7020257,37.7577485
3,"с/т ""Швейник""",353900,44.7022469,37.7583252
2,"с/т ""Швейник""",353900,44.7022641,37.7581374
1,"с/т ""Швейник""",353900,44.7023003,37.7579550
уч44,"с/т """"Швейник""""",353900,44.7025348,37.7582876
уч43,"с/т """"Швейник""""",353900,44.7025558,37.7585156
уч42,"с/т """"Швейник""""",353900,44.7025633,37.7587570
уч41,"с/т """"Швейник""""",353900,44.7025824,37.7590632
уч40,"с/т """"Швейник""""",353900,44.7025577,37.7593556
уч39,"с/т """"Швейник""""",353900,44.7025615,37.7595594
77,улица Сокольского,353900,44.7027240,37.7570001
75,улица Сокольского,353900,44.7026839,37.7573085
73,улица Сокольского,353900,44.7026210,37.7575956
уч46,"с/т ""Цементник""",353900,44.7023025,37.7574802
уч45,"с/т ""Цементник""",353900,44.7023407,37.7572388
уч44,"с/т ""Цементник""",353900,44.7023731,37.7570135
65,Ноябрьская улица,353900,44.7024227,37.7563617
уч37,"с/т ""Цементник""",353900,44.7024990,37.7560912
уч36,"с/т ""Цементник""",353900,44.7025601,37.7558257
уч35,"с/т ""Цементник""",353900,44.7026001,37.7555736
уч34,"с/т ""Цементник""",353900,44.7025333,37.7552060
уч33,"с/т ""Цементник""",353900,44.7026516,37.7550076
уч32,"с/т ""Цементник""",353900,44.7026953,37.7547689
21,улица Уварова,353919,44.6951665,37.7664515
5,улица Арского,353919,44.6965993,37.7653531
21,улица Арского,353919,44.6956417,37.7663998
21А,улица Арского,353919,44.6956170,37.7665783
56А,улица Леженина,353905,44.7056569,37.7784579
22,улица Серова,353905,44.7067559,37.7799037
28,улица Серова,353905,44.7064986,37.7793699
3,Запорожская улица,353905,44.7064146,37.7801812
9,Запорожская улица,353905,44.7059495,37.7797695
45,улица Пархоменко,353905,44.7061906,37.7810610
25,Астраханская улица,353907,44.7231052,37.7521579
23,Астраханская улица,353907,44.7231910,37.7522785
21,Астраханская улица,353907,44.7233492,37.7523792
19,Астраханская улица,353907,44.7234778,37.7525039
17,Астраханская улица,353907,44.7236121,37.7526273
15,Астраханская улица,353907,44.7237065,37.7527533
83,Интернациональная улица,353907,44.7209164,37.7413970
85,Интернациональная улица,353907,44.7208545,37.7413260
74 кА,Родниковая улица,353900,44.7005671,37.7577266
76,Родниковая улица,353900,44.7002064,37.7579123
78,Родниковая улица,353900,44.7001253,37.7581939
80,Родниковая улица,353900,44.7000357,37.7584353
82,Родниковая улица,353900,44.6999971,37.7585835
84,Родниковая улица,353900,44.6999876,37.7588866
57,Родниковая улица,353900,44.7002501,37.7571734
59,Родниковая улица,353900,44.7001655,37.7572895
61,Родниковая улица,353900,44.6999586,37.7574779
63,Родниковая улица,353900,44.6998647,37.7576710
65,Родниковая улица,353900,44.6998490,37.7582805
45,Родниковая улица,353900,44.6996702,37.7554045
47,Родниковая улица,353900,44.6996626,37.7556754
49,Родниковая улица,353900,44.6996293,37.7560764
51,Родниковая улица,353900,44.6996511,37.7564412
53,Родниковая улица,353900,44.6996774,37.7569220
39,Родниковая улица,353900,44.6997922,37.7544477
37,Родниковая улица,353900,44.6997813,37.7540165
35,Родниковая улица,353900,44.6999603,37.7534568
33,Родниковая улица,353900,44.7000063,37.7531522
31,Родниковая улица,353900,44.7002217,37.7531397
29,Родниковая улица,353900,44.7003604,37.7529966
27,Родниковая улица,353900,44.7005115,37.7528470
25,Родниковая улица,353900,44.7006822,37.7527535
23,улица Вити Чаленко,353915,44.6961687,37.7783682
16А,улица Уварова,353915,44.7002320,37.7680785
57А,улица Прохорова,353915,44.7002073,37.7682729
1,Таганрогская улица,353915,44.7002406,37.7700512
15А,Таганрогская улица,353915,44.6993645,37.7694706
14А,Таганрогская улица,353915,44.6992130,37.7697401
91,Запорожская улица,353915,44.6988079,37.7703651
41,улица Шота Руставели,353915,44.7019904,37.7735227
43,улица Шота Руставели,353915,44.7017882,37.7738526
45,Запорожская улица,353915,44.7025737,37.7751401
8,улица Холостякова,353905,44.7012428,37.7774518
93,улица Дзержинского,353905,44.7017032,37.7775041
53,улица Исаева,353905,44.7035782,37.7787487
47,улица Исаева,353905,44.7038127,37.7797948
61,улица Корницкого,353905,44.7024048,37.7812244
81А,улица Корницкого,353905,44.7018119,37.7795520
4,Украинская улица,353905,44.7054376,37.7813209
20,Украинская улица,353905,44.7047515,37.7803325
43,улица Исаева,353905,44.7042558,37.7806169
39,улица Исаева,353905,44.7045438,37.7809444
45,улица Свердлова,353905,44.7049601,37.7832763
39,улица Леженина,353905,44.7059514,37.7771489
21А,улица Леженина,353905,44.7073268,37.7750178
48А,улица Леженина,353905,44.7061668,37.7775391
35А,улица Марата,353905,44.7071610,37.7766259
18,Староцемесский переулок,353960,44.7421844,37.7338418
12,Ермацкий переулок,353900,44.7161904,37.7668934
13,улица Декабристов,353900,44.7165699,37.7678474
15,улица Декабристов,353900,44.7164879,37.7679909
14,улица Декабристов,353900,44.7170102,37.7677374
10,улица Декабристов,353900,44.7173247,37.7672640
6,улица Декабристов,353900,44.7174790,37.7670052
2,улица Декабристов,353900,44.7175953,37.7667678
13,улица Максима Горького,353900,44.7172655,37.7683315
15,улица Максима Горького,353900,44.7171874,37.7684294
17,улица Максима Горького,353900,44.7171179,37.7685247
10,Октябрьская улица,353900,44.7149526,37.7700415
15,улица Фисанова,353900,44.7145715,37.7704210
17,улица Фисанова,353900,44.7144299,37.7702574
6,Вальяновский переулок,353900,44.7141669,37.7698316
53,улица Красных Военморов,353900,44.7060537,37.7645907
138-3/1,улица Фисанова,353900,44.7065188,37.7636035
37А,улица Красных Военморов,353900,44.7079485,37.7662697
98,улица Корницкого,353923,44.6983794,37.7718848
35А,Физкультурная улица,353923,44.6976615,37.7721718
37,Физкультурная улица,353923,44.6975300,37.7722027
76А,улица Леселидзе,353923,44.6980953,37.7736390
106,улица Сулеймана Стальского,353923,44.6991315,37.7742144
114,улица Сулеймана Стальского,353923,44.6985872,37.7746729
32,улица Раевского,353923,44.6993933,37.7752675
1,улица Красных Военморов,353900,44.7123455,37.7697858
76,улица Новороссийской Республики,353900,44.7110967,37.7681889
15А,улица Красных Военморов,353900,44.7104533,37.7683136
10,улица 9 Января,353900,44.7198993,37.7656766
22,улица 9 Января,353900,44.7194314,37.7665315
17,улица 9 Января,353900,44.7189931,37.7666669
9,улица 9 Января,353900,44.7194289,37.7659320
5,Профсоюзная улица,353900,44.7192906,37.7645639
62,улица Ленина,353991,44.7824290,37.6856335
82,Прямая улица,353923,44.6937221,37.7783930
2,Октябрьский переулок,353900,44.7087518,37.7607165
121А к1,улица Видова,353907,44.7299168,37.7491189
121А к8,улица Видова,353907,44.7303026,37.7486202
121А к3,улица Видова,353907,44.7304746,37.7493301
21 к1,улица Мурата Ахеджака,353924,44.6717472,37.7901851
21,улица Мурата Ахеджака,353924,44.6722903,37.7904040
10,улица Григорьева,353924,44.6713235,37.7801710
238,проспект Дзержинского,353924,44.6714171,37.7788440
12,улица Котанова,353924,44.6729667,37.7737048
6,улица Дерябина,353924,44.6727058,37.7733252
6,улица Котанова,353924,44.6726891,37.7746286
44,улица Губернатора Волкова,353924,44.6678362,37.7721739
2,Мореходная улица,353924,44.6682616,37.7715888
48,Прибойный переулок,353925,44.6697443,37.7721313
221А,проспект Дзержинского,353925,44.6760703,37.7778564
121А к2,улица Видова,353907,44.7301819,37.7493524
121А к7,улица Видова,353907,44.7305169,37.7481715
121А к5,улица Видова,353907,44.7307796,37.7486281
19,Родительская улица,353960,44.7628790,37.7050141
9,Родительская улица,353960,44.7632369,37.7046526
12,Родительская улица,353960,44.7629979,37.7052388
14,Родительская улица,353960,44.7629241,37.7053011
12,Швартовый переулок,353960,44.7626787,37.7053791
10,Швартовый переулок,353960,44.7625510,37.7055255
8,Швартовый переулок,353960,44.7623299,37.7057777
6,Швартовый переулок,353960,44.7621405,37.7059649
3,Швартовый переулок,353960,44.7621582,37.7063981
7,Швартовый переулок,353960,44.7624182,37.7060743
11,Швартовый переулок,353960,44.7627155,37.7058077
13,Швартовый переулок,353960,44.7629144,37.7055795
14,Ивовый проезд,353960,44.7632214,37.7068936
12,Ивовый проезд,353960,44.7631022,37.7070090
10,Ивовый проезд,353960,44.7629822,37.7071400
6,Ивовый проезд,353960,44.7628426,37.7072642
8,Ивовый проезд,353960,44.7627201,37.7073961
4,Ивовый проезд,353960,44.7625963,37.7075153
18,Ивовый проезд,353960,44.7634525,37.7066846
16,Счастливая улица,353960,44.7636210,37.7065478
15,Ивовый проезд,353960,44.7634979,37.7070784
17,Ивовый проезд,353960,44.7636268,37.7069518
4,Гвоздичная улица,353960,44.7642531,37.7052032
3,Счастливая улица,353960,44.7643493,37.7053207
6,Гвоздичная улица,353960,44.7641527,37.7053090
5,Счастливая улица,353960,44.7642342,37.7054478
7,Счастливая улица,353960,44.7641142,37.7055445
8,Гвоздичная улица,353960,44.7640224,37.7054098
9,Счастливая улица,353960,44.7639540,37.7056416
10,Гвоздичная улица,353960,44.7638719,37.7054998
9,Гвоздичная улица,353960,44.7636576,37.7052533
7,Дивная улица,353960,44.7626934,37.7023578
4,Дивная улица,353960,44.7629774,37.7025261
10,Канатный переулок,353960,44.7622209,37.7051913
14,Канатный переулок,353960,44.7625765,37.7048662
2,Коралловый переулок,353960,44.7620227,37.7009125
4,Коралловый переулок,353960,44.7619512,37.7010394
6,Коралловый переулок,353960,44.7618274,37.7011329
8,Коралловый переулок,353960,44.7617484,37.7012290
10,Коралловый переулок,353960,44.7616510,37.7013453
32,Песочная улица,353960,44.7621408,37.7010766
30,Песочная улица,353960,44.7620391,37.7012108
28,Песочная улица,353960,44.7618394,37.7013653
26,Песочная улица,353960,44.7616388,37.7015332
1,Мартовский переулок,353960,44.7497363,37.7093761
1 к2,Мартовский переулок,353960,44.7492282,37.7097974
6,Кипарисовая улица,353960,44.7489760,37.7105188
2,Кипарисовая улица,353960,44.7484503,37.7109263
4,Кипарисовая улица,353960,44.7489988,37.7110025
21,Мартовский переулок,353960,44.7499619,37.7099491
7,Мартовский переулок,353960,44.7507082,37.7096119
10,Кипарисовая улица,353960,44.7497645,37.7104882
4,Пальмовая улица,353960,44.7484381,37.7132410
10,Пальмовая улица,353960,44.7484266,37.7128611
12,Пальмовая улица,353960,44.7486004,37.7128713
14,Пальмовая улица,353960,44.7488240,37.7128854
24,Пальмовая улица,353960,44.7490408,37.7135637
32 к29,Парковая улица,353960,44.7383017,37.7106786
32 к27,Парковая улица,353960,44.7379825,37.7103194
32 к25,Парковая улица,353960,44.7380939,37.7109279
32 к23,Парковая улица,353960,44.7378350,37.7108403
32 к30,Парковая улица,353960,44.7376996,37.7103887
32 к18,Парковая улица,353960,44.7375874,37.7115307
32 к20,Парковая улица,353960,44.7375809,37.7108776
32 к39,Парковая улица,353960,44.7372962,37.7098581
32 к53,Парковая улица,353960,44.7368855,37.7091851
32 к54,Парковая улица,353960,44.7366280,37.7094139
32 к44,Парковая улица,353960,44.7367993,37.7096450
32 к42,Парковая улица,353960,44.7370788,37.7101685
32 к16,Парковая улица,353960,44.7372874,37.7109360
32 к14,Парковая улица,353960,44.7372797,37.7116297
32 к13,Парковая улица,353960,44.7370267,37.7109494
32 к8,Парковая улица,353960,44.7370235,37.7115811
32 к2,Парковая улица,353960,44.7367790,37.7122191
32 к32,Парковая улица,353960,44.7361577,37.7112556
32 к71,Парковая улица,353960,44.7355619,37.7102462
32 к69,Парковая улица,353960,44.7355038,37.7095535
32 к62,Парковая улица,353960,44.7360839,37.7100226
32 к58,Парковая улица,353960,44.7362929,37.7098024
32 к75,Парковая улица,353960,44.7349604,37.7092224
32 к85,Парковая улица,353960,44.7348952,37.7085449
32 к90,Парковая улица,353960,44.7352184,37.7085642
32 к91,Парковая улица,353960,44.7350212,37.7082702
32 к87,Парковая улица,353960,44.7345668,37.7080591
32 к51,Парковая улица,353960,44.7360700,37.7105129
32 к11,Парковая улица,353960,44.7364022,37.7110760
32 к50,Парковая улица,353960,44.7363277,37.7106656
32 к49,Парковая улица,353960,44.7364951,37.7102628
32 к10,Парковая улица,353960,44.7367549,37.7110279
32 к48,Парковая улица,353960,44.7366139,37.7105542
32 к47,Парковая улица,353960,44.7366503,37.7099795
32 к45,Парковая улица,353960,44.7369041,37.7105241
25 к2,улица Хворостянского,353925,44.6791885,37.7727101
59Б,Мысхакское шоссе,353919,44.6951074,37.7613996
32 к95,Парковая улица,353960,44.7355825,37.7085352
32 к97,Парковая улица,353960,44.7350389,37.7077517
17,улица Мурата Ахеджака,353924,44.6718782,37.7891135
2 к1,улица Котанова,353924,44.6714327,37.7762895
2,улица Котанова,353924,44.6722884,37.7771758
5,улица Удалова,353925,44.6749380,37.7755566
4,улица имени Алексея Матвейкина,353925,44.6757391,37.7761334
1 к1,улица Котанова,353925,44.6737259,37.7772128
1,улица Котанова,353925,44.6750418,37.7778525
1А к2,улица Алексея Матвейкина,353925,44.6778121,37.7763853
1А к4,улица Алексея Матвейкина,353925,44.6773810,37.7777137
1А к3,улица Алексея Матвейкина,353925,44.6776921,37.7770781
21,улица Хворостянского,353925,44.6792394,37.7772934
10,улица Удалова,353925,44.6780815,37.7726424
32 к1,Парковая улица,353960,44.7369154,37.7124475
32 к3,Парковая улица,353960,44.7366427,37.7119907
32 к4,Парковая улица,353960,44.7365063,37.7117624
32 к74,Парковая улица,353960,44.7350984,37.7094482
32 к76,Парковая улица,353960,44.7348225,37.7089966
32 к77,Парковая улица,353960,44.7346845,37.7087708
32 к78,Парковая улица,353960,44.7344651,37.7084289
32 к80,Парковая улица,353960,44.7341891,37.7079774
32 к81,Парковая улица,353960,44.7340512,37.7077515
32 к106,Парковая улица,353960,44.7360252,37.7071160
32 к104,Парковая улица,353960,44.7358327,37.7073575
32 к102,Парковая улица,353960,44.7356498,37.7075988
32 к100,Парковая улица,353960,44.7359837,37.7084519
32 к98,Парковая улица,353960,44.7354547,37.7078518
32 к110,Парковая улица,353960,44.7338699,37.7074398
32 к79,Парковая улица,353960,44.7343271,37.7082032
32 к70,Парковая улица,353960,44.7356954,37.7104768
32 к72,Парковая улица,353960,44.7354286,37.7100155
32 к73,Парковая улица,353960,44.7352951,37.7097847
32 к31,Парковая улица,353960,44.7362943,37.7114844
32 к33,Парковая улица,353960,44.7360212,37.7110268
32 к34,Парковая улица,353960,44.7358845,37.7107982
6А,улица Золотаревского,353922,44.6888972,37.7651238
8А,улица Золотаревского,353922,44.6886704,37.7657689
82,улица Ф.Я. Бурсака,353960,44.7492784,37.7139849
6А,улица Григорьева,353924,44.6703359,37.7802346
5,улица Куникова,353910,44.6948276,37.7865817
49А,улица Куникова,353919,44.6923159,37.7637742
55,улица Куникова,353919,44.6931838,37.7629079
58,улица Лейтенанта Шмидта,353905,44.7065151,37.7833894
121А к4,улица Видова,353907,44.7306272,37.7489791
121А к6,улица Видова,353907,44.7309322,37.7482771
32 к7,Парковая улица,353960,44.7369821,37.7118712
32 к12,Парковая улица,353960,44.7370353,37.7112430
32 к6,Парковая улица,353960,44.7372270,37.7119154
32 к5,Парковая улица,353960,44.7371742,37.7122011
32 к15,Парковая улица,353960,44.7372958,37.7112342
32 к19,Парковая улица,353960,44.7376073,37.7111776
32 к17,Парковая улица,353960,44.7375423,37.7118193
32 к22,Парковая улица,353960,44.7378610,37.7111359
32 к21,Парковая улица,353960,44.7378871,37.7114316
32 к26,Парковая улица,353960,44.7380370,37.7106031
32 к24,Парковая улица,353960,44.7381261,37.7112237
32 к28,Парковая улица,353960,44.7383618,37.7109657
32 к35,Парковая улица,353960,44.7376330,37.7101125
32 к36,Парковая улица,353960,44.7375665,37.7098363
32 к38,Парковая улица,353960,44.7373651,37.7101369
32 к37,Парковая улица,353960,44.7374339,37.7104159
32 к41,Парковая улица,353960,44.7371426,37.7104433
32 к43,Парковая улица,353960,44.7369422,37.7098683
32 к46,Парковая улица,353960,44.7367931,37.7102028
32 к108,Парковая улица,353960,44.7379309,37.7100188
32 к109,Парковая улица,353960,44.7374779,37.7095504
32 к107,Парковая улица,353960,44.7357759,37.7067309
32 к105,Парковая улица,353960,44.7355835,37.7069723
32 к103,Парковая улица,353960,44.7354006,37.7072137
32 к101,Парковая улица,353960,44.7358506,37.7082154
32 к52,Парковая улица,353960,44.7370346,37.7093897
32 к40,Парковая улица,353960,44.7371837,37.7095858
32 к56,Парковая улица,353960,44.7363378,37.7089783
32 к55,Парковая улица,353960,44.7364829,37.7091961
32 к57,Парковая улица,353960,44.7361926,37.7087605
32 к60,Парковая улица,353960,44.7360255,37.7093467
32 к59,Парковая улица,353960,44.7361592,37.7095745
32 к61,Парковая улица,353960,44.7358919,37.7091188
32 к64,Парковая улица,353960,44.7358165,37.7095669
32 к63,Парковая улица,353960,44.7359503,37.7097948
32 к65,Парковая улица,353960,44.7356829,37.7093390
32 к68,Парковая улица,353960,44.7356374,37.7097815
32 к67,Парковая улица,353960,44.7357712,37.7100093
32 к66,Парковая улица,353960,44.7359048,37.7102371
32 к84,Парковая улица,353960,44.7350319,37.7087701
32 к83,Парковая улица,353960,44.7351685,37.7089953
32 к82,Парковая улица,353960,44.7353052,37.7092206
32 к86,Парковая улица,353960,44.7347078,37.7082770
32 к89,Парковая улица,353960,44.7353594,37.7087822
32 к88,Парковая улица,353960,44.7355005,37.7090003
32 к92,Парковая улица,353960,44.7348802,37.7080522
32 к93,Парковая улица,353960,44.7347391,37.7078343
32 к94,Парковая улица,353960,44.7357156,37.7087717
32 к96,Парковая улица,353960,44.7352918,37.7081425
32 к99,Парковая улица,353960,44.7352055,37.7074666
1А к1,улица Алексея Матвейкина,353925,44.6769368,37.7761384
1А,улица Алексея Матвейкина,353925,44.6767447,37.7756462
2 к5,Солнечная улица,353960,44.7502065,37.7295239
2 к4,Солнечная улица,353960,44.7488287,37.7328632
2 к3,Солнечная улица,353960,44.7491163,37.7322194
2 к2,Солнечная улица,353960,44.7493875,37.7315435
2 к1,Солнечная улица,353960,44.7499607,37.7308025
2,Солнечная улица,353960,44.7503468,37.7300709
53 к3,улица Красина,353960,44.7544084,37.7158247
53 к2,улица Красина,353960,44.7537232,37.7165088
17А,Жасминовый переулок,353960,44.7633895,37.7064982
16,Ивовый проезд,353960,44.7633478,37.7067720
20А,Славянская улица,353960,44.7638427,37.7036779
12,Гвоздичная улица,353960,44.7637222,37.7056191
11,Счастливая улица,353960,44.7638206,37.7058069
10,Счастливая улица,353960,44.7640229,37.7060964
11,Узкая улица,353960,44.7640745,37.7062342
14,Счастливая улица,353960,44.7637057,37.7063658
16,Узкая улица,353960,44.7639406,37.7068979
18,Узкая улица,353960,44.7638587,37.7070782
11,Тюльпановая улица,353960,44.7637466,37.7075447
7,Тюльпановая улица,353960,44.7633387,37.7079422
6,Тюльпановая улица,353960,44.7628286,37.7079559
8,Тюльпановая улица,353960,44.7629771,37.7078521
10,Тюльпановая улица,353960,44.7630761,37.7077287
12,Тюльпановая улица,353960,44.7632134,37.7076241
7,Ивовый проезд,353960,44.7629947,37.7075705
5,Ивовый проезд,353960,44.7628741,37.7076790
3,Ивовый проезд,353960,44.7627698,37.7078106
1,Жасминовый переулок,353960,44.7622416,37.7072982
1А,Жасминовый переулок,353960,44.7623214,37.7075193
4А,Жасминовый переулок,353960,44.7622099,37.7068867
6,Жасминовый переулок,353960,44.7623190,37.7067541
13,Жасминовый переулок,353960,44.7629737,37.7066470
9,Ивовый проезд,353960,44.7631358,37.7074340
17,Гвоздичная улица,353960,44.7631198,37.7056469
12,Жасминовый переулок,353960,44.7626841,37.7063881
11,Мятная улица,353960,44.7616973,37.7064268
1,Швартовый переулок,353960,44.7619114,37.7066208
11,Канатный переулок,353960,44.7625782,37.7052832
135,Волгоградская улица,353919,44.6838816,37.7755240
133А,Волгоградская улица,353919,44.6837031,37.7756456
131,Волгоградская улица,353919,44.6841625,37.7753259
29,Лимонная улица,353960,44.7416149,37.6909170
30,Апельсиновая улица,353960,44.7414419,37.6907042
29А,улица Вруцкого,353907,44.7260556,37.7438477
32,улица Куникова,353920,44.6930504,37.7805496
53 к5,улица Красина,353960,44.7548193,37.7161811
53,улица Красина,353960,44.7542920,37.7175129
53 к1,улица Красина,353960,44.7539370,37.7170864
53 к4,улица Красина,353960,44.7549015,37.7168133
24А,Пироговская улица,353906,44.7415802,37.7704821
7,Шиллеровская улица,353907,44.7264331,37.7583554
2,улица Михаила Борисова,353901,44.7377270,37.7781210
39Е,Анапское шоссе,353907,44.7315714,37.7542346
8,Родительская улица,353960,44.7632329,37.7050921
14,Швартовый переулок,353960,44.7628547,37.7054148
5,Гвоздичная улица,353960,44.7638973,37.7049494
18,Славянская улица,353960,44.7636724,37.7038475
6А,Родительская улица,353960,44.7634820,37.7048540
4,Жасминовый переулок,353960,44.7621047,37.7066543
3,Гвоздичная улица,353960,44.7640335,37.7048609
7,Гвоздичная улица,353960,44.7637768,37.7051174
18,Гвоздичная улица,353960,44.7633212,37.7059525
16,Гвоздичная улица,353960,44.7634565,37.7058667
14,Гвоздичная улица,353960,44.7635850,37.7057325
17,Счастливая улица,353960,44.7634184,37.7061322
15,Счастливая улица,353960,44.7635565,37.7060249
13,Счастливая улица,353960,44.7636993,37.7059117
2,Ивовый проезд,353960,44.7623767,37.7077362
2/А,Ивовый проезд,353960,44.7624795,37.7076235
1,Узкая улица,353960,44.7647278,37.7056558
20,Великая улица,353960,44.7460319,37.6969255
28,Великая улица,353960,44.7454870,37.6974910
3,Былинная улица,353960,44.7472286,37.6962537
3А,Былинная улица,353960,44.7471380,37.6963396
7А,Былинная улица,353960,44.7469017,37.6966360
7Б,Былинная улица,353960,44.7468037,37.6967284
15,Былинная улица,353960,44.7461155,37.6973519
21,Былинная улица,353960,44.7456195,37.6979735
2,"03К-370, 4-й километр",353900,44.7375672,37.6777289
50,проспект Ленина,353913,44.6909377,37.7900203
50 к2,проспект Ленина,353913,44.6911863,37.7905571
59В,Мысхакское шоссе,353919,44.6953388,37.7604577
7Б,Первомайская улица,353901,44.7397722,37.7836287
10,Первомайская улица,353901,44.7388748,37.7827794
12,Первомайская улица,353901,44.7392806,37.7820772
2/1,Судостальская улица,353901,44.7414192,37.7852065
247 к1,проспект Дзержинского,353924,44.6723291,37.7785686
2 к2,улица Котанова,353924,44.6718272,37.7759303
27 к1,улица Хворостянского,353925,44.6787619,37.7713957
6,улица Григорьева,353924,44.6703529,37.7798875
14,улица Григорьева,353924,44.6697681,37.7837895
21 к2,улица Мурата Ахеджака,353924,44.6715278,37.7906806
21А к1,Пионерская улица,353925,44.6783697,37.7840745
50 к6,проспект Ленина,353913,44.6914487,37.7903000
6,Солнечная улица,353960,44.7477807,37.7323789
23,Мартовский переулок,353960,44.7498872,37.7099497
25,Мартовский переулок,353960,44.7498318,37.7099503
27,Мартовский переулок,353960,44.7497764,37.7099509
29,Мартовский переулок,353960,44.7497211,37.7099514
31,Мартовский переулок,353960,44.7496657,37.7099520
33,Мартовский переулок,353960,44.7496103,37.7099525
35,Мартовский переулок,353960,44.7495550,37.7099532
37,Мартовский переулок,353960,44.7494996,37.7099537
19,Мартовский переулок,353960,44.7499614,37.7098407
17,Мартовский переулок,353960,44.7499610,37.7097621
15,Мартовский переулок,353960,44.7499605,37.7096832
13,Мартовский переулок,353960,44.7499601,37.7096046
39,Мартовский переулок,353960,44.7494443,37.7099542
11,Мартовский переулок,353960,44.7499598,37.7095257
80,проспект Ленина,353913,44.6752618,37.7954544
33,Волгоградская улица,353919,44.6861677,37.7661916
31,Волгоградская улица,353919,44.6862260,37.7660006
29,Волгоградская улица,353919,44.6862591,37.7658901
27,Волгоградская улица,353919,44.6862972,37.7657664
25,Волгоградская улица,353919,44.6863393,37.7656306
37,улица Унана Аветесяна,353900,44.7448805,37.7923028
41,улица Козлова,353907,44.7260888,37.7589892
24,Южная улица,353924,44.6766963,37.7936533
26,Южная улица,353924,44.6767034,37.7940817
8,улица Котанова,353924,44.6729421,37.7742784
5,улица Леднева,353900,44.7247745,37.7747533
5,улица Леднева,353900,44.7242261,37.7740024
79,Анапское шоссе,353912,44.7413614,37.7330694
95И,проспект Ленина,353924,44.6792431,37.7925579
8,улица Григорьева,353924,44.6708484,37.7799512
3 к1,улица Мурата Ахеджака,353924,44.6719101,37.7819648
3,улица Мурата Ахеджака,353924,44.6719135,37.7811313
25,улица Хворостянского,353925,44.6793811,37.7731826
215,проспект Дзержинского,353925,44.6784511,37.7781167
55 к1,улица Куникова,353919,44.6933086,37.7625012
55 к2,улица Куникова,353919,44.6930063,37.7633145
95,улица Энгельса,353905,44.7068602,37.7836805
93,улица Энгельса,353905,44.7071507,37.7829840
29Д к3,набережная Адмирала Серебрякова,353905,44.7091362,37.7849097
29Д к2,набережная Адмирала Серебрякова,353905,44.7093033,37.7851635
29Д к1,набережная Адмирала Серебрякова,353905,44.7092995,37.7845605
39Г,Анапское шоссе,353907,44.7310214,37.7538438
123,улица Видова,353907,44.7297817,37.7472568
59,Мысхакское шоссе,353919,44.6944611,37.7615093
17,улица Карла Маркса,353900,44.7177944,37.7781699
11Б,улица Сипягина,353900,44.7225724,37.7650064
11,улица Сипягина,353900,44.7217079,37.7665025
3,улица Бирюзова,353900,44.7225140,37.7667494
22,улица Шевченко,353905,44.7093166,37.7835735
7 к1,улица Котанова,353925,44.6736339,37.7743354
7 к3,улица Котанова,353925,44.6736238,37.7733726
7,улица Удалова,353925,44.6747454,37.7765270
12,улица Григорьева,353924,44.6705801,37.7811215
12 к1,улица Григорьева,353924,44.6705801,37.7819645
3А к2,улица Герцена,353921,44.7310272,37.7357722
17,Родительская улица,353960,44.7629322,37.7049236
15,Родительская улица,353960,44.7629717,37.7048853
13,Родительская улица,353960,44.7630702,37.7048094
11,Родительская улица,353960,44.7631097,37.7047711
8,Счастливая улица,353960,44.7641883,37.7059713
9,Узкая улица,353960,44.7642410,37.7060836
4А,Счастливая улица,353960,44.7644631,37.7057142
4,Счастливая улица,353960,44.7645186,37.7056605
21,Пионерская улица,353925,44.6789534,37.7838345
7 к2,улица Котанова,353925,44.6744096,37.7732571
7 к4,улица Котанова,353925,44.6740154,37.7743414
7,улица Котанова,353925,44.6744127,37.7741743
247,проспект Дзержинского,353924,44.6720653,37.7781371
20,бульвар имени Дмитрия Шостаковича,353924,44.6705803,37.7830662
5 к1,улица Мурата Ахеджака,353924,44.6719195,37.7839173
5,улица Мурата Ахеджака,353924,44.6719144,37.7830538
10,бульвар имени Дмитрия Шостаковича,353924,44.6704298,37.7891788
16 к1,улица Мурата Ахеджака,353924,44.6732017,37.7891567
27 к2,улица Хворостянского,353925,44.6791342,37.7719242
27,улица Хворостянского,353925,44.6792755,37.7714886
25 к1,улица Хворостянского,353925,44.6797161,37.7727053
10 к1,улица Удалова,353925,44.6780861,37.7733602
117,Кутузовская улица,353917,44.7154793,37.7515446
32 к9,Парковая улица,353960,44.7367481,37.7113918
95Д,проспект Ленина,353924,44.6796405,37.7924043
95Г,проспект Ленина,353924,44.6794503,37.7934105
1,улица Куникова,353910,44.6943033,37.7869998
47А,улица Куникова,353920,44.6934693,37.7698165
47А к3,улица Куникова,353920,44.6929514,37.7700137
47А к2,улица Куникова,353920,44.6925788,37.7701545
47А к1,улица Куникова,353920,44.6930250,37.7699872
60,улица Энгельса,353915,44.7112769,37.7792870
37,улица Революции 1905 года,353915,44.7125935,37.7730021
3А к1,улица Герцена,353921,44.7311116,37.7351501
3А,улица Герцена,353921,44.7310439,37.7354737
3,Мартовский переулок,353960,44.7503241,37.7094675
217,проспект Дзержинского,353925,44.6783715,37.7791451
9,Пионерская улица,353925,44.6817334,37.7855052
