House number,Street name,Postal code,Latitude,Longitude
1,улица Воровского,354000,43.5857610,39.7186030
7,Ясногорская улица,354054,43.5679949,39.7624771
6,Дивноморская улица,354054,43.5685072,39.7595724
3/2,Речная улица,354200,43.9043479,39.3352839
24Б,Майкопская улица,354220,44.0082910,39.1848232
5,Водораздельная улица,354002,43.5826430,39.7602800
13,Сибирская улица,354204,43.9858540,39.2276570
13,улица Свободы,354203,44.0014234,39.1929440
7,Сибирская улица,354204,43.9803643,39.2336099
16,Приморская улица,354000,43.5738775,39.7279572
19,улица Кольцова,354204,43.9956922,39.2126996
5,Туристская улица,354205,43.9546730,39.2772588
5,Туристская улица,354205,43.9544322,39.2776250
3,Туристская улица,354205,43.9536833,39.2801164
9,Туристская улица,354205,43.9556650,39.2724413
5,Туристская улица,354205,43.9556065,39.2781059
13/18,улица Свободы,354203,44.0038943,39.1961449
48,улица Победы,354200,43.9100182,39.3315288
183,улица Победы,354200,43.9222959,39.3163563
37,Греческая улица,354203,43.9948897,39.2065578
33,Греческая улица,354203,43.9953065,39.2066331
29/2,Платановая улица,354037,43.5116719,39.8662117
5,Платановая улица,354037,43.5124928,39.8656933
48,улица Победы,354200,43.9096461,39.3312060
9,Навагинская улица,354000,43.5882467,39.7236403
11/10,Парковая улица,354000,43.5859006,39.7214752
13Б,улица Карла Либкнехта,354000,43.5907745,39.7216949
48,улица Победы,354200,43.9101584,39.3314629
32/4,Авиационная улица,354340,43.4316017,39.9351261
17/3,Сибирская улица,354204,43.9883274,39.2260859
9,Туристская улица,354205,43.9552409,39.2726257
14,улица Юных Ленинцев,354000,43.5973849,39.7286746
44/1,улица Конституции СССР,354000,43.5998668,39.7319334
53,улица Горького,354000,43.5901070,39.7263631
6,Привокзальный переулок,354200,43.9156001,39.3221344
27,улица 50 лет СССР,354067,43.5161866,39.8713495
34/2 литБ,улица Орджоникидзе,354000,43.5742798,39.7302130
2А,Морской переулок,354000,43.5760492,39.7254521
3,улица Войкова,354000,43.5806512,39.7220637
9Д,Навагинская улица,354000,43.5881472,39.7239985
23,улица Островского,354000,43.5870267,39.7218476
10Б,Московская улица,354000,43.5928604,39.7261765
19/9,Полтавская улица,354053,43.6342098,39.7003246
5,улица 8 Марта,354340,43.4267860,39.9154215
75,улица Горького,354000,43.5929216,39.7274650
9Д,Навагинская улица,354000,43.5882778,39.7241390
40,Парковая улица,354000,43.5879706,39.7182590
2/5а,Курортный проспект,354002,43.5670898,39.7475689
1/1,улица Бестужева,354340,43.4180364,39.9223549
54,Демократическая улица,354340,43.4280816,39.9274748
11,улица Кирова,354000,43.4222099,39.9205416
7Б,Интернациональная улица,354340,43.4200290,39.9231403
151/1,улица Мира,354340,43.4458887,39.9305487
7А,Интернациональная улица,354340,43.4201315,39.9230637
4,переулок Павлова,354200,43.9156524,39.3399285
4Б,Красноармейская улица,354000,43.5959592,39.7192279
9Д,Навагинская улица,354000,43.5884537,39.7241688
9Д,Навагинская улица,354000,43.5883995,39.7241178
85,Главная улица,354213,43.7622480,39.5048168
6/6,улица Роз,354000,43.5864296,39.7190559
96,Львовская улица,354209,43.7271547,39.5674716
108,Курортный проспект,354024,43.5514371,39.7798982
4,улица Конституции СССР,354000,43.5874638,39.7168957
105В,Курортный проспект,354054,43.5494576,39.7797050
3,Навагинская улица,354000,43.5847114,39.7206847
3,Навагинская улица,354000,43.5847077,39.7207902
9/41,улица Следопытов,354004,43.5790662,39.7697066
7/1а,переулок Бестужева,354340,43.4183071,39.9217586
1,Молодёжная улица,354209,43.7294053,39.5483446
42,Львовская улица,354209,43.7304665,39.5495639
2А,Речная улица,354200,43.9040086,39.3341993
15/9,Навагинская улица,354000,43.5910888,39.7255026
9,Донская улица,354068,43.6165152,39.7242567
А-355,улица Аэропорт,354355,43.4487315,39.9379614
47,улица Ульянова,354340,43.4289399,39.9229075
18/1,Сочинское шоссе,354200,43.8946687,39.3505720
19,Московская улица,354000,43.5936969,39.7228346
282/22,улица Ленина,354340,43.4674359,39.9017433
282/22,улица Ленина,354340,43.4674542,39.9016614
5,Фабричная улица,354382,43.4492466,39.9065182
45А,улица Войкова,354000,43.5850773,39.7257758
2,Родниковая улица,454200,43.9134670,39.3343381
5Б,улица Молокова,354340,43.4339027,39.9209988
38,Цветной бульвар,354071,43.6022841,39.7268373
219/2Б,улица Ленина,354364,43.4681687,39.8967975
173А,улица Победы,354200,43.9213367,39.3172269
139,улица Победы,354200,43.9173975,39.3211227
7 кв220,переулок Чехова,354068,43.6200412,39.7245707
1А,Несебрская улица,354000,43.5848926,39.7166758
10/1,улица Метелёва,354002,43.5770489,39.7525279
20,улица Горького,354000,43.5838193,39.7240323
20А,улица Горького,354000,43.5841675,39.7241974
35/1,улица Войкова,354000,43.5840060,39.7250438
40,улица Войкова,354000,43.5837879,39.7254321
9/3,Депутатская улица,354002,43.5706391,39.7379290
10А,улица Ленина,354340,43.4281024,39.9216951
10А,улица Ленина,354340,43.4281844,39.9218156
41/1,переулок Победы,354200,43.9289721,39.3110697
111А,улица Победы,354200,43.9147598,39.3242348
61,Пасечная улица,354000,43.6252961,39.7291335
50А,Авиационная улица,354340,43.4400291,39.9418831
50А,Авиационная улица,354340,43.4401169,39.9419441
2,улица Ленина,354340,43.4265000,39.9244042
64,Каспийская улица,354383,43.4141046,39.9750268
34/3,Авиационная улица,354340,43.4306454,39.9355716
14,улица Мира,354340,43.4387499,39.9136045
1,Береговая улица,354024,43.5702318,39.8053238
11Б,Черноморская улица,354002,43.5690804,39.7321434
1/1,улица Бестужева,354340,43.4182201,39.9224165
1/1,Волжская улица,354053,43.6361132,39.7021804
1/1,улица Бестужева,354340,43.4183793,39.9226234
8А,Кишинёвская улица,354393,43.4505768,39.9424553
11,Навагинская улица,354000,43.5896018,39.7244463
167Б,улица Декабристов,354208,43.6817374,39.6012431
51/3,Молодёжная улица,354209,43.7369675,39.5525255
11,улица Кирова,354340,43.4223043,39.9206435
62 к2,улица Горького,354030,43.5958748,39.7305832
89,Крымская улица,354053,43.6274031,39.6960627
2/4,Приморская улица,354000,43.5787041,39.7194683
15/1,Черноморская улица,354002,43.5667741,39.7372515
20А,Виноградная улица,354008,43.6038361,39.7192001
49,улица Воровского,354000,43.5907046,39.7229552
2/3,Виноградная улица,354000,43.5956881,39.7184843
4,Промышленный переулок,354000,43.6027587,39.7382452
офис 205,улица Молокова 44,354348,43.4351048,39.9204378
офис 205,улица Молокова 44,354348,43.4350783,39.9204865
4,Промышленный переулок,354000,43.6027294,39.7383523
4,Промышленный переулок,354000,43.6027111,39.7382821
офис 205,улица Молокова 44,354340,43.4350848,39.9204485
23/1,Лазурная улица,354364,43.4755777,39.8949592
6,Учительская улица,354002,43.5725299,39.7362344
9,Медовая улица,354340,43.4755342,39.8996100
22,Московская улица,354000,43.5947414,39.7233285
13/2,Навагинская улица,354000,43.5906830,39.7259064
244А,улица Победы,354200,43.9272555,39.3121119
192А,улица Лазарева,354200,43.9259533,39.3111279
18,ул. Воровского,354000,43.5869964,39.7206663
10Б,Московская улица,354000,43.5928346,39.7261624
38А,Демократическая улица,354340,43.4239476,39.9269914
34Б,улица Тимирязева,354068,43.6313957,39.7234224
9Д,Навагинская улица,354000,43.5878869,39.7236570
19,Парковая улица,354000,43.5873959,39.7182682
9А,Крымская улица,354053,43.6375817,39.6993899
22/1В,Виноградная,354000,43.6035120,39.7192342
4,Несебрская улица,354000,43.5833752,39.7180749
31Г,Платановая улица,354037,43.5117989,39.8659294
3,улица Ленина,354340,43.4251583,39.9244536
28,Транспортная улица,354003,43.6052343,39.7495418
6,Северная улица,354000,43.5946481,39.7280245
7,Лвровая,354068,43.6296436,39.7172338
28,улица Голенева,354000,43.6082503,39.7436026
42/2,Демократическая улица,354340,43.4243253,39.9272386
5А,Демократический переулок,354340,43.4239681,39.9261646
5А,Демократический переулок,354340,43.4238774,39.9262841
40,улица Горького,354000,43.5867022,39.7262048
10,Прибрежная улица,354364,43.4747959,39.8934368
61/2,улица Гагарина,354065,43.6092544,39.7277070
1,улица Калинина,354340,43.4303108,39.9136934
14А,Северная улица,354000,43.5950920,39.7252596
12,Навагинская улица,354000,43.5869189,39.7237297
35,улица Горького,354000,43.5867040,39.7255406
42,Парковая улица,354000,43.5881847,39.7178679
25,улица Воровского,354000,43.5882699,39.7210749
20,улица Воровского,354000,43.5875216,39.7212279
1,улица Островского,354000,43.5850334,39.7201170
1/2,улица Воровского,354000,43.5857088,39.7185989
18,улица Воровского,354000,43.5870384,39.7207327
19,Парковая улица,354000,43.5871922,39.7182783
17,Парковая улица,354000,43.5868559,39.7193307
3,улица Воровского,354000,43.5860548,39.7191447
9,улица Островского,354000,43.5857388,39.7208024
19,Парковая улица,354000,43.5866400,39.7186342
5,улица Воровского,354000,43.5865734,39.7196087
14,улица Роз,354000,43.5877746,39.7194299
34,Парковая улица,354000,43.5875836,39.7198812
19,улица Воровского,354000,43.5873974,39.7203365
17,улица Островского,354000,43.5866062,39.7213590
35,улица Островского,354000,43.5879593,39.7224063
25,улица Островского,354000,43.5873581,39.7216684
14,улица Конституции СССР,354000,43.5894020,39.7188541
12,улица Конституции СССР,354000,43.5892805,39.7184630
37,улица Роз,354000,43.5896278,39.7199399
16,улица Конституции СССР,354000,43.5898213,39.7190875
86,Курортный проспект,354054,43.5660687,39.7502673
86 к2,Курортный проспект,354002,43.5664210,39.7493769
40,улица Лазарева,354200,43.9087677,39.3313957
42,улица Лазарева,354200,43.9088857,39.3308275
48,улица Лазарева,354200,43.9097472,39.3295976
67,улица Победы,354200,43.9099402,39.3303431
65,улица Победы,354200,43.9092739,39.3311007
69,улица Победы,354200,43.9104071,39.3295080
60,улица Победы,354200,43.9107753,39.3301737
62,улица Победы,354200,43.9111799,39.3294968
52,улица Лазарева,354200,43.9109819,39.3281185
77,улица Победы,354200,43.9113552,39.3285456
54,улица Лазарева,354200,43.9114216,39.3274237
56,улица Лазарева,354200,43.9117931,39.3268518
83,улица Победы,354200,43.9123256,39.3274448
9,улица Победы,354200,43.9064068,39.3352326
28,улица Победы,354200,43.9089112,39.3337983
20,улица Павлова,354200,43.9091849,39.3328219
99,улица Калараша,354200,43.9102164,39.3350995
111,улица Калараша,354200,43.9107062,39.3359954
48А,улица Павлова,354200,43.9119144,39.3364786
48Б,улица Павлова,354200,43.9118669,39.3368129
77,улица Павлова,354200,43.9118796,39.3351421
75,улица Павлова,354200,43.9110395,39.3341041
11,Изумрудная улица,354200,43.9123275,39.3346549
4,Партизанская улица,354200,43.9113174,39.3335112
6,Партизанская улица,354200,43.9115978,39.3329481
10,Партизанская улица,354200,43.9122186,39.3323783
7А,Родниковая улица,354200,43.9132361,39.3334534
12,Партизанская улица,354200,43.9126424,39.3321171
14,Партизанская улица,354200,43.9129686,39.3317973
16А,Партизанская улица,354200,43.9134290,39.3312490
16,Партизанская улица,354200,43.9143650,39.3310733
68,улица Лазарева,354200,43.9127474,39.3253354
5,улица Единство,354200,43.9124783,39.3413590
9,улица Единство,354200,43.9121692,39.3414748
8,Чистая улица,354200,43.9119017,39.3418537
10,Чистая улица,354200,43.9116454,39.3417658
12,Чистая улица,354200,43.9114783,39.3417482
3,улица Единство,354200,43.9128009,39.3413118
1,улица Единство,354200,43.9129633,39.3413688
1,Чистая улица,354200,43.9128898,39.3417454
4,улица Единство,354200,43.9126967,39.3408343
6,улица Единство,354200,43.9125346,39.3409132
22,улица Согласия,354200,43.9117030,39.3402904
20,улица Согласия,354200,43.9113918,39.3402784
27,улица Согласия,354200,43.9117275,39.3397834
19,улица Согласия,354200,43.9110570,39.3397468
10,Аэродромная улица,354200,43.9080310,39.3373435
101,улица Павлова,354200,43.9144253,39.3374578
6,улица Пугачёва,354200,43.9140103,39.3366864
15,улица Пугачёва,354200,43.9146833,39.3354805
15,улица Пугачёва,354200,43.9147373,39.3361900
89Б,улица Павлова,354200,43.9144831,39.3386588
89А,улица Павлова,354200,43.9146099,39.3389556
24Б,Майкопская улица,354220,44.0083352,39.1848920
24Я к2,Майкопская улица,354220,44.0090065,39.1833436
20,Майкопская улица,354220,44.0100340,39.1845426
24Е,Майкопская улица,354220,44.0086321,39.1853527
25В,улица Ватутина,354220,44.0140888,39.1814798
25Б,улица Ватутина,354220,44.0139251,39.1818859
25А,улица Ватутина,354220,44.0138919,39.1823586
24Е к3,Майкопская улица,354220,44.0092985,39.1838801
24Г к1,Майкопская улица,354220,44.0089242,39.1840847
138,улица Победы,354200,43.9174531,39.3215268
152,улица Победы,354200,43.9186854,39.3204346
1,улица Есауленко,354024,43.5508249,39.7846928
3А,улица Есауленко,354024,43.5499973,39.7835680
108/1,Курортный проспект,354024,43.5503332,39.7845076
1/1,улица Есауленко,354024,43.5511767,39.7837303
4 к3,улица Есауленко,354024,43.5497837,39.7866157
105А/1,Курортный проспект,354054,43.5482997,39.7797546
105/5,Курортный проспект,354054,43.5483168,39.7802220
2А,улица Есауленко,354024,43.5495416,39.7827391
103/2,Курортный проспект,354054,43.5519491,39.7759670
101 к3,Курортный проспект,354054,43.5513548,39.7751344
101 к4,Курортный проспект,354054,43.5519054,39.7752833
101Г,Курортный проспект,354054,43.5517872,39.7768028
4 к1,улица Есауленко,354024,43.5500550,39.7857032
8А,улица Есауленко,354024,43.5515164,39.7859224
96/5 к1,Курортный проспект,354054,43.5554025,39.7723634
96/5 к2,Курортный проспект,354054,43.5550305,39.7732863
96/5 к8,Курортный проспект,354054,43.5554943,39.7730285
96/5 к9,Курортный проспект,354054,43.5555351,39.7715812
100 к2,Курортный проспект,354054,43.5547914,39.7744205
103 к1,Курортный проспект,354054,43.5510413,39.7783623
100 к3,Курортный проспект,354054,43.5544421,39.7769973
108Б,Курортный проспект,354054,43.5530761,39.7770828
108А,Курортный проспект,354054,43.5534317,39.7770898
98/17,Курортный проспект,354024,43.5569246,39.7741272
98/1,Курортный проспект,354054,43.5567554,39.7712497
98/13,Курортный проспект,354054,43.5576228,39.7721435
98/19,Курортный проспект,354054,43.5562621,39.7737097
98/17,Курортный проспект,354054,43.5582366,39.7748287
97,Благодатная улица,354024,43.5571312,39.7780511
99 к9,Курортный проспект,354054,43.5521141,39.7716011
101 к5,Курортный проспект,354054,43.5504758,39.7743011
103/5,Курортный проспект,354054,43.5501926,39.7751890
99/5,Курортный проспект,354054,43.5538387,39.7716339
99/18,Курортный проспект,354054,43.5537497,39.7719368
99/6,Курортный проспект,354054,43.5535906,39.7722546
99 к7,Курортный проспект,354054,43.5527967,39.7738289
96/5 к4,Курортный проспект,354054,43.5555220,39.7735924
100/14,Курортный проспект,354024,43.5569986,39.7788382
57/1,Благодатная улица,354054,43.5563109,39.7774828
98/18А,Курортный проспект,354054,43.5580938,39.7763585
11,аллея Челтенхема,354024,43.5507352,39.7934968
12 к2,Северная улица,354000,43.5943547,39.7259352
12/2,Северная улица,354000,43.5950223,39.7260674
10/3,улица Юных Ленинцев,354000,43.5965735,39.7285447
89Б,улица Горького,354000,43.5965825,39.7291439
10/2,улица Юных Ленинцев,354000,43.5961300,39.7280051
10/3 с1,улица Юных Ленинцев,354000,43.5962764,39.7284912
89/4а,улица Горького,354000,43.5962217,39.7298179
89/4,улица Горького,354000,43.5960705,39.7301588
89 литБ,улица Горького,354000,43.5960462,39.7297267
14/2,улица Юных Ленинцев,354000,43.5974367,39.7293916
14 с1,улица Юных Ленинцев,354000,43.5972608,39.7289181
14/1,улица Юных Ленинцев,354000,43.5971220,39.7283889
14,улица Юных Ленинцев,354000,43.5974090,39.7287330
14/3,улица Юных Ленинцев,354000,43.5973922,39.7300792
14/3,улица Юных Ленинцев,354000,43.5975294,39.7296446
89/1а,улица Горького,354000,43.5969819,39.7303811
23,улица Войкова,354000,43.5828721,39.7237932
3,Навагинская улица,354000,43.5850902,39.7210287
3/4,Навагинская улица,354000,43.5845585,39.7209356
3/3А,Навагинская улица,354000,43.5852632,39.7215136
25А,улица Войкова,354000,43.5832790,39.7241165
26А,Первомайская улица,354000,43.5824406,39.7282767
18,Первомайская улица,354000,43.5836559,39.7269898
24/2,Первомайская улица,354000,43.5829681,39.7276900
24Б,Первомайская улица,354000,43.5828349,39.7277166
22,переулок Горького,354000,43.5848039,39.7285191
56,улица Войкова,354000,43.5859393,39.7272475
11,улица Горького,354000,43.5858256,39.7276266
6,улица Воровского,354000,43.5859819,39.7200283
13,Парковая улица,354000,43.5861797,39.7211487
4,Несебрская улица,354000,43.5834029,39.7182194
14,Несебрская улица,354000,43.5836628,39.7182667
6,улица Воровского,354000,43.5858440,39.7203581
6,улица Воровского,354000,43.5865323,39.7202131
19,улица Островского,354000,43.5868677,39.7217226
13,Навагинская улица,354000,43.5900926,39.7255513
1/2,улица Воровского,354000,43.5859455,39.7181487
7А,улица Роз,354000,43.5861575,39.7184711
6/6А,улица Роз,354000,43.5863351,39.7191541
1/1а,улица Войкова,354000,43.5790449,39.7173325
3,Несебрская улица,354000,43.5818762,39.7184221
1,улица Войкова,354000,43.5804976,39.7193791
1/6,улица Войкова,354000,43.5815202,39.7183548
10,улица Войкова,354000,43.5811636,39.7215075
21,улица Войкова,354000,43.5824315,39.7234143
6А/1,Тоннельная улица,354000,43.5862058,39.7288749
10/4,Тоннельная улица,354000,43.5864329,39.7287072
6Б,Тоннельная улица,354000,43.5857797,39.7293424
21А,Тоннельная улица,354000,43.5873857,39.7289500
41,улица Роз,354000,43.5918463,39.7210575
38,улица Роз,354000,43.5896097,39.7210793
35/1,улица Воровского,354000,43.5890688,39.7216764
20,Зелёный переулок,354000,43.5888099,39.7211197
33,улица Воровского,354000,43.5889882,39.7212143
40,улица Роз,354000,43.5898677,39.7214056
61А,улица Роз,354000,43.5912630,39.7214789
73А,улица Роз,354000,43.5923418,39.7217619
26Б,улица Конституции СССР,354000,43.5925350,39.7219122
24А,улица Конституции СССР,354000,43.5927051,39.7213154
10/1,Северная улица,354000,43.5945439,39.7263948
32А,Парковая улица,354000,43.5871763,39.7198301
34/1,Парковая улица,354000,43.5873190,39.7194642
17,Зелёный переулок,354000,43.5885330,39.7211558
26А,улица Роз,354000,43.5885167,39.7204378
26/1,улица Роз,354000,43.5886144,39.7200850
39А,улица Воровского,354000,43.5896681,39.7219022
22Б,Московская улица,354000,43.5940323,39.7234324
7,Северная улица,354000,43.5939824,39.7269922
7/3,Северная улица,354000,43.5939427,39.7270879
89/1,улица Горького,354000,43.5969951,39.7300263
14/4,улица Юных Ленинцев,354000,43.5972149,39.7296030
68,улица Горького,354000,43.5883437,39.7275352
46А,улица Горького,354000,43.5882472,39.7271710
85/1,улица Горького,354000,43.5939027,39.7278376
89А,улица Горького,354000,43.5964288,39.7301874
2,улица Войкова,354000,43.5804263,39.7211776
5,улица Орджоникидзе,354000,43.5785559,39.7215434
3/8,Приморская улица,354000,43.5780860,39.7208043
2,улица Орджоникидзе,354000,43.5796820,39.7233419
9Л,улица Орджоникидзе,354000,43.5776961,39.7228433
3/14,Приморская улица,354000,43.5756320,39.7238200
1А,Приморская улица,354000,43.5755301,39.7239898
3/14а,Приморская улица,354000,43.5756454,39.7234912
32А,улица Войкова,354000,43.5827293,39.7247044
32Б,Курортный проспект,354000,43.5810376,39.7260196
6,Первомайская улица,354000,43.5819898,39.7252244
3А/1,Первомайская улица,354000,43.5817270,39.7246228
10,Первомайская улица,354000,43.5830276,39.7260741
14А,Первомайская улица,354000,43.5825691,39.7268042
6/2,улица Орджоникидзе,354000,43.5784412,39.7247150
10А,улица Орджоникидзе,354000,43.5775856,39.7257688
6/5,улица Орджоникидзе,354000,43.5788771,39.7253322
20,Парковая улица,354000,43.5880366,39.7187733
50,улица Войкова,354000,43.5849037,39.7268878
54А,улица Войкова,354000,43.5851822,39.7272635
1/1,Тоннельная улица,354000,43.5885720,39.7291179
1/2,Тоннельная улица,354000,43.5884297,39.7291832
4Б,Приморская улица,354000,43.5766617,39.7251287
16/23,улица Войкова,354000,43.5810964,39.7225203
3Б,Приморская улица,354000,43.5786110,39.7207440
8,улица Москвина,354000,43.5794726,39.7213205
19,Виноградная улица,354008,43.5967060,39.7161605
22,улица Орджоникидзе,354000,43.5756186,39.7286956
75 к2,Курортный проспект,354002,43.5716169,39.7344026
4/6,Театральная улица,354000,43.5724544,39.7322036
4/6а,Театральная улица,354000,43.5726726,39.7316898
1А,Комсомольская улица,354000,43.5728280,39.7322510
22/2,Приморская улица,354000,43.5717409,39.7283182
27,улица Орджоникидзе,354000,43.5735265,39.7296853
6Е,Театральная улица,354000,43.5734071,39.7319418
4,Пионерская улица,354000,43.5735211,39.7324314
2А,улица Соколова,354000,43.5740649,39.7277750
15,Приморская улица,354000,43.5736714,39.7264002
15А,Приморская улица,354000,43.5741017,39.7258896
16,Приморская улица,354000,43.5738872,39.7279817
25/2,улица Орджоникидзе,354000,43.5739966,39.7288016
2/3,улица Соколова,354000,43.5741613,39.7282305
15/2,Приморская улица,354000,43.5733431,39.7267775
17А,Приморская улица,354000,43.5729753,39.7271869
1,Приморская улица,354000,43.5755846,39.7251933
3 с9,Приморская улица,354000,43.5753669,39.7244188
11,Приморская улица,354000,43.5747410,39.7251570
2/1,Морской переулок,354000,43.5750465,39.7249529
6/4,Приморская улица,354000,43.5751725,39.7248224
11/1,Театральная улица,354000,43.5746123,39.7306751
34,улица Орджоникидзе,354000,43.5745294,39.7299694
34/2 литА,улица Орджоникидзе,354000,43.5745127,39.7302530
30,улица Орджоникидзе,354000,43.5750993,39.7301001
61,Курортный проспект,354000,43.5753198,39.7306145
67,Курортный проспект,354000,43.5749907,39.7312699
28/2,улица Орджоникидзе,354000,43.5749399,39.7296752
30/1,улица Орджоникидзе,354000,43.5749606,39.7298807
5,Театральная улица,354000,43.5757640,39.7316545
30,Дагомысская улица,354000,43.5991554,39.7378274
8А,Дагомысский переулок,354000,43.5988390,39.7375716
10,Дагомысский переулок,354000,43.5985449,39.7372518
14,улица Чебрикова,354057,43.5981625,39.7348940
2/2,улица Чебрикова,354057,43.5976450,39.7357173
2/3,улица Чебрикова,354057,43.5973958,39.7357667
3,улица Чебрикова,354057,43.5989532,39.7354907
1,улица Чебрикова,354057,43.5986434,39.7359663
2,улица Чебрикова,354057,43.5984502,39.7356673
8,улица Чебрикова,354057,43.5988827,39.7350636
2/1,улица Чебрикова,354057,43.5978075,39.7355232
14/2,улица Чебрикова,354057,43.5980925,39.7352745
42,Дагомысская улица,354000,43.5975984,39.7390101
14А,улица Юных Ленинцев,354000,43.5982587,39.7289735
13А,улица Цюрупы,354008,43.6003187,39.7188218
53А,улица Гагарина,354065,43.6070644,39.7247202
5,улица Макаренко,354003,43.6128698,39.7406053
8,улица 60 лет ВЛКСМ,354003,43.6129852,39.7401376
9,улица Макаренко,354003,43.6128390,39.7411526
3,улица Макаренко,354003,43.6119192,39.7401522
1,улица Макаренко,354003,43.6120284,39.7396921
7,улица Макаренко,354003,43.6121010,39.7408102
13/2,улица Макаренко,354003,43.6127325,39.7424192
6,улица Макаренко,354003,43.6120803,39.7425132
76/4 к1,улица Гагарина,354065,43.6101614,39.7328958
36,улица Голенева,354000,43.6065823,39.7456632
6,улица Бзугу,354054,43.5621532,39.7531022
6,улица Бзугу,354054,43.5625022,39.7520415
96/5 к7,Курортный проспект,354054,43.5560410,39.7704459
96/5,Курортный проспект,354054,43.5564323,39.7687300
96/5,Курортный проспект,354054,43.5562903,39.7696941
96/5,Курортный проспект,354054,43.5556121,39.7693506
96/5,Курортный проспект,354054,43.5569850,39.7687322
96/4,Курортный проспект,354054,43.5573775,39.7702453
99/3,Курортный проспект,354054,43.5551360,39.7675541
99/16,Курортный проспект,354054,43.5535858,39.7685406
94/11,Курортный проспект,354054,43.5580450,39.7679373
94/12,Курортный проспект,354054,43.5580179,39.7684941
96/5 к6,Курортный проспект,354054,43.5586720,39.7699924
96/5г,Курортный проспект,354054,43.5584737,39.7693491
96,Курортный проспект,354054,43.5584195,39.7718761
36,улица Бытха,354054,43.5660604,39.7638117
40,улица Бытха,354054,43.5662133,39.7665629
45,улица Бытха,354054,43.5659479,39.7604248
32,улица Бытха,354054,43.5661092,39.7629893
7,Ворошиловская улица,354054,43.5631602,39.7675445
8,Ворошиловская улица,354054,43.5633498,39.7665272
14,улица Возрождения,354054,43.5631920,39.7648954
38,улица Бытха,354054,43.5656802,39.7650308
10,улица Возрождения,354054,43.5628247,39.7646962
20,Ворошиловская улица,354054,43.5624379,39.7644768
13,Ворошиловская улица,354054,43.5621384,39.7641010
8,улица Возрождения,354054,43.5625907,39.7641857
16,улица Возрождения,354054,43.5638109,39.7649352
18,улица Возрождения,354054,43.5638238,39.7646141
17,улица Возрождения,354054,43.5644614,39.7637195
19,улица Возрождения,354054,43.5651703,39.7639945
21,улица Возрождения,354054,43.5650669,39.7647807
47,улица Бытха,354054,43.5658558,39.7609057
30,улица Бытха,354054,43.5658926,39.7625377
10,Ворошиловская улица,354054,43.5627852,39.7670253
6,Ворошиловская улица,354054,43.5639937,39.7665099
5,Ясногорская улица,354054,43.5672893,39.7634271
3,Ясногорская улица,354054,43.5675280,39.7639219
2,Ясногорская улица,354054,43.5673907,39.7645352
7,Ясногорская улица,354054,43.5680239,39.7625544
1,Дивноморская улица,354054,43.5667811,39.7622391
15,Дивноморская улица,354054,43.5670954,39.7612783
17,Дивноморская улица,354054,43.5668331,39.7606182
9,Ясногорская улица,354054,43.5685699,39.7620546
2,Дивноморская улица,354054,43.5680500,39.7619471
53,улица Бытха,354054,43.5670192,39.7630678
55 к1,улица Бытха,354054,43.5667607,39.7644882
55 к1,улица Бытха,354054,43.5665158,39.7643948
6В,Ясногорская улица,354054,43.5687044,39.7641713
8,Ясногорская улица,354054,43.5684773,39.7631448
12,Ясногорская улица,354054,43.5691123,39.7636921
24,улица Бытха,354054,43.5650967,39.7614246
30/1,улица Бытха,354054,43.5654239,39.7631934
17А,Дивноморская улица,354054,43.5666562,39.7603320
34,Ясногорская улица,354054,43.5670976,39.7677416
90Д,Курортный проспект,354054,43.5634127,39.7578479
8/13,улица Бытха,354054,43.5655038,39.7564486
4,Дивноморская улица,354054,43.5685664,39.7613100
94 к124,Курортный проспект,354054,43.5582636,39.7654775
94/8,Курортный проспект,354054,43.5579789,39.7668599
94 к15,Курортный проспект,354054,43.5579811,39.7663948
94/18,Курортный проспект,354054,43.5593858,39.7675032
96/5 к5,Курортный проспект,354054,43.5591843,39.7701725
94 к123,Курортный проспект,354054,43.5586984,39.7657163
94/1,Курортный проспект,354054,43.5590864,39.7670307
94 к7,Курортный проспект,354054,43.5600522,39.7669510
96/5к10,Курортный проспект,354054,43.5590632,39.7696461
94/25,Курортный проспект,354054,43.5601444,39.7679003
94/51,Курортный проспект,354054,43.5600389,39.7681961
94/52,Курортный проспект,354054,43.5599909,39.7682546
94/53,Курортный проспект,354054,43.5599430,39.7683131
94/54,Курортный проспект,354054,43.5598950,39.7683717
94/55,Курортный проспект,354054,43.5598471,39.7684302
94/56,Курортный проспект,354054,43.5597992,39.7684888
94/57,Курортный проспект,354054,43.5597512,39.7685472
94/58,Курортный проспект,354054,43.5597032,39.7686058
94/59,Курортный проспект,354054,43.5596553,39.7686643
94/8,Курортный проспект,354054,43.5609433,39.7646161
94 к6,Курортный проспект,354054,43.5597690,39.7649835
95/13,Курортный проспект,354054,43.5575575,39.7635085
94/4,Курортный проспект,354054,43.5591963,39.7646443
94/1,Курортный проспект,354054,43.5597420,39.7621184
94/2,Курортный проспект,354054,43.5585798,39.7642986
94/3,Курортный проспект,354054,43.5601487,39.7633570
94 к5,Курортный проспект,354054,43.5604520,39.7640849
94,Курортный проспект,354054,43.5602873,39.7648456
94/3,Курортный проспект,354054,43.5595491,39.7677386
94/7а,Курортный проспект,354054,43.5610687,39.7612891
11/9,Ворошиловская улица,354054,43.5617978,39.7680991
3 с1,Приморская улица,354002,43.5706869,39.7293346
3/8,Гагринская улица,354002,43.5701077,39.7345868
6,Черноморская улица,354002,43.5698774,39.7339513
4,Черноморская улица,354002,43.5695686,39.7341457
4Б,Черноморская улица,354002,43.5691050,39.7345097
75 к5,Курортный проспект,354002,43.5710131,39.7346729
4Д,Черноморская улица,354002,43.5708056,39.7340081
75 к1,Курортный проспект,354002,43.5710582,39.7357678
75Б,Курортный проспект,354002,43.5718375,39.7355087
4,Черноморская улица,354002,43.5690476,39.7352862
2,Депутатская улица,354002,43.5673553,39.7375397
5Б,Депутатская улица,354002,43.5690764,39.7371644
3/5,Гагринская улица,354002,43.5683217,39.7355342
8,Черноморская улица,354002,43.5684811,39.7350412
10,Черноморская улица,354002,43.5680430,39.7351036
14/1А,Черноморская улица,354002,43.5680836,39.7360432
14А,Черноморская улица,354002,43.5681955,39.7357346
5,Гагринская улица,354002,43.5685170,39.7353092
5,Депутатская улица,354002,43.5689353,39.7374117
2,проспект Пушкина,354002,43.5673747,39.7387102
2/1,проспект Пушкина,354002,43.5673661,39.7391401
5А,проспект Пушкина,354002,43.5676668,39.7379831
15А,Черноморская улица,354002,43.5655036,39.7422137
83 к3,Курортный проспект,354054,43.5654246,39.7431769
85/2,Курортный проспект,354054,43.5648558,39.7455174
83Д,Курортный проспект,354054,43.5653667,39.7450958
85/1,Курортный проспект,354054,43.5653377,39.7456919
14,Черноморская улица,354002,43.5665042,39.7387499
78А/1,Курортный проспект,354002,43.5663294,39.7466990
78/10,Курортный проспект,354002,43.5660328,39.7462627
84/1,Курортный проспект,354002,43.5657904,39.7473156
84А,Курортный проспект,354002,43.5656842,39.7474364
78/3,Курортный проспект,354002,43.5666337,39.7463402
78/4,Курортный проспект,354002,43.5682643,39.7458610
78А/3,Курортный проспект,354002,43.5680617,39.7470618
4А,проспект Пушкина,354002,43.5676992,39.7393355
4,проспект Пушкина,354002,43.5680687,39.7393445
4Б,проспект Пушкина,354002,43.5678805,39.7391523
17/1,Черноморская улица,354002,43.5666229,39.7371481
4/1,Гагринская улица,354002,43.5685215,39.7364923
87 к1,Курортный проспект,354054,43.5640894,39.7486468
87 к2,Курортный проспект,354054,43.5638304,39.7473837
89/3,Курортный проспект,354054,43.5639623,39.7539586
87/5,Курортный проспект,354054,43.5627391,39.7499505
83 к7,Курортный проспект,354054,43.5645650,39.7441736
85/4,Курортный проспект,354054,43.5639885,39.7469096
85/3,Курортный проспект,354054,43.5640904,39.7460292
89А,Курортный проспект,354054,43.5635430,39.7508933
87/7,Курортный проспект,354054,43.5629459,39.7506977
87/6,Курортный проспект,354054,43.5634695,39.7505520
6А,улица Бзугу,354054,43.5629387,39.7511028
89/2,Курортный проспект,354054,43.5631847,39.7511733
89/1,Курортный проспект,354054,43.5633570,39.7512148
86 к1,Курортный проспект,354002,43.5674062,39.7487236
83 к4,Курортный проспект,354054,43.5652958,39.7444232
2/5А,улица Яна Фабрициуса,354002,43.5670849,39.7475723
2/5А,улица Яна Фабрициуса,354002,43.5682457,39.7480794
86 к3,Курортный проспект,354002,43.5669472,39.7497263
86 к5,Курортный проспект,354002,43.5674369,39.7497398
2/6д,улица Яна Фабрициуса,354002,43.5684263,39.7500524
2/6г,улица Яна Фабрициуса,354002,43.5684066,39.7503784
4/3,Несебрская улица,354000,43.5837438,39.7174800
4/1,Несебрская улица,354000,43.5836118,39.7174598
13,Альпийская улица,354057,43.5869058,39.7360278
8,улица Докучаева,354057,43.5864114,39.7371851
15,Альпийская улица,354057,43.5872503,39.7357535
19,Альпийская улица,354057,43.5877705,39.7370191
23,Невская улица,354057,43.5922661,39.7354801
33,Альпийская улица,354057,43.5917827,39.7400107
4,Параллельная улица,354000,43.5903550,39.7318384
4/1,Параллельная улица,354000,43.5902169,39.7320595
4А,Параллельная улица,354000,43.5904982,39.7313611
2,Параллельная улица,354057,43.5900472,39.7324239
78,Пластунская улица,354003,43.6094411,39.7378590
13,улица Макаренко,354003,43.6131019,39.7418590
2,Абрикосовая улица,354003,43.6132628,39.7430999
4,Абрикосовая улица,354003,43.6139745,39.7433884
11,улица Макаренко,354003,43.6124035,39.7415408
15,улица Макаренко,354003,43.6135399,39.7415678
6,Абрикосовая улица,354003,43.6143499,39.7435543
8,Абрикосовая улица,354003,43.6147117,39.7437219
16,улица Пирогова,354008,43.6060262,39.7169117
18,улица Пирогова,354008,43.6063483,39.7166371
14,улица Пирогова,354008,43.6057151,39.7171722
6/1,улица Пирогова,354008,43.6052290,39.7177637
6/3,улица Пирогова,354008,43.6053731,39.7181043
2,улица Пирогова,354008,43.6063749,39.7182144
34,улица Пирогова,354008,43.6064482,39.7172190
34,улица Пирогова,354008,43.6066412,39.7170301
61/2,улица Гагарина,354065,43.6092805,39.7276806
26,улица Октября,354037,43.5148364,39.8683097
28,улица Октября,354037,43.5154585,39.8687180
22,улица Октября,354037,43.5138789,39.8681489
6,улица 98-й Железнодорожный Километр,354364,43.4930670,39.8845599
66/3,улица Искры,354066,43.4925964,39.8983128
66/2,улица Искры,354066,43.4922368,39.8995851
29,Абрикосовая улица,354003,43.6187837,39.7460328
28,улица Макаренко,354003,43.6176932,39.7494971
26,Гранатная улица,354068,43.6292080,39.7210642
7,Лавровая улица,354068,43.6297113,39.7173579
1/2,Гранатная улица,354068,43.6290404,39.7218197
1/4,Гранатная улица,354068,43.6288325,39.7224715
36,Донская улица,354068,43.6150836,39.7269802
42,Донская улица,354068,43.6166846,39.7252711
38,Донская улица,354068,43.6160596,39.7257138
32/1,улица Тимирязева,354068,43.6285785,39.7233953
32/2,улица Тимирязева,354068,43.6282458,39.7236032
32/3,улица Тимирязева,354068,43.6283643,39.7243650
30,Пасечная улица,354068,43.6207280,39.7294172
26/1,улица Чехова,354068,43.6202623,39.7237942
61/2,Пасечная улица,354068,43.6247851,39.7293066
61/1,Пасечная улица,354068,43.6259267,39.7288417
10,Абрикосовая улица,354003,43.6150745,39.7438881
45,улица Макаренко,354003,43.6199065,39.7474402
41,улица Макаренко,354003,43.6195617,39.7486438
24к2,Вишнёвая улица,354003,43.6186400,39.7549740
12,Вишнёвая улица,354003,43.6202001,39.7543553
22,Вишнёвая улица,354003,43.6199313,39.7551361
28,Вишнёвая улица,354003,43.6197329,39.7559298
10,Вишнёвая улица,354003,43.6193700,39.7545598
24,Вишнёвая улица,354003,43.6191380,39.7553529
26,Вишнёвая улица,354003,43.6188485,39.7561848
13,Абрикосовая улица,354003,43.6146064,39.7425692
27,Абрикосовая улица,354003,43.6182479,39.7461278
35,улица Макаренко,354003,43.6174054,39.7466536
8,улица Макаренко,354003,43.6125503,39.7434968
12,улица Макаренко,354003,43.6133511,39.7448167
14,улица Макаренко,354003,43.6141369,39.7454278
17,улица Макаренко,354003,43.6138516,39.7443208
19,улица Макаренко,354003,43.6146099,39.7447512
8/9,улица Макаренко,354003,43.6103535,39.7464984
8/7,улица Макаренко,354003,43.6099431,39.7460387
14/8,улица Макаренко,354003,43.6111554,39.7404157
28А,улица Макаренко,354003,43.6112722,39.7403436
38/5,Олимпийская улица,354003,43.6117462,39.7475365
8В,улица Макаренко,354003,43.6109184,39.7439428
8/1а,улица Макаренко,354003,43.6121008,39.7440996
86,"СТ ""Макаренко""",354003,43.6115491,39.7479534
38/4,Олимпийская улица,354003,43.6123779,39.7476011
16,улица Макаренко,354003,43.6143297,39.7465428
78,"СТ ""Макаренко""",354003,43.6112161,39.7498071
57/1,"Олимпийская улица (СТ ""Железобетон"")",354003,43.6113623,39.7506114
57,"Олимпийская улица (СТ ""Железобетон"")",354003,43.6112804,39.7507571
76,"СТ ""Макаренко""",354003,43.6116903,39.7493982
8,улица Пирогова,354008,43.6056668,39.7166668
51,Виноградная улица,354008,43.6050527,39.7191790
3,улица Пирогова,354008,43.6054294,39.7187832
30,Вишнёвая улица,354003,43.6201442,39.7566434
34,Вишнёвая улица,354003,43.6199347,39.7573822
36,Вишнёвая улица,354003,43.6196599,39.7574418
43,улица Шаумяна,354000,43.6117073,39.7561513
14,улица 60 лет ВЛКСМ,354003,43.6157545,39.7410843
16,улица 60 лет ВЛКСМ,354003,43.6158744,39.7417206
21,Абрикосовая улица,354003,43.6168363,39.7436196
17,Абрикосовая улица,354003,43.6163120,39.7433557
14,Абрикосовая улица,354003,43.6161850,39.7441703
22,Абрикосовая улица,354003,43.6162200,39.7452448
20,улица Макаренко,354003,43.6154380,39.7471148
18,улица Макаренко,354003,43.6149393,39.7466520
24,Абрикосовая улица,354003,43.6170551,39.7455535
20,Абрикосовая улица,354003,43.6168924,39.7450869
33,улица Макаренко,354003,43.6169150,39.7466818
18,Абрикосовая улица,354003,43.6164522,39.7447047
31,улица Макаренко,354003,43.6162211,39.7462891
26,Абрикосовая улица,354003,43.6172603,39.7461036
39,улица Макаренко,354003,43.6190529,39.7483148
151А,Пластунская улица,354003,43.6180143,39.7405495
80,"СТ ""Макаренко""",354003,43.6112414,39.7492548
81,"СТ ""Макаренко""",354003,43.6112142,39.7490251
79,"СТ ""Макаренко""",354003,43.6112543,39.7494581
91,"Олимпийская улица (СТ ""Железобетон"")",354003,43.6108829,39.7507896
8Е,улица Макаренко,354003,43.6110615,39.7444225
7,Вишнёвая улица,354003,43.6208366,39.7529062
27,Вишнёвая улица,354003,43.6226390,39.7506211
19,Вишнёвая улица,354003,43.6225298,39.7515811
15,Вишнёвая улица,354003,43.6225790,39.7529193
25,Вишнёвая улица,354003,43.6230411,39.7507806
17,Вишнёвая улица,354003,43.6222762,39.7524116
13,Вишнёвая улица,354003,43.6221517,39.7534747
21,Вишнёвая улица,354003,43.6230469,39.7523830
23,Вишнёвая улица,354003,43.6229185,39.7518182
5А,Анапская улица,354008,43.6334985,39.7041120
8/8,Анапская улица,354008,43.6346097,39.7034262
10А к1,Теневой переулок,354053,43.6410036,39.7019003
22/2,улица Возрождения,354054,43.5643747,39.7649702
22/3,улица Возрождения,354054,43.5644629,39.7651106
15/3,улица Возрождения,354054,43.5640511,39.7627915
15/2,улица Возрождения,354054,43.5640474,39.7631454
8/11,улица Бытха,354054,43.5657549,39.7569299
8/12,улица Бытха,354054,43.5656243,39.7566386
41,улица Бытха,354054,43.5650696,39.7593593
8,улица Бытха,354054,43.5673644,39.7564611
8Б,улица Бытха,354054,43.5673133,39.7556510
4/8а,улица Бытха,354054,43.5671156,39.7555981
90/12,улица Бытха,354054,43.5671026,39.7546483
15/4,улица Возрождения,354054,43.5635555,39.7623630
15/1,улица Возрождения,354054,43.5634198,39.7631065
13/1,Ворошиловская улица,354054,43.5617530,39.7639183
41/17,улица Бытха,354054,43.5662748,39.7584982
41/18,улица Бытха,354054,43.5662755,39.7589898
41А/1,улица Бытха,354054,43.5649020,39.7587321
90/6Б,Курортный проспект,354054,43.5647986,39.7562387
41/6,улица Бытха,354054,43.5660087,39.7586305
17,улица Бытха,354054,43.5675687,39.7580613
15,улица Бытха,354054,43.5676779,39.7577057
30Б,Дивноморская улица,354054,43.5675837,39.7593120
3/1,улица Бытха,354054,43.5686204,39.7565182
41/9,улица Бытха,354054,43.5667487,39.7583262
41/12,улица Бытха,354054,43.5672713,39.7580504
41/18а,улица Бытха,354054,43.5664865,39.7589433
41/26,улица Бытха,354054,43.5665760,39.7593715
19Д,улица Бытха,354054,43.5666068,39.7584073
41/13,улица Бытха,354054,43.5672213,39.7585962
41/28а,улица Бытха,354054,43.5671604,39.7591270
39Б,улица Бытха,354054,43.5678341,39.7586092
39А,улица Бытха,354054,43.5677315,39.7589145
19,Ясногорская улица,354054,43.5690717,39.7627624
13А,Ясногорская улица,354054,43.5695779,39.7618691
99/14,Курортный проспект,354054,43.5538897,39.7696032
99/15,Курортный проспект,354054,43.5535646,39.7694210
99/17а,Курортный проспект,354054,43.5540430,39.7690635
99/17,Курортный проспект,354054,43.5543079,39.7692973
99/2,Курортный проспект,354054,43.5568772,39.7651398
95/53,Курортный проспект,354054,43.5585088,39.7601208
99/13,Курортный проспект,354054,43.5540169,39.7709354
99/12,Курортный проспект,354054,43.5534198,39.7708497
91Б к1,Курортный проспект,354054,43.5606416,39.7584370
91Б к2,Курортный проспект,354054,43.5607452,39.7590052
91Б литД,Курортный проспект,354054,43.5600208,39.7584377
91/6,Курортный проспект,354054,43.5610769,39.7563941
91/11,Курортный проспект,354054,43.5612830,39.7561156
91Б литМ,Курортный проспект,354054,43.5618955,39.7575511
91Б к3,Курортный проспект,354054,43.5615634,39.7580409
2/32,улица Яна Фабрициуса,354002,43.5704015,39.7483955
2/5Д,улица Яна Фабрициуса,354002,43.5687204,39.7468370
4,улица Яна Фабрициуса,354002,43.5701196,39.7473394
4/6,улица Яна Фабрициуса,354002,43.5707764,39.7477964
4/12,улица Яна Фабрициуса,354002,43.5711542,39.7481863
4/14,улица Яна Фабрициуса,354002,43.5712875,39.7482411
4/4,улица Яна Фабрициуса,354002,43.5710054,39.7478559
16Б,улица 20-й Горнострелковой Дивизии,354054,43.5690405,39.7558151
2/8,улица Яна Фабрициуса,354002,43.5690118,39.7486855
2/6п,улица Яна Фабрициуса,354002,43.5689873,39.7506474
21,улица 20-й Горнострелковой Дивизии,354054,43.5695086,39.7539231
2/8,улица Яна Фабрициуса,354002,43.5688421,39.7490845
2/6Ж,улица Яна Фабрициуса,354002,43.5686689,39.7505685
2/6Б,улица Яна Фабрициуса,354002,43.5681943,39.7504106
2/6а,улица Яна Фабрициуса,354002,43.5680706,39.7503668
2/6е,улица Яна Фабрициуса,354002,43.5686805,39.7501378
2/25,улица Яна Фабрициуса,354002,43.5704741,39.7528006
2/30,улица Яна Фабрициуса,354002,43.5703281,39.7488188
2/31а,улица Яна Фабрициуса,354002,43.5698544,39.7490855
2/6м,улица Яна Фабрициуса,354002,43.5691262,39.7510558
2/34,улица Яна Фабрициуса,354002,43.5709139,39.7490835
2/22,улица Яна Фабрициуса,354002,43.5702177,39.7515414
12/2,Ломоносовская улица,354054,43.5696348,39.7536174
2/20В,улица Яна Фабрициуса,354002,43.5706987,39.7516338
16,улица 20-й Горнострелковой Дивизии,354054,43.5688876,39.7554967
20,улица 20-й Горнострелковой Дивизии,354004,43.5696291,39.7566710
44,улица 20-й Горнострелковой Дивизии,354054,43.5703275,39.7568201
52,улица 20-й Горнострелковой Дивизии,354054,43.5706981,39.7567025
39/1,улица 20-й Горнострелковой Дивизии,354054,43.5697208,39.7554478
37/1,улица 20-й Горнострелковой Дивизии,354054,43.5697830,39.7551105
22,Ломоносовская улица,354054,43.5700870,39.7548781
20,Ломоносовская улица,354054,43.5700490,39.7546855
16В,улица 20-й Горнострелковой Дивизии,354054,43.5691307,39.7559287
183,Транспортная улица,354054,43.5692747,39.7560764
24,улица 20-й Горнострелковой Дивизии,354054,43.5698892,39.7561992
41,улица 20-й Горнострелковой Дивизии,354054,43.5700344,39.7555827
26/1,улица 20-й Горнострелковой Дивизии,354054,43.5702720,39.7564489
5/1,Ломоносовская улица,354054,43.5705225,39.7544882
41Б,Коммунальная улица,354054,43.5694773,39.7575548
56,улица 20-й Горнострелковой Дивизии,354054,43.5706335,39.7569386
2/40,улица Яна Фабрициуса,354002,43.5726415,39.7476047
2/40а,улица Яна Фабрициуса,354002,43.5726090,39.7478585
16/1,Загородная улица,354053,43.6294305,39.7023358
40,Волжская улица,354053,43.6314045,39.6998892
60,Яблочная улица,354053,43.6373379,39.7066634
70,Яблочная улица,354053,43.6374889,39.7067366
53/4,улица Плеханова,354008,43.6246120,39.7012216
53/6,улица Плеханова,354008,43.6247072,39.7016397
53/10,улица Плеханова,354008,43.6248371,39.7023031
53/11,улица Плеханова,354008,43.6248469,39.7025897
53/7,улица Плеханова,354008,43.6247997,39.7020323
42/1,улица Плеханова,354053,43.6247549,39.6978849
25А,Ясная улица,354053,43.6248867,39.6975418
9А,улица Плеханова,354053,43.6286852,39.7078882
6,Инжирная улица,354008,43.6156300,39.7124030
6,Восточная улица,354068,43.6314747,39.7158693
43А,Виноградная улица,354008,43.6025016,39.7138655
22,улица Пирогова,354008,43.6060509,39.7157903
24,улица Пирогова,354008,43.6064371,39.7156987
20,улица Пирогова,354008,43.6057208,39.7150994
6/2,улица Пирогова,354008,43.6050921,39.7174637
22,Виноградная улица,354008,43.6049376,39.7197321
41,улица Островского,354000,43.5886262,39.7232329
5,улица Пирогова,354008,43.6049597,39.7163408
12/1,улица Пирогова,354008,43.6053692,39.7166152
5 к1,улица Пирогова,354008,43.6050956,39.7159504
34/6,улица Пирогова,354008,43.6076265,39.7156683
36/9,переулок Рахманинова,354008,43.6077408,39.7151495
36/8,переулок Рахманинова,354008,43.6078859,39.7149458
36/12,переулок Рахманинова,354008,43.6074875,39.7158966
2/3,улица Пирогова,354008,43.6069233,39.7176891
34/2,улица Пирогова,354008,43.6072100,39.7166294
34/3,улица Пирогова,354008,43.6073113,39.7163800
25/10,переулок Рахманинова,354008,43.6078445,39.7161143
85/1,Виноградная улица,354008,43.6118759,39.7202113
43В,Виноградная улица,354008,43.6037777,39.7153408
25/13,переулок Рахманинова,354008,43.6078920,39.7158067
27/6,улица Плеханова,354053,43.6267539,39.7029642
29/3,улица Плеханова,354053,43.6261157,39.7022572
29/1,улица Плеханова,354053,43.6263274,39.7027844
37,Инжирная улица,354008,43.6143012,39.7065256
43Б,улица Плеханова,354053,43.6253851,39.7006195
188,Пластунская улица,354003,43.6311343,39.7493685
183А,Пластунская улица,354055,43.6374351,39.7516670
75Д,Курортный проспект,354002,43.5700405,39.7374461
7/17,Депутатская улица,354002,43.5694708,39.7373132
43,Тоннельная улица,354000,43.5857715,39.7320923
29,Тоннельная улица,354000,43.5861737,39.7313649
45А,Тоннельная улица,354000,43.5864337,39.7317260
41,Тоннельная улица,354000,43.5855561,39.7322413
1Б,улица Яна Фабрициуса,354002,43.5696674,39.7458060
2/5А,Молодогвардейская улица,354000,43.5875735,39.7480112
1 к4,улица Калинина,354340,43.4313656,39.9152651
1А/2,улица Яна Фабрициуса,354002,43.5695968,39.7460455
17,Вишнёвый переулок,354003,43.6304109,39.7525933
18,Вишнёвый переулок,354003,43.6301581,39.7530363
14,Вишнёвый переулок,354003,43.6301944,39.7520011
14А,Вишнёвый переулок,354003,43.6302505,39.7517560
13,Вишнёвый переулок,354003,43.6300745,39.7522924
83,Вишнёвый переулок,354003,43.6296793,39.7522088
15,Вишнёвый переулок,354003,43.6304805,39.7520811
16,Вишнёвый переулок,354003,43.6304986,39.7523134
8,Вишнёвый переулок,354003,43.6296813,39.7535787
20,Вишнёвый переулок,354003,43.6300203,39.7536442
80,Вишнёвый переулок,354003,43.6295490,39.7529864
24,Вишнёвый переулок,354003,43.6303370,39.7528131
163А,Пластунская улица,354003,43.6278057,39.7472366
6А,Вертолётный переулок,354003,43.6263879,39.7484798
161/11,Пластунская улица,354003,43.6257934,39.7463822
154,Пластунская улица,354003,43.6276386,39.7478999
47,Амбулаторный переулок,354003,43.6254189,39.7503415
77/1,Амбулаторный переулок,354003,43.6260422,39.7495897
7А,Амбулаторный переулок,354003,43.6259166,39.7492702
7/4,Амбулаторный переулок,354003,43.6258889,39.7503817
7/6,Амбулаторный переулок,354003,43.6259097,39.7510198
9,Вертолётный переулок,354003,43.6270820,39.7493929
164А/1,Пластунская улица,354003,43.6282381,39.7491822
164В,Пластунская улица,354003,43.6283519,39.7493496
164А,Пластунская улица,354003,43.6280388,39.7492960
68,Яблочная улица,354053,43.6377605,39.7065848
64,Яблочная улица,354053,43.6376321,39.7062298
29/9,Яблочная улица,354053,43.6374889,39.7062071
13А,Целинная улица,354053,43.6352063,39.7107940
45,Коммунальная улица,354054,43.5703693,39.7578644
49,Коммунальная улица,354054,43.5702905,39.7582208
43,Коммунальная улица,354054,43.5703001,39.7578105
69,Коммунальная улица,354054,43.5716813,39.7588757
65,Коммунальная улица,354054,43.5713420,39.7587982
61А,Коммунальная улица,354054,43.5710864,39.7583482
171,Транспортная улица,354054,43.5713527,39.7582405
8/4,аллея Челтенхема,354024,43.5574773,39.7957828
8/3,аллея Челтенхема,354024,43.5574894,39.7953356
8/5И,аллея Челтенхема,354024,43.5576075,39.7949876
8А,аллея Челтенхема,354024,43.5585386,39.7951327
137,Новороссийское шоссе,354024,43.5387010,39.8059973
37А,улица Роз,354000,43.5896137,39.7214917
54/11,улица Воровского,354000,43.5905909,39.7234449
2,Жемчужная улица,354348,43.4330084,39.9202769
47,улица Ульянова,354340,43.4289137,39.9228727
25В,улица Павлика Морозова,354340,43.4258207,39.9209418
5А,Демократический переулок,354340,43.4238358,39.9261739
31А,улица Крупской,354340,43.4239534,39.9180273
6А,улица Бестужева,354340,43.4194068,39.9225048
10,улица Бестужева,354340,43.4192209,39.9227645
21,улица Свердлова,354340,43.4273020,39.9171430
33Б,улица Богдана Хмельницкого,354340,43.4272972,39.9177645
37Б,улица Ленина,354340,43.4276196,39.9204792
71,улица Калинина,354340,43.4300962,39.9158643
22,улица Бестужева,354340,43.4198796,39.9227140
16,улица Бестужева,354340,43.4195163,39.9229088
84,Демократическая улица,354350,43.4301838,39.9295876
42,Авиационная улица,354340,43.4297674,39.9327710
116А,улица Просвещения,354340,43.4399861,39.9073368
8,переулок Богдана Хмельницкого,354340,43.4253248,39.9167514
28,улица Крупской,354340,43.4240495,39.9192318
19А,Авиационная улица,354340,43.4323627,39.9341921
99,улица Ленина,354340,43.4414163,39.9087068
38В,Демократическая улица,354340,43.4238510,39.9267624
100,Курортный проспект,354054,43.5553824,39.7766331
6А,улица Есауленко,354024,43.5500624,39.7877977
103А,Курортный проспект,354054,43.5484519,39.7762064
15А,Платановая улица,354037,43.5111570,39.8660491
4/4,Платановая улица,354037,43.5109956,39.8681235
31Д,Платановая улица,354037,43.5116850,39.8660402
1/4,улица Октября,354037,43.5116283,39.8672133
147,"СТ ""Южное""",354037,43.5164106,39.8782129
153,Каштановая улица,354037,43.5169723,39.8781814
8/1,Привольный переулок,354037,43.5141560,39.8686477
86А,Курортный проспект,354054,43.5625287,39.7503045
89Б,Курортный проспект,354054,43.5624027,39.7509175
91Б литН,Курортный проспект,354054,43.5615263,39.7574651
66,Политехническая улица,354008,43.6122253,39.7045647
23,улица Фадеева,354053,43.6312832,39.7047527
5,улица Фадеева,354053,43.6300647,39.7025766
19А,Анапская улица,354053,43.6334739,39.6998199
25,улица Фадеева,354053,43.6313872,39.7052606
27,улица Фадеева,354053,43.6313856,39.7055432
27А,улица Фадеева,354053,43.6312981,39.7058313
195/16,Виноградная улица,354053,43.6315960,39.7074848
31А,улица Фадеева,354053,43.6318009,39.7063084
31,улица Фадеева,354053,43.6315455,39.7063515
36,улица Фадеева,354053,43.6312066,39.7068544
27А,улица Тимирязева,354068,43.6331360,39.7252852
57,улица Тимирязева,354068,43.6352620,39.7273750
34Б к1,улица Тимирязева,354068,43.6311902,39.7240021
34Б,улица Тимирязева,354068,43.6311775,39.7233764
59,улица Тимирязева,354068,43.6362799,39.7275623
81,улица Просвещения,354340,43.4617381,39.8979941
219,улица Ленина,354364,43.4662160,39.8974272
41,Медовая улица,354340,43.4748522,39.9008272
286/4,улица Ленина,354382,43.4770018,39.8992061
2/36б,улица Яна Фабрициуса,354002,43.5717796,39.7476164
2/36а,улица Яна Фабрициуса,354002,43.5717128,39.7478111
2/26А,улица Яна Фабрициуса,354002,43.5713217,39.7498683
2/22Ж,улица Яна Фабрициуса,354002,43.5711698,39.7531448
2/36д,улица Яна Фабрициуса,354002,43.5721825,39.7478989
2/36Д,улица Яна Фабрициуса,354002,43.5721661,39.7480671
2/36г,улица Яна Фабрициуса,354002,43.5719027,39.7493142
45Г,Пятигорская улица,354000,43.5863762,39.7501882
25,улица Лизы Чайкиной,354000,43.5936213,39.7479716
6/5,Жемчужная улица,354340,43.4377073,39.9173684
40/1А,улица Гастелло,354340,43.4481833,39.9169701
30А,улица Гастелло,354340,43.4481174,39.9162267
40,улица Гастелло,354340,43.4486473,39.9176358
40/3а,улица Гастелло,354340,43.4479161,39.9165885
41,улица Гастелло,354340,43.4522494,39.9179280
35,улица Гастелло,354340,43.4515515,39.9176582
37,улица Гастелло,354340,43.4518093,39.9174906
39,улица Гастелло,354340,43.4519594,39.9178466
21Б,улица Гастелло,354340,43.4531038,39.9180485
42/2,улица Гастелло,354340,43.4518759,39.9195436
103,улица Ленина,354340,43.4420836,39.9084133
12,улица Гастелло,354340,43.4439935,39.9109202
30А литИ,улица Гастелло,354340,43.4452146,39.9171519
29,улица Гастелло,354340,43.4504315,39.9173919
44В,Крымская улица,354053,43.6318774,39.6949750
3/2,улица Фадеева,354053,43.6297439,39.7024684
11В,улица Плеханова,354053,43.6279500,39.7085620
195/10,Виноградная улица,354053,43.6310942,39.7085234
23,"ЖСТ ""Чаевод""",354207,43.6540699,39.6793121
123/37,Батумское шоссе,354207,43.6507608,39.6948073
327,улица Славы,354207,43.6505137,39.6943417
123/31,Батумское шоссе,354207,43.6504431,39.6941506
123/41,Батумское шоссе,354207,43.6512154,39.6955951
123/39,Батумское шоссе,354207,43.6510959,39.6954755
123/45,Батумское шоссе,354207,43.6514535,39.6958340
148,улица Ленина,354340,43.4396289,39.9109572
44,улица Богдана Хмельницкого,354340,43.4272696,39.9189910
141,Вишнёвый переулок,354003,43.6240202,39.7585463
86,Вишнёвая улица,354003,43.6240000,39.7565877
12,Вишнёвая улица,354003,43.6247831,39.7540180
18,Вертолётный переулок,354003,43.6266711,39.7501977
22/1,Вертолётный переулок,354003,43.6266241,39.7509306
22,Вертолётный переулок,354003,43.6266626,39.7507264
88,Вишнёвая улица,354003,43.6238097,39.7565053
29,Вишнёвая улица,354003,43.6247033,39.7550824
11,Вишнёвая улица,354003,43.6246202,39.7543868
8,Вишнёвая улица,354003,43.6243862,39.7552209
10,Вишнёвая улица,354003,43.6245881,39.7546336
27А,Вишнёвая улица,354003,43.6248770,39.7543335
85,Вишнёвая улица,354003,43.6242053,39.7562971
57А,Вишнёвая улица,354003,43.6255854,39.7553905
145,Вишнёвый переулок,354003,43.6242454,39.7578123
144,Вишнёвый переулок,354003,43.6243362,39.7580208
100,Вишнёвая улица,354003,43.6243690,39.7571684
96,"СТ ""Альянс""",354003,43.6268971,39.7502709
12,улица Мира,354375,43.4090242,40.0025401
2,улица Мира,354375,43.4107846,40.0043621
8,улица Мира,354375,43.4071373,40.0021770
1,улица Мира,354375,43.4108253,40.0035721
26,улица Мира,354375,43.4107519,40.0051718
41/1,Лесная улица,354375,43.4216681,39.9597048
20,Лесная улица,354375,43.4254531,39.9673061
41/2,Лесная улица,354375,43.4214335,39.9598126
39Б,Лесная улица,354375,43.4212225,39.9607927
39А,Лесная улица,354375,43.4214533,39.9606731
20Б,Лесная улица,354375,43.4251376,39.9669184
33,Лесная улица,354375,43.4223631,39.9611977
28,Лесная улица,354375,43.4248172,39.9653501
31,Лесная улица,354375,43.4227188,39.9618498
29А,улица Гастелло,354340,43.4506416,39.9176104
42/1,улица Гастелло,354340,43.4513166,39.9191348
12/3,Северная улица,354000,43.5948937,39.7263333
16/1А,Пригородная улица,354000,43.6049417,39.7448138
11,улица Островского,354000,43.5859521,39.7211205
19/4,Парковая улица,354000,43.5862985,39.7179158
17,Парковая улица,354000,43.5869924,39.7192564
33Б,улица Горького,354000,43.5862364,39.7251668
"6""а"", кв. 19",Шоссейная -3,354037,43.5217585,39.8562187
21/2,улица Возрождения,354054,43.5651464,39.7652038
2/24,Ворошиловская улица,354054,43.5650706,39.7658872
21,улица Возрождения,354054,43.5648124,39.7647942
3А,Ясногорская улица,354054,43.5682262,39.7640547
1 к2,Дивноморская улица,354054,43.5662766,39.7620983
22/1,улица Возрождения,354054,43.5646004,39.7654814
22/4,улица Возрождения,354054,43.5644577,39.7657061
22/1,улица Возрождения,354054,43.5645344,39.7656288
1 к1,Дивноморская улица,354054,43.5660946,39.7615764
94/6,Курортный проспект,354054,43.5612328,39.7608291
94А,Курортный проспект,354054,43.5578407,39.7654819
23А с1,Санаторная улица,354008,43.6217008,39.7151696
16,Волжская улица,354053,43.6344429,39.7016643
40 к1,Целинная улица,354068,43.6384505,39.7162131
29/8,Яблочная улица,354053,43.6371781,39.7065926
111,улица Победы,354200,43.9146846,39.3241918
78,улица Лазарева,354200,43.9142165,39.3233269
80,улица Лазарева,354200,43.9147244,39.3229630
113,улица Победы,354200,43.9154362,39.3229313
110,улица Победы,354200,43.9156679,39.3234664
28,Сочинское шоссе,354200,43.8941078,39.3554550
18,Сочинское шоссе,354200,43.8947924,39.3507330
37,Сочинское шоссе,354200,43.8967911,39.3487851
8,Сочинское шоссе,354200,43.8962442,39.3485125
1А,улица Победы,354200,43.9048935,39.3369301
11,улица Лазарева,354200,43.9149825,39.3209033
2,Речная улица,354200,43.9023940,39.3326648
23Б,Тоннельная улица,354000,43.5868586,39.7304376
22А,переулок Горького,354000,43.5847278,39.7278890
30,Парковая улица,354000,43.5870404,39.7200668
20/1,улица Воровского,354000,43.5877914,39.7211740
18,Партизанская улица,354200,43.9147877,39.3309904
20,Партизанская улица,354200,43.9151996,39.3308958
24,Партизанская улица,354200,43.9156380,39.3308277
176,улица Победы,354200,43.9232760,39.3162983
170,улица Победы,354200,43.9213414,39.3177766
158,улица Победы,354200,43.9196846,39.3193296
170А,улица Победы,354200,43.9219133,39.3172752
122,улица Победы,354200,43.9172131,39.3198055
131,улица Победы,354200,43.9165109,39.3214503
191Б,улица Победы,354200,43.9236092,39.3152054
191А,улица Победы,354200,43.9231863,39.3154700
191В,улица Победы,354200,43.9239928,39.3149156
75А,улица Павлова,354200,43.9115974,39.3344581
66Б,улица Лазарева,354200,43.9123299,39.3260248
2,Партизанская улица,354200,43.9107207,39.3332384
12,переулок Павлова,354200,43.9173963,39.3387222
64А,улица Павлова,354200,43.9151306,39.3412443
8А,переулок Павлова,354200,43.9168384,39.3397353
129,улица Павлова,354200,43.9158358,39.3416055
147,улица Калараша,354200,43.9155266,39.3423164
14,переулок Павлова,354200,43.9177912,39.3385557
1,улица Победы,354200,43.9049477,39.3372945
145,улица Калараша,354200,43.9147168,39.3417554
16,переулок Павлова,354200,43.9182072,39.3383783
145А,улица Калараша,354200,43.9152621,39.3426659
11,переулок Павлова,354200,43.9151554,39.3384774
17,Партизанская улица,354200,43.9149730,39.3293397
9А,переулок Павлова,354200,43.9154824,39.3380255
147Б,улица Калараша,354200,43.9161100,39.3438478
8,улица Ильича,354200,43.9134532,39.3285808
17,переулок Павлова,354200,43.9152160,39.3371513
15,переулок Павлова,354200,43.9147044,39.3370473
10А,переулок Павлова,354200,43.9171740,39.3392604
10,переулок Павлова,354200,43.9167959,39.3389279
8,переулок Павлова,354200,43.9165256,39.3393049
23,переулок Павлова,354200,43.9166434,39.3373005
89,улица Павлова,354200,43.9147226,39.3392305
25,переулок Павлова,354200,43.9162637,39.3369831
64,Партизанская улица,354200,43.9175260,39.3303401
159,улица Калараша,354200,43.9189222,39.3471854
59,Партизанская улица,354200,43.9162440,39.3274842
40,Партизанская улица,354200,43.9179117,39.3306190
153,улица Калараша,354200,43.9191721,39.3482938
62А,Партизанская улица,354200,43.9166680,39.3311597
59А,Партизанская улица,354200,43.9161674,39.3294599
38,Партизанская улица,354200,43.9180683,39.3295832
26,Партизанская улица,354200,43.9171087,39.3312506
66,Партизанская улица,354200,43.9175208,39.3290448
36,Партизанская улица,354200,43.9176002,39.3284175
12,улица Циолковского,354200,43.9199629,39.3185148
2/1,Кольцевая улица,354200,43.9194343,39.3205988
172Б,улица Победы,354200,43.9226586,39.3167465
2/2,улица Айвазовского,354200,43.9230827,39.3199128
58А,улица Победы,354200,43.9105257,39.3306149
14,Изумрудный переулок,354200,43.9135479,39.3358343
167,улица Победы,354200,43.9203937,39.3178492
16/3,Изумрудная улица,354200,43.9127691,39.3358044
2/1,Кольцевая улица,354200,43.9192015,39.3205995
52,улица Калараша,354200,43.9077499,39.3344781
168,улица Победы,354200,43.9207932,39.3183213
110,улица Победы,354200,43.9159590,39.3230725
58Б,улица Победы,354200,43.9102865,39.3306982
102,улица Победы,354200,43.9153246,39.3239734
153,улица Победы,354200,43.9179479,39.3193639
4,улица Глинки,354200,43.9208045,39.3169531
124Б,улица Победы,354200,43.9164422,39.3227182
27,Изумрудная улица,354200,43.9143933,39.3343612
153,улица Победы,354200,43.9177531,39.3202682
1,улица Айвазовского,354200,43.9222015,39.3202031
153,улица Победы,354200,43.9189399,39.3186372
189,улица Победы,354200,43.9225961,39.3159826
153,улица Победы,354200,43.9175012,39.3202823
124А,улица Победы,354200,43.9166617,39.3225623
172А,улица Победы,354200,43.9224239,39.3168511
167,улица Победы,354200,43.9198474,39.3171507
99,улица Калараша,354200,43.9099038,39.3348578
40,улица Павлова,354200,43.9114729,39.3355157
1Б,улица Калараша,354200,43.9043264,39.3278576
35/1,улица Калараша,354200,43.9061830,39.3299296
36,улица Калараша,354200,43.9065301,39.3319979
6,улица Калараша,354200,43.9044108,39.3292922
8/4,улица Энтузиастов,354200,43.9035354,39.3304845
39,улица Калараша,354200,43.9064479,39.3312329
33,улица Калараша,354200,43.9059468,39.3306676
33/2,улица Калараша,354200,43.9062559,39.3305127
6,Октябрьская улица,354200,43.9214304,39.3157774
2,переулок Лазарева,354200,43.9228262,39.3155017
14,Октябрьский переулок,354200,43.9217398,39.3154186
7,Коммунистическая улица,354200,43.9192793,39.3182012
150,улица Калараша,354200,43.9186761,39.3522875
68,улица Калараша,354200,43.9179234,39.3493351
2,Почтовый переулок,354200,43.9117001,39.3279807
172,улица Калараша,354200,43.9196357,39.3504374
66А,улица Калараша,354200,43.9174351,39.3507410
68,улица Калараша,354200,43.9182605,39.3490176
77Б,улица Победы,354200,43.9118553,39.3281913
79А,улица Победы,354200,43.9119787,39.3280866
66,улица Калараша,354200,43.9186565,39.3496718
20,улица Коммунальников,354200,43.9216313,39.3402781
4,Станичная улица,354200,43.9223817,39.3397727
19/5,Станичная улица,354200,43.9228582,39.3383856
27,Станичная улица,354200,43.9246620,39.3363854
6,Станичная улица,354200,43.9225830,39.3397777
53,Станичная улица,354200,43.9238606,39.3377877
28,Станичная улица,354200,43.9245483,39.3370496
17,Станичная улица,354200,43.9241633,39.3372322
35,Станичная улица,354200,43.9230953,39.3393263
75,Станичная улица,354200,43.9241678,39.3367521
47,Станичная улица,354200,43.9231162,39.3386807
45,Станичная улица,354200,43.9228456,39.3390002
14,Станичная улица,354200,43.9234178,39.3389650
46,Станичная улица,354200,43.9231187,39.3382883
39,Изумрудная улица,354200,43.9177047,39.3342090
45,Изумрудная улица,354200,43.9185567,39.3338186
39/3,Изумрудная улица,354200,43.9177291,39.3334696
33,Родниковая улица,354200,43.9172740,39.3334167
31,Родниковая улица,354200,43.9174334,39.3336716
51,Изумрудная улица,354200,43.9194552,39.3338936
14,Родниковая улица,354200,43.9169809,39.3328552
18,Родниковая улица,354200,43.9170086,39.3333780
47,Изумрудная улица,354200,43.9189300,39.3339944
49,Изумрудная улица,354200,43.9190786,39.3336276
35,Родниковая улица,354200,43.9176116,39.3333125
53,Изумрудная улица,354200,43.9198562,39.3340085
41,Изумрудная улица,354200,43.9175735,39.3345045
20,Родниковая улица,354200,43.9164242,39.3335048
21/3,Свирская улица,354200,43.9274420,39.3170665
21/4,Свирская улица,354200,43.9275942,39.3171449
21А,Свирская улица,354200,43.9268957,39.3166679
2/1,Аэродромная улица,354200,43.9060139,39.3396520
3А,Аэродромная улица,354200,43.9064777,39.3383734
2/5,Аэродромная улица,354200,43.9068236,39.3385820
40,улица Единство,354200,43.9098399,39.3404951
16,улица Согласия,354200,43.9110721,39.3403016
10,Корабельный переулок,354200,43.9080019,39.3277635
5,улица Согласия,354200,43.9099384,39.3398434
15,Партизанская улица,354200,43.9121528,39.3309201
14,улица Согласия,354200,43.9108325,39.3403539
81А,улица Одоевского,354200,43.9125333,39.3236122
34,улица Единство,354200,43.9103827,39.3409521
4,улица Тормахова 1 Квартал,354200,43.9108224,39.3396774
51,улица Калараша,354200,43.9070968,39.3320558
12,улица Согласия,354200,43.9106665,39.3403970
81,улица Одоевского,354200,43.9121653,39.3241053
31,улица Победы,354200,43.9082008,39.3324126
13,улица Единство,354200,43.9117926,39.3414083
16,улица Нахимова,354200,43.9082925,39.3263361
2/6,Речная улица,354200,43.9045558,39.3360413
38,улица Единство,354200,43.9100376,39.3407328
2Б,Речная улица,354200,43.9043925,39.3356200
2/12,Сочинское шоссе,354200,43.9010108,39.3454446
8/8,Сочинское шоссе,354200,43.8987333,39.3483760
17,улица Энтузиастов,354200,43.9046815,39.3321939
8/6В,Сочинское шоссе,354200,43.8989734,39.3478518
2/13,Сочинское шоссе,354200,43.9011477,39.3456074
72/1,улица Победы,354200,43.9124094,39.3283364
74,улица Победы,354200,43.9125405,39.3281757
12А,улица Победы,354200,43.9069478,39.3350991
14,улица Победы,354200,43.9070912,39.3349721
4А,улица Калараша,354200,43.9035088,39.3284863
76,улица Победы,354200,43.9127421,39.3280132
2,улица Победы,354200,43.9058502,39.3370379
1,улица Одоевского,354200,43.9047444,39.3354289
41А,улица Одоевского,354200,43.9062613,39.3331714
15А,Речная улица,354200,43.9040126,39.3332581
37,улица Одоевского,354200,43.9061486,39.3335630
40,улица Калараша,354200,43.9068528,39.3323070
19,улица Калараша,354200,43.9053643,39.3295550
66,улица Победы,354200,43.9118989,39.3291090
43,улица Одоевского,354200,43.9065040,39.3329885
66,улица Калараша,354200,43.9184615,39.3504301
98/11а,Курортный проспект,354054,43.5569184,39.7724138
43,улица Коммунальников,354200,43.9213224,39.3394620
13,улица Коммунальников,354200,43.9172583,39.3400806
15,улица Коммунальников,354200,43.9193139,39.3394039
12,улица Коммунальников,354200,43.9177538,39.3397766
19,улица Коммунальников,354200,43.9200996,39.3395408
18,переулок Павлова,354200,43.9187928,39.3382737
17,улица Коммунальников,354200,43.9195348,39.3395235
41,улица Коммунальников,354200,43.9210921,39.3394026
11,улица Коммунальников,354200,43.9174855,39.3398696
64,улица Павлова,354200,43.9144658,39.3405183
143А,улица Калараша,354200,43.9140650,39.3409004
62,улица Павлова,354200,43.9143541,39.3397581
64Б,улица Павлова,354200,43.9153012,39.3404515
29,переулок Павлова,354200,43.9171529,39.3369713
2/5,Сочинское шоссе,354200,43.9006698,39.3392517
2А,Сочинское шоссе,354200,43.9018523,39.3384813
2В,Сочинское шоссе,354200,43.9016493,39.3392356
3/2,Речная улица,354200,43.9043379,39.3351933
39,Речная улица,354200,43.9029957,39.3322003
2,улица Багратиона,354200,43.9008614,39.3337053
37,Речная улица,354200,43.9031579,39.3323616
2Г,Речная улица,354200,43.9042012,39.3354581
2Д,Речная улица,354200,43.9042783,39.3357228
2/2,Речная улица,354200,43.9038005,39.3348575
4,Приморская улица,354000,43.5765138,39.7248364
56,Тоннельная улица,354000,43.5853511,39.7316188
22,Майкопская улица,354220,44.0097994,39.1843537
1,Соловьиная улица,354220,44.0093298,39.1858674
24Я к1,Майкопская улица,354220,44.0091194,39.1835296
7,улица Роз,354000,43.5862973,39.7186534
36,улица Роз,354000,43.5894546,39.7206214
18,Парковая улица,354000,43.5881380,39.7187018
20/2,улица Воровского,354000,43.5875940,39.7210197
90/7б,Курортный проспект,354054,43.5653520,39.7574151
2/6В,улица Яна Фабрициуса,354002,43.5681235,39.7505315
41/1,улица 20-й Горнострелковой Дивизии,354054,43.5700994,39.7555052
24А,Ломоносовская улица,354054,43.5700030,39.7552948
2/6о,улица Яна Фабрициуса,354002,43.5691602,39.7504914
4А/1,улица Яна Фабрициуса,354002,43.5701691,39.7478048
3Е,Шоссейная улица,354037,43.5197792,39.8556091
17/14,улица Голенева,354003,43.6108141,39.7434693
64А,улица Калараша,354200,43.9108124,39.3386991
38/6,Олимпийская улица,354003,43.6116338,39.7474050
170,"СТ ""Макаренко""",354003,43.6120266,39.7487086
73,Олимпийская улица,354003,43.6114647,39.7488427
83,"СТ ""Макаренко""",354003,43.6112877,39.7485581
11,улица Кирова,354340,43.4221857,39.9205661
62/1,"СТ ""Макаренко""",354003,43.6119507,39.7492236
28,Вертолётный переулок,354003,43.6262837,39.7519369
26,Вертолётный переулок,354003,43.6263721,39.7517144
163,улица Декабристов,354208,43.6839514,39.6006431
19,улица 20-й Горнострелковой Дивизии,354054,43.5691209,39.7537822
78Б,улица Декабристов,354208,43.6764367,39.6041679
30,улица 20-й Горнострелковой Дивизии,354054,43.5702150,39.7565625
13,улица 20-й Горнострелковой Дивизии,354054,43.5690512,39.7536615
24Б,улица 20-й Горнострелковой Дивизии,354054,43.5700906,39.7563191
9,улица Бытха,354054,43.5681225,39.7570925
13,улица Бытха,354054,43.5677354,39.7575078
21/1,улица 20-й Горнострелковой Дивизии,354054,43.5694049,39.7538496
27,улица 20-й Горнострелковой Дивизии,354054,43.5696303,39.7540156
11,улица Бытха,354054,43.5680194,39.7567512
4/3,Таганрогская улица,354208,43.6767658,39.6014028
193/5,улица Декабристов,354208,43.6777043,39.6049566
96/6а,Курортный переулок,354054,43.5603591,39.7712098
98/3,Курортный проспект,354054,43.5566914,39.7720327
9 к3,Кленовая улица,354004,43.5720000,39.7628084
79,Коммунальная улица,354054,43.5720386,39.7593689
175,Транспортная улица,354054,43.5708772,39.7579619
59,Коммунальная улица,354054,43.5708604,39.7585809
38,Коммунальная улица,354054,43.5704382,39.7586047
39/1,Коммунальная улица,354054,43.5694171,39.7567109
55,Коммунальная улица,354054,43.5705323,39.7575248
9,Кленовая улица,354004,43.5724795,39.7629460
169Б,Коммунальная улица,354054,43.5715883,39.7583351
39А,Коммунальная улица,354004,43.5696874,39.7570146
73,Коммунальная улица,354054,43.5710908,39.7590113
173,Транспортная улица,354054,43.5712260,39.7580215
7,Кленовая улица,354004,43.5726789,39.7631039
9/3,Кленовая улица,354004,43.5720525,39.7630167
20,улица 20-й Горнострелковой Дивизии,354054,43.5694941,39.7564065
51,Коммунальная улица,354054,43.5704422,39.7579585
69/2,Коммунальная улица,354054,43.5717277,39.7591801
6,улица Бестужева,354340,43.4195343,39.9223603
5,переулок Бестужева,354340,43.4191474,39.9212931
22А,улица Бестужева,354340,43.4200076,39.9227688
3/12,Анапская улица,354008,43.6318971,39.7040461
21,Лазурная улица,354364,43.4755901,39.8949844
71/1,улица Чкалова,354364,43.4849382,39.8906343
70,улица Победы,354200,43.9121635,39.3285460
102,улица Лазарева,354200,43.9166752,39.3199617
94,улица Лазарева,354200,43.9158996,39.3206388
72,улица Победы,354200,43.9122589,39.3284533
80,улица Победы,354200,43.9133227,39.3277614
13,улица Лазарева,354200,43.9158465,39.3199201
84,улица Победы,354200,43.9138906,39.3267049
96,улица Лазарева,354200,43.9161934,39.3204177
123А,улица Победы,354200,43.9160763,39.3223095
82А,улица Победы,354200,43.9138320,39.3270481
129,улица Победы,354200,43.9164233,39.3218172
143,улица Победы,354200,43.9171937,39.3205514
22,улица Шевченко,354200,43.9131192,39.3297639
125,улица Победы,354200,43.9161385,39.3221522
106А,улица Лазарева,354200,43.9169324,39.3198639
73А,улица Победы,354200,43.9110877,39.3289378
5/1,улица Ильича,354200,43.9128366,39.3289804
3,Привокзальный переулок,354200,43.9160663,39.3209179
141,улица Победы,354200,43.9175784,39.3207106
141А,улица Победы,354200,43.9173287,39.3207298
134,улица Победы,354200,43.9169154,39.3220012
2,улица Ильича,354200,43.9130486,39.3291581
153,улица Победы,354200,43.9181648,39.3202616
127,улица Победы,354200,43.9163025,39.3221437
153Д,улица Победы,354200,43.9185984,39.3197873
146,улица Победы,354200,43.9177869,39.3217518
9,улица Ильича,354200,43.9132219,39.3282878
108,улица Лазарева,354200,43.9169584,39.3193605
11Г,улица Лазарева,354200,43.9146177,39.3219160
90,улица Лазарева,354200,43.9155783,39.3212841
7,улица Ильича,354200,43.9129996,39.3286724
84,улица Лазарева,354200,43.9147223,39.3225237
6,Привокзальный переулок,354200,43.9155648,39.3221414
17,улица Лазарева,354200,43.9164091,39.3191047
153,улица Победы,354200,43.9187223,39.3197053
62А,улица Победы,354200,43.9114300,39.3296736
149,улица Победы,354200,43.9184634,39.3199168
86,улица Победы,354200,43.9141727,39.3264588
2/3,Черноморская улица,354002,43.5682551,39.7330163
51А,Тихорецкая улица,354233,43.8913197,39.3810955
51Б,Тихорецкая улица,354233,43.8908724,39.3804634
53,Тихорецкая улица,354233,43.8921607,39.3822862
51,Тихорецкая улица,354233,43.8917199,39.3816523
3,улица ДОС,354211,44.0186954,39.1634633
2,улица ДОС,354211,44.0198939,39.1630196
1,улица ДОС,354211,44.0196551,39.1627302
8,Магринская улица,354211,44.0232493,39.1574579
8,Магринская улица,354211,44.0241919,39.1571492
23,Туристская улица,354205,43.9561791,39.2782371
2В,Туристская улица,354205,43.9565598,39.2768363
40/1,Туристская улица,354205,43.9564178,39.2724149
9 литV,Туристская улица,354205,43.9573419,39.2728274
19,Адыгейская улица,354205,43.9733529,39.2727843
2,Майкопская улица,354220,44.0121860,39.1720248
42А,Сибирская улица,354204,43.9996103,39.2187399
19,улица Кольцова,354204,43.9970405,39.2149330
99 к8,Курортный проспект,354054,43.5524086,39.7733602
99 к10,Курортный проспект,354054,43.5518321,39.7710132
5/1,Тоннельная улица,354000,43.5886292,39.7289818
41Д,улица Бытха,354054,43.5650338,39.7599525
4/4б,улица Бытха,354054,43.5668255,39.7556288
98/25 литБ,Курортный проспект,354054,43.5576746,39.7739045
1,Высокогорная улица,354068,43.6279212,39.7325152
17/3,Сибирская улица,354204,43.9883713,39.2260789
5,улица Куприна,354204,43.9887824,39.2289019
161,улица Декабристов,354208,43.6888996,39.5983615
9,Сибирская улица,354204,43.9831720,39.2340757
25,улица Ватутина,354220,44.0146067,39.1831782
24А,Майкопская улица,354220,44.0092328,39.1841492
24Г к2,Майкопская улица,354220,44.0089285,39.1842814
20/5,Несебрская улица,354000,43.5838653,39.7182267
20,Загородная улица,354053,43.6296143,39.7000157
51А,Курортный проспект,354000,43.5763718,39.7291083
18/1,улица Орджоникидзе,354000,43.5759905,39.7283477
18/5,улица Орджоникидзе,354000,43.5760363,39.7284226
18/4,улица Орджоникидзе,354000,43.5757951,39.7287422
18/3,улица Орджоникидзе,354000,43.5759002,39.7286107
18/2,улица Орджоникидзе,354000,43.5760698,39.7285125
1/5,улица Войкова,354000,43.5801181,39.7189715
17,Приморская улица,354000,43.5722401,39.7277660
30,улица Свободы,354203,44.0045768,39.1961369
38/16,Туристская улица,354205,43.9569849,39.2742025
29В,Партизанская улица,354200,43.9144620,39.3300170
21,Партизанская улица,354200,43.9126320,39.3306922
20,улица Шевченко,354200,43.9127721,39.3299918
23,улица Шевченко,354200,43.9124113,39.3299593
17,улица Шевченко,354200,43.9119489,39.3304880
13,улица Шевченко,354200,43.9116267,39.3307946
5,улица Шевченко,354200,43.9110333,39.3314455
7,улица Шевченко,354200,43.9111746,39.3312191
9,улица Шевченко,354200,43.9112812,39.3311167
11,улица Шевченко,354200,43.9114431,39.3309995
8,улица Шевченко,354200,43.9113411,39.3314893
4,улица Шевченко,354200,43.9105962,39.3322252
2,улица Шевченко,354200,43.9103362,39.3320273
13,улица Победы,354200,43.9067196,39.3347839
2/11,Сочинское шоссе,354200,43.9007862,39.3448983
2/10,Сочинское шоссе,354200,43.9005946,39.3445938
2/7,Сочинское шоссе,354200,43.9009457,39.3444393
4/1,Сочинское шоссе,354200,43.9013366,39.3433452
4/3,Сочинское шоссе,354200,43.9012130,39.3436769
6/1,Сочинское шоссе,354200,43.9013455,39.3421705
6/2,Сочинское шоссе,354200,43.9013088,39.3424520
6/3,Сочинское шоссе,354200,43.9015434,39.3427200
4/4,Сочинское шоссе,354200,43.9009853,39.3429012
4,Сочинское шоссе,354200,43.9017160,39.3410420
5,улица Победы,354200,43.9059518,39.3358710
7,улица Победы,354200,43.9061743,39.3356436
11,улица Победы,354200,43.9065271,39.3350808
17,улица Победы,354200,43.9069465,39.3345044
78А,Курортный проспект,354002,43.5662271,39.7469005
12/3,Родниковая улица,354200,43.9159115,39.3330846
12/1,Родниковая улица,354200,43.9154312,39.3333363
14А,Партизанская улица,354200,43.9135788,39.3322110
23,Родниковая улица,354200,43.9161482,39.3325163
5,улица Ильича,354200,43.9129638,39.3289179
47,улица Павлова,354200,43.9100564,39.3329031
31,улица Шевченко,354200,43.9132221,39.3294127
14,улица Ильича,354200,43.9139529,39.3288906
24,улица Шевченко,354200,43.9132231,39.3296996
58,Партизанская улица,354200,43.9161511,39.3311179
33,улица Шевченко,354200,43.9133937,39.3293159
8,Партизанская улица,354200,43.9117516,39.3322914
5,Партизанский переулок,354200,43.9141305,39.3299984
23,Партизанская улица,354200,43.9131553,39.3303872
16/2,Партизанская улица,354200,43.9137793,39.3318751
12/4,Родниковая улица,354200,43.9157839,39.3332488
16,улица Ильича,354200,43.9141288,39.3289366
12,Родниковая улица,354200,43.9152094,39.3335362
29В,Изумрудная улица,354200,43.9152500,39.3340422
26,улица Шевченко,354200,43.9133145,39.3296154
36,улица Шевченко,354200,43.9142351,39.3292078
11,Родниковый переулок,354200,43.9147441,39.3328509
16,улица Шевченко,354200,43.9126343,39.3302602
8/4,Партизанская улица,354200,43.9119290,39.3324188
13,улица Павлова,354200,43.9066377,39.3273739
34В,Янтарная улица,354200,43.9083437,39.3246287
23,улица Павлова,354200,43.9071665,39.3284711
14,улица Нахимова,354200,43.9086854,39.3259665
23/9,Спортивная улица,354200,43.9077330,39.3249698
6А,Партизанская улица,354200,43.9122352,39.3333753
4А,Партизанская улица,354200,43.9120331,39.3339180
2,Бирюзовая улица,354200,43.9068312,39.3271964
18А,улица Нахимова,354200,43.9076226,39.3271558
8,Бирюзовая улица,354200,43.9072156,39.3266450
2/2,проспект Пушкина,354002,43.5669229,39.7389169
5,улица Малышева,354200,43.9128299,39.3493689
9,улица Тормахова 3 Квартал,354200,43.9090072,39.3435650
10,улица Тормахова 3 Квартал,354200,43.9089671,39.3432058
31,улица Тормахова 3 Квартал,354200,43.9096580,39.3426074
2,улица Тормахова 3 Квартал,354200,43.9096909,39.3445516
22,улица Тормахова 3 Квартал,354200,43.9093389,39.3430735
18,улица Тормахова 3 Квартал,354200,43.9088167,39.3423015
23,улица Тормахова 3 Квартал,354200,43.9094680,39.3432505
19,улица Тормахова 3 Квартал,354200,43.9090134,39.3424160
25,улица Тормахова 3 Квартал,354200,43.9098372,39.3436251
27,улица Тормахова 3 Квартал,354200,43.9092799,39.3420232
16,улица Единство,354200,43.9117891,39.3408960
32,улица Единство,354200,43.9108064,39.3409386
27,улица Единство,354200,43.9108117,39.3413356
21,улица Единство,354200,43.9112396,39.3413724
4,Чистая улица,354200,43.9122358,39.3416847
15,Чистая улица,354200,43.9118513,39.3423222
25,улица Согласия,354200,43.9115455,39.3398350
22/1,улица Согласия,354200,43.9117095,39.3405751
23,улица Согласия,354200,43.9113888,39.3397954
2/6,Сочинское шоссе,354200,43.9010117,39.3447919
78А/4,Курортный проспект,354002,43.5658303,39.7472050
20А,Виноградная улица,354008,43.6038942,39.7191646
2А,улица Белинского,354200,43.9255411,39.3132234
55,переулок Победы,354200,43.9298558,39.3100194
224А,улица Победы,354200,43.9257326,39.3140416
190,улица Лазарева,354200,43.9258943,39.3116028
55А,переулок Победы,354200,43.9299927,39.3098433
247,улица Победы,354200,43.9288346,39.3091558
205,улица Победы,354200,43.9258170,39.3129687
57,переулок Победы,354200,43.9302410,39.3096455
208А,улица Лазарева,354200,43.9278671,39.3096676
9,улица Добролюбова,354200,43.9262615,39.3110075
50,переулок Победы,354200,43.9303683,39.3099545
210А,улица Лазарева,354200,43.9285352,39.3094315
61,переулок Победы,354200,43.9304933,39.3093996
11,Партизанская улица,354200,43.9115916,39.3315740
11А,Партизанская улица,354200,43.9113861,39.3317052
8А,улица Шевченко,354200,43.9114926,39.3313361
30,улица Павлова,354200,43.9104168,39.3339994
32,улица Павлова,354200,43.9106188,39.3342276
26,улица Павлова,354200,43.9101502,39.3337067
28,улица Павлова,354200,43.9102447,39.3338114
95,улица Победы,354200,43.9132657,39.3261519
73,улица Одоевского,354200,43.9092630,39.3281688
5,Спортивная улица,354200,43.9090452,39.3276530
31,улица Одоевского,354200,43.9058101,39.3340178
37,улица Павлова,354200,43.9080309,39.3300646
14/2,улица Ушакова,354200,43.9102057,39.3261464
17А,улица Павлова,354200,43.9068446,39.3279093
19,улица Одоевского,354200,43.9046748,39.3339029
14/1,улица Ушакова,354200,43.9101005,39.3259221
15,улица Павлова,354200,43.9068021,39.3275787
69,улица Одоевского,354200,43.9092655,39.3287545
5,улица Нахимова,354200,43.9096568,39.3253933
26,улица Нахимова,354200,43.9074024,39.3269602
1,Корабельный переулок,354200,43.9089523,39.3272514
29/2,улица Одоевского,354200,43.9054695,39.3344327
6,Корабельный переулок,354200,43.9083804,39.3275027
29,улица Одоевского,354200,43.9056471,39.3342333
12/6,улица Ушакова,354200,43.9099332,39.3254837
35,улица Павлова,354200,43.9078920,39.3297773
67,улица Одоевского,354200,43.9091609,39.3288937
29,улица Павлова,354200,43.9075497,39.3292218
1А,Корабельный переулок,354200,43.9088194,39.3273820
16,улица Ушакова,354200,43.9104665,39.3265125
27А,улица Павлова,354200,43.9075244,39.3290821
8/2,Корабельный переулок,354200,43.9080252,39.3274361
8/1,Корабельный переулок,354200,43.9081850,39.3276195
65,улица Одоевского,354200,43.9084846,39.3298303
7,улица Нахимова,354200,43.9095399,39.3254931
65Б,улица Одоевского,354200,43.9085417,39.3292728
15,улица Одоевского,354200,43.9053866,39.3347733
27,улица Павлова,354200,43.9074438,39.3289637
33/2,улица Павлова,354200,43.9076707,39.3294483
65А,улица Одоевского,354200,43.9086205,39.3296955
3,Спортивная улица,354200,43.9093068,39.3279775
8,Корабельный переулок,354200,43.9082748,39.3275655
33/1,улица Павлова,354200,43.9077752,39.3295886
61А,улица Одоевского,354200,43.9084485,39.3301129
31,улица Павлова,354200,43.9076274,39.3293222
7,Спортивная улица,354200,43.9090223,39.3274495
21,улица Одоевского,354200,43.9045567,39.3333796
49,улица Одоевского,354200,43.9068305,39.3325715
3А,улица Павлова,354200,43.9062032,39.3262877
2,улица Павлова,354200,43.9056896,39.3265810
3,улица Павлова,354200,43.9060503,39.3262982
87,улица Одоевского,354200,43.9135007,39.3210310
8,Спортивная улица,354200,43.9084730,39.3256904
12,улица Нахимова,354200,43.9089173,39.3256883
20,Станичная улица,354200,43.9238085,39.3383586
22,Станичная улица,354200,43.9239796,39.3381122
8,Станичная улица,354200,43.9227239,39.3397107
9,улица Коммунальников,354200,43.9168697,39.3402739
24/1,Партизанская улица,354200,43.9161577,39.3313052
34,улица Павлова,354200,43.9108531,39.3345143
36,улица Павлова,354200,43.9109378,39.3346213
91,улица Калараша,354200,43.9098017,39.3360552
95А,улица Калараша,354200,43.9100981,39.3357082
77,улица Калараша,354200,43.9090812,39.3352196
87,улица Калараша,354200,43.9094107,39.3357247
71,улица Калараша,354200,43.9093739,39.3331432
32А,улица Победы,354200,43.9087773,39.3323966
22,улица Павлова,354200,43.9095176,39.3329785
20А,улица Павлова,354200,43.9089742,39.3322026
6,Родниковая улица,354200,43.9142688,39.3338108
37,Изумрудная улица,354200,43.9168466,39.3340680
19,Родниковая улица,354200,43.9150419,39.3331472
13,Родниковая улица,354200,43.9143512,39.3334212
29,Родниковая улица,354200,43.9167092,39.3338810
29/2,переулок Павлова,354200,43.9172463,39.3375355
17/1,Родниковая улица,354200,43.9147963,39.3333030
37,Родниковая улица,354200,43.9171675,39.3337138
11,Родниковая улица,354200,43.9138509,39.3336506
47/1,Изумрудная улица,354200,43.9186625,39.3331563
3,улица Шевченко,354200,43.9108541,39.3316122
3,Родниковый переулок,354200,43.9138138,39.3331139
7,Родниковая улица,354200,43.9133428,39.3340894
8,Родниковая улица,354200,43.9144844,39.3337617
39,переулок Павлова,354200,43.9174267,39.3374446
15,Родниковая улица,354200,43.9145778,39.3333526
3,Аэродромный переулок,354200,43.9084069,39.3351821
49,улица Павлова,354200,43.9100238,39.3323571
15,улица Ушакова,354200,43.9104085,39.3257778
6,улица Победы,354200,43.9064829,39.3361178
25,улица Победы,354200,43.9072255,39.3340303
13,улица Согласия,354200,43.9104587,39.3398499
17/2,Изумрудная улица,354200,43.9133889,39.3348663
58,улица Павлова,354200,43.9133452,39.3384276
52А,улица Павлова,354200,43.9126669,39.3371179
13,Изумрудная улица,354200,43.9128915,39.3351117
47/4,улица Павлова,354200,43.9099997,39.3327049
17,улица Ушакова,354200,43.9105574,39.3260214
19,улица Ушакова,354200,43.9106970,39.3262520
1,Аэродромный переулок,354200,43.9082566,39.3349585
18,Изумрудная улица,354200,43.9129085,39.3354280
51,улица Павлова,354200,43.9101887,39.3324526
22,улица Лазарева,354200,43.9069459,39.3337516
15,Изумрудная улица,354200,43.9130771,39.3350124
11Б,переулок Павлова,354200,43.9165062,39.3381048
2А,улица Шевченко,354200,43.9105441,39.3324513
17А,улица Шевченко,354200,43.9117755,39.3305198
10А,улица Говорова,354200,43.9072235,39.3357046
19А,улица Победы,354200,43.9071737,39.3341912
2,Социалистическая улица,354200,43.9103751,39.3246312
113,улица Калараша,354200,43.9109070,39.3375870
4,Социалистическая улица,354200,43.9104873,39.3248323
2,улица Нахимова,354200,43.9101808,39.3243159
1А,Аэродромная улица,354200,43.9069170,39.3379987
6/1,улица Ушакова,354200,43.9095171,39.3248340
4,Изумрудная улица,354200,43.9112032,39.3369146
6А,Аэродромный переулок,354200,43.9082111,39.3354665
131,улица Калараша,354200,43.9125576,39.3391189
6,Социалистическая улица,354200,43.9106091,39.3250483
8,улица Победы,354200,43.9066206,39.3357019
60,улица Калараша,354200,43.9092531,39.3360459
8,улица Ушакова,354200,43.9095758,39.3249137
10,улица Ильича,354200,43.9136082,39.3286871
6/1,Аэродромный переулок,354200,43.9083028,39.3356219
34,улица Шевченко,354200,43.9140685,39.3292497
83/2,улица Одоевского,354200,43.9111244,39.3259578
2А,Социалистическая улица,354200,43.9098463,39.3238413
4,Аэродромный переулок,354200,43.9080283,39.3352694
4/1,улица Ушакова,354200,43.9093347,39.3245257
32,улица Шевченко,354200,43.9138595,39.3293217
35,улица Шевченко,354200,43.9136499,39.3291842
119,улица Калараша,354200,43.9112226,39.3375705
50/1,улица Павлова,354200,43.9124818,39.3367847
11,Октябрьская улица,354200,43.9214798,39.3165633
10,улица Циолковского,354200,43.9196707,39.3181608
177,улица Победы,354200,43.9214737,39.3170385
25Б,улица Циолковского,354200,43.9227491,39.3235431
130,улица Лазарева,354200,43.9210835,39.3151835
13,Октябрьский переулок,354200,43.9214516,39.3152769
23А,улица Лазарева,354200,43.9184322,39.3172508
2А,Кольцевая улица,354200,43.9187640,39.3210306
132,улица Лазарева,354200,43.9213229,39.3150160
19,Мирная улица,354200,43.9239998,39.3161887
162,улица Победы,354200,43.9200098,39.3189069
14,переулок Победы,354200,43.9267715,39.3139254
25А,улица Циолковского,354200,43.9224999,39.3230918
8,Октябрьская улица,354200,43.9216131,39.3161094
51,улица Циолковского,354200,43.9261068,39.3237963
6/13,переулок Победы,354200,43.9258681,39.3152182
20,Изумрудная улица,354200,43.9131529,39.3353210
13,улица Айвазовского,354200,43.9242715,39.3180484
39,улица Циолковского,354200,43.9241854,39.3228616
212,улица Победы,354200,43.9242136,39.3154272
30,Пролетарская улица,354200,43.9239921,39.3178613
210/1,улица Победы,354200,43.9248818,39.3152682
14,улица Айвазовского,354200,43.9249473,39.3179818
8А,Пролетарская улица,354200,43.9216587,39.3205048
216/3,улица Победы,354200,43.9250115,39.3157827
20,улица Победы,354200,43.9253005,39.3163159
179,улица Победы,354200,43.9216331,39.3168219
134/2,улица Лазарева,354200,43.9214300,39.3149532
7,Октябрьская улица,354200,43.9212273,39.3161433
3А,Октябрьский переулок,354200,43.9203504,39.3161977
4/2,Октябрьский переулок,354200,43.9206085,39.3163370
19,улица Циолковского,354200,43.9214714,39.3207042
31,улица Лазарева,354200,43.9191642,39.3164740
32/1,улица Циолковского,354200,43.9221040,39.3226787
3,Мирная улица,354200,43.9212194,39.3187831
39/1,улица Циолковского,354200,43.9247603,39.3230745
8,переулок Победы,354200,43.9275526,39.3130437
2,Кольцевая улица,354200,43.9189874,39.3209717
47,улица Циолковского,354200,43.9237474,39.3226217
24,Изумрудная улица,354200,43.9134419,39.3352216
43,улица Циолковского,354200,43.9233162,39.3227486
15,переулок Победы,354200,43.9266518,39.3140779
126,улица Лазарева,354200,43.9205897,39.3155735
28,Мирная улица,354200,43.9240507,39.3168610
166В,улица Победы,354200,43.9204713,39.3186865
166А,улица Победы,354200,43.9205779,39.3190982
6,переулок Победы,354200,43.9278742,39.3127151
22,Изумрудная улица,354200,43.9133149,39.3352434
17,Пролетарская улица,354200,43.9240099,39.3175071
8,Октябрьский переулок,354200,43.9210642,39.3160364
3А,Октябрьский переулок,354200,43.9208058,39.3158737
5,переулок Победы,354200,43.9280249,39.3125589
19,Пролетарская улица,354200,43.9242275,39.3172443
34,улица Циолковского,354200,43.9222341,39.3229722
2,Пролетарская улица,354200,43.9218715,39.3213364
6/3,переулок Победы,354200,43.9258220,39.3145871
3,улица Лазарева,354200,43.9132134,39.3238380
173,улица Победы,354200,43.9212361,39.3172512
9,переулок Победы,354200,43.9273991,39.3131702
6,Октябрьский переулок,354200,43.9208445,39.3160836
21,Изумрудная улица,354200,43.9136764,39.3347144
6/7,переулок Победы,354200,43.9258369,39.3147965
29А,улица Циолковского,354200,43.9232194,39.3232013
15,Свирская улица,354200,43.9255383,39.3151060
3А,улица Лазарева,354200,43.9133459,39.3236777
7,переулок Победы,354200,43.9277256,39.3128546
8,Изумрудный переулок,354200,43.9132422,39.3359478
20,Мирная улица,354200,43.9229884,39.3177752
3,Октябрьский переулок,354200,43.9204784,39.3161461
26,Мирная улица,354200,43.9238865,39.3169887
27,улица Лазарева,354200,43.9189656,39.3167593
45,улица Циолковского,354200,43.9235160,39.3227294
7,улица Лазарева,354200,43.9137785,39.3233180
18,Мирная улица,354200,43.9227712,39.3179617
160А,улица Победы,354200,43.9198536,39.3191153
5,Октябрьский переулок,354200,43.9209853,39.3156491
23,улица Лазарева,354200,43.9185085,39.3168474
32,переулок Победы,354200,43.9282260,39.3122312
4,Пролетарская улица,354200,43.9218330,39.3210775
167,улица Победы,354200,43.9202035,39.3182575
45,Мирная улица,354200,43.9241617,39.3159322
11,переулок Победы,354200,43.9271440,39.3134584
2/1,переулок Победы,354200,43.9260909,39.3144451
13,переулок Победы,354200,43.9268979,39.3137727
181,улица Победы,354200,43.9219497,39.3164720
7А,улица Лазарева,354200,43.9135023,39.3235959
30,Мирная улица,354200,43.9242871,39.3166504
20,Изумрудная улица,354200,43.9131078,39.3353990
210/4,улица Победы,354200,43.9247135,39.3150892
10,Мирная улица,354200,43.9217528,39.3188026
9,Октябрьская улица,354200,43.9213137,39.3162710
175,улица Победы,354200,43.9214028,39.3171232
4,Октябрьская улица,354200,43.9212134,39.3154885
34,переулок Победы,354200,43.9284008,39.3120306
5,Кольцевая улица,354200,43.9189664,39.3212637
10А,Свирская улица,354200,43.9242991,39.3141172
12,переулок Победы,354200,43.9270489,39.3136258
185А,улица Победы,354200,43.9222997,39.3162416
6/9,переулок Победы,354200,43.9258504,39.3150052
29,улица Циолковского,354200,43.9228815,39.3233870
49,улица Циолковского,354200,43.9258933,39.3237882
17/2,улица Айвазовского,354200,43.9248135,39.3176275
15/3,Свирская улица,354200,43.9253231,39.3152618
7А,улица Пугачёва,354200,43.9136343,39.3364857
208,улица Победы,354200,43.9239751,39.3158464
21,Мирная улица,354200,43.9241310,39.3161341
210/5,улица Победы,354200,43.9249139,39.3155294
10,переулок Победы,354200,43.9272687,39.3133080
186,улица Победы,354200,43.9222956,39.3171327
38,Пролетарская улица,354200,43.9245694,39.3172747
19,Изумрудная улица,354200,43.9135580,39.3347933
216/4,улица Победы,354200,43.9251902,39.3157894
22,улица Циолковского,354200,43.9205137,39.3195314
169,улица Победы,354200,43.9208926,39.3174961
23,Пролетарская улица,354200,43.9246625,39.3168014
1,Октябрьский переулок,354200,43.9201554,39.3161337
4,Октябрьский переулок,354200,43.9205386,39.3164282
30,улица Циолковского,354200,43.9213438,39.3209822
17А,улица Циолковского,354200,43.9212523,39.3203455
32,Пролетарская улица,354200,43.9242662,39.3175709
6,Пролетарская улица,354200,43.9217232,39.3207995
366,улица Победы,354200,43.9368757,39.3033954
9,Новая улица,354200,43.9320111,39.3077371
360,улица Победы,354200,43.9364219,39.3041715
58,Новая улица,354200,43.9372238,39.3038964
11,Новая улица,354200,43.9322160,39.3075465
259,улица Победы,354200,43.9314213,39.3069572
307,улица Победы,354200,43.9371631,39.3025593
361/3,улица Победы,354200,43.9326629,39.3058554
34,улица Седова,354200,43.9380059,39.3036580
274,улица Победы,354200,43.9293696,39.3097616
266,улица Победы,354200,43.9286578,39.3104534
277,улица Победы,354200,43.9344437,39.3043959
274,улица Победы,354200,43.9290775,39.3099138
275,улица Победы,354200,43.9341145,39.3047106
46,переулок Победы,354200,43.9297128,39.3109830
40,улица Седова,354200,43.9363541,39.3055556
52,Новая улица,354200,43.9368510,39.3042908
261/4,улица Победы,354200,43.9328783,39.3056581
276,улица Победы,354200,43.9291823,39.3096073
293,улица Победы,354200,43.9355870,39.3040915
7,Новая улица,354200,43.9317160,39.3078749
16,улица Седова,354200,43.9336290,39.3073394
370Б,улица Победы,354200,43.9371979,39.3031206
50,Новая улица,354200,43.9362502,39.3050077
48,переулок Победы,354200,43.9298970,39.3108936
26,Новая улица,354200,43.9339738,39.3063227
43,переулок Победы,354200,43.9293011,39.3111048
54,Новая улица,354200,43.9369679,39.3042435
279,улица Победы,354200,43.9346266,39.3043773
8,Новая улица,354200,43.9324191,39.3077564
255,улица Победы,354200,43.9294900,39.3084614
41,переулок Победы,354200,43.9291706,39.3112631
280,улица Победы,354200,43.9293344,39.3092393
316,улица Победы,354200,43.9320217,39.3071657
6,Новая улица,354200,43.9322027,39.3079025
46,Новая улица,354200,43.9358475,39.3052100
268,улица Победы,354200,43.9287161,39.3102544
18,улица Седова,354200,43.9337687,39.3071278
66,Новая улица,354200,43.9380406,39.3028544
318,улица Победы,354200,43.9321664,39.3069925
320,улица Победы,354200,43.9324723,39.3067193
12,улица Седова,354200,43.9331040,39.3077821
10,Новая улица,354200,43.9326143,39.3076026
60,Новая улица,354200,43.9374500,39.3036789
22,Новая улица,354200,43.9336186,39.3066946
56,Новая улица,354200,43.9371018,39.3040160
44,Новая улица,354200,43.9356971,39.3052553
274А,улица Победы,354200,43.9291076,39.3097172
178,улица Лазарева,354200,43.9250762,39.3118294
204,улица Лазарева,354200,43.9272585,39.3101659
7,улица Добролюбова,354200,43.9263490,39.3112280
288,улица Победы,354200,43.9297720,39.3086081
2,Бризовый переулок,354200,43.9283585,39.3099479
8,улица Белинского,354200,43.9252142,39.3125428
252,улица Победы,354200,43.9278221,39.3113561
205А,улица Победы,354200,43.9260170,39.3131561
190А,улица Лазарева,354200,43.9260735,39.3118362
1,улица Белинского,354200,43.9253557,39.3137138
199,улица Победы,354200,43.9253917,39.3139474
5,улица Добролюбова,354200,43.9265168,39.3114453
240,улица Победы,354200,43.9269501,39.3124677
235,улица Победы,354200,43.9283070,39.3103450
202,улица Лазарева,354200,43.9270817,39.3102719
209А,улица Победы,354200,43.9262404,39.3128473
203,улица Победы,354200,43.9257764,39.3133551
242,улица Победы,354200,43.9271834,39.3123693
264,улица Победы,354200,43.9284987,39.3105503
230,улица Победы,354200,43.9262574,39.3133079
200,улица Лазарева,354200,43.9269204,39.3104265
246,улица Победы,354200,43.9273395,39.3120279
244,улица Победы,354200,43.9273401,39.3123748
3,Бризовый переулок,354200,43.9281089,39.3100452
254,улица Победы,354200,43.9281124,39.3110098
257,улица Победы,354200,43.9309789,39.3071788
308,улица Победы,354200,43.9312390,39.3075413
232,улица Победы,354200,43.9263856,39.3131862
296,улица Победы,354200,43.9301445,39.3079891
196,улица Лазарева,354200,43.9266954,39.3106153
4,улица Добролюбова,354200,43.9269501,39.3116207
222,улица Победы,354200,43.9254512,39.3143814
310,улица Победы,354200,43.9313841,39.3074542
3,Новая улица,354200,43.9314657,39.3081461
182,улица Лазарева,354200,43.9252335,39.3117084
3,улица Добролюбова,354200,43.9266247,39.3117881
10,улица Белинского,354200,43.9251301,39.3123776
6,улица Добролюбова,354200,43.9267952,39.3113425
217,улица Победы,354200,43.9265931,39.3124342
211,улица Победы,354200,43.9263294,39.3127153
60Б,Партизанская улица,354200,43.9162879,39.3311182
29,Вишнёвая улица,354003,43.6231308,39.7486873
84,"СТ ""Макаренко""",354003,43.6113795,39.7484368
3А,Олимпийская улица,354003,43.6120359,39.7468195
11/2,улица Тимирязева,354068,43.6304437,39.7203316
22Б/1,Донской переулок,354068,43.6256403,39.7270984
87 к3,Курортный проспект,354054,43.5634017,39.7471506
12/6,Родниковая улица,354200,43.9162753,39.3329126
16,Родниковая улица,354200,43.9169565,39.3331237
27,Родниковая улица,354200,43.9173834,39.3328874
50,Изумрудная улица,354200,43.9192389,39.3341635
43,улица 20-й Горнострелковой Дивизии,354002,43.5712740,39.7570652
4А,Кубанская улица,354000,43.5817045,39.7277427
4/1,Кубанская улица,354000,43.5823973,39.7269091
10,Севастопольская улица,354000,43.5870303,39.7318792
6/1,улица Есауленко,354024,43.5506048,39.7876159
24,Вертолётный переулок,354003,43.6265162,39.7511869
5А,улица Гагарина,354065,43.5952357,39.7201815
18 к4,Дагомысский переулок,354000,43.6006282,39.7353669
13,улица Свободы,354203,44.0006748,39.1928986
9А,Донская улица,354068,43.6165079,39.7246755
25,Тихорецкая улица,354233,43.8844485,39.3698462
96,улица Победы,354200,43.9142788,39.3258314
35/2,Севастопольская улица,354000,43.5874842,39.7315078
12/1,улица Маяковского,354200,43.9020398,39.3441914
2,улица Маяковского,354200,43.9020385,39.3448434
12/3,улица Маяковского,354200,43.9017662,39.3441326
6М,Сочинское шоссе,354200,43.9009462,39.3418427
12,улица Маяковского,354200,43.9020065,39.3437390
2,улица Рылеева,354200,43.9022060,39.3450246
5,Марьинское шоссе,354200,43.9030029,39.3406485
5А,Марьинское шоссе,354200,43.9030707,39.3408568
7,Марьинское шоссе,354200,43.9031369,39.3411205
9,Марьинское шоссе,354200,43.9032179,39.3412984
7,улица Моряков,354200,43.9037698,39.3430492
3,улица Моряков,354200,43.9032793,39.3424853
17,Марьинское шоссе,354200,43.9043614,39.3424411
15,Марьинское шоссе,354200,43.9039102,39.3420374
31,Марьинское шоссе,354200,43.9050900,39.3447240
12,Марьинское шоссе,354200,43.9032721,39.3418270
33,улица Маяковского,354200,43.9034167,39.3432922
7,улица Маяковского,354200,43.9027993,39.3427071
4А,Марьинское шоссе,354200,43.9023493,39.3410374
3,улица Маяковского,354200,43.9028421,39.3418947
15А,Марьинское шоссе,354200,43.9040659,39.3420211
5Б,улица Моряков,354200,43.9035785,39.3428697
27,Марьинское шоссе,354200,43.9047957,39.3439781
2,Марьинское шоссе,354200,43.9021634,39.3414301
11,улица Маяковского,354200,43.9025556,39.3431453
7Б,улица Маяковского,354200,43.9029273,39.3430159
6,улица Маяковского,354200,43.9026331,39.3415526
24,Марьинское шоссе,354200,43.9041105,39.3429580
5/2,улица Маяковского,354200,43.9024850,39.3423951
17А,улица Маяковского,354200,43.9022986,39.3442887
4,Марьинское шоссе,354200,43.9022212,39.3412144
13,улица Маяковского,354200,43.9024306,39.3433864
1,улица Маяковского,354200,43.9029222,39.3415910
31,улица Маяковского,354200,43.9033407,39.3430228
2/4,Сочинское шоссе,354200,43.9017567,39.3423037
17,улица Маяковского,354200,43.9023244,39.3440230
28,Хвойная улица,354200,43.8965430,39.3528601
58,Хвойная улица,354200,43.8989737,39.3535323
11/1,Хвойная улица,354200,43.8975112,39.3523379
42,Хвойная улица,354200,43.8975544,39.3533001
24,Хвойная улица,354200,43.8962947,39.3526873
37,Хвойная улица,354200,43.8979992,39.3527279
36,Хвойная улица,354200,43.8970350,39.3529753
5/6,Хвойная улица,354200,43.8972403,39.3521174
9,Хвойная улица,354200,43.8971204,39.3526827
17,Хвойная улица,354200,43.8982285,39.3530335
48,Хвойная улица,354200,43.8970171,39.3524267
50,Хвойная улица,354200,43.8971543,39.3523034
40,Хвойная улица,354200,43.8974189,39.3531892
18,Хвойная улица,354200,43.8984451,39.3532237
38,Хвойная улица,354200,43.8972819,39.3531530
63,Марьинское шоссе,354200,43.9064769,39.3493225
92А,Марьинское шоссе,354200,43.9088798,39.3532323
61,Марьинское шоссе,354200,43.9065582,39.3490493
13,улица Моряков,354200,43.9056858,39.3484733
64А,Марьинское шоссе,354200,43.9061013,39.3488445
81,Марьинское шоссе,354200,43.9082067,39.3511931
79,Марьинское шоссе,354200,43.9080424,39.3510702
17,улица Моряков,354200,43.9043272,39.3472112
94,Марьинское шоссе,354200,43.9090316,39.3527520
65,Марьинское шоссе,354200,43.9065322,39.3495403
44,улица Моряков,354200,43.9048472,39.3479467
11,улица Моряков,354200,43.9057463,39.3482090
62А,Марьинское шоссе,354200,43.9059238,39.3484792
40А,улица Моряков,354200,43.9055415,39.3477590
69,Марьинское шоссе,354200,43.9078321,39.3503434
42,улица Моряков,354200,43.9047539,39.3474942
98,Марьинское шоссе,354200,43.9093404,39.3522691
66,Марьинское шоссе,354200,43.9061393,39.3490875
64,Марьинское шоссе,354200,43.9060396,39.3487137
96,Марьинское шоссе,354200,43.9089804,39.3522485
43,Марьинское шоссе,354200,43.9058771,39.3464173
29,улица Одоевского,354200,43.9056836,39.3341637
25,улица Одоевского,354200,43.9051651,39.3340721
2,Сосновая улица,354200,43.9063221,39.3475259
45,Марьинское шоссе,354200,43.9058701,39.3466656
4,Сосновая улица,354200,43.9065204,39.3478031
8,Сосновая улица,354200,43.9070165,39.3483124
13/2,Сосновая улица,354200,43.9073682,39.3482940
8,Сочинское шоссе,354200,43.9009290,39.3472272
34,улица Моряков,354200,43.9050690,39.3468984
8,Сочинское шоссе,354200,43.9009882,39.3475040
10/3,Сочинское шоссе,354200,43.9025413,39.3467624
39,Марьинское шоссе,354200,43.9056772,39.3460653
11,Сосновая улица,354200,43.9071004,39.3479367
10,Сосновая улица,354200,43.9071724,39.3483861
1,улица Рылеева,354200,43.9026276,39.3450083
6/8а,Сочинское шоссе,354200,43.9019410,39.3470568
5,Сосновая улица,354200,43.9064897,39.3473317
21А,улица Одоевского,354200,43.9047631,39.3336875
40,улица Моряков,354200,43.9054514,39.3475054
35,улица Маяковского,354200,43.9034389,39.3438749
20,улица Моряков,354200,43.9044667,39.3453433
7,улица Рылеева,354200,43.9030292,39.3454812
57,Марьинское шоссе,354200,43.9064688,39.3487923
14,улица Маяковского,354200,43.9024285,39.3446838
53,Марьинское шоссе,354200,43.9063948,39.3479809
15,улица Тормахова 2 Квартал,354200,43.9100936,39.3443405
35,Марьинское шоссе,354200,43.9054499,39.3453539
3,Сосновая улица,354200,43.9063356,39.3472309
13,Чистая улица,354200,43.9120535,39.3424347
30,улица Сьянова,354200,43.9099542,39.3441469
18,улица Согласия,354200,43.9112159,39.3402828
36,Днепровская улица,354200,43.9077564,39.3464947
30,Днепровская улица,354200,43.9073959,39.3456554
12,Днепровская улица,354200,43.9062243,39.3445200
10,Днепровская улица,354200,43.9060051,39.3444306
4,Днепровская улица,354200,43.9053353,39.3438223
22А,Днепровская улица,354200,43.9067748,39.3452741
13,Сосновая улица,354200,43.9072275,39.3480351
22,Днепровская улица,354200,43.9066176,39.3451326
6/16,Сочинское шоссе,354200,43.8995149,39.3476086
19,Марьинское шоссе,354200,43.9044474,39.3427997
30Ж,Днепровская улица,354200,43.9075036,39.3457006
6,Днепровская улица,354200,43.9056835,39.3439813
14А,Днепровская улица,354200,43.9063304,39.3447097
29/3,улица Худякова,354375,43.4103645,40.0056464
29/2,улица Худякова,354375,43.4105825,40.0063275
29/1,улица Худякова,354375,43.4093887,40.0060851
27/2,улица Худякова,354375,43.4090749,40.0051390
27/1,улица Худякова,354375,43.4083618,40.0057254
58,Урожайная улица,354375,43.4038653,40.0017007
90,улица Победы,354200,43.9141645,39.3260773
100,улица Лазарева,354200,43.9163594,39.3198612
218А,улица Победы,354200,43.9251404,39.3147595
2А/6,Сочинское шоссе,354200,43.9004904,39.3390824
11,улица Багратиона,354200,43.9021029,39.3348790
15,улица Малышева,354200,43.9164689,39.3489310
2,улица Энтузиастов,354200,43.9043317,39.3299410
6,улица Энтузиастов,354200,43.9039589,39.3303304
4А,улица Энтузиастов,354200,43.9040367,39.3302173
8/2,улица Энтузиастов,354200,43.9037324,39.3306367
10/2,улица Энтузиастов,354200,43.9032859,39.3305023
4,улица Энтузиастов,354200,43.9041977,39.3301049
8/1,улица Энтузиастов,354200,43.9038895,39.3305254
12/2,Сочинское шоссе,354200,43.8958720,39.3492186
18,улица Суворова,354200,43.8958000,39.3511966
5А,Хвойная улица,354200,43.8966366,39.3523929
1/5,Хвойная улица,354200,43.8976257,39.3510074
3А,Приморская улица,354000,43.5769711,39.7226760
3/14б,Приморская улица,354000,43.5760085,39.7237023
11,Речная улица,354200,43.9042163,39.3342379
15,Речная улица,354200,43.9041321,39.3337807
97,улица Победы,354200,43.9136850,39.3262687
13,Речная улица,354200,43.9041729,39.3340012
5,улица Пугачёва,354200,43.9133288,39.3367260
13,улица Пугачёва,354200,43.9140517,39.3362056
9,улица Пугачёва,354200,43.9137562,39.3363583
7,улица Пугачёва,354200,43.9134978,39.3365994
11,улица Пугачёва,354200,43.9138920,39.3362616
45,Речная улица,354200,43.9031095,39.3317325
100,улица Победы,354200,43.9149087,39.3247275
11А,улица Лазарева,354200,43.9142732,39.3225903
15,улица Лазарева,354200,43.9162037,39.3194282
8,улица Циолковского,354200,43.9197456,39.3183812
153,улица Победы,354200,43.9192126,39.3191908
29,улица Лазарева,354200,43.9190446,39.3166200
25А,улица Лазарева,354200,43.9193925,39.3161162
64/2,улица Калараша,354200,43.9175458,39.3477521
172,улица Лазарева,354200,43.9244379,39.3123943
170,улица Лазарева,354200,43.9242666,39.3124990
5,улица Белинского,354200,43.9250964,39.3133151
9,улица Белинского,354200,43.9249063,39.3128650
3,улица Белинского,354200,43.9252201,39.3135250
12,улица Белинского,354200,43.9250227,39.3122173
4,улица Белинского,354200,43.9254213,39.3129887
7,улица Белинского,354200,43.9250084,39.3130958
14,улица Белинского,354200,43.9249105,39.3119944
6,улица Белинского,354200,43.9253029,39.3127693
27,Свирская улица,354200,43.9279620,39.3173826
21/5,Свирская улица,354200,43.9277218,39.3172426
13,Свирская улица,354200,43.9254076,39.3147673
197,улица Победы,354200,43.9252295,39.3141456
224,улица Победы,354200,43.9255771,39.3141658
210/3,улица Победы,354200,43.9245640,39.3151922
210/2,улица Победы,354200,43.9244239,39.3152888
35,улица Циолковского,354200,43.9238560,39.3228695
38,улица Циолковского,354200,43.9225099,39.3236220
33,улица Циолковского,354200,43.9236649,39.3229852
31,улица Циолковского,354200,43.9234879,39.3231337
40/1,улица Циолковского,354200,43.9226905,39.3238827
6А,Кольцевая улица,354200,43.9186732,39.3219445
7,Кольцевая улица,354200,43.9188417,39.3213292
1/1,Кольцевая улица,354200,43.9192515,39.3211354
3,Кольцевая улица,354200,43.9191208,39.3212001
6,Кольцевая улица,354200,43.9186105,39.3216542
4,Кольцевая улица,354200,43.9185755,39.3214335
3,улица Ильича,354200,43.9127680,39.3292320
28,улица Шевченко,354200,43.9134904,39.3296246
29,улица Шевченко,354200,43.9129608,39.3294700
12,улица Ильича,354200,43.9137876,39.3288134
4,улица Ильича,354200,43.9131773,39.3289216
27,улица Шевченко,354200,43.9126506,39.3294947
6,улица Ильича,354200,43.9132312,39.3287149
2/5,Речная улица,354200,43.9042716,39.3360111
13,улица Одоевского,354200,43.9051314,39.3351630
11,улица Багратиона,354200,43.9023954,39.3353071
19А,улица Павлова,354200,43.9070095,39.3281665
9/2,Бирюзовая улица,354200,43.9070114,39.3265859
9А,Бирюзовая улица,354200,43.9071102,39.3265221
19,улица Павлова,354200,43.9069487,39.3280568
6,Бирюзовая улица,354200,43.9070696,39.3269339
6/1,Бирюзовая улица,354200,43.9071520,39.3268319
21,улица Павлова,354200,43.9070830,39.3283019
9,улица Павлова,354200,43.9063018,39.3268566
39,улица Павлова,354200,43.9081432,39.3303116
5,улица Павлова,354200,43.9061945,39.3266517
25,улица Павлова,354200,43.9073364,39.3287751
7,улица Павлова,354200,43.9062873,39.3267280
4,Бирюзовая улица,354200,43.9069573,39.3270302
164,улица Победы,354200,43.9201611,39.3188175
7,улица Циолковского,354200,43.9207277,39.3193529
5,улица Циолковского,354200,43.9206423,39.3192401
20,улица Циолковского,354200,43.9204579,39.3193829
18,улица Циолковского,354200,43.9202564,39.3190496
3,Речная улица,354200,43.9045597,39.3354427
13,улица Калараша,354200,43.9049984,39.3294278
1А,улица Калараша,354200,43.9041635,39.3284691
16,улица Калараша,354200,43.9052232,39.3303438
4,улица Калараша,354200,43.9039235,39.3286945
3,улица Калараша,354200,43.9043032,39.3285984
15,улица Калараша,354200,43.9050789,39.3295074
47,улица Калараша,354200,43.9068743,39.3318053
8,улица Калараша,354200,43.9045963,39.3295200
43,улица Калараша,354200,43.9066679,39.3315350
32,улица Калараша,354200,43.9061777,39.3314124
38,улица Калараша,354200,43.9067771,39.3321720
1,улица Калараша,354200,43.9041891,39.3283347
49,улица Калараша,354200,43.9069593,39.3319375
8А,улица Калараша,354200,43.9046809,39.3296577
45,улица Калараша,354200,43.9067604,39.3316828
3/1,улица Калараша,354200,43.9043827,39.3287033
1Б,улица Калараша,354200,43.9042026,39.3285414
12,улица Калараша,354200,43.9048744,39.3298730
18,улица Калараша,354200,43.9053428,39.3304835
11А,улица Калараша,354200,43.9048971,39.3293331
41,улица Калараша,354200,43.9065833,39.3313757
28,улица Калараша,354200,43.9059587,39.3312138
17,улица Калараша,354200,43.9051461,39.3296282
30,улица Калараша,354200,43.9060877,39.3313073
10,улица Калараша,354200,43.9047850,39.3297686
7А,улица Калараша,354200,43.9046298,39.3290159
11,улица Калараша,354200,43.9048216,39.3292619
26,улица Калараша,354200,43.9057654,39.3309781
4,улица Калараша,354200,43.9040322,39.3287924
9,улица Калараша,354200,43.9047429,39.3291202
34,улица Калараша,354200,43.9062045,39.3317188
14,улица Калараша,354200,43.9050326,39.3300145
23,улица Калараша,354200,43.9054935,39.3300699
21,улица Калараша,354200,43.9053686,39.3299152
33,улица Одоевского,354200,43.9059156,39.3338173
39,улица Одоевского,354200,43.9061523,39.3332936
35,улица Одоевского,354200,43.9060915,39.3337353
30,улица Шевченко,354200,43.9137461,39.3294119
2,Партизанский переулок,354200,43.9150825,39.3298154
20,улица Нахимова,354200,43.9078673,39.3268815
12/1,улица Ушакова,354200,43.9099569,39.3256641
6/2,улица Нахимова,354200,43.9095250,39.3251477
9,улица Ушакова,354200,43.9099323,39.3250477
3,улица Нахимова,354200,43.9100616,39.3249024
10А,улица Нахимова,354200,43.9092842,39.3253788
8,улица Нахимова,354200,43.9093948,39.3252637
15/2,улица Ушакова,354200,43.9103178,39.3256837
21А,улица Нахимова,354200,43.9077854,39.3272580
9,Спортивная улица,354200,43.9088206,39.3269614
23,Спортивная улица,354200,43.9078684,39.3250601
13,Спортивная улица,354200,43.9086594,39.3266306
14,Спортивная улица,354200,43.9079822,39.3249907
15,Спортивная улица,354200,43.9085833,39.3264566
19А,Спортивная улица,354200,43.9081245,39.3255711
11А,Спортивная улица,354200,43.9087284,39.3267211
1,Спортивная улица,354200,43.9095315,39.3283192
11,Спортивная улица,354200,43.9087586,39.3268519
3А,улица Добролюбова,354200,43.9267908,39.3118887
6А,улица Добролюбова,354200,43.9268583,39.3114953
8,улица Добролюбова,354200,43.9266124,39.3110144
10,улица Добролюбова,354200,43.9265580,39.3108879
4,Бризовый переулок,354200,43.9281056,39.3095853
5,Бризовый переулок,354200,43.9280329,39.3098392
234,улица Победы,354200,43.9265448,39.3129579
171,улица Победы,354200,43.9210191,39.3174226
228,улица Победы,354200,43.9261745,39.3135058
219,улица Победы,354200,43.9267105,39.3122907
232А,улица Победы,354200,43.9264283,39.3130204
236,улица Победы,354200,43.9268471,39.3129438
226,улица Победы,354200,43.9258330,39.3138474
215,улица Победы,354200,43.9265005,39.3125926
238,улица Победы,354200,43.9268877,39.3127537
209,улица Победы,354200,43.9261788,39.3129523
213,улица Победы,354200,43.9264391,39.3126721
317,улица Победы,354200,43.9379448,39.3012789
305,улица Победы,354200,43.9370306,39.3027034
319,улица Победы,354200,43.9379834,39.3009670
297,улица Победы,354200,43.9360100,39.3038055
267,улица Победы,354200,43.9335779,39.3052946
289,улица Победы,354200,43.9353991,39.3040599
336,улица Победы,354200,43.9337581,39.3056352
304,улица Победы,354200,43.9308307,39.3076199
306,улица Победы,354200,43.9310518,39.3076293
300,улица Победы,354200,43.9304030,39.3077832
298,улица Победы,354200,43.9302738,39.3078820
302,улица Победы,354200,43.9306167,39.3077203
292,улица Победы,354200,43.9300999,39.3084059
294,улица Победы,354200,43.9300695,39.3081793
286,улица Победы,354200,43.9296587,39.3086791
251,улица Победы,354200,43.9291883,39.3090865
251А,улица Победы,354200,43.9292710,39.3089760
248А,улица Победы,354200,43.9276826,39.3115565
250,улица Победы,354200,43.9277321,39.3114352
241,улица Победы,354200,43.9287106,39.3098395
239,улица Победы,354200,43.9286034,39.3099535
243,улица Победы,354200,43.9287775,39.3096790
237,улица Победы,354200,43.9284933,39.3101145
278,улица Победы,354200,43.9292690,39.3093138
245,улица Победы,354200,43.9288897,39.3095613
246А,улица Победы,354200,43.9274351,39.3118520
270,улица Победы,354200,43.9288337,39.3100780
225,улица Победы,354200,43.9275373,39.3113505
276А,улица Победы,354200,43.9292207,39.3094483
256,улица Победы,354200,43.9282369,39.3108366
258,улица Победы,354200,43.9283436,39.3107179
282,улица Победы,354200,43.9294516,39.3090453
140,улица Лазарева,354200,43.9222927,39.3146223
71,улица Победы,354200,43.9108133,39.3293484
66,улица Лазарева,354200,43.9125400,39.3263028
35,Изумрудная улица,354200,43.9163977,39.3338086
31,Изумрудная улица,354200,43.9161500,39.3339950
29Е,Изумрудная улица,354200,43.9160438,39.3335406
33,Изумрудная улица,354200,43.9163030,39.3339530
20/1,Изумрудная улица,354200,43.9132195,39.3352936
26,Изумрудная улица,354200,43.9136049,39.3350849
25,Изумрудная улица,354200,43.9139354,39.3345293
2А,улица Победы,354200,43.9056288,39.3374268
139,улица Победы,354200,43.9173067,39.3210906
154А,улица Победы,354200,43.9192949,39.3196528
165,улица Калараша,354200,43.9175903,39.3438955
149,улица Калараша,354200,43.9170729,39.3448004
165,улица Калараша,354200,43.9167375,39.3447090
167,улица Калараша,354200,43.9172449,39.3454441
167Б,улица Калараша,354200,43.9180364,39.3469195
2А,улица Победы,354200,43.9053355,39.3381176
2С,Аэродромная улица,354200,43.9075693,39.3382814
27,улица Тормахова 3 Квартал,354200,43.9076219,39.3425933
37,улица Тормахова 2 Квартал,354200,43.9117773,39.3483672
171,улица Калараша,354200,43.9190060,39.3506469
42,улица Павлова,354200,43.9117800,39.3356288
34/1,улица Павлова,354200,43.9107565,39.3343848
50Б,улица Павлова,354200,43.9121973,39.3363007
12/5,Родниковая улица,354200,43.9160595,39.3330073
98,улица Победы,354200,43.9144738,39.3253664
150,улица Победы,354200,43.9180259,39.3211019
68,улица Победы,354200,43.9119743,39.3287872
68А,улица Победы,354200,43.9121050,39.3288359
44,улица Победы,354200,43.9092255,39.3318170
16А,улица Согласия,354200,43.9109701,39.3403100
8,улица Согласия,354200,43.9101091,39.3405417
9,улица Суворова,354200,43.8967670,39.3509283
27,Сочинское шоссе,354200,43.8960943,39.3502205
23,Сочинское шоссе,354200,43.8962729,39.3499125
3,улица Суворова,354200,43.8970468,39.3504588
15,улица Суворова,354200,43.8961226,39.3513606
11,улица Суворова,354200,43.8966089,39.3511198
5,Хвойная улица,354200,43.8963032,39.3522307
13,улица Суворова,354200,43.8963961,39.3512410
33А,Сочинское шоссе,354200,43.8956307,39.3506037
5,улица Суворова,354200,43.8969580,39.3506565
3,улица Толстого,354200,43.8971066,39.3496393
35,Сочинское шоссе,354200,43.8951928,39.3508997
16А,Хвойная улица,354200,43.8962581,39.3517860
19,Сочинское шоссе,354200,43.8964628,39.3497864
1,улица Суворова,354200,43.8971392,39.3502396
29,Сочинское шоссе,354200,43.8958808,39.3503775
16,Хвойная улица,354200,43.8961205,39.3516542
6,улица Суворова,354200,43.8967203,39.3504776
43,Сочинское шоссе,354200,43.8949485,39.3522890
77/5,Сочинское шоссе,354200,43.8942051,39.3570500
61,Сочинское шоссе,354200,43.8960687,39.3545328
53,Сочинское шоссе,354200,43.8953278,39.3538168
59,Сочинское шоссе,354200,43.8958437,39.3542250
47,Сочинское шоссе,354200,43.8949094,39.3530449
51,Сочинское шоссе,354200,43.8953291,39.3535734
49,Сочинское шоссе,354200,43.8952187,39.3533745
41,Сочинское шоссе,354200,43.8949203,39.3519560
39,Сочинское шоссе,354200,43.8949808,39.3516679
28,Сочинское шоссе,354200,43.8945212,39.3525918
43А,Сочинское шоссе,354200,43.8948216,39.3525105
55,Сочинское шоссе,354200,43.8954743,39.3539746
2Б,улица Бытха,354054,43.5668957,39.7542193
30,Новая улица,354200,43.9344678,39.3058867
20,Новая улица,354200,43.9334823,39.3067373
15,Новая улица,354200,43.9343185,39.3055154
38,Новая улица,354200,43.9350297,39.3055946
36,Новая улица,354200,43.9348983,39.3057088
32,Новая улица,354200,43.9345927,39.3057792
42,Новая улица,354200,43.9354052,39.3053163
18,Новая улица,354200,43.9333161,39.3070188
17,Новая улица,354200,43.9353495,39.3050085
11/3,Новая улица,354200,43.9332596,39.3065673
34,Новая улица,354200,43.9347432,39.3057144
13,Новая улица,354200,43.9335469,39.3062594
153А,улица Победы,354200,43.9177672,39.3207244
152А,улица Победы,354200,43.9191686,39.3197187
153/3,улица Победы,354200,43.9193712,39.3191033
137,улица Победы,354200,43.9171442,39.3212469
46,улица Калараша,354200,43.9074631,39.3332285
56А,улица Калараша,354200,43.9085798,39.3349286
3,Марьинское шоссе,354200,43.9025554,39.3404508
38,Марьинское шоссе,354200,43.9048614,39.3449909
10,Марьинское шоссе,354200,43.9031680,39.3416340
37,Марьинское шоссе,354200,43.9054950,39.3456813
21,Марьинское шоссе,354200,43.9045942,39.3431250
47,Марьинское шоссе,354200,43.9059764,39.3468759
13А,Марьинское шоссе,354200,43.9037771,39.3418816
14,Марьинское шоссе,354200,43.9034980,39.3420104
33А,Марьинское шоссе,354200,43.9052628,39.3451611
25А,Марьинское шоссе,354200,43.9047466,39.3437921
4,улица Маяковского,354200,43.9028291,39.3414223
15А,улица Маяковского,354200,43.9023268,39.3435442
11,улица Тормахова 1 Квартал,354200,43.9112131,39.3397940
20,Днепровская улица,354200,43.9065050,39.3449850
28,Днепровская улица,354200,43.9072969,39.3456110
9,Сосновая улица,354200,43.9068274,39.3477501
7,Сосновая улица,354200,43.9066821,39.3475928
6,Сосновая улица,354200,43.9066653,39.3479581
4Б,Сочинское шоссе,354200,43.9015374,39.3415527
4В,Сочинское шоссе,354200,43.9011716,39.3416027
6Г,Сочинское шоссе,354200,43.9011448,39.3420888
221,улица Победы,354200,43.9272050,39.3117511
165,улица Победы,354200,43.9197812,39.3186339
25,Партизанская улица,354200,43.9133425,39.3302432
2А,Аэродромный переулок,354200,43.9080192,39.3350539
7В,Аэродромный переулок,354200,43.9085810,39.3356270
70,Марьинское шоссе,354200,43.9062174,39.3496332
72,Марьинское шоссе,354200,43.9062392,39.3499992
74,Марьинское шоссе,354200,43.9061280,39.3502263
76,Марьинское шоссе,354200,43.9063956,39.3502480
7,Навагинская улица,354000,43.5862340,39.7222368
295,улица Победы,354200,43.9357695,39.3040197
29,Родниковая улица,354200,43.9173809,39.3331325
31/1,Родниковая улица,354200,43.9170106,39.3336817
12/8,Родниковая улица,354200,43.9164721,39.3328408
184,улица Лазарева,354200,43.9253239,39.3116428
154,улица Лазарева,354200,43.9230952,39.3137842
188,улица Лазарева,354200,43.9255202,39.3115132
144,улица Лазарева,354200,43.9222214,39.3141630
156,улица Лазарева,354200,43.9233037,39.3133127
162,улица Лазарева,354200,43.9235746,39.3132118
150,улица Лазарева,354200,43.9227276,39.3138002
206,улица Лазарева,354200,43.9274029,39.3100473
1,улица Рыбацкий посёлок,354200,43.8980094,39.3428646
20А,улица Горького,354000,43.5841731,39.7242013
2А,Бакинская улица,354375,43.4200110,39.9703203
2А/3,Бакинская улица,354375,43.4201597,39.9700780
22,Мирная улица,354200,43.9233421,39.3176528
11,Пролетарская улица,354200,43.9230134,39.3184288
15,Пролетарская улица,354200,43.9235208,39.3179250
2,Мирная улица,354200,43.9212051,39.3192063
5Б,Мирная улица,354200,43.9217007,39.3183258
16,Мирная улица,354200,43.9224191,39.3182410
12,Мирная улица,354200,43.9219588,39.3186945
15А/1,Пролетарская улица,354200,43.9237064,39.3177328
4,Мирная улица,354200,43.9213908,39.3191470
28/4,Пролетарская улица,354200,43.9234870,39.3182839
5,Мирная улица,354200,43.9214007,39.3186697
13,Пролетарская улица,354200,43.9231562,39.3182369
26,Пролетарская улица,354200,43.9232961,39.3184669
7,Мирная улица,354200,43.9219788,39.3181059
6,Мирная улица,354200,43.9215864,39.3189647
9,Мирная улица,354200,43.9226350,39.3176289
1,Мирная улица,354200,43.9209216,39.3190602
28,Пролетарская улица,354200,43.9236741,39.3181219
11,Мирная улица,354200,43.9233277,39.3171035
16,улица Айвазовского,354200,43.9255091,39.3185029
5,Пролетарская улица,354200,43.9219526,39.3190380
8,Пролетарская улица,354200,43.9216443,39.3200082
10,улица Айвазовского,354200,43.9229229,39.3191062
10Б,улица Айвазовского,354200,43.9233089,39.3193453
3,Пролетарская улица,354200,43.9217868,39.3192253
20,Пролетарская улица,354200,43.9221457,39.3192389
7,Пролетарская улица,354200,43.9221656,39.3188468
12,Пролетарская улица,354200,43.9216112,39.3197256
18,Пролетарская улица,354200,43.9220257,39.3193799
6,улица Айвазовского,354200,43.9228002,39.3193843
9,Пролетарская улица,354200,43.9225919,39.3185080
22,Пролетарская улица,354200,43.9223315,39.3190754
14,Пролетарская улица,354200,43.9217608,39.3196573
12,улица Айвазовского,354200,43.9231640,39.3188743
81А,улица Калараша,354200,43.9093137,39.3355440
3,улица Тормахова 3 Квартал,354200,43.9095523,39.3448080
24,улица Тормахова 3 Квартал,354200,43.9095700,39.3434529
28,улица Сьянова,354200,43.9098119,39.3443547
6,улица Сьянова,354200,43.9093228,39.3437313
19,улица Сьянова,354200,43.9080270,39.3434635
32,улица Тормахова 3 Квартал,354200,43.9098061,39.3429144
14,улица Сьянова,354200,43.9092098,39.3443915
12,улица Сьянова,354200,43.9093673,39.3442079
21,улица Тормахова 3 Квартал,354200,43.9091851,39.3428940
5/1,улица Одоевского,354200,43.9046991,39.3347746
3,улица Одоевского,354200,43.9047829,39.3349492
3А,улица Одоевского,354200,43.9048752,39.3351255
12,Бирюзовая улица,354200,43.9077107,39.3260678
19,Бирюзовая улица,354200,43.9076103,39.3257450
3А,Хвойная улица,354200,43.8965793,39.3520493
3,Хвойная улица,354200,43.8967760,39.3519810
3,улица Айвазовского,354200,43.9223092,39.3199698
5,улица Айвазовского,354200,43.9224120,39.3197265
191,улица Победы,354200,43.9229325,39.3157953
2,Октябрьский переулок,354200,43.9204040,39.3165116
10,Октябрьская улица,354200,43.9216921,39.3163541
6/1,Октябрьский переулок,354200,43.9208023,39.3162071
2А/1,Сочинское шоссе,354200,43.9017974,39.3387832
22,Сочинское шоссе,354200,43.8938134,39.3524670
8/5,улица Энтузиастов,354200,43.9034623,39.3302594
20,улица Тормахова 3 Квартал,354200,43.9090695,39.3426955
21,улица Тормахова 2 Квартал,354200,43.9098963,39.3456955
12,улица Тормахова 3 Квартал,354200,43.9087188,39.3434961
11,улица Тормахова 3 Квартал,354200,43.9087640,39.3432483
10,улица Тормахова 2 Квартал,354200,43.9093277,39.3450261
36,улица Тормахова 3 Квартал,354200,43.9080598,39.3430073
7,улица Тормахова 1 Квартал,354200,43.9106400,39.3398336
3,Аэродромная улица,354200,43.9078652,39.3381628
4/1,Аэродромная улица,354200,43.9082163,39.3365352
7,улица Единство,354200,43.9123271,39.3414851
11,улица Согласия,354200,43.9102998,39.3398218
139,улица Калараша,354200,43.9130795,39.3391717
70,улица Павлова,354200,43.9171493,39.3429515
64/4,улица Калараша,354200,43.9174432,39.3484027
4,Аэродромная улица,354200,43.9084701,39.3362665
12,улица Говорова,354200,43.9074224,39.3359525
6,Аэродромный переулок,354200,43.9081657,39.3353202
89,улица Калараша,354200,43.9095840,39.3359346
5,Аэродромный переулок,354200,43.9085032,39.3354543
73,улица Калараша,354200,43.9097342,39.3338540
45,улица Павлова,354200,43.9097527,39.3322286
49/3,улица Павлова,354200,43.9099635,39.3321374
45/1,улица Павлова,354200,43.9097888,39.3320583
3,улица Говорова,354200,43.9074965,39.3356160
1,переулок Радио,354200,43.9169884,39.3261411
3,Сочинское шоссе,354200,43.8975332,39.3493993
9А,Хвойная улица,354200,43.8972714,39.3525873
5,Сочинское шоссе,354200,43.8973223,39.3491724
6,Хвойная улица,354200,43.8972321,39.3511048
1Д,Сочинское шоссе,354200,43.8987157,39.3507214
9,Сочинское шоссе,354200,43.8970696,39.3490139
8,улица Толстого,354200,43.8973959,39.3505716
1,Хвойная улица,354200,43.8969677,39.3519072
9Б,Хвойная улица,354200,43.8973929,39.3524839
4,Хвойная улица,354200,43.8973566,39.3508900
1/8,Сочинское шоссе,354200,43.8991170,39.3514297
1,Сочинское шоссе,354200,43.8976744,39.3495143
6/20,Сочинское шоссе,354200,43.8976251,39.3491028
14,улица Суворова,354200,43.8961074,39.3509610
14,Хвойная улица,354200,43.8965346,39.3516334
1А,Сочинское шоссе,354200,43.8978080,39.3496635
5,улица Толстого,354200,43.8972398,39.3498536
15,Сочинское шоссе,354200,43.8966759,39.3492181
17,Сочинское шоссе,354200,43.8965911,39.3493818
1Б,Сочинское шоссе,354200,43.8979089,39.3498150
8,Хвойная улица,354200,43.8971204,39.3512481
20,Хвойная улица,354200,43.8959768,39.3523506
16,улица Суворова,354200,43.8959236,39.3510440
7,Сочинское шоссе,354200,43.8971836,39.3491347
1Г,Сочинское шоссе,354200,43.8981837,39.3500115
8,улица Суворова,354200,43.8966219,39.3506968
13,Сочинское шоссе,354200,43.8968446,39.3491551
4,улица Суворова,354200,43.8968328,39.3502414
7/12,Хвойная улица,354200,43.8982884,39.3523361
11,Сочинское шоссе,354200,43.8969479,39.3490120
1В,Сочинское шоссе,354200,43.8980463,39.3499357
117,улица Калараша,354200,43.9111811,39.3377337
14,улица Тормахова 2 Квартал,354200,43.9100501,39.3454299
16,Аэродромная улица,354200,43.9088959,39.3365108
2,улица Единство,354200,43.9128271,39.3408434
7,Аэродромная улица,354200,43.9070918,39.3365199
1,улица Моряков,354200,43.9031580,39.3426812
9,улица Маяковского,354200,43.9027302,39.3431300
16А,улица Моряков,354200,43.9039954,39.3452206
6/7,Сочинское шоссе,354200,43.9003910,39.3473801
6/9,Сочинское шоссе,354200,43.9004715,39.3468221
6/11,Сочинское шоссе,354200,43.9006914,39.3463940
6/4,Сочинское шоссе,354200,43.9001077,39.3480943
8/4,Сочинское шоссе,354200,43.9021474,39.3466041
75А,Сочинское шоссе,354200,43.8910517,39.3592235
75,Сочинское шоссе,354200,43.8910025,39.3581463
77/10,Сочинское шоссе,354200,43.8954351,39.3571547
77/8,Сочинское шоссе,354200,43.8941542,39.3576688
77/14,Сочинское шоссе,354200,43.8942000,39.3566660
77/9,Сочинское шоссе,354200,43.8946305,39.3581139
77/4,Сочинское шоссе,354200,43.8945936,39.3569046
77/7а,Сочинское шоссе,354200,43.8948412,39.3577107
77/3,Сочинское шоссе,354200,43.8948870,39.3568878
77,Сочинское шоссе,354200,43.8936659,39.3574345
77/2,Сочинское шоссе,354200,43.8951100,39.3567843
77/6,Сочинское шоссе,354200,43.8946044,39.3574405
77/7,Сочинское шоссе,354200,43.8945076,39.3576375
14,Сочинское шоссе,354200,43.8954768,39.3495969
12,Сочинское шоссе,354200,43.8956863,39.3493426
7,улица Айвазовского,354200,43.9225924,39.3192049
273,улица Победы,354200,43.9339791,39.3047945
5,Новая улица,354200,43.9316164,39.3079752
22,улица Седова,354200,43.9343865,39.3064849
26,Свирская улица,354200,43.9261794,39.3170188
41/1,переулок Победы,354200,43.9289721,39.3110653
9/2,Новая улица,354200,43.9318519,39.3078747
16,Новая улица,354200,43.9331193,39.3071918
58,переулок Победы,354200,43.9301508,39.3100486
11А,Новая улица,354200,43.9324183,39.3073551
138,улица Лазарева,354200,43.9222327,39.3144610
45,переулок Победы,354200,43.9295547,39.3107063
25,улица Циолковского,354200,43.9226206,39.3233075
326,улица Победы,354200,43.9330111,39.3062929
10,улица Седова,354200,43.9329668,39.3079515
330,улица Победы,354200,43.9332985,39.3059287
14,Новая улица,354200,43.9328534,39.3072308
14,улица Седова,354200,43.9333142,39.3075953
8,улица Седова,354200,43.9328174,39.3081035
313,улица Победы,354200,43.9376012,39.3018671
4,Новая улица,354200,43.9320623,39.3080022
4,улица Седова,354200,43.9324500,39.3084189
32А,улица Циолковского,354200,43.9218755,39.3221532
12,Октябрьский переулок,354200,43.9215741,39.3155644
307А,улица Победы,354200,43.9372154,39.3023869
154А,улица Лазарева,354200,43.9231515,39.3135366
283А,улица Победы,354200,43.9348464,39.3042764
334,улица Победы,354200,43.9335933,39.3057565
142/6,улица Лазарева,354200,43.9224172,39.3149025
26А,улица Циолковского,354200,43.9209803,39.3207576
2,Новая улица,354200,43.9318893,39.3081308
21,улица Циолковского,354200,43.9222221,39.3223380
36,улица Циолковского,354200,43.9223867,39.3233132
1,Пролетарская улица,354200,43.9215485,39.3193997
6,улица Седова,354200,43.9325980,39.3081853
315,улица Победы,354200,43.9377775,39.3017622
49,переулок Победы,354200,43.9297935,39.3104305
183А,улица Победы,354200,43.9221651,39.3163734
187А,улица Победы,354200,43.9225292,39.3161147
101,улица Одоевского,354200,43.9150837,39.3192571
93,улица Одоевского,354200,43.9143056,39.3200408
23,Марьинское шоссе,354200,43.9048077,39.3435408
78,Марьинское шоссе,354200,43.9065253,39.3502900
3А,улица Лазарева,354200,43.9060051,39.3352018
8,улица Говорова,354200,43.9071618,39.3355079
6,улица Говорова,354200,43.9070863,39.3353174
4,улица Говорова,354200,43.9070020,39.3351984
20,улица Лазарева,354200,43.9068194,39.3340002
6,улица Лазарева,354200,43.9061936,39.3348266
6А,улица Победы,354200,43.9065646,39.3358976
97,улица Одоевского,354200,43.9146247,39.3197727
99,улица Одоевского,354200,43.9148286,39.3195307
67,Сочинское шоссе,354200,43.8930934,39.3601118
65,Сочинское шоссе,354200,43.8931591,39.3599808
77А,улица Победы,354200,43.9116767,39.3283713
89,улица Победы,354200,43.9133965,39.3267485
93/1,улица Победы,354200,43.9134762,39.3266036
1/1,Сочинское шоссе,354200,43.9021367,39.3418881
21-3км,Марьинское шоссе,354200,43.9150000,39.3534666
23-3км,Марьинское шоссе,354200,43.9151863,39.3534535
38А,улица Павлова,354200,43.9111631,39.3349542
1А,улица Павлова,354200,43.9062072,39.3259446
1А,улица Павлова,354200,43.9063016,39.3258735
64,улица Победы,354200,43.9115879,39.3290855
6Б,Аэродромный переулок,354200,43.9081887,39.3357768
7Б,Аэродромный переулок,354200,43.9084117,39.3357087
12,Станичная улица,354200,43.9232638,39.3392076
43,Станичная улица,354200,43.9222119,39.3397772
19/3,Станичная улица,354200,43.9233056,39.3380109
3А,Станичная улица,354200,43.9225254,39.3392602
38,Станичная улица,354200,43.9248660,39.3366299
148,улица Победы,354200,43.9179618,39.3214475
9,Кольцевая улица,354200,43.9187762,39.3214580
364,улица Победы,354200,43.9367731,39.3036660
322,улица Победы,354200,43.9326695,39.3066013
64,Новая улица,354200,43.9378626,39.3032174
370,улица Победы,354200,43.9372853,39.3033009
14,Туристская улица,354205,43.9551745,39.2802319
10,Туристская улица,354205,43.9549516,39.2808536
36,Туристская улица,354205,43.9570370,39.2748752
168,улица Лазарева,354200,43.9238859,39.3128277
2,улица Айвазовского,354200,43.9226158,39.3198893
7/2,Пролетарская улица,354200,43.9223296,39.3186875
41,улица Циолковского,354200,43.9230990,39.3227553
23,Пролетарская улица,354200,43.9225342,39.3228316
24,Пролетарская улица,354200,43.9227710,39.3187837
19,Свирская улица,354200,43.9256816,39.3156548
17,Свирская улица,354200,43.9255679,39.3162411
17,Речная улица,354200,43.9043878,39.3335173
100А,улица Победы,354200,43.9146626,39.3254747
30,Хвойная улица,354200,43.8973003,39.3517320
31,Хвойная улица,354200,43.8971078,39.3519382
46,Хвойная улица,354200,43.8978525,39.3533939
10,Хвойная улица,354200,43.8969675,39.3514919
3,Партизанский переулок,354200,43.9142295,39.3296124
184,улица Победы,354200,43.9222223,39.3174396
41,улица Одоевского,354200,43.9064073,39.3331307
153В,улица Победы,354200,43.9183412,39.3200759
12,Туристская улица,354205,43.9553807,39.2807260
265,улица Победы,354200,43.9332406,39.3054824
342,улица Победы,354200,43.9343064,39.3050617
263,улица Победы,354200,43.9330317,39.3052505
332,улица Победы,354200,43.9333845,39.3057823
350,улица Победы,354200,43.9351102,39.3047717
346,улица Победы,354200,43.9347394,39.3048877
368,улица Победы,354200,43.9369721,39.3033095
344/2,улица Победы,354200,43.9345366,39.3049471
21/2,Свирская улица,354200,43.9273319,39.3171253
1/2,Свирская улица,354200,43.9241757,39.3133138
1А,Свирская улица,354200,43.9244056,39.3132134
3/2,Свирская улица,354200,43.9243472,39.3135731
3/1,Свирская улица,354200,43.9245159,39.3133919
1/1,Свирская улица,354200,43.9240607,39.3131176
8,Сочинское шоссе,354200,43.9010321,39.3473216
2 к1,улица Тормахова,354200,43.9087443,39.3389696
2 к2,улица Тормахова,354200,43.9093061,39.3385884
2 к3,улица Тормахова,354200,43.9088101,39.3381967
219А/4,улица Ленина,354367,43.4718886,39.8971131
288,улица Ленина,354382,43.4770100,39.8998666
10,переулок Правды,354202,43.7973704,39.4567270
16,Пролетарская улица,354200,43.9219148,39.3195105
15,улица Циолковского,354200,43.9211319,39.3200836
11,улица Циолковского,354200,43.9209468,39.3197770
17/1,Приморская улица,354000,43.5728263,39.7271028
59/10,Партизанская улица,354200,43.9168817,39.3266043
67,Партизанская улица,354200,43.9172494,39.3271226
54/12,улица Войкова,354000,43.5854314,39.7270990
71,Станичная улица,354200,43.9239482,39.3364706
21/3,Станичная улица,354200,43.9229615,39.3377416
55,Станичная улица,354200,43.9251748,39.3369719
2Г,Сочинское шоссе,354200,43.8995392,39.3398289
2Г,Сочинское шоссе,354200,43.9001323,39.3395042
12/2,Дивноморская улица,354054,43.5685424,39.7585943
22/2,Пролетарская улица,354200,43.9225618,39.3188887
19,улица Айвазовского,354200,43.9247203,39.3177766
11,улица Айвазовского,354200,43.9238263,39.3183822
34,Мирная улица,354200,43.9246662,39.3163085
34,Пролетарская улица,354200,43.9244045,39.3174385
24/1,улица Циолковского,354200,43.9203822,39.3201388
24,улица Циолковского,354200,43.9206656,39.3197399
3,Колхозная улица,354200,43.9137337,39.3274248
9,Родниковая улица,354200,43.9136470,39.3336265
11Б,Новая улица,354200,43.9326116,39.3072479
312,улица Победы,354200,43.9315440,39.3072887
67,Марьинское шоссе,354200,43.9075120,39.3500729
89,Марьинское шоссе,354200,43.9090575,39.3517543
77,Марьинское шоссе,354200,43.9078426,39.3511946
75,Марьинское шоссе,354200,43.9077417,39.3508157
7,улица Малышева,354200,43.9138632,39.3499809
2/9,Аэродромная улица,354200,43.9072766,39.3393940
3,улица Малышева,354200,43.9140929,39.3490413
8/2,улица Макаренко,354003,43.6107109,39.7453596
301,улица Победы,354200,43.9363738,39.3032251
303,улица Победы,354200,43.9366207,39.3029076
4А,улица Бестужева,354340,43.4196137,39.9226604
25,улица Павлика Морозова,354340,43.4261232,39.9213981
40А,улица Павлика Морозова,354340,43.4278316,39.9201520
26А,улица Свердлова,354340,43.4277285,39.9185890
36,улица Седова,354200,43.9375004,39.3039613
12/1,улица Верхний тупик,354000,43.5859280,39.7325785
48,Новая улица,354200,43.9360103,39.3051655
56,Хвойная улица,354200,43.8987329,39.3533691
60,Хвойная улица,354200,43.8994200,39.3537090
6,улица Рылеева,354200,43.9025842,39.3454070
80,улица Просвещения,354340,43.4268221,39.9145527
55Б,улица Богдана Хмельницкого,354340,43.4288087,39.9149959
6,Изумрудная улица,354200,43.9114618,39.3368025
55,Марьинское шоссе,354200,43.9064159,39.3483569
167А,улица Калараша,354200,43.9197489,39.3502114
155,улица Калараша,354200,43.9201688,39.3488481
68,Новая улица,354200,43.9382128,39.3025835
70,Новая улица,354200,43.9383460,39.3023911
27,Пролетарская улица,354200,43.9227299,39.3228746
33А,улица Горького,354000,43.5863791,39.7249207
30,улица Пирогова,354008,43.6068417,39.7143716
10 с2,Мацестинская улица,354024,43.5588378,39.7944641
8/2,улица Яна Фабрициуса,354002,43.5736515,39.7485875
23Б,улица Воровского,354000,43.5877964,39.7207018
31,Вишнёвая улица,354003,43.6235136,39.7492937
7,улица Новая Заря,354000,43.6062188,39.7320270
8/6,улица Макаренко,354003,43.6099821,39.7454374
38/4а,Олимпийская улица,354003,43.6123099,39.7479051
168,"СТ ""Макаренко""",354003,43.6122468,39.7481625
17/25,улица Голенева,354003,43.6102815,39.7441883
29,улица Свердлова,354340,43.4283217,39.9183460
23А,улица Свердлова,354340,43.4275511,39.9174979
101,улица Ленина,354340,43.4417455,39.9086354
76,улица Просвещения,354340,43.4266058,39.9150350
3,Корабельный переулок,354200,43.9086737,39.3274842
35,улица Тормахова 2 Квартал,354200,43.9115628,39.3478351
24,улица Тормахова 2 Квартал,354200,43.9109807,39.3470202
4/1а,Параллельная улица,354000,43.5900801,39.7319331
2А,Параллельная улица,354057,43.5901162,39.7321549
5,улица Чебрикова,354057,43.5974687,39.7333652
7Б,Лазурная улица,354364,43.4746770,39.8954184
1/5,Гранатная улица,354068,43.6286415,39.7227350
53,улица Тимирязева,354068,43.6338336,39.7282927
105,Курортный проспект,354054,43.5503223,39.7783064
37,улица Куйбышева,354340,43.4363510,39.9145403
20,улица Суворова,354200,43.8954593,39.3514112
35/1,улица Войкова,354000,43.5839912,39.7250503
14,улица Бестужева,354340,43.4193892,39.9229009
7,переулок Бестужева,354340,43.4191214,39.9218818
4,улица Бестужева,354340,43.4197793,39.9225001
7А,переулок Бестужева,354340,43.4192445,39.9217013
4А,улица Глинки,354200,43.9207351,39.3172973
153,улица Победы,354200,43.9182132,39.3183014
23,улица Лазарева,354200,43.9185605,39.3169259
153,улица Победы,354200,43.9190139,39.3191990
46,улица Лазарева,354200,43.9094092,39.3303425
138/4,улица Победы,354200,43.9179055,39.3218892
58,улица Лазарева,354200,43.9121191,39.3267531
167,улица Калараша,354200,43.9175951,39.3458731
2/17,улица Победы,354200,43.9079814,39.3409872
2/21,Аэродромная улица,354200,43.9079804,39.3400659
10А,Теневой переулок,354053,43.6406367,39.7015399
30,Теневой переулок,354396,43.6402420,39.7051813
4/2,Сочинское шоссе,354200,43.9014780,39.3444164
16/6,Партизанская улица,354200,43.9143495,39.3322190
1,улица Бытха,354054,43.5667464,39.7521973
17/30,Главная улица,354213,43.7557975,39.5176783
40Г,улица Тимирязева,354068,43.6294326,39.7259351
4 к3,Советская улица,354000,43.5834051,39.7192043
47/3,Курортный проспект,354000,43.5782511,39.7265816
11А,Навагинская улица,354000,43.5892784,39.7247887
87,"СТ ""Макаренко""",354003,43.6116473,39.7477499
147А,улица Калараша,354200,43.9165470,39.3420678
4,улица Войкова,354000,43.5806284,39.7219334
43А,Советская улица,354000,43.5888427,39.7261749
56 с1,улица Горького,354000,43.5906686,39.7274082
48,Советская улица,354000,43.5880268,39.7256247
3 к4,Московская улица,354000,43.5921260,39.7262081
3 к1,Московская улица,354000,43.5922805,39.7259245
48,улица Калараша,354200,43.9075254,39.3333542
1/12,Сочинское шоссе,354200,43.8997566,39.3518153
115,улица Калараша,354200,43.9110836,39.3375183
91А,улица Одоевского,354200,43.9145556,39.3204311
41,Пятигорская улица,354000,43.5865420,39.7499617
17/1,улица Возрождения,354054,43.5649131,39.7637047
41/4,улица Бытха,354054,43.5658509,39.7587149
8А,улица Бытха,354054,43.5670340,39.7567606
41/30а,Дивноморская улица,354054,43.5672311,39.7598742
11А,улица Орджоникидзе,354000,43.5776573,39.7243741
87,улица Горького,354000,43.5951048,39.7286276
87/5,улица Горького,354000,43.5954400,39.7281145
65В,улица Одоевского,354200,43.9081257,39.3294676
7А,улица Победы,354200,43.9063127,39.3354345
2Г,Сочинское шоссе,354200,43.8997755,39.3390656
5,Курортный проспект,354000,43.5847225,39.7184158
5,Курортный проспект,354000,43.5848962,39.7184314
87/1,улица Горького,354000,43.5959336,39.7290314
91,Вишнёвая улица,354003,43.6231674,39.7570207
8/6,Параллельная улица,354057,43.5905528,39.7348767
9,Театральная улица,354000,43.5736499,39.7310998
60,"СТ ""Макаренко""",354003,43.6116705,39.7499986
123,улица Калараша,354200,43.9114128,39.3379072
125,улица Калараша,354200,43.9117150,39.3375574
7 к2,улица Худякова,354375,43.4038616,40.0033250
23/2,улица Худякова,354375,43.4078851,40.0033284
23/1,улица Худякова,354375,43.4075958,40.0033247
19,улица Худякова,354375,43.4065402,40.0024375
25А,улица Павлика Морозова,354340,43.4259184,39.9212076
38А,Демократическая улица,354340,43.4241450,39.9269457
1А,Лесная улица,354375,43.4200425,39.9616326
17/13,улица Голенева,354003,43.6105745,39.7434877
26/5,Вишнёвая улица,354003,43.6179747,39.7575553
198,Пластунская улица,354055,43.6380413,39.7522141
30,Вертолётный переулок,354003,43.6263522,39.7523191
110/2,Виноградная улица,354008,43.6131674,39.7213094
13А,Лесная улица,354375,43.4231458,39.9647640
28А,Лесная улица,354375,43.4246921,39.9657524
23А,Лесная улица,354375,43.4248118,39.9647183
6/2,Лесная улица,354375,43.4239644,39.9686763
12/4,Лесная улица,354375,43.4250499,39.9691519
12 с1,Лесная улица,354375,43.4248259,39.9670746
13Б,Лесная улица,354375,43.4234234,39.9644739
10,Лесная улица,354375,43.4241560,39.9680962
12/2,Лесная улица,354375,43.4244041,39.9690830
12/3,Лесная улица,354375,43.4247510,39.9690763
5В,Лесная улица,354375,43.4214563,39.9625009
5А,Лесная улица,354375,43.4212977,39.9623061
13В,Лесная улица,354375,43.4234321,39.9646656
43Д,Виноградная улица,354008,43.6037522,39.7161274
8Б/7,улица Макаренко,354003,43.6106606,39.7485734
8Б/6,улица Макаренко,354003,43.6103103,39.7484273
8Б/3,улица Макаренко,354003,43.6107206,39.7477054
8Б/4,улица Макаренко,354003,43.6106749,39.7480120
23,Авиационная улица,354340,43.4329413,39.9359659
41Б,улица Гастелло,354340,43.4523156,39.9188750
19,Черноморская улица,354002,43.5664802,39.7380809
1,Грузинский переулок,354057,43.5959834,39.7327276
13 к2,Навагинская улица,354000,43.5906480,39.7258071
13Г,Черноморская улица,354002,43.5670844,39.7362366
165,улица Тимирязева,354068,43.6286427,39.7260795
5/9,Несебрская улица,354000,43.5822578,39.7184190
12Б,Северная улица,354000,43.5948588,39.7242770
20,улица Тормахова 2 Квартал,354200,43.9102730,39.3452192
11,улица Тормахова 2 Квартал,354200,43.9094905,39.3454557
4Б,улица Орджоникидзе,354000,43.5788018,39.7243898
16,улица Сьянова,354200,43.9090030,39.3446742
8,улица Сьянова,354200,43.9094107,39.3438632
34,улица Тормахова 3 Квартал,354200,43.9100601,39.3433003
9,улица Тормахова 2 Квартал,354200,43.9091005,39.3448997
14,улица Тормахова 3 Квартал,354200,43.9084186,39.3429633
7,улица Тормахова 2 Квартал,354200,43.9087899,39.3445457
2/19,Аэродромная улица,354200,43.9077803,39.3399109
2,улица Сьянова,354200,43.9090639,39.3441503
25,Аэродромная улица,354200,43.9082012,39.3403972
2/19,улица Победы,354200,43.9076688,39.3413414
2/10,Аэродромная улица,354200,43.9075522,39.3389691
2/8,Аэродромная улица,354200,43.9073431,39.3387733
12,Аэродромная улица,354200,43.9077359,39.3391197
2/6,Аэродромная улица,354200,43.9072023,39.3386233
22,улица Тормахова 2 Квартал,354200,43.9097948,39.3458405
12,улица Тормахова 2 Квартал,354200,43.9098267,39.3450069
23,улица Тормахова 2 Квартал,354200,43.9109093,39.3473422
26,улица Тормахова 2 Квартал,354200,43.9113864,39.3466701
71,Курортный проспект,354000,43.5744726,39.7314935
62А,улица Калараша,354200,43.9159237,39.3450026
6,переулок Павлова,354200,43.9158551,39.3406045
6,переулок Павлова,354200,43.9173990,39.3411250
85,улица Павлова,354200,43.9135923,39.3378114
85А,улица Павлова,354200,43.9134796,39.3375365
85Б,улица Павлова,354200,43.9133529,39.3372396
87,улица Павлова,354200,43.9141515,39.3385228
87А,улица Павлова,354200,43.9140388,39.3382479
87Б,улица Павлова,354200,43.9139122,39.3379511
91А,улица Павлова,354200,43.9151784,39.3396221
91Б,улица Павлова,354200,43.9150518,39.3393254
3/9,Приморская улица,354000,43.5779440,39.7211035
41,улица Тормахова 3 Квартал,354200,43.9093759,39.3422046
10,улица Согласия,354200,43.9105806,39.3406349
3,улица Согласия,354200,43.9095849,39.3397470
14,улица Единство,354200,43.9119236,39.3409631
10,улица Единство,354200,43.9122212,39.3408820
5,Чистая улица,354200,43.9126052,39.3420874
7/3,Чистая улица,354200,43.9126474,39.3424227
35,улица Единство,354200,43.9112679,39.3422730
7/2,Чистая улица,354200,43.9127630,39.3422776
37,улица Единство,354200,43.9115320,39.3426327
3А/1,улица Тормахова 3 Квартал,354200,43.9088101,39.3408688
21В,улица Тормахова 3 Квартал,354200,43.9089107,39.3410419
230А,Виноградная улица,354068,43.6357180,39.7052128
29Б,Яблочная улица,354053,43.6366340,39.7056689
65,Яблочная улица,354053,43.6378410,39.7062624
1Б,Несебрская улица,354000,43.5845304,39.7159344
2/2,Тоннельная улица,354000,43.5895982,39.7295917
1А,Несебрская улица,354000,43.5845890,39.7168395
87А,улица Горького,354000,43.5959362,39.7300769
17,улица Ульянова,354340,43.4253192,39.9183292
42А,улица Молокова,354348,43.4352497,39.9208545
46,улица Богдана Хмельницкого,354340,43.4273834,39.9188667
46А,улица Богдана Хмельницкого,354340,43.4274550,39.9188095
2/3,Аэродромная улица,354200,43.9072439,39.3367489
36,улица Роз,354000,43.5894834,39.7210473
26А,улица Конституции СССР,354000,43.5930528,39.7215341
1/5,улица Войкова,354000,43.5796060,39.7185833
195/9,Виноградная улица,354053,43.6307975,39.7067401
32/1,улица Фадеева,354053,43.6306247,39.7060537
224/4,Виноградная улица,354068,43.6331033,39.7085065
226А,Виноградная улица,354068,43.6338622,39.7076242
195/7,Виноградная улица,354053,43.6319888,39.7065613
29,улица Фадеева,354053,43.6314941,39.7059493
5Д,Анапская улица,354008,43.6332393,39.7038305
34,улица Фадеева,354053,43.6310811,39.7066730
27Б,улица Фадеева,354053,43.6312653,39.7061552
85,улица Плеханова,354053,43.6313854,39.7082149
38,улица Фадеева,354053,43.6313156,39.7070751
83,улица Плеханова,354053,43.6310798,39.7080823
66/5,улица Искры,354066,43.4929572,39.8992332
22А,Московская улица,354000,43.5938549,39.7237779
86 к12,Курортный проспект,354002,43.5663537,39.7482536
86 к10,Курортный проспект,354002,43.5666062,39.7478669
14,улица Кудряшова,354200,43.9120112,39.3471883
3,улица Кудряшова,354200,43.9126323,39.3479585
10/1,улица Метелёва,354002,43.5770918,39.7525407
5/1,улица Поярко,354000,43.5829710,39.7202616
26/5,улица Тимирязева,354068,43.6289506,39.7226829
4А,Ясногорская улица,354054,43.5676330,39.7654507
2,Вертолётный переулок,354003,43.6269808,39.7477758
16/1литБ,Кипарисовая улица,354340,43.6316137,39.7462443
16/1,Кипарисовая улица,354340,43.6310337,39.7474127
11/356,Огородный переулок,354209,43.7335734,39.5418347
81Б,Волжская улица,354053,43.6261997,39.6965553
85А,Волжская улица,354053,43.6260137,39.6971372
79/2,Крымская улица,354053,43.6280104,39.6961907
38/1,Урожайная улица,354375,43.4064148,39.9962058
12/10,Родниковая улица,354200,43.9167792,39.3327737
38,переулок Победы,354200,43.9289972,39.3119674
32Б/1,Курортный проспект,354000,43.5804834,39.7248734
2Г,Сочинское шоссе,354200,43.8999877,39.3401388
3,улица Лазарева,354200,43.9128422,39.3243585
25,Яблочная улица,354396,43.6398600,39.7053579
28А,Яблочная улица,354053,43.6397991,39.7060267
108А,улица Лазарева,354200,43.9172901,39.3190911
9А,улица Лазарева,354200,43.9139576,39.3229398
14,улица Коммунальников,354200,43.9202995,39.3403145
60А,Партизанская улица,354200,43.9163769,39.3311143
4Б,улица Багратиона,354200,43.9018467,39.3351800
16/9,Партизанская улица,354200,43.9146651,39.3319216
15,Станичная улица,354200,43.9240020,39.3376463
25,Мирная улица,354200,43.9243209,39.3161772
4,улица Круизная гавань,354000,43.5810487,39.7123646
39А,улица Калараша,354200,43.9067437,39.3307992
1,Первомайская улица,354000,43.5814913,39.7238049
3,Советская улица,354000,43.5831415,39.7192000
15/9,Навагинская улица,354000,43.5911062,39.7254687
2/22,Аэродромная улица,354200,43.9080919,39.3402528
9/2,улица Циолковского,354200,43.9208097,39.3196490
37,переулок Победы,354200,43.9288125,39.3117108
40,переулок Победы,354200,43.9293547,39.3115979
30,переулок Победы,354200,43.9281871,39.3131745
1/6,Хвойная улица,354200,43.8978120,39.3512049
13А,переулок Победы,354200,43.9293890,39.3109437
6В,Тоннельная улица,354000,43.5868047,39.7285826
14/1,улица Чебрикова,354057,43.5980560,39.7353923
17/2,Транспортная улица,354003,43.6083899,39.7487597
9,Ст Кипарис,354003,43.6082888,39.7495186
23,Пригородная улица,354000,43.6057312,39.7437613
127,Огородный переулок,354209,43.7360166,39.5472866
9/1,Туапсинская улица,354000,43.5933074,39.7384062
15,улица Плеханова,354053,43.6290367,39.7069207
20,улица Седова,354200,43.9340455,39.3065367
24,Новая улица,354200,43.9338168,39.3065744
40,улица Циолковского,354200,43.9230362,39.3238058
9А,Октябрьская улица,354200,43.9213739,39.3164186
53/16,улица Плеханова,354008,43.6253601,39.7027308
53/14А,улица Плеханова,354008,43.6250009,39.7043124
3А,улица Фадеева,354053,43.6300150,39.7021828
45/3,улица Павлова,354200,43.9098476,39.3324104
2,Донецкий переулок,254375,43.4000807,40.0069304
28,улица Циолковского,354200,43.9212147,39.3208037
2/4,улица Бестужева,354340,43.4185189,39.9215940
108А с2,Донская улица,354068,43.6284296,39.7173502
135,улица Павлова,354200,43.9174101,39.3420710
50А,улица Павлова,354200,43.9125540,39.3370091
34/2 литБ,улица Орджоникидзе,354000,43.5743145,39.7302017
14,улица Павлова,354217,43.9085240,39.3315447
13,улица Циолковского,354200,43.9211114,39.3198876
2/15,Аэродромная улица,354200,43.9076742,39.3395526
99/11,Курортный проспект,354054,43.5527534,39.7713837
27,Вишнёвая улица,354003,43.6248358,39.7545740
9,Вишнёвая улица,354003,43.6244274,39.7549583
4/5,Несебрская улица,354000,43.5833573,39.7151346
5,улица Круизная гавань,354000,43.5805506,39.7130178
5 с1,улица Круизная гавань,354000,43.5810539,39.7131046
53,улица Верхняя Лысая Гора,354002,43.5787474,39.7458740
24А,улица Фадеева,354053,43.6308434,39.7049928
195/8А,Виноградная улица,354053,43.6315795,39.7066158
3/11,Анапская улица,354008,43.6322165,39.7040734
195/13,Виноградная улица,354053,43.6318479,39.7070989
22,улица Фадеева,354053,43.6307542,39.7045940
20,улица Фадеева,354053,43.6306995,39.7042142
82Б,"СТ ""Макаренко""",354003,43.6102201,39.7490081
8/6А,улица Макаренко,354003,43.6095981,39.7459642
8Б/8,улица Макаренко,354003,43.6100277,39.7489478
26,переулок Победы,354200,43.9279262,39.3128097
28А,переулок Победы,354200,43.9281341,39.3126690
2И,Сочинское шоссе,354200,43.8999124,39.3368988
2,улица Калараша,354200,43.9034346,39.3287689
6/10а,Сочинское шоссе,354200,43.9009317,39.3468028
260/30,Пластунская улица,354073,43.6411923,39.7554452
18А,улица Тормахова 3 Квартал,354200,43.9086622,39.3425304
4,улица Сьянова,354200,43.9092060,39.3439858
169,улица Тимирязева,354068,43.6285381,39.7265695
167,улица Тимирязева,354068,43.6286060,39.7263231
3А,улица Тормахова 1 Квартал,354200,43.9089724,39.3405439
3Б/31,улица Тормахова 3 Квартал,354200,43.9089731,39.3415071
3Б/1,улица Тормахова 3 Квартал,354200,43.9087594,39.3412585
44А,Пластунская улица,354000,43.6025954,39.7356324
6А/1,проспект Пушкина,354002,43.5687925,39.7396387
88/31,Пятигорская улица,354000,43.5857328,39.7454398
13/2,Железнодорожная улица,354037,43.5137979,39.8603550
6,Ясногорская улица,354054,43.5686810,39.7637495
16А,Партизанская улица,354200,43.9137238,39.3311887
8/9,улица Бытха,354054,43.5662107,39.7577797
80А,Амбулаторный переулок,354003,43.6254409,39.7508160
4Б,Красноармейская улица,354000,43.5958983,39.7191888
17,Навагинская улица,354000,43.5918293,39.7257216
8/12,улица Макаренко,354003,43.6108465,39.7461445
36С,улица Павлика Морозова,354340,43.4274478,39.9201376
20/4,улица Бытха,354054,43.5640724,39.7619374
88,улица Ленина,354348,43.4346554,39.9187993
8/14,улица Макаренко,354003,43.6107411,39.7457543
25,Анапская улица,354053,43.6335299,39.6993356
17/4,улица Голенева,354003,43.6094114,39.7436931
11,Ст Кипарис,354003,43.6083266,39.7491909
22,Пластунская улица,354057,43.5995512,39.7343315
38,Волжская улица,354053,43.6316826,39.6999116
76/2,улица Голубые Дали,354382,43.4527516,39.9102592
2/14,Сочинское шоссе,354200,43.9012351,39.3459908
66,Яблочная улица,354053,43.6380965,39.7064402
1А,улица Яна Фабрициуса,354002,43.5726440,39.7463465
282/22,улица Ленина,354340,43.4674549,39.9016485
10/4,Севастопольская улица,354000,43.5875479,39.7304982
7,Транспортная улица,354003,43.6079576,39.7499591
15/1,Прозрачная улица,354207,43.6467987,39.6778287
15/1,Прозрачная улица,354207,43.6465685,39.6784761
15/,Прозрачная улица,354207,43.6462485,39.6791931
15/,Прозрачная улица,354207,43.6465993,39.6776547
15/1 к1,Прозрачная улица,354207,43.6463504,39.6783218
15/,Прозрачная улица,354207,43.6459794,39.6792536
15/,Прозрачная улица,354207,43.6458672,39.6795446
15/,Прозрачная улица,354207,43.6457932,39.6797312
15/,Прозрачная улица,354207,43.6457185,39.6799228
15/,Прозрачная улица,354207,43.6454816,39.6797651
15/,Прозрачная улица,354207,43.6455581,39.6795798
15/,Прозрачная улица,354207,43.6456345,39.6793945
15/,Прозрачная улица,354207,43.6457506,39.6791076
15/,Прозрачная улица,354207,43.6454958,39.6790131
15/,Прозрачная улица,354207,43.6453798,39.6793000
15/,Прозрачная улица,354207,43.6453032,39.6794852
15/,Прозрачная улица,354207,43.6452269,39.6796705
15/,Прозрачная улица,354207,43.6461117,39.6782025
15/,Прозрачная улица,354207,43.6458114,39.6781334
62/1а,улица Войкова,354000,43.5863772,39.7275375
177/6,Костромская улица,354393,43.4615105,39.9644498
39А,улица Циолковского,354200,43.9245104,39.3228956
21А,улица Циолковского,354200,43.9220154,39.3220746
30/1,улица Циолковского,354200,43.9214273,39.3211716
136,улица Ленина,354340,43.4380081,39.9120373
35А,улица Тормахова 2 Квартал,354200,43.9115410,39.3482070
64Б/2 к2,улица Калараша,354200,43.9160385,39.3477875
64/13 к6,улица Калараша,354200,43.9143549,39.3444276
11/2,Хвойная улица,354200,43.8974152,39.3522373
7,Хвойная улица,354200,43.8968959,39.3525561
12,Эвкалиптовая улица,354200,43.9080284,39.3394043
46А,улица Декабристов,354208,43.6818705,39.5997981
8Б,Ольховая улица,354212,43.8644422,39.3917005
8/1,Ольховая улица,354212,43.8644971,39.3915650
44,улица Павлика Морозова,354340,43.4280095,39.9199089
1/7,Хвойная улица,354200,43.8976574,39.3513155
1/8,Хвойная улица,354200,43.8978600,39.3514182
1/4,Хвойная улица,354200,43.8974784,39.3512735
19А,Хвойная улица,354200,43.8980662,39.3523102
19В,Хвойная улица,354200,43.8981689,39.3521619
4,переулок Горького,354000,43.5852017,39.7254129
4,переулок Горького,354000,43.5848998,39.7255964
18,переулок Горького,354000,43.5850391,39.7276954
24,переулок Горького,354000,43.5857187,39.7308524
24 к1,переулок Горького,354000,43.5858425,39.7301600
10,улица Верхний тупик,354000,43.5864333,39.7324708
51/1,Тоннельная улица,354000,43.5865910,39.7319522
45/1,Тоннельная улица,354000,43.5860826,39.7321863
42,улица Горького,354000,43.5867554,39.7268962
5,Парковая улица,354000,43.5883500,39.7185619
35/2,улица Воровского,354000,43.5889875,39.7215901
10/1б,Гагринская улица,354002,43.5694281,39.7360456
5,Черноморская улица,354002,43.5670188,39.7368550
87/4,Курортный проспект,354054,43.5627012,39.7485640
89,Курортный проспект,354054,43.5624792,39.7563319
89Б,Курортный проспект,354054,43.5626016,39.7575564
52/1,Пасечная улица,354068,43.6231815,39.7297854
99/1,Курортный проспект,354054,43.5561230,39.7667008
101/8,Курортный проспект,354054,43.5527607,39.7749360
103 к8,Курортный проспект,354054,43.5513768,39.7760147
2/5,улица Яна Фабрициуса,354002,43.5684308,39.7471328
2/3Б,улица Яна Фабрициуса,354002,43.5687121,39.7472359
2/4Г,улица Яна Фабрициуса,354002,43.5677609,39.7509845
74/6,Курортный проспект,354002,43.5690160,39.7454183
1Ж,улица Яна Фабрициуса,354002,43.5715457,39.7466536
1/2,улица Яна Фабрициуса,354002,43.5719368,39.7463286
1/1,улица Яна Фабрициуса,354002,43.5723241,39.7463448
1А,улица Яна Фабрициуса,354002,43.5723656,39.7467190
2/17,улица Яна Фабрициуса,354002,43.5697723,39.7475896
2/29,улица Яна Фабрициуса,354002,43.5697197,39.7494286
2/31,улица Яна Фабрициуса,354002,43.5697924,39.7492671
2/17А,улица Яна Фабрициуса,354002,43.5689426,39.7512141
2/19,улица Яна Фабрициуса,354002,43.5693352,39.7517648
2/22Г,улица Яна Фабрициуса,354002,43.5711444,39.7525543
4,Ломоносовская улица,354054,43.5691180,39.7528100
6,Ломоносовская улица,354054,43.5692630,39.7531115
8,Ломоносовская улица,354054,43.5694219,39.7531497
12,Ломоносовская улица,354054,43.5696965,39.7535449
1/1,улица 20-й Горнострелковой Дивизии,354054,43.5684507,39.7530244
29/2,улица 20-й Горнострелковой Дивизии,354054,43.5688841,39.7541871
17/1,улица 20-й Горнострелковой Дивизии,354054,43.5688368,39.7540858
17,улица 20-й Горнострелковой Дивизии,354054,43.5687914,39.7539912
4В,улица Яна Фабрициуса,354002,43.5705061,39.7480654
2/36е,улица Яна Фабрициуса,354002,43.5717944,39.7473617
14/1,Ломоносовская улица,354054,43.5697885,39.7537693
14,Ломоносовская улица,354054,43.5698447,39.7539185
18/2,Ломоносовская улица,354054,43.5699665,39.7542762
25,улица 20-й Горнострелковой Дивизии,354054,43.5696806,39.7544402
37,улица 20-й Горнострелковой Дивизии,354054,43.5697549,39.7550292
39,Коммунальная улица,354054,43.5699651,39.7573706
16А,улица 20-й Горнострелковой Дивизии,354054,43.5689572,39.7556051
47,Коммунальная улица,354054,43.5703582,39.7583779
167,Транспортная улица,354054,43.5721251,39.7592455
65А,Коммунальная улица,354054,43.5715760,39.7585220
39/2,улица Бытха,354054,43.5675224,39.7583165
41/16,улица Бытха,354054,43.5666574,39.7588436
20,Дивноморская улица,354054,43.5664216,39.7599499
41/28б,улица Бытха,354054,43.5670210,39.7591410
8В,улица Бытха,354054,43.5669162,39.7558564
8/5,улица Бытха,354054,43.5665582,39.7577981
7,Коммунальная улица,354054,43.5679317,39.7539467
3,улица Бытха,354054,43.5677736,39.7540954
14,улица 20-й Горнострелковой Дивизии,354054,43.5687196,39.7553647
47А,улица Бытха,354054,43.5663687,39.7618785
34А,Ясногорская улица,354054,43.5671900,39.7679851
14,улица Войкова,354000,43.5832926,39.7235381
27,улица Войкова,354000,43.5836077,39.7245884
28,улица Войкова,354000,43.5824951,39.7243024
26,улица Войкова,354000,43.5824165,39.7239229
7Б,Первомайская улица,354000,43.5822020,39.7245640
16Б,Первомайская улица,354000,43.5828781,39.7268584
32Б/2,Курортный проспект,354000,43.5805670,39.7262054
39А,улица Войкова,354000,43.5847651,39.7251836
39,улица Войкова,354000,43.5846213,39.7254363
41,улица Войкова,354000,43.5847708,39.7257239
43А,улица Войкова,354000,43.5849242,39.7259106
10А,улица Горького,354000,43.5857681,39.7257619
34,улица Горького,354000,43.5850760,39.7251706
6/1,Тоннельная улица,354000,43.5855643,39.7295374
6/1,Тоннельная улица,354000,43.5854155,39.7296523
10/5,Тоннельная улица,354000,43.5863407,39.7285836
13А,Севастопольская улица,354000,43.5871720,39.7315525
35/2,Севастопольская улица,354000,43.5873953,39.7316103
29А,Тоннельная улица,354000,43.5863595,39.7310911
43Б,Тоннельная улица,354000,43.5856323,39.7320263
10Д,улица Бытха,354054,43.5647729,39.7600606
41/20,улица Бытха,354054,43.5658710,39.7595058
20 к2,улица Бытха,354054,43.5639687,39.7610478
92 к6,Курортный проспект,354054,43.5624016,39.7602861
46А,улица Горького,354000,43.5884430,39.7271556
48А,улица Горького,354000,43.5886395,39.7269826
13,Тоннельная улица,354000,43.5881838,39.7294234
11,Тоннельная улица,354000,43.5882677,39.7287132
4 с8,Параллельная улица,354000,43.5902599,39.7316110
4 с8,Параллельная улица,354000,43.5902006,39.7317041
4 с8,Параллельная улица,354000,43.5901785,39.7318365
9/4,Ворошиловская улица,354054,43.5618185,39.7690073
11/7,Ворошиловская улица,354054,43.5615529,39.7679216
11/6,Ворошиловская улица,354054,43.5617077,39.7677630
11/5,Ворошиловская улица,354054,43.5618733,39.7677577
11/1,Ворошиловская улица,354054,43.5618170,39.7675090
94/27,Курортный проспект,354054,43.5607520,39.7678116
94/28,Курортный проспект,354054,43.5608318,39.7680336
94/29,Курортный проспект,354054,43.5608714,39.7682894
94/30,Курортный проспект,354054,43.5608524,39.7683952
94/31,Курортный проспект,354054,43.5608226,39.7684949
94/32,Курортный проспект,354054,43.5607448,39.7686463
94/33,Курортный проспект,354054,43.5606771,39.7687181
94/34,Курортный проспект,354054,43.5606105,39.7687899
94/35,Курортный проспект,354054,43.5605504,39.7688527
94/37,Курортный проспект,354054,43.5604406,39.7689711
94/38,Курортный проспект,354054,43.5603718,39.7690260
94/39,Курортный проспект,354054,43.5603063,39.7690938
94/40,Курортный проспект,354054,43.5602529,39.7691662
94/24,Курортный проспект,354054,43.5596763,39.7680030
94/13,Курортный проспект,354054,43.5581081,39.7682643
96/2,Курортный проспект,354054,43.5582567,39.7715102
100 к4,Курортный проспект,354054,43.5542267,39.7748137
100 к5,Курортный проспект,354054,43.5542832,39.7739335
100/8Б,Курортный проспект,354054,43.5578401,39.7764890
108/6а,Курортный проспект,354024,43.5506790,39.7827650
108/7,Курортный проспект,354024,43.5503250,39.7825474
1А,улица Есауленко,354024,43.5498991,39.7853377
110/11,Курортный проспект,354054,43.5472484,39.7865123
80/4,Транспортная улица,354002,43.5842892,39.7604616
43/1,улица Гастелло,354340,43.4527841,39.9192379
6/1,Лесная улица,354375,43.4239931,39.9683984
6/1Б,Лесная улица,354375,43.4236425,39.9681801
17А,Лесная улица,354375,43.4235896,39.9659528
5,Лесная улица,354375,43.4208590,39.9628642
5А,Лесная улица,354375,43.4214934,39.9623524
33А,Лесная улица,354375,43.4217881,39.9608136
8/1,Каспийская улица,354375,43.4206506,39.9599496
64,улица Искры,354066,43.4938460,39.9004295
8Б/11,улица Макаренко,354003,43.6105185,39.7487918
8Б/14,улица Макаренко,354003,43.6103442,39.7479454
8/15,улица Макаренко,354003,43.6106298,39.7458964
29/2,улица Тимирязева,354068,43.6335785,39.7258574
10Б/1,Депутатская улица,354002,43.5734152,39.7394051
28,Греческая улица,354203,43.9953370,39.2063876
30,Греческая улица,354203,43.9951393,39.2063002
32,Греческая улица,354203,43.9949725,39.2062305
2А/4,Бакинская улица,354375,43.4204950,39.9694539
60,Марьинское шоссе,354200,43.9059827,39.3479553
290/7 к3,улица Ленина,354340,43.4774707,39.9016068
290/7 к8,улица Ленина,354340,43.4774268,39.9035427
1А/147,Главная улица,354213,43.7502631,39.5277844
1А/146,Главная улица,354213,43.7505290,39.5277562
11/30,Огородный переулок,354209,43.7353152,39.5424318
51/3,Молодёжная улица,354209,43.7369640,39.5525322
11/67,Львовская улица,354209,43.7332406,39.5641496
35 к4,Прозрачная улица,354207,43.6449791,39.6849476
19/28А,улица Семашко,354207,43.6638130,39.6316477
35,Прозрачная улица,354207,43.6452103,39.6846494
35 к3,Прозрачная улица,354207,43.6449757,39.6855037
35 к16,Прозрачная улица,354207,43.6448977,39.6847998
35 к5,Прозрачная улица,354207,43.6444585,39.6849685
35 к11,Прозрачная улица,354207,43.6446435,39.6841434
35 к12,Прозрачная улица,354207,43.6445182,39.6833837
35 к7,Прозрачная улица,354207,43.6441785,39.6846494
44А,Крымская улица,354053,43.6318972,39.6944580
123/28,Батумское шоссе,354207,43.6498653,39.6931376
123/29,Батумское шоссе,354207,43.6502931,39.6935952
123/30,Батумское шоссе,354207,43.6503504,39.6938287
123/35,Батумское шоссе,354207,43.6506208,39.6945725
123/39а,Батумское шоссе,354207,43.6508810,39.6953144
123/43,Батумское шоссе,354207,43.6513142,39.6957626
9,улица Мира,354375,43.4085967,40.0015786
31/2,улица Метелёва,354002,43.5782341,39.7501805
34/2,Волжская улица,354053,43.6315277,39.6992865
30Б,Полтавская улица,354053,43.6328826,39.6974543
3/1,улица Фадеева,354053,43.6296119,39.7023773
32,улица Фадеева,354053,43.6308815,39.7059604
8/5,аллея Челтенхема,354024,43.5575922,39.7946503
67,Яблочная улица,354053,43.6379441,39.7066294
29/6,Яблочная улица,354053,43.6372458,39.7057507
26/3,улица Тимирязева,354068,43.6292115,39.7219324
77,Волжская улица,354053,43.6263859,39.6975393
18 к1,Дагомысский переулок,354000,43.5999059,39.7355835
18,Дагомысский переулок,354000,43.6002710,39.7353793
35 к24,Прозрачная улица,354207,43.6461829,39.6855117
19/4,"ЖСТ ""Чаевод""",354207,43.6543750,39.6793579
43/5,Платановая улица,354037,43.5113441,39.8655874
56/1,Урожайная улица,354375,43.4043107,40.0015470
17,улица Худякова,354375,43.4062043,40.0020599
11Д,улица Плеханова,354053,43.6280362,39.7081837
7А к1,Гранатная улица,354068,43.6275323,39.7240080
7А к2,Гранатная улица,354068,43.6276497,39.7245025
7А к3,Гранатная улица,354068,43.6276451,39.7250523
8/8,аллея Челтенхема,354024,43.5580062,39.7954575
48 с108,Троицкая улица,354340,43.4570698,39.9099309
34/3,Волжская улица,354053,43.6317060,39.6988834
18,аллея Челтенхема,354024,43.5615014,39.7938518
2/4,улица Мечтателей,354202,43.7964180,39.4603154
4,Пальмовая улица,354202,43.7969717,39.4614084
3,улица Побратимов,354202,43.7964009,39.4588630
6/1,улица Романтиков,354202,43.7961387,39.4595267
2/5,улица Романтиков,354202,43.7957622,39.4597640
35 к8,Прозрачная улица,354207,43.6442667,39.6836642
35 к9,Прозрачная улица,354207,43.6443137,39.6840306
35 к18,Прозрачная улица,354207,43.6449299,39.6836066
35 к17,Прозрачная улица,354207,43.6449840,39.6841761
35 к15,Прозрачная улица,354207,43.6447158,39.6853277
73А,улица Одоевского,354200,43.9093795,39.3285293
10А к2,Теневой переулок,354053,43.6406705,39.7020313
319,улица Победы,354200,43.9382870,39.3006820
61А,Транспортная улица,354003,43.6053452,39.7512092
100Б,Пластунская улица,354003,43.6206583,39.7446099
31/1,улица Метелёва,354002,43.5784837,39.7502597
31,улица Метелёва,354002,43.5788993,39.7504140
47,улица Островского,354000,43.5894903,39.7236080
47/2,Высокогорная улица,354068,43.6337611,39.7303171
6,Клубничная улица,354008,43.6188976,39.7177053
3/1,улица Гончарова,354068,43.6226314,39.7281275
29/2,улица Плеханова,354053,43.6262128,39.7025559
55А,улица Плеханова,354008,43.6248255,39.7002996
10/3,Анапская улица,354008,43.6343078,39.7027083
6,Сухумское шоссе,354037,43.5160939,39.8722822
48 с114,Троицкая улица,354340,43.4577087,39.9084814
48 с115,Троицкая улица,354340,43.4576552,39.9085190
48 с116,Троицкая улица,354340,43.4576029,39.9085694
48 с117,Троицкая улица,354340,43.4575674,39.9086734
48 с118,Троицкая улица,354340,43.4575133,39.9087099
48 с119,Троицкая улица,354340,43.4574612,39.9087606
48 с120,Троицкая улица,354340,43.4573586,39.9088696
48 с121,Троицкая улица,354340,43.4573144,39.9089256
48 с122,Троицкая улица,354340,43.4572728,39.9089929
48 с123,Троицкая улица,354340,43.4572311,39.9090524
48 с124,Троицкая улица,354340,43.4571919,39.9091071
48 с126,Троицкая улица,354340,43.4570483,39.9093110
48 с125,Троицкая улица,354340,43.4571506,39.9091739
48 с127,Троицкая улица,354340,43.4570137,39.9093887
48 с128,Троицкая улица,354340,43.4569393,39.9095393
48 с129,Троицкая улица,354340,43.4569126,39.9096230
48 с130,Троицкая улица,354340,43.4568871,39.9097070
48 с131,Троицкая улица,354340,43.4568616,39.9097909
48 с132,Троицкая улица,354340,43.4568318,39.9099406
48 с133,Троицкая улица,354340,43.4568260,39.9100265
48 с134,Троицкая улица,354340,43.4568180,39.9101064
48 с135,Троицкая улица,354340,43.4568132,39.9101905
48 с136,Троицкая улица,354340,43.4568002,39.9103376
48 с137,Троицкая улица,354340,43.4568018,39.9104260
48 с138,Троицкая улица,354340,43.4568053,39.9105086
48 с139,Троицкая улица,354340,43.4568395,39.9106538
48 с140,Троицкая улица,354340,43.4567852,39.9106929
48 с141,Троицкая улица,354340,43.4567371,39.9107334
48 с142,Троицкая улица,354340,43.4566811,39.9107738
48 с143,Троицкая улица,354340,43.4566195,39.9108150
48 с144,Троицкая улица,354340,43.4565531,39.9108693
48 с145,Троицкая улица,354340,43.4565004,39.9109253
48 с146,Троицкая улица,354340,43.4563603,39.9109545
48 с147,Троицкая улица,354340,43.4562987,39.9109584
48 с109,Троицкая улица,354340,43.4570546,39.9100217
48 с110,Троицкая улица,354340,43.4570413,39.9100988
48 с111,Троицкая улица,354340,43.4570329,39.9101967
48 с112,Троицкая улица,354340,43.4570303,39.9102910
48 с113,Троицкая улица,354340,43.4570275,39.9103734
48 с106,Троицкая улица,354340,43.4571782,39.9096407
48 с102,Троицкая улица,354340,43.4573017,39.9093861
48 с103,Троицкая улица,354340,43.4572664,39.9094533
48 с104,Троицкая улица,354340,43.4572371,39.9095158
48 с105,Троицкая улица,354340,43.4572079,39.9095785
48 с107,Троицкая улица,354340,43.4571479,39.9097073
48 с96,Троицкая улица,354340,43.4576048,39.9089771
48 с97,Троицкая улица,354340,43.4575600,39.9090399
48 с98,Троицкая улица,354340,43.4575178,39.9090925
48 с99,Троицкая улица,354340,43.4574754,39.9091448
48 с100,Троицкая улица,354340,43.4574333,39.9091973
48 с101,Троицкая улица,354340,43.4573897,39.9092470
48 с75,Троицкая улица,354340,43.4577203,39.9091337
48 с76,Троицкая улица,354340,43.4577545,39.9092112
48 с77,Троицкая улица,354340,43.4577852,39.9092772
48 с81,Троицкая улица,354340,43.4578518,39.9098392
48 с82,Троицкая улица,354340,43.4577857,39.9098333
48 с83,Троицкая улица,354340,43.4577215,39.9098277
48 с78,Троицкая улица,354340,43.4578690,39.9095346
48 с79,Троицкая улица,354340,43.4578028,39.9095284
48 с80,Троицкая улица,354340,43.4577384,39.9095231
48 c84,Троицкая улица,354340,43.4578302,39.9101750
48 c85,Троицкая улица,354340,43.4577643,39.9101691
48 c86,Троицкая улица,354340,43.4576998,39.9101636
48 с89,Троицкая улица,354340,43.4574370,39.9098938
48 с87,Троицкая улица,354340,43.4573312,39.9098072
48 с88,Троицкая улица,354340,43.4573824,39.9098539
48 c92,Троицкая улица,354340,43.4575390,39.9101396
48 c90,Троицкая улица,354340,43.4574815,39.9099895
48 c91,Троицкая улица,354340,43.4575076,39.9100663
48 с95,Троицкая улица,354340,43.4573146,39.9101821
48 с94,Троицкая улица,354340,43.4572584,39.9102156
48 с93,Троицкая улица,354340,43.4572045,39.9102563
48 с154,Троицкая улица,354340,43.4563742,39.9102972
48 с156,Троицкая улица,354340,43.4562653,39.9104131
48 с155,Троицкая улица,354340,43.4563251,39.9103611
48 с157,Троицкая улица,354340,43.4562448,39.9105706
48 с158,Троицкая улица,354340,43.4562813,39.9106472
48 с159,Троицкая улица,354340,43.4563112,39.9107384
48 с151,Троицкая улица,354340,43.4565420,39.9104149
48 с152,Троицкая улица,354340,43.4564936,39.9104790
48 с153,Троицкая улица,354340,43.4564342,39.9105310
62,улица Искры,354066,43.4937121,39.8997835
18 к2,Дагомысская улица,354000,43.5999823,39.7359616
18 к3,Дагомысский переулок,354000,43.6000937,39.7353957
173/3,улица Ленина,354340,43.4505471,39.9035751
6А к2,улица Есауленко,354024,43.5493850,39.7865929
2/12а,Сочинское шоссе,354200,43.9009508,39.3453000
6/1,Пальмовая улица,354202,43.7973434,39.4615553
9/6,Пальмовая улица,354202,43.7976070,39.4614123
12/5,улица Мечтателей,354202,43.7977179,39.4609691
7/6,Пальмовая улица,354202,43.7973567,39.4612845
19/6,улица Романтиков,354202,43.7979857,39.4599806
15/6,улица Мечтателей,354202,43.7978082,39.4606468
17/6,улица Романтиков,354202,43.7977326,39.4598520
13/6,улица Мечтателей,354202,43.7975541,39.4605127
10/5,улица Мечтателей,354202,43.7974758,39.4608496
18/5,улица Романтиков,354202,43.7978892,39.4603429
16/5,улица Романтиков,354202,43.7976323,39.4602121
1/5,Пальмовая улица,354202,43.7965818,39.4607896
5/5,Пальмовая улица,354202,43.7970913,39.4610396
3/5,Пальмовая улица,354202,43.7968328,39.4609090
11/5,улица Романтиков,354202,43.7969341,39.4595055
9/6,улица Романтиков,354202,43.7967192,39.4593017
10/5,улица Романтиков,354202,43.7968707,39.4597661
14/5,улица Романтиков,354202,43.7973620,39.4600049
11/6,улица Мечтателей,354202,43.7972746,39.4603583
8/4,улица Мечтателей,354202,43.7971730,39.4606912
4/4,улица Мечтателей,354202,43.7966718,39.4604437
15/1,Туапсинская улица,354057,43.5925713,39.7386094
4Б,Черноморская улица,354002,43.5691098,39.7344372
195/8,Виноградная улица,354053,43.6317778,39.7065881
32А,Волжская улица,354053,43.6324702,39.6987035
14/1,Бакинская улица,354375,43.4183484,39.9719375
88 к1,улица Искры,354066,43.4942204,39.9105090
9,Главная улица,354213,43.7541195,39.5180519
30К,Главная улица,354213,43.7611542,39.5077856
30А/Б,улица Гастелло,354340,43.4466744,39.9156331
55,аллея Челтенхема,354024,43.5631661,39.7990579
66/9,улица Искры,354066,43.4919798,39.9024100
30Б,улица Макаренко,354003,43.6205341,39.7487261
298Б с16,улица Ленина,354340,43.4840322,39.8948124
43,Демократическая улица,354340,43.4242443,39.9242883
290/7 к2,улица Ленина,354340,43.4771457,39.9013193
290/7 к6,улица Ленина,354340,43.4769873,39.9021554
290/7 к5,улица Ленина,354340,43.4773864,39.9020074
290/7 к4,улица Ленина,354340,43.4770613,39.9017199
290/7 к1,улица Ленина,354340,43.4775499,39.9011919
290/7,улица Ленина,354340,43.4772248,39.9009045
11/8,Ворошиловская улица,354054,43.5616839,39.7680144
36/1,Вишнёвая улица,354003,43.6175866,39.7584146
194/11,Пластунская улица,354055,43.6354405,39.7512794
64Б/2 к1,улица Калараша,354200,43.9164140,39.3473803
12,Молодёжная улица,354209,43.7309600,39.5505871
59,улица Гагарина,354065,43.6080179,39.7267761
33,улица Тормахова 3 Квартал,354200,43.9099243,39.3431090
64/13 к5,улица Калараша,354200,43.9139128,39.3444652
64/13 к7,улица Калараша,354200,43.9148558,39.3444645
64/13 к8,улица Калараша,354200,43.9152999,39.3444209
11/1,Шоссейная улица,354037,43.5154187,39.8648485
66/6,улица Яна Фабрициуса,354000,43.5906774,39.7547836
63,Благодатная улица,354054,43.5559208,39.7786727
6/4,улица Мечтателей,354202,43.7969228,39.4605692
12/5,улица Романтиков,354202,43.7971112,39.4598883
9/6,улица Мечтателей,354202,43.7970322,39.4602376
7/10,улица Мечтателей,354202,43.7967843,39.4601084
5/10,улица Мечтателей,354202,43.7965313,39.4599829
8/5,улица Романтиков,354202,43.7966204,39.4596407
13/6,улица Романтиков,354202,43.7972017,39.4595434
15/6,улица Романтиков,354202,43.7974407,39.4596598
8/1,Пальмовая улица,354202,43.7975887,39.4616726
4/5,улица Романтиков,354202,43.7959905,39.4595386
1/6,улица Мечтателей,354202,43.7959693,39.4600080
1/1,улица Романтиков,354202,43.7954585,39.4597435
3/1,улица Романтиков,354202,43.7956502,39.4594927
5/1,улица Романтиков,354202,43.7958634,39.4592677
7/1,улица Романтиков,354202,43.7961145,39.4591756
114,"СНТ ""Дружба""",354068,43.6203309,39.7311553
11/3,Школьная улица,354375,43.4081957,39.9966218
78,Вишнёвая улица,354003,43.6248411,39.7556371
83,Вишнёвая улица,354003,43.6243456,39.7557468
290/7 к9,улица Ленина,354340,43.4772706,39.9038700
290/7 к10,улица Ленина,354340,43.4771282,39.9041938
14А,улица Макаренко,354003,43.6145303,39.7457509
13/2,Железнодорожная улица,354037,43.5137586,39.8603468
33,Высокогорная улица,354068,43.6279733,39.7330381
16/8 к1,Ясногорская улица,354054,43.5714419,39.7640782
16/8 к3,Ясногорская улица,354054,43.5711924,39.7648151
88,улица Искры,354066,43.4948457,39.9101747
66/9 к1,улица Искры,354066,43.4912914,39.9024008
20,Школьная улица,354375,43.4082656,39.9936223
23,улица Худякова,354375,43.4074489,40.0040764
30 к3,улица Гастелло,354340,43.4449239,39.9171238
48 с148,Троицкая улица,354340,43.4562399,39.9109639
48 с149,Троицкая улица,354340,43.4561804,39.9109694
48 с150,Троицкая улица,354340,43.4561209,39.9109751
16/6 к6,Ясногорская улица,354054,43.5702498,39.7645399
16/6 к5,Ясногорская улица,354054,43.5702912,39.7635850
16/6 к4,Ясногорская улица,354054,43.5707595,39.7633745
290/7 к11,улица Ленина,354340,43.4770173,39.9036738
290/7 к12,улица Ленина,354340,43.4768299,39.9039300
11/2,Донской переулок,354068,43.6271572,39.7269266
11/2Б,Донской переулок,354068,43.6273193,39.7267057
21Д,переулок Рахманинова,354008,43.6087362,39.7165635
2Б/4,Молодогвардейская улица,354000,43.5884925,39.7467589
40Б с4,улица Тимирязева,354068,43.6297341,39.7265538
40Б с5,улица Тимирязева,354068,43.6297057,39.7266105
40Б с3,улица Тимирязева,354068,43.6298022,39.7265349
40Б с2,улица Тимирязева,354068,43.6298307,39.7264781
40Б с1,улица Тимирязева,354068,43.6298953,39.7264568
40Б,улица Тимирязева,354068,43.6299560,39.7264344
16/8 к2,Ясногорская улица,354054,43.5714852,39.7648132
38,Демократическая улица,354340,43.4243472,39.9260469
290/7 к7,улица Ленина,354340,43.4772296,39.9023698
10,улица Сьянова,354200,43.9095046,39.3440047
11/2А,Донской переулок,354068,43.6272190,39.7270142
11/2В,Донской переулок,354068,43.6273451,39.7267808
11/2Г,Донской переулок,354068,43.6273709,39.7268557
11/2Д,Донской переулок,354068,43.6273872,39.7269584
11/2Е,Донской переулок,354068,43.6273862,39.7270387
11/2Ж,Донской переулок,354068,43.6273851,39.7271190
11/2И,Донской переулок,354068,43.6273839,39.7271994
11/2К,Донской переулок,354068,43.6273829,39.7272797
11/2Л,Донской переулок,354068,43.6273799,39.7274530
11/2М,Донской переулок,354068,43.6273787,39.7275334
11/2Н,Донской переулок,354068,43.6273776,39.7276140
11/2П,Донской переулок,354068,43.6275374,39.7278988
11/2Р,Донской переулок,354068,43.6275894,39.7278426
3Б,Молодогвардейская улица,354000,43.5890474,39.7468289
86 к9,Курортный проспект,354002,43.5666507,39.7485674
86 к8,Курортный проспект,354002,43.5668279,39.7483393
86 к11,Курортный проспект,354002,43.5665254,39.7481099
86 к7,Курортный проспект,354002,43.5668409,39.7480375
38,улица Гастелло,354340,43.4461972,39.9186902
7,Добрая улица,354200,43.9070194,39.3386189
28/1,улица Октября,354037,43.5150728,39.8687615
9 к3,Кленовая улица,354004,43.5719632,39.7627404
2/5Д,улица Яна Фабрициуса,354002,43.5687920,39.7468865
2/5Д,улица Яна Фабрициуса,354002,43.5686494,39.7467868
2/36г,улица Яна Фабрициуса,354002,43.5718232,39.7491982
13А,Севастопольская улица,354000,43.5872047,39.7315072
13А,Севастопольская улица,354000,43.5872710,39.7314167
13А,Севастопольская улица,354000,43.5872380,39.7314619
13А,Севастопольская улица,354000,43.5874037,39.7312362
13А,Севастопольская улица,354000,43.5873706,39.7312814
13А,Севастопольская улица,354000,43.5873375,39.7313267
13А,Севастопольская улица,354000,43.5873043,39.7313717
13А,Севастопольская улица,354000,43.5874369,39.7311892
10,Севастопольская улица,354000,43.5871057,39.7317546
10,Севастопольская улица,354000,43.5871240,39.7315988
13А,Севастопольская улица,354000,43.5868599,39.7321431
13А,Севастопольская улица,354000,43.5868978,39.7320347
13А,Севастопольская улица,354000,43.5868785,39.7320917
13А,Севастопольская улица,354000,43.5869175,39.7319765
11/10,улица Мечтателей,354202,43.7971151,39.4602795
11/8,улица Мечтателей,354202,43.7971949,39.4603189
11/5,улица Мечтателей,354202,43.7972576,39.4604244
11/4,улица Мечтателей,354202,43.7972176,39.4604048
11/3,улица Мечтателей,354202,43.7971778,39.4603850
11/2,улица Мечтателей,354202,43.7971379,39.4603653
11/1,улица Мечтателей,354202,43.7970980,39.4603455
11/7,улица Мечтателей,354202,43.7972347,39.4603386
11/9,улица Мечтателей,354202,43.7971549,39.4602991
9/4,улица Мечтателей,354202,43.7969753,39.4602840
9/3,улица Мечтателей,354202,43.7969353,39.4602643
9/2,улица Мечтателей,354202,43.7968955,39.4602445
9/1,улица Мечтателей,354202,43.7968556,39.4602248
9/10,улица Мечтателей,354202,43.7968727,39.4601586
9/5,улица Мечтателей,354202,43.7970151,39.4603037
9/7,улица Мечтателей,354202,43.7969923,39.4602178
9/8,улица Мечтателей,354202,43.7969524,39.4601981
9/9,улица Мечтателей,354202,43.7969126,39.4601783
7/1,улица Мечтателей,354202,43.7966076,39.4600958
7/2,улица Мечтателей,354202,43.7966475,39.4601155
7/3,улица Мечтателей,354202,43.7966875,39.4601353
7/4,улица Мечтателей,354202,43.7967273,39.4601550
7/5,улица Мечтателей,354202,43.7967671,39.4601746
7/9,улица Мечтателей,354202,43.7967444,39.4600887
7/8,улица Мечтателей,354202,43.7967044,39.4600691
7/7,улица Мечтателей,354202,43.7966646,39.4600493
7/6,улица Мечтателей,354202,43.7966248,39.4600296
5/5,улица Мечтателей,354202,43.7965143,39.4600492
5/4,улица Мечтателей,354202,43.7964744,39.4600293
5/3,улица Мечтателей,354202,43.7964345,39.4600097
5/2,улица Мечтателей,354202,43.7963946,39.4599900
5/9,улица Мечтателей,354202,43.7964914,39.4599633
5/8,улица Мечтателей,354202,43.7964516,39.4599434
5/7,улица Мечтателей,354202,43.7964117,39.4599238
5/6,улица Мечтателей,354202,43.7963717,39.4599040
5/1,улица Мечтателей,354202,43.7963547,39.4599702
14/9,улица Романтиков,354202,43.7972315,39.4600285
14/2,улица Романтиков,354202,43.7972520,39.4599501
14/4,улица Романтиков,354202,43.7973253,39.4599866
14/6,улица Романтиков,354202,43.7973416,39.4600833
14/7,улица Романтиков,354202,43.7973049,39.4600650
14/8,улица Романтиков,354202,43.7972683,39.4600468
14/10,улица Романтиков,354202,43.7971948,39.4600102
14/3,улица Романтиков,354202,43.7972886,39.4599683
14/1,улица Романтиков,354202,43.7972152,39.4599318
12/10,улица Романтиков,354202,43.7969440,39.4598936
12/9,улица Романтиков,354202,43.7969807,39.4599119
12/8,улица Романтиков,354202,43.7970174,39.4599301
12/7,улица Романтиков,354202,43.7970541,39.4599484
12/1,улица Романтиков,354202,43.7969644,39.4598151
12/3,улица Романтиков,354202,43.7970378,39.4598517
12/4,улица Романтиков,354202,43.7970744,39.4598700
12/6,улица Романтиков,354202,43.7970907,39.4599667
12/2,улица Романтиков,354202,43.7970011,39.4598334
10/6,улица Романтиков,354202,43.7968534,39.4598326
10/7,улица Романтиков,354202,43.7968137,39.4598127
10/8,улица Романтиков,354202,43.7967740,39.4597929
10/9,улица Романтиков,354202,43.7967343,39.4597730
10/4,улица Романтиков,354202,43.7968310,39.4597462
10/2,улица Романтиков,354202,43.7967516,39.4597065
10/3,улица Романтиков,354202,43.7967913,39.4597264
10/1,улица Романтиков,354202,43.7967119,39.4596867
10/10,улица Романтиков,354202,43.7966945,39.4597532
8/6,улица Романтиков,354202,43.7966033,39.4597069
8/7,улица Романтиков,354202,43.7965635,39.4596873
8/8,улица Романтиков,354202,43.7965235,39.4596675
8/9,улица Романтиков,354202,43.7964837,39.4596478
8/10,улица Романтиков,354202,43.7964438,39.4596280
8/4,улица Романтиков,354202,43.7965805,39.4596210
8/3,улица Романтиков,354202,43.7965406,39.4596013
8/2,улица Романтиков,354202,43.7965008,39.4595817
8/1,улица Романтиков,354202,43.7964608,39.4595620
15/5,улица Романтиков,354202,43.7974187,39.4597430
15/4,улица Романтиков,354202,43.7973798,39.4597233
15/3,улица Романтиков,354202,43.7973410,39.4597035
15/2,улица Романтиков,354202,43.7973023,39.4596837
15/1,улица Романтиков,354202,43.7972634,39.4596640
15/10,улица Романтиков,354202,43.7972855,39.4595808
15/9,улица Романтиков,354202,43.7973243,39.4596005
15/8,улица Романтиков,354202,43.7973631,39.4596203
15/7,улица Романтиков,354202,43.7974019,39.4596400
13/9,улица Романтиков,354202,43.7970853,39.4594840
13/7,улица Романтиков,354202,43.7971630,39.4595236
13/5,улица Романтиков,354202,43.7971797,39.4596266
13/4,улица Романтиков,354202,43.7971409,39.4596068
13/3,улица Романтиков,354202,43.7971021,39.4595870
13/2,улица Романтиков,354202,43.7970633,39.4595673
13/8,улица Романтиков,354202,43.7971242,39.4595038
13/10,улица Романтиков,354202,43.7970465,39.4594643
13/1,улица Романтиков,354202,43.7970244,39.4595475
11/1,улица Романтиков,354202,43.7967788,39.4594264
11/8,улица Романтиков,354202,43.7968785,39.4593828
11/6,улица Романтиков,354202,43.7969561,39.4594223
11/4,улица Романтиков,354202,43.7968953,39.4594857
11/3,улица Романтиков,354202,43.7968563,39.4594660
11/2,улица Романтиков,354202,43.7968176,39.4594462
11/10,улица Романтиков,354202,43.7968008,39.4593432
11/7,улица Романтиков,354202,43.7969173,39.4594025
11/9,улица Романтиков,354202,43.7968397,39.4593630
9/1,улица Романтиков,354202,43.7965448,39.4593091
9/5,улица Романтиков,354202,43.7966975,39.4593852
9/3,улица Романтиков,354202,43.7966211,39.4593471
9/10,улица Романтиков,354202,43.7965664,39.4592257
9/9,улица Романтиков,354202,43.7966046,39.4592447
9/8,улица Романтиков,354202,43.7966428,39.4592636
9/7,улица Романтиков,354202,43.7966809,39.4592826
9/2,улица Романтиков,354202,43.7965830,39.4593282
9/4,улица Романтиков,354202,43.7966593,39.4593662
7/10,улица Романтиков,354202,43.7961216,39.4591035
7/9,улица Романтиков,354202,43.7961672,39.4590981
7/2,улица Романтиков,354202,43.7961601,39.4591703
7/3,улица Романтиков,354202,43.7962014,39.4591621
7/8,улица Романтиков,354202,43.7962084,39.4590900
7/7,улица Романтиков,354202,43.7962500,39.4590850
7/4,улица Романтиков,354202,43.7962433,39.4591532
7/5,улица Романтиков,354202,43.7962878,39.4591505
7/6,улица Романтиков,354202,43.7962946,39.4590807
5/10,улица Романтиков,354202,43.7958568,39.4591954
5/9,улица Романтиков,354202,43.7959000,39.4591741
5/2,улица Романтиков,354202,43.7959064,39.4592464
5/3,улица Романтиков,354202,43.7959448,39.4592239
5/8,улица Романтиков,354202,43.7959384,39.4591516
5/7,улица Романтиков,354202,43.7959776,39.4591321
5/4,улица Романтиков,354202,43.7959837,39.4592004
5/5,улица Романтиков,354202,43.7960262,39.4591821
5/6,улица Романтиков,354202,43.7960200,39.4591121
3/7,улица Романтиков,354202,43.7957249,39.4593117
3/8,улица Романтиков,354202,43.7956927,39.4593484
3/9,улица Романтиков,354202,43.7956620,39.4593874
3/10,улица Романтиков,354202,43.7956265,39.4594276
3/2,улица Романтиков,354202,43.7956856,39.4594525
3/3,улица Романтиков,354202,43.7957162,39.4594134
3/4,улица Романтиков,354202,43.7957472,39.4593732
3/5,улица Романтиков,354202,43.7957828,39.4593361
3/6,улица Романтиков,354202,43.7957599,39.4592732
1/7,улица Романтиков,354202,43.7955332,39.4595624
1/8,улица Романтиков,354202,43.7955010,39.4595992
1/9,улица Романтиков,354202,43.7954703,39.4596382
1/10,улица Романтиков,354202,43.7954349,39.4596784
1/2,улица Романтиков,354202,43.7954940,39.4597033
1/3,улица Романтиков,354202,43.7955246,39.4596642
1/4,улица Романтиков,354202,43.7955556,39.4596240
1/5,улица Романтиков,354202,43.7955911,39.4595869
1/6,улица Романтиков,354202,43.7955683,39.4595240
6/2,улица Романтиков,354202,43.7961863,39.4595135
4/10,улица Романтиков,354202,43.7958441,39.4597089
4/4,улица Романтиков,354202,43.7959506,39.4595614
4/3,улица Романтиков,354202,43.7959094,39.4595857
4/2,улица Романтиков,354202,43.7958695,39.4596115
4/1,улица Романтиков,354202,43.7958309,39.4596334
4/9,улица Романтиков,354202,43.7958822,39.4596839
4/8,улица Романтиков,354202,43.7959218,39.4596569
4/7,улица Романтиков,354202,43.7959630,39.4596325
4/6,улица Романтиков,354202,43.7960027,39.4596083
2/3,улица Романтиков,354202,43.7956949,39.4598392
2/2,улица Романтиков,354202,43.7956643,39.4598783
2/1,улица Романтиков,354202,43.7956288,39.4599185
2/9,улица Романтиков,354202,43.7956880,39.4599433
2/8,улица Романтиков,354202,43.7957186,39.4599043
2/6,улица Романтиков,354202,43.7957852,39.4598269
2/7,улица Романтиков,354202,43.7957496,39.4598640
2/4,улица Романтиков,354202,43.7957272,39.4598025
2/10,улица Романтиков,354202,43.7956525,39.4599834
1/1,улица Мечтателей,354202,43.7958653,39.4602333
1/7,улица Мечтателей,354202,43.7959358,39.4600451
1/8,улица Мечтателей,354202,43.7959038,39.4600834
1/9,улица Мечтателей,354202,43.7958725,39.4601233
1/10,улица Мечтателей,354202,43.7958395,39.4601624
1/5,улица Мечтателей,354202,43.7959934,39.4600743
1/4,улица Мечтателей,354202,43.7959619,39.4601168
1/3,улица Мечтателей,354202,43.7959294,39.4601538
1/2,улица Мечтателей,354202,43.7958991,39.4601964
6/10,Пальмовая улица,354202,43.7973230,39.4616350
6/9,Пальмовая улица,354202,43.7973607,39.4616537
6/8,Пальмовая улица,354202,43.7973984,39.4616722
6/7,Пальмовая улица,354202,43.7974361,39.4616910
6/6,Пальмовая улица,354202,43.7974739,39.4617097
6/5,Пальмовая улица,354202,43.7974944,39.4616300
6/4,Пальмовая улица,354202,43.7974567,39.4616113
6/3,Пальмовая улица,354202,43.7974189,39.4615927
6/2,Пальмовая улица,354202,43.7973812,39.4615740
8/10,Пальмовая улица,354202,43.7975682,39.4617523
8/9,Пальмовая улица,354202,43.7976059,39.4617710
8/8,Пальмовая улица,354202,43.7976436,39.4617895
8/7,Пальмовая улица,354202,43.7976813,39.4618083
8/6,Пальмовая улица,354202,43.7977190,39.4618270
8/5,Пальмовая улица,354202,43.7977396,39.4617473
8/4,Пальмовая улица,354202,43.7977018,39.4617286
8/3,Пальмовая улица,354202,43.7976641,39.4617099
8/2,Пальмовая улица,354202,43.7976264,39.4616913
9/5,Пальмовая улица,354202,43.7975862,39.4614908
9/4,Пальмовая улица,354202,43.7975552,39.4614750
9/3,Пальмовая улица,354202,43.7975242,39.4614593
9/2,Пальмовая улица,354202,43.7974932,39.4614436
9/1,Пальмовая улица,354202,43.7974622,39.4614278
9/10,Пальмовая улица,354202,43.7974830,39.4613493
9/9,Пальмовая улица,354202,43.7975140,39.4613650
9/8,Пальмовая улица,354202,43.7975450,39.4613808
9/7,Пальмовая улица,354202,43.7975759,39.4613966
7/5,Пальмовая улица,354202,43.7973360,39.4613629
7/4,Пальмовая улица,354202,43.7973033,39.4613463
7/3,Пальмовая улица,354202,43.7972707,39.4613298
7/2,Пальмовая улица,354202,43.7972382,39.4613131
7/1,Пальмовая улица,354202,43.7972056,39.4612966
7/10,Пальмовая улица,354202,43.7972264,39.4612183
7/9,Пальмовая улица,354202,43.7972589,39.4612348
7/8,Пальмовая улица,354202,43.7972915,39.4612513
7/7,Пальмовая улица,354202,43.7973241,39.4612679
12/6,улица Мечтателей,354202,43.7976972,39.4610476
12/7,улица Мечтателей,354202,43.7976656,39.4610315
12/8,улица Мечтателей,354202,43.7976340,39.4610155
12/9,улица Мечтателей,354202,43.7976024,39.4609994
12/10,улица Мечтателей,354202,43.7975708,39.4609833
12/1,улица Мечтателей,354202,43.7975916,39.4609048
12/4,улица Мечтателей,354202,43.7976863,39.4609530
12/3,улица Мечтателей,354202,43.7976547,39.4609370
12/2,улица Мечтателей,354202,43.7976232,39.4609209
10/6,улица Мечтателей,354202,43.7974550,39.4609282
10/7,улица Мечтателей,354202,43.7974230,39.4609119
10/8,улица Мечтателей,354202,43.7973909,39.4608956
10/9,улица Мечтателей,354202,43.7973589,39.4608793
10/10,улица Мечтателей,354202,43.7973269,39.4608631
10/1,улица Мечтателей,354202,43.7973477,39.4607845
10/2,улица Мечтателей,354202,43.7973797,39.4608008
10/3,улица Мечтателей,354202,43.7974117,39.4608171
10/4,улица Мечтателей,354202,43.7974438,39.4608334
15/5,улица Мечтателей,354202,43.7977873,39.4607254
15/4,улица Мечтателей,354202,43.7977551,39.4607089
15/3,улица Мечтателей,354202,43.7977228,39.4606925
15/2,улица Мечтателей,354202,43.7976905,39.4606761
15/1,улица Мечтателей,354202,43.7976583,39.4606597
15/10,улица Мечтателей,354202,43.7976790,39.4605811
15/9,улица Мечтателей,354202,43.7977114,39.4605976
15/8,улица Мечтателей,354202,43.7977436,39.4606140
15/7,улица Мечтателей,354202,43.7977758,39.4606304
13/5,улица Мечтателей,354202,43.7975334,39.4605913
13/4,улица Мечтателей,354202,43.7975020,39.4605753
13/3,улица Мечтателей,354202,43.7974708,39.4605594
13/2,улица Мечтателей,354202,43.7974394,39.4605435
13/1,улица Мечтателей,354202,43.7974081,39.4605276
13/10,улица Мечтателей,354202,43.7974290,39.4604491
13/9,улица Мечтателей,354202,43.7974603,39.4604650
13/8,улица Мечтателей,354202,43.7974915,39.4604809
13/7,улица Мечтателей,354202,43.7975229,39.4604968
18/6,улица Романтиков,354202,43.7978684,39.4604214
18/7,улица Романтиков,354202,43.7978358,39.4604047
18/8,улица Романтиков,354202,43.7978032,39.4603881
18/9,улица Романтиков,354202,43.7977705,39.4603716
18/10,улица Романтиков,354202,43.7977379,39.4603551
18/1,улица Романтиков,354202,43.7977587,39.4602766
18/2,улица Романтиков,354202,43.7977913,39.4602931
18/3,улица Романтиков,354202,43.7978239,39.4603096
18/4,улица Романтиков,354202,43.7978566,39.4603263
16/6,улица Романтиков,354202,43.7976115,39.4602906
16/7,улица Романтиков,354202,43.7975806,39.4602749
16/8,улица Романтиков,354202,43.7975496,39.4602591
16/9,улица Романтиков,354202,43.7975186,39.4602435
16/10,улица Романтиков,354202,43.7974877,39.4602277
16/1,улица Романтиков,354202,43.7975085,39.4601491
16/2,улица Романтиков,354202,43.7975395,39.4601648
16/3,улица Романтиков,354202,43.7975704,39.4601806
16/4,улица Романтиков,354202,43.7976013,39.4601963
19/5,улица Романтиков,354202,43.7979647,39.4600595
19/4,улица Романтиков,354202,43.7979331,39.4600434
19/3,улица Романтиков,354202,43.7979014,39.4600274
19/2,улица Романтиков,354202,43.7978698,39.4600113
19/1,улица Романтиков,354202,43.7978382,39.4599952
19/7,улица Романтиков,354202,43.7979540,39.4599645
19/8,улица Романтиков,354202,43.7979224,39.4599484
19/9,улица Романтиков,354202,43.7978907,39.4599324
19/10,улица Романтиков,354202,43.7978590,39.4599163
17/5,улица Романтиков,354202,43.7977118,39.4599308
17/4,улица Романтиков,354202,43.7976798,39.4599146
17/3,улица Романтиков,354202,43.7976479,39.4598984
17/2,улица Романтиков,354202,43.7976159,39.4598821
17/1,улица Романтиков,354202,43.7975840,39.4598659
17/10,улица Романтиков,354202,43.7976048,39.4597871
17/9,улица Романтиков,354202,43.7976368,39.4598033
17/8,улица Романтиков,354202,43.7976687,39.4598195
17/7,улица Романтиков,354202,43.7977007,39.4598357
5/4,Пальмовая улица,354202,43.7970705,39.4611180
5/3,Пальмовая улица,354202,43.7970318,39.4610983
5/2,Пальмовая улица,354202,43.7969930,39.4610787
5/1,Пальмовая улица,354202,43.7969544,39.4610590
5/8,Пальмовая улица,354202,43.7969751,39.4609806
5/6,Пальмовая улица,354202,43.7970526,39.4610199
5/7,Пальмовая улица,354202,43.7970138,39.4610002
8/8,улица Мечтателей,354202,43.7970339,39.4607096
8/7,улица Мечтателей,354202,43.7970733,39.4607296
8/6,улица Мечтателей,354202,43.7971128,39.4607496
8/1,улица Мечтателей,354202,43.7970547,39.4606311
8/5,улица Мечтателей,354202,43.7971522,39.4607697
8/3,улица Мечтателей,354202,43.7971336,39.4606711
8/2,улица Мечтателей,354202,43.7970941,39.4606511
1/4,Пальмовая улица,354202,43.7965615,39.4608661
1/3,Пальмовая улица,354202,43.7965235,39.4608468
1/2,Пальмовая улица,354202,43.7964853,39.4608275
1/8,Пальмовая улица,354202,43.7964675,39.4607317
1/6,Пальмовая улица,354202,43.7965437,39.4607703
1/7,Пальмовая улица,354202,43.7965055,39.4607510
1/1,Пальмовая улица,354202,43.7964472,39.4608082
3/1,Пальмовая улица,354202,43.7967008,39.4609333
3/2,Пальмовая улица,354202,43.7967380,39.4609517
3/3,Пальмовая улица,354202,43.7967752,39.4609701
3/8,Пальмовая улица,354202,43.7967213,39.4608539
3/7,Пальмовая улица,354202,43.7967584,39.4608723
3/6,Пальмовая улица,354202,43.7967956,39.4608906
3/4,Пальмовая улица,354202,43.7968123,39.4609884
6/8,улица Мечтателей,354202,43.7967909,39.4605935
6/7,улица Мечтателей,354202,43.7968281,39.4606119
6/6,улица Мечтателей,354202,43.7968652,39.4606303
6/5,улица Мечтателей,354202,43.7969023,39.4606486
6/3,улица Мечтателей,354202,43.7968857,39.4605509
6/2,улица Мечтателей,354202,43.7968485,39.4605325
6/1,улица Мечтателей,354202,43.7968113,39.4605141
4/2,улица Мечтателей,354202,43.7965991,39.4604069
4/8,улица Мечтателей,354202,43.7965421,39.4604671
4/7,улица Мечтателей,354202,43.7965784,39.4604855
4/6,улица Мечтателей,354202,43.7966147,39.4605039
4/5,улица Мечтателей,354202,43.7966510,39.4605222
4/3,улица Мечтателей,354202,43.7966354,39.4604253
4/1,улица Мечтателей,354202,43.7965628,39.4603886
2/2,улица Мечтателей,354202,43.7963438,39.4602791
2/5,улица Мечтателей,354202,43.7963984,39.4603929
2/6,улица Мечтателей,354202,43.7963612,39.4603748
2/7,улица Мечтателей,354202,43.7963241,39.4603567
2/8,улица Мечтателей,354202,43.7962869,39.4603386
2/3,улица Мечтателей,354202,43.7963809,39.4602972
2/1,улица Мечтателей,354202,43.7963066,39.4602610
35 к10,Прозрачная улица,354207,43.6444520,39.6838013
35 к6,Прозрачная улица,354207,43.6443747,39.6849010
35 к13,Прозрачная улица,354207,43.6448602,39.6839956
35 к14,Прозрачная улица,354207,43.6446818,39.6850862
4А,Платановая улица,354037,43.5110705,39.8690206
2,улица Бзугу,354054,43.5651113,39.7533940
94А,Пластунская улица,354003,43.6201485,39.7433892
41,улица Воровского,354000,43.5899135,39.7220547
41,улица Воровского,354000,43.5899147,39.7220138
28,Сочинское шоссе,354200,43.8947819,39.3540917
101,улица Победы,354200,43.9139737,39.3250700
59,Курортный проспект,354000,43.5755487,39.7300791
6,Северная улица,354000,43.5943568,39.7274747
1/2,улица Сьянова,354200,43.9086892,39.3439486
1,улица Сьянова,354200,43.9085977,39.3440870
40А,Партизанская улица,354200,43.9183024,39.3312025
1,Социалистическая улица,354200,43.9119074,39.3229836
333,улица Победы,354200,43.9425486,39.3013507
6А,переулок Павлова,354200,43.9192080,39.3414575
1,Кольцевая улица,354200,43.9189201,39.3249422
6А,Сочинское шоссе,354200,43.8979281,39.3471778
6,Сочинское шоссе,354200,43.8989495,39.3452482
4,улица Пирогова,354008,43.6059301,39.7181509
50,улица Мира,354340,43.4480999,39.9419999
1А,Дивноморская улица,354054,43.5675102,39.7624201
1А,Дивноморская улица,354054,43.5674686,39.7623908
17,улица Орджоникидзе,354000,43.5758548,39.7269194
2,Театральная улица,354000,43.5723565,39.7305850
13/1,переулок Горького,354000,43.5857068,39.7286231
87Б,Курортный проспект,354054,43.5649697,39.7506621
1,Лесная улица,354375,43.4205803,39.9613265
64/13 к4,улица Калараша,354200,43.9137161,39.3451782
34,улица Макаренко,354003,43.6197918,39.7446601
96,Пластунская улица,354003,43.6209948,39.7444784
123А к1,Пластунская улица,354003,43.6168696,39.7375977
123А к2,Пластунская улица,354003,43.6160314,39.7376354
123А к3,Пластунская улица,354003,43.6152828,39.7376174
108А,Донская улица,354068,43.6290951,39.7182117
1Б,Лавровая улица,354068,43.6293509,39.7173613
96Г к2,Курортный проспект,354024,43.5587795,39.7726656
96Г к1,Курортный проспект,354024,43.5590798,39.7729593
96Г,Курортный проспект,354024,43.5593095,39.7734572
34/4,Волжская улица,354053,43.6319251,39.6986649
18/4,Вишнёвая улица,354003,43.6221490,39.7560852
244,улица Победы,354200,43.9272027,39.3122022
64/13 к10,улица Калараша,354200,43.9146267,39.3432998
64/13 к9,улица Калараша,354200,43.9149821,39.3437385
64/13 с12,улица Калараша,354200,43.9136467,39.3447239
64/13 к3,улица Калараша,354200,43.9131799,39.3444097
64/13 к2,улица Калараша,354200,43.9135469,39.3439769
64/13 к1,улица Калараша,354200,43.9138241,39.3434446
64/13,улица Калараша,354200,43.9141828,39.3430010
64/13 с11,улица Калараша,354200,43.9141533,39.3438917
7,улица Тормахова,354200,43.9084380,39.3439557
2,Речная улица,354200,43.9022702,39.3341493
1,улица Багратиона,354200,43.9017927,39.3338362
10/1,Параллельная улица,354057,43.5899241,39.7328602
5,улица Тормахова,354200,43.9088275,39.3437671
35 к20,Прозрачная улица,354207,43.6454227,39.6859066
35 к19,Прозрачная улица,354207,43.6456847,39.6852262
108А к1,Донская улица,354068,43.6287612,39.7179631
49/19А,Санаторная улица,354008,43.6218886,39.7097582
16/6 к1,Ясногорская улица,354054,43.5722791,39.7638546
16/2 к1,Ясногорская улица,354054,43.5692708,39.7657245
16/2 к2,Ясногорская улица,354054,43.5688721,39.7669106
16/2 к3,Ясногорская улица,354054,43.5685567,39.7669473
16/2 к6,Ясногорская улица,354054,43.5688732,39.7679505
4/10А,улица Бытха,354054,43.5661889,39.7560771
298Б с8,улица Ленина,354340,43.4818933,39.8954535
298Б к7,улица Ленина,354340,43.4821225,39.8952386
298Б с9,улица Ленина,354340,43.4824353,39.8952343
298Б к6,улица Ленина,354340,43.4827035,39.8949837
298Б с10,улица Ленина,354340,43.4830172,39.8949790
298Б к5,улица Ленина,354340,43.4832864,39.8947263
298Б с11,улица Ленина,354340,43.4835993,39.8947219
298Б к4,улица Ленина,354340,43.4838676,39.8944599
298Б с12,улица Ленина,354340,43.4841653,39.8943590
298Б с13,улица Ленина,354340,43.4829495,39.8947000
94/60,Курортный проспект,354054,43.5596711,39.7693104
6А к1,улица Есауленко,354024,43.5494159,39.7854462
31/2,Троицкая улица,354340,43.4515342,39.9116431
290/6,улица Ленина,354340,43.4779345,39.8999480
108,Курортный проспект,354024,43.5514946,39.7796910
111,улица Победы,354200,43.9146746,39.3237994
19,улица Гастелло,354340,43.4524797,39.9176482
31,улица Роз,354000,43.5891278,39.7192904
10,улица 60 лет ВЛКСМ,354003,43.6135591,39.7396883
7,Абрикосовая улица,354003,43.6141462,39.7416934
30,улица Макаренко,354003,43.6186087,39.7494779
4,Вишнёвая улица,354003,43.6180079,39.7507662
26,улица Макаренко,354003,43.6172662,39.7476667
29,улица Макаренко,354003,43.6153557,39.7455315
24,улица Макаренко,354003,43.6161713,39.7477608
22,улица Макаренко,354003,43.6161604,39.7473090
32,Вишнёвая улица,354003,43.6195995,39.7566432
16,Вишнёвая улица,354003,43.6211132,39.7544032
20,Вишнёвая улица,354003,43.6213625,39.7561177
18,Вишнёвая улица,354003,43.6217481,39.7554959
