House number,Street name,Postal code,Latitude,Longitude
1,площадь Дзержинского,606000,56.2378612,43.4603002
16,улица Революции,606024,56.2478176,43.4567686
32А,Студенческая улица,606016,56.2433569,43.4893741
117Е,проспект Ленина,606016,56.2413370,43.4987683
18/39,улица Петрищева,606000,56.2314000,43.4114652
22,улица Строителей,606034,56.2313487,43.3922651
44,проспект Ленина,606023,56.2411798,43.4466979
10А,улица Петрищева,606037,56.2338524,43.4241867
49,проспект Ленина,606023,56.2414804,43.4473216
49А,проспект Ленина,606023,56.2417982,43.4494461
44,проспект Ленина,606023,56.2414607,43.4459305
49,проспект Ленина,606023,56.2417704,43.4466143
49,проспект Ленина,606023,56.2415586,43.4471239
49,проспект Ленина,606023,56.2407710,43.4496263
49,проспект Ленина,606023,56.2407878,43.4495613
49,проспект Ленина,606023,56.2408721,43.4492859
49,проспект Ленина,606023,56.2409208,43.4491465
49,проспект Ленина,606023,56.2409401,43.4490814
49,проспект Ленина,606023,56.2409744,43.4489859
9А,улица Бутлерова,606023,56.2424698,43.4505492
10,улица Урицкого,606008,56.2325463,43.4563047
18/39,улица Петрищева,606029,56.2315536,43.4114231
66,проспект Ленина,606000,56.2369384,43.4625500
61,улица Гайдара,606029,56.2331678,43.4363328
1,Молодёжная улица,606036,56.2516284,43.4477904
11А,улица Рудольфа Удриса,606031,56.2222155,43.4086974
11В,улица Рудольфа Удриса,606031,56.2224180,43.4100946
7Г,улица Рудольфа Удриса,606031,56.2240452,43.4093309
59,улица Гайдара,606029,56.2348362,43.4363900
4,улица Рудольфа Удриса,606031,56.2249671,43.4058440
1,улица Галкина,606034,56.2303645,43.4097005
7,улица Рудольфа Удриса,606031,56.2237467,43.4081824
7В,улица Рудольфа Удриса,606031,56.2241892,43.4080096
29А,улица Комбрига Патоличева,606039,56.2308103,43.3856959
31Б,улица Комбрига Патоличева,606039,56.2310766,43.3838108
74,улица Гайдара,606025,56.2301112,43.4409585
18,проспект Циолковского,606025,56.2349208,43.4462592
5А,Советская улица,606007,56.2551570,43.4614481
11А,Советская улица,606036,56.2557183,43.4553490
8,Новомосковская улица,606007,56.2545678,43.4679640
10,Новомосковская улица,606007,56.2549310,43.4690705
14А,Новомосковская улица,606007,56.2533599,43.4699075
20,Новомосковская улица,606007,56.2545182,43.4736490
28А,Новомосковская улица,606007,56.2529146,43.4772218
32А,Новомосковская улица,606007,56.2527610,43.4788765
6Е,улица Матросова,606007,56.2505332,43.4768912
26,Новомосковская улица,606007,56.2542318,43.4762309
30,Новомосковская улица,606007,56.2536943,43.4778981
28,Новомосковская улица,606007,56.2537642,43.4770638
34,Новомосковская улица,606007,56.2538789,43.4797893
32,Новомосковская улица,606007,56.2536168,43.4787201
9А,улица Бутлерова,606023,56.2424794,43.4502143
10,улица Грибоедова,606000,56.2413569,43.4509663
49/12,улица Грибоедова,606023,56.2406274,43.4505903
6/6,улица Грибоедова,606000,56.2424257,43.4529256
18Б,бульвар Победы,606023,56.2394089,43.4466536
18А,бульвар Победы,606023,56.2388198,43.4464691
48,проспект Ленина,606023,56.2402041,43.4476953
46,проспект Ленина,606023,56.2405959,43.4468727
20,улица Клюквина,606010,56.2416842,43.4742007
20,проспект Дзержинского,606001,56.2433513,43.4754640
18,проспект Дзержинского,606001,56.2430433,43.4746273
49,проспект Ленина,606023,56.2410538,43.4488816
66/27,проспект Свердлова,606034,56.2324555,43.3918115
22,улица Суворова,606016,56.2387057,43.4818744
16А,проспект Дзержинского,606001,56.2424573,43.4734301
1,Индустриальная улица,606002,56.2457902,43.4078679
27,проспект Свердлова,606002,56.2489982,43.3900782
9,улица Свободы,606017,56.2132076,43.5396937
15,улица Свободы,606017,56.2138791,43.5420798
11,улица Свободы,606017,56.2132990,43.5405801
20,улица Свободы,606017,56.2143891,43.5435585
10,улица Свободы,606017,56.2131591,43.5401301
21,улица Свободы,606017,56.2144655,43.5438442
19,улица Свободы,606017,56.2142839,43.5433441
25,улица Свободы,606017,56.2149219,43.5453921
26,улица Свободы,606017,56.2151011,43.5457761
24,улица Свободы,606017,56.2149068,43.5449883
22,улица Свободы,606017,56.2146436,43.5442213
8,улица Свободы,606017,56.2130267,43.5393671
17,улица Свободы,606017,56.2140902,43.5427579
18,улица Свободы,606017,56.2141964,43.5430161
13,улица Свободы,606017,56.2135210,43.5411363
14А,улица Свободы,606017,56.2134665,43.5415719
14 к2,улица Свободы,606017,56.2135349,43.5417820
27,улица Свободы,606017,56.2152031,43.5460580
13,Новая улица,606033,56.2164612,43.4031409
15,Новая улица,606033,56.2164577,43.4027617
11,Новая улица,606033,56.2164646,43.4035471
117Ж,проспект Ленина,606016,56.2409406,43.4994792
34В к2,Студенческая улица,606016,56.2446245,43.4897875
117Е,проспект Ленина,606016,56.2413732,43.4987614
23А,улица Сухаренко,606002,56.2473184,43.3977214
76А,Московская улица,606055,56.2928286,43.3355904
75,улица Гайдара,606029,56.2294960,43.4395602
50,Речное шоссе,606000,56.2220519,43.5580565
36,улица Свободы,606017,56.2162571,43.5493951
37,улица Свободы,606017,56.2163625,43.5497594
35,улица Свободы,606017,56.2160824,43.5488601
33,улица Свободы,606017,56.2158631,43.5480945
34,улица Свободы,606017,56.2159312,43.5484577
31,улица Свободы,606017,56.2156546,43.5474774
32,улица Свободы,606017,56.2157221,43.5477872
30,улица Свободы,606017,56.2155867,43.5471658
29,улица Свободы,606017,56.2154285,43.5468049
50 к2,Речное шоссе,606000,56.2202016,43.5594273
20,улица Лермонтова,606002,56.2633146,43.4090866
44А,проспект Циолковского,606029,56.2316639,43.4255591
20,улица Будённого,606026,56.2376962,43.4149117
16А,улица Строителей,606034,56.2321291,43.3944798
1А,бульвар Космонавтов,606039,56.2302240,43.3875190
73А,проспект Свердлова,606039,56.2314892,43.3875345
75А,проспект Свердлова,606039,56.2310697,43.3875314
77А,проспект Свердлова,606039,56.2306497,43.3875226
13,улица Строителей,606034,56.2303643,43.3945254
13А,улица Строителей,606034,56.2290996,43.3948149
15,улица Строителей,606034,56.2306841,43.3931043
15А,улица Строителей,606034,56.2298283,43.3930357
76А,проспект Свердлова,606034,56.2285778,43.3930114
82А,проспект Циолковского,606034,56.2284314,43.3957905
17/70,улица Строителей,606034,56.2309350,43.3916196
76,проспект Свердлова,606034,56.2288442,43.3915414
78,проспект Свердлова,606039,56.2282592,43.3909025
72,проспект Свердлова,606034,56.2300004,43.3909539
5,улица Строителей,606034,56.2325583,43.4065090
7,улица Строителей,606034,56.2318031,43.4065535
10,проспект Ленинского Комсомола,606002,56.2442078,43.4127644
18,проспект Ленинского Комсомола,606002,56.2426943,43.4087401
3Б,Индустриальная улица,606002,56.2449133,43.4094504
8А,Индустриальная улица,606002,56.2437312,43.4058531
2,проспект Ленинского Комсомола,606002,56.2458961,43.4160659
2,проспект Ленинского Комсомола,606002,56.2458091,43.4158510
4,проспект Ленинского Комсомола,606002,56.2453831,43.4149680
6,проспект Ленинского Комсомола,606002,56.2450922,43.4141100
18,улица Строителей,606034,56.2317280,43.3933071
20,улица Строителей,606034,56.2319765,43.3922492
23,улица Комбрига Патоличева,606034,56.2326102,43.3950105
25,улица Комбрига Патоличева,606034,56.2329199,43.3936557
16,улица Строителей,606034,56.2314665,43.3944553
10А,улица Строителей,606034,56.2325047,43.3986860
12А,улица Строителей,606034,56.2323044,43.3976690
15,улица Комбрига Патоличева,606034,56.2334541,43.3991288
17,улица Комбрига Патоличева,606034,56.2337708,43.3977857
17А,улица Комбрига Патоличева,606039,56.2329189,43.3972268
19,улица Комбрига Патоличева,606034,56.2336732,43.3960279
21,улица Комбрига Патоличева,606034,56.2331183,43.3954918
11,улица Комбрига Патоличева,606034,56.2345203,43.4001866
2А,улица Строителей,606034,56.2337837,43.4058296
3,улица Комбрига Патоличева,606034,56.2351850,43.4046927
3А,улица Комбрига Патоличева,606034,56.2341984,43.4049134
4А,улица Строителей,606034,56.2332666,43.4030640
6А,улица Строителей,606034,56.2330879,43.4021679
7,улица Комбрига Патоличева,606034,56.2343017,43.4032854
9,улица Комбрига Патоличева,606034,56.2346210,43.4019576
9А,улица Комбрига Патоличева,606034,56.2337562,43.4014009
13,улица Комбрига Патоличева,606034,56.2338638,43.3996899
5,улица Комбрига Патоличева,606034,56.2344864,43.4039869
16А,Пушкинская улица,606033,56.2232179,43.3976983
20А,Пушкинская улица,606033,56.2229869,43.3946629
24,Пушкинская улица,606033,56.2222492,43.3919160
24А,Пушкинская улица,606033,56.2230456,43.3921706
24Б,Пушкинская улица,606033,56.2235250,43.3921822
77А,проспект Циолковского,606033,56.2254495,43.3979570
77Б,проспект Циолковского,606033,56.2245846,43.3977197
79А,проспект Циолковского,606033,56.2251395,43.3966579
84,проспект Свердлова,606033,56.2254100,43.3907661
84А,проспект Свердлова,606033,56.2249412,43.3926802
85А,проспект Циолковского,606033,56.2254457,43.3922666
86А,проспект Свердлова,606033,56.2244417,43.3922376
92/26,проспект Свердлова,606033,56.2226024,43.3906225
90,проспект Свердлова,606033,56.2233628,43.3908253
86,проспект Свердлова,606033,56.2246468,43.3908821
10,улица Рудольфа Удриса,606033,56.2229579,43.4048764
6,Пушкинская улица,606033,56.2225528,43.4033409
71А,проспект Циолковского,606031,56.2250222,43.4040983
75А,проспект Циолковского,606031,56.2254931,43.4017411
75Б,проспект Циолковского,606031,56.2245581,43.4019612
8А,Пушкинская улица,606033,56.2231520,43.4023306
12,улица Рудольфа Удриса,606033,56.2225856,43.4063808
10А,улица Самохвалова,606037,56.2343481,43.4199203
10Б,улица Самохвалова,606037,56.2348517,43.4195922
11,улица Будённого,606037,56.2359964,43.4201881
11А,улица Будённого,606037,56.2354477,43.4198823
12А,улица Петрищева,606037,56.2335650,43.4193090
12Б,улица Петрищева,606037,56.2343128,43.4186544
13А,улица Будённого,606037,56.2350771,43.4184313
15,улица Будённого,606037,56.2352556,43.4174386
8,улица Самохвалова,606037,56.2356726,43.4211487
10,улица Самохвалова,606037,56.2348230,43.4210173
13,улица Будённого,606037,56.2357376,43.4185604
25,улица Петрищева,606037,56.2319867,43.4207500
25А,улица Петрищева,606037,56.2307637,43.4215180
27,улица Петрищева,606037,56.2323572,43.4196111
27Б,улица Петрищева,606037,56.2310470,43.4189669
50,проспект Циолковского,606037,56.2300307,43.4213228
52,проспект Циолковского,606037,56.2301815,43.4195284
52А,проспект Циолковского,606037,56.2309894,43.4201372
10А,улица Ситнова,606015,56.2430303,43.4264426
28,Западный переулок,606015,56.2425021,43.4254112
2А,проспект Ленина,606015,56.2454463,43.4248673
2Б,проспект Ленина,606015,56.2454330,43.4256436
3,улица Самохвалова,606015,56.2450043,43.4232708
9,улица Самохвалова,606015,56.2425351,43.4235506
32,Красноармейская улица,606002,56.2461597,43.4145676
4,улица Ситнова,606015,56.2450328,43.4285068
4А,проспект Ленина,606015,56.2454041,43.4271886
4Б,проспект Ленина,606015,56.2454143,43.4264184
5,улица Самохвалова,606015,56.2439713,43.4232121
6,улица Ситнова,606015,56.2443547,43.4278232
7,улица Самохвалова,606015,56.2431668,43.4227589
8А,улица Ситнова,606015,56.2436797,43.4271119
10,улица Будённого,606015,56.2388521,43.4240965
12,улица Будённого,606015,56.2388935,43.4233036
14/17,улица Будённого,606015,56.2389364,43.4225220
6В,улица Будённого,606015,56.2397968,43.4271002
8,улица Будённого,606015,56.2388107,43.4249037
9А,Западный переулок,606015,56.2413158,43.4251968
6Б,улица Будённого,606015,56.2389795,43.4259360
3,улица Будённого,606026,56.2374432,43.4310239
5,улица Будённого,606026,56.2375536,43.4299969
7,улица Будённого,606026,56.2377984,43.4287399
34А,улица Терешковой,606029,56.2296857,43.4354790
36,улица Терешковой,606029,56.2297231,43.4341970
39Б,проспект Циолковского,606029,56.2301012,43.4321136
45Б,проспект Циолковского,606029,56.2301592,43.4277890
51,проспект Циолковского,606029,56.2294730,43.4235491
54,улица Терешковой,606029,56.2272651,43.4250056
58,улица Терешковой,606029,56.2272813,43.4226836
64А,улица Терешковой,606029,56.2271935,43.4192267
73Б,улица Гайдара,606029,56.2298743,43.4378337
53,проспект Циолковского,606029,56.2294141,43.4220313
38А,улица Бутлерова,606032,56.2484441,43.4364805
38Б,улица Бутлерова,606032,56.2487169,43.4356275
4/41,улица Пожарского,606032,56.2486476,43.4389278
43,улица Маяковского,606032,56.2494604,43.4374830
43Б,улица Маяковского,606032,56.2494109,43.4358328
8/34,улица Пожарского,606032,56.2474250,43.4376478
36,улица Бутлерова,606032,56.2474660,43.4364364
10,Молодёжная улица,606036,56.2544299,43.4525245
10А,Молодёжная улица,606036,56.2542376,43.4541037
10Б,Молодёжная улица,606036,56.2550431,43.4549337
10В,Молодёжная улица,606036,56.2543955,43.4555810
12А,Молодёжная улица,606036,56.2548103,43.4534961
13,Советская улица,606036,56.2562466,43.4553074
14,Молодёжная улица,606036,56.2559263,43.4542618
5,Советская улица,606007,56.2557149,43.4614570
7,Советская улица,606007,56.2551036,43.4603027
7А,Советская улица,606007,56.2547257,43.4593277
8А,Молодёжная улица,606036,56.2535103,43.4528679
9,Советская улица,606007,56.2557768,43.4596770
9А,Советская улица,606007,56.2553747,43.4589322
22А,улица Чапаева,606019,56.2493190,43.4666165
74,проспект Свердлова,606034,56.2294725,43.3915489
82,проспект Циолковского,606034,56.2276189,43.3955532
84,проспект Циолковского,606034,56.2277221,43.3928794
1,улица Комбрига Патоличева,606034,56.2347510,43.4061155
32,проспект Ленинского Комсомола,606034,56.2341226,43.4073617
3,улица Строителей,606034,56.2322296,43.4077840
2/38,улица Галкина,606034,56.2312698,43.4091454
4,улица Галкина,606034,56.2308496,43.4080510
8,улица Галкина,606034,56.2301786,43.4058562
11А,улица Галкина,606034,56.2283154,43.4042941
3,улица Галкина,606034,56.2299456,43.4077755
42,проспект Ленинского Комсомола,606034,56.2297955,43.4094903
7А,улица Галкина,606034,56.2288011,43.4072439
13,улица Гастелло,606007,56.2490271,43.4683067
22,улица Чапаева,606007,56.2483714,43.4668420
82/85,проспект Свердлова,606033,56.2260861,43.3913016
11А,бульвар Космонавтов,606039,56.2305997,43.3776826
75/1,проспект Циолковского,606033,56.2260354,43.4012742
77/2,проспект Циолковского,606033,56.2260469,43.3986581
80,проспект Циолковского,606034,56.2279282,43.3971887
86,проспект Циолковского,606034,56.2274820,43.3913199
10,улица Строителей,606034,56.2317287,43.3988332
12,улица Строителей,606034,56.2315067,43.3977337
4,улица Строителей,606034,56.2325409,43.4030141
6,улица Строителей,606034,56.2323445,43.4020115
76,проспект Циолковского,606034,56.2275363,43.4008621
72,проспект Циолковского,606034,56.2274410,43.4038999
68,проспект Циолковского,606034,56.2275529,43.4067290
26А,улица Терешковой,606025,56.2301454,43.4425705
26Б,улица Терешковой,606025,56.2304722,43.4418754
39В,проспект Циолковского,606029,56.2295913,43.4294512
43,проспект Циолковского,606029,56.2307989,43.4296523
57,проспект Циолковского,606029,56.2285518,43.4186834
11,улица Галкина,606034,56.2292533,43.4041038
6,улица Галкина,606034,56.2304979,43.4069565
32/5,улица Маяковского,606024,56.2481282,43.4431258
11,улица Рудольфа Удриса,606031,56.2222516,43.4074230
6,улица Петрищева,606029,56.2350903,43.4290537
6В,проспект Дзержинского,606000,56.2396112,43.4657726
3,улица Рудольфа Удриса,606031,56.2255121,43.4075397
5,улица Рудольфа Удриса,606031,56.2247775,43.4074829
9,улица Рудольфа Удриса,606031,56.2229325,43.4078195
32,улица Пирогова,606007,56.2520295,43.4743864
34,улица Пирогова,606007,56.2528055,43.4746569
43,улица Гайдара,606026,56.2389965,43.4351190
45,улица Гайдара,606026,56.2385469,43.4350384
47,улица Гайдара,606026,56.2381076,43.4349612
53,проспект Чкалова,606007,56.2546466,43.4658554
54,проспект Чкалова,606007,56.2545077,43.4672212
55,проспект Чкалова,606007,56.2550100,43.4654079
56,проспект Чкалова,606007,56.2551130,43.4674139
57,проспект Чкалова,606007,56.2553654,43.4649726
8,улица Чапаева,606019,56.2481265,43.4707095
30,улица Пирогова,606007,56.2512494,43.4741195
35,улица Петрищева,606037,56.2304896,43.4126757
35А,улица Петрищева,606037,56.2307632,43.4119625
14,бульвар Космонавтов,606039,56.2289312,43.3815155
24,бульвар Космонавтов,606039,56.2286292,43.3766001
37А,улица Комбрига Патоличева,606039,56.2312988,43.3782898
5А,улица Суворова,606010,56.2368008,43.4822617
5,проспект Ленина,606032,56.2468511,43.4320051
9Б,улица Строителей,606033,56.2309719,43.4039202
10,улица Петрищева,606029,56.2343013,43.4249986
2,улица Петрищева,606029,56.2357929,43.4335902
56А,Октябрьская улица,606010,56.2339798,43.4804437
58А,Октябрьская улица,606010,56.2342318,43.4810568
81,проспект Циолковского,606033,56.2260550,43.3949567
34,проспект Циолковского,606029,56.2324991,43.4329977
41А,проспект Циолковского,606029,56.2304618,43.4307637
42,проспект Циолковского,606029,56.2313132,43.4267193
49А,проспект Циолковского,606029,56.2291900,43.4246291
57А,проспект Циолковского,606029,56.2280004,43.4200105
88,проспект Свердлова,606033,56.2239976,43.3913465
26В,улица Терешковой,606025,56.2308716,43.4428560
2/34,улица Строителей,606034,56.2331789,43.4065137
70,проспект Циолковского,606034,56.2276098,43.4054719
74,проспект Циолковского,606034,56.2274914,43.4025897
8В,улица Ситнова,606015,56.2439887,43.4301445
65А,улица Чапаева,606024,56.2492139,43.4478158
71,проспект Циолковского,606031,56.2260223,43.4057828
11,Советская улица,606036,56.2560569,43.4565225
12,Молодёжная улица,606036,56.2554698,43.4534984
8,Молодёжная улица,606036,56.2537798,43.4515844
23,улица Петрищева,606037,56.2323760,43.4219338
7,улица Петрищева,606029,56.2338958,43.4297169
34,улица Терешковой,606029,56.2286635,43.4353946
46А,улица Терешковой,606029,56.2277474,43.4289672
2,улица Пожарского,606032,56.2499803,43.4392346
34Б,улица Пирогова,606007,56.2517048,43.4776650
52,Октябрьская улица,606010,56.2340353,43.4782977
15,Молодёжная улица,606036,56.2551896,43.4514902
15А,Молодёжная улица,606036,56.2556922,43.4520060
17,Молодёжная улица,606036,56.2561892,43.4525421
3,Молодёжная улица,606036,56.2521174,43.4482592
5,Молодёжная улица,606036,56.2526177,43.4488224
7,Молодёжная улица,606036,56.2531289,43.4493399
70,улица Чапаева,606024,56.2508769,43.4447462
72,улица Чапаева,606024,56.2509729,43.4437623
6,улица Щорса,606002,56.2412485,43.3999434
84А,проспект Циолковского,606034,56.2281078,43.3940904
11,Молодёжная улица,606036,56.2540221,43.4506669
11А,Молодёжная улица,606036,56.2538720,43.4494916
13,Молодёжная улица,606036,56.2546753,43.4509697
19,Молодёжная улица,606036,56.2566401,43.4530946
4Б,улица Будённого,606015,56.2399209,43.4278948
3,улица Пожарского,606024,56.2493335,43.4411800
13,улица Самохвалова,606015,56.2416602,43.4227231
36,бульвар Мира,606026,56.2351255,43.4424121
18А,проспект Циолковского,606025,56.2356874,43.4468254
19,улица Марковникова,606023,56.2409904,43.4411770
54,улица Ватутина,606023,56.2474319,43.4581384
31,улица Комбрига Патоличева,606039,56.2316272,43.3817600
34,улица Маяковского,606024,56.2487654,43.4411791
36,улица Маяковского,606024,56.2493051,43.4400445
51,улица Гайдара,606029,56.2349799,43.4340059
66А,Октябрьская улица,606016,56.2351670,43.4844449
72А,Октябрьская улица,606016,56.2357730,43.4875494
12,проспект Ленинского Комсомола,606002,56.2436152,43.4114355
16,улица Сухаренко,606002,56.2427662,43.4001313
16А,улица Сухаренко,606002,56.2434691,43.4011920
18,улица Сухаренко,606002,56.2443485,43.4001845
18А,улица Сухаренко,606002,56.2438481,43.4010025
19,улица Щорса,606002,56.2420313,43.4011201
20А,улица Сухаренко,606002,56.2456371,43.4011194
3А,улица Петрищева,606029,56.2340890,43.4324515
27В,Студенческая улица,606016,56.2413953,43.4861978
8Б,улица Галкина,606034,56.2314413,43.4056090
15А,бульвар Космонавтов,606039,56.2306821,43.3749616
43,улица Комбрига Патоличева,606039,56.2310650,43.3758987
34,улица Матросова,606036,56.2524705,43.4545852
40,Народная улица,606036,56.2534503,43.4547469
15,улица Самохвалова,606015,56.2403284,43.4226948
25А,Октябрьская улица,606008,56.2338740,43.4679218
26,улица Пожарского,606015,56.2438465,43.4339756
5,улица Урицкого,606008,56.2328928,43.4581019
5А,улица Урицкого,606008,56.2327782,43.4590558
30,Пушкинская улица,606033,56.2226202,43.3855295
4А,улица Будённого,606015,56.2394099,43.4280874
2,улица Будённого,606015,56.2388982,43.4288416
4,улица Будённого,606015,56.2387326,43.4278030
5,Учительский переулок,606002,56.2512679,43.3875504
7,Учительский переулок,606002,56.2513104,43.3865782
8,улица Ситнова,606015,56.2439979,43.4287157
100,проспект Циолковского,606039,56.2276925,43.3765458
102А,проспект Циолковского,606039,56.2280764,43.3740509
12,бульвар Космонавтов,606039,56.2289415,43.3829717
12А,бульвар Космонавтов,606039,56.2283958,43.3827016
22,бульвар Космонавтов,606039,56.2286007,43.3774607
26А,бульвар Космонавтов,606039,56.2286514,43.3749611
26,бульвар Космонавтов,606039,56.2288762,43.3743929
29,улица Комбрига Патоличева,606039,56.2318743,43.3866742
3,бульвар Космонавтов,606039,56.2298648,43.3852582
1,улица Будённого,606026,56.2374279,43.4325539
1А,улица Будённого,606026,56.2369530,43.4310742
4,улица Самохвалова,606015,56.2440735,43.4202976
4А,улица Самохвалова,606015,56.2445271,43.4195978
9,улица Будённого,606026,56.2377257,43.4268324
15,бульвар Космонавтов,606039,56.2302108,43.3744073
94,проспект Циолковского,606039,56.2276723,43.3821954
94А,проспект Циолковского,606039,56.2277186,43.3808886
98А,проспект Циолковского,606039,56.2281896,43.3788742
98Б,проспект Циолковского,606039,56.2278413,43.3794759
35,улица Комбрига Патоличева,606039,56.2321703,43.3799954
37,улица Комбрига Патоличева,606039,56.2326641,43.3798879
39,улица Комбрига Патоличева,606039,56.2322613,43.3779619
7,бульвар Космонавтов,606039,56.2298380,43.3809684
7А,бульвар Космонавтов,606039,56.2303840,43.3812581
9,бульвар Космонавтов,606039,56.2300404,43.3794503
9А,бульвар Космонавтов,606039,56.2309447,43.3800673
1/77,бульвар Космонавтов,606039,56.2296496,43.3880113
71,проспект Свердлова,606039,56.2323028,43.3885765
73,проспект Свердлова,606039,56.2317541,43.3889516
75,проспект Свердлова,606039,56.2311223,43.3888324
1/77,бульвар Космонавтов,606039,56.2301518,43.3888357
9А,улица Строителей,606033,56.2311263,43.4047469
11Б,улица Рудольфа Удриса,606031,56.2244945,43.4115228
52,проспект Ленинского Комсомола,606031,56.2243663,43.4125475
54,проспект Ленинского Комсомола,606031,56.2239204,43.4115980
7А,улица Рудольфа Удриса,606031,56.2243408,43.4107085
7Б,улица Рудольфа Удриса,606031,56.2245981,43.4099176
78,улица Чапаева,606024,56.2517796,43.4392986
76,улица Чапаева,606024,56.2512253,43.4415733
78,улица Чапаева,606024,56.2514803,43.4398702
28,проспект Чкалова,606007,56.2496216,43.4654294
9,улица Панфиловцев,606024,56.2501106,43.4611747
10Б,улица Ситнова,606015,56.2428664,43.4289450
10А,проспект Ленина,606015,56.2447910,43.4332793
8Б,улица Ситнова,606015,56.2433543,43.4300069
29,Октябрьская улица,606008,56.2341198,43.4714382
31,Октябрьская улица,606008,56.2345337,43.4746144
85,Нижегородское шоссе,606000,56.2918237,43.5961772
6/38,Молодёжная улица,606036,56.2529124,43.4510804
14,улица Черняховского,606016,56.2372563,43.4883314
63,Октябрьская улица,606016,56.2375380,43.4899335
22,улица Попова,606030,56.2309793,43.4745321
6,Октябрьская улица,606008,56.2315078,43.4623646
11,Октябрьская улица,606008,56.2321823,43.4620981
7,Октябрьская улица,606008,56.2318194,43.4608907
9,Октябрьская улица,606008,56.2320408,43.4613552
5/7,Октябрьская улица,606008,56.2320388,43.4589426
5А,Октябрьская улица,606008,56.2322001,43.4601155
8,проспект Ленина,606015,56.2453546,43.4310605
10,проспект Ленина,606015,56.2453414,43.4330839
12,улица Самохвалова,606037,56.2337071,43.4205300
26,улица Чапаева,606024,56.2487834,43.4629874
27,проспект Чкалова,606007,56.2492644,43.4638269
27В,улица Петрищева,606037,56.2321315,43.4185004
29,улица Петрищева,606037,56.2316624,43.4172224
29,проспект Чкалова,606007,56.2502917,43.4642134
1А,проспект Ленина,606015,56.2470302,43.4229098
1Б,проспект Ленина,606015,56.2469798,43.4245157
1В,проспект Ленина,606015,56.2469619,43.4262757
19,Студенческая улица,606016,56.2382181,43.4900290
92А,проспект Циолковского,606039,56.2282226,43.3846268
92,проспект Циолковского,606039,56.2274599,43.3846090
2,проспект Дзержинского,606000,56.2390317,43.4629135
4,площадь Дзержинского,606000,56.2387895,43.4626265
5,площадь Дзержинского,606000,56.2383387,43.4629817
65,проспект Ленина,606000,56.2381244,43.4639373
20,Пушкинская улица,606033,56.2222383,43.3947469
4,Пушкинская улица,606033,56.2219692,43.4051844
3А,улица Рудольфа Удриса,606031,56.2253168,43.4091803
8А,улица Галкина,606034,56.2308927,43.4056394
19,улица Будённого,606037,56.2348133,43.4129262
31А,улица Комбрига Патоличева,606039,56.2323797,43.3854227
51А,проспект Чкалова,606007,56.2535147,43.4645882
53Б,проспект Чкалова,606007,56.2544595,43.4631633
53В,проспект Чкалова,606007,56.2551418,43.4626705
51Б,проспект Чкалова,606007,56.2542940,43.4643066
53А,проспект Чкалова,606007,56.2550006,43.4640870
10,улица Матросова,606007,56.2511633,43.4702638
16,улица Матросова,606007,56.2513079,43.4687832
33,улица Пирогова,606007,56.2519010,43.4736675
33А,улица Пирогова,606007,56.2519904,43.4727448
35А,улица Пирогова,606007,56.2528546,43.4730238
18,Новомосковская улица,606007,56.2542045,43.4726040
16,Новомосковская улица,606007,56.2543003,43.4716452
14,Новомосковская улица,606007,56.2543957,43.4707044
12,Новомосковская улица,606007,56.2544908,43.4697553
48Б,проспект Чкалова,606007,56.2520976,43.4682494
48А,проспект Чкалова,606007,56.2521930,43.4673133
40А,улица Бутлерова,606032,56.2489260,43.4339541
40Б,улица Бутлерова,606032,56.2492018,43.4348249
45,улица Маяковского,606032,56.2502154,43.4358740
45А,улица Маяковского,606032,56.2498997,43.4349739
22,улица Терешковой,606025,56.2298532,43.4439072
12,улица Терешковой,606025,56.2297015,43.4477912
18,улица Терешковой,606025,56.2298011,43.4456991
14,улица Терешковой,606025,56.2297413,43.4467562
12А,улица Урицкого,606008,56.2317274,43.4557075
12Б,улица Урицкого,606008,56.2317379,43.4547848
11,Западный переулок,606032,56.2418818,43.4244927
9,Западный переулок,606032,56.2421099,43.4255219
13/11,Западный переулок,606032,56.2421386,43.4234646
38А,проспект Циолковского,606037,56.2322507,43.4280432
11А,улица Петрищева,606037,56.2327352,43.4285152
13А,улица Петрищева,606037,56.2328351,43.4271634
13,улица Петрищева,606037,56.2334261,43.4269891
11,улица Петрищева,606037,56.2338801,43.4276435
3,улица Петрищева,606037,56.2348134,43.4324661
53А,улица Гайдара,606037,56.2341890,43.4336553
5В,улица Петрищева,606037,56.2329993,43.4318577
5Б,улица Петрищева,606037,56.2334687,43.4318090
5А,улица Петрищева,606037,56.2338920,43.4315488
5,улица Петрищева,606037,56.2343209,43.4312682
36А,проспект Циолковского,606037,56.2324012,43.4310526
57,улица Гайдара,606037,56.2330775,43.4346457
32,проспект Циолковского,606037,56.2325161,43.4343221
36,проспект Циолковского,606037,56.2320569,43.4319672
40,проспект Циолковского,606037,56.2313144,43.4281343
44,проспект Циолковского,606037,56.2308516,43.4257803
46,проспект Циолковского,606037,56.2313034,43.4248368
46А,проспект Циолковского,606037,56.2319689,43.4249521
19,улица Петрищева,606037,56.2331759,43.4240154
21,улица Петрищева,606037,56.2326383,43.4234271
21А,улица Петрищева,606037,56.2320464,43.4235961
27А,улица Петрищева,606037,56.2317465,43.4189798
37В,проспект Циолковского,606029,56.2306704,43.4346984
37,проспект Циолковского,606029,56.2319346,43.4349203
33А,проспект Циолковского,606029,56.2313144,43.4360683
33Б,проспект Циолковского,606029,56.2308732,43.4363419
37Б,проспект Циолковского,606029,56.2303066,43.4356284
32,улица Терешковой,606029,56.2289305,43.4366878
28,улица Терешковой,606029,56.2289976,43.4392363
30,улица Терешковой,606029,56.2287127,43.4376455
30А,улица Терешковой,606029,56.2295276,43.4368338
73А,улица Гайдара,606029,56.2305899,43.4372484
73,улица Гайдара,606029,56.2299771,43.4396840
69,улица Гайдара,606029,56.2311888,43.4385035
67,улица Гайдара,606029,56.2318617,43.4384175
50А,улица Терешковой,606029,56.2283519,43.4263440
48,улица Терешковой,606029,56.2284742,43.4280110
49Б,проспект Циолковского,606029,56.2286382,43.4242665
49В,проспект Циолковского,606029,56.2287351,43.4256613
50,улица Терешковой,606029,56.2280239,43.4273324
47А,проспект Циолковского,606029,56.2293687,43.4274504
46,улица Терешковой,606029,56.2288837,43.4287999
45,проспект Циолковского,606029,56.2306600,43.4284106
45А,проспект Циолковского,606029,56.2296955,43.4282841
43А,проспект Циолковского,606029,56.2300755,43.4297356
44,улица Терешковой,606029,56.2285442,43.4300065
41Б,проспект Циолковского,606029,56.2297073,43.4306878
38,улица Терешковой,606029,56.2290452,43.4336489
39А,проспект Циолковского,606029,56.2306326,43.4336492
55А,проспект Циолковского,606029,56.2271010,43.4205410
62А,улица Терешковой,606029,56.2267446,43.4209621
64,улица Терешковой,606029,56.2264449,43.4196908
53А,проспект Циолковского,606029,56.2284885,43.4219430
56,улица Терешковой,606029,56.2268206,43.4240252
56А,улица Терешковой,606029,56.2279658,43.4237515
73А,проспект Циолковского,606031,56.2249404,43.4030208
6,улица Рудольфа Удриса,606031,56.2245497,43.4051693
1,улица Самохвалова,606015,56.2457524,43.4228825
2,улица Ситнова,606015,56.2455988,43.4292423
6,улица Будённого,606015,56.2384823,43.4261590
7А,Западный переулок,606015,56.2406985,43.4257542
2,проспект Ленина,606015,56.2460422,43.4239731
4,проспект Ленина,606015,56.2459332,43.4280783
8,проспект Ленинского Комсомола,606002,56.2448149,43.4134171
10А,проспект Ленинского Комсомола,606002,56.2448446,43.4120588
14,проспект Ленинского Комсомола,606002,56.2429836,43.4101468
4А,улица Щорса,606002,56.2410859,43.4007812
4,улица Щорса,606002,56.2410666,43.4015724
2,улица Щорса,606002,56.2410457,43.4024280
19,улица Ульянова,606002,56.2423180,43.3969744
11,улица Сухаренко,606002,56.2462487,43.3993006
2А,улица Ульянова,606002,56.2425466,43.3960175
4,улица Ульянова,606002,56.2432794,43.3948913
9А,улица Ульянова,606002,56.2462755,43.3953068
7А,улица Ульянова,606002,56.2455251,43.3952850
6А,улица Ульянова,606002,56.2444737,43.3960819
2,улица Ульянова,606002,56.2425555,43.3946577
4А,улица Ульянова,606002,56.2432799,43.3960524
15,улица Ульянова,606002,56.2440777,43.3970650
9,улица Сухаренко,606002,56.2454692,43.3990457
23,улица Щорса,606002,56.2420621,43.3953041
21,улица Щорса,606002,56.2420762,43.3983513
13А,улица Ульянова,606002,56.2457703,43.3981177
13,улица Ульянова,606002,56.2457762,43.3971119
17,улица Ульянова,606002,56.2432218,43.3970180
18,улица Ульянова,606002,56.2439103,43.3980722
20,улица Ульянова,606002,56.2429043,43.3980131
3,улица Сухаренко,606002,56.2426986,43.3990672
7,улица Сухаренко,606002,56.2446347,43.3989492
5,улица Сухаренко,606002,56.2437113,43.3988636
88А,проспект Циолковского,606039,56.2276324,43.3864601
28,Московская улица,606055,56.2935629,43.3540854
38,улица Бутлерова,606032,56.2480996,43.4355399
40,улица Бутлерова,606032,56.2483414,43.4341594
58А,Весенняя улица,606042,56.2586182,43.7318219
40,улица Расковой,606042,56.2639500,43.7294876
17А,проспект Чкалова,606000,56.2453354,43.4618967
9Д,улица Рудольфа Удриса,606031,56.2233159,43.4104248
14,Тупиковый переулок,606002,56.2475402,43.3883151
31,проспект Свердлова,606002,56.2475407,43.3900170
29,проспект Свердлова,606002,56.2482951,43.3900535
67,проспект Ленина,606000,56.2386172,43.4648355
6,Зелёная улица,606007,56.2863512,43.3916801
11А,проспект Свердлова,606000,56.2560840,43.3880357
9А,улица Свободы,606017,56.2125658,43.5407892
13А,улица Свободы,606017,56.2129720,43.5421371
13Б,улица Свободы,606017,56.2130753,43.5423933
15А,улица Свободы,606017,56.2131698,43.5428891
17А,улица Свободы,606017,56.2132033,43.5433175
50 с18,Речное шоссе,606000,56.2197459,43.5589284
28,улица Свободы,606017,56.2152950,43.5465186
27Б,улица Свободы,606017,56.2145509,43.5465573
28Б,улица Свободы,606017,56.2146968,43.5470249
16,улица Свободы,606017,56.2140121,43.5424484
8Б,улица Науки,422701,56.2558169,43.5154169
11Б,улица Будённого,606037,56.2366082,43.4199683
8Г,улица Свободы,606017,56.2123666,43.5405960
19А,улица Свободы,606017,56.2135069,43.5438724
29Б,улица Свободы,606017,56.2147336,43.5477745
33В,улица Свободы,606017,56.2148153,43.5492030
15Б,улица Свободы,606017,56.2127762,43.5433395
30Б,улица Свободы,606017,56.2148548,43.5481830
33Г,улица Свободы,606017,56.2152021,43.5488780
21Б,улица Свободы,606017,56.2134068,43.5448953
21В,улица Свободы,606017,56.2135210,43.5452369
14 к1,улица Свободы,606017,56.2137307,43.5416455
23,улица Свободы,606017,56.2148747,43.5445130
25Б,улица Свободы,606017,56.2140981,43.5464617
27Ж,улица Свободы,606017,56.2143049,43.5469844
28В,улица Свободы,606017,56.2141961,43.5477371
33Б,улица Свободы,606017,56.2149108,43.5489886
31Б,улица Свободы,606017,56.2150451,43.5484287
4Б,улица Рудольфа Удриса,606031,56.2238718,43.4056498
17,проспект Дзержинского,606019,56.2435271,43.4725074
18Б,улица Терешковой,606025,56.2308809,43.4458251
26,Красноармейская улица,606002,56.2461027,43.4111508
