House number,Street name,Postal code,Latitude,Longitude
139,Strada I. H. Rădulescu,105600,45.1440266,25.7323121
30,Strada George Coșbuc,105600,45.1312848,25.7450904
46,Bulevardul Nicolae Bălcescu,105600,45.1163091,25.7465254
6,Strada Sălaj,105600,45.1159147,25.7481196
6,Strada Ardealului,105600,45.1236355,25.7336312
91,Strada B.P. Hașdeu,105600,45.1326394,25.7331457
57-63,Strada Bobâlna,105600,45.1345524,25.7414955
199,Bulevardul Carol I,105600,45.1356645,25.7272927
166,Bulevardul Carol I,105600,45.1344560,25.7328171
34,Bulevardul Carol I,105600,45.1229306,25.7361971
40,Bulevardul Carol I,105600,45.1237066,25.7355130
40,Bulevardul Carol I,105600,45.1236441,25.7355882
42-44,Bulevardul Carol I,105600,45.1238145,25.7353896
46,Bulevardul Carol I,105600,45.1239281,25.7352635
46,Bulevardul Carol I,105600,45.1241191,25.7350062
48,Bulevardul Carol I,105600,45.1242894,25.7348318
48,Bulevardul Carol I,105600,45.1244730,25.7350624
50,Bulevardul Carol I,105600,45.1246679,25.7345690
50,Bulevardul Carol I,105600,45.1247552,25.7344006
54,Bulevardul Carol I,105600,45.1250900,25.7341076
56,Bulevardul Carol I,105600,45.1252697,25.7339682
58,Bulevardul Carol I,105600,45.1254192,25.7338770
62,Bulevardul Carol I,105600,45.1261346,25.7336195
64,Bulevardul Carol I,105600,45.1264639,25.7333137
64,Bulevardul Carol I,105600,45.1265680,25.7332976
59,Bulevardul Carol I,105600,45.1265631,25.7329077
59,Bulevardul Carol I,105600,45.1266531,25.7328977
61,Bulevardul Carol I,105600,45.1267586,25.7328839
61,Bulevardul Carol I,105600,45.1269483,25.7328309
66,Bulevardul Carol I,105600,45.1269786,25.7332198
66,Bulevardul Carol I,105600,45.1271016,25.7331957
63,Bulevardul Carol I,105600,45.1274157,25.7329436
63,Bulevardul Carol I,105600,45.1274763,25.7329731
63,Bulevardul Carol I,105600,45.1275690,25.7329918
43,Bulevardul Carol I,105600,45.1255401,25.7326550
41,Bulevardul Carol I,105600,45.1253095,25.7329086
33,Bulevardul Carol I,105600,45.1247266,25.7335846
66,Bulevardul Carol I,105600,45.1269320,25.7332206
10,Strada Orizontului,105600,45.1239166,25.7506212
31,Bulevardul Carol I,105600,45.1245488,25.7338836
31,Bulevardul Carol I,105600,45.1245186,25.7339319
19,Bulevardul Nicolae Bălcescu,105600,45.1105387,25.7465522
19A,Podului,105600,45.1225201,25.7243752
19A,Strada Mioriței,105600,45.1101611,25.7481873
19bis,Strada Mioriței,105600,45.1101346,25.7478116
19D,Strada Mioriței,105600,45.1100572,25.7476587
43,Bulevardul Carol I,105600,45.1256778,25.7325647
47,Bulevardul Carol I,105600,45.1261168,25.7326344
39,Bulevardul Carol I,105600,45.1250760,25.7330662
35,Bulevardul Carol I,105600,45.1248394,25.7333640
47,Bulevardul Carol I,105600,45.1263193,25.7329214
41,Bulevardul Carol I,105600,45.1251384,25.7330314
52,Bulevardul Carol I,105600,45.1248962,25.7342410
61,Bulevardul Carol I,105600,45.1232611,25.7353086
2,Strada Sălaj,105600,45.1176484,25.7460367
2,Strada Sălaj,105600,45.1175859,25.7459589
4,Strada Petrolistului,105600,45.1206935,25.7511869
2,Strada Sălaj,105600,45.1174438,25.7453102
44,Bulevardul Nicolae Bălcescu,105600,45.1141712,25.7459781
18,Strada Bucegi,105600,45.1379244,25.7328490
16C,Strada Bucegi,105600,45.1390680,25.7323269
60,Strada B.P. Hașdeu,105600,45.1270847,25.7390783
47,Bulevardul Carol I,105600,45.1260804,25.7324928
14,Strada 1 Mai,105600,45.1251248,25.7371646
4,Strada Constantin Stere,105600,45.1255475,25.7425731
60,Strada B.P. Hașdeu,105600,45.1270629,25.7392149
28,Strada B.P. Hașdeu,105600,45.1256353,25.7414294
16,Strada 1 Mai,105600,45.1255035,25.7374940
16,Strada Bobâlna,105600,45.1329866,25.7376721
2,Strada Siretului,105600,45.1427249,25.7212215
46,Bulevardul Nicolae Bălcescu,105600,45.1160083,25.7459477
46,Bulevardul Nicolae Bălcescu,105600,45.1159187,25.7457883
46,Bulevardul Nicolae Bălcescu,105600,45.1164328,25.7467792
46,Bulevardul Nicolae Bălcescu,105600,45.1163821,25.7466626
46,Bulevardul Nicolae Bălcescu,105600,45.1162457,25.7464025
2A,Strada Petrolistului,105600,45.1187402,25.7446244
2,Strada Petrolistului,105600,45.1186206,25.7445373
19,Strada Mărului,105600,45.1391958,25.7311334
9,Strada Nicolae Grigorescu,105600,45.1314312,25.7283663
5,Aleea Energiei,105600,45.1204151,25.7373728
32,Calea Doftanei,105600,45.1291415,25.7387584
6,Bulevardul Carol I,105600,45.1203194,25.7391208
12,Bulevardul Carol I,105600,45.1208455,25.7383537
22,Bulevardul Carol I,105600,45.1216480,25.7374632
26,Bulevardul Carol I,105600,45.1220700,25.7370743
16,Bulevardul Carol I,105600,45.1212032,25.7379675
3A,Bulevardul Carol I,105600,45.1200317,25.7386756
5A,Bulevardul Carol I,105600,45.1210597,25.7377536
3C,Bulevardul Carol I,105600,45.1209822,25.7378421
3C,Bulevardul Carol I,105600,45.1209064,25.7379145
34,Bulevardul Carol I,105600,45.1229993,25.7361355
20,Strada Ecaterina Teodoroiu,105600,45.1317547,25.7474256
3,Bulevardul Carol I,105600,45.1203083,25.7385594
6,Strada Ardealului,105600,45.1235915,25.7335307
17,Strada Ecaterina Teodoroiu,105600,45.1287706,25.7511959
46,Bulevardul Nicolae Bălcescu,105600,45.1158242,25.7456065
44,Bulevardul Nicolae Bălcescu,105600,45.1141739,25.7461036
10,Strada Mihail Kogălniceanu,105600,45.1237344,25.7374376
15,Calea Doftanei,105600,45.1298675,25.7400344
15,Calea Doftanei,105600,45.1298093,25.7399106
18,Bulevardul Nicolae Bălcescu,105600,45.1106482,25.7465241
11,Calea Doftanei,105600,45.1270579,25.7351751
141A,Calea Doftanei,105600,45.1394140,25.7527134
141,Calea Doftanei,105600,45.1392954,25.7524279
139B,Calea Doftanei,105600,45.1392238,25.7522891
139,Calea Doftanei,105600,45.1391409,25.7521456
200,Calea Doftanei,105600,45.1387916,25.7522141
198A,Calea Doftanei,105600,45.1386689,25.7522645
196,Calea Doftanei,105600,45.1386694,25.7520513
194A,Calea Doftanei,105600,45.1385973,25.7518687
194,Calea Doftanei,105600,45.1384759,25.7518004
192A,Calea Doftanei,105600,45.1383769,25.7516193
192,Calea Doftanei,105600,45.1383026,25.7514238
190,Calea Doftanei,105600,45.1382056,25.7512684
137,Calea Doftanei,105600,45.1389961,25.7519658
135,Calea Doftanei,105600,45.1388978,25.7518508
133,Calea Doftanei,105600,45.1387753,25.7516072
129,Calea Doftanei,105600,45.1387003,25.7512497
127,Calea Doftanei,105600,45.1386149,25.7511789
125,Calea Doftanei,105600,45.1384729,25.7511971
123,Calea Doftanei,105600,45.1383961,25.7511061
121,Calea Doftanei,105600,45.1383219,25.7509466
119,Calea Doftanei,105600,45.1382053,25.7508207
188,Calea Doftanei,105600,45.1380810,25.7510693
186,Calea Doftanei,105600,45.1378394,25.7507814
184,Calea Doftanei,105600,45.1377176,25.7505945
182A,Calea Doftanei,105600,45.1374966,25.7504618
182,Calea Doftanei,105600,45.1373498,25.7502729
117B,Calea Doftanei,105600,45.1381016,25.7498396
117,Calea Doftanei,105600,45.1378723,25.7502581
113A,Calea Doftanei,105600,45.1377882,25.7497955
115,Calea Doftanei,105600,45.1377234,25.7499956
113,Calea Doftanei,105600,45.1375235,25.7498378
111,Calea Doftanei,105600,45.1373429,25.7496334
180,Calea Doftanei,105600,45.1371914,25.7500267
178,Calea Doftanei,105600,45.1370663,25.7499018
109A,Calea Doftanei,105600,45.1371958,25.7495015
109,Calea Doftanei,105600,45.1371965,25.7491851
107,Calea Doftanei,105600,45.1370354,25.7492609
172A,Calea Doftanei,105600,45.1368690,25.7495487
174,Calea Doftanei,105600,45.1369056,25.7497102
172,Calea Doftanei,105600,45.1367515,25.7494518
170,Calea Doftanei,105600,45.1364908,25.7491309
105,Calea Doftanei,105600,45.1366379,25.7487263
168,Calea Doftanei,105600,45.1363136,25.7488033
103,Calea Doftanei,105600,45.1363828,25.7485005
101,Calea Doftanei,105600,45.1362967,25.7483869
99,Calea Doftanei,105600,45.1362115,25.7482807
97A,Calea Doftanei,105600,45.1360967,25.7481605
166,Calea Doftanei,105600,45.1361889,25.7486473
164A,Calea Doftanei,105600,45.1360735,25.7485629
164,Calea Doftanei,105600,45.1359913,25.7484655
162,Calea Doftanei,105600,45.1359039,25.7483452
97,Calea Doftanei,105600,45.1359789,25.7480213
160,Calea Doftanei,105600,45.1358105,25.7482522
158,Calea Doftanei,105600,45.1357152,25.7481490
156,Calea Doftanei,105600,45.1356382,25.7480421
154,Calea Doftanei,105600,45.1355285,25.7479151
91A,Calea Doftanei,105600,45.1354962,25.7474729
91,Calea Doftanei,105600,45.1354112,25.7473315
152,Calea Doftanei,105600,45.1353689,25.7477110
150,Calea Doftanei,105600,45.1352392,25.7475518
148A,Calea Doftanei,105600,45.1351450,25.7474313
148,Calea Doftanei,105600,45.1350446,25.7473141
87,Calea Doftanei,105600,45.1351176,25.7469959
85,Calea Doftanei,105600,45.1349681,25.7468729
144A,Calea Doftanei,105600,45.1347834,25.7470366
144,Calea Doftanei,105600,45.1346588,25.7468871
83C,Calea Doftanei,105600,45.1347393,25.7465546
142C,Calea Doftanei,105600,45.1345755,25.7467521
142B,Calea Doftanei,105600,45.1345159,25.7466727
142A,Calea Doftanei,105600,45.1344642,25.7466099
83B,Calea Doftanei,105600,45.1346414,25.7464190
83,Calea Doftanei,105600,45.1345244,25.7463141
142,Calea Doftanei,105600,45.1344003,25.7465391
140,Calea Doftanei,105600,45.1343427,25.7464766
138,Calea Doftanei,105600,45.1343005,25.7464296
136,Calea Doftanei,105600,45.1342215,25.7463445
134,Calea Doftanei,105600,45.1341065,25.7462362
79A,Calea Doftanei,105600,45.1343457,25.7458388
81,Calea Doftanei,105600,45.1343581,25.7461284
79,Calea Doftanei,105600,45.1342116,25.7460197
77,Calea Doftanei,105600,45.1341362,25.7459355
77B,Calea Doftanei,105600,45.1340622,25.7458546
75,Calea Doftanei,105600,45.1339144,25.7457522
73C,Calea Doftanei,105600,45.1338033,25.7457064
73,Calea Doftanei,105600,45.1337556,25.7456066
73A,Calea Doftanei,105600,45.1339080,25.7453654
4,Strada Colonel Haralambie Săvulescu,105600,45.1333097,25.7592693
6,Strada Colonel Haralambie Săvulescu,105600,45.1334260,25.7591111
8,Strada Colonel Haralambie Săvulescu,105600,45.1335732,25.7589201
10,Strada Colonel Haralambie Săvulescu,105600,45.1336602,25.7586178
12,Strada Colonel Haralambie Săvulescu,105600,45.1335718,25.7584702
1,Strada Colonel Haralambie Săvulescu,105600,45.1334003,25.7587877
3,Strada Colonel Haralambie Săvulescu,105600,45.1332905,25.7586169
5,Strada Colonel Haralambie Săvulescu,105600,45.1331786,25.7584723
14,Strada Colonel Haralambie Săvulescu,105600,45.1334229,25.7582287
16,Strada Colonel Haralambie Săvulescu,105600,45.1333370,25.7580445
7,Strada Colonel Haralambie Săvulescu,105600,45.1331044,25.7583049
9,Strada Colonel Haralambie Săvulescu,105600,45.1329281,25.7581479
18,Strada Colonel Haralambie Săvulescu,105600,45.1332580,25.7579070
13,Strada Colonel Haralambie Săvulescu,105600,45.1328804,25.7576267
20,Strada Colonel Haralambie Săvulescu,105600,45.1331523,25.7577367
24,Strada Colonel Haralambie Săvulescu,105600,45.1330538,25.7573643
26,Strada Colonel Haralambie Săvulescu,105600,45.1329303,25.7571896
28,Strada Colonel Haralambie Săvulescu,105600,45.1328209,25.7570152
30,Strada Colonel Haralambie Săvulescu,105600,45.1327489,25.7568678
32,Strada Colonel Haralambie Săvulescu,105600,45.1326753,25.7565942
15,Strada Colonel Haralambie Săvulescu,105600,45.1327385,25.7573454
17,Strada Colonel Haralambie Săvulescu,105600,45.1326256,25.7572455
19,Strada Colonel Haralambie Săvulescu,105600,45.1325560,25.7570916
21,Strada Colonel Haralambie Săvulescu,105600,45.1323073,25.7568849
23,Strada Colonel Haralambie Săvulescu,105600,45.1322164,25.7566500
131,Calea Doftanei,105600,45.1387494,25.7514717
9,Aleea Înfrăţirea,105600,45.1343461,25.7268678
14,Aleea Înfrăţirea,105600,45.1344381,25.7265483
12,Aleea Înfrăţirea,105600,45.1345615,25.7267860
7A,Aleea Înfrăţirea,105600,45.1344468,25.7270850
10,Aleea Înfrăţirea,105600,45.1346317,25.7269256
8,Aleea Înfrăţirea,105600,45.1347247,25.7271508
7,Aleea Înfrăţirea,105600,45.1345488,25.7272841
5,Aleea Înfrăţirea,105600,45.1346976,25.7275957
6A,Aleea Înfrăţirea,105600,45.1347949,25.7273096
6,Aleea Înfrăţirea,105600,45.1349380,25.7276085
3,Aleea Înfrăţirea,105600,45.1348574,25.7279154
4,Aleea Înfrăţirea,105600,45.1349927,25.7277470
2,Aleea Înfrăţirea,105600,45.1350905,25.7279331
1,Aleea Înfrăţirea,105600,45.1349474,25.7281137
1,Aleea Licurici,105600,45.1347567,25.7287999
3,Aleea Licurici,105600,45.1346748,25.7286508
5,Aleea Licurici,105600,45.1345662,25.7283942
2A,Aleea Licurici,105600,45.1345943,25.7281720
7,Aleea Licurici,105600,45.1343836,25.7280439
4,Aleea Licurici,105600,45.1344165,25.7277717
9,Aleea Licurici,105600,45.1342770,25.7277840
6,Aleea Licurici,105600,45.1343206,25.7275407
11,Aleea Licurici,105600,45.1340953,25.7274131
8,Aleea Licurici,105600,45.1340469,25.7269440
13,Aleea Licurici,105600,45.1339266,25.7271407
19,Strada Constantin Istrati,105600,45.1320863,25.7260928
17A,Strada Constantin Istrati,105600,45.1322247,25.7269041
17,Strada Constantin Istrati,105600,45.1322690,25.7270267
50,Strada Constantin Istrati,105600,45.1324608,25.7270032
48,Strada Constantin Istrati,105600,45.1325264,25.7270972
15,Strada Constantin Istrati,105600,45.1324452,25.7273796
46,Strada Constantin Istrati,105600,45.1325947,25.7272757
44,Strada Constantin Istrati,105600,45.1326435,25.7273710
42,Strada Constantin Istrati,105600,45.1327005,25.7274895
13,Strada Constantin Istrati,105600,45.1326767,25.7278417
63 / 23F,Bulevardul Carol I,105600,45.1271489,25.7327094
63,Bulevardul Carol I,105600,45.1270745,25.7327756
72,Bulevardul Carol I,105600,45.1276075,25.7333707
76,Bulevardul Carol I,105600,45.1281774,25.7334584
74,Bulevardul Carol I,105600,45.1278964,25.7334548
69D,Bulevardul Carol I,105600,45.1289911,25.7331561
69,Bulevardul Carol I,105600,45.1285309,25.7331900
67A,Bulevardul Carol I,105600,45.1286842,25.7331555
88,Bulevardul Carol I,105600,45.1303232,25.7341617
86,Bulevardul Carol I,105600,45.1300264,25.7340248
89,Bulevardul Carol I,105600,45.1322980,25.7325596
137,Bulevardul Carol I,105600,45.1313637,25.7336507
93,Bulevardul Carol I,105600,45.1330907,25.7320925
99,Bulevardul Carol I,105600,45.1337203,25.7327584
97A,Bulevardul Carol I,105600,45.1336467,25.7324135
100,Bulevardul Carol I,105600,45.1337617,25.7333093
102,Bulevardul Carol I,105600,45.1339456,25.7333479
104,Bulevardul Carol I,105600,45.1341097,25.7334052
106,Bulevardul Carol I,105600,45.1343369,25.7332054
108,Bulevardul Carol I,105600,45.1344029,25.7328385
116,Bulevardul Carol I,105600,45.1344880,25.7321314
118,Bulevardul Carol I,105600,45.1345274,25.7319509
120,Bulevardul Carol I,105600,45.1345491,25.7317689
111,Bulevardul Carol I,105600,45.1343679,25.7318274
113,Bulevardul Carol I,105600,45.1344033,25.7315262
122,Bulevardul Carol I,105600,45.1345710,25.7316166
124,Bulevardul Carol I,105600,45.1345770,25.7314952
115,Bulevardul Carol I,105600,45.1344300,25.7313348
117,Bulevardul Carol I,105600,45.1344496,25.7311417
126,Bulevardul Carol I,105600,45.1346240,25.7312507
126A,Bulevardul Carol I,105600,45.1346335,25.7311206
119,Bulevardul Carol I,105600,45.1344714,25.7310170
123,Bulevardul Carol I,105600,45.1345318,25.7305874
130,Bulevardul Carol I,105600,45.1346782,25.7308201
132,Bulevardul Carol I,105600,45.1346867,25.7307122
134,Bulevardul Carol I,105600,45.1347191,25.7304548
134A,Bulevardul Carol I,105600,45.1346971,25.7306009
138,Bulevardul Carol I,105600,45.1347600,25.7302648
142,Bulevardul Carol I,105600,45.1347851,25.7300488
148B,Bulevardul Carol I,105600,45.1350135,25.7299273
144,Bulevardul Carol I,105600,45.1347987,25.7298834
146A,Bulevardul Carol I,105600,45.1348423,25.7297732
175A,Bulevardul Carol I,105600,45.1345687,25.7297503
146,Bulevardul Carol I,105600,45.1348433,25.7296117
154,Bulevardul Carol I,105600,45.1349310,25.7293252
156A,Bulevardul Carol I,105600,45.1350896,25.7293521
156,Bulevardul Carol I,105600,45.1350014,25.7291781
158,Bulevardul Carol I,105600,45.1351373,25.7289601
131,Bulevardul Carol I,105600,45.1349861,25.7287674
189,Bulevardul Carol I,105600,45.1350921,25.7285668
162,Bulevardul Carol I,105600,45.1353335,25.7286572
166,Bulevardul Carol I,105600,45.1355545,25.7283167
164,Bulevardul Carol I,105600,45.1354699,25.7285056
139,Bulevardul Carol I,105600,45.1352648,25.7277846
141,Bulevardul Carol I,105600,45.1355223,25.7279495
172,Bulevardul Carol I,105600,45.1359077,25.7278965
168,Bulevardul Carol I,105600,45.1357003,25.7281313
170,Bulevardul Carol I,105600,45.1358492,25.7279793
174,Bulevardul Carol I,105600,45.1359838,25.7278022
176A,Bulevardul Carol I,105600,45.1361138,25.7276770
149A,Bulevardul Carol I,105600,45.1359855,25.7264451
147A,Bulevardul Carol I,105600,45.1359458,25.7266705
145,Bulevardul Carol I,105600,45.1360169,25.7273798
178,Bulevardul Carol I,105600,45.1362269,25.7275607
180,Bulevardul Carol I,105600,45.1363329,25.7274493
147,Bulevardul Carol I,105600,45.1361937,25.7271911
149,Bulevardul Carol I,105600,45.1363475,25.7270337
182,Bulevardul Carol I,105600,45.1364176,25.7273601
184,Bulevardul Carol I,105600,45.1364740,25.7273094
188F,Bulevardul Carol I,105600,45.1372281,25.7285488
188E,Bulevardul Carol I,105600,45.1370902,25.7281849
188D,Bulevardul Carol I,105600,45.1370128,25.7279635
188C,Bulevardul Carol I,105600,45.1368910,25.7276663
182A,Bulevardul Carol I,105600,45.1366186,25.7279039
184A,Bulevardul Carol I,105600,45.1364947,25.7272470
186,Bulevardul Carol I,105600,45.1365813,25.7271836
151,Bulevardul Carol I,105600,45.1364065,25.7269715
153,Bulevardul Carol I,105600,45.1364760,25.7268996
157A,Bulevardul Carol I,105600,45.1363103,25.7262419
155,Bulevardul Carol I,105600,45.1365527,25.7268250
188A,Bulevardul Carol I,105600,45.1366508,25.7271263
188B,Bulevardul Carol I,105600,45.1368131,25.7273930
190A,Bulevardul Carol I,105600,45.1369968,25.7274567
190,Bulevardul Carol I,105600,45.1368441,25.7268594
157,Bulevardul Carol I,105600,45.1366621,25.7266909
159,Bulevardul Carol I,105600,45.1367490,25.7265939
192,Bulevardul Carol I,105600,45.1369349,25.7268182
192A,Bulevardul Carol I,105600,45.1371030,25.7272887
194D,Bulevardul Carol I,105600,45.1376605,25.7281978
194C,Bulevardul Carol I,105600,45.1375615,25.7279703
194B,Bulevardul Carol I,105600,45.1374190,25.7276243
194A,Bulevardul Carol I,105600,45.1372406,25.7271973
194,Bulevardul Carol I,105600,45.1371075,25.7268501
161,Bulevardul Carol I,105600,45.1368414,25.7264369
163,Bulevardul Carol I,105600,45.1369118,25.7263594
165,Bulevardul Carol I,105600,45.1370186,25.7262930
196,Bulevardul Carol I,105600,45.1371504,25.7265467
169,Bulevardul Carol I,105600,45.1371135,25.7262067
171,Bulevardul Carol I,105600,45.1372101,25.7260725
200,Bulevardul Carol I,105600,45.1374031,25.7262685
204,Bulevardul Carol I,105600,45.1376632,25.7259753
202A,Bulevardul Carol I,105600,45.1374780,25.7261928
173,Bulevardul Carol I,105600,45.1373566,25.7258905
175,Bulevardul Carol I,105600,45.1374706,25.7257666
181B,Bulevardul Carol I,105600,45.1375777,25.7250756
177A,Bulevardul Carol I,105600,45.1375194,25.7255282
177,Bulevardul Carol I,105600,45.1376380,25.7256145
179,Bulevardul Carol I,105600,45.1377174,25.7255117
208,Bulevardul Carol I,105600,45.1379329,25.7256841
183,Bulevardul Carol I,105600,45.1377549,25.7251710
181,Bulevardul Carol I,105600,45.1377869,25.7254242
185,Bulevardul Carol I,105600,45.1379032,25.7251945
210,Bulevardul Carol I,105600,45.1382361,25.7253151
212BIS,Bulevardul Carol I,105600,45.1385352,25.7250742
195A,Bulevardul Carol I,105600,45.1381865,25.7243119
191,Bulevardul Carol I,105600,45.1381645,25.7250328
214A,Bulevardul Carol I,105600,45.1388242,25.7249054
214,Bulevardul Carol I,105600,45.1387393,25.7247737
193,Bulevardul Carol I,105600,45.1383675,25.7248233
195,Bulevardul Carol I,105600,45.1384557,25.7247253
199B,Bulevardul Carol I,105600,45.1383635,25.7239467
199A,Bulevardul Carol I,105600,45.1384811,25.7241941
212B,Bulevardul Carol I,105600,45.1389545,25.7248448
212A,Bulevardul Carol I,105600,45.1388553,25.7246642
276,Bulevardul Carol I,105600,45.1389322,25.7245780
201,Bulevardul Carol I,105600,45.1387626,25.7243845
205A,Bulevardul Carol I,105600,45.1389141,25.7242306
203,Bulevardul Carol I,105600,45.1388653,25.7242818
209,Bulevardul Carol I,105600,45.1392506,25.7237730
205,Bulevardul Carol I,105600,45.1389640,25.7241758
220A,Bulevardul Carol I,105600,45.1395422,25.7246475
226C,Bulevardul Carol I,105600,45.1398637,25.7246002
226B,Bulevardul Carol I,105600,45.1397633,25.7243652
207,Bulevardul Carol I,105600,45.1391586,25.7238664
211,Bulevardul Carol I,105600,45.1393908,25.7237041
218,Bulevardul Carol I,105600,45.1392574,25.7242218
220,Bulevardul Carol I,105600,45.1393283,25.7241474
222,Bulevardul Carol I,105600,45.1394123,25.7240576
232,Bulevardul Carol I,105600,45.1397238,25.7237827
226A,Bulevardul Carol I,105600,45.1396323,25.7240982
226,Bulevardul Carol I,105600,45.1395494,25.7239199
228A,Bulevardul Carol I,105600,45.1396314,25.7238278
213,Bulevardul Carol I,105600,45.1394926,25.7236010
215,Bulevardul Carol I,105600,45.1395407,25.7235328
221,Bulevardul Carol I,105600,45.1396623,25.7229307
217,Bulevardul Carol I,105600,45.1396181,25.7234303
230,Bulevardul Carol I,105600,45.1398693,25.7235416
219,Bulevardul Carol I,105600,45.1397227,25.7233258
223,Bulevardul Carol I,105600,45.1398172,25.7232006
234,Bulevardul Carol I,105600,45.1400113,25.7233928
225C,Bulevardul Carol I,105600,45.1396923,25.7226927
225B,Bulevardul Carol I,105600,45.1397477,25.7228036
225A,Bulevardul Carol I,105600,45.1398288,25.7229767
225,Bulevardul Carol I,105600,45.1398902,25.7230879
227,Bulevardul Carol I,105600,45.1400106,25.7229751
236,Bulevardul Carol I,105600,45.1401742,25.7232313
236A,Bulevardul Carol I,105600,45.1403070,25.7230991
238,Bulevardul Carol I,105600,45.1403939,25.7229722
229,Bulevardul Carol I,105600,45.1402430,25.7227618
231,Bulevardul Carol I,105600,45.1403069,25.7226828
240,Bulevardul Carol I,105600,45.1405481,25.7228580
242,Bulevardul Carol I,105600,45.1406294,25.7227477
233,Bulevardul Carol I,105600,45.1404032,25.7225787
235,Bulevardul Carol I,105600,45.1404829,25.7224794
244,Bulevardul Carol I,105600,45.1409106,25.7228947
304,Bulevardul Carol I,105600,45.1407947,25.7225473
237,Bulevardul Carol I,105600,45.1406015,25.7223625
239,Bulevardul Carol I,105600,45.1407317,25.7221960
248A,Bulevardul Carol I,105600,45.1411310,25.7225650
248,Bulevardul Carol I,105600,45.1409913,25.7223059
241,Bulevardul Carol I,105600,45.1408223,25.7221053
243,Bulevardul Carol I,105600,45.1409305,25.7219923
245A,Bulevardul Carol I,105600,45.1407912,25.7214499
254A,Bulevardul Carol I,105600,45.1422388,25.7229082
252A,Bulevardul Carol I,105600,45.1417387,25.7224660
250C,Bulevardul Carol I,105600,45.1413450,25.7224850
250D,Bulevardul Carol I,105600,45.1412994,25.7223739
250,Bulevardul Carol I,105600,45.1411089,25.7222237
250F,Bulevardul Carol I,105600,45.1412036,25.7222071
247,Bulevardul Carol I,105600,45.1411204,25.7217906
249,Bulevardul Carol I,105600,45.1411766,25.7217252
251,Bulevardul Carol I,105600,45.1412643,25.7216008
252,Bulevardul Carol I,105600,45.1414871,25.7218511
253,Bulevardul Carol I,105600,45.1413861,25.7214586
255,Bulevardul Carol I,105600,45.1414971,25.7213596
257,Bulevardul Carol I,105600,45.1415901,25.7212109
259,Bulevardul Carol I,105600,45.1417163,25.7211098
258,Bulevardul Carol I,105600,45.1419092,25.7213058
256,Bulevardul Carol I,105600,45.1420005,25.7211561
260,Bulevardul Carol I,105600,45.1420728,25.7209999
261A,Bulevardul Carol I,105600,45.1417672,25.7210233
261,Bulevardul Carol I,105600,45.1418086,25.7209305
263,Bulevardul Carol I,105600,45.1418597,25.7208315
309,Bulevardul Carol I,105600,45.1414845,25.7204696
265,Bulevardul Carol I,105600,45.1418802,25.7205539
267,Bulevardul Carol I,105600,45.1418350,25.7203702
269,Bulevardul Carol I,105600,45.1416505,25.7200549
271,Bulevardul Carol I,105600,45.1415283,25.7197687
266,Bulevardul Carol I,105600,45.1417235,25.7195483
268,Bulevardul Carol I,105600,45.1415853,25.7192305
40,Strada Constantin Istrati,105600,45.1327680,25.7276321
38,Strada Constantin Istrati,105600,45.1328238,25.7277443
36,Strada Constantin Istrati,105600,45.1328750,25.7278582
34,Strada Constantin Istrati,105600,45.1329186,25.7279238
32,Strada Constantin Istrati,105600,45.1330237,25.7279695
11,Strada Constantin Istrati,105600,45.1328381,25.7281667
9,Strada Constantin Istrati,105600,45.1331187,25.7284846
30,Strada Constantin Istrati,105600,45.1331427,25.7280838
28,Strada Constantin Istrati,105600,45.1333598,25.7279990
26,Strada Constantin Istrati,105600,45.1332948,25.7282152
24,Strada Constantin Istrati,105600,45.1333360,25.7284184
22,Strada Constantin Istrati,105600,45.1333186,25.7285071
20A,Strada Constantin Istrati,105600,45.1332893,25.7286586
20,Strada Constantin Istrati,105600,45.1332714,25.7288776
7,Strada Constantin Istrati,105600,45.1331507,25.7286416
5,Strada Constantin Istrati,105600,45.1331453,25.7290623
18,Strada Constantin Istrati,105600,45.1332859,25.7290931
16A,Strada Constantin Istrati,105600,45.1333005,25.7291700
16B,Strada Constantin Istrati,105600,45.1333262,25.7292774
3,Strada Constantin Istrati,105600,45.1332040,25.7295789
14,Strada Constantin Istrati,105600,45.1333959,25.7295885
12,Strada Constantin Istrati,105600,45.1335338,25.7298719
10,Strada Constantin Istrati,105600,45.1336132,25.7299763
1,Strada Constantin Istrati,105600,45.1336627,25.7303117
8,Strada Constantin Istrati,105600,45.1337639,25.7300674
6B,Strada Constantin Istrati,105600,45.1340124,25.7300614
6A,Strada Constantin Istrati,105600,45.1341115,25.7300596
6,Strada Constantin Istrati,105600,45.1342464,25.7299234
4,Strada Constantin Istrati,105600,45.1342964,25.7298475
2A,Strada Constantin Istrati,105600,45.1343669,25.7296559
2,Strada Constantin Istrati,105600,45.1344807,25.7294654
2,Strada Nicolae Grigorescu,105600,45.1327290,25.7319973
4,Strada Nicolae Grigorescu,105600,45.1326696,25.7316031
1,Strada Nicolae Grigorescu,105600,45.1325111,25.7316353
6,Strada Nicolae Grigorescu,105600,45.1326475,25.7314258
8A,Strada Nicolae Grigorescu,105600,45.1325460,25.7309205
8,Strada Nicolae Grigorescu,105600,45.1325857,25.7311728
3,Strada Nicolae Grigorescu,105600,45.1324352,25.7311592
7,Strada Nicolae Grigorescu,105600,45.1323934,25.7309455
7A,Strada Nicolae Grigorescu,105600,45.1323203,25.7306178
10,Strada Nicolae Grigorescu,105600,45.1325129,25.7306953
10A,Strada Nicolae Grigorescu,105600,45.1324488,25.7304210
12,Strada Nicolae Grigorescu,105600,45.1325296,25.7302369
14,Strada Nicolae Grigorescu,105600,45.1323879,25.7301753
16,Strada Nicolae Grigorescu,105600,45.1323280,25.7300489
18,Strada Nicolae Grigorescu,105600,45.1322190,25.7297955
9,Strada Nicolae Grigorescu,105600,45.1318983,25.7296498
20,Strada Nicolae Grigorescu,105600,45.1321031,25.7295051
22,Strada Nicolae Grigorescu,105600,45.1320341,25.7292863
24,Strada Nicolae Grigorescu,105600,45.1319641,25.7292029
26,Strada Nicolae Grigorescu,105600,45.1319107,25.7290915
28,Strada Nicolae Grigorescu,105600,45.1318617,25.7289695
30,Strada Nicolae Grigorescu,105600,45.1317977,25.7287933
32,Strada Nicolae Grigorescu,105600,45.1317329,25.7286506
32A,Strada Nicolae Grigorescu,105600,45.1316992,25.7285716
32B,Strada Nicolae Grigorescu,105600,45.1316395,25.7284159
34,Strada Nicolae Grigorescu,105600,45.1314918,25.7281243
36,Strada Nicolae Grigorescu,105600,45.1314106,25.7279565
38,Strada Nicolae Grigorescu,105600,45.1313365,25.7277786
40,Strada Nicolae Grigorescu,105600,45.1312673,25.7276145
42,Strada Nicolae Grigorescu,105600,45.1312145,25.7274953
42A,Strada Nicolae Grigorescu,105600,45.1311635,25.7272742
44,Strada Nicolae Grigorescu,105600,45.1311017,25.7272409
46,Strada Nicolae Grigorescu,105600,45.1309544,25.7269106
48,Strada Nicolae Grigorescu,105600,45.1309108,25.7267751
48A,Strada Nicolae Grigorescu,105600,45.1308974,25.7267005
50,Strada Nicolae Grigorescu,105600,45.1308414,25.7265379
16,Aleea Peştişori,105600,45.1072485,25.7437303
14,Aleea Peştişori,105600,45.1073071,25.7435434
10,Aleea Peştişori,105600,45.1074338,25.7433766
8,Aleea Peştişori,105600,45.1076251,25.7430847
6,Aleea Peştişori,105600,45.1077998,25.7428732
4,Aleea Peştişori,105600,45.1078402,25.7427222
2A,Aleea Peştişori,105600,45.1079372,25.7426394
2,Aleea Peştişori,105600,45.1080791,25.7424975
7,Strada Ciocârliei,105600,45.1082738,25.7426712
5,Strada Ciocârliei,105600,45.1084446,25.7428681
3,Strada Ciocârliei,105600,45.1086265,25.7430898
1A,Strada Ciocârliei,105600,45.1087208,25.7432582
1B,Strada Ciocârliei,105600,45.1087896,25.7433917
1,Strada Ciocârliei,105600,45.1088655,25.7435220
2,Strada Ciocârliei,105600,45.1093495,25.7439146
4,Strada Ciocârliei,105600,45.1092712,25.7437035
6,Strada Ciocârliei,105600,45.1091881,25.7435865
10,Strada Ciocârliei,105600,45.1089843,25.7433380
12,Strada Ciocârliei,105600,45.1088820,25.7431835
14,Strada Ciocârliei,105600,45.1087596,25.7429707
16,Strada Ciocârliei,105600,45.1086706,25.7428423
18,Strada Ciocârliei,105600,45.1086104,25.7427707
20,Strada Ciocârliei,105600,45.1085092,25.7426525
22,Strada Ciocârliei,105600,45.1083592,25.7424818
1,Strada Carpaţi,105600,45.1391966,25.7233303
2,Strada Carpaţi,105600,45.1391752,25.7231179
4,Strada Carpaţi,105600,45.1390296,25.7229572
1B,Strada Carpaţi,105600,45.1388814,25.7230425
3,Strada Carpaţi,105600,45.1387289,25.7227330
6,Strada Carpaţi,105600,45.1387598,25.7224812
8,Strada Carpaţi,105600,45.1386201,25.7222735
5,Strada Carpaţi,105600,45.1385127,25.7223687
10,Strada Carpaţi,105600,45.1384806,25.7220345
7,Strada Carpaţi,105600,45.1382981,25.7220365
12,Strada Carpaţi,105600,45.1383495,25.7218082
3,Strada Grădinii,105600,45.1405395,25.7221156
2A,Strada Grădinii,105600,45.1405979,25.7219605
2,Strada Grădinii,105600,45.1404487,25.7217296
5,Strada Grădinii,105600,45.1403859,25.7217992
7,Strada Grădinii,105600,45.1403169,25.7216764
4,Strada Grădinii,105600,45.1403358,25.7215449
7A,Strada Grădinii,105600,45.1401936,25.7214762
9,Strada Grădinii,105600,45.1401258,25.7213514
6,Strada Grădinii,105600,45.1402067,25.7213108
8,Strada Grădinii,105600,45.1400387,25.7210119
11,Strada Grădinii,105600,45.1399777,25.7210950
13,Strada Grădinii,105600,45.1398389,25.7208572
10,Strada Grădinii,105600,45.1399095,25.7207991
12,Strada Grădinii,105600,45.1397831,25.7205844
15,Strada Grădinii,105600,45.1397261,25.7206672
17,Strada Grădinii,105600,45.1396880,25.7206035
14,Strada Grădinii,105600,45.1396936,25.7204441
19,Strada Grădinii,105600,45.1395037,25.7202987
16,Strada Grădinii,105600,45.1395769,25.7202404
18,Strada Grădinii,105600,45.1394941,25.7201117
79A,Strada Bobâlna,105600,45.1351144,25.7431931
79C,Strada Bobâlna,105600,45.1351262,25.7430477
79F,Strada Bobâlna,105600,45.1354281,25.7430083
79D,Strada Bobâlna,105600,45.1353157,25.7430899
79E,Strada Bobâlna,105600,45.1352651,25.7429174
2B,Strada Vasile Lucaciu,105600,45.1349797,25.7426535
2C,Strada Vasile Lucaciu,105600,45.1351473,25.7424742
4,Strada Vasile Lucaciu,105600,45.1353390,25.7423356
6,Strada Vasile Lucaciu,105600,45.1355314,25.7421815
8,Strada Vasile Lucaciu,105600,45.1356854,25.7420830
10B,Strada Vasile Lucaciu,105600,45.1359833,25.7418600
10A,Strada Vasile Lucaciu,105600,45.1361094,25.7417653
10,Strada Vasile Lucaciu,105600,45.1361793,25.7417013
12,Strada Vasile Lucaciu,105600,45.1363551,25.7415523
14,Strada Vasile Lucaciu,105600,45.1366342,25.7412028
14A,Strada Vasile Lucaciu,105600,45.1367997,25.7410435
16,Strada Vasile Lucaciu,105600,45.1369473,25.7409687
1,Strada Vasile Lucaciu,105600,45.1368479,25.7407291
3,Strada Vasile Lucaciu,105600,45.1370390,25.7405558
18,Strada Vasile Lucaciu,105600,45.1370450,25.7408043
20,Strada Vasile Lucaciu,105600,45.1371246,25.7407099
22,Strada Vasile Lucaciu,105600,45.1372418,25.7405816
24,Strada Vasile Lucaciu,105600,45.1373526,25.7404803
5,Strada Vasile Lucaciu,105600,45.1372645,25.7403068
26,Strada Vasile Lucaciu,105600,45.1374782,25.7403760
28,Strada Vasile Lucaciu,105600,45.1376102,25.7402418
30,Strada Vasile Lucaciu,105600,45.1378148,25.7400120
2,Aleea Erou Oncioiu Petre,105600,45.1372471,25.7250587
1,Aleea Erou Oncioiu Petre,105600,45.1369186,25.7246828
3,Aleea Erou Oncioiu Petre,105600,45.1367780,25.7243735
5,Aleea Erou Oncioiu Petre,105600,45.1366002,25.7240384
6,Aleea Erou Oncioiu Petre,105600,45.1367900,25.7241961
8,Aleea Erou Oncioiu Petre,105600,45.1366667,25.7239773
10,Aleea Erou Oncioiu Petre,105600,45.1366087,25.7238771
7,Aleea Erou Oncioiu Petre,105600,45.1365607,25.7239631
7,Aleea Albinei,105600,45.1371988,25.7244717
2,Aleea Albinei,105600,45.1370279,25.7243329
5,Aleea Albinei,105600,45.1371182,25.7243162
3A,Aleea Albinei,105600,45.1370509,25.7241861
3,Aleea Albinei,105600,45.1369525,25.7240371
1A,Aleea Albinei,105600,45.1367289,25.7235377
1,Aleea Albinei,105600,45.1368504,25.7238437
2,Aleea Rozmarin,105600,45.1380048,25.7250446
2A,Aleea Rozmarin,105600,45.1379488,25.7249494
4,Aleea Rozmarin,105600,45.1378033,25.7246561
6,Aleea Rozmarin,105600,45.1376384,25.7244364
8,Aleea Rozmarin,105600,45.1375230,25.7242661
1C,Aleea Rozmarin,105600,45.1373343,25.7240807
10,Aleea Rozmarin,105600,45.1372901,25.7238376
3,Aleea Rozmarin,105600,45.1371041,25.7237149
5,Aleea Rozmarin,105600,45.1370473,25.7236210
12,Aleea Rozmarin,105600,45.1371465,25.7235846
9,Strada Viitorului,105600,45.1372132,25.7231378
7,Strada Viitorului,105600,45.1373749,25.7234218
5,Strada Viitorului,105600,45.1375175,25.7236754
3A,Strada Viitorului,105600,45.1376605,25.7239966
3,Strada Viitorului,105600,45.1377336,25.7241061
1,Strada Viitorului,105600,45.1380010,25.7245328
2,Strada Viitorului,105600,45.1381337,25.7245491
6A,Strada Viitorului,105600,45.1378561,25.7239982
6B,Strada Viitorului,105600,45.1378184,25.7239237
8,Strada Viitorului,105600,45.1375456,25.7234519
10,Strada Viitorului,105600,45.1373519,25.7231150
47,Strada Bobâlna,105600,45.1347856,25.7396268
7,Strada Schelelor,105600,45.1188149,25.7378628
9,Strada Schelelor,105600,45.1186909,25.7373841
13,Strada Calea Doftanei,105600,45.1276910,25.7353980
4,Strada Dreptății,105600,45.1280959,25.7343277
10,Strada 1 Decembrie 1918,105600,45.1284795,25.7354749
12,Strada 1 Decembrie 1918,105600,45.1287618,25.7350129
14,Strada 1 Decembrie 1918,105600,45.1289405,25.7347977
7,Strada 1 Decembrie 1918,105600,45.1283683,25.7346686
13,Calea Doftanei,105600,45.1280467,25.7363853
16,Strada 1 Decembrie 1918,105600,45.1292274,25.7341895
84,Bulevardul Carol I,105600,45.1294745,25.7338921
86,Bulevardul Carol I,105600,45.1298349,25.7340322
88,Bulevardul Carol I,105600,45.1302060,25.7342278
90,Bulevardul Carol I,105600,45.1307784,25.7343101
90A,Bulevardul Carol I,105600,45.1305294,25.7343226
18,Strada 1 Decembrie 1918,105600,45.1299923,25.7331873
75,Bulevardul Carol I,105600,45.1300370,25.7335682
77,Bulevardul Carol I,105600,45.1302438,25.7336489
19,Strada 1 Decembrie 1918,105600,45.1297125,25.7326409
17,Strada 1 Decembrie 1918,105600,45.1295687,25.7329766
117,Bulevardul Carol I,105600,45.1280012,25.7324306
117,Bulevardul Carol I,105600,45.1277901,25.7327460
63,Bulevardul Carol I,105600,45.1275081,25.7328338
1,Strada Sergent Major Erou Grigore Nicolae,105600,45.1272647,25.7323503
63,Bulevardul Carol I,105600,45.1271380,25.7327064
47,Bulevardul Carol I,105600,45.1261455,25.7324918
45,Bulevardul Carol I,105600,45.1257965,25.7323168
43,Bulevardul Carol I,105600,45.1255859,25.7324541
41,Bulevardul Carol I,105600,45.1251868,25.7328602
37,Bulevardul Carol I,105600,45.1249305,25.7331571
33,Bulevardul Carol I,105600,45.1246847,25.7334476
31,Bulevardul Carol I,105600,45.1243450,25.7339572
10,Calea Doftanei,105600,45.1274158,25.7363614
12,Calea Doftanei,105600,45.1275975,25.7368856
45,Strada Bogdan Petriceicu Hașdeu,105600,45.1273099,25.7373243
43,Strada Bogdan Petriceicu Hașdeu,105600,45.1270453,25.7377854
35,Strada Bogdan Petriceicu Hașdeu,105600,45.1267775,25.7382819
80,Strada Bogdan Petriceicu Hașdeu,105600,45.1280799,25.7375473
80,Strada Bogdan Petriceicu Hașdeu,105600,45.1278912,25.7378953
80,Strada Bogdan Petriceicu Hașdeu,105600,45.1276594,25.7382861
1,Strada Alexandru Ioan Cuza,105600,45.1270447,25.7395679
3,Strada Alexandru Ioan Cuza,105600,45.1272431,25.7395952
5,Strada Milcovului,105600,45.1272901,25.7391017
3,Strada Milcovului,105600,45.1275415,25.7395293
18,Strada Milcovului,105600,45.1277705,25.7391628
18,Strada Milcovului,105600,45.1279600,25.7392295
12,Strada Milcovului,105600,45.1282116,25.7400973
8,Strada Milcovului,105600,45.1287258,25.7406729
6,Strada Milcovului,105600,45.1284469,25.7410105
1,Strada Milcovului,105600,45.1277183,25.7403467
2,Strada Milcovului,105600,45.1278760,25.7407718
8,Strada Democrației,105600,45.1267273,25.7404398
1,Strada Democrației,105600,45.1271009,25.7408668
3,Strada Democrației,105600,45.1269759,25.7413263
7,Strada Democrației,105600,45.1264823,25.7415307
12,Strada Democrației,105600,45.1261676,25.7412839
3,Strada Democrației,105600,45.1258809,25.7416617
9,Strada Democrației,105600,45.1262031,25.7420356
1,Strada Constantin Stere,105600,45.1257965,25.7425481
12,Strada Alexandru Odobescu,105600,45.1273728,25.7420684
10,Strada Alexandru Odobescu,105600,45.1269764,25.7423947
8,Strada Alexandru Odobescu,105600,45.1266661,25.7426525
26,Strada Tudor Vladimirescu,105600,45.1267670,25.7431737
26,Strada Tudor Vladimirescu,105600,45.1269134,25.7430302
26,Strada Tudor Vladimirescu,105600,45.1270597,25.7428974
Boc C1,Strada Tudor Vladimirescu,105600,45.1272167,25.7427533
24,Strada Tudor Vladimirescu,105600,45.1273353,25.7425178
24,Strada Tudor Vladimirescu,105600,45.1274861,25.7423684
10,Strada Alexandru Ioan Cuza,105600,45.1274710,25.7413320
12,Strada Alexandru Ioan Cuza,105600,45.1276657,25.7418384
61,Strada Alexandru Ioan Cuza,105600,45.1296809,25.7449764
30,Strada George Coșbuc,105600,45.1312120,25.7450851
5,Strada Zorilor,105600,45.1288443,25.7501341
7,Strada Zorilor,105600,45.1291841,25.7498837
30,Strada Ecaterina Teodoroiu,105600,45.1292537,25.7502075
9,Strada Zorilor,105600,45.1290422,25.7488820
11,Strada Zorilor,105600,45.1289826,25.7485667
1,Strada Zorilor,105600,45.1286037,25.7488736
3,Strada Zorilor,105600,45.1287119,25.7494118
7,Strada Beiuș,105600,45.1286157,25.7483331
5,Strada Beiuș,105600,45.1289111,25.7481438
10,Strada Ecaterina Teodoroiu,105600,45.1300023,25.7503594
10,Strada Ecaterina Teodoroiu,105600,45.1302902,25.7507365
10,Strada Ecaterina Teodoroiu,105600,45.1300906,25.7512000
13,Strada Ecaterina Teodoroiu,105600,45.1294148,25.7511056
13,Strada Ecaterina Teodoroiu,105600,45.1292411,25.7512175
13,Strada Ecaterina Teodoroiu,105600,45.1290640,25.7513669
13,Strada Ecaterina Teodoroiu,105600,45.1289226,25.7515980
23,Strada Ecaterina Teodoroiu,105600,45.1286005,25.7520270
17,Strada Ecaterina Teodoroiu,105600,45.1290228,25.7521546
17,Strada Ecaterina Teodoroiu,105600,45.1286659,25.7524256
17,Strada Ecaterina Teodoroiu,105600,45.1291409,25.7524612
17,Strada Ecaterina Teodoroiu,105600,45.1288009,25.7527168
35B,Strada Ecaterina Teodoroiu,105600,45.1282051,25.7526101
35,Strada Ecaterina Teodoroiu,105600,45.1280054,25.7519663
35A,Strada Ecaterina Teodoroiu,105600,45.1283528,25.7515462
6,Strada Independenței,105600,45.1256437,25.7521018
4,Strada Independenței,105600,45.1255264,25.7517048
59,Bulevardul Carol I,105600,45.1265452,25.7327038
3,Strada Sergent Major Erou Grigore Nicolae,105600,45.1271942,25.7318182
61,Bulevardul Carol I,105600,45.1268601,25.7326720
5A,Strada Sergent Major Erou Grigore Nicolae,105600,45.1273749,25.7313269
5,Strada Sergent Major Erou Grigore Nicolae,105600,45.1274301,25.7315488
62,Bulevardul Carol I,105600,45.1262733,25.7335302
3,Calea Doftanei,105600,45.1267224,25.7343879
1,Calea Doftanei,105600,45.1264556,25.7339320
64,Bulevardul Carol I,105600,45.1267050,25.7334678
66,Bulevardul Carol I,105600,45.1271085,25.7333472
68-70,Bulevardul Carol I,105600,45.1273384,25.7333962
2B,Strada Henri Coandă,105600,45.1274184,25.7335825
2C,Strada Henri Coandă,105600,45.1272086,25.7338652
94,Bulevardul Carol I,105600,45.1313761,25.7340702
92,Bulevardul Carol I,105600,45.1312041,25.7341755
89,Strada Bogdan Petriceicu Hașdeu,105600,45.1313188,25.7344779
1,Strada Frații Golești,105600,45.1310460,25.7345508
4,Calea Doftanei,105600,45.1262225,25.7347225
4,Calea Doftanei,105600,45.1263469,25.7354562
10,Strada Mihai Eminescu,105600,45.1257615,25.7342465
6,Strada Mihai Eminescu,105600,45.1251673,25.7347105
8,Strada Mihai Eminescu,105600,45.1254337,25.7344888
50,Bulevardul Carol I,105600,45.1247397,25.7347414
60,Bulevardul Carol I,105600,45.1257440,25.7337681
Boc 14F,Bulevardul Carol I,105600,45.1255239,25.7339282
56,Bulevardul Carol I,105600,45.1253224,25.7340680
54,Bulevardul Carol I,105600,45.1251249,25.7341992
52,Bulevardul Carol I,105600,45.1249265,25.7343552
50,Bulevardul Carol I,105600,45.1247782,25.7344906
1-3,Strada Soarelui,105600,45.1242164,25.7356267
2,Strada 1 Mai,105600,45.1244366,25.7351824
48,Bulevardul Carol I,105600,45.1243073,25.7349746
46,Bulevardul Carol I,105600,45.1241480,25.7351225
1,Strada Republicii,105600,45.1236770,25.7361384
38,Bulevardul Carol I,105600,45.1236583,25.7357444
40,Bulevardul Carol I,105600,45.1238128,25.7355489
42-44,Bulevardul Carol I,105600,45.1239772,25.7353655
9,Strada Mihai Eminescu,105600,45.1254285,25.7352026
19,Strada Republicii,105600,45.1254282,25.7356069
30,Strada Republicii,105600,45.1254846,25.7361280
32,Strada Republicii,105600,45.1259183,25.7360962
36,Strada Republicii,105600,45.1265683,25.7360173
1,Strada Mihail Kogălniceanu,105600,45.1238436,25.7365890
3,Strada Mihail Kogălniceanu,105600,45.1237886,25.7368991
5,Strada Mihail Kogălniceanu,105600,45.1238582,25.7372043
32,Bulevardul Carol I,105600,45.1226968,25.7366137
34,Bulevardul Carol I,105600,45.1229111,25.7363633
36,Bulevardul Carol I,105600,45.1231625,25.7362272
2,Strada Mihail Kogălniceanu,105600,45.1232756,25.7364382
4,Strada Mihail Kogălniceanu,105600,45.1230121,25.7368170
8,Strada Mihail Kogălniceanu,105600,45.1234289,25.7372865
16,Strada Mihail Kogălniceanu,105600,45.1239053,25.7386954
17,Bulevardul Carol I,105600,45.1224658,25.7359424
19,Bulevardul Carol I,105600,45.1227336,25.7357586
21,Bulevardul Carol I,105600,45.1229275,25.7355667
3,Aleea Zânelor,105600,45.1225049,25.7351355
31,Bulevardul Carol I,105600,45.1220700,25.7357761
11,Bulevardul Carol I,105600,45.1215819,25.7367239
5,Aleea Rozelor,105600,45.1213833,25.7349618
5A,Aleea Rozelor,105600,45.1215487,25.7350302
3A,Aleea Rozelor,105600,45.1215107,25.7354235
1A,Aleea Rozelor,105600,45.1216380,25.7359093
3,Aleea Rozelor,105600,45.1214564,25.7356673
1,Aleea Rozelor,105600,45.1215780,25.7361632
9,Bulevardul Carol I,105600,45.1210253,25.7372754
5,Bulevardul Carol I,105600,45.1204321,25.7377709
3,Bulevardul Carol I,105600,45.1198747,25.7382528
2,Strada Maramureș,105600,45.1212667,25.7383572
16,Bulevardul Carol I,105600,45.1211649,25.7381276
14,Bulevardul Carol I,105600,45.1210154,25.7382344
12,Bulevardul Carol I,105600,45.1209102,25.7384452
8,Bulevardul Carol I,105600,45.1205991,25.7387194
Blco 1B,Bulevardul Carol I,105600,45.1204906,25.7389339
6,Bulevardul Carol I,105600,45.1203917,25.7391307
4,Strada Toma Ionescu,105600,45.1223263,25.7378685
2,Strada Toma Ionescu,105600,45.1221506,25.7374697
26,Bulevardul Carol I,105600,45.1220505,25.7372250
1,Strada Maramureș,105600,45.1214976,25.7381182
18,Bulevardul Carol I,105600,45.1214487,25.7378486
20,Bulevardul Carol I,105600,45.1215749,25.7376720
22,Bulevardul Carol I,105600,45.1217390,25.7375019
24,Bulevardul Carol I,105600,45.1218961,25.7373602
2,Aleea Margaretei,105600,45.1220288,25.7381878
4,Aleea Margaretei,105600,45.1221592,25.7385807
6,Aleea Margaretei,105600,45.1222894,25.7389967
8,Aleea Margaretei,105600,45.1224314,25.7394135
6,Strada Toma Ionescu,105600,45.1225776,25.7385889
7A,Strada Toma Ionescu,105600,45.1230550,25.7391099
5A,Strada Toma Ionescu,105600,45.1228325,25.7384621
10,Aleea Margaretei,105600,45.1227639,25.7393715
9A,Strada Toma Ionescu,105600,45.1234657,25.7397893
9B,Strada Toma Ionescu,105600,45.1235740,25.7400548
9C,Strada Toma Ionescu,105600,45.1238800,25.7397547
2,Strada Sublocotenent Erou Puiu Sorin,105600,45.1227538,25.7405125
1,Strada Sondei,105600,45.1205129,25.7393869
1,Strada Sondei,105600,45.1205956,25.7396052
10,Bulevardul Carol I,105600,45.1207412,25.7385642
6,Strada Victoriei,105600,45.1210728,25.7391843
4,Strada Victoriei,105600,45.1212051,25.7395364
4,Strada Victoriei,105600,45.1215146,25.7398059
12,Strada Victoriei,105600,45.1210832,25.7401510
14,Strada Victoriei,105600,45.1212079,25.7405242
16,Strada Ana Ipătescu,105600,45.1213177,25.7409088
3A,Bulevardul Carol I,105600,45.1201126,25.7385648
3B,Bulevardul Carol I,105600,45.1202816,25.7384471
3C,Bulevardul Carol I,105600,45.1204315,25.7382708
5A,Bulevardul Carol I,105600,45.1206070,25.7380699
7,Bulevardul Carol I,105600,45.1208484,25.7378173
7A,Bulevardul Carol I,105600,45.1210460,25.7376324
2,Aleea Energiei,105600,45.1200838,25.7378667
5,Aleea Energiei,105600,45.1202990,25.7372341
7,Aleea Energiei,105600,45.1205772,25.7371055
4,Strada Schelelor,105600,45.1195412,25.7374734
2,Strada Schelelor,105600,45.1194991,25.7379689
13,Strada Schelelor,105600,45.1192133,25.7374219
11,Strada Schelelor,105600,45.1192348,25.7371565
14,Strada Primăverii,105600,45.1191869,25.7367965
12,Strada Primăverii,105600,45.1193747,25.7367023
10,Strada Primăverii,105600,45.1196124,25.7366618
8,Strada Primăverii,105600,45.1198079,25.7366380
6,Strada Primăverii,105600,45.1202196,25.7366309
4,Strada Primăverii,105600,45.1203673,25.7365442
2C,Strada Griviței,105600,45.1198883,25.7355711
10,Strada Schelelor,105600,45.1189497,25.7369633
12,Strada Schelelor,105600,45.1187716,25.7366294
3,Strada Schelelor,105600,45.1191577,25.7386147
5A,Strada Erupției,105600,45.1172707,25.7386896
3A,Strada Erupției,105600,45.1173472,25.7391621
5,Strada Erupției,105600,45.1176275,25.7385325
3,Strada Erupției,105600,45.1179505,25.7390564
Blco E2,Strada Erupției,105600,45.1180259,25.7395465
1B,Strada Erupției,105600,45.1182632,25.7396247
6B,Strada Erupției,105600,45.1183989,25.7391217
4,Strada Erupției,105600,45.1187296,25.7392981
6A,Strada Erupției,105600,45.1187115,25.7389541
6,Strada Erupției,105600,45.1185784,25.7387858
8,Strada Erupției,105600,45.1183549,25.7386127
10,Strada Erupției,105600,45.1182262,25.7383842
5,Strada Schelelor,105600,45.1185451,25.7380967
7,Strada Erupției,105600,45.1174930,25.7375386
46,Bulevardul Nicolae Bălcescu,105600,45.1168706,25.7468904
16-18,Strada Republicii,105600,45.1245103,25.7365923
25,Strada 1 Mai,105600,45.1254468,25.7368309
10,Strada 1 Mai,105600,45.1251137,25.7375649
12,Strada 1 Mai,105600,45.1247967,25.7379692
2A,Strada Cercului,105600,45.1256072,25.7364662
2B,Strada Cercului,105600,45.1258052,25.7364408
2C,Strada Cercului,105600,45.1260178,25.7364208
2,Strada Narciselor,105600,45.1262377,25.7363992
33,Strada 1 Mai,105600,45.1259463,25.7374353
39,Strada 1 Mai,105600,45.1260975,25.7380237
46,Strada 1 Mai,105600,45.1262391,25.7395440
46,Strada 1 Mai,105600,45.1261735,25.7398064
17,Strada Ana Ipătescu,105600,45.1215112,25.7413477
4,Aleea Cutezători,105600,45.1216661,25.7417624
22,Strada Maramureș,105600,45.1217467,25.7423095
22,Strada Maramureș,105600,45.1218974,25.7421845
22,Strada Maramureș,105600,45.1220605,25.7420778
39,Strada Maramureș,105600,45.1215138,25.7431402
41,Strada Maramureș,105600,45.1211736,25.7434500
43,Strada Maramureș,105600,45.1209289,25.7436706
13,Strada Orizontului,105600,45.1209078,25.7440082
24,Strada Maramureș,105600,45.1207376,25.7433301
11,Strada Orizontului,105600,45.1204802,25.7430400
6,Strada Bucea,105600,45.1209078,25.7425664
9,Strada Orizontului,105600,45.1204172,25.7425135
7,Strada Orizontului,105600,45.1202799,25.7420459
4,Strada Bucea,105600,45.1206655,25.7419412
4Bis,Strada Bucea,105600,45.1204123,25.7417374
5,Strada Orizontului,105600,45.1200899,25.7415461
2Bis,Strada Bucea,105600,45.1202325,25.7412937
2,Strada Bucea,105600,45.1203237,25.7409595
3,Strada Orizontului,105600,45.1199304,25.7411224
4Bis,Strada Orizontului,105600,45.1200411,25.7407987
4,Strada Sondei,105600,45.1202484,25.7404123
2,Strada Sondei,105600,45.1198144,25.7405093
2Bis,Strada Sondei,105600,45.1200221,25.7401313
1,Strada Orizontului,105600,45.1193896,25.7404813
50,Bulevardul Nicolae Bălcescu,105600,45.1188306,25.7414748
2,Strada Erupției,105600,45.1190073,25.7393808
1,Strada Erupției,105600,45.1164160,25.7395370
11,Strada Erupției,105600,45.1168597,25.7384544
9,Strada Erupției,105600,45.1169919,25.7379404
60,Bulevardul Nicolae Bălcescu,105600,45.1196967,25.7399820
48D,Bulevardul Nicolae Bălcescu,105600,45.1163674,25.7436068
48D,Bulevardul Nicolae Bălcescu,105600,45.1158281,25.7441935
48D,Bulevardul Nicolae Bălcescu,105600,45.1160643,25.7444273
48C,Bulevardul Nicolae Bălcescu,105600,45.1164561,25.7439723
48A,Bulevardul Nicolae Bălcescu,105600,45.1167691,25.7443133
48,Bulevardul Nicolae Bălcescu,105600,45.1161983,25.7449261
1,Strada Sălaj,105600,45.1205940,25.7443725
3,Strada Sălaj,105600,45.1203950,25.7445669
5,Strada Sălaj,105600,45.1201442,25.7446616
7,Strada Sălaj,105600,45.1199426,25.7448548
2,Strada Griviței,105600,45.1186999,25.7362971
1,Strada Chișinău,105600,45.1159483,25.7392643
63,Bulevardul Carol I,105600,45.1237941,25.7344530
61,Bulevardul Carol I,105600,45.1232629,25.7350729
91,Strada B.P. Hașdeu,105600,45.1323575,25.7333281
91,Strada Griviței,105600,45.1281528,25.7302543
57-63,Strada Bobâlna,105600,45.1343341,25.7410216
62,Strada Bobâlna,105600,45.1344436,25.7444942
95,Strada Griviței,105600,45.1291349,25.7303091
31,Strada Mihail Kogălniceanu,105600,45.1249641,25.7392004
17,Bulevardul Carol I,105600,45.1225584,25.7361107
19-21,Bulevardul Carol I,105600,45.1229022,25.7357895
1,Strada Ion Câmpineanu,105600,45.1291753,25.7295649
11,Strada Erupției,105600,45.1167061,25.7386130
16,Bulevardul Culturii,105600,45.1248823,25.7309975
18,Bulevardul Culturii,105600,45.1247002,25.7305895
13,Strada Ecaterina Teodoroiu,105600,45.1295028,25.7513427
5,Strada Primăverii,105600,45.1200573,25.7369277
2B,Strada Griviței,105600,45.1196041,25.7357281
7,Strada Plevnei,105600,45.1226989,25.7311781
16,Strada Castanilor,105600,45.1209653,25.7348840
1,Strada Castanilor,105600,45.1209492,25.7363710
1,Strada Bobâlna,105600,45.1323922,25.7351556
18,Calea Doftanei,105600,45.1284021,25.7378625
15,Strada B.P. Hașdeu,105600,45.1255095,25.7409307
42,Strada B.P. Hașdeu,105600,45.1261246,25.7407080
5,Strada Alexandru Ioan Cuza,105600,45.1271167,25.7398809
24A,Calea Doftanei,105600,45.1285950,25.7384786
23,Strada B.P. Hașdeu,105600,45.1259549,25.7403424
1,Strada Erupției,105600,45.1183940,25.7371174
50,Calea Doftanei,105600,45.1294477,25.7399013
8,Strada Constantin Stere,105600,45.1257823,25.7433512
7,Strada Ion Creangă,105600,45.1282372,25.7435131
Bloc35,Strada Maramureș,105600,45.1220029,25.7394213
25,Strada Plevnei,105600,45.1246281,25.7291156
2,Strada Constantin Stere,105600,45.1253017,25.7422444
14,Strada Golești,105600,45.1299138,25.7316717
1,Strada Dimitrie Bolintineanu,105600,45.1269724,25.7435413
2,Strada Petrolistului,105600,45.1186360,25.7424221
22,Calea Doftanei,105600,45.1286277,25.7382680
37,Strada Griviței,105600,45.1225147,25.7336106
21,Strada B.P. Hașdeu,105600,45.1258623,25.7404656
28,Strada Sondei,105600,45.1212140,25.7422175
33,Strada Plevnei,105600,45.1252590,25.7285086
15,Strada Alexandru Ioan Cuza,105600,45.1276660,25.7410792
4,Strada Constantin Stere,105600,45.1254694,25.7426185
5,Strada Ion Creangă,105600,45.1281527,25.7433264
17,Strada B.P. Hașdeu,105600,45.1256560,25.7406363
15,Strada Maramureș,105600,45.1221388,25.7397103
63,Strada Griviței,105600,45.1246728,25.7329569
58,Strada B.P. Hașdeu,105600,45.1267902,25.7397891
2A,Strada Grigore Nicolae,105600,45.1275255,25.7325659
7,Strada Tineretului,105600,45.1277894,25.7439180
9,Strada B.P. Hașdeu,105600,45.1252666,25.7413679
23A,Strada B.P. Hașdeu,105600,45.1259725,25.7401541
31,Strada Plevnei,105600,45.1250477,25.7286834
24,Strada Alexandru Ioan Cuza,105600,45.1283253,25.7431515
23A,Strada Câmpului,105600,45.1148114,25.7493814
1,Strada Garoafelor,105600,45.1129891,25.7528888
38,Strada Câmpului,105600,45.1156082,25.7513031
20,Bulevardul Nicolae Bălcescu,105600,45.1105299,25.7468948
13,Bulevardul Nicolae Bălcescu,105600,45.1101205,25.7454881
34,Strada Câmpului,105600,45.1154297,25.7508899
37,Bulevardul Nicolae Bălcescu,105600,45.1118416,25.7459924
27,Strada Mioriței,105600,45.1107505,25.7487501
7,Strada Andrei Mureșan,105600,45.1114384,25.7535252
41,Bulevardul Nicolae Bălcescu,105600,45.1121089,25.7459047
21,Bulevardul Nicolae Bălcescu,105600,45.1109470,25.7459198
39,Bulevardul Nicolae Bălcescu,105600,45.1119963,25.7459750
10,Strada Anton Pann,105600,45.1133017,25.7532813
10,Strada Dorobanți,105600,45.1116296,25.7516782
4,Strada Garoafelor,105600,45.1133058,25.7529078
11,Strada Câmpului,105600,45.1129961,25.7480892
8,Aleea Nucilor,105600,45.1108373,25.7505734
6,Aleea Rapsodiei,105600,45.1141198,25.7530085
12,Strada Mioriței,105600,45.1108352,25.7491039
12,Aleea Rapsodiei,105600,45.1145410,25.7523252
27,Bulevardul Nicolae Bălcescu,105600,45.1116509,25.7461402
10,Aleea Rapsodiei,105600,45.1144314,25.7525161
11,Strada Andrei Mureșan,105600,45.1115700,25.7529839
15,Strada Mesteacănului,105600,45.1125698,25.7507927
17,Strada Mesteacănului,105600,45.1126656,25.7509178
31,Strada Izvoarelor,105600,45.1148199,25.7537242
25,Bulevardul Nicolae Bălcescu,105600,45.1114665,25.7460002
2,Aleea Nucilor,105600,45.1114492,25.7496797
9,Strada Mesteacănului,105600,45.1123028,25.7503842
14,Strada Izvoarelor,105600,45.1148014,25.7530897
13,Strada Răsăritului,105600,45.1090023,25.7496144
10,Aleea Nucilor,105600,45.1106996,25.7507112
6B,Aleea Nucilor,105600,45.1109122,25.7503576
18,Strada Izvoarelor,105600,45.1145188,25.7534255
4,Strada Mesteacănului,105600,45.1119289,25.7504689
10,Strada Mesteacănului,105600,45.1120737,25.7509314
30,Strada Câmpului,105600,45.1151564,25.7504924
19,Strada Mesteacănului,105600,45.1127652,25.7510587
19,Bulevardul Nicolae Bălcescu,105600,45.1103972,25.7456043
17A,Bulevardul Nicolae Bălcescu,105600,45.1103240,25.7461275
10,Strada Garoafelor,105600,45.1135428,25.7525074
3,Strada Andrei Mureșan,105600,45.1117623,25.7532193
24,Strada Garoafelor,105600,45.1141643,25.7514293
15G,Strada Răsăritului,105600,45.1091189,25.7497220
4,Strada Andrei Mureșan,105600,45.1115566,25.7524422
3A,Strada Fluturași,105600,45.1125181,25.7498349
17,Strada Dorobanți,105600,45.1123588,25.7520595
28,Strada Mioriței,105600,45.1123937,25.7484952
24,Strada Mioriței,105600,45.1120885,25.7490827
12,Bulevardul Nicolae Bălcescu,105600,45.1093517,25.7472725
18,Bulevardul Nicolae Bălcescu,105600,45.1103808,25.7468716
11,Aleea Rapsodiei,105600,45.1143618,25.7519067
10,Strada Mioriței,105600,45.1099940,25.7496043
5,Strada Andrei Mureșan,105600,45.1117299,25.7535070
20B,Strada Câmpului,105600,45.1146462,25.7497566
7,Strada Garoafelor,105600,45.1135017,25.7519638
8C,Strada Mioriței,105600,45.1103422,25.7494150
2,Aleea Macului,105600,45.1120692,25.7534754
20,Strada Garoafelor,105600,45.1139958,25.7517588
27,Strada Câmpului,105600,45.1152651,25.7501851
3,Strada Garoafelor,105600,45.1130690,25.7527692
1,Strada Andrei Mureșan,105600,45.1119648,25.7529798
3,Strada Dorobanți,105600,45.1114211,25.7508370
39,Strada Câmpului,105600,45.1161836,25.7520510
5,Strada Fluturași,105600,45.1126620,25.7500379
2A,Strada Fluturași,105600,45.1121105,25.7500470
33,Strada Mioriței,105600,45.1113914,25.7484603
25,Strada Mioriței,105600,45.1105943,25.7487838
3,Strada Fluturași,105600,45.1123326,25.7497077
2,Strada Mioriței,105600,45.1093114,25.7485210
15,Strada Dorobanți,105600,45.1122400,25.7518811
5,Strada Garoafelor,105600,45.1131421,25.7525374
4,Strada Mioriței,105600,45.1094411,25.7486236
11,Strada Sălaj,105600,45.1163465,25.7507346
9,Strada Dorobanți,105600,45.1118292,25.7513584
12A,Strada Anton Pann,105600,45.1126560,25.7527411
11,Strada Dorobanți,105600,45.1119565,25.7514664
5,Strada Dorobanți,105600,45.1116250,25.7511083
30,Strada Mioriței,105600,45.1124400,25.7483166
24,Bulevardul Nicolae Bălcescu,105600,45.1107691,25.7468999
31,Strada Mioriței,105600,45.1112324,25.7485486
26,Bulevardul Nicolae Bălcescu,105600,45.1109324,25.7467868
14,Strada Dorobanți,105600,45.1118137,25.7519450
7,Strada Anton Pann,105600,45.1133157,25.7536617
2,Strada Dorobanți,105600,45.1112168,25.7510933
16,Strada Dorobanți,105600,45.1119178,25.7520768
6,Strada Dorobanți,105600,45.1114377,25.7513955
18,Strada Dorobanți,105600,45.1120139,25.7522173
15,Bulevardul Nicolae Bălcescu,105600,45.1102727,25.7463792
4,Strada Dorobanți,105600,45.1113346,25.7512517
12A,Strada Mioriței,105600,45.1107118,25.7492846
13,Strada Dorobanți,105600,45.1120468,25.7516184
16,Strada Câmpului,105600,45.1141947,25.7494019
11,Strada Sălaj,105600,45.1162812,25.7505940
21,Strada Mioriței,105600,45.1104204,25.7487002
35A,Strada Izvoarelor,105600,45.1144667,25.7542381
13,Strada Mioriței,105600,45.1097953,25.7484044
8,Strada Dorobanți,105600,45.1114947,25.7515236
4,Aleea Nucilor,105600,45.1113124,25.7498900
35,Strada Mioriței,105600,45.1115928,25.7484787
7,Strada Mesteacănului,105600,45.1121541,25.7503316
2,Strada Mesteacănului,105600,45.1117682,25.7503022
4A,Strada Dorobanți,105600,45.1112638,25.7513765
37,Strada Mioriței,105600,45.1117852,25.7486361
40,Bulevardul Nicolae Bălcescu,105600,45.1121826,25.7465934
1,Aleea Nucilor,105600,45.1118105,25.7497056
20,Strada Mioriței,105600,45.1115901,25.7492156
22,Strada Câmpului,105600,45.1147774,25.7498622
36,Strada Câmpului,105600,45.1155819,25.7510757
10,Strada Câmpului,105600,45.1134153,25.7488618
4B,Strada Izvoarelor,105600,45.1153673,25.7519071
11,Strada Mioriței,105600,45.1096814,25.7484187
21,Strada Izvoarelor,105600,45.1153151,25.7531861
12,Strada Mesteacănului,105600,45.1122674,25.7509650
4B,Strada Mioriței,105600,45.1095409,25.7488023
10,Strada Andrei Mureșan,105600,45.1113486,25.7522127
17,Strada Mioriței,105600,45.1100364,25.7484578
44,Strada Câmpului,105600,45.1158691,25.7520407
3,Aleea Nucilor,105600,45.1115764,25.7500449
13,Strada Mesteacănului,105600,45.1124682,25.7506118
5,Aleea Nucilor,105600,45.1114517,25.7502370
41,Strada Mioriței,105600,45.1120634,25.7484367
3,Strada Mesteacănului,105600,45.1119724,25.7499905
38,Bulevardul Nicolae Bălcescu,105600,45.1119690,25.7465925
18,Strada Câmpului,105600,45.1142910,25.7495103
9,Strada Câmpului,105600,45.1129216,25.7478849
40,Strada Câmpului,105600,45.1156772,25.7515056
4,Strada Răsăritului,105600,45.1084775,25.7486680
8,Aleea Rapsodiei,105600,45.1142317,25.7528335
11,Strada Răsăritului,105600,45.1088321,25.7494588
14,Strada Mesteacănului,105600,45.1125326,25.7513851
29,Bulevardul Nicolae Bălcescu,105600,45.1115844,25.7459860
8,Strada Mesteacănului,105600,45.1120881,25.7507034
3,Strada Mioriței,105600,45.1090776,25.7479632
2B,Strada Câmpului,105600,45.1129768,25.7485532
29,Strada Câmpului,105600,45.1154096,25.7502492
1,Strada Mioriței,105600,45.1089690,25.7479541
27,Strada Izvoarelor,105600,45.1149705,25.7534616
32,Strada Câmpului,105600,45.1153264,25.7507399
5,Strada Câmpului,105600,45.1125368,25.7475249
19,Strada Câmpului,105600,45.1137722,25.7484942
12,Strada Izvoarelor,105600,45.1149886,25.7528788
19BIS,Strada Câmpului,105600,45.1139479,25.7485713
43,Strada Mioriței,105600,45.1122062,25.7480331
32,Strada Mioriței,105600,45.1125457,25.7481315
3,Aleea Rapsodiei,105600,45.1138181,25.7528929
10,Bulevardul Nicolae Bălcescu,105600,45.1092378,25.7475457
24A,Strada Mioriței,105600,45.1122365,25.7489236
42,Strada Câmpului,105600,45.1157499,25.7517061
1,Strada Fluturași,105600,45.1121734,25.7493876
6,Strada Câmpului,105600,45.1132169,25.7487938
24,Strada Câmpului,105600,45.1148706,25.7500257
25,Strada Izvoarelor,105600,45.1150553,25.7532720
9,Bulevardul Nicolae Bălcescu,105600,45.1098844,25.7463295
26,Strada Mioriței,105600,45.1123796,25.7487112
31,Strada Câmpului,105600,45.1155782,25.7505476
11,Strada Izvoarelor,105600,45.1156677,25.7528173
10,Strada Izvoarelor,105600,45.1150982,25.7527404
17,Strada Izvoarelor,105600,45.1157578,25.7532716
6,Strada Mioriței,105600,45.1096307,25.7491446
33,Strada Izvoarelor,105600,45.1149577,25.7539530
12B,Strada Câmpului,105600,45.1137980,25.7491352
29A,Strada Izvoarelor,105600,45.1151531,25.7538423
8,Strada Garoafelor,105600,45.1134072,25.7525705
17,Bulevardul Nicolae Bălcescu,105600,45.1104287,25.7464033
17,Strada Câmpului,105600,45.1135904,25.7483908
1,Strada Dorobanți,105600,45.1113215,25.7507175
11,Bulevardul Nicolae Bălcescu,105600,45.1100452,25.7458649
6,Bulevardul Nicolae Bălcescu,105600,45.1082500,25.7480374
39,Strada Mioriței,105600,45.1119278,25.7486011
37,Strada Câmpului,105600,45.1161740,25.7519203
26,Strada Câmpului,105600,45.1149772,25.7501872
36,Bulevardul Nicolae Bălcescu,105600,45.1118243,25.7467825
28,Strada Câmpului,105600,45.1150562,25.7503655
23,Bulevardul Nicolae Bălcescu,105600,45.1113558,25.7461768
33,Strada Câmpului,105600,45.1158595,25.7510854
9,Strada Garoafelor,105600,45.1135481,25.7518264
30B,Bulevardul Nicolae Bălcescu,105600,45.1113440,25.7466386
7,Aleea Rapsodiei,105600,45.1140325,25.7525433
4A,Strada Mioriței,105600,45.1094395,25.7487813
14,Strada Garoafelor,105600,45.1137195,25.7522052
12,Strada Garoafelor,105600,45.1136010,25.7523641
26,Strada Garoafelor,105600,45.1142996,25.7511763
7,Strada Dorobanți,105600,45.1117435,25.7512109
2A,Strada Izvoarelor,105600,45.1157318,25.7522935
35,Strada Izvoarelor,105600,45.1146200,25.7539237
16,Strada Mioriței,105600,45.1111947,25.7489631
20,Strada Izvoarelor,105600,45.1143700,25.7536323
22,Strada Izvoarelor,105600,45.1142132,25.7537782
18,Strada Mioriței,105600,45.1114662,25.7490539
34,Bulevardul Nicolae Bălcescu,105600,45.1117734,25.7465762
15,Strada Garoafelor,105600,45.1138567,25.7511705
27,Strada Mesteacănului,105600,45.1133398,25.7522985
12,Strada Anton Pann,105600,45.1127643,25.7528830
20A,Strada Câmpului,105600,45.1145451,25.7496857
23,Strada Izvoarelor,105600,45.1154286,25.7536126
24A,Bulevardul Nicolae Bălcescu,105600,45.1108914,25.7471066
14,Strada Câmpului,105600,45.1140903,25.7493362
29,Strada Mioriței,105600,45.1110134,25.7485507
42,Bulevardul Nicolae Bălcescu,105600,45.1125061,25.7466168
15,Strada Mioriței,105600,45.1099227,25.7484468
2,Strada Garoafelor,105600,45.1131582,25.7531738
16,Strada Izvoarelor,105600,45.1146613,25.7532292
28,Bulevardul Nicolae Bălcescu,105600,45.1110694,25.7468765
12,Strada Dorobanți,105600,45.1117106,25.7518234
1,Aleea Rapsodiei,105600,45.1136687,25.7531030
1,Strada Mesteacănului,105600,45.1118575,25.7498806
7,Strada Liliacului,105600,45.1384779,25.7271303
9,Aleea Panduri,105600,45.1388751,25.7270981
49,Strada I. H. Rădulescu,105600,45.1363867,25.7366686
75,Strada I. H. Rădulescu,105600,45.1388840,25.7355164
11,Strada Liliacului,105600,45.1387019,25.7277075
6A,Strada Poieniței,105600,45.1418568,25.7352443
105,Strada I. H. Rădulescu,105600,45.1411873,25.7341929
21,Calea Doftanei,105600,45.1312493,25.7424491
71,Strada Bobâlna,105600,45.1347543,25.7425620
73,Strada I. H. Rădulescu,105600,45.1387596,25.7355998
1,Strada Gheorghe Doja,105600,45.1403876,25.7360166
20,Strada I. H. Rădulescu,105600,45.1361311,25.7372485
10,Strada Poieniței,105600,45.1419426,25.7355504
27,Calea Doftanei,105600,45.1314227,25.7427865
9A,Strada Rezervoarelor,105600,45.1368830,25.7461641
6,Strada Dobrogeanu Gherea,105600,45.1375324,25.7380151
3,Strada Gheorghe Doja,105600,45.1406643,25.7361184
64,Strada Muscelului,105600,45.1405316,25.7390569
16,Strada Bobâlna,105600,45.1327393,25.7378804
8C,Strada Bucegi,105600,45.1385087,25.7340499
19,Strada Țițeiului,105600,45.1285774,25.7473453
2,Strada Rezervoarelor,105600,45.1361133,25.7473288
43,Calea Doftanei,105600,45.1321801,25.7438568
32,Strada Muscelului,105600,45.1382928,25.7437674
2,Strada Ion Câmpineanu,105600,45.1295780,25.7305693
19,Strada Pomilor,105600,45.1389677,25.7386801
32,Strada Bobâlna,105600,45.1338265,25.7404740
21,Strada Dobrogeanu Gherea,105600,45.1391330,25.7403393
47,Strada I. H. Rădulescu,105600,45.1361902,25.7367331
44A,Strada Alexandru Ioan Cuza,105600,45.1293348,25.7452984
13,Strada Crângului,105600,45.1371280,25.7308557
4,Strada Ion Câmpineanu,105600,45.1295472,25.7302825
21,Strada Pomilor,105600,45.1390288,25.7388668
2,Strada Dobrogeanu Gherea,105600,45.1371139,25.7372644
10,Strada Crângului,105600,45.1365692,25.7304662
45,Strada Bobâlna,105600,45.1337487,25.7392264
27,Strada I. H. Rădulescu,105600,45.1350592,25.7360019
35,Calea Doftanei,105600,45.1319126,25.7431391
2,Strada Romaniței,105600,45.1392650,25.7329335
41,Strada Muscelului,105600,45.1382628,25.7424012
20,Strada Dobrogeanu Gherea,105600,45.1381736,25.7392189
12,Strada Crângului,105600,45.1367573,25.7308465
37,Strada Muscelului,105600,45.1402419,25.7387562
80,Strada Bogdan Vasile,105600,45.1414537,25.7289078
29,Strada I. H. Rădulescu,105600,45.1349884,25.7361518
13,Strada Bobâlna,105600,45.1326814,25.7361627
7,Strada Muscelului,105600,45.1361383,25.7455977
67,Strada I. H. Rădulescu,105600,45.1382672,25.7358035
9,Strada Dobrogeanu Gherea,105600,45.1378078,25.7378819
2,Aleea Panduri,105600,45.1382815,25.7264762
107,Bulevardul Carol I,105600,45.1342436,25.7322001
8,Strada Crângului,105600,45.1362270,25.7297676
9,Strada Bobâlna,105600,45.1326280,25.7359224
9BIS,Strada Bucegi,105600,45.1385858,25.7351447
100,Strada I. H. Rădulescu,105600,45.1438364,25.7345329
8,Aleea Panduri,105600,45.1382384,25.7263376
109,Bulevardul Carol I,105600,45.1342138,25.7320601
18,Strada Rezervoarelor,105600,45.1372035,25.7466409
14,Strada Popa Șapcă,105600,45.1376340,25.7397443
61,Strada I. H. Rădulescu,105600,45.1401247,25.7353607
26,Strada I. H. Rădulescu,105600,45.1364033,25.7371657
82,Strada I. H. Rădulescu,105600,45.1420114,25.7342913
1B,Strada Romaniței,105600,45.1389921,25.7316569
16,Strada Rezervoarelor,105600,45.1370536,25.7467426
28,Strada Mărășești,105600,45.1283386,25.7285011
36,Strada Muscelului,105600,45.1384408,25.7435603
7,Strada Popa Șapcă,105600,45.1374144,25.7382358
63,Strada I. H. Rădulescu,105600,45.1398320,25.7355406
2A,Strada Popa Șapcă,105600,45.1367537,25.7377985
72A,Strada Muscelului,105600,45.1411418,25.7380006
15A,Strada Mărășești,105600,45.1280892,25.7288159
6,Strada George Coșbuc,105600,45.1291447,25.7472158
28,Strada Popa Șapcă,105600,45.1383156,25.7411580
21,Strada Bogdan Vasile,105600,45.1366486,25.7315384
10,Strada Târnava Mare,105600,45.1402238,25.7515247
34,Strada Bobâlna,105600,45.1336371,25.7405881
1,Strada Anotimpului,105600,45.1423773,25.7344855
4,Strada Bucegi,105600,45.1387205,25.7346324
68,Calea Doftanei,105600,45.1299639,25.7406979
12,Strada George Coșbuc,105600,45.1296429,25.7469908
24B,Strada Muscelului,105600,45.1373863,25.7452909
27,Strada Pomilor,105600,45.1392942,25.7393316
36,Strada Bobâlna,105600,45.1338109,25.7406849
62,Strada Bogdan Vasile,105600,45.1403820,25.7293930
45,Strada I. H. Rădulescu,105600,45.1359021,25.7367019
65,Strada Alexandru Ioan Cuza,105600,45.1299365,25.7453731
45,Strada Alexandru Ioan Cuza,105600,45.1289801,25.7436321
66,Strada Bogdan Vasile,105600,45.1406197,25.7291972
25,Strada Pomilor,105600,45.1391986,25.7391973
9,Strada Ion Câmpineanu,105600,45.1300046,25.7287664
88,Strada B.P. Hașdeu,105600,45.1325079,25.7346649
44,Strada I. H. Rădulescu,105600,45.1379555,25.7364528
14,Strada Liliacului,105600,45.1383889,25.7277008
40,Strada Bobâlna,105600,45.1338189,25.7412681
59,Strada I. H. Rădulescu,105600,45.1392238,25.7358602
31,Strada I. H. Rădulescu,105600,45.1349110,25.7363286
39,Calea Doftanei,105600,45.1318819,25.7435629
28,Strada Tineretului,105600,45.1283564,25.7461106
26,Calea Doftanei,105600,45.1288139,25.7384486
37,Strada I. H. Rădulescu,105600,45.1351830,25.7368150
11,Strada Bobâlna,105600,45.1326462,25.7360174
3,Strada Muscelului,105600,45.1359230,25.7457807
54,Strada I. H. Rădulescu,105600,45.1387244,25.7360789
6,Strada Pomilor,105600,45.1381155,25.7379365
4,Strada Dunării,105600,45.1390257,25.7259217
3,Strada Crângului,105600,45.1360642,25.7288154
18,Strada Bobâlna,105600,45.1330264,25.7381698
5,Strada Bobâlna,105600,45.1325283,25.7356776
11,Strada Dobrogeanu Gherea,105600,45.1380025,25.7382929
100,Strada Muscelului,105600,45.1439355,25.7355801
7,Strada Dunării,105600,45.1392381,25.7256933
78,Strada I. H. Rădulescu,105600,45.1414482,25.7346674
23,Strada Bobâlna,105600,45.1333561,25.7367554
18,Strada Popa Șapcă,105600,45.1378483,25.7403645
28A,Strada Aurel Vlaicu,105600,45.1398001,25.7393907
1,Strada Lacului,105600,45.1352420,25.7376829
73,Strada Bobâlna,105600,45.1346439,25.7429464
2B,Strada Popa Șapcă,105600,45.1369678,25.7381905
42,Strada Bogdan Vasile,105600,45.1387725,25.7307755
119,Strada I. H. Rădulescu,105600,45.1420159,25.7335990
12,Strada Rezervoarelor,105600,45.1367687,25.7466589
15,Strada Mărășești,105600,45.1281776,25.7291258
29A,Strada Muscelului,105600,45.1377281,25.7436617
3,Strada Popa Șapcă,105600,45.1371508,25.7378233
19B,Strada Bogdan Vasile,105600,45.1364762,25.7316721
2,Strada Libertății,105600,45.1399380,25.7359680
78,Strada Muscelului,105600,45.1417107,25.7372238
24,Strada Mărășești,105600,45.1284554,25.7289904
35,Strada Popa Șapcă,105600,45.1387666,25.7409940
28,Strada Dobrogeanu Gherea,105600,45.1386525,25.7401795
29,Strada Gheorghe Doja,105600,45.1417087,25.7393359
123,Strada I. H. Rădulescu,105600,45.1425292,25.7334491
53,Strada I. H. Rădulescu,105600,45.1368946,25.7363301
1D,Strada Romaniței,105600,45.1391512,25.7313240
66,Calea Doftanei,105600,45.1298755,25.7406526
14,Strada George Coșbuc,105600,45.1297129,25.7467548
3,Aleea Șoimului,105600,45.1290934,25.7419067
25,Strada Gheorghe Doja,105600,45.1415238,25.7387906
11A,Strada I. H. Rădulescu,105600,45.1345937,25.7348431
20,Strada Bogdan Vasile,105600,45.1364664,25.7325010
18,Strada Liliacului,105600,45.1385237,25.7280455
76,Strada I. H. Rădulescu,105600,45.1412873,25.7346902
5,Aleea Zefirului,105600,45.1364741,25.7309641
12,Strada Libertății,105600,45.1396584,25.7366895
3,Strada Ion Câmpineanu,105600,45.1295888,25.7290508
15,Strada Pomilor,105600,45.1387199,25.7383656
11,Strada Pomilor,105600,45.1383954,25.7377968
18,Strada Bogdan Vasile,105600,45.1363480,25.7325808
107,Strada I. H. Rădulescu,105600,45.1412524,25.7334610
6,Strada Solidarității,105600,45.1289156,25.7456575
14,Strada Libertății,105600,45.1397314,25.7369049
6,Aleea Zefirului,105600,45.1364146,25.7312915
135,Bulevardul Carol I,105600,45.1310986,25.7337418
26A,Calea Doftanei,105600,45.1286617,25.7386143
110,Calea Doftanei,105600,45.1315556,25.7437901
45,Strada Bogdan Vasile,105600,45.1384233,25.7298701
15A,Strada Dimitrie Bolintineanu,105600,45.1275775,25.7449738
14,Strada I. H. Rădulescu,105600,45.1358597,25.7373730
9,Strada Toamnei,105600,45.1396686,25.7374903
20,Calea Doftanei,105600,45.1286683,25.7379678
2,Strada Lacului,105600,45.1349600,25.7372621
107,Strada Bobâlna,105600,45.1355278,25.7460835
16,Strada Ecaterina Teodoroiu,105600,45.1318149,25.7472206
10,Strada Pomilor,105600,45.1382240,25.7381403
3,Strada Dunării,105600,45.1390078,25.7253137
19,Strada Bobâlna,105600,45.1333382,25.7363234
90A,Strada B.P. Hașdeu,105600,45.1329555,25.7348418
105,Strada Bobâlna,105600,45.1354242,25.7459526
15,Strada Bucegi,105600,45.1376049,25.7330608
12,Strada Mărășești,105600,45.1289670,25.7319185
20A,Calea Doftanei,105600,45.1285151,25.7381745
4,Strada Poieniței,105600,45.1417811,25.7349721
17,Strada Bobâlna,105600,45.1328003,25.7364585
43,Strada Pomilor,105600,45.1396790,25.7401815
9,Strada Lacului,105600,45.1346081,25.7378293
90,Strada Bogdan Vasile,105600,45.1420080,25.7283765
8,Strada I. H. Rădulescu,105600,45.1354617,25.7375954
85,Strada I. H. Rădulescu,105600,45.1396617,25.7350481
102,Strada Muscelului,105600,45.1442024,25.7364731
44,Strada Bogdan Vasile,105600,45.1385645,25.7306604
1,Strada Poieniței,105600,45.1420330,25.7350056
7,Strada Rezervoarelor,105600,45.1364090,25.7463307
12,Strada Pomilor,105600,45.1384312,25.7384723
6,Strada Libertății,105600,45.1395698,25.7361777
70-72,Calea Doftanei,105600,45.1300571,25.7409589
5,Strada I. H. Rădulescu,105600,45.1343595,25.7342370
16,Strada Mărășești,105600,45.1287071,25.7299655
33,Strada Muscelului,105600,45.1379663,25.7431939
29,Strada Popa Șapcă,105600,45.1383210,25.7405147
4,Aleea Zefirului,105600,45.1361859,25.7314742
18,Strada Ion Câmpineanu,105600,45.1301414,25.7292476
15C,Strada Târnava Mare,105600,45.1407963,25.7501062
23,Strada Gheorghe Doja,105600,45.1414171,25.7386861
1A,Strada Popa Șapcă,105600,45.1370696,25.7376571
5,Strada Anotimpului,105600,45.1425384,25.7351439
12,Strada Romaniței,105600,45.1403859,25.7323387
17,Strada Muscelului,105600,45.1368724,25.7449874
11,Strada George Coșbuc,105600,45.1297120,25.7463989
25,Strada Popa Șapcă,105600,45.1381609,25.7401416
2,Aleea Șoimului,105600,45.1288126,25.7425017
38,Strada I. H. Rădulescu,105600,45.1375023,25.7366743
18,Strada Gheorghe Doja,105600,45.1410322,25.7387510
117F,Calea Doftanei,105600,45.1379279,25.7501811
34,Strada Dobrogeanu Gherea,105600,45.1391037,25.7409402
3,Strada Anotimpului,105600,45.1424490,25.7348309
10,Strada Bogdan Vasile,105600,45.1354124,25.7320251
12,Strada Ecaterina Teodoroiu,105600,45.1318843,25.7470114
16,Strada Romaniței,105600,45.1405335,25.7321947
14,Strada Muscelului,105600,45.1367359,25.7456842
9,Strada Mărășești,105600,45.1286622,25.7317242
5A,Strada George Coșbuc,105600,45.1292659,25.7466630
2B,Strada Pomilor,105600,45.1376143,25.7369165
24,Strada Aurel Vlaicu,105600,45.1394866,25.7390697
5,Strada Golești,105600,45.1302776,25.7328472
1A,Strada Pomilor,105600,45.1378238,25.7367825
2,Strada Bogdan Vasile,105600,45.1350170,25.7318219
65,Strada Bogdan Vasile,105600,45.1398935,25.7289867
12,Strada Bogdan Vasile,105600,45.1355787,25.7323765
6,Strada Liliacului,105600,45.1378909,25.7265296
69,Strada Alexandru Ioan Cuza,105600,45.1300721,25.7457038
3,Strada Toamnei,105600,45.1391795,25.7364145
12,Strada I. H. Rădulescu,105600,45.1358180,25.7376381
111,Strada I. H. Rădulescu,105600,45.1415189,25.7340588
24,Strada Bogdan Vasile,105600,45.1366800,25.7320336
19,Calea Doftanei,105600,45.1311357,25.7424191
92,Strada Muscelului,105600,45.1433489,25.7360065
44A,Strada Bobâlna,105600,45.1342072,25.7426632
26,Strada Rezervoarelor,105600,45.1378836,25.7465237
5,Strada Libertății,105600,45.1398589,25.7364397
10,Strada I. H. Rădulescu,105600,45.1356308,25.7375228
18,Strada Libertății,105600,45.1399540,25.7374231
39,Strada Alexandru Ioan Cuza,105600,45.1287950,25.7431498
20,Strada Ecaterina Teodoroiu,105600,45.1317339,25.7473346
101,Strada B.P. Hașdeu,105600,45.1336491,25.7339456
25,Strada Bobâlna,105600,45.1329935,25.7370274
81,Strada I. H. Rădulescu,105600,45.1394084,25.7351649
94,Strada Muscelului,105600,45.1440578,25.7371858
19,Strada Dunării,105600,45.1399549,25.7269064
43,Strada Bogdan Vasile,105600,45.1384014,25.7301737
103,Strada Bobâlna,105600,45.1354565,25.7455887
18,Strada Dobrogeanu Gherea,105600,45.1380824,25.7390519
30,Strada Pomilor,105600,45.1394025,25.7402173
79,Strada I. H. Rădulescu,105600,45.1392517,25.7352477
35,Strada Muscelului,105600,45.1378407,25.7429094
27,Strada Popa Șapcă,105600,45.1382081,25.7402885
12,Strada Ion Câmpineanu,105600,45.1299411,25.7295244
1,Strada Dobrogeanu Gherea,105600,45.1372399,25.7368698
21,Strada I. H. Rădulescu,105600,45.1347084,25.7355563
22,Strada Ecaterina Teodoroiu,105600,45.1315835,25.7472184
13,Strada Muscelului,105600,45.1366730,25.7451279
32,Strada Popa Șapcă,105600,45.1386930,25.7417309
2,Strada Pomilor,105600,45.1377282,25.7370801
68,Strada Muscelului,105600,45.1406872,25.7387083
5,Strada Dobrogeanu Gherea,105600,45.1374048,25.7372094
40,Strada Muscelului,105600,45.1395192,25.7412943
73,Strada Muscelului,105600,45.1434826,25.7353924
11,Strada Muscelului,105600,45.1365910,25.7452470
11,Strada Rezervoarelor,105600,45.1372204,25.7459609
15,Strada Gheorghe Doja,105600,45.1408522,25.7371656
5,Strada Liliacului,105600,45.1384132,25.7269531
15,Aleea Panduri,105600,45.1390084,25.7274173
17,Strada Bogdan Vasile,105600,45.1358925,25.7318860
2,Strada George Coșbuc,105600,45.1289774,25.7474673
57,Strada I. H. Rădulescu,105600,45.1389787,25.7360908
103,Strada I. H. Rădulescu,105600,45.1411032,25.7342586
79,Strada Muscelului,105600,45.1438313,25.7349182
26,Strada Bobâlna,105600,45.1330715,25.7389357
22,Strada I. H. Rădulescu,105600,45.1362450,25.7372574
15,Strada Libertății,105600,45.1403308,25.7376611
14,Strada Dunării,105600,45.1396460,25.7269473
77,Strada Muscelului,105600,45.1437164,25.7349836
37,Strada Muscelului,105600,45.1379887,25.7426088
19,Strada Libertății,105600,45.1404504,25.7379801
124,Calea Doftanei,105600,45.1323476,25.7449375
32,Strada Tineretului,105600,45.1284377,25.7463549
14,Strada Bobâlna,105600,45.1327808,25.7375809
6,Strada Popa Șapcă,105600,45.1371706,25.7387147
41,Strada Muscelului,105600,45.1393735,25.7408398
120,Calea Doftanei,105600,45.1321392,25.7448622
77,Strada I. H. Rădulescu,105600,45.1391188,25.7353649
137,Strada I. H. Rădulescu,105600,45.1429777,25.7329719
13,Strada Dunării,105600,45.1395619,25.7263259
48,Calea Doftanei,105600,45.1294051,25.7397485
31A,Strada Bogdan Vasile,105600,45.1375279,25.7306969
1,Strada Rezervoarelor,105600,45.1357266,25.7472213
12,Strada Poieniței,105600,45.1419769,25.7357669
18A,Strada Aurel Vlaicu,105600,45.1392018,25.7382850
6,Strada Bobâlna,105600,45.1323020,25.7360202
28,Strada Pomilor,105600,45.1391675,25.7398798
135,Strada I. H. Rădulescu,105600,45.1429126,25.7332716
30,Strada Bogdan Vasile,105600,45.1374589,25.7309206
1,Strada Romaniței,105600,45.1396821,25.7323580
3,Strada Pomilor,105600,45.1380913,25.7372442
4,Strada Pomilor,105600,45.1378428,25.7374531
62,Calea Doftanei,105600,45.1298266,25.7404838
25,Strada I. H. Rădulescu,105600,45.1347796,25.7359299
9,Strada Muscelului,105600,45.1364827,25.7453245
90,Strada Muscelului,105600,45.1431628,25.7362053
39,Strada Muscelului,105600,45.1403606,25.7384789
69,Strada Muscelului,105600,45.1433036,25.7356930
15,Strada Bobâlna,105600,45.1327414,25.7363203
30,Strada Romaniței,105600,45.1414793,25.7318862
7A,Strada Muscelului,105600,45.1363145,25.7454550
12,Strada Gheorghe Doja,105600,45.1406446,25.7374716
88,Strada Griviței,105600,45.1280440,25.7312362
5,Strada Dunării,105600,45.1391413,25.7255363
14,Strada Țițeiului,105600,45.1282469,25.7470405
22,Strada Muscelului,105600,45.1371944,25.7452350
14,Strada Bogdan Vasile,105600,45.1361304,25.7323318
57,Strada I. H. Rădulescu,105600,45.1373063,25.7361869
11,Strada Dunării,105600,45.1395137,25.7261340
16,Strada Țițeiului,105600,45.1283325,25.7472709
109,Strada I. H. Rădulescu,105600,45.1414159,25.7337510
2,Aleea Zefirului,105600,45.1359715,25.7316201
53,Strada Muscelului,105600,45.1398682,25.7395801
65,Strada Bobâlna,105600,45.1345123,25.7422752
30,Strada Bobâlna,105600,45.1334040,25.7394480
24,Strada I. H. Rădulescu,105600,45.1364657,25.7375373
23,Strada Libertății,105600,45.1405534,25.7382511
36,Strada Mărășești,105600,45.1284196,25.7276775
38,Strada Muscelului,105600,45.1384180,25.7431452
59B,Strada I. H. Rădulescu,105600,45.1375808,25.7356184
4,Strada Toamnei,105600,45.1388525,25.7365916
2,Strada Dunării,105600,45.1388862,25.7256913
128,Calea Doftanei,105600,45.1326356,25.7452834
26,Strada Popa Șapcă,105600,45.1382691,25.7409941
44,Calea Doftanei,105600,45.1293020,25.7393291
75,Strada Bobâlna,105600,45.1347795,25.7431281
62,Strada Muscelului,105600,45.1404419,25.7391625
10,Strada Popa Șapcă,105600,45.1373248,25.7390307
84,Strada I. H. Rădulescu,105600,45.1422574,25.7341167
69,Calea Doftanei,105600,45.1331456,25.7452950
92,Strada I. H. Rădulescu,105600,45.1427323,25.7338673
61,Calea Doftanei,105600,45.1327287,25.7447626
2A,Strada Pomilor,105600,45.1379187,25.7369895
24,Strada Pomilor,105600,45.1390894,25.7396716
70,Strada I. H. Rădulescu,105600,45.1406018,25.7349731
133,Strada I. H. Rădulescu,105600,45.1427733,25.7331744
64,Strada Alexandru Ioan Cuza,105600,45.1302684,25.7475270
40,Strada I. H. Rădulescu,105600,45.1377188,25.7365948
39,Strada I. H. Rădulescu,105600,45.1368069,25.7369732
88,Strada Muscelului,105600,45.1430556,25.7362825
46,Calea Doftanei,105600,45.1291289,25.7396545
39,Strada Muscelului,105600,45.1381445,25.7425431
18,Strada Pomilor,105600,45.1387505,25.7390769
67,Strada Muscelului,105600,45.1429035,25.7359182
86A,Strada Muscelului,105600,45.1428960,25.7364065
5,Strada Muscelului,105600,45.1360131,25.7457155
3A,Strada Mărășești,105600,45.1286928,25.7324707
14,Strada Gheorghe Doja,105600,45.1407882,25.7377345
18,Strada Muscelului,105600,45.1369985,25.7453816
8,Strada Pomilor,105600,45.1379984,25.7377348
6,Strada Dunării,105600,45.1392269,25.7262121
4,Strada Crângului,105600,45.1358852,25.7290069
33,Strada Pomilor,105600,45.1394326,25.7396022
51,Strada I. H. Rădulescu,105600,45.1366651,25.7365234
3,Strada Lacului,105600,45.1350815,25.7377846
3,Strada Mărășești,105600,45.1288607,25.7326144
86,Strada Muscelului,105600,45.1427424,25.7365227
21,Strada Ion Câmpineanu,105600,45.1295075,25.7275505
78A,Strada I. H. Rădulescu,105600,45.1415264,25.7345240
18,Strada Bucegi,105600,45.1380258,25.7327843
28,Strada Aurel Vlaicu,105600,45.1396814,25.7392005
5,Strada Lacului,105600,45.1350067,25.7377872
67,Strada Bobâlna,105600,45.1345594,25.7424301
84,Strada Muscelului,105600,45.1427939,25.7367125
29,Strada Muscelului,105600,45.1376442,25.7439137
11,Strada Ion Creangă,105600,45.1285887,25.7442488
72,Strada Muscelului,105600,45.1409545,25.7381258
5,Strada Bogdan Vasile,105600,45.1352152,25.7313871
91,Strada I. H. Rădulescu,105600,45.1396892,25.7340686
30,Strada Popa Șapcă,105600,45.1385018,25.7413973
90,Strada I. H. Rădulescu,105600,45.1425697,25.7339718
11,Strada I. H. Rădulescu,105600,45.1347128,25.7346672
65,Calea Doftanei,105600,45.1329182,25.7450830
47,Calea Doftanei,105600,45.1322868,25.7439938
68,Strada Alexandru Ioan Cuza,105600,45.1305405,25.7477636
28,Strada Muscelului,105600,45.1380576,25.7437946
1,Aleea Șoimului,105600,45.1289761,25.7420063
16,Strada Dobrogeanu Gherea,105600,45.1379226,25.7391560
72,Strada I. H. Rădulescu,105600,45.1409493,25.7349611
51,Strada Alexandru Ioan Cuza,105600,45.1293811,25.7446064
60,Strada Alexandru Ioan Cuza,105600,45.1302687,25.7472212
23,Strada Bogdan Vasile,105600,45.1367389,25.7314109
1,Aleea Zefirului,105600,45.1359958,25.7312180
89,Strada B.P. Hașdeu,105600,45.1317168,25.7344114
13,Strada Pomilor,105600,45.1385091,25.7380517
2A,Strada Dobrogeanu Gherea,105600,45.1372319,25.7374192
53,Strada Bogdan Vasile,105600,45.1387681,25.7296751
42,Strada Bobâlna,105600,45.1339121,25.7416657
41,Strada Bobâlna,105600,45.1336083,25.7387478
1,Strada Golești,105600,45.1304176,25.7332630
43,Strada I. H. Rădulescu,105600,45.1357907,25.7369583
3,Aleea Zefirului,105600,45.1362168,25.7311045
14,Strada Pomilor,105600,45.1385382,25.7386912
49,Strada Bogdan Vasile,105600,45.1386034,25.7299613
82,Strada Muscelului,105600,45.1428150,25.7369574
74,Strada Bogdan Vasile,105600,45.1413691,25.7291671
17,Strada Rezervoarelor,105600,45.1377969,25.7457127
11,Strada Toamnei,105600,45.1397853,25.7376624
1,Strada Muscelului,105600,45.1358233,25.7458716
63,Strada I. H. Rădulescu,105600,45.1379620,25.7358624
11,Strada Libertății,105600,45.1401662,25.7372645
5,Strada Crângului,105600,45.1363376,25.7293605
4,Strada Cărăbuși,105600,45.1349074,25.7379115
6,Strada Mărășești,105600,45.1291355,25.7325413
9,Strada Libertății,105600,45.1400836,25.7370474
98,Strada Muscelului,105600,45.1437052,25.7356923
51,Strada Muscelului,105600,45.1397918,25.7401170
2,Aleea Cărăbuși,105600,45.1348238,25.7377573
104,Strada Muscelului,105600,45.1442657,25.7366932
1C,Strada Romaniței,105600,45.1389276,25.7312552
5,Strada Poieniței,105600,45.1422144,25.7355032
29,Calea Doftanei,105600,45.1317036,25.7426848
20,Strada Bucegi,105600,45.1386624,25.7319192
31,Strada Muscelului,105600,45.1378775,25.7433866
8,Strada Dobrogeanu Gherea,105600,45.1376481,25.7382044
76,Strada Muscelului,105600,45.1413783,25.7376682
132,Bulevardul Carol I,105600,45.1348136,25.7310115
33,Strada Popa Șapcă,105600,45.1385729,25.7408496
22,Strada Ion Câmpineanu,105600,45.1303071,25.7290738
34,Strada I. H. Rădulescu,105600,45.1371423,25.7367332
13,Strada Popa Șapcă,105600,45.1378627,25.7394516
6,Strada Bucegi,105600,45.1386094,25.7343533
41,Calea Doftanei,105600,45.1319680,25.7437034
74,Strada Muscelului,105600,45.1412378,25.7378074
34,Strada Muscelului,105600,45.1382899,25.7434429
33,Strada Alexandru Ioan Cuza,105600,45.1285264,25.7427731
23,Strada Popa Șapcă,105600,45.1380766,25.7399844
92A,Strada Griviței,105600,45.1284919,25.7312013
5,Strada Gheorghe Doja,105600,45.1405019,25.7362980
13,Strada Ion Câmpineanu,105600,45.1299083,25.7284736
2,Strada Golești,105600,45.1310876,25.7335144
42,Strada I. H. Rădulescu,105600,45.1378673,25.7365521
10A,Strada Bogdan Vasile,105600,45.1355762,25.7321101
63,Strada Alexandru Ioan Cuza,105600,45.1297687,25.7453608
44,Strada Bobâlna,105600,45.1340979,25.7421515
28,Strada Rezervoarelor,105600,45.1379554,25.7462541
1,Strada Ion Creangă,105600,45.1278127,25.7427734
6,Strada Golești,105600,45.1312249,25.7329346
24,Strada Dobrogeanu Gherea,105600,45.1383601,25.7395932
47,Strada Bogdan Vasile,105600,45.1384549,25.7295962
30,Strada Rezervoarelor,105600,45.1381049,25.7461678
26,Strada Tineretului,105600,45.1283149,25.7459877
39,Strada Bobâlna,105600,45.1335167,25.7382494
7,Strada Toamnei,105600,45.1396308,25.7372541
4,Strada Romaniței,105600,45.1395148,25.7330593
52,Strada I. H. Rădulescu,105600,45.1385767,25.7361444
11,Strada Popa Șapcă,105600,45.1376082,25.7388490
14,Strada Ecaterina Teodoroiu,105600,45.1318036,25.7470620
101,Strada I. H. Rădulescu,105600,45.1407923,25.7344157
10,Strada Mărășești,105600,45.1290655,25.7320848
43,Strada Muscelului,105600,45.1394655,25.7406132
83,Strada I. H. Rădulescu,105600,45.1395258,25.7351027
50,Strada Muscelului,105600,45.1400010,25.7404380
9A,Strada Bucegi,105600,45.1382590,25.7345076
23,Strada Dunării,105600,45.1401487,25.7268463
48,Strada Bogdan Vasile,105600,45.1389376,25.7304202
80,Strada I. H. Rădulescu,105600,45.1418729,25.7344231
101,Strada Bobâlna,105600,45.1353725,25.7455025
2,Strada Mărășești,105600,45.1292163,25.7329599
19,Strada Mărului,105600,45.1392799,25.7313428
14,Strada Rezervoarelor,105600,45.1368945,25.7466163
11A,Strada Dobrogeanu Gherea,105600,45.1382808,25.7387624
16,Strada Bucegi,105600,45.1388566,25.7323931
9,Strada Popa Șapcă,105600,45.1374914,25.7385737
52,Strada Muscelului,105600,45.1401294,25.7399720
61,Strada I. H. Rădulescu,105600,45.1395459,25.7357071
76,Calea Doftanei,105600,45.1303310,25.7415706
4,Strada Mărășești,105600,45.1292742,25.7327092
1F,Strada Romaniței,105600,45.1393556,25.7319263
19,Strada Dobrogeanu Gherea,105600,45.1388150,25.7397744
16,Strada Ion Câmpineanu,105600,45.1300557,25.7293074
26,Strada Târnava Mare,105600,45.1403443,25.7516603
125,Strada I. H. Rădulescu,105600,45.1426989,25.7333266
3,Strada Dobrogeanu Gherea,105600,45.1372856,25.7369996
120,Strada Bogdan Vasile,105600,45.1347703,25.7316225
8BIS,Strada Bucegi,105600,45.1389580,25.7337330
64,Calea Doftanei,105600,45.1298884,25.7405584
15,Strada Muscelului,105600,45.1367574,25.7450435
9,Strada George Coșbuc,105600,45.1295310,25.7463741
79,Strada Gheorghe Doja,105600,45.1406259,25.7366352
25,Strada Muscelului,105600,45.1373123,25.7445710
47,Strada Muscelului,105600,45.1390381,25.7413228
60,Strada Bogdan Vasile,105600,45.1403270,25.7296383
11,Strada Gheorghe Doja,105600,45.1406990,25.7368441
35,Strada Tineretului,105600,45.1289025,25.7469928
27,Strada Muscelului,105600,45.1374369,25.7443357
5,Strada Ion Câmpineanu,105600,45.1297260,25.7289831
23,Strada Pomilor,105600,45.1390910,25.7390066
12,Strada Liliacului,105600,45.1382471,25.7274233
43,Strada Alexandru Ioan Cuza,105600,45.1289165,25.7435410
8,Strada Ion Creangă,105600,45.1280317,25.7437410
35,Strada Bobâlna,105600,45.1333548,25.7380795
22,Strada Bogdan Vasile,105600,45.1365100,25.7321629
37,Calea Doftanei,105600,45.1318146,25.7434533
82,Strada Bogdan Vasile,105600,45.1416862,25.7285547
17,Strada Dimitrie Bolintineanu,105600,45.1276901,25.7452960
12,Strada Ion Creangă,105600,45.1281926,25.7440272
24,Strada Bobâlna,105600,45.1331334,25.7385712
22,Strada Libertății,105600,45.1400755,25.7377622
41,Strada I. H. Rădulescu,105600,45.1353213,25.7372277
2,Strada Toamnei,105600,45.1388478,25.7364032
12,Strada Dunării,105600,45.1395682,25.7268202
7,Strada Bobâlna,105600,45.1326266,25.7357511
1,Strada Aurel Vlaicu,105600,45.1385955,25.7365704
53,Calea Doftanei,105600,45.1325005,25.7443397
4,Strada Popa Șapcă,105600,45.1371113,25.7385322
20,Strada Popa Șapcă,105600,45.1379848,25.7404257
56,Strada Muscelului,105600,45.1402108,25.7397632
96,Strada I. H. Rădulescu,105600,45.1433122,25.7340594
16C,Strada Bucegi,105600,45.1392018,25.7321252
8,Strada Muscelului,105600,45.1364319,25.7458383
10,Strada Dobrogeanu Gherea,105600,45.1377612,25.7384817
22,Strada Popa Șapcă,105600,45.1380854,25.7406992
4,Strada Dobrogeanu Gherea,105600,45.1374316,25.7378230
58,Strada Muscelului,105600,45.1402743,25.7395731
4,Strada Libertății,105600,45.1397699,25.7360954
74,Calea Doftanei,105600,45.1301363,25.7411817
1G,Strada Romaniței,105600,45.1394983,25.7322952
13,Strada Mărășești,105600,45.1282295,25.7294708
5,Strada Popa Șapcă,105600,45.1373303,25.7379257
19A,Strada Bogdan Vasile,105600,45.1363436,25.7317441
111,Bulevardul Carol I,105600,45.1342461,25.7318476
54,Strada Alexandru Ioan Cuza,105600,45.1298249,25.7462959
13,Strada Dobrogeanu Gherea,105600,45.1383790,25.7389948
23,Strada Muscelului,105600,45.1371664,25.7447107
38,Strada Muscelului,105600,45.1395500,25.7415450
90,Strada Griviței,105600,45.1282116,25.7312572
17,Strada Gheorghe Doja,105600,45.1409127,25.7372700
21,Strada Muscelului,105600,45.1370646,25.7447978
22,Strada Aurel Vlaicu,105600,45.1394490,25.7389100
16,Strada Bogdan Vasile,105600,45.1361847,25.7322304
35,Strada Alexandru Ioan Cuza,105600,45.1288555,25.7427777
55,Strada I. H. Rădulescu,105600,45.1370824,25.7360383
5,Strada Toamnei,105600,45.1393303,25.7366851
2,Strada Conductelor,105600,45.1282519,25.7447470
113A,Strada I. H. Rădulescu,105600,45.1415814,25.7335037
46,Strada Muscelului,105600,45.1398479,25.7407620
7,Strada Libertății,105600,45.1399807,25.7367598
17,Strada Tineretului,105600,45.1281173,25.7446747
28,Strada Bobâlna,105600,45.1332599,25.7391606
4,Strada Rezervoarelor,105600,45.1362283,25.7471996
37,Strada Alexandru Ioan Cuza,105600,45.1287644,25.7430242
89,Strada I. H. Rădulescu,105600,45.1399941,25.7348499
3,Strada Aurel Vlaicu,105600,45.1387937,25.7369820
16,Strada Dunării,105600,45.1397206,25.7270429
36,Strada Alexandru Ioan Cuza,105600,45.1287198,25.7439625
4,Strada Liliacului,105600,45.1377847,25.7263198
65,Strada I. H. Rădulescu,105600,45.1380064,25.7355145
6,Strada Rezervoarelor,105600,45.1364064,25.7472786
95,Strada I. H. Rădulescu,105600,45.1402810,25.7346764
11,Strada Bucegi,105600,45.1378106,25.7334587
55,Calea Doftanei,105600,45.1326530,25.7444052
81,Strada Bobâlna,105600,45.1348342,25.7434842
3,Strada Bogdan Vasile,105600,45.1350434,25.7314155
8,Strada Popa Șapcă,105600,45.1372152,25.7388541
13,Strada Bucegi,105600,45.1376193,25.7333278
24,Strada Popa Șapcă,105600,45.1381471,25.7408697
39,Strada I. H. Rădulescu,105600,45.1351921,25.7369933
21,Strada Dunării,105600,45.1400197,25.7268089
121,Strada I. H. Rădulescu,105600,45.1422438,25.7335519
2,Strada Anotimpului,105600,45.1421931,25.7346890
5,Strada Rezervoarelor,105600,45.1363731,25.7466221
10,Strada Libertății,105600,45.1395094,25.7365752
181,Bulevardul Carol I,105600,45.1284985,25.7328950
8,Strada Romaniței,105600,45.1397313,25.7327720
8,Strada Rezervoarelor,105600,45.1364585,25.7469374
18,Strada Mărășești,105600,45.1287921,25.7295590
41,Strada I. H. Rădulescu,105600,45.1369324,25.7368622
15,Strada Dobrogeanu Gherea,105600,45.1385447,25.7392199
15,Strada Romaniței,105600,45.1420912,25.7305095
14,Strada Mărului,105600,45.1398713,25.7321738
31,Strada Alexandru Ioan Cuza,105600,45.1284422,25.7426231
13,Strada I. H. Rădulescu,105600,45.1344031,25.7350501
46,Strada Alexandru Ioan Cuza,105600,45.1294709,25.7456194
16,Strada Pomilor,105600,45.1386421,25.7388872
70,Strada Muscelului,105600,45.1407851,25.7386581
5,Strada Solidarității,105600,45.1291151,25.7458826
59,Strada I. H. Rădulescu,105600,45.1374743,25.7360849
10,Strada Gheorghe Doja,105600,45.1405656,25.7372450
20,Strada Muscelului,105600,45.1371377,25.7454446
15,Strada Ion Câmpineanu,105600,45.1297048,25.7281826
15,Strada Aurel Vlaicu,105600,45.1396950,25.7387175
8,Strada Liliacului,105600,45.1379688,25.7269846
4,Strada Bogdan Vasile,105600,45.1351785,25.7317825
4,Strada Lacului,105600,45.1347798,25.7374364
1,Strada Toamnei,105600,45.1390802,25.7361940
15,Strada Ion Câmpineanu,105600,45.1298300,25.7282833
8,Strada Toamnei,105600,45.1399424,25.7388099
2,Strada Crângului,105600,45.1357280,25.7286816
22,Strada Bucegi,105600,45.1377943,25.7325192
3,Strada Libertății,105600,45.1401725,25.7361741
34,Strada Alexandru Ioan Cuza,105600,45.1286573,25.7438219
32A,Strada Tineretului,105600,45.1285211,25.7466349
22,Strada Bobâlna,105600,45.1331316,25.7383921
16,Strada I. H. Rădulescu,105600,45.1360413,25.7375092
39A,Strada Alexandru Ioan Cuza,105600,45.1288344,25.7433365
23,Calea Doftanei,105600,45.1313445,25.7425434
17,Strada Dunării,105600,45.1398539,25.7266952
99,Strada I. H. Rădulescu,105600,45.1404109,25.7344652
38,Strada Alexandru Ioan Cuza,105600,45.1287671,25.7441020
8,Strada Bogdan Vasile,105600,45.1354539,25.7316341
99,Strada B.P. Hașdeu,105600,45.1335029,25.7340018
97,Strada I. H. Rădulescu,105600,45.1402509,25.7340223
9,Strada Bucegi,105600,45.1378814,25.7336438
5,Strada Aurel Vlaicu,105600,45.1389445,25.7372276
30,Strada Tineretului,105600,45.1283737,25.7462309
77,Strada Bobâlna,105600,45.1347605,25.7432312
27,Strada Bobâlna,105600,45.1330436,25.7371025
12,Strada Popa Șapcă,105600,45.1374565,25.7393045
7,Strada Bucegi,105600,45.1380097,25.7337392
57,Calea Doftanei,105600,45.1325837,25.7446482
15,Strada Dunării,105600,45.1396524,25.7264905
4,Strada Anotimpului,105600,45.1423487,25.7354697
9,Strada Aurel Vlaicu,105600,45.1392063,25.7378131
4,Strada Muscelului,105600,45.1360563,25.7461757
26,Strada Alexandru Ioan Cuza,105600,45.1284245,25.7433183
89,Strada Griviței,105600,45.1279131,25.7308082
2,Strada Muscelului,105600,45.1359458,25.7462854
14,Strada Mărășești,105600,45.1287698,25.7301842
1,Strada Popa Șapcă,105600,45.1369540,25.7374435
22,Strada Alexandru Ioan Cuza,105600,45.1281912,25.7428274
58,Calea Doftanei,105600,45.1297705,25.7403445
23,Strada I. H. Rădulescu,105600,45.1348641,25.7357766
94,Strada Griviței,105600,45.1286111,25.7311876
3,Strada Solidarității,105600,45.1289242,25.7460803
59A,Strada I. H. Rădulescu,105600,45.1375623,25.7359465
20,Strada Pomilor,105600,45.1388580,25.7392515
66,Strada Muscelului,105600,45.1405704,25.7387855
40,Strada Romaniței,105600,45.1421014,25.7314284
71,Strada Muscelului,105600,45.1433738,25.7354876
3,Strada Bobâlna,105600,45.1324565,25.7353588
61,Strada I. H. Rădulescu,105600,45.1377995,25.7358465
13,Strada Rezervoarelor,105600,45.1374518,25.7458950
16,Strada Muscelului,105600,45.1369103,25.7454879
6,Strada Toamnei,105600,45.1394582,25.7378065
72,Strada Bogdan Vasile,105600,45.1410958,25.7288378
7,Strada Ardealului,105600,45.1233518,25.7338758
23,Strada Păcuri,105600,45.1281537,25.7557561
13,Strada Griviței,105600,45.1211032,25.7343173
22A,Strada Griviței,105600,45.1218059,25.7344548
22,Strada Păcuri,105600,45.1290478,25.7578474
16,Strada Nouă,105600,45.1284695,25.7534343
24,Strada George Barițiu,105600,45.1236452,25.7312326
24,Strada Castanilor,105600,45.1207346,25.7340516
8,Strada 24 Ianuarie 1859,105600,45.1283451,25.7546478
6,Strada Făgăraș,105600,45.1268308,25.7514181
5,Strada Oradea,105600,45.1271653,25.7500667
75,Strada Plevnei,105600,45.1279374,25.7270141
16,Strada Muncii,105600,45.1274435,25.7571564
1,Aleea Cameliei,105600,45.1264192,25.7321467
2,Strada Independenței,105600,45.1256165,25.7512743
7,Strada George Barițiu,105600,45.1241361,25.7325768
46,Strada Griviței,105600,45.1231831,25.7337645
8,Strada Ion Câmpineanu,105600,45.1297145,25.7300652
75,Strada Griviței,105600,45.1262227,25.7311336
18,Strada Griviței,105600,45.1216739,25.7346827
13,Strada Simion Bărnuțiu,105600,45.1252554,25.7296320
1B,Strada Vasile Alecsandri,105600,45.1269216,25.7302010
26,Strada George Barițiu,105600,45.1236279,25.7311124
3,Strada Oradea,105600,45.1271234,25.7498920
16,Strada Păcuri,105600,45.1274499,25.7553182
28,Strada Muncii,105600,45.1277012,25.7561857
9,Strada Ardealului,105600,45.1233635,25.7337230
13,Strada Ciceu,105600,45.1266584,25.7513912
3,Strada Simion Bărnuțiu,105600,45.1256065,25.7307136
4,Strada Ciceu,105600,45.1262876,25.7510434
87,Strada Plevnei,105600,45.1279019,25.7255348
16,Strada Oradea,105600,45.1272174,25.7516700
55,Strada Griviței,105600,45.1238908,25.7331145
3,Strada Făgăraș,105600,45.1268901,25.7506236
2,Strada Păcuri,105600,45.1264664,25.7535430
49,Strada Plevnei,105600,45.1263358,25.7277186
38,Strada Ecaterina Teodoroiu,105600,45.1279285,25.7513266
26,Strada Castanilor,105600,45.1206708,25.7338841
11,Strada Păcuri,105600,45.1275712,25.7551299
5,Strada Lt. Col. Erou Oprescu Adrian,105600,45.1215158,25.7277179
9,Strada Plevnei,105600,45.1231523,25.7308199
12,Strada Nouă,105600,45.1282710,25.7532249
2,Strada Ciceu,105600,45.1261026,25.7502772
98,Strada Griviței,105600,45.1292191,25.7310246
5,Strada Făgăraș,105600,45.1270671,25.7515178
28,Strada Griviței,105600,45.1222492,25.7341916
3,Aleea Crizantemei,105600,45.1269738,25.7320816
1,Strada Făgăraș,105600,45.1267380,25.7500390
13,Strada Muncii,105600,45.1266316,25.7564919
4,Strada Petrolistului,105600,45.1207386,25.7512932
41,Strada Plevnei,105600,45.1256223,25.7280681
10,Strada 24 Ianuarie 1859,105600,45.1285294,25.7545443
13,Strada Plevnei,105600,45.1233886,25.7305753
32A,Strada Castanilor,105600,45.1205132,25.7333333
37,Strada Plevnei,105600,45.1254404,25.7280603
1,Strada Vasile Alecsandri,105600,45.1270112,25.7304998
26,Strada Muncii,105600,45.1276525,25.7563486
19,Strada Ardealului,105600,45.1229088,25.7327208
13,Strada Golești,105600,45.1292459,25.7312400
72,Strada Griviței,105600,45.1261356,25.7317358
10,Strada Ardealului,105600,45.1231918,25.7326575
24,Strada Griviței,105600,45.1220525,25.7342419
4,Strada 24 Ianuarie 1859,105600,45.1282094,25.7549355
69,Strada Griviței,105600,45.1250615,25.7324492
10,Strada Ion Câmpineanu,105600,45.1297693,25.7297044
15,Strada Muncii,105600,45.1267912,25.7566537
8,Strada Vasile Alecsandri,105600,45.1267695,25.7291709
20,Strada George Barițiu,105600,45.1238602,25.7316595
2,Strada Făgăraș,105600,45.1265920,25.7504720
32,Strada Castanilor,105600,45.1204290,25.7332950
9,Strada Ciceu,105600,45.1265621,25.7511282
16,Strada George Barițiu,105600,45.1241541,25.7319673
35,Strada Muncii,105600,45.1274509,25.7559637
7,Strada Lt. Col. Erou Oprescu Adrian,105600,45.1212543,25.7281632
54,Strada Griviței,105600,45.1244508,25.7334497
79A,Medis Câmpina,105600,45.1267173,25.7309683
3,Strada 24 Ianuarie 1859,105600,45.1281740,25.7542383
74,Strada Griviței,105600,45.1262603,25.7316080
6A,Strada Castanilor,105600,45.1211618,25.7356238
2A,Strada 24 Ianuarie 1859,105600,45.1283377,25.7554207
12,Strada Mărășești,105600,45.1289386,25.7312971
17,Strada Oradea,105600,45.1274644,25.7516659
12,Strada Oradea,105600,45.1270895,25.7510934
30,Strada Păcuri,105600,45.1292701,25.7569923
4,Strada George Barițiu,105600,45.1246472,25.7327880
7,Strada Vasile Alecsandri,105600,45.1265846,25.7297603
4,Strada Făgăraș,105600,45.1266624,25.7508527
13,Strada Oradea,105600,45.1273485,25.7511265
18,Strada Muncii,105600,45.1272601,25.7569765
4,Strada Oradea,105600,45.1269368,25.7502739
27,Strada Progresului,105600,45.1269901,25.7490857
17,Strada Orizontului,105600,45.1239423,25.7498826
29,Strada Muncii,105600,45.1272761,25.7562754
11,Strada 24 Ianuarie 1859,105600,45.1284609,25.7539882
12,Strada Castanilor,105600,45.1209926,25.7352248
2,Strada Pompelor,105600,45.1266153,25.7546276
24,Strada Păcuri,105600,45.1290391,25.7576601
19,Strada Păcuri,105600,45.1279516,25.7555968
8,Strada George Barițiu,105600,45.1246691,25.7325242
11B,Strada Griviței,105600,45.1209690,25.7344326
5,Strada Simion Bărnuțiu,105600,45.1254159,25.7307288
11,Strada Oradea,105600,45.1273145,25.7509429
6,Strada Pompelor,105600,45.1268139,25.7550917
12,Strada 24 Ianuarie 1859,105600,45.1286048,25.7543451
8,Strada Ciceu,105600,45.1262995,25.7513723
34,Strada Castanilor,105600,45.1204185,25.7331284
11,Strada Granicului,105600,45.1271637,25.7561454
5,Strada Vasile Alecsandri,105600,45.1265362,25.7301390
6,Strada Nouă,105600,45.1278304,25.7528347
3,Strada George Barițiu,105600,45.1243354,25.7328572
2B,Strada Bistriței,105600,45.1243977,25.7500205
15,Strada Plevnei,105600,45.1219397,25.7325338
37,Strada Păcuri,105600,45.1300035,25.7570994
20,Strada Griviței,105600,45.1217197,25.7344559
28,Strada George Barițiu,105600,45.1235692,25.7310197
9,Strada Simion Bărnuțiu,105600,45.1253606,25.7301993
18,Strada Nouă,105600,45.1285709,25.7536372
51,Bulevardul Culturii,105600,45.1203958,25.7329572
5,Strada Mărășești,105600,45.1287514,25.7322182
18,Strada Oradea,105600,45.1272768,25.7519140
6,Aleea Crizantemei,105600,45.1267884,25.7322713
77,Strada Plevnei,105600,45.1278962,25.7266486
25,Strada Muncii,105600,45.1269837,25.7564836
57,Strada Griviței,105600,45.1240441,25.7329941
5A,Strada Muncii,105600,45.1257996,25.7547165
71,Strada Griviței,105600,45.1255773,25.7317310
44,Strada Griviței,105600,45.1231346,25.7338429
11,Strada Simion Bărnuțiu,105600,45.1252677,25.7299292
17,Strada Păcuri,105600,45.1279565,25.7554775
10,Strada George Barițiu,105600,45.1244850,25.7323776
3,Strada Vasile Alecsandri,105600,45.1267870,25.7299326
7,Strada Păcuri,105600,45.1274884,25.7546503
14,Strada Griviței,105600,45.1214676,25.7345656
14,Strada Păcuri,105600,45.1272470,25.7551809
10,Strada Nouă,105600,45.1281715,25.7531506
27,Strada Beiuș,105600,45.1258955,25.7503676
1,Strada Simion Bărnuțiu,105600,45.1256690,25.7310947
9A,Strada Griviței,105600,45.1207933,25.7345695
2A,Strada Ciceu,105600,45.1261836,25.7505690
1,Strada Păcuri,105600,45.1269506,25.7538217
59,Strada Griviței,105600,45.1242708,25.7330558
15,Strada Ciceu,105600,45.1266435,25.7516353
12A,Strada George Barițiu,105600,45.1242664,25.7322945
1,Aleea Crizantemei,105600,45.1268345,25.7316189
36,Strada Ecaterina Teodoroiu,105600,45.1279948,25.7512149
15,Strada Plevnei,105600,45.1234871,25.7304381
35,Strada Plevnei,105600,45.1254025,25.7282309
83,Strada Griviței,105600,45.1269188,25.7308881
9,Strada 24 Ianuarie 1859,105600,45.1283454,25.7540474
17,Strada Beiuș,105600,45.1272103,25.7493606
30,Strada George Barițiu,105600,45.1234452,25.7309550
8,Strada Griviței,105600,45.1211523,25.7347434
1,Strada Oradea,105600,45.1270603,25.7495750
15,Strada Ardealului,105600,45.1229927,25.7330120
7,Strada Mărășești,105600,45.1287431,25.7320172
7,Strada Bistriței,105600,45.1251676,25.7518722
17,Strada Ciceu,105600,45.1267524,25.7519239
26,Strada Griviței,105600,45.1221474,25.7342432
67,Strada Griviței,105600,45.1249205,25.7325963
7,Strada Ion Câmpineanu,105600,45.1298965,25.7289809
78,Strada Griviței,105600,45.1267740,25.7313597
4,Strada Muncii,105600,45.1252956,25.7545271
13,Strada George Barițiu,105600,45.1237445,25.7320093
33A,Strada Plevnei,105600,45.1253652,25.7283562
29A,Strada Păcuri,105600,45.1288097,25.7560928
5,Strada Ciceu,105600,45.1264750,25.7505788
4,Strada Plevnei,105600,45.1209786,25.7321364
16,Strada Pompelor,105600,45.1271826,25.7556821
5,Strada 24 Ianuarie 1859,105600,45.1282003,25.7541026
17,Strada Ardealului,105600,45.1229561,25.7328793
8,Strada Castanilor,105600,45.1210701,25.7354715
3,Aleea Cameliei,105600,45.1263583,25.7319395
30,Strada Griviței,105600,45.1224345,25.7340665
6,Strada 24 Ianuarie 1859,105600,45.1282782,25.7547648
12A,Strada Oradea,105600,45.1271504,25.7512936
51,Strada Griviței,105600,45.1236813,25.7331634
6,Strada Oborului,105600,45.1238477,25.7522508
43D,Strada Ecaterina Teodoroiu,105600,45.1267615,25.7528613
22,Strada George Barițiu,105600,45.1237924,25.7314834
3,Strada Ciceu,105600,45.1264255,25.7504371
18,Strada George Barițiu,105600,45.1239956,25.7317601
1,Strada Sălaj,105600,45.1194995,25.7444135
3A,Strada Făgăraș,105600,45.1268482,25.7504793
21,Strada Muncii,105600,45.1270701,25.7567833
52,Strada Griviței,105600,45.1241964,25.7334500
13,Strada Beiuș,105600,45.1273899,25.7492442
21,Strada Ardealului,105600,45.1227783,25.7325219
32,Strada Griviței,105600,45.1225914,25.7342343
8,Strada Mărășești,105600,45.1290958,25.7322918
10,Bulevardul Culturii,105600,45.1250129,25.7316849
15,Strada Oradea,105600,45.1274345,25.7514818
29,Strada Păcuri,105600,45.1289723,25.7563427
27,Strada Păcuri,105600,45.1283670,25.7559290
65,Strada Griviței,105600,45.1247767,25.7327854
40,Strada Ecaterina Teodoroiu,105600,45.1278118,25.7514287
14,Strada Muncii,105600,45.1271447,25.7571627
6,Strada Oradea,105600,45.1270002,25.7505911
79,Strada Plevnei,105600,45.1279220,25.7263338
8,Strada Granicului,105600,45.1270327,25.7562901
9,Strada Granicului,105600,45.1270769,25.7559601
5,Strada George Barițiu,105600,45.1242354,25.7327585
13,Strada 24 Ianuarie 1859,105600,45.1284158,25.7538459
8b,Bulevardul Culturii,105600,45.1251257,25.7318288
10,Strada Ciceu,105600,45.1264734,25.7520215
2,Strada Agriculturii,105600,45.1265498,25.7541986
10,Strada Castanilor,105600,45.1210710,25.7353154
41,Strada Siretului,105600,45.1442899,25.7300333
31,Strada Romaniței,105600,45.1432469,25.7294797
64,Strada Romaniței,105600,45.1435237,25.7308282
45,Strada Siretului,105600,45.1443089,25.7304884
29,Strada Romaniței,105600,45.1432016,25.7300568
43,Strada Siretului,105600,45.1442976,25.7303348
51,Strada Romaniței,105600,45.1437363,25.7296375
59,Strada Siretului,105600,45.1444198,25.7319786
51,Strada Siretului,105600,45.1443505,25.7310807
66,Strada Romaniței,105600,45.1437466,25.7302184
49,Strada Siretului,105600,45.1443298,25.7308924
54,Strada Siretului,105600,45.1439882,25.7300531
55,Strada Siretului,105600,45.1443812,25.7314385
48,Strada Siretului,105600,45.1438562,25.7292427
50,Strada Siretului,105600,45.1438866,25.7295484
57,Strada Siretului,105600,45.1443872,25.7316935
13,Strada Chișinău,105600,45.1153866,25.7400764
5,Strada Chișinău,105600,45.1157999,25.7395868
15,Strada Chișinău,105600,45.1152947,25.7402053
7,Strada Chișinău,105600,45.1156782,25.7396896
26,Strada Chișinău,105600,45.1143935,25.7394729
7,Aleea Parcului,105600,45.1166969,25.7363663
2,Aleea Roma,105600,45.1162683,25.7389378
20,Strada Chișinău,105600,45.1146722,25.7398551
4,Aleea Parcului,105600,45.1172014,25.7371872
5,Aleea Parcului,105600,45.1168883,25.7361248
14,Strada Chișinău,105600,45.1151486,25.7397440
11,Aleea Parcului,105600,45.1170674,25.7364884
2,Strada Chișinău,105600,45.1157533,25.7389363
3,Aleea Parcului,105600,45.1170845,25.7359311
13,Aleea Parcului,105600,45.1172630,25.7362980
1,Strada Bruxelles,105600,45.1148216,25.7391589
12,Strada Chișinău,105600,45.1152635,25.7395893
1,Aleea Parcului,105600,45.1173228,25.7357566
22,Strada Chișinău,105600,45.1145897,25.7397200
8,Aleea Roma,105600,45.1160471,25.7385855
9,Aleea Parcului,105600,45.1168323,25.7366552
52,Strada B.P. Hașdeu,105600,45.1264847,25.7405177
17,Strada Mihail Kogălniceanu,105600,45.1243211,25.7386849
5A,Strada Alexandru Ioan Cuza,105600,45.1272082,25.7400911
28,Strada B.P. Hașdeu,105600,45.1256815,25.7415487
11,Strada Progresului,105600,45.1267229,25.7476438
24,Strada Constantin Stere,105600,45.1264563,25.7448264
58,Strada Păcuri,105600,45.1311867,25.7584153
2,Strada Horia,105600,45.1286805,25.7455390
7,Aleea Veteranilor,105600,45.1324241,25.7591444
32,Strada Avram Iancu,105600,45.1257105,25.7455251
16,Strada Petre Liciu,105600,45.1272206,25.7481293
62,Strada Păcuri,105600,45.1313514,25.7589714
8,Strada Ecaterina Teodoroiu,105600,45.1320319,25.7466174
31,Strada Tineretului,105600,45.1288248,25.7466971
1,Strada Petre Liciu,105600,45.1272017,25.7468631
114,Calea Doftanei,105600,45.1317542,25.7442434
56,Strada Păcuri,105600,45.1310398,25.7584094
1B,Strada Petre Liciu,105600,45.1272945,25.7472117
40,Strada Avram Iancu,105600,45.1259009,25.7460860
12,Strada Pompelor,105600,45.1270436,25.7553517
22,Strada Progresului,105600,45.1265138,25.7488602
6,Strada Păcuri,105600,45.1268844,25.7542761
4,Strada Atelierelor,105600,45.1251859,25.7432314
10,Strada Beiuș,105600,45.1278204,25.7481737
25,Strada Păcuri,105600,45.1282755,25.7558212
25,Strada Constantin Stere,105600,45.1270879,25.7453960
1,Strada Solidarității,105600,45.1292648,25.7458023
14,Strada Pompelor,105600,45.1271158,25.7554689
5,Strada Petre Liciu,105600,45.1273531,25.7476094
3,Strada Conductelor,105600,45.1286880,25.7448050
4,Aleea Veteranilor,105600,45.1321602,25.7592244
24,Strada Progresului,105600,45.1265576,25.7490033
13,Strada Atelierelor,105600,45.1258790,25.7445619
13,Strada Progresului,105600,45.1267361,25.7478273
1,Strada Progresului,105600,45.1265173,25.7470431
5,Strada Conductelor,105600,45.1285312,25.7449814
16,Strada Dimitrie Bolintineanu,105600,45.1274016,25.7454630
122,Calea Doftanei,105600,45.1320388,25.7455069
25,Strada Avram Iancu,105600,45.1259037,25.7453525
3,Strada Petre Liciu,105600,45.1274764,25.7474118
6,Strada Granicului,105600,45.1268197,25.7559207
46,Strada Păcuri,105600,45.1305187,25.7583854
38,Strada Dimitrie Bolintineanu,105600,45.1279993,25.7474997
2,Strada Progresului,105600,45.1258370,25.7476576
30,Strada Avram Iancu,105600,45.1255809,25.7453813
50,Strada Păcuri,105600,45.1307896,25.7582192
2,Strada Granicului,105600,45.1262016,25.7549255
14,Strada Progresului,105600,45.1262548,25.7479156
6A,Strada Constantin Stere,105600,45.1256542,25.7430725
13,Strada Păcuri,105600,45.1276522,25.7552907
3,Strada Progresului,105600,45.1265306,25.7471859
6,Strada Petre Liciu,105600,45.1268903,25.7467668
12,Strada Progresului,105600,45.1262130,25.7476836
35A-35B,Strada Păcuri,105600,45.1301952,25.7569106
2,Strada Solidarității,105600,45.1291650,25.7454493
42,Strada Constantin Stere,105600,45.1271157,25.7461920
114A,Calea Doftanei,105600,45.1319007,25.7443558
7,Strada Muncii,105600,45.1260048,25.7551192
18,Strada Progresului,105600,45.1263612,25.7485779
4,Strada Pompelor,105600,45.1267718,25.7549579
43,Strada Păcuri,105600,45.1302762,25.7571748
12,Strada Beiuș,105600,45.1277590,25.7483523
27,Strada Constantin Stere,105600,45.1271791,25.7457493
8,Aleea Veteranilor,105600,45.1322562,25.7594290
15,Strada Atelierelor,105600,45.1259185,25.7446926
15,Strada Petre Liciu,105600,45.1275557,25.7483697
47,Strada Păcuri,105600,45.1306279,25.7574938
1A,Strada Progresului,105600,45.1265468,25.7468333
19,Strada Constantin Stere,105600,45.1267899,25.7446647
7,Strada Conductelor,105600,45.1283101,25.7451554
23,Strada Avram Iancu,105600,45.1258428,25.7451717
44,Strada Păcuri,105600,45.1305390,25.7579259
14,Strada Petre Liciu,105600,45.1271835,25.7479496
6A,Strada Mioriței,105600,45.1098155,25.7490114
6B,Strada Mioriței,105600,45.1098763,25.7490473
11B,Strada Vasile Alecsandri,105600,45.1261460,25.7288052
17,Strada Mărășești,105600,45.1279011,25.7281173
71,Strada Plevnei,105600,45.1274414,25.7277738
51,Strada Plevnei,105600,45.1264237,25.7273366
28,Strada Plevnei,105600,45.1245399,25.7297178
34,Strada Mărășești,105600,45.1281792,25.7279877
73,Strada Plevnei,105600,45.1274866,25.7275182
2,Strada Vasile Alecsandri,105600,45.1274396,25.7304182
10,Strada Simion Bărnuțiu,105600,45.1258524,25.7300934
17,Strada Plevnei,105600,45.1236817,25.7301287
44,Strada Plevnei,105600,45.1256936,25.7285511
13,Strada Vasile Alecsandri,105600,45.1261327,25.7285594
11,Strada Vasile Alecsandri,105600,45.1262936,25.7290797
69,Strada Plevnei,105600,45.1272512,25.7276451
15,Strada 22 Decembrie 1989,105600,45.1201303,25.7362969
25,Strada 22 Decembrie 1989,105600,45.1191951,25.7365062
13,Strada 22 Decembrie 1989,105600,45.1203167,25.7362283
27,Strada 22 Decembrie 1989,105600,45.1190895,25.7365652
19,Strada 22 Decembrie 1989,105600,45.1197044,25.7364249
17,Strada 22 Decembrie 1989,105600,45.1199486,25.7363636
23,Strada 22 Decembrie 1989,105600,45.1193529,25.7364882
1,Strada Griviței,105600,45.1188414,25.7356115
2A,Strada Griviței,105600,45.1193076,25.7358514
1,Strada Griviței,105600,45.1192122,25.7351953
7,Strada George Coșbuc,105600,45.1294213,25.7465356
67,Strada Alexandru Ioan Cuza,105600,45.1298582,25.7456007
7,Strada Horia,105600,45.1288066,25.7450104
5,Strada Horia,105600,45.1287193,25.7450818
56A,Strada Alexandru Ioan Cuza,105600,45.1299073,25.7466047
78,Calea Doftanei,105600,45.1303916,25.7418331
100,Calea Doftanei,105600,45.1310231,25.7428246
88,Calea Doftanei,105600,45.1306877,25.7423133
94,Calea Doftanei,105600,45.1308810,25.7425985
11,Calea Doftanei,105600,45.1271469,25.7348568
2,Strada 1 Decembrie 1918,105600,45.1280830,25.7361252
17,Strada Henri Coandă,105600,45.1269328,25.7346512
61,Strada B.P. Hașdeu,105600,45.1287928,25.7359822
6,Strada 1 Decembrie 1918,105600,45.1281954,25.7360162
7,Strada Henri Coandă,105600,45.1275625,25.7339206
33,Strada Dimitrie Bolintineanu,105600,45.1283678,25.7479097
28,Strada Constantin Stere,105600,45.1265138,25.7450980
22A,Calea Doftanei,105600,45.1284194,25.7385305
75,Strada B.P. Hașdeu,105600,45.1295797,25.7354593
15,Strada Constantin Stere,105600,45.1264730,25.7441118
21,Strada Alexandru Ioan Cuza,105600,45.1278712,25.7414873
25,Strada Tineretului,105600,45.1285480,25.7459002
38,Strada Constantin Stere,105600,45.1268540,25.7456753
13,Strada Henri Coandă,105600,45.1272152,25.7343505
36,Strada Constantin Stere,105600,45.1266358,25.7455519
30,Calea Doftanei,105600,45.1289699,25.7386910
13,Strada Tineretului,105600,45.1279780,25.7444099
48,Strada Alexandru Ioan Cuza,105600,45.1294802,25.7458602
44,Strada Constantin Stere,105600,45.1272270,25.7464018
6,Strada Henri Coandă,105600,45.1268395,25.7342675
32,Calea Doftanei,105600,45.1290174,25.7388696
2,Strada Tineretului,105600,45.1274509,25.7438247
7,Strada Atelierelor,105600,45.1255609,25.7436388
48,Strada B.P. Hașdeu,105600,45.1264070,25.7407621
31,Strada Constantin Stere,105600,45.1276084,25.7466123
1,Strada 1 Decembrie 1918,105600,45.1280912,25.7352270
4,Strada Henri Coandă,105600,45.1269730,25.7341809
2,Strada Țițeiului,105600,45.1278618,25.7455662
4,Strada Tineretului,105600,45.1275374,25.7440364
9,Strada Atelierelor,105600,45.1256889,25.7439329
3,Strada 1 Decembrie 1918,105600,45.1281056,25.7348166
4,Strada Țițeiului,105600,45.1280017,25.7460323
3,Strada Atelierelor,105600,45.1254457,25.7432810
46,Strada Avram Iancu,105600,45.1260960,25.7465263
35,Strada Avram Iancu,105600,45.1262059,25.7460192
10,Strada Tineretului,105600,45.1277203,25.7444167
44,Strada Avram Iancu,105600,45.1260298,25.7463230
39,Strada Avram Iancu,105600,45.1262653,25.7462705
4,Strada Ion Creangă,105600,45.1278581,25.7433680
31,Strada Dimitrie Bolintineanu,105600,45.1282556,25.7475080
13,Strada Alexandru Ioan Cuza,105600,45.1274721,25.7406270
25,Strada Alexandru Ioan Cuza,105600,45.1279688,25.7416528
17,Strada Constantin Stere,105600,45.1266394,25.7443138
16,Strada 1 Mai,105600,45.1253818,25.7377022
42,Strada Alexandru Ioan Cuza,105600,45.1291131,25.7448125
56,Calea Doftanei,105600,45.1296544,25.7400836
26,Strada Constantin Stere,105600,45.1265341,25.7449791
7,Strada Alexandru Ioan Cuza,105600,45.1273176,25.7402467
23,Strada Constantin Stere,105600,45.1269310,25.7450767
9,Strada Ion Creangă,105600,45.1283215,25.7437107
27,Strada Alexandru Ioan Cuza,105600,45.1280423,25.7418670
11,Strada Horia,105600,45.1289264,25.7448334
13,Strada Conductelor,105600,45.1265112,25.7466611
5,Strada Tineretului,105600,45.1276850,25.7437040
1,Strada Conductelor,105600,45.1288027,25.7446849
2A,Strada Petre Liciu,105600,45.1268433,25.7463506
102,Calea Doftanei,105600,45.1311152,25.7430406
31,Strada Dimitrie Bolintineanu,105600,45.1281257,25.7470884
11,Strada Tineretului,105600,45.1279046,25.7442448
50,Strada B.P. Hașdeu,105600,45.1263499,25.7403761
1A,Strada Petre Liciu,105600,45.1271111,25.7465800
59,Strada B.P. Hașdeu,105600,45.1286502,25.7360260
6,Strada Tineretului,105600,45.1275816,25.7442003
23,Strada Dimitrie Bolintineanu,105600,45.1278909,25.7461050
63,Strada B.P. Hașdeu,105600,45.1287565,25.7356020
5,Strada Dimitrie Bolintineanu,105600,45.1271409,25.7439589
28,Strada Avram Iancu,105600,45.1255360,25.7451643
25,Strada Dimitrie Bolintineanu,105600,45.1279551,25.7463103
3,Strada Dimitrie Bolintineanu,105600,45.1270650,25.7437981
20,Strada Avram Iancu,105600,45.1253354,25.7446569
41,Strada Avram Iancu,105600,45.1263272,25.7463505
18,Strada Dimitrie Bolintineanu,105600,45.1275675,25.7458533
2,Strada Ion Creangă,105600,45.1277728,25.7432042
9,Strada Dimitrie Bolintineanu,105600,45.1272482,25.7442289
22,Strada 1 Mai,105600,45.1255756,25.7379809
10,Strada Conductelor,105600,45.1265576,25.7460698
17,Strada Alexandru Ioan Cuza,105600,45.1278809,25.7410887
26,Strada Dimitrie Bolintineanu,105600,45.1276927,25.7463594
4,Aleea Șoimului,105600,45.1291676,25.7421388
19,Strada Alexandru Ioan Cuza,105600,45.1278579,25.7413423
17,Strada General Ioan Stoica,105600,45.1330598,25.7585926
15,Aleea Veteranilor,105600,45.1327954,25.7597908
2,Strada General Ioan Stoica,105600,45.1314754,25.7572464
22,Strada Colonel Haralambie Săvulescu,105600,45.1331375,25.7575043
4,Strada General Ioan Stoica,105600,45.1317398,25.7569776
61,Strada Păcuri,105600,45.1320480,25.7598205
66,Strada Păcuri,105600,45.1314256,25.7598210
64,Strada Păcuri,105600,45.1310929,25.7597994
49,Strada Păcuri,105600,45.1307678,25.7575344
45,Strada Păcuri,105600,45.1304843,25.7572045
52,Strada Păcuri,105600,45.1309347,25.7582742
31,Strada Păcuri,105600,45.1293275,25.7564222
6,Strada General Ioan Stoica,105600,45.1317911,25.7570998
41,Strada Păcuri,105600,45.1304392,25.7570632
60,Strada Păcuri,105600,45.1313211,25.7586211
1,Strada Colonel Haralambie Săvulescu,105600,45.1331027,25.7587854
14,Strada 24 Ianuarie 1859,105600,45.1287208,25.7542906
34,Strada Plevnei,105600,45.1249565,25.7295501
70,Strada Griviței,105600,45.1260026,25.7320444
77,Strada Griviței,105600,45.1263699,25.7311285
73,Strada Griviței,105600,45.1260611,25.7313386
12,Strada Simion Bărnuțiu,105600,45.1258292,25.7296119
6,Strada Simion Bărnuțiu,105600,45.1260031,25.7306362
4,Aleea Crizantemei,105600,45.1266903,25.7320833
84,Strada Griviței,105600,45.1271110,25.7313542
76,Strada Griviței,105600,45.1265333,25.7315576
39,Bulevardul Carol I,105600,45.1250273,25.7329587
35,Bulevardul Carol I,105600,45.1247756,25.7332611
14,Strada Alexandru Ioan Cuza,105600,45.1278056,25.7421129
37,Strada Ecaterina Teodoroiu,105600,45.1276690,25.7522262
37A,Strada Ecaterina Teodoroiu,105600,45.1275725,25.7523682
39A,Strada Ecaterina Teodoroiu,105600,45.1277204,25.7524706
4,Strada Nouă,105600,45.1278144,25.7526026
8,Strada Victoriei,105600,45.1207241,25.7391937
2A,Strada Erupției,105600,45.1187599,25.7396483
32,Bulevardul Nicolae Bălcescu,105600,45.1116224,25.7466902
16,Bulevardul Nicolae Bălcescu,105600,45.1100413,25.7470370
7,Bulevardul Nicolae Bălcescu,105600,45.1098204,25.7465249
14,Bulevardul Nicolae Bălcescu,105600,45.1095937,25.7471942
9,Strada Primăverii,105600,45.1195752,25.7369881
24,Strada Schelelor,105600,45.1185561,25.7344446
14,Strada 22 Decembrie 1989,105600,45.1205717,25.7363438
22,Strada 22 Decembrie 1989,105600,45.1200156,25.7358934
12,Bulevardul Culturii,105600,45.1249486,25.7314079
8,Strada 1 Decembrie 1918,105600,45.1283018,25.7358746
1,Bulevardul Carol I,105600,45.1199614,25.7387727
4,Aleea Roma,105600,45.1162054,25.7387991
6,Strada Ion Câmpineanu,105600,45.1295363,25.7299455
31,Strada B.P. Hașdeu,105600,45.1267384,25.7391146
45,Strada Plevnei,105600,45.1258717,25.7277930
54,Strada B.P. Hașdeu,105600,45.1266106,25.7399779
55,Strada B.P. Hașdeu,105600,45.1284292,25.7363144
16,Strada Ardealului,105600,45.1230008,25.7321851
4,Strada Golești,105600,45.1310046,25.7333492
5,Strada 1 Decembrie 1918,105600,45.1283174,25.7348919
10,Strada Golești,105600,45.1306498,25.7326263
1,Strada Mărășești,105600,45.1288266,25.7328235
14,Strada Ardealului,105600,45.1230625,25.7323243
20,Strada Ardealului,105600,45.1229942,25.7316849
9,Strada 1 Decembrie 1918,105600,45.1285304,25.7345299
4A,Strada Golești,105600,45.1309772,25.7331601
52,Strada B.P. Hașdeu,105600,45.1264653,25.7402409
17,Strada Ion Câmpineanu,105600,45.1297585,25.7279886
30,Strada Plevnei,105600,45.1246877,25.7296071
46,Bulevardul Nicolae Bălcescu,105600,45.1160252,25.7462660
15,Strada Henri Coandă,105600,45.1271350,25.7345430
9,Strada Henri Coandă,105600,45.1274071,25.7341518
29,Strada Griviței,105600,45.1222635,25.7336986
27,Strada Griviței,105600,45.1221013,25.7337176
21,Strada Griviței,105600,45.1216420,25.7338958
2A,Strada Griviței,105600,45.1190540,25.7360175
26,Strada Schelelor,105600,45.1189950,25.7343182
32,Strada Podului,105600,45.1196685,25.7341082
34,Strada Schelelor,105600,45.1199704,25.7338444
36,Strada Schelelor,105600,45.1201850,25.7336131
68,Strada Griviței,105600,45.1258351,25.7320138
66,Strada Griviței,105600,45.1257485,25.7320785
47,Strada Griviței,105600,45.1234338,25.7331882
44B,Bulevardul Nicolae Bălcescu,105600,45.1150155,25.7457826
3,Strada Maramureș,105600,45.1217241,25.7385954
42,Strada Mihail Kogălniceanu,105600,45.1243061,25.7399183
7,Strada Toma Ionescu,105600,45.1229483,25.7388199
6,Strada Constantin Stere,105600,45.1255734,25.7428764
36,Strada Mihail Kogălniceanu,105600,45.1242314,25.7394424
21,Strada Toma Ionescu,105600,45.1237902,25.7406174
1,Strada Liliacului,105600,45.1378994,25.7258949
93,Strada Griviței,105600,45.1288680,25.7306622
16,Strada Golești,105600,45.1296879,25.7312602
18,Strada Golești,105600,45.1296293,25.7310251
57,Strada B.P. Hașdeu,105600,45.1285680,25.7361429
13,Strada 1 Decembrie 1918,105600,45.1290286,25.7340132
11,Strada 1 Decembrie 1918,105600,45.1289464,25.7341095
16,Strada Mihail Kogălniceanu,105600,45.1237752,25.7384502
40,Strada Plevnei,105600,45.1256191,25.7286526
46,Strada Plevnei,105600,45.1258148,25.7284833
38,Strada Plevnei,105600,45.1255082,25.7287233
43,Strada Plevnei,105600,45.1256986,25.7279133
14,Strada Simion Bărnuțiu,105600,45.1255531,25.7291115
26,Strada Plevnei,105600,45.1244705,25.7298556
36,Strada Plevnei,105600,45.1251527,25.7290979
45,Bulevardul Culturii,105600,45.1206602,25.7325927
56,Strada Mihail Kogălniceanu,105600,45.1246855,25.7407779
194,Bulevardul Carol I,105600,45.1348345,25.7304479
39C,Bulevardul Nicolae Bălcescu,105600,45.1133223,25.7452675
80,Strada Griviței,105600,45.1269087,25.7313441
82,Strada Griviței,105600,45.1270147,25.7314250
6,Strada Grigore Nicolae,105600,45.1276768,25.7320277
8,Strada Grigore Nicolae,105600,45.1277591,25.7319286
15,Strada Câmpului,105600,45.1133040,25.7482061
53,Strada Griviței,105600,45.1238199,25.7330044
45,Strada Griviței,105600,45.1230709,25.7334089
43,Strada Griviței,105600,45.1229302,25.7333911
39,Strada Griviței,105600,45.1227492,25.7334632
39A,Strada Griviței,105600,45.1226450,25.7335559
34,Strada Griviței,105600,45.1226350,25.7340709
31,Strada Griviței,105600,45.1224077,25.7336488
25,Strada Griviței,105600,45.1220106,25.7337778
23,Strada Griviței,105600,45.1218014,25.7338257
16,Strada Griviței,105600,45.1216249,25.7348310
12,Strada Griviței,105600,45.1213311,25.7346190
19B,Strada Griviței,105600,45.1214393,25.7336848
17,Strada Griviței,105600,45.1214379,25.7339663
11A,Strada Griviței,105600,45.1208875,25.7344983
6,Strada Griviței,105600,45.1204655,25.7352146
4,Strada Griviței,105600,45.1202732,25.7352634
2F,Strada Griviței,105600,45.1202095,25.7356198
2D,Strada Griviței,105600,45.1200669,25.7354620
1A,Strada Griviței,105600,45.1199197,25.7351032
5,Strada Griviței,105600,45.1200322,25.7349866
7,Strada Griviței,105600,45.1201500,25.7348451
9,Strada Griviței,105600,45.1205609,25.7347421
5,Strada Ardealului,105600,45.1234172,25.7339382
3,Strada Ardealului,105600,45.1233405,25.7340630
92,Strada Griviței,105600,45.1283754,25.7311989
96,Strada Griviței,105600,45.1290684,25.7311688
2,Aleea Crizantemei,105600,45.1266310,25.7317714
6,Strada Vasile Alecsandri,105600,45.1269398,25.7295035
10,Strada Vasile Alecsandri,105600,45.1266235,25.7287096
9,Strada Vasile Alecsandri,105600,45.1264685,25.7293874
47,Strada Plevnei,105600,45.1261378,25.7277939
39,Strada Plevnei,105600,45.1255416,25.7281971
29A,Strada Plevnei,105600,45.1249249,25.7287349
29,Strada Plevnei,105600,45.1247824,25.7286537
27,Strada Plevnei,105600,45.1247713,25.7289175
32,Strada Plevnei,105600,45.1248255,25.7294665
24,Strada Plevnei,105600,45.1243076,25.7299918
23,Strada Plevnei,105600,45.1245022,25.7291937
21,Strada Plevnei,105600,45.1242589,25.7295547
24,Strada Plevnei,105600,45.1233362,25.7311666
22,Strada Plevnei,105600,45.1231584,25.7312505
20,Strada Plevnei,105600,45.1229874,25.7314621
18,Strada Plevnei,105600,45.1227958,25.7316189
18,Strada Plevnei,105600,45.1227025,25.7316774
3,Strada Plevnei,105600,45.1216775,25.7316570
1,Strada Plevnei,105600,45.1215026,25.7315952
8,Strada Plevnei,105600,45.1211952,25.7319854
6,Strada Plevnei,105600,45.1212040,25.7323752
2,Strada Plevnei,105600,45.1209051,25.7322675
49,Bulevardul Culturii,105600,45.1205542,25.7329629
47,Bulevardul Culturii,105600,45.1206076,25.7328144
28,Strada Schelelor,105600,45.1192128,25.7342432
30,Strada Schelelor,105600,45.1193073,25.7341803
20,Strada Schelelor,105600,45.1183176,25.7345350
22,Strada Schelelor,105600,45.1184317,25.7345178
18,Strada Schelelor,105600,45.1181837,25.7345870
14A,Strada Schelelor,105600,45.1180322,25.7350760
16,Strada Schelelor,105600,45.1180803,25.7346485
14,Strada Schelelor,105600,45.1179599,25.7348032
22,Strada Castanilor,105600,45.1207439,25.7342295
28,Strada Castanilor,105600,45.1206233,25.7336765
9,Strada Castanilor,105600,45.1207133,25.7353051
7,Strada Castanilor,105600,45.1206108,25.7355423
14,Strada Castanilor,105600,45.1210317,25.7350673
6,Strada Castanilor,105600,45.1212169,25.7358046
5,Strada Castanilor,105600,45.1207878,25.7356843
3A,Strada Castanilor,105600,45.1208548,25.7359430
2A,Strada Castanilor,105600,45.1212970,25.7361203
2,Strada Castanilor,105600,45.1213485,25.7363870
3,Strada Castanilor,105600,45.1209919,25.7360618
7,Strada Primăverii,105600,45.1208939,25.7368545
1,Strada Primăverii,105600,45.1203623,25.7369066
3,Strada Primăverii,105600,45.1202103,25.7369493
7,Strada Primăverii,105600,45.1197922,25.7369975
12,Strada 22 Decembrie 1989,105600,45.1207538,25.7363176
16,Strada 22 Decembrie 1989,105600,45.1205163,25.7361474
18,Strada 22 Decembrie 1989,105600,45.1204718,25.7358234
20,Strada 22 Decembrie 1989,105600,45.1202368,25.7358458
24,Strada 22 Decembrie 1989,105600,45.1198059,25.7360349
26,Strada 22 Decembrie 1989,105600,45.1195511,25.7360171
21,Strada 22 Decembrie 1989,105600,45.1195146,25.7364570
28,Strada 22 Decembrie 1989,105600,45.1192156,25.7361597
30,3802408,105600,45.1190947,25.7362227
9,Strada George Barițiu,105600,45.1239482,25.7323328
11,Strada George Barițiu,105600,45.1238771,25.7321522
15,Strada George Barițiu,105600,45.1236287,25.7317904
15A,Strada George Barițiu,105600,45.1233436,25.7318030
17,Strada George Barițiu,105600,45.1234094,25.7314736
19,Strada George Barițiu,105600,45.1232076,25.7315511
2,Strada Simion Bărnuțiu,105600,45.1260016,25.7312113
4,Strada Simion Bărnuțiu,105600,45.1259491,25.7309866
8,Strada Simion Bărnuțiu,105600,45.1258265,25.7303722
7,Strada Simion Bărnuțiu,105600,45.1254962,25.7304023
15,Strada Simion Bărnuțiu,105600,45.1251210,25.7295450
16,Strada Simion Bărnuțiu,105600,45.1253718,25.7289812
20,Strada Mărășești,105600,45.1286042,25.7294417
22,Strada Mărășești,105600,45.1285460,25.7291573
26,Strada Mărășești,105600,45.1285896,25.7286470
32,Strada Mărășești,105600,45.1282854,25.7282474
15B,Strada Mărășești,105600,45.1279907,25.7285786
15C,Strada Mărășești,105600,45.1279354,25.7284883
30,Strada Mărășești,105600,45.1284423,25.7282839
21,Strada Mărășești,105600,45.1278505,25.7278213
11,Strada Mărășești,105600,45.1286595,25.7315392
8,Strada Golești,105600,45.1311892,25.7327618
3,Strada Golești,105600,45.1303785,25.7330043
14,Strada Ion Câmpineanu,105600,45.1299608,25.7293491
20,Strada Ion Câmpineanu,105600,45.1303179,25.7293968
19,Strada Ion Câmpineanu,105600,45.1297079,25.7278893
23,Strada Ion Câmpineanu,105600,45.1294055,25.7271899
23,Strada Ion Câmpineanu,105600,45.1294236,25.7272982
25,Strada Ion Câmpineanu,105600,45.1293482,25.7270934
89,Strada Plevnei,105600,45.1279973,25.7252724
54,Strada Plevnei,105600,45.1282750,25.7265532
75A,Strada Plevnei,105600,45.1279228,25.7268677
83,Strada Plevnei,105600,45.1278245,25.7259286
81,Strada Plevnei,105600,45.1279050,25.7261125
85,Strada Plevnei,105600,45.1278770,25.7257655
65,Strada Plevnei,105600,45.1269888,25.7277340
59,Strada Plevnei,105600,45.1267117,25.7278354
57A,Strada Plevnei,105600,45.1266499,25.7276887
57,Strada Plevnei,105600,45.1265663,25.7278291
53,Strada Plevnei,105600,45.1264491,25.7277975
55,Strada Plevnei,105600,45.1265403,25.7276445
86,Strada B.P. Hașdeu,105600,45.1319263,25.7347942
88,Strada B.P. Hașdeu,105600,45.1323100,25.7346624
2,Strada Bobâlna,105600,45.1319808,25.7349884
2A,Strada Bobâlna,105600,45.1320068,25.7351921
4,Strada Bobâlna,105600,45.1320719,25.7354427
16,Strada Bobâlna,105600,45.1326368,25.7371760
21,Strada Bobâlna,105600,45.1334628,25.7364198
29,Strada Bobâlna,105600,45.1330644,25.7374172
31,Strada Bobâlna,105600,45.1331947,25.7376285
33,Strada Bobâlna,105600,45.1333463,25.7377825
20,Strada Bobâlna,105600,45.1330255,25.7383195
37,Strada Bobâlna,105600,45.1333854,25.7381513
43,Strada Bobâlna,105600,45.1337601,25.7389550
38,Strada Bobâlna,105600,45.1338511,25.7409248
49,Strada Bobâlna,105600,45.1341415,25.7407926
51,Strada Bobâlna,105600,45.1342055,25.7408523
63,Strada Bobâlna,105600,45.1346105,25.7421116
69,Strada Bobâlna,105600,45.1345826,25.7424853
46,Strada Bobâlna,105600,45.1342159,25.7429779
48,Strada Bobâlna,105600,45.1342301,25.7430893
50,Strada Bobâlna,105600,45.1343863,25.7431977
56,Strada Bobâlna,105600,45.1344521,25.7435021
52,Strada Bobâlna,105600,45.1344297,25.7434041
79,Strada Bobâlna,105600,45.1348689,25.7432685
60,Strada Bobâlna,105600,45.1345521,25.7438465
58,Strada Bobâlna,105600,45.1345120,25.7436577
83,Strada Bobâlna,105600,45.1348111,25.7436563
85,Strada Bobâlna,105600,45.1349758,25.7437619
87,Strada Bobâlna,105600,45.1349478,25.7439377
91,Strada Bobâlna,105600,45.1350097,25.7443089
93,Strada Bobâlna,105600,45.1350533,25.7444189
64,Strada Bobâlna,105600,45.1347099,25.7444055
95,Strada Bobâlna,105600,45.1350986,25.7446563
89,Strada Bobâlna,105600,45.1350290,25.7441719
66,Strada Bobâlna,105600,45.1347926,25.7446435
68,Strada Bobâlna,105600,45.1348574,25.7448831
97,Strada Bobâlna,105600,45.1351346,25.7447659
97A,Strada Bobâlna,105600,45.1352273,25.7447887
99,Strada Bobâlna,105600,45.1351903,25.7450121
99,Strada Bobâlna,105600,45.1352356,25.7451703
72,Strada Bobâlna,105600,45.1348457,25.7451835
74,Strada Bobâlna,105600,45.1350564,25.7457657
76,Strada Bobâlna,105600,45.1351382,25.7459622
82,Strada Bobâlna,105600,45.1351895,25.7464736
80,Strada Bobâlna,105600,45.1351888,25.7463154
78,Strada Bobâlna,105600,45.1350700,25.7462390
70,Strada Bobâlna,105600,45.1349307,25.7450229
3,Strada Rezervoarelor,105600,45.1362510,25.7466253
10,Strada Rezervoarelor,105600,45.1366370,25.7468102
7A,Strada Rezervoarelor,105600,45.1366246,25.7463073
9,Strada Rezervoarelor,105600,45.1367515,25.7461958
22,Strada Rezervoarelor,105600,45.1373746,25.7464546
22A,Strada Rezervoarelor,105600,45.1375293,25.7465096
20,Strada Rezervoarelor,105600,45.1372482,25.7464316
24,Strada Rezervoarelor,105600,45.1376734,25.7462558
15,Strada Rezervoarelor,105600,45.1375938,25.7457627
19,Strada Muscelului,105600,45.1370066,25.7449369
27A,Strada Muscelului,105600,45.1374730,25.7440303
10,Strada Muscelului,105600,45.1366570,25.7459750
6,Strada Muscelului,105600,45.1361794,25.7460500
26,Strada Muscelului,105600,45.1379800,25.7441353
24,Strada Muscelului,105600,45.1375608,25.7448472
12,Strada Muscelului,105600,45.1366820,25.7458393
30,Strada Muscelului,105600,45.1382494,25.7439829
40,Strada Muscelului,105600,45.1386390,25.7426452
47A,Strada Muscelului,105600,45.1389466,25.7416019
42,Strada Muscelului,105600,45.1392492,25.7418610
54,Strada Muscelului,105600,45.1402592,25.7399614
48,Strada Muscelului,105600,45.1399777,25.7407075
60,Strada Muscelului,105600,45.1403046,25.7394518
70B,Strada Muscelului,105600,45.1408893,25.7388575
76A,Strada Muscelului,105600,45.1414712,25.7374545
78A,Strada Muscelului,105600,45.1416773,25.7369547
59,Strada Muscelului,105600,45.1411990,25.7370644
61,Strada Muscelului,105600,45.1413702,25.7367542
59A,Strada Muscelului,105600,45.1412112,25.7367620
63,Strada Muscelului,105600,45.1417434,25.7364975
63A,Strada Muscelului,105600,45.1420851,25.7364701
80A,Strada Muscelului,105600,45.1422985,25.7369379
80,Strada Muscelului,105600,45.1420863,25.7369694
65,Strada Muscelului,105600,45.1426946,25.7360759
96,Strada Muscelului,105600,45.1440154,25.7369479
106,Strada Muscelului,105600,45.1443761,25.7351966
108,Strada I. H. Rădulescu,105600,45.1443424,25.7333574
106,Strada I. H. Rădulescu,105600,45.1440951,25.7332523
108,Strada I. H. Rădulescu,105600,45.1442728,25.7332137
141,Strada I. H. Rădulescu,105600,45.1436472,25.7323028
139,Strada I. H. Rădulescu,105600,45.1434450,25.7324755
98,Strada I. H. Rădulescu,105600,45.1434664,25.7339893
94,Strada I. H. Rădulescu,105600,45.1433025,25.7345116
86,Strada I. H. Rădulescu,105600,45.1423596,25.7340604
88,Strada I. H. Rădulescu,105600,45.1425272,25.7340417
115,Strada I. H. Rădulescu,105600,45.1417870,25.7337770
117,Strada I. H. Rădulescu,105600,45.1419344,25.7337512
113,Strada I. H. Rădulescu,105600,45.1413862,25.7328765
74,Strada I. H. Rădulescu,105600,45.1411754,25.7351012
93,Strada I. H. Rădulescu,105600,45.1400918,25.7345626
87,Strada I. H. Rădulescu,105600,45.1398260,25.7349593
69,Strada I. H. Rădulescu,105600,45.1406145,25.7352440
50,Strada I. H. Rădulescu,105600,45.1384028,25.7361975
69A,Strada I. H. Rădulescu,105600,45.1383645,25.7358097
69,Strada I. H. Rădulescu,105600,45.1384182,25.7356302
71,Strada I. H. Rădulescu,105600,45.1385947,25.7355688
48,Strada I. H. Rădulescu,105600,45.1382509,25.7363636
46,Strada I. H. Rădulescu,105600,45.1381317,25.7364744
36,Strada I. H. Rădulescu,105600,45.1373914,25.7367019
51,Strada I. H. Rădulescu,105600,45.1368241,25.7365363
18,Strada I. H. Rădulescu,105600,45.1360702,25.7373006
35,Strada I. H. Rădulescu,105600,45.1351650,25.7366548
7,Strada I. H. Rădulescu,105600,45.1343026,25.7346442
9,Strada I. H. Rădulescu,105600,45.1345590,25.7347110
97,Strada B.P. Hașdeu,105600,45.1334068,25.7341694
73,Strada B.P. Hașdeu,105600,45.1294700,25.7355291
77,Strada B.P. Hașdeu,105600,45.1296668,25.7354044
73,Strada B.P. Hașdeu,105600,45.1293687,25.7357182
67,Strada B.P. Hașdeu,105600,45.1290535,25.7357674
69,Strada B.P. Hașdeu,105600,45.1292036,25.7357413
53,Strada B.P. Hașdeu,105600,45.1283307,25.7364024
65,Strada B.P. Hașdeu,105600,45.1289812,25.7354893
5A,Strada Henri Coandă,105600,45.1276276,25.7337875
11,Strada Henri Coandă,105600,45.1273540,25.7344310
1,Aleea Smârdan,105600,45.1270961,25.7362530
3,Aleea Smârdan,105600,45.1271444,25.7361092
44,Strada Republicii,105600,45.1271092,25.7359213
1,Strada Bogdan Vasile,105600,45.1349225,25.7315414
6,Strada Bogdan Vasile,105600,45.1352926,25.7316825
19,Strada Bogdan Vasile,105600,45.1360646,25.7318014
29,Strada Bogdan Vasile,105600,45.1372723,25.7310736
63,Strada Bogdan Vasile,105600,45.1397349,25.7291966
6,Aleea Șoimului,105600,45.1293676,25.7419681
11,Strada Sondei,105600,45.1209717,25.7407591
16,Strada Maramureș,105600,45.1218556,25.7399581
3,Strada Bruxelles,105600,45.1149362,25.7392502
5,Strada Sondei,105600,45.1207582,25.7400915
8,Strada Maramureș,105600,45.1213872,25.7387614
2,Strada Avram Iancu,105600,45.1246453,25.7433679
4,Strada Avram Iancu,105600,45.1247135,25.7434509
6A,Strada Avram Iancu,105600,45.1248224,25.7436756
6,Strada Avram Iancu,105600,45.1247894,25.7436110
8,Strada Avram Iancu,105600,45.1249272,25.7438272
10,Strada Avram Iancu,105600,45.1249939,25.7440335
14,Strada Avram Iancu,105600,45.1250909,25.7442476
12,Strada Avram Iancu,105600,45.1250468,25.7441524
5,Strada Avram Iancu,105600,45.1251150,25.7435281
3,Strada Avram Iancu,105600,45.1250213,25.7433849
7,Strada Avram Iancu,105600,45.1251752,25.7437052
11,Strada Avram Iancu,105600,45.1254180,25.7442651
9,Strada Avram Iancu,105600,45.1252185,25.7439410
17,Strada Avram Iancu,105600,45.1255692,25.7445736
15,Strada Avram Iancu,105600,45.1255088,25.7444564
13,Strada Avram Iancu,105600,45.1254775,25.7443819
16,Strada Avram Iancu,105600,45.1251977,25.7443978
18,Strada Avram Iancu,105600,45.1252727,25.7445328
26,Strada Avram Iancu,105600,45.1254567,25.7450400
22,Strada Avram Iancu,105600,45.1253959,25.7447855
24,Strada Avram Iancu,105600,45.1254470,25.7449335
34,Strada Avram Iancu,105600,45.1257253,25.7457349
36,Strada Avram Iancu,105600,45.1258031,25.7459461
19,Strada Avram Iancu,105600,45.1256748,25.7448785
21,Strada Avram Iancu,105600,45.1257570,25.7449568
33,Strada Avram Iancu,105600,45.1260877,25.7458658
27,Strada Avram Iancu,105600,45.1259235,25.7454946
29,Strada Avram Iancu,105600,45.1259617,25.7455701
31,Strada Avram Iancu,105600,45.1260608,25.7456543
43,Strada Avram Iancu,105600,45.1263629,25.7464694
37,Strada Avram Iancu,105600,45.1262237,25.7461409
48,Strada Avram Iancu,105600,45.1261502,25.7466852
42,Strada Avram Iancu,105600,45.1259662,25.7462519
38,Strada Avram Iancu,105600,45.1258684,25.7460050
4,Strada Progresului,105600,45.1259750,25.7470196
8,Strada Progresului,105600,45.1260336,25.7474190
10,Strada Progresului,105600,45.1261006,25.7475033
6,Strada Progresului,105600,45.1260014,25.7472376
16,Strada Progresului,105600,45.1263979,25.7484202
20,Strada Progresului,105600,45.1264349,25.7486879
26,Strada Progresului,105600,45.1265377,25.7491858
28,Strada Progresului,105600,45.1265073,25.7493309
23,Strada Progresului,105600,45.1269461,25.7488617
25,Strada Progresului,105600,45.1269880,25.7489933
21,Strada Progresului,105600,45.1268588,25.7486522
19,Strada Progresului,105600,45.1268382,25.7484411
17,Strada Progresului,105600,45.1268659,25.7481052
15,Strada Progresului,105600,45.1267967,25.7479338
9,Strada Progresului,105600,45.1266563,25.7475836
7,Strada Progresului,105600,45.1266466,25.7474455
5,Strada Progresului,105600,45.1266422,25.7472939
12,Strada Progresului,105600,45.1265001,25.7463114
2,Strada Oradea,105600,45.1268196,25.7496341
10,Strada Oradea,105600,45.1270605,25.7509164
8,Strada Oradea,105600,45.1270576,25.7507558
9,Strada Oradea,105600,45.1272625,25.7507146
7,Strada Oradea,105600,45.1272108,25.7504286
10,Strada Făgăraș,105600,45.1269423,25.7518866
8,Strada Făgăraș,105600,45.1268813,25.7515895
1,Strada Ciceu,105600,45.1263608,25.7500087
7A,Strada Ciceu,105600,45.1265208,25.7508584
7,Strada Ciceu,105600,45.1264909,25.7506663
11,Strada Ciceu,105600,45.1265778,25.7512476
19,Strada Ciceu,105600,45.1268565,25.7522065
6,Strada Ciceu,105600,45.1263132,25.7511764
8,Strada Independenței,105600,45.1259208,25.7524108
15,Strada Beiuș,105600,45.1272809,25.7492907
14,Strada Beiuș,105600,45.1276027,25.7485318
18,Strada Petre Liciu,105600,45.1272577,25.7484633
12,Strada Petre Liciu,105600,45.1271007,25.7478129
10,Strada Petre Liciu,105600,45.1270871,25.7476538
8,Strada Petre Liciu,105600,45.1268858,25.7470264
4,Strada Petre Liciu,105600,45.1269032,25.7465469
2,Strada Petre Liciu,105600,45.1268780,25.7464598
11,Strada Conductelor,105600,45.1266906,25.7466782
8,Strada Conductelor,105600,45.1267005,25.7459547
3,Strada B.P. Hașdeu,105600,45.1248068,25.7421765
7,Strada B.P. Hașdeu,105600,45.1249154,25.7418651
5,Strada B.P. Hașdeu,105600,45.1248221,25.7419749
24,Strada B.P. Hașdeu,105600,45.1254637,25.7417350
11,Strada B.P. Hașdeu,105600,45.1253851,25.7412565
13,Strada B.P. Hașdeu,105600,45.1254498,25.7411729
30,Strada B.P. Hașdeu,105600,45.1257720,25.7411896
32,Strada B.P. Hașdeu,105600,45.1258216,25.7410998
19,Strada B.P. Hașdeu,105600,45.1257648,25.7402891
40,Strada B.P. Hașdeu,105600,45.1260453,25.7407674
38,Strada B.P. Hașdeu,105600,45.1259827,25.7408432
36,Strada B.P. Hașdeu,105600,45.1259145,25.7409819
34,Strada B.P. Hașdeu,105600,45.1259656,25.7411551
46,Strada B.P. Hașdeu,105600,45.1262716,25.7406976
44,Strada B.P. Hașdeu,105600,45.1263728,25.7410007
27,Strada B.P. Hașdeu,105600,45.1265810,25.7393953
29,Strada B.P. Hașdeu,105600,45.1266419,25.7393480
31A,Strada B.P. Hașdeu,105600,45.1266799,25.7388502
33,Strada B.P. Hașdeu,105600,45.1268812,25.7388907
41,Strada B.P. Hașdeu,105600,45.1271684,25.7384154
56,Strada B.P. Hașdeu,105600,45.1267623,25.7400787
60,Strada B.P. Hașdeu,105600,45.1270654,25.7392958
11,Strada Aurel Vlaicu,105600,45.1394002,25.7381819
1 Bis,Aleea Viitorului,105600,45.1379781,25.7247003
14,Strada Poieniței,105600,45.1420192,25.7359619
10,Strada Aurel Vlaicu,105600,45.1387351,25.7376737
4,Aleea Panduri,105600,45.1383692,25.7266685
16,Strada Aurel Vlaicu,105600,45.1390946,25.7380760
3,Strada Poieniței,105600,45.1420959,25.7351056
12,Strada Aurel Vlaicu,105600,45.1388790,25.7376986
2,Strada Aurel Vlaicu,105600,45.1383457,25.7366204
90,Strada B.P. Hașdeu,105600,45.1326913,25.7350172
13A,Strada Pomilor,105600,45.1387449,25.7378825
198,Bulevardul Carol I,105600,45.1373686,25.7264745
2,Strada Siretului,105600,45.1426321,25.7213483
14,Strada Romaniței,105600,45.1405895,25.7328149
11,Strada Crângului,105600,45.1371809,25.7303163
4,Strada Aurel Vlaicu,105600,45.1384087,25.7367427
9A,Strada Liliacului,105600,45.1386591,25.7275318
14,Strada Aurel Vlaicu,105600,45.1389755,25.7378908
92,Strada B.P. Hașdeu,105600,45.1327832,25.7346908
9,Strada Anotimpului,105600,45.1426511,25.7354630
7,Strada Crângului,105600,45.1368502,25.7301643
15A,Strada Bucegi,105600,45.1372961,25.7329710
24A,Strada Romaniței,105600,45.1412827,25.7320718
50,Strada Romaniței,105600,45.1425586,25.7311965
7,Strada Dimitrie Bolintineanu,105600,45.1271873,25.7440475
10A,Strada Dimitrie Bolintineanu,105600,45.1271840,25.7449583
15,Strada Dimitrie Bolintineanu,105600,45.1275773,25.7447715
14,Strada Dimitrie Bolintineanu,105600,45.1273152,25.7452502
13,Strada Dimitrie Bolintineanu,105600,45.1273717,25.7445648
11,Strada Dimitrie Bolintineanu,105600,45.1273009,25.7443571
12,Strada Dimitrie Bolintineanu,105600,45.1272141,25.7450396
6,Strada Dimitrie Bolintineanu,105600,45.1269878,25.7444834
8,Strada Dimitrie Bolintineanu,105600,45.1270539,25.7446595
10,Strada Dimitrie Bolintineanu,105600,45.1270657,25.7448182
2,Strada Dimitrie Bolintineanu,105600,45.1267854,25.7440208
4,Strada Dimitrie Bolintineanu,105600,45.1268681,25.7442894
21,Strada Constantin Stere,105600,45.1269051,25.7448518
40,Strada Constantin Stere,105600,45.1268094,25.7458924
22,Strada Constantin Stere,105600,45.1263428,25.7446368
32,Strada Constantin Stere,105600,45.1266342,25.7452485
34,Strada Constantin Stere,105600,45.1266628,25.7454139
30,Strada Constantin Stere,105600,45.1264767,25.7452572
20,Strada Constantin Stere,105600,45.1262190,25.7443533
29,Strada Constantin Stere,105600,45.1274830,25.7462949
46,Strada Constantin Stere,105600,45.1273089,25.7467104
48,Strada Constantin Stere,105600,45.1275316,25.7471279
40,Strada Dimitrie Bolintineanu,105600,45.1280511,25.7476488
28,Strada Dimitrie Bolintineanu,105600,45.1277330,25.7465423
30,Strada Dimitrie Bolintineanu,105600,45.1277505,25.7466792
32,Strada Dimitrie Bolintineanu,105600,45.1278505,25.7469995
34,Strada Dimitrie Bolintineanu,105600,45.1278847,25.7471051
36,Strada Dimitrie Bolintineanu,105600,45.1279684,25.7473097
29,Strada Dimitrie Bolintineanu,105600,45.1280473,25.7468342
12,Strada Țițeiului,105600,45.1281505,25.7468799
22,Strada Dimitrie Bolintineanu,105600,45.1276110,25.7460255
21,Strada Dimitrie Bolintineanu,105600,45.1278098,25.7458501
19,Strada Dimitrie Bolintineanu,105600,45.1277508,25.7456507
8,Strada Țițeiului,105600,45.1281108,25.7464601
10,Strada Țițeiului,105600,45.1281506,25.7466134
2A,Strada Țițeiului,105600,45.1279117,25.7457293
6,Strada Țițeiului,105600,45.1280448,25.7461925
3,Strada Țițeiului,105600,45.1280960,25.7456921
1,Strada Țițeiului,105600,45.1280090,25.7453862
7,Strada Țițeiului,105600,45.1282295,25.7462446
5,Strada Țițeiului,105600,45.1281486,25.7458898
17,Strada Țițeiului,105600,45.1284929,25.7471678
13,Strada Țițeiului,105600,45.1283969,25.7467911
15,Strada Țițeiului,105600,45.1284354,25.7469458
11,Strada Țițeiului,105600,45.1283658,25.7466347
9A,Strada Țițeiului,105600,45.1283239,25.7465540
9,Strada Țițeiului,105600,45.1283098,25.7464437
21,Strada Țițeiului,105600,45.1286092,25.7475109
25-27,Strada Țițeiului,105600,45.1286991,25.7478409
18,Strada Țițeiului,105600,45.1284045,25.7475096
20,Strada Țițeiului,105600,45.1284847,25.7478179
20A,Strada Țițeiului,105600,45.1284455,25.7476614
23,Strada Țițeiului,105600,45.1286603,25.7476860
17A,Strada Țițeiului,105600,45.1284697,25.7470624
38,Strada Tineretului,105600,45.1287315,25.7472338
34,Strada Tineretului,105600,45.1285653,25.7468984
36,Strada Tineretului,105600,45.1286681,25.7471303
24,Strada Tineretului,105600,45.1282378,25.7457541
22,Strada Tineretului,105600,45.1281128,25.7455035
23,Strada Tineretului,105600,45.1284513,25.7456539
29,Strada Tineretului,105600,45.1287332,25.7464638
27,Strada Tineretului,105600,45.1286830,25.7462259
33,Strada Tineretului,105600,45.1288705,25.7468610
4,Strada George Coșbuc,105600,45.1290542,25.7473629
8,Strada George Coșbuc,105600,45.1294080,25.7470463
10,Strada George Coșbuc,105600,45.1295199,25.7469919
58-58A,Strada Alexandru Ioan Cuza,105600,45.1300822,25.7467774
1,Strada George Coșbuc,105600,45.1289664,25.7467698
3,Strada George Coșbuc,105600,45.1290908,25.7468040
5,Strada George Coșbuc,105600,45.1292046,25.7468280
5,Strada George Coșbuc,105600,45.1293290,25.7464276
50,Strada Alexandru Ioan Cuza,105600,45.1297103,25.7460029
52,Strada Alexandru Ioan Cuza,105600,45.1296702,25.7462243
73,Strada Alexandru Ioan Cuza,105600,45.1304545,25.7465276
71,Strada Alexandru Ioan Cuza,105600,45.1301507,25.7459522
44,Strada Alexandru Ioan Cuza,105600,45.1291996,25.7451242
40,Strada Alexandru Ioan Cuza,105600,45.1288031,25.7443126
49,Strada Alexandru Ioan Cuza,105600,45.1293170,25.7444270
47,Strada Alexandru Ioan Cuza,105600,45.1291437,25.7440731
41,Strada Alexandru Ioan Cuza,105600,45.1288717,25.7434308
30,Strada Alexandru Ioan Cuza,105600,45.1285366,25.7435520
32,Strada Alexandru Ioan Cuza,105600,45.1285946,25.7437309
28,Strada Alexandru Ioan Cuza,105600,45.1284753,25.7434131
29,Strada Alexandru Ioan Cuza,105600,45.1282555,25.7423552
20,Strada Alexandru Ioan Cuza,105600,45.1281111,25.7426267
23,Strada Alexandru Ioan Cuza,105600,45.1280847,25.7414499
11,Strada Alexandru Ioan Cuza,105600,45.1274494,25.7404523
9,Strada Alexandru Ioan Cuza,105600,45.1274061,25.7403405
4,Strada Conductelor,105600,45.1279746,25.7450713
6,Strada Conductelor,105600,45.1277912,25.7450899
9,Strada Conductelor,105600,45.1275263,25.7457282
62,Strada Alexandru Ioan Cuza,105600,45.1302368,25.7473781
66,Strada Alexandru Ioan Cuza,105600,45.1304189,25.7476301
70,Strada Alexandru Ioan Cuza,105600,45.1305211,25.7478745
20,Strada 1 Mai,105600,45.1255415,25.7379135
18,Strada 1 Mai,105600,45.1254917,25.7377290
4,Strada Maramureș,105600,45.1211356,25.7384534
44,Bulevardul Nicolae Bălcescu,105600,45.1141641,25.7461854
2,Strada Sălaj,105600,45.1177320,25.7462378
27,Strada Maramureș,105600,45.1226687,25.7416592
14,Strada Maramureș,105600,45.1216146,25.7392273
52,Strada Mihail Kogălniceanu,105600,45.1245122,25.7405465
9,Strada Maramureș,105600,45.1218341,25.7390817
29,Strada Maramureș,105600,45.1227452,25.7419412
54,Strada Mihail Kogălniceanu,105600,45.1245614,25.7406764
5,Strada Maramureș,105600,45.1217237,25.7387749
58,Strada Mihail Kogălniceanu,105600,45.1247576,25.7409299
23,Strada Maramureș,105600,45.1226216,25.7412782
1,Strada Câmpului,105600,45.1125307,25.7469706
12,Strada Câmpului,105600,45.1135141,25.7489122
9A,Bulevardul Nicolae Bălcescu,105600,45.1100234,25.7465550
6,Aleea Nucilor,105600,45.1111422,25.7500098
19,Strada Mioriței,105600,45.1102379,25.7486288
4,Strada Solidarității,105600,45.1290949,25.7455127
8,Strada Horia,105600,45.1289693,25.7452899
6,Strada Horia,105600,45.1288725,25.7453417
4,Strada Horia,105600,45.1288023,25.7454962
9,Strada Horia,105600,45.1288443,25.7449023
1,Strada Horia,105600,45.1284868,25.7452642
3,Strada Horia,105600,45.1285400,25.7452057
14,Strada Ion Creangă,105600,45.1282687,25.7441793
16,Strada Ion Creangă,105600,45.1283223,25.7443552
18,Strada Ion Creangă,105600,45.1283298,25.7445346
10,Strada Ion Creangă,105600,45.1281197,25.7438538
6,Strada Ion Creangă,105600,45.1278804,25.7434887
3,Strada Tineretului,105600,45.1276046,25.7435015
1,Strada Tineretului,105600,45.1276180,25.7433083
9,Strada Tineretului,105600,45.1278701,25.7441184
15,Strada Tineretului,105600,45.1280393,25.7445247
8,Strada Tineretului,105600,45.1276814,25.7442859
12,Strada Tineretului,105600,45.1278207,25.7445352
12A,Strada Tineretului,105600,45.1278499,25.7446189
14,Strada Tineretului,105600,45.1278250,25.7448386
16,Strada Tineretului,105600,45.1278575,25.7449346
3,Strada Ion Creangă,105600,45.1280188,25.7431485
2,Strada Popa Șapcă,105600,45.1365770,25.7373593
19,Strada Popa Șapcă,105600,45.1381068,25.7395187
21,Strada Popa Șapcă,105600,45.1381871,25.7396886
17,Strada Popa Șapcă,105600,45.1380664,25.7394233
15,Strada Popa Șapcă,105600,45.1380381,25.7393531
16,Strada Popa Șapcă,105600,45.1379146,25.7401949
31,Strada Popa Șapcă,105600,45.1384281,25.7407522
23A,Strada Dobrogeanu Gherea,105600,45.1393490,25.7407594
23,Strada Dobrogeanu Gherea,105600,45.1392290,25.7405531
30,Strada Dobrogeanu Gherea,105600,45.1388815,25.7405874
32,Strada Dobrogeanu Gherea,105600,45.1390179,25.7407647
26,Strada Dobrogeanu Gherea,105600,45.1385448,25.7399855
17,Strada Dobrogeanu Gherea,105600,45.1386899,25.7394457
14,Strada Dobrogeanu Gherea,105600,45.1378687,25.7388653
12,Strada Dobrogeanu Gherea,105600,45.1378451,25.7386690
22,Strada Dobrogeanu Gherea,105600,45.1382589,25.7394344
1,Strada Pomilor,105600,45.1380417,25.7371570
9,Strada Pomilor,105600,45.1383111,25.7376991
17,Strada Pomilor,105600,45.1388008,25.7385644
22,Strada Pomilor,105600,45.1390215,25.7395203
26,Strada Pomilor,105600,45.1390279,25.7399075
39,Strada Pomilor,105600,45.1396862,25.7398315
41,Strada Pomilor,105600,45.1396850,25.7399484
31,Strada Pomilor,105600,45.1393578,25.7395410
29,Strada Pomilor,105600,45.1392920,25.7394779
35,Strada Pomilor,105600,45.1395013,25.7397068
37,Strada Pomilor,105600,45.1395473,25.7398672
17,Strada Aurel Vlaicu,105600,45.1399043,25.7391687
26,Strada Aurel Vlaicu,105600,45.1395774,25.7391660
20,Strada Aurel Vlaicu,105600,45.1395129,25.7388009
18,Strada Aurel Vlaicu,105600,45.1391034,25.7382164
8,Strada Aurel Vlaicu,105600,45.1386958,25.7372591
6,Strada Aurel Vlaicu,105600,45.1385016,25.7370797
6A,Strada Aurel Vlaicu,105600,45.1385712,25.7372432
7,Strada Aurel Vlaicu,105600,45.1392247,25.7375768
13,Strada Toamnei,105600,45.1399184,25.7380261
15,Strada Toamnei,105600,45.1400593,25.7383030
5A,Strada Toamnei,105600,45.1394613,25.7369088
8,Strada Libertății,105600,45.1394744,25.7364457
20,Strada Libertății,105600,45.1399995,25.7375353
24,Strada Libertății,105600,45.1401312,25.7378809
16,Strada Libertății,105600,45.1397543,25.7371694
28,Strada Libertății,105600,45.1402490,25.7384031
21,Strada Libertății,105600,45.1405759,25.7381058
13,Strada Libertății,105600,45.1402120,25.7373760
4,Strada Gheorghe Doja,105600,45.1403654,25.7366734
6,Strada Gheorghe Doja,105600,45.1404294,25.7368280
2,Strada Gheorghe Doja,105600,45.1402826,25.7365269
7,Strada Gheorghe Doja,105600,45.1405685,25.7364957
13,Strada Gheorghe Doja,105600,45.1407484,25.7369718
8,Strada Poieniței,105600,45.1418838,25.7353234
6,Strada Poieniței,105600,45.1417302,25.7352065
7,Strada Poieniței,105600,45.1422959,25.7357024
7,Strada Anotimpului,105600,45.1425670,25.7352957
47,Strada Siretului,105600,45.1443141,25.7305970
53,Strada Siretului,105600,45.1443580,25.7311879
56,Strada Siretului,105600,45.1440464,25.7304465
23,Strada Romaniței,105600,45.1428638,25.7301837
28,Strada Romaniței,105600,45.1410502,25.7319332
1,Strada Dunării,105600,45.1387441,25.7250351
9,Strada Dunării,105600,45.1393706,25.7259392
8,Strada Dunării,105600,45.1393188,25.7265023
10,Strada Dunării,105600,45.1393015,25.7266734
2,Strada Liliacului,105600,45.1376607,25.7264249
10,Strada Liliacului,105600,45.1380815,25.7271819
3,Strada Liliacului,105600,45.1382648,25.7266735
9,Strada Liliacului,105600,45.1385876,25.7273829
16,Strada Liliacului,105600,45.1384233,25.7278000
3A,Aleea Panduri,105600,45.1385689,25.7264310
1,Aleea Panduri,105600,45.1383453,25.7259240
3,Aleea Panduri,105600,45.1384902,25.7262642
5,Aleea Panduri,105600,45.1386925,25.7267016
7,Aleea Panduri,105600,45.1387791,25.7268819
13,Aleea Panduri,105600,45.1390354,25.7271406
11,Aleea Panduri,105600,45.1389214,25.7272072
6,Strada Crângului,105600,45.1361295,25.7295045
1,Strada Crângului,105600,45.1359081,25.7283636
11A,Strada Crângului,105600,45.1370053,25.7306835
9,Strada Crângului,105600,45.1368823,25.7304320
14,Strada Bucegi,105600,45.1382268,25.7333017
13,Strada Câmpului,105600,45.1131971,25.7481792
4,Strada Câmpului,105600,45.1131047,25.7488273
8,Strada Câmpului,105600,45.1133133,25.7489058
20,Strada Câmpului,105600,45.1144254,25.7496037
23,Strada Câmpului,105600,45.1145906,25.7491438
25,Strada Câmpului,105600,45.1149227,25.7495216
21,Strada Câmpului,105600,45.1144464,25.7490830
3,Strada Câmpului,105600,45.1125852,25.7472062
35,Strada Câmpului,105600,45.1161001,25.7517665
46,Strada Câmpului,105600,45.1160172,25.7522952
1,Strada Izvoarelor,105600,45.1169167,25.7520084
2,Strada Izvoarelor,105600,45.1163014,25.7519519
3BIS,Strada Izvoarelor,105600,45.1163216,25.7523347
5,Strada Izvoarelor,105600,45.1162524,25.7525007
3A,Strada Izvoarelor,105600,45.1165016,25.7522496
3,Strada Izvoarelor,105600,45.1166536,25.7521772
4A,Strada Izvoarelor,105600,45.1155229,25.7524506
29,Strada Izvoarelor,105600,45.1150231,25.7536791
21A,Strada Izvoarelor,105600,45.1152642,25.7532481
19,Strada Izvoarelor,105600,45.1153707,25.7530774
15,Strada Izvoarelor,105600,45.1154952,25.7528740
13,Strada Izvoarelor,105600,45.1157573,25.7530407
9,Strada Izvoarelor,105600,45.1157741,25.7528276
6,Strada Anton Pann,105600,45.1138822,25.7536577
2,Strada Anton Pann,105600,45.1141419,25.7535656
4,Strada Anton Pann,105600,45.1139543,25.7536482
5,Strada Anton Pann,105600,45.1135291,25.7536708
3,Strada Anton Pann,105600,45.1138003,25.7539706
1,Strada Anton Pann,105600,45.1139812,25.7541608
18,Strada Anton Pann,105600,45.1123397,25.7525034
14,Strada Anton Pann,105600,45.1125407,25.7527513
9,Strada Anton Pann,105600,45.1131287,25.7535454
11,Strada Anton Pann,105600,45.1129877,25.7536906
13,Strada Anton Pann,105600,45.1124687,25.7532081
2,Aleea Rapsodiei,105600,45.1138009,25.7535996
4,Aleea Rapsodiei,105600,45.1139160,25.7534305
6,Strada Garoafelor,105600,45.1134458,25.7529302
22,Strada Garoafelor,105600,45.1140323,25.7516177
18,Strada Garoafelor,105600,45.1138915,25.7518650
16,Strada Garoafelor,105600,45.1138833,25.7520893
13,Strada Garoafelor,105600,45.1138830,25.7513535
11,Strada Mesteacănului,105600,45.1123910,25.7505065
5,Strada Mesteacănului,105600,45.1120457,25.7501878
21A,Strada Mesteacănului,105600,45.1128959,25.7512346
6,Strada Mesteacănului,105600,45.1119791,25.7507082
14B,Strada Mesteacănului,105600,45.1125670,25.7517092
2,Strada Fluturași,105600,45.1122612,25.7501497
4,Strada Fluturași,105600,45.1124205,25.7502250
23,Strada Mioriței,105600,45.1105006,25.7485002
6C,Strada Mioriței,105600,45.1100070,25.7490479
14,Strada Mioriței,105600,45.1109616,25.7491675
7,Strada Mioriței,105600,45.1094600,25.7482320
9,Strada Mioriței,105600,45.1095718,25.7483034
5,Strada Mioriței,105600,45.1093819,25.7481783
3A,Strada Mioriței,105600,45.1092488,25.7481036
9,Strada Răsăritului,105600,45.1087559,25.7493358
7A,Strada Răsăritului,105600,45.1087462,25.7491721
13A,Strada Răsăritului,105600,45.1089406,25.7495276
6,Strada Răsăritului,105600,45.1082951,25.7488044
2,Strada Răsăritului,105600,45.1085679,25.7483917
3B,Bulevardul Nicolae Bălcescu,105600,45.1074519,25.7485652
2,Bulevardul Nicolae Bălcescu,105600,45.1079234,25.7484164
4,Bulevardul Nicolae Bălcescu,105600,45.1080200,25.7481326
8B,Bulevardul Nicolae Bălcescu,105600,45.1086538,25.7479583
8,Bulevardul Nicolae Bălcescu,105600,45.1085714,25.7480971
9B,Bulevardul Nicolae Bălcescu,105600,45.1099818,25.7461068
30D,Bulevardul Nicolae Bălcescu,105600,45.1116412,25.7471919
30C,Bulevardul Nicolae Bălcescu,105600,45.1114585,25.7470188
30,Bulevardul Nicolae Bălcescu,105600,45.1112950,25.7469026
30A,Bulevardul Nicolae Bălcescu,105600,45.1112635,25.7470444
16,Strada Chișinău,105600,45.1150972,25.7399094
10,Strada Chișinău,105600,45.1153650,25.7394959
3,Strada Chișinău,105600,45.1158524,25.7394223
9,Strada Chișinău,105600,45.1155799,25.7398374
6,Strada Chișinău,105600,45.1155789,25.7392560
8,Strada Chișinău,105600,45.1154548,25.7393753
11,Strada Chișinău,105600,45.1154823,25.7399195
4,Strada Chișinău,105600,45.1156743,25.7391055
18,Strada Chișinău,105600,45.1149778,25.7400551
24,Strada Chișinău,105600,45.1144753,25.7396001
6,Aleea Roma,105600,45.1161641,25.7386465
12,Aleea Parcului,105600,45.1175711,25.7355772
15C,Aleea Parcului,105600,45.1177264,25.7359394
9,Strada Sondei,105600,45.1209210,25.7406025
7,Strada Sondei,105600,45.1208221,25.7403497
14,Strada Sondei,105600,45.1209037,25.7413432
15,Strada Sondei,105600,45.1211497,25.7411525
13,Strada Sondei,105600,45.1210927,25.7409753
18,Strada Sondei,105600,45.1209863,25.7416006
20,Strada Sondei,105600,45.1210115,25.7417948
12,Strada Sondei,105600,45.1208527,25.7412239
16,Strada Sondei,105600,45.1208672,25.7415381
24,Strada Sondei,105600,45.1210863,25.7420198
22,Strada Sondei,105600,45.1210626,25.7419417
26,Strada Sondei,105600,45.1211873,25.7420642
30,Strada Sondei,105600,45.1213283,25.7423622
36,Strada Sondei,105600,45.1214226,25.7427857
34,Strada Sondei,105600,45.1213461,25.7426653
32,Strada Sondei,105600,45.1213286,25.7425237
21,Strada Sondei,105600,45.1214549,25.7420232
19,Strada Sondei,105600,45.1213691,25.7418329
17,Strada Sondei,105600,45.1213027,25.7415769
23,Strada Sondei,105600,45.1215298,25.7422650
35,Strada Maramureș,105600,45.1222370,25.7425810
33,Strada Maramureș,105600,45.1225537,25.7423004
31,Strada Maramureș,105600,45.1226441,25.7421448
25,Strada Maramureș,105600,45.1226054,25.7414268
18,Strada Maramureș,105600,45.1223069,25.7412527
11,Strada Maramureș,105600,45.1218660,25.7392470
7,Strada Maramureș,105600,45.1218027,25.7389240
1A,Strada Maramureș,105600,45.1216462,25.7383873
10,Strada Maramureș,105600,45.1214439,25.7389091
12,Strada Maramureș,105600,45.1215234,25.7390217
6,Strada Maramureș,105600,45.1212443,25.7387129
4,Strada Toma Ionescu,105600,45.1224589,25.7382417
8,Strada Toma Ionescu,105600,45.1227234,25.7389762
5,Strada Toma Ionescu,105600,45.1227049,25.7380823
8A,Strada Toma Ionescu,105600,45.1232308,25.7404941
10,Strada Toma Ionescu,105600,45.1233810,25.7405560
8,Strada Toma Ionescu,105600,45.1231657,25.7401833
16,Strada Toma Ionescu,105600,45.1235645,25.7408722
14,Strada Toma Ionescu,105600,45.1234499,25.7408834
12,Strada Toma Ionescu,105600,45.1234574,25.7407276
17,Strada Toma Ionescu,105600,45.1237100,25.7404571
15,Strada Toma Ionescu,105600,45.1236986,25.7403654
13,Strada Toma Ionescu,105600,45.1236306,25.7402763
19,Strada Toma Ionescu,105600,45.1238838,25.7404108
23,Strada Toma Ionescu,105600,45.1238888,25.7407720
25,Strada Toma Ionescu,105600,45.1240181,25.7409371
27,Strada Toma Ionescu,105600,45.1242412,25.7407713
18,Strada Toma Ionescu,105600,45.1236664,25.7410239
20,Strada Toma Ionescu,105600,45.1237024,25.7411524
22,Strada Toma Ionescu,105600,45.1239448,25.7413643
29,Strada Toma Ionescu,105600,45.1241819,25.7413241
31,Strada Toma Ionescu,105600,45.1242585,25.7414995
35,Strada Toma Ionescu,105600,45.1243994,25.7416888
33,Strada Toma Ionescu,105600,45.1242945,25.7415708
37,Strada Toma Ionescu,105600,45.1244728,25.7417803
5,Strada Atelierelor,105600,45.1255310,25.7434339
1A,Strada Atelierelor,105600,45.1252736,25.7428800
6,Strada Atelierelor,105600,45.1253059,25.7435356
10,Strada Atelierelor,105600,45.1254452,25.7438700
8,Strada Atelierelor,105600,45.1253766,25.7437241
12,Strada Atelierelor,105600,45.1254781,25.7440118
14,Strada Atelierelor,105600,45.1255180,25.7441830
16,Strada Atelierelor,105600,45.1255996,25.7442908
13A,Strada Atelierelor,105600,45.1258328,25.7443942
11,Strada Atelierelor,105600,45.1257821,25.7442152
17,Strada Atelierelor,105600,45.1259634,25.7448098
18,Strada Atelierelor,105600,45.1257582,25.7448130
19,Strada Atelierelor,105600,45.1260504,25.7450412
25,Strada Atelierelor,105600,45.1263395,25.7456422
21,Strada Atelierelor,105600,45.1261876,25.7452803
23,Strada Atelierelor,105600,45.1262053,25.7454826
29,Strada Atelierelor,105600,45.1264046,25.7459796
27,Strada Atelierelor,105600,45.1264250,25.7457153
30,Strada Castanilor,105600,45.1206180,25.7334974
20,Strada Castanilor,105600,45.1207510,25.7343117
18,Strada Castanilor,105600,45.1208292,25.7343569
4,Strada Castanilor,105600,45.1212100,25.7359637
8,Strada Ardealului,105600,45.1233668,25.7331154
12,Strada Ardealului,105600,45.1230965,25.7324319
18,Strada Ardealului,105600,45.1229350,25.7320678
22,Strada Ardealului,105600,45.1227854,25.7317671
23,Strada Ardealului,105600,45.1227236,25.7323435
13,Strada Ardealului,105600,45.1227575,25.7330038
11,Strada Ardealului,105600,45.1230863,25.7332008
12,Strada George Barițiu,105600,45.1244363,25.7322926
14,Strada George Barițiu,105600,45.1242460,25.7321963
22,Strada Mioriței,105600,45.1120562,25.7492670
9,Strada Andrei Mureșan,105600,45.1113929,25.7531839
2,Strada Bistriței,105600,45.1246716,25.7499546
2A,Strada Bistriței,105600,45.1241201,25.7496538
6,Strada Bistriței,105600,45.1250052,25.7528303
4,Strada Bistriței,105600,45.1249837,25.7526978
2,Strada Muncii,105600,45.1252018,25.7544153
1,Strada Muncii,105600,45.1253746,25.7538896
8,Strada Muncii,105600,45.1256001,25.7551447
6,Strada Muncii,105600,45.1254665,25.7548206
9,Strada Muncii,105600,45.1263443,25.7558783
5,Strada Muncii,105600,45.1256826,25.7544391
11,Strada Muncii,105600,45.1265287,25.7562937
19A,Strada Muncii,105600,45.1269803,25.7569980
17,Strada Muncii,105600,45.1267924,25.7569480
19B,Strada Muncii,105600,45.1270060,25.7568675
19,Strada Muncii,105600,45.1268441,25.7570044
30,Strada Muncii,105600,45.1278140,25.7558603
27,Strada Muncii,105600,45.1271091,25.7565552
31,Strada Muncii,105600,45.1273484,25.7560868
33,Strada Muncii,105600,45.1273568,25.7559722
23,Strada Muncii,105600,45.1270979,25.7567307
37,Strada Muncii,105600,45.1275316,25.7556915
7,Strada Granicului,105600,45.1269592,25.7556968
4,Strada Granicului,105600,45.1266202,25.7556050
1,Strada Lt. Col. Erou Oprescu Adrian,105600,45.1218343,25.7270671
3,Strada Lt. Col. Erou Oprescu Adrian,105600,45.1216740,25.7274642
4A,Strada Agriculturii,105600,45.1260407,25.7546926
10,Strada Pompelor,105600,45.1268947,25.7553623
8,Strada Pompelor,105600,45.1268529,25.7552688
4,Strada Păcuri,105600,45.1267249,25.7540769
10,Strada Păcuri,105600,45.1270964,25.7547737
8,Strada Păcuri,105600,45.1270672,25.7547041
1A,Strada Păcuri,105600,45.1267300,25.7533290
12,Strada Păcuri,105600,45.1271891,25.7550072
9,Strada Păcuri,105600,45.1275254,25.7548617
21,Strada Păcuri,105600,45.1280656,25.7555519
15,Strada Păcuri,105600,45.1277816,25.7553612
18,Strada Păcuri,105600,45.1281035,25.7560500
20,Strada Păcuri,105600,45.1288943,25.7579447
34,Strada Păcuri,105600,45.1294952,25.7571717
54,Strada Păcuri,105600,45.1308786,25.7586060
48,Strada Păcuri,105600,45.1307398,25.7580741
5,Aleea Veteranilor,105600,45.1323184,25.7590072
3,Aleea Veteranilor,105600,45.1323245,25.7587781
7,Strada General Ioan Stoica,105600,45.1332739,25.7595348
2,Strada General Ioan Stoica,105600,45.1331898,25.7592521
24,Strada General Ioan Stoica,105600,45.1329398,25.7591658
2,Strada 24 Ianuarie 1859,105600,45.1280671,25.7549496
7,Strada 24 Ianuarie 1859,105600,45.1281847,25.7536319
15,Strada 24 Ianuarie 1859,105600,45.1286281,25.7537815
8,Strada Nouă,105600,45.1279300,25.7529702
14,Strada Nouă,105600,45.1283210,25.7533199
32,Strada Ecaterina Teodoroiu,105600,45.1289436,25.7505637
13C,Strada Ecaterina Teodoroiu,105600,45.1306278,25.7493752
6,Strada Ecaterina Teodoroiu,105600,45.1321508,25.7462639
2,Strada Ecaterina Teodoroiu,105600,45.1323068,25.7458021
4,Strada Ecaterina Teodoroiu,105600,45.1322281,25.7461565
10,Strada Ecaterina Teodoroiu,105600,45.1320125,25.7468271
18,Strada Ecaterina Teodoroiu,105600,45.1317627,25.7472652
15,Strada Fabricii,105600,45.1330831,25.7475231
20,Strada Fabricii,105600,45.1345015,25.7513472
16,Strada Fabricii,105600,45.1342407,25.7509270
18,Strada Fabricii,105600,45.1343827,25.7511551
22,Strada Fabricii,105600,45.1346063,25.7514940
33,Strada Fabricii,105600,45.1350201,25.7513911
35,Strada Fabricii,105600,45.1350161,25.7515529
31,Strada Fabricii,105600,45.1348374,25.7513348
29,Strada Fabricii,105600,45.1346789,25.7511455
45,Strada Fabricii,105600,45.1362357,25.7537274
34,Strada Fabricii,105600,45.1353024,25.7519100
41,Strada Fabricii,105600,45.1361755,25.7534051
37-39,Strada Fabricii,105600,45.1356995,25.7525602
43,Strada Fabricii,105600,45.1361861,25.7535858
37,Strada Fabricii,105600,45.1351885,25.7517466
63,Strada Fabricii,105600,45.1365646,25.7557586
49,Strada Fabricii,105600,45.1363815,25.7546135
61,Strada Fabricii,105600,45.1365320,25.7555915
59,Strada Fabricii,105600,45.1364855,25.7555262
55A,Strada Fabricii,105600,45.1365660,25.7550560
53,Strada Fabricii,105600,45.1363731,25.7550191
51,Strada Fabricii,105600,45.1363562,25.7548293
55,Strada Fabricii,105600,45.1363700,25.7551812
57,Strada Fabricii,105600,45.1364585,25.7553654
47,Strada Fabricii,105600,45.1363887,25.7543820
73,Strada Fabricii,105600,45.1367375,25.7562035
71,Strada Fabricii,105600,45.1368194,25.7560606
69,Strada Fabricii,105600,45.1366791,25.7560569
75,Strada Fabricii,105600,45.1368341,25.7562533
65,Strada Fabricii,105400,45.1365836,25.7559410
67,Strada Fabricii,105600,45.1367030,25.7558721
77,Strada Fabricii,105600,45.1369047,25.7564144
79,Strada Fabricii,105600,45.1369610,25.7566268
13,Strada Ecaterina Teodoroiu,105600,45.1321998,25.7469915
67,Calea Doftanei,105600,45.1330951,25.7451707
45,Calea Doftanei,105600,45.1323625,25.7437549
51,Calea Doftanei,105600,45.1324018,25.7441488
49,Calea Doftanei,105600,45.1322840,25.7441453
63,Calea Doftanei,105600,45.1327793,25.7448747
126,Calea Doftanei,105600,45.1324016,25.7451324
59,Calea Doftanei,105600,45.1327484,25.7446198
41A,Calea Doftanei,105600,45.1320366,25.7437642
31,Calea Doftanei,105600,45.1317142,25.7428995
33,Calea Doftanei,105600,45.1316192,25.7432595
23A,Calea Doftanei,105600,45.1312869,25.7424979
25,Calea Doftanei,105600,45.1314610,25.7425972
112,Calea Doftanei,105600,45.1316158,25.7440248
118,Calea Doftanei,105600,45.1320230,25.7447544
116,Calea Doftanei,105600,45.1320731,25.7445537
104,Calea Doftanei,105600,45.1312387,25.7431064
108,Calea Doftanei,105600,45.1313427,25.7435134
96,Calea Doftanei,105600,45.1308729,25.7427237
98,Calea Doftanei,105600,45.1309033,25.7428951
92,Calea Doftanei,105600,45.1306848,25.7427208
90,Calea Doftanei,105600,45.1307258,25.7424248
80,Calea Doftanei,105600,45.1304734,25.7418851
82,Calea Doftanei,105600,45.1304607,25.7420721
60,Calea Doftanei,105600,45.1298029,25.7404043
54,Calea Doftanei,105600,45.1293591,25.7401511
52,Calea Doftanei,105600,45.1294742,25.7399743
34,Calea Doftanei,105600,45.1291825,25.7390024
36,Calea Doftanei,105600,45.1292079,25.7390850
24,Calea Doftanei,105600,45.1288069,25.7382038
16,Calea Doftanei,105600,45.1282751,25.7373322
23,Strada Mihail Kogălniceanu,105600,45.1245875,25.7389286
27,Strada Mihail Kogălniceanu,105600,45.1245734,25.7392508
32,Strada Mihail Kogălniceanu,105600,45.1241170,25.7390497
19,Strada Mihail Kogălniceanu,105600,45.1244154,25.7389103
25,Strada Mihail Kogălniceanu,105600,45.1244169,25.7390512
19B,Strada Mihail Kogălniceanu,105600,45.1245597,25.7388216
39,Strada Mihail Kogălniceanu,105600,45.1249019,25.7401615
37,Strada Mihail Kogălniceanu,105600,45.1247718,25.7401366
35,Strada Mihail Kogălniceanu,105600,45.1247080,25.7399605
33,Strada Mihail Kogălniceanu,105600,45.1246561,25.7398583
29,Strada Mihail Kogălniceanu,105600,45.1245990,25.7394930
34,Strada Mihail Kogălniceanu,105600,45.1241995,25.7393309
38,Strada Mihail Kogălniceanu,105600,45.1242629,25.7395371
40,Strada Mihail Kogălniceanu,105600,45.1243119,25.7396484
44,Strada Mihail Kogălniceanu,105600,45.1244032,25.7400254
48,Strada Mihail Kogălniceanu,105600,45.1244066,25.7402802
50,Strada Mihail Kogălniceanu,105600,45.1244923,25.7403168
46,Strada Mihail Kogălniceanu,105600,45.1242870,25.7402231
60,Strada Mihail Kogălniceanu,105600,45.1248012,25.7412868
62,Strada Mihail Kogălniceanu,105600,45.1248825,25.7414013
1,Aleea Cărăbuși,105600,45.1352402,25.7382731
6,Aleea Cărăbuși,105600,45.1350791,25.7382984
7,Strada Lacului,105600,45.1347771,25.7378500
2A,Strada Lacului,105600,45.1350085,25.7372305
1E,Strada Romaniței,105600,45.1392467,25.7316262
1A,Strada Romaniței,105600,45.1390540,25.7318102
1,Strada Romaniței,105600,45.1391925,25.7324901
2,Strada Oborului,105600,45.1242951,25.7526255
33,Strada În Luncă,105600,45.1068523,25.7455640
2A,Strada Petrolistului,105600,45.1186616,25.7450433
8,Strada Târnava Mare,105600,45.1392672,25.7497452
9,Strada Nicolae Grigorescu,105600,45.1313170,25.7289033
33,Bulevardul Nicolae Bălcescu,105600,45.1118363,25.7459778
4,Strada Oborului,105600,45.1240965,25.7525108
17,Strada Ecaterina Teodoroiu,105600,45.1286826,25.7513646
78F,Strada Voila,105600,45.1494722,25.7580936
2,Strada Petrolistului,105600,45.1180467,25.7449318
114,Strada Voila,105600,45.1586753,25.7488495
44B,Bulevardul Nicolae Bălcescu,105600,45.1153892,25.7463361
10,Strada Orizontului,105600,45.1235164,25.7508483
10,Strada Orizontului,105600,45.1237588,25.7506511
11,Strada Sălaj,105600,45.1163049,25.7502863
6,Strada Mihail Kogălniceanu,105600,45.1235067,25.7369793
46,Bulevardul Nicolae Bălcescu,105600,45.1154296,25.7451536
46,Strada Mihail Kogălniceanu,105600,45.1245021,25.7399702
17,Strada Alexandru Ioan Cuza,105600,45.1277831,25.7412422
46,Bulevardul Nicolae Bălcescu,105600,45.1157711,25.7470850
