House number,Street name,Postal code,Latitude,Longitude
3095,Edouard-Montpetit,H7T 1V3,45.5657522,-73.7505659
2334,Rue Des Alvéoles,H7K 2B3,45.6216166,-73.7329734
1859,Boulevard René-Laennec,H7M 5E2,45.6065368,-73.7160828
1855,Boulevard René-Laennec,H7M 5E2,45.6064767,-73.7150850
5315,Rue Portal,H7K 3A4,45.6251325,-73.7402324
5313,Rue Portal,H7K 3A4,45.6250030,-73.7404068
1545,Boulevard Daniel-Johnson,H7T 2K1,45.5686959,-73.7585555
76,Boulevard Bellerose Est,H7K 1S7,45.6137172,-73.7305815
1630,Boulevard Saint-Martin Ouest,H7S 1M9,45.5680475,-73.7265135
1665,Boulevard Saint-Martin Ouest,H7S 1N2,45.5681543,-73.7282122
1100,Boulevard de l'Avenir,H7N 6L2,45.5626292,-73.7241098
2955,Boulevard Saint-Martin Ouest,H7T 2Y8,45.5606085,-73.7421862
20,Rue Grenon Est,H7G 1G2,45.5641831,-73.6835980
1650,Boulevard des Laurentides,H7M 6E2,45.5949350,-73.7200502
1820,Avenue Pierre Péladeau,H7T 2Z1,45.5619033,-73.7431356
340,Avenue Ampère,H7N 3Z7,45.5569014,-73.7040635
42,Rue Baron,H7H 1Y8,45.6458954,-73.7560729
3950,3e Avenue,H7R 2Y2,45.5398728,-73.8801010
4855,Rue Louis B. Meyer,H7P 6C8,45.5632183,-73.7932450
1600,Boulevard Le Corbusier,H7S 1Y9,45.5616479,-73.7305824
1600,Boulevard Le Corbusier,H7S 1Y9,45.5604867,-73.7320705
500,Boulevard Saint-Martin Ouest,H7M 3Y2,45.5759207,-73.7125559
1550,Boulevard Daniel-Johnson,H7V 3V7,45.5561914,-73.7446320
1739,Avenue Pierre Péladeau,H7T 2Y5,45.5614057,-73.7413569
3485,Boulevard Cartier Ouest,H7V 3T4,45.5388426,-73.7355014
1600,Boulevard Le Corbusier,H7S 1Y9,45.5603026,-73.7317731
2525,Boulevard Daniel-Johnson,H7T 1S9,45.5683370,-73.7543691
1645,Rue Cunard,H7S 2B4,45.5794405,-73.7375994
1816,Boulevard Le Corbusier,H7S 2K1,45.5675501,-73.7363292
3255,Boulevard du Souvenir,H7V 1X1,45.5541092,-73.7430410
12,Rue Hotte,H7L 2R3,45.6165135,-73.7865330
446,Rue Saint-Luc,H7N 4X9,45.5684573,-73.6916296
448,Rue Saint-Luc,H7N 4X9,45.5684308,-73.6916803
470,Rue Saint-Luc,H7N 4X9,45.5689904,-73.6922436
472,Rue Saint-Luc,H7N 4X9,45.5689473,-73.6922841
474,Rue Saint-Luc,H7N 4X9,45.5689792,-73.6923163
478A,Rue Saint-Luc,H7N 4X9,45.5691258,-73.6924504
478B,Rue Saint-Luc,H7N 4X9,45.5691674,-73.6923999
478,Rue Saint-Luc,H7N 4X9,45.5691922,-73.6924272
482B,Rue Saint-Luc,H7N 4X9,45.5693547,-73.6926140
482,Rue Saint-Luc,H7N 4X9,45.5693397,-73.6926460
482A,Rue Saint-Luc,H7N 4X9,45.5693219,-73.6926809
484A,Rue Saint-Luc,H7N 4X9,45.5693941,-73.6927937
484,Rue Saint-Luc,H7N 4X9,45.5694354,-73.6927481
484B,Rue Saint-Luc,H7N 4X9,45.5694242,-73.6928256
192,Rue de la Fleur-de-Lys,H7G 2K7,45.5780055,-73.6875804
192A,Rue de la Fleur-de-Lys,H7G 2K7,45.5779866,-73.6874650
194,Rue de la Fleur-de-Lys,H7G 2K7,45.5779980,-73.6875240
367,Boulevard des Laurentides,H7G 2T9,45.5675891,-73.6887111
3035,boulevard le carrefour,H7T 1C8,45.5722211,-73.7538337
282,Rue du Louvre,H7G 3X6,45.5768804,-73.6802295
2295,Boulevard Dagenais Ouest,H7P 4V9,45.5789077,-73.8078022
65,Chemin de l'Équerre,H7L 1W3,45.6135874,-73.7634944
2655,Boulevard des aristocrates,H7E 0H3,45.6128835,-73.6829330
10,Rue Les Pins,H7R 1C7,45.5245852,-73.8813823
1717,Boul Saint-Martin W,H7S 1N2,45.5681478,-73.7290854
2004,Boulevard des Laurentides,H7M 2Y5,45.5862167,-73.7106443
647,Chemin du Bord-de-l'Eau,H7X1T9,45.5207633,-73.8122425
425,Boulevard Saint-Martin Est,H7M 1Y8,45.5778246,-73.7118151
1025,Boulevard Le Corbusier,H7S 1Z3,45.5644380,-73.7296047
4660,Boulevard des Laurentides,H7K 2J4,45.6157520,-73.7407337
3535,Autoroute Autoroute Jean-Noël-Lavoie,H7P 5G9,45.5684426,-73.7689376
1754,Boulevard des Laurentides,H7N 2P6,45.5982969,-73.7241112
679,"Boulevard Curé-Labelle, Laval, QC H7L 5R7, Canada",H7L 5R7,45.5894502,-73.7873447
144,Boulevard des Laurentides,H7G 2T5,45.5634250,-73.6852772
65,Promenade des Îles,H7W 5J6,45.5254992,-73.7507995
2075,Boulevard Chomedey,H7T 0G5,45.5602454,-73.7522447
870,Desserte ouest Chomedey (A-13),H7X4G5,45.5283873,-73.7832780
4672,4672 Blvd. Saint-Martin O,H7T 2Y2,45.5465966,-73.7756677
3501,Rue Gaumond,H7E 0H3,45.6115553,-73.6807419
2475,Chomedey Boulevard,H7T 2R2,45.5658466,-73.7614128
2455,Boulevard Chomedey,H7T 2W5,45.5649116,-73.7603603
2800,Boulevard Chomedey,H7P 5Z9,45.5691646,-73.7669632
574,Boulevard Curé-Labelle,h7v 2t2,45.5372321,-73.7402235
1650,Boulevard des Laurentides,H7M 6E1,45.5622871,-73.6836313
1650,Boulevard des Laurentides,H7M 6E1,45.5946567,-73.7201516
2929,Boulevard Saint-Martin Ouest,H7T 2Y8,45.5606783,-73.7423349
3995,Boulevard Lévesque Est,H7E2R3,45.5996432,-73.6533580
3990,Boulevard Dagenais Ouest,H7R 1L2,45.5782375,-73.7828822
59B,Boulevard Samson,H7X 3E6,45.5220546,-73.7922658
1173,Autoroute Jean-Noël-Lavoie,H7L3W3,45.5841757,-73.7396952
520,Boulevard Curé-Labelle,H7L 4V6,45.5914591,-73.7856492
550,Boulevard Curé-Labelle,H7L 4V6,45.5912014,-73.7852112
550,Boulevard Curé-Labelle,H7L 4V6,45.5912635,-73.7852353
550,Boulevard Curé-Labelle,H7L 4V6,45.5911371,-73.7851989
550,Boulevard Curé-Labelle,H7L 4V6,45.5914552,-73.7852714
550,Boulevard Curé-Labelle,H7L 4V6,45.5910793,-73.7851864
550,Boulevard Curé-Labelle,H7L 4V6,45.5914621,-73.7854387
550,Boulevard Curé-Labelle,H7L 4V6,45.5913399,-73.7852535
550,Boulevard Curé-Labelle,H7L 4V6,45.5910117,-73.7851690
550,Boulevard Curé-Labelle,H7L 4V6,45.5909120,-73.7851455
663,Boulevard Curé-Labelle,H7L 5R7,45.5896618,-73.7874046
691,Boulevard Curé-Labelle,H7L 5R7,45.5893718,-73.7873224
683,Boulevard Curé-Labelle,H7L 5R7,45.5894195,-73.7873359
697,Boulevard Curé-Labelle,H7L 5R7,45.5892499,-73.7872879
655,Boulevard Curé-Labelle,H7L 5R7,45.5897830,-73.7874390
639,Boulevard Curé-Labelle,H7L 5R7,45.5898603,-73.7874609
637,Boulevard Curé-Labelle,H7L 5R7,45.5899439,-73.7874846
633,Boulevard Curé-Labelle,H7L 5R7,45.5900199,-73.7875061
550,Boulevard Curé-Labelle,H7L 4V6,45.5909703,-73.7851630
437,Boulevard Cartier Ouest,H7N 2L3,45.5490512,-73.7140586
3805,Boulevard Curé-Labelle,H7P 0A5,45.5719117,-73.7840132
4349,Boulevard Notre-Dame,H7W 1T3,45.5380867,-73.7578451
4331,Boulevard Notre-Dame,H7W 1T3,45.5381323,-73.7576355
4375,Boulevard Notre-Dame,H7W 1T3,45.5378099,-73.7589593
4357,Boulevard Notre-Dame,H7W 1T3,45.5380329,-73.7581406
4355,Boulevard Notre-Dame,H7W 1T3,45.5380525,-73.7580539
4351,Boulevard Notre-Dame,H7W 1T3,45.5380693,-73.7579723
1686,Boulevard des Laurentides,H7M 2P4,45.5960262,-73.7215186
4301,Boulevard Dagenais Ouest,H7R 1L3,45.5589908,-73.8394482
1175,Boulevard du Curé-Labelle,H7V 2V8,45.5881801,-73.7894091
350,Boulevard Samson,H7X 1J4,45.5238770,-73.8046935
3025,Le Carrefour Boulevard,H7T 1C7,45.5710148,-73.7492922
5250,Boulevard Arthur-Sauvé,H7R 3X3,45.5502317,-73.8676812
5436,Boulevard Lévesque Est,H7C 1N7,45.6154839,-73.6440262
1700,Boulevard Le Corbusier,H7S 2K1,45.5664548,-73.7350155
7900,Avenue Marcel-Villeneuve,H7A 4C5,45.6718055,-73.5985808
666,Boulevard Saint-Martin Ouest,H7M 5G4,45.5741791,-73.7145863
1857,Boulevard René-Laennec,H7M 5E2,45.6067837,-73.7156501
652,Rue de la Place Publique,H7X 1G1,45.5286154,-73.8204603
2495,Boulevard Saint-Martin Est,H7E 4X6,45.5999189,-73.6840542
3035,Boulevard Le Carrefour,H7T 1C8,45.5699747,-73.7533419
4721,Boulevard des Laurentides,H7K 3G4,45.6171419,-73.7412368
2151,Boulevard des Laurentides,H7M 4M2,45.6104224,-73.7352355
2500,Boulevard des Laurentides,H7K 3G5,45.6133878,-73.7384662
3000 #1,Boulevard des Laurentides,H7K 3K7,45.6137329,-73.7388108
3000,Boulevard des Laurentides,H7K 3G5,45.6138124,-73.7388796
3000,Boulevard des Laurentides,H7K 3G5,45.6143479,-73.7396365
200,Boulevard Sainte-Rose,H7L 1L4,45.6145761,-73.7854803
3676,Avenue des Perron,H7J 1A3,45.6481990,-73.7218989
3678,Avenue des Perron,H7J 1A3,45.6481558,-73.7218936
2170,Boulevard des Laurentides,H7M 2R5,45.6101863,-73.7364505
5029,Boulevard des Laurentides,H7K 2J7,45.6206386,-73.7450718
85,Boulevard Sainte-Rose,H7L 3J7,45.6193687,-73.7802308
430,Boulevard Cartier Ouest,H7N 2L4,45.5488912,-73.7136907
4127,Boulevard des Laurentides,H7K 3G4,45.6169519,-73.7410515
301,Boulevard des Prairies,H7N 2V4,45.5496128,-73.7019071
1950,Rue Claude-Gagné,H7N 5H9,45.5559826,-73.7229145
5007,Boulevard des Laurentides,H7K 2J7,45.6200673,-73.7445870
5040,Boulevard des Laurentides,H7K 2J5,45.6201494,-73.7461911
1632,Boulevard de la Concorde Est,H7G 2E7,45.5780760,-73.6797345
4205,Philippe-Lebon,H7P 0L6,45.5702992,-73.7888924
1600,Boulevard Le Corbusier,H7S 1Z2,45.5630089,-73.7334339
2400,Boulevard Chomedey,H7T 2W3,45.5632531,-73.7599625
1828,Boulevard Le Corbusier,H7S 2K1,45.5677879,-73.7365419
2495,Boulevard Saint-Martin Est,H7E 4X6,45.5998823,-73.6841384
1455,Boulevard Saint-Martin Ouest,H7S 2C6,45.5703277,-73.7244555
2325,Boulevard Curé-Labelle,h7t1r3,45.5586150,-73.7661644
3410,Boulevard Industriel,H7L 4R9,45.5930026,-73.7465686
3224,Avenue Jean Béraud,H7T 2S4,45.5675927,-73.7578781
4980,Boulevard Arthur-Sauvé,H7R 3X1,45.5515251,-73.8688746
4301,Boulevard Dagenais Ouest,H7R 1L3,45.5590211,-73.8393664
1,Place du Souvenir,H7V 1W7,45.5515108,-73.7448296
1271,Boulevard Jolibourg,H1Y 1Z0,45.5247785,-73.8529536
2800,avenue Du Cosmodôme,H7T 2X1,45.5635816,-73.7422545
8060,Boulevard Lévesque Est,H7A3K9,45.6629287,-73.5839033
138,Boulevard Sainte-Rose,H7L1K4,45.6167862,-73.7822347
148,Boulevard Sainte-Rose,H7L1L3,45.6164057,-73.7828528
211,Boulevard Sainte-Rose,H7L 1L7,45.6143285,-73.7864970
140,Rue Saint-Hubert,H7G 2Y2,45.5633384,-73.6826085
181,Rue L'Allier,H7L 2K9,45.6127774,-73.7806188
181,Rue L'Allier,H7L 2K9,45.6127790,-73.7805744
65,Chemin de l'Équerre,H7L 1W3,45.6135991,-73.7634710
2929,Boulevard de la Renaissance,H7L5W3,45.6038663,-73.7762480
2949,Boulevard de la Renaissance,H7L0H3,45.6050666,-73.7756273
2525,Boulevard de la Renaissance,H7L3Y2,45.6024839,-73.7830217
2735,Boulevard des Oiseaux,H7L 4S9,45.5887192,-73.7801922
2745,Boulevard des Oiseaux,H7L 4S9,45.5887561,-73.7801546
2755,Boulevard des Oiseaux,H7L 4S9,45.5887965,-73.7801178
6065,Rue des Cardinaux,H7L6B7,45.5983222,-73.7650028
6060,Rue des Cardinaux,H7L6B7,45.5981182,-73.7655755
2465,Rue Honoré-Mercier,H7L2S9,45.6037883,-73.7819940
2475,Rue Honoré-Mercier,H7L2S9,45.6035186,-73.7822814
190,Rue Roseval,H7L2V6,45.6048369,-73.7849162
216,Boulevard Marc-Aurèle-Fortin,H7L1Z5,45.6059666,-73.7841181
4111,Boulevard Le Corbusier,H7L 5E2,45.5943454,-73.7607846
2585,Boulevard des Oiseaux,H7L 4M4,45.5872034,-73.7773543
2585,Boulevard des Oiseaux,H7L 4M4,45.5872244,-73.7773514
1850,Boulevard Saint-Martin Ouest,H7S 1Z3,45.5654810,-73.7295517
1300,Boulevard de la Concorde Ouest,H7N 1J3,45.5591151,-73.7129852
1300,Boulevard de la Concorde Ouest,H7N 1J3,45.5591362,-73.7129986
804,Boulevard Curé-Labelle,H7V 2V3,45.5397013,-73.7476796
1600,Boulevard Le Corbusier,H7S 1Y9,45.5617912,-73.7303503
222-3101,Rue Edouard Montpetit,H7T 1V4,45.5649576,-73.7512776
3,Place de la Belle-Rive,H7V 1B2,45.5376281,-73.7260926
1,Place de la Belle-Rive,H7V 1B1,45.5376353,-73.7260769
5,Place de la Belle-Rive,H7V 1B3,45.5382512,-73.7248079
3160,Boulevard Lévesque Ouest,H7V 1C4,45.5393457,-73.7265093
3040,Boulevard Lévesque Ouest,H7V 2G3,45.5393063,-73.7234199
3030,Boulevard Lévesque Ouest,H7V 0B9,45.5392503,-73.7224533
3064,Boulevard Lévesque Ouest,H7V 1C4,45.5394650,-73.7240356
4250,Boulevard Lévesque Ouest,H7W 2P8,45.5301108,-73.7483682
1085,Boulevard des Laurentides,H7G 2W2,45.5776991,-73.6991389
2190,Boulevard des Laurentides,H7M 2Y2,45.5885797,-73.7131697
2228,Boulevard des Laurentides,H7K 3G5,45.6125291,-73.7381914
304,Rue Saulnier,H7M 3T3,45.5986367,-73.7031956
1895,Boulevard René-Laennec,H7M 5E2,45.6068475,-73.7164124
1857,Boulevard René-Laennec,H7M 5E2,45.6066498,-73.7153836
1857,Boulevard René-Laennec,H7M 5E2,45.6067542,-73.7154587
7730,Boulevard Lévesque Est,H7A 1S8,45.6567854,-73.5937342
1903,Boulevard René-Laennec,H7M 5E2,45.6071616,-73.7167211
1903,Boulevard René-Laennec,H7M 5E2,45.6073508,-73.7163489
1899,Boulevard René-Laennec,H7M 5E2,45.6074649,-73.7156625
1895,Boulevard René-Laennec,H7M 5E2,45.6071548,-73.7158215
1895,Boulevard René-Laennec,H7M 5E2,45.6069224,-73.7162890
1895,Boulevard René-Laennec,H7M 5E2,45.6070599,-73.7160228
1865,Boulevard René-Laennec,H7M 5E2,45.6069891,-73.7161734
624,Boul. le Corbusier,H7N 0A9,45.5558084,-73.7246024
1654,Boulevard Curé-Labelle,H7V 2W2,45.5507766,-73.7593666
3051,Boulevard de la Concorde O,H7E 2C1,45.5932323,-73.6685336
1895,Boulevard René-Laennec,H7M 5E2,45.6072094,-73.7157367
380,Boulevard Dagenais Est,H7M 5H4,45.6100132,-73.7197383
1950,Boulevard Chomedey,H7T 2W3,45.5589418,-73.7556120
1435,Boulevard Saint-Martin Ouest,H7S 2C6,45.5704054,-73.7241809
138,Rue Principale,H7X 3V2,45.5359543,-73.7978985
1263,Boulevard Jolibourg,H7Y 1Z8,45.5238847,-73.8521456
1263,Boulevard Jolibourg,H7Y 1Z8,45.5241237,-73.8523923
1263,Boulevard Jolibourg,H7Y 1Z8,45.5242870,-73.8526051
860,38e Rue,H7R 2C3,45.5412493,-73.8780893
880,38e Rue,H7R 2C3,45.5413495,-73.8779711
19,Boulevard Samson,H7X3S5,45.5224367,-73.7861422
4341,Boulevard Dagenais Ouest,H7R 1L3,45.5587466,-73.8406702
6000,Boulevard Arthur-Sauvé,H7R 3X7,45.5483790,-73.8657030
2090,Boulevard des Laurentides,H7M 2Y6,45.6066829,-73.7344652
2090,Boulevard des Laurentides,H7M 2Y6,45.6067279,-73.7344564
5680,Boulevard des Laurentides,H7K 2K2,45.6282351,-73.7530393
5000,Boulevard des Laurentides,H7K 2J5,45.6197691,-73.7457887
2006,Rue Robert-Bouthillette,H7L0H9,45.6075915,-73.7776921
2002,Rue Robert-Bouthillette,H7L0H9,45.6075442,-73.7776725
2010,Rue Robert-Bouthillette,H7L0H9,45.6077042,-73.7777339
297,Bd du Curé-Labelle,H7L 2Z9,45.5978117,-73.7890108
1550,Boulevard Daniel-Johnson,H7V 3V7,45.5561719,-73.7445917
5555,Rue Maurice-Cullen,H7C 2T8,45.6265606,-73.6498022
1066,Desserte ouest Chomedey (A-13),H7W4Z2,45.5308945,-73.7857435
3625,Boulevard Curé-Labelle,H7P 0A5,45.5711265,-73.7831731
99,7e Rue,H7N 2C8,45.5624068,-73.6932735
665,Rue des Jardins-Sainte-Dorothée,H7X 2K4,45.5227984,-73.8074540
118-B,Boulevard Curé-Labelle,H7L 2Z4,45.6079103,-73.7907781
1275,Rue Laval,H7C 1W8,45.6156672,-73.6493862
2900,Boulevard de la Concorde O,H7E 2B6,45.5910180,-73.6696746
3100,Boulevard de la Concorde E,H7E 2B8,45.5918245,-73.6653735
115,Rue Alexandre,H7G 3L3,45.5670880,-73.6798782
145,Rue Alexandre,H7G 3L3,45.5680577,-73.6807289
705,Chemin du Trait Carré,H7N 1B3,45.5667503,-73.7170608
745,Boulevard Saint-Martin Ouest,H7M 1Y7,45.5748715,-73.7164723
2900,Boulevard le Carrefour,H7T 2K9,45.5690028,-73.7460958
3095,Autoroute Laval,H7P 4W5,45.5723394,-73.7597752
3220,Rue Esther,H7P 2G9,45.5761432,-73.7991356
3825,Boulevard Dagenais Ouest,H7P 5R8,45.5712390,-73.8218226
4747,Boulevard Arthur-Sauvé,H7R 5P8,45.5525079,-73.8690110
4865,Chemin du Souvenir,H7W 1E1,45.5380575,-73.7711810
4185,Boulevard Saint-Martin,H7T,45.5497871,-73.7663476
1333,Boulevard Chomedey,H7V 3Y1,45.5505944,-73.7436709
3700,Boul Lévesque Ouest,H7V 1E8,45.5349290,-73.7362155
201,Boulevard Armand-Frappier,H7V 4A2,45.5468839,-73.7225313
956,Montée Gravel,H7X 2B8,45.5274002,-73.8204580
425,Rue de Lausanne,H7M 0B4,45.6191508,-73.7206761
7189,21e Avenue,H7R 3G9,45.5396236,-73.8689627
1125,Montée du Moulin,H7A 2A2,45.6748206,-73.5795675
8050,Rue Mylène,H7A 1G3,45.6672917,-73.5877580
901,Avenue du Parc,H7E 2T7,45.6058300,-73.6611510
100,Rue Saint-Saëns Ouest,H7H 1J1,45.6363763,-73.7556709
705,18e Avenue,H7R 5G4,45.5580914,-73.8512628
670,Rue de la Place Publique,H7X 1G1,45.5284490,-73.8208228
5313,Rue Portal,H7K 3A4,45.6249628,-73.7403028
5315,Rue Portal,H7K 3A4,45.6250833,-73.7401623
6245,Rue de Prince-Rupert,H7H 1C5,45.6398459,-73.7492538
755,Rue Parkway,H7W 1W9,45.5355006,-73.7613663
886,Chemin de la Fourche,H7Y 1T1,45.5191381,-73.8570585
2225,autoroute des Laurentides,H7S 1Z6,45.5700568,-73.7428325
327,Rue Montmorency,H7N 5V9,45.5548899,-73.7104730
790,Rue Madeleine,H7P 3W7,45.5777357,-73.8217241
2930,Boulevard de la Concorde O,H7E 2B6,45.5911719,-73.6691352
3051,Boulevard de la Concorde O,H7E 2C1,45.5933122,-73.6685558
125,Boulevard Lévesque Est,H7G 1C2,45.5631685,-73.6778844
55,Croissant de Callières,H7E 3M8,45.5906947,-73.6686748
3520,Boulevard de la Concorde E,H7E 2C5,45.5941502,-73.6617349
650,Rue de Beauport,H7E 4B8,45.5833174,-73.6689868
580,Rue des Alouettes,H7G 3W6,45.5806188,-73.6869533
234,Rue des Alpes,H7G 3V8,45.5728999,-73.6781978
2430,Rue De Meulles,H7E 1R9,45.5906483,-73.6773441
3705,Autoroute des Laurentides,H7L3H7,45.5822912,-73.7612291
2160,Boulevard Dagenais Ouest,H7L 5X9,45.5840996,-73.7716327
1055,Boulevard des Laurentides,H7G 2W2,45.5778900,-73.6972146
1160,Boulevard de l'Avenir,H7N 6L2,45.5634972,-73.7244577
3925,Boulevard Curé-Labelle,H7P 0A5,45.5725151,-73.7845868
1135,Boulevard des Laurentides,H7M2X9,45.5824295,-73.7050806
5680,Boulevard des Laurentides,H7K 2K2,45.6279509,-73.7528076
1465,Boulevard Le Corbusier,H7N 6L1,45.5602400,-73.7262599
1445,Boulevard Le Corbusier,H7N 6L1,45.5598275,-73.7258467
1425,Boulevard Le Corbusier,H7N 6L1,45.5593892,-73.7255110
1925,Rue Émile Martineau,H7N 0B2,45.5596115,-73.7248256
1420,Rue Lucien Paiement,H7N 0B5,45.5599996,-73.7243006
1440,Rue Lucien Paiement,H7N 0B5,45.5604306,-73.7247195
1900,Boulevard du Souvenirs,H7N 0B9,45.5607473,-73.7252066
1920,Boulevard du Souvenirs,H7N 0B3,45.5605350,-73.7258556
420,Boulevard Armand Frappier,H7V 4B4,45.5523573,-73.7343496
3655,Avenue des Perron,H7J 1A3,45.6485179,-73.7227369
2500,Avenue des Perron,H7J 1G5,45.6412269,-73.7279253
3500,Avenue des Perron,H7J 1A3,45.6473258,-73.7237793
3550,Avenue des Perron,H7J 1A3,45.6474276,-73.7234089
3400,Avenue des Perron,H7J 1A3,45.6469054,-73.7246526
3450,Avenue des Perron,H7J 1A3,45.6471435,-73.7240221
3654,Avenue des Perron,H7J 1A3,45.6477385,-73.7224049
3660,Avenue des Perron,H7J 1A3,45.6477781,-73.7220920
3760,Avenue des Perron,H7J 1A3,45.6484516,-73.7212530
3656,Avenue des Perron,H7J 1A3,45.6479681,-73.7221430
5443,Boulevard Lévesque Est,H7C 1N8,45.6156329,-73.6456653
4025,Rue Gaboury,H7T 1H1,45.5525861,-73.7668171
1555,Boulevard de l'Avenir,H7S 2N5,45.5650360,-73.7242802
400,Rue Jacques,H7P 5K5,45.5675073,-73.8151798
5055,Chemin Du Souvenir,H7W 1E1,45.5365762,-73.7770250
2500,Rue Buteau,H7T 2X4,45.5529840,-73.7930178
2585,Boulevard des Oiseaux,H7L 4M4,45.5910869,-73.7761698
6060,Rue des Cardinaux,H7L6B7,45.5982858,-73.7660456
810,38e Rue,H7R 2C3,45.5409305,-73.8787736
820,38e Rue,H7R 2C3,45.5409961,-73.8786195
830,38e Rue,H7R 2C3,45.5410807,-73.8785048
444,Rue Saint-Luc,H7N 4X9,45.5683609,-73.6915524
450,Rue Saint-Luc,H7N 4X9,45.5685581,-73.6917665
456,Rue Saint-Luc,H7N 4X9,45.5686466,-73.6918654
460,Rue Saint-Luc,H7N 4X9,45.5687149,-73.6919856
466,Rue Saint-Luc,H7N 4X9,45.5687941,-73.6920673
468,Rue Saint-Luc,H7N 4X9,45.5688984,-73.6921545
476,Rue Saint-Luc,H7N 4X9,45.5690453,-73.6923884
480,Rue Saint-Luc,H7N 4X9,45.5692432,-73.6925564
486,Rue Saint-Luc,H7N 4X9,45.5695206,-73.6928525
490,Rue Saint-Luc,H7N 4X9,45.5696342,-73.6929725
4636,Rue Saint-Henri,H7C 1J4,45.6091841,-73.6505464
4640,Rue Saint-Henri,H7C 1J4,45.6092982,-73.6503618
4644,Rue Saint-Henri,H7C 1J4,45.6093853,-73.6501947
2030,Rue de Namur,H7M 5K4,45.6030207,-73.7157965
2040,Rue de Namur,H7M 5K4,45.6031001,-73.7156777
2130,Rue de Palerme,H7K 3T9,45.6149600,-73.7270125
2132,Rue de Palerme,H7K 3T9,45.6150071,-73.7270723
2136,Rue de Palerme,H7K 3T9,45.6150667,-73.7271654
2138,Rue de Palerme,H7K 3T9,45.6151154,-73.7272247
2142,Rue de Palerme,H7K 3T9,45.6151716,-73.7273178
2144,Rue de Palerme,H7K 3T9,45.6152198,-73.7273754
2148,Rue de Palerme,H7K 3T9,45.6152742,-73.7274558
2150,Rue de Palerme,H7K 3T9,45.6153207,-73.7275127
7759,Rue du Rivage,H7A 2S4,45.6570919,-73.5915424
7763,Rue du Rivage,H7A 2S4,45.6571552,-73.5913855
7767,Rue du Rivage,H7A 2S4,45.6572345,-73.5912345
186,Rue de la Fleur-de-Lys,H7G 2K7,45.5778071,-73.6875461
190,Rue de la Fleur-de-Lys,H7G 2K7,45.5778942,-73.6875217
184,Rue de la Fleur-de-Lys,H7G 2K7,45.5777636,-73.6875582
188,Rue de la Fleur-de-Lys,H7G 2K7,45.5778518,-73.6875336
196,Rue de la Fleur-de-Lys,H7G 2K7,45.5781420,-73.6874222
200,Rue de la Fleur-de-Lys,H7G 2K7,45.5782946,-73.6873475
206,Rue de la Fleur-de-Lys,H7G 2K7,45.5784362,-73.6872683
212,Rue de la Fleur-de-Lys,H7G 2K7,45.5785802,-73.6872114
218,Rue de la Fleur-de-Lys,H7G 2K7,45.5787215,-73.6870967
224,Rue de la Fleur-de-Lys,H7G 2K7,45.5788620,-73.6870139
230,Rue de la Fleur-de-Lys,H7G 2K7,45.5789846,-73.6868922
236,Rue de la Fleur-de-Lys,H7G 2K7,45.5791309,-73.6868032
960,Rue Maurice,H7X 2H6,45.5285966,-73.8194625
970,Rue Maurice,H7X 2H6,45.5287504,-73.8196861
980,Rue Maurice,H7X 2H6,45.5289149,-73.8198366
"2929,2949",Boulevard de la Renaissance,H7L0H3,45.6044031,-73.7757129
2525,Boulevard de la Renaissance,H7L3Y2,45.6026665,-73.7834156
216,Boulevard Marc-Aurèle-Fortin,H7L1Z5,45.6047573,-73.7836982
2475,Rue Honoré-Mercier,H7L2S9,45.6036795,-73.7823610
211,Boulevard Sainte-Rose,H7L 1L7,45.6147261,-73.7867459
5075,Chemin du Souvenir,H7W 1E1,45.5356610,-73.7773146
4250,Boulevard Lévesque Ouest,H7W 2P8,45.5293312,-73.7480197
4530,Autoroute 440,H7T 2P7,45.5595201,-73.7891360
1330,Rue Antonio,H7V 3N4,45.5475641,-73.7542818
560,64e Avenue,H7V 2J3,45.5422986,-73.7294753
2905,place Louis-R.-Renaud,H7V 0A3,45.5559958,-73.7312579
1950,Boulevard Chomedey,H7T 2W3,45.5589588,-73.7556373
2705,Boulevard Chomedey,H7P 0C2,45.5701528,-73.7654932
3850,Boulevard Dagenais Ouest,H7P 1W1,45.5697443,-73.8211003
355,Rue Flore,H7P 5L5,45.5745705,-73.7987906
1774,Rue de Berne,H7M 2V7,45.5990063,-73.7279639
110,Rue de Toulouse,H7M 4L2,45.5997235,-73.7188367
1575,Boulevard de l'Avenir,H7S 2N5,45.5659441,-73.7251679
510,Rue Lindbergh,H7P 2N9,45.5811579,-73.7839460
3860,Boulevard Dagenais Ouest,H7P 1W1,45.5700458,-73.8214785
4250,Boulevard Lévesque Ouest,H7W 2P8,45.5300536,-73.7483568
1015,Boulevard des Laurentides,H7G 2V8,45.5751574,-73.6969511
720,Rue Fleury,H7P 3B8,45.5849634,-73.8014820
910,Montée Gravel,H7X 2B8,45.5263109,-73.8199206
2925,Avenue des Aristocrates,H7E 0H3,45.6146686,-73.6808726
2935,Avenue des Aristocrates,H7E 0H3,45.6150940,-73.6799731
525,Boulevard Cartier Ouest,H7V 3S8,45.5456411,-73.7211395
1350,Boul. le Corbusier,H7N 0A9,45.5565665,-73.7262101
3720,Boulevard Saint-Elzéar O,H7P 0G7,45.5683437,-73.7746024
"2700, 2750",Rue Bernard-Lefebvre,H7C 0A5,45.6342805,-73.6460353
300,Terrasse Brisette,H7J 1A2,45.6593627,-73.7478895
5160,Rang du Bas-Saint-François,H7E 4P2,45.6398373,-73.6683265
155,Boulevard Saint-Rose Est,H7H 1P2,45.6243527,-73.7592596
4115,Boulevard Samson,h7w 2g4,45.5351345,-73.7482646
4105,Boulevard Samson,h7w 2g4,45.5352677,-73.7480044
346,Boulevard Curé-Labelle,H7G 2P1,45.5943522,-73.7870984
2795,Boulevard des Oiseaux,H7L 4S9,45.5889881,-73.7802939
427,Boulevard Dagenais Est,H7M 5G8,45.6119044,-73.7183838
393a,Boulevard Cartier Ouest,H7N 2K6,45.5500720,-73.7120047
2735,Boulevard des Oiseaux,H7L 4S9,45.5886900,-73.7801218
2755,Boulevard des Oiseaux,H7L 4S9,45.5887743,-73.7800433
2745,Boulevard des Oiseaux,H7L 4S9,45.5887360,-73.7800873
6205,Rue du Rouge-Gorge,H7L 4X5,45.5881890,-73.7795175
1355,Boulevard des Laurentides,H7M 2Y2,45.5871711,-73.7105969
244,Boulevard Sainte-Rose,H7L 1L9,45.6123277,-73.7886172
1750,Rue Fleetwood,H7N 6G8,45.5745222,-73.7140797
650,Avenue des Pélicans,H7A 3K1,45.6563804,-73.6130014
610,Boulevard Curé-Labelle,H7V 2T7,45.5365985,-73.7426128
927-941,Rue Wilfrid Laurier,H7V3E9,45.5437477,-73.7446580
919-925,Rue Wilfrid Laurier,H7V3E9,45.5434554,-73.7445718
1270,Rue Principale,H7X 4A8,45.5316889,-73.8391800
4630,Desserte sud Laval Ouest (A-440),H7T 2P7,45.5583748,-73.7930559
1350,Autoroute 13,H7X 3W9,45.5391717,-73.7939305
5855,rue Boulard,H7B 1A3,45.6865891,-73.6474753
132,Place Cusson,H7L 4A4,45.6068592,-73.7931527
128,Place Cusson,H7L 4A4,45.6067053,-73.7931081
124,Place Cusson,H7L 4A4,45.6065114,-73.7930143
120,Place Cusson,H7L 4A4,45.6064178,-73.7927973
116,Place Cusson,H7L 4A4,45.6065177,-73.7926168
112,Place Cusson,H7L 4A4,45.6067580,-73.7926467
108,Place Cusson,H7L 4A4,45.6069071,-73.7927216
106,Place Cusson,H7L 4A4,45.6069618,-73.7927271
102,Place Cusson,H7L 4A4,45.6071147,-73.7927854
100,Place Cusson,H7L 4A4,45.6071733,-73.7927989
136,Place Cusson,H7L 4A4,45.6070083,-73.7931751
140,Place Cusson,H7L 4A4,45.6071517,-73.7932172
144,Place Cusson,H7L 4A4,45.6073075,-73.7932649
146,Place Cusson,H7L 4A4,45.6073706,-73.7932797
96,Place Cusson,H7L 4A4,45.6073260,-73.7928529
94,Place Cusson,H7L 4A4,45.6073879,-73.7928663
92,Place Cusson,H7L 4A4,45.6075370,-73.7929186
90,Place Cusson,H7L 4A4,45.6076041,-73.7929333
150,Place Cusson,H7L 4A4,45.6075224,-73.7933259
152,Place Cusson,H7L 4A4,45.6075857,-73.7933368
156,Place Cusson,H7L 4A4,45.6076992,-73.7933717
160,Place Cusson,H7L 4A4,45.6078213,-73.7934059
319,Rue Cloutier,H7L 1P8,45.6082234,-73.7931614
317,Rue Cloutier,H7L 1P8,45.6082311,-73.7930941
315,Rue Cloutier,H7L 1P8,45.6082420,-73.7930239
314,Rue Cloutier,H7L 1P8,45.6079601,-73.7929781
310-310A-312,Rue Cloutier,H7L 1P8,45.6080008,-73.7927158
321,Rue Cloutier,H7L 1P8,45.6082098,-73.7932299
171,Boulevard Curé-Labelle,H7L 2Z8,45.6063173,-73.7913364
4740,Boulevard des Mille-Íles,H7J 1A1,45.6834968,-73.6703836
511,Terrasse Brissette,H7J1G7,45.6631817,-73.7473950
4356,Boulevard Dagenais Ouest,H7R 1L3,45.5574106,-73.8416919
1810,Rue Marchand,H7G 4V6,45.5921129,-73.6905401
4320,Boulevard des Mille-Íles,H7J 1A1,45.6829319,-73.6797823
4326,Boulevard des Mille-Íles,H7J 1A1,45.6834070,-73.6797888
4350,Boulevard des Mille-Íles,H7J 1A1,45.6833919,-73.6789474
4370,Boulevard des Mille-Íles,H7J 1A1,45.6831569,-73.6785529
4584,Boulevard des Mille-Íles,H7J 1A1,45.6833228,-73.6740958
9,Île Lamothe,H7J 1A2,45.6658142,-73.7480975
8960,Place Brissette,H7J 1A2,45.6608552,-73.7515148
8980,Place Brissette,H7J 1A2,45.6611115,-73.7511798
8996,Place Brissette,H7J 1A2,45.6614190,-73.7508764
8999,Place Brissette,H7J 1A2,45.6616548,-73.7501482
20,Rue Corriveau,H7J 1A2,45.6642403,-73.7468447
25,Rue Corriveau,H7J 1A2,45.6639553,-73.7463115
75,Rue Corriveau,H7J 1A2,45.6629349,-73.7459676
76,Rue Corriveau,H7J 1A2,45.6629098,-73.7464606
85,Rue Corriveau,H7J 1A2,45.6626790,-73.7458515
88,Rue Corriveau,H7J 1A2,45.6626304,-73.7463437
100,Rue Corriveau,H7J 1A2,45.6623501,-73.7463144
101,Rue Corriveau,H7J 1A2,45.6624681,-73.7457970
540,Rue Hogue,H7J 1A2,45.6643401,-73.7463542
548,Rue Hogue,H7J 1A2,45.6643895,-73.7458881
559,Rue Hogue,H7J 1A2,45.6652852,-73.7461247
420,Rue Ricard,H7J 1A2,45.6627040,-73.7480068
425,Rue Ricard,H7J 1A2,45.6624393,-73.7482830
440,Rue Ricard,H7J 1A2,45.6627944,-73.7481737
445,Rue Ricard,H7J 1A2,45.6625380,-73.7484197
485,Rue Ricard,H7J 1A2,45.6628315,-73.7485676
485,Rue Rouleau,H7J 1A2,45.6629776,-73.7476908
495,Rue Rouleau,H7J 1A2,45.6630601,-73.7478117
505,Rue Rouleau,H7J 1A2,45.6630887,-73.7483072
515,Rue Rouleau,H7J 1A2,45.6632851,-73.7481322
525,Rue Rouleau,H7J 1A2,45.6636448,-73.7480537
534,Rue Rouleau,H7J 1A2,45.6642942,-73.7480745
536,Rue Théorêt,H7J 1A2,45.6637179,-73.7460756
540,Rue Théorêt,H7J 1A2,45.6637381,-73.7458711
544,Rue Théorêt,H7J 1A2,45.6637599,-73.7456721
552,Rue Théorêt,H7J 1A2,45.6637877,-73.7454302
421,Terrasse Brissette,H7J 1A2,45.6615542,-73.7490130
480,Terrasse Brissette,H7J 1A2,45.6619534,-73.7477512
484,Terrasse Brissette,H7J 1A2,45.6621219,-73.7476066
488,Terrasse Brissette,H7J 1A2,45.6621981,-73.7474295
496,Terrasse Brissette,H7J 1A2,45.6624596,-73.7471146
504,Terrasse Brissette,H7J 1A2,45.6626208,-73.7469089
550,Terrasse Brissette,H7J 1A2,45.6630523,-73.7456333
554,Terrasse Brissette,H7J 1A2,45.6631191,-73.7454452
558,Terrasse Brissette,H7J 1A2,45.6631152,-73.7451817
6,Rue Lamothe,H7J 1A2,45.6644833,-73.7473147
12,Rue Lamothe,H7J 1A2,45.6643573,-73.7472759
18,Rue Lamothe,H7J 1A2,45.6642413,-73.7472128
23,Rue Lamothe,H7J 1A2,45.6640535,-73.7475490
41,Rue Lamothe,H7J 1A2,45.6637441,-73.7474206
58,Rue Lamothe,H7J 1A2,45.6634439,-73.7470749
76,Rue Lamothe,H7J 1A2,45.6631783,-73.7469370
3535,Avenue des Perron,H7J 1A3,45.6478207,-73.7237644
3575,Avenue des Perron,H7J 1A3,45.6480254,-73.7233076
3675,Avenue des Perron,H7J 1A3,45.6483781,-73.7224470
1030,Rue Dion,H7Y1E2,45.5202359,-73.8364467
1330,Rue Dubeau,H7W 5N3,45.5410763,-73.7833504
4640,Boulevard Samson,H7W 2H3,45.5279175,-73.7574110
545,Rue Théorêt,H7J1G7,45.6641068,-73.7456756
541,Rue Théorêt,H7J1G7,45.6640434,-73.7459764
1430,Rue Michelin,H7L4R3,45.5900220,-73.7463687
4610,Boulevard Arthur-Sauvé,H7R 3X1,45.5521557,-73.8699360
5049,Rue de Prince-Rupert,H7K 2L7,45.6282004,-73.7404435
320,83e Avenue,H7W 2V1,45.5356550,-73.7428239
3910,3e Rue,H7W 2L3,45.5354794,-73.7431405
3914;3916;3918,3e Rue,H7W 2L3,45.5354175,-73.7432848
3924,3e Rue,H7W 2L3,45.5353198,-73.7434468
304;306,84e Avenue,H7W 2X1,45.5349431,-73.7436333
3940;3942,3e Rue,H7W 2L5,45.5351224,-73.7438145
3948;3950,3e Rue,H7W 2L5,45.5350418,-73.7439599
3958,3e Rue,H7W 2L5,45.5349233,-73.7440890
3981-3983,3e Rue,H7W 2L4,45.5349976,-73.7448971
3973,3e Rue,H7W 2L4,45.5351105,-73.7447432
3925;2925A;3927,3e Rue,H7W 2L4,45.5356317,-73.7438064
3933,3e Rue,H7W 2L4,45.5355154,-73.7439689
3941;3943,3e Rue,H7W 2L4,45.5354108,-73.7441264
3949,3e Rue,H7W 2L4,45.5353513,-73.7442673
3965,3e Rue,H7W 2L4,45.5351963,-73.7445955
3957,3e Rue,H7W 2L4,45.5352869,-73.7444288
6065,Rue des Cardinaux,H7L6B7,45.5984074,-73.7649665
4,Rue de la Plage-Venise,H7H 1E5,45.6397482,-73.7629481
971,Montée Gravel,H7X 2B9,45.5282000,-73.8206585
5467,Rue Tougas,H7K 3W6,45.6222353,-73.7541617
5463,Rue Tougas,H7K 3W6,45.6222862,-73.7539939
5464,Rue Tougas,H7K 3W6,45.6219514,-73.7537930
5468,Rue Tougas,H7K 3W6,45.6219098,-73.7539705
5472,Rue Tougas,H7K 3W6,45.6218849,-73.7541380
5480,Rue Tougas,H7K 3W6,45.6218562,-73.7544737
5471,Rue Tougas,H7K 3W6,45.6221996,-73.7543324
5484,Rue Tougas,H7K 3W6,45.6218241,-73.7546382
5488,Rue Tougas,H7K 3W6,45.6218520,-73.7548254
5476,Rue Tougas,H7K 3W6,45.6218772,-73.7543113
5491,Rue Tougas,H7K 3W6,45.6221595,-73.7545963
5495,Rue Tougas,H7K 3W6,45.6222816,-73.7546415
5499,Rue Tougas,H7K 3W6,45.6223978,-73.7546301
5492,Rue Tougas,H7K 3W6,45.6219351,-73.7549803
5496,Rue Tougas,H7K 3W6,45.6220596,-73.7550796
5500,Rue Tougas,H7K 3W6,45.6221795,-73.7550992
1203,Rue Teasdale,H7K 3W6,45.6224662,-73.7544029
1207,Rue Teasdale,H7K 3W6,45.6225041,-73.7542738
1211,Rue Teasdale,H7K 3W6,45.6225893,-73.7541346
1212,Rue Teasdale,H7K 3W6,45.6229424,-73.7543730
1208,Rue Teasdale,H7K 3W6,45.6228413,-73.7544593
1204,Rue Teasdale,H7K 3W6,45.6227848,-73.7546059
1200,Rue Teasdale,H7K 3W6,45.6227500,-73.7547304
1196,Rue Teasdale,H7K 3W6,45.6226698,-73.7548434
1192,Rue Teasdale,H7K 3W6,45.6226441,-73.7549597
1188,Rue Teasdale,H7K 3W6,45.6225949,-73.7550738
1184,Rue Teasdale,H7K 3W6,45.6225445,-73.7551926
1180,Rue Teasdale,H7K 3W6,45.6224907,-73.7553176
1176,Rue Teasdale,H7K 3W6,45.6224367,-73.7554471
1172,Rue Teasdale,H7K 3W6,45.6223660,-73.7555624
1168,Rue Teasdale,H7K 3W6,45.6223272,-73.7557127
1164,Rue Teasdale,H7K 3W6,45.6222595,-73.7558546
1160,Rue Teasdale,H7K 3W6,45.6221590,-73.7559878
1156,Rue Teasdale,H7K 3W6,45.6220127,-73.7560560
1152,Rue Teasdale,H7K 3W6,45.6218779,-73.7560030
1148,Rue Teasdale,H7K 3W5,45.6217561,-73.7559764
1144,Rue Teasdale,H7K 3W5,45.6216263,-73.7559277
1140,Rue Teasdale,H7K 3W5,45.6215129,-73.7558973
1136,Rue Teasdale,H7K 3W5,45.6213831,-73.7558463
1132,Rue Teasdale,H7K 3W5,45.6212395,-73.7558595
1128,Rue Teasdale,H7K 3W5,45.6210972,-73.7557044
1124,Rue Teasdale,H7K 3W5,45.6210342,-73.7554962
1120,Rue Teasdale,H7K 3W5,45.6210553,-73.7552903
1116,Rue Teasdale,H7K 3W5,45.6210919,-73.7550855
1112,Rue Teasdale,H7K 3W5,45.6211109,-73.7548745
1108,Rue Teasdale,H7K 3W5,45.6211558,-73.7546838
1104,Rue Teasdale,H7K 3W5,45.6211557,-73.7544725
1100,Rue Teasdale,H7K 3W5,45.6211911,-73.7542783
1092,Rue Teasdale,H7K 3W5,45.6212190,-73.7538673
1088,Rue Teasdale,H7K 3W5,45.6212240,-73.7536636
1084,Rue Teasdale,H7K 3W5,45.6212718,-73.7534539
1155,Rue Teasdale,H7K 3W6,45.6220034,-73.7555192
1151,Rue Teasdale,H7K 3W5,45.6218728,-73.7555048
1147,Rue Teasdale,H7K 3W5,45.6217549,-73.7554763
1143,Rue Teasdale,H7K 3W5,45.6216360,-73.7554157
1139,Rue Teasdale,H7K 3W5,45.6215061,-73.7553898
1135,Rue Teasdale,H7K 3W5,45.6213910,-73.7553585
1115,Rue Teasdale,H7K 3W5,45.6214514,-73.7550444
1111,Rue Teasdale,H7K 3W5,45.6214739,-73.7548761
1107,Rue Teasdale,H7K 3W5,45.6214928,-73.7547103
1103,Rue Teasdale,H7K 3W5,45.6215232,-73.7545400
1099,Rue Teasdale,H7K 3W5,45.6215335,-73.7543386
1095,Rue Teasdale,H7K 3W5,45.6215372,-73.7541629
1091,Rue Teasdale,H7K 3W5,45.6215553,-73.7539994
1087,Rue Teasdale,H7K 3W5,45.6215653,-73.7538237
1083,Rue Teasdale,H7K 3W5,45.6216225,-73.7536593
664,Avenue Marc-Aurèle-Fortin,H7L 5M6,45.5988563,-73.7996571
5421,Rue Thibault,H7K 2Z1,45.6208581,-73.7542326
5427,Rue Thibault,H7K 2Z1,45.6208319,-73.7544170
5433,Rue Thibault,H7K 2Z1,45.6208030,-73.7546169
5439,Rue Thibault,H7K 2Z1,45.6207961,-73.7547987
5445,Rue Thibault,H7K 2Z1,45.6207538,-73.7549942
5451,Rue Thibault,H7K 2Z1,45.6207464,-73.7551976
5457,Rue Thibault,H7K 2Z1,45.6206983,-73.7554179
5463,Rue Thibault,H7K 2Z1,45.6206998,-73.7556281
5469,Rue Thibault,H7K 2Z1,45.6207651,-73.7558475
5475,Rue Thibault,H7K 2Z1,45.6208271,-73.7560367
5481,Rue Thibault,H7K 2Z1,45.6209413,-73.7561618
5487,Rue Thibault,H7K 2Z1,45.6210762,-73.7562461
5493,Rue Thibault,H7K 2Z1,45.6212086,-73.7562973
5499,Rue Thibault,H7K 2Z1,45.6213677,-73.7563437
5505,Rue Thibault,H7K 2Z1,45.6215065,-73.7563884
5511,Rue Thibault,H7K 2Z1,45.6216360,-73.7564294
5517,Rue Thibault,H7K 2Z1,45.6217750,-73.7564766
5523,Rue Thibault,H7K 2Z1,45.6219152,-73.7565142
5529,Rue Thibault,H7K 2Z1,45.6220661,-73.7565346
5409,Rue Thibault,H7K 3R9,45.6208820,-73.7537997
5403,Rue Thibault,H7K 3R9,45.6209073,-73.7536462
5397,Rue Thibault,H7K 3R9,45.6209290,-73.7534821
5391,Rue Thibault,H7K 3R9,45.6209621,-73.7532981
5385,Rue Thibault,H7K 3R9,45.6210465,-73.7530793
5379,Rue Thibault,H7K 3R9,45.6211327,-73.7529009
5373,Rue Thibault,H7K 3R9,45.6212134,-73.7527458
5367,Rue Thibault,H7K 3R9,45.6212795,-73.7525719
5361,Rue Thibault,H7K 3R9,45.6213492,-73.7524221
5355,Rue Thibault,H7K 3R9,45.6214131,-73.7522532
5349,Rue Thibault,H7K 3R9,45.6215117,-73.7521020
5343,Rue Thibault,H7K 3R5,45.6215705,-73.7519253
5337,Rue Thibault,H7K 3R5,45.6216864,-73.7516810
5331,Rue Thibault,H7K 3R5,45.6217531,-73.7515334
5325,Rue Thibault,H7K 3R5,45.6218086,-73.7514088
5319,Rue Thibault,H7K 3R5,45.6218628,-73.7512564
5313,Rue Thibault,H7K 3R5,45.6219343,-73.7510902
5307,Rue Thibault,H7K 3R5,45.6220069,-73.7509414
5301,Rue Thibault,H7K 3R5,45.6220816,-73.7508008
3000,Rue de Pompei,H7K 3S1,45.6204793,-73.7541873
2996,Rue de Pompei,H7K 3S1,45.6203673,-73.7541529
2994,Rue de Pompei,H7K 3S1,45.6202645,-73.7540930
2990,Rue de Pompei,H7K 3S1,45.6201497,-73.7540153
2986,Rue de Pompei,H7K 3S1,45.6200373,-73.7539896
2982,Rue de Pompei,H7K 3S1,45.6199364,-73.7539254
2978,Rue de Pompei,H7K 3S1,45.6198225,-73.7538531
2974,Rue de Pompei,H7K 3S2,45.6196961,-73.7538091
2970,Rue de Pompei,H7K 3S2,45.6195977,-73.7537783
2966,Rue de Pompei,H7K 3S2,45.6194889,-73.7537115
2962,Rue de Pompei,H7K 3S2,45.6193861,-73.7536511
2958,Rue de Pompei,H7K 3S2,45.6192660,-73.7536118
2954,Rue de Pompei,H7K 3S2,45.6191582,-73.7535652
138,Boulevard Sainte-Rose,H7L1K4,45.6167127,-73.7821278
148,Boulevard Sainte-Rose,H7L1L3,45.6163459,-73.7828717
2,Terrasse Dufferin,H7L 2H6,45.6284684,-73.7820570
190,Rue Roseval,H7L2V6,45.6048373,-73.7847941
3003,Boulevard le Carrefour,H7T 1C7,45.5705462,-73.7521785
1881,Avenue Dumouchel,H7S 1J7,45.5709219,-73.7343286
475,Boulevard de l'Avenir,H7N 5H9,45.5599519,-73.7178814
4320,Rue Gonthier,H7T 2A5,45.5530084,-73.7727359
327,Rue Montmorency,H7N 5V9,45.5544848,-73.7104653
1539,Rue Du Jura,H7M 5K1,45.5981337,-73.7139088
1535,Rue Du Jura,H7M 5K1,45.5980203,-73.7138106
1517,Rue Du Jura,H7M 5K1,45.5978055,-73.7135700
1531,Rue Du Jura,H7M 5K1,45.5979130,-73.7136625
1484,Rue de Lunebourg,H7M 6E4,45.5980845,-73.7131098
1505,Rue Du Jura,H7M 5K1,45.5975385,-73.7132926
1501,Rue Du Jura,H7M 5K1,45.5973825,-73.7131424
1493,Rue Du Jura,H7M 5K1,45.5972245,-73.7129476
1485,Rue Du Jura,H7M 5N1,45.5969530,-73.7126689
1475,Rue Du Jura,H7M 5N1,45.5968445,-73.7125626
1471,Rue Du Jura,H7M 5N1,45.5967320,-73.7124470
1467,Rue Du Jura,H7M 5N1,45.5966310,-73.7123320
1925,Rue de Pavie,H7M 5N2,45.5963400,-73.7120435
1935,Rue de Pavie,H7M 5N2,45.5964240,-73.7118755
1945,Rue de Pavie,H7M 5N2,45.5964990,-73.7117274
1955,Rue de Pavie,H7M 5N2,45.5965895,-73.7115705
1965,Rue de Pavie,H7M 5N2,45.5966670,-73.7114120
1975,Rue de Pavie,H7M 5N2,45.5967313,-73.7112305
1979,Rue de Pavie,H7M 5N2,45.5968260,-73.7110575
1985,Rue de Pavie,H7M 5N2,45.5969105,-73.7109295
1995,Rue de Pavie,H7M 5N2,45.5969875,-73.7108125
275,Rue de Trieste,H7M 4Z1,45.5972005,-73.7104770
2005,Rue de Pavie,H7M 5N2,45.5970585,-73.7106760
265,Rue de Trieste,H7M 4Z1,45.5971090,-73.7103523
255,Rue de Trieste,H7M 4Z1,45.5970145,-73.7102535
245,Rue de Trieste,H7M 4Z1,45.5969130,-73.7101585
239,Rue de Trieste,H7M 4Z1,45.5967915,-73.7103585
235,Rue de Trieste,H7M 4Z1,45.5967145,-73.7104995
231,Rue de Trieste,H7M 4Z1,45.5966315,-73.7106445
227,Rue de Trieste,H7M 4Z1,45.5965525,-73.7107860
223,Rue de Trieste,H7M 4Z1,45.5964633,-73.7109417
219,Rue de Trieste,H7M 4Z1,45.5963975,-73.7111300
215,Rue de Trieste,H7M 4Z1,45.5962975,-73.7112885
205,Rue de Trieste,H7M 4Z1,45.5962340,-73.7114395
195,Rue de Trieste,H7M 4Z1,45.5961405,-73.7116030
185,Rue de Trieste,H7M 4Z1,45.5960530,-73.7117540
1966,Rue de Pavie,H7M 6C3,45.5969767,-73.7117511
1960,Rue de Pavie,H7M 6C3,45.5968975,-73.7118800
1950,Rue de Pavie,H7M 6C3,45.5967959,-73.7120994
1730,Rue de Belfast,H7M 6C4,45.5971436,-73.7122361
1734,Rue de Belfast,H7M 6C4,45.5972283,-73.7120676
1726,Rue de Belfast,H7M 6C4,45.5970608,-73.7123946
1492,Rue de Sorrente,H7M 6E2,45.5975294,-73.7124005
1725,Rue de Belfast,H7M 6C4,45.5974151,-73.7126803
1496,Rue de Sorrente,H7M 6E2,45.5976524,-73.7125444
1500,Rue de Sorrente,H7M 6E2,45.5977960,-73.7127141
1488,Rue de Lunebourg,H7M 6E4,45.5982049,-73.7128906
1492,Rue de Lunebourg,H7M 6E4,45.5983100,-73.7126786
1496,Rue de Lunebourg,H7M 6E4,45.5984500,-73.7124550
1516,Rue de Lunebourg,H7M 4V4,45.5985880,-73.7121110
1493,Rue de Lunebourg,H7M 4T2,45.5980693,-73.7122295
1497,Rue de Lunebourg,H7M 4T2,45.5981915,-73.7120330
1501,Rue de Lunebourg,H7M 4T2,45.5982840,-73.7118394
1505,Rue de Lunebourg,H7M 4T2,45.5984020,-73.7116240
1509,Rue de Lunebourg,H7M 4T2,45.5984715,-73.7113995
1495,Rue de Sorrente,H7M 6E3,45.5978130,-73.7120210
1491,Rue de Sorrente,H7M 6E3,45.5976645,-73.7118716
1487,Rue de Sorrente,H7M 6E3,45.5974975,-73.7116857
1483,Rue de Sorrente,H7M 6E3,45.5973668,-73.7115286
1970,Rue de Pavie,H7M 5M8,45.5971561,-73.7113820
1990,Rue de Pavie,H7M 5M8,45.5973025,-73.7111435
2000,Rue de Pavie,H7M 5M8,45.5973945,-73.7109720
2010,Rue de Pavie,H7M 5M8,45.5975070,-73.7107740
1638,Place de Trieste,H7M 5M9,45.5976375,-73.7109983
1634,Place de Trieste,H7M 5M9,45.5976628,-73.7112444
1630,Place de Trieste,H7M 5M9,45.5977610,-73.7114378
1626,Place de Trieste,H7M 5M9,45.5978516,-73.7115524
1622,Place de Trieste,H7M 5M9,45.5980213,-73.7116050
1618,Place de Trieste,H7M 5M9,45.5981245,-73.7114175
1614,Place de Trieste,H7M 5M9,45.5982275,-73.7112577
1610,Place de Trieste,H7M 5M9,45.5982038,-73.7109912
1606,Place de Trieste,H7M 5M9,45.5981038,-73.7108764
1602,Place de Trieste,H7M 5M9,45.5979924,-73.7107468
1598,Place de Trieste,H7M 5M9,45.5978895,-73.7106330
1594,Place de Trieste,H7M 5M9,45.5977695,-73.7104880
1590,Place de Trieste,H7M 5M9,45.5976746,-73.7103820
2115,Rue de Pavie,H7M 4V5,45.5979959,-73.7089544
2105,Rue de Pavie,H7M 4V5,45.5979227,-73.7090760
2095,Rue de Pavie,H7M 4V5,45.5978487,-73.7091956
2085,Rue de Pavie,H7M 4V5,45.5977922,-73.7093174
2075,Rue de Pavie,H7M 4V5,45.5977311,-73.7094350
2065,Rue de Pavie,H7M 4V5,45.5976563,-73.7095668
2055,Rue de Pavie,H7M 4V5,45.5975773,-73.7096814
2045,Rue de Pavie,H7M 4V5,45.5975090,-73.7098228
2120,Rue de Pavie,H7M 4V6,45.5983680,-73.7091194
2110,Rue de Pavie,H7M 4V6,45.5982933,-73.7092473
2100,Rue de Pavie,H7M 4V6,45.5982206,-73.7093846
1473,Rue de Padoue,H7M 4X3,45.5980812,-73.7096356
1477,Rue de Padoue,H7M 4X3,45.5982028,-73.7097428
1483,Rue de Padoue,H7M 4X3,45.5983173,-73.7098586
1485,Rue de Padoue,H7M 4X3,45.5984199,-73.7099890
2138,Rue de Pavie,H7M 4V6,45.5985515,-73.7097435
2134,Rue de Pavie,H7M 4V6,45.5986245,-73.7096065
2130,Rue de Pavie,H7M 4V6,45.5986975,-73.7094625
2126,Rue de Pavie,H7M 4V6,45.5987675,-73.7093280
2127,Rue de Pavie,H7M 4V5,45.5990525,-73.7095885
2131,Rue de Pavie,H7M 4V5,45.5989710,-73.7097250
2135,Rue de Pavie,H7M 4V5,45.5989000,-73.7098816
2139,Rue de Pavie,H7M 4V5,45.5988329,-73.7100295
1495,Rue de Padoue,H7M 4V7,45.5986829,-73.7102737
1496,Rue de Padoue,H7M 4V9,45.5983410,-73.7105671
1500,Rue de Padoue,H7M 4V9,45.5984425,-73.7106835
1504,Rue de Padoue,H7M 4V9,45.5985400,-73.7107934
1492,Rue de Padoue,H7M 4V9,45.5982480,-73.7104690
1488,Rue de Padoue,H7M 4V9,45.5981495,-73.7103620
1484,Rue de Padoue,H7M 4V9,45.5980490,-73.7102585
1480,Rue de Padoue,H7M 4V9,45.5979570,-73.7101590
1508,Rue de Padoue,H7M 4V9,45.5986715,-73.7109155
1512,Rue de Padoue,H7M 4V9,45.5987915,-73.7110400
1516,Rue de Padoue,H7M 4V9,45.5989050,-73.7111680
1520,Rue de Padoue,H7M 4V9,45.5990065,-73.7113080
1524,Rue de Padoue,H7M 4V9,45.5991135,-73.7114280
1517,Rue de Lunebourg,H7M 4T2,45.5987580,-73.7115805
1513,Rue de Lunebourg,H7M 4T2,45.5986444,-73.7114528
1525,Rue de Lunebourg,H7M 4T2,45.5989610,-73.7118390
1521,Rue de Lunebourg,H7M 4T2,45.5988569,-73.7117277
1529,Rue de Lunebourg,H7M 4T2,45.5990810,-73.7119282
1533,Rue de Lunebourg,H7M 4T2,45.5992020,-73.7120795
1541,Rue de Lunebourg,H7M 4T2,45.5994509,-73.7123143
1545,Rue de Lunebourg,H7M 4T2,45.5995501,-73.7124677
1549,Rue de Lunebourg,H7M 4T2,45.5997090,-73.7126160
1550,Rue de Toscane,H7M 4T3,45.5998356,-73.7123632
1540,Rue de Toscane,H7M 4T3,45.5999005,-73.7122180
1544,Rue de Padoue,H7M 4V9,45.5996830,-73.7120265
1540,Rue de Padoue,H7M 4V9,45.5995845,-73.7119215
1536,Rue de Padoue,H7M 4V9,45.5994635,-73.7118010
1532,Rue de Padoue,H7M 4V9,45.5993550,-73.7116831
1528,Rue de Padoue,H7M 4V9,45.5992511,-73.7115575
1529,Rue de Padoue,H7M 4X4,45.5994295,-73.7110425
1535,Rue de Padoue,H7M 4X4,45.5995470,-73.7111825
1525,Rue de Padoue,H7M 4X4,45.5992763,-73.7108708
1541,Rue de Padoue,H7M 4V8,45.5998335,-73.7115020
1545,Rue de Padoue,H7M 4V8,45.5999330,-73.7116095
1520,Rue de Toscane,H7M 4T3,45.6001050,-73.7118145
1510,Rue de Toscane,H7M 4T3,45.6001985,-73.7116590
1560,Rue de Lunebourg,H7M 4V4,45.5997689,-73.7133706
1556,Rue de Lunebourg,H7M 4V4,45.5996165,-73.7132290
1524,Rue de Lunebourg,H7M 4V4,45.5988757,-73.7124254
1544,Rue de Lunebourg,H7M 4V4,45.5991837,-73.7127651
1548,Rue de Lunebourg,H7M 4V4,45.5993305,-73.7129305
1552,Rue de Lunebourg,H7M 4V4,45.5994630,-73.7130781
1580,Rue de Lunebourg,H7M 4V4,45.5999475,-73.7135615
1600,Rue de Lunebourg,H7M 4V4,45.6000748,-73.7136967
1460,Rue de Toscane,H7M 4T3,45.6006120,-73.7108540
1470,Rue de Toscane,H7M 4T3,45.6005310,-73.7110150
1480,Rue de Toscane,H7M 4T3,45.6004370,-73.7111710
1490,Rue de Toscane,H7M 4T3,45.6003555,-73.7113440
1500,Rue de Toscane,H7M 4T3,45.6002775,-73.7114835
1503,Croissant D'Oxford,H7M 4X5,45.6003390,-73.7105745
1507,Croissant D'Oxford,H7M 4X5,45.6002525,-73.7107430
1511,Croissant D'Oxford,H7M 4X5,45.6001615,-73.7109125
1515,Croissant D'Oxford,H7M 4X5,45.6000685,-73.7110840
1519,Croissant D'Oxford,H7M 4X5,45.5999770,-73.7112560
1520,Croissant D'Oxford,H7M 4X6,45.5996780,-73.7109225
1516,Croissant D'Oxford,H7M 4X6,45.5997700,-73.7107535
1512,Croissant D'Oxford,H7M 4X6,45.5998685,-73.7105895
1508,Croissant D'Oxford,H7M 4X6,45.5999545,-73.7104240
1496,Croissant D'Oxford,H7M 4X6,45.5996679,-73.7101768
1492,Croissant D'Oxford,H7M 4X6,45.5995729,-73.7103288
1488,Croissant D'Oxford,H7M 4X6,45.5994920,-73.7104703
1484,Croissant D'Oxford,H7M 4X6,45.5994115,-73.7106432
1491,Croissant D'Oxford,H7M 4X5,45.5992825,-73.7100275
1495,Croissant D'Oxford,H7M 4X5,45.5993690,-73.7098770
1499,Croissant D'Oxford,H7M 4X5,45.5994540,-73.7097300
1487,Croissant D'Oxford,H7M 4X5,45.5991895,-73.7101870
1483,Croissant D'Oxford,H7M 4X5,45.5991155,-73.7103465
1515,Rue de Padoue,H7M 4V7,45.5989855,-73.7106035
1505,Rue de Padoue,H7M 4V7,45.5988390,-73.7104367
1476,Rue de Padoue,H7M 4V9,45.5978450,-73.7100345
1881,Avenue Dumouchel,H7S 1J7,45.5705000,-73.7347190
425,Rue de Lausanne,H7M 0B4,45.6201540,-73.7207007
1755,Rue de Lucerne,H7M 2E2,45.5994678,-73.7190220
896,Montée Gravel,H7X 2B4,45.5260595,-73.8190761
925,Montée Gravel,H7X 2B7,45.5269355,-73.8191887
1480,Rue de Lunebourg,H7M 6E4,45.5979636,-73.7132912
1481,Rue de Lunebourg,H7M 4T2,45.5976935,-73.7129984
270,Rue de Trieste,H7M 4Z2,45.5973999,-73.7100952
266,Rue de Trieste,H7M 4Z2,45.5973547,-73.7100452
262,Rue de Trieste,H7M 4Z2,45.5972587,-73.7099367
258,Rue de Trieste,H7M 4Z2,45.5972125,-73.7098816
254,Rue de Trieste,H7M 4Z2,45.5971166,-73.7097741
250,Rue de Trieste,H7M 4Z2,45.5970729,-73.7097221
2123,Rue de Pavie,H7M 4V5,45.5991334,-73.7094531
1520,Rue de Lunebourg,H7M 4V4,45.5986977,-73.7122265
1537,Rue de Lunebourg,H7M 4T2,45.5993424,-73.7121931
1980,Rue de Pavie,H7M 5M8,45.5972118,-73.7112762
1640,Rue Gratton,H7W 2X8,45.5499600,-73.7608985
1595,Rue Du Couvent,H7W 3A8,45.5489657,-73.7609771
4561,de la Fabrique,H7C 1C6,45.6108220,-73.6556317
6145,27e Avenue,H7R 3K7,45.5457618,-73.8720734
8075,Avenue Marcel-Villeneuve,H7A 0H9,45.6740612,-73.5944306
99,7e Rue,H7N 2C8,45.5625682,-73.6938661
125,Boulevard Lévesque Est,H7G 1C2,45.5630675,-73.6773706
125,Boulevard Lévesque Est,H7G 1C2,45.5616613,-73.6796081
3570,Rue Elsie-Reford,H7Y0E1,45.5365492,-73.8568143
538,Avenue Ampère,H7N 5H6,45.5613260,-73.7086707
886,Chemin de la Fourche,H7Y 1T1,45.5189859,-73.8567072
400,Rue Jacques,H7P 5K5,45.5679608,-73.8142869
790,Rue Madeleine,H7P 3W7,45.5775074,-73.8216565
2585,Boulevard des Oiseaux,H7L 4M4,45.5877722,-73.7770451
36,Terrasse Dufferin,H7L 2J3,45.6247147,-73.7824157
6245,Rue de Prince-Rupert,H7H 1C5,45.6392431,-73.7487627
1774,Rue de Berne,H7M 2V7,45.5988448,-73.7283806
100,Rue Saint-Saëns Ouest,H7H 1J1,45.6362341,-73.7559311
910,Montée Gravel,H7X 2B8,45.5264736,-73.8197792
560,64e Avenue,H7V 2J3,45.5423800,-73.7294415
4025,Rue Gaboury,H7T 1H1,45.5536024,-73.7666414
665,Rue des Jardins-Sainte-Dorothée,H7X 2K4,45.5217309,-73.8065578
755,Rue Parkway,H7W 1W9,45.5352908,-73.7607969
650,Rue de Beauport,H7E 4B8,45.5830100,-73.6689597
2430,Rue De Meulles,H7E 1R9,45.5905817,-73.6773087
355,Rue Flore,H7P 5L5,45.5752421,-73.7986897
355,Rue Flore,H7P 5L5,45.5742399,-73.7987553
720,Rue Fleury,H7P 3B8,45.5856765,-73.8009177
720,Rue Fleury,H7P 3B8,45.5853324,-73.8027390
8050,Rue Mylène,H7A 1G3,45.6670708,-73.5874587
5160,Rang du Bas-Saint-François,H7E 4P2,45.6398243,-73.6679494
1125,Montée du Moulin,H7A 2A2,45.6749202,-73.5802393
1125,Montée du Moulin,H7A 2A2,45.6749322,-73.5791932
3972,Boulevard Saint-Elzéar Ouest,H7P0M2,45.5687263,-73.7804496
46,Terrasse Dufferin,H7L 2J3,45.6240624,-73.7821196
