House number,Street name,Postal code,Latitude,Longitude
895,Rue Saint-Laurent Ouest,J4K 2V1,45.5269401,-73.5140669
825,Rue Saint-Charles Ouest,J4K 2V1,45.5291660,-73.5144558
1185,Chemin du Tremblay,J4N 1R4,45.5377362,-73.4655309
110,Rue de la Barre,J4K 1A3,45.5277145,-73.5212749
120,Place Charles-Le Moyne,J4K 2T4,45.5238083,-73.5213294
150,Place Charles-Le Moyne,J4K 0A8,45.5251088,-73.5208528
120,Place Charles-Le Moyne,J4K 2T4,45.5245918,-73.5215917
120,Place Charles-Le Moyne,J4K 2T4,45.5241509,-73.5212978
120,Place Charles-Le Moyne,J4K 2T4,45.5237220,-73.5213355
120,Place Charles-Le Moyne,J4K 2T4,45.5244685,-73.5212604
6435,Rue de Michigan,J3Z 1B9,45.4978294,-73.4029571
6478,Rue de Michigan,J3Z 1C4,45.4978037,-73.4022406
6495,Rue de Michigan,J3Z 1B9,45.4981101,-73.4018201
6612,Rue de Michigan,J3Z 1C4,45.4977915,-73.4015266
6517,Rue de Michigan,J3Z 1B9,45.4986870,-73.4015068
6563,Rue de Michigan,J3Z 1B9,45.4986649,-73.4008180
6591,Rue de Michigan,J3Z 1B9,45.4979345,-73.4011666
6483,Rue de Michigan,J3Z 1B9,45.4978460,-73.4019572
6560,Rue de Michigan,J3Z 1C4,45.4987549,-73.4005757
6564,Rue de Michigan,J3Z 1C4,45.4986209,-73.4005785
100,Place Charles-Le Moyne,J4K 2T4,45.5249501,-73.5219712
1111,Rue Saint-Charles Ouest,J4K 5G4,45.5261033,-73.5198311
99,Place Charles Le Moyne,J4K4Y9,45.5256346,-73.5228208
4844,Boulevard Taschereau,J4V 2J2,45.4834587,-73.4661924
135,Rue Saint-Charles Ouest,J4H 3H6,45.5391991,-73.5095021
5951,Boulevard Cousineau,J3Y 7P5,45.4953900,-73.4104101
335,Rue Saint-Charles Ouest,J4H 1E7,45.5370378,-73.5120641
5434,Boulevard Cousineau,J3Y 7J8,45.5005085,-73.4198192
4400,Boulevard Kimber,J3Y 8L4,45.4995106,-73.4485392
1185,Chemin du Tremblay,J4N 1R4,45.5375962,-73.4653876
825,Rue Saint-Charles Ouest,J4K 2V1,45.5275028,-73.5150544
3456,Boulevard Grande-Allée,J4T 2T1,45.4946559,-73.4736026
3474,Boulevard Grande-Allée,J4T 2T6,45.4941806,-73.4727755
3445,Boulevard Grande-Allée,J4T 2T4,45.4949452,-73.4731992
1195,Chemin du Tremblay,J4N 1R4,45.5370396,-73.4645136
2950,Rue Darveau,J4L 3S9,45.5125520,-73.4626303
670,Rue Darveau,J4L 4K3,45.5127369,-73.4631579
1845,Rue Joyal,J4N 0C3,45.5468073,-73.4550466
1234,Boulevard des Promenades,J3Y5K2,45.4996900,-73.3751709
1290C,Rue Soucy,J4T 1A3,45.4940078,-73.4513431
1605,Rue Tremblay,J3Y 4B5,45.5064405,-73.4243246
365,Rue Du Parc Industriel,J4H 3V7,45.5470923,-73.4966616
495,Rue Du Parc Industriel,J4H 3V7,45.5456629,-73.4948591
150,Rue de Gentilly Est,J4H 4A9,45.5368805,-73.4947813
825,Rue Saint-Charles Ouest,J4K 2V1,45.5294977,-73.5157984
1225,Rue Saint-Charles Ouest,J4K 0B9,45.5229090,-73.5208571
2250,boulevard Saint-Anne,G1J 1Y2,45.5324539,-73.5172168
4956,Boulevard Taschereau,J4V 3M3,45.4810593,-73.4663856
2000,Avenue Victoria,J4V 1M6,45.4789044,-73.4771119
1607,Rue Saint-Gérald,J4P 2E6,45.5055981,-73.4927729
3690,Chemin de Chambly,J4L 1N8,45.5113927,-73.4428137
1575,Boulevard Jacques-Cartier Est,J4M 2B5,45.5396250,-73.4571239
1575,Boulevard Jacques-Cartier Est,J4M 2B5,45.5397092,-73.4570021
2999,Rue de l'Île Charron,J4G1R6,45.5832103,-73.4860014
1412,Chemin de Chambly,J4J 3X3,45.5313154,-73.4867441
1215,Chemin du Tremblay,J4N 1R4,45.5377349,-73.4630474
100,Place Charles-Le Moyne,J4K 2T4,45.5251950,-73.5219561
150,Place Charles-Le Moyne,J4K 0A8,45.5251284,-73.5204066
120,Place Charles-Le Moyne,J4K 2T4,45.5246373,-73.5212168
31,Rue de Gentilly Ouest,J4H 1Y9,45.5353319,-73.4974131
3535,Boulevard Taschereau,J4P 3G2,45.4920117,-73.4749601
100,Place Charles-Le Moyne,J4K 2T4,45.5250995,-73.5218846
100,Place Charles-Le Moyne,J4K 2T4,45.5251048,-73.5219944
100,Place Charles-Le Moyne,J4K 2T4,45.5249263,-73.5219251
825,Rue Saint-Charles Ouest,J4K 2V1,45.5281175,-73.5148063
825,Rue Saint-Charles Ouest,J4K 2V1,45.5283590,-73.5146905
1333,Boulevard Jacques-Cartier Est,J4M 2A5,45.5380590,-73.4575995
444,Rue de Gentilly Est,J4H 3X7,45.5395695,-73.4922573
99,Chemin de la Rive,J4H 4C9,45.5409859,-73.5121336
1111,Rue Saint-Charles Ouest,J4K 5G4,45.5261177,-73.5198884
1111,Rue Saint-Charles Ouest,J4K 5G4,45.5261676,-73.5199029
1111,Rue Saint-Charles Ouest,J4K 5G4,45.5260624,-73.5199129
1111,Rue Saint-Charles Ouest,J4K 5G4,45.5260949,-73.5199090
201,Place Charles-Le Moyne,J4K 2T5,45.5256532,-73.5188897
201,Place Charles-Le Moyne,J4K 2T5,45.5256572,-73.5189563
3575,Chemin de Chambly,J4L 4L8,45.5134303,-73.4426279
8145,Chemin de Chambly,J3Y 5K2,45.4837383,-73.3769060
25,Boulevard La Fayette,J4K 5C8,45.5227139,-73.5234415
130,Rue de la Barre,J4K 1A4,45.5275005,-73.5201369
121,Rue de la Barre,J4K 2T9,45.5280936,-73.5211434
111,Rue de la Barre,J4K 2T8,45.5281178,-73.5217186
1111,Rue Saint-Charles Ouest,J4K 5G4,45.5261190,-73.5199068
120,Place Charles-Le Moyne,J4K 2T4,45.5245694,-73.5215706
1225,Rue Saint-Charles Ouest,J4K 0B9,45.5229168,-73.5208972
1155,Rue Saint-Charles Ouest,J4K 0B7,45.5236958,-73.5198322
2900,Boulevard Losch,J3Y 3V8,45.5066517,-73.4387395
2642,Chemin de Chambly,J4L 1M5,45.5220964,-73.4662759
3344,Boulevard Taschereau,J4V 2H7,45.4924292,-73.4799817
1000,Boulevard Marie-Victorin,J4G 1A1,45.5529669,-73.4971697
5025,Boulevard Cousineau,J3Y 3K7,45.5053688,-73.4312898
1150,Rue King-George,J4J 2W1,45.5390407,-73.4677869
4909,Boulevard Taschereau,J4V 3K3,45.4831642,-73.4637591
4869,Boulevard Taschereau,J4V 3K3,45.4839690,-73.4647132
500,Avenue Auguste,J4V 3R4,45.4869518,-73.4633416
1800,Av. Auguste,J4V 3R4,45.4846770,-73.4620437
6950,Grande Allée,J3Y1C4,45.4605418,-73.4212781
825,Rue Saint-Charles Ouest,J4K 2V1,45.5296062,-73.5160024
825,Rue Saint-Charles Ouest,J4K 2V1,45.5294280,-73.5161488
825,Rue Saint-Charles Ouest,J4K 2V1,45.5287403,-73.5160959
825,Rue Saint-Charles Ouest,J4K 2V1,45.5278889,-73.5159260
825,Rue Saint-Charles Ouest,J4K 2V1,45.5280621,-73.5159056
120,Place Charles-Le Moyne,J4K 2T4,45.5240961,-73.5213020
5000,Boulevard Taschereau,J4V 3M3,45.4807672,-73.4667992
5000,Boulevard Taschereau,J4V 3M3,45.4809312,-73.4665319
4904,Boulevard Taschereau,J4V 2J2,45.4819457,-73.4655686
825,Rue Saint-Charles Ouest,J4K 2V1,45.5292386,-73.5145739
7750,Boul. Cousineau,J3Y 0C8,45.5014658,-73.4240107
2242,Chemin de Chambly,J4J3Z3,45.5265217,-73.4752392
2114,Chemin de Chambly,J4J3Y7,45.5274460,-73.4775769
2495,Rue De La Province,J4G 1G3,45.5743489,-73.4625745
3067,Montée Saint-Hubert,J3Y 4J2,45.5005440,-73.4238270
3075,Montée Saint-Hubert,J3Y 4J2,45.5004309,-73.4239303
1802,Av. Auguste,J4V 3R4,45.4845809,-73.4622094
104,Boulevard Churchill,J4V 2L9,45.4910051,-73.4885390
8100,Boulevard Cousineau,J3Z 0G8,45.4788726,-73.3819222
8100,Boulevard Cousineau,J3Z 0G8,45.4794351,-73.3816312
8100,Boulevard Cousineau,J3Z 0G8,45.4796275,-73.3814899
87,Boulevard Churchill,J4V 3L8,45.4904632,-73.4888129
3388,Chemin de Chambly,J4L1N8,45.5144346,-73.4479255
3366,Chemin de Chambly,J4L1N8,45.5148907,-73.4480256
286,Rue Gladstone,J4V2P7,45.4927778,-73.4805667
17,Rue Saint-Louis,J4R 2L3,45.4955845,-73.4996620
17,Rue Saint-Louis,J4R 2L3,45.4955931,-73.4996840
25,Boulevard La Fayette,J4K 5C8;J4K 5B7;J4K 5C7,45.5227026,-73.5234809
1225,Rue Saint-Charles Ouest,J4K 0B9,45.5228337,-73.5201321
1225,Rue Saint-Charles Ouest,J4K 0B9,45.5229662,-73.5200710
1225,Rue Saint-Charles Ouest,J4K 0B9,45.5228397,-73.5201638
1225,Rue Saint-Charles Ouest,J4K 1A7,45.5229672,-73.5201129
1225,Rue Saint-Charles Ouest,J4K 0B9,45.5229896,-73.5201003
1225,Rue Saint-Charles Ouest,J4K 1A7,45.5229418,-73.5201240
1225,Rue Saint-Charles Ouest,J4K 1A7,45.5230382,-73.5203061
1225,Rue Saint-Charles Ouest,J4K 0B9,45.5229769,-73.5201491
1225,Rue Saint-Charles Ouest,J4K 0B9,45.5230033,-73.5201338
1225,Rue Saint-Charles Ouest,J4K 0B9,45.5229642,-73.5201979
1225,Rue Saint-Charles Ouest,J4K 0B9,45.5229906,-73.5201867
1225,Rue Saint-Charles Ouest,J4K 1A7,45.5230150,-73.5201714
1225,Rue Saint-Charles Ouest,J4K 0B9,45.5229750,-73.5202313
1225,Rue Saint-Charles Ouest,J4K 1A7,45.5229556,-73.5201650
1225,Rue Saint-Charles Ouest,J4K 1A7,45.5230789,-73.5203056
120,Place Charles-Le Moyne,J4K 2T4,45.5237291,-73.5212859
120,Place Charles-Le Moyne,J4K 2T4,45.5238148,-73.5212777
120,Place Charles-Le Moyne,J4K 2T4,45.5241018,-73.5212525
120,Place Charles-Le Moyne,J4K 2T4,45.5241665,-73.5212481
120,Place Charles-Le Moyne,J4K 2T4,45.5244762,-73.5212271
120,Place Charles-Le Moyne,J4K 2T4,45.5249238,-73.5213816
150,Place Charles-Le Moyne,J4K 0A8,45.5251235,-73.5201885
120,Place Charles-Le Moyne,J4K 2T4,45.5242397,-73.5212930
150,Place Charles-Le Moyne,J4K 0A8,45.5251038,-73.5203853
150,Place Charles-Le Moyne,J4K 0A8,45.5248564,-73.5205673
150,Place Charles-Le Moyne,J4K 0A8,45.5248540,-73.5204774
150,Place Charles-Le Moyne,J4K 0A8,45.5250574,-73.5203880
150,Place Charles-Le Moyne,J4K 0A8,45.5250371,-73.5203859
120,Place Charles-Le Moyne,J4K 2T4,45.5244967,-73.5212570
120,Place Charles-Le Moyne,J4K 2T4,45.5247360,-73.5211411
150,Place Charles-Le Moyne,J4K 0A8,45.5251292,-73.5205545
150,Place Charles-Le Moyne,J4K 0A8,45.5251002,-73.5205582
150,Place Charles-Le Moyne,J4K 0A8,45.5251335,-73.5206370
1111,Rue Saint-Charles Ouest,J4K 5G4,45.5261340,-73.5198837
104,Boulevard Taschereau,J4K 5J8,45.5220848,-73.5172922
100,Boulevard Taschereau,J4K 5J8,45.5221480,-73.5170805
100,Boulevard Taschereau,J4K 5J8,45.5221419,-73.5171031
1475,Rue Saint-Charles Ouest,J4K 1A7,45.5172977,-73.5195304
1455,Rue Saint-Charles Ouest,J4K 1A7,45.5175553,-73.5196278
1445,Rue Saint-Charles Ouest,J4K 1A7,45.5178403,-73.5197916
1435,Rue Saint-Charles Ouest,J4K 1A7,45.5180574,-73.5199219
1415,Rue Saint-Charles Ouest,J4K 1A7,45.5183400,-73.5200620
25,Boulevard La Fayette,J4K 5B7,45.5226644,-73.5234477
25,Boulevard La Fayette,J4K 5C7,45.5226890,-73.5234463
1000,Rue de Sérigny,J4K 5C8,45.5233826,-73.5232159
1010,Rue de Sérigny,J4K 5G7,45.5233805,-73.5228180
25,Boulevard La Fayette,J4K 5C8,45.5226894,-73.5234170
25,Boulevard La Fayette,J4K 5C8,45.5226639,-73.5234203
25,Boulevard La Fayette,J4K 5C8,45.5227157,-73.5234171
1000,Rue de Sérigny,J4K 5C8,45.5233678,-73.5232323
1000,Rue de Sérigny,J4K 5B1,45.5233667,-73.5232049
1000,Rue de Sérigny,J4K 5B1,45.5233532,-73.5232049
1000,Rue de Sérigny,J4K 5B1,45.5233543,-73.5232331
1000,Rue de Sérigny,J4K 5B1,45.5233402,-73.5232049
1010,Rue de Sérigny,J4K 5G7,45.5233727,-73.5227890
1010,Rue de Sérigny,J4K 5G7,45.5233654,-73.5228080
1010,Rue de Sérigny,J4K 5G7,45.5233564,-73.5227948
1010,Rue de Sérigny,J4K 5G7,45.5233658,-73.5227790
1010,Rue de Sérigny,J4K 5G7,45.5233466,-73.5227804
1010,Rue de Sérigny,J4K 5G7,45.5233575,-73.5227671
1010,Rue de Sérigny,J4K 5G7,45.5233581,-73.5228205
1010,Rue de Sérigny,J4K 5G7,45.5233493,-73.5228082
1010,Rue de Sérigny,J4K 5G7,45.5233387,-73.5227936
1010,Rue de Sérigny,J4K 5G7,45.5233441,-73.5228218
1010,Rue de Sérigny,J4K 5G7,45.5233522,-73.5228341
1010,Rue de Sérigny,J4K 5G7,45.5233332,-73.5228082
999,Rue de Sérigny,J4K 2T1,45.5249034,-73.5231139
999,Rue de Sérigny,J4K 2T1,45.5248794,-73.5231176
120,Place Charles-Le Moyne,J4K 2T4,45.5248360,-73.5212759
99,Place Charles-Le Moyne,J4K 2T3,45.5259239,-73.5222391
99,Place Charles-Le Moyne,J4K 4Y9,45.5259239,-73.5222688
101,Place Charles-Le Moyne,J4K 2T3,45.5259231,-73.5222154
120,Place Charles-Le Moyne,J4K 2T4,45.5243451,-73.5212857
120,Place Charles-Le Moyne,J4K 2T4,45.5245969,-73.5213444
120,Place Charles-Le Moyne,J4K 2T4,45.5245586,-73.5213496
120,Place Charles-Le Moyne,J4K 2T4,45.5248279,-73.5211356
120,Place Charles-Le Moyne,J4K 2T4,45.5247863,-73.5212799
120,Place Charles-Le Moyne,J4K 2T4,45.5247323,-73.5212860
120,Place Charles-Le Moyne,J4K 2T4,45.5247861,-73.5212078
100,Place Charles-Le Moyne,J4K 2T4,45.5250686,-73.5219289
100,Place Charles-Le Moyne,J4K 2T4,45.5251336,-73.5219220
100,Place Charles-Le Moyne,J4K 2T4,45.5250995,-73.5219285
100,Place Charles-Le Moyne,J4K 2T4,45.5251379,-73.5219925
120,Place Charles-Le Moyne,J4K 2T4,45.5250714,-73.5211886
1105,Rue Saint-Laurent Ouest,J4K 1E3,45.5233157,-73.5138851
1081,Rue Saint-Laurent Ouest,J4K 1E1,45.5240940,-73.5138612
1055,Rue Saint-Laurent Ouest,J4K 1E1,45.5244782,-73.5143908
1055,Rue Saint-Laurent Ouest,J4K 1E1,45.5245102,-73.5143870
1081,Rue Saint-Laurent Ouest,J4K 1E1,45.5240993,-73.5138221
1105,Rue Saint-Laurent Ouest,J4K 1E3,45.5233189,-73.5138582
901,Rue Pierre-Dupuy,J4K 1A1,45.5298134,-73.5248999
901,Rue Pierre-Dupuy,J4K 1A1,45.5298222,-73.5248518
977,Rue Pierre-Dupuy,J4K 1A1,45.5289089,-73.5244713
977,Rue Pierre-Dupuy,J4K 1A1,45.5288888,-73.5244681
981,Rue Pierre-Dupuy,J4K 1A1,45.5288756,-73.5246330
861;881,Rue Pierre-Dupuy,J4K 1A1,45.5301012,-73.5248966
201,Place Charles-Le Moyne,J4K 2T5,45.5256349,-73.5189064
201,Place Charles-Le Moyne,J4K 2T5,45.5256545,-73.5189126
201,Place Charles-Le Moyne,J4K 2T5,45.5256559,-73.5189352
201,Place Charles-Le Moyne,J4K 2T5,45.5256519,-73.5188684
201,Place Charles-Le Moyne,J4K 2T5,45.5256504,-73.5188436
1111,Rue Saint-Charles Ouest,J4K 5G4,45.5260768,-73.5198930
1111,Rue Saint-Charles Ouest,J4K 5G4,45.5260620,-73.5198938
1111,Rue Saint-Charles Ouest,J4K 5G4,45.5260952,-73.5198898
1111,Rue Saint-Charles Ouest,J4K 5G4,45.5260459,-73.5198949
1111,Rue Saint-Charles Ouest,J4K 5G4,45.5260971,-73.5199523
1111,Rue Saint-Charles Ouest,J4K 5G4,45.5260791,-73.5199133
1111,Rue Saint-Charles Ouest,J4K 5G4,45.5261349,-73.5199031
1111,Rue Saint-Charles Ouest,J4K 5G4,45.5261502,-73.5198826
1111,Rue Saint-Charles Ouest,J4K 5G4,45.5261512,-73.5199025
1111,Rue Saint-Charles Ouest,J4K 5G4,45.5261648,-73.5198799
1111,Rue Saint-Charles Ouest,J4K 5G4,45.5260630,-73.5199333
1111,Rue Saint-Charles Ouest,J4K 5G4,45.5260790,-73.5199345
1111,Rue Saint-Charles Ouest,J4K 5G4,45.5260965,-73.5199316
1111,Rue Saint-Charles Ouest,J4K 5G4,45.5261197,-73.5199296
1111,Rue Saint-Charles Ouest,J4K 5G4,45.5261537,-73.5199277
1111,Rue Saint-Charles Ouest,J4K 5G4,45.5261379,-73.5199294
1111,Rue Saint-Charles Ouest,J4K 5G4,45.5261202,-73.5199496
1111,Rue Saint-Charles Ouest,J4K 5G4,45.5260464,-73.5199331
1111,Rue Saint-Charles Ouest,J4K 5G4,45.5261385,-73.5199472
1111,Rue Saint-Charles Ouest,J4K 5G4,45.5260461,-73.5199143
1111,Rue Saint-Charles Ouest,J4K 5G4,45.5260798,-73.5199526
1111,Rue Saint-Charles Ouest,J4K 5G4,45.5260639,-73.5199526
130,Rue de la Barre,J4K 1A4,45.5275000,-73.5201258
130,Rue de la Barre,J4K 1A4,45.5274708,-73.5201158
130,Rue de la Barre,J4K 1A4,45.5274727,-73.5201533
110,Rue de la Barre,J4K 1A3,45.5276911,-73.5213133
110,Rue de la Barre,J4K 1A3,45.5277134,-73.5212513
110,Rue de la Barre,J4K 1A3,45.5276904,-73.5212803
110,Rue de la Barre,J4K 1A3,45.5276891,-73.5212477
110,Rue de la Barre,J4K 1A3,45.5276668,-73.5213154
110,Rue de la Barre,J4K 1A3,45.5276649,-73.5212828
110,Rue de la Barre,J4K 1A3,45.5276646,-73.5212498
110,Rue de la Barre,J4K 1A3,45.5276423,-73.5213185
110,Rue de la Barre,J4K 1A3,45.5276405,-73.5212846
110,Rue de la Barre,J4K 1A3,45.5276383,-73.5212513
110,Rue de la Barre,J4K 1A3,45.5276882,-73.5212112
110,Rue de la Barre,J4K 1A3,45.5276640,-73.5212133
110,Rue de la Barre,J4K 1A3,45.5276376,-73.5212127
110,Rue de la Barre,J4K 1A3,45.5276184,-73.5213202
110,Rue de la Barre,J4K 1A3,45.5276165,-73.5212874
110,Rue de la Barre,J4K 1A3,45.5276149,-73.5212522
130,Rue de la Barre,J4K 1A4,45.5274537,-73.5201352
99;101,Place Charles-Le Moyne,J4K 2T2;J4K 2T3,45.5259100,-73.5222527
99,Place Charles-Le Moyne,J4K 2T2,45.5259252,-73.5222918
99;101,Place Charles-Le Moyne,J4K 2T2;J4K 2T3,45.5259109,-73.5222696
70,Rue de la Barre,J4K 5J3,45.5270826,-73.5231882
70,Rue de la Barre,J4K 5J3,45.5269896,-73.5231610
50,Rue de la Barre,J4K 5G2,45.5263003,-73.5235579
50,Rue de la Barre,J4K 5G2,45.5262813,-73.5235136
70,Rue de la Barre,J4K 5J3,45.5270674,-73.5231967
70,Rue de la Barre,J4K 5J3,45.5270721,-73.5231730
70,Rue de la Barre,J4K 5J3,45.5270531,-73.5231926
70,Rue de la Barre,J4K 5J3,45.5270588,-73.5231669
70,Rue de la Barre,J4K 5J3,45.5270511,-73.5232136
70,Rue de la Barre,J4K 5J3,45.5270635,-73.5232173
70,Rue de la Barre,J4K 5J3,45.5270624,-73.5231487
70,Rue de la Barre,J4K 5J3,45.5270754,-73.5231527
70,Rue de la Barre,J4K 5J3,45.5270502,-73.5231453
70,Rue de la Barre,J4K 5J3,45.5270472,-73.5231638
70,Rue de la Barre,J4K 5J3,45.5270429,-73.5231895
70,Rue de la Barre,J4K 5J3,45.5270392,-73.5232102
70,Rue de la Barre,J4K 5J3,45.5270282,-73.5232059
70,Rue de la Barre,J4K 5J3,45.5270329,-73.5231855
70,Rue de la Barre,J4K 5J3,45.5270370,-73.5231604
70,Rue de la Barre,J4K 5J3,45.5270208,-73.5231818
70,Rue de la Barre,J4K 5J3,45.5270401,-73.5231422
45,Place Charles-Le Moyne,J4K 5G5,45.5256265,-73.5234231
45,Place Charles-Le Moyne,J4K 5G5,45.5256609,-73.5234740
51,Place Charles-Le Moyne,J4K 5G3,45.5256625,-73.5231767
51,Place Charles-Le Moyne,J4K 5G3,45.5256138,-73.5231816
45,Place Charles-Le Moyne,J4K 5G5,45.5256604,-73.5234437
45,Place Charles-Le Moyne,J4K 5G5,45.5256596,-73.5234176
45,Place Charles-Le Moyne,J4K 5G5,45.5256596,-73.5233903
45,Place Charles-Le Moyne,J4K 5G5,45.5256627,-73.5234973
45,Place Charles-Le Moyne,J4K 5G5,45.5256806,-73.5234950
45,Place Charles-Le Moyne,J4K 5G5,45.5256775,-73.5233874
45,Place Charles-Le Moyne,J4K 5G5,45.5256771,-73.5234153
45,Place Charles-Le Moyne,J4K 5G5,45.5256783,-73.5234396
45,Place Charles-Le Moyne,J4K 5G5,45.5256799,-73.5234716
45,Place Charles-Le Moyne,J4K 5G5,45.5256966,-73.5234704
45,Place Charles-Le Moyne,J4K 5G5,45.5256958,-73.5234402
45,Place Charles-Le Moyne,J4K 5G5,45.5256950,-73.5234159
45,Place Charles-Le Moyne,J4K 5G5,45.5256942,-73.5233868
45,Place Charles-Le Moyne,J4K 5G5,45.5256977,-73.5234956
45,Place Charles-Le Moyne,J4K 5G5,45.5257168,-73.5234933
51,Place Charles-Le Moyne,J4K 5G5,45.5256824,-73.5231611
45,Place Charles-Le Moyne,J4K 5G5,45.5257125,-73.5233874
45,Place Charles-Le Moyne,J4K 5G5,45.5257133,-73.5234130
45,Place Charles-Le Moyne,J4K 5G5,45.5257141,-73.5234408
45,Place Charles-Le Moyne,J4K 5G5,45.5257141,-73.5234687
45,Place Charles-Le Moyne,J4K 5G5,45.5257288,-73.5234421
1001,Rue Saint-Laurent Ouest,J4K 1C7,45.5260915,-73.5141154
1001,Rue Saint-Laurent Ouest,J4K 1C7,45.5261505,-73.5142746
1001,Rue Saint-Laurent Ouest,J4K 1C7,45.5260956,-73.5140895
895,Rue Saint-Laurent Ouest,J4K 2V1,45.5269528,-73.5140501
825,Rue Saint-Charles Ouest,J4K 2V1,45.5279686,-73.5153014
825,Rue Saint-Charles Ouest,J4K 2V1,45.5278223,-73.5152338
825,Rue Saint-Charles Ouest,J4K 2V1,45.5277783,-73.5150666
825,Rue Saint-Charles Ouest,J4K 2V1,45.5277540,-73.5150353
825,Rue Saint-Charles Ouest,J4K 2V1,45.5276755,-73.5150372
825,Rue Saint-Charles Ouest,J4K 2V1,45.5293154,-73.5144597
825,Rue Saint-Charles Ouest,J4K 2V1,45.5296301,-73.5149369
825,Rue Saint-Charles Ouest,J4K 2V1,45.5297076,-73.5158513
825-855,Rue Saint-Charles Ouest,J4K 2V1,45.5280359,-73.5163756
825,Rue Saint-Charles Ouest,J4K 2V1,45.5284628,-73.5165113
825,Rue Saint-Charles Ouest,J4K 2V1,45.5295994,-73.5148692
825,Rue Saint-Charles Ouest,J4K 2V1,45.5283955,-73.5145729
825,Rue Saint-Charles Ouest,J4K 2V1,45.5283461,-73.5150447
825,Rue Saint-Charles Ouest,J4K 2V1,45.5281973,-73.5151384
825,Rue Saint-Charles Ouest,J4K 2V1,45.5281141,-73.5147645
825,Rue Saint-Charles Ouest,J4K 2V1,45.5274958,-73.5150293
825,Rue Saint-Charles Ouest,J4K 2V1,45.5277404,-73.5154818
825,Rue Saint-Charles Ouest,J4K 2V1,45.5278440,-73.5157915
825,Rue Saint-Charles Ouest,J4K 2V1,45.5279170,-73.5159858
825,Rue Saint-Charles Ouest,J4K 2V1,45.5280038,-73.5162659
825,Rue Saint-Charles Ouest,J4K 2V1,45.5281665,-73.5163152
825,Rue Saint-Charles Ouest,J4K 2V1,45.5282089,-73.5163391
825,Rue Saint-Charles Ouest,J4K 2V1,45.5285521,-73.5161984
825,Rue Saint-Charles Ouest,J4K 2V1,45.5290583,-73.5158699
825,Rue Saint-Charles Ouest,J4K 2V1,45.5292056,-73.5157446
825,Rue Saint-Charles Ouest,J4K 2V1,45.5279459,-73.5158245
825,Rue Saint-Charles Ouest,J4K 2V1,45.5293052,-73.5156894
825,Rue Saint-Charles Ouest,J4K 2V1,45.5293498,-73.5158550
825,Rue Saint-Charles Ouest,J4K 2V1,45.5293439,-73.5160483
825,Rue Saint-Charles Ouest,J4K 2V1,45.5300402,-73.5165489
825,Rue Saint-Charles Ouest,J4K 2V1,45.5300594,-73.5165386
825,Rue Saint-Charles Ouest,J4K 2V1,45.5293738,-73.5151855
825,Rue Saint-Charles Ouest,J4K 2V1,45.5295830,-73.5152424
825,Rue Saint-Charles Ouest,J4K 2V1,45.5295038,-73.5150826
825,Rue Saint-Charles Ouest,J4K 2V1,45.5290214,-73.5151106
825,Rue Saint-Charles Ouest,J4K 2V1,45.5289837,-73.5149933
825,Rue Saint-Charles Ouest,J4K 2V1,45.5289980,-73.5147555
825,Rue Saint-Charles Ouest,J4K 2V1,45.5291804,-73.5146189
825,Rue Saint-Charles Ouest,J4K 2V1,45.5283469,-73.5151481
825,Rue Saint-Charles Ouest,J4K 2V1,45.5282950,-73.5151844
825,Rue Saint-Charles Ouest,J4K 2V1,45.5280055,-73.5153868
825,Rue Saint-Charles Ouest,J4K 2V1,45.5278189,-73.5154494
825,Rue Saint-Charles Ouest,J4K 2V1,45.5278690,-73.5155993
825,Rue Saint-Charles Ouest,J4K 2V1,45.5279029,-73.5156945
825,Rue Saint-Charles Ouest,J4K 2V1,45.5280116,-73.5160030
825,Rue Saint-Charles Ouest,J4K 2V1,45.5284217,-73.5162093
825,Rue Saint-Charles Ouest,J4K 2V1,45.5282581,-73.5160030
825,Rue Saint-Charles Ouest,J4K 2V1,45.5287732,-73.5158170
825,Rue Saint-Charles Ouest,J4K 2V1,45.5286151,-73.5159933
825,Rue Saint-Charles Ouest,J4K 2V1,45.5285236,-73.5160551
825,Rue Saint-Charles Ouest,J4K 2V1,45.5279715,-73.5156989
825,Rue Saint-Charles Ouest,J4K 2V1,45.5279505,-73.5155834
825,Rue Saint-Charles Ouest,J4K 2V1,45.5281024,-73.5154221
825,Rue Saint-Charles Ouest,J4K 2V1,45.5282185,-73.5153348
825,Rue Saint-Charles Ouest,J4K 2V1,45.5282859,-73.5152845
825,Rue Saint-Charles Ouest,J4K 2V1,45.5283927,-73.5152184
825,Rue Saint-Charles Ouest,J4K 2V1,45.5285570,-73.5151003
825,Rue Saint-Charles Ouest,J4K 2V1,45.5286305,-73.5150518
825,Rue Saint-Charles Ouest,J4K 2V1,45.5286935,-73.5150015
825,Rue Saint-Charles Ouest,J4K 2V1,45.5287806,-73.5150059
825,Rue Saint-Charles Ouest,J4K 2V1,45.5289103,-73.5151399
825,Rue Saint-Charles Ouest,J4K 2V1,45.5289461,-73.5152440
825,Rue Saint-Charles Ouest,J4K 2V1,45.5289943,-73.5153841
825,Rue Saint-Charles Ouest,J4K 2V1,45.5290239,-73.5154697
825,Rue Saint-Charles Ouest,J4K 2V1,45.5290591,-73.5155755
825,Rue Saint-Charles Ouest,J4K 2V1,45.5290869,-73.5153885
825,Rue Saint-Charles Ouest,J4K 2V1,45.5279090,-73.5153308
825,Rue Saint-Charles Ouest,J4K 2V1,45.5286638,-73.5148855
825,Rue Saint-Charles Ouest,J4K 2V1,45.5284395,-73.5161120
825,Rue Saint-Charles Ouest,J4K 2V1,45.5283347,-73.5152542
825,Rue Saint-Charles Ouest,J4K 2V1,45.5284143,-73.5148325
825,Rue Saint-Charles Ouest,J4K 2V1,45.5290748,-73.5156529
825,Rue Saint-Charles Ouest,J4K 2V1,45.5281092,-73.5153166
825,Rue Saint-Charles Ouest,J4K 2V1,45.5282426,-73.5152169
825,Rue Saint-Charles Ouest,J4K 2V1,45.5280598,-73.5161345
825,Rue Saint-Charles Ouest,J4K 2V1,45.5284776,-73.5164000
825,Rue Saint-Charles Ouest,J4K 2V1,45.5290728,-73.5152327
825,Rue Saint-Charles Ouest,J4K 2V1,45.5279854,-73.5155021
825,Rue Saint-Charles Ouest,J4K 2V1,45.5279877,-73.5163424
825,Rue Saint-Charles Ouest,J4K 2V1,45.5282198,-73.5156276
825,Rue Saint-Charles Ouest,J4K 2V1,45.5293640,-73.5150069
825,Rue Saint-Charles Ouest,J4K 2V1,45.5283919,-73.5147550
825,Rue Saint-Charles Ouest,J4K 2V1,45.5279442,-73.5161061
81,Chemin de la Rive,J4H 4C9,45.5421661,-73.5122389
101,Chemin de la Rive,J4H 4C9,45.5410725,-73.5124566
101,Chemin de la Rive,J4H 4C9,45.5410477,-73.5124633
99,Chemin de la Rive,J4H 4C9,45.5409668,-73.5121502
91,Chemin de la Rive,J4H 4C9,45.5411801,-73.5118236
81,Chemin de la Rive,J4H 4C9,45.5420381,-73.5117033
81,Chemin de la Rive,J4H 4C9,45.5420396,-73.5117280
120,Place Charles-Le Moyne,J4K 2T4,45.5239252,-73.5213205
900,Rue Saint-Charles Est,J4H 3Y2,45.5514918,-73.4982475
900,Rue Saint-Charles Est,J4H 3Y2,45.5515197,-73.4982703
1000,Boulevard Marie-Victorin,J4G 1A1,45.5529333,-73.4971794
101,Boulevard Roland-Therrien,J4H 4B9,45.5491997,-73.4960186
101,Boulevard Roland-Therrien,J4H 4B9,45.5491797,-73.4961247
101,Boulevard Roland-Therrien,J4H 4B9,45.5492069,-73.4961220
101,Boulevard Roland-Therrien,J4H 4B9,45.5491779,-73.4960847
101,Boulevard Roland-Therrien,J4H 4B9,45.5491946,-73.4961033
101,Boulevard Roland-Therrien,J4H 4B9,45.5491954,-73.4960602
101,Boulevard Roland-Therrien,J4H 4B9,45.5492116,-73.4960791
101,Boulevard Roland-Therrien,J4H 4B9,45.5492248,-73.4960976
101,Boulevard Roland-Therrien,J4H 4B9,45.5492424,-73.4960758
101,Boulevard Roland-Therrien,J4H 4B9,45.5492126,-73.4960394
101,Boulevard Roland-Therrien,J4H 4B9,45.5492288,-73.4960569
101,Boulevard Roland-Therrien,J4H 4B9,45.5491679,-73.4960664
101,Boulevard Roland-Therrien,J4H 4B9,45.5491831,-73.4960409
101,Boulevard Roland-Therrien,J4H 4B9,45.5492275,-73.4961439
101,Boulevard Roland-Therrien,J4H 4B9,45.5492414,-73.4961203
101,Boulevard Roland-Therrien,J4H 4B9,45.5492573,-73.4960985
101,Boulevard Roland-Therrien,J4H 4B9,45.5492765,-73.4960711
101,Boulevard Roland-Therrien,J4H 4B9,45.5492626,-73.4960513
100,Boulevard Roland-Therrien,J4H 4A6,45.5480675,-73.4960788
101,Boulevard Roland-Therrien,J4H 4B9,45.5492483,-73.4960318
277,Boulevard Churchill,J4V 2M8,45.4940587,-73.4833752
1401,Chemin de Chambly,J4J 5C6,45.5315951,-73.4846453
3323,Grande Allée,J4T 2S9,45.4964989,-73.4757746
4325,Chemin de Chambly,J3Y3M7,45.5104748,-73.4377134
3180,Chemin de Chambly,J4L 1N6,45.5164878,-73.4513791
3180,Chemin de Chambly,J4L 1N6,45.5164076,-73.4511294
100,Boulevard Churchill,J4V 2L9,45.4909818,-73.4886187
5800,Route de l'Aéroport,J3Y 8Y9,45.5139501,-73.4084244
258,Rue Perras,J4V 1T9,45.4905773,-73.4881263
110,Boulevard Churchill,J4V 2L9,45.4910433,-73.4884720
266,Rue Jeannette,J4R2E5,45.5000341,-73.4891618
467,Rue de Springfield,J4V 2H2,45.4884291,-73.4807602
2984,Boulevard Taschereau,J4V 2G9,45.4985636,-73.4868238
299,Rue Jeannette,J4R2E4,45.5008570,-73.4888862
1420,Avenue Victoria,J4V1M1,45.4896149,-73.4921889
766,Rue Bériault,J4G 1R8,45.5629572,-73.4717838
369,Rue Saint-Jean,J4H 2X7,45.5357299,-73.5073030
5975,Boulevard Cousineau,J3Y 6P5,45.4948322,-73.4103294
1150,Rue King-George,J4J 2W1,45.5390808,-73.4677763
2995,Boulevard Moïse-Vincent,J3Z 1K2,45.4825144,-73.3881443
7900,Boulevard Cousineau,J3Z 1H2,45.4813651,-73.3864626
7025,Boulevard Cousineau,J3Y 0H1,45.4911639,-73.4026468
120,Place Charles-Le Moyne,J4K 2T4,45.5238861,-73.5213191
150,Place Charles-Le Moyne,J4K 0A8,45.5248870,-73.5197918
150,Place Charles-Le Moyne,J4K 0A8,45.5248651,-73.5197952
150,Place Charles-Le Moyne,J4K 0A8,45.5251426,-73.5208524
150,Place Charles-Le Moyne,J4K 0A8,45.5250900,-73.5201929
1330,Boulevard Curé-Poirier Ouest,J4K 2G8,45.5113528,-73.4915985
1251,Rue Beauregard,J4K 2M3,45.5104526,-73.4870624
1251,Rue Beauregard,J4K 2M3,45.5104479,-73.4870437
2100,Rue La Salle,J4K 2M3,45.5113764,-73.4879245
1391,Rue Beauregard,J4K 2M3,45.5089038,-73.4877992
1330,Boulevard Curé-Poirier Ouest,J4K 2G8,45.5113270,-73.4915675
1330,Boulevard Curé-Poirier Ouest,J4K 2G8,45.5113695,-73.4915436
1330,Boulevard Curé-Poirier Ouest,J4K 2G8,45.5113061,-73.4915797
2145,Rue Séguin,J4K 3G2,45.5092683,-73.4883523
1391,Rue Beauregard,J4K 2M3,45.5092981,-73.4883314
2145,Rue Séguin,J4K 3G2,45.5092908,-73.4883033
1330,Boulevard Curé-Poirier Ouest,J4K 2G8,45.5112890,-73.4915920
1330,Boulevard Curé-Poirier Ouest,J4K 2G8,45.5113487,-73.4915559
3366,Chemin de Chambly,J4L1N8,45.5147548,-73.4481224
3388,Chemin de Chambly,J4L1N8,45.5144127,-73.4480365
1800,Rue Labonté,J4J 3K2,45.5249643,-73.4868682
6050,Route de l'Aéroport,J3Y 8Y9,45.5154298,-73.4059785
6050,Route de l'Aéroport,J3Y 8Y9,45.5154117,-73.4059371
5025,Boulevard Cousineau,J3Y 3K7,45.5053224,-73.4313795
880,Rue Hudson,J4V 1H1,45.4917149,-73.4464739
5120,Boulevard Grande-Allée,J3Y 1A1,45.4830364,-73.4487387
4909,Boulevard Taschereau,J4V 3K3,45.4831934,-73.4637272
500,Avenue Auguste,J4V 3R4,45.4869193,-73.4633272
1391,Rue Beauregard,J4K 2M3,45.5092449,-73.4885683
475,Rue Sainte-Marie,J4H 4A8,45.5402569,-73.5015221
444,Rue de Gentilly Est,J4H 3X7,45.5391726,-73.4907454
2040,Rue Brébeuf,J4J 3P7,45.5249962,-73.4799552
1333,Boulevard Jacques-Cartier Est,J4M 2A5,45.5378061,-73.4592445
900,Rue Riverside,J4P 3P2,45.5169693,-73.5203261
5025,Boulevard Cousineau,J3Y 3K7,45.5051572,-73.4322132
1150,Rue King-George,J4J 2W1,45.5392706,-73.4673466
619,Rue Le Breton,J4G 1R9,45.5665472,-73.4703843
900,Rue Hérelle,J4G 2M8,45.5645114,-73.4617745
200,Rue Du Parc Industriel,J4H 3V6,45.5479805,-73.4987392
100,Rue Saint-Laurent Ouest,J4H 1M1,45.5377193,-73.5055948
388,Rue Lamarre,J4J 1T2,45.5347701,-73.4847099
300,Rue Lamarre,J4J 0A1,45.5341581,-73.4852170
6100,Route de l'Aéroport,J3Y 8Y9,45.5160782,-73.4052455
5555,Rue de l'ÉNA,J3Y 8Y9,45.5224591,-73.4197301
6575,Chemin de la Savane,J3Y 8Y9,45.5291418,-73.4080892
6200,Route de l'Aéroport,J3Y 8Y9,45.5179163,-73.4030755
5900,Route de l'Aéroport,J3Y 8Y9,45.5146852,-73.4072757
4501,Rue Bishop,J3Y 9E1,45.5134087,-73.4332859
4800,Rue Leckie,J4Z 1H4,45.5182230,-73.4266300
5700,Route de l'Aéroport,J3Y 8Y9,45.5139860,-73.4093364
4850,Route de l'Aéroport,J3Y 8Y9,45.5096563,-73.4211420
4920,Route de l'Aéroport,J3Y 8Y9,45.5097679,-73.4198093
4850,Boulevard Westley,J3Y 2T4,45.4700644,-73.4149427
185,Rue Empire,J4V 1T9,45.4930979,-73.4901826
195,Rue Empire,J4V 1T9,45.4925162,-73.4898309
2042,Boulevard Marie,J4T 2B4,45.4985221,-73.4811066
205,Rue Empire,J4V 1T9,45.4923306,-73.4890002
150,Rue De L'Église,J3Y 9G4,45.5688593,-73.4812267
55,Rue Sainte-Élizabeth,J4H 1J3,45.5402691,-73.5078254
1330,Boulevard Curé-Poirier Ouest,J4K 2G8,45.5111340,-73.4907625
5030,Rue Orchard,J3Y 2G7,45.4803622,-73.4367750
2642,Chemin de Chambly,J4L 1M5,45.5221815,-73.4663010
2401,Boulevard Roland-Therrien,J4N 1C5,45.5358997,-73.4656420
6000,Route de l'Aéroport,J3Y 8Y9,45.5150488,-73.4068913
2170,Rue Des Iris,J4N1P6,45.5537162,-73.4521040
5799,Route de l'Aéroport,J3Y 8Y9,45.5124569,-73.4069742
3675,Rue Rocheleau,J3Y 6C6,45.4915110,-73.4235467
601,Rue Radisson,J4L 4J5,45.5100841,-73.4508614
609,Rue Radisson,J4L 4J5,45.5100203,-73.4508541
617,Rue Radisson,J4L 4J5,45.5098579,-73.4508455
625,Rue Radisson,J4L 4J5,45.5097912,-73.4508419
633,Rue Radisson,J4L 4J5,45.5096513,-73.4508057
641,Rue Radisson,J4L 4J5,45.5095920,-73.4507985
649,Rue Radisson,J4L 4J5,45.5094399,-73.4507869
657,Rue Radisson,J4L 4J5,45.5093820,-73.4507775
665,Rue Radisson,J4L 4J5,45.5092311,-73.4507450
673,Rue Radisson,J4L 4J5,45.5091739,-73.4507361
681,Rue Radisson,J4L 4J5,45.5090188,-73.4507623
689,Rue Radisson,J4L 4J5,45.5089595,-73.4507523
697,Rue Radisson,J4L 4J5,45.5087994,-73.4506849
705,Rue Radisson,J4L 4J5,45.5087396,-73.4506759
713,Rue Radisson,J4L 4J5,45.5085898,-73.4506729
721,Rue Radisson,J4L 4J5,45.5085292,-73.4506650
1490,Rue de Rivoli,J4V 1H8,45.4858163,-73.4481057
1500,Rue de Rivoli,J4V 1H8,45.4855829,-73.4483479
225,Rue Empire,J4V 1T9,45.4915982,-73.4878825
1700,Avenue Victoria,J4V 1M4,45.4843417,-73.4845271
1710,Avenue Victoria,J4V 1M4,45.4842010,-73.4843158
274,Rue Perras,J4V 1T9,45.4903369,-73.4876130
1235,Chemin du Tremblay,J4N 1T7,45.5394280,-73.4610048
1711,Chemin Du Tremblay,J4N 1A4,45.5439406,-73.4547666
5800,Boulevard Vauquelin,J3Y 8Y9,45.5318340,-73.4294924
277,Boulevard Churchill,J4V 2M8,45.4940603,-73.4833756
445,Rue Du Parc Industriel,J4H 3V7,45.5464382,-73.4954420
525,Rue Saint-Charles Ouest,J4H 3Y5,45.5344573,-73.5154102
525,Rue Saint-Charles Ouest,J4H 3Y5,45.5347307,-73.5159222
620,Rue Saint-Charles Ouest,J4H 1G8,45.5327026,-73.5160544
3920,Boulevard Sir-Wilfrid-Laurier,J3Y 6T1,45.5064606,-73.4473948
2022,Avenue Victoria,J4V 1M7,45.4785340,-73.4763320
255,Rue de Verchères,J4V 2B2,45.4938265,-73.4845477
1510,Rue Bellevue,J4V 3L5,45.4842177,-73.4482072
6155,Route de l'Aéroport,J3Y,45.5161704,-73.4028909
5555,Place de la Savane,J3Y 8Y9,45.5228738,-73.4205543
4200,Chemin de la Savane,J3Y 9G4,45.5124571,-73.4325788
4980,Route de l'Aéroport,J3Y 8Y9,45.5124921,-73.4110430
6500,Chemin de la Savane,J3Y 8Y9,45.5315123,-73.4114286
4869,Boulevard Taschereau,J4V 3K3,45.4840842,-73.4648494
395,Rue Saint-Charles Ouest,J4H 3Y5,45.5360704,-73.5138861
562,Rue Vallières,J4V 1G5,45.4852561,-73.4553237
1607,St Gerald,J4P 2E6,45.5056409,-73.4929401
"3306,3308,3310,3312,3314,3316",Chemin de Chambly,J4L 1N7,45.5157382,-73.4496923
3326,Chemin de Chambly,J4L 1N7,45.5155742,-73.4492994
3180,Chemin de Chambly,J4L 1N6,45.5163861,-73.4512911
2555,chemin du Lac,J4N 1C1,45.5680964,-73.4571138
7195,Chemin de Chambly,J3Y 3R7,45.4933677,-73.3961349
1227,Chemin du Tremblay,J4N 1S4,45.5394093,-73.4625832
1225,Chemin du Tremblay,J4N 1S4,45.5388744,-73.4619139
1235,Chemin du Tremblay,J4N 1T7,45.5398136,-73.4616153
Boulevard Payer,6005,J3Y 8A6,45.4754916,-73.4286664
475,Rue Sainte-Marie,J4H 4A8,45.5401188,-73.5015302
255,Rue de Verchères,J4V 2B2,45.4936386,-73.4847594
2550,Rue Jensens,j3y3w3,45.5068174,-73.4341533
3201,Grande Allée,J4T2S6,45.4979935,-73.4778334
3339,Grande Allée,J4T 2S9,45.4963511,-73.4754335
5685,Chemin de Chambly,J3Y 3R2,45.5006338,-73.4134151
4100,Chemin de la Savane,J3Y 0T8,45.5115929,-73.4342380
2997,Chemin de Chambly,J3L 1N3,45.5192431,-73.4566299
985,Boul. Curé-Poirier Ouest,J4K 2C8,45.5184832,-73.4895869
1901,Rue Claude,J4G 1Y5,45.5675222,-73.4795339
5929,Boulevard Cousineau,J3Y 7P5,45.4955848,-73.4107941
1130,Rue King-George,J4N 1P3,45.5382666,-73.4683208
3600,rue Médard-Émard,J3Y 0W3,45.4702002,-73.3827979
565,Rue Saint-Alexandre,J4H3G4,45.5362958,-73.5027444
3755,rue Médard-Émard,J3Y 0W4,45.4698819,-73.3841763
194,Boulevard Wilson,J4J2W5,45.5246895,-73.4735975
1319,Rue des Samares,J4M0B2,45.5278593,-73.4381579
1343,Rue Georges,J4T 1V6,45.5029968,-73.4639821
"1239,1241",Rue Georges,J4T 1V5,45.5042540,-73.4618896
1236,Rue Georges,J4T 1V5,45.5040616,-73.4614160
1352,Rue Georges,J4T 1V6,45.5026443,-73.4638019
1360,Rue Georges,J4T 1V6,45.5025471,-73.4639258
1370,Rue Georges,J4T 1V6,45.5024597,-73.4640838
1376,Rue Georges,J4T 1V6,45.5023613,-73.4642299
1396,Rue Georges,J4T 1V6,45.5022150,-73.4644550
1392,Rue Georges,J4T 1V6,45.5022613,-73.4643740
1404,Rue Georges,J4T 1V6,45.5020833,-73.4646763
1400,Rue Georges,J4T 1V6,45.5021297,-73.4645953
1487,Rue Georges,J4T 1V6,45.5014345,-73.4666671
"1479,1481",Rue Georges,J4T 1V6,45.5015097,-73.4665313
8100,Boulevard Cousineau,J3Z 0G8,45.4796850,-73.3814862
250,Boulevard Churchill,J4V 1Z7,45.4934398,-73.4849036
201,Place Charles-Le Moyne,J4K 2T5,45.5258557,-73.5188395
825,Rue Saint-Charles Ouest,J4K 2V1,45.5287760,-73.5155172
2500,Rue des Salicaires,J4M0B8,45.5275185,-73.4394220
150,Rue De L'Église,J3Y 9G4,45.5692556,-73.4814177
5925,Boulevard Cousineau,J3Y 7P5,45.4957637,-73.4112372
2040,Rue Brébeuf,J4J 3P7,45.5251152,-73.4796969
2040,Rue Brébeuf,J4J 3P7,45.5248359,-73.4785964
3675,Rue Rocheleau,J3Y 6C6,45.4921127,-73.4228310
830;834,Boulevard Desaulniers,J4K 1J7,45.5275019,-73.5102800
615,Rue Marmier,J4K 4S1,45.5272413,-73.5100876
4250,Chemin de la Savane,J3Y 9G4,45.5139902,-73.4315414
