House number,Street name,Postal code,Latitude,Longitude
1049,Boulevard Sainte-Anne,G5M 1P4,48.5136596,-68.4594371
91,Rue Saint-Germain Ouest,G5L 4B6,48.4494986,-68.5321317
333,Avenue de la Cathédrale,G5L 5J5,48.4454129,-68.5195213
92,2e Rue Ouest,G5L 8B3,48.4429842,-68.5217366
416,Rouleau,G5L 7S5,48.4377314,-68.5167885
1,Rue Saint-Germain Est,G5L 1A1,48.4512887,-68.5274682
97,Rue Saint-Louis,G5L 5P6,48.4493968,-68.5318777
105,Rue Saint-Pierre,G5L 1T6,48.4525084,-68.5216702
185,Boulevard René-Lepage Ouest,G5L 8X8,48.4475830,-68.5360361
175,Boulevard René-Lepage Ouest,G5L 8X8,48.4480068,-68.5355396
88,Avenue Rouleau,G5L 7J8,48.4486404,-68.5347048
148,Rue Saint-Jean-Baptiste Ouest,G5L 4J3,48.4448908,-68.5285979
157,Rue Saint-Germain Ouest,G5L 4B8,48.4478769,-68.5344850
336,Avenue de la Cathédrale,G5L 5K1,48.4456001,-68.5181335
274,Michaud,G5L 2A6,48.4420224,-68.5296601
256,Avenue Rouleau,G5L 5T9,48.4441349,-68.5277873
155,Rue de l'Évêché Ouest,G5L 4H8,48.4449237,-68.5294652
92,2e Rue,G5L 0A6,48.4432144,-68.5212980
70,Industrielle,G5M 1A5,48.4640440,-68.5062780
321,Avenue Léonidas Sud,G5L 2V1,48.4579998,-68.5025815
319,Avenue de la Cathédrale,G5L 5J9,48.4459659,-68.5200031
405,Boulevard Jessop,G5L 1N2,48.4667515,-68.5157888
320,Rue Saint-Germain est,G5L 1C2,48.4598264,-68.5179663
2175,Route 132 est,G0L 1B0,48.3977413,-68.6554653
31,Rue de l'Évêché Ouest,G5L 4H4,48.4479726,-68.5249223
1015,Boulevard Sainte-Anne,G5M 1X3,48.5113004,-68.4603073
145,Rue Saint-Germain Ouest,G5L 4B6,48.4484258,-68.5339633
131,Rue Saint-Germain Ouest,G5L 4B6,48.4487093,-68.5335467
130,Avenue Belzile,G5L 3E4,48.4545667,-68.5231692
165,Rue des Gouverneurs,G5L 7R2,48.4550376,-68.5217353
3,Boulevard Sainte-Anne,G5M 1B9,48.4855240,-68.4949490
100,Rue Saint-Louis,G5L 5P7,48.4495513,-68.5313056
373,Boulevard De La Riviere,G5L 4N3,48.4376915,-68.5359062
290,Rue Notre-Dame Ouest,G5L 4N1,48.4411131,-68.5332755
433,Boulevard Saint-Germain,G5L 3N8,48.4386136,-68.5501950
561,Rue de Lausanne,G5L 4A7,48.4342313,-68.5588302
292,Rue Saint-Germain Est,G5L 1B9,48.4585648,-68.5179179
644,Boulevard Saint-Germain,G5L 3S1,48.4359721,-68.5732030
644,Boulevard Saint-Germain,G5L 3S1,48.4360050,-68.5730862
644,Boulevard Saint-Germain,G5L 3S1,48.4358782,-68.5734472
644,Boulevard Saint-Germain,G5L 3S1,48.4359217,-68.5733235
110,Rue de l'Évêché Est,G5L 1T6,48.4519728,-68.5206566
144,Avenue de la Cathédrale,G5L 5H8,48.4508486,-68.5268237
124 B,Rue des Ateliers,G5M1B5,48.4677961,-68.5057074
675,Boulevard du Rivage,G5L 1H1,48.4831968,-68.4993229
118,Rue Saint-Germain Est,G5L 1A6,48.4532275,-68.5237590
186,Avenue de la Cathédrale,G5L 5H9,48.4499012,-68.5253224
102,Rue Saint-Germain Est,G5L 1A6,48.4527884,-68.5243111
395,Boulevard Saint-Germain,G5L 3N2,48.4404903,-68.5456540
185,Boulevard René-Lepage Ouest,G5L 8X8,48.4475303,-68.5359358
411,Avenue Sirois,G5L 8B2,48.4335151,-68.5219359
383,2e Rue Est,G5L 2G4,48.4549736,-68.5020349
385,2e Rue Est,G5L 2G4,48.4552183,-68.5017517
387,2e Rue Est,G5L 2G4,48.4555343,-68.5015285
295,Avenue de la Cathédrale,G5L 5J5,48.4470114,-68.5216252
195,Avenue Léonidas Sud,G5L 2T5,48.4621201,-68.5094942
101,Route des Pionniers,G5M 5M6,48.3937171,-68.4788945
303,Rue Saint-Jean-Baptiste Ouest,G5L 4J9,48.4410817,-68.5338652
751,Rue Forest,G5L 0H7,48.4353689,-68.5834488
741,Rue Forest,G5L 0H7,48.4347780,-68.5825396
716,Rue Forest,G5L 0H8,48.4339879,-68.5807291
750,Rue Forest,G5L 0H8,48.4354044,-68.5831699
737,Rue Forest,G5L 0H1,48.4345832,-68.5821801
691,Rue Forest,G5L 0H1,48.4343572,-68.5787483
129,Rue de la Petite-Ourse,G5L 0H4,48.4357728,-68.5825369
167,Rue de la Petite-Ourse,G5L 0H4,48.4342477,-68.5800317
168,Rue de la Petite-Ourse,G5L 0H3,48.4342406,-68.5796991
134,Rue de la Petite-Ourse,G5L 0H3,48.4358031,-68.5822767
169,Rue de la Grande-Ourse,G5L 0H2,48.4345894,-68.5790259
143,Rue de la Grande-Ourse,G5L 0H2,48.4356340,-68.5808216
141,Rue de la Grande-Ourse,G5L 0H2,48.4357034,-68.5809316
131,Rue de la Grande-Ourse,G5L 0H2,48.4361091,-68.5818395
168,Rue de la Grande-Ourse,G5L 0G9,48.4348377,-68.5789910
146,Rue de la Grande-Ourse,G5L 0G9,48.4356990,-68.5804957
142,Rue de la Grande-Ourse,G5L 0G8,48.4359081,-68.5808538
136,Rue de la Grande-Ourse,G5L 0G8,48.4361661,-68.5812776
40,Rue Saint-Germain Est,G5L 1A2,48.4522505,-68.5265742
845,Rue Saint-Arsène,G5L 3X4,48.4266345,-68.5890280
250,Boulevard Arthur-Buies Ouest,G5L 7A7,48.4349550,-68.5195650
395,Avenue Sirois,G5L 8R2,48.4350185,-68.5243635
559,Rue de Lausanne,G5L 4A7,48.4347365,-68.5585415
424,Avenue Ross,G5L 7P3,48.4326050,-68.5234970
375,Boulevard Jessop,G5L 1M8,48.4642895,-68.5158970
180,Rue des Gouverneurs,G5L 1P2,48.4559740,-68.5217625
155,Boulevard René-Lepage Est,G5L 1P2,48.4556435,-68.5226725
127,Boulevard René-Lepage Est,G5L 1P1,48.4547905,-68.5242238
111,2e Rue Ouest,G5L 4X3,48.4413988,-68.5204303
355,Boulevard Jessop,G5L 1M9,48.4627765,-68.5168115
49,Rue Saint-Jean-Baptiste Ouest,G5L 4J2,48.4464395,-68.5238480
389,Rue Vanier,G5L 8X1,48.4411862,-68.5429480
105,Rue Saint-Jean-Baptiste Ouest,G5L 4J2,48.4455123,-68.5264795
658,Route des Pionniers,G5N 5P1,48.3611580,-68.4604520
1324,Boulevard Saint-Germain,G5L 8Y9,48.4092455,-68.6319605
415,Montée Industrielle-et-Commerciale,G5M 1Y1,48.4537625,-68.4976780
395,Montée Industrielle-et-Commerciale,G5M 1Y1,48.4550850,-68.4982790
306,Boulevard Arthur-Buies Ouest,G5L 0B3,48.4329635,-68.5214960
390,Montée Industrielle-et-Commerciale,G5M 1X1,48.4564308,-68.4943928
205,Avenue De La Cathédrale,G5L 7C7,48.4492724,-68.5251848
285,Montée des Saules,G5L 8Y9,48.4215850,-68.5829490
287,Rue Pierre-Saindon,G5L 9A7,48.4445955,-68.5239820
413,rue Sirois,G5L 8B2,48.4335375,-68.5208633
265,2e Rue Est,G5L 9H3,48.4509015,-68.5078300
53,Saint-Germain Ouest,G5L 4B4,48.4497476,-68.5295655
485,Rue Jean-Marie-Leblanc,G5M 1B8,48.4674125,-68.5023475
491,Rue Jean-Marie-Leblanc,G5M 1B8,48.4678715,-68.5019115
452,Rue de l'Expansion,G5M 1A9,48.4679322,-68.5035088
396,Boulevard Jessop,G5L 1N1,48.4662225,-68.5172271
359,Boulevard Jessop,G5L 1M8,48.4633265,-68.5164496
326,Rue Saint-Germain Est,G5L 9B2,48.4605615,-68.5180975
185,Boulevard René-Lepage Est,G5L 1P2,48.4564608,-68.5217059
185,Rue des Gouverneurs,G5L 8G1,48.4561055,-68.5209835
108,Rue Saint-Germain Est,G5L 1A6,48.4530080,-68.5240595
351,Montee Industrielle-Et-Commerciale,G5M 1A7,48.4578988,-68.4981751
352,Montee Industrielle-Et-Commerciale,G5M 1X1,48.4585245,-68.4970840
176,Rue Jean-Brillant,G5L 3B2,48.4544775,-68.5190173
184,Rue Jean-Brillant,G5L 3B2,48.4543355,-68.5187410
455,Boulevard Saint-Germain,G5L 3N9,48.4386925,-68.5530390
"237,239",Rue de la Normandie,G5N 1H9,48.4301761,-68.5151589
561,Rue de Lausanne,G5L 4A7,48.4342290,-68.5588570
344,Avenue de la Cathédrale,G5L 5K2,48.4452347,-68.5176057
569,Rue de Lausanne,G5L 4A7,48.4337500,-68.5591905
426-428,Rue Pierre-Dansereau,G5M 0K8,48.4486910,-68.5009526
438,Boulevard Saint-Germain,G5L 3N9,48.4393910,-68.5512560
328,Montée Sainte-Odile,G5L 6M2,48.4318980,-68.5384857
326,Montée Sainte-Odile,G5L 6M2,48.4317565,-68.5383606
718,Montée Ste-Odile,G5N 1X3,48.4141197,-68.5098710
288,Rue Pierre-Saindon,G5L 9A8,48.4454340,-68.5239645
100,Avenue du Havre,G5M 1Z6,48.4699618,-68.5050201
100,Avenue du Havre,G5M 1Z6,48.4698500,-68.5045950
108,Avenue du Havre,G5M 1Z6,48.4697135,-68.5042935
116,Avenue du Havre,G5M 1Z6,48.4694485,-68.5037615
85,Boulevard René-Lepage Est,G5L 1N8,48.4535325,-68.5250810
80,Rue Saint-Germain Est,G5L 3H8,48.4525773,-68.5255121
252,Rue Pierre-Delisle,G5L 5B1,48.4372620,-68.5239720
400,Avenue Sirois,G5L 6E2,48.4357780,-68.5225700
52,Avenue Léonidas Sud,G5L 2T2,48.4662690,-68.5147760
149,Rue du Rocher-Blanc,G5L 7A1,48.4278930,-68.5915965
370,Montée Industrielle-et-Commerciale,G5M 1X1,48.4578698,-68.4959540
356,Boulevard Jessop,G5L 1M8,48.4631943,-68.5174755
765,Boulevard Saint-Germain,G5L 3T2,48.4307113,-68.5839345
2207,QC-132,G0L 1B0,48.3965740,-68.6580924
2683,QC-132,G0L 1B0,48.3770069,-68.6934428
635,Route des Pionniers,G5N 5E3,48.3617995,-68.4599985
644,Route des Pionniers,G5N 5P1,48.3619265,-68.4612580
561,Route des Pionniers,G5N 5N6,48.3669445,-68.4640915
138,Rue de Sainte-Cécile-du-Bic,G0L 1B0,48.3725910,-68.7104005
3250,Route 132,G0L 1B0,48.3591064,-68.7426843
226,Rue du Domaine,G5L 3X8,48.4362505,-68.5689720
222,Rue du Domaine,G5L 3X8,48.4356930,-68.5695775
224,Rue du Domaine,G5L 3X8,48.4358330,-68.5693207
226,Rue du Domaine,G5L 3X8,48.4360335,-68.5692091
263,Avenue Rouleau,G5L 5T9,48.4438630,-68.5278395
247,Rue Saint-Laurent Ouest,G5L 4P8,48.4401125,-68.5299795
1025,Rue du Jalobert,G5M1P1,48.5093305,-68.4555695
222,Route des Pionniers,G5N 5B2,48.3878296,-68.4706825
5,Rue Lucien-St-Pierre,G5N 0H3,48.3868846,-68.5238515
363,Avenue Léonidas Sud,G5M 1A1,48.4559837,-68.5002315
411,Montée Sainte-Odile,G5N 0A1,48.4265528,-68.5319908
19,Rue du Pavillon,G5N 5S7,48.3588860,-68.4575782
391,2e Rue Est,G5L 2G4,48.4558784,-68.5009958
19,Rue du Pavillon,G5N 5S7,48.3587780,-68.4569582
512,Avenue Léonidas Sud,G5M 0G8,48.4474741,-68.4919991
490,Avenue Léonidas Sud,G5M 0L8,48.4484418,-68.4941468
282,2e Rue Est,G5L 9H3,48.4504783,-68.5088693
351,Rue Alcide-C.-Horth,G5L 0K2,48.4499953,-68.5092372
191,Rue Saint-Jean-Baptiste Est,G5L 3B2,48.4530118,-68.5162462
60,Rue de l'Évêché Ouest,G5L 4H6,48.4485816,-68.5280845
