House number,Street name,Postal code,Latitude,Longitude
2355,105e Avenue,G9P 1P4,46.5193083,-72.7438754
4175,Boulevard de Shawinigan-Sud,G9P 4G3,46.5047093,-72.7280524
2650,Aveunue de Grand-Mère,G9T 2L4,46.6032807,-72.7115345
30,Rue du Curé-Boulay,G0X 1L0,46.5969012,-72.6313676
8850,Rang Saint-Mathieu,G0X 1L0,46.5983386,-72.6286846
4435,Rang Saint-Mathieu,G9N 6T5,46.5566952,-72.6888552
5261,Rang Saint-Mathieu,G0X 1L0,46.5628829,-72.6800093
470,Chemin des Rapides-des-Hêtres,G0X 1L0,46.5620304,-72.6813196
5281,Rang Saint-Mathieu,G0X 1L0,46.5632684,-72.6794578
5430,Rang Saint-Mathieu,G0X 1L0,46.5765215,-72.6599418
5400,Rang Saint-Mathieu,G0X 1L0,46.5680958,-72.6720161
81,Rue du Curé-Mélançon,G0X 1L0,46.5949744,-72.6341430
1195,103e Avenue,G9P 1G9,46.5254410,-72.7497397
7676,Rang Saint-Mathieu,G0X 1L0,46.5889821,-72.6421238
8850,Rang Saint-Mathieu,G0X 1L0,46.5998470,-72.6265425
35,Rue de la Poudrière,G0X 1L0,46.5633315,-72.6794583
8801,Rang Saint-Mathieu,G0X 1L0,46.5964052,-72.6319911
380,Chemin du Lac-Pratte,G0X 1L0,46.5766489,-72.6596694
7381,Rang Saint-Mathieu,G0X 1L0,46.5825273,-72.6519027
7401,Rang Saint-Mathieu,G0X 1L0,46.5891697,-72.6423997
4435,Rang Saint-Mathieu,G9N 6T5,46.5582632,-72.6866259
40,Rue du Lac-Lafontaine,G0X 1L0,46.5962020,-72.6323836
30,46e Rue,G0X 1L0,46.5965941,-72.6318100
31,Rue du Lac-Claire,G0X 1L0,46.5627556,-72.6802821
8791,Rang Saint-Mathieu,G0X 1L0,46.5962028,-72.6322827
82,Rue du Père-Frédéric,G0X 1L0,46.5957555,-72.6330179
7676,Rang Saint-Mathieu,G0X 1L0,46.5823397,-72.6516268
5251,Rang Saint-Mathieu,G0X 1L0,46.5620311,-72.6812278
7682,Rang Saint-Mathieu,G0X 1L0,46.5910523,-72.6391439
81,Rue du Père-Frédéric,G0X 1L0,46.5956291,-72.6332000
8930,Rang Saint-Mathieu,G0X 1L0,46.6021473,-72.6232796
61,46e Rue,G0X 1L0,46.5964677,-72.6319921
51,Rue du Curé-Boulay,G0X 1L0,46.5967748,-72.6315498
391,Chemin du Lac-Pratte,G0X 1L0,46.5765219,-72.6598506
8961,Rang Saint-Mathieu,G0X 1L0,46.6034105,-72.6221383
8961,Rang Saint-Mathieu,G0X 1L0,46.6031392,-72.6224262
20,Rue du Lac-Claire,G0X 1L0,46.5628824,-72.6801008
5205,Rang Saint-Mathieu,G0X 1L0,46.5618410,-72.6814999
60,Rue du Curé-Mélançon,G0X 1L0,46.5951008,-72.6339609
7680,Rang Saint-Mathieu,G0X 1L0,46.5890455,-72.6420331
5190,Rang Saint-Mathieu,G0X 1L0,46.5581588,-72.6862215
5200,Rang Saint-Mathieu,G0X 1L0,46.5617178,-72.6811320
231,Route de Lac-à-la-Tortue,G0X 1L0,46.6038928,-72.6223574
8955,Rang Saint-Mathieu,G0X 1L0,46.6022705,-72.6236472
8955,Rang Saint-Mathieu,G0X 1L0,46.6000974,-72.6267381
8771,Rang Saint-Mathieu,G0X 1L0,46.5960131,-72.6325558
8771,Rang Saint-Mathieu,G0X 1L0,46.5957561,-72.6329260
5203,Rang Saint-Mathieu,G0X 1L0,46.5583463,-72.6864973
5251,Rang Saint-Mathieu,G0X 1L0,46.5626927,-72.6802813
30,Rue de la Poudrière,G0X 1L0,46.5634582,-72.6792769
671,Rue des Merisiers,G9R 1S2,46.6043457,-72.8205737
8930,Rang Saint-Mathieu,G0X 1L0,46.6024437,-72.6228589
15,Rue du Lac-Lafontaine,G0X 1L0,46.5960756,-72.6325569
4400,Rang Saint-Mathieu,G9N 1G2,46.5564442,-72.6886701
4285,Boulevard de Shawinigan-Sud,G9P 4G2,46.5027500,-72.7265228
10000,Boulevard de la Vallée-du-Parc,G9T 0N1,46.6150752,-72.7974157
1000,Avenue des Cèdres,G9N 4N6,46.5543746,-72.7474053
1404,Chemin de Saint-Jean-des-Piles,G0X 2V0,46.6901211,-72.7389393
850,7e Avenue,G9T 2B8,46.6135363,-72.6966650
1000,Côte de la Baie,G9N 4R5,46.5464696,-72.7583044
1055,5e Avenue,G9P 1L4,46.5249446,-72.7521376
1000,Avenue Melville,G9N 6T9,46.5362702,-72.7570768
4170,Boulevard de Shawinigan-Sud,G9P 4G2,46.5037842,-72.7297574
2500,125e Rue,G9P 1P6,46.5185285,-72.7434711
1583,105e Avenue,G9P 1M6,46.5227974,-72.7490271
90,119e Rue,G9P 5K6,46.5237100,-72.7437315
4180,Boulevard de Shawinigan-Sud,G9P 4G2,46.5032939,-72.7291698
425,Avenue des Cèdres,G9N 1N5,46.5402102,-72.7464592
816,4e rue de la Pointe,G9N 1H3,46.5398083,-72.7525684
1250,Avenue de la Station,G9N 8K9,46.5458313,-72.7496891
4170,Boulevard de Shawinigan-Sud,G9P 4G2,46.5034970,-72.7294754
4005,Boulevard de Shawinigan-Sud,G9P 4G3,46.5051407,-72.7303519
1161,Chemin de Saint-Gérard,G9R 1H8,46.5987022,-72.8080557
555,17e Rue,G9T 6V5,46.6050035,-72.7059778
1100,Promenade du Saint-Maurice,G9N 1L8,46.5409745,-72.7545884
2722,Boulevard Saint-Sacrement,G9N 8M3,46.5601173,-72.7397444
1510,Rue Trudel,G9N 0A2,46.5563297,-72.7488052
1520,Rue Trudel,G9N 0A2,46.5564035,-72.7486389
1530,Rue Trudel,G9N 0A2,46.5565363,-72.7484672
2333,8e Rue,G9T 6Z8,46.6219654,-72.7039250
990,108e Ave,G9T 5K4,46.6308002,-72.6459707
1001,95e Ave,G9T 5K4,46.6417500,-72.6573457
300,QC-153,G9T 3B8,46.6196745,-72.6666628
4675,12e Avenue,G9N 6T5,46.4954905,-72.7163572
2505,5e Avenue,G9P 1P7,46.5186527,-72.7430217
2285,5e Avenue,G9P 1N9,46.5198774,-72.7447778
313,4e Rue,G9N 1G6,46.5396760,-72.7463580
1763,Boulevard Hubert-Biermans,G9N 8N6,46.5757810,-72.7214880
800,6e Avenue,G9T 2J1,46.6128331,-72.6953870
1500,6e Avenue,G9T 2K1,46.6073507,-72.7036244
1870,6e Avenue,G9T 2K7,46.6041195,-72.7082299
2700,6e Avenue,G9T 2L2,46.6008721,-72.7107893
1780,6e Avenue,G9T 2K5,46.6043219,-72.7076293
1563,Boulevard Saint-Sacrement,G9N 3M9,46.5613690,-72.7409930
3973,Rue Garnier,G9N 6Y1,46.5696602,-72.7633951
2114,Avenue de la Montagne,G9N 6Y7,46.5703912,-72.7630315
1625,Rue Trudel,G9N 8K8,46.5567636,-72.7521311
1560,Chemin du CNR,G9N 2B4,46.5496755,-72.7453010
668,4e rue de la Pointe,G9N 1G8,46.5399184,-72.7499129
692,4e rue de la Pointe,G9N1G8,46.5399273,-72.7501093
2800,Chemin de Saint-Jean-des-Piles,G0X2V0,46.7248685,-72.7670849
241,Chemin de Saint-Gérard,G9N 6Z5,46.5761104,-72.7708275
1169,Avenue de Grand-Mère,G9T 2J4,46.6100112,-72.6988592
1645,Rue Trudel,G9N 8K8,46.5566646,-72.7510853
1650,Avenue de Grand-Mère,G9T 2K2,46.6065203,-72.7072473
1650,Avenue de Grand-Mère,G9T 2K2,46.6064052,-72.7077784
100,9e rue de la Pointe,G9N 0E7,46.5443301,-72.7449907
1262,rue Dupont,G9N 8P6,46.5522911,-72.7498225
1455,Boulevard de Shawinigan-Sud,G9P 4G2,46.5048545,-72.7289369
4665,Boulevard de Shawinigan-Sud,G9N 6T5,46.4956585,-72.7162750
4675,Boulevard de Shawinigan-Sud,G9N 6T5,46.4955332,-72.7160853
1100,Boulevard Saint-Sacrement,G9N 3M8,46.5594525,-72.7359962
1495,Rue Trudel,G9N 0A2,46.5554107,-72.7492152
1700,105e Avenue,G9P 1M9,46.5219044,-72.7483759
1720,105e Avenue,G9P 1M9,46.5217974,-72.7482246
550,122e Rue,G9P 5G9,46.5196679,-72.7460734
2105,105e Avenue,G9P 1N9,46.5206000,-72.7448921
2675,105e Avenue,G1P 1P8,46.5180745,-72.7413907
1,Rue La Plaza-de-la-Mauricie,G9N 3M9,46.5622057,-72.7407846
1,Rue La Plaza-de-la-Mauricie,G9N 3M9,46.5618497,-72.7398378
1,Rue La Plaza-de-la-Mauricie,G9N 3M9,46.5624343,-72.7400148
3103,Boulevard Royal,G9N 7C1,46.5631083,-72.7391855
3283,Boulevard Royal,G9N 8K7,46.5634099,-72.7383787
3493,Boulevard Royal,G9N 8K7,46.5638312,-72.7368884
3353,Boulevard Royal,G9N 8K7,46.5635909,-72.7374101
1532,41e Rue,G9N 7Y9,46.5663134,-72.7329844
1572,41e Rue,G9N 7Y9,46.5665862,-72.7333218
1602,41e Rue,G9N 7Y9,46.5667051,-72.7334871
1622,41e Rue,G9N 7Y9,46.5668236,-72.7336455
1692,41e Rue,G9N 7Y9,46.5668926,-72.7340524
1672,41e Rue,G9N 7Y9,46.5669392,-72.7338490
9783,Boulevard des Hêtres,G9N 4Y2,46.5954037,-72.7097141
125,Rue du Parc-Industriel,G9P 4G2,46.5018024,-72.7233355
802,Rue Notre-Dame,G9N 3R8,46.5574280,-72.7366809
7750,Boulevard des Hêtres,G9N 4X4,46.5833858,-72.7156418
1870,Avenue de Grand-Mère,G9T 2K7,46.6037763,-72.7086092
5820,Boulevard Royal,G9N 4R8,46.5719366,-72.7213462
1553,Boulevard Hubert-Biermans,G9N 8N6,46.5748506,-72.7204282
1553,Boulevard Hubert-Biermans,G9N 8N6,46.5747037,-72.7202843
6183,Boulevard Royal,G9N 8P3,46.5743928,-72.7204467
1763,Boulevard Hubert-Biermans,G9N 8N6,46.5756911,-72.7215937
6500,Boulevard des Hêtres,G9N 4W9,46.5764231,-72.7207596
5770,Boulevard Royal,G9N 4R8,46.5715773,-72.7223275
5570,Boulevard Royal,G9N 4R8,46.5705553,-72.7235174
5440,Boulevard Royal,G9N 4R8,46.5701260,-72.7244401
5230,Boulevard Royal,G9N 4R8,46.5692269,-72.7255108
5050,Boulevard Royal,G9N 4R8,46.5688271,-72.7264213
4100,Boulevard Royal,G9N 7K1,46.5650094,-72.7319955
3832,Boulevard Royal,G9N 7K1,46.5642111,-72.7338820
4802,Boulevard Royal,G9N 4R6,46.5680877,-72.7276488
4620,Boulevard Royal,G9N 7X9,46.5672960,-72.7290242
1702,41e Rue,G9N 5G2,46.5672033,-72.7347906
4082,Boulevard des Hêtres,G9N 4V1,46.5671879,-72.7354716
5023,Boulevard des Hêtres,G9N 4V7,46.5712214,-72.7304782
5023,Boulevard des Hêtres,G9N 4V9,46.5710529,-72.7303220
5003,Boulevard Royal,G9N 8G5,46.5689638,-72.7276181
4370,Boulevard Royal,G9N 7X7,46.5659609,-72.7308765
343,5e rue de la Pointe,G9N 1E4,46.5405197,-72.7467223
784,4e rue de la Pointe,G9N 1H2,46.5398844,-72.7513028
5312,Boulevard des Hêtres,G9N 4W1,46.5720001,-72.7275904
1,Rue La Plaza-de-la-Mauricie,G9N 3B4,46.5625882,-72.7391472
2102,Avenue Champlain,G9N 2L4,46.5545160,-72.7423079
432,Ruelle Wilson,G9N 1X2,46.5404014,-72.7532718
1381,Avenue de la Transmission,G9N 2B4,46.5488248,-72.7462554
753,5e rue de la Pointe,G9N 1G2,46.5403149,-72.7511720
667,5e rue de la Pointe,G9N 1E7,46.5403850,-72.7499034
647,5e rue de la Pointe,G9N 1E7,46.5403794,-72.7496995
580,Avenue du Marché,G9N 0C8,46.5409366,-72.7484379
880,Promenade du Saint-Maurice,G9N 1L7,46.5397797,-72.7529143
879,105e Avenue,G9P 1L1,46.5256513,-72.7532467
550,109e Rue,G9P 2M5,46.5252118,-72.7538405
975,105e Avenue,G9P 1L3,46.5252354,-72.7526187
1100,105e Avenue,G9P 1L6,46.5244875,-72.7520260
1135,105e Avenue,G9P 1L7,46.5246229,-72.7515002
1200,105e Avenue,G9P 1L8,46.5241166,-72.7513461
1205,105e Avenue,G9P 1L9,46.5242510,-72.7511344
1285,105e Avenue,G9P 1L9,46.5240205,-72.7507891
520,113e Rue,G9P 2W6,46.5235396,-72.7513502
1305,105e Avenue,G9P 1M2,46.5238140,-72.7505650
1341,105e Avenue,G9P 1M2,46.5237362,-72.7504067
1387,105e Avenue,G9P 1M2,46.5235736,-72.7501601
1450,105e Avenue,G9P 1M3,46.5231719,-72.7501272
1466,105e Avenue,G9P 1M3,46.5230263,-72.7499361
1435,105e Avenue,G9P 1M4,46.5233515,-72.7498538
1435,105e Avenue,G9P 2Z2,46.5231507,-72.7495496
1525,105e Avenue,G9P 1M6,46.5231309,-72.7490276
1500,105e Avenue,G9P 1M5,46.5228155,-72.7494880
1560,105e Avenue,G9P 1M6,46.5226693,-72.7492372
1580,105e Avenue,G9P 1M5,46.5225837,-72.7491190
1605,105e Avenue,G9P 1M8,46.5225112,-72.7487339
1600,105e Avenue,G9P 1M7,46.5223317,-72.7487968
1785,105e Avenue,G9P 1N1,46.5218996,-72.7477766
1825,105e Avenue,G9P 1N2,46.5216039,-72.7473558
1883,105e Avenue,G9P 1N2,46.5214116,-72.7471022
1920,105e Avenue,G9P 1N4,46.5209091,-72.7467685
1905,105e Avenue,G9P 1N5,46.5212337,-72.7469025
1955,105e Avenue,G9P 1N5,46.5210651,-72.7466190
2005,105e Avenue,G9P 1N6,46.5207977,-72.7462585
2035,105e Avenue,G9P 1N6,46.5206608,-72.7460097
2070,105e Avenue,G9P 1N7,46.5204489,-72.7462968
1920,105e Avenue,G9P 1N4,46.5208179,-72.7469862
2090,105e Avenue,G9P 1N7,46.5203714,-72.7461429
2105,105e Avenue,G9P 1N9,46.5204869,-72.7450008
2025,105e Avenue,G9P 1N6,46.5207442,-72.7461425
2075,105e Avenue,G9P 1N6,46.5205703,-72.7458703
2280,105e Avenue,G9P 1P1,46.5195533,-72.7450073
2255,105e Avenue,G9P 1N9,46.5199470,-72.7446906
425,123e Rue,G9P 1P4,46.5197980,-72.7439043
2425,105e Avenue,G9P 1P5,46.5190081,-72.7436698
2475,105e Avenue,G9P 1P5,46.5189014,-72.7434820
2595,105e Avenue,G9P 1P7,46.5184700,-72.7427283
2605,105e Avenue,G1P 1P8,46.5180871,-72.7421695
3530,105e Avenue,G9P 1S1,46.5128136,-72.7352382
1100,Promenade du Saint-Maurice,G9N 1L8,46.5408464,-72.7543433
932,Promenade du Saint-Maurice,G9N 1L8,46.5403999,-72.7540402
433,Avenue Willow,G9N 9M8,46.5403464,-72.7538176
892,Promenade du Saint-Maurice,G9N 1L7,46.5400922,-72.7534805
1250,Avenue de la Station,G9N 1W8,46.5450771,-72.7505687
1565,Rue Trudel,G9N 8K5,46.5562306,-72.7502649
2581,7e Avenue,G9T 5N1,46.6033717,-72.7099211
1870,Avenue de Grand-Mère,G9T 5K7,46.6038683,-72.7083811
1490,Avenue de Grand-Mère,G9T 2J8,46.6074036,-72.7031437
1409,Avenue de Grand-Mère,G9T 2J9,46.6081860,-72.7016130
1390,Avenue de Grand-Mère,G9T 2J6,46.6084028,-72.7017601
1397,Avenue de Grand-Mère,G9T 2J7,46.6083123,-72.7012545
1397,Avenue de Grand-Mère,G9T 2J7,46.6083797,-72.7011442
1360,Avenue de Grand-Mère,G9T 2J6,46.6087017,-72.7013128
1330,Avenue de Grand-Mère,G9T 2J6,46.6088343,-72.7010554
1301,Avenue de Grand-Mère,G9T 2J7,46.6088022,-72.7005116
3902,Boulevard des Hêtres,G9N 4T8,46.5665591,-72.7365803
3913,Boulevard des Hêtres,G9N 4T9,46.5667372,-72.7365721
4063,Boulevard des Hêtres,G9N 4T9,46.5673432,-72.7357307
4062,Boulevard des Hêtres,G9N 4V1,46.5671137,-72.7355907
5400,Avenue de Nicolet,G9N 4T3,46.5717172,-72.7267441
1592,Avenue Saint-Marc,G9N 2H4,46.5509507,-72.7455551
1652,Avenue Saint-Marc,G9N 2H4,46.5513045,-72.7451671
1679,Avenue Saint-Marc,G9N 2H6,46.5515495,-72.7451771
1733,Avenue Saint-Marc,G9N 2H6,46.5519296,-72.7447592
1797,Avenue Saint-Marc,G9N 2H6,46.5523461,-72.7443991
1842,Avenue Saint-Marc,G9N 2H7,46.5524926,-72.7439054
1882,Avenue Saint-Marc,G9N 4M6,46.5527207,-72.7436145
1960,Avenue Saint-Marc,G9N 2J1,46.5532222,-72.7429599
2102,Avenue Saint-Marc,G9N 2J4,46.5540343,-72.7417154
2122,Avenue Saint-Marc,G9N 2J3,46.5541102,-72.7415748
2122,Avenue Champlain,G9N 2L4,46.5546108,-72.7421925
1667,Avenue Champlain,G9N 2K8,46.5520003,-72.7459686
2252,Avenue Saint-Marc,G9N 2J5,46.5548673,-72.7404213
2292,Avenue Saint-Marc,G9N 2J6,46.5551268,-72.7400087
736,Rue Lambert,G9N 4E5,46.5550053,-72.7395906
2312,Avenue Saint-Marc,G9N 2J7,46.5553090,-72.7396118
2303,Avenue Saint-Marc,G9N 2J9,46.5554427,-72.7397618
2362,Avenue Saint-Marc,G9N 2J7,46.5555532,-72.7392272
2402,Avenue Saint-Marc,G9N 2J7,46.5557062,-72.7389461
2443,Avenue Saint-Marc,G9N 2J9,46.5560887,-72.7388788
843,Rue Frigon,G9N 3Y6,46.5563113,-72.7385433
962,Rue Frigon,G9N 3Y7,46.5572027,-72.7392096
952,Boulevard Saint-Sacrement,G9N 3M5,46.5581839,-72.7369423
1295,Boulevard Saint-Sacrement,G9N 3M8,46.5600173,-72.7395749
1413,Rue Frigon,G9N 3Z9,46.5591732,-72.7424005
1333,Rue Frigon,G9N 3Z7,46.5587968,-72.7418653
2433,Boulevard Royal,G9N 2W7,46.5589203,-72.7428009
2413,Boulevard Royal,G9N 2W7,46.5587470,-72.7429458
2873,Boulevard Royal,G9N 2W5,46.5585477,-72.7433396
1617,Rue Trudel,G9N 0A2,46.5564064,-72.7505076
3962,Rue Trudel,G9N 7Y6,46.5698370,-72.7628474
2043,Avenue de la Montagne,G9N 6J5,46.5701290,-72.7637920
2333,Avenue de la Montagne,G9N 6J9,46.5706926,-72.7631961
74,Chemin de Saint-Gérard,G9N 6R3,46.5716888,-72.7655446
228,Chemin de Saint-Gérard,G9N 6Z3,46.5756935,-72.7700229
262,Chemin de Saint-Gérard,G9N 6Z3,46.5768847,-72.7701265
320,Chemin de Saint-Gérard,G9R 1G8,46.5790365,-72.7711203
340,Chemin de Saint-Gérard,G9R 1G8,46.5797760,-72.7717933
521,Chemin de Saint-Gérard,G9R 1H1,46.5850244,-72.7794474
880,Chemin de Saint-Gérard,G9R 1H6,46.5949275,-72.7972700
1161,Chemin de Saint-Gérard,G9R 1H8,46.5986364,-72.8078299
1395,Chemin Principal,G9R 1E4,46.6024772,-72.8135996
1591,Chemin de Saint-Gérard,G9R 1J4,46.6005433,-72.8204569
655,Rue Arthur-McNicoll,G9P 4T8,46.5033503,-72.7339883
3590,Rang Saint-Michel,G9N 6T5,46.4863692,-72.7437847
3833,Avenue de la Montagne,G9N 7H2,46.5837616,-72.7575095
3280,105e Avenue,G9P 1R6,46.5141392,-72.7371809
3190,105e Avenue,G9P 4E1,46.5145104,-72.7377248
2890,105e Avenue,G1P 1R2,46.5164457,-72.7405402
2670,105e Avenue,G1P 1P8,46.5175474,-72.7420923
3712,105e Avenue,G1P 1P9,46.5177294,-72.7423226
80,116e Rue,G9P 5K7,46.5252848,-72.7450037
80,118e Rue,G9P 3E4,46.5244285,-72.7440569
177,Avenue du Capitaine-Veilleux,G9P 1B7,46.5291224,-72.7517043
151,Chemin de la Berge,G9P 1B6,46.5296389,-72.7458693
587,109e Rue,G9P 2M6,46.5249474,-72.7540651
900,106e Avenue,G9P 1S4,46.5245414,-72.7539793
4175,Boulevard de Shawinigan-Sud,G9P 4G3,46.5045396,-72.7279563
555,Rue du Parc-Industriel,G9N 6T5,46.5071306,-72.7155436
545,Rue du Parc-Industriel,G9N 6T5,46.5069155,-72.7158193
605,Rue du Parc-Industriel,G9N 6T5,46.5097522,-72.7119604
1520,Rang Saint-Mathieu,G9N 6T5,46.5300816,-72.7264627
1570,Rang Saint-Mathieu,G9N 6T5,46.5304211,-72.7259272
3005,Rang Saint-Mathieu,G9N 6T5,46.5445219,-72.7099909
4006,Rang Saint-Mathieu,G9N 6T5,46.5514345,-72.6957836
1882,Rue Cascade,G9N 8S1,46.5393621,-72.7638867
1,Rue Jacques-Plante,G9N 0B7,46.5476281,-72.7448791
4790,Boulevard Royal,G9N 4R6,46.5679727,-72.7281646
4973,Boulevard Royal,G9N 8G5,46.5688557,-72.7277960
5023,Boulevard Royal,G9N 8G5,46.5690898,-72.7274015
6863,Boulevard des Hêtres,G9N 4W8,46.5792957,-72.7196281
1983,76e Rue,G9N 5W6,46.5820783,-72.7158849
8442,Boulevard des Hêtres,G9N 4X7,46.5869413,-72.7136667
8555,Boulevard des Hêtres,G9N 4X7,46.5875754,-72.7136667
8723,Boulevard des Hêtres,G9N 4X3,46.5882126,-72.7131420
8823,Boulevard des Hêtres,G9N 4X3,46.5887115,-72.7126916
8800,Boulevard des Hêtres,G9N 8G1,46.5886389,-72.7121563
9042,Boulevard des Hêtres,G9N 4X8,46.5900621,-72.7110128
9212,Boulevard des Hêtres,G9N 4X9,46.5908554,-72.7104097
9612,Boulevard des Hêtres,G9N 4X3,46.5934831,-72.7085835
9612,Boulevard des Hêtres,G9N 4X3,46.5933062,-72.7086203
9633,Boulevard des Hêtres,G9N 4Y2,46.5938115,-72.7090615
9682,Boulevard des Hêtres,G9N 4Y2,46.5949211,-72.7088225
9790,Boulevard des Hêtres,G9N 4Y3,46.5955359,-72.7090339
9823,Boulevard des Hêtres,G9N 4Y3,46.5961633,-72.7096835
9941,Boulevard des Hêtres,G9N 4Y2,46.5967570,-72.7098551
9850,Boulevard des Hêtres,G9N 4Y3,46.5962075,-72.7090921
9850,Boulevard des Hêtres,G9N 4Y3,46.5965107,-72.7091503
10023,Boulevard des Hêtres,G9N 4Y2,46.5973673,-72.7099889
10100,Boulevard des Hêtres,G9N 4Y4,46.5977246,-72.7096620
10023,Boulevard des Hêtres,G9N 4Y2,46.5972544,-72.7099477
10133,Boulevard des Hêtres,G9N 4Y2,46.5978002,-72.7102871
10200,Boulevard des Hêtres,G9N 4Y4,46.5982810,-72.7098779
10303,Boulevard des Hêtres,G9N 4Y2,46.5991379,-72.7106665
2699,5e Avenue,G9T 2P7,46.5998696,-72.7096043
2699,5e Avenue,G9T 2P7,46.6009329,-72.7097840
2650,Aveunue de Grand-Mère,G9T 2L4,46.6028440,-72.7121300
10506,Boulevard des Hêtres,G9T 2H2,46.6023577,-72.7099730
1153,7e Avenue,G9T 2C1,46.6107663,-72.6995671
1040,Avenue de Grand-Mère,G9T 2J3,46.6107480,-72.6980946
1010,5e Avenue,G9T 2N3,46.6103235,-72.6969431
997,Avenue de Grand-Mère,G9T 2J2,46.6108873,-72.6974645
988,Avenue de Grand-Mère,G9T 2J1,46.6111178,-72.6975176
951,Avenue de Grand-Mère,G9T 2J2,46.6113550,-72.6968659
939,Avenue de Grand-Mère,G9T 2J2,46.6115291,-72.6965689
1899,Avenue de Grand-Mère,G9T 2K6,46.6032459,-72.7086513
1851,5e Avenue,G9T 2P3,46.6028937,-72.7072638
1080,5e Avenue,G9T 2P4,46.6037878,-72.7070712
500,17e Rue,G9T 6M4,46.6051272,-72.7050747
1579,Avenue de Grand-Mère,G9T 2K2,46.6061276,-72.7044984
1550,Avenue de Grand-Mère,G9T 2K1,46.6065671,-72.7042474
1500,Avenue de Grand-Mère,G9T 2K1,46.6072491,-72.7037152
1490,5e Avenue,G9T 2N8,46.6069024,-72.7023584
1471,7e Avenue,G9T 2C7,46.6079311,-72.7037759
1366,Avenue de Grand-Mère,G9T 2J6,46.6086813,-72.7013712
1250,Avenue de Grand-Mère,G9T 2J5,46.6093832,-72.7001439
1200,Avenue de Grand-Mère,G9T 2J5,46.6098826,-72.6994391
1190,Avenue de Grand-Mère,G9T 2J3,46.6100719,-72.6991190
1131,Avenue de Grand-Mère,G9T 2J4,46.6102046,-72.6985513
982,7e Avenue,G9T 2B8,46.6117704,-72.6984270
920,7e Avenue,G9T 2B8,46.6126493,-72.6979232
900,7e Avenue,G9T 2B8,46.6128114,-72.6976953
891,7e Avenue,G9T 2B9,46.6127757,-72.6965078
650,8e Rue,G9T 6K1,46.6133635,-72.6954082
801,Avenue de Grand-Mère,G9T 2H9,46.6126329,-72.6949444
799,Avenue de Grand-Mère,G9T 2H8,46.6128784,-72.6946114
785,7e Avenue,G9T 2B7,46.6137831,-72.6950191
765,Avenue de Grand-Mère,G9T 2H8,46.6133243,-72.6939515
741,Avenue de Grand-Mère,G9T 2H8,46.6135362,-72.6936431
736,Avenue de Grand-Mère,G9T 2H7,46.6137315,-72.6936806
714,Avenue de Grand-Mère,G9T 2H7,46.6139010,-72.6934017
667,Avenue de Grand-Mère,G9T 2H6,46.6143024,-72.6926225
550,Avenue de Grand-Mère,G9T 2H2,46.6152773,-72.6913151
531,Avenue de Grand-Mère,G9T 2H4,46.6153935,-72.6911730
526,Avenue de Grand-Mère,G9T 2H2,46.6154862,-72.6910398
611,4e Rue,G9T 4T6,46.6163165,-72.6901878
398,7e Avenue,G9T 2A6,46.6168527,-72.6906143
614,Avenue de Grand-Mère,G9T 2H5,46.6148258,-72.6920309
600,Avenue de Grand-Mère,G9T 2H5,46.6149511,-72.6918646
599,Avenue de Grand-Mère,G9T 2H4,46.6149511,-72.6915213
533,Avenue de Grand-Mère,G9T 2H4,46.6153214,-72.6910197
800,Avenue de Saint-Georges,G9T 3B8,46.6197990,-72.6667019
41,Avenue de Saint-Georges,G9T 3M9,46.6196826,-72.6661090
81,Avenue de Saint-Georges,G9T 3B9,46.6193167,-72.6637238
491,Avenue de Saint-Georges,G9T 0E5,46.6196345,-72.6619344
300,Avenue de Saint-Georges,G9T 3M7,46.6211457,-72.6566525
1,Chemin du Golf,G9T 5K8,46.6232263,-72.6877956
300,Avenue de Grand-Mère,G9T 2G9,46.6172872,-72.6883254
294,Avenue de Grand-Mère,G9T 2G7,46.6174051,-72.6881385
359,Avenue de Grand-Mère,G9T 2H1,46.6166327,-72.6890148
362,Avenue de Grand-Mère,G9T 2P8,46.6166390,-72.6892666
400,Avenue de Grand-Mère,G9T 2H2,46.6161084,-72.6900873
450,Avenue de Grand-Mère,G9T 2H2,46.6158136,-72.6905353
598,7e Avenue,G9T 2B2,46.6156960,-72.6924289
450,Avenue de Saint-Georges,G9T 7E8,46.6227813,-72.6543445
6900,Avenue Dorion,G9N 0B3,46.5779241,-72.7172444
1471,47e Rue,G9N 5B6,46.5682057,-72.7296678
1452,41e Rue,G9N 7Y9,46.5660881,-72.7326381
680,Rue du Parc-Industriel,G9N 6T5,46.5071108,-72.7146932
10022,Boulevard des Hêtres,G9N 4Y4,46.5972859,-72.7095737
10022,Boulevard des Hêtres,G9N 4Y4,46.5974240,-72.7096523
10133,Boulevard des Hêtres,G9N 4Y2,46.5977216,-72.7102664
900,105e Avenue,G9P 1L3,46.5254153,-72.7532268
4294,Boulevard de Shawinigan-Sud,G9P 4G2,46.5020034,-72.7267342
2200,105e Avenue,G9P 1P1,46.5197245,-72.7451446
1515,Rue Trudel,G9N 8K8,46.5555911,-72.7494678
1560,Rue Trudel,G9N 0A2,46.5566365,-72.7492110
1600,Rue Trudel,G9N 0A2,46.5572370,-72.7498845
1000,Côte de la Baie,G9N 4R5,46.5485775,-72.7595833
2699,5e Avenue,G9T 2P7,46.6013240,-72.7094873
1667,Avenue Champlain,G9N 2K8,46.5519220,-72.7459648
2253,Promenade René-Lévesque,G9N 6V1,46.5344526,-72.7653882
1792,Promenade René-Lévesque,G9N 6V1,46.5361758,-72.7625286
1880,Promenade René-Lévesque,G9N 8S1,46.5390860,-72.7636615
1882,Promenade René-Lévesque,G9N 8S1,46.5392780,-72.7639157
1602,Promenade René-Lévesque,G9N 8S1,46.5402945,-72.7635454
2152,Promenade René-Lévesque,G9N 6V1,46.5375669,-72.7649589
2152,promenade René-Lévesqie,G9N 6V1,46.5374005,-72.7666903
5441,Rang Saint-Mathieu,G0X 1L0,46.5692300,-72.6712994
5331,Rang Saint-Mathieu,G0X 1L0,46.5671526,-72.6741744
4675,Boulevard de Shawinigan-Sud,G9N 6T5,46.4955709,-72.7161469
5970,Boulevard Royal,G9N 4R8,46.5725144,-72.7205383
6183,Boulevard Royal,G9N 8P3,46.5746358,-72.7209009
1,Rue La Plaza-de-la-Mauricie,G9N 7C1,46.5627856,-72.7392040
1,Rue La Plaza-de-la-Mauricie,G9N 7C1,46.5629091,-72.7388958
1,Rue La Plaza-de-la-Mauricie,G9N 7C1,46.5628279,-72.7391244
1,Rue La Plaza-de-la-Mauricie,G9N 7C1,46.5628112,-72.7397166
1,Rue La Plaza-de-la-Mauricie,G9N 7C1,46.5626548,-72.7398773
1,Rue La Plaza-de-la-Mauricie,G9N 7C1,46.5629927,-72.7390437
1,Rue La Plaza-de-la-Mauricie,G9N 7C1,46.5630262,-72.7393463
1,Rue La Plaza-de-la-Mauricie,G9N 7C1,46.5632172,-72.7389968
1,Rue La Plaza-de-la-Mauricie,G9N 7C1,46.5621654,-72.7398521
1,Rue La Plaza-de-la-Mauricie,G9N 7C1,46.5631271,-72.7388414
1582,41e Rue,G9N 7Y9,46.5666472,-72.7334103
1562,41e Rue,G9N 7Y9,46.5664900,-72.7332051
1552,41e Rue,G9N 7Y9,46.5664052,-72.7330962
1473,Boulevard Royal,G9N 8N2,46.5653807,-72.7330818
1453,41e Rue,G9N 8N2,46.5655201,-72.7332471
1512,41e Rue,G9N 7Y9,46.5662182,-72.7328558
2771,105e Avenue,G1P 1P8,46.5172863,-72.7408661
521,Rue des Merisiers,G9R 1S3,46.6013840,-72.8217056
1600,Boulevard Royal,G9N 8S8,46.5531326,-72.7509164
3980,105e Avenue,G9P 4G1,46.5066647,-72.7317491
3980,105e Avenue,G9P 4G1,46.5064671,-72.7317001
4660,Boulevard de Shawinigan-Sud,G9N 6T5,46.4956015,-72.7179995
1550,118e Rue,G9P 3C8,46.5172532,-72.7546962
2263,avenue du Collège,G9N 6V8,46.5639875,-72.7527895
581,28eme,G9N 7N7,46.6000880,-72.7121684
1643,Rue D'Youville,G9N 8M8,46.5559135,-72.7521055
2100,Boulevard des Hetres,G9N 8R8,46.5593724,-72.7483839
1555,Rue Trudel,G9N 8K8,46.5551465,-72.7509685
540,207e Avenue,G9T 3M1,46.6242489,-72.6543467
2253,Promenade René-Lévesque,G9N 6V1,46.5337839,-72.7656717
1600,Boulevard Royal,G9N 8S8,46.5531305,-72.7504500
1500,Rue Trudel,G9N 8K8,46.5569285,-72.7468010
1650,Rue Trudel,G9N 0A2,46.5580140,-72.7484520
1755,Boulevard Royal,G9N 8T1,46.5551795,-72.7487650
1730,Boulevard Royal,G9N 8S8,46.5547230,-72.7480915
1515,Rue Trudel,G9N 8K8,46.5555940,-72.7494890
1645,Rue Trudel,G9N 8K8,46.5566792,-72.7510915
540,5e Avenue,G9P 1K5,46.5258666,-72.7566435
560,5e Avenue,G9P 1K5,46.5259932,-72.7564070
1,Rue Jacques-Plante,G9N 0B7,46.5477315,-72.7448720
1602,Promenade René-Lévesque,G9N 8S1,46.5406381,-72.7631244
1882,Promenade René-Lévesque,G9N 8S1,46.5394166,-72.7640021
1882,Promenade René-Lévesque,G9N 8S1,46.5403228,-72.7641303
1882,Promenade René-Lévesque,G9N 8S1,46.5399693,-72.7640847
1882,Promenade René-Lévesque,G9N 8S1,46.5400627,-72.7644069
1882,Promenade René-Lévesque,G9N 8S1,46.5398498,-72.7643548
1882,Promenade René-Lévesque,G9N 8S1,46.5397233,-72.7646347
1882,Promenade René-Lévesque,G9N 8S1,46.5395599,-72.7647290
760,Rue du Marie-Louise,G9P 0C1,46.5262995,-72.7589135
1755,Rue Trudel,G9N 8T1,46.5552543,-72.7489120
4170,Boulevard de Shawinigan-Sud,G9P 4G2,46.5037870,-72.7297845
4170,12e Avenue,G9P 4G2,46.5036285,-72.7292130
4230,Boulevard de Shawinigan-Sud,G9P 4G2,46.5030160,-72.7285680
4145,Boulevard de Shawinigan-Sud,G9P 4G3,46.5046806,-72.7292110
4055,Boulevard de Shawinigan-Sud,G9P 4G3,46.5051555,-72.7296660
4140,Boulevard de Shawinigan-Sud,G9P 4G2,46.5040930,-72.7302115
1529,5e Avenue,G9P 2Z2,46.5229780,-72.7492365
3201,Avenue de l'Aluminium,G9N 0E3,46.5614590,-72.7365885
1000,Avenue Melville,G9N 6T9,46.5368102,-72.7580841
705,Avenue du Capitaine-Veilleux,G9P 5J6,46.5293258,-72.7572107
1792,Promenade René-Lévesque,G9N 6V1,46.5358791,-72.7626461
2152,Promenade René-Lévesque,G9N 6V1,46.5361466,-72.7650528
2223,Rue Hanna,G9T 6S5,46.6224345,-72.7029519
1600,Rue Trudel,G9N 0A2,46.5572370,-72.7498845
1560,Rue Trudel,G9N 0A2,46.5566300,-72.7492150
1640,Rue Trudel,G9N 0A2,46.5576855,-72.7498685
1640,Rue Trudel,G9N 0A2,46.5578455,-72.7497820
1880,Promenade René-Lévesque,G9N 8S1,46.5391343,-72.7637303
1880,Promenade René-Lévesque,G9N 8S1,46.5392976,-72.7637118
2152,Promenade René-Lévesque,G9N 6V1,46.5377607,-72.7651477
2023,Avenue Champlain,G9N 2L3,46.5544240,-72.7436515
4300,4e rue,G9T 5K5,46.6358592,-72.7164904
550,Avenue 108 A,G9T 6E2,46.6239022,-72.6527195
643,Route de Lac-à-la-Tortue,G0X 1L0,46.6101490,-72.6319040
4900,Boulevard Royal,G9N 4R6,46.5682705,-72.7273785
4500,Boulevard de Shawinigan-Sud,G9N 6T5,46.4975150,-72.7210285
1055,129e Rue,G9P 4R2,46.5138461,-72.7425683
4290,Boulevard de Shawinigan-Sud,G9P 4G2,46.5027789,-72.7279088
4440,Boulevard de Shawinigan-Sud,G9N 6T5,46.4993590,-72.7231790
4290,Boulevard de Shawinigan-Sud,G9P 4G2,46.5021330,-72.7273690
4565,Avenue Georges-Bornais,G9P 6T5,46.5034795,-72.7120660
1200,Rang Saint-Michel,G9P 4G2,46.5008535,-72.7251617
400,Rue du Parc-Industriel,G9N 6T5,46.5050225,-72.7168810
412,Avenue Willow,G9N 1X2,46.5401880,-72.7533444
1640,Rue Trudel,G9N 0A2,46.5578607,-72.7501333
1863,Avenue Saint-Marc,G9N 2H8,46.5528715,-72.7440680
1413,Avenue Saint-Marc,G9N 2H4,46.5501280,-72.7470205
1000,Côte de la Baie,G9N 4R5,46.5486787,-72.7595739
2152,Promenade René-Lévesque,G9N 6V1,46.5374355,-72.7665191
1583,Avenue Saint-Marc,G9N 2H4,46.5508555,-72.7461975
695,Avenue de la Station,G9N1V9,46.5417775,-72.7522842
1483,Avenue Saint-Marc,G9N 2H4,46.5504789,-72.7465135
555,Avenue de la Station,G9N 1V9,46.5406765,-72.7527214
2152,Promenade René-Lévesque,G9N 6T9,46.5364320,-72.7631351
3000,Rue Burrill,G9N6T6,46.5578177,-72.7704572
4042,Rue Lejeune,G9N 8C6,46.5808340,-72.7541634
2581,7e Avenue,G9T 7N1,46.6033450,-72.7101285
386,Avenue de Grand-Mère,G9T 2P8,46.6165133,-72.6897440
9894,Boulevard de la Vallée-du-Parc,G9T 0N1,46.6126805,-72.7997925
461,Rue des Merisiers,G9R 1S3,46.6006360,-72.8228030
15,Avenue de Grand-Mère,G9T 2E9,46.6201237,-72.6815357
1792,Promenade René-Lévesque,G9N 6V1,46.5388561,-72.7623195
1100,Boulevard Saint-Sacrement,G9N 3M8,46.5594765,-72.7360197
4000,Boulevard de Shawinigan-Sud,G9P 4G2,46.5048795,-72.7313144
4175,Avenue Morand,G9P 5A1,46.5003006,-72.7326731
4470,Boulevard de Shawinigan-Sud,G9N 6T5,46.4987337,-72.7221008
852,Rue Notre-Dame,G9N 3R8,46.5575327,-72.7368192
100,9e rue de la Pointe,G9N 0E7,46.5442112,-72.7451762
2812,Rue Trudel,G9N 6T6,46.5641007,-72.7556880
4294,Boulevard de Shawinigan-Sud,G9P 4G2,46.5019595,-72.7267871
540,207e Avenue,G9T 3M1,46.6244188,-72.6541018
2152,promenade René-Lévesque,G9N 6V1,46.5364427,-72.7672799
651,Chemin des Bouleaux,G9R 1T1,46.6007532,-72.8287364
