House number,Street name,Postal code,Latitude,Longitude
286,Rue King Ouest,J1H 1R1,45.3995329,-71.8937694
720,Place de la Gare,J1H 0E9,45.3965071,-71.8983433
180,Rue Wellington Nord,J1H 5C5,45.4042462,-71.8919127
340,Rue Belvédère Sud,J1H 4B5,45.3954514,-71.8946271
1905,Rue Belvédère Sud,J1H 5S1,45.3765685,-71.8948154
1363,Rue Belvédère Sud,J1H 4E4,45.3854371,-71.8958599
350,Rue Belvédère Sud,J1H 4B5,45.3961159,-71.8956463
3070,Chemin Saint-Roch Sud,J1N 2T5,45.3461051,-71.9858434
171,Rue Léger,J1L 1M2,45.3915393,-71.9700289
181,Rue Léger,J1L 1M2,45.3934122,-71.9702583
300,Rue du Conseil,J1G 1J4,45.4032516,-71.8804511
951,Rue de la Princesse,J1H 3W5,45.3918179,-71.8996302
1073,Rue de la Princesse,J1H 3W5,45.3897789,-71.8995363
600,Rue Thibault,J1H 6G7,45.3751344,-71.8934559
514,Rue Galt Ouest,J1H 1Y7,45.3942798,-71.8933318
17,Rue Peel,J1H 4K1,45.4000167,-71.8937948
727,Rue O'Bready,J1L 2R7,45.4096274,-71.9477735
66,Rue Lévesque,J1E 1M3,45.4148456,-71.9009939
1671,Chemin Duplessis,J1H 0C2,45.4322812,-71.8505826
3270,Boulevard de Portland,J1L 2A6,45.4020968,-71.9569360
330,Rue King Ouest,J1H 1R3,45.3992824,-71.8945849
1310,Boulevard du Plateau Saint-Joseph,J1L 0A5,45.4192941,-71.9678416
1290,Boulevard du Plateau Saint-Joseph,J1N 3C6,45.4191153,-71.9674823
3950,Boulevard Josaphat-Rancourt,J1L 3C6,45.4160881,-71.9629200
3155,Boulevard de Portland,J1L 2Y7,45.4042649,-71.9544473
3050,Boulevard de Portland,J1L 1K1,45.4020782,-71.9486961
275,Rue Dufferin,J1H 4M5,45.4054649,-71.8948870
241,Rue Dufferin,J1H 4M5,45.4051289,-71.8945989
6095,Chemin de Saint-Élie,J1R 0P5,45.3946187,-72.0087773
1100,13E Avenue Nord,J1E 3J7,45.4229571,-71.8711023
900,13E Avenue Nord,J1G 3E5,45.4215676,-71.8710406
1055,12E Avenue Nord,J1E 2X4,45.4223547,-71.8745328
2,Rue Wellington Sud,J1H 5C7,45.4012548,-71.8900627
936,Rue du Conseil,J1G 1L7,45.4035531,-71.8687727
165,Rue Moore,J1H 1B8,45.4074311,-71.8969975
165,Rue Moore,J1H 1B8,45.4075007,-71.8970040
165,Rue Moore,J1H 1B8,45.4075940,-71.8970900
165,Rue Moore,J1H 1B8,45.4075757,-71.8970810
165,Rue Moore,J1H 1B8,45.4076156,-71.8970886
128,Rue Wellington Sud,J1H 5C7,45.3995425,-71.8889871
1,Rue Wellington Nord,J1H 5A9,45.4014607,-71.8905834
53,Rue Wellington Nord,J1H 5A9,45.4022896,-71.8910735
19,Rue Wellington Nord,J1H 5A9,45.4017507,-71.8907443
169,Rue King Ouest,J1H 1P4,45.4007556,-71.8918351
47,Rue King Ouest,J1H 1P1,45.4023044,-71.8888133
151,Rue King Ouest,J1H 5B7,45.4009145,-71.8916028
30,Rue King Ouest,J1H 1N8,45.4022818,-71.8878422
720,Place de la Gare,J1H 0E9,45.3966317,-71.8976579
720,Place de la Gare,J1H 0E9,45.3965940,-71.8978510
720,Place de la Gare,J1H 0E9,45.3965564,-71.8980707
1966,Rue du Montagnais,J1K 2X9,45.3833733,-71.9229603
2155,Rue Galt Ouest,J1K 1K3,45.3871757,-71.9259530
1986,Rue du Montagnais,J1K 2X9,45.3823703,-71.9235576
1990,Rue du Montagnais,J1K 2X9,45.3819333,-71.9235630
1960,Rue du Montagnais,J1K 2X9,45.3827773,-71.9225438
1976,Rue du Montagnais,J1K 2X9,45.3830372,-71.9235630
1980,Rue du Montagnais,J1K 2X9,45.3826265,-71.9235415
731,Rue Galt Ouest,J1H 1Z1,45.3945883,-71.8965593
1785,Rue King Ouest,J1J 2E1,45.3989386,-71.9183680
1811,Rue King Ouest,J1J 2E3,45.3989072,-71.9192535
1815,Rue King Ouest,J1J 2E3,45.3990990,-71.9192524
1177,Rue Galt Ouest,J1H 2A6,45.3895627,-71.9059966
1320,Rue Denault,J1H 2P7,45.3887645,-71.9086694
1301,Rue Denault,J1H 2P6,45.3890899,-71.9084828
1299,Rue Denault,J1H 2P6,45.3890899,-71.9083835
1331,Rue Denault,J1H 2P6,45.3890697,-71.9090021
1585,Rue Denault,J1H 2R1,45.3890323,-71.9144933
1581,Rue Denault,J1H 2R1,45.3890379,-71.9143243
1732,Rue Denault,J1K 1E8,45.3883970,-71.9174537
1013,Rue Galt Ouest,J1H 1Z9,45.3916615,-71.9029574
1009,Rue Galt Ouest,J1H 1Z9,45.3917555,-71.9028155
530,Rue Jean Paul Perrault,J1L 2Z2,45.4052118,-71.9577524
2910B,Boulevard de Portland,J1L 1R8,45.4027640,-71.9482007
896,Rue Galt Ouest,J1H 1Z5,45.3929218,-71.9000235
420,Rue Belvédère Sud,J1H 4B5,45.3954794,-71.8955341
340,Rue Belvédère Sud,J1H 4B5,45.3958634,-71.8955716
340,Rue Belvédère Sud,J1H 4B5,45.3956790,-71.8955555
3050,Boulevard de Portland,J1L 1K1,45.4020145,-71.9529119
338,Rue Belvédère Nord,J1H 4B1,45.4036609,-71.9011219
550,Rue de Montréal,J1H 1E8,45.4042307,-71.9007129
395,Rue de Montréal,J1H 1E4,45.4053971,-71.8991291
983,Rue Galt Ouest,J1H 1Z6,45.3922327,-71.9020540
988,Rue Galt Ouest,J1H 1Z8,45.3920236,-71.9019065
966,Rue Galt Ouest,J1H 1Z7,45.3923508,-71.9013602
946,Rue Galt Ouest,J1H 1Z7,45.3925869,-71.9009948
976,Rue Galt Ouest,J1H 1Z8,45.3921254,-71.9017726
1530,Rue Galt Ouest,J1H 2B5,45.3866854,-71.9129330
1391,Rue Galt Ouest,J1H 2A9,45.3870664,-71.9104645
1635,Rue Galt Ouest,J1H 2B3,45.3870082,-71.9151754
1184,Rue Claire-Jolicoeur,J1H 3B7,45.3884090,-71.9154114
340,Rue Belvédère Sud,J1H 4B5,45.3954705,-71.8949648
820,Rue Belvédère Sud,J1H 4B8,45.3942239,-71.8960458
740,Rue Galt Ouest,J1H 1Z3,45.3937990,-71.8971721
10,Rue Camirand,J1H 4J5,45.3991807,-71.8947032
260,Rue King Ouest,J1H 1R1,45.3997194,-71.8932602
1564,Rue Galt Ouest,J1H 3B5,45.3866791,-71.9136609
1550,Rue Galt Ouest,J1H 3C1,45.3866759,-71.9132834
178,Rue Wellington Nord,J1H 5C5,45.4042562,-71.8918588
66,Rue Albert,J1H 1M9,45.4026219,-71.8904555
202,Rue Wellington Nord,J1H 1J7,45.4045841,-71.8922498
36,Rue Wellington Nord,J1H 5B7,45.4021224,-71.8903930
51,Rue Wellington Nord,J1H 5A9,45.4022520,-71.8910145
60,Rue Wellington Nord,J1H 5B7,45.4024289,-71.8908312
62,Rue Wellington Nord,J1H 5B7,45.4024684,-71.8908499
1845,Rue King Ouest,J1J 2E4,45.3987479,-71.9197832
66,Boulevard Jacques-Cartier Nord,J1J 2Z8,45.3994984,-71.9182897
50,Boulevard Jacques-Cartier Nord,J1J 2Z8,45.3995041,-71.9177612
30,Boulevard Jacques-Cartier Nord,J1J 2Z2,45.3991672,-71.9176842
40,Boulevard Jacques-Cartier Nord,J1J 2Z8,45.3992207,-71.9176822
3550,Rue Galt Ouest,J1H 0A5,45.3751488,-71.9532382
4050,Boulevard Josaphat-Rancourt,J1L 3C6,45.4178772,-71.9639197
1355,Boulevard du Plateau Saint-Joseph,J1L 3C5,45.4207633,-71.9684822
429,Rue du Conseil,J1G 1J6,45.4036737,-71.8791402
450,Rue King Ouest,J1H 1R4,45.3985819,-71.8964945
185,Rue Belvédère Nord,J1H 4A7,45.4006272,-71.8988704
2320,Rue King Ouest,J1J 2E8,45.3980619,-71.9291465
94,Rue King Ouest,J1H 1P3,45.4013012,-71.8898207
7B,Rue Wellington Sud,J1H 5C8,45.4010488,-71.8903250
7,Rue Wellington Sud,J1H 5C8,45.4009848,-71.8902740
36,Rue Wellington Sud,J1H 5C7,45.4007728,-71.8897698
40,Rue Wellington Sud,J1H 5C7,45.4006852,-71.8897148
290,Rue Brooks,J1H 4X9,45.3969909,-71.8894548
20,Rue King Ouest,J1H 1N8,45.4025045,-71.8875527
18,Rue King Ouest,J1H 1N8,45.4025373,-71.8874950
25,Rue King Ouest,J1H 1N4,45.4026694,-71.8881543
35,Rue Wellington Sud,J1H 5C7,45.4006802,-71.8900645
256,Rue Marquette,J1H 1M1,45.4016217,-71.8945848
363,Rue Marquette,J1H 1M5,45.4008422,-71.8964373
95,Rue Wellington Sud,J1H 5C7,45.3997951,-71.8894927
100,Rue Wellington Sud,J1H 5C7,45.3997523,-71.8891259
112,Rue Wellington Sud,J1H 5C7,45.3997034,-71.8890978
134,Rue Wellington Sud,J1H 5C7,45.3993620,-71.8888544
154,Rue Wellington Sud,J1H 5C7,45.3989646,-71.8886197
150,Rue Wellington Sud,J1H 5C7,45.3991407,-71.8887076
2150,Rue Galt Ouest,J1K 1K2,45.3868405,-71.9260722
2128,Rue Galt Ouest,J1K 1K2,45.3868330,-71.9256994
2120,Rue Galt Ouest,J1K 1K2,45.3868368,-71.9254124
2106,Rue Galt Ouest,J1K 1K2,45.3868171,-71.9251998
2102,Rue Galt Ouest,J1K 1K2,45.3868254,-71.9251254
1972,Rue Galt Ouest,J1K 1H8,45.3866051,-71.9231245
2410,Rue Galt Ouest,J1K 1L2,45.3869403,-71.9323591
2402,Rue Galt Ouest,J1K 1L2,45.3869329,-71.9321633
819-820-1154,Rue Galt Ouest,J1K 1L2,45.3869310,-71.9319755
1239,Rue Denault,J1H 2P6,45.3890942,-71.9072318
1251,Rue Denault,J1H 2P6,45.3890825,-71.9074068
1191,Rue Galt Ouest,J1H 2A5,45.3893470,-71.9063646
270,Rue Dufferin,J1H 4M4,45.4056362,-71.8945974
276,Rue Dufferin,J1H 4M4,45.4057227,-71.8946993
297,Rue Dufferin,J1H 4M5,45.4057927,-71.8951232
295,Rue Dufferin,J1H 4M5,45.4057418,-71.8950723
295,Rue Dufferin,J1H 4M5,45.4057154,-71.8951203
295,Rue Dufferin,J1H 4M5,45.4056815,-71.8952008
295,Rue Dufferin,J1H 4M5,45.4056381,-71.8952919
275,Rue Dufferin,J1H 4M5,45.4054000,-71.8950019
107,Rue Frontenac,J1H 1J7,45.4046941,-71.8928486
113,Rue Frontenac,J1H 1J7,45.4046304,-71.8930840
133,Rue Frontenac,J1H 1J7,45.4045665,-71.8933394
139,Rue Frontenac,J1H 1J7,45.4045376,-71.8935270
121,Rue Frontenac,J1H 1J7,45.4046094,-71.8932100
127,Rue Frontenac,J1H 1J7,45.4045942,-71.8932650
135,Rue Frontenac,J1H 1J7,45.4045539,-71.8934213
143,Rue Frontenac,J1H 1J7,45.4045259,-71.8935801
205,Rue Dufferin,J1H 4M3,45.4043175,-71.8939215
961,Rue Galt Ouest,J1H 1Z6,45.3926131,-71.9014889
1067,Rue Galt Ouest,J1H 2A2,45.3910428,-71.9038298
1305,Rue Galt Ouest,J1H 2A8,45.3879374,-71.9089269
1444,Rue King Ouest,J1J 2C2,45.3984927,-71.9119391
1440,Rue King Ouest,J1J 2C2,45.3983444,-71.9117979
851,Rue du Conseil,J1G 1L4,45.4038469,-71.8703149
340,Rue Belvédère Sud,J1H 4B5,45.3956846,-71.8946807
340,Rue Belvédère Sud,J1H 4B5,45.3960707,-71.8947829
340,Rue Belvédère Sud,J1H 4B5,45.3960651,-71.8943776
340,Rue Belvédère Sud,J1H 4B5,45.3959746,-71.8940745
340,Rue Belvédère Sud,J1H 4B5,45.3957882,-71.8940665
340,Rue Belvédère Sud,J1H 4B5,45.3958466,-71.8951501
340,Rue Belvédère Sud,J1H 4B5,45.3958597,-71.8953593
340,Rue Belvédère Sud,J1H 4B5,45.3958279,-71.8946998
340,Rue Belvédère Sud,J1H 4B5,45.3956902,-71.8951930
340,Rue Belvédère Sud,J1H 4B5,45.3956790,-71.8943296
340,Rue Belvédère Sud,J1H 4B5,45.3959314,-71.8948044
340,Rue Belvédère Sud,J1H 4B5,45.3961085,-71.8951396
340,Rue Belvédère Sud,J1H 4B5,45.3958712,-71.8943994
243,Rue King Ouest,J1H 1P8,45.4001925,-71.8930823
231,Rue King Ouest,J1H 1P8,45.4003657,-71.8926236
90,Rue Camirand,J1H 4J5,45.3983870,-71.8941406
402,Rue Alexandre,J1H 4T3,45.3949520,-71.8905794
378,Rue Alexandre,J1H 4T2,45.3953137,-71.8908664
440,Rue Alexandre,J1H 4T4,45.3945581,-71.8903197
255,Rue Galt Ouest,J1H 1Y1,45.3941813,-71.8888712
115,Rue Galt Ouest,J1H 1X8,45.3939815,-71.8863071
400,Rue Galt Ouest,J1H 1Y6,45.3941229,-71.8918216
426,Rue du Conseil,J1G 1J7,45.4033846,-71.8791214
1000,Rue Léon-Trépanier,J1G 0C4,45.3937567,-71.8611222
895,Rue Cabana,J1K 3C3,45.3917308,-71.9286548
36,Rue Wellington Nord,J1H 5B7,45.4021018,-71.8904519
98,Rue Wellington Nord,J1H 5B8,45.4029775,-71.8911091
90,Rue Wellington Nord,J1H 5B8,45.4028607,-71.8910474
82,Rue Wellington Nord,J1H 5B8,45.4027948,-71.8909798
72,Rue Victoria,J1H 3H7,45.3999280,-71.9058446
3000,Boulevard de Portland,J1L 1R8,45.4013219,-71.9499670
3050,Boulevard de Portland,J1L 1K1,45.4018322,-71.9531870
2900,Boulevard de Portland,J1H 1Z2,45.4032398,-71.9479874
3050,Boulevard de Portland,J1L 1K1,45.4016735,-71.9531207
167,Rue King Ouest,J1H 1P4,45.4007840,-71.8917763
185,Rue King Ouest,J1H 1P4,45.4006431,-71.8920430
193,Rue King Ouest,J1H 1P4,45.4005919,-71.8921518
191,Rue King Ouest,J1H 1P4,45.4006087,-71.8921035
197,Rue King Ouest,J1H 1P4,45.4005673,-71.8922189
111,Rue Wellington Nord,J1H 0A2,45.4031239,-71.8915831
297,Rue Alexandre,J1H 4S8,45.3962599,-71.8918329
339,Rue Alexandre,J1H 4S9,45.3955338,-71.8913439
292,Rue Alexandre,J1H 4S7,45.3960734,-71.8913365
260,Rue Alexandre,J1H 4S7,45.3967250,-71.8918086
242,Rue Alexandre,J1H 4S7,45.3968137,-71.8918810
230,Rue Alexandre,J1H 4S7,45.3969492,-71.8919722
218,Rue Alexandre,J1H 4S7,45.3970826,-71.8920557
380,Rue Dufferin,J1H 4M7,45.4068501,-71.8956634
200,Rue de Montréal,J1H 1E3,45.4063661,-71.8959772
843,Rue King Ouest,J1H 1R9,45.3988028,-71.9007939
15,Rue Belvédère Nord,J1H 6E9,45.3988031,-71.8973264
455,Rue King Ouest,J1H 6E9,45.3991232,-71.8967202
100,Rue Belvédère Sud,J1H 4B5,45.3973397,-71.8957949
195,Rue Marquette,J1H 1L6,45.4026560,-71.8941664
35,Rue Belvédère Nord,J1H 4A7,45.3990926,-71.8976089
288,Rue Marquette,J1H 1M3,45.4012859,-71.8951531
280,Rue Marquette,J1H 1M3,45.4014008,-71.8949225
91,Rue Peel,J1H 4J9,45.4009582,-71.8946006
91,Rue Peel,J1H 4J9,45.4008810,-71.8946813
91,Rue Peel,J1H 4J9,45.4009902,-71.8947535
319,Rue Marquette,J1H 1M2,45.4011804,-71.8958854
317,Rue Marquette,J1H 1M2,45.4012426,-71.8957707
315,Rue Marquette,J1H 1M2,45.4012897,-71.8956976
311,Rue Marquette,J1H 1M2,45.4014667,-71.8958213
202,Rue Wellington Nord,J1H 1J7,45.4045236,-71.8921688
164,Rue Wellington Nord,J1H 5C5,45.4040001,-71.8917528
154,Rue Wellington Nord,J1H 5C5,45.4038796,-71.8917367
150,Rue Wellington Nord,J1H 5C5,45.4038005,-71.8916804
146,Rue Wellington Nord,J1H 5C5,45.4037534,-71.8916377
142,Rue Wellington Nord,J1H 5C5,45.4036704,-71.8915811
134,Rue Wellington Nord,J1H 5C5,45.4035707,-71.8915167
138,Rue Wellington Nord,J1H 5C5,45.4036423,-71.8914792
124,Rue Wellington Nord,J1H 0A2,45.4034520,-71.8914041
108,Rue Wellington Nord,J1H 5B8,45.4031716,-71.8912273
124,Rue Wellington Nord,J1H 5X8,45.4034089,-71.8913990
86,Rue Wellington Nord,J1H 5B8,45.4028456,-71.8909615
86,Rue Wellington Nord,J1H 5B8,45.4028644,-71.8908945
86,Rue Wellington Nord,J1H 1C7,45.4028307,-71.8910262
76,Rue Wellington Nord,J1H 5B8,45.4027214,-71.8909537
48,Rue Wellington Nord,J1H 5B7,45.4023316,-71.8906936
42,Rue Wellington Nord,J1H 5B7,45.4022451,-71.8906172
34,Rue Wellington Nord,J1H 5B7,45.4021264,-71.8905675
36,Rue Wellington Nord,J1H 5B7,45.4020811,-71.8905163
36,Rue Wellington Nord,J1H 5B7,45.4024673,-71.8907499
66,Rue Albert,J1H 1M9,45.4025708,-71.8904361
36,Rue Wellington Nord,J1H 5B7,45.4021471,-71.8903315
22,Rue Wellington Nord,J1H 5B7,45.4018740,-71.8904307
20,Rue Wellington Nord,J1H 5B7,45.4017892,-71.8903717
3,Rue Wellington Nord,J1H 5A9,45.4015024,-71.8906096
9,Rue Wellington Nord,J1H 5A9,45.4015739,-71.8906337
6,Rue Wellington Sud,J1H 5C7,45.4011672,-71.8900064
11,Rue Wellington Nord,J1H 5A9,45.4016739,-71.8906983
25,Rue Wellington Nord,J1H 5A9,45.4018470,-71.8907893
37,Rue Wellington Nord,J1H 5A9,45.4019893,-71.8908860
39,Rue Wellington Nord,J1H 5A9,45.4020506,-71.8908968
40,Rue Wellington Nord,J1H 5B7,45.4022115,-71.8905988
61,Rue Wellington Nord,J1H 5A9,45.4023858,-71.8911060
69,Rue Wellington Nord,J1H 5A9,45.4025062,-71.8912050
67,Rue Wellington Nord,J1H 5A9,45.4024572,-71.8911809
81,Rue Wellington Nord,J1H 5A9,45.4027266,-71.8913259
87,Rue Wellington Nord,J1H 5A9,45.4027813,-71.8913501
93,Rue Wellington Nord,J1H 5B6,45.4028848,-71.8914493
27,Rue Wellington Nord,J1H 5B1,45.4019130,-71.8908244
1682,Rue King Ouest,J1J 2C9,45.3984600,-71.9166970
116,Rue Queen,J1M 1J6,45.3674166,-71.8563072
325,Boulevard Jacques-Cartier Sud,J1J 2B9,45.3941818,-71.9191539
1688,rue Denault,J1K 1E6,45.3884161,-71.9164460
3001,12e Avenue Nord,J1H 5N4,45.4473383,-71.8682224
624,Rue Bowen Sud,J1G 2E9,45.3968167,-71.8783501
4210,Boulevard Bourque,J1L 1W6,45.3849619,-71.9632528
2445,Rue King Ouest,J1J 2G7,45.3985454,-71.9325228
2881,Rue College,J1M 2C2,45.3665884,-71.8547006
51-100,Rue Wellington Nord,J1H 5A9,45.4021825,-71.8910095
2935,Boulevard de Portland,J1L 2Y7,45.4045427,-71.9482319
321,Rue Marquette,J1H 1M2,45.4011441,-71.8959259
975,Rue de Lisieux,J1K 2A5,45.3899587,-71.9446000
973,Rue de Lisieux,J1K 2A5,45.3899587,-71.9445330
50,Rue Radisson,J1L 1E3,45.3954221,-71.9506726
895,Rue Bowen Sud,J1G 2G3,45.3935724,-71.8767086
1150,Rue Galt Est,J1G 1Y5,45.3963855,-71.8631691
2796,Rue Prospect,J1L 3A9,45.4104940,-71.9427311
133,Rue Laval,J0B 1H0,45.4729075,-71.9452119
735,Rue Paul-Desruisseaux,J1J 4L9,45.4093405,-71.9318930
505,Rue Northrop-Frye,J1L 2Y3,45.4052078,-71.9559978
525,Rue Northrop-Frye,J1L 2Y3,45.4052215,-71.9564465
89,Rue Queen,J1M 1J5,45.3654170,-71.8568451
93,Rue Queen,J1M 1J5,45.3658071,-71.8567811
83,Rue Queen,J1M 1J3,45.3645128,-71.8567460
107,Rue Queen,J1M 1J7,45.3665785,-71.8567500
131,Rue Queen,J1M 1J7,45.3671918,-71.8567837
156,Rue Queen,J1M 1J9,45.3684141,-71.8564671
20,Rue Don-Bosco Sud,J1L 1W4,45.3955896,-71.9465178
2239,Rue King Ouest,J1J 2G2,45.3998939,-71.9279983
1072,Rue Worthington,J1H 3V3,45.3901806,-71.9001858
36,Rue du Curé-LaRocque,J1C 1A0,45.4749090,-71.9437792
661,Rue King Est,J1G 1C1,45.4082701,-71.8741973
2965,Boulevard de l'Université,J1K 2X6,45.3814352,-71.9458651
330,Rue des Érables,J1L 2A9,45.4030182,-71.9466262
8580,Chemin de Saint-Élie,J1R 0A4,45.3828961,-72.0796819
1812,Rue King Ouest,J1J 0A2,45.3981602,-71.9193689
151,Rue Saint-Lambert,J0B 1H0,45.4733315,-71.9378177
245,Rue Laval,J1C 0R1,45.4701929,-71.9479135
395,Rue Laval,J1C 0R1,45.4687825,-71.9521444
210,Ch de Windsor,J0B 1H0,45.4818352,-71.9469806
1378,Rue King Ouest,J1J 2B6,45.3985583,-71.9103320
4500,Boulevard Bourque,J1N 1S2,45.3762805,-71.9780973
1261,rue King Est,J1G 1E7,45.4093122,-71.8601775
2500,boulevard de l'Université,J1K 2R1,45.3803645,-71.9284466
33,Rue Heneker,J1J 3G2,45.3993518,-71.9150113
60,Rue du Dépôt,J1H 1P3,45.4015538,-71.8893200
4083,Rue d'Auvergne,J1C 0C8,45.4538798,-71.9264064
35,Rue J.-A.-Bombardier,J1L 0H8,45.3912631,-71.9553887
1169,12E Avenue Nord,J1E 2X4,45.4237466,-71.8736747
1135,13E Avenue Nord,J1E 3P1,45.4237495,-71.8740831
95,Boulevard Jacques-Cartier Sud,J1J 2Z3,45.3972559,-71.9192175
137,Rue Frontenac,J1H 1J7,45.4045453,-71.8934793
4823,Rue Bertrand-Fabi,J1N 2B3,45.3579045,-71.9793477
4825,Rue Bertrand-Fabi,J1N 2B3,45.3712924,-71.9653906
4781,Rue Bertrand-Fabi,J1N 2B3,45.3681075,-71.9679241
4824,Rue Bertrand-Fabi,J1N 2B3,45.3575937,-71.9789986
6145,Rue Bertrand-Fabi,J1N 2P3,45.3535964,-71.9896328
6507,Rue Bertrand-Fabi,J1N 2P1,45.3494478,-71.9974332
6176,Rue Bertrand-Fabi,J1N 2P3,45.3533548,-71.9897711
6106,Rue du Curé,J1N 2P3,45.3546207,-71.9874939
54,Boulevard Jacques-Cartier Nord,J1J 2Z8,45.3994913,-71.9179850
42,Boulevard Jacques-Cartier Nord,J1J 2Z8,45.3993111,-71.9176718
2005,Rue King Ouest,J1J 2E6,45.3987216,-71.9224201
1975,Rue King Ouest,J1J 2E6,45.3987522,-71.9221060
1979,Rue King Ouest,J1J 2E6,45.3987433,-71.9222369
2102,Rue King Ouest,J1J 2E8,45.3978753,-71.9245546
2154,Rue King Ouest,J1J 2E8,45.3975332,-71.9257458
2172,Rue King Ouest,J1J 2E8,45.3974240,-71.9257540
1428,Rue King Ouest,J1J 2C2,45.3985839,-71.9115062
1430,Rue King Ouest,J1J 2C2,45.3985836,-71.9115530
1434,Rue King Ouest,J1J 2C2,45.3985820,-71.9116497
2347,Rue King Ouest,J1J 2G2,45.3999806,-71.9299019
2343,Rue King Ouest,J1J 2G2,45.4000551,-71.9299087
2339,Rue King Ouest,J1J 2G2,45.4001183,-71.9299168
2313,Rue King Ouest,J1J 2G2,45.4002212,-71.9300737
2309,Rue King Ouest,J1J 2G2,45.4001978,-71.9299137
2305,Rue King Ouest,J1J 2G2,45.4002623,-71.9299174
2293,Rue King Ouest,J1J 2G2,45.4003233,-71.9295658
2291,Rue King Ouest,J1J 2G2,45.4003735,-71.9293094
2289,Rue King Ouest,J1J 2G2,45.4003711,-71.9292215
2287,Rue King Ouest,J1J 2G2,45.4003719,-71.9291361
2275,Rue King Ouest,J1J 2G2,45.4003740,-71.9289579
2273,Rue King Ouest,J1J 2G2,45.4003735,-71.9288135
2269,Rue King Ouest,J1J 2G2,45.4003450,-71.9286891
2267,Rue King Ouest,J1J 2G2,45.4003169,-71.9286232
2261,Rue King Ouest,J1J 2G2,45.4002586,-71.9284666
2253,Rue King Ouest,J1J 2G2,45.4000980,-71.9281600
2243,Rue King Ouest,J1J 2G2,45.3999441,-71.9280465
2235,Rue King Ouest,J1J 2G2,45.3998555,-71.9279534
2235,Rue King Ouest,J1J 2G2,45.3997682,-71.9278675
2227,Rue King Ouest,J1J 2G2,45.3997235,-71.9278659
2227,Rue King Ouest,J1J 2G2,45.3996331,-71.9278591
2223,Rue King Ouest,J1J 2S4,45.3995041,-71.9278907
2225,Rue King Ouest,J1J 2G2,45.3995669,-71.9278948
2259,Rue King Ouest,J1J 2G2,45.4002084,-71.9283372
2300,Rue King Ouest,J1J 2E8,45.3981454,-71.9287211
2304,Rue King Ouest,J1J 2E8,45.3980514,-71.9288403
2310,Rue King Ouest,J1J 2E8,45.3980558,-71.9289993
27,Rue Cate,J1J 2N9,45.3988758,-71.9317639
23,Rue Cate,J1J 2N9,45.3987634,-71.9317551
2437,Rue King Ouest,J1J 2G7,45.3985490,-71.9324000
2171,Rue King Ouest,J1J 2G1,45.3983314,-71.9258929
2171,Rue King Ouest,J1J 2G1,45.3984804,-71.9259029
2171,Rue King Ouest,J1J 2G1,45.3984240,-71.9258084
2185,Rue King Ouest,J1J 2G2,45.3986136,-71.9266754
2185,Rue King Ouest,J1J 2G2,45.3985419,-71.9265339
1680,Rue King Ouest,J1J 2C9,45.3984581,-71.9166333
1576,Rue King Ouest,J1J 2C3,45.3984863,-71.9145509
1578,Rue King Ouest,J1J 2C3,45.3984715,-71.9149322
1578,Rue King Ouest,J1J 2C3,45.3984781,-71.9148165
1576,Rue King Ouest,J1J 2C3,45.3984814,-71.9147024
75,Rue Chartier,J1J 3A9,45.4000455,-71.9175708
1633,Rue Marcil,J1J 2H6,45.3980236,-71.9155911
1575,Rue Marcil,J1J 2H6,45.3979021,-71.9144708
1335,Rue King Ouest,J1J 2B8,45.3988696,-71.9095077
1360,Rue King Ouest,J1J 2B6,45.3985907,-71.9098792
1358,Rue King Ouest,J1J 2B6,45.3985967,-71.9097990
1303,Rue King Ouest,J1J 2B6,45.3988628,-71.9088894
1273,Rue King Ouest,J1J 2B7,45.3988522,-71.9086051
1308,Rue King Ouest,J1J 2B6,45.3985330,-71.9090931
1304,Rue King Ouest,J1J 2B6,45.3986133,-71.9087808
1246,Rue King Ouest,J1J 2B6,45.3986360,-71.9080056
1244,Rue King Ouest,J1J 2B6,45.3986391,-71.9079440
1242,Rue King Ouest,J1J 2B6,45.3986244,-71.9079107
1234,Rue King Ouest,J1H 2S2,45.3986455,-71.9077671
1609,Rue King Ouest,J1J 2C7,45.3987862,-71.9150854
11,Rue Heneker,J1J 2G2,45.3989368,-71.9149603
1214,Rue King Ouest,J1H 1S2,45.3986147,-71.9074853
1208,Rue King Ouest,J1H 1S2,45.3986183,-71.9073925
1204,Rue King Ouest,J1H 1S2,45.3986218,-71.9073123
1191,Rue King Ouest,J1H 1S6,45.3989197,-71.9071817
1221,Rue King Ouest,J1H 1S6,45.3988944,-71.9075911
1594,Rue Durham,J1J 1L9,45.4077235,-71.9147405
1124,Rue Prospect,J1H 1B4,45.4090880,-71.9057036
674,Rue Victoria,J1H 3J5,45.4088173,-71.9057010
682,Rue Victoria,J1H 3J5,45.4089205,-71.9056989
1120,Rue Prospect,J1H 1B4,45.4090530,-71.9055842
105,Rue Lomas,J1J 2R1,45.3998825,-71.9305479
65,Rue Lomas,J1J 2R1,45.3995103,-71.9304757
48,Rue Lomas,J1J 2P9,45.3992278,-71.9300676
2500,Rue King Ouest,J1J 2E8,45.3980495,-71.9332840
2510,Rue King Ouest,J1J 2E8,45.3980426,-71.9334799
2520,Rue King Ouest,J1J 2E8,45.3980423,-71.9336096
2524,Rue King Ouest,J1J 2E8,45.3980431,-71.9338481
2530,Rue King Ouest,J1J 2E8,45.3980412,-71.9339489
21,Rue Morris,J1J 2L8,45.3987261,-71.9339863
21,Rue Morris,J1J 2L8,45.3987991,-71.9339935
33,Rue Morris,J1J 2L8,45.3989951,-71.9340187
201,Rue Morris,J1J 2M4,45.4017399,-71.9341379
1176,Rue Prospect,J1H 1B6,45.4090847,-71.9066600
20,Rue Chartier,J1J 3V5,45.3990732,-71.9167992
1603,Rue King Ouest,J1J 2C7,45.3987478,-71.9149732
1605,Rue King Ouest,J1J 2C7,45.3987457,-71.9150440
80,Rue de Vimy,J1J 3M4,45.4000306,-71.9104277
2050,Rue King Ouest,J1J 2E8,45.3979923,-71.9237584
2202,Rue King Ouest,J1J 2E8,45.3980151,-71.9270478
2202,Rue King Ouest,J1J 2E8,45.3979941,-71.9270455
2228,Rue King Ouest,J1J 2E8,45.3978611,-71.9272761
2224,Rue King Ouest,J1J 2E8,45.3979103,-71.9273484
175,Rue des Quatre-Pins,J1J 2L5,45.3962289,-71.9341317
80,Rue des Quatre-Pins,J1J 4A1,45.3974690,-71.9339376
70,Rue des Quatre-Pins,J1J 4A1,45.3976858,-71.9340009
2580,Rue King Ouest,J1J 2H1,45.3980549,-71.9359791
2584,Rue King Ouest,J1J 2H1,45.3980482,-71.9360801
2628,Rue King Ouest,J1J 2H1,45.3980204,-71.9369988
2650,Rue King Ouest,J1J 2H1,45.3977712,-71.9374761
260,Rue King Ouest,J1L 1C7,45.3978377,-71.9385028
2678,Rue King Ouest,J1L 1C5,45.3978348,-71.9383925
2665,Rue King Ouest,J1L 2G5,45.3996211,-71.9380497
2665,Rue King Ouest,J1L 2G4,45.3993943,-71.9380593
2665,Rue King Ouest,J1L 2G4,45.3991902,-71.9380769
2655,Rue King Ouest,J1L 2G4,45.3990490,-71.9380461
2655,Rue King Ouest,J1L 2G4,45.3989407,-71.9380417
2655,Rue King Ouest,J1L 2G4,45.3988624,-71.9380535
2655,Rue King Ouest,J1L 2H5,45.3988006,-71.9380505
2655,Rue King Ouest,J1L 2G4,45.3987201,-71.9380402
2445,Boulevard de Portland,J1J 1V4,45.4041164,-71.9326898
360,Rue Meilleur,J1J 2P5,45.4040709,-71.9315599
33,Rue Richmond,J1H 3V7,45.3991401,-71.9003691
811,Rue King Ouest,J1H 1R9,45.3987187,-71.9003645
819,Rue King Ouest,J1H 1R9,45.3987339,-71.9005899
815,Rue King Ouest,J1H 1R9,45.3987345,-71.9004923
841,Rue King Ouest,J1H 1R9,45.3987843,-71.9007625
869,Rue King Ouest,J1H 1R9,45.3988483,-71.9010366
840,Rue King Ouest,J1H 1S2,45.3984151,-71.9007656
840,Rue King Ouest,J1H 1S1,45.3984544,-71.9008078
856,Rue King Ouest,J1H 1S1,45.3984160,-71.9010315
871,Rue King Ouest,J1H 1R9,45.3988397,-71.9011298
868,Rue King Ouest,J1H 1S1,45.3984173,-71.9012123
885,Rue King Ouest,J1H 1R9,45.3988302,-71.9015027
893,Rue King Ouest,J1H 1R9,45.3988392,-71.9015820
9,Rue de la Glacière,J1H 3P2,45.3983831,-71.9018610
900,Rue King Ouest,J1H 1S2,45.3985663,-71.9018822
900,Rue King Ouest,J1H 1S2,45.3985441,-71.9019465
906,Rue King Ouest,J1H 1S2,45.3985311,-71.9020380
906,Rue King Ouest,J1H 1S2,45.3985665,-71.9020387
910,Rue King Ouest,J1H 1S2,45.3985670,-71.9021589
905,Rue King Ouest,J1H 1S3,45.3988840,-71.9020209
928,Rue King Ouest,J1H 1S2,45.3985681,-71.9025392
952,Rue King Ouest,J1H 1S2,45.3985990,-71.9028476
950,Rue King Ouest,J1H 1S2,45.3985990,-71.9027389
952,Rue King Ouest,J1H 1S2,45.3986015,-71.9027845
997,Rue King Ouest,J1H 1S3,45.3989692,-71.9032671
5,Rue de London,J1H 3M4,45.3990934,-71.9035911
1007,Rue King Ouest,J1H 1S4,45.3990225,-71.9037355
1019,Rue King Ouest,J1H 1S4,45.3990298,-71.9038383
1023,Rue King Ouest,J1H 1S4,45.3990337,-71.9039460
1081,Rue King Ouest,J1H 1S5,45.3990138,-71.9050302
1080,Rue King Ouest,J1H 1S2,45.3987623,-71.9049979
10,Rue de l'Ontario,J1J 3P7,45.3991216,-71.9076789
25,Rue de l'Ontario,J1J 3P8,45.3993942,-71.9080952
419,Rue Moore,J1H 1C1,45.4059141,-71.9001048
35,Boulevard Queen-Victoria,J1H 3P4,45.3993364,-71.9019944
37,Boulevard Queen-Victoria,J1H 3P4,45.3994650,-71.9020133
847,Rue King Ouest,J1H 1R9,45.3991118,-71.9008564
40,Rue de la Glacière,J1H 3P2,45.3980351,-71.9013539
42,Rue de la Glacière,J1H 3P3,45.3979931,-71.9013488
1086,Rue King Ouest,J1H 1S2,45.3987602,-71.9051606
981,Rue King Ouest,J1J 1S3,45.3989984,-71.9029751
1999,Rue Prospect,J1J 4C9,45.4091482,-71.9231808
2020,Rue Prospect,J1J 1K7,45.4083906,-71.9238002
2010,Rue Prospect,J1J 1K7,45.4086369,-71.9243403
1996,Rue Prospect,J1J 1K7,45.4085866,-71.9234772
2000,Rue Prospect,J1J 1K7,45.4086320,-71.9238052
2016,Rue Prospect,J1J 1K7,45.4084670,-71.9237983
2170,Rue Prospect,J1J 4G2,45.4087807,-71.9259290
739,Rue Paul-Desruisseaux,J1J 4G3,45.4094241,-71.9318732
743,Rue Paul-Desruisseaux,J1J 4L9,45.4095231,-71.9318016
755,Rue Paul-Desruisseaux,J1J 4L9,45.4096253,-71.9317331
759,Rue Paul-Desruisseaux,J1J 4L9,45.4097007,-71.9316688
763,Rue Paul-Desruisseaux,J1J 4L9,45.4097406,-71.9316371
767,Rue Paul-Desruisseaux,J1J 4L9,45.4097700,-71.9315400
775,Rue Paul-Desruisseaux,J1J 4L9,45.4097900,-71.9314764
779,Rue Paul-Desruisseaux,J1J 4L9,45.4098205,-71.9314373
1250,Rue Malouin,J1J 3C2,45.4169999,-71.9164758
1657,Rue Beckett,J1J 1C7,45.4166169,-71.9158826
96,Rue Farwell,J1J 2S4,45.3999184,-71.9262559
216,Rue Lomas,J1J 2R3,45.4023616,-71.9289506
657,Rue Guyart,J1J 2W5,45.4076670,-71.9219230
312,Rue de Candiac,J1L 1G8,45.4034109,-71.9394524
30,Rue Wood,J1J 2X3,45.3991865,-71.9204448
31,Rue Wood,J1J 2X3,45.3991051,-71.9208821
1800,Rue King Ouest,J1J 0A2,45.3982632,-71.9193773
1018,Rue King Ouest,J1J 2E2,45.3980969,-71.9193744
1836,Rue King Ouest,J1J 2E2,45.3978739,-71.9190564
1830,Rue King Ouest,J1J 0A2,45.3978697,-71.9192469
1824,Rue King Ouest,J1J 2E2,45.3979146,-71.9193597
157,Boulevard Jacques-Cartier Sud,J1J 2Z4,45.3961464,-71.9190021
155,Boulevard Jacques-Cartier Sud,J1J 2Z4,45.3962161,-71.9190048
1900,Rue King Ouest,J1J 2E2,45.3982650,-71.9206376
1910,Rue King Ouest,J1J 2E2,45.3979766,-71.9205765
1831,Rue Tracy,J1J 2J9,45.3948742,-71.9199702
1331,Rue Desgagné,J1J 1H5,45.4127962,-71.9089616
322,Boulevard Queen-Victoria,J1H 3R2,45.4032305,-71.9014256
300,Rue Belvédère Nord,J1H 3B1,45.4036557,-71.9007920
300,Rue Belvédère Nord,J1H 4H5,45.4033775,-71.9007453
3025,Rue King Ouest,J1L 1B6,45.3961044,-71.9470145
3025,Rue King Ouest,J1L 2B5,45.3961854,-71.9470900
3025,Rue King Ouest,J1L 2B5,45.3963988,-71.9473558
3025,Rue King Ouest,J1L 2B5,45.3964764,-71.9473743
3025,Rue King Ouest,J1L 2B5,45.3965427,-71.9470984
3025,Rue King Ouest,J1L 2B5,45.3965783,-71.9470096
3025,Rue King Ouest,J1L 2B5,45.3966256,-71.9469199
3015,Rue King Ouest,J1L 2B5,45.3966565,-71.9468518
3025,Rue King Ouest,J1L 2B5,45.3966945,-71.9467714
3025,Rue King Ouest,J1L 2B5,45.3967272,-71.9466836
3025,Rue King Ouest,J1L 2B5,45.3967402,-71.9466255
3025,Rue King Ouest,J1L 1C7,45.3968231,-71.9464257
3025,Rue King Ouest,J1L 2B5,45.3967147,-71.9463634
3025,Rue King Ouest,J1L 2B5,45.3965097,-71.9462142
2939,Rue King Ouest,J1L 1C7,45.3969430,-71.9447270
2939,Rue King Ouest,J1L 1C7,45.3970377,-71.9447972
21,Rue du Bocage,J1L 2J4,45.3976051,-71.9440359
2853,Rue King Ouest,J1L 1C6,45.3977952,-71.9430289
2857,Rue King Ouest,J1L 1C6,45.3976774,-71.9430308
2855,Rue King Ouest,J1L 1C6,45.3976016,-71.9428766
2841,Rue King Ouest,J1L 1C6,45.3979061,-71.9424129
2835,Rue King Ouest,J1L 1C6,45.3979557,-71.9422520
2829,Rue King Ouest,J1L 1C6,45.3980954,-71.9425276
2815,Rue King Ouest,J1L 1C1,45.3981813,-71.9417893
2819,Rue King Ouest,J1L 1C1,45.3982868,-71.9419521
2759,Rue King Ouest,J1L 1C1,45.3986767,-71.9402081
2755,Rue King Ouest,J1L 1C1,45.3985944,-71.9401390
2749,Rue King Ouest,J1L 1C1,45.3984839,-71.9401005
2745,Rue King Ouest,J1L 1C1,45.3982947,-71.9400888
2700,Rue King Ouest,J1L 1C5,45.3977965,-71.9394817
50,Rue de la Burlington,J1L 1H1,45.3974231,-71.9396261
60,Rue de la Burlington,J1L 1H1,45.3972289,-71.9395740
185,Rue de la Burlington,J1L 1G9,45.3953972,-71.9403343
2565,Rue Hertel,J1J 2J4,45.3960909,-71.9350966
95,Boulevard Jacques-Cartier Sud,J1J 2Z3,45.3972600,-71.9192979
95,Boulevard Jacques-Cartier Sud,J1J 2Z3,45.3971930,-71.9192131
1802,Boulevard Jacques-Cartier Sud,J1J 0A2,45.3980099,-71.9192268
1802,Boulevard Jacques-Cartier Sud,J1J 0A2,45.3980136,-71.9191532
1802,Rue King Ouest,J1J 0A2,45.3980873,-71.9191480
1371,Rue Desgagné,J1J 1H5,45.4128142,-71.9096993
409,Rue de Montréal,J1H 1E4,45.4053106,-71.8992686
300,Rue Belvédère Nord,J1H 4B1,45.4034915,-71.9007497
300,Rue Belvédère Nord,J1H 4B1,45.4035403,-71.9007984
300,Rue Belvédère Nord,J1H 4B1,45.4034466,-71.9007185
797,Rue du Général-De Montcalm,J1H 1J2,45.4023289,-71.9003348
2785,Rue Hertel,J1L 1Y3,45.3952472,-71.9405539
2180,Boulevard de Portland,J1J 1V1,45.4035465,-71.9267608
537,Rue Bouchette,J1J 2T2,45.4066587,-71.9256528
2050,Boulevard de Portland,J1J 1T9,45.4030918,-71.9248427
165,Rue Lomas,J1J 2R2,45.4013628,-71.9306637
1091,Rue de Kingston,J1H 3S3,45.3899326,-71.9016834
3050,de Portland Boulevard,J1L 1K1,45.4018149,-71.9537406
1412,Rue Saint-Louis,J1H 4P4,45.3849692,-71.8908128
3800,Boulevard de Monseigneur-Fortier,J1L 0J6,45.4234933,-71.9631904
1059,Rue de Lisieux,J1K 2A5,45.3888111,-71.9445141
146,Wellington Sud,J1H 5C7,45.3992594,-71.8887739
1112,Rue King Ouest,J1H 1S2,45.3987202,-71.9055511
1705,Rue King Ouest,J1J 2C8,45.3988535,-71.9171322
2665,Rue King Ouest,J1L 2G5,45.3995367,-71.9385879
2845,Rue King Ouest,J1L 1C6,45.3977404,-71.9427627
505,Rue Northrop-Frye,J1L 2Y3,45.4052759,-71.9569623
3315,Boulevard de Portland,J1L 2Y7,45.4040066,-71.9568926
3325,Boulevard de Portland,J1L 2P1,45.4040132,-71.9573526
300,Rue Belvédère Nord,J1H 4B1,45.4034620,-71.9008466
580,Rue Bowen Sud,J1G 2E8,45.3985458,-71.8790310
6138,Chemin de Saint-Élie,J1R 0L1,45.3959675,-72.0117264
940,rue de la Sainte-Famille,J1E 1V1,45.4100728,-71.8683405
475,Rue du Cégep,J1E 4K1,45.4112384,-71.8861159
89,Rue Queen,J1M 1J5,45.3654248,-71.8571346
4236,Boulevard Bourque,J1N1W7,45.3837992,-71.9652048
4870,Boulevard Bourque,J1N 3S5,45.3709649,-71.9872686
5182,Boulevard Bourque,J1N 1H4,45.3667986,-71.9947895
5316,Boulevard Bourque,J1N 1H3,45.3654964,-71.9976890
5316,Boulevard Bourque,J1N 1H3,45.3656698,-71.9973095
5316,Boulevard Bourque,J1N 1H3,45.3652486,-71.9981463
1970,Rue du Montagnais,J1K 2X9,45.3833800,-71.9234468
1635,Rue Galt Ouest,J1H 2B3,45.3871039,-71.9152046
8475,Rue Blanchette,J1N 3A3,45.3141357,-72.0177637
675,Côte de Beauvoir,J1C 0B8,45.4548270,-71.8977258
220,Route de Windsor,J1C 0E6,45.4825402,-71.9509542
20,Route de Windsor,J1C 0E5,45.4786416,-71.9406250
129,Rue du Frère-Théode,J1C 0S3,45.4716676,-71.9536418
125,Rue du Frère-Théode,J1C 0S3,45.4719215,-71.9529739
1,Rue Wilfrid-Laurier,J1C 0P3,45.4758639,-71.9400045
35,Rue Saint-Joseph,J1C 0P0,45.4751914,-71.9410676
25,Rue Saint-Joseph,J1C 0P0,45.4752817,-71.9412942
23,Rue Saint-Joseph,J1C 0P0,45.4752939,-71.9413378
31,Rue Saint-Joseph,J1C 0P0,45.4752027,-71.9411092
21,Rue Saint-Joseph,J1C 0P0,45.4753052,-71.9413881
103,Rue Saint-Lambert,J1C 0N8,45.4740055,-71.9399263
9275,Boulevard Bourque,J1N 0G2,45.3157132,-72.0763502
9071,Boulevard Bourque,J1N 0G2,45.3197456,-72.0704359
4385,Chemin Saint-Roch Nord,J1R 0K7,45.3912061,-72.0397957
6207,Chemin de Saint-Élie,J0B 2S0,45.3944825,-72.0144877
2655,Rue King Ouest,J1L 2G4,45.3995500,-71.9383034
1551,Rue Dunant,J1H 5N6,45.3838587,-71.9001556
373,Rue King Est,J1G 1B4,45.4080494,-71.8808971
385,Rue King Est,J1G 1B4,45.4081544,-71.8806296
4085,Rue Lesage,J1L 2Z9,45.3947161,-71.9625077
4085,Rue Lesage,J1L 2Z9,45.3947161,-71.9623603
4756,Boulevard Bourque,J1N 2A7,45.3729266,-71.9837698
4756,Boulevard Bourque,J1N 2A7,45.3728171,-71.9836363
5000,Boulevard Bourque,J1N 2K7,45.3694047,-71.9901735
2235,Rue Galt Ouest,J1K 1K6,45.3873822,-71.9279355
4857,Boulevard Bourque,J1N 1E8,45.3731393,-71.9896209
4050,Boulevard Josaphat-Rancourt,J1L 3C6,45.4185175,-71.9642231
147,Rue Queen,J1M 1J7,45.3674678,-71.8568380
1850,Rue King Est,J1G 5G6,45.4096033,-71.8475539
1280,Rue King Est,J1G 1E4,45.4085826,-71.8601346
4857,Boulevard Bourque,J1N 1E8,45.3718543,-71.9882134
4857,Boulevard Bourque,J1N 1E3,45.3708945,-71.9899459
4280,Boulevard Bourque,J1N1W7,45.3819894,-71.9678575
4005,Rue Comtois,J1L 1R7,45.3867644,-71.9590145
3950,Rue King Ouest,J1L 1P6,45.3879800,-71.9577646
1986,Boulevard de Portland,J1J 1T9,45.4035132,-71.9229494
2257,Rue King Ouest,J1J 2G2,45.4001867,-71.9282755
2245,Rue King Ouest,J1J 2G2,45.4000006,-71.9280928
2222,Rue King Ouest,J1J 2E8,45.3979552,-71.9273437
1420,Rue King Ouest,J1J 2C2,45.3985055,-71.9113072
1432,Rue King Ouest,J1J 2C2,45.3985834,-71.9115869
1465,Rue King Ouest,J1J 2C1,45.3990108,-71.9123916
1465,Rue King Ouest,J1J 2C1,45.3990136,-71.9123085
1576,Rue King Ouest,J1J 2C3,45.3983839,-71.9147960
2312,Rue King Ouest,J1J 2G2,45.4000716,-71.9300677
1748,Rue King Ouest,J1J 2C9,45.3983071,-71.9177557
1338,Rue King Ouest,J1J 2B6,45.3986095,-71.9095303
1274,Rue King Ouest,J1J 2B6,45.3986244,-71.9084947
285,Rue Wood,J1J 2X5,45.4030561,-71.9208703
2313,Rue King Ouest,J1J 2G2,45.4002212,-71.9299734
2313,Rue King Ouest,J1J 2G2,45.4001534,-71.9300189
2313,Rue King Ouest,J1J 2G2,45.4002966,-71.9299519
2313,Rue King Ouest,J1J 2G2,45.4000762,-71.9299734
30,Rue Salls,J1J 4P7,45.3982636,-71.9137725
30,Rue Salls,J1J 4P7,45.3982368,-71.9137725
1520,Rue King Ouest,J1J 2C2,45.3983300,-71.9136337
1576,Rue King Ouest,J1J 2C3,45.3983927,-71.9146114
1144,Rue King Ouest,J1H 1S2,45.3987282,-71.9059829
1705,Rue Prospect,J1J 1K4,45.4094367,-71.9169508
1906,Rue King Ouest,J1J 2E2,45.3981040,-71.9206282
131,Boulevard Jacques-Cartier Sud,J1J 2Z4,45.3966106,-71.9189829
95,Boulevard Jacques-Cartier Sud,J1J 2Z3,45.3972108,-71.9193129
915,Rue King Ouest,J1H 1S3,45.3989196,-71.9022347
1890,Rue de Fleur-de-Fenouil,J1H0K8,45.3754288,-71.8837344
1874,Rue de Fleur-de-Fenouil,J1H0K8,45.3759007,-71.8835047
1891,Rue de Fleur-de-Fenouil,J1H0K8,45.3756274,-71.8835396
1879,Rue de Fleur-de-Fenouil,J1H0K8,45.3758798,-71.8832914
1200,Rue Belvédère Sud,J1H 4C7,45.3883269,-71.8957717
1772,Rue Galt O,J1K 1H8,45.3857262,-71.9183445
4155,Boulevard Josaphat-Rancourt,J1L 3C6,45.4207579,-71.9658391
160,Rue Queen,J1M 1J9,45.3687471,-71.8565127
260,Rue Queen,J1M iK6,45.3743577,-71.8607918
5055,Boulevard Industriel,J1R 0P4,45.3958797,-71.9940114
3800,Boulevard de Monseigneur-Fortier,J1L 0J6,45.4225106,-71.9617218
166,Chemin Duplessis,J1E C77,45.4108518,-71.8512464
160,Chemin Duplessis,J1E 3G1,45.4106699,-71.8512485
150,Chemin Duplessis,J1E 3C7,45.4104596,-71.8509639
2190,Rue King Est,J1G 5G6,45.4112542,-71.8413143
27,Rue Raby,J1G 3T1,45.4111334,-71.8411550
1591,Rue King Est,J1G 1E8,45.4092283,-71.8525033
1593,Rue King Est,J1G 1E8,45.4092935,-71.8522484
2990,Rue King Ouest,J1L 1Y7,45.3960507,-71.9448679
2960,Rue King Ouest,J1L 1Y7,45.3961545,-71.9447921
1205,Rue Wellington Sud,J1H 3E8,45.3895502,-71.8842455
1482,12e Avenue Nord,Avenue Nord,45.4274992,-71.8685111
195,Rue Belvédère Nord,J1H 4A7,45.4009360,-71.8986753
3400,Rue King Ouest,J1L 1C9,45.3922085,-71.9525051
2273,Rue Galt Ouest,J1K 1K7,45.3873183,-71.9288123
4692,Boulevard Bourque,J1N 2A8,45.3740983,-71.9825095
2015,12e Avenue Nord,J1E 4J5,45.4345043,-71.8686353
1881,12e Avenue Nord,J1E 4J5,45.4331830,-71.8685895
627,Rue King Est,J1G 1B9,45.4082361,-71.8749605
1541,Rue Dunant,J1H 5N6,45.3838821,-71.8996918
741,Rue Galt Ouest,J1H 1Z1,45.3946002,-71.8969774
3200,Rue King Ouest,J1L 1C9,45.3946228,-71.9485349
147,Rue Alexandre,J1H 4S5,45.3978839,-71.8929913
650,Rue Jean-Paul-Perrault,J1L 3A6,45.4074671,-71.9586087
3050,Boulevard de Portland,J1L 1K1,45.4021406,-71.9487002
206,Rue Wellington Nord,J1H 5C6,45.4045881,-71.8921911
175,Rue Alexandre,J1H 4S8,45.3973823,-71.8926459
297,Rue Alexandre,J1H 4S8,45.3963002,-71.8918649
4505,Boulevard Bourque,J1N 3B9,45.3768083,-71.9793829
4857,Boulevard Bourque,J1N 1E8,45.3733454,-71.9891760
4857,Boulevard Bourque,J1N 1E8,45.3732924,-71.9891128
2050,Boulevard de Portland,J1J 1T9,45.4033274,-71.9243115
47,Rue King Ouest,J1H 1P1,45.4022774,-71.8887952
3005,Rue King Ouest,J1L 1C7,45.3965849,-71.9458700
3005,Rue King Ouest,J1L 1C7,45.3965461,-71.9458534
80,Rue Wellington Sud,J1H 5C7,45.4001125,-71.8890796
80,Rue Wellington Sud,J1H 5C7,45.4001656,-71.8890986
4565,Rue de Chambois,J1N 2B7,45.3733869,-71.9722279
195,Rue Marquette,J1H 1L6,45.4026424,-71.8940848
195,Rue Marquette,J1H 1L6,45.4026694,-71.8941263
1320,Rue Denault,J1H 2P7,45.3887963,-71.9086720
830,Rue Buck,J1J 3L5,45.4111388,-71.9118980
1495,Rue King Ouest,J1J 2C1,45.3990623,-71.9130673
1495,Rue King Ouest,J1J 2C1,45.3990523,-71.9131027
1495,Rue King Ouest,J1J 2C1,45.3990453,-71.9130459
624,Rue Bowen Sud,J1G 2E9,45.3967831,-71.8783387
4210,Boulevard Bourque,J1L 1W6,45.3849501,-71.9632786
1780,Rue King Ouest,J1J 2C9,45.3982552,-71.9183352
1780,Rue King Ouest,J1J 2C9,45.3982283,-71.9183373
2100,Chemin de Sainte-Catherine,J1N 3V5,45.3705717,-71.9322035
1845,Rue King Ouest,J1J 2E4,45.3987128,-71.9197733
5180,Boulevard Bourque,J1N1H9,45.3668803,-71.9947695
977,Rue Galt Ouest,J1H 1Z6,45.3924268,-71.9022694
4786,Boulevard Bourque,J1N 2A7,45.3725146,-71.9844962
903,Rue du Conseil,J1G 1L6,45.4039398,-71.8692709
10260,Boulevard Bourque,J1N0G2,45.3019581,-72.0929669
10290,Boulevard Bourque,J1N0G2,45.3014525,-72.0942758
910,Rue LaRocque,J1H 4R6,45.3923957,-71.8904121
8475,Rue Blanchette,J1N 3A3,45.3141280,-72.0177182
405,Rue Sara,J1H 5S6,45.3789855,-71.8907384
405,Rue Sara,J1H 5S6,45.3789656,-71.8905066
405,Rue Sara,J1H 5S6,45.3789457,-71.8902744
1682,Rue King Ouest,J1J 2C9,45.3984908,-71.9167010
839,Rue Joseph-Louis-Mathieu,J1R 0X3,45.4044613,-71.9836085
750,12e Avenue Nord,J1R 2W9,45.4187313,-71.8731040
2925,Boulevard de Portland,J1L 2Y7,45.4044570,-71.9482289
2915,Boulevard de Portland,J1L 2Y7,45.4042867,-71.9481554
2905,Boulevard de Portland,J1L 2Y7,45.4040503,-71.9481089
2945,Boulevard de Portland,J1L 2Y7,45.4047634,-71.9484633
2955,Boulevard de Portland,J1L 2Y7,45.4047570,-71.9487846
2975,Boulevard de Portland,J1L 2Y7,45.4047462,-71.9490568
4250,Chemin Saint-Roch Sud,J1N0E8,45.3332311,-71.9793288
2144,Rue King Ouest,J1J 2E8,45.3976596,-71.9257962
1250,rue Galt Ouest,J1K 2R1,45.3883998,-71.9067141
720,Place de la Gare,J1H 0E9,45.3965937,-71.8979456
655,rue Papineau,J1E 1Y6,45.4113574,-71.8743312
233,8e Avenue Nord,J1E 2S6,45.4112585,-71.8751809
1875,rue Albert-Skinner,J1J 1W8,45.4021207,-71.9201614
565,rue Triest,J1E 2M7,45.4160047,-71.8799110
2600,Rue College,J1M 1Z7,45.3657211,-71.8491224
576,rue Saint-Michel,J1E 2L3,45.4160591,-71.8819312
851,Rue de l'Ontario,J1J 3R9,45.4111705,-71.9092367
1999,Chemin de Sainte-Catherine,J1N 0J8,45.3746673,-71.9333262
2100,Rue King Ouest,J1J 2E8,45.3979096,-71.9243721
2050,Rue King Ouest,J1J 2E8,45.3980260,-71.9239034
3225,Boulevard de Portland,J1L 1K1,45.4039516,-71.9556972
3025,Boulevard de Portland,J1L 2Y7,45.4045143,-71.9513497
3075,Boulevard de Portland,J1L 2Y7,45.4039635,-71.9524331
1355,Boulevard du Plateau St-Joseph,J1L 3C5,45.4209960,-71.9688501
1255,boulevard du Plateau St-Joseph,J1L 3E2,45.4197674,-71.9692988
4100,boulevard Josaphat-Rancourt,J1L 3C6,45.4196574,-71.9659709
1150,boulevard du Plateau Saint-Joseph,J1L 0A5,45.4181597,-71.9666164
4050,Boulevard Josaphat-Rancourt,J1L 3C6,45.4182835,-71.9637905
150,rue des Grandes-Fourches Sud,J1H 5G5,45.3998005,-71.8864456
3400,King Ouest,J1L 1C9,45.3920691,-71.9517460
895,Cabana,J1K 2M3,45.3917559,-71.9297117
2185,rue Galt Ouest,J1K 1K3,45.3873742,-71.9265383
360,Rue Terrill,J1E 3S7,45.4139223,-71.8833792
1208,rue Belvédère Sud,J1H 4C7,45.3880383,-71.8955501
910,Rue LaRocque,J1H 4R6,45.3920778,-71.8901295
4260,Boulevard Bourque,J1N4B3,45.3825794,-71.9666625
740,McGregor,J1L 1V7,45.4110843,-71.9446957
2727,Rue King Ouest,J1L 1C1,45.3984026,-71.9396892
186,Rue de la Burlington,J1L 1Y7,45.3956946,-71.9391030
2600,Rue King Ouest,J1J 2H1,45.3977752,-71.9363479
2550,Rue King Ouest,J1J 2H1,45.3977780,-71.9347111
145,rue Sauvé,J1L 1L6,45.3899672,-71.9621038
809,Rue de l'Ontario,J1J 3R9,45.4105425,-71.9089872
580,Dufferin,J1H 4N1,45.4088187,-71.8977330
611,Boulevard Queen-Victoria,J1H 3R6,45.4081638,-71.9026997
400,Marquette,J1H 1M4,45.4002877,-71.8963064
42,Rue Queen,J1M 1H9,45.3609391,-71.8569581
2050,Rue Galt Est,J1G 3J1,45.4077149,-71.8506984
25,Rue Queen,J1M 1H8,45.3589417,-71.8590430
4005,Rue Comtois,J1L 1R7,45.3867652,-71.9590088
1621,Rue Prospect,J1J 1K4,45.4101615,-71.9151748
2959,Rue King Ouest,J1L 1C7,45.3969448,-71.9452233
3385,Rue King Ouest,J1L 1P8,45.3940931,-71.9525273
2785,Rue King Ouest,J1L 1X6,45.3983869,-71.9413335
2424,Rue King Ouest,J1J 2E8,45.3980058,-71.9322254
75,Rue Morris,J1J 2L8,45.3995702,-71.9343265
2400,Rue King Ouest,J1J 2E8,45.3980348,-71.9314355
2615,Rue King Ouest,J1J 2H3,45.3985630,-71.9366215
2345,Rue Hertel,J1J 2J1,45.3970047,-71.9306093
2389,Rue Hertel,J1J 2J1,45.3970018,-71.9314725
2630,Rue King Ouest,J1J 2H1,45.3979420,-71.9370562
745,McGregor,J1L 1P4,45.4110298,-71.9456643
720,McGregor,J1L 1V7,45.4105848,-71.9447035
250,rue King Est,J1G 1A9,45.4059512,-71.8829307
360,Rue du Cégep,J1E 2J9,45.4104732,-71.8834174
361,Rue Moore,J1H 1C1,45.4068655,-71.8991726
775,rue Galt Ouest,J1H 1Z1,45.3943743,-71.8977310
2240,Rue King Est,J1G 5G8,45.4114977,-71.8400686
2365,rue Galt Ouest,J1K 1L1,45.3874647,-71.9312664
2405,Chemin Lemire,J1H 0C5,45.4304952,-71.8391766
2000,Rue College,J1M 0C8,45.3685355,-71.8299777
3400,Boulevard Industriel,J1L1V8,45.4077999,-71.9629970
1945,Rue du Montagnais,J1K 2X9,45.3820842,-71.9214374
1950,Rue du Montagnais,J1K 2X9,45.3825888,-71.9215384
2000,Rue du Montagnais,J1K 2X9,45.3819690,-71.9229549
1955,Rue du Montagnais,J1K 2X9,45.3823098,-71.9224064
1270,Papineau,J1E 3Y4,45.4153920,-71.8607953
1775,Rue King Est,J1G 5G7,45.4114389,-71.8498300
3260,Rue King Ouest,J1L 1C9,45.3942933,-71.9499163
2555,Rue King Ouest,J1J 2K9,45.3985949,-71.9352871
2939,Rue King Ouest,J1L 1C7,45.3970989,-71.9449039
2707,Rue King Ouest,J1L 1C1,45.3984057,-71.9390844
3025,Rue King Ouest,J1L 2B5,45.3964826,-71.9467793
2637,Rue King Ouest,J1J 2H3,45.3985772,-71.9371994
4135,Boulevard Industriel,J1L 2S7,45.3965088,-71.9664612
575,Maurice-Houle,J1H 5H9,45.3933748,-71.9011560
1,Rue Belvédère Sud,J1H 0G8,45.3980033,-71.8969800
1625,rue McManamy,J1H 6C6,45.3902041,-71.9151344
1505,rue McManamy,J1H 6E7,45.3903275,-71.9126838
1270,rue Galt Ouest,J1H 2A7,45.3879736,-71.9072144
1545,rue McManamy,J1H 6E7,45.3903380,-71.9137297
550,Rue Jean-Paul Perreault,J1L 3A6,45.4056123,-71.9590327
100,Rue de la Burlington,J1L 1H1,45.3965393,-71.9387555
165,rue Moore,J1H 1B8,45.4075130,-71.8969997
510,rue Prospect,J1H 1A8,45.4074720,-71.8977530
530,rue Prospect,J1H 1A8,45.4076490,-71.8978643
1950,rue Galt Ouest,J1K 1H8,45.3860009,-71.9223004
1450,rue Galt Ouest,J1H 2B3,45.3865166,-71.9113718
1461,rue Galt Ouest,J1H 2B2,45.3869308,-71.9115757
2370,rue Galt Ouest,J1K 2W7,45.3868655,-71.9312058
1497,Rue Galt Ouest,J1H 2B3,45.3869560,-71.9123783
1100,rue Galt Ouest,J1H 2A4,45.3899286,-71.9046587
1330,rue Galt Ouest,J1H 2A7,45.3873899,-71.9085850
1095,rue Belvédère Sud,J1H 4C6,45.3900613,-71.8964910
700,Rue Galt Ouest,J1H 1Z2,45.3938208,-71.8965414
450,Rue Marquette,J1H 5H9,45.3999336,-71.8968730
245,Rue Frontenac,J1H 1K1,45.4032626,-71.8963307
225,rue Frontenac,J1H 1K1,45.4034563,-71.8954274
200,rue Belvédère Nord,J1H 4A9,45.4012442,-71.8980234
360,rue Frontenac,J1H 1K3,45.4018295,-71.8972245
1290,rue Belvédère Sud,J1H 2T9,45.3867342,-71.8959873
1155,rue Galt Ouest,J1H 2A3,45.3899351,-71.9055098
1361,rue Denault,J1H 2P9,45.3891028,-71.9097146
1466,rue Denault,J1H 2P8,45.3886703,-71.9115302
1564,Rue Denault,J1H 2R2,45.3886538,-71.9138782
1481,rue Denault,J1H 2R1,45.3891986,-71.9123405
1543,rue Denault,J1H 2R1,45.3891024,-71.9135612
1600,rue Denault,J1H 2R2,45.3887015,-71.9143038
730,McGregor,J1L 1V7,45.4108339,-71.9440040
3000,de l'Université,J1K 0A5,45.3783797,-71.9428272
1630,Galt Ouest,J1H 2B5,45.3863227,-71.9150122
1060,rue Galt Ouest,J1H 2A1,45.3907831,-71.9033400
1715,rue Galt Ouest,J1K 1J2,45.3870812,-71.9170398
1685,rue Denault,J1K 1E7,45.3888249,-71.9164120
1705,rue Denault,J1K 1E9,45.3888863,-71.9170430
1732,rue Denault,J1K 1E8,45.3883711,-71.9174611
125,Boulevard Jacques-Cartier Sud,J1J 2Z3,45.3966588,-71.9191101
1010,rue Fairmount,J1H 3N3,45.3909422,-71.9023652
1805,rue Galt Ouest,J1K 1J4,45.3871410,-71.9189113
300,rue King Est,J1G 1B1,45.4060140,-71.8816523
531,Rue de Montréal,J1H 1E6,45.4047843,-71.9006727
530,Rue de Montréal,J1H 1E7,45.4043217,-71.9002907
267,Rue de Montréal,J1H 1E4,45.4062399,-71.8976651
240,Rue de Montréal,J1H 1E3,45.4060500,-71.8969741
340,Rue Dufferin,J1H 4M7,45.4065717,-71.8951029
1206,Rue King Ouest,J1H 1S2,45.3985981,-71.9074066
1175,Rue King Ouest,J1H 1S5,45.3992374,-71.9067402
1625,rue du Rosaire,J1H 2T6,45.3877447,-71.9146998
812,Rue Belvédère Sud,J1H 4B8,45.3943345,-71.8957877
155,rue Belvédère Nord,J1H 4A7,45.4001228,-71.8983686
191,Rue du Palais,J1H 5H9,45.4040789,-71.8931726
74,Rue Albert,J1H 1M9,45.4026623,-71.8902092
1875,Rue King Ouest,J1J 2E3,45.3987901,-71.9203411
2059,Rue King Ouest,J1J 2E9,45.3986317,-71.9241240
2885,Boulevard de Portland,J1L 2S1,45.4044478,-71.9465127
825,rue Bowen Sud,J1G 2G2,45.3945954,-71.8785022
1470,Rue King Ouest,J1J 2C2,45.3983355,-71.9124330
1460,Rue King Ouest,J1J 2C2,45.3984648,-71.9121599
195,Rue Marquette,J1H 1L6,45.4027835,-71.8946709
135,rue King Ouest,J1H 1P4,45.4012188,-71.8912641
114,rue de la Cathédrale,J1H 4M1,45.4015361,-71.8923531
130,Rue de la Cathédrale,J1H 4M1,45.4022030,-71.8925766
940,rue de la Sainte-Famille,J1E 1V1,45.4095591,-71.8671249
1115,Rue King Est,J1G 1E5,45.4083091,-71.8645759
256,Rue Queen,J1H 3R2,45.3738643,-71.8602677
332,Rue Marquette,J1H 1M3,45.4010141,-71.8955474
27,Rue Wellington Nord,J1H 5A9,45.4017815,-71.8909683
51,Rue Wellington Nord,J1H 5A9,45.4021579,-71.8910885
3000,rue du Chalumeau,J1G 5E9,45.4023640,-71.8279789
43,Rue Queen,J1M1J2,45.3612843,-71.8575238
1036,rue Belvédère,J1H 4C4,45.3909059,-71.8947761
2325,Rue King Ouest,J1J 2G2,45.3987170,-71.9299421
2325,Rue Hertel,J1J 2J1,45.3974580,-71.9307991
1802,Rue King Ouest,J1J 2E2,45.3981199,-71.9191824
1700,Rue King Ouest,J1J 2C9,45.3983508,-71.9170774
1520,Rue King Ouest,J1J 2C2,45.3982503,-71.9136133
1650,Rue King Ouest,J1J 2C9,45.3983471,-71.9160770
1754,Rue King Ouest,J1J 2C9,45.3982879,-71.9177634
1506,Rue King Ouest,J1J 2C2,45.3983672,-71.9133331
2844,Rue King Ouest,J1L 1Y7,45.3970602,-71.9420583
2909,Rue King Ouest,J1L 1C7,45.3973127,-71.9440733
2050,Boulevard de Portland,J1J 1T9,45.4021963,-71.9249354
135,rue Don-Bosco Nord,J1L 1E5,45.3982356,-71.9511855
5087,Boulevard Bourque,J1N 2K6,45.3693341,-71.9926494
1175,Rue King Est,J1G 1E6,45.4088452,-71.8627914
1200,Rue King Est,J1G 1E4,45.4079468,-71.8617903
445,Rue King Est,J1G 1B6,45.4083770,-71.8787415
610,Rue King Est,J1G 1B8,45.4077940,-71.8753959
651,Rue King Est,J1G 1C1,45.4082894,-71.8745093
655,Rue King Est,J1G 1C1,45.4083148,-71.8743417
860,Rue King Est,J1G 1C9,45.4076025,-71.8702787
901,Rue King Est,J1G 1E3,45.4083294,-71.8691393
800,Rue King Est,J1G 1C7,45.4070425,-71.8710259
10,10E Avenue Sud,J1G 1R5,45.4078592,-71.8724734
1425,Rue King Est,J1G 1E8,45.4092619,-71.8563732
1180,Rue King Est,J1G 1E4,45.4080227,-71.8626587
2750,rue King Est,J1G 5H2,45.4156551,-71.8308311
400,Rue King Ouest,J1H 1R4,45.3985784,-71.8957624
780,Rue King Ouest,J1H 1R7,45.3983136,-71.9000026
11,Rue Léger,J1L 1X1,45.3857543,-71.9641507
5450,Boulevard Bourque,J1N 1H3,45.3646495,-71.9992776
5426,Boulevard Bourque,J1N 1H3,45.3647824,-71.9990164
6211,Boulevard Bourque,J1N 1H2,45.3562711,-72.0165673
720,rue Longpré,J1G 4L3,45.3973283,-71.8590291
845,Rue Bacon,J1H 6G3,45.3763278,-71.8982243
368-376,Rue Colbert,J1N 2S4,45.3726571,-71.9624427
1335,Rue King Ouest,J1J 2B8,45.3989966,-71.9095731
1920,Rue des Boisés,J1H 3Y9,45.3795692,-71.8970049
2171,Rue King Ouest,J1J 2G1,45.3984329,-71.9257839
1139,Boulevard Queen-Victoria,J1H 1A2,45.4161251,-71.9064111
2360,Rue King Ouest,J1J 2E8,45.3980388,-71.9307027
2324,Rue King Ouest,J1J 2E8,45.3981080,-71.9298631
2258,Rue King Ouest,J1J 2E8,45.3981218,-71.9284019
2244,Rue King Ouest,J1J 2E8,45.3980664,-71.9280638
1410,Rue King Ouest,J1J 2C2,45.3985478,-71.9111592
2559,Rue Gadbois,J1J 1Y7,45.4018411,-71.9355854
2567,Rue Gadbois,J1J 1Y7,45.4017671,-71.9358630
2575,Rue Gadbois,J1J 1Y7,45.4016431,-71.9360559
2585,Rue Gadbois,J1J 1Y7,45.4014364,-71.9363224
1301,Rue Le Ber,J1G 2Y4,45.3869208,-71.8659487
1371,Rue Le Ber,J1G 2Y4,45.3870799,-71.8659550
1411,Rue Le Ber,J1G 2Y4,45.3866216,-71.8659856
1427,Rue Le Ber,J1G 2Y4,45.3862247,-71.8660409
1431,Rue Le Ber,J1G 2Y4,45.3860849,-71.8660449
1784,Rue de Châteaumont,J1G 5C4,45.4011299,-71.8452841
1790,Rue de Châteaumont,J1G 5C4,45.4011496,-71.8451072
1796,Rue de Châteaumont,J1G 5C4,45.4011986,-71.8448735
1800,Rue de Châteaumont,J1G 5C4,45.4012336,-71.8446247
1808,Rue de Châteaumont,J1G 5C4,45.4012759,-71.8443463
1830,Rue de Châteaumont,J1G 5C4,45.4013547,-71.8437378
1840,Rue de Châteaumont,J1G 5C4,45.4014897,-71.8433933
1850,Rue de Châteaumont,J1G 5C4,45.4015669,-71.8431572
1860,Rue de Châteaumont,J1G 5C4,45.4016831,-71.8429626
1870,Rue de Châteaumont,J1G 5C4,45.4017952,-71.8427361
1880,Rue de Châteaumont,J1G 5C4,45.4019170,-71.8424967
1890,Rue de Châteaumont,J1G 5C4,45.4019800,-71.8422671
1900,Rue de Châteaumont,J1G 5C4,45.4020303,-71.8419330
1910,Rue de Châteaumont,J1G 5C4,45.4020505,-71.8416150
1920,Rue de Châteaumont,J1G 5C4,45.4021085,-71.8412956
1930,Rue de Châteaumont,J1G 5C4,45.4021335,-71.8410218
915,Rue de Lisieux,J1K 2A5,45.3907739,-71.9445520
925,Rue de Lisieux,J1K 2A5,45.3906349,-71.9445934
935,Rue de Lisieux,J1K 2A5,45.3904989,-71.9445873
945,Rue de Lisieux,J1K 2A5,45.3903528,-71.9445937
955,Rue de Lisieux,J1K 2A5,45.3902185,-71.9445776
965,Rue de Lisieux,J1K 2A5,45.3900834,-71.9445448
981,Rue de Lisieux,J1K 2A5,45.3898214,-71.9445479
991,Rue de Lisieux,J1K 2A5,45.3896537,-71.9445530
999,Rue de Lisieux,J1K 2A5,45.3895514,-71.9445465
1001,Rue de Lisieux,J1K 2A5,45.3895108,-71.9445451
1015,Rue de Lisieux,J1K 2A5,45.3893578,-71.9445563
1031,Rue de Lisieux,J1K 2A5,45.3891775,-71.9445297
1049,Rue de Lisieux,J1K 2A5,45.3889475,-71.9445065
1051,Rue de Lisieux,J1K 2A5,45.3888831,-71.9445043
1071,Rue de Lisieux,J1K 2A5,45.3886363,-71.9445055
1081,Rue de Lisieux,J1K 2A5,45.3884810,-71.9445328
1091,Rue de Lisieux,J1K 2A5,45.3883423,-71.9445234
1109,Rue de Lisieux,J1K 2A5,45.3880997,-71.9444529
1121,Rue de Lisieux,J1K 2A5,45.3879346,-71.9444685
1133,Rue de Lisieux,J1K 2A5,45.3877966,-71.9444515
1141,Rue de Lisieux,J1K 2A5,45.3876446,-71.9444453
1149,Rue de Lisieux,J1K 2A5,45.3875290,-71.9444662
150,rue Ozias-Leduc,J1H 4M1,45.4026825,-71.8927271
1020,rue de Kingston,J1H 3S1,45.3907900,-71.9012361
510,rue de l'Union,J1N 2X3,45.3861107,-71.8936971
1435,Rue Belvédère Sud,J1H 4E4,45.3843049,-71.8952561
1005,Rue Claire-Jolicoeur,J1H 5Z7,45.3907974,-71.9161726
2100,Chemin de Sainte-Catherine,J1N 3V5,45.3700750,-71.9319536
242,rue de l'Ontario,J1J 3R1,45.4025039,-71.9073511
2985,rue Galt Ouest,J1H 1M3,45.3875579,-71.9459663
1080,rue des Jardins-Fleuris,J1E 1J7,45.4178762,-71.8651964
255,rue Kennedy Nord,J1E 2E8,45.4082306,-71.8869882
90,rue de l'Ontario,J1J 3P9,45.4001896,-71.9072831
1399,rue Campbell,J1M 0C1,45.3425190,-71.8460578
43,rue de Carillon,J1J 2K9,45.3994064,-71.9354287
2425,rue Galt Ouest,J1K 1L1,45.3874639,-71.9326107
265,Rue Léger,J1L 2G7,45.3962679,-71.9709721
10,Rue Samuel-Gratham,J1M 1J6,45.3678195,-71.8558702
2455,Rue Prospect,J1J 4G4,45.4100180,-71.9321310
705,Boulevard Jacques-Cartier Nord,J1J 3A5,45.4095654,-71.9190039
169,Rue Queen,J1M 1K1,45.3691986,-71.8577520
96,Rue Queen,J1M 1J4,45.3659891,-71.8559178
5240,Boulevard Bourque,J1N 1H4,45.3662425,-71.9958873
5260,Boulevard Bourque,J1N 1H4,45.3659526,-71.9963957
3200,Chemin Galvin,J1G 5E6,45.4008587,-71.8203018
2545,Rue Prospect,J1J 4G3,45.4107839,-71.9342183
2015,12e Avenue Nord,J1E 4J6,45.4348799,-71.8690456
1125,Rue de Cherbourg,J1K 0A3,45.3890590,-71.9255997
1155,Rue Lincoln,J1H2H6,45.3913714,-71.9052808
5302,Chemin Blanchette,J1N 0C7,45.3341999,-71.9926125
100,Rue Richmond,J1J 6E1,45.4002119,-71.9002556
217,Rue Belvédère Nord,J1H 5W2,45.4018630,-71.8998624
1805,Rue Luce-Dufresne,J1R 0W9,45.3841187,-71.9985647
2285,Chemin de Sainte-Catherine,J1N 0C4,45.3661117,-71.9347986
6185,Chemin de Saint-Élie,J1R 0L1,45.3943553,-72.0138263
3232,Rue Richard,J1L 1Y2,45.4100198,-71.9483832
700,Place Des Ormeaux,j1g3l5,45.3942652,-71.8711541
720,Place Des Ormeaux,j1g3l5,45.3945758,-71.8716761
1135,Boulevard Jacques-Cartier Nord,J1J 3A8,45.4165635,-71.9189847
120,Rue de Vimy,J1J 3M7,45.4004593,-71.9102970
150,Rue de Vimy,J1J 3M7,45.4007837,-71.9102438
1905,Rue King Ouest,J1J 2E5,45.3988198,-71.9210067
1705,Rue King Ouest,J1J 2C8,45.3988942,-71.9171533
25,Rue Bryant,J1J 3E5,45.3991816,-71.9164662
1681,Rue King Ouest,J1J 2C8,45.3988634,-71.9167928
905,Rue de l'Ontario,J1J 3V8,45.4121693,-71.9091768
95,Rue Victoria,J1H 3H9,45.4002667,-71.9064410
706,Boulevard Jacques-Cartier Nord,J1J 3A5,45.4095153,-71.9181964
1665,Rue King Ouest,J1J 2C8,45.3988543,-71.9165799
20,Rue Bryant,J1J 3E4,45.3991595,-71.9158364
1645,Rue King Ouest,J1J2C7,45.3988206,-71.9158622
1627,Rue King Ouest,J1J 2C7,45.3988164,-71.9154561
1619,Rue King Ouest,J1J 2C7,45.3988153,-71.9152422
1405,Rue King Ouest,J1J 2C1,45.3989451,-71.9109869
1425,Rue King Ouest,J1J 2C1,45.3988731,-71.9115001
1435,Rue King Ouest,J1J 2C1,45.3989244,-71.9116992
1900,Rue Prospect,J1J 1K7,45.4085841,-71.9211851
2025,Rue King Ouest,J1J 2E7,45.3987570,-71.9230124
2373,Rue King Ouest,J1J 2G5,45.3987400,-71.9309558
2355,Rue King Ouest,J1J 2G6,45.3986575,-71.9306059
51,Rue Clark,J1J 2N3,45.3991306,-71.9332911
2475,Rue King Ouest,J1J 2G8,45.3986864,-71.9332745
2193,Rue King Ouest,J1J 2G2,45.3985605,-71.9272367
2201,Rue King Ouest,J1J 2G2,45.3986001,-71.9277484
1474,Rue King Ouest,J1J 2C2,45.3982895,-71.9126912
2192,Rue King Ouest,J1J 2E2,45.3979657,-71.9266408
2194,Rue King Ouest,J1J 2E8,45.3979159,-71.9268052
2202,Rue King Ouest,J1J 2E8,45.3979502,-71.9270442
2234,Rue King Ouest,J1J 2E8,45.3980192,-71.9278513
2230,Rue King Ouest,J1J 2E8,45.3980077,-71.9276552
2185,Rue King Ouest,J1J 2G2,45.3986491,-71.9266071
2378,Rue King Ouest,J1J 2E8,45.3981658,-71.9311421
2405,Rue King Ouest,J1J 2G7,45.3986128,-71.9318306
25,Rue Cate,J1J 2N9,45.3988196,-71.9318159
45,Rue Cate,J1J 2N9,45.3991110,-71.9318669
2245,Rue King Ouest,J1J 2G7,45.3986294,-71.9321352
34,Rue Clark,J1J 2N2,45.3989284,-71.9325340
4857,Boulevard Bourque,J1N 1E8,45.3735383,-71.9892857
40,Boulevard Jacques-Cartier Sud,J1J 2Z2,45.3979050,-71.9183347
1560,Rue King Ouest,J1J 2C7,45.3984387,-71.9143710
40,Rue Marchant,J1J 4E3,45.3979163,-71.9161859
1340,Rue King Ouest,J1J 2B6,45.3985398,-71.9096774
1338,Rue King Ouest,J1J 2B6,45.3985378,-71.9094968
1303,Rue King Ouest,J0B 2C0,45.3985696,-71.9092821
1306,Rue King Ouest,J1J 2B6,45.3985620,-71.9089750
1306,Rue King Ouest,J1J 2B6,45.3985638,-71.9087820
1262,Rue King Ouest,J1J 2B6,45.3985564,-71.9083089
1255,Rue King Ouest,J1J 2B7,45.3989711,-71.9082541
1195,Rue King Ouest,J1H 1S6,45.3989765,-71.9071942
11,Rue Victoria,J1H 3H8,45.3991331,-71.9063723
554,Rue de l'Ontario,J1J 3R6,45.4070269,-71.9073270
1268,Rue Prospect,J1H 1J5,45.4089869,-71.9080350
105,Rue Lomas,J1J 2R1,45.3999729,-71.9307313
55,Rue Lomas,J1J 2R1,45.3992921,-71.9306920
2456,Rue King Ouest,J1J 2E8,45.3977060,-71.9328017
1301,Boulevard de Portland,J1J 1S2,45.4040097,-71.9088196
800,Rue de Vimy,J1J 3N7,45.4107215,-71.9103829
20,Rue Robidoux,J1J 2W1,45.3990777,-71.9223788
42,Rue Wilson,J1L 1H4,45.3991390,-71.9373460
20,Rue de Carillon,J1J 2K8,45.3988911,-71.9345611
470,Rue Victoria,J1H 3H2,45.4055456,-71.9052996
150,Rue de London,J1H 3M5,45.4007780,-71.9029722
790,Rue King Ouest,J1H 1R7,45.3983625,-71.9002929
815,Rue King Ouest,J1H 1R9,45.3988192,-71.9004767
888,Rue King Ouest,J1H 1S1,45.3984127,-71.9014444
918,Rue King Ouest,J1H 1S2,45.3984814,-71.9023435
928,Rue King Ouest,J1H 1S2,45.3985270,-71.9025174
954,Rue King Ouest,J1H 1S2,45.3985309,-71.9027744
1084,Rue King Ouest,J1H 1S2,45.3986969,-71.9050918
1124,Rue King Ouest,J1H 1S2,45.3987064,-71.9058328
45,Rue de l'Ontario,J1J 3P8,45.3997017,-71.9082826
151,Rue de l'Ontario,J1J 3P8,45.4008757,-71.9085551
360,Rue Argyll,J1J 3H6,45.4042305,-71.9129870
688,Rue Prospect,J1H 1A8,45.4084572,-71.9010859
594,Boulevard Queen-Victoria,J1H 3R7,45.4075972,-71.9008229
1125,Rue King Ouest,J1H 1S5,45.3990606,-71.9055382
255,Boulevard Jacques-Cartier Sud,J1J 2Z5,45.3948962,-71.9192544
275,Boulevard Jacques-Cartier Sud,J1J 2Z6,45.3945389,-71.9191742
926,Rue de l'Ontario,J1J 3S3,45.4128600,-71.9084775
838,Rue de l'Ontario,J1J 3S2,45.4111305,-71.9077028
908,Boulevard de Portland,J1H 1H4,45.4032691,-71.9019821
584,Rue de Montréal,J1H 1E8,45.4040433,-71.9008477
566,Rue de Montréal,J1H 1E8,45.4041182,-71.9008071
3059,Rue King Ouest,J1L 1C7,45.3962134,-71.9474288
25,Rue du Bocage,J1L 2J4,45.3976116,-71.9441198
2700,Rue King Ouest,J1L 1C5,45.3975310,-71.9391630
2760,Rue King Ouest,J1L 1C5,45.3977894,-71.9402109
2685,Rue Hertel,J1J 2J4,45.3957798,-71.9381812
2615,Rue Hertel,J1J 2J4,45.3960625,-71.9368386
205,Rue Hertel,J1J 2J4,45.3963126,-71.9362755
2050,Boulevard de Portland,J1J 1T9,45.4029824,-71.9242464
2070,Boulevard de Portland,J1J 1T9,45.4030619,-71.9251445
1680,Rue Garant,J1J 1J2,45.4108310,-71.9159260
2835,Rue Hertel,J1L 1Y3,45.3950995,-71.9420353
2885,Rue Hertel,J1L 1Y3,45.3948813,-71.9430181
2925,Rue Hertel,J1L 1Y3,45.3946870,-71.9437526
2350,Rue De Rouville,J1J 1X8,45.4018456,-71.9308340
2600,Rue Prospect,J1J 4G2,45.4102060,-71.9354554
2570,Rue Prospect,J1J 4G2,45.4100542,-71.9348764
30,Rue Rioux,J1J 2W7,45.3991136,-71.9214995
2515,Rue Beaudry,J1J 1K9,45.4094783,-71.9343885
2565,Rue Beaudry,J1J 1K9,45.4093623,-71.9359990
2475,Rue Beaudry,J1J 1K9,45.4094099,-71.9338695
1650,Rue du Dominion,J1J 1N4,45.4066044,-71.9156706
4085,Rue Lesage,J1L 2Z9,45.3947885,-71.9624271
1320,rue Belvédère Sud,J1H 4E3,45.3861451,-71.8956612
7052,Chemin de Val-du-Lac,J1N 3X8,45.3173474,-72.0228389
6950,Chemin de Val-du-Lac,J1N 3X8,45.3159479,-72.0217918
6980,Chemin de Val-du-Lac,J1N 3X8,45.3162985,-72.0221517
6979,Chemin de Val-du-Lac,J1N 3X8,45.3164957,-72.0212391
6990,Chemin de Val-du-Lac,J1N 3X8,45.3164858,-72.0223246
7024,Chemin de Val-du-Lac,J1N 3X8,45.3168728,-72.0225241
7046,Chemin de Val-du-Lac,J1N 3X8,45.3171794,-72.0228104
7053,Chemin de Val-du-Lac,J1N 3X8,45.3175267,-72.0220324
7060,Chemin de Val-du-Lac,J1N 3X8,45.3174824,-72.0227302
7068,Chemin de Val-du-Lac,J1N 3X8,45.3175636,-72.0231910
7076,Chemin de Val-du-Lac,J1N 3X8,45.3176778,-72.0233086
7075,Chemin de Val-du-Lac,J1N 3X8,45.3181509,-72.0222832
1000,Rue Galt Ouest,J1H 1Z8,45.3913405,-71.9022292
7100,Chemin de Val-du-Lac,J1N 3X8,45.3179343,-72.0237398
7202,Chemin de Val-du-Lac,J1N 3X8,45.3182336,-72.0264764
1061,Rue de Lisieux,J1K 2A5,45.3887607,-71.9445127
7018,Chemin de Val-du-Lac,J1N 3X8,45.3180280,-72.0240431
7108,Chemin de Val-du-Lac,J1N 3X8,45.3182171,-72.0241764
"3385, 3387",Rue Galt Ouest,J1K 3B9,45.3787192,-71.9542000
137,rue Gillespie,J1H 4W9,45.3983259,-71.8925434
1146,Rue King Ouest,J1H 1S2,45.3986819,-71.9061295
215,Rue Bellevue,J1J 3Z2,45.3959612,-71.9214686
111,Rue Bellevue,J1J 0A9,45.3966171,-71.9211459
1910,Rue King Ouest,J1J 2E2,45.3980545,-71.9209187
55,Boulevard Jacques-Cartier Sud,J1J 0A4,45.3973678,-71.9208919
389,Rue Victoria,J1H 3J2,45.4043024,-71.9063173
401,Rue Victoria,J1H 3J2,45.4045315,-71.9063451
955,rue de Cambridge,J1H 1E2,45.4045134,-71.9024816
386,Rue Victoria,J1H 3J2,45.4042993,-71.9057220
398,Rue Victoria,J1H 3J2,45.4048004,-71.9057022
374,Rue Victoria,J1H 3J2,45.4041400,-71.9057141
515,Rue Moore,J1H 1C1,45.4064669,-71.9009028
1767,Rue King Est,J1G 5G7,45.4101067,-71.8494360
2340,Rue King Est,J1G 5G7,45.4120571,-71.8377718
1850,Rue King Est,J1G 5G6,45.4096486,-71.8473461
561,Rue Galt Est,J1G 1Y2,45.3963230,-71.8746316
1090,Rue King Est,J1G 1E4,45.4074490,-71.8652048
10,10E Avenue Sud,J1G 2R5,45.4077388,-71.8724577
255,Rue des Feuillus,J1N 4L5,45.3044015,-72.1027232
955,Rue King Est,J1G 1E3,45.4082949,-71.8683827
1135,Rue King Est,J1G 5G6,45.4084383,-71.8637428
639,rue du 24-Juin,J1E 1H1,45.4236438,-71.8775338
775,Rue du Cégep,J1E 2K1,45.4145636,-71.8897589
70,Rue Clough,J1M2G9,45.3651876,-71.8669259
127,Rue Queen,J1M 1J7,45.3670559,-71.8567791
6210,Boulevard Bourque,J1N 1H3,45.3557538,-72.0154962
3500,Boulevard Industriel,J1L 1V8,45.4053605,-71.9629336
1405,Boulevard du Mi-Vallon,J1N 1W3,45.3795218,-71.9804616
4201,Rue Bertrand-Fabi,J1N 1X5,45.3840950,-71.9631079
2276,Chemin St-Louis,G1T 1R4,45.3730254,-71.9659213
1010,Rue Frédéric,J1N 2N3,45.3564861,-71.9953653
3415,Rue Dunant,J1N 0B5,45.3504145,-71.9376124
3847,Rue Dunant,J1N 0B5,45.3438838,-71.9409294
7255,Chemin Blanchette,J1N0C7,45.3246599,-72.0205173
49,Rue Saint-Lambert,J0B 1H0,45.4747645,-71.9417514
37,Rue Saint-Joseph,J1C 0P0,45.4751482,-71.9409213
27,Rue Saint-Joseph,J1C 0P0,45.4754587,-71.9411171
33,Rue Saint-Joseph,J1C 0P0,45.4754372,-71.9409371
39,Rue Saint-Joseph,J1C 0P0,45.4753101,-71.9407733
304,Rue Saint-Lambert,J1C0N9,45.4696457,-71.9348868
3590,Chemin Rhéaume,J1R0A2,45.3599205,-72.0899355
171,Rue des Perles,J1R0L6,45.3908938,-72.0089664
4750,Chemin Légaré,J1N 0G2,45.3248724,-72.0662057
304/306,Rue Saint-Lambert,J1C0N9,45.4696457,-71.9348868
3600,Boulevard de Monseigneur-Fortier,J1L 0C8,45.4242026,-71.9602870
60,Rue Wellington Sud,J1H 5C7,45.4004335,-71.8892927
154,Rue Queen,J1M 1J9,45.3682077,-71.8561909
1805,12e Avenue Nord,J1E 4J5,45.4318282,-71.8699146
600,Rue du Cégep,J1E 3T6,45.4134827,-71.8875014
600,Rue du Cégep,J1E 3T6,45.4133195,-71.8866500
600,Rue du Cégep,J1E 3T6,45.4133037,-71.8887635
515,Rue Moore,J1H 1C1,45.4068464,-71.9008305
515,Rue Moore,J1H 1C1,45.4060396,-71.9008390
1721,Chemin Galvin,J1G 3E7,45.4065673,-71.8506650
1721,Chemin Galvin,J1G 3E7,45.4073190,-71.8502421
353,Rue Frontenac,J1H 1K1,45.4023248,-71.8975128
4355,Boulevard Bourque,J1N 1S4,45.3801771,-71.9735230
4810,Boulevard René-Lévesque,J1L 2K8,45.3945694,-71.9839223
1805,Rue Luce-Dufresne,J1R 0W9,45.3886467,-71.9946083
250,rue du Dépôt,J1H 5G1,45.3977188,-71.8876382
2965,Boulevard de l'Université,J1K 2X6,45.3807862,-71.9481217
1930,Rue King Ouest,J1J 2E2,45.3975286,-71.9222766
3400,Boulevard de Portland,J1L 2X1,45.4011230,-71.9588668
355,Rue du Chardonnay,J0B 2P0,45.4200546,-71.9486819
1500,rue Pinard,J1J 3E1,45.4205281,-71.9155397
851,rue de l'Ontario,J1J 3R9,45.4111855,-71.9090899
830,Rue Buck,J1J 3L5,45.4108396,-71.9112341
375,rue Argyll,J1J 3H5,45.4050672,-71.9146027
1970,rue Galt Est,J1G 3J1,45.4074240,-71.8513396
80,chemin Moulton Hill,J1M 1Z8,45.3726908,-71.8399665
976,rue de Caen,J1G 2A4,45.3900215,-71.8659081
580,Rue Bowen Sud,J1G 2E8,45.3994707,-71.8787753
330,15e Avenue Sud,J1G 2X5,45.4025682,-71.8665397
420,15e Avenue Sud,J1G 2X5,45.4015462,-71.8666068
1001,Rue Brûlotte,J1E 0G8,45.4304403,-71.8587472
475,Rue du Cégep,J1E 4K1,45.4103912,-71.8863141
870,rue Saint-François Nord,J1E 3P9,45.4130085,-71.8977680
1700,rue College,J1M 1Z9,45.3659250,-71.8150675
16,Rue Church,J1M 1S9,45.3681779,-71.8587431
5100,Rue Henri-Labonne,J1N 1J1,45.3700659,-71.9932927
5100,rue Henri-Labonne,J1N 1J1,45.3700360,-71.9932918
1020,rue Germaine-Guèvremont,J1N 4C7,45.3712231,-71.9930603
3905,Rue Lesage,J1L 2Z9,45.3987635,-71.9616736
365,Rue Pépin,J1L 2E2,45.4008206,-71.9685207
4235,boulevard Industriel,J1L 2S7,45.3962141,-71.9687931
4740,Boulevard Industriel,J1L 3A3,45.3948215,-71.9822506
4675,Boulevard Industriel,J1L 2W5,45.3959252,-71.9809869
3950,Rue King Ouest,J1L 1P6,45.3879706,-71.9577369
1500,boulevard du Mi-Vallon,J1N 3Y5,45.3826797,-71.9854165
4257,Boulevard Bourque,J1N 1S4,45.3839217,-71.9674778
5807,Boulevard Bourque,J1N 1G8,45.3597178,-72.0101468
5711,Boulevard Bourque,J1N 1G8,45.3621385,-72.0063997
6171,Boulevard Bourque,J1N 1H2,45.3569219,-72.0155798
6575,Boulevard Bourque,J1N 1H2,45.3522296,-72.0236669
7409,boulevard Bourque,J1N 3K7,45.3422343,-72.0434724
6478,Boulevard Bourque,J1N 1H3,45.3523707,-72.0212171
4204,Bertrand-Fabi,J1N 3Y2,45.3835270,-71.9617110
4450,Boulevard Bourque,J1N 1S3,45.3770528,-71.9761872
4400,Boulevard Bourque,J1N 1S3,45.3777693,-71.9756304
4398,boulevard Bourque,J1N 1S3,45.3780075,-71.9752697
4565,Rue de Chambois,J1N 2B7,45.3736163,-71.9723905
700,Rue André-Mathieu,J1N 0Z9,45.3634617,-71.9739946
5323,Rue de Gaspé,J1N 2C9,45.3672721,-71.9926940
861,Rue Haut-Bois Sud,J1N 2J1,45.3636593,-71.9840981
5270,Boulevard Bourque,J1N 1H4,45.3659069,-71.9968246
5171,Rue du Président-Kennedy,J1N 1H9,45.3668135,-71.9947969
5920,Boulevard Bourque,J1N 1H3,45.3568901,-72.0114149
6403,rue du Président-Kennedy,J1N 2P5,45.3542176,-71.9954175
1820,rue Galt Ouest,J1K 1H9,45.3856061,-71.9192758
2500,Boulevard de l'Université,J1K 2R1,45.3772283,-71.9261216
3000,de l'Université,J1K 0A5,45.3789281,-71.9436865
2959,Boulevard de L'Université,J1K 2X6,45.3800483,-71.9461424
4076,boulevard de l'Université,J1N 2Y1,45.3621067,-71.9605802
5302,chemin Blanchette,J1N 0C7,45.3305909,-71.9883080
6031,Rue Beaudette,J1N 3B8,45.3131937,-71.9901856
3001,12e Avenue Nord,J1H 5N4,45.4480609,-71.8674602
2005,Boulevard du Plateau-Saint-Joseph,J1L 3E2,45.4270203,-71.9625188
1600,Boulevard du Plateau-Saint-Joseph,J1L 0C8,45.4217451,-71.9630881
125,rue du Frère-Théode,J1C 0S3,45.4716109,-71.9544029
81,rue du Curé-Larocque,J1C 0T2,45.4746040,-71.9456225
80,rue de la Croix,J1C 0R7,45.4727251,-71.9469054
9343,Boulevard Bourque,J1N 0G2,45.3147850,-72.0777294
8751,Boulevard Bourque,J1N 0G2,45.3228796,-72.0657160
7282,chemin de Saint-Élie,J1R 0K5,45.3953527,-72.0426741
78,Rue du Cardinal,J1R 0M1,45.3955641,-72.0150235
875,rue Thibault,J1H 3B3,45.3754547,-71.8998172
405,Rue Sara,J1H 5S6,45.3797491,-71.8888452
4857,Boulevard Bourque,J1N 2G6,45.3721965,-71.9890581
2020,Rue André-Breton,J1E 0M7,45.4119818,-71.8444152
