House number,Street name,Postal code,Latitude,Longitude
276,Boulevard Sainte-Madeleine,G8T 3L9,46.3664594,-72.5082155
470,Rue Vachon,G8T 8Y2,46.3708356,-72.5558391
300,Rue Barkoff,G8T 2A3,46.3731122,-72.5576560
4520,Boulevard des Récollets,G9A 4N2,46.3254204,-72.5679354
300,Rue Barkoff,G8T 2A3,46.3727819,-72.5584992
2,Rue des Ormeaux,G8W 1S8,46.3765826,-72.5521735
249,Rue Vachon,G8T 8P6,46.3742226,-72.5507654
850,Boulevard Thibeau,G8T 7A6,46.3881248,-72.5533667
680,Boulevard Thibeau,G8T 7A1,46.3833756,-72.5476420
607,Boulevard Thibeau,G8T 6Z6,46.3818822,-72.5447792
270,Boulevard Thibeau,G8T 6Y4,46.3730345,-72.5358623
240,Boulevard Thibeau,G8T 6Y1,46.3715322,-72.5358248
1620,Rue Notre-Dame Centre,G9A 6E5,46.3401447,-72.5420003
900,Boulevard Thibeau,G8T 7A6,46.3891015,-72.5525698
2,Rue des Ormeaux,G8W 1S8,46.3764925,-72.5515634
1975,Rue des Prairies,G8V 1A6,46.3961712,-72.5436928
950,Rue Tousignant,G8V 1S2,46.3972659,-72.5451320
245,Boulevard Thibeau,G8T 6X9,46.3715334,-72.5353676
717,Boulevard Thibeau,G8T 7A4,46.3845510,-72.5479815
100,Rue Barkoff,G8T 0B2,46.3702733,-72.5586818
165,Boulevard Sainte-Madeleine,G8T 3L7,46.3661876,-72.5093073
200,Boulevard Sainte-Madeleine,G8T 9T2,46.3659544,-72.5087799
100,Rue des Forges,G9A 2G8,46.3419384,-72.5406183
1441,Rue Notre-Dame Centre,G9A 4X4,46.3416429,-72.5404088
1465,Rue Notre-Dame Centre,G9A 4X4,46.3414446,-72.5405100
750,Boulevard du Saint-Maurice,G9A 3P6,46.3532861,-72.5465173
110,Rue des Bouleaux-Blancs,G8V 2G6,46.4010087,-72.5039388
61,Rue des Merisiers,G8V 1W8,46.4017928,-72.5043759
21,Rue des Cerisiers,G8V 1X2,46.4004882,-72.5051165
1640,Rue de Vienne,G8W 0G3,46.3865306,-72.5608203
2,Rue du Parc-Frigon,G8V 1G7,46.3983097,-72.5021965
60,Rue des Merisiers,G8V 1W9,46.4017423,-72.5042395
14,Rue des Mûriers,G8V 1X3,46.3997388,-72.5041005
20,Rue des Mûriers,G8V 1X3,46.4002796,-72.5033560
51,Rue des Cerisiers,G8V 1X2,46.4011368,-72.5042091
80,Rue des Bouleaux-Blancs,G8V 2G6,46.4004627,-72.5031666
7545,Place Monseigneur-C.-E.-Bourgeois,G8Y 6Z8,46.3780957,-72.6121998
20,Rue des Bouleaux-Blancs,G8V 2G5,46.3989378,-72.5009196
61,Rue des Cerisiers,G8V 1X2,46.4013908,-72.5038561
12,Rue du Parc-Frigon,G8V 2G7,46.3996654,-72.5040783
1675,Rue de Vienne,G8W 0G2,46.3866856,-72.5620071
155,Rue Toupin,G8T3Z8,46.3648378,-72.5037082
20,Rue des Cerisiers,G8V 1X1,46.4009427,-72.5041894
10,Rue des Cerisiers,G8V 1X1,46.4003852,-72.5049901
1,Rue des Mûriers,G8V 1X3,46.3998857,-72.5042970
115,Rue Fusey,G8T 2V6,46.3664512,-72.5259572
90,Rue des Bouleaux-Blancs,G8V 2G6,46.4005257,-72.5032573
11,Rue des Merisiers,G8V 1W8,46.4007451,-72.5058234
12,Rue des Merisiers,G8V 1W9,46.4008221,-72.5055721
23,Rue des Mûriers,G8V 1X3,46.4004060,-72.5035378
41,Rue des Cerisiers,G8V 1X2,46.4010745,-72.5043011
9491,Chemin Sainte-Marguerite,G9B 1Z2,46.3051081,-72.6453295
6600,Boulevard Parent,G9A 5E1,46.3588573,-72.6179673
4125,Boulevard Des Forges,G8Y 1W1,46.3557982,-72.5878397
500,Rue Saint-Georges,G9A 2K8,46.3416868,-72.5458979
5,Rue Duplessis,G8T 7T8,46.3636961,-72.5312224
15,Rue Fusey,G8T 2T3,46.3636833,-72.5299709
30,Rue Fusey,G8T 2T5,46.3637537,-72.5293457
200,Avenue des Draveurs,G9A 5H3,46.3483641,-72.5322055
450,Rue Vachon,G8T 8Y2,46.3717004,-72.5554294
942,Rue Sainte-Geneviève,G9A 3X6,46.3464375,-72.5437274
335,Rue Barkoff,G8T 2A5,46.3729279,-72.5557946
460,Rue Vachon,G8T 8Y2,46.3715696,-72.5555358
355,Rue Barkoff,G8T 2A5,46.3733384,-72.5553059
2650,Rue Royale,G9A 4L5,46.3339637,-72.5497510
255,Rue des Forges,G9A 2G7,46.3419075,-72.5415166
4,Rue des Ormeaux,G8W 1S6,46.3767298,-72.5529321
5380,Boulevard Jean-XXIII,G8Z 4E2,46.3361125,-72.5894483
1650,Rue Saint-Maurice,G8V 2M7,46.3987530,-72.5330525
669,Boulevard Thibeau,G8T 6Z6,46.3832067,-72.5464489
381,Boulevard Thibeau,G8T 6Y6,46.3758510,-72.5369891
1513,Rue Laviolette,G9A 1W5,46.3528024,-72.5506713
199,Rue Fusey,G8T 2W3,46.3689500,-72.5228992
295,Rue des Forges,G8T 2G9,46.3419219,-72.5419562
300,Rue des Forges,G9A 2G8,46.3421555,-72.5419314
282,Rue des Forges,G9A 2G8,46.3421290,-72.5417822
268,Rue des Forges,G9A 2G8,46.3421143,-72.5417037
275,Rue des Forges,G9A 5Z5,46.3419311,-72.5416724
375,Rue des Forges,G9A 2G9,46.3421535,-72.5434234
363,Rue des Forges,G9A 2G9,46.3421398,-72.5432253
1200,Rue Royale,G9A 2C7,46.3440391,-72.5434741
324,Rue des Forges,G9A 2G8,46.3422016,-72.5421508
361,Rue des Forges,G9A 4S8,46.3421345,-72.5431488
379,Rue des Forges,G9A 2H4,46.3421548,-72.5437233
374,Rue des Forges,G9A 5H3,46.3423032,-72.5436309
385,Rue des Forges,G9A 2H4,46.3421678,-72.5439327
350,Rue des Forges,G9A 4S8,46.3423436,-72.5431646
338,Rue des Forges,G9A 2H1,46.3423213,-72.5430071
334,Rue des Forges,G9A 4S8,46.3423010,-72.5428834
120,Rue des Forges,G9A 2G8,46.3420122,-72.5409087
180,Rue des Forges,G9A 2G8,46.3420432,-72.5410414
210,Rue des Forges,G9A 2G8,46.3420580,-72.5412383
1620,Rue Notre-Dame Centre,G9A 6E5,46.3400473,-72.5418667
1300,Rue du Fleuve,G9A 4X8,46.3417624,-72.5377643
42,Rue Saint-Louis,G9A 1T5,46.3428465,-72.5376342
2206,Boulevard des Chenaux,G9A 1A1,46.3643540,-72.5522385
394,Rue Saint-Roch,G9A 2L7,46.3403305,-72.5452400
901,Rue Royale,G9A 4H9,46.3458328,-72.5421625
329,Rue Laviolette,G9A 1V1,46.3448181,-72.5408590
975,Rue Hart,G9A 4S3,46.3443552,-72.5403923
110,Rue Bonaventure,G9A 2B1,46.3431462,-72.5397849
171,Rue Bonaventure,G9A 2A9,46.3433017,-72.5407472
1147,Rue Hart,G9A 4S3,46.3439219,-72.5413864
324,Rue Bonaventure,G9A 2B1,46.3437796,-72.5414958
1400,Rue Notre-Dame Centre,G9A 4X3,46.3420666,-72.5405521
142,Rue Saint-François-Xavier,G9A 1P7,46.3440675,-72.5376034
562,Rue Saint-Georges,G9A 2K8,46.3417818,-72.5465324
329,Rue Saint-Roch,G9A 2L6,46.3398431,-72.5442170
151,Rue Saint-Antoine,G9A 2J3,46.3412032,-72.5418801
163,Rue Saint-Antoine,G9A 2J3,46.3412509,-72.5420595
6865,Boulevard Jean-XXIII,G9A 5C9,46.3251688,-72.5996422
3180,Boulevard Saint-Jean,G9B 2M1,46.3304377,-72.6030511
6275,Rue Corbeil,G8Z 4P9,46.3285583,-72.5954576
6305,Rue Corbeil,G8Z 4P9,46.3291910,-72.5957576
3351,Boulevard des Forges,G9A 5H7,46.3475506,-72.5776047
1400,Rue du Père Marquette,G8Z 3N3,46.3495982,-72.5712280
1603,Rue Badeau,G9A 4T4,46.3406631,-72.5422576
65,Boulevard Sainte-Madeleine,G8T 3K8,46.3634993,-72.5131494
128,Boulevard Sainte-Madeleine,G8T 3L4,46.3649237,-72.5107261
165,Boulevard Sainte-Madeleine,G8T 3L7,46.3653186,-72.5107823
160,Boulevard Sainte-Madeleine,G8T 3L6,46.3656209,-72.5095211
303,Boulevard Sainte-Madeleine,G8T 3M4,46.3678233,-72.5070695
389,Boulevard Sainte-Madeleine,G8T 1G5,46.3690118,-72.5052641
389,Boulevard Sainte-Madeleine,G8T 3M7,46.3687840,-72.5054740
385,Boulevard Sainte-Madeleine,G8T 3M6,46.3683950,-72.5060876
75,Boulevard Sainte-Madeleine,G8T 3K8,46.3637201,-72.5128500
82,Boulevard Sainte-Madeleine,G8T 3K6,46.3634724,-72.5128837
81,Boulevard Sainte-Madeleine,G8T 3K9,46.3640504,-72.5123955
85,Boulevard Sainte-Madeleine,G8T 3K9,46.3642197,-72.5121395
107,Rue Saint-Laurent,G8T 6G2,46.3628304,-72.5139038
90,Rue Dorval,G8T 5X7,46.3629639,-72.5097221
13,Rue Latreille,G8T 3C2,46.3626360,-72.5199057
100,Rue Saint-Irénée,G8T 7C4,46.3648692,-72.5222759
200,Rue Fusey,G8T 2V8,46.3680782,-72.5224968
300,Rue Antoine Pinard,G8T 6K7,46.3691641,-72.5236244
81,Rue Fusey,G8T 2V2,46.3656862,-72.5271529
27,Rue Fusey,G8T 2T3,46.3639578,-72.5295872
35,Rue Fusey,G8T 7S5,46.3641690,-72.5293348
14,Rue Fusey,G8T 2T1,46.3632337,-72.5296510
1005,Chemin de l'Île-Saint-Christophe,G9A 5E3,46.3602477,-72.5322851
25,Rue Notre-Dame Est,G8T 4B4,46.3633701,-72.5281769
475,Rue Vachon,G8T 8P6,46.3708921,-72.5546148
509,Rue Vachon,G8T 8P6,46.3704614,-72.5547593
507,Rue Vachon,G8T 8P6,46.3704952,-72.5548954
519,Rue Vachon,G8T 0C6,46.3701230,-72.5550420
505,Rue Vachon,G8T 8P6,46.3706072,-72.5547923
519,Rue Vachon,G8T 0C6,46.3699283,-72.5551496
517,Rue Vachon,G8T 0C6,46.3699735,-72.5551144
300,Rue Barkoff,G8T 2A3,46.3727216,-72.5588489
569,Boulevard Sainte-Madeleine,G8T 9J8,46.3749816,-72.4962771
3800,Boulevard des Forges,G8Y 4R2,46.3547022,-72.5830244
3790,Boulevard des Forges,G8Y 4R2,46.3544961,-72.5825490
3750,Boulevard des Forges,G8Y 4R2,46.3543429,-72.5823212
3748,Boulevard des Forges,G8Y 4R2,46.3542800,-72.5822410
3734,Boulevard des Forges,G8Y 4R2,46.3541460,-72.5820648
300,Rue Barkoff,G8T 2A3,46.3731283,-72.5586247
3730,Boulevard des Forges,G8Y 4R2,46.3540436,-72.5819540
3726,Boulevard des Forges,G8Y 4R2,46.3539059,-72.5817531
1404,Rue Aubuchon,G8Y 5L3,46.3545189,-72.5810671
4050,Boulevard des Forges,G8Y 1V7,46.3555008,-72.5839621
3950,Boulevard des Forges,G8Y 1V7,46.3556392,-72.5831975
3960,Boulevard des Forges,G8Y 1V7,46.3558163,-72.5834124
3425,Boulevard Chanoine-Moreau,G8Y 0G7,46.3544154,-72.5793173
300,Rue Barkoff,G8T 2A3,46.3723058,-72.5601097
610,Boulevard du Saint-Maurice,G9A 3P6,46.3535712,-72.5455993
165,Boulevard Sainte-Madeleine,G8T 3L7,46.3658537,-72.5099508
4375,Boulevard des Forges,G8Y 5N9,46.3576728,-72.5910601
6045,Boulevard Jean-XXIII,G8Z 4N8,46.3293585,-72.5943930
4445,Boulevard Gene-H.-Kruger,G9A 4N3,46.3239353,-72.5628230
1785,Boulevard du Carmel,G8Z 3R8,46.3531633,-72.5599942
1785,Boulevard du Carmel,G8Z 3R8,46.3531112,-72.5604857
300,Rue Barkoff,G8T 2A3,46.3735788,-72.5584049
3300,Rue de l'Aéroport,G9A 5E1,46.3656316,-72.6757156
501,Boulevard du Saint-Maurice,G9A 3P6,46.3532918,-72.5431813
850,Boulevard du Saint-Maurice,G9A 3P6,46.3520405,-72.5467548
1400,Rue Saint-Paul,G9A 0B4,46.3539004,-72.5444299
3500,Rue de l'Aéroport,G9A 5E1,46.3624385,-72.6758204
3965,Rue Bellefeuille,G9A 6K8,46.3288650,-72.5644048
4125,Boulevard des Récollets,G9A 5V2,46.3283017,-72.5648130
4145,Boulevard des Récollets,G9A 6M1,46.3281253,-72.5645360
4105,Boulevard des Récollets,G9A 6M1,46.3284476,-72.5649950
4520,Boulevard des Récollets,G9A 4N2,46.3268331,-72.5672257
3305,Boulevard des Récollets,G9A 6M1,46.3311335,-72.5674636
1350,Rue Sainte-Marguerite,G8Z 4N3,46.3435114,-72.5554912
1305,Rue Sainte-Marguerite,G8Z 1W1,46.3426862,-72.5560434
274,Rue Saint-Laurent,G8T 6G7,46.3672661,-72.5194264
1687,Boulevard du Carmel,G8Z 3R8,46.3510788,-72.5589732
42,Rue Vachon,G8T 1Z7,46.3788324,-72.5443446
5550,Boulevard Jean-XXIII,G8Z 4A9,46.3350515,-72.5909119
5800,Boulevard Jean-XXIII,G8Z 4B5,46.3326166,-72.5943415
5065,Boulevard des Forges,G8Y 4Z3,46.3613269,-72.5933655
497,Rue Radisson,G9A 2C7,46.3436081,-72.5449632
2885,Rue des Prairies,G8V 1W5,46.3993527,-72.5358304
2885,Rue des Prairies,G8V 1W5,46.3993306,-72.5352759
2877,Rue des Prairies,G8V 1W5,46.3994645,-72.5354976
1975,Rue des Prairies,G8V 1A6,46.3965483,-72.5441413
3305,Rue Sainte-Marguerite,G8Z 1X1,46.3438421,-72.5747857
4405,Boulevard Gene-H.-Kruger,G9A 4N3,46.3245626,-72.5635142
4485,Boulevard Gene-H.-Kruger,G9A 4N3,46.3236661,-72.5632138
4730,Boulevard Gene-H.-Kruger,G9A 4N1,46.3232623,-72.5664646
4767,Boulevard Gene-H.-Kruger,G9A 4N4,46.3219360,-72.5659711
4767,Boulevard Gene-H.-Kruger,G9A 4N4,46.3222731,-72.5657082
4085,Boulevard des Récollets,G9A 6M1,46.3287043,-72.5660802
4300,Boulevard des Récollets,G9A 6K9,46.3273904,-72.5680686
4200,Boulevard des Récollets,G9A 6K9,46.3275867,-72.5684280
6085,Boulevard Gene-H.-Kruger,G9A 4P1,46.3170519,-72.5693806
1740,Avenue Gilles Villeneuve,G8Y 7B6,46.3478248,-72.5588604
1775,Rue Nicolas Perrot,G9A 1C6,46.3587741,-72.5470320
300,Rue Saint-Laurent,G8T 6G7,46.3704992,-72.5221607
2090,Boulevard Thibeau,G8T 1E7,46.4049464,-72.5755780
2085,Boulevard Thibeau,G8T 9P3,46.4052383,-72.5750905
2115,Boulevard Thibeau,G8T 1E8,46.4057118,-72.5755142
2150,Boulevard Thibeau,G8T 1E9,46.4070952,-72.5764852
480,Rue Barkoff,G8T 9P5,46.3753279,-72.5539440
806,Boulevard Thibeau,G8T 7A6,46.3863327,-72.5515038
4220,Boulevard des Récollets,G9A 4N2,46.3246441,-72.5656622
310,Boulevard Thibeau,G8T 6Y4,46.3741198,-72.5364051
310,Boulevard Thibeau,G8T 6Y4,46.3740325,-72.5362716
310,Boulevard Thibeau,G8T 6Y4,46.3740669,-72.5363389
310,Boulevard Thibeau,G8T 6Y4,46.3739824,-72.5362059
345,Boulevard Thibeau,G8T 6Y6,46.3748936,-72.5356399
450,Boulevard Thibeau,G8T 6Y6,46.3770295,-72.5391020
255,Boulevard Thibeau,G8T 6Y1,46.3717920,-72.5353126
265,Boulevard Thibeau,G8T 6Y3,46.3724055,-72.5352590
270,Boulevard Thibeau,G8T 6Y4,46.3728709,-72.5359161
1445,Rue Saint-Maurice,G8V 2N1,46.3953854,-72.5292938
1425,Rue Saint-Maurice,G8V 2N1,46.3949600,-72.5285106
1405,Rue Saint-Maurice,G8V 2N1,46.3948286,-72.5282370
1610,Rue Saint-Maurice,G8V 2M7,46.3982026,-72.5323344
708,Boulevard Thibeau,G8T 7A3,46.3840702,-72.5482519
700,Boulevard Thibeau,G8T 7A1,46.3836964,-72.5483431
700,Boulevard Thibeau,G8T 7A1,46.3836039,-72.5482948
393,Rue Barkoff,G8T 2A5,46.3735369,-72.5549767
313,Rue Barkoff,G8T 2A5,46.3726474,-72.5563180
313,Rue Barkoff,G8T 2A5,46.3725591,-72.5564255
4,Rue des Ormeaux,G8W 1S6,46.3766510,-72.5524513
4,Rue des Ormeaux,G8W 1S6,46.3767071,-72.5528265
4,Rue des Ormeaux,G8W 1S6,46.3766884,-72.5526744
900,Boulevard Thibeau,G8T 7A6,46.3889916,-72.5526992
600,Rue Barkoff,G8W 9T7,46.3786178,-72.5512551
905,Boulevard Thibeau,G8T 7B1,46.3894603,-72.5522462
4845,Boulevard des Forges,G8Y 4Z3,46.3604326,-72.5918872
12270,Rue Notre-Dame Ouest,G9B 6X2,46.2908980,-72.6969078
345,Boulevard du Saint-Maurice,G9A 3N8,46.3542590,-72.5419931
12271,Rue Notre-Dame Ouest,G9B 6X3,46.2881404,-72.6990280
7710,Rue Notre-Dame,G9B 1L9,46.3078324,-72.5859623
8585,Rue Notre-Dame Ouest,G9B 2H9,46.2978544,-72.6123041
7055,Boulevard des Forges,G8Y 1Y7,46.3708360,-72.6076745
12751,Rue Notre-Dame Ouest,G9B 6X3,46.2922155,-72.7120355
925,Rue Laviolette,G9A 1V9,46.3487000,-72.5458786
1425,Place de l'hotel de Ville,G9A 5H3,46.3427874,-72.5428018
1425,Place de l'hotel de Ville,G9A 5H3,46.3427624,-72.5427173
5550,Boulevard des Forges,G8Y 1X7,46.3643519,-72.5960585
149,Rue Bonaventure,G9A 2A9,46.3431791,-72.5404413
10,Rue Vaillancourt,G8T 1Y5,46.3810784,-72.5451136
9151,Rue Notre-Dame Ouest,G9B 6T2,46.2951414,-72.6187425
4050,Boulevard des Forges,G8Y 1V7,46.3554475,-72.5841289
3425,Rue Lefort,G8Y5P9,46.3387479,-72.6035938
3775,Rue des Ardennes,G9B0X2,46.3344754,-72.6220179
6285,Rue Corbeil,G8Z 4P9,46.3288206,-72.5959745
3135,Boulevard Saint-Jean,G9B 2M3,46.3287605,-72.6023713
3095,Boulevard Saint-Jean,G9B 2M3,46.3279177,-72.6008646
155,Rue Toupin,G8T3Z8,46.3646876,-72.5051676
2420,Boulevard Thibeau,G8T 1E9,46.4099053,-72.5759588
11350,Rue Notre Dame O,G9B 6W4,46.2850161,-72.6778950
2,Rue des Ormeaux,G8W 1S6,46.3765422,-72.5518844
397,Rue Barkoff,G8T 2A5,46.3736278,-72.5547498
6157,Rue Corbeil,G8Z 4S6,46.3273530,-72.5933753
6215,Rue Corbeil,G8Z 4S6,46.3277250,-72.5939801
5740,Boulevard Jean-XXIII,G8Z 4B5,46.3329150,-72.5938825
5680,Boulevard Jean-XXIII,G8Z 3Z8,46.3328938,-72.5930940
3160,Boulevard Thibeau,G8T 1G5,46.4252509,-72.5976953
2845,Boulevard Thibeau,G8T 1G1,46.4207228,-72.5901121
2825,Boulevard Thibeau,G8T 1G1,46.4201097,-72.5893937
2880,Boulevard Thibeau,G8T 1G2,46.4203144,-72.5908107
2800,Boulevard Thibeau,G8T 1G2,46.4188798,-72.5889512
2800,Boulevard Thibeau,G8T 1G2,46.4190484,-72.5891599
2800,Boulevard Thibeau,G8T 1G2,46.4191477,-72.5892823
2785,Boulevard Thibeau,G8T 1G1,46.4192866,-72.5880480
2800,Boulevard Thibeau,G8T 1G2,46.4193709,-72.5892715
2800,Boulevard Thibeau,G8T 1G2,46.4192543,-72.5894154
3005,Boulevard Thibeau,G8T 1G1,46.4234960,-72.5942651
2720,Boulevard Thibeau,G8T 1G2,46.4172411,-72.5861791
2675,Boulevard Thibeau,G8T 1G1,46.4170520,-72.5849544
2665,Boulevard Thibeau,G8T 1G1,46.4167418,-72.5844723
2625,Boulevard Thibeau,G8T 1G1,46.4162637,-72.5838183
2560,Boulevard Thibeau,G8T 1G2,46.4146466,-72.5823855
2545,Boulevard Thibeau,G8T 1G1,46.4149832,-72.5817702
2505,Boulevard Thibeau,G8T 1G1,46.4144707,-72.5810047
2489,Boulevard Thibeau,G8T 1G1,46.4140667,-72.5805196
2445,Boulevard Thibeau,G8T 1G1,46.4134549,-72.5794173
2415,Boulevard Thibeau,G8T 1G1,46.4130168,-72.5787535
2420,Boulevard Thibeau,G8T 1E9,46.4122724,-72.5788711
2385,Boulevard Thibeau,G8T 1G1,46.4119320,-72.5774152
2377,Boulevard Thibeau,G8T 1G1,46.4120474,-72.5772557
2195,Boulevard Thibeau,G8T 1E8,46.4077338,-72.5754232
81,Rue Louis-Alma-Pépin,G8T 9R6,46.4065403,-72.5766431
526,Rue du Ruisseau-Martin,G8T 1E2,46.4095549,-72.5742742
621,Rue Raymond-Pépin,G8W 1G3,46.4059937,-72.5769868
3800,Boulevard Thibeau,G8W 2H5,46.4377903,-72.6134991
3710,Boulevard Thibeau,G8W 2H5,46.4363663,-72.6114000
3715,Boulevard Thibeau,G8W 2H3,46.4367158,-72.6111394
761,Rue des Marguerites,G8W 2B6,46.4395507,-72.6182725
2315,Boulevard Thibeau,G8T 1G1,46.4109674,-72.5757038
3680,Boulevard Thibeau,G8W 2H5,46.4357806,-72.6105406
1180,Boulevard Thibeau,G8T 7B4,46.3965080,-72.5633540
1165,Boulevard Thibeau,G8T 7B5,46.3958268,-72.5614434
1154,Boulevard Thibeau,G8T 7B4,46.3953245,-72.5615293
1130,Boulevard Thibeau,G8T 7B2,46.3941712,-72.5599344
1158,Boulevard Thibeau,G8T 7B4,46.3953873,-72.5616264
1138,Boulevard Thibeau,G8T 7B4,46.3950764,-72.5613648
5030,Boulevard des Forges,G8Y 1X2,46.3617022,-72.5925014
4910,Boulevard des Forges,G8Y 1X1,46.3614954,-72.5918819
300,Rue Barkoff,G8T 2A3,46.3720137,-72.5597128
300,Rue Barkoff,G8T 2A3,46.3722434,-72.5596922
505,Rue Barkoff,G8T 2A5,46.3749632,-72.5527795
525,Rue Barkoff,G8T 2A5,46.3752936,-72.5523952
300,Rue Barkoff,G8T 2A3,46.3732163,-72.5589974
300,Rue Barkoff,G8T 2A3,46.3734886,-72.5588823
300,Rue Barkoff,G8T 2A3,46.3737211,-72.5579122
300,Rue Barkoff,G8T 2A3,46.3730121,-72.5586974
300,Rue Chapleau,G8T 2A3,46.3721402,-72.5592915
375,Rue Vachon,G8T 8P6,46.3724942,-72.5533402
54,Rue Saint-Émile,G8T 7P5,46.3727315,-72.5380649
645,Boulevard Thibeau,G8T 6Z6,46.3826702,-72.5449453
824,Boulevard Thibeau,G8T 7A6,46.3871329,-72.5521905
1030,Boulevard Thibeau,G8T 7B2,46.3924342,-72.5573109
1060,Boulevard Thibeau,G8T 7B2,46.3930745,-72.5582969
1040,Boulevard Thibeau,G8T 7B2,46.3926600,-72.5576599
1063,Boulevard Thibeau,G8T 7B3,46.3935833,-72.5575772
730,Boulevard des Récollets,G8Z 3W2,46.3601094,-72.5707681
736,Boulevard des Récollets,G8Z 3W2,46.3602809,-72.5709046
780,Boulevard des Récollets,G8Z 3W2,46.3603921,-72.5711706
820,Boulevard des Récollets,G8Z 3W2,46.3603341,-72.5712441
840,Boulevard des Récollets,G8Z 3W2,46.3603945,-72.5713807
830,Boulevard des Récollets,G8Z 3W2,46.3602592,-72.5713387
850,Boulevard des Récollets,G8Z 3W2,46.3599259,-72.5715907
3640,Rue de la Pinède,G8Y 1G5,46.3600056,-72.5720002
855,Boulevard des Récollets,G8Z 3W4,46.3589878,-72.5712282
875,Boulevard des Récollets,G8Z 3W6,46.3587665,-72.5713043
875,Boulevard des Récollets,G8Z 3W6,46.3587665,-72.5711542
940,Boulevard des Récollets,G8Z 3W9,46.3585385,-72.5728347
1005,Boulevard des Récollets,G8Y 0A6,46.3587883,-72.5735482
1080,Boulevard des Récollets,G8Z 3X1,46.3574315,-72.5738164
1110,Boulevard des Récollets,G8Z 3X2,46.3568280,-72.5743770
3605,Rue Papineau,G8Y 1N7,46.3569261,-72.5746667
3607,Rue Papineau,G8Y 1N7,46.3570131,-72.5745889
3625,Rue Papineau,G8Y 1N7,46.3572390,-72.5749564
1250,Boulevard des Récollets,G8Z 3X2,46.3550423,-72.5763665
1280,Boulevard des Récollets,G8Z 3X2,46.3546593,-72.5769625
450,Rue Saint-Laurent,G8T 6B9,46.3753418,-72.5304969
1300,Boulevard des Récollets,G8Z 3X2,46.3545387,-72.5771372
1336,Boulevard des Récollets,G8Z 3X2,46.3544323,-72.5773387
1340,Boulevard des Récollets,G8Z 4L5,46.3541585,-72.5775504
1330,Boulevard des Récollets,G8Z 4L5,46.3542777,-72.5776305
1360,Boulevard des Récollets,G8Z 4L5,46.3534691,-72.5785986
1374,Boulevard des Récollets,G8Z 4L5,46.3533187,-72.5787631
1400,Boulevard des Récollets,G8Z 4L5,46.3531679,-72.5789411
1420,Boulevard des Récollets,G8Z 4L5,46.3530846,-72.5790138
3496,Boulevard des Forges,G8Z 5H5,46.3529016,-72.5792255
3490,Boulevard des Forges,G8Z 5H5,46.3527980,-72.5794413
3480,Boulevard des Forges,G8Z 5H5,46.3527455,-72.5796859
3488,Boulevard des Forges,G8Z 5H5,46.3527541,-72.5799367
3540,Boulevard des Forges,G8Z 5H5,46.3528009,-72.5800970
3456,Boulevard des Forges,G8Z 5H5,46.3528576,-72.5802676
3548,Boulevard des Forges,G8Z 5H5,46.3529458,-72.5803649
3760,Boulevard des Forges,G8Y 4R2,46.3544109,-72.5824151
3780,Boulevard des Forges,G8Y 4R2,46.3542072,-72.5821737
3550,Boulevard des Forges,G8Z 5H5,46.3530280,-72.5805309
3580,Boulevard des Forges,G8Z 5H5,46.3531460,-72.5807378
3590,Boulevard des Forges,G8Z 5H5,46.3532327,-72.5808314
3600,Boulevard des Forges,G8Z 5H5,46.3533289,-72.5809378
3650,Boulevard des Forges,G8Z 5H5,46.3534498,-72.5810592
3720,Boulevard des Forges,G8Y 4R2,46.3537944,-72.5815166
4125,Boulevard des Forges,G8Y 1W1,46.3549017,-72.5879763
4125,Boulevard des Forges,G8Y 1W1,46.3550597,-72.5881749
4125,Boulevard des Forges,G8Y 1W1,46.3552367,-72.5883183
4125,Boulevard des Forges,G8Y 1W1,46.3555507,-72.5887402
4225,Boulevard des Forges,G8Y 1W1,46.3558153,-72.5894158
4125,Boulevard des Forges,G8Y 1W1,46.3558343,-72.5890077
4125,Boulevard des Forges,G8Y 1W1,46.3557630,-72.5888656
4125,Boulevard des Forges,G8Y 1W1,46.3557258,-72.5887613
4125,Boulevard des Forges,G8Y 1W1,46.3554799,-72.5872283
4225,Boulevard des Forges,G8Y 1W1,46.3555867,-72.5874910
4225,Boulevard des Forges,G8Y 1W1,46.3557630,-72.5877105
4125,Boulevard des Forges,G8Y 1W1,46.3559369,-72.5880308
4125,Boulevard des Forges,G8Y 1W1,46.3560114,-72.5879372
4125,Boulevard des Forges,G8Y 1V1,46.3570843,-72.5897689
4125,Boulevard des Forges,G8Y 1V1,46.3561455,-72.5884698
4375,Boulevard des Forges,G8Y 5N9,46.3562548,-72.5886137
4225,Boulevard des Forges,G8Y 1W2,46.3568285,-72.5891967
4225,Boulevard des Forges,G8Y 1W2,46.3562250,-72.5886965
4375,Boulevard des Forges,G8Y 1W1,46.3566075,-72.5897761
4375,Boulevard des Forges,G8Y 5N9,46.3567913,-72.5901072
4355,Boulevard des Forges,G8Y 5N9,46.3572219,-72.5899841
4225,Boulevard des Forges,G8Y 1W2,46.3572600,-72.5901909
4125,Boulevard des Forges,G8Y 1W1,46.3573932,-72.5904336
4375,Boulevard des Forges,G8Y 5N9,46.3576559,-72.5906542
4225,Boulevard des Forges,G8Y 1W2,46.3574694,-72.5910237
1805,Boulevard des Forges,G8Z 0A8,46.3447728,-72.5597648
1805,Boulevard des Forges,G8Z 0A8,46.3448617,-72.5602921
3300,Boulevard des Forges,G8Z 1V6,46.3499296,-72.5730033
1310,Rue Sainte-Marguerite,G8Z 1V7,46.3432844,-72.5545898
1119,Rue Sainte-Marguerite,G8Z 1Y2,46.3427222,-72.5542352
1123,Rue Sainte-Marguerite,G8Z 1Y2,46.3427676,-72.5545639
1305,Rue Sainte-Marguerite,G8Z 1W1,46.3427676,-72.5557884
959,Boulevard des Forges,G8Z 1T7,46.3439345,-72.5517166
883,Boulevard des Forges,G8Z 1T7,46.3438012,-72.5509683
991,Rue Saint-Roch,G8Z 1Y2,46.3424117,-72.5529949
1920,Rue Bellefeuille,G9A 3Y2,46.3409436,-72.5514455
1850,Rue Bellefeuille,G9A 3Y2,46.3405667,-72.5524500
675,Rue des Forges,G9A 2J7,46.3425669,-72.5480558
564,Rue des Forges,G9A 2H5,46.3426802,-72.5462246
1413,Rue Notre-Dame Centre,G9A 4X1,46.3418976,-72.5402702
1620,Rue Notre-Dame Centre,G9A 6E5,46.3400486,-72.5430633
1150,Rue Royale,G9A 4J1,46.3445043,-72.5432231
3470,Rue Louis-Pasteur,G8Z 4E9,46.3571419,-72.5638903
3175,Boulevard Laviolette,G8Z 3W2,46.3588335,-72.5674415
5250,Boulevard Jean-XXIII,G8Z 4A7,46.3371014,-72.5887224
5350,Boulevard Jean-XXIII,G8Z 4A7,46.3370400,-72.5892463
5360,Boulevard Jean-XXIII,G8Z 4A7,46.3365556,-72.5891881
5362,Boulevard Jean-XXIII,G8Z 4A7,46.3365028,-72.5892369
5364,Boulevard Jean-XXIII,G8Z 4A7,46.3364604,-72.5892713
5355,Boulevard Jean-XXIII,G8Z 4A6,46.3359975,-72.5887994
5305,Boulevard Jean-XXIII,G8Z 4A6,46.3363338,-72.5883904
5363,Boulevard Jean-XXIII,G8Z 4A6,46.3357293,-72.5889207
5979,Boulevard Jean-XXIII,G8Z 4A6,46.3356456,-72.5889680
5385,Boulevard Jean-XXIII,G8Z 4A6,46.3355959,-72.5890461
5433,Boulevard Jean-XXIII,G8Z 4A6,46.3355206,-72.5891364
5445,Boulevard Jean-XXIII,G8Z 4A6,46.3354480,-72.5892240
5495,Boulevard Jean-XXIII,G8Z 4A8,46.3349661,-72.5899729
5575,Boulevard Jean-XXIII,G8Z 4A8,46.3342514,-72.5904588
5605,Boulevard Jean-XXIII,G8Z 4A8,46.3340756,-72.5908754
5640,Boulevard Jean-XXIII,G8Z 4B1,46.3339316,-72.5919759
5650,Boulevard Jean-XXIII,G8Z 4B3,46.3335465,-72.5924753
5654,Boulevard Jean-XXIII,G8Z 4B3,46.3333963,-72.5926132
5658,Boulevard Jean-XXIII,G8Z 4B3,46.3333434,-72.5926745
5662,Boulevard Jean-XXIII,G8Z 4B3,46.3332885,-72.5927453
5670,Boulevard Jean-XXIII,G8Z 4B3,46.3332525,-72.5928001
5655,Boulevard Jean-XXIII,G8Z 4B4,46.3331320,-72.5918195
5655,Boulevard Jean-XXIII,G8Z 4B4,46.3330972,-72.5918681
5667,Boulevard Jean-XXIII,G8Z 4B4,46.3327532,-72.5921421
5679,Boulevard Jean-XXIII,G8Z 4B4,46.3326641,-72.5922337
5683,Boulevard Jean-XXIII,G8Z 4B4,46.3325603,-72.5923558
5689,Boulevard Jean-XXIII,G8Z 4B4,46.3325198,-72.5924051
5691,Boulevard Jean-XXIII,G8Z 4B4,46.3324738,-72.5924395
5770,Boulevard Jean-XXIII,G8Z 4B5,46.3327089,-72.5940502
5840,Boulevard Jean-XXIII,G8Z 4B5,46.3321933,-72.5937544
5885,Boulevard Jean-XXIII,G8Z 4N8,46.3301122,-72.5933857
5935,Boulevard Jean-XXIII,G8Z 4N8,46.3297739,-72.5938477
5955,Boulevard Jean-XXIII,G8Z 4N8,46.3296627,-72.5939912
5965,Boulevard Jean-XXIII,G8Z 4N8,46.3296023,-72.5940612
5985,Boulevard Jean-XXIII,G8Z 4N8,46.3295080,-72.5942047
3100,Boulevard Saint-Jean,G9B 2M9,46.3289328,-72.6001369
3225,Boulevard Saint-Jean,G9B 1X5,46.3303317,-72.6041886
6600,Boulevard Jean-XXIII,G9A 5C9,46.3263737,-72.5996700
6800,Boulevard Jean-XXIII,G9A 5C9,46.3260764,-72.5998660
6855,Boulevard Jean-XXIII,G9A 5C9,46.3253899,-72.5994110
7050,Boulevard Jean-XXIII,G9A 5C9,46.3245246,-72.6011786
6300,Rue Christophe-Pélissier,G9A 5C9,46.3248903,-72.5966723
5225,Boulevard Jean-XXIII,G8Z 4A5,46.3370702,-72.5876990
7100,Boulevard Gene-H.-Kruger,G9A 5A7,46.3161509,-72.5717507
7200,Rue Marion,G9A 0A5,46.3171275,-72.5723925
2944,Boulevard des Récollets,G9A 6J2,46.3312449,-72.5724100
3125,Boulevard des Récollets,G9A 6M1,46.3317179,-72.5694355
3145,Boulevard des Récollets,G9A 6M1,46.3318633,-72.5691440
3201,Boulevard des Récollets,G9A 6M1,46.3319661,-72.5688396
3245,Boulevard des Récollets,G9A 6M1,46.3317584,-72.5682949
3315,Boulevard des Récollets,G9A 6M1,46.3309955,-72.5673021
3317,Boulevard des Récollets,G9A 6M1,46.3309239,-72.5672025
3335,Boulevard des Récollets,G9A 6M1,46.3306266,-72.5668024
3245,Boulevard des Récollets,G9A 6M1,46.3317283,-72.5683699
3265,Boulevard des Récollets,G9A 6M1,46.3315929,-72.5682025
3215,Boulevard des Récollets,G9A 6M1,46.3319393,-72.5686679
3325,Boulevard des Récollets,G9A 6M1,46.3308799,-72.5670992
3805,Rue Bellefeuille,G9A 5Z6,46.3297250,-72.5626801
3905,Rue Bellefeuille,G9A 6K8,46.3293483,-72.5637712
5505,Rue Marion,G9A 6L1,46.3283300,-72.5690286
5009,Rue Marion,G9A 0G1,46.3283986,-72.5691155
5015,Rue Marion,G9A 6M9,46.3284722,-72.5691974
5055,Rue Marion,G9A 0A1,46.3287673,-72.5698854
5065,Rue Marion,G9A 0G1,46.3287898,-72.5700254
5075,Rue Marion,G9A 0G1,46.3288146,-72.5701855
5095,Rue Marion,G9A 6M9,46.3288321,-72.5703117
4100,Boulevard des Récollets,G9A 6K9,46.3279617,-72.5683880
4640,Boulevard des Récollets,G9A 4N2,46.3256751,-72.5644580
4301,Boulevard Gene-H.-Kruger,G9A 4M9,46.3249465,-72.5631584
4271,Boulevard Gene-H.-Kruger,G9A 4M9,46.3250425,-72.5630172
4520,Boulevard des Récollets,G9A 4N2,46.3248579,-72.5657330
4905,Rue Bellefeuille,G9A 6B4,46.3255364,-72.5698111
4915,Rue Bellefeuille,G9A 6B4,46.3254757,-72.5699160
555,Côte Richelieu,G9A 5V4,46.3251218,-72.5716017
4948,Rue Bellefeuille,G9A 5Y4,46.3247342,-72.5720949
4954,Rue Bellefeuille,G9A 5Y4,46.3246636,-72.5722334
4245,Boulevard des Récollets,G9A 6M1,46.3276805,-72.5639421
4185,Boulevard des Récollets,G9A 6M1,46.3279556,-72.5642563
4520,Boulevard des Récollets,G9A 4N2,46.3266703,-72.5668706
4520,Boulevard des Récollets,G9A 4N2,46.3265954,-72.5666571
4250,Boulevard des Récollets,G9A 4N2,46.3264842,-72.5664926
4250,Boulevard des Récollets,G9A 4N2,46.3264335,-72.5666396
4250,Boulevard des Récollets,G9A 4N2,46.3258582,-72.5664366
4250,Boulevard des Récollets,G9A 4N2,46.3259283,-72.5662756
4250,Boulevard des Récollets,G9A 4N2,46.3254086,-72.5673081
4250,Boulevard des Récollets,G9A 4N2,46.3254932,-72.5674307
4250,Boulevard des Récollets,G9A 4N2,46.3256310,-72.5672661
4250,Boulevard des Récollets,G9A 4N2,46.3257930,-72.5665591
4250,Boulevard des Récollets,G9A 4N2,46.3252008,-72.5666116
4680,Boulevard Gene-H.-Kruger,G9A 4N1,46.3235015,-72.5662721
4727,Boulevard Gene-H.-Kruger,G9A 4N4,46.3227216,-72.5654197
4945,Boulevard Gene-H.-Kruger,G9A 4N5,46.3215435,-72.5663228
5216,Boulevard Gene-H.-Kruger,G9A 4N6,46.3210793,-72.5675807
5426,Boulevard Gene-H.-Kruger,G9A 4N8,46.3206038,-72.5679178
5217,Boulevard Gene-H.-Kruger,G9A 4N5,46.3207337,-72.5670011
5217,Boulevard Gene-H.-Kruger,G9A 4N5,46.3206308,-72.5670109
5500,Boulevard Gene-H.-Kruger,G9A 0A4,46.3199473,-72.5683128
5800,Boulevard Gene-H.-Kruger,G9A 4P2,46.3193459,-72.5692199
5725,Boulevard Gene-H.-Kruger,G9A 4P2,46.3190509,-72.5682063
5820,Boulevard Gene-H.-Kruger,G9A 4P2,46.3186291,-72.5691572
5825,Boulevard Gene-H.-Kruger,G9A 4P1,46.3181030,-72.5689212
4201,Boulevard Gene-H.-Kruger,G9A 4M9,46.3258420,-72.5620825
4201,Boulevard Gene-H.-Kruger,G9A 4M9,46.3257720,-72.5621990
4201,Boulevard Gene-H.-Kruger,G9A 4M9,46.3257174,-72.5622929
4565,Boulevard des Récollets,G9A 5V2,46.3263672,-72.5633130
4575,Boulevard des Récollets,G9A 5V2,46.3261287,-72.5630090
4100,Boulevard Gene-H.-Kruger,G9A 4M5,46.3265325,-72.5620607
3851,Boulevard Gene-H.-Kruger,G9A 4M4,46.3268101,-72.5605011
3900,Boulevard Gene-H.-Kruger,G9A 4M7,46.3272852,-72.5608715
3900,Boulevard Gene-H.-Kruger,G9A 4M7,46.3271635,-72.5610766
3780,Boulevard Gene-H.-Kruger,G9A 4M3,46.3285494,-72.5590329
3550,Boulevard Gene-H.-Kruger,G9A 4M3,46.3296878,-72.5571603
3400,Boulevard Gene-H.-Kruger,G9A 4M3,46.3308126,-72.5558859
3320,Boulevard Gene-H.-Kruger,G9A 3M3,46.3311273,-72.5554540
505,Rue du Père-Daniel,G9A 5Z7,46.3313868,-72.5556420
531,Rue du Père-Daniel,G9A 5Z7,46.3315966,-72.5559618
565,Rue du Père-Daniel,G9A 5Z7,46.3318451,-72.5561897
3400,Boulevard Gene-H.-Kruger,G9A 4M3,46.3315856,-72.5569974
3125,Boulevard Gene-H.-Kruger,G9A 4M2,46.3311245,-72.5540466
3035,Boulevard Gene-H.-Kruger,G9A 4M1,46.3319942,-72.5528631
500,Boulevard de la Commune,G9A 2W2,46.3339488,-72.5506000
2045,Rue Royale,G9A 4L3,46.3370666,-72.5470120
1452,Rue Notre-Dame Centre,G9A 4X5,46.3416299,-72.5407799
1460,Rue Notre-Dame Centre,G9A 4X5,46.3415576,-72.5408489
1468,Rue Notre-Dame Centre,G9A 4X5,46.3415109,-72.5408723
1449,Rue Notre-Dame Centre,G9A 4X5,46.3415891,-72.5404383
1484,Rue Notre-Dame Centre,G9A 4X5,46.3414490,-72.5409123
1500,Rue Notre-Dame Centre,G9A 4X5,46.3413853,-72.5409481
1515,Rue Notre-Dame Centre,G9A 4X7,46.3409533,-72.5408813
1539,Rue Notre-Dame Centre,G9A 4X7,46.3408415,-72.5409821
111,Rue des Forges,G9A 2G7,46.3417720,-72.5409239
225,Rue des Forges,G9A 2G7,46.3417817,-72.5411798
197,Rue Bonaventure,G9A 2A9,46.3434821,-72.5411704
1185,Rue Hart,G9A 4S4,46.3435193,-72.5415132
141,Rue Saint-Antoine,G9A 2J3,46.3411657,-72.5417097
1606,Rue Notre-Dame Centre,G9A 4X6,46.3404509,-72.5415829
1571,Rue Badeaux,G9A 4T4,46.3410555,-72.5421699
1587,Rue Badeaux,G9A 4T4,46.3409647,-72.5422075
85,Rue des Forges,G9A 2G6,46.3416439,-72.5402289
536,Rue Radisson,G9A 2C6,46.3438553,-72.5450577
473,Rue Radisson,G9A 2C7,46.3435378,-72.5447634
445,Rue des Volontaires,G9A 2E7,46.3429639,-72.5442022
1556,Rue Royale,G9A 4K1,46.3418828,-72.5447419
734,Rue des Ursulines,G9A 5B5,46.3440864,-72.5367090
7385,Rue Notre-Dame Ouest,G9B 1L8,46.3115424,-72.5781830
7445,Rue Notre-Dame Ouest,G9B 1L7,46.3109561,-72.5793994
300,Rue Chavigny,G9B 0E9,46.3120918,-72.5801053
225,Rue Delormier,G9B 1C7,46.3073292,-72.5854794
8130,Rue Notre-Dame Ouest,G9B 2J3,46.3023164,-72.5973300
8585,Rue Notre-Dame Ouest,G9B 2H9,46.2978179,-72.6122028
6700,Rue Des Miliciens,G9A 5C9,46.3238783,-72.5958046
6405,Rue Christophe-Pélissier,G9A 5C9,46.3241894,-72.5959932
2480,Rue Charbonneau,G9A 5C9,46.3219642,-72.5968256
2520,Rue Charbonneau,G9A 5C9,46.3221465,-72.5962578
2365,Rue Charbonneau,G9A 5C9,46.3217966,-72.5987440
2450,Rue Charbonneau,G9A 5C9,46.3217350,-72.5975013
2755,Rue Charbonneau,G9A 5C9,46.3237428,-72.5983510
6120,Rue Christophe-Pélissier,G9A 5C9,46.3260638,-72.5959444
6140,Rue Christophe-Pélissier,G9A 5C9,46.3258539,-72.5959563
971,Rue Nérée-Duplessis,G9A 1Z1,46.3483629,-72.5480296
776,Boulevard du Saint-Maurice,G9A 3P6,46.3528842,-72.5467729
600,Boulevard du Saint-Maurice,G9A 3P6,46.3537417,-72.5454529
750,Boulevard du Saint-Maurice,G9A 3P6,46.3533224,-72.5460330
658,Boulevard du Saint-Maurice,G9A 3P6,46.3534958,-72.5457452
910,Boulevard du Saint-Maurice,G9A 3P9,46.3508990,-72.5483306
926,Boulevard du Saint-Maurice,G9A 3P9,46.3507425,-72.5485879
938,Boulevard du Saint-Maurice,G9A 3P9,46.3506506,-72.5487462
1227,Rue Sainte-Julie,G9A 1Y7,46.3504475,-72.5492442
1008,Boulevard du Saint-Maurice,G9A 3R3,46.3502769,-72.5493316
1003,Boulevard du Saint-Maurice,G9A 3R2,46.3500798,-72.5491811
1009,Boulevard du Saint-Maurice,G9A 3R2,46.3499867,-72.5493322
1066,Rue Champflour,G9A 1Z9,46.3485783,-72.5492098
1054,Rue Champflour,G9A 1Z9,46.3484777,-72.5491037
957,Boulevard Thibeau,G8T 7B1,46.3906888,-72.5540328
1008,Rue Champflour,G9A 1Z7,46.3481995,-72.5487564
1120,Rue Bellefeuille,G9A 1T5,46.3470184,-72.5480365
55,Rue Fusey,G8T 2T8,46.3646281,-72.5286510
57,Rue Fusey,G8T 2T8,46.3647386,-72.5284854
63,Rue Fusey,G8T 2T8,46.3648044,-72.5283703
63,Rue Fusey,G8T 2T8,46.3649248,-72.5282155
62,Rue Fusey,G8T 2T7,46.3646951,-72.5280932
54,Rue Fusey,G8T 2T7,46.3645896,-72.5282587
64,Rue Fusey,G8T 2T7,46.3647808,-72.5279384
150,Rue Fusey,G8T 2V8,46.3666961,-72.5245548
190,Rue Fusey,G8T 2V8,46.3676698,-72.5232846
199,Rue Fusey,G8T 2W3,46.3691263,-72.5226389
66,Rue Fusey,G8T 2V1,46.3648985,-72.5277098
76,Rue Fusey,G8T 2V1,46.3649735,-72.5275917
78,Rue Fusey,G8T 2V1,46.3651040,-72.5274626
80,Rue Fusey,G8T 2V1,46.3651615,-72.5273829
82,Rue Fusey,G8T 2V1,46.3652234,-72.5272815
67,Rue Fusey,G8T 2T9,46.3650886,-72.5279483
75,Rue Fusey,G8T 2T9,46.3654144,-72.5275471
77,Rue Fusey,G8T 2V2,46.3656030,-72.5273190
89,Rue Fusey,G8T 2V2,46.3657945,-72.5270045
48,Rue Fusey,G8T 2V2,46.3658583,-72.5268914
105,Rue Fusey,G8T 2V5,46.3662366,-72.5266397
135,Rue Fusey,G8T 2V6,46.3667117,-72.5256498
268,Rue Saint-Laurent,G8T 6G7,46.3667856,-72.5187340
119,Rue Saint-Laurent,G8T 6G4,46.3631801,-72.5145652
111,Rue Saint-Laurent,G8T 6G4,46.3629950,-72.5142248
67,Boulevard Sainte-Madeleine,G8T 3K8,46.3635837,-72.5130534
60,Boulevard Sainte-Madeleine,G8T 3K6,46.3632089,-72.5132320
62,Boulevard Sainte-Madeleine,G8T 3K6,46.3633171,-72.5130655
82,Boulevard Sainte-Madeleine,G8T 3K6,46.3636113,-72.5126192
83,Boulevard Sainte-Madeleine,G8T 3K9,46.3641355,-72.5122798
108,Boulevard Sainte-Madeleine,G8T 3L3,46.3642450,-72.5115074
153,Rue Lorette,G8T 5W8,46.3649211,-72.5116758
124,Boulevard Sainte-Madeleine,G8T 3L4,46.3647202,-72.5110075
165,Boulevard Sainte-Madeleine,G8T 3L7,46.3650940,-72.5111489
165,Boulevard Sainte-Madeleine,G8T 3L7,46.3656223,-72.5103645
150,Boulevard Sainte-Madeleine,G8T 3L6,46.3655506,-72.5096225
164,Boulevard Sainte-Madeleine,G8T 3L6,46.3657071,-72.5094037
288,Boulevard Sainte-Madeleine,G8T 3L9,46.3670261,-72.5075557
3625,Boulevard du Chanoine-Moreau,G8Y 5N6,46.3547332,-72.5778929
3675,Boulevard du Chanoine-Moreau,G8Y 5M6,46.3549006,-72.5775600
3675,Boulevard du Chanoine-Moreau,G8Y 5M6,46.3549928,-72.5775189
1400,Rue Aubuchon,G8Y 5L3,46.3546129,-72.5809055
1410,Rue Aubuchon,G8Y 5L3,46.3544004,-72.5812253
1350,Rue Aubuchon,G8Y 6A8,46.3549551,-72.5798419
1402,Rue Aubuchon,G8Y 5L3,46.3547753,-72.5810325
5655,Boulevard des Forges,G8Y 5L5,46.3643792,-72.5971891
5675,Boulevard des Forges,G8Y 5L5,46.3643052,-72.5973340
5685,Boulevard des Forges,G8Y 5L5,46.3642478,-72.5973340
5695,Boulevard des Forges,G8Y 5L5,46.3641294,-72.5973957
5625,Boulevard des Forges,G8Y 5L5,46.3640923,-72.5967761
5525,Boulevard des Forges,G8Y 5L5,46.3639031,-72.5965794
5505,Boulevard des Forges,G8Y 5L5,46.3636728,-72.5963319
5435,Boulevard des Forges,G8Y 5L5,46.3635269,-72.5960837
5425,Boulevard des Forges,G8Y 5L5,46.3633366,-72.5958079
5375,Boulevard des Forges,G8Y 5L5,46.3630976,-72.5955383
5325,Boulevard des Forges,G8Y 5L5,46.3628589,-72.5952369
5303,Boulevard des Forges,G8Y 5L5,46.3626320,-72.5954301
5315,Boulevard des Forges,G8Y 5L5,46.3626915,-72.5953828
5335,Boulevard des Forges,G8Y 5L5,46.3629648,-72.5953623
5380,Boulevard des Forges,G8Y 1X5,46.3633842,-72.5949692
5360,Boulevard des Forges,G8Y 1X5,46.3632935,-72.5948404
5330,Boulevard des Forges,G8Y 1X5,46.3631972,-72.5946688
5270,Boulevard des Forges,G8Y 1X4,46.3629122,-72.5943094
5250,Boulevard des Forges,G8Y 1X4,46.3627641,-72.5941082
5200,Boulevard des Forges,G8Y 1X4,46.3625402,-72.5936534
4180,Boulevard des Forges,G8Y 1V8,46.3572790,-72.5864661
4170,Boulevard des Forges,G8Y 1V8,46.3572255,-72.5863721
4160,Boulevard des Forges,G8Y 1V8,46.3571914,-72.5863204
5190,Boulevard des Forges,G8Y 1X3,46.3624343,-72.5934565
5170,Boulevard des Forges,G8Y 1X3,46.3623756,-72.5933593
5180,Boulevard des Forges,G8Y 1X3,46.3624911,-72.5935429
5160,Boulevard des Forges,G8Y 1X3,46.3623074,-72.5932562
5050,Boulevard des Forges,G8Y 1X2,46.3618411,-72.5927758
5075,Boulevard des Forges,G8Y 4Z3,46.3614352,-72.5934814
4900,Boulevard des Forges,G8Y 1X1,46.3614097,-72.5917706
4896,Boulevard des Forges,G8Y 1X1,46.3613027,-72.5916039
4891,Boulevard des Forges,G8Y 4Z3,46.3610678,-72.5927896
4887,Boulevard des Forges,G8Y 4Z3,46.3609819,-72.5926652
4869,Boulevard des Forges,G8Y 4Z3,46.3608604,-72.5924961
4885,Boulevard des Forges,G8Y 4Z3,46.3609333,-72.5925783
4863,Boulevard des Forges,G8Y 4Z3,46.3606967,-72.5922660
4855,Boulevard des Forges,G8Y 4Z3,46.3605995,-72.5921181
4850,Boulevard des Forges,G8Y 1W9,46.3608863,-72.5915616
4210,Boulevard des Forges,G8Y 1W3,46.3575853,-72.5871035
4350,Boulevard des Forges,G8Y 1W4,46.3580649,-72.5878185
4250,Boulevard des Forges,G8Y 1W3,46.3577943,-72.5872808
4240,Boulevard des Forges,G8Y 1W3,46.3577343,-72.5871822
4146,Boulevard des Forges,G8Y 1V8,46.3574653,-72.5867220
4190,Boulevard des Forges,G8Y 1V8,46.3573632,-72.5865928
4150,Boulevard des Forges,G8Y 1V8,46.3571493,-72.5862524
4142,Boulevard des Forges,G8Y 1V8,46.3570618,-72.5861632
4130,Boulevard des Forges,G8Y 1V8,46.3568101,-72.5861720
4118,Boulevard des Forges,G8Y 1V8,46.3566946,-72.5860046
4108,Boulevard des Forges,G8Y 1V8,46.3565568,-72.5858175
3950,Boulevard des Forges,G8Y 1V0,46.3554931,-72.5831987
4100,Rue Jacques-De Labadie,G8Y 1T6,46.3570684,-72.5842842
4225,Boulevard des Forges,G8Y 1W1,46.3560525,-72.5882885
1510,Rue Bergeron,G8Y 3E4,46.3702387,-72.6063930
7055,Boulevard des Forges,G8Y 1Y7,46.3709343,-72.6077994
7061,Boulevard des Forges,G8Y 1Y7,46.3710146,-72.6079465
7067,Boulevard des Forges,G8Y 1Y7,46.3710822,-72.6080752
7205,Boulevard des Forges,G8Y 1Y5,46.3716038,-72.6087938
8210,Boulevard des Forges,G8Y 4W2,46.3802295,-72.6232357
2,Rue des Ormeaux,G8W 1S6,46.3765194,-72.5516717
580,Rue Barkoff,G8W 9T7,46.3775564,-72.5517881
580,Rue Barkoff,G8W 9T7,46.3776802,-72.5517787
450,Rue Barkoff,G8T 9P5,46.3748938,-72.5548142
1575,Rue Saint-Maurice,G8V 2N1,46.3968267,-72.5328249
1690,Rue Saint-Maurice,G8V 1W5,46.3990183,-72.5333405
465,Rue Dessureault,G8T 2L8,46.3835160,-72.5198973
2877,Rue des Prairies,G8V 1W5,46.3995165,-72.5353740
2885,Rue des Prairies,G8V 1W5,46.3995602,-72.5352472
1795,Rue Saint-Maurice,G8V 0G6,46.4002728,-72.5362398
45,Rue Robert-Biron,G8V 2L9,46.4019179,-72.5328504
1975,Rue des Prairies,G8V 1A6,46.3963299,-72.5437943
915,Rue Tousignant,G8V 0A6,46.3965878,-72.5432202
1220,Rue Jean Nicolet,G9A 1B2,46.3558500,-72.5406889
1368,Boulevard des Chenaux,G9A 1A1,46.3572463,-72.5405384
1241,Rue Nicolas Perrot,G9A 1C2,46.3552825,-72.5428877
3541,Rue Nérée-Beauchemin,G8Z 1B5,46.3624487,-72.5669165
1100,Place du Technoparc,G9A 0A9,46.3524234,-72.5375640
1400,Rue Saint-Paul,G9A 0B4,46.3536345,-72.5442612
1175,Rue des Prairies,G8W 0N9,46.3817213,-72.5703804
1175,Rue des Prairies,G8W 0N9,46.3816600,-72.5708743
933,Boulevard Thibeau,G8T 7B1,46.3900900,-72.5531782
962,Boulevard Thibeau,G8T 7B2,46.3906728,-72.5547208
975,Boulevard Thibeau,G8T 7B3,46.3913022,-72.5549525
60,Rue du Parc,G8T 0A2,46.3825951,-72.5409540
6300,Rue Marion,G9A 6H3,46.3202506,-72.5793056
6500,Rue Marion,G9A 6H3,46.3198988,-72.5780851
6550,Rue Marion,G9A 6H3,46.3198600,-72.5773975
3380,Rue du Chanoine-Chamberland,G8Z 2T3,46.3370917,-72.5645633
1740,Avenue Gilles Villeneuve,G8Y 7B6,46.3484859,-72.5594132
2905,Boulevard Saint-Michel,G9A 5E1,46.3822259,-72.6675539
240,Boulevard Thibeau,G8T 6Y1,46.3714353,-72.5359876
501,Chemin Toussaint-Biron,G9B 6E1,46.2997972,-72.7020387
12484,Rue Notre-Dame Ouest,G9B 6X2,46.2902070,-72.7035258
7425,Boulevard Jean-XXIII,G9A 5C9,46.3211448,-72.6034028
7200,Boulevard Jean-XXIII,G9A 5C9,46.3227555,-72.6026814
6915,Boulevard Jean-XXIII,G9A 5C9,46.3239707,-72.6007263
6935,Boulevard Jean-XXIII,G9A 5C9,46.3238002,-72.6008614
6975,Boulevard Jean-XXIII,G9A 5C9,46.3236426,-72.6011268
7225,Boulevard Jean-XXIII,G9A 5C9,46.3228081,-72.6012386
7325,Boulevard Jean-XXIII,G9A 5C9,46.3222285,-72.6022740
6990,Rue Dalpé,G9A 5C9,46.3227746,-72.6001961
1720,Rue de la Sidbec Sud,G8Z 4H1,46.3320129,-72.5862990
3351,Boulevard des Forges,G8Z 1V3,46.3489295,-72.5772833
3351,Boulevard des Forges,G8Z 4M3,46.3484547,-72.5771448
844,Boulevard Thibeau,G8T 7A6,46.3874394,-72.5526235
848,Boulevard Thibeau,G8T 7A6,46.3876925,-72.5528659
940,Boulevard des Récollets,G8Z 3W9,46.3587046,-72.5726524
2601,Rue des Vitrines,G9B 2S3,46.3211250,-72.5901428
270,Rue Lacerte,G9A 3C2,46.3185911,-72.5700585
365,Rue Chavigny,G9B 0E9,46.3120482,-72.5824410
1680,Rue de Vienne,G8W 0G3,46.3868626,-72.5619624
1700,Rue de Vienne,G8W 0G3,46.3868534,-72.5626758
1720,Rue de Vienne,G8W 0G3,46.3865629,-72.5635046
1760,Rue de Vienne,G8W 0J4,46.3874950,-72.5641887
1770,Rue de Vienne,G8W 0J4,46.3877443,-72.5643728
1780,Rue de Vienne,G8W 0J4,46.3880043,-72.5642820
1790,Rue de Vienne,G8W 0J4,46.3881621,-72.5644130
1800,Rue de Vienne,G8W 0J4,46.3882017,-72.5647344
1755,Rue de Vienne,G8W 0J4,46.3871925,-72.5642900
1795,Rue de Vienne,G8W 0J4,46.3880471,-72.5648969
1695,Rue de Vienne,G8W 0G2,46.3866620,-72.5627210
1715,Rue de Vienne,G8W 0G2,46.3864489,-72.5633244
4025,Boulevard des Forges,G8Y 1W2,46.3547478,-72.5872761
3235,Boulevard des Récollets,G9A 6M1,46.3318050,-72.5684783
3225,Boulevard des Récollets,G9A 6M1,46.3318791,-72.5685427
407,Rue Barkoff,G8T 2A5,46.3737701,-72.5545390
403,Rue Barkoff,G8T 2A5,46.3737111,-72.5546459
766,Boulevard Thibeau,G8T 7A6,46.3854840,-72.5495114
764,Boulevard Thibeau,G8T 7A6,46.3854266,-72.5494899
468,Rue Vachon,G8T 8Y2,46.3708882,-72.5558094
1170,Rue Bellefeuille,G9A 3T6,46.3460713,-72.5484149
1445,Rue De La Vérendrye,G8Z 2C6,46.3405211,-72.5579830
740,Boulevard des Récollets,G8Z 3W2,46.3604271,-72.5711134
300,Rue Barkoff,G8T 2A3,46.3715712,-72.5600951
4520,Boulevard des Récollets,G9A 4N2,46.3247432,-72.5659694
2605,Rue du Colisée,G9B 2S3,46.3213898,-72.5898299
2400,Rue des Vitrines,G9B 1T9,46.3206110,-72.5868170
2601,Rue des Vitrines,G9B 2S3,46.3211785,-72.5900775
2605,Rue des Vitrines,G9B 2S3,46.3210463,-72.5902596
3351,Boulevard des Forges,G9A 5H7,46.3474900,-72.5768890
3725,Boulevard des Forges,G8Y 4P2,46.3537253,-72.5830991
3725,Boulevard des Forges,G8Y 4P2,46.3536944,-72.5831625
268,Rue des Forges,G9A 2G8,46.3420932,-72.5417173
295,Rue Barkoff,G8T 2A3,46.3719848,-72.5573473
295,Rue Barkoff,G8T 2A3,46.3719485,-72.5573139
7300,Rue Notre-Dame Ouest,G9B 1W8,46.3133845,-72.5760895
7300,Rue Notre-Dame Ouest,G9B 1W8,46.3133728,-72.5760376
5575,Boulevard Jean-XXIII,G8Z 4A8,46.3342740,-72.5904888
1368,Boulevard des Chenaux,G9A 1A1,46.3572406,-72.5405701
2285,Rue Charbonneau,G9A 5C9,46.3215580,-72.5991843
2285,Rue Charbonneau,G9A 5C9,46.3215898,-72.5992122
1905,Boulevard Saint-Louis,G8Z 2N7,46.3550708,-72.5567269
953,Boulevard Thibeau,G8T 7B1,46.3905816,-72.5539218
834,Boulevard Thibeau,G8T 7A6,46.3877401,-72.5514975
834,Boulevard Thibeau,G8T 7A6,46.3879110,-72.5516338
1785,Boulevard du Carmel,G8Z 3R8,46.3532918,-72.5600807
1180,Boulevard Thibeau,G8T 7B4,46.3962646,-72.5633894
980,Boulevard Thibeau,G8T 7B2,46.3912224,-72.5554632
1017,Boulevard Thibeau,G8T 7B3,46.3922196,-72.5561055
1037,Boulevard Thibeau,G8T 7B3,46.3926163,-72.5568824
1037,Boulevard Thibeau,G8T 7B3,46.3926740,-72.5569679
1775,Rue Nicolas Perrot,G9A 1C6,46.3587882,-72.5470090
1775,Rue Nicolas Perrot,G9A 1C6,46.3587695,-72.5469692
775,Rue Berlinguet,G8T 2H1,46.3791566,-72.5366119
155,Rue Toupin,G8T3Z8,46.3648204,-72.5048085
362,Rue Bonaventure,G9A 5J9,46.3445411,-72.5426468
2850,Rue Monseigneur-Saint-Arnaud,G9A 4L9,46.3332072,-72.5546640
275,Rue Barkoff,G8T 2A5,46.3711163,-72.5579010
285,Rue Barkoff,G8T 2A5,46.3714242,-72.5575660
295,Rue Barkoff,G8T 2A3,46.3719528,-72.5571991
305,Rue Barkoff,G8T 2A5,46.3721473,-72.5568056
3351,Boulevard des Forges,G9A 5H7,46.3464080,-72.5793164
580,Boulevard Thibeau,G8T 6Z4,46.3806268,-72.5448923
374,Rue des Forges,G9A 5H3,46.3425902,-72.5436885
1650,Rue Royale,G9A 4K3,46.3408844,-72.5455515
1425,Place de l'hotel de Ville,G9A 5H3,46.3428240,-72.5426315
220,Rue Patry,G8T 2R5,46.3752178,-72.5237181
605,Boulevard Thibeau,G8T 6Z6,46.3817895,-72.5445907
645,Boulevard Thibeau,G8T 6Z6,46.3829701,-72.5448791
701,Boulevard Thibeau,G8T 7A2,46.3842739,-72.5471987
695,Boulevard Thibeau,G8T 7A2,46.3838040,-72.5463372
2930,Boulevard des Récollets,G9A 6J2,46.3316456,-72.5731948
4025,Boulevard des Récollets,G9A 6M1,46.3299885,-72.5654772
4600,Boulevard des Récollets,G9A 4M9,46.3260224,-72.5647825
3600,Boulevard Gene-H.-Kruger,G9A 4M3,46.3298396,-72.5585353
671,Rue des Loisirs,G8W 1E2,46.4229201,-72.6013689
2203,Boulevard des Forges,G8Z 1V1,46.3461865,-72.5653399
1055,Boulevard des Forges,G8Z 4J8,46.3439183,-72.5529030
10555,Chemin Sainte-Marguerite,G9B 6N6,46.2878311,-72.6730724
1745,Boulevard Saint-Louis,G8Z 2N6,46.3529903,-72.5563327
877,Boulevard Thibeau,G8T 7A9,46.3888631,-72.5514405
811,Rue des Ursulines,G9A 5B7,46.3435293,-72.5368388
1199,Rue Laviolette,G9A 3P9,46.3506069,-72.5481470
7531,Rue Notre-Dame Ouest,G9B 1L7,46.3093087,-72.5809385
2000,Avenue des Coopérants,G8Z 4G8,46.3427528,-72.5640294
5390,Rue de Champagne,G8Y 3R9,46.3376425,-72.5927525
60,Rue Jean-Noël-Trudel,G8T 5W3,46.3618316,-72.5067333
1550,Avenue Gilles Villeneuve,G8Z 3R7,46.3478702,-72.5567124
3050,Rue Louis-Pasteur,G8Z 4E3,46.3529840,-72.5629878
1375,Rue de la Terrière,G8Z 1N8,46.3485602,-72.5651414
340,Boulevard du Saint-Maurice,G9A 3N9,46.3547041,-72.5430363
340,Rue Whitehead,G9A 3M1,46.3579724,-72.5459623
730,Rue Guilbert,G8T 5T6,46.3867022,-72.5449643
5005,Boulevard Jean-XXIII,G8Z 4A5,46.3382452,-72.5863644
2775,Boulevard des Récollets,G8Z 4J3,46.3343428,-72.5728664
1191,Rue Boisclair,G8V 2S5,46.3855920,-72.4888246
255,Rue Maurice-L.-Duplessis,G8Y 1H7,46.3654745,-72.5833565
6700,Boulevard des Chenaux,G9C 0K6,46.3532426,-72.6181949
3105,Boulevard des Récollets,G9A 6M1,46.3315726,-72.5698443
4675,Côte Rosemont,G8Y 6R7,46.3530709,-72.6105650
2975,Boulevard des Récollets,G9A 6M1,46.3331026,-72.5695555
687,Boulevard Thibeau,G8T 7A2,46.3839020,-72.5467189
699,Boulevard Thibeau,G8T 7A2,46.3840987,-72.5471050
1250,Boulevard des Forges,G8Z 1V2,46.3471447,-72.5647501
6115,Boulevard Gene-H.-Kruger,G9A 4P1,46.3165365,-72.5699104
6475,Boulevard des Chenaux,G8Y 5A9,46.3566866,-72.6093104
3750,Rue de l' Aéroport,G9A 5E1,46.3590492,-72.6791258
3155,Boulevard Saint-Jean,G9B 2M4,46.3292011,-72.6035695
3185,Boulevard Saint-Jean,G9B 2M4,46.3296312,-72.6037843
3150,Boulevard Saint-Jean,G9B 2M1,46.3302212,-72.6023049
11930,Rue Notre-Dame Ouest,G9B 6X1,46.2879100,-72.6896727
100,Avenue des Draveurs,G9A 5H3,46.3468965,-72.5318850
7775,Chemin Sainte-Marguerite,G9A 5C9,46.3196147,-72.6067695
7715,Boulevard Jean-XXIII,G9A 5C9,46.3203323,-72.6056107
761,Rue des Prairies,G8W 2E5,46.3829876,-72.5837685
1,Rue des Ormeaux,G8W 1R5,46.3760947,-72.5533285
700,Boulevard Thibeau,G8T 7A1,46.3835267,-72.5483894
445,Rue Vachon,G8T 8P6,46.3714313,-72.5545558
915,Boulevard Thibeau,G8T 7B1,46.3900439,-72.5524532
915,Boulevard Thibeau,G8T 7B1,46.3898569,-72.5527043
680,Boulevard Thibeau,G8T 7A1,46.3833989,-72.5476810
1300,Place du Technoparc,G9A 0A9,46.3528658,-72.5390972
11760,Rue Notre-Dame Ouest,G9B 6W8,46.2871413,-72.6849493
6730,Rue des Alpes,G9C 0K8,46.3540171,-72.6195877
1500,Boulevard Arthur-Rousseau,G9B 0X4,46.3174945,-72.5803737
7201,Rue Notre-Dame Ouest,G9B 1W2,46.3132281,-72.5736368
10911,Rue Notre-Dame Ouest,G9B 6V8,46.2782644,-72.6679520
7900,Boulevard des Forges,G8Y 4W2,46.3777645,-72.6182074
635;643,Rue des Ursulines,G9A 5B3,46.3446869,-72.5345067
2000,Rue des Grands-Marchés,G9B 0Y9,46.3190021,-72.5836119
5545,Boulevard Jean-XXIII,G8Z 4A8,46.3346678,-72.5900835
665,Boulevard Thibeau,G8T 6Z6,46.3831145,-72.5460330
6455,Rue Notre-Dame Ouest,G9A 5A6,46.3159385,-72.5682146
1755,Boulevard Arthur-Rousseau,G9B 0X4,46.3160155,-72.5827068
4075,Boulevard des Récollets,G9A 6M1,46.3288779,-72.5663859
350,Rue Barkoff,G8T 9P5,46.3743013,-72.5572856
6880,Boulevard Jean-XXIII,G9A 5C9,46.3250812,-72.6005311
4900,Rue Réal-Proulx,G9A 6P9,46.3296280,-72.5820372
4800,Rue Réal-Proulx,G9A 6P9,46.3299213,-72.5812914
4700,Rue Réal-Proulx,G9A 6P9,46.3302413,-72.5805977
5000,Rue Réal-Proulx,G9A 6P9,46.3294895,-72.5808015
850,Brunet,G9A 5W1,46.3286756,-72.5743065
42,Rue des Casernes,G9A 1X2,46.3419839,-72.5383968
4000,Boulevard des Récollets,G9A 6K9,46.3282672,-72.5680641
6000,Rue Christophe-Pélissier,G9A 5C9,46.3268949,-72.5969741
6125,Rue Corbeil,G8Z 4S6,46.3269785,-72.5930059
6075,Rue Corbeil,G8Z 4S6,46.3265537,-72.5924237
6055,Rue Corbeil,G8Z 4S6,46.3265873,-72.5914403
5985,Rue Corbeil,G8Z 4T3,46.3274634,-72.5898287
5955,Rue Corbeil,G8Z 4T3,46.3280491,-72.5893599
3150,Boulevard Saint-Jean,G9B 2M1,46.3302971,-72.6026670
456,Rue Niverville,G9A 2A2,46.3450860,-72.5435432
3000,Boulevard des Récollets,G9A 6J2,46.3304749,-72.5712543
3320,Rue de Chambois,G8Y 3N1,46.3398504,-72.6004391
6060,Boulevard Jean-XXIII,G8Z 4B5,46.3315212,-72.5957250
5848,Boulevard Jean-XXIII,G8Z 4B5,46.3320774,-72.5943470
5850,Boulevard Jean-XXIII,G8Z 4B5,46.3317675,-72.5942783
5850,Boulevard Jean-XXIII,G8Z 4B5,46.3316369,-72.5948072
4400,Côte Rosemont,G8Y 0A5,46.3522198,-72.6069757
4500,Côte Rosemont,G8Y 6Z5,46.3529168,-72.6079648
4500,Côte Rosemont,G8Y 6Z5,46.3527127,-72.6079615
3070,Boulevard des Forges,G8Z 1V5,46.3486240,-72.5699788
3050,Boulevard des Forges,G8Z 1V5,46.3485983,-72.5697557
3130,Boulevard des Forges,G8Z 1V5,46.3490772,-72.5709960
3120,Boulevard des Forges,G8Z 1V5,46.3488943,-72.5708989
3119,Boulevard des Forges,G8Z 1V4,46.3482327,-72.5703008
3035,Boulevard des Forges,G8Z 1V4,46.3479709,-72.5696680
3097,Boulevard des Forges,G8Z 1V4,46.3482149,-72.5702512
3076,Boulevard des Forges,G8Z 1V5,46.3486098,-72.5700849
3080,Boulevard des Forges,G8Z 1V5,46.3486216,-72.5701188
3132,Boulevard des Forges,G8Z 1V4,46.3482928,-72.5704669
3119,Boulevard des Forges,G8Z 1V4,46.3482511,-72.5703515
3095,Boulevard des Forges,G8Z 1V4,46.3481821,-72.5701414
3025,Boulevard des Forges,G8Z 1V4,46.3479425,-72.5695887
4950,Rue de Montlieu,G8Y 7H3,46.3516832,-72.6113970
4960,Rue de Montlieu,G8Y 7H3,46.3517420,-72.6115999
4970,Rue de Montlieu,G8Y 7H3,46.3518125,-72.6117742
4980,Rue de Montlieu,G8Y 7H3,46.3518766,-72.6119921
4990,Rue de Montlieu,G8Y 7H3,46.3519464,-72.6121966
5000,Rue de Montlieu,G8Y 7H3,46.3520198,-72.6123728
5010,Rue de Montlieu,G8Y 7H3,46.3520798,-72.6125521
5020,Rue de Montlieu,G8Y 7H3,46.3521516,-72.6127726
5030,Rue de Montlieu,G8Y 7H3,46.3522210,-72.6129649
5040,Rue de Montlieu,G8Y 7H3,46.3522926,-72.6131743
5050,Rue de Montlieu,G8Y 7H3,46.3523554,-72.6133720
5060,Rue de Montlieu,G8Y 7H3,46.3524166,-72.6135664
5070,Rue de Montlieu,G8Y 7H3,46.3524940,-72.6137676
5080,Rue de Montlieu,G8Y 7H3,46.3525784,-72.6139602
5090,Rue de Montlieu,G8Y 7H3,46.3526686,-72.6141152
5160,Rue de Montlieu,G8Y 7H3,46.3525012,-72.6143821
5180,Rue de Montlieu,G8Y 7H3,46.3524060,-72.6144871
4895,Rue de Montlieu,G8Y 7H2,46.3517963,-72.6103684
4915,Rue de Montlieu,G8Y 7H2,46.3518600,-72.6105648
4935,Rue de Montlieu,G8Y 7H2,46.3519146,-72.6108306
4955,Rue de Montlieu,G8Y 7H2,46.3519584,-72.6110375
4965,Rue de Montlieu,G8Y 7H2,46.3520221,-72.6112819
4975,Rue de Montlieu,G8Y 7H2,46.3520879,-72.6114676
4985,Rue de Montlieu,G8Y 7H2,46.3521584,-72.6116988
4995,Rue de Montlieu,G8Y 7H2,46.3522259,-72.6119068
5005,Rue de Montlieu,G8Y 7H2,46.3523156,-72.6121443
5015,Rue de Montlieu,G8Y 7H2,46.3523879,-72.6123457
5025,Rue de Montlieu,G8Y 7H2,46.3524550,-72.6125509
5035,Rue de Montlieu,G8Y 7H2,46.3525133,-72.6127506
5045,Rue de Montlieu,G8Y 7H2,46.3525946,-72.6129657
5055,Rue de Montlieu,G8Y 7H2,46.3526832,-72.6132489
5065,Rue de Montlieu,G8Y 7H2,46.3527565,-72.6134507
5075,Rue de Montlieu,G8Y 7H2,46.3528331,-72.6136395
5085,Rue de Montlieu,G8Y 7H2,46.3529483,-72.6138107
5095,Rue de Montlieu,G8Y 7H2,46.3530320,-72.6140604
5115,Rue de Montlieu,G8Y 7H2,46.3529794,-72.6143941
5155,Rue de Montlieu,G8Y 7H2,46.3527941,-72.6146323
6605,Rue du Relais,G8Y 7S1,46.3551734,-72.6113059
4725,Côte Rosemont,G8Y 6R7,46.3538487,-72.6111493
3920,Rue Louis-Pinard,G8Y 4L9,46.3501615,-72.5908794
3930,Rue Louis-Pinard,G8Y 4L9,46.3502469,-72.5908698
3940,Rue Louis-Pinard,G8Y 4L9,46.3502027,-72.5911050
4000,Rue Louis-Pinard,G8Y 4L9,46.3502517,-72.5914861
4030,Rue Louis-Pinard,G8Y 4L9,46.3502255,-72.5918394
4030,Rue Louis-Pinard,G8Y 4L9,46.3503349,-72.5918261
5125,Rue Savoie,G8Y 7K9,46.3499156,-72.6126048
5520,Rue de Montlieu,G8Y 6X1,46.3501177,-72.6168922
6205,Boulevard des Chenaux,G8Y 6Z1,46.3583386,-72.6041271
6495,Boulevard des Chenaux,G8Y 5A9,46.3562278,-72.6097081
6487,Boulevard des Chenaux,G8Y 5A9,46.3565843,-72.6094040
6455,Boulevard des Chenaux,G8Y 5A9,46.3570262,-72.6091497
6465,Boulevard des Chenaux,G8Y 5A9,46.3567694,-72.6091988
4335,Boulevard Rigaud,G8Y 0C6,46.3523298,-72.5997196
6535,Rue des Alpes,G9C 0L8,46.3540960,-72.6175247
6555,Rue des Alpes,G9C 0L8,46.3542073,-72.6173917
6535,Rue des Alpes,G9C 0L8,46.3543407,-72.6172832
6515,Rue des Alpes,G9C 0L8,46.3544563,-72.6171437
3000,Rue des Balkans,G9C 0M8,46.3537254,-72.6177306
6455,Boulevard des Chenaux,G8Y 5A9,46.3569298,-72.6089016
3075,Côte Rosemont,G8Y 4R9,46.3396306,-72.5885431
3035,Côte Rosemont,G8Y 4R9,46.3394437,-72.5884149
3007,Côte Rosemont,G8Y 4R9,46.3393960,-72.5882948
3015,Côte Rosemont,G8Y 4R9,46.3391590,-72.5882441
3055,Côte Rosemont,G8Y 4R9,46.3394874,-72.5885160
3000,Rue des Loyaux,G9B 0Y5,46.3164838,-72.5898107
1905,Boulevard Arthur-Rousseau,G9B 0X4,46.3161263,-72.5839845
2100,Rue des Grands-Marchés,G9B 0Y9,46.3196052,-72.5841966
1130,Boulevard Thibeau,G8T 1P4,46.3940459,-72.5600606
6045,Rue Corbeil,G8Z 4S6,46.3267304,-72.5909310
5965,Rue Corbeil,G8Z 4T3,46.3275899,-72.5895000
5775,Boulevard Jean-XXIII,G8Z 4J2,46.3316403,-72.5933139
5695,Boulevard Jean-XXIII,G8Z 4B4,46.3322028,-72.5928055
2125,Boulevard Thibeau,G8T 1E8,46.4063144,-72.5754732
415,Boulevard Thibeau,G8T 6Y6,46.3767148,-72.5380264
626,Boulevard Thibeau,G8T 6Z7,46.3816294,-72.5459536
725,Boulevard Thibeau,G8T 7A4,46.3847873,-72.5481529
761,Boulevard Thibeau,G8T 7A4,46.3853554,-72.5484783
947,Boulevard Thibeau,G8T 7B1,46.3904597,-72.5535142
1015,Boulevard Thibeau,G8T 7B3,46.3922793,-72.5558531
3635,Rue de la Pinède,G8Y 1G6,46.3595834,-72.5723498
910,Boulevard des Récollets,G9A 5C9,46.3592264,-72.5717101
4550,Boulevard des Forges,G8Y 5L5,46.3592422,-72.5892347
1805,Boulevard des Forges,G8Z 0A8,46.3445031,-72.5598406
1595,Rue Bellefeuille,G9A 3V1,46.3428330,-72.5488400
1634,Rue Notre-Dame Centre,g9a 6b2,46.3401128,-72.5428543
1350,Rue Royale,G9A 4J4,46.3433832,-72.5439721
800,Avenue des Draveurs,G9A 0G2,46.3497834,-72.5349214
950,Rue Royale,G9A 4H8,46.3456743,-72.5426677
3470,Rue Louis-Pasteur,G8Z 4E9,46.3572362,-72.5633568
3400,Rue Louis-Pasteur,G8Z 4E9,46.3567095,-72.5640268
5110,Boulevard Jean-XXIII,G8Z 4A7,46.3384920,-72.5877775
3150,Boulevard Saint-Jean,G9B 2M1,46.3299988,-72.6023708
3000,Boulevard des Récollets,G9A 6J2,46.3288757,-72.5685759
4525,Boulevard Gene-H.-Kruger,G9A 4N3,46.3241960,-72.5638632
5830,Boulevard Gene-H.-Kruger,G9A 4P2,46.3183487,-72.5694067
5830,Boulevard Gene-H.-Kruger,G9A 4P2,46.3184722,-72.5695117
5700,Boulevard des Chenaux,G8Y 1X8,46.3652502,-72.5970504
5700,Boulevard des Forges,G8Y 1X8,46.3651162,-72.5972812
3650,Rue Nérée-Beauchemin,G8Z 1C1,46.3627412,-72.5680632
1520,Rang Saint-Nicolas,G9B 7X9,46.3310559,-72.7637121
2300,Rue des Grands-Marchés,G9B 1X6,46.3188970,-72.5853929
5415,Romeo-Martel,G8Y4Y3,46.3566340,-72.6008671
11,Rue des Merisiers,G8V 1W8,46.4008487,-72.5060278
21,Rue des Merisiers,G8V 1W8,46.4010324,-72.5057236
41,Rue des Merisiers,G8V 1W8,46.4014332,-72.5051509
51,Rue des Merisiers,G8V 1W8,46.4016264,-72.5048956
61,Rue des Merisiers,G8V 1W8,46.4018191,-72.5046057
31,Rue des Merisiers,G8V 1W8,46.4012457,-72.5053937
12,Rue du Parc Frigon,G8V 2G7,46.3997264,-72.5038296
10,Rue du Parc-Frigon,G8V 2G7,46.3996034,-72.5035031
8,Rue du Parc-Frigon,G8V 2G7,46.3993854,-72.5031934
6,Rue du Parc-Frigon,G8V 2G7,46.3991780,-72.5028518
4,Rue du Parc-Frigon,G8V 2G7,46.3989337,-72.5024739
2,Rue du Parc-Frigon,G8V 2G7,46.3986990,-72.5022206
18,Rue des Mûriers,G8V 1X3,46.3999931,-72.5036427
20,Rue des Mûriers,G8V 1X3,46.4001669,-72.5033717
1,Rue des Mûriers,G8V 1X3,46.4000433,-72.5043692
5,Rue des Mûriers,G8V 1X3,46.4002354,-72.5041001
23,Rue des Mûriers,G8V 1X3,46.4004247,-72.5037906
12,Rue des Merisiers,G8V 1W9,46.4008526,-72.5053805
18,Rue des Merisiers,G8V 1W9,46.4010414,-72.5050976
30,Rue des Merisiers,G8V 1W9,46.4012284,-72.5048032
10,Rue des Merisiers,G8V 1W9,46.4014109,-72.5045319
60,Rue des Merisiers,G8V 1W9,46.4015902,-72.5042952
12,Rue des Cerisiers,G8V 1X1,46.4003092,-72.5047021
10,Rue des Cerisiers,G8V 1X1,46.4006046,-72.5045225
20,Rue des Cerisiers,G8V 1X1,46.4007953,-72.5042327
21,Rue des Cerisiers,G8V 1X2,46.4006398,-72.5051501
31,Rue des Cerisiers,G8V 1X2,46.4008434,-72.5048791
41,Rue des Cerisiers,G8V 1X2,46.4010305,-72.5046054
51,Rue des Cerisiers,G8V 1X2,46.4012048,-72.5043026
61,Rue des Cerisiers,G8V 1X2,46.4014068,-72.5040282
300,Rue Barkoff,G8T 9P5,46.3745512,-72.5560329
6500,Boulevard des Forges,G8Y 7E3,46.3698524,-72.6014134
7900,Boulevard des Forges,G8Y 4W2,46.3776477,-72.6183463
5690,Boulevard des Forges,G8Y 1X8,46.3651562,-72.5969942
220,Rue Patry,G8T 2R5,46.3754512,-72.5233741
220,Rue Patry,G8T 2R5,46.3762720,-72.5216095
220,Rue Patry,G8T 2R5,46.3757596,-72.5211445
1191,Rue Boisclair,G8V 2S5,46.3858867,-72.4886208
1191,Rue Boisclair,G8V 2S5,46.3860134,-72.4904705
10555,Chemin Sainte-Marguerite,G9B 6N6,46.2883532,-72.6706499
10555,Chemin Sainte-Marguerite,G9B 6N6,46.2880952,-72.6726433
671,Rue des Loisirs,G8W 1E2,46.4217759,-72.6007268
671,Rue des Loisirs,G8W 1E2,46.4225876,-72.6017144
1205,Rue Notre-Dame Est,G8T 4J8,46.3794976,-72.4892917
1221,Rue Notre-Dame Est,G8T 4J8,46.3795241,-72.4889679
1905,Boulevard Saint-Louis,G8Z 2N7,46.3548628,-72.5568191
858,Rue Laviolette,G9A 5S3,46.3487302,-72.5445369
6000,Rue du Colisée,G9B 0Y7,46.3216840,-72.5914849
