House number,Street name,Postal code,Latitude,Longitude
13,شاهپور سوری,11369,35.7843689,51.3889489
۱۴۰,بلوار ایران خودرو,1386164935,35.7185755,51.1877721
322,لبافی نژاد,1313913994,35.6969931,51.3898982
16,"kargar shomali, street 17",1438833881,35.7337749,51.3931471
86,بلوار معلم-بهاران۲,13719-76831,35.6563233,51.3163775
12,ملک الشعرای بهار,1571815853,35.7066809,51.4269616
55,Kaj Bulvard,1494847471,35.7515843,51.2409106
1897,Shariati Street,1933933171,35.7994518,51.4338149
124/1,نبش خیابان خدری و خیابان سنائی,1586636945,35.7207741,51.4184754
۱۱۴۶,خیابان جمهوری به چهار راه دانشگاه,۱۳۱۶۶۶۵۷۸۱,35.6957020,51.3970546
12,اوحدی,1141636316,35.6864778,51.4268657
2,خیابان دوازدهم,1514746315,35.7336477,51.4186237
8,خیابان دهم,15147361,35.7330485,51.4193043
+982188831299,زهره,15889,35.7220082,51.4257837
پلاک 71 واحد 2,فتحی شقاقی,1431773786,35.7237938,51.4051921
1,بلوار سردار جنگل,1476863833,35.7618275,51.3278421
2,افرا,15655-459,35.7193877,51.4392095
142,آیت‌الله طالقانی,1598618534,35.7068054,51.4142394
199,علیان,17658-33316,35.6834546,51.4724401
16,اکبر راستوان,19449651,35.7672066,51.4540404
21,میدان جهاد,14316-63715,35.7200876,51.4054579
43,اسفندیار,1967915681,35.7712896,51.4156314
13,East 9th Street,9821,35.7828700,51.3730756
1/10,سعادت آباد,+9821,35.7735606,51.3774932
25,احمد قصیر,15147,35.7311521,51.4182582
پلاک ۷,موحد دانش,26126015,35.8008579,51.4846919
270,بهمنیار,+98021,35.6276295,51.4000443
48,خ هلال احمر-نرسیده به میدان رازی-پلاک ۴۸,1338964558,35.6678852,51.3853345
13,معصومی,11918,35.7966677,51.4581853
2,قدس,021,35.7568910,51.2893712
4,خسروانی,1546733538,35.7554060,51.4455440
1,دانشور شرقی,1991818,35.7622269,51.3997898
61,ملت,1141613675,35.6869860,51.4263324
60,خیابان سعدی شمالی کوچه جابرزاده,021,35.6957057,51.4253395
209,پاسداران,16646-55349,35.7634352,51.4554003
60,جابرزاده,021,35.6956576,51.4252259
28,خسرو,15988-15311,35.7121547,51.4169767
14,قرائی گرکانی,021,35.6741769,51.4592197
"131 , 133",صد و نود و ششم شرقی,397,35.7418404,51.5459222
Chemistry & Chemical Engineering Research Center of Iran,Danesh St,1497713115,35.7465909,51.1643971
78,دانش ثانی اخلاق,1413673154,35.7205843,51.3893304
9357781077,داوود میراولیایی,13567,35.6728378,51.3693444
17,بیست متری افسریه,17849745,35.6533639,51.4987045
18,خیابان آزادی,1418913983,35.7013759,51.3894287
75,زرافشان,14678733,35.7612494,51.3543659
3011,خیابان ولیعصر (عج)، بالاتر از پارک وی ، نرسیده به میدان تجریش ، ایستگاه پسیان ، موقوفات دکتر محمود افشار,1961733114,35.8021445,51.4201734
100,سنایی,15857751,35.7197830,51.4188026
54,پشت شهردارى,11448,35.6866518,51.4207854
163,ایران زمین,14658,35.7531216,51.3735973
44,سپند,15986/86313,35.7112100,51.4145661
324,بلوار جانبازان غربی,16358,35.7324220,51.4759413
22,بلوار طالقانی,42376543,35.6722574,51.3249416
2,ملک الشعرای بهار,17336,35.7081502,51.4275879
no.331,پلاک ٣٣١ (حدفاصل بلوار آفریقا و خیابان ولی عصر) زنگ ٦ طبقه دوم,19696-34337,35.7628193,51.4149507
21_19_17,کشاورز,13599931,35.6688181,51.3800666
9,امیرعباس مرادی,13716653,35.6652947,51.3398459
74,مظفری,0098,35.7449125,51.5402080
2,بلوار فردوس غرب تقاطع بلوارشقایق,1483763955,35.7276257,51.3038094
2,میدان فردوسی,0098,35.7018889,51.4191499
2,میدان صنعت,1466713713,35.7545488,51.3666761
۱,دکتر علی شریعتی,1565846418,35.7168206,51.4398806
5,بلوار نلسون ماندلا,191773,35.7685799,51.4211907
40,بلوار صدف,1493889324,35.7445558,51.2215897
67,سایه,021,35.7765816,51.4139471
پانیذ سنتر (شماره ۳۲)، طبقه۶، واحد۶۲,وفامنش,1668736740,35.7700194,51.4768481
2,نامی,114522583,35.7964828,51.4478144
129,شیخ صفی,16387194,35.7182475,51.4507212
3,خیابان وحدت اسلامی، بن بست معتمدی,98,35.6838041,51.4091124
251,بلوار فردوس بین گلستان و رامین,پلاک 251,35.7231261,51.3192367
۸,بهادری,۱۵۸۵۹۶۳۷۱۵,35.7176293,51.4228928
۱۴,اسلام,١٩٧٨٧٣٧٤٨٣,35.8169867,51.4684233
89,مدائن,021,35.6367033,51.4065814
پلاک 16,خیابان نیلوی شمالی,1435685553,35.7552259,51.4089158
7,قورخانه,11148-35535,35.6839145,51.4187059
09356700428,امین الملک,13621362,35.6648105,51.3573460
38,صارمی,1598935611,35.7081413,51.4156017
پلاک 19,فاخته بازار آهن شادآباد مجتمع پارسیان بلوک مهر,1371869948,35.6648158,51.3150962
1135,میدان انقلاب اسلامی,1417913119,35.7014820,51.3913072
6,کوچه نادر,1511643945,35.7289928,51.4134789
4,رشتچی,1314975971,35.7000574,51.3902120
70,سید جمال‌الدین اسدآبادی,1436965331,35.7489379,51.4048765
408,رودکی تقاطع هاشمی,0098,35.6903996,51.3760625
810,خ خاوران,64511,35.6616062,51.4546327
No. 32,Del Afrouz,1511714511,35.7302724,51.4126531
02155727333,قفیلی,021,35.6581271,51.3584612
17,خرسند,1966744913,35.7828301,51.4212781
60,آبان جنوبی,15987,35.7127081,51.4125304
13/3 st.,محمدعلی جهان آرا,14386,35.7266169,51.3968222
2,افرا,15669-58411,35.7203501,51.4394329
1,نارنج,15655-459,35.7200256,51.4393590
162,مولوی,11369,35.6692871,51.4315441
21,بوستان یکم,147169,35.7240679,51.3321351
3,پروین اعتصامی,1322487549,35.7179482,51.3976188
30,بلوار مرزداران،ایثار، مجتمع اداری مسجد امیرالموممنین,1463764942,35.7334615,51.3517455
5,بلوار دادمان,1466913734,35.7668885,51.3648045
50,بیست و یک متری جی,13497_15355,35.6916527,51.3494779
2,خ بهشتی ، خ صابونچی ، کوچه ادایی، پلاک 2، طبقه 2,1533613531,35.7315377,51.4322406
242,سهروردی شمالی,1576917139,35.7249898,51.4350966
6,مصطفی قدمی,18499,35.5914027,51.4373079
1,اتفاق,021,35.6980237,51.4057951
21,دریا غربی مطهری شمالی ساحل یکم,1998876590,35.7714911,51.3650971
1802,ولیعصر,1415855349,35.7155542,51.4074123
7,میدان حسن آباد,1114633878,35.6856066,51.4102972
19,لطفی,1589866433,35.7184887,51.4259623
8,احمد بابایی,02155330680,35.6367713,51.4078327
825,آیت الله بهشتی,1234567890,35.7313671,51.4397045
41,گلستان ششم (مطیعی راد),1675943433,35.7478479,51.4779291
7,بزرگراه رسالت,1675619376,35.7388267,51.4778251
174,بزرگراه جلال آل احمد,1461635719,35.7266015,51.3373143
2,اعرابی غربی,1585815714,35.7170471,51.4197067
117,خرمشهر,15338-56711,35.7358056,51.4322888
460,فرجام-بين عبادي و وليعصر,1684895951,35.7372529,51.5113831
361,نامجو,53513,35.7067624,51.4455523
39,سامان,14358547,35.7547269,51.3994998
38,خیابان پیروزی، روبروی خیابان ششم نیروی هوایی,66797877,35.6927234,51.4903862
825,شهید بهشتی,1234567890,35.7313685,51.4397421
34,طاهری,1653886591,35.7431810,51.5317656
168,جهانگردی,1114645111,35.6858096,51.4118414
258,بخت آزاد,1655693762,35.7154940,51.4696487
116,بلوار دادمان,1467893963,35.7638867,51.3502303
18,عباسپور,1434865111,35.7483010,51.4101128
270,رضائی,1655985618,35.7375291,51.5423537
4,میخک,021,35.7901731,51.5022707
68,تابان غربی,19696-34337,35.7645178,51.4129150
129,بلوار اقاقیا,4341493149,35.7485376,51.2333400
710,بزرگراه شهید سلیمانی,1648697175,35.7359937,51.4916961
پلاک 984,انقلاب اسلامی بین چهار راه ولیعصر و پل کالج روبروی بانک سامان,1133766711,35.7011284,51.4096626
پلاک33,جواد کارگر,88888888,35.7098008,51.4317754
5,عباس ساوجی نیا,1531735613,35.7325498,51.4226826
35,سپاهیان انقلاب,18499,35.5910067,51.4368950
پلاک 975 واحد 1,دکتر علی شریعتی,16617-16661,35.7475763,51.4495069
34,مرادحسین حسینی راد,1595654311,35.7228807,51.4112117
40,بلوار اندرزگو,1937645584,35.8013681,51.4539179
197,بزرگراه آیت الله اشرفی اصفهانی,1461751985,35.7390974,51.3333894
7,میدان آرژانتین، خیایان بخارست ششم ، پلاک 222,1514644718,35.7311683,51.4188035
15,صدونودوششم غربی,1653886591,35.7435499,51.5324461
پلاک61 واحدb44,وحید نظری,1314465134,35.6993217,51.3967944
#3,دوم غربی,1413954311,35.7235195,51.3966331
24,"East Sarve St, 3rd St",009821,35.7853659,51.3775036
50,محمد صانعی,1961315131,35.7583299,51.4104068
30,عباس موسوی,0098,35.7026648,51.4213169
No. 212,فاطمی,603,35.7136167,51.3876499
32,فتحی شقاقی,1431773786,35.7238200,51.4050064
5,خیابان ولی عصر,1988615753,35.8044066,51.4207200
Unit 7,سهروردی جنوبی,1579676818,35.7186940,51.4337210
4,رودباری,1647789455,35.7201056,51.4991741
75,کردبچه,15338-56711,35.7342321,51.4329157
پلاک ۵۹ واحد ۳,تهرانسر، بلوار گلها,1387734169,35.7012434,51.2673658
210,دانشگاه هوایی شمالی,1385884411,35.6757200,51.3362362
78,فرمانداری,1843763781,35.5936010,51.4288858
95,اکباتان,1143686113,35.6881833,51.4263689
13,سوهانک آتی ساز برج زنبق,22495610,35.7965359,51.5254113
410,پرستار,54684,35.6872050,51.4826036
479,بلوار هنگام,16888,35.7528773,51.5090682
5,علیخانی,1436955145,35.7497684,51.4022580
25,سی و هشتم غربی,1997915113,35.7722544,51.3815922
43,بلوار حجر بن عدی,1654636464,35.7277449,51.5258886
11,لاله,1458744811,35.7016361,51.3468430
14,فتح سوم,1387694131,35.6751354,51.3235628
43,ایرانشهر,0098,35.7026800,51.4202487
۲۷,قائم مقام فراهانی,۱۵۸۵۹۶۳۷۱۵,35.7172505,51.4239124
2,خیابان پیروزی صد دستگاه بعد از متروی پیروزی کوچه والی پلاک 2 طبقه سوم,1765643699,35.6911474,51.4707676
48,مرادحسین حسینی راد,1595653434,35.7231593,51.4101485
3,جهاد,1558746881,35.7350180,51.4450810
4878,بلوار معلم,1377636769,35.6527518,51.3115181
478,بلوار معلم,1377636468,35.6527290,51.3114792
478,بلوار معلم,1377636769,35.6527159,51.3114497
8,بهرامی,1377878888,35.6435444,51.3066133
23,میدان امام علی,009821,35.8058498,51.5192779
380,رودباری,1649765371,35.7304980,51.5012296
117,وصال شیرازی,1416614178,35.7076604,51.3978645
1,مرتضی فیاضی,1965613961,35.7926134,51.4169259
34,برادران شریفی,1969943911,35.7592613,51.4111324
34,گلستان ششم (مطیعی راد),1675943433,35.7478598,51.4779976
394,آیت الله طالقانی,1591816418,35.7064846,51.4104733
40,Haghani Expressway,1961315131,35.7575789,51.4135212
14,افشار جوان,1551715613,35.7328145,51.4388489
246,خیام,11148-18547,35.6832887,51.4183762
1,فلسطین,1698585975,35.7050629,51.4039561
80,غلام عباس سلطانی,021,35.7762728,51.4146864
پلاک 58,محمدرضا خادم شریف,1338655134,35.6667150,51.3831489
22,باغ بانک,1949644611,35.7709630,51.4403000
1,بلوار مرزداران سرسبز جنوبی,1464654594,35.7335685,51.3597141
28,بلوار دهکده المپیک,1489663376,35.7588932,51.2624370
28,خیابان ورزش,1489663377,35.7589245,51.2623973
28,خیابان ورزش,1489663375,35.7589125,51.2624885
61,قائم نهم,1442,35.7544729,51.2306584
۵۱۶,بزرگراه زین الدین بین ۱۳۵ و۱۳۷,1656846991,35.7487416,51.5534765
1.1,بن بست کوهسار,1969776105,35.7818866,51.3860645
16,فلکه دوم نیرو هوایی,1677814983,35.6991990,51.4872802
289,سمنگان,1648953131,35.7276674,51.4863534
247,بلوار آیت الله کاشانی,1474633116,35.7418496,51.3005124
62,گلشن,1656698661,35.7408237,51.5550375
108,نصیبی,1665853507,35.7504432,51.4668298
312,بلوار جانبازان غربی,021,35.7320317,51.4802334
142,جمهوری اسلامی,1143916511,35.6919057,51.4273072
240,شوش,1183743511,35.6600881,51.4382963
13,ساسان,1985843111,35.8030838,51.4061191
331,چهل و پنج متری زرند,1384937787,35.6679420,51.3331611
17,بازار آهنگرها,11657133,35.6743116,51.4260898
18,خیابان اتحاد، خیابان یازدهم غربی,1658756911,35.7336349,51.5653926
105,ستارخان خیابان نیایش,1443863181,35.7190909,51.3711922
23,دزاشیب,1934774111,35.8053549,51.4388319
49,موحد دانش,1957719645,35.8056539,51.4747202
126,خیابان هلال احمر,+98,35.6672247,51.3931095
32,"Golfam St., Nelson Mandela Blvd.",1915674165,35.7767094,51.4248093
22,بازار آهنگرها,11657133,35.6743506,51.4260159
31,"کارگر شمالی, پنجم",1439634564,35.7237178,51.3896344
۲,نوزدهم,1517874811,35.7543451,51.4145268
27,علی اکبر محمدآقا,0098,35.7029415,51.4226158
6,محمدعلی درودیان,1719775381,35.6828527,51.4534884
77,حسن عضدی,1597933813,35.7171353,51.4133542
20,کجوری,1951663545,35.7838296,51.4582752
6,عباسپور,1435683811,35.7545838,51.4080338
865,پانزده خرداد,1114718855,35.6798184,51.4094201
81,نازی آباد خ مداین نبش کوچه رنجبر پاساژ حاتمی,18157,35.6367857,51.4080320
15,سین دخت شمالی,1411853161,35.7140980,51.3870395
827,ابتدای سهروردی شمالی,1555833314,35.7419447,51.4439613
113,حیدرخانی,1684933177,35.7394525,51.5030110
10,بلوار اندرزگو,1937945715,35.8012869,51.4603921
2,خ مطهری - خ فجر -کوچه مدائن,1588774735,35.7234985,51.4247343
44,خیابان طالقانی خیابان موسوی شماره 44 واحد 6,1581635314,35.7036428,51.4211659
26,کریمی ثانی,1643763769,35.7171193,51.4742206
508,انقلاب اسلامی,1314465134,35.7008282,51.3953164
454,یوسف کلاهدوز,1941853313,35.7786031,51.4441303
10,عقیلی,15986/83613,35.7107888,51.4134999
۲۴۱,رحمان,۱۸۹۷۶۸۷۴۵۱,35.6310515,51.3686609
پلاک ۲۴۱ طبقه اوا واحد ۲,رحمان,۱۸۹۷۶۸۷۴۵۱,35.6310205,51.3686736
بلوار شکوفه-خیابان رحمان-نبش فیضی-پ ۲۴۱,رحمان,۱۸۹۷۶۸۷۴۵۱,35.6310016,51.3686865
340,بلوار کشاورز,1418893844,35.7078583,51.3875809
D24,جمهوری اسلامی,11316,35.6948131,51.4123139
411,بلوار فردوس,1481836117,35.7249694,51.3112788
2,عرفان,1586715645,35.7247437,51.4186140
نازی آباد,نیکنام جنوبی,181,35.6364616,51.4012178
89,خالد اسلامبولی,1513713518,35.7309635,51.4148250
67,غلام عباس سلطانی,021,35.7763955,51.4141899
17,خیابان شهید مطهری خیابان کوه نور کوچه سوم,1587668311,35.7254853,51.4216306
70,برادران مظفر,نبش برادران مظفر,35.7030057,51.4039800
40,برادران مظفر,نبش برادران مظفر,35.7031613,51.4040078
3,قریب,1941953145,35.7732900,51.4429885
8,رسول زارع,1311767448,35.6998899,51.3839289
8,علیرضا الهی,1481816551,35.7310439,51.3154690
22,بلوار میرداماد,19696-34337,35.7622500,51.4145610
80,سعید باغدارنیا,1651743486,35.7283767,51.5202765
194,بزرگراه شهید رجایی,1816616649,35.6274615,51.4108904
56,حسن عضدی,1598717413,35.7123739,51.4124847
141,آیت الله طالقانی,1571757333,35.7071338,51.4275333
2,میدان عدل,1476755475,35.7558085,51.3285321
798,استاد حسن بنا,1665853507,35.7520673,51.4742861
798,Ostad Hasan-e Banna Street,1665853507,35.7521435,51.4743183
10,برادران شریفی,1969944415,35.7593861,51.4129450
10,برادران شریفی,1969944415,35.7593861,51.4128892
24,خالد اسلامبولی، کوچه سوم,1513634311,35.7295087,51.4159193
8,تلفنخانه,11397445,35.6945893,51.4094858
Melat Tower,ولی عصر,021,35.7758819,51.4134515
ط اول تجاری، واحد ۲۴۹,بهار جنوبی,1561635677,35.7032048,51.4288343
41,درختی,1468695931,35.7668831,51.3545532
13,وحدت شمالی چهارم,1473138613,35.7397312,51.3291366
256,دکتر مفتح شمالی,15889,35.7206630,51.4279703
16,رسول زارع,13117645,35.6991358,51.3842145
14,هویزه,1533693613,35.7334584,51.4330316
پلاک 108,خیابان دانشگاه هوایی جنوبی، نبش خیابان انصاری، پلاک 108,1384994741,35.6697793,51.3357521
5,حاج حسنی,1555833314,35.7419877,51.4433730
123,رودباری,16497,35.7240986,51.5001750
پلاک 130,زند وکیلی غربی,1998887367,35.7780410,51.3631512
10,بلوار سعادت آباد,9821,35.7833183,51.3746205
475,دردشت,1651613772,35.7308629,51.5034855
1491,ولی عصر,1591633548,35.7034151,51.4057705
92,موحد دانش,1957647996,35.8048243,51.4759985
21,کارگر جنوبی,1313913994,35.6976827,51.3910910
13,چهل و پنج متری زرند خیابان امری,1386753317,35.6701313,51.3216445
38,برازنده,1555734153,35.7424129,51.4420235
7,شاهرخ,1915713496,35.7785873,51.4229918
بازار بزرگ میرداماد پلاک۳۷,بلوار میرداماد,1969773198,35.7623449,51.4145188
682,منطقه 22 -شهرک گلستان - بلوار امیرکبیر,14939-48883,35.7461766,51.2333624
982144042016,بلوار اباذر,9821,35.7323320,51.3263646
1,محمد دلیری,1916663114,35.7712763,51.3559305
8,دانیالی,1935934153,35.7998825,51.4489451
62,بلوار الغدیر,1377656748,35.6491409,51.3106563
44,خیابان انقلاب، خیابان عباس موسوی,1581635314,35.7037378,51.4211623
26A,فردوسی,1145684119,35.7004777,51.4196118
65,خیابان آزادی,1419935164,35.7009337,51.3798105
5,رودباری,1647713161,35.7204343,51.4994100
19/2,دوازدهم,1514746315,35.7335738,51.4172363
3,اشکستان پور,1955753711,35.7987778,51.4489659
1,کنارگذر ارتش,1935933150,35.7984689,51.5051488
4,دل افروز,1511717114,35.7302701,51.4140232
123,دکتر آیت,۱۹۵۵۴۶۶۷۸۷,35.7238311,51.4922293
17,نیایش شرقی,1457886871,35.7025985,51.3766003
17,نیایش شرقی,1457886871,35.7026290,51.3766022
77,حسن عضدی,1597933813,35.7172955,51.4133384
3,چهاردهم,1513713518,35.7325143,51.4133306
2,موحد دانش,1957663598,35.8021246,51.4787296
403,سیزدهم,1985858962,35.8078002,51.4056990
111,بلوار سعادت آباد,9821,35.7832229,51.3746598
250,بلوار ایران زمین,1473656857,35.7535799,51.3745817
1,مکران شمالی,1668738561,35.7682714,51.4745371
16,دوازدهم,۱۵۱۴۷۴۴۷۱۵,35.7335934,51.4180121
ساختمانCBC,عباس شیرازی,14358547,35.7534699,51.4004583
ساختمانCBC,اتحاد,14358547,35.7528799,51.3999889
56,آقا علیخانی,1436934994,35.7492296,51.3976504
۱۴,بردران فرزام,1415743151,35.7147874,51.4040287
پلاک 677,لاله زار نو تقاطع انقلاب,1441643156,35.7013060,51.4241482
پلاک 9,شمشاد,1378788711,35.6720663,51.2937980
93,حسین حیدری مقدم,1476674313,35.7540861,51.3262618
247,بلوار مرزداران,1461744691,35.7358756,51.3344331
931,خیابان کارگر جنوبی,1317947564,35.6858412,51.3933229
پلاک 322,شادآباد بهاران دو بلوک 22,009821,35.6599600,51.3134524
433,صادق آئینه وند,1437773679,35.7446057,51.3981998
931,خیابان کارگر جنوبی,1317947564,35.6858142,51.3933261
311,سید جمال الدین اسدآبادی,1434664417,35.7360453,51.4058367
81,محمود قندی,1554918114,35.7393551,51.4357255
37,اندیشه یکم,1569756119,35.7279399,51.4210223
271,بلوار میرداماد,1918934354,35.7617048,51.4228914
پلاک 349 طبقه 2,بهار شمالی,1564663514,35.7136657,51.4311475
7,اتکا,1458836747,35.7030910,51.3481486
7,اتکا,1458836747,35.7030910,51.3481696
219,بلوار غلامرضا مخبری,۱۴۷۵۷۱۴۹۴۷,35.7597912,51.3072989
23,گلستان یکم,1471695387,35.7235877,51.3329482
4,محمدعلی حبیب الله,000000,35.7149822,51.3593372
603,استاد حسن بنای شمالی,1671943111,35.7477356,51.4705524
43,بلوار اندرزگو,1935934178,35.7996193,51.4492294
43,بلوار اندرزگو,1935934179,35.7995694,51.4491602
102,نیکو,1938736970,35.7957667,51.4433438
9,موزه,1555833314,35.7406360,51.4456874
51,حیدر مردانی,1987783156,35.8084476,51.4103907
1522,ولی عصر,1599933654,35.7035772,51.4053457
85,خواجه عبدالله انصاری، نبش کوچه پنجم,1661747341,35.7449627,51.4530412
31,بهشت سوم,1476735745,35.7625888,51.3231594
4,شیرازی,1136755613,35.6880823,51.4123559
439,فلسطین,1415813358,35.7117811,51.4045318
2,دوازده متری قیطریه,1945996618,35.7940734,51.4471349
121,آیت الله مطهری,1576919511,35.7245656,51.4328888
11,خیابان مطهری خیابان سرافراز خیابان هفتم,1587695611,35.7270482,51.4216657
64,میدان منیریه,1111613154,35.6817402,51.4018798
3,جعفر عزیزی,1371858376,35.6703333,51.3122640
4,شارمهد,1136647367,35.6891638,51.4117749
123,بلوار اندرزگو,1935934178,35.7998182,51.4496175
221,استاد حسن بنا,١٦٣٣٦١٣١١٣,35.7362856,51.4638748
پلاک 59 واحد 4,بلوار گلها,1387734168,35.7012002,51.2673012
308,خیابان آزادی,1345697360,35.7001542,51.3667920
62,کاووسی فر,1665444487,35.7305007,51.4358710
2,ادایی,1533635713,35.7317098,51.4316181
1019,خیابان ولی عصر,11361,35.6855534,51.4026028
66,بلوک یک فولاد استیل,1386831783,35.6747304,51.2922223
4,محمدعلی حبیب الله,000000,35.7149614,51.3593478
144,رشید,1651736858,35.7274023,51.5200319
گلدیس همکف واحد۱۳,فلکه دوم صادقیه,1451796345,35.7218571,51.3363033
50,4th Street,1595653434,35.7226868,51.4082426
401,پیروزی,1736914835,35.6919207,51.4769837
9,میدان حسن طهرانی مقدم پاسژ کسری کتابسرا کلک,1998613186,35.7824469,51.3751791
59,East Farjam Street,1653886591,35.7357096,51.5255071
135,سپهبد قرنی,15988-15311,35.7119911,51.4180323
23,تجرلو,1674,35.7699800,51.4933764
303,تهرانپارس بلوار شاهد تقاطع خدابنده و جمیلی شبستری مجتمع آموزشی فرهنگ,1656719131,35.7433800,51.5485016
11,سعید,14159-44911,35.7118502,51.4009130
13,بزرگراه شهید سلیمانی,123456789,35.7405476,51.4674886
54,شهید عربخواری,1865855975,35.5783203,51.4651921
280,سیدحسن غیوری,1857956474,35.6138712,51.4440540
45,خیابان احد,1894918436,35.6336388,51.3690849
۱,چهارم فرعی اتحاد,۱۲۳,35.7316995,51.5562803
۱۷۹,گوهری شمالی,۱۶۳۷۶۶۴۹۴۱,35.7289185,51.4536390
No. 38,Barazandeh St.,1555734314,35.7424076,51.4419237
13,میرداماد - پاساژ آرش (پلاک ۹۴),1547934444,35.7584277,51.4415979
13,میرداماد - پاساژ آرش (پلاک ۹۴),1547934444,35.7584103,51.4416001
No. 64,"4th Alley, Janatbad South Ave",1473935373,35.7442489,51.3040643
52,بلوار لاله شرقی، خیابان مجاهد کبیر، کوچه بنفشه 14,1473997651,35.7462548,51.3088450
101,کنارگذر لشگری,0098,35.7064607,51.2677807
101,کنارگذر لشگری,0098,35.7062669,51.2676634
174,بزرگراه جلال آل احمد,1461635711,35.7266523,51.3372496
10,خردمند ۴ شرقی,1585815714,35.7164805,51.4209029
2,بوجاری صفت,1416854528,35.7036867,51.4008907
4,کمالی,1464854763,35.6812252,51.3911877
9,کمالی,1464854763,35.6811966,51.3912355
7,Seyd Khandan- Araghi,1663815961,35.7442418,51.4604905
156,خواجه عبدالله انصاری,1661633913,35.7451680,51.4507107
19;۱۹,ریوندی,1355641223,35.7573561,51.5044990
58,ناطق نوری,1947755651,35.7617128,51.4509016
8,چهل و هفتم,1681817613,35.7361777,51.4960389
45,مسعود آزمون نیا,021,35.7091820,51.3201976
62,اسفندیار,1968653631,35.7710049,51.4151150
41,بیستون,14316-63715,35.7203899,51.4049887
4,علامه طباطبایی,21,35.7717118,51.3109309
98,شمشیری,1383953364,35.6742744,51.3431625
541,طالقانی,1895776996,35.6347359,51.3502237
134,مقدس اردبیلی,1985675353,35.8015859,51.4058759
موسسه حمایت از کودکان بی پناه کمک,مسیل باختر,1633949511,35.7321263,51.4629315
151,West Sarve,1998133554,35.7775859,51.3567093
117,سرو غربی,1998135377,35.7782516,51.3598442
383,فدائیان اسلام,1861774955,35.6091069,51.4389130
14,مسعود احمدیان,1513814414,35.7343303,51.4150313
۵۱۸,بزرگراه زین الدین,1656846991,35.7487417,51.5535967
1432,کارگر شمالی,1411986453,35.7196002,51.3887632
130,خیابان آزادی، نبش خ زارع,1311773833,35.7005581,51.3838467
738,سمنگان,1648697164,35.7362370,51.4901381
483,خیام,1161915149,35.6753554,51.4170862
242,بلوار دریا غربی,1998934716,35.7703250,51.3621987
177,ملاصدرا,1993643711,35.7565214,51.3954531
12,کوچه نادر,1511644611,35.7291108,51.4139379
228,سهروردی جنوبی,1578744333,35.7238600,51.4354198
4,خسروی,1598954911,35.7098073,51.4158399
10,کاشی ها,1664614117,35.7553554,51.4534312
تهران,میدان شهر ری,18499,35.5910186,51.4369666
2755,همایون شهنواز,1966713131,35.7844057,51.4150478
123,لاله زار,1144618181,35.6909879,51.4226963
449,بیات,18499,35.5909547,51.4382024
11027,پاساژنورتهران,1416799463,35.6569821,51.4277122
1,پرساله,1143743659,35.6888900,51.4252369
sanei,محمد صانعی,1961315131,35.7585343,51.4104505
166,حاج ابوالفضل یکم,1164959111,35.6692981,51.4249305
344,بلوار آیت الله خوشوقت,1653787165,35.7440522,51.5342515
6,شکارچی,1114643943,35.6853211,51.4115626
18,هجدهم,1517955433,35.7559971,51.4108728
192,بلوار دریا غربی,1466934868,35.7706229,51.3639845
420,بزرگراه جلال آل احمد,11111-11111,35.7255570,51.3498412
11,مجد,0098,35.7832872,51.3776128
81,بزرگراه جلال آل احمد,1445555866,35.7268572,51.3769990
34,کوشش,1551718611,35.7321583,51.4374208
209,ظهیرالاسلام - پاساژ شقایق - طبقه دوم,1143916511,35.6920302,51.4291124
603,بهار جنوبی,1561635677,35.7030761,51.4285979
26,ولی الله صادقی,14588766,35.7031548,51.3499685
201,لاله زار,1144618181,35.6913097,51.4230153
پاساژجوان طبقه همکف پلاک8,انقلاب,02191690826,35.6394239,51.3649754
156,سرو غربی,1998887367,35.7794110,51.3635021
457,یوسف کلاهدوز,1911714751,35.7770462,51.4419142
122,آیت الله مطهری,1578744333,35.7242100,51.4336426
6,محمدی,1441685634,35.7077019,51.3763023
22,لاله زار,1144813732,35.6885388,51.4225799
5,گیلان,1598718311,35.7182116,51.4172801
365,بلوار میرداماد,1918934354,35.7612778,51.4225020
41,بلوار سعادت آباد,1998615307,35.7831006,51.3754726
7,سهروردی شمالی,1551713114,35.7321132,51.4359601
54,ایران زمین شمالی,1476719411,35.7616308,51.3223712
45,محسن عربعلی,1554933153,35.7397593,51.4355719
4,نوربخش,1415,35.7175940,51.4078258
پلاک 12,خیابان طالقانی، خیابان موسوی، کوچه بهبهان,1581963611,35.7048167,51.4218881
87,ابوالفضل شجاعی,1136643915,35.6892955,51.4113593
58,Koleyni Street,17176-44451,35.6916513,51.4582624
352,بیات,18499,35.5908715,51.4393808
11,مرتضی قلی پور,18499,35.5907216,51.4391997
پلاک 226 واحد 1,بلوار مخبری,1481875734,35.7592076,51.3122582
8,خسرو,15988-15311,35.7121047,51.4165946
13,علیرضا بازدار,954914649,35.8046270,51.4621369
302,پانزدهم,1388614848,35.6968532,51.2538234
13,یغما,11397445,35.6945411,51.4087892
13,یغما,11397445,35.6945336,51.4088028
13,یغما,11397445,35.6945292,51.4087914
431,امام خمینی,1346899163,35.6878829,51.3778439
485,سید جمال‌الدین اسدآبادی,1434964748,35.7480138,51.4053548
436,بلوار میرداماد,19696-34337,35.7621823,51.4151751
63,ملاصدرا,1991614851,35.7571738,51.4017279
85,ایرانشهر,1581635314,35.7042311,51.4201170
2,اشرفی,1558836111,35.7353952,51.4453065
2,فلسفی,1913633564,35.7617797,51.4446359
675,پانزده خرداد,1114777716,35.6787125,51.4148044
170,بزرگراه جلال آل احمد,1461635775,35.7265962,51.3374629
9,خیابان ولیعصر، بالاتر از میدان ونک برج نگار، طبقه 19,1969833643,35.7600951,51.4099818
1359,کارگر شمالی,1417933822,35.7017324,51.3912366
136,ابراهیم حسنی,1636757464,35.7255920,51.4607581
2,خیابان امام خمینی بن بست جمشید خواه پاساژ تیموریان,1114664917,35.6854872,51.4150725
22,فلسطین جنوبی,1316744556,35.6941608,51.4016536
946,لاین کدرو بزرگراه زین الدین- بین خ مظفری و خیری,77050827,35.7501978,51.5426128
26,استاد جعفر شهری,1598994411,35.7113832,51.4164874
62,سرو غربی,1998994835,35.7784496,51.3617636
435,جهانشاهلو,16889,35.7518882,51.5089495
99,ولی عصر,1593733393,35.7095165,51.4069223
فلاح,خیابان ابوذر,383,35.6569656,51.3683909
40,کارگر شمالی، کوچه چهارم,1413693874,35.7228706,51.3893732
33,دریانوردان سانچی,1917797131,35.7721816,51.4223506
1,داود قره‌چلویی,1998185913,35.7819221,51.3585945
16,سه راه لویزان,1668864317,35.7762486,51.4857890
1,خیابان هتل استقلال,123456,35.7893131,51.4141720
۲۴,مرجان,1439951113,35.7410933,51.3919055
27,بلوار مدیریت,1997918559,35.7712699,51.3806732
21,پروین,1654636464,35.7261529,51.5256792
پلاک1، ساختمان فرشته,علیرضا اخگری,1965613751,35.7913118,51.4184800
46,البرز ۱,1463863811,35.7347845,51.3549772
123,Kharazi Expressway,12345,35.7555766,51.1948784
2880,Valiasr Street,19617-33114,35.8018148,51.4193121
4,برادران شاداب,1583735116,35.7101274,51.4189517
519,ترنج,1957943311,35.7982978,51.4753354
477,دکتر آیت,16499,35.7263720,51.4931961
1,آیت الله مطهری,1587633133,35.7242189,51.4230045
385,جانبازان شرقی,1649714681,35.7296798,51.4992774
3,شهید اشرفی,1658695411,35.7284958,51.5588597
12,جویپا,1998798999,35.7799868,51.3639294
12,برادران اکبری;۱۲۱,1365775311,35.6570635,51.3831325
سهرودشمالی,تهمتن,1234,35.7274518,51.4344011
667,ستارخان,1451683831,35.7218171,51.3433348
1107,بزرگراه شهید سلیمانی,1671669138,35.7401647,51.4689627
مریم خدایی,اکبر مشهدی,00982153164,35.6377563,51.4095907
166,سید جمال الدین اسدآبادی,1431895569,35.7277334,51.4073090
100,مقدس اردبیلی,1986776967,35.7989448,51.4142556
5,بلوار سعادت آباد,1998813646,35.7717054,51.3782523
12,اعتمادیان,1481857817,35.7221664,51.3325694
میرداماد,بهبهانی,"پلاک 4, واحد7",35.7616804,51.4359047
383,خیابان ابوذر,1363957476,35.6571243,51.3684612
197,hengam boulevard,1683636818,35.7425402,51.4953681
طبقه 15 برج کیان,ولی عصر,1968643123,35.7701076,51.4120697
8,خواندنیها,1136945918,35.6879913,51.4198351
4,یازدهم,1187878512,35.6547840,51.4318507
9,پنجم,1458889311,35.7018178,51.3534930
134,سپهبد قرنی,1598977616,35.7088669,51.4181077
19,جنت آباد جنوبی,1473934961,35.7434799,51.3045971
122,شانزده متری گلستان,11111111111,35.7562728,51.2488201
8,فتحی شقاقی,1433633473,35.7238824,51.4096354
8.39,خیابان هشتم نیروی هوایی,1741993111,35.7053274,51.4900184
20,ری,1118776487,35.6833575,51.4367375
436,آیت الله بهشتی,1586764637,35.7278489,51.4171764
19,گیتی,1966684714,35.7842282,51.4224678
17,Ouraman,1578683119,35.7224781,51.4338570
2,پارک وی، خیابان جوانان، خیابان جمشید مشایخی (ج)، کوچه اول، پلاک 2,1985633940,35.7926883,51.4094604
390,نیروهوایی,1746644354,35.7238069,51.5275680
41,ناظم الاطبا جنوبی,1115653648,35.6837648,51.4241220
طبقه اول,آقا بزرگی - دویست و شانزده غربی,۱۶۸۶۸۳۶۳۶۱,35.7493699,51.5296493
پلاک۴ طبقه اول,آقا بزرگی - دویست و شانزده غربی,۱۶۸۶۸۳۶۳۶۱,35.7494246,51.5296585
2,شهرک صدرا,1485896917,35.7434199,51.2577584
1,شهرک صدرا,1485896918,35.7434610,51.2577080
447,امام خمینی,1346899163,35.6878364,51.3773515
پلاک 1 طبقه 2 واحد 4,ایرانشهر جنوبی بن بست قره گوزلو,1581617517,35.7025701,51.4198488
180,شهید یوسف کلاهدوز,09821,35.7799864,51.4578947
1349,هفده شهریور,1719946897,35.6822175,51.4469513
4,فردوس,1944646157,35.7757312,51.4547668
5,ساسانی پور,15448443116,35.7527896,51.4440601
11,سلمان,1991716738,35.7570849,51.3975032
385,جانبازان شرقی,1649714681,35.7296294,51.4990073
37,بهار جنوبی,1561635677,35.7029211,51.4290092
2 مدیر,بلوار هرمز ستاری,1968815573,35.7664557,51.4137710
716,سهروردی شمالی,1555735434,35.7422820,51.4436915
203,بوشهری,1144717591,35.6894045,51.4234524
203,بوشهری,1144717591,35.6894677,51.4235745
203,بوشهری,1144717591,35.6893889,51.4236904
31,بلوار حمید صالحی,1458643635,35.7062048,51.3378563
555,خ شیخ صفی،کوچه چهل و پنجم,16387194,35.7190790,51.4505486
1212,خیابان قزوین,1358875377,35.6684612,51.3596787
143,خرمشهر,1533814181,35.7355527,51.4303510
794,رودکی,1345685941,35.6976190,51.3751855
196,کاج شمالی,1431813556,35.7259538,51.4005314
130,سنایی,1586645519,35.7213287,51.4181277
123,بلوار امیرکبیر,۱۴۹۴۸۱۴۷۶۱,35.7474673,51.2438398
12,خ آیت شمالی. خ رضوان غربی جنب سون سنتر پلاک ۱۲,0098,35.7282643,51.4925035
45,زرتشت غربی,0098,35.7163343,51.4024308
344,خ قصرالدشت ، تقاطع بوستان سعدی,1347794984,35.6919222,51.3699739
14,سوم,1587668311,35.7253300,51.4219426
5198,آذربایجان,1346954816,35.6948431,51.3782592
52,بلوار شهید اندرزگو,1937634911,35.8007687,51.4522121
50,خسرو,15988-15311,35.7120802,51.4164391
7,کوی نصر,1447693502,35.6864055,51.3711662
71,برادران اسماعیلی,1371767161,35.6641732,51.3259199
259,آیت الله مطهری بین قایم مقام فراهانی و میرزای شیرزای,1586715645,35.7240687,51.4186401
609,۱۵ متری سوم,09821,35.6590692,51.4983831
38,دانش,1475613781,35.7540118,51.3064636
19/32,ولی عصر,11111-11111,35.7201006,51.4082054
4,فرجی,1459745953,35.7126261,51.3441011
94,طاووس,454322,35.6647974,51.3160962
225/1,امیرسلیمانی,1977713144,35.8129374,51.4552739
132,vozara,1516748617,35.7456379,51.4121223
RC268,ایران مال / راهرو G2 / طبقه همکف,۱۲۳۴۵۶۷۸۹۰,35.7536245,51.1930040
420,سیمای ایران,1467698569,35.7524644,51.3649884
595,دکتر علی شریعتی,1613655714,35.7193995,51.4420498
12,گل افشان,1493967343,35.7467077,51.2395681
58/1,بلوار پاک نژاد,1998994835,35.7802111,51.3614776
58/1,بلوار پاک نژاد,1998994835,35.7802463,51.3615390
37,کاظم موسوی,1669614262,35.7659537,51.4800458
81,خیابان چهارم,18458-67777,35.6232160,51.4312036
12,اسفندیار / نلسون ماندلا,1968656473,35.7705229,51.4194983
پاساژ شکروی,خیابان لاله زار شمالی,021,35.6966642,51.4235476
پلاک 100,آیت الله بهشتی,1569753516,35.7311022,51.4405153
249,لاله زار,1144733665,35.6915462,51.4229016
تقاطع میرداماد، دانشکده مهندسی نقشه برداری,ولی عصر,19967-15433,35.7650295,51.4099841
280,تهران، تهرانپارس، میدان پروین (شاهد)، خیابان ۱۹۶ شرقی، بین خ ۱۳۱ و خ ۱۳۳,1656684551,35.7411897,51.5478175
11,میدان قزوین,1335663393,35.6751079,51.3951282
332,بلوار کشاورز,1418883486,35.7077430,51.3882922
166,سید جمال الدین اسدآبادی,1431895542,35.7276881,51.4073154
54,صائب,1457886871,35.7035504,51.3754025
352,شهید وحید دستگردی,1968733690,35.7682316,51.4168546
369,بلوار میرداماد,1969615445,35.7633219,51.4119155
134,سپهبد قرنی,1598977616,35.7088549,51.4181083
21,رامین جنوبی,1481735773,35.7223621,51.3185053
84,بزرگراه جلال آل احمد، مابین پل آزمایش و گیشا، روبری ایستگاه آتش نشانی، طبقه فوقانی حسینیه شهرآرا,1445833955,35.7272118,51.3724321
20,بلوار ده حقی (آهنگ),11111111111,35.6562993,51.4865628
5,قربان فلاح,1671943111,35.7475202,51.4703725
107,خیابان شهرداری,1963654371,35.8056373,51.4315734
9,حمید صدیق,1561937813,35.7056064,51.4321731
5,وزین,1378783961,35.6711436,51.2912956
167,ملت,1141665178,35.6911151,51.4285218
35,Motohari St,1588745681,35.7223679,51.4233202
32,آیت الله مطهری,1576919511,35.7245639,51.4314963
24,Javid Alley,1594843799,35.7182771,51.4097147
609,چهل و پنج متری زرند,1386713856,35.6717470,51.3117030
۵۹,یاس یازدهم,1494764315,35.7575902,51.2467853
248,Mahmoodi,1671688161,35.7411137,51.4718295
327,خیابان قزوین,1333995554,35.6749914,51.3910647
31,آیت الله دستغیب,13889,35.6907781,51.2468542
17,پاکستان,1531765114,35.7341288,51.4215405
چهاردهم,پاکستان,1531765115,35.7341493,51.4215716
395,خیابان سهروردی شمالی، بالاتر از مطهری، روبروی نوین چرم، پلاک ۳۹۵، طبقه اول,1568643515,35.7282655,51.4370927
241,کارون,13478-46891,35.6863251,51.3671316
55,جمهوری اسلامی,1146837915,35.6917910,51.4285041
3,لاله,1139813320,35.6937170,51.4097967
6,Rezvan,1436954970,35.7503619,51.4019222
1,سهروردی شمالی ،باسقی,1683719467,35.7298466,51.4375100
پاساژ کاشانی,مسجد جامع,1165614416,35.6753294,51.4246772
8,S. Shiraz,1436975159,35.7477228,51.4013690
56,ریاضی بخشایش,19988-97143,35.7756996,51.3662727
28,شاه نظری,1547916158,35.7574812,51.4424364
682,منطقه 22 -شهرک گلستان - بلوار امیرکبیر,14939-48883,35.7462140,51.2333802
33,بلوار دادمان,1468913641,35.7659624,51.3599877
18,ابوالقاسم تقوی,18569,35.6125513,51.4532844
116,بلوار میرداماد,1969615445,35.7628274,51.4109827
1,بلوار میرداماد,1969615445,35.7636003,51.4108502
52,میدان اعجازی,1987783156,35.8101231,51.4111854
6,حسین هاشمی,021,35.6943818,51.4270421
۱۷۵۴,دکتر علی شریعتی,۱۹۱۴۹۶۴۹۷۱,35.7893059,51.4354606
1014,دکتر علی شریعتی، روبروی خیابان خواجه عبدالله انصاری,1543616833,35.7457769,51.4483337
22,عباس شیرازی,1435815187,35.7518467,51.4006943
676,بازار خیاطها,1163644789,35.6744694,51.4198540
51,گلزار شرقی,1477916353,35.7666490,51.3070980
97,عباس صابونیان,1187817519,35.6539003,51.4306540
میدان کاج,بلوار سعادت آباد,1998613186,35.7827453,51.3752566
6,هرات (دوم),1531614611,35.7305321,51.4228441
برج آی تک واحد 59,گلشهر,1915677394,35.7762179,51.4229100
34,عباس شیرازی,1435815187,35.7535226,51.4004619
28,بلوار آیت الله کاشانی,11111111111,35.7404925,51.3024881
79,سی وششم شرقی,1997813968,35.7731888,51.3827939
250,خیام,1114818549,35.6832977,51.4181998
19,بلوار دادمان,1466916454,35.7666866,51.3639415
418,دکتر آیت,۱۹۵۵۴۶۶۷۸۷,35.7240057,51.4922776
1,میدان سپاه,1619996593,35.7063090,51.4406139
49,"north Shohadaye Sadeghieh Blvd, Sattar Khan St",1481796163,35.7231537,51.3379506
53,برادران پایدارفرد,1666973133,35.7705113,51.4641711
25,زندی,1671637873,35.7410840,51.4679865
175,شهید وحید دستگردی,1919819111,35.7668156,51.4277905
16,برازنده,1555734763,35.7423976,51.4430671
23,خیابان جمهوری - خیابان رازی - مریم (تیمساری),1134838375,35.6958743,51.4073941
۱۹,بیست و دوم بهمن,1863746855,35.6069778,51.4448693
86,بلوار آیت الله کاشانی,1481896944,35.7235708,51.3294462
52,حسینعلی خسروانی,1615665175,35.7143660,51.4561698
139,بلوار عبدالرضا,1659714613,35.7418525,51.5901771
2,خرسند,021,35.6976871,51.4068311
6,کارگر جنوبی,1313913994,35.6977309,51.3913019
18,احمد قصیر، کوچه مقدس,1514635514,35.7304321,51.4193711
213,مالک اشتر,1348957559,35.6843359,51.3604252
126,دانشگاه/تقاطع روانمهر,1314465134,35.6981071,51.3977673
97,ابوالفضل شجاعی,1136644831,35.6897705,51.4114036
160,بلوار بهشتی,1388976844,35.6914491,51.2465320
98,آیت الله قدوسی,۱۶۳۷۶۶۴۹۴۱,35.7296782,51.4520019
45,خیابان رشت,1591815164,35.7053163,51.4092639
655,آیت الله مدنی,1614155593,35.7144981,51.4610599
4,خ. ری، نرسیده به سه راه امین حضور، پاساژ سهامی، طبقه منفی 1،پلاک4,1171613548,35.6819004,51.4377948
86,فیروزه,1593739788,35.7093159,51.4069670
2,بلوار نلسون ماندلا,1917635816,35.7635777,51.4189748
20,لاله زار جنوبی پاساژ بوشهری طبقه همکف,144713780,35.6899735,51.4227059
9,فرصت شیرازی,1418814856,35.7029627,51.3899410
"Unit 10,11, 5th Floor","Donyaye Noor Shopping Centre, between Imam Ali highway and Shahid Sayad Shirazi, Shahid Soleimani Expressway",1675619466,35.7388255,51.4776240
9,koye farhang,2,35.7723999,51.3851642
1,شریعتی،یخچال،کی نژاد، نبش کوچه قریب، ساختمان پزشکان دکتر قریبف طبقه اول، واحد 1,1941953145,35.7733069,51.4429498
18,بن بست کارامیان,1933714483,35.7915729,51.4372405
8,خ مطهری، خ کوه نور، بن‌بست دوم,1587633818,35.7247565,51.4234573
27,سیده زهرا حسینی,1533835546,35.7373707,51.4300973
18,سئول,1995813151,35.7667550,51.3962081
1270,انقلاب اسلامی,1314744513,35.7008498,51.3957593
3,گلستان چهارم,1494643111,35.7546893,51.2601518
55,محمود ریاحی,1473836189,35.7521394,51.3044572
C27,پل حافظ,1139817361,35.6947810,51.4121766
۲۵,بلوار میرداماد - نبش ولیعصر ساختمان اسکان طبقه همکف تجاری پلاک ۲۲۵,1969615445,35.7637266,51.4106232
114,بلوار خاتم الانبیا,1786833393,35.6378953,51.4868102
26,"No.26, Semnani st, Sarafraz st, Beheshti st",1587683511,35.7268573,51.4213458
12,صدف,1593733393,35.7094383,51.4060628
40,زرین خواه شرقی,009821,35.6163002,51.4789599
۱۱۸,مسعود سعد,11111111111,35.7148375,51.4927785
500,بزرگراه شهید سلیمانی,1649748861,35.7348284,51.5008823
516,کنارگذر بزرگراه زین الدین,1656846993,35.7487560,51.5534278
106,آیت الله دستغیب,1388976844,35.6926263,51.2470644
14,شاپوری,1945614858,35.7798776,51.4599567
586,عباس صابونیان,1187817519,35.6546174,51.4309296
194,فاطمی,1411853161,35.7138284,51.3888570
38,سرافراز,1586866415,35.7276596,51.4207360
1,ولی‌ الله فلاحی,1988615966,35.8033818,51.4202898
128,منوچهر نیکومرام,1819684663,35.6366258,51.4022670
حکیمیه,پنجم شیدایی - ششم جنوبی - پلاک 19,1658964181,35.7313818,51.5736956
24,ابراهیمی,1554934111,35.7401171,51.4365207
35/1,"بلوار نلسون ,ماندلا خیابان عاطفی شرقی",1917797396,35.7722528,51.4216260
143,بلوار دریا,1998875583,35.7716315,51.3681864
915,نبش برادران مظفر شمالی,1416914133,35.7014511,51.4042546
پلاک 6,بلوار دادمان، خیابان بهارستان,1468695931,35.7658717,51.3559622
6,خیابان امیرکبیر,1141716691,35.6866747,51.4289496
15,آذرطوس,1141643918,35.6870280,51.4275286
278,بلوار امیرکبیر,1493653741,35.7473469,51.2467462
401,ری,1173735554,35.6777684,51.4353619
40,مصطفی والی نژاد,1969944415,35.7605073,51.4112510
543,ولی عصر,1416793737,35.7082830,51.4061095
203,لاله زار,1144944339,35.6888097,51.4225923
707 - واحد 8,میدان رسالت – بزرگراه سلیمانی,1681819831,35.7358897,51.4958658
17,خدمات خو.دروی کارفکت,1397138911,35.7387179,51.1537012
66,ابن سینا,1149935116,35.6941260,51.4339951
6,میدان اعجازی، خیابان بهزادی، بن بست بهار,1987617862,35.8088956,51.4094258
705A,بلوار میرداماد - مجتمع تجاری پایتخت,19169763715,35.7629074,51.4109523
32,خیابان فخری زاده,1693619496,35.7950411,51.4821043
69,سپاه,1619915571,35.7032706,51.4392251
7,دانشور شرقی,1991818651,35.7624171,51.3994273
2,خزر شمالی,1914954395,35.7885334,51.4342149
8,فرشید,1991614364,35.7576730,51.4028883
28,المپیک یازدهم,-,35.7588935,51.2624660
142,فرصت شیرازی,1419953381,35.7023118,51.3814988
1,عبدالحسینی,1481844517,35.7283887,51.3155785
83,شریعتی، بین حقوقی و مشایخی، پلاک 83 (محله‌ی خواجه نصیر - حقوقی),1561917799,35.7047271,51.4324885
132,شهرک شریعتی، خیابان مهران، کوچه سلطانی,1894753743,35.6366178,51.3772513
11,هفده شهریور نبش کوچه سجادی,1719944834,35.6809037,51.4469460
1287,هفده شهریور,1719943111,35.6808912,51.4468816
123,برادران محمدی,1674953112,35.7577520,51.4821993
2,خیابان جعفری نبش کوچه ی صفری,11111111111111111111111111111111111111111111111111111111111111111111111111111111111,35.6584958,51.3051037
85,مرتضی لبافی نژاد,13144-65134,35.6972630,51.4002048
350,حافظ,1591634311,35.7052030,51.4107634
27,علیرضا دائمی,1415,35.7140165,51.4006234
82,شیرازی,1787834563,35.6299432,51.4914924
80,شیرازی,1787834571,35.6299527,51.4915843
3,ارکیده,1476934762,35.7677801,51.3190857
427,فرجام غربی بین ولیعصر و عبادی,1684957961,35.7378314,51.5094174
30,حمید فخاری,1594653816,35.7139475,51.4080587
6008,تهران، دانشگاه تهران، خیابان دمشق، خیابان ولیعصر، مجتمع نور تهران، پلاک 1574,1416798334,35.7071926,51.4057675
171,بلوار فردوس,1481886166,35.7228810,51.3228216
1,تکیه,1956733833,35.8210552,51.4590807
62,لاله زار ، تقاطع مجمر ، پاساژ فراز,1144943668,35.6882462,51.4228226
1,تهران، ونک، خیابان سئول، کوچه دوازده متری دوم- پلاک 1,1995873765,35.7719270,51.3960373
20,"Mirzahasni Alley, Qaem Maqam Farahani Blvd.",1586753863,35.7271273,51.4171684
153,بلوار فردوس شرق ، مابین سلیمی و مالکی,1481885919,35.7229117,51.3235503
۲۶,دانشور شرقی,1991775941,35.7628227,51.3982312
789,ستارخان,1451796345,35.7222060,51.3366624
402,بزرگراه شهید سلیمانی شرق-جنب مترو علم و صنعت,1651636448,35.7340889,51.5059646
1,بلوار اباذر,1473675978,35.7377904,51.3268099
16,عقیلی,1598683836,35.7108190,51.4138587
37,برادران ابوالحسنی,1673766311,35.7510710,51.4781137
19,حسن خاک,1667813131,35.7631385,51.4753317
110,"Yasin St , Dahom farvardin St , Pirouzi St",0098,35.6889950,51.4655177
120,حسن عضدی (آبان),1596644713,35.7208933,51.4140934
8,یوسف ماسوله,1856648933,35.6176187,51.4501971
416,سرو,1419614568,35.7084784,51.3851949
601,کنارگذر شهید متوسلیان,1386964611,35.6766586,51.2722092
30,فریمان,1416864171,35.7050263,51.4003410
12,حاج آقازاده,16186,35.7067654,51.4479994
25,نیلوفر غربی,1481736977,35.7226796,51.3189123
1,توحید ۱,1466994584,35.7678554,51.3784618
کافه افق,فرجام شرقی,1111111111,35.7350439,51.5287190
116,آیت الله مطهری,1578744331,35.7241775,51.4333293
58,شهدای ژاندارمری,1314744518,35.7000114,51.3976899
37,بلواز جانبازان غربی,1648736641,35.7307748,51.4917842
22,آذرشهر,1584655813,35.7130496,51.4201799
"تهران :شهرک ژاندارمری , مرزداران , بین خیابان ایثار و آریافر - پلاک ۱۲۰",بلوار مرزداران,120,35.7340976,51.3546767
14,سیزدهم,1513753602,35.7335259,51.4147261
14,پارک شهر، خیام شمالی، کوچه روحی، ساختمان 110، همکف، پلاک 14,1114816475,35.6833568,51.4188963
43,حسینی پلاک 43,1585843135,35.7172101,51.4188027
No.2,"First of Mansouri (north kia) , Kaboli st , Shahr ara Ave",1444994797,35.7219692,51.3697242
4,valiasr,1434877551,35.7500692,51.4110696
210,شیخ صفی,1613779611,35.7193106,51.4474295
12,حسین عرفاتی,1939965169,35.7911711,51.4566688
1325,جانبازان غربی,021,35.7315580,51.4824162
1325,بلوار جانبازان غربی,021,35.7315022,51.4822895
59,dampazshzi,1346954816,35.6939179,51.3769490
147,سعدی جنوبی - کوچه پست - پاساژ امیر - طبقه منفی1 - پلاک 147,1115617149,35.6842501,51.4236981
37,لاله‌زار جنوبی، مجتمع اداری تجاری فراز,1144943800,35.6884203,51.4228951
246,بلوار میرداماد,1549844734,35.7601961,51.4294139
126,بلوار دریا,1466946396,35.7711308,51.3670252
10,کریمی,1933898515,35.7954479,51.4395388
62,منظرنژاد,1948813417,35.7616634,51.4452520
2,پارسی,1131853911,35.7008837,51.4166342
158,دانشگاه,1314755571,35.7002162,51.3979383
109,بلوار شهید غلامرضا مخبری,1476745546,35.7571289,51.3221922
3,شهید محمد گیویان,3216544563,35.6813240,51.4496205
12,حسن حسن زاده,1857956474,35.6147233,51.4461807
۲۷۳,جنت آباد مرکزی,۱۴۷۵۷۶۳۸۸۰,35.7634504,51.3044092
275,جنت آباد مرکزی,۱۴۷۵۷۶۵۷۴۱,35.7635570,51.3044155
269,جنت آباد مرکزی,۱۴۷۵۷۵۵۶۸۹,35.7622559,51.3044661
1,پرستو,۱۴۷۵۷۶۷۳۱۰,35.7636350,51.3061003
30,یازدهم,۱۴۷۵۷۶۴۴۱۳,35.7634560,51.3057748
195,دانشگاه هوایی جنوبی,1384719511,35.6712617,51.3361117
ستارخان سه راه تهران ویلا نبش کوچه مهرسر برج تهران ویلا طبقه 5 واحد 1,ستارخان,1444735686,35.7196478,51.3632029
904,بلوار نلسون ماندلا، برج آناهیتا,۱۹۱۷۶۴۳۱۹۷,35.7642857,51.4192215
129,شهدای ژاندارمری,1314654531,35.7000047,51.3918769
22,استقلال,1371857893,35.6665661,51.3121785
پلاک۱۰,خیابان ملت,1143743659,35.6885505,51.4271829
7,فرهادیه,1457896351,35.7017524,51.3768685
115,جعفر عزیزی,1371857893,35.6663625,51.3116748
32,اقدسیه خ لنگری نبش فخری زاده,1693619436,35.7950153,51.4819904
2,متحیری,1559845313,35.7332934,51.4446579
34,جویبار,1415794813,35.7181989,51.4054590
115,ابراهیم زارع,1654969371,35.7295612,51.5441611
147,بلوار سرو غربی,1998135737,35.7778351,51.3573014
14,فلکه دوم صادقیه,1451613158,35.7226929,51.3355789
34,امیر کلاش,1633886616,35.7384974,51.4695881
P6JX+978,بلوار علیمرادی,P6JX+978,35.7308879,51.2482604
40,بلوار جانبازان غربی,1648736641,35.7306041,51.4913457
همکف واحد 34,آیت الله مدنی,۰۲۱,35.7267915,51.4767997
201,شانزده متری دوم شمالی,۱۴۷۵۷۱۶۴۶۶,35.7597229,51.3084450
2,شانزده متری دوم شمالی,۱۴۷۵۷۵۴۳۸۸,35.7626854,51.3086477
21,دهم,۱۴۷۵۷۶۳۸۶۹,35.7630652,51.3085532
21/1,دهم,۱۴۷۵۷۶۳۸۶۸,35.7630555,51.3085908
1060,ولی عصر,1316863671,35.6915812,51.4033263
۳۶,لاله یکم,۱۴۷۵۷۶۳۵۶۳,35.7632252,51.3086156
13,کمیجانی,۱۴۷۵۷۵۵۶۸۹,35.7607154,51.3065162
42,عظیمی,1393835117,35.7059767,51.3169161
9,خیابان دوازدهم غربی,1658769491,35.7336525,51.5673142
8,کاظمی,۱۳۱۱۷۶۷۴۵۱,35.6999876,51.3840087
پلاک 546,مالک اشتر بعد از کارون,13478-46891,35.6857960,51.3678809
۵۷,پاساژ لیدوما - همکف ۱ - راهرو سی,1467698569,35.7527139,51.3640449
71,بلوار جانبازان غربی,1648736641,35.7309482,51.4902155
2,باغستان یکم,1998635820,35.7881010,51.3754405
68,بلوار شهید غلامرضا مخبری,1476684641,35.7553813,51.3280911
270,بلوار دریا,1466933459,35.7700714,51.3609121
45,کنارگذر شهید متوسلیان,1386831756,35.6755319,51.2922344
126,دانشگاه,1314863478,35.6981331,51.3978253
19,بلوار اباذر,14717-55046,35.7315953,51.3268252
5,شیراز جنوبی,1436954857,35.7501774,51.4013617
2,منظری داشکنی,1681819831,35.7357110,51.4974387
553,برادران شهید مهدوی زفرقندی,1655755961,35.7424532,51.5399933
332,شهید وحید دستگردی,1968733690,35.7680380,51.4181461
49,یوسف آباد، فتحی شقاقی، بین چهلستون و اسدآبادی، پلاک 49، طبقه همکف,49,35.7238698,51.4066254
پاساژ شهلایی، طبقه اول، پلاک 24,جهانگردی,1114638519,35.6855228,51.4112652
31,سئول,1994913419,35.7683910,51.3967576
4,خسروانی,1546733538,35.7556734,51.4456016
194,سی تیر نرسیده به جمهوری جنب باماهاس,1135716435,35.6944489,51.4144016
82,کیلومتر 8 غرب به شرق بزرگراه شهید لشگری بین بلوار دکتر عبیدی و خیابان شانزدهم شرکت صنایع غذایی بهروز نیک,1389798711,35.7082094,51.2471933
292,بزرگراه فتح مجتمع تجاری پارس غدیر,1386853688,35.6735412,51.2997906
1,بزرگراه فتح غرب به شرق، بعد از پل کن، کوی اخوان مسعودی,1386833411,35.6750760,51.2912844
2,شادآباد ، خیابان 17 شهریور،بعد از میدان بوربور،کوی آهنگر،,1378734493,35.6648391,51.2862526
140,جمهوری اسلامی,1144644758,35.6934887,51.4215358
18,ایثار دوم,1981819995,35.7857161,51.3509568
26,تقاطع موسوی و مکران جنوبی,1667917526,35.7678476,51.4745853
7,خرمشهر,1557756315,35.7360581,51.4409238
235,ناظم الاطبا شمالی,11436-53658,35.6874243,51.4244935
965,دکتر علی شریعتی,1661714378,35.7470111,51.4496373
14,هویزه,1559945711,35.7338833,51.4442540
پ3,صادقی ۱۱۳,1651999896,35.7225881,51.5152139
118,حافظ,1135619751,35.6907138,51.4112604
36,"Fatemi Square, Jooybar Street, Ghaffari Gharbi Alley",1415794565,35.7186195,51.4052691
۳۴,عباس شیرازی,1435843948,35.7534603,51.4004237
23,رامین جنوبی,1481736931,35.7227167,51.3185473
57,عزتی‌پور,1471933595,35.7375571,51.3069399
53,عزتی‌پور,1471935544,35.7375277,51.3070462
62,آزادی,1668736740,35.7692855,51.4772421
55,برادران شریفی,1969943911,35.7594635,51.4103766
222,خرمشهر,1533743518,35.7352473,51.4302592
426,آیت الله مطهری,1595844811,35.7234487,51.4135060
1/14,بلوار یاس,1388970297,35.6893869,51.2466126
10,بیژن ابراهیمی,1463694312,35.7303410,51.3443067
201,نیکو,1938736971,35.7957838,51.4432479
۳۷,برادران پورزند,9821,35.7835733,51.3728319
۲۷,بلوار سعادت آباد,1997998414,35.7813492,51.3758008
9,زیرک زاده,1575793137,35.7199751,51.4304637
5,دوازدهم بهمن,1657889468,35.7364484,51.5633003
448,کنارگذر نواب صفوی,1346945153,35.6914798,51.3786955
15,آیت الله طالقانی,1571716433,35.7072544,51.4330567
"Unit 10, 4th Floor, No.3","Gandhi Street, 4th St",1517739531,35.7486384,51.4120164
4178,نازآفرین,1547916158,35.7575951,51.4426158
299,بلوار میرداماد,1969633753,35.7623309,51.4178971
11/9,hafezi,1981619417,35.7714447,51.3557894
63,بلوار هوانیروز,1493653741,35.7457291,51.2466713
۱۹,شهید محرمعلی گازرانی فراهانی,1863746855,35.6065969,51.4447126
309,خیابان باهنر مجتمع اداری نارون  طبقه 3,1954966173,35.8115114,51.4645418
خیابان اندرزگو - ابتدای بلوار صبا-نبش کوچه مهدیه-مطبخ وزیری,مهدیه,1938738757,35.7954839,51.4417501
31,خیابان هفتم غربی,اتحاد,35.7323770,51.5609665
60,فریدون وثوقی,1371835481,35.6636883,51.3032471
12,خیابان بهاران دو,11111-11111,35.6602727,51.3151597
5,زارعی,1657889468,35.7376940,51.5640395
53,شهسواری,1645989144,35.7209514,51.4785604
1047,جمهوری اسلامی,1314954832,35.6961535,51.3945887
13,بلوار آیت الله کاشانی,1471676177,35.7240825,51.3292435
635,بین فلکه سوم و چهارم خیابان 212 شرقی - بین 131 و 133 پلاک635,۱۶۵۶۷۴۴۸۱۱,35.7460066,51.5472542
85,پاسداران,1664614117,35.7557586,51.4528664
298,بلوار کشاورز,1417994378,35.7074565,51.3906611
02191002225,بلوار درختی,1468694713,35.7659886,51.3546986
۱,پروانه شمالی,1483783131,35.7268652,51.3062414
350,حافظ,158754413,35.7043143,51.4091873
9,الهیه,1587695111,35.7842605,51.4351475
204,اسوه,1234567,35.7260781,51.5798368
۱۰,مهستان,۱۴۶۵۷۶۳۱۱۱,35.7598350,51.3769927
67,بلوار کشاورز,14159-44911,35.7102758,51.3994229
7,کارگر شمالی,1439955471,35.7361659,51.3855680
9,ایتالیا,14159-44911,35.7079687,51.4010129
200-09202000000,مهرداد,1967863311,35.7739312,51.4187536
10,دشتی,1914861144,35.7850380,51.4341765
۹۶,اسفندیار,1968653111,35.7712543,51.4127063
10,کاوش,1498713549,35.7574340,51.2223660
1355,قزوین,1341756118,35.6705234,51.3551882
265,بلوار ابریشم,1831965535,35.6338015,51.4135637
61,داروپخش,1397116396,35.7348041,51.1487646
418,خیام,021,35.6694613,51.4157376
371,حافظ,11316,35.6967712,51.4124609
7,بخارست هفتم,1513737511,35.7316633,51.4158386
15,مهستان,۱۴۶۵۸۳۴۵۸۱,35.7597381,51.3776254
پلاک 10,فتح دهم,1386853636,35.6743086,51.3013700
172,فردوسی,11316-99813,35.6959583,51.4184843
L3,میدان موج,1493845933,35.7496226,51.2277137
18,منوچهر اکبری,1473193170,35.7506538,51.3276603
418,دکتر باهنر,1936793951,35.8117362,51.4600119
خیایان ترانسفو ری,جاده قدیم تهران - قم محله بهشتی,1887973919,35.5759162,51.4189350
54,پانزده خرداد,1166783611,35.6744466,51.4368365
2,چیتگر جنوبی، کیلومتر 18 جاده مخصوص کرج، خ لطیف جباری، خ آذر 4,1389143341,35.7243136,51.1402269
۱۷,اول,۱۵۸۵۹۳۸۳۱۳,35.7164703,51.4232826
39,قائم مقام فراهانی,1589943911,35.7176686,51.4237117
021-88343500,تهران، خیابان قائم مقام فراهانی، پایین‌تر از مطهری، ساختمان پزشکان ۱۳۹، پلاک ۱۱۵، طبقه ۴، واحد ۱۴,1588613348,35.7226691,51.4202911
16,کامبیز,1415,35.7152850,51.4007131
50,دوم,11111-11111,35.7216870,51.4075006
25,شهید فتحی شقاقی,1433633473,35.7241285,51.4078258
12,عمار,311,35.8101831,51.4486819
386,پورابتهاج,1259863574,35.8129820,51.4755722
6,نارنجستان یکم,19575-176,35.7951976,51.4774393
10,آزادی,1937945714,35.8012754,51.4604390
89,زرمشت,1125820251,35.8165992,51.4600320
8,گاندی شمالی,1969944415,35.7591491,51.4115383
42,عطار,1994766411,35.7642514,51.4041407
16,سیزدهم,1517753714,35.7515755,51.4132591
پلاک6-واحد1,خوانساری,1571815853,35.7058007,51.4282994
471,بزرگراه لشگری,1396118851,35.7224093,51.1775492
66,کنارگذر متوسلیان,1386831783,35.6752774,51.2923520
114/3,دکتر علی شریعتی,1561917799,35.7052008,51.4322866
123,اردیبهشت,1466947434,35.7702585,51.3650601
26,عطار,1994766411,35.7635162,51.4053352
25,سی و هشتم غربی,1997915113,35.7723132,51.3815710
194,پیروزی,1717644451,35.6899219,51.4564792
22,خیابان قنبرزاده، بالاتر از خرمشهر، کوچه چهارم,15338-14701,35.7365745,51.4305459
83,Somayeh Street,1571838318,35.7059568,51.4280688
3,جهاد,1558746881,35.7350801,51.4450397
1,بزرگراه همت غرب، جنب پل کن,1416743148,35.7571066,51.2703889
117,وصال شیرازی,1416614178,35.7076743,51.3978712
14,بردران فرزام,1415743151,35.7147196,51.4040245
185,مرتضی فرید افشار,1919816311,35.7670606,51.4270522
17,لاله سوم,16599567,35.7398483,51.5924416
117,وصال شیرازی,1416614178,35.7076743,51.3978712
19,دوازده متری ولیعصر,1473136639,35.7438345,51.3258587
1,رضا لادن بخش,1473153541,35.7457413,51.3269954
5,رضا لادن بخش,1473177380,35.7462051,51.3265436
81,احمد بابایی,18157,35.6367345,51.4080802
02136613861,پامنار کوچه خلیلی مفرد پاساژ بنفشه پلاک 33,1117635637,35.6831895,51.4287878
142,م.ونک، گاندی، نبش بیستم,1961315131,35.7569590,51.4116833
70,برادران مظفر,نبش برادران مظفر,35.7030497,51.4041007
181,شهدای ژاندارمری,1314665611,35.7001378,51.3939528
2,فردانش,1417733631,35.7060979,51.3980058
2,بلوار عدل جنوبی,1476755475,35.7557980,51.3285295
24,زاینده ‌رود شرقی,1991913111,35.7579828,51.4040542
نرسیده به چهاراه فاطمی بازارچه لاله پلا 51,کارگر شمالی,14,35.7132387,51.3904338
256,دکتر مفتح شمالی,1588981,35.7206903,51.4278973
25,سنایی,1475894433,35.7634361,51.3133313
2413,دوازدهم,1517833313,35.7532479,51.4112254
1491,ولی عصر,15916,35.7034402,51.4058247
249,آیت الله مطهری,1587668311,35.7243059,51.4199079
02144664289,شهرک اکباتان فاز 2 روبروی مگامال بین بلوک 15 و 16,1396614377,35.7036328,51.3057286
02144696963,شهرک اکباتان فاز 2 بین بلوک 15 و 17,1396614377,35.7037744,51.3058343
6,دانیال,1935934165,35.7999010,51.4491633
3,تخارستان,1918793119,35.7654116,51.4273122
40,پانزدهم,1911793611,35.7640050,51.4382955
29,خیابان کاشیها,111,35.7574025,51.3128875
219,بلوار غلامرضا مخبری,۱۴۷۵۷۱۴۹۴۷,35.7598235,51.3072938
55,برادران مظفر,نبش برادران مظفر,35.7007687,51.4043509
021-88344732-6,تهران، خیابان کریمخان زند، خیابان سنایی، کوچه نوزدهم، پلاک 13، واحد 12,1586688134,35.7227442,51.4171039
11,هفتم,1587695611,35.7270834,51.4216660
23,سروستان نهم,1494978841,35.7554885,51.2389708
11,سروستان دوم,1661918681,35.7518560,51.4500165
518,شفیعی مکرم,1656846991,35.7485504,51.5535903
پلاک 72,کامران نجات اللهی,1599694933,35.7046985,51.4153471
13,عرفان,1586737711,35.7250829,51.4175252
28,دریانوردان سانچی,1917773540,35.7717372,51.4224830
142,فرصت شیرازی,1419953381,35.7023066,51.3815008
144,اصغر بداخشان کمالی,1363874134,35.6604400,51.3665961
147/1,خیابان آزادی,1419943592,35.7011332,51.3812298
43,شهید وحید خجسته پور,1473138613,35.7412337,51.3278678
116,خط اتوبوس سید خندان - مطهری - بهشتی,1578744333,35.7241506,51.4337441
28,فتح نوزدهم,1387646871,35.6793530,51.2934643
303,جمیلی شبستری,1656719131,35.7433435,51.5484817
64,عباسپور,1435753176,35.7550028,51.4074723
124,بلوار کشاورز,1416693171,35.7098358,51.4021640
14,مسعود احمدیان,1513814414,35.7344533,51.4151053
ساختمان امید طبقه سوم آموزشگاه موسیقی رازوک,سپاهیان انقلاب,1876875488,35.5906092,51.4335138
4/2,east brazil,1435763433,35.7552643,51.4068532
246,کنارگذر شهید متوسلیان,1386873715,35.6756337,51.3024884
5,ایتالیا,14159-44911,35.7082094,51.4014101
5,گلخانه,1915843665,35.7816085,51.4237047
201,لاله زار,1144733665,35.6912500,51.4229480
726,ستارخان,0000,35.7203432,51.3546946
7,میرطاهری,1941634347,35.7754268,51.4395792
"Unit 10, 4th Floor, No.3","Gandhi Street, 4th St",1517739531,35.7486685,51.4120293
58,محمدعلی حبیب الله,1455714138,35.7060648,51.3553774
پلاک 3,امداد شرقی,1991775941,35.7620900,51.3991640
پلاک 53,کیش,1518835514,35.7590891,51.4152816
10,نسترن,1951667969,35.7831864,51.4580062
246,بلوار میرداماد,1549844734,35.7601668,51.4294332
202,خیابان سنجابی,1911934178,35.7598412,51.4427474
124/1,نبش خیابان خدری و خیابان سنائی,1586636945,35.7207794,51.4185023
2,درختی,1468695931,35.7655052,51.3554961
519,ترنج,1957943311,35.7983007,51.4753281
۲۶,دانشور شرقی,1991775941,35.7627740,51.3981963
253,دماوند,1654613611,35.7245695,51.5260819
1,کیلومتر 11 جاده مخصوص کرج، خیابان 29,1399,35.7166321,51.2182849
13,تابان غربی,1968946358,35.7643304,51.4174003
15,مهر اول شرقی,193363385,35.7889369,51.4410480
28,حسین عرفاتی,1951853981,35.7903784,51.4592962
1,عبدالهی شیرآبادی,1939914943,35.7845424,51.4538043
9,حسین جعفری نجف آبادی,1943684611,35.7791519,51.4486920
5 اندیشه,میرزایی زینالی,4,35.7279660,51.4422183
2,بلوار شهید میرزابابایی / اشرفی اصفهانی,1476775463,35.7605803,51.3290892
804,کارگر جنوبی,1318786115,35.6941496,51.3918167
332,بلوار کشاورز,1418883486,35.7077392,51.3882993
3,فلسطین شمالی,441,35.7121343,51.4046849
112,مجید غروی,1476785821,35.7558405,51.3331857
پلاک 62,خیابان آفریقا، پایین تر از چهارراه جهان کودک، نبش خیابان 25، ساختمان 29 آفریقا,1517944851,35.7566916,51.4141518
40,محمدعلی نقدی,1576633814,35.7249616,51.4295694
68,بلوار سرو شرقی,1997998583,35.7821030,51.3773404
2,آقاجانی,+9821,35.6879054,51.4314112
1826,دکتر علی شریعتی,1914963653,35.7922015,51.4346644
1270,انقلاب اسلامی,1314744513,35.7006521,51.3957511
194,فاطمی,1411853161,35.7137782,51.3888377
2,بلوار نلسون ماندلا,1917635816,35.7635228,51.4190534
46,کبیری,19356,35.8060498,51.4401808
51,آباده,۱۲۳,35.7300538,51.5543402
1045,آذربایجان,1345697939,35.6997766,51.3664059
142,خرمشهر,15337-75117,35.7353591,51.4343056
7,هفتم,"پلاک 7, واحد1",35.7632628,51.4350423
20,Mirza Hasani Street,1586753863,35.7270069,51.4171707
20,Mirza Hasani Street,1586753863,35.7270069,51.4171707
13,آیت الله طالقانی,0098,35.7075618,51.4333363
162,دانشگاه,1314744518,35.7005515,51.3980266
14,وحید خجسته پور,۱۴۷۳۶۸۴۱۸۱,35.7404680,51.3313787
3,شهید محمد گیویان,3,35.6813074,51.4496186
232,گلستان ۵,1666947799,35.7722510,51.4632630
7,خیابان توحید، نرسیده به خیابان آزادی، کوچه فرهادیه,1457886871,35.7017473,51.3768823
52,علیرضا دامن افشار,19697,35.7618894,51.4113126
34,جویبار,1415794813,35.7182028,51.4053679
292,خیابان آزادی,1345693653,35.7001854,51.3684331
28,"Nelson Mandella Street, Golshahr Blvd",1915663734,35.7756674,51.4237767
6,میخک,١٩٨٥١١١٤٥٩,35.7752726,51.3220982
۵,شیراز جنوبی,1436955145,35.7502324,51.4012799
13,وحدت شمالی چهارم,1473138613,35.7397707,51.3291432
14,هویزه,1559945711,35.7338345,51.4442891
14,هویزه,1559945711,35.7338371,51.4442891
302,داریوش سلطانی,16568-53881,35.7476263,51.5560781
داوودیه,محمدرضا کوشا,1544733111,35.7516642,51.4414027
2,یاس,1314964512,35.6974058,51.3945316
430,بلوار آیت الله کاشانی,1481816394,35.7298451,51.3133835
