House number,Street name,Postal code,Latitude,Longitude
80,Bulevardul 1 Decembrie 1918,332012,45.4211439,23.3699323
73,Strada Anghel Saligny,907111,45.4201039,23.3729370
20,Strada Universității,332006,45.4196962,23.3759615
61,Strada 1 Decembrie 1918,907111,45.4232529,23.3693885
12C,Strada Livezeni,332071,45.3843719,23.3711143
12C,Strada Livezeni,332071,45.3842365,23.3710301
12C,Strada Livezeni,332071,45.3841137,23.3709582
106A,Strada Maleia,332047,45.4269839,23.3931484
2,Strada Nicolae Bălcescu,332026,45.4165515,23.3712072
64,Strada Slătinioara,332054,45.4094860,23.3984210
7,Strada Primăverii,332062,45.4121398,23.3680548
104,Anton Pan,332015,45.4153008,23.3666967
22A,Strada Aviatorilor,907111,45.3949794,23.3753000
57A,Bulevardul 1 Decembrie 1918,332031,45.4244842,23.3681529
38A,Strada Aviatorilor,332108,45.3936610,23.3739578
40A,Strada Aviatorilor,332108,45.3926654,23.3738880
38B,Strada Aviatorilor,332108,45.3934020,23.3738975
40,Strada Aviatorilor,332108,45.3923726,23.3743816
38,Strada Aviatorilor,332108,45.3929753,23.3739994
80,Bulevardul 1 Decembrie 1918,332012,45.4210818,23.3699940
96,Strada 1 Decembrie 1918,907111,45.4154882,23.3732039
2,Strada Zorilor,332029,45.4215797,23.3725164
"Bl. 2, Sc. 2",Aleea Poporului,332024,45.4161416,23.3713194
11,Strada Mihai Viteazu,332014,45.4184666,23.3686453
3,Strada Venus,907111,45.3939162,23.3768058
70,Strada Aviatorilor,332111,45.3883910,23.3750335
68,Strada Aviatorilor,332111,45.3887376,23.3751126
66,Strada Aviatorilor,907111,45.3891257,23.3751273
64,Strada Aviatorilor,332110,45.3894190,23.3750717
62,Strada Aviatorilor,332110,45.3897059,23.3751421
60,Strada Aviatorilor,332110,45.3900299,23.3748578
62 A,Strada Aviatorilor,332110,45.3897285,23.3745922
64 A,Strada Aviatorilor,332110,45.3891182,23.3745654
70 A,Strada Aviatorilor,332109,45.3885050,23.3745802
70 B,Strada Aviatorilor,332109,45.3886256,23.3740089
66 A,Strada Aviatorilor,332109,45.3889722,23.3741938
64 B,Strada Aviatorilor,332109,45.3892406,23.3738116
62 B,Strada Aviatorilor,332110,45.3895854,23.3741684
60 A,Strada Aviatorilor,332109,45.3898980,23.3740089
27 A,Strada Aviatorilor,332103,45.3884183,23.3762820
25 A,Strada Aviatorilor,332103,45.3891324,23.3762858
23,Strada Aviatorilor,332103,45.3896979,23.3757805
21 A,Strada Gociu Nicușor,332103,45.3896615,23.3769166
23 A,Strada Gociu Nicușor,332103,45.3900505,23.3765691
19 B,Strada Gociu Nicușor,332103,45.3904518,23.3765744
19 D,Strada Gociu Nicușor,332102,45.3912382,23.3773778
19 C,Strada Gociu Nicușor,332102,45.3909519,23.3769324
11,Strada Venus,332101,45.3924403,23.3770950
1,Strada Venus,332101,45.3936638,23.3762488
10,Strada Venus,332102,45.3919620,23.3771316
8,Strada Venus,332101,45.3917321,23.3767554
13,Strada Venus,332101,45.3920476,23.3775983
4,Strada Venus,332101,45.3921372,23.3764336
6,Strada Venus,332103,45.3913149,23.3763323
19,Strada Aviatorilor,332098,45.3907997,23.3757181
17,Strada Aviatorilor,332098,45.3913723,23.3757423
15 A,Strada Aviatorilor,907111,45.3924997,23.3757110
15 B,Strada Aviatorilor,907111,45.3923024,23.3758043
15 C,Strada Aviatorilor,907111,45.3921216,23.3758040
13,Strada Aviatorilor,907111,45.3932355,23.3758201
34,Strada Aviatorilor,907111,45.3927197,23.3751083
44,Strada Aviatorilor,332111,45.3918771,23.3747016
52,Strada Aviatorilor,332111,45.3913337,23.3747458
54 A,Strada Aviatorilor,332109,45.3906406,23.3739412
50,Strada Aviatorilor,332111,45.3910997,23.3742040
48,Strada Aviatorilor,332111,45.3916245,23.3740764
42,Strada Aviatorilor,332108,45.3920947,23.3742201
42 A,Strada Aviatorilor,332109,45.3920183,23.3738084
40,Strada Aviatorilor,332108,45.3924064,23.3743431
32,Strada Aviatorilor,907111,45.3932551,23.3751376
40 A,Strada Aviatorilor,332108,45.3926696,23.3738392
38,Strada Aviatorilor,332108,45.3931695,23.3738928
38 B,Strada Aviatorilor,332108,45.3934004,23.3738454
38 A,Strada Aviatorilor,332108,45.3936271,23.3739190
30,Strada Aviatorilor,907111,45.3936835,23.3751388
28 A,Strada Aviatorilor,907111,45.3942246,23.3742000
26 A,Strada Aviatorilor,907111,45.3940079,23.3747572
99,Strada 1 Decembrie 1918,332019,45.4132098,23.3756538
2 A,Strada Oituz,332079,45.4071445,23.3729550
5,Strada Aviatorilor,907111,45.3951210,23.3758750
7,Strada Aviatorilor,907111,45.3948269,23.3758902
11,Strada Aviatorilor,907111,45.3942066,23.3758692
2,Strada Saturn,332099,45.3960496,23.3763351
4,Strada Saturn,332099,45.3963413,23.3766095
6,Strada Saturn,332099,45.3956729,23.3769413
8,Strada Saturn,332099,45.3953491,23.3769486
12,Strada Saturn,332099,45.3950392,23.3769592
10,Strada Saturn,332099,45.3952039,23.3765704
14,Strada Saturn,332099,45.3947345,23.3770887
16,Strada Saturn,332099,45.3944913,23.3764472
11,Strada Saturn,332099,45.3950406,23.3776614
5,Strada Saturn,332099,45.3955697,23.3774403
7,Strada Saturn,332099,45.3955816,23.3779183
9,Strada Saturn,332099,45.3956048,23.3783097
13,Strada Saturn,332099,45.3951589,23.3780629
1,Strada Saturn,332099,45.3964969,23.3771792
10,Strada Aviatorilor,907111,45.3963624,23.3746137
16,Strada Aviatorilor,907111,45.3956579,23.3747283
18,Strada Aviatorilor,907111,45.3956663,23.3752681
20,Strada Aviatorilor,907111,45.3953408,23.3752507
22,Strada Aviatorilor,907111,45.3951305,23.3744690
22 A,Strada Aviatorilor,907111,45.3949347,23.3752481
20,Strada Universității,332006,45.4197525,23.3769449
1,Strada Universității,907111,45.4203642,23.3759368
24,Strada Independenței,332058,45.3980118,23.3765597
26,Strada Independenței,332058,45.3975206,23.3769763
28,Strada Independenței,332058,45.3971559,23.3771259
43,Strada Independenței,332058,45.3969925,23.3780142
41,Strada Independenței,332058,45.3973850,23.3778937
39,Strada Independenței,332058,45.3976898,23.3775712
137 A,Strada 1 Decembrie 1918,332058,45.4076282,23.3762043
3,Strada Zorilor,332029,45.4214325,23.3721372
11,Strada Independenței,332058,45.4031822,23.3775181
9,Strada Independenței,332058,45.4036434,23.3769890
3,Strada Independenței,332058,45.4050062,23.3754406
1,Strada Independenței,332058,45.4055932,23.3751866
2,Strada Păcii,332078,45.4064699,23.3736381
4,Strada Păcii,332078,45.4062960,23.3730303
1,Strada Păcii,332078,45.4057605,23.3731836
137,Strada 1 Decembrie 1918,332058,45.4093054,23.3762345
135,Strada 1 Decembrie 1918,332058,45.4095852,23.3763059
124,Strada 1 Decembrie 1918,907111,45.4096793,23.3754275
135,Strada 1 Decembrie 1918,332058,45.4100638,23.3764005
2,Strada Timișoarei,332015,45.4184556,23.3705160
2,Strada Mihai Viteazu,332014,45.4195031,23.3701228
122,Strada 1 Decembrie 1918,907111,45.4101826,23.3757800
120,Strada 1 Decembrie 1918,907111,45.4107529,23.3759630
118,Strada 1 Decembrie 1918,332040,45.4110109,23.3761346
116,Strada 1 Decembrie 1918,332040,45.4113236,23.3759380
114,Strada 1 Decembrie 1918,332040,45.4116248,23.3757551
112,Strada 1 Decembrie 1918,907111,45.4119988,23.3755453
2,Strada Carpați,332041,45.4124181,23.3742565
110,Strada 1 Decembrie 1918,907111,45.4122355,23.3753889
108,Strada 1 Decembrie 1918,907111,45.4124623,23.3752323
73,Strada 1 Decembrie 1918,332029,45.4195135,23.3715824
1,Strada Zorilor,332029,45.4212077,23.3721623
4,Strada Zorilor,332029,45.4210967,23.3726957
2,Strada Zorilor,332029,45.4215488,23.3727613
4,Strada Carpați,332041,45.4122124,23.3736815
1,Strada Crângului,332040,45.4114868,23.3753366
3,Strada Crângului,332040,45.4111917,23.3755301
5,Strada Crângului,332040,45.4108993,23.3757238
2,Strada Crângului,332040,45.4112844,23.3749777
4,Strada Crângului,332040,45.4108339,23.3752543
2,Strada Pinului,332040,45.4111535,23.3743067
4,Strada Pinului,332040,45.4108561,23.3745038
6,Strada Pinului,332040,45.4105632,23.3746875
2,Strada Liliacului,332040,45.4109813,23.3737059
4,Strada Liliacului,332040,45.4106689,23.3739160
6,Strada Liliacului,332040,45.4103542,23.3741122
5,Aleea Florilor,332042,45.4103118,23.3728268
18,Strada Petru Maior,332000,45.4082386,23.3727918
8,Strada Viilor,907111,45.4099858,23.3744997
10,Strada Viilor,907111,45.4098556,23.3743191
2,Strada Viilor,907111,45.4103770,23.3754503
12,Strada Viilor,907111,45.4098424,23.3738211
2,Strada 13 Septembrie,332042,45.4108409,23.3731376
4,Strada 13 Septembrie,332042,45.4104920,23.3733656
6,Strada 13 Septembrie,332042,45.4101737,23.3735755
4,Strada 9 Mai,332041,45.4111547,23.3715314
16,Strada Ion Creangă,332026,45.4130057,23.3703758
14,Strada Ion Creangă,332026,45.4131764,23.3709094
1,Aleea Florilor,332041,45.4125456,23.3713707
10,Strada Avram Iancu,907111,45.4128819,23.3718428
12,Strada Avram Iancu,907111,45.4122715,23.3721971
109,Strada 1 Decembrie 1918,332019,45.4111702,23.3771943
105,Strada 1 Decembrie 1918,907111,45.4120501,23.3766085
107 1 decembrie,Strada 1 Decembrie 1918,907111,45.4115893,23.3769325
103,Strada 1 Decembrie 1918,907111,45.4124920,23.3763153
101,Strada 1 Decembrie 1918,907111,45.4129420,23.3760967
121,Strada 1 Decembrie 1918,332019,45.4114432,23.3765538
123,Strada 1 Decembrie 1918,332019,45.4112502,23.3766624
10,Strada 22 Decembrie,332020,45.4121559,23.3770365
2 paringului,Strada 22 Decembrie,332020,45.4118384,23.3772341
17,Strada Rovine,34869,45.4103241,23.3772352
6,Strada Viilor,907111,45.4100656,23.3748834
4 B,Strada Viilor,907111,45.4101179,23.3749855
4 A,Strada Viilor,907111,45.4101419,23.3750638
4,Aleea Trandafirilor,332016,45.4139562,23.3698045
2A,Strada 9 Mai,332016,45.4148354,23.3689985
2,Aleea Trandafirilor,332016,45.4149455,23.3693686
2 A,Strada Avram Iancu,332026,45.4146316,23.3701937
2,Strada Avram Iancu,332026,45.4147367,23.3705127
5,Strada Nicolae Bălcescu,332026,45.4158233,23.3705782
3 D,Strada Nicolae Bălcescu,332026,45.4160907,23.3711841
2,Aleea Poporului,332024,45.4158807,23.3715192
6,Aleea Poporului,332024,45.4148673,23.3721839
4,Aleea Poporului,332024,45.4153765,23.3718430
3,Aleea Poporului,332024,45.4153261,23.3722622
5,Aleea Poporului,332024,45.4147633,23.3726319
1,Aleea Poporului,332024,45.4158387,23.3719348
5 A,Strada Avram Iancu,332025,45.4151263,23.3709140
9 A,Strada Avram Iancu,332025,45.4144606,23.3713540
4,Strada Avram Iancu,332026,45.4144458,23.3704919
5,Aleea Trandafirilor,332016,45.4140094,23.3705924
6,Strada Avram Iancu,332026,45.4140445,23.3710726
8,Strada Avram Iancu,332026,45.4135095,23.3713940
92,Strada 1 Decembrie 1918,332024,45.4162727,23.3725037
3A,Aleea Poporului,332024,45.4152885,23.3727438
3,Strada Constantin Mille,332029,45.4216118,23.3714559
3,Strada Avram Iancu,332025,45.4158041,23.3710217
5A,Strada Avram Iancu,907111,45.4154867,23.3707487
7,Strada Avram Iancu,332025,45.4151409,23.3714430
9,Strada Avram Iancu,332025,45.4148260,23.3711816
13,Strada Avram Iancu,332025,45.4141647,23.3716199
96,Strada 1 Decembrie 1918,332024,45.4155724,23.3730573
11,Strada Avram Iancu,332025,45.4144455,23.3718596
2,Strada 22 Decembrie,332020,45.4130587,23.3764116
4,Strada 22 Decembrie,332020,45.4127673,23.3766589
6,Strada 22 Decembrie,332020,45.4125812,23.3768102
8,Strada 22 Decembrie,332020,45.4124176,23.3768744
1,Strada 22 Decembrie,332020,45.4132338,23.3767948
11,Strada 22 Decembrie,332020,45.4125909,23.3772556
13,Strada 22 Decembrie,332020,45.4124385,23.3773009
15,Strada 22 Decembrie,332020,45.4123223,23.3773805
17,Strada 22 Decembrie,332020,45.4121458,23.3774879
19,Strada 22 Decembrie,332020,45.4117410,23.3777900
98,Strada 1 Decembrie 1918,332024,45.4150502,23.3733524
2 A,Strada Ștefan Octavian Iosif,332021,45.4144048,23.3753027
2 C,Strada Ștefan Octavian Iosif,332021,45.4151087,23.3752935
2 B,Strada Ștefan Octavian Iosif,332021,45.4149902,23.3759788
1 C,Strada Ștefan Octavian Iosif,332021,45.4153864,23.3753282
1 A,Strada Ștefan Octavian Iosif,332021,45.4155597,23.3747938
1 B,Strada Ștefan Octavian Iosif,332021,45.4159402,23.3753765
4,Strada General Dragalina,332007,45.4161613,23.3738236
85,Strada 1 Decembrie 1918,332005,45.4158492,23.3738217
87,Strada 1 Decembrie 1918,332005,45.4152543,23.3740322
5,Strada General Dragalina,332007,45.4166864,23.3743051
1,Strada Universității,907111,45.4175235,23.3737829
3,Strada Universității,907111,45.4173932,23.3744681
4,Strada Universității,907111,45.4178814,23.3743810
6,Strada Universității,907111,45.4179787,23.3746894
10,Strada Universității,907111,45.4177573,23.3752400
8,Strada Universității,907111,45.4180757,23.3749912
12,Strada Universității,907111,45.4182150,23.3752634
13,Strada General Dragalina,332007,45.4173641,23.3755447
4,Strada Universității,907111,45.4176134,23.3747337
5,Strada Universității,907111,45.4173312,23.3748822
11,Strada General Dragalina,332007,45.4170778,23.3755155
7,Strada General Dragalina,332007,45.4169191,23.3749126
19,Strada General Vasile Milea,332046,45.4220362,23.3717567
10,Strada Constructorului,332045,45.4229758,23.3705957
1,Strada Anghel Saligny,332005,45.4206913,23.3726665
2,Strada Anghel Saligny,332005,45.4208122,23.3728442
3,Strada Anghel Saligny,332005,45.4209633,23.3729811
4,Strada Anghel Saligny,332005,45.4210301,23.3733379
5,Strada Anghel Saligny,332005,45.4207344,23.3733862
6 ang saligny,Strada Anghel Saligny,332005,45.4204534,23.3732501
2,Strada Constantin Mille,332029,45.4211272,23.3712666
4,Strada Constantin Mille,332029,45.4208921,23.3714022
6,Strada Constantin Mille,332029,45.4205268,23.3716263
8 c milea,Strada Constantin Mille,332029,45.4204627,23.3721855
71,Bulevardul 1 Decembrie 1918,332029,45.4200291,23.3713124
71,Bulevardul 1 Decembrie 1918,907111,45.4200205,23.3713586
67,Bulevardul 1 Decembrie 1918,332030,45.4214267,23.3704542
1,Strada Horia,332014,45.4208444,23.3697394
80,Bulevardul 1 Decembrie 1918,907111,45.4214429,23.3696381
82,Bulevardul 1 Decembrie 1918,907111,45.4208101,23.3700690
84,Bulevardul 1 Decembrie 1918,332009,45.4203453,23.3702389
63 C,Strada Horia,332014,45.4196539,23.3686153
5,Strada Horia,332014,45.4205602,23.3692915
2,Strada Horia,332014,45.4207019,23.3688202
3,Strada Horia,332014,45.4210970,23.3690219
28 B,Strada General Vasile Milea,907111,45.4212237,23.3732950
28,Strada General Vasile Milea,907111,45.4214322,23.3731273
28 C,Strada General Vasile Milea,907111,45.4211342,23.3737446
28a sc1,Strada General Vasile Milea,907111,45.4214887,23.3735591
7,Strada Constantin Mille,332029,45.4207857,23.3722983
31,Strada General Vasile Milea,332046,45.4227166,23.3748237
29,Strada General Vasile Milea,332046,45.4223823,23.3744806
25,Strada General Vasile Milea,907111,45.4218966,23.3736074
23,Strada General Vasile Milea,332046,45.4218627,23.3730293
1,Intrarea Eroilor,332046,45.4222938,23.3716205
30,Strada General Vasile Milea,332047,45.4219942,23.3745665
17,Strada General Vasile Milea,332046,45.4219795,23.3712180
3,Strada Timișoarei,332015,45.4175980,23.3703192
1,Strada Nicolae Iorga,332016,45.4177834,23.3706867
5,Strada Nicolae Iorga,332016,45.4175301,23.3706920
3,Strada Nicolae Iorga,332016,45.4176130,23.3706638
76,Bulevardul 1 Decembrie 1918,332012,45.4221660,23.3692892
78,Bulevardul 1 Decembrie 1918,332012,45.4217465,23.3693882
4,Strada Cloșca,332013,45.4218417,23.3687184
65,Bulevardul 1 Decembrie 1918,332030,45.4220854,23.3701068
57,Bulevardul 1 Decembrie 1918,332031,45.4239968,23.3684937
1 B,Strada Constructorului,332030,45.4224760,23.3709038
1A,Strada Constructorului,332030,45.4221535,23.3706388
C,Strada Constructorului,332031,45.4239951,23.3695642
D,Strada Constructorului,332031,45.4244441,23.3692973
H,Strada Constructorului,907111,45.4247031,23.3695630
16,Strada Constructorului,332045,45.4243481,23.3697734
E,Strada Constructorului,332031,45.4250076,23.3689554
1A,Strada Vișinilor,332061,45.4101950,23.3698260
1B,Strada Vișinilor,332061,45.4100964,23.3688949
5,Strada Vișinilor,332061,45.4104248,23.3681559
4,Strada Vișinilor,332061,45.4100840,23.3681407
15,Strada Vișinilor,332061,45.4097975,23.3683661
13,Strada Vișinilor,332061,45.4095047,23.3689515
8,Strada Vișinilor,332061,45.4095942,23.3692688
4,Strada Vișinilor,332061,45.4098179,23.3701627
6,Strada Vișinilor,332061,45.4096355,23.3695490
11,Strada Vișinilor,332061,45.4094209,23.3693130
7,Strada Vișinilor,332061,45.4094730,23.3695023
5,Strada Vișinilor,332061,45.4094875,23.3696220
1,Strada Vișinilor,332061,45.4095781,23.3699272
9,Strada Vișinilor,332061,45.4093503,23.3693982
17,Strada General Vasile Milea,332046,45.4219621,23.3714271
21,Strada General Vasile Milea,332046,45.4218289,23.3723557
3,Strada Zorilor,332029,45.4215568,23.3719892
21,Strada General Vasile Milea,332046,45.4219995,23.3721653
19,Strada General Vasile Milea,332046,45.4218949,23.3717434
3,Strada Constantin Mille,332029,45.4213161,23.3715244
3,Strada Zorilor,332029,45.4215677,23.3717675
7,Strada Anghel Saligny,332005,45.4208989,23.3724312
1,Strada Zorilor,332029,45.4211114,23.3723151
5,Strada Constantin Mille,332029,45.4208759,23.3717877
5,Strada Constantin Mille,332029,45.4207046,23.3719749
1,Strada Horia,332014,45.4205245,23.3697487
28 A,Strada General Vasile Milea,907111,45.4216311,23.3741268
28 A,Strada General Vasile Milea,907111,45.4216342,23.3739169
28 A,Strada General Vasile Milea,907111,45.4216006,23.3736915
63 B,Strada Horia,332014,45.4202990,23.3687510
1,Strada Horia,332014,45.4202053,23.3697998
63 B,Strada Horia,332014,45.4200980,23.3686329
63 C,Strada Horia,332014,45.4198584,23.3686577
6,Strada General Dragalina,332007,45.4162065,23.3744985
6,Strada Ștefan Octavian Iosif,332021,45.4137071,23.3758885
6,Strada General Dragalina,332007,45.4160021,23.3745171
6,Strada Ștefan Octavian Iosif,332021,45.4136372,23.3761043
85,Strada 1 Decembrie 1918,332005,45.4155771,23.3738573
2,Strada 22 Decembrie,332020,45.4129600,23.3765519
6,Strada General Dragalina,332007,45.4163409,23.3742973
100,Strada 1 Decembrie 1918,332024,45.4142143,23.3733944
I,Strada Constructorului,907111,45.4252343,23.3692840
53,Strada General Vasile Milea,907111,45.4235500,23.3759009
51,Strada General Vasile Milea,907111,45.4234536,23.3757434
49,Strada General Vasile Milea,907111,45.4232301,23.3753801
32-34,Strada General Vasile Milea,332047,45.4224459,23.3756420
1,Strada Carol Schreter,332014,45.4182803,23.3694891
5,Strada Carol Schreter,332014,45.4180934,23.3695267
100,Strada Anton Pann,332015,45.4140843,23.3668877
1,Strada Tudor Vladimirescu,907111,45.4143220,23.3667782
9A,Strada Tudor Vladimirescu,907111,45.4140467,23.3659180
9,Strada Tudor Vladimirescu,907111,45.4141003,23.3661017
7,Strada Tudor Vladimirescu,907111,45.4141458,23.3662594
11,Strada Tudor Vladimirescu,907111,45.4139377,23.3657239
13,Strada Tudor Vladimirescu,907111,45.4138632,23.3653946
15,Strada Tudor Vladimirescu,907111,45.4138559,23.3652223
17,Strada Tudor Vladimirescu,907111,45.4137710,23.3650643
21,Strada Tudor Vladimirescu,907111,45.4136513,23.3646883
19,Strada Tudor Vladimirescu,907111,45.4136917,23.3648579
23,Strada Tudor Vladimirescu,907111,45.4135807,23.3645139
59,Strada Tudor Vladimirescu,332036,45.4132644,23.3645957
5A,Strada Dacia,907111,45.4146510,23.3620610
7A,Strada Dacia,907111,45.4143187,23.3622736
9A,Strada Dacia,907111,45.4139893,23.3624907
53,Strada Tudor Vladimirescu,907111,45.4135835,23.3643973
M3,Strada Dacia,907111,45.4149803,23.3618453
K1,Strada Dacia,907111,45.4153091,23.3616270
J2,Strada Dacia,907111,45.4156075,23.3618947
4,Bulevardul Dacia,332036,45.4154080,23.3620959
6,Bulevardul Dacia,332036,45.4148342,23.3624566
8,Bulevardul Dacia,332036,45.4145692,23.3626216
10,Bulevardul Dacia,332036,45.4143088,23.3627879
14,Bulevardul Dacia,332036,45.4137840,23.3631259
12,Bulevardul Dacia,332036,45.4140466,23.3629582
16,Bulevardul Dacia,332036,45.4135152,23.3632902
18,Bulevardul Dacia,332036,45.4132573,23.3634544
34,Strada Timișoarei,907111,45.4163336,23.3656826
20,Bulevardul Dacia,332036,45.4129918,23.3636167
39,Strada Grivița Roșie,332037,45.4161290,23.3651225
32,Strada Timișoarei,907111,45.4163822,23.3658912
30,Strada Timișoarei,907111,45.4164847,23.3660304
26,Strada Timișoarei,907111,45.4165707,23.3662670
24,Strada Timișoarei,907111,45.4166020,23.3664727
22,Strada Timișoarei,907111,45.4167077,23.3664189
66,Strada Anton Pann,332015,45.4168511,23.3665966
68,Strada Anton Pann,332015,45.4167376,23.3665937
27,Strada Timișoarei,907111,45.4162810,23.3661152
23,Strada Timișoarei,907111,45.4163738,23.3664317
25,Strada Timișoarei,907111,45.4163295,23.3662499
29,Strada Timișoarei,907111,45.4162079,23.3660041
31,Strada Timișoarei,907111,45.4162016,23.3658394
33,Strada Timișoarei,907111,45.4161024,23.3656905
41,Strada Grivița Roșie,332037,45.4159670,23.3652276
43,Strada Grivița Roșie,332037,45.4157940,23.3653405
11,Strada Timișoarei,332015,45.4170209,23.3688991
13,Strada Timișoarei,332015,45.4169612,23.3686236
15,Strada Timișoarei,332015,45.4168980,23.3683514
17,Strada Timișoarei,332015,45.4168514,23.3680446
19,Strada Timișoarei,332015,45.4167932,23.3677677
18,Strada Timișoarei,332015,45.4170338,23.3676933
16,Strada Timișoarei,332015,45.4170076,23.3679781
14,Strada Timișoarei,332015,45.4170592,23.3682569
12,Strada Timișoarei,332015,45.4171156,23.3685514
10,Strada Timișoarei,332015,45.4171768,23.3688346
8,Strada Timișoarei,332015,45.4172267,23.3691180
10,Strada Gelu,332014,45.4172954,23.3678948
8,Strada Gelu,332014,45.4173578,23.3681507
6,Strada Gelu,332014,45.4174150,23.3684327
4,Strada Gelu,332014,45.4174601,23.3687263
2,Strada Gelu,332014,45.4175204,23.3690039
3,Strada Enăchiță Văcărescu,332031,45.4181287,23.3680615
3,Strada Gelu,332014,45.4177434,23.3683734
6,Strada Carol Schreter,332014,45.4178998,23.3688711
11,Strada Decebal,332016,45.4165219,23.3678701
9,Strada Decebal,332016,45.4165704,23.3681475
7,Strada Decebal,332016,45.4166318,23.3684420
5,Strada Decebal,332016,45.4167221,23.3687062
3,Strada Decebal,332016,45.4167523,23.3689959
1,Strada Decebal,332016,45.4168021,23.3692789
39,Strada Cuza Vodă,907111,45.4203121,23.3656385
37,Strada Cuza Vodă,907111,45.4205113,23.3655027
2,Strada Egalității,332034,45.4201779,23.3665581
4,Strada Egalității,332034,45.4202147,23.3661524
41,Strada Cuza Vodă,907111,45.4201375,23.3657471
43,Strada Cuza Vodă,907111,45.4199587,23.3658586
1,Strada Egalității,332034,45.4200652,23.3668860
5,Strada Egalității,332034,45.4196972,23.3671166
7,Strada Egalității,332034,45.4195184,23.3672381
8,Strada Egalității,332034,45.4199769,23.3666535
10,Strada Egalității,332034,45.4197980,23.3667334
12,Strada Egalității,332034,45.4196311,23.3669021
14,Strada Egalității,332034,45.4194545,23.3669939
16,Strada Egalității,332034,45.4192490,23.3671254
23,Strada Cuza Vodă,907111,45.4218742,23.3646738
13,Strada Mihai Eminescu,332034,45.4234486,23.3647872
5,Strada Titu Maiorescu,332013,45.4214690,23.3664409
62,Strada Cuza Vodă,907111,45.4180569,23.3667792
60,Strada Cuza Vodă,907111,45.4182444,23.3666465
58,Strada Cuza Vodă,907111,45.4184012,23.3665133
56,Strada Cuza Vodă,907111,45.4185882,23.3664054
57,Strada Cuza Vodă,907111,45.4186790,23.3666863
59,Strada Cuza Vodă,907111,45.4184876,23.3668020
61,Strada Cuza Vodă,907111,45.4183104,23.3669012
55,Strada Cuza Vodă,907111,45.4188544,23.3665477
54,Strada Cuza Vodă,907111,45.4187365,23.3662478
1,Aleea Plopilor,907111,45.4184515,23.3657972
4,Strada Anton Pann,332035,45.4183853,23.3659729
10,Strada Anton Pann,332035,45.4182730,23.3661768
12,Strada Anton Pann,332035,45.4181894,23.3661821
25,Strada Ecaterina Teodoroiu,907111,45.4188592,23.3658358
23,Strada Ecaterina Teodoroiu,907111,45.4190649,23.3657275
21,Strada Ecaterina Teodoroiu,907111,45.4192145,23.3656027
17,Strada Ecaterina Teodoroiu,907111,45.4195835,23.3653919
44,Strada Cuza Vodă,907111,45.4196946,23.3657342
46,Strada Cuza Vodă,907111,45.4195127,23.3658040
48,Strada Cuza Vodă,907111,45.4193431,23.3659818
50,Strada Cuza Vodă,907111,45.4191510,23.3660754
52,Strada Cuza Vodă,907111,45.4189669,23.3661928
18,Strada Egalității,332034,45.4189578,23.3669983
53,Strada Cuza Vodă,907111,45.4190378,23.3664504
51,Strada Cuza Vodă,907111,45.4192271,23.3663087
49,Strada Cuza Vodă,907111,45.4194306,23.3662261
47,Strada Cuza Vodă,907111,45.4195869,23.3661148
45,Strada Cuza Vodă,907111,45.4197876,23.3660182
11,Strada Mihai Eminescu,332034,45.4236325,23.3646689
14,Strada Mihai Eminescu,332034,45.4233804,23.3645400
12,Strada Mihai Eminescu,332034,45.4235833,23.3643987
10,Strada Mihai Eminescu,332034,45.4237685,23.3642499
8,Strada Mihai Eminescu,332034,45.4239813,23.3641531
6,Strada Mihai Eminescu,332034,45.4241878,23.3640337
4,Strada Mihai Eminescu,332034,45.4243977,23.3639061
3,Strada Cuza Vodă,907111,45.4241034,23.3632610
1,Strada Cuza Vodă,907111,45.4244326,23.3630676
5,Strada Cuza Vodă,907111,45.4237955,23.3635153
7,Strada Cuza Vodă,907111,45.4235929,23.3635830
9,Strada Cuza Vodă,907111,45.4233919,23.3637073
11,Strada Cuza Vodă,907111,45.4231944,23.3638402
13,Strada Cuza Vodă,907111,45.4229917,23.3639675
15,Strada Cuza Vodă,907111,45.4228109,23.3640833
14,Strada Cuza Vodă,907111,45.4229054,23.3637024
16,Strada Cuza Vodă,907111,45.4227055,23.3638355
18,Strada Cuza Vodă,907111,45.4224899,23.3639635
20,Strada Cuza Vodă,907111,45.4223039,23.3640770
17,Strada Cuza Vodă,907111,45.4225897,23.3642218
20A,Strada Cuza Vodă,907111,45.4221141,23.3642077
11,Strada Gheorghe Barițiu,907111,45.4218779,23.3633622
15,Strada Gheorghe Barițiu,907111,45.4215117,23.3635714
8,Strada Aurel Vlaicu,907111,45.4212833,23.3639401
6,Strada Aurel Vlaicu,907111,45.4213736,23.3640495
2,Strada Aurel Vlaicu,907111,45.4215571,23.3641469
2A,Strada Aurel Vlaicu,907111,45.4215904,23.3644117
25,Strada Cuza Vodă,907111,45.4217031,23.3647866
27,Strada Cuza Vodă,907111,45.4215238,23.3648648
19,Strada Cuza Vodă,907111,45.4223901,23.3643519
21,Strada Cuza Vodă,907111,45.4221943,23.3644959
20,Strada Mihai Eminescu,332034,45.4226789,23.3649519
16,Strada Mihai Eminescu,332034,45.4231721,23.3646679
18,Strada Mihai Eminescu,332034,45.4229591,23.3647660
17,Strada Vasile Alecsandri,907111,45.4223211,23.3619769
12,Strada Gheorghe Barițiu,907111,45.4224406,23.3623585
14,Strada Gheorghe Barițiu,907111,45.4222673,23.3624669
16,Strada Gheorghe Barițiu,907111,45.4220914,23.3625982
21,Strada Vasile Alecsandri,907111,45.4219568,23.3622120
23,Strada Vasile Alecsandri,907111,45.4217788,23.3622805
25,Strada Vasile Alecsandri,907111,45.4216027,23.3624595
29,Strada Vasile Alecsandri,907111,45.4212154,23.3626540
27,Strada Vasile Alecsandri,907111,45.4214125,23.3625220
10,Strada Aurel Vlaicu,907111,45.4209155,23.3634658
12,Strada Aurel Vlaicu,907111,45.4207929,23.3633048
1B,Strada Sarmizegetusa,907111,45.4207256,23.3631119
1,Strada Sarmizegetusa,907111,45.4209243,23.3630270
3,Strada Sarmizegetusa,907111,45.4210429,23.3627953
24,Strada Vasile Alecsandri,907111,45.4218547,23.3619148
26,Strada Vasile Alecsandri,907111,45.4217286,23.3620878
28,Strada Vasile Alecsandri,907111,45.4215298,23.3621959
30,Strada Vasile Alecsandri,907111,45.4213436,23.3623194
32,Strada Vasile Alecsandri,907111,45.4211500,23.3624442
25,Strada Mihail Kogălniceanu,907111,45.4208524,23.3621336
23,Strada Mihail Kogălniceanu,907111,45.4210197,23.3620124
26,Strada Mihail Kogălniceanu,907111,45.4207756,23.3619088
24,Strada Mihail Kogălniceanu,907111,45.4209470,23.3617881
22,Strada Mihail Kogălniceanu,907111,45.4211308,23.3616707
20,Strada Mihail Kogălniceanu,907111,45.4213166,23.3615597
18,Strada Mihail Kogălniceanu,907111,45.4214885,23.3614224
16,Strada Mihail Kogălniceanu,907111,45.4216750,23.3613282
14,Strada Mihail Kogălniceanu,907111,45.4218348,23.3611740
12,Strada Mihail Kogălniceanu,907111,45.4220422,23.3610640
10,Strada Mihail Kogălniceanu,907111,45.4222208,23.3609783
18,Strada Vasile Alecsandri,907111,45.4223999,23.3616302
20,Strada Vasile Alecsandri,907111,45.4222504,23.3617147
22,Strada Vasile Alecsandri,907111,45.4220566,23.3618602
17,Strada Mihail Kogălniceanu,907111,45.4215600,23.3617188
19,Strada Mihail Kogălniceanu,907111,45.4213786,23.3617874
21,Strada Mihail Kogălniceanu,907111,45.4211993,23.3619046
13,Strada Mihail Kogălniceanu,907111,45.4219360,23.3614254
15,Strada Mihail Kogălniceanu,907111,45.4217461,23.3616207
2,Strada Mihail Kogălniceanu,907111,45.4229282,23.3605011
6,Strada Mihail Kogălniceanu,907111,45.4225668,23.3607099
8,Strada Mihail Kogălniceanu,907111,45.4224009,23.3608797
1,Strada Jiului,332050,45.4222499,23.3604513
7,Strada Mihail Kogălniceanu,907111,45.4224832,23.3611033
16,Strada Vasile Alecsandri,332050,45.4226091,23.3615098
14,Strada Vasile Alecsandri,332050,45.4227807,23.3613962
12,Strada Vasile Alecsandri,332050,45.4229682,23.3612782
10,Strada Vasile Alecsandri,332050,45.4231528,23.3611544
8,Strada Vasile Alecsandri,332050,45.4233255,23.3610549
6,Strada Vasile Alecsandri,332050,45.4234959,23.3609195
4,Strada Vasile Alecsandri,332050,45.4238119,23.3607386
2,Strada Vasile Alecsandri,332050,45.4239925,23.3606453
7,Strada Vasile Alecsandri,907111,45.4233927,23.3612951
9,Strada Vasile Alecsandri,907111,45.4232147,23.3613948
13,Strada Vasile Alecsandri,907111,45.4228674,23.3616369
11,Strada Vasile Alecsandri,907111,45.4230338,23.3615217
15,Strada Vasile Alecsandri,907111,45.4226808,23.3617467
10,Strada Gheorghe Barițiu,907111,45.4228110,23.3621604
28,Strada Gheorghe Barițiu,907111,45.4212596,23.3633666
18,Strada Gheorghe Barițiu,907111,45.4218642,23.3627588
15,Strada Circa de Pompieri,907111,45.4206825,23.3599379
17,Strada Jiului,332050,45.4207541,23.3614333
22,Strada Gheorghe Barițiu,907111,45.4216821,23.3630974
7,Strada Jiului,332050,45.4216861,23.3608141
4,Strada Gheorghe Barițiu,907111,45.4233440,23.3618061
6,Strada Gheorghe Barițiu,907111,45.4231688,23.3619252
11,Strada Jiului,332050,45.4213046,23.3610536
18A,Strada Gheorghe Barițiu,907111,45.4217406,23.3627758
21,Strada Circa de Pompieri,907111,45.4211288,23.3597262
3,Strada Jiului,332050,45.4220556,23.3605559
5,Strada Mihail Kogălniceanu,907111,45.4226408,23.3609918
26,Strada Gheorghe Barițiu,907111,45.4213924,23.3632769
2,Strada Gheorghe Barițiu,907111,45.4235301,23.3616735
2,Strada Ecaterina Teodoroiu,907111,45.4210002,23.3640517
2,Strada Sarmizegetusa,907111,45.4203840,23.3605564
8,Strada Gheorghe Barițiu,907111,45.4229920,23.3620473
17,Strada Circa de Pompieri,907111,45.4208726,23.3598820
3,Strada Circa de Pompieri,907111,45.4200753,23.3602505
19,Strada Jiului,332050,45.4205623,23.3615479
19,Strada Vasile Alecsandri,907111,45.4221330,23.3620769
20,Strada Gheorghe Barițiu,907111,45.4217099,23.3629221
15,Strada Jiului,332050,45.4209354,23.3613075
13,Strada Circa de Pompieri,907111,45.4205990,23.3600485
5,Strada Jiului,332050,45.4218707,23.3606915
3,Strada Mihail Kogălniceanu,907111,45.4228250,23.3608696
11,Strada Circa de Pompieri,907111,45.4205074,23.3601068
7,Strada Circa de Pompieri,907111,45.4203362,23.3602275
24,Strada Gheorghe Barițiu,907111,45.4215088,23.3631804
13,Strada Jiului,332050,45.4211242,23.3611823
30,Strada Gheorghe Barițiu,907111,45.4211972,23.3633501
1,Strada Jiului,332050,45.4205856,23.3611770
32,Strada Aurel Vlaicu,907111,45.4197940,23.3617027
28,Strada Aurel Vlaicu,907111,45.4199335,23.3620170
30,Strada Aurel Vlaicu,907111,45.4199148,23.3618354
24,Strada Aurel Vlaicu,907111,45.4201555,23.3620807
22,Strada Aurel Vlaicu,907111,45.4202458,23.3624332
20,Strada Aurel Vlaicu,907111,45.4204279,23.3625837
16,Strada Aurel Vlaicu,907111,45.4205914,23.3626281
28,Strada Cuza Vodă,907111,45.4214453,23.3646334
28,Strada Cuza Vodă,907111,45.4212404,23.3647586
30,Strada Cuza Vodă,907111,45.4210524,23.3648823
32,Strada Cuza Vodă,907111,45.4208372,23.3650211
34,Strada Cuza Vodă,907111,45.4206452,23.3651201
36,Strada Cuza Vodă,907111,45.4204281,23.3652115
38,Strada Cuza Vodă,907111,45.4202397,23.3653642
40,Strada Cuza Vodă,907111,45.4200700,23.3654905
42,Strada Cuza Vodă,907111,45.4198826,23.3656213
11,Strada Ecaterina Teodoroiu,907111,45.4201362,23.3649922
15,Strada Ecaterina Teodoroiu,907111,45.4197624,23.3652437
13,Strada Ecaterina Teodoroiu,907111,45.4199421,23.3651173
20,Strada Ecaterina Teodoroiu,907111,45.4192983,23.3651518
15,Strada Împăratul Traian,907111,45.4193429,23.3646021
2,Aleea Plopilor,907111,45.4186008,23.3655407
23,Strada Împăratul Traian,907111,45.4186225,23.3650637
21,Strada Împăratul Traian,907111,45.4187975,23.3649728
26,Strada Ecaterina Teodoroiu,907111,45.4187397,23.3654929
16,Strada Împăratul Traian,907111,45.4192710,23.3643955
24,Strada Ecaterina Teodoroiu,907111,45.4189260,23.3653921
18,Strada Ecaterina Teodoroiu,907111,45.4194729,23.3650423
18,Strada Împăratul Traian,907111,45.4190904,23.3645128
19,Strada Împăratul Traian,907111,45.4191613,23.3647468
6,Aleea Plopilor,907111,45.4184534,23.3651552
22,Strada Împăratul Traian,907111,45.4187321,23.3647446
19,Strada Împăratul Traian,907111,45.4189872,23.3648704
22,Strada Ecaterina Teodoroiu,907111,45.4191160,23.3652735
20,Strada Împăratul Traian,907111,45.4189042,23.3646150
3,Aleea Plopilor,907111,45.4182763,23.3655568
23,Strada Gheorghe Doja,907111,45.4184087,23.3644358
8A,Aleea Plopilor,907111,45.4183314,23.3646826
18,Strada Anton Pann,332035,45.4179879,23.3661632
11,Aleea Plopilor,907111,45.4181403,23.3648184
21,Strada Gheorghe Doja,907111,45.4185930,23.3643285
25,Strada Gheorghe Doja,907111,45.4180695,23.3646427
24,Strada Împăratul Traian,907111,45.4185429,23.3648555
19,Strada Gheorghe Doja,907111,45.4187755,23.3642242
16,Strada Gheorghe Doja,907111,45.4190473,23.3637098
26,Strada Gheorghe Doja,907111,45.4181784,23.3643263
24,Strada Gheorghe Doja,907111,45.4183380,23.3641953
18,Strada Gheorghe Doja,907111,45.4188882,23.3638503
22,Strada Gheorghe Doja,907111,45.4185169,23.3640933
7,Strada Grivița Roșie,332035,45.4189327,23.3633248
17,Strada Gheorghe Doja,907111,45.4189597,23.3640937
20,Strada Gheorghe Doja,907111,45.4186954,23.3639710
15,Strada Gheorghe Doja,907111,45.4191405,23.3639810
34,Strada Radu Șapcă,907111,45.4162027,23.3640289
74,Strada Anton Pann,332015,45.4161082,23.3665618
8,Strada Vlad Țepeș,907111,45.4156615,23.3658487
36,Strada Radu Șapcă,907111,45.4160700,23.3641174
48,Strada Radu Șapcă,907111,45.4152323,23.3646485
42,Strada Radu Șapcă,907111,45.4156470,23.3643720
12,Strada Vlad Țepeș,907111,45.4155117,23.3656287
46,Strada Radu Șapcă,907111,45.4153665,23.3645566
44,Strada Radu Șapcă,907111,45.4155111,23.3644704
40,Strada Radu Șapcă,907111,45.4157894,23.3642971
2,Strada Vlad Țepeș,907111,45.4158271,23.3664292
6,Strada Vlad Țepeș,907111,45.4156962,23.3661787
38,Strada Radu Șapcă,907111,45.4159260,23.3641885
72,Strada Anton Pann,332015,45.4162213,23.3665569
33,Strada Grivița Roșie,332037,45.4166415,23.3647839
37,Strada Grivița Roșie,332037,45.4163609,23.3649591
35,Strada Grivița Roșie,332037,45.4165025,23.3648707
31,Strada Grivița Roșie,332037,45.4167836,23.3647143
17,Strada Grivița Roșie,332035,45.4180693,23.3638845
13,Strada Grivița Roșie,332035,45.4183937,23.3637106
9,Strada Grivița Roșie,332035,45.4187528,23.3634593
15,Strada Grivița Roșie,332035,45.4182225,23.3638172
11,Strada Grivița Roșie,332035,45.4185801,23.3635580
11,Strada Aurel Vlaicu,907111,45.4196814,23.3619415
6,Strada Ecaterina Teodoroiu,907111,45.4206178,23.3642907
10,Strada Ecaterina Teodoroiu,907111,45.4202033,23.3645477
7,Aleea Plopilor,907111,45.4182685,23.3652174
14,Strada Ecaterina Teodoroiu,907111,45.4198302,23.3647726
12,Strada Ecaterina Teodoroiu,907111,45.4200181,23.3646717
1,Strada Ecaterina Teodoroiu,907111,45.4210816,23.3643001
1,Strada Aurel Vlaicu,332034,45.4212540,23.3642200
9,Aleea Plopilor,907111,45.4180923,23.3650043
4,Strada Ecaterina Teodoroiu,907111,45.4208135,23.3641558
9,Strada Ecaterina Teodoroiu,907111,45.4202839,23.3648153
8,Strada Ecaterina Teodoroiu,907111,45.4204134,23.3644406
16,Strada Ecaterina Teodoroiu,907111,45.4196589,23.3648967
27 A,Strada Cuza Vodă,907111,45.4216294,23.3652444
55,Strada General Vasile Milea,907111,45.4237026,23.3763105
9,Strada Nicolae Iorga,332016,45.4172793,23.3704557
7,Strada Nicolae Iorga,332016,45.4173895,23.3706138
5,Strada Timișoarei,332015,45.4173935,23.3699320
10,Strada Grivița Roșie,332035,45.4186728,23.3632424
56,Strada Anton Pann,332015,45.4173931,23.3667584
7,Strada Aurel Vlaicu,907111,45.4198933,23.3623557
8,Strada Grivița Roșie,332035,45.4188477,23.3631314
14,Strada Grivița Roșie,332035,45.4183058,23.3634780
30,Strada Anton Pann,332035,45.4176972,23.3667197
5,Strada Aurel Vlaicu,907111,45.4201117,23.3626534
9,Strada Aurel Vlaicu,907111,45.4197725,23.3621360
3,Strada Ecaterina Teodoroiu,907111,45.4208809,23.3644175
5,Strada Ecaterina Teodoroiu,907111,45.4207031,23.3645529
22,Strada Anton Pann,332035,45.4177420,23.3663818
15,Strada Nicolae Iorga,332016,45.4170587,23.3700456
7,Strada Timișoarei,332015,45.4171607,23.3695557
62,Strada Anton Pann,332015,45.4172011,23.3667304
11,Strada Nicolae Iorga,332016,45.4171728,23.3702603
18,Strada Grivița Roșie,332035,45.4179919,23.3636858
12,Strada Grivița Roșie,332035,45.4184767,23.3633753
16,Strada Grivița Roșie,332035,45.4181322,23.3635990
1,Strada Gelu,332014,45.4177951,23.3687368
26,Strada Anton Pann,332035,45.4178596,23.3666493
24,Strada Anton Pann,332035,45.4178496,23.3664929
22,Strada Micul Klein,907111,45.4172633,23.3625802
22,Strada Aradului,332037,45.4162691,23.3624586
19,Strada Radu Șapcă,907111,45.4174451,23.3635097
29,Strada Gheorghe Doja,907111,45.4177249,23.3649213
47,Strada Aradului,907111,45.4140164,23.3641518
16,Strada Aradului,332037,45.4167939,23.3621215
6,Strada Gheorghe Doja,907111,45.4199943,23.3631604
6,Strada Aradului,332037,45.4175624,23.3616184
31,Strada Aradului,332037,45.4152516,23.3633576
30,Strada Gheorghe Doja,907111,45.4178195,23.3645249
43,Strada Aradului,907111,45.4142991,23.3639860
27,Strada Micul Klein,907111,45.4165053,23.3633136
45,Strada Radu Șapcă,907111,45.4142831,23.3655302
49,Strada Grivița Roșie,907111,45.4149760,23.3657892
25,Strada Micul Klein,907111,45.4167244,23.3631942
2,Strada Împăratul Traian,907111,45.4206152,23.3635460
28,Strada Timișoarei,332015,45.4165941,23.3660420
5,Bulevardul Dacia,332036,45.4174031,23.3613034
1A,Strada Micul Klein,907111,45.4191017,23.3616193
15,Strada Micul Klein,907111,45.4176725,23.3625956
24,Strada Grivița Roșie,332037,45.4174469,23.3640168
19,Strada Aradului,332037,45.4163454,23.3626644
25,Strada Grivița Roșie,332037,45.4173398,23.3643618
10,Strada Gheorghe Doja,907111,45.4196158,23.3633570
56,Strada Radu Șapcă,907111,45.4146315,23.3650359
5,Strada Împăratul Traian,907111,45.4202891,23.3640459
2,Strada Radu Șapcă,332037,45.4188458,23.3623503
34,Strada Aradului,332037,45.4151849,23.3631448
39,Strada Aradului,907111,45.4145730,23.3637876
8,Strada Micul Klein,907111,45.4183234,23.3619074
19,Strada Micul Klein,907111,45.4172780,23.3628478
57,Strada Micul Klein,907111,45.4143638,23.3647024
46,Strada Micul Klein,907111,45.4155827,23.3636336
36,Strada Aradului,332037,45.4150236,23.3632537
24,Strada Aradului,332037,45.4160859,23.3625847
62,Strada Micul Klein,907111,45.4144188,23.3643608
15,Strada Radu Șapcă,332037,45.4178584,23.3632516
13,Bulevardul Dacia,332036,45.4166702,23.3617552
20,Strada Grivița Roșie,332037,45.4177744,23.3637984
41,Bulevardul Dacia,332036,45.4143943,23.3632256
21,Strada Grivița Roșie,332037,45.4176790,23.3641377
54,Strada Aradului,907111,45.4136602,23.3641196
52,Strada Radu Șapcă,907111,45.4149110,23.3648426
15,Strada Aradului,332037,45.4167073,23.3624302
20,Strada Micul Klein,907111,45.4174043,23.3625065
20,Strada Aradului,332037,45.4164526,23.3623330
41,Strada Micul Klein,907111,45.4155198,23.3639750
20,Strada Radu Șapcă,907111,45.4174151,23.3632595
Strada Radu Șapcă,Strada Radu Șapcă,332037,45.4184585,23.3628748
31,Strada Radu Șapcă,907111,45.4164415,23.3641331
30,Strada Radu Șapcă,907111,45.4165091,23.3638271
27,Strada Radu Șapcă,907111,45.4167719,23.3639492
1B,Strada Radu Șapcă,332037,45.4191560,23.3623517
33,Strada Aradului,332037,45.4151016,23.3634656
17,Bulevardul Dacia,332036,45.4164045,23.3619281
1,Strada Circa de Pompieri,907111,45.4200088,23.3605605
30,Strada Grivița Roșie,332037,45.4169195,23.3643437
40,Strada Aradului,907111,45.4146485,23.3634894
51,Strada Aradului,907111,45.4137341,23.3643065
49,Strada Micul Klein,907111,45.4149271,23.3643501
1,Strada Miorița,332050,45.4193416,23.3606476
4,Strada Radu Șapcă,332037,45.4186688,23.3624515
5,Strada Grivița Roșie,332035,45.4191419,23.3631882
27,Bulevardul Dacia,332036,45.4154067,23.3625619
51,Strada Grivița Roșie,907111,45.4148103,23.3659199
50,Strada Aradului,907111,45.4139582,23.3639342
11,Strada Gheorghe Doja,907111,45.4195039,23.3637583
32,Strada Grivița Roșie,332037,45.4167221,23.3644738
55,Bulevardul Dacia,332036,45.4134021,23.3638457
33,Bulevardul Dacia,332036,45.4149884,23.3628299
2A,Strada Radu Șapcă,332037,45.4189683,23.3622374
52,Strada Micul Klein,907111,45.4151634,23.3639212
10,Strada Radu Șapcă,332037,45.4182414,23.3627484
28,Strada Aradului,332037,45.4157033,23.3628011
28,Strada Grivița Roșie,332037,45.4170974,23.3642449
49,Bulevardul Dacia,332036,45.4138338,23.3635967
58,Strada Micul Klein,907111,45.4147172,23.3642164
33,Strada Radu Șapcă,907111,45.4151210,23.3649783
4,Strada Împăratul Traian,907111,45.4204212,23.3636688
64,Strada Micul Klein,907111,45.4142905,23.3644818
62,Strada Radu Șapcă,907111,45.4142075,23.3652907
5,Strada Micul Klein,907111,45.4185135,23.3620365
13,Strada Împăratul Traian,907111,45.4195290,23.3644988
5,Strada Miorița,332050,45.4195999,23.3604644
14,Strada Împăratul Traian,907111,45.4194619,23.3642947
36,Strada Micul Klein,907111,45.4162800,23.3631860
51,Bulevardul Dacia,332036,45.4136961,23.3636884
2C,Strada Radu Șapcă,332037,45.4192164,23.3620215
18,Strada Aradului,332037,45.4166348,23.3622252
7,Strada Aradului,332037,45.4174887,23.3619380
1C,Strada Radu Șapcă,332037,45.4192580,23.3622638
34,Strada Grivița Roșie,332037,45.4165764,23.3645711
45,Bulevardul Dacia,332036,45.4141137,23.3634048
32,Strada Gheorghe Doja,907111,45.4176341,23.3646363
50,Strada Micul Klein,907111,45.4153081,23.3638329
33,Strada Aurel Vlaicu,332034,45.4184503,23.3608004
1,Strada Radu Șapcă,332037,45.4189320,23.3625925
2,Strada Miorița,332050,45.4193731,23.3607937
18,Strada Micul Klein,907111,45.4175968,23.3623591
9,Strada Împăratul Traian,907111,45.4199018,23.3642937
28,Strada Micul Klein,907111,45.4168398,23.3628587
7,Bulevardul Dacia,332036,45.4172847,23.3613665
42,Strada Aradului,907111,45.4145142,23.3635813
32,Strada Micul Klein,907111,45.4165460,23.3629889
47,Strada Grivița Roșie,907111,45.4151615,23.3656782
6,Strada Grivița Roșie,332035,45.4190811,23.3629707
14,Strada Aradului,332037,45.4169314,23.3620446
61,Strada Micul Klein,907111,45.4140806,23.3648905
29,Bulevardul Dacia,332036,45.4152672,23.3626579
3,Strada Tudor Vladimirescu,907111,45.4142351,23.3665837
52,Strada Aradului,907111,45.4138101,23.3640308
41,Strada Aradului,907111,45.4144418,23.3638932
31,Strada Micul Klein,907111,45.4162178,23.3635260
12,Strada Gheorghe Doja,907111,45.4194415,23.3635220
41,Strada Radu Șapcă,907111,45.4145648,23.3653390
8,Strada Aradului,332037,45.4174183,23.3617163
24,Strada Micul Klein,907111,45.4171170,23.3626673
3,Bulevardul Dacia,332036,45.4175453,23.3612242
38,Strada Aradului,332037,45.4148332,23.3633713
1,Strada Vlad Țepeș,907111,45.4155926,23.3663549
22,Strada Grivița Roșie,332037,45.4176120,23.3639167
39,Strada Radu Șapcă,907111,45.4147043,23.3652550
26,Strada Radu Șapcă,907111,45.4168633,23.3635941
2,Strada Micul Klein,907111,45.4188396,23.3615698
8,Strada Radu Șapcă,332037,45.4183857,23.3626516
12,Strada Micul Klein,907111,45.4180194,23.3621068
21,Strada Radu Șapcă,907111,45.4172946,23.3636099
10,Strada Împăratul Traian,907111,45.4198222,23.3640490
18,Strada Radu Șapcă,907111,45.4175915,23.3631452
50,Strada Radu Șapcă,907111,45.4150542,23.3647406
4,Strada Aradului,332037,45.4177414,23.3615025
27,Strada Aradului,332037,45.4156124,23.3631147
1,Strada Aradului,332037,45.4180067,23.3616125
24,Strada Radu Șapcă,907111,45.4170577,23.3634771
10,Strada Vlad Țepeș,907111,45.4157072,23.3656935
29,Strada Aradului,332037,45.4154292,23.3632315
39,Bulevardul Dacia,332036,45.4145403,23.3631370
23,Strada Micul Klein,907111,45.4169089,23.3630774
44,Strada Aradului,907111,45.4143690,23.3636694
1,Strada Gheorghe Doja,907111,45.4204814,23.3631328
3,Strada Grivița Roșie,332035,45.4193227,23.3630734
68,Strada Micul Klein,907111,45.4140060,23.3646645
16,Strada Radu Șapcă,332037,45.4178003,23.3630124
53,Strada Micul Klein,907111,45.4146399,23.3645200
7,Strada Gheorghe Doja,907111,45.4198708,23.3635035
21,Strada Aradului,332037,45.4161555,23.3627879
27,Strada Gheorghe Doja,907111,45.4178898,23.3647549
49,Strada Aradului,907111,45.4138695,23.3642271
4,Strada Gheorghe Doja,907111,45.4201792,23.3630446
22,Strada Radu Șapcă,907111,45.4172307,23.3633686
47,Strada Micul Klein,907111,45.4151086,23.3642395
3,Strada Împăratul Traian,907111,45.4204883,23.3638859
11,Strada Radu Șapcă,332037,45.4181655,23.3630721
32,Strada Aradului,332037,45.4153594,23.3630127
10,Strada Aradului,332037,45.4172041,23.3618657
6,Strada Miorița,332050,45.4196183,23.3606483
35,Strada Radu Șapcă,907111,45.4149899,23.3651022
28,Strada Gheorghe Doja,907111,45.4180044,23.3644336
39,Strada Micul Klein,907111,45.4156590,23.3638930
2,Strada Gheorghe Doja,907111,45.4203964,23.3629429
64,Strada Radu Șapcă,907111,45.4140700,23.3653776
13,Strada Radu Șapcă,332037,45.4179904,23.3631619
15,Bulevardul Dacia,332036,45.4165434,23.3618421
40,Strada Micul Klein,907111,45.4160068,23.3633880
45,Strada Aradului,907111,45.4141599,23.3640728
8,Strada Gheorghe Doja,907111,45.4197979,23.3632698
58,Strada Radu Șapcă,907111,45.4144946,23.3651035
17,Strada Radu Șapcă,907111,45.4176707,23.3633410
21,Bulevardul Dacia,332036,45.4158291,23.3623061
10,Strada Micul Klein,907111,45.4181569,23.3620019
25,Strada Radu Șapcă,907111,45.4169346,23.3638372
37,Strada Aradului,907111,45.4147115,23.3637054
8,Strada Împăratul Traian,907111,45.4199932,23.3639272
29,Strada Micul Klein,907111,45.4163893,23.3634305
5,Strada Radu Șapcă,332037,45.4186016,23.3627862
60,Strada Radu Șapcă,907111,45.4143536,23.3651879
17,Strada Micul Klein,907111,45.4174580,23.3627331
5,Strada Aradului,332037,45.4176465,23.3618314
60,Strada Micul Klein,907111,45.4145589,23.3642750
16,Strada Micul Klein,907111,45.4177279,23.3622202
19,Bulevardul Dacia,332036,45.4162633,23.3620128
26,Strada Grivița Roșie,332037,45.4172925,23.3641319
3,Strada Gheorghe Doja,907111,45.4202833,23.3632516
54,Strada Radu Șapcă,907111,45.4147749,23.3649448
11,Strada Împăratul Traian,907111,45.4197113,23.3643884
13,Strada Aradului,332037,45.4168902,23.3623287
25,Bulevardul Dacia,332036,45.4155468,23.3624850
4,Strada Micul Klein,907111,45.4186596,23.3616846
51,Strada Micul Klein,907111,45.4147919,23.3644576
23,Strada Aradului,332037,45.4159736,23.3628869
P.T.24,Strada Radu Șapcă,332037,45.4163588,23.3641881
13,Strada Gheorghe Doja,907111,45.4193265,23.3638496
45,Strada Micul Klein,907111,45.4152301,23.3641280
37,Bulevardul Dacia,332036,45.4147213,23.3629971
102,Strada Anton Pann,332015,45.4138289,23.3670348
12,Strada Aradului,332037,45.4170675,23.3619593
11,Strada Aradului,332037,45.4170706,23.3622109
14,Strada Micul Klein,907111,45.4178706,23.3621757
59,Strada Micul Klein,907111,45.4142240,23.3647872
13,Strada Micul Klein,907111,45.4178013,23.3625118
23,Strada Radu Șapcă,907111,45.4171259,23.3636883
47,Bulevardul Dacia,332036,45.4139688,23.3634766
44,Strada Micul Klein,907111,45.4157186,23.3635441
17,Strada Aradului,332037,45.4165134,23.3625280
26,Strada Micul Klein,907111,45.4169851,23.3627634
23,Strada Grivița Roșie,332037,45.4175114,23.3642269
2,Strada Grivița Roșie,332035,45.4194385,23.3627479
48,Strada Aradului,907111,45.4140909,23.3638468
6,Strada Radu Șapcă,332037,45.4185330,23.3625510
12,Strada Împăratul Traian,907111,45.4196403,23.3641751
34,Strada Micul Klein,907111,45.4164176,23.3631026
35,Strada Micul Klein,907111,45.4159324,23.3636870
35,Strada Aradului,332037,45.4149022,23.3635971
14,Strada Gheorghe Doja,907111,45.4192618,23.3636410
12,Strada Radu Șapcă,332037,45.4180914,23.3628387
55,Strada Micul Klein,907111,45.4145043,23.3646224
1D,Strada Radu Șapcă,332037,45.4193606,23.3621810
11,Bulevardul Dacia,332036,45.4168087,23.3616734
43,Bulevardul Dacia,332036,45.4142560,23.3633299
56,Strada Micul Klein,907111,45.4148450,23.3641199
6,Strada Împăratul Traian,907111,45.4202100,23.3638070
3,Strada Radu Șapcă,332037,45.4187428,23.3626914
1A,Strada Radu Șapcă,332037,45.4190662,23.3624883
2,Strada Aradului,332037,45.4179443,23.3613948
37,Strada Radu Șapcă,907111,45.4148448,23.3651621
14,Strada Radu Șapcă,332037,45.4179332,23.3629385
66,Strada Micul Klein,907111,45.4141528,23.3645692
5,Strada Gheorghe Doja,907111,45.4200738,23.3634027
30,Strada Micul Klein,907111,45.4166927,23.3629243
54,Strada Micul Klein,907111,45.4150310,23.3640060
9,Strada Micul Klein,907111,45.4181025,23.3623322
31,Bulevardul Dacia,332036,45.4151241,23.3627449
43,Strada Micul Klein,907111,45.4153690,23.3640476
35,Bulevardul Dacia,332036,45.4148490,23.3629296
9,Strada Vlad Țepeș,907111,45.4152835,23.3655824
4,Strada Miorița,332050,45.4194691,23.3607469
6,Strada Micul Klein,907111,45.4184726,23.3618024
29,Strada Radu Șapcă,907111,45.4165929,23.3640773
43,Strada Radu Șapcă,907111,45.4144218,23.3654226
10,Strada Miorița,332050,45.4199751,23.3603918
30,Strada Aradului,332037,45.4155469,23.3629193
3,Strada Micul Klein,907111,45.4187347,23.3619106
70,Strada Micul Klein,907111,45.4138665,23.3647472
9,Strada Gheorghe Doja,907111,45.4196909,23.3636214
42,Strada Micul Klein,907111,45.4158641,23.3634725
82,Strada Anton Pann,332015,45.4154127,23.3665508
4,Strada Grivița Roșie,332035,45.4192652,23.3628850
11,Strada Micul Klein,907111,45.4179378,23.3624055
37,Strada Micul Klein,907111,45.4158013,23.3638060
63,Strada Micul Klein,907111,45.4139360,23.3649585
9,Strada Radu Șapcă,332037,45.4183140,23.3629869
32,Strada Radu Șapcă,907111,45.4163633,23.3639004
33,Strada Micul Klein,907111,45.4160715,23.3636109
7,Strada Împăratul Traian,907111,45.4200814,23.3642037
1,Strada Micul Klein,907111,45.4189003,23.3618467
8,Strada Miorița,332050,45.4196932,23.3605770
48,Strada Micul Klein,907111,45.4154417,23.3637414
1,Strada Împăratul Traian,907111,45.4206827,23.3637637
53,Bulevardul Dacia,332036,45.4135462,23.3637509
19,Strada Grivița Roșie,332037,45.4178799,23.3639930
2B,Strada Radu Șapcă,332037,45.4191213,23.3620828
21,Strada Micul Klein,907111,45.4170844,23.3629969
1,Bulevardul Dacia,332036,45.4176772,23.3611376
26,Strada Aradului,332037,45.4159091,23.3627011
34,Strada Gheorghe Doja,907111,45.4174591,23.3647657
1,Strada Grivița Roșie,332035,45.4195053,23.3629707
38,Strada Micul Klein,907111,45.4161460,23.3632888
23,Bulevardul Dacia,332036,45.4156886,23.3624015
46,Strada Aradului,907111,45.4142275,23.3637414
2,Strada Carol Schreter,332014,45.4184137,23.3691728
4,Strada Carol Schreter,332014,45.4181027,23.3690042
7,Strada Carol Schreter,332014,45.4175851,23.3693949
80,Strada Anton Pann,332015,45.4156071,23.3666016
27,Strada Grivița Roșie,332037,45.4171866,23.3644927
20,Strada Ion Luca Caragiale,332034,45.4235388,23.3640521
18,Strada Ion Luca Caragiale,332034,45.4236499,23.3639747
24,Strada Ion Luca Caragiale,332034,45.4233007,23.3641558
22,Strada Ion Luca Caragiale,332034,45.4234259,23.3641232
16,Strada Ion Luca Caragiale,332034,45.4237685,23.3639033
4,Strada Ion Luca Caragiale,332034,45.4244826,23.3634559
14,Strada Ion Luca Caragiale,332034,45.4238873,23.3638202
6,Strada Ion Luca Caragiale,332034,45.4243777,23.3635312
12,Strada Ion Luca Caragiale,332034,45.4240064,23.3637502
19,Strada 22 Decembrie,332020,45.4116123,23.3778097
2,Strada Zorilor,332029,45.4213938,23.3725229
2,Strada Zorilor,332029,45.4215384,23.3725259
80,Bulevardul 1 Decembrie 1918,332012,45.4212420,23.3698426
4,Strada Avram Iancu,332026,45.4144089,23.3708281
56,Strada Aviatorilor,332111,45.3910230,23.3751602
54,Strada Aviatorilor,332109,45.3918024,23.3736952
C,Strada Constructorului,907111,45.4236073,23.3696781
B,Strada Constructorului,907111,45.4231432,23.3700659
1 A,Strada Constructorului,907111,45.4219882,23.3705346
2,Strada Carpați,332041,45.4117587,23.3746935
2,Strada Carpați,332041,45.4121459,23.3746776
4,Strada Carpați,332041,45.4115396,23.3741192
4,Strada Carpați,332041,45.4118234,23.3737058
2,Strada 22 Decembrie,332020,45.4116039,23.3773823
2,Strada 22 Decembrie,332020,45.4117392,23.3773633
2,Strada Viilor,907111,45.4102839,23.3755542
8,Strada Viilor,907111,45.4099286,23.3745682
12,Strada Aviatorilor,907111,45.3959853,23.3752614
4,Strada Saturn,332099,45.3959513,23.3769228
4,Strada Saturn,332099,45.3961437,23.3767637
13,Strada Aviatorilor,907111,45.3929199,23.3757027
4,Strada Venus,332101,45.3918431,23.3763666
11,Strada Venus,332101,45.3923914,23.3773908
8,Strada Venus,332101,45.3915336,23.3768144
10,Strada Venus,332102,45.3917598,23.3771853
11,Strada Independenței,332058,45.4029957,23.3776525
9,Strada Independenței,332058,45.4034589,23.3771224
3,Strada Independenței,332058,45.4048153,23.3755689
10,Strada Saturn,332099,45.3947845,23.3763819
10,Strada Saturn,332099,45.3949939,23.3764772
11,Strada Aviatorilor,907111,45.3942858,23.3761643
137 A,Strada 1 Decembrie 1918,332058,45.4072554,23.3763546
40 A,Strada Aviatorilor,332108,45.3924347,23.3737923
36,Strada Aviatorilor,907111,45.3926611,23.3746455
38,Strada Aviatorilor,332108,45.3929637,23.3739566
24,Strada Aviatorilor,907111,45.3945547,23.3751789
26,Strada Aviatorilor,907111,45.3941413,23.3751716
28,Strada Aviatorilor,907111,45.3945046,23.3744240
24,Strada Independenței,332058,45.3979062,23.3768057
28,Strada Independenței,332058,45.3970471,23.3773380
43,Strada Independenței,332058,45.3968349,23.3778444
1B,Strada Vișinilor,332061,45.4100894,23.3692191
1A,Strada Vișinilor,332061,45.4103159,23.3701065
1,Strada Independenței,332058,45.4053594,23.3751613
9,Strada Jiului,332050,45.4214824,23.3609569
10,Strada Ion Luca Caragiale,332034,45.4241268,23.3636611
8,Strada Ion Luca Caragiale,332034,45.4242584,23.3635987
2,Strada Ion Luca Caragiale,332034,45.4245878,23.3633441
19,Strada Circa de Pompieri,907111,45.4209668,23.3596838
3,Strada Miorița,332050,45.4194390,23.3604992
11,Strada Mihail Kogălniceanu,907111,45.4221199,23.3613369
4,Strada Mihail Kogălniceanu,907111,45.4227461,23.3606240
3,Strada Aurel Vlaicu,907111,45.4202864,23.3628169
10,Aleea Plopilor,907111,45.4182712,23.3645214
8,Aleea Plopilor,907111,45.4183704,23.3649328
13,Strada Gheorghe Barițiu,907111,45.4215887,23.3635222
9,Strada Timișoarei,332015,45.4170195,23.3692170
5D,Strada Timișoarei,332015,45.4172796,23.3696927
17,Strada Nicolae Iorga,332016,45.4169664,23.3700728
13,Strada Nicolae Iorga,332016,45.4171149,23.3701589
9,Bulevardul Dacia,332036,45.4170673,23.3615560
39,Strada Aurel Vlaicu,332034,45.4180610,23.3609553
41,Strada Aurel Vlaicu,332034,45.4179088,23.3609775
7,Strada Micul Klein,907111,45.4183503,23.3621975
10,Bujorului,332012,45.3902715,23.4356277
25,Strada Aradului,332037,45.4157829,23.3630312
28,Strada Radu Șapcă,332037,45.4166848,23.3636821
64,Strada Anton Pann,332015,45.4170429,23.3667276
5,Strada Vlad Țepeș,332015,45.4154537,23.3659449
5,Strada Tudor Vladimirescu,332036,45.4142015,23.3664601
55,Strada Tudor Vladimirescu,332036,45.4134647,23.3644618
3,Strada Primăverii,332062,45.4125411,23.3678443
5,Strada Primăverii,332062,45.4124220,23.3679597
5,Aleea Plopilor,907111,45.4183138,23.3653518
28,Strada Anton Pann,332035,45.4178316,23.3667400
54,Strada Anton Pann,332015,45.4174833,23.3668251
104,Strada Anton Pann,332015,45.4136297,23.3675656
3,Strada Vișinilor,332061,45.4092658,23.3699330
1,Strada Primăverii,332062,45.4126730,23.3677964
7,Strada 22 Decembrie,332020,45.4127793,23.3770924
3,Strada 22 Decembrie,332020,45.4131143,23.3769089
9,Strada 22 Decembrie,332020,45.4127123,23.3771398
5,Strada 22 Decembrie,332020,45.4130620,23.3769415
4,Strada Ștefan Octavian Iosif,332021,45.4144149,23.3758738
98,Strada 1 Decembrie 1918,332024,45.4148317,23.3732183
76,Bulevardul 1 Decembrie 1918,907111,45.4200714,23.3728669
110,Strada 1 Decembrie 1918,332040,45.4127377,23.3743647
115,Strada Lunca,332059,45.4052660,23.3703398
