House number,Street name,Postal code,Latitude,Longitude
37,улица Бутина,672000,52.0337821,113.4986434
47,улица Ярославского,672001,52.0206328,113.4940455
68,Амурская улица,672002,52.0288868,113.5022946
25,улица Ленина,672010,52.0261352,113.5190510
6,улица Назара Широких,672042,52.0749889,113.3719698
24,улица Ползунова,672040,52.0373861,113.4379253
10,улица Онискевича,672006,52.0329170,113.4499619
76,Набережная улица,672014,52.0448000,113.4638656
8,улица Космонавтов,672030,52.0777995,113.3819312
2А,Зоотехническая улица,672003,52.0754724,113.4593184
54,улица Журавлёва,672007,52.0407014,113.5030026
42А,Новобульварная улица,672012,52.0482941,113.5053940
3А,Автогенная улица,672038,52.0603514,113.4870223
30А,улица Евгения Гаюсана,672045,52.0654987,113.4703768
19,Кайдаловская улица,672027,52.0401397,113.5213599
2,Ленинградская улица,672961,52.0275044,113.4972209
8,Каларская улица,672015,51.9955647,113.5435758
8,Звёздная улица,672018,52.0194638,113.2980555
55,Промышленная улица,672020,52.0094912,113.4855308
8,улица Чайковского,672021,52.0347658,113.5019841
50,улица Энтузиастов,672022,52.0626727,113.3541497
22,Майская улица,672023,51.9852460,113.2721897
2,Ленинградская улица,672024,52.0277923,113.4970296
1,улица Чкалова,672039,52.0272661,113.5270217
98,улица Рахова,672005,52.0553253,113.4217910
67,улица Лазо,672001,52.0200077,113.4966993
13,Нерчинская улица,672000,52.0265321,113.5038715
92,улица Забайкальского Рабочего,672000,52.0335174,113.5091776
33,Ангарская улица,672039,52.0302187,113.5125894
19,улица Полины Осипенко,672000,52.0316018,113.5078169
20,улица Николая Островского,672010,52.0278996,113.5121902
14,улица Чайковского,672000,52.0355422,113.5003820
31А,Кирпично-Заводская улица,672040,52.0335618,113.4361950
44,улица Энтузиастов,672032,52.0673448,113.3617090
11,Юбилейная улица,672023,51.9857424,113.2672754
58,Ленинградская улица,672000,52.0351641,113.5049896
3А,Трактовая улица,672003,52.0581512,113.4550858
23А,Петровская улица,672000,52.0268206,113.5007428
23А,Петровская улица,672000,52.0269470,113.5006256
21,Петровская улица,672000,52.0267509,113.5009318
21,Петровская улица,672000,52.0266540,113.5011614
21,Петровская улица,672000,52.0266979,113.5010621
21,Петровская улица,672000,52.0268061,113.5010056
21,Петровская улица,672000,52.0267167,113.5012266
21А,Петровская улица,672000,52.0268288,113.5004959
21А,Петровская улица,672000,52.0267906,113.5004578
21,Петровская улица,672000,52.0267776,113.5010876
23,Петровская улица,672000,52.0269056,113.5007607
21А,Петровская улица,672000,52.0267563,113.5004120
21А,Петровская улица,672000,52.0269127,113.5005569
23,Петровская улица,672000,52.0268554,113.5008591
23,Петровская улица,672000,52.0268086,113.5008175
21,Петровская улица,672000,52.0266763,113.5011156
28,Петровская улица,672000,52.0269250,113.5015055
2,улица Полины Осипенко,672000,52.0255178,113.5022070
2,улица Полины Осипенко,672000,52.0254938,113.5022697
2,улица Полины Осипенко,672000,52.0255438,113.5021378
21,Петровская улица,672000,52.0267446,113.5010165
23,Петровская улица,672000,52.0269946,113.5006441
112,улица Лазо,672001,52.0267164,113.4860925
112 к1,улица Лазо,672020,52.0269029,113.4852478
3,Вокзальная улица,672001,52.0187497,113.4841208
71А,Угданский проезд,672013,52.1001740,113.3412781
128А,улица Ленина,672000,52.0369422,113.4926641
109,Новобульварная улица,672012,52.0482577,113.5032507
7А,Трактовая улица,672003,52.0653908,113.4500618
79,улица Журавлёва,672012,52.0440583,113.5047707
16,улица Красной Звезды,672038,52.0579047,113.4862329
34,Ангарская улица,672039,52.0293054,113.5153636
51А,улица Красной Звезды,672038,52.0731490,113.4794924
10,улица Фёдора Гладкова,672000,52.0703755,113.4859600
8,улица Фёдора Гладкова,672000,52.0702219,113.4841191
8А,улица Фёдора Гладкова,672000,52.0705806,113.4843493
6,улица Фёдора Гладкова,672000,52.0703249,113.4834710
4,улица Фёдора Гладкова,672000,52.0704141,113.4830420
24,улица Ленина,672010,52.0261130,113.5208280
7,улица Коханского,672038,52.0569704,113.5022496
10,улица Полины Осипенко,672000,52.0274630,113.5041246
26,Профсоюзная улица,672000,52.0305461,113.5045442
7,Селенгинская улица,672010,52.0222106,113.5170058
9,Селенгинская улица,672010,52.0221440,113.5158792
2Б,улица Декабристов,672010,52.0217906,113.5164286
11,Селенгинская улица,672010,52.0219940,113.5146659
2А,улица Декабристов,672010,52.0214360,113.5146055
13,Селенгинская улица,672010,52.0217267,113.5139205
3А,улица Декабристов,672010,52.0212090,113.5133974
15,Селенгинская улица,672010,52.0217982,113.5131464
19А,Селенгинская улица,672010,52.0213074,113.5121271
4,улица Гагарина,672039,52.0203545,113.5426081
3А,улица Гагарина,672039,52.0207908,113.5435544
5,улица Гагарина,672039,52.0200065,113.5447738
6,улица Гагарина,672039,52.0203468,113.5450980
7,улица Гагарина,672039,52.0206642,113.5454189
17,улица Гагарина,672039,52.0196296,113.5469758
16,улица Гагарина,672039,52.0199612,113.5473071
15,улица Гагарина,672039,52.0202891,113.5476378
14,улица Гагарина,672039,52.0210734,113.5486613
13,улица Гагарина,672039,52.0213892,113.5490607
12,улица Гагарина,672039,52.0217677,113.5495169
11,улица Гагарина,672039,52.0220159,113.5500574
8,улица Гагарина,672039,52.0223190,113.5473939
9,улица Гагарина,672039,52.0228044,113.5478615
10,улица Гагарина,672039,52.0229856,113.5486906
40,Белорусская улица,672039,52.0233810,113.5457359
46,Белорусская улица,672039,52.0239796,113.5466617
23,Белорусская улица,672039,52.0248181,113.5464231
44,Белорусская улица,672039,52.0243172,113.5454539
28,Украинский бульвар,672039,52.0254079,113.5451908
26,Украинский бульвар,672039,52.0252093,113.5445790
24,Украинский бульвар,672039,52.0251856,113.5438135
22,Украинский бульвар,672039,52.0250656,113.5431499
20,Украинский бульвар,672039,52.0249472,113.5424833
11А,Белорусская улица,672039,52.0240914,113.5413714
9А,Белорусская улица,672039,52.0245725,113.5411205
18,Украинский бульвар,672039,52.0253912,113.5414773
16А,Украинский бульвар,672039,52.0250371,113.5407848
16,Украинский бульвар,672039,52.0254617,113.5407919
14,Украинский бульвар,672039,52.0253846,113.5403960
12,Украинский бульвар,672039,52.0249961,113.5400050
10,Украинский бульвар,672039,52.0248579,113.5393078
8,Украинский бульвар,672039,52.0248082,113.5384626
13,Украинский бульвар,672039,52.0261355,113.5398826
11,Украинский бульвар,672039,52.0260259,113.5393174
7,Украинский бульвар,672039,52.0258725,113.5388056
18,Парковый переулок,672039,52.0263377,113.5380693
5,Украинский бульвар,672039,52.0257271,113.5378032
3,Украинский бульвар,672039,52.0256038,113.5372107
1,Украинский бульвар,672039,52.0254818,113.5366249
14А,улица Гагарина,672039,52.0207706,113.5479811
8Г,улица Гагарина,672039,52.0212282,113.5458582
48,Белорусская улица,672039,52.0236082,113.5471332
1,улица Гагарина,672039,52.0231198,113.5443090
1А,улица Гагарина,672039,52.0218520,113.5430745
11,Силикатная улица,672039,52.0215443,113.5427756
5,Силикатная улица,672039,52.0212729,113.5424899
9,Силикатная улица,672039,52.0211207,113.5419299
4А,улица Кирова,672039,52.0213237,113.5402321
2,улица Кирова,672039,52.0208050,113.5399709
3,улица Кирова,672039,52.0214219,113.5388068
6А,улица Кирова,672039,52.0217148,113.5396387
8А,улица Кирова,672039,52.0221533,113.5391271
5,улица Кирова,672039,52.0222844,113.5380161
4,Белорусская улица,672039,52.0225629,113.5385308
10Б,Белорусская улица,672039,52.0225793,113.5391853
14А,Белорусская улица,672039,52.0227193,113.5398249
8,Белорусская улица,672039,52.0226249,113.5408811
11,Белорусская улица,672039,52.0238356,113.5422814
1,Белорусская улица,672039,52.0233991,113.5387583
8,улица Кирова,672039,52.0220394,113.5410502
38,Белорусская улица,672039,52.0236317,113.5438570
15,Белорусская улица,672039,52.0240553,113.5436551
18,Белорусская улица,672039,52.0230895,113.5427240
10,Белорусская улица,672039,52.0230784,113.5411737
30,Белорусская улица,672039,52.0222590,113.5416078
28,Белорусская улица,672039,52.0219818,113.5417541
32,Белорусская улица,672039,52.0223549,113.5420745
26,Белорусская улица,672039,52.0220843,113.5422172
24,Белорусская улица,672039,52.0222643,113.5431600
22,Белорусская улица,672039,52.0225373,113.5430184
20,Белорусская улица,672039,52.0228129,113.5428706
34,Белорусская улица,672039,52.0228920,113.5417912
16,Белорусская улица,672039,52.0233600,113.5425822
14,Белорусская улица,672039,52.0232656,113.5421128
12,Белорусская улица,672039,52.0231741,113.5416457
13,Белорусская улица,672039,52.0239617,113.5431736
17,Белорусская улица,672039,52.0241518,113.5441424
46,улица Чкалова,672039,52.0307672,113.5202657
11,Парковый переулок,672039,52.0266355,113.5367746
20,Профсоюзная улица,672000,52.0284530,113.5018590
4,улица Полины Осипенко,672000,52.0265911,113.5032317
9,Нерчинская улица,672000,52.0263752,113.5041772
12,улица Декабристов,672010,52.0225959,113.5140567
32,улица Горького,672000,52.0367631,113.5109002
30,улица Горького,672000,52.0363399,113.5104247
10,Кайдаловская улица,672027,52.0383105,113.5210938
12,Кайдаловская улица,672027,52.0387538,113.5215400
14,Кайдаловская улица,672027,52.0391825,113.5220131
19,Кайдаловская улица,672027,52.0401544,113.5213616
17,Кайдаловская улица,672027,52.0394350,113.5205908
15А,Кайдаловская улица,672027,52.0394871,113.5191664
38,улица Горького,672000,52.0394120,113.5136620
42,улица Горького,672000,52.0414285,113.5158009
65,улица Горького,672000,52.0406019,113.5136615
59,улица Горького,672000,52.0405188,113.5129384
55,улица Горького,672000,52.0401775,113.5125732
53,улица Горького,672000,52.0397372,113.5127652
3,Кайдаловская улица,672027,52.0375637,113.5186734
4,Кайдаловская улица,672027,52.0374303,113.5197393
2,Кайдаловская улица,672027,52.0374958,113.5209004
6,Кайдаловская улица,672027,52.0378149,113.5202865
8,Кайдаловская улица,672027,52.0382590,113.5203819
10,улица Токмакова,672027,52.0392329,113.5172981
20,улица Токмакова,672027,52.0415658,113.5197625
18,улица Токмакова,672027,52.0410581,113.5195271
16,улица Токмакова,672027,52.0404476,113.5192962
19,Нагорная улица,672027,52.0409127,113.5184359
17,улица Токмакова,672027,52.0416708,113.5192325
17А,улица Токмакова,672027,52.0420311,113.5185922
16,Кайдаловская улица,672027,52.0396351,113.5224660
16А,Кайдаловская улица,672027,52.0390749,113.5238566
16Б,Кайдаловская улица,672027,52.0386372,113.5249694
62,улица Горького,672000,52.0425671,113.5169481
39А,улица Горького,672000,52.0372397,113.5097284
45,Петровско-Заводская улица,672039,52.0320457,113.5224628
4,улица Токмакова,672027,52.0384808,113.5165115
44,улица Горького,672000,52.0416616,113.5166983
43,улица Горького,672000,52.0387042,113.5117168
40,улица Горького,672000,52.0404841,113.5149607
67,улица Горького,672000,52.0410304,113.5141436
33,Петровско-Заводская улица,672039,52.0315123,113.5240468
33,улица Токмакова,672027,52.0448461,113.5225965
7,улица Пушкина,672000,52.0342787,113.5053043
4,Июньская улица,672038,52.0561111,113.4883656
6,Июньская улица,672038,52.0571801,113.4892472
6,Автогенная улица,672038,52.0601232,113.4883120
19,Автогенная улица,672038,52.0617606,113.4888444
12,улица Красной Звезды,672038,52.0587586,113.4844186
20,улица Красной Звезды,672038,52.0590150,113.4865264
4,улица Красной Звезды,672038,52.0565898,113.4857296
6,улица Красной Звезды,672038,52.0570178,113.4865768
1А,3-я Каштакская улица,672038,52.0575155,113.4869914
18,улица Красной Звезды,672038,52.0581676,113.4867847
14,улица Красной Звезды,672038,52.0578194,113.4856094
10,улица Красной Звезды,672038,52.0577201,113.4847506
12,Автогенная улица,672038,52.0595130,113.4873756
4,Автогенная улица,672038,52.0598570,113.4867969
2,Автогенная улица,672038,52.0598248,113.4856200
7,улица Красной Звезды,672038,52.0608055,113.4826398
24,улица Красной Звезды,672038,52.0607253,113.4838357
28,улица Красной Звезды,672038,52.0607580,113.4849762
30,улица Красной Звезды,672038,52.0614030,113.4860191
3,Автогенная улица,672038,52.0608277,113.4866717
5,Автогенная улица,672038,52.0608993,113.4872565
13,Автогенная улица,672038,52.0606386,113.4882775
9,Автогенная улица,672038,52.0615987,113.4875145
11,Автогенная улица,672038,52.0612287,113.4883063
14,Июньская улица,672038,52.0588305,113.4925727
8,Июньская улица,672038,52.0574899,113.4911562
10,Июньская улица,672038,52.0578845,113.4914280
12,Июньская улица,672038,52.0582412,113.4917918
95Б,улица Шилова,672038,52.0604439,113.4944842
26,Июньская улица,672038,52.0612226,113.4928128
17,Автогенная улица,672038,52.0613164,113.4895686
16,Июньская улица,672038,52.0591884,113.4928493
18,Июньская улица,672038,52.0597862,113.4928700
22,Июньская улица,672038,52.0596457,113.4917870
22,Июньская улица,672038,52.0602185,113.4919735
24,Июньская улица,672038,52.0604208,113.4931680
28,Июньская улица,672038,52.0610355,113.4934189
15,Автогенная улица,672038,52.0606773,113.4894153
37,улица Костюшко-Григоровича,672007,52.0396703,113.4918198
21,улица Красных Коммунаров,672038,52.0643071,113.4775199
23,улица Евгения Гаюсана,672038,52.0642328,113.4769322
72,улица Красных Коммунаров,672038,52.0638858,113.4783432
15,улица Красного Восстания,672038,52.0623138,113.4766466
21,улица Евгения Гаюсана,672038,52.0636694,113.4765090
42В,Геодезическая улица,672038,52.0635679,113.4756670
36А,улица Красной Звезды,672038,52.0632997,113.4835973
18,улица Красного Восстания,672038,52.0631630,113.4790950
4,Инструментальная улица,672045,52.0663232,113.4778436
138,улица Красных Коммунаров,672038,52.0657454,113.4777024
20,улица Евгения Гаюсана,672038,52.0651477,113.4782904
23,улица Красных Коммунаров,672038,52.0653102,113.4771507
16,улица Евгения Гаюсана,672038,52.0652408,113.4765681
2,улица Евгения Гаюсана,672038,52.0656803,113.4802396
8,улица Евгения Гаюсана,672045,52.0658609,113.4789360
10,улица Евгения Гаюсана,672045,52.0657963,113.4783310
3,улица Евгения Гаюсана,672038,52.0647249,113.4785792
28,улица Горького,672000,52.0359963,113.5101365
36,улица Горького,672000,52.0379235,113.5123655
11,Выставочная улица,672000,52.0321462,113.5057762
22,улица Полины Осипенко,672000,52.0315085,113.5087226
3,улица Гагарина,672039,52.0211336,113.5440392
8А,улица Гагарина,672039,52.0222938,113.5461805
4,улица Кирова,672039,52.0210011,113.5392562
6,улица Кирова,672039,52.0220133,113.5404972
7А,улица Гагарина,672039,52.0222551,113.5451016
2,Верхоленская улица,672039,52.0270649,113.5311827
2,Украинский бульвар,672039,52.0244044,113.5374325
2,улица Кирова,672039,52.0245447,113.5380280
2,улица Кирова,672039,52.0240067,113.5378454
41,улица Кирова,672039,52.0214747,113.5370248
9,Белорусская улица,672039,52.0235982,113.5415497
7,Белорусская улица,672039,52.0236078,113.5404676
13,улица Коханского,672038,52.0583335,113.4995814
5,улица Коханского,672038,52.0559512,113.5054096
6,улица Коханского,672038,52.0558255,113.5089257
2А,Верхоленская улица,672039,52.0276609,113.5320467
2А,Верхоленская улица,672039,52.0280945,113.5326021
53,Петровско-Заводская улица,672039,52.0332647,113.5194858
48,Петровско-Заводская улица,672039,52.0325553,113.5232798
50,Петровско-Заводская улица,672039,52.0338146,113.5202932
54,Петровско-Заводская улица,672039,52.0344907,113.5210174
52,Петровско-Заводская улица,672039,52.0343757,113.5198384
26А,Украинский бульвар,672039,52.0246784,113.5440952
15,Украинский бульвар,672039,52.0261721,113.5407901
17А,Украинский бульвар,672039,52.0258700,113.5427247
19А,Украинский бульвар,672039,52.0260267,113.5436258
13,Славянская улица,672039,52.0261852,113.5444679
6,Славянская улица,672031,52.0236303,113.5489902
35,улица Полины Осипенко,672000,52.0338802,113.5096501
40,улица Полины Осипенко,672000,52.0332432,113.5101839
2,Выставочная улица,672000,52.0320749,113.5070807
21,улица Полины Осипенко,672000,52.0319353,113.5076601
25,улица Полины Осипенко,672000,52.0326113,113.5086363
6,Выставочная улица,672000,52.0327614,113.5071731
7,Нерчинско-Заводская улица,672039,52.0269345,113.5259366
2,Таёжная улица,672038,52.0525296,113.4960843
18,Таёжная улица,672038,52.0545427,113.4982213
16,Таёжная улица,672038,52.0537064,113.4977037
1,Таёжная улица,672038,52.0552003,113.4966637
3,Таёжная улица,672038,52.0563882,113.4979129
20,Таёжная улица,672038,52.0556261,113.4994277
3А,Автогенная улица,672038,52.0603287,113.4868512
5А,Автогенная улица,672038,52.0604012,113.4874327
10,Автогенная улица,672038,52.0601191,113.4894281
8,Автогенная улица,672038,52.0594570,113.4883012
121,улица Богомягкова,672012,52.0543606,113.5085326
121,улица Богомягкова,672012,52.0547507,113.5079825
31,Петровско-Заводская улица,672039,52.0309693,113.5255718
29,Петровско-Заводская улица,672039,52.0304017,113.5269290
25,Петровско-Заводская улица,672039,52.0300023,113.5277256
20,Петровско-Заводская улица,672039,52.0295617,113.5309013
24,улица Богдана Хмельницкого,672039,52.0348542,113.5331575
14А,Верхоленская улица,672039,52.0321840,113.5360850
46,Новозаводская улица,672039,52.0328010,113.5328540
46,Новозаводская улица,672039,52.0327796,113.5336855
46,Новозаводская улица,672039,52.0327895,113.5332676
24,улица Богдана Хмельницкого,672039,52.0348537,113.5327532
24,улица Богдана Хмельницкого,672039,52.0348437,113.5335800
38,улица Полины Осипенко,672000,52.0325403,113.5093981
36А,улица Горького,672000,52.0367562,113.5123324
3,улица Токмакова,672027,52.0388648,113.5161059
3,улица Токмакова,672027,52.0384426,113.5155286
40,улица Горького,672000,52.0400114,113.5147329
14,Профсоюзная улица,672000,52.0274996,113.5017224
17,Профсоюзная улица,672000,52.0292686,113.5016893
69,улица Анохина,672000,52.0296514,113.5023079
14,улица Полины Осипенко,672000,52.0296524,113.5064307
22А,улица Полины Осипенко,672000,52.0311838,113.5087865
3,Нерчинско-Заводская улица,672039,52.0262743,113.5252271
9,Батарейная улица,672010,52.0220310,113.5216638
8,Батарейная улица,672010,52.0214946,113.5230586
6А,Прямой переулок,672014,52.0360186,113.4735558
6,2-я Малая улица,672014,52.0349757,113.4759921
6А,Малая улица,672014,52.0330915,113.4807700
110,улица Лазо,672001,52.0281712,113.4855601
112,улица Лазо,672001,52.0266983,113.4859069
114,улица Лазо,672001,52.0253269,113.4848934
45,улица Георгия Костина,672014,52.0443258,113.4577939
45,улица Георгия Костина,672014,52.0447090,113.4583992
17,Байкальская улица,672014,52.0446984,113.4569609
12,Байкальская улица,672014,52.0451271,113.4589114
15,Байкальская улица,672014,52.0450705,113.4577723
49,улица Георгия Костина,672014,52.0459183,113.4596779
49А,улица Георгия Костина,672014,52.0460462,113.4590410
14,Байкальская улица,672014,52.0454647,113.4581010
78,Набережная улица,672014,52.0453200,113.4630471
80,Набережная улица,672014,52.0457616,113.4623459
86,Набережная улица,672014,52.0461378,113.4614617
1,Локомотивная улица,672014,52.0468066,113.4599276
1А,Локомотивная улица,672014,52.0464967,113.4606339
30,улица Недорезова,672014,52.0435243,113.4627281
32,улица Недорезова,672014,52.0440495,113.4614418
44,улица Недорезова,672014,52.0443639,113.4621862
78А,Набережная улица,672014,52.0446682,113.4626209
76,Набережная улица,672014,52.0448140,113.4638032
70,Набережная улица,672014,52.0430088,113.4650061
28,улица Недорезова,672014,52.0432793,113.4639949
72,Набережная улица,672014,52.0437376,113.4650244
74,Набережная улица,672014,52.0441273,113.4641032
42,улица Недорезова,672014,52.0437636,113.4633480
48,Краснознамённая улица,672014,52.0381876,113.4674462
16А,улица Недорезова,672014,52.0417896,113.4645936
16,улица Недорезова,672014,52.0424570,113.4639308
48,Набережная улица,672014,52.0382048,113.4722387
50,Набережная улица,672014,52.0384325,113.4711176
52,Набережная улица,672014,52.0386245,113.4702400
54,Набережная улица,672014,52.0384836,113.4695350
56,Набережная улица,672014,52.0386058,113.4688135
4А,улица Недорезова,672014,52.0355451,113.4727376
2А,улица Недорезова,672014,52.0353930,113.4731569
2Д,Прямой переулок,672014,52.0346160,113.4695866
13А,проспект Советов,672040,52.0346920,113.4503949
9,проспект Советов,672040,52.0342696,113.4497833
13,проспект Советов,672040,52.0345171,113.4502500
10,улица Крупской,672040,52.0350390,113.4509355
7,проспект Советов,672040,52.0337309,113.4492414
7Б,проспект Советов,672040,52.0339527,113.4494265
5,проспект Советов,672040,52.0329759,113.4481928
1,проспект Советов,672040,52.0322482,113.4473505
4,проспект Советов,672040,52.0317228,113.4480516
6,проспект Советов,672040,52.0320643,113.4484819
12,улица Карла Маркса,672006,52.0312972,113.4516393
14,улица Карла Маркса,672006,52.0312588,113.4504908
16,улица Карла Маркса,672006,52.0311702,113.4488794
2,проспект Советов,672040,52.0312652,113.4477347
14,проспект Советов,672040,52.0336442,113.4510600
12,проспект Советов,672040,52.0332631,113.4505880
13,Горбунова улица,672040,52.0343939,113.4524167
16,проспект Советов,672040,52.0340138,113.4515509
12,улица Недорезова,672014,52.0408620,113.4654233
58,Набережная улица,672014,52.0393430,113.4685121
2,улица Недорезова,672014,52.0392614,113.4676185
6,улица Недорезова,672014,52.0395812,113.4663625
8,улица Недорезова,672014,52.0400024,113.4658698
10,улица Недорезова,672014,52.0404437,113.4655078
64,Набережная улица,672014,52.0409667,113.4672767
66А,Набережная улица,672014,52.0411226,113.4664894
60,улица Володарского,672014,52.0405097,113.4672981
62,Набережная улица,672014,52.0402309,113.4678895
60,Набережная улица,672014,52.0398085,113.4682329
68,Набережная улица,672014,52.0425028,113.4660609
105,Комсомольская улица,672014,52.0418971,113.4654449
66,Набережная улица,672014,52.0413940,113.4669226
114,улица Чкалова,672007,52.0340838,113.5109791
37,улица Полины Осипенко,672000,52.0344779,113.5107226
39,улица Полины Осипенко,672000,52.0348111,113.5108782
53,улица Кирова,672039,52.0232263,113.5353990
49,улица Кирова,672039,52.0227914,113.5363062
16,Парковый переулок,672039,52.0258324,113.5383467
26,Парковый переулок,672039,52.0272785,113.5362229
24,Парковый переулок,672039,52.0271048,113.5366382
22,Парковый переулок,672039,52.0269464,113.5370378
43А к1,улица Анохина,672000,52.0269945,113.5088023
19,Ингодинская улица,672010,52.0259067,113.5157306
16,улица Декабристов,672010,52.0231266,113.5136624
3Б,улица Декабристов,672010,52.0214742,113.5131512
17,Селенгинская улица,672010,52.0216897,113.5123829
26,Амурская улица,672010,52.0246647,113.5131366
36,Амурская улица,672010,52.0250112,113.5122086
14,Нерчинская улица,672000,52.0262768,113.5048769
96,улица Чкалова,672007,52.0331778,113.5132215
64,улица Подгорбунского,672000,52.0444205,113.5037194
3,улица Пушкина,672000,52.0328854,113.5037993
5,улица Пушкина,672000,52.0331402,113.5040934
16А,улица Красной Звезды,672038,52.0589174,113.4855470
34А,улица Евгения Гаюсана,672038,52.0664756,113.4723326
45,Геодезическая улица,672038,52.0667005,113.4738777
28,улица Евгения Гаюсана,672038,52.0655259,113.4717193
34,улица Евгения Гаюсана,672038,52.0657566,113.4723031
40,улица Евгения Гаюсана,672038,52.0659776,113.4727644
42,улица Евгения Гаюсана,672038,52.0660994,113.4736905
40А,улица Евгения Гаюсана,672038,52.0657303,113.4731346
36,улица Евгения Гаюсана,672038,52.0651202,113.4684079
38,улица Евгения Гаюсана,672038,52.0656874,113.4686553
30А,улица Евгения Гаюсана,672038,52.0656441,113.4702330
34,улица Евгения Гаюсана,672038,52.0661144,113.4713992
25,улица Евгения Гаюсана,672038,52.0643958,113.4759112
32,улица Евгения Гаюсана,672038,52.0646123,113.4703156
30,улица Евгения Гаюсана,672038,52.0652439,113.4710934
32Б,улица Евгения Гаюсана,672038,52.0653873,113.4697470
32А,улица Евгения Гаюсана,672038,52.0651746,113.4692185
21,улица Металлистов,672045,52.0640602,113.4797135
17,улица Красных Коммунаров,672038,52.0634102,113.4777855
19,улица Красных Коммунаров,672038,52.0634613,113.4771096
7В,улица Красной Звезды,672038,52.0663618,113.4806977
46,улица Красной Звезды,672038,52.0661955,113.4819690
12А,улица Красной Звезды,672038,52.0595249,113.4841737
7А,улица Красной Звезды,672038,52.0655613,113.4811365
7Б,улица Красной Звезды,672038,52.0659438,113.4807999
24А,улица Красной Звезды,672038,52.0602378,113.4840948
64,улица Красной Звезды,672038,52.0761413,113.4824627
5А,улица Красной Звезды,672038,52.0592380,113.4828710
2,улица Красной Звезды,672038,52.0561692,113.4859422
9,Советская улица,672040,52.0228899,113.4301250
5,Советская улица,672040,52.0225470,113.4278423
25,Советская улица,672040,52.0223017,113.4298840
14,Советская улица,672040,52.0203854,113.4306725
8А,Июньская улица,672038,52.0578485,113.4905770
20,Июньская улица,672038,52.0591993,113.4916670
89,улица Шилова,672038,52.0572818,113.4921356
38А,улица Красной Звезды,672038,52.0645603,113.4825364
40,улица Красной Звезды,672038,52.0651113,113.4823386
38Б,улица Красной Звезды,672038,52.0647077,113.4828361
38В,улица Красной Звезды,672038,52.0647347,113.4832242
36,улица Красной Звезды,672038,52.0622180,113.4832224
36А,улица Красной Звезды,672038,52.0628339,113.4834195
26,улица Красной Звезды,672038,52.0611899,113.4843480
32,улица Красной Звезды,672038,52.0613695,113.4835468
34,улица Красной Звезды,672038,52.0618997,113.4833404
9А,улица Красной Звезды,672038,52.0679694,113.4800334
9,улица Красной Звезды,672038,52.0679229,113.4806497
17,улица Красного Восстания,672038,52.0622147,113.4742317
49А,улица Ярославского,672001,52.0223618,113.4965851
66,улица Шестиперова,672001,52.0196749,113.4913646
17,улица Шевченко,672001,52.0208705,113.4977758
17Б,улица Шевченко,672001,52.0206536,113.4983270
17А,улица Тараса Шевченко,672001,52.0204487,113.4988869
36,улица Лазо,672001,52.0204379,113.4979376
28,улица Лазо,672001,52.0196708,113.4999428
40,улица Ярославского,672001,52.0200377,113.4949311
47,улица Ярославского,672001,52.0206625,113.4940062
81,улица Лазо,672001,52.0210663,113.4925966
67,улица Лазо,672001,52.0198984,113.4968491
63,улица Лазо,672001,52.0186850,113.4984152
42,улица Шевченко,672001,52.0183705,113.4989214
46,улица Бекетова,672001,52.0188885,113.4970145
48,улица Бекетова,672001,52.0193815,113.4957104
21,улица Шевченко,672001,52.0208435,113.4996951
31,2-я Шубзаводская улица,672001,52.0204257,113.5014343
29,2-я Шубзаводская улица,672001,52.0199257,113.5026175
26,улица Шевченко,672001,52.0202459,113.4998240
65,улица Лазо,672001,52.0194281,113.4977546
33,2-я Шубзаводская улица,672001,52.0213780,113.5003173
33,2-я Шубзаводская улица,672001,52.0217108,113.5000023
19,улица Шевченко,672001,52.0211768,113.4991082
86А,улица Рахова,672005,52.0528233,113.4216904
88,улица Рахова,672005,52.0536167,113.4214739
88А,улица Рахова,672005,52.0531680,113.4215570
94,улица Рахова,672005,52.0545806,113.4212366
98,улица Рахова,672005,52.0553079,113.4216308
37,улица Яковлева,672005,52.0525338,113.4227708
35А,улица Яковлева,672005,52.0530715,113.4221807
39,улица Яковлева,672005,52.0539143,113.4223899
41,улица Яковлева,672005,52.0547614,113.4222725
86,улица Рахова,672005,52.0523993,113.4218579
75,улица Рахова,672005,52.0521430,113.4200143
1,Авиационный переулок,672005,52.0469899,113.4273493
2,улица Полины Осипенко,672000,52.0255884,113.5022240
21,Петровская улица,672000,52.0267398,113.5010797
11А,Профсоюзная улица,672000,52.0282194,113.5001259
15,Профсоюзная улица,672000,52.0284617,113.5010057
11,Профсоюзная улица,672000,52.0277004,113.4981505
15,Профсоюзная улица,672000,52.0277978,113.5003924
13,Профсоюзная улица,672000,52.0281872,113.5007687
13,Профсоюзная улица,672000,52.0282912,113.5005538
16,Профсоюзная улица,672000,52.0279536,113.5016186
18,Профсоюзная улица,672000,52.0281776,113.5021531
3,улица Полины Осипенко,672000,52.0273859,113.5034352
5,улица Полины Осипенко,672000,52.0275128,113.5035619
8,улица Полины Осипенко,672000,52.0273288,113.5039773
6,улица Полины Осипенко,672000,52.0271240,113.5038241
12,улица Полины Осипенко,672000,52.0292369,113.5059691
25,Профсоюзная улица,672000,52.0315274,113.5039459
23,Профсоюзная улица,672000,52.0304290,113.5028861
24,Профсоюзная улица,672000,52.0303620,113.5039891
12,Выставочная улица,672000,52.0334214,113.5077981
19,улица Полины Осипенко,672000,52.0315997,113.5077754
17,Нерчинская улица,672000,52.0269538,113.5047098
43А к2,улица Анохина,672000,52.0266991,113.5087616
124,улица Журавлёва,672012,52.0522533,113.5174503
34,улица Токмакова,672027,52.0436031,113.5221251
7А,улица Нечаева,672027,52.0436360,113.5230130
5А,улица Нечаева,672027,52.0433886,113.5236460
27,Кайдаловская улица,672027,52.0428187,113.5240255
26,улица Токмакова,672027,52.0426000,113.5209181
4А,Новобульварная улица,672027,52.0423459,113.5222378
4Б,Новобульварная улица,672027,52.0425224,113.5216585
23,Кайдаловская улица,672027,52.0420979,113.5235604
25,Кайдаловская улица,672027,52.0423938,113.5236728
21А,Кайдаловская улица,672027,52.0421051,113.5228065
71,улица Горького,672000,52.0430819,113.5161112
100,улица Чкалова,672007,52.0334147,113.5126154
1,Белорусская улица,672039,52.0237712,113.5387245
1,улица Кирова,672039,52.0178533,113.5468305
15А,улица Гагарина,672039,52.0198473,113.5482660
10А,Силикатная улица,672039,52.0213441,113.5438683
176,улица Рахова,672005,52.0617216,113.4138363
22,улица Красной Звезды,672038,52.0595713,113.4843930
36,Зоотехническая улица,672003,52.0795659,113.4566533
70,Трактовая улица,672003,52.0792065,113.4546781
76,Трактовая улица,672003,52.0808333,113.4556600
20,Ковыльная улица,672014,52.0805894,113.4586829
20,Ковыльная улица,672014,52.0807147,113.4593937
22,Ковыльная улица,672014,52.0802152,113.4587499
46,Геодезическая улица,672038,52.0662783,113.4750950
48,Геодезическая улица,672038,52.0682155,113.4750321
9Б,улица Красной Звезды,672038,52.0678523,113.4791685
1,Автогенная улица,672038,52.0601836,113.4855552
18,Кайдаловская улица,672027,52.0384952,113.5236807
19А,Нагорная улица,672027,52.0411564,113.5180951
10А,улица Токмакова,672027,52.0396782,113.5177693
4А,Кайдаловская улица,672027,52.0372990,113.5192632
8А,Кайдаловская улица,672027,52.0381405,113.5207921
48В,Геодезическая улица,672038,52.0677666,113.4749477
49,Геодезическая улица,672038,52.0685085,113.4732124
46,улица Евгения Гаюсана,672038,52.0669372,113.4733733
47,Геодезическая улица,672038,52.0678837,113.4735289
47А,улица Евгения Гаюсана,672038,52.0676281,113.4727269
30Б,улица Евгения Гаюсана,672038,52.0658820,113.4706133
30,улица Евгения Гаюсана,672038,52.0650658,113.4716242
44,улица Евгения Гаюсана,672038,52.0665975,113.4729013
46А,улица Евгения Гаюсана,672038,52.0666502,113.4733969
14,Парковый переулок,672039,52.0256006,113.5384502
46,Проезжая улица,672000,52.0358929,113.5200783
46,Проезжая улица,672000,52.0358596,113.5193384
22,улица Евгения Гаюсана,672038,52.0652573,113.4796928
6,Инструментальная улица,672045,52.0665077,113.4794118
20,Июньская улица,672038,52.0592349,113.4912880
25А,улица Евгения Гаюсана,672038,52.0641589,113.4755073
42Б,Геодезическая улица,672038,52.0629883,113.4758184
42А,Геодезическая улица,672038,52.0627345,113.4759099
44А,Геодезическая улица,672038,52.0652274,113.4751448
43,Геодезическая улица,672038,52.0649014,113.4746727
41,Геодезическая улица,672038,52.0646306,113.4747457
18А,улица Евгения Гаюсана,672038,52.0647022,113.4753068
20,улица Евгения Гаюсана,672038,52.0649706,113.4758042
4,5-я Малая улица,672014,52.0338402,113.4782541
6,5-я Малая улица,672014,52.0345461,113.4791925
11,Молодёжная улица,672040,52.0380323,113.4341017
30,улица Ползунова,672040,52.0369462,113.4343032
28,улица Ползунова,672040,52.0359756,113.4347216
27,улица Ползунова,672040,52.0367378,113.4355629
11,улица Ползунова,672040,52.0392073,113.4360901
20,улица Ватутина,672040,52.0413391,113.4394144
29,улица Ползунова,672040,52.0382439,113.4348510
24,улица Ползунова,672040,52.0376577,113.4372805
27,улица Ватутина,672040,52.0418223,113.4370121
25,улица Ватутина,672040,52.0413854,113.4369941
21,улица Ватутина,672040,52.0413575,113.4387084
18,улица Ватутина,672040,52.0413566,113.4401816
27,Кенонская улица,672040,52.0423948,113.4371479
3А,улица Гайдара,672026,52.0103959,113.3445040
1,Школьная улица,672018,52.0369180,113.2716341
4,Ямаровская улица,672003,52.0750899,113.4553867
23В,улица Карла Маркса,672006,52.0300778,113.4554011
49,Промышленная улица,672020,52.0075081,113.4850754
1,Школьный переулок,672014,52.0448655,113.4542798
1,Зоотехническая улица,672003,52.0748402,113.4595944
2А,Зоотехническая улица,672003,52.0754675,113.4592847
11,Магистральная улица,672040,52.0268806,113.4267258
2,улица Георгия Костина,672014,52.0425162,113.4548601
11,Ямаровская улица,672003,52.0763103,113.4559682
16А,улица Ярославского,672001,52.0168276,113.4916338
3,Вокзальная улица,672001,52.0200001,113.4839830
1Б,улица Лазо,672001,52.0141899,113.5054157
33,Трактовая улица,672003,52.0730966,113.4525661
14,Московский тракт,672001,52.0196174,113.4796900
53,улица Красной Звезды,672038,52.0743698,113.4802725
4,Нерчинская улица,672000,52.0251854,113.5036414
3,Трактовая улица,672003,52.0579162,113.4556856
3А,Трактовая улица,672003,52.0580033,113.4551683
7А,Экспедиционный тупик,672038,52.0705520,113.4754518
32,Романовский тракт,672014,52.0845573,113.4526657
4,Боровая улица,672015,51.9984090,113.5558813
5,Боровая улица,672015,51.9985056,113.5552973
14,Боровая улица,672015,51.9990212,113.5533411
2,Боровая улица,672015,51.9983153,113.5567180
7,Боровая улица,672015,51.9975038,113.5538333
8,Боровая улица,672015,51.9987170,113.5545407
11,Боровая улица,672015,51.9975928,113.5530473
10,Боровая улица,672015,51.9988447,113.5537956
9,Боровая улица,672015,51.9980805,113.5536121
20,Аптечный проезд,672015,51.9876445,113.5707948
53,Агинский тракт,672016,51.9917707,113.5903672
59,Агинский тракт,672016,51.9904182,113.5907672
12,улица Энергетиков,672042,52.0632376,113.3555670
29А,улица Карла Маркса,672006,52.0301934,113.4540188
23,улица Карла Маркса,672006,52.0304817,113.4553569
21 к1,улица Карла Маркса,672006,52.0301695,113.4579594
21,улица Карла Маркса,672006,52.0302149,113.4569367
29,улица Карла Маркса,672006,52.0306100,113.4539692
36,Калангуйская улица,672006,52.0310973,113.4566396
21Б,улица Карла Маркса,672006,52.0297039,113.4575289
38,улица Карла Маркса,672006,52.0309338,113.4438671
36,улица Карла Маркса,672006,52.0309795,113.4447718
13,Магистральная улица,672040,52.0267696,113.4293536
11,Советская улица,672040,52.0232273,113.4313326
21,Советская улица,672040,52.0260203,113.4294521
15,Советская улица,672040,52.0249436,113.4311450
23,Советская улица,672040,52.0236011,113.4300358
19,Советская улица,672040,52.0265585,113.4309451
19А,Советская улица,672040,52.0267549,113.4332854
13,Советская улица,672040,52.0240164,113.4299682
7,Советская улица,672040,52.0245889,113.4289222
17,Советская улица,672040,52.0256607,113.4302708
15,Магистральная улица,672040,52.0276016,113.4300952
13,Магистральная улица,672040,52.0270834,113.4298790
21,Советская улица,672040,52.0263534,113.4299626
52,1-я Московская улица,672006,52.0279762,113.4361392
56,1-я Московская улица,672006,52.0281478,113.4340340
17,2-я Московская улица,672006,52.0259963,113.4363990
131,1-я Краснодонская улица,672006,52.0283441,113.4373228
5,Магистральная улица,672040,52.0284413,113.4356829
45,1-я Московская улица,672006,52.0276255,113.4349483
41,1-я Московская улица,672006,52.0277303,113.4363713
55,улица Энгельса,672006,52.0291280,113.4399773
33,1-я Московская улица,672006,52.0279436,113.4403863
29,1-я Московская улица,672006,52.0280563,113.4422927
39,1-я Московская улица,672006,52.0276885,113.4374469
43,1-я Московская улица,672006,52.0276867,113.4355733
1А,Магистральная улица,672040,52.0289390,113.4373185
51,улица Энгельса,672006,52.0292500,113.4421167
57,улица Энгельса,672006,52.0290407,113.4384772
35,1-я Московская улица,672006,52.0278870,113.4394088
54,1-я Московская улица,672006,52.0279099,113.4349720
47,1-я Московская улица,672006,52.0275213,113.4342618
37,1-я Московская улица,672006,52.0278340,113.4384032
50,1-я Московская улица,672006,52.0281813,113.4386056
68,Советская улица,672040,52.0245616,113.4345751
14,1-я Первомайская улица,672006,52.0255914,113.4367548
26Б,улица Лазо,672001,52.0195085,113.5017542
24В,улица Лазо,672001,52.0194499,113.5028995
15,1-я Шубзаводская улица,672001,52.0182813,113.5050010
6,Паромная улица,672001,52.0152845,113.5019217
3,переулок Бекетова,672001,52.0157624,113.5021592
23,улица Бекетова,672001,52.0169004,113.5011383
24Г,улица Лазо,672001,52.0193625,113.5034050
18,улица Шестиперова,672001,52.0168381,113.4998816
4,Паромная улица,672001,52.0149022,113.5022892
22,улица Лазо,672001,52.0178257,113.5032038
18А,улица Лазо,672001,52.0171919,113.5047501
25,улица Лазо,672001,52.0168213,113.5037753
8,Паромная улица,672001,52.0155857,113.5016790
29А,улица Лазо,672001,52.0175468,113.5027076
25,улица Бекетова,672001,52.0172274,113.5004251
1,Меховой переулок,672001,52.0139324,113.5031733
20,улица Лазо,672001,52.0174535,113.5037215
24,улица Лазо,672001,52.0186114,113.5017970
17А,улица Бекетова,672001,52.0159571,113.5013478
27,улица Лазо,672001,52.0171984,113.5032549
21,улица Бекетова,672001,52.0163571,113.5020471
22Б,улица Лазо,672001,52.0181402,113.5027774
20В,улица Бекетова,672001,52.0169607,113.5022142
26,улица Лазо,672001,52.0188905,113.5014699
2,Паромная улица,672001,52.0145185,113.5026607
24А,улица Лазо,672001,52.0188236,113.5022370
13,Магистральная улица,672040,52.0271190,113.4294311
21,Советская улица,672040,52.0263412,113.4294346
1А,улица Гайдара,672026,52.0120905,113.3439192
14,Селенгинская улица,672010,52.0220138,113.5118798
16,Селенгинская улица,672010,52.0219396,113.5110886
11,улица Полины Осипенко,672000,52.0302630,113.5062045
22А,улица Анохина,672010,52.0257282,113.5152733
36,Амурская улица,672010,52.0252990,113.5122468
9А,улица Декабристов,672010,52.0229604,113.5130523
11,улица Декабристов,672010,52.0231181,113.5130281
13,улица Декабристов,672010,52.0232625,113.5129195
15,улица Декабристов,672010,52.0234053,113.5129289
5,улица Декабристов,672010,52.0224158,113.5132588
10А,Селенгинская улица,672010,52.0221377,113.5128216
7,улица Декабристов,672010,52.0227393,113.5131407
7А,улица Декабристов,672010,52.0225784,113.5128739
16,Нерчинская улица,672000,52.0266154,113.5051151
18,Нерчинская улица,672000,52.0267362,113.5053224
19,Нерчинская улица,672000,52.0268867,113.5054231
13,Нерчинская улица,672000,52.0260437,113.5045729
4,Петровская улица,672010,52.0251708,113.5070826
1,Нерчинская улица,672000,52.0252771,113.5030886
6,Нерчинская улица,672000,52.0253139,113.5039086
1А,улица Полины Осипенко,672000,52.0261569,113.5006178
1,проезд Серова,672000,52.0311545,113.4894685
6,Татарская улица,672014,52.0422962,113.4583516
8,Татарская улица,672014,52.0424050,113.4584603
10,Татарская улица,672014,52.0424900,113.4586533
13,Татарская улица,672014,52.0425146,113.4580145
15,Татарская улица,672014,52.0426954,113.4582669
20,Татарская улица,672014,52.0434461,113.4599314
18,Татарская улица,672014,52.0432968,113.4597330
16,Татарская улица,672014,52.0431071,113.4595425
14,Татарская улица,672014,52.0429099,113.4592072
12,Татарская улица,672014,52.0426972,113.4589779
2,Байкальская улица,672014,52.0441686,113.4605202
33,Татарская улица,672014,52.0439657,113.4599784
24,Татарская улица,672014,52.0437637,113.4603847
22,Татарская улица,672014,52.0435846,113.4601313
26,Татарская улица,672014,52.0435047,113.4603619
56,улица Георгия Костина,672014,52.0445217,113.4588545
10,Байкальская улица,672014,52.0447889,113.4592703
8,Байкальская улица,672014,52.0446470,113.4594553
6,Байкальская улица,672014,52.0445333,113.4597021
4,Байкальская улица,672014,52.0444063,113.4599703
7,Байкальская улица,672014,52.0442482,113.4595618
38,Трактовая улица,672003,52.0622019,113.4535096
36,Трактовая улица,672003,52.0615197,113.4540190
42,Трактовая улица,672003,52.0642219,113.4525277
40,Трактовая улица,672003,52.0631069,113.4530210
40А,Трактовая улица,672003,52.0630956,113.4539360
51,Трактовая улица,672003,52.0771588,113.4532782
57,Трактовая улица,672003,52.0791804,113.4500063
53,Трактовая улица,672003,52.0782468,113.4530904
49,Трактовая улица,672003,52.0764575,113.4526777
46,Набережная улица,672014,52.0379241,113.4735879
3В,улица Недорезова,672014,52.0357734,113.4707829
9А,улица Недорезова,672014,52.0361784,113.4700796
11А,улица Недорезова,672014,52.0363302,113.4696718
12А,улица Недорезова,672014,52.0365034,113.4701869
10,Авиационный переулок,672005,52.0402009,113.4246188
40,улица Карла Маркса,672006,52.0309182,113.4427911
5А,проспект Советов,672040,52.0331539,113.4484127
52,улица Забайкальского Рабочего,672010,52.0303727,113.5166669
67,улица Николая Островского,672000,52.0345396,113.5181809
46А,Проезжая улица,672000,52.0357501,113.5205462
71,улица Николая Островского,672000,52.0350484,113.5181823
69,улица Николая Островского,672000,52.0347993,113.5182037
7,улица Токмакова,672027,52.0398699,113.5173573
102,улица Чкалова,672007,52.0335218,113.5122328
40,улица Лазо,672001,52.0208743,113.4967559
40,улица Подгорбунского,672000,52.0411434,113.5118944
1,Магистральная улица,672040,52.0287777,113.4364566
3А,Магистральная улица,672040,52.0286567,113.4346388
38А,Калангуйская улица,672006,52.0312245,113.4555380
7А,Советская улица,672040,52.0239338,113.4278740
15А,Магистральная улица,672040,52.0279938,113.4299940
19,Магистральная улица,672040,52.0279535,113.4294405
17,Магистральная улица,672040,52.0281163,113.4305223
23,1-я Московская улица,672006,52.0281448,113.4440805
38,1-я Московская улица,672006,52.0284698,113.4437685
32,1-я Московская улица,672006,52.0285193,113.4448900
50,улица Красного Восстания,672038,52.0624076,113.4731748
38,улица Красного Восстания,672038,52.0625016,113.4738803
36,улица Красного Восстания,672038,52.0626219,113.4748512
4А,Инструментальная улица,672045,52.0664243,113.4784035
6А,Инструментальная улица,672045,52.0664718,113.4788238
106,Карповский тракт,672038,52.0903268,113.4826638
6,Беговая улица,672000,52.1089869,113.4360054
9,Беговая улица,672000,52.1083189,113.4354336
11,Беговая улица,672000,52.1092247,113.4354882
8,Беговая улица,672000,52.1087586,113.4360074
7,Беговая улица,672000,52.1087733,113.4354704
10,Беговая улица,672000,52.1092159,113.4360297
12,Романовский тракт,672014,52.1056180,113.4428397
14,Романовский тракт,672014,52.1052716,113.4427869
2,Центральная улица,672014,52.1074569,113.4431097
10,Романовский тракт,672014,52.1058909,113.4427591
16,Романовский тракт,672014,52.1048727,113.4427233
6,Центральная улица,672014,52.1066719,113.4428755
8,Центральная улица,672014,52.1062802,113.4428149
4,Центральная улица,672014,52.1069633,113.4430407
9,Речная улица,672000,52.1070803,113.4549297
11,Центральная улица,672014,52.1080056,113.4438157
3,Центральная улица,672014,52.1089407,113.4439922
7,Центральная улица,672014,52.1084620,113.4439397
15,Центральная улица,672014,52.1074942,113.4437890
1,Центральная улица,672014,52.1091751,113.4440467
9,Центральная улица,672014,52.1082463,113.4438506
13,Центральная улица,672014,52.1077406,113.4437971
5,Центральная улица,672014,52.1086886,113.4439438
56,улица Ярославского,672001,52.0216140,113.4974131
28,улица Шевченко,672001,52.0207350,113.5002497
70,улица Ярославского,672001,52.0228746,113.4987125
68,улица Ярославского,672001,52.0227399,113.4985358
60,улица Ярославского,672001,52.0219456,113.4976003
66,улица Ярославского,672001,52.0225837,113.4983521
64,улица Ярославского,672001,52.0224230,113.4982171
35,2-я Шубзаводская улица,672001,52.0218832,113.4981012
62,улица Ярославского,672001,52.0222193,113.4980197
10,Даурская улица,672039,52.0202013,113.5368653
4,Даурская улица,672039,52.0198666,113.5381111
6,Даурская улица,672039,52.0200870,113.5377305
2А,Даурская улица,672039,52.0197283,113.5386554
7,Даурская улица,672039,52.0196511,113.5372886
17,Даурская улица,672039,52.0200340,113.5356111
2В,Даурская улица,672039,52.0201639,113.5388353
21,улица Кирова,672039,52.0194457,113.5400724
1,Даурская улица,672039,52.0194900,113.5385300
3,Даурская улица,672039,52.0195674,113.5382681
23,Даурская улица,672039,52.0201253,113.5348807
17,Даурская улица,672039,52.0198963,113.5359069
12А,Даурская улица,672039,52.0201380,113.5364306
27,Даурская улица,672039,52.0205700,113.5346598
2,Даурская улица,672039,52.0202477,113.5383829
13,Даурская улица,672039,52.0197825,113.5366511
5А,Даурская улица,672039,52.0196835,113.5376375
14,Даурская улица,672039,52.0205543,113.5360261
14Б,Даурская улица,672039,52.0202220,113.5358079
16,Даурская улица,672039,52.0204280,113.5354634
15,Даурская улица,672039,52.0199768,113.5361058
2Б,Даурская улица,672039,52.0199055,113.5387154
35,улица Кирова,672039,52.0199202,113.5399240
21,Даурская улица,672039,52.0202054,113.5353340
5,Даурская улица,672039,52.0196452,113.5379764
31,улица Кирова,672039,52.0198411,113.5406790
17А,Даурская улица,672039,52.0198702,113.5363531
38,улица Бекетова,672001,52.0180829,113.4995392
40,улица Шевченко,672001,52.0181245,113.4990873
69,улица Лазо,672001,52.0201337,113.4958664
49,улица Лазо,672001,52.0188608,113.4996159
47,улица Лазо,672001,52.0188045,113.4999421
49А,улица Лазо,672001,52.0187111,113.4992570
51,улица Лазо,672001,52.0190403,113.4993752
41,улица Лазо,672001,52.0185775,113.5004463
45,улица Лазо,672001,52.0186037,113.4998419
37,улица Лазо,672001,52.0183087,113.5011109
33,улица Лазо,672001,52.0180732,113.5015796
30,улица Бекетова,672001,52.0177608,113.5006009
35,улица Лазо,672001,52.0181942,113.5013214
26,улица Бекетова,672001,52.0175153,113.5009326
39,улица Лазо,672001,52.0183894,113.5008731
28,улица Бекетова,672001,52.0175855,113.5007100
26А,улица Бекетова,672001,52.0177016,113.5012695
33А,улица Лазо,672001,52.0180066,113.5012907
16,улица Шестиперова,672001,52.0165560,113.5006429
22,улица Бекетова,672001,52.0173920,113.5012927
22А,улица Бекетова,672001,52.0174004,113.5017634
4А,Меховой переулок,672001,52.0147541,113.5032125
17А,улица Бекетова,672001,52.0158438,113.5032008
16,Меховой переулок,672001,52.0156763,113.5027426
5,Меховой переулок,672001,52.0144469,113.5043222
3,улица Бекетова,672001,52.0148874,113.5046050
6,Меховой переулок,672001,52.0150879,113.5033041
17Б,улица Бекетова,672001,52.0159946,113.5029666
2,Меховой переулок,672001,52.0144040,113.5038048
13,улица Бекетова,672001,52.0154915,113.5037174
17,улица Бекетова,672001,52.0156625,113.5034890
14,Меховой переулок,672001,52.0154423,113.5027421
3,Меховой переулок,672001,52.0142747,113.5040003
9,улица Бекетова,672001,52.0151358,113.5042644
11,улица Бекетова,672001,52.0153701,113.5039350
45,улица Бекетова,672001,52.0184038,113.4973749
43,улица Бекетова,672001,52.0182456,113.4977689
27,улица Бекетова,672001,52.0175883,113.4995091
32,улица Шевченко,672001,52.0180603,113.4982603
28,улица Шестиперова,672001,52.0172577,113.4981416
32,улица Шестиперова,672001,52.0173588,113.4978426
34,улица Шестиперова,672001,52.0174437,113.4975362
4,переулок Шестиперова,672020,52.0176080,113.4983613
26,улица Шестиперова,672001,52.0171117,113.4986471
30,улица Шестиперова,672001,52.0171665,113.4978700
24,улица Шестиперова,672001,52.0172279,113.4989950
4,улица Шевченко,672001,52.0177591,113.4973230
6,улица Шевченко,672001,52.0179194,113.4974219
6,улица Шевченко,672001,52.0180538,113.4974978
8,переулок Шестиперова,672020,52.0177220,113.4979844
35,улица Шевченко,672001,52.0176120,113.4989427
15,Меховой переулок,672001,52.0152668,113.5056973
19,улица Лазо,672001,52.0161575,113.5046908
12,улица Бекетова,672001,52.0157808,113.5041533
17,улица Лазо,672001,52.0160137,113.5048413
16,улица Бекетова,672001,52.0162765,113.5039297
20А,улица Бекетова,672001,52.0163132,113.5033351
10,улица Бекетова,672001,52.0156343,113.5042614
4,улица Бекетова,672001,52.0151001,113.5051096
6,улица Бекетова,672001,52.0152949,113.5047950
20,улица Бекетова,672001,52.0161752,113.5034440
13,Меховой переулок,672001,52.0151774,113.5055904
21,улица Лазо,672001,52.0163003,113.5044127
14,улица Бекетова,672001,52.0158422,113.5039271
5,улица Лазо,672001,52.0153446,113.5058820
18,улица Бекетова,672001,52.0160253,113.5036763
7,улица Шестиперова,672001,52.0177209,113.4953948
9,улица Шестиперова,672001,52.0178016,113.4951090
3,улица Шестиперова,672001,52.0175528,113.4959246
13,улица Шестиперова,672001,52.0180124,113.4944976
11,улица Шестиперова,672001,52.0178786,113.4948940
5,улица Шестиперова,672001,52.0175665,113.4956538
1,улица Шестиперова,672001,52.0173040,113.4966687
1А,улица Шестиперова,672001,52.0173324,113.4963336
6А,Кожевенный переулок,672001,52.0178653,113.4942713
4,Кожевенный переулок,672001,52.0175170,113.4939476
21,улица Шестиперова,672001,52.0183815,113.4933090
15,улица Шестиперова,672001,52.0181562,113.4938255
5,Кожевенный переулок,672001,52.0179654,113.4936599
42,улица Шестиперова,672001,52.0182912,113.4947569
40,улица Шестиперова,672001,52.0181913,113.4950324
10,Кожевенный переулок,672001,52.0183528,113.4951242
34А,Кожевенный переулок,672001,52.0177960,113.4958185
47,улица Бекетова,672001,52.0189979,113.4955292
51,улица Бекетова,672001,52.0192707,113.4949617
34,улица Ярославского,672001,52.0192706,113.4936934
36,улица Ярославского,672001,52.0193955,113.4939169
30,улица Ярославского,672001,52.0190372,113.4933827
55,улица Бекетова,672001,52.0195750,113.4941035
11,Кожевенный переулок,672001,52.0187270,113.4948989
9,Кожевенный переулок,672001,52.0186079,113.4947583
53,улица Бекетова,672001,52.0194362,113.4945014
46,улица Шестиперова,672001,52.0184859,113.4939605
50,улица Шестиперова,672001,52.0186765,113.4935447
32,улица Ярославского,672001,52.0191668,113.4935952
48,улица Шестиперова,672001,52.0185893,113.4937146
8,улица Бекетова,672001,52.0154853,113.5044673
23А,улица Лазо,672001,52.0166105,113.5041960
1,3-я Шубзаводская улица,672001,52.0094539,113.5138189
16,улица Лазо,672001,52.0138937,113.5065542
1,3-я Шубзаводская улица,672001,52.0096175,113.5134724
22А,улица Лазо,672001,52.0183645,113.5033018
28Б,улица Лазо,672001,52.0199787,113.4986373
38А,улица Лазо,672001,52.0200297,113.4982452
32,улица Шевченко,672001,52.0202652,113.5006582
30,улица Шевченко,672001,52.0208288,113.5007249
15Б,1-я Шубзаводская улица,672001,52.0180561,113.5045364
45,1-я Шубзаводская улица,672001,52.0177286,113.5049552
47,1-я Шубзаводская улица,672001,52.0172787,113.5059150
1,улица Лазо,672001,52.0131223,113.5092691
5,3-я Шубзаводская улица,672001,52.0101727,113.5192668
7,3-я Шубзаводская улица,672001,52.0110105,113.5169021
11,3-я Шубзаводская улица,672001,52.0148475,113.5100237
13,3-я Шубзаводская улица,672001,52.0160112,113.5087528
9,3-я Шубзаводская улица,672001,52.0133138,113.5133321
3,улица Лазо,672001,52.0138373,113.5092389
3,улица Лазо,672001,52.0141247,113.5088431
7,1-я Шубзаводская улица,672001,52.0181781,113.5064523
7А,1-я Шубзаводская улица,672001,52.0178019,113.5058367
11,1-я Шубзаводская улица,672001,52.0182645,113.5060874
3,1-я Шубзаводская улица,672001,52.0180189,113.5070850
5,1-я Шубзаводская улица,672001,52.0180517,113.5065687
5А,1-я Шубзаводская улица,672001,52.0175644,113.5061053
1,1-я Шубзаводская улица,672001,52.0179468,113.5072465
27,1-я Шубзаводская улица,672001,52.0188053,113.5047989
21,2-я Шубзаводская улица,672001,52.0198270,113.5044993
13,2-я Шубзаводская улица,672001,52.0196232,113.5049683
23,2-я Шубзаводская улица,672001,52.0197846,113.5042273
21,1-я Шубзаводская улица,672001,52.0189770,113.5051572
19,1-я Шубзаводская улица,672001,52.0186536,113.5051637
19,2-я Шубзаводская улица,672001,52.0198059,113.5046639
17,2-я Шубзаводская улица,672001,52.0197431,113.5047996
16,1-я Шубзаводская улица,672001,52.0189971,113.5053791
5А,2-я Шубзаводская улица,672001,52.0186365,113.5063751
5,2-я Шубзаводская улица,672001,52.0187172,113.5061386
3,2-я Шубзаводская улица,672001,52.0184208,113.5063889
7,2-я Шубзаводская улица,672001,52.0189046,113.5059318
14,1-я Шубзаводская улица,672001,52.0186987,113.5054305
12,1-я Шубзаводская улица,672001,52.0185622,113.5055396
9,2-я Шубзаводская улица,672001,52.0190240,113.5057785
14,2-я Шубзаводская улица,672001,52.0194162,113.5055393
14А,2-я Шубзаводская улица,672001,52.0195142,113.5059170
10,2-я Шубзаводская улица,672001,52.0190105,113.5063948
8,2-я Шубзаводская улица,672001,52.0188792,113.5064046
16,2-я Шубзаводская улица,672001,52.0195684,113.5053501
12,2-я Шубзаводская улица,672001,52.0191633,113.5059387
42,2-я Шубзаводская улица,672001,52.0185256,113.5074661
40,3-я Шубзаводская улица,672001,52.0180484,113.5083591
48,3-я Шубзаводская улица,672001,52.0184045,113.5084422
30,3-я Шубзаводская улица,672001,52.0175181,113.5089979
24,3-я Шубзаводская улица,672001,52.0173058,113.5094807
20А,3-я Шубзаводская улица,672001,52.0170775,113.5093531
20,3-я Шубзаводская улица,672001,52.0170172,113.5090825
26,3-я Шубзаводская улица,672001,52.0171663,113.5089226
46,Аргунская улица,672038,52.0618469,113.4733893
44,Аргунская улица,672038,52.0613891,113.4735966
30,Проезжая улица,672000,52.0350610,113.5172431
40,Проезжая улица,672000,52.0358266,113.5177198
75,улица Николая Островского,672000,52.0354969,113.5181797
32,Проезжая улица,672000,52.0352692,113.5172055
42,Проезжая улица,672000,52.0358992,113.5181833
73,улица Николая Островского,672000,52.0352819,113.5181436
34,Проезжая улица,672000,52.0354588,113.5173888
12,Проезжая улица,672000,52.0356596,113.5156630
24,Проезжая улица,672000,52.0352388,113.5168467
18,Проезжая улица,672000,52.0357465,113.5165241
16,Проезжая улица,672000,52.0357188,113.5162002
22,Проезжая улица,672000,52.0354428,113.5169195
14,Проезжая улица,672000,52.0356771,113.5159058
5,Проезжая улица,672000,52.0358515,113.5139099
11,Проезжая улица,672000,52.0358506,113.5152131
7,Проезжая улица,672000,52.0357559,113.5143195
3,Проезжая улица,672000,52.0356883,113.5136323
9,Проезжая улица,672000,52.0359983,113.5147157
1,Проезжая улица,672000,52.0356345,113.5132864
42,улица Бабушкина,672000,52.0353875,113.5115853
6А,Проезжая улица,672000,52.0359014,113.5131780
43,улица Кирова,672039,52.0221275,113.5366580
51А,улица Кирова,672039,52.0228215,113.5354317
8,Овсяная улица,672041,52.1087093,113.4506848
9,Запрудная улица,672014,52.1085640,113.4491031
5,Аграрная улица,672014,52.1078493,113.4526364
20,Аграрная улица,672014,52.1069710,113.4520515
7,Аграрная улица,672014,52.1075259,113.4526417
12,Аграрная улица,672014,52.1078351,113.4521013
2,Тепличная улица,672014,52.1076386,113.4515859
9,Аграрная улица,672014,52.1073160,113.4527363
5,Запрудная улица,672014,52.1080917,113.4505264
3,Овсяная улица,672041,52.1083246,113.4513233
18,Аграрная улица,672014,52.1071330,113.4521879
5,Овсяная улица,672041,52.1083934,113.4511295
4,Запрудная улица,672014,52.1078067,113.4500526
6,Овсяная улица,672041,52.1086036,113.4512593
14,Аграрная улица,672014,52.1076459,113.4520246
1,Тепличная улица,672014,52.1078223,113.4497489
12А,Аграрная улица,672014,52.1079627,113.4520834
4,Овсяная улица,672041,52.1085309,113.4517199
1А,Аграрная улица,672014,52.1090747,113.4525932
16,Аграрная улица,672014,52.1074851,113.4519559
13,Аграрная улица,672014,52.1069021,113.4526898
2,Овсяная улица,672041,52.1084895,113.4520841
10,Овсяная улица,672041,52.1084154,113.4507990
1Б,Аграрная улица,672014,52.1088128,113.4525484
1,Аграрная улица,672014,52.1083552,113.4526740
9,Овсяная улица,672041,52.1078940,113.4518822
1,Овсяная улица,672041,52.1083524,113.4515373
9А,Овсяная улица,672041,52.1079952,113.4516274
11,Аграрная улица,672014,52.1071036,113.4526355
7,Овсяная улица,672041,52.1080048,113.4511840
3,Аграрная улица,672014,52.1081505,113.4526654
6,Запрудная улица,672014,52.1090731,113.4488426
14,Запрудная улица,672014,52.1080971,113.4486639
8,Запрудная улица,672014,52.1088910,113.4486496
10,Запрудная улица,672014,52.1086908,113.4486630
12,Запрудная улица,672014,52.1084149,113.4485361
2,Овощная улица,672014,52.1064940,113.4512204
14,Аграрная улица,672014,52.1064351,113.4518797
63,Романовский тракт,672014,52.0968217,113.4424706
63А,Романовский тракт,672014,52.0966733,113.4425978
14,Главная улица,672042,52.0963773,113.2878317
12,Главная улица,672042,52.0960510,113.2873542
47,улица Кирова,672039,52.0225620,113.5364590
51,улица Кирова,672039,52.0229878,113.5362454
65,улица Кирова,672039,52.0226892,113.5346565
57,улица Кирова,672039,52.0236389,113.5360066
61,улица Кирова,672039,52.0234590,113.5354956
55,улица Кирова,672039,52.0234085,113.5360729
59,улица Кирова,672039,52.0238707,113.5359125
3,Юбилейная улица,672023,51.9867242,113.2652695
4,Юбилейная улица,672023,51.9862603,113.2638046
25,улица Назара Губина,672023,51.9839953,113.2697139
21,улица Назара Губина,672023,51.9843012,113.2686585
19,улица Назара Губина,672023,51.9844384,113.2680678
23,улица Назара Губина,672023,51.9842477,113.2692612
27,улица Назара Губина,672023,51.9838596,113.2702670
64,Ивановская улица,672005,52.0597561,113.3992739
4,Короткий переулок,672039,52.0353037,113.5342786
45,Каховская улица,672039,52.0353595,113.5325070
41,Каховская улица,672039,52.0349127,113.5320004
2,Короткий переулок,672039,52.0350741,113.5344353
24,Короткий переулок,672039,52.0359527,113.5321512
28,Верхоленская улица,672039,52.0344055,113.5390232
46,Верхоленская улица,672039,52.0364029,113.5404835
14А к1,Верхоленская улица,672039,52.0322417,113.5369199
41А,Каховская улица,672039,52.0346143,113.5312250
22,Короткий переулок,672039,52.0359607,113.5324715
28,улица Богдана Хмельницкого,672039,52.0350522,113.5312215
22,Верхоленская улица,672039,52.0336152,113.5384278
18,Верхоленская улица,672039,52.0335013,113.5374121
14А к2,Верхоленская улица,672039,52.0317596,113.5373886
14,Верхоленская улица,672039,52.0324325,113.5382737
14,Верхоленская улица,672039,52.0327868,113.5373120
30,Александро-Заводская улица,672039,52.0319863,113.5292942
50,Кабанская улица,672039,52.0334678,113.5278768
43А,Баргузинская улица,672039,52.0340953,113.5284146
48,Кабанская улица,672039,52.0333231,113.5282302
23,Каховская улица,672039,52.0329832,113.5299948
55,Новозаводская улица,672039,52.0335800,113.5301827
25,Каховская улица,672039,52.0332229,113.5302826
60,Новозаводская улица,672039,52.0337173,113.5307876
44,Кабанская улица,672039,52.0327366,113.5297604
46,Кабанская улица,672039,52.0329028,113.5292251
27,Каховская улица,672039,52.0334504,113.5304801
51,Нерчинско-Заводская улица,672039,52.0333485,113.5326800
56,Новозаводская улица,672039,52.0334465,113.5315429
53,Нерчинско-Заводская улица,672039,52.0335878,113.5328767
49,Нерчинско-Заводская улица,672039,52.0330854,113.5323857
54,Новозаводская улица,672039,52.0333052,113.5318592
55,Нерчинско-Заводская улица,672039,52.0338520,113.5331578
45,Верхоленская улица,672039,52.0366868,113.5395356
55,Верхоленская улица,672039,52.0365988,113.5396896
47,Верхоленская улица,672039,52.0374421,113.5402628
47,Новозаводская улица,672039,52.0329885,113.5317563
42А,Кабанская улица,672039,52.0324697,113.5303873
42,Кабанская улица,672039,52.0325867,113.5301419
45,Нерчинско-Заводская улица,672039,52.0326453,113.5319236
30,Каховская улица,672039,52.0331509,113.5307159
49,Новозаводская улица,672039,52.0330498,113.5315858
40А,Кабанская улица,672039,52.0323286,113.5309635
45,Новозаводская улица,672039,52.0328858,113.5320054
28А,Каховская улица,672039,52.0328915,113.5305599
40,Кабанская улица,672039,52.0320967,113.5313460
26,Каховская улица,672039,52.0327109,113.5307263
41,Нерчинско-Заводская улица,672039,52.0323242,113.5315858
51,Новозаводская улица,672039,52.0331592,113.5313374
51А,Новозаводская улица,672039,52.0330695,113.5310848
43,Нерчинско-Заводская улица,672039,52.0324952,113.5317434
53,Новозаводская улица,672039,52.0333269,113.5309259
27,Кабанская улица,672039,52.0317725,113.5310128
28,Александро-Заводская улица,672039,52.0314009,113.5303282
26,Александро-Заводская улица,672039,52.0310465,113.5302703
18,Александро-Заводская улица,672039,52.0306013,113.5314715
24,Александро-Заводская улица,672039,52.0308712,113.5306953
28,Нерчинско-Заводская улица,672039,52.0316294,113.5314654
10,Александро-Заводская улица,672039,52.0299898,113.5328743
17,Кабанская улица,672039,52.0311590,113.5326190
12,Александро-Заводская улица,672039,52.0301362,113.5326103
13,Кабанская улица,672039,52.0309569,113.5331012
19,Кабанская улица,672039,52.0311376,113.5321941
11,Кабанская улица,672039,52.0308356,113.5334468
10,Верхоленская улица,672039,52.0313266,113.5350603
15,Кабанская улица,672039,52.0310729,113.5328890
6,Верхоленская улица,672039,52.0308270,113.5345562
8,Верхоленская улица,672039,52.0311608,113.5348658
26,Нерчинско-Заводская улица,672039,52.0314280,113.5312277
14,Александро-Заводская улица,672039,52.0302483,113.5322943
24,Нерчинско-Заводская улица,672039,52.0312303,113.5310021
20,Александро-Заводская улица,672039,52.0306797,113.5311971
23,Кабанская улица,672039,52.0314625,113.5318551
16,Александро-Заводская улица,672039,52.0304819,113.5317175
24А,Нерчинско-Заводская улица,672039,52.0310595,113.5308482
22,Александро-Заводская улица,672039,52.0308129,113.5309909
21,Кабанская улица,672039,52.0313685,113.5321253
27,Правобережный проезд,672020,51.9944847,113.5229399
20,4-я Южная улица,672028,52.0049088,113.5078890
23,Правобережный проезд,672020,51.9955937,113.5215996
23,4-я Южная улица,672028,52.0051007,113.5074993
24,4-я Южная улица,672028,52.0051686,113.5081820
29,Правобережный проезд,672020,51.9940974,113.5238452
25,Правобережный проезд,672020,51.9953915,113.5220247
27,Центральная улица,672014,51.9827250,113.5513232
30,Центральная улица,672014,51.9831204,113.5510850
25,Центральная улица,672014,51.9825063,113.5511118
26,Центральная улица,672014,51.9825473,113.5506060
28,Центральная улица,672014,51.9826967,113.5507743
12,Мостовой переулок,672007,52.0420630,113.4843679
13,Мостовой переулок,672007,52.0420588,113.4837543
10,Мостовой переулок,672007,52.0418839,113.4841245
6,Мостовой переулок,672007,52.0414119,113.4837255
8,Мостовой переулок,672007,52.0417613,113.4840140
15,Мостовой переулок,672007,52.0422023,113.4839233
11,Мостовой переулок,672007,52.0418830,113.4835510
9,Мостовой переулок,672007,52.0416555,113.4832387
14,Придорожная улица,672015,51.9906362,113.5506257
1,Придорожная улица,672015,51.9906221,113.5501361
18,Мирная улица,672015,51.9909177,113.5454111
10,Мирная улица,672015,51.9906227,113.5473387
24,Мирная улица,672015,51.9911848,113.5436751
50,Придорожная улица,672015,51.9922900,113.5457575
2,Мирная улица,672015,51.9903430,113.5495891
22,Мирная улица,672015,51.9911780,113.5439156
10,Дальняя улица,672015,51.9915686,113.5433853
7,Придорожная улица,672015,51.9909720,113.5485423
24,Придорожная улица,672015,51.9912584,113.5484199
40,Придорожная улица,672015,51.9916872,113.5466111
16,Мирная улица,672015,51.9908775,113.5459330
36,Придорожная улица,672015,51.9916312,113.5470069
44,Придорожная улица,672015,51.9917536,113.5457145
8,Мирная улица,672015,51.9906650,113.5480134
33,Дальняя улица,672015,51.9919821,113.5442204
20,Мирная улица,672015,51.9909914,113.5450943
4,Дальняя улица,672015,51.9910404,113.5430716
3,Придорожная улица,672015,51.9908248,113.5492527
46,Придорожная улица,672015,51.9918064,113.5455313
22,Придорожная улица,672015,51.9910480,113.5492205
9,Придорожная улица,672015,51.9910366,113.5481817
48,Придорожная улица,672015,51.9918399,113.5453661
14,Мирная улица,672015,51.9908175,113.5462714
6,Мирная улица,672015,51.9905935,113.5483177
31,Дальняя улица,672015,51.9919105,113.5445473
42,Придорожная улица,672015,51.9917318,113.5461338
19,Придорожная улица,672015,51.9915036,113.5462289
12,Мирная улица,672015,51.9907150,113.5467283
58,Дальняя улица,672015,51.9925357,113.5456518
4,Мирная улица,672015,51.9903733,113.5492756
20,Придорожная улица,672015,51.9908499,113.5498142
12,Дальняя улица,672015,51.9918592,113.5436263
56,Дальняя улица,672015,51.9924801,113.5453225
26,Придорожная улица,672015,51.9915556,113.5480763
27,Придорожная улица,672015,51.9917723,113.5443122
14,Петровско-Заводская улица,672039,52.0291274,113.5315320
15,Петровско-Заводская улица,672039,52.0292410,113.5295090
10,Каховская улица,672039,52.0306401,113.5281212
31,Нерчинско-Заводская улица,672039,52.0306503,113.5296480
26,Петровско-Заводская улица,672039,52.0297430,113.5298543
19,Петровско-Заводская улица,672039,52.0297082,113.5288177
32,Петровско-Заводская улица,672039,52.0301501,113.5287777
19,Верхоленская улица,672039,52.0286223,113.5315878
31,Александро-Заводская улица,672039,52.0303335,113.5309661
12,Петровско-Заводская улица,672039,52.0289804,113.5317412
42,Петровско-Заводская улица,672039,52.0308899,113.5269308
36,Петровско-Заводская улица,672039,52.0304642,113.5279752
24,Петровско-Заводская улица,672039,52.0296537,113.5302174
40,Петровско-Заводская улица,672039,52.0307559,113.5272458
30,Петровско-Заводская улица,672039,52.0299986,113.5291658
29,Александро-Заводская улица,672039,52.0302086,113.5312878
22,Нерчинско-Заводская улица,672039,52.0303370,113.5301896
38,Петровско-Заводская улица,672039,52.0306734,113.5275860
34,Петровско-Заводская улица,672039,52.0303486,113.5282706
39,Александро-Заводская улица,672039,52.0311082,113.5290619
23А,Александро-Заводская улица,672039,52.0298198,113.5316655
14,Каховская улица,672039,52.0312247,113.5287370
33,Александро-Заводская улица,672039,52.0303727,113.5305258
20,Нерчинско-Заводская улица,672039,52.0301653,113.5299345
9,Каховская улица,672039,52.0310268,113.5279285
25,Александро-Заводская улица,672039,52.0300840,113.5315825
37,Александро-Заводская улица,672039,52.0308882,113.5296320
18,Петровско-Заводская улица,672039,52.0293456,113.5309670
45,Александро-Заводская улица,672039,52.0315385,113.5278378
12,Каховская улица,672039,52.0310086,113.5284733
29,Нерчинско-Заводская улица,672039,52.0304335,113.5295936
28,Петровско-Заводская улица,672039,52.0298426,113.5295777
23,Александро-Заводская улица,672039,52.0298819,113.5321160
43,Александро-Заводская улица,672039,52.0313106,113.5282726
27,Александро-Заводская улица,672039,52.0299304,113.5313272
35,Александро-Заводская улица,672039,52.0305304,113.5305068
4А,1-я Новопроточная улица,672007,52.0382651,113.4831421
2,1-я Новопроточная улица,672007,52.0378224,113.4825172
4,1-я Новопроточная улица,672007,52.0381091,113.4827171
7,Ямская улица,672040,52.0313659,113.4373188
9,Ямская улица,672040,52.0314563,113.4370627
5,Тепличная улица,672014,52.1075487,113.4459165
3,Тепличная улица,672014,52.1075125,113.4454929
9,Тепличная улица,672014,52.1085755,113.4453294
11,Ветеринарная улица,672014,52.1042988,113.4445067
9,Ветеринарная улица,672014,52.1039340,113.4450528
1,Ветеринарная улица,672014,52.1032348,113.4458721
7,Ветеринарная улица,672014,52.1037189,113.4452570
5,Ветеринарная улица,672014,52.1035871,113.4454474
3,Ветеринарная улица,672014,52.1034378,113.4456364
2,Авдеевский переулок,672003,52.0621189,113.4554207
10,Авдеевский переулок,672003,52.0629619,113.4549783
3,Авдеевский переулок,672003,52.0625186,113.4546831
6,Авдеевский переулок,672003,52.0626199,113.4551577
1,Авдеевский переулок,672003,52.0622324,113.4548469
4,Авдеевский переулок,672003,52.0624035,113.4552724
8,Авдеевский переулок,672003,52.0627894,113.4550725
10,Трактовый переулок,672003,52.0619012,113.4569193
12,Круговой переулок,672003,52.0612370,113.4561985
6,Трактовый переулок,672003,52.0618841,113.4555386
13,Круговой переулок,672003,52.0614063,113.4557887
16,Круговой переулок,672003,52.0617060,113.4564074
9,Круговой переулок,672003,52.0610888,113.4559475
14,Круговой переулок,672003,52.0615104,113.4564027
7,Трактовый переулок,672003,52.0622939,113.4564077
8,Трактовый переулок,672003,52.0619786,113.4561584
11,Круговой переулок,672003,52.0612449,113.4558744
32,Круговой переулок,672003,52.0611632,113.4547553
20,Круговой переулок,672003,52.0615691,113.4557062
7А,Трактовый переулок,672003,52.0627920,113.4560509
10,Круговой переулок,672003,52.0607730,113.4563330
22,Круговой переулок,672003,52.0614833,113.4552086
4,Трактовый переулок,672003,52.0617278,113.4550656
7,Круговой переулок,672003,52.0609138,113.4560376
18,Круговой переулок,672003,52.0616269,113.4560393
30,Трактовый переулок,672003,52.0605197,113.4544294
2,Авиационная улица,672005,52.0475816,113.4471080
4,Авиационная улица,672005,52.0479405,113.4462515
19,Железнодорожная улица,672014,52.0446395,113.4481862
24,улица Цупсмана,672014,52.0485499,113.4470711
28,улица Цупсмана,672014,52.0487180,113.4465264
26,улица Цупсмана,672014,52.0486259,113.4466799
2,Пограничная улица,672014,52.0488199,113.4463224
15,Авиационная улица,672005,52.0468652,113.4374931
17,Авиационная улица,672005,52.0465470,113.4368088
7,Авиационная улица,672005,52.0468889,113.4394890
9,Авиационная улица,672005,52.0468873,113.4391204
5,Авиационная улица,672005,52.0468878,113.4399457
11,Авиационная улица,672005,52.0467263,113.4389409
23,Авиационная улица,672005,52.0470267,113.4364897
3,Авиационная улица,672005,52.0461909,113.4379604
13,Авиационная улица,672005,52.0469790,113.4379307
23,улица Ломоносова,672014,52.0458304,113.4503983
14,улица Суворова,672014,52.0465346,113.4495814
1,улица Суворова,672014,52.0463671,113.4486840
5,улица Ломоносова,672014,52.0447009,113.4489669
19,улица Ломоносова,672014,52.0454142,113.4499344
17,улица Ломоносова,672014,52.0452978,113.4497954
25,улица Ломоносова,672014,52.0461136,113.4508422
21,улица Ломоносова,672014,52.0455682,113.4501492
32,Железнодорожная улица,672014,52.0448516,113.4483549
3,улица Цупсмана,672014,52.0463006,113.4505683
4,улица Суворова,672014,52.0456646,113.4484662
5,улица Цупсмана,672014,52.0464554,113.4502475
36,Железнодорожная улица,672014,52.0449875,113.4481204
2А,улица Суворова,672014,52.0453773,113.4484315
11,улица Ломоносова,672014,52.0450722,113.4494768
6,улица Суворова,672014,52.0458594,113.4486775
10,улица Суворова,672014,52.0462534,113.4491964
12,улица Суворова,672014,52.0464004,113.4493675
16,улица Суворова,672014,52.0466818,113.4498150
3,улица Суворова,672014,52.0466792,113.4490742
15,улица Ломоносова,672014,52.0452085,113.4496889
8,улица Суворова,672014,52.0460814,113.4489531
20,улица Рахова,672005,52.0474792,113.4231700
22,Авиационная улица,672005,52.0474789,113.4315930
18А,Авиационная улица,672005,52.0491763,113.4315065
40В,Авиационная улица,672005,52.0504571,113.4310457
30,Авиационная улица,672005,52.0475054,113.4298719
40Б,Авиационная улица,672005,52.0504081,113.4303538
56,Авиационная улица,672005,52.0475103,113.4254752
20,Авиационная улица,672005,52.0474316,113.4319565
2,улица Яковлева,672005,52.0474648,113.4247322
24,Авиационная улица,672005,52.0474801,113.4314369
18,Авиационная улица,672005,52.0474371,113.4321853
18А,Авиационная улица,672005,52.0489382,113.4328045
38,Авиационная улица,672005,52.0474953,113.4287241
32,Авиационная улица,672005,52.0474823,113.4296664
26,Авиационная улица,672005,52.0474669,113.4309830
40А,Авиационная улица,672005,52.0498371,113.4286456
34,Авиационная улица,672005,52.0475047,113.4292805
1,улица Яковлева,672005,52.0474313,113.4241803
28,Авиационная улица,672005,52.0475228,113.4305638
54,Авиационная улица,672005,52.0475003,113.4258032
52,Авиационная улица,672005,52.0475566,113.4262633
46,Авиационная улица,672005,52.0475482,113.4277637
40,Авиационная улица,672005,52.0493017,113.4288288
36,Авиационная улица,672005,52.0475000,113.4290252
18Д,Авиационный переулок,672005,52.0483196,113.4330867
15,Авиационный переулок,672005,52.0507410,113.4335625
53,Авиационный переулок,672005,52.0436462,113.4230390
58,Авиационный переулок,672005,52.0433443,113.4226748
3,Автогенный переулок,672038,52.0645161,113.4862385
19,Автогенный переулок,672038,52.0644968,113.4883335
34,улица Забайкальского Рабочего,672010,52.0291122,113.5199578
36,улица Забайкальского Рабочего,672010,52.0295136,113.5195557
38,улица Забайкальского Рабочего,672010,52.0295518,113.5190649
36,улица Забайкальского Рабочего,672010,52.0293547,113.5194078
4,Титовская улица,672006,52.0285824,113.4652143
2,Титовская улица,672006,52.0285893,113.4660971
1,Автогенная улица,672038,52.0600855,113.4845024
112Б,улица Лазо,672001,52.0271434,113.4836229
114А,улица Лазо,672001,52.0251315,113.4851944
6,Титовская улица,672006,52.0286100,113.4648780
34,улица Забайкальского Рабочего,672010,52.0292531,113.5196643
42,улица Лазо,672020,52.0213269,113.4963935
4,улица Евгения Гаюсана,672045,52.0662435,113.4800648
21,улица Ватутина,672040,52.0417743,113.4387325
20,улица Ватутина,672040,52.0417726,113.4394282
18,улица Ватутина,672040,52.0417797,113.4401003
44Б,Белорусская улица,672039,52.0242856,113.5448930
51А,Геодезическая улица,672038,52.0697852,113.4726513
6,Геологический переулок,672027,52.0462651,113.5139258
8,Геологический переулок,672027,52.0464894,113.5133629
4,Геологический переулок,672027,52.0460422,113.5144878
102В,Ленинградская улица,672027,52.0462437,113.5164721
102,Ленинградская улица,672027,52.0456835,113.5162658
7,Комсомольская улица,672014,52.0391798,113.4564170
13,Комсомольская улица,672014,52.0392018,113.4567071
59,улица Рахова,672040,52.0509997,113.4215488
105,1-я Линейная улица,672040,52.0440607,113.4383388
19,1-я Первомайская улица,672006,52.0250657,113.4352759
2Б,Комсомольская улица,672014,52.0383030,113.4560115
9,5-я Каштакская улица,672038,52.0619528,113.4854145
40,улица Ватутина,672040,52.0442002,113.4370844
9,Железобетонный переулок,672003,52.0766734,113.4608473
123Б,улица Лазо,672001,52.0244396,113.4802256
76,улица Чкалова,672007,52.0314540,113.5174574
25А,улица Ползунова,672040,52.0368629,113.4370451
3Б,Магистральная улица,672040,52.0279775,113.4329763
50,Магистральная улица,672040,52.0290288,113.4262302
15А,Советская улица,672040,52.0243961,113.4316443
13Б,Советская улица,972040,52.0241071,113.4315516
64А,улица Бабушкина,672000,52.0389434,113.5031568
13,Хабаровская улица,672007,52.0393646,113.5040053
53А,улица Журавлёва,672000,52.0370803,113.4984451
94А,улица Чкалова,672007,52.0328285,113.5144674
29,улица Забайкальского Рабочего,672010,52.0300351,113.5164506
71,Ленинградская улица,672000,52.0463166,113.5156143
73,Ленинградская улица,672000,52.0465436,113.5158744
21,Кайдаловская улица,672027,52.0416621,113.5230541
27А,Кайдаловская улица,672027,52.0430972,113.5234847
29,Кайдаловская улица,672027,52.0431362,113.5243057
31,Кайдаловская улица,672027,52.0434321,113.5246298
6,улица Нечаева,672027,52.0442173,113.5235403
2А,улица Нечаева,672027,52.0437475,113.5247576
4,улица Нечаева,672027,52.0440421,113.5239996
2,улица Нечаева,672027,52.0438789,113.5243165
5,улица Нечаева,672027,52.0436495,113.5240936
7,улица Нечаева,672027,52.0439319,113.5234167
12,улица Нечаева,672027,52.0453911,113.5207121
10Б,улица Нечаева,672027,52.0453495,113.5212136
10А,улица Нечаева,672027,52.0451837,113.5216874
12А,улица Нечаева,672027,52.0455604,113.5202816
12Б,улица Нечаева,672027,52.0457959,113.5205076
13,улица Нечаева,672027,52.0445358,113.5218596
15,улица Нечаева,672027,52.0446389,113.5215086
21А,улица Токмакова,672027,52.0429400,113.5199733
34А,улица Токмакова,672027,52.0432847,113.5229907
39,Кайдаловская улица,672027,52.0456603,113.5275427
43,Кайдаловская улица,672027,52.0461365,113.5279010
5А,Крымская улица,672014,52.0476033,113.4566001
35,Мысовская улица,672014,52.0471751,113.4587789
36А,улица Евгения Гаюсана,672038,52.0649741,113.4685669
16,Майская улица,672023,51.9858719,113.2699984
18,Майская улица,672023,51.9856628,113.2707377
20,Майская улица,672023,51.9854669,113.2714749
15,улица 40 лет Октября,672023,51.9850786,113.2713576
14,Майская улица,672023,51.9860693,113.2692763
9,Иркутская улица,672023,51.9857472,113.2688668
13,улица 40 лет Октября,672023,51.9846261,113.2709375
8,Иркутская улица,672023,51.9852617,113.2686104
7,Иркутская улица,672023,51.9848340,113.2681927
11,улица 40 лет Октября,672023,51.9841447,113.2706898
4,улица 40 лет Октября,672023,51.9840684,113.2711912
6,улица 40 лет Октября,672023,51.9849046,113.2718030
22,Майская улица,672023,51.9852671,113.2721916
31,улица Назара Губина,672023,51.9834580,113.2716406
24,Майская улица,672023,51.9851086,113.2727556
26,Майская улица,672023,51.9849592,113.2733083
28,Майская улица,672023,51.9846688,113.2731139
30,Майская улица,672023,51.9847925,113.2738681
32,Майская улица,672023,51.9846492,113.2744136
34,Майская улица,672023,51.9842615,113.2742830
37,улица Назара Губина,672023,51.9833498,113.2736557
35,улица Назара Губина,672023,51.9830306,113.2732782
33,улица Назара Губина,672023,51.9832106,113.2726591
31А,улица Назара Губина,672023,51.9834407,113.2723283
16,улица Назара Губина,672023,51.9840826,113.2678494
18,улица Назара Губина,672023,51.9838885,113.2685652
4,Иркутская улица,672023,51.9836294,113.2675080
3,Иркутская улица,672023,51.9832744,113.2672619
2,Иркутская улица,672023,51.9829177,113.2669877
1,Иркутская улица,672023,51.9825460,113.2669347
2,Юбилейная улица,672023,51.9863198,113.2625412
1,улица Назара Губина,672023,51.9858754,113.2630068
3,улица Назара Губина,672023,51.9856568,113.2637916
1А,Майская улица,672023,51.9887100,113.2606995
2,улица Мира,672023,51.9902079,113.2616244
4,улица Мира,672023,51.9899651,113.2625928
6,улица Мира,672023,51.9898292,113.2630817
1А,улица Угольщиков,672023,51.9895621,113.2617210
1,улица Угольщиков,672023,51.9896949,113.2612808
10,микрорайон Агрогородок Опытный,672023,51.9767986,113.2605613
12,микрорайон Агрогородок Опытный,672023,51.9753064,113.2582169
13,микрорайон Агрогородок Опытный,672023,51.9759614,113.2576004
7,Трактовая улица,672003,52.0659383,113.4499282
29,улица Мира,672023,51.9885434,113.2702435
28,Иркутская улица,672023,51.9889815,113.2705457
30,Иркутская улица,672023,51.9897763,113.2709969
21,Нерчинско-Заводская улица,672039,52.0292587,113.5283881
21А,Нерчинско-Заводская улица,672039,52.0290907,113.5282070
21Б,Нерчинско-Заводская улица,672039,52.0294019,113.5285064
63,улица Рахова,672040,52.0512755,113.4213613
44,Геодезическая улица,672038,52.0649727,113.4751967
16,7-я Каштакская улица,672038,52.0616502,113.4837902
45В,Геодезическая улица,672038,52.0652207,113.4746193
47В,Геодезическая улица,672038,52.0651880,113.4743060
45Б,Геодезическая улица,672038,52.0651431,113.4739127
24,1-я Автогенная улица,672038,52.0621390,113.4884122
22,1-я Автогенная улица,672038,52.0622453,113.4882161
23,3-я Каштакская улица,672038,52.0622582,113.4875938
26,4-я Каштакская улица,672038,52.0622612,113.4868793
24,3-я Каштакская улица,672038,52.0622397,113.4879644
21,3-я Каштакская улица,672038,52.0620279,113.4876125
24,4-я Каштакская улица,672038,52.0620318,113.4868579
22,4-я Каштакская улица,672038,52.0618114,113.4868431
19,3-я Каштакская улица,672038,52.0618372,113.4876192
19,4-я Каштакская улица,672038,52.0618107,113.4864631
23,4-я Каштакская улица,672038,52.0622359,113.4865255
18,5-я Каштакская улица,672038,52.0616549,113.4857390
22,5-я Каштакская улица,672038,52.0620043,113.4857604
21,4-я Каштакская улица,672038,52.0620101,113.4864791
20,5-я Каштакская улица,672038,52.0618039,113.4857506
24,5-я Каштакская улица,672038,52.0622649,113.4858627
7,5-я Каштакская улица,672038,52.0617491,113.4854394
12,6-я Каштакская улица,672038,52.0617260,113.4848295
10,6-я Каштакская улица,672038,52.0615587,113.4848933
14,6-я Каштакская улица,672038,52.0619614,113.4848181
11,5-я Каштакская улица,672038,52.0621453,113.4854385
16,6-я Каштакская улица,672038,52.0622374,113.4847398
21,6-я Каштакская улица,672038,52.0620699,113.4844353
23,6-я Каштакская улица,672038,52.0622453,113.4843944
18,7-я Каштакская улица,672038,52.0618478,113.4837370
22,7-я Каштакская улица,672038,52.0622765,113.4836353
20,7-я Каштакская улица,672038,52.0620083,113.4839808
15,6-я Каштакская улица,672038,52.0614674,113.4845727
17,6-я Каштакская улица,672038,52.0616670,113.4845133
19,6-я Каштакская улица,672038,52.0618514,113.4844897
14,7-я Каштакская улица,672038,52.0614814,113.4838217
48А,Геодезическая улица,672038,52.0672780,113.4744899
38,Казачья улица,672015,52.0035495,113.5622834
40,Казачья улица,672015,52.0038828,113.5624438
36,Казачья улица,672015,52.0032228,113.5621401
34,Казачья улица,672015,52.0028830,113.5619922
7,улица Коханского,672038,52.0572459,113.5018400
7,улица Коханского,672038,52.0561841,113.5025913
6,Ивановский проезд,672043,52.1056473,113.3428414
74,улица Нечаева,672038,52.0549929,113.4948437
8Б,улица Гагарина,672039,52.0227356,113.5459989
3,Силикатная улица,672039,52.0214568,113.5409058
2,Силикатная улица,672039,52.0204085,113.5412197
103,1-я Линейная улица,672040,52.0441919,113.4386855
107,1-я Линейная улица,672040,52.0444062,113.4382907
15,Инвентарная улица,672040,52.0444588,113.4375998
46Б,улица Богомягкова,672012,52.0473971,113.5025778
57,улица Рахова,672040,52.0507235,113.4216395
30,улица Красной Звезды,672038,52.0609348,113.4855142
13,Нерчинская улица,672000,52.0264899,113.5038812
101,1-я Линейная улица,672040,52.0438788,113.4393189
109,1-я Линейная улица,672040,52.0445936,113.4378930
31,Ковыльная улица,672014,52.0814613,113.4663832
34,улица Бекетова,672001,52.0180113,113.5000125
6А,Славянская улица,672031,52.0231830,113.5495558
7,Белорусская улица,672039,52.0234489,113.5405804
21,улица Недорезова,672014,52.0390378,113.4649467
20,Проезжая улица,672000,52.0357360,113.5170734
44,улица Полины Осипенко,672007,52.0344065,113.5115723
35Г,проспект Фадеева,672030,52.0647541,113.3966039
2 к3,улица Богомягкова,672000,52.0345068,113.4890195
2 к1,улица Богомягкова,672000,52.0336582,113.4893398
11,Алданская улица,672038,52.0555880,113.4769938
92,Новобульварная улица,672038,52.0555191,113.4876730
4с1,Малая улица,672014,52.0339909,113.4826565
16,улица Шестиперова,672020,52.0165526,113.5010694
16,Паромная улица,672001,52.0167374,113.4990319
14,Паромная улица,672001,52.0165395,113.4996238
12,Паромная улица,672001,52.0163352,113.5002425
10,Паромная улица,672001,52.0161657,113.5007299
2,Инструментальная улица,672045,52.0663687,113.4767411
7Б,Трактовая улица,672003,52.0663554,113.4497907
23,Петровская улица,672000,52.0268763,113.5007337
21А,Петровская улица,672000,52.0267472,113.5005574
21,Петровская улица,672000,52.0267994,113.5008016
28,Петровская улица,672000,52.0269726,113.5015824
7,микрорайон Агрогородок Опытный,672023,51.9754599,113.2583238
1А,Кабанская улица,672039,52.0277156,113.5413108
17,улица Алексея Брызгалова,672030,52.0734413,113.3855181
61,улица Рахова,672040,52.0511462,113.4215440
65,улица Рахова,672040,52.0513996,113.4213936
19,Петровская улица,672000,52.0265876,113.5012918
14,Путейская улица,672023,51.9957325,113.2749304
12,Путейская улица,672023,51.9958388,113.2745614
8,Путейская улица,672023,51.9960382,113.2739423
23А с1,Окружной проезд,672042,52.0837536,113.3753373
25 с2,Окружной проезд,672042,52.0840726,113.3766526
23 с1,Окружной проезд,672042,52.0842130,113.3758865
21,Окружной проезд,672042,52.0851579,113.3774924
44,улица Чайковского,672027,52.0395618,113.4895464
14,улица Юности,672016,51.9906927,113.5960971
2,Июньская улица,672038,52.0575932,113.4881769
65,улица Карла Маркса,672006,52.0298929,113.4464634
35,улица Шилова,672038,52.0480331,113.4909502
2 к2,улица Богомягкова,672000,52.0340276,113.4887704
8,улица Красной Звезды,672038,52.0569515,113.4850725
2Б,улица Недорезова,672014,52.0350240,113.4745226
15,Боровая улица,672015,51.9977175,113.5525674
20,улица Алексея Брызгалова,672042,52.0745836,113.3843811
27,Окружной проезд,672042,52.0841251,113.3771866
35А,улица Шилова,672038,52.0476349,113.4909385
93,улица Бабушкина,672039,52.0334175,113.5144969
1,улица Юности,672016,51.9896050,113.5907341
57,Агинский тракт,672016,51.9910671,113.5900903
