House number,Street name,Postal code,Latitude,Longitude
25/а,Калыбекова (Маяковский),160500,40.7844808,68.3269774
15,Рудаки,160500,40.7584009,68.3168401
1,Омаршаева (Правда),160500,40.7821175,68.3268255
15,Рудаки,160500,40.7582736,68.3170803
б/н,Шакарим,160500,40.7732232,68.3221236
38,Абая,160500,40.7770374,68.3322411
5,тупик Нарбаева,160500,40.7813200,68.3254823
107,ул Ажибекова ( Калинин ),160500,40.7763284,68.3288179
1/1,ул Уалиханова,160500,40.7721249,68.3208624
162,ул Кожанова,160500,40.7769533,68.3213050
38,ул Рыскулова (Алматинская),160500,40.7891469,68.3202740
49,ул Мухтар Ауезова,160500,40.7835265,68.3325297
22,ул Мухтар Ауезова,160500,40.7770244,68.3283981
14,улица  Жайшыбеков,160500,40.7762008,68.3263048
26,ул Калыбекова (Маяковский),160500,40.7846644,68.3279177
22,ул Калыбекова (Маяковский),160500,40.7862614,68.3254520
69/1,ул Кожанова,160500,40.7779410,68.3177266
12A,Амангелди,160500,40.7688271,68.3319855
35,улица Кожанова,160501,40.7714440,68.3336036
6А,ул Дулатов,160500,40.7671663,68.3272937
6,ул Габдуллин,160500,40.7679403,68.3363496
4,Улица Айманова,160500,40.7807217,68.3291706
б/н,Кожанова,160500,40.7759525,68.3237247
19,Нурпейсова,160500,40.7759588,68.3279380
49,Алтынсарин,160501,40.7787881,68.3132626
6/1,Уалиханова,160500,40.7732977,68.3198448
5/1,Уалиханова,160500,40.7729374,68.3195682
3А,Алтынсарин,160500,40.7733063,68.3205044
4/2,Уалиханова,160500,40.7730260,68.3202193
3,Алтынсарин,160500,40.7732367,68.3207331
1,Алтынсарин,160500,40.7731087,68.3208825
2/1,Уалиханова,160500,40.7727346,68.3209965
2/2,Уалиханова,160500,40.7727758,68.3205459
7А,Тупик Уалиханова,160500,40.7718370,68.3204837
7/1А,Тупик Валиханова,160500,40.7720614,68.3201900
1/1,Уалиханова,160500,40.7723103,68.3204945
3/1,Уалиханова,160500,40.7725123,68.3198776
3/2,Уалиханова,160500,40.7728455,68.3197595
5/2,Уалиханова,160500,40.7731015,68.3192353
5/1,Улица Махамбет,160500,40.7722757,68.3177881
7/2,Улица Махамбет,160500,40.7722047,68.3181596
5/5,Улица Махамбет,160500,40.7724778,68.3192365
3А,Улица Махамбет,160500,40.7723468,68.3191373
10Б,Улица Махамбет,160500,40.7720736,68.3187550
3Б,Улица Махамбет,160500,40.7718319,68.3184694
4Б,Улица Махамбет,160500,40.7717272,68.3188972
7А,Улица Махамбет,160500,40.7722046,68.3195020
12Б,Улица Махамбет,160500,40.7719233,68.3192915
11/1,Улица Махамбет,160500,40.7720721,68.3174770
11А,Улица Махамбет,160500,40.7718876,68.3176278
1/3,Улица Махамбет,160500,40.7715766,68.3181484
1/2,Улица Махамбет,160500,40.7714516,68.3184287
1,Улица Махамбет,160500,40.7706977,68.3191864
1/1,Улица Махамбет,160500,40.7705754,68.3186498
2/2,Улица Махамбет,160500,40.7707704,68.3177321
2/1,Улица Махамбет,160500,40.7707288,68.3182066
10/1,Торайгырова,160500,40.7745254,68.3158737
12,Махамбет,160500,40.7743353,68.3155565
21,Махамбет,160500,40.7742828,68.3148036
19,Махамбет,160500,40.7741195,68.3150619
17,Махамбет,160500,40.7739651,68.3152412
4,Торайгырова,160500,40.7740165,68.3166653
10,Махамбет,160500,40.7740398,68.3159860
6,Торайгырова,160500,40.7743583,68.3161902
4/2,Торайгырова,160500,40.7742356,68.3164249
8,Махамбет,160500,40.7738521,68.3162718
6,Махамбет,160500,40.7737358,68.3165044
2,Торайгырова,160500,40.7738620,68.3168905
2/1,Торайгырова,160500,40.7736086,68.3171818
2,Махамбет,160500,40.7733506,68.3169726
7,Махамбет,160500,40.7736207,68.3158035
3,Махамбет,160500,40.7732793,68.3163620
5,Махамбет,160500,40.7734599,68.3160279
9,Алтынсарин,160500,40.7735206,68.3202354
11,Алтынсарин,160500,40.7736453,68.3199437
6/2,Уалиханова,160500,40.7735896,68.3194158
13А,Алтынсарин,160500,40.7738781,68.3197160
15,Алтынсарин,160500,40.7740598,68.3194435
15А,Алтынсарин,160500,40.7742499,68.3191581
8/1,Уалиханова,160500,40.7738576,68.3190472
11/3,Алтынсарин,160500,40.7744371,68.3187940
8/2,Уалиханова,160500,40.7742353,68.3185362
7/1,Уалиханова,160500,40.7733736,68.3189497
7/2,Уалиханова,160500,40.7736786,68.3185496
9/3,Уалиханова,160500,40.7738164,68.3182092
15А,Махамбет,160500,40.7735251,68.3178052
15,Махамбет,160500,40.7731826,68.3174227
13,Махамбет,160500,40.7730280,68.3171662
9,Улица Махамбет,160500,40.7725794,68.3173195
9А,Улица Махамбет,160500,40.7727864,68.3169464
40,Махамбет,160500,40.7755415,68.3138634
16,Торайгырова,160500,40.7753164,68.3148498
38,Махамбет,160500,40.7752488,68.3142277
30,Махамбет,160500,40.7749959,68.3145505
16,Махамбет,160500,40.7746726,68.3150094
12/2,Торайгырова,160500,40.7749630,68.3153191
14,Торайгырова,160500,40.7751113,68.3151528
3,Уалиханова,160500,40.7741403,68.3177974
9/5,Уалиханова,160500,40.7744471,68.3174535
1,Торайгырова,160500,40.7743968,68.3167856
9/2,Уалиханова,160500,40.7748044,68.3168849
9/1,Уалиханова,160500,40.7746657,68.3170665
5,Торайгырова,160500,40.7745449,68.3165698
11/1,Уалиханова,160500,40.7749681,68.3167132
11/2,Уалиханова,160500,40.7751077,68.3165047
13,Торайгырова,160500,40.7750478,68.3158992
13/1,Уалиханова,160500,40.7754241,68.3160876
17,Торайгырова,160500,40.7752830,68.3155772
7,Уалиханова,160500,40.7755485,68.3157858
19,Торайгырова,160500,40.7755241,68.3152581
13,Уалиханова,160500,40.7757886,68.3153747
15,Уалиханова,160500,40.7759583,68.3151381
21,Торайгырова,160500,40.7758853,68.3145996
15/1,Уалиханова,160500,40.7761974,68.3148678
41,Уалиханова,160501,40.7776358,68.3127133
72,Махамбет,160500,40.7778554,68.3105991
56,Торайгырова,160500,40.7780707,68.3109350
54,Торайгырова,160500,40.7779316,68.3111255
70,Махамбет,160500,40.7777498,68.3107715
66,Махамбет,160500,40.7773100,68.3113642
68,Махамбет,160500,40.7774360,68.3111174
48,Торайгырова,160500,40.7776563,68.3114245
40,Торайгырова,160500,40.7773181,68.3119624
64,Махамбет,160500,40.7770582,68.3117390
62,Махамбет,160500,40.7767984,68.3119548
60,Махамбет,160500,40.7767367,68.3122549
58,Махамбет,160500,40.7764994,68.3124421
24,Торайгырова,160500,40.7767061,68.3128214
46,Махамбет,160500,40.7763457,68.3127362
22/1,Торайгырова,160500,40.7764298,68.3131494
44,Махамбет,160500,40.7762340,68.3129239
42,Махамбет,160500,40.7761152,68.3131130
40/1,Махамбет,160500,40.7759224,68.3132977
38А,Махамбет,160500,40.7757542,68.3135696
20,Торайгырова,160500,40.7763108,68.3133543
18/2,Торайгырова,160500,40.7761605,68.3135255
23,Торайгырова,160501,40.7762101,68.3141698
15/1А,Уалиханова,160501,40.7764605,68.3144958
21,Уалиханова,160501,40.7765732,68.3143375
27,Торайгырова,160501,40.7764102,68.3139465
31/1,Торайгырова,160501,40.7767047,68.3135032
23/2,Уалиханова,160501,40.7767671,68.3140579
25,Уалиханова,160501,40.7769180,68.3138627
27,Уалиханова,160501,40.7770654,68.3136410
27,Уалиханова,160501,40.7772127,68.3134663
31,Торайгырова,160501,40.7768119,68.3133215
35,Торайгырова,160501,40.7770962,68.3129179
39,Уалиханова,160501,40.7773796,68.3132089
37,Торайгырова,160501,40.7772603,68.3127409
39,Торайгырова,160501,40.7774323,68.3124136
51А,Уалиханова,160501,40.7778224,68.3125813
51,Торайгырова,160501,40.7775824,68.3122924
55,Торайгырова,160501,40.7779407,68.3116838
57,Торайгырова,160501,40.7777397,68.3119716
53В,Уалиханова,160501,40.7779757,68.3123533
55,Уалиханова,160501,40.7781569,68.3121172
59,Уалиханова,160501,40.7783072,68.3118262
53,Торайгырова,160501,40.7781890,68.3114098
59/1,Уалиханова,160501,40.7784551,68.3114763
61,Торайгырова,160501,40.7782905,68.3112428
53,Уалиханова,160501,40.7788397,68.3106983
57,Уалиханова,160501,40.7785984,68.3104180
61,Уалиханова,160501,40.7782641,68.3100130
63,Уалиханова,160501,40.7779960,68.3097059
63,Махамбет,160500,40.7777619,68.3100721
61,Махамбет,160500,40.7775862,68.3102906
57,Махамбет,160500,40.7774242,68.3105441
53,Махамбет,160500,40.7770561,68.3110491
53,Махамбет,160500,40.7769409,68.3112342
51,Махамбет,160500,40.7767875,68.3114695
49,Махамбет,160500,40.7764783,68.3118819
47,Махамбет,160500,40.7762370,68.3122312
45,Махамбет,160500,40.7761020,68.3124351
41,Махамбет,160500,40.7757977,68.3127316
43,Махамбет,160500,40.7759877,68.3126188
39,Махамбет,160500,40.7756462,68.3129000
35,Махамбет,160500,40.7754422,68.3131765
33,Махамбет,160500,40.7751704,68.3134399
31,Махамбет,160500,40.7751043,68.3137850
27,Махамбет,160500,40.7749568,68.3140262
27,Махамбет,160500,40.7747817,68.3142729
25,Махамбет,160500,40.7746615,68.3144288
23,Махамбет,160500,40.7745046,68.3145916
3/1,Шакарим,160500,40.7733299,68.3217336
4,Алтынсарин,160500,40.7730445,68.3215392
6,Алтынсарин,160500,40.7731776,68.3213233
8,Алтынсарин,160500,40.7733319,68.3210952
5/1,Шакарим,160500,40.7735422,68.3214681
7/2,Шакарим,160500,40.7737067,68.3211797
14,Алтынсарин,160500,40.7735239,68.3208244
12А,Алтынсарин,160500,40.7737067,68.3205092
12,Алтынсарин,160500,40.7739057,68.3202476
10А,Алтынсарин,160500,40.7740835,68.3199741
10,Алтынсарин,160500,40.7742643,68.3197126
"8,4",Алтынсарин,160500,40.7744593,68.3194189
8/3,Алтынсарин,160500,40.7747051,68.3191775
21,Шакарим,160500,40.7751235,68.3192070
6/2,Алтынсарин,160500,40.7748513,68.3188315
23,Шакарим,160500,40.7752409,68.3190393
25,Шакарим,160500,40.7754008,68.3188878
4/1,Алтынсарин,160500,40.7749601,68.3186313
27,Шакарим,160500,40.7754921,68.3187054
29,Шакарим,160500,40.7756130,68.3185673
15/1,Алтынсарин,160500,40.7752311,68.3183487
13/1А,Алтынсарин,160500,40.7753378,68.3181985
31,Шакарим,160500,40.7756983,68.3183983
35,Шакарим,160500,40.7758192,68.3182387
13/2А,Алтынсарин,160500,40.7754393,68.3180416
13,Алтынсарин,160500,40.7755430,68.3178954
37,Шакарим,160500,40.7759197,68.3180926
15,Алтынсарин,160500,40.7756384,68.3177438
17,Алтынсарин,160500,40.7757471,68.3175748
39,Шакарим,160500,40.7760944,68.3178069
19,Алтынсарин,160500,40.7758771,68.3174380
41,Шакарим,160500,40.7762528,68.3175588
43,Шакарим,160500,40.7763889,68.3173549
19/1,Алтынсарин,160500,40.7760649,68.3171282
19/2,Алтынсарин,160500,40.7762376,68.3168171
45,Шакарим,160501,40.7766712,68.3169593
21/1,Алтынсарин,160501,40.7763604,68.3166146
21/2,Алтынсарин,160501,40.7765138,68.3164041
47,Шакарим,160501,40.7769251,68.3166119
23,Алтынсарин,160501,40.7766946,68.3161855
49,Шакарим,160500,40.7771008,68.3163706
51,Шакарим,160500,40.7773507,68.3160822
25,Алтынсарин,160501,40.7768205,68.3159306
29,Алтынсарин,160501,40.7770155,68.3156383
36,Алтынсарин,160501,40.7768043,68.3154424
34,Алтынсарин,160501,40.7766438,68.3157322
22/2,Уалиханова,160500,40.7761665,68.3156423
30,Алтынсарин,160501,40.7764148,68.3160640
26,Алтынсарин,160500,40.7761827,68.3163263
28,Алтынсарин,160500,40.7763228,68.3162042
22/1,Уалиханова,160500,40.7760243,68.3158623
20/2,Уалиханова,160500,40.7758984,68.3160567
24,Алтынсарин,160500,40.7760811,68.3164456
20/1,Уалиханова,160500,40.7757674,68.3162378
20,Алтынсарин,160500,40.7760212,68.3166052
18,Алтынсарин,160500,40.7759248,68.3167782
18/2,Уалиханова,160500,40.7756495,68.3164229
14,Алтынсарин,160500,40.7755845,68.3172771
16,Алтынсарин,160500,40.7757430,68.3170277
18/1,Уалиханова,160500,40.7755064,68.3166669
16/2,Уалиханова,160500,40.7753078,68.3169763
12,Алтынсарин,160500,40.7753918,68.3175416
16/1,Уалиханова,160500,40.7751000,68.3172661
10,Алтынсарин,160500,40.7751984,68.3178161
14/2,Уалиханова,160500,40.7749426,68.3175140
12/2,Уалиханова,160500,40.7745845,68.3180110
13/2,Алтынсарин,160500,40.7748724,68.3183424
13/1,Алтынсарин,160500,40.7749415,68.3180541
14/1,Уалиханова,160500,40.7747622,68.3177688
12/1,Уалиханова,160500,40.7744121,68.3182263
13/1,Алтынсарин,160500,40.7746870,68.3185306
14,Казыбек Би,160500,40.7675881,68.3219218
8д,Махамбет,160500,40.7681437,68.3228848
15,Казыбек Би,160500,40.7680126,68.3224094
4/1,Казыбек Би,160500,40.7683543,68.3221806
2/4,Толе Би,160500,40.7685440,68.3218563
2/2,Казыбек Би,160500,40.7680910,68.3219116
2/2,Толе Би,160500,40.7682918,68.3215344
2/1,Толе Би,160500,40.7680223,68.3212406
1/2,Казыбек Би,160500,40.7677823,68.3215382
1/1,Казыбек Би,160500,40.7675449,68.3212725
4,Толе Би,160500,40.7678214,68.3209934
1/1,Толе Би,160500,40.7679617,68.3205326
5,Толебаева,160500,40.7681779,68.3202372
1/5,Толе Би,160500,40.7687737,68.3216039
6А/1,Толебаева,160500,40.7690891,68.3212309
7/2,Толебаева,160500,40.7693226,68.3208245
5А/2,Толебаева,160500,40.7691089,68.3206005
3А/2,Толебаева,160500,40.7688988,68.3203810
1А/2,Толебаева,160500,40.7686834,68.3200598
1А/1,Толебаева,160500,40.7684511,68.3198512
2,Улица Ерубаева,160500,40.7681719,68.3195286
4/1,Суйеуов,160500,40.7695745,68.3205059
6/1,Суйеуов,160500,40.7693591,68.3202600
8/1,Суйеуов,160500,40.7691176,68.3199576
8/2,Суйеуов,160500,40.7689069,68.3197584
10,Суйеуов,160500,40.7687014,68.3194782
2,Улица Ерубаева,160500,40.7682978,68.3192955
1/1,Суйеуов,160500,40.7698937,68.3203488
3/1,Суйеуов,160500,40.7697632,68.3201285
5/1,Суйеуов,160500,40.7695456,68.3198677
7/1,Суйеуов,160500,40.7692635,68.3195385
9/1,Суйеуов,160500,40.7690075,68.3192440
22,ул Бухар-Жырау,160500,40.7638577,68.3200005
18,ул Бухар-Жырау,160500,40.7642119,68.3196710
16,ул Бухар-Жырау,160500,40.7644137,68.3194950
14,ул Бухар-Жырау,160500,40.7647152,68.3194007
12,Бухар-Жырау,160500,40.7648100,68.3190740
10,ул Бухар-Жырау,160500,40.7650003,68.3188229
8,ул Бухар-Жырау,160500,40.7651867,68.3186774
6,ул Бухар-Жырау,160500,40.7653589,68.3184269
4,ул Бухар-Жырау,160500,40.7655466,68.3181371
2,ул Бухар-Жырау,160500,40.7657878,68.3180105
2,ул Кошкарбаева,160500,40.7675105,68.3187453
4,ул Кошкарбаева,160500,40.7672248,68.3185293
46,ул Кайсенова,160500,40.7672292,68.3179080
6,ул Кайсенова,160500,40.7676813,68.3176523
6А,ул Дулатов,160500,40.7667942,68.3266962
24А,Л. Токбергенов,160501,40.7691097,68.3301019
2А,Л. Токбергенов,160501,40.7682349,68.3306703
1,ул Жалантош Бахадура,160500,40.7596754,68.3198981
3,ул Жалантош Бахадура,160500,40.7599085,68.3196375
5,ул Жалантош Бахадура,160500,40.7602019,68.3193698
8,ул Жалантош Бахадура,160500,40.7605152,68.3193967
6,ул Жалантош Бахадура,160500,40.7603627,68.3195696
2,ул Жалантош Бахадура,160500,40.7600597,68.3199066
1,ул Ахмета Жубанова,160500,40.7601944,68.3206365
3,ул Ахмета Жубанова,160500,40.7603958,68.3204293
5,ул Ахмета Жубанова,160500,40.7605182,68.3202725
7,ул Ахмета Жубанова,160500,40.7607398,68.3199958
5,ул Айкожа Ишан,160500,40.7612122,68.3209318
7,ул Айкожа Ишан,160500,40.7614268,68.3207429
9,ул Айкожа Ишан,160500,40.7615873,68.3205672
11,ул Айкожа Ишан,160500,40.7618015,68.3204164
15,ул Айкожа Ишан,160500,40.7620838,68.3200315
16,ул Ахмета Жубанова,160500,40.7617087,68.3194505
14,ул Ахмета Жубанова,160500,40.7615833,68.3196029
12,ул Ахмета Жубанова,160500,40.7613707,68.3199357
8,ул Ахмета Жубанова,160500,40.7610262,68.3202506
6,ул Ахмета Жубанова,160500,40.7608451,68.3205609
4,ул Ахмета Жубанова,160500,40.7607004,68.3206594
2,ул Ахмета Жубанова,160500,40.7605183,68.3209908
3,ул Айкожа Ишан,160500,40.7610360,68.3211616
2,ул Айкожа Ишан,160500,40.7608925,68.3218542
39,ул Бухар-Жырау,160500,40.7614397,68.3219962
6,ул Айкожа Ишан,160500,40.7613657,68.3213162
10,ул Айкожа Ишан,160500,40.7617510,68.3208441
37,ул Бухар-Жырау,160500,40.7617514,68.3217835
35,ул Бухар-Жырау,160500,40.7619854,68.3216473
33,ул Бухар-Жырау,160500,40.7621199,68.3214353
31,ул Бухар-Жырау,160500,40.7622390,68.3210603
12,ул Айкожа Ишан,160500,40.7619840,68.3206420
14,ул Айкожа Ишан,160500,40.7621578,68.3203930
29,ул Бухар-Жырау,160500,40.7624232,68.3208881
27,ул Бухар-Жырау,160500,40.7626189,68.3208094
16,ул Айкожа Ишан,160500,40.7623491,68.3202194
18,ул Айкожа Ишан,160500,40.7626244,68.3198813
23,ул Бухар-Жырау,160500,40.7634095,68.3200132
13,ул Бухар-Жырау,160500,40.7643114,68.3188825
11,ул Бухар-Жырау,160500,40.7647293,68.3186083
15,ул Бухар-Жырау,160500,40.7641745,68.3191151
17,ул Бухар-Жырау,160500,40.7639817,68.3193525
21,ул Бухар-Жырау,160500,40.7636169,68.3197578
20,ул Айкожа Ишан,160500,40.7632797,68.3190822
22,ул Айкожа Ишан,160500,40.7634965,68.3188703
24,ул Айкожа Ишан,160500,40.7636418,68.3187515
30,ул Айкожа Ишан,160500,40.7642977,68.3180636
32,ул Айкожа Ишан,160500,40.7644383,68.3178817
11/А,ул Бухар-Жырау,160500,40.7649186,68.3183767
36,ул Айкожа Ишан,160500,40.7648690,68.3174252
34,ул Айкожа Ишан,160500,40.7646967,68.3176191
7,ул Бухар-Жырау,160500,40.7650661,68.3181413
5,ул Бухар-Жырау,160500,40.7652567,68.3179210
3,ул Бухар-Жырау,160500,40.7654646,68.3177022
1,ул Бухар-Жырау,160500,40.7656025,68.3173539
40,ул Айкожа Ишан,160500,40.7653115,68.3170258
38,ул Айкожа Ишан,160500,40.7650303,68.3172814
39,ул Айкожа Ишан,160500,40.7649366,68.3167930
36,ул Ахмета Жубанова,160500,40.7644080,68.3165234
37,ул Айкожа Ишан,160500,40.7648021,68.3169514
35,ул Айкожа Ишан,160500,40.7646039,68.3171523
33,ул Айкожа Ишан,160500,40.7643707,68.3173450
34,ул Ахмета Жубанова,160500,40.7642507,68.3166430
32,ул Ахмета Жубанова,160500,40.7640515,68.3168523
30,ул Ахмета Жубанова,160500,40.7637837,68.3172142
26,ул Ахмета Жубанова,160500,40.7635042,68.3174748
28,ул Ахмета Жубанова,160500,40.7637447,68.3174780
29,ул Айкожа Ишан,160500,40.7639908,68.3177548
25,ул Айкожа Ишан,160500,40.7635904,68.3182515
20,ул Ахмета Жубанова,160500,40.7629721,68.3181631
22,ул Ахмета Жубанова,160500,40.7631495,68.3178732
23,ул Айкожа Ишан,160500,40.7633793,68.3185535
19,ул Айкожа Ишан,160500,40.7629522,68.3190618
21,ул Айкожа Ишан,160500,40.7631590,68.3188363
18,ул Ахмета Жубанова,160500,40.7627046,68.3184626
25,ул Ахмета Жубанова,160500,40.7623543,68.3182408
29,ул Ахмета Жубанова,160500,40.7627186,68.3177371
23,ул Ахмета Жубанова,160500,40.7622356,68.3183521
42,ул Емешова,160500,40.7655321,68.3231348
44,ул Емешова,160500,40.7657140,68.3229161
46,ул Емешова,160500,40.7658940,68.3227076
60,ул Емешова,160500,40.7663144,68.3214751
57,ул Емешова,160500,40.7659870,68.3220429
55,ул Емешова,160500,40.7658089,68.3222440
51,ул Емешова,160500,40.7655161,68.3225853
49,ул Емешова,160500,40.7653670,68.3227052
1,ул Султан Бейбарс,160500,40.7593251,68.3228641
3,ул Султан Бейбарс,160500,40.7591613,68.3232182
5,ул Султан Бейбарс,160500,40.7590304,68.3234269
7,ул Султан Бейбарс,160500,40.7588984,68.3236050
3,ул Есимхан,160500,40.7582648,68.3240514
6,ул Султан Бейбарс,160500,40.7582463,68.3245865
10,ул Есимхан,160500,40.7579142,68.3240425
8,ул Есимхан,160500,40.7582318,68.3236965
6,ул Есимхан,160500,40.7583924,68.3234826
2,ул Есимхан,160500,40.7587840,68.3230706
4,ул Есимхан,160500,40.7586620,68.3231589
9,ул Райымбек,160500,40.7582743,68.3230011
18,ул Райымбек,160500,40.7572554,68.3236057
14,ул Райымбек,160500,40.7574124,68.3233273
10,ул Райымбек,160500,40.7579501,68.3226825
8,ул Райымбек,160500,40.7580849,68.3225314
7,ул Райымбек,160500,40.7584470,68.3228078
5,ул Райымбек,160500,40.7587133,68.3225710
6,ул Райымбек,160500,40.7584433,68.3223047
3,ул Райымбек,160500,40.7588275,68.3223065
1,ул Райымбек,160500,40.7589294,68.3221804
4,ул Райымбек,160500,40.7585850,68.3220811
2,ул Райымбек,160500,40.7587668,68.3218377
29,ул Райымбек,160500,40.7558267,68.3256877
25,ул Райымбек,160500,40.7563276,68.3252701
22,ул Есимхан,160500,40.7563964,68.3256096
24,ул Есимхан,160500,40.7562652,68.3257323
20,ул Султан Бейбарс,160500,40.7567348,68.3265464
18,ул Султан Бейбарс,160500,40.7568504,68.3263254
17,ул Султан Бейбарс,160500,40.7570786,68.3266074
16,ул Султан Бейбарс,160500,40.7571882,68.3260272
17,ул Есимхан,160500,40.7567754,68.3258910
15,ул Есимхан,160500,40.7568675,68.3257723
21,ул Райымбек,160500,40.7568000,68.3246930
18,ул Есимхан,160500,40.7570331,68.3251031
14,ул Султан Бейбарс,160500,40.7573412,68.3258144
13,ул Есимхан,160500,40.7571884,68.3254059
16,ул Есимхан,160500,40.7572267,68.3248226
11,ул Есимхан,160500,40.7574468,68.3252682
12,ул Султан Бейбарс,160500,40.7576574,68.3254752
10,ул Султан Бейбарс,160500,40.7578881,68.3251800
8,ул Султан Бейбарс,160500,40.7580557,68.3248898
7,ул Есимхан,160500,40.7579031,68.3246877
9,ул Есимхан,160500,40.7576560,68.3248474
12,ул Есимхан,160500,40.7575530,68.3243017
15,ул Райымбек,160500,40.7574028,68.3239398
19,ул Райымбек,160500,40.7569440,68.3244739
17,ул Райымбек,160500,40.7571065,68.3242317
20,ул Райымбек,160500,40.7570752,68.3238723
22,ул Райымбек,160500,40.7568384,68.3241535
24,ул Райымбек,160500,40.7566319,68.3243663
30,ул Райымбек,160500,40.7560294,68.3251136
32,ул Райымбек,160500,40.7558812,68.3252449
28,ул Райымбек,160500,40.7561441,68.3248604
26,ул Райымбек,160500,40.7563589,68.3246687
20,ул Богенбай Батыр,160523,40.7543301,68.3092346
16,ул Богенбай Батыр,160523,40.7545199,68.3086593
14,ул Богенбай Батыр,160523,40.7546360,68.3083949
12,ул Богенбай Батыр,160523,40.7547251,68.3081135
10,ул Богенбай Батыр,160523,40.7548249,68.3078206
9,ул Кабанбай Батыр,160523,40.7546586,68.3069223
7,ул Кабанбай Батыр,160523,40.7547250,68.3066732
5,ул Кабанбай Батыр,160523,40.7548441,68.3063768
4,ул Богенбай Батыр,160523,40.7552689,68.3067013
2,ул Кабанбай Батыр,160523,40.7547468,68.3054699
3,ул Жаяу Муса,160500,40.7534517,68.3066002
14,ул Жандосов,160501,40.7522407,68.3064245
7,ул Жандосов,160501,40.7521111,68.3067536
5,ул Жандосов,160501,40.7523725,68.3068726
12,ул Жандосов,160501,40.7524631,68.3065599
10,ул Жандосов,160501,40.7527552,68.3066921
3,ул Жандосов,160501,40.7525858,68.3069954
1,ул Жандосов,160501,40.7527769,68.3071022
8,ул Жандосов,160501,40.7529693,68.3068219
6,ул Жандосов,160501,40.7532119,68.3069661
14,ул Коркыт ата,160501,40.7529987,68.3093165
10,ул Коркыт ата,160501,40.7530522,68.3086267
8,ул Коркыт ата,160501,40.7530741,68.3082735
6,ул Коркыт ата,160501,40.7530893,68.3079199
4,ул Коркыт ата,160501,40.7531156,68.3075337
3,ул Коркыт ата,160501,40.7527386,68.3074632
9,ул Коркыт ата,160501,40.7527975,68.3083033
7,ул Коркыт ата,160501,40.7526627,68.3079984
11,ул Коркыт ата,160501,40.7526962,68.3086262
21,ул Коркыт ата,160501,40.7526015,68.3103657
20,ул Коркыт ата,160501,40.7529271,68.3104063
19,ул Коркыт ата,160501,40.7526640,68.3101246
13,ул Коркыт ата,160501,40.7526188,68.3090526
25,ул Ер-Косай,160500,40.7603319,68.3344496
2,ул Мустафа Шокай,160500,40.7568768,68.3288257
4,ул Мустафа Шокай,160500,40.7573144,68.3283313
8,ул Мустафа Шокай,160500,40.7575186,68.3279946
12,ул Мустафа Шокай,160500,40.7577453,68.3277136
14,ул Мустафа Шокай,160500,40.7579538,68.3274407
16,ул Мустафа Шокай,160500,40.7582214,68.3270992
18,ул Мустафа Шокай,160500,40.7584069,68.3268782
20,ул Мустафа Шокай,160500,40.7585829,68.3266868
22,ул Мустафа Шокай,160500,40.7587869,68.3264303
19,ул Мустафа Шокай,160500,40.7586558,68.3260494
13,ул Мустафа Шокай,160500,40.7579757,68.3268428
17,ул Мустафа Шокай,160500,40.7583819,68.3264107
15,ул Султан Бейбарс,160500,40.7576969,68.3259356
11,ул Мустафа Шокай,160500,40.7577625,68.3271029
9,ул Мустафа Шокай,160500,40.7575890,68.3273219
1,ул Мустафа Шокай,160500,40.7566868,68.3281762
19,ул Султан Бейбарс,160500,40.7567959,68.3271059
21,ул Султан Бейбарс,160500,40.7565285,68.3272452
23,ул Султан Бейбарс,160500,40.7561886,68.3276664
26,ул Султан Бейбарс,160500,40.7560073,68.3271232
24,ул Султан Бейбарс,160500,40.7562927,68.3269326
25,ул Есимхан,160500,40.7558890,68.3268269
21,ул Мустафа Шокай,160500,40.7590825,68.3255536
23,ул Мустафа Шокай,160500,40.7593093,68.3252814
25,ул Мустафа Шокай,160500,40.7594689,68.3250633
29,ул Мустафа Шокай,160500,40.7598782,68.3245239
31,ул Мустафа Шокай,160500,40.7600736,68.3242395
33,ул Мустафа Шокай,160500,40.7602725,68.3241186
32,ул Мустафа Шокай,160500,40.7602620,68.3245669
34,ул Мустафа Шокай,160500,40.7605030,68.3242729
30,ул Мустафа Шокай,160500,40.7600839,68.3248220
28,ул Мустафа Шокай,160500,40.7598038,68.3251352
26,ул Мустафа Шокай,160500,40.7596705,68.3253137
24,ул Мустафа Шокай,160500,40.7594261,68.3256132
21,ул Тажибаева,160500,40.7613600,68.3289046
16,ул Емешова,160500,40.7615503,68.3280573
14,ул Емешова,160500,40.7613687,68.3283036
13,ул Емешова,160500,40.7612394,68.3278387
23,ул Тажибаева,160500,40.7616580,68.3284513
25,ул Тажибаева,160500,40.7618566,68.3281280
18,ул Емешова,160500,40.7617733,68.3277906
15,ул Емешова,160500,40.7614698,68.3275465
17,ул Емешова,160500,40.7616921,68.3273065
19,ул Емешова,160500,40.7618925,68.3270520
21,ул Емешова,160500,40.7620764,68.3268152
23,ул Емешова,160500,40.7622131,68.3265975
20,ул Емешова,160500,40.7619255,68.3275785
22,ул Емешова,160500,40.7621178,68.3273343
27,ул Алжанова,160500,40.7627730,68.3284972
26,ул Тажибаева,160500,40.7627121,68.3279322
29,ул Алжанова,160500,40.7629122,68.3283175
28,ул Тажибаева,160500,40.7628426,68.3277237
75,ул Амангелди,160500,40.7635657,68.3270300
77,ул Амангелди,160500,40.7634386,68.3268734
38,ул Бухар-Жырау,160500,40.7617498,68.3224361
36,ул Бухар-Жырау,160500,40.7619727,68.3221554
34,ул Бухар-Жырау,160500,40.7621712,68.3219059
32,ул Бухар-Жырау,160500,40.7623344,68.3217384
30,ул Бухар-Жырау,160500,40.7625446,68.3215211
28,ул Бухар-Жырау,160500,40.7627104,68.3213517
26,ул Бухар-Жырау,160500,40.7629493,68.3210706
3,ул Тажибаева,160500,40.7598780,68.3307905
1,ул Тажибаева,160500,40.7597313,68.3309876
1,ул Емешова,160500,40.7593301,68.3300593
5,ул Тажибаева,160500,40.7599829,68.3306392
4,ул Емешова,160500,40.7597496,68.3303275
7,ул Емешова,160500,40.7602442,68.3290647
5,ул Емешова,160500,40.7599917,68.3293879
3,ул Емешова,160500,40.7597296,68.3296988
19,ул Тажибаева,160500,40.7610144,68.3292940
12,ул Емешова,160500,40.7607309,68.3290359
11,ул Емешова,160500,40.7609783,68.3282248
22,ул Тажибаева,160500,40.7622774,68.3283914
23,ул Алжанова,160500,40.7623126,68.3291222
25,ул Алжанова,160500,40.7624546,68.3288897
20,ул Тажибаева,160500,40.7620467,68.3286930
16,ул Тажибаева,160500,40.7615959,68.3292020
18,ул Тажибаева,160500,40.7617883,68.3290657
19,ул Алжанова,160500,40.7618602,68.3296122
21,ул Алжанова,160500,40.7620356,68.3294145
20,ул Алжанова,160500,40.7622931,68.3297671
22,ул Алжанова,160500,40.7625187,68.3294619
17,Муса Жалел,160501,40.7627319,68.3298691
32,ул Алжанова,160500,40.7633233,68.3284819
30,ул Алжанова,160500,40.7631728,68.3286863
28,ул Алжанова,160500,40.7629089,68.3288675
24,ул Алжанова,160500,40.7626534,68.3292486
26,ул Алжанова,160500,40.7628074,68.3290983
19,Муса Жалел,160501,40.7628825,68.3295844
24,Муса Жалел,160501,40.7630749,68.3298657
26,Муса Жалел,160501,40.7631844,68.3296548
28,Муса Жалел,160501,40.7633208,68.3294169
30,Муса Жалел,160501,40.7634281,68.3291840
32,Муса Жалел,160501,40.7635197,68.3290138
34,Муса Жалел,160501,40.7636187,68.3287959
36,Муса Жалел,160501,40.7637611,68.3285459
38,Муса Жалел,160501,40.7638689,68.3283732
34,ул Алжанова,160500,40.7645250,68.3272273
41,ул Алжанова,160500,40.7653271,68.3256435
39,ул Алжанова,160500,40.7649958,68.3260376
35,ул Алжанова,160500,40.7646774,68.3265576
33,ул Алжанова,160500,40.7644314,68.3268053
31,ул Алжанова,160500,40.7642562,68.3270298
30,ул Тажибаева,160500,40.7637404,68.3266364
32,ул Тажибаева,160500,40.7639675,68.3264991
34,ул Тажибаева,160500,40.7640970,68.3262877
36,ул Тажибаева,160500,40.7643832,68.3260793
38,ул Тажибаева,160500,40.7645852,68.3258615
40,ул Тажибаева,160500,40.7648099,68.3256564
42,ул Тажибаева,160500,40.7649760,68.3254960
44,ул Тажибаева,160500,40.7651242,68.3253668
46,ул Тажибаева,160500,40.7653903,68.3250156
53,ул Тажибаева,160500,40.7653405,68.3241242
51,ул Тажибаева,160500,40.7652365,68.3243682
49,ул Тажибаева,160500,40.7651228,68.3246050
47,ул Тажибаева,160500,40.7649729,68.3248195
45,ул Тажибаева,160500,40.7647617,68.3250407
43,ул Тажибаева,160500,40.7645478,68.3252784
41,ул Тажибаева,160500,40.7643787,68.3255176
39,ул Тажибаева,160500,40.7641493,68.3257066
37,ул Тажибаева,160500,40.7639278,68.3259222
35,ул Тажибаева,160500,40.7637077,68.3261370
33,ул Тажибаева,160500,40.7635729,68.3263522
28,ул Емешова,160500,40.7636625,68.3253124
30,ул Емешова,160500,40.7638097,68.3250585
34,ул Емешова,160500,40.7643096,68.3248396
36,ул Емешова,160500,40.7643101,68.3245345
38,ул Емешова,160500,40.7645041,68.3242954
40,ул Емешова,160500,40.7647657,68.3240852
47,ул Емешова,160500,40.7648425,68.3233264
45,ул Емешова,160500,40.7646639,68.3234917
41,ул Емешова,160500,40.7643028,68.3238814
39,ул Емешова,160500,40.7641985,68.3241136
37,ул Емешова,160500,40.7640622,68.3242691
35,ул Емешова,160500,40.7638155,68.3243438
33,ул Емешова,160500,40.7637108,68.3246496
31,ул Емешова,160500,40.7635665,68.3247432
27,ул Емешова,160500,40.7633010,68.3250753
55,ул Амангелди,160501,40.7658072,68.3300135
36,ул Бауыржан Момышулы,160500,40.7663048,68.3370329
27,ул Байтурсынова (Садовая),160500,40.7654560,68.3361580
9,ул Жургенбаев,160500,40.7651011,68.3334369
22,Муса Жалел,160500,40.7627722,68.3306768
8/8,ул Ерубаева,160500,40.7634009,68.3322975
67,Байтурсынова (Садовая),160500,40.7619588,68.3345865
35,ул Байтурсынова (Садовая),160500,40.7626936,68.3351074
46,ул Байтурсынова (Садовая),160500,40.7625509,68.3342951
13/2,ул Ерубаева,160500,40.7625676,68.3331563
2,улица Естай,160500,40.7612809,68.3333674
6,улица Естай,160500,40.7616342,68.3330093
8,улица Естай,160500,40.7619164,68.3325021
10,улица Естай,160500,40.7620297,68.3322900
12,улица Естай,160500,40.7621573,68.3320734
14,улица Естай,160500,40.7623431,68.3319673
16,улица Естай,160500,40.7624321,68.3316707
20,Муса Жалел,160500,40.7623380,68.3307533
18,Муса Жалел,160500,40.7622143,68.3309340
16,Муса Жалел,160500,40.7620694,68.3310897
14,Муса Жалел,160500,40.7619077,68.3312806
10,Муса Жалел,160500,40.7616468,68.3316191
12,Муса Жалел,160500,40.7617945,68.3314249
7,улица Естай,160500,40.7616352,68.3323079
9,улица Естай,160500,40.7617803,68.3320348
1,улица Естай,160500,40.7610591,68.3330740
3,улица Естай,160500,40.7611963,68.3329160
5,улица Естай,160500,40.7614516,68.3325513
6,Муса Жалел,160500,40.7612494,68.3321260
2,Муса Жалел,160500,40.7608460,68.3326617
4,Муса Жалел,160500,40.7609844,68.3324268
2,ул Алжанова,160500,40.7602346,68.3320949
1,Муса Жалел,160500,40.7605083,68.3323105
3,Муса Жалел,160500,40.7608281,68.3320393
4,ул Алжанова,160500,40.7605377,68.3318019
6,ул Алжанова,160500,40.7606284,68.3316296
8,ул Алжанова,160500,40.7607727,68.3314823
10,ул Алжанова,160500,40.7609510,68.3313240
7,Муса Жалел,160500,40.7612524,68.3315541
9,Муса Жалел,160500,40.7614043,68.3313155
12,ул Алжанова,160500,40.7611688,68.3309376
14,ул Алжанова,160500,40.7613466,68.3306817
11,Муса Жалел,160500,40.7616400,68.3310730
16,ул Алжанова,160500,40.7615924,68.3305203
13,Муса Жалел,160500,40.7619280,68.3308069
18,ул Алжанова,160500,40.7617762,68.3303856
15,Муса Жалел,160500,40.7621209,68.3305926
11,ул Тажибаева,160500,40.7603454,68.3301658
9,ул Тажибаева,160500,40.7602411,68.3303704
8,ул Емешова,160500,40.7602824,68.3296764
10,ул Емешова,160500,40.7605818,68.3293906
13,ул Тажибаева,160500,40.7604981,68.3298459
17,ул Тажибаева,160500,40.7608864,68.3294698
14,ул Тажибаева,160500,40.7614619,68.3296140
17,ул Алжанова,160500,40.7616406,68.3298744
15,ул Алжанова,160500,40.7614294,68.3302149
13,ул Алжанова,160500,40.7613083,68.3303280
11,ул Алжанова,160500,40.7611311,68.3305374
12,ул Тажибаева,160500,40.7611293,68.3297746
10,ул Тажибаева,160500,40.7608767,68.3301990
6,ул Тажибаева,160500,40.7604149,68.3308209
8,ул Тажибаева,160500,40.7607210,68.3304706
9,ул Алжанова,160500,40.7609298,68.3307562
7,ул Алжанова,160500,40.7606531,68.3310823
4,ул Тажибаева,160500,40.7602892,68.3308977
5,ул Алжанова,160500,40.7605367,68.3312891
3,ул Алжанова,160500,40.7602522,68.3316207
1,ул Алжанова,160500,40.7601045,68.3318140
2,ул Тажибаева,160500,40.7599621,68.3313243
б/н,Шакарим,160500,40.7748508,68.3201163
43,ул Оспанова № 1 ( базар ),160500,40.7778269,68.3169043
45,ул Оспанова № 1 ( базар ),160500,40.7780016,68.3169083
47,ул Оспанова № 1 ( базар ),160500,40.7780777,68.3167219
41,ул Оспанова № 1 ( базар ),160500,40.7778249,68.3171363
39,ул Оспанова № 1 ( базар ),160500,40.7776289,68.3171913
31,ул Оспанова № 1 ( базар ),160500,40.7774024,68.3178860
33,ул Оспанова № 1 ( базар ),160500,40.7773537,68.3175856
27,ул Оспанова № 1 ( базар ),160500,40.7772247,68.3181153
29,ул Оспанова № 1 ( базар ),160500,40.7771272,68.3177841
25,ул Оспанова № 1 ( базар ),160500,40.7771191,68.3182400
23,ул Оспанова № 1 ( базар ),160500,40.7770317,68.3183902
21,ул Оспанова № 1 ( базар ),160500,40.7769251,68.3185271
17,ул Оспанова № 1 ( базар ),160500,40.7766712,68.3188610
19,ул Оспанова № 1 ( базар ),160500,40.7768002,68.3186572
15,ул Оспанова № 1 ( базар ),160500,40.7765524,68.3190139
11,ул Оспанова № 1 ( базар ),160500,40.7763818,68.3193371
5,ул Оспанова № 1 ( базар ),160500,40.7760629,68.3196616
3,ул Оспанова № 1 ( базар ),160500,40.7760040,68.3198279
1,ул Оспанова № 1 ( базар ),160500,40.7758882,68.3199688
4,Шакарим,160500,40.7754192,68.3194452
6,Шакарим,160500,40.7755764,68.3193237
8,Шакарим,160500,40.7757419,68.3190997
10,Шакарим,160500,40.7759329,68.3188516
12,Шакарим,160500,40.7761299,68.3185525
14,Шакарим,160500,40.7763289,68.3182656
16,Шакарим,160500,40.7765300,68.3179919
18,Шакарим,160500,40.7767515,68.3176835
20,Шакарим,160500,40.7769759,68.3173268
22,Шакарим,160500,40.7772207,68.3169606
24,Шакарим,160500,40.7775172,68.3165744
26,Шакарим,160500,40.7776665,68.3163693
28,Шакарим,160500,40.7779559,68.3159857
30,Шакарим,160500,40.7781387,68.3156289
57,Шакарим,160500,40.7781499,68.3149785
55,Алтынсарин,160501,40.7783530,68.3148015
55,Шакарим,160500,40.7777985,68.3153325
53,Шакарим,160500,40.7776736,68.3155994
31,Алтынсарин,160501,40.7772480,68.3153205
33,Алтынсарин,160501,40.7773770,68.3151515
37,Алтынсарин,160501,40.7776116,68.3148028
39,Алтынсарин,160501,40.7778483,68.3144608
39А,Алтынсарин,160501,40.7779600,68.3142677
41,Алтынсарин,160501,40.7781803,68.3139150
62,Алтынсарин,160501,40.7786576,68.3127884
60,Алтынсарин,160501,40.7784738,68.3130956
36,Уалиханова,160501,40.7779292,68.3131884
58,Алтынсарин,160501,40.7782504,68.3133907
56,Алтынсарин,160501,40.7780991,68.3136052
54,Алтынсарин,160501,40.7779011,68.3137152
34,Уалиханова,160501,40.7777437,68.3133960
32/2,Уалиханова,160501,40.7775930,68.3135633
52,Алтынсарин,160501,40.7778930,68.3139311
50,Алтынсарин,160501,40.7777670,68.3140866
26,Уалиханова,160501,40.7773892,68.3139284
32,Уалиханова,160501,40.7774921,68.3137697
46,Алтынсарин,160501,40.7775589,68.3143924
44,Алтынсарин,160501,40.7774207,68.3145895
26,Уалиханова,160501,40.7772420,68.3140920
24А,Уалиханова,160501,40.7770127,68.3143716
42,Алтынсарин,160501,40.7773069,68.3147384
40,Алтынсарин,160501,40.7772084,68.3148994
36,Алтынсарин,160501,40.7770018,68.3150285
24/1,Уалиханова,160501,40.7767860,68.3147840
160,Кожанова,160500,40.7769561,68.3215567
6,ул Оспанова № 1 ( базар ),160500,40.7761730,68.3203468
8,ул Оспанова № 1 ( базар ),160500,40.7763348,68.3202256
8/3,ул Оспанова № 1 ( базар ),160500,40.7764937,68.3199894
10,ул Оспанова № 1 ( базар ),160500,40.7765948,68.3196895
14,ул Оспанова № 1 ( базар ),160500,40.7768018,68.3194867
16 16/1 16/2 16/3,ул Оспанова № 1 ( базар ),160500,40.7771250,68.3188781
62,Уалиханова,160501,40.7785554,68.3098883
60,Уалиханова,160501,40.7787881,68.3101806
1,ул Шалкыма (Пивзавод арты),160500,40.7790999,68.3123098
3,ул Шалкыма (Пивзавод арты),160500,40.7792162,68.3120347
5,ул Шалкыма (Пивзавод арты),160500,40.7792967,68.3117226
11,ул Шалкыма (Пивзавод арты),160500,40.7795692,68.3106234
56/4,Уалиханова,160501,40.7790323,68.3104676
56/2,Уалиханова,160501,40.7791688,68.3108544
56/1,Уалиханова,160501,40.7790720,68.3111516
56,Уалиханова,160501,40.7789364,68.3114786
54/2,Уалиханова,160501,40.7787825,68.3118127
54/1,Уалиханова,160501,40.7786565,68.3121928
51,Алтынсарин,160501,40.7783345,68.3140682
47,Алтынсарин,160501,40.7786257,68.3133870
150,ул Кожанова,160500,40.7764803,68.3226638
154,ул Кожанова,160500,40.7768146,68.3222150
152,Улица Амире Кашаубаева,160501,40.7788661,68.3188354
154,Улица Амире Кашаубаева,160501,40.7789541,68.3186238
156,Улица Амире Кашаубаева,160501,40.7790455,68.3184177
158,Улица Амире Кашаубаева,160501,40.7791536,68.3181862
11А,Улица Малдыбекова,160500,40.7796724,68.3186897
11,Улица Малдыбекова,160500,40.7794500,68.3189299
9А,Улица Малдыбекова,160500,40.7793771,68.3191137
9,Улица Малдыбекова,160500,40.7792766,68.3192630
7,Улица Малдыбекова,160500,40.7790537,68.3194817
150,Улица Амире Кашаубаева,160501,40.7787745,68.3190503
148,Улица Амире Кашаубаева,160501,40.7786541,68.3193356
5А,Улица Малдыбекова,160500,40.7789652,68.3197552
5,Улица Малдыбекова,160500,40.7788817,68.3199184
146,Улица Амире Кашаубаева,160501,40.7785801,68.3195228
3,Улица Малдыбекова,160500,40.7787452,68.3200341
1,Улица Малдыбекова,160500,40.7785812,68.3203412
142,Улица Амире Кашаубаева,160501,40.7783970,68.3199441
144,Улица Амире Кашаубаева,160501,40.7784926,68.3197139
140,Улица Амире Кашаубаева,160501,40.7783146,68.3201854
138,Улица Амире Кашаубаева,160501,40.7782234,68.3204081
136,Улица Амире Кашаубаева,160501,40.7781823,68.3206105
134,Улица Амире Кашаубаева,160501,40.7780931,68.3208227
132,Улица Амире Кашаубаева,160501,40.7780020,68.3209984
89,Улица Амире Кашаубаева,160500,40.7777750,68.3207947
91,Улица Амире Кашаубаева,160500,40.7778994,68.3204947
93,Улица Амире Кашаубаева,160501,40.7780050,68.3202218
95,Улица Амире Кашаубаева,160501,40.7781084,68.3199564
99,Улица Амире Кашаубаева,160501,40.7783100,68.3194572
111,Улица Амире Кашаубаева,160501,40.7784158,68.3191932
115,Улица Амире Кашаубаева,160501,40.7786236,68.3186718
117,Улица Амире Кашаубаева,160501,40.7787229,68.3184161
119,Улица Амире Кашаубаева,160501,40.7788284,68.3181493
121,Улица Амире Кашаубаева,160501,40.7789238,68.3179478
24 А,улица Байботаева,160500,40.7808016,68.3262401
22Г,Мухтар Ауезова,160500,40.7768709,68.3282574
69А,Улица Абая,160500,40.7783022,68.3284754
6,Бектенов,160500,40.7775250,68.3257277
3,Айманов,160500,40.7784079,68.3271028
7,Бектенов,160500,40.7781123,68.3257261
8,Бектенов,160500,40.7779336,68.3255517
10,Бектенов,160500,40.7777315,68.3254069
12,Бектенов,160500,40.7775639,68.3252742
14,Бектенов,160500,40.7773773,68.3251747
16,Бектенов,160500,40.7771963,68.3250850
18,Бектенов,160500,40.7769830,68.3249416
20,Бектенов,160500,40.7768591,68.3248397
22,Амире Кашаубаева,160500,40.7766588,68.3247314
106,Амире Кашаубаева,160500,40.7767511,68.3245050
57,Амире Кашаубаева,160500,40.7760203,68.3255173
59,Амире Кашаубаева,160500,40.7761453,68.3251788
61,Амире Кашаубаева,160500,40.7762657,68.3248065
63,Амире Кашаубаева,160500,40.7763444,68.3246171
65,Амире Кашаубаева,160500,40.7764035,68.3244558
67,Амире Кашаубаева,160500,40.7764978,68.3242078
69,Амире Кашаубаева,160500,40.7765584,68.3240350
13/1  13/2 13/3 13/4,ул Алфараби (Известия),160500,40.7807980,68.3241170
4,ул Жантурин,160500,40.7779417,68.3240068
6,ул Жантурин,160500,40.7780676,68.3236930
8,ул Жантурин,160500,40.7781813,68.3234462
10,ул Жантурин,160500,40.7782666,68.3231551
12,ул Жантурин,160500,40.7783469,68.3229621
14,ул Жантурин,160500,40.7784291,68.3228012
16,ул Жантурин,160500,40.7785124,68.3226054
18,ул Жантурин,160500,40.7785632,68.3224162
21,ул Алфараби (Известия),160500,40.7787856,68.3225825
19,ул Алфараби (Известия),160500,40.7789674,68.3227502
7,Улица Танатова (Пахтаральская),160500,40.7786089,68.3237131
5,Улица Танатова (Пахтаральская),160500,40.7785124,68.3239706
1,Улица Танатова (Пахтаральская),160500,40.7782784,68.3246053
2,ул Жантурин,160500,40.7778432,68.3242388
1,ул Жантурин,160500,40.7776096,68.3241824
3,ул Жантурин,160500,40.7776777,68.3239988
5,ул Жантурин,160500,40.7777549,68.3238352
7,ул Жантурин,160500,40.7778371,68.3236635
9,ул Жантурин,160500,40.7778899,68.3234623
11,ул Жантурин,160500,40.7779813,68.3232612
13,ул Жантурин,160500,40.7780747,68.3229420
15,ул Жантурин,160500,40.7781621,68.3227475
17,ул Жантурин,160500,40.7782727,68.3224565
19,ул Жантурин,160500,40.7783855,68.3221909
128,Амире Кашаубаева,160500,40.7779737,68.3219026
126,Амире Кашаубаева,160500,40.7778585,68.3221573
124,Амире Кашаубаева,160500,40.7777680,68.3223538
120,Амире Кашаубаева,160500,40.7776639,68.3226261
118,Амире Кашаубаева,160500,40.7775618,68.3228400
116,Амире Кашаубаева,160500,40.7774240,68.3230950
114,Амире Кашаубаева,160500,40.7773134,68.3233473
110,Амире Кашаубаева,160500,40.7771534,68.3239062
85,Амире Кашаубаева,160500,40.7775726,68.3216949
83,Амире Кашаубаева,160500,40.7774601,68.3220070
81,Амире Кашаубаева,160500,40.7773820,68.3222544
79,Амире Кашаубаева,160500,40.7772543,68.3224983
77,Амире Кашаубаева,160500,40.7771668,68.3227171
75,Амире Кашаубаева,160500,40.7770638,68.3229666
73,Амире Кашаубаева,160500,40.7769013,68.3234071
71,Амире Кашаубаева,160500,40.7768267,68.3235977
13,ул Танатова (Пахтаральская),160500,40.7792154,68.3223187
15,ул Танатова (Пахтаральская),160500,40.7793961,68.3219473
5,Бостандык,160500,40.7789073,68.3214670
7А,Бостандык,160500,40.7787767,68.3213518
7,Бостандык,160500,40.7786930,68.3212300
9,Бостандык,160500,40.7785609,68.3211290
31,Тупик Малдыбекова,160500,40.7799054,68.3196523
19,Улица Танатова (Пахтаральская),160500,40.7800865,68.3200853
21,Улица Танатова (Пахтаральская),160500,40.7801075,68.3198672
17,Улица Танатова (Пахтаральская),160500,40.7799645,68.3202718
29А,Тупик Малдыбекова,160500,40.7796319,68.3201014
29/1,Тупик Малдыбекова,160500,40.7797222,68.3199371
15,Улица Танатова (Пахтаральская),160500,40.7798537,68.3203811
6,ул ТАНАТОВ,160500,40.7797038,68.3205311
29//3,Тупик Малдыбекова,160500,40.7794395,68.3202446
4,Сарбаз (Мехтупик),160500,40.7793886,68.3206866
6,Сарбаз (Мехтупик),160500,40.7792786,68.3205214
2,Сарбаз (Мехтупик),160500,40.7794995,68.3208216
1,Сарбаз (Мехтупик),160500,40.7793101,68.3211149
3,Сарбаз (Мехтупик),160500,40.7791825,68.3209277
5,Сарбаз (Мехтупик),160500,40.7790812,68.3207987
2,Бостандык,160500,40.7789274,68.3211260
2,Улица Малдыбекова,160500,40.7787067,68.3206848
4,Улица Малдыбекова,160500,40.7788282,68.3205368
8,Улица Малдыбекова,160500,40.7789957,68.3202734
6,Улица Малдыбекова,160500,40.7789154,68.3204034
10,Улица Малдыбекова,160500,40.7791022,68.3201112
12,Тупик Малдыбекова,160500,40.7791953,68.3199743
14,Тупик Малдыбекова,160500,40.7793303,68.3198653
14А,Улица Малдыбекова,160500,40.7794182,68.3196421
16,Тупик Малдыбекова,160500,40.7795903,68.3195549
2/2,ул Омаршаева (Правда),160500,40.7824100,68.3271919
18,улица Байботаева,160500,40.7818911,68.3266747
20,улица Байботаева,160500,40.7816651,68.3265990
22,улица Байботаева,160500,40.7814728,68.3266244
4,ул Алфараби (Известия),160500,40.7819908,68.3249519
19/2,Калыбекова,160500,40.7854490,68.3268874
19/1,Калыбекова,160500,40.7853180,68.3270854
18,Калыбекова,160500,40.7856608,68.3265749
16/А,Калыбекова,160500,40.7842396,68.3285114
8/А,улица Байботаева,160500,40.7838374,68.3289806
16/2,Калыбекова,160500,40.7840598,68.3288692
6А,улица Байботаева,160500,40.7840164,68.3292498
4А,улица Байботаева,160500,40.7842287,68.3294610
2Д1,улица Байботаева,160500,40.7843992,68.3296442
2 Д,улица Байботаева,160500,40.7845693,68.3298909
2 Б,улица Байботаева,160500,40.7847101,68.3300436
2А,улица Байботаева,160500,40.7848445,68.3303859
2,улица Байботаева,160500,40.7849920,68.3305725
16/А2,Калыбекова,160500,40.7843702,68.3283213
26,Калыбекова,160500,40.7847157,68.3278437
19/А,Калыбекова,160500,40.7842758,68.3275845
9А/1,улица Байботаева,160500,40.7834675,68.3281582
12,улица Байботаева,160500,40.7832011,68.3279116
19,Калыбекова,160500,40.7852180,68.3266574
16,улица Байботаева,160500,40.7827394,68.3274517
14,улица Байботаева,160500,40.7829295,68.3275972
77,ул Мусабаева (Жетысайская),160500,40.7843372,68.3250515
1,Калыбекова,160500,40.7821378,68.3315358
3,Калыбекова,160500,40.7821967,68.3313171
5/А,Калыбекова,160500,40.7822820,68.3310731
5,Калыбекова,160500,40.7824150,68.3308062
7,Калыбекова,160500,40.7825155,68.3306157
9,Калыбекова,160500,40.7826100,68.3303864
11,Калыбекова,160500,40.7826994,68.3302107
13,Калыбекова,160500,40.7828557,68.3298164
13/1,Калыбекова,160500,40.7829573,68.3296367
17/1,Калыбекова,160500,40.7833594,68.3289124
б/н,Улица Абая,160500,40.7791613,68.3279916
18,Улица Кулбаева,160500,40.7793642,68.3276408
16,Улица Кулбаева,160500,40.7796467,68.3278619
12/1,Улица Айманова,160500,40.7793640,68.3281615
10/1,Улица Айманова,160500,40.7796132,68.3283648
14/1,Улица Кулбаева,160500,40.7798538,68.3279957
10/2,Улица Айманова,160500,40.7798640,68.3285522
8/2,Улица Айманова,160500,40.7800292,68.3286120
12/1,Улица Кулбаева,160500,40.7802298,68.3281995
10/1,Улица Кулбаева,160500,40.7805611,68.3283785
8,Улица Кулбаева,160500,40.7808857,68.3286160
6/1,Улица Кулбаева,160500,40.7811765,68.3287723
4/1,Улица Кулбаева,160500,40.7813915,68.3288488
2/1,Улица Кулбаева,160500,40.7815800,68.3289889
1A/1,Улица Кулбаева,160500,40.7814220,68.3283478
1/1,Улица Кулбаева,160500,40.7817656,68.3285571
1A/2,Улица Кулбаева,160500,40.7813015,68.3282774
3/2,Улица Кулбаева,160500,40.7810739,68.3281482
3/4,Улица Кулбаева,160500,40.7807895,68.3279685
7/2,Улица Кулбаева,160500,40.7802063,68.3276608
7,Улица Кулбаева,160500,40.7804419,68.3277648
7/3,Улица Кулбаева,160500,40.7800556,68.3274034
9/3,Улица Кулбаева,160500,40.7798994,68.3274080
11/5,Улица Кулбаева,160500,40.7796707,68.3271733
13,Улица Кулбаева,160500,40.7794465,68.3271724
21,Улица Ихсанова,160500,40.7798769,68.3268963
19A,Улица Ихсанова,160500,40.7800737,68.3270217
19,Улица Ихсанова,160500,40.7803617,68.3272330
17,Улица Ихсанова,160500,40.7805338,68.3274845
13,Улица Ихсанова,160500,40.7807936,68.3275843
11,Улица Ихсанова,160500,40.7810126,68.3275183
7A,Улица Ихсанова,160500,40.7812325,68.3276585
7,Улица Ихсанова,160500,40.7813958,68.3277777
5,Улица Ихсанова,160500,40.7815952,68.3278868
3A,Улица Ихсанова,160500,40.7817070,68.3279774
1,Улица Ихсанова,160500,40.7819880,68.3281127
12,Улица Ихсанова,160500,40.7811628,68.3271273
1,улица Байботаева,160500,40.7846311,68.3308838
3/1,улица Байботаева,160500,40.7842006,68.3303742
3/2,улица Байботаева,160500,40.7840466,68.3300454
3А,улица Байботаева,160500,40.7839428,68.3299171
4,Калыбекова,160500,40.7825825,68.3314729
8/1,Калыбекова,160500,40.7827037,68.3312083
10,Калыбекова,160500,40.7828488,68.3308831
12/2,Калыбекова,160500,40.7829947,68.3305591
14/1,Калыбекова,160500,40.7833073,68.3302300
14/2,Калыбекова,160500,40.7834996,68.3297990
14/А,Калыбекова,160500,40.7835616,68.3295065
10,Улан Октябрь,160501,40.7801269,68.3171755
8,Улан Октябрь,160501,40.7800240,68.3172799
6,Улан Октябрь,160501,40.7799248,68.3174386
4,Улан Октябрь,160501,40.7798708,68.3176253
15,Улица Малдыбекова,160500,40.7800321,68.3181350
17,Улица Малдыбекова,160500,40.7801367,68.3179631
19,Улица Малдыбекова,160500,40.7802424,68.3178065
21,Улица Малдыбекова,160500,40.7803843,68.3176567
23,Улица Малдыбекова,160500,40.7804912,68.3175007
12,Улан Октябрь,160501,40.7801843,68.3170537
14,Улан Октябрь,160501,40.7802788,68.3168916
18,Улан Октябрь,160501,40.7804425,68.3166282
27,Улица Малдыбекова,160500,40.7807339,68.3170891
29,Улица Малдыбекова,160500,40.7809644,68.3169125
13,Улан Октябрь,160501,40.7802944,68.3164271
11,Улан Октябрь,160501,40.7801946,68.3165680
9,Улан Октябрь,160501,40.7801034,68.3167021
7,Улан Октябрь,160501,40.7800223,68.3168628
5,Улан Октябрь,160501,40.7798914,68.3170480
3,Улан Октябрь,160501,40.7797617,68.3172255
160,Амире Кашаубаева,160501,40.7793212,68.3175957
162,Амире Кашаубаева,160501,40.7794785,68.3171996
164,Амире Кашаубаева,160501,40.7795411,68.3170015
166,Амире Кашаубаева,160501,40.7795832,68.3168067
168,Амире Кашаубаева,160501,40.7796383,68.3166447
170,Амире Кашаубаева,160501,40.7797035,68.3164924
172,Амире Кашаубаева,160501,40.7797671,68.3163042
174,Амире Кашаубаева,160501,40.7797860,68.3161544
176,Амире Кашаубаева,160501,40.7798745,68.3160225
178,Амире Кашаубаева,160501,40.7800134,68.3155570
б/н,ул Кожанова,160501,40.7825919,68.3062005
236,ул Кожанова,160500,40.7819265,68.3086887
234,ул Кожанова,160500,40.7817928,68.3089489
232,ул Кожанова,160500,40.7816859,68.3094088
230,ул Кожанова,160500,40.7814300,68.3100606
159,Амире Кашаубаева,160501,40.7814117,68.3111926
161,Амире Кашаубаева,160501,40.7814950,68.3109210
228,ул Кожанова,160500,40.7813203,68.3104187
226/1,ул Кожанова,160500,40.7812127,68.3107111
224/2,ул Кожанова,160500,40.7811010,68.3110249
224/1,ул Кожанова,160500,40.7810187,68.3112113
222,ул Кожанова,160500,40.7808935,68.3114085
157,Амире Кашаубаева,160501,40.7812899,68.3115614
153,Амире Кашаубаева,160501,40.7808867,68.3125833
155,Амире Кашаубаева,160501,40.7810207,68.3120576
220/1,ул Кожанова,160500,40.7806320,68.3120522
218,ул Кожанова,160500,40.7805946,68.3124354
151,Амире Кашаубаева,160501,40.7807882,68.3128340
149,Амире Кашаубаева,160501,40.7806826,68.3130996
147,Амире Кашаубаева,160501,40.7805790,68.3132914
214/2,ул Кожанова,160500,40.7802266,68.3133007
145,Амире Кашаубаева,160501,40.7804348,68.3137111
212/2,ул Кожанова,160500,40.7800520,68.3137406
214/1,ул Кожанова,160500,40.7801180,68.3135555
143,Амире Кашаубаева,160501,40.7802642,68.3141845
212/1,ул Кожанова,160500,40.7799900,68.3139579
210/1,ул Кожанова,160500,40.7799037,68.3141349
141,Амире Кашаубаева,160501,40.7801494,68.3144474
139,Амире Кашаубаева,160501,40.7800479,68.3147264
208/2,ул Кожанова,160500,40.7797276,68.3145261
208/2,Кожанова,160500,40.7798043,68.3143247
137,Амире Кашаубаева,160501,40.7799399,68.3149861
200,Кожанова,160500,40.7793828,68.3154162
135,Амире Кашаубаева,160501,40.7797971,68.3153526
131,Амире Кашаубаева,160501,40.7796189,68.3157607
130,Амире Кашаубаева,160501,40.7795590,68.3159836
123,Амире Кашаубаева,160501,40.7790913,68.3172641
125,Амире Кашаубаева,160501,40.7791675,68.3170518
127,Амире Кашаубаева,160501,40.7792812,68.3166951
129,Амире Кашаубаева,160501,40.7794558,68.3162606
32,ул Дайрашев (Ленина),160500,40.7815953,68.3202220
47,ул Жунисходжаева (Комсомольская),160500,40.7820160,68.3182871
22,ул Танатова (Пахтаральская),160500,40.7818713,68.3183170
18,Улица Танатова (Пахтаральская),160500,40.7816946,68.3185760
20,Улица Танатова (Пахтаральская),160500,40.7817953,68.3184664
16,Улица Танатова (Пахтаральская),160500,40.7815860,68.3186908
14,Улица Танатова (Пахтаральская),160500,40.7814458,68.3188885
12,Улица Танатова (Пахтаральская),160500,40.7813482,68.3190474
10,Улица Танатова (Пахтаральская),160500,40.7812463,68.3191846
34,ул Дайрашев (Ленина),160500,40.7810717,68.3195675
20,Улица Малдыбекова,160500,40.7801664,68.3184450
22,Улица Малдыбекова,160500,40.7803167,68.3182974
24,Улица Малдыбекова,160500,40.7804089,68.3181737
26,Улица Малдыбекова,160500,40.7804961,68.3179911
24/1А,Улица Малдыбекова,160500,40.7806270,68.3178302
23,Улица Танатова (Пахтаральская),160500,40.7809966,68.3188871
27/А,Улица Танатова (Пахтаральская),160500,40.7813114,68.3182788
29,Улица Танатова (Пахтаральская),160500,40.7814245,68.3181404
32,Улица Малдыбекова,160500,40.7809510,68.3174178
34,Улица Малдыбекова,160500,40.7811931,68.3171289
53А,Отепова (Чимкентская),160501,40.7843241,68.3182065
53,Отепова (Чимкентская),160501,40.7845465,68.3184318
47,Отепова (Чимкентская),160501,40.7850542,68.3191721
49,Отепова (Чимкентская),160501,40.7849313,68.3189535
45,Отепова (Чимкентская),160501,40.7851649,68.3193076
37,Отепова (Чимкентская),160501,40.7858219,68.3200465
41,Отепова (Чимкентская),160501,40.7855200,68.3197017
43,Отепова (Чимкентская),160501,40.7854116,68.3194752
35,ул Омаршаева (Правда),160500,40.7860836,68.3204810
46,ул Омаршаева (Правда),160500,40.7858533,68.3214580
40,ул Омаршаева (Правда),160500,40.7852455,68.3223515
3,Улица Айтеке Би,160500,40.7827206,68.3180012
1А,Улица Айтеке Би,160500,40.7828091,68.3181217
1,Улица Айтеке Би,160500,40.7828996,68.3182580
2,Улица Айтеке Би,160500,40.7831713,68.3180881
2А,Улица Айтеке Би,160500,40.7830299,68.3179216
4,Улица Айтеке Би,160500,40.7829409,68.3177999
4А,Улица Айтеке Би,160500,40.7828472,68.3176988
8,Улица Айтеке Би,160500,40.7826277,68.3174364
10,Улица Айтеке Би,160500,40.7825544,68.3172331
12,Улица Айтеке Би,160500,40.7824149,68.3171390
14,Улица Айтеке Би,160500,40.7822976,68.3169589
16,Улица Айтеке Би,160500,40.7821957,68.3168385
18,Улица Айтеке Би,160500,40.7820774,68.3166781
22,Улица Айтеке Би,160500,40.7819026,68.3164968
24,Улица Айтеке Би,160500,40.7817919,68.3163400
19,Улица Айтеке Би,160500,40.7816326,68.3161033
87,ул Утепов,160501,40.7816079,68.3158492
89,ул Утепов,160501,40.7815125,68.3157254
91,Отепова (Чимкентская),160501,40.7814092,68.3155719
93,ул Утепов,160501,40.7813166,68.3154345
95,ул Утепов,160501,40.7811923,68.3153107
97,ул Утепов,160501,40.7810182,68.3150524
99,Улица Айтеке Би,160501,40.7809112,68.3148774
101,ул Утепов,160501,40.7807792,68.3147043
103,ул Утепов,160501,40.7806751,68.3145739
105,ул Отепова (Чимкентская),160500,40.7805428,68.3143329
186,ул Амире Кашаубаева (Гагарина),160500,40.7804395,68.3145187
184,ул Амире Кашаубаева (Гагарина),160500,40.7803730,68.3147183
180,ул Амире Кашаубаева (Гагарина),160500,40.7802178,68.3151427
17,Улица Айтеке Би,160500,40.7815514,68.3164426
13,Улица Айтеке Би,160500,40.7819231,68.3169573
15,Улица Айтеке Би,160500,40.7817499,68.3167299
9,Улица Айтеке Би,160500,40.7822030,68.3173412
11,Улица Айтеке Би,160500,40.7820381,68.3171038
5,Улица Айтеке Би,160500,40.7824417,68.3176195
115,улица Абая,160500,40.7838773,68.3178498
57,Отепова (Чимкентская),160501,40.7839749,68.3177099
55,Отепова (Чимкентская),160501,40.7842129,68.3180343
11,Аз Тауке,160501,40.7822619,68.3143478
9,Аз Тауке,160501,40.7824250,68.3144509
7,Аз Тауке,160501,40.7825249,68.3145211
1,Аз Тауке,160501,40.7830072,68.3150395
10/2,Макатаева (Курченко),160501,40.7832088,68.3147752
10/1,Макатаева (Курченко),160501,40.7829431,68.3144767
8/2,Макатаева (Курченко),160501,40.7827484,68.3143078
8/1,Макатаева (Курченко),160501,40.7825432,68.3141698
7/2,Макатаева (Курченко),160501,40.7828873,68.3140992
9/2,Макатаева (Курченко),160501,40.7832277,68.3143827
9/1,Макатаева (Курченко),160501,40.7830693,68.3141760
11/1,Макатаева (Курченко),160501,40.7833512,68.3145144
31,ул Танатова (Пахтаральская),160500,40.7835237,68.3141888
67,ул Рыскулова (Алматинская),160500,40.7834361,68.3140594
69,ул Рыскулова (Алматинская),160500,40.7833185,68.3139685
71,ул Рыскулова (Алматинская),160500,40.7832184,68.3138996
73,ул Рыскулова (Алматинская),160500,40.7831070,68.3138211
75,ул Рыскулова (Алматинская),160500,40.7830015,68.3137046
7/1,Макатаева (Курченко),160501,40.7826839,68.3138563
77,ул Рыскулова (Алматинская),160500,40.7828257,68.3135826
79,ул Рыскулова (Алматинская),160500,40.7826606,68.3133840
81,ул Рыскулова (Алматинская),160500,40.7825150,68.3132815
5/1,Макатаева (Курченко),160501,40.7823334,68.3135292
4/2,Макатаева (Курченко),160501,40.7821348,68.3133777
83,ул Рыскулова (Алматинская),160500,40.7824124,68.3132183
85,ул Рыскулова (Алматинская),160500,40.7822702,68.3130806
13,Аз Тауке,160501,40.7821360,68.3141372
15,Аз Тауке,160501,40.7819625,68.3140410
17,Аз Тауке,160501,40.7818555,68.3139311
6/1,Макатаева (Курченко),160501,40.7821894,68.3138096
3/2,Макатаева (Курченко),160501,40.7819788,68.3136130
21,Аз Тауке,160501,40.7815080,68.3136389
19,Аз Тауке,160501,40.7816936,68.3138022
3/1,Макатаева (Курченко),160501,40.7817946,68.3134683
1/1,Макатаева (Курченко),160501,40.7814260,68.3131075
4/1,Макатаева (Курченко),160501,40.7819378,68.3131812
87,ул Рыскулова (Алматинская),160500,40.7821191,68.3129582
91,ул Рыскулова (Алматинская),160500,40.7818438,68.3126882
93,ул Рыскулова (Алматинская),160500,40.7817304,68.3125974
95,ул Рыскулова (Алматинская),160500,40.7815430,68.3124598
97,ул Рыскулова (Алматинская),160500,40.7813946,68.3123062
2/1,Макатаева (Курченко),160501,40.7812908,68.3125311
1/1,Макатаева (Курченко),160501,40.7811936,68.3128114
23,Аз Тауке,160501,40.7813908,68.3135311
25,Аз Тауке,160501,40.7812632,68.3134427
194,ул Амире Кашаубаева (Гагарина),160500,40.7810830,68.3130147
27,Аз Тауке,160501,40.7810005,68.3132101
192,ул Амире Кашаубаева (Гагарина),160501,40.7808892,68.3131288
28,Аз Тауке,160501,40.7809421,68.3135545
190,ул Амире Кашаубаева (Гагарина),160501,40.7808097,68.3134673
22,Аз Тауке,160501,40.7810577,68.3136684
22,Аз Тауке,160501,40.7812306,68.3138216
22,Аз Тауке,160501,40.7813648,68.3140075
18,Аз Тауке,160501,40.7816620,68.3142134
20,Аз Тауке,160501,40.7815076,68.3141021
14,Аз Тауке,160501,40.7819856,68.3144690
12,Аз Тауке,160501,40.7821581,68.3146613
8,Аз Тауке,160501,40.7824964,68.3149566
10,Аз Тауке,160501,40.7823580,68.3148071
6,Аз Тауке,160501,40.7826275,68.3150719
4,Аз Тауке,160501,40.7827982,68.3152572
2,Аз Тауке,160501,40.7829268,68.3153712
64,Отепова (Чимкентская),160501,40.7827413,68.3157906
66,Отепова (Чимкентская),160501,40.7826337,68.3156065
68,Отепова (Чимкентская),160501,40.7824083,68.3154280
70,Отепова (Чимкентская),160501,40.7822596,68.3153087
72,Отепова (Чимкентская),160501,40.7820588,68.3151132
74,Отепова (Чимкентская),160501,40.7819446,68.3149948
76,Отепова (Чимкентская),160500,40.7817493,68.3149044
78,Отепова (Чимкентская),160501,40.7816096,68.3147771
80,Отепова (Чимкентская),160501,40.7814577,68.3146147
82,Отепова (Чимкентская),160501,40.7813254,68.3144576
84,Отепова (Чимкентская),160501,40.7811147,68.3143302
86,Отепова (Чимкентская),160501,40.7809401,68.3141557
188,ул Амире Кашаубаева (Гагарина),160501,40.7806569,68.3139285
19,ул Утепов,160500,40.7824418,68.3164733
59,Отепова (Чимкентская),160501,40.7837465,68.3175008
61,Отепова (Чимкентская),160501,40.7836206,68.3172739
9,ул Утепов,160500,40.7834345,68.3176808
11,ул Утепов,160500,40.7833135,68.3175400
13,ул Утепов,160500,40.7831935,68.3173747
15,ул Утепов,160500,40.7830349,68.3172062
63,Отепова (Чимкентская),160501,40.7834921,68.3171388
65,Отепова (Чимкентская),160501,40.7833744,68.3170181
17,ул Утепов,160500,40.7829300,68.3170938
65А,Отепова (Чимкентская),160501,40.7832666,68.3168836
69,Отепова (Чимкентская),160501,40.7829736,68.3165546
19,ул Утепов,160500,40.7827829,68.3169278
69А,Отепова (Чимкентская),160500,40.7827917,68.3163916
15,ул Утепов,160500,40.7826409,68.3166510
71,Отепова (Чимкентская),160500,40.7826534,68.3162827
73,Отепова (Чимкентская),160500,40.7825573,68.3161539
21,ул Утепов,160500,40.7823123,68.3162915
73А,Отепова (Чимкентская),160500,40.7824236,68.3160496
75,Отепова (Чимкентская),160500,40.7821868,68.3158068
81,Отепова (Чимкентская),160501,40.7816586,68.3152767
46,Ескендиров (Целинная),160500,40.7829634,68.3099748
6,Мендешова,160501,40.7830563,68.3109636
3,Мендешова,160500,40.7826282,68.3105984
2,Мендешова,160500,40.7824769,68.3104924
1,Мендешова,160500,40.7823988,68.3103799
16/1,Молдагулова,160501,40.7817225,68.3111134
204 206 208,ул Амире Кашаубаева (Гагарина),160500,40.7818841,68.3106120
10,Молдагулова,160501,40.7822414,68.3112328
9,Молдагулова,160501,40.7826719,68.3116029
7,Молдагулова,160501,40.7828923,68.3117781
3/2,Мендешова,160501,40.7829065,68.3112153
3/1,Мендешова,160501,40.7831695,68.3114728
1/2,Мендешова,160501,40.7834468,68.3116968
5,Молдагулова,160501,40.7831532,68.3120107
3,Молдагулова,160501,40.7833898,68.3122306
1,Молдагулова,160501,40.7836458,68.3124129
1/1,Мендешова,160501,40.7837260,68.3119502
2А,Байзаков,160501,40.7837178,68.3115004
2,Байзаков,160501,40.7837934,68.3113483
4,Байзаков,160500,40.7838783,68.3112023
6,Байзаков,160500,40.7840767,68.3108788
10,Байзаков,160500,40.7841485,68.3106763
12,Байзаков,160500,40.7842182,68.3104824
14,Байзаков,160500,40.7842890,68.3102449
16,Байзаков,160500,40.7844325,68.3101282
9,Майлин Школьная,160501,40.7840489,68.3117343
11,Майлин Школьная,160501,40.7841647,68.3116016
13,Майлин Школьная,160501,40.7842780,68.3112929
15,Майлин Школьная,160501,40.7843707,68.3110890
17,Майлин Школьная,160501,40.7845760,68.3107607
19,Майлин Школьная,160501,40.7847434,68.3103355
47,Танатова (Пахтаральская),160501,40.7852451,68.3108962
45,Танатова (Пахтаральская),160501,40.7851760,68.3110624
24,Майлин Школьная,160501,40.7849482,68.3106258
22,Майлин Школьная,160501,40.7847634,68.3110549
43,Танатова (Пахтаральская),160501,40.7850298,68.3113173
41,Танатова (Пахтаральская),160501,40.7849059,68.3115667
20,Майлин Школьная,160501,40.7846440,68.3112110
39,Танатова (Пахтаральская),160501,40.7847472,68.3117271
13,Майлин Школьная,160501,40.7844986,68.3114875
16,Майлин Школьная,160501,40.7843702,68.3117542
37/2,Танатова (Пахтаральская),160501,40.7846521,68.3120495
37/1,Танатова (Пахтаральская),160501,40.7844754,68.3122882
14,Майлин Школьная,160501,40.7842464,68.3120062
37,Танатова (Пахтаральская),160501,40.7842933,68.3125145
12,Майлин Школьная,160501,40.7840814,68.3122748
35/2,Танатова (Пахтаральская),160501,40.7841704,68.3127823
35,Танатова (Пахтаральская),160501,40.7841118,68.3129615
8,Майлин Школьная,160501,40.7838790,68.3127326
33,Танатова (Пахтаральская),160501,40.7840327,68.3131733
31,Танатова (Пахтаральская),160501,40.7838519,68.3134657
90,Рыскулова (Алматинская),160501,40.7834681,68.3135971
6,Майлин Школьная,160501,40.7837422,68.3129588
1/2,Молдагулова,160501,40.7834660,68.3127496
1/1,Молдагулова,160501,40.7835379,68.3128461
92,Рыскулова (Алматинская),160500,40.7832710,68.3133485
94,ул Рыскулова (Алматинская),160500,40.7831345,68.3132469
96,ул Рыскулова (Алматинская),160500,40.7830273,68.3131519
98,ул Рыскулова (Алматинская),160500,40.7829075,68.3130821
100,ул Рыскулова (Алматинская),160500,40.7827938,68.3129292
102,ул Рыскулова (Алматинская),160500,40.7826679,68.3128380
4/2,Молдагулова,160501,40.7831006,68.3123822
4/1,Молдагулова,160501,40.7830143,68.3123066
6/2,Молдагулова,160501,40.7829055,68.3121997
6/1,Молдагулова,160501,40.7827776,68.3120725
8/2,Молдагулова,160501,40.7826728,68.3119740
10/2,Молдагулова,160501,40.7824471,68.3117825
10/1,Молдагулова,160501,40.7823403,68.3117119
104,ул Рыскулова (Алматинская),160500,40.7825643,68.3127039
106,ул Рыскулова (Алматинская),160500,40.7824262,68.3126530
108,ул Рыскулова (Алматинская),160500,40.7823348,68.3125806
110,ул Рыскулова (Алматинская),160500,40.7822272,68.3124974
112,ул Рыскулова (Алматинская),160500,40.7821175,68.3124224
114,ул Рыскулова (Алматинская),160500,40.7820281,68.3123178
116,ул Рыскулова (Алматинская),160500,40.7818446,68.3122120
118,ул Рыскулова (Алматинская),160500,40.7817378,68.3120580
202,ул Амире Кашаубаева (Гагарина),160500,40.7815335,68.3116038
14/1,Молдагулова,160501,40.7820800,68.3115415
16/2,Молдагулова,160501,40.7818866,68.3113067
174,улица Абая,160500,40.7886740,68.3073213
172,улица Абая,160500,40.7885188,68.3074425
170,улица Абая,160500,40.7884489,68.3076003
168,улица Абая,160500,40.7883734,68.3077526
166,улица Абая,160500,40.7882913,68.3079147
164,улица Абая,160500,40.7881979,68.3080873
162,улица Абая,160500,40.7881256,68.3082687
160,улица Абая,160500,40.7880460,68.3084489
158,улица Абая,160500,40.7879663,68.3086234
156,улица Абая,160500,40.7878604,68.3087938
154,улица Абая,160500,40.7877755,68.3089660
152,улица Абая,160500,40.7876964,68.3091216
150,улица Абая,160500,40.7876170,68.3092740
148,Абая,160501,40.7875384,68.3094132
146,Абая,160500,40.7874328,68.3096026
144,улица Абая,160500,40.7873758,68.3097786
142,улица Абая,160500,40.7872995,68.3099301
140,улица Абая,160500,40.7872125,68.3101089
138,улица Абая,160500,40.7871191,68.3102538
136,улица Абая,160500,40.7870262,68.3104752
134,улица Абая,160500,40.7869075,68.3106689
132,улица Абая,160500,40.7868396,68.3108551
130,улица Абая,160500,40.7866958,68.3110945
159,ул Абая,160500,40.7864189,68.3108693
161,ул Абая,160500,40.7864914,68.3107002
169,ул Абая,160500,40.7867600,68.3101640
171,ул Абая,160500,40.7868576,68.3100700
173,ул Абая,160500,40.7869429,68.3099037
175,ул Абая,160500,40.7870566,68.3096838
177,ул Абая,160500,40.7871094,68.3095443
179,ул Абая,160500,40.7871906,68.3093834
181,ул Абая,160500,40.7872922,68.3092064
183,ул Абая,160500,40.7873653,68.3091044
185,ул Абая,160500,40.7874384,68.3089167
187,ул Абая,160500,40.7875399,68.3087772
189,ул Абая,160500,40.7876253,68.3086002
191,ул Абая,160500,40.7876983,68.3084500
193,ул Абая,160500,40.7877958,68.3082515
195,ул Абая,160500,40.7878811,68.3080959
197,ул Абая,160500,40.7879705,68.3078760
199,ул Абая,160500,40.7880591,68.3076888
201,ул Абая,160500,40.7881443,68.3075316
203,ул Абая,160500,40.7882345,68.3073664
205,ул Абая,160500,40.7883279,68.3072108
207,ул Абая,160500,40.7883928,68.3070016
209,ул Абая,160500,40.7884863,68.3067977
70,Курмангазы,160501,40.7883010,68.3063056
68,Курмангазы,160501,40.7881812,68.3065383
66,Курмангазы,160501,40.7880633,68.3067560
64,Курмангазы,160501,40.7879726,68.3069460
62,Курмангазы,160501,40.7878561,68.3071786
60,Курмангазы,160501,40.7877573,68.3073799
58,Курмангазы,160501,40.7876634,68.3075682
56,Курмангазы,160501,40.7875532,68.3077657
50,Курмангазы,160501,40.7872440,68.3083955
48,Курмангазы,160501,40.7871372,68.3085852
46,Курмангазы,160501,40.7870516,68.3087537
44,Курмангазы,160501,40.7869467,68.3089516
42,Курмангазы,160501,40.7868586,68.3091622
40,Курмангазы,160501,40.7867561,68.3093810
38,Курмангазы,160501,40.7866520,68.3095832
36,Курмангазы,160501,40.7865664,68.3097758
34,Курмангазы,160501,40.7864689,68.3099693
32,Курмангазы,160501,40.7863864,68.3101773
30,Курмангазы,160501,40.7862473,68.3103402
26,Курмангазы,160501,40.7860593,68.3107119
67,Танатова (Пахтаральская),160501,40.7857607,68.3098112
69,Танатова (Пахтаральская),160501,40.7858720,68.3096062
71,Танатова (Пахтаральская),160501,40.7859786,68.3093789
73,Танатова (Пахтаральская),160501,40.7861570,68.3090792
77,Танатова (Пахтаральская),160501,40.7863569,68.3086269
81,Танатова (Пахтаральская),160501,40.7865633,68.3082276
83,Танатова (Пахтаральская),160501,40.7866583,68.3080375
59,Танатова (Пахтаральская),160501,40.7867804,68.3078706
87,Танатова (Пахтаральская),160501,40.7869022,68.3076453
89,Танатова (Пахтаральская),160501,40.7869916,68.3074307
91,Танатова (Пахтаральская),160501,40.7870973,68.3071786
95,Танатова (Пахтаральская),160501,40.7873165,68.3067870
93,Танатова (Пахтаральская),160501,40.7872151,68.3070016
97,Танатова (Пахтаральская),160501,40.7874140,68.3066314
99,Танатова (Пахтаральская),160501,40.7875033,68.3064491
101,Танатова (Пахтаральская),160501,40.7875978,68.3061863
103,Танатова (Пахтаральская),160501,40.7876890,68.3060153
105,Танатова (Пахтаральская),160501,40.7877917,68.3058321
107,Танатова (Пахтаральская),160501,40.7878852,68.3056766
109,Танатова (Пахтаральская),160501,40.7879624,68.3054727
116,Танатова (Пахтаральская),160501,40.7881713,68.3056983
114,Танатова (Пахтаральская),160501,40.7880865,68.3058885
112,Танатова (Пахтаральская),160501,40.7879888,68.3060777
110,Танатова (Пахтаральская),160501,40.7878937,68.3062653
108,Танатова (Пахтаральская),160501,40.7877816,68.3064638
106,Танатова (Пахтаральская),160501,40.7877079,68.3066114
104,Танатова (Пахтаральская),160501,40.7876155,68.3067873
102,Танатова (Пахтаральская),160501,40.7875189,68.3070042
100,Танатова (Пахтаральская),160501,40.7874355,68.3071770
98,Танатова (Пахтаральская),160501,40.7873507,68.3073431
96,Танатова (Пахтаральская),160501,40.7872615,68.3075101
94,Танатова (Пахтаральская),160501,40.7871757,68.3076710
92,Танатова (Пахтаральская),160501,40.7870877,68.3078388
90,Танатова (Пахтаральская),160501,40.7870061,68.3080057
88,Танатова (Пахтаральская),160501,40.7869241,68.3081737
86,Танатова (Пахтаральская),160501,40.7868394,68.3083375
84,ул Танатова (Пахтаральская),160500,40.7867591,68.3085078
82,Танатова (Пахтаральская),160501,40.7866815,68.3086667
80,Танатова (Пахтаральская),160501,40.7866027,68.3088298
76,Танатова (Пахтаральская),160501,40.7864408,68.3091682
74,Танатова (Пахтаральская),160501,40.7863808,68.3093614
70,Танатова (Пахтаральская),160501,40.7862100,68.3096499
68,Танатова (Пахтаральская),160501,40.7861129,68.3098334
66,Танатова (Пахтаральская),160501,40.7860219,68.3099697
62,Танатова (Пахтаральская),160501,40.7858691,68.3102830
6,Курмангазы,160501,40.7846545,68.3134456
10,Курмангазы,160501,40.7850547,68.3126847
12,Курмангазы,160501,40.7851674,68.3124416
14,Курмангазы,160501,40.7852817,68.3122142
16,Курмангазы,160501,40.7854019,68.3119822
18,Курмангазы,160501,40.7855213,68.3117652
20,Курмангазы,160501,40.7856336,68.3115696
22,Курмангазы,160501,40.7856960,68.3113843
24,Курмангазы,160501,40.7858341,68.3111644
157,ул Абая,160500,40.7859071,68.3119690
155,ул Абая,160500,40.7857812,68.3121192
153,ул Абая,160500,40.7856594,68.3123177
151,ул Абая,160500,40.7855579,68.3125001
147,улица Абая,160501,40.7852817,68.3127844
145,улица Абая,160500,40.7852939,68.3130366
143,улица Абая,160500,40.7851639,68.3132190
141,улица Абая,160500,40.7850583,68.3134174
139,улица Абая,160500,40.7849216,68.3135961
137,улица Абая,160500,40.7847869,68.3139361
4,Курмангазы,160501,40.7845471,68.3136648
2,Курмангазы,160501,40.7844272,68.3139180
135,улица Абая,160500,40.7847072,68.3141117
133,улица Абая,160500,40.7845780,68.3142596
84,ул Рыскулова (Алматинская),160500,40.7843678,68.3141738
86,Рыскулова (Алматинская),160500,40.7840063,68.3140182
36,Танатова (Пахтаральская),160501,40.7840793,68.3138734
38,Танатова (Пахтаральская),160501,40.7841809,68.3136856
38А,Танатова (Пахтаральская),160500,40.7842824,68.3134764
40,Танатова (Пахтаральская),160500,40.7843474,68.3132940
42,Танатова (Пахтаральская),160501,40.7845546,68.3129507
44,Танатова (Пахтаральская),160501,40.7846440,68.3127576
56,Танатова (Пахтаральская),160501,40.7847292,68.3126020
48,Танатова (Пахтаральская),160501,40.7848308,68.3124089
50,Танатова (Пахтаральская),160501,40.7849242,68.3122158
58,Танатова (Пахтаральская),160501,40.7850270,68.3119755
54,Танатова (Пахтаральская),160501,40.7851374,68.3118054
56,Танатова (Пахтаральская),160501,40.7851970,68.3116640
58,Танатова (Пахтаральская),160501,40.7852640,68.3114950
58А,Танатова (Пахтаральская),160501,40.7854211,68.3112409
58/Б,Танатова (Пахтаральская),160501,40.7855535,68.3109169
9,ул. Мустафина,160500,40.7882373,68.3209808
11,ул. Мустафина,160500,40.7883686,68.3208128
13,ул. Мустафина,160500,40.7885216,68.3206897
14,ул. Мустафина,160500,40.7885781,68.3209416
18,ул. Мустафина,160500,40.7888092,68.3206675
21,ул Рыскулова (Алматинская),160500,40.7888993,68.3205538
10,ул. Мустафина,160500,40.7883454,68.3212928
8,ул. Мустафина,160500,40.7882431,68.3214096
4,ул. Мустафина,160500,40.7880868,68.3217189
6,ул. Мустафина,160500,40.7881203,68.3215413
39,ул Калыбекова (Маяковский),160500,40.7881531,68.3225050
22,Отепова (Чимкентская),160500,40.7878486,68.3220972
2,ул. Мустафина,160500,40.7879305,68.3217555
24,ул Отепова (Чимкентская),160500,40.7876378,68.3216731
26,Отепова (Чимкентская),160500,40.7874224,68.3214842
3,ул. Мустафина,160500,40.7878638,68.3214363
7,ул. Мустафина,160500,40.7881043,68.3211262
102,ул Мусабаева (Жетысайская),160500,40.7882618,68.3204819
23,ул Рыскулова (Алматинская),160500,40.7887984,68.3202799
25,ул Рыскулова (Алматинская),160500,40.7886801,68.3201902
117,ул Мусабаева (Жетысайская),160500,40.7882162,68.3199601
28,ул Отепова (Чимкентская),160500,40.7872385,68.3211476
109,ул Мусабаева (Жетысайская),160500,40.7875221,68.3207348
111,ул Мусабаева (Жетысайская),160500,40.7876433,68.3206338
115,ул Мусабаева (Жетысайская),160500,40.7879730,68.3200418
30,ул Отепова (Чимкентская),160500,40.7868069,68.3207285
52,ул Омаршаева (Правда),160500,40.7867080,68.3203253
54,ул Омаршаева (Правда),160500,40.7868098,68.3201880
56,ул Омаршаева (Правда),160500,40.7869107,68.3199839
62,ул Омаршаева (Правда),160500,40.7872962,68.3196884
64,ул Омаршаева (Правда),160500,40.7874123,68.3194859
66,ул Омаршаева (Правда),160500,40.7874979,68.3193287
68,ул Омаршаева (Правда),160500,40.7875991,68.3191529
2,ул Курбанулы (Данко),160501,40.7869844,68.3193040
4,ул Курбанулы (Данко),160500,40.7868069,68.3190486
6,ул Курбанулы (Данко),160500,40.7867533,68.3188313
8,ул Курбанулы (Данко),160500,40.7866731,68.3186979
10,ул Курбанулы (Данко),160500,40.7865660,68.3185620
12,ул Курбанулы (Данко),160500,40.7864328,68.3185100
14,ул Курбанулы (Данко),160500,40.7862528,68.3184851
50,ул Отепова (Чимкентская),160500,40.7848003,68.3182426
46,Отепова (Чимкентская),160500,40.7852140,68.3187409
44,Отепова (Чимкентская),160500,40.7853434,68.3189988
13,ул Курбанулы (Данко),160500,40.7857139,68.3182302
15,ул Курбанулы (Данко),160500,40.7855770,68.3181245
17,ул Курбанулы (Данко),160500,40.7854937,68.3179622
21,ул Курбанулы (Данко),160500,40.7852513,68.3176969
26,ул Курбанулы (Данко),160500,40.7854345,68.3174379
24,ул Курбанулы (Данко),160500,40.7855538,68.3175531
22,ул Курбанулы (Данко),160500,40.7856775,68.3176450
20,ул Курбанулы (Данко),160500,40.7858676,68.3177503
18,ул Курбанулы (Данко),160500,40.7859312,68.3179315
16,ул Курбанулы (Данко),160500,40.7860826,68.3180410
54,Отепова (Чимкентская),160501,40.7843779,68.3175936
23,Улица Курбанулы (Данко),160500,40.7847482,68.3170907
25,ул Курбанулы (Данко),160500,40.7845808,68.3168288
27,ул Курбанулы (Данко),160500,40.7844511,68.3166468
100,улица Абая,160500,40.7844103,68.3158891
30,ул Курбанулы (Данко),160500,40.7846825,68.3165369
51,ул Рыскулова (Алматинская),160500,40.7853021,68.3159830
28,Улица Курбанулы (Данко),160500,40.7848836,68.3167648
53,ул Рыскулова (Алматинская),160500,40.7851598,68.3159360
57,ул Рыскулова (Алматинская),160500,40.7850197,68.3156008
59,ул Рыскулова (Алматинская),160500,40.7849140,68.3154559
61,ул Рыскулова (Алматинская),160500,40.7848022,68.3152357
114,улица Абая,160500,40.7846317,68.3155176
112,улица Абая,160500,40.7845059,68.3157295
108,улица Абая,160500,40.7843535,68.3161345
106,улица Абая,160500,40.7841748,68.3163464
104,улица Абая,160500,40.7840408,68.3166602
102,улица Абая,160500,40.7839082,68.3168065
56А,Отепова (Чимкентская),160501,40.7840664,68.3172305
117,ул Абая,160501,40.7834967,68.3165192
117/А,улица Абая,160500,40.7835920,68.3162579
119/А,улица Абая,160500,40.7838092,68.3160031
121,улица Абая,160500,40.7838804,68.3157992
121/А,улица Абая,160500,40.7839738,68.3156329
123,улица Абая,160500,40.7840346,68.3154452
123/А,улица Абая,160500,40.7841464,68.3152548
125,улица Абая,160500,40.7842195,68.3151153
127,улица Абая,160500,40.7843333,68.3149088
7,Улица Курмангазы,160501,40.7837848,68.3151877
5,Улица Курмангазы,160501,40.7835643,68.3156178
3,Улица Курмангазы,160501,40.7834678,68.3157369
1,Улица Курмангазы,160501,40.7833989,68.3159235
62,Отепова (Чимкентская),160501,40.7829623,68.3160701
22,Танатова (Пахтаральская),160501,40.7830781,68.3159119
26,Танатова (Пахтаральская),160501,40.7832569,68.3155498
28,Танатова (Пахтаральская),160501,40.7833442,68.3153379
30,Танатова (Пахтаральская),160501,40.7834194,68.3151797
32,Танатова (Пахтаральская),160501,40.7835051,68.3149915
36,Танатова (Пахтаральская),160501,40.7836315,68.3148244
9,Улица Курмангазы,160501,40.7839418,68.3149136
65,ул Рыскулова (Алматинская),160500,40.7837765,68.3145147
24,ул Жамбыла,160500,40.7881974,68.3262766
24А,ул Жамбыла,160500,40.7882873,68.3262055
26,ул Жамбыла,160500,40.7883766,68.3260519
26А,ул Жамбыла,160500,40.7884351,68.3258769
28,ул Жамбыла,160500,40.7886376,68.3259701
28А,ул Жамбыла,160500,40.7886620,68.3256966
1,Отепова (Чимкентская),160500,40.7897998,68.3253471
1А,Отепова (Чимкентская),160501,40.7897146,68.3251720
3,Отепова (Чимкентская),160501,40.7896362,68.3250079
30,ул Жамбыла,160500,40.7888030,68.3256936
30А,ул Жамбыла,160500,40.7889656,68.3254150
32А,ул Жамбыла,160500,40.7891598,68.3252176
34,ул Жамбыла,160500,40.7892693,68.3251267
34А,ул Жамбыла,160500,40.7894072,68.3249952
3А,Отепова (Чимкентская),160500,40.7895250,68.3248637
1,Жамбыла,160500,40.7867679,68.3268541
7,Отепова (Чимкентская),160501,40.7891470,68.3243419
11,Отепова (Чимкентская),160501,40.7888934,68.3241546
23/1,Калыбекова,160500,40.7858642,68.3253555
23/2,Калыбекова,160500,40.7860031,68.3251691
25/1,Калыбекова,160500,40.7861016,68.3250571
27,Калыбекова,160500,40.7863226,68.3247241
29,Калыбекова,160500,40.7864965,68.3245377
29/1,Калыбекова,160500,40.7865486,68.3243245
20,Калыбекова,160500,40.7860074,68.3258011
24/1,Калыбекова,160500,40.7863812,68.3253064
22,Калыбекова,160500,40.7862329,68.3254495
24/2,Калыбекова,160500,40.7865070,68.3251339
26,Калыбекова,160500,40.7866909,68.3249206
28/1,Калыбекова,160500,40.7869460,68.3245812
28/1,Калыбекова,160500,40.7868232,68.3247200
30,Калыбекова,160500,40.7871581,68.3243380
32,Калыбекова,160500,40.7874059,68.3242362
36,Калыбекова,160500,40.7875298,68.3238458
34,Калыбекова,160500,40.7874323,68.3239947
38/1,Калыбекова,160500,40.7876597,68.3238311
40,Калыбекова,160500,40.7879014,68.3233899
38/2,Калыбекова,160500,40.7877582,68.3236098
17,Отепова (Чимкентская),160501,40.7883406,68.3233077
42,Калыбекова,160500,40.7880385,68.3232290
37/1,Калыбекова,160500,40.7875430,68.3229044
33,Калыбекова,160500,40.7874374,68.3233121
31/2,Калыбекова,160500,40.7870292,68.3238754
31/А,Калыбекова,160500,40.7873115,68.3235441
8А,Отепова (Чимкентская),160500,40.7891701,68.3238036
22,ул Жаштаева,160500,40.7892946,68.3234918
24,ул Жаштаева,160500,40.7894205,68.3232960
26,ул Жаштаева,160500,40.7896255,68.3233979
28,ул Жаштаева,160500,40.7896336,68.3231404
30,ул Жаштаева,160500,40.7897616,68.3230010
32,ул Жаштаева,160500,40.7898529,68.3228186
34,ул Жаштаева,160500,40.7900215,68.3225986
36,Жаштаева,160500,40.7901782,68.3223845
38,ул Жаштаева,160500,40.7902856,68.3222553
12,Отепова (Чимкентская),160500,40.7888274,68.3234730
14А,ул Отепова (Чимкентская),160500,40.7887624,68.3227193
44,ул Калыбекова (Маяковский),160500,40.7884376,68.3227395
139Б,Улица Яссауи,160500,40.7919407,68.3233795
18,ул Рыскулова (Алматинская),160500,40.7908298,68.3223090
20,ул Рыскулова (Алматинская),160500,40.7907242,68.3221319
14,ул Рыскулова (Алматинская),160500,40.7912917,68.3228508
22,ул Рыскулова (Алматинская),160500,40.7905838,68.3219040
11,ул Курбанулы (Данко),160500,40.7862380,68.3188059
9,ул Курбанулы (Данко),160500,40.7863471,68.3189729
7,ул Курбанулы (Данко),160500,40.7864791,68.3191050
5,ул Курбанулы (Данко),160500,40.7865900,68.3192299
3,ул Курбанулы (Данко),160500,40.7867032,68.3193612
1,ул Курбанулы (Данко),160501,40.7868484,68.3194870
41,ул Омаршаева (Правда),160500,40.7864331,68.3199942
39,ул Омаршаева (Правда),160500,40.7863255,68.3201122
36,Отепова (Чимкентская),160500,40.7860229,68.3198038
42,Отепова (Чимкентская),160500,40.7856733,68.3193318
24,ул Рыскулова (Алматинская),160500,40.7901231,68.3214185
26,ул Рыскулова (Алматинская),160500,40.7900581,68.3212522
28,ул Рыскулова (Алматинская),160500,40.7898780,68.3211310
62,ул Калыбекова (Маяковский),160500,40.7897965,68.3208916
62А,ул Калыбекова (Маяковский),160500,40.7899058,68.3207610
64,ул Калыбекова (Маяковский),160500,40.7900662,68.3206433
66,ул Калыбекова (Маяковский),160500,40.7903058,68.3204368
68,ул Калыбекова (Маяковский),160500,40.7905157,68.3201459
70,ул Калыбекова (Маяковский),160500,40.7906235,68.3199797
72,ул Калыбекова (Маяковский),160500,40.7907505,68.3198064
38,ул Рыскулова (Алматинская),160500,40.7891518,68.3201160
34,ул Рыскулова (Алматинская),160500,40.7894833,68.3204153
80,ул Омаршаева (Правда),160500,40.7886223,68.3178055
78,ул Омаршаева (Правда),160500,40.7885086,68.3179343
76,ул Омаршаева (Правда),160500,40.7884173,68.3181247
74,ул Омаршаева (Правда),160500,40.7883786,68.3184117
72,ул Омаршаева (Правда),160500,40.7881431,68.3184573
74,ул Калыбекова (Маяковский),160500,40.7909379,68.3194534
78,ул Калыбекова (Маяковский),160500,40.7912089,68.3191093
80,ул Калыбекова (Маяковский),160500,40.7913078,68.3189823
82,ул Калыбекова (Маяковский),160500,40.7914802,68.3189550
88,ул Калыбекова (Маяковский),160500,40.7917056,68.3184792
19,ул Ескендиров (Целинная),160500,40.7909707,68.3179529
77,ул Калыбекова (Маяковский),160500,40.7913037,68.3180814
75,ул Калыбекова (Маяковский),160500,40.7912277,68.3183099
23,ул Ескендиров (Целинная),160500,40.7902124,68.3170384
25,ул Ескендиров (Целинная),160500,40.7900439,68.3168480
27,ул Ескендиров (Целинная),160500,40.7899119,68.3166683
90,ул Омаршаева (Правда),160500,40.7892600,68.3168658
92,ул Омаршаева (Правда),160500,40.7893607,68.3167147
94,ул Омаршаева (Правда),160500,40.7894504,68.3166024
96,ул Омаршаева (Правда),160500,40.7895611,68.3164886
98,ул Омаршаева (Правда),160500,40.7896454,68.3163614
63,ул Омаршаева (Правда),160500,40.7894347,68.3160594
61А,ул Омаршаева (Правда),160500,40.7893007,68.3162606
59,ул Омаршаева (Правда),160500,40.7891118,68.3165234
57,ул Омаршаева (Правда),160500,40.7888887,68.3168082
60,ул Хусайнов (Шевченко),160500,40.7885823,68.3164546
62,ул Хусайнов (Шевченко),160500,40.7884645,68.3162977
64,ул Хусайнов (Шевченко),160500,40.7883292,68.3159979
66,ул Хусайнов (Шевченко),160500,40.7882065,68.3158644
68,ул Хусайнов (Шевченко),160500,40.7880593,68.3158203
94,ул Хусайнов (Шевченко),160500,40.7860979,68.3134949
92,ул Хусайнов (Шевченко),160500,40.7862056,68.3136202
86,ул Хусайнов (Шевченко),160500,40.7865953,68.3141145
84,ул Хусайнов (Шевченко),160500,40.7868120,68.3143388
82,ул Хусайнов (Шевченко),160500,40.7869470,68.3145001
80,ул Хусайнов (Шевченко),160500,40.7870480,68.3146333
76,ул Хусайнов (Шевченко),160500,40.7872559,68.3148559
70,ул Хусайнов (Шевченко),160500,40.7877725,68.3154912
72,ул Хусайнов (Шевченко),160500,40.7875907,68.3153030
74,ул Хусайнов (Шевченко),160500,40.7874153,68.3150581
2,ул Таттимбет,160500,40.7880212,68.3151797
55,ул Нарбаева,160500,40.7881288,68.3150536
57,ул Нарбаева,160500,40.7882568,68.3148470
37/1,ул Ескендиров (Целинная),160500,40.7879379,68.3147244
4,ул Таттимбет,160500,40.7877998,68.3149651
6,ул Таттимбет,160500,40.7876964,68.3148149
39/1,ул Ескендиров (Целинная),160500,40.7877115,68.3142448
8,ул Таттимбет,160500,40.7874506,68.3145520
41,ул Ескендиров (Целинная),160500,40.7876069,68.3141014
41/1,ул Ескендиров (Целинная),160500,40.7874566,68.3139646
43,ул Ескендиров (Целинная),160500,40.7872597,68.3137044
12,ул Таттимбет,160500,40.7871155,68.3141068
14,ул Таттимбет,160500,40.7869103,68.3139324
16,ул Таттимбет,160500,40.7867946,68.3137527
45,ул Ескендиров (Целинная),160500,40.7869174,68.3133604
45/1,ул Ескендиров (Целинная),160500,40.7867459,68.3131170
18,ул Таттимбет,160500,40.7866363,68.3135408
20,ул Таттимбет,160500,40.7864515,68.3132940
22,ул Таттимбет,160500,40.7862707,68.3131895
24,ул Таттимбет,160500,40.7861143,68.3129749
45/2,ул Ескендиров (Целинная),160500,40.7865469,68.3129775
47,ул Ескендиров (Целинная),160500,40.7864169,68.3128730
47/1,ул Ескендиров (Целинная),160500,40.7863134,68.3127013
47/2,ул Ескендиров (Целинная),160500,40.7861894,68.3125672
59,ул Хусайнов (Шевченко),160500,40.7858447,68.3138454
26,ул Акан сери,160500,40.7855026,68.3141317
24,ул Акан сери,160500,40.7857678,68.3144580
56,ул Хусайнов (Шевченко),160500,40.7860252,68.3140627
22,ул Акан сери,160500,40.7859620,68.3145654
18,ул Акан сери,160500,40.7862686,68.3149222
55,ул Хусайнов (Шевченко),160500,40.7861879,68.3143079
20,ул Акан сери,160500,40.7861386,68.3147827
51,ул Хусайнов (Шевченко),160500,40.7863924,68.3145631
16,ул Акан сери,160500,40.7864529,68.3151702
14,ул Акан сери,160500,40.7866260,68.3154264
12,ул Акан сери,160500,40.7868921,68.3157134
47,ул Хусайнов (Шевченко),160500,40.7869280,68.3152968
10,ул Акан сери,160500,40.7870932,68.3159226
45,ул Хусайнов (Шевченко),160500,40.7872680,68.3156178
43,ул Хусайнов (Шевченко),160500,40.7875030,68.3158926
39,ул Хусайнов (Шевченко),160500,40.7880131,68.3163491
37,ул Хусайнов (Шевченко),160500,40.7880964,68.3165556
35,ул Хусайнов (Шевченко),160500,40.7882771,68.3167568
33,ул Хусайнов (Шевченко),160500,40.7884314,68.3169499
31,ул Хусайнов (Шевченко),160500,40.7885512,68.3170867
2,Акан сери,160500,40.7881005,68.3172664
4,Акан сери,160500,40.7879644,68.3170706
6,Акан сери,160500,40.7877998,68.3168936
8,Акан сери,160500,40.7875724,68.3165797
1,Акан сери,160500,40.7881735,68.3178028
3,Акан сери,160500,40.7879461,68.3175400
5,Акан сери,160500,40.7877735,68.3173871
7,Акан сери,160500,40.7876252,68.3172181
9,Акан сери,160500,40.7875176,68.3170089
11,ул Акан сери,160500,40.7873856,68.3168453
60,ул Рыскулова (Алматинская),160500,40.7864675,68.3167107
58,ул Рыскулова (Алматинская),160500,40.7867542,68.3171224
13,ул Акан сери,160500,40.7870535,68.3164382
15,ул Акан сери,160500,40.7869348,68.3163062
17,ул Акан сери,160500,40.7868088,68.3161587
19,ул Акан сери,160500,40.7866606,68.3160218
21,ул Акан сери,160500,40.7865388,68.3158716
23,ул Акан сери,160500,40.7863966,68.3157107
25,ул Акан сери,160500,40.7862626,68.3154908
62,ул Рыскулова (Алматинская),160500,40.7862727,68.3165315
64,ул Рыскулова (Алматинская),160500,40.7861041,68.3162847
66,ул Рыскулова (Алматинская),160500,40.7859864,68.3161372
68,ул Рыскулова (Алматинская),160500,40.7858543,68.3159977
68/А,Рыскулова (Алматинская),160500,40.7857061,68.3158502
70,ул Рыскулова (Алматинская),160500,40.7856087,68.3157107
72,ул Рыскулова (Алматинская),160500,40.7854624,68.3155364
72/А,ул Рыскулова (Алматинская),160500,40.7853284,68.3153701
74,ул Рыскулова (Алматинская),160500,40.7851984,68.3152038
74/А,ул Рыскулова (Алматинская),160500,40.7850338,68.3149919
27,ул Акан сери,160500,40.7861325,68.3154130
29,ул Акан сери,160500,40.7859945,68.3152467
31,ул Акан сери,160500,40.7858401,68.3150884
33,ул Акан сери,160500,40.7856553,68.3148819
35,ул Акан сери,160500,40.7855009,68.3146781
37,ул Акан сери,160500,40.7853954,68.3145306
39,ул Акан сери,160500,40.7852735,68.3143954
2А,Отепова (Чимкентская),160500,40.7900452,68.3251528
2А,Отепова (Чимкентская),160500,40.7899097,68.3249573
4,Отепова (Чимкентская),160500,40.7897283,68.3246252
36,ул Жамбыла,160500,40.7898886,68.3245009
36А,ул Жамбыла,160500,40.7900451,68.3243183
38,ул Жамбыла,160500,40.7901792,68.3241758
38А,ул Жамбыла,160500,40.7903975,68.3239182
40,ул Жамбыла,160500,40.7905143,68.3238225
42А,ул Жамбыла,160500,40.7907834,68.3234799
44А,ул Жамбыла,160500,40.7909917,68.3233082
44,ул Жамбыла,160500,40.7909275,68.3234238
20,Бахтияров,160501,40.7855474,68.3025656
18,Бахтияров,160501,40.7858572,68.3026512
16,Бахтияров,160501,40.7861329,68.3029138
7,Ахшаева,160501,40.7862201,68.3025569
3,Ахшаева,160501,40.7864019,68.3017190
5,Ахшаева,160501,40.7863190,68.3020327
2,Ахшаева,160501,40.7874146,68.3029050
4,Ахшаева,160501,40.7871926,68.3027302
6,Ахшаева,160501,40.7870329,68.3026296
8,Ахшаева,160501,40.7868645,68.3025143
10,Ахшаева,160501,40.7867181,68.3022953
2,Бахтияров,160501,40.7874444,68.3036997
4,Бахтияров,160501,40.7872418,68.3035675
6,Бахтияров,160501,40.7870711,68.3034478
8,Бахтияров,160501,40.7868996,68.3033133
12,Бахтияров,160501,40.7865896,68.3031075
14,Бахтияров,160501,40.7864222,68.3029939
1/2,Новои,160501,40.7857772,68.3034531
21,Бахтияров,160501,40.7858695,68.3031263
3/2,Новои,160501,40.7863855,68.3038600
3/1,Новои,160501,40.7860604,68.3036539
17,Бахтияров,160501,40.7863165,68.3033296
13,Бахтияров,160501,40.7866248,68.3035297
9,Бахтияров,160501,40.7869302,68.3037691
1,Бахтияров,160501,40.7876087,68.3042246
5,Бахтияров,160501,40.7872827,68.3040035
5/1,Новои,160501,40.7867804,68.3041396
5/2,Новои,160501,40.7870281,68.3043301
7/1,Новои,160501,40.7873465,68.3044960
8/1,Новои,160501,40.7872031,68.3048676
6/2,Новои,160501,40.7868893,68.3046513
6/1,Новои,160501,40.7865580,68.3045206
4/2,Новои,160501,40.7862658,68.3042046
2/2,Новои,160501,40.7859435,68.3040181
2/1,Новои,160501,40.7856247,68.3037880
1Б,Новои,160501,40.7853093,68.3035676
1,Новои,160501,40.7850512,68.3033038
1/1,Новои,160501,40.7851597,68.3029365
1А,Новои,160501,40.7850312,68.3028663
81,ул Жаштаева,160500,40.7960684,68.3165987
83,ул Жаштаева,160500,40.7962610,68.3166074
85,ул Жаштаева,160500,40.7964289,68.3165606
79,ул Жаштаева,160500,40.7958194,68.3167006
75,ул Жаштаева,160500,40.7955292,68.3167150
79,ул Жаштаева,160500,40.7956966,68.3167134
73,ул Жаштаева,160500,40.7953630,68.3167839
71,ул Жаштаева,160500,40.7949099,68.3168610
69,ул Жаштаева,160500,40.7945094,68.3170821
63,ул Жаштаева,160500,40.7943599,68.3174566
61,ул Жаштаева,160500,40.7938136,68.3175815
55,ул Жаштаева,160500,40.7928719,68.3183133
53,Улица Жаштаева,160500,40.7926699,68.3186116
29А,ул Ескендиров (Целинная),160500,40.7892305,68.3159454
9,ул Ескендиров (Целинная),160500,40.7933744,68.3206591
7,ул Ескендиров (Целинная),160500,40.7935406,68.3208283
1,Ескендиров (Целинная),160500,40.7939799,68.3211389
13,ул Ескендиров (Целинная),160500,40.7928882,68.3199172
15,ул Ескендиров (Целинная),160500,40.7927849,68.3197548
2,Ахмет Яссауи,1600500,40.7685276,68.3485594
4,ул Ахмет Яссауи,1600500,40.7686532,68.3484362
8,ул Ахмет Яссауи,1600500,40.7689233,68.3482373
12,ул Ахмет Яссауи,1600500,40.7692009,68.3479782
10,ул Ахмет Яссауи,1600500,40.7690465,68.3481086
14,ул Ахмет Яссауи,1600500,40.7693340,68.3478130
16,ул Ахмет Яссауи,1600500,40.7694923,68.3476643
18,ул Ахмет Яссауи,1600500,40.7696143,68.3475145
20,ул Ахмет Яссауи,1600500,40.7697341,68.3473800
22,ул Ахмет Яссауи,1600500,40.7698925,68.3472232
24,ул Ахмет Яссауи,1600500,40.7701147,68.3472240
28,ул Ахмет Яссауи,1600500,40.7703854,68.3468897
46,ул Ахмет Яссауи,160500,40.7757792,68.3415657
48,ул Ахмет Яссауи,160500,40.7764042,68.3401139
52,ул Ахмет Яссауи,160500,40.7767547,68.3397714
60,ул Ахмет Яссауи,160500,40.7775932,68.3390612
62,ул Ахмет Яссауи,160500,40.7778438,68.3388384
66,ул Ахмет Яссауи,160500,40.7784810,68.3382772
70,ул Ахмет Яссауи,160500,40.7790364,68.3378129
72,ул Ахмет Яссауи,160500,40.7792627,68.3376292
74,ул Ахмет Яссауи,160500,40.7794117,68.3375109
76,ул Ахмет Яссауи,160500,40.7796954,68.3372576
1,Ондасынов,160500,40.7816874,68.3345850
2/1,Мусабаев (Жетысайская),160500,40.7799051,68.3365338
2/2,Мусабаев (Жетысайская),160500,40.7799657,68.3363705
5,Ондасынов,160500,40.7812797,68.3341670
2,Ондасынов,160500,40.7820301,68.3342488
4,Ондасынов,160500,40.7818920,68.3341549
6,Ондасынов,160500,40.7817688,68.3340656
8,Ондасынов,160500,40.7816205,68.3339570
10,Ондасынов,160500,40.7815011,68.3338867
12,Ондасынов,160500,40.7813537,68.3337827
14,Ондасынов,160500,40.7811355,68.3336158
56,Ажибекова,160500,40.7760020,68.3306680
58,Ажибекова,160500,40.7762619,68.3301833
60,Ажибекова,160500,40.7763240,68.3300282
60А,Ажибекова,160500,40.7764681,68.3296730
95,Ажибекова,160500,40.7757857,68.3304521
97,Ажибекова,160500,40.7759197,68.3300659
99,Ажибекова,160500,40.7760071,68.3298621
101,Ажибекова,160500,40.7760944,68.3296770
101,Ажибекова,160500,40.7762121,68.3294061
105,Ажибекова,160500,40.7762924,68.3291500
1,Жансугиров,160500,40.7762126,68.3283622
3А,Жансугиров,160500,40.7760677,68.3286717
15,Жансугиров,160500,40.7759599,68.3289295
11,Жансугиров,160500,40.7758071,68.3293020
7,Жансугиров,160500,40.7756970,68.3295946
5,Жансугиров,160500,40.7756156,68.3297975
3,Нурпейсова,160500,40.7754724,68.3299904
47,Улица Кан,160500,40.7749275,68.3317919
93,Ажибекова,160500,40.7756688,68.3307834
91,Ажибекова,160500,40.7754810,68.3311428
40,Улица Кан,160500,40.7747906,68.3310620
42,Улица Кан,160500,40.7745566,68.3309657
46,Улица Кан,160500,40.7744299,68.3308961
1,Нурпейсова,160500,40.7750839,68.3299948
5,Нурпейсова,160500,40.7752992,68.3296408
7,Нурпейсова,160500,40.7753622,68.3294745
9,Нурпейсова,160500,40.7754211,68.3292867
11,Нурпейсова,160500,40.7755328,68.3290869
13,Нурпейсова,160500,40.7756384,68.3287905
17,Нурпейсова,160500,40.7758060,68.3282192
114А,ул Амире Кашаубаева (Гагарина),160500,40.7756770,68.3274628
67,Абая,160500,40.7768630,68.3320230
54,Ажибекова,160500,40.7757156,68.3314687
54А,Ажибекова,160500,40.7758550,68.3312152
65,Абая,160500,40.7766608,68.3323804
20,Улица Кан,160500,40.7764755,68.3322742
22,Улица Кан,160500,40.7763650,68.3322008
24,Улица Кан,160500,40.7762078,68.3321432
30/А,Улица Кан,160500,40.7760659,68.3319874
30,Улица Кан,160500,40.7758737,68.3318695
32,Улица Кан,160500,40.7757333,68.3317709
34,Улица Кан,160500,40.7755880,68.3316617
63,Абая,160500,40.7764436,68.3328441
35,Улица Кан,160500,40.7762842,68.3327427
37,Улица Кан,160500,40.7761198,68.3326382
39,Улица Кан,160500,40.7759491,68.3325255
43,Улица Кан,160500,40.7757460,68.3323753
59,Абая,160500,40.7761053,68.3334157
4,сугир,160500,40.7759288,68.3333221
55,Байсейтова,160500,40.7759816,68.3329976
57,Байсейтова,160500,40.7757297,68.3327830
8,сугир,160500,40.7756323,68.3331558
10,сугир,160500,40.7754616,68.3330163
12,сугир,160500,40.7753438,68.3328822
59,Байсейтова,160500,40.7754951,68.3326475
45,Улица Кан,160500,40.7755683,68.3322707
50,Ажибекова,160500,40.7752210,68.3327441
52,Ажибекова,160500,40.7753591,68.3321795
2,Айдаров,160500,40.7749397,68.3343775
17,Мусирепов,160500,40.7752667,68.3346806
19,Мусирепов,160500,40.7751133,68.3344433
4,Айдаров,160500,40.7748564,68.3346847
6,Айдаров,160500,40.7747995,68.3348214
8,Айдаров,160500,40.7747263,68.3349743
10,Айдаров,160500,40.7746593,68.3350951
12,Айдаров,160500,40.7745944,68.3352667
14,Айдаров,160500,40.7745518,68.3354142
16,Айдаров,160500,40.7744846,68.3355430
18,Айдаров,160500,40.7744257,68.3356959
20,Айдаров,160500,40.7743222,68.3358514
37,Абая,160500,40.7745244,68.3362487
39,Абая,160500,40.7746700,68.3360386
41,Абая,160500,40.7747351,68.3359004
43,Абая,160500,40.7748568,68.3357213
45,Абая,160500,40.7749558,68.3355650
47,Абая,160500,40.7750318,68.3354272
49,Абая,160500,40.7751326,68.3352933
51,Абая,160500,40.7752234,68.3351423
53,Абая,160500,40.7753343,68.3349177
55,Абая,160500,40.7754252,68.3347196
54,Мусирепов,160500,40.7753601,68.3340973
52,Мусирепов,160500,40.7755186,68.3342528
50,мусирепов,160500,40.7756363,68.3343253
46,Нурбеков,160500,40.7755846,68.3338217
44,Нурбеков,160500,40.7757669,68.3339704
57,Абая,160500,40.7759530,68.3337412
3,сугир,160500,40.7758049,68.3336896
5,сугир,160500,40.7756425,68.3335367
48,Нурбеков,160500,40.7753576,68.3336681
7,сугир,160500,40.7754555,68.3334347
9,сугир,160500,40.7753236,68.3333275
48,Ажибекова,160500,40.7750413,68.3331075
50,Нурбеков,160500,40.7750772,68.3334421
44,Ажибекова,160500,40.7748929,68.3333248
56,Мусирепов,160500,40.7750799,68.3340061
58,Мусирепов,160500,40.7749072,68.3338827
44,Ажибекова,160500,40.7747467,68.3337540
21,Мусирепов,160500,40.7747243,68.3342448
42,Ажибекова,160500,40.7745842,68.3341268
36,Ажибекова,160500,40.7742958,68.3347517
34,Ажибекова,160500,40.7742246,68.3348912
32,Ажибекова,160500,40.7741354,68.3351085
30,Ажибекова,160500,40.7740521,68.3352747
28,Ажибекова,160500,40.7739769,68.3354786
26,Ажибекова,160500,40.7738306,68.3357736
47,Ажибекова,160500,40.7735158,68.3356181
49,Ажибекова,160500,40.7735249,68.3354370
51,Ажибекова,160500,40.7736580,68.3352613
55,Ажибекова,160500,40.7737981,68.3348939
57,Ажибекова,160500,40.7738530,68.3347651
59,Ажибекова,160500,40.7739627,68.3345412
27,Мусирепов,160500,40.7735849,68.3335286
25,Мусирепов,160500,40.7740043,68.3338438
60,Мусирепов,160500,40.7742521,68.3333423
4,Маргулан,160500,40.7743323,68.3331156
73,Ажибекова,160500,40.7745822,68.3331075
75,Ажибекова,160500,40.7746674,68.3329573
77,Ажибекова,160500,40.7747345,68.3328232
8,Маргулан,160500,40.7745802,68.3325335
79,Ажибекова,160500,40.7748564,68.3325389
81,Ажибекова,160500,40.7749133,68.3323941
85,Ажибекова,160500,40.7749863,68.3322466
89,Ажибекова,160500,40.7751144,68.3319140
66,Мусирепов,160500,40.7736660,68.3330485
64,Мусирепов,160500,40.7738814,68.3332121
62,Мусирепов,160500,40.7740602,68.3332684
3,Маргулан,160500,40.7741110,68.3330217
5,Маргулан,160500,40.7741982,68.3328715
7,Маргулан,160500,40.7742226,68.3326864
9,Маргулан,160500,40.7743222,68.3325899
11,Маргулан,160500,40.7743485,68.3324236
13,Маргулан,160500,40.7744440,68.3322948
15,Маргулан,160500,40.7745354,68.3321151
17,Маргулан,160500,40.7745740,68.3319059
51,Улица Кан,160500,40.7745273,68.3315277
68,Мусирепов,160500,40.7733228,68.3328447
31,Мусирепов,160500,40.7732138,68.3331931
33,Мусирепов,160500,40.7727191,68.3328882
74,Мусирепов,160500,40.7727520,68.3324719
94,ул Кожанова,160500,40.7734061,68.3307391
96,ул Кожанова,160500,40.7735960,68.3303851
Б/Н,ул Мухтар Ауезова,160500,40.7752469,68.3260030
69,Абая,160500,40.7770445,68.3316554
23,ул Аралбаев,160500,40.7782092,68.3340878
11,Улица Кан,160500,40.7780597,68.3338613
13,Улица Кан,160500,40.7779416,68.3337744
15,Улица Кан,160500,40.7778311,68.3336986
17,Улица Кан,160500,40.7777037,68.3336166
21,Улица Кан,160500,40.7773765,68.3334080
23,Улица Кан,160500,40.7771575,68.3334983
25,Улица Кан,160500,40.7770479,68.3331958
27/А,Улица Кан,160500,40.7768892,68.3330959
16,Байсейтова,160500,40.7767537,68.3333887
18,Байсейтова,160500,40.7766234,68.3332606
16/1,Байсейтова,160500,40.7770141,68.3336759
14,Байсейтова,160500,40.7774321,68.3340860
14А,Байсейтова,160500,40.7773053,68.3339452
12/2,Байсейтова,160500,40.7776229,68.3342314
12/2,Байсейтова,160500,40.7778027,68.3344667
12/1,Байсейтова,160500,40.7779994,68.3346762
21,ул Аралбаев,160500,40.7781653,68.3343240
8,Байсейтова,160500,40.7788515,68.3355866
10,Байсейтова,160500,40.7787012,68.3354404
12,Байсейтова,160500,40.7782849,68.3349546
14,ул Аралбаев,160500,40.7783625,68.3347407
16,ул Аралбаев,160500,40.7784365,68.3344022
18,ул Аралбаев,160500,40.7785508,68.3341607
9,Улица Кан,160500,40.7786888,68.3342529
7/А,Улица Кан,160500,40.7789063,68.3344295
5,Улица Кан,160500,40.7792253,68.3346247
7,Улица Кан,160500,40.7791011,68.3345075
3/А,Улица Кан,160500,40.7794066,68.3347714
3,Улица Кан,160500,40.7796023,68.3348950
5,Сабит Муханов,160500,40.7797497,68.3351313
3,Сабит Муханов,160500,40.7796814,68.3352997
1,Сабит Муханов,160500,40.7795876,68.3356036
4,Байсейтова,160500,40.7790840,68.3358722
2А,Байсейтова,160500,40.7792259,68.3360399
2,Байсейтова,160500,40.7795971,68.3364628
6,Сабит Муханов,160500,40.7801359,68.3351292
8,Сабит Муханов,160500,40.7801054,68.3348551
10,Сабит Муханов,160500,40.7802310,68.3345044
12,Сабит Муханов,160500,40.7803509,68.3341641
18,Сабит Муханов,160500,40.7808405,68.3331377
16,Ондасынов,160500,40.7807240,68.3333630
18,Ондасынов,160500,40.7804412,68.3331270
23,Сабит Муханов,160500,40.7805887,68.3329904
20,Сабит Муханов,160500,40.7809176,68.3329369
25,Сабит Муханов,160500,40.7806624,68.3328570
27,Сабит Муханов,160500,40.7807371,68.3326754
29,Сабит Муханов,160500,40.7807924,68.3325296
31,Сабит Муханов,160500,40.7808413,68.3323411
22,Сабит Муханов,160500,40.7810279,68.3327203
24,Сабит Муханов,160500,40.7810692,68.3324044
20,Ондасынов,160500,40.7796671,68.3326127
22,Ондасынов,160500,40.7793451,68.3323874
34,ул Аралбаев,160500,40.7794149,68.3321878
36,ул Аралбаев,160500,40.7794799,68.3320207
38,ул Аралбаев,160500,40.7795500,68.3318537
40,ул Аралбаев,160500,40.7796943,68.3314344
42,ул Аралбаев,160500,40.7797869,68.3311968
54,Мухтар Ауезова,160500,40.7798292,68.3309440
26/А,Ондасынов,160500,40.7787878,68.3319940
26,Ондасынов,160500,40.7790243,68.3321625
37,ул Аралбаев,160500,40.7791125,68.3319745
41,ул Аралбаев,160500,40.7792317,68.3316365
39,ул Аралбаев,160500,40.7791710,68.3318088
43,ул Аралбаев,160500,40.7792615,68.3314530
47,ул Аралбаев,160500,40.7794570,68.3311413
51,ул Аралбаев,160500,40.7795281,68.3309850
53,ул Аралбаев,160500,40.7795713,68.3308150
28,Ондасынов,160500,40.7784567,68.3317816
16,ул Суинбай,160500,40.7784865,68.3315010
18,ул Суинбай,160500,40.7785664,68.3312916
20,ул Суинбай,160500,40.7787345,68.3311699
22,ул Суинбай,160500,40.7787850,68.3309905
36,Мухтар Ауезова,160500,40.7790502,68.3306023
23,ул Суинбай,160500,40.7784544,68.3308924
30,Ондасынов,160500,40.7781578,68.3315731
19,ул Суинбай,160500,40.7782502,68.3314087
21,ул Суинбай,160500,40.7782506,68.3312294
2,Нурбеков,160500,40.7789368,68.3370603
2,Мусирепов,160500,40.7785906,68.3374889
4,Мусирепов,160500,40.7785550,68.3372784
8,Мусирепов,160500,40.7783825,68.3371657
10,Мусирепов,160500,40.7782788,68.3370933
12,Мусирепов,160500,40.7782240,68.3369592
14,Мусирепов,160500,40.7781144,68.3368707
16,Мусирепов,160500,40.7779945,68.3367741
18,Мусирепов,160500,40.7779173,68.3366775
22,Мусирепов,160500,40.7776857,68.3364522
26,Мусирепов,160500,40.7774644,68.3361787
24,Мусирепов,160500,40.7775842,68.3363798
1/1,Нурбеков,160500,40.7786221,68.3368733
3,Нурбеков,160500,40.7785104,68.3367312
5,Нурбеков,160500,40.7783966,68.3366159
7,Нурбеков,160500,40.7782098,68.3364201
9,Нурбеков,160500,40.7781144,68.3363155
11,Нурбеков,160500,40.7780127,68.3362055
15,Нурбеков,160500,40.7778178,68.3360150
17,Нурбеков,160500,40.7776918,68.3358541
1,Байсейтова,160500,40.7793593,68.3367526
3,Байсейтова,160500,40.7792314,68.3366293
5,Байсейтова,160500,40.7791237,68.3364791
7,Байсейтова,160500,40.7790365,68.3363691
7А,Байсейтова,160500,40.7789126,68.3361661
9,Байсейтова,160500,40.7788232,68.3360478
11,Байсейтова,160500,40.7787115,68.3359587
13,Байсейтова,160500,40.7785977,68.3357844
15,Байсейтова,160500,40.7784961,68.3356959
17,Байсейтова,160500,40.7784027,68.3355966
19,Байсейтова,160500,40.7782992,68.3354866
2А,Нурбеков,160500,40.7788739,68.3367768
4,Нурбеков,160500,40.7787663,68.3365998
6,Нурбеков,160500,40.7786282,68.3364496
8,Нурбеков,160500,40.7784900,68.3363369
10,Нурбеков,160500,40.7783682,68.3361572
12,Нурбеков,160500,40.7782707,68.3360633
14,Нурбеков,160500,40.7781630,68.3359614
16,Нурбеков,160500,40.7780696,68.3358648
18,Нурбеков,160500,40.7779641,68.3357522
20,Нурбеков,160500,40.7778278,68.3356313
21,Байсейтова,160500,40.7781669,68.3353687
23,Байсейтова,160500,40.7780521,68.3352473
55,ул Ахмет Яссауи,160500,40.7773804,68.3384277
57,ул Ахмет Яссауи,160500,40.7775269,68.3382556
59,ул Ахмет Яссауи,160500,40.7776674,68.3381462
1,Мусирепов,160500,40.7779975,68.3372485
2,Аралбаев,160500,40.7767472,68.3376154
4,ул Аралбаев,160500,40.7768590,68.3374926
8,ул Аралбаев,160500,40.7770758,68.3371090
10,ул Аралбаев,160500,40.7772134,68.3369074
13,Мусирепов,160500,40.7773502,68.3366539
1,Аралбаев,160500,40.7764342,68.3372524
3,Аралбаев,160500,40.7765990,68.3370027
5,ул Аралбаев,160500,40.7766537,68.3368188
7,ул Аралбаев,160500,40.7767126,68.3366460
11,ул Аралбаев,160500,40.7768887,68.3365675
13,ул Аралбаев,160500,40.7769721,68.3364399
13,Мусирепов,160500,40.7767530,68.3360013
13/1,туп Мусрепова,160500,40.7759553,68.3360562
6/1,Абая,160500,40.7748737,68.3365349
6/4,Абая,160500,40.7750426,68.3363268
8,Абая,160500,40.7751153,68.3360856
10,Абая,160500,40.7752034,68.3359188
13/3,Мусирепов,160500,40.7756958,68.3351050
12,Абая,160500,40.7752901,68.3357463
14,Абая,160500,40.7753781,68.3355698
16,Абая,160500,40.7754906,68.3353798
12,туп Мусрепова,160500,40.7757230,68.3354669
13А,Мусирепов,160500,40.7762372,68.3356726
42,Мусирепов,160500,40.7762469,68.3350853
40,Мусирепов,160500,40.7763349,68.3352242
38,Мусирепов,160500,40.7764480,68.3352869
36,Мусирепов,160500,40.7765606,68.3353622
34,Мусирепов,160500,40.7766678,68.3354873
32,Мусирепов,160500,40.7767579,68.3356090
30,Мусирепов,160500,40.7768808,68.3357403
28,Мусирепов,160500,40.7772646,68.3360230
30А,Мусирепов,160500,40.7771927,68.3358199
19,Нурбеков,160500,40.7772945,68.3355079
21,Нурбеков,160500,40.7771013,68.3353338
23,Нурбеков,160500,40.7769838,68.3352102
25,Нурбеков,160500,40.7768764,68.3350894
27,Нурбеков,160500,40.7767593,68.3350080
29,Нурбеков,160500,40.7766651,68.3349501
31,Нурбеков,160500,40.7765549,68.3348436
33,Нурбеков,160500,40.7764365,68.3347217
35,Нурбеков,160500,40.7763404,68.3345923
44,Мусирепов,160500,40.7761069,68.3350305
48,Мусирепов,160500,40.7758937,68.3348361
24,Абая,160500,40.7759312,68.3344394
37,Нурбеков,160500,40.7761718,68.3344656
42,Нурбеков,160500,40.7761479,68.3341232
30,Абая,160500,40.7763251,68.3337931
38,Нурбеков,160500,40.7764063,68.3343184
36,Нурбеков,160500,40.7765992,68.3343388
32,Нурбеков,160500,40.7768379,68.3346287
30,Нурбеков,160500,40.7769411,68.3347445
28,Нурбеков,160500,40.7770489,68.3348510
26,Нурбеков,160500,40.7771666,68.3349696
24,Нурбеков,160500,40.7772942,68.3350630
22,Нурбеков,160500,40.7774582,68.3352594
29,Байсейтова,160500,40.7778254,68.3350450
31,Байсейтова,160500,40.7777148,68.3349123
33,Байсейтова,160500,40.7775643,68.3348733
35,Байсейтова,160500,40.7774915,68.3347074
37,Байсейтова,160500,40.7774093,68.3345689
39,Байсейтова,160500,40.7772813,68.3344563
41,Байсейтова,160500,40.7771704,68.3343249
43,Байсейтова,160500,40.7770537,68.3342171
45,Байсейтова,160500,40.7769558,68.3341195
47,Байсейтова,160500,40.7768630,68.3339710
49,Байсейтова,160500,40.7767338,68.3338256
51,Байсейтова,160500,40.7764968,68.3335959
15,ул Суинбай,160500,40.7779899,68.3321052
13,ул Суинбай,160500,40.7779136,68.3322606
11,ул Суинбай,160500,40.7778815,68.3324284
7,ул Суинбай,160500,40.7778282,68.3325835
5,ул Суинбай,160500,40.7777294,68.3327355
3,ул Суинбай,160500,40.7776821,68.3329187
1,ул Суинбай,160500,40.7776382,68.3331206
18,Улица Кан,160500,40.7772517,68.3328753
21,Ондасынов,160500,40.7777387,68.3317186
36,Абая,160500,40.7769800,68.3324115
38,Абая,160500,40.7770951,68.3322885
40,Абая,160500,40.7771467,68.3321376
42,Абая,160500,40.7772081,68.3319766
44,Абая,160500,40.7772872,68.3317982
48,Абая,160500,40.7774296,68.3314930
7,Сабит Муханов,160500,40.7799103,68.3347066
9,Сабит Муханов,160500,40.7799660,68.3345159
11,Сабит Муханов,160500,40.7800261,68.3343609
13,Сабит Муханов,160500,40.7800898,68.3341493
15,Сабит Муханов,160500,40.7801604,68.3339897
17,Сабит Муханов,160500,40.7802504,68.3338053
19,Сабит Муханов,160500,40.7803026,68.3336834
21,Сабит Муханов,160500,40.7803787,68.3335150
8/А,Ондасынов,160500,40.7800298,68.3332567
20,ул Аралбаев,160500,40.7786923,68.3338773
22,ул Аралбаев,160500,40.7787876,68.3336581
24,ул Аралбаев,160500,40.7788569,68.3334918
26,ул Аралбаев,160500,40.7789174,68.3333485
28,ул Аралбаев,160500,40.7789817,68.3331796
30,ул Аралбаев,160500,40.7790501,68.3330265
32,ул Аралбаев,160500,40.7791071,68.3328891
13,Ондасынов,160500,40.7792199,68.3327097
25,ул Аралбаев,160500,40.7784629,68.3334819
27,ул Аралбаев,160500,40.7785545,68.3332896
29,ул Аралбаев,160500,40.7786191,68.3331444
31,ул Аралбаев,160500,40.7787132,68.3330175
33,ул Аралбаев,160500,40.7787251,68.3328541
35,ул Аралбаев,160500,40.7788161,68.3327006
15,Ондасынов,160500,40.7788364,68.3324640
4/2,Кан переулок,160500,40.7782193,68.3332214
6/2,Кан переулок,160500,40.7783315,68.3328772
8/2,Кан переулок,160500,40.7784324,68.3326216
10,Кан переулок,160500,40.7784847,68.3324756
17,Ондасынов,160500,40.7785671,68.3323007
14,Ондасынов,160500,40.7783074,68.3320671
12,ул Суинбай,160500,40.7782128,68.3322898
6,ул Суинбай,160500,40.7780515,68.3328846
4,ул Суинбай,160500,40.7779318,68.3330761
2,ул Суинбай,160500,40.7778313,68.3333445
44,Айдаров,160500,40.7727643,68.3389145
42,Айдаров,160500,40.7729186,68.3386704
40,Айдаров,160500,40.7730913,68.3382761
38,Айдаров,160500,40.7731644,68.3380777
36,Айдаров,160500,40.7732599,68.3378953
34,Айдаров,160500,40.7733472,68.3377450
32,Айдаров,160500,40.7734244,68.3375707
30,Айдаров,160500,40.7735516,68.3372372
28,Айдаров,160500,40.7736190,68.3371159
26,Айдаров,160500,40.7736587,68.3369664
24,Айдаров,160500,40.7737188,68.3368173
29,Амангелди,160500,40.7740410,68.3370608
22,Айдаров,160500,40.7737992,68.3366643
23,Улица Абая,160500,40.7737865,68.3374764
21,Улица Абая,160500,40.7737443,68.3376868
19,Улица Абая,160500,40.7736536,68.3378478
17,Улица Абая,160500,40.7735861,68.3379785
15,Улица Абая,160500,40.7735060,68.3381211
13,Улица Абая,160500,40.7734223,68.3382577
11,Улица Абая,160500,40.7733705,68.3384434
9,Улица Абая,160500,40.7733181,68.3385487
7,Улица Абая,160500,40.7732535,68.3386665
5,Улица Абая,160500,40.7731994,68.3388195
3,Улица Абая,160500,40.7731396,68.3389323
19,Ажибекова,160500,40.7725356,68.3385897
2Б,Ажибекова,160500,40.7724072,68.3388700
4,Ажибекова,160500,40.7726200,68.3384574
4А,Ажибекова,160500,40.7727065,68.3382583
6А,Ажибекова,160500,40.7727923,68.3381282
6,Айдаров,160500,40.7728996,68.3379657
10,Ажибекова,160500,40.7729451,68.3377321
12,Ажибекова,160500,40.7730957,68.3374108
14,Ажибекова,160500,40.7732185,68.3372456
16,Ажибекова,160500,40.7732592,68.3370577
18,Ажибекова,160500,40.7733523,68.3368737
22,Ажибекова,160500,40.7735367,68.3364293
24,Ажибекова,160500,40.7737038,68.3362641
39,Ажибекова,160500,40.7731937,68.3364057
37,Ажибекова,160500,40.7730651,68.3367144
35,Ажибекова,160500,40.7729785,68.3368757
33,Ажибекова,160500,40.7729229,68.3370410
31,Ажибекова,160500,40.7728271,68.3371844
29,Ажибекова,160500,40.7727365,68.3374012
27А,Ажибекова,160500,40.7725913,68.3374605
27,Ажибекова,160500,40.7726036,68.3376747
21,Ажибекова,160500,40.7724005,68.3377749
21,Ажибекова,160500,40.7724009,68.3380736
15,Ажибекова,160500,40.7722259,68.3383539
13,Ажибекова,160500,40.7720980,68.3385659
11,Ажибекова,160500,40.7720411,68.3387751
11А,Ажибекова,160500,40.7719395,68.3389547
9,Ажибекова,160500,40.7718136,68.3392525
7,Ажибекова,160500,40.7717161,68.3394644
3,ул Амире Кашаубаева (Гагарина),160500,40.7710316,68.3386919
1,ул Амире Кашаубаева (Гагарина),160500,40.7709320,68.3389092
2,ул Байтурсынова (Садовая),160500,40.7712021,68.3405050
5,Ажибекова,160500,40.7715902,68.3398479
13/3,Сатпаев,160501,40.7660034,68.3403495
16,ул Бауыржан Момышулы,160501,40.7666102,68.3388756
24,ул Бауыржан Момышулы,160500,40.7678215,68.3356832
26,ул Бауыржан Момышулы,160500,40.7679280,68.3353694
28,ул Бауыржан Момышулы,160500,40.7680108,68.3349918
30,ул Бауыржан Момышулы,160500,40.7682774,68.3342457
39,ул Амангелди,160500,40.7686202,68.3333722
37,ул Амангелди,160500,40.7689099,68.3336049
35,ул Амангелди,160500,40.7692235,68.3337315
33,ул Амангелди,160500,40.7695042,68.3339144
31,ул Амангелди,160500,40.7696878,68.3341963
36,ул Тауке Хана,160500,40.7551899,68.3136644
34,ул Тауке Хана,160500,40.7553195,68.3133960
35,ул Касым Хан,160501,40.7549351,68.3127909
32,ул Тауке Хана,160500,40.7553602,68.3130681
30,ул Тауке Хана,160500,40.7554924,68.3128021
33,ул Касым Хан,160501,40.7550372,68.3125151
31,ул Касым Хан,160501,40.7551228,68.3122769
29,ул Касым Хан,160501,40.7552155,68.3119668
27,ул Касым Хан,160501,40.7554753,68.3112931
23,ул Касым Хан,160501,40.7557125,68.3107258
18,ул Тауке Хана,160500,40.7561837,68.3109686
21,ул Касым Хан,160501,40.7558134,68.3103915
26,ул Тауке Хана,160500,40.7562988,68.3107009
14,ул Тауке Хана,160500,40.7563765,68.3103689
12,ул Тауке Хана,160500,40.7564876,68.3100936
17,ул Касым Хан,160501,40.7561232,68.3098705
15,ул Касым Хан,160501,40.7562252,68.3095644
10,ул Тауке Хана,160500,40.7565989,68.3098085
13,ул Касым Хан,160501,40.7563436,68.3091205
2,ул Тауке Хана,160500,40.7570324,68.3086404
4,ул Тауке Хана,160500,40.7569822,68.3088908
9,ул Касым Хан,160501,40.7565297,68.3085558
7,ул Касым Хан,160501,40.7566300,68.3083111
3,ул Касым Хан,160501,40.7569881,68.3075003
4,ул Касым Хан,160501,40.7567619,68.3072735
5,ул Толеген Айбергенов,160500,40.7561926,68.3072390
8,ул Касым Хан,160501,40.7565328,68.3077995
9,ул Толеген Айбергенов,160500,40.7561058,68.3080423
13,ул Толеген Айбергенов,160500,40.7558844,68.3083534
18,ул Касым Хан,160501,40.7557682,68.3097400
17,ул Толеген Айбергенов,160500,40.7557016,68.3087424
15,ул Толеген Айбергенов,160500,40.7557422,68.3085036
12,ул Касым Хан,160501,40.7561273,68.3087122
14,ул Касым Хан,160501,40.7560083,68.3089918
16,ул Касым Хан,160501,40.7558967,68.3093999
21,ул Толеген Айбергенов,160523,40.7554151,68.3097992
20,ул Касым Хан,160501,40.7556757,68.3100249
22,ул Касым Хан,160501,40.7555715,68.3103410
23,ул Толеген Айбергенов,160500,40.7552668,68.3101317
24,ул Касым Хан,160501,40.7554896,68.3105726
25,ул Толеген Айбергенов,160500,40.7551976,68.3103704
26,ул Касым Хан,160501,40.7553744,68.3109176
28,ул Касым Хан,160501,40.7552200,68.3111778
32,ул Касым Хан,160500,40.7550119,68.3118145
31,ул Толеген Айбергенов,160500,40.7548522,68.3113039
34,ул Толеген Айбергенов,160500,40.7546004,68.3106279
36,ул Толеген Айбергенов,160500,40.7544337,68.3110249
30,ул Богенбай Батыр,160523,40.7542387,68.3103919
27,ул Богенбай Батыр,160523,40.7542952,68.3101111
32,ул Толеген Айбергенов,160500,40.7546856,68.3104187
30,ул Толеген Айбергенов,160500,40.7547710,68.3100647
25,ул Богенбай Батыр,160523,40.7543829,68.3098653
23,ул Богенбай Батыр,160523,40.7544743,68.3096069
28,ул Толеген Айбергенов,160500,40.7549376,68.3098179
26,ул Толеген Айбергенов,160500,40.7549295,68.3094531
15,ул Богенбай Батыр,160523,40.7549782,68.3082812
19,ул Богенбай Батыр,160523,40.7547098,68.3089706
7,ул Богенбай Батыр,160523,40.7554070,68.3071733
11,ул Богенбай Батыр,160523,40.7551529,68.3077848
9,ул Богенбай Батыр,160523,40.7552830,68.3074468
3,ул Богенбай Батыр,160523,40.7556022,68.3065951
5,ул Богенбай Батыр,160523,40.7555106,68.3068046
22,ул Толеген Айбергенов,160500,40.7552505,68.3089489
20,ул Толеген Айбергенов,160500,40.7554009,68.3086163
18,ул Толеген Айбергенов,160500,40.7554943,68.3083641
16,ул Толеген Айбергенов,160500,40.7555715,68.3081710
14,ул Толеген Айбергенов,160500,40.7556488,68.3079457
12,ул Толеген Айбергенов,160500,40.7557300,68.3077311
10,ул Толеген Айбергенов,160500,40.7558276,68.3074790
8,ул Толеген Айбергенов,160500,40.7559169,68.3072537
4,ул Толеген Айбергенов,160500,40.7560800,68.3068258
2,ул Толеген Айбергенов,160500,40.7561900,68.3065462
5,ул Ахмет Яссауи,160500,40.7758136,68.3400085
4,улица Абая,160500,40.7744944,68.3370032
2,улица Абая,160500,40.7744623,68.3374347
3А,Л. Токбергенов,160501,40.7685155,68.3306330
24А,Л. Токбергенов,160501,40.7691773,68.3304581
41,ул Амангелди,160501,40.7682183,68.3328438
19А,Улица Жамбыла,160501,40.7886423,68.3250871
3,Улица Танатова (Пахтаральская),160500,40.7784130,68.3242824
1А,Улица Рудаки,160500,40.7562197,68.3182091
81А,Улица Рудаки,160500,40.7549920,68.3172749
3,ул Конаева,160500,40.7604947,68.3102496
5,ул Конаева,160500,40.7603977,68.3105290
1,ул Конаева,160500,40.7605868,68.3100337
4,ул Конаева,160500,40.7602794,68.3097134
6,ул Конаева,160500,40.7601413,68.3099908
8,ул Конаева,160500,40.7602169,68.3102646
50,ул Ахмет Яссауи,160500,40.7765512,68.3399898
1,ул Жанибекова,160500,40.7597608,68.3088968
3,ул Жанибекова,160500,40.7596463,68.3091623
1,ул Калдаякова,160500,40.7594699,68.3086967
3,ул Калдаякова,160500,40.7592812,68.3089418
2,ул Калдаякова,160500,40.7591414,68.3085088
6,ул Калдаякова,160500,40.7589163,68.3090029
4,ул Калдаякова,160500,40.7590196,68.3087772
1,ул Мустафа Озтурик,160523,40.7586809,68.3082064
2,ул Мустафа Озтурик,160523,40.7582222,68.3079273
4,ул Мустафа Озтурик,160523,40.7580849,68.3082265
6,ул Мустафа Озтурик,160523,40.7578952,68.3085675
8,ул Мустафа Озтурик,160523,40.7578048,68.3090489
3,ул Тауке Хана,160500,40.7577339,68.3078632
1,ул Тауке Хана,160500,40.7577804,68.3075772
5,ул Тауке Хана,160500,40.7575204,68.3083658
11,ул Мустафа Озтурик,160523,40.7581238,68.3096140
7,ул Мустафа Озтурик,160523,40.7583100,68.3091078
5,ул Мустафа Озтурик,160523,40.7584272,68.3088403
10,ул Калдаякова,160500,40.7586933,68.3096234
12,ул Калдаякова,160500,40.7585780,68.3098990
14,ул Калдаякова,160500,40.7584588,68.3102039
11,ул Калдаякова,160500,40.7585944,68.3107246
9,ул Калдаякова,160500,40.7587526,68.3103608
7,ул Калдаякова,160500,40.7589006,68.3098936
5,ул Калдаякова,160500,40.7592193,68.3092726
9,ул Жанибекова,160500,40.7592657,68.3104043
11,ул Жанибекова,160500,40.7591604,68.3106085
13,ул Жанибекова,160500,40.7590893,68.3109273
15,ул Жанибекова,160500,40.7588356,68.3113970
17,ул Жанибекова,160500,40.7587767,68.3116871
19,ул Жанибекова,160500,40.7586778,68.3118791
21,ул Жанибекова,160500,40.7586096,68.3122018
23,ул Жанибекова,160500,40.7584890,68.3124062
25,ул Жанибекова,160500,40.7583343,68.3127983
27,ул Жанибекова,160500,40.7582321,68.3130556
19,ул Калдаякова,160500,40.7577762,68.3128473
13,ул Калдаякова,160500,40.7584751,68.3110407
18,ул Калдаякова,160500,40.7575970,68.3122813
1,ул Акын Сара,160500,40.7573907,68.3121247
3,ул Акын Сара,160500,40.7571566,68.3119949
5,ул Акын Сара,160500,40.7569098,68.3118876
7,ул Акын Сара,160500,40.7567046,68.3117546
15,ул Тауке Хана,160500,40.7563381,68.3115059
20,ул Калдаякова,160500,40.7574243,68.3128659
2,ул Байтереков,160500,40.7571428,68.3127533
4,ул Байтереков,160500,40.7569232,68.3125900
6,ул Байтереков,160500,40.7567468,68.3124306
10,ул Байтереков,160500,40.7564867,68.3122386
17,ул Тауке Хана,160500,40.7561185,68.3120833
22,ул Калдаякова,160500,40.7572773,68.3132950
1,ул Байтереков,160500,40.7570562,68.3132028
3,ул Байтереков,160500,40.7568395,68.3130924
5,ул Байтереков,160500,40.7566415,68.3128718
7,ул Байтереков,160500,40.7563691,68.3127492
9,ул Байтереков,160500,40.7561432,68.3125859
24,ул Калдаякова,160500,40.7570756,68.3138248
2,ул Бокеев,160500,40.7568003,68.3137076
4,ул Бокеев,160500,40.7565845,68.3135723
6,ул Бокеев,160500,40.7563856,68.3134423
8,ул Бокеев,160500,40.7561624,68.3133170
21,ул Тауке Хана,160500,40.7558094,68.3128440
26,ул Калдаякова,160500,40.7569209,68.3141933
1,ул Бокеев,160500,40.7567251,68.3140444
3,ул Бокеев,160500,40.7564836,68.3139137
5,ул Бокеев,160500,40.7562331,68.3137665
7,ул Бокеев,160500,40.7560567,68.3136358
9,ул Бокеев,160500,40.7558834,68.3135377
23,ул Тауке Хана,160500,40.7555799,68.3133529
28,ул Калдаякова,160500,40.7566920,68.3148025
27,ул Тауке Хана,160500,40.7553508,68.3138974
30,ул Калдаякова,160500,40.7566188,68.3151202
32,ул Калдаякова,160500,40.7563505,68.3156930
34,ул Калдаякова,160500,40.7562227,68.3160056
36,ул Калдаякова,160500,40.7560577,68.3165634
37,ул Тауке Хана,160500,40.7546303,68.3157212
55,ул Жанибекова,160500,40.7567635,68.3170001
53,ул Жанибекова,160500,40.7568640,68.3167438
51,ул Жанибекова,160500,40.7569642,68.3164816
49,ул Жанибекова,160500,40.7570659,68.3162152
47,ул Жанибекова,160500,40.7571765,68.3159184
45,ул Жанибекова,160500,40.7573137,68.3155792
35,ул Калдаякова,160500,40.7568579,68.3152741
37,ул Калдаякова,160500,40.7567253,68.3155941
39,ул Калдаякова,160500,40.7566245,68.3158360
41,ул Калдаякова,160500,40.7565297,68.3161199
43,ул Калдаякова,160500,40.7563849,68.3164491
45,ул Калдаякова,160500,40.7562577,68.3167798
33,ул Калдаякова,160500,40.7570012,68.3148888
31,ул Калдаякова,160500,40.7570767,68.3146784
29,ул Калдаякова,160500,40.7571914,68.3143357
27,ул Калдаякова,160500,40.7573216,68.3139986
25,ул Калдаякова,160500,40.7574469,68.3137079
23,ул Калдаякова,160500,40.7576023,68.3134694
21,ул Калдаякова,160500,40.7576462,68.3131306
29,ул Жанибекова,160500,40.7580894,68.3134548
33,ул Жанибекова,160500,40.7579428,68.3138526
37,ул Жанибекова,160500,40.7577783,68.3143099
39,ул Жанибекова,160500,40.7576634,68.3146149
41,ул Жанибекова,160500,40.7575178,68.3149557
43,ул Жанибекова,160500,40.7574451,68.3152053
58,ул Жанибекова,160500,40.7569773,68.3171890
56,ул Жанибекова,160500,40.7570614,68.3168299
54,ул Жанибекова,160500,40.7571846,68.3165501
52,ул Жанибекова,160500,40.7573047,68.3162796
50,ул Жанибекова,160500,40.7574151,68.3160829
48,ул Жанибекова,160500,40.7575149,68.3157618
46,ул Жанибекова,160500,40.7576967,68.3153445
44,ул Жанибекова,160500,40.7577989,68.3150493
42,ул Жанибекова,160500,40.7579257,68.3148083
40,ул Жанибекова,160500,40.7580279,68.3144978
38,ул Жанибекова,160500,40.7581084,68.3142282
36,ул Жанибекова,160500,40.7582303,68.3138943
34,ул Жанибекова,160500,40.7583590,68.3137093
32,ул Жанибекова,160500,40.7584827,68.3132478
30,ул Жанибекова,160500,40.7586096,68.3129373
28,ул Жанибекова,160500,40.7587303,68.3126594
22,ул Жанибекова,160500,40.7589655,68.3120098
20,ул Жанибекова,160500,40.7590182,68.3118137
18,ул Жанибекова,160500,40.7591543,68.3115686
16,ул Жанибекова,160500,40.7592804,68.3110680
14,ул Жанибекова,160500,40.7593926,68.3108618
12,ул Жанибекова,160500,40.7595288,68.3105187
10,ул Жанибекова,160500,40.7596308,68.3102940
8,ул Жанибекова,160500,40.7597021,68.3100448
6,ул Жанибекова,160500,40.7598011,68.3097058
4,ул Жанибекова,160500,40.7599465,68.3094074
12,ул Конаева,160500,40.7599563,68.3107821
14,ул Конаева,160500,40.7597980,68.3110458
16,ул Конаева,160500,40.7596923,68.3114435
18,ул Конаева,160500,40.7595565,68.3117934
20,ул Конаева,160500,40.7594823,68.3120916
11,ул Конаева,160500,40.7597949,68.3121651
9,ул Конаева,160500,40.7600566,68.3114219
13,ул Рудаки,160500,40.7583818,68.3173623
15,Рудаки,160500,40.7583921,68.3168610
40,ул Тауке Хана,160500,40.7548602,68.3144242
42,ул Тауке Хана,160500,40.7547543,68.3146263
44,ул Тауке Хана,160500,40.7546383,68.3150643
48,ул Тауке Хана,160500,40.7544577,68.3155034
42,ул Толеген Айбергенов,160501,40.7544412,68.3131991
40,ул Касым Хан,160501,40.7545391,68.3129153
38,ул Касым Хан,160501,40.7546813,68.3125980
36,ул Касым Хан,160501,40.7547701,68.3123497
33,ул Толеген Айбергенов,160500,40.7547002,68.3115781
35,ул Толеген Айбергенов,160500,40.7544619,68.3117589
1,Ахмет Яссауи,1600500,40.7684275,68.3488655
196/2,Кожанова,160501,40.7790512,68.3163100
196/2,Кожанова,160501,40.7790279,68.3163752
198/2,Кожанова,160501,40.7791430,68.3161097
198/1,Кожанова,160501,40.7791120,68.3161955
194/2,Кожанова,160501,40.7789651,68.3165330
194/1,Кожанова,160501,40.7789460,68.3165942
192/2,Кожанова,160501,40.7788837,68.3167317
192/1,Кожанова,160501,40.7788591,68.3168156
190/2,Кожанова,160501,40.7787973,68.3169329
6,Маргулан,160500,40.7744225,68.3327733
10,Маргулан,160500,40.7746561,68.3322664
12,Маргулан,160500,40.7747929,68.3319135
6,сугир,160500,40.7757793,68.3332086
11,сугир,160500,40.7751868,68.3332456
16,Улан Октябрь,160501,40.7803553,68.3167393
68,Рыскулова (Алматинская),160500,40.7857697,68.3156295
74,Мусабаева (Жетысайская),160500,40.7849233,68.3259805
46,Ескендиров (Целинная),160500,40.7831712,68.3097756
26,ул Айкожа Ишан,160500,40.7638260,68.3185192
13/А,Байботаева,160500,40.7825335,68.3277535
36/2,Дайрашев,160500,40.7805675,68.3197274
34/4,Дайрашев,160500,40.7806987,68.3198694
152,Кожанова,160500,40.7766607,68.3224671
29,ул Амангелди,160500,40.7703777,68.3347007
6 Б,ул Токбергенова,160500,40.7670220,68.3352199
16А,Улица Малдыбекова,160500,40.7796354,68.3193016
206,Кожанова,160501,40.7795904,68.3148875
208/1,Кожанова,160501,40.7796455,68.3147252
28/А,Байботаева,160500,40.7794236,68.3252124
28/Б,Байботаева,160500,40.7788535,68.3248220
59/А,Байботаева,160500,40.7763477,68.3238741
130,Улица Амире Кашаубаева,160501,40.7779369,68.3212937
120,Рыскулова (Алматинская),160500,40.7815456,68.3119284
6,Байзаков,160500,40.7839249,68.3109905
10/2,Молдагулова,160501,40.7822202,68.3116040
3,Аз Тауке,160501,40.7828314,68.3147910
5,Мендешова,160501,40.7828986,68.3108697
7,Мендешова,160501,40.7832363,68.3111431
1А-1,Молдагулова,160501,40.7835815,68.3127395
109/Б,ул Мухтар Ауезова,160500,40.7762873,68.3268250
25А,Танатова (Пахтаральская),160501,40.7831637,68.3149778
49,Ескендиров (Целинная),160501,40.7852960,68.3106502
111,Танатова (Пахтаральская),160501,40.7880354,68.3052373
31,Дайрашев,160500,40.7803243,68.3195071
30,Дайрашев,160500,40.7804684,68.3196047
2,Улица Ихсанова,160500,40.7821088,68.3278303
4,Улица Ихсанова,160500,40.7819484,68.3277268
6,Улица Ихсанова,160500,40.7817339,68.3275831
8,Улица Ихсанова,160500,40.7814430,68.3273748
10,Улица Ихсанова,160500,40.7812538,68.3273311
9,Улица Ихсанова,160500,40.7811451,68.3277797
15,Улица Ихсанова,160500,40.7806241,68.3272949
23,Улица Ихсанова,160500,40.7796051,68.3267798
1/3,Улица Кулбаева,160500,40.7815746,68.3284368
3/3,Улица Кулбаева,160500,40.7811839,68.3282006
3/1,Улица Кулбаева,160500,40.7809658,68.3280650
5/3,Улица Кулбаева,160500,40.7806551,68.3278648
7/1,Улица Кулбаева,160500,40.7803349,68.3276862
9/1,Улица Кулбаева,160500,40.7799770,68.3275617
11/1,Улица Кулбаева,160500,40.7798420,68.3273640
11/3,Улица Кулбаева,160500,40.7797094,68.3273206
13/1,Улица Кулбаева,160500,40.7796067,68.3271411
2/2,Улица Кулбаева,160500,40.7814782,68.3289438
4/2,Улица Кулбаева,160500,40.7812997,68.3287849
6/2,Улица Кулбаева,160500,40.7810954,68.3287195
8/2,Улица Кулбаева,160500,40.7807559,68.3285281
10/2,Улица Кулбаева,160500,40.7804492,68.3283048
12/2,Улица Кулбаева,160500,40.7800717,68.3281008
14/2,Улица Кулбаева,160500,40.7797539,68.3279349
29/А,Мухтар Ауезова,160500,40.7770518,68.3291059
9/2,Шакарим,160500,40.7738614,68.3208697
11/1,Шакарим,160500,40.7740894,68.3206567
4/2,Алтынсарин,160500,40.7750686,68.3185068
10/2,Алтынсарин,160500,40.7750159,68.3179246
32,Алтынсарин,160501,40.7764952,68.3158978
35,Алтынсарин,160501,40.7774827,68.3149231
53,Алтынсарин,160501,40.7782296,68.3145632
1/1,Омаршаева (Правда),160500,40.7822157,68.3266201
1/2,Уалиханова,160500,40.7725116,68.3201367
4/1,Уалиханова,160500,40.7728365,68.3204094
9,Уалиханова,160500,40.7756845,68.3155848
24/2,Уалиханова,160501,40.7769113,68.3145780
39А,Уалиханова,160501,40.7775358,68.3128990
50,Уалиханова,160501,40.7782393,68.3126393
52,Уалиханова,160501,40.7783254,68.3124590
55,Уалиханова,160501,40.7787247,68.3105513
59,Уалиханова,160501,40.7784800,68.3102502
58,Уалиханова,160501,40.7788760,68.3102888
5В,Торайгырова,160500,40.7746227,68.3163940
8,Торайгырова,160500,40.7744411,68.3160115
11,Торайгырова,160500,40.7747844,68.3161992
10/2,Торайгырова,160500,40.7746251,68.3157085
12/1,Торайгырова,160500,40.7748009,68.3154937
15,Торайгырова,160500,40.7751492,68.3157085
18,Торайгырова,160500,40.7760203,68.3137249
27,Торайгырова,160501,40.7765423,68.3137215
22,Торайгырова,160500,40.7765613,68.3129743
35/1,Торайгырова,160501,40.7769330,68.3130879
30,Торайгырова,160500,40.7768250,68.3126419
32,Торайгырова,160500,40.7769414,68.3124913
36,Торайгырова,160500,40.7770372,68.3123252
38,Торайгырова,160500,40.7771446,68.3121239
42,Торайгырова,160500,40.7774581,68.3117661
46,Торайгырова,160500,40.7775604,68.3115933
52,Торайгырова,160500,40.7777800,68.3112586
7,Уалиханова,160500,40.7731014,68.3192380
2,Суйеуов,160500,40.7696722,68.3206143
3/2,Суйеуов,160500,40.7696597,68.3200097
1/2,Суйеуов,160500,40.7698296,68.3202716
4/2,Суйеуов,160500,40.7694939,68.3204001
6/2,Суйеуов,160500,40.7692679,68.3201729
5/2,Суйеуов,160500,40.7694452,68.3197459
7/2,Суйеуов,160500,40.7691718,68.3194407
9/2,Суйеуов,160500,40.7689156,68.3191197
7/1,Толебаева,160500,40.7692329,68.3207244
5А/1,Толебаева,160500,40.7690353,68.3205024
3А/1,Толебаева,160500,40.7688133,68.3202724
1/4,Толе Би,160500,40.7686213,68.3214416
4/1,Казыбек Би,160500,40.7679842,68.3217926
4/2,Казыбек Би,160500,40.7682687,68.3220716
107,Ажибекова,160500,40.7763136,68.3288074
54,Мухтар Ауезова,160500,40.7800273,68.3310745
17,ул Байтурсынова (Садовая),160501,40.7671703,68.3380370
11/2,Улица Махамбет,160500,40.7723781,68.3168663
4,Махамбет,160500,40.7736018,68.3167036
3А,Махамбет,160500,40.7730941,68.3166484
14,Махамбет,160500,40.7745431,68.3151998
28,Махамбет,160500,40.7747775,68.3148448
65,Махамбет,160501,40.7780382,68.3103591
67,Махамбет,160501,40.7782496,68.3105897
71,Махамбет,160501,40.7785219,68.3109433
1,Улица Махамбет,160500,40.7703495,68.3188835
1А,Нурбеков,160500,40.7787120,68.3369785
1,Нурбеков,160500,40.7788035,68.3371374
13,Нурбеков,160500,40.7779086,68.3361178
13А,Нурпейсова,160500,40.7758802,68.3291186
6,Байсейтова,160500,40.7789954,68.3357316
2/1,Байсейтова,160500,40.7793401,68.3361817
19,Нурпейсова,160500,40.7759576,68.3279969
20,Торайгырова,160500,40.7756358,68.3143582
18,Улица Малдыбекова,160500,40.7796847,68.3192164
7А,Улица Малдыбекова,160500,40.7791704,68.3193677
25,Улица Малдыбекова,160500,40.7806449,68.3173314
26/2,Улица Малдыбекова,160500,40.7808009,68.3176115
1,Айдаров,160500,40.7746371,68.3344623
3,Айдаров,160500,40.7745578,68.3347401
5,Айдаров,160500,40.7744233,68.3349693
7,Айдаров,160500,40.7742756,68.3353211
1А,Мусирепов,160500,40.7780986,68.3373718
3,Мусирепов,160500,40.7778841,68.3371447
11,Мусирепов,160500,40.7775396,68.3367894
20,Мусирепов,160500,40.7777909,68.3365451
46,Мусирепов,160500,40.7760009,68.3349387
29,Мусирепов,160500,40.7734455,68.3333908
31А,Мусирепов,160500,40.7731151,68.3331242
35,Мусирепов,160500,40.7726087,68.3327987
70,Мусирепов,160500,40.7732049,68.3327720
72,Мусирепов,160500,40.7729227,68.3326112
204,Кожанова,160501,40.7794921,68.3151080
5,ул Ахмет Яссауи,160500,40.7757610,68.3400411
6,Улица Айтеке Би,160500,40.7827494,68.3175624
7,Улица Айтеке Би,160500,40.7823266,68.3174547
5,Отепова (Чимкентская),160501,40.7892611,68.3244781
9,Отепова (Чимкентская),160501,40.7890616,68.3242171
13,Отепова (Чимкентская),160501,40.7888215,68.3239579
15,Отепова (Чимкентская),160501,40.7885788,68.3236475
14,Отепова (Чимкентская),160500,40.7886078,68.3230975
19,Отепова (Чимкентская),160501,40.7876509,68.3224569
38,Отепова (Чимкентская),160500,40.7858733,68.3196195
48,Отепова (Чимкентская),160500,40.7849780,68.3185336
8,Муса Жалел,160500,40.7614847,68.3318063
5,Муса Жалел,160500,40.7610129,68.3318520
21,Муса Жалел,160501,40.7630382,68.3291784
3,Ажибекова,160500,40.7714555,68.3400172
20,Ажибекова,160500,40.7733801,68.3365974
41,Ажибекова,160500,40.7732182,68.3361365
53,Ажибекова,160500,40.7737193,68.3350578
69,Ажибекова,160500,40.7741785,68.3340367
71,Ажибекова,160500,40.7745333,68.3332438
87,Ажибекова,160500,40.7750345,68.3320524
58,Абая,160500,40.7776517,68.3310770
36,Улица Кан,160500,40.7752571,68.3315051
38,Улица Кан,160500,40.7749953,68.3313048
34,Абая,160500,40.7768834,68.3325752
4/1,Кан переулок,160500,40.7781270,68.3334498
8/1,Кан переулок,160500,40.7783869,68.3327278
6/1,Кан переулок,160500,40.7782819,68.3330155
19,Улица Кан,160500,40.7775325,68.3334886
2,Улица Айманова,160500,40.7810231,68.3293799
4/2,Улица Айманова,160500,40.7804811,68.3289899
6/2,Улица Айманова,160500,40.7803617,68.3287961
1,Улица Абая,160500,40.7731337,68.3391109
25,Улица Абая,160500,40.7739182,68.3373662
27,Улица Абая,160500,40.7739824,68.3372308
31,Улица Абая,160500,40.7741087,68.3368655
33,Улица Абая,160500,40.7742501,68.3367662
35,Улица Абая,160500,40.7743246,68.3365795
32,Абая,160500,40.7766867,68.3330653
28,Абая,160500,40.7762435,68.3339364
18,Абая,160500,40.7755856,68.3352165
20,Абая,160500,40.7757855,68.3347471
22,Абая,160500,40.7758456,68.3346181
26,Абая,160500,40.7760021,68.3343014
46,ул Абая,160500,40.7773553,68.3316380
19,Бахтияров,160501,40.7860925,68.3032630
3,Бахтияров,160501,40.7874343,68.3041029
7,Бахтияров,160501,40.7871207,68.3038864
11,Бахтияров,160501,40.7868056,68.3036798
10,Бахтияров,160501,40.7867495,68.3032094
15,Бахтияров,160501,40.7864790,68.3034325
1,Ахшаева,160501,40.7866605,68.3016776
5/А,Ахшаева,160501,40.7863033,68.3023451
97,Улица Амире Кашаубаева,160501,40.7782032,68.3197171
87,Улица Амире Кашаубаева,160500,40.7776933,68.3210111
б/н,Мухтар Ауезова,160500,40.7712163,68.3212755
б/н,Мухтар Ауезова,160500,40.7693762,68.3185096
104,Амире Кашаубаева,160500,40.7764570,68.3251305
б/н,Алфараби Известия,160500,40.7771602,68.3211371
61,Абая,160500,40.7761606,68.3331171
1/1,Шакарим,160500,40.7731233,68.3219531
19,Шакарим,160500,40.7748556,68.3196164
17,Шакарим,160500,40.7746545,68.3198457
15,Шакарим,160500,40.7744869,68.3200442
13/1,Шакарим,160500,40.7742736,68.3204223
32,Шакарим,160500,40.7782758,68.3151377
1,ул Айкожа Ишан,160500,40.7607117,68.3216388
4,ул Айкожа Ишан,160500,40.7611907,68.3215359
8,ул Айкожа Ишан,160500,40.7615444,68.3210995
13,ул Айкожа Ишан,160500,40.7619322,68.3202267
27,ул Айкожа Ишан,160500,40.7637802,68.3180202
31,ул Айкожа Ишан,160500,40.7642117,68.3175429
49,Ахмета Жубанова,160500,40.7650804,68.3146254
7А,ул Токтагул,160501,40.7524523,68.3043234
18,улица Естай,160500,40.7625417,68.3313871
11,улица Естай,160500,40.7619557,68.3319582
13,улица Естай,160500,40.7620783,68.3317088
13,улица Естай,160500,40.7622489,68.3313764
17,улица Естай,160500,40.7623639,68.3312093
15,Калыбекова,160500,40.7831649,68.3293331
17,ул Калыбекова (Маяковский),160500,40.7832660,68.3291392
2,Калыбекова,160500,40.7824883,68.3316277
6,Калыбекова,160500,40.7826436,68.3313432
8/2,Калыбекова,160500,40.7827563,68.3310894
12/1,Калыбекова,160500,40.7829229,68.3307185
1,ул Толеген Айбергенов,160500,40.7564650,68.3066989
3,ул Толеген Айбергенов,160500,40.7562664,68.3070306
7,ул Толеген Айбергенов,160500,40.7560852,68.3075307
11,ул Толеген Айбергенов,160500,40.7558770,68.3081062
19,ул Толеген Айбергенов,160500,40.7554965,68.3095374
27,ул Толеген Айбергенов,160500,40.7549355,68.3106545
37,ул Толеген Айбергенов,160500,40.7544377,68.3120503
24,ул Толеген Айбергенов,160500,40.7551490,68.3091864
13,Амангелди,160500,40.7739622,68.3362939
25/2,Калыбекова,160500,40.7861828,68.3249441
35,Калыбекова,160500,40.7875941,68.3232024
37/3,Калыбекова,160500,40.7878212,68.3227954
16,ул Кайсенова,160500,40.7659644,68.3154326
9,ул Ахмета Жубанова,160500,40.7609181,68.3197389
11,ул Ахмета Жубанова,160500,40.7610697,68.3195244
13,ул Ахмета Жубанова,160500,40.7612747,68.3192486
15,ул Ахмета Жубанова,160500,40.7614401,68.3191367
17,ул Ахмета Жубанова,160500,40.7616641,68.3189058
19,ул Ахмета Жубанова,160500,40.7618127,68.3187178
21,ул Ахмета Жубанова,160500,40.7620548,68.3185349
27,ул Ахмета Жубанова,160500,40.7625818,68.3179170
31,ул Ахмета Жубанова,160500,40.7629053,68.3174745
33,ул Ахмета Жубанова,160500,40.7632859,68.3169981
35,ул Ахмета Жубанова,160500,40.7636191,68.3166033
37,ул Ахмета Жубанова,160500,40.7638978,68.3162970
39,ул Ахмета Жубанова,160500,40.7641043,68.3160744
41,ул Ахмета Жубанова,160500,40.7643030,68.3158398
43,ул Ахмета Жубанова,160500,40.7644738,68.3156132
45,ул Ахмета Жубанова,160500,40.7647736,68.3151702
45,ул Ахмета Жубанова,160500,40.7647444,68.3153928
47,ул Ахмета Жубанова,160500,40.7649154,68.3150641
24,ул Ахмета Жубанова,160500,40.7633042,68.3176830
9,Улица Танатова (Пахтаральская),160500,40.7787000,68.3234542
11,Улица Танатова (Пахтаральская),160500,40.7788114,68.3232612
4,ул ТАНАТОВ,160500,40.7795841,68.3203928
36,ул Дайрашев (Ленина),160500,40.7806348,68.3189810
23,Улица Танатова (Пахтаральская),160500,40.7808693,68.3190473
27,Улица Танатова (Пахтаральская),160500,40.7811872,68.3185931
4,улица Естай,160500,40.7614074,68.3331759
20,ул Бухар-Жырау,160500,40.7640847,68.3198780
22/А,ул Бухар-Жырау,160500,40.7636974,68.3201662
24,ул Бухар-Жырау,160500,40.7635038,68.3203626
40,ул Бухар-Жырау,160500,40.7615988,68.3225362
42,ул Бухар-Жырау,160500,40.7614517,68.3227358
23,ул Райымбек,160500,40.7565290,68.3248977
27,ул Райымбек,160500,40.7560708,68.3254055
11,ул Райымбек,160500,40.7579387,68.3234226
12,ул Райымбек,160500,40.7576682,68.3230900
13,ул Райымбек,160500,40.7577326,68.3236477
2,ул Коркыт ата,160501,40.7531618,68.3072355
12,ул Коркыт ата,160501,40.7530337,68.3089425
16,ул Коркыт ата,160501,40.7529642,68.3098677
22,ул Коркыт ата,160501,40.7530145,68.3107809
5,ул Коркыт ата,160501,40.7527132,68.3077335
15,ул Коркыт ата,160501,40.7525818,68.3092759
17,ул Коркыт ата,160501,40.7526972,68.3096635
23,ул Коркыт ата,160501,40.7524734,68.3106272
6,ул Аралбаев,160500,40.7769648,68.3373108
15,ул Аралбаев,160500,40.7774230,68.3356661
17,ул Аралбаев,160500,40.7776108,68.3353546
19,ул Аралбаев,160500,40.7780799,68.3344889
45,ул Аралбаев,160500,40.7793488,68.3312969
59,ул Жаштаева,160500,40.7934576,68.3176409
57,ул Жаштаева,160500,40.7929646,68.3180421
44,ул Оспанов № 2 ( САМАЛ ),160500,40.7670919,68.3180998
6,ул Кошкарбаева,160500,40.7664695,68.3174878
8,ул Кошкарбаева,160500,40.7661913,68.3172590
10,ул Кошкарбаева,160500,40.7659892,68.3170248
12,ул Кошкарбаева,160500,40.7658029,68.3167920
14,ул Кошкарбаева,160500,40.7655914,68.3165729
16,ул Кошкарбаева,160500,40.7654258,68.3163740
18,ул Кошкарбаева,160500,40.7652107,68.3161542
20,ул Кошкарбаева,160500,40.7649489,68.3158761
1,ул Касым Хан,160501,40.7570913,68.3071955
5,ул Касым Хан,160501,40.7569130,68.3078895
11,ул Касым Хан,160501,40.7564436,68.3088624
19,ул Касым Хан,160501,40.7559788,68.3101334
25,ул Касым Хан,160501,40.7556008,68.3109807
37,ул Касым Хан,160501,40.7548024,68.3131103
39,ул Касым Хан,160501,40.7546920,68.3133807
41,ул Касым Хан,160501,40.7544385,68.3140388
43,ул Касым Хан,160501,40.7543298,68.3144307
45,ул Касым Хан,160501,40.7543062,68.3147613
2,ул Касым Хан,160501,40.7568573,68.3070349
6,ул Касым Хан,160501,40.7566666,68.3075249
10,ул Касым Хан,160501,40.7562638,68.3081524
30,ул Касым Хан,160500,40.7550856,68.3115806
34,ул Касым Хан,160500,40.7549032,68.3120754
1,ул Жансугиров,160500,40.7754501,68.3302077
71,Улица Абая,160500,40.7784741,68.3280630
90 А,ул Абая,160500,40.7820188,68.3207895
190/1,ул Кожанова,160500,40.7788108,68.3170999
19,ул Курбанулы (Данко),160500,40.7853060,68.3179432
24,улица Байботаева,160500,40.7811747,68.3265440
7,ул Тауке Хана,160500,40.7573222,68.3086607
9,ул Тауке Хана,160500,40.7572428,68.3089676
11,ул Тауке Хана,160500,40.7571539,68.3092793
6,ул Тауке Хана,160500,40.7568845,68.3091443
20,ул Тауке Хана,160500,40.7560681,68.3112745
22,ул Тауке Хана,160500,40.7559093,68.3116748
24,ул Тауке Хана,160500,40.7557900,68.3120318
26,ул Тауке Хана,160500,40.7556967,68.3122523
28,ул Тауке Хана,160500,40.7555584,68.3125010
38,ул Тауке Хана,160500,40.7549913,68.3140827
46,ул Тауке Хана,160500,40.7545519,68.3152483
9,ул Акын Сара,160500,40.7564859,68.3117527
19,ул Тауке Хана,160500,40.7558786,68.3126039
25,ул Тауке Хана,160500,40.7554431,68.3136696
31,ул Тауке Хана,160500,40.7552030,68.3142030
33,ул Тауке Хана,160500,40.7549677,68.3148054
35,ул Тауке Хана,160500,40.7547993,68.3152334
11,ул Бокеев,160500,40.7557802,68.3134399
10,ул Бокеев,160500,40.7559355,68.3131842
12,ул Бокеев,160500,40.7557279,68.3130595
1,ул Биржан Сал,160500,40.7598559,68.3119626
3,ул Биржан Сал,160500,40.7594066,68.3117522
5,ул Биржан Сал,160500,40.7586452,68.3112242
2,ул Биржан Сал,160500,40.7599570,68.3116621
4,ул Биржан Сал,160500,40.7594575,68.3113170
6,ул Биржан Сал,160500,40.7587979,68.3109142
5,ул. Мустафина,160500,40.7879575,68.3212452
15,ул. Мустафина,160500,40.7886569,68.3204870
1,ул. Мустафина,160500,40.7877524,68.3215643
16,ул. Мустафина,160500,40.7886924,68.3208180
12,ул Мустафа Озтурик,160523,40.7575480,68.3097292
10,ул Мустафа Озтурик,160523,40.7577030,68.3093161
13,ул Мустафа Озтурик,160523,40.7579611,68.3099175
9,ул Мустафа Озтурик,160523,40.7582268,68.3093391
3,ул Мустафа Озтурик,160523,40.7585754,68.3084794
1,ул Богенбай Батыр,160523,40.7558430,68.3063292
17,ул Богенбай Батыр,160523,40.7548226,68.3087123
21,ул Богенбай Батыр,160523,40.7546221,68.3092320
2,ул Богенбай Батыр,160523,40.7554131,68.3062451
6,ул Богенбай Батыр,160523,40.7551632,68.3069671
8,ул Богенбай Батыр,160523,40.7549840,68.3073998
18,ул Богенбай Батыр,160523,40.7544262,68.3089328
13,ул Богенбай Батыр,160523,40.7550646,68.3079793
11,ул Ескендиров (Целинная),160500,40.7933745,68.3203408
8,ул Суинбай,160500,40.7780631,68.3326600
10,ул Суинбай,160500,40.7781143,68.3324583
15,ул Нурпейсова,160500,40.7757828,68.3284592
3,ул Ескендиров (Целинная),160500,40.7938726,68.3209989
7,ул Шалкыма (Пивзавод арты),160500,40.7794172,68.3113893
9,ул Шалкыма (Пивзавод арты),160500,40.7795452,68.3110168
157,ул Амире Кашаубаева (Гагарина),160500,40.7812493,68.3117677
200,ул Амире Кашаубаева (Гагарина),160500,40.7814391,68.3117699
202А,ул Амире Кашаубаева (Гагарина),160500,40.7816249,68.3113320
200,ул Амире Кашаубаева (Гагарина),160500,40.7813709,68.3118893
10,ул Кайсенова,160500,40.7667782,68.3163812
3,ул Уалиханова,160500,40.7741848,68.3179760
8,ул Отепова (Чимкентская),160500,40.7892371,68.3239726
20,ул Отепова (Чимкентская),160500,40.7880126,68.3223253
34,ул Отепова (Чимкентская),160500,40.7861331,68.3199322
40,ул Отепова (Чимкентская),160500,40.7857723,68.3194602
52,ул Отепова (Чимкентская),160500,40.7845622,68.3178636
58,ул Отепова (Чимкентская),160500,40.7839408,68.3170789
60,ул Отепова (Чимкентская),160500,40.7832822,68.3161833
88,ул Отепова (Чимкентская),160500,40.7807755,68.3140553
198,ул Амире Кашаубаева (Гагарина),160500,40.7812855,68.3121617
196,ул Амире Кашаубаева (Гагарина),160500,40.7811870,68.3124184
182,ул Амире Кашаубаева (Гагарина),160500,40.7802865,68.3149064
210,ул Амире Кашаубаева (Гагарина),160500,40.7833195,68.3071147
212,ул Амире Кашаубаева (Гагарина),160500,40.7834674,68.3066270
212А,ул Амире Кашаубаева (Гагарина),160500,40.7836111,68.3062932
212,ул Амире Кашаубаева (Гагарина),160500,40.7837287,68.3059655
214,ул Амире Кашаубаева (Гагарина),160500,40.7838445,68.3056468
216,ул Амире Кашаубаева (Гагарина),160500,40.7839792,68.3053216
218,ул Амире Кашаубаева (Гагарина),160500,40.7841146,68.3049947
220,ул Амире Кашаубаева (Гагарина),160500,40.7842850,68.3045040
1,ул Кабанбай Батыр,160523,40.7551860,68.3056445
1/1,ул Уалиханова,160500,40.7721023,68.3208168
2,ул Конаева,160500,40.7605187,68.3093494
10,ул Конаева,160500,40.7600077,68.3105826
159,ул Абая,160500,40.7863918,68.3110620
1,ул Ескендиров (Целинная),160500,40.7940677,68.3212694
6,ул Ескендиров (Целинная),160500,40.7924363,68.3184866
22,ул Султан Бейбарс,160500,40.7564376,68.3266203
11,ул Султан Бейбарс,160500,40.7587716,68.3239912
13,ул Султан Бейбарс,160500,40.7586056,68.3243544
17,ул Ескендиров (Целинная),160500,40.7910606,68.3180716
21,ул Ескендиров (Целинная),160500,40.7907685,68.3178910
89,ул Рыскулова (Алматинская),160500,40.7819583,68.3128258
88,ул Рыскулова (Алматинская),160500,40.7836923,68.3137774
63,ул Рыскулова (Алматинская),160500,40.7839739,68.3146110
5,ул Ескендиров (Целинная),160500,40.7937606,68.3208461
43/1,ул Ескендиров (Целинная),160500,40.7869578,68.3136028
39,ул Ескендиров (Целинная),160500,40.7878841,68.3144208
37,ул Ескендиров (Целинная),160500,40.7881309,68.3147448
7,ул Оспанова № 1 ( базар ),160500,40.7761335,68.3194854
9,ул Оспанова № 1 ( базар ),160500,40.7762336,68.3193847
35,ул Оспанова № 1 ( базар ),160500,40.7775623,68.3176018
37,ул Оспанова № 1 ( базар ),160500,40.7775254,68.3173096
13,ул Оспанова № 1 ( базар ),160500,40.7764458,68.3191614
108,ул Амире Кашаубаева (Гагарина),160500,40.7768630,68.3242760
25,ул Бауыржан Момышулы,160500,40.7674992,68.3368165
20,ул Бауыржан Момышулы,160500,40.7671511,68.3372676
7,ул Тажибаева,160500,40.7600324,68.3303448
15,ул Тажибаева,160500,40.7606909,68.3295926
27,ул Тажибаева,160500,40.7621580,68.3278349
29,ул Тажибаева,160500,40.7623843,68.3275723
31,ул Тажибаева,160500,40.7625707,68.3273635
24,ул Тажибаева,160500,40.7624471,68.3281689
48,ул Тажибаева,160500,40.7655065,68.3248847
84,ул Калыбекова (Маяковский),160500,40.7914387,68.3186908
76,ул Калыбекова (Маяковский),160500,40.7910896,68.3192975
86,ул Калыбекова (Маяковский),160500,40.7916387,68.3187063
165,ул Абая,160500,40.7866154,68.3104235
163,ул Абая,160500,40.7865547,68.3105507
167,ул Абая,160500,40.7866963,68.3103038
211,ул Абая,160500,40.7885943,68.3065340
72,ул Курмангазы,160500,40.7884473,68.3061000
29,ул Ескендиров (Целинная),160500,40.7897783,68.3165104
33,ул Дайрашев (Ленина),160500,40.7800317,68.3194014
5,тупик Нарбаева,160500,40.7811553,68.3252936
58,ул Омаршаева (Правда),160500,40.7870164,68.3198551
60,ул Омаршаева (Правда),160500,40.7871136,68.3197153
88,ул Омаршаева (Правда),160500,40.7891154,68.3170714
84,ул Омаршаева (Правда),160500,40.7887621,68.3175447
86,ул Омаршаева (Правда),160500,40.7888465,68.3174059
82,ул Омаршаева (Правда),160500,40.7886850,68.3176648
2,ул Жанибекова,160500,40.7600651,68.3090186
24,ул Жанибекова,160500,40.7588672,68.3122511
26,ул Жанибекова,160500,40.7588078,68.3124769
5,ул Жанибекова,160500,40.7595397,68.3094948
31,ул Жанибекова,160500,40.7580238,68.3137027
35,ул Жанибекова,160500,40.7578887,68.3140316
216/2,ул Кожанова,160500,40.7804169,68.3126632
216/1,ул Кожанова,160500,40.7803249,68.3129096
220/2,ул Кожанова,160500,40.7807296,68.3117967
35,ул Отепова (Чимкентская),160500,40.7859143,68.3202369
40,ул Жаштаева,160500,40.7907038,68.3216586
86,ул Рыскулова (Алматинская),160500,40.7840015,68.3141694
64А,ул Калыбекова (Маяковский),160500,40.7901701,68.3205117
66А,ул Калыбекова (Маяковский),160500,40.7903552,68.3202486
58,ул Хусайнов (Шевченко),160500,40.7887506,68.3166499
78,ул Хусайнов (Шевченко),160500,40.7871876,68.3146786
90,ул Хусайнов (Шевченко),160500,40.7863341,68.3137561
88,ул Хусайнов (Шевченко),160500,40.7864488,68.3138866
96,ул Хусайнов (Шевченко),160500,40.7859956,68.3133645
100,ул Хусайнов (Шевченко),160500,40.7858768,68.3132547
49,ул Хусайнов (Шевченко),160500,40.7866079,68.3148853
53,ул Хусайнов (Шевченко),160500,40.7862923,68.3144328
60,ул Хусайнов (Шевченко),160500,40.7856575,68.3136483
46,ул Жамбыла,160500,40.7909968,68.3230375
42,ул Жамбыла,160500,40.7906780,68.3235840
40А,ул Жамбыла,160500,40.7905811,68.3236694
32,ул Жамбыла,160500,40.7890635,68.3253145
129,улица Абая,160500,40.7845679,68.3145293
114А,улица Абая,160500,40.7846755,68.3153171
156,ул Кожанова,160500,40.7768136,68.3219613
119,улица Абая,160500,40.7836869,68.3161423
68,ул Отепова (Чимкентская),160500,40.7823230,68.3155255
17,ул Амангелди,160500,40.7729702,68.3356706
4/10,ул Жургенбаев,160500,40.7656728,68.3347694
17А,ул Отепова (Чимкентская),160500,40.7881903,68.3231306
21,ул Отепова (Чимкентская),160500,40.7874949,68.3222613
23,ул Отепова (Чимкентская),160500,40.7873616,68.3220703
25,ул Отепова (Чимкентская),160500,40.7868616,68.3214392
39,ул Отепова (Чимкентская),160500,40.7856449,68.3198699
49А,ул Отепова (Чимкентская),160501,40.7847320,68.3189647
51,ул Отепова (Чимкентская),160501,40.7847429,68.3186991
67,ул Отепова (Чимкентская),160501,40.7831456,68.3167177
77,ул Отепова (Чимкентская),160500,40.7820164,68.3155943
79,ул Отепова (Чимкентская),160500,40.7818527,68.3154604
32,ул Рыскулова (Алматинская),160500,40.7895174,68.3207087
30,ул Рыскулова (Алматинская),160500,40.7897123,68.3209983
16,ул Рыскулова (Алматинская),160500,40.7909774,68.3225691
42,ул Байтурсынова (Садовая),160500,40.7630787,68.3347917
58,ул Рыскулова (Алматинская),160500,40.7866029,68.3170906
250,ул Кожанова,160501,40.7825252,68.3065764
164,ул Кожанова,160500,40.7770193,68.3210964
162,ул Кожанова,160500,40.7770307,68.3213383
3/А,туп Яссауй,160500,40.7931437,68.3216616
79,ул Танатова (Пахтаральская),160501,40.7864502,68.3083605
75,ул Танатова (Пахтаральская),160501,40.7862401,68.3088389
65,ул Танатова (Пахтаральская),160501,40.7855553,68.3102087
102,ул Амире Кашаубаева (Гагарина),160500,40.7763898,68.3253204
30,ул Ерубаева,160500,40.7665484,68.3237477
40,ул Хусайнов (Шевченко),160500,40.7899404,68.3182521
26,ул Ахмет Яссауи,1600500,40.7702420,68.3469997
6,ул Ахмет Яссауи,1600500,40.7687762,68.3483006
58,ул Ахмет Яссауи,160500,40.7773336,68.3392193
4,ул Жаяу Муса,160500,40.7535282,68.3068104
9,ул Емешова,160500,40.7604501,68.3287585
2,ул Емешова,160500,40.7595546,68.3306465
6,ул Емешова,160500,40.7600445,68.3300413
24,ул Емешова,160500,40.7622379,68.3271586
29,ул Емешова,160500,40.7634307,68.3249459
26,ул Емешова,160500,40.7634857,68.3256243
64,ул Танатова (Пахтаральская),160501,40.7859557,68.3101017
72,ул Танатова (Пахтаральская),160501,40.7862753,68.3094916
60,ул Танатова (Пахтаральская),160500,40.7857767,68.3104456
78,ул Танатова (Пахтаральская),160500,40.7865130,68.3089982
52,ул Курмангазы,160501,40.7873383,68.3081937
28,ул Курмангазы,160500,40.7861376,68.3105662
8,ул Курмангазы,160500,40.7849100,68.3129733
34,ул Нурбеков,160500,40.7767119,68.3345401
7,ул Жалантош Бахадура,160500,40.7604796,68.3190183
4,ул Жалантош Бахадура,160500,40.7602375,68.3197102
10,ул Жалантош Бахадура,160500,40.7608291,68.3192399
9,ул Жалантош Бахадура,160500,40.7607907,68.3186262
16,ул Жалантош Бахадура,160500,40.7613866,68.3186353
11,ул Жалантош Бахадура,160500,40.7610523,68.3185072
13,ул Жалантош Бахадура,160500,40.7611820,68.3184009
15,ул Жалантош Бахадура,160500,40.7614642,68.3180779
17,ул Жалантош Бахадура,160500,40.7616647,68.3178768
19,ул Жалантош Бахадура,160500,40.7619035,68.3176583
21,ул Жалантош Бахадура,160500,40.7620874,68.3175996
25,ул Жалантош Бахадура,160500,40.7626679,68.3171275
158,ул Кожанова,160500,40.7769459,68.3218027
3,ул Мустафа Шокай,160500,40.7568323,68.3280050
7,ул Мустафа Шокай,160500,40.7572610,68.3276393
15,ул Мустафа Шокай,160500,40.7581687,68.3266780
27,ул Мустафа Шокай,160500,40.7596607,68.3247669
6,ул Мустафа Шокай,160500,40.7573912,68.3281386
10,ул Мустафа Шокай,160500,40.7576308,68.3278509
30,ул Есимхан,160500,40.7556926,68.3265475
26,ул Есимхан,160500,40.7560581,68.3261399
14,ул Есимхан,160500,40.7573476,68.3246253
12,ул Жалантош Бахадура,160500,40.7610081,68.3190632
14,ул Жалантош Бахадура,160500,40.7612879,68.3187608
19,ул Есимхан,160500,40.7564378,68.3263081
21,ул Есимхан,160500,40.7563236,68.3264610
23,ул Есимхан,160500,40.7560569,68.3267844
8,ул Ескендиров (Целинная),160500,40.7920711,68.3184094
1,улица Байботаева,160500,40.7842778,68.3309028
56/1,ул Отепова (Чимкентская),160500,40.7842785,68.3173328
12 А,ул Амангелди,160500,40.7687940,68.3319266
17,ул Махамбет,160500,40.7738293,68.3154597
188,ул Кожанова,160500,40.7786026,68.3174854
61/б,ул Кожанова,160500,40.7778028,68.3178418
69/1,ул Кожанова,160500,40.7779391,68.3177331
