House number,Street name,Postal code,Latitude,Longitude
1-А,вулиця Георгія Гонгадзе,29000,49.4384747,26.9554590
2а,вулиця Степана Бандери,29000,49.4325835,26.9841908
21/2,Львівське шосе,29000,49.4169070,26.9630596
2-А,провулок Степана Бандери,29000,49.4324658,26.9846509
8,вулиця Романа Шухевича,29000,49.4408005,26.9460584
19,вулиця Романа Шухевича,29000,49.4395787,26.9477469
4,вулиця Січових стрільців,29000,49.4503481,27.0144481
33,вулиця Гетьмана Мазепи,29015,49.4114830,27.0030438
89,вулиця Проскурівського Підпілля,29000,49.4235531,26.9795541
5,вулиця Героїв Майдану,29001,49.4227098,26.9792980
56,Соборна вулиця,29000,49.4234982,26.9803432
58,Соборна вулиця,29000,49.4228218,26.9801026
3,вулиця Героїв Майдану,29001,49.4227992,26.9784957
9/1,вулиця Героїв Майдану,29000,49.4224485,26.9814456
16,Проскурівська вулиця,29000,49.4252029,26.9822451
27,Соборна вулиця,29000,49.4251085,26.9814566
34,Соборна вулиця,29000,49.4254933,26.9808529
44/1,Соборна вулиця,29000,49.4244925,26.9805836
45,Камʼянецька вулиця,29000,49.4245515,26.9787896
72,вулиця Проскурівського Підпілля,29000,49.4242751,26.9789061
31,Соборна вулиця,29000,49.4244082,26.9812810
29,Соборна вулиця,29000,49.4247596,26.9816060
48,вулиця Проскурівського Підпілля,29000,49.4243800,26.9821948
46,вулиця Проскурівського Підпілля,29000,49.4247026,26.9824984
38,Подільська вулиця,29000,49.4264367,26.9826229
54,Подільська вулиця,29000,49.4260690,26.9848483
19,Проскурівська вулиця,29013,49.4247675,26.9845033
31,Проскурівська вулиця,29000,49.4245288,26.9849786
19,Соборна вулиця,29013,49.4270542,26.9818400
17,Соборна вулиця,29013,49.4275440,26.9821023
15,Соборна вулиця,29013,49.4280366,26.9821628
11,вулиця Вайсера,29000,49.4287290,26.9802133
15,вулиця Вайсера,29000,49.4285969,26.9814569
13,вулиця Вайсера,29000,49.4287219,26.9807234
11,Соборна вулиця,29000,49.4291240,26.9823893
11,Камʼянецька вулиця,29000,49.4294788,26.9806996
14/2,Соборна вулиця,29000,49.4289057,26.9818140
28,вулиця Вайсера,29000,49.4281155,26.9831690
1-А,вулиця Петра Болбочана,29000,49.4053503,26.9895133
53,Подільська вулиця,29000,49.4267609,26.9831233
63,Подільська вулиця,29000,49.4266813,26.9836380
26,Соборна вулиця,29013,49.4274193,26.9814572
39,Подільська вулиця,29000,49.4270037,26.9811793
21,Подільська вулиця,29000,49.4270435,26.9804978
17/1,Подільська вулиця,29000,49.4271657,26.9787309
11,Камʼянецька вулиця,29000,49.4292780,26.9803126
52,Камʼянецька вулиця,29013,49.4247748,26.9781292
9/1,Подільська вулиця,29000,49.4273909,26.9781165
25,Плоска вулиця,29000,49.4261688,26.9753150
27,Плоска вулиця,29000,49.4259332,26.9751886
4,Плоский провулок,29000,49.4259426,26.9763316
10,Плоский провулок,29000,49.4260749,26.9756875
63,Камʼянецька вулиця,29001,49.4220865,26.9774987
65,Камʼянецька вулиця,29001,49.4212677,26.9771183
2,вулиця Героїв Майдану,29001,49.4224439,26.9780286
105,Володимирська вулиця,29000,49.4205772,26.9773734
67,Камʼянецька вулиця,29000,49.4202526,26.9765843
71,Камʼянецька вулиця,29000,49.4195429,26.9762101
18/1,вулиця Героїв Маріуполя,29000,49.4193316,26.9772448
18,вулиця Героїв Маріуполя,29000,49.4191121,26.9779232
103,Володимирська вулиця,29000,49.4203992,26.9779006
1,вулиця Героїв Майдану,29001,49.4228830,26.9779511
60,Соборна вулиця,29000,49.4218147,26.9793671
4,вулиця Героїв Майдану,29001,49.4222039,26.9784754
92,Володимирська вулиця,29000,49.4210267,26.9784035
73,вулиця Свободи,29001,49.4203989,26.9884471
17,Трудова вулиця,29010,49.4091116,27.0141276
61,Козацька вулиця,29009,49.4099269,26.9938712
26,вулиця Володимира Пилипчука,29000,49.4221987,26.9927287
28,вулиця Володимира Пилипчука,29001,49.4219748,26.9935327
18,вулиця Івана Франка,29000,49.4214992,26.9931170
63,Проскурівська вулиця,29001,49.4216685,26.9915013
47,вулиця Свободи,29000,49.4225507,26.9908613
37,вулиця Свободи,29000,49.4229878,26.9907858
6,вулиця Володимира Пилипчука,29001,49.4234295,26.9899751
60/1,Проскурівська вулиця,29001,49.4211957,26.9913587
1,вулиця Миколи Міхновського,29000,49.4092234,26.9873639
10/5,вулиця Кушнірука,29009,49.4094080,26.9888687
1,вулиця Героїв Маріуполя,29000,49.4182956,26.9811231
99,вулиця Грушевського,29000,49.4176729,26.9823448
19,вулиця Скоблі,29000,49.4177387,26.9829858
23,вулиця Скоблі,29000,49.4177531,26.9834249
85,вулиця Грушевського,29000,49.4197448,26.9824814
75,Соборна вулиця,29000,49.4196194,26.9802896
77,Соборна вулиця,29000,49.4191356,26.9801632
4,вулиця Героїв Маріуполя,29000,49.4190321,26.9806517
78,Володимирська вулиця,29000,49.4207112,26.9812425
82,вулиця Грушевського,29000,49.4212258,26.9822619
10,вулиця Героїв Майдану,29000,49.4214614,26.9821145
12,вулиця Героїв Майдану,29000,49.4215801,26.9817330
8,вулиця Героїв Майдану,29000,49.4215389,26.9809037
8,вулиця Героїв Майдану,29000,49.4214070,26.9805513
87/2,провулок Грушевського,29000,49.4191361,26.9834089
7,Європейська вулиця,29001,49.4185132,26.9844204
12,Володимирський провулок,29000,49.4190681,26.9853802
46,вулиця Героїв Майдану,29001,49.4200364,26.9857460
19,вулиця Героїв Майдану,29000,49.4204571,26.9866062
87,Володимирська вулиця,29000,49.4199423,26.9832731
38,вулиця Героїв Майдану,29001,49.4211661,26.9840466
10,вулиця Героїв Майдану,29000,49.4216093,26.9812712
67/1,Соборна вулиця,29000,49.4212251,26.9813271
17/1,вулиця Героїв Майдану,29001,49.4208040,26.9858592
17,вулиця Героїв Майдану,29001,49.4208821,26.9855140
77,Володимирська вулиця,29001,49.4211722,26.9852978
71,Володимирська вулиця,29001,49.4216034,26.9858570
50,Проскурівська вулиця,29000,49.4219637,26.9884285
87/4,провулок Грушевського,29000,49.4190648,26.9840601
94,Володимирська вулиця,29001,49.4209953,26.9773363
33,Проскурівська вулиця,29000,49.4240741,26.9857590
35,Проскурівська вулиця,29000,49.4238751,26.9861226
37,Проскурівська вулиця,29000,49.4236573,26.9864892
35/1,Проскурівська вулиця,29000,49.4240740,26.9863615
49,Проскурівська вулиця,29000,49.4228388,26.9882311
47,Проскурівська вулиця,29000,49.4230861,26.9877709
4,вулиця Володимира Пилипчука,29001,49.4234883,26.9893274
49,Володимирська вулиця,29001,49.4243285,26.9885200
57,Проскурівська вулиця,29000,49.4227908,26.9896077
44,Проскурівська вулиця,29000,49.4224387,26.9870043
46,Проскурівська вулиця,29000,49.4222807,26.9877397
46,Проскурівська вулиця,29000,49.4224430,26.9881394
5,провулок Скоблі,29000,49.4179636,26.9803860
57,Водопровідна вулиця,29001,49.4248429,26.9990597
26/2,Старокостянтинівське шосе,29001,49.4230950,27.0033684
66,вулиця Героїв Майдану,29000,49.4188377,26.9893158
14,Західно-Окружна вулиця,29000,49.4301959,26.9410034
22а,вулиця Свободи,29000,49.4278286,26.9912430
78,Подільська вулиця,29001,49.4252362,26.9889074
50,вулиця Вайсера,29000,49.4275030,26.9856633
82,Подільська вулиця,29001,49.4256043,26.9892818
1,вулиця Володимира Пилипчука,29001,49.4239226,26.9884130
74/1,вулиця Вайсера,29000,49.4269809,26.9880309
40,Володимирська вулиця,29000,49.4250395,26.9878513
111,Подільська вулиця,29000,49.4266525,26.9903452
3,вулиця Володимира Пилипчука,29001,49.4239078,26.9888727
12,Прибузька вулиця,29000,49.4288616,26.9905964
47,Володимирська вулиця,29001,49.4247439,26.9886700
1,Володимирська вулиця,29000,49.4282436,26.9894832
45,вулиця Грушевського,29000,49.4257219,26.9865727
92,вулиця Вайсера,29000,49.4272996,26.9901367
10,Прибузька вулиця,29000,49.4291171,26.9897702
96,вулиця Вайсера,29000,49.4273334,26.9907119
22,вулиця Свободи,29001,49.4248309,26.9898331
120,вулиця Чорновола,29000,49.4056112,27.0282456
88,вулиця Чорновола,29010,49.4087473,27.0206852
40,Трудова вулиця,29010,49.4101731,27.0126300
171/4,Подільська вулиця,29000,49.4230415,27.0003082
48,Водопровідна вулиця,29001,49.4245305,26.9984248
171,Подільська вулиця,29000,49.4233203,27.0008422
5,вулиця Чорнобрового,29009,49.4161101,26.9983547
51,Камʼянецька вулиця,29001,49.4238001,26.9783008
55,Камʼянецька вулиця,29001,49.4235191,26.9782003
57,Камʼянецька вулиця,29001,49.4232807,26.9780548
105,вулиця Проскурівського Підпілля,29001,49.4239333,26.9784064
14,вулиця Юхима Сіцінського,29009,49.4116918,26.9963278
39,Камʼянецька вулиця,29000,49.4253420,26.9793132
42/1,Соборна вулиця,29000,49.4249032,26.9804890
38/1,Соборна вулиця,29000,49.4250207,26.9802391
28,вулиця Героїв Майдану,29001,49.4219101,26.9822925
13,вулиця Героїв Майдану,29000,49.4224509,26.9825115
68,вулиця Грушевського,29000,49.4233083,26.9839556
74,вулиця Грушевського,29000,49.4226403,26.9832220
72,вулиця Грушевського,29000,49.4233166,26.9832718
44/1,Козацька вулиця,29009,49.4102630,26.9924789
2,вулиця Свободи,29000,49.4271772,26.9911587
6,вулиця Гетьмана Мазепи,29000,49.4150123,27.0031258
66/1,Проскурівська вулиця,29000,49.4195007,26.9946833
2,вулиця Гетьмана Мазепи,29000,49.4181821,26.9989780
68,вулиця Героїв Майдану,29000,49.4186788,26.9896974
75,вулиця Свободи,29001,49.4200194,26.9875352
4/1,вулиця Митрополита Шептицького,29008,49.4090666,26.9802120
4/2,Ранкова вулиця,29008,49.4095293,26.9802590
1,Лікарняна вулиця,29008,49.4128852,26.9754279
113/1,Камʼянецька вулиця,29008,49.4083485,26.9700111
115,Камʼянецька вулиця,29008,49.4082146,26.9698482
12,вулиця Сковороди,29000,49.4127835,26.9731696
10/1,вулиця Сковороди,29008,49.4131965,26.9741317
14,Інститутська вулиця,29016,49.4102007,26.9587725
20,Інститутська вулиця,29016,49.4110437,26.9561450
5,Молодіжна вулиця,29016,49.4136418,26.9596429
22,Інститутська вулиця,29016,49.4114766,26.9547623
55,Львівське шосе,29016,49.4128889,26.9431906
26/3,Тернопільська вулиця,29018,49.4107660,26.9486593
34,Тернопільська вулиця,29018,49.4094093,26.9465273
43/1,Львівське шосе,29016,49.4141480,26.9511484
34а,Тернопільська вулиця,29018,49.4090719,26.9473240
15,Інститутська вулиця,29016,49.4100469,26.9566591
17,Інститутська вулиця,29016,49.4104923,26.9552437
19,Інститутська вулиця,29016,49.4106035,26.9542505
21,Інститутська вулиця,29016,49.4103821,26.9535997
4/3,вулиця Романа Шухевича,29025,49.4365498,26.9593872
16,вулиця Романа Шухевича,29000,49.4460735,26.9392540
9/1,вулиця Пʼяскорського,29025,49.4484820,26.9301814
3/1,вулиця Степана Бандери,29019,49.4381222,26.9823636
44,Зарічанська вулиця,29019,49.4387072,26.9807652
17,вулиця Степана Бандери,29019,49.4381123,26.9830006
203,вулиця Проскурівського підпілля,29014,49.4289213,26.9619087
207,вулиця Проскурівського підпілля,29014,49.4299380,26.9618046
16,Вокзальна вулиця,29025,49.4290145,26.9589169
11,Водопровідна вулиця,29000,49.4267559,26.9939033
40а,вулиця Свободи,29000,49.4232020,26.9898498
8,вулиця Степана Бандери,29019,49.4384080,26.9848071
40,Зарічанська вулиця,29019,49.4372630,26.9844663
32,Зарічанська вулиця,29019,49.4371996,26.9893642
32/1,Зарічанська вулиця,29019,49.4379488,26.9875307
36/3,Зарічанська вулиця,29019,49.4382171,26.9858058
32,Зарічанська вулиця,29019,49.4371994,26.9881291
6,вулиця Степана Бандери,29019,49.4375382,26.9843524
36/2,Зарічанська вулиця,29019,49.4370310,26.9858707
57/1,Зарічанська вулиця,29019,49.4357495,26.9857928
24,Зарічанська вулиця,29017,49.4355582,26.9911083
10-А,вулиця Перемоги,29019,49.4370635,26.9910583
8/1,вулиця Перемоги,29019,49.4378339,26.9911503
10-Б,вулиця Перемоги,29019,49.4375495,26.9904279
22/4,Зарічанська вулиця,29017,49.4352665,26.9920594
24/2,Зарічанська вулиця,29017,49.4359888,26.9921424
15а,вулиця Перемоги,29017,49.4363079,26.9939555
22/2,Зарічанська вулиця,29017,49.4351739,26.9928119
22,Зарічанська вулиця,29017,49.4345904,26.9924926
11/1,вулиця Перемоги,29017,49.4368366,26.9927943
22/1,Зарічанська вулиця,29017,49.4347924,26.9936623
84/2,проспект Миру,29015,49.4353120,27.0100612
76/5,проспект Миру,29015,49.4367420,27.0031815
76/6,проспект Миру,29015,49.4363170,27.0045397
12а,Зарічанська вулиця,29017,49.4333549,27.0033867
12/1,Старокостянтинівське шосе,29015,49.4335865,27.0129359
80/3,проспект Миру,29015,49.4351472,27.0083183
82,проспект Миру,29015,49.4363890,27.0095200
84/1,проспект Миру,29015,49.4353949,27.0116193
9а,вулиця Свободи,29017,49.4352543,27.0007666
8,Старокостянтинівське шосе,29015,49.4343197,27.0140069
84,проспект Миру,29015,49.4359086,27.0109939
88,проспект Миру,29015,49.4349013,27.0141546
78/4,проспект Миру,29015,49.4351909,27.0057755
80/5,проспект Миру,29015,49.4349110,27.0065414
76/7,проспект Миру,29015,49.4353706,27.0043928
12,Зарічанська вулиця,29017,49.4330340,27.0024034
14,Старокостянтинівське шосе,29015,49.4331898,27.0109835
76/2,проспект Миру,29015,49.4371388,27.0049004
86,проспект Миру,29015,49.4353558,27.0127263
10,Старокостянтинівське шосе,29015,49.4340031,27.0127190
78,проспект Миру,29015,49.4371318,27.0072501
76/1,проспект Миру,29015,49.4369181,27.0055800
6,Старокостянтинівське шосе,29015,49.4345574,27.0149186
8/1,Старокостянтинівське шосе,29015,49.4343884,27.0130483
76,проспект Миру,29015,49.4379147,27.0048796
80/1,проспект Миру,29015,49.4359308,27.0088412
80/4,проспект Миру,29015,49.4354780,27.0070537
80/2,проспект Миру,29015,49.4355237,27.0085917
78/5,проспект Миру,29015,49.4348320,27.0054407
78/3,проспект Миру,29015,49.4357711,27.0062695
7а,вулиця Свободи,29017,49.4362925,27.0011402
76/4,проспект Миру,29015,49.4376384,27.0033632
10/4,Зарічанська вулиця,29015,49.4344899,27.0054596
78/2,проспект Миру,29015,49.4362311,27.0066112
76/3,проспект Миру,29015,49.4374079,27.0040236
78/1,проспект Миру,29015,49.4367350,27.0069145
12,Старокостянтинівське шосе,29015,49.4336116,27.0118527
8б,вулиця Свободи,29017,49.4379465,26.9975131
2а,вулиця Свободи,29017,49.4376975,27.0000538
18/1,вулиця Степана Бандери,29019,49.4415003,26.9877411
18/2,вулиця Степана Бандери,29019,49.4411022,26.9889386
70/1,проспект Миру,29017,49.4391615,26.9975023
22,вулиця Степана Бандери,29019,49.4423637,26.9876754
24,вулиця Степана Бандери,29019,49.4431587,26.9883146
20/1,вулиця Степана Бандери,29019,49.4426387,26.9901058
4а,вулиця Свободи,29017,49.4386360,26.9971322
22/2,вулиця Степана Бандери,29019,49.4421699,26.9888466
8а,вулиця Свободи,29017,49.4373844,26.9984416
6а,вулиця Свободи,29017,49.4375533,26.9991394
24,вулиця Героїв Майдану,29000,49.4221164,26.9812539
90,вулиця Грушевського,29000,49.4193972,26.9815129
88,вулиця Грушевського,29000,49.4197417,26.9818292
12,вулиця Максима Залізняка,29027,49.4493510,27.0058441
27/1,вулиця Панаса Мирного,29027,49.4514796,27.0073245
32,вулиця Панаса Мирного,29027,49.4568099,27.0068302
30,вулиця Панаса Мирного,29027,49.4560791,27.0077379
28,вулиця Панаса Мирного,29027,49.4553234,27.0084730
22,вулиця Максима Залізняка,29027,49.4545827,27.0055596
33,вулиця Панаса Мирного,29027,49.4543196,27.0077177
31/3,вулиця Панаса Мирного,29027,49.4533106,27.0060536
6/2,вулиця Кармелюка,29027,49.4564891,27.0117827
20,вулиця Максима Залізняка,29027,49.4535507,27.0050091
31,вулиця Панаса Мирного,29027,49.4534407,27.0080148
18,вулиця Максима Залізняка,29027,49.4524615,27.0046158
20/1,вулиця Максима Залізняка,29027,49.4537128,27.0063248
12,вулиця Кармелюка,29027,49.4563009,27.0144534
10,вулиця Максима Залізняка,29027,49.4495237,27.0074615
21/4,вулиця Панаса Мирного,29027,49.4515142,27.0055402
28/3а,вулиця Панаса Мирного,29027,49.4572807,27.0111359
21/3,вулиця Панаса Мирного,29027,49.4508941,27.0066091
28/2,вулиця Панаса Мирного,29027,49.4565887,27.0103459
32/3,вулиця Панаса Мирного,29027,49.4569484,27.0091010
32/2,вулиця Панаса Мирного,29027,49.4571895,27.0083158
4/2,вулиця Максима Залізняка,29027,49.4485980,27.0080878
23,вулиця Панаса Мирного,29027,49.4499663,27.0096437
26/2,вулиця Панаса Мирного,29027,49.4553733,27.0101662
31/5,вулиця Панаса Мирного,29027,49.4526956,27.0059342
21,вулиця Панаса Мирного,29027,49.4497231,27.0084475
8/1,вулиця Кармелюка,29027,49.4555293,27.0118330
10,вулиця Кармелюка,29027,49.4556685,27.0139767
35,вулиця Панаса Мирного,29027,49.4549326,27.0069429
31/4,вулиця Панаса Мирного,29027,49.4523593,27.0076648
16,вулиця Максима Залізняка,29027,49.4513628,27.0043709
27,вулиця Панаса Мирного,29027,49.4515478,27.0089274
8,вулиця Максима Залізняка,29027,49.4491771,27.0070847
14/2,вулиця Максима Залізняка,29027,49.4503378,27.0055277
30,вулиця Максима Залізняка,29027,49.4575401,27.0075858
34,вулиця Максима Залізняка,29027,49.4593304,27.0096839
36,вулиця Максима Залізняка,29027,49.4599839,27.0091632
4,Лісогринівецька вулиця,29027,49.4595131,27.0108179
10/1,Лісогринівецька вулиця,29027,49.4584668,27.0108033
14,Львівське шосе,29016,49.4156999,26.9517863
8,вулиця Кармелюка,29027,49.4549572,27.0133579
5/2,Зарічанська вулиця,29017,49.4332136,26.9954578
5,Зарічанська вулиця,29017,49.4330431,26.9966061
111,проспект Миру,29000,49.4312136,27.0268685
71,Водопровідна вулиця,29001,49.4246372,27.0001024
75,Водопровідна вулиця,29001,49.4249260,27.0003242
73,Водопровідна вулиця,29001,49.4247822,27.0001989
82,Річна вулиця,29001,49.4250660,27.0004214
69,Водопровідна вулиця,29001,49.4244738,27.0001227
16,вулиця Степана Бандери,29019,49.4408275,26.9868495
111/1,Подільська вулиця,29000,49.4260022,26.9897687
12,вулиця Свободи,29000,49.4263917,26.9909583
94/1,вулиця Вайсера,29000,49.4270381,26.9903080
94/1,вулиця Вайсера,29000,49.4271917,26.9905380
10,вулиця Свободи,29000,49.4265116,26.9910045
98,вулиця Вайсера,29000,49.4272783,26.9908698
94,вулиця Вайсера,29000,49.4273568,26.9904524
14,вулиця Свободи,29000,49.4261150,26.9907812
113,Подільська вулиця,29000,49.4260489,26.9900458
117,Подільська вулиця,29000,49.4260210,26.9903387
90,вулиця Вайсера,29000,49.4274049,26.9899055
17,Володимирська вулиця,29000,49.4273161,26.9892162
109/1,Подільська вулиця,29000,49.4262060,26.9893736
84,вулиця Вайсера,29000,49.4274769,26.9892737
84/1,вулиця Вайсера,29000,49.4270503,26.9892517
10,Подільська вулиця,29000,49.4271088,26.9767860
10/1,Подільська вулиця,29000,49.4267535,26.9773995
75,вулиця Вайсера,29000,49.4277688,26.9896665
75/1,вулиця Вайсера,29000,49.4279627,26.9898908
2,вулиця Грушевського,29000,49.4299983,26.9869342
66,Проскурівська вулиця,29000,49.4193553,26.9967750
79,Проскурівська вулиця,29000,49.4207697,26.9936846
51,вулиця Володимира Пилипчука,29001,49.4217919,26.9950854
64,вулиця Героїв Майдану,29000,49.4189155,26.9885334
6,Прибузька вулиця,29000,49.4306323,26.9836632
4,Прибузька вулиця,29000,49.4305460,26.9823678
2,Прибузька вулиця,29000,49.4309277,26.9816231
52,Староміська вулиця,29000,49.4287808,26.9875520
69,Проскурівська вулиця,29001,49.4213251,26.9922414
73,Проскурівська вулиця,29000,49.4210010,26.9929644
73,Проскурівська вулиця,29000,49.4210901,26.9932196
71,Проскурівська вулиця,29001,49.4212017,26.9925220
71,Проскурівська вулиця,29001,49.4213355,26.9926342
65,Проскурівська вулиця,29001,49.4214582,26.9917688
61,Проскурівська вулиця,29001,49.4220815,26.9910851
67,Проскурівська вулиця,29001,49.4214016,26.9920451
16,вулиця Володимира Пилипчука,29000,49.4228800,26.9914209
26/1,вулиця Володимира Пилипчука,29000,49.4220938,26.9931341
57/2,вулиця Свободи,29001,49.4207293,26.9888997
16,вулиця Івана Франка,29000,49.4217843,26.9936255
171/1,Подільська вулиця,29000,49.4234080,27.0000279
1/2,Володимирська вулиця,29000,49.4285611,26.9900469
77,вулиця Вайсера,29000,49.4276222,26.9898240
6,Прибузька вулиця,29000,49.4305666,26.9846946
25,вулиця Вайсера,29000,49.4278435,26.9849065
6,Соборна вулиця,29000,49.4299963,26.9821135
25,вулиця Проскурівського Підпілля,29000,49.4273631,26.9845353
1/1,вулиця Проскурівського Підпілля,29000,49.4278985,26.9845757
8,Прибузька вулиця,29000,49.4302725,26.9852218
25,Староміська вулиця,29000,49.4298093,26.9815776
65,Подільська вулиця,29000,49.4267426,26.9844183
65,Подільська вулиця,29000,49.4267713,26.9847294
4/3,Проскурівська вулиця,29000,49.4261002,26.9807432
58,Подільська вулиця,29000,49.4259739,26.9858541
73/1,Подільська вулиця,29000,49.4265506,26.9850865
73,Подільська вулиця,29000,49.4265669,26.9853261
30,Зарічанська вулиця,29019,49.4359528,26.9876871
4/2,вулиця Вайсера,29013,49.4278357,26.9782852
5,вулиця Завадського,29013,49.4237187,26.9766329
4,вулиця Вайсера,29013,49.4281770,26.9775985
4/2,вулиця Вайсера,29013,49.4282322,26.9783205
7,вулиця Завадського,29013,49.4232679,26.9762477
52/1,Камʼянецька вулиця,29013,49.4250497,26.9775759
84/1,вулиця Проскурівського Підпілля,29013,49.4246977,26.9765409
13а,вулиця Вайсера,29000,49.4288973,26.9833108
63,вулиця Проскурівського Підпілля,29000,49.4254564,26.9845926
67,вулиця Проскурівського Підпілля,29000,49.4254966,26.9840001
32,вулиця Проскурівського Підпілля,29000,49.4263007,26.9836251
21,Староміська вулиця,29000,49.4299846,26.9807370
3,Камʼянецька вулиця,29000,49.4303682,26.9808387
39,вулиця Грушевського,29000,49.4266691,26.9869326
85,Подільська вулиця,29000,49.4265207,26.9867622
91/1,Подільська вулиця,29000,49.4266084,26.9875111
13,Соборна вулиця,29000,49.4285134,26.9821759
17/1,вулиця Вайсера,29000,49.4283530,26.9835353
9,Соборна вулиця,29000,49.4293681,26.9824820
13/2,вулиця Вайсера,29000,49.4284442,26.9829864
29,Староміська вулиця,29000,49.4297416,26.9825990
17,вулиця Вайсера,29000,49.4285163,26.9825533
17/1,вулиця Вайсера,29000,49.4283899,26.9832801
13,Проскурівська вулиця,29000,49.4254732,26.9832872
7,Проскурівська вулиця,29000,49.4258511,26.9824972
13,Проскурівська вулиця,29000,49.4256482,26.9829025
1,Проскурівська вулиця,29000,49.4264625,26.9817239
1,Проскурівська вулиця,29000,49.4262357,26.9817467
34,вулиця Проскурівського Підпілля,29000,49.4258384,26.9834466
71,вулиця Вайсера,29000,49.4278534,26.9888377
91/2,Подільська вулиця,29000,49.4263297,26.9873378
12,Подільська вулиця,29000,49.4266793,26.9778980
12,Подільська вулиця,29000,49.4268209,26.9782363
46,Камʼянецька вулиця,29000,49.4266040,26.9788026
22/2,Подільська вулиця,29000,49.4268650,26.9786299
17,вулиця Володимира Пилипчука,29001,49.4232980,26.9912945
65,Проскурівська вулиця,29001,49.4219000,26.9921510
65,Проскурівська вулиця,29001,49.4215880,26.9919873
38,Камʼянецька вулиця,29000,49.4279516,26.9790563
40,вулиця Грушевського,29000,49.4255447,26.9857143
23,Проскурівська вулиця,29000,49.4251701,26.9853717
54,вулиця Грушевського,29000,49.4246011,26.9854843
52,вулиця Грушевського,29000,49.4248516,26.9856679
6,Проскурівська вулиця,29000,49.4256670,26.9819620
2,Проскурівська вулиця,29000,49.4258768,26.9816276
2,Проскурівська вулиця,29000,49.4256713,26.9815277
73,вулиця Проскурівського Підпілля,29000,49.4243510,26.9827399
60,вулиця Проскурівського Підпілля,29000,49.4240863,26.9803478
16,Проскурівська вулиця,29000,49.4253187,26.9822353
20,Проскурівська вулиця,29000,49.4245255,26.9838516
11,вулиця Перемоги,29017,49.4370226,26.9919463
13,вулиця Перемоги,29017,49.4364879,26.9925213
13/1,вулиця Перемоги,29017,49.4365724,26.9917619
8,провулок Проскурівського Підпілля,29000,49.4253094,26.9769713
43,Камʼянецька вулиця,29000,49.4248830,26.9788463
43/1,Камʼянецька вулиця,29000,49.4249665,26.9791802
37,Камʼянецька вулиця,29000,49.4258367,26.9795154
71,Соборна вулиця,29000,49.4200887,26.9805091
97,вулиця Свободи,29000,49.4187960,26.9865973
95,вулиця Грушевського,29000,49.4184250,26.9821638
97/1,вулиця Грушевського,29000,49.4180486,26.9820398
97,вулиця Грушевського,29000,49.4182128,26.9821133
4,Європейська вулиця,29000,49.4183865,26.9826183
6,Європейська вулиця,29000,49.4183026,26.9829842
12,Європейська вулиця,29000,49.4181710,26.9837741
14,Європейська вулиця,29000,49.4181098,26.9840869
18,Європейська вулиця,29000,49.4179505,26.9845038
10,Європейська вулиця,29000,49.4182336,26.9835955
16,Європейська вулиця,29000,49.4181545,26.9843520
8,Європейська вулиця,29000,49.4182756,26.9833811
27,вулиця Скоблі,29000,49.4177646,26.9839858
25,вулиця Скоблі,29000,49.4177586,26.9837334
29,вулиця Скоблі,29000,49.4178474,26.9848791
20,Європейська вулиця,29000,49.4180403,26.9850451
10,Володимирський провулок,29000,49.4194027,26.9847458
65,Володимирська вулиця,29001,49.4217298,26.9867538
63,Володимирська вулиця,29001,49.4220481,26.9864259
75,вулиця Проскурівського Підпілля,29000,49.4241356,26.9825112
75/1,вулиця Проскурівського Підпілля,29000,49.4239956,26.9828028
77/2,вулиця Проскурівського Підпілля,29000,49.4237497,26.9828532
77/1,вулиця Проскурівського Підпілля,29000,49.4238437,26.9826849
81/1,вулиця Проскурівського Підпілля,29000,49.4236028,26.9821364
42,Соборна вулиця,29000,49.4247792,26.9807852
54,вулиця Проскурівського Підпілля,29000,49.4240966,26.9814198
36/1,Зарічанська вулиця,29019,49.4375200,26.9862699
80,проспект Миру,29015,49.4366503,27.0083176
25,вулиця Панаса Мирного,29027,49.4507496,27.0098160
32/1,вулиця Панаса Мирного,29027,49.4568638,27.0077278
6б,вулиця Свободи,29017,49.4368801,26.9991641
2,Пекарський провулок,29000,49.4278846,26.9829012
4,Пекарський провулок,29000,49.4276448,26.9827448
6,провулок Проскурівського Підпілля,29000,49.4250897,26.9766593
12,Плоский провулок,29000,49.4261054,26.9755069
6,Плоский провулок,29000,49.4259677,26.9761198
8,Плоский провулок,29000,49.4260423,26.9758952
3,Плоский провулок,29000,49.4256917,26.9761164
12,проїзд Проскурівського Підпілля,29000,49.4255610,26.9753019
2,Плоский провулок,29000,49.4258616,26.9765763
5,Плоский провулок,29000,49.4257453,26.9759388
29,Плоска вулиця,29000,49.4257828,26.9751446
6,проїзд Проскурівського Підпілля,29000,49.4253353,26.9758333
8,проїзд Проскурівського Підпілля,29000,49.4253832,26.9756603
9,Плоский провулок,29000,49.4258534,26.9755660
10,проїзд Проскурівського Підпілля,29000,49.4254914,26.9754828
23/1,Плоска вулиця,29000,49.4266281,26.9756681
4,проїзд Проскурівського Підпілля,29000,49.4252530,26.9760235
9,Подільська вулиця,29000,49.4274012,26.9768457
7,Подільська вулиця,29000,49.4274372,26.9765165
5,Пекарський провулок,29000,49.4275550,26.9831778
51,Львівське шосе,29016,49.4130488,26.9456122
49,Львівське шосе,29016,49.4136804,26.9475196
36,Тернопільська вулиця,29018,49.4103497,26.9455114
65,вулиця Грушевського,29000,49.4243232,26.9858217
42,Проскурівська вулиця,29000,49.4228131,26.9862903
36,вулиця Героїв Майдану,29000,49.4212165,26.9831786
40,Проскурівська вулиця,29000,49.4231481,26.9856127
64,вулиця Грушевського,29000,49.4236624,26.9844432
19/1,Проскурівська вулиця,29000,49.4250789,26.9844886
66,Проскурівська вулиця,29000,49.4197054,26.9927040
21,Камʼянецька вулиця,29000,49.4262435,26.9801290
38,Володимирська вулиця,29000,49.4254461,26.9881233
53,вулиця Грушевського,29000,49.4251313,26.9863854
11,Інститутська вулиця,29016,49.4083526,26.9600855
11/1,Інститутська вулиця,29016,49.4089416,26.9585601
59,проспект Миру,29000,49.4425179,26.9940723
4,Староміський провулок,29000,49.4282394,26.9902463
7,Староміський провулок,29000,49.4283376,26.9908539
73,вулиця Вайсера,29000,49.4277295,26.9894681
87,вулиця Вайсера,29000,49.4281245,26.9909378
6,Староміський провулок,29000,49.4281790,26.9904724
83,вулиця Вайсера,29000,49.4278961,26.9906135
22,вулиця Свободи,29000,49.4252077,26.9906441
20,вулиця Свободи,29000,49.4254020,26.9906970
43,Проскурівська вулиця,29000,49.4238354,26.9871937
53,Проскурівська вулиця,29000,49.4226456,26.9887271
43/2,Камʼянецька вулиця,29000,49.4247352,26.9791887
94/1б,проспект Миру,29015,49.4323397,27.0198551
94/1A,проспект Миру,29015,49.4325969,27.0193626
3,Зарічанська вулиця,29015,49.4319832,27.0081436
3/2,Зарічанська вулиця,29017,49.4326950,26.9999409
14,вулиця Святослава Хороброго,29008,49.4166773,26.9716631
51,Володимирська вулиця,29001,49.4234385,26.9881380
35/2,вулиця Панаса Мирного,29027,49.4542182,27.0066231
16/1,Лісогринівецька вулиця,29027,49.4584416,27.0124754
16/2а,Лісогринівецька вулиця,29001,49.4580589,27.0113858
16/1,Лісогринівецька вулиця,29027,49.4588070,27.0118047
36,вулиця Панаса Мирного,29027,49.4580927,27.0053073
4/1,вулиця Панаса Мирного,29027,49.4485952,27.0076556
93,Подільська вулиця,29000,49.4265355,26.9885179
16/1,Лісогринівецька вулиця,29027,49.4586514,27.0121472
16/2,Лісогринівецька вулиця,29027,49.4577339,27.0100775
18,вулиця Панаса Мирного,29027,49.4523904,27.0119299
101/2,вулиця Проскурівського Підпілля,29001,49.4236966,26.9788398
70,вулиця Проскурівського Підпілля,29000,49.4242111,26.9794312
62,вулиця Проскурівського Підпілля,29000,49.4240996,26.9801127
66,вулиця Проскурівського Підпілля,29000,49.4241342,26.9796845
99,вулиця Проскурівського Підпілля,29001,49.4238190,26.9793394
64,вулиця Проскурівського Підпілля,29000,49.4241120,26.9798662
101,вулиця Проскурівського Підпілля,29001,49.4238759,26.9790169
101/3,вулиця Проскурівського Підпілля,29001,49.4235451,26.9789277
48/1,вулиця Проскурівського Підпілля,29000,49.4245869,26.9819225
68,вулиця Проскурівського Підпілля,29000,49.4243473,26.9798250
68/1,вулиця Проскурівського Підпілля,29000,49.4244573,26.9796641
16,Соборна вулиця,29000,49.4280798,26.9813752
7,провулок Соборний,29000,49.4273058,26.9807855
12/1,вулиця Вайсера,29000,49.4282937,26.9809940
79,Подільська вулиця,29000,49.4264604,26.9859366
77,Подільська вулиця,29000,49.4264754,26.9857906
75,Подільська вулиця,29000,49.4264636,26.9856200
81,Подільська вулиця,29000,49.4264259,26.9861254
23,вулиця Грушевського,29000,49.4276761,26.9869610
25,вулиця Грушевського,29000,49.4275071,26.9868537
67,вулиця Вайсера,29000,49.4282083,26.9881929
57,вулиця Вайсера,29000,49.4280386,26.9866090
33,Староміська вулиця,29000,49.4295444,26.9838525
8а,Бузька вулиця,29000,49.4301484,26.9841374
26,Староміська вулиця,29000,49.4293486,26.9830230
36,вулиця Свободи,29001,49.4239690,26.9899013
36,вулиця Свободи,29001,49.4239518,26.9896473
169,Подільська вулиця,29000,49.4233640,26.9991632
75,Водопровідна вулиця,29001,49.4240960,27.0035950
75/1а,Водопровідна вулиця,29001,49.4245193,27.0009230
75/3,вулиця Проскурівського Підпілля,29000,49.4238204,26.9834209
30,Проскурівська вулиця,29000,49.4242091,26.9846381
62,вулиця Грушевського,29000,49.4238701,26.9847251
28/3,Проскурівська вулиця,29000,49.4240607,26.9842384
32,Проскурівська вулиця,29000,49.4240307,26.9848408
30/1,вулиця Грушевського,29000,49.4238263,26.9845539
57,вулиця Грушевського,29000,49.4247830,26.9862341
59,вулиця Грушевського,29000,49.4244550,26.9869887
35/2,вулиця Грушевського,29000,49.4243632,26.9865268
55,вулиця Грушевського,29000,49.4248998,26.9862182
51/2,вулиця Грушевського,29000,49.4246345,26.9870091
57/1,вулиця Грушевського,29000,49.4247406,26.9865659
61,вулиця Грушевського,29000,49.4245450,26.9859734
19/3,Проскурівська вулиця,29000,49.4252812,26.9848890
61,вулиця Проскурівського Підпілля,29000,49.4258952,26.9841848
21,Проскурівська вулиця,29000,49.4250933,26.9849227
19/2,Проскурівська вулиця,29000,49.4250557,26.9846510
49,вулиця Грушевського,29000,49.4255062,26.9870959
51,вулиця Грушевського,29000,49.4253113,26.9862472
68,Подільська вулиця,29000,49.4259600,26.9871170
51,вулиця Грушевського,29000,49.4253960,26.9863607
43,Подільська вулиця,29000,49.4260971,26.9865275
64,Подільська вулиця,29000,49.4260542,26.9868021
45,Проскурівська вулиця,29000,49.4236947,26.9876656
44/1,Володимирська вулиця,29000,49.4244983,26.9878224
50,Володимирська вулиця,29000,49.4243807,26.9880398
45,Проскурівська вулиця,29000,49.4233596,26.9871572
50,Володимирська вулиця,29000,49.4242484,26.9878750
78,Подільська вулиця,29001,49.4256786,26.9889772
53/1,вулиця Грушевського,29000,49.4250287,26.9868142
55/1,вулиця Грушевського,29000,49.4248165,26.9869504
105,Подільська вулиця,29000,49.4266183,26.9894515
85,вулиця Вайсера,29000,49.4281205,26.9906882
94,вулиця Вайсера,29000,49.4272665,26.9903568
115,Подільська вулиця,29000,49.4267124,26.9910503
30,вулиця Свободи,29001,49.4243633,26.9899856
34,Річна вулиця,29000,49.4282715,26.9911711
36,Річна вулиця,29000,49.4282032,26.9914347
86,вулиця Вайсера,29000,49.4274019,26.9895861
5/3,Зарічанська вулиця,29017,49.4333396,26.9947394
3,Бузька вулиця,29000,49.4299214,26.9838094
5,Бузька вулиця,29000,49.4299892,26.9835190
3/1,Бузька вулиця,29000,49.4299185,26.9841020
14,Бузька вулиця,29000,49.4302996,26.9831442
1,Бузька вулиця,29000,49.4298830,26.9846384
6/1а,Прибузька вулиця,29000,49.4304237,26.9832196
8,вулиця Проскурівського Підпілля,29000,49.4297297,26.9845177
9,Бузька вулиця,29000,49.4301215,26.9826019
10,Бузька вулиця,29000,49.4303220,26.9836726
35,Староміська вулиця,29000,49.4295341,26.9843497
18,Бузька вулиця,29000,49.4304170,26.9826730
20/1а,Львівське шосе,29000,49.4146433,26.9467899
2/1б,Старокостянтинівське шосе,29027,49.4514125,27.0127660
46/1,вулиця Свободи,29000,49.4214948,26.9886648
51,вулиця Свободи,29001,49.4217209,26.9897787
7,Плоский провулок,29000,49.4258029,26.9757597
6/1,Подільська вулиця,29000,49.4271242,26.9759141
19,Плоска вулиця,29000,49.4275428,26.9761404
34,Тернопільська вулиця,29018,49.4095283,26.9459867
34,Тернопільська вулиця,29018,49.4099932,26.9452264
2/3 г,Молодіжна вулиця,29026,49.4124004,26.9545698
2/4,Нижня Берегова вулиця,29000,49.4397441,26.9701328
7,Бузька вулиця,29000,49.4300281,26.9829794
24/1,вулиця Володимира Пилипчука,29000,49.4223844,26.9925546
22/1,вулиця Володимира Пилипчука,29000,49.4223916,26.9918729
24/3,вулиця Володимира Пилипчука,29000,49.4224648,26.9921927
25,Роздільна вулиця,29016,49.4161200,26.9343977
23,Роздільна вулиця,29016,49.4159387,26.9344268
21,Роздільна вулиця,29016,49.4157691,26.9343889
19,Роздільна вулиця,29016,49.4155962,26.9343608
17,Роздільна вулиця,29016,49.4154319,26.9342986
15,Роздільна вулиця,29016,49.4152411,26.9342653
58,Соборна вулиця,29000,49.4226941,26.9801816
5б,Старокостянтинівське шосе,29015,49.4308881,27.0173440
24/3,Лісогринівецька вулиця,29027,49.4557762,27.0164612
20,Лісогринівецька вулиця,29027,49.4564993,27.0166099
22,Лісогринівецька вулиця,29027,49.4562600,27.0170540
24,Лісогринівецька вулиця,29027,49.4559753,27.0176011
24/1,Лісогринівецька вулиця,29027,49.4557675,27.0173157
5/3,вулиця Кармелюка,29027,49.4532404,27.0147081
5,вулиця Кармелюка,29027,49.4534208,27.0142301
24/2,Лісогринівецька вулиця,29027,49.4554826,27.0171522
20/1,Лісогринівецька вулиця,29027,49.4560850,27.0161472
18-А,вулиця Панаса Мирного,29027,49.4519023,27.0115776
18-Б,вулиця Панаса Мирного,29027,49.4516830,27.0108835
18,Лісогринівецька вулиця,29027,49.4567997,27.0153005
87/1,провулок Грушевського,29000,49.4194642,26.9831044
14,4-й Ромашковий проїзд,29000,49.3707701,27.0341999
5/1,проїзд Панаса Мирного,29027,49.4542481,27.0125871
6,провулок Дружби,29016,49.4151354,26.9319312
57/1,вулиця Петлюри,29008,49.4055604,26.9804009
14,вулиця Максима Залізняка,29027,49.4502061,27.0039971
5/2,провулок Панаса Мирного,29027,49.4548987,27.0114924
8/1,вулиця Кармелюка,29027,49.4550275,27.0121335
2,провулок Панаса Мирного,29027,49.4537171,27.0127251
41/4,проспект Миру,29019,49.4467292,26.9822234
101/3-a,проспект Миру,29015,49.4337644,27.0215966
103/1,проспект Миру,29015,49.4331531,27.0219237
13,вулиця Чорнобрового,29000,49.4153252,26.9977267
79,Володимирська вулиця,29001,49.4205817,26.9846781
40,вулиця Героїв Майдану,29001,49.4207250,26.9849628
46/1,вулиця Героїв Майдану,29001,49.4202550,26.9853620
17,Соборна вулиця,29013,49.4274944,26.9819193
17,Соборна вулиця,29013,49.4276177,26.9819513
17,Соборна вулиця,29013,49.4274014,26.9819012
17,Соборна вулиця,29013,49.4276804,26.9819799
15/1б,вулиця Свободи,29017,49.4316873,26.9967697
80,Володимирська вулиця,29000,49.4206187,26.9806120
5,Проскурівська вулиця,29000,49.4260319,26.9822736
54,вулиця Героїв Майдану,29000,49.4192532,26.9880922
41,вулиця Скоблі,29001,49.4182246,26.9873020
39,вулиця Скоблі,29001,49.4181825,26.9870423
37,вулиця Скоблі,29001,49.4181564,26.9866876
35,вулиця Скоблі,29001,49.4181615,26.9865255
93,вулиця Грушевського,29000,49.4187157,26.9822568
44,Проскурівська вулиця,29000,49.4226204,26.9877233
87/3,провулок Грушевського,29000,49.4194007,26.9835781
87/5,провулок Грушевського,29000,49.4193552,26.9839183
87/1,Володимирська вулиця,29000,49.4199801,26.9828633
2,Європейська вулиця,29000,49.4184057,26.9823591
1,провулок Скоблі,29000,49.4182085,26.9803620
3,провулок Скоблі,29000,49.4181246,26.9805020
11,провулок Скоблі,29000,49.4173724,26.9801815
7,провулок Скоблі,29000,49.4178416,26.9803094
96,вулиця Грушевського,29000,49.4179453,26.9813585
94,вулиця Грушевського,29000,49.4180814,26.9814640
50,вулиця Грушевського,29000,49.4249992,26.9857009
54/1,Подільська вулиця,29000,49.4258758,26.9851859
22,Проскурівська вулиця,29000,49.4244966,26.9840744
24,Проскурівська вулиця,29000,49.4244419,26.9842627
28,Проскурівська вулиця,29000,49.4243359,26.9844593
44/1,Соборна вулиця,29000,49.4244877,26.9807415
33,Соборна вулиця,29000,49.4241182,26.9811777
52,вулиця Проскурівського Підпілля,29000,49.4241245,26.9818747
52/1,вулиця Проскурівського Підпілля,29000,49.4240395,26.9817485
12/1,вулиця Володимира Пилипчука,29000,49.4229869,26.9909940
14,вулиця Володимира Пилипчука,29000,49.4229406,26.9911851
12/1,вулиця Володимира Пилипчука,29000,49.4228610,26.9909399
22,вулиця Володимира Пилипчука,29000,49.4226142,26.9919133
24/4,вулиця Володимира Пилипчука,29000,49.4221722,26.9918124
46,Володимирська вулиця,29000,49.4244908,26.9880634
44,Володимирська вулиця,29000,49.4245890,26.9879631
36,Володимирська вулиця,29000,49.4257889,26.9883146
47,вулиця Грушевського,29000,49.4257091,26.9869095
63,вулиця Грушевського,29000,49.4244249,26.9859360
17,Камʼянецька вулиця,29000,49.4280393,26.9802234
21,вулиця Вайсера,29000,49.4276117,26.9803532
9,провулок Соборний,29000,49.4273958,26.9808600
20,Соборна вулиця,29013,49.4277523,26.9814327
15,Подільська вулиця,29000,49.4272848,26.9775653
11,Подільська вулиця,29000,49.4273667,26.9772314
3,провулок Йосипа Лапушкіна,29000,49.4276961,26.9776112
1,провулок Йосипа Лапушкіна,29000,49.4274553,26.9776224
3/1а,Подільська вулиця,29000,49.4276806,26.9756654
12,Подільська вулиця,29000,49.4268819,26.9779367
23,Плоска вулиця,29000,49.4262963,26.9753904
24,вулиця Проскурівського Підпілля,29000,49.4271796,26.9838406
28,вулиця Проскурівського Підпілля,29000,49.4269479,26.9836842
26,вулиця Проскурівського Підпілля,29000,49.4270324,26.9834814
20,вулиця Проскурівського Підпілля,29000,49.4273941,26.9839553
20/1,вулиця Проскурівського Підпілля,29000,49.4274777,26.9836781
22/1,вулиця Проскурівського Підпілля,29000,49.4273213,26.9835501
5,Пекарський провулок,29000,49.4273438,26.9830897
7,Пекарський провулок,29000,49.4272464,26.9830117
9,Пекарський провулок,29000,49.4271397,26.9831048
11,Пекарський провулок,29000,49.4270439,26.9827972
8,Пекарський провулок,29000,49.4273273,26.9826957
6,Пекарський провулок,29000,49.4274549,26.9824192
26,вулиця Вайсера,29013,49.4281744,26.9824689
53,вулиця Вайсера,29000,49.4280662,26.9861897
55,вулиця Вайсера,29000,49.4280828,26.9863814
12,вулиця Грушевського,29000,49.4282919,26.9866474
12/1,вулиця Грушевського,29000,49.4283558,26.9864479
10,вулиця Грушевського,29000,49.4284345,26.9863944
6,вулиця Грушевського,29000,49.4286419,26.9866508
73/1,Подільська вулиця,29000,49.4268200,26.9854911
73/2,Подільська вулиця,29000,49.4269408,26.9856670
77/1,Подільська вулиця,29000,49.4267818,26.9858959
32,вулиця Грушевського,29000,49.4266488,26.9862013
30,вулиця Грушевського,29000,49.4267734,26.9862010
26,вулиця Грушевського,29000,49.4269911,26.9862629
26/1,вулиця Грушевського,29000,49.4270761,26.9860744
35,вулиця Грушевського,29000,49.4270287,26.9867527
31,вулиця Грушевського,29000,49.4271527,26.9867821
33,вулиця Грушевського,29000,49.4271103,26.9870801
29,вулиця Грушевського,29000,49.4273148,26.9867665
27,вулиця Грушевського,29000,49.4273959,26.9868000
109,Подільська вулиця,29000,49.4262512,26.9897731
115,Подільська вулиця,29000,49.4261876,26.9902316
62,вулиця Грушевського,29001,49.4236764,26.9837787
62/1,вулиця Грушевського,29000,49.4240161,26.9844807
75/2,вулиця Проскурівського Підпілля,29000,49.4239504,26.9830715
81,вулиця Проскурівського Підпілля,29000,49.4238353,26.9821848
79,вулиця Проскурівського Підпілля,29000,49.4238886,26.9822339
77,вулиця Проскурівського Підпілля,29000,49.4239413,26.9822827
84,вулиця Грушевського,29000,49.4208966,26.9821459
103,вулиця Проскурівського Підпілля,29001,49.4238819,26.9787179
47/1,Камʼянецька вулиця,29000,49.4243282,26.9785413
22а,вулиця Свободи,29000,49.4275712,26.9911526
12/1,Прибузька вулиця,29000,49.4286193,26.9914169
10,Прибузька вулиця,29000,49.4292100,26.9895420
20,Річна вулиця,29000,49.4297449,26.9880080
18,Річна вулиця,29000,49.4298688,26.9877775
16,Річна вулиця,29000,49.4299849,26.9874851
1,вулиця Грушевського,29000,49.4296241,26.9873912
63,Староміська вулиця,29000,49.4292495,26.9876813
61,Староміська вулиця,29000,49.4291776,26.9874973
5,вулиця Грушевського,29000,49.4292609,26.9871934
5,вулиця Грушевського,29000,49.4293289,26.9873490
2,вулиця Грушевського,29000,49.4300597,26.9869942
57/1,Староміська вулиця,29000,49.4294250,26.9869189
57,Староміська вулиця,29000,49.4292341,26.9868787
55,Староміська вулиця,29000,49.4294186,26.9867048
53/2,Староміська вулиця,29000,49.4296120,26.9866568
53,Староміська вулиця,29000,49.4292891,26.9864610
51,Староміська вулиця,29000,49.4293317,26.9862233
51/1,Староміська вулиця,29000,49.4295257,26.9862687
49/1,Староміська вулиця,29000,49.4298030,26.9861959
10,Річна вулиця,29000,49.4302046,26.9864446
2/1а,вулиця Грушевського,29000,49.4300608,26.9864065
8,Річна вулиця,29000,49.4302399,26.9862077
6,Річна вулиця,29000,49.4302849,26.9859881
2,Річна вулиця,29000,49.4303587,26.9857124
8,Прибузька вулиця,29000,49.4304978,26.9852748
49,Староміська вулиця,29000,49.4293804,26.9860538
47/1,Староміська вулиця,29000,49.4296114,26.9859403
47,Староміська вулиця,29000,49.4294002,26.9858877
45,Староміська вулиця,29000,49.4294280,26.9857044
43/1,Староміська вулиця,29000,49.4296292,26.9856594
43,Староміська вулиця,29000,49.4293922,26.9855334
41,Староміська вулиця,29000,49.4294190,26.9853797
39,Староміська вулиця,29000,49.4294587,26.9851745
37,Староміська вулиця,29000,49.4294127,26.9849551
7,вулиця Проскурівського Підпілля,29000,49.4295210,26.9849489
41/1,Староміська вулиця,29000,49.4296776,26.9854808
5/1,вулиця Проскурівського Підпілля,29000,49.4298835,26.9854193
5,вулиця Проскурівського Підпілля,29000,49.4299287,26.9852390
4,Бузька вулиця,29000,49.4302458,26.9845800
2,Бузька вулиця,29000,49.4301413,26.9847957
12,Бузька вулиця,29000,49.4302788,26.9833539
16,Бузька вулиця,29000,49.4303198,26.9828757
5/1,Бузька вулиця,29000,49.4300110,26.9832531
3,Соборна вулиця,29000,49.4300008,26.9826307
31,Староміська вулиця,29000,49.4296281,26.9833789
17/1,вулиця Вайсера,29000,49.4283340,26.9837786
12,Володимирська вулиця,29000,49.4280542,26.9890372
69,вулиця Вайсера,29000,49.4280334,26.9885054
65/1,вулиця Вайсера,29000,49.4279260,26.9879624
65,вулиця Вайсера,29000,49.4280118,26.9877571
63,вулиця Вайсера,29000,49.4279405,26.9874866
61,вулиця Вайсера,29000,49.4280387,26.9872207
59,вулиця Вайсера,29000,49.4279990,26.9870041
19,вулиця Грушевського,29000,49.4282011,26.9869806
19,вулиця Грушевського,29000,49.4281320,26.9869639
17,вулиця Грушевського,29000,49.4283248,26.9870392
15/1,вулиця Грушевського,29000,49.4283931,26.9872842
15,вулиця Грушевського,29000,49.4284777,26.9871614
61,Проскурівська вулиця,29001,49.4219593,26.9907290
2,вулиця Володимира Пилипчука,29001,49.4235728,26.9887556
51/2,Проскурівська вулиця,29001,49.4231638,26.9890497
51,Проскурівська вулиця,29001,49.4229603,26.9887547
5,вулиця Володимира Пилипчука,29001,49.4239276,26.9892059
5/2,вулиця Володимира Пилипчука,29001,49.4241276,26.9891632
5/3,вулиця Володимира Пилипчука,29001,49.4243304,26.9893019
92,Подільська вулиця,29000,49.4256219,26.9907566
90,Подільська вулиця,29000,49.4256649,26.9904040
88,Подільська вулиця,29000,49.4256857,26.9901688
86,Подільська вулиця,29000,49.4257291,26.9899389
84,Подільська вулиця,29000,49.4257438,26.9897856
4,Проскурівська вулиця,29000,49.4257756,26.9818182
12/1,Соборна вулиця,29000,49.4291820,26.9818839
13,Камʼянецька вулиця,29000,49.4290116,26.9801232
1а,вулиця Георгія Гонгадзе,29000,49.4384732,26.9554615
34,вулиця Панаса Мирного,29027,49.4573548,27.0060244
43,Соборна вулиця,29001,49.4234754,26.9813039
54/1,Вінницьке шосе,29011,49.4240762,27.0588774
115,Північна вулиця,29025,49.4504165,26.9334388
14/4а,Зарічанська вулиця,29000,49.4347989,27.0029797
20,вулиця Героїв Маріуполя,29000,49.4194232,26.9765100
69,Камʼянецька вулиця,29000,49.4197269,26.9763018
34Г,Тернопільська вулиця,29016,49.4123448,26.9477221
43,Львівське шосе,29016,49.4145936,26.9523218
28,Лісогринівецька вулиця,29027,49.4548793,27.0185769
30/3,Лісогринівецька вулиця,29027,49.4541736,27.0188806
11/1,вулиця Кармелюка,29027,49.4554105,27.0157002
5/4,вулиця Кармелюка,29027,49.4535781,27.0149810
5/1,вулиця Кармелюка,29027,49.4537542,27.0145049
5/5,вулиця Кармелюка,29027,49.4540510,27.0153600
5/6,вулиця Кармелюка,29027,49.4530613,27.0151938
5/7,вулиця Кармелюка,29027,49.4533952,27.0154620
5/8,вулиця Кармелюка,29027,49.4538439,27.0158694
18в,вулиця Панаса Мирного,29027,49.4511242,27.0111143
18/1б,вулиця Панаса Мирного,29027,49.4523473,27.0103999
18/1а,вулиця Панаса Мирного,29027,49.4525487,27.0108517
4/2,вулиця Кармелюка,29027,49.4531951,27.0115297
110,Профспілкова вулиця,29011,49.4232954,27.0501634
39,Профспілкова вулиця,29011,49.4248289,27.0472128
184,Камʼянецька вулиця,29021,49.3876336,26.9550429
41/1,вулиця Старицького,29021,49.3933142,26.9618423
5,вулиця Верхоли,29022,49.3957601,27.0452331
54,Вінницьке шосе,29011,49.4239477,27.0593077
14/1,Старокостянтинівське шосе,29015,49.4332082,27.0120472
84/2а,проспект Миру,29015,49.4346287,27.0110765
77,вулиця Свободи,29000,49.4193295,26.9873189
80,Камʼянецька вулиця,29000,49.4193944,26.9753305
24,вулиця Героїв Маріуполя,29000,49.4194082,26.9750281
71/4,проспект Миру,29015,49.4386297,27.0090093
76/6,проспект Миру,29015,49.4362260,27.0046446
79,вулиця Вайсера,29000,49.4276232,26.9906646
56,Вокзальна вулиця,29025,49.4320197,26.9541207
32,вулиця Максима Залізняка,29027,49.4580713,27.0088123
1в,вулиця Максима Залізняка,29027,49.4521184,27.0034771
22,вулиця Панаса Мирного,29027,49.4534880,27.0095602
22/1,вулиця Панаса Мирного,29027,49.4536355,27.0103245
18,1-й проїзд Купайла,29000,49.4263249,27.0730146
33,Заводська вулиця,29000,49.4182551,27.0157120
32,вулиця Максима Залізняка,29027,49.4585546,27.0092521
66,вулиця Грушевського,29000,49.4235120,26.9841755
107/1,проспект Миру,29000,49.4332012,27.0222582
4/3,вулиця Кармелюка,29027,49.4534989,27.0114491
24,вулиця Панаса Мирного,29024,49.4539723,27.0092893
21,1-й Книжковецький проїзд,29000,49.3708752,27.0346016
2/1,вулиця Свободи,29000,49.4298007,26.9916389
3/3,вулиця Кармелюка,29027,49.4526803,27.0143072
3/5,вулиця Кармелюка,29027,49.4524912,27.0147692
25,Подільська вулиця,29000,49.4272862,26.9799316
68,вулиця Вайсера,29000,49.4274405,26.9881133
91,Володимирська вулиця,29000,49.4200662,26.9814658
14/1,вулиця Максима Залізняка,29027,49.4499480,27.0051577
2/1,вулиця Свободи,29000,49.4299346,26.9921589
7,вулиця Героїв Маріуполя,29013,49.4184620,26.9761469
7,Зарічанська вулиця,29017,49.4332158,26.9937874
50,Камʼянецька вулиця,29013,49.4255519,26.9780708
18,Проскурівська вулиця,29000,49.4247838,26.9836300
48,Камʼянецька вулиця,29000,49.4260192,26.9787369
5,вулиця Героїв Маріуполя,29013,49.4186076,26.9773522
15,вулиця Скоблі,29000,49.4175365,26.9807757
