House number,Street name,Postal code,Latitude,Longitude
23,Bulevardul Independenței,507184,47.1662952,27.5880890
2,Strada Nicolina,700780,47.1508688,27.5862524
4,Strada Cuza Vodă,700036,47.1650570,27.5817725
7,Strada Petru Rareș,700126,47.1656179,27.5757826
10,Strada Rece,700115,47.1675515,27.5868397
21,Stradela Sfântul Atanasie,700115,47.1683735,27.5872038
7-9,Strada General Henri Mathias Berthelot,507184,47.1733202,27.5750873
1,Bulevardul Socola,700186,47.1509304,27.5882708
7,Șoseaua Bucium,700280,47.1324810,27.6122370
25,Bulevardul Alexandru cel Bun,700880,47.1630097,27.5638457
26,Bulevardul Alexandru cel Bun,507184,47.1624533,27.5666409
121,Șoseaua Păcurari,700523,47.1679214,27.5107632
51-53,Bulevardul Socola,700268,47.1437635,27.5982370
175-177,Șoseaua Păcurari,700552,47.1745230,27.5004346
42,Strada Ciurchi,700313,47.1582077,27.6052237
7-9,Strada Petre Țuțea,700730,47.1449716,27.5809615
37,Șoseaua Națională,700237,47.1544115,27.5801896
55,Șoseaua Bucium,700282,47.1288961,27.6155826
55,Șoseaua Bucium,700282,47.1288884,27.6156018
90,Strada Vasile Lupu,700341,47.1583859,27.6138504
88,Strada Vasile Lupu,700341,47.1591037,27.6140103
71A,Bulevardul Profesor Dimitrie Mangeron,700310,47.1551751,27.6016463
2,Strada Nicolae Gane,507184,47.1697116,27.5785741
8,Strada Nicolae Gane,507184,47.1700453,27.5785365
16,Strada Nicolae Gane,507184,47.1707747,27.5782536
11,Strada Gării,700088,47.1667153,27.5730674
46,Aleea M. Sadoveanu,700489,47.2014940,27.5377505
83,Strada Vasile Lupu,700800,47.1603058,27.6133351
44,Aleea Tudor Neculai,700374,47.1374792,27.5735524
15,Aleea Rozelor,700203,47.1478809,27.5857215
64,Strada Costache Negri,700840,47.1600918,27.5853643
3,Piața Unirii,507184,47.1673575,27.5808083
114,Strada Vasile Lupu,700343,47.1586186,27.6196063
116,Strada Vasile Lupu,700343,47.1581703,27.6197924
124A,Strada Vasile Lupu,700344,47.1570723,27.6203881
124B,Strada Vasile Lupu,700344,47.1570899,27.6207100
17,Strada Nicolae Gane,507184,47.1712317,27.5779206
19,Strada Nicolae Gane,507184,47.1714334,27.5777664
21,Strada Nicolae Gane,507184,47.1719367,27.5775197
23,Strada Nicolae Gane,507184,47.1721288,27.5773922
85A,Strada Păcurari,507184,47.1722634,27.5636182
83,Strada Păcurari,507184,47.1722465,27.5636686
85,Strada Păcurari,507184,47.1722787,27.5635748
20,Strada Belvedere,507184,47.1756514,27.5615243
10,Strada Florilor,507184,47.1692342,27.5723479
6,Strada Florilor,507184,47.1694293,27.5732306
12,Strada Florilor,507184,47.1703225,27.5692187
42,Strada Florilor,507184,47.1702711,27.5683116
44,Strada Florilor,507184,47.1703378,27.5681152
5,Strada Florilor,507184,47.1699411,27.5707197
27,Strada Săulescu,507184,47.1629571,27.5770097
21,Strada Săulescu,507184,47.1633623,27.5774615
15A,Strada Săulescu,507184,47.1641499,27.5782979
8,Strada Săulescu,507184,47.1640682,27.5779181
41,Strada Iancu Bacalu,700029,47.1566216,27.5790032
34,Strada Iancu Bacalu,700029,47.1567352,27.5789739
37,Strada Iancu Bacalu,700029,47.1567028,27.5793048
32,Strada Iancu Bacalu,700029,47.1568068,27.5792087
26,Strada Iancu Bacalu,700029,47.1572324,27.5808521
25,Stradela Alexandru Ipsilanti,507184,47.1573408,27.5794336
27,Stradela Alexandru Ipsilanti,507184,47.1573152,27.5792915
18 20,Stradela Alexandru Vodă Ipsilanti,507184,47.1577067,27.5810294
34,Stradela Alexandru Ipsilanti,507184,47.1574941,27.5797301
22,Strada Iancu Bacalu,700029,47.1573458,27.5812265
10,Strada Iancu Bacalu,700029,47.1575494,27.5820053
8,Strada Iancu Bacalu,700029,47.1576365,27.5823116
3,Stradela Alexandru Ipsilanti,507184,47.1578655,27.5821272
6,Stradela Alexandru Ipsilanti,507184,47.1578564,27.5818431
8,Stradela Alexandru Ipsilanti,507184,47.1578360,27.5817629
51,Strada Sfântul Andrei,700028,47.1580100,27.5827315
47,Strada Sfântul Andrei,700028,47.1578407,27.5828619
2,Strada Iancu Bacalu,700029,47.1577333,27.5826752
1,Strada Iancu Bacalu,700029,47.1576242,27.5827207
4,Strada Funcționarilor,507184,47.1601088,27.5781030
11,Strada Funcționarilor,507184,47.1600577,27.5779317
7,Strada Funcționarilor,507184,47.1598021,27.5781155
13,Strada Funcționarilor,507184,47.1603446,27.5777229
6,Strada Funcționarilor,507184,47.1602849,27.5779735
10A,Strada Morilor,507184,47.1605831,27.5775391
60B,Strada Sf. Petru Movilă,507184,47.1614014,27.5784324
59,Strada Sf. Petru Movilă,507184,47.1612871,27.5788939
63,Strada Sf. Petru Movilă,507184,47.1608622,27.5795380
62,Strada Morilor,507184,47.1577310,27.5773272
25,Strada Morilor,507184,47.1585198,27.5774074
50,Strada Morilor,507184,47.1583310,27.5772498
52,Strada Morilor,507184,47.1582197,27.5772589
37,Strada Morilor,507184,47.1581764,27.5774682
18,Strada Morilor,507184,47.1600280,27.5770435
30,Strada Morilor,507184,47.1593115,27.5771254
19,Strada Morilor,507184,47.1592188,27.5773392
16,Strada Morilor,507184,47.1601126,27.5770649
26,Strada Morilor,507184,47.1595400,27.5770899
81,Strada Păcurari,507184,47.1722334,27.5637129
17,Strada Petru Rareș,507184,47.1660698,27.5755211
8,Strada Petru Rareș,507184,47.1661104,27.5756354
19,Strada Petru Rareș,507184,47.1661528,27.5754706
21,Strada Petru Rareș,507184,47.1664542,27.5754278
14,Strada Petru Rareș,507184,47.1664327,27.5753373
22,Strada Florilor,507184,47.1692565,27.5715345
26A,Strada Florilor,507184,47.1695006,27.5709814
28,Strada Florilor,507184,47.1696691,27.5705334
7,Strada Florilor,507184,47.1691102,27.5722099
12,Strada Florilor,507184,47.1691951,27.5721237
5,Strada Florilor,507184,47.1691388,27.5724383
18,Strada Florilor,507184,47.1691409,27.5717314
1C,Strada Florilor,507184,47.1688759,27.5734391
71,Strada Păcurari,507184,47.1723153,27.5650034
73,Strada Păcurari,507184,47.1722692,27.5648212
86,Strada Păcurari,507184,47.1724612,27.5649472
72,Strada Păcurari,507184,47.1724591,27.5663396
66,Strada Păcurari,507184,47.1721281,27.5672955
40,Strada Florilor,507184,47.1701824,27.5685300
34,Strada Florilor,507184,47.1698579,27.5699680
36bis,Strada Florilor,507184,47.1699207,27.5697861
36bis,Strada Florilor,507184,47.1699842,27.5696211
27A,Strada Săulescu,507184,47.1629166,27.5769629
12bis,Strada Săulescu,507184,47.1631608,27.5769944
23,Strada Săulescu,507184,47.1632080,27.5772750
11,Strada Petru Rareș,507184,47.1657611,27.5758362
13,Strada Petru Rareș,507184,47.1658131,27.5757905
6A,Strada Petru Rareș,507184,47.1658509,27.5759206
128,Strada Vasile Lupu,700357,47.1572341,27.6215161
130,Strada Vasile Lupu,700357,47.1567858,27.6217022
10B,Strada Râpa Galbenă,507184,47.1685878,27.5749112
10A,Strada Râpa Galbenă,507184,47.1686498,27.5746377
10,Strada Râpa Galbenă,507184,47.1685198,27.5752412
51,Strada Păcurari,507184,47.1719417,27.5673413
55,Strada Păcurari,507184,47.1721123,27.5668926
35,Strada Păcurari,507184,47.1711045,27.5698792
45,Strada Păcurari,507184,47.1713375,27.5687688
52,Strada Păcurari,507184,47.1716072,27.5685858
58,Strada Păcurari,507184,47.1718074,27.5680588
33,Strada Păcurari,507184,47.1709858,27.5704441
19,Strada Păcurari,507184,47.1705127,27.5727267
23,Strada Păcurari,507184,47.1705675,27.5724672
10,Strada Păcurari,507184,47.1702120,27.5741681
13,Strada Păcurari,507184,47.1701110,27.5741059
15,Strada Păcurari,507184,47.1702369,27.5737178
17,Strada Păcurari,507184,47.1703747,27.5732734
17A,Strada Păcurari,507184,47.1704415,27.5730385
8,Strada Păcurari,507184,47.1701369,27.5744664
11,Strada Păcurari,507184,47.1700342,27.5744474
12,Strada Râpa Galbenă,507184,47.1683562,27.5758613
16,Strada Vasile Stroescu,700079,47.1656355,27.5871486
5,Strada Roșcani,700141,47.1666232,27.5925699
236,Bulevardul Nicolae Iorga,700721,47.1562082,27.5746764
1,Strada Parcului,700392,47.1535510,27.6173554
C4  3,Strada Parcului,700392,47.1534579,27.6176000
28,Strada Parcului,700390,47.1534491,27.6169924
3,Strada Parcului,700392,47.1533681,27.6178487
26,Strada Parcului,700390,47.1536351,27.6169678
28,Strada Grădinari,700392,47.1526103,27.6190856
26,Strada Grădinari,700392,47.1526490,27.6188331
18,Strada Grădinari,700392,47.1528019,27.6178346
22 bl. f6 sc b,Strada Grădinari,700392,47.1527245,27.6183323
20,Strada Grădinari,700392,47.1527655,27.6180765
24,Strada Grădinari,700392,47.1526869,27.6185802
32,Strada Grădinari,700392,47.1524980,27.6198138
30,Strada Grădinari,700392,47.1525399,27.6195376
3,Strada Grădinari,700390,47.1528433,27.6192999
49,Bulevardul Chimiei,700393,47.1521335,27.6197016
43,Bulevardul Chimiei,700393,47.1522704,27.6188159
F45,Bulevardul Chimiei,700393,47.1522264,27.6191004
47,Bulevardul Chimiei,700393,47.1521784,27.6194071
34,Strada Grădinari,700392,47.1523153,27.6197941
6,Strada Grădinari,700390,47.1531032,27.6160826
8,Strada Grădinari,700390,47.1530601,27.6163490
13,Bulevardul Chimiei,700391,47.1530025,27.6142835
15,Bulevardul Chimiei,700391,47.1529646,27.6145264
19,Bulevardul Chimiei,700391,47.1528534,27.6150467
17,Bulevardul Chimiei,700391,47.1529214,27.6147996
21,Bulevardul Chimiei,700391,47.1529790,27.6151309
9,Bulevardul Chimiei,700391,47.1531180,27.6135648
11,Bulevardul Chimiei,700391,47.1530756,27.6138374
16,Strada Pantelimon Halipa,700081,47.1478437,27.5763326
15,Strada Grădinari,700390,47.1533767,27.6160946
11,Strada Grădinari,700390,47.1534884,27.6153932
B35    18,Strada Parcului,700390,47.1538409,27.6158166
3,Strada Grădinari,700390,47.1536774,27.6141851
B 3-5  14,Strada Parcului,700390,47.1539157,27.6152204
B 8 12   9,Strada Grădinari,700390,47.1535328,27.6151282
13,Strada Grădinari,700390,47.1534439,27.6156695
B35     16,Strada Parcului,700390,47.1538892,27.6155055
A 1-3 10,Strada Parcului,700390,47.1540513,27.6144829
17,Strada Grădinari,700390,47.1533367,27.6163474
A13     8,Strada Parcului,700390,47.1540987,27.6141907
5,Strada Grădinari,700390,47.1536168,27.6145969
24,Strada Parcului,700390,47.1535220,27.6166206
22,Strada Parcului,700390,47.1536904,27.6165970
A1-3    12,Strada Parcului,700390,47.1539877,27.6147810
B 8-12.  7,Strada Grădinari,700390,47.1535714,27.6148802
1,Strada Grădinari,700390,47.1537208,27.6139099
5,Strada Mihai Vodă Viteazul,700390,47.1547187,27.6140785
7,Strada Mihai Vodă Viteazul,700390,47.1544971,27.6140138
17,Strada Moșu,700390,47.1545003,27.6161234
82,Strada Ciurchi,700313,47.1563186,27.6101421
52,Strada Ciurchi,700313,47.1576631,27.6068628
23,Bulevardul Independenței,700101,47.1662926,27.5882534
8,Strada Bărboi,700259,47.1622764,27.5910364
13B2,Strada Oancea,700351,47.1571750,27.6114512
13B1,Strada Oancea,700351,47.1571648,27.6115534
82,Strada Vasile Lupu,700341,47.1597567,27.6134559
10,Strada Han Tătar,700349,47.1584862,27.6132477
8,Strada Han Tătar,700349,47.1589085,27.6130955
18,Strada Oancea,700351,47.1575096,27.6112707
14,Strada Han Tătar,700349,47.1581191,27.6130881
3,Strada Hanciuc,700350,47.1591608,27.6113684
8,Strada Hanciuc,700350,47.1583435,27.6113574
13,Strada Hanciuc,700350,47.1590173,27.6125969
14,Strada Oancea,700351,47.1574315,27.6118414
18,Strada Hanciuc,700350,47.1585164,27.6124238
11,Strada Hanciuc,700350,47.1590222,27.6118363
12,Strada Hanciuc,700350,47.1586711,27.6116752
6,Strada Han Tătar,700349,47.1589924,27.6134178
20,Strada Oancea,700351,47.1575523,27.6110088
10,Strada Oancea,700351,47.1578068,27.6120579
4,Strada Han Tătar,700349,47.1594307,27.6132783
7,Strada Hanciuc,700350,47.1592199,27.6122319
10,Strada Hanciuc,700350,47.1585562,27.6114254
24,Strada Oancea,700351,47.1580633,27.6112784
15,Strada Hanciuc,700350,47.1592162,27.6126638
16,Strada Oancea,700351,47.1574678,27.6115594
2,Strada Han Tătar,700349,47.1595287,27.6135992
20,Strada Hanciuc,700350,47.1583601,27.6121789
5,Strada Hanciuc,700350,47.1589416,27.6113925
14,Strada Hanciuc,700350,47.1586647,27.6120088
22,Strada Oancea,700351,47.1578507,27.6112143
12,Strada Oancea,700351,47.1576314,27.6119978
12,Strada Han Tătar,700349,47.1583989,27.6129426
16,Strada Hanciuc,700350,47.1587177,27.6124815
9,Strada Hanciuc,700350,47.1590258,27.6121496
34A,Strada Ion Creangă,700321,47.1615566,27.6100037
11-15,Bulevardul C. A. Rosetti,700141,47.1684151,27.5932320
44-50,Strada Sfântul Lazăr,507184,47.1567764,27.5907096
41B,Strada Stejar,700325,47.1630356,27.6115167
41A,Strada Stejar,700325,47.1629372,27.6112839
78,Strada Păcurari,507184,47.1725309,27.5659023
98,Strada Păcurari,507184,47.1726713,27.5628660
11,Strada Stejar,700327,47.1629846,27.6068402
11bis,Strada Stejar,700327,47.1629963,27.6069326
110,Strada Păcurari,507184,47.1730800,27.5616940
104,Strada Păcurari,507184,47.1728341,27.5624754
17,Strada Nicoriță,700397,47.1601273,27.6012492
67,Strada Tătărași,700397,47.1627397,27.6039647
8,Strada Petre Ispirescu,700328,47.1634440,27.6051742
67A,Strada Tătărași,700397,47.1627345,27.6040391
84A,Strada Stejar,700327,47.1617250,27.6167078
27,Strada Nicolae Gane,700110,47.1727655,27.5772768
3,Strada Octav Mayer,700173,47.1502170,27.5973132
44A,Strada Ciric,700335,47.1638472,27.6142231
44B,Strada Ciric,700335,47.1635324,27.6141968
38A,Strada Ciric,700334,47.1640451,27.6134328
38B,Strada Ciric,700334,47.1637293,27.6134081
32A,Strada Ciric,700334,47.1641681,27.6127229
32B,Strada Ciric,700334,47.1639966,27.6128841
26,Bulevardul Independenței,700102,47.1662655,27.5864675
110,Strada Ion Creangă,700381,47.1598988,27.6183849
114,Strada Ion Creangă,700381,47.1598032,27.6185831
122,Strada Ion Creangă,700381,47.1597149,27.6188182
8,Fundătura Eternitate,700329,47.1652493,27.6081304
54,Aleea Mihail Sadoveanu,700489,47.2101423,27.5338125
1,Strada Palat,700019,47.1560504,27.5889358
7A,Strada Palas,700079,47.1559884,27.5889948
3F,Strada Palat,700032,47.1557401,27.5868148
25,Strada Palas,507184,47.1578894,27.5899718
21,Strada Alexandru Lăpușneanu,507184,47.1688396,27.5773304
53,Șoseaua Ștefan cel Mare și Sfânt,700498,47.1934137,27.5618537
66,Strada Eternitate,700329,47.1645908,27.6033400
61A,Bulevardul Socola,700268,47.1429167,27.5999370
43,Strada Mihail Sturdza,700267,47.1419757,27.6030597
2,Strada Mihail Sturdza,700267,47.1415231,27.6014609
14,Strada Pantelimon Halipa,700613,47.1492788,27.5739552
32,Strada Profesor Ion Simionescu,700435,47.1685240,27.5432454
44,Strada Valea Adâncă,700712,47.1306913,27.5604898
46,Șoseaua Nicolina,700686,47.1364261,27.5739151
55,Strada Eternitate,700304,47.1656356,27.6005880
4,Bulevardul Primăverii,700160,47.1503270,27.5964270
14,Bulevardul Ștefan cel Mare și Sfânt,700064,47.1624469,27.5824410
21,Strada Canta,700530,47.1731036,27.5451068
"8, parter",Bulevardul Carol I,700505,47.1730884,27.5740664
8,Bulevardul Carol I,700505,47.1731559,27.5740128
16,Stradela Sfântul Teodor,700115,47.1671250,27.5867695
nr.1,Bulevardul Carol I,700506,47.1754871,27.5718830
7,Strada Teodor Codrescu,700483,47.1768105,27.5724735
16,Strada Alexandru Lăpușneanu,700057,47.1676814,27.5787062
14,Bulevardul Socola,700195,47.1484510,27.5903530
7,Strada Dimitrie Ralet,700108,47.1749013,27.5782172
5,Strada Rece,700115,47.1677770,27.5870989
11,Strada Mihail Kogălniceanu,700454,47.1734300,27.5805470
12,Aleea Mihail Sadoveanu,700489,47.1965890,27.5543650
1,Piața Ștefan cel Mare și Sfânt,700028,47.1575978,27.5867813
22A,Strada Nicolae Gane,700110,47.1716430,27.5781570
4,Strada Otilia Cazimir,700400,47.1590520,27.5982780
7B,Strada Mihail Kogălniceanu,700454,47.1726692,27.5804777
28,Bulevardul Ștefan cel Mare și Sfânt,700064,47.1595890,27.5843430
1,Piața Ștefan cel Mare și Sfânt,700028,47.1573661,27.5863786
1,Piața Ștefan cel Mare și Sfânt,700028,47.1575851,27.5875663
1,Piața Ștefan cel Mare și Sfânt,700028,47.1572421,27.5862447
4,Strada Mănăstirii,700616,47.1462892,27.5689660
51,Strada Cuza Vodă,700038,47.1648400,27.5894020
1,Piața Ștefan cel Mare și Sfânt,700028,47.1575567,27.5872264
15,Strada Elena Doamna,700398,47.1634780,27.5943020
16,Bulevardul Ștefan cel Mare și Sfânt,700064,47.1616010,27.5820820
4,Strada Vasile Pogor,700110,47.1720480,27.5762570
14,Strada Alexandru Lăpușneanu,700057,47.1674167,27.5789464
12,Strada Titu Maiorescu,700460,47.1761320,27.5682770
3C,Strada Palat,700032,47.1557841,27.5857851
58,Șoseaua Păcurari,700544,47.1746699,27.5406956
60,Șoseaua Păcurari,700544,47.1745295,27.5405843
62,Șoseaua Păcurari,700544,47.1744497,27.5403727
64,Șoseaua Păcurari,700544,47.1743491,27.5401231
1,Strada Belvedere,700555,47.1748890,27.5624261
10,Strada Cloșca,507184,47.1635152,27.5802700
50,Strada Lascăr Catargi,700107,47.1760706,27.5767626
29,Calea Chișinăului,700177,47.1465872,27.6166200
589,Strada Păcurari,210235,47.1744226,27.5531352
1,Piața Unirii,700056,47.1660972,27.5793117
127B,Strada Ciurchi,700358,47.1557506,27.6222521
25,Bulevardul Independenței,700102,47.1662006,27.5886782
33,Bulevardul Independenței,700102,47.1659822,27.5898634
31,Bulevardul Independenței,700102,47.1659436,27.5895190
29,Bulevardul Independenței,700102,47.1660554,27.5892846
27,Bulevardul Independenței,700102,47.1661203,27.5889984
2,Strada Pantelimon Halipa,507184,47.1538103,27.5702457
"8, bl 828",Strada Sălciilor,700697,47.1435354,27.5773711
112,Strada Păcurari,700523,47.1733451,27.5610321
9 bl. B1,Aleea Ștefan Procopiu,700419,47.1645646,27.5552865
27,Calea Chișinăului,700177,47.1475355,27.6105931
x3,Bulevardul Alexandru cel Bun,700631,47.1641676,27.5622824
151,Șoseaua Păcurari,700552,47.1739044,27.5048525
4,Strada Păcurari,700511,47.1700384,27.5753667
4,Strada Păcurari,507184,47.1700502,27.5752597
4,Strada Păcurari,507184,47.1700276,27.5754799
4,Strada Păcurari,700511,47.1700514,27.5758062
14,Strada Vitejilor,700407,47.1689209,27.5503950
13,Bulevardul Independenței,700106,47.1687394,27.5800788
7,Bulevardul Dimitrie Cantemir,700233,47.1509960,27.5809461
17,Aleea Decebal,700230,47.1491556,27.5837671
6A,Aleea Rozelor,700202,47.1488761,27.5819948
6A,Aleea Rozelor,700202,47.1488157,27.5820042
6A,Aleea Rozelor,700202,47.1489285,27.5818944
6,Bulevardul Nicolae Iorga,700212,47.1480789,27.5816843
7,Strada Grigore Ureche,700023,47.1595435,27.5909304
17-19,Strada Anastasie Panu,700021,47.1604225,27.5920247
4,Bulevardul Ștefan cel Mare și Sfânt,700124,47.1628665,27.5816910
8,Bulevardul Ștefan cel Mare și Sfânt,700063,47.1629576,27.5818381
10,Bulevardul Independenței,700098,47.1672113,27.5828911
78,Strada Aurel Vlaicu,700930,47.1534859,27.6322760
49,Strada Canta,700530,47.1727898,27.5395862
12-14,Bulevardul C.A. Rosetti,700073,47.1692671,27.5938428
7,Strada Gavril Muzicescu,700127,47.1681483,27.5765765
57,Bulevardul Dacia,700426,47.1664755,27.5477726
2,Bulevardul Chimiei,700291,47.1531583,27.6058665
10,Strada Pantelimon Halipa,700614,47.1514872,27.5723960
138,Șoseaua Păcurari,700521,47.1728989,27.5229530
39,Bulevardul Socola,700264,47.1435498,27.5974633
22,Splai Bahlui Mal Drept,700164,47.1523547,27.5956579
60,Strada Costache Negri,700259,47.1605728,27.5867270
168,Strada Sărărie,707023,47.1779068,27.5768197
3,Bulevardul Constantin Alexandru Rosetti,700141,47.1674985,27.5938577
19,Strada Cucu,700082,47.1669806,27.5939140
178-180,Șoseaua Națională,700239,47.1564200,27.5764925
15,Bulevardul Primăverii,700171,47.1504663,27.5952748
43,Costache Negri,700259,47.1605184,27.5878007
2-4,Bulevardul Tudor Vladimirescu,700374,47.1555605,27.6057432
2-4,Bulevardul Tudor Vladimirescu,700374,47.1555827,27.6052108
1,Bulevardul Constantin Alexandru Rosetti,700141,47.1674757,27.5938733
3C,Strada Palas,700259,47.1552977,27.5866903
11,Strada Vasile Alecsandri,700029,47.1657729,27.5822360
5,Carol I,700506,47.1718171,27.5739147
6,Strada Rândunica,700259,47.1562936,27.6007549
6,Strada Rândunica,700259,47.1562660,27.6006013
4,Strada Răzoarelor,700890,47.1364750,27.5758179
12,Strada Izvor,700705,47.1407972,27.5831304
43,Șoseaua Națională,700273,47.1536549,27.5817369
11 (Corpul A),Bulevardul Carol I,700506,47.1740711,27.5721036
18,Strada Agatha Bârsescu,700074,47.1636421,27.5852968
17,Bulevardul Socola,700186,47.1480729,27.5917063
22,Bulevardul Nicolae Iorga,700216,47.1458542,27.5875578
4,Strada Vasile Pogor,700460,47.1716800,27.5760983
7-9,Strada Dumbrava Roșie,700487,47.1863352,27.5576843
7,Strada Dumbrava Roșie,700471,47.1865133,27.5575989
23,Calea Chișinăului,700265,47.1504269,27.6000540
10,Strada Lacului,700702,47.1431221,27.5830756
14,Strada Lacului,700702,47.1428404,27.5828358
16,Strada Lacului,700702,47.1425392,27.5825647
5,Strada Lacului,700702,47.1430958,27.5832446
3,Strada Lacului,700702,47.1434372,27.5835645
1,Strada Lacului,700702,47.1435900,27.5840746
6,Strada Lacului,700702,47.1433803,27.5832167
64-66,Strada Sfântul Lazăr,700049,47.1548651,27.5895274
7,Strada Teodor Codrescu,700483,47.1771770,27.5722782
7,Strada Teodor Codrescu,700483,47.1772419,27.5722211
1,Strada Teodor Codrescu,700479,47.1777370,27.5721981
13,Strada Stejar,700327,47.1626190,27.6119420
13,Bulevardul Ștefan cel Mare și Sfânt,700067,47.1613636,27.5848120
2-4,Strada Gheorghe Ghibănescu,700259,47.1559234,27.5844493
67,Bulevardul Tudor Vladimirescu,700398,47.1618177,27.5982697
69,Bulevardul Tudor Vladimirescu,700398,47.1617043,27.5983653
71 A,Bulevardul Tudor Vladimirescu,700398,47.1614602,27.5986169
71,Bulevardul Tudor Vladimirescu,700398,47.1613674,27.5987232
30,Bulevardul Tudor Vladimirescu,700398,47.1614350,27.5984524
1C,Strada Valea Adanca,700712,47.1350289,27.5626870
14,Strada Nicolae Gane,507184,47.1706138,27.5784650
12,Strada Nicolae Gane,507184,47.1704133,27.5785455
10,Strada Nicolae Gane,507184,47.1702254,27.5787762
26,Strada Anastasie Panu,700020,47.1619333,27.5941184
78,Strada Vasile Lupu,700259,47.1589199,27.6098932
20,Strada Oancea,700365,47.1573952,27.6129915
16,Strada Han Tătar,700349,47.1577818,27.6130827
16,Strada Alexandru Lăpușneanu,700056,47.1679550,27.5790880
59,Bulevardul Nicolae Iorga,700214,47.1463332,27.5894922
7A,Strada Palas,700259,47.1576632,27.5899757
29,Calea Chișinăului,700177,47.1488413,27.6127708
6,Strada Bacinschi,507184,47.1683531,27.5689565
8,Bulevardul Ștefan cel Mare și Sfânt,700259,47.1634237,27.5811615
29,Calea Chișinăului,700177,47.1494499,27.6175082
22,Splai Bahlui Mal Drept,700168,47.1522674,27.5854885
48,Bulevardul Carol I,700503,47.1794943,27.5688669
87A,Strada Eternitate,700329,47.1650047,27.6039232
87,Strada Eternitate,700329,47.1650084,27.6038320
4,Bulevardul Independenței,700106,47.1671756,27.5828882
6,Piața Unirii,700055,47.1663496,27.5808792
5,Strada Egalității,700695,47.1440327,27.5782396
7,Strada Egalității,700695,47.1439091,27.5781119
1,Strada Cetăţuia,700679,47.1312200,27.5848144
4,Bulevardul Carol I,700505,47.1719221,27.5751417
18,Strada Roman Vodă,700573,47.1614902,27.5668192
8,Strada Mihail Kogălniceanu,700454,47.1722778,27.5806555
8A,Bulevardul Ștefan cel Mare și Sfânt,700063,47.1632988,27.5810131
37,Bulevardul Dacia,700426,47.1665944,27.5511845
19,Bulevardul Independenței,700101,47.1663479,27.5878731
11,Strada Morilor,700011,47.1595601,27.5773452
37,Bulevardul Dacia,700426,47.1665531,27.5512801
60,Bulevardul Alexandru cel Bun,700609,47.1646376,27.5622774
21,Strada Anastasie Panu,700259,47.1602555,27.5907950
24,Stradela Ciric,700259,47.1630862,27.6141090
54,Strada Stejar,700327,47.1623793,27.6118663
23,Calea Chisinaului,700265,47.1515929,27.6028587
23,Calea Chisinaului,700265,47.1513844,27.6027878
23,Șoseaua Arcu,700132,47.1686102,27.5705396
151,Strada Sărărie,700451,47.1767103,27.5782924
9,Strada Sfântul Andrei,700032,47.1551376,27.5839918
57,Șoseaua Națională,700238,47.1516226,27.5865893
1,Bulevardul Țuțora,700161,47.1510859,27.5903571
1,Piața Unirii,700056,47.1662549,27.5792648
11,Bulevardul Carol I,700259,47.1742578,27.5716197
1-3-5,Strada Petre Țuțea,700730,47.1454667,27.5812264
18-20,Șoseaua Națională,700415,47.1696125,27.5585486
28,Bulevardul Ștefan cel Mare și Sfânt,700028,47.1596912,27.5844302
20A,Bulevardul Carol I,700505,47.1751022,27.5740043
2,Bulevardul Socola,700194,47.1502797,27.5875768
194,Șoseaua Națională,700242,47.1517951,27.5848003
190-192,Șoseaua Națională,700242,47.1523108,27.5833089
2-4,Bulevardul Dimitrie Cantemir,700246,47.1522752,27.5815809
101,Bulevardul Tudor Vladimirescu,700312,47.1580484,27.6021936
186-188,Șoseaua Națională,700241,47.1530116,27.5818583
17,Strada Bradului,700661,47.1476233,27.5769990
10,Bulevardul Dimitrie Cantemir,700255,47.1504649,27.5788754
35,Bulevardul Nicolae Iorga,700256,47.1502701,27.5781391
37,Bulevardul Nicolae Iorga,700211,47.1497703,27.5789882
18,Bulevardul Regele Mihai I al României,700164,47.1520419,27.5945114
20,Bulevardul Regele Mihai I al României,700164,47.1522443,27.5948230
20A,Bulevardul Regele Mihai I al României,700164,47.1518718,27.5954623
8,Strada Nicolina,700220,47.1478599,27.5840758
20A,Strada Mitropolit Varlaam,700198,47.1434204,27.5872909
134,Bulevardul Socola,700187,47.1459594,27.5926647
36,Strada Oancea,700350,47.1586456,27.6088821
34,Strada Oancea,700350,47.1583068,27.6091958
32,Strada Oancea,700351,47.1581080,27.6095615
30,Strada Oancea,700351,47.1578763,27.6098797
28,Strada Oancea,700351,47.1577132,27.6102627
26,Strada Oancea,700351,47.1575979,27.6107214
4,Strada Ciornei,700350,47.1586358,27.6094535
353,Strada Oancea,700351,47.1574777,27.6114748
354,Strada Oancea,700351,47.1576978,27.6120792
352,Strada Oancea,700351,47.1579571,27.6112475
351,Strada Hanciuc,700350,47.1584565,27.6113834
350,Strada Hanciuc,700350,47.1586663,27.6118283
355,Strada Hanciuc,700350,47.1585637,27.6122989
356,Strada Hanciuc,700350,47.1591243,27.6126122
384P4,Strada Hanciuc,700350,47.1590312,27.6114223
384P5,Strada Hanciuc,700350,47.1591252,27.6120046
3,Strada Oancea,700351,47.1570462,27.6126888
5,Strada Oancea,700351,47.1568589,27.6123781
19,Bulevardul Alexandru cel Bun,700574,47.1619042,27.5662706
21,Bulevardul Alexandru cel Bun,700575,47.1622724,27.5655195
23,Bulevardul Alexandru cel Bun,700575,47.1626261,27.5647783
1,Piața Voievozilor,700575,47.1625910,27.5642112
16,Piața Voievozilor,700588,47.1621092,27.5619006
53,Strada Mușatini,700599,47.1613205,27.5615288
3,Strada Plăieșilor,700595,47.1634118,27.5576010
6,Strada Plăieșilor,700596,47.1640965,27.5584804
5,Strada Sarmisegetuza,700634,47.1659807,27.5574541
37,Bulevardul Alexandru cel Bun,700633,47.1649215,27.5604778
40-62,Bulevardul Alexandru cel Bun,507184,47.1652088,27.5611407
P3 70-74,Strada Vasile Lupu,700309,47.1598495,27.6092194
361,Strada Han Tătar,700349,47.1590789,27.6132988
362,Strada Han Tătar,700349,47.1583910,27.6130795
1,Strada Oancea,700351,47.1566830,27.6128100
62,Strada Vasile Lupu,700309,47.1591412,27.6073565
86M,Șoseaua Păcurari,700547,47.1746239,27.5365568
6A,Strada Teodor Râșcanu,700010,47.1613610,27.5758907
51,Strada Strămoșilor,700433,47.1661871,27.5535789
D1-3,Strada Sarmisegetuza,507184,47.1676856,27.5573180
70,Strada Vasile Lupu,700309,47.1593406,27.6041445
2,Șoseaua Bârnova,700285,47.1234496,27.6203455
2,Strada Mihai Sturdza,700267,47.1414192,27.6015348
188,Bulevardul Socola,700268,47.1424629,27.5975455
188-190,Bulevardul Socola,700268,47.1428451,27.5969709
20,Bulevardul Socola,700187,47.1468249,27.5922883
61,Bulevardul Nicolae Iorga,700205,47.1470063,27.5909155
46,Aleea Rozelor,700207,47.1474243,27.5905821
14,Bulevardul Socola,700195,47.1481993,27.5905724
12,Bulevardul Socola,700195,47.1485571,27.5900964
8A,Bulevardul Socola,700194,47.1487997,27.5897960
8,Bulevardul Socola,700194,47.1492255,27.5892886
6,Bulevardul Socola,700194,47.1495757,27.5888209
2A,Bulevardul Socola,700194,47.1498119,27.5885210
17,Bulevardul Socola,700186,47.1483275,27.5914640
13,Bulevardul Socola,700186,47.1489364,27.5906829
9A,Bulevardul Socola,700186,47.1492667,27.5902283
9,Bulevardul Socola,700186,47.1495537,27.5899242
5,Bulevardul Socola,700186,47.1501438,27.5891680
3A,Bulevardul Socola,700186,47.1503908,27.5888033
3,Bulevardul Socola,700186,47.1506793,27.5885106
1,Bulevardul Socola,700186,47.1509734,27.5883529
2A,Aleea Nicolina,700221,47.1498551,27.5872706
2,Aleea Nicolina,700221,47.1495118,27.5869723
4,Aleea Nicolina,700221,47.1491942,27.5866949
6,Aleea Nicolina,700221,47.1488620,27.5864195
5,Strada Nicolina,700220,47.1494862,27.5864290
7,Strada Nicolina,700220,47.1491555,27.5861666
10,Aleea Nicolina,700221,47.1482077,27.5858720
10,Aleea Decebal,700231,47.1506725,27.5835637
97,Bulevardul Tudor Vladimirescu,700312,47.1585317,27.6022929
95,Bulevardul Tudor Vladimirescu,700312,47.1586103,27.6016241
22,Strada Vasile Lupu,700309,47.1588743,27.6018076
15,Strada Nicolina,700220,47.1476498,27.5847262
51,Bulevardul Nicolae Iorga,700213,47.1471751,27.5849970
51A,Bulevardul Nicolae Iorga,700213,47.1471080,27.5855598
2,Aleea Rozelor,700202,47.1495676,27.5805283
105,Bulevardul Tudor Vladimirescu,700312,47.1574671,27.6027775
107,Bulevardul Tudor Vladimirescu,700312,47.1573137,27.6031822
99,Bulevardul Tudor Vladimirescu,700312,47.1583026,27.6027221
103,Bulevardul Tudor Vladimirescu,700312,47.1579287,27.6028813
2,Strada Ciurchi,700312,47.1579544,27.6033756
11-13,Stradela Cetățuia,700677,47.1364943,27.5846130
9,Stradela Cetățuia,700677,47.1368250,27.5848982
7,Stradela Cetățuia,700677,47.1371053,27.5850575
5,Stradela Cetățuia,700677,47.1373830,27.5852120
3,Stradela Cetățuia,700677,47.1376648,27.5853529
1,Stradela Cetățuia,700677,47.1379476,27.5855108
2-6,Strada Cetățuia,700678,47.1381328,27.5858538
8-14,Strada Cetățuia,700678,47.1373856,27.5864355
2-6,Stradela Cetățuia,700677,47.1372291,27.5857683
16-18,Strada Cetățuia,700678,47.1366699,27.5867333
4-8,Strada Plantelor,700680,47.1364975,27.5856819
1-3,Strada Plantelor,700680,47.1362051,27.5862741
5-7,Strada Plantelor,700680,47.1361348,27.5855626
15-19,Stradela Cetățuia,700677,47.1358275,27.5847526
22-28,Bulevardul Poitiers,700680,47.1356950,27.5856619
20-22,Strada Cetățuia,700678,47.1360521,27.5869782
2,Strada Dimineții,507184,47.1373145,27.5874321
4-6,Strada Dimineții,507184,47.1374970,27.5883154
8-10,Strada Dimineții,507184,47.1376862,27.5891874
12-14,Strada Dimineții,507184,47.1380339,27.5901227
16-18,Strada Dimineții,507184,47.1382268,27.5909991
22-24,Strada Dimineții,507184,47.1386568,27.5921181
13-15,Strada Dimineții,507184,47.1389347,27.5915649
20-22,Strada Neptun,700665,47.1391927,27.5910613
16-18,Strada Neptun,700665,47.1393206,27.5906849
12-14,Strada Neptun,700665,47.1394499,27.5903136
8-10,Strada Neptun,700665,47.1395804,27.5899431
16-18,Strada Radu Vodă,700665,47.1397056,27.5895770
14,Strada Radu Vodă,700665,47.1389172,27.5899195
7,Strada Dimineții,507184,47.1382864,27.5895804
4-6,Strada Radu Vodă,700665,47.1382649,27.5886552
8,Strada Radu Vodă,700665,47.1386715,27.5890306
10,Strada Radu Vodă,700665,47.1389395,27.5892245
12,Strada Radu Vodă,700665,47.1392173,27.5894153
3,Strada Cetățuia,700679,47.1378733,27.5876554
3,Strada Cetățuia,700679,47.1377488,27.5871644
7,"Strada Grigore Ion, Sergent",700440,47.1715830,27.5370750
7,"Strada Grigore Ion, Sergent",700440,47.1715786,27.5375553
7,"Strada Grigore Ion, Sergent",700440,47.1715750,27.5380344
7,"Strada Grigore Ion, Sergent",700440,47.1715665,27.5385222
7,"Strada Grigore Ion, Sergent",700440,47.1715605,27.5390045
30,Strada Ciurchi,700313,47.1580144,27.6042312
82,Strada Ciurchi,700313,47.1559716,27.6110991
86,Strada Ciurchi,700313,47.1558364,27.6115638
84,Strada Ciurchi,700313,47.1556178,27.6112877
4,Strada Butnari,700155,47.1444664,27.6040451
2,Strada Atelierului,700154,47.1442206,27.6037284
19,Strada Bucium,700153,47.1439565,27.6041029
21,Strada Bucium,700153,47.1443159,27.6046240
16,Strada Alexandru Osvald Teodoreanu,507184,47.1453469,27.6044782
19,Strada Mitropolit Varlaam,700197,47.1450622,27.5917185
32A,Bulevardul Nicolae Iorga,700196,47.1454093,27.5911809
26A,Bulevardul Nicolae Iorga,700215,47.1458109,27.5893577
24 C1,Bulevardul Nicolae Iorga,700216,47.1457324,27.5886135
80,Strada Ciurchi,700313,47.1558975,27.6106259
6,"Strada Naniescu Iosif, mitropolit",700312,47.1575161,27.6052954
43,Bulevardul Profesor Doctor Docent Dimitrie Mangeron,700050,47.1529443,27.5902577
47,Bulevardul Profesor Doctor Docent Dimitrie Mangeron,700050,47.1526389,27.5912625
45A,Bulevardul Profesor Doctor Docent Dimitrie Mangeron,700050,47.1536102,27.5917285
51 - 53,Bulevardul Profesor Doctor Docent Dimitrie Mangeron,700050,47.1531433,27.5933448
27,Bulevardul Profesor Doctor Docent Dimitrie Mangeron,700050,47.1539225,27.5935836
29,Bulevardul Profesor Doctor Docent Dimitrie Mangeron,700050,47.1534315,27.5954896
29,Bulevardul Profesor Doctor Docent Dimitrie Mangeron,700050,47.1539561,27.5947779
59A,Bulevardul Profesor Doctor Docent Dimitrie Mangeron,700050,47.1537951,27.5968714
61-63,Bulevardul Profesor Doctor Docent Dimitrie Mangeron,700050,47.1540273,27.5980136
67,Bulevardul Profesor Doctor Docent Dimitrie Mangeron,700050,47.1546590,27.5996319
65,Bulevardul Profesor Doctor Docent Dimitrie Mangeron,700050,47.1550532,27.5998883
6,Strada Rândunica,700259,47.1563294,27.6009368
53A,Bulevardul Profesor Doctor Docent Dimitrie Mangeron,700050,47.1555917,27.6028942
16,Strada General Henri Mathias Berthelot,700483,47.1739827,27.5750099
19,Strada Bradului,700660,47.1472873,27.5764594
21,Strada Bradului,700660,47.1469492,27.5758833
13,Strada Decebal,700251,47.1502554,27.5815776
41A,Aleea Grigore Ghica Vodă,700487,47.1881224,27.5592594
3,Aleea Mihail Sadoveanu,700490,47.1925778,27.5562569
3,Aleea Mihail Sadoveanu,700490,47.1914893,27.5565715
13-15-17,Strada Petre Țuțea,700731,47.1442253,27.5802429
7-9-11,Strada Petre Țuțea,700730,47.1448264,27.5808464
32,Strada Decebal,700251,47.1552530,27.5761556
18,Strada Decebal,700249,47.1540950,27.5787888
6,Strada Moșu,700390,47.1549817,27.6127243
2,Strada Hlincea,700715,47.1305425,27.5712991
89-91,Aleea Tudor Neculai,700686,47.1326648,27.5703764
6,Aleea Mircea cel Bătrân,700639,47.1553460,27.5656005
2,Aleea Mircea cel Bătrân,700638,47.1557386,27.5663906
4,Aleea Mircea cel Bătrân,700639,47.1555329,27.5659801
1,Aleea Mircea cel Bătrân,700638,47.1553030,27.5666708
18,Strada Mircea cel Bătrân,700640,47.1547145,27.5673125
16,Strada Mircea cel Bătrân,700639,47.1550204,27.5669953
20,Strada Mircea cel Bătrân,700640,47.1543838,27.5676350
22,Strada Mircea cel Bătrân,700640,47.1540807,27.5679675
3,Aleea Mircea cel Bătrân,700639,47.1548435,27.5662537
5,Aleea Mircea cel Bătrân,700639,47.1545754,27.5666469
24,Strada Neptun,700665,47.1392094,27.5915843
86,Strada Vasile Lupu,700341,47.1595993,27.6144880
23,Calea Chișinăului,700265,47.1497064,27.6015118
3,Bulevardul Primăverii,700189,47.1483611,27.5920203
5,Bulevardul Primăverii,700189,47.1485500,27.5923542
6,Bulevardul Țuțora,700190,47.1494325,27.5918686
4,Bulevardul Țuțora,700160,47.1501300,27.5911859
90A,Strada Vasile Lupu,700341,47.1590102,27.6145432
92,Strada Vasile Lupu,700342,47.1580693,27.6147973
90B,Strada Vasile Lupu,700341,47.1583687,27.6145470
92A,Strada Vasile Lupu,700342,47.1585044,27.6148492
94,Strada Vasile Lupu,700341,47.1591052,27.6150580
96,Strada Vasile Lupu,700352,47.1590184,27.6156777
94A,Strada Vasile Lupu,700353,47.1594121,27.6154855
100,Strada Vasile Lupu,700352,47.1589208,27.6162963
98,Strada Vasile Lupu,700342,47.1579785,27.6159233
96A,Strada Vasile Lupu,700352,47.1593173,27.6161023
100B,Strada Vasile Lupu,700353,47.1592285,27.6167202
102,Strada Vasile Lupu,700352,47.1588352,27.6169179
102A,Strada Vasile Lupu,700353,47.1591332,27.6173413
5,Strada Zlataust,700400,47.1596763,27.5972662
106,Strada Vasile Lupu,700352,47.1587355,27.6175427
108,Strada Vasile Lupu,700352,47.1586389,27.6181651
112,Strada Vasile Lupu,700352,47.1585526,27.6187789
108A,Strada Vasile Lupu,700353,47.1589458,27.6185797
106B,Strada Vasile Lupu,700353,47.1590329,27.6179627
1,Strada Oastei,700478,47.1801644,27.5698937
50,Bulevardul Carol I,700503,47.1805904,27.5685226
104,Strada Vasile Lupu,700342,47.1578756,27.6170507
98A,Strada Vasile Lupu,700352,47.1583303,27.6160346
100A,Strada Vasile Lupu,700352,47.1582402,27.6166524
31-35,Strada Străpungerea Silvestru,507184,47.1707174,27.5613802
112A,Strada Vasile Lupu,700344,47.1574523,27.6187470
106A,Strada Vasile Lupu,700352,47.1580500,27.6179078
110A,Strada Vasile Lupu,700352,47.1579586,27.6185272
110,Strada Vasile Lupu,700342,47.1576474,27.6181158
99,Strada Ciurchi,700342,47.1578358,27.6142077
101,Strada Ciurchi,700366,47.1575105,27.6142957
99A,Strada Ciurchi,700342,47.1579021,27.6137161
5,Piața Unirii,700056,47.1667948,27.5807066
93,Strada Banu,700127,47.1676635,27.5780072
3,Strada Tălpălari,700127,47.1654460,27.5783334
83,Strada Vasile Lupu,700319,47.1603339,27.6131716
133,Aleea Tudor Neculai,700713,47.1276364,27.5662588
135,Aleea Tudor Neculai,700713,47.1273484,27.5660508
137,Aleea Tudor Neculai,700713,47.1270427,27.5658537
139,Aleea Tudor Neculai,700713,47.1267399,27.5657090
141,Aleea Tudor Neculai,700713,47.1265139,27.5658522
145,Aleea Tudor Neculai,700713,47.1262133,27.5661955
147,Aleea Tudor Neculai,700713,47.1262626,27.5655662
149,Aleea Tudor Neculai,700713,47.1260501,27.5656881
153,Aleea Tudor Neculai,700713,47.1257155,27.5660959
155,Aleea Tudor Neculai,700713,47.1257000,27.5655894
157,Aleea Tudor Neculai,700713,47.1254733,27.5657341
161,Aleea Tudor Neculai,700713,47.1251428,27.5661107
163,Aleea Tudor Neculai,700713,47.1249682,27.5658655
165,Aleea Tudor Neculai,700713,47.1247566,27.5659919
167,Aleea Tudor Neculai,700713,47.1245706,27.5661397
93-95,Aleea Tudor Neculai,700685,47.1321790,27.5701219
97-99,Aleea Tudor Neculai,700685,47.1318768,27.5699149
68-72,Șoseaua Nicolina,700684,47.1318727,27.5705080
117-121,Aleea Tudor Neculai,700685,47.1298931,27.5683826
86,Șoseaua Nicolina,700684,47.1299863,27.5690764
88-92,Șoseaua Nicolina,700684,47.1295310,27.5688360
123-127,Aleea Tudor Neculai,507184,47.1295691,27.5681147
4,Strada Mănăstirii,700616,47.1463502,27.5690028
3,Strada Nicolina,700220,47.1498157,27.5867144
9,Strada Nicolina,700220,47.1488323,27.5858751
11,Strada Nicolina,700220,47.1485129,27.5856147
8,Aleea Nicolina,700221,47.1485433,27.5861469
20,Aleea Rozelor,700204,47.1476047,27.5863305
16,Aleea Rozelor,700204,47.1473203,27.5858373
51B,Bulevardul Nicolae Iorga,700213,47.1469426,27.5860354
22,Aleea Rozelor,700204,47.1472976,27.5868886
24,Aleea Rozelor,700206,47.1469507,27.5865575
53,Bulevardul Nicolae Iorga,700213,47.1465721,27.5866746
55,Bulevardul Nicolae Iorga,700213,47.1464568,27.5871491
55A,Bulevardul Nicolae Iorga,700213,47.1464700,27.5875033
26,Aleea Rozelor,700206,47.1468610,27.5874290
26A,Aleea Rozelor,700206,47.1470454,27.5872197
28A,Aleea Rozelor,700206,47.1470601,27.5879882
28,Aleea Rozelor,700206,47.1472377,27.5877508
55B,Bulevardul Nicolae Iorga,700213,47.1463989,27.5880109
32,Aleea Rozelor,700206,47.1465710,27.5884066
30,Aleea Rozelor,700206,47.1469958,27.5884182
34A,Aleea Rozelor,700207,47.1466758,27.5889960
34,Aleea Rozelor,700207,47.1468309,27.5892385
38A,Aleea Rozelor,700207,47.1471445,27.5889438
38,Aleea Rozelor,700207,47.1473064,27.5892009
57,Bulevardul Nicolae Iorga,700214,47.1462912,27.5888009
59,Bulevardul Nicolae Iorga,700214,47.1463585,27.5892975
59A,Bulevardul Nicolae Iorga,700214,47.1465106,27.5895893
59B,Bulevardul Nicolae Iorga,700214,47.1466831,27.5901166
42,Aleea Rozelor,700207,47.1470351,27.5902846
40,Aleea Rozelor,700207,47.1474008,27.5899608
18,Bulevardul Socola,700195,47.1473295,27.5915015
44,Aleea Rozelor,700207,47.1477318,27.5902781
21,Aleea Rozelor,700205,47.1479232,27.5898772
19,Aleea Rozelor,700205,47.1479102,27.5892646
15,Aleea Rozelor,700203,47.1475751,27.5887088
13,Aleea Rozelor,700203,47.1477885,27.5882287
17,Aleea Rozelor,700205,47.1479494,27.5886565
9,Aleea Rozelor,700203,47.1476112,27.5875013
11,Aleea Rozelor,700203,47.1479705,27.5876968
7,Aleea Rozelor,700203,47.1479599,27.5871427
5,Aleea Nicolina,700221,47.1483722,27.5868679
7c,Aleea Rozelor,700203,47.1479379,27.5867181
4,Bulevardul Socola,700194,47.1495519,27.5881629
4A,Bulevardul Socola,700194,47.1489632,27.5884997
4B,Bulevardul Socola,700194,47.1491209,27.5888385
10,Bulevardul Socola,700194,47.1485473,27.5893533
9-11-13-15-17,Aleea Nicolina,700221,47.1454003,27.5842795
1,Strada Mitropolit Varlaam,700224,47.1448017,27.5847276
3,Strada Mașinii,507184,47.1455856,27.5851306
5,Strada Mitropolit Varlaam,700223,47.1450601,27.5850672
7,Strada Mitropolit Varlaam,700223,47.1449510,27.5854837
1,Strada Mașinii,507184,47.1454350,27.5858319
9,Strada Mitropolit Varlaam,700223,47.1452118,27.5860611
2,Strada Mașinii,507184,47.1457920,27.5862454
24,Bulevardul Nicolae Iorga,700216,47.1454727,27.5866248
30,Bulevardul Nicolae Iorga,700196,47.1460478,27.5906429
15A,Strada Mitropolit Varlaam,700197,47.1453061,27.5920999
21,Strada Mitropolit Varlaam,700197,47.1453248,27.5917954
34,Bulevardul Nicolae Iorga,700196,47.1461499,27.5915191
36,Bulevardul Nicolae Iorga,700196,47.1461479,27.5911946
40,Bulevardul Nicolae Iorga,700195,47.1467421,27.5917531
22,Bulevardul Socola,700187,47.1465952,27.5922824
1,Aleea Nicolina,700221,47.1497368,27.5876284
51,Strada Cuza Vodă,700040,47.1648479,27.5893812
7-9,Strada Titu Maiorescu,700461,47.1753904,27.5691052
7-9,Strada Titu Maiorescu,700461,47.1749041,27.5692787
7-9,Strada Titu Maiorescu,700461,47.1759226,27.5701302
7-9,Strada Titu Maiorescu,700461,47.1756647,27.5696056
10,Strada Teodor Codrescu,700483,47.1768430,27.5742877
7,Strada Teodor Codrescu,700481,47.1766546,27.5725532
7,Strada Teodor Codrescu,700483,47.1771212,27.5723054
1,Strada Teodor Codrescu,700483,47.1776781,27.5724356
7,Strada Teodor Codrescu,700483,47.1772897,27.5736875
23,Calea Chișinăului,700265,47.1511402,27.6024035
32,Splai Bahlui Mal Drept,700290,47.1534938,27.6033202
141,Șoseaua Păcurari,700552,47.1739209,27.5533305
143,Strada Păcurari,700552,47.1738909,27.5527528
16,Strada Buridava,700431,47.1680640,27.5513830
10,Strada Buridava,700432,47.1675761,27.5515103
103,Strada Ciurchi,700365,47.1570548,27.6141318
99B,Strada Ciurchi,700365,47.1574105,27.6135458
105,Strada Ciurchi,700365,47.1565806,27.6141084
103A,Strada Ciurchi,700365,47.1569460,27.6133905
105A,Strada Ciurchi,700389,47.1562844,27.6140095
105B,Strada Ciurchi,700389,47.1564068,27.6136744
53,Strada Mușatini,700599,47.1613520,27.5616826
107,Strada Ciurchi,700389,47.1559573,27.6150572
109A,Strada Ciurchi,700365,47.1555293,27.6161208
113,Strada Ciurchi,700368,47.1554202,27.6172850
109B,Strada Ciurchi,700368,47.1551336,27.6172075
115,Strada Ciurchi,700369,47.1548018,27.6182081
101A,Strada Ciurchi,700366,47.1575840,27.6156430
3,Bulevardul Țuțora,700161,47.1505758,27.5912423
30,Bulevardul Regele Mihai I al României,700165,47.1531519,27.5991110
28,Bulevardul Regele Mihai I al României,700165,47.1531067,27.5984924
25,Bulevardul Primăverii,700172,47.1526424,27.5985327
24,Bulevardul Regele Mihai I al României,700165,47.1527219,27.5969274
11,Bulevardul Primăverii,700189,47.1488823,27.5935281
7A,Bulevardul Primăverii,700189,47.1487734,27.5918714
15,Bulevardul Socola,700186,47.1487915,27.5913307
2,Bulevardul Țuțora,700160,47.1507022,27.5893755
2,Strada Splai Bahlui Mal Drept,700162,47.1512632,27.5909223
12A G2,Strada Splai Bahlui Mal Drept,700163,47.1513554,27.5932782
14,Bulevardul Regele Mihai I al României,700163,47.1518558,27.5936006
B16 Anexa,Strada Splai Bahlui Mal Drept,700163,47.1520620,27.5939275
8,Bulevardul Țuțora,700190,47.1495449,27.5929961
14-16-18,Bulevardul Țuțora,700190,47.1490536,27.5931639
10-12,Bulevardul Țuțora,700190,47.1492520,27.5928275
7B,Bulevardul Primăverii,700189,47.1489648,27.5922855
9,Bulevardul Primăverii,700189,47.1486064,27.5929052
11C-13A E1,Bulevardul Țuțora,507184,47.1502865,27.5945363
15,Bulevardul Țuțora,700170,47.1496559,27.5941114
13,Bulevardul Țuțora,700170,47.1499694,27.5938946
9B,Bulevardul Țuțora,700170,47.1498925,27.5934008
9,Bulevardul Țuțora,700170,47.1501935,27.5932053
9A,Bulevardul Țuțora,700170,47.1501250,27.5927616
7,Bulevardul Țuțora,700169,47.1504024,27.5925292
23,Calea Chisinaului,700265,47.1515096,27.6025498
117A,Strada Ciurchi,700367,47.1563203,27.6175341
101D,Strada Ciurchi,700366,47.1572760,27.6154251
101B,Strada Ciurchi,700366,47.1572270,27.6157727
101C,Strada Ciurchi,700366,47.1570083,27.6160103
1,Șoseaua Moara de Foc,700536,47.1735780,27.5530477
109,Strada Ciurchi,700366,47.1563694,27.6159381
111,Strada Ciurchi,700368,47.1558882,27.6172993
115A,Strada Ciurchi,700368,47.1553525,27.6185270
117,Strada Ciurchi,700367,47.1552117,27.6190835
107A,Strada Ciurchi,700365,47.1564824,27.6154581
10;12,Strada Luca Arbore,700530,47.1722408,27.5438299
116,Strada Vasile Lupu,700343,47.1583957,27.6196995
122B,Strada Vasile Lupu,700319,47.1585355,27.6201240
120A,Strada Vasile Lupu,700344,47.1572743,27.6197289
116A,Strada Vasile Lupu,700344,47.1576461,27.6195985
118,Strada Vasile Lupu,700344,47.1573453,27.6191004
122,Strada Vasile Lupu,700345,47.1576875,27.6201841
124,Strada Vasile Lupu,700345,47.1575931,27.6208341
122A,Strada Vasile Lupu,700343,47.1581171,27.6205140
120,Strada Vasile Lupu,700345,47.1569128,27.6197352
126,Strada Vasile Lupu,700345,47.1565493,27.6204427
58;60;62;64,Șoseaua Păcurari,700544,47.1744912,27.5403582
5,Strada Popăuți,700547,47.1747453,27.5392015
3,Strada Popăuți,700547,47.1746866,27.5396716
7,Strada Popăuți,700547,47.1748213,27.5386898
117D,Strada Ciurchi,700366,47.1564810,27.6187821
117E,Strada Ciurchi,700366,47.1566674,27.6191701
117F,Strada Ciurchi,700366,47.1564393,27.6194653
117B,Strada Ciurchi,700367,47.1561046,27.6189560
117C,Strada Ciurchi,700367,47.1558859,27.6191936
121A,Strada Ciurchi,700367,47.1560663,27.6198106
121B,Strada Ciurchi,700345,47.1560943,27.6203054
126A,Strada Vasile Lupu,700345,47.1562379,27.6199735
132,Strada Vasile Lupu,700345,47.1561976,27.6211213
134,Strada Vasile Lupu,700357,47.1570983,27.6220812
121C,Strada Ciurchi,700345,47.1559249,27.6207848
134A,Strada Vasile Lupu,700357,47.1567216,27.6224154
136,Strada Vasile Lupu,700357,47.1561989,27.6227079
134,Strada Vasile Lupu,700357,47.1562979,27.6220585
132A,Strada Vasile Lupu,700345,47.1558314,27.6217130
127A,Strada Ciurchi,700358,47.1554455,27.6225866
127,Strada Ciurchi,700358,47.1551695,27.6224876
119A,Strada Ciurchi,700369,47.1546714,27.6196207
123,Strada Ciurchi,700369,47.1548528,27.6204021
119,Strada Ciurchi,700369,47.1550046,27.6195810
125,Strada Ciurchi,700369,47.1550227,27.6214953
125A,Strada Ciurchi,700358,47.1554074,27.6212982
125B,Strada Ciurchi,700358,47.1554102,27.6217106
132B,Strada Vasile Lupu,700345,47.1556788,27.6213293
132B,Strada Ciurchi,700358,47.1541003,27.6232191
140D,Strada Vasile Lupu,700358,47.1541421,27.6245709
136,Strada Ciurchi,700358,47.1548638,27.6242000
140F,Strada Vasile Lupu,700358,47.1538876,27.6243608
134,Strada Ciurchi,700358,47.1544390,27.6240923
132,Strada Ciurchi,700358,47.1547850,27.6232453
148,Strada Vasile Lupu,700360,47.1535733,27.6227383
20,Șoseaua Moara de Foc,700527,47.1720863,27.5573533
152,Strada Vasile Lupu,700360,47.1531653,27.6218867
150,Strada Vasile Lupu,700360,47.1534211,27.6223538
150A,Strada Vasile Lupu,700360,47.1533030,27.6221395
20B,Strada Mitropolit Varlaam,700198,47.1439325,27.5859957
156,Strada Vasile Lupu,700361,47.1527955,27.6214129
156,Strada Vasile Lupu,700361,47.1525836,27.6213359
154,Strada Vasile Lupu,700361,47.1529943,27.6214498
49,Bulevardul Alexandru cel Bun,700634,47.1661504,27.5580615
43,Bulevardul Alexandru cel Bun,700632,47.1652739,27.5597144
45,Bulevardul Alexandru cel Bun,700632,47.1651507,27.5592113
47,Bulevardul Alexandru cel Bun,700633,47.1657097,27.5588249
51,Bulevardul Alexandru cel Bun,700634,47.1663085,27.5576389
37,Strada Grădinari,700361,47.1526478,27.6206170
35,Strada Grădinari,700361,47.1526916,27.6203127
23,Strada Grădinari,700391,47.1531425,27.6176158
4-5,Strada Grădinari,700361,47.1529662,27.6196870
8,Aleea Grădinari,700361,47.1530441,27.6207805
39,Strada Grădinari,700361,47.1525954,27.6209391
21,Strada Grădinari,700391,47.1532439,27.6170994
2,Strada Grădinari,700361,47.1529270,27.6200655
33,Strada Grădinari,700361,47.1527448,27.6200544
6,Aleea Grădinari,700361,47.1530820,27.6204387
4,Aleea Grădinari,700361,47.1531081,27.6201715
55,Bulevardul Chimiei,700393,47.1519539,27.6207835
42,Strada Grădinari,700361,47.1523244,27.6208307
40,Strada Grădinari,700361,47.1523745,27.6205270
36,Strada Grădinari,700392,47.1522468,27.6201338
57,Bulevardul Chimiei,700361,47.1519363,27.6210654
51,Bulevardul Chimiei,700393,47.1520725,27.6201120
160,Strada Vasile Lupu,700361,47.1522265,27.6212050
16,Strada Grădinari,700392,47.1528910,27.6173922
38,Strada Grădinari,700361,47.1524167,27.6202430
53,Bulevardul Chimiei,700393,47.1520026,27.6204828
14,Strada Grădinari,700391,47.1529141,27.6171404
41,Bulevardul Chimiei,700393,47.1523351,27.6183846
35,Bulevardul Chimiei,700393,47.1524807,27.6175060
39,Bulevardul Chimiei,700393,47.1523838,27.6180840
33,Bulevardul Chimiei,700391,47.1526246,27.6167407
12,Strada Grădinari,700391,47.1527805,27.6167473
10,Strada Grădinari,700391,47.1529691,27.6166578
2,Strada Grădinari,700360,47.1533786,27.6144427
4,Strada Grădinari,700360,47.1531839,27.6155992
29,Bulevardul Chimiei,700391,47.1527236,27.6160564
23,Bulevardul Chimiei,700391,47.1530140,27.6154872
27,Bulevardul Chimiei,700391,47.1527732,27.6157525
31,Bulevardul Chimiei,700391,47.1526751,27.6163541
25,Bulevardul Chimiei,700391,47.1528354,27.6154717
4,Strada Școalei,700523,47.1733557,27.5646115
12,Strada Titu Maiorescu,700460,47.1761670,27.5682263
3,Strada Victor Babeș Doctor,700464,47.1738881,27.5674610
1,Strada Mihai Vodă Viteazul,700389,47.1555023,27.6145424
1,Strada Stanciu,700390,47.1551822,27.6149599
3,Strada Mihai Vodă Viteazul,700389,47.1552538,27.6143642
11,Strada Moșu,700390,47.1549402,27.6145476
18,Strada Moșu,700390,47.1543528,27.6155994
4,Strada Stanciu,700390,47.1548632,27.6154077
4,Strada Parcului,700390,47.1539024,27.6137614
19,Strada Grădinari,700390,47.1533383,27.6166030
22,Strada Moșu,700390,47.1543729,27.6164287
122,Strada Ciurchi,700389,47.1551843,27.6158695
6,Strada Parcului,700390,47.1541171,27.6138084
114,Strada Ciurchi,700389,47.1554414,27.6148588
11,Strada Parcului,700392,47.1541870,27.6149835
124,Strada Ciurchi,700389,47.1550412,27.6159713
116,Strada Ciurchi,700389,47.1554882,27.6150450
5,Strada Stanciu,700390,47.1549109,27.6150759
20,Strada Moșu,700390,47.1540186,27.6158433
11A,Strada Moșu,700390,47.1548684,27.6147960
1,Strada Moșu,700390,47.1557198,27.6123421
96,Strada Ciurchi,700389,47.1560161,27.6124171
5,Strada Moșu,700390,47.1552920,27.6132582
98,Strada Ciurchi,700389,47.1560210,27.6126886
104,Strada Ciurchi,700389,47.1559715,27.6135416
5,Strada Moșu,700390,47.1554669,27.6130577
94,Strada Ciurchi,700389,47.1560080,27.6122411
1,Strada Sfântul Teodor,700115,47.1666625,27.5883660
25-33,Bulevardul Independenței,700102,47.1660865,27.5890322
29,Strada Cuza Vodă,700037,47.1643485,27.5855559
21 a,Strada Vovodenie,700079,47.1647832,27.5876351
10,Strada Mihai Vodă Viteazul,700390,47.1540099,27.6113375
8,Strada Mihai Vodă Viteazul,700390,47.1542741,27.6113916
76,Strada Ciurchi,700313,47.1565180,27.6091598
78,Strada Ciurchi,700313,47.1564979,27.6093548
80A,Strada Ciurchi,700313,47.1563645,27.6097837
60,Strada Ciurchi,700313,47.1571271,27.6078182
56,Strada Ciurchi,700313,47.1574417,27.6071301
32,Strada Ciurchi,700313,47.1580951,27.6044289
58,Strada Ciurchi,700313,47.1572185,27.6073656
48,Strada Ciurchi,700313,47.1578278,27.6064320
58A,Strada Ciurchi,700313,47.1571176,27.6076116
50,Strada Ciurchi,700313,47.1576976,27.6066170
36,Strada Ciurchi,700313,47.1581676,27.6046989
26,Strada Ciurchi,700313,47.1582029,27.6039196
24,Strada Ciurchi,700313,47.1581425,27.6037460
22,Strada Ciurchi,700313,47.1582636,27.6035512
8,Piața Voievozilor,700592,47.1607675,27.5657456
9,Piața Voievozilor,700592,47.1604495,27.5657851
37,Strada Sfântul Lazăr,700045,47.1566552,27.5917848
30,Strada Vasile Lupu,700309,47.1592340,27.6030887
23,Strada Ciurchi,700313,47.1584277,27.6045189
19,Strada Ciurchi,700313,47.1585003,27.6037899
21A,Strada Ciurchi,700313,47.1584725,27.6041704
13,Strada Ciurchi,700313,47.1587453,27.6033645
28,Strada Vasile Lupu,700309,47.1592050,27.6028692
36,Strada Vasile Lupu,700309,47.1592301,27.6033706
9,Strada Ciurchi,700313,47.1585015,27.6030631
36A,Strada Vasile Lupu,700309,47.1593154,27.6035760
15,Strada Ciurchi,700313,47.1584317,27.6035647
21,Strada Ciurchi,700313,47.1584797,27.6040003
26,Strada Vasile Lupu,700309,47.1590255,27.6023470
4,Strada Delfini,700309,47.1588103,27.6038586
6,Strada Delfini,700309,47.1587178,27.6040972
50,Strada Vasile Lupu,700309,47.1596158,27.6056354
25,Strada Ciurchi,700313,47.1584694,27.6049062
3,Fundătura Delfini,700313,47.1589951,27.6049001
8,Strada Mioriței,700309,47.1586944,27.6053600
40,Strada Vasile Lupu,700309,47.1595129,27.6047387
38,Strada Vasile Lupu,700309,47.1594477,27.6045644
48,Strada Vasile Lupu,700309,47.1596436,27.6054716
27,Strada Ciurchi,700313,47.1585317,27.6050493
5,Fundătura Delfini,700313,47.1590071,27.6051046
1,Strada Delfini,700309,47.1587592,27.6046098
35,Strada Oancea,700350,47.1578951,27.6090361
73,Strada Ciurchi,700313,47.1564657,27.6111323
13C,Strada Oancea,700351,47.1571910,27.6112913
19,Strada Oancea,700351,47.1572349,27.6106501
79,Strada Ciurchi,700313,47.1563635,27.6117295
67,Strada Ciurchi,700313,47.1565285,27.6103294
75,Strada Ciurchi,700313,47.1564098,27.6113825
23A,Strada Oancea,700351,47.1573883,27.6102888
27,Strada Oancea,700351,47.1573014,27.6096619
65,Strada Ciurchi,700313,47.1567091,27.6099270
47,Strada Ciurchi,700313,47.1577577,27.6077962
1,Strada Mioriței,700309,47.1594939,27.6059377
45,Strada Ciurchi,700313,47.1577097,27.6075346
52,Strada Vasile Lupu,700309,47.1596657,27.6060089
49,Strada Ciurchi,700313,47.1574342,27.6078538
41,Strada Ciurchi,700313,47.1579099,27.6068590
3A,Strada Mioriței,700309,47.1591164,27.6059039
11,Strada Virgiliu,700350,47.1572399,27.6083953
18,Strada Mahu,700312,47.1585245,27.6059196
55A,Strada Ciurchi,700313,47.1570466,27.6086423
47A,Strada Ciurchi,700313,47.1575234,27.6077059
3,Strada Mioriței,700309,47.1593755,27.6059251
80,Strada Vasile Lupu,700309,47.1600392,27.6121779
9,Strada Mioriței,700309,47.1586893,27.6056438
55,Strada Ciurchi,700313,47.1570526,27.6084765
51,Strada Ciurchi,700313,47.1573764,27.6079973
31,Strada Ciurchi,700313,47.1582834,27.6056194
35,Strada Ciurchi,700313,47.1582487,27.6060116
5,Strada Meteor,700312,47.1580032,27.6078360
20,Strada Mahu,700312,47.1585113,27.6056443
57,Strada Ciurchi,700313,47.1569427,27.6088818
43,Strada Ciurchi,700313,47.1577860,27.6072957
53,Strada Ciurchi,700313,47.1572997,27.6080459
39,Strada Ciurchi,700313,47.1580147,27.6065353
9,Strada Virgiliu,700350,47.1574967,27.6086839
55,Strada Vasile Lupu,700309,47.1601497,27.6074385
61,Strada Vasile Lupu,700309,47.1603233,27.6083324
59,Strada Vasile Lupu,700309,47.1602567,27.6081678
1A,Strada Ateneului,700309,47.1608754,27.6076369
53,Strada Vasile Lupu,700309,47.1601648,27.6071291
1,Strada Ateneului,700309,47.1611106,27.6079018
63bis,Strada Vasile Lupu,700309,47.1604985,27.6086661
3,Strada Ateneului,700309,47.1603704,27.6069691
51A,Strada Vasile Lupu,700309,47.1602732,27.6070093
10,Strada Dudescu,700321,47.1609258,27.6087180
1C,Strada Ateneului,700309,47.1604487,27.6071689
71,Strada Vasile Lupu,700309,47.1603774,27.6105649
49,Strada Vasile Lupu,700309,47.1600876,27.6067569
45,Strada Vasile Lupu,700309,47.1600436,27.6063940
47,Strada Vasile Lupu,700309,47.1600806,27.6065609
15A,Strada Rojniță,700309,47.1604711,27.6061761
5,Strada Ateneului,700309,47.1604706,27.6064673
5A,Strada Ateneului,700309,47.1604836,27.6063338
8A,Strada Rojniță,700309,47.1606095,27.6055590
6A,Strada Rojniță,700309,47.1608905,27.6053848
7,Strada Vânători,700309,47.1605427,27.6051305
10,Strada Rojniță,700309,47.1604500,27.6057524
1A,Strada Vânători,700309,47.1611549,27.6051085
9,Strada Vânători,700309,47.1603807,27.6053213
8,Strada Rojniță,700309,47.1607792,27.6056382
1,Strada Vânători,700309,47.1610012,27.6050776
3,Strada Vânători,700309,47.1608152,27.6051408
11,Strada Vânători,700309,47.1602139,27.6055012
14,Strada Ion Creangă,700321,47.1617826,27.6065997
2,Strada Ateneului,700309,47.1611903,27.6063728
5,Strada Rojniță,700309,47.1618595,27.6052785
64,Strada Rojniță,700397,47.1624336,27.6044328
1,Strada Rojniță,700309,47.1621193,27.6047211
66,Strada Tătărași,700397,47.1624075,27.6046293
72B,Strada Tătărași,700397,47.1623996,27.6050785
72,Strada Tătărași,700397,47.1623728,27.6051364
4,Strada Ion Creangă,700321,47.1621361,27.6058030
70,Strada Tătărași,700397,47.1623834,27.6049893
2,Strada Ion Creangă,700321,47.1622210,27.6056373
12,Strada Ion Creangă,700321,47.1620710,27.6064186
4,Strada Pictorului,700321,47.1610273,27.6106231
4A,Strada Pictorului,700321,47.1608264,27.6113304
3,Strada Pictorului,700321,47.1612269,27.6100629
38,Strada Ion Creangă,700321,47.1614929,27.6104299
32,Strada Ion Creangă,700321,47.1615063,27.6096499
30,Strada Ion Creangă,700321,47.1615623,27.6092083
30A,Strada Ion Creangă,700321,47.1614459,27.6094260
36,Strada Ion Creangă,700321,47.1615350,27.6101793
28,Strada Răchiți,700309,47.1600753,27.6049942
39,Strada Vasile Lupu,700309,47.1598570,27.6050573
44,Strada Ion Creangă,700321,47.1614496,27.6110551
42,Strada Ion Creangă,700321,47.1614700,27.6108818
4B,Strada Pictorului,700321,47.1612073,27.6113111
48,Strada Ion Creangă,700321,47.1613684,27.6116421
6,Strada Pictorului,700321,47.1612183,27.6107101
40,Strada Ion Creangă,700321,47.1614699,27.6107137
50,Strada Ion Creangă,700321,47.1613865,27.6117834
52,Strada Ion Creangă,700320,47.1610993,27.6121952
56,Strada Ion Creangă,700321,47.1613984,27.6126846
56A,Strada Ion Creangă,700321,47.1610364,27.6128571
12,Strada Doctor Emil Savini,700320,47.1609680,27.6133090
4,Strada Vânători,700309,47.1611359,27.6047261
17A,Strada Răchiți,700309,47.1602984,27.6041757
4A,Strada Vânători,700309,47.1613086,27.6046916
6,Strada Rojniță,700309,47.1616763,27.6047492
21,Strada Răchiți,700309,47.1602218,27.6045212
7,Strada Vânători,700309,47.1610001,27.6047019
23,Strada Răchiți,700309,47.1602318,27.6048360
2,Strada Rojniță,700309,47.1618843,27.6045149
8,Strada Vânători,700309,47.1607396,27.6046536
9,Strada Răchiți,700309,47.1609458,27.6043552
12,Strada Vânători,700309,47.1604710,27.6047904
9A,Strada Răchiți,700309,47.1607549,27.6043522
15,Strada Răchiți,700309,47.1601618,27.6040142
5,Strada Răchiți,700309,47.1615822,27.6044253
2,Strada Vânători,700309,47.1615192,27.6047479
10,Strada Vânători,700309,47.1606211,27.6047445
11,Strada Răchiți,700309,47.1605842,27.6043734
4B,Strada Rojniță,700309,47.1618624,27.6046859
13,Strada Răchiți,700309,47.1604667,27.6043805
5B,Strada Răchiți,700309,47.1613243,27.6044056
28,Strada Stejar,700327,47.1626663,27.6094082
45,Strada Ion Creangă,700325,47.1617237,27.6119442
26,Strada Stejar,700327,47.1627128,27.6092244
23,Strada Ion Creangă,700317,47.1622462,27.6087094
3A,Strada Donos,700325,47.1618984,27.6119738
24,Strada Stejar,700327,47.1626957,27.6089807
43,Strada Ion Creangă,700325,47.1618544,27.6117555
36,Șoseaua Bucium,700282,47.1288176,27.6134364
3,Strada Petre Vancea,700298,47.1272550,27.6188266
189,Strada Sărărie,700451,47.1820761,27.5699773
3E,Strada Palat,700028,47.1554054,27.5863856
29A,Strada Vasile Lupu,700309,47.1596461,27.6034645
11,Strada Vasile Lupu,700309,47.1594947,27.6021185
9,Strada Bălușescu,700309,47.1595916,27.6025805
29,Strada Vasile Lupu,700309,47.1595392,27.6031012
17,Strada Vasile Lupu,700309,47.1593936,27.6022889
1,Strada Bălușescu,700309,47.1598762,27.6035328
3,Strada Bălușescu,700309,47.1596668,27.6032819
23,Strada Bălușescu,700309,47.1595691,27.6023586
26,Strada Răchiți,700309,47.1598772,27.6039866
17,Strada Vasile Lupu,700309,47.1591904,27.6017973
3B,Strada Bălușescu,700309,47.1597054,27.6031368
31,Strada Vasile Lupu,700309,47.1596837,27.6037947
21,Strada Vasile Lupu,700309,47.1593270,27.6024212
25,Strada Vasile Lupu,700309,47.1594118,27.6027937
17,Strada Ion Creangă,700320,47.1620495,27.6077183
66,Strada Ion Creangă,700321,47.1612851,27.6144503
8,Strada Doctor Emil Savini,700318,47.1608457,27.6141918
10,Strada Doctor Emil Savini,700320,47.1609097,27.6137511
85,Strada Vasile Lupu,700319,47.1601592,27.6148054
13,Strada Ion Creangă,700320,47.1622190,27.6071561
20B,Strada Stejar,700327,47.1627354,27.6082653
16,Strada Stejar,700327,47.1627017,27.6078341
21,Strada Ion Creangă,700317,47.1623617,27.6083591
7,Strada Ion Creangă,700320,47.1624086,27.6066188
12,Strada Stejar,700327,47.1627060,27.6073502
14,Strada Stejar,700327,47.1627372,27.6076155
18,Strada Stejar,700327,47.1627019,27.6080923
19,Strada Ion Creangă,700317,47.1623696,27.6077757
54,Strada Stejar,700327,47.1625990,27.6127443
52,Strada Stejar,700327,47.1626818,27.6125821
4,Strada Donos,700325,47.1625000,27.6125841
58,Strada Stejar,700327,47.1625527,27.6131136
53,Strada Ion Creangă,700333,47.1620218,27.6127562
51,Strada Ion Creangă,700333,47.1618144,27.6125859
56,Strada Stejar,700327,47.1623453,27.6129433
7,Strada Doctor Emil Savini,700318,47.1606435,27.6149411
11,Stradela Nicoriță,700397,47.1608174,27.6031302
9,Stradela Nicoriță,700397,47.1610824,27.6032743
18,Strada Răchiți,700309,47.1608657,27.6039076
7A,Stradela Nicoriță,700397,47.1612045,27.6032241
14,Strada Răchiți,700309,47.1612847,27.6040285
10,Strada Bălușescu,700309,47.1597511,27.6023084
13,Stradela Nicoriță,700397,47.1607392,27.6030034
15,Stradela Nicoriță,700397,47.1606704,27.6028333
21,Stradela Nicoriță,700397,47.1599379,27.6016780
26,Strada Răchiți,700309,47.1601625,27.6036819
5B,Stradela Nicoriță,700397,47.1617488,27.6032202
12A,Strada Răchiți,700309,47.1613796,27.6040763
5A,Stradela Nicoriță,700397,47.1615043,27.6032376
8,Strada Bălușescu,700309,47.1598850,27.6026620
5,Stradela Nicoriță,700397,47.1616531,27.6032566
6,Strada Răchiți,700309,47.1617481,27.6040270
1,Stradela Nicoriță,700397,47.1620233,27.6033238
4B,Strada Răchiți,700309,47.1619623,27.6040366
4,Strada Răchiți,700309,47.1622950,27.6040477
12B,Strada Răchiți,700309,47.1614607,27.6040506
7,Stradela Nicoriță,700397,47.1613427,27.6032688
16,Strada Răchiți,700309,47.1610376,27.6040041
24,Strada Răchiți,700309,47.1603677,27.6038814
4,Strada Bălușescu,700309,47.1599637,27.6030784
8,Strada Răchiți,700309,47.1616180,27.6040434
3,Stradela Nicoriță,700397,47.1619095,27.6032684
19,Stradela Nicoriță,700397,47.1601116,27.6021954
55,Strada Ion Creangă,700333,47.1618113,27.6130379
63,Strada Ion Creangă,700333,47.1616966,27.6136535
57,Strada Ion Creangă,700333,47.1617861,27.6134468
1,Strada Donos,700325,47.1622223,27.6121543
50,Strada Stejar,700327,47.1626309,27.6122682
1 Bl. 907,Strada Bradului,700656,47.1461106,27.5808038
4-6,Strada Minervei,700694,47.1450698,27.5795582
13,Strada Pantelimon Halipa,507184,47.1478021,27.5775728
23-25,Strada Sălciilor,700697,47.1447981,27.5754717
18-20,Strada Orientului,700659,47.1458620,27.5754005
21,Strada Sălciilor,700697,47.1444434,27.5757439
13-17,Strada Orientului,700698,47.1448603,27.5747437
2-4,Strada Petre Țuțea,700693,47.1450325,27.5803646
8-10,Strada Minervei,700694,47.1454169,27.5790039
29,Strada Sălciilor,700697,47.1453277,27.5749773
64-66,Bulevardul Primăverii,700173,47.1524309,27.5992051
56,Bulevardul Primăverii,700173,47.1520012,27.5987488
76,Strada Ion Creangă,700321,47.1611326,27.6153663
90,Strada Ion Creangă,700321,47.1607849,27.6162743
78 - 82,Strada Ion Creangă,700321,47.1609887,27.6156722
94,Strada Ion Creangă,700321,47.1606154,27.6166221
102,Strada Ion Creangă,700321,47.1602149,27.6176415
96,Strada Ion Creangă,700321,47.1605033,27.6168412
84,Strada Ion Creangă,700321,47.1608490,27.6157914
91,Strada Vasile Lupu,700319,47.1601659,27.6168897
5,Strada Doctor Savini,700318,47.1607740,27.6145868
88,Strada Ion Creangă,700321,47.1609177,27.6161617
74,Strada Ion Creangă,700321,47.1610151,27.6151548
87,Strada Vasile Lupu,700319,47.1603506,27.6155962
5A,Strada Doctor Savini,700318,47.1610436,27.6147096
72,Strada Ion Creangă,700321,47.1611448,27.6150078
100,Strada Ion Creangă,700321,47.1602312,27.6173013
70,Strada Ion Creangă,700321,47.1612143,27.6147786
27,Strada Tăietoarei,700310,47.1558963,27.6023747
48,Bulevardul Tudor Vladimirescu,700311,47.1569027,27.6027176
46,Bulevardul Tudor Vladimirescu,700311,47.1573878,27.6022255
2,Strada Țepeș Vodă,700310,47.1568871,27.6021975
36,Strada Stejar,700327,47.1627288,27.6102831
30,Strada Stejar,700327,47.1626621,27.6097557
34,Strada Stejar,700327,47.1626699,27.6101466
32,Strada Stejar,700327,47.1627068,27.6100105
89,Strada Vasile Lupu,700319,47.1599513,27.6161389
59,Strada Ion Creangă,700333,47.1619150,27.6137610
33,Strada Stejar,700326,47.1632191,27.6100427
27,Strada Stejar,700327,47.1629730,27.6089065
25,Strada Stejar,700327,47.1629662,27.6085057
96,Strada Eternitate,700329,47.1640155,27.6085708
25,Strada Stejar,700327,47.1629846,27.6086114
23,Strada Stejar,700327,47.1633430,27.6088500
23,Strada Stejar,700327,47.1630196,27.6082660
21,Strada Stejar,700327,47.1629909,27.6079322
31,Strada Stejar,700326,47.1632881,27.6095891
20,Strada Ciric,700334,47.1640787,27.6106158
15B,Stradela Ciric,700334,47.1638643,27.6113025
15A,Stradela Ciric,700334,47.1637091,27.6114114
10,Strada Ciric,700334,47.1640489,27.6099191
15,Strada Deliu,700326,47.1631854,27.6092704
37A,Strada Stejar,700325,47.1634131,27.6109019
18,Strada Ciric,700334,47.1640939,27.6103139
5,Strada Deliu,700326,47.1637319,27.6092067
7,Strada Deliu,700326,47.1636081,27.6092503
17,Stradela Ciric,700334,47.1638730,27.6110979
14,Strada Ciric,700334,47.1640393,27.6102189
13,Stradela Ciric,700334,47.1636268,27.6117622
21,Stradela Ciric,700334,47.1640842,27.6107241
13A,Stradela Ciric,700334,47.1637327,27.6116532
6,Strada Ciric,700325,47.1640907,27.6094352
11,Strada Deliu,700326,47.1633088,27.6092668
6,Strada Ciric,700325,47.1638605,27.6099470
47,Strada Stejar,700333,47.1628840,27.6119838
45,Strada Stejar,700333,47.1629173,27.6117969
41,Strada Stejar,700333,47.1629353,27.6110441
49,Strada Stejar,700333,47.1628665,27.6121732
41,Strada Stejar,700325,47.1633458,27.6115051
6,Strada Pantel,700326,47.1635077,27.6075674
6A,Strada Pantel,700326,47.1635306,27.6074158
13C,Strada Stejar,700327,47.1636419,27.6072570
19,Strada Stejar,700327,47.1629872,27.6075189
8,Strada Pantel,700326,47.1633350,27.6076321
44,Bulevardul Tudor Vladimirescu,700311,47.1578053,27.6018056
42,Bulevardul Tudor Vladimirescu,700311,47.1582974,27.6013143
59B,Strada Ion Creangă,700333,47.1620471,27.6144649
59C,Strada Ion Creangă,700333,47.1622161,27.6138652
1,Strada Țepeș Vodă,700310,47.1563230,27.6021633
3,Strada Țepeș Vodă,700310,47.1567552,27.6017730
5,Strada Stejar,700327,47.1628528,27.6061507
5,Strada Stejar,700327,47.1630334,27.6062181
69,Strada Ion Creangă,700335,47.1614573,27.6153099
3B,Strada Doctor Emil Savini,700335,47.1616646,27.6153500
9,Strada Nicoriță,700397,47.1612164,27.6015393
7,Strada Nicoriță,700397,47.1614391,27.6014958
3,Strada Nicoriță,700397,47.1613130,27.6023829
4,Stradela Nicoriță,700397,47.1620908,27.6030625
12,Stradela Nicoriță,700397,47.1607854,27.6026806
1,Strada Nicoriță,700397,47.1616644,27.6023871
2A,Stradela Nicoriță,700397,47.1622676,27.6031396
19,Strada Nicoriță,700397,47.1600320,27.6013798
16A,Stradela Nicoriță,700397,47.1601584,27.6017500
13,Strada Nicoriță,700397,47.1606300,27.6014639
48A,Strada Tătărași,700397,47.1623587,27.6025312
16,Stradela Nicoriță,700397,47.1601363,27.6015946
8,Stradela Nicoriță,700397,47.1610637,27.6028217
9A,Strada Nicoriță,700397,47.1610856,27.6015425
15,Strada Nicoriță,700397,47.1602843,27.6013720
54B,Strada Tătărași,700397,47.1624029,27.6031872
5,Strada Nicoriță,700397,47.1617296,27.6017519
6,Stradela Nicoriță,700397,47.1619243,27.6028197
15A,Strada Nicoriță,700397,47.1602393,27.6015923
7,Stradela Ciric,700334,47.1634563,27.6123560
3,Strada Petre Ispirescu,700328,47.1632166,27.6055552
55,Strada Stejar,700333,47.1631133,27.6128631
2,Aleea Ghica Vodă,700503,47.1808897,27.5654540
6,Strada Vasile Pogor,700110,47.1713629,27.5760205
3,Bulevardul Metalurgiei,700291,47.1482290,27.6198544
10B,Bulevardul Chimiei,700393,47.1508350,27.6197357
10C,Bulevardul Chimiei,700393,47.1507430,27.6203763
10A,Bulevardul Chimiei,700393,47.1509315,27.6190880
47,strada Imasului,700177,47.1480039,27.6097545
6bis,Strada Doctor Savini,700318,47.1620043,27.6147616
6,Strada Doctor Savini,700318,47.1622240,27.6148539
64,Strada Stejar,700327,47.1623571,27.6145625
68,Strada Stejar,700327,47.1625363,27.6146943
60,Strada Stejar,700327,47.1625262,27.6139629
4,Strada Doctor Savini,700318,47.1623383,27.6148733
21A,Strada Stejar,700327,47.1635372,27.6082299
94,Strada Eternitate,700329,47.1639783,27.6080360
92,Strada Eternitate,700329,47.1641331,27.6082045
21,Strada Fulger,700301,47.1633073,27.6035853
13,Strada Fulger,700301,47.1636653,27.6042299
65,Strada Tătărași,700397,47.1627688,27.6037637
9,Strada Fulger,700301,47.1637475,27.6048564
2,Strada Petre Ispirescu,700328,47.1636237,27.6051315
71,Strada Tătărași,700397,47.1627240,27.6044471
17,Strada Fulger,700301,47.1635573,27.6036481
15,Strada Fulger,700301,47.1635693,27.6037525
21A,Strada Fulger,700301,47.1632891,27.6033929
13B,Strada Stejar,700327,47.1636344,27.6067951
63,Strada Tătărași,700397,47.1627662,27.6034016
21B,Strada Fulger,700301,47.1631156,27.6034146
1,Strada Valea Lupului,707410,47.1753012,27.4902796
93,Bulevardul Tudor Vladimirescu,700310,47.1594002,27.6008805
26,Strada Nicoriță,700397,47.1595103,27.6010907
72,Strada Stejar,700327,47.1622207,27.6154505
70,Strada Stejar,700327,47.1623501,27.6152436
1,Strada Doctor Savini,700335,47.1620552,27.6151417
3,Strada Doctor Savini,700335,47.1619170,27.6151835
76,Strada Stejar,700327,47.1620869,27.6156734
78,Strada Stejar,700327,47.1620252,27.6158905
84,Strada Stejar,700327,47.1616168,27.6167840
74,Strada Stejar,700327,47.1622202,27.6155827
3A,Strada Doctor Emil Savini,700335,47.1618654,27.6158056
73,Strada Ion Creangă,700337,47.1615196,27.6163969
9A,Strada Stejar,700327,47.1634124,27.6065276
13A,Strada Stejar,700327,47.1636007,27.6063162
8,Aleea Basarabi,700630,47.1630713,27.5628342
26,Piața Voievozilor,700630,47.1626447,27.5633393
4,Strada Vasile Alexandrescu Urechia,507184,47.1513686,27.5687925
6,Șoseaua Nicolina,700733,47.1392613,27.5778692
2,Bulevardul Carol I,700505,47.1708830,27.5762319
8,Bulevardul Carol I,700505,47.1731879,27.5743119
32,Strada Barbu Lăutaru,700399,47.1570026,27.5988386
11,Trecătoarea Doamnei,700399,47.1567923,27.5989372
1,Trecătoarea Doamnei,700399,47.1564109,27.6001768
4,Strada Venerei,700310,47.1572046,27.6002590
22,Strada Tăietoarei,700310,47.1566433,27.6011815
46,Strada Barbu Lăutaru,700399,47.1573745,27.6000972
93,Strada Vasile Lupu,700319,47.1597565,27.6174331
1,Strada Smârdan,700310,47.1582236,27.6008507
5,Strada Venerei,700310,47.1574719,27.6003938
14,Strada Tăietoarei,700310,47.1574769,27.6007930
48,Strada Barbu Lăutaru,700399,47.1575930,27.6001696
50,Strada Barbu Lăutaru,700399,47.1576002,27.6004704
48A,Strada Barbu Lăutaru,700399,47.1576874,27.6002232
18,Strada Nicoriță,700397,47.1598062,27.6009717
16,Strada Nicoriță,700397,47.1601543,27.6009520
38,Bulevardul Tudor Vladimirescu,700310,47.1589942,27.6004956
36,Bulevardul Tudor Vladimirescu,700310,47.1593419,27.6002679
5,Strada Smârdan,700399,47.1581223,27.6003061
4,Bulevardul Primăverii,700160,47.1499445,27.5966672
4,Bulevardul Primăverii,700173,47.1502539,27.5966400
3,Strada Octav Mayer,700173,47.1501831,27.5972527
87,Strada Ion Creangă,700381,47.1603006,27.6185694
85A,Strada Ion Creangă,700381,47.1606122,27.6182155
86,Strada Stejar,700327,47.1609763,27.6178517
88,Strada Stejar,700327,47.1608935,27.6180725
79,Strada Ion Creangă,700337,47.1608157,27.6175546
30A,Strada Fântânilor,700337,47.1632285,27.6151504
36,Strada Fântânilor,700337,47.1629911,27.6147975
46A,Strada Ciric,700335,47.1635356,27.6146316
50A,Strada Ciric,700336,47.1632561,27.6150435
5,Trecătoarea Ciobanului,700336,47.1629162,27.6163692
52,Strada Ciric,700336,47.1631247,27.6154974
27,Strada Fântânilor,700337,47.1630091,27.6157945
6,Stradela Ciric,700334,47.1633689,27.6135551
73A,Strada Stejar,700333,47.1625358,27.6154837
75,Strada Stejar,700333,47.1625270,27.6156240
77,Strada Stejar,700333,47.1624731,27.6157153
77B,Strada Stejar,700333,47.1624346,27.6158268
79,Strada Stejar,700333,47.1623994,27.6159640
83,Strada Stejar,700333,47.1622228,27.6161158
40B,Strada Ciric,700335,47.1636601,27.6138125
40,Strada Ciric,700335,47.1639591,27.6138163
10,Strada Nicoriță,700397,47.1609890,27.6011644
12,Strada Nicoriță,700397,47.1608611,27.6011321
14,Strada Nicoriță,700397,47.1606395,27.6011650
6,Strada Nicoriță,700397,47.1612018,27.6012308
6A,Strada Nicoriță,700397,47.1613488,27.6012162
8,Strada Nicoriță,700397,47.1611143,27.6011842
12,Stradela Ciric,700334,47.1636021,27.6131484
14,Stradela Ciric,700334,47.1636872,27.6128188
16,Stradela Ciric,700334,47.1637279,27.6126905
18,Stradela Ciric,700334,47.1637353,27.6124953
20,Stradela Ciric,700334,47.1638115,27.6123634
22,Strada Ciric,700334,47.1641413,27.6112108
22,Stradela Ciric,700334,47.1638996,27.6120210
24,Strada Ciric,700334,47.1641142,27.6117783
26,Strada Ciric,700334,47.1641076,27.6119033
34,Strada Ciric,700334,47.1643052,27.6131300
10,Strada Mizil,700401,47.1607410,27.6003580
14,Strada Nicoriță,700397,47.1605341,27.6008389
88,Strada Eternitate,700329,47.1642707,27.6075340
84,Strada Eternitate,700328,47.1642209,27.6070142
89,Bulevardul Tudor Vladimirescu,700401,47.1600337,27.6005246
91,Bulevardul Tudor Vladimirescu,700310,47.1597942,27.6004662
1,Strada Petre Ispirescu,700328,47.1639394,27.6054279
112,Strada Ion Creangă,700381,47.1598370,27.6184722
120,Strada Ion Creangă,700381,47.1597147,27.6187265
126,Strada Ion Creangă,700381,47.1595451,27.6189683
114,Strada Ion Creangă,700381,47.1597618,27.6185744
81,Strada Ion Creangă,700333,47.1606304,27.6175260
83,Strada Ion Creangă,700333,47.1605699,27.6177390
83A,Strada Ion Creangă,700333,47.1606112,27.6176372
85,Strada Ion Creangă,700381,47.1605199,27.6178738
82,Strada Eternitate,700328,47.1640510,27.6060055
6A,Strada Petre Ispirescu,700328,47.1641284,27.6065515
14,Strada Fulger,700301,47.1634403,27.6030372
23,Strada Călărași,700301,47.1634494,27.6016811
25,Strada Călărași,700301,47.1633651,27.6017082
27,Strada Călărași,700301,47.1630064,27.6021688
57,Strada Tătărași,700397,47.1627326,27.6024781
59,Strada Tătărași,700397,47.1626699,27.6027129
10,Fundătura Eternitate,700329,47.1653396,27.6081971
119,Strada Eternitate,700329,47.1644940,27.6079199
12,Fundătura Eternitate,700329,47.1654220,27.6082459
14,Fundătura Eternitate,700329,47.1655107,27.6082716
14A,Fundătura Eternitate,700329,47.1656029,27.6081390
2,Fundătura Eternitate,700329,47.1648996,27.6080929
1,Strada Fulger,700301,47.1643734,27.6060595
42B,Șoseaua Națională,700604,47.1668545,27.5594183
64,Bulevardul Alexandru cel Bun,700604,47.1658670,27.5596928
44,Bulevardul Alexandru cel Bun,700604,47.1664231,27.5586812
1,Strada Sarmisegetuza,700635,47.1675598,27.5579590
3C,Strada Pantelimon Halipa,700612,47.1521794,27.5730756
21-25,Strada Hatman Șendrea,700614,47.1520569,27.5712443
1,Strada Mircea cel Bătrân,700648,47.1555417,27.5695608
3,Bulevardul Alexandru cel Bun,700646,47.1588539,27.5701302
28,Strada Milcov,700581,47.1584868,27.5711693
5,Bulevardul Alexandru cel Bun,700646,47.1593170,27.5701685
1,Bulevardul Alexandru cel Bun,700646,47.1585817,27.5699378
78,Strada Vasile Lupu,700350,47.1599302,27.6100980
78A,Strada Vasile Lupu,700350,47.1595572,27.6103888
5,Calea Galata,700622,47.1534474,27.5713558
5B,Strada Palas,700032,47.1548462,27.5874685
5A,Strada Palat,700032,47.1547613,27.5868119
7A,Strada Palas,700051,47.1557898,27.5858809
7D,Strada Palas,700259,47.1564998,27.5897046
5C,Strada Palas,700051,47.1551343,27.5887658
13,Piața Voievozilor,700588,47.1614387,27.5632763
54,Aleea Mihail Sadoveanu,700489,47.2099342,27.5341322
26,Strada Anastasie Panu,700025,47.1607652,27.5899774
189,Strada Sărărie,700451,47.1824838,27.5701843
7,Strada Gavril Muzicescu,700127,47.1681412,27.5766172
31,Șoseaua Națională,700237,47.1548684,27.5796793
49,Șoseaua Națională,700237,47.1526719,27.5842472
53,Șoseaua Națională,700238,47.1521771,27.5853414
51,Șoseaua Națională,700238,47.1524086,27.5847964
47,Șoseaua Națională,700237,47.1529022,27.5836641
63,Strada Palat,700032,47.1536620,27.5880986
44,Strada Costache Negri,700073,47.1617398,27.5885726
26,Strada Barnovschi,700400,47.1603118,27.5933850
14,Strada Otilia Cazimir,700400,47.1592723,27.5945999
48,Strada Costache Negri,700071,47.1623537,27.5876867
26,Bulevardul Ștefan cel Mare,700064,47.1603815,27.5828857
2,Strada Nicolina,700220,47.1501414,27.5859825
3,Aleea Decebal,700229,47.1507963,27.5852777
15,Aleea Decebal,700230,47.1494608,27.5847717
1,Aleea Decebal,700229,47.1509784,27.5848178
11,Aleea Decebal,700230,47.1499651,27.5839751
8,Strada Decebal,700248,47.1531797,27.5803945
24,Strada Decebal,700250,47.1543632,27.5777051
12,Strada Decebal,700248,47.1531811,27.5797100
1A,Aleea Decebal,700229,47.1505543,27.5848135
14,Strada Decebal,700249,47.1534154,27.5792968
12A,Strada Decebal,700248,47.1536449,27.5799473
7,Aleea Decebal,700229,47.1500856,27.5849993
22,Strada Decebal,700249,47.1541058,27.5781248
10,Aleea Rozelor,700202,47.1487364,27.5829464
14,Aleea Rozelor,700204,47.1484155,27.5838914
12,Aleea Rozelor,700204,47.1485705,27.5834565
30,Strada Decebal,700251,47.1550231,27.5765631
20-22,Bulevardul Carol I,700505,47.1748197,27.5730482
37,Splai Bahlui Mal Stâng,700031,47.1538561,27.5848667
35,Splai Bahlui Mal Stâng,700031,47.1542183,27.5839688
1,Strada Palat,700019,47.1572934,27.5869164
46,Strada Anastasie Panu,700019,47.1614486,27.5904570
27,Splai Bahlui Mal Stâng,700031,47.1558139,27.5805424
29,Splai Bahlui Mal Stâng,700031,47.1554062,27.5813755
31,Splai Bahlui Mal Stâng,700031,47.1550021,27.5822378
33,Splai Bahlui Mal Stâng,700031,47.1546134,27.5831034
20-24,Strada Egalității,700658,47.1454667,27.5770920
1-1A,Strada Orientului,700657,47.1467643,27.5781156
18,Strada Pantelimon Halipa,507184,47.1474198,27.5775631
18-20,Strada Minervei,700657,47.1463247,27.5780203
28-30,Strada Egalității,700658,47.1464501,27.5761165
1,Bulevardul Profesor Doctor Docent Dimitrie Mangeron,700050,47.1522820,27.5890192
9-11,Strada Orientului,700658,47.1457434,27.5758555
27,Strada Orientului,700698,47.1435616,27.5758277
19-21-23-25,Strada Orientului,700698,47.1441419,27.5752164
10-12,Strada Gheorghe Doja,700696,47.1440429,27.5758574
22-24,Strada Sălciilor,700697,47.1448572,27.5759226
26-30,Strada Sălciilor,700697,47.1453114,27.5754964
29-31-33-35,Strada Orientului,700698,47.1432881,27.5763897
13-15-17,Strada Sălciilor,700696,47.1436661,27.5765738
25-27,Strada Egalității,700658,47.1454722,27.5765438
19-21,Strada Egalității,700658,47.1449861,27.5766020
15-17,Strada Egalității,700695,47.1449247,27.5771096
8-10-12-14,Strada Sălciilor,700697,47.1436046,27.5774371
12,Strada Egalității,700695,47.1444958,27.5780091
16-18,Strada Egalității,700695,47.1449901,27.5775379
10-12,Strada Petre Țuțea,700693,47.1443716,27.5793283
18-20,Strada Sălciilor,700697,47.1445004,27.5762707
6-8,Strada Gheorghe Doja,700696,47.1444517,27.5767420
31-33-35,Strada Petre Țuțea,700731,47.1423736,27.5787993
19-21-23,Strada Petre Țuțea,700731,47.1436939,27.5799596
27-29,Strada Petre Țuțea,700731,47.1430530,27.5792280
2-4-6,Strada Sălciilor,700697,47.1431645,27.5783894
16-18-20,Strada Petre Țuțea,700693,47.1433023,27.5789830
6-8,Strada Petre Țuțea,700693,47.1443468,27.5797996
1-3,Strada Egalității,700695,47.1436825,27.5789405
7,Fundătura Grabovenschi,700695,47.1435945,27.5781958
2-4-6,Strada Egalității,700695,47.1440351,27.5790086
3A,Strada Egalității,700695,47.1438309,27.5785660
3B,Strada Egalității,700695,47.1436896,27.5783877
22-24,Strada Petre Țuțea,700693,47.1425648,27.5783767
3-5-7-9-11,Strada Sălciilor,700696,47.1431062,27.5776302
37,Strada Orientului,700698,47.1429058,27.5771258
2D,Bulevardul Chimiei,700291,47.1522031,27.6059127
2A,Bulevardul Chimiei,700291,47.1533206,27.6048907
12-16,Strada Orientului,700657,47.1465785,27.5769392
6,Strada Albinelor,700224,47.1462612,27.5824519
1,Strada Vitejilor,700414,47.1670625,27.5469107
38,Bulevardul Dacia,700428,47.1669466,27.5466033
28,Strada Decebal,700250,47.1550191,27.5772388
9,Strada Cloșca,700750,47.1623815,27.5805060
7,Bulevardul Nicolae Iorga,700257,47.1537296,27.5746776
29,Strada Decebal,700259,47.1541294,27.5754538
30A,Strada Decebal,700250,47.1555363,27.5767200
7A,Bulevardul Nicolae Iorga,700256,47.1536978,27.5751471
25,Strada Mușatini,700590,47.1597224,27.5640921
15,Strada Mușatini,700591,47.1596405,27.5653150
16,Strada Roman Vodă,700573,47.1610903,27.5675206
1B,Strada Roman Vodă,700573,47.1608735,27.5673229
15,Bulevardul Alexandru cel Bun,700573,47.1611439,27.5682078
22,Aleea Mircea cel Bătrân,700641,47.1533278,27.5667001
2,Strada Vasile Alexandrescu Urechia,507184,47.1517942,27.5683024
3,Bulevardul Nicolae Iorga,700260,47.1547065,27.5744379
5,Bulevardul Nicolae Iorga,700260,47.1541787,27.5745129
36,Strada Decebal,700251,47.1554637,27.5755879
33,Strada Decebal,700251,47.1551317,27.5752333
17-19,Strada Decebal,700251,47.1539990,27.5770861
34,Strada Decebal,700251,47.1557199,27.5759023
16,Bulevardul Ștefan cel Mare și Sfânt,700028,47.1611214,27.5831319
14,Strada Gheorghe Asachi,700483,47.1766104,27.5738861
44A,Șoseaua Națională,700606,47.1659552,27.5609780
42D,Șoseaua Națională,700604,47.1664517,27.5601739
46B,Șoseaua Națională,700606,47.1655710,27.5617431
25,Bulevardul Alexandru cel Bun,700630,47.1632435,27.5637456
29,Bulevardul Alexandru cel Bun,700631,47.1635823,27.5631037
42F,Șoseaua Națională,700604,47.1662920,27.5606028
46C,Șoseaua Națională,700606,47.1653827,27.5621727
48B,Șoseaua Națională,700607,47.1656456,27.5626007
46A,Șoseaua Națională,700606,47.1662606,27.5616183
44C,Șoseaua Națională,700606,47.1657820,27.5613536
42D,Șoseaua Națională,700604,47.1666663,27.5598439
2,Strada Buridava,700432,47.1674410,27.5530227
14A,Strada Decebal,700249,47.1538709,27.5792321
16A,Strada Decebal,700249,47.1536933,27.5789544
16,Strada Decebal,700249,47.1535105,27.5785649
178,Șoseaua Națională,700239,47.1561175,27.5759624
1-3,Strada Eternitate,700305,47.1673520,27.5946937
182A,Șoseaua Națională,700240,47.1543727,27.5795232
25,Strada Decebal,700251,47.1545766,27.5762017
184,Șoseaua Națională,700241,47.1539070,27.5802869
27,Strada Decebal,700259,47.1543466,27.5758228
31-33,Strada Egalității,700658,47.1462691,27.5757773
2A,Strada Nicolina,700220,47.1496594,27.5854814
11A,Aleea Decebal,700230,47.1495443,27.5836018
34-36,Strada Sălciilor,700659,47.1461131,27.5747391
27,Strada Bradului,700660,47.1464183,27.5749845
31-35,Strada Sălciilor,700659,47.1458250,27.5744598
4,Strada Nicolina,700220,47.1491004,27.5851311
23,Strada Bradului,700660,47.1466676,27.5754011
41,Bulevardul Nicolae Iorga,700211,47.1491070,27.5800690
39,Bulevardul Nicolae Iorga,700211,47.1493986,27.5792792
16,Strada Pantelimon Halipa,700081,47.1478729,27.5763848
45,Bulevardul Nicolae Iorga,700212,47.1485718,27.5813980
25,Strada Bradului,700660,47.1464721,27.5752915
14A,Aleea Rozelor,700204,47.1482377,27.5835430
18,Piața Voievozilor,700587,47.1626519,27.5607585
21,Piața Voievozilor,700587,47.1627889,27.5619199
6,Aleea Ștefan Procopiu,700418,47.1661407,27.5551921
19,Piața Voievozilor,700587,47.1628442,27.5603641
10,Aleea Ștefan Procopiu,700419,47.1650985,27.5545890
5,Strada Plăieșilor,700597,47.1637844,27.5570919
5,Strada Basarabi,700587,47.1633870,27.5600319
17,Piața Voievozilor,700588,47.1624513,27.5611667
1,Strada Drobeta,700418,47.1654674,27.5563773
6,Strada Sarmisegetuza,700416,47.1654219,27.5567938
4,Aleea Basarabi,700633,47.1634418,27.5617063
5A,Strada Basarabi,700587,47.1631084,27.5598401
4,Aleea Ștefan Procopiu,700417,47.1656358,27.5559615
5-7-9-11,Aleea Ștefan Procopiu,700419,47.1644682,27.5553225
23,Piața Voievozilor,700587,47.1625715,27.5623780
9,Strada Plăieșilor,700595,47.1638798,27.5579407
8,Aleea Ștefan Procopiu,700419,47.1655130,27.5550030
25,Piața Voievozilor,700587,47.1623494,27.5628289
35,Bulevardul Alexandru cel Bun,700631,47.1643158,27.5616914
1,Aleea Plăieșilor,700600,47.1628616,27.5577171
9,Strada Basarabi,700598,47.1618523,27.5589542
6,Aleea Basarabi,700633,47.1632271,27.5620478
33,Bulevardul Alexandru cel Bun,700631,47.1640803,27.5621806
14,Strada Drobeta,700417,47.1632981,27.5561076
2,Strada Plăieșilor,700596,47.1626852,27.5581060
20,Piața Voievozilor,700587,47.1632177,27.5611411
2A,Aleea Basarabi,700633,47.1635474,27.5612436
31,Bulevardul Alexandru cel Bun,700631,47.1638467,27.5626556
2,Strada Basarabi,700633,47.1644235,27.5608729
3,Aleea Plăieșilor,700600,47.1623723,27.5577243
7,Strada Basarabi,700598,47.1620655,27.5586312
42A,Șoseaua Națională,700604,47.1673468,27.5588642
Bloc D1,Strada Teodor Codrescu,700478,47.1793216,27.5711003
26,Bulevardul Carol I,700482,47.1762825,27.5717830
2A,Strada Oastei,700478,47.1793018,27.5706596
26A,Strada Decebal,700250,47.1546133,27.5773656
26,Strada Decebal,700250,47.1544679,27.5769905
22A,Strada Decebal,700249,47.1545712,27.5783666
57A,Strada Romană,700257,47.1530550,27.5759610
7E-7F,Bulevardul Nicolae Iorga,700256,47.1523563,27.5751248
37,Strada Romană,700257,47.1527700,27.5756644
22,Strada Pantelimon Halipa,507184,47.1470518,27.5776451
3-5,Strada Orientului,700657,47.1462466,27.5769919
3-5-7,Strada Minervei,700694,47.1448449,27.5792268
8-10,Strada Egalității,700695,47.1444208,27.5785378
20,Strada Pantelimon Halipa,507184,47.1470976,27.5779401
5-7,Strada Egalității,700695,47.1439429,27.5781670
12-18,Strada Bradului,700659,47.1467538,27.5748316
3-5,Strada Gheorghe Doja,700696,47.1448941,27.5784908
14,Strada Bradului,700659,47.1472356,27.5753200
4-6,Strada Profesor Ion Inculeț,507184,47.1384240,27.5789987
56,Șoseaua Nicolina,700735,47.1335175,27.5715100
65-67,Aleea Tudor Neculai,700687,47.1357053,27.5722206
8,Strada Fulger,700301,47.1639640,27.6039745
64,Strada Eternitate,700329,47.1649025,27.6021835
7,Strada Pinului,700109,47.1757827,27.5757720
5,Strada Verdeș,700301,47.1642626,27.6038984
6,Strada Fulger,700301,47.1641218,27.6041411
2B,Strada Fulger,700301,47.1641074,27.6051218
4,Strada Fulger,700301,47.1640432,27.6047797
66,Strada Eternitate,700329,47.1645910,27.6033317
1,Strada Verdeș,700301,47.1646506,27.6037898
40,Strada Eternitate,700304,47.1661767,27.5978936
4,Strada Verdeș,700301,47.1641982,27.6035700
2,Strada Verdeș,700301,47.1644969,27.6034511
4,Strada Verdeș,700301,47.1642707,27.6035530
10,Strada Fulger,700301,47.1639433,27.6035344
6,Strada Fulger,700301,47.1640055,27.6042326
2C,Strada Fulger,700301,47.1642151,27.6048825
66,Strada Eternitate,700329,47.1647488,27.6032076
66B,Strada Eternitate,700329,47.1643445,27.6030819
12,Strada Fulger,700301,47.1637867,27.6034431
12,Strada Fulger,700301,47.1637592,27.6033067
2,Strada Trompeta,700301,47.1637641,27.6030738
6,Strada Verdeș,700301,47.1640964,27.6031183
22,Strada Armeană,700038,47.1624313,27.5889823
1,Bulevardul Independenței,700111,47.1681634,27.5825443
1,Bulevardul Independenței,700111,47.1688675,27.5824190
76,Aleea Grigore Ghica Vodă,700496,47.1894672,27.5603536
76,Aleea Grigore Ghica Vodă,700496,47.1895094,27.5601425
20,Strada Toma Cozma,700554,47.1739664,27.5646573
23,Strada Sfântul Lazăr,700045,47.1564341,27.5914482
11-13,Strada Sfântul Lazăr,700044,47.1577085,27.5919612
12,Strada Eternitate,700305,47.1678719,27.6090666
65,Strada Anastasie Panu,700028,47.1588322,27.5873813
4,Splai Bahlui Mal Stâng,700031,47.1532287,27.5862355
110,Șoseaua Nicolina,700712,47.1290274,27.5683624
16,Bulevardul Ștefan cel Mare și Sfânt,700028,47.1615166,27.5820452
16,Bulevardul Ștefan cel Mare și Sfânt,700028,47.1609298,27.5821259
18,Strada Cloșca,700750,47.1630132,27.5796177
12,Stradela Bărboi,700072,47.1628003,27.5929841
3,Strada Alba,700398,47.1627989,27.5954761
40?,Strada Sărărie,700116,47.1693647,27.5879833
1,Strada Curelari,700141,47.1665295,27.5908321
1,Strada Sinagogilor,700083,47.1655568,27.5918727
14,Strada General Henri Mathias Berthelot,700483,47.1739480,27.5754431
1,Strada Buna Vestire,700455,47.1717586,27.5806591
4,Strada Octav Botez,700116,47.1713256,27.5845401
44,Strada Albineț,700142,47.1720062,27.5893718
20,Strada Sfântul Atanasie,700115,47.1687982,27.5857284
6,Strada Păcurari,700511,47.1704584,27.5747967
14,Strada Sfântul Teodor,700115,47.1671407,27.5876169
22-24,Strada Moara de Vânt,700376,47.1729033,27.5998304
26,Aleea Grădinari,700392,47.1535129,27.6266753
9,Fundacul Socola,700284,47.1252613,27.6156283
1,Strada Radu Vodă,700679,47.1392727,27.5873835
3,Strada Sfântul Andrei,700028,47.1549950,27.5851519
34,Strada Cuza Vodă,700040,47.1631173,27.5867189
12,Strada Păcurari,700523,47.1740898,27.5593140
1,Strada Vovideniei,700079,47.1653431,27.5876484
7,Strada George Enescu,700079,47.1654163,27.5881647
15,Strada I. C. Brătianu,700036,47.1652223,27.5848100
41,Bulevardul Poitiers,700671,47.1361328,27.5934145
35,Strada Plopii Fără Soț,700272,47.1246234,27.6324756
20 A,Bulevardul Alexandru cel Bun,700580,47.1606490,27.5704415
1,Fundac Mitocul Maicilor 1,700057,47.1677278,27.5800046
1,Strada Podgoriilor,700491,47.1930545,27.5485317
64,Aleea M. Sadoveanu,700489,47.2012977,27.5379856
62,Aleea M. Sadoveanu,700489,47.2008529,27.5414817
40,Strada Luca Arbore,700530,47.1722526,27.5446490
14,Strada Pantelimon Halipa,700661,47.1491438,27.5751517
1,Strada Gloriei,700720,47.1404643,27.5798878
1,Strada Gloriei,700720,47.1402693,27.5802135
11 B,Strada Decebal,700251,47.1534282,27.5778544
2,Strada Vitejilor,700411,47.1671252,27.5479439
7- 9,Strada General Henri Mathias Berthelot,700483,47.1735266,27.5757582
36,Bulevardul Socola,700187,47.1443184,27.5952523
21,Șoseaua Tudor Neculai,700305,47.1408756,27.5741880
24,Strada Popăuți,700547,47.1758294,27.5375939
2,Strada Canta,700527,47.1737956,27.5508113
15,Bulevardul Ștefan cel Mare și Sfânt,700064,47.1642477,27.5825690
2,Strada Tabacului,700440,47.1691491,27.5575283
6,Strada Teodor Văscăuțeanu,700462,47.1766334,27.5662139
18,Strada Friederick,700488,47.1818988,27.5577887
3 - 5,Strada Iarmaroc,700198,47.1435443,27.5943143
127,Strada Sărărie,700116,47.1746847,27.5813660
6,Strada Pantelimon,700081,47.1651650,27.5930908
32,Strada Sărărie,700083,47.1683920,27.5889635
54,Șoseaua Nicolina,700735,47.1338935,27.5716770
79,Aleea Tudor Neculai,700686,47.1338266,27.5711669
3,Strada Locotenent Stoicescu,700496,47.1892964,27.5624949
2,Strada Locotenent Stoicescu,700496,47.1887606,27.5632271
1,Strada Locotenent Stoicescu,700496,47.1881357,27.5637793
4,Strada Locotenent Stoicescu,700496,47.1889785,27.5621588
82,Strada Smârdan,700399,47.1585037,27.5933135
27-29,Șoseaua Nicolina,700688,47.1358034,27.5747916
61,Șoseaua Nicolina,700716,47.1356399,27.5749364
4-6,Strada Răzoarelor,700689,47.1357269,27.5755180
8-10,Strada Răzoarelor,700689,47.1353838,27.5759287
13,Strada Smârdan,700399,47.1580503,27.5999845
35,Strada Elena Doamna,700398,47.1615465,27.5960107
5,Strada Sfântul Andrei,700028,47.1551025,27.5841482
15,Strada Pantelimon Halipa,700661,47.1482213,27.5771814
15,Strada Elena Doamna,700029,47.1637451,27.5940011
20,Strada Morilor,700011,47.1598568,27.5769146
11,Strada Dorobanți,700301,47.1642631,27.6014041
43,Strada Eternitate,700304,47.1659741,27.5994058
44,Strada Eternitate,700304,47.1659206,27.5989348
44,Strada Eternitate,700304,47.1660346,27.5987174
42,Strada Eternitate,700329,47.1660892,27.5984855
37,Strada Eternitate,700329,47.1665753,27.5985824
4,Strada Apelor,700303,47.1665500,27.5954536
5,Strada Eternitate,700305,47.1672184,27.5952274
2-6,Strada Apelor,700303,47.1662754,27.5958002
3,Bulevardul Tudor Vladimirescu,700305,47.1666763,27.5949759
9-15,Bulevardul Tudor Vladimirescu,700305,47.1657484,27.5955430
14,Strada Călărași,70030,47.1644008,27.6002795
14-19,Strada Misai,700303,47.1652342,27.5961582
17,Bulevardul Tudor Vladimirescu,700305,47.1653454,27.5958762
10-14,Strada Apelor,700303,47.1656395,27.5962485
12,Strada Profesor Ion Paul,700302,47.1636210,27.5977338
10,Strada Dăncinescu,700302,47.1648250,27.5977770
81-85,Bulevardul Tudor Vladimirescu,700401,47.1605541,27.5998893
11,Strada Conductelor,700080,47.1640485,27.5950390
P16,Strada Conductelor,700080,47.1643585,27.5953297
8,Bulevardul Tudor Vladimirescu,700305,47.1656768,27.5950471
12-16,Strada Pantelimon,700079,47.1657663,27.5943695
20,Strada Cucu,700082,47.1661389,27.5936662
21,Strada Nicolae Bălcescu,700117,47.1697157,27.5828798
18,Strada Cucu,700082,47.1659779,27.5933846
16,Strada Cucu,700082,47.1658171,27.5933159
14,Strada Cucu,700082,47.1656521,27.5931868
12,Strada Cucu,700082,47.1654946,27.5931164
13,Strada Cucu,700082,47.1660856,27.5927120
7,Strada Cucu,700082,47.1656472,27.5924752
9,Strada Cucu,700082,47.1657893,27.5925337
11,Strada Cucu,700082,47.1659383,27.5926197
5,Strada Roșcani,700141,47.1666197,27.5925421
7,Strada Bașotă,700082,47.1664008,27.5924763
5,Strada Bașotă,700082,47.1662446,27.5924213
34A,Bulevardul Tudor Vladimirescu,700397,47.1633327,27.5966257
30 B,Bulevardul Tudor Vladimirescu,700398,47.1613019,27.5982793
60,Bulevardul Tudor Vladimirescu,700398,47.1616447,27.5980553
32,Bulevardul Tudor Vladimirescu,700401,47.1602366,27.5994048
34,Bulevardul Tudor Vladimirescu,700310,47.1597860,27.5998267
19-21,Strada Cucu,700082,47.1669431,27.5936618
1-3,Bulevardul Constantin Alexandru Rosetti,700141,47.1673201,27.5938557
11-15,Bulevardul C.A. Rosetti,700141,47.1687442,27.5929372
28,Strada Hotin,700141,47.1708290,27.5910601
32,Strada Hotin,700141,47.1711619,27.5909028
14-16,Bulevardul C. A. Rosetti,700141,47.1687659,27.5936936
14,Strada Sărărie,700083,47.1658961,27.5907824
15,George Enescu,507184,47.1665323,27.5891569
35,Strada Sărărie,700083,47.1671668,27.5888124
3,Strada Albineț,700143,47.1674739,27.5897578
1,Strada Albineț,700143,47.1671815,27.5896523
9,Strada Sfântul Teodor,700115,47.1667575,27.5876913
15,Strada Rece,700115,47.1677330,27.5871283
10,Strada Rece,700115,47.1674813,27.5868104
16,Bulevardul Independenței,700098,47.1668066,27.5840929
"R1, R2, R3, R4",Bulevardul Independenței,700111,47.1672244,27.5823074
2-4,Strada General Henri Mathias Berthelot,700483,47.1749756,27.5756964
12,Strada Pinului,700109,47.1754765,27.5760327
14,Strada Pinului,700109,47.1755022,27.5761983
9,Strada Pinului,700109,47.1758179,27.5760073
3,Strada Pinului,700109,47.1756833,27.5752995
1,Strada Pinului,700109,47.1756122,27.5750995
54,Strada Lascăr Catargi,700107,47.1767280,27.5763624
2,Strada Gheorghe Asachi,700483,47.1768775,27.5757822
5,Strada Pinului,700109,47.1757083,27.5755122
18,Strada Gheorghe Asachi,700483,47.1759933,27.5717139
12,Strada Gheorghe Asachi,700483,47.1769506,27.5730983
9A,Strada Teodor Codrescu,700478,47.1792423,27.5714900
2,Strada Oastei,700478,47.1794692,27.5701488
13,Strada Teodor Codrescu,700478,47.1797105,27.5708099
26,Bulevardul Carol I,700482,47.1766166,27.5715506
28,Bulevardul Carol I,700504,47.1768868,27.5711045
5,Strada Mihai P. Costăchescu,700495,47.1820993,27.5680726
21,Stradela Sfântul Atanasie,700115,47.1683518,27.5872160
38,Strada Sărărie,700116,47.1691360,27.5882704
71A,Strada Eternitate,700329,47.1654728,27.6021187
13A,Strada Spancioc,700373,47.1663733,27.6019064
13,Strada Spancioc,700373,47.1662816,27.6020369
71,Strada Eternitate,700329,47.1654447,27.6018363
79,Strada Eternitate,700329,47.1650750,27.6029154
77,Strada Eternitate,700329,47.1651340,27.6027709
87,Strada Aurel Vlaicu,700382,47.1530164,27.6423362
112,Strada Păcurari,700523,47.1735017,27.5611594
110,Strada Păcurari,700514,47.1732897,27.5618471
1D,Strada Petru Poni,700523,47.1745000,27.5591589
73,Strada Eterniate,700329,47.1653170,27.6024623
75,Strada Eternitate,700329,47.1652844,27.6027810
2A,Strada Fulger,700301,47.1642121,27.6053552
58,Strada Eternitate,700329,47.1652978,27.6008077
56,Strada Eternitate,700329,47.1654257,27.6006473
54,Strada Eternitate,700329,47.1654522,27.6004425
52,Strada Eternitate,700329,47.1654827,27.6002904
14,Strada Jelea,700373,47.1658235,27.6014343
63,Strada Eternitate,700329,47.1655714,27.6011573
50,Strada Eternitate,700329,47.1655278,27.6000770
50A,Strada Eternitate,700329,47.1655607,27.5999389
48,Strada Eternitate,700329,47.1656428,27.5997636
46,Strada Eternitate,700304,47.1657772,27.5993657
3,Strada Sfântul Lazăr,700044,47.1594954,27.5922803
29,Strada Eternitate,700304,47.1664155,27.5976201
23B,Strada Eternitate,700304,47.1664139,27.5971471
23A,Strada Eternitate,700304,47.1665150,27.5967429
23,Strada Eternitate,700304,47.1665771,27.5965638
32,Strada Eternitate,700304,47.1661717,27.5966728
34,Strada Eternitate,700304,47.1661223,27.5968466
46A,Strada Hotin,700141,47.1725648,27.5894365
30,Strada Hotin,700141,47.1709954,27.5911622
12,Stradela Toma Săvescu,700083,47.1697578,27.5887901
85,Strada Eternitate,700329,47.1650449,27.6037052
111,Strada Eternitate,700329,47.1647293,27.6060580
101,Strada Eternitate,700329,47.1648977,27.6052108
1A,Strada Valter Mărăcineanu,700373,47.1650372,27.6068900
81B,Strada Eternitate,700329,47.1651040,27.6031205
81,Strada Eternitate,700329,47.1650354,27.6030285
81A,Strada Eternitate,700329,47.1650859,27.6033091
123 bis,Calea Chișinăului,700179,47.1449692,27.6217104
2A,Bulevardul Primăverii,700264,47.1486757,27.5948759
54,Strada Mitropolit Varlaam,700198,47.1446528,27.5939257
188-190,Bulevardul Socola,700268,47.1421950,27.5971961
51-53,Bulevardul Socola,700268,47.1436619,27.5982568
17,Strada Bucium,700266,47.1432676,27.6018688
17,Strada Bucium,700266,47.1435981,27.6029615
43,Strada Mihai Sturdza,700267,47.1420374,27.6031005
33,Strada Mihai Sturdza,700267,47.1420439,27.6017731
110,Bulevardul Socola,700268,47.1411093,27.5998012
110,Bulevardul Socola,700268,47.1408725,27.5991016
16,Bulevardul Socola,700269,47.1398224,27.6013145
56,Strada Mitropolit Varlaam,700198,47.1400745,27.5981607
2,Strada Butnari,700155,47.1446198,27.6027751
3,Strada Atelierului,700154,47.1442303,27.6033201
1,Strada Atelierului,700182,47.1440656,27.6028237
7-9,Strada Vlădiceni,700152,47.1446210,27.6018833
11,Strada Vlădiceni,700152,47.1441155,27.6022586
4,Strada Alexandru Osvald Teodoreanu,507184,47.1455346,27.6022014
14,Strada Alexandru Osvald Teodoreanu,507184,47.1454165,27.6034143
5,Strada Atelierului,700154,47.1451218,27.6036043
23,Strada Bucium,700153,47.1444977,27.6049153
27,Strada Bucium,700153,47.1450716,27.6062393
25,Strada Bucium,700153,47.1446952,27.6056634
18,Strada Alexandru Osvald Teodoreanu,507184,47.1452176,27.6054243
4,Strada Atelierului,700154,47.1450725,27.6039561
4,Strada Bucium,700266,47.1422728,27.6015151
2,Strada Bucium,700266,47.1420377,27.6009443
57,Bulevardul Socola,700268,47.1415972,27.6005315
13,Strada Cronicar Mustea,700198,47.1407900,27.5982036
6,Șoseaua Manta Roșie,700672,47.1393465,27.5971219
9,Strada Roșcani,700141,47.1669508,27.5924703
7,Strada Roșcani,700141,47.1667896,27.5925252
15,Strada Pantelimon Halipa,507184,47.1474159,27.5781129
3,Strada Bradului,507184,47.1474306,27.5789011
5,Strada Bradului,507184,47.1473562,27.5786018
7,Strada Bradului,700656,47.1476435,27.5786509
9,Strada Bradului,700656,47.1477077,27.5783694
11,Strada Bradului,700656,47.1479003,27.5782868
13,Strada Bradului,700656,47.1479678,27.5780147
15,Strada Bradului,700656,47.1481564,27.5779213
11-17,Strada Petru Șchiopul,507184,47.1521323,27.5702766
21-23,Strada Petru Șchiopul,507184,47.1517438,27.5693623
24-26,Strada Petru Șchiopul,507184,47.1518931,27.5689911
12-14,Strada Petru Șchiopul,507184,47.1525942,27.5703801
11-15,Calea Galata,700628,47.1527847,27.5694603
8,Strada Pantelimon Halipa,507184,47.1531018,27.5708577
1-7,Strada Anton Crihan,700624,47.1537560,27.5695073
9-15,Strada Anton Crihan,700624,47.1532531,27.5684910
10-16,Calea Galata,700625,47.1535716,27.5697833
18-22,Calea Galata,700626,47.1529630,27.5688262
17-21,Strada Anton Crihan,700624,47.1527880,27.5675547
24-28,Calea Galata,700624,47.1526187,27.5679796
23,Strada Anton Crihan,700624,47.1524122,27.5673627
15,Strada Cerna,700642,47.1533908,27.5674565
13,Strada Cerna,700642,47.1540957,27.5688798
16,Strada Cerna,700647,47.1551815,27.5685894
18,Strada Cerna,700647,47.1549084,27.5688619
14,Strada Cerna,700647,47.1554210,27.5682976
5,Strada Mircea cel Bătrân,700638,47.1556931,27.5679504
3,Strada Mircea cel Bătrân,700647,47.1559041,27.5688944
6A,Strada Cerna,700648,47.1559395,27.5698998
4,Calea Galata,700612,47.1542101,27.5714414
1-3,Strada Pantelimon Halipa,507184,47.1540022,27.5707958
1-3-3A,Calea Galata,700612,47.1539204,27.5719078
1-3-5,Strada Hatman Șendrea,700613,47.1540420,27.5725517
11-13,Strada Hatman Șendrea,700613,47.1531499,27.5728479
5,Strada Petru Șchiopul,507184,47.1529199,27.5719370
18,Aleea Mircea cel Bătrân,700641,47.1543566,27.5654615
14,Aleea Mircea cel Bătrân,700639,47.1546656,27.5660052
16,Aleea Mircea cel Bătrân,700639,47.1544617,27.5660272
20,Aleea Mircea cel Bătrân,700641,47.1537731,27.5659634
14,Strada Mircea cel Bătrân,700638,47.1557680,27.5670640
4,Strada Mircea cel Bătrân,700647,47.1563605,27.5690109
4A,Strada Cerna,700648,47.1563952,27.5698746
2A,Strada Cerna,700648,47.1568333,27.5698644
12,Strada Mircea cel Bătrân,700638,47.1568321,27.5690176
10A,Strada Cerna,700651,47.1549724,27.5698511
11,Strada Cerna,700642,47.1547332,27.5700155
2,Bulevardul Nicolae Iorga,700239,47.1569234,27.5738722
1,Bulevardul Nicolae Iorga,700260,47.1553568,27.5745011
1B,Bulevardul Nicolae Iorga,700260,47.1556799,27.5743521
1A,Bulevardul Nicolae Iorga,700260,47.1548390,27.5740963
25 bis,Strada Decebal,700230,47.1548872,27.5756187
12,Strada Mușatini,700591,47.1601720,27.5663961
1C,Strada Roman Vodă,700573,47.1607632,27.5665624
4,Strada Roman Vodă,700583,47.1599473,27.5675230
4,Aleea Mușatini,700581,47.1603827,27.5688425
6,Aleea Mușatini,700581,47.1601381,27.5685990
12,Strada Roman Vodă,700583,47.1604559,27.5681772
14,Strada Roman Vodă,700583,47.1607656,27.5682925
2,Strada Roman Vodă,700583,47.1596560,27.5676072
13,Bulevardul Alexandru cel Bun,700572,47.1607257,27.5689612
8,Aleea Mușatini,700591,47.1596559,27.5682222
10,Aleea Mușatini,700583,47.1593843,27.5678417
21,Aleea Mușatini,700582,47.1587533,27.5668582
1,Strada Mușatini,700583,47.1591358,27.5674642
3,Strada Mușatini,700582,47.1591579,27.5667003
5,Strada Mușatini,700582,47.1588968,27.5663598
7,Strada Mușatini,700582,47.1593039,27.5663085
23,Strada Mușatini,700591,47.1594261,27.5647399
11,Strada Mușatini,700591,47.1594249,27.5659061
33,Strada Mușatini,700590,47.1603102,27.5639755
27,Strada Mușatini,700590,47.1599278,27.5636831
19,Strada Mușatini,700589,47.1601195,27.5652329
31,Strada Mușatini,700590,47.1601168,27.5632784
41,Strada Mușatini,700590,47.1603804,27.5625437
43,Strada Mușatini,700599,47.1606856,27.5617377
45,Strada Mușatini,700599,47.1608890,27.5613187
47,Strada Mușatini,700599,47.1611001,27.5608893
51,Strada Mușatini,700599,47.1615429,27.5608291
37,Strada Mușatini,700590,47.1608982,27.5625437
39,Strada Mușatini,700590,47.1607114,27.5629268
5B,Strada Basarabi,700587,47.1623284,27.5592774
11,Strada Basarabi,700598,47.1618625,27.5594258
53,Strada Mușatini,700599,47.1617207,27.5604460
57,Strada Mușatini,700599,47.1620420,27.5601560
8,Strada Basarabi,700598,47.1626353,27.5586452
17,Strada Plăieșilor,700596,47.1648497,27.5581368
19,Strada Plăieșilor,700596,47.1648893,27.5577409
11,Strada Sarmisegetuza,700597,47.1643087,27.5571297
7,Strada Sarmisegetuza,700636,47.1653512,27.5573543
4,Strada Basarabi,700633,47.1642661,27.5605629
41,Bulevardul Alexandru cel Bun,700631,47.1647755,27.5599272
12,Strada Sarmisegetuza,700416,47.1631842,27.5564056
9,Strada Sarmisegetuza,700596,47.1648309,27.5572978
12,Strada Drobeta,700417,47.1634231,27.5558144
57,Strada Strămoșilor,700433,47.1654234,27.5542901
67,Strada Strămoșilor,700433,47.1659313,27.5547056
1,Aleea Ștefan Procopiu,700418,47.1658188,27.5555552
8,Strada Sarmisegetuza,700416,47.1644049,27.5565587
10,Strada Drobeta,700417,47.1641558,27.5556484
5,Strada Drobeta,700417,47.1641505,27.5560581
12-14,Aleea Ștefan Procopiu,700419,47.1647299,27.5549059
2,Aleea Sucidava,700442,47.1678365,27.5525910
23,Strada Plăieșilor,700596,47.1655850,27.5580466
3,Strada Basarabi,700633,47.1638016,27.5607552
1,Strada Basarabi,700630,47.1642226,27.5612936
3,Piața Voievozilor,700575,47.1622830,27.5639497
7,Piața Voievozilor,700592,47.1613685,27.5648425
18,Bulevardul Alexandru cel Bun,700573,47.1615460,27.5669132
18,Strada Roman Vodă,700573,47.1615240,27.5673747
2,Aleea Mușatini,700581,47.1597807,27.5694376
9,Bulevardul Alexandru cel Bun,700572,47.1599632,27.5701903
11,Bulevardul Alexandru cel Bun,700572,47.1602786,27.5697522
7,Bulevardul Alexandru cel Bun,700572,47.1597347,27.5702659
1,Aleea Mușatini,700646,47.1590803,27.5697047
5,Aleea Mușatini,700582,47.1590899,27.5692192
9,Aleea Mușatini,700582,47.1593145,27.5686596
13,Aleea Mușatini,700582,47.1586010,27.5682896
22,Bulevardul Alexandru cel Bun,700570,47.1622656,27.5678292
6-8,Bulevardul Dimitrie Cantemir,700255,47.1512391,27.5800386
9,Bulevardul Dimitrie Cantemir,700233,47.1506091,27.5802871
9A,Bulevardul Dimitrie Cantemir,700233,47.1504194,27.5806406
9B,Bulevardul Dimitrie Cantemir,700233,47.1501900,27.5803277
11,Bulevardul Dimitrie Cantemir,700233,47.1501773,27.5796112
11A,Bulevardul Dimitrie Cantemir,700233,47.1497777,27.5796176
2A,Aleea Rozelor,700202,47.1495120,27.5811633
20,Aleea Decebal,700232,47.1500792,27.5823920
22,Aleea Decebal,700232,47.1498898,27.5828082
24,Aleea Decebal,700232,47.1497114,27.5832125
17,Aleea Decebal,700231,47.1490289,27.5841148
4A,Strada Nicolina,700220,47.1486541,27.5845689
45A,Bulevardul Nicolae Iorga,700212,47.1483313,27.5823300
8,Aleea Rozelor,700202,47.1488972,27.5823387
6,Aleea Rozelor,700202,47.1491594,27.5819562
27,Aleea Rozelor,700205,47.1490426,27.5821613
43A,Bulevardul Nicolae Iorga,700211,47.1490264,27.5814964
4,Aleea Rozelor,700202,47.1494107,27.5817586
6A,Aleea Rozelor,700202,47.1488302,27.5818414
41A,Bulevardul Nicolae Iorga,700211,47.1488431,27.5806511
13,Aleea Decebal,700251,47.1504144,27.5814952
2,Aleea Decebal,700231,47.1512751,27.5842675
4,Aleea Decebal,700231,47.1514726,27.5837143
6,Aleea Decebal,700231,47.1513823,27.5831821
1A,Bulevardul Dimitrie Cantemir,700233,47.1520602,27.5831072
10,Aleea Decebal,700231,47.1509126,27.5826775
4,Strada Decebal,700247,47.1525141,27.5808475
4A,Strada Decebal,700247,47.1527885,27.5814365
4B,Strada Decebal,700247,47.1529590,27.5808220
184A,Șoseaua Națională,700241,47.1534486,27.5811398
6A,Strada Decebal,700247,47.1527555,27.5805593
45,Șoseaua Națională,700237,47.1533347,27.5825857
182,Șoseaua Națională,700240,47.1548281,27.5786979
9,Strada Decebal,700251,47.1530861,27.5783885
180A,Șoseaua Națională,700240,47.1552969,27.5778769
24A,Strada Decebal,700250,47.1548039,27.5776780
2,Strada Decebal,700247,47.1519966,27.5805849
1,Strada Decebal,700246,47.1521018,27.5797725
6,Strada Decebal,700247,47.1525958,27.5801103
8A,Strada Decebal,700248,47.1529432,27.5791840
180,Șoseaua Națională,700240,47.1557461,27.5770961
38,Strada Decebal,700251,47.1559096,27.5753833
34A,Strada Decebal,700251,47.1559391,27.5763425
7B,Bulevardul Nicolae Iorga,700256,47.1532734,27.5743471
7D,Bulevardul Nicolae Iorga,700256,47.1526046,27.5748075
7C,Bulevardul Nicolae Iorga,700256,47.1528550,27.5745772
7G-7H,Bulevardul Nicolae Iorga,700256,47.1520677,27.5755264
5A,Bulevardul Nicolae Iorga,700259,47.1537047,27.5741351
3A,Bulevardul Nicolae Iorga,700259,47.1541925,27.5740339
30,Strada Romană,700257,47.1529120,27.5771922
49,Bulevardul Nicolae Iorga,700213,47.1478138,27.5834299
13,Aleea Decebal,700230,47.1497363,27.5843839
47,Bulevardul Nicolae Iorga,700212,47.1480821,27.5827801
5,Aleea Decebal,700229,47.1504944,27.5856318
9,Aleea Decebal,700229,47.1503335,27.5843920
19,Aleea Decebal,700230,47.1492938,27.5835122
15A,Aleea Decebal,700230,47.1495317,27.5840197
13A,Aleea Decebal,700230,47.1499051,27.5847433
12,Aleea Decebal,700231,47.1516218,27.5825190
8A,Aleea Decebal,700231,47.1518414,27.5835028
16,Aleea Decebal,700232,47.1513739,27.5821360
10,Aleea Decebal,700231,47.1518425,27.5825951
14,Aleea Decebal,700232,47.1515849,27.5822056
8,Aleea Decebal,700231,47.1516590,27.5831654
8,Strada Milcov,700581,47.1602711,27.5715823
10,Bulevardul Alexandru cel Bun,700581,47.1596596,27.5710530
4,Strada Milcov,700581,47.1599555,27.5713722
2,Strada Milcov,700581,47.1598152,27.5712108
12,Strada Milcov,700580,47.1601743,27.5721692
16,Strada Milcov,700580,47.1598980,27.5720195
10,Strada Milcov,700580,47.1602844,27.5720113
33,Strada Mușatini,700590,47.1605871,27.5633435
13,Strada Sarmisegetuza,700597,47.1632603,27.5569382
12,Piața Voievozilor,700590,47.1610187,27.5640798
11,Strada Roman Vodă,700574,47.1617848,27.5649426
7,Strada Roman Vodă,700574,47.1616044,27.5653261
9,Strada Roman Vodă,700574,47.1619566,27.5652475
3,Strada Roman Vodă,700574,47.1615917,27.5660587
55,Strada Mușatini,700595,47.1621406,27.5609619
11,Piața Voievozilor,700589,47.1607706,27.5645666
5,Strada Roman Vodă,700574,47.1617696,27.5656417
3,Strada Drobeta,700418,47.1647821,27.5562919
1,Strada Roman Vodă,700573,47.1612155,27.5660011
4,Aleea Plăieșilor,700600,47.1626748,27.5570378
15,Strada Roman Vodă,700575,47.1619928,27.5645590
13,Strada Roman Vodă,700575,47.1621625,27.5648817
21,Strada Mușatini,700591,47.1600070,27.5646794
49,Strada Mușatini,700599,47.1613862,27.5600961
1,Strada Plăieșilor,700595,47.1631841,27.5585306
10,Piața Voievozilor,700589,47.1605389,27.5650252
10,Strada Sarmisegetuza,700416,47.1638644,27.5563688
35,Strada Mușatini,700590,47.1609949,27.5632751
65,Strada Strămoșilor,700433,47.1661491,27.5547089
8,Strada Drobeta,700417,47.1647789,27.5558490
59,Strada Strămoșilor,700433,47.1656365,27.5542879
49,Strada Strămoșilor,700433,47.1661871,27.5532546
61,Strada Strămoșilor,700433,47.1658173,27.5542874
47,Strada Strămoșilor,700433,47.1661876,27.5529322
63,Strada Strămoșilor,700433,47.1660351,27.5542864
3,Aleea Ștefan Procopiu,700419,47.1652459,27.5553466
48A,Șoseaua Națională,700607,47.1658165,27.5624302
38,Șoseaua Națională,700635,47.1678318,27.5581871
3,Aleea Basarabi,700630,47.1632156,27.5632360
1,Aleea Basarabi,700631,47.1635855,27.5623371
13,Aleea Sucidava,700443,47.1683707,27.5563456
5,Piața Voievozilor,700575,47.1619699,27.5636121
6,Piața Voievozilor,700575,47.1618077,27.5638455
7-9,Strada Horia,700126,47.1647501,27.5773912
2-4,Strada Romană,700257,47.1511330,27.5791345
59,Șoseaua Națională,700238,47.1515732,27.5869042
6-8,Strada Ion Neculce,700257,47.1509090,27.5782016
44,Strada Valea Adâncă,700712,47.1307703,27.5605615
44,Strada Valea Adâncă,700712,47.1306388,27.5605996
67,Strada Imașului,707317,47.1258156,27.5637196
3,Stradela Vântu,700304,47.1668502,27.5975262
17,Strada Vântu,700304,47.1672021,27.5969468
8,Fundătura Eternitate,700329,47.1652389,27.6083054
2A,Strada Valter Mărăcineanu,700373,47.1651042,27.6071837
11A,Strada Valter Mărăcineanu,700373,47.1664710,27.6049342
11,Strada Valter Mărăcineanu,700373,47.1663193,27.6052255
23,Strada Valter Mărăcineanu,700373,47.1670649,27.6031078
3,Strada Spital Pașcanu,700373,47.1688696,27.6046785
5,Strada Spital Pașcanu,700373,47.1687718,27.6044865
10B,Strada Dragoș Vodă,700373,47.1670716,27.6054093
26,Strada Valter Mărăcineanu,700373,47.1666755,27.6050634
34,Strada Moara de Vânt,700750,47.1771971,27.6174689
26,Stradela Moara de Vânt,700376,47.1721867,27.5968153
12,Stradela Moara de Vânt,700376,47.1711443,27.5960217
16,Stradela Moara de Vânt,700376,47.1713450,27.5961448
10,Stradela Moara de Vânt,700376,47.1709823,27.5961233
28,Strada Brândușa,700374,47.1697141,27.5966184
20,Strada Brândușa,700374,47.1693407,27.5967431
13,Stradela Tudor Vladimirescu,700376,47.1711432,27.5972588
11,Stradela Tudor Vladimirescu,700376,47.1707055,27.5971670
21,Stradela Moara de Vânt,700376,47.1724714,27.5965773
62,Strada Brândușa,700376,47.1712031,27.5948146
7,Stradela Moara de Vânt,700376,47.1714261,27.5958003
2,Strada Aviației,700383,47.1568128,27.6340190
1,Strada Aterizaj,700930,47.1550041,27.6305781
18,Strada Gavril Muzicescu,700127,47.1667654,27.5770567
9-11,Șoseaua Nicolina,700722,47.1382849,27.5779138
16,Strada Profesor Ion Inculeț,507184,47.1374163,27.5776317
8-12,Strada Profesor Ion Inculeț,507184,47.1380384,27.5783796
13,Șoseaua Nicolina,700722,47.1379668,27.5774083
18,Strada Profesor Ion Inculeț,507184,47.1371971,27.5773067
14,Strada Profesor Ion Inculeț,507184,47.1376475,27.5779269
7,Șoseaua Nicolina,700722,47.1386479,27.5782801
21-23,Șoseaua Nicolina,700722,47.1369385,27.5761671
19,Șoseaua Nicolina,700722,47.1372808,27.5765398
25,Șoseaua Nicolina,700722,47.1365107,27.5757688
15-17,Șoseaua Nicolina,700722,47.1376067,27.5770009
26-28,Strada Profesor Ion Inculeț,507184,47.1363510,27.5764786
22,Strada Profesor Ion Inculeț,507184,47.1369091,27.5769725
18-20,Strada Profesor Ion Inculeț,507184,47.1356982,27.5775783
47-51,Șoseaua Nicolina,700689,47.1348538,27.5754873
59,Șoseaua Nicolina,700711,47.1324865,27.5720654
57,Șoseaua Nicolina,700711,47.1327412,27.5723367
65,Șoseaua Nicolina,700716,47.1322174,27.5717498
41-45,Șoseaua Nicolina,700689,47.1349107,27.5748391
75-81,Șoseaua Nicolina,700711,47.1316606,27.5714496
83,Șoseaua Nicolina,700711,47.1310922,27.5709885
19,Strada Profesor Ion Inculeț,507184,47.1362596,27.5769027
1,Strada Hlincea,700716,47.1312153,27.5717771
53,Șoseaua Nicolina,700689,47.1348371,27.5760336
85-91,Șoseaua Nicolina,700711,47.1304666,27.5706395
31-39,Șoseaua Nicolina,700688,47.1351263,27.5741580
4-8,Strada Hlincea,700715,47.1300054,27.5711160
23-27,Strada Hlincea,507184,47.1288160,27.5716251
95-101,Șoseaua Nicolina,700711,47.1292909,27.5697866
61-63,Șoseaua Nicolina,700716,47.1323889,27.5725657
105-113,Șoseaua Nicolina,700690,47.1279045,27.5690607
24-30,Strada Hlincea,700714,47.1289123,27.5703575
39-47,Strada Hlincea,700715,47.1279712,27.5705259
33-37,Strada Hlincea,700715,47.1282411,27.5711074
103,Șoseaua Nicolina,700690,47.1287136,27.5693036
27-31,Strada Hlincea,700715,47.1287704,27.5710531
67-71,Șoseaua Nicolina,700716,47.1318577,27.5722088
17-21,Strada Hlincea,507184,47.1293596,27.5715010
32-42,Strada Hlincea,700714,47.1283398,27.5698531
9-13,Strada Hlincea,700716,47.1293767,27.5720327
93,Șoseaua Nicolina,700711,47.1299090,27.5701501
10-20,Strada Hlincea,700715,47.1295084,27.5707094
116,Șoseaua Nicolina,700710,47.1266003,27.5666785
101A,Aleea Tudor Neculai,700685,47.1314526,27.5691390
74,Șoseaua Nicolina,700684,47.1314430,27.5700779
131,Aleea Tudor Neculai,700692,47.1287690,27.5671747
103-107,Aleea Tudor Neculai,700685,47.1310608,27.5692186
78-82,Șoseaua Nicolina,700684,47.1306752,27.5696579
104-114,Șoseaua Nicolina,700710,47.1278097,27.5672181
109-113,Aleea Tudor Neculai,700685,47.1307403,27.5689318
64,Șoseaua Nicolina,700684,47.1326751,27.5710180
129,Aleea Tudor Neculai,700692,47.1291998,27.5676944
66,Șoseaua Nicolina,700684,47.1323683,27.5708870
101,Aleea Tudor Neculai,700685,47.1315929,27.5694489
131A,Aleea Tudor Neculai,700692,47.1281314,27.5668349
76,Șoseaua Nicolina,700684,47.1311521,27.5699514
84,Șoseaua Nicolina,700684,47.1302965,27.5692164
58-62,Șoseaua Nicolina,700684,47.1330601,27.5713503
59-63,Aleea Tudor Neculai,700687,47.1358243,27.5725507
42,Șoseaua Nicolina,700689,47.1354949,27.5732433
71-77,Aleea Tudor Neculai,700687,47.1352163,27.5717622
40,Șoseaua Nicolina,700687,47.1357314,27.5735377
38,Șoseaua Nicolina,700687,47.1359991,27.5738296
53-57,Aleea Tudor Neculai,700687,47.1360623,27.5728621
47-51,Aleea Tudor Neculai,700687,47.1363403,27.5731785
9-11-13-15-17,Aleea Tudor Neculai,700732,47.1392499,27.5765420
10-12,Șoseaua Nicolina,700733,47.1387369,27.5772246
19,Aleea Tudor Neculai,700734,47.1388846,27.5759107
31,Aleea Tudor Neculai,700734,47.1381609,27.5751863
30-32,Șoseaua Nicolina,700733,47.1370808,27.5748707
14,Șoseaua Nicolina,700733,47.1386957,27.5766348
43-45,Aleea Tudor Neculai,700734,47.1374041,27.5742599
18-20,Șoseaua Nicolina,700733,47.1380426,27.5763378
21-29,Aleea Tudor Neculai,700734,47.1385247,27.5757857
22,Șoseaua Nicolina,700733,47.1379906,27.5757810
8-12,Strada Profesor Ion Inculeț,507184,47.1377267,27.5791832
1-5,Șoseaua Nicolina,700722,47.1388715,27.5789547
1-7,Strada Profesor Ion Inculeț,507184,47.1385718,27.5800759
2-6,Strada Profesor Ion Inculeț,507184,47.1382177,27.5799055
9-11,Strada Profesor Ion Inculeț,507184,47.1380671,27.5791581
"56, 57, 58",Strada Libertății,700725,47.1360927,27.5799659
50,Strada Libertății,700676,47.1366747,27.5816450
29,Strada Clopotari,700676,47.1375873,27.5819541
31,Stradela Clopotari,507184,47.1372459,27.5817878
79,Bulevardul Poitiers,700674,47.1352322,27.5907877
73,Bulevardul Poitiers,700669,47.1349580,27.5902507
45-47-49-51,Bulevardul Poitiers,700669,47.1356591,27.5900577
65,Bulevardul Poitiers,700669,47.1352697,27.5878603
34,Strada Libertății,700675,47.1387464,27.5841930
53,Bulevardul Poitiers,700669,47.1354268,27.5883001
177,Bulevardul Poitiers,700669,47.1347997,27.5911820
63,Bulevardul Poitiers,700680,47.1350472,27.5880659
53,Bulevardul Poitiers,700669,47.1355284,27.5890118
77,Bulevardul Poitiers,700669,47.1349649,27.5905719
67,Bulevardul Poitiers,700669,47.1347866,27.5895406
71,Bulevardul Poitiers,700669,47.1349118,27.5899244
3,Strada Lacului,700702,47.1433474,27.5837001
2,Strada Carpați,700729,47.1444925,27.5826091
8,Strada Carpați,700729,47.1436739,27.5819021
4-6,Strada Carpați,700729,47.1440428,27.5823461
2-6,Strada Frumoasa,700729,47.1416248,27.5808290
10,Strada Carpați,700729,47.1430768,27.5814289
12-14,Strada Carpați,700729,47.1425411,27.5810942
1-3,Strada Frumoasa,700703,47.1418039,27.5815550
29-31,Strada Ion Neculce,700257,47.1520190,27.5760981
17,Strada Dacia,700259,47.1522262,27.5783425
21-23,Strada Ion Neculce,700257,47.1516012,27.5766720
18-20,Strada Ion Neculce,700257,47.1515802,27.5772492
30-32,Strada Ion Neculce,700257,47.1522058,27.5763428
25-27,Strada Ion Neculce,700257,47.1518155,27.5763945
24,Strada Ion Neculce,700257,47.1517939,27.5769697
26-28,Strada Ion Neculce,700257,47.1519917,27.5766784
17-19,Strada Ion Neculce,700257,47.1513864,27.5769912
14-16,Strada Romană,700257,47.1517638,27.5782693
2,Strada Dacia,700259,47.1515445,27.5797939
6-8,Strada Romană,700257,47.1513673,27.5788448
10-12,Strada Romană,700257,47.1515131,27.5786319
14-16,Strada Ion Neculce,700257,47.1513047,27.5776238
10-12,Strada Ion Neculce,700257,47.1511350,27.5779051
1-3,Strada Ion Neculce,700257,47.1506854,27.5779052
9-11,Strada Romană,700257,47.1513429,27.5782384
2-4,Strada Ion Neculce,700257,47.1507047,27.5784611
5-7,Strada Romană,700257,47.1511651,27.5786033
13-15,Strada Romană,700257,47.1515579,27.5780154
1-3,Strada Romană,700257,47.1509567,27.5788015
28,Strada Dacia,700259,47.1540721,27.5764304
20,Strada Dacia,700259,47.1526081,27.5784771
19,Strada Dacia,700259,47.1524304,27.5780148
25,Strada Dacia,700259,47.1533612,27.5768038
26-28,Strada Romană,700257,47.1524328,27.5774129
24,Strada Dacia,700259,47.1535533,27.5771449
27,Strada Dacia,700259,47.1535862,27.5764307
26,Strada Dacia,700259,47.1538586,27.5767255
18,Strada Dacia,700259,47.1524124,27.5787511
29,Strada Dacia,700259,47.1537982,27.5761125
21,Strada Dacia,700259,47.1526228,27.5776501
22,Strada Dacia,700259,47.1529319,27.5780020
16,Strada Alexandru Lăpușneanu,700056,47.1678869,27.5789878
3,Strada Alexandru Lăpușneanu,700057,47.1668299,27.5787958
28,Strada Grigore Ghica Vodă,700469,47.1863815,27.5641521
7,Bulevardul Carol I,700506,47.1724641,27.5735892
28,Strada Lascăr Catargi,700107,47.1730993,27.5786976
30,Strada Lascăr Catargi,700107,47.1733074,27.5784294
33A,Strada Lascăr Catargi,700107,47.1738586,27.5776438
11,Bulevardul Carol I,700506,47.1742363,27.5732246
2,General Berthelot,507184,47.1738331,27.5743414
10,Strada Lascăr Catargi,700107,47.1700466,27.5802079
7B,Strada Mihail Kogălniceanu,700454,47.1728699,27.5800138
6,Strada Otilia Cazimir,700400,47.1588606,27.5946153
3,Strada Zmeu,700400,47.1596768,27.5958635
1,Strada Stoicescu Locotenent,700496,47.1875125,27.5637879
189,Strada Sărărie,700451,47.1829174,27.5693961
7,Strada Ionel Teodoreanu,700487,47.1892470,27.5577778
7,Strada Dumbrava Roșie,700487,47.1871267,27.5560626
7,Strada Dumbrava Roșie,700487,47.1880438,27.5558542
3,Strada Dumbrava Roșie,700471,47.1847715,27.5585662
14,Strada Gavril Muzicescu,700127,47.1671891,27.5767425
12,Strada Theodor Pallady,700454,47.1742988,27.5789195
36,Strada Lascăr Catargi,700107,47.1738721,27.5781285
10,Strada Theodor Pallady,700454,47.1743685,27.5793102
10,Strada Mihail Kogălniceanu,700454,47.1729701,27.5818158
10,Strada Mihail Kogălniceanu,700454,47.1728268,27.5819289
11,Strada Mihail Kogălniceanu,700454,47.1734146,27.5803897
9-13,Strada Mihail Kogălniceanu,700454,47.1734541,27.5798819
2,Strada Octav Botez,700116,47.1709340,27.5836222
9,Strada Nicolae Bălcescu,700117,47.1722260,27.5834354
19,Strada Nicolae Bălcescu,700117,47.1704507,27.5831079
26,Strada Anastasie Panu,700020,47.1617501,27.5939024
1,Palat,700019,47.1600794,27.5875383
7,Strada Grigore Ureche,700023,47.1596025,27.5908781
6,Bulevardul Poitiers,700671,47.1376166,27.5962958
9,Bulevardul Poitiers,700671,47.1358943,27.5966799
35,Bulevardul Poitiers,700670,47.1363206,27.5967570
33,Bulevardul Poitiers,700670,47.1362599,27.5972833
5;31,Bulevardul Poitiers,700670,47.1364107,27.5978442
29,Bulevardul Poitiers,700670,47.1363434,27.5985403
21,Strada Manta Roșie,700671,47.1358314,27.5991975
18b,Șoseaua Bucium,700282,47.1346964,27.6077841
1A,Strada Elena Doamna,700398,47.1643907,27.5925483
36,Șoseaua Bucium,700282,47.1284264,27.6139470
22B,Trecătoarea Vișan,700282,47.1119522,27.6169717
79 B,Strada Fermei,700282,47.1271450,27.6003741
116B,Vișan,507184,47.1241975,27.6004161
39,Bulevardul Poitiers,700670,47.1361485,27.5955457
4,Strada Simion Bărnuțiu,700118,47.1750732,27.5829833
39,Strada Albineț,700142,47.1715116,27.5888965
2,Strada Conductelor,700080,47.1643639,27.5943235
72,Strada Ciric,700334,47.1633881,27.6179311
5-9,Strada Vasile Alexandrescu Urechia,507184,47.1513134,27.5695026
18,Strada Agatha Bârsescu,700074,47.1634335,27.5852445
11,Bulevardul Ștefan cel Mare și Sfânt,700064,47.1617530,27.5842012
34,Strada Cuza Vodă,700038,47.1636076,27.5868334
7-9,Strada Horia,700126,47.1644421,27.5778520
7-9,Strada Horia,700126,47.1645744,27.5773469
1,Bulevardul Independenței,700111,47.1688224,27.5826336
30,Strada Doctor Iacob Cihac,700115,47.1695941,27.5847121
11,Bulevardul Carol I,700506,47.1741616,27.5717343
47,Strada Păcurari,507184,47.1715147,27.5678978
2,Strada Octav Botez,700116,47.1703737,27.5843863
138,Șoseaua Păcurari,700545,47.1729615,27.5225849
53B,Splai Bahlui Mal Stâng,700031,47.1534375,27.5853908
43A,Strada Săulescu,507184,47.1625864,27.5740946
2,Strada Petru Rareș,507184,47.1656796,27.5761122
18,Stradela Silvestru,700012,47.1620775,27.5740735
16,Stradela Silvestru,700012,47.1619519,27.5741489
bloc H1,Strada Profesor Anton Șesan,700046,47.1577268,27.5926438
15,Strada Otilia Cazimir,700400,47.1587360,27.5969991
67;69,Șoseaua Arcu,700135,47.1706907,27.5638527
56,Strada Străpungerea Silvestru,507184,47.1709917,27.5630038
5,Șoseaua Manta Roșie,700268,47.1394312,27.5983131
16,Șoseaua Manta Roșie,700670,47.1398589,27.5978638
1,Strada Islaz,700182,47.1460351,27.6071813
31-33,Strada Bucium,700182,47.1454978,27.6072686
4,Strada Zidari,700182,47.1456825,27.6066737
35-37,Strada Bucium,700182,47.1458072,27.6079480
29,Strada Bucium,700182,47.1453553,27.6068492
2,Strada Cicoarei,700620,47.1580723,27.5619353
8,Strada Sfântul Ioan,700387,47.1480966,27.6427204
6,Stradela Silvestru,700012,47.1621663,27.5751705
80,Aleea Strugurilor,700739,47.1400462,27.5666849
2,Bulevardul Chimiei,700291,47.1532106,27.6057169
6,Strada Vasile Alexandrescu Urechia,507184,47.1509563,27.5692584
1-3,Strada Vasile Alexandrescu Urechia,507184,47.1520894,27.5685197
16-18,Strada Petru Șchiopul,507184,47.1522356,27.5697769
20-22,Strada Petru Șchiopul,507184,47.1522477,27.5692990
5-9,Calea Galata,700628,47.1532416,27.5703774
5,Strada Frumoasa,507184,47.1414655,27.5828074
17,Strada Lacului,700704,47.1415504,27.5822402
3,Aleea Rozelor,700203,47.1497849,27.5820991
5,Aleea Rozelor,700203,47.1495860,27.5824760
26,Aleea Decebal,700232,47.1494132,27.5828927
6,Strada Nicolina,700220,47.1482268,27.5843653
5,Bulevardul Dimitrie Cantemir,700233,47.1513546,27.5815829
1,Bulevardul Poitiers,700671,47.1370139,27.5977060
16,Strada Agatha Bârsescu,700074,47.1624259,27.5852844
15A,Strada Agatha Bârsescu,700074,47.1616028,27.5856802
1,Strada Alexandru Lăpușneanu,700057,47.1665970,27.5792092
1,Strada Butnari,700155,47.1449907,27.6017257
5,Strada Vlădiceni,700152,47.1451802,27.6014167
3,Strada Vlădiceni,700152,47.1453513,27.6012737
1,Strada Vlădiceni,700152,47.1455207,27.6011339
2,Strada Alexandru Osvald Teodoreanu,507184,47.1456134,27.6016506
5,Strada Butnari,700155,47.1453220,27.6030088
3,Strada Butnari,700155,47.1448675,27.6026372
7-9,Strada Petru Șchiopul,507184,47.1525413,27.5711099
6,Strada Pantelimon Halipa,700614,47.1525024,27.5716323
Bularga 14,Strada Bularga,700151,47.1453641,27.5989916
20,Strada Cerna,700642,47.1545891,27.5691105
11,Strada Mircea cel Bătrân,700640,47.1545663,27.5685055
7,Strada Mircea cel Bătrân,700639,47.1552538,27.5677412
9,Strada Mircea cel Bătrân,700640,47.1549945,27.5681540
10,Strada Mircea cel Bătrân,700638,47.1560755,27.5667476
8,Strada Mircea cel Bătrân,700638,47.1563367,27.5671349
11,Aleea Mușatini,700582,47.1589662,27.5686254
29A,Splai Bahlui Mal Stâng,700031,47.1556097,27.5813632
2A,Șoseaua Nicolina,700722,47.1421209,27.5792565
8,Aleea Mircea cel Bătrân,700639,47.1551066,27.5654177
10,Aleea Mircea cel Bătrân,700639,47.1549073,27.5654613
12,Aleea Mircea cel Bătrân,700639,47.1547072,27.5655081
17,Aleea Mircea cel Bătrân,700641,47.1535912,27.5666843
15,Aleea Mircea cel Bătrân,700641,47.1538970,27.5662789
13,Aleea Mircea cel Bătrân,700641,47.1540300,27.5666318
11,Aleea Mircea cel Bătrân,700641,47.1537594,27.5670505
7,Aleea Mircea cel Bătrân,700640,47.1541943,27.5670405
9,Aleea Mircea cel Bătrân,700641,47.1539361,27.5674641
26-28,Strada Anton Crihan,700624,47.1528957,27.5668491
22-24,Strada Anton Crihan,700624,47.1529293,27.5672200
8,Strada Anton Crihan,700623,47.1539454,27.5693160
10,Strada Anton Crihan,700623,47.1538188,27.5690702
12,Strada Anton Crihan,700623,47.1536677,27.5687961
14,Strada Anton Crihan,700623,47.1535606,27.5685716
16,Strada Anton Crihan,700623,47.1534670,27.5683773
18,Strada Anton Crihan,700623,47.1533567,27.5681481
2,Strada Anton Crihan,700623,47.1543641,27.5702020
4,Strada Anton Crihan,700623,47.1542509,27.5699770
6,Strada Anton Crihan,700623,47.1541390,27.5697480
9-11,Strada Dimineții,507184,47.1385217,27.5905583
9,Strada Crișului,700612,47.1548830,27.5713431
7,Strada Crișului,700612,47.1548753,27.5715753
5,Strada Crișului,700612,47.1548679,27.5718291
3,Strada Crișului,700612,47.1548597,27.5721173
1,Strada Crișului,700612,47.1547691,27.5723008
2,Calea Galata,700612,47.1545768,27.5722867
19,Strada Crișului,700612,47.1544226,27.5706426
17,Strada Crișului,700612,47.1545878,27.5706426
15,Strada Crișului,700612,47.1547587,27.5706416
13,Strada Crișului,700612,47.1549071,27.5707507
11,Strada Crișului,700612,47.1548927,27.5710027
1,Strada Lotrului,700650,47.1553193,27.5723335
2,Strada Crișului,700650,47.1551488,27.5722657
4,Strada Crișului,700650,47.1551482,27.5719589
6,Strada Crișului,700650,47.1551872,27.5717141
2,Strada Vămășoaia,700650,47.1553712,27.5717100
4,Strada Vămășoaia,700650,47.1555593,27.5717075
3,Strada Lotrului,700650,47.1555805,27.5723315
5,Strada Lotrului,700650,47.1557646,27.5723336
7,Strada Lotrului,700650,47.1559520,27.5723348
9,Strada Lotrului,700650,47.1561504,27.5723355
11,Strada Lotrului,700650,47.1561987,27.5721047
6,Strada Vămășoaia,700650,47.1558795,27.5716985
8,Strada Vămășoaia,700650,47.1560393,27.5717005
10,Strada Vămășoaia,700650,47.1562124,27.5717024
12,Strada Vămășoaia,700650,47.1564062,27.5717056
14,Strada Vămășoaia,700650,47.1566374,27.5717086
17,Strada Lotrului,700650,47.1567053,27.5720089
15,Strada Lotrului,700650,47.1566657,27.5723106
1,Strada Vămășoaia,700649,47.1553977,27.5713025
8,Strada Crișului,700649,47.1552260,27.5713026
10,Strada Crișului,700649,47.1552018,27.5710536
12,Strada Crișului,700649,47.1552017,27.5707515
9A,Strada Cerna,700649,47.1553583,27.5707015
9,Strada Cerna,700649,47.1555628,27.5706986
7,Strada Vămășoaia,700649,47.1559135,27.5713047
5,Strada Vămășoaia,700649,47.1557181,27.5713073
3,Strada Vămășoaia,700649,47.1556787,27.5710872
7,Strada Cerna,700649,47.1557944,27.5707016
5,Strada Cerna,700649,47.1559762,27.5706966
3,Strada Cerna,700649,47.1561759,27.5706930
3A,Strada Cerna,700649,47.1562136,27.5709255
9,Strada Vămășoaia,700649,47.1561851,27.5712966
11,Strada Vămășoaia,700649,47.1563749,27.5712909
13,Strada Vămășoaia,700649,47.1565542,27.5712855
15,Strada Vămășoaia,700649,47.1567055,27.5712411
19,Strada Lotrului,700649,47.1567028,27.5709582
21,Strada Lotrului,700649,47.1566998,27.5707021
1,Strada Cerna,700649,47.1565201,27.5706816
159,Aleea Tudor Neculai,700713,47.1253320,27.5660320
151,Aleea Tudor Neculai,700713,47.1259137,27.5659580
143,Aleea Tudor Neculai,700713,47.1263898,27.5661132
81-83,Aleea Tudor Neculai,700686,47.1333640,27.5710672
85-87,Aleea Tudor Neculai,700686,47.1330410,27.5708323
44-46,Șoseaua Nicolina,700735,47.1351440,27.5728540
24,Șoseaua Nicolina,700733,47.1376298,27.5757166
26-28,Șoseaua Nicolina,700733,47.1373500,27.5755122
33-41,Aleea Tudor Neculai,700734,47.1378478,27.5749443
16,Șoseaua Nicolina,700733,47.1382945,27.5765886
8,Șoseaua Nicolina,700733,47.1389655,27.5774509
5,Strada Dimineții,507184,47.1381026,27.5890173
5,Strada Cetățuia,700679,47.1371370,27.5871442
10,Strada Plantelor,700680,47.1363793,27.5849135
2,Strada Plantelor,700680,47.1365333,27.5865082
9,Strada Plantelor,700680,47.1360570,27.5849331
18-20,Bulevardul Poitiers,700680,47.1358123,27.5866834
27,Bulevardul Poitiers,700670,47.1363473,27.5992403
7,Strada Orientului,700657,47.1460970,27.5766172
26,Strada Egalității,700658,47.1459108,27.5766466
4,Strada Gheorghe Doja,700696,47.1446509,27.5771557
29,Strada Egalității,700658,47.1457797,27.5762852
32,Strada Sălciilor,700659,47.1458019,27.5750141
17,Strada Carpați,700702,47.1420684,27.5812899
11-13,Strada Egalității,700695,47.1442718,27.5777239
9,Strada Gheorghe Doja,700696,47.1443995,27.5774106
11-13,Strada Gheorghe Doja,700696,47.1442466,27.5770516
16,Strada Sălciilor,700697,47.1439913,27.5768336
3,Aleea Mușatini,700646,47.1586936,27.5695519
7,Aleea Mușatini,700582,47.1587013,27.5690755
9,Strada Mușatini,700591,47.1590353,27.5659806
13,Strada Mușatini,700591,47.1591949,27.5655924
2,Aleea Basarabi,700633,47.1638728,27.5612269
17,Strada Mușatini,700589,47.1598779,27.5656495
33,Strada Mușatini,700590,47.1603514,27.5640242
5-7,Strada Răzoarelor,700721,47.1358079,27.5768175
21,Strada Profesor Ion Inculeț,507184,47.1360614,27.5766856
17-19,Calea Galata,700628,47.1524160,27.5686696
3,Strada Răzoarelor,700721,47.1362545,27.5760941
17,Strada Oțelari,700721,47.1362397,27.5772345
16,Strada Oțelari,700721,47.1359876,27.5776095
9,Strada Răzoarelor,700721,47.1355919,27.5771836
19,Aleea Mușatini,700582,47.1587452,27.5671022
17,Aleea Mușatini,700582,47.1587452,27.5673484
15,Aleea Mușatini,700582,47.1587344,27.5675809
6,Strada Roman Vodă,700583,47.1599486,27.5677632
8,Strada Roman Vodă,700583,47.1599503,27.5680056
10,Strada Roman Vodă,700583,47.1599493,27.5682446
1,Strada Minervei,700694,47.1446282,27.5798317
14,Strada Petre Țuțea,700693,47.1439773,27.5795519
1,Strada Sălciilor,700696,47.1428557,27.5784098
2,Strada Minervei,700694,47.1448788,27.5800329
19,Strada Sălciilor,700697,47.1442529,27.5759851
15,Strada Gheorghe Doja,700696,47.1437438,27.5758544
4-6,Strada Petru Șchiopul,507184,47.1535906,27.5719985
2,Strada Petru Șchiopul,507184,47.1534666,27.5722989
7-9,Strada Hatman Șendrea,700613,47.1536337,27.5726976
15,Strada Hatman Șendrea,700613,47.1528567,27.5727839
1-3,Strada Petru Șchiopul,507184,47.1530789,27.5722594
2,Bulevardul Alexandru cel Bun,700581,47.1586042,27.5709906
26,Strada Milcov,700581,47.1584785,27.5715014
22,Strada Milcov,700580,47.1586865,27.5720847
24,Strada Milcov,700580,47.1584569,27.5719136
6,Bulevardul Alexandru cel Bun,700581,47.1591163,27.5710175
4,Bulevardul Alexandru cel Bun,700581,47.1589074,27.5710134
8,Bulevardul Alexandru cel Bun,700581,47.1593288,27.5710218
6,Strada Milcov,700581,47.1601670,27.5713821
17,Strada Argeș,700576,47.1630003,27.5666171
15,Strada Argeș,700576,47.1628996,27.5668146
11,Strada Argeș,700576,47.1626900,27.5672256
9,Strada Argeș,700576,47.1625617,27.5674774
13,Strada Argeș,700576,47.1628015,27.5670070
10,Strada Argeș,700584,47.1628196,27.5677627
10,Strada Argeș,700584,47.1629296,27.5675352
9,Strada Pantelimon Halipa,700613,47.1527565,27.5719506
11,Strada Pantelimon Halipa,700613,47.1526276,27.5720756
19,Strada Hatman Șendrea,700613,47.1525987,27.5723116
17,Strada Hatman Șendrea,700613,47.1527413,27.5725638
14,Strada Milcov,700580,47.1599920,27.5721585
84,Șoseaua Națională,700584,47.1631431,27.5682295
12,Strada Argeș,700584,47.1631500,27.5672538
4,Strada Argeș,700584,47.1627419,27.5683055
78,Șoseaua Națională,700571,47.1633109,27.5674069
6,Strada Argeș,700584,47.1626784,27.5680325
86,Șoseaua Națională,700584,47.1630536,27.5684111
2,Strada Argeș,700584,47.1628760,27.5684521
80,Șoseaua Națională,700584,47.1633688,27.5677429
82,Șoseaua Națională,700584,47.1632434,27.5680277
42,Bulevardul Alexandru cel Bun,700570,47.1634899,27.5658495
70,Șoseaua Națională,700571,47.1638998,27.5666630
76,Șoseaua Națională,700571,47.1635136,27.5671662
14,Strada Argeș,700570,47.1633552,27.5669974
72,Șoseaua Națională,700571,47.1637786,27.5669348
74,Șoseaua Națională,700571,47.1636955,27.5671196
66,Bulevardul Alexandru cel Bun,700604,47.1637617,27.5659845
40,Bulevardul Alexandru cel Bun,700570,47.1632896,27.5658899
18,Strada Argeș,700570,47.1634509,27.5664636
16,Strada Argeș,700570,47.1633410,27.5667062
68,Șoseaua Națională,700571,47.1639849,27.5664691
64,Șoseaua Națională,700571,47.1639596,27.5661985
90,Șoseaua Națională,700585,47.1625006,27.5693999
1,Strada Argeș,700584,47.1626605,27.5688904
94,Șoseaua Națională,700585,47.1621599,27.5696563
5,Strada Argeș,700584,47.1623721,27.5687591
88,Șoseaua Națională,700584,47.1626596,27.5691589
92,Șoseaua Națională,700585,47.1623666,27.5696189
12,Bulevardul Alexandru cel Bun,700585,47.1620210,27.5693394
3,Strada Argeș,700584,47.1625597,27.5687515
14,Bulevardul Alexandru cel Bun,700585,47.1619704,27.5691042
16,Bulevardul Alexandru cel Bun,700585,47.1619388,27.5688352
32,Bulevardul Alexandru cel Bun,700570,47.1627351,27.5663739
26,Bulevardul Alexandru cel Bun,700570,47.1624409,27.5671636
30,Bulevardul Alexandru cel Bun,700570,47.1626819,27.5666425
24,Bulevardul Alexandru cel Bun,700570,47.1622297,27.5674213
55,Strada Strămoșilor,700433,47.1657102,27.5537924
53,Strada Strămoșilor,700433,47.1659257,27.5537913
2,Strada Sarmisegetuza,700415,47.1661527,27.5568970
13,Bulevardul Dacia,700425,47.1664895,27.5548116
11,Bulevardul Dacia,700425,47.1664864,27.5551258
9,Bulevardul Dacia,700425,47.1664830,27.5555349
5,Bulevardul Dacia,700425,47.1664842,27.5562547
4,Strada Sarmisegetuza,700416,47.1660396,27.5566354
3,Bulevardul Dacia,700425,47.1664828,27.5565722
7,Bulevardul Dacia,700425,47.1664840,27.5558833
15,Bulevardul Dacia,700425,47.1664926,27.5544800
17,Bulevardul Dacia,700425,47.1663843,27.5542869
1,Bulevardul Dacia,700425,47.1663746,27.5568748
25,Bulevardul Dacia,700425,47.1664946,27.5533834
21,Bulevardul Dacia,700425,47.1664938,27.5538792
23,Bulevardul Dacia,700425,47.1664942,27.5536327
29,Bulevardul Dacia,700425,47.1664954,27.5529049
27,Bulevardul Dacia,700425,47.1664950,27.5531457
12,Strada Traian,700031,47.1539360,27.5853926
6C,Strada Sfântul Andrei,700028,47.1553624,27.5839256
27,Strada Sfântul Lazăr,700259,47.1553418,27.5910004
23,Strada Gării,700089,47.1659590,27.5717554
33A,Șoseaua Iași - Tomești,700292,47.1432877,27.6616084
24-26,Strada Cucu,700082,47.1665073,27.5939847
2-4,Bulevardul Tudor Vladimirescu,700305,47.1664658,27.5944657
1,Strada Minervei,700694,47.1458738,27.5778035
6,Fundacul Sălciilor,700697,47.1426849,27.5778202
3A,Fundacul Sălciilor,700697,47.1423989,27.5777714
11,Strada Buridava,700431,47.1677422,27.5495418
43,Șoseaua Voinești,700615,47.1464770,27.5555569
9,Aleea Vitejilor,700420,47.1676609,27.5458754
3,Strada Vitejilor,700414,47.1672166,27.5471358
132 bis,Calea Chișinăului,700180,47.1448541,27.6224444
78,Aleea Strugurilor,700739,47.1399061,27.5669448
1,Strada Conductelor,700080,47.1647137,27.5947460
2,Bulevardul Primăverii,700264,47.1472868,27.5935081
30,Strada Nicolae Oblu,700534,47.1758322,27.5482712
33A,Șoseaua Iași - Tomești,700292,47.1436420,27.6607160
37,Șoseaua Națională,700237,47.1545098,27.5803237
2A,Strada Profesor Ion Paul,700302,47.1650179,27.5967972
13,Strada Cronicar Mustea,700198,47.1408482,27.5982366
3,Strada Dumbrava Roșie,700471,47.1845125,27.5583616
2,Strada Mănăstirii,700617,47.1444271,27.5706372
2,Bulevardul Primăverii,700264,47.1463684,27.5952500
12A,Strada Pantelimon Halipa,700614,47.1503122,27.5728816
81,Șoseaua Nicolina,700711,47.1337999,27.5727983
25,Șoseaua Națională,700237,47.1551829,27.5790742
7A,Strada Tabacului,700441,47.1699095,27.5534063
53E,Soseaua Bucium,700287,47.1271692,27.6180690
22E,Fundacul Ursulea,700499,47.2054160,27.5491182
4,Bulevardul Chimiei,700291,47.1520274,27.6076462
55,Strada Mitropolit Varlaam,700197,47.1401615,27.5979713
26,Strada Anastasie Panu,700020,47.1619016,27.5940251
26,Strada Anastasie Panu,700020,47.1620195,27.5939378
26,Strada Anastasie Panu,700020,47.1620144,27.5935567
5,DJ248,707085,47.1052834,27.5603642
83,Strada Aurel Vlaicu,707252,47.1527011,27.6358824
2,Șoseaua Moara de Foc,700527,47.1729462,27.5517224
7,Strada Dumbrava Roșie,700487,47.1872418,27.5564896
7,Strada Dumbrava Roșie,700487,47.1875064,27.5562627
6,Strada Frumoasa,700729,47.1412280,27.5818171
29,Strada Cuza Vodă,700037,47.1644515,27.5851369
168x,Șoseaua Nicolina,700710,47.1233363,27.5608686
168v,Șoseaua Nicolina,700710,47.1232366,27.5610694
168y,Șoseaua Nicolina,700710,47.1234402,27.5606618
164t,Șoseaua Nicolina,700710,47.1234460,27.5617799
164u,Șoseaua Nicolina,700710,47.1236969,27.5612729
164v,Șoseaua Nicolina,700710,47.1239493,27.5607633
160t,Șoseaua Nicolina,700710,47.1237194,27.5620471
160u,Șoseaua Nicolina,700710,47.1239707,27.5615410
160v,Șoseaua Nicolina,700710,47.1242204,27.5610430
54A,Strada Aurel Vlaicu,700381,47.1574071,27.6243531
12,Șoseaua Manta Roșie,700672,47.1402862,27.5984432
10,Șoseaua Manta Roșie,700672,47.1403701,27.5985598
8,Șoseaua Manta Roșie,700672,47.1404457,27.5986839
18,Șoseaua Manta Roșie,700198,47.1397118,27.5976652
20,Șoseaua Manta Roșie,700198,47.1395717,27.5974907
5,Aleea Sucidava,700443,47.1679833,27.5560678
13,Aleea Sucidava,700443,47.1682375,27.5560654
168u,Șoseaua Nicolina,700710,47.1231339,27.5612713
168t,Șoseaua Nicolina,700710,47.1230325,27.5614754
22E,Fundacul Ursulea,700499,47.2055273,27.5495395
43,Mihail Cornea,700934,47.1085015,27.6312288
43,Mihail Cornea,700934,47.1084999,27.6314700
43,Mihail Cornea,700934,47.1085025,27.6317043
43,Mihail Cornea,700934,47.1084860,27.6319389
43,Mihail Cornea,700934,47.1084609,27.6321506
43,Mihail Cornea,700934,47.1084346,27.6323572
43,Mihail Cornea,700934,47.1084020,27.6325676
43,Mihail Cornea,700934,47.1088429,27.6311734
43,Mihail Cornea,700934,47.1088134,27.6313878
43,Mihail Cornea,700934,47.1088108,27.6316007
43,Mihail Cornea,700934,47.1088060,27.6318230
43,Mihail Cornea,700934,47.1088218,27.6320328
43,Mihail Cornea,700934,47.1087733,27.6322400
43,Mihail Cornea,700934,47.1087294,27.6324487
43,Mihail Cornea,700934,47.1086987,27.6326468
33,Strada Ciric,700334,47.1655588,27.6133933
2.1.A1,Strada Bazei,707317,47.1237009,27.5601199
77D,Aleea Tudor Neculai,700687,47.1342618,27.5717737
78A,Strada Vasile Lupu,700350,47.1595552,27.6107633
78A,Strada Vasile Lupu,700350,47.1595591,27.6100196
171A,Șoseaua Nicolina,700714,47.1252037,27.5677736
18,Strada Grigore Ureche,700023,47.1587643,27.5887893
23,Șoseaua Națională,700237,47.1554898,27.5783865
68,Strada Fortus,700718,47.1109837,27.5614631
68,Strada Fortus,700718,47.1115065,27.5619274
68,Strada Fortus,700718,47.1116658,27.5617219
68,Strada Fortus,700718,47.1112552,27.5616107
75A,Strada Ion Creangă,700337,47.1611791,27.6169853
18,Șoseaua Arcu,507184,47.1691220,27.5710811
18,Șoseaua Arcu,507184,47.1691619,27.5712985
62,Aleea Păcurari,700547,47.1756140,27.5416111
62,Aleea Păcurari,700547,47.1755404,27.5413941
4,Bulevardul Primăverii,700160,47.1497226,27.5966406
4,Bulevardul Primăverii,700160,47.1496071,27.5969033
24,Strada Ciric,700334,47.1640797,27.6115546
11,Bulevardul Carol I,700506,47.1742578,27.5716197
4,Strada Păcurari,700511,47.1702401,27.5754298
4,Strada Arcu,700125,47.1665234,27.5782240
16,Strada Universității,700115,47.1683731,27.5846529
14,Strada Pantelimon Halipa,700661,47.1493249,27.5738338
11,Bulevardul Carol I,700506,47.1748019,27.5711480
61A,Bulevardul Socola,700268,47.1428628,27.5998759
39,Strada Eternitate,700304,47.1661672,27.5991671
82,Bulevardul Socola,700268,47.1427338,27.5955956
3,Bulevardul Profesor Doctor Docent Dimitrie Mangeron,700050,47.1526851,27.5895804
26,Calea Chișinăului,700182,47.1465256,27.6080671
11,Strada Milcov,700581,47.1592272,27.5718626
138,Strada Vasile Lupu,700358,47.1558475,27.6233858
127B,Strada Ciurchi,700358,47.1557521,27.6225489
14,Piața Voievozilor,700588,47.1617320,27.5627423
26,Strada Anastasie Panu,700020,47.1618018,27.5939232
2,Strada Cronicar Mustea,700198,47.1402661,27.5980829
14,Șoseaua Manta Roșie,700670,47.1401994,27.5983289
A1 140A,Strada Vasile Lupu,700358,47.1553802,27.6235584
