House number,Street name,Postal code,Latitude,Longitude
2/A,Strada Alexandru Boico,MD-3603,47.2144840,27.7989252
53,Strada Națională,MD-3600,47.2177185,27.8084863
5,Strada Națională,MD-3600,47.2049095,27.7973027
5,Strada Națională,MD-3600,47.2048530,27.7977419
4/2,Strada Vasile Alecsandri,MD-3600,47.2069615,27.8016183
5,Strada Națională,MD-3600,47.2049654,27.7977844
33/A,Strada Națională,MD 3600,47.2121808,27.8058167
5,Strada Națională,MD-3600,47.2048091,27.7973923
5,Strada Națională,MD-3600,47.2047924,27.7976620
9,Strada Vasile Alecsandri,3600,47.2081917,27.7987137
6,Strada Mihai Eminescu,MD-3600,47.2083498,27.8003204
189,Strada Ștefan cel Mare și Sfânt,MD-3602,47.1853859,27.8098652
46,Strada Mihai Eminescu,3606,47.2068614,27.7982583
29,str. Vasile Alecsandri,MD3600,47.2088699,27.7984043
10,Strada Feroviară,MD-3606,47.2068150,27.8024102
1,Strada Vasile Alecsandri,MD-3603,47.2068224,27.8014241
1,Strada Ion Luca Caragiale,MD-3602,47.1845943,27.8148246
6,Strada Ion Luca Caragiale,3602,47.1843314,27.8145857
17,Strada Națională,MD-3600,47.2079747,27.8013772
14,Strada Alexandru Bernardazzi,MD-3606,47.2193502,27.7993246
67,Strada Romană,MD-3600,47.2117905,27.8010398
189,Strada Ștefan cel Mare și Sfânt,MD-3602,47.1854187,27.8099918
15,Strada Națională,3606,47.2077429,27.8011293
13,str. Vasile Alecsandri,MD3600,47.2087024,27.7976289
27,Strada Barbu Lăutaru,MD 3600,47.2085511,27.7979399
20,Strada Națională,MD-3600,47.2079992,27.8025478
18/A,Strada Națională,MD-3600,47.2077060,27.8018302
87,Strada Alexandru Plămădeală,MD-3600,47.2213582,27.8089354
40,Strada Decebal,MD-3600,47.2195332,27.7930363
23,Strada Națională,MD-3600,47.2098408,27.8031470
7,Strada Națională,MD-3606,47.2054568,27.7978623
2/A,Strada Alexandru Boico,MD-3600,47.2144187,27.7990763
4,Strada Mihai Viteazul,MD-3604,47.2189551,27.7882121
9,Strada Nicolae Bălcescu,MD-3600,47.2021525,27.7923910
3/A,Strada Unirii,MD-3600,47.1961696,27.7935674
15,Strada Ion Creangă,MD-3600,47.2219264,27.7974819
11,Strada Ghenadie Crestiuc,MD-3600,47.2215453,27.7973300
5,Strada Ghenadie Crestiuc,MD-3600,47.2208694,27.7948767
3,Strada Ghenadie Crestiuc,MD-3600,47.2204022,27.7945340
5/A,Strada Ghenadie Crestiuc,MD-3600,47.2205609,27.7952517
7,Strada Ghenadie Crestiuc,MD-3600,47.2211728,27.7955445
9,Strada Ghenadie Crestiuc,MD-3600,47.2211792,27.7963761
12,Strada Decebal,MD-3600,47.2108073,27.8007874
35,Strada Romană,MD-3600,47.2116521,27.7987354
35,Strada Romană,MD-3600,47.2123599,27.7985215
35,Strada Romană,MD-3600,47.2126303,27.7977646
35,Strada Romană,MD-3600,47.2131337,27.7973517
15,Strada Națională,MD-3600,47.2076358,27.8009154
19,Strada Decebal,MD-3600,47.2125053,27.7966001
20,Strada Decebal,MD-3600,47.2145899,27.7967101
20/1,Strada Decebal,MD-3600,47.2141422,27.7971961
3,Strada Alexandru Boico,MD-3600,47.2144722,27.7975601
5,Strada Alexandru Boico,MD-3600,47.2147940,27.7979070
7,Strada Alexandru Boico,MD-3600,47.2151408,27.7978295
13,Strada Bogdan Petriceicu Hasdeu,MD-3600,47.2165305,27.7987680
15,Strada Bogdan Petriceicu Hasdeu,MD-3600,47.2172013,27.7974309
13/B,Strada Bogdan Petriceicu Hașdeu,MD-3600,47.2159466,27.7979784
8,Strada Bogdan Petriceicu Hasdeu,MD-3600,47.2168425,27.7993859
8/A,Strada Bogdan Petriceicu Hasdeu,MD-3600,47.2171681,27.7996176
13,Strada Alexandru Boico,MD-3600,47.2172904,27.8001567
15,Strada Alexandru Boico,MD-3600,47.2174845,27.8008899
17,Strada Alexandru Boico,MD-3600,47.2179069,27.8013380
17,Strada Alexandru Boico,MD-3600,47.2182849,27.8013647
5,Strada Ion Creangă,MD-3600,47.2183802,27.8007489
8/A,Strada Alexandru Bernardazzi,MD-3600,47.2183610,27.7992151
7,Strada Ion Creangă,MD-3600,47.2190126,27.8005822
9,Strada Ion Creangă,MD-3600,47.2191485,27.8000277
14,Strada Alexandru Bernardazzi,MD-3600,47.2195603,27.7995976
12,Strada Alexandru Bernardazzi,MD-3600,47.2189845,27.7989011
10,Strada Alexandru Bernardazzi,MD-3600,47.2184534,27.7982647
8,Strada Alexandru Bernardazzi,MD-3600,47.2179263,27.7976690
16,Strada Bogdan Petriceicu Hasdeu,MD-3600,47.2175848,27.7983374
10,Strada Bogdan Petriceicu Hasdeu,MD-3600,47.2173083,27.7989291
12,Strada Bogdan Petriceicu Hasdeu,MD-3600,47.2176034,27.7993885
14,Strada Bogdan Petriceicu Hasdeu,MD-3600,47.2177875,27.7989638
18,Strada Alexandru Bernardazzi,MD-3600,47.2179914,27.7985836
66,Strada Romană,MD-3600,47.2114052,27.8003649
14/A,Strada Decebal,MD-3600,47.2107062,27.7996480
66/2,Strada Romană,MD-3600,47.2116477,27.8001835
69,Strada Mihai Eminescu,MD-3600,47.2116630,27.8033511
71,Strada Mihai Eminescu,MD-3600,47.2117980,27.8035796
3,Strada Vasile Lupu,MD-3600,47.2121726,27.8037166
1,Strada Vasile Lupu,MD-3600,47.2117437,27.8046258
27,Strada Națională,MD-3600,47.2110680,27.8043939
28,Strada Mihai Eminescu,MD-3600,47.2113674,27.8037280
26,Strada Mihai Eminescu,MD-3600,47.2107860,27.8032247
24/A,Strada Mihai Eminescu,MD-3600,47.2107135,27.8035140
25,Strada Națională,MD-3600,47.2103536,27.8037918
24,Strada Mihai Eminescu,MD-3600,47.2104681,27.8029060
22,Strada Mihai Eminescu,MD-3600,47.2104049,27.8025415
20,Strada Mihai Eminescu,MD-3600,47.2101892,27.8024596
23,Strada Națională,MD-3600,47.2098408,27.8031470
21,Strada Națională,MD-3600,47.2095278,27.8027033
6,Strada Decebal,MD-3600,47.2092918,27.8022398
9,Strada Decebal,MD-3600,47.2094155,27.8019773
12,Strada Mihai Eminescu,MD-3600,47.2095685,27.8017952
14,Strada Mihai Eminescu,MD-3600,47.2097002,27.8019178
16,Strada Mihai Eminescu,MD-3600,47.2098718,27.8019886
18,Strada Mihai Eminescu,MD-3600,47.2100024,27.8022072
26,Strada Barbu Lăutaru,MD-3600,47.2087418,27.7991458
55,Strada Mihai Eminescu,MD-3600,47.2085479,27.7997936
161,Strada Ștefan cel Mare și Sfânt,MD-3600,47.1875935,27.8107804
2,Strada Burebista,MD-3600,47.1863444,27.8117365
19,Strada Petru Rareș,MD-3600,47.1861642,27.8126469
35/A,Strada Burebista,MD-3600,47.1868040,27.8131366
35,Strada Burebista,MD-3600,47.1869835,27.8137053
31,Strada Burebista,MD-3600,47.1866632,27.8145421
37,Strada Burebista,MD-3600,47.1872937,27.8142288
39,Strada Burebista,MD-3600,47.1877399,27.8139282
41,Strada Burebista,MD-3600,47.1872434,27.8127200
43,Strada Burebista,MD-3600,47.1882030,27.8135991
47,Strada Burebista,MD-3600,47.1885422,27.8126624
159,Strada Ștefan cel Mare și Sfânt,MD-3600,47.1879694,27.8098275
159,Strada Ștefan cel Mare și Sfânt,MD-3600,47.1881348,27.8090772
145,Strada Ștefan cel Mare și Sfânt,MD-3600,47.1888254,27.8091774
141,Strada Ștefan cel Mare și Sfânt,MD-3600,47.1886254,27.8085033
137,Strada Ștefan cel Mare și Sfânt,MD-3600,47.1897271,27.8085733
137/1,Strada Ștefan cel Mare și Sfânt,MD-3600,47.1903825,27.8092005
189/1,Strada Ștefan cel Mare și Sfânt,MD-3600,47.1853555,27.8106118
189,Strada Ștefan cel Mare și Sfânt,MD-3600,47.1854558,27.8100990
48/A,Strada Nicolae Iorga,MD-3600,47.1911978,27.8104890
48,Strada Nicolae Iorga,MD-3600,47.1914547,27.8109523
7,Strada Nicolae Bălcescu,MD-3600,47.2017170,27.7947891
2,Strada Națională,MD-3600,47.2020635,27.7955950
38,Strada Decebal,MD-3600,47.2182586,27.7947651
11,Strada Alexandru Bernardazzi,MD-3600,47.2193140,27.7978079
9,Strada Alexandru Bernardazzi,MD-3600,47.2190484,27.7971318
2,Strada Ghenadie Crestiuc,MD-3600,47.2193552,27.7964786
4/A,Strada Ghenadie Crestiuc,MD-3600,47.2199580,27.7965997
29,Strada Ion Creangă,MD-3600,47.2245800,27.7945737
27,Strada Ion Creangă,MD-3600,47.2238760,27.7934767
25,Strada Ion Creangă,MD-3600,47.2233714,27.7934813
21,Strada Ion Creangă,MD-3600,47.2234933,27.7947925
23,Strada Ion Creangă,MD-3600,47.2230413,27.7945450
7/1,Strada Ghenadie Crestiuc,MD-3600,47.2223592,27.7945779
19/1,Strada Ion Creangă,MD-3600,47.2225986,27.7955057
19,Strada Ion Creangă,MD-3600,47.2230321,27.7956265
17,Strada Ion Creangă,MD-3600,47.2224150,27.7968018
17,Strada Ion Creangă,MD-3600,47.2228193,27.7964804
11,Strada Națională,MD-3600,47.2064611,27.7992233
9,Strada Națională,MD-3600,47.2064063,27.7984222
27,Strada Feroviară,MD-3600,47.2061420,27.8012824
17,Strada Națională,MD-3600,47.2081487,27.8013314
8,Strada Vasile Alecsandri,MD-3600,47.2079437,27.8001844
4,Strada Mihai Eminescu,MD-3600,47.2081722,27.8002207
6,Strada Mihai Eminescu,MD-3600,47.2083182,27.8003769
8,Strada Mihai Eminescu,MD-3600,47.2087288,27.8007582
16,Strada Națională,MD-3600,47.2073473,27.8015763
18,Strada Națională,MD-3600,47.2075428,27.8016958
18/B,Strada Națională,MD-3600,47.2075171,27.8020403
39,Strada Feroviară,MD-3600,47.2073777,27.8024724
35,Strada Feroviară,MD-3600,47.2072175,27.8022902
33,Strada Feroviară,MD-3600,47.2071277,27.8021645
31,Strada Feroviară,MD-3600,47.2070111,27.8020605
47,Strada Feroviară,MD-3600,47.2079030,27.8029485
49,Strada Feroviară,MD-3600,47.2080191,27.8031151
53,Strada Feroviară,MD-3600,47.2082669,27.8032522
55,Strada Feroviară,MD-3600,47.2084598,27.8033196
1,Strada Decebal,MD-3600,47.2085850,27.8030807
24,Strada Națională,MD-3600,47.2086198,27.8028673
22,Strada Națională,MD-3600,47.2084447,27.8027582
12,Strada Feroviară,MD-3600,47.2076571,27.8033210
16,Strada Feroviară,MD-3600,47.2080843,27.8037173
18,Strada Feroviară,MD-3600,47.2084292,27.8040500
20,Strada Feroviară,MD-3600,47.2086596,27.8041574
12,Strada Națională,MD-3600,47.2069146,27.8011014
1,Strada Vasile Alecsandri,MD-3600,47.2067850,27.8013806
29,Strada Feroviară,MD-3600,47.2066110,27.8017224
3,Strada Decebal,MD-3600,47.2090908,27.8019229
10,Strada Mihai Eminescu,MD-3600,47.2090592,27.8013125
26/1,Strada Romană,MD-3600,47.2082843,27.7961538
25,Strada Romană,MD-3600,47.2096122,27.7966614
26,Strada Fiodor Musatov,MD-3600,47.2098917,27.7959733
28,Strada Fiodor Musatov,MD-3600,47.2101801,27.7963242
34,Strada Fiodor Musatov,MD-3600,47.2108350,27.7971115
31,Strada Romană,MD-3600,47.2107257,27.7980271
33,Strada Romană,MD-3600,47.2109492,27.7983277
15,Strada Decebal,MD-3600,47.2111278,27.7980627
17/3,Strada Decebal,MD-3600,47.2113017,27.7977421
36,Strada Fiodor Musatov,MD-3600,47.2111132,27.7974314
42,Strada Romană,MD-3600,47.2095970,27.7974348
44,Strada Romană,MD-3600,47.2096933,27.7977025
46,Strada Romană,MD-3600,47.2098400,27.7977875
48,Strada Romană,MD-3600,47.2098363,27.7980611
50,Strada Romană,MD-3600,47.2100559,27.7979834
54,Strada Romană,MD-3600,47.2101821,27.7982072
56,Strada Romană,MD-3600,47.2102463,27.7983018
58,Strada Romană,MD-3600,47.2103480,27.7984193
60,Strada Romană,MD-3600,47.2104149,27.7986770
64/A,Strada Romană,MD-3600,47.2106984,27.7988434
13,Strada Decebal,MD-3600,47.2105497,27.7991931
11,Strada Decebal,MD-3600,47.2104238,27.7994151
9,Strada Decebal,MD-3600,47.2103333,27.7995505
5,Strada Ciprian Porumbescu,MD-3600,47.2118526,27.7924692
30/2,Strada Alexandru cel Bun,MD-3600,47.2115586,27.7934186
21,Strada Decebal,MD-3600,47.2130186,27.7962191
11,Strada Vlad Ţepeș,MD-3600,47.2101501,27.7944484
11,Strada Vlad Ţepeș,MD-3600,47.2100151,27.7942770
9,Strada Vlad Ţepeș,MD-3600,47.2099271,27.7941266
7,Strada Vlad Ţepeș,MD-3600,47.2097317,27.7939025
5,Strada Vlad Ţepeș,MD-3600,47.2095644,27.7937046
3,Strada Vlad Ţepeș,MD-3600,47.2093885,27.7935174
1,Strada Vlad Ţepeș,MD-3600,47.2092228,27.7932378
30,Strada Alexandru cel Bun,MD-3600,47.2094990,27.7929676
5/A,Strada Fiodor Musatov,MD-3600,47.2078958,27.7942937
7,Strada Romană,MD-3600,47.2082095,27.7946308
9,Strada Romană,MD-3600,47.2085532,27.7949599
15,Strada Romană,MD-3600,47.2087401,27.7955061
5,Strada Veronica Micle,MD-3600,47.2064688,27.7961216
1,Strada Veronica Micle,MD-3600,47.2065500,27.7968604
41,Strada Mihai Eminescu,MD-3600,47.2062422,27.7974157
37/A,Strada Mihai Eminescu,MD-3600,47.2059173,27.7964443
37/A,Strada Mihai Eminescu,MD-3600,47.2058368,27.7961943
2,Strada Mihai Eminescu,MD-3600,47.2051731,27.7970863
5,Strada Națională,MD-3600,47.2049432,27.7977864
3,Strada Alexandru cel Bun,MD-3600,47.2043454,27.7966709
5,Strada Alexandru cel Bun,MD-3600,47.2044888,27.7963859
6,Strada Națională,MD-3600,47.2037050,27.7975617
1,Strada Alexandru cel Bun,MD-3600,47.2037105,27.7987810
1,Strada Alexandru cel Bun,MD-3600,47.2039044,27.7985469
3/1,Strada Feroviară,MD-3600,47.2041147,27.7989599
116,Strada Romană,MD-3600,47.2178636,27.8078121
114,Strada Romană,MD-3600,47.2173774,27.8071985
51,Strada Națională,MD-3600,47.2172154,27.8084143
49,Strada Națională,MD-3600,47.2168853,27.8079169
47,Strada Națională,MD-3600,47.2166691,27.8082217
43,Strada Națională,MD-3600,47.2153258,27.8078431
39,Strada Națională,MD-3600,47.2146708,27.8078942
39/A,Strada Națională,MD-3600,47.2147154,27.8076423
37,Strada Națională,MD-3600,47.2144220,27.8074017
37,Strada Națională,MD-3600,47.2139714,27.8069441
37,Strada Națională,MD-3600,47.2142911,27.8063113
37,Strada Națională,MD-3600,47.2145895,27.8046625
37,Strada Națională,MD-3600,47.2147181,27.8053416
37,Strada Națională,MD-3600,47.2148838,27.8062732
37,Strada Națională,MD-3600,47.2149750,27.8058911
37,Strada Națională,MD-3600,47.2151997,27.8061141
37,Strada Națională,MD-3600,47.2148986,27.8067483
37,Strada Națională,MD-3600,47.2137689,27.8064686
1,Strada Bogdan Petriceicu Hasdeu,MD-3600,47.2140130,27.8047975
75,Strada Mihai Eminescu,MD-3600,47.2137065,27.8055342
73,Strada Mihai Eminescu,MD-3600,47.2133415,27.8048374
73,Strada Mihai Eminescu,MD-3600,47.2130053,27.8045948
6,Strada Vasile Lupu,MD-3600,47.2126217,27.8038856
38,Strada Mihai Eminescu,MD-3600,47.2134223,27.8059363
36,Strada Mihai Eminescu,MD-3600,47.2130693,27.8055982
32,Strada Mihai Eminescu,MD-3600,47.2125446,27.8049915
30,Strada Mihai Eminescu,MD-3600,47.2121999,27.8045883
35,Strada Națională,MD-3600,47.2129800,27.8068932
33/1,Strada Națională,MD-3600,47.2125522,27.8064366
33/A,Strada Națională,MD-3600,47.2122322,27.8058013
29,Strada Națională,MD-3600,47.2119345,27.8052896
5,Strada Vasile Lupu,MD-3600,47.2139286,27.7994640
2/B,Strada Alexandru Boico,MD-3600,47.2149833,27.7991285
2,Strada Alexandru Boico,MD-3600,47.2153510,27.7995461
35,Strada Alexandru Plămădeală,MD-3600,47.2157837,27.8007449
33,Strada Alexandru Plămădeală,MD-3600,47.2156122,27.8006100
31,Strada Alexandru Plămădeală,MD-3600,47.2155105,27.8004655
29,Strada Alexandru Plămădeală,MD-3600,47.2154153,27.8003191
27,Strada Alexandru Plămădeală,MD-3600,47.2152955,27.8002138
25,Strada Alexandru Plămădeală,MD-3600,47.2151711,27.8000780
21,Strada Alexandru Plămădeală,MD-3600,47.2149524,27.7998542
19,Strada Alexandru Plămădeală,MD-3600,47.2148143,27.7997163
17,Strada Alexandru Plămădeală,MD-3600,47.2146565,27.7995343
10,Strada Alexandru Boico,MD-3600,47.2163772,27.8005327
12,Strada Alexandru Boico,MD-3600,47.2166966,27.8008763
14,Strada Alexandru Boico,MD-3600,47.2170609,27.8012558
16,Strada Alexandru Boico,MD-3600,47.2173923,27.8016216
18,Strada Alexandru Boico,MD-3600,47.2176905,27.8019373
8,Strada Vasile Lupu,MD-3600,47.2130801,27.8030003
5,Strada Bogdan Petriceicu Hasdeu,MD-3600,47.2143257,27.8038512
86,Strada Romană,MD-3600,47.2144390,27.8035019
84,Strada Romană,MD-3600,47.2142877,27.8034969
84,Strada Romană,MD-3600,47.2142920,27.8033172
82,Strada Romană,MD-3600,47.2141927,27.8031745
80,Strada Romană,MD-3600,47.2140704,27.8032132
80,Strada Romană,MD-3600,47.2140629,27.8030416
78,Strada Romană,MD-3600,47.2139837,27.8029180
76,Strada Romană,MD-3600,47.2138693,27.8029298
76,Strada Romană,MD-3600,47.2138647,27.8027584
74,Strada Romană,MD-3600,47.2137480,27.8026669
72,Strada Romană,MD-3600,47.2136548,27.8025265
70,Strada Romană,MD-3600,47.2135112,27.8023716
68,Strada Romană,MD-3600,47.2134139,27.8021754
1,Stradela Iașului,MD-3600,47.2009788,27.7984048
3,Strada Ștefan cel Mare și Sfânt,MD-3600,47.2005400,27.7978767
56,Strada Iași,MD-3600,47.2034927,27.8028893
54,Strada Iași,MD-3600,47.2033386,27.8023696
52,Strada Iași,MD-3600,47.2032658,27.8021247
50,Strada Iași,MD-3600,47.2030589,27.8020254
48,Strada Iași,MD-3600,47.2026338,27.8020115
18/A,Strada Națională,MD-3600,47.2076917,27.8018672
88,Strada Maria Cebotari,MD-3600,47.2181969,27.8050472
93,Strada Romană,MD-3600,47.2177916,27.8067459
96,Strada Alexandru Plămădeală,MD-3600,47.2194253,27.8061682
95,Strada Maria Cebotari,MD-3600,47.2187289,27.8075274
50,Strada Națională,MD-3606,47.2136294,27.8085936
81,Strada Alexandru Plămădeală,MD-3600,47.2190819,27.8042088
79,Strada Alexandru Plămădeală,MD-3600,47.2188037,27.8039528
77,Strada Alexandru Plămădeală,MD-3600,47.2186843,27.8038168
75,Strada Alexandru Plămădeală,MD-3600,47.2185599,27.8036942
73,Strada Alexandru Plămădeală,MD-3600,47.2184375,27.8035609
71,Strada Alexandru Plămădeală,MD-3600,47.2183250,27.8034089
69,Strada Alexandru Plămădeală,MD-3600,47.2182022,27.8032695
67,Strada Alexandru Plămădeală,MD-3600,47.2180809,27.8031798
65,Strada Alexandru Plămădeală,MD-3600,47.2179469,27.8030316
12,Strada Ion Creangă,MD-3600,47.2182251,27.8025238
10,Strada Ghenadie Crestiuc,MD-3600,47.2204075,27.7964714
12,Strada Ghenadie Crestiuc,MD-3600,47.2208366,27.7975306
6,Strada Ghenadie Crestiuc,MD-3600,47.2203577,27.7975334
15,Strada Alexandru Bernardazzi,MD-3600,47.2200470,27.7978417
13,Strada Alexandru Bernardazzi,MD-3600,47.2198006,27.7983219
17,Strada Alexandru Bernardazzi,MD-3600,47.2200383,27.7991413
8,Strada Ghenadie Crestiuc,MD-3600,47.2203633,27.7985533
13,Strada Ion Creangă,MD-3600,47.2209065,27.7987309
22,Strada Ion Creangă,MD-3600,47.2203979,27.8008352
24,Strada Ion Creangă,MD-3600,47.2210635,27.7996087
53,Strada Națională,MD-3600,47.2177620,27.8084295
115,Strada Națională,MD-3600,47.2225576,27.8095114
115,Strada Națională,MD-3600,47.2225612,27.8091475
22,Strada Ion Creangă,MD-3600,47.2202205,27.8004850
16,Strada Ghenadie Crestiuc,MD-3600,47.2224251,27.8023407
18,Strada Ghenadie Crestiuc,MD-3600,47.2235607,27.8045765
18,Strada Ghenadie Crestiuc,MD-3600,47.2234111,27.8027881
18,Strada Ghenadie Crestiuc,MD-3600,47.2238153,27.8035189
18,Strada Ghenadie Crestiuc,MD-3600,47.2239949,27.8039192
18,Strada Ghenadie Crestiuc,MD-3600,47.2244648,27.8047684
26,Strada Ion Creangă,MD-3600,47.2226943,27.7989583
26,Strada Ion Creangă,MD-3600,47.2242491,27.7972678
279/3,Strada Ștefan cel Mare și Sfânt,MD-3600,47.1724716,27.8100929
279/1,Strada Ștefan cel Mare și Sfânt,MD-3600,47.1730261,27.8106636
279,Strada Ștefan cel Mare și Sfânt,MD-3600,47.1723291,27.8118600
279,Strada Ștefan cel Mare și Sfânt,MD-3600,47.1718279,27.8120079
279,Strada Ștefan cel Mare și Sfânt,MD-3600,47.1717103,27.8115410
279/6,Strada Ștefan cel Mare și Sfânt,MD-3600,47.1714240,27.8110358
279,Strada Ștefan cel Mare și Sfânt,MD-3600,47.1721476,27.8114480
279,Strada Ștefan cel Mare și Sfânt,MD-3600,47.1724837,27.8112593
67,Strada Maria Cebotari,MD-3600,47.2154109,27.8015660
67,Strada Maria Cebotari,MD-3600,47.2154518,27.8013793
65,Strada Maria Cebotari,MD-3600,47.2153239,27.8014332
63,Strada Maria Cebotari,MD-3600,47.2152125,27.8012966
61,Strada Maria Cebotari,MD-3600,47.2151001,27.8012007
59,Strada Maria Cebotari,MD-3600,47.2149904,27.8010676
57,Strada Maria Cebotari,MD-3600,47.2148653,27.8009761
55,Strada Maria Cebotari,MD-3600,47.2147741,27.8008527
53,Strada Maria Cebotari,MD-3600,47.2146554,27.8007639
51,Strada Maria Cebotari,MD-3600,47.2145318,27.8006264
49,Strada Maria Cebotari,MD-3600,47.2144074,27.8005036
47,Strada Maria Cebotari,MD-3600,47.2142654,27.8003512
34,Strada Alexandru Plămădeală,MD-3600,47.2146433,27.8000593
36,Strada Alexandru Plămădeală,MD-3600,47.2147557,27.8001816
38,Strada Alexandru Plămădeală,MD-3600,47.2148825,27.8002757
40,Strada Alexandru Plămădeală,MD-3600,47.2149941,27.8003856
3,Strada Alexandru Bernardazzi,MD-3600,47.2179022,27.7962936
38,Strada Decebal,MD-3600,47.2188525,27.7938335
38,Strada Decebal,MD-3600,47.2192627,27.7937953
38,Strada Decebal,MD-3600,47.2195288,27.7942911
38/A,Strada Decebal,MD-3600,47.2198999,27.7954361
2/A,Strada Ghenadie Crestiuc,MD-3600,47.2200807,27.7957718
37,Strada Alexandru Plămădeală,MD-3600,47.2159955,27.8009909
39,Strada Alexandru Plămădeală,MD-3600,47.2161811,27.8011904
41,Strada Alexandru Plămădeală,MD-3600,47.2163339,27.8013062
43,Strada Alexandru Plămădeală,MD-3600,47.2164797,27.8014440
45,Strada Alexandru Plămădeală,MD-3600,47.2166117,27.8015365
47,Strada Alexandru Plămădeală,MD-3600,47.2167138,27.8017177
49,Strada Alexandru Plămădeală,MD-3600,47.2168242,27.8018509
51,Strada Alexandru Plămădeală,MD-3600,47.2169365,27.8019504
53,Strada Alexandru Plămădeală,MD-3600,47.2170662,27.8021033
55,Strada Alexandru Plămădeală,MD-3600,47.2171954,27.8022012
57,Strada Alexandru Plămădeală,MD-3600,47.2173544,27.8024206
59,Strada Alexandru Plămădeală,MD-3600,47.2174691,27.8025346
61,Strada Alexandru Plămădeală,MD-3600,47.2176252,27.8026371
63,Strada Alexandru Plămădeală,MD-3600,47.2177136,27.8027656
78,Strada Alexandru Plămădeală,MD-3600,47.2177860,27.8033317
80,Strada Alexandru Plămădeală,MD-3600,47.2179285,27.8035354
82,Strada Alexandru Plămădeală,MD-3600,47.2180533,27.8036735
84,Strada Alexandru Plămădeală,MD-3600,47.2181807,27.8037557
86,Strada Alexandru Plămădeală,MD-3600,47.2183045,27.8038965
88,Strada Alexandru Plămădeală,MD-3600,47.2184089,27.8039993
90,Strada Alexandru Plămădeală,MD-3600,47.2185281,27.8041468
107,Strada Maria Cebotari,MD-3600,47.2183688,27.8047005
105,Strada Maria Cebotari,MD-3600,47.2182376,27.8046026
103,Strada Maria Cebotari,MD-3600,47.2181369,27.8044645
101,Strada Maria Cebotari,MD-3600,47.2179457,27.8042626
99,Strada Maria Cebotari,MD-3600,47.2177475,27.8040595
97,Strada Maria Cebotari,MD-3600,47.2175512,27.8038416
76,Strada Alexandru Plămădeală,MD-3600,47.2175380,27.8031111
72/A,Strada Alexandru Plămădeală,MD-3600,47.2172295,27.8029495
72,Strada Alexandru Plămădeală,MD-3600,47.2172110,27.8027189
70,Strada Alexandru Plămădeală,MD-3600,47.2170542,27.8025674
68,Strada Alexandru Plămădeală,MD-3600,47.2169231,27.8024474
66,Strada Alexandru Plămădeală,MD-3600,47.2168224,27.8023158
64/A,Strada Alexandru Plămădeală,MD-3600,47.2166320,27.8021670
64,Strada Alexandru Plămădeală,MD-3600,47.2164690,27.8019481
62,Strada Alexandru Plămădeală,MD-3600,47.2163410,27.8017982
60,Strada Alexandru Plămădeală,MD-3600,47.2162512,27.8016974
58,Strada Alexandru Plămădeală,MD-3600,47.2161374,27.8016143
56,Strada Alexandru Plămădeală,MD-3600,47.2160181,27.8014901
54,Strada Alexandru Plămădeală,MD-3600,47.2158960,27.8013243
69,Strada Maria Cebotari,MD-3600,47.2156581,27.8018104
71,Strada Maria Cebotari,MD-3600,47.2158021,27.8019731
73,Strada Maria Cebotari,MD-3600,47.2159360,27.8021037
75,Strada Maria Cebotari,MD-3600,47.2160575,27.8022157
77,Strada Maria Cebotari,MD-3600,47.2161519,27.8023395
79,Strada Maria Cebotari,MD-3600,47.2162718,27.8024718
81,Strada Maria Cebotari,MD-3600,47.2163937,27.8025933
83,Strada Maria Cebotari,MD-3600,47.2165023,27.8027115
85,Strada Maria Cebotari,MD-3600,47.2166111,27.8028479
87,Strada Maria Cebotari,MD-3600,47.2167249,27.8029436
89,Strada Maria Cebotari,MD-3600,47.2168550,27.8031000
91,Strada Maria Cebotari,MD-3600,47.2169799,27.8032321
93,Strada Maria Cebotari,MD-3600,47.2171570,27.8034028
95,Strada Maria Cebotari,MD-3600,47.2173140,27.8035547
56,Strada Maria Cebotari,MD-3600,47.2152239,27.8018851
54,Strada Maria Cebotari,MD-3600,47.2151179,27.8017598
52,Strada Maria Cebotari,MD-3600,47.2149492,27.8016163
50,Strada Maria Cebotari,MD-3600,47.2148296,27.8014995
48,Strada Maria Cebotari,MD-3600,47.2147295,27.8013641
46,Strada Maria Cebotari,MD-3600,47.2146180,27.8012261
44,Strada Maria Cebotari,MD-3600,47.2144906,27.8011738
42,Strada Maria Cebotari,MD-3600,47.2143893,27.8010078
40,Strada Maria Cebotari,MD-3600,47.2142600,27.8008868
38,Strada Maria Cebotari,MD-3600,47.2141024,27.8006793
9,Strada Bogdan Petriceicu Hasdeu,MD-3600,47.2151183,27.8021698
7,Strada Bogdan Petriceicu Hasdeu,MD-3600,47.2150129,27.8024680
17,Stradela Humulești,MD-3600,47.2148358,27.8022380
15,Stradela Humulești,MD-3600,47.2147261,27.8021141
13,Stradela Humulești,MD-3600,47.2146086,27.8019390
13,Stradela Humulești,MD-3600,47.2145316,27.8021282
11,Stradela Humulești,MD-3600,47.2143783,27.8019193
9,Stradela Humulești,MD-3600,47.2143683,27.8017403
7,Stradela Humulești,MD-3600,47.2142901,27.8015337
5,Stradela Humulești,MD-3600,47.2141891,27.8014055
5,Stradela Humulești,MD-3600,47.2140332,27.8014991
3,Stradela Humulești,MD-3600,47.2140712,27.8012584
3,Stradela Humulești,MD-3600,47.2139541,27.8013248
1,Stradela Humulești,MD-3600,47.2138998,27.8010538
39,Strada Romană,MD-3600,47.2135863,27.8017293
41,Strada Romană,MD-3600,47.2137575,27.8019407
43,Strada Romană,MD-3600,47.2138592,27.8020717
45,Strada Romană,MD-3600,47.2139726,27.8021734
47,Strada Romană,MD-3600,47.2140785,27.8023420
47,Strada Romană,MD-3600,47.2141676,27.8021515
49,Strada Romană,MD-3600,47.2142057,27.8025159
51,Strada Romană,MD-3600,47.2143623,27.8026973
53,Strada Romană,MD-3600,47.2144837,27.8028358
55,Strada Romană,MD-3600,47.2146058,27.8030015
57,Strada Romană,MD-3600,47.2147150,27.8030940
7/A,Strada Bogdan Petriceicu Hasdeu,MD-3600,47.2148445,27.8026431
7/A,Strada Bogdan Petriceicu Hasdeu,MD-3600,47.2148626,27.8028302
37,Strada Națională,MD-3600,47.2148500,27.8045317
112,Strada Romană,MD-3600,47.2160396,27.8055258
110,Strada Romană,MD-3600,47.2159518,27.8053652
108,Strada Romană,MD-3600,47.2158252,27.8053516
106,Strada Romană,MD-3600,47.2157498,27.8051428
104,Strada Romană,MD-3600,47.2156506,27.8050007
102,Strada Romană,MD-3600,47.2155383,27.8048603
100,Strada Romană,MD-3600,47.2154625,27.8047801
98,Strada Romană,MD-3600,47.2153603,27.8046497
96,Strada Romană,MD-3600,47.2152607,27.8045287
94,Strada Romană,MD-3600,47.2151559,27.8043921
92,Strada Romană,MD-3600,47.2150259,27.8042216
90,Strada Romană,MD-3600,47.2148564,27.8040563
88,Strada Romană,MD-3600,47.2146953,27.8038277
55/A,Strada Mihai Eminescu,MD-3600,47.2088999,27.8001723
55,Strada Mihai Eminescu,MD-3600,47.2082851,27.7994495
48/B,Strada Burebista,MD-3600,47.1915360,27.8112325
8,Strada Meșterul Manole,MD-3602,47.1903071,27.8240517
6,Strada Meșterul Manole,MD-3600,47.1901836,27.8241299
1,Strada Miorița,MD-3600,47.1907784,27.8199869
3,Strada Miorița,MD-3600,47.1909153,27.8199404
5,Strada Miorița,MD-3600,47.1911149,27.8197859
7,Strada Miorița,MD-3600,47.1912430,27.8197084
47/1,Strada Petru Rareș,MD-3600,47.1876287,27.8193665
1,Strada Ștefan cel Mare și Sfânt,MD-3600,47.1992483,27.7968897
1,Strada Ștefan cel Mare și Sfânt,MD-3600,47.1989606,27.7970727
3,Strada Alexandru Cosmescu,MD-3600,47.2154579,27.7916888
2,Strada Grigore Ureche,MD-3600,47.2140579,27.7934385
4,Strada Grigore Ureche,MD-3600,47.2143922,27.7932176
6/A,Strada Grigore Ureche,MD-3600,47.2147396,27.7929431
10,Strada Grigore Ureche,MD-3600,47.2153662,27.7925563
11,Strada Miron Costin,MD-3600,47.2159360,27.7930986
9,Strada Miron Costin,MD-3600,47.2156929,27.7932609
7,Strada Miron Costin,MD-3600,47.2154486,27.7934228
5,Strada Miron Costin,MD-3600,47.2151805,27.7935999
3,Strada Miron Costin,MD-3600,47.2149039,27.7937861
1,Strada Miron Costin,MD-3600,47.2146455,27.7939669
1/B,Strada Miron Costin,MD-3600,47.2142530,27.7941905
6,Strada Ciprian Porumbescu,MD-3600,47.2140610,27.7938848
86,Strada Maria Cebotari,MD-3600,47.2171296,27.8039318
84,Strada Maria Cebotari,MD-3600,47.2169790,27.8037681
80,Strada Maria Cebotari,MD-3600,47.2167245,27.8035059
82,Strada Maria Cebotari,MD-3600,47.2167713,27.8036365
78,Strada Maria Cebotari,MD-3600,47.2165900,27.8034359
76,Strada Maria Cebotari,MD-3600,47.2165271,27.8032652
74,Strada Maria Cebotari,MD-3600,47.2164132,27.8031401
72,Strada Maria Cebotari,MD-3600,47.2163013,27.8030282
70,Strada Maria Cebotari,MD-3600,47.2161755,27.8029295
68,Strada Maria Cebotari,MD-3600,47.2160777,27.8027899
66,Strada Maria Cebotari,MD-3600,47.2159538,27.8027031
64,Strada Maria Cebotari,MD-3600,47.2158140,27.8026074
62,Strada Maria Cebotari,MD-3600,47.2156393,27.8026069
60,Strada Maria Cebotari,MD-3600,47.2156246,27.8023254
58,Strada Maria Cebotari,MD-3600,47.2154863,27.8021923
6,Strada Bogdan Petriceicu Hasdeu,MD-3600,47.2153390,27.8024912
4,Strada Bogdan Petriceicu Hasdeu,MD-3600,47.2152403,27.8027209
2,Stradela Humulești,MD-3600,47.2154223,27.8029527
4,Stradela Humulești,MD-3600,47.2155760,27.8029767
6,Stradela Humulești,MD-3600,47.2156670,27.8031803
8,Stradela Humulești,MD-3600,47.2157935,27.8032617
10,Stradela Humulești,MD-3600,47.2159135,27.8034075
12,Stradela Humulești,MD-3600,47.2160097,27.8035334
14,Stradela Humulești,MD-3600,47.2161143,27.8036400
16,Stradela Humulești,MD-3600,47.2162462,27.8037900
18,Stradela Humulești,MD-3600,47.2163320,27.8038741
20,Stradela Humulești,MD-3600,47.2164592,27.8039921
22,Stradela Humulești,MD-3600,47.2165934,27.8041305
24,Stradela Humulești,MD-3600,47.2166867,27.8042507
3,Strada Ion Creangă,MD-3600,47.2167005,27.8047804
41,Stradela Humulești,MD-3600,47.2164394,27.8046262
39,Stradela Humulești,MD-3600,47.2164128,27.8043110
1/1,Strada Industrială,MD-3600,47.2272889,27.8043652
37,Strada Națională,MD-3600,47.2151177,27.8056159
37,Strada Națională,MD-3600,47.2149563,27.8046660
37,Strada Națională,MD-3600,47.2150036,27.8047572
49,Strada Romană,MD-3600,47.2076682,27.7985224
53,Strada Romană,MD-3600,47.2078329,27.7992692
91/A,Strada Alexandru cel Bun,MD-3600,47.2119686,27.7900933
40,Strada Decebal,MD-3600,47.2195332,27.7930363
9,Strada Alexandru Boico,MD-3600,47.2157290,27.7988111
112/1,Strada Romană,MD-3600,47.2169683,27.8069201
46,Strada Națională,MD-3600,47.2119820,27.8064978
10,Strada Arcașii lui Ştefan,MD-3600,47.1955599,27.7943856
3,Strada Unirii,MD-3600,47.1958963,27.7931361
5,Strada Nicolae Bălcescu,MD-3600,47.2015915,27.7950843
97,Strada Alexandru cel Bun,MD-3600,47.2131430,27.7890791
104,Strada Națională,MD3600,47.2199577,27.8103930
90,Strada Maria Cebotari,MD-3600,47.2183325,27.8065261
25/A,Strada Decebal,MD-3603,47.2145378,27.7949882
4,Strada Alexandru Cosmescu,MD-3600,47.2163446,27.7928804
1/A,Strada Alexandru Bernardazzi,MD-3600,47.2166658,27.7952328
26,Strada Ion Creangă,MD-3600,47.2258630,27.8011444
26,Strada Ion Creangă,MD-3600,47.2234093,27.7976461
26,Strada Ion Creangă,MD-3600,47.2233081,27.7974925
29/A,Strada Ion Creangă,MD-3600,47.2250568,27.7940856
26,Strada Ion Creangă,MD-3600,47.2260840,27.8015757
26,Strada Ion Creangă,MD-3600,47.2261868,27.8008280
26,Strada Ion Creangă,MD-3600,47.2263442,27.8011312
12,Strada Oleg Ungureanu,MD-3600,47.2259874,27.7953775
26,Strada Ion Creangă,MD-3600,47.2256173,27.8023978
26,Strada Ion Creangă,MD-3600,47.2222433,27.7986403
26,Strada Ion Creangă,MD-3600,47.2222541,27.7985049
26,Strada Ion Creangă,MD-3600,47.2222374,27.7989530
26,Strada Ion Creangă,MD-3600,47.2268825,27.8021393
26,Strada Ion Creangă,MD-3600,47.2266865,27.8021193
26,Strada Ion Creangă,MD-3600,47.2266335,27.8019762
26,Strada Ion Creangă,MD-3600,47.2267885,27.8020404
57,Strada Mihai Eminescu,MD3600,47.2090247,27.8005448
6,Strada Ion Aldea-Teodorovici,MD3600,47.1795595,27.8194737
4,Strada Ion Aldea-Teodorovici,MD3600,47.1796944,27.8193416
14,Strada Ion Aldea-Teodorovici,MD3600,47.1790016,27.8199488
28,Strada Ion Aldea-Teodorovici,MD3600,47.1779361,27.8208882
12,Strada Ion Aldea-Teodorovici,MD3600,47.1791429,27.8198289
26,Strada Ion Aldea-Teodorovici,MD3600,47.1780802,27.8207358
18,Strada Ion Aldea-Teodorovici,MD3600,47.1787246,27.8201593
24,Strada Ion Aldea-Teodorovici,MD3600,47.1782051,27.8206360
20,Strada Ion Aldea-Teodorovici,MD3600,47.1785890,27.8203346
17,Stradela Gheorghe Asachi,MD3600,47.2348519,27.7743639
21,Stradela Gheorghe Asachi,MD3600,47.2351260,27.7741065
11,Stradela Gheorghe Asachi,MD3600,47.2344878,27.7747498
15,Stradela Gheorghe Asachi,MD3600,47.2347366,27.7744481
39,Stradela Gheorghe Asachi,MD3600,47.2363460,27.7727912
7,Stradela Gheorghe Asachi,MD3600,47.2342184,27.7750262
43,Stradela Gheorghe Asachi,MD3600,47.2366124,27.7725657
13,Stradela Gheorghe Asachi,MD3600,47.2345967,27.7746241
5,Stradela Gheorghe Asachi,MD3600,47.2340466,27.7751610
31,Stradela Gheorghe Asachi,MD3600,47.2360601,27.7731059
9,Stradela Gheorghe Asachi,MD3600,47.2343176,27.7749093
27/1,Stradela Gheorghe Asachi,MD3600,47.2355948,27.7735821
23,Stradela Gheorghe Asachi,MD3600,47.2352846,27.7739202
25,Stradela Gheorghe Asachi,MD3600,47.2353858,27.7738086
3,Stradela Gheorghe Asachi,MD3600,47.2339430,27.7753139
19,Stradela Gheorghe Asachi,MD3600,47.2349994,27.7741944
41,Stradela Gheorghe Asachi,MD3600,47.2364504,27.7727328
66,str. Mihai Viteazu,MD3600,47.2284976,27.7822181
88,str. Mihai Viteazu,MD3600,47.2311336,27.7805589
57 A,str. Mihai Viteazu,MD3600,47.2261265,27.7832661
137 A,str. Mihai Viteazu,MD3600,47.2378376,27.7721128
89,str. Mihai Viteazu,MD3600,47.2307965,27.7798703
38,str. Mihai Viteazu,MD3600,47.2248940,27.7847277
31,str. Mihai Viteazu,MD3600,47.2229853,27.7852925
97,str. Mihai Viteazu,MD3600,47.2331085,27.7768844
111,str. Mihai Viteazu,MD3600,47.2350832,27.7749690
60 A,str. Mihai Viteazu,MD3600,47.2278269,27.7827230
101 A,str. Mihai Viteazu,MD3600,47.2336581,27.7763979
5,str. Mihai Viteazu,MD3600,47.2211433,27.7860917
52,str. Mihai Viteazu,MD3600,47.2266238,27.7837284
64,str. Mihai Viteazu,MD3600,47.2282626,27.7823898
29,str. Mihai Viteazu,MD3600,47.2229758,27.7848511
34,str. Mihai Viteazu,MD3600,47.2244656,27.7850551
32,str. Mihai Viteazu,MD3600,47.2241581,27.7851641
153,str. Mihai Viteazu,MD3600,47.2391408,27.7706908
73,str. Mihai Viteazu,MD3600,47.2288146,27.7813733
94,str. Mihai Viteazu,MD3600,47.2318426,27.7793423
145,str. Mihai Viteazu,MD3600,47.2385279,27.7713358
25,str. Mihai Viteazu,MD3600,47.2226022,27.7841880
9,str. Mihai Viteazu,MD3600,47.2215483,27.7857993
149,str. Mihai Viteazu,MD3600,47.2388516,27.7710078
157,str. Mihai Viteazu,MD3600,47.2394394,27.7703723
117,str. Mihai Viteazu,MD3600,47.2356655,27.7743701
24 A,str. Mihai Viteazu,MD3600,47.2231978,27.7857845
11 B,str. Mihai Viteazu,MD3600,47.2216895,27.7850525
121,str. Mihai Viteazu,MD3600,47.2362931,27.7737785
158,str. Mihai Viteazu,MD3600,47.2386213,27.7719453
7,str. Mihai Viteazu,MD3600,47.2212988,27.7860364
142,str. Mihai Viteazu,MD3600,47.2365935,27.7740583
154A,str. Mihai Viteazu,MD3600,47.2382479,27.7724736
151,str. Mihai Viteazu,MD3600,47.2389737,27.7708437
144 A,str. Mihai Viteazu,MD3600,47.2368520,27.7737616
35,str. Mihai Viteazu,MD3600,47.2234555,27.7850625
140,str. Mihai Viteazu,MD3600,47.2364384,27.7742038
38 A,str. Mihai Viteazu,MD3600,47.2250237,27.7846222
105,str. Mihai Viteazu,MD3600,47.2343858,27.7757017
127,str. Mihai Viteazu,MD3600,47.2367718,27.7731904
30,str. Mihai Viteazu,MD3600,47.2238787,27.7853848
36,str. Mihai Viteazu,MD3600,47.2247522,27.7846915
72,str. Mihai Viteazu,MD3600,47.2291073,27.7818559
63,str. Mihai Viteazu,MD3600,47.2278987,27.7820078
146 A,str. Mihai Viteazu,MD3600,47.2371589,27.7735144
82,str. Mihai Viteazu,MD3600,47.2304825,27.7807766
81 A,str. Mihai Viteazu,MD3600,47.2296601,27.7808748
21,str. Mihai Viteazu,MD3600,47.2227690,27.7853690
91,str. Mihai Viteazu,MD3600,47.2313362,27.7792099
162,str. Mihai Viteazu,MD3600,47.2388985,27.7715733
78,str. Mihai Viteazu,MD3600,47.2299869,27.7812779
143,str. Mihai Viteazu,MD3600,47.2384076,27.7715041
124,str. Mihai Viteazu,MD3600,47.2352635,27.7752925
144 B,str. Mihai Viteazu,MD3600,47.2370170,27.7736376
83,str. Mihai Viteazu,MD3600,47.2298300,27.7807553
81,str. Mihai Viteazu,MD3600,47.2295592,27.7809933
148,str. Mihai Viteazu,MD3600,47.2376011,27.7730037
112 A,str. Mihai Viteazu,MD3600,47.2340291,27.7766055
164 B,str. Mihai Viteazu,MD3600,47.2392556,27.7713755
55 A,str. Mihai Viteazu,MD3600,47.2253104,27.7838200
97 A,str. Mihai Viteazu,MD3600,47.2333445,27.7766957
57,str. Mihai Viteazu,MD3600,47.2258985,27.7834155
41,str. Mihai Viteazu,MD3600,47.2238825,27.7846943
40,str. Mihai Viteazu,MD3600,47.2251063,27.7844295
132,str. Mihai Viteazu,MD3600,47.2359673,27.7746319
146,str. Mihai Viteazu,MD3600,47.2374326,27.7731584
166,str. Mihai Viteazu,MD3600,47.2395062,27.7709345
26,str. Mihai Viteazu,MD3600,47.2233190,27.7856661
54 A,str. Mihai Viteazu,MD3600,47.2269227,27.7835716
27,str. Mihai Viteazu,MD3600,47.2229536,27.7844839
75,str. Mihai Viteazu,MD3600,47.2290282,27.7813903
55,str. Mihai Viteazu,MD3600,47.2256083,27.7836293
68,str. Mihai Viteazu,MD3600,47.2286853,27.7820415
13,str. Mihai Viteazu,MD3600,47.2218609,27.7854763
47,str. Mihai Viteazu,MD3600,47.2245355,27.7841983
95A,Strada Mihai Viteazul,MD3600,47.2326106,27.7774255
22,str. Mihai Viteazu,MD3600,47.2226923,27.7859481
100 B,str. Mihai Viteazu,MD3600,47.2326742,27.7779352
155,str. Mihai Viteazu,MD3600,47.2392961,27.7705432
77,str. Mihai Viteazu,MD3600,47.2291807,27.7812385
14,str. Mihai Viteazu,MD3600,47.2212213,27.7866730
114,str. Mihai Viteazu,MD3600,47.2342309,27.7763503
128,str. Mihai Viteazu,MD3600,47.2355967,27.7749680
130,str. Mihai Viteazu,MD3600,47.2357796,27.7747881
3,str. Mihai Viteazu,MD3600,47.2210404,27.7861622
100 A,str. Mihai Viteazu,MD3600,47.2325738,27.7780743
126,str. Mihai Viteazu,MD3600,47.2353831,27.7751411
117 A,str. Mihai Viteazu,MD3600,47.2357859,27.7742054
164 A,str. Mihai Viteazu,MD3600,47.2390463,27.7714427
131,str. Mihai Viteazu,MD3600,47.2372132,27.7727691
102,str. Mihai Viteazu,MD3600,47.2328687,27.7778408
35 A,str. Mihai Viteazu,MD3600,47.2233494,27.7845647
137,str. Mihai Viteazu,MD3600,47.2376589,27.7723007
116,str. Mihai Viteazu,MD3600,47.2344437,27.7761427
15,str. Mihai Viteazu,MD3600,47.2222024,27.7855678
120,str. Mihai Viteazu,MD3600,47.2348845,27.7756666
9C,str. Mihai Viteazu,MD3600,47.2214272,27.7851168
150,str. Mihai Viteazu,MD3600,47.2377271,27.7728468
74,str. Mihai Viteazu,MD3600,47.2295338,27.7815648
11A,str. Mihai Viteazu,MD3600,47.2215698,27.7844708
107,str. Mihai Viteazu,MD3600,47.2345337,27.7755407
168,str. Mihai Viteazu,MD3600,47.2396481,27.7707726
13 A,str. Mihai Viteazu,MD3600,47.2217345,27.7852642
35 B,str. Mihai Viteazu,MD3600,47.2236184,27.7849900
144,str. Mihai Viteazu,MD3600,47.2367058,27.7739470
125,str. Mihai Viteazu,MD3600,47.2365918,27.7734636
19,str. Mihai Viteazu,MD3600,47.2225957,27.7853907
122,str. Mihai Viteazu,MD3600,47.2350228,27.7755356
16,str. Mihai Viteazu,MD3600,47.2216852,27.7866143
109,str. Mihai Viteazu,MD3600,47.2348119,27.7752589
61,str. Mihai Viteazu,MD3600,47.2277121,27.7822598
123,str. Mihai Viteazu,MD3600,47.2364418,27.7736316
139,str. Mihai Viteazu,MD3600,47.2379574,27.7719459
108,str. Mihai Viteazu,MD3600,47.2334692,27.7771572
43,str. Mihai Viteazu,MD3600,47.2240824,27.7845849
98,str. Mihai Viteazu,MD3600,47.2320728,27.7789437
67,str. Mihai Viteazu,MD3600,47.2283577,27.7817675
12,str. Mihai Viteazu,MD3600,47.2210654,27.7868362
164,str. Mihai Viteazu,MD3600,47.2393673,27.7711175
71,str. Mihai Viteazu,MD3600,47.2285059,27.7810904
118,str. Mihai Viteazu,MD3600,47.2347122,27.7758881
46,str. Mihai Viteazu,MD3600,47.2256412,27.7841470
160,str. Mihai Viteazu,MD3600,47.2387435,27.7717429
104,str. Mihai Viteazu,MD3600,47.2329601,27.7775246
110,str. Mihai Viteazu,MD3600,47.2336668,27.7768374
119,str. Mihai Viteazu,MD3600,47.2361262,27.7739533
156 A,str. Mihai Viteazu,MD3600,47.2383483,27.7722081
58,str. Mihai Viteazu,MD3600,47.2273821,27.7831272
50 A,str. Mihai Viteazu,MD3600,47.2263334,27.7837617
33,str. Mihai Viteazu,MD3600,47.2231754,27.7852719
48,str. Mihai Viteazu,MD3600,47.2257702,27.7841121
44,str. Mihai Viteazu,MD3600,47.2254562,27.7843117
106,str. Mihai Viteazu,MD3600,47.2331837,27.7773444
1,str. Mihai Viteazu,MD3600,47.2207454,27.7862813
135,str. Mihai Viteazu,MD3600,47.2375293,27.7724191
39,str. Mihai Viteazu,MD3600,47.2235707,27.7842334
70,str. Mihai Viteazu,MD3600,47.2289770,27.7820118
63 A,str. Mihai Viteazu,MD3600,47.2280341,27.7820041
156,str. Mihai Viteazu,MD3600,47.2384707,27.7721028
63 B,str. Mihai Viteazu,MD3600,47.2278192,27.7822199
133,str. Mihai Viteazu,MD3600,47.2373848,27.7725800
115,str. Mihai Viteazu,MD3600,47.2354712,27.7745638
56,str. Mihai Viteazu,MD3600,47.2270486,27.7834509
96,str. Mihai Viteazu,MD3600,47.2319827,27.7790778
41 A,str. Mihai Viteazu,MD3600,47.2238165,27.7844010
154,str. Mihai Viteazu,MD3600,47.2378702,27.7727188
42,str. Mihai Viteazu,MD3600,47.2252468,27.7844601
24,str. Mihai Viteazu,MD3600,47.2229501,27.7859133
23,str. Mihai Viteazu,MD3600,47.2224828,27.7839763
141,str. Mihai Viteazu,MD3600,47.2382719,27.7716223
103,str. Mihai Viteazu,MD3600,47.2341328,27.7759083
1,str. Mihai Viteazu,MD3600,47.2269516,27.7834055
134,str. Mihai Viteazu,MD3600,47.2360958,27.7745067
139 A,str. Mihai Viteazu,MD3600,47.2380446,27.7716363
98A,str. Mihai Viteazu,MD3600,47.2324810,27.7783337
60,str. Mihai Viteazu,MD3600,47.2279770,27.7825730
147,str. Mihai Viteazu,MD3600,47.2386866,27.7711496
87,str. Mihai Viteazu,MD3600,47.2304396,27.7801853
48 A,str. Mihai Viteazu,MD3600,47.2259227,27.7840652
129,str. Mihai Viteazu,MD3600,47.2369051,27.7730479
99,str. Mihai Viteazu,MD3600,47.2335305,27.7765366
106 A,str. Mihai Viteazu,MD3600,47.2333731,27.7773436
85,str. Mihai Viteazu,MD3600,47.2302387,27.7803849
112,str. Mihai Viteazu,MD3600,47.2338476,27.7767354
117 B,str. Mihai Viteazu,MD3600,47.2359551,27.7740851
92,str. Mihai Viteazu,MD3600,47.2317533,27.7798487
113,str. Mihai Viteazu,MD3600,47.2352527,27.7747654
58 A,str. Mihai Viteazu,MD3600,47.2274870,27.7835256
62,str. Mihai Viteazu,MD3600,47.2281521,27.7824946
45,str. Mihai Viteazu,MD3600,47.2242969,27.7843977
84,str. Mihai Viteazu,MD3600,47.2306476,27.7806848
28,str. Mihai Viteazu,MD3600,47.2235730,27.7857173
138,str. Mihai Viteazu,MD3600,47.2362703,27.7743592
51,str. Mihai Viteazu,MD3600,47.2249332,27.7840908
49,str. Mihai Viteazu,MD3600,47.2246638,27.7841338
31 A,str. Mihai Viteazu,MD3600,47.2229929,27.7850970
90,str. Mihai Viteazu,MD3600,47.2312460,27.7801056
59,str. Mihai Viteazu,MD3600,47.2270129,27.7828593
53,str. Mihai Viteazu,MD3600,47.2251171,27.7840264
101,str. Mihai Viteazu,MD3600,47.2338733,27.7762388
65,str. Mihai Viteazu,MD3600,47.2281603,27.7819165
11,str. Mihai Viteazu,MD3600,47.2216313,27.7846273
17,str. Mihai Viteazu,MD3600,47.2223189,27.7853171
21,Strada Barbu Lăutaru,MD-3600,47.2082507,27.7975691
13,Strada Barbu Lăutaru,MD-3600,47.2081117,27.7967861
19,Strada Barbu Lăutaru,MD-3600,47.2081630,27.7974974
1,Strada Barbu Lăutaru,MD-3600,47.2071265,27.7963615
37-39,Strada Barbu Lăutaru,MD-3600,47.2094523,27.7988113
40,Strada Barbu Lăutaru,MD3600,47.2098067,27.7998438
32,Strada Barbu Lăutaru,MD3600,47.2094415,27.7994301
23,Strada Barbu Lăutaru,MD-3600,47.2083505,27.7976346
2,Strada Barbu Lăutaru,MD-3600,47.2069741,27.7967344
15-17,Strada Barbu Lăutaru,MD-3600,47.2079607,27.7972980
7,Strada Barbu Lăutaru,MD-3600,47.2075538,27.7967775
49,Strada Barbu Lăutaru,MD-3600,47.2100085,27.7995040
79,Strada Barbu Lăutaru,MD3600,47.2135708,27.8034952
28,Strada Barbu Lăutaru,MD3600,47.2091737,27.7991001
11,Strada Barbu Lăutaru,MD-3600,47.2078164,27.7971387
8,Strada Barbu Lăutaru,MD-3600,47.2073936,27.7972035
45,Strada Barbu Lăutaru,MD3600,47.2096662,27.7991999
77,Strada Barbu Lăutaru,MD3600,47.2134629,27.8033774
89,Strada Barbu Lăutaru,MD3600,47.2141766,27.8041493
45,Strada Barbu Lăutaru,MD3600,47.2097514,27.7992936
4,Strada Barbu Lăutaru,MD-3600,47.2071714,27.7969630
34,Strada Barbu Lăutaru,MD3600,47.2095716,27.7995844
10,Strada Barbu Lăutaru,MD-3600,47.2075373,27.7973731
87,Strada Barbu Lăutaru,MD3600,47.2140301,27.8039569
81,Strada Barbu Lăutaru,MD3600,47.2136840,27.8036049
6,Strada Barbu Lăutaru,MD-3600,47.2072575,27.7971142
30,Strada Barbu Lăutaru,MD3600,47.2092771,27.7993053
37-39,Strada Barbu Lăutaru,MD-3600,47.2094867,27.7989417
44,Strada Barbu Lăutaru,MD3600,47.2099582,27.8003705
41,Strada Barbu Lăutaru,MD-3600,47.2096533,27.7988895
35,Strada Barbu Lăutaru,MD-3600,47.2093346,27.7988020
25,Strada Barbu Lăutaru,MD-3600,47.2084480,27.7978206
3,Strada Barbu Lăutaru,MD-3600,47.2072604,27.7965530
33,Strada Barbu Lăutaru,MD-3600,47.2092140,27.7986562
47,Strada Barbu Lăutaru,MD3600,47.2098378,27.7993996
83,Strada Barbu Lăutaru,MD3600,47.2138009,27.8037093
85,Strada Barbu Lăutaru,MD3600,47.2139098,27.8038604
31,Strada Barbu Lăutaru,MD-3600,47.2090825,27.7985278
12,Strada Barbu Lăutaru,MD3600,47.2079964,27.7979278
29,Strada Barbu Lăutaru,MD-3600,47.2087712,27.7981875
44,Strada Barbu Lăutaru,MD3600,47.2100764,27.8000949
1,Strada Barbu Lăutaru,MD3600,47.2076242,27.7979217
5,Strada Barbu Lăutaru,MD-3600,47.2074460,27.7965984
51,Strada Barbu Lăutaru,MD-3600,47.2100936,27.7996768
9,Strada Barbu Lăutaru,MD-3600,47.2077054,27.7969488
19,Stradela Burebista,MD-3600,47.1784206,27.8147265
31,Stradela Burebista,MD-3600,47.1788051,27.8159629
26,Stradela Burebista,MD-3600,47.1783729,27.8157541
12,Stradela Burebista,MD-3600,47.1779581,27.8143513
25,Stradela Burebista,MD-3600,47.1786206,27.8153778
11,Stradela Burebista,MD-3600,47.1781663,27.8139261
20,Stradela Burebista,MD-3600,47.1782037,27.8151647
13,Stradela Burebista,MD-3600,47.1782300,27.8141776
22,Stradela Burebista,MD-3600,47.1782574,27.8153207
27,Stradela Burebista,MD-3600,47.1786674,27.8155346
8,Stradela Burebista,MD-3600,47.1778161,27.8139508
14,Stradela Burebista,MD-3600,47.1780062,27.8145561
28,Stradela Burebista,MD-3600,47.1784607,27.8159446
17,Stradela Burebista,MD-3600,47.1783607,27.8145435
16,Stradela Burebista,MD-3600,47.1780766,27.8147337
18,Stradela Burebista,MD-3600,47.1781295,27.8149266
10,Stradela Burebista,MD-3600,47.1778595,27.8141174
23,Stradela Burebista,MD-3600,47.1785526,27.8151440
9,Stradela Burebista,MD-3600,47.1781039,27.8137362
21,Stradela Burebista,MD-3600,47.1784825,27.8149554
15,Stradela Burebista,MD-3600,47.1782993,27.8143180
24,Stradela Burebista,MD-3600,47.1783234,27.8155687
28,str. Gărdești,MD-3600,47.2360503,27.7802141
4,str. Gărdești,MD-3600,47.2344107,27.7815467
2,str. Gărdești,MD-3600,47.2343761,27.7812659
20,str. Gărdești,MD-3600,47.2355150,27.7804903
3,str. Gărdești,MD-3600,47.2361823,27.7792597
16,str. Gărdești,MD-3600,47.2352992,27.7807049
12,str. Gărdești,MD-3600,47.2350800,27.7809478
17,str. Gărdești,MD-3600,47.2370639,27.7783048
1,str. Gărdești,MD-3600,47.2357598,27.7804048
48,str. Gărdești,MD-3600,47.2367807,27.7790995
38,str. Gărdești,MD-3600,47.2365432,27.7793528
10,str. Gărdești,MD-3600,47.2349463,27.7810745
5,str. Gărdești,MD-3600,47.2363093,27.7791036
56,str. Gărdești,MD-3600,47.2375018,27.7784393
30,str. Gărdești,MD-3600,47.2361456,27.7803097
13,str. Gărdești,MD-3600,47.2368085,27.7785758
1,str. Gărdești,MD-3600,47.2357343,27.7802465
8,str. Gărdești,MD-3600,47.2348241,27.7812426
34,str. Gărdești,MD-3600,47.2362983,27.7799125
1,str. Gărdești,MD-3600,47.2366966,27.7787050
50,str. Gărdești,MD-3600,47.2372329,27.7786421
58,str. Gărdești,MD-3600,47.2373958,27.7782176
44,str. Gărdești,MD-3600,47.2369576,27.7794434
40,str. Gărdești,MD-3600,47.2366576,27.7794692
36,str. Gărdești,MD-3600,47.2362016,27.7797348
7,str. Gărdești,MD-3600,47.2364237,27.7789557
26,str. Gărdești,MD-3600,47.2359641,27.7799553
1,str. Gărdești,MD-3600,47.2360520,27.7794114
9,str. Gărdești,MD-3600,47.2365418,27.7788560
22,str. Gărdești,MD-3600,47.2356237,27.7803616
32,str. Gărdești,MD-3600,47.2363658,27.7800773
38 A,str. Fоntоnilor,MD3600,47.2347564,27.7722094
54 A,str. Fоntоnilor,MD3600,47.2368385,27.7697509
51,str. Fоntоnilor,MD3600,47.2352565,27.7708790
6,str. Fоntоnilor,MD3600,47.2313538,27.7777014
59,str. Fоntоnilor,MD3600,47.2363026,27.7697154
45,str. Fоntоnilor,MD3600,47.2344652,27.7718200
13,str. Fоntоnilor,MD3600,47.2317916,27.7762303
69 A,str. Fоntоnilor,MD3600,47.2372268,27.7685215
37,str. Fоntоnilor,MD3600,47.2337675,27.7730360
25,str. Fоntоnilor,MD3600,47.2331254,27.7741465
62 A,str. Fоntоnilor,MD3600,47.2379265,27.7682893
41 A,str. Fоntоnilor,MD3600,47.2340140,27.7725483
35,str. Fоntоnilor,MD3600,47.2336790,27.7731698
17,str. Fоntоnilor,MD3600,47.2323152,27.7754652
38,str. Fоntоnilor,MD3600,47.2347790,27.7720154
45 A,str. Fоntоnilor,MD3600,47.2342800,27.7721578
40,str. Fоntоnilor,MD3600,47.2350918,27.7716404
26,str. Fоntоnilor,MD3600,47.2334767,27.7743145
63,str. Fоntоnilor,MD3600,47.2366813,27.7691583
36,str. Fоntоnilor,MD3600,47.2345919,27.7722952
28,str. Fоntоnilor,MD3600,47.2337589,27.7738351
41,str. Fоntоnilor,MD3600,47.2341558,27.7723863
55,str. Fоntоnilor,MD3600,47.2359340,27.7701793
55 A,str. Fоntоnilor,MD3600,47.2356149,27.7697958
71 A,str. Fоntоnilor,MD3600,47.2376611,27.7680887
5,str. Fоntоnilor,MD3600,47.2308915,27.7778256
61,str. Fоntоnilor,MD3600,47.2364635,27.7695292
56,str. Fоntоnilor,MD3600,47.2371062,27.7692464
50,str. Fоntоnilor,MD3600,47.2362639,27.7703619
13 A,str. Fоntоnilor,MD3600,47.2318803,27.7758862
49,str. Fоntоnilor,MD3600,47.2350215,27.7711067
8,str. Fоntоnilor,MD3600,47.2315354,27.7773556
60,str. Fоntоnilor,MD3600,47.2376604,27.7686509
7 A,str. Fоntоnilor,MD3600,47.2309826,27.7775649
15,str. Fоntоnilor,MD3600,47.2321860,27.7756434
24A,str. Fоntоnilor,MD3600,47.2333728,27.7745398
29,str. Fоntоnilor,MD3600,47.2333723,27.7738174
30 A,str. Fоntоnilor,MD3600,47.2339820,27.7733254
69,str. Fоntоnilor,MD3600,47.2373391,27.7683833
42,str. Fоntоnilor,MD3600,47.2354560,27.7712212
22 A,str. Fоntоnilor,MD3600,47.2332811,27.7752205
14,str. Fоntоnilor,MD3600,47.2326075,27.7758305
1,str. Fоntоnilor,MD3600,47.2302160,27.7787475
2,str. Fоntоnilor,MD3600,47.2308507,27.7784022
16,str. Fоntоnilor,MD3600,47.2327934,27.7762775
75,str. Fоntоnilor,MD3600,47.2379699,27.7673816
3,str. Fоntоnilor,MD3600,47.2305078,27.7783429
71,str. Fоntоnilor,MD3600,47.2378196,27.7677002
58,str. Fоntоnilor,MD3600,47.2373807,27.7689498
22,str. Fоntоnilor,MD3600,47.2330743,27.7749863
62,str. Fоntоnilor,MD3600,47.2378044,27.7684232
32,str. Fоntоnilor,MD3600,47.2341000,27.7731255
52,str. Fоntоnilor,MD3600,47.2365102,27.7700482
46,str. Fоntоnilor,MD3600,47.2357101,27.7709141
54,str. Fоntоnilor,MD3600,47.2370205,27.7694549
39,str. Fоntоnilor,MD3600,47.2339770,27.7727468
53,str. Fоntоnilor,MD3600,47.2356695,27.7703981
64,str. Fоntоnilor,MD3600,47.2381618,27.7679749
23,str. Fоntоnilor,MD3600,47.2329603,27.7743840
38 B,str. Fоntоnilor,MD3600,47.2350031,27.7719112
34,str. Fоntоnilor,MD3600,47.2343883,27.7728028
7,str. Fоntоnilor,MD3600,47.2311852,27.7773104
18 A,str. Fоntоnilor,MD3600,47.2329017,27.7754228
53 A,str. Fоntоnilor,MD3600,47.2355023,27.7705999
67,str. Fоntоnilor,MD3600,47.2369920,27.7688327
31,str. Fоntоnilor,MD3600,47.2333091,27.7735715
33,str. Fоntоnilor,MD3600,47.2335249,27.7734356
30,str. Fоntоnilor,MD3600,47.2338822,27.7735939
4,str. Fоntоnilor,MD3600,47.2310725,27.7780478
19,str. Fоntоnilor,MD3600,47.2324959,27.7751654
73,str. Fоntоnilor,MD3600,47.2378809,27.7675492
9,str. Fоntоnilor,MD3600,47.2313222,27.7771047
52 A,str. Fоntоnilor,MD3600,47.2366912,27.7699191
47,str. Fоntоnilor,MD3600,47.2348672,27.7713654
27,str. Fоntоnilor,MD3600,47.2332106,27.7739676
47 A,str. Fоntоnilor,MD3600,47.2346608,27.7715611
40 A,str. Fоntоnilor,MD3600,47.2351960,27.7715047
57,str. Fоntоnilor,MD3600,47.2362139,27.7699114
48,str. Fоntоnilor,MD3600,47.2359134,27.7707566
39 A,str. Fоntоnilor,MD3600,47.2338611,27.7728332
20,str. Fоntоnilor,MD3600,47.2329587,27.7751067
18,str. Fоntоnilor,MD3600,47.2327384,27.7754120
44,str. Fоntоnilor,MD3600,47.2355764,27.7710819
21,str. Fоntоnilor,MD3600,47.2326941,27.7748330
6 A,str. Scuternicenilor,MD3600,47.2340356,27.7816378
6,str. Scuternicenilor,MD3600,47.2329490,27.7795096
2,str. Scuternicenilor,MD3600,47.2332404,27.7801056
2 A,str. Scuternicenilor,MD3600,47.2338727,27.7819383
1,str. Scuternicenilor,MD3600,47.2327699,27.7800787
8,Strada Bălțeni 8,MD3600,47.2339271,27.7813687
19A,str. Scuternicenilor,MD3600,47.2317305,27.7777380
10,str. Scuternicenilor,MD3600,47.2324976,27.7787083
10 A,str. Scuternicenilor,MD3600,47.2326581,27.7790101
8,str. Scuternicenilor,MD3600,47.2327212,27.7792156
11,str. Scuternicenilor,MD3600,47.2323411,27.7792043
1,Stradela Gheorghe Malarciuc,MD3600,47.2215082,27.7855008
3,Stradela Gheorghe Malarciuc,MD3600,47.2214522,27.7853092
4,Strada Hotinului,MD3600,47.2381661,27.7667068
1 B,Strada Hotinului,MD3600,47.2378044,27.7671219
8,Strada Hotinului,MD3600,47.2378288,27.7656474
9,Strada Hotin,MD3600,47.2371702,27.7629532
1 A,Strada Hotinului,MD3600,47.2377563,27.7666253
2,Strada Hotinului,MD3600,47.2383283,27.7671293
12,Strada Hotinului,MD3600,47.2380953,27.7646428
1,Strada Hotinului,MD3600,47.2375375,27.7656058
6,Strada Hotinului,MD3600,47.2380816,27.7663296
18,Strada Constantin Negruzzi,MD3600,47.2366228,27.7774165
16,Strada Constantin Negruzzi,MD3600,47.2365324,27.7772429
8,Strada Constantin Negruzzi,MD3600,47.2361907,27.7765189
14,Strada Constantin Negruzzi,MD3600,47.2364596,27.7770824
4,Strada Constantin Negruzzi,MD3600,47.2360023,27.7761489
6,Strada Constantin Negruzzi,MD3600,47.2361058,27.7763511
2,Strada Constantin Negruzzi,MD3600,47.2359240,27.7760092
10,Strada Constantin Negruzzi,MD3600,47.2362727,27.7767224
12,Strada Constantin Negruzzi,MD3600,47.2363678,27.7768728
22,str. Vasile Alecsandri,MD-3600,47.2092257,27.7973015
10,str. Vasile Alecsandri,MD3600,47.2083474,27.7989513
2,Strada Vasile Alecsandri,MD-3600,47.2068947,27.8019204
26,Strada Vasile Alecsandri,MD3600,47.2096970,27.7963193
24,str. Vasile Alecsandri,MD-3600,47.2093263,27.7972728
15,Strada Vasile Alecsandri,MD-3600,47.2087693,27.7974465
24,str. Vasile Alecsandri,MD-3600,47.2093192,27.7971022
14,Strada Vasile Alecsandri,MD3600,47.2085677,27.7984997
9,Strada Vasile Alecsandri,MD3600,47.2081678,27.7986868
23,Strada Vasile Alecsandri,MD3600,47.2095118,27.7960845
16,Strada Vasile Alecsandri,MD-3600,47.2088377,27.7980295
18,str. Vasile Alecsandri,MD-3600,47.2089275,27.7978180
7,Strada Vasile Alecsandri,MD3600,47.2080187,27.7989028
20,str. Vasile Alecsandri,MD-3600,47.2090933,27.7975216
4,Strada Vasile Alecsandri,MD-3600,47.2069765,27.8016476
12,Strada Vasile Alecsandri,MD3600,47.2085225,27.7988035
17,Strada Vasile Alecsandri,MD-3600,47.2088317,27.7972388
3,Strada Națională,MD-3600,47.2048636,27.7974057
9/4,Strada Oleg Ungureanu,MD-3600,47.2246624,27.7911751
159/1,Strada Ștefan cel Mare,MD-3600,47.1883673,27.8087799
36,Strada Decebal,MD-3600,47.2175592,27.7950560
36,Strada Decebal,MD-3600,47.2172506,27.7953266
7/3,Strada Oleg Ungureanu,MD-3600,47.2245261,27.7922316
17,Strada Vasile Alecsandri,MD-3600,47.2089139,27.7973305
24/B,Strada Romană,MD-3600,47.2079167,27.7963167
27/1,Strada Romană,MD 3600,47.2104363,27.7975402
12,Strada Oleg Ungureanu,MD-3600,47.2262560,27.7944911
12,Strada Oleg Ungureanu,MD-3600,47.2260159,27.7944607
12,Strada Oleg Ungureanu,MD-3600,47.2262410,27.7943590
12,Strada Oleg Ungureanu,MD-3600,47.2262977,27.7941975
5/A,Strada Fiodor Musatov,MD-3600,47.2081003,27.7941034
115,Strada Națională,MD-3600,47.2230256,27.8093312
87,Strada Alexandru Plămădeală,MD-3600,47.2213653,27.8089290
279,Strada Ștefan cel Mare și Sfânt,MD-3600,47.1721105,27.8096081
42,Strada Națională,MD-3600,47.2114217,27.8058988
37,Strada Națională,MD-3600,47.2136323,27.8068211
45,Strada Națională,MD-3600,47.2163780,27.8080132
33,Strada Oleg Ungureanu,MD-3600,47.2251065,27.7931820
46/1,Strada Națională,MD-3600,47.2122879,27.8072222
29,Strada Romană,MD 3600,47.2105571,27.7977288
25,Strada Decebal,MD-3603,47.2146993,27.7952955
10,Strada Feroviară,MD-3606,47.2068481,27.8025112
67,Strada Romană,MD-3600,47.2115576,27.8014475
10,Strada Ion Vatamanu,MD-3600,47.1994155,27.8147734
10,Strada Decebal,MD-3600,47.2105284,27.8012843
65,Strada Mihai Eminescu,MD-3600,47.2102746,27.8017855
7/1,Strada Oleg Ungureanu,MD-3600,47.2251729,27.7923293
7/2,Strada Oleg Ungureanu,MD-3600,47.2248383,27.7922754
1,Strada Veronica Micle,MD-3600,47.2065010,27.7969477
4/A,Strada Mihai Eminescu,MD-3600,47.2081225,27.8003251
26,Strada Ion Creangă,MD-3600,47.2271733,27.8019465
26,Strada Ion Creangă,MD-3600,47.2237004,27.7996080
26,Strada Ion Creangă,MD-3600,47.2225136,27.7983216
26,Strada Ion Creangă,MD-3600,47.2232707,27.8013297
26,Strada Ion Creangă,MD-3600,47.2244100,27.8009838
31,Strada Ion Creangă,MD-3600,47.2240668,27.7945645
37,Strada Națională,MD-3600,47.2137899,27.8072649
4/A,Strada Vasile Alecsandri,MD-3600,47.2070798,27.8014593
14,Strada Națională,MD-3600,47.2072134,27.8013666
10,Strada Națională,MD-3600,47.2063893,27.8007762
11,Strada Națională,MD-3600,47.2066935,27.7989922
7,Strada Națională,MD-3600,47.2053509,27.7981233
26,Strada Ion Creangă,MD-3600,47.2257898,27.8003887
26,Strada Ion Creangă,MD-3600,47.2252021,27.7992012
163,Strada Ștefan cel Mare și Sfânt,MD-3600,47.1867809,27.8104837
163/1,Strada Ștefan cel Mare și Sfânt,MD-3600,47.1874312,27.8096091
137/2,Strada Ștefan cel Mare și Sfânt,MD-3600,47.1903886,27.8097842
3,Strada Feroviară,MD-3600,47.2039713,27.7992618
11,Strada Alexandru Boico,MD-3600,47.2168082,27.8001510
45,Strada Națională,MD-3603,47.2163451,27.8080291
88/1,Strada Maria Cebotari,MD-3600,47.2178093,27.8055087
96/1,Strada Alexandru Plămădeală,MD-3600,47.2189872,27.8057504
95,Strada Maria Cebotari,MD-3600,47.2186544,27.8065832
8/A,Strada Mihai Eminescu,MD-3600,47.2086183,27.8011625
7,Strada Alexandru Bernardazzi,MD-3600,47.2191190,27.7982459
15/A,Strada Alexandru Boico,MD-3600,47.2176432,27.8003789
15/A,Strada Alexandru Boico,MD-3600,47.2177778,27.8005200
15/A,Strada Alexandru Boico,MD-3600,47.2178932,27.8002162
11,Strada Bogdan Petriceicu Hasdeu,MD-3600,47.2159214,27.8000119
143/3,Strada Ștefan cel Mare și Sfânt,MD-3600,47.1897805,27.8107572
143/2,Strada Ștefan cel Mare și Sfânt,MD-3600,47.1895789,27.8102359
143/1,Strada Ștefan cel Mare și Sfânt,MD-3600,47.1893835,27.8097074
5,Strada Vasile Lupu,MD-3600,47.2138155,27.7989646
5,Strada Vasile Lupu,MD-3600,47.2136643,27.7991392
20,Strada Națională,MD-3600,47.2079991,27.8025478
20,Strada Națională,MD-3600,47.2077861,27.8024399
64,Strada Romană,MD-3600,47.2112492,27.7998131
16,Strada Decebal,MD-3600,47.2109911,27.7995376
14,Strada Decebal,MD-3600,47.2108023,27.7999614
37,Strada Națională,MD-3600,47.2153842,27.8051983
19,Strada Națională,MD-3600,47.2086461,27.8017563
33,Strada Burebista,MD-3600,47.1869259,27.8143320
66/2,Strada Romană,MD-3600,47.2116446,27.8000183
27,Strada Romană,MD-3600,47.2102180,27.7970092
26,Strada Romană,MD-3600,47.2089502,27.7968721
26/2,Strada Romană,MD-3600,47.2086570,27.7965514
9/3,Strada Oleg Ungureanu,MD-3600,47.2241956,27.7916376
9/2,Strada Oleg Ungureanu,MD-3600,47.2242682,27.7913645
9/1,Strada Oleg Ungureanu,MD-3600,47.2244670,27.7911649
7/2,Strada Ghenadie Crestiuc,MD-3600,47.2219779,27.7958259
