House number,Street name,Postal code,Latitude,Longitude
80а,Артема вулиця,83001,48.0041676,37.8027821
72,Артема вулиця,83000,47.9995836,37.8041832
50,Шевченка бульвар,83017,48.0097097,37.8426249
21,Щетиніна вулиця,83119,47.9797464,37.9205219
19,Октября вулиця,283030,47.9619138,37.8787450
40,Університетська вулиця,83000-83490,48.0110521,37.7983677
7а,Шахтобудівельників бульвар,83052,48.0058199,37.8567754
5,Куйбишева вулиця,83062,47.9737493,37.8045466
18,Квірінга вулиця,83072,47.9363160,37.7560716
26,Шевченка бульвар,83017,48.0096333,37.8285229
43,230-ї Стрілецької Дивізії вулиця,83092,47.9883315,37.9211630
27,Свірського вулиця,83038,47.9306464,37.6554747
9а,230-ї Стрілецької Дивізії вулиця,83092,47.9903736,37.9098903
38,230-ї Стрілецької Дивізії вулиця,83092,47.9906191,37.9173225
21,Архітекторів вулиця,83111,47.9473157,37.6033742
172в,Куйбишева вулиця,83060,48.0182619,37.7573378
20,Орєшкова провулок,83050,48.0088414,37.7975028
36,230-ї Стрілецької Дивізії вулиця,83092,47.9894502,37.9203533
4а,Ленінський проспект,83062,47.9869308,37.7892772
59,Дмитра Донського вулиця,283036,47.9872429,37.6720680
18,Павла Колодіна вулиця,283036,47.9905256,37.6792506
74,Краснофлотська вулиця,83052,48.0052163,37.8471395
4,Ленінський проспект,83062,47.9877292,37.7899803
47,Шевченко бульвар,83017,48.0090761,37.8366491
19,Армавірська вулиця,83044,47.9684329,37.9222515
35,Роздольна,283110,47.9758266,37.9215595
21,Горностаївська вулиця,83000,48.0010566,37.8990710
4а оф2,Ленінський проспект,83062,47.9869819,37.7893268
84,Богдана Хмельницького проспект,283050,48.0116954,37.7945619
129,Шевченка бульвар,83052,48.0094922,37.8643143
40,Університетська вулиця,83000-83490,48.0110260,37.7986945
1,1-а Олександрівка вулиця,83000-83490,47.9858342,37.7941125
194,Куйбишева вулиця,83000,48.0216898,37.7567726
56а,Марії Ульянової вулиця,83017,48.0079603,37.8408459
1а,Ляшенка вулиця,83117,47.9483810,37.6901583
4а,Ленінський проспект,83062,47.9870084,37.7892417
14,Павла Колодіна вулиця,83036,47.9897217,37.6792821
3а,Харитонова вулиця,83023,47.9945068,37.8455269
4а,Ленінський проспект,83062,47.9869186,37.7893544
16а,Овнатаняна вулиця,83017,48.0073130,37.8339004
140,Челюскінців вулиця,83000,47.9964937,37.8077415
26,Горячкіна вулиця,83003,48.0012316,37.8332205
42а,Будьонного вулиця,283030,47.9789007,37.8750143
46,Університетська вулиця,83000,48.0124121,37.7986433
46,Будьонного вулиця,83000-83490,47.9795989,37.8749679
6,Мінська вулиця,283030,47.9794373,37.8766726
10,Октября вулиця,283030,47.9630573,37.8772275
13в,Пролетарська вулиця,283030,47.9630802,37.8839387
184,Челюскінців вулиця,283001,48.0085817,37.8077225
91,Ілліча проспект,83003,48.0007287,37.8417078
7а,Полоцька вулиця,83000-83490,47.9905043,37.9013890
14,Шахтобудівельників бульвар,83052,48.0064615,37.8524357
4,Салтикова-Щедріна вулиця,83111,47.9467216,37.6081978
1а,Полоцька вулиця,283092,47.9913297,37.9073298
23д,Ілліча проспект,83003,48.0008536,37.8321872
82,Артема вулиця,283001,48.0060025,37.8029773
4,Архітекторів вулиця,83010,47.9485760,37.6088575
22,Комсомольський проспект,83001,48.0003425,37.8024800
9,Багратіона вулиця,283092,47.9920131,37.9048032
3,230-ї Стрілецької Дивізії вулиця,83092,47.9894162,37.9040747
40а,Багратіона вулиця,83092,47.9931835,37.9047075
5,230-ї Стрілецької Дивізії вулиця,83092,47.9895798,37.9051040
7,230-ї Стрілецької Дивізії вулиця,83092,47.9896399,37.9061588
8а,230-ї Стрілецької Дивізії вулиця,83092,47.9893880,37.9095095
1,Туполєва вулиця,83112,47.9578413,37.7699405
2,Туполєва вулиця,83112,47.9572876,37.7698602
10в,Нижньокурганська вулиця,83092,47.9875725,37.9038259
39,230-ї Стрілецької Дивізії вулиця,83092,47.9890718,37.9207158
37,230-ї Стрілецької Дивізії вулиця,83092,47.9902630,37.9196516
33,230-ї Стрілецької Дивізії вулиця,83092,47.9903044,37.9208064
43,230-ї Стрілецької Дивізії вулиця,83092,47.9884632,37.9209717
32,230-ї Стрілецької Дивізії вулиця,83092,47.9911597,37.9195443
28,230-ї Стрілецької Дивізії вулиця,83092,47.9882934,37.9160443
10в,мкрн Ніжнє-Курганський,283092,47.9875663,37.9038593
14,230-ї Стрілецької Дивізії вулиця,83092,47.9885730,37.9123750
12,230-ї Стрілецької Дивізії вулиця,83092,47.9879312,37.9134331
44,230-ї Стрілецької Дивізії вулиця,83092,47.9877187,37.9214587
24,230-ї Стрілецької Дивізії вулиця,83092,47.9894721,37.9159406
8,Незалежності вулиця,83092,47.9924297,37.9157117
35а,230-ї Стрілецької Дивізії вулиця,83092,47.9896026,37.9187700
35,230-ї Стрілецької Дивізії вулиця,83092,47.9901067,37.9182040
38а,230-ї Стрілецької Дивізії вулиця,83092,47.9906048,37.9190029
34,230-ї Стрілецької Дивізії вулиця,83092,47.9895772,37.9178179
13,230-ї Стрілецької Дивізії вулиця,83092,47.9894254,37.9126706
29а,230-ї Стрілецької Дивізії вулиця,83092,47.9870282,37.9173254
23,230-ї Стрілецької Дивізії вулиця,83092,47.9896742,37.9150087
36,230-ї Стрілецької Дивізії вулиця,83092,47.9896877,37.9201691
15,230-ї Стрілецької Дивізії вулиця,83092,47.9900046,37.9133270
37,230-ї Стрілецької Дивізії вулиця,83092,47.9890835,37.9212635
40,230-ї Стрілецької Дивізії вулиця,283092,47.9885187,37.9182807
21,230-ї Стрілецької Дивізії вулиця,83092,47.9902715,37.9151416
22,230-ї Стрілецької Дивізії вулиця,83092,47.9905119,37.9160455
14,Щетиніна вулиця,83119,47.9808823,37.9154322
35а,Щетиніна вулиця,830119,47.9819236,37.9246459
15,Щетиніна вулиця,83119,47.9806638,37.9166988
126,Ленінський проспект,83080,47.9554579,37.7786871
216,Куйбишева вулиця,83012,48.0338474,37.7504962
218,Куйбишева вулиця,83012,48.0342897,37.7503739
240,Куйбишева вулиця,83012,48.0352345,37.7491474
242,Куйбишева вулиця,83012,48.0361046,37.7490842
240а,Куйбишева вулиця,83012,48.0347869,37.7493398
244,Куйбишева вулиця,83012,48.0362726,37.7480113
244А,Куйбишева вулиця,83012,48.0366090,37.7486775
256,Куйбишева вулиця,83012,48.0388308,37.7479907
246,Куйбишева вулиця,83012,48.0368386,37.7473251
260а,Куйбишева вулиця,83122,48.0403442,37.7498140
260,Куйбишева вулиця,83122,48.0395312,37.7492831
252,Куйбишева вулиця,83012,48.0381186,37.7472913
248,Куйбишева вулиця,83012,48.0372335,37.7470694
250,Куйбишева вулиця,83012,48.0376897,37.7470583
258,Куйбишева вулиця,83012,48.0390944,37.7485510
254,Куйбишева вулиця,83012,48.0379000,37.7482227
268,Куйбишева вулиця,83012,48.0379596,37.7503531
262,Куйбишева вулиця,83122,48.0397562,37.7505310
264,Куйбишева вулиця,83122,48.0390986,37.7504524
58в,Артема вулиця,83000-83490,47.9955642,37.8041726
58,Артема вулиця,283001,47.9941266,37.8041126
4,Кобозєва вулиця,83000,47.9864582,37.8009773
3а,25-річчя РККА проспект,83001,47.9953987,37.8078727
10а,Арктики вулиця,83058,47.9761117,37.8487224
79,Ілліча проспект,83003,48.0009656,37.8349136
83,Ілліча проспект,83003,48.0010039,37.8365014
20,Капітана Ратнікова вулиця,83003,47.9989851,37.8373868
81,Ілліча проспект,83003,48.0009836,37.8356995
20А,Капітана Ратнікова вулиця,83003,47.9992987,37.8365168
25,Ілліча проспект,83003,48.0000484,37.8295254
21,Ілліча проспект,83003,48.0001578,37.8273912
111а,Капітана Ратнікова вулиця,83003,47.9985391,37.8385279
111,Капітана Ратнікова вулиця,83003,47.9984977,37.8375949
59,Куйбишева вулиця,83016,47.9811328,37.7866696
63,Куйбишева вулиця,83016,47.9814586,37.7863289
2б,Луговцова вулиця,83045,47.9799178,37.7812512
2а,Луговцова вулиця,83045,47.9802726,37.7808864
57,Куйбишева вулиця,83016,47.9812067,37.7871241
5,Луговцова вулиця,83045,47.9804445,37.7784432
5,Воровського вулиця,83045,47.9799137,37.7774008
1,Воровського вулиця,83045,47.9796385,37.7766946
10,Воровського вулиця,83045,47.9794949,37.7759187
20а,Іонова вулиця,83101,47.9747851,37.7895679
20,Іонова вулиця,83101,47.9748877,37.7904081
8а,Воровського вулиця,83045,47.9799388,37.7753055
31в,Куйбишева вулиця,83101,47.9750840,37.7956989
29,Куйбишева вулиця,83101,47.9756699,37.7961662
31,Куйбишева вулиця,83101,47.9757707,37.7950878
24,Бахметьєва вулиця,83117,47.9402537,37.6797306
34/1,Бахметьєва вулиця,83117,47.9318609,37.6823729
8 к1,Карамзіна вулиця,83010,47.9520604,37.6147793
8,Скляренка вулиця,83112,47.9628359,37.7731962
6,Скляренка вулиця,83112,47.9624851,37.7728882
10,Скляренка вулиця,83112,47.9632256,37.7728302
3,Куйбишева вулиця,83062,47.9734760,37.8055107
1,Куйбишева вулиця,83062,47.9732651,37.8063022
7,Куйбишева вулиця,83062,47.9737264,37.8038255
5,Куйбишева вулиця,83062,47.9737317,37.8045655
11,Куйбишева вулиця,83062,47.9720085,37.8059838
3,Іонова вулиця,83062,47.9767266,37.7976613
31б,Куйбишева вулиця,83101,47.9752267,37.7942797
27,Куйбишева вулиця,83101,47.9749953,37.7969547
23,Куйбишева вулиця,83062,47.9739290,37.8011813
15,Куйбишева вулиця,83062,47.9739158,37.8028556
13,Куйбишева вулиця,83062,47.9738559,37.8033815
19,Куйбишева вулиця,83062,47.9740390,37.8017602
13а,Куйбишева вулиця,83062,47.9737175,37.8030656
17,Куйбишева вулиця,83062,47.9740057,37.8020567
17а,Куйбишева вулиця,83062,47.9738108,37.8022694
15а,Куйбишева вулиця,83062,47.9739494,37.8025555
21,Куйбишева вулиця,83062,47.9740714,37.8014705
9,Жарикова вулиця,83117,47.9422215,37.6935314
1,Жарикова вулиця,83117,47.9423556,37.6918240
17,Жарикова вулиця,83117,47.9402903,37.6920853
3,Висоцького вулиця,83117,47.9452816,37.6949266
8,Висоцького вулиця,83117,47.9442782,37.6939681
20,Висоцького вулиця,83117,47.9430752,37.6903337
9,Висоцького вулиця,83117,47.9450208,37.6938503
6,Висоцького вулиця,83117,47.9441006,37.6947345
13,Висоцького вулиця,83117,47.9446288,37.6932882
1,Висоцького вулиця,83117,47.9451550,37.6954681
14,Висоцького вулиця,83117,47.9435042,37.6922377
7,Висоцького вулиця,83117,47.9448776,37.6944077
10,Висоцького вулиця,83117,47.9437688,37.6934249
15,Висоцького вулиця,83117,47.9447422,37.6927543
2,Висоцького вулиця,83117,47.9444202,37.6959302
3,Ляшенка вулиця,83117,47.9481150,37.6917847
53,Куйбишева вулиця,83101,47.9797262,37.7887051
55,Куйбишева вулиця,83101,47.9800439,37.7884715
51,Куйбишева вулиця,83101,47.9795185,37.7883306
2,Ляшенка вулиця,83117,47.9480533,37.6887666
8,Ляшенка вулиця,83117,47.9454118,37.6893166
6,Ляшенка вулиця,83117,47.9459061,37.6899870
9,Ляшенка вулиця,83117,47.9463895,37.6907224
4,Ляшенка вулиця,83117,47.9466958,37.6892881
7,Ляшенка вулиця,83117,47.9471549,37.6908262
4а,Ляшенка вулиця,83117,47.9463287,37.6880587
58,Річкова вулиця,83005,47.9475506,37.8135362
56,Річкова вулиця,83005,47.9473107,37.8125378
54,Річкова вулиця,83005,47.9477364,37.8120014
52,Річкова вулиця,83005,47.9482439,37.8123032
58а,Річкова вулиця,83005,47.9477488,37.8126537
238а,Куйбишева вулиця,83012,48.0385692,37.7492372
248а,Куйбишева вулиця,83012,48.0374207,37.7500606
217,Куйбишева вулиця,83012,48.0338570,37.7481784
213,Куйбишева вулиця,83012,48.0336489,37.7489889
217а,Куйбишева вулиця,83012,48.0344436,37.7473025
217б,Куйбишева вулиця,83012,48.0347487,37.7480301
209,Куйбишева вулиця,83012,48.0329049,37.7475034
217а,Куйбишева вулиця,83012,48.0344899,37.7482915
14,Київський проспект,83004,48.0414131,37.7785158
6,Київський проспект,83004,48.0393484,37.7794169
18,Київський проспект,83004,48.0425512,37.7780758
10,Київський проспект,83004,48.0405187,37.7791550
4,Київський проспект,83004,48.0386689,37.7796594
2,Київський проспект,83004,48.0379275,37.7795767
16,Київський проспект,83004,48.0420601,37.7782919
12,Київський проспект,83004,48.0409784,37.7786804
160,Артема вулиця,83000-83490,48.0371440,37.7730569
136/1,Університетська вулиця,83000-83490,48.0355114,37.7801156
3в,Треньова вулиця,83004,48.0335764,37.7790346
3а; 3б,Треньова вулиця,83004,48.0330360,37.7787670
3,Треньова вулиця,83004,48.0329624,37.7796711
189а,Челюскінців вулиця,83048,48.0251397,37.8049367
123,Артема вулиця,83055,48.0057202,37.8051480
188а,Челюскінців вулиця,83000-83490,48.0142384,37.8060187
106,Богдана Хмельницького проспект,283015,48.0121359,37.8068986
34,Пушкіна бульвар,83105,48.0087655,37.7999622
2,Россіні провулок,83048,48.0321561,37.7858367
99,Університетська вулиця,83004,48.0319472,37.7841064
3,Россіні провулок,83004,48.0322144,37.7850306
8,Россіні провулок,83048,48.0316752,37.7851538
109,Університетська вулиця,83004,48.0359899,37.7816485
103,Університетська вулиця,83004,48.0338036,37.7827446
6,Россіні провулок,83048,48.0313192,37.7858761
4,Россіні провулок,83048,48.0316462,37.7863323
10,Титова проспект,83048,48.0229616,37.8044218
10а,Титова проспект,83048,48.0232405,37.8035093
8,Титова проспект,83048,48.0226804,37.8030849
8а,Титова проспект,83048,48.0228418,37.8037839
35,Пушкіна бульвар,83000-83490,48.0083949,37.8024008
174,Челюскінців вулиця,83001,48.0065113,37.8077387
27,Пушкіна бульвар,83000,48.0044525,37.8022961
11,Шевченка бульвар,83001,48.0083456,37.8095422
127,Набережна вулиця,83001,48.0074010,37.8157169
129,Набережна вулиця,83001,48.0073534,37.8166533
3б,Київський проспект,83004,48.0407441,37.7819295
1,Київський проспект,83004,48.0384599,37.7815135
3,Київський проспект,83004,48.0395045,37.7805188
5,Миру проспект,83050,48.0166490,37.7915155
4,Собінова вулиця,83004,48.0401199,37.7845492
14,Трудової Алеї вулиця,83054,48.0465728,37.7801771
19,Київський проспект,83054,48.0460152,37.7797180
9,Кремлівський проспект,83071,48.0490707,37.7243056
18,Ілліча проспект,83003,48.0023255,37.8320477
32,Ілліча проспект,83003,48.0024770,37.8355741
36б,Ілліча проспект,83003,48.0025623,37.8392113
28,Ілліча проспект,83003,48.0044686,37.8351743
42,Ілліча проспект,83003,48.0037071,37.8387382
36,Ілліча проспект,83003,48.0025330,37.8382599
32а,Ілліча проспект,83003,48.0040713,37.8363724
62,Краснофлотська вулиця,83003,48.0049417,37.8423509
66,Краснофлотська вулиця,83003,48.0049824,37.8438333
64,Краснофлотська вулиця,83003,48.0049547,37.8430956
68,Краснофлотська вулиця,83003,48.0050053,37.8445485
52,Ілліча проспект,83003,48.0027214,37.8414081
54а,Ілліча проспект,83003,48.0031230,37.8422365
54,Ілліча проспект,83003,48.0025696,37.8422142
56,Ілліча проспект,83003,48.0028548,37.8432348
58,Ілліча проспект,83003,48.0026259,37.8442287
58а,Ілліча проспект,83003,48.0031646,37.8442165
43,Шевченка бульвар,83017,48.0086134,37.8342569
60,Краснофлотська вулиця,83003,48.0049146,37.8416251
74,Краснофлотська вулиця,83052,48.0050928,37.8470583
26,Горячкіна вулиця,83003,48.0011889,37.8334117
75,Шевченка бульвар,83017,48.0087469,37.8449140
53а,Марії Ульянової вулиця,83017,48.0106140,37.8394754
2а/2,Знаменська вулиця,83038,47.9322476,37.6565766
2а,Знаменська вулиця,83038,47.9319343,37.6585839
99,Шевченка бульвар,83052,48.0092844,37.8557971
50,Овнатаняна вулиця,83052,48.0076152,37.8576704
64,Шевченка бульвар,83017,48.0107032,37.8488719
85а,Куйбишева вулиця,83049,47.9968083,37.7645310
105а,Куйбишева вулиця,83049,47.9987785,37.7621349
85,Куйбишева вулиця,83049,47.9948978,37.7672587
87,Куйбишева вулиця,83049,47.9955001,37.7668776
93,Новоодеська вулиця,83087,48.0161193,37.7702389
92,Новоодеська вулиця,83087,48.0156105,37.7702541
1,Героїв Сталінграду площа,83044,47.9703977,37.9283322
21,Якірна вулиця,283030,47.9742096,37.8770713
6,Мінська вулиця,283030,47.9796263,37.8766553
1,Купріна вулиця,83005,47.9589109,37.8193654
1,Комунарів вулиця,83089,47.9720090,37.7067026
2,Комунарів вулиця,83089,47.9714797,37.7069423
16,Червоногвардійський проспект,83052,48.0104791,37.8645353
6,Комунарів вулиця,83089,47.9713773,37.7061402
3,Комунарів вулиця,83089,47.9719639,37.7058304
30,Комунарів вулиця,83089,47.9706109,37.7063437
28,Комунарів вулиця,83089,47.9709576,37.7071756
11,Комунарів вулиця,83089,47.9710003,37.7045406
13,Комунарів вулиця,83089,47.9713835,37.7035529
9,Комунарів вулиця,83089,47.9716299,37.7042296
32,Комунарів вулиця,83089,47.9705582,37.7055801
7,Комунарів вулиця,83089,47.9717978,37.7050423
12,Комунарів вулиця,83089,47.9708539,37.7037907
36,Комунарів вулиця,83089,47.9702638,37.7040165
10,Комунарів вулиця,83089,47.9713694,37.7043640
34,Комунарів вулиця,83089,47.9702961,37.7047938
5,Комунарів вулиця,83089,47.9715052,37.7052356
38,Комунарів вулиця,83089,47.9701692,37.7035092
12а,Октября вулиця,83000-83490,47.9640383,37.8783067
19,Луговцова вулиця,83016,47.9781831,37.7822091
46,Луганська вулиця,83025,47.9599540,37.7273440
22а,60-річчя СРСР вулиця,83008,48.0084744,37.7382975
1а,Фоміна вулиця,83096,47.9995892,37.7736490
1,У́лица Во́йкова,83022,47.9667611,37.6028064
18а,Київський проспект,83004,48.0422889,37.7786560
17,Осоавіахіму вулиця,83024,47.9596961,37.6592587
16,Воровського вулиця,83045,47.9786254,37.7769168
41,Куйбишева вулиця,83101,47.9771229,37.7920051
33,Куйбишева вулиця,83101,47.9760883,37.7931033
37,Куйбишева вулиця,83101,47.9765592,37.7925700
32,Сомова вулиця,83008,48.0133900,37.7378027
223а,Куйбишева вулиця,83012,48.0350979,37.7476869
26,230-ї Стрілецької Дивізії вулиця,83092,47.9894656,37.9170260
25,230-ї Стрілецької Дивізії вулиця,83092,47.9900888,37.9167839
2,Бахчисарайська вулиця,83056,48.0414552,37.7986444
101,Куйбишева вулиця,83049,47.9980201,37.7635535
103,Куйбишева вулиця,83049,47.9983273,37.7631575
105,Куйбишева вулиця,83049,47.9986492,37.7626424
11,Фоміна вулиця,83049,48.0014327,37.7692998
73,Куйбишева вулиця,83049,47.9886923,37.7768643
77,Куйбишева вулиця,83049,47.9907424,37.7737939
75а,Куйбишева вулиця,83049,47.9902513,37.7742473
69,Куйбишева вулиця,83049,47.9854282,37.7812342
76,Куйбишева вулиця,83049,47.9959640,37.7675329
71,Куйбишева вулиця,83049,47.9878248,37.7779072
46,Дагестанская улица,83020,47.9994838,37.6051159
48,Дагестанская улица,83020,47.9995392,37.6041704
50,Дагестанская улица,83020,47.9995919,37.6033305
52,Дагестанская улица,83020,47.9996368,37.6025087
451,Кирова улица,83020,48.0011738,37.6054106
457,Кирова улица,83020,48.0012710,37.6028225
453,Кирова улица,83020,48.0012238,37.6042688
441,Кирова улица,83020,48.0009281,37.6095797
1,Новокаховская улица,83020,48.0004100,37.6078893
1,Прудовая улица,83020,47.9999837,37.6044121
9,Новокаховская улица,83020,47.9996681,37.6077208
3,Прудовая улица,83020,48.0007883,37.6045188
4,Прудовая улица,83020,47.9998664,37.6049626
38,Дагестанская улица,83020,47.9993340,37.6077651
40,Дагестанская улица,83020,47.9993841,37.6068570
44,Дагестанская улица,83020,47.9994497,37.6057262
443,Кирова улица,83020,48.0009344,37.6087313
6,Прудовая улица,83020,48.0003545,37.6050432
8,Прудовая улица,83020,48.0008506,37.6051022
10,Новокаховская улица,83020,47.9997191,37.6069581
6,Новокаховская улица,83020,48.0000848,37.6066199
447,Кирова улица,83020,48.0007981,37.6070828
445,Кирова улица,83020,48.0007648,37.6078567
2,Бойченка вулиця,83020,47.9993318,37.6102319
30,Дагестанская улица,83020,47.9994059,37.6096311
34,Дагестанская улица,83020,47.9992947,37.6091720
36,Дагестанская улица,83020,47.9992882,37.6084911
4,Бойченка вулиця,83020,47.9997353,37.6102756
437,Кирова улица,83020,48.0008469,37.6112066
449,Кирова улица,83020,48.0010749,37.6062518
7,Новокаховская улица,83020,48.0000369,37.6076475
5,Новокаховская улица,83020,48.0000140,37.6080949
330а,Кирова улица,83020,48.0015150,37.6093929
80/1,Абакумова вулиця,83020,48.0033279,37.6134356
3,Новокаховская улица,83020,48.0003869,37.6087263
3,Костянтинівська вулиця,83020,48.0001178,37.6119245
1,Костянтинівська вулиця,83020,47.9996463,37.6118694
5,Костянтинівська вулиця,83020,47.9998573,37.6114540
31а,Куйбишева вулиця,83101,47.9755472,37.7942901
13а,Будьонного вулиця,283030,47.9716259,37.8738124
53а,Римського-Корсакова вулиця,83085,47.9626200,37.8612499
2,Римського-Корсакова вулиця,83085,47.9618421,37.8582078
20,Римського-Корсакова вулиця,83085,47.9614766,37.8608914
24,Римського-Корсакова вулиця,83085,47.9598716,37.8585611
18,Римського-Корсакова вулиця,83085,47.9595485,37.8581839
10,Римського-Корсакова вулиця,83085,47.9613597,37.8582846
16,Римського-Корсакова вулиця,83085,47.9600389,37.8578166
14,Римського-Корсакова вулиця,83085,47.9605913,37.8583831
93,Куїнджі вулиця,83018,48.0448699,37.7539499
97,Куїнджі вулиця,83018,48.0445841,37.7537138
101,Куїнджі вулиця,83018,48.0442902,37.7534616
105,Куїнджі вулиця,83018,48.0439900,37.7532237
99,Куїнджі вулиця,83018,48.0444233,37.7536007
95,Куїнджі вулиця,83018,48.0447351,37.7538408
103,Куїнджі вулиця,83018,48.0441359,37.7533768
5,Трудової Алеї вулиця,83054,48.0444996,37.7812434
19,Трудової Алеї вулиця,83054,48.0455310,37.7809980
13,Трудової Алеї вулиця,83054,48.0450234,37.7811763
33,Трудової Алеї вулиця,83054,48.0466465,37.7808958
31,Трудової Алеї вулиця,83054,48.0464432,37.7807991
29,Трудової Алеї вулиця,83054,48.0462838,37.7808461
15,Трудової Алеї вулиця,83054,48.0452133,37.7811165
25,Трудової Алеї вулиця,83054,48.0459288,37.7809164
21,Трудової Алеї вулиця,83054,48.0457406,37.7809336
27,Трудової Алеї вулиця,83054,48.0461036,37.7808500
17,Трудової Алеї вулиця,83054,48.0454071,37.7810283
11,Трудової Алеї вулиця,83054,48.0447879,37.7812100
3,Трудової Алеї вулиця,83054,48.0443099,37.7811329
32,Дагестанська вулиця,83020,47.9995775,37.6090247
439,Кирова улица,83020,48.0008045,37.6105412
28,Дагестанська вулиця,83020,47.9992211,37.6107112
2а,230-ї Стрілецької Дивізії вулиця,83092,47.9879062,37.9014756
11,230-ї Стрілецької Дивізії вулиця,83092,47.9872396,37.9133459
37,Шутова вулиця,83064,47.9434899,37.7723266
39а,230-ї Стрілецької Дивізії вулиця,83092,47.9889372,37.9200209
30,230-ї Стрілецької Дивізії вулиця,83092,47.9872536,37.9195620
8,Воровського вулиця,83045,47.9798596,37.7755138
14,Воровського вулиця,83045,47.9788590,37.7765127
28,Куйбишева вулиця,83045,47.9812982,37.7880579
40,Куйбишева вулиця,83045,47.9839041,37.7845035
49,Куйбишева вулиця,83101,47.9792676,37.7886924
47,Куйбишева вулиця,83101,47.9791619,37.7895204
47а,Куйбишева вулиця,83101,47.9796114,37.7888890
43,Куйбишева вулиця,83101,47.9776669,37.7912025
65,Куйбишева вулиця,83016,47.9817723,37.7862487
2,Салтикова-Щедріна вулиця,83111,47.9463199,37.6081938
2а,Ляшенка вулиця,83117,47.9473563,37.6881828
19,Висоцького вулиця,83117,47.9443054,37.6914402
18,Висоцького вулиця,83117,47.9435113,37.6908600
16,Висоцького вулиця,83117,47.9433340,37.6914742
112,Георгія Димитрова вулиця,283030,47.9597977,37.8838233
3,Октября вулиця,283030,47.9603141,37.8801181
87,Новоодеська вулиця,83087,48.0162835,37.7694395
34,Ілліча проспект,83003,48.0024958,37.8369433
14и,Ілліча проспект,83000-83490,48.0050471,37.8240385
83,Ілліча проспект,83003,48.0014831,37.8360737
30,Ілліча проспект,83003,48.0034065,37.8352242
20а,Багратіона вулиця,83092,47.9926208,37.8984187
17,Багратіона вулиця,83047,47.9935961,37.8947064
12,Висоцького вулиця,83117,47.9439550,37.6926595
12,Нікопольська вулиця,830003,47.9966505,37.8335475
18,Цусімська вулиця,283017,48.0125125,37.8497965
16а,Овнатаняна вулиця,83017,48.0074496,37.8339162
3,Верхня вулиця,83020,47.9994255,37.6132030
39,Куйбишева вулиця,83101,47.9768412,37.7922565
31а/1,Куйбишева вулиця,83101,47.9755616,37.7933335
103,Капітана Ратнікова вулиця,83003,47.9985650,37.8360107
105,Капітана Ратнікова вулиця,83003,47.9986009,37.8365622
107,Капітана Ратнікова вулиця,83003,47.9985884,37.8368158
81,Капітана Ратнікова вулиця,83003,47.9985236,37.8333748
87,Капітана Ратнікова вулиця,83003,47.9985450,37.8342720
99,Капітана Ратнікова вулиця,83003,47.9985529,37.8356481
91,Капітана Ратнікова вулиця,83003,47.9985547,37.8346332
97,Капітана Ратнікова вулиця,83003,47.9985318,37.8352259
95,Капітана Ратнікова вулиця,83003,47.9985123,37.8350764
93,Капітана Ратнікова вулиця,83003,47.9985513,37.8348127
89,Капітана Ратнікова вулиця,83003,47.9985499,37.8343940
131,Набережна вулиця,83001,48.0080834,37.8162130
69,Капітана Ратнікова вулиця,83003,47.9984761,37.8321160
73,Капітана Ратнікова вулиця,83003,47.9985013,37.8325035
51а,Капітана Ратнікова вулиця,83003,47.9984295,37.8307484
55,Капітана Ратнікова вулиця,83003,47.9981980,37.8310029
53,Капітана Ратнікова вулиця,83003,47.9982007,37.8306386
77,Капітана Ратнікова вулиця,83003,47.9985031,37.8328013
67,Капітана Ратнікова вулиця,83003,47.9984719,37.8319642
61,Капітана Ратнікова вулиця,83003,47.9984800,37.8316075
63,Капітана Ратнікова вулиця,83003,47.9984820,37.8317113
13Б,Полоцька вулиця,83000-83490,47.9898294,37.8997231
15б,Куйбишева вулиця,83062,47.9739000,37.8031116
17б,Куйбишева вулиця,83062,47.9739874,37.8023127
13а,Будьонного вулиця,283030,47.9715666,37.8738072
11,Будьонного вулиця,283030,47.9709881,37.8743695
15,Кисельовська вулиця,83022,47.9680341,37.6017053
62,Красна вулиця,83018,48.0465588,37.7366732
20,Дагестанская улица,83020,47.9990696,37.6126682
300,Кирова улица,83020,47.9988105,37.6199982
304,Кирова улица,83020,47.9991672,37.6193209
308,Кирова улица,83020,47.9994167,37.6185843
310,Кирова улица,83020,47.9997279,37.6182735
312,Кирова улица,83020,47.9998508,37.6175877
314,Кирова улица,83020,48.0002039,37.6171463
316,Кирова улица,83020,48.0003860,37.6164428
318,Кирова улица,83020,48.0006236,37.6158900
413,Кирова улица,83020,47.9980575,37.6199979
415,Кирова улица,83020,47.9983419,37.6195331
431,Кирова улица,83020,48.0005805,37.6135415
427,Кирова улица,83020,47.9998574,37.6159270
421,Кирова улица,83020,47.9993294,37.6171358
423,Кирова улица,83020,47.9995111,37.6164898
49,Михайловського вулиця,83020,48.0008824,37.6161642
425,Кирова улица,83020,47.9991336,37.6161124
2,Костянтинівська вулиця,83020,47.9994874,37.6124214
429,Кирова улица,83020,47.9999269,37.6141599
50,Михайловського вулиця,83020,48.0007052,37.6167127
51,Михайловського вулиця,83020,48.0012610,37.6165207
1,Треньова вулиця,83004,48.0329409,37.7804283
1,Панфілова проспект,83048,48.0255448,37.7944080
19а,Шевченка бульвар,83001,48.0085212,37.8158366
30,Куйбишева вулиця,83045,47.9816703,37.7875916
34,Куйбишева вулиця,83045,47.9824665,37.7864981
44(б),Бірюзова вулиця,83084,47.9821911,37.6458765
6,Бальзака вулиця,83059,47.9977503,37.8950331
59,Дмитра Донського вулиця,283036,47.9872696,37.6719380
45,Дмитра Донського вулиця,83036,47.9871612,37.6671446
48,Дмитра Донського вулиця,83036,47.9874727,37.6671877
47,Дмитра Донського вулиця,83036,47.9871751,37.6667669
38,Дмитра Донського вулиця,283036,47.9877082,37.6698229
20,Патріса Лумумби вулиця,83000-83490,47.9913889,37.6830302
22в,Георгія Димитрова вулиця,283030,47.9732411,37.8792397
6а,Відважних вулиця,83000-83490,47.9638172,37.8577914
22а,Георгія Димитрова вулиця,283030,47.9735484,37.8763907
13в,Пролетарська вулиця,283030,47.9629347,37.8843373
238,Куйбишева вулиця,83012,48.0381511,37.7491663
7,Київський проспект,83004,48.0400626,37.7804472
1е,Сормовська вулиця,83000,48.0311236,37.7738202
75б,Куйбишева вулиця,83049,47.9897835,37.7748907
86,Красна вулиця,83018,48.0450162,37.7353708
88,Красна вулиця,83018,48.0449021,37.7351541
42,Дагестанская улица,83020,47.9994278,37.6061998
8,Новокаховская улица,83020,48.0000686,37.6071252
90,Шевченка бульвар,83076,48.0100543,37.8615940
38,Куйбишева вулиця,83045,47.9833213,37.7852911
18,Іонова вулиця,83101,47.9753560,37.7913967
56,Михайловського вулиця,83020,48.0010798,37.6170834
62а,Азовська вулиця,83062,47.9667927,37.8116298
64,Азовська вулиця,83062,47.9669855,37.8109600
38б,Гірнича вулиця,83122,48.0406079,37.7497880
16,Осоавіахіму вулиця,83024,47.9592754,37.6597754
15,Осоавіахіму вулиця,83024,47.9586387,37.6595484
25,Бринька вулиця,83078,47.9216315,37.6781356
37,Бринька вулиця,83078,47.9199940,37.6779457
3,Бринька вулиця,83078,47.9208289,37.6774726
33,Бринька вулиця,83078,47.9204959,37.6782749
1,Бринька вулиця,83078,47.9228420,37.6779568
1а,Бринька вулиця,83078,47.9231820,37.6780282
21,Бринька вулиця,83078,47.9178874,37.6770724
35,Бринька вулиця,83078,47.9203222,37.6779351
31,Бринька вулиця,83078,47.9206759,37.6780464
23,Бринька вулиця,83078,47.9221537,37.6781340
27,Бринька вулиця,83078,47.9213158,37.6782243
46,Бахметьєва вулиця,83117,47.9337235,37.6796972
24/1,Бахметьєва вулиця,83117,47.9411142,37.6774477
7,Камвольна вулиця,83078,47.9278619,37.6806768
5,Камвольна вулиця,83078,47.9279992,37.6806776
3,Камвольна вулиця,83078,47.9281139,37.6806363
1,Камвольна вулиця,83078,47.9282470,37.6806167
6б,Бахметьєва вулиця,83117,47.9410058,37.6762458
29,Бринька вулиця,83078,47.9210410,37.6780952
1,Березівська вулиця,83078,47.9223353,37.6763654
1,Богданова вулиця,83078,47.9221912,37.6739137
1,Героїв Міуса вулиця,83078,47.9222931,37.6757406
1,Красикова вулиця,83078,47.9159595,37.6761273
1,Леонідова вулиця,83078,47.9178857,37.6761122
1,Приазовська вулиця,83078,47.9153319,37.6763675
1,Проїздна вулиця,83078,47.9194544,37.6759879
1,Тихоокеанський провулок,83078,47.9169151,37.6760034
1,Турунська вулиця,83078,47.9215106,37.6718772
10,Березівська вулиця,83078,47.9226178,37.6759444
10,Богданова вулиця,83078,47.9214641,37.6732623
10,Бринька вулиця,83078,47.9211998,37.6768541
10,Героїв Міуса вулиця,83078,47.9214776,37.6750010
10,Красикова вулиця,83078,47.9161812,37.6748118
10,Леонідова вулиця,83078,47.9181519,37.6753057
10,Приазовська вулиця,83078,47.9150798,37.6739177
10,Проїздна вулиця,83078,47.9195565,37.6733888
10,Тихоокеанський провулок,83078,47.9171934,37.6751864
11,Богданова вулиця,83078,47.9207284,37.6735068
11,Бринька вулиця,83078,47.9193664,37.6771296
11,Героїв Міуса вулиця,83078,47.9210836,37.6754203
11,Красикова вулиця,83078,47.9158097,37.6744237
11,Леонідова вулиця,83078,47.9176985,37.6740763
11,Приазовська вулиця,83078,47.9150869,37.6737063
11,Проїздна вулиця,83078,47.9193499,37.6745845
11,Тихоокеанський провулок,83078,47.9167610,37.6741274
11,Турунська вулиця,83078,47.9207038,37.6717911
12,Березівська вулиця,83078,47.9225956,37.6756113
12,Богданова вулиця,83078,47.9212751,37.6732248
12,Бринька вулиця,83078,47.9209152,37.6768054
12,Героїв Міуса вулиця,83078,47.9213497,37.6749937
12,Красикова вулиця,83078,47.9161660,37.6744554
12,Леонідова вулиця,83078,47.9181741,37.6748668
12,Приазовська вулиця,83078,47.9152864,37.6734389
12,Проїздна вулиця,83078,47.9195293,37.6725098
12,Тихоокеанський провулок,83078,47.9171600,37.6748828
13,Богданова вулиця,83078,47.9206124,37.6734897
13,Бринька вулиця,83078,47.9189951,37.6771150
13,Героїв Міуса вулиця,83078,47.9208785,37.6753792
13,Красикова вулиця,83078,47.9157702,37.6739872
13,Леонідова вулиця,83078,47.9176580,37.6734481
13,Приазовська вулиця,83078,47.9149149,37.6765260
13,Проїздна вулиця,83078,47.9193109,37.6743336
13,Тихоокеанський провулок,83078,47.9167490,37.6735733
13,Турунська вулиця,83078,47.9205656,37.6717419
14,Березівська вулиця,83078,47.9225758,37.6751749
14,Бринька вулиця,83078,47.9207057,37.6767571
14,Героїв Міуса вулиця,83078,47.9211786,37.6749375
14,Красикова вулиця,83078,47.9161660,37.6739947
14,Леонідова вулиця,83078,47.9181428,37.6746774
14,Проїздна вулиця,83078,47.9194856,37.6722001
14,Тихоокеанський провулок,83078,47.9171306,37.6746246
15,Богданова вулиця,83078,47.9200800,37.6733797
15,Бринька вулиця,83078,47.9188726,37.6770833
15,Героїв Міуса вулиця,83078,47.9206478,37.6752927
15,Красикова вулиця,83078,47.9157095,37.6736761
15,Леонідова вулиця,83078,47.9176033,37.6725826
15,Приазовська вулиця,83078,47.9148217,37.6760775
15,Проїздна вулиця,83078,47.9192831,37.6740685
15,Турунська вулиця,83078,47.9204318,37.6717142
16,Березівська вулиця,83078,47.9225389,37.6748501
16,Богданова вулиця,83078,47.9209961,37.6731575
16,Бринька вулиця,83078,47.9203989,37.6766786
16,Героїв Міуса вулиця,83078,47.9210419,37.6748889
16,Красикова вулиця,83078,47.9161022,37.6735719
16,Леонідова вулиця,83078,47.9180336,37.6744358
16,Проїздна вулиця,83078,47.9194655,37.6719535
16,Тихоокеанський провулок,83078,47.9171124,37.6742696
17,Богданова вулиця,83078,47.9197765,37.6733691
17,Бринька вулиця,83078,47.9186699,37.6770385
17,Героїв Міуса вулиця,83078,47.9204851,37.6752853
17,Приазовська вулиця,83078,47.9147812,37.6758600
17,Проїздна вулиця,83078,47.9192573,37.6737768
17,Турунська вулиця,83078,47.9202965,37.6717110
18,Березівська вулиця,83078,47.9225252,37.6745307
18,Богданова вулиця,83078,47.9208378,37.6731161
18,Бринька вулиця,83078,47.9203058,37.6766650
18,Героїв Міуса вулиця,83078,47.9207591,37.6748302
18,Леонідова вулиця,83078,47.9180983,37.6742031
18,Проїздна вулиця,83078,47.9194449,37.6716830
18,Тихоокеанський провулок,83078,47.9170821,37.6740205
19,Бринька вулиця,83078,47.9183312,37.6770698
19,Героїв Міуса вулиця,83078,47.9202930,37.6752639
19,Приазовська вулиця,83078,47.9147914,37.6755564
19,Проїздна вулиця,83078,47.9192566,37.6735372
19,Турунська вулиця,83078,47.9201827,37.6716918
2,Березівська вулиця,83078,47.9226755,37.6773165
2,Богданова вулиця,83078,47.9220945,37.6733957
2,Бринька вулиця,83078,47.9231392,37.6773965
2,Героїв Міуса вулиця,83078,47.9222587,37.6751886
2,Красикова вулиця,83078,47.9163087,37.6764113
2,Леонідова вулиця,83078,47.9182764,37.6765200
2,Приазовська вулиця,83078,47.9153126,37.6761168
2,Проїздна вулиця,83078,47.9198045,37.6761714
2,Тихоокеанський провулок,83078,47.9172866,37.6765125
20,Березівська вулиця,83078,47.9224635,37.6741796
20,Богданова вулиця,83078,47.9205666,37.6730230
20,Бринька вулиця,83078,47.9200103,37.6765910
20,Героїв Міуса вулиця,83078,47.9204578,37.6747767
20,Леонідова вулиця,83078,47.9180639,37.6738225
20,Тихоокеанський провулок,83078,47.9170628,37.6736851
21,Героїв Міуса вулиця,83078,47.9199007,37.6751438
21,Приазовська вулиця,83078,47.9147964,37.6752332
21,Проїздна вулиця,83078,47.9192429,37.6730096
21,Турунська вулиця,83078,47.9200589,37.6717206
22,Березівська вулиця,83078,47.9224721,37.6738564
22,Богданова вулиця,83078,47.9204335,37.6729814
22,Бринька вулиця,83078,47.9198528,37.6765409
22,Героїв Міуса вулиця,83078,47.9203347,37.6747116
22,Леонідова вулиця,83078,47.9180083,37.6733836
22,Тихоокеанський провулок,83078,47.9170507,37.6733544
23,Героїв Міуса вулиця,83078,47.9197028,37.6750771
23,Проїздна вулиця,83078,47.9186847,37.6731719
23,Турунська вулиця,83078,47.9197887,37.6714982
24,Березівська вулиця,83078,47.9224397,37.6735580
24,Богданова вулиця,83078,47.9202954,37.6729579
24,Бринька вулиця,83078,47.9194809,37.6765185
24,Героїв Міуса вулиця,83078,47.9201558,37.6746521
24,Леонідова вулиця,83078,47.9179738,37.6729299
25,Проїздна вулиця,83078,47.9185123,37.6728025
26,Березівська вулиця,83078,47.9224184,37.6731344
26,Богданова вулиця,83078,47.9200534,37.6728456
26,Бринька вулиця,83078,47.9187148,37.6765336
26,Героїв Міуса вулиця,83078,47.9200084,37.6746272
26,Леонідова вулиця,83078,47.9179111,37.6726733
27,Проїздна вулиця,83078,47.9191993,37.6727554
28,Березівська вулиця,83078,47.9224028,37.6727984
28,Богданова вулиця,83078,47.9199131,37.6728696
28,Бринька вулиця,83078,47.9178989,37.6764838
28,Леонідова вулиця,83078,47.9179130,37.6724210
29,Проїздна вулиця,83078,47.9191901,37.6724703
3,Березівська вулиця,83078,47.9221535,37.6743514
3,Богданова вулиця,83078,47.9217264,37.6737834
3,Героїв Міуса вулиця,83078,47.9219901,37.6756375
3,Красикова вулиця,83078,47.9159028,37.6758056
3,Леонідова вулиця,83078,47.9178473,37.6756455
3,Приазовська вулиця,83078,47.9152823,37.6758766
3,Проїздна вулиця,83078,47.9194161,37.6756794
3,Тихоокеанський провулок,83078,47.9168878,37.6756773
3,Турунська вулиця,83078,47.9213679,37.6718690
30,Березівська вулиця,83078,47.9223759,37.6724223
30,Бринька вулиця,83078,47.9176924,37.6765049
30,Леонідова вулиця,83078,47.9178715,37.6721476
31,Проїздна вулиця,83078,47.9191700,37.6722012
32,Березівська вулиця,83078,47.9223541,37.6721097
32,Бринька вулиця,83078,47.9168472,37.6764550
32,Леонідова вулиця,83078,47.9178574,37.6718532
33,Проїздна вулиця,83078,47.9191363,37.6719332
34,Бринька вулиця,83078,47.9165567,37.6764883
34,Леонідова вулиця,83078,47.9178402,37.6715042
35,Проїздна вулиця,83078,47.9191413,37.6716566
36,Бринька вулиця,83078,47.9160283,37.6764868
36,Леонідова вулиця,83078,47.9178128,37.6711811
37,Проїздна вулиця,83078,47.9191099,37.6712816
38,Бринька вулиця,83078,47.9154381,37.6765034
39,Бринька вулиця,83078,47.9192651,37.6779581
39,Проїздна вулиця,83078,47.9190913,37.6710200
4,Березівська вулиця,83078,47.9226599,37.6769170
4,Бринька вулиця,83078,47.9221579,37.6771338
4,Героїв Міуса вулиця,83078,47.9220860,37.6751345
4,Красикова вулиця,83078,47.9162925,37.6760654
4,Леонідова вулиця,83078,47.9182464,37.6761991
4,Приазовська вулиця,83078,47.9152601,37.6755278
4,Проїздна вулиця,83078,47.9197694,37.6759256
4,Тихоокеанський провулок,83078,47.9172470,37.6761742
41,Бринька вулиця,83078,47.9188479,37.6775583
43,Бринька вулиця,83078,47.9187263,37.6776951
45,Бринька вулиця,83078,47.9183889,37.6776421
5,Березівська вулиця,83078,47.9220938,37.6729984
5,Богданова вулиця,83078,47.9214970,37.6737300
5,Бринька вулиця,83078,47.9203296,37.6772489
5,Героїв Міуса вулиця,83078,47.9216852,37.6756108
5,Красикова вулиця,83078,47.9158926,37.6754718
5,Леонідова вулиця,83078,47.9177926,37.6752030
5,Приазовська вулиця,83078,47.9152337,37.6753042
5,Проїздна вулиця,83078,47.9193985,37.6754239
5,Тихоокеанський провулок,83078,47.9168523,37.6753254
5,Турунська вулиця,83078,47.9212069,37.6718647
6,Березівська вулиця,83078,47.9226968,37.6765553
6,Богданова вулиця,83078,47.9218092,37.6733252
6,Бринька вулиця,83078,47.9217043,37.6769344
6,Героїв Міуса вулиця,83078,47.9219450,37.6751484
6,Красикова вулиця,83078,47.9162865,37.6756485
6,Леонідова вулиця,83078,47.9182268,37.6759445
6,Приазовська вулиця,83078,47.9151962,37.6750263
6,Проїздна вулиця,83078,47.9196628,37.6745493
6,Тихоокеанський провулок,83078,47.9172288,37.6758705
7,Березівська вулиця,83078,47.9220665,37.6725558
7,Богданова вулиця,83078,47.9212545,37.6736616
7,Бринька вулиця,83078,47.9198767,37.6771467
7,Героїв Міуса вулиця,83078,47.9215043,37.6755438
7,Красикова вулиця,83078,47.9158734,37.6750580
7,Леонідова вулиця,83078,47.9177603,37.6746940
7,Приазовська вулиця,83078,47.9151649,37.6747816
7,Проїздна вулиця,83078,47.9193798,37.6751020
7,Тихоокеанський провулок,83078,47.9168098,37.6751244
7,Турунська вулиця,83078,47.9210873,37.6718178
8,Березівська вулиця,83078,47.9226340,37.6763106
8,Богданова вулиця,83078,47.9216366,37.6733156
8,Бринька вулиця,83078,47.9214925,37.6769549
8,Героїв Міуса вулиця,83078,47.9216659,37.6750566
8,Красикова вулиця,83078,47.9161964,37.6752393
8,Леонідова вулиця,83078,47.9181894,37.6755972
8,Приазовська вулиця,83078,47.9151386,37.6745264
8,Проїздна вулиця,83078,47.9196485,37.6737271
8,Тихоокеанський провулок,83078,47.9172045,37.6755021
9,Березівська вулиця,83078,47.9220442,37.6720197
9,Богданова вулиця,83078,47.9209839,37.6735816
9,Бринька вулиця,83078,47.9196100,37.6771445
9,Героїв Міуса вулиця,83078,47.9213796,37.6754976
9,Красикова вулиця,83078,47.9158491,37.6746986
9,Леонідова вулиця,83078,47.9177268,37.6743331
9,Приазовська вулиця,83078,47.9151092,37.6742742
9,Проїздна вулиця,83078,47.9193491,37.6748405
9,Тихоокеанський провулок,83078,47.9167875,37.6746849
9,Турунська вулиця,83078,47.9208806,37.6717911
10,Катасанова вулиця,83078,47.9177737,37.6844064
101,Камвольна вулиця,83078,47.9177598,37.6809376
103,Камвольна вулиця,83078,47.9175280,37.6809210
105,Камвольна вулиця,83078,47.9173883,37.6808983
107,Камвольна вулиця,83078,47.9173114,37.6815916
109,Камвольна вулиця,83078,47.9170299,37.6814344
11,Камвольна вулиця,83078,47.9268345,37.6810156
111,Камвольна вулиця,83078,47.9170594,37.6809602
113,Камвольна вулиця,83078,47.9168761,37.6808545
113а,Камвольна вулиця,83078,47.9168458,37.6810871
115,Камвольна вулиця,83078,47.9150733,37.6807609
117,Камвольна вулиця,83078,47.9155633,37.6807367
119,Камвольна вулиця,83078,47.9156979,37.6807578
12,Катасанова вулиця,83078,47.9179727,37.6844405
121,Камвольна вулиця,83078,47.9158800,37.6808137
123,Камвольна вулиця,83078,47.9160765,37.6808168
125,Камвольна вулиця,83078,47.9162182,37.6807971
127,Камвольна вулиця,83078,47.9164318,37.6807820
129,Камвольна вулиця,83078,47.9166464,37.6808183
13,Камвольна вулиця,83078,47.9266875,37.6810753
14,Катасанова вулиця,83078,47.9183034,37.6845067
15,Камвольна вулиця,83078,47.9264063,37.6811618
16,Катасанова вулиця,83078,47.9186126,37.6846584
17,Камвольна вулиця,83078,47.9261637,37.6812633
18,Катасанова вулиця,83078,47.9187701,37.6847011
19,Камвольна вулиця,83078,47.9258811,37.6813188
2,Катасанова вулиця,83078,47.9172361,37.6835228
20,Катасанова вулиця,83078,47.9190921,37.6847481
21,Камвольна вулиця,83078,47.9257430,37.6813743
22,Катасанова вулиця,83078,47.9193283,37.6847160
23,Камвольна вулиця,83078,47.9256334,37.6813690
24,Катасанова вулиця,83078,47.9195043,37.6847225
25,Камвольна вулиця,83078,47.9255104,37.6814107
26,Катасанова вулиця,83078,47.9197276,37.6847246
27,Камвольна вулиця,83078,47.9254209,37.6814918
28,Катасанова вулиця,83078,47.9198866,37.6846029
29,Камвольна вулиця,83078,47.9251268,37.6815388
30,Катасанова вулиця,83078,47.9199738,37.6846690
31,Камвольна вулиця,83078,47.9249987,37.6815442
32,Катасанова вулиця,83078,47.9202931,37.6846477
33,Камвольна вулиця,83078,47.9247596,37.6807507
33а,Камвольна вулиця,83078,47.9247342,37.6817726
34,Катасанова вулиця,83078,47.9206566,37.6847097
35,Камвольна вулиця,83078,47.9245485,37.6807167
36,Катасанова вулиця,83078,47.9207569,37.6842034
37,Камвольна вулиця,83078,47.9243971,37.6807413
39,Камвольна вулиця,83078,47.9211140,37.6804234
4,Катасанова вулиця,83078,47.9170165,37.6840838
40,Камвольна вулиця,83078,47.9197712,37.6803729
41,Камвольна вулиця,83078,47.9215811,37.6802485
41а,Камвольна вулиця,83078,47.9220945,37.6803458
43,Камвольна вулиця,83078,47.9224155,37.6803535
45,Камвольна вулиця,83078,47.9241744,37.6807461
47,Камвольна вулиця,83078,47.9240327,37.6807704
49,Камвольна вулиця,83078,47.9235367,37.6808497
51,Камвольна вулиця,83078,47.9234298,37.6808477
53,Камвольна вулиця,83078,47.9230700,37.6808873
55,Камвольна вулиця,83078,47.9229168,37.6808788
57,Камвольна вулиця,83078,47.9227032,37.6808812
59,Камвольна вулиця,83078,47.9226030,37.6808918
6,Катасанова вулиця,83078,47.9174287,37.6843487
61,Камвольна вулиця,83078,47.9224917,37.6811017
63,Камвольна вулиця,83078,47.9221405,37.6811380
65,Камвольна вулиця,83078,47.9219359,37.6809979
67,Камвольна вулиця,83078,47.9216880,37.6808484
69,Камвольна вулиця,83078,47.9213458,37.6812545
71,Камвольна вулиця,83078,47.9213068,37.6816106
73,Камвольна вулиця,83078,47.9212893,37.6818040
75,Камвольна вулиця,83078,47.9212831,37.6819806
77,Камвольна вулиця,83078,47.9212720,37.6821755
8,Катасанова вулиця,83078,47.9176392,37.6844021
81,Камвольна вулиця,83078,47.9199731,37.6818866
83,Камвольна вулиця,83078,47.9200187,37.6812071
85,Камвольна вулиця,83078,47.9197842,37.6811301
87,Камвольна вулиця,83078,47.9195863,37.6811303
89,Камвольна вулиця,83078,47.9194478,37.6811216
9,Камвольна вулиця,83078,47.9269417,37.6809899
91,Камвольна вулиця,83078,47.9191778,37.6811173
93,Камвольна вулиця,83078,47.9190301,37.6810689
95,Камвольна вулиця,83078,47.9187497,37.6810070
97,Камвольна вулиця,83078,47.9185463,37.6809949
99,Камвольна вулиця,83078,47.9183287,37.6810086
34,Бахметьєва вулиця,83117,47.9357479,37.6809705
14,Богданова вулиця,83078,47.9211663,37.6731961
4,Богданова вулиця,83078,47.9219340,37.6733980
10,Поченкова вулиця,83117,47.9430074,37.6788296
12,Поченкова вулиця,83117,47.9430090,37.6793012
14,Поченкова вулиця,83117,47.9429836,37.6797436
16,Поченкова вулиця,83117,47.9429890,37.6800023
18,Поченкова вулиця,83117,47.9429927,37.6801645
2,Поченкова вулиця,83117,47.9429664,37.6777101
20,Поченкова вулиця,83117,47.9429350,37.6807120
22,Поченкова вулиця,83117,47.9429345,37.6809293
24,Поченкова вулиця,83117,47.9427479,37.6815667
26,Поченкова вулиця,83117,47.9426111,37.6819378
28,Поченкова вулиця,83117,47.9425328,37.6822166
2а,Поченкова вулиця,83117,47.9429866,37.6773505
2б,Поченкова вулиця,83117,47.9427602,37.6773166
2б/1,Поченкова вулиця,83117,47.9425770,37.6771606
30,Поченкова вулиця,83117,47.9421149,37.6831499
32,Поченкова вулиця,83117,47.9420803,37.6834614
34,Поченкова вулиця,83117,47.9417991,37.6840152
36,Поченкова вулиця,83117,47.9412346,37.6848950
36а,Поченкова вулиця,83117,47.9413557,37.6847619
37,Поченкова вулиця,83117,47.9410407,37.6851636
38,Поченкова вулиця,83117,47.9406309,37.6850633
39,Поченкова вулиця,83117,47.9410060,37.6847152
4,Поченкова вулиця,83117,47.9429666,37.6779088
40,Поченкова вулиця,83117,47.9406937,37.6860934
40а,Поченкова вулиця,83117,47.9408593,37.6858745
41,Поченкова вулиця,83117,47.9405548,37.6861718
42,Поченкова вулиця,83117,47.9403553,37.6863187
43,Поченкова вулиця,83117,47.9401374,37.6863981
44,Поченкова вулиця,83117,47.9399766,37.6864518
45,Поченкова вулиця,83117,47.9396400,37.6865787
46,Поченкова вулиця,83117,47.9394505,37.6866967
47,Поченкова вулиця,83117,47.9393275,37.6868516
48,Поченкова вулиця,83117,47.9391324,37.6869834
49,Поченкова вулиця,83117,47.9390363,37.6859759
50,Поченкова вулиця,83117,47.9389022,37.6881582
50а,Поченкова вулиця,83117,47.9389927,37.6871098
51,Поченкова вулиця,83117,47.9388601,37.6867670
52,Поченкова вулиця,83117,47.9388401,37.6871767
52а,Поченкова вулиця,83117,47.9386764,37.6871894
53,Поченкова вулиця,83117,47.9381817,37.6876271
54,Поченкова вулиця,83117,47.9380477,37.6875779
55,Поченкова вулиця,83117,47.9379329,37.6875085
6,Поченкова вулиця,83117,47.9429846,37.6783418
8,Поченкова вулиця,83117,47.9428037,37.6785722
3,Жарикова вулиця,83117,47.9428113,37.6933512
3а,Жарикова вулиця,83117,47.9428171,37.6927477
4,Висоцького вулиця,83117,47.9445887,37.6953017
5,Жарикова вулиця,83117,47.9427748,37.6940574
7,Жарикова вулиця,83117,47.9424222,37.6945481
8а,Жарикова вулиця,83117,47.9433571,37.6942492
11,Жарикова вулиця,83117,47.9409544,37.6919809
13,Жарикова вулиця,83117,47.9409182,37.6926871
15,Жарикова вулиця,83117,47.9405653,37.6931777
15а,Жарикова вулиця,83117,47.9402537,37.6928700
19,Жарикова вулиця,83117,47.9395929,37.6925971
21,Жарикова вулиця,83117,47.9391922,37.6922174
23,Жарикова вулиця,83117,47.9388147,37.6927244
25,Жарикова вулиця,83117,47.9393013,37.6934316
27,Жарикова вулиця,83117,47.9399777,37.6934544
1,Знаменська вулиця,83038,47.9332866,37.6568122
1,Катовіцька вулиця,83038,47.9338888,37.6579464
10,Знаменська вулиця,83038,47.9311903,37.6610371
10,Катовіцька вулиця,83038,47.9333961,37.6583636
100,Знаменська вулиця,83038,47.9268818,37.6752169
100,Катовіцька вулиця,83038,47.9295796,37.6711833
101,Знаменська вулиця,83038,47.9287841,37.6705279
101,Катовіцька вулиця,83038,47.9295439,37.6727193
102,Знаменська вулиця,83038,47.9267273,37.6757015
102,Катовіцька вулиця,83038,47.9294954,37.6714692
103,Знаменська вулиця,83038,47.9287279,37.6706911
103,Катовіцька вулиця,83038,47.9294250,37.6730826
104,Знаменська вулиця,83038,47.9266450,37.6759766
104,Катовіцька вулиця,83038,47.9293466,37.6719048
104а,Катовіцька вулиця,83038,47.9291204,37.6717120
105,Знаменська вулиця,83038,47.9286692,37.6708786
105,Катовіцька вулиця,83038,47.9293258,37.6733995
105а,Знаменська вулиця,83038,47.9289914,37.6710941
106,Знаменська вулиця,83038,47.9265748,37.6761714
106,Катовіцька вулиця,83038,47.9292035,37.6724524
107,Знаменська вулиця,83038,47.9284986,37.6712584
107,Катовіцька вулиця,83038,47.9292554,37.6735751
108,Знаменська вулиця,83038,47.9265054,37.6763748
108,Катовіцька вулиця,83038,47.9291216,37.6726556
109,Знаменська вулиця,83038,47.9284293,37.6716165
109,Катовіцька вулиця,83038,47.9291919,37.6739264
11,Знаменська вулиця,83038,47.9327379,37.6574341
11,Катовіцька вулиця,83038,47.9335869,37.6592635
110,Знаменська вулиця,83038,47.9264255,37.6766049
110,Катовіцька вулиця,83038,47.9290512,37.6729070
111,Знаменська вулиця,83038,47.9283697,37.6717626
111,Катовіцька вулиця,83038,47.9290778,37.6743534
112,Знаменська вулиця,83038,47.9263774,37.6768789
112,Катовіцька вулиця,83038,47.9289912,37.6731257
113,Знаменська вулиця,83038,47.9283094,37.6719659
113,Катовіцька вулиця,83038,47.9289970,37.6745566
114,Знаменська вулиця,83038,47.9263358,37.6770761
114,Катовіцька вулиця,83038,47.9289151,37.6735441
115,Знаменська вулиця,83038,47.9282025,37.6722630
115,Катовіцька вулиця,83038,47.9289312,37.6747392
116,Знаменська вулиця,83038,47.9260191,37.6773850
116,Катовіцька вулиця,83038,47.9287154,37.6739712
117,Знаменська вулиця,83038,47.9280923,37.6725577
117,Катовіцька вулиця,83038,47.9288458,37.6750112
118,Знаменська вулиця,83038,47.9258153,37.6774683
118,Катовіцька вулиця,83038,47.9286058,37.6742983
119,Знаменська вулиця,83038,47.9280540,37.6727171
119,Катовіцька вулиця,83038,47.9287501,37.6754107
12,Знаменська вулиця,83038,47.9309102,37.6617954
12,Катовіцька вулиця,83038,47.9333189,37.6586047
120,Катовіцька вулиця,83038,47.9284916,37.6746135
121,Знаменська вулиця,83038,47.9279602,37.6730532
121,Катовіцька вулиця,83038,47.9286446,37.6757755
122,Катовіцька вулиця,83038,47.9284316,37.6749441
123,Знаменська вулиця,83038,47.9279088,37.6732139
123,Катовіцька вулиця,83038,47.9285823,37.6759631
124,Катовіцька вулиця,83038,47.9283255,37.6752643
125,Знаменська вулиця,83038,47.9278614,37.6735293
125,Катовіцька вулиця,83038,47.9285437,37.6761936
126,Катовіцька вулиця,83038,47.9282722,37.6754920
127,Знаменська вулиця,83038,47.9277660,37.6737168
128,Катовіцька вулиця,83038,47.9281674,37.6757620
129,Знаменська вулиця,83038,47.9276347,37.6741916
13,Знаменська вулиця,83038,47.9326845,37.6576012
13,Катовіцька вулиця,83038,47.9335248,37.6594887
130,Катовіцька вулиця,83038,47.9280878,37.6760977
131,Знаменська вулиця,83038,47.9275685,37.6745606
132,Катовіцька вулиця,83038,47.9279851,37.6765007
133,Знаменська вулиця,83038,47.9274103,37.6749405
134,Катовіцька вулиця,83038,47.9274840,37.6767283
135,Знаменська вулиця,83038,47.9272928,37.6753983
137,Знаменська вулиця,83038,47.9271272,37.6758720
139,Знаменська вулиця,83038,47.9269460,37.6763614
14,Знаменська вулиця,83038,47.9308458,37.6619829
14,Катовіцька вулиця,83038,47.9332519,37.6588681
141,Знаменська вулиця,83038,47.9268310,37.6767705
143,Знаменська вулиця,83038,47.9267543,37.6770432
15,Знаменська вулиця,83038,47.9326425,37.6578001
15,Катовіцька вулиця,83038,47.9335416,37.6597499
16,Знаменська вулиця,83038,47.9307772,37.6621789
16,Катовіцька вулиця,83038,47.9331378,37.6592142
17,Знаменська вулиця,83038,47.9325981,37.6579095
17,Катовіцька вулиця,83038,47.9333327,37.6601957
18,Знаменська вулиця,83038,47.9307299,37.6623847
18,Катовіцька вулиця,83038,47.9330674,37.6595327
19,Знаменська вулиця,83038,47.9325023,37.6582461
19,Катовіцька вулиця,83038,47.9332047,37.6604919
2,Знаменська вулиця,83038,47.9317716,37.6592646
2,Катовіцька вулиця,83038,47.9334792,37.6571633
20,Знаменська вулиця,83038,47.9306174,37.6626635
20,Катовіцька вулиця,83038,47.9329716,37.6598324
21,Знаменська вулиця,83038,47.9323904,37.6585750
21,Катовіцька вулиця,83038,47.9331677,37.6606589
22,Знаменська вулиця,83038,47.9305749,37.6629448
22,Катовіцька вулиця,83038,47.9328747,37.6601630
23,Знаменська вулиця,83038,47.9322721,37.6588686
23,Катовіцька вулиця,83038,47.9330823,37.6609292
24,Знаменська вулиця,83038,47.9304892,37.6631701
24,Катовіцька вулиця,83038,47.9327916,37.6604109
25,Знаменська вулиця,83038,47.9322271,37.6591657
25,Катовіцька вулиця,83038,47.9329831,37.6612547
26,Знаменська вулиця,83038,47.9303963,37.6633904
26,Катовіцька вулиця,83038,47.9327155,37.6607089
27,Знаменська вулиця,83038,47.9321210,37.6594352
27,Катовіцька вулиця,83038,47.9328493,37.6615801
28,Знаменська вулиця,83038,47.9303221,37.6636522
28,Катовіцька вулиця,83038,47.9325366,37.6611600
29,Знаменська вулиця,83038,47.9320154,37.6597743
29,Катовіцька вулиця,83038,47.9328216,37.6618556
3,Знаменська вулиця,83038,47.9329822,37.6564781
3,Катовіцька вулиця,83038,47.9338571,37.6581001
30,Знаменська вулиця,83038,47.9301931,37.6641283
30,Катовіцька вулиця,83038,47.9324928,37.6614132
31,Знаменська вулиця,83038,47.9318810,37.6601644
31,Катовіцька вулиця,83038,47.9327501,37.6621036
32,Знаменська вулиця,83038,47.9300382,37.6647322
32,Катовіцька вулиця,83038,47.9324536,37.6616232
33,Знаменська вулиця,83038,47.9317737,37.6604880
33,Катовіцька вулиця,83038,47.9327313,37.6623062
34,Знаменська вулиця,83038,47.9299443,37.6650147
34,Катовіцька вулиця,83038,47.9322770,37.6621828
35,Знаменська вулиця,83038,47.9316307,37.6609625
35,Катовіцька вулиця,83038,47.9325078,37.6628767
36,Знаменська вулиця,83038,47.9298929,37.6653410
36,Катовіцька вулиця,83038,47.9321247,37.6626271
37,Знаменська вулиця,83038,47.9314386,37.6614911
37,Катовіцька вулиця,83038,47.9323439,37.6633244
38,Знаменська вулиця,83038,47.9296694,37.6658889
38,Катовіцька вулиця,83038,47.9320463,37.6629181
39,Знаменська вулиця,83038,47.9317933,37.6618768
39,Катовіцька вулиця,83038,47.9322482,37.6636052
4,Знаменська вулиця,83038,47.9316738,37.6596013
4,Катовіцька вулиця,83038,47.9336472,37.6574734
40,Знаменська вулиця,83038,47.9295307,37.6663468
40,Катовіцька вулиця,83038,47.9319817,37.6631024
41,Знаменська вулиця,83038,47.9313284,37.6619965
41,Катовіцька вулиця,83038,47.9322078,37.6638307
42,Знаменська вулиця,83038,47.9294556,37.6665244
42,Катовіцька вулиця,83038,47.9319171,37.6633124
43,Знаменська вулиця,83038,47.9312430,37.6622858
43,Катовіцька вулиця,83038,47.9321744,37.6641269
44,Знаменська вулиця,83038,47.9293194,37.6670858
44,Катовіцька вулиця,83038,47.9318514,37.6635948
45,Знаменська вулиця,83038,47.9311553,37.6625940
45,Катовіцька вулиця,83038,47.9320786,37.6642801
46,Знаменська вулиця,83038,47.9292672,37.6673062
46,Катовіцька вулиця,83038,47.9317821,37.6637997
47,Знаменська вулиця,83038,47.9310947,37.6628343
47,Катовіцька вулиця,83038,47.9319920,37.6645195
48,Знаменська вулиця,83038,47.9292027,37.6675314
48,Катовіцька вулиця,83038,47.9316841,37.6640959
49,Знаменська вулиця,83038,47.9310105,37.6631606
49,Катовіцька вулиця,83038,47.9318582,37.6651170
5,Знаменська вулиця,83038,47.9329224,37.6567735
5,Катовіцька вулиця,83038,47.9338148,37.6583876
50,Знаменська вулиця,83038,47.9289987,37.6681403
50,Катовіцька вулиця,83038,47.9316102,37.6643111
51,Знаменська вулиця,83038,47.9309026,37.6634653
51,Катовіцька вулиця,83038,47.9316805,37.6656026
52,Катовіцька вулиця,83038,47.9315133,37.6646383
53,Знаменська вулиця,83038,47.9307982,37.6637494
53,Катовіцька вулиця,83038,47.9315699,37.6659710
54,Катовіцька вулиця,83038,47.9314383,37.6648019
55,Знаменська вулиця,83038,47.9307215,37.6639552
55,Катовіцька вулиця,83038,47.9314440,37.6663310
56,Катовіцька вулиця,83038,47.9314037,37.6650532
57,Знаменська вулиця,83038,47.9306281,37.6642566
57,Катовіцька вулиця,83038,47.9313414,37.6667012
58,Катовіцька вулиця,83038,47.9313022,37.6653115
59,Знаменська вулиця,83038,47.9305219,37.6646552
59,Катовіцька вулиця,83038,47.9312179,37.6670938
6,Знаменська вулиця,83038,47.9316045,37.6598107
6,Катовіцька вулиця,83038,47.9335651,37.6578051
60,Знаменська вулиця,83038,47.9289351,37.6684458
60,Катовіцька вулиця,83038,47.9312076,37.6656818
61,Знаменська вулиця,83038,47.9304676,37.6649470
61,Катовіцька вулиця,83038,47.9311474,37.6674539
62,Знаменська вулиця,83038,47.9288086,37.6688257
62,Катовіцька вулиця,83038,47.9311118,37.6659935
63,Знаменська вулиця,83038,47.9303431,37.6652561
63,Катовіцька вулиця,83038,47.9310667,37.6677450
64,Знаменська вулиця,83038,47.9287189,37.6690900
64,Катовіцька вулиця,83038,47.9310668,37.6662552
65,Знаменська вулиця,83038,47.9302594,37.6654894
65,Катовіцька вулиця,83038,47.9310185,37.6679161
66,Знаменська вулиця,83038,47.9284921,37.6697743
66,Катовіцька вулиця,83038,47.9309849,37.6664600
67,Знаменська вулиця,83038,47.9301919,37.6657589
67,Катовіцька вулиця,83038,47.9312587,37.6682417
68,Знаменська вулиця,83038,47.9284195,37.6699715
68,Катовіцька вулиця,83038,47.9308995,37.6668045
69,Знаменська вулиця,83038,47.9301065,37.6660327
69,Катовіцька вулиця,83038,47.9309289,37.6682876
7,Знаменська вулиця,83038,47.9328873,37.6570429
7,Катовіцька вулиця,83038,47.9337492,37.6586081
70,Знаменська вулиця,83038,47.9282432,37.6705401
70,Катовіцька вулиця,83038,47.9304992,37.6665548
71,Знаменська вулиця,83038,47.9300476,37.6662597
71,Катовіцька вулиця,83038,47.9307783,37.6685832
72,Знаменська вулиця,83038,47.9281152,37.6710722
74а,Катовіцька вулиця,83038,47.9304107,37.6669227
73,Знаменська вулиця,83038,47.9299249,37.6666810
73,Катовіцька вулиця,83038,47.9307126,37.6687985
74,Знаменська вулиця,83038,47.9280393,37.6713351
74,Катовіцька вулиця,83038,47.9307880,37.6672126
75,Знаменська вулиця,83038,47.9298516,37.6669763
75,Катовіцька вулиця,83038,47.9306353,37.6690120
76,Знаменська вулиця,83038,47.9279936,37.6715081
76,Катовіцька вулиця,83038,47.9306584,37.6675501
77,Знаменська вулиця,83038,47.9297575,37.6672699
78,Знаменська вулиця,83038,47.9278949,37.6717857
78,Катовіцька вулиця,83038,47.9306144,37.6677126
79,Знаменська вулиця,83038,47.9296670,37.6675549
79,Катовіцька вулиця,83038,47.9304957,37.6694614
8,Знаменська вулиця,83038,47.9313666,37.6605237
8,Катовіцька вулиця,83038,47.9334554,37.6581531
80,Знаменська вулиця,83038,47.9278158,37.6720792
80,Катовіцька вулиця,83038,47.9305257,37.6680374
81,Знаменська вулиця,83038,47.9295563,37.6678916
81,Катовіцька вулиця,83038,47.9303999,37.6698454
82,Знаменська вулиця,83038,47.9277644,37.6722678
82,Катовіцька вулиця,83038,47.9304691,37.6682492
83,Знаменська вулиця,83038,47.9294715,37.6681214
83,Катовіцька вулиця,83038,47.9303400,37.6700864
84,Знаменська вулиця,83038,47.9277007,37.6724761
84,Катовіцька вулиця,83038,47.9303561,37.6685402
85,Знаменська вулиця,83038,47.9294056,37.6684503
85,Катовіцька вулиця,83038,47.9302211,37.6703947
86,Знаменська вулиця,83038,47.9275930,37.6727464
86,Катовіцька вулиця,83038,47.9303169,37.6687175
87,Знаменська вулиця,83038,47.9293024,37.6687697
87,Катовіцька вулиця,83038,47.9301484,37.6706582
88,Знаменська вулиця,83038,47.9274869,37.6731250
88,Катовіцька вулиця,83038,47.9302373,37.6689190
89,Знаменська вулиця,83038,47.9292262,37.6690521
89,Катовіцька вулиця,83038,47.9301311,37.6710594
9,Знаменська вулиця,83038,47.9328551,37.6571854
9,Катовіцька вулиця,83038,47.9336578,37.6589970
90,Знаменська вулиця,83038,47.9273817,37.6735159
90,Катовіцька вулиця,83038,47.9300918,37.6695200
91,Знаменська вулиця,83038,47.9291131,37.6692898
91,Катовіцька вулиця,83038,47.9300146,37.6711833
92,Знаменська вулиця,83038,47.9271452,37.6739153
92,Катовіцька вулиця,83038,47.9300238,37.6696819
93,Знаменська вулиця,83038,47.9290412,37.6695623
93,Катовіцька вулиця,83038,47.9299522,37.6714330
94,Знаменська вулиця,83038,47.9271003,37.6744510
94,Катовіцька вулиця,83038,47.9298531,37.6698747
95,Знаменська вулиця,83038,47.9289352,37.6698996
95,Катовіцька вулиця,83038,47.9298808,37.6717085
96,Знаменська вулиця,83038,47.9269681,37.6747335
96,Катовіцька вулиця,83038,47.9298496,37.6703448
97,Знаменська вулиця,83038,47.9288707,37.6701249
97,Катовіцька вулиця,83038,47.9297076,37.6721321
98,Знаменська вулиця,83038,47.9269558,37.6749332
98,Катовіцька вулиця,83038,47.9296685,37.6709147
99,Знаменська вулиця,83038,47.9288225,37.6703160
99,Катовіцька вулиця,83038,47.9296050,37.6724352
1,Електровозна вулиця,83038,47.9340646,37.6625339
10,Електровозна вулиця,83038,47.9345306,37.6596639
100,Електровозна вулиця,83038,47.9303887,37.6734890
102,Електровозна вулиця,83038,47.9303226,37.6737191
104,Електровозна вулиця,83038,47.9302272,37.6740528
106,Електровозна вулиця,83038,47.9301587,37.6741903
108,Електровозна вулиця,83038,47.9300332,37.6747407
110,Електровозна вулиця,83038,47.9299648,37.6749409
112,Електровозна вулиця,83038,47.9298304,37.6752081
114,Електровозна вулиця,83038,47.9297692,37.6754954
116,Електровозна вулиця,83038,47.9297283,37.6758378
12,Електровозна вулиця,83038,47.9344331,37.6599782
13,Електровозна вулиця,83038,47.9337376,37.6636639
14,Електровозна вулиця,83038,47.9343224,37.6601719
15,Електровозна вулиця,83038,47.9336388,37.6639938
16,Електровозна вулиця,83038,47.9342208,37.6606781
17,Електровозна вулиця,83038,47.9335377,37.6643311
18,Електровозна вулиця,83038,47.9340968,37.6610613
19,Електровозна вулиця,83024,47.9334455,37.6649606
2,Електровозна вулиця,83038,47.9346983,37.6583828
20,Електровозна вулиця,83038,47.9339018,37.6616941
21,Електровозна вулиця,83024,47.9332497,37.6655961
22,Електровозна вулиця,83038,47.9337057,37.6623191
24,Електровозна вулиця,83038,47.9335863,37.6627927
26,Електровозна вулиця,83038,47.9333550,37.6635219
28,Електровозна вулиця,83038,47.9332702,37.6638680
2а/1,Знаменська вулиця,83038,47.9312240,37.6564156
3,Електровозна вулиця,83038,47.9339816,37.6629139
30,Електровозна вулиця,83038,47.9331659,37.6641725
32,Електровозна вулиця,83038,47.9331038,37.6644123
34,Електровозна вулиця,83038,47.9330272,37.6646437
36,Електровозна вулиця,83038,47.9329422,37.6648876
38,Електровозна вулиця,83038,47.9328524,37.6652309
4,Електровозна вулиця,83038,47.9349145,37.6584898
40,Електровозна вулиця,83038,47.9328165,37.6653575
42,Електровозна вулиця,83038,47.9327170,37.6656924
44,Електровозна вулиця,83038,47.9325669,37.6661843
46,Електровозна вулиця,83038,47.9324804,37.6664512
48,Електровозна вулиця,83038,47.9323881,37.6668403
5,Електровозна вулиця,83038,47.9338713,37.6632340
50,Електровозна вулиця,83038,47.9322127,37.6672966
52,Електровозна вулиця,83038,47.9320996,37.6677185
54,Електровозна вулиця,83038,47.9319439,37.6682265
56,Електровозна вулиця,83038,47.9317627,37.6688360
58,Електровозна вулиця,83038,47.9317166,37.6689738
6,Електровозна вулиця,83038,47.9346927,37.6590635
60,Електровозна вулиця,83038,47.9316047,37.6693595
62,Електровозна вулиця,83038,47.9315448,37.6696144
64,Електровозна вулиця,83038,47.9314928,37.6697693
66,Електровозна вулиця,83038,47.9314282,37.6699880
68,Електровозна вулиця,83038,47.9313475,37.6701706
7,Електровозна вулиця,83038,47.9341710,37.6634449
70,Електровозна вулиця,83038,47.9313861,37.6704020
72,Електровозна вулиця,83038,47.9312592,37.6705229
74,Електровозна вулиця,83038,47.9312290,37.6706751
76,Електровозна вулиця,83038,47.9311066,37.6710599
78,Електровозна вулиця,83038,47.9310919,37.6713070
8,Електровозна вулиця,83038,47.9346075,37.6593715
80,Електровозна вулиця,83038,47.9309540,37.6716651
82,Електровозна вулиця,83038,47.9308888,37.6719292
84,Електровозна вулиця,83038,47.9308113,37.6721058
86,Електровозна вулиця,83038,47.9307436,37.6723310
88,Електровозна вулиця,83038,47.9305078,37.6721959
9,Електровозна вулиця,83038,47.9341104,37.6638948
90,Електровозна вулиця,83038,47.9303757,37.6721144
92,Електровозна вулиця,83038,47.9302158,37.6724783
94,Електровозна вулиця,83038,47.9304914,37.6727987
96,Електровозна вулиця,83038,47.9305716,37.6728583
98,Електровозна вулиця,83038,47.9304673,37.6732662
1,Свірського вулиця,83038,47.9290196,37.6550131
11,Свірського вулиця,83038,47.9288326,37.6562365
13,Свірського вулиця,83038,47.9291427,37.6566112
15,Свірського вулиця,83038,47.9291928,37.6571361
17,Свірського вулиця,83038,47.9295142,37.6566998
19,Свірського вулиця,83038,47.9302060,37.6561516
21,Свірського вулиця,83038,47.9301760,37.6569654
23,Свірського вулиця,83038,47.9298927,37.6565459
25,Свірського вулиця,83038,47.9303539,37.6571264
3,Свірського вулиця,83038,47.9291985,37.6559275
5,Свірського вулиця,83038,47.9298442,37.6557258
7,Свірського вулиця,83038,47.9299389,37.6561716
9,Свірського вулиця,83038,47.9294815,37.6563450
1,Поченкова вулиця,83117,47.9433626,37.6775575
11,Поченкова вулиця,83117,47.9432824,37.6792877
13,Поченкова вулиця,83117,47.9432930,37.6796293
15,Поченкова вулиця,83117,47.9433194,37.6799017
17,Поченкова вулиця,83117,47.9434839,37.6804149
19,Поченкова вулиця,83117,47.9433205,37.6806180
21,Поченкова вулиця,83117,47.9434797,37.6815138
23,Поченкова вулиця,83117,47.9434670,37.6817941
25,Поченкова вулиця,83117,47.9436209,37.6822144
27,Поченкова вулиця,83117,47.9434101,37.6824683
29,Поченкова вулиця,83117,47.9435113,37.6827452
3,Поченкова вулиця,83117,47.9432477,37.6777355
31,Поченкова вулиця,83117,47.9434583,37.6829814
5,Поченкова вулиця,83117,47.9432935,37.6780154
7,Поченкова вулиця,83117,47.9433109,37.6782943
9,Поченкова вулиця,83117,47.9432750,37.6786013
33,Поченкова вулиця,83117,47.9430282,37.6837023
435,Кирова улица,83020,48.0006395,37.6118456
12,Костянтинівська вулиця,83020,48.0021055,37.6127378
12,Бойченка вулиця,83020,48.0022722,37.6106137
10,Бойченка вулиця,83020,48.0019024,37.6105945
16,Костянтинівська вулиця,83020,48.0027355,37.6127726
67,Абакумова вулиця,83020,48.0016002,37.6179784
18,Бойченка вулиця,83020,48.0028558,37.6106407
71,Абакумова вулиця,83020,48.0019434,37.6172552
10,Костянтинівська вулиця,83020,48.0016762,37.6126850
55,Михайловського вулиця,83020,48.0017820,37.6170524
63,Абакумова вулиця,83020,48.0013009,37.6186532
14,Костянтинівська вулиця,83020,48.0025013,37.6127469
15,Костянтинівська вулиця,83020,48.0025301,37.6122316
13,Костянтинівська вулиця,83020,48.0021485,37.6116435
61,Абакумова вулиця,83020,48.0011691,37.6190311
58,Михайловського вулиця,83020,48.0013948,37.6173109
69,Абакумова вулиця,83020,48.0017688,37.6176817
53,Михайловського вулиця,83020,48.0015750,37.6168678
322,Кирова улица,83020,48.0013202,37.6126788
9,Бойченка вулиця,83020,48.0026658,37.6100468
14,Бойченка вулиця,83020,48.0021854,37.6110865
17,Костянтинівська вулиця,83020,48.0027627,37.6122600
9,Костянтинівська вулиця,83020,48.0018028,37.6120893
65,Абакумова вулиця,83020,48.0014512,37.6183027
60,Михайловського вулиця,83020,48.0016035,37.6175121
334,Кірова вулиця,83020,48.0020735,37.6043349
433,Кирова улица,83020,48.0006403,37.6127355
11,Костянтинівська вулиця,83020,48.0021832,37.6121385
324,Кирова улица,83020,48.0014313,37.6119274
328,Кирова улица,83020,48.0015282,37.6106154
80,Абакумова вулиця,83020,48.0031671,37.6147136
330,Кирова улица,83020,48.0015150,37.6086653
11,Благовлаштована вулиця,83058,47.9770124,37.8435978
29,230-ї Стрілецької Дивізії вулиця,83092,47.9877429,37.9171333
16,Бойченка вулиця,83020,48.0026438,37.6106077
35а,230-ї Стрілецької Дивізії вулиця,83092,47.9896090,37.9188145
14 к1,Ілліча проспект,83000-83490,48.0038372,37.8206203
44а,Бірюзова вулиця,83084,47.9834795,37.6469756
10а,60-річчя СРСР вулиця,83008,48.0081130,37.7390661
28а,230-ї Стрілецької Дивізії вулиця,83092,47.9884301,37.9169428
62,Красна вулиця,83018,48.0463853,37.7369494
74в,Богдана Хмельницького проспект,83087,48.0129855,37.7855548
79,Капітана Ратнікова вулиця,83003,47.9982562,37.8329562
8д/2,Капітана Ратнікова вулиця,83003,47.9997071,37.8292759
75,Капітана Ратнікова вулиця,83003,47.9982332,37.8326826
25,Леонтовича вулиця,83020,48.0055163,37.6037999
26,Леонтовича вулиця,83020,48.0055329,37.6035153
23,Леонтовича вулиця,83020,48.0053566,37.6037847
24,Леонтовича вулиця,83020,48.0053764,37.6034995
20,Леонтовича вулиця,83020,48.0051987,37.6034584
19,Леонтовича вулиця,83020,48.0051681,37.6037742
17,Леонтовича вулиця,83020,48.0050854,37.6037682
83,Капітана Ратнікова вулиця,83003,47.9985203,37.8336887
85,Капітана Ратнікова вулиця,83003,47.9985643,37.8339864
87а,Капітана Ратнікова вулиця,83003,47.9983357,37.8341380
71,Капітана Ратнікова вулиця,83003,47.9984734,37.8322671
65,Капітана Ратнікова вулиця,83003,47.9984720,37.8318527
53а,Капітана Ратнікова вулиця,83003,47.9982629,37.8308925
55а,Капітана Ратнікова вулиця,83003,47.9981813,37.8311228
22,Капітана Ратнікова вулиця,83003,47.9990135,37.8383164
24,Капітана Ратнікова вулиця,83003,47.9993860,37.8373588
26,Капітана Ратнікова вулиця,83003,47.9994126,37.8382871
28,Капітана Ратнікова вулиця,83003,47.9998002,37.8373088
30,Капітана Ратнікова вулиця,83003,47.9998217,37.8382414
59,Капітана Ратнікова вулиця,83003,47.9984834,37.8314247
77а,Капітана Ратнікова вулиця,83003,47.9985036,37.8329599
1,Заславського вулиця,830003,47.9954804,37.8343088
77А,Панфілова проспект,83096,48.0076714,37.7682332
2,Стратонавта Українського вулиця,83101,47.9763382,37.7921506
4,Стратонавта Українського вулиця,83101,47.9760931,37.7916853
3,Стратонавта Українського вулиця,83101,47.9763588,37.7913662
1,Стратонавта Українського вулиця,83101,47.9765976,37.7918100
14а,Ферганська вулиця,83030,47.9837438,37.8735007
10,Гранітна вулиця,283030,47.9865073,37.8778107
10,Нікопольська вулиця,830003,47.9964042,37.8335644
8,Нікопольська вулиця,830003,47.9961591,37.8335450
6,Нікопольська вулиця,830003,47.9958997,37.8335697
4,Нікопольська вулиця,830003,47.9957043,37.8335750
2,Нікопольська вулиця,830003,47.9954260,37.8336264
11,Заславського вулиця,830003,47.9966711,37.8343062
7,Заславського вулиця,830003,47.9961763,37.8342775
5,Заславського вулиця,830003,47.9959448,37.8342895
3,Заславського вулиця,830003,47.9957195,37.8342949
21,Кибальчича вулиця,283030,47.9862070,37.8764802
22,Кибальчича вулиця,238080,47.9862838,37.8764551
31 и,Сєченова вулиця,83000-83490,47.9926332,37.8584974
12,Римського-Корсакова вулиця,83085,47.9610035,37.8582779
46,Крюкова вулиця,83022,47.9701485,37.6062984
23,Трудової Алеї вулиця,83054,48.0458354,37.7809229
9,Трудової Алеї вулиця,83054,48.0447006,37.7812408
7,Трудової Алеї вулиця,83054,48.0446059,37.7811576
56,Криленка вулиця,83078,47.9257825,37.6690678
52а,Ілліча проспект,83003,48.0032000,37.8413996
61,Горького вулиця,83001,47.9941442,37.8076490
6б,Шевченка бульвар,83000-83490,48.0101739,37.8094706
1,Миру проспект,283050,48.0165290,37.7870454
74в,Богдана Хмельницького проспект,83087,48.0134691,37.7852348
4,Кобозєва вулиця,83000,47.9864582,37.8009773
