House number,Street name,Postal code,Latitude,Longitude
26,улица Декабристов,299008,44.5993075,33.4961746
19,Циолковского улица,99016,44.6363367,33.5449886
4А,1-я Бастионная улица,299004,44.6119072,33.5513574
2,Александра Косарева улица,299006,44.5774474,33.4616550
12,Виноградная улица,99016,44.6454481,33.5408342
57А,Октябрьской Революции проспект,299038,44.5902781,33.4608535
26,проспект Героев Сталинграда,299014,44.5840039,33.4380064
8Б,Казачья улица,299024,44.5659888,33.4171207
65,Софьи Перовской улица,299026,44.6600920,33.5555058
41,Южногородская улица,99013,44.6613701,33.5481971
1,улица Павла Корчагина,299014,44.5845970,33.4349092
63,проспект Героев Сталинграда,299059,44.5932057,33.4452400
1Б,улица Героев Бреста,299058,44.5782417,33.4461040
48,Большая Морская улица,299000,44.6035402,33.5225598
61,Софьи Перовской улица,299026,44.6608742,33.5534675
61,Софьи Перовской улица,299026,44.6608167,33.5536413
119,Генерала Острякова проспект,299040,44.5686450,33.5241267
12,Советская улица,299011,44.6101225,33.5244127
19,Нахимова проспект,99011,44.6122481,33.5208298
48,Большая Морская улица,299011,44.6035768,33.5227326
42,проспект Октябрьской Революции,299038,44.5891455,33.4605027
128,Генерала Острякова проспект,299040,44.5696868,33.5217128
29/1,Корабельная улица,299001,44.6097411,33.5407992
5В,улица Бориса Михайлова,299058,44.5826297,33.4416831
32,проспект Героев Сталинграда,299014,44.5842701,33.4398227
8,проспект Октябрьской Революции,299038,44.5937168,33.4515387
18,Рейдовая улица,299020,44.6371940,33.5192311
32,улица Ломоносова,299008,44.6060871,33.5143980
10,улица Воронина,299011,44.6118611,33.5212825
1,Александра Косарева улица,299006,44.5778430,33.4623897
1,Александра Косарева улица,299006,44.5778521,33.4623658
158А,Генерала Острякова проспект,299040,44.5646744,33.5242977
24,Октябрьской Революции проспект,299038,44.5924931,33.4551828
10А,Коммунистическая улица,299003,44.5942782,33.5126415
10А,Коммунистическая улица,299003,44.5944100,33.5131457
135,Генерала Острякова проспект,299000,44.5661100,33.5246057
67,Октябрьской Революции проспект,299038,44.5888411,33.4637182
89,Октябрьской Революции проспект,299038,44.5880674,33.4655714
1,Гранатная улица,299041,44.6090464,33.5659203
50,Большая Морская улица,299011,44.6022773,33.5228617
1/1,Фиолентовское шоссе,299053,44.5817971,33.4803883
1/1,Фиолентовское шоссе,299053,44.5816856,33.4804358
12,улица Вакуленчука,299053,44.5957386,33.4878860
"39, 9",Большая Морская улица,299011,44.6033547,33.5236295
22,Симферопольская улица,299008,44.5917722,33.5082231
34,Новороссийская улица,299011,44.6055447,33.5180860
3,Ластовая площадь,299024,44.6138087,33.5396322
8А,Портовая улица,299009,44.5942158,33.5268439
5Б,Рыбаков улица,299014,44.5811751,33.4322477
5,Патриса Лумумбы улица,299011,44.6090147,33.5201212
8,Павла Силаева улица,299055,44.5740892,33.5184099
3,4-я Бастионная улица,299011,44.5993347,33.5225798
41,Большая Морская улица,299011,44.6025920,33.5235979
32А,4-я Бастионная улица,299007,44.5944294,33.5208222
7А,Одесская улица,99000,44.6109095,33.5182140
17А,Леваневского улица,299002,44.6295751,33.5381625
74,улица Героев Севастополя,299001,44.6075000,33.5493500
1,улица Щербака,99011,44.6108085,33.5156991
25,Синопская улица,299001,44.6065306,33.5605296
28,Генерала Лебедя улица,299055,44.5593431,33.5323353
16,Адмирала Октябрьского,299011,44.6029034,33.5186272
15,улица Астана Кесаева,299038,44.5866514,33.4583698
15,улица Астана Кесаева,299038,44.5866035,33.4583401
16А,Индустриальная улица,299000,44.5642098,33.5121374
16А,Индустриальная улица,299000,44.5638395,33.5118517
67,проспект Октябрьской Революции,299026,44.5888644,33.4636567
2,50-letyia SSSR Square,99011,44.5981224,33.4895253
1,Ушакова площадь,299001,44.6007884,33.5233972
1,Фермерская улица,99002,44.6576638,33.5767607
14,Камышовое шоссе,99000,44.5577507,33.5033390
28/35,Индустриальная улица,299040,44.5565370,33.5149205
1/5,улица Надеждинцев,299001,44.6133658,33.5407808
"6,ряд 1,место 1",Фиолентовское шоссе,299053,44.5789098,33.4758477
1,Ревякина улица,99000,44.5960179,33.5320911
1,Ревякина улица,99000,44.5960949,33.5321209
29,Парковая улица,229057,44.5983656,33.4594844
5,Адмирала Перелешина набережная,299011,44.6166486,33.5170979
8,Большая Морская улица,299011,44.6094620,33.5206874
1,Адмирала Перелешина набережная,299011,44.6158852,33.5185656
3,Рыбаков улица,299014,44.5820595,33.4315905
51А,Победы проспект,299046,44.5852188,33.5627654
27,Столетовский,299038,44.5817006,33.4569111
76,Фиолентовское шоссе,299014,44.5341557,33.4545218
262/6,Генерала Острякова проспект,299055,44.5505937,33.5305390
128,Генерала Острякова проспект,299040,44.5695867,33.5218684
120,Генерала Острякова проспект,299040,44.5705440,33.5214034
105,СТ Эра-1,290026,44.5718679,33.5660823
10А,улица Астана Кесаева,299038,44.5884552,33.4537506
15,Нахимова проспект,299011,44.6129967,33.5215958
15,Нахимова проспект,299011,44.6129529,33.5215342
52,улица Ленина,299011,44.6062609,33.5267316
27,Столетовский проспект,299038,44.5815661,33.4571538
8,Советская улица,299011,44.6110097,33.5240069
2Б,Рабочая улица,299001,44.6106436,33.5403631
1А,Гранатная улица,299041,44.6085215,33.5654320
1/2,Гранатная улица,299041,44.6089797,33.5661247
16,Мореходная улица,299041,44.6139176,33.5607775
165,Мореходная улица,299041,44.6135648,33.5598544
75,улица Розы Люксембург,299001,44.6096286,33.5435966
66,улица Героев Севастополя,299001,44.6063177,33.5451793
66,улица Героев Севастополя,299001,44.6064075,33.5453523
27,улица Героев Севастополя,299001,44.6070267,33.5459290
67,улицаМатвея Воронина,299001,44.6068988,33.5448266
67,улицаМатвея Воронина,299001,44.6070783,33.5448239
67,улицаМатвея Воронина,299001,44.6069312,33.5448159
67,улицаМатвея Воронина,299001,44.6069465,33.5448507
66,улица Героев Севастополя,299001,44.6063201,33.5452075
2А,Победы проспект,299046,44.5934258,33.5510826
1,Фиолентовское шоссе,299053,44.5813235,33.4787863
13,Генерала Острякова проспект,299029,44.5831934,33.5187472
260,проспект Генерала Острякова,299055,44.5525901,33.5294594
75,улица Розы Люксембург,299001,44.6095777,33.5433305
15,проспект Нахимова,299011,44.6128644,33.5219477
3А,Токарева улица,299003,44.5832744,33.5043473
21,улица Пожарова,299008,44.6017909,33.4997568
1/2,Фиолентовское шоссе,299053,44.5824518,33.4818196
1/4,Фиолентовское шоссе,299053,44.5827774,33.4800690
1/5,Фиолентовское шоссе,299053,44.5837230,33.4799335
35,улица Героев Бреста,299059,44.5873876,33.4469305
33,улица Героев Бреста,299059,44.5868579,33.4471017
34,Батумская улица,299011,44.6054705,33.5164006
25,улица Генерала Петрова,299011,44.6069011,33.5134456
20,Новороссийская улица,299011,44.6065229,33.5174621
24,улица Суворова,299011,44.6064120,33.5239148
21,улица Суворова,299011,44.6076018,33.5240867
25,улица Ленина,299011,44.6101340,33.5268260
12,улица Суворова,299011,44.6091949,33.5231732
1,Одесская улица,299011,44.6119234,33.5171856
31,улица Истомина,99012,44.6046292,33.5519678
47,улица Истомина,299012,44.6029209,33.5537315
14А,улица Истомина,99012,44.6028362,33.5527273
16А,улица Истомина,99012,44.6025056,33.5533732
19,Паршина улица,99012,44.6027671,33.5541581
2,Паршина улица,99012,44.6020456,33.5549952
15,Паршина улица,99012,44.6026718,33.5546368
14,улица Истомина,99012,44.6034858,33.5526247
7,Паршина улица,99012,44.6022097,33.5546256
3,улица Героев Бреста,299058,44.5786376,33.4452766
16,улица Маршала Блюхера,299014,44.5818105,33.4376447
15,улица Правды,299014,44.5804778,33.4353548
11,улица Маршала Крылова,299014,44.5794568,33.4388817
18А,улица Маршала Блюхера,299014,44.5816207,33.4388240
5,улица Героев Бреста,299058,44.5790463,33.4451191
8,улица Маршала Крылова,299058,44.5787600,33.4394953
10,улица Бориса Михайлова,299014,44.5808356,33.4408349
3,улица Маршала Крылова,299014,44.5787008,33.4374192
32,Пролетарская улица,299058,44.5780051,33.4384532
28,проспект Героев Сталинграда,299014,44.5840795,33.4389371
11,улица Маршала Блюхера,299014,44.5823723,33.4366796
36,проспект Героев Сталинграда,299059,44.5866388,33.4434128
17,улица Правды,299014,44.5801337,33.4357177
23,улица Бориса Михайлова,299058,44.5783639,33.4445563
10,улица Маршала Блюхера,299014,44.5815070,33.4370643
36,проспект Героев Сталинграда,299059,44.5864512,33.4430505
17,Пролетарская улица,299014,44.5808730,33.4370314
23,улица Правды,299014,44.5793154,33.4364546
27,Пролетарская улица,299058,44.5783677,33.4388851
12,улица Маршала Блюхера,299014,44.5811327,33.4375772
7,улица Бориса Михайлова,299014,44.5817597,33.4422977
9,улица Маршала Крылова,299014,44.5791000,33.4387244
8,улица Бориса Михайлова,299014,44.5818878,33.4402487
38,Пролетарская улица,299058,44.5760178,33.4392043
23,улица Маршала Крылова,299014,44.5801256,33.4401482
22,проспект Героев Сталинграда,299014,44.5821412,33.4349055
34,Пролетарская улица,299058,44.5769047,33.4391282
20А,улица Маршала Блюхера,299014,44.5828540,33.4398821
22,улица Маршала Блюхера,299014,44.5831110,33.4382963
25,улица Правды,299014,44.5789656,33.4366695
25,улица Бориса Михайлова,299058,44.5779872,33.4449159
26,Пролетарская улица,299014,44.5796217,33.4374028
18,Пролетарская улица,299014,44.5809075,33.4362294
21,улица Бориса Михайлова,299058,44.5782578,33.4437547
7,улица Героев Бреста,299058,44.5794593,33.4450461
9,улица Маршала Блюхера,299014,44.5818460,33.4359387
15,Пролетарская улица,299014,44.5812475,33.4365414
19,Пролетарская улица,299014,44.5805188,33.4374028
14,улица Маршала Блюхера,299014,44.5814529,33.4381494
13,улица Маршала Крылова,299014,44.5799504,33.4386894
2,улица Бориса Михайлова,299014,44.5830876,33.4406633
17,улица Маршала Крылова,299014,44.5796979,33.4396074
14,улица Бориса Михайлова,299058,44.5782413,33.4421791
15,улица Маршала Крылова,299014,44.5793335,33.4393915
28,Пролетарская улица,299014,44.5792670,33.4376204
29,улица Правды,299058,44.5775661,33.4375929
9А,улица Маршала Блюхера,299014,44.5823807,33.4356111
19,улица Маршала Крылова,299014,44.5802011,33.4393518
22,Пролетарская улица,299014,44.5802830,33.4368804
20,улица Маршала Блюхера,299014,44.5826215,33.4382137
27,улица Правды,299014,44.5786255,33.4369074
21,улица Правды,299014,44.5796931,33.4364787
4,улица Маршала Блюхера,299014,44.5806830,33.4358052
12,улица Бориса Михайлова,299058,44.5795961,33.4418184
11,улица Бориса Михайлова,299058,44.5802903,33.4427045
20,Пролетарская улица,299014,44.5806101,33.4365615
21,Пролетарская улица,299014,44.5801031,33.4378064
24,Пролетарская улица,299014,44.5798849,33.4369991
13,улица Правды,299014,44.5811447,33.4354797
24,улица Маршала Блюхера,299014,44.5835251,33.4382252
21,улица Маршала Крылова,299014,44.5797345,33.4402600
30,Пролетарская улица,299014,44.5789164,33.4378243
23,Пролетарская улица,299014,44.5796912,33.4380664
19,улица Правды,299014,44.5798342,33.4360336
5,улица Бориса Михайлова,299014,44.5825643,33.4419686
13,улица Маршала Блюхера,299014,44.5830182,33.4369086
18,улица Маршала Блюхера,299014,44.5821367,33.4379813
7,улица Маршала Блюхера,299014,44.5815597,33.4351712
31,улица Правды,299058,44.5766057,33.4383718
36,улица Павла Корчагина,299059,44.5893928,33.4409610
8,улица Павла Корчагина,299014,44.5852575,33.4359051
38,улица Павла Корчагина,299059,44.5898341,33.4403715
15,проспект Героев Сталинграда,299014,44.5854763,33.4367829
5,улица Павла Корчагина,299014,44.5846465,33.4340255
1,улица Павла Корчагина,299014,44.5844419,33.4350992
16,улица Павла Корчагина,299014,44.5873113,33.4364827
2,улица Павла Корчагина,299014,44.5855186,33.4348498
38,улица Павла Корчагина,299059,44.5897896,33.4397352
3,улица Павла Корчагина,299014,44.5844620,33.4338087
6А,улица Павла Корчагина,299014,44.5860680,33.4345117
28,улица Павла Корчагина,299059,44.5886526,33.4393995
4,улица Павла Корчагина,299014,44.5856383,33.4344526
6,улица Павла Корчагина,299014,44.5860260,33.4348178
22,улица Павла Корчагина,299014,44.5878604,33.4394923
7/1,проспект Героев Сталинграда,299014,44.5849565,33.4375983
34,улица Павла Корчагина,299059,44.5889942,33.4386197
11,улица Павла Корчагина,299014,44.5851591,33.4346829
18,улица Павла Корчагина,299014,44.5861894,33.4355343
24,улица Павла Корчагина,299014,44.5880135,33.4389713
9,улица Павла Корчагина,299014,44.5849825,33.4344764
40,проспект Героев Сталинграда,299059,44.5861633,33.4449051
40,проспект Героев Сталинграда,299059,44.5859494,33.4443793
64А,проспект Героев Сталинграда,299059,44.5916146,33.4477474
63,проспект Героев Сталинграда,299059,44.5933744,33.4446596
35,проспект Героев Сталинграда,299059,44.5885358,33.4424638
7/2,проспект Героев Сталинграда,299014,44.5853058,33.4386074
59,проспект Октябрьской Революции,99057,44.5909453,33.4621723
27,проспект Октябрьской Революции,99057,44.5949045,33.4545368
17,улица Героев Бреста,299058,44.5819722,33.4464851
35,проспект Октябрьской Революции,99057,44.5940768,33.4576944
37,проспект Октябрьской Революции,99057,44.5937460,33.4579663
49,проспект Октябрьской Революции,99057,44.5924600,33.4601955
33,проспект Октябрьской Революции,99057,44.5935567,33.4564507
51,проспект Октябрьской Революции,99057,44.5921346,33.4604603
37/2,Пролетарская улица,299058,44.5763367,33.4401060
53,проспект Октябрьской Революции,99057,44.5918613,33.4597471
35/2,Пролетарская улица,299058,44.5766069,33.4399657
32,улица Героев Бреста,299058,44.5827448,33.4477184
16,Сейнерская улица,299058,44.5764481,33.4406618
39,проспект Октябрьской Революции,99057,44.5934212,33.4582561
29,проспект Октябрьской Революции,99057,44.5946385,33.4549674
41,проспект Октябрьской Революции,99057,44.5930328,33.4576480
31,проспект Октябрьской Революции,99057,44.5943699,33.4554105
6,улица Адмирала Юмашева,99057,44.5944751,33.4583365
8,улица Адмирала Юмашева,99057,44.5944611,33.4586738
55,проспект Октябрьской Революции,99057,44.5918609,33.4610175
21А,улица Героев Бреста,299058,44.5828883,33.4469723
47,проспект Октябрьской Революции,99057,44.5927930,33.4599168
51,улица Ленина,299011,44.6017183,33.5252721
9,улица Адмирала Макарова,299004,44.6146723,33.5509101
17,улица Адмирала Макарова,99004,44.6137401,33.5485216
16,Хрулёва улица,299004,44.6117848,33.5525845
10,Хрулёва улица,99004,44.6128612,33.5514885
19,улица Адмирала Макарова,99004,44.6132498,33.5486409
4А,1-я Бастионная улица,299004,44.6120114,33.5515040
29,улица Адмирала Макарова,99004,44.6123518,33.5499503
3А,улица Папанина,299001,44.6104420,33.5467776
12,Хрулёва улица,99004,44.6126771,33.5519899
15/2,улица Адмирала Макарова,99004,44.6142044,33.5487643
4,1-я Бастионная улица,99004,44.6124140,33.5510589
21,улица Адмирала Макарова,99004,44.6128292,33.5490686
2,улица Дмитрия Загорулько,299004,44.6107765,33.5522098
31,улица Адмирала Макарова,99004,44.6118728,33.5507927
39,улица Адмирала Макарова,99004,44.6099741,33.5530268
11,улица Адмирала Макарова,99004,44.6150629,33.5498371
6,улица Дмитрия Загорулько,299004,44.6110271,33.5528094
37,улица Истомина,299012,44.6045331,33.5543526
13,улица Адмирала Макарова,99004,44.6146142,33.5491825
35,улица Адмирала Макарова,99004,44.6105290,33.5519135
4,улица Дмитрия Загорулько,299004,44.6105447,33.5526384
37,улица Адмирала Макарова,99004,44.6100631,33.5523143
33,улица Адмирала Макарова,99004,44.6113422,33.5514242
41,улица Адмирала Макарова,99004,44.6094936,33.5528132
45,улица Ленина,99011,44.6026813,33.5261864
9,улица Сеченова,299003,44.5992694,33.5053086
12,Балтийская улица,299003,44.5911785,33.5035332
54,улица Киевская,299003,44.5963342,33.5043256
23,улица 5-го Декабря,299003,44.5939413,33.5048599
57,улица Голубца Ивана,299003,44.5939161,33.5054596
56,улица Матюшенко,299003,44.5936172,33.5056003
70,проспект Генерала Острякова,99029,44.5787579,33.5185672
54,проспект Генерала Острякова,99029,44.5810011,33.5175831
21,проспект Генерала Острякова,99029,44.5812164,33.5190918
66,проспект Генерала Острякова,99029,44.5795135,33.5176597
48,улица Николая Музыки,99007,44.5843274,33.5206194
36А,проспект Генерала Острякова,99029,44.5840951,33.5173130
72,проспект Генерала Острякова,99029,44.5786368,33.5173706
40,проспект Генерала Острякова,99029,44.5826191,33.5172813
80,проспект Генерала Острякова,99029,44.5775883,33.5190147
90,проспект Генерала Острякова,299029,44.5758815,33.5194392
47,проспект Генерала Острякова,99029,44.5785185,33.5197450
50,проспект Генерала Острякова,99029,44.5812326,33.5168837
44,проспект Генерала Острякова,99029,44.5816411,33.5174303
36,проспект Генерала Острякова,99029,44.5845243,33.5169766
38,проспект Генерала Острякова,99029,44.5832333,33.5176237
9,улица Хрусталёва,99029,44.5845427,33.5159455
52,проспект Генерала Острякова,99029,44.5813900,33.5181346
62,проспект Генерала Острякова,99029,44.5800062,33.5178528
88,проспект Генерала Острякова,99029,44.5767229,33.5192280
78,проспект Генерала Острякова,99029,44.5780305,33.5183248
84,проспект Генерала Острякова,99029,44.5768755,33.5182724
64,улица Николая Музыки,299007,44.5835126,33.5204632
42,проспект Генерала Острякова,99029,44.5822065,33.5179454
45,проспект Генерала Острякова,99029,44.5792724,33.5199162
11,улица Хрусталёва,99029,44.5841274,33.5159943
13,проспект Генерала Острякова,299029,44.5831941,33.5187923
19,проспект Генерала Острякова,99029,44.5814697,33.5192514
58,проспект Генерала Острякова,99029,44.5804452,33.5170251
60,проспект Генерала Острякова,99029,44.5805851,33.5182889
57,проспект Генерала Острякова,99029,44.5779041,33.5202482
9,улица Супруна,299007,44.5901612,33.5187753
19,улица Супруна,299007,44.5883399,33.5189583
2,Школьный переулок,299007,44.5893047,33.5211652
21,улица Супруна,299007,44.5878584,33.5190580
17,улица Супруна,299007,44.5887717,33.5189117
11,улица Супруна,299007,44.5897025,33.5188376
37А,улица Гоголя,299007,44.5926543,33.5195603
13,улица Супруна,299007,44.5892655,33.5188704
38,улица Гоголя,299007,44.5884243,33.5157653
22,улица Гоголя,299011,44.5940365,33.5184055
12,проспект Нахимова,99011,44.6121393,33.5199558
10,проспект Нахимова,99011,44.6125544,33.5203794
97,проспект Генерала Острякова,299040,44.5701798,33.5244440
93,проспект Генерала Острякова,299040,44.5711464,33.5246216
9,Флагманская улица,299040,44.5725920,33.5314884
7,Флагманская улица,299040,44.5729314,33.5317504
25,улица Адмирала Азарова,99003,44.5930994,33.5113904
38,Ивана Голубца улица,99003,44.5919873,33.5107842
18А,улица Токарева,299003,44.5801078,33.5070085
21,Отрадная улица,299003,44.5740600,33.4871491
11,улица Астана Кесаева,299038,44.5864170,33.4560938
69,проспект Октябрьской Революции,99038,44.5901347,33.4641680
43,проспект Октябрьской Революции,99057,44.5922846,33.4586916
81,проспект Октябрьской Революции,99038,44.5890997,33.4656528
83,проспект Октябрьской Революции,99038,44.5895069,33.4668338
79,проспект Октябрьской Революции,99038,44.5898524,33.4659807
85,проспект Октябрьской Революции,99038,44.5890897,33.4670312
73,проспект Октябрьской Революции,99038,44.5894359,33.4647599
87,проспект Октябрьской Революции,99038,44.5886721,33.4672097
71,проспект Октябрьской Революции,99038,44.5898880,33.4645771
33,Пролетарская улица,299058,44.5771828,33.4399626
37,улица Челнокова,299014,44.5897975,33.4315079
35,улица Челнокова,299014,44.5901683,33.4322420
6А,улица Челнокова,299014,44.5900659,33.4306208
22Д,проспект Героев Сталинграда,299014,44.5818576,33.4353045
57,проспект Октябрьской Революции,99057,44.5910215,33.4607591
4,улица Астана Кесаева,299038,44.5877313,33.4518863
25,проспект Октябрьской Революции,99057,44.5951732,33.4554655
17,улица Адмирала Октябрьского,299026,44.6026050,33.5187533
4,Ялтинская улица,99011,44.6006936,33.5206771
56,улица Ленина,99011,44.6055827,33.5266405
6,улица Терещенко,299011,44.6072331,33.5257171
27,улица Суворова,299011,44.6064365,33.5243513
3,Большая Морская улица,99011,44.6102499,33.5210862
10,улица Воронина,99011,44.6120890,33.5215046
2,улица Воронина,299040,44.6128569,33.5239201
7,проспект Нахимова,99011,44.6141189,33.5230717
6,Большая Морская улица,99011,44.6101282,33.5203911
1,Советская улица,299011,44.6141511,33.5243764
13,проспект Нахимова,99011,44.6137470,33.5233252
15,проспект Нахимова,99011,44.6129315,33.5218058
6,проспект Нахимова,99011,44.6139512,33.5216276
9,проспект Нахимова,99011,44.6136470,33.5224908
10,улица Суворова,299011,44.6096859,33.5227769
8,проспект Нахимова,99011,44.6131824,33.5206270
21,Большая Морская улица,99000,44.6062815,33.5225674
22,улица Суворова,299011,44.6067219,33.5236474
9,улица Адмирала Октябрьского,299011,44.6030449,33.5207033
61,Советская улица,299011,44.6027653,33.5248360
15,улица Вакуленчука,99053,44.5943805,33.4898139
10,улица Репина,299045,44.5972368,33.4919333
8,улица Репина,299045,44.5977764,33.4912337
5/3,50-летия СССР площадь,299045,44.5983794,33.4907516
84А,улица Меньшикова,99053,44.5935001,33.4851900
4/1,50-летия СССР площадь,299045,44.5974118,33.4900504
4,улица Репина,299045,44.5982415,33.4923785
7,улица Вакуленчука,99053,44.5959601,33.4900604
99 к1,улица Лизы Чайкиной,299053,44.5947711,33.4811234
12,улица Вакуленчука,299053,44.5955472,33.4876155
7,улица Гайдара,299028,44.5983505,33.4838822
56,улица Революции 1905 года,299003,44.5947386,33.5060589
58,Матюшенко улица,299003,44.5937653,33.5053247
57А,улица Голубца Ивана,299003,44.5940877,33.5051926
2,улица Мечникова,299008,44.6041848,33.5084940
4,улица Мечникова,299008,44.6038214,33.5087584
1,Щорса улица,299008,44.6044203,33.5163517
32,6-я Бастионная улица,299008,44.6050630,33.5122944
7,Щорса улица,299008,44.6042013,33.5159539
6,улица Пожарова,299008,44.6055516,33.5077697
16,улица Генерала Жидилова,299041,44.6067742,33.5688652
46,улица Генерала Жидилова,299041,44.6032872,33.5727872
48,улица Генерала Жидилова,299041,44.6023565,33.5745655
12,Варшавская улица,99004,44.6085693,33.5512612
4,улица Генерала Жидилова,299041,44.6066503,33.5663599
24,улица Генерала Жидилова,299041,44.6066560,33.5692986
36,улица Генерала Жидилова,299041,44.6051638,33.5716669
22,улица Генерала Жидилова,299041,44.6061789,33.5686826
14,улица Генерала Жидилова,299041,44.6063666,33.5680808
32,улица Генерала Жидилова,299041,44.6059566,33.5704629
10,улица Генерала Жидилова,299041,44.6069917,33.5679083
6,улица Генерала Жидилова,299041,44.6066522,33.5669220
26,улица Генерала Жидилова,299041,44.6060050,33.5692932
12,улица Генерала Жидилова,299041,44.6068618,33.5684868
34,улица Генерала Жидилова,299041,44.6055156,33.5704089
28,улица Генерала Жидилова,299041,44.6055578,33.5687010
42,улица Генерала Жидилова,299041,44.6034438,33.5738999
4А,улица Адмирала Макарова,299004,44.6085173,33.5520416
40,улица Генерала Жидилова,299041,44.6043913,33.5729005
18,улица Генерала Жидилова,299041,44.6060578,33.5667409
20,улица Генерала Жидилова,299041,44.6057938,33.5678458
38,улица Генерала Жидилова,299041,44.6047921,33.5721535
5,Мореходная улица,299041,44.6145016,33.5609664
1,улица Килен-Балка,299041,44.6116273,33.5610564
3,улица Токарева,298530,44.5844412,33.5043800
1Б,улица Токарева,299003,44.5876265,33.5022999
2В,улица Токарева,299003,44.5822664,33.5038567
10,улица Щербака,99011,44.6106218,33.5148839
52/2,проспект Гагарина,299028,44.6021942,33.4758484
67,Харьковская улица,99003,44.5889889,33.5031256
69,Харьковская улица,99003,44.5888128,33.5029601
71,Харьковская улица,99003,44.5886175,33.5027697
6,Балтийская улица,299003,44.5913630,33.5038957
20,улица Сладкова,299053,44.5944061,33.4799222
11,Паршина улица,99012,44.6026698,33.5554020
22,улица Коли Пищенко,99023,44.5957031,33.5498094
13,Паршина улица,299012,44.6031551,33.5551868
39,улица Вакуленчука,299053,44.5862711,33.4803979
6,Цыбулько улица,299012,44.6034550,33.5543772
50,улица Киевская,299003,44.5961365,33.5046770
21,Паршина улица,99012,44.6030361,33.5544833
23,Паршина улица,99012,44.6033346,33.5548169
57А,улица Киевская,299003,44.5953795,33.5054808
56,улица Киевская,299003,44.5965462,33.5039583
80,Красивая улица,299038,44.5859674,33.4734024
93,проспект Октябрьской Революции,99038,44.5874762,33.4680636
82,Красивая улица,299038,44.5857566,33.4734064
84,Красивая улица,299038,44.5855558,33.4732421
4,Волнистая улица,299038,44.5873670,33.4699744
70,Волнистая улица,299038,44.5864145,33.4726630
86,Красивая улица,299038,44.5853908,33.4730687
16,улица Астана Кесаева,299038,44.5894717,33.4519396
91,проспект Октябрьской Революции,99038,44.5875780,33.4675160
94,Красивая улица,299038,44.5849021,33.4720299
76,Красивая улица,299038,44.5862803,33.4732895
79,Волнистая улица,299038,44.5851001,33.4720372
68,Волнистая улица,299038,44.5854825,33.4713789
88,Красивая улица,299038,44.5852476,33.4728393
73,Волнистая улица,299038,44.5853620,33.4726549
25,Коралловая улица,2990053,44.5884132,33.4739647
78,Красивая улица,299038,44.5861315,33.4734155
63,Волнистая улица,299038,44.5861186,33.4732366
8,Волнистая улица,299038,44.5885967,33.4701549
67,Волнистая улица,299038,44.5857944,33.4731747
1,улица Степаняна,299038,44.5874029,33.4686123
72,Волнистая улица,299038,44.5857805,33.4711703
13/20,Рыбный переулок,299058,44.5772462,33.4431076
31,Пролетарская улица,299058,44.5775326,33.4393635
16,улица Бориса Михайлова,299058,44.5774936,33.4429203
18,улица Бориса Михайлова,299058,44.5773751,33.4430193
14,улица Астана Кесаева,299038,44.5880626,33.4554114
40,Бутырская улица,99001,44.6077607,33.5463144
17,Белостокская улица,299001,44.6098694,33.5457190
27,улица Героев Севастополя,99001,44.6069617,33.5454980
15,Белостокская улица,299001,44.6099953,33.5457253
2,Бутырская улица,299001,44.6102542,33.5462506
8,Бутырская улица,299001,44.6098652,33.5462220
9,Белостокская улица,299001,44.6103667,33.5459768
11,Белостокская улица,299001,44.6102336,33.5457429
4,Большая Морская улица,99011,44.6106632,33.5203068
2,Большая Морская улица,99011,44.6109706,33.5199755
20,Варшавская улица,99004,44.6078245,33.5517981
105,улица Хрусталёва,299055,44.5630496,33.5207322
151А,проспект Генерала Острякова,299055,44.5631192,33.5266689
155Б,проспект Генерала Острякова,299055,44.5629378,33.5270547
1,Древняя улица,299045,44.6121055,33.4933063
82,улица Горпищенко,299022,44.5928087,33.5643012
53,улица Горпищенко,299022,44.5954209,33.5622900
78,улица Горпищенко,299022,44.5933603,33.5635629
52,улица Горпищенко,299022,44.5971620,33.5588922
61,улица Горпищенко,299022,44.5942708,33.5639882
54,улица Горпищенко,299022,44.5968721,33.5592843
80,улица Горпищенко,299022,44.5930843,33.5639098
73,улица Горпищенко,299022,44.5926092,33.5663443
70,улица Горпищенко,299022,44.5945096,33.5620134
62,улица Горпищенко,299022,44.5958033,33.5602213
56,улица Горпищенко,299022,44.5964046,33.5594141
55,улица Горпищенко,299022,44.5950644,33.5627797
76,улица Горпищенко,299022,44.5938259,33.5633092
84,улица Горпищенко,299022,44.5925463,33.5646626
44,улица Горпищенко,299022,44.5975961,33.5581502
57,улица Горпищенко,299022,44.5947909,33.5631463
65,улица Горпищенко,299022,44.5936631,33.5647632
86,улица Горпищенко,299022,44.5922567,33.5650483
67,улица Горпищенко,299022,44.5933955,33.5651376
88,улица Горпищенко,299022,44.5919944,33.5654036
71,улица Горпищенко,299022,44.5928276,33.5658955
63,улица Горпищенко,299022,44.5939509,33.5643734
74,улица Горпищенко,299022,44.5940178,33.5628381
66,улица Горпищенко,299022,44.5953400,33.5612915
75,улица Горпищенко,299022,44.5925453,33.5670850
51,улица Горпищенко,299022,44.5956788,33.5616055
59,улица Горпищенко,299022,44.5945081,33.5635164
43,Фильченкова улица,299022,44.5917585,33.5646733
47,улица Горпищенко,299022,44.5961908,33.5614616
68,улица Горпищенко,299022,44.5949051,33.5615344
49,улица Горпищенко,299022,44.5959387,33.5622226
43,улица Горпищенко,299022,44.5970107,33.5598029
4,Нахимова проспект,299011,44.6158407,33.5218663
2,проспект Нахимова,299011,44.6168881,33.5223157
2,улица Ленина,299011,44.6152135,33.5249173
9,улица Ленина,299011,44.6139712,33.5258357
41,Советская улица,99011,44.6069309,33.5253146
1,проспект Нахимова,299011,44.6157983,33.5234399
10,Молодых Строителей улица,99006,44.5797702,33.4650686
8,Молодых Строителей улица,99006,44.5805959,33.4665160
14,Молодых Строителей улица,99006,44.5798721,33.4659722
12,Молодых Строителей улица,99006,44.5800462,33.4665753
14,улица Гоголя,299011,44.5977357,33.5199889
65А,проспект Генерала Острякова,99029,44.5753810,33.5209363
185,улица Хрусталёва,299020,44.5496038,33.5287401
9,улица Тараса Шевченко,299006,44.5791825,33.4644137
21,улица Александра Косарева,299006,44.5770094,33.4660599
25,улица Александра Косарева,299006,44.5760202,33.4651127
17,улица Тараса Шевченко,99006,44.5786113,33.4624571
15,улица Тараса Шевченко,99006,44.5791073,33.4627618
13,улица Тараса Шевченко,99006,44.5790047,33.4620133
4,площадь Генерала Захарова,299002,44.6270154,33.5366530
3,площадь Генерала Захарова,299002,44.6278876,33.5360495
1,площадь Генерала Захарова,299002,44.6273797,33.5356764
2,площадь Генерала Захарова,299002,44.6275613,33.5368165
3А,Степана Разина спуск,99002,44.6273370,33.5344427
3,Димитрова улица,299002,44.6278307,33.5345288
4,Гвардейская улица,299002,44.6279281,33.5339520
28,улица Челюскинцев,299002,44.6304359,33.5417412
5,Димитрова улица,99002,44.6282822,33.5348127
4,Каманина улица,99002,44.6289187,33.5387259
7,Димитрова улица,99002,44.6288306,33.5350377
3,Доронина улица,299002,44.6285469,33.5361302
5,Каманина улица,99002,44.6291789,33.5390351
16,Леваневского улица,299002,44.6294719,33.5387048
7,Гвардейская улица,299002,44.6290551,33.5337569
5,Гвардейская улица,99002,44.6284591,33.5336482
9,Димитрова улица,299002,44.6292387,33.5353985
26,Седова улица,99002,44.6302872,33.5442376
3,Гвардейская улица,299002,44.6280649,33.5335442
7,Гвардейская улица,299002,44.6295216,33.5336011
12,Якорная улица,99002,44.6284786,33.5323301
16,Доронина улица,299002,44.6295477,33.5374942
4,Доронина улица,299002,44.6284893,33.5363810
5А,Гвардейская улица,99002,44.6288472,33.5334088
24,Седова улица,99002,44.6299889,33.5435715
8,Гвардейская улица,99002,44.6284019,33.5341210
3,Средний проезд,299002,44.6291432,33.5329640
14/2,Леваневского улица,99002,44.6290120,33.5383068
10,Гвардейская улица,299002,44.6289208,33.5344459
7,Громова улица,299002,44.6293934,33.5348971
5А,Димитрова улица,99002,44.6285090,33.5345343
2,Инженерная Балка улица,299002,44.6259796,33.5392968
1,Инженерная Балка улица,99002,44.6254730,33.5407259
7,Инженерная Балка улица,99002,44.6258336,33.5418137
23,Михайловская улица,99002,44.6331813,33.5311976
56,Симонок улица,99002,44.6344824,33.5311644
58,Симонок улица,99002,44.6345440,33.5307102
64,Симонок улица,99002,44.6343697,33.5289169
66/68,Симонок улица,99002,44.6344143,33.5277742
62,Симонок улица,99002,44.6345821,33.5295263
60,Симонок улица,99002,44.6345688,33.5302099
8,улица Романова,99002,44.6312071,33.5361242
18,Леваневского улица,299002,44.6298911,33.5393203
34,улица Челюскинцев,299002,44.6323644,33.5413509
14,улица Романова,99002,44.6314328,33.5354816
34А,улица Челюскинцев,99002,44.6324427,33.5417793
15,Надежды Краевой улица,99002,44.6333918,33.5422252
13,Надежды Краевой улица,99002,44.6329162,33.5429170
9,Надежды Краевой улица,99002,44.6320486,33.5433106
32,улица Челюскинцев,299002,44.6317461,33.5410775
16А,Надежды Краевой улица,99002,44.6318091,33.5440031
25,Леваневского улица,99002,44.6307311,33.5389383
16,улица Романова,99002,44.6315266,33.5352397
36Б,улица Челюскинцев,99002,44.6327129,33.5419117
18,улица Романова,99002,44.6316169,33.5351045
4,улица Романова,99002,44.6312684,33.5367727
3,Надежды Краевой улица,99002,44.6312001,33.5418892
11,Надежды Краевой улица,99002,44.6324917,33.5433419
34Б,улица Челюскинцев,99002,44.6321090,33.5416383
5,Надежды Краевой улица,99002,44.6313369,33.5425841
24,Леваневского улица,299002,44.6309981,33.5401076
34В,улица Челюскинцев,99002,44.6322034,33.5420718
20,Леваневского улица,99002,44.6303438,33.5396422
2,улица Романова,99002,44.6312842,33.5370555
36В,улица Челюскинцев,99002,44.6327828,33.5423358
1,Надежды Краевой улица,99002,44.6312759,33.5412260
6,улица Романова,99002,44.6311245,33.5363719
2,Фёдоровская улица,299026,44.6743611,33.5665540
33,проспект Героев Сталинграда,299059,44.5874884,33.4417396
59,Фёдоровская улица,99013,44.6688991,33.5515689
47,Фёдоровская улица,99013,44.6692153,33.5493109
57,Фёдоровская улица,99013,44.6685096,33.5509060
55,Фёдоровская улица,99013,44.6681929,33.5502278
49,Фёдоровская улица,99013,44.6683446,33.5491388
51,Фёдоровская улица,99013,44.6699954,33.5512657
53,Фёдоровская улица,99013,44.6693853,33.5512607
43,Фёдоровская улица,99013,44.6685265,33.5485094
41,Фёдоровская улица,299013,44.6678416,33.5483641
15,Фёдоровская улица,299013,44.6677373,33.5473750
9,Фёдоровская улица,299013,44.6671899,33.5468537
29,Леваневского улица,99002,44.6331679,33.5404170
2,Симонок улица,299002,44.6324396,33.5394999
11,Циолковского улица,299016,44.6352479,33.5435252
13,Циолковского улица,299016,44.6355750,33.5433265
21,Циолковского улица,99016,44.6367645,33.5455561
11,Дорофея Кошубы улица,99016,44.6366628,33.5442766
15,Циолковского улица,299016,44.6358148,33.5439523
17,Циолковского улица,99016,44.6362302,33.5445465
19,Циолковского улица,99016,44.6365681,33.5450369
10,улица Богданова,299016,44.6371029,33.5447786
169А,проспект Генерала Острякова,299055,44.5605176,33.5291872
169,проспект Генерала Острякова,299055,44.5608606,33.5288441
177,проспект Генерала Острякова,299055,44.5597951,33.5295133
165А,проспект Генерала Острякова,299055,44.5612039,33.5290962
163,проспект Генерала Острякова,299055,44.5610163,33.5300770
147,проспект Генерала Острякова,299055,44.5641236,33.5278395
248,проспект Генерала Острякова,299055,44.5544243,33.5281748
1,улица Красносельского,99012,44.6044510,33.5530370
69,улица Горпищенко,299022,44.5931066,33.5654757
90,улица Горпищенко,299022,44.5913783,33.5654136
98А,улица Горпищенко,299022,44.5885215,33.5704255
9,Паршина улица,99012,44.6024503,33.5549868
13,Белостокская улица,299001,44.6101045,33.5457421
18А,Брестская улица,299001,44.6022077,33.5401052
14,Силантьева улица,299023,44.6006598,33.5443158
19,Михайловская улица,99002,44.6325467,33.5299646
6,Циолковского улица,99016,44.6340958,33.5427794
42,Надежды Краевой улица,99016,44.6327745,33.5437725
4,Циолковского улица,99016,44.6338846,33.5424928
17Б,Михайловская улица,299002,44.6322524,33.5291831
52,Громова улица,99002,44.6307535,33.5260830
7,Михайловская улица,99002,44.6316297,33.5269241
9,Михайловская улица,99002,44.6320074,33.5273868
5,Михайловская улица,99002,44.6313286,33.5264004
4,Михайловская улица,99002,44.6305458,33.5303612
62,Громова улица,99002,44.6332717,33.5259523
11,Мачтовая улица,99002,44.6301075,33.5296931
18/4,улица Богданова,99016,44.6360672,33.5480807
20,улица Богданова,99016,44.6359348,33.5488334
18,Циолковского улица,299016,44.6356559,33.5447535
32,улица Богданова,99016,44.6348275,33.5526837
16/3,улица Богданова,99016,44.6361781,33.5474634
12,Циолковского улица,299016,44.6349793,33.5438497
26,улица Богданова,299016,44.6353529,33.5510180
42,улица Богданова,99016,44.6337874,33.5542992
14,улица Богданова,99016,44.6362764,33.5469003
27,улица Богданова,99016,44.6362296,33.5500609
28,улица Богданова,299016,44.6351913,33.5515619
12А,улица Богданова,99016,44.6360129,33.5459973
24,Загордянского улица,299002,44.6332675,33.5191466
18А,улица Богданова,99016,44.6358905,33.5484138
27,Приморская улица,99016,44.6335491,33.5522120
10,улица Челюскинцев,299002,44.6277709,33.5391194
6,Чехова улица,99016,44.6366337,33.5482193
22,Загордянского улица,299002,44.6326359,33.5193105
17,Кудюрова улица,99016,44.6335141,33.5437326
36,Серафимовича улица,299016,44.6361859,33.5517815
20А,улица Богданова,299016,44.6357400,33.5491894
12,улица Челюскинцев,299002,44.6280354,33.5391557
26,Серафимовича улица,299016,44.6370922,33.5475729
16,Загордянского улица,299002,44.6311465,33.5196464
8,Приморская улица,99016,44.6338599,33.5532212
19,Кудюрова улица,99016,44.6337597,33.5433675
40А,улица Богданова,99016,44.6333527,33.5532731
34,Серафимовича улица,99016,44.6362442,33.5513683
2,Чехова улица,99016,44.6357457,33.5478556
29,улица Богданова,99016,44.6362307,33.5507646
16,Циолковского улица,299016,44.6354322,33.5444679
6,Баумана улица,99016,44.6344923,33.5518366
1,Чехова улица,99016,44.6358000,33.5474256
14,Циолковского улица,299016,44.6351978,33.5441467
10,Циолковского улица,99016,44.6347539,33.5435740
1,Приморская улица,299016,44.6333159,33.5541148
25,улица Богданова,99016,44.6363183,33.5489323
30,Серафимовича улица,99016,44.6367294,33.5499387
40,улица Богданова,99016,44.6339014,33.5537746
28,Серафимовича улица,99016,44.6370051,33.5488287
20,Загордянского улица,299002,44.6321240,33.5193986
24,улица Богданова,299016,44.6355415,33.5504119
38,Серафимовича улица,99016,44.6360547,33.5521697
20,Циолковского улица,299016,44.6358903,33.5450553
18,Загордянского улица,299002,44.6316250,33.5194999
21,Кудюрова улица,99016,44.6339512,33.5430673
1А,Некрасова улица,299016,44.6357457,33.5525301
29,Приморская улица,99016,44.6340742,33.5528848
6,Приморская улица,99016,44.6329264,33.5520471
8,Циолковского улица,99016,44.6344465,33.5432000
22,улица Богданова,99016,44.6357363,33.5496363
12,улица Богданова,99016,44.6363255,33.5462827
25,Приморская улица,99016,44.6331367,33.5517150
22,Циолковского улица,99016,44.6361667,33.5454485
20,Седова улица,99002,44.6292371,33.5417001
19,Каманина улица,99002,44.6290456,33.5414900
21,Каманина улица,99002,44.6291875,33.5419866
27,Каманина улица,99002,44.6295126,33.5425996
25,Каманина улица,99002,44.6294503,33.5423630
7,Грибоедова улица,99002,44.6296716,33.5425092
10/2,Леваневского улица,99002,44.6287320,33.5379901
10А,улица Богданова,99016,44.6369240,33.5453576
9,Циолковского улица,299016,44.6351106,33.5433162
80,Переяславская улица,99016,44.6423025,33.5548129
30,улица Челюскинцев,99002,44.6310820,33.5409924
26,Леваневского улица,99002,44.6313027,33.5403557
7,Дорофея Кошубы улица,99016,44.6362922,33.5440603
9,Дорофея Кошубы улица,99016,44.6365074,33.5439830
3,Циолковского улица,99016,44.6344014,33.5425190
1,Циолковского улица,99016,44.6340752,33.5421142
5,Циолковского улица,99016,44.6345299,33.5425628
13,Дорофея Кошубы улица,99016,44.6368725,33.5440190
15,Дорофея Кошубы улица,99016,44.6370345,33.5440399
19,Дорофея Кошубы улица,99016,44.6373803,33.5440675
17,Дорофея Кошубы улица,99016,44.6371803,33.5440668
21,Дорофея Кошубы улица,99016,44.6375821,33.5440615
5А,Переяславская улица,299016,44.6354107,33.5495965
30,улица Богданова,299016,44.6349143,33.5521835
34,улица Богданова,99016,44.6344679,33.5528867
37,Серафимовича улица,99016,44.6368420,33.5512171
39,улица Богданова,99016,44.6347503,33.5545683
41,улица Богданова,99016,44.6348604,33.5547462
2,Мурманская улица,99016,44.6325910,33.5503974
36А,улица Богданова,99016,44.6338534,33.5520030
47,Челюскинцев улица,99016,44.6375496,33.5411391
60,Громова улица,99002,44.6318871,33.5251995
64,Громова улица,99002,44.6329334,33.5267682
15,Мачтовая улица,99002,44.6304880,33.5288702
15А,Михайловская улица,99002,44.6309843,33.5293754
13,Мачтовая улица,299002,44.6302508,33.5290651
2,Михайловская улица,99002,44.6308276,33.5302123
50,Симонок улица,99002,44.6337053,33.5301891
2,Загордянского улица,299002,44.6290118,33.5193818
6,Загордянского улица,299002,44.6293278,33.5195032
4,Загордянского улица,299002,44.6293131,33.5192145
10,Загордянского улица,299002,44.6296419,33.5196727
12,Загордянского улица,299002,44.6299514,33.5198349
9,Загордянского улица,299002,44.6304571,33.5190344
5,Загордянского улица,299002,44.6298581,33.5189725
8,Загордянского улица,299002,44.6296013,33.5193795
14,Загордянского улица,299002,44.6301052,33.5196423
12,улица Романова,99002,44.6313247,33.5356836
10,улица Романова,99002,44.6312622,33.5358219
26,Кудюрова улица,99016,44.6341258,33.5434896
24,Кудюрова улица,99016,44.6339387,33.5437900
13,Кудюрова улица,99016,44.6329985,33.5443923
15,Кудюрова улица,99016,44.6332740,33.5441028
11,Кудюрова улица,99016,44.6326672,33.5446122
22,Кудюрова улица,99016,44.6336629,33.5442384
9,Кудюрова улица,99016,44.6325184,33.5450779
5,Кудюрова улица,99016,44.6321730,33.5452832
10,Кудюрова улица,99016,44.6329231,33.5450876
12,Кудюрова улица,99016,44.6330243,33.5449603
16,Кудюрова улица,99016,44.6332530,33.5445963
4,Кудюрова улица,99016,44.6324500,33.5453869
7,Кудюрова улица,99016,44.6321740,33.5450027
8,Кудюрова улица,99016,44.6327651,33.5451818
18,Кудюрова улица,99016,44.6334031,33.5447852
14,Кудюрова улица,99016,44.6331045,33.5448002
20,Кудюрова улица,99016,44.6335292,33.5443932
6,Кудюрова улица,99016,44.6326117,33.5452987
3,Кудюрова улица,99016,44.6320465,33.5454023
41/1,Седова улица,99016,44.6318234,33.5454095
7,Надежды Краевой улица,99002,44.6314881,33.5430311
26А,улица Челюскинцев,299002,44.6306889,33.5408305
23 к1,проспект Октябрьской Революции,99057,44.5961741,33.4551523
23 к3,проспект Октябрьской Революции,99057,44.5962547,33.4574613
23 к2,проспект Октябрьской Революции,99057,44.5964684,33.4563260
67,проспект Октябрьской Революции,99038,44.5893606,33.4634783
89,проспект Октябрьской Революции,299038,44.5883666,33.4658589
52,улица Тараса Шевченко,99021,44.5720448,33.4571005
58,улица Ленина,99011,44.6052467,33.5269427
54,улица Ленина,99011,44.6055341,33.5270081
7,улица Павла Корчагина,299014,44.5848263,33.4342858
14,улица Павла Корчагина,299014,44.5869361,33.4383636
10,улица Павла Корчагина,299014,44.5862278,33.4363022
33,улица Челнокова,299014,44.5899941,33.4326117
5А,улица Челнокова,299014,44.5897126,33.4306664
4А,улица Челнокова,299014,44.5899990,33.4310863
3А,улица Челнокова,299014,44.5901839,33.4314205
2А,улица Челнокова,299014,44.5903429,33.4317704
1А,улица Челнокова,299014,44.5905332,33.4321461
30,улица Павла Корчагина,299059,44.5882774,33.4373294
1,улица Курчатова,299015,44.6209471,33.5671604
20,улица Курчатова,299015,44.6278159,33.5699503
18,улица Курчатова,299015,44.6270464,33.5699248
11,улица Курчатова,299015,44.6279067,33.5704970
15,улица Курчатова,299015,44.6286241,33.5704741
13,улица Курчатова,299015,44.6279458,33.5711390
3,улица Курчатова,299015,44.6215487,33.5671698
5,улица Курчатова,299015,44.6222078,33.5673248
12,улица Курчатова,299015,44.6219126,33.5663331
14,улица Курчатова,299015,44.6223294,33.5667016
8,улица Курчатова,299015,44.6209639,33.5662833
1,площадь Нахимова,99011,44.6174844,33.5257307
1,площадь Нахимова,99011,44.6174193,33.5252342
2В,проспект Нахимова,99011,44.6173605,33.5229121
19А,Пролетарская улица,299014,44.5807012,33.4386016
38,Пролетарская улица,299058,44.5759021,33.4387896
33,улица Правды,299058,44.5756479,33.4395787
29,Пролетарская улица,299058,44.5777925,33.4392285
33,Пролетарская улица,299058,44.5772130,33.4395578
8А,улица Маршала Крылова,299058,44.5790684,33.4405751
6,улица Бориса Михайлова,299014,44.5815377,33.4393946
1,улица Бориса Михайлова,299014,44.5840991,33.4421333
3А,улица Бориса Михайлова,299014,44.5836567,33.4424650
9,улица Бориса Михайлова,299014,44.5823043,33.4433307
17,улица Бориса Михайлова,299058,44.5796063,33.4433434
15,улица Бориса Михайлова,299058,44.5801327,33.4438696
1,улица Героев Бреста,299058,44.5786164,33.4461059
15,улица Героев Бреста,299058,44.5807082,33.4446336
11,улица Героев Бреста,299058,44.5801627,33.4455002
13,улица Героев Бреста,299058,44.5809280,33.4458519
60,улица Горпищенко,299022,44.5960404,33.5597799
64,улица Горпищенко,299022,44.5954736,33.5605427
72,улица Горпищенко,299022,44.5942375,33.5623814
92,улица Горпищенко,299022,44.5914886,33.5661202
94,улица Горпищенко,299022,44.5905726,33.5662690
96,улица Горпищенко,299022,44.5908256,33.5670465
10,Костромская улица,299022,44.5934722,33.5685242
12,Костромская улица,299022,44.5940303,33.5689456
35,улица Горпищенко,299022,44.5987798,33.5571070
41,улица Горпищенко,299022,44.5976522,33.5589339
45,улица Горпищенко,299022,44.5964232,33.5605928
8,Костромская улица,299022,44.5931781,33.5677355
20/2,улица Пожарова,99008,44.6039672,33.5055439
20/3,улица Пожарова,99008,44.6038622,33.5052085
20/1,улица Пожарова,99008,44.6041082,33.5058826
15,Михайловская улица,99002,44.6316779,33.5290929
11,проспект Нахимова,99011,44.6134957,33.5222046
13,проспект Нахимова,99011,44.6132443,33.5223953
3,проспект Нахимова,299011,44.6152667,33.5233182
5,проспект Нахимова,299011,44.6146981,33.5233813
7,проспект Нахимова,99011,44.6139061,33.5226640
11,проспект Нахимова,99011,44.6134447,33.5228016
1,Большая Морская улица,99011,44.6116341,33.5206587
19,проспект Нахимова,99011,44.6122802,33.5210465
21,проспект Нахимова,99011,44.6120898,33.5207016
5,Суздальская улица,299001,44.6069828,33.5512311
5/7,улица Папанина,299001,44.6100369,33.5484170
3,улица Папанина,299011,44.6104950,33.5468001
14,Хрулёва улица,299004,44.6123106,33.5523982
1А,Гранатная улица,299041,44.6083754,33.5656069
1/3,Гранатная улица,299041,44.6091148,33.5649080
1,Гранатная улица,299041,44.6090440,33.5661233
7,улица Генерала Жидилова,299041,44.6057713,33.5730931
23,улица Адмирала Азарова,99003,44.5930405,33.5115519
21,улица Адмирала Азарова,99003,44.5929552,33.5116778
137,Коралловая улица,99000,44.6005661,33.4740836
82,Муромская улица,299022,44.5930504,33.5702187
80А,Муромская улица,299022,44.5935233,33.5699762
80,Муромская улица,299022,44.5936756,33.5693878
79,улица Горпищенко,299022,44.5912783,33.5700236
68,Волнистая улица,299038,44.5856271,33.4710958
98,Красивая улица,29038,44.5847569,33.4717005
44,улица Революции 1905 года,299003,44.5943457,33.5069491
50,улица Революции 1905 года,299003,44.5945490,33.5064275
52,улица Революции 1905 года,299003,44.5946020,33.5063251
54,улица Революции 1905 года,299003,44.5946592,33.5061980
46,улица Революции 1905 года,299003,44.5943713,33.5067395
42,улица Революции 1905 года,299003,44.5941107,33.5073419
90,пр генерала острякова,299029,44.5948745,33.5061887
48,улица Революции 1905 года,299003,44.5945232,33.5065817
44,улица Киевская,299003,44.5959496,33.5053186
40,улица Киевская,299003,44.5956453,33.5057599
10,Балтийская улица,299003,44.5911365,33.5037641
8,Балтийская улица,299003,44.5912140,33.5038603
14,Балтийская улица,299003,44.5910313,33.5032178
14,улица Льва Толстого,299003,44.5945641,33.5150052
4,улица Пушкина,299011,44.6049836,33.5279562
11,Античный проспект,299059,44.5912925,33.4391569
25,улица Героев Бреста,299014,44.5831653,33.4447859
27,улица Героев Бреста,299014,44.5843274,33.4448794
3,улица Бориса Михайлова,299014,44.5838760,33.4434789
21,улица Героев Бреста,299058,44.5820275,33.4455049
28,улица Генерала Лебедя,299055,44.5590425,33.5325117
20,улица Суворова,299011,44.6074559,33.5235716
22,Леваневского улица,99002,44.6307554,33.5399249
16,Чернышевского улица,299002,44.6276995,33.5385866
25А,Инженерная улица,299002,44.6274069,33.5416685
6,Народных Ополченцев улица,99002,44.6298193,33.5376027
6,Симонок улица,299002,44.6321769,33.5367105
43,Гвардейская улица,299002,44.6331288,33.5330991
21,Михайловская улица,299002,44.6330113,33.5298492
78А/2,улица Николая Музыки,299029,44.5811036,33.5218979
98Б,улица Горпищенко,299022,44.5877125,33.5716842
67,проспект Октябрьской Революции,99038,44.5906258,33.4639553
2,Казачья улица,299024,44.5656182,33.4152068
1,Казачья улица,299024,44.5661644,33.4151634
20А,Казачья улица,299024,44.5659674,33.4145365
3,Казачья улица,299024,44.5654657,33.4158965
4,Казачья улица,299024,44.5660209,33.4158443
5,Казачья улица,299024,44.5665531,33.4158111
6,Казачья улица,299024,44.5657169,33.4163968
7,Казачья улица,299024,44.5664632,33.4163674
18,Казачья улица,299024,44.5670517,33.4143393
20,Казачья улица,299024,44.5677984,33.4142933
8,Казачья улица,299024,44.5656802,33.4175536
9,Казачья улица,299024,44.5665744,33.4175134
10,Казачья улица,299024,44.5674420,33.4174088
11,Казачья улица,299024,44.5679374,33.4167817
12,Казачья улица,299024,44.5679808,33.4157511
14,Казачья улица,299024,44.5675094,33.4151653
13,Казачья улица,299024,44.5665720,33.4169103
13А,Казачья улица,299024,44.5670804,33.4167348
15,Казачья улица,299024,44.5675296,33.4166961
17,Казачья улица,299024,44.5668081,33.4152878
16,Казачья улица,299024,44.5673135,33.4159879
54,Казачья улица,299024,44.5662648,33.4182527
1,Лиговская улица,299024,44.5638052,33.4185084
3,Лиговская улица,299024,44.5632214,33.4188133
41,улица Героев Бреста,299059,44.5868626,33.4456179
65,Некрасова улица,99016,44.6434253,33.5566243
48,Аллы Оношко улица,299016,44.6439660,33.5563705
1,улица Бориса Михайлова,299014,44.5833948,33.4417097
1,улица Бориса Михайлова,299014,44.5843647,33.4433071
11,Мачтовая улица,99002,44.6300195,33.5302969
15,Михайловская улица,99002,44.6315206,33.5297463
15,Михайловская улица,99002,44.6318227,33.5295378
4,улица Челнокова,299014,44.5903436,33.4328055
6,улица Бориса Михайлова,299014,44.5818798,33.4394678
32,улица Частника,299008,44.6093546,33.5122274
34,улица Частника,299008,44.6092415,33.5122032
14В,улица Астана Кесаева,299038,44.5874932,33.4550250
39,улица Челнокова,299014,44.5894677,33.4313855
19,улица Бориса Михайлова,299058,44.5787871,33.4437236
22,улица Курчатова,299015,44.6287737,33.5692562
9,Инженерная Балка улица,299002,44.6262747,33.5415772
44,Бутырская улица,99001,44.6074868,33.5462879
42,Бутырская улица,99001,44.6076383,33.5462713
6,улица Астана Кесаева,299038,44.5878953,33.4526746
1,улица Астана Кесаева,299038,44.5855870,33.4529605
2,Радужная улица,299002,44.6464181,33.5406717
4,Радужная улица,299002,44.6465692,33.5405857
8,Радужная улица,299002,44.6468857,33.5406816
6,Радужная улица,299002,44.6466664,33.5407417
12,Виноградная линия,299002,44.6454623,33.5409324
31,проспект Героев Сталинграда,299059,44.5868632,33.4402311
7А,Могилевская улица,299022,44.5970665,33.5629796
3,Могилевская улица,299022,44.5968260,33.5628348
7,Могилевская улица,299022,44.5970594,33.5631313
9,Могилевская улица,299022,44.5971535,33.5633386
5,Могилевская улица,299022,44.5969417,33.5629948
11,Могилевская улица,299022,44.5972659,33.5635549
13,Могилевская улица,299022,44.5973636,33.5637213
15,Могилевская улица,299022,44.5974980,33.5639353
17,Могилевская улица,299022,44.5976120,33.5641036
36 к2,Южногородская улица,299013,44.6620516,33.5486971
33,Фёдоровская улица,99013,44.6698982,33.5481796
39,Фёдоровская улица,99013,44.6703786,33.5486047
27,Фёдоровская улица,99013,44.6694217,33.5477455
21,Фёдоровская улица,99013,44.6687145,33.5476924
23,Фёдоровская улица,99013,44.6689105,33.5473394
29,Фёдоровская улица,99013,44.6696606,33.5472402
19,Фёдоровская улица,99013,44.6682986,33.5470184
17,Фёдоровская улица,99013,44.6682703,33.5474308
31,Фёдоровская улица,99013,44.6701418,33.5476161
37,Фёдоровская улица,99013,44.6706173,33.5480044
35,Фёдоровская улица,99013,44.6697597,33.5485521
11,Фёдоровская улица,99013,44.6677398,33.5469572
61,проспект Героев Сталинграда,299059,44.5927664,33.4460121
12/2,улица Челнокова,299011,44.5977869,33.4367979
16,улица Пожарова,99008,44.6043110,33.5067084
21Д,улица Адмирала Фадеева,299057,44.5961391,33.4645850
33А,улица Вакуленчука,299053,44.5898877,33.4849686
5А,Фиолентовское шоссе,299053,44.5810830,33.4787108
182,проспект Генерала Острякова,299055,44.5627830,33.5249238
62,Античный проспект,299014,44.5901556,33.4345134
50,улица Софьи Перовской,99013,44.6611896,33.5521569
52,улица Софьи Перовской,99013,44.6610498,33.5515333
54,улица Софьи Перовской,99013,44.6607844,33.5509538
44,Качинское шоссе,99013,44.6620640,33.5519475
6А,Казачья улица,299024,44.5669516,33.4163176
128,Фёдоровская улица,99013,44.6737198,33.5645388
53,улица Софьи Перовской,99013,44.6600503,33.5515429
55,улица Софьи Перовской,99013,44.6595243,33.5514572
1,улица Софьи Перовской,299026,44.6597558,33.5559372
56,улица Софьи Перовской,299026,44.6606791,33.5525008
8,Народных Ополченцев улица,299002,44.6301171,33.5374882
57/1,Челюскинцев улица,299016,44.6387281,33.5404033
57/2,Челюскинцев улица,99016,44.6387842,33.5397179
57/3,Челюскинцев улица,99016,44.6390274,33.5395079
62,Фёдоровская улица,99013,44.6695512,33.5544107
124,Фёдоровская улица,99013,44.6739230,33.5643208
126,Фёдоровская улица,99013,44.6739506,33.5648519
123,Фёдоровская улица,99013,44.6742558,33.5645878
121,Фёдоровская улица,99013,44.6742265,33.5643479
127,Фёдоровская улица,99013,44.6743084,33.5650928
125,Фёдоровская улица,99013,44.6742799,33.5648582
110,Фёдоровская улица,99013,44.6737338,33.5624769
16,Варшавская улица,99004,44.6080268,33.5514599
18,Варшавская улица,99004,44.6079040,33.5516108
84,улица Героев Севастополя,99004,44.6079211,33.5522121
22,Варшавская улица,99004,44.6077326,33.5519434
53,улица Героев Севастополя,99004,44.6082287,33.5511048
3,Суздальская улица,99004,44.6076293,33.5508717
80,улица Героев Севастополя,99004,44.6079165,33.5510537
36/2,улица Генерала Родионова,99004,44.6092398,33.5508746
34,улица Генерала Родионова,99004,44.6091682,33.5506704
16,Хрулёва улица,299004,44.6118053,33.5524580
19,Белостокская улица,299001,44.6097774,33.5457665
21,Белостокская улица,299001,44.6096207,33.5457236
4,Бутырская улица,299001,44.6101364,33.5460647
6,Бутырская улица,299001,44.6099787,33.5460990
23,улица Горького,299001,44.6096024,33.5460493
112,Фёдоровская улица,99013,44.6737581,33.5627158
108,Фёдоровская улица,99013,44.6734420,33.5603521
48,Фёдоровская улица,99013,44.6686583,33.5525796
19,Загордянского улица,299002,44.6326067,33.5172645
17,Загордянского улица,299002,44.6322235,33.5164467
49/3,Челюскинцев улица,299016,44.6390969,33.5374853
58,улица Софьи Перовской,299026,44.6616801,33.5531517
57,улица Софьи Перовской,299026,44.6612956,33.5533169
59,улица Софьи Перовской,299026,44.6595186,33.5543541
49,улица Софьи Перовской,299026,44.6603307,33.5554210
44,улица Софьи Перовской,299026,44.6607925,33.5547715
47,улица Софьи Перовской,299026,44.6605574,33.5551453
61,улица Софьи Перовской,299026,44.6608555,33.5535573
4А,Инженерная улица,299002,44.6264364,33.5399598
1,улица Рыбацкий Причал,299053,44.5967573,33.4711085
33,Охотская улица,299009,44.5905707,33.5323878
3,Каштановая улица,299055,44.5567766,33.5525335
16А,улица Павла Корчагина,299014,44.5865678,33.4350262
89А,проспект Генерала Острякова,299040,44.5697775,33.5233748
43В,проспект Октябрьской Революции,299057,44.5924803,33.4590613
1,улица Генерала Петрова,99011,44.6109776,33.5194785
45,Софьи Перовской улица,299026,44.6604596,33.5571404
60,улица Софьи Перовской,299026,44.6613142,33.5537969
27,Арсенальная улица,299022,44.5995234,33.5632605
3,Томская улица,299022,44.5981158,33.5602017
5,Томская улица,299022,44.5980746,33.5603725
7,Томская улица,299022,44.5980419,33.5606193
9,Томская улица,299022,44.5980081,33.5608120
11,Томская улица,299022,44.5978100,33.5610799
13,Томская улица,299022,44.5977053,33.5612216
15,Томская улица,299022,44.5975900,33.5613581
17,Томская улица,299022,44.5974652,33.5615237
19,Томская улица,299022,44.5973283,33.5616699
21,Томская улица,299022,44.5971284,33.5619192
23,Томская улица,299022,44.5969733,33.5620819
25,Томская улица,299022,44.5968295,33.5623620
27,Томская улица,299022,44.5966464,33.5625614
29,Томская улица,299022,44.5964422,33.5628397
31,Томская улица,299022,44.5963183,33.5629631
33,Томская улица,299022,44.5962067,33.5631053
35,Томская улица,299022,44.5960839,33.5632464
37,Томская улица,299022,44.5959691,33.5634156
39,Томская улица,299022,44.5956582,33.5636927
41,Томская улица,299022,44.5955548,33.5638324
43,Томская улица,299022,44.5954523,33.5639529
45,Томская улица,299022,44.5953361,33.5641109
47,Томская улица,299022,44.5952305,33.5642566
49,Томская улица,299022,44.5950677,33.5645853
51,Томская улица,299022,44.5949495,33.5647272
53,Томская улица,299022,44.5948461,33.5648830
55,Томская улица,299022,44.5947195,33.5650485
57,Томская улица,299022,44.5946281,33.5651703
59,Томская улица,299022,44.5944299,33.5653780
61,Томская улица,299022,44.5943489,33.5655616
63,Томская улица,299022,44.5942503,33.5656978
65,Томская улица,299022,44.5941501,33.5658284
67,Томская улица,299022,44.5939717,33.5660694
69,Томская улица,299022,44.5938865,33.5662014
71,Томская улица,299022,44.5937834,33.5663375
73,Томская улица,299022,44.5936796,33.5664724
75,Томская улица,299022,44.5934997,33.5667207
77,Томская улица,299022,44.5933847,33.5668292
79,Томская улица,299022,44.5933018,33.5669801
81,Томская улица,299022,44.5932079,33.5670946
4,Томская улица,299022,44.5978455,33.5597684
6,Томская улица,299022,44.5978214,33.5600217
8,Томская улица,299022,44.5977606,33.5603155
10,Томская улица,299022,44.5977396,33.5605099
12,Томская улица,299022,44.5977045,33.5607229
14,Томская улица,299022,44.5975815,33.5609063
16,Томская улица,299022,44.5972651,33.5611329
24,Томская улица,299022,44.5969237,33.5615691
26,Томская улица,299022,44.5968400,33.5616970
32,Томская улица,299022,44.5963698,33.5623634
34,Томская улица,299022,44.5962244,33.5625326
30,Томская улица,299022,44.5964761,33.5620544
36,Томская улица,299022,44.5961257,33.5626290
38,Томская улица,299022,44.5960131,33.5627727
42,Томская улица,299022,44.5958941,33.5629036
44,Томская улица,299022,44.5957381,33.5630416
46,Томская улица,299022,44.5954572,33.5634754
48,Томская улица,299022,44.5953580,33.5635963
50,Томская улица,299022,44.5952507,33.5637429
52,Томская улица,299022,44.5951308,33.5639070
54,Томская улица,299022,44.5950198,33.5640563
56,Томская улица,299022,44.5949146,33.5642012
58,Томская улица,299022,44.5947977,33.5643704
60,Томская улица,299022,44.5946980,33.5645190
62,Томская улица,299022,44.5945751,33.5646676
64,Томская улица,299022,44.5944319,33.5648621
66,Томская улица,299022,44.5942376,33.5651153
68,Томская улица,299022,44.5941316,33.5652606
70,Томская улица,299022,44.5940411,33.5653960
72,Томская улица,299022,44.5939197,33.5655378
74,Томская улица,299022,44.5938325,33.5656615
76,Томская улица,299022,44.5936179,33.5659532
78,Томская улица,299022,44.5934214,33.5663201
80,Томская улица,299022,44.5933244,33.5664477
82,Томская улица,299022,44.5932200,33.5665774
4,Костромская улица,299022,44.5944928,33.5702580
49,Муромская улица,299022,44.5938481,33.5709167
29,Кронштадтская улица,299022,44.5961198,33.5637211
31,Кронштадтская улица,299022,44.5962167,33.5638813
33,Кронштадтская улица,299022,44.5963196,33.5640322
35,Кронштадтская улица,299022,44.5964069,33.5641895
37,Кронштадтская улица,299022,44.5965431,33.5644057
39,Кронштадтская улица,299022,44.5966404,33.5645787
41,Кронштадтская улица,299022,44.5967341,33.5647582
16,Кронштадтская улица,299022,44.5958340,33.5640895
18,Кронштадтская улица,299022,44.5959150,33.5642421
20,Кронштадтская улица,299022,44.5960086,33.5643771
22,Кронштадтская улица,299022,44.5960964,33.5645232
24,Кронштадтская улица,299022,44.5961646,33.5646818
26,Кронштадтская улица,299022,44.5962656,33.5647985
28,Кронштадтская улица,299022,44.5963519,33.5649403
30,Кронштадтская улица,299022,44.5963755,33.5651643
32,Кронштадтская улица,299022,44.5965039,33.5652180
34,Кронштадтская улица,299022,44.5966097,33.5653708
36,Кронштадтская улица,299022,44.5967089,33.5655305
38,Кронштадтская улица,299022,44.5968152,33.5657135
3,Арсенальная улица,299022,44.5981152,33.5609980
5,Арсенальная улица,299022,44.5982221,33.5611500
7,Арсенальная улица,299022,44.5983886,33.5612552
9,Арсенальная улица,299022,44.5984183,33.5614572
11,Арсенальная улица,299022,44.5985392,33.5616206
13,Арсенальная улица,299022,44.5986174,33.5617962
15,Арсенальная улица,299022,44.5987053,33.5619284
17,Арсенальная улица,299022,44.5988070,33.5620794
19,Арсенальная улица,299022,44.5989005,33.5622271
21,Арсенальная улица,299022,44.5990014,33.5624260
23,Арсенальная улица,299022,44.5991335,33.5625694
25,Арсенальная улица,299022,44.5992143,33.5627480
4,Арсенальная улица,299022,44.5979795,33.5613540
6,Арсенальная улица,299022,44.5980861,33.5615297
8,Арсенальная улица,299022,44.5982006,33.5617258
10,Арсенальная улица,299022,44.5983106,33.5618983
12,Арсенальная улица,299022,44.5983850,33.5620315
14,Арсенальная улица,299022,44.5984714,33.5621539
16,Арсенальная улица,299022,44.5985131,33.5622955
18,Арсенальная улица,299022,44.5986388,33.5624469
20,Арсенальная улица,299022,44.5986773,33.5627022
9,Модлинская улица,299022,44.5975472,33.5620054
11,Модлинская улица,299022,44.5976406,33.5621793
13,Модлинская улица,299022,44.5977287,33.5623336
15,Модлинская улица,299022,44.5978214,33.5624892
17,Модлинская улица,299022,44.5980047,33.5625314
19,Модлинская улица,299022,44.5980358,33.5628382
21,Модлинская улица,299022,44.5981519,33.5630297
23,Модлинская улица,299022,44.5982542,33.5631921
3,Модлинская улица,299022,44.5969051,33.5610243
2,Модлинская улица,299022,44.5967051,33.5612321
4,Модлинская улица,299022,44.5967890,33.5613616
24,Модлинская улица,299022,44.5980799,33.5634502
8,Модлинская улица,299022,44.5972974,33.5621844
10,Модлинская улица,299022,44.5973954,33.5623466
12,Модлинская улица,299022,44.5975069,33.5625310
14,Модлинская улица,299022,44.5976110,33.5626913
16,Модлинская улица,299022,44.5977573,33.5629507
18,Модлинская улица,299022,44.5978472,33.5630793
20,Модлинская улица,299022,44.5979144,33.5631972
22,Модлинская улица,299022,44.5979673,33.5632947
3,Витебская улица,299022,44.5954195,33.5645446
5,Витебская улица,299022,44.5955194,33.5646875
7,Витебская улица,299022,44.5956162,33.5648431
9,Витебская улица,299022,44.5957097,33.5649670
11,Витебская улица,299022,44.5958045,33.5651374
13,Витебская улица,299022,44.5959077,33.5652825
15,Витебская улица,299022,44.5960034,33.5654473
17,Витебская улица,299022,44.5961041,33.5656017
19,Витебская улица,299022,44.5962179,33.5657586
10,Бакуниной улица,299022,44.5946733,33.5657121
12,Бакуниной улица,299022,44.5948087,33.5659167
14,Бакуниной улица,299022,44.5949349,33.5660969
16,Бакуниной улица,299022,44.5950463,33.5662550
18,Бакуниной улица,299022,44.5951344,33.5663836
20,Бакуниной улица,299022,44.5952360,33.5665091
22,Бакуниной улица,299022,44.5953308,33.5666686
24,Бакуниной улица,299022,44.5953509,33.5669695
3,Ладожская улица,299022,44.5943063,33.5661095
5,Ладожская улица,299022,44.5943916,33.5662346
7,Ладожская улица,299022,44.5944956,33.5663772
9,Ладожская улица,299022,44.5945907,33.5665161
11,Ладожская улица,299022,44.5946859,33.5666489
13,Ладожская улица,299022,44.5947862,33.5667955
15,Ладожская улица,299022,44.5948796,33.5669336
17,Ладожская улица,299022,44.5949657,33.5670513
19,Ладожская улица,299022,44.5950617,33.5671981
21,Ладожская улица,299022,44.5951642,33.5673176
4,Ладожская улица,299022,44.5941658,33.5663011
6,Ладожская улица,299022,44.5942550,33.5664194
8,Ладожская улица,299022,44.5943522,33.5665517
10,Ладожская улица,299022,44.5944298,33.5666615
12,Ладожская улица,299022,44.5945344,33.5668153
14,Ладожская улица,299022,44.5946338,33.5669658
16,Ладожская улица,299022,44.5947445,33.5671117
18,Ладожская улица,299022,44.5948307,33.5672394
20,Ладожская улица,299022,44.5949241,33.5673807
22,Ладожская улица,299022,44.5950091,33.5675048
5,Вологодская улица,299022,44.5938695,33.5667987
7,Вологодская улица,299022,44.5940161,33.5669991
9Б,Вологодская улица,299022,44.5941093,33.5671390
9А,Вологодская улица,299022,44.5942117,33.5672670
11А,Вологодская улица,299022,44.5943021,33.5674297
11,Вологодская улица,299022,44.5944036,33.5675391
13,Вологодская улица,299022,44.5944949,33.5676867
15,Вологодская улица,299022,44.5945932,33.5678231
17,Вологодская улица,299022,44.5946883,33.5679459
22,Вологодская улица,299022,44.5945389,33.5681326
20,Вологодская улица,299022,44.5944575,33.5680014
18,Вологодская улица,299022,44.5943612,33.5678705
16,Вологодская улица,299022,44.5942606,33.5677235
14,Вологодская улица,299022,44.5941662,33.5675964
12,Вологодская улица,299022,44.5940641,33.5674521
10,Вологодская улица,299022,44.5939838,33.5673377
8,Вологодская улица,299022,44.5938632,33.5671923
6,Вологодская улица,299022,44.5937893,33.5670547
4,Вологодская улица,299022,44.5937005,33.5669112
9,Костромская улица,299022,44.5934613,33.5674961
11,Костромская улица,299022,44.5935456,33.5676257
13,Костромская улица,299022,44.5936485,33.5677747
15,Костромская улица,299022,44.5937536,33.5679216
17,Костромская улица,299022,44.5938390,33.5680428
19,Костромская улица,299022,44.5939313,33.5681755
21,Костромская улица,299022,44.5940313,33.5683332
23,Костромская улица,299022,44.5941252,33.5684476
25,Костромская улица,299022,44.5942189,33.5685854
29,Арсенальная улица,299022,44.6000839,33.5638639
1,Астраханская улица,299022,44.6003151,33.5647681
3,Астраханская улица,299022,44.6001610,33.5653712
2А,Астраханская улица,299022,44.6000090,33.5642705
2,Астраханская улица,299022,44.5997633,33.5644766
1А,Ярославская улица,299022,44.5997646,33.5638871
1,Ярославская улица,299022,44.5995286,33.5640849
3,Ярославская улица,299022,44.5993077,33.5643474
5,Ярославская улица,299022,44.5990963,33.5645844
7,Ярославская улица,299022,44.5988762,33.5648369
9,Ярославская улица,299022,44.5986781,33.5650829
11,Ярославская улица,299022,44.5984574,33.5653339
13,Ярославская улица,299022,44.5982482,33.5655855
15,Ярославская улица,299022,44.5977814,33.5660520
15А,Ярославская улица,299022,44.5975728,33.5663550
2,Ярославская улица,299022,44.5993118,33.5638560
6,Ярославская улица,299022,44.5991490,33.5640219
4,Ярославская улица,299022,44.5990958,33.5637690
8,Ярославская улица,299022,44.5989300,33.5643054
10,Ярославская улица,299022,44.5986759,33.5645498
12,Ярославская улица,299022,44.5984436,33.5648116
14,Ярославская улица,299022,44.5982118,33.5650898
16,Ярославская улица,299022,44.5979950,33.5653525
18,Ярославская улица,299022,44.5976469,33.5658191
18А,Ярославская улица,299022,44.5974243,33.5660520
17,Ярославская улица,299022,44.5973254,33.5666824
19,Ярославская улица,299022,44.5971675,33.5668943
21,Ярославская улица,299022,44.5969982,33.5671281
23,Ярославская улица,299022,44.5968372,33.5673486
25,Ярославская улица,299022,44.5966701,33.5675745
27,Ярославская улица,299022,44.5965051,33.5678003
20,Ярославская улица,299022,44.5971151,33.5663342
22,Ярославская улица,299022,44.5969944,33.5666286
24,Ярославская улица,299022,44.5968240,33.5668742
26,Ярославская улица,299022,44.5966523,33.5670983
28,Ярославская улица,299022,44.5964949,33.5673223
30,Ярославская улица,299022,44.5963206,33.5675545
29,Ярославская улица,299022,44.5962528,33.5681414
31,Ярославская улица,299022,44.5960759,33.5683661
33,Ярославская улица,299022,44.5959232,33.5686001
35,Ярославская улица,299022,44.5957544,33.5688075
37,Ярославская улица,299022,44.5955922,33.5690398
39,Ярославская улица,299022,44.5954230,33.5692762
41,Ярославская улица,299022,44.5952528,33.5694787
43,Ярославская улица,299022,44.5950972,33.5697298
32,Ярославская улица,299022,44.5960763,33.5678999
34,Ярославская улица,299022,44.5959025,33.5681067
36,Ярославская улица,299022,44.5957359,33.5683378
38,Ярославская улица,299022,44.5955685,33.5685573
40,Ярославская улица,299022,44.5953973,33.5688083
42,Ярославская улица,299022,44.5952477,33.5690142
44,Ярославская улица,299022,44.5950928,33.5692088
46,Ярославская улица,299022,44.5949119,33.5694942
4,Астраханская улица,299022,44.5994036,33.5648907
6,Астраханская улица,299022,44.5990139,33.5653223
8,Астраханская улица,299022,44.5985638,33.5658673
10,Астраханская улица,299022,44.5980403,33.5664905
12,Астраханская улица,299022,44.5975978,33.5670434
14,Астраханская улица,299022,44.5974325,33.5672739
16,Астраханская улица,299022,44.5972692,33.5675105
18,Астраханская улица,299022,44.5971008,33.5677323
20,Астраханская улица,299022,44.5969302,33.5679561
22,Астраханская улица,299022,44.5967810,33.5681878
24,Астраханская улица,299022,44.5965331,33.5685440
26,Астраханская улица,299022,44.5963506,33.5687504
28,Астраханская улица,299022,44.5962048,33.5690209
30,Астраханская улица,299022,44.5960154,33.5692482
32,Астраханская улица,299022,44.5958553,33.5694271
34,Астраханская улица,299022,44.5956878,33.5696550
36,Астраханская улица,299022,44.5955221,33.5698839
38,Астраханская улица,299022,44.5953717,33.5701293
22,Арсенальная улица,299022,44.5989908,33.5630097
12,Муромская улица,299022,44.5988199,33.5631997
14,Муромская улица,299022,44.5986460,33.5634255
16,Муромская улица,299022,44.5985096,33.5635999
18,Муромская улица,299022,44.5983069,33.5638206
20,Муромская улица,299022,44.5981640,33.5640109
22,Муромская улица,299022,44.5980167,33.5641607
24,Муромская улица,299022,44.5978124,33.5644029
26,Муромская улица,299022,44.5975774,33.5646859
28,Муромская улица,299022,44.5973815,33.5648257
30,Муромская улица,299022,44.5972362,33.5650819
32,Муромская улица,299022,44.5970903,33.5652554
42,Муромская улица,299022,44.5964241,33.5660430
56,Муромская улица,299022,44.5956723,33.5671546
58,Муромская улица,299022,44.5955773,33.5673083
60,Муромская улица,299022,44.5954756,33.5674349
62,Муромская улица,299022,44.5953969,33.5675712
64,Муромская улица,299022,44.5952243,33.5678079
66,Муромская улица,299022,44.5951162,33.5679447
68,Муромская улица,299022,44.5950299,33.5680665
70,Муромская улица,299022,44.5949243,33.5682063
72,Муромская улица,299022,44.5947571,33.5684347
74,Муромская улица,299022,44.5946444,33.5685849
76,Муромская улица,299022,44.5945367,33.5686897
78,Муромская улица,299022,44.5944707,33.5688360
1,Муромская улица,299022,44.5991544,33.5632899
3,Муромская улица,299022,44.5990094,33.5634671
5,Муромская улица,299022,44.5988833,33.5636428
7,Муромская улица,299022,44.5986776,33.5638681
9,Муромская улица,299022,44.5984389,33.5641598
11,Муромская улица,299022,44.5981994,33.5644374
13,Муромская улица,299022,44.5979954,33.5646804
15,Муромская улица,299022,44.5977618,33.5649535
17,Муромская улица,299022,44.5973960,33.5654076
17А,Муромская улица,299022,44.5971893,33.5656451
19,Муромская улица,299022,44.5968804,33.5660101
21,Муромская улица,299022,44.5967208,33.5662523
23,Муромская улица,299022,44.5965520,33.5664697
25,Муромская улица,299022,44.5963895,33.5666959
27,Муромская улица,299022,44.5962079,33.5669151
29,Муромская улица,299022,44.5960756,33.5671053
31,Муромская улица,299022,44.5958100,33.5674901
33,Муромская улица,299022,44.5956525,33.5677309
35,Муромская улица,299022,44.5954772,33.5679501
37,Муромская улица,299022,44.5953137,33.5681783
39,Муромская улица,299022,44.5951477,33.5684030
41,Муромская улица,299022,44.5949840,33.5686315
43,Муромская улица,299022,44.5948164,33.5689031
45,Муромская улица,299022,44.5946376,33.5690842
1,Закамчатская улица,299022,44.5987729,33.5602145
2,Закамчатская улица,299022,44.5985168,33.5601365
4,Закамчатская улица,299022,44.5984899,33.5603658
6,Закамчатская улица,299022,44.5984138,33.5606388
8,Закамчатская улица,299022,44.5985527,33.5607625
10,Закамчатская улица,299022,44.5986568,33.5609264
3,Закамчатская улица,299022,44.5988622,33.5606951
5,Закамчатская улица,299022,44.5989436,33.5608613
7,Закамчатская улица,299022,44.5990491,33.5610085
9,Закамчатская улица,299022,44.5991407,33.5611561
11,Закамчатская улица,299022,44.5992437,33.5613143
13,Закамчатская улица,299022,44.5993285,33.5614852
15,Закамчатская улица,299022,44.5994703,33.5616072
17,Закамчатская улица,299022,44.5995458,33.5618009
19,Закамчатская улица,299022,44.5996760,33.5620125
12,Закамчатская улица,299022,44.5987542,33.5610853
14,Закамчатская улица,299022,44.5988537,33.5612340
16,Закамчатская улица,299022,44.5989527,33.5614006
18,Закамчатская улица,299022,44.5990455,33.5615576
20,Закамчатская улица,299022,44.5991473,33.5617328
22,Закамчатская улица,299022,44.5992129,33.5619099
24,Закамчатская улица,299022,44.5993467,33.5620490
26,Закамчатская улица,299022,44.5994553,33.5622022
8,Черниговская улица,299022,44.5991792,33.5603271
10,Черниговская улица,299022,44.5993606,33.5604242
12,Черниговская улица,299022,44.5994105,33.5606267
14,Черниговская улица,299022,44.5994869,33.5607774
16,Черниговская улица,299022,44.5996567,33.5608370
18,Черниговская улица,299022,44.5997452,33.5610371
20,Черниговская улица,299022,44.5998441,33.5611166
22,Черниговская улица,299022,44.5998814,33.5613177
1,Батарейная улица,299026,44.6619837,33.5540607
1,Батарейная улица,299026,44.6622290,33.5543971
4А,Пушкарский переулок,299013,44.6662361,33.5466428
129,Челюскинцев улица,299002,44.6558572,33.5489119
22,Корсунская улица,299008,44.6050033,33.5033761
13,Инженерная Балка улица,299002,44.6265052,33.5421366
8А,Инженерная улица,299002,44.6268332,33.5410387
21,Инженерная улица,299002,44.6270467,33.5411708
15,улица Богданова,299016,44.6373727,33.5462081
9,3-я Голландская улица,299015,44.6301766,33.5758846
7,3-я Голландская улица,299015,44.6300169,33.5758520
15/4,улица Репина,299045,44.5948766,33.4925255
12,улица Истомина,299012,44.6043190,33.5515215
71,Камышовое шоссе,299014,44.5732833,33.4409537
66,улица Софьи Перовской,299026,44.6590159,33.5554054
65,улица Софьи Перовской,299026,44.6600721,33.5555334
26,Камышовое шоссе,299038,44.5640167,33.4754948
55,улица Софьи Перовской,299026,44.6609840,33.5524820
58,улица Софьи Перовской,299026,44.6615492,33.5528892
59А,улица Софьи Перовской,299026,44.6597706,33.5538839
66,Софьи Перовской улица,299026,44.6585910,33.5556632
20,Стрелецкий проезд,299038,44.5810821,33.4740508
2,улица Килен-Балка,299041,44.6113209,33.5607203
7,Астраханская улица,299022,44.5998498,33.5655737
42,Черниговская улица,299022,44.6009229,33.5649289
3,улица Килен-Балка,299041,44.6116104,33.5604498
2,улица Генерала Жидилова,299041,44.6066542,33.5658178
37/8,Лиговская улица,299024,44.5627825,33.4209577
37/4,Лиговская улица,299024,44.5619833,33.4211734
4,Цыбулько улица,299012,44.6036634,33.5541786
45,улица Истомина,299012,44.6031842,33.5536091
3,Пляжная улица,299001,44.6155746,33.5425663
74Ж,улица Хрусталёва,299055,44.5569900,33.5222752
37/9,Лиговская улица,299024,44.5627859,33.4212579
262/6,проспект Генерала Острякова,299055,44.5506195,33.5306590
15А,Мачтовая улица,299002,44.6300535,33.5288436
166Б,проспект Генерала Острякова,299055,44.5638426,33.5242117
164А/1,проспект Генерала Острякова,299055,44.5637482,33.5245336
166А,проспект Генерала Острякова,299055,44.5635130,33.5241904
7А,Западный берег Камышовой Бухты улица,299014,44.5758769,33.4251032
21,Пятницкий проезд,299015,44.5727361,33.4719087
23,Пятницкий проезд,299014,44.5728186,33.4718838
25,Пятницкий проезд,299014,44.5729155,33.4717935
29,улица Комбрига Потапова,299021,44.5678622,33.4643173
29А,улица Адмирала Юмашева,299038,44.5912371,33.4638018
131,Коралловая улица,99000,44.6001673,33.4735658
127,Коралловая улица,99000,44.5998941,33.4731733
7,1-й Академический переулок,299000-299699,44.5999882,33.4745030
4,Промышленная улица,299040,44.5698014,33.5158222
9/62,улица Людмилы Бобковой,299024,44.5631253,33.4019361
1-А/2,Казачья улица,299024,44.5639747,33.4230382
25,Арама Сунгурьяна улица,299014,44.5664979,33.4349532
29,Арама Сунгурьяна улица,299014,44.5663991,33.4342209
33,Арама Сунгурьяна улица,299014,44.5662088,33.4337576
2А к2,улица Степаняна,299038,44.5920628,33.4699616
52/1,проспект Гагарина,299028,44.6022156,33.4760686
52/3,проспект Гагарина,299028,44.6021800,33.4756163
52/4,проспект Гагарина,299028,44.6024845,33.4755208
52/5,проспект Гагарина,299028,44.6027265,33.4755057
52/6,проспект Гагарина,299028,44.6029714,33.4755015
17,Щорса улица,299008,44.6038956,33.5150483
15А,Щорса улица,299008,44.6039832,33.5152961
13,Щорса улица,299008,44.6040753,33.5154817
11,Щорса улица,299008,44.6041579,33.5156661
5,Щорса улица,299008,44.6043044,33.5160837
72,Керченская улица,299011,44.6035492,33.5182358
34,Новороссийская улица,299011,44.6055287,33.5180705
73,улица Частника,299008,44.6061010,33.5132459
71,улица Частника,299008,44.6062287,33.5131365
72,улица Частника,299008,44.6063465,33.5127064
32,6-я Бастионная улица,299008,44.6051451,33.5120088
1,Индустриальная улица,299044,44.5612024,33.5162866
5,Городское шоссе,299055,44.5487098,33.5312646
20,Новороссийская улица,299011,44.6065497,33.5173936
9,Громова улица,299002,44.6293880,33.5343489
21,улица Льва Толстого,299003,44.5938340,33.5156245
25,улица Очаковцев,299011,44.6051801,33.5208742
21А,улица Очаковцев,299003,44.6055265,33.5200744
1,улица Пирогова,299011,44.5998774,33.5170610
2,Попова улица,299011,44.6002442,33.5194671
3,Михайловская улица,299002,44.6328997,33.5282021
4,Смоленская улица,299016,44.6378670,33.5473188
6,Казарского улица,299016,44.6383854,33.5481658
15,Смоленская улица,299016,44.6389479,33.5474431
19,Казарского улица,299016,44.6393061,33.5478830
22,Смоленская улица,299016,44.6396635,33.5480882
23,Смоленская улица,299016,44.6396515,33.5478478
29,Смоленская улица,299016,44.6402195,33.5480708
27,Смоленская улица,299016,44.6400560,33.5479588
22,Калюжного улица,299016,44.6404173,33.5478325
7,переулок Калюжного,299016,44.6405765,33.5481886
5,переулок Калюжного,299016,44.6406930,33.5479531
3,переулок Калюжного,299016,44.6407086,33.5476845
28,улица Кряжева,299016,44.6408265,33.5474605
30,улица Кряжева,299016,44.6409612,33.5474859
21,улица Кряжева,299016,44.6405920,33.5468291
7,Чехова улица,299016,44.6378058,33.5479718
6,Калюжного улица,299016,44.6384100,33.5468392
6,Смоленская улица,299016,44.6380363,33.5474535
12,Калюжного улица,299016,44.6389596,33.5470314
21,Смоленская улица,299016,44.6394700,33.5477440
17,улица Кряжева,299016,44.6401776,33.5466110
15,улица Кряжева,299016,44.6400788,33.5464994
9,улица Кряжева,299016,44.6395694,33.5460807
11,улица Кряжева,299016,44.6396297,33.5462756
2,Серафимовича улица,99016,44.6388683,33.5428828
1,улица Богданова,99016,44.6386280,33.5427943
6А,Серафимовича улица,299016,44.6385536,33.5437613
3,улица Богданова,299016,44.6385853,33.5430379
4,Серафимовича улица,299016,44.6387097,33.5433611
6,улица Кряжева,299016,44.6387725,33.5463616
4,Калюжного улица,299016,44.6382231,33.5467941
2,Калюжного улица,299016,44.6380135,33.5467078
3Б,Калюжного улица,299016,44.6382230,33.5464751
3А,Калюжного улица,299016,44.6381252,33.5463907
4В,улица Кряжева,299016,44.6385577,33.5461789
4,улица Кряжева,299016,44.6383895,33.5460992
3,улица Кряжева,299016,44.6384206,33.5458238
13,Серафимовича улица,299016,44.6382397,33.5457230
7Б,улица Богданова,299016,44.6380631,33.5442532
7В,улица Богданова,299016,44.6379356,33.5444303
9А,улица Богданова,299016,44.6378781,33.5446998
9Б,улица Богданова,299016,44.6377526,33.5449347
10А,Серафимовича улица,299016,44.6381782,33.5449340
10Б,Серафимовича улица,299016,44.6382751,33.5447035
10В,Серафимовича улица,299016,44.6383448,33.5444399
8Б,Серафимовича улица,299016,44.6384119,33.5442235
7,улица Богданова,299016,44.6383076,33.5438097
7А,улица Богданова,299016,44.6381580,33.5440358
86,Мореходная улица,299041,44.6107219,33.5668727
84,Мореходная улица,299041,44.6108267,33.5666872
80,Мореходная улица,299041,44.6110712,33.5661566
78,Мореходная улица,299041,44.6111692,33.5659489
62,Мореходная улица,299041,44.6118169,33.5644710
58,Мореходная улица,299041,44.6120976,33.5640024
56,Мореходная улица,299041,44.6121554,33.5638263
50,Мореходная улица,299041,44.6124058,33.5633481
38,Мореходная улица,299041,44.6129661,33.5630563
33,Мореходная улица,299041,44.6110205,33.5670668
35,Мореходная улица,299041,44.6109452,33.5677092
31,Мореходная улица,299041,44.6112084,33.5665819
29,Мореходная улица,299041,44.6113335,33.5663847
27,Мореходная улица,299041,44.6114588,33.5660623
25,Мореходная улица,299041,44.6115729,33.5658823
21,Мореходная улица,299041,44.6117422,33.5654922
66,Мореходная улица,299041,44.6116942,33.5648663
60А,Мореходная улица,299041,44.6119200,33.5643581
60,Мореходная улица,299041,44.6120331,33.5642012
52,Мореходная улица,299041,44.6123272,33.5635837
48,Мореходная улица,299041,44.6125318,33.5632896
46,Мореходная улица,299041,44.6126814,33.5631913
40,Мореходная улица,299041,44.6129157,33.5629537
34,Мореходная улица,299041,44.6130701,33.5625004
26,Мореходная улица,299041,44.6134544,33.5617469
22,Мореходная улица,299041,44.6136044,33.5613845
14,Мореходная улица,299041,44.6138914,33.5606004
42,Мореходная улица,299041,44.6128262,33.5627480
19А,Мореходная улица,299041,44.6121619,33.5645827
82,Мореходная улица,299041,44.6109624,33.5664769
22/6,проспект Октябрьской Революции,299038,44.5904760,33.4527211
7,улица Сладкова,22053,44.5967265,33.4793011
2/1,улица Сладкова,299053,44.5969685,33.4787999
18/1,улица Сладкова,299053,44.5949304,33.4799486
16,улица Сладкова,299053,44.5950836,33.4798653
38,Фёдоровская улица,299013,44.6682036,33.5517118
36,Фёдоровская улица,99013,44.6681865,33.5515261
67,Батумская улица,299011,44.6019395,33.5186334
69,Батумская улица,299011,44.6018186,33.5186740
69,Батумская улица,299011,44.6017122,33.5187689
57,улица Кулакова,299011,44.6027336,33.5207206
7,улица Хрусталёва,99029,44.5849607,33.5163303
11А,улица Хрусталёва,99029,44.5839424,33.5156627
11,Балаклавская улица,299011,44.5998911,33.5212317
22,Древняя улица,299000-299699,44.6070459,33.4934970
26,Древняя улица,299000-299699,44.6073106,33.4940271
21,Древняя улица,299000-299699,44.6077255,33.4934619
60,Волнистая улица,299038,44.5854178,33.4720443
58,Волнистая улица,299038,44.5855090,33.4721784
64,Волнистая улица,299038,44.5852367,33.4717361
57,Волнистая улица,299038,44.5860984,33.4722179
36,Волнистая улица,299038,44.5856349,33.4718312
66,Волнистая улица,299038,44.5853328,33.4714563
54,Волнистая улица,299038,44.5856442,33.4725258
42,Волнистая улица,299038,44.5857414,33.4723970
50,Волнистая улица,299038,44.5857979,33.4729019
52,Волнистая улица,299038,44.5859688,33.4729660
24,Волнистая улица,299038,44.5862891,33.4702917
4,Фёдоровская улица,299013,44.6666772,33.5467079
6,Фёдоровская улица,299013,44.6667930,33.5471853
42,Чехова улица,299016,44.6400838,33.5495381
6,Каховская улица,299016,44.6397369,33.5504174
5,Каховская улица,299016,44.6397847,33.5502258
36,улица Тельмана,299016,44.6403961,33.5510718
34,улица Тельмана,299016,44.6402571,33.5510252
32А,улица Тельмана,299016,44.6401310,33.5509996
35,Переяславская улица,299016,44.6395456,33.5514404
39,Переяславская улица,299016,44.6398735,33.5512562
28,улица Тельмана,299016,44.6397588,33.5508222
26,улица Тельмана,299016,44.6394557,33.5506941
23,Переяславская улица,299016,44.6383024,33.5508587
21,Переяславская улица,299016,44.6382158,33.5505416
17,Переяславская улица,299016,44.6376182,33.5506224
15,Переяславская улица,299016,44.6374138,33.5505418
9,Чехова улица,299016,44.6383234,33.5484529
36,Чехова улица,299016,44.6395380,33.5493132
18,Волочаевская улица,299016,44.6396168,33.5499831
16,Волочаевская улица,299016,44.6393088,33.5498167
10,Волочаевская улица,299016,44.6384245,33.5495458
20,Чехова улица,299016,44.6380762,33.5487469
7,улица Тельмана,299016,44.6379587,33.5497454
5,улица Тельмана,299016,44.6377916,33.5496739
2,Волочаевская улица,299016,44.6372483,33.5492426
1,улица Тельмана,299016,44.6371623,33.5494073
11,Переяславская улица,299016,44.6371087,33.5504926
32,Переяславская улица,299016,44.6377509,33.5511913
36,Переяславская улица,299016,44.6379977,33.5512942
38,Переяславская улица,299016,44.6381678,33.5513707
40,Переяславская улица,299016,44.6383613,33.5514686
23,улица Тельмана,299016,44.6399669,33.5505811
30,Чехова улица,299016,44.6385777,33.5490805
28,Чехова улица,299016,44.6385705,33.5489507
20,улица Тельмана,299016,44.6386786,33.5503586
18,улица Тельмана,299016,44.6385660,33.5503018
60,Переяславская улица,299016,44.6398725,33.5520655
14,Потёмкинцев улица,299016,44.6404485,33.5513960
47,Переяславская улица,299016,44.6404837,33.5519415
44,Переяславская улица,299016,44.6386623,33.5515783
52,Переяславская улица,299016,44.6392101,33.5517660
50,Переяславская улица,299016,44.6390679,33.5517217
46,Переяславская улица,299016,44.6388141,33.5516372
27А,Переяславская улица,299016,44.6386619,33.5509814
4,Александера улица,299016,44.6367299,33.5521174
6,Александера улица,299016,44.6369017,33.5521670
3,Александера улица,299016,44.6373483,33.5517969
1А,Александера улица,299016,44.6371755,33.5517579
1,Александера улица,299016,44.6369332,33.5516761
27,Казарского улица,299016,44.6401728,33.5484686
5,Потёмкинцев улица,299016,44.6402843,33.5495691
28,Казарского улица,299016,44.6403938,33.5490320
29,Чехова улица,299016,44.6400214,33.5491483
12,Чехова улица,299016,44.6374159,33.5484981
14,Чехова улица,299016,44.6376032,33.5485653
16,Казарского улица,299016,44.6391692,33.5486216
23А,Чехова улица,299016,44.6395449,33.5489745
11,Казарского улица,299016,44.6384701,33.5478588
9,Смоленская улица,299016,44.6385199,33.5475086
7,Смоленская улица,299016,44.6384395,33.5474033
5,Смоленская улица,299016,44.6382427,33.5472509
13,Смоленская улица,299016,44.6387887,33.5476759
11,Смоленская улица,299016,44.6386400,33.5475653
18,Калюжного улица,299016,44.6395658,33.5474508
18,Смоленская улица,299016,44.6391438,33.5479534
16,Смоленская улица,299016,44.6390606,33.5478791
23,Казарского улица,299016,44.6395805,33.5484317
18,Казарского улица,299016,44.6393246,33.5485994
20,Казарского улица,299016,44.6394811,33.5486221
22,Казарского улица,299016,44.6395672,33.5486421
13,Казарского улица,299016,44.6386694,33.5479743
10,Казарского улица,299016,44.6387670,33.5483196
11,Мореходная улица,299041,44.6138950,33.5614595
7,Мореходная улица,299041,44.6142611,33.5607910
163,Мореходная улица,299041,44.6135279,33.5603460
31А,Мореходная улица,299041,44.6127618,33.5635316
1А,улица Дмитрия Загорулько,299004,44.6109026,33.5517497
12,Мореходная улица,299041,44.6141841,33.5601103
15,Мореходная улица,299041,44.6136346,33.5622324
13/2,Мореходная улица,299041,44.6137985,33.5618678
91,Мореходная улица,299000-299699,44.6104987,33.5679080
9,Мореходная улица,299041,44.6140426,33.5611082
19Б/1,Мореходная улица,299041,44.6125307,33.5639552
3А,Мореходная улица,299041,44.6147231,33.5614982
19,Мореходная улица,299041,44.6131068,33.5632264
3,Мореходная улица,299041,44.6148606,33.5606009
18,Мореходная улица,299041,44.6138502,33.5609381
20,Мореходная улица,299041,44.6137411,33.5611719
17,Мореходная улица,299041,44.6133409,33.5629041
23,Мореходная улица,299041,44.6117076,33.5657016
29,Абрикосовая улица,299041,44.6074386,33.5634137
27,Абрикосовая улица,299041,44.6076492,33.5632813
31,Абрикосовая улица,299041,44.6072719,33.5635947
33,Абрикосовая улица,299041,44.6070490,33.5636396
35,Абрикосовая улица,299041,44.6068893,33.5639253
37,Абрикосовая улица,299041,44.6067810,33.5641200
43,Абрикосовая улица,299041,44.6064985,33.5645015
39,Абрикосовая улица,299041,44.6070732,33.5646432
2А,Гранатная улица,299041,44.6073650,33.5672852
2,Гранатная улица,299041,44.6074300,33.5670318
4,Гранатная улица,299041,44.6071766,33.5669949
6,Гранатная улица,299041,44.6073742,33.5667292
8,Гранатная улица,299041,44.6073641,33.5663089
10,Гранатная улица,299041,44.6075005,33.5662282
10А,Гранатная улица,299041,44.6071594,33.5660972
12,Гранатная улица,299041,44.6073663,33.5655460
14,Гранатная улица,299041,44.6072711,33.5651563
16,Гранатная улица,299041,44.6073851,33.5648696
25,Гранатная улица,299041,44.6077217,33.5638354
1,Обрывистый тупик,299041,44.6071116,33.5628334
3,Обрывистый тупик,299041,44.6069219,33.5628930
5,Обрывистый тупик,299041,44.6065566,33.5628321
7,Обрывистый тупик,299041,44.6064262,33.5629416
26,Абрикосовая улица,299041,44.6068376,33.5633981
32,Абрикосовая улица,299041,44.6066271,33.5637000
36,Абрикосовая улица,299041,44.6063814,33.5638924
3,Кипарисовый проезд,299041,44.6062436,33.5636272
34,Абрикосовая улица,299041,44.6064518,33.5635538
5,Кипарисовый проезд,299041,44.6061529,33.5635633
6,Кипарисовый проезд,299041,44.6060729,33.5637777
40,Сливовый тупик,299041,44.6059333,33.5644406
38,Сливовый тупик,299041,44.6060966,33.5643366
4,Сливовый тупик,299041,44.6058086,33.5640865
1,Сливовый тупик,299041,44.6056890,33.5641591
3,Сливовый тупик,299041,44.6057445,33.5638697
2А,Рабочая улица,299001,44.6095801,33.5404549
10А,улица Стахановцев,299055,44.5618887,33.5128889
1,Индустриальная улица,299044,44.5611364,33.5162749
3А,Весенняя улица,299016,44.6378977,33.5542375
11,Некрасова улица,299016,44.6371376,33.5530313
25,Некрасова улица,299016,44.6380671,33.5534579
22,Александера улица,299016,44.6379344,33.5525660
2,Некрасова улица,299016,44.6375657,33.5536640
17,Некрасова улица,299016,44.6375302,33.5531891
13,Некрасова улица,299016,44.6372774,33.5530931
20,Александера улица,299016,44.6378105,33.5525178
2А,Некрасова улица,299016,44.6376891,33.5537255
41/2,Серафимовича улица,299016,44.6365803,33.5520929
5А,Весенняя улица,299016,44.6382257,33.5544128
21,Некрасова улица,299016,44.6377774,33.5533217
15,Некрасова улица,299016,44.6373887,33.5531428
43,Серафимовича улица,299016,44.6365533,33.5522205
8,Александера улица,299016,44.6370426,33.5522269
19,Некрасова улица,299016,44.6376523,33.5532473
9,Некрасова улица,299016,44.6370307,33.5529919
10,Александера улица,299016,44.6371758,33.5522723
12,Александера улица,299016,44.6372932,33.5523287
16,Александера улица,299016,44.6375542,33.5524286
2В,Некрасова улица,299016,44.6372136,33.5535534
5Б,Весенняя улица,299016,44.6380719,33.5542844
14,Александера улица,299016,44.6374183,33.5524208
3,Весенняя улица,299016,44.6376440,33.5540475
47,Серафимовича улица,299016,44.6364263,33.5527696
18,Александера улица,299016,44.6376875,33.5524723
3,Некрасова улица,299016,44.6366420,33.5528453
4,Некрасова улица,299016,44.6379813,33.5538684
8,Некрасова улица,299016,44.6387495,33.5541315
24,Каховская улица,299016,44.6386928,33.5544694
8А,Некрасова улица,299016,44.6386185,33.5540946
7,Весенняя улица,299016,44.6385178,33.5546629
5,Весенняя улица,299016,44.6383730,33.5544937
11,Весенняя улица,299016,44.6390890,33.5547738
30,Александера улица,299016,44.6385314,33.5528371
12,Некрасова улица,299016,44.6391447,33.5543566
32,Александера улица,299016,44.6386696,33.5528804
35,Некрасова улица,299016,44.6387922,33.5537136
33,Некрасова улица,299016,44.6386670,33.5536260
14,Некрасова улица,299016,44.6393765,33.5544175
25,Каховская улица,299016,44.6388515,33.5545898
34,Александера улица,299016,44.6388093,33.5529411
29,Некрасова улица,299016,44.6383869,33.5535743
15,Весенняя улица,299016,44.6394141,33.5549318
26,Александера улица,299016,44.6382826,33.5527159
27,Некрасова улица,299016,44.6382656,33.5534876
20,Некрасова улица,299016,44.6398447,33.5545880
6А,Некрасова улица,299016,44.6383102,33.5539912
13,Весенняя улица,299016,44.6392686,33.5548838
6,Некрасова улица,299016,44.6385004,33.5539838
28,Александера улица,299016,44.6384073,33.5527681
23,Каховская улица,299016,44.6388931,33.5543730
24,Александера улица,299016,44.6381392,33.5526762
9,Весенняя улица,299016,44.6389534,33.5547544
18,Некрасова улица,299016,44.6397043,33.5545339
17,Весенняя улица,299016,44.6395729,33.5549823
10,Некрасова улица,299016,44.6389480,33.5542083
19,Весенняя улица,299016,44.6397287,33.5550915
16,Некрасова улица,299016,44.6395440,33.5544769
36,Александера улица,299016,44.6389614,33.5530070
31,Некрасова улица,299016,44.6385386,33.5536866
60,Некрасова улица,299016,44.6427805,33.5564821
35,Весенняя улица,299016,44.6410322,33.5556472
25,Весенняя улица,299016,44.6402577,33.5553158
59,Весенняя улица,299016,44.6426965,33.5570479
57,Весенняя улица,299016,44.6425574,33.5569142
45,Весенняя улица,299016,44.6418150,33.5561709
22,Некрасова улица,299016,44.6400688,33.5546820
47,Весенняя улица,299016,44.6419540,33.5562921
51,Весенняя улица,299016,44.6421864,33.5565304
37,Весенняя улица,299016,44.6411989,33.5557150
28,Некрасова улица,299016,44.6405233,33.5548750
49,Весенняя улица,299016,44.6420781,33.5563908
62,Некрасова улица,299016,44.6429035,33.5566086
36,Некрасова улица,299016,44.6411287,33.5551509
33,Весенняя улица,299016,44.6408511,33.5555820
41,Весенняя улица,299016,44.6415852,33.5559179
40,Некрасова улица,299016,44.6415418,33.5553233
55,Весенняя улица,299016,44.6424339,33.5567737
38,Некрасова улица,299016,44.6412962,33.5552237
23,Весенняя улица,299016,44.6401115,33.5552482
30,Некрасова улица,299016,44.6406631,33.5549544
34,Некрасова улица,299016,44.6409898,33.5550807
26,Некрасова улица,299016,44.6403580,33.5548181
29,Весенняя улица,299016,44.6405563,33.5554364
32,Некрасова улица,299016,44.6408376,33.5550206
56,Некрасова улица,299016,44.6425351,33.5562418
24,Некрасова улица,299016,44.6402114,33.5547535
31,Весенняя улица,299016,44.6407262,33.5555155
43,Весенняя улица,299016,44.6417055,33.5560779
27,Весенняя улица,299016,44.6403945,33.5553826
53,Весенняя улица,299016,44.6423125,33.5566623
39,Весенняя улица,299016,44.6414231,33.5558201
58,Некрасова улица,299016,44.6426686,33.5563626
21,Весенняя улица,299016,44.6399563,33.5551822
48,Некрасова улица,299016,44.6420486,33.5557602
81,Переяславская улица,299016,44.6430068,33.5539765
42,Некрасова улица,299016,44.6416715,33.5554071
24,Аллы Оношко улица,299016,44.6429018,33.5529950
93,Переяславская улица,99016,44.6432358,33.5558565
36,Аллы Оношко улица,299016,44.6435532,33.5546241
39,Аллы Оношко улица,299016,44.6438555,33.5546861
26,Аллы Оношко улица,299016,44.6430523,33.5531338
32,Аллы Оношко улица,299016,44.6432174,33.5538021
27,Аллы Оношко улица,299016,44.6432601,33.5527675
37,Аллы Оношко улица,299016,44.6437662,33.5542890
28,Аллы Оношко улица,299016,44.6432025,33.5533123
33,Аллы Оношко улица,299016,44.6435082,33.5535234
30,Аллы Оношко улица,299016,44.6432566,33.5535436
80,улица Кряжева,299016,44.6442790,33.5546631
31,Аллы Оношко улица,299016,44.6434426,33.5533126
85,Переяславская улица,299016,44.6431873,33.5549707
52,Некрасова улица,299016,44.6423005,33.5560007
91,Переяславская улица,99016,44.6432058,33.5556337
78,улица Кряжева,299016,44.6442498,33.5544207
89,Переяславская улица,299016,44.6433569,33.5553608
29,Аллы Оношко улица,299016,44.6433289,33.5530768
38,Аллы Оношко улица,299016,44.6435901,33.5548152
40,Аллы Оношко улица,299016,44.6436669,33.5550353
46,Аллы Оношко улица,299016,44.6438308,33.5556141
54,Некрасова улица,299016,44.6424244,33.5561400
44,Аллы Оношко улица,299016,44.6437797,33.5554080
87,Переяславская улица,299016,44.6432017,33.5551800
35,Аллы Оношко улица,299016,44.6436252,33.5538450
5,Украинская улица,299016,44.6438917,33.5542217
83А,Переяславская улица,99016,44.6431603,33.5547253
50,Некрасова улица,299016,44.6421641,33.5558509
3,Украинская улица,299016,44.6440630,33.5541987
76,улица Кряжева,299016,44.6441882,33.5540256
44,Некрасова улица,299016,44.6418000,33.5555193
46,Некрасова улица,299016,44.6418690,33.5556050
17,Аллы Оношко улица,299016,44.6430120,33.5525997
9,Мазуренко улица,299016,44.6427778,33.5519958
5,Мазуренко улица,299016,44.6430965,33.5519477
11,Мазуренко улица,299016,44.6426352,33.5520622
65,Переяславская улица,299016,44.6421323,33.5528608
75,Переяславская улица,299016,44.6427886,33.5533566
58,улица Кряжева,299016,44.6435114,33.5517939
69,Переяславская улица,299016,44.6423904,33.5531032
71,Переяславская улица,299016,44.6426795,33.5532477
16,Аллы Оношко улица,299016,44.6424878,33.5524973
7,Мазуренко улица,299016,44.6429154,33.5519162
60,улица Кряжева,299016,44.6435800,33.5519889
15,Аллы Оношко улица,299016,44.6428821,33.5524201
67,Переяславская улица,299016,44.6422691,33.5529685
62,улица Кряжева,299016,44.6436310,33.5522040
56,улица Кряжева,299016,44.6434556,33.5515582
19,Аллы Оношко улица,299016,44.6432811,33.5521434
3,Мазуренко улица,299016,44.6431807,33.5517502
77,Переяславская улица,299016,44.6428156,33.5535596
68,проспект Генерала Острякова,99029,44.5791741,33.5172139
28,улица Генерала Лебедя,299055,44.5586720,33.5316840
4,Ялтинская улица,99011,44.6004816,33.5204812
146,Облепиховая улица,99002,44.6362889,33.5813067
11,Чехова улица,299016,44.6385025,33.5484995
68,Мореходная улица,299041,44.6115242,33.5650296
6,Причальная улица,299001,44.6156449,33.5432170
8,Причальная улица,299001,44.6153859,33.5432778
2,Яличный переулок,299001,44.6159055,33.5438004
13,Яличный переулок,299001,44.6158787,33.5440653
9,Причальная улица,299001,44.6159847,33.5435061
11,Причальная улица,299001,44.6158360,33.5434839
8,Пляжная улица,299001,44.6160058,33.5433059
6,Пляжная улица,299001,44.6158252,33.5427068
7,Пляжная улица,299001,44.6158006,33.5431287
3А,Яличный переулок,299001,44.6155137,33.5440580
5,Яличный переулок,299001,44.6153874,33.5440823
23,Яличный переулок,299001,44.6152995,33.5440096
17,Пляжная улица,299001,44.6155912,33.5442039
20,Пляжная улица,299001,44.6154786,33.5442300
17,Причальная улица,299001,44.6155460,33.5435627
21,Причальная улица,299001,44.6152958,33.5434269
19,Причальная улица,299001,44.6153927,33.5434626
14А,улица Военных Строителей,299024,44.5698076,33.4027303
26Б к1,улица Руднева,299053,44.5923068,33.4967928
65,Батумская улица,299011,44.6020847,33.5185928
145 к1,улица Горпищенко,299022,44.5790700,33.5787882
19,Победы проспект,299023,44.5885727,33.5610895
28,Мореходная улица,299041,44.6133727,33.5620964
30,Мореходная улица,299041,44.6132281,33.5622496
49,Мартовская улица,299058,44.5778169,33.4497771
39,улица Кряжева,299016,44.6421425,33.5476072
37,улица Кряжева,299016,44.6419178,33.5475452
33,улица Кряжева,299016,44.6415774,33.5473389
25,улица Кряжева,299016,44.6409180,33.5470246
27,улица Кряжева,299016,44.6410629,33.5471065
31,улица Кряжева,299016,44.6413041,33.5472301
4А,улица Шмидта,299011,44.6016470,33.5225255
63,6-я Бастионная улица,299008,44.6053562,33.5129560
100,улица Частника,299008,44.6045860,33.5137646
104,улица Частника,299008,44.6043697,33.5139691
77,6-я Бастионная улица,299008,44.6043845,33.5136723
81,6-я Бастионная улица,299008,44.6042453,33.5135799
102,улица Частника,299008,44.6045100,33.5138343
98,улица Частника,299008,44.6047179,33.5137026
96,улица Частника,299008,44.6047774,33.5136177
69,6-я Бастионная улица,299008,44.6049125,33.5131464
122,улица Частника,299008,44.6033284,33.5146991
120,улица Частника,299008,44.6033707,33.5145134
116,улица Частника,299008,44.6036575,33.5144757
114,улица Частника,299008,44.6037408,33.5143422
112,улица Частника,299008,44.6038698,33.5143298
110,улица Частника,299008,44.6039719,33.5142603
106,улица Частника,299008,44.6041672,33.5140806
108,улица Частника,299008,44.6040412,33.5141325
96А,улица Частника,299008,44.6049189,33.5136895
83,6-я Бастионная улица,299008,44.6040739,33.5137812
85,6-я Бастионная улица,299008,44.6039518,33.5138168
87,6-я Бастионная улица,299008,44.6038513,33.5138492
99,6-я Бастионная улица,299008,44.6032041,33.5142784
66,улица Частника,299008,44.6066177,33.5124718
70,улица Частника,299008,44.6064262,33.5125982
68,улица Частника,299008,44.6065316,33.5125802
80,улица Частника,299008,44.6059175,33.5129763
76,улица Частника,299008,44.6060295,33.5129143
74,улица Частника,299008,44.6060988,33.5128058
75,улица Частника,299008,44.6059424,33.5133217
9,Щорса улица,299008,44.6042054,33.5157942
3,улица Щербака,299008,44.6043708,33.5162010
38,улица Частника,299008,44.6090325,33.5121257
36,улица Кряжева,299016,44.6418168,33.5479955
38,улица Кряжева,299016,44.6419884,33.5479737
44,улица Кряжева,299016,44.6424260,33.5482674
63/48,Фиолентовское шоссе,299014,44.5359401,33.4484537
39А,улица Горпищенко,299022,44.5985178,33.5576164
13,Садоводческий,299023,44.5885567,33.5662277
104,улица Кряжева,299016,44.6450456,33.5570457
102,улица Кряжева,299016,44.6449769,33.5568378
100,улица Кряжева,299016,44.6449188,33.5566424
98,улица Кряжева,299016,44.6448659,33.5564655
96,улица Кряжева,299016,44.6448228,33.5563001
92,улица Кряжева,299016,44.6447016,33.5558920
90,улица Кряжева,299016,44.6446093,33.5555976
84,улица Кряжева,299016,44.6444510,33.5549908
82,улица Кряжева,299016,44.6443814,33.5548198
86,улица Кряжева,299016,44.6445020,33.5552154
57,Аллы Оношко улица,299016,44.6443905,33.5565199
55,Аллы Оношко улица,299016,44.6443365,33.5562999
51,Аллы Оношко улица,299016,44.6441890,33.5558343
49,Аллы Оношко улица,299016,44.6441376,33.5556458
45,Аллы Оношко улица,299016,44.6440192,33.5552462
43,Аллы Оношко улица,299016,44.6439651,33.5550449
61,Аллы Оношко улица,299016,44.6444983,33.5569069
53,Аллы Оношко улица,299016,44.6442866,33.5561354
42,Мазуренко улица,299016,44.6413882,33.5546020
40,Мазуренко улица,299016,44.6414296,33.5544023
36,Мазуренко улица,299016,44.6415645,33.5539786
78,Переяславская улица,299016,44.6417544,33.5530636
34,Мазуренко улица,299016,44.6416215,33.5536389
38,Мазуренко улица,299016,44.6414915,33.5541736
59,Некрасова улица,299016,44.6411167,33.5545664
57,Некрасова улица,299016,44.6409673,33.5545336
55,Некрасова улица,299016,44.6408376,33.5545170
53,Некрасова улица,299016,44.6407187,33.5544660
51,Некрасова улица,299016,44.6405530,33.5544582
49,Некрасова улица,299016,44.6401905,33.5543121
50,Александера улица,299016,44.6404695,33.5539281
52,Александера улица,299016,44.6406407,33.5540191
54,Александера улица,299016,44.6407578,33.5540052
56,Александера улица,299016,44.6409045,33.5539236
50А,Александера улица,299016,44.6404203,33.5535283
41Б,Александера улица,299016,44.6406363,33.5532632
49,Александера улица,299016,44.6410685,33.5534457
83,Переяславская улица,299016,44.6431445,33.5541780
51,Александера улица,299016,44.6413729,33.5534808
76,Переяславская улица,299016,44.6415632,33.5529331
74,Переяславская улица,299016,44.6413540,33.5527427
47,Александера улица,299016,44.6410526,33.5532193
45,Александера улица,299016,44.6409704,33.5530337
43,Александера улица,299016,44.6408612,33.5529295
70А,Переяславская улица,299016,44.6411331,33.5525816
58А,Александера улица,299016,44.6410992,33.5538297
41,Аллы Оношко улица,299016,44.6438918,33.5548395
47,Аллы Оношко улица,299016,44.6440748,33.5554464
59,Аллы Оношко улица,299016,44.6444288,33.5566865
94,улица Кряжева,299016,44.6447634,33.5560821
37,Некрасова улица,299016,44.6390458,33.5538090
39,Некрасова улица,299016,44.6391958,33.5538839
41,Некрасова улица,299016,44.6393293,33.5539366
43,Некрасова улица,299016,44.6394962,33.5540019
45,Некрасова улица,299016,44.6396649,33.5540515
47,Некрасова улица,299016,44.6399156,33.5542130
25,Аллы Оношко улица,299016,44.6435550,33.5530092
2,Виноградная улица,299002,44.6450654,33.5402788
74,улица Кряжева,299016,44.6440745,33.5535846
72,улица Кряжева,299016,44.6439567,33.5532166
70,улица Кряжева,299016,44.6438889,33.5529892
68,улица Кряжева,299016,44.6438380,33.5527985
66,улица Кряжева,299016,44.6437848,33.5526450
42,Аллы Оношко улица,299016,44.6436969,33.5551803
14,Аллы Оношко улица,299016,44.6423732,33.5523096
4,Украинская улица,299016,44.6439085,33.5536776
6,Украинская улица,299016,44.6437636,33.5537704
64,улица Кряжева,299016,44.6437210,33.5524137
23А,Аллы Оношко улица,299016,44.6434665,33.5525695
23,Аллы Оношко улица,299016,44.6433935,33.5524422
21,Аллы Оношко улица,299016,44.6433323,33.5522960
32,Мазуренко улица,299016,44.6416548,33.5533688
72,Переяславская улица,299016,44.6412398,33.5526597
70,Переяславская улица,299016,44.6409645,33.5525200
68,Переяславская улица,299016,44.6407605,33.5524573
66,Переяславская улица,299016,44.6406156,33.5523098
23,Потёмкинцев улица,299016,44.6405848,33.5525557
25,Потёмкинцев улица,299016,44.6405628,33.5527989
58,Александера улица,299016,44.6410022,33.5537307
60,Александера улица,299016,44.6411642,33.5540096
48,Александера улица,299016,44.6400303,33.5535347
46,Александера улица,299016,44.6397699,33.5534479
44,Александера улица,299016,44.6396381,33.5534022
42,Александера улица,299016,44.6394827,33.5533299
40,Александера улица,299016,44.6393233,33.5532577
38,Александера улица,299016,44.6391885,33.5531809
45,Серафимовича улица,299016,44.6365065,33.5524692
39,Александера улица,299016,44.6401819,33.5528472
37,Александера улица,299016,44.6399260,33.5527448
35,Александера улица,299016,44.6397871,33.5526758
33,Александера улица,299016,44.6396412,33.5526270
31,Александера улица,299016,44.6394731,33.5525528
29,Александера улица,299016,44.6393314,33.5525073
27,Александера улица,299016,44.6390484,33.5525629
25,Александера улица,299016,44.6389134,33.5524900
23,Александера улица,299016,44.6387987,33.5524218
21,Александера улица,299016,44.6386656,33.5523502
19,Александера улица,299016,44.6385279,33.5523119
17,Александера улица,299016,44.6384176,33.5522563
15,Александера улица,299016,44.6382422,33.5522303
13,Александера улица,299016,44.6380240,33.5521601
11,Александера улица,299016,44.6378229,33.5520706
9,Александера улица,299016,44.6377420,33.5519726
7,Александера улица,299016,44.6376377,33.5518419
5,Александера улица,299016,44.6374886,33.5518599
64,Переяславская улица,299016,44.6403241,33.5521954
62,Переяславская улица,299016,44.6400583,33.5521095
56,Переяславская улица,299016,44.6396096,33.5519617
54,Переяславская улица,299016,44.6394703,33.5518938
18,Потёмкинцев улица,299016,44.6402985,33.5524257
20,Потёмкинцев улица,299016,44.6402569,33.5526081
48,Переяславская улица,299016,44.6389505,33.5516811
34,Переяславская улица,299016,44.6378903,33.5512327
30,Переяславская улица,299016,44.6376281,33.5511416
28,Переяславская улица,299016,44.6374940,33.5510879
26,Переяславская улица,299016,44.6373770,33.5510374
2Б,Некрасова улица,299016,44.6373898,33.5536018
63,Переяславская улица,299016,44.6419291,33.5526677
61,Переяславская улица,299016,44.6418008,33.5525705
59,Переяславская улица,299016,44.6416799,33.5524921
57,Переяславская улица,299016,44.6415390,33.5523561
55,Переяславская улица,299016,44.6413899,33.5522997
53,Переяславская улица,299016,44.6412572,33.5521902
51,Переяславская улица,299016,44.6411175,33.5521234
45,Переяславская улица,299016,44.6402622,33.5518091
43,Переяславская улица,299016,44.6401476,33.5517589
37,Переяславская улица,299016,44.6397121,33.5514134
27,Переяславская улица,299016,44.6389660,33.5509152
25,Переяславская улица,299016,44.6384102,33.5509599
19,Переяславская улица,299016,44.6379470,33.5508117
13,Переяславская улица,299016,44.6372796,33.5504716
33,Переяславская улица,299016,44.6393513,33.5509998
32,улица Тельмана,299016,44.6400134,33.5508999
24,улица Тельмана,299016,44.6392098,33.5505361
22,улица Тельмана,299016,44.6389524,33.5503562
8,улица Тельмана,299016,44.6377298,33.5499990
10,улица Тельмана,299016,44.6378676,33.5501089
12,улица Тельмана,299016,44.6380302,33.5500697
14,улица Тельмана,299016,44.6381588,33.5501233
16,улица Тельмана,299016,44.6383563,33.5502001
6,улица Тельмана,299016,44.6373745,33.5498218
8А,улица Тельмана,299016,44.6375242,33.5498627
49,Переяславская улица,299016,44.6407956,33.5519092
17,Потёмкинцев улица,299016,44.6408020,33.5514656
38,улица Тельмана,299016,44.6407685,33.5511859
40,улица Тельмана,299016,44.6409738,33.5509276
8,Флотская улица,299016,44.6409985,33.5512772
10,Флотская улица,299016,44.6411418,33.5516478
42,улица Тельмана,299016,44.6412306,33.5507578
44/2,улица Тельмана,299016,44.6415858,33.5506604
4,Аллы Оношко улица,299016,44.6416308,33.5511553
6,Аллы Оношко улица,299016,44.6417088,33.5514677
12,Аллы Оношко улица,299016,44.6422019,33.5520451
46,улица Тельмана,299016,44.6418608,33.5506735
7,Аллы Оношко улица,299016,44.6421688,33.5512751
9,Аллы Оношко улица,299016,44.6422392,33.5516334
48,улица Тельмана,299016,44.6421186,33.5506942
50,улица Тельмана,299016,44.6423102,33.5507193
52,улица Тельмана,299016,44.6424848,33.5506754
54,улица Тельмана,299016,44.6426669,33.5507810
58,улица Тельмана,299016,44.6428407,33.5508111
60,улица Тельмана,299016,44.6430199,33.5508267
62,улица Тельмана,299016,44.6432538,33.5508667
2,Мазуренко улица,299016,44.6433585,33.5512494
4,Мазуренко улица,299016,44.6431291,33.5513732
6,Мазуренко улица,299016,44.6429720,33.5514637
8,Мазуренко улица,299016,44.6428317,33.5515414
10,Мазуренко улица,299016,44.6426858,33.5516333
12,Мазуренко улица,299016,44.6425470,33.5512741
14,Мазуренко улица,299016,44.6423557,33.5512167
5,Флотская улица,299016,44.6413089,33.5510832
7,Флотская улица,299016,44.6413530,33.5515811
9,Флотская улица,299016,44.6414957,33.5517763
11,Флотская улица,299016,44.6416538,33.5519336
13,Флотская улица,299016,44.6418415,33.5520627
15,Флотская улица,299016,44.6419734,33.5521574
51,улица Тельмана,299016,44.6430764,33.5504402
49,улица Тельмана,299016,44.6428329,33.5503753
47,улица Тельмана,299016,44.6426758,33.5503640
45,улица Тельмана,299016,44.6425033,33.5503200
43,улица Тельмана,299016,44.6423262,33.5503129
37,улица Тельмана,299016,44.6418063,33.5502908
33,улица Тельмана,299016,44.6414384,33.5503530
35,улица Тельмана,299016,44.6415591,33.5503269
31,улица Тельмана,299016,44.6409426,33.5504974
2,Вишнёвая улица,299016,44.6409647,33.5502318
29,улица Тельмана,299016,44.6404019,33.5507381
27,улица Тельмана,299016,44.6402662,33.5507320
25,улица Тельмана,299016,44.6401107,33.5506062
21,улица Тельмана,299016,44.6396074,33.5503218
19,улица Тельмана,299016,44.6394855,33.5502619
17,улица Тельмана,299016,44.6391712,33.5499739
15,улица Тельмана,299016,44.6389869,33.5500184
3,улица Тельмана,299016,44.6375679,33.5495108
2А,Волочаевская улица,299016,44.6374452,33.5492880
4,Волочаевская улица,299016,44.6378364,33.5493745
8,Волочаевская улица,299016,44.6383046,33.5495314
12,Волочаевская улица,299016,44.6386648,33.5495838
12А,Волочаевская улица,299016,44.6387797,33.5496188
14,Волочаевская улица,299016,44.6391175,33.5497747
22,Волочаевская улица,299016,44.6399404,33.5500866
10,Потёмкинцев улица,299016,44.6403301,33.5503432
10,Вишнёвая улица,299016,44.6419916,33.5500356
12А,Вишнёвая улица,299016,44.6420962,33.5499823
12,Вишнёвая улица,299016,44.6422379,33.5498879
23,Вишнёвая улица,299016,44.6428278,33.5496328
21,Вишнёвая улица,299016,44.6426199,33.5495794
17,Вишнёвая улица,299016,44.6422037,33.5496311
15А,Вишнёвая улица,299016,44.6420643,33.5496492
15Б,Вишнёвая улица,299016,44.6419233,33.5497081
11,Вишнёвая улица,299016,44.6414034,33.5498834
9,Вишнёвая улица,299016,44.6412036,33.5498383
7,Вишнёвая улица,299016,44.6410593,33.5498988
5,Вишнёвая улица,299016,44.6407719,33.5500899
3,Вишнёвая улица,299016,44.6406401,33.5501207
1,Вишнёвая улица,299016,44.6404466,33.5499849
3,Потёмкинцев улица,299016,44.6404305,33.5492762
30,Казарского улица,299016,44.6406058,33.5490880
32,Казарского улица,299016,44.6407014,33.5490434
34,Казарского улица,299016,44.6407945,33.5491642
36,Казарского улица,299016,44.6410048,33.5490221
40,Казарского улица,299016,44.6412139,33.5490268
38,Казарского улица,299016,44.6412542,33.5494717
42А,Казарского улица,299016,44.6414100,33.5491491
42,Казарского улица,299016,44.6415889,33.5491235
44,Казарского улица,299016,44.6418453,33.5491140
46,Казарского улица,299016,44.6422095,33.5492007
48,Казарского улица,299016,44.6424347,33.5492118
55,Казарского улица,299016,44.6425726,33.5488784
53,Казарского улица,299016,44.6424023,33.5488342
51,Казарского улица,299016,44.6422075,33.5488744
49,Казарского улица,299016,44.6420516,33.5488393
47,Казарского улица,299016,44.6418070,33.5486762
45,Казарского улица,299016,44.6416535,33.5487198
43,Казарского улица,299016,44.6414552,33.5487578
43А,Казарского улица,299016,44.6413825,33.5487468
41,Казарского улица,299016,44.6412047,33.5486754
37А,Казарского улица,299016,44.6408244,33.5483835
35,Казарского улица,299016,44.6407641,33.5486156
33,Казарского улица,299016,44.6406516,33.5484706
29,Казарского улица,299016,44.6404074,33.5483515
25,Казарского улица,299016,44.6398351,33.5483444
21А,Казарского улица,299016,44.6393566,33.5482906
21,Казарского улица,299016,44.6392504,33.5482350
9,Казарского улица,299016,44.6383291,33.5477319
7,Казарского улица,299016,44.6382031,33.5476787
3,Смоленская улица,299016,44.6380955,33.5471260
19,Смоленская улица,299016,44.6392867,33.5475825
16,Калюжного улица,299016,44.6393233,33.5474179
14,Калюжного улица,299016,44.6391436,33.5473571
10,Калюжного улица,299016,44.6385466,33.5471108
25,Смоленская улица,299016,44.6399637,33.5479173
4,переулок Калюжного,299016,44.6404205,33.5481367
20,Калюжного улица,299016,44.6397661,33.5475160
31,Казарского улица,299016,44.6405389,33.5485623
32,улица Кряжева,299016,44.6412089,33.5476226
34,улица Кряжева,299016,44.6414540,33.5477672
34Б,улица Кряжева,299016,44.6415574,33.5477935
34А,улица Кряжева,299016,44.6415816,33.5481233
40,улица Кряжева,299016,44.6421148,33.5480857
42,улица Кряжева,299016,44.6422125,33.5483505
40,Чехова улица,299016,44.6399855,33.5495004
38,Чехова улица,299016,44.6397286,33.5493882
31,Волочаевская улица,299016,44.6396970,33.5496569
29,Волочаевская улица,299016,44.6395104,33.5495911
34,Чехова улица,299016,44.6393666,33.5492655
27,Волочаевская улица,299016,44.6393489,33.5495295
32,Чехова улица,299016,44.6391210,33.5491533
19,Волочаевская улица,299016,44.6386299,33.5492830
23,Волочаевская улица,299016,44.6389499,33.5493426
25,Волочаевская улица,299016,44.6392212,33.5494832
22,Чехова улица,299016,44.6383409,33.5488319
13,Волочаевская улица,299016,44.6383084,33.5491015
26,Чехова улица,299016,44.6383736,33.5491845
11,Волочаевская улица,299016,44.6380963,33.5489820
18,Чехова улица,299016,44.6378934,33.5489073
16,Чехова улица,299016,44.6377890,33.5487991
5,Волочаевская улица,299016,44.6375616,33.5489640
7,Волочаевская улица,299016,44.6377428,33.5489823
12,Казарского улица,299016,44.6389377,33.5484330
24,Казарского улица,299016,44.6399051,33.5488813
26,Казарского улица,299016,44.6400691,33.5489661
27,Чехова улица,299016,44.6397048,33.5490694
23,Чехова улица,299016,44.6394890,33.5488955
21,Чехова улица,299016,44.6393311,33.5489487
11А,Чехова улица,299016,44.6385750,33.5485809
35,улица Кряжева,299016,44.6417650,33.5473150
29А,улица Кряжева,299016,44.6413106,33.5469753
29,улица Кряжева,299016,44.6412153,33.5471138
23,улица Кряжева,299016,44.6407587,33.5469397
19,улица Кряжева,299016,44.6405075,33.5467837
13,улица Кряжева,299016,44.6399834,33.5464283
3,Калюжного улица,299016,44.6385123,33.5464668
5,Калюжного улица,299016,44.6386200,33.5466031
7,Калюжного улица,299016,44.6389318,33.5466896
4А,улица Кряжева,299016,44.6382568,33.5460434
10,улица Кряжева,299016,44.6392387,33.5466888
18,Цимлянская улица,299016,44.6388122,33.5460742
16,Цимлянская улица,299016,44.6388630,33.5459043
6,Серафимовича улица,299016,44.6386431,33.5436131
8А,Серафимовича улица,299016,44.6385308,33.5439896
10,Серафимовича улица,299016,44.6380382,33.5454308
9В,улица Богданова,299016,44.6376896,33.5451263
149,проспект Генерала Острякова,299055,44.5637059,33.5281268
5,Пляжная улица,299001,44.6156252,33.5427340
2,Причальная улица,299001,44.6155753,33.5429491
3,Стрелецкая улица,299038,44.5826743,33.4711918
13Д,Хрулёва улица,99004,44.6122914,33.5531491
12,Айландовая улица,299041,44.6121114,33.5660514
44Ж,Победы проспект,299046,44.5861947,33.5571601
11A к2,Генерала Мельника улица,299046,44.5859637,33.5566640
11A к1,Генерала Мельника улица,299046,44.5862318,33.5558949
44И,Победы проспект,299046,44.5866962,33.5567408
18Б,улица Токарева,299003,44.5795287,33.5070452
18,улица Токарева,299003,44.5801948,33.5062191
18В,улица Токарева,299003,44.5794514,33.5050434
18Г,Токарева проезд,299003,44.5787842,33.5058723
145 к8,улица Горпищенко,299022,44.5786089,33.5797764
145 к7,улица Горпищенко,299022,44.5788376,33.5796409
145 к6,улица Горпищенко,299022,44.5790642,33.5795068
145 к5,улица Горпищенко,299022,44.5792792,33.5793795
145 к3,улица Горпищенко,299022,44.5786397,33.5790552
145 к2,улица Горпищенко,299022,44.5788558,33.5789211
143 к8,улица Горпищенко,299022,44.5795969,33.5791699
143 к7,улица Горпищенко,299022,44.5798083,33.5790360
143 к6,улица Горпищенко,299022,44.5800196,33.5789024
143 к5,улица Горпищенко,299022,44.5802290,33.5787698
143 к4,улица Горпищенко,299022,44.5793989,33.5785778
143 к3,улица Горпищенко,299022,44.5796146,33.5784429
143 к2,улица Горпищенко,299022,44.5798303,33.5783076
44,Мореходная улица,299041,44.6126483,33.5628743
39А,Абрикосовая улица,299041,44.6068268,33.5649105
24 к1,улица Братьев Манганари,299014,44.5704264,33.4271370
26 к1,улица Братьев Манганари,299014,44.5712985,33.4277740
20,улица Братьев Манганари,299014,44.5697722,33.4274850
24 к2,улица Братьев Манганари,299014,44.5705625,33.4278192
26 к2,улица Братьев Манганари,299014,44.5710700,33.4283281
22,улица Братьев Манганари,299014,44.5702793,33.4283937
28,улица Братьев Манганари,299014,44.5717274,33.4292449
7,Пляжная улица,299001,44.6159734,33.5429029
9,Пляжная улица,299001,44.6161407,33.5434204
22,Пляжная улица,299001,44.6153043,33.5442293
14,Яличный переулок,299001,44.6158121,33.5441534
1,Яличный переулок,299001,44.6157672,33.5441635
16,Пляжная улица,299001,44.6157133,33.5441958
3,Гранатная улица,299041,44.6079487,33.5648400
34,Абрикосовая улица,299041,44.6065820,33.5638527
28,Абрикосовая улица,299041,44.6066323,33.5632744
24,Абрикосовая улица,299041,44.6071259,33.5629762
2,Сливовый тупик,299041,44.6055714,33.5642246
33,Снайпера Адамия,299041,44.6047819,33.5679384
34,Снайпера Адамия,299041,44.6046453,33.5682590
13/1,Мореходная улица,299041,44.6138205,33.5616414
19Г,Мореходная улица,299041,44.6120104,33.5648372
36,Мореходная улица,299041,44.6128723,33.5625546
29,Пятницкий проезд,299014,44.5731269,33.4717056
4,Костромская улица,299022,44.5944960,33.5702975
38,2-я Голландская улица,299015,44.6300127,33.5742514
24,2-я Голландская улица,299015,44.6295796,33.5742125
44,2-я Голландская улица,299015,44.6294766,33.5741188
45,2-я Голландская улица,299015,44.6293313,33.5741647
81,2-я Голландская улица,299015,44.6294368,33.5744920
78,2-я Голландская улица,299015,44.6293596,33.5746568
77,2-я Голландская улица,299015,44.6295344,33.5747017
76,2-я Голландская улица,299015,44.6296855,33.5748288
74,2-я Голландская улица,299015,44.6300038,33.5748394
72 к4,9-й Голландский переулок,299015,44.6305740,33.5751908
9 к1,улица Курчатова,299015,44.6295554,33.5705096
11 к1,улица Курчатова,299015,44.6297696,33.5706532
12 к1,улица Курчатова,299015,44.6299221,33.5707944
14 к1,улица Курчатова,299015,44.6302099,33.5705377
8 к1,улица Курчатова,299015,44.6294633,33.5702014
13 к1,улица Курчатова,299015,44.6301155,33.5703866
15 к1,улица Курчатова,299015,44.6304229,33.5704403
17 к1,улица Курчатова,299015,44.6305488,33.5705190
19 к1,улица Курчатова,299015,44.6306371,33.5707443
20 к1,улица Курчатова,299015,44.6306949,33.5711747
21 к1,улица Курчатова,299015,44.6309127,33.5712089
22 к1,улица Курчатова,299015,44.6310991,33.5712478
27 к1,улица Курчатова,299015,44.6317087,33.5710955
31 к1,улица Курчатова,299015,44.6318772,33.5714478
33 к1,улица Курчатова,299015,44.6319921,33.5717188
34 к1,улица Курчатова,299015,44.6320762,33.5717302
96,улица Курчатова,299015,44.6323297,33.5718404
39 к1,улица Курчатова,299015,44.6322885,33.5719018
42 к2,улица Курчатова,299015,44.6328511,33.5722653
19Б к2,улица Павла Корчагина,299014,44.5870127,33.4330172
23 к1,улица Павла Корчагина,299014,44.5859262,33.4331672
23,улица Павла Корчагина,299014,44.5854753,33.4336158
56/2,Фиолентовское шоссе,299014,44.5433335,33.4420020
31,Капитана Торопкина улица,299001,44.5601889,33.5757424
40,Капитана Торопкина улица,299001,44.5601607,33.5759077
34,Капитана Торопкина улица,299001,44.5605099,33.5764291
28,Капитана Торопкина улица,299001,44.5604201,33.5762554
28,Капитана Торопкина улица,299001,44.5601101,33.5756052
38,Капитана Торопкина улица,299001,44.5595592,33.5746601
54,Капитана Торопкина улица,299001,44.5596719,33.5748927
35,Капитана Торопкина улица,299001,44.5598215,33.5751247
21,Арама Сунгурьяна улица,299014,44.5668144,33.4353926
37/301,Фиолентовское шоссе,299014,44.5423424,33.4546253
37/302,Фиолентовское шоссе,299014,44.5424512,33.4544578
37/303,Фиолентовское шоссе,299014,44.5425988,33.4544393
143 к9,улица Горпищенко,299022,44.5801636,33.5784632
145 к9,улица Горпищенко,299022,44.5789721,33.5792263
56/1А,Фиолентовское шоссе,299014,44.5434311,33.4419370
56/1,Фиолентовское шоссе,299014,44.5435914,33.4418479
1А,Молодых Строителей улица,299006,44.5803690,33.4674714
12Б,Вокзальная улица,299009,44.5950340,33.5327681
15А,Южногородская улица,299002,44.6668109,33.5490004
26Б,улица Адмирала Юмашева,299038,44.5911376,33.4637087
143 к10,улица Горпищенко,299022,44.5797702,33.5787046
145 к10,улица Горпищенко,299022,44.5785921,33.5794608
69,проспект Генерала Острякова,299040,44.5721686,33.5222321
15,улица Вакуленчука,99053,44.5943868,33.4897103
28А,улица Маршала Геловани,299040,44.5689266,33.5286809
21А,улица Суворова,299011,44.6073762,33.5240947
2,Нахимова площадь,99011,44.6181407,33.5253152
7,улица Курчатова,299015,44.6242370,33.5681089
59,улица Софьи Перовской,299026,44.6604449,33.5538705
29,улица Истомина,99012,44.6050795,33.5511414
29А,улица Истомина,99012,44.6053921,33.5512244
17,улица Богданова,299016,44.6366285,33.5473178
3,улица Репина,299045,44.5968151,33.4947442
13,улица Бориса Михайлова,299058,44.5808382,33.4432387
37,улица Героев Бреста,299059,44.5877253,33.4479031
19,улица Героев Бреста,299058,44.5817656,33.4454218
9,улица Героев Бреста,299058,44.5799322,33.4460467
30Б,улица Руднева,299053,44.5922655,33.4959596
145 к4,улица Горпищенко,299022,44.5784022,33.5792027
143 к1,улица Горпищенко,299022,44.5800578,33.5781652
8,улица Генерала Хрюкина,299055,44.5671048,33.5281647
29,улица Тараса Шевченко,299006,44.5752914,33.4604162
11,улица Генерала Жидилова,299041,44.6047270,33.5749396
44,улица Генерала Жидилова,299041,44.6024968,33.5727750
