House number,Street name,Postal code,Latitude,Longitude
406,West Main Street,14865,42.3458024,-76.8494762
104,North Catherine Street,14865,42.3473343,-76.8448500
108,North Catherine Street,14865,42.3476793,-76.8450378
105,South Genesee Street,14865,42.3446851,-76.8510278
239,North Genesee Street,14865,42.3479079,-76.8526880
401,West Main Street,14865,42.3456845,-76.8488364
208,West Main Street,14865,42.3469052,-76.8466614
218,West Main Street,14865,42.3467465,-76.8470641
314,West Main Street,14865,42.3461880,-76.8483242
214,West Main Street,14865,42.3467736,-76.8469909
230,West Main Street,14865,42.3465469,-76.8474912
228,West Main Street,14865,42.3465893,-76.8473971
312,West Main Street,14865,42.3462145,-76.8482678
220,West Main Street,14865,42.3466991,-76.8471486
212,West Main Street,14865,42.3468335,-76.8468772
209,Smith Lane,14865,42.3470341,-76.8468021
322,West Main Street,14865,42.3460952,-76.8485905
222,West Main Street,14865,42.3467155,-76.8472652
234,West Main Street,14865,42.3465060,-76.8475764
310,West Main Street,14865,42.3462372,-76.8482115
224,West Main Street,14865,42.3467005,-76.8473142
320,West Main Street,14865,42.3461577,-76.8484420
216,West Main Street,14865,42.3467620,-76.8470314
226,West Main Street,14865,42.3466139,-76.8473279
108,North Catherine Street,14865,42.3476863,-76.8450099
322,West Main Street,14865,42.3460937,-76.8485914
239,North Genesee Street,14865,42.3478664,-76.8526948
104,North Catherine Street,14865,42.3473146,-76.8448405
401,West Main Street,14865,42.3456571,-76.8487812
303,West Main Street,14865,42.3459949,-76.8478771
118,Schuyler Street,14865,42.3467248,-76.8495519
106,West South Street,14865,42.3459448,-76.8445055
207,South Catherine Street,14865,42.3454192,-76.8441195
103,West Main Street,14865,42.3468124,-76.8457941
108,Henry Street,14865,42.3473228,-76.8461755
300,West Main Street,14865,42.3463814,-76.8479127
238,West Main Street,14865,42.3465291,-76.8478743
218,Canal Street,14865,42.3424992,-76.8455009
406,West Broadway Street,14865,42.3490384,-76.8408782
208,South Catherine Street,14865,42.3455952,-76.8435433
271,Owego Street,14865,42.3421870,-76.8425071
229,North Catherine Street,14865,42.3506514,-76.8487816
218,South Catherine Street,14865,42.3448807,-76.8428637
228,Clinton Street,14865,42.3506410,-76.8476665
109,South Catherine Street,14865,42.3465749,-76.8449252
214,North Catherine Street,14865,42.3512827,-76.8483613
116,Ayers Street,14865,42.3502381,-76.8456184
232,Canal Street,14865,42.3414338,-76.8443832
236,West Main Street,14865,42.3468735,-76.8479518
213,Henry Street,14865,42.3484133,-76.8479144
101,Clinton Street,14865,42.3488710,-76.8459360
132,Mary Latyon Drive,14865,42.3408058,-76.8433928
116,North College Avenue,14865,42.3485472,-76.8404756
210,Montour Street,14865,42.3443199,-76.8476666
304,West South Street,14865,42.3449608,-76.8478631
279,South Catherine Street,14865,42.3421205,-76.8418720
407,South College Avenue,14865,42.3430545,-76.8407599
209,Montour Street,14865,42.3443000,-76.8480240
105,South Catherine Street,14865,42.3467368,-76.8451497
123,Clinton Street,14865,42.3496231,-76.8470297
319,West Main Street,14865,42.3458284,-76.8482126
100,North College Avenue,14865,42.3474865,-76.8406072
224,South Genesee Street,14865,42.3433037,-76.8481825
121,Schuyler Street,14865,42.3463007,-76.8498377
233,Owego Street,14865,42.3439680,-76.8443690
112,North College Avenue,14865,42.3482529,-76.8406424
231,Owego Street,14865,42.3439680,-76.8443690
111,Schuyler Street,14865,42.3459976,-76.8496023
204,Owego Street,14865,42.3451406,-76.8448070
100 B,North College Avenue,14865,42.3475708,-76.8406110
207,Henry Street,14865,42.3481499,-76.8473857
121,Lee Street,14865,42.3452273,-76.8475031
100 A,North College Avenue,14865,42.3475251,-76.8406079
201,Henry Street,14865,42.3478623,-76.8470260
222,South Genesee Street,14865,42.3433302,-76.8481987
305,South Genesee Street,14865,42.3417812,-76.8477399
112,West South Street,14865,42.3458796,-76.8450308
301,East Main Street,14865,42.3469790,-76.8422457
125,Clinton Street,14865,42.3496538,-76.8470678
200,Walker Street,14865,42.3456046,-76.8423884
200 1/2,Walker Street,14865,42.3456046,-76.8423884
209,Henry Street,14865,42.3481987,-76.8474137
303,South Genesee Street,14865,42.3417487,-76.8477485
117,Schuyler Street,14865,42.3461581,-76.8497644
128,Owego Street,14865,42.3458065,-76.8453002
110,North College Avenue,14865,42.3481936,-76.8406424
206,Owego Street,14865,42.3451151,-76.8447883
207,Montour Street,14865,42.3443277,-76.8480727
107,South Catherine Street,14865,42.3467112,-76.8451160
206,Henry Street,14865,42.3482394,-76.8467979
216,Montour Street,14865,42.3440140,-76.8474820
401,South College Avenue,14865,42.3430786,-76.8407707
123,Lee Street,14865,42.3451626,-76.8474762
208,Henry Street,14865,42.3482897,-76.8468382
108,North College Avenue,14865,42.3481372,-76.8406387
114,North College Avenue,14865,42.3483209,-76.8406495
303,East Main Street,14865,42.3469847,-76.8421974
411,West Main Street,14865,42.3453379,-76.8493991
203,Henry Street,14865,42.3479386,-76.8470903
185,Cook Street,14865,42.3408201,-76.8463015
100,Clawson Boulevard,14865,42.3440181,-76.8474837
138,North Catherine Street,14865,42.3496120,-76.8449989
140,North Catherine Street,14865,42.3499301,-76.8450055
401,West Main Street,14865,42.3455643,-76.8487229
336,West Main Street,14865,42.3459528,-76.8490989
324,West Main Street,14865,42.3460390,-76.8488861
322,West Main Street,14865,42.3462688,-76.8484822
308,West Main Street,14865,42.3463784,-76.8481508
303,West Main Street,14865,42.3458376,-76.8481901
111,Montour Street,14865,42.3453265,-76.8484950
408,West Main Street,14865,42.3457411,-76.8497123
406,West Main Street,14865,42.3457997,-76.8494899
303,West Main Street,14865,42.3460022,-76.8478638
237,West Main Street,14865,42.3461209,-76.8474646
210,West Main Street,14865,42.3469224,-76.8467158
111,Lee Street,14865,42.3455767,-76.8476938
221,West South Street,14865,42.3448370,-76.8470068
205,Canal Street,14865,42.3442555,-76.8473177
412,West Main Street,14865,42.3455949,-76.8499198
405,West Main Street,14865,42.3454214,-76.8491962
121,Schuyler Street,14865,42.3462866,-76.8498174
232,Tracy Street,14865,42.3473842,-76.8486004
106,West Main Street,14865,42.3472512,-76.8460471
111,Owego Street,14865,42.3462813,-76.8462694
110,Owego Street,14865,42.3464418,-76.8459048
121,South Genesee Street,14865,42.3444597,-76.8496068
115,South Genesee Street,14865,42.3446572,-76.8497239
101,North Genesee Street,14865,42.3451748,-76.8502214
122,North Genesee Street,14865,42.3460722,-76.8503024
118,North Genesee Street,14865,42.3459373,-76.8502230
112,North Genesee Street,14865,42.3457529,-76.8500942
100,Clawson Boulevard,14865,42.3486197,-76.8446512
229,South Catherine Street,14865,42.3440892,-76.8430471
440,East Broadway Street,14865,42.3497745,-76.8381875
332,West Main Street,14865,42.3460002,-76.8489819
271,South Catherine Street,14865,42.3426455,-76.8419940
221,Tracy Street,14865,42.3474175,-76.8473040
102,South Catherine Street,14865,42.3469230,-76.8446290
323,East Main Street,14865,42.3470770,-76.8410625
109,South College Avenue,14865,42.3468795,-76.8411580
211,Henry Street,14865,42.3483680,-76.8476210
255,Owego Street,14865,42.3429490,-76.8434260
235,Canal Street,14865,42.3408510,-76.8446665
123,North Catherine Street,14865,42.3483310,-76.8456930
259,Owego Street,14865,42.3427965,-76.8432750
129,North Catherine Street,14865,42.3485650,-76.8460960
119,South Seneca Street,14865,42.3481780,-76.8427370
212,Henry Street,14865,42.3486435,-76.8471605
214,Henry Street,14865,42.3488965,-76.8474320
116,North Catherine Street,14865,42.3480710,-76.8450775
404,West South Street,14865,42.3449890,-76.8485040
111,North Mulberry Street,14865,42.3478065,-76.8441405
109,South Genesee Street,14865,42.3448280,-76.8500115
117,North Mulberry Street,14865,42.3482405,-76.8440175
105,North Genesee Street,14865,42.3453390,-76.8503848
212,Canal Street,14865,42.3439535,-76.8464870
117,North Genesee Street,14865,42.3457215,-76.8506240
219,Owego Street,14865,42.3443225,-76.8447040
219,South College Avenue,14865,42.3459480,-76.8409710
195,Cook Street,14865,42.3415120,-76.8460570
216,Canal Street,14865,42.3429747,-76.8456317
212,Walker Street,14865,42.3458650,-76.8415310
256,Owego Street,14865,42.3430760,-76.8429135
228,Henry Street,14865,42.3491650,-76.8477855
215,East South Street,14865,42.3462125,-76.8417135
216,Walker Street,14865,42.3458770,-76.8412825
249,Owego Street,14865,42.3431559,-76.8436587
244,Owego Street,14865,42.3435220,-76.8433370
231,Henry Street,14865,42.3491770,-76.8484370
308,East Main Street,14865,42.3474495,-76.8418145
310,South College Avenue,14865,42.3451045,-76.8402030
245,Owego Street,14865,42.3434870,-76.8440110
236,Henry Street,14865,42.3494890,-76.8480360
302,East Main Street,14865,42.3474725,-76.8422310
234,Owego Street,14865,42.3439695,-76.8437655
248,Henry Street,14865,42.3498175,-76.8484895
200,Clawson Boulevard,14865,42.3486895,-76.8434915
208,West Broadway Street,14865,42.3492039,-76.8432506
229,Tracy Street,14865,42.3471300,-76.8479805
221,Canal Street,14865,42.3420080,-76.8457050
189,Cook Street,14865,42.3419730,-76.8466960
607,South College Avenue,14865,42.3420865,-76.8407265
217,Canal Street,14865,42.3422645,-76.8459405
244,South Genesee Street,14865,42.3422135,-76.8474935
239,North Genesee Street,14865,42.3478575,-76.8526785
236,South Genesee Street,14865,42.3424980,-76.8477000
107,South Catherine Street,14865,42.3467115,-76.8451235
119,South Catherine Street,14865,42.3462660,-76.8446980
112,Turner Park,14865,42.3443870,-76.8396665
110,West South Street,14865,42.3459070,-76.8447830
109,South Seneca Street,14865,42.3480630,-76.8428705
208,East Main Street,14865,42.3474140,-76.8429415
124,Turner Park,14865,42.3441400,-76.8388300
235,South Catherine Street,14865,42.3439255,-76.8428542
200,East Main Street,14865,42.3474005,-76.8434660
116,East Main Street,14865,42.3473700,-76.8441555
107,Owego Street,14865,42.3464290,-76.8463815
115,Owego Street,14865,42.3461020,-76.8461840
112,North Mulberry Street,14865,42.3479515,-76.8434415
215,North Genesee Street,14865,42.3467600,-76.8516795
238,Canal Street,14865,42.3407780,-76.8438830
113,West Broadway Street,14865,42.3486625,-76.8442905
208,North Genesee Street,14865,42.3465125,-76.8507535
307,Owego Street,14865,42.3415235,-76.8421475
116,North Mulberry Street,14865,42.3483150,-76.8434630
204,North Genesee Street,14865,42.3463755,-76.8506470
209,Clinton Street,14865,42.3498385,-76.8472930
229,Clinton Street,14865,42.3503340,-76.8480210
120,Owego Street,14865,42.3461215,-76.8455990
211,South Genesee Street,14865,42.3435225,-76.8489640
121,Owego Street,14865,42.3458270,-76.8459320
236,North Genesee Street,14865,42.3483485,-76.8523625
119,West South Street,14865,42.3454138,-76.8450485
249,Henry Street,14865,42.3495365,-76.8487675
200,South College Avenue,14865,42.3465405,-76.8404800
115,West South Street,14865,42.3454980,-76.8448405
241,Henry Street,14865,42.3493625,-76.8485820
205,East Main Street,14865,42.3469750,-76.8430895
233,Owego Street,14865,42.3439790,-76.8443805
208,Owego Street,14865,42.3449730,-76.8446425
108,South College Avenue,14865,42.3469765,-76.8405570
112,South Mulberry Street,14865,42.3466555,-76.8429520
230,Owego Street,14865,42.3441255,-76.8438795
107,Turner Park,14865,42.3435730,-76.8398810
200,East South Street,14865,42.3463860,-76.8428305
227,South Catherine Street,14865,42.3442995,-76.8432520
118,West Broadway Street,14865,42.3496715,-76.8443274
223,North Genesee Street,14865,42.3472540,-76.8520130
235,Tracy Street,14865,42.3469345,-76.8485550
114,Henry Street,14865,42.3475555,-76.8463695
249,Montour Street,14865,42.3428300,-76.8471245
215,Montour Street,14865,42.3439500,-76.8478710
224,South Genesee Street,14865,42.3433280,-76.8481895
208,West South Street,14865,42.3454540,-76.8466035
132,Turner Park,14865,42.3436920,-76.8385240
124,Lee Street,14865,42.3453345,-76.8470345
220,South Catherine Street,14865,42.3446860,-76.8427415
200,Walker Street,14865,42.3456055,-76.8424240
254,Henry Street,14865,42.3502010,-76.8490435
241,Clinton Street,14865,42.3505175,-76.8483010
219,South Catherine Street,14865,42.3446005,-76.8437165
265,North Catherine Street,14865,42.3505475,-76.8509280
311,South Genesee Street,14865,42.3412645,-76.8477710
121,East Main Street,14865,42.3469845,-76.8435845
290,Ayers Street,14865,42.3512185,-76.8479255
215,South Catherine Street,14865,42.3450230,-76.8437690
202,South Catherine Street,14865,42.3457875,-76.8438055
600,South College Avenue,14865,42.3421555,-76.8392317
101,South Catherine Street,14865,42.3468585,-76.8453735
120,Ayers Street,14865,42.3506780,-76.8455255
105,South Mulberry Street,14865,42.3468065,-76.8434915
106,Turner Park,14865,42.3437484,-76.8394233
428,East Main Street,14865,42.3475905,-76.8397320
108,East Main Street,14865,42.3473235,-76.8445730
114,Washington Street,14865,42.3500455,-76.8468210
108,North Catherine Street,14865,42.3476720,-76.8450435
412,West Broadway Street,14865,42.3493145,-76.8408205
225,South Genesee Street,14865,42.3431400,-76.8486675
110,Henry Street,14865,42.3474015,-76.8461935
310,West Broadway Street,14865,42.3492125,-76.8415075
121,Clinton Street,14865,42.3495025,-76.8468670
233,South Genesee Street,14865,42.3422765,-76.8486320
401,West South Street,14865,42.3446038,-76.8481674
117,Clinton Street,14865,42.3493890,-76.8467050
150,Mill Street,14865,42.3437895,-76.8520740
139,North Catherine Street,14865,42.3495770,-76.8462250
203,South Genesee Street,14865,42.3440175,-76.8494300
215,Owego Street,14865,42.3444760,-76.8448710
115,Ayers Street,14865,42.3501020,-76.8459750
207,Owego Street,14865,42.3448730,-76.8451160
206,West South Street,14865,42.3455970,-76.8460495
103,Turner Park,14865,42.3440309,-76.8402217
206,Henry Street,14865,42.3482795,-76.8468665
104,East South Street,14865,42.3461035,-76.8440340
205,East South Street,14865,42.3460920,-76.8423790
203,Henry Street,14865,42.3478780,-76.8471205
124,South Catherine Street,14865,42.3462280,-76.8440940
339,South College Avenue,14865,42.3436455,-76.8411820
216,East South Street,14865,42.3466155,-76.8420775
311,East Main Street,14865,42.3470885,-76.8416395
118,Henry Street,14865,42.3477280,-76.8464510
276,South Catherine Street,14865,42.3425645,-76.8408870
104,West Broadway Street,14865,42.3490410,-76.8451085
308,East South Street,14865,42.3467955,-76.8414880
303,Owego Street,14865,42.3416925,-76.8422910
119,Henry Street,14865,42.3476280,-76.8469145
105,Clinton Street,14865,42.3489970,-76.8461380
267,Owego Street,14865,42.3424950,-76.8429875
409,West Main Street,14865,42.3453170,-76.8493705
215,Henry Street,14865,42.3486895,-76.8478645
408,West South Street,14865,42.3448846,-76.8487812
127,North Catherine Street,14865,42.3485060,-76.8457895
103,Clawson Boulevard,14865,42.3482305,-76.8446340
415,West Main Street,14865,42.3452485,-76.8496005
214,Canal Street,14865,42.3436455,-76.8462885
206,Canal Street,14865,42.3442420,-76.8466565
109,East South Street,14865,42.3458600,-76.8433765
119,Ayers Street,14865,42.3504895,-76.8460720
301,East South Street,14865,42.3463610,-76.8414325
252,Owego Street,14865,42.3432405,-76.8430685
209,South College Avenue,14865,42.3462345,-76.8409735
117,East South Street,14865,42.3459470,-76.8430755
123,Ayers Street,14865,42.3509305,-76.8460995
248,Owego Street,14865,42.3433870,-76.8432005
114,North College Avenue,14865,42.3482255,-76.8406505
208,Walker Street,14865,42.3456950,-76.8420015
206,Clinton Street,14865,42.3503955,-76.8474110
240,Owego Street,14865,42.3436555,-76.8434940
318,East Main Street,14865,42.3474835,-76.8411280
302,West South Street,14865,42.3451230,-76.8477120
217,Henry Street,14865,42.3488610,-76.8481230
230,North Catherine Street,14865,42.3511735,-76.8489345
314,East Main Street,14865,42.3475945,-76.8414930
120,Lee Street,14865,42.3454715,-76.8471520
108,West Broadway Street,14865,42.3490395,-76.8447615
304,East Main Street,14865,42.3474400,-76.8420535
411,West South Street,14865,42.3444765,-76.8487825
110,South Genesee Street,14865,42.3448005,-76.8492260
220,Canal Street,14865,42.3422555,-76.8453530
116,South Catherine Street,14865,42.3465725,-76.8441505
215,Canal Street,14865,42.3426965,-76.8464040
117,East Main Street,14865,42.3469815,-76.8440975
108,South Catherine Street,14865,42.3466880,-76.8445205
104,South College Avenue,14865,42.3471345,-76.8405770
263,Owego Street,14865,42.3426190,-76.8430936
207,Henry Street,14865,42.3481730,-76.8474040
123,South Seneca Street,14865,42.3483330,-76.8427610
112,South Catherine Street,14865,42.3466300,-76.8444360
210,Henry Street,14865,42.3484785,-76.8470655
260,Owego Street,14865,42.3429475,-76.8427415
114,North Mulberry Street,14865,42.3481055,-76.8433665
225,Tracy Street,14865,42.3472740,-76.8476800
212,East Main Street,14865,42.3474185,-76.8426425
219,West Main Street,14865,42.3463065,-76.8468960
204,East Main Street,14865,42.3474285,-76.8432540
114,North Catherine Street,14865,42.3479380,-76.8450995
105,Steuben Street,14865,42.3457140,-76.8511580
115,North Mulberry Street,14865,42.3480705,-76.8439955
111,North Genesee Street,14865,42.3455095,-76.8504730
121,North Genesee Street,14865,42.3458940,-76.8507610
121,West Broadway Street,14865,42.3486520,-76.8440050
227,Owego Street,14865,42.3441815,-76.8445230
219,North Genesee Street,14865,42.3470475,-76.8518465
212,North Genesee Street,14865,42.3466320,-76.8508835
227,Canal Street,14865,42.3415660,-76.8453295
116,Owego Street,14865,42.3462575,-76.8457460
232,Henry Street,14865,42.3493390,-76.8478605
124,Owego Street,14865,42.3459485,-76.8455035
210,Walker Street,14865,42.3457230,-76.8416235
308,South College Avenue,14865,42.3454085,-76.8403145
312,South College Avenue,14865,42.3448575,-76.8402590
201,Owego Street,14865,42.3453125,-76.8455250
244,Henry Street,14865,42.3497065,-76.8483620
239,Owego Street,14865,42.3436455,-76.8441320
415,East Main Street,14865,42.3470030,-76.8400230
235,Owego Street,14865,42.3437945,-76.8442825
253,Henry Street,14865,42.3497190,-76.8493115
236,Owego Street,14865,42.3438155,-76.8436275
252,Henry Street,14865,42.3498910,-76.8486270
314,South College Avenue,14865,42.3446035,-76.8402070
203,West Broadway Street,14865,42.3486995,-76.8431920
226,Owego Street,14865,42.3442980,-76.8440315
245,Henry Street,14865,42.3494430,-76.8486920
301,Clawson Boulevard,14865,42.3484045,-76.8423015
231,Tracy Street,14865,42.3471035,-76.8481140
112,West Broadway Street,14865,42.3490365,-76.8445130
237,Henry Street,14865,42.3492685,-76.8485145
227,Tracy Street,14865,42.3472010,-76.8478560
302,West Broadway Street,14865,42.3491645,-76.8423270
231,North Genesee Street,14865,42.3474635,-76.8525015
305,South Genesee Street,14865,42.3417675,-76.8477665
272,South Catherine Street,14865,42.3427775,-76.8411800
234,South Genesee Street,14865,42.3427310,-76.8478025
240,South Genesee Street,14865,42.3423590,-76.8475550
230,South Genesee Street,14865,42.3430365,-76.8479130
219,Montour Street,14865,42.3437995,-76.8477860
118,Turner Park,14865,42.3443350,-76.8391200
112,West South Street,14865,42.3458385,-76.8451780
123,South Catherine Street,14865,42.3461305,-76.8445070
108,Turner Park,14865,42.3443730,-76.8399400
251,South Catherine Street,14865,42.3433210,-76.8425620
137,Turner Park,14865,42.3438215,-76.8391356
251,Henry Street,14865,42.3497005,-76.8490865
108,North Mulberry Street,14865,42.3477510,-76.8434830
144,Turner Park,14865,42.3433470,-76.8384500
112,Walker Street,14865,42.3455085,-76.8428975
259,North Catherine Street,14865,42.3505950,-76.8502460
243,Canal Street,14865,42.3401730,-76.8442205
223,South Catherine Street,14865,42.3444530,-76.8433720
120,East Main Street,14865,42.3473925,-76.8438765
236,Canal Street,14865,42.3409680,-76.8440790
112,East Main Street,14865,42.3473195,-76.8443450
225,Clinton Street,14865,42.3501995,-76.8478790
104,North Catherine Street,14865,42.3473210,-76.8448515
119,East Main Street,14865,42.3469710,-76.8438935
107,North Catherine Street,14865,42.3472670,-76.8455580
323,Owego Street,14865,42.3408775,-76.8414070
109,North Catherine Street,14865,42.3475985,-76.8455195
139,Turner Park,14865,42.3434355,-76.8390120
217,Clinton Street,14865,42.3500320,-76.8475780
212,South Genesee Street,14865,42.3438965,-76.8485655
213,Clinton Street,14865,42.3499065,-76.8474210
400,South College Avenue,14865,42.3433169,-76.8401202
216,South Genesee Street,14865,42.3436075,-76.8484095
106,Washington Street,14865,42.3500155,-76.8465920
109,West South Street,14865,42.3455639,-76.8445715
229,South Genesee Street,14865,42.3428975,-76.8484620
125,Clinton Street,14865,42.3496280,-76.8470730
154,Mill Street,14865,42.3433955,-76.8516050
204,Owego Street,14865,42.3451360,-76.8447763
212,Owego Street,14865,42.3448270,-76.8444900
220,North Genesee Street,14865,42.3479815,-76.8511415
203,Owego Street,14865,42.3450155,-76.8452940
211,Owego Street,14865,42.3446375,-76.8450675
209,East Main Street,14865,42.3470130,-76.8428130
201,East South Street,14865,42.3460310,-76.8426400
227,North Genesee Street,14865,42.3474225,-76.8521340
107,South Mulberry Street,14865,42.3466230,-76.8434800
338,South College Avenue,14865,42.3435224,-76.8402200
212,East South Street,14865,42.3465805,-76.8423300
105,Turner Park,14865,42.3438602,-76.8399614
117,North Catherine Street,14865,42.3480865,-76.8455905
100,Turner Park,14865,42.3443740,-76.8403090
205,Henry Street,14865,42.3480410,-76.8472635
200,Henry Street,14865,42.3480040,-76.8466655
407,South College Avenue,14865,42.3430635,-76.8408570
301,East Main Street,14865,42.3470185,-76.8422575
116,Schuyler Street,14865,42.3465425,-76.8492814
132,North Catherine Street,14865,42.3492425,-76.8453190
307,South Genesee Street,14865,42.3414420,-76.8483430
211,Montour Street,14865,42.3441081,-76.8479585
315,South Genesee Street,14865,42.3410355,-76.8476525
209,West South Street,14865,42.3450665,-76.8463830
214,West South Street,14865,42.3454030,-76.8468135
207,Montour Street,14865,42.3443175,-76.8480320
231,Canal Street,14865,42.3412495,-76.8450650
140,Mill Street,14865,42.3445315,-76.8521290
245,Clinton Street,14865,42.3506040,-76.8484200
214,Owego Street,14865,42.3448060,-76.8441810
118,Ayers Street,14865,42.3504420,-76.8456240
210,South Catherine Street,14865,42.3453220,-76.8434050
211,South Catherine Street,14865,42.3451940,-76.8438480
122,Ayers Street,14865,42.3510065,-76.8456745
209,South Mulberry Street,14865,42.3457430,-76.8429835
418,East Main Street,14865,42.3475585,-76.8400660
121,Ayers Street,14865,42.3507910,-76.8460650
311,East South Street,14865,42.3465080,-76.8410530
115,North Catherine Street,14865,42.3478100,-76.8455020
114,East South Street,14865,42.3463110,-76.8432610
402,West Broadway Street,14865,42.3492060,-76.8410545
409,West South Street,14865,42.3445385,-76.8485470
306,West Broadway Street,14865,42.3491435,-76.8418590
180,North Catherine Street,14865,42.3509695,-76.8468570
109,Clinton Street,14865,42.3490885,-76.8463980
123,Lee Street,14865,42.3451940,-76.8475415
100,North College Avenue,14865,42.3475570,-76.8406475
105,Washington Street,14865,42.3497290,-76.8464460
116,Lee Street,14865,42.3456940,-76.8471890
316,East Main Street,14865,42.3474705,-76.8413810
206,South Genesee Street,14865,42.3441445,-76.8487565
144,Mill Street,14865,42.3441025,-76.8518245
415,West South Street,14865,42.3444215,-76.8490105
108,South Genesee Street,14865,42.3450065,-76.8492156
106,East South Street,14865,42.3461810,-76.8437145
102,West South Street,14865,42.3459840,-76.8443655
120,South Catherine Street,14865,42.3464020,-76.8442565
304,Owego Street,14865,42.3418535,-76.8412170
117,Henry Street,14865,42.3474095,-76.8468640
109,East Main Street,14865,42.3469040,-76.8444330
307,East Main Street,14865,42.3470605,-76.8418795
335,South College Avenue,14865,42.3441272,-76.8407471
